CYQF;2007-01-01 01:00;CYQF 010100Z 20003KT 15SM SKC M15/M17 A2998 RMK SLP219

CYQF;2007-01-01 02:00;CYQF 010200Z 20004KT 15SM SKC M16/M17 A2997 RMK SLP216

CYQF;2007-01-01 03:00;CYQF 010300Z 00000KT 15SM SKC M16/M18 A2997 RMK SLP224

CYQF;2007-01-01 04:00;CYQF 010400Z 21003KT 15SM SKC M16/M18 A2997 RMK SLP225

CYQF;2007-01-01 05:00;CYQF 010500Z 20006KT 15SM SKC M18/M20 A2996 RMK SLP222

CYQF;2007-01-01 06:00;CYQF 010600Z 22005KT 15SM SKC M15/M17 A2997 RMK SLP216

CYQF;2007-01-01 07:00;CYQF 010700Z 20006KT 15SM SKC M16/M18 A2996 RMK SLP214

CYQF;2007-01-01 08:00;CYQF 010800Z 22003KT 15SM SKC M14/M17 A2995 RMK SLP211

CYQF;2007-01-01 09:00;CYQF 010900Z 19005KT 15SM SKC M14/M17 A2995 RMK SLP205

CYQF;2007-01-01 10:00;CYQF 011000Z 20003KT 15SM FEW210 M15/M18 A2993 RMK CI1 SLP200

CYQF;2007-01-01 11:00;CYQF 011100Z 26007KT 15SM BKN210 M15/M18 A2992 RMK CI2 SLP197

CYQF;2007-01-01 12:00;CYQF 011200Z CCA 20004KT 15SM BKN210 M14/M17 A2991 RMK CI1 SLP198

CYQF;2007-01-01 13:00;CYQF 011300Z 22003KT 15SM OVC210 M13/M16 A2988 RMK CI8 SLP190

CYQF;2007-01-01 14:00;CYQF 011400Z 18003KT 15SM FEW070 OVC210 M13/M15 A2984 RMK AC1CI7 SLP175

CYQF;2007-01-01 15:00;CYQF 011500Z 21006KT 15SM FEW070 BKN210 M13/M15 A2981 RMK AC2CI4 SLP166

CYQF;2007-01-01 16:00;CYQF 011600Z 19006KT 15SM FEW040 FEW070 BKN250 M11/M14 A2977 RMK SC1AC2CI2 SLP156

CYQF;2007-01-01 17:00;CYQF 011700Z 18006KT 15SM FEW070 SCT120 BKN250 M09/M12 A2973 RMK AC2AC2CI1 SLP142

CYQF;2007-01-01 18:00;CYQF 011800Z 17005KT 15SM FEW050 FEW100 BKN250 M05/M10 A2970 RMK SC1AC2CI1 SLP120

CYQF;2007-01-01 19:00;CYQF 011900Z 20004KT 15SM FEW050 BKN100 BKN250 M04/M08 A2965 RMK SC2AC2CI1 SLP102

CYQF;2007-01-01 20:00;CYQF 012000Z 19004KT 15SM FEW050 BKN090 BKN250 M04/M08 A2962 RMK SC2AC4CI1 VIRGA DIST W-NW SLP095

CYQF;2007-01-01 21:00;CYQF 012100Z 00000KT 15SM FEW050 BKN090 BKN250 M03/M07 A2960 RMK SC2AC4CI1 VIRGA SW+DIST W-NW SLP078

CYQF;2007-01-01 22:00;CYQF 012200Z 18002KT 15SM FEW050 BKN090 BKN250 M01/M06 A2957 RMK SC2AC4CI1 VIRGA S+DIST NW-N SLP069

CYQF;2007-01-01 23:00;CYQF 012300Z 00000KT 15SM FEW050 BKN090 BKN250 M03/M06 A2956 RMK SC1AC5CI1 VIRGA NE+SE SLP068

CYQF;2007-01-02 00:00;CYQF 020000Z 00000KT 15SM BKN090 BKN250 M04/M08 A2957 RMK AC5CI2 SLP073

CYQF;2007-01-02 01:00;CYQF 020100Z 17005KT 15SM SCT090 BKN250 M03/M05 A2956 RMK AC4CI2 SLP067

CYQF;2007-01-02 02:00;CYQF 020200Z 19005KT 15SM FEW090 BKN250 M04/M07 A2958 RMK AC2CI2 SLP075

CYQF;2007-01-02 03:00;CYQF 020300Z 19005KT 15SM FEW090 BKN250 M04/M07 A2957 RMK AC2CI2 SLP071

CYQF;2007-01-02 04:00;CYQF 020400Z 22010KT 15SM FEW090 BKN250 M02/M06 A2959 RMK AC2CS2 SLP076

CYQF;2007-01-02 05:00;CYQF 020500Z 22004KT 15SM SCT100 OVC250 M01/M05 A2955 RMK AC4CI2 SLP064

CYQF;2007-01-02 06:00;CYQF 020600Z 27004KT 15SM FEW100 BKN250 M02/M06 A2954 RMK AC2CI2 SLP049

CYQF;2007-01-02 07:00;CYQF 020700Z 23005KT 15SM FEW100 BKN250 M01/M06 A2952 RMK AC2CI1 SLP043

CYQF;2007-01-02 08:00;CYQF 020800Z 18005KT 15SM BKN100 OVC250 M02/M06 A2950 RMK AC6CI1 SLP037

CYQF;2007-01-02 09:00;CYQF 020900Z 00000KT 15SM OVC100 M02/M05 A2949 RMK AS7 SLP029

CYQF;2007-01-02 10:00;CYQF 021000Z 00000KT 15SM OVC100 M03/M06 A2949 RMK AS7 SLP028

CYQF;2007-01-02 11:00;CYQF 021100Z 00000KT 15SM OVC100 M03/M06 A2950 RMK AC7 SLP032

CYQF;2007-01-02 12:00;CYQF 021200Z 00000KT 15SM BKN100 BKN250 M03/M06 A2951 RMK AC5CI0 SLP038

CYQF;2007-01-02 13:00;CYQF 021300Z 19005KT 15SM FEW100 SCT250 M07/M09 A2952 RMK AC2CI0 SLP040

CYQF;2007-01-02 14:00;CYQF 021400Z 20009KT 15SM FEW100 SCT250 M05/M08 A2948 RMK AC2CI1 SLP030

CYQF;2007-01-02 15:00;CYQF 021500Z 21008KT 15SM BKN100 BKN250 M02/M06 A2946 RMK AC5CI2 SLP020

CYQF;2007-01-02 16:00;CYQF 021600Z 20004KT 15SM BKN100 BKN250 M01/M06 A2947 RMK AC6CI2 SLP022

CYQF;2007-01-02 17:00;CYQF 021700Z 18006KT 15SM BKN110 BKN250 M03/M06 A2945 RMK AC6CI2 SLP015

CYQF;2007-01-02 18:00;CYQF 021800Z 16008KT 15SM BKN110 BKN250 02/M04 A2940 RMK AC6CI2 SLP994

CYQF;2007-01-02 19:00;CYQF 021900Z 21008KT 15SM BKN110 OVC250 03/M02 A2934 RMK AC6CI2 SLP975

CYQF;2007-01-02 20:00;CYQF 022000Z 17010KT 15SM BKN110 BKN250 04/M02 A2928 RMK AC5CI2 SLP955

CYQF;2007-01-02 21:00;CYQF 022100Z 16012KT 15SM BKN110 BKN250 04/M01 A2922 RMK AC5CI2 SLP927

CYQF;2007-01-02 22:00;CYQF 022200Z 17012KT 15SM BKN100 BKN250 06/M01 A2917 RMK AC5CI2 SLP911

CYQF;2007-01-02 23:00;CYQF 022300Z 18014KT 15SM BKN100 BKN250 05/M01 A2914 RMK AC5CI1 SLP901

CYQF;2007-01-03 00:00;CYQF 030000Z 20015KT 15SM FEW040 BKN100 BKN250 06/M01 A2912 RMK SC2AC3CI1 SLP891

CYQF;2007-01-03 01:00;CYQF 030100Z 19012KT 15SM FEW100 FEW250 04/M01 A2910 RMK AC2CI1 SLP886

CYQF;2007-01-03 02:00;CYQF 030200Z 22020G25KT 15SM FEW100 FEW250 07/M02 A2911 RMK AC1CI0 SLP887

CYQF;2007-01-03 03:00;CYQF 030300Z 22018G25KT 15SM FEW250 05/M01 A2911 RMK CI1 SLP887

CYQF;2007-01-03 04:00;CYQF 030400Z 22018G26KT 15SM FEW250 05/M01 A2912 RMK CI1 SLP891

CYQF;2007-01-03 05:00;CYQF 030500Z 22012G18KT 15SM FEW250 04/M01 A2913 RMK CI1 SLP894

CYQF;2007-01-03 06:00;CYQF 030600Z 25012KT 15SM FEW250 04/M02 A2916 RMK CI2 SLP901

CYQF;2007-01-03 07:00;CYQF 030700Z 23010KT 15SM FEW120 02/M04 A2916 RMK AC2 SLP900

CYQF;2007-01-03 08:00;CYQF 030800Z 24010KT 15SM FEW120 03/M05 A2915 RMK AC1 SLP898

CYQF;2007-01-03 09:00;CYQF 030900Z 24015KT 15SM FEW120 02/M05 A2916 RMK AC1 SLP900

CYQF;2007-01-03 10:00;CYQF 031000Z 24013G19KT 15SM FEW120 02/M04 A2917 RMK AC2 SLP906

CYQF;2007-01-03 11:00;CYQF 031100Z 23014KT 15SM BKN100 02/M04 A2918 RMK AC5 SLP909

CYQF;2007-01-03 12:00;CYQF 031200Z 23013KT 15SM BKN090 01/M05 A2919 RMK AC6 SLP911

CYQF;2007-01-03 13:00;CYQF 031300Z 23010KT 15SM SCT090 BKN250 01/M06 A2920 RMK AC2CI2 SLP913

CYQF;2007-01-03 14:00;CYQF 031400Z 23010KT 15SM FEW090 BKN250 00/M07 A2921 RMK AC2CI2 SLP918

CYQF;2007-01-03 15:00;CYQF 031500Z 21006KT 15SM SCT090 BKN250 M03/M08 A2924 RMK AC2CI2 SLP932

CYQF;2007-01-03 16:00;CYQF 031600Z 25006KT 15SM SCT090 BKN250 M04/M09 A2926 RMK AC2CI2 SLP938

CYQF;2007-01-03 17:00;CYQF 031700Z 25005KT 15SM SCT090 BKN250 M03/M08 A2928 RMK AC2CI2 SLP945

CYQF;2007-01-03 18:00;CYQF 031800Z 24008KT 15SM FEW100 BKN250 M00/M08 A2929 RMK AC2CI2 SLP948

CYQF;2007-01-03 19:00;CYQF 031900Z 25007KT 15SM FEW100 SCT250 00/M07 A2928 RMK AC1CI1 SLP945

CYQF;2007-01-03 20:00;CYQF 032000Z 27008KT 15SM FEW100 FEW250 02/M07 A2927 RMK AC1CI1 SLP944

CYQF;2007-01-03 21:00;CYQF 032100Z 29003KT 15SM FEW100 FEW250 03/M07 A2927 RMK AC1CI0 SLP943

CYQF;2007-01-03 22:00;CYQF 032200Z 20003KT 15SM FEW100 FEW250 02/M07 A2930 RMK AC1CI0 SLP950

CYQF;2007-01-03 23:00;CYQF 032300Z 32003KT 15SM FEW050 FEW100 M02/M08 A2931 RMK SC1AC1 SLP954

CYQF;2007-01-04 00:00;CYQF 040000Z 34004KT 15SM FEW050 FEW100 M02/M09 A2932 RMK SC1AC1 SLP966

CYQF;2007-01-04 01:00;CYQF 040100Z 30004KT 15SM FEW090 M05/M11 A2933 RMK AC1 SLP969

CYQF;2007-01-04 02:00;CYQF 040200Z 16003KT 15SM FEW090 M07/M11 A2935 RMK AC1 SLP974

CYQF;2007-01-04 03:00;CYQF 040300Z 21003KT 15SM FEW090 M08/M12 A2936 RMK AC1 SLP990

CYQF;2007-01-04 04:00;CYQF 040400Z 18003KT 15SM FEW090 FEW260 M09/M13 A2936 RMK AC1CI1 SLP991

CYQF;2007-01-04 05:00;CYQF 040500Z 19004KT 15SM FEW090 SCT260 M10/M13 A2938 RMK AC1CI2 SLP995

CYQF;2007-01-04 06:00;CYQF 040600Z 20004KT 15SM FEW090 BKN260 M10/M14 A2939 RMK AC1CI2 SLP001

CYQF;2007-01-04 07:00;CYQF 040700Z 29004KT 15SM FEW090 BKN260 M11/M15 A2940 RMK AC1CI2 SLP002

CYQF;2007-01-04 08:00;CYQF 040800Z 19004KT 15SM BKN250 M11/M15 A2940 RMK CI2 SLP002

CYQF;2007-01-04 09:00;CYQF 040900Z 20004KT 15SM SCT250 M11/M14 A2941 RMK CI2 SLP005

CYQF;2007-01-04 10:00;CYQF 041000Z 20005KT 15SM FEW100 BKN250 M11/M14 A2943 RMK AC1CI2 SLP009

CYQF;2007-01-04 11:00;CYQF 041100Z 21005KT 15SM FEW100 BKN250 M11/M14 A2942 RMK AC1CI2 SLP008

CYQF;2007-01-04 12:00;CYQF 041200Z 15005KT 15SM BKN100 BKN250 M10/M14 A2943 RMK AC5CI1 SLP016

CYQF;2007-01-04 13:00;CYQF 041300Z 00000KT 15SM BKN090 BKN250 M09/M12 A2943 RMK AC6CI1 SLP017

CYQF;2007-01-04 14:00;CYQF 041400Z 18005KT 15SM BKN100 BKN250 M10/M13 A2943 RMK AC5CI0 SLP015

CYQF;2007-01-04 15:00;CYQF 041500Z 17007KT 15SM BKN080 BKN250 M10/M13 A2944 RMK AC5CI1 SLP026

CYQF;2007-01-04 16:00;CYQF 041600Z 20003KT 15SM SCT080 BKN220 M09/M12 A2946 RMK AC3CI2 VIRGA SLP030

CYQF;2007-01-04 17:00;CYQF 041700Z 18005KT 15SM SCT080 BKN240 M08/M12 A2946 RMK AC3CI2 VIRGA SLP032

CYQF;2007-01-04 18:00;CYQF 041800Z 26004KT 15SM FEW070 BKN240 M08/M12 A2948 RMK AC2CI2 SLP040

CYQF;2007-01-04 19:00;CYQF 041900Z 18004KT 15SM FEW070 SCT240 M06/M11 A2948 RMK AC2CI1 SLP039

CYQF;2007-01-04 20:00;CYQF 042000Z 20005KT 15SM FEW080 SCT240 M04/M10 A2947 RMK AC1CI1 SLP038

CYQF;2007-01-04 21:00;CYQF 042100Z 20004KT 15SM FEW080 SCT240 M03/M09 A2948 RMK AC1CI2 SLP034

CYQF;2007-01-04 22:00;CYQF 042200Z 20003KT 15SM FEW080 BKN240 M04/M09 A2950 RMK AC2CI1 SLP041

CYQF;2007-01-04 23:00;CYQF 042300Z 00000KT 15SM FEW080 BKN240 M04/M10 A2952 RMK AC2CI2 SLP048

CYQF;2007-01-05 00:00;CYQF 050000Z 00000KT 15SM BKN080 BKN240 M08/M11 A2956 RMK AC5CI0 SLP066

CYQF;2007-01-05 01:00;CYQF 050100Z 17003KT 15SM BKN090 BKN240 M08/M12 A2957 RMK AC5CI1 SLP072

CYQF;2007-01-05 02:00;CYQF 050200Z 00000KT 15SM BKN090 BKN250 M09/M12 A2959 RMK AC5CI1 SLP078

CYQF;2007-01-05 03:00;CYQF 050300Z 27008KT 15SM BKN090 OVC250 M05/M10 A2963 RMK AC6CI2 SLP086

CYQF;2007-01-05 04:00;CYQF 050400Z 28013KT 15SM BKN090 OVC250 M03/M08 A2964 RMK AC6CI2 SLP091

CYQF;2007-01-05 05:00;CYQF 050500Z 28010KT 15SM BKN090 OVC250 M04/M07 A2967 RMK AC6CI1 SLP101

CYQF;2007-01-05 06:00;CYQF 050600Z 29010KT 15SM BKN090 OVC250 M03/M06 A2970 RMK AC7CI1 SLP110

CYQF;2007-01-05 06:13;CYQF 050613Z 31010KT 10SM -SN SCT025 OVC090 M03/M06 RMK SC4AC4

CYQF;2007-01-05 07:00;CYQF 050700Z 30002KT 6SM -SN SCT025 BKN090 OVC250 M04/M05 A2972 RMK SC3AC2CI2 SLP115

CYQF;2007-01-05 08:00;CYQF 050800Z 22006KT 8SM -SN SCT040 BKN090 OVC250 M06/M08 A2973 RMK SC3AC3CI2 SLP117

CYQF;2007-01-05 08:42;CYQF 050842Z 20005KT 15SM SCT030 BKN090 OVC250 RMK SC3AC3CI2

CYQF;2007-01-05 09:00;CYQF 050900Z 22005KT 15SM SCT030 BKN080 BKN250 M06/M07 A2974 RMK SC3AC2CI1 SLP120

CYQF;2007-01-05 10:00;CYQF 051000Z 32003KT 15SM SCT030 BKN250 M07/M08 A2977 RMK SC4CI2 TCU SE SLP129

CYQF;2007-01-05 11:00;CYQF 051100Z 35005KT 15SM BKN030 M06/M07 A2979 RMK SC6 SLP136

CYQF;2007-01-05 11:22;CYQF 051122Z 05007KT 5SM -SN OVC025 RMK SC8

CYQF;2007-01-05 12:00;CYQF 051200Z 36004KT 8SM -SN BKN025 M06/M07 A2981 RMK SC7 SLP148

CYQF;2007-01-05 13:00;CYQF 051300Z 17006KT 15SM -SN BKN025 M08/M08 A2981 RMK SC6 SLP148

CYQF;2007-01-05 13:30;CYQF 051330Z 20008KT 15SM SCT025 RMK SC4

CYQF;2007-01-05 14:00;CYQF 051400Z 22008KT 15SM FEW030 M09/M10 A2981 RMK SC2 SLP148

CYQF;2007-01-05 15:00;CYQF 051500Z 20008KT 15SM SKC M11/M13 A2979 RMK SLP144

CYQF;2007-01-05 16:00;CYQF 051600Z 20008KT 12SM SKC M12/M13 A2978 RMK BR SLP141

CYQF;2007-01-05 17:00;CYQF 051700Z 18007KT 15SM FEW250 M12/M15 A2975 RMK CI1 SLP132

CYQF;2007-01-05 18:00;CYQF 051800Z 19008KT 15SM BKN250 M10/M15 A2972 RMK CI2 SLP117

CYQF;2007-01-05 19:00;CYQF 051900Z 18008KT 15SM FEW120 BKN250 M07/M13 A2966 RMK AC1CI2 SLP101

CYQF;2007-01-05 20:00;CYQF 052000Z 18009KT 15SM FEW120 BKN250 M06/M11 A2962 RMK AC1CI2 SLP087

CYQF;2007-01-05 21:00;CYQF 052100Z 20004KT 15SM FEW120 BKN250 M05/M11 A2958 RMK AC1CI2 SLP065

CYQF;2007-01-05 22:00;CYQF 052200Z 20008KT 15SM SCT120 BKN250 M04/M11 A2955 RMK AC4CI2 SLP056

CYQF;2007-01-05 23:00;CYQF 052300Z 22008KT 15SM BKN100 BKN250 M02/M09 A2955 RMK AC6CI1 SLP055

CYQF;2007-01-06 00:00;CYQF 060000Z 21007KT 15SM BKN100 BKN250 M03/M09 A2952 RMK AC6CI1 SLP043

CYQF;2007-01-06 01:00;CYQF 060100Z 20008KT 15SM BKN090 BKN250 M03/M10 A2948 RMK AC6CI1 SLP031

CYQF;2007-01-06 02:00;CYQF 060200Z 19007KT 15SM BKN090 OVC250 M03/M09 A2945 RMK AC6CI1 SLP020

CYQF;2007-01-06 03:00;CYQF 060300Z 22010G19KT 15SM BKN090 OVC250 M01/M09 A2938 RMK AC6CI2 VIRGA PRESFR SLP000

CYQF;2007-01-06 04:00;CYQF 060400Z 21013KT 15SM BKN090 OVC250 M01/M09 A2935 RMK AC6CI2 VIRGA SLP990

CYQF;2007-01-06 05:00;CYQF 060500Z 18008KT 15SM BKN090 OVC250 M01/M09 A2931 RMK AC6CI2 VIRGA SLP976

CYQF;2007-01-06 06:00;CYQF 060600Z 20011KT 15SM BKN090 OVC250 M02/M09 A2928 RMK AC7CI1 SLP964

CYQF;2007-01-06 07:00;CYQF 060700Z 20010KT 15SM BKN090 OVC250 M02/M09 A2924 RMK AC6CI2 SLP950

CYQF;2007-01-06 08:00;CYQF 060800Z 20004KT 15SM BKN090 OVC250 M02/M08 A2921 RMK AC5CI2 SLP941

CYQF;2007-01-06 09:00;CYQF 060900Z 21004KT 15SM BKN090 OVC250 M03/M09 A2918 RMK AC6CI2 SLP923

CYQF;2007-01-06 10:00;CYQF 061000Z 26005KT 15SM BKN090 OVC250 M02/M09 A2918 RMK AC6CI2 VIRGA SLP924

CYQF;2007-01-06 11:00;CYQF 061100Z 28004KT 15SM BKN090 OVC250 M02/M09 A2918 RMK AC5CI3 SLP924

CYQF;2007-01-06 12:00;CYQF 061200Z 29012G18KT 15SM BKN090 OVC250 M00/M10 A2920 RMK AC6CI2 SLP924

CYQF;2007-01-06 13:00;CYQF 061300Z 30010KT 15SM FEW030 OVC090 M02/M09 A2926 RMK SC2AC6 PRESRR VIRGA SLP942

CYQF;2007-01-06 14:00;CYQF 061400Z 32020G30KT 15SM FEW030 OVC090 00/M09 A2933 RMK SC2AC6 PRESRR SLP966

CYQF;2007-01-06 15:00;CYQF 061500Z 33015G25KT 15SM BKN090 OVC250 M02/M05 A2938 RMK AC6CI2 SLP987

CYQF;2007-01-06 16:00;CYQF 061600Z 33017G26KT 15SM SCT090 BKN250 M02/M07 A2944 RMK AC4CI2 SLP007

CYQF;2007-01-06 17:00;CYQF 061700Z 33015G23KT 15SM SCT080 BKN250 M03/M08 A2950 RMK AC3CI1 SLP024

CYQF;2007-01-06 18:00;CYQF 061800Z 34015G24KT 15SM FEW080 BKN250 M02/M10 A2956 RMK AC2CI1 SLP050

CYQF;2007-01-06 19:00;CYQF 061900Z 33013G20KT 15SM FEW030 FEW090 SCT250 M03/M11 A2958 RMK SC1AC1CI1 SLP057

CYQF;2007-01-06 20:00;CYQF 062000Z 32015G20KT 15SM FEW030 FEW250 M02/M11 A2963 RMK SC1CI1 SLP073

CYQF;2007-01-06 21:00;CYQF 062100Z 31012G20KT 15SM FEW030 SCT090 SCT250 M02/M11 A2968 RMK SC1AC2CI1 SLP093

CYQF;2007-01-06 22:00;CYQF 062200Z 30010KT 15SM FEW030 FEW090 M03/M12 A2973 RMK SC1AC2 VIRGA SLP110

CYQF;2007-01-06 23:00;CYQF 062300Z 29008KT 15SM FEW030 FEW090 M03/M13 A2977 RMK SC1AC1 SLP123

CYQF;2007-01-07 00:00;CYQF 070000Z 29006KT 15SM FEW030 FEW200 M06/M14 A2981 RMK SC1CI1 SC TR SLP140

CYQF;2007-01-07 01:00;CYQF 070100Z 28010KT 15SM FEW030 FEW200 M06/M16 A2985 RMK SC1CI0 SLP153

CYQF;2007-01-07 02:00;CYQF 070200Z 26007KT 15SM SKC M07/M17 A2988 RMK SLP164

CYQF;2007-01-07 03:00;CYQF 070300Z 23006KT 15SM FEW100 BKN250 M10/M17 A2989 RMK AC1CI2 SLP175

CYQF;2007-01-07 04:00;CYQF 070400Z 23007KT 15SM FEW100 SCT250 M12/M19 A2991 RMK AC2CI1 SLP182

CYQF;2007-01-07 05:00;CYQF 070500Z 23008KT 15SM BKN100 M09/M16 A2992 RMK AC6 SLP185

CYQF;2007-01-07 06:00;CYQF 070600Z 23009KT 15SM FEW100 M09/M17 A2993 RMK AC2 SLP188

CYQF;2007-01-07 07:00;CYQF 070700Z 23009KT 15SM FEW100 M10/M17 A2993 RMK AC2 SLP189

CYQF;2007-01-07 08:00;CYQF 070800Z 22009KT 15SM SKC M12/M18 A2993 RMK SLP187

CYQF;2007-01-07 09:00;CYQF 070900Z 21006KT 15SM SKC M13/M18 A2991 RMK SLP185

CYQF;2007-01-07 10:00;CYQF 071000Z 22007KT 15SM SKC M12/M18 A2989 RMK SLP180

CYQF;2007-01-07 11:00;CYQF 071100Z 19006KT 15SM SCT240 M11/M17 A2986 RMK CS1 SLP169

CYQF;2007-01-07 12:00;CYQF 071200Z 18007KT 15SM OVC210 M09/M15 A2981 RMK CS4 SLP151

CYQF;2007-01-07 13:00;CYQF 071300Z 17007KT 15SM OVC150 M07/M13 A2974 RMK AC7 SLP129

CYQF;2007-01-07 14:00;CYQF 071400Z 17008KT 15SM OVC100 M06/M12 A2967 RMK AC8 PRESFR SLP109

CYQF;2007-01-07 14:40;CYQF 071440Z 17008KT 15SM -SN OVC100 RMK AC8

CYQF;2007-01-07 15:00;CYQF 071500Z 17009KT 15SM OVC100 M04/M10 A2962 RMK AC8 SLP082

CYQF;2007-01-07 16:00;CYQF 071600Z 16007KT 15SM FEW040 OVC100 M03/M09 A2956 RMK SC1AS8 SC TR SLP064

CYQF;2007-01-07 17:00;CYQF 071700Z 17010KT 15SM FEW040 SCT100 BKN250 M02/M10 A2951 RMK SC1AC2CI0 SLP049

CYQF;2007-01-07 18:00;CYQF 071800Z 19010KT 15SM SCT100 BKN250 M02/M09 A2946 RMK AC3CI0 SLP026

CYQF;2007-01-07 19:00;CYQF 071900Z 23010KT 15SM SCT090 BKN250 00/M07 A2942 RMK AC3CI0 SLP012

CYQF;2007-01-07 20:00;CYQF 072000Z CCA 24008KT 15SM BKN090 BKN250 02/M07 A2941 RMK AC6CI1 VIRGA SLP010

CYQF;2007-01-07 21:00;CYQF 072100Z 23006KT 15SM BKN090 BKN250 01/M07 A2941 RMK AC5CI1 VIRGA SLP007

CYQF;2007-01-07 22:00;CYQF 072200Z 25008KT 15SM FEW090 SCT250 03/M07 A2941 RMK AC2CI0 SLP008

CYQF;2007-01-07 23:00;CYQF 072300Z 27012KT 15SM FEW030 SCT090 SCT250 04/M09 A2945 RMK SC1AC2CI0 SLP020

CYQF;2007-01-08 00:00;CYQF 080000Z 27012KT 15SM FEW090 02/M08 A2947 RMK AC2 SLP025

CYQF;2007-01-08 01:00;CYQF 080100Z 27013KT 15SM FEW090 01/M08 A2949 RMK AC2 SLP030

CYQF;2007-01-08 02:00;CYQF 080200Z 28010KT 15SM FEW250 01/M08 A2951 RMK CI2 SLP035

CYQF;2007-01-08 03:00;CYQF 080300Z 27010KT 15SM BKN090 BKN250 01/M08 A2953 RMK AC5CI2 SLP040

CYQF;2007-01-08 04:00;CYQF 080400Z 27008KT 15SM BKN090 BKN250 M01/M07 A2957 RMK AC5CI2 SLP053

CYQF;2007-01-08 05:00;CYQF 080500Z 30005KT 15SM SCT090 BKN250 M02/M08 A2960 RMK AC4CI2 VIRGA NW-N SLP063

CYQF;2007-01-08 06:00;CYQF 080600Z CCA 31015G23KT 15SM BKN090 OVC250 03/M08 A2965 RMK AC6CI2 SHS NE SLP079

CYQF;2007-01-08 07:00;CYQF 080700Z 27010KT 15SM BKN090 00/M07 A2970 RMK AC7 SLP094

CYQF;2007-01-08 08:00;CYQF 080800Z 30010G15KT 15SM BKN090 00/M07 A2973 RMK AC7 SLP104

CYQF;2007-01-08 09:00;CYQF 080900Z 32018G30KT 15SM SCT090 01/M07 A2980 RMK AC4 PRESRR VIRGA NW-NE SLP127

CYQF;2007-01-08 10:00;CYQF 081000Z 33030G45KT 15SM FEW090 M01/M10 A2987 RMK AC1 PRESRR SLP151

CYQF;2007-01-08 11:00;CYQF 081100Z 33030G43KT 15SM FEW090 M02/M14 A2997 RMK AC1 PRESRR SLP180

CYQF;2007-01-08 12:00;CYQF 081200Z CCA 31030G47KT 15SM FEW090 M03/M14 A3005 RMK AC2 PRESRR SLP219

CYQF;2007-01-08 13:00;CYQF 081300Z 31025G43KT 15SM FEW090 SCT210 M03/M14 A3011 RMK AC1CI1 SLP237

CYQF;2007-01-08 14:00;CYQF 081400Z 31025G38KT 15SM SKC M04/M12 A3016 RMK PEAK GUST 46KT 1349Z SLP253

CYQF;2007-01-08 15:00;CYQF 081500Z 32020G30KT 15SM SKC M05/M13 A3021 RMK SLP277

CYQF;2007-01-08 16:00;CYQF 081600Z 29012KT 15SM BKN220 M06/M14 A3024 RMK CI2 SLP286

CYQF;2007-01-08 17:00;CYQF 081700Z 30015KT 15SM BKN220 M05/M14 A3028 RMK CI2 CC ASOCTD SLP298

CYQF;2007-01-08 18:00;CYQF 081800Z 29013KT 15SM SCT220 M05/M15 A3030 RMK CI2 SLP307

CYQF;2007-01-08 19:00;CYQF 081900Z 29008KT 15SM BKN250 M05/M14 A3029 RMK CI4 SLP305

CYQF;2007-01-08 20:00;CYQF 082000Z 28008KT 15SM BKN250 M04/M15 A3029 RMK CI2 SLP303

CYQF;2007-01-08 21:00;CYQF 082100Z 22005KT 15SM BKN250 M05/M13 A3028 RMK CI2 SLP303

CYQF;2007-01-08 22:00;CYQF 082200Z 20004KT 15SM OVC220 M07/M13 A3029 RMK CI4 SLP306

CYQF;2007-01-08 23:00;CYQF 082300Z 18004KT 15SM OVC220 M07/M14 A3029 RMK CI6 SLP304

CYQF;2007-01-09 00:00;CYQF 090000Z 21005KT 15SM OVC220 M10/M15 A3029 RMK CI6 SLP314

CYQF;2007-01-09 01:00;CYQF 090100Z 21006KT 15SM FEW090 BKN250 M09/M17 A3026 RMK AC2CI3 SLP307

CYQF;2007-01-09 02:00;CYQF 090200Z 21005KT 15SM FEW090 SCT250 M10/M17 A3025 RMK AC1CI2 SLP304

CYQF;2007-01-09 03:00;CYQF 090300Z 22006KT 15SM FEW090 BKN250 M10/M17 A3024 RMK AC2CI4 SLP299

CYQF;2007-01-09 04:00;CYQF 090400Z 19006KT 15SM FEW090 OVC250 M10/M16 A3021 RMK AC2CI4 SLP292

CYQF;2007-01-09 05:00;CYQF 090500Z 21005KT 15SM BKN100 OVC250 M10/M16 A3019 RMK AC5CI2 SLP284

CYQF;2007-01-09 06:00;CYQF 090600Z 20005KT 15SM BKN100 OVC250 M09/M15 A3015 RMK AC5CI2 SLP267

CYQF;2007-01-09 07:00;CYQF 090700Z 19006KT 15SM BKN100 OVC250 M09/M14 A3011 RMK AC6CI2 SLP256

CYQF;2007-01-09 08:00;CYQF 090800Z 15005KT 15SM BKN100 OVC250 M07/M14 A3006 RMK AC6CI2 SLP241

CYQF;2007-01-09 09:00;CYQF 090900Z 16005KT 15SM BKN100 OVC250 M07/M13 A3002 RMK AC6CI2 SLP220

CYQF;2007-01-09 09:32;CYQF 090932Z 21007KT 6SM -SN BKN018 OVC100 RMK SC6AC2

CYQF;2007-01-09 10:00;CYQF 091000Z 21007KT 1SM -SN VV015 M05/M06 A3000 RMK SN8 SLP213

CYQF;2007-01-09 11:00;CYQF 091100Z 15007KT 15SM SCT020 OVC100 M04/M06 A2994 RMK SC3AC5 SLP195

CYQF;2007-01-09 12:00;CYQF 091200Z 14010KT 15SM FEW020 BKN100 OVC250 M04/M06 A2991 RMK SC2AC4CI2 SLP184

CYQF;2007-01-09 13:00;CYQF 091300Z 13010KT 15SM SCT100 BKN250 M04/M07 A2985 RMK AC3CI2 SLP168

CYQF;2007-01-09 14:00;CYQF 091400Z 14010KT 15SM SCT100 BKN250 M05/M08 A2982 RMK AC4CI2 SLP156

CYQF;2007-01-09 15:00;CYQF 091500Z 14010KT 15SM SCT100 BKN250 M05/M09 A2978 RMK AC3CI2 SLP140

CYQF;2007-01-09 16:00;CYQF 091600Z 14012KT 15SM BKN100 OVC250 M05/M11 A2973 RMK AC6CI1 SLP126

CYQF;2007-01-09 17:00;CYQF 091700Z 14007KT 15SM BKN100 BKN250 M05/M11 A2972 RMK AC6CI1 SLP123

CYQF;2007-01-09 18:00;CYQF 091800Z 15010KT 15SM BKN100 OVC250 M06/M13 A2969 RMK AC6CI2 VIRGA DIST N SLP108

CYQF;2007-01-09 19:00;CYQF 091900Z 14010G15KT 15SM SCT050 BKN090 OVC250 M06/M13 A2963 RMK SC3AC3CI2 VIRGA DIST N SLP090

CYQF;2007-01-09 20:00;CYQF 092000Z 15010KT 15SM FEW050 BKN090 OVC250 M06/M11 A2956 RMK SC2AC4CI2 PRESFR SLP070

CYQF;2007-01-09 21:00;CYQF 092100Z 15012KT 15SM FEW050 BKN090 OVC250 M05/M10 A2952 RMK SC2AC4CI1 SLP048

CYQF;2007-01-09 22:00;CYQF 092200Z 15008KT 15SM FEW050 BKN090 BKN250 M05/M09 A2947 RMK SC2AC4CI1 SLP032

CYQF;2007-01-09 23:00;CYQF 092300Z 15010KT 15SM FEW050 BKN090 BKN250 M05/M08 A2942 RMK SC2AC5CI1 SLP015

CYQF;2007-01-10 00:00;CYQF 100000Z 15008KT 15SM FEW050 BKN090 BKN250 M06/M08 A2937 RMK SC1AC4CI1 SLP993

CYQF;2007-01-10 01:00;CYQF 100100Z 16010G15KT 15SM SCT090 BKN250 M06/M08 A2930 RMK AC3CI1 PRESFR SLP970

CYQF;2007-01-10 02:00;CYQF 100200Z 18010KT 15SM FEW090 BKN250 M06/M09 A2923 RMK AC2CI2 PRESFR SLP949

CYQF;2007-01-10 03:00;CYQF 100300Z 12006KT 15SM SCT090 M07/M09 A2918 RMK AC2 SLP927

CYQF;2007-01-10 04:00;CYQF 100400Z 00000KT 15SM FEW090 M06/M09 A2913 RMK AC1 SLP911

CYQF;2007-01-10 05:00;CYQF 100500Z 00000KT 15SM FEW090 M10/M12 A2909 RMK AC1 SLP900

CYQF;2007-01-10 06:00;CYQF 100600Z 35007KT 15SM FEW090 M10/M11 A2908 RMK AC1 SLP897

CYQF;2007-01-10 07:00;CYQF 100700Z 36012KT 15SM FEW090 M09/M11 A2907 RMK AC1 SLP895

CYQF;2007-01-10 08:00;CYQF 100800Z 33014G19KT 10SM BKN007 OVC090 M09/M11 A2915 RMK SC6AC1 PRESRR SLP918

CYQF;2007-01-10 09:00;CYQF 100900Z 33015G22KT 10SM OVC011 M08/M10 A2919 RMK SC8 SLP934

CYQF;2007-01-10 10:00;CYQF 101000Z 33028G35KT 8SM OVC012 M08/M11 A2923 RMK SC8 BLSN SLP945

CYQF;2007-01-10 10:11;CYQF 101011Z 33023G32KT 2SM BLSN OVC012 RMK SC8

CYQF;2007-01-10 10:28;CYQF 101028Z 33022G28KT 1/2SM -SN BLSN VV009 RMK BLSN8

CYQF;2007-01-10 11:00;CYQF 101100Z 32019G26KT 3/4SM -SN BLSN VV012 M09/M10 A2932 RMK BLSN8 VIS VRBL 1/2-1 SLP973

CYQF;2007-01-10 11:21;CYQF 101121Z 32023G34KT 1/8SM -SN +BLSN VV012 RMK BLSN8

CYQF;2007-01-10 12:00;CYQF 101200Z 33026G35KT 1/8SM -SN +BLSN VV010 M13/M15 A2939 RMK BLSN8 SLP008

CYQF;2007-01-10 12:34;CYQF 101234Z 32023G32KT 3/4SM -SN BLSN VV010 RMK BLSN8 VIS VRBL 1/2-1

CYQF;2007-01-10 13:00;CYQF 101300Z CCA 32028G36KT 3/8SM -SN BLSN VV010 M14/M17 A2947 RMK BLSN8 VIS VRBL 1/4 - 1/2 PRESRR SLP033

CYQF;2007-01-10 14:00;CYQF 101400Z 32027G39KT 3/4SM -SN BLSN VV013 M15/M18 A2952 RMK BLSN8 VIS VRBL 1/2 - 1 SLP050

CYQF;2007-01-10 14:24;CYQF 101424Z 32024G35KT 1/2SM -SN BLSN VV010 RMK BLSN8 VIS VRBL 1/4 - 3/4

CYQF;2007-01-10 15:00;CYQF 101500Z CCB 32024G36KT 1/2SM -SN BLSN VV010 M16/M18 A2959 RMK BLSN8 VIS VRBL 1/4 - 3/4 PRESRR SLP083

CYQF;2007-01-10 15:34;CYQF 101534Z 32023G33KT 3/4SM -SN BLSN OVC012 RMK BLSN6SC2 VIS VRBL 1/2 - 1

CYQF;2007-01-10 16:00;CYQF 101600Z 32021G33KT 3/4SM -SN BLSN OVC012 M16/M18 A2965 RMK BLSN6SC2 VIS VRBL 1/2-1 SLP102

CYQF;2007-01-10 17:00;CYQF 101700Z 32023G34KT 1/2SM -SN BLSN VV006 M17/M19 A2973 RMK BLSN8 VIS VRBL 1/4-3/4 PRESRR SLP126

CYQF;2007-01-10 18:00;CYQF 101800Z 32024G32KT 1/2SM -SN BLSN VV006 M17/M19 A2978 RMK BLSN8 VIS VRBL 1/4-3/4 SLP153

CYQF;2007-01-10 19:00;CYQF 101900Z 32023G34KT 1/2SM -SN BLSN VV006 M17/M19 A2983 RMK BLSN8 VIS VRBL 1/4-3/4 SLP168

CYQF;2007-01-10 20:00;CYQF 102000Z 32022G30KT 1/2SM -SN BLSN VV005 M18/M20 A2988 RMK BLSN8 VIS VRBL 1/4-3/4 SLP184

CYQF;2007-01-10 21:00;CYQF 102100Z 32020G30KT 1/2SM -SN BLSN VV005 M18/M19 A2991 RMK BLSN8 VIS VRBL 1/4-3/4 SLP199

CYQF;2007-01-10 22:00;CYQF 102200Z 33021G31KT 3/4SM -SN BLSN VV010 M18/M20 A2997 RMK BLSN8 VIS VRBL 1/2-1 SLP216

CYQF;2007-01-10 23:00;CYQF 102300Z 33020G28KT 3/4SM -SN BLSN VV010 M18/M20 A3002 RMK BLSN8 VIS VRBL 1/2-1 SLP232

CYQF;2007-01-11 00:00;CYQF 110000Z 33020G30KT 3/4SM -SN BLSN VV010 M18/M20 A3008 RMK BLSN8 VIS VRBL 1/2-1 SLP264

CYQF;2007-01-11 01:00;CYQF 110100Z 34020G25KT 3/4SM -SN BLSN VV010 M18/M22 A3015 RMK BLSN8 VIS VRBL 1/2-1 PRESRR SLP284

CYQF;2007-01-11 01:23;CYQF 110123Z 34018G26KT 1SM -SN BLSN OVC030 RMK BLSN3SC5

CYQF;2007-01-11 02:00;CYQF 110200Z 34015G21KT 1 1/2SM -SN BLSN OVC030 M19/M22 A3018 RMK BLSN2SC6 SLP295

CYQF;2007-01-11 02:29;CYQF 110229Z 33012G17KT 4SM -SN BLSN OVC040 RMK SC8

CYQF;2007-01-11 03:00;CYQF 110300Z 35015KT 2SM -SN BLSN OVC035 M19/M23 A3021 RMK SC8 SLP314

CYQF;2007-01-11 03:19;CYQF 110319Z 35017KT 3SM -SN BLSN OVC035 RMK SC8

CYQF;2007-01-11 04:00;CYQF 110400Z 35016KT 3SM -SN BLSN OVC035 M20/M24 A3025 RMK SC8 SLP325

CYQF;2007-01-11 05:00;CYQF 110500Z 35014KT 10SM -SN DRSN OVC025 M21/M25 A3028 RMK SC8 SLP334

CYQF;2007-01-11 06:00;CYQF 110600Z 36015KT 10SM DRSN OVC025 M22/M26 A3030 RMK SC8 OCNL BLSN SLP351

CYQF;2007-01-11 07:00;CYQF 110700Z 36010KT 10SM FEW025 SCT080 M22/M27 A3033 RMK SC2AC2 SLP358

CYQF;2007-01-11 08:00;CYQF 110800Z 35010KT 15SM FEW025 FEW080 M23/M28 A3034 RMK SC1AC1 SLP361

CYQF;2007-01-11 09:00;CYQF 110900Z 34009KT 15SM FEW080 M23/M29 A3034 RMK AC2 SLP365

CYQF;2007-01-11 10:00;CYQF 111000Z 35006KT 15SM SKC M24/M29 A3035 RMK SLP370

CYQF;2007-01-11 11:00;CYQF 111100Z 30004KT 15SM SKC M26/M30 A3036 RMK SLP373

CYQF;2007-01-11 13:00;CYQF 111300Z 31003KT 15SM SKC M27/M31 A3037 RMK SLP382

CYQF;2007-01-11 14:00;CYQF 111400Z 26005KT 15SM SKC M30/M35 A3037 RMK SLP381

CYQF;2007-01-11 15:00;CYQF 111500Z 26006KT 15SM SKC M29/M35 A3037 RMK SLP385

CYQF;2007-01-11 16:00;CYQF 111600Z 22002KT 15SM SKC M30/M35 A3035 RMK SLP380

CYQF;2007-01-11 17:00;CYQF 111700Z 19005KT 15SM SKC M30/M35 A3035 RMK SLP378

CYQF;2007-01-11 18:00;CYQF 111800Z 19005KT 15SM SKC M28/M32 A3033 RMK SLP373

CYQF;2007-01-11 19:00;CYQF 111900Z 18002KT 15SM SKC M24/M29 A3030 RMK SLP363

CYQF;2007-01-11 20:00;CYQF 112000Z 17007KT 15SM SKC M22/M27 A3025 RMK SLP349

CYQF;2007-01-11 21:00;CYQF 112100Z 17010KT 15SM SKC M21/M27 A3021 RMK SLP326

CYQF;2007-01-11 22:00;CYQF 112200Z 17010KT 15SM FEW250 M20/M26 A3019 RMK CI0 SLP318

CYQF;2007-01-11 23:00;CYQF 112300Z 18010KT 15SM FEW250 M19/M26 A3017 RMK CI0 SLP313

CYQF;2007-01-12 00:00;CYQF 120000Z 19008KT 15SM SCT250 M19/M26 A3015 RMK CI0 SLP307

CYQF;2007-01-12 01:00;CYQF 120100Z 19008KT 15SM FEW250 M21/M27 A3014 RMK CI0 SLP303

CYQF;2007-01-12 02:00;CYQF 120200Z 18006KT 15SM SKC M21/M26 A3014 RMK SLP301

CYQF;2007-01-12 03:00;CYQF 120300Z 18005KT 15SM SKC M21/M26 A3013 RMK SLP304

CYQF;2007-01-12 04:00;CYQF 120400Z 22004KT 15SM FEW100 M23/M28 A3012 RMK AC1 SLP300

CYQF;2007-01-12 05:00;CYQF 120500Z 20007KT 15SM FEW100 M23/M28 A3012 RMK AC1 SLP300

CYQF;2007-01-12 06:00;CYQF 120600Z 20007KT 15SM SKC M23/M28 A3011 RMK SLP297

CYQF;2007-01-12 07:00;CYQF 120700Z 21004KT 15SM SKC M23/M27 A3011 RMK SLP297

CYQF;2007-01-12 08:00;CYQF 120800Z 19004KT 15SM FEW250 M25/M29 A3010 RMK CI1 SLP294

CYQF;2007-01-12 09:00;CYQF 120900Z 19003KT 15SM FEW250 M23/M27 A3009 RMK CI2 SLP282

CYQF;2007-01-12 10:00;CYQF 121000Z 00000KT 15SM FEW250 M23/M27 A3010 RMK CI2 SLP285

CYQF;2007-01-12 11:00;CYQF 121100Z 18004KT 15SM FEW250 M23/M28 A3011 RMK CI2 SLP287

CYQF;2007-01-12 12:00;CYQF 121200Z 20005KT 15SM SCT100 BKN250 M23/M28 A3012 RMK AC3CI3 SLP289

CYQF;2007-01-12 13:00;CYQF 121300Z 20005KT 15SM SCT100 BKN250 M19/M24 A3011 RMK AC4CI3 SLP288

CYQF;2007-01-12 14:00;CYQF 121400Z 22005KT 15SM SCT100 BKN250 M18/M23 A3012 RMK AC4CI2 SLP289

CYQF;2007-01-12 15:00;CYQF 121500Z 20005KT 15SM BKN100 BKN250 M19/M24 A3013 RMK AC3CI1 SLP292

CYQF;2007-01-12 16:00;CYQF 121600Z 19005KT 15SM SCT100 BKN250 M20/M25 A3014 RMK AC2CI2 SLP295

CYQF;2007-01-12 17:00;CYQF 121700Z 26010KT 15SM FEW100 M17/M24 A3015 RMK AC1 SLP299

CYQF;2007-01-12 18:00;CYQF 121800Z 24005KT 15SM FEW100 M16/M22 A3016 RMK AC1 SLP303

CYQF;2007-01-12 19:00;CYQF 121900Z 24006KT 15SM FEW120 M14/M21 A3016 RMK AC1 SLP301

CYQF;2007-01-12 20:00;CYQF 122000Z 30005KT 15SM FEW120 M10/M19 A3015 RMK AC1 SLP298

CYQF;2007-01-12 21:00;CYQF 122100Z 16002KT 15SM FEW120 M11/M20 A3014 RMK AC1 SLP286

CYQF;2007-01-12 22:00;CYQF 122200Z 28005KT 15SM FEW120 M10/M19 A3012 RMK AC1 SLP280

CYQF;2007-01-12 23:00;CYQF 122300Z 18004KT 15SM FEW250 M12/M20 A3010 RMK CI0 SLP276

CYQF;2007-01-13 00:00;CYQF 130000Z 18005KT 15SM FEW250 M14/M21 A3009 RMK CI0 SLP274

CYQF;2007-01-13 01:00;CYQF 130100Z 18007KT 15SM FEW250 M17/M23 A3008 RMK CI0 SLP270

CYQF;2007-01-13 02:00;CYQF 130200Z 20006KT 15SM FEW250 M17/M23 A3006 RMK CI0 SLP266

CYQF;2007-01-13 03:00;CYQF 130300Z 17003KT 15SM SKC M16/M22 A3005 RMK SLP257

CYQF;2007-01-13 04:00;CYQF 130400Z 19004KT 15SM SKC M17/M23 A3004 RMK SLP254

CYQF;2007-01-13 05:00;CYQF 130500Z 22003KT 15SM SKC M18/M23 A3004 RMK SLP254

CYQF;2007-01-13 06:00;CYQF 130600Z 21007KT 15SM SKC M18/M23 A3003 RMK SLP251

CYQF;2007-01-13 07:00;CYQF 130700Z 23004KT 15SM FEW090 M18/M24 A3004 RMK AC2 SLP252

CYQF;2007-01-13 08:00;CYQF 130800Z 22003KT 15SM BKN100 M17/M22 A3003 RMK AC3 SLP249

CYQF;2007-01-13 09:00;CYQF 130900Z 19005KT 15SM BKN080 M16/M21 A3002 RMK AC6 SLP239

CYQF;2007-01-13 10:00;CYQF 131000Z 18004KT 15SM OVC080 M15/M20 A3003 RMK AC6 SLP242

CYQF;2007-01-13 11:00;CYQF 131100Z 19002KT 15SM OVC080 M14/M19 A3005 RMK AC6 SLP246

CYQF;2007-01-13 12:00;CYQF 131200Z 00000KT 15SM BKN050 OVC090 M14/M18 A3006 RMK SC5AC2 SLP254

CYQF;2007-01-13 13:00;CYQF 131300Z 00000KT 15SM BKN040 OVC090 M13/M16 A3007 RMK SC6AC2 SLP257

CYQF;2007-01-13 13:08;CYQF 131308Z 00000KT 15SM -SN OVC040 RMK SC8

CYQF;2007-01-13 14:00;CYQF 131400Z 32007KT 15SM -SN OVC050 M08/M12 A3009 RMK SC8 SLP263

CYQF;2007-01-13 15:00;CYQF 131500Z 34013KT 6SM -SN OVC050 M09/M11 A3011 RMK SC8 SLP267

CYQF;2007-01-13 15:23;CYQF 131523Z 34013KT 2SM -SN DRSN OVC050 RMK SN2SC6

CYQF;2007-01-13 15:35;CYQF 131535Z 34012KT 3SM -SN DRSN OVC050 RMK SN1SC7

CYQF;2007-01-13 16:00;CYQF 131600Z 34011KT 10SM -SN DRSN OVC050 M10/M11 A3013 RMK SC8 SLP274

CYQF;2007-01-13 17:00;CYQF 131700Z 34006KT 4SM -SN DRSN OVC040 M10/M11 A3016 RMK SN3SC5 SLP284

CYQF;2007-01-13 17:35;CYQF 131735Z 33008KT 2SM -SN OVC030 RMK SN5SC3

CYQF;2007-01-13 17:46;CYQF 131746Z 34006KT 5SM -SN OVC030 RMK SC8

CYQF;2007-01-13 18:00;CYQF 131800Z 35005KT 2SM -SN OVC030 M10/M11 A3019 RMK SN3SC5 SLP298

CYQF;2007-01-13 19:00;CYQF 131900Z 01012KT 2SM -SN DRSN OVC030 M11/M12 A3020 RMK SN3SC5 SLP302

CYQF;2007-01-13 20:00;CYQF 132000Z 01010KT 2SM -SN DRSN OVC030 M11/M12 A3021 RMK SN3SC5 SLP305

CYQF;2007-01-13 20:29;CYQF 132029Z 03008KT 3SM -SN BKN030 OVC100 RMK SC6AC1

CYQF;2007-01-13 21:00;CYQF 132100Z 03010KT 3SM -SN BKN030 OVC100 M12/M14 A3023 RMK SN2SC5AC2 SLP313

CYQF;2007-01-13 21:45;CYQF 132145Z 08010KT 10SM FEW030 SCT100 BKN250 RMK SC2AC1CI2

CYQF;2007-01-13 22:00;CYQF 132200Z 07012KT 15SM FEW030 SCT100 BKN250 M14/M16 A3025 RMK SC2AC2CI2 SLP320

CYQF;2007-01-13 23:00;CYQF 132300Z 06008KT 15SM FEW030 FEW100 BKN250 M15/M17 A3028 RMK SC1AC2CI2 SLP329

CYQF;2007-01-14 00:00;CYQF 140000Z 08004KT 15SM FEW100 BKN250 M16/M18 A3030 RMK AC2CI3 SLP340

CYQF;2007-01-14 01:00;CYQF 140100Z 08002KT 15SM SCT035 BKN100 M16/M18 A3033 RMK SC3AC2 SLP347

CYQF;2007-01-14 02:00;CYQF 140200Z 11005KT 15SM FEW035 BKN100 BKN250 M17/M19 A3033 RMK SC2AC3CI1 SLP348

CYQF;2007-01-14 03:00;CYQF 140300Z 00000KT 15SM BKN030 BKN100 M19/M20 A3033 RMK SC5AC2 SLP347

CYQF;2007-01-14 04:00;CYQF 140400Z 16004KT 15SM FEW100 M20/M21 A3032 RMK AC2 SLP344

CYQF;2007-01-14 05:00;CYQF 140500Z 20004KT 15SM BKN100 M20/M24 A3032 RMK AC5 SLP343

CYQF;2007-01-14 06:00;CYQF 140600Z 19005KT 15SM BKN100 M18/M21 A3031 RMK AC6 SLP339

CYQF;2007-01-14 07:00;CYQF 140700Z 17007KT 15SM BKN100 M17/M20 A3030 RMK AC6 SLP335

CYQF;2007-01-14 08:00;CYQF 140800Z 17008KT 15SM BKN100 M17/M21 A3027 RMK AC6 SLP328

CYQF;2007-01-14 09:00;CYQF 140900Z 17006KT 15SM FEW100 M19/M23 A3028 RMK AC2 SLP332

CYQF;2007-01-14 10:00;CYQF 141000Z 00000KT 15SM SKC M21/M25 A3028 RMK SLP332

CYQF;2007-01-14 11:00;CYQF 141100Z 18002KT 15SM SKC M22/M25 A3026 RMK SLP326

CYQF;2007-01-14 12:00;CYQF 141200Z 19003KT 15SM SKC M21/M25 A3025 RMK SLP332

CYQF;2007-01-14 13:00;CYQF 141300Z 18002KT 15SM FEW100 M22/M25 A3025 RMK AC1 SLP331

CYQF;2007-01-14 14:00;CYQF 141400Z 19003KT 15SM FEW100 M22/M25 A3025 RMK AC1 SLP331

CYQF;2007-01-14 15:00;CYQF 141500Z 18006KT 15SM FEW100 M22/M25 A3025 RMK AC1 SLP333

CYQF;2007-01-14 16:00;CYQF 141600Z 21005KT 15SM FEW100 FEW250 M24/M28 A3025 RMK AC1CI0 SLP334

CYQF;2007-01-14 17:00;CYQF 141700Z 20006KT 15SM FEW250 M22/M25 A3025 RMK CI0 SLP334

CYQF;2007-01-14 18:00;CYQF 141800Z 20006KT 15SM SKC M19/M23 A3025 RMK SLP330

CYQF;2007-01-14 19:00;CYQF 141900Z 19005KT 15SM SKC M18/M22 A3024 RMK SLP327

CYQF;2007-01-14 20:00;CYQF 142000Z 20005KT 15SM FEW250 M16/M21 A3022 RMK CI0 SLP321

CYQF;2007-01-14 21:00;CYQF 142100Z 20006KT 15SM FEW250 M14/M20 A3021 RMK CI0 SLP313

CYQF;2007-01-14 22:00;CYQF 142200Z 20004KT 15SM FEW250 M14/M19 A3021 RMK CI0 SLP312

CYQF;2007-01-14 23:00;CYQF 142300Z 20004KT 15SM SCT250 M14/M19 A3021 RMK CI2 SLP313

CYQF;2007-01-15 00:00;CYQF 150000Z 22005KT 15SM SCT250 M16/M20 A3021 RMK CI2 SLP318

CYQF;2007-01-15 01:00;CYQF 150100Z 17004KT 15SM FEW250 M15/M20 A3021 RMK CI1 SLP318

CYQF;2007-01-15 02:00;CYQF 150200Z 20005KT 15SM SKC M19/M23 A3021 RMK SLP316

CYQF;2007-01-15 03:00;CYQF 150300Z 20004KT 15SM SKC M18/M22 A3020 RMK SLP314

CYQF;2007-01-15 04:00;CYQF 150400Z 18004KT 15SM SKC M17/M21 A3019 RMK SLP313

CYQF;2007-01-15 05:00;CYQF 150500Z 20006KT 15SM FEW210 M19/M22 A3017 RMK CI1 SLP306

CYQF;2007-01-15 06:00;CYQF 150600Z 20007KT 15SM FEW210 M17/M21 A3017 RMK CI1 SLP301

CYQF;2007-01-15 07:00;CYQF 150700Z 19005KT 15SM FEW090 BKN250 M15/M18 A3017 RMK AC2CI1 SLP301

CYQF;2007-01-15 08:00;CYQF 150800Z 00000KT 15SM SCT100 BKN250 M14/M17 A3015 RMK AC3CI1 SLP297

CYQF;2007-01-15 09:00;CYQF 150900Z 19004KT 15SM BKN050 M11/M15 A3015 RMK SC6 SLP283

CYQF;2007-01-15 10:00;CYQF 151000Z 21003KT 15SM SCT050 BKN250 M11/M14 A3015 RMK SC3CI2 SLP283

CYQF;2007-01-15 11:00;CYQF 151100Z 00000KT 15SM BKN050 M11/M14 A3015 RMK SC6 SLP282

CYQF;2007-01-15 12:00;CYQF 151200Z 19006KT 15SM SCT050 OVC070 M11/M13 A3015 RMK SC3AC4 SLP285

CYQF;2007-01-15 13:00;CYQF 151300Z 00000KT 15SM BKN070 M09/M13 A3015 RMK AC3 SLP284

CYQF;2007-01-15 14:00;CYQF 151400Z 20005KT 15SM BKN070 M10/M13 A3015 RMK AC3 SLP283

CYQF;2007-01-15 15:00;CYQF 151500Z 19006KT 15SM SCT070 BKN250 M10/M13 A3014 RMK AC3CI1 SLP279

CYQF;2007-01-15 16:00;CYQF 151600Z 23008KT 15SM FEW080 BKN250 M11/M14 A3013 RMK AC2CI1 SLP278

CYQF;2007-01-15 17:00;CYQF 151700Z 20006KT 15SM SCT080 BKN250 M09/M13 A3013 RMK AC3CI2 SLP276

CYQF;2007-01-15 18:00;CYQF 151800Z 00000KT 15SM FEW050 BKN080 BKN250 M07/M11 A3012 RMK SC2AC3CI2 SLP270

CYQF;2007-01-15 19:00;CYQF 151900Z 19006KT 15SM FEW050 BKN080 BKN250 M05/M09 A3010 RMK SC2AC3CI2 SLP263

CYQF;2007-01-15 20:00;CYQF 152000Z 18005KT 15SM FEW050 BKN080 BKN250 M04/M08 A3006 RMK SC2AC3CI2 SLP251

CYQF;2007-01-15 21:00;CYQF 152100Z 18008KT 15SM FEW050 BKN080 BKN250 M03/M07 A3004 RMK SC2AC2CI2 SLP229

CYQF;2007-01-15 22:00;CYQF 152200Z 17005KT 15SM FEW050 BKN080 BKN250 M02/M07 A3003 RMK SC2AC4CI1 SLP225

CYQF;2007-01-15 23:00;CYQF 152300Z 18004KT 15SM FEW050 SCT080 BKN250 M04/M07 A3001 RMK SC1AC3CI2 SLP221

CYQF;2007-01-16 00:00;CYQF 160000Z 18004KT 15SM FEW050 SCT080 BKN250 M06/M09 A3000 RMK SC1AC3CI2 SLP219

CYQF;2007-01-16 01:00;CYQF 160100Z 19004KT 15SM SCT080 BKN250 M07/M09 A2999 RMK AC3CI2 SLP215

CYQF;2007-01-16 02:00;CYQF 160200Z 00000KT 15SM FEW080 BKN250 M08/M10 A2997 RMK AC2CI2 SLP210

CYQF;2007-01-16 03:00;CYQF 160300Z 00000KT 15SM FEW080 SCT250 M08/M10 A2996 RMK AC2CI1 SLP207

CYQF;2007-01-16 04:00;CYQF 160400Z 20002KT 15SM FEW080 BKN250 M08/M09 A2995 RMK AC2CI1 SLP203

CYQF;2007-01-16 05:00;CYQF 160500Z 21004KT 15SM FEW080 SCT250 M08/M09 A2994 RMK AC1CI1 SLP199

CYQF;2007-01-16 06:00;CYQF 160600Z 20004KT 15SM FEW080 FEW250 M08/M10 A2993 RMK AC1CI0 SLP192

CYQF;2007-01-16 07:00;CYQF 160700Z 20005KT 15SM FEW080 SCT250 M09/M11 A2992 RMK AC2CI2 SLP190

CYQF;2007-01-16 08:00;CYQF 160800Z 22012KT 15SM FEW080 BKN250 M08/M10 A2992 RMK AC2CI1 SLP189

CYQF;2007-01-16 09:00;CYQF 160900Z 24003KT 15SM FEW080 BKN250 M07/M09 A2991 RMK AC2CI1 SLP178

CYQF;2007-01-16 10:00;CYQF 161000Z 22008KT 15SM SCT080 BKN250 M07/M10 A2991 RMK AC4CI2 SLP179

CYQF;2007-01-16 11:00;CYQF 161100Z 22004KT 15SM SCT080 BKN250 M05/M09 A2992 RMK AC3CI2 SLP183

CYQF;2007-01-16 12:00;CYQF 161200Z 01006KT 15SM FEW080 SCT250 M06/M10 A2993 RMK AC2CI1 SLP190

CYQF;2007-01-16 13:00;CYQF 161300Z 01006KT 15SM FEW080 SCT250 M09/M12 A2993 RMK AC1CI1 SLP189

CYQF;2007-01-16 14:00;CYQF 161400Z 21004KT 15SM FEW080 SCT250 M11/M13 A2992 RMK AC1CI1 SLP185

CYQF;2007-01-16 15:00;CYQF 161500Z 00000KT 15SM FEW100 BKN250 M10/M12 A2992 RMK AC1CI2 SLP192

CYQF;2007-01-16 16:00;CYQF 161600Z 18003KT 15SM FEW100 BKN250 M12/M13 A2992 RMK AC1CI2 SLP193

CYQF;2007-01-16 17:00;CYQF 161700Z 20006KT 15SM FEW100 SCT250 M10/M12 A2992 RMK AC2CI0 SLP193

CYQF;2007-01-16 18:00;CYQF 161800Z 00000KT 15SM BKN100 BKN250 M08/M12 A2993 RMK AC6CI1 SLP192

CYQF;2007-01-16 19:00;CYQF 161900Z 29002KT 15SM BKN100 BKN250 M07/M10 A2990 RMK AC6CI1 SLP185

CYQF;2007-01-16 20:00;CYQF 162000Z 00000KT 15SM BKN100 BKN250 M05/M09 A2989 RMK AC6CI1 SLP181

CYQF;2007-01-16 21:00;CYQF 162100Z 00000KT 15SM FEW100 BKN250 M02/M08 A2989 RMK AC2CI3 SLP170

CYQF;2007-01-16 22:00;CYQF 162200Z 36002KT 15SM FEW100 BKN250 M04/M09 A2988 RMK AC1CI3 AC TR SLP169

CYQF;2007-01-16 23:00;CYQF 162300Z 01003KT 15SM FEW100 BKN250 M03/M08 A2989 RMK AC1CI2 SLP170

CYQF;2007-01-17 00:00;CYQF 170000Z 00000KT 15SM FEW100 BKN250 M07/M11 A2990 RMK AC2CI2 SLP179

CYQF;2007-01-17 01:00;CYQF 170100Z 28005KT 15SM BKN080 BKN120 BKN250 M07/M10 A2991 RMK AC5AC2CI1 SLP183

CYQF;2007-01-17 02:00;CYQF 170200Z 34008KT 15SM BKN070 OVC120 M04/M09 A2991 RMK AC6AC2 SLP184

CYQF;2007-01-17 03:00;CYQF 170300Z 32009KT 15SM OVC070 M04/M08 A2992 RMK AC8 VIRGA SLP187

CYQF;2007-01-17 04:00;CYQF 170400Z 00000KT 15SM OVC070 M02/M07 A2992 RMK AC8 VIRGA N SLP188

CYQF;2007-01-17 05:00;CYQF 170500Z CCA 00000KT 10SM OVC075 M02/M04 A2993 RMK AC8 VIRGA N SLP189

CYQF;2007-01-17 06:00;CYQF 170600Z 23009KT 15SM BKN070 OVC100 M03/M06 A2993 RMK AC6AC2 SLP186

CYQF;2007-01-17 07:00;CYQF 170700Z 25007KT 15SM SCT070 BKN120 M03/M06 A2994 RMK AC4AC2 SLP189

CYQF;2007-01-17 08:00;CYQF 170800Z 20004KT 15SM FEW070 BKN120 M05/M06 A2994 RMK AC2AC3 SLP191

CYQF;2007-01-17 09:00;CYQF 170900Z 22003KT 15SM SCT120 M07/M07 A2995 RMK AC3 SLP191

CYQF;2007-01-17 10:00;CYQF 171000Z 20003KT 15SM FEW120 M10/M10 A2996 RMK AC2 BR SLP195

CYQF;2007-01-17 10:29;CYQF 171029Z 15003KT 3/4SM BR SCT120 RMK FG2AC2

CYQF;2007-01-17 11:00;CYQF 171100Z 19005KT 1/2SM FZFG SKC M11/M13 A2996 RMK FG2 SLP196

CYQF;2007-01-17 12:00;CYQF 171200Z 00000KT 1/2SM FZFG SKC M11/M12 A2997 RMK FG2 RIME ON INDICATOR SLP211

CYQF;2007-01-17 13:00;CYQF 171300Z 24005KT 1/4SM FZFG SKC M13/M14 A2999 RMK FG3 RIME ON INDICATOR SLP217

CYQF;2007-01-17 14:00;CYQF 171400Z 00000KT 1/4SM FZFG SKC M14/M15 A3001 RMK FG3 RIME ON INDICATOR SLP221

CYQF;2007-01-17 14:23;CYQF 171423Z 27004KT 1/2SM FZFG SKC RMK FG3 RIME ON INDICATOR

CYQF;2007-01-17 14:31;CYQF 171431Z 27003KT 3/4SM BR FEW120 RMK FG2AC1 RIME ON INDICATOR AC TR

CYQF;2007-01-17 14:35;CYQF 171435Z 27004KT 5SM BR FEW120 RMK FG2AC1 AC TR

CYQF;2007-01-17 14:45;CYQF 171445Z 26004KT 8SM FEW005 FEW120 RMK SF1AC1 BR AC TR

CYQF;2007-01-17 15:00;CYQF 171500Z 27006KT 8SM FEW040 FEW120 M16/M17 A3002 RMK SC2AC1 AC TR SLP229

CYQF;2007-01-17 16:00;CYQF 171600Z 00000KT 15SM FEW040 FEW120 M13/M15 A3004 RMK SC1AC1 SLP234

CYQF;2007-01-17 17:00;CYQF 171700Z 25004KT 15SM FEW100 M15/M16 A3006 RMK AC1 SLP242

CYQF;2007-01-17 18:00;CYQF 171800Z 19002KT 15SM FEW100 M10/M10 A3008 RMK AC1 SLP241

CYQF;2007-01-17 19:00;CYQF 171900Z 27007KT 15SM FEW100 M09/M09 A3008 RMK AC1 AC TR SLP242

CYQF;2007-01-17 20:00;CYQF 172000Z 29007KT 15SM FEW100 M07/M09 A3008 RMK AC1 AC TR SLP242

CYQF;2007-01-17 21:00;CYQF 172100Z 29008KT 15SM FEW015 FEW100 M06/M09 A3009 RMK CU1AC1 SLP245

CYQF;2007-01-17 22:00;CYQF 172200Z 31007KT 15SM FEW100 M06/M10 A3009 RMK AC1 SLP245

CYQF;2007-01-17 23:00;CYQF 172300Z 00000KT 15SM FEW100 M08/M12 A3009 RMK AC1 SLP247

CYQF;2007-01-18 00:00;CYQF 180000Z 30003KT 15SM FEW100 M10/M13 A3010 RMK AC1 SLP259

CYQF;2007-01-18 01:00;CYQF 180100Z 28003KT 15SM FEW040 M13/M15 A3012 RMK SC1 SLP264

CYQF;2007-01-18 02:00;CYQF 180200Z 18006KT 15SM FEW040 M16/M18 A3013 RMK SC1 SLP267

CYQF;2007-01-18 03:00;CYQF 180300Z 22005KT 15SM FEW040 M16/M17 A3013 RMK SC1 SLP281

CYQF;2007-01-18 04:00;CYQF 180400Z 23004KT 15SM FEW040 M16/M18 A3013 RMK SC1 SLP281

CYQF;2007-01-18 05:00;CYQF 180500Z 21008KT 15SM SCT080 M18/M20 A3012 RMK AC3 SLP279

CYQF;2007-01-18 06:00;CYQF 180600Z 23005KT 15SM FEW080 M17/M18 A3011 RMK AC2 SLP268

CYQF;2007-01-18 07:00;CYQF 180700Z 19003KT 15SM SKC M17/M18 A3010 RMK SLP265

CYQF;2007-01-18 08:00;CYQF 180800Z 21005KT 15SM SKC M17/M19 A3009 RMK SLP263

CYQF;2007-01-18 09:00;CYQF 180900Z 17004KT 15SM SKC M19/M21 A3008 RMK SLP258

CYQF;2007-01-18 10:00;CYQF 181000Z 20002KT 15SM SKC M19/M20 A3007 RMK SLP255

CYQF;2007-01-18 11:00;CYQF 181100Z 21002KT 15SM SKC M20/M22 A3006 RMK SLP252

CYQF;2007-01-18 12:00;CYQF 181200Z 21004KT 15SM SKC M21/M23 A3006 RMK SLP256

CYQF;2007-01-18 13:00;CYQF 181300Z 21007KT 15SM FEW120 M21/M23 A3005 RMK AC2 SLP254

CYQF;2007-01-18 14:00;CYQF 181400Z 20005KT 15SM FEW120 BKN230 M19/M21 A3004 RMK AC2CI2 SLP251

CYQF;2007-01-18 15:00;CYQF 181500Z 20006KT 15SM BKN120 M19/M21 A3004 RMK AC5 SLP253

CYQF;2007-01-18 16:00;CYQF 181600Z 00000KT 15SM SCT120 BKN250 M17/M19 A3002 RMK AC3CI1 SLP249

CYQF;2007-01-18 17:00;CYQF 181700Z 19004KT 15SM BKN120 BKN250 M17/M19 A3001 RMK AC3CI1 SLP246

CYQF;2007-01-18 18:00;CYQF 181800Z 22004KT 15SM BKN120 BKN250 M14/M18 A3002 RMK AC6CI1 SLP241

CYQF;2007-01-18 19:00;CYQF 181900Z 18003KT 15SM BKN120 BKN250 M12/M17 A3001 RMK AC6CI1 SLP238

CYQF;2007-01-18 20:00;CYQF 182000Z 18003KT 15SM BKN120 BKN250 M10/M15 A3000 RMK AC6CI1 SLP235

CYQF;2007-01-18 21:00;CYQF 182100Z 00000KT 15SM SCT120 BKN250 M08/M15 A2998 RMK AC3CI1 SLP225

CYQF;2007-01-18 22:00;CYQF 182200Z 00000KT 15SM FEW120 BKN250 M08/M14 A2998 RMK AC2CI2 SLP224

CYQF;2007-01-18 23:00;CYQF 182300Z 21002KT 15SM SCT120 BKN250 M11/M15 A3000 RMK AC2CI1 SLP229

CYQF;2007-01-19 00:00;CYQF 190000Z 00000KT 15SM FEW120 SCT250 M11/M15 A3001 RMK AC1CI2 SLP239

CYQF;2007-01-19 01:00;CYQF 190100Z 00000KT 15SM FEW120 FEW250 M13/M16 A3001 RMK AC1CI2 SLP240

CYQF;2007-01-19 02:00;CYQF 190200Z 19004KT 15SM FEW250 M16/M19 A3001 RMK CI2 SLP239

CYQF;2007-01-19 03:00;CYQF 190300Z 20005KT 15SM SKC M15/M18 A2999 RMK SLP238

CYQF;2007-01-19 04:00;CYQF 190400Z 22003KT 15SM SKC M16/M18 A3000 RMK SLP241

CYQF;2007-01-19 05:00;CYQF 190500Z 21005KT 15SM SKC M15/M19 A3002 RMK SLP247

CYQF;2007-01-19 06:00;CYQF 190600Z 18004KT 15SM SKC M16/M18 A3001 RMK SLP238

CYQF;2007-01-19 07:00;CYQF 190700Z 21005KT 15SM SKC M17/M20 A2999 RMK SLP230

CYQF;2007-01-19 08:00;CYQF 190800Z 22005KT 15SM SKC M17/M19 A2997 RMK SLP225

CYQF;2007-01-19 09:00;CYQF 190900Z 15002KT 15SM FEW210 M17/M19 A2995 RMK CI2 SLP210

CYQF;2007-01-19 10:00;CYQF 191000Z 18006KT 15SM FEW210 M14/M17 A2994 RMK CI1 SLP208

CYQF;2007-01-19 11:00;CYQF 191100Z 00000KT 15SM SCT230 M14/M17 A2990 RMK CI1 SLP196

CYQF;2007-01-19 12:00;CYQF 191200Z 00000KT 15SM BKN230 M14/M16 A2989 RMK CI5 SLP189

CYQF;2007-01-19 13:00;CYQF 191300Z 00000KT 15SM OVC230 M14/M17 A2986 RMK CI5 SLP181

CYQF;2007-01-19 14:00;CYQF 191400Z 00000KT 15SM OVC230 M13/M15 A2983 RMK CI8 SLP171

CYQF;2007-01-19 15:00;CYQF 191500Z 22003KT 15SM OVC230 M12/M14 A2982 RMK CI7 SLP168

CYQF;2007-01-19 16:00;CYQF 191600Z 20003KT 15SM SCT100 OVC250 M12/M14 A2981 RMK AC3CI2 SLP166

CYQF;2007-01-19 17:00;CYQF 191700Z 00000KT 15SM BKN100 OVC250 M09/M12 A2981 RMK AC5CI2 SLP165

CYQF;2007-01-19 18:00;CYQF 191800Z 23005KT 15SM BKN120 OVC250 M08/M11 A2982 RMK AC5CI2 SLP165

CYQF;2007-01-19 19:00;CYQF 191900Z 00000KT 15SM BKN120 OVC250 M07/M11 A2982 RMK AC6CI2 SLP164

CYQF;2007-01-19 20:00;CYQF 192000Z 00000KT 15SM BKN120 OVC250 M06/M10 A2981 RMK AC6CI2 SLP163

CYQF;2007-01-19 21:00;CYQF 192100Z 00000KT 15SM BKN120 OVC250 M05/M09 A2982 RMK AC6CI2 SLP161

CYQF;2007-01-19 22:00;CYQF 192200Z CCA 00000KT 15SM BKN100 OVC250 M04/M08 A2982 RMK AC6CI1 VIRGA SLP161

CYQF;2007-01-19 23:00;CYQF 192300Z 23004KT 15SM FEW100 BKN250 M05/M08 A2983 RMK AC2CI2 SLP166

CYQF;2007-01-20 00:00;CYQF 200000Z 19005KT 15SM FEW100 BKN250 M06/M09 A2985 RMK AC2CI2 SLP169

CYQF;2007-01-20 01:00;CYQF 200100Z 25005KT 15SM FEW100 BKN250 M07/M11 A2985 RMK AC2CI2 SLP171

CYQF;2007-01-20 02:00;CYQF 200200Z 00000KT 15SM FEW100 BKN250 M10/M12 A2986 RMK AC1CI3 SLP173

CYQF;2007-01-20 03:00;CYQF 200300Z 21003KT 15SM FEW100 SCT250 M11/M13 A2987 RMK AC1CI2 SLP180

CYQF;2007-01-20 04:00;CYQF 200400Z 20004KT 15SM FEW100 M10/M12 A2986 RMK AC1 SLP179

CYQF;2007-01-20 05:00;CYQF 200500Z 19003KT 15SM FEW100 M12/M14 A2986 RMK AC2 SLP177

CYQF;2007-01-20 06:00;CYQF 200600Z 19004KT 15SM FEW100 M13/M14 A2985 RMK AC2 SLP173

CYQF;2007-01-20 07:00;CYQF 200700Z 00000KT 15SM FEW250 M14/M15 A2984 RMK CI1 SLP170

CYQF;2007-01-20 08:00;CYQF 200800Z 20004KT 15SM FEW100 SCT250 M14/M16 A2983 RMK AC1CI1 SLP167

CYQF;2007-01-20 09:00;CYQF 200900Z 18004KT 15SM FEW100 SCT250 M13/M14 A2981 RMK AC1CI1 SLP156

CYQF;2007-01-20 10:00;CYQF 201000Z 19005KT 15SM FEW100 BKN250 M12/M15 A2981 RMK AC2CI1 SLP156

CYQF;2007-01-20 11:00;CYQF 201100Z 18004KT 15SM SCT100 OVC250 M09/M11 A2979 RMK AC3CI2 SLP148

CYQF;2007-01-20 12:00;CYQF 201200Z 17008KT 15SM SCT100 OVC250 M05/M10 A2978 RMK AC4CI3 SLP135

CYQF;2007-01-20 12:38;CYQF 201238Z 17005KT 6SM -SN SCT050 OVC100 RMK SC4AC4

CYQF;2007-01-20 13:00;CYQF 201300Z 00000KT 10SM -SN SCT050 OVC100 M05/M08 A2978 RMK SC4AC4 SLP135

CYQF;2007-01-20 14:00;CYQF 201400Z 18006KT 3SM -SN OVC050 M05/M08 A2978 RMK SN4SC4 SLP136

CYQF;2007-01-20 14:40;CYQF 201440Z 13005KT 1SM -SN VV010 RMK SN8

CYQF;2007-01-20 15:00;CYQF 201500Z 00000KT 1SM -SN VV010 M05/M07 A2979 RMK SN8 SLP147

CYQF;2007-01-20 16:00;CYQF 201600Z 11003KT 1SM -SN VV009 M04/M05 A2981 RMK SN8 /S05/ SLP152

CYQF;2007-01-20 16:25;CYQF 201625Z 14008KT 3/4SM -SN VV008 RMK SN8 VIS VRB 3/4-1

CYQF;2007-01-20 17:00;CYQF 201700Z 20005KT 1SM -SN VV010 M03/M04 A2983 RMK SN8 SLP159

CYQF;2007-01-20 17:30;CYQF 201730Z 21004KT 6SM -SN FEW010 BKN020 OVC070 RMK SF2SC5AC1 VIS LWR E

CYQF;2007-01-20 18:00;CYQF 201800Z 23005KT 8SM FEW010 BKN030 OVC070 M03/M04 A2985 RMK SF2SC5AC1 VIS LWR E-SE BR SLP167

CYQF;2007-01-20 19:00;CYQF 201900Z 25005KT 15SM FEW010 SCT035 BKN090 M04/M08 A2986 RMK SF2SC2AC3 SLP171

CYQF;2007-01-20 20:00;CYQF 202000Z 30006KT 15SM FEW035 SCT090 BKN250 M06/M09 A2987 RMK SC2AC2CI2 SLP173

CYQF;2007-01-20 21:00;CYQF 202100Z 31009KT 15SM FEW035 BKN090 BKN250 M05/M08 A2988 RMK SC2AC4CI1 SLP180

CYQF;2007-01-20 22:00;CYQF 202200Z 31008KT 10SM FEW025 BKN090 BKN250 M05/M08 A2991 RMK SC2AC4CI1 SLP187

CYQF;2007-01-20 22:05;CYQF 202205Z 32007KT 2SM -SN SCT025 BKN090 RMK SN2SC2AC3

CYQF;2007-01-20 22:43;CYQF 202243Z 32006KT 1SM -SN BKN025 OVC090 RMK SN4SC2AC2

CYQF;2007-01-20 23:00;CYQF 202300Z 32005KT 3/4SM -SN OVC025 M05/M06 A2995 RMK SN6SC2 VIS VRB 1/2-1 SLP200

CYQF;2007-01-21 00:00;CYQF 210000Z 35009KT 2SM -SN BKN025 OVC090 M04/M05 A2998 RMK SN2SC3AC2 /S01/ SLP205

CYQF;2007-01-21 01:00;CYQF 210100Z 33005KT 4SM -SN SCT025 OVC090 M04/M05 A3001 RMK SC3AC3 SLP214

CYQF;2007-01-21 01:20;CYQF 210120Z 00000KT 10SM FEW025 BKN090 RMK SC2AC2

CYQF;2007-01-21 02:00;CYQF 210200Z 00000KT 5SM BR FEW090 M08/M09 A3003 RMK AC2 VIS SE-S 3/4 SLP220

CYQF;2007-01-21 02:08;CYQF 210208Z 00000KT 3/4SM BR SKC RMK FG3

CYQF;2007-01-21 03:00;CYQF 210300Z 23004KT 3/4SM BR BKN100 M13/M15 A3005 RMK FG4AC1 SLP239

CYQF;2007-01-21 03:13;CYQF 210313Z 24005KT 1/4SM FZFG BKN100 RMK FG4AC1

CYQF;2007-01-21 04:00;CYQF 210400Z 25005KT 1/2SM FZFG SCT100 M14/M15 A3006 RMK FG3AC1 SLP243

CYQF;2007-01-21 04:33;CYQF 210433Z 21003KT 1SM BR SKC RMK FG2 VIS S 1/2

CYQF;2007-01-21 05:00;CYQF 210500Z 25005KT 10SM BCFG SKC M15/M16 A3009 RMK SLP250

CYQF;2007-01-21 06:00;CYQF 210600Z 22005KT 15SM SKC M16/M17 A3010 RMK SLP256

CYQF;2007-01-21 07:00;CYQF 210700Z 21005KT 15SM SKC M14/M15 A3012 RMK SLP262

CYQF;2007-01-21 08:00;CYQF 210800Z 24006KT 15SM SKC M14/M15 A3012 RMK SLP264

CYQF;2007-01-21 09:00;CYQF 210900Z 21006KT 15SM SKC M14/M15 A3013 RMK SLP266

CYQF;2007-01-21 10:00;CYQF 211000Z 20003KT 15SM SKC M15/M16 A3013 RMK SLP266

CYQF;2007-01-21 11:00;CYQF 211100Z 20004KT 15SM SKC M15/M16 A3011 RMK SLP262

CYQF;2007-01-21 12:00;CYQF 211200Z 20005KT 15SM SKC M18/M19 A3010 RMK SLP261

CYQF;2007-01-21 13:00;CYQF 211300Z 19005KT 15SM SKC M19/M20 A3008 RMK SLP255

CYQF;2007-01-21 14:00;CYQF 211400Z 19004KT 15SM SKC M19/M20 A3005 RMK SLP244

CYQF;2007-01-21 15:00;CYQF 211500Z 23005KT 15SM FEW220 M21/M22 A3003 RMK CI0 SLP249

CYQF;2007-01-21 16:00;CYQF 211600Z 19005KT 15SM BKN220 M19/M21 A3001 RMK CI1 SLP242

CYQF;2007-01-21 17:00;CYQF 211700Z 21003KT 15SM BKN220 M17/M19 A2998 RMK CI2 SLP235

CYQF;2007-01-21 18:00;CYQF 211800Z 00000KT 15SM BKN120 BKN220 M13/M14 A2997 RMK AS5CI2 SLP223

CYQF;2007-01-21 19:00;CYQF 211900Z 00000KT 15SM BKN100 OVC220 M12/M13 A2993 RMK AS6CI1 SLP210

CYQF;2007-01-21 20:00;CYQF 212000Z 00000KT 15SM BKN100 OVC250 M09/M10 A2990 RMK AC6CI1 VIRGA SLP203

CYQF;2007-01-21 21:00;CYQF 212100Z 20002KT 15SM BKN100 OVC250 M08/M09 A2989 RMK AC6CI2 VIRGA SLP186

CYQF;2007-01-21 22:00;CYQF 212200Z 21005KT 15SM BKN100 OVC220 M08/M08 A2987 RMK AC6CI2 VIRGA SLP181

CYQF;2007-01-21 23:00;CYQF 212300Z 00000KT 15SM BKN100 BKN250 M07/M08 A2987 RMK AC6CI1 SLP180

CYQF;2007-01-22 00:00;CYQF 220000Z 22002KT 15SM BKN090 BKN250 M09/M11 A2987 RMK AC5CI1 SLP185

CYQF;2007-01-22 01:00;CYQF 220100Z 21004KT 15SM SCT090 BKN250 M09/M11 A2986 RMK AC4CI2 SLP184

CYQF;2007-01-22 02:00;CYQF 220200Z 00000KT 15SM FEW090 BKN250 M08/M10 A2986 RMK AC2CI1 SLP182

CYQF;2007-01-22 03:00;CYQF 220300Z 00000KT 15SM SCT250 M10/M12 A2984 RMK CI1 SLP180

CYQF;2007-01-22 04:00;CYQF 220400Z 20005KT 15SM SKC M12/M15 A2982 RMK SLP173

CYQF;2007-01-22 05:00;CYQF 220500Z 20005KT 15SM SKC M11/M13 A2982 RMK SLP172

CYQF;2007-01-22 06:00;CYQF 220600Z 19008KT 15SM SKC M12/M14 A2980 RMK SLP159

CYQF;2007-01-22 07:00;CYQF 220700Z 21005KT 15SM FEW120 M09/M12 A2980 RMK AC2 SLP158

CYQF;2007-01-22 08:00;CYQF 220800Z 00000KT 15SM BKN120 M07/M10 A2980 RMK AC6 SLP160

CYQF;2007-01-22 09:00;CYQF 220900Z 21006KT 15SM OVC120 M07/M09 A2979 RMK AC8 SLP143

CYQF;2007-01-22 10:00;CYQF 221000Z 21008KT 15SM OVC100 M06/M08 A2978 RMK AC8 SLP142

CYQF;2007-01-22 11:00;CYQF 221100Z 21006KT 15SM SCT100 OVC250 M06/M08 A2977 RMK AC3CI3 SLP137

CYQF;2007-01-22 12:00;CYQF 221200Z 23003KT 15SM FEW100 FEW250 M07/M09 A2975 RMK AC2CI0 SLP130

CYQF;2007-01-22 13:00;CYQF 221300Z 20003KT 15SM FEW250 M09/M11 A2974 RMK CI2 SLP127

CYQF;2007-01-22 14:00;CYQF 221400Z 22005KT 15SM FEW250 M10/M11 A2975 RMK CI1 SLP129

CYQF;2007-01-22 15:00;CYQF 221500Z 20005KT 15SM SCT100 BKN250 M06/M08 A2975 RMK AC3CI2 SLP130

CYQF;2007-01-22 16:00;CYQF 221600Z 22005KT 15SM BKN100 BKN250 M03/M06 A2975 RMK AC5CI2 VIRGA SLP132

CYQF;2007-01-22 17:00;CYQF 221700Z 20006KT 15SM BKN100 OVC250 M01/M05 A2974 RMK AC6CI2 SLP128

CYQF;2007-01-22 18:00;CYQF 221800Z 23006KT 15SM BKN100 OVC250 01/M04 A2974 RMK AC6CI2 SLP122

CYQF;2007-01-22 19:00;CYQF 221900Z 24007KT 15SM BKN100 OVC250 04/M03 A2973 RMK AC6CI2 SLP118

CYQF;2007-01-22 20:00;CYQF 222000Z 22010KT 15SM BKN100 OVC250 04/M02 A2970 RMK AC6CI2 SLP110

CYQF;2007-01-22 21:00;CYQF 222100Z 26013KT 15SM FEW030 BKN100 OVC250 06/M02 A2968 RMK CU1AC6CI1 SLP088

CYQF;2007-01-22 22:00;CYQF 222200Z 25010KT 15SM FEW030 BKN100 BKN250 06/M02 A2969 RMK CU1AC6CI1 SLP091

CYQF;2007-01-22 23:00;CYQF 222300Z 30005KT 15SM FEW030 BKN100 BKN250 05/M02 A2971 RMK CU1AC6CI1 SLP099

CYQF;2007-01-23 00:00;CYQF 230000Z 30008KT 15SM BKN100 BKN250 04/M02 A2974 RMK AC5CI1 SLP111

CYQF;2007-01-23 01:00;CYQF 230100Z 26005KT 15SM SCT100 BKN250 05/M03 A2975 RMK AC3CI1 SLP116

CYQF;2007-01-23 02:00;CYQF 230200Z 24004KT 15SM FEW100 SCT250 02/M04 A2977 RMK AC2CI1 SLP123

CYQF;2007-01-23 03:00;CYQF 230300Z 31006KT 15SM FEW100 FEW250 M00/M06 A2978 RMK AC2CI0 SLP130

CYQF;2007-01-23 04:00;CYQF 230400Z 28010KT 15SM FEW100 FEW250 01/M06 A2979 RMK AC2CI0 SLP135

CYQF;2007-01-23 05:00;CYQF 230500Z 29010KT 15SM FEW100 02/M06 A2983 RMK AC2 SLP145

CYQF;2007-01-23 06:00;CYQF 230600Z 29008KT 15SM FEW090 00/M06 A2984 RMK AC2 SLP142

CYQF;2007-01-23 07:00;CYQF 230700Z 25004KT 15SM FEW090 M05/M09 A2986 RMK AC1 SLP150

CYQF;2007-01-23 08:00;CYQF 230800Z 19003KT 15SM FEW090 M06/M10 A2989 RMK AC1 SLP158

CYQF;2007-01-23 09:00;CYQF 230900Z 19005KT 15SM BKN090 M06/M10 A2992 RMK AC6 SLP171

CYQF;2007-01-23 10:00;CYQF 231000Z 19002KT 15SM SCT090 BKN250 M06/M10 A2995 RMK AC3CI2 SLP180

CYQF;2007-01-23 11:00;CYQF 231100Z 20002KT 15SM FEW090 SCT250 M06/M10 A2996 RMK AC2CI2 SLP186

CYQF;2007-01-23 12:00;CYQF 231200Z 21004KT 15SM FEW090 SCT250 M08/M11 A2996 RMK AC2CI1 SLP191

CYQF;2007-01-23 13:00;CYQF 231300Z 18004KT 15SM FEW090 BKN250 M08/M12 A2995 RMK AC2CI2 SLP189

CYQF;2007-01-23 14:00;CYQF 231400Z 19007KT 15SM FEW090 BKN250 M07/M11 A2996 RMK AC2CI2 SLP192

CYQF;2007-01-23 15:00;CYQF 231500Z 19005KT 15SM BKN090 BKN250 M05/M09 A2997 RMK AC5CI1 SLP196

CYQF;2007-01-23 16:00;CYQF 231600Z 00000KT 15SM OVC090 M06/M09 A2999 RMK AC7 SLP203

CYQF;2007-01-23 17:00;CYQF 231700Z 00000KT 15SM OVC090 M03/M07 A3001 RMK AC7 SLP207

CYQF;2007-01-23 18:00;CYQF 231800Z 21005KT 15SM BKN090 BKN250 M04/M07 A3000 RMK AC6CI1 SLP205

CYQF;2007-01-23 19:00;CYQF 231900Z 22003KT 15SM BKN090 BKN250 M02/M07 A3000 RMK AC5CI1 SLP205

CYQF;2007-01-23 20:00;CYQF 232000Z 22004KT 15SM BKN090 BKN250 01/M05 A3001 RMK AC2CI1 SLP207

CYQF;2007-01-23 21:00;CYQF 232100Z 00000KT 15SM BKN120 BKN250 03/M05 A3002 RMK AC5CI0 SLP211

CYQF;2007-01-23 22:00;CYQF 232200Z 05003KT 15SM FEW120 SCT250 02/M04 A3002 RMK AC2CI0 SLP212

CYQF;2007-01-23 23:00;CYQF 232300Z 04003KT 15SM BKN250 01/M05 A3002 RMK CI1 SLP212

CYQF;2007-01-24 00:00;CYQF 240000Z 00000KT 15SM FEW120 SCT250 M01/M06 A3003 RMK AC1CI1 SLP221

CYQF;2007-01-24 01:00;CYQF 240100Z 11004KT 15SM FEW120 SCT250 M03/M07 A3005 RMK AC1CI2 SLP225

CYQF;2007-01-24 02:00;CYQF 240200Z 17004KT 15SM FEW120 M06/M09 A3004 RMK AC1 SLP224

CYQF;2007-01-24 03:00;CYQF 240300Z 20003KT 15SM SKC M05/M09 A3005 RMK SLP228

CYQF;2007-01-24 04:00;CYQF 240400Z 00000KT 15SM BKN100 M03/M08 A3005 RMK AC5 SLP228

CYQF;2007-01-24 05:00;CYQF 240500Z 16003KT 15SM SCT120 M05/M08 A3004 RMK AC3 SLP224

CYQF;2007-01-24 06:00;CYQF 240600Z 15003KT 15SM SKC M06/M09 A3003 RMK SLP221

CYQF;2007-01-24 07:00;CYQF 240700Z 21005KT 15SM FEW120 M07/M09 A3002 RMK AC2 SLP219

CYQF;2007-01-24 08:00;CYQF 240800Z 23002KT 15SM FEW120 M07/M08 A3000 RMK AC2 SLP214

CYQF;2007-01-24 09:00;CYQF 240900Z 00000KT 15SM MIFG FEW120 M09/M10 A3000 RMK AC1 SLP208

CYQF;2007-01-24 09:34;CYQF 240934Z 00000KT 3/4SM BR FEW120 RMK FG2AC1

CYQF;2007-01-24 10:00;CYQF 241000Z 22003KT 1SM BR SCT120 M08/M09 A2999 RMK FG1AC1 SLP205

CYQF;2007-01-24 10:34;CYQF 241034Z 00000KT 15SM MIFG BKN120 RMK AC2

CYQF;2007-01-24 11:00;CYQF 241100Z 00000KT 15SM MIFG SCT120 M07/M08 A2999 RMK AC2 SLP205

CYQF;2007-01-24 12:00;CYQF 241200Z 22004KT 15SM FEW120 M09/M10 A2998 RMK AC2 SLP204

CYQF;2007-01-24 13:00;CYQF 241300Z 19004KT 15SM BKN100 M07/M07 A2998 RMK AC6 SLP204

CYQF;2007-01-24 14:00;CYQF 241400Z 00000KT 15SM BKN100 M06/M07 A2998 RMK AC6 SLP203

CYQF;2007-01-24 15:00;CYQF 241500Z 21005KT 15SM BKN100 BKN250 M06/M07 A2997 RMK AC5CI1 SLP203

CYQF;2007-01-24 16:00;CYQF 241600Z 23006KT 15SM BKN100 BKN250 M06/M07 A2998 RMK AC5CI1 SLP204

CYQF;2007-01-24 17:00;CYQF 241700Z 15005KT 15SM BKN100 BKN250 M04/M06 A2997 RMK AC5CI1 SLP203

CYQF;2007-01-24 18:00;CYQF 241800Z 21008KT 15SM BKN100 BKN250 M02/M05 A2999 RMK AC5CI2 SLP205

CYQF;2007-01-24 19:00;CYQF 241900Z 22006KT 15SM BKN100 BKN250 01/M03 A2999 RMK AC5CI2 SLP205

CYQF;2007-01-24 20:00;CYQF 242000Z 21007KT 15SM BKN100 BKN250 02/M02 A2998 RMK AC6CI1 SLP202

CYQF;2007-01-24 21:00;CYQF 242100Z 19005KT 15SM BKN100 BKN250 05/M02 A2999 RMK AC6CI1 SLP200

CYQF;2007-01-24 22:00;CYQF 242200Z 18004KT 15SM BKN100 BKN250 04/M02 A2999 RMK AC6CI1 SLP202

CYQF;2007-01-24 23:00;CYQF 242300Z 21008KT 15SM BKN100 BKN250 02/M03 A3000 RMK AC5CI2 SLP203

CYQF;2007-01-25 00:00;CYQF 250000Z 18005KT 15SM SCT100 BKN250 03/M02 A3001 RMK AC4CI2 SLP210

CYQF;2007-01-25 01:00;CYQF 250100Z 18007KT 15SM BKN100 03/M03 A3001 RMK AC6 SLP210

CYQF;2007-01-25 02:00;CYQF 250200Z 20008KT 15SM BKN100 04/M03 A3000 RMK AC6 SLP207

CYQF;2007-01-25 03:00;CYQF 250300Z 20006KT 15SM BKN100 05/M02 A2998 RMK AC7 SLP195

CYQF;2007-01-25 04:00;CYQF 250400Z 23008KT 15SM OVC100 04/M03 A2996 RMK AC8 SLP189

CYQF;2007-01-25 05:00;CYQF 250500Z 21010KT 15SM BKN100 OVC250 04/M03 A2995 RMK AC6CI2 SLP183

CYQF;2007-01-25 06:00;CYQF 250600Z 18008KT 15SM BKN100 OVC250 03/M03 A2992 RMK AC7CI1 SLP169

CYQF;2007-01-25 07:00;CYQF 250700Z 22007KT 15SM BKN100 OVC250 03/M03 A2989 RMK AC6CI2 SLP162

CYQF;2007-01-25 08:00;CYQF 250800Z 18006KT 15SM BKN100 BKN250 02/M03 A2987 RMK AC6CI1 SLP155

CYQF;2007-01-25 09:00;CYQF 250900Z 17002KT 15SM BKN100 BKN250 02/M04 A2985 RMK AC6CI1 SLP141

CYQF;2007-01-25 10:00;CYQF 251000Z 20008KT 15SM BKN100 BKN250 03/M05 A2984 RMK AC5CI1 SLP135

CYQF;2007-01-25 11:00;CYQF 251100Z 18009KT 15SM BKN100 02/M05 A2981 RMK AC5 SLP128

CYQF;2007-01-25 12:00;CYQF 251200Z 32003KT 15SM FEW100 M01/M07 A2980 RMK AC2 SLP127

CYQF;2007-01-25 13:00;CYQF 251300Z 27007KT 15SM FEW100 00/M08 A2981 RMK AC2 SLP130

CYQF;2007-01-25 14:00;CYQF 251400Z 26007KT 15SM FEW100 M01/M09 A2980 RMK AC1 SLP128

CYQF;2007-01-25 15:00;CYQF 251500Z 20010KT 15SM FEW100 FEW250 M04/M10 A2980 RMK AC1CI0 SLP129

CYQF;2007-01-25 16:00;CYQF 251600Z 20010KT 15SM FEW100 FEW250 M03/M09 A2977 RMK AC1CI0 SLP122

CYQF;2007-01-25 17:00;CYQF 251700Z 22006KT 15SM FEW100 FEW250 M02/M09 A2979 RMK AC1CI1 SLP126

CYQF;2007-01-25 18:00;CYQF 251800Z 19003KT 15SM FEW250 M00/M08 A2978 RMK CI1 SLP120

CYQF;2007-01-25 19:00;CYQF 251900Z 22007KT 15SM FEW250 01/M07 A2978 RMK CI1 SLP119

CYQF;2007-01-25 20:00;CYQF 252000Z 12005KT 15SM FEW250 05/M07 A2977 RMK CI1 SLP116

CYQF;2007-01-25 21:00;CYQF 252100Z 31004KT 15SM SCT250 03/M05 A2976 RMK CI2 SLP108

CYQF;2007-01-25 22:00;CYQF 252200Z 29004KT 15SM FEW250 05/M04 A2975 RMK CI1 SLP106

CYQF;2007-01-25 23:00;CYQF 252300Z 33008KT 15SM FEW250 05/M05 A2976 RMK CI1 SLP110

CYQF;2007-01-26 00:00;CYQF 260000Z 01014KT 15SM SKC 04/M05 A2980 RMK PEAK WND 3614G20 2333 FROPA 2329 SLP128

CYQF;2007-01-26 01:00;CYQF 260100Z 01010G15KT 15SM SKC 02/M04 A2986 RMK SLP146

CYQF;2007-01-26 02:00;CYQF 260200Z 36012G20KT 15SM FEW100 M01/M08 A2992 RMK AC1 PRESRR SLP165

CYQF;2007-01-26 03:00;CYQF 260300Z 35010G15KT 15SM FEW100 M01/M09 A2998 RMK AC2 SLP198

CYQF;2007-01-26 04:00;CYQF 260400Z 33020G26KT 15SM FEW100 M02/M10 A3002 RMK AC1 SLP211

CYQF;2007-01-26 05:00;CYQF 260500Z 33010KT 15SM FEW100 M04/M11 A3005 RMK AC1 SLP221

CYQF;2007-01-26 06:00;CYQF 260600Z 33010G18KT 15SM BKN080 M04/M11 A3008 RMK AC6 SLP233

CYQF;2007-01-26 07:00;CYQF 260700Z 33015G20KT 15SM BKN090 M03/M13 A3010 RMK AC6 SLP239

CYQF;2007-01-26 08:00;CYQF 260800Z 30010KT 15SM FEW090 M05/M13 A3012 RMK AC2 SLP243

CYQF;2007-01-26 09:00;CYQF 260900Z 30012KT 15SM SKC M06/M13 A3013 RMK SLP247

CYQF;2007-01-26 10:00;CYQF 261000Z 29010G15KT 15SM SKC M06/M14 A3013 RMK SLP247

CYQF;2007-01-26 11:00;CYQF 261100Z 30013KT 15SM SKC M07/M14 A3014 RMK SLP251

CYQF;2007-01-26 12:00;CYQF 261200Z 24005KT 15SM SKC M11/M16 A3014 RMK SLP255

CYQF;2007-01-26 13:00;CYQF 261300Z 26005KT 15SM SKC M13/M17 A3014 RMK SLP256

CYQF;2007-01-26 14:00;CYQF 261400Z 27008KT 15SM SKC M14/M18 A3014 RMK SLP256

CYQF;2007-01-26 15:00;CYQF 261500Z 29006KT 15SM SKC M10/M16 A3014 RMK SLP261

CYQF;2007-01-26 16:00;CYQF 261600Z 32010G15KT 15SM SKC M10/M17 A3014 RMK SLP261

CYQF;2007-01-26 17:00;CYQF 261700Z 31012G20KT 15SM SKC M06/M15 A3017 RMK SLP269

CYQF;2007-01-26 18:00;CYQF 261800Z 30012G20KT 15SM SKC M06/M15 A3018 RMK SLP275

CYQF;2007-01-26 19:00;CYQF 261900Z 33015G25KT 15SM SKC M05/M15 A3017 RMK SLP272

CYQF;2007-01-26 20:00;CYQF 262000Z 32015G25KT 15SM FEW050 M04/M15 A3018 RMK SC1 SLP273

CYQF;2007-01-26 21:00;CYQF 262100Z 33015G25KT 15SM FEW050 M04/M15 A3019 RMK SC1 SLP278

CYQF;2007-01-26 22:00;CYQF 262200Z 35015G25KT 15SM FEW050 M05/M14 A3021 RMK SC2 SLP284

CYQF;2007-01-26 23:00;CYQF 262300Z 36014G23KT 15SM FEW040 M06/M14 A3024 RMK SC2 SLP293

CYQF;2007-01-27 00:00;CYQF 270000Z 35010G15KT 15SM FEW040 M07/M15 A3027 RMK SC2 SLP314

CYQF;2007-01-27 01:00;CYQF 270100Z 03012KT 15SM FEW040 M09/M14 A3030 RMK SC1 SLP324

CYQF;2007-01-27 02:00;CYQF 270200Z 02008KT 15SM SKC M11/M15 A3033 RMK SLP333

CYQF;2007-01-27 03:00;CYQF 270300Z 02007KT 15SM SKC M12/M16 A3037 RMK SLP353

CYQF;2007-01-27 04:00;CYQF 270400Z 01004KT 15SM SKC M13/M16 A3038 RMK SLP356

CYQF;2007-01-27 05:00;CYQF 270500Z 00000KT 15SM SKC M17/M19 A3039 RMK SLP359

CYQF;2007-01-27 06:00;CYQF 270600Z 00000KT 15SM SKC M18/M20 A3040 RMK SLP367

CYQF;2007-01-27 07:00;CYQF 270700Z 19004KT 15SM SKC M19/M20 A3040 RMK OBS TAKEN +04 SLP366

CYQF;2007-01-27 08:00;CYQF 270800Z 19004KT 15SM SKC M20/M21 A3037 RMK SLP359

CYQF;2007-01-27 09:00;CYQF 270900Z 19005KT 15SM SKC M20/M21 A3034 RMK SLP345

CYQF;2007-01-27 10:00;CYQF 271000Z 17005KT 15SM SKC M19/M20 A3032 RMK SLP339

CYQF;2007-01-27 11:00;CYQF 271100Z 18003KT 15SM SKC M19/M20 A3031 RMK SLP335

CYQF;2007-01-27 12:00;CYQF 271200Z 20002KT 15SM SKC M20/M21 A3028 RMK SLP329

CYQF;2007-01-27 13:00;CYQF 271300Z 17005KT 15SM SKC M19/M20 A3026 RMK SLP321

CYQF;2007-01-27 14:00;CYQF 271400Z 22003KT 15SM SKC M19/M21 A3025 RMK SLP319

CYQF;2007-01-27 15:00;CYQF 271500Z 18005KT 15SM FEW230 M21/M22 A3023 RMK CI1 SLP318

CYQF;2007-01-27 16:00;CYQF 271600Z 18007KT 15SM BKN230 M20/M22 A3019 RMK CI1 SLP306

CYQF;2007-01-27 17:00;CYQF 271700Z 20004KT 15SM FEW230 M18/M19 A3018 RMK CI1 SLP301

CYQF;2007-01-27 18:00;CYQF 271800Z 22003KT 15SM FEW230 M14/M16 A3015 RMK CI1 SLP290

CYQF;2007-01-27 19:00;CYQF 271900Z 00000KT 15SM BKN100 M10/M15 A3011 RMK AC6 SLP278

CYQF;2007-01-27 20:00;CYQF 272000Z 00000KT 15SM BKN140 M07/M13 A3010 RMK AC6 SLP273

CYQF;2007-01-27 21:00;CYQF 272100Z 18003KT 15SM FEW140 BKN230 M05/M11 A3007 RMK AC2CI6 SLP254

CYQF;2007-01-27 22:00;CYQF 272200Z 21005KT 15SM BKN140 BKN230 M05/M09 A3006 RMK AC6CI2 SLP250

CYQF;2007-01-27 23:00;CYQF 272300Z 00000KT 15SM SCT120 BKN230 M04/M07 A3004 RMK AC3CI1 SLP244

CYQF;2007-01-28 00:00;CYQF 280000Z 00000KT 15SM FEW120 BKN230 M06/M09 A3003 RMK AC2CI2 SLP238

CYQF;2007-01-28 01:00;CYQF 280100Z 00000KT 15SM FEW120 BKN230 M09/M12 A3001 RMK AC2CI2 SLP232

CYQF;2007-01-28 02:00;CYQF 280200Z 00000KT 15SM FEW120 BKN230 M08/M10 A3000 RMK AC2CI2 SLP230

CYQF;2007-01-28 03:00;CYQF 280300Z 24003KT 15SM SCT120 BKN230 M10/M11 A3000 RMK AC3CI1 SLP234

CYQF;2007-01-28 04:00;CYQF 280400Z 22004KT 15SM FEW120 BKN230 M11/M13 A2999 RMK AC2CI0 SLP233

CYQF;2007-01-28 05:00;CYQF 280500Z 24005KT 15SM FEW120 BKN230 M13/M15 A3000 RMK AC2CI0 SLP236

CYQF;2007-01-28 06:00;CYQF 280600Z 00000KT 15SM FEW120 SCT230 M11/M13 A3003 RMK AC2CI1 SLP240

CYQF;2007-01-28 07:00;CYQF 280700Z 27004KT 15SM FEW120 SCT250 M14/M16 A3005 RMK AC2CI2 SLP246

CYQF;2007-01-28 08:00;CYQF 280800Z 31010KT 15SM FEW110 SCT250 M06/M14 A3007 RMK AC2CI1 SLP253

CYQF;2007-01-28 09:00;CYQF 280900Z 32008KT 15SM FEW110 BKN250 M04/M11 A3011 RMK AC2CI1 SLP248

CYQF;2007-01-28 10:00;CYQF 281000Z 30015KT 15SM SCT110 BKN250 M03/M11 A3014 RMK AC3CI2 SLP256

CYQF;2007-01-28 11:00;CYQF 281100Z 30014KT 15SM SCT110 BKN250 M02/M11 A3015 RMK AC3CI2 SLP260

CYQF;2007-01-28 12:00;CYQF 281200Z 30012KT 15SM FEW110 SCT250 M04/M10 A3018 RMK AC2CI1 SLP272

CYQF;2007-01-28 13:00;CYQF 281300Z 30012KT 15SM FEW250 M04/M11 A3020 RMK CI1 SLP278

CYQF;2007-01-28 14:00;CYQF 281400Z 30010KT 15SM FEW250 M05/M12 A3021 RMK CI1 SLP282

CYQF;2007-01-28 15:00;CYQF 281500Z 30012KT 15SM SKC M05/M12 A3022 RMK SLP292

CYQF;2007-01-28 16:00;CYQF 281600Z 31012KT 15SM FEW130 M05/M12 A3023 RMK AC1 SLP296

CYQF;2007-01-28 17:00;CYQF 281700Z 32012KT 15SM SCT070 M04/M11 A3024 RMK AC4 SLP300

CYQF;2007-01-28 18:00;CYQF 281800Z 32012KT 15SM BKN070 M03/M10 A3026 RMK AC2 SLP307

CYQF;2007-01-28 19:00;CYQF 281900Z 32010KT 15SM BKN070 M02/M09 A3026 RMK AC2 SLP308

CYQF;2007-01-28 20:00;CYQF 282000Z 31010G15KT 15SM FEW070 M02/M09 A3025 RMK AC2 SLP304

CYQF;2007-01-28 21:00;CYQF 282100Z 32012KT 15SM SKC M01/M08 A3024 RMK SLP288

CYQF;2007-01-28 22:00;CYQF 282200Z 32010G15KT 15SM FEW250 M01/M07 A3025 RMK CI1 SLP290

CYQF;2007-01-28 23:00;CYQF 282300Z 32008KT 15SM FEW250 M01/M08 A3025 RMK CI1 SLP292

CYQF;2007-01-29 00:00;CYQF 290000Z 32010KT 15SM FEW250 M02/M09 A3026 RMK CI1 SLP297

CYQF;2007-01-29 01:00;CYQF 290100Z 32011KT 15SM FEW250 M04/M10 A3026 RMK CI1 SLP297

CYQF;2007-01-29 02:00;CYQF 290200Z 32008KT 15SM SKC M08/M12 A3027 RMK SLP299

CYQF;2007-01-29 03:00;CYQF 290300Z 33009KT 15SM FEW250 M06/M12 A3027 RMK CI1 SLP307

CYQF;2007-01-29 04:00;CYQF 290400Z 32007KT 15SM FEW250 M07/M12 A3029 RMK CI1 SLP313

CYQF;2007-01-29 05:00;CYQF 290500Z 31009KT 15SM FEW250 M07/M12 A3029 RMK CI2 SLP314

CYQF;2007-01-29 06:00;CYQF 290600Z 30008KT 15SM SCT250 M10/M14 A3030 RMK CI3 SLP317

CYQF;2007-01-29 07:00;CYQF 290700Z 30008KT 15SM SCT250 M09/M13 A3031 RMK CI2 SLP321

CYQF;2007-01-29 08:00;CYQF 290800Z 29005KT 15SM BKN250 M10/M14 A3031 RMK CI3 SLP322

CYQF;2007-01-29 09:00;CYQF 290900Z 17004KT 15SM SCT250 M13/M16 A3031 RMK CI2 SLP322

CYQF;2007-01-29 10:00;CYQF 291000Z 20004KT 15SM BKN250 M16/M18 A3031 RMK CI3 SLP322

CYQF;2007-01-29 11:00;CYQF 291100Z 19005KT 15SM FEW160 BKN250 M17/M19 A3029 RMK AC2CI2 SLP318

CYQF;2007-01-29 12:00;CYQF 291200Z 20004KT 15SM BKN250 M16/M18 A3028 RMK CI3 SLP317

CYQF;2007-01-29 13:00;CYQF 291300Z 21003KT 15SM FEW250 M17/M18 A3026 RMK CI1 SLP313

CYQF;2007-01-29 14:00;CYQF 291400Z 00000KT 15SM FEW250 M17/M18 A3025 RMK CI1 SLP309

CYQF;2007-01-29 15:00;CYQF 291500Z 00000KT 15SM SCT150 BKN250 M18/M19 A3025 RMK AC2CI1 SLP315

CYQF;2007-01-29 16:00;CYQF 291600Z 00000KT 15SM SCT140 BKN250 M15/M16 A3025 RMK AC3CI1 SLP314

CYQF;2007-01-29 17:00;CYQF 291700Z 19004KT 15SM FEW140 BKN250 M13/M14 A3026 RMK AC2CI3 SLP318

CYQF;2007-01-29 18:00;CYQF 291800Z 17002KT 15SM FEW140 BKN250 M10/M13 A3027 RMK AC2CI2 SLP315

CYQF;2007-01-29 19:00;CYQF 291900Z 16007KT 15SM FEW140 BKN250 M07/M11 A3027 RMK AC2CI1 SLP315

CYQF;2007-01-29 20:00;CYQF 292000Z CCA 15006KT 15SM FEW140 BKN250 M07/M11 A3026 RMK AC2CI0 SLP312

CYQF;2007-01-29 21:00;CYQF 292100Z 16010KT 15SM FEW140 FEW250 M06/M10 A3025 RMK AC1CI1 SLP309

CYQF;2007-01-29 22:00;CYQF 292200Z 17010KT 15SM FEW140 M05/M09 A3025 RMK AC1 SLP307

CYQF;2007-01-29 23:00;CYQF 292300Z 16010KT 15SM FEW140 M06/M09 A3024 RMK AC1 SLP304

CYQF;2007-01-30 00:00;CYQF 300000Z 18007KT 15SM FEW140 FEW250 M07/M10 A3022 RMK AC1CI0 SLP303

CYQF;2007-01-30 01:00;CYQF 300100Z 18006KT 15SM FEW120 FEW250 M10/M12 A3022 RMK AC1CI0 SLP303

CYQF;2007-01-30 02:00;CYQF 300200Z 19007KT 15SM FEW250 M11/M13 A3020 RMK CI1 SLP298

CYQF;2007-01-30 03:00;CYQF 300300Z 20007KT 15SM SCT220 M11/M12 A3020 RMK CI2 SLP302

CYQF;2007-01-30 04:00;CYQF 300400Z 20005KT 15SM FEW220 M11/M13 A3018 RMK CI1 SLP296

CYQF;2007-01-30 05:00;CYQF 300500Z 19005KT 15SM FEW220 M12/M14 A3015 RMK CI1 SLP288

CYQF;2007-01-30 06:00;CYQF 300600Z 20007KT 15SM BKN100 M11/M13 A3014 RMK AC7 SLP272

CYQF;2007-01-30 07:00;CYQF 300700Z 24007KT 15SM BKN100 OVC250 M09/M11 A3013 RMK AC6CI2 SLP270

CYQF;2007-01-30 08:00;CYQF 300800Z 24006KT 15SM BKN100 OVC250 M07/M09 A3012 RMK AC6CI2 SLP266

CYQF;2007-01-30 09:00;CYQF 300900Z 29014KT 15SM OVC100 M05/M08 A3011 RMK AC8 SLP249

CYQF;2007-01-30 10:00;CYQF 301000Z 29009KT 15SM OVC075 M04/M07 A3010 RMK AC8 SLP246

CYQF;2007-01-30 10:21;CYQF 301021Z 31012KT 15SM -SN OVC070 RMK AC8

CYQF;2007-01-30 11:26;CYQF 301126Z 30013KT 15SM OVC050 RMK SC8

CYQF;2007-01-30 12:00;CYQF 301200Z 31012G19KT 15SM OVC050 M02/M06 A3011 RMK SC8 SLP249

CYQF;2007-01-30 13:00;CYQF 301300Z 32015G20KT 15SM FEW050 BKN070 M02/M06 A3010 RMK SC2AC5 SLP246

CYQF;2007-01-30 14:00;CYQF 301400Z 32015G25KT 15SM -SHSN FEW050 OVC070 M02/M07 A3011 RMK SC2AC6 SLP248

CYQF;2007-01-30 15:00;CYQF 301500Z 32015G23KT 15SM SCT050 OVC100 M02/M07 A3012 RMK SC3AC5 OBS TKN H+10 SLP256

CYQF;2007-01-30 16:00;CYQF 301600Z 31015G22KT 15SM FEW050 OVC090 M02/M07 A3012 RMK SC2AC6 SLP256

CYQF;2007-01-30 17:00;CYQF 301700Z CCA 31015G20KT 15SM SCT045 BKN090 M02/M07 A3011 RMK SC4AC3 VIRGA SLP254

CYQF;2007-01-30 18:00;CYQF 301800Z 31016G22KT 15SM FEW045 FEW080 SCT150 M01/M07 A3011 RMK SC1AC1AC1 SLP251

CYQF;2007-01-30 19:00;CYQF 301900Z CCA 31018KT 15SM FEW037 FEW080 FEW200 M00/M06 A3008 RMK SC1AC1CC1 CU TOPS AC TR SLP243

CYQF;2007-01-30 20:00;CYQF 302000Z 32021G31KT 15SM FEW035 FEW080 FEW200 M00/M07 A3007 RMK CU1AC1CI1 CI TR SLP239

CYQF;2007-01-30 21:00;CYQF 302100Z 33022G28KT 15SM FEW035 FEW080 SCT200 00/M08 A3006 RMK SC1AC1CI2 CU ASOCTD AC TR SLP225

CYQF;2007-01-30 22:00;CYQF 302200Z 34019G27KT 15SM BKN040 BKN200 M00/M09 A3007 RMK SC5CI1 SLP230

CYQF;2007-01-30 23:00;CYQF 302300Z 36017G26KT 15SM BKN050 BKN080 M01/M09 A3009 RMK SC6AC1 SLP235

CYQF;2007-01-31 00:00;CYQF 310000Z 36016G25KT 15SM BKN050 BKN080 M02/M08 A3012 RMK SC6AC1 SLP246

CYQF;2007-01-31 01:00;CYQF 310100Z 02012G17KT 15SM BKN050 BKN080 M04/M07 A3016 RMK SC5AC1 SLP258

CYQF;2007-01-31 02:00;CYQF 310200Z 02012KT 15SM FEW020 BKN050 M05/M08 A3021 RMK SC2SC5 SLP273

CYQF;2007-01-31 03:00;CYQF 310300Z 36013KT 15SM FEW020 BKN050 M05/M09 A3022 RMK SC2SC6 SLP286

CYQF;2007-01-31 04:00;CYQF 310400Z 36012G19KT 15SM FEW020 BKN050 M06/M09 A3024 RMK SC2SC4 SLP290

CYQF;2007-01-31 05:00;CYQF 310500Z 33004KT 15SM FEW020 BKN050 M07/M09 A3025 RMK SC2SC5 SLP294

CYQF;2007-01-31 06:00;CYQF 310600Z 36007KT 15SM BKN040 M06/M10 A3024 RMK SC6 SLP290

CYQF;2007-01-31 07:00;CYQF 310700Z 00000KT 15SM BKN040 M07/M10 A3022 RMK SC5 SLP285

CYQF;2007-01-31 08:00;CYQF 310800Z 24003KT 15SM FEW040 SCT250 M12/M13 A3019 RMK SC2CI1 SLP276

CYQF;2007-01-31 09:00;CYQF 310900Z 24004KT 15SM FEW100 BKN250 M13/M14 A3016 RMK AC2CI2 SLP268

CYQF;2007-01-31 10:00;CYQF 311000Z 23005KT 15SM FEW100 BKN250 M12/M13 A3015 RMK AC2CI2 SLP264

CYQF;2007-01-31 11:00;CYQF 311100Z 21005KT 15SM FEW100 BKN250 M12/M14 A3011 RMK AC2CI2 SLP253

CYQF;2007-01-31 12:00;CYQF 311200Z 21004KT 15SM FEW100 BKN250 M13/M14 A3006 RMK AC2CI2 SLP238

CYQF;2007-01-31 13:00;CYQF 311300Z 21004KT 15SM FEW100 OVC250 M11/M13 A3002 RMK AC2CI5 SLP226

CYQF;2007-01-31 14:00;CYQF 311400Z 00000KT 15SM SCT120 OVC250 M11/M13 A2999 RMK AC4CI4 SLP216

CYQF;2007-01-31 15:00;CYQF 311500Z 23004KT 15SM OVC120 M10/M12 A2996 RMK AC8 SLP203

CYQF;2007-01-31 16:00;CYQF 311600Z 00000KT 12SM OVC080 M10/M12 A2995 RMK AC8 SLP202

CYQF;2007-01-31 17:00;CYQF 311700Z 25006KT 15SM OVC080 M08/M10 A2993 RMK AC8 VIRGA SLP193

CYQF;2007-01-31 17:39;CYQF 311739Z 28002KT 10SM -SN SCT020 OVC080 RMK SC3AC5

CYQF;2007-01-31 18:00;CYQF 311800Z 30010KT 3SM -SN SCT020 OVC080 M05/M08 A2994 RMK SC4AC4 SLP193

CYQF;2007-01-31 18:16;CYQF 311816Z 31012KT 1SM -SN DRSN OVC008 RMK SF8

CYQF;2007-01-31 18:55;CYQF 311855Z 31013KT 1SM -SN DRSN BKN020 OVC080 RMK SN6SC2AC0

CYQF;2007-01-31 19:00;CYQF 311900Z 31011KT 1SM -SN DRSN BKN020 OVC080 M05/M05 A2993 RMK SN5SC2AC0 SLP189

CYQF;2007-01-31 19:42;CYQF 311942Z 32014G20KT 1 1/2SM -SN DRSN BKN020 OVC080 RMK SN4SC3AC1

CYQF;2007-01-31 20:00;CYQF 312000Z 32015G22KT 1 1/2SM -SN DRSN OVC020 M04/M05 A2993 RMK SN4SC4 SLP188

CYQF;2007-01-31 20:47;CYQF 312047Z 33015G21KT 1SM -SN BLSN OVC020 M04/M04 RMK SN6SC2

CYQF;2007-01-31 21:00;CYQF 312100Z 34020G26KT 1SM -SN BLSN OVC020 M04/M04 A2993 RMK SN6SC2 VIS VBL 1/2-11/2 SLP195

CYQF;2007-01-31 22:00;CYQF 312200Z 32025G30KT 1SM -SN BLSN OVC010 M05/M05 A2995 RMK SN6SC2 VIS VBL 1/2-11/2 SLP202

CYQF;2007-01-31 22:23;CYQF 312223Z 33020G30KT 1/2SM -SN BLSN OVC010 M05/M05 RMK SN6SC2 VIS VBL 1/4-3/4

CYQF;2007-01-31 22:42;CYQF 312242Z 32012G22KT 1SM -SN BLSN OVC015 RMK SN5SC3 VIS VRB 1/2-11/2

CYQF;2007-01-31 23:00;CYQF 312300Z 32012G20KT 1SM -SN BLSN OVC015 M04/M05 A2998 RMK SN5SC3 VIS VRB 1/2-11/2 SLP210

CYQF;2007-02-01 01:00;CYQF 010100Z 32017G27KT 1SM -SN BLSN OVC015 M05/M06 A3001 RMK SN5SC3 VIS VRB 1/2-1 1/2 SLP224

CYQF;2007-02-01 02:00;CYQF 010200Z 32015G25KT 1SM -SN BLSN OVC020 M05/M06 A3001 RMK SN4SC4 SLP223

CYQF;2007-02-01 03:00;CYQF 010300Z 33020G25KT 1SM -SN BLSN OVC020 M05/M06 A3001 RMK SN4SC4 SLP220

CYQF;2007-02-01 04:00;CYQF 010400Z 33020G32KT 1SM -SN BLSN OVC015 M06/M06 A3001 RMK SN5SC3 VIS VRB 1/2-11/2 SLP222

CYQF;2007-02-01 05:00;CYQF 010500Z 33018G24KT 1SM -SN BLSN OVC015 M06/M06 A3001 RMK SN4SC4 VIS VRB 1/2-11/2 SLP222

CYQF;2007-02-01 06:00;CYQF 010600Z 33020G30KT 1SM -SN BLSN OVC020 M06/M06 A3002 RMK SN4SC4 VIS VRB 1/2-11/2 /S01/ SLP219

CYQF;2007-02-01 07:00;CYQF 010700Z 35018G28KT 2SM -SN BLSN SCT020 OVC050 M07/M07 A3004 RMK SN2SC2SC4 SLP225

CYQF;2007-02-01 07:19;CYQF 010719Z 35020G30KT 1/2SM -SN BLSN VV010 RMK SN8

CYQF;2007-02-01 08:00;CYQF 010800Z 36020G30KT 1/2SM -SN BLSN VV010 M09/M09 A3007 RMK SN8 SLP234

CYQF;2007-02-01 08:17;CYQF 010817Z 02017G28KT 1 1/2SM -SN BLSN BKN025 OVC050 RMK SC5SC3 MOON DMLY VSBL

CYQF;2007-02-01 09:00;CYQF 010900Z 03015G24KT 2SM -SN BLSN BKN025 OVC050 M12/M13 A3012 RMK SC5SC3 SLP261

CYQF;2007-02-01 10:00;CYQF 011000Z 04017G25KT 2SM -SN BLSN BKN025 OVC050 M13/M14 A3017 RMK SC5SC3 SLP276

CYQF;2007-02-01 10:35;CYQF 011035Z 03012G20KT 4SM -SN DRSN FEW025 BKN050 BKN100 RMK SC2SC3AC1

CYQF;2007-02-01 11:00;CYQF 011100Z 02012G20KT 15SM DRSN FEW025 SCT050 BKN100 M15/M16 A3023 RMK SC2SC2AC1 SLP293

CYQF;2007-02-01 12:00;CYQF 011200Z 01010KT 15SM SCT040 M16/M17 A3027 RMK SC3 SLP318

CYQF;2007-02-01 12:26;CYQF 011226Z 02010KT 10SM -SN BKN020 RMK SC6

CYQF;2007-02-01 13:00;CYQF 011300Z 01010KT 8SM -SN BKN020 M16/M19 A3032 RMK SC6 SLP332

CYQF;2007-02-01 14:00;CYQF 011400Z 35005KT 8SM -SN BKN020 M17/M21 A3034 RMK SC7 SLP340

CYQF;2007-02-01 15:00;CYQF 011500Z 35005KT 10SM SCT020 M18/M21 A3035 RMK SC4 SLP350

CYQF;2007-02-01 15:32;CYQF 011532Z 32005KT 15SM FEW020 M19/M23 RMK SC2

CYQF;2007-02-01 16:00;CYQF 011600Z 33005KT 15SM FEW030 M20/M23 A3035 RMK SC2 SLP349

CYQF;2007-02-01 17:00;CYQF 011700Z 31004KT 15SM FEW030 M19/M24 A3034 RMK SC1 SLP346

CYQF;2007-02-01 18:00;CYQF 011800Z 30002KT 15SM FEW030 M18/M23 A3032 RMK SC1 SLP340

CYQF;2007-02-01 19:00;CYQF 011900Z 00000KT 15SM FEW030 M17/M22 A3029 RMK SC1 SLP330

CYQF;2007-02-01 20:00;CYQF 012000Z 27002KT 15SM FEW030 M17/M22 A3025 RMK SC1 SLP317

CYQF;2007-02-01 21:00;CYQF 012100Z 27004KT 15SM FEW070 M16/M22 A3020 RMK AC2 SLP300

CYQF;2007-02-01 22:00;CYQF 012200Z 00000KT 15SM FEW080 M14/M22 A3016 RMK AC2 SLP288

CYQF;2007-02-01 23:00;CYQF 012300Z 00000KT 15SM FEW080 M14/M21 A3013 RMK AC1 SLP278

CYQF;2007-02-02 00:00;CYQF 020000Z 00000KT 15SM FEW080 M14/M21 A3010 RMK AC1 SLP271

CYQF;2007-02-02 01:00;CYQF 020100Z 21003KT 15SM FEW080 SCT250 M20/M24 A3007 RMK AC1CI0 SLP261

CYQF;2007-02-02 02:00;CYQF 020200Z 26007KT 15SM BKN090 BKN250 M17/M20 A3003 RMK AC5CI1 SLP248

CYQF;2007-02-02 03:00;CYQF 020300Z 25007KT 15SM OVC080 M14/M17 A3000 RMK AC7 SLP235

CYQF;2007-02-02 04:00;CYQF 020400Z 26007KT 15SM BKN050 OVC120 M14/M17 A2997 RMK SC5AC2 SLP226

CYQF;2007-02-02 05:00;CYQF 020500Z 27006KT 15SM OVC040 M12/M15 A2995 RMK SC8 SLP219

CYQF;2007-02-02 06:00;CYQF 020600Z 28005KT 15SM OVC040 M11/M13 A2993 RMK SC8 SLP210

CYQF;2007-02-02 07:00;CYQF 020700Z 30005KT 15SM OVC030 M10/M13 A2993 RMK SC8 SLP209

CYQF;2007-02-02 07:33;CYQF 020733Z 29005KT 15SM -SN OVC025 RMK SC8

CYQF;2007-02-02 08:00;CYQF 020800Z 31005KT 15SM -SN OVC025 M10/M13 A2991 RMK SC8 SLP204

CYQF;2007-02-02 09:00;CYQF 020900Z 32008KT 15SM -SN OVC025 M10/M13 A2993 RMK SC8 SLP203

CYQF;2007-02-02 10:00;CYQF 021000Z 33006KT 15SM -SN OVC025 M10/M13 A2994 RMK SC8 SLP207

CYQF;2007-02-02 11:00;CYQF 021100Z 34005KT 15SM BKN025 M10/M13 A2994 RMK SC7 SLP208

CYQF;2007-02-02 12:00;CYQF 021200Z 30004KT 15SM SCT025 SCT100 M13/M16 A2995 RMK SC3AC1 SLP212

CYQF;2007-02-02 13:00;CYQF 021300Z 29004KT 15SM FEW025 SCT220 M14/M17 A2995 RMK SC1CI1 SLP213

CYQF;2007-02-02 14:00;CYQF 021400Z 30005KT 15SM BKN030 M13/M16 A2996 RMK SC6 SLP216

CYQF;2007-02-02 15:00;CYQF 021500Z 31003KT 15SM SCT030 BKN070 M12/M15 A2996 RMK SC3AC4 SLP218

CYQF;2007-02-02 16:00;CYQF 021600Z 32004KT 15SM SCT030 OVC070 M12/M13 A2996 RMK SC3AC4 SLP218

CYQF;2007-02-02 17:00;CYQF 021700Z 34008KT 15SM FEW030 OVC070 M10/M14 A2997 RMK SC2AC5 SLP219

CYQF;2007-02-02 18:00;CYQF 021800Z 35006KT 15SM FEW030 OVC070 M09/M14 A2997 RMK SC2AC6 SLP214

CYQF;2007-02-02 19:00;CYQF 021900Z 35008KT 15SM FEW030 OVC080 M09/M16 A2997 RMK SC1AS6 SLP212

CYQF;2007-02-02 20:00;CYQF 022000Z 34004KT 15SM FEW030 OVC080 M09/M15 A2996 RMK SC1AS6 SLP211

CYQF;2007-02-02 21:00;CYQF 022100Z 33006KT 15SM FEW030 OVC080 M09/M16 A2995 RMK SC1AC6 SLP204

CYQF;2007-02-02 22:00;CYQF 022200Z 32006KT 15SM FEW030 OVC080 M08/M16 A2995 RMK SC1AC6 SLP203

CYQF;2007-02-02 23:00;CYQF 022300Z 00000KT 15SM FEW030 OVC080 M08/M16 A2995 RMK SC1AC6 SLP203

CYQF;2007-02-03 00:00;CYQF 030000Z 00000KT 15SM OVC080 M09/M13 A2995 RMK AC8 SLP207

CYQF;2007-02-03 01:00;CYQF 030100Z 00000KT 15SM OVC080 M10/M14 A2995 RMK AC8 SLP206

CYQF;2007-02-03 02:00;CYQF 030200Z 17002KT 15SM OVC080 M10/M14 A2995 RMK AC8 SLP206

CYQF;2007-02-03 03:00;CYQF 030300Z 18003KT 15SM OVC085 M10/M14 A2994 RMK AC8 SLP204

CYQF;2007-02-03 04:00;CYQF 030400Z 34008KT 15SM SCT030 OVC080 M08/M16 A2994 RMK SC3AC5 SLP203

CYQF;2007-02-03 05:00;CYQF 030500Z 26003KT 15SM FEW030 OVC080 M10/M14 A2994 RMK SC2AC6 SLP204

CYQF;2007-02-03 06:00;CYQF 030600Z 26004KT 15SM FEW030 OVC080 M10/M13 A2994 RMK SC2AC6 SLP200

CYQF;2007-02-03 07:00;CYQF 030700Z 30003KT 15SM OVC100 M09/M13 A2994 RMK AC8 SLP201

CYQF;2007-02-03 08:00;CYQF 030800Z 33004KT 15SM OVC100 M09/M14 A2994 RMK AC8 SLP201

CYQF;2007-02-03 09:00;CYQF 030900Z 03005KT 15SM OVC100 M10/M15 A2994 RMK AC8 SLP199

CYQF;2007-02-03 10:00;CYQF 031000Z 00000KT 15SM BKN100 M10/M16 A2995 RMK AC6 SLP202

CYQF;2007-02-03 11:00;CYQF 031100Z 00000KT 15SM BKN100 M11/M17 A2996 RMK AC6 SLP206

CYQF;2007-02-03 12:00;CYQF 031200Z 00000KT 15SM BKN100 M11/M15 A2997 RMK AC6 SLP212

CYQF;2007-02-03 13:00;CYQF 031300Z 00000KT 15SM BKN100 M11/M16 A2997 RMK AC6 SLP213

CYQF;2007-02-03 14:00;CYQF 031400Z 00000KT 15SM BKN100 M11/M16 A2997 RMK AC6 SLP214

CYQF;2007-02-03 15:00;CYQF 031500Z 00000KT 15SM BKN100 M11/M16 A2999 RMK AC6 SLP222

CYQF;2007-02-03 16:00;CYQF 031600Z 00000KT 15SM BKN100 M11/M14 A3001 RMK AC6 SLP227

CYQF;2007-02-03 17:00;CYQF 031700Z 00000KT 15SM BKN100 M09/M14 A3003 RMK AC6 SLP233

CYQF;2007-02-03 18:00;CYQF 031800Z 00000KT 15SM SCT100 SCT250 M08/M14 A3003 RMK AC3CI1 SLP231

CYQF;2007-02-03 19:00;CYQF 031900Z 00000KT 15SM BKN120 BKN250 M08/M14 A3003 RMK AC5CI0 SLP232

CYQF;2007-02-03 20:00;CYQF 032000Z 00000KT 15SM SCT120 SCT250 M07/M12 A3002 RMK AC3CI1 SLP229

CYQF;2007-02-03 21:00;CYQF 032100Z 00000KT 15SM FEW250 M06/M12 A3001 RMK CI0 SLP223

CYQF;2007-02-03 22:00;CYQF 032200Z 00000KT 15SM FEW250 M06/M13 A3000 RMK CI1 SLP218

CYQF;2007-02-03 23:00;CYQF 032300Z 15004KT 15SM FEW250 M06/M14 A3000 RMK CI1 SLP220

CYQF;2007-02-04 00:00;CYQF 040000Z 15003KT 15SM FEW250 M08/M14 A3000 RMK CI1 SLP221

CYQF;2007-02-04 01:00;CYQF 040100Z 18003KT 15SM FEW250 M11/M14 A3000 RMK CI1 SLP222

CYQF;2007-02-04 02:00;CYQF 040200Z 19006KT 15SM FEW250 M13/M16 A2999 RMK CI1 SLP219

CYQF;2007-02-04 03:00;CYQF 040300Z 17005KT 15SM FEW120 BKN250 M12/M15 A2998 RMK AC2CI2 SLP219

CYQF;2007-02-04 04:00;CYQF 040400Z 18005KT 15SM FEW120 BKN250 M10/M14 A2996 RMK AC2CI2 SLP214

CYQF;2007-02-04 05:00;CYQF 040500Z 19004KT 15SM SCT250 M10/M13 A2994 RMK CI2 SLP207

CYQF;2007-02-04 06:00;CYQF 040600Z 19003KT 15SM BKN250 M11/M13 A2994 RMK CI2 SLP200

CYQF;2007-02-04 07:00;CYQF 040700Z 18003KT 15SM OVC210 M11/M12 A2994 RMK CI7 SLP200

CYQF;2007-02-04 08:00;CYQF 040800Z 00000KT 15SM OVC210 M11/M12 A2993 RMK CI6 SLP199

CYQF;2007-02-04 09:00;CYQF 040900Z 22002KT 15SM OVC100 M10/M12 A2994 RMK AC8 SLP196

CYQF;2007-02-04 10:00;CYQF 041000Z 21006KT 15SM OVC100 M09/M11 A2993 RMK AC8 SLP194

CYQF;2007-02-04 11:00;CYQF 041100Z 00000KT 15SM SCT100 OVC210 M09/M11 A2994 RMK AC3CI4 SLP196

CYQF;2007-02-04 12:00;CYQF 041200Z 20004KT 15SM OVC100 M08/M10 A2994 RMK AC8 SLP197

CYQF;2007-02-04 13:00;CYQF 041300Z 20007KT 15SM BKN100 OVC210 M07/M08 A2992 RMK AC6CI2 SLP191

CYQF;2007-02-04 14:00;CYQF 041400Z 21004KT 15SM FEW100 BKN210 M07/M09 A2991 RMK AC2CI2 SLP189

CYQF;2007-02-04 15:00;CYQF 041500Z 21002KT 15SM FEW100 BKN250 M09/M09 A2993 RMK AC2CI2 SLP197

CYQF;2007-02-04 16:00;CYQF 041600Z 00000KT 15SM BKN100 BKN250 M09/M09 A2993 RMK AC6CI1 SLP197

CYQF;2007-02-04 17:00;CYQF 041700Z 00000KT 15SM BKN100 OVC250 M06/M07 A2997 RMK AC6CI1 SLP212

CYQF;2007-02-04 18:00;CYQF 041800Z 00000KT 15SM SCT100 OVC250 M05/M07 A3000 RMK AC4CI2 SLP218

CYQF;2007-02-04 19:00;CYQF 041900Z 00000KT 15SM SCT100 OVC250 M04/M07 A3002 RMK AC3CI2 SLP223

CYQF;2007-02-04 20:00;CYQF 042000Z 00000KT 15SM FEW100 BKN250 M03/M06 A3003 RMK AC2CI2 SLP226

CYQF;2007-02-04 21:00;CYQF 042100Z 22007KT 15SM FEW100 BKN250 M01/M04 A3004 RMK AC2CI2 SLP224

CYQF;2007-02-04 22:00;CYQF 042200Z 25004KT 15SM BKN100 BKN250 M01/M05 A3004 RMK AC4CI2 SLP225

CYQF;2007-02-04 23:00;CYQF 042300Z 26004KT 15SM BKN100 BKN250 M01/M05 A3005 RMK AC4CI2 SLP230

CYQF;2007-02-05 00:00;CYQF 050000Z 26004KT 15SM SCT100 BKN250 M01/M05 A3007 RMK AC3CI3 SLP235

CYQF;2007-02-05 01:00;CYQF 050100Z 26003KT 15SM SCT100 BKN250 M02/M05 A3008 RMK AC3CI3 SLP238

CYQF;2007-02-05 02:00;CYQF 050200Z 00000KT 15SM BKN090 OVC250 M02/M05 A3008 RMK AC5CI2 SLP238

CYQF;2007-02-05 03:00;CYQF 050300Z 00000KT 15SM BKN090 OVC250 M03/M04 A3008 RMK AC5CI2 SLP241

CYQF;2007-02-05 04:00;CYQF 050400Z 00000KT 15SM SCT090 OVC250 M02/M04 A3008 RMK AC4CI4 SLP240

CYQF;2007-02-05 05:00;CYQF 050500Z 00000KT 15SM SCT040 OVC100 M01/M04 A3006 RMK SC4AC4 SLP235

CYQF;2007-02-05 06:00;CYQF 050600Z 00000KT 15SM BKN040 BKN100 OVC250 M01/M03 A3006 RMK SC5AC2CI1 SLP226

CYQF;2007-02-05 07:00;CYQF 050700Z 00000KT 15SM FEW040 BKN100 BKN250 M02/M04 A3005 RMK SC2AC2CI1 SLP224

CYQF;2007-02-05 08:00;CYQF 050800Z 00000KT 15SM BKN050 BKN100 BKN250 M02/M04 A3004 RMK SC5AC2CI0 SLP221

CYQF;2007-02-05 09:00;CYQF 050900Z 00000KT 15SM BKN050 BKN100 BKN250 M04/M05 A3004 RMK SC5AC2CI0 SLP218

CYQF;2007-02-05 10:00;CYQF 051000Z 00000KT 15SM FEW050 SCT100 BKN250 M04/M05 A3003 RMK SC2AC2CI1 SLP215

CYQF;2007-02-05 11:00;CYQF 051100Z 00000KT 15SM FEW050 BKN100 BKN250 M03/M05 A3003 RMK SC2AC2CI1 SLP214

CYQF;2007-02-05 12:00;CYQF 051200Z 19003KT 15SM FEW050 SCT100 SCT250 M03/M05 A2999 RMK SC1AC2CI0 SLP202

CYQF;2007-02-05 13:00;CYQF 051300Z 19002KT 15SM FEW050 BKN100 BKN250 M05/M07 A2998 RMK SC2AC3CI1 SLP197

CYQF;2007-02-05 14:00;CYQF 051400Z 00000KT 15SM FEW050 BKN100 BKN250 M05/M06 A2996 RMK SC1AC5CI1 SLP191

CYQF;2007-02-05 15:00;CYQF 051500Z 19004KT 15SM FEW050 BKN100 OVC250 M04/M06 A2995 RMK SC1AC6CI1 SLP190

CYQF;2007-02-05 16:00;CYQF 051600Z 00000KT 15SM FEW040 OVC090 M04/M06 A2995 RMK SC1AC6 SLP191

CYQF;2007-02-05 17:00;CYQF 051700Z 18003KT 15SM FEW050 BKN090 OVC250 M03/M05 A2993 RMK SC1AC5CI2 SLP185

CYQF;2007-02-05 18:00;CYQF 051800Z 19003KT 15SM FEW050 BKN090 OVC250 M03/M05 A2993 RMK SC1AC5CI2 SLP180

CYQF;2007-02-05 19:00;CYQF 051900Z 19003KT 15SM FEW050 BKN100 BKN250 M01/M04 A2992 RMK SC1AC4CI2 SLP176

CYQF;2007-02-05 20:00;CYQF 052000Z 00000KT 15SM FEW050 SCT100 BKN250 M00/M04 A2991 RMK SC1AC4CI2 SLP173

CYQF;2007-02-05 21:00;CYQF 052100Z 17004KT 15SM FEW050 SCT100 BKN250 00/M03 A2987 RMK SC1AC3CI2 SLP159

CYQF;2007-02-05 22:00;CYQF 052200Z 20003KT 15SM FEW050 SCT100 BKN250 01/M03 A2986 RMK SC1AC4CI2 SLP157

CYQF;2007-02-05 23:00;CYQF 052300Z 16002KT 15SM FEW050 BKN090 BKN250 01/M03 A2988 RMK SC1AC4CI2 SLP162

CYQF;2007-02-06 00:00;CYQF 060000Z 13002KT 15SM FEW050 SCT090 BKN250 01/M03 A2992 RMK SC2AC2CI2 SLP173

CYQF;2007-02-06 01:00;CYQF 060100Z 00000KT 15SM SCT045 BKN090 BKN250 M00/M02 A2994 RMK SC3AC2CI1 SLP179

CYQF;2007-02-06 02:00;CYQF 060200Z 34010KT 15SM FEW030 BKN045 OVC090 02/M01 A2998 RMK SC2SC5AC2 SLP192

CYQF;2007-02-06 02:30;CYQF 060230Z 33012G18KT 15SM FEW007 OVC045 RMK SF1SC7

CYQF;2007-02-06 03:00;CYQF 060300Z 32010G15KT 15SM FEW007 BKN021 OVC045 03/01 A3002 RMK SF1SC4SC3 PIREP/ JS31 CLD TOP 057ASL SLP206

CYQF;2007-02-06 03:27;CYQF 060327Z 34020G30KT 15SM BKN020 OVC045 RMK SC5SC3

CYQF;2007-02-06 04:00;CYQF 060400Z 34010G22KT 15SM BKN025 OVC045 02/00 A3005 RMK SC7SC1 SLP216

CYQF;2007-02-06 04:46;CYQF 060446Z 02015G23KT 10SM OVC008 RMK ST8 VSBY N-E 5BR

CYQF;2007-02-06 05:00;CYQF 060500Z 36015G20KT 8SM OVC006 M02/M03 A3009 RMK ST8 SLP228

CYQF;2007-02-06 06:00;CYQF 060600Z 03010KT 8SM OVC007 M06/M07 A3014 RMK ST8 SLP258

CYQF;2007-02-06 07:00;CYQF 060700Z 36012KT 10SM OVC006 M08/M09 A3018 RMK ST8 SLP271

CYQF;2007-02-06 08:00;CYQF 060800Z 01012KT 10SM SCT006 OVC025 M09/M11 A3019 RMK ST4SC4 SLP274

CYQF;2007-02-06 09:00;CYQF 060900Z 01014KT 15SM FEW006 BKN025 OVC080 M10/M11 A3020 RMK ST2SC5AC2 SLP280

CYQF;2007-02-06 10:00;CYQF 061000Z 01012KT 15SM SCT025 OVC070 M10/M11 A3023 RMK SC3AC5 SLP289

CYQF;2007-02-06 11:00;CYQF 061100Z 02010KT 15SM FEW020 OVC050 M11/M13 A3024 RMK SC2SC6 SLP293

CYQF;2007-02-06 12:00;CYQF 061200Z 01005KT 15SM FEW020 OVC050 M11/M13 A3026 RMK SC2SC6 SLP301

CYQF;2007-02-06 12:39;CYQF 061239Z 02005KT 10SM -SN FEW020 OVC050 RMK SC2SC6

CYQF;2007-02-06 13:00;CYQF 061300Z 02003KT 15SM -SN FEW050 OVC090 M12/M13 A3026 RMK SC2AC6 SLP303

CYQF;2007-02-06 14:00;CYQF 061400Z 02004KT 15SM -SN FEW020 OVC090 M12/M13 A3027 RMK SC2AC6 SLP306

CYQF;2007-02-06 15:00;CYQF 061500Z 01003KT 3SM -SN SCT050 OVC090 M12/M13 A3027 RMK SC3AC5 SLP305

CYQF;2007-02-06 16:00;CYQF 061600Z 00000KT 1 3/4SM -SN BR SCT020 OVC050 M12/M13 A3028 RMK SN2SC2SC5 SLP308

CYQF;2007-02-06 16:25;CYQF 061625Z 00000KT 2 1/2SM -SN BR SCT020 OVC050 RMK SN2SC2SC5

CYQF;2007-02-06 17:00;CYQF 061700Z 00000KT 2 1/4SM -SN BR SCT020 OVC050 M12/M13 A3029 RMK SN2SC2SC4 SLP310

CYQF;2007-02-06 18:00;CYQF 061800Z 07005KT 2SM -SN BR SCT050 OVC090 M12/M13 A3029 RMK SN2SC2AC3 /S01/ SLP320

CYQF;2007-02-06 19:00;CYQF 061900Z 08004KT 2SM -SN BR OVC050 M12/M13 A3028 RMK SN2SC6 SLP319

CYQF;2007-02-06 19:43;CYQF 061943Z 07004KT 8SM -SN BKN025 OVC050 RMK SC5SC3

CYQF;2007-02-06 20:00;CYQF 062000Z 07004KT 6SM -SN BKN025 OVC050 M12/M13 A3027 RMK SC5SC3 SLP316

CYQF;2007-02-06 21:00;CYQF 062100Z 05005KT 2SM -SN BR BKN025 OVC050 M11/M13 A3026 RMK SN2SC5SC2 SLP316

CYQF;2007-02-06 21:46;CYQF 062146Z 06003KT 5SM -SN BR SCT025 OVC050 RMK SC4SC4

CYQF;2007-02-06 22:00;CYQF 062200Z 07003KT 6SM -SN BR SCT025 OVC050 M11/M13 A3026 RMK SC4SC4 /S01/ SLP314

CYQF;2007-02-06 23:00;CYQF 062300Z 09003KT 2 1/2SM -SN BR BKN025 OVC050 M12/M13 A3026 RMK SN2SC3SC3 SLP316

CYQF;2007-02-07 00:00;CYQF 070000Z 06005KT 1 3/4SM -SN BR VV020 M12/M13 A3027 RMK SN8 /S02/ SLP321

CYQF;2007-02-07 01:00;CYQF 070100Z 07006KT 1 3/4SM -SN BR VV025 M12/M13 A3027 RMK SN8 SLP322

CYQF;2007-02-07 01:29;CYQF 070129Z 08005KT 2 1/2SM -SN BR VV025 RMK SN8

CYQF;2007-02-07 02:00;CYQF 070200Z 07004KT 2 1/2SM -SN BR VV030 M12/M13 A3027 RMK SN8 SLP321

CYQF;2007-02-07 02:22;CYQF 070222Z 09002KT 1 1/2SM -SN BR VV025 RMK SN8

CYQF;2007-02-07 03:00;CYQF 070300Z 06004KT 1 1/2SM -SN BR VV025 M12/M13 A3027 RMK SN8 /S01/ SLP322

CYQF;2007-02-07 04:00;CYQF 070400Z 06005KT 1 1/2SM -SN BR VV030 M13/M14 A3028 RMK SN8 SLP324

CYQF;2007-02-07 04:15;CYQF 070415Z 07005KT 1SM -SN BR VV015 RMK SN8

CYQF;2007-02-07 04:40;CYQF 070440Z 09006KT 2SM -SN BR OVC080 RMK SN6AC2

CYQF;2007-02-07 05:00;CYQF 070500Z 08005KT 2SM -SN BR OVC075 M13/M14 A3028 RMK SN6AC2 SLP325

CYQF;2007-02-07 05:18;CYQF 070518Z 09006KT 1 1/2SM -SN BR VV025 RMK SN8

CYQF;2007-02-07 06:00;CYQF 070600Z 09004KT 1 1/2SM -SN BR VV030 M14/M15 A3027 RMK SN8 /S02/ SLP325

CYQF;2007-02-07 07:00;CYQF 070700Z 09008KT 2SM -SN BR OVC080 M14/M15 A3028 RMK SN6AC2 OBS TAKEN +04 SLP326

CYQF;2007-02-07 08:00;CYQF 070800Z 09006KT 3SM -SN BR OVC080 M14/M15 A3027 RMK SN3AC5 SLP324

CYQF;2007-02-07 09:00;CYQF 070900Z 09004KT 5SM -SN OVC080 M14/M15 A3026 RMK AC8 SLP320

CYQF;2007-02-07 10:00;CYQF 071000Z 08005KT 6SM -SN SCT030 OVC080 M14/M15 A3026 RMK SC3AC5 SLP321

CYQF;2007-02-07 11:00;CYQF 071100Z 07006KT 8SM -SN SCT030 OVC080 M15/M16 A3026 RMK SC3AC5 OBS TAKEN +09 SLP320

CYQF;2007-02-07 12:00;CYQF 071200Z CCA 07006KT 8SM -SN BKN030 OVC080 M15/M16 A3026 RMK SC6AC2 /S01/ SLP320

CYQF;2007-02-07 12:42;CYQF 071242Z 07004KT 15SM BKN030 OVC080 RMK SC6AC2

CYQF;2007-02-07 13:00;CYQF 071300Z 07008KT 15SM BKN025 OVC080 M15/M16 A3027 RMK SC6AC2 SLP324

CYQF;2007-02-07 14:00;CYQF 071400Z 08004KT 15SM BKN027 OVC080 M14/M15 A3028 RMK SC6AC2 SLP326

CYQF;2007-02-07 15:00;CYQF 071500Z 11003KT 15SM BKN022 OVC080 M14/M15 A3028 RMK SC4AC4 SLP328

CYQF;2007-02-07 16:00;CYQF 071600Z 12005KT 15SM SCT022 OVC080 M14/M15 A3030 RMK SC2AC6 SLP333

CYQF;2007-02-07 16:29;CYQF 071629Z 05005KT 6SM -SN OVC026 RMK SC8

CYQF;2007-02-07 17:00;CYQF 071700Z 11002KT 6SM -SN OVC026 M14/M15 A3030 RMK SC8 SLP333

CYQF;2007-02-07 18:00;CYQF 071800Z 11007KT 6SM -SN OVC026 M13/M15 A3030 RMK SC8 SLP334

CYQF;2007-02-07 19:00;CYQF 071900Z 10005KT 5SM -SN BKN025 OVC070 M13/M15 A3030 RMK SC7AC1 SLP335

CYQF;2007-02-07 20:00;CYQF 072000Z 11002KT 6SM -SN BKN025 OVC070 M13/M14 A3030 RMK SC7AC1 SLP335

CYQF;2007-02-07 21:00;CYQF 072100Z 09008KT 8SM -SN FEW025 OVC070 M13/M14 A3030 RMK SC2AC6 SLP335

CYQF;2007-02-07 22:00;CYQF 072200Z 00000KT 8SM -SN FEW025 OVC070 M12/M14 A3029 RMK SC2AC6 SLP333

CYQF;2007-02-07 23:00;CYQF 072300Z 00000KT 3SM -SN OVC070 M12/M14 A3028 RMK SN3AC5 SLP328

CYQF;2007-02-07 23:10;CYQF 072310Z 00000KT 2SM -SN VV025 RMK SN8

CYQF;2007-02-08 00:00;CYQF 080000Z CCA 00000KT 2SM -SN OVC070 M13/M24 A3029 RMK SN5AC3 /S01/ SLP331

CYQF;2007-02-08 01:00;CYQF 080100Z 00000KT 3SM -SN OVC070 M13/M15 A3029 RMK SN4AC4 SLP332

CYQF;2007-02-08 02:00;CYQF 080200Z 09005KT 10SM -SN OVC050 M14/M15 A3030 RMK SC8 WND SPD EST SLP334

CYQF;2007-02-08 03:00;CYQF 080300Z 10005KT 10SM -SN OVC050 M13/M15 A3030 RMK SC8 WND SPD EST OBS TAKEN +21 SLP335

CYQF;2007-02-08 04:00;CYQF 080400Z 12005KT 8SM FEW022 OVC040 M14/M15 A3030 RMK SC2SC6 WND SPD EST SLP335

CYQF;2007-02-08 05:00;CYQF 080500Z 09005KT 8SM -SN OVC037 M14/M16 A3029 RMK SC8 WND SPD EST SLP334

CYQF;2007-02-08 06:00;CYQF 080600Z 11005KT 8SM -SN OVC048 M14/M16 A3028 RMK SC8 WND SPD EST SLP330

CYQF;2007-02-08 07:00;CYQF 080700Z 11005KT 8SM -SN OVC050 M14/M16 A3028 RMK SC8 WND SPD EST SLP329

CYQF;2007-02-08 08:00;CYQF 080800Z 12005KT 8SM -SN OVC050 M14/M17 A3027 RMK SC8 WND SPD EST OBS TAKEN +17 SLP325

CYQF;2007-02-08 09:00;CYQF 080900Z 14005KT 10SM -SN OVC050 M14/M17 A3026 RMK SC8 WND SPD EST SLP323

CYQF;2007-02-08 10:00;CYQF 081000Z 15005KT 10SM -SN BKN050 OVC080 M14/M17 A3026 RMK SC6AC2 WND SPD EST SLP321

CYQF;2007-02-08 11:00;CYQF 081100Z 09005KT 8SM -SN OVC050 M14/M18 A3027 RMK SC8 WND SPD EST SLP324

CYQF;2007-02-08 12:00;CYQF 081200Z 06005KT 4SM -SN OVC050 M15/M17 A3026 RMK SN2SC6 WND SPD EST SLP324

CYQF;2007-02-08 13:00;CYQF 081300Z 06005KT 3SM -SN OVC050 M15/M17 A3027 RMK SN3SC5 WND SPD EST SLP326

CYQF;2007-02-08 14:00;CYQF 081400Z 05005KT 3SM -SN OVC050 M16/M18 A3028 RMK SN3SC5 WND SPD EST SLP328

CYQF;2007-02-08 15:00;CYQF 081500Z 07008KT 3SM -SN OVC040 M16/M18 A3029 RMK SN2SC6 WND SPD EST SLP334

CYQF;2007-02-08 15:14;CYQF 081514Z 07005KT 1 3/4SM -SN OVC040 RMK SN4SC4 WND SPD EST

CYQF;2007-02-08 16:00;CYQF 081600Z 06004KT 1 3/4SM -SN OVC045 M15/M18 A3030 RMK SN3SC5 SLP337

CYQF;2007-02-08 17:00;CYQF 081700Z 09006KT 1 1/4SM -SN VV040 M15/M18 A3031 RMK SN8 SLP340

CYQF;2007-02-08 17:12;CYQF 081712Z 09003KT 1 1/2SM -SN VV040 RMK SN8

CYQF;2007-02-08 17:44;CYQF 081744Z 15003KT 2 1/2SM -SN OVC045 RMK SN3SC5 /S01/

CYQF;2007-02-08 18:00;CYQF 081800Z 14003KT 2 1/2SM -SN OVC035 M15/M18 A3031 RMK SN3SC5 SLP342

CYQF;2007-02-08 18:16;CYQF 081816Z 13005KT 2SM -SN OVC035 RMK SN6SC2 VSBY VRBL 11/2 - 21/2

CYQF;2007-02-08 18:37;CYQF 081837Z CCA 13005KT 2SM -SN OVC035 RMK SN6SC2 VIS VRB 11/2 - 21/2

CYQF;2007-02-08 19:00;CYQF 081900Z 10005KT 2SM -SN OVC035 M14/M17 A3032 RMK SN6SC2 VIS VRB 11/2-21/2 SLP345

CYQF;2007-02-08 20:00;CYQF 082000Z 07007KT 2SM -SN OVC035 M15/M18 A3032 RMK SN6SC2 VIS VRB 11/2-21/2 SLP344

CYQF;2007-02-08 21:00;CYQF 082100Z 06007KT 2SM -SN OVC035 M15/M17 A3031 RMK SN6SC2 SLP342

CYQF;2007-02-08 21:13;CYQF 082113Z 06006KT 5SM -SN OVC035 RMK SN3SC5

CYQF;2007-02-08 22:00;CYQF 082200Z 06008KT 5SM -SN OVC035 M15/M18 A3031 RMK SN2SC6 SLP341

CYQF;2007-02-08 23:00;CYQF 082300Z CCA 07008KT 2 1/2SM -SN OVC035 M15/M18 A3032 RMK SN5SC3 /S01/ SLP344

CYQF;2007-02-08 23:45;CYQF 082345Z 06008KT 2SM -SN OVC035 RMK SN6SC2 VIS VRB 11/2-21/2

CYQF;2007-02-09 00:00;CYQF 090000Z 06008KT 2SM -SN OVC035 M15/M18 A3033 RMK SN6SC2 VIS VRB 11/2-21/2 SLP348

CYQF;2007-02-09 01:00;CYQF 090100Z 07010KT 2SM -SN OVC035 M16/M19 A3034 RMK SN6SC2 VIS VRB 11/2-21/2 OBS TAKEN +6 SLP352

CYQF;2007-02-09 02:00;CYQF 090200Z 06008KT 2SM -SN OVC060 M17/M19 A3035 RMK SN6SC2 SLP357

CYQF;2007-02-09 03:00;CYQF 090300Z 06006KT 2SM -SN OVC060 M17/M20 A3035 RMK SN6SC2 SLP360

CYQF;2007-02-09 04:00;CYQF 090400Z 07005KT 2SM -SN VV050 M17/M19 A3036 RMK SN8 /S01/ SLP362

CYQF;2007-02-09 04:47;CYQF 090447Z 06004KT 3SM -SN OVC065 RMK SN6SC2

CYQF;2007-02-09 05:00;CYQF 090500Z 07003KT 3SM -SN OVC065 M17/M20 A3036 RMK SN6SC2 SLP362

CYQF;2007-02-09 05:52;CYQF 090552Z 07006KT 2 1/2SM -SN VV075 RMK SN8

CYQF;2007-02-09 06:00;CYQF 090600Z 08004KT 2 1/2SM -SN VV075 M17/M20 A3036 RMK SN8 SLP362

CYQF;2007-02-09 06:23;CYQF 090623Z 07006KT 3SM -SN VV075 RMK SN8

CYQF;2007-02-09 07:00;CYQF 090700Z 07005KT 4SM -SN VV075 M17/M20 A3036 RMK SN8 SLP363

CYQF;2007-02-09 08:00;CYQF 090800Z 08004KT 12SM -SN OVC100 M17/M20 A3036 RMK AC8 SLP362

CYQF;2007-02-09 09:00;CYQF 090900Z 09003KT 15SM -SN FEW050 OVC100 M17/M20 A3036 RMK SC2AC6 SLP361

CYQF;2007-02-09 10:00;CYQF 091000Z 07004KT 15SM -SN FEW050 OVC100 M17/M20 A3036 RMK SC2AC6 SLP363

CYQF;2007-02-09 11:00;CYQF 091100Z 07006KT 15SM -SN BKN050 OVC100 M17/M20 A3035 RMK SC5AC3 SLP359

CYQF;2007-02-09 12:00;CYQF 091200Z 09005KT 8SM -SN BKN050 OVC100 M17/M20 A3036 RMK SC6AC2 /S01/ SLP362

CYQF;2007-02-09 13:00;CYQF 091300Z 09005KT 10SM -SN BKN050 OVC100 M17/M20 A3036 RMK SC5AC3 SLP362

CYQF;2007-02-09 14:00;CYQF 091400Z 09005KT 10SM -SN BKN050 OVC100 M17/M21 A3034 RMK SC5AC3 SLP358

CYQF;2007-02-09 15:00;CYQF 091500Z 10005KT 5SM -SN OVC050 M17/M20 A3035 RMK SC8 SLP360

CYQF;2007-02-09 16:00;CYQF 091600Z 14007KT 10SM -SN FEW050 OVC100 M17/M21 A3035 RMK SC2AS6 SLP362

CYQF;2007-02-09 17:00;CYQF 091700Z 14006KT 12SM -SN OVC100 M17/M21 A3035 RMK AS8 SLP360

CYQF;2007-02-09 18:00;CYQF 091800Z 14006KT 10SM -SN OVC070 M17/M20 A3034 RMK AC8 SLP358

CYQF;2007-02-09 19:00;CYQF 091900Z 12005KT 10SM -SN OVC070 M16/M20 A3034 RMK AC8 SLP356

CYQF;2007-02-09 20:00;CYQF 092000Z 12007KT 12SM -SN BKN070 M16/M20 A3033 RMK AC7 SLP353

CYQF;2007-02-09 21:00;CYQF 092100Z 12007KT 12SM FEW040 BKN070 OVC200 M15/M19 A3030 RMK SC1AC5CI2 SLP342

CYQF;2007-02-09 22:00;CYQF 092200Z 14008KT 12SM FEW040 BKN070 OVC200 M15/M18 A3028 RMK SC1AC5CI2 SLP335

CYQF;2007-02-09 23:00;CYQF 092300Z 13009KT 12SM FEW040 BKN100 OVC200 M15/M19 A3027 RMK SC1AC6CI2 SLP331

CYQF;2007-02-10 00:00;CYQF 100000Z 12008KT 12SM BKN100 OVC200 M16/M19 A3026 RMK AC6CI2 SLP330

CYQF;2007-02-10 01:00;CYQF 100100Z 12007KT 15SM BKN100 OVC200 M16/M19 A3025 RMK AC6CI2 SLP327

CYQF;2007-02-10 02:00;CYQF 100200Z 15010KT 15SM BKN080 OVC200 M16/M19 A3025 RMK AC6CI2 OB TAKEN +6 SLP324

CYQF;2007-02-10 03:00;CYQF 100300Z 14006KT 15SM FEW020 BKN050 OVC200 M16/M19 A3024 RMK SC1SC6CI1 SLP320

CYQF;2007-02-10 04:00;CYQF 100400Z 11005KT 10SM FEW020 OVC040 M16/M19 A3021 RMK SC2SC6 SLP313

CYQF;2007-02-10 04:24;CYQF 100424Z 10003KT 10SM -SN FEW020 OVC040 RMK SC2SC6

CYQF;2007-02-10 05:00;CYQF 100500Z 13005KT 10SM -SN BKN040 M17/M20 A3020 RMK SC5 SLP310

CYQF;2007-02-10 05:34;CYQF 100534Z 11005KT 10SM BKN050 RMK SC2

CYQF;2007-02-10 06:00;CYQF 100600Z 11006KT 10SM BKN050 M17/M20 A3019 RMK SC2 SLP306

CYQF;2007-02-10 07:00;CYQF 100700Z 14006KT 10SM BKN050 M18/M21 A3017 RMK SC2 SLP300

CYQF;2007-02-10 07:30;CYQF 100730Z 15006KT 15SM SKC

CYQF;2007-02-10 08:00;CYQF 100800Z 17007KT 15SM FEW210 M19/M22 A3015 RMK CI1 SLP292

CYQF;2007-02-10 09:00;CYQF 100900Z 13003KT 15SM SKC M20/M23 A3013 RMK SLP285

CYQF;2007-02-10 09:16;CYQF 100916Z CCA 13003KT 12SM -SN SCT080 RMK AC2

CYQF;2007-02-10 09:17;CYQF 100917Z 13003KT 12SM SCT080 RMK AC2

CYQF;2007-02-10 10:00;CYQF 101000Z 00000KT 12SM -SN BKN080 M19/M22 A3012 RMK AC2 SLP281

CYQF;2007-02-10 11:00;CYQF 101100Z 16006KT 15SM -SN BKN080 M18/M21 A3009 RMK AC4 SLP274

CYQF;2007-02-10 11:39;CYQF 101139Z 18006KT 15SM FEW080 RMK AC2

CYQF;2007-02-10 12:00;CYQF 101200Z 16003KT 15SM FEW080 M19/M22 A3007 RMK AC2 SLP266

CYQF;2007-02-10 13:00;CYQF 101300Z 00000KT 15SM BKN080 M19/M22 A3006 RMK AC7 SLP261

CYQF;2007-02-10 13:34;CYQF 101334Z 12003KT 10SM -SN BKN080 RMK AC7

CYQF;2007-02-10 14:00;CYQF 101400Z 13003KT 15SM BKN080 M18/M20 A3005 RMK AC7 SLP257

CYQF;2007-02-10 15:00;CYQF 101500Z 19003KT 6SM BR BKN080 BKN200 M17/M20 A3002 RMK AC7CI1 SLP247

CYQF;2007-02-10 15:48;CYQF 101548Z 22005KT 8SM SCT080 OVC200 RMK AC3CI2 IC

CYQF;2007-02-10 16:00;CYQF 101600Z 21005KT 8SM FEW100 BKN200 M18/M21 A3002 RMK AC2CI2 IC SLP246

CYQF;2007-02-10 17:00;CYQF 101700Z 20005KT 5SM BR SCT080 BKN200 M18/M21 A3001 RMK AC3CI1 SLP242

CYQF;2007-02-10 18:00;CYQF 101800Z 19003KT 8SM SCT080 BKN200 M18/M21 A2998 RMK AC3CI1 OB TAKEN +18 SLP232

CYQF;2007-02-10 19:00;CYQF 101900Z CCA 00000KT 8SM FEW080 BKN200 M17/M20 A2996 RMK AC2CI1 SLP228

CYQF;2007-02-10 20:00;CYQF 102000Z 00000KT 8SM SCT080 BKN200 M16/M20 A2995 RMK AC3CI1 SLP223

CYQF;2007-02-10 21:00;CYQF 102100Z 00000KT 8SM BKN080 BKN200 M15/M19 A2992 RMK AC5CI1 SLP213

CYQF;2007-02-10 22:00;CYQF 102200Z 00000KT 8SM BKN080 BKN200 M15/M19 A2991 RMK AC6CI1 SLP208

CYQF;2007-02-10 23:00;CYQF 102300Z 00000KT 8SM BKN080 M14/M19 A2989 RMK AC7 SLP202

CYQF;2007-02-11 00:00;CYQF 110000Z 00000KT 8SM BKN080 M14/M18 A2989 RMK AC7 SLP199

CYQF;2007-02-11 00:43;CYQF 110043Z 00000KT 8SM -SN FEW020 BKN080 RMK SC2AC6

CYQF;2007-02-11 01:00;CYQF 110100Z 00000KT 8SM -SN FEW020 BKN080 M14/M18 A2987 RMK SC2AC6 SLP194

CYQF;2007-02-11 02:00;CYQF 110200Z 00000KT 10SM -SN FEW020 BKN090 M14/M18 A2985 RMK SC2AC6 SLP189

CYQF;2007-02-11 03:00;CYQF 110300Z 00000KT 10SM -SN FEW020 BKN090 M14/M18 A2984 RMK SC2AC6 SLP180

CYQF;2007-02-11 04:00;CYQF 110400Z 00000KT 10SM -SN FEW020 BKN090 M14/M17 A2984 RMK SC2AC6 SLP180

CYQF;2007-02-11 05:00;CYQF 110500Z 05003KT 10SM -SN BKN020 OVC090 M14/M17 A2985 RMK SC6AC2 SLP183

CYQF;2007-02-11 06:00;CYQF 110600Z 04003KT 10SM -SN BKN020 OVC090 M13/M15 A2985 RMK SC6AC2 SLP184

CYQF;2007-02-11 07:00;CYQF 110700Z 03005KT 8SM -SN OVC022 OVC080 M13/M15 A2985 RMK SC6AC2 SLP185

CYQF;2007-02-11 08:00;CYQF 110800Z 36004KT 8SM -SN OVC022 M13/M15 A2986 RMK SC8 SLP187

CYQF;2007-02-11 09:00;CYQF 110900Z 01007KT 8SM -SN OVC028 M13/M16 A2987 RMK SC8 SLP189

CYQF;2007-02-11 10:00;CYQF 111000Z 01008KT 12SM -SN OVC025 M14/M16 A2989 RMK SC8 SLP193

CYQF;2007-02-11 11:00;CYQF 111100Z 01010KT 10SM -SN OVC025 M14/M17 A2990 RMK SC8 SLP197

CYQF;2007-02-11 12:00;CYQF 111200Z 35007KT 10SM -SN OVC025 M14/M17 A2993 RMK SC8 SLP207

CYQF;2007-02-11 13:00;CYQF 111300Z 36005KT 10SM -SN OVC028 M14/M17 A2995 RMK SC8 SLP214

CYQF;2007-02-11 14:00;CYQF 111400Z 36010KT 10SM -SN FEW015 OVC028 M15/M18 A2995 RMK SF1SC8 SLP215

CYQF;2007-02-11 14:37;CYQF 111437Z 01008KT 2 1/2SM -SN BR OVC025 RMK ST8

CYQF;2007-02-11 15:00;CYQF 111500Z 01008KT 2 1/2SM -SN BR OVC025 M15/M17 A2997 RMK ST8 SLP224

CYQF;2007-02-11 15:30;CYQF 111530Z 01006KT 1 3/4SM -SN BR OVC043 RMK SC8

CYQF;2007-02-11 16:00;CYQF 111600Z 01007KT 2SM -SN BR OVC040 M15/M17 A2999 RMK SC8 VIS VRB 11/2-21/2 SLP230

CYQF;2007-02-11 17:00;CYQF 111700Z 36005KT 4SM -SN OVC040 M15/M18 A3001 RMK SC8 SLP235

CYQF;2007-02-11 18:00;CYQF 111800Z 35006KT 6SM -SN OVC040 M15/M18 A3002 RMK SC8 SLP239

CYQF;2007-02-11 18:36;CYQF 111836Z 36005KT 2SM -SN OVC040 RMK SC8

CYQF;2007-02-11 19:00;CYQF 111900Z 36005KT 2SM -SN OVC040 M14/M18 A3004 RMK SC8 SLP245

CYQF;2007-02-11 20:00;CYQF 112000Z 02005KT 2SM -SN OVC035 M14/M17 A3004 RMK SC8 SLP246

CYQF;2007-02-11 21:00;CYQF 112100Z 01003KT 2SM -SN OVC035 M14/M18 A3005 RMK SC8 SLP248

CYQF;2007-02-11 22:00;CYQF 112200Z 36005KT 2SM -SN FEW015 OVC040 M14/M17 A3005 RMK SC2SC6 SLP250

CYQF;2007-02-11 23:00;CYQF 112300Z 03009KT 2SM -SN FEW015 OVC040 M14/M17 A3007 RMK SC2SC6 SLP256

CYQF;2007-02-11 23:38;CYQF 112338Z 03007KT 1SM -SN VV010 RMK SN8

CYQF;2007-02-12 00:00;CYQF 120000Z 04004KT 1SM -SN VV010 M14/M16 A3010 RMK SN8 /S02/ SLP267

CYQF;2007-02-12 01:00;CYQF 120100Z 04006KT 2SM -SN OVC020 M15/M17 A3012 RMK SN2SC6 SLP274

CYQF;2007-02-12 02:00;CYQF 120200Z 04005KT 2SM -SN BKN020 OVC090 M15/M18 A3015 RMK SN2SC3AC2 SLP282

CYQF;2007-02-12 02:29;CYQF 120229Z 03005KT 1SM -SN VV015 RMK SN8

CYQF;2007-02-12 02:48;CYQF 120248Z 05007KT 2SM -SN BKN020 OVC090 RMK SN2SC3AC2

CYQF;2007-02-12 03:00;CYQF 120300Z 05006KT 3SM -SN BKN020 OVC090 M16/M18 A3016 RMK SC6AC2 /S01/ SLP292

CYQF;2007-02-12 03:49;CYQF 120349Z 05007KT 2SM -SN BKN020 OVC075 RMK SN2SC3AC3

CYQF;2007-02-12 04:00;CYQF 120400Z 05007KT 2SM -SN BKN020 OVC075 M16/M19 A3018 RMK SN2SC3AC3 SLP296

CYQF;2007-02-12 05:00;CYQF 120500Z 06006KT 3SM -SN SCT020 OVC075 M17/M20 A3021 RMK SC4AC4 SLP305

CYQF;2007-02-12 05:36;CYQF 120536Z 06004KT 2SM -SN BKN020 OVC075 RMK SC5AC3

CYQF;2007-02-12 06:00;CYQF 120600Z 06004KT 2SM -SN SCT020 OVC075 M17/M20 A3022 RMK SC4AC4 SLP314

CYQF;2007-02-12 07:00;CYQF 120700Z 06006KT 2SM -SN OVC075 M17/M20 A3024 RMK AC8 SLP319

CYQF;2007-02-12 07:18;CYQF 120718Z 06007KT 6SM -SN OVC075 RMK AC8

CYQF;2007-02-12 08:00;CYQF 120800Z 06009KT 3SM -SN BR OVC075 M18/M21 A3025 RMK AC8 SLP324

CYQF;2007-02-12 08:07;CYQF 120807Z 06007KT 2SM -SN BR OVC075 RMK AC8

CYQF;2007-02-12 09:00;CYQF 120900Z 06007KT 3SM -SN OVC075 M18/M21 A3027 RMK SN4AC2 SLP330

CYQF;2007-02-12 10:00;CYQF 121000Z 07004KT 8SM -SN OVC075 M18/M21 A3028 RMK AC6 SLP334

CYQF;2007-02-12 11:00;CYQF 121100Z 06003KT 8SM -SN OVC075 M18/M21 A3029 RMK AC8 SLP337

CYQF;2007-02-12 12:00;CYQF 121200Z 04003KT 8SM -SN OVC075 M19/M22 A3031 RMK AC8 SLP346

CYQF;2007-02-12 13:00;CYQF 121300Z 00000KT 8SM -SN BKN075 M19/M22 A3033 RMK AC6 SLP351

CYQF;2007-02-12 14:00;CYQF 121400Z 06005KT 4SM -SN BKN075 M19/M22 A3034 RMK AC6 SLP357

CYQF;2007-02-12 14:14;CYQF 121414Z 09005KT 2SM -SN OVC050 RMK SC8

CYQF;2007-02-12 15:00;CYQF 121500Z 07004KT 2 1/2SM -SN OVC050 M19/M22 A3036 RMK SC8 SLP364

CYQF;2007-02-12 16:00;CYQF 121600Z 12004KT 4SM -SN SCT050 OVC100 M19/M22 A3038 RMK SC3AC2 SLP370

CYQF;2007-02-12 17:00;CYQF 121700Z 09003KT 5SM -SN SCT050 OVC100 M18/M22 A3040 RMK SC3AC3 SLP377

CYQF;2007-02-12 18:00;CYQF 121800Z CCA 08003KT 6SM -SN SCT050 OVC100 M18/M21 A3040 RMK SC3AC3 /S01/ SLP380

CYQF;2007-02-12 19:00;CYQF 121900Z 07005KT 4SM -SN SCT050 OVC100 M17/M21 A3041 RMK SC3AC3 SLP383

CYQF;2007-02-12 20:00;CYQF 122000Z 12006KT 10SM -SN SCT050 OVC100 M17/M21 A3040 RMK SC4AC2 SLP380

CYQF;2007-02-12 20:50;CYQF 122050Z 09003KT 2SM -SN SCT050 OVC100 RMK SC4AC2

CYQF;2007-02-12 21:00;CYQF 122100Z 08003KT 1 1/2SM -SN BKN013 OVC050 M17/M21 A3040 RMK SN2ST2SC3 SLP378

CYQF;2007-02-12 21:23;CYQF 122123Z 11005KT 1 1/2SM -SN SCT013 OVC050 RMK SN2ST2SC2

CYQF;2007-02-12 22:00;CYQF 122200Z 14005KT 1 1/2SM -SN SCT015 OVC100 M17/M21 A3039 RMK SN1ST3AC2 VIS VRB 1-2 SLP376

CYQF;2007-02-12 22:27;CYQF 122227Z 15007KT 5SM -SN FEW015 BKN100 BKN250 RMK ST1AC3CI0 VIS LWR NORTH

CYQF;2007-02-12 23:00;CYQF 122300Z 14007KT 6SM -SN BKN100 BKN250 M18/M22 A3040 RMK AC3CI1 SLP380

CYQF;2007-02-13 00:00;CYQF 130000Z 14006KT 8SM -SN BKN100 BKN250 M18/M22 A3041 RMK AC3CI1 /S01/ SLP386

CYQF;2007-02-13 01:00;CYQF 130100Z 14005KT 3SM -SN BKN025 OVC100 M18/M22 A3042 RMK SC5AC3 SLP388

CYQF;2007-02-13 01:32;CYQF 130132Z 14008KT 2SM -SN OVC025 RMK SN3SC5

CYQF;2007-02-13 02:00;CYQF 130200Z 14006KT 2SM -SN OVC025 M19/M22 A3043 RMK SN3SC5 SLP390

CYQF;2007-02-13 03:00;CYQF 130300Z 13006KT 3SM -SN OVC040 M19/M23 A3042 RMK SN2SC6 SLP391

CYQF;2007-02-13 04:00;CYQF 130400Z 12004KT 4SM -SN OVC040 M19/M23 A3043 RMK SC8 SLP392

CYQF;2007-02-13 05:00;CYQF 130500Z 13003KT 3SM -SN OVC040 M19/M23 A3042 RMK SC8 /S02/ SLP389

CYQF;2007-02-13 06:00;CYQF 130600Z 11005KT 3SM -SN OVC040 M19/M23 A3041 RMK SC8 /S02/ SLP387

CYQF;2007-02-13 07:00;CYQF 130700Z 12006KT 2SM -SN OVC085 M19/M23 A3040 RMK SN4AC4 SLP384

CYQF;2007-02-13 08:00;CYQF 130800Z 14004KT 2SM -SN OVC085 M19/M23 A3040 RMK SN4AC4 SLP384

CYQF;2007-02-13 09:00;CYQF 130900Z 15010KT 2SM -SN OVC085 M20/M23 A3040 RMK SN4AC4 SLP380

CYQF;2007-02-13 10:00;CYQF 131000Z 15008KT 4SM -SN OVC085 M20/M23 A3039 RMK SN4AC4 SLP379

CYQF;2007-02-13 11:00;CYQF 131100Z 15007KT 8SM -SN OVC075 M20/M24 A3039 RMK AC8 /S01/ SLP379

CYQF;2007-02-13 12:00;CYQF 131200Z 15009KT 10SM -SN BKN075 M20/M24 A3038 RMK AC7 SLP378

CYQF;2007-02-13 13:00;CYQF 131300Z 14009KT 15SM -SN BKN075 M20/M24 A3038 RMK AC7 SLP378

CYQF;2007-02-13 14:00;CYQF 131400Z 15005KT 12SM -SN BKN075 M20/M24 A3039 RMK AC6 SLP379

CYQF;2007-02-13 14:44;CYQF 131444Z 14006KT 15SM BKN070 M21/M25 RMK AC6

CYQF;2007-02-13 15:00;CYQF 131500Z 14005KT 15SM BKN070 M21/M24 A3039 RMK AC6 SLP381

CYQF;2007-02-13 16:00;CYQF 131600Z 14005KT 15SM BKN090 M21/M25 A3038 RMK AC3 SLP380

CYQF;2007-02-13 17:00;CYQF 131700Z 14004KT 15SM SCT090 M20/M25 A3039 RMK AC2 SLP381

CYQF;2007-02-13 18:00;CYQF 131800Z 13006KT 15SM FEW090 M20/M24 A3039 RMK AC2 SLP383

CYQF;2007-02-13 19:00;CYQF 131900Z 16003KT 15SM FEW090 M19/M24 A3039 RMK AC2 SLP382

CYQF;2007-02-13 20:00;CYQF 132000Z 17005KT 15SM FEW090 M19/M24 A3037 RMK AC1 SLP377

CYQF;2007-02-13 21:00;CYQF 132100Z 16003KT 15SM FEW090 M19/M24 A3037 RMK AC1 SLP373

CYQF;2007-02-13 22:00;CYQF 132200Z 13006KT 15SM FEW090 M19/M24 A3036 RMK AC1 SLP371

CYQF;2007-02-13 23:00;CYQF 132300Z 14006KT 15SM FEW090 M20/M25 A3037 RMK AC1 SLP373

CYQF;2007-02-14 00:00;CYQF 140000Z 15008KT 15SM FEW090 M21/M25 A3038 RMK AC1 SLP379

CYQF;2007-02-14 01:00;CYQF 140100Z 15008KT 15SM FEW090 M23/M26 A3037 RMK AC1 SLP378

CYQF;2007-02-14 02:00;CYQF 140200Z 15006KT 15SM SKC M24/M27 A3037 RMK SLP377

CYQF;2007-02-14 03:00;CYQF 140300Z 19007KT 15SM SKC M26/M30 A3036 RMK SLP381

CYQF;2007-02-14 04:00;CYQF 140400Z 18012KT 15SM SKC M26/M29 A3035 RMK SLP376

CYQF;2007-02-14 05:00;CYQF 140500Z 17006KT 15SM SKC M24/M28 A3033 RMK SLP371

CYQF;2007-02-14 06:00;CYQF 140600Z 17008KT 10SM SKC M26/M30 A3032 RMK SLP363

CYQF;2007-02-14 07:00;CYQF 140700Z 17010KT 8SM SKC M24/M28 A3030 RMK SLP358

CYQF;2007-02-14 08:00;CYQF 140800Z 15009KT 10SM SKC M25/M29 A3027 RMK SLP350

CYQF;2007-02-14 09:00;CYQF 140900Z 15008KT 15SM SKC M27/M32 A3025 RMK SLP342

CYQF;2007-02-14 10:00;CYQF 141000Z 18012KT 15SM SKC M24/M27 A3022 RMK PRESFR SLP331

CYQF;2007-02-14 11:00;CYQF 141100Z 17013KT 15SM SKC M24/M27 A3019 RMK PRESFR SLP321

CYQF;2007-02-14 11:40;CYQF 141140Z 16009KT 15SM SKC

CYQF;2007-02-14 12:00;CYQF 141200Z 16009KT 15SM SKC M25/M29 A3016 RMK SLP308

CYQF;2007-02-14 13:00;CYQF 141300Z 17011KT 15SM SCT200 M21/M25 A3015 RMK CI0 SLP306

CYQF;2007-02-14 14:00;CYQF 141400Z 17017KT 15SM BKN200 M23/M27 A3013 RMK CI2 SLP298

CYQF;2007-02-14 15:00;CYQF 141500Z 18015KT 15SM BKN200 M21/M26 A3011 RMK CI4 SLP294

CYQF;2007-02-14 16:00;CYQF 141600Z 18017KT 15SM BKN200 M19/M24 A3009 RMK CI6 SLP286

CYQF;2007-02-14 17:00;CYQF 141700Z 18016G23KT 15SM DRSN OVC200 M18/M23 A3005 RMK CS5 SLP275

CYQF;2007-02-14 18:00;CYQF 141800Z CCA 17017G25KT 15SM DRSN OVC200 M17/M22 A3002 RMK CS5 SLP257

CYQF;2007-02-14 19:00;CYQF 141900Z 17018G25KT 15SM DRSN OVC200 M16/M20 A2999 RMK CS5 SLP249

CYQF;2007-02-14 20:00;CYQF 142000Z 17017G25KT 15SM DRSN OVC200 M15/M19 A2996 RMK CS5 SLP240

CYQF;2007-02-14 21:00;CYQF 142100Z 18015KT 15SM DRSN FEW120 BKN200 M14/M18 A2992 RMK AC2CI4 SLP220

CYQF;2007-02-14 22:00;CYQF 142200Z 18013KT 15SM FEW120 BKN200 M13/M17 A2988 RMK AC1CI2 SLP209

CYQF;2007-02-14 23:00;CYQF 142300Z 18015KT 15SM FEW100 BKN200 M12/M16 A2983 RMK AC1CI2 SLP193

CYQF;2007-02-15 00:00;CYQF 150000Z 17015KT 15SM BKN100 BKN200 M13/M16 A2980 RMK AC5CI1 SLP174

CYQF;2007-02-15 01:00;CYQF 150100Z 17012KT 15SM BKN100 OVC200 M13/M16 A2977 RMK AC6CI2 SLP164

CYQF;2007-02-15 02:00;CYQF 150200Z 15010KT 15SM BKN080 OVC200 M13/M16 A2975 RMK AC6CI2 SLP159

CYQF;2007-02-15 03:00;CYQF 150300Z 16006KT 15SM BKN090 OVC200 M13/M15 A2974 RMK AC6CI2 SLP147

CYQF;2007-02-15 04:00;CYQF 150400Z 18003KT 15SM FEW090 SCT200 M13/M16 A2973 RMK AC2CI1 SLP145

CYQF;2007-02-15 05:00;CYQF 150500Z 20004KT 15SM FEW090 SCT200 M16/M18 A2973 RMK AC2CI1 SLP145

CYQF;2007-02-15 06:00;CYQF 150600Z 18004KT 15SM FEW090 SCT200 M16/M18 A2973 RMK AC2CI1 SLP142

CYQF;2007-02-15 07:00;CYQF 150700Z 18002KT 15SM SCT090 BKN250 M15/M17 A2972 RMK AC4CI2 SLP141

CYQF;2007-02-15 08:00;CYQF 150800Z 21003KT 15SM BKN090 BKN250 M14/M16 A2973 RMK AC5CI2 SLP142

CYQF;2007-02-15 09:00;CYQF 150900Z 20005KT 15SM BKN090 BKN250 M13/M16 A2972 RMK AC5CI1 SLP135

CYQF;2007-02-15 10:00;CYQF 151000Z 20005KT 15SM BKN090 BKN250 M13/M15 A2974 RMK AC5CI2 SLP139

CYQF;2007-02-15 11:00;CYQF 151100Z 19003KT 15SM SCT090 BKN250 M12/M14 A2974 RMK AC4CI2 SLP140

CYQF;2007-02-15 12:00;CYQF 151200Z 19007KT 15SM FEW090 M12/M14 A2974 RMK AC2 SLP137

CYQF;2007-02-15 13:00;CYQF 151300Z 20006KT 15SM FEW090 M13/M15 A2974 RMK AC2 SLP136

CYQF;2007-02-15 14:00;CYQF 151400Z 20005KT 15SM FEW090 BKN250 M11/M12 A2973 RMK AC2CI2 SLP133

CYQF;2007-02-15 15:00;CYQF 151500Z 21006KT 15SM SCT090 BKN250 M11/M12 A2971 RMK AC3CI2 SLP127

CYQF;2007-02-15 16:00;CYQF 151600Z 21005KT 15SM FEW090 SCT250 M09/M11 A2971 RMK AC2CI1 SLP127

CYQF;2007-02-15 17:00;CYQF 151700Z 21004KT 15SM FEW090 BKN250 M07/M11 A2969 RMK AC1CI1 SLP121

CYQF;2007-02-15 18:00;CYQF 151800Z 20003KT 15SM FEW090 BKN250 M05/M10 A2968 RMK AC2CI1 SLP112

CYQF;2007-02-15 19:00;CYQF 151900Z 00000KT 15SM BKN090 BKN250 M02/M08 A2964 RMK AC5CI1 SLP099

CYQF;2007-02-15 20:00;CYQF 152000Z 00000KT 15SM BKN090 BKN250 M02/M07 A2959 RMK AC5CI2 SLP085

CYQF;2007-02-15 21:00;CYQF 152100Z 00000KT 15SM FEW030 BKN090 OVC250 M01/M06 A2953 RMK SC1AC6CI0 SLP054

CYQF;2007-02-15 22:00;CYQF 152200Z 00000KT 15SM FEW030 OVC090 M00/M04 A2951 RMK SC2AC6 VIRGA SLP046

CYQF;2007-02-15 23:00;CYQF 152300Z 29005KT 15SM FEW020 BKN070 02/M02 A2945 RMK SC2AC6 SLP029

CYQF;2007-02-16 00:00;CYQF 160000Z 01005KT 15SM FEW030 BKN070 03/M01 A2939 RMK SC2AC5 SLP998

CYQF;2007-02-16 01:00;CYQF 160100Z 04003KT 15SM FEW030 BKN070 BKN250 01/M02 A2939 RMK SC2AC5CI1 SLP997

CYQF;2007-02-16 02:00;CYQF 160200Z 36005KT 15SM FEW030 BKN070 BKN250 M00/M03 A2939 RMK SC2AC4CI1 SLP997

CYQF;2007-02-16 03:00;CYQF 160300Z 01005KT 15SM FEW030 BKN070 M01/M04 A2939 RMK SC2AC6 SLP002

CYQF;2007-02-16 04:00;CYQF 160400Z 35006KT 15SM BKN070 BKN250 M03/M04 A2942 RMK AC5CI1 SLP011

CYQF;2007-02-16 05:00;CYQF 160500Z 36005KT 15SM BKN006 OVC040 M01/M01 A2946 RMK SF6SC2 SLP024

CYQF;2007-02-16 05:44;CYQF 160544Z 33008KT 15SM SCT006 OVC075 M01/M01 RMK SF3AC5

CYQF;2007-02-16 06:00;CYQF 160600Z 34004KT 10SM SCT006 BKN040 OVC075 M00/M00 A2950 RMK SF3SC2AC3 SLP033

CYQF;2007-02-16 06:24;CYQF 160624Z 29002KT 6SM -SN FEW006 OVC055 RMK SF2SC5

CYQF;2007-02-16 06:54;CYQF 160654Z 34003KT 1SM -SN VV010 RMK SN8

CYQF;2007-02-16 07:00;CYQF 160700Z 35004KT 1SM -SN VV010 M01/M02 A2954 RMK SN8 SLP044

CYQF;2007-02-16 07:22;CYQF 160722Z 30002KT 2SM -SN BR BKN009 OVC050 RMK ST6SC2

CYQF;2007-02-16 07:35;CYQF 160735Z 00000KT 3/4SM -SN BR VV007 RMK SN8

CYQF;2007-02-16 08:00;CYQF 160800Z 28006KT 1 1/2SM -SN BR OVC015 M01/M01 A2958 RMK SN6SC2 /S01/ VIS VRB 1-2 SLP057

CYQF;2007-02-16 09:00;CYQF 160900Z 29008KT 3SM -SN BR FEW006 BKN025 M01/M01 A2962 RMK SF2SC4 /S02/ SLP069

CYQF;2007-02-16 09:27;CYQF 160927Z 29010KT 6SM BR FEW006 SCT025 BKN075 RMK SF2SC2AC2

CYQF;2007-02-16 10:00;CYQF 161000Z 30013KT 15SM FEW006 FEW025 BKN100 00/M00 A2966 RMK SF1SC2AC4 SLP084

CYQF;2007-02-16 11:00;CYQF 161100Z 32015G21KT 15SM FEW006 FEW025 BKN100 01/M01 A2971 RMK SF1SC2AC2 SLP097

CYQF;2007-02-16 12:00;CYQF 161200Z 33016G23KT 15SM FEW006 FEW025 BKN100 01/M01 A2975 RMK SF1SC2AC5 SLP107

CYQF;2007-02-16 13:00;CYQF 161300Z 34012G18KT 15SM FEW006 FEW025 OVC100 M00/M01 A2979 RMK SF1SC1AC5 SLP120

CYQF;2007-02-16 14:00;CYQF 161400Z 34011KT 15SM FEW006 FEW025 BKN100 M00/M01 A2982 RMK SF1SC1AC5 SLP131

CYQF;2007-02-16 15:00;CYQF 161500Z 32003KT 15SM FEW020 BKN045 OVC100 M01/M02 A2985 RMK SC2SC5AC2 SLP151

CYQF;2007-02-16 16:00;CYQF 161600Z 00000KT 15SM FEW020 BKN045 BKN100 M02/M03 A2989 RMK SC2SC3AC2 SLP161

CYQF;2007-02-16 17:00;CYQF 161700Z 26006KT 15SM -SHGS FEW020 BKN045 BKN090 M00/M02 A2992 RMK SC2SC4AC2 SLP172

CYQF;2007-02-16 17:19;CYQF 161719Z 26006KT 15SM FEW020 BKN050 BKN090 RMK SC1SC5AC2

CYQF;2007-02-16 18:00;CYQF 161800Z 24008KT 15SM BKN060 BKN090 00/M01 A2994 RMK SC6AC2 SLP179

CYQF;2007-02-16 19:00;CYQF 161900Z 26006KT 15SM SCT060 BKN090 00/M02 A2995 RMK SC3AC1 SLP184

CYQF;2007-02-16 20:00;CYQF 162000Z 22004KT 15SM SCT060 BKN090 02/M01 A2996 RMK SC3AC2 CU ASOCTD SLP186

CYQF;2007-02-16 21:00;CYQF 162100Z CCA 24003KT 15SM SCT050 BKN090 02/M01 A2997 RMK SC4AC2 TCU/SH E-S-SW SLP186

CYQF;2007-02-16 22:00;CYQF 162200Z 20004KT 15SM SCT040 BKN250 01/M02 A2999 RMK CU4CI1 TCU ASCOTD SH SE-SW SLP193

CYQF;2007-02-16 23:00;CYQF 162300Z 07003KT 15SM VCSH SCT040 BKN250 03/M03 A3000 RMK CU4CI0 TCU ASOCTD SH ALQDS SLP197

CYQF;2007-02-16 23:29;CYQF 162329Z CCA 01012KT 5SM -SHGS BKN040TCU BKN250 RMK TCU6CI1 VSBY 10 SE-SW

CYQF;2007-02-16 23:54;CYQF 162354Z 33008KT 15SM VCSH BKN040TCU RMK TCU6 SH ALQDS PK WND 34G22 AT 2337

CYQF;2007-02-17 00:00;CYQF 170000Z 32005KT 15SM VCSH BKN040TCU BKN250 M01/M02 A3005 RMK TCU5CI0 SH ALQDS /S01/ SLP216

CYQF;2007-02-17 01:00;CYQF 170100Z 32006KT 15SM FEW040 FEW070 M02/M05 A3005 RMK SC1AC1 SLP218

CYQF;2007-02-17 02:00;CYQF 170200Z 27005KT 15SM FEW070 BKN120 M04/M07 A3008 RMK AC1AC5 SLP227

CYQF;2007-02-17 03:00;CYQF 170300Z 26004KT 15SM BKN120 M04/M06 A3010 RMK AC4 SLP239

CYQF;2007-02-17 04:00;CYQF 170400Z 23004KT 15SM FEW120 BKN210 M07/M08 A3010 RMK AC1CI2 SLP241

CYQF;2007-02-17 05:00;CYQF 170500Z 20005KT 15SM BKN120 OVC210 M07/M08 A3011 RMK AC6CI0 SLP243

CYQF;2007-02-17 06:00;CYQF 170600Z 20005KT 15SM BKN120 OVC210 M07/M09 A3011 RMK AC6CI0 SLP244

CYQF;2007-02-17 07:00;CYQF 170700Z 19006KT 15SM BKN120 BKN210 M08/M09 A3010 RMK AC5CI0 SLP241

CYQF;2007-02-17 08:00;CYQF 170800Z 20005KT 15SM BKN120 BKN210 M07/M09 A3008 RMK AC5CI0 SLP236

CYQF;2007-02-17 09:00;CYQF 170900Z 20004KT 15SM FEW120 SCT210 M09/M11 A3007 RMK AC2CI0 SLP232

CYQF;2007-02-17 10:00;CYQF 171000Z 20006KT 15SM FEW120 FEW210 M11/M13 A3007 RMK AC1CI0 SLP231

CYQF;2007-02-17 11:00;CYQF 171100Z 19002KT 15SM FEW210 M10/M12 A3004 RMK CI0 SLP221

CYQF;2007-02-17 12:00;CYQF 171200Z 18004KT 15SM FEW210 M11/M13 A3001 RMK CI0 SLP217

CYQF;2007-02-17 13:00;CYQF 171300Z 20003KT 15SM BKN120 BKN210 M13/M15 A3000 RMK AC2CI1 SLP214

CYQF;2007-02-17 14:00;CYQF 171400Z 19003KT 15SM BKN120 BKN210 M12/M15 A2999 RMK AC5CI1 SLP209

CYQF;2007-02-17 15:00;CYQF 171500Z 22003KT 15SM FEW080 FEW120 BKN210 M12/M14 A2996 RMK AC2AC1CI1 SLP205

CYQF;2007-02-17 16:00;CYQF 171600Z 19003KT 15SM FEW080 SCT120 BKN210 M09/M12 A2995 RMK AC1AC2CI2 SLP203

CYQF;2007-02-17 17:00;CYQF 171700Z 00000KT 15SM FEW120 BKN210 M06/M11 A2993 RMK AC1CI2 SLP195

CYQF;2007-02-17 18:00;CYQF 171800Z 21003KT 15SM SCT120 BKN210 M04/M09 A2991 RMK AC1CI2 SLP179

CYQF;2007-02-17 19:00;CYQF 171900Z 14003KT 15SM SCT120 BKN210 M01/M08 A2987 RMK AC2CI2 SLP167

CYQF;2007-02-17 20:00;CYQF 172000Z 16003KT 15SM FEW120 OVC210 M01/M07 A2983 RMK AC2CI3 SLP156

CYQF;2007-02-17 21:00;CYQF 172100Z 17005KT 15SM BKN120 OVC210 00/M05 A2979 RMK AC5CI2 SLP137

CYQF;2007-02-17 22:00;CYQF 172200Z 00000KT 15SM FEW040 FEW080 BKN120 OVC210 01/M05 A2977 RMK SC1AC1AS6CI1 SC/AC TR SLP131

CYQF;2007-02-17 23:00;CYQF 172300Z 17005KT 15SM FEW080 BKN120 OVC210 01/M04 A2976 RMK AC1AS7CI1 SLP126

CYQF;2007-02-18 00:00;CYQF 180000Z 00000KT 15SM FEW080 BKN120 OVC210 01/M03 A2973 RMK AC1AS7CI1 SLP117

CYQF;2007-02-18 01:00;CYQF 180100Z 18006KT 15SM FEW040 BKN120 BKN250 M00/M04 A2969 RMK SC1AC6CI2 SLP106

CYQF;2007-02-18 02:00;CYQF 180200Z 21007KT 15SM BKN100 BKN250 M00/M04 A2966 RMK AC6CI2 SLP096

CYQF;2007-02-18 03:00;CYQF 180300Z 20007KT 15SM SCT100 BKN250 00/M04 A2962 RMK AC4CI3 SLP081

CYQF;2007-02-18 04:00;CYQF 180400Z 18013KT 15SM SCT100 OVC250 04/M03 A2956 RMK AC3CI5 SLP063

CYQF;2007-02-18 05:00;CYQF 180500Z 19012KT 15SM SCT100 OVC250 03/M03 A2952 RMK AC4CI4 SLP049

CYQF;2007-02-18 06:00;CYQF 180600Z 19014KT 15SM SCT100 BKN250 03/M04 A2947 RMK AC4CI3 SLP017

CYQF;2007-02-18 07:00;CYQF 180700Z 20016KT 15SM SCT100 OVC250 04/M03 A2944 RMK AC4CI4 SLP008

CYQF;2007-02-18 08:00;CYQF 180800Z 20011KT 15SM SCT100 OVC200 03/M04 A2943 RMK AC3CI5 SLP005

CYQF;2007-02-18 09:00;CYQF 180900Z 22006KT 15SM SCT100 BKN200 M00/M05 A2940 RMK AC3CI3 SLP991

CYQF;2007-02-18 10:00;CYQF 181000Z 20009KT 15SM FEW100 OVC200 02/M05 A2936 RMK AC2CI5 PRESFR SLP980

CYQF;2007-02-18 11:00;CYQF 181100Z 26009KT 15SM FEW100 OVC200 M00/M05 A2935 RMK AC2CI6 SLP975

CYQF;2007-02-18 12:00;CYQF 181200Z 25010KT 15SM FEW100 OVC200 02/M04 A2934 RMK AC2CI6 SLP968

CYQF;2007-02-18 13:00;CYQF 181300Z 24011KT 15SM FEW100 BKN200 02/M03 A2933 RMK AC2CI3 SLP964

CYQF;2007-02-18 14:00;CYQF 181400Z 24009KT 15SM FEW100 SCT200 03/M03 A2932 RMK AC2CI1 SLP960

CYQF;2007-02-18 15:00;CYQF 181500Z 29008KT 15SM FEW100 FEW200 01/M02 A2932 RMK AC1CI0 SLP960

CYQF;2007-02-18 16:00;CYQF 181600Z 25007KT 15SM FEW100 FEW200 00/M03 A2931 RMK AC1CI1 SLP958

CYQF;2007-02-18 17:00;CYQF 181700Z 22008KT 15SM FEW100 SCT210 M01/M03 A2930 RMK AC1CI2 SLP956

CYQF;2007-02-18 18:00;CYQF 181800Z 21007KT 15SM FEW040 FEW100 SCT210 01/M03 A2930 RMK SC1AC1CI2 SC/AC TR SLP953

CYQF;2007-02-18 19:00;CYQF 181900Z 28008KT 15SM FEW040 FEW100 BKN200 M03/M03 A2929 RMK SC1AC1CI3 TCU DSTNT W-SW SLP951

CYQF;2007-02-18 20:00;CYQF 182000Z 30006KT 15SM FEW040 SCT100 BKN200 04/M03 A2929 RMK SC1AC2CI2 TCU DIST W SLP951

CYQF;2007-02-18 21:00;CYQF 182100Z 00000KT 15SM FEW040TCU BKN180 05/M05 A2929 RMK TCU1AC5 SHSN SW-NW VIRGA SE-SW SLP950

CYQF;2007-02-18 22:00;CYQF 182200Z 36005KT 15SM BKN040TCU BKN180 05/M05 A2930 RMK TCU6AC2 VIRGA ALQDS SHSN DSTNT W-NW SLP953

CYQF;2007-02-18 22:25;CYQF 182225Z 36015G20KT 15SM BKN040TCU OVC180 RMK SN2TCU6AC1 VSBY N 1/2

CYQF;2007-02-18 22:29;CYQF 182229Z 34015G20KT 1SM -SHSN OVC040TCU RMK SN4TCU4 VSBY N 1/2 MILE

CYQF;2007-02-18 22:43;CYQF 182243Z 34008KT 2 1/2SM -SHSN VV020 RMK SN8 VSBY SE-S 1

CYQF;2007-02-18 23:00;CYQF 182300Z 33005KT 8SM -SHSN OVC030TCU 02/M02 A2936 RMK SN2TCU6 VSBY N-NE 1 SLP971

CYQF;2007-02-18 23:03;CYQF 182303Z 07012KT 2SM -SHSN OVC030TCU RMK SN2TCU6 VSBY N-SE 1/2 MILE

CYQF;2007-02-18 23:07;CYQF 182307Z 08010KT 6SM -SHSN BKN030TCU RMK SN2TCU6 VSBY N-SE 1

CYQF;2007-02-18 23:15;CYQF 182315Z 12003KT 15SM BKN030 BKN200 RMK SC6CI1 VSBY E-SE 5 CU/TCU W-NW

CYQF;2007-02-19 00:00;CYQF 190000Z 06008KT 15SM BKN030 BKN180 00/M00 A2934 RMK SC6AC2 TCU EMBDD VIRGA SHSN DIST NW SLP969

CYQF;2007-02-19 01:00;CYQF 190100Z 00000KT 15SM BKN030 OVC180 M01/M01 A2938 RMK SC7AC1 TCU EMBDD VIRGA/SHSN W SLP980

CYQF;2007-02-19 01:32;CYQF 190132Z 01006KT 2SM -SHSN FEW008 OVC025 RMK SF2SC6

CYQF;2007-02-19 02:00;CYQF 190200Z 01010KT 2SM -SHSN FEW008 OVC025 M00/M01 A2943 RMK SN2SF1SC6 SLP995

CYQF;2007-02-19 02:14;CYQF 190214Z 05008KT 5SM -SHSN FEW008 OVC025 RMK SF2SC6

CYQF;2007-02-19 03:00;CYQF 190300Z 00000KT 12SM -SHSN FEW008 OVC027 M01/M01 A2944 RMK SF1SC7 SLP004

CYQF;2007-02-19 03:13;CYQF 190313Z 00000KT 15SM FEW010 OVC027 RMK SF1SC7

CYQF;2007-02-19 03:48;CYQF 190348Z 00000KT 4SM -SHSN OVC025 RMK SN2SC6

CYQF;2007-02-19 04:00;CYQF 190400Z 24003KT 3SM -SHSN OVC025 M02/M02 A2946 RMK SN2SC6 SLP010

CYQF;2007-02-19 04:29;CYQF 190429Z 21005KT 12SM FEW010 BKN025 RMK SF2SC5

CYQF;2007-02-19 04:51;CYQF 190451Z 19004KT 2SM BR FEW010 BKN025 RMK FG2SF1SC4

CYQF;2007-02-19 04:55;CYQF 190455Z 18003KT 3/4SM BR SCT010 BKN025 RMK FG3SF1SC2

CYQF;2007-02-19 05:00;CYQF 190500Z 18003KT 3/4SM BR SCT010 BKN025 M04/M04 A2945 RMK FG3SF1SC2 SLP008

CYQF;2007-02-19 05:51;CYQF 190551Z 25005KT 1SM BR FEW010 BKN025 RMK FG2SF1SC3

CYQF;2007-02-19 06:00;CYQF 190600Z 25006KT 1SM BR FEW010 BKN025 M06/M06 A2946 RMK FG2SF1SC2 SLP018

CYQF;2007-02-19 06:21;CYQF 190621Z 24006KT 3/4SM BR SCT020 RMK FG2SC1 FROIN

CYQF;2007-02-19 07:00;CYQF 190700Z 23004KT 1/2SM FZFG SKC M07/M07 A2946 RMK FG4 FROIN SLP018

CYQF;2007-02-19 08:00;CYQF 190800Z 19005KT 1/2SM FZFG SKC M06/M06 A2946 RMK FG4 FROIN SLP017

CYQF;2007-02-19 08:25;CYQF 190825Z 20006KT 1/4SM FZFG VV003 RMK FG8 FROIN

CYQF;2007-02-19 09:00;CYQF 190900Z CCA 22006KT 1/4SM FZFG VV003 M08/M08 A2944 RMK FG8 FROIN SLP009

CYQF;2007-02-19 09:40;CYQF 190940Z 19005KT 3SM BR SKC RMK FG1 FROIN

CYQF;2007-02-19 10:00;CYQF 191000Z 20004KT 5SM BR FEW080 M09/M09 A2943 RMK AC2 FROIN VSBY S 10 SLP004

CYQF;2007-02-19 11:00;CYQF 191100Z CCA 20006KT 8SM FEW080 SCT220 M07/M07 A2941 RMK AC2CI0 FROIN BR SLP000

CYQF;2007-02-19 12:00;CYQF 191200Z 18002KT 10SM FEW080 SCT220 M08/M08 A2941 RMK AC2CI0 FROIN SLP004

CYQF;2007-02-19 13:00;CYQF 191300Z 18004KT 10SM SCT030 BKN080 M08/M09 A2942 RMK SC3AC2 FROIN SLP006

CYQF;2007-02-19 14:00;CYQF 191400Z 00000KT 10SM SCT030 BKN080 M08/M08 A2943 RMK SC4AC3 SLP010

CYQF;2007-02-19 14:18;CYQF 191418Z 30003KT 1/2SM SHSN VV011 RMK SN8

CYQF;2007-02-19 14:28;CYQF 191428Z 00000KT 2SM -SHSN SCT030 BKN080 RMK SN2SC2AC3 VSBY E-SW 1/2 MILE

CYQF;2007-02-19 14:33;CYQF 191433Z 00000KT 8SM FEW030 FEW080 RMK SN1SC1AC1 VSBY LWR E-SE

CYQF;2007-02-19 15:00;CYQF 191500Z CCA 15003KT 10SM FEW020 FEW100 BKN210 M08/M09 A2944 RESN RMK SC1AC1CI1 SLP016

CYQF;2007-02-19 15:48;CYQF 191548Z 18003KT 10SM -SHSN BKN020 BKN100 BKN210 RMK SC5AC1CI1 VIS N + SE LWR IN SN

CYQF;2007-02-19 16:00;CYQF 191600Z 00000KT 15SM SCT020 SCT100 BKN210 M06/M07 A2945 RMK SC3AC1CI0 SHSN NE-SE SLP018

CYQF;2007-02-19 17:00;CYQF 191700Z 22005KT 15SM FEW100 FEW210 M07/M08 A2944 RMK AC2CI0 SLP016

CYQF;2007-02-19 18:00;CYQF 191800Z 20006KT 15SM FEW100 FEW210 M06/M06 A2942 RMK AC1CI0 SLP011

CYQF;2007-02-19 19:00;CYQF 191900Z 19006KT 15SM FEW100 FEW210 M03/M04 A2939 RMK AC1CI0 SLP004

CYQF;2007-02-19 20:00;CYQF 192000Z 18007KT 15SM BKN210 M01/M05 A2937 RMK CI2 SLP996

CYQF;2007-02-19 21:00;CYQF 192100Z 17010KT 15SM BKN210 M01/M05 A2933 RMK CI2 SLP976

CYQF;2007-02-19 22:00;CYQF 192200Z 16010KT 15SM FEW040 BKN210 M01/M05 A2929 RMK SC1CI2 SLP964

CYQF;2007-02-19 23:00;CYQF 192300Z 17010KT 15SM FEW100 BKN210 M02/M05 A2926 RMK AC2CI2 SLP954

CYQF;2007-02-20 00:00;CYQF 200000Z 17008KT 15SM FEW100 BKN210 M02/M05 A2923 RMK AC2CI2 SLP945

CYQF;2007-02-20 01:00;CYQF 200100Z 18006KT 15SM SCT100 BKN200 M02/M06 A2920 RMK AC3CI3 SLP934

CYQF;2007-02-20 02:00;CYQF 200200Z 15004KT 15SM FEW100 BKN200 M02/M07 A2916 RMK AC2CI5 SLP923

CYQF;2007-02-20 03:00;CYQF 200300Z 17006KT 15SM SCT100 OVC200 M02/M07 A2915 RMK AC3CI5 SLP915

CYQF;2007-02-20 04:00;CYQF 200400Z 18008KT 15SM SCT100 OVC200 M01/M06 A2913 RMK AC4CI4 SLP909

CYQF;2007-02-20 05:00;CYQF 200500Z 18003KT 15SM BKN100 OVC200 M02/M06 A2911 RMK AC5CI3 SLP904

CYQF;2007-02-20 06:00;CYQF 200600Z 20004KT 15SM BKN100 OVC200 M01/M06 A2910 RMK AC5CI3 SLP896

CYQF;2007-02-20 07:00;CYQF 200700Z 19004KT 15SM BKN100 BKN210 M02/M06 A2910 RMK AC5CI0 SLP894

CYQF;2007-02-20 08:00;CYQF 200800Z 20003KT 15SM SCT100 BKN210 M05/M09 A2908 RMK AC3CI0 SLP890

CYQF;2007-02-20 09:00;CYQF 200900Z 21002KT 15SM FEW100 SCT210 M08/M11 A2909 RMK AC2CI0 SLP894

CYQF;2007-02-20 10:00;CYQF 201000Z 23005KT 15SM SKC M07/M12 A2910 RMK SLP896

CYQF;2007-02-20 11:00;CYQF 201100Z 00000KT 15SM SKC M08/M12 A2911 RMK SLP899

CYQF;2007-02-20 12:00;CYQF 201200Z 24003KT 15SM SKC M11/M14 A2911 RMK SLP907

CYQF;2007-02-20 13:00;CYQF 201300Z 24008KT 15SM SKC M09/M13 A2913 RMK SLP912

CYQF;2007-02-20 14:00;CYQF 201400Z 24009KT 15SM FEW100 M08/M13 A2915 RMK AC2 SLP917

CYQF;2007-02-20 15:00;CYQF 201500Z 24008KT 15SM BKN070 BKN100 M06/M10 A2915 RMK AC2AC1 SLP914

CYQF;2007-02-20 16:00;CYQF 201600Z 36006KT 15SM FEW050 SCT100 M04/M10 A2917 RMK SC1AC2 SLP922

CYQF;2007-02-20 17:00;CYQF 201700Z 00000KT 15SM FEW050 FEW100 M06/M10 A2922 RMK SC1AC2 SLP935

CYQF;2007-02-20 18:00;CYQF 201800Z 02009KT 15SM FEW050 FEW100 M04/M09 A2922 RMK SC1AC1 SLP933

CYQF;2007-02-20 19:00;CYQF 201900Z 35007KT 15SM FEW050 FEW100 M02/M06 A2926 RMK SC1AC1 SLP945

CYQF;2007-02-20 20:00;CYQF 202000Z 33008KT 15SM FEW050 FEW100 M02/M04 A2925 RMK SC1AC2 SLP944

CYQF;2007-02-20 21:00;CYQF 202100Z 35010KT 15SM FEW050 FEW100 00/M04 A2925 RMK SC1AC1 SLP946

CYQF;2007-02-20 22:00;CYQF 202200Z 34010KT 15SM SCT040 BKN100 00/M04 A2927 RMK SC3AC2 TCU DIST SW-W SLP953

CYQF;2007-02-20 22:35;CYQF 202235Z 33009KT 12SM -SHSN BKN040 BKN100 RMK SC6AC2 TCU EMBDD VIS SW-W-N LWR IN SHS

CYQF;2007-02-20 23:00;CYQF 202300Z 34010KT 4SM -SHSN OVC030 M01/M03 A2930 RMK SC8 TCU EMBDD SLP964

CYQF;2007-02-20 23:04;CYQF 202304Z 34008KT 1 1/2SM -SHSN OVC030 RMK SN2SC6 TCU EMBDD

CYQF;2007-02-20 23:17;CYQF 202317Z 30004KT 6SM -SHSN OVC030 RMK SC8 TCU EMBDD

CYQF;2007-02-20 23:29;CYQF 202329Z 28003KT 15SM BKN030 BKN090 RMK SC6AC1 TCU EMBDD

CYQF;2007-02-21 00:00;CYQF 210000Z CCA 24003KT 15SM BKN030 BKN090 M02/M03 A2934 RMK SC6AC2 TCU ASCTD SHS DIST SE SLP984

CYQF;2007-02-21 01:00;CYQF 210100Z 21008KT 15SM BKN030 BKN090 M02/M03 A2935 RMK SC6AC2 VIRGA SW-SE SLP988

CYQF;2007-02-21 01:27;CYQF 210127Z 36015G20KT 2SM -SN SCT010 OVC090 RMK SN2SF2AC4

CYQF;2007-02-21 02:00;CYQF 210200Z 23009KT 15SM SCT030 BKN090 M03/M05 A2936 RMK SC4AC3 VIRGA SLP990

CYQF;2007-02-21 03:00;CYQF 210300Z CCA 33008KT 15SM SCT015 OVC090 M02/M04 A2963 RMK SF3AC5 SLP081

CYQF;2007-02-21 04:00;CYQF 210400Z 22003KT 15SM FEW030 BKN090 M08/M09 A2942 RMK SC2AC3 SLP008

CYQF;2007-02-21 05:00;CYQF 210500Z 00000KT 15SM FEW040 SCT100 M05/M06 A2945 RMK SC2AC2 VIRGA NW-NE SLP017

CYQF;2007-02-21 06:00;CYQF 210600Z 36004KT 15SM SCT100 M09/M09 A2949 RMK AC3 SLP036

CYQF;2007-02-21 07:00;CYQF 210700Z 21002KT 15SM FEW100 M10/M10 A2950 RMK AC2 SLP041

CYQF;2007-02-21 07:32;CYQF 210732Z 21003KT 2SM BR SCT100 RMK FG2AC1

CYQF;2007-02-21 07:40;CYQF 210740Z 20002KT 1/2SM FZFG SCT100 RMK FG2AC1

CYQF;2007-02-21 08:00;CYQF 210800Z 20005KT 1/2SM FZFG SKC M13/M14 A2952 RMK FG2 FROIN SLP046

CYQF;2007-02-21 08:21;CYQF 210821Z 20005KT 2SM BR SKC RMK FG2 FROIN

CYQF;2007-02-21 08:36;CYQF 210836Z 21004KT 3SM BR SCT004 RMK FG2SF2 FROIN

CYQF;2007-02-21 08:47;CYQF 210847Z 21004KT 1 1/2SM BR SCT004 RMK FG2SF2 FROIN

CYQF;2007-02-21 08:55;CYQF 210855Z 20004KT 3/4SM BR SCT004 RMK FG3SF1

CYQF;2007-02-21 09:00;CYQF 210900Z 20004KT 3/4SM BR SCT004 M14/M15 A2955 RMK FG3SF1 FROIN SLP059

CYQF;2007-02-21 09:23;CYQF 210923Z 23005KT 2SM BR SCT004 RMK FG2SF1 FROIN

CYQF;2007-02-21 10:00;CYQF 211000Z 22005KT 4SM BR SKC M15/M16 A2957 RMK FG1 FROIN SLP067

CYQF;2007-02-21 11:00;CYQF 211100Z CCA 20004KT 10SM FEW080 M15/M16 A2960 RMK AC2 FROIN BR SLP074

CYQF;2007-02-21 12:00;CYQF 211200Z CCA 36002KT 15SM FEW080 SCT250 M14/M15 A2963 RMK AC1CI2 FROIN SLP087

CYQF;2007-02-21 13:00;CYQF 211300Z 20003KT 15SM FEW080 SCT250 M15/M15 A2965 RMK AC1CI2 FROIN SLP093

CYQF;2007-02-21 14:00;CYQF 211400Z 23003KT 15SM SCT080 BKN250 M13/M14 A2966 RMK AC3CI2 SLP099

CYQF;2007-02-21 15:00;CYQF 211500Z 35003KT 15SM SCT080 BKN250 M13/M14 A2969 RMK AC4CI1 FG BNK DIST N SLP111

CYQF;2007-02-21 16:00;CYQF 211600Z 00000KT 15SM SCT080 BKN250 M13/M14 A2971 RMK AC3CI1 FG BNK DIST N SLP118

CYQF;2007-02-21 17:00;CYQF 211700Z CCA 35003KT 15SM SCT080 BKN250 M13/M14 A2974 RMK AC3CI1 FG BANK DIST N SLP126

CYQF;2007-02-21 18:00;CYQF 211800Z CCA 00000KT 12SM SCT080 BKN250 M10/M11 A2976 RMK AC3CI2 VIS LWR N SLP140

CYQF;2007-02-21 19:00;CYQF 211900Z 00000KT 12SM BKN080 BKN250 M09/M10 A2978 RMK AC5CI1 FG BNK DIST N SLP146

CYQF;2007-02-21 20:00;CYQF 212000Z 00000KT 15SM FEW030 SCT100 BKN200 M08/M10 A2979 RMK CU1AC3CI0 VIS LWR N VIRGA TCU ASOCTD SLP147

CYQF;2007-02-21 21:00;CYQF 212100Z CCA 00000KT 12SM FEW030 FEW100 BKN200 M06/M10 A2980 RMK CU1AC2CI1 VIS LWR N SLP153

CYQF;2007-02-21 22:00;CYQF 212200Z 00000KT 12SM FEW030 SCT100 SCT200 M05/M10 A2981 RMK CU1AC2CI0 VIS LWR N VIRGA SLP155

CYQF;2007-02-21 23:00;CYQF 212300Z 03002KT 12SM FEW030 BKN100 BKN200 M05/M10 A2982 RMK CU1AC5CI0 VIRGA SLP158

CYQF;2007-02-22 00:00;CYQF 220000Z 08002KT 12SM FEW030 BKN100 BKN250 M05/M10 A2983 RMK CU2AC4CI0 VIRGA SLP161

CYQF;2007-02-22 01:00;CYQF 220100Z 20005KT 15SM FEW100 BKN150 OVC240 01/M03 A2971 RMK AC2AC3CI1 SLP100

CYQF;2007-02-22 02:00;CYQF 220200Z 09005KT 15SM SCT090 M09/M11 A2985 RMK AC4 VIRGA SLP168

CYQF;2007-02-22 03:00;CYQF 220300Z 36002KT 15SM FEW090 M11/M13 A2986 RMK AC2 SLP178

CYQF;2007-02-22 04:00;CYQF 220400Z 01002KT 15SM FEW090 M13/M14 A2987 RMK AC2 SLP183

CYQF;2007-02-22 05:00;CYQF 220500Z 02004KT 10SM FEW090 M14/M14 A2988 RMK AC1 SLP186

CYQF;2007-02-22 06:00;CYQF 220600Z 00000KT 8SM FEW090 M15/M16 A2989 RMK AC1 SLP193

CYQF;2007-02-22 07:00;CYQF 220700Z 06003KT 8SM FEW090 M15/M15 A2989 RMK AC1 SLP193

CYQF;2007-02-22 08:00;CYQF 220800Z 06003KT 8SM SKC M16/M16 A2989 RMK SLP193

CYQF;2007-02-22 09:00;CYQF 220900Z 05002KT 8SM SKC M17/M17 A2990 RMK SLP191

CYQF;2007-02-22 10:00;CYQF 221000Z 00000KT 8SM SKC M17/M19 A2989 RMK SLP189

CYQF;2007-02-22 11:00;CYQF 221100Z 00000KT 8SM SKC M19/M21 A2988 RMK SLP185

CYQF;2007-02-22 12:00;CYQF 221200Z 00000KT 10SM SKC M20/M23 A2987 RMK SLP183

CYQF;2007-02-22 13:00;CYQF 221300Z 00000KT 8SM FEW210 M19/M22 A2989 RMK CI1 SLP188

CYQF;2007-02-22 13:07;CYQF 221307Z 00000KT 6SM IC SCT210 RMK CI2

CYQF;2007-02-22 13:15;CYQF 221315Z 16004KT 2SM IC SCT210 RMK CI2 VSBY N 1IC

CYQF;2007-02-22 13:33;CYQF 221333Z 11009KT 6SM IC BKN210 RMK CI2

CYQF;2007-02-22 13:41;CYQF 221341Z 11007KT 5SM IC BKN002 BKN210 RMK ST2CI2

CYQF;2007-02-22 14:00;CYQF 221400Z 14009KT 5SM IC BKN002 BKN210 M17/M20 A2988 RMK ST2CI2 VIS LWR E SLP187

CYQF;2007-02-22 14:05;CYQF 221405Z 13007KT 3SM IC BKN002 RMK ST7

CYQF;2007-02-22 14:21;CYQF 221421Z 13005KT 3SM BR BKN004 BKN090 RMK SF6AC1

CYQF;2007-02-22 14:52;CYQF 221452Z 12004KT 2SM IC BKN004 BKN090 RMK SF6AC1

CYQF;2007-02-22 15:00;CYQF 221500Z CCA 12002KT 2SM IC BKN004 BKN090 M17/M19 A2986 RMK SF6AC1 VIS N 6 SLP182

CYQF;2007-02-22 15:20;CYQF 221520Z 12005KT 8SM FEW006 BKN090 BKN240 RMK SF2AC3CI1 VIS S 3

CYQF;2007-02-22 15:54;CYQF 221554Z 12003KT 10SM FEW010 SCT090 BKN240 RMK SF1AC2CI1

CYQF;2007-02-22 16:00;CYQF 221600Z 12003KT 10SM FEW010 SCT090 BKN240 M16/M19 A2985 RMK SF1AC2CI1 SLP180

CYQF;2007-02-22 16:26;CYQF 221626Z 00000KT 3SM -SN SCT090 BKN240 RMK AC3CI2

CYQF;2007-02-22 17:00;CYQF 221700Z 14010KT 3SM -SN FEW020 BKN090 OVC200 M14/M15 A2985 RMK SF1AC4CI1 SLP178

CYQF;2007-02-22 18:00;CYQF 221800Z 16005KT 5SM -SN FEW020 BKN090 OVC200 M12/M12 A2984 RMK SF1AC5CI1 SLP175

CYQF;2007-02-22 19:00;CYQF 221900Z 13005KT 3SM -SN BR OVC005 M10/M10 A2980 RMK ST8 SLP162

CYQF;2007-02-22 20:00;CYQF 222000Z 08002KT 3SM -SN BR OVC007 M09/M10 A2978 RMK ST8 CIG RAG SLP156

CYQF;2007-02-22 20:41;CYQF 222041Z 11007KT 3SM BR SCT007 OVC020 RMK SF4SC3

CYQF;2007-02-22 21:00;CYQF 222100Z 09004KT 3SM BR SCT007 OVC020 M08/M09 A2974 RMK SF3SC4 SLP137

CYQF;2007-02-22 22:00;CYQF 222200Z 12010KT 3SM BR BKN007 OVC020 M07/M08 A2971 RMK SF5SC3 BLN EST SLP129

CYQF;2007-02-22 23:00;CYQF 222300Z 08010KT 6SM BR BKN007 OVC020 M08/M09 A2968 RMK SF6SC2 SLP121

CYQF;2007-02-22 23:14;CYQF 222314Z 10010KT 5SM -SN BR BKN007 OVC020 RMK ST6SC2

CYQF;2007-02-22 23:26;CYQF 222326Z 08010KT 1 1/2SM -SN BR OVC007 RMK SN4ST4

CYQF;2007-02-23 00:00;CYQF 230000Z 11008KT 1 1/2SM -SN BR OVC007 M08/M09 A2967 RMK SN4ST4 SLP118

CYQF;2007-02-23 01:00;CYQF 230100Z 00000KT 15SM FEW050 BKN100 BKN250 07/M04 A2962 RMK SC1AC6CI1 SLP056

CYQF;2007-02-23 01:23;CYQF 230123Z 09008KT 3/4SM -SN BR VV006 RMK SN8

CYQF;2007-02-23 01:47;CYQF 230147Z 10010KT 1SM -SN BR VV006 RMK SN8

CYQF;2007-02-23 02:00;CYQF 230200Z 09009KT 1SM -SN BR VV006 M08/M09 A2965 RMK SN8 /S02/ SLP110

CYQF;2007-02-23 02:22;CYQF 230222Z 08009KT 2SM -SN BR VV015 RMK SN8

CYQF;2007-02-23 03:00;CYQF 230300Z 10007KT 2SM -SN BR OVC030 M09/M10 A2963 RMK SN6SC2 /S03/ SLP100

CYQF;2007-02-23 03:29;CYQF 230329Z 08008KT 6SM -SN BR FEW008 OVC040 RMK ST2SC6

CYQF;2007-02-23 04:00;CYQF 230400Z 09007KT 10SM -SN FEW008 OVC030 M09/M10 A2962 RMK ST2SC6 SLP097

CYQF;2007-02-23 05:00;CYQF 230500Z 09006KT 15SM -SN FEW008 OVC025 M09/M10 A2959 RMK ST2SC6 SLP089

CYQF;2007-02-23 06:00;CYQF 230600Z 09007KT 15SM -SN OVC018 M08/M09 A2957 RMK SC8 SLP073

CYQF;2007-02-23 06:31;CYQF 230631Z 10003KT 15SM BKN009 OVC020 RMK ST6SC2

CYQF;2007-02-23 07:00;CYQF 230700Z 07004KT 15SM OVC008 M08/M13 A2956 RMK ST8 SLP068

CYQF;2007-02-23 07:43;CYQF 230743Z 05007KT 15SM OVC007 RMK ST8

CYQF;2007-02-23 08:00;CYQF 230800Z 02005KT 15SM OVC007 M08/M09 A2955 RMK ST8 SLP066

CYQF;2007-02-23 09:00;CYQF 230900Z 33004KT 15SM OVC007 M09/M09 A2955 RMK ST8 SLP063

CYQF;2007-02-23 10:00;CYQF 231000Z 33003KT 15SM OVC007 M09/M09 A2956 RMK ST8 SLP065

CYQF;2007-02-23 11:00;CYQF 231100Z 36003KT 8SM OVC008 M09/M09 A2956 RMK ST8 SLP067

CYQF;2007-02-23 11:18;CYQF 231118Z 00000KT 8SM OVC004 RMK ST8

CYQF;2007-02-23 11:51;CYQF 231151Z 33002KT 3SM BR OVC004 RMK ST8

CYQF;2007-02-23 12:00;CYQF 231200Z 33002KT 3SM BR OVC004 M09/M09 A2957 RMK ST8 SLP070

CYQF;2007-02-23 13:00;CYQF 231300Z 32005KT 3SM BR OVC006 M09/M10 A2958 RMK ST8 CIG VRB 4-8 SLP073

CYQF;2007-02-23 13:20;CYQF 231320Z 31006KT 6SM -SN BR OVC006 RMK ST8 CIG VRB 4-8

CYQF;2007-02-23 14:00;CYQF 231400Z 33007KT 3SM -SN BR OVC006 M09/M10 A2960 RMK ST8 SLP080

CYQF;2007-02-23 14:35;CYQF 231435Z 33007KT 5SM BR OVC008 RMK ST8 CIG RAG

CYQF;2007-02-23 15:00;CYQF 231500Z 31007KT 5SM BR OVC007 M09/M10 A2962 RMK ST8 SLP087

CYQF;2007-02-23 16:00;CYQF 231600Z 31006KT 3SM BR OVC006 M10/M10 A2963 RMK SF8 SLP090

CYQF;2007-02-23 17:00;CYQF 231700Z CCA 31006KT 3SM BR OVC006 M10/M10 A2963 RMK SF8 CIG RAG SLP090

CYQF;2007-02-23 18:00;CYQF 231800Z 00000KT 3SM BR BKN006 OVC020 M10/M11 A2966 RMK SF6SC1 CIG RAG SLP101

CYQF;2007-02-23 18:45;CYQF 231845Z 30005KT 2SM BR BKN005 OVC020 RMK SF6SC1 CIG RAG

CYQF;2007-02-23 19:00;CYQF 231900Z 29002KT 2SM BR BKN005 OVC020 M10/M11 A2966 RMK SF6SC1 CIG RAG SLP104

CYQF;2007-02-23 19:24;CYQF 231924Z 00000KT 2SM BR BKN005 BKN250 RMK SF4CI2

CYQF;2007-02-23 19:37;CYQF 231937Z 00000KT 3SM BR SCT005 BKN250 RMK SF3CI2

CYQF;2007-02-23 20:00;CYQF 232000Z 00000KT 3SM BR FEW005 BKN250 M09/M11 A2966 RMK SF2CI2 SLP104

CYQF;2007-02-23 21:00;CYQF 232100Z 27002KT 6SM BR FEW050 SCT250 M08/M11 A2967 RMK SC1CI2 SLP103

CYQF;2007-02-23 22:00;CYQF 232200Z 00000KT 10SM FEW030 FEW250 M07/M10 A2969 RMK CU1CI2 BR SLP109

CYQF;2007-02-23 23:00;CYQF 232300Z 00000KT 10SM FEW030 FEW250 M07/M10 A2971 RMK CU1CI1 SLP115

CYQF;2007-02-24 00:00;CYQF 240000Z 00000KT 12SM FEW030 FEW250 M08/M10 A2973 RMK CU1CI1 SLP124

CYQF;2007-02-24 01:00;CYQF 240100Z 00000KT 10SM FEW030 FEW250 M12/M13 A2975 RMK SC1CI1 OBS TAKEN +9 SLP130

CYQF;2007-02-24 02:00;CYQF 240200Z 00000KT 15SM SKC M14/M15 A2976 RMK SLP135

CYQF;2007-02-24 03:00;CYQF 240300Z 20010KT 15SM BKN090 BKN250 07/M00 A2951 RMK AC5CI0 SLP023

CYQF;2007-02-24 04:00;CYQF 240400Z 21012KT 15SM SCT090 07/M01 A2950 RMK AC2 BARO READ H+09 SLP021

CYQF;2007-02-24 05:00;CYQF 240500Z 00000KT 15SM SKC M17/M18 A2980 RMK SLP156

CYQF;2007-02-24 06:00;CYQF 240600Z 00000KT 15SM SKC M18/M20 A2980 RMK SLP161

CYQF;2007-02-24 07:00;CYQF 240700Z 21004KT 15SM SKC M17/M20 A2980 RMK SLP161

CYQF;2007-02-24 08:00;CYQF 240800Z 19003KT 15SM SKC M18/M21 A2980 RMK SLP162

CYQF;2007-02-24 09:00;CYQF 240900Z 22011KT 15SM SKC M17/M19 A2980 RMK SLP158

CYQF;2007-02-24 10:00;CYQF 241000Z 21004KT 15SM SKC M17/M20 A2980 RMK SLP159

CYQF;2007-02-24 11:00;CYQF 241100Z CCA 20004KT 15SM SKC M18/M20 A2981 RMK OBS TAKEN +8 SLP163

CYQF;2007-02-24 12:00;CYQF 241200Z 00000KT 15SM SKC M20/M23 A2982 RMK SLP169

CYQF;2007-02-24 13:00;CYQF 241300Z 24003KT 15SM SKC M20/M23 A2983 RMK FROIN SLP173

CYQF;2007-02-24 14:00;CYQF 241400Z 24003KT 15SM SKC M20/M23 A2984 RMK SLP175

CYQF;2007-02-24 15:00;CYQF 241500Z 23002KT 15SM FEW250 M20/M23 A2985 RMK CI1 SLP186

CYQF;2007-02-24 16:00;CYQF 241600Z 21003KT 15SM FEW100 FEW250 M18/M21 A2985 RMK AC1CI1 SLP186

CYQF;2007-02-24 17:00;CYQF 241700Z 20003KT 15SM FEW100 FEW250 M15/M17 A2985 RMK AC1CI1 SLP186

CYQF;2007-02-24 18:00;CYQF 241800Z 18002KT 15SM FEW100 FEW250 M12/M16 A2985 RMK AC1CI1 SLP180

CYQF;2007-02-24 19:00;CYQF 241900Z 00000KT 15SM FEW100 SCT250 M08/M15 A2983 RMK AC1CI1 SLP176

CYQF;2007-02-24 20:00;CYQF 242000Z 00000KT 15SM FEW100 SCT250 M06/M16 A2981 RMK AC1CI1 SLP170

CYQF;2007-02-24 21:00;CYQF 242100Z 00000KT 15SM FEW100 SCT250 M07/M15 A2979 RMK AC1CI1 SLP155

CYQF;2007-02-24 22:00;CYQF 242200Z 00000KT 15SM FEW100 BKN250 M04/M13 A2978 RMK AC1CI2 SLP150

CYQF;2007-02-24 23:00;CYQF 242300Z 14003KT 15SM FEW100 BKN250 M05/M13 A2976 RMK AC1CI2 SLP146

CYQF;2007-02-25 00:00;CYQF 250000Z 12004KT 15SM FEW100 BKN250 M05/M12 A2975 RMK AC1CI2 SLP141

CYQF;2007-02-25 01:00;CYQF 250100Z 15004KT 15SM FEW100 BKN250 M08/M13 A2975 RMK AC1CI2 SLP140

CYQF;2007-02-25 02:00;CYQF 250200Z CCA 03003KT 15SM FEW100 BKN200 04/01 A2948 RMK AC1CI4 SLP010

CYQF;2007-02-25 03:00;CYQF 250300Z 00000KT 15SM SCT100 BKN200 02/M01 A2946 RMK AC3CI2 SLP003

CYQF;2007-02-25 04:00;CYQF 250400Z 00000KT 15SM FEW100 SCT200 01/M01 A2944 RMK AC2CI2 SLP997

CYQF;2007-02-25 05:00;CYQF 250500Z 18005KT 15SM FEW100 BKN250 M09/M13 A2970 RMK AC1CI2 SLP128

CYQF;2007-02-25 06:00;CYQF 250600Z 16003KT 15SM FEW100 BKN250 M10/M13 A2969 RMK AC1CI2 SLP116

CYQF;2007-02-25 07:00;CYQF 250700Z 16003KT 15SM FEW100 OVC200 M11/M13 A2967 RMK AC2CS0 HALO SLP112

CYQF;2007-02-25 08:00;CYQF 250800Z 17002KT 15SM FEW100 OVC200 M11/M14 A2967 RMK AC2CS0 SLP111

CYQF;2007-02-25 09:00;CYQF 250900Z 12005KT 15SM FEW100 BKN200 M10/M12 A2966 RMK AC2CS0 SLP099

CYQF;2007-02-25 10:00;CYQF 251000Z 00000KT 15SM FEW100 BKN200 M10/M13 A2965 RMK AC1CS2 SLP096

CYQF;2007-02-25 11:00;CYQF 251100Z CCA 16003KT 12SM OVC200 M12/M14 A2964 RMK CS2 SLP093

CYQF;2007-02-25 12:00;CYQF 251200Z 16003KT 12SM OVC200 M13/M14 A2965 RMK CS2 SLP097

CYQF;2007-02-25 13:00;CYQF 251300Z 00000KT 15SM SCT200 M13/M15 A2964 RMK CI2 SLP094

CYQF;2007-02-25 14:00;CYQF 251400Z 27003KT 8SM BKN250 M13/M14 A2963 RMK CI4 BR SLP093

CYQF;2007-02-25 15:00;CYQF 251500Z 00000KT 8SM SCT100 BKN250 M12/M13 A2963 RMK AC3CI1 BR SLP097

CYQF;2007-02-25 16:00;CYQF 251600Z 21003KT 8SM SCT100 OVC210 M13/M14 A2964 RMK AC3CI3 SLP098

CYQF;2007-02-25 17:00;CYQF 251700Z 14007KT 8SM OVC210 M11/M12 A2964 RMK CI6 SLP099

CYQF;2007-02-25 18:00;CYQF 251800Z 10010KT 10SM OVC210 M09/M12 A2963 RMK CI6 SLP094

CYQF;2007-02-25 19:00;CYQF 251900Z 11009KT 10SM OVC210 M07/M11 A2962 RMK CI4 F BNK DST S-SW SLP091

CYQF;2007-02-25 20:00;CYQF 252000Z 15006KT 15SM OVC210 M06/M10 A2961 RMK CI3 SLP088

CYQF;2007-02-25 21:00;CYQF 252100Z 10003KT 15SM BKN210 M06/M09 A2961 RMK CI2 SLP082

CYQF;2007-02-25 22:00;CYQF 252200Z 12005KT 15SM FEW150 BKN210 M05/M09 A2961 RMK AC1CI2 SLP082

CYQF;2007-02-25 23:00;CYQF 252300Z 13008KT 15SM FEW150 BKN210 M04/M09 A2962 RMK AC1CI2 SLP085

CYQF;2007-02-26 00:00;CYQF 260000Z 09005KT 15SM VCSH BKN040 BKN100 04/M01 A2975 RMK CU5AC1 TCU ASOCTD SLP106

CYQF;2007-02-26 01:00;CYQF 260100Z 12005KT 15SM BKN100 OVC210 M06/M09 A2965 RMK AC5CI1 SLP098

CYQF;2007-02-26 02:00;CYQF 260200Z 07004KT 15SM OVC100 M07/M10 A2967 RMK AC7 SLP105

CYQF;2007-02-26 03:00;CYQF 260300Z 09005KT 10SM -SN OVC100 M08/M10 A2968 RMK AC8 SLP113

CYQF;2007-02-26 03:24;CYQF 260324Z 08008KT 1SM -SN OVC040 RMK SN4SC4

CYQF;2007-02-26 03:46;CYQF 260346Z 09005KT 8SM -SN BKN030 OVC100 RMK SC6AC2

CYQF;2007-02-26 04:00;CYQF 260400Z 08004KT 8SM -SN BKN030 OVC100 M07/M08 A2969 RMK SC6AC2 SLP116

CYQF;2007-02-26 05:00;CYQF 260500Z 12008KT 4SM -SN OVC030 M07/M08 A2970 RMK SC8 /S01/ SLP119

CYQF;2007-02-26 06:00;CYQF 260600Z 13009KT 3SM -SN OVC020 M07/M09 A2971 RMK SC8 /S01/ SLP117

CYQF;2007-02-26 07:00;CYQF 260700Z 14010KT 10SM -SN OVC030 M08/M09 A2971 RMK SC8 SLP117

CYQF;2007-02-26 08:00;CYQF 260800Z 12012KT 10SM -SN FEW012 OVC030 M08/M11 A2972 RMK SF2SC6 SLP121

CYQF;2007-02-26 09:00;CYQF 260900Z 12013KT 15SM -SN FEW015 OVC052 M08/M13 A2972 RMK SC2SC6 SLP119

CYQF;2007-02-26 10:00;CYQF 261000Z 13010KT 15SM -SN FEW015 BKN052 M09/M13 A2972 RMK SC2SC6 SLP120

CYQF;2007-02-26 11:00;CYQF 261100Z 14012KT 15SM FEW015 BKN050 M10/M13 A2973 RMK SC2SC6 SLP122

CYQF;2007-02-26 12:00;CYQF 261200Z 12009KT 15SM FEW015 BKN050 M10/M13 A2973 RMK SC2SC6 SLP123

CYQF;2007-02-26 13:00;CYQF 261300Z 13012KT 15SM FEW015 OVC050 M10/M13 A2974 RMK SC2SC6 SLP125

CYQF;2007-02-26 14:00;CYQF 261400Z 13013KT 15SM FEW015 BKN050 M10/M13 A2974 RMK SC2SC6 SLP126

CYQF;2007-02-26 15:00;CYQF 261500Z 14012KT 15SM SCT015 OVC050 M11/M13 A2974 RMK SC4SC4 SLP131

CYQF;2007-02-26 16:00;CYQF 261600Z 15010KT 15SM FEW015 OVC050 M11/M14 A2976 RMK SC2SC6 SLP136

CYQF;2007-02-26 17:00;CYQF 261700Z 15010KT 15SM OVC050 M11/M14 A2976 RMK SC8 SLP137

CYQF;2007-02-26 18:00;CYQF 261800Z 13010KT 15SM OVC050 M10/M13 A2976 RMK SC8 SLP138

CYQF;2007-02-26 19:00;CYQF 261900Z 15012KT 15SM SCT050 OVC240 M10/M13 A2977 RMK SC4CI1 SLP139

CYQF;2007-02-26 20:00;CYQF 262000Z 12010KT 15SM SCT050 BKN240 M09/M13 A2976 RMK SC3CI2 SLP137

CYQF;2007-02-26 21:00;CYQF 262100Z 13011KT 15SM BKN050 OVC240 M09/M13 A2975 RMK SC5CI2 SLP134

CYQF;2007-02-26 22:00;CYQF 262200Z 13013KT 15SM BKN050 OVC100 M09/M13 A2975 RMK SC6AC2 SLP133

CYQF;2007-02-26 23:00;CYQF 262300Z 14013KT 15SM FEW050 BKN100 BKN240 M09/M12 A2974 RMK SC2AC2CI1 SLP131

CYQF;2007-02-27 00:00;CYQF 270000Z 15012KT 15SM FEW050 SCT100 BKN240 M09/M13 A2974 RMK SC2AC2CI1 SLP131

CYQF;2007-02-27 01:00;CYQF 270100Z 13009KT 15SM BKN100 BKN240 M11/M13 A2974 RMK AC5CI2 BARO READ +14 SLP132

CYQF;2007-02-27 02:00;CYQF 270200Z 13009KT 15SM OVC080 M11/M13 A2975 RMK AC7 SLP133

CYQF;2007-02-27 03:00;CYQF 270300Z CCA 14012KT 15SM SCT250 03/M04 A2991 RMK CI3 OBS TAKEN +45 SLP165

CYQF;2007-02-27 04:00;CYQF 270400Z 15010KT 15SM SCT070 OVC120 M13/M14 A2974 RMK AC3AC4 SLP135

CYQF;2007-02-27 05:00;CYQF 270500Z 13006KT 15SM BKN120 OVC240 M13/M15 A2973 RMK AC5CI2 SLP133

CYQF;2007-02-27 06:00;CYQF 270600Z 13008KT 15SM FEW025 BKN110 OVC240 M13/M15 A2972 RMK SC2AC3CI1 SLP130

CYQF;2007-02-27 06:24;CYQF 270624Z CCB 13005KT 12SM FEW025 BKN110 OVC240 RMK SC2AC3CI1 IC

CYQF;2007-02-27 07:00;CYQF 270700Z 13006KT 10SM FEW025 BKN110 OVC240 M14/M15 A2972 RMK SC2AC3CS0 SLP128

CYQF;2007-02-27 08:00;CYQF 270800Z 14005KT 15SM FEW025 SCT110 OVC240 M14/M15 A2971 RMK SC2AC2CS1 SLP125

CYQF;2007-02-27 09:00;CYQF 270900Z 13003KT 8SM SCT040 SCT110 OVC240 M14/M15 A2970 RMK SC3AC1CS1 SLP121

CYQF;2007-02-27 10:00;CYQF 271000Z 12005KT 10SM FEW040 SCT110 BKN240 M14/M16 A2968 RMK SC2AC1CS1 SLP115

CYQF;2007-02-27 11:00;CYQF 271100Z 12006KT 10SM FEW040 BKN110 BKN240 M15/M16 A2968 RMK SC1AC2CS1 SLP115

CYQF;2007-02-27 12:00;CYQF 271200Z 14002KT 15SM BKN100 BKN240 M15/M16 A2967 RMK AC3CI1 SLP113

CYQF;2007-02-27 12:48;CYQF 271248Z 10002KT 15SM BKN005 BKN100 RMK ST5AC2

CYQF;2007-02-27 13:00;CYQF 271300Z 12002KT 15SM -SG BKN006 BKN100 M15/M17 A2967 RMK ST5AC2 SLP112

CYQF;2007-02-27 13:18;CYQF 271318Z 12004KT 15SM -SG BKN004 BKN100 RMK ST6AC2

CYQF;2007-02-27 14:00;CYQF 271400Z 13003KT 15SM SCT005 BKN100 BKN240 M15/M16 A2966 RMK ST3AC3CI0 SLP111

CYQF;2007-02-27 15:00;CYQF 271500Z 11002KT 10SM SCT005 OVC100 M15/M16 A2967 RMK ST3AC4 SLP117

CYQF;2007-02-27 16:00;CYQF 271600Z 06005KT 6SM -SN BR SCT100 OVC240 M15/M16 A2968 RMK AC3CI2 CS ASOCTD SLP118

CYQF;2007-02-27 17:00;CYQF 271700Z 04003KT 10SM -SN FEW100 OVC240 M14/M17 A2969 RMK AC2CI2 SLP121

CYQF;2007-02-27 17:25;CYQF 271725Z 06003KT 12SM FEW100 OVC240 RMK AC2CI2 CS ASOCTD

CYQF;2007-02-27 18:00;CYQF 271800Z 06003KT 12SM FEW100 OVC240 M14/M16 A2969 RMK AC2CS2 SLP122

CYQF;2007-02-27 19:00;CYQF 271900Z 06003KT 12SM FEW100 OVC240 M13/M15 A2968 RMK AC2CS2 SLP121

CYQF;2007-02-27 20:00;CYQF 272000Z 08004KT 12SM FEW100 OVC250 M11/M14 A2968 RMK AC1CS2 SLP121

CYQF;2007-02-27 21:00;CYQF 272100Z 07003KT 10SM -SN SCT100 OVC250 M11/M14 A2968 RMK AC3CS2 VIS S 2 SLP117

CYQF;2007-02-27 22:00;CYQF 272200Z 07005KT 6SM -SN BKN070 OVC250 M11/M14 A2968 RMK AC5CS2 SLP116

CYQF;2007-02-27 23:00;CYQF 272300Z 08007KT 6SM -SN SCT070 OVC250 M11/M14 A2968 RMK AC3CS2 SLP117

CYQF;2007-02-28 00:00;CYQF 280000Z 06007KT 3SM -SN BKN070 OVC250 M12/M14 A2969 RMK SN2AC3CS2 SLP123

CYQF;2007-02-28 00:06;CYQF 280006Z 36003KT 1SM -SN BR OVC004 RMK SN3SF5 CIG RAG

CYQF;2007-02-28 00:24;CYQF 280024Z 07007KT 1 1/2SM -SN OVC070 RMK SN3AC5

CYQF;2007-02-28 01:00;CYQF 280100Z 07007KT 2SM -SN VV070 M13/M14 A2969 RMK SN8 VIS VRB 1-3 SLP124

CYQF;2007-02-28 01:30;CYQF 280130Z 06006KT 3SM -SN VV070 RMK SN8

CYQF;2007-02-28 01:45;CYQF 280145Z 34003KT 2SM BR OVC003 RMK ST8

CYQF;2007-02-28 02:00;CYQF 280200Z 07006KT 2SM -SN VV070 M13/M15 A2970 RMK SN8 VIS VRB 1-3 SLP126

CYQF;2007-02-28 03:00;CYQF 280300Z 07003KT 2SM -SN OVC210 M14/M15 A2970 RMK SN5CS1 VIS VRB 1-3 HALO SLP130

CYQF;2007-02-28 03:45;CYQF 280345Z 07003KT 6SM -SN OVC210 RMK SN4CS0 HALO

CYQF;2007-02-28 04:00;CYQF 280400Z 06003KT 6SM -SN OVC210 M14/M16 A2970 RMK SN4CS0 HALO SLP130

CYQF;2007-02-28 05:00;CYQF 280500Z 00000KT 10SM -SN OVC210 M14/M16 A2970 RMK CS3 SLP129

CYQF;2007-02-28 06:00;CYQF 280600Z 14003KT 15SM -SN OVC210 M15/M16 A2969 RMK CS2 HALO SLP125

CYQF;2007-02-28 06:48;CYQF 280648Z 14003KT 15SM SCT075 BKN210 RMK AC2CS2

CYQF;2007-02-28 07:00;CYQF 280700Z 14003KT 15SM SCT075 BKN210 M15/M17 A2969 RMK AC2CS2 SLP124

CYQF;2007-02-28 08:00;CYQF 280800Z 00000KT 15SM FEW075 OVC210 M16/M17 A2969 RMK AC2CS2 IC SLP124

CYQF;2007-02-28 08:51;CYQF 280851Z 00000KT 10SM -SN BKN030 OVC070 RMK SC6AC2

CYQF;2007-02-28 09:00;CYQF 280900Z 00000KT 10SM -SN BKN030 OVC070 M16/M18 A2967 RMK SC6AC2 SLP117

CYQF;2007-02-28 10:00;CYQF 281000Z 00000KT 8SM -SN OVC030 M15/M17 A2967 RMK SC8 SLP117

CYQF;2007-02-28 11:00;CYQF 281100Z 00000KT 8SM -SN OVC030 M14/M16 A2966 RMK SC8 SLP114

CYQF;2007-02-28 12:00;CYQF 281200Z 00000KT 10SM -SN OVC030 M14/M16 A2966 RMK SC8 /S01/ SLP112

CYQF;2007-02-28 13:00;CYQF 281300Z 00000KT 15SM -SN FEW030 FEW070 M16/M18 A2966 RMK SC1AC2 SLP111

CYQF;2007-02-28 13:20;CYQF 281320Z 00000KT 15SM FEW030 FEW070 RMK SC1AC1

CYQF;2007-02-28 14:00;CYQF 281400Z 00000KT 15SM FEW030 FEW100 SCT250 M17/M20 A2966 RMK SC1AC2CI0 SLP111

CYQF;2007-02-28 15:00;CYQF 281500Z 00000KT 3SM -SN BR BKN025 OVC080 M16/M19 A2966 RMK SC5AC2 SLP115

CYQF;2007-02-28 16:00;CYQF 281600Z 00000KT 3SM -SN BR FEW025 BKN080 OVC250 M16/M18 A2966 RMK SC2AC2CI2 SLP115

CYQF;2007-02-28 16:41;CYQF 281641Z 00000KT 12SM FEW080 SCT250 RMK AC2CI2

CYQF;2007-02-28 17:00;CYQF 281700Z 00000KT 15SM FEW080 SCT250 M15/M18 A2966 RMK AC2CI2 SLP117

CYQF;2007-02-28 18:00;CYQF 281800Z 00000KT 12SM FEW080 SCT250 M12/M16 A2966 RMK AC2CI2 SLP114

CYQF;2007-02-28 18:50;CYQF 281850Z 00000KT 5SM IC BR FEW080 BKN250 RMK AC2CI2

CYQF;2007-02-28 19:00;CYQF 281900Z 00000KT 5SM -SN BR FEW025 SCT080 BKN250 M10/M14 A2967 RMK SC2AC2CI2 SLP115

CYQF;2007-02-28 19:54;CYQF 281954Z 14006KT 10SM FEW080 BKN250 RMK AC2CI2 BR

CYQF;2007-02-28 20:00;CYQF 282000Z 13004KT 10SM FEW080 BKN250 M10/M13 A2966 RMK AC2CI2 BR SLP112

CYQF;2007-02-28 21:00;CYQF 282100Z 12007KT 6SM -SN BR SCT025 BKN080 BKN250 M09/M12 A2966 RMK SC3AC2CI1 SLP108

CYQF;2007-02-28 21:22;CYQF 282122Z 12008KT 2 1/2SM -SN BR BKN020 OVC080 RMK SC6AC2

CYQF;2007-02-28 22:00;CYQF 282200Z 14007KT 2 1/2SM -SN BR BKN018 OVC080 M09/M12 A2966 RMK SC6AC2 SLP110

CYQF;2007-02-28 23:00;CYQF 282300Z 15008KT 3SM -SN BKN025 OVC080 M09/M11 A2966 RMK SC7AC1 SLP111

CYQF;2007-03-01 01:00;CYQF 010100Z 36008KT 15SM BKN090 BKN250 02/M11 A2986 RMK AC5CI1 SLP149

CYQF;2007-03-01 02:00;CYQF 010200Z 01006KT 15SM BKN090 BKN250 01/M09 A2987 RMK AC5CI1 SLP152

CYQF;2007-03-01 03:00;CYQF 010300Z 03005KT 15SM FEW070 BKN100 BKN250 00/M08 A2989 RMK AC2AC2CI1 SLP161

CYQF;2007-03-01 04:00;CYQF 010400Z 00000KT 10SM -SN OVC025 M10/M11 A2970 RMK SC8 SLP125

CYQF;2007-03-01 05:00;CYQF 010500Z 00000KT 12SM -SN OVC025 M10/M11 A2971 RMK SC8 SLP128

CYQF;2007-03-01 06:00;CYQF 010600Z 04003KT 12SM -SN OVC017 M10/M11 A2971 RMK SC8 SLP125

CYQF;2007-03-01 07:00;CYQF 010700Z 04003KT 6SM -SN OVC016 M10/M11 A2972 RMK SC8 SLP127

CYQF;2007-03-01 08:00;CYQF 010800Z 04003KT 8SM -SN OVC017 M10/M11 A2972 RMK SC8 SLP127

CYQF;2007-03-01 09:00;CYQF 010900Z 00000KT 4SM -SN OVC014 M10/M11 A2973 RMK SC8 SLP126

CYQF;2007-03-01 10:00;CYQF 011000Z 01003KT 5SM -SN OVC014 M10/M11 A2974 RMK SC8 SLP129

CYQF;2007-03-01 11:00;CYQF 011100Z 02004KT 4SM -SN OVC012 M10/M11 A2974 RMK SC8 SLP131

CYQF;2007-03-01 12:00;CYQF 011200Z 01005KT 3SM -SN OVC014 M11/M12 A2975 RMK SC8 /S01/ SLP136

CYQF;2007-03-01 13:00;CYQF 011300Z 01004KT 3SM -SN OVC014 M11/M12 A2977 RMK SC8 SLP141

CYQF;2007-03-01 14:00;CYQF 011400Z 01004KT 3SM -SN OVC014 M11/M13 A2978 RMK SC8 SLP146

CYQF;2007-03-01 14:48;CYQF 011448Z 01005KT 2 1/2SM -SN OVC014 RMK SC8

CYQF;2007-03-01 15:00;CYQF 011500Z CCA 01005KT 2 1/2SM -SN OVC013 M12/M13 A2981 RMK SN2SC6 /S01/ SLP157

CYQF;2007-03-01 15:25;CYQF 011525Z 01006KT 2SM -SN VV013 RMK SN8 /S01/

CYQF;2007-03-01 15:42;CYQF 011542Z 36006KT 1 1/2SM -SN VV012 RMK SN8

CYQF;2007-03-01 16:00;CYQF 011600Z 36006KT 2SM -SN VV012 M12/M13 A2982 RMK SN8 /S01/ VIS VRB 1-3 SLP161

CYQF;2007-03-01 17:00;CYQF 011700Z 36005KT 2SM -SN SCT012 VV025 M11/M13 A2984 RMK SF4SN4 VIS VRB 1-3 /S02/ SLP168

CYQF;2007-03-01 18:00;CYQF 011800Z 01003KT 2SM -SN OVC015 M11/M12 A2986 RMK SN3SC5 SLP175

CYQF;2007-03-01 19:00;CYQF 011900Z 00000KT 2SM -SN OVC020 M10/M12 A2987 RMK SN3SC5 SLP177

CYQF;2007-03-01 19:44;CYQF 011944Z 00000KT 5SM -SN OVC015 RMK SC8

CYQF;2007-03-01 20:00;CYQF 012000Z 00000KT 5SM -SN OVC025 M09/M11 A2987 RMK SC8 SLP179

CYQF;2007-03-01 21:00;CYQF 012100Z 00000KT 3SM -SN BR FEW010 OVC025 M08/M11 A2989 RMK SF2SC6 SLP182

CYQF;2007-03-01 22:00;CYQF 012200Z 00000KT 5SM -SN BR FEW015 OVC030 M08/M11 A2990 RMK SF2SC6 SLP186

CYQF;2007-03-01 23:00;CYQF 012300Z 00000KT 8SM -SN FEW020 BKN035 M08/M11 A2992 RMK CF2SC4 BR SLP191

CYQF;2007-03-02 00:00;CYQF 020000Z 00000KT 10SM -SN FEW030 SCT090 BKN240 M08/M11 A2993 RMK SC2AC2CI1 /S01/ BR SLP198

CYQF;2007-03-02 00:53;CYQF 020053Z 00000KT 15SM FEW030 FEW090 SCT240 RMK SC1AC1CI1 BCFG VC

CYQF;2007-03-02 01:00;CYQF 020100Z 00000KT 15SM FEW030 FEW090 SCT240 M10/M12 A2996 RMK SC1AC1CI1 BCFG VC SLP206

CYQF;2007-03-02 02:00;CYQF 020200Z 00000KT 15SM FEW090 FEW240 M14/M14 A2997 RMK AC1CI1 BCFG VC SLP211

CYQF;2007-03-02 02:29;CYQF 020229Z 00000KT 2 1/2SM BR FEW090 SCT240 RMK FG1AC1CI1 VIS S 1/2

CYQF;2007-03-02 02:42;CYQF 020242Z 00000KT 3/4SM BR SCT240 RMK FG2CI1

CYQF;2007-03-02 03:00;CYQF 020300Z 00000KT 1/2SM FZFG SCT240 M19/M20 A3000 RMK FG2CI1 SLP235

CYQF;2007-03-02 03:33;CYQF 020333Z 20003KT 2SM BR FEW100 RMK FG2AC1

CYQF;2007-03-02 03:39;CYQF 020339Z 20003KT 6SM BR FEW100 RMK AC1 BCFG VC

CYQF;2007-03-02 04:00;CYQF 020400Z 00000KT 3SM BR FEW100 M19/M24 A3002 RMK FG1AC1 SLP241

CYQF;2007-03-02 04:13;CYQF 020413Z 00000KT 1SM BR SKC RMK FG2

CYQF;2007-03-02 04:32;CYQF 020432Z 00000KT 3/4SM BR SKC RMK FG4 FROIN

CYQF;2007-03-02 04:44;CYQF 020444Z 00000KT 1/4SM FZFG SKC RMK FG6 FROIN

CYQF;2007-03-02 05:00;CYQF 020500Z 00000KT 1/4SM FZFG SKC M13/M14 A3003 RMK FG6 FROIN SLP245

CYQF;2007-03-02 06:00;CYQF 020600Z 00000KT 1/4SM FZFG SKC M19/M22 A3005 RMK FG6 FROIN SLP253

CYQF;2007-03-02 07:00;CYQF 020700Z 00000KT 1/4SM FZFG SKC M19/M22 A3006 RMK FG6 SLP255

CYQF;2007-03-02 07:25;CYQF 020725Z 00000KT 3/8SM FZFG BKN010 RMK FG5SC2 FROIN

CYQF;2007-03-02 08:00;CYQF 020800Z 00000KT 1/8SM FZFG SKC M19/M22 A3007 RMK FG7 FROIN SLP258

CYQF;2007-03-02 08:27;CYQF 020827Z 00000KT 1/4SM FZFG SKC RMK FG7

CYQF;2007-03-02 09:00;CYQF 020900Z 00000KT 1/8SM FZFG SKC M19/M22 A3008 RMK FG7 FROIN SLP258

CYQF;2007-03-02 10:00;CYQF 021000Z 00000KT 1/8SM FZFG SKC M19/M22 A3010 RMK FG7 FROIN SLP265

CYQF;2007-03-02 11:00;CYQF 021100Z 00000KT 1/8SM FZFG VV001 M19/M22 A3012 RMK FG8 SLP272

CYQF;2007-03-02 12:00;CYQF 021200Z 00000KT 1/8SM FZFG VV001 M20/M23 A3013 RMK FG8 FROIN SLP277

CYQF;2007-03-02 13:00;CYQF 021300Z 00000KT 1/8SM FZFG VV000 M20/M23 A3015 RMK FG8 FROIN SLP283

CYQF;2007-03-02 13:40;CYQF 021340Z 00000KT 1/4SM FZFG VV002 RMK FG8 FROIN

CYQF;2007-03-02 14:00;CYQF 021400Z 00000KT 3/4SM BR VV008 M19/M22 A3016 RMK FG8 FROIN SLP286

CYQF;2007-03-02 14:33;CYQF 021433Z 00000KT 1SM BR VV009 RMK FG8

CYQF;2007-03-02 15:00;CYQF 021500Z 00000KT 1 1/2SM -SN BR VV010 M17/M20 A3017 RMK FG8 SLP303

CYQF;2007-03-02 16:00;CYQF 021600Z 00000KT 1 1/2SM -SN BR OVC014 M17/M20 A3018 RMK FG4ST4 SLP306

CYQF;2007-03-02 17:00;CYQF 021700Z 00000KT 2 1/2SM -SN BR BKN014 M16/M18 A3019 RMK FG2ST2 SLP307

CYQF;2007-03-02 17:30;CYQF 021730Z 00000KT 3SM -SN BR OVC014 RMK FG2ST6

CYQF;2007-03-02 18:00;CYQF 021800Z 00000KT 5SM -SN BR BKN014 M14/M15 A3019 RMK FG1ST3 SLP304

CYQF;2007-03-02 18:17;CYQF 021817Z 00000KT 8SM BKN014 RMK ST2 BR

CYQF;2007-03-02 19:00;CYQF 021900Z 13010KT 8SM SCT015 M10/M11 A3017 RMK ST2 BR SLP298

CYQF;2007-03-02 20:00;CYQF 022000Z 15008KT 10SM FEW015 M09/M10 A3015 RMK ST1 BR SLP293

CYQF;2007-03-02 21:00;CYQF 022100Z 18010G15KT 8SM BKN011 M09/M10 A3013 RMK ST5 BR SLP278

CYQF;2007-03-02 21:10;CYQF 022110Z 16010G15KT 5SM BR BKN008 RMK ST6 VSBY SE-SW 21/2 BR

CYQF;2007-03-02 21:27;CYQF 022127Z 16013KT 5SM BR BKN010 RMK ST6

CYQF;2007-03-02 21:45;CYQF 022145Z 16015KT 5SM BR BKN009 RMK ST7 BLN CIG

CYQF;2007-03-02 22:00;CYQF 022200Z 16010G15KT 5SM BR BKN009 M09/M10 A3012 RMK ST7 SLP274

CYQF;2007-03-02 23:00;CYQF 022300Z 16015G20KT 5SM BR BKN008 M08/M09 A3011 RMK ST7 SLP270

CYQF;2007-03-03 00:00;CYQF 030000Z 15015G20KT 5SM BR OVC009 M08/M09 A3010 RMK ST7 BLN CIG SLP266

CYQF;2007-03-03 01:00;CYQF 030100Z 18010G15KT 3SM BR OVC006 M08/M09 A3007 RMK ST7 SLP257

CYQF;2007-03-03 02:00;CYQF 030200Z 16016KT 5SM BR OVC010 M08/M09 A3006 RMK ST7 SLP255

CYQF;2007-03-03 03:00;CYQF 030300Z 17020G25KT 10SM SCT010 OVC220 M08/M10 A3004 RMK ST1CI2 SLP242

CYQF;2007-03-03 04:00;CYQF 030400Z 15010G15KT 10SM OVC220 M09/M11 A3001 RMK CS3 SLP234

CYQF;2007-03-03 05:00;CYQF 030500Z 18010G16KT 10SM OVC220 M09/M11 A2999 RMK CS2 SLP226

CYQF;2007-03-03 06:00;CYQF 030600Z 18012KT 10SM SCT220 M10/M12 A2997 RMK CI1 SLP216

CYQF;2007-03-03 07:00;CYQF 030700Z 17010G15KT 12SM SCT120 BKN250 M09/M11 A2994 RMK AC3CI2 SLP206

CYQF;2007-03-03 08:00;CYQF 030800Z 17012KT 12SM BKN120 OVC250 M09/M11 A2991 RMK AC5CI2 SLP197

CYQF;2007-03-03 09:00;CYQF 030900Z 17007KT 15SM OVC100 M09/M12 A2988 RMK AC7 SLP178

CYQF;2007-03-03 10:00;CYQF 031000Z 16006KT 15SM BKN100 OVC250 M09/M12 A2986 RMK AC5CI2 SLP174

CYQF;2007-03-03 11:00;CYQF 031100Z 00000KT 15SM BKN090 OVC250 M08/M11 A2986 RMK AC6CI2 SLP174

CYQF;2007-03-03 12:00;CYQF 031200Z 18004KT 15SM BKN090 OVC250 M08/M11 A2986 RMK AC6CI2 SLP171

CYQF;2007-03-03 13:00;CYQF 031300Z 20004KT 15SM BKN100 BKN240 M08/M11 A2987 RMK AC5CI1 SLP172

CYQF;2007-03-03 14:00;CYQF 031400Z 20002KT 15SM SCT080 BKN240 M09/M11 A2987 RMK AC3CI1 SLP173

CYQF;2007-03-03 15:00;CYQF 031500Z 20002KT 15SM FEW080 SCT210 M10/M20 A2988 RMK AC1CI1 SLP180

CYQF;2007-03-03 16:00;CYQF 031600Z 19005KT 15SM FEW080 FEW210 M07/M10 A2991 RMK AC1CI1 SLP187

CYQF;2007-03-03 17:00;CYQF 031700Z 23008KT 15SM FEW080 SCT210 M04/M09 A2993 RMK AC1CI2 SLP193

CYQF;2007-03-03 18:00;CYQF 031800Z 22007KT 15SM FEW080 SCT210 M02/M07 A2994 RMK AC1CI2 SLP191

CYQF;2007-03-03 19:00;CYQF 031900Z 22010KT 15SM FEW080 BKN210 01/M06 A2993 RMK AC1CI4 SLP190

CYQF;2007-03-03 20:00;CYQF 032000Z 24005KT 15SM FEW060 BKN210 04/M04 A2993 RMK SC1CI4 SLP190

CYQF;2007-03-03 21:00;CYQF 032100Z 26010KT 15SM FEW070 BKN210 05/M03 A2994 RMK AC1CI4 SLP184

CYQF;2007-03-03 22:00;CYQF 032200Z 21006KT 15SM FEW070 BKN210 05/M02 A2995 RMK AC1CI3 SLP185

CYQF;2007-03-03 23:00;CYQF 032300Z 18005KT 15SM FEW070 SCT120 BKN210 04/M02 A2995 RMK AC1AC3CI1 SLP187

CYQF;2007-03-04 00:00;CYQF 040000Z CCA 17007KT 15SM FEW035 SCT100 BKN210 04/M02 A2996 RMK SC1AC2CI1 ACSL ASOCTD SLP190

CYQF;2007-03-04 01:00;CYQF 040100Z 24006KT 15SM FEW035 FEW100 BKN210 02/M02 A2997 RMK SC1AC1CI2 SLP195

CYQF;2007-03-04 02:00;CYQF 040200Z 27003KT 15SM FEW035 FEW100 BKN250 01/M04 A3001 RMK SC1AC1CI2 SLP205

CYQF;2007-03-04 03:00;CYQF 040300Z 30006KT 15SM SCT100 BKN250 02/M05 A3003 RMK AC3CI2 SLP220

CYQF;2007-03-04 04:00;CYQF 040400Z 34002KT 15SM FEW100 BKN250 00/M05 A3006 RMK AC2CI3 OBS TAKEN +13 SLP228

CYQF;2007-03-04 05:00;CYQF 040500Z 30006KT 15SM FEW100 BKN250 M02/M06 A3006 RMK AC2CI4 SLP230

CYQF;2007-03-04 06:00;CYQF 040600Z 20007KT 15SM FEW100 BKN250 M03/M07 A3008 RMK AC1CI5 SLP233

CYQF;2007-03-04 07:00;CYQF 040700Z 00000KT 15SM FEW090 OVC250 M02/M07 A3007 RMK AC2CI4 SLP230

CYQF;2007-03-04 08:00;CYQF 040800Z 00000KT 15SM FEW090 OVC250 M03/M06 A3006 RMK AC2CI3 SLP228

CYQF;2007-03-04 09:00;CYQF 040900Z 18004KT 15SM SCT100 OVC240 M04/M07 A3005 RMK AC3CI2 SLP216

CYQF;2007-03-04 10:00;CYQF 041000Z 19003KT 15SM BKN100 OVC240 M04/M07 A3004 RMK AC5CI2 SLP211

CYQF;2007-03-04 11:00;CYQF 041100Z 00000KT 15SM SCT100 BKN240 M05/M08 A3003 RMK AC3CI2 SLP208

CYQF;2007-03-04 12:00;CYQF 041200Z 00000KT 15SM FEW100 SCT240 M07/M09 A3001 RMK AC2CI1 SLP207

CYQF;2007-03-04 13:00;CYQF 041300Z 02009KT 15SM SCT120 BKN240 M05/M08 A3004 RMK AC3CI1 SLP214

CYQF;2007-03-04 14:00;CYQF 041400Z 36010KT 15SM FEW120 BKN240 M06/M08 A3005 RMK AC2CI2 SLP219

CYQF;2007-03-04 15:00;CYQF 041500Z 02010KT 15SM SCT100 BKN210 M08/M09 A3008 RMK AC2CI2 SLP235

CYQF;2007-03-04 16:00;CYQF 041600Z 05010KT 15SM FEW020 FEW100 BKN210 M08/M10 A3011 RMK SC1AC1CI2 SC/AC TR SC SLOWLY INVDG FM N SLP244

CYQF;2007-03-04 17:00;CYQF 041700Z 06010G15KT 15SM BKN210 M10/M12 A3015 RMK FG1CI2 FOG BNK N VSBY NW-E 5 SLP254

CYQF;2007-03-04 18:00;CYQF 041800Z 06010KT 15SM BKN210 M10/M12 A3016 RMK CI4 FG BANK 5NW-E SLP269

CYQF;2007-03-04 19:00;CYQF 041900Z 05005KT 15SM BKN210 M09/M12 A3016 RMK CI2 SLP271

CYQF;2007-03-04 20:00;CYQF 042000Z 06008KT 15SM OVC210 M09/M11 A3015 RMK CI2 SLP267

CYQF;2007-03-04 21:00;CYQF 042100Z 05010KT 15SM BKN210 M08/M11 A3013 RMK CI2 SLP260

CYQF;2007-03-04 22:00;CYQF 042200Z 07008KT 15SM BKN210 M07/M11 A3013 RMK CI2 SLP258

CYQF;2007-03-04 23:00;CYQF 042300Z 07007KT 15SM BKN210 M07/M11 A3012 RMK CI3 SLP256

CYQF;2007-03-05 00:00;CYQF 050000Z 15007KT 15SM FEW100 BKN210 M07/M11 A3011 RMK AC1CI2 SLP254

CYQF;2007-03-05 01:00;CYQF 050100Z 14010KT 15SM FEW100 BKN210 M10/M13 A3011 RMK AC1CI2 SLP253

CYQF;2007-03-05 02:00;CYQF 050200Z 10004KT 15SM FEW100 BKN250 M10/M13 A3010 RMK AC1CI2 SLP250

CYQF;2007-03-05 02:55;CYQF 050255Z 08007KT 15SM BKN010 OVC050 RMK SC6SC2

CYQF;2007-03-05 03:00;CYQF 050300Z 08005KT 15SM BKN010 OVC050 M11/M14 A3010 RMK SC6SC2 SLP256

CYQF;2007-03-05 04:00;CYQF 050400Z 09006KT 15SM OVC010 M11/M13 A3010 RMK SC8 SLP255

CYQF;2007-03-05 04:47;CYQF 050447Z 11003KT 12SM OVC007 RMK SF8 CIG RAG

CYQF;2007-03-05 05:00;CYQF 050500Z 13004KT 12SM OVC007 M11/M12 A3009 RMK SF8 CIG RAG SLP254

CYQF;2007-03-05 06:00;CYQF 050600Z 13005KT 10SM OVC006 M12/M13 A3010 RMK SF8 BR CIG RAG SLP260

CYQF;2007-03-05 06:23;CYQF 050623Z 14007KT 6SM -SN OVC003 RMK ST8

CYQF;2007-03-05 07:00;CYQF 050700Z 14008KT 6SM -SN OVC003 M12/M13 A3010 RMK ST8 SLP258

CYQF;2007-03-05 07:16;CYQF 050716Z CCA 15005KT 3/4SM -SN BR VV006 RMK FG8

CYQF;2007-03-05 07:17;CYQF 050717Z 15005KT 3/4SM BR VV006 RMK FG8

CYQF;2007-03-05 08:00;CYQF 050800Z 13006KT 3/4SM -SN BR VV006 M12/M13 A3009 RMK FG8 SLP256

CYQF;2007-03-05 08:16;CYQF 050816Z 14004KT 1/4SM -SN FZFG VV005 RMK FG8

CYQF;2007-03-05 08:45;CYQF 050845Z 14003KT 5/8SM -SN BR VV005 RMK FG8

CYQF;2007-03-05 09:00;CYQF 050900Z 14004KT 5/8SM -SN BR VV005 M11/M12 A3009 RMK FG8 SLP255

CYQF;2007-03-05 09:38;CYQF 050938Z 14004KT 1/4SM -SN FZFG VV004 RMK FG8

CYQF;2007-03-05 10:00;CYQF 051000Z 15005KT 1/4SM -SN FZFG VV004 M12/M13 A3009 RMK FG8 SLP253

CYQF;2007-03-05 10:40;CYQF 051040Z 13005KT 1/2SM -SN FZFG VV004 RMK FG8 VIS VRB 1/4-3/4

CYQF;2007-03-05 11:00;CYQF 051100Z 12005KT 1/2SM -SN FZFG VV005 M12/M13 A3008 RMK FG8 VIS VRB 1/4-3/4 SLP251

CYQF;2007-03-05 11:47;CYQF 051147Z 12003KT 1SM -SN BR VV009 RMK SN8

CYQF;2007-03-05 12:00;CYQF 051200Z 12005KT 1 1/2SM -SN BR VV010 M12/M13 A3008 RMK SN8 SLP249

CYQF;2007-03-05 12:25;CYQF 051225Z 14007KT 2SM -SN BR OVC008 RMK SN2ST6

CYQF;2007-03-05 12:46;CYQF 051246Z 14006KT 1 1/2SM -SN BR OVC008 RMK SN4ST4

CYQF;2007-03-05 13:00;CYQF 051300Z 14005KT 1 1/2SM -SN BR OVC008 M12/M13 A3007 RMK SN4ST4 SLP248

CYQF;2007-03-05 13:20;CYQF 051320Z 13006KT 2SM -SN BR OVC006 RMK SN5ST3 VIS VRB 11/2-21/2

CYQF;2007-03-05 14:00;CYQF 051400Z 15005KT 2SM -SN BR OVC004 M13/M14 A3006 RMK SN4ST4 SLP243

CYQF;2007-03-05 15:00;CYQF 051500Z 15006KT 2SM -SN BR OVC004 M13/M14 A3006 RMK SN2ST6 VIS VRB 11/2-21/2 SLP247

CYQF;2007-03-05 15:24;CYQF 051524Z 14006KT 10SM -SN FEW006 OVC030 RMK SF2SC6

CYQF;2007-03-05 16:00;CYQF 051600Z 14007KT 12SM -SN FEW007 OVC030 M12/M14 A3005 RMK SF2SC6 SLP245

CYQF;2007-03-05 17:00;CYQF 051700Z 14006KT 10SM OVC030 M12/M13 A3005 RMK SC8 SLP243

CYQF;2007-03-05 18:00;CYQF 051800Z 13005KT 10SM FEW007 OVC060 M11/M12 A3003 RMK ST0SC8 SLP236

CYQF;2007-03-05 19:00;CYQF 051900Z 14008KT 10SM OVC060 M10/M11 A3002 RMK SC8 SLP233

CYQF;2007-03-05 20:00;CYQF 052000Z 13006KT 10SM OVC060 M10/M11 A3000 RMK SC8 SLP228

CYQF;2007-03-05 21:00;CYQF 052100Z 12007KT 10SM OVC060 M09/M11 A2999 RMK SC8 SLP220

CYQF;2007-03-05 22:00;CYQF 052200Z 11005KT 10SM OVC070 M09/M11 A2999 RMK AC8 SLP219

CYQF;2007-03-05 23:00;CYQF 052300Z 06005KT 10SM OVC070 M08/M11 A2999 RMK AC8 SLP220

CYQF;2007-03-06 00:00;CYQF 060000Z 00000KT 10SM OVC070 M08/M10 A3000 RMK AC8 SLP222

CYQF;2007-03-06 01:00;CYQF 060100Z 00000KT 12SM SCT070 BKN250 M08/M11 A3002 RMK AC4CI2 SLP228

CYQF;2007-03-06 02:00;CYQF 060200Z 07002KT 12SM SCT070 BKN250 M09/M11 A3003 RMK AC3CI3 SLP232

CYQF;2007-03-06 03:00;CYQF 060300Z 06005KT 12SM FEW070 SCT250 M11/M13 A3004 RMK AC2CI1 SLP241

CYQF;2007-03-06 04:00;CYQF 060400Z 00000KT 15SM SKC M11/M14 A3004 RMK SLP240

CYQF;2007-03-06 05:00;CYQF 060500Z 00000KT 15SM FEW250 M12/M14 A3005 RMK CI0 SLP245

CYQF;2007-03-06 06:00;CYQF 060600Z 00000KT 15SM FEW250 M13/M15 A3006 RMK CI0 SLP250

CYQF;2007-03-06 07:00;CYQF 060700Z 00000KT 15SM SCT250 M13/M14 A3007 RMK CI0 SLP253

CYQF;2007-03-06 08:00;CYQF 060800Z 00000KT 15SM FEW250 M15/M17 A3007 RMK CI0 SLP253

CYQF;2007-03-06 09:00;CYQF 060900Z 00000KT 15SM SCT250 M15/M16 A3007 RMK CI1 SLP253

CYQF;2007-03-06 10:00;CYQF 061000Z 00000KT 10SM BKN250 M15/M16 A3008 RMK CI2 SLP255

CYQF;2007-03-06 11:00;CYQF 061100Z 00000KT 10SM SCT100 OVC250 M14/M15 A3009 RMK AC3CI2 SLP259

CYQF;2007-03-06 12:00;CYQF 061200Z 00000KT 12SM FEW100 OVC250 M13/M16 A3009 RMK AC1CI2 SLP256

CYQF;2007-03-06 13:00;CYQF 061300Z 00000KT 12SM BKN250 M14/M16 A3011 RMK CI0 SLP261

CYQF;2007-03-06 14:00;CYQF 061400Z 12002KT 8SM FEW100 BKN250 M12/M14 A3010 RMK AC1CI4 SLP259

CYQF;2007-03-06 15:00;CYQF 061500Z 14005KT 8SM SCT100 BKN200 M11/M13 A3010 RMK AC3CI2 SLP260

CYQF;2007-03-06 16:00;CYQF 061600Z 14008KT 12SM FEW070 BKN120 OVC200 M11/M14 A3010 RMK AC2AC5CI1 SLP259

CYQF;2007-03-06 17:00;CYQF 061700Z 13007KT 12SM BKN090 OVC250 M09/M13 A3008 RMK AC6CI2 SLP255

CYQF;2007-03-06 18:00;CYQF 061800Z 14004KT 12SM SCT090 BKN250 M06/M10 A3007 RMK AC3CI3 SLP248

CYQF;2007-03-06 19:00;CYQF 061900Z 18007KT 12SM SCT100 BKN250 M06/M10 A3006 RMK AC4CI2 SLP245

CYQF;2007-03-06 20:00;CYQF 062000Z 15004KT 12SM SCT100 BKN250 M04/M08 A3005 RMK AC3CI3 SLP241

CYQF;2007-03-06 21:00;CYQF 062100Z 15003KT 12SM SCT100 BKN250 M03/M07 A3004 RMK AC4CI2 SLP234

CYQF;2007-03-06 22:00;CYQF 062200Z 15004KT 12SM FEW040 BKN100 BKN250 M01/M06 A3002 RMK SC1AC4CI2 SLP228

CYQF;2007-03-06 23:00;CYQF 062300Z 15002KT 12SM SCT100 BKN250 M01/M06 A3001 RMK AC4CI2 SLP226

CYQF;2007-03-07 00:00;CYQF 070000Z 14005KT 12SM SCT100 BKN250 M01/M05 A3001 RMK AC3CI2 SLP219

CYQF;2007-03-07 01:00;CYQF 070100Z 14004KT 10SM SCT100 BKN250 M04/M06 A2999 RMK AC3CI2 SLP214

CYQF;2007-03-07 02:00;CYQF 070200Z 13004KT 10SM BKN100 OVC250 M04/M06 A2997 RMK AC5CI2 SLP208

CYQF;2007-03-07 03:00;CYQF 070300Z 15005KT 12SM OVC100 M04/M06 A2994 RMK AC8 SLP197

CYQF;2007-03-07 04:00;CYQF 070400Z 16004KT 15SM OVC120 M04/M06 A2993 RMK AC8 SLP192

CYQF;2007-03-07 05:00;CYQF 070500Z 15005KT 15SM OVC200 M04/M06 A2992 RMK CI6 SLP189

CYQF;2007-03-07 06:00;CYQF 070600Z 18003KT 15SM FEW120 BKN220 M04/M06 A2990 RMK AC2CI1 SLP177

CYQF;2007-03-07 07:00;CYQF 070700Z 00000KT 15SM BKN200 M05/M06 A2988 RMK CI2 SLP171

CYQF;2007-03-07 08:00;CYQF 070800Z 00000KT 15SM SCT200 M07/M08 A2987 RMK CI1 SLP167

CYQF;2007-03-07 09:00;CYQF 070900Z 00000KT 15SM BKN200 M08/M08 A2984 RMK CI2 SLP157

CYQF;2007-03-07 10:00;CYQF 071000Z 20008KT 15SM BKN200 M08/M09 A2980 RMK CI2 SLP144

CYQF;2007-03-07 11:00;CYQF 071100Z 20005KT 15SM BKN200 M08/M09 A2977 RMK CI2 SLP136

CYQF;2007-03-07 12:00;CYQF 071200Z 20005KT 15SM BKN200 M07/M09 A2976 RMK CI2 SLP128

CYQF;2007-03-07 13:00;CYQF 071300Z 21003KT 15SM BKN200 M09/M11 A2975 RMK CI2 SLP122

CYQF;2007-03-07 14:00;CYQF 071400Z 20004KT 15SM BKN200 M09/M11 A2973 RMK CI2 SLP116

CYQF;2007-03-07 15:00;CYQF 071500Z 19003KT 15SM FEW110 BKN220 M08/M10 A2970 RMK AC1CI2 SLP110

CYQF;2007-03-07 16:00;CYQF 071600Z 20003KT 15SM FEW110 BKN220 M05/M09 A2968 RMK AC1CI2 SLP103

CYQF;2007-03-07 17:00;CYQF 071700Z 00000KT 15SM FEW110 SCT220 M01/M06 A2966 RMK AC1CI1 SLP099

CYQF;2007-03-07 18:00;CYQF 071800Z 00000KT 15SM FEW220 04/M02 A2964 RMK CI0 SLP075

CYQF;2007-03-07 19:00;CYQF 071900Z 18002KT 15SM FEW090 FEW220 06/M02 A2962 RMK AC1CI0 SLP069

CYQF;2007-03-07 20:00;CYQF 072000Z 18003KT 15SM FEW090 FEW220 07/M02 A2959 RMK AC1CI0 ACC ASOCTD SLP061

CYQF;2007-03-07 21:00;CYQF 072100Z 16003KT 15SM FEW090 FEW220 09/M01 A2956 RMK AC1CI0 ACC ASOCTD SLP046

CYQF;2007-03-07 22:00;CYQF 072200Z 15003KT 15SM FEW090 FEW220 10/M02 A2954 RMK AC1CI0 ACC ASOCTD SLP038

CYQF;2007-03-07 23:00;CYQF 072300Z 16003KT 15SM FEW090 FEW220 07/M01 A2953 RMK AC1CI0 SLP036

CYQF;2007-03-08 00:00;CYQF 080000Z 16005KT 15SM FEW090 SCT220 05/M01 A2952 RMK AC2CI1 ACC ASOCTD SLP036

CYQF;2007-03-08 01:00;CYQF 080100Z 15003KT 15SM FEW050 SCT100 BKN220 05/M00 A2951 RMK SC2AC2CI2 SLP032

CYQF;2007-03-08 02:00;CYQF 080200Z 18005KT 15SM FEW050 BKN100 04/M00 A2949 RMK SC1AC6 SLP027

CYQF;2007-03-08 03:00;CYQF 080300Z 22006KT 15SM FEW050 BKN100 03/M00 A2947 RMK SC2AC6 SLP022

CYQF;2007-03-08 04:00;CYQF 080400Z 25010KT 15SM FEW050 OVC100 04/M01 A2948 RMK SC2AC6 SLP024

CYQF;2007-03-08 05:00;CYQF 080500Z 19006KT 15SM BKN100 BKN220 04/M01 A2948 RMK AC6CI1 SLP024

CYQF;2007-03-08 06:00;CYQF 080600Z 24010KT 15SM BKN100 OVC200 04/M02 A2946 RMK AC6CI2 SLP006

CYQF;2007-03-08 07:00;CYQF 080700Z 24005KT 15SM SCT100 OVC200 03/M03 A2946 RMK AC4CI2 SLP005

CYQF;2007-03-08 08:00;CYQF 080800Z 26007KT 15SM SCT100 OVC200 04/M02 A2946 RMK AC4CI4 SLP004

CYQF;2007-03-08 09:00;CYQF 080900Z 29013KT 15SM FEW100 BKN200 04/M02 A2946 RMK AC2CI3 SLP000

CYQF;2007-03-08 10:00;CYQF 081000Z 34003KT 15SM SCT100 BKN200 02/M03 A2949 RMK AC4CI2 SLP009

CYQF;2007-03-08 11:00;CYQF 081100Z 35006KT 15SM FEW100 03/M03 A2951 RMK AC2 SLP015

CYQF;2007-03-08 12:00;CYQF 081200Z 34006KT 15SM BKN100 02/M02 A2955 RMK AC6 SLP035

CYQF;2007-03-08 13:00;CYQF 081300Z 36006KT 15SM BKN100 02/M02 A2956 RMK AC6 SLP037

CYQF;2007-03-08 14:00;CYQF 081400Z 00000KT 15SM BKN100 01/M01 A2957 RMK AC7 SLP041

CYQF;2007-03-08 15:00;CYQF 081500Z 24003KT 15SM FEW040 BKN100 BKN220 00/M02 A2960 RMK SC1AC4CI1 TCU ASOCTD VIRGA SLP056

CYQF;2007-03-08 16:00;CYQF 081600Z 00000KT 15SM FEW040 BKN100 BKN220 00/M02 A2961 RMK SC1AC2CI1 TCU ASOCTD SLP061

CYQF;2007-03-08 17:00;CYQF 081700Z 00000KT 15SM FEW040 FEW100 SCT220 02/M01 A2964 RMK SC1AC1CI1 TCU ASOCTD SLP069

CYQF;2007-03-08 18:00;CYQF 081800Z 00000KT 15SM FEW040 FEW100 BKN220 04/M00 A2966 RMK SC1AC1CI2 TCU ASOCTD SLP075

CYQF;2007-03-08 19:00;CYQF 081900Z 00000KT 15SM FEW040 FEW100 SCT220 04/00 A2967 RMK SC1AC1CI1 SLP078

CYQF;2007-03-08 20:00;CYQF 082000Z 00000KT 15SM FEW040 FEW100 FEW220 04/00 A2968 RMK SC1AC1CI0 SLP080

CYQF;2007-03-08 21:00;CYQF 082100Z CCA 18003KT 15SM FEW040 FEW100 SCT220 05/01 A2969 RMK SC1AC1CI0 TCU ASOCTD SLP082

CYQF;2007-03-08 22:00;CYQF 082200Z 17002KT 15SM FEW030 FEW100 BKN220 05/M01 A2968 RMK SC1AC1CI1 SLP080

CYQF;2007-03-08 23:00;CYQF 082300Z 21004KT 15SM FEW030 FEW100 FEW220 05/M03 A2970 RMK SC1AC1CI0 SLP084

CYQF;2007-03-09 00:00;CYQF 090000Z 26005KT 15SM FEW030 FEW220 06/M06 A2971 RMK SC1CI0 SLP091

CYQF;2007-03-09 01:00;CYQF 090100Z 27008KT 15SM FEW030 FEW220 03/M07 A2973 RMK SC1CI1 SLP096

CYQF;2007-03-09 02:00;CYQF 090200Z 25007KT 15SM FEW030 FEW220 01/M08 A2973 RMK SC1CI1 SLP098

CYQF;2007-03-09 03:00;CYQF 090300Z 22006KT 15SM FEW220 M01/M08 A2974 RMK CI1 SLP111

CYQF;2007-03-09 04:00;CYQF 090400Z 23008KT 15SM FEW220 M01/M08 A2974 RMK CI1 SLP109

CYQF;2007-03-09 05:00;CYQF 090500Z 24008KT 15SM FEW220 M01/M09 A2974 RMK CI1 SLP110

CYQF;2007-03-09 06:00;CYQF 090600Z 21005KT 15SM SCT100 BKN250 M01/M09 A2973 RMK AC3CI1 SLP103

CYQF;2007-03-09 07:00;CYQF 090700Z 19007KT 15SM SCT100 OVC250 M01/M08 A2972 RMK AC4CI4 SLP099

CYQF;2007-03-09 08:00;CYQF 090800Z 21007KT 15SM SCT100 OVC250 M01/M07 A2971 RMK AC3CI5 SLP097

CYQF;2007-03-09 09:00;CYQF 090900Z 20008KT 15SM SCT100 OVC250 M00/M06 A2970 RMK AC3CI5 SLP091

CYQF;2007-03-09 10:00;CYQF 091000Z 22006KT 15SM SCT100 BKN250 M02/M06 A2970 RMK AC3CI4 SLP089

CYQF;2007-03-09 11:00;CYQF 091100Z 23006KT 15SM SCT100 BKN250 M01/M07 A2970 RMK AC3CI3 SLP089

CYQF;2007-03-09 12:00;CYQF 091200Z 22010KT 15SM FEW100 M03/M08 A2968 RMK AC2 SLP086

CYQF;2007-03-09 13:00;CYQF 091300Z 22012KT 15SM FEW100 M03/M09 A2967 RMK AC2 SLP084

CYQF;2007-03-09 14:00;CYQF 091400Z 20006KT 15SM FEW100 M04/M10 A2967 RMK AC2 OBS TAKEN +20 SLP082

CYQF;2007-03-09 15:00;CYQF 091500Z 23009KT 15SM BKN120 BKN250 M01/M09 A2968 RMK AC2CI0 SLP092

CYQF;2007-03-09 16:00;CYQF 091600Z 22008KT 15SM BKN120 BKN250 01/M07 A2969 RMK AC5CI1 SLP096

CYQF;2007-03-09 17:00;CYQF 091700Z 22010KT 15SM FEW030 BKN120 BKN250 02/M05 A2970 RMK SC1AC5CI1 SLP099

CYQF;2007-03-09 18:00;CYQF 091800Z 23010KT 15SM FEW030 BKN120 BKN250 04/M05 A2971 RMK SC1AC5CI1 SLP097

CYQF;2007-03-09 19:00;CYQF 091900Z 24008KT 15SM FEW030 BKN120 BKN250 06/M04 A2972 RMK SC1AC5CI0 SLP100

CYQF;2007-03-09 20:00;CYQF 092000Z 23010KT 15SM FEW030 BKN120 BKN250 06/M04 A2973 RMK SC1AC2CI1 SLP103

CYQF;2007-03-09 21:00;CYQF 092100Z 24008KT 15SM FEW030 SCT250 08/M04 A2973 RMK SC1CI2 SLP099

CYQF;2007-03-09 22:00;CYQF 092200Z 23010KT 15SM FEW030 FEW250 08/M04 A2974 RMK SC1CI1 SLP101

CYQF;2007-03-09 23:00;CYQF 092300Z 22010G15KT 15SM FEW040 07/M04 A2974 RMK CU1 SLP102

CYQF;2007-03-10 00:00;CYQF 100000Z 21010KT 15SM FEW040 07/M05 A2976 RMK CU1 SLP110

CYQF;2007-03-10 01:00;CYQF 100100Z 21008KT 15SM SKC 07/M05 A2976 RMK SLP113

CYQF;2007-03-10 02:00;CYQF 100200Z 18008KT 15SM SKC 03/M03 A2977 RMK SLP115

CYQF;2007-03-10 03:00;CYQF 100300Z 21010KT 15SM SKC 04/M04 A2979 RMK SLP123

CYQF;2007-03-10 04:00;CYQF 100400Z 23010KT 15SM SKC 03/M04 A2979 RMK SLP125

CYQF;2007-03-10 05:00;CYQF 100500Z 24010KT 15SM SKC 02/M05 A2979 RMK SLP125

CYQF;2007-03-10 06:00;CYQF 100600Z 24010KT 15SM SKC 01/M05 A2980 RMK SLP124

CYQF;2007-03-10 07:00;CYQF 100700Z 23007KT 15SM SKC M01/M06 A2980 RMK SLP124

CYQF;2007-03-10 08:00;CYQF 100800Z 21006KT 15SM SKC 01/M06 A2980 RMK SLP124

CYQF;2007-03-10 09:00;CYQF 100900Z 21005KT 15SM SKC M00/M06 A2980 RMK SLP123

CYQF;2007-03-10 10:00;CYQF 101000Z 23007KT 15SM SKC M02/M07 A2982 RMK SLP127

CYQF;2007-03-10 11:00;CYQF 101100Z 23007KT 15SM SKC M03/M07 A2982 RMK SLP128

CYQF;2007-03-10 12:00;CYQF 101200Z 20004KT 15SM SCT210 M04/M07 A2983 RMK CI2 SLP135

CYQF;2007-03-10 13:00;CYQF 101300Z 21007KT 15SM FEW100 SCT210 M06/M08 A2984 RMK AC1CI1 SLP140

CYQF;2007-03-10 14:00;CYQF 101400Z 20004KT 15SM FEW030 BKN100 BKN210 M05/M08 A2986 RMK SC1AC4CI0 SLP145

CYQF;2007-03-10 15:00;CYQF 101500Z 00000KT 15SM FEW030 SCT100 BKN210 M02/M05 A2987 RMK SC1AC3CI1 SLP152

CYQF;2007-03-10 16:00;CYQF 101600Z 00000KT 15SM FEW030 SCT100 SCT210 00/M05 A2988 RMK SC1AC2CI2 SLP155

CYQF;2007-03-10 17:00;CYQF 101700Z 05003KT 15SM FEW030 SCT210 02/M05 A2990 RMK SC1CI1 SLP162

CYQF;2007-03-10 18:00;CYQF 101800Z 09003KT 15SM FEW030 FEW210 03/M04 A2990 RMK SC1CI1 SLP160

CYQF;2007-03-10 19:00;CYQF 101900Z 10003KT 15SM FEW035 FEW210 05/M04 A2989 RMK SC1CI1 SLP158

CYQF;2007-03-10 20:00;CYQF 102000Z 15005KT 15SM FEW040 BKN210 08/M01 A2988 RMK SC1CI1 SLP154

CYQF;2007-03-10 21:00;CYQF 102100Z 14008KT 15SM FEW040 SCT140 BKN210 08/M01 A2985 RMK SC1AC2CI1 SLP137

CYQF;2007-03-10 22:00;CYQF 102200Z 15006KT 15SM FEW040 BKN120 OVC230 07/M01 A2982 RMK SC1AC5CI1 SLP128

CYQF;2007-03-10 23:00;CYQF 102300Z 16008KT 15SM FEW040 BKN120 OVC230 06/M01 A2980 RMK SC1AC5CI2 SLP122

CYQF;2007-03-11 00:00;CYQF 110000Z 17006KT 15SM FEW040 BKN100 OVC230 04/M01 A2978 RMK SC1AC6CI1 SLP123

CYQF;2007-03-11 01:00;CYQF 110100Z 17006KT 15SM FEW040 OVC090 04/M01 A2978 RMK SC1AC6 VIRGA SLP123

CYQF;2007-03-11 02:00;CYQF 110200Z 18007KT 15SM SCT090 OVC140 04/M01 A2976 RMK AC3AC4 SLP117

CYQF;2007-03-11 03:00;CYQF 110300Z 18004KT 15SM OVC140 04/M02 A2975 RMK AC8 SLP109

CYQF;2007-03-11 04:00;CYQF 110400Z 21005KT 15SM OVC140 04/M02 A2974 RMK AC8 SLP107

CYQF;2007-03-11 05:00;CYQF 110500Z 20007KT 15SM SCT140 03/M02 A2972 RMK AC2 SLP102

CYQF;2007-03-11 06:00;CYQF 110600Z 21007KT 15SM SCT140 02/M02 A2971 RMK AC2 SLP092

CYQF;2007-03-11 07:00;CYQF 110700Z 20005KT 15SM BKN120 BKN250 03/M02 A2969 RMK AC6CI1 SLP086

CYQF;2007-03-11 08:00;CYQF 110800Z 19003KT 15SM BKN120 OVC250 03/M02 A2969 RMK AC6CI1 SLP087

CYQF;2007-03-11 09:00;CYQF 110900Z 21005KT 15SM BKN120 OVC250 01/M02 A2972 RMK AC5CI2 SLP091

CYQF;2007-03-11 10:00;CYQF 111000Z 23011KT 15SM SCT120 BKN250 03/M02 A2971 RMK AC3CI2 SLP089

CYQF;2007-03-11 11:00;CYQF 111100Z 23008KT 15SM FEW120 SCT250 03/M03 A2974 RMK AC2CI1 SLP098

CYQF;2007-03-11 12:00;CYQF 111200Z 21002KT 15SM FEW120 SCT250 01/M03 A2975 RMK AC2CI1 SLP108

CYQF;2007-03-11 13:00;CYQF 111300Z 00000KT 15SM BKN120 BKN250 M01/M04 A2978 RMK AC5CI1 SLP117

CYQF;2007-03-11 14:00;CYQF 111400Z 20005KT 15SM SCT120 BKN250 M01/M04 A2980 RMK AC3CI1 SLP122

CYQF;2007-03-11 15:00;CYQF 111500Z 20005KT 15SM FEW030 BKN120 BKN250 M00/M03 A2982 RMK SC1AC6CI1 SLP132

CYQF;2007-03-11 16:00;CYQF 111600Z 20006KT 15SM FEW030 BKN120 BKN250 01/M02 A2982 RMK SC1AC5CI1 SLP134

CYQF;2007-03-11 17:00;CYQF 111700Z 20004KT 15SM FEW030 BKN120 BKN250 03/M01 A2982 RMK SC1AC5CI1 SLP132

CYQF;2007-03-11 18:00;CYQF 111800Z 19004KT 15SM FEW030 BKN120 05/M01 A2979 RMK SC1AC6 SLP120

CYQF;2007-03-11 19:00;CYQF 111900Z 00000KT 15SM FEW030 BKN120 07/M00 A2979 RMK SC1AC6 SLP119

CYQF;2007-03-11 20:00;CYQF 112000Z 00000KT 15SM BKN100 07/M00 A2977 RMK AC7 SLP113

CYQF;2007-03-11 21:00;CYQF 112100Z 15005KT 15SM BKN100 08/00 A2974 RMK AC7 SLP097

CYQF;2007-03-11 22:00;CYQF 112200Z 16006KT 15SM BKN100 BKN250 07/00 A2970 RMK AC6CI1 SLP087

CYQF;2007-03-11 23:00;CYQF 112300Z 15010KT 15SM FEW030 SCT100 BKN250 07/01 A2966 RMK SC2AC2CI2 SLP072

CYQF;2007-03-12 00:00;CYQF 120000Z 19003KT 15SM FEW030 SCT100 BKN250 07/02 A2962 RMK SC2AC2CI2 SLP060

CYQF;2007-03-12 01:00;CYQF 120100Z 17012KT 15SM FEW030 FEW100 BKN250 07/02 A2959 RMK SC1AC1CI2 SLP049

CYQF;2007-03-12 02:00;CYQF 120200Z 15010KT 15SM FEW030 FEW100 BKN250 06/02 A2956 RMK SC1AC1CI2 SLP040

CYQF;2007-03-12 03:00;CYQF 120300Z 18012KT 15SM FEW250 06/02 A2951 RMK CI1 SLP023

CYQF;2007-03-12 04:00;CYQF 120400Z 18008KT 15SM FEW250 04/01 A2951 RMK CI1 SLP022

CYQF;2007-03-12 05:00;CYQF 120500Z 17010KT 15SM SKC 05/01 A2949 RMK SLP018

CYQF;2007-03-12 06:00;CYQF 120600Z 16007KT 15SM SKC 04/01 A2947 RMK SLP006

CYQF;2007-03-12 07:00;CYQF 120700Z 17005KT 15SM SKC 04/01 A2946 RMK SLP002

CYQF;2007-03-12 08:00;CYQF 120800Z 26005KT 15SM FEW220 02/M00 A2945 RMK CI0 SLP998

CYQF;2007-03-12 09:00;CYQF 120900Z 23004KT 15SM SCT220 04/00 A2944 RMK CI1 SLP993

CYQF;2007-03-12 10:00;CYQF 121000Z 25007KT 15SM BKN120 BKN220 06/01 A2946 RMK AC5CI1 SLP997

CYQF;2007-03-12 11:00;CYQF 121100Z 23014KT 15SM BKN120 OVC220 05/01 A2943 RMK AC6CI1 SLP989

CYQF;2007-03-12 12:00;CYQF 121200Z 23011KT 15SM FEW090 05/02 A2941 RMK AC1 AURBO SLP982

CYQF;2007-03-12 13:00;CYQF 121300Z 23013KT 15SM FEW090 05/01 A2940 RMK AC2 SLP978

CYQF;2007-03-12 14:00;CYQF 121400Z 23012KT 15SM FEW100 FEW250 05/02 A2939 RMK AC1CI1 SLP975

CYQF;2007-03-12 15:00;CYQF 121500Z 23012G20KT 15SM FEW030 FEW100 SCT250 06/02 A2938 RMK SC1AC1CI1 SLP972

CYQF;2007-03-12 16:00;CYQF 121600Z 23012G20KT 15SM FEW030 FEW120 07/02 A2938 RMK SC1AC1 SLP972

CYQF;2007-03-12 17:00;CYQF 121700Z 23008KT 15SM FEW025 FEW230 08/02 A2941 RMK CF1CI1 SLP979

CYQF;2007-03-12 18:00;CYQF 121800Z 26005KT 15SM FEW025 BKN250 09/03 A2942 RMK CU2CI2 TCU NW SLP983

CYQF;2007-03-12 18:31;CYQF 121831Z 34015G25KT 15SM SCT025 BKN250 RMK SC3CI1 TCU ASOCTD WND SHFT 1831

CYQF;2007-03-12 19:00;CYQF 121900Z 34022G30KT 15SM FEW008 BKN030 05/00 A2951 RMK SF2SC5 PRESRR SLP011

CYQF;2007-03-12 19:48;CYQF 121948Z 34010G15KT 15SM BKN012 BKN030 RMK SF6SC2

CYQF;2007-03-12 20:00;CYQF 122000Z 35015G25KT 15SM BKN012 BKN030 02/M01 A2959 RMK SF6SC2 PRESRR SLP036

CYQF;2007-03-12 21:00;CYQF 122100Z 34015G25KT 15SM BKN013 BKN040 BKN120 03/M01 A2962 RMK SF5SC2AC1 SLP062

CYQF;2007-03-12 21:19;CYQF 122119Z 35018G25KT 15SM VCSH BKN017 BKN120 RMK SC5AC1 CU EMBDD

CYQF;2007-03-12 22:00;CYQF 122200Z 34015G23KT 15SM FEW015 BKN120 02/M03 A2967 RMK SF2AC2 SLP077

CYQF;2007-03-12 23:00;CYQF 122300Z 33012G20KT 15SM FEW015 BKN060 OVC120 01/M04 A2971 RMK SF2SC3AC2 SLP088

CYQF;2007-03-13 00:00;CYQF 130000Z CCA 36012G20KT 15SM FEW015 BKN060 OVC100 00/M05 A2974 RMK SF2SC3AC2 SH DIST SW+NE SLP102

CYQF;2007-03-13 00:27;CYQF 130027Z 36013G20KT 10SM -SHSN SCT015 OVC050 RMK SC3SC5 VIS NW 4

CYQF;2007-03-13 00:51;CYQF 130051Z 36012G18KT 2 1/2SM -SHSN BKN015 OVC050 RMK SC6SC2

CYQF;2007-03-13 01:00;CYQF 130100Z 01013KT 2 1/2SM -SHSN BKN015 OVC040 M02/M04 A2977 RMK SC5SC3 OBS TAKEN +12 SLP114

CYQF;2007-03-13 01:50;CYQF 130150Z 35010KT 1SM -SN BKN006 OVC015 RMK SF6SC2

CYQF;2007-03-13 02:00;CYQF 130200Z 33010KT 1SM -SN OVC006 M02/M03 A2980 RMK SN6SF2 SLP122

CYQF;2007-03-13 02:21;CYQF 130221Z 31011KT 2SM -SN BKN018 RMK SN4SC3

CYQF;2007-03-13 02:37;CYQF 130237Z 33012KT 6SM -SN SCT015 BKN030 RMK SC3SC4

CYQF;2007-03-13 03:00;CYQF 130300Z CCA 33015G26KT 12SM DRSN BKN025 OVC050 M00/M07 A2980 RMK SC5SC3 /S01/ SLP122

CYQF;2007-03-13 04:00;CYQF 130400Z 33010G17KT 15SM SCT025 OVC075 M00/M06 A2981 RMK SC4AC4 SH DIST S VIRGA N SLP126

CYQF;2007-03-13 05:00;CYQF 130500Z 36003KT 15SM SCT025 OVC080 M01/M06 A2984 RMK SC3AC5 SH DIST S SLP134

CYQF;2007-03-13 06:00;CYQF 130600Z 01004KT 15SM FEW030 OVC090 M02/M07 A2985 RMK SC2AC6 SLP139

CYQF;2007-03-13 07:00;CYQF 130700Z 05003KT 15SM FEW030 OVC090 M02/M08 A2985 RMK SC2AC6 SLP139

CYQF;2007-03-13 08:00;CYQF 130800Z 20002KT 15SM FEW030 OVC090 M03/M06 A2986 RMK SC2AC6 SLP142

CYQF;2007-03-13 09:00;CYQF 130900Z 20004KT 15SM OVC090 M03/M06 A2987 RMK AC8 SLP156

CYQF;2007-03-13 10:00;CYQF 131000Z 21005KT 15SM OVC090 M03/M07 A2986 RMK AC8 SLP154

CYQF;2007-03-13 11:00;CYQF 131100Z 26007KT 15SM OVC090 M03/M07 A2986 RMK AC8 SLP153

CYQF;2007-03-13 12:00;CYQF 131200Z 22013KT 15SM OVC065 M03/M06 A2986 RMK SC8 SLP156

CYQF;2007-03-13 13:00;CYQF 131300Z 24012KT 15SM OVC065 M03/M06 A2987 RMK SC8 SLP158

CYQF;2007-03-13 14:00;CYQF 131400Z 22010KT 15SM FEW030 BKN065 M04/M06 A2987 RMK SC2SC5 SLP158

CYQF;2007-03-13 15:00;CYQF 131500Z 21008KT 15SM FEW020 BKN055 BKN100 M04/M06 A2988 RMK SF2SC4AC1 SLP162

CYQF;2007-03-13 16:00;CYQF 131600Z 21012KT 15SM FEW020 BKN055 BKN100 M03/M06 A2988 RMK SF2SC5AC1 SLP162

CYQF;2007-03-13 16:25;CYQF 131625Z 22010KT 15SM FEW008 FEW020 BKN055 BKN100 RMK SF1SF2SC3AC2 LWR SF SE MVG N

CYQF;2007-03-13 17:00;CYQF 131700Z 20013KT 15SM FEW008 FEW020 BKN055 BKN100 M03/M06 A2988 RMK SF1SC2SC2AC1 SLP162

CYQF;2007-03-13 18:00;CYQF 131800Z 20011KT 15SM FEW008 FEW050 BKN100 M02/M06 A2988 RMK SF1SC2AC2 VIRGA SLP161

CYQF;2007-03-13 19:00;CYQF 131900Z 23006KT 15SM FEW030 FEW100 SCT200 00/M05 A2988 RMK CU1AC2CI0 SLP162

CYQF;2007-03-13 20:00;CYQF 132000Z 21009KT 15SM FEW030 FEW100 FEW200 01/M06 A2987 RMK CU1AC1CI1 SLP159

CYQF;2007-03-13 21:00;CYQF 132100Z 21005KT 15SM FEW035 01/M08 A2986 RMK CU2 SLP154

CYQF;2007-03-13 22:00;CYQF 132200Z 22005KT 15SM FEW035 SCT070 01/M07 A2985 RMK CU2AC2 SLP152

CYQF;2007-03-13 23:00;CYQF 132300Z 21005KT 15SM FEW035 FEW200 02/M09 A2985 RMK CU1CI1 SLP151

CYQF;2007-03-14 00:00;CYQF 140000Z 20007KT 15SM FEW035 SCT100 BKN200 00/M07 A2985 RMK CU1AC3CI0 VIRGA SW-N SLP153

CYQF;2007-03-14 01:00;CYQF 140100Z 18004KT 15SM FEW035 BKN080 BKN210 M01/M08 A2984 RMK SC1AC4CI1 SLP148

CYQF;2007-03-14 02:00;CYQF 140200Z 18006KT 15SM BKN080 M01/M06 A2983 RMK AC6 SLP144

CYQF;2007-03-14 03:00;CYQF 140300Z 17005KT 15SM SCT100 M02/M06 A2982 RMK AC3 SLP145

CYQF;2007-03-14 04:00;CYQF 140400Z 20005KT 15SM SCT100 M03/M08 A2982 RMK AC3 SLP144

CYQF;2007-03-14 05:00;CYQF 140500Z 21005KT 15SM SCT100 M04/M09 A2981 RMK AC2 SLP142

CYQF;2007-03-14 06:00;CYQF 140600Z 23008KT 15SM SCT100 BKN240 M03/M09 A2980 RMK AC3CI2 SLP137

CYQF;2007-03-14 07:00;CYQF 140700Z 25005KT 15SM BKN100 OVC240 M02/M09 A2981 RMK AC6CI2 SLP139

CYQF;2007-03-14 08:00;CYQF 140800Z 02003KT 15SM FEW100 SCT240 M02/M09 A2980 RMK AC2CI2 SLP136

CYQF;2007-03-14 09:00;CYQF 140900Z 31005KT 15SM SCT080 OVC240 M02/M10 A2981 RMK AC4CI3 SLP134

CYQF;2007-03-14 10:00;CYQF 141000Z 36005KT 15SM SKC M04/M10 A2980 RMK SLP131

CYQF;2007-03-14 11:00;CYQF 141100Z 00000KT 15SM FEW100 SCT240 M06/M11 A2980 RMK AC2CI1 SLP132

CYQF;2007-03-14 12:00;CYQF 141200Z 27005KT 15SM SCT120 BKN240 M06/M11 A2982 RMK AC3CI2 SLP143

CYQF;2007-03-14 13:00;CYQF 141300Z 34004KT 15SM BKN120 OVC240 M04/M11 A2985 RMK AC5CI2 SLP151

CYQF;2007-03-14 14:00;CYQF 141400Z 32006KT 15SM BKN100 BKN240 M05/M09 A2986 RMK AC6CI2 SLP156

CYQF;2007-03-14 15:00;CYQF 141500Z 35005KT 15SM BKN080 BKN240 M05/M09 A2988 RMK AC5CI1 VIRGA SLP165

CYQF;2007-03-14 16:00;CYQF 141600Z 36007KT 15SM BKN080 BKN240 M05/M10 A2990 RMK AC5CI1 VIRGA SLP171

CYQF;2007-03-14 17:00;CYQF 141700Z 36005KT 15SM FEW080 FEW240 M04/M10 A2991 RMK AC1CI1 SLP176

CYQF;2007-03-14 18:00;CYQF 141800Z 03006KT 15SM FEW240 M03/M09 A2993 RMK CI2 SLP181

CYQF;2007-03-14 19:00;CYQF 141900Z 33003KT 15SM BKN240 M04/M07 A2995 RMK CI5 SLP189

CYQF;2007-03-14 20:00;CYQF 142000Z 36006KT 15SM FEW005 BKN240 M03/M07 A2997 RMK SF1CI2 SLP195

CYQF;2007-03-14 21:00;CYQF 142100Z 04012KT 10SM FEW005 OVC240 M02/M05 A2998 RMK SF1CI2 SLP199

CYQF;2007-03-14 22:00;CYQF 142200Z 07010KT 10SM OVC200 M02/M05 A3000 RMK CI7 SLP205

CYQF;2007-03-14 23:00;CYQF 142300Z 07007KT 10SM OVC090 M03/M06 A3003 RMK AC7 VIRGA SLP214

CYQF;2007-03-15 00:00;CYQF 150000Z 06006KT 10SM OVC090 M04/M06 A3007 RMK AC8 SLP235

CYQF;2007-03-15 00:31;CYQF 150031Z 00000KT 5SM -SN SCT015 OVC070 RMK SC4AC4

CYQF;2007-03-15 00:43;CYQF 150043Z 00000KT 2SM -SN BKN015 OVC070 RMK SC6AC2

CYQF;2007-03-15 01:00;CYQF 150100Z 00000KT 2SM -SN BKN020 OVC070 M04/M06 A3011 RMK SC6AC2 SLP247

CYQF;2007-03-15 02:00;CYQF 150200Z 01004KT 1 1/2SM -SN BKN020 OVC070 M04/M05 A3015 RMK SC6AC2 SLP258

CYQF;2007-03-15 02:18;CYQF 150218Z 03004KT 3SM -SN BKN020 OVC070 RMK SC6AC2

CYQF;2007-03-15 03:00;CYQF 150300Z 15004KT 15SM SCT020 OVC070 M04/M06 A3015 RMK SC3AC5 SLP264

CYQF;2007-03-15 04:00;CYQF 150400Z 20006KT 15SM FEW070 BKN250 M05/M06 A3016 RMK AC2CI2 SLP266

CYQF;2007-03-15 05:00;CYQF 150500Z 22008KT 15SM FEW070 SCT250 M06/M07 A3017 RMK AC2CI2 SLP269

CYQF;2007-03-15 06:00;CYQF 150600Z 23007KT 15SM FEW070 M06/M07 A3019 RMK AC2 BR SLP275

CYQF;2007-03-15 07:00;CYQF 150700Z 24010KT 15SM SKC M07/M08 A3020 RMK SLP278

CYQF;2007-03-15 08:00;CYQF 150800Z 20005KT 15SM SKC M08/M09 A3021 RMK SLP281

CYQF;2007-03-15 09:00;CYQF 150900Z 20005KT 15SM SKC M10/M12 A3021 RMK SLP287

CYQF;2007-03-15 10:00;CYQF 151000Z 20003KT 15SM SKC M10/M12 A3022 RMK SLP289

CYQF;2007-03-15 11:00;CYQF 151100Z 20005KT 15SM SKC M11/M12 A3022 RMK SLP288

CYQF;2007-03-15 12:00;CYQF 151200Z 20003KT 15SM SKC M11/M13 A3022 RMK SLP294

CYQF;2007-03-15 13:00;CYQF 151300Z 21005KT 15SM SKC M11/M13 A3023 RMK SLP296

CYQF;2007-03-15 14:00;CYQF 151400Z 21008KT 15SM SKC M11/M12 A3022 RMK SLP293

CYQF;2007-03-15 15:00;CYQF 151500Z 20005KT 15SM FEW100 M11/M12 A3022 RMK AC1 SLP292

CYQF;2007-03-15 16:00;CYQF 151600Z 18003KT 15SM FEW100 M09/M11 A3023 RMK AC1 SLP295

CYQF;2007-03-15 17:00;CYQF 151700Z 22005KT 15SM FEW100 M07/M10 A3023 RMK AC1 SLP297

CYQF;2007-03-15 18:00;CYQF 151800Z 23006KT 15SM FEW100 M05/M10 A3024 RMK AC1 SLP294

CYQF;2007-03-15 19:00;CYQF 151900Z 21004KT 15SM FEW040 FEW220 M03/M08 A3022 RMK SC1CI1 SLP290

CYQF;2007-03-15 20:00;CYQF 152000Z 22005KT 15SM FEW030 SCT220 00/M07 A3021 RMK CU1CI1 SLP286

CYQF;2007-03-15 21:00;CYQF 152100Z 21004KT 15SM FEW030 FEW100 BKN220 02/M12 A3020 RMK CU1AC1CI2 SLP277

CYQF;2007-03-15 22:00;CYQF 152200Z 18005KT 15SM FEW030 FEW100 SCT220 02/M11 A3018 RMK CU1AC1CI1 SLP273

CYQF;2007-03-15 23:00;CYQF 152300Z 17008KT 15SM FEW030 BKN220 02/M11 A3017 RMK CU1CI3 SLP270

CYQF;2007-03-16 00:00;CYQF 160000Z 18006KT 15SM FEW030 BKN220 02/M13 A3017 RMK CU1CI3 SLP271

CYQF;2007-03-16 01:00;CYQF 160100Z 20006KT 15SM FEW030 BKN220 00/M10 A3017 RMK SC1CI2 SLP271

CYQF;2007-03-16 02:00;CYQF 160200Z 19003KT 15SM FEW040 BKN250 M03/M10 A3017 RMK SC2CI2 SLP269

CYQF;2007-03-16 03:00;CYQF 160300Z 19005KT 15SM SCT250 M06/M11 A3017 RMK CI3 OBS TAKEN +28 SLP278

CYQF;2007-03-16 04:00;CYQF 160400Z 19006KT 15SM FEW090 SCT250 M04/M10 A3017 RMK AC1CI2 SLP279

CYQF;2007-03-16 05:00;CYQF 160500Z 18005KT 15SM FEW090 SCT250 M04/M10 A3016 RMK AC2CI2 SLP276

CYQF;2007-03-16 06:00;CYQF 160600Z 17006KT 15SM BKN250 M04/M10 A3015 RMK CI6 SLP264

CYQF;2007-03-16 07:00;CYQF 160700Z 16007KT 15SM SCT210 M05/M10 A3014 RMK CI2 SLP260

CYQF;2007-03-16 08:00;CYQF 160800Z 18006KT 15SM OVC100 M05/M09 A3012 RMK AC8 SLP254

CYQF;2007-03-16 09:00;CYQF 160900Z 00000KT 15SM OVC100 M03/M09 A3012 RMK AC8 SLP241

CYQF;2007-03-16 10:00;CYQF 161000Z 17002KT 15SM OVC100 M03/M07 A3008 RMK AC8 SLP231

CYQF;2007-03-16 11:00;CYQF 161100Z 17010KT 15SM OVC100 M03/M07 A3006 RMK AC8 SLP224

CYQF;2007-03-16 12:00;CYQF 161200Z 18005KT 15SM OVC100 M02/M08 A3005 RMK AC8 SLP216

CYQF;2007-03-16 13:00;CYQF 161300Z 16005KT 15SM OVC100 M02/M08 A3002 RMK AC8 SLP208

CYQF;2007-03-16 14:00;CYQF 161400Z 16003KT 15SM OVC100 M02/M08 A3000 RMK AC8 VIRGA SLP202

CYQF;2007-03-16 15:00;CYQF 161500Z 17008KT 15SM OVC100 M02/M08 A2998 RMK AC8 VIRGA SLP201

CYQF;2007-03-16 16:00;CYQF 161600Z 15007KT 15SM OVC100 M01/M07 A2995 RMK AC8 SLP192

CYQF;2007-03-16 17:00;CYQF 161700Z 16008KT 15SM OVC100 M01/M06 A2993 RMK AC8 SLP186

CYQF;2007-03-16 18:00;CYQF 161800Z 15008KT 15SM OVC080 00/M04 A2990 RMK AS8 SLP171

CYQF;2007-03-16 19:00;CYQF 161900Z 13006KT 15SM OVC080 01/M04 A2988 RMK AS8 SLP164

CYQF;2007-03-16 19:52;CYQF 161952Z 12007KT 5SM -SHSN SCT040 OVC080 RMK SC3AC5 VIS S 3

CYQF;2007-03-16 20:00;CYQF 162000Z 12007KT 4SM -SHSN BKN035 OVC080 01/M03 A2987 RMK SC6AC2 SLP161

CYQF;2007-03-16 20:41;CYQF 162041Z 10008KT 10SM VCSH SCT035 OVC080 RMK SC3AC4

CYQF;2007-03-16 21:00;CYQF 162100Z 10006KT 10SM VCSH FEW035 OVC080 02/M03 A2987 RMK SC2AC3 SLP155

CYQF;2007-03-16 22:00;CYQF 162200Z 00000KT 15SM BKN080 BKN220 03/M03 A2987 RMK AC5CI0 SLP155

CYQF;2007-03-16 23:00;CYQF 162300Z 05005KT 15SM BKN080 OVC220 04/M02 A2988 RMK AC6CI1 SLP158

CYQF;2007-03-17 00:00;CYQF 170000Z 06003KT 15SM SCT080 OVC250 03/M02 A2989 RMK AC3CI3 SLP162

CYQF;2007-03-17 01:00;CYQF 170100Z 00000KT 15SM SCT080 OVC250 03/M03 A2990 RMK AC3CI4 SLP163

CYQF;2007-03-17 02:00;CYQF 170200Z 00000KT 15SM SCT090 OVC250 01/M03 A2991 RMK AC3CI3 SLP166

CYQF;2007-03-17 03:00;CYQF 170300Z 00000KT 15SM BKN100 BKN250 01/M03 A2991 RMK AC5CI2 SLP168

CYQF;2007-03-17 04:00;CYQF 170400Z 00000KT 15SM BKN100 BKN250 01/M02 A2990 RMK AC5CI2 SLP166

CYQF;2007-03-17 05:00;CYQF 170500Z 19003KT 15SM BKN100 BKN250 00/M02 A2990 RMK AC5CI1 SLP167

CYQF;2007-03-17 06:00;CYQF 170600Z 00000KT 15SM FEW100 SCT250 M01/M03 A2989 RMK AC2CI2 SLP162

CYQF;2007-03-17 07:00;CYQF 170700Z 17003KT 15SM FEW100 SCT200 M01/M03 A2987 RMK AC2CI1 SLP157

CYQF;2007-03-17 08:00;CYQF 170800Z 13003KT 15SM FEW100 OVC200 M01/M03 A2985 RMK AC2CI4 SLP148

CYQF;2007-03-17 09:00;CYQF 170900Z 14007KT 15SM FEW100 OVC200 M00/M02 A2982 RMK AC2CI4 PRESFR SLP133

CYQF;2007-03-17 10:00;CYQF 171000Z 15006KT 15SM BKN100 OVC200 00/M02 A2977 RMK AC6CI2 PRESFR SLP119

CYQF;2007-03-17 11:00;CYQF 171100Z 15006KT 15SM BKN100 OVC200 00/M01 A2974 RMK AC6CI2 SLP110

CYQF;2007-03-17 12:00;CYQF 171200Z 16007KT 15SM BKN100 OVC200 00/M02 A2972 RMK AC5CI2 SLP099

CYQF;2007-03-17 13:00;CYQF 171300Z 17011KT 15SM BKN100 OVC200 01/M01 A2970 RMK AC6CI2 SLP093

CYQF;2007-03-17 14:00;CYQF 171400Z 19005KT 10SM BKN100 OVC200 00/M02 A2970 RMK AC5CI2 SLP091

CYQF;2007-03-17 15:00;CYQF 171500Z 19003KT 10SM SCT120 BKN200 00/M02 A2970 RMK AC2CI2 SLP093

CYQF;2007-03-17 16:00;CYQF 171600Z 18003KT 15SM FEW040 SCT100 BKN250 01/M01 A2968 RMK SC2AC2CI1 SLP087

CYQF;2007-03-17 17:00;CYQF 171700Z 00000KT 15SM FEW040 FEW100 SCT250 04/M00 A2967 RMK SC1AC2CI1 SLP086

CYQF;2007-03-17 18:00;CYQF 171800Z 00000KT 15SM FEW100 SCT250 05/00 A2967 RMK AC2CI1 SLP080

CYQF;2007-03-17 19:00;CYQF 171900Z 00000KT 15SM FEW100 BKN250 07/01 A2966 RMK AC1CI2 SLP079

CYQF;2007-03-17 20:00;CYQF 172000Z 00000KT 15SM FEW100 BKN250 11/02 A2964 RMK AC2CI2 SLP072

CYQF;2007-03-17 21:00;CYQF 172100Z 00000KT 15SM FEW030 SCT100 BKN250 11/04 A2962 RMK CU1AC2CI2 SLP056

CYQF;2007-03-17 22:00;CYQF 172200Z 00000KT 15SM FEW030 SCT100 BKN250 12/05 A2960 RMK CU1AC2CI2 SLP051

CYQF;2007-03-17 23:00;CYQF 172300Z 11006KT 15SM FEW030 SCT100 BKN250 13/05 A2960 RMK CU1AC2CI2 SLP050

CYQF;2007-03-18 00:00;CYQF 180000Z 00000KT 15SM FEW030 SCT100 BKN250 13/04 A2959 RMK SC1AC2CI2 SLP041

CYQF;2007-03-18 01:00;CYQF 180100Z 19003KT 15SM FEW030 FEW100 BKN250 07/03 A2957 RMK SC1AC2CI1 SLP037

CYQF;2007-03-18 02:00;CYQF 180200Z 21005KT 15SM FEW030 BKN100 BKN250 05/01 A2958 RMK SC1AC4CI1 SLP038

CYQF;2007-03-18 03:00;CYQF 180300Z 26005KT 15SM FEW030 BKN100 05/00 A2957 RMK SC1AC6 SLP046

CYQF;2007-03-18 04:00;CYQF 180400Z 25005KT 15SM FEW050 OVC100 04/M00 A2959 RMK SC1AC7 SLP050

CYQF;2007-03-18 05:00;CYQF 180500Z 30008KT 15SM FEW050 BKN100 OVC250 07/M01 A2959 RMK SC1AC5CI1 SLP052

CYQF;2007-03-18 06:00;CYQF 180600Z 36010KT 15SM SCT250 02/M00 A2965 RMK CI1 SLP070

CYQF;2007-03-18 07:00;CYQF 180700Z 01015KT 15SM SCT100 BKN200 02/M01 A2971 RMK AC4CI1 SLP088

CYQF;2007-03-18 08:00;CYQF 180800Z 02015KT 15SM BKN008 OVC100 02/M00 A2973 RMK ST6AC2 SLP094

CYQF;2007-03-18 09:00;CYQF 180900Z 02017G23KT 15SM OVC007 01/M01 A2979 RMK ST8 SLP112

CYQF;2007-03-18 09:35;CYQF 180935Z 01012G17KT 3SM -SN BR BKN008 OVC014 RMK ST5SC3

CYQF;2007-03-18 09:47;CYQF 180947Z 35010G15KT 1 1/2SM -SN BR OVC016 RMK SN7SC1

CYQF;2007-03-18 10:00;CYQF 181000Z 36014KT 2SM -SN BR BKN010 OVC025 00/M01 A2983 RMK SN6SF1SC2 SLP124

CYQF;2007-03-18 11:00;CYQF 181100Z CCA 36012KT 8SM -SN FEW006 SCT010 OVC025 M00/M02 A2985 RMK SF2SC2SC4 SLP131

CYQF;2007-03-18 12:00;CYQF 181200Z 36012KT 8SM -SN BKN012 OVC025 M00/M02 A2987 RMK SC6SC2 SLP141

CYQF;2007-03-18 13:00;CYQF 181300Z 34013KT 15SM -SN BKN008 OVC012 M01/M03 A2990 RMK ST6SC2 SLP151

CYQF;2007-03-18 14:00;CYQF 181400Z 36010KT 10SM BKN008 OVC012 M02/M04 A2994 RMK ST6SC2 SLP162

CYQF;2007-03-18 15:00;CYQF 181500Z 35010KT 10SM OVC007 M04/M06 A2997 RMK ST8 SLP188

CYQF;2007-03-18 16:00;CYQF 181600Z 36012KT 12SM BKN009 OVC012 M05/M07 A3000 RMK SF6SC2 CIG RAG SLP197

CYQF;2007-03-18 17:00;CYQF 181700Z 01011KT 10SM BKN009 OVC012 M05/M08 A3003 RMK SF7SC1 CIG RAG SLP205

CYQF;2007-03-18 18:00;CYQF 181800Z 02011KT 15SM SCT009 BKN017 OVC030 M05/M10 A3006 RMK SF3SC3SC2 SLP223

CYQF;2007-03-18 19:00;CYQF 181900Z 04010KT 15SM FEW012 OVC030 M06/M11 A3007 RMK SC2SC6 SLP227

CYQF;2007-03-18 20:00;CYQF 182000Z 03007KT 15SM SCT012 OVC030 M06/M11 A3008 RMK SC3SC5 SLP230

CYQF;2007-03-18 21:00;CYQF 182100Z 01007KT 15SM FEW010 OVC030 M06/M11 A3008 RMK SC1SC7 SLP234

CYQF;2007-03-18 22:00;CYQF 182200Z 02007KT 15SM FEW010 OVC030 M05/M11 A3009 RMK SC1SC7 SLP235

CYQF;2007-03-18 23:00;CYQF 182300Z 36008KT 15SM FEW010 OVC030 M05/M11 A3010 RMK SC1SC7 SLP239

CYQF;2007-03-19 00:00;CYQF 190000Z 02008KT 15SM FEW010 OVC027 M05/M11 A3012 RMK SC1SC7 SLP248

CYQF;2007-03-19 01:00;CYQF 190100Z 04004KT 15SM FEW010 OVC025 M05/M11 A3012 RMK SC1SC7 SLP248

CYQF;2007-03-19 02:00;CYQF 190200Z 02003KT 15SM OVC020 M05/M12 A3014 RMK SC8 SLP252

CYQF;2007-03-19 03:00;CYQF 190300Z 00000KT 15SM OVC030 M05/M11 A3015 RMK SC8 SLP262

CYQF;2007-03-19 04:00;CYQF 190400Z 09002KT 15SM OVC040 M05/M11 A3015 RMK SC8 SLP263

CYQF;2007-03-19 05:00;CYQF 190500Z 12003KT 15SM OVC030 M05/M10 A3015 RMK SC8 SLP263

CYQF;2007-03-19 06:00;CYQF 190600Z 15008KT 10SM OVC030 M05/M11 A3014 RMK SC8 SLP261

CYQF;2007-03-19 06:20;CYQF 190620Z 14006KT 10SM -SN OVC030 RMK SC8

CYQF;2007-03-19 07:00;CYQF 190700Z 14008KT 10SM -SN OVC030 M05/M11 A3012 RMK SC8 SLP254

CYQF;2007-03-19 08:00;CYQF 190800Z 13010KT 15SM -SN OVC030 M06/M10 A3010 RMK SC8 SLP247

CYQF;2007-03-19 09:00;CYQF 190900Z 14010KT 15SM FEW015 OVC030 M06/M10 A3007 RMK SC1SC7 SLP237

CYQF;2007-03-19 10:00;CYQF 191000Z 14012KT 15SM OVC025 M06/M11 A3005 RMK SC8 SLP229

CYQF;2007-03-19 11:00;CYQF 191100Z 13015KT 15SM OVC020 M06/M10 A3001 RMK SC8 SLP218

CYQF;2007-03-19 12:00;CYQF 191200Z 14018KT 15SM OVC020 M07/M12 A2998 RMK SC8 SLP207

CYQF;2007-03-19 13:00;CYQF 191300Z 13015KT 15SM OVC020 M07/M13 A2996 RMK SC8 SLP200

CYQF;2007-03-19 14:00;CYQF 191400Z 13014G20KT 15SM OVC020 M07/M12 A2993 RMK SC8 SLP190

CYQF;2007-03-19 15:00;CYQF 191500Z 14016G23KT 15SM OVC020 M07/M11 A2990 RMK SC8 SLP178

CYQF;2007-03-19 16:00;CYQF 191600Z 13017G23KT 15SM OVC020 M07/M10 A2988 RMK SC8 SLP172

CYQF;2007-03-19 17:00;CYQF 191700Z 14015G25KT 10SM OVC020 M07/M09 A2984 RMK SC8 SLP160

CYQF;2007-03-19 18:00;CYQF 191800Z 13017G25KT 10SM OVC020 M06/M08 A2980 RMK SC8 SLP145

CYQF;2007-03-19 19:00;CYQF 191900Z 14016G24KT 10SM OVC020 M06/M08 A2977 RMK SC8 SLP134

CYQF;2007-03-19 20:00;CYQF 192000Z 14017G27KT 8SM OVC020 M06/M08 A2973 RMK SC8 SLP121

CYQF;2007-03-19 21:00;CYQF 192100Z 14015G24KT 10SM OVC020 M05/M07 A2969 RMK SC8 SLP103

CYQF;2007-03-19 21:20;CYQF 192120Z 14013G20KT 10SM BKN007 OVC020 RMK ST6SC2

CYQF;2007-03-19 22:00;CYQF 192200Z 14012G19KT 10SM BKN008 OVC020 M04/M06 A2966 RMK ST6SC2 SLP093

CYQF;2007-03-19 22:54;CYQF 192254Z 13013G18KT 10SM BKN010 OVC020 RMK ST6SC2

CYQF;2007-03-19 23:00;CYQF 192300Z 13012G17KT 10SM BKN010 OVC020 M03/M06 A2962 RMK ST6SC2 SLP082

CYQF;2007-03-20 00:00;CYQF 200000Z 13010G15KT 10SM BKN011 OVC020 M02/M06 A2959 RMK SC6SC2 SLP068

CYQF;2007-03-20 00:26;CYQF 200026Z 13012KT 15SM SCT015 BKN250 RMK SC3CI2

CYQF;2007-03-20 01:00;CYQF 200100Z 11008KT 15SM FEW020 BKN250 M01/M05 A2956 RMK SC2CI2 SLP059

CYQF;2007-03-20 02:00;CYQF 200200Z 13008KT 15SM FEW120 BKN250 M02/M05 A2954 RMK AC2CI2 SLP052

CYQF;2007-03-20 03:00;CYQF 200300Z 12004KT 15SM FEW120 BKN250 M02/M05 A2951 RMK AC2CI1 SLP041

CYQF;2007-03-20 04:00;CYQF 200400Z 15010KT 15SM FEW120 SCT250 M02/M05 A2948 RMK AC1CI1 SLP031

CYQF;2007-03-20 05:00;CYQF 200500Z 15008KT 15SM SCT250 M02/M05 A2946 RMK CI1 SLP023

CYQF;2007-03-20 06:00;CYQF 200600Z 18005KT 15SM SCT250 M04/M06 A2945 RMK CI2 SLP018

CYQF;2007-03-20 07:00;CYQF 200700Z 20003KT 15SM FEW250 M05/M06 A2942 RMK CI2 SLP011

CYQF;2007-03-20 08:00;CYQF 200800Z 36011KT 15SM FEW100 BKN250 M06/M08 A2945 RMK AC2CI3 SLP019

CYQF;2007-03-20 09:00;CYQF 200900Z 02010KT 15SM SCT006 BKN030 M07/M09 A2945 RMK SF4SC3 SLP021

CYQF;2007-03-20 09:23;CYQF 200923Z 03007KT 12SM BKN005 OVC012 RMK SF6SC2

CYQF;2007-03-20 10:00;CYQF 201000Z 36005KT 4SM BR OVC005 M08/M09 A2944 RMK SF8 SLP019

CYQF;2007-03-20 11:00;CYQF 201100Z 01003KT 3SM BR OVC004 M08/M09 A2942 RMK SF8 CIG RAG SLP014

CYQF;2007-03-20 11:25;CYQF 201125Z 00000KT 3SM BR OVC003 RMK SF8 CIG RAG

CYQF;2007-03-20 12:00;CYQF 201200Z 00000KT 2 1/2SM BR OVC004 M08/M09 A2942 RMK SF8 CIG RAG SLP010

CYQF;2007-03-20 12:36;CYQF 201236Z 00000KT 1SM BR VV002 RMK FG8

CYQF;2007-03-20 12:52;CYQF 201252Z 03002KT 3/4SM BR VV001 RMK FG8

CYQF;2007-03-20 13:00;CYQF 201300Z 01004KT 3/4SM BR VV001 M07/M08 A2940 RMK FG8 SLP004

CYQF;2007-03-20 14:00;CYQF 201400Z 00000KT 1SM BR VV003 M07/M08 A2939 RMK FG8 SLP000

CYQF;2007-03-20 15:00;CYQF 201500Z 32006KT 1SM BR OVC005 M06/M07 A2941 RMK FG5ST3 SLP005

CYQF;2007-03-20 15:14;CYQF 201514Z 33005KT 1SM -SN BR OVC005 RMK FG5ST3

CYQF;2007-03-20 16:00;CYQF 201600Z 00000KT 3/4SM -SN BR VV005 M05/M06 A2941 RMK SN8 SLP004

CYQF;2007-03-20 16:37;CYQF 201637Z 14005KT 4SM -SN BR SCT005 OVC017 RMK ST3SC5

CYQF;2007-03-20 17:00;CYQF 201700Z 16008KT 6SM -SN BR SCT005 BKN020 M04/M06 A2937 RMK ST3SC4 SLP993

CYQF;2007-03-20 17:20;CYQF 201720Z 15006KT 8SM FEW005 BKN020 BKN080 RMK ST2SC2AC2

CYQF;2007-03-20 18:00;CYQF 201800Z 20005KT 10SM SCT020 BKN080 M03/M04 A2936 RMK SC3AC4 /S01/ SLP985

CYQF;2007-03-20 19:00;CYQF 201900Z 24002KT 10SM FEW020 SCT110 BKN250 M00/M02 A2936 RMK SC2AC1CI0 CU ASOCTD SLP985

CYQF;2007-03-20 20:00;CYQF 202000Z 19004KT 10SM FEW020 FEW110 FEW250 02/M00 A2937 RMK SC1AC1CI0 CU ASOCTD SLP987

CYQF;2007-03-20 21:00;CYQF 202100Z 19010KT 15SM FEW020 FEW110 FEW250 06/02 A2936 RMK CU1AC1CI0 SLP979

CYQF;2007-03-20 22:00;CYQF 202200Z 19003KT 15SM FEW025 SCT120 BKN250 06/02 A2936 RMK CU1AC2CI2 SLP978

CYQF;2007-03-20 23:00;CYQF 202300Z 17003KT 15SM FEW010 SCT040 BKN100 BKN250 06/02 A2936 RMK CU1SC2AC2CI1 VIRGA SLP978

CYQF;2007-03-20 23:34;CYQF 202334Z 36024G33KT 15SM FEW010 SCT040 BKN100 OVC250 RMK CU2SC2AC2CI1 VIRGA WIND SHFT

CYQF;2007-03-21 01:00;CYQF 210100Z 34020KT 15SM FEW010 BKN090 OVC250 M01/M04 A2954 RMK SC2AC5CI2 SLP046

CYQF;2007-03-21 01:38;CYQF 210138Z 36012G20KT 3/4SM -SN SCT010 VV020 RMK SF4SN4

CYQF;2007-03-21 02:47;CYQF 210247Z 33010G15KT 15SM BKN015 OVC090 RMK SF5AC3

CYQF;2007-03-21 03:00;CYQF 210300Z 33008KT 15SM SCT015 OVC090 M02/M04 A2963 RMK SF3AC5 /S01/ SLP081

CYQF;2007-03-21 05:00;CYQF 210500Z 28004KT 15SM FEW090 SCT240 M05/M06 A2970 RMK AC2CI2 SLP103

CYQF;2007-03-21 06:00;CYQF 210600Z 28006KT 15SM FEW090 SCT240 M04/M06 A2973 RMK AC1CI1 SLP112

CYQF;2007-03-21 07:00;CYQF 210700Z 28007KT 15SM FEW090 SCT240 M04/M06 A2976 RMK AC2CI0 SLP121

CYQF;2007-03-21 07:51;CYQF 210751Z 32011KT 15SM -SN BKN040 BKN090 RMK SC5AC2

CYQF;2007-03-21 08:00;CYQF 210800Z 31008KT 10SM -SN OVC040 M02/M06 A2977 RMK SC8 SLP126

CYQF;2007-03-21 09:00;CYQF 210900Z 32012G18KT 15SM -SN OVC050 M02/M09 A2983 RMK SC8 SLP135

CYQF;2007-03-21 09:10;CYQF 210910Z 32010G15KT 15SM OVC050 RMK SC8

CYQF;2007-03-21 10:00;CYQF 211000Z 29008KT 15SM OVC050 M03/M08 A2984 RMK SC8 SLP139

CYQF;2007-03-21 11:00;CYQF 211100Z 30004KT 15SM OVC050 M03/M08 A2985 RMK SC8 SLP143

CYQF;2007-03-21 12:00;CYQF 211200Z 25003KT 15SM OVC050 M03/M07 A2987 RMK SC8 SLP158

CYQF;2007-03-21 13:00;CYQF 211300Z 25004KT 15SM OVC050 M04/M06 A2988 RMK SC8 SLP163

CYQF;2007-03-21 14:00;CYQF 211400Z 23004KT 15SM BKN050 BKN250 M04/M07 A2989 RMK SC5CI0 SLP166

CYQF;2007-03-21 15:00;CYQF 211500Z 22007KT 15SM FEW050 FEW250 M05/M08 A2990 RMK SC2CI0 SLP172

CYQF;2007-03-21 16:00;CYQF 211600Z 21010KT 15SM FEW050 FEW250 M03/M07 A2989 RMK SC1CI1 SLP169

CYQF;2007-03-21 17:00;CYQF 211700Z 21012KT 15SM FEW050 FEW250 M02/M08 A2987 RMK SC1CI1 SLP164

CYQF;2007-03-21 18:00;CYQF 211800Z 19013KT 15SM BKN250 M01/M07 A2986 RMK CI1 SLP156

CYQF;2007-03-21 19:00;CYQF 211900Z 19014KT 15SM BKN250 M01/M07 A2984 RMK CI3 SLP149

CYQF;2007-03-21 20:00;CYQF 212000Z 18014G21KT 15SM BKN250 M00/M07 A2982 RMK CI2 SLP144

CYQF;2007-03-21 21:00;CYQF 212100Z 19015G22KT 15SM FEW150 BKN250 M00/M06 A2977 RMK AC1CI3 SLP122

CYQF;2007-03-21 22:00;CYQF 212200Z 19010G15KT 15SM BKN120 OVC250 00/M05 A2975 RMK AC5CI2 SLP115

CYQF;2007-03-21 23:00;CYQF 212300Z 18010G15KT 15SM BKN120 OVC250 01/M03 A2972 RMK AC5CI2 SLP108

CYQF;2007-03-22 02:00;CYQF 220200Z 19004KT 15SM BKN050 BKN100 OVC240 00/M02 A2969 RMK SC5AC2CI1 SLP095

CYQF;2007-03-22 03:00;CYQF 220300Z 18003KT 15SM SCT050 OVC100 00/M03 A2968 RMK SC3AC5 BARO READ H+27 SLP093

CYQF;2007-03-22 04:00;CYQF 220400Z 18003KT 15SM SCT050 OVC100 M00/M03 A2966 RMK SC3AC5 SLP088

CYQF;2007-03-22 05:00;CYQF 220500Z 20004KT 15SM OVC100 M00/M03 A2961 RMK AC8 SLP072

CYQF;2007-03-22 06:00;CYQF 220600Z 26003KT 15SM BKN100 BKN250 M01/M04 A2964 RMK AC5CI1 SLP077

CYQF;2007-03-22 07:00;CYQF 220700Z 19004KT 15SM BKN100 BKN250 M01/M04 A2964 RMK AC5CI1 SLP077

CYQF;2007-03-22 08:00;CYQF 220800Z 00000KT 15SM BKN050 OVC100 M00/M03 A2968 RMK SC5AC3 SLP091

CYQF;2007-03-22 09:00;CYQF 220900Z 20006KT 15SM FEW050 BKN100 M01/M04 A2967 RMK SC2AC1 SLP088

CYQF;2007-03-22 10:00;CYQF 221000Z 23009KT 15SM SKC M01/M06 A2965 RMK SLP079

CYQF;2007-03-22 11:00;CYQF 221100Z 23007KT 15SM SKC M01/M07 A2964 RMK SLP076

CYQF;2007-03-22 12:00;CYQF 221200Z 24007KT 15SM SKC M00/M07 A2965 RMK SLP074

CYQF;2007-03-22 13:00;CYQF 221300Z 23008KT 15SM SKC M01/M08 A2966 RMK SLP078

CYQF;2007-03-22 14:00;CYQF 221400Z 23010KT 15SM FEW240 M00/M07 A2966 RMK CI1 SLP080

CYQF;2007-03-22 15:00;CYQF 221500Z 23008KT 15SM FEW240 01/M06 A2967 RMK CI1 SLP083

CYQF;2007-03-22 16:00;CYQF 221600Z 22006KT 15SM FEW240 04/M06 A2967 RMK CI1 SLP085

CYQF;2007-03-22 17:00;CYQF 221700Z 19004KT 15SM FEW250 07/M05 A2968 RMK CI1 SLP086

CYQF;2007-03-22 18:00;CYQF 221800Z 18005KT 15SM BKN250 09/M05 A2967 RMK CI3 SLP077

CYQF;2007-03-22 19:00;CYQF 221900Z 19003KT 15SM BKN250 10/M04 A2968 RMK CI2 SLP079

CYQF;2007-03-22 20:00;CYQF 222000Z 14006KT 15SM FEW090 SCT250 11/M08 A2966 RMK AC2CI1 SLP074

CYQF;2007-03-22 21:00;CYQF 222100Z 19007KT 15SM SCT090 BKN250 11/M06 A2964 RMK AC3CI1 SLP064

CYQF;2007-03-22 22:00;CYQF 222200Z 23006KT 15SM SCT090 BKN250 12/M06 A2963 RMK AC4CI1 SLP059

CYQF;2007-03-22 23:00;CYQF 222300Z 27006KT 15SM FEW050 SCT090 BKN250 09/M03 A2963 RMK SC1AC3CI1 SLP059

CYQF;2007-03-23 00:00;CYQF 230000Z 29004KT 15SM FEW050 SCT090 BKN250 11/M05 A2962 RMK SC1AC3CI1 SLP056

CYQF;2007-03-23 02:00;CYQF 230200Z 00000KT 15SM FEW050 BKN100 BKN250 05/M03 A2963 RMK SC1AC4CI2 SLP058

CYQF;2007-03-23 03:00;CYQF 230300Z 00000KT 15SM FEW050 SCT100 BKN250 04/M04 A2964 RMK SC1AC2CI0 SLP068

CYQF;2007-03-23 04:00;CYQF 230400Z 28005KT 15SM BKN250 01/M05 A2966 RMK CI2 BARO READ H+22 SLP076

CYQF;2007-03-23 05:00;CYQF 230500Z 21003KT 15SM BKN250 01/M04 A2967 RMK CI1 SLP080

CYQF;2007-03-23 06:00;CYQF 230600Z 26004KT 15SM BKN250 M00/M05 A2970 RMK CI2 SLP085

CYQF;2007-03-23 07:00;CYQF 230700Z 28003KT 15SM SKC 01/M05 A2970 RMK SLP087

CYQF;2007-03-23 08:00;CYQF 230800Z 00000KT 15SM FEW220 M01/M05 A2973 RMK CI1 SLP094

CYQF;2007-03-23 09:00;CYQF 230900Z 00000KT 15SM FEW220 M01/M05 A2974 RMK CI1 SLP099

CYQF;2007-03-23 10:00;CYQF 231000Z 17004KT 15SM SKC M02/M05 A2976 RMK SLP105

CYQF;2007-03-23 11:00;CYQF 231100Z 26004KT 15SM SKC M03/M06 A2979 RMK SLP113

CYQF;2007-03-23 12:00;CYQF 231200Z 26006KT 15SM SKC M03/M06 A2982 RMK SLP128

CYQF;2007-03-23 13:00;CYQF 231300Z 22004KT 15SM SKC M04/M07 A2983 RMK SLP130

CYQF;2007-03-23 14:00;CYQF 231400Z 21004KT 15SM SKC M04/M06 A2985 RMK SLP136

CYQF;2007-03-23 15:00;CYQF 231500Z 20003KT 15SM FEW100 M02/M05 A2985 RMK AC1 SLP144

CYQF;2007-03-23 16:00;CYQF 231600Z 16003KT 15SM FEW100 SCT250 02/M03 A2983 RMK AC1CI1 SLP138

CYQF;2007-03-23 17:00;CYQF 231700Z 16010KT 15SM FEW090 BKN230 07/M03 A2980 RMK AC1CI2 SLP129

CYQF;2007-03-23 18:00;CYQF 231800Z 17010G15KT 15SM SCT100 BKN230 07/M01 A2976 RMK AC3CI2 SLP107

CYQF;2007-03-23 19:00;CYQF 231900Z 17010G15KT 15SM FEW100 BKN230 10/M01 A2973 RMK AC2CI2 SLP098

CYQF;2007-03-23 20:00;CYQF 232000Z 18012G20KT 15SM FEW100 BKN230 11/00 A2969 RMK AC2CI2 SLP086

CYQF;2007-03-23 21:00;CYQF 232100Z 18012G20KT 15SM FEW050 BKN100 BKN250 10/M01 A2967 RMK CU1AC5CI1 SLP075

CYQF;2007-03-23 22:00;CYQF 232200Z 18010G15KT 15SM FEW040 BKN080 BKN250 11/M01 A2963 RMK SC1AC6CI1 SLP062

CYQF;2007-03-23 23:00;CYQF 232300Z 18008KT 15SM FEW040 BKN090 BKN250 09/M01 A2959 RMK SC2AC5CI1 SLP049

CYQF;2007-03-24 00:00;CYQF 240000Z 21015G20KT 15SM FEW040 BKN090 OVC250 09/M00 A2954 RMK SC2AC4CI2 BARO READ H+18 SLP033

CYQF;2007-03-24 02:00;CYQF 240200Z 20015G20KT 15SM FEW040 BKN090 BKN250 09/M00 A2951 RMK SC1AC6CI1 SLP025

CYQF;2007-03-24 05:00;CYQF 240500Z 21004KT 15SM FEW090 04/M01 A2951 RMK AC2 SLP023

CYQF;2007-03-24 06:00;CYQF 240600Z 23010KT 15SM FEW090 05/M02 A2952 RMK AC1 SLP017

CYQF;2007-03-24 07:00;CYQF 240700Z 19008KT 15SM SKC 05/M02 A2951 RMK SLP014

CYQF;2007-03-24 08:00;CYQF 240800Z 19008KT 15SM SKC 06/M02 A2951 RMK SLP015

CYQF;2007-03-24 09:00;CYQF 240900Z 16006KT 15SM SKC 04/M02 A2949 RMK SLP007

CYQF;2007-03-24 10:00;CYQF 241000Z 12004KT 15SM FEW090 04/M02 A2949 RMK AC1 SLP008

CYQF;2007-03-24 11:00;CYQF 241100Z 28010KT 15SM FEW090 05/M02 A2952 RMK AC1 SLP016

CYQF;2007-03-24 12:00;CYQF 241200Z 27010KT 15SM FEW090 02/M03 A2953 RMK AC1 SLP025

CYQF;2007-03-24 13:00;CYQF 241300Z 11003KT 15SM FEW090 SCT250 06/M02 A2956 RMK AC2CI1 SLP033

CYQF;2007-03-24 14:00;CYQF 241400Z 02005KT 15SM FEW090 SCT250 03/M03 A2960 RMK AC2CI1 SLP047

CYQF;2007-03-24 15:00;CYQF 241500Z 01008KT 15SM FEW015 FEW090 BKN250 05/M02 A2962 RMK SC1AC2CI2 SC TR HRZN NW-N SLP054

CYQF;2007-03-24 16:00;CYQF 241600Z 03010KT 15SM FEW020 SCT090 BKN250 03/M02 A2965 RMK SC1AC3CI2 SLP063

CYQF;2007-03-24 17:00;CYQF 241700Z 03008KT 15SM FEW020 BKN100 BKN250 05/M00 A2968 RMK SC1AC5CI2 SLP072

CYQF;2007-03-24 18:00;CYQF 241800Z 05010KT 15SM FEW020 BKN100 BKN250 05/M00 A2967 RMK SC1AC5CI1 SLP074

CYQF;2007-03-24 19:00;CYQF 241900Z 06008KT 15SM FEW020 BKN100 BKN250 05/01 A2966 RMK SC1AC5CI2 SLP070

CYQF;2007-03-24 20:00;CYQF 242000Z 06010KT 15SM FEW020 FEW100 BKN250 05/01 A2964 RMK SC1AC2CI5 SLP063

CYQF;2007-03-24 21:00;CYQF 242100Z 08008KT 15SM FEW100 BKN250 06/01 A2961 RMK AC1CI7 SLP051

CYQF;2007-03-24 22:00;CYQF 242200Z 10009KT 15SM FEW100 BKN150 OVC250 07/01 A2956 RMK AC1AC6CI1 VIRGA SLP038

CYQF;2007-03-24 23:00;CYQF 242300Z 13005KT 15SM BKN100 BKN150 OVC250 07/01 A2955 RMK AC5AC2CI1 VIRGA SLP033

CYQF;2007-03-25 00:00;CYQF 250000Z 07004KT 15SM SCT100 BKN200 07/02 A2952 RMK AC4CI3 VIRGA SLP023

CYQF;2007-03-25 05:00;CYQF 250500Z 20004KT 15SM FEW100 SCT200 01/M01 A2942 RMK AC1CI2 SLP993

CYQF;2007-03-25 06:00;CYQF 250600Z 20005KT 15SM FEW090 BKN200 01/M01 A2939 RMK AC2CI2 SLP983

CYQF;2007-03-25 07:00;CYQF 250700Z 22005KT 15SM SCT090 BKN200 01/M01 A2939 RMK AC3CI2 SLP981

CYQF;2007-03-25 08:00;CYQF 250800Z 23008KT 15SM SCT080 BKN200 03/M00 A2937 RMK AC3CI2 SLP975

CYQF;2007-03-25 09:00;CYQF 250900Z 20008KT 15SM SCT090 BKN240 03/M00 A2939 RMK AC3CI2 SLP976

CYQF;2007-03-25 10:00;CYQF 251000Z CCA 32010KT 15SM FEW090 BKN250 06/M00 A2945 RMK AC2CI2 PRESRR SLP994

CYQF;2007-03-25 11:00;CYQF 251100Z 33013KT 15SM FEW090 BKN250 04/M01 A2951 RMK AC2CI2 SLP013

CYQF;2007-03-25 12:00;CYQF 251200Z 30007KT 15SM SCT090 BKN250 03/M02 A2956 RMK AC3CI2 SLP038

CYQF;2007-03-25 13:00;CYQF 251300Z 26006KT 15SM FEW030 BKN090 OVC250 01/M02 A2956 RMK SC2AC3CI2 SLP038

CYQF;2007-03-25 14:00;CYQF 251400Z 23003KT 15SM FEW030 SCT090 BKN250 01/M02 A2959 RMK SC2AC2CI2 SLP045

CYQF;2007-03-25 15:00;CYQF 251500Z 25005KT 15SM FEW030 SCT080 BKN250 01/M02 A2961 RMK SC2AC2CI2 SLP060

CYQF;2007-03-25 16:00;CYQF 251600Z 00000KT 15SM FEW050 BKN090 BKN250 03/M02 A2961 RMK SC2AC4CI2 SLP060

CYQF;2007-03-25 17:00;CYQF 251700Z 28003KT 15SM FEW050 BKN090 BKN250 04/M03 A2963 RMK SC2AC3CI1 VIRGA SLP068

CYQF;2007-03-25 18:00;CYQF 251800Z 34004KT 15SM FEW030 FEW050 BKN090 06/M04 A2965 RMK CU1SC2AC3 SLP071

CYQF;2007-03-25 19:00;CYQF 251900Z 33007KT 15SM FEW050 BKN090 06/M06 A2966 RMK CU1AC4 SLP075

CYQF;2007-03-25 20:00;CYQF 252000Z 00000KT 15SM FEW050 SCT090 BKN250 07/M04 A2967 RMK CU1AC2CI2 SHRA S SLP078

CYQF;2007-03-25 21:00;CYQF 252100Z 00000KT 15SM FEW050 BKN090 BKN250 07/M05 A2968 RMK SC1ACC5CI0 SHRA ALQDS SLP076

CYQF;2007-03-25 22:00;CYQF 252200Z CCA 36005KT 15SM VCSH BKN050 BKN100 BKN250 08/M04 A2969 RMK CU5AC2CI1 TCU ASOCTD VIRGA SLP081

CYQF;2007-03-25 23:00;CYQF 252300Z 35012G19KT 15SM BKN050 03/M01 A2973 RMK CU7 TCU ASOCTD VIRGA PRESRR SLP092

CYQF;2007-03-25 23:12;CYQF 252312Z 36011G17KT 15SM -SHRASN BKN050 RMK CU7 TCU ASOCTD VIRGA

CYQF;2007-03-25 23:32;CYQF 252332Z 04005KT 15SM VCSH BKN050 BKN100 RMK CU6AC1 VIRGA VIS LWR E-SW

CYQF;2007-03-26 01:00;CYQF 260100Z 16006KT 15SM SCT040 BKN100 BKN200 04/M00 A2977 RMK CU3AC2CI1 VIRGA SLP112

CYQF;2007-03-26 02:00;CYQF 260200Z 22005KT 15SM FEW040 BKN080 BKN200 01/M01 A2981 RMK CU2AC4CI1 SLP125

CYQF;2007-03-26 03:00;CYQF 260300Z 18003KT 15SM FEW040 SCT080 01/M01 A2983 RMK SC2AC2 SLP139

CYQF;2007-03-26 04:00;CYQF 260400Z 25006KT 15SM BKN080 M00/M01 A2987 RMK AC5 SLP151

CYQF;2007-03-26 05:00;CYQF 260500Z 21008KT 15SM FEW080 BKN200 01/M01 A2988 RMK AC2CI1 SH NW SLP154

CYQF;2007-03-26 06:00;CYQF 260600Z 34004KT 15SM BKN080 OVC200 01/M02 A2993 RMK AC6CI2 SLP166

CYQF;2007-03-26 07:00;CYQF 260700Z 09005KT 15SM VCSH BKN080 01/M02 A2993 RMK AC6 SLP166

CYQF;2007-03-26 08:00;CYQF 260800Z 00000KT 15SM BKN080 M00/M02 A2995 RMK AC6 SLP174

CYQF;2007-03-26 09:00;CYQF 260900Z 20004KT 15SM FEW080 M02/M03 A2995 RMK AC2 SLP177

CYQF;2007-03-26 10:00;CYQF 261000Z 00000KT 15SM SCT070 BKN240 M02/M03 A2996 RMK AC3CI1 SLP180

CYQF;2007-03-26 11:00;CYQF 261100Z 19003KT 15SM SCT140 M02/M04 A2998 RMK AC2 SLP186

CYQF;2007-03-26 12:00;CYQF 261200Z 21004KT 15SM SKC M03/M05 A2999 RMK SLP197

CYQF;2007-03-26 13:00;CYQF 261300Z CCA 22004KT 10SM FEW050 M03/M05 A3000 RMK SC2 CU EMBD BR SLP199

CYQF;2007-03-26 14:00;CYQF 261400Z 20004KT 10SM FEW050 M04/M05 A3000 RMK SC1 CU EMBD BR SLP198

CYQF;2007-03-26 15:00;CYQF 261500Z 18002KT 15SM FEW050 M01/M03 A3000 RMK SC1 SLP199

CYQF;2007-03-26 16:00;CYQF 261600Z 21005KT 15SM FEW100 01/M02 A3000 RMK AC1 SLP200

CYQF;2007-03-26 17:00;CYQF 261700Z 20005KT 15SM FEW220 03/M05 A3000 RMK CI1 SLP201

CYQF;2007-03-26 18:00;CYQF 261800Z 18003KT 15SM FEW220 05/M07 A3000 RMK CI1 SLP194

CYQF;2007-03-26 19:00;CYQF 261900Z 00000KT 15SM FEW056 FEW220 07/M07 A2999 RMK CU1CI0 SLP190

CYQF;2007-03-26 20:00;CYQF 262000Z 16005KT 15SM FEW060 FEW220 07/M08 A2998 RMK CU1CI0 SLP187

CYQF;2007-03-26 21:00;CYQF 262100Z 19005KT 15SM FEW060 FEW250 07/M08 A2997 RMK CU2CI0 CB E SLP183

CYQF;2007-03-26 22:00;CYQF 262200Z 18010KT 15SM FEW060 FEW250 08/M07 A2995 RMK CU1CI0 CB E SLP178

CYQF;2007-03-26 23:00;CYQF 262300Z 14010KT 15SM FEW060 FEW250 08/M04 A2995 RMK CU1CI1 SLP175

CYQF;2007-03-27 00:00;CYQF 270000Z 13013KT 15SM FEW040 FEW250 08/M02 A2993 RMK SC1CI1 SLP170

CYQF;2007-03-27 02:00;CYQF 270200Z 13010KT 15SM SCT250 04/M02 A2992 RMK CI3 SLP167

CYQF;2007-03-27 03:00;CYQF 270300Z 14012KT 15SM SCT250 03/M04 A2991 RMK CI3 OBS TAKEN +45 SLP165

CYQF;2007-03-27 04:00;CYQF 270400Z 14013KT 15SM SCT250 03/M04 A2991 RMK CI3 SLP165

CYQF;2007-03-27 05:00;CYQF 270500Z 15010KT 15SM SCT250 02/M03 A2993 RMK CI3 SLP170

CYQF;2007-03-27 06:00;CYQF 270600Z 14008KT 15SM FEW250 01/M04 A2992 RMK CI2 SLP166

CYQF;2007-03-27 07:00;CYQF 270700Z 14010KT 15SM FEW250 01/M05 A2990 RMK CI1 SLP159

CYQF;2007-03-27 08:00;CYQF 270800Z 15010G16KT 15SM FEW250 00/M05 A2989 RMK CI1 CI INVDG FM S SLP155

CYQF;2007-03-27 09:00;CYQF 270900Z 14010G15KT 15SM BKN210 M01/M05 A2988 RMK CS2 HALO SLP151

CYQF;2007-03-27 10:00;CYQF 271000Z 16007KT 15SM OVC210 M00/M04 A2985 RMK CS6 SLP143

CYQF;2007-03-27 11:00;CYQF 271100Z 16008KT 15SM OVC210 M01/M04 A2985 RMK CI6 SLP141

CYQF;2007-03-27 12:00;CYQF 271200Z 18007KT 15SM OVC210 M00/M04 A2984 RMK CI6 SLP134

CYQF;2007-03-27 13:00;CYQF 271300Z 15006KT 15SM BKN120 OVC210 M00/M04 A2983 RMK AC5CI3 SLP133

CYQF;2007-03-27 14:00;CYQF 271400Z 17005KT 15SM BKN100 OVC210 00/M03 A2982 RMK AC6CI2 SLP130

CYQF;2007-03-27 15:00;CYQF 271500Z 15013KT 15SM BKN050 OVC100 01/M03 A2983 RMK SC6AC2 VIRGA SLP137

CYQF;2007-03-27 16:00;CYQF 271600Z 19008KT 15SM -SN BKN030 OVC100 01/M03 A2983 RMK SC7AC1 SLP137

CYQF;2007-03-27 16:44;CYQF 271644Z 00000KT 2SM -SN OVC014 RMK SN4SC4

CYQF;2007-03-27 17:00;CYQF 271700Z 00000KT 1 1/2SM -SN OVC014 01/M01 A2984 RMK SN4SC4 SLP140

CYQF;2007-03-27 17:19;CYQF 271719Z 00000KT 1SM -SN OVC009 RMK SN6SC2

CYQF;2007-03-27 17:46;CYQF 271746Z 34003KT 6SM -SN OVC015 RMK SC8

CYQF;2007-03-27 18:00;CYQF 271800Z 36003KT 6SM -SN OVC015 01/M00 A2984 RMK SC8 SLP140

CYQF;2007-03-27 18:30;CYQF 271830Z 01006KT 1 1/2SM -SN OVC014 RMK SN3SC5

CYQF;2007-03-27 19:00;CYQF 271900Z 03005KT 2SM -SN SCT003 OVC008 01/M00 A2984 RMK SN2SF2SC4 VIS VRBL 11/2-21/2 SLP141

CYQF;2007-03-27 19:36;CYQF 271936Z 06005KT 4SM -RA BR SCT004 OVC016 RMK SF3SC5

CYQF;2007-03-27 20:00;CYQF 272000Z 06008KT 4SM -RASN BR SCT004 BKN016 OVC050 02/M00 A2984 RMK SF3SC3SC2 SLP141

CYQF;2007-03-27 20:29;CYQF 272029Z 06007KT 6SM -RASN FEW003 BKN008 OVC016 RMK SF2ST3SC2 CIG RAG

CYQF;2007-03-27 21:00;CYQF 272100Z 04003KT 10SM -RASN BKN008 BKN016 OVC050 03/M00 A2983 RMK SF2SC2SC3 SLP138

CYQF;2007-03-27 21:19;CYQF 272119Z 06003KT 10SM SCT009 BKN016 OVC050 RMK SF3SC3SC2

CYQF;2007-03-27 22:00;CYQF 272200Z 05005KT 10SM BKN011 OVC050 03/00 A2984 RMK SC6SC2 SLP141

CYQF;2007-03-27 22:53;CYQF 272253Z 06003KT 8SM -RA SCT009 OVC018 RMK ST3SC5

CYQF;2007-03-27 23:00;CYQF 272300Z 06003KT 8SM -RA SCT009 OVC018 02/01 A2985 RMK ST3SC5 SLP144

CYQF;2007-03-27 23:07;CYQF 272307Z 07003KT 6SM -RASN BR SCT009 OVC018 RMK ST4SC4

CYQF;2007-03-28 00:00;CYQF 280000Z 36003KT 1 1/2SM -RASN BR BKN004 OVC015 02/00 A2988 RMK SF7SC1 CIG RAG /S01/ SLP156

CYQF;2007-03-28 01:00;CYQF 280100Z 36004KT 1SM -SN BR OVC004 01/00 A2988 RMK FG3SF5 CIG RAG SLP158

CYQF;2007-03-28 02:00;CYQF 280200Z 35005KT 2SM BR OVC004 01/M00 A2990 RMK ST8 SLP164

CYQF;2007-03-28 03:00;CYQF 280300Z 32005KT 3SM BR SCT006 OVC012 01/M00 A2992 RMK ST4SC4 SLP169

CYQF;2007-03-28 05:00;CYQF 280500Z 32010G15KT 15SM BKN011 01/M01 A2997 RMK ST6 SLP185

CYQF;2007-03-28 06:00;CYQF 280600Z 32015KT 15SM OVC012 01/M01 A3002 RMK ST8 PRESRR SLP205

CYQF;2007-03-28 07:00;CYQF 280700Z 33015KT 15SM OVC020 01/M01 A3007 RMK SC8 SLP221

CYQF;2007-03-28 08:00;CYQF 280800Z 35015KT 15SM FEW020 00/M05 A3009 RMK SC1 SLP226

CYQF;2007-03-28 09:00;CYQF 280900Z 33015KT 15SM FEW120 M01/M06 A3013 RMK AC2 SLP241

CYQF;2007-03-28 10:00;CYQF 281000Z 32012KT 15SM SCT120 M01/M06 A3016 RMK AC2 SLP253

CYQF;2007-03-28 11:00;CYQF 281100Z 32012KT 15SM SCT120 M01/M06 A3020 RMK AC2 SLP264

CYQF;2007-03-28 12:00;CYQF 281200Z 33010KT 15SM BKN100 M01/M07 A3024 RMK AC5 SLP282

CYQF;2007-03-28 13:00;CYQF 281300Z 33015KT 15SM SCT100 BKN220 M02/M09 A3027 RMK AC2CI0 SLP293

CYQF;2007-03-28 14:00;CYQF 281400Z 34012KT 15SM SCT100 BKN220 M02/M08 A3032 RMK AC4CI1 SLP307

CYQF;2007-03-28 15:00;CYQF 281500Z 33013KT 15SM FEW100 FEW220 M02/M08 A3035 RMK AC1CI1 SLP322

CYQF;2007-03-28 16:00;CYQF 281600Z 34010G18KT 15SM FEW040 FEW100 M00/M09 A3038 RMK CU1AC2 SLP332

CYQF;2007-03-28 17:00;CYQF 281700Z 34010G20KT 15SM FEW120 00/M09 A3042 RMK AC2 SLP343

CYQF;2007-03-28 18:00;CYQF 281800Z 01011KT 15SM FEW120 01/M10 A3044 RMK AC1 SLP349

CYQF;2007-03-28 19:00;CYQF 281900Z 32006KT 15SM SKC 02/M08 A3045 RMK SLP353

CYQF;2007-03-28 20:00;CYQF 282000Z 34007KT 15SM FEW030 02/M08 A3044 RMK SC1 SLP352

CYQF;2007-03-28 21:00;CYQF 282100Z 32005KT 15SM FEW030 02/M10 A3044 RMK SC1 SLP351

CYQF;2007-03-28 22:00;CYQF 282200Z 33002KT 15SM FEW030 04/M09 A3044 RMK SC1 SLP350

CYQF;2007-03-28 23:00;CYQF 282300Z 00000KT 15SM FEW030 FEW250 05/M10 A3044 RMK SC1CI1 SLP352

CYQF;2007-03-29 00:00;CYQF 290000Z 16003KT 15SM FEW250 04/M12 A3045 RMK CI1 SLP351

CYQF;2007-03-29 01:00;CYQF 290100Z 16003KT 15SM FEW250 04/M11 A3045 RMK CI1 SLP351

CYQF;2007-03-29 02:00;CYQF 290200Z 13006KT 15SM FEW250 02/M10 A3045 RMK CI1 SLP352

CYQF;2007-03-29 03:00;CYQF 290300Z 13005KT 15SM FEW250 00/M09 A3045 RMK CI1 SLP358

CYQF;2007-03-29 04:00;CYQF 290400Z 17005KT 15SM FEW250 M01/M08 A3047 RMK CI1 SLP364

CYQF;2007-03-29 05:00;CYQF 290500Z 16007KT 15SM SKC M02/M09 A3047 RMK SLP364

CYQF;2007-03-29 06:00;CYQF 290600Z 17010KT 15SM SKC M02/M08 A3046 RMK SLP361

CYQF;2007-03-29 07:00;CYQF 290700Z 17010KT 15SM SKC M02/M08 A3045 RMK SLP359

CYQF;2007-03-29 08:00;CYQF 290800Z 17014KT 15SM SKC M01/M09 A3044 RMK SLP355

CYQF;2007-03-29 09:00;CYQF 290900Z 16015KT 15SM SCT220 M02/M08 A3042 RMK CI2 SLP346

CYQF;2007-03-29 10:00;CYQF 291000Z 17015G20KT 15SM FEW220 M01/M08 A3039 RMK CI1 SLP336

CYQF;2007-03-29 11:00;CYQF 291100Z 17020G25KT 15SM FEW220 M02/M08 A3037 RMK CI1 SLP330

CYQF;2007-03-29 12:00;CYQF 291200Z 17020G26KT 15SM FEW220 M02/M08 A3036 RMK CI1 SLP322

CYQF;2007-03-29 13:00;CYQF 291300Z 17015G21KT 15SM BKN220 M02/M08 A3035 RMK CI2 SLP319

CYQF;2007-03-29 14:00;CYQF 291400Z 17013G20KT 15SM SCT100 BKN200 M01/M08 A3034 RMK AC3CI3 SLP315

CYQF;2007-03-29 15:00;CYQF 291500Z 17017G31KT 15SM FEW100 BKN210 M01/M08 A3034 RMK AC2CI3 SLP318

CYQF;2007-03-29 16:00;CYQF 291600Z 16020G30KT 15SM BKN090 BKN250 01/M08 A3033 RMK AC6CI2 SLP316

CYQF;2007-03-29 17:00;CYQF 291700Z 15016G24KT 15SM BKN090 BKN250 02/M08 A3032 RMK AC6CI2 SLP313

CYQF;2007-03-29 18:00;CYQF 291800Z 17019G25KT 15SM SCT090 OVC250 05/M06 A3031 RMK AC3CI3 SLP304

CYQF;2007-03-29 19:00;CYQF 291900Z 18012G20KT 15SM FEW100 OVC250 07/M04 A3030 RMK AC2CI2 SLP302

CYQF;2007-03-29 20:00;CYQF 292000Z 17010G20KT 15SM SCT100 OVC250 08/M02 A3028 RMK AC3CI2 SLP294

CYQF;2007-03-29 21:00;CYQF 292100Z 17013G20KT 15SM SCT100 OVC250 10/M00 A3026 RMK AC3CI2 SLP281

CYQF;2007-03-29 22:00;CYQF 292200Z 18013G20KT 15SM FEW100 BKN250 12/M00 A3023 RMK AC2CI1 SLP272

CYQF;2007-03-29 23:00;CYQF 292300Z 17016G23KT 15SM FEW100 BKN250 11/M01 A3021 RMK AC2CI2 SLP265

CYQF;2007-03-30 00:00;CYQF 300000Z 18013G19KT 15SM SCT100 BKN250 11/M01 A3020 RMK AC4CI2 SLP258

CYQF;2007-03-30 01:00;CYQF 300100Z 18012G18KT 15SM SCT100 OVC250 10/M02 A3018 RMK AC4CI2 SLP253

CYQF;2007-03-30 02:00;CYQF 300200Z 18011KT 15SM BKN100 OVC250 08/M02 A3017 RMK AC5CI2 SLP251

CYQF;2007-03-30 03:00;CYQF 300300Z 19010KT 15SM BKN100 OVC250 06/M02 A3017 RMK AC6CI2 SLP251

CYQF;2007-03-30 04:00;CYQF 300400Z 18010KT 15SM SCT100 OVC250 05/M02 A3015 RMK AC3CI2 SLP247

CYQF;2007-03-30 05:00;CYQF 300500Z 18010KT 15SM SCT100 OVC250 04/M03 A3014 RMK AC3CI2 SLP243

CYQF;2007-03-30 06:00;CYQF 300600Z 18008KT 15SM SCT100 OVC250 04/M03 A3014 RMK AC4CI2 SLP237

CYQF;2007-03-30 07:00;CYQF 300700Z 18008KT 15SM FEW100 OVC200 02/M03 A3012 RMK AC2CI2 SLP233

CYQF;2007-03-30 08:00;CYQF 300800Z 18010KT 15SM FEW100 OVC200 02/M04 A3010 RMK AC2CI2 OBS TAKEN +5 SLP227

CYQF;2007-03-30 09:00;CYQF 300900Z 18012KT 15SM OVC200 01/M04 A3009 RMK CI3 SLP218

CYQF;2007-03-30 10:00;CYQF 301000Z 18013KT 15SM BKN100 OVC200 01/M05 A3006 RMK AC5CI2 PRESFR SLP211

CYQF;2007-03-30 11:00;CYQF 301100Z 18008KT 15SM BKN100 OVC200 01/M05 A3004 RMK AC6CI2 SLP203

CYQF;2007-03-30 12:00;CYQF 301200Z 16010KT 15SM BKN100 OVC200 00/M05 A3003 RMK AC5CI0 SLP196

CYQF;2007-03-30 13:00;CYQF 301300Z 19008KT 15SM SCT100 OVC200 M00/M06 A3001 RMK AC3CI4 SLP192

CYQF;2007-03-30 14:00;CYQF 301400Z 18008KT 15SM SCT100 BKN250 M01/M06 A2998 RMK AC3CI3 SLP182

CYQF;2007-03-30 15:00;CYQF 301500Z 16005KT 15SM FEW100 BKN250 M01/M05 A2995 RMK AC2CI1 SLP178

CYQF;2007-03-30 16:00;CYQF 301600Z 15006KT 15SM FEW100 BKN250 02/M04 A2995 RMK AC2CI1 SLP175

CYQF;2007-03-30 17:00;CYQF 301700Z 15005KT 15SM FEW100 BKN250 06/M02 A2992 RMK AC1CI1 SLP166

CYQF;2007-03-30 18:00;CYQF 301800Z 15005KT 15SM FEW100 BKN250 10/M01 A2990 RMK AC1CI1 SLP150

CYQF;2007-03-30 19:00;CYQF 301900Z 17007KT 15SM FEW100 OVC250 13/M01 A2988 RMK AC2CI2 SLP144

CYQF;2007-03-30 20:00;CYQF 302000Z 16007KT 15SM BKN100 OVC250 12/01 A2987 RMK AC5CI2 SLP141

CYQF;2007-03-30 21:00;CYQF 302100Z 00000KT 15SM BKN100 OVC250 13/01 A2985 RMK AC5CI2 SLP130

CYQF;2007-03-30 22:00;CYQF 302200Z 04002KT 15SM BKN100 BKN250 14/02 A2980 RMK AC5CI2 SLP117

CYQF;2007-03-30 23:00;CYQF 302300Z 00000KT 15SM FEW100 SCT250 16/M01 A2979 RMK AC1CI1 SLP114

CYQF;2007-03-31 00:00;CYQF 310000Z 12004KT 15SM FEW090 SCT250 15/00 A2977 RMK AC1CI1 SLP105

CYQF;2007-03-31 01:00;CYQF 310100Z 12008KT 15SM FEW250 13/01 A2976 RMK CI1 SLP102

CYQF;2007-03-31 02:00;CYQF 310200Z 14005KT 15SM FEW250 10/M01 A2976 RMK CI1 SLP102

CYQF;2007-03-31 03:00;CYQF 310300Z 35004KT 15SM SCT250 06/M01 A2976 RMK CI2 SLP113

CYQF;2007-03-31 04:00;CYQF 310400Z 31004KT 15SM FEW100 SCT250 04/M02 A2976 RMK AC2CI1 SLP113

CYQF;2007-03-31 05:00;CYQF 310500Z 34003KT 15SM FEW100 BKN250 03/M02 A2976 RMK AC2CI1 SLP112

CYQF;2007-03-31 06:00;CYQF 310600Z 00000KT 15SM FEW100 SCT250 02/M02 A2976 RMK AC2CI2 SLP104

CYQF;2007-03-31 07:00;CYQF 310700Z 18003KT 15SM FEW100 BKN250 01/M02 A2976 RMK AC2CI2 SLP102

CYQF;2007-03-31 08:00;CYQF 310800Z 24003KT 15SM FEW100 BKN250 M01/M04 A2975 RMK AC2CI2 SLP101

CYQF;2007-03-31 08:30;CYQF 310830Z 34017G25KT 15SM SCT100 BKN250 RMK AC3CI3

CYQF;2007-03-31 09:00;CYQF 310900Z 36014G21KT 15SM FEW100 BKN250 03/M03 A2980 RMK AC2CI2 SLP111

CYQF;2007-03-31 10:00;CYQF 311000Z 35016G24KT 15SM SCT100 BKN250 01/M04 A2983 RMK AC4CI2 SLP122

CYQF;2007-03-31 11:00;CYQF 311100Z 34012G18KT 15SM SCT100 BKN250 00/M05 A2988 RMK AC4CI2 SLP136

CYQF;2007-03-31 12:00;CYQF 311200Z 34012G18KT 15SM FEW020 BKN100 BKN250 M01/M05 A2989 RMK SC1AC5CI2 SLP147

CYQF;2007-03-31 13:00;CYQF 311300Z 33010KT 15SM FEW020 BKN100 BKN250 M01/M06 A2990 RMK SC2AC4CI2 SLP149

CYQF;2007-03-31 14:00;CYQF 311400Z 34011G18KT 15SM FEW020 BKN090 BKN250 M01/M06 A2991 RMK SC1AC5CI2 SLP152

CYQF;2007-03-31 15:00;CYQF 311500Z 33015G22KT 15SM FEW020 BKN090 BKN250 M01/M08 A2992 RMK SC1AC5CI2 SLP166

CYQF;2007-03-31 16:00;CYQF 311600Z 33017G25KT 15SM FEW020 BKN090 BKN250 M01/M09 A2991 RMK SC1AC5CI1 SLP165

CYQF;2007-03-31 17:00;CYQF 311700Z CCA 31015G21KT 15SM FEW030 BKN080 BKN250 M00/M08 A2992 RMK SC2AC5CI1 SLP166

CYQF;2007-03-31 18:00;CYQF 311800Z 32012G17KT 15SM FEW030 BKN080 BKN250 M01/M07 A2991 RMK SC2AC5CI1 SLP168

CYQF;2007-03-31 18:23;CYQF 311823Z 32011G17KT 8SM -SN BKN030 BKN080 OVC250 RMK SC5AC2CI1

CYQF;2007-03-31 18:47;CYQF 311847Z 32011G18KT 15SM FEW030 BKN080 BKN250 RMK SC2AC3CI2

CYQF;2007-03-31 19:00;CYQF 311900Z 32014G20KT 15SM FEW030 BKN080 BKN250 00/M07 A2991 RMK SC2AC4CI1 SLP167

CYQF;2007-03-31 20:00;CYQF 312000Z 31010KT 15SM FEW030 FEW080 SCT250 01/M08 A2989 RMK SC1AC1CI0 SLP161

CYQF;2007-03-31 21:00;CYQF 312100Z 35010KT 15SM FEW030 BKN080 BKN250 02/M09 A2986 RMK SC1AC4CI1 SLP147

CYQF;2007-03-31 22:00;CYQF 312200Z 33009KT 15SM BKN080 02/M09 A2986 RMK AC6 SLP146

CYQF;2007-03-31 23:00;CYQF 312300Z 34008KT 15SM BKN080 BKN250 03/M09 A2985 RMK AC5CI1 SLP142

CYQF;2007-04-01 05:00;CYQF 010500Z 35004KT 15SM BKN100 M02/M07 A2990 RMK AC5 SLP165

CYQF;2007-04-01 06:00;CYQF 010600Z 01004KT 15SM BKN100 M02/M07 A2990 RMK AC5 SLP168

CYQF;2007-04-01 07:00;CYQF 010700Z 01004KT 15SM BKN100 M02/M08 A2991 RMK AC6 SLP172

CYQF;2007-04-01 08:00;CYQF 010800Z 01005KT 15SM BKN100 M02/M10 A2992 RMK AC6 SLP174

CYQF;2007-04-01 09:00;CYQF 010900Z 01010KT 15SM BKN100 M02/M10 A2991 RMK AC6 SLP169

CYQF;2007-04-01 10:00;CYQF 011000Z 02008KT 15SM BKN100 M03/M10 A2991 RMK AC6 SLP168

CYQF;2007-04-01 11:00;CYQF 011100Z 01006KT 15SM SCT100 BKN250 M04/M10 A2992 RMK AC4CI2 SLP171

CYQF;2007-04-01 12:00;CYQF 011200Z 36005KT 15SM SCT030 BKN100 M04/M09 A2994 RMK SC3AC2 SLP179

CYQF;2007-04-01 13:00;CYQF 011300Z 36005KT 15SM FEW030 BKN100 M04/M09 A2995 RMK SC2AC4 SLP183

CYQF;2007-04-01 14:00;CYQF 011400Z 01012KT 15SM FEW030 BKN100 M04/M09 A2995 RMK SC1AC4 SLP185

CYQF;2007-04-01 15:00;CYQF 011500Z 01013KT 15SM FEW030 BKN100 BKN250 M04/M09 A2996 RMK SC1AC4CI1 SLP191

CYQF;2007-04-01 16:00;CYQF 011600Z 03013KT 15SM SCT020 BKN060 OVC100 M03/M08 A2997 RMK SC3SC2AC2 SLP193

CYQF;2007-04-01 17:00;CYQF 011700Z 03012KT 15SM BKN020 OVC060 M03/M08 A2997 RMK SC7SC1 SLP193

CYQF;2007-04-01 17:15;CYQF 011715Z 02012KT 10SM -SN OVC020 RMK SC8

CYQF;2007-04-01 17:46;CYQF 011746Z 01012KT 2SM -SN OVC020 RMK SN2SC6

CYQF;2007-04-01 18:00;CYQF 011800Z 02010KT 3SM -SN OVC020 M04/M07 A2997 RMK SN2SC6 SLP196

CYQF;2007-04-01 19:00;CYQF 011900Z 01012KT 4SM -SN OVC020 M04/M08 A2997 RMK SC8 SLP197

CYQF;2007-04-01 20:00;CYQF 012000Z 03011KT 6SM -SN OVC020 M04/M09 A2998 RMK SC8 SLP198

CYQF;2007-04-01 20:45;CYQF 012045Z 01013KT 1 1/2SM -SN OVC020 RMK SN2SC6

CYQF;2007-04-01 21:00;CYQF 012100Z 01012KT 1 1/2SM -SN OVC020 M04/M07 A2998 RMK SN3SC5 SLP199

CYQF;2007-04-01 22:00;CYQF 012200Z 36013KT 3SM -SN BKN008 OVC040 M04/M07 A2998 RMK SC6SC2 SLP199

CYQF;2007-04-01 23:00;CYQF 012300Z 02014KT 3SM -SN OVC010 M05/M08 A2999 RMK SC8 SLP202

CYQF;2007-04-01 23:18;CYQF 012318Z 01012KT 1 1/2SM -SN OVC010 RMK SN3SC5

CYQF;2007-04-02 00:00;CYQF 020000Z 02010KT 1 1/2SM -SN OVC013 M05/M08 A3000 RMK SN3SC5 SLP211

CYQF;2007-04-02 01:00;CYQF 020100Z 02012KT 2SM -SN SCT008 OVC015 M06/M08 A3002 RMK SN2SF2SC4 SLP216

CYQF;2007-04-02 02:00;CYQF 020200Z 03010G15KT 1 1/2SM -SN SCT008 VV012 M06/M08 A3004 RMK SF3SN5 SLP221

CYQF;2007-04-02 03:00;CYQF 020300Z 03012KT 2SM -SN BR SCT008 BKN015 OVC030 M07/M09 A3005 RMK SN2SF2SC2SC2 SLP231

CYQF;2007-04-02 03:34;CYQF 020334Z 02009KT 5SM -SN BR FEW008 BKN030 OVC090 RMK SF2SC3AC2

CYQF;2007-04-02 04:00;CYQF 020400Z 36008KT 3SM -SN SCT025 OVC090 M07/M09 A3006 RMK SC4AC3 /S01/ SLP234

CYQF;2007-04-02 05:00;CYQF 020500Z 02010KT 3SM -SN BKN030 OVC090 M07/M09 A3007 RMK SN2SC3AC3 SLP235

CYQF;2007-04-02 06:00;CYQF 020600Z 35005KT 2SM -SN OVC030 M07/M09 A3007 RMK SN5SC3 SLP238

CYQF;2007-04-02 06:46;CYQF 020646Z 34007KT 1SM -SN VV013 RMK SN8

CYQF;2007-04-02 07:00;CYQF 020700Z 33009KT 1SM -SN VV013 M07/M09 A3008 RMK SN8 SLP240

CYQF;2007-04-02 08:00;CYQF 020800Z 35008KT 2SM -SN BKN030 OVC090 M07/M09 A3008 RMK SN2SC2AC2 SLP241

CYQF;2007-04-02 09:00;CYQF 020900Z 35007KT 2SM -SN SCT015 BKN030 OVC090 M08/M10 A3009 RMK SN2SC2SC2AC1 SLP243

CYQF;2007-04-02 10:00;CYQF 021000Z 34007KT 2SM -SN FEW015 SCT030 OVC090 M08/M11 A3010 RMK SN2SC1SC2AC2 /S01/ SLP246

CYQF;2007-04-02 11:00;CYQF 021100Z 33009KT 2SM -SN SCT030 BKN090 M09/M11 A3010 RMK SN2SC2AC2 SLP247

CYQF;2007-04-02 11:29;CYQF 021129Z 34011KT 8SM -SN FEW030 BKN090 RMK SC2AC3

CYQF;2007-04-02 12:00;CYQF 021200Z 33010KT 3SM -SN FEW030 BKN090 M10/M12 A3010 RMK SC2AC3 SLP251

CYQF;2007-04-02 12:48;CYQF 021248Z 33008KT 2SM -SN BKN090 OVC250 RMK SN2AC2CI1

CYQF;2007-04-02 13:00;CYQF 021300Z 33008KT 2SM -SN BKN090 OVC250 M10/M12 A3011 RMK SN2AC2CI1 SLP253

CYQF;2007-04-02 13:15;CYQF 021315Z 34009KT 4SM -SN BKN090 OVC250 RMK SN2AC3CI2

CYQF;2007-04-02 14:00;CYQF 021400Z 34008KT 3SM -SN OVC090 M09/M12 A3012 RMK SN2AC5 SLP256

CYQF;2007-04-02 14:06;CYQF 021406Z 34008KT 1 1/2SM -SN OVC090 RMK SN2AC5

CYQF;2007-04-02 14:44;CYQF 021444Z 34012KT 3/4SM -SN VV008 RMK SN8

CYQF;2007-04-02 15:00;CYQF 021500Z 32012KT 1SM -SN VV009 M09/M11 A3013 RMK SN8 SLP262

CYQF;2007-04-02 16:00;CYQF 021600Z 32012KT 1SM -SN VV009 M09/M11 A3015 RMK SN8 SLP267

CYQF;2007-04-02 16:41;CYQF 021641Z 33010KT 3/4SM -SN VV008 RMK SN8

CYQF;2007-04-02 17:00;CYQF 021700Z 34013KT 1 1/4SM -SN VV009 M09/M11 A3016 RMK SN8 SLP271

CYQF;2007-04-02 18:00;CYQF 021800Z CCA 34013KT 1SM -SN VV009 M09/M11 A3017 RMK SN8 /S01/ SLP276

CYQF;2007-04-02 18:39;CYQF 021839Z 34012KT 1 1/2SM -SN OVC080 RMK SN4AC4

CYQF;2007-04-02 19:00;CYQF 021900Z 33014KT 2 1/2SM -SN OVC080 M08/M10 A3017 RMK SN2AC6 SLP278

CYQF;2007-04-02 20:00;CYQF 022000Z 33014KT 1 1/2SM -SN OVC080 M08/M10 A3018 RMK SN3AC5 SLP281

CYQF;2007-04-02 21:00;CYQF 022100Z 34012KT 1SM -SN OVC080 M07/M09 A3019 RMK SN3AC5 SLP284

CYQF;2007-04-02 22:00;CYQF 022200Z 34014KT 1SM -SN OVC080 M07/M09 A3020 RMK SN3AC5 SLP287

CYQF;2007-04-02 23:00;CYQF 022300Z 34010KT 1SM -SN VV015 M07/M09 A3022 RMK SN8 SLP293

CYQF;2007-04-03 00:00;CYQF 030000Z CCB 36008KT 1SM -SN VV015 M07/M09 A3024 RMK SN8 /S02/ SLP300

CYQF;2007-04-03 01:00;CYQF 030100Z 34010G15KT 1SM -SN VV015 M07/M09 A3026 RMK SN8 SLP307

CYQF;2007-04-03 02:00;CYQF 030200Z 33010G15KT 1SM -SN VV015 M07/M09 A3027 RMK SN8 SLP312

CYQF;2007-04-03 02:35;CYQF 030235Z 34010G15KT 1SM -SN VV012 RMK SN8 VIS VRB 1/2-11/2

CYQF;2007-04-03 03:00;CYQF 030300Z 34010G15KT 1SM -SN VV012 M07/M09 A3029 RMK SN8 VIS VRB 1/2-11/2 SLP318

CYQF;2007-04-03 03:25;CYQF 030325Z 34010G15KT 1SM -SN VV015 RMK SN8

CYQF;2007-04-03 04:00;CYQF 030400Z 36008KT 3/4SM -SN VV013 M07/M09 A3031 RMK SN8 SLP324

CYQF;2007-04-03 05:00;CYQF 030500Z CCA 36007KT 3/4SM -SN VV013 M07/M09 A3031 RMK SN8 /S03/ SLP326

CYQF;2007-04-03 06:00;CYQF 030600Z 01010KT 3/4SM -SN VV011 M07/M09 A3032 RMK SN8 /S04/ SLP329

CYQF;2007-04-03 06:45;CYQF 030645Z 02010KT 1SM -SN VV012 RMK SN8

CYQF;2007-04-03 07:00;CYQF 030700Z 02011KT 1SM -SN VV012 M07/M09 A3033 RMK SN8 /S01/ SLP332

CYQF;2007-04-03 08:00;CYQF 030800Z 02008KT 2SM -SN OVC015 M08/M09 A3034 RMK SN4SC4 SLP334

CYQF;2007-04-03 09:00;CYQF 030900Z 03007KT 2SM -SN OVC020 M08/M10 A3035 RMK SN2SC6 SLP339

CYQF;2007-04-03 10:00;CYQF 031000Z 04005KT 2 1/2SM -SN OVC020 M08/M10 A3035 RMK SN2SC6 SLP339

CYQF;2007-04-03 10:31;CYQF 031031Z 03006KT 4SM -SN BKN020 OVC040 RMK SC6SC2

CYQF;2007-04-03 11:00;CYQF 031100Z 03007KT 5SM -SN BKN020 OVC040 M09/M11 A3036 RMK SC6SC2 SLP342

CYQF;2007-04-03 12:00;CYQF 031200Z 03006KT 3SM -SN BKN020 OVC050 M09/M11 A3038 RMK SC6SC2 /S04/ SLP349

CYQF;2007-04-03 12:24;CYQF 031224Z CCB 03005KT 2SM -SN OVC020 RMK SN3SC5

CYQF;2007-04-03 13:00;CYQF 031300Z 03005KT 1SM -SN OVC020 M09/M11 A3038 RMK SN3SC5 SLP350

CYQF;2007-04-03 14:00;CYQF 031400Z 05006KT 1SM -SN OVC020 M09/M11 A3039 RMK SN3SC5 SLP352

CYQF;2007-04-03 14:46;CYQF 031446Z 06006KT 1 1/2SM -SN BKN020 OVC100 RMK SN2SC2AC2

CYQF;2007-04-03 15:00;CYQF 031500Z 06007KT 2SM -SN SCT025 OVC100 M09/M11 A3039 RMK SN2SC2AC2 /S01/ SLP355

CYQF;2007-04-03 15:45;CYQF 031545Z 06005KT 3SM -SN BR FEW025 SCT100 BKN250 RMK SC2AC2CI2

CYQF;2007-04-03 16:00;CYQF 031600Z 06005KT 3SM -SN BR FEW025 SCT100 BKN250 M09/M11 A3039 RMK SC2AC2CI2 SLP356

CYQF;2007-04-03 17:00;CYQF 031700Z 07004KT 6SM -SN BR FEW100 SCT250 M08/M11 A3039 RMK AC2CI1 SLP356

CYQF;2007-04-03 17:38;CYQF 031738Z 08004KT 12SM FEW050 SCT100 BKN250 RMK SC1AC2CI1

CYQF;2007-04-03 18:00;CYQF 031800Z 13003KT 12SM BKN020 OVC100 M07/M10 A3040 RMK SC5AC2 SLP356

CYQF;2007-04-03 18:31;CYQF 031831Z 15007KT 3SM -SN BR BKN008 OVC025 RMK SN2SF4SC2

CYQF;2007-04-03 19:00;CYQF 031900Z 13007KT 2SM -SN BR BKN008 OVC025 M06/M10 A3040 RMK SN2SF4SC2 SLP356

CYQF;2007-04-03 20:00;CYQF 032000Z CCA 16006KT 3SM -SN BR BKN010 OVC025 M06/M10 A3040 RMK SF5SC3 SLP354

CYQF;2007-04-03 21:00;CYQF 032100Z 15007KT 2 1/2SM -SN BR BKN016 OVC025 M06/M10 A3039 RMK SN2SF5SC2 SLP352

CYQF;2007-04-03 21:30;CYQF 032130Z 15008KT 5SM -SN SCT016 BKN025 RMK SF4SC2

CYQF;2007-04-03 22:00;CYQF 032200Z 14008KT 15SM SCT020 M05/M10 A3039 RMK CF3 SLP352

CYQF;2007-04-03 22:22;CYQF 032222Z 14008KT 12SM FEW020 RMK CF2

CYQF;2007-04-03 23:00;CYQF 032300Z 14007KT 12SM FEW020 M05/M11 A3040 RMK CF2 SLP353

CYQF;2007-04-04 00:00;CYQF 040000Z 15007KT 15SM FEW020 M06/M11 A3039 RMK CF1 SLP353

CYQF;2007-04-04 01:00;CYQF 040100Z 14006KT 15SM BKN020 M06/M11 A3040 RMK SC5 SLP354

CYQF;2007-04-04 02:00;CYQF 040200Z 17006KT 15SM BKN020 M07/M11 A3040 RMK SC5 SLP356

CYQF;2007-04-04 03:00;CYQF 040300Z 15003KT 15SM FEW020 M09/M12 A3041 RMK SC2 SLP363

CYQF;2007-04-04 04:00;CYQF 040400Z 15003KT 15SM FEW020 M11/M14 A3042 RMK SC2 SLP365

CYQF;2007-04-04 05:00;CYQF 040500Z 13003KT 15SM FEW020 M12/M14 A3042 RMK SC1 SLP365

CYQF;2007-04-04 06:00;CYQF 040600Z 13004KT 15SM SKC M12/M14 A3041 RMK SLP363

CYQF;2007-04-04 07:00;CYQF 040700Z 15002KT 15SM SKC M16/M17 A3040 RMK MIFG SLP361

CYQF;2007-04-04 08:00;CYQF 040800Z 14002KT 15SM FEW090 M15/M16 A3039 RMK AC2 SLP357

CYQF;2007-04-04 09:00;CYQF 040900Z 11002KT 15SM FEW090 M15/M16 A3038 RMK AC2 SLP356

CYQF;2007-04-04 10:00;CYQF 041000Z 04002KT 15SM FEW090 M15/M17 A3036 RMK AC1 MIFG SLP351

CYQF;2007-04-04 11:00;CYQF 041100Z 35002KT 15SM FEW090 M15/M18 A3036 RMK AC1 MIFG SLP351

CYQF;2007-04-04 12:00;CYQF 041200Z 06002KT 15SM FEW040 SCT090 M14/M16 A3036 RMK SC2AC2 SLP348

CYQF;2007-04-04 12:34;CYQF 041234Z 03002KT 10SM -SN SCT040 BKN090 RMK SC3AC2

CYQF;2007-04-04 13:00;CYQF 041300Z 35002KT 10SM -SN SCT040 BKN080 M14/M16 A3035 RMK SC3AC4 SLP346

CYQF;2007-04-04 14:00;CYQF 041400Z 00000KT 5SM -SN BKN015 OVC080 M13/M15 A3036 RMK SC6AC2 SLP348

CYQF;2007-04-04 14:30;CYQF 041430Z 00000KT 2 1/2SM -SN OVC021 RMK SC8 PIREP/BE10 CLD TOP 072ASL

CYQF;2007-04-04 15:00;CYQF 041500Z 00000KT 2 1/2SM -SN OVC021 M11/M12 A3036 RMK SC8 SLP348

CYQF;2007-04-04 15:30;CYQF 041530Z 00000KT 1 1/2SM -SN OVC021 RMK SN3SC5

CYQF;2007-04-04 16:00;CYQF 041600Z CCA 14002KT 1 1/2SM -SN OVC021 M09/M10 A3036 RMK SN3SC5 /S01/ SLP349

CYQF;2007-04-04 16:47;CYQF 041647Z 14002KT 5SM -SN OVC020 RMK SC8

CYQF;2007-04-04 17:00;CYQF 041700Z 09003KT 5SM -SN OVC020 M08/M10 A3036 RMK SC8 SLP349

CYQF;2007-04-04 18:00;CYQF 041800Z 16008KT 5SM -SN OVC030 M06/M10 A3037 RMK SC8 SLP349

CYQF;2007-04-04 19:00;CYQF 041900Z 14008KT 8SM -SN OVC030 M06/M09 A3037 RMK SC8 SLP349

CYQF;2007-04-04 20:00;CYQF 042000Z 15008KT 6SM -SN OVC030 M05/M09 A3037 RMK SC8 SLP351

CYQF;2007-04-04 21:00;CYQF 042100Z 14003KT 6SM -SN OVC030 M04/M09 A3037 RMK SC8 SLP352

CYQF;2007-04-04 22:00;CYQF 042200Z 15002KT 6SM -SN OVC030 M04/M08 A3038 RMK SC8 SLP353

CYQF;2007-04-04 23:00;CYQF 042300Z 14004KT 6SM -SN OVC026 M04/M09 A3038 RMK SC8 SLP353

CYQF;2007-04-05 00:00;CYQF 050000Z 15004KT 5SM -SN OVC015 M04/M09 A3038 RMK SC8 SLP354

CYQF;2007-04-05 01:00;CYQF 050100Z 15003KT 5SM -SN OVC015 M04/M09 A3039 RMK SC8 SLP356

CYQF;2007-04-05 02:00;CYQF 050200Z 15003KT 5SM -SN OVC020 M05/M08 A3039 RMK SC8 SLP357

CYQF;2007-04-05 03:00;CYQF 050300Z 00000KT 5SM -SN OVC020 M05/M08 A3040 RMK SC8 SLP358

CYQF;2007-04-05 04:00;CYQF 050400Z 00000KT 10SM -SN OVC025 M05/M08 A3041 RMK SC8 SLP360

CYQF;2007-04-05 05:00;CYQF 050500Z 07004KT 10SM -SN OVC020 M05/M07 A3041 RMK SC8 SLP361

CYQF;2007-04-05 06:00;CYQF 050600Z 07002KT 10SM -SN OVC020 M05/M07 A3042 RMK SC8 SLP358

CYQF;2007-04-05 07:00;CYQF 050700Z 09004KT 6SM -SN OVC020 M05/M07 A3042 RMK SC8 SLP359

CYQF;2007-04-05 08:00;CYQF 050800Z 09004KT 5SM -SN OVC020 M05/M07 A3043 RMK SN2SC6 SLP361

CYQF;2007-04-05 09:00;CYQF 050900Z 10002KT 5SM -SN OVC020 M05/M07 A3042 RMK SN2SC6 SLP357

CYQF;2007-04-05 10:00;CYQF 051000Z 12003KT 5SM -SN OVC020 M06/M08 A3042 RMK SN2SC6 SLP358

CYQF;2007-04-05 11:00;CYQF 051100Z 13003KT 6SM -SN OVC030 M06/M07 A3043 RMK SC8 SLP361

CYQF;2007-04-05 12:00;CYQF 051200Z 12002KT 6SM -SN OVC030 M06/M07 A3045 RMK SC8 SLP367

CYQF;2007-04-05 13:00;CYQF 051300Z 04002KT 3SM -SN OVC020 M06/M08 A3046 RMK SN3SC5 SLP370

CYQF;2007-04-05 13:18;CYQF 051318Z 04002KT 2SM -SN VV010 RMK SN8

CYQF;2007-04-05 13:46;CYQF 051346Z 08004KT 3SM -SN OVC015 RMK SN4SC4

CYQF;2007-04-05 14:00;CYQF 051400Z 08005KT 2 1/2SM -SN OVC015 M06/M07 A3046 RMK SN5SC3 SLP370

CYQF;2007-04-05 15:00;CYQF 051500Z 08003KT 2 1/2SM -SN OVC015 M05/M07 A3047 RMK SN5SC3 SLP374

CYQF;2007-04-05 15:40;CYQF 051540Z 00000KT 5SM -SN OVC006 RMK SN2SC6

CYQF;2007-04-05 16:00;CYQF 051600Z 09002KT 3SM -SN OVC006 M04/M07 A3048 RMK SN2SC6 SLP379

CYQF;2007-04-05 17:00;CYQF 051700Z 08003KT 6SM -SN OVC011 M04/M07 A3050 RMK SC8 SLP383

CYQF;2007-04-05 17:30;CYQF 051730Z 07006KT 8SM OVC011 RMK SC8

CYQF;2007-04-05 18:00;CYQF 051800Z 18006KT 8SM OVC012 M03/M07 A3051 RMK SC8 SLP388

CYQF;2007-04-05 18:16;CYQF 051816Z 07005KT 6SM -SN OVC012 RMK SC8

CYQF;2007-04-05 19:00;CYQF 051900Z 07007KT 6SM -SN OVC012 M03/M07 A3052 RMK SC6 SLP389

CYQF;2007-04-05 20:00;CYQF 052000Z 07008KT 8SM BKN016 M03/M06 A3054 RMK SC6 PIREP PA31 TOPS 080ASL NO ICE SLP396

CYQF;2007-04-05 21:00;CYQF 052100Z 07012KT 8SM BKN020 BKN080 M03/M07 A3054 RMK SC5AC2 CU/SHSN SE SLP398

CYQF;2007-04-05 22:00;CYQF 052200Z 08010KT 10SM SCT020 BKN080 M02/M07 A3056 RMK SC3AC3 TCU E SLP402

CYQF;2007-04-05 23:00;CYQF 052300Z 08007KT 7SM BKN020 OVC080 M03/M08 A3057 RMK SC6AC1 CU ASOCTD SLP406

CYQF;2007-04-05 23:23;CYQF 052323Z 10010KT 3SM -SN SCT010 BKN020 OVC080 RMK SF3SC3AC1

CYQF;2007-04-05 23:46;CYQF 052346Z 10007KT 1SM -SN BKN010 OVC020 RMK SF5SC3

CYQF;2007-04-06 00:00;CYQF 060000Z 09010KT 1 1/2SM -SN BKN010 OVC020 M04/M06 A3057 RMK SF5SC3 SLP410

CYQF;2007-04-06 00:13;CYQF 060013Z 09010KT 5SM -SHSN BKN010 OVC020 RMK SF5SC3 CU TOPS

CYQF;2007-04-06 01:00;CYQF 060100Z 10008KT 6SM -SN SCT010 OVC020 M04/M07 A3058 RMK SF3SC5 SLP412

CYQF;2007-04-06 01:25;CYQF 060125Z 10008KT 10SM FEW010 OVC020 RMK SF2SC5

CYQF;2007-04-06 02:00;CYQF 060200Z 14010KT 10SM BKN020 OVC080 M04/M08 A3059 RMK SC6AC2 SLP414

CYQF;2007-04-06 03:00;CYQF 060300Z 12008KT 10SM BKN020 OVC080 M05/M08 A3059 RMK SC6AC2 SLP415

CYQF;2007-04-06 04:00;CYQF 060400Z 12010KT 15SM BKN012 OVC080 M05/M08 A3059 RMK SC6AC2 SLP417

CYQF;2007-04-06 05:00;CYQF 060500Z 11008KT 15SM FEW012 BKN080 M06/M09 A3059 RMK SC2AC2 SLP415

CYQF;2007-04-06 06:00;CYQF 060600Z 14007KT 15SM SCT040 BKN220 M06/M09 A3059 RMK SC3CI2 SLP417

CYQF;2007-04-06 07:00;CYQF 060700Z 15007KT 15SM BKN030 OVC220 M07/M10 A3058 RMK SC6CI2 SLP413

CYQF;2007-04-06 08:00;CYQF 060800Z 15010G17KT 15SM OVC030 M07/M10 A3056 RMK SC8 SLP407

CYQF;2007-04-06 09:00;CYQF 060900Z 14012G20KT 15SM FEW030 SCT100 BKN220 M07/M11 A3055 RMK SC2AC2CI1 SLP402

CYQF;2007-04-06 10:00;CYQF 061000Z 14015G22KT 15SM BKN040 OVC100 M07/M11 A3053 RMK SC6AC2 SLP396

CYQF;2007-04-06 11:00;CYQF 061100Z 15015G22KT 15SM SCT030 OVC060 M08/M11 A3051 RMK SC3SC5 SLP388

CYQF;2007-04-06 12:00;CYQF 061200Z 15015G20KT 15SM OVC035 M08/M11 A3051 RMK SC8 SLP389

CYQF;2007-04-06 13:00;CYQF 061300Z 15012G18KT 15SM BKN037 OVC060 M08/M11 A3050 RMK SC5SC3 SLP388

CYQF;2007-04-06 14:00;CYQF 061400Z 14015G20KT 15SM BKN037 OVC200 M07/M11 A3050 RMK SC5CI3 SLP388

CYQF;2007-04-06 15:00;CYQF 061500Z 15017G22KT 15SM BKN035 OVC200 M07/M11 A3049 RMK SC6CI2 SLP384

CYQF;2007-04-06 16:00;CYQF 061600Z 14017G23KT 15SM BKN035 OVC200 M07/M11 A3048 RMK SC6CI2 SLP381

CYQF;2007-04-06 17:00;CYQF 061700Z 14017G22KT 15SM FEW016 OVC035 M06/M10 A3048 RMK CF1SC7 SLP380

CYQF;2007-04-06 18:00;CYQF 061800Z 14020G25KT 15SM FEW016 OVC035 M05/M09 A3046 RMK CF1SC7 SLP372

CYQF;2007-04-06 19:00;CYQF 061900Z 13020G25KT 15SM FEW015 OVC020 M04/M09 A3046 RMK SF1SC7 SLP372

CYQF;2007-04-06 20:00;CYQF 062000Z 15018G25KT 15SM FEW015 OVC020 M04/M09 A3045 RMK SF1SC7 SLP370

CYQF;2007-04-06 21:00;CYQF 062100Z 14020G25KT 15SM FEW015 OVC020 M04/M09 A3044 RMK SF1SC7 SLP364

CYQF;2007-04-06 22:00;CYQF 062200Z 15018KT 15SM FEW015 OVC045 M03/M09 A3042 RMK SF1SC7 SLP358

CYQF;2007-04-06 23:00;CYQF 062300Z 14015G22KT 15SM FEW015 OVC045 M03/M09 A3041 RMK SF2SC6 SLP354

CYQF;2007-04-07 00:00;CYQF 070000Z 15020G25KT 15SM OVC045 M03/M09 A3040 RMK SC8 SLP350

CYQF;2007-04-07 01:00;CYQF 070100Z 13018G25KT 15SM BKN040 M03/M09 A3037 RMK SC7 SLP343

CYQF;2007-04-07 02:00;CYQF 070200Z 13014G21KT 15SM BKN040 M04/M09 A3035 RMK SC7 SLP337

CYQF;2007-04-07 03:00;CYQF 070300Z 15012G18KT 15SM OVC035 M04/M09 A3034 RMK SC8 SLP329

CYQF;2007-04-07 04:00;CYQF 070400Z 16015G22KT 15SM OVC030 M04/M10 A3032 RMK SC8 SLP325

CYQF;2007-04-07 05:00;CYQF 070500Z 15013G18KT 15SM OVC030 M04/M10 A3031 RMK SC8 SLP320

CYQF;2007-04-07 06:00;CYQF 070600Z 16018G26KT 15SM OVC025 M04/M09 A3028 RMK SC8 SLP308

CYQF;2007-04-07 07:00;CYQF 070700Z 15018G25KT 15SM OVC030 M04/M09 A3025 RMK SC8 SLP299

CYQF;2007-04-07 08:00;CYQF 070800Z 15015G23KT 15SM OVC030 M04/M09 A3024 RMK SC8 SLP296

CYQF;2007-04-07 09:00;CYQF 070900Z 15015G22KT 15SM OVC030 M04/M09 A3021 RMK SC8 SLP283

CYQF;2007-04-07 10:00;CYQF 071000Z 15015G23KT 15SM OVC030 M04/M08 A3018 RMK SC8 SLP274

CYQF;2007-04-07 11:00;CYQF 071100Z 15015G23KT 15SM OVC030 M05/M08 A3016 RMK SC8 SLP267

CYQF;2007-04-07 12:00;CYQF 071200Z 15016G22KT 15SM OVC030 M05/M09 A3015 RMK SC8 SLP261

CYQF;2007-04-07 13:00;CYQF 071300Z 15012G18KT 15SM BKN030 BKN200 M06/M09 A3012 RMK SC6CI1 SLP253

CYQF;2007-04-07 14:00;CYQF 071400Z 16015KT 15SM BKN030 BKN200 M06/M09 A3011 RMK SC6CI1 SLP249

CYQF;2007-04-07 15:00;CYQF 071500Z 16015KT 15SM FEW030 FEW200 M06/M09 A3009 RMK SC1CI1 SLP242

CYQF;2007-04-07 16:00;CYQF 071600Z 15015KT 15SM FEW220 M05/M09 A3008 RMK CI1 CC ASOCTD SLP239

CYQF;2007-04-07 17:00;CYQF 071700Z 15015G20KT 15SM FEW220 M03/M07 A3007 RMK CI1 CC ASOCTD CONTRAILS SLP236

CYQF;2007-04-07 18:00;CYQF 071800Z 16015G21KT 15SM FEW015 FEW220 M02/M07 A3006 RMK CF1CI1 CC ASOCTD SLP227

CYQF;2007-04-07 19:00;CYQF 071900Z 15016G24KT 15SM SCT015 SCT250 M01/M06 A3005 RMK CU3CI1 SLP226

CYQF;2007-04-07 20:00;CYQF 072000Z 15015G22KT 15SM BKN020 BKN250 M00/M05 A3004 RMK CU5CC1 CONTRAILS SLP222

CYQF;2007-04-07 21:00;CYQF 072100Z 17020G25KT 15SM BKN020 01/M05 A3002 RMK CU7 SLP211

CYQF;2007-04-07 22:00;CYQF 072200Z 15017G23KT 15SM OVC020 01/M04 A3001 RMK SC7 CU ASOCTD SLP207

CYQF;2007-04-07 23:00;CYQF 072300Z 15014KT 15SM BKN020 BKN100 01/M04 A2998 RMK SC6AC1 SLP199

CYQF;2007-04-08 00:00;CYQF 080000Z 15013G22KT 15SM FEW020 BKN140 01/M04 A2995 RMK SC1AC4 SLP188

CYQF;2007-04-08 01:00;CYQF 080100Z 15013G20KT 15SM FEW030 BKN120 01/M04 A2994 RMK SC1AC4 SLP183

CYQF;2007-04-08 02:00;CYQF 080200Z 14010G15KT 15SM FEW030 BKN120 01/M04 A2992 RMK SC1AC2 SLP179

CYQF;2007-04-08 03:00;CYQF 080300Z 15011G17KT 15SM FEW120 M00/M05 A2990 RMK AC2 SLP173

CYQF;2007-04-08 04:00;CYQF 080400Z 17012G19KT 15SM SCT120 M01/M05 A2990 RMK AC2 SLP172

CYQF;2007-04-08 05:00;CYQF 080500Z 16013G19KT 15SM BKN120 M01/M06 A2988 RMK AC6 SLP167

CYQF;2007-04-08 06:00;CYQF 080600Z 17015G20KT 15SM OVC120 M01/M06 A2986 RMK AC8 SLP155

CYQF;2007-04-08 07:00;CYQF 080700Z 16013KT 15SM OVC120 M01/M06 A2984 RMK AC8 SLP147

CYQF;2007-04-08 08:00;CYQF 080800Z 17012KT 15SM BKN120 M01/M06 A2981 RMK AC7 SLP138

CYQF;2007-04-08 09:00;CYQF 080900Z 17011KT 15SM OVC120 M01/M06 A2978 RMK AC8 SLP125

CYQF;2007-04-08 10:00;CYQF 081000Z 17011KT 15SM SCT120 M01/M05 A2977 RMK AC4 SLP122

CYQF;2007-04-08 11:00;CYQF 081100Z 16008KT 15SM FEW120 M02/M06 A2977 RMK AC2 SLP120

CYQF;2007-04-08 12:00;CYQF 081200Z 15006KT 15SM FEW120 M02/M06 A2976 RMK AC1 SLP120

CYQF;2007-04-08 13:00;CYQF 081300Z 14005KT 15SM SCT120 M03/M06 A2976 RMK AC3 SLP118

CYQF;2007-04-08 14:00;CYQF 081400Z 17007KT 15SM BKN120 BKN220 M02/M05 A2975 RMK AC3CI0 SLP114

CYQF;2007-04-08 15:00;CYQF 081500Z 18010KT 15SM BKN120 BKN220 M01/M05 A2973 RMK AC3CI0 CC ASOCTD SLP108

CYQF;2007-04-08 16:00;CYQF 081600Z 16008KT 15SM FEW150 00/M04 A2972 RMK AC2 SLP105

CYQF;2007-04-08 17:00;CYQF 081700Z 15005KT 15SM FEW150 02/M03 A2972 RMK AC2 SLP105

CYQF;2007-04-08 18:00;CYQF 081800Z 15010KT 15SM FEW220 03/M02 A2972 RMK CC1 SLP099

CYQF;2007-04-08 19:00;CYQF 081900Z 14008KT 15SM FEW220 04/M01 A2971 RMK CI1 SLP097

CYQF;2007-04-08 20:00;CYQF 082000Z 15006KT 15SM FEW220 06/00 A2970 RMK CI1 SLP095

CYQF;2007-04-08 21:00;CYQF 082100Z 15010KT 15SM FEW220 07/01 A2969 RMK CI1 SLP087

CYQF;2007-04-08 22:00;CYQF 082200Z 14010KT 15SM FEW250 07/01 A2968 RMK CI2 SLP082

CYQF;2007-04-08 23:00;CYQF 082300Z 14010KT 15SM FEW120 FEW250 08/02 A2967 RMK AC1CI1 SLP079

CYQF;2007-04-09 00:00;CYQF 090000Z 15008KT 15SM FEW120 08/02 A2966 RMK AC2 SLP075

CYQF;2007-04-09 01:00;CYQF 090100Z 14008KT 15SM FEW120 08/02 A2965 RMK AC1 SLP071

CYQF;2007-04-09 02:00;CYQF 090200Z 12008KT 15SM FEW120 06/01 A2964 RMK AC1 SLP067

CYQF;2007-04-09 03:00;CYQF 090300Z 13007KT 15SM FEW120 04/M01 A2963 RMK AC1 SLP067

CYQF;2007-04-09 04:00;CYQF 090400Z 15006KT 15SM FEW120 03/M02 A2962 RMK AC1 SLP066

CYQF;2007-04-09 05:00;CYQF 090500Z 15006KT 15SM SKC 02/M02 A2960 RMK SLP060

CYQF;2007-04-09 06:00;CYQF 090600Z 18003KT 15SM SKC 02/M02 A2959 RMK SLP052

CYQF;2007-04-09 07:00;CYQF 090700Z 00000KT 15SM SKC 01/M03 A2956 RMK SLP044

CYQF;2007-04-09 08:00;CYQF 090800Z 15003KT 15SM FEW100 SCT200 01/M04 A2955 RMK AC1CC0 SLP039

CYQF;2007-04-09 09:00;CYQF 090900Z 14005KT 15SM BKN100 BKN200 01/M03 A2952 RMK AC5CI2 SLP026

CYQF;2007-04-09 10:00;CYQF 091000Z 13004KT 15SM BKN100 01/M02 A2949 RMK AC6 VIRGA SLP016

CYQF;2007-04-09 11:00;CYQF 091100Z 14006KT 15SM BKN100 BKN200 01/M03 A2948 RMK AC5CI1 SLP012

CYQF;2007-04-09 12:00;CYQF 091200Z 13007KT 15SM SCT100 BKN200 01/M03 A2946 RMK AC4CI2 SLP004

CYQF;2007-04-09 13:00;CYQF 091300Z 14009KT 15SM BKN100 BKN200 00/M03 A2944 RMK AC6CI2 VIRGA SLP996

CYQF;2007-04-09 14:00;CYQF 091400Z 14008KT 15SM BKN050 BKN100 01/M03 A2943 RMK SC6AC2 VIRGA/SHS SW-NW SLP993

CYQF;2007-04-09 15:00;CYQF 091500Z 14006KT 15SM SCT050 BKN100 BKN250 02/M03 A2941 RMK SC4AC2CI1 VIRGA/SHS SW-NW SLP989

CYQF;2007-04-09 16:00;CYQF 091600Z 14010KT 15SM SCT050 BKN100 OVC250 03/M03 A2940 RMK SC3AC2CI2 VIRGA W SLP984

CYQF;2007-04-09 17:00;CYQF 091700Z 12010KT 15SM SCT050 BKN100 OVC250 04/M02 A2939 RMK SC3AC2CI2 VIRGA SLP982

CYQF;2007-04-09 18:00;CYQF 091800Z 12013KT 15SM SCT050 OVC100 04/M02 A2938 RMK SC3AC4 VIRGA SLP979

CYQF;2007-04-09 19:00;CYQF 091900Z 12012KT 15SM SCT050 OVC100 06/M01 A2937 RMK SC3AC4 VIRGA SLP975

CYQF;2007-04-09 20:00;CYQF 092000Z 11010KT 15SM FEW030 OVC100 07/M00 A2936 RMK SC2AC4 VIRGA SLP974

CYQF;2007-04-09 21:00;CYQF 092100Z 11013KT 15SM SCT030 OVC100 07/M01 A2937 RMK SC3AC4 VIRGA SLP972

CYQF;2007-04-09 21:30;CYQF 092130Z 12008KT 10SM -RA BKN030 OVC100 RMK SC5AC3

CYQF;2007-04-09 22:00;CYQF 092200Z 11012KT 15SM -RA BKN037 OVC100 06/01 A2937 RMK SC5AC2 SLP973

CYQF;2007-04-09 22:28;CYQF 092228Z 11009KT 15SM BKN040 OVC100 RMK SC5AC2

CYQF;2007-04-09 23:00;CYQF 092300Z 11008KT 15SM SCT040 OVC090 08/00 A2938 RMK SC3AC4 VIRGA SLP975

CYQF;2007-04-10 00:00;CYQF 100000Z 12007KT 15SM SCT035 BKN090 09/00 A2939 RMK SC3AC3 SLP978

CYQF;2007-04-10 01:00;CYQF 100100Z 27003KT 15SM SCT035 OVC090 07/02 A2940 RMK SC3AC3 SLP982

CYQF;2007-04-10 02:00;CYQF 100200Z 30008KT 15SM BKN030 OVC090 05/02 A2942 RMK SC6AC2 SLP986

CYQF;2007-04-10 02:42;CYQF 100242Z 30012KT 5SM -RA OVC025 RMK SC8

CYQF;2007-04-10 03:00;CYQF 100300Z 30011KT 8SM -RA OVC025 04/02 A2943 RMK SC8 SLP994

CYQF;2007-04-10 03:29;CYQF 100329Z 31010KT 10SM OVC040 RMK SC8

CYQF;2007-04-10 04:00;CYQF 100400Z 30010KT 10SM -RA OVC030 04/02 A2944 RMK SC8 SLP998

CYQF;2007-04-10 05:00;CYQF 100500Z 33006KT 5SM -RA OVC020 03/02 A2946 RMK SC8 SLP003

CYQF;2007-04-10 06:00;CYQF 100600Z 32004KT 5SM -RA OVC011 02/01 A2946 RMK SC8 SLP006

CYQF;2007-04-10 07:00;CYQF 100700Z 34003KT 2 1/2SM -RA SCT004 OVC008 01/M00 A2946 RMK SF3SC5 SLP007

CYQF;2007-04-10 07:20;CYQF 100720Z 34003KT 2SM -RASN VV007 RMK SN8

CYQF;2007-04-10 08:00;CYQF 100800Z 06004KT 1SM -RASN BR VV008 00/M01 A2948 RMK SN8 SLP012

CYQF;2007-04-10 08:29;CYQF 100829Z 02003KT 1SM -SN BR VV008 RMK SN8

CYQF;2007-04-10 09:00;CYQF 100900Z 05005KT 1SM -SN BR VV016 00/M01 A2948 RMK SN8 SLP013

CYQF;2007-04-10 10:00;CYQF 101000Z 02003KT 1SM -SN BR VV003 00/M01 A2950 RMK SN8 /S01/ SLP019

CYQF;2007-04-10 11:00;CYQF 101100Z 00000KT 3/4SM -SN BR VV012 00/M01 A2952 RMK SN8 /S02/ SLP023

CYQF;2007-04-10 12:00;CYQF 101200Z CCA 00000KT 3/4SM -SN BR VV007 00/M01 A2953 RMK SN8 /S04/ SLP028

CYQF;2007-04-10 13:00;CYQF 101300Z 05005KT 3/4SM -SN BR VV008 M00/M02 A2956 RMK SN8 SLP036

CYQF;2007-04-10 13:28;CYQF 101328Z 06004KT 1/2SM -SN FZFG VV007 RMK SN8

CYQF;2007-04-10 13:51;CYQF 101351Z 06003KT 1SM -SN BR VV008 RMK SN8

CYQF;2007-04-10 14:00;CYQF 101400Z 05002KT 3/4SM -SN BR VV008 M01/M02 A2959 RMK SN8 SLP045

CYQF;2007-04-10 15:00;CYQF 101500Z 07003KT 3/4SM -SN BR VV007 M00/M02 A2961 RMK SN8 SLP060

CYQF;2007-04-10 16:00;CYQF 101600Z 07003KT 1SM -SN BR VV009 M00/M02 A2963 RMK SN8 SLP066

CYQF;2007-04-10 16:50;CYQF 101650Z 06002KT 1SM -SN BR OVC004 RMK SN6ST2

CYQF;2007-04-10 17:00;CYQF 101700Z 00000KT 1SM -SN BR OVC004 00/M01 A2966 RMK SN6ST2 SLP074

CYQF;2007-04-10 18:00;CYQF 101800Z 00000KT 1SM -SN BR OVC012 01/M01 A2968 RMK SN5ST3 SLP086

CYQF;2007-04-10 19:00;CYQF 101900Z 00000KT 2SM -SN BR OVC015 01/M01 A2970 RMK SN4SC3 SLP092

CYQF;2007-04-10 19:50;CYQF 101950Z 00000KT 6SM -SN BR OVC020 RMK SC6

CYQF;2007-04-10 20:00;CYQF 102000Z 00000KT 6SM BR OVC020 02/M01 A2972 RMK SC6 SLP097

CYQF;2007-04-10 21:00;CYQF 102100Z 01008KT 8SM BKN020 OVC100 02/M01 A2975 RMK SC5AS2 SLP109

CYQF;2007-04-10 21:51;CYQF 102151Z 02007KT 8SM -SN BKN020 OVC100 RMK SC6AS2

CYQF;2007-04-10 22:00;CYQF 102200Z 02007KT 8SM -SN BKN020 OVC100 02/M00 A2976 RMK SC6AS2 SLP114

CYQF;2007-04-10 23:00;CYQF 102300Z 08004KT 10SM -SN SCT020 OVC100 02/M01 A2978 RMK SC3AS5 SLP118

CYQF;2007-04-10 23:32;CYQF 102332Z 00000KT 10SM SCT010 OVC100 RMK SC3AS5

CYQF;2007-04-11 00:00;CYQF 110000Z 00000KT 2SM -SN OVC020 02/M01 A2981 RMK SC8 SLP133

CYQF;2007-04-11 01:00;CYQF 110100Z 00000KT 2SM -SN BKN020 OVC100 01/M00 A2982 RMK SC6AC2 SLP134

CYQF;2007-04-11 01:40;CYQF 110140Z 20005KT 10SM SCT020 OVC090 RMK SC3AC5

CYQF;2007-04-11 02:00;CYQF 110200Z 18003KT 10SM FEW010 BKN030 OVC090 01/00 A2984 RMK SF2SC4AC2 SLP140

CYQF;2007-04-11 03:00;CYQF 110300Z 19002KT 10SM SCT010 BKN030 OVC090 01/M00 A2985 RMK SF3SC3AC2 SLP146

CYQF;2007-04-11 04:00;CYQF 110400Z 13003KT 10SM SCT010 OVC030 01/M00 A2987 RMK SF3SC5 SLP153

CYQF;2007-04-11 05:00;CYQF 110500Z 14007KT 3SM BR FEW007 BKN030 BKN080 00/M01 A2987 RMK SF2SC2AC1 SLP154

CYQF;2007-04-11 05:19;CYQF 110519Z 14006KT 2SM BR VV005 RMK FG8

CYQF;2007-04-11 05:38;CYQF 110538Z 16006KT 3/4SM BR VV005 RMK FG8

CYQF;2007-04-11 06:00;CYQF 110600Z 17007KT 3/4SM BR VV005 00/M01 A2987 RMK FG8 SLP155

CYQF;2007-04-11 06:24;CYQF 110624Z 17005KT 1SM BR VV004 RMK FG8

CYQF;2007-04-11 07:00;CYQF 110700Z 16006KT 3/4SM BR VV004 00/M01 A2989 RMK FG8 SLP160

CYQF;2007-04-11 08:00;CYQF 110800Z 15003KT 3/4SM BR VV003 M00/M01 A2990 RMK FG8 SLP164

CYQF;2007-04-11 09:00;CYQF 110900Z 18005KT 1SM BR VV004 M00/M01 A2991 RMK FG8 SLP165

CYQF;2007-04-11 10:00;CYQF 111000Z 19005KT 3/4SM BR VV003 M01/M02 A2992 RMK FG8 SLP169

CYQF;2007-04-11 11:00;CYQF 111100Z 20004KT 3/4SM BR VV003 M01/M02 A2993 RMK FG8 SLP172

CYQF;2007-04-11 11:49;CYQF 111149Z 21004KT 1/2SM FZFG VV003 RMK FG8

CYQF;2007-04-11 12:00;CYQF 111200Z 23005KT 1/2SM FZFG VV003 M01/M02 A2994 RMK FG8 SLP177

CYQF;2007-04-11 13:00;CYQF 111300Z 00000KT 1/2SM FZFG VV003 M02/M03 A2994 RMK FG8 SLP179

CYQF;2007-04-11 13:04;CYQF 111304Z 20003KT 1/4SM FZFG VV002 RMK FG8

CYQF;2007-04-11 14:00;CYQF 111400Z 21003KT 1/4SM FZFG VV002 M02/M03 A2995 RMK FG8 SLP180

CYQF;2007-04-11 15:00;CYQF 111500Z 23003KT 1/8SM FZFG VV001 M02/M03 A2995 RMK FG8 SLP183

CYQF;2007-04-11 15:49;CYQF 111549Z 19002KT 1/2SM FZFG OVC250 RMK FG7CI0

CYQF;2007-04-11 16:00;CYQF 111600Z 22003KT 1SM BR BKN003 OVC250 M02/M03 A2995 RMK ST6CI0 SLP182

CYQF;2007-04-11 16:20;CYQF 111620Z 19003KT 3/4SM BR BKN003 OVC250 RMK FG2ST6CI0

CYQF;2007-04-11 17:00;CYQF 111700Z 18003KT 2SM BR SCT003 BKN090 OVC250 M01/M02 A2995 RMK FG2ST2AC2CI0 VIS S-SE 3/4 W-NW 4 SLP182

CYQF;2007-04-11 17:11;CYQF 111711Z 20004KT 3SM BR FEW003 SCT090 OVC250 RMK ST2AC1CS2 VIS S-SE 1

CYQF;2007-04-11 18:00;CYQF 111800Z 00000KT 10SM FEW015 FEW090 BKN250 01/M00 A2993 RMK CU1AC1CS2 SLP176

CYQF;2007-04-11 19:00;CYQF 111900Z 00000KT 15SM FEW030 FEW090 OVC250 04/M04 A2992 RMK CU1AC1CS2 SLP173

CYQF;2007-04-11 20:00;CYQF 112000Z 00000KT 15SM FEW040 OVC250 06/M05 A2991 RMK CU1CS2 SLP169

CYQF;2007-04-11 21:00;CYQF 112100Z 09003KT 15SM FEW050 BKN250 07/M05 A2990 RMK CU2CI1 SLP158

CYQF;2007-04-11 22:00;CYQF 112200Z 16003KT 15SM FEW050 OVC250 07/M06 A2989 RMK CU2CI1 SLP153

CYQF;2007-04-11 23:00;CYQF 112300Z 21007KT 15SM FEW050 OVC250 07/M08 A2987 RMK CU2CS2 SLP149

CYQF;2007-04-12 00:00;CYQF 120000Z 17006KT 15SM FEW050 BKN250 07/M07 A2986 RMK CU1CS2 SLP146

CYQF;2007-04-12 01:00;CYQF 120100Z 16007KT 15SM FEW050 BKN250 06/M07 A2985 RMK CU1CS2 SLP142

CYQF;2007-04-12 02:00;CYQF 120200Z 18003KT 15SM FEW120 BKN250 04/M03 A2984 RMK AC2CI2 SLP138

CYQF;2007-04-12 03:00;CYQF 120300Z 19003KT 15SM FEW120 BKN250 02/M03 A2984 RMK AC1CI2 SLP145

CYQF;2007-04-12 04:00;CYQF 120400Z 19004KT 15SM SCT250 02/M03 A2984 RMK CI2 SLP145

CYQF;2007-04-12 05:00;CYQF 120500Z 19004KT 15SM SKC 00/M03 A2984 RMK SLP145

CYQF;2007-04-12 06:00;CYQF 120600Z 18005KT 15SM SKC 01/M03 A2984 RMK SLP143

CYQF;2007-04-12 07:00;CYQF 120700Z 00000KT 15SM SKC 00/M04 A2985 RMK SLP145

CYQF;2007-04-12 08:00;CYQF 120800Z 00000KT 15SM FEW250 M02/M04 A2985 RMK CI2 SLP147

CYQF;2007-04-12 09:00;CYQF 120900Z 19002KT 15SM SKC M02/M04 A2985 RMK SLP142

CYQF;2007-04-12 10:00;CYQF 121000Z 20002KT 15SM SKC M03/M05 A2985 RMK SLP141

CYQF;2007-04-12 11:00;CYQF 121100Z 21002KT 15SM SKC M03/M04 A2986 RMK SLP144

CYQF;2007-04-12 12:00;CYQF 121200Z CCA 19002KT 10SM MIFG FEW250 M03/M05 A2986 RMK CI1 SLP149

CYQF;2007-04-12 13:00;CYQF 121300Z CCA 20002KT 12SM MIFG SCT250 M03/M04 A2987 RMK CI2 SLP150

CYQF;2007-04-12 14:00;CYQF 121400Z CCA 21003KT 12SM MIFG BKN250 M02/M04 A2987 RMK CI1 SLP152

CYQF;2007-04-12 15:00;CYQF 121500Z 21004KT 15SM SCT250 00/M02 A2988 RMK CI1 CONTRAILS SLP157

CYQF;2007-04-12 16:00;CYQF 121600Z 19003KT 15SM FEW250 02/M02 A2988 RMK CI1 SLP157

CYQF;2007-04-12 17:00;CYQF 121700Z 18005KT 15SM FEW250 05/M01 A2988 RMK CI1 SLP157

CYQF;2007-04-12 18:00;CYQF 121800Z 20008KT 15SM FEW250 08/M02 A2987 RMK CI1 SLP146

CYQF;2007-04-12 19:00;CYQF 121900Z 20008KT 15SM FEW250 09/M06 A2986 RMK CI0 SLP143

CYQF;2007-04-12 20:00;CYQF 122000Z 20008KT 15SM FEW250 10/M04 A2985 RMK CI0 SLP138

CYQF;2007-04-12 21:00;CYQF 122100Z 18008KT 15SM FEW250 11/M06 A2984 RMK CI0 SLP132

CYQF;2007-04-12 22:00;CYQF 122200Z 22008KT 15SM FEW250 11/M06 A2983 RMK CI1 SLP131

CYQF;2007-04-12 23:00;CYQF 122300Z 18010KT 15SM FEW060 SCT250 11/M04 A2983 RMK CU1CI2 TR CU SLP129

CYQF;2007-04-13 00:00;CYQF 130000Z 16010G15KT 15SM FEW060 BKN250 11/M05 A2982 RMK CU1CI2 SLP127

CYQF;2007-04-13 01:00;CYQF 130100Z 16010G15KT 15SM FEW080 SCT250 10/04 A2980 RMK AC1CI2 SLP123

CYQF;2007-04-13 02:00;CYQF 130200Z 15010KT 15SM FEW080 BKN250 08/M03 A2979 RMK AC2CI2 SLP120

CYQF;2007-04-13 03:00;CYQF 130300Z 17008KT 15SM FEW100 BKN250 05/M04 A2980 RMK AC2CI2 SLP124

CYQF;2007-04-13 04:00;CYQF 130400Z 23007KT 15SM FEW100 SCT250 04/M04 A2981 RMK AC2CI1 SLP128

CYQF;2007-04-13 05:00;CYQF 130500Z 21006KT 15SM FEW250 03/M04 A2984 RMK CI1 SLP136

CYQF;2007-04-13 06:00;CYQF 130600Z 25005KT 15SM FEW250 03/M03 A2985 RMK CI1 SLP134

CYQF;2007-04-13 07:00;CYQF 130700Z 22006KT 15SM FEW250 01/M04 A2985 RMK CI1 SLP135

CYQF;2007-04-13 08:00;CYQF 130800Z 15002KT 15SM SKC 00/M04 A2985 RMK SLP137

CYQF;2007-04-13 09:00;CYQF 130900Z 19004KT 15SM SKC 00/M05 A2985 RMK SLP137

CYQF;2007-04-13 10:00;CYQF 131000Z 00000KT 15SM SKC M00/M06 A2986 RMK SLP140

CYQF;2007-04-13 11:00;CYQF 131100Z 00000KT 15SM SKC M02/M06 A2990 RMK SLP151

CYQF;2007-04-13 12:00;CYQF 131200Z 20003KT 15SM SCT250 M03/M06 A2989 RMK CI1 SLP153

CYQF;2007-04-13 13:00;CYQF 131300Z 21002KT 15SM BKN250 M02/M06 A2988 RMK CI2 SLP150

CYQF;2007-04-13 14:00;CYQF 131400Z 21003KT 15SM FEW120 BKN250 M01/M04 A2989 RMK AC1CI2 SLP151

CYQF;2007-04-13 15:00;CYQF 131500Z 22004KT 15SM FEW120 BKN250 01/M03 A2988 RMK AC2CI2 SLP149

CYQF;2007-04-13 16:00;CYQF 131600Z 16005KT 15SM SCT120 BKN250 06/M02 A2986 RMK AC3CI2 SLP143

CYQF;2007-04-13 17:00;CYQF 131700Z 17008KT 15SM SCT120 OVC250 09/M01 A2983 RMK AC3CI2 SLP135

CYQF;2007-04-13 18:00;CYQF 131800Z 15008KT 15SM SCT120 BKN250 09/M01 A2981 RMK AC3CI2 SLP121

CYQF;2007-04-13 19:00;CYQF 131900Z 16011KT 15SM SCT120 BKN250 11/M01 A2979 RMK AC3CI2 SLP114

CYQF;2007-04-13 20:00;CYQF 132000Z 17015KT 15SM FEW120 BKN250 13/M01 A2976 RMK AC2CI2 SLP104

CYQF;2007-04-13 21:00;CYQF 132100Z 17008KT 15SM SCT120 BKN250 13/M01 A2973 RMK AC3CI2 SLP092

CYQF;2007-04-13 22:00;CYQF 132200Z 16010G15KT 15SM FEW100 BKN250 14/00 A2971 RMK AC2CI2 SLP085

CYQF;2007-04-13 23:00;CYQF 132300Z 17012KT 15SM FEW080 SCT140 BKN250 14/M01 A2969 RMK AC2AC2CI2 SLP078

CYQF;2007-04-14 00:00;CYQF 140000Z 15012KT 15SM FEW140 BKN250 16/00 A2967 RMK AC2CI2 SLP070

CYQF;2007-04-14 01:00;CYQF 140100Z 18008KT 15SM FEW120 BKN250 15/01 A2966 RMK AC2CI2 SLP066

CYQF;2007-04-14 02:00;CYQF 140200Z 24009KT 15SM FEW120 BKN250 12/01 A2965 RMK AC2CI3 SLP065

CYQF;2007-04-14 03:00;CYQF 140300Z 24003KT 15SM BKN120 BKN250 10/M01 A2966 RMK AC2CI2 SLP067

CYQF;2007-04-14 04:00;CYQF 140400Z 21004KT 15SM BKN120 BKN250 07/01 A2966 RMK AC5CI2 SLP069

CYQF;2007-04-14 05:00;CYQF 140500Z 24010KT 15SM BKN120 OVC250 07/M00 A2967 RMK AC5CI3 SLP071

CYQF;2007-04-14 06:00;CYQF 140600Z 24007KT 15SM BKN120 OVC250 07/M00 A2967 RMK AC6CI2 SLP067

CYQF;2007-04-14 07:00;CYQF 140700Z 22005KT 15SM OVC120 06/M00 A2966 RMK AC8 SLP065

CYQF;2007-04-14 08:00;CYQF 140800Z 23005KT 15SM OVC120 05/M00 A2966 RMK AC8 SLP063

CYQF;2007-04-14 09:00;CYQF 140900Z 20010KT 15SM BKN120 OVC250 06/M00 A2966 RMK AC6CI1 SLP059

CYQF;2007-04-14 10:00;CYQF 141000Z 22010KT 15SM OVC100 07/M00 A2966 RMK AC8 SLP059

CYQF;2007-04-14 11:00;CYQF 141100Z 23010KT 15SM OVC100 07/M00 A2966 RMK AC8 SLP061

CYQF;2007-04-14 12:00;CYQF 141200Z 22005KT 15SM BKN100 BKN250 05/M00 A2965 RMK AC6CI0 SLP055

CYQF;2007-04-14 13:00;CYQF 141300Z 22005KT 15SM FEW040 BKN100 BKN250 03/M00 A2965 RMK SC1AC5CI0 SLP055

CYQF;2007-04-14 14:00;CYQF 141400Z 20002KT 15SM SCT040 BKN100 BKN250 05/00 A2965 RMK SC3AC2CI1 SLP053

CYQF;2007-04-14 15:00;CYQF 141500Z 18004KT 15SM BKN040 BKN100 07/01 A2964 RMK SC5AC2 SLP056

CYQF;2007-04-14 16:00;CYQF 141600Z 23005KT 15SM FEW030 BKN100 08/01 A2963 RMK CU2AC6 SLP053

CYQF;2007-04-14 17:00;CYQF 141700Z 25007KT 15SM FEW030 BKN100 OVC250 10/01 A2962 RMK CU1AC6CI1 SLP051

CYQF;2007-04-14 18:00;CYQF 141800Z 23010G15KT 15SM FEW030 BKN120 BKN250 11/03 A2962 RMK CU1AC6CI1 SLP049

CYQF;2007-04-14 19:00;CYQF 141900Z 24010G15KT 15SM FEW030 BKN120 BKN250 13/03 A2961 RMK CU1AC6CI1 SLP045

CYQF;2007-04-14 20:00;CYQF 142000Z 23010G15KT 15SM FEW040 SCT120 OVC250 15/02 A2959 RMK CU1AC3CI2 SLP039

CYQF;2007-04-14 21:00;CYQF 142100Z 22010G15KT 15SM FEW040 SCT120 BKN250 17/01 A2959 RMK CU1AC3CI3 SLP034

CYQF;2007-04-14 22:00;CYQF 142200Z 21003KT 15SM FEW050 SCT120 BKN250 16/M00 A2958 RMK CU1AC3CI2 SLP031

CYQF;2007-04-14 23:00;CYQF 142300Z 00000KT 15SM FEW050 BKN120 BKN250 17/M01 A2958 RMK CU2AC2CI2 SLP030

CYQF;2007-04-15 00:00;CYQF 150000Z 00000KT 15SM BKN050 BKN120 OVC250 17/M00 A2958 RMK CU5AC2CI1 SLP029

CYQF;2007-04-15 00:26;CYQF 150026Z 29015G22KT 15SM -SHRA BKN050 BKN120 OVC250 RMK CU5AC2CI1 TCU ASOCTD

CYQF;2007-04-15 01:00;CYQF 150100Z 00000KT 15SM BKN050 BKN120 OVC250 14/03 A2959 RMK CU6AC1CI1 SLP032

CYQF;2007-04-15 02:00;CYQF 150200Z 35012G18KT 15SM BKN050 BKN120 BKN250 11/03 A2961 RMK CU6AC1CI1 VIRGA SLP040

CYQF;2007-04-15 02:05;CYQF 150205Z 35015G25KT 15SM -SHRA BKN050 BKN120 BKN250 RMK CU6AC1CI1

CYQF;2007-04-15 02:32;CYQF 150232Z 03010G15KT 15SM BKN050 BKN120 BKN250 RMK CU5AC1CI1

CYQF;2007-04-15 03:00;CYQF 150300Z 35015G22KT 15SM BKN050 BKN120 OVC250 08/02 A2968 RMK SC5AC2CI1 PRESRR SLP073

CYQF;2007-04-15 04:00;CYQF 150400Z 33015G20KT 15SM SCT050 BKN100 BKN250 07/M00 A2974 RMK SC4AC2CI1 SLP091

CYQF;2007-04-15 05:00;CYQF 150500Z 34010G15KT 15SM FEW050 SCT100 BKN250 04/M02 A2978 RMK SC1AC2CI0 SLP104

CYQF;2007-04-15 06:00;CYQF 150600Z 33009KT 15SM BKN100 BKN250 04/M02 A2980 RMK AC5CI0 SLP114

CYQF;2007-04-15 07:00;CYQF 150700Z 33003KT 15SM BKN100 OVC250 04/M02 A2983 RMK AC6CI2 SLP122

CYQF;2007-04-15 08:00;CYQF 150800Z 27003KT 15SM BKN100 OVC250 02/M02 A2984 RMK AC6CI2 SLP127

CYQF;2007-04-15 09:00;CYQF 150900Z 27004KT 15SM BKN100 OVC250 02/M03 A2986 RMK AC6CI1 SLP132

CYQF;2007-04-15 10:00;CYQF 151000Z 30008KT 15SM BKN100 01/M03 A2988 RMK AC7 SLP136

CYQF;2007-04-15 11:00;CYQF 151100Z 28005KT 15SM FEW100 SCT250 00/M04 A2989 RMK AC2CI1 SLP141

CYQF;2007-04-15 12:00;CYQF 151200Z 35005KT 15SM FEW100 BKN250 01/M05 A2992 RMK AC2CI1 SLP153

CYQF;2007-04-15 13:00;CYQF 151300Z 33006KT 15SM FEW100 BKN250 01/M06 A2995 RMK AC2CI1 SLP162

CYQF;2007-04-15 14:00;CYQF 151400Z 29002KT 15SM FEW040 FEW100 BKN250 01/M04 A2998 RMK CU1AC2CI1 SLP171

CYQF;2007-04-15 15:00;CYQF 151500Z 31002KT 15SM FEW080 BKN250 02/M04 A3000 RMK AC2CI2 SLP187

CYQF;2007-04-15 16:00;CYQF 151600Z 00000KT 15SM FEW080 BKN250 05/M03 A3001 RMK AC2CI2 SLP191

CYQF;2007-04-15 17:00;CYQF 151700Z 20003KT 15SM FEW040 FEW100 SCT250 07/M03 A3003 RMK CU1AC1CI1 SLP195

CYQF;2007-04-15 18:00;CYQF 151800Z 35005KT 15SM FEW045 FEW100 SCT250 08/M05 A3003 RMK CU1AC1CI1 SLP195

CYQF;2007-04-15 19:00;CYQF 151900Z 32007KT 15SM FEW050 SCT250 09/M05 A3002 RMK CU2CI1 TCU/SHWRS W SLP192

CYQF;2007-04-15 20:00;CYQF 152000Z 32008KT 15SM BKN050TCU 09/M05 A3001 RMK TCU5 SHWRS SW - NW SLP190

CYQF;2007-04-15 21:00;CYQF 152100Z 27006KT 15SM BKN050TCU BKN250 10/M03 A3001 RMK TCU5CI0 SHWRS ALQDS SLP191

CYQF;2007-04-15 22:00;CYQF 152200Z 31012G18KT 15SM SCT050TCU SCT100 10/M05 A3002 RMK TCU3AC1 SHWRS SW+NE SLP192

CYQF;2007-04-15 23:00;CYQF 152300Z 32005KT 15SM SCT050TCU BKN120 09/M04 A3002 RMK TCU3AC1 SLP193

CYQF;2007-04-16 00:00;CYQF 160000Z 21010KT 15SM FEW050TCU SCT120 09/M04 A3002 RMK TCU2AC0 SHWRS N SE SLP193

CYQF;2007-04-16 01:00;CYQF 160100Z 25004KT 15SM FEW050TCU SCT120 09/M03 A3003 RMK TCU2AC1 SHS NW VIRGA N SLP197

CYQF;2007-04-16 02:00;CYQF 160200Z 01003KT 15SM FEW050 FEW120 07/M03 A3005 RMK CU2AC1 TCU ASOCTD VIRGA SLP204

CYQF;2007-04-16 03:00;CYQF 160300Z 00000KT 15SM FEW120 FEW250 04/M03 A3006 RMK AC2CI1 SLP213

CYQF;2007-04-16 04:00;CYQF 160400Z 18004KT 15SM FEW120 01/M02 A3007 RMK AC1 SLP217

CYQF;2007-04-16 05:00;CYQF 160500Z 00000KT 15SM FEW100 01/M03 A3007 RMK AC1 SLP217

CYQF;2007-04-16 06:00;CYQF 160600Z 17005KT 15SM SKC M00/M03 A3006 RMK SLP213

CYQF;2007-04-16 07:00;CYQF 160700Z 18004KT 15SM SKC M00/M04 A3005 RMK SLP209

CYQF;2007-04-16 08:00;CYQF 160800Z 20004KT 15SM SKC 01/M04 A3004 RMK SLP206

CYQF;2007-04-16 09:00;CYQF 160900Z 18004KT 15SM SKC M01/M04 A3002 RMK SLP195

CYQF;2007-04-16 10:00;CYQF 161000Z 17006KT 15SM SKC M00/M05 A2999 RMK SLP188

CYQF;2007-04-16 11:00;CYQF 161100Z 16003KT 15SM SCT250 00/M04 A2997 RMK CI2 SLP181

CYQF;2007-04-16 12:00;CYQF 161200Z 19006KT 15SM FEW100 BKN250 M00/M05 A2995 RMK AC2CI2 SLP174

CYQF;2007-04-16 13:00;CYQF 161300Z 16006KT 15SM FEW100 BKN250 01/M05 A2994 RMK AC2CI2 SLP170

CYQF;2007-04-16 14:00;CYQF 161400Z 00000KT 15SM BKN100 BKN250 01/M04 A2992 RMK AC6CI1 SLP164

CYQF;2007-04-16 15:00;CYQF 161500Z 16010KT 15SM FEW100 FEW250 03/M04 A2990 RMK AC1CI0 SLP156

CYQF;2007-04-16 16:00;CYQF 161600Z 19012KT 15SM FEW100 07/M04 A2988 RMK AC1 SLP150

CYQF;2007-04-16 17:00;CYQF 161700Z 18010KT 15SM FEW240 10/M03 A2985 RMK CI1 SLP142

CYQF;2007-04-16 18:00;CYQF 161800Z 00000KT 15SM FEW240 12/M05 A2983 RMK CI1 SLP128

CYQF;2007-04-16 19:00;CYQF 161900Z 14010KT 15SM BKN250 14/M04 A2978 RMK CI2 PRESFR SLP114

CYQF;2007-04-16 20:00;CYQF 162000Z 15007KT 15SM BKN250 15/M03 A2974 RMK CI2 SLP101

CYQF;2007-04-16 21:00;CYQF 162100Z 15007KT 15SM FEW120 BKN250 15/M03 A2970 RMK AC1CI2 SLP078

CYQF;2007-04-16 22:00;CYQF 162200Z 16011G17KT 15SM SCT120 BKN250 16/M02 A2967 RMK AC3CI2 SLP069

CYQF;2007-04-16 23:00;CYQF 162300Z 18013G19KT 15SM SCT080 BKN200 16/M01 A2963 RMK AC4CI2 VIRGA SLP058

CYQF;2007-04-17 00:00;CYQF 170000Z 20011G17KT 15SM FEW050 SCT080 OVC200 14/M01 A2961 RMK SC1AC4CI4 VIRGA SLP049

CYQF;2007-04-17 01:00;CYQF 170100Z 18014KT 15SM FEW050 BKN080 BKN250 13/M01 A2958 RMK SC1AC5CI1 VIRGA SLP041

CYQF;2007-04-17 02:00;CYQF 170200Z 18012G18KT 15SM FEW050 BKN080 BKN200 13/M01 A2958 RMK SC1AC4CI2 SLP039

CYQF;2007-04-17 03:00;CYQF 170300Z 15008KT 15SM FEW100 BKN250 11/M01 A2956 RMK AC2CI1 SLP031

CYQF;2007-04-17 04:00;CYQF 170400Z 22006KT 15SM FEW100 BKN200 07/M01 A2959 RMK AC1CI1 SLP040

CYQF;2007-04-17 05:00;CYQF 170500Z 27009KT 15SM FEW100 BKN200 07/M02 A2962 RMK AC1CI1 OBS TAKEN +17 SLP049

CYQF;2007-04-17 06:00;CYQF 170600Z 26010KT 15SM FEW100 SCT250 06/M02 A2962 RMK AC1CI1 SLP049

CYQF;2007-04-17 07:00;CYQF 170700Z 27006KT 15SM FEW100 SCT250 05/M03 A2965 RMK AC1CI0 SLP057

CYQF;2007-04-17 08:00;CYQF 170800Z 28006KT 15SM FEW250 06/M04 A2966 RMK CI0 SLP060

CYQF;2007-04-17 09:00;CYQF 170900Z 27006KT 15SM FEW250 04/M04 A2966 RMK CI1 SLP061

CYQF;2007-04-17 10:00;CYQF 171000Z 27006KT 15SM FEW250 04/M04 A2968 RMK CI1 OBS TAKEN +9 SLP068

CYQF;2007-04-17 11:00;CYQF 171100Z 19004KT 15SM FEW250 00/M05 A2970 RMK CI1 SLP072

CYQF;2007-04-17 12:00;CYQF 171200Z 19005KT 15SM FEW120 BKN250 M01/M04 A2973 RMK AC2CI2 SLP089

CYQF;2007-04-17 13:00;CYQF 171300Z 11002KT 15SM BKN120 BKN250 00/M08 A2975 RMK AC5CI1 SLP095

CYQF;2007-04-17 14:00;CYQF 171400Z 00000KT 15SM FEW050 BKN120 01/M04 A2976 RMK SC1AC5 SLP100

CYQF;2007-04-17 15:00;CYQF 171500Z 00000KT 15SM FEW080 OVC220 03/M03 A2978 RMK AC2CI4 SLP107

CYQF;2007-04-17 16:00;CYQF 171600Z 00000KT 15SM FEW080 BKN220 05/M02 A2980 RMK AC2CI5 SLP113

CYQF;2007-04-17 17:00;CYQF 171700Z 36003KT 15SM FEW080 BKN220 08/M04 A2980 RMK AC2CI4 SLP115

CYQF;2007-04-17 18:00;CYQF 171800Z 03006KT 15SM FEW080 SCT220 11/M03 A2980 RMK AC2CI2 SLP111

CYQF;2007-04-17 19:00;CYQF 171900Z 05005KT 15SM FEW050 FEW100 FEW250 12/M02 A2980 RMK CU1AC1CI1 SLP110

CYQF;2007-04-17 20:00;CYQF 172000Z 05003KT 15SM SCT055 SCT100 11/M04 A2978 RMK CU3AC1 SLP104

CYQF;2007-04-17 21:00;CYQF 172100Z 07010G15KT 15SM BKN060 13/M03 A2977 RMK CU5 VIRGA SW SLP103

CYQF;2007-04-17 22:00;CYQF 172200Z 08010G15KT 15SM BKN060TCU 13/M02 A2977 RMK TCU6 SHWRS SW SLP102

CYQF;2007-04-17 23:00;CYQF 172300Z 09009KT 15SM BKN060TCU 12/M03 A2976 RMK TCU6 SH NW SLP100

CYQF;2007-04-18 00:00;CYQF 180000Z 34003KT 15SM BKN060 BKN250 12/M03 A2977 RMK CU6CI1 TCU ASOCTD SH DIST N SLP109

CYQF;2007-04-18 01:00;CYQF 180100Z 34014G20KT 15SM BKN060 BKN250 09/01 A2979 RMK CU5CI0 TCU ASOCTD VIRGA SLP113

CYQF;2007-04-18 02:00;CYQF 180200Z 35014KT 15SM BKN050TCU BKN100 06/01 A2981 RMK TCU5AC2 MAMMATUS S QUAD SHS/VIRGA S+W SLP119

CYQF;2007-04-18 03:00;CYQF 180300Z 35010G20KT 15SM BKN050 BKN100 05/01 A2984 RMK CU5AC2 TCU ASOCTD SHS/VIRGA ALQDS SLP136

CYQF;2007-04-18 04:00;CYQF 180400Z 35012KT 15SM SCT050 BKN075 05/01 A2987 RMK SC3AC4 SLP146

CYQF;2007-04-18 04:26;CYQF 180426Z 34010KT 15SM -SHRA BKN050 OVC075 RMK SC5AC3

CYQF;2007-04-18 05:00;CYQF 180500Z 33013KT 15SM -SHRA FEW006 OVC040 04/01 A2989 RMK SF1SC7 SLP150

CYQF;2007-04-18 05:30;CYQF 180530Z 33013KT 15SM FEW008 BKN040 OVC100 RMK SF2SC3AC3

CYQF;2007-04-18 06:00;CYQF 180600Z 33010KT 15SM FEW008 SCT040 BKN100 03/01 A2989 RMK SF2SC2AC3 SLP145

CYQF;2007-04-18 06:45;CYQF 180645Z 33010G15KT 15SM FEW005 OVC022 RMK SF2SC6

CYQF;2007-04-18 07:00;CYQF 180700Z 33010G15KT 15SM FEW005 OVC022 02/00 A2989 RMK SF2SC6 SLP146

CYQF;2007-04-18 08:00;CYQF 180800Z 32015G20KT 15SM FEW005 OVC020 02/00 A2990 RMK SF2SC6 SLP149

CYQF;2007-04-18 09:00;CYQF 180900Z 33012G18KT 15SM FEW005 BKN025 02/00 A2987 RMK SF2SC4 SLP139

CYQF;2007-04-18 10:00;CYQF 181000Z 33012G19KT 15SM FEW005 FEW025 BKN100 02/M00 A2988 RMK SF1SC2AC4 SLP141

CYQF;2007-04-18 11:00;CYQF 181100Z 34010G15KT 15SM FEW008 BKN015 OVC025 02/M00 A2988 RMK SF1SC6SC2 SLP142

CYQF;2007-04-18 11:20;CYQF 181120Z 35010G15KT 15SM BKN010 OVC025 RMK ST6SC2

CYQF;2007-04-18 11:40;CYQF 181140Z 34010G15KT 15SM FEW009 SCT025 BKN100 RMK ST2SC2AC2

CYQF;2007-04-18 12:00;CYQF 181200Z 34010G15KT 15SM FEW009 SCT025 SCT100 01/M00 A2988 RMK ST1SC2AC1 SLP144

CYQF;2007-04-18 12:36;CYQF 181236Z 34010G17KT 15SM SCT005 SCT025 OVC200 RMK SF2SC2CI4

CYQF;2007-04-18 13:00;CYQF 181300Z 33012G17KT 15SM FEW005 SCT025 OVC200 01/M00 A2988 RMK SF2SC2CI3 SLP143

CYQF;2007-04-18 13:41;CYQF 181341Z 34010G15KT 15SM -SHGS BKN006 OVC025 RMK SF6SC2

CYQF;2007-04-18 14:00;CYQF 181400Z 35010G15KT 15SM BKN005 OVC025 02/00 A2989 RMK SF6SC2 SLP146

CYQF;2007-04-18 14:48;CYQF 181448Z 36010G16KT 15SM -RA BKN006 OVC030 RMK SF6SC2

CYQF;2007-04-18 15:00;CYQF 181500Z 01015KT 15SM -RA BKN006 OVC030 02/00 A2989 RMK SF6SC2 SLP152

CYQF;2007-04-18 16:00;CYQF 181600Z 36014KT 6SM -RASN BKN004 OVC030 02/00 A2988 RMK SF7SC1 CIG RAG VIS LWR N SLP150

CYQF;2007-04-18 16:13;CYQF 181613Z 01010G16KT 1 1/2SM -SN OVC004 RMK SN3ST5 VIS LWR N-E

CYQF;2007-04-18 16:33;CYQF 181633Z 36011KT 3/4SM -SN OVC003 RMK SN4ST4

CYQF;2007-04-18 17:00;CYQF 181700Z CCA 36007KT 1/2SM SN VV002 00/M02 A2989 RMK SN8 SLP152

CYQF;2007-04-18 18:00;CYQF 181800Z 34007KT 1 1/2SM -SN OVC009 01/M00 A2988 RESN RMK SN4ST4 SLP154

CYQF;2007-04-18 18:13;CYQF 181813Z 34007KT 1 1/2SM -SN OVC005 RMK SN5ST3

CYQF;2007-04-18 19:00;CYQF 181900Z 34009KT 4SM -SN OVC005 01/M00 A2988 RMK ST8 CIG RAG SLP153

CYQF;2007-04-18 19:42;CYQF 181942Z 36009KT 3SM -RASN BKN005 OVC010 RMK SF7SC1 CIR RAG

CYQF;2007-04-18 20:00;CYQF 182000Z 35013KT 6SM BKN004 OVC010 02/01 A2986 RMK SF6SC2 CIG RAG SLP149

CYQF;2007-04-18 20:31;CYQF 182031Z 33010G15KT 6SM -RA BKN007 OVC020 RMK SF5SC3 CIG RAG

CYQF;2007-04-18 21:00;CYQF 182100Z 35010KT 6SM -SHRA BKN006 OVC020 03/02 A2986 RMK SF5SC3 CIG RAG SLP146

CYQF;2007-04-18 21:46;CYQF 182146Z 33009KT 6SM -SHRA FEW006 OVC020 RMK SF2SC6

CYQF;2007-04-18 22:00;CYQF 182200Z 33012KT 6SM -SHRA SCT006 OVC016 04/02 A2985 RMK SF3SC5 SLP141

CYQF;2007-04-18 22:50;CYQF 182250Z 01010KT 2SM -SHRA BR BKN008 OVC015 RMK SF6SC2 CIG RAG

CYQF;2007-04-18 23:00;CYQF 182300Z 02007KT 2SM -SHRA BR BKN008 OVC015 04/03 A2986 RMK SF6SC2 CIG RAG SLP145

CYQF;2007-04-19 00:00;CYQF 190000Z 04014KT 2SM -RA BR BKN008 OVC015 03/02 A2986 RMK SF6SC2 CIG RAG /S02/ SLP146

CYQF;2007-04-19 00:54;CYQF 190054Z 02012KT 2SM -RASN BR OVC006 RMK ST8

CYQF;2007-04-19 01:00;CYQF 190100Z 02011KT 2SM -RASN BR OVC006 01/00 A2987 RMK ST8 CIG RAG SLP148

CYQF;2007-04-19 01:36;CYQF 190136Z 36012KT 1SM -SN BR OVC005 RMK ST8 CIG RAG

CYQF;2007-04-19 02:00;CYQF 190200Z 35009KT 1SM -SN BR OVC005 00/M01 A2987 RMK ST8 CIG RAG SLP148

CYQF;2007-04-19 03:00;CYQF 190300Z 34010KT 1SM -SN BR OVC006 00/M01 A2986 RMK ST8 CIG RAG SLP147

CYQF;2007-04-19 03:44;CYQF 190344Z 34013G19KT 2SM -SN BR OVC008 RMK SN2ST6

CYQF;2007-04-19 04:00;CYQF 190400Z 34012G18KT 2SM -SN BR OVC008 00/M01 A2984 RMK SN2ST6 /S01/ SLP142

CYQF;2007-04-19 05:00;CYQF 190500Z 35011G18KT 2SM -SN BR OVC007 01/M01 A2982 RMK SN2ST6 /S02/ CIG RAG SLP135

CYQF;2007-04-19 05:19;CYQF 190519Z 35011G17KT 6SM -SN BR OVC007 RMK ST8

CYQF;2007-04-19 06:00;CYQF 190600Z 35013G19KT 3SM -SN BR OVC007 01/M01 A2982 RMK ST8 CIG RAG SLP137

CYQF;2007-04-19 06:17;CYQF 190617Z 36015KT 3/4SM -SN BR OVC007 RMK SN4ST4

CYQF;2007-04-19 06:26;CYQF 190626Z 35014KT 1 1/2SM -SN BR OVC008 RMK SN4ST4

CYQF;2007-04-19 06:37;CYQF 190637Z 35014KT 3SM -SN BR OVC008 RMK ST8

CYQF;2007-04-19 07:00;CYQF 190700Z 35012G18KT 6SM -SN BR BKN007 OVC012 01/M01 A2981 RMK ST6SC2 SLP133

CYQF;2007-04-19 08:00;CYQF 190800Z 36013KT 6SM -SN BR OVC006 00/M01 A2979 RMK ST8 SLP127

CYQF;2007-04-19 09:00;CYQF 190900Z 35012KT 3SM -SN BR OVC006 01/M01 A2976 RMK ST8 SLP112

CYQF;2007-04-19 09:16;CYQF 190916Z 33010G15KT 1 1/2SM -SN BR OVC005 RMK ST8

CYQF;2007-04-19 10:00;CYQF 191000Z 34010G15KT 3SM -SN BR OVC004 01/M01 A2975 RMK ST8 SLP109

CYQF;2007-04-19 11:00;CYQF 191100Z 34015G20KT 3SM -SN BR OVC004 01/M01 A2976 RMK ST8 SLP113

CYQF;2007-04-19 11:29;CYQF 191129Z 35015G20KT 1 1/2SM -SN BR OVC005 RMK ST8

CYQF;2007-04-19 11:45;CYQF 191145Z 33010G15KT 2SM -SN BR OVC005 RMK ST8

CYQF;2007-04-19 12:00;CYQF 191200Z 33010G17KT 2SM -SN BR OVC005 01/M01 A2975 RMK ST8 SLP107

CYQF;2007-04-19 12:16;CYQF 191216Z 34015G20KT 3SM -SN BR OVC005 RMK ST8

CYQF;2007-04-19 13:00;CYQF 191300Z 33010G15KT 3SM -SN BR OVC006 01/M01 A2977 RMK ST8 SLP116

CYQF;2007-04-19 13:09;CYQF 191309Z 33012KT 1SM -SN BR OVC006 RMK SN2ST6

CYQF;2007-04-19 14:00;CYQF 191400Z 33015KT 2SM -SN BR BKN006 OVC050 01/M01 A2976 RMK SN1ST6SC1 SLP111

CYQF;2007-04-19 14:38;CYQF 191438Z 31012KT 6SM -SN BKN006 BKN050 BKN250 RMK SF6SC2CC1

CYQF;2007-04-19 15:00;CYQF 191500Z 31014KT 10SM -SN BKN006 BKN050 BKN100 BKN250 01/M01 A2975 RMK SF5SC1AC1CC0 SLP112

CYQF;2007-04-19 15:34;CYQF 191534Z 31014G20KT 15SM SCT006 SCT100 BKN250 RMK SF3AC1CC2

CYQF;2007-04-19 15:50;CYQF 191550Z 33016KT 15SM BKN006 BKN100 BKN250 RMK CF5AC1CC2

CYQF;2007-04-19 16:00;CYQF 191600Z 33015G20KT 15SM BKN006 BKN250 02/M00 A2975 RMK CU7CC1 SLP110

CYQF;2007-04-19 16:31;CYQF 191631Z 33013G20KT 15SM OVC011 RMK SC8

CYQF;2007-04-19 17:00;CYQF 191700Z 33013G18KT 15SM OVC010 02/M01 A2975 RMK SC8 SH DIST N VIS LWR N SLP112

CYQF;2007-04-19 18:00;CYQF 191800Z 33015G20KT 10SM OVC010 02/M01 A2977 RMK SC8 SLP118

CYQF;2007-04-19 18:44;CYQF 191844Z 33012G17KT 10SM -SN BKN011 OVC030 RMK SC6SC2

CYQF;2007-04-19 19:00;CYQF 191900Z 33010G17KT 8SM -SN BKN011 OVC030 02/M01 A2977 RMK SC6SC2 CIR RAG SLP119

CYQF;2007-04-19 19:43;CYQF 191943Z 33015G20KT 2SM -SN BKN012 OVC030 RMK SF6SC2

CYQF;2007-04-19 20:00;CYQF 192000Z 33012G18KT 1 1/2SM -SN OVC011 02/00 A2977 RMK SN2SF6 SLP119

CYQF;2007-04-19 21:00;CYQF 192100Z 33009KT 1 1/2SM -SN VV007 01/M00 A2977 RMK SN8 SLP120

CYQF;2007-04-19 22:00;CYQF 192200Z 33010KT 1 1/4SM -SN VV004 01/M00 A2978 RMK SN8 VIS VRB 3/4-2 SLP123

CYQF;2007-04-19 22:34;CYQF 192234Z 32006KT 3/8SM -SN FG VV004 RMK SN8

CYQF;2007-04-19 23:00;CYQF 192300Z CCA 34008KT 3/8SM SN FG VV004 00/M01 A2979 RMK SN8 /S02/ SLP125

CYQF;2007-04-19 23:42;CYQF 192342Z 34010KT 1/2SM SN VV005 RMK SN8

CYQF;2007-04-20 00:00;CYQF 200000Z 33008KT 1/2SM SN VV005 00/M01 A2979 RMK SN8 /S04/ SLP127

CYQF;2007-04-20 00:17;CYQF 200017Z 34010G15KT 1SM -SN VV007 RMK SN8

CYQF;2007-04-20 01:00;CYQF 200100Z 33010KT 1 3/4SM -SN VV008 00/M00 A2980 RMK SN8 /S01/ SLP129

CYQF;2007-04-20 02:00;CYQF 200200Z 33008KT 1 1/2SM -SN VV006 00/M01 A2980 RMK SN8 SLP130

CYQF;2007-04-20 03:00;CYQF 200300Z 32010KT 1 1/2SM -SN VV006 01/M01 A2980 RMK SN8 /S02/ SLP127

CYQF;2007-04-20 04:00;CYQF 200400Z 34009KT 1 1/2SM -SN VV007 00/M01 A2980 RMK SN8 SLP127

CYQF;2007-04-20 05:00;CYQF 200500Z 34013KT 1 1/2SM -SN VV008 00/M01 A2978 RMK SN8 SLP122

CYQF;2007-04-20 06:00;CYQF 200600Z 33012KT 1 1/2SM -SN VV008 00/M01 A2977 RMK SN8 /S03/ SLP118

CYQF;2007-04-20 06:27;CYQF 200627Z 32013KT 1/2SM SN VV006 RMK SN8

CYQF;2007-04-20 06:45;CYQF 200645Z 32011KT 1SM -SN VV007 RESN RMK SN8

CYQF;2007-04-20 07:00;CYQF 200700Z 31011KT 1 1/2SM -SN VV008 00/M01 A2976 RMK SN8 /S02/ SLP115

CYQF;2007-04-20 07:25;CYQF 200725Z 32009KT 2SM -SN VV014 RMK SN8

CYQF;2007-04-20 08:00;CYQF 200800Z 33008KT 2SM -SN VV014 00/M01 A2976 RMK SN8 SLP116

CYQF;2007-04-20 08:27;CYQF 200827Z 33010KT 1 1/2SM -SN VV008 RMK SN8

CYQF;2007-04-20 09:00;CYQF 200900Z CCA 34010KT 1 1/2SM -SN VV008 M00/M01 A2976 RMK SN8 /S03/ SLP116

CYQF;2007-04-20 09:21;CYQF 200921Z 33007KT 3/4SM -SN VV006 RMK SN8

CYQF;2007-04-20 10:00;CYQF 201000Z 31008KT 1 1/2SM -SN VV015 M00/M01 A2976 RMK SN8 /S04/ SLP116

CYQF;2007-04-20 10:35;CYQF 201035Z 32007KT 1SM -SN VV012 RMK SN8

CYQF;2007-04-20 11:00;CYQF 201100Z 32010KT 1SM -SN VV012 M00/M01 A2977 RMK SN8 SLP118

CYQF;2007-04-20 11:32;CYQF 201132Z 32007KT 1/2SM SN VV006 RMK SN8

CYQF;2007-04-20 11:42;CYQF 201142Z 31005KT 1SM -SN VV012 RESN RMK SN8

CYQF;2007-04-20 12:00;CYQF 201200Z CCA 32005KT 1SM -SN VV011 M00/M01 A2976 RESN RMK SN8 /S06/ SLP117

CYQF;2007-04-20 12:40;CYQF 201240Z 32008KT 3SM -SN OVC010 RMK ST8

CYQF;2007-04-20 13:00;CYQF 201300Z 32007KT 2SM -SN BR FEW003 OVC010 M00/M01 A2976 RMK SF2SC6 VIS VRB 1-3 SLP115

CYQF;2007-04-20 13:35;CYQF 201335Z CCA 33008KT 1 1/2SM -SN BR OVC008 RMK SN3ST5 VIS VRB 1-2

CYQF;2007-04-20 14:00;CYQF 201400Z 33008KT 1 1/4SM -SN BR OVC006 M00/M01 A2976 RMK SN4ST4 VIS VRB 3/4-2 SLP115

CYQF;2007-04-20 15:00;CYQF 201500Z 31007KT 1SM -SN BR OVC006 M00/M01 A2976 RMK SN3ST5 SLP115

CYQF;2007-04-20 15:43;CYQF 201543Z 30009KT 1 1/2SM -SN BR OVC008 RMK SN3ST5

CYQF;2007-04-20 16:00;CYQF 201600Z 32008KT 1 1/2SM -SN BR OVC008 M00/M01 A2976 RMK SN2ST6 SLP115

CYQF;2007-04-20 16:37;CYQF 201637Z 32009KT 3/4SM -SN BR OVC006 RMK SN3ST5

CYQF;2007-04-20 17:00;CYQF 201700Z 32006KT 3/4SM -SN BR OVC006 M00/M01 A2976 RMK SN4ST4 SLP116

CYQF;2007-04-20 18:00;CYQF 201800Z 32009KT 3/4SM -SN BR OVC005 M00/M01 A2976 RMK SN6ST2 /S03/ SLP116

CYQF;2007-04-20 19:00;CYQF 201900Z 31008KT 1SM -SN BR OVC007 M00/M01 A2976 RMK SN5ST3 /S02/ SLP116

CYQF;2007-04-20 19:37;CYQF 201937Z 32006KT 1SM -SN BR OVC008 RMK SN4ST4

CYQF;2007-04-20 20:00;CYQF 202000Z 31007KT 1 1/2SM -SN BR OVC007 00/M01 A2976 RMK SN4ST4 VIS VRB 1-2 /S05/ SLP117

CYQF;2007-04-20 21:00;CYQF 202100Z 33009KT 1 1/2SM -SN BR OVC008 00/M01 A2976 RMK SN3ST5 VIS VRB 1-2 SLP118

CYQF;2007-04-20 22:00;CYQF 202200Z 34010KT 1 1/2SM -SN BR OVC008 00/M01 A2976 RMK SN3ST5 VIS VRB 1-2 SLP115

CYQF;2007-04-20 23:00;CYQF 202300Z 33009KT 3/4SM -SN BR VV008 00/M01 A2976 RMK SN8 /S06/ SLP115

CYQF;2007-04-21 00:00;CYQF 210000Z 32008KT 3/4SM -SN BR VV008 00/M01 A2976 RMK SN8 SLP116

CYQF;2007-04-21 00:32;CYQF 210032Z 33008KT 1/2SM SN FG VV005 RMK SN8

CYQF;2007-04-21 01:00;CYQF 210100Z 33003KT 1SM -SN BR VV008 00/M01 A2976 RMK SN8 SLP117

CYQF;2007-04-21 01:31;CYQF 210131Z 30007KT 4SM -SN BR SCT005 OVC011 RMK SF3ST5

CYQF;2007-04-21 01:54;CYQF 210154Z 33004KT 1 1/2SM -SN BR VV008 RMK SN8

CYQF;2007-04-21 02:00;CYQF 210200Z 33006KT 1 1/2SM -SN BR VV008 00/M01 A2977 RMK SN8 SLP119

CYQF;2007-04-21 02:23;CYQF 210223Z 33007KT 3SM -SN BR SCT005 OVC011 RMK SF3ST5

CYQF;2007-04-21 03:00;CYQF 210300Z 32007KT 6SM -SN BR SCT005 OVC011 00/M01 A2978 RMK SF3ST5 SLP122

CYQF;2007-04-21 03:13;CYQF 210313Z 32006KT 10SM FEW005 OVC011 RMK SF2ST6

CYQF;2007-04-21 04:00;CYQF 210400Z 33007KT 10SM FEW005 BKN011 OVC040 00/M01 A2979 RMK SF2ST3SC2 SLP125

CYQF;2007-04-21 04:37;CYQF 210437Z 33007KT 10SM -SN FEW005 OVC013 RMK SF2SC6

CYQF;2007-04-21 05:00;CYQF 210500Z 31006KT 10SM -SN OVC012 00/M01 A2979 RMK SC8 SLP125

CYQF;2007-04-21 06:00;CYQF 210600Z 30004KT 10SM -SN OVC011 00/M01 A2979 RMK SC8 SLP127

CYQF;2007-04-21 07:00;CYQF 210700Z 32007KT 2SM -SN SCT008 OVC012 00/M01 A2979 RMK SF3SC5 SLP127

CYQF;2007-04-21 08:00;CYQF 210800Z 31008KT 2SM -SN FEW006 OVC010 00/M01 A2979 RMK SF2SC6 SLP126

CYQF;2007-04-21 09:00;CYQF 210900Z 31005KT 2SM -SN OVC008 00/M01 A2979 RMK ST8 SLP127

CYQF;2007-04-21 09:31;CYQF 210931Z 31008KT 8SM OVC008 RMK ST8

CYQF;2007-04-21 10:00;CYQF 211000Z 30004KT 6SM -SN OVC008 00/M01 A2979 RMK ST8 SLP126

CYQF;2007-04-21 11:00;CYQF 211100Z 30008KT 10SM -SN OVC008 00/M01 A2979 RMK ST8 VIS LWR S SLP127

CYQF;2007-04-21 12:00;CYQF 211200Z CCA 29010KT 10SM -SN OVC008 00/M01 A2979 RMK ST8 VIS LWR S SLP128

CYQF;2007-04-21 12:43;CYQF 211243Z 31007KT 8SM OVC008 RMK ST8

CYQF;2007-04-21 13:00;CYQF 211300Z 31006KT 10SM SCT008 OVC015 00/M01 A2981 RMK SF4SC4 SLP132

CYQF;2007-04-21 14:00;CYQF 211400Z 31003KT 2SM -SN SCT008 OVC015 00/M01 A2981 RMK ST3SC5 SLP132

CYQF;2007-04-21 15:00;CYQF 211500Z 31005KT 3SM -SN FEW008 OVC020 01/M00 A2982 RMK ST2SC5 SLP135

CYQF;2007-04-21 16:00;CYQF 211600Z 30007KT 5SM -SN SCT008 OVC020 01/M00 A2982 RMK ST3SC4 SLP136

CYQF;2007-04-21 17:00;CYQF 211700Z 29007KT 8SM -SN OVC011 01/M00 A2982 RMK SC7 CIG RAG SLP136

CYQF;2007-04-21 18:00;CYQF 211800Z 30008KT 10SM -SN OVC011 02/M00 A2982 RMK SC7 CIG RAG SLP133

CYQF;2007-04-21 18:15;CYQF 211815Z 30008KT 10SM BKN013 OVC025 RMK SC6SC1

CYQF;2007-04-21 19:00;CYQF 211900Z 32007KT 15SM BKN013 BKN025 03/M01 A2982 RMK SC5SC2 CIG RAG SLP133

CYQF;2007-04-21 20:00;CYQF 212000Z 31006KT 15SM BKN015 BKN025 04/M01 A2982 RMK SC5SC2 SLP134

CYQF;2007-04-21 21:00;CYQF 212100Z 34004KT 15SM SCT015 BKN025 03/M01 A2982 RMK SC4SC2 SLP133

CYQF;2007-04-21 22:00;CYQF 212200Z 33005KT 15SM FEW015 BKN025 04/M00 A2982 RMK SC1SC2 CU ASOCTD SLP132

CYQF;2007-04-21 23:00;CYQF 212300Z 03003KT 15SM FEW020 FEW030 BKN250 05/01 A2982 RMK SC1SC2CI1 SLP134

CYQF;2007-04-22 01:00;CYQF 220100Z 01004KT 15SM SCT030 BKN100 04/M00 A2984 RMK SC4AC2 SLP138

CYQF;2007-04-22 02:00;CYQF 220200Z 02003KT 15SM FEW030 FEW250 04/M00 A2985 RMK SC2CI0 SLP140

CYQF;2007-04-22 03:00;CYQF 220300Z 02002KT 15SM FEW030 SCT250 02/M00 A2985 RMK SC2CI0 SLP146

CYQF;2007-04-22 04:00;CYQF 220400Z 06002KT 15SM FEW030 FEW250 00/M01 A2987 RMK SC1CI0 SLP151

CYQF;2007-04-22 05:00;CYQF 220500Z 00000KT 15SM SKC M00/M01 A2988 RMK SLP153

CYQF;2007-04-22 05:34;CYQF 220534Z 00000KT 1SM BR SKC RMK FG1

CYQF;2007-04-22 05:45;CYQF 220545Z 00000KT 1/2SM FZFG SKC RMK FG1

CYQF;2007-04-22 06:00;CYQF 220600Z 20004KT 1/2SM FZFG SKC M03/M04 A2988 RMK FG1 SLP159

CYQF;2007-04-22 07:00;CYQF 220700Z 22004KT 1/2SM FZFG SKC M03/M04 A2988 RMK FG1 SLP160

CYQF;2007-04-22 08:00;CYQF 220800Z 00000KT 1/2SM FZFG SKC M02/M03 A2988 RMK FG1 FROIN SLP160

CYQF;2007-04-22 09:00;CYQF 220900Z 18003KT 1/2SM FZFG SKC M04/M05 A2989 RMK FG1 FROIN SLP161

CYQF;2007-04-22 10:00;CYQF 221000Z 00000KT 1/2SM FZFG SKC M05/M06 A2989 RMK FG2 FROIN SLP161

CYQF;2007-04-22 11:00;CYQF 221100Z 00000KT 1/2SM FZFG SKC M04/M05 A2988 RMK FG2 FROIN SLP160

CYQF;2007-04-22 12:00;CYQF 221200Z 00000KT 1/2SM FZFG SKC M03/M04 A2989 RMK FG1 FROIN SLP160

CYQF;2007-04-22 12:26;CYQF 221226Z 00000KT 2SM BR SCT030 RMK SC3 FROIN

CYQF;2007-04-22 13:00;CYQF 221300Z 00000KT 3SM BR FEW030 BKN080 M02/M03 A2990 RMK SC2AC5 FROIN SLP163

CYQF;2007-04-22 14:00;CYQF 221400Z 00000KT 3SM BR FEW030 OVC080 M01/M02 A2991 RMK SC2AC6 SLP165

CYQF;2007-04-22 15:00;CYQF 221500Z 00000KT 3SM BR FEW030 OVC080 00/M00 A2991 RMK SC2AC6 SLP166

CYQF;2007-04-22 16:00;CYQF 221600Z 00000KT 3SM BR FEW030 OVC080 02/M00 A2992 RMK SC2AC6 SLP170

CYQF;2007-04-22 17:00;CYQF 221700Z 00000KT 5SM BR OVC080 03/00 A2993 RMK AC8 SLP172

CYQF;2007-04-22 18:00;CYQF 221800Z 15007KT 5SM BR BKN080 04/00 A2993 RMK AC7 SLP173

CYQF;2007-04-22 19:00;CYQF 221900Z 13009KT 5SM BR BKN080 04/00 A2994 RMK AC7 SLP175

CYQF;2007-04-22 20:00;CYQF 222000Z 13007KT 5SM BR SCT010 BKN080 04/01 A2994 RMK SC3AC1 SLP176

CYQF;2007-04-22 20:35;CYQF 222035Z 14006KT 5SM BR SCT009 BKN080 RMK ST3AC1

CYQF;2007-04-22 21:00;CYQF 222100Z 14005KT 5SM BR SCT009 BKN210 04/00 A2994 RMK SC3CI1 SLP179

CYQF;2007-04-22 22:00;CYQF 222200Z 15005KT 10SM FEW009 SCT210 05/01 A2994 RMK SC2CI1 SLP179

CYQF;2007-04-22 23:00;CYQF 222300Z 13005KT 10SM FEW020 SCT210 05/01 A2995 RMK SC2CI1 SLP180

CYQF;2007-04-23 00:00;CYQF 230000Z 12004KT 15SM FEW020 SCT210 06/02 A2995 RMK SC2CI0 SLP179

CYQF;2007-04-23 01:00;CYQF 230100Z 14005KT 15SM FEW020 FEW210 05/01 A2995 RMK SC1CI0 SLP181

CYQF;2007-04-23 02:00;CYQF 230200Z 14004KT 15SM FEW250 05/01 A2996 RMK CI0 SLP183

CYQF;2007-04-23 03:00;CYQF 230300Z 15002KT 15SM FEW090 FEW210 04/01 A2998 RMK AC1CI0 SLP187

CYQF;2007-04-23 04:00;CYQF 230400Z 15002KT 15SM FEW090 FEW210 02/00 A2999 RMK AC1CI0 SLP191

CYQF;2007-04-23 05:00;CYQF 230500Z 14002KT 15SM FEW090 SCT210 02/00 A2999 RMK AC2CI0 SLP191

CYQF;2007-04-23 06:00;CYQF 230600Z 00000KT 4SM BCFG BKN250 01/M01 A3000 RMK FG2CI2 SLP194

CYQF;2007-04-23 06:17;CYQF 230617Z 00000KT 1/4SM FG BKN250 RMK FG6CI1

CYQF;2007-04-23 06:31;CYQF 230631Z 00000KT 1SM BR BKN250 RMK FG2CI2

CYQF;2007-04-23 06:39;CYQF 230639Z 00000KT 3SM BCFG BKN250 RMK FG2CI3

CYQF;2007-04-23 07:00;CYQF 230700Z 00000KT 3SM BR BKN250 01/M00 A3000 RMK FG2CI3 OBS TAKEN +12 SLP193

CYQF;2007-04-23 08:00;CYQF 230800Z 00000KT 1SM BR BKN250 00/M01 A3000 RMK FG2CI4 SLP194

CYQF;2007-04-23 09:00;CYQF 230900Z 00000KT 3SM BR BKN090 OVC250 01/M00 A3000 RMK AC5CI3 SLP195

CYQF;2007-04-23 10:00;CYQF 231000Z 00000KT 4SM BR BKN090 OVC250 01/M00 A3002 RMK AC5CI3 SLP200

CYQF;2007-04-23 11:00;CYQF 231100Z 00000KT 3SM BR BKN090 OVC250 01/00 A3003 RMK AC6CI2 SLP204

CYQF;2007-04-23 12:00;CYQF 231200Z 00000KT 2SM BR FEW010 BKN090 OVC250 02/00 A3004 RMK SF2AC5CI2 SLP206

CYQF;2007-04-23 12:42;CYQF 231242Z 15003KT 5SM BR FEW030 SCT090 BKN250 RMK SC2AC2CI2

CYQF;2007-04-23 13:00;CYQF 231300Z 18005KT 5SM BR FEW030 SCT090 BKN250 02/01 A3003 RMK SC2AC2CI2 SLP202

CYQF;2007-04-23 14:00;CYQF 231400Z 17006KT 6SM BR SCT070 BKN120 03/01 A3004 RMK AC3AC3 ACC ASOCTD SLP205

CYQF;2007-04-23 15:00;CYQF 231500Z 17005KT 6SM BR FEW050 BKN090 04/01 A3005 RMK SC2AC3 SLP206

CYQF;2007-04-23 16:00;CYQF 231600Z 15005KT 6SM BR FEW040 BKN100 05/01 A3006 RMK SC2AC3 SLP210

CYQF;2007-04-23 17:00;CYQF 231700Z 15005KT 6SM HZ SCT100 07/02 A3007 RMK AC2 SLP215

CYQF;2007-04-23 18:00;CYQF 231800Z 14006KT 6SM HZ FEW050 08/04 A3009 RMK CU1 SLP220

CYQF;2007-04-23 19:00;CYQF 231900Z 14010KT 6SM HZ FEW050 10/04 A3008 RMK CU1 SLP219

CYQF;2007-04-23 20:00;CYQF 232000Z 14005KT 6SM HZ FEW050 11/05 A3009 RMK CU1 SLP220

CYQF;2007-04-23 21:00;CYQF 232100Z 13008KT 8SM FEW050 12/05 A3008 RMK CU1 SLP213

CYQF;2007-04-23 22:00;CYQF 232200Z 15006KT 8SM FEW050 12/04 A3006 RMK CU1 HZ SLP209

CYQF;2007-04-23 23:00;CYQF 232300Z 14010KT 15SM FEW050 13/02 A3005 RMK CU1 SLP206

CYQF;2007-04-24 00:00;CYQF 240000Z 13008KT 15SM FEW250 13/03 A3005 RMK CI1 SLP198

CYQF;2007-04-24 01:00;CYQF 240100Z 15010KT 15SM FEW250 13/03 A3005 RMK CI1 SLP198

CYQF;2007-04-24 02:00;CYQF 240200Z 15007KT 15SM SCT250 12/03 A3004 RMK CI2 SLP196

CYQF;2007-04-24 03:00;CYQF 240300Z 14005KT 15SM FEW250 10/03 A3004 RMK CI1 SLP199

CYQF;2007-04-24 04:00;CYQF 240400Z 16003KT 15SM FEW250 07/03 A3005 RMK CI1 SLP200

CYQF;2007-04-24 05:00;CYQF 240500Z 16006KT 15SM SKC 06/03 A3005 RMK SLP200

CYQF;2007-04-24 06:00;CYQF 240600Z 15010KT 15SM SKC 07/02 A3004 RMK SLP196

CYQF;2007-04-24 07:00;CYQF 240700Z 15013KT 15SM SKC 06/02 A3003 RMK SLP193

CYQF;2007-04-24 08:00;CYQF 240800Z 17008KT 15SM SKC 05/02 A3002 RMK SLP189

CYQF;2007-04-24 09:00;CYQF 240900Z 17011KT 15SM SKC 04/02 A3000 RMK SLP181

CYQF;2007-04-24 10:00;CYQF 241000Z 16010KT 15SM FEW250 04/02 A2998 RMK CI0 SLP176

CYQF;2007-04-24 11:00;CYQF 241100Z 16012KT 15SM FEW250 04/03 A2996 RMK CI0 SLP171

CYQF;2007-04-24 12:00;CYQF 241200Z 17010KT 15SM BKN250 04/02 A2995 RMK CI2 SLP162

CYQF;2007-04-24 13:00;CYQF 241300Z 16010KT 15SM FEW120 BKN250 04/02 A2995 RMK AC1CI2 SLP162

CYQF;2007-04-24 14:00;CYQF 241400Z 16012KT 15SM FEW120 BKN250 05/03 A2993 RMK AC1CI2 SLP156

CYQF;2007-04-24 15:00;CYQF 241500Z 16010KT 15SM SCT140 BKN250 07/04 A2991 RMK AC3CI2 SLP149

CYQF;2007-04-24 16:00;CYQF 241600Z 15015G20KT 15SM SCT140 BKN250 08/05 A2988 RMK AC3CI2 SLP141

CYQF;2007-04-24 17:00;CYQF 241700Z 18010KT 15SM SCT140 BKN250 10/05 A2987 RMK AC3CI3 SLP138

CYQF;2007-04-24 18:00;CYQF 241800Z 16008KT 15SM FEW060 BKN120 OVC250 12/06 A2986 RMK SC2AC3CI2 SLP129

CYQF;2007-04-24 19:00;CYQF 241900Z 18010KT 15SM FEW060 BKN120 OVC250 14/07 A2984 RMK SC2AC3CI2 SLP124

CYQF;2007-04-24 20:00;CYQF 242000Z 18010KT 15SM FEW060 BKN120 OVC250 16/05 A2981 RMK SC2AC2CI1 SLP114

CYQF;2007-04-24 21:00;CYQF 242100Z 22012KT 15SM FEW060 SCT120 OVC250 18/02 A2980 RMK SC1AC3CI2 SLP107

CYQF;2007-04-24 22:00;CYQF 242200Z 25008KT 15SM FEW060 SCT120 OVC250 17/00 A2980 RMK SC1AC3CI2 SLP106

CYQF;2007-04-24 23:00;CYQF 242300Z 19007KT 15SM FEW060 BKN100 BKN250 17/01 A2978 RMK CU2AC3CI2 SLP101

CYQF;2007-04-25 00:00;CYQF 250000Z 21010KT 15SM FEW060 FEW100 FEW250 18/01 A2977 RMK CU1AC1CI1 SLP096

CYQF;2007-04-25 01:00;CYQF 250100Z 25012KT 15SM FEW060 18/02 A2976 RMK SC2 CU ASOCTD SLP093

CYQF;2007-04-25 02:00;CYQF 250200Z 25012G18KT 15SM FEW060TCU FEW100 16/01 A2977 RMK TCU1AC1 CB DIST NW AC TR SLP097

CYQF;2007-04-25 03:00;CYQF 250300Z 26010KT 15SM FEW060TCU FEW250 12/00 A2980 RMK TCU1CI1 TCU DIST W-N CI TR SLP108

CYQF;2007-04-25 04:00;CYQF 250400Z 25010KT 15SM FEW060CB 10/M01 A2981 RMK CB1 LGTNGICCG DIST NW-N SLP113

CYQF;2007-04-25 05:00;CYQF 250500Z 24008KT 15SM FEW060CB 08/M01 A2983 RMK CB1 LTNGICCG DIST N CB TR SLP119

CYQF;2007-04-25 06:00;CYQF 250600Z 26010KT 15SM SKC 06/M01 A2985 RMK SLP128

CYQF;2007-04-25 07:00;CYQF 250700Z 25008KT 15SM SKC 05/M02 A2986 RMK SLP132

CYQF;2007-04-25 08:00;CYQF 250800Z 27005KT 15SM FEW250 04/M03 A2988 RMK CI0 SLP136

CYQF;2007-04-25 09:00;CYQF 250900Z 07003KT 15SM FEW250 05/M03 A2990 RMK CI0 SLP139

CYQF;2007-04-25 10:00;CYQF 251000Z 00000KT 15SM FEW120 04/M03 A2993 RMK AC1 SLP148

CYQF;2007-04-25 11:00;CYQF 251100Z 00000KT 15SM FEW120 04/M03 A2996 RMK AC1 SLP157

CYQF;2007-04-25 12:00;CYQF 251200Z 36004KT 15SM FEW090 FEW250 05/M03 A2996 RMK AC1CI0 SLP161

CYQF;2007-04-25 13:00;CYQF 251300Z 00000KT 15SM FEW090 SCT250 04/M03 A2996 RMK AC1CI0 SLP160

CYQF;2007-04-25 14:00;CYQF 251400Z 34004KT 15SM FEW070 BKN250 05/M01 A2996 RMK AC1CI1 SLP161

CYQF;2007-04-25 15:00;CYQF 251500Z 00000KT 15SM FEW070 BKN250 07/M01 A2998 RMK AC1CI1 SLP170

CYQF;2007-04-25 16:00;CYQF 251600Z 12004KT 15SM FEW070 BKN250 09/M02 A2998 RMK AC1CI2 SLP170

CYQF;2007-04-25 17:00;CYQF 251700Z 09003KT 15SM FEW050 BKN250 10/M03 A2997 RMK CF1CI2 SLP167

CYQF;2007-04-25 18:00;CYQF 251800Z 13007KT 15SM FEW050 FEW090 BKN250 11/M02 A2995 RMK CU1AC1CI2 SLP163

CYQF;2007-04-25 19:00;CYQF 251900Z 19007KT 15SM FEW050 FEW100 BKN250 12/M00 A2993 RMK CU1AC2CI1 SLP156

CYQF;2007-04-25 20:00;CYQF 252000Z 20004KT 15SM FEW050 SCT100 BKN250 12/M00 A2990 RMK CU2AC2CI1 SLP149

CYQF;2007-04-25 21:00;CYQF 252100Z 18008KT 15SM FEW050 SCT100 BKN250 13/M00 A2988 RMK CU2AC2CI2 SLP138

CYQF;2007-04-25 22:00;CYQF 252200Z 18006KT 15SM FEW056 SCT100 BKN250 14/M00 A2986 RMK CU2AC2CI2 SLP132

CYQF;2007-04-25 23:00;CYQF 252300Z 18008KT 15SM SCT052 BKN100 OVC250 14/01 A2985 RMK CU4AC2CI1 SLP127

CYQF;2007-04-26 00:00;CYQF 260000Z 18010KT 15SM FEW055 BKN100 OVC250 14/M00 A2983 RMK CU2AC2CI3 SLP120

CYQF;2007-04-26 01:00;CYQF 260100Z 16006KT 15SM SCT055TCU BKN100 OVC250 13/00 A2982 RMK TCU3AC2CI3 SHWRS/VIRGA ALQDS SLP116

CYQF;2007-04-26 02:00;CYQF 260200Z 35006KT 15SM VCSH BKN050TCU OVC100 10/01 A2982 RMK TCU5AC2 SLP117

CYQF;2007-04-26 03:00;CYQF 260300Z 05010KT 15SM VCSH SCT025 BKN100 09/02 A2982 RMK CU3AC2 SLP120

CYQF;2007-04-26 04:00;CYQF 260400Z 05008KT 15SM FEW025 BKN100 07/02 A2983 RMK SC2AC2 SLP121

CYQF;2007-04-26 05:00;CYQF 260500Z 08005KT 15SM FEW100 BKN250 06/03 A2982 RMK AC2CI1 SLP119

CYQF;2007-04-26 06:00;CYQF 260600Z 00000KT 15SM BKN250 05/02 A2982 RMK CI2 SLP120

CYQF;2007-04-26 07:00;CYQF 260700Z 00000KT 15SM FEW100 BKN250 04/01 A2984 RMK AC2CI1 SLP124

CYQF;2007-04-26 08:00;CYQF 260800Z 00000KT 15SM FEW100 OVC250 04/02 A2985 RMK AC2CI2 SLP128

CYQF;2007-04-26 09:00;CYQF 260900Z 33005KT 15SM SCT100 OVC250 04/02 A2986 RMK AC3CI2 SLP132

CYQF;2007-04-26 10:00;CYQF 261000Z 00000KT 15SM FEW100 SCT250 04/01 A2986 RMK AC2CI1 SLP132

CYQF;2007-04-26 11:00;CYQF 261100Z 25003KT 15SM FEW100 01/M01 A2988 RMK AC2 VIA YEG FIC SLP138

CYQF;2007-04-26 12:00;CYQF 261200Z 25004KT 10SM FEW100 M00/M02 A2988 RMK AC2 SLP144

CYQF;2007-04-26 13:00;CYQF 261300Z CCB 25003KT 15SM FEW100 00/M01 A2990 RMK AC1 SLP148

CYQF;2007-04-26 14:00;CYQF 261400Z 22004KT 15SM FEW250 03/01 A2990 RMK CI1 VIA YEG FIC SLP148

CYQF;2007-04-26 15:00;CYQF 261500Z 26005KT 15SM BKN250 07/01 A2990 RMK CI2 VIA YEG FIC SLP147

CYQF;2007-04-26 16:00;CYQF 261600Z 26007KT 15SM BKN250 09/M01 A2990 RMK CI2 SLP146

CYQF;2007-04-26 17:00;CYQF 261700Z 00000KT 15SM BKN250 11/M04 A2988 RMK CI2 SLP142

CYQF;2007-04-26 18:00;CYQF 261800Z 00000KT 15SM FEW060 BKN250 11/M05 A2988 RMK CU1CI2 SLP139

CYQF;2007-04-26 19:00;CYQF 261900Z 27010KT 15SM FEW060 OVC250 13/M05 A2986 RMK CU1CS2 HALO SLP133

CYQF;2007-04-26 20:00;CYQF 262000Z 25007KT 15SM FEW060 BKN250 13/M05 A2983 RMK CU2CS2 SLP125

CYQF;2007-04-26 21:00;CYQF 262100Z 18003KT 15SM FEW060 FEW100 BKN250 15/M04 A2981 RMK CU1AC1CS1 SLP114

CYQF;2007-04-26 22:00;CYQF 262200Z 00000KT 15SM FEW060 BKN120 BKN250 15/M04 A2979 RMK CU2AC2CS1 SLP106

CYQF;2007-04-26 23:00;CYQF 262300Z 27007KT 15SM SCT060 SCT120 BKN250 16/M03 A2977 RMK CU3AC1CI1 SLP102

CYQF;2007-04-27 00:00;CYQF 270000Z 28012G20KT 15SM FEW060 SCT120 BKN250 15/M04 A2977 RMK CU1AC3CI2 SLP102

CYQF;2007-04-27 01:00;CYQF 270100Z 30010G20KT 15SM FEW060 BKN120 OVC250 14/M04 A2976 RMK SC1AC5CI2 SLP101

CYQF;2007-04-27 02:00;CYQF 270200Z 28005KT 15SM FEW060 BKN120 OVC250 12/M02 A2976 RMK SC1AC6CI2 VIRGA SLP101

CYQF;2007-04-27 03:00;CYQF 270300Z 28005KT 15SM FEW060 SCT120 BKN250 11/M01 A2977 RMK SC1AC4CI1 SLP100

CYQF;2007-04-27 04:00;CYQF 270400Z 26004KT 15SM FEW060 SCT120 BKN250 06/M02 A2978 RMK SC1AC3CI1 SLP103

CYQF;2007-04-27 05:00;CYQF 270500Z 24005KT 15SM FEW100 FEW250 05/M03 A2978 RMK AC1CI2 SLP105

CYQF;2007-04-27 06:00;CYQF 270600Z 22005KT 15SM FEW100 FEW250 04/M03 A2979 RMK AC1CI1 SLP111

CYQF;2007-04-27 07:00;CYQF 270700Z 19005KT 15SM FEW100 04/M03 A2980 RMK AC1 SLP114

CYQF;2007-04-27 08:00;CYQF 270800Z 20004KT 15SM FEW100 03/M02 A2981 RMK AC1 SLP117

CYQF;2007-04-27 09:00;CYQF 270900Z 23006KT 15SM FEW250 03/M03 A2981 RMK CI1 SLP113

CYQF;2007-04-27 10:00;CYQF 271000Z 20002KT 15SM FEW100 SCT250 01/M02 A2983 RMK AC2CI1 SLP119

CYQF;2007-04-27 11:00;CYQF 271100Z 20002KT 15SM FEW100 SCT250 01/M03 A2984 RMK AC2CI1 SLP122

CYQF;2007-04-27 12:00;CYQF 271200Z 22003KT 15SM FEW090 SCT250 00/M03 A2985 RMK AC2CI2 SLP131

CYQF;2007-04-27 13:00;CYQF 271300Z 00000KT 15SM FEW090 SCT250 M00/M03 A2986 RMK AC1CI2 SLP133

CYQF;2007-04-27 14:00;CYQF 271400Z 19003KT 15SM FEW090 SCT250 05/M00 A2987 RMK AC1CI2 SLP136

CYQF;2007-04-27 15:00;CYQF 271500Z 24005KT 15SM FEW080 BKN250 08/M01 A2987 RMK AC1CI2 SLP135

CYQF;2007-04-27 16:00;CYQF 271600Z 26004KT 15SM FEW080 BKN250 11/M00 A2988 RMK AC1CI2 SLP136

CYQF;2007-04-27 17:00;CYQF 271700Z 24004KT 15SM FEW080 BKN250 14/M03 A2987 RMK AC1CI2 SLP135

CYQF;2007-04-27 18:00;CYQF 271800Z 22006KT 15SM SCT070 BKN250 15/M02 A2985 RMK CU3CI2 SLP128

CYQF;2007-04-27 19:00;CYQF 271900Z 26010KT 15SM SCT070 BKN250 15/M04 A2985 RMK CU4CI2 SLP126

CYQF;2007-04-27 20:00;CYQF 272000Z 31004KT 15SM BKN080 OVC250 15/M05 A2983 RMK CU5CI2 SLP121

CYQF;2007-04-27 21:00;CYQF 272100Z 29010G15KT 15SM BKN080 OVC250 16/M03 A2982 RMK CU5CI2 SLP116

CYQF;2007-04-27 22:00;CYQF 272200Z 33010KT 15SM SCT080 OVC250 17/M03 A2981 RMK CU4CI0 SLP114

CYQF;2007-04-27 23:00;CYQF 272300Z 27003KT 15SM SCT080 OVC250 17/M03 A2980 RMK CU3CI2 SLP109

CYQF;2007-04-28 00:00;CYQF 280000Z 29003KT 15SM FEW080 BKN120 OVC250 17/M03 A2978 RMK CU2AC3CI1 VIRGA SLP106

CYQF;2007-04-28 01:00;CYQF 280100Z 00000KT 15SM FEW080 BKN120 BKN250 16/M03 A2978 RMK CU1AC5CI1 VIRGA SLP104

CYQF;2007-04-28 02:00;CYQF 280200Z 03003KT 15SM FEW060 BKN120 OVC250 15/M03 A2976 RMK SC1AC4CI2 SLP100

CYQF;2007-04-28 03:00;CYQF 280300Z 24010KT 15SM FEW060 BKN120 OVC250 12/M02 A2978 RMK SC1AC4CI1 SLP099

CYQF;2007-04-28 04:00;CYQF 280400Z 23008KT 15SM FEW120 BKN250 08/M00 A2977 RMK AC2CI0 SLP097

CYQF;2007-04-28 05:00;CYQF 280500Z 23005KT 15SM FEW250 08/M00 A2976 RMK CI1 SLP095

CYQF;2007-04-28 06:00;CYQF 280600Z 21010KT 15SM FEW250 07/01 A2975 RMK CI1 SLP089

CYQF;2007-04-28 07:00;CYQF 280700Z 20010KT 15SM SCT250 07/02 A2974 RMK CI2 SLP084

CYQF;2007-04-28 08:00;CYQF 280800Z 21005KT 15SM BKN250 06/01 A2973 RMK CI2 SLP082

CYQF;2007-04-28 09:00;CYQF 280900Z 23006KT 15SM BKN250 04/01 A2972 RMK CI3 SLP081

CYQF;2007-04-28 10:00;CYQF 281000Z 23003KT 15SM BKN250 04/01 A2973 RMK CI3 SLP084

CYQF;2007-04-28 11:00;CYQF 281100Z 25005KT 15SM BKN250 02/M00 A2974 RMK CI2 SLP086

CYQF;2007-04-28 12:00;CYQF 281200Z 26005KT 15SM FEW050 FEW100 BKN250 03/00 A2976 RMK SC1AC2CI2 SLP092

CYQF;2007-04-28 13:00;CYQF 281300Z 32007KT 15SM FEW050 FEW100 BKN250 04/M00 A2980 RMK SC1AC1CI2 SLP105

CYQF;2007-04-28 14:00;CYQF 281400Z 34010G15KT 15SM FEW050 FEW100 BKN250 07/00 A2982 RMK SC1AC1CI1 SLP111

CYQF;2007-04-28 15:00;CYQF 281500Z 35010G18KT 15SM FEW040 FEW080 SCT250 08/M02 A2984 RMK CU1AC1CI0 TCU N ACC ASOCTD SLP121

CYQF;2007-04-28 16:00;CYQF 281600Z 34015G23KT 15SM FEW050 FEW080 FEW250 09/M02 A2986 RMK SC1AC1CI0 SLP128

CYQF;2007-04-28 17:00;CYQF 281700Z 36015G25KT 15SM FEW050 FEW080 FEW250 10/M03 A2988 RMK CU1ACC1CI1 ACC W-N SHWRS/VIRGA SLP133

CYQF;2007-04-28 18:00;CYQF 281800Z 34015G22KT 15SM FEW050 FEW080 SCT250 10/M02 A2989 RMK CU1ACC2CI1 CU TR ACC W-NE SHWRS/VIRGA SLP142

CYQF;2007-04-28 19:00;CYQF 281900Z 35012G20KT 15SM FEW050 SCT080 BKN250 10/M01 A2992 RMK CU1AC3CI1 CU TR ACC SLP150

CYQF;2007-04-28 20:00;CYQF 282000Z 03005KT 15SM SCT045 BKN250 10/M01 A2993 RMK CU3CI2 SLP153

CYQF;2007-04-28 21:00;CYQF 282100Z CCA 33010G15KT 300V010 15SM FEW045 BKN250 11/M01 A2993 RMK CU2CI2 CC ASOCTD SLP158

CYQF;2007-04-28 22:00;CYQF 282200Z 33008KT 15SM SCT045 SCT100 BKN250 11/M00 A2994 RMK CU3AC1CI1 SLP160

CYQF;2007-04-28 23:00;CYQF 282300Z 33010KT 15SM SCT048 SCT100 BKN250 11/M01 A2993 RMK CU4AC1CI1 TR AC SHS DIST W+N-NE SLP159

CYQF;2007-04-29 00:00;CYQF 290000Z 35010G15KT 15SM SCT048 SCT100 BKN250 12/00 A2994 RMK CU3AC1CI1 SHS DIST W SLP162

CYQF;2007-04-29 01:00;CYQF 290100Z 32009KT 15SM SCT048 SCT100 BKN250 11/M01 A2995 RMK CU3AC1CI1 SHS DIST W SLP164

CYQF;2007-04-29 02:00;CYQF 290200Z 30003KT 15SM SCT045 BKN100 BKN250 10/M01 A2996 RMK CU4AC1CI1 SHS/VIRGA W SLP168

CYQF;2007-04-29 03:00;CYQF 290300Z 00000KT 15SM FEW045 SCT100 BKN250 09/M03 A2998 RMK CU2AC2CI2 VIRGA NW+SE SLP174

CYQF;2007-04-29 04:00;CYQF 290400Z 27003KT 15SM FEW045 BKN100 BKN250 05/M03 A3002 RMK SC2AC2CI2 OBS TAKEN +24 SLP187

CYQF;2007-04-29 05:00;CYQF 290500Z 25005KT 15SM SCT045 BKN100 06/M02 A3004 RMK SC3AC4 SLP192

CYQF;2007-04-29 06:00;CYQF 290600Z 30007KT 15SM FEW040 BKN080 07/M03 A3005 RMK SC2AC5 SLP196

CYQF;2007-04-29 07:00;CYQF 290700Z 00000KT 15SM BKN080 06/M02 A3005 RMK AC6 SLP198

CYQF;2007-04-29 08:00;CYQF 290800Z 00000KT 15SM FEW080 BKN250 04/M02 A3005 RMK AC2CI2 SLP198

CYQF;2007-04-29 09:00;CYQF 290900Z 35003KT 15SM SCT090 OVC250 04/M02 A3005 RMK AC3CI3 SLP200

CYQF;2007-04-29 10:00;CYQF 291000Z 24002KT 15SM SCT090 OVC250 03/M01 A3006 RMK AC3CI3 SLP205

CYQF;2007-04-29 11:00;CYQF 291100Z 00000KT 15SM BKN090 OVC250 03/M01 A3005 RMK AC5CI2 SLP201

CYQF;2007-04-29 12:00;CYQF 291200Z 00000KT 15SM FEW040 BKN090 OVC250 03/M01 A3005 RMK SC2AC4CI1 VIRGA SLP201

CYQF;2007-04-29 13:00;CYQF 291300Z 00000KT 15SM BKN040 OVC090 04/M03 A3005 RMK SC6AC2 VIRGA SLP202

CYQF;2007-04-29 14:00;CYQF 291400Z 05005KT 15SM BKN040 OVC090 07/M04 A3004 RMK SC7AC1 SLP196

CYQF;2007-04-29 15:00;CYQF 291500Z 16006KT 15SM BKN040 OVC090 07/M05 A3001 RMK SC6AC2 VIRGA SLP186

CYQF;2007-04-29 16:00;CYQF 291600Z 14013KT 10SM BKN030 OVC090 07/M03 A2999 RMK SC6AC2 VIRGA SLP179

CYQF;2007-04-29 17:00;CYQF 291700Z 14007KT 12SM FEW030 OVC090 06/00 A2996 RMK SC2AC6 VIRGA SLP169

CYQF;2007-04-29 17:11;CYQF 291711Z 13012KT 15SM -RA FEW020 OVC090 RMK CU2AC6

CYQF;2007-04-29 17:38;CYQF 291738Z 08012KT 15SM FEW020 BKN080 OVC250 RMK CF1AC6CI1

CYQF;2007-04-29 18:00;CYQF 291800Z CCA 08011KT 15SM FEW020 BKN080 OVC250 07/M00 A2990 RMK CF1AC6CI1 VIRGA SLP150

CYQF;2007-04-29 19:00;CYQF 291900Z 05011KT 15SM FEW020 BKN060 OVC250 09/00 A2986 RMK CF1SC6CI1 SLP137

CYQF;2007-04-29 20:00;CYQF 292000Z 09015KT 15SM FEW020 OVC060 10/M02 A2983 RMK SC1SC7 SLP127

CYQF;2007-04-29 21:00;CYQF 292100Z 00000KT 12SM -RA OVC050 10/M01 A2982 RMK SC8 SLP123

CYQF;2007-04-29 21:25;CYQF 292125Z 00000KT 15SM BKN050 BKN250 RMK SC6CI1

CYQF;2007-04-29 22:00;CYQF 292200Z 14008KT 15SM BKN045 BKN250 11/00 A2979 RMK SC5CI1 SLP112

CYQF;2007-04-29 23:00;CYQF 292300Z 05003KT 15SM BKN045 11/M01 A2977 RMK CU6 SLP108

CYQF;2007-04-30 00:00;CYQF 300000Z 31005KT 15SM VCSH BKN045 11/M01 A2977 RMK CU7 SLP106

CYQF;2007-04-30 01:00;CYQF 300100Z 33015G23KT 15SM FEW008 BKN030 OVC090 05/01 A2986 RMK CF2CU6AC1 TCU ASCOTD SHS ALQDSN PRESRR SLP132

CYQF;2007-04-30 01:18;CYQF 300118Z 33015G25KT 15SM -SHRA FEW008 BKN030TCU BKN090 RMK CF2TCU5AC1

CYQF;2007-04-30 01:48;CYQF 300148Z 34012G18KT 15SM FEW008 SCT030TCU BKN250 RMK CF2TCU2CI2 SHS DIST W+NE-SE

CYQF;2007-04-30 02:00;CYQF 300200Z 33012G18KT 15SM FEW008 SCT040TCU BKN090 BKN250 04/01 A2988 RMK CF2TCU2AC2CI1 SHS DIST W+NE-SE SLP140

CYQF;2007-04-30 02:18;CYQF 300218Z 34014KT 15SM BKN010 BKN090 BKN250 RMK CU6AC1CI1 TCU ASCOTD

CYQF;2007-04-30 03:00;CYQF 300300Z 33009KT 15SM BKN010 BKN090 BKN250 04/01 A2994 RMK CU5AC2CI1 FEW TCU SLP165

CYQF;2007-04-30 04:00;CYQF 300400Z 33006KT 15SM BKN015 BKN090 03/00 A2997 RMK CU6AC2 SLP176

CYQF;2007-04-30 05:00;CYQF 300500Z 34011KT 15SM BKN018 BKN080 03/01 A2999 RMK SC6AC2 SLP182

CYQF;2007-04-30 06:00;CYQF 300600Z 36003KT 15SM OVC012 03/01 A3000 RMK SC8 SLP187

CYQF;2007-04-30 07:00;CYQF 300700Z 33010KT 15SM OVC012 03/01 A3001 RMK SC8 SLP192

CYQF;2007-04-30 07:21;CYQF 300721Z 33005KT 15SM FEW012 RMK SC2

CYQF;2007-04-30 08:00;CYQF 300800Z 34005KT 15SM SKC M01/M03 A3000 RMK SLP188

CYQF;2007-04-30 09:00;CYQF 300900Z 24003KT 15SM SKC M02/M03 A3003 RMK SLP199

CYQF;2007-04-30 10:00;CYQF 301000Z 25007KT 15SM SKC M02/M03 A3004 RMK SLP202

CYQF;2007-04-30 11:00;CYQF 301100Z 24004KT 15SM FEW210 M02/M04 A3004 RMK CI1 SLP202

CYQF;2007-04-30 12:00;CYQF 301200Z 22005KT 15SM FEW210 M03/M04 A3005 RMK CI1 SLP208

CYQF;2007-04-30 13:00;CYQF 301300Z 19002KT 15SM FEW100 SCT250 M02/M03 A3006 RMK AC1CI1 SLP211

CYQF;2007-04-30 14:00;CYQF 301400Z 16003KT 15SM FEW100 SCT250 01/M02 A3006 RMK AC1CI1 SLP212

CYQF;2007-04-30 15:00;CYQF 301500Z 30003KT 15SM FEW100 SCT250 04/M01 A3007 RMK AC1CI1 SLP215

CYQF;2007-04-30 16:00;CYQF 301600Z 01006KT 15SM FEW036 BKN250 06/M03 A3006 RMK CU1CS2 HALO SLP214

CYQF;2007-04-30 17:00;CYQF 301700Z 01004KT 15SM FEW048 BKN250 07/M05 A3005 RMK CU1CS2 SLP210

CYQF;2007-04-30 18:00;CYQF 301800Z 00000KT 15SM FEW056 BKN250 08/M06 A3005 RMK CU1CS4 SLP204

CYQF;2007-04-30 19:00;CYQF 301900Z 00000KT 15SM BKN060 BKN250 09/M06 A3004 RMK CU5CS2 SLP200

CYQF;2007-04-30 20:00;CYQF 302000Z 25009KT 15SM BKN050 OVC250 10/M06 A3002 RMK CU6CS2 SLP195

CYQF;2007-04-30 21:00;CYQF 302100Z 00000KT 15SM SCT050 BKN250 10/M06 A2999 RMK CU4CI2 SLP188

CYQF;2007-04-30 22:00;CYQF 302200Z 22002KT 15SM SCT050 BKN250 12/M04 A2998 RMK CU3CI2 SLP184

CYQF;2007-04-30 23:00;CYQF 302300Z 16007KT 15SM FEW050 SCT160 BKN250 12/M06 A2997 RMK CU2AC2CI2 SLP181

CYQF;2007-05-01 01:00;CYQF 010100Z 11005KT 15SM FEW060 SCT250 12/M04 A2995 RMK CU1CI2 SLP171

CYQF;2007-05-01 02:00;CYQF 010200Z 14006KT 15SM FEW060 SCT250 11/M05 A2995 RMK CU1CI0 SLP171

CYQF;2007-05-01 03:00;CYQF 010300Z 11003KT 15SM FEW060 SCT250 09/M03 A2995 RMK SC1CI0 SLP170

CYQF;2007-05-01 04:00;CYQF 010400Z 10005KT 15SM FEW250 07/M04 A2997 RMK CI1 SLP174

CYQF;2007-05-01 05:00;CYQF 010500Z 12003KT 15SM SCT250 06/M04 A2997 RMK CI1 SLP175

CYQF;2007-05-01 06:00;CYQF 010600Z 00000KT 15SM OVC250 05/M04 A2998 RMK CS0 HALO SLP178

CYQF;2007-05-01 07:00;CYQF 010700Z 14005KT 15SM OVC250 05/M03 A2998 RMK CS1 HALO SLP178

CYQF;2007-05-01 08:00;CYQF 010800Z 12003KT 15SM OVC250 04/M03 A2998 RMK CS2 HALO SLP178

CYQF;2007-05-01 09:00;CYQF 010900Z 00000KT 15SM OVC250 03/M03 A2997 RMK CS2 HALO SLP175

CYQF;2007-05-01 10:00;CYQF 011000Z 10003KT 15SM FEW100 OVC250 03/M02 A2996 RMK AC1CS2 SLP172

CYQF;2007-05-01 11:00;CYQF 011100Z CCA 07003KT 15SM FEW100 OVC250 03/M02 A2995 RMK AC2CI3 SLP169

CYQF;2007-05-01 12:00;CYQF 011200Z CCA 00000KT 15SM FEW020 FEW080 FEW120 OVC250 03/M02 A2995 RMK CF1ACC1AC2CI2 VIRGA SLP167

CYQF;2007-05-01 13:00;CYQF 011300Z 00000KT 15SM FEW080 SCT120 OVC250 04/M01 A2995 RMK AC2AC2CI2 VIRGA SLP165

CYQF;2007-05-01 14:00;CYQF 011400Z 00000KT 15SM FEW120 OVC250 05/M01 A2994 RMK AC2CI2 SLP161

CYQF;2007-05-01 15:00;CYQF 011500Z 12005KT 15SM FEW120 OVC250 08/M00 A2992 RMK AC2CI2 SLP153

CYQF;2007-05-01 16:00;CYQF 011600Z 14010KT 15SM FEW120 BKN250 10/M00 A2990 RMK AC2CI2 SLP147

CYQF;2007-05-01 17:00;CYQF 011700Z 15010G15KT 15SM BKN100 OVC250 10/01 A2990 RMK AC6CI2 SLP147

CYQF;2007-05-01 18:00;CYQF 011800Z 14012KT 15SM BKN100 OVC250 11/00 A2988 RMK AC6CI2 SLP141

CYQF;2007-05-01 19:00;CYQF 011900Z 12013KT 15SM FEW050 BKN100 BKN250 12/01 A2986 RMK SC1AC6CI1 SLP135

CYQF;2007-05-01 20:00;CYQF 012000Z 13005KT 15SM FEW050 SCT100 BKN250 14/02 A2984 RMK CU1AC2CI3 SLP127

CYQF;2007-05-01 21:00;CYQF 012100Z 16010KT 15SM FEW040 BKN100 BKN250 15/02 A2984 RMK CU2AC3CI1 SLP124

CYQF;2007-05-01 22:00;CYQF 012200Z 10008KT 15SM FEW040 BKN100 BKN250 15/02 A2982 RMK CU2AC3CI2 SLP117

CYQF;2007-05-01 23:00;CYQF 012300Z 12011KT 15SM FEW040 BKN100 BKN250 14/02 A2982 RMK CU2AC3CI2 SLP117

CYQF;2007-05-02 00:00;CYQF 020000Z 11008KT 15SM FEW040 BKN100 BKN250 15/02 A2981 RMK CU1AC4CI1 SLP113

CYQF;2007-05-02 01:00;CYQF 020100Z 10007KT 15SM FEW040 BKN090 BKN250 14/02 A2980 RMK CU1AC4CI1 SLP112

CYQF;2007-05-02 02:00;CYQF 020200Z 07005KT 15SM FEW040 BKN090 OVC250 14/03 A2980 RMK CU1AC5CI2 SLP112

CYQF;2007-05-02 03:00;CYQF 020300Z 06007KT 15SM BKN070 BKN250 12/04 A2979 RMK AC5CI1 SLP104

CYQF;2007-05-02 04:00;CYQF 020400Z 06008KT 15SM BKN090 BKN250 10/03 A2979 RMK AC4CI1 SLP105

CYQF;2007-05-02 05:00;CYQF 020500Z 06008KT 15SM BKN090 OVC250 10/01 A2979 RMK AC5CI2 SLP103

CYQF;2007-05-02 06:00;CYQF 020600Z 06009KT 15SM FEW090 OVC250 09/01 A2978 RMK AC2CI4 SLP101

CYQF;2007-05-02 07:00;CYQF 020700Z 06005KT 15SM OVC100 08/02 A2978 RMK AC8 VIRGA SLP100

CYQF;2007-05-02 08:00;CYQF 020800Z 07006KT 15SM OVC080 08/02 A2977 RMK AC8 SLP099

CYQF;2007-05-02 09:00;CYQF 020900Z 04006KT 15SM BKN050 OVC100 08/01 A2976 RMK SC6AC2 SLP090

CYQF;2007-05-02 10:00;CYQF 021000Z 36003KT 15SM BKN080 OVC250 07/01 A2974 RMK AC6CI2 SLP085

CYQF;2007-05-02 11:00;CYQF 021100Z 03004KT 15SM BKN080 OVC250 06/02 A2973 RMK AC6CI1 SLP080

CYQF;2007-05-02 12:00;CYQF 021200Z 36004KT 15SM BKN080 OVC250 06/01 A2972 RMK AC5CI2 SLP079

CYQF;2007-05-02 13:00;CYQF 021300Z 36007KT 15SM FEW100 OVC250 05/02 A2970 RMK AC2CI5 SLP073

CYQF;2007-05-02 14:00;CYQF 021400Z 01007KT 15SM FEW100 OVC250 06/02 A2968 RMK AC2CI4 SLP068

CYQF;2007-05-02 15:00;CYQF 021500Z 02008KT 15SM BKN100 OVC250 06/02 A2968 RMK AC5CI2 SLP067

CYQF;2007-05-02 16:00;CYQF 021600Z 36006KT 15SM BKN100 OVC250 07/03 A2968 RMK AC5CI2 SLP068

CYQF;2007-05-02 17:00;CYQF 021700Z 34010KT 15SM BKN090 OVC250 08/04 A2966 RMK AC5CI2 SLP063

CYQF;2007-05-02 17:27;CYQF 021727Z 32010KT 10SM -SHRA FEW010 BKN040 OVC090 RMK SF2SC4AC2

CYQF;2007-05-02 18:00;CYQF 021800Z 33008KT 3SM -SHRA BR FEW010 OVC040 06/04 A2969 RMK SF2SC6 SLP075

CYQF;2007-05-02 18:23;CYQF 021823Z 36010G15KT 10SM -SHRA FEW006 SCT040 OVC080 RMK SF2SC2AC2

CYQF;2007-05-02 18:37;CYQF 021837Z 34011KT 15SM FEW006 SCT040 OVC080 RMK SF2SC2AC3

CYQF;2007-05-02 18:55;CYQF 021855Z 35008KT 15SM BKN010 OVC080 RMK SF6AC2

CYQF;2007-05-02 19:00;CYQF 021900Z 35009KT 15SM BKN010 OVC080 08/05 A2966 RMK SF6AC2 SLP065

CYQF;2007-05-02 20:00;CYQF 022000Z 01013KT 15SM BKN010 09/06 A2964 RMK SF7 CIG RAG SLP060

CYQF;2007-05-02 21:00;CYQF 022100Z 34010KT 15SM OVC012 09/06 A2965 RMK SC7 SLP057

CYQF;2007-05-02 22:00;CYQF 022200Z 33010KT 15SM OVC011 09/06 A2964 RMK SC8 CIG LWR N SLP056

CYQF;2007-05-02 23:00;CYQF 022300Z 33010KT 10SM OVC010 09/06 A2964 RMK SC8 SLP056

CYQF;2007-05-03 00:00;CYQF 030000Z 36006KT 10SM BKN012 OVC070 10/07 A2963 RMK SC6AC1 SLP055

CYQF;2007-05-03 01:00;CYQF 030100Z 34007KT 10SM BKN013 OVC070 10/07 A2962 RMK SC6AC2 SLP051

CYQF;2007-05-03 02:00;CYQF 030200Z 34007KT 10SM SCT015 OVC080 10/06 A2964 RMK SC4AC3 SLP058

CYQF;2007-05-03 03:00;CYQF 030300Z 32005KT 10SM BKN015 OVC080 09/07 A2965 RMK SC6AC2 SLP061

CYQF;2007-05-03 04:00;CYQF 030400Z 31003KT 10SM BKN020 OVC080 09/06 A2966 RMK SC6AC2 SLP063

CYQF;2007-05-03 05:00;CYQF 030500Z 33004KT 6SM BR OVC010 08/06 A2964 RMK ST8 SLP057

CYQF;2007-05-03 05:33;CYQF 030533Z 32006KT 4SM BR OVC005 RMK ST8

CYQF;2007-05-03 06:00;CYQF 030600Z 33005KT 3SM BR OVC004 07/06 A2964 RMK ST8 SLP059

CYQF;2007-05-03 07:00;CYQF 030700Z 00000KT 3SM BR OVC007 07/06 A2964 RMK ST8 SLP059

CYQF;2007-05-03 08:00;CYQF 030800Z 31008KT 2SM BR OVC007 07/06 A2962 RMK ST6 SLP052

CYQF;2007-05-03 08:18;CYQF 030818Z 30004KT 1SM BR VV003 RMK FG8

CYQF;2007-05-03 08:34;CYQF 030834Z 30009KT 1/2SM FG VV002 RMK FG8

CYQF;2007-05-03 09:00;CYQF 030900Z 31005KT 1/4SM FG VV002 06/05 A2963 RMK FG8 SLP054

CYQF;2007-05-03 10:00;CYQF 031000Z 33007KT 1/4SM FG VV002 05/04 A2963 RMK FG8 SLP054

CYQF;2007-05-03 11:00;CYQF 031100Z 31010KT 1/4SM FG VV002 04/04 A2963 RMK FG8 SLP054

CYQF;2007-05-03 11:44;CYQF 031144Z 34005KT 1/2SM FG VV003 RMK FG8

CYQF;2007-05-03 12:00;CYQF 031200Z 34003KT 1SM BR VV005 05/04 A2963 RMK FG8 SLP056

CYQF;2007-05-03 13:00;CYQF 031300Z 30005KT 2SM BR BKN007 OVC050 05/05 A2964 RMK FG2ST4SC2 SLP059

CYQF;2007-05-03 14:00;CYQF 031400Z 33008KT 3SM BR BKN012 OVC050 06/05 A2964 RMK SC6SC2 SLP058

CYQF;2007-05-03 15:00;CYQF 031500Z 34011KT 3SM BR OVC010 07/05 A2964 RMK SC8 CIG RAG SLP057

CYQF;2007-05-03 16:00;CYQF 031600Z 35010KT 5SM BR OVC010 07/05 A2963 RMK SC8 CIG RAG SLP053

CYQF;2007-05-03 17:00;CYQF 031700Z 32011G16KT 5SM BR OVC011 08/05 A2958 RMK SC8 CIG RAG SLP040

CYQF;2007-05-03 17:36;CYQF 031736Z 33013KT 8SM -RA FEW008 OVC018 RMK SF2SC6

CYQF;2007-05-03 18:00;CYQF 031800Z 32012KT 8SM -RA FEW008 OVC018 08/05 A2958 RMK SF2SC6 SLP038

CYQF;2007-05-03 19:00;CYQF 031900Z 35008KT 3SM -RA BR OVC012 07/05 A2957 RMK SC8 SLP036

CYQF;2007-05-03 19:54;CYQF 031954Z 32009KT 2SM -RA BR OVC009 RMK SC8 CIG RAG

CYQF;2007-05-03 20:00;CYQF 032000Z 31013KT 2SM -RA BR OVC009 07/05 A2956 RMK SC8 CIG RAG SLP030

CYQF;2007-05-03 21:00;CYQF 032100Z 32013KT 2SM -RA BR BKN009 OVC015 07/06 A2955 RMK SF5SC3 CIG RAG SLP027

CYQF;2007-05-03 22:00;CYQF 032200Z 31014KT 3SM -RA BR OVC010 07/05 A2953 RMK SC8 CIG RAG SLP023

CYQF;2007-05-03 23:00;CYQF 032300Z 30012KT 3SM -RA BR BKN010 OVC018 06/05 A2956 RMK SC6SC2 CIG RAG SLP032

CYQF;2007-05-04 00:00;CYQF 040000Z 30015G21KT 3SM -RA BR BKN011 OVC016 06/04 A2955 RMK SC6SC2 /R24/ CIG RAG SLP030

CYQF;2007-05-04 01:00;CYQF 040100Z 31012G20KT 5SM -RA BR BKN010 OVC020 06/04 A2954 RMK SC6SC2 SLP027

CYQF;2007-05-04 02:00;CYQF 040200Z 31015KT 5SM -RA BR BKN011 OVC020 06/04 A2954 RMK SC6SC2 CIG RAG SLP027

CYQF;2007-05-04 03:00;CYQF 040300Z CCA 32015KT 8SM -RA BKN010 OVC025 05/03 A2951 RMK SC6SC2 CIG RAG SLP017

CYQF;2007-05-04 04:00;CYQF 040400Z 30015KT 10SM -RA BKN010 OVC050 05/03 A2952 RMK SC5SC3 SLP020

CYQF;2007-05-04 05:00;CYQF 040500Z 31022G30KT 10SM -RA FEW006 BKN010 OVC050 04/03 A2950 RMK SF2SC4SC2 CIG RAG SLP012

CYQF;2007-05-04 06:00;CYQF 040600Z 30012G18KT 10SM -RA FEW007 OVC012 04/03 A2951 RMK SF2SC6 CIG RAG SLP016

CYQF;2007-05-04 07:00;CYQF 040700Z 30012G18KT 10SM -RA FEW007 BKN014 OVC040 04/02 A2951 RMK SF2SC5SC2 CIG RAG SLP015

CYQF;2007-05-04 08:00;CYQF 040800Z 30011G20KT 10SM -RA FEW007 BKN014 OVC040 03/02 A2949 RMK SF2SC3SC2 CIG RAG SLP010

CYQF;2007-05-04 08:39;CYQF 040839Z 30011G18KT 15SM FEW007 SCT014 OVC042 RMK SF2SC2SC4

CYQF;2007-05-04 09:00;CYQF 040900Z 29010G18KT 15SM FEW007 SCT014 OVC042 03/01 A2950 RMK SF2SC2SC4 SLP015

CYQF;2007-05-04 10:00;CYQF 041000Z 30013G20KT 15SM FEW007 SCT014 OVC046 04/01 A2951 RMK SF2SC2SC5 SLP016

CYQF;2007-05-04 11:00;CYQF 041100Z 30015G22KT 15SM FEW007 SCT015 OVC045 04/02 A2950 RMK SF2SC2SC5 SLP015

CYQF;2007-05-04 12:00;CYQF 041200Z 30011G18KT 15SM SCT007 BKN011 OVC045 04/01 A2950 RMK SF3SC3SC2 SLP014

CYQF;2007-05-04 13:00;CYQF 041300Z 32013G19KT 15SM FEW007 BKN012 OVC045 04/01 A2951 RMK SF2SC4SC2 SLP017

CYQF;2007-05-04 13:21;CYQF 041321Z 31014G21KT 15SM -RA FEW007 BKN016 OVC045 RMK SF2SC4SC2

CYQF;2007-05-04 14:00;CYQF 041400Z 31015G24KT 10SM -RA FEW007 OVC016 04/02 A2949 RMK SF2SC6 SLP013

CYQF;2007-05-04 15:00;CYQF 041500Z 31015G23KT 10SM -RA FEW007 OVC015 04/01 A2949 RMK SF2SC6 SLP013

CYQF;2007-05-04 16:00;CYQF 041600Z 31015G20KT 8SM -RA FEW006 OVC011 04/02 A2947 RMK SF2SC6 SLP008

CYQF;2007-05-04 17:00;CYQF 041700Z 30018G25KT 8SM -RA FEW006 OVC011 03/01 A2946 RMK SF2SC6 SLP005

CYQF;2007-05-04 18:00;CYQF 041800Z 31013G18KT 8SM -RA FEW006 OVC011 03/02 A2946 RMK SF2SC6 SLP004

CYQF;2007-05-04 18:44;CYQF 041844Z 31013G19KT 3SM -RASN SCT006 OVC012 RMK SF4SC4

CYQF;2007-05-04 19:00;CYQF 041900Z 30012G18KT 3SM -RASN OVC009 02/01 A2945 RMK SF8 SLP001

CYQF;2007-05-04 19:40;CYQF 041940Z 29014KT 2SM -RASN OVC006 RMK SF8

CYQF;2007-05-04 20:00;CYQF 042000Z 30015KT 2SM -RASN OVC006 03/01 A2944 RMK SF8 SLP996

CYQF;2007-05-04 21:00;CYQF 042100Z 29015G20KT 4SM -RA OVC006 03/01 A2943 RMK SF8 SLP995

CYQF;2007-05-04 22:00;CYQF 042200Z 28015G22KT 5SM -RA OVC008 03/01 A2943 RMK SF8 SLP996

CYQF;2007-05-04 23:00;CYQF 042300Z 27015G22KT 5SM -RA OVC008 03/02 A2943 RMK SF8 SLP995

CYQF;2007-05-05 00:00;CYQF 050000Z CCA 27014G20KT 5SM -RA OVC007 03/01 A2944 RMK SF8 /R16/ SLP997

CYQF;2007-05-05 01:00;CYQF 050100Z 27018G25KT 5SM -RA BKN007 OVC012 03/02 A2945 RMK SF6SC2 SLP000

CYQF;2007-05-05 02:00;CYQF 050200Z 26017G25KT 3SM -RA BR BKN007 OVC012 03/02 A2947 RMK SF6SC2 SLP006

CYQF;2007-05-05 03:00;CYQF 050300Z 25012G20KT 3SM -RA BR OVC006 03/02 A2948 RMK SF8 SLP013

CYQF;2007-05-05 04:00;CYQF 050400Z 24012G20KT 5SM -RA BR SCT007 OVC013 04/02 A2951 RMK SF4SC4 SLP022

CYQF;2007-05-05 05:00;CYQF 050500Z 24012G20KT 5SM -RA BR SCT007 OVC014 04/02 A2954 RMK SF4SC4 SLP031

CYQF;2007-05-05 06:00;CYQF 050600Z 26015G22KT 5SM -RA BR SCT007 OVC014 04/02 A2957 RMK SF4SC4 /R14/ SLP043

CYQF;2007-05-05 07:00;CYQF 050700Z 24017G25KT 8SM -RA SCT007 OVC017 04/02 A2959 RMK SF3SC5 SLP050

CYQF;2007-05-05 08:00;CYQF 050800Z 25015G27KT 8SM -RA SCT007 OVC017 05/02 A2963 RMK SF3SC5 SLP061

CYQF;2007-05-05 09:00;CYQF 050900Z 24015G25KT 10SM -RA SCT007 OVC017 05/02 A2966 RMK SF3SC5 SLP073

CYQF;2007-05-05 10:00;CYQF 051000Z 25013G19KT 15SM -RA FEW007 SCT015 OVC040 06/01 A2970 RMK SF2SC2SC5 SLP084

CYQF;2007-05-05 10:25;CYQF 051025Z 23014G21KT 15SM FEW007 SCT015 OVC050 RMK SF2SC2SC5

CYQF;2007-05-05 11:00;CYQF 051100Z 24012G17KT 15SM SCT015 OVC050 05/00 A2972 RMK SC3SC4 SLP090

CYQF;2007-05-05 12:00;CYQF 051200Z 22008KT 15SM SCT015 OVC050 05/00 A2974 RMK SC3SC4 SLP100

CYQF;2007-05-05 13:00;CYQF 051300Z 19007KT 15SM FEW015 BKN050 BKN250 04/01 A2977 RMK SC1SC6CI0 SLP109

CYQF;2007-05-05 14:00;CYQF 051400Z 23005KT 15SM FEW015 BKN050 BKN250 05/01 A2981 RMK SC1SC5CI0 SLP123

CYQF;2007-05-05 15:00;CYQF 051500Z 20004KT 15SM FEW050 FEW080 BKN250 07/02 A2985 RMK SC1AC2CI1 SLP136

CYQF;2007-05-05 16:00;CYQF 051600Z 29006KT 15SM FEW040 FEW090 BKN250 10/01 A2987 RMK CU1AC2CI2 TR CU SLP143

CYQF;2007-05-05 17:00;CYQF 051700Z 25008KT 15SM FEW040 FEW090 BKN250 11/00 A2990 RMK CU1AC2CI2 TR CU SLP151

CYQF;2007-05-05 18:00;CYQF 051800Z 27002KT 15SM FEW050 FEW090 BKN250 12/01 A2992 RMK CU1AC1CI2 SLP153

CYQF;2007-05-05 19:00;CYQF 051900Z 26005KT 15SM SCT050 BKN250 12/M01 A2992 RMK CU3CI1 SLP153

CYQF;2007-05-05 20:00;CYQF 052000Z 26003KT 15SM FEW050 BKN250 12/M00 A2991 RMK SC2CI1 CU ASOCTD SLP151

CYQF;2007-05-05 21:00;CYQF 052100Z 16003KT 15SM FEW050 BKN250 13/M02 A2990 RMK SC2CI1 SLP145

CYQF;2007-05-05 22:00;CYQF 052200Z 26010KT 15SM SCT050 BKN250 15/M00 A2989 RMK CU4CI0 SLP141

CYQF;2007-05-05 23:00;CYQF 052300Z 00000KT 15SM SCT050 BKN250 14/M04 A2988 RMK CU3CI1 SLP139

CYQF;2007-05-06 00:00;CYQF 060000Z 30012G20KT 15SM SCT050 BKN250 14/M03 A2989 RMK CU4CI0 SLP140

CYQF;2007-05-06 01:00;CYQF 060100Z 30012G18KT 15SM SCT060 13/M04 A2991 RMK SC3 SLP147

CYQF;2007-05-06 02:00;CYQF 060200Z 30010G15KT 15SM FEW060 12/M03 A2993 RMK SC2 SLP154

CYQF;2007-05-06 03:00;CYQF 060300Z 28006KT 15SM FEW060 09/M03 A2995 RMK SC1 SLP165

CYQF;2007-05-06 04:00;CYQF 060400Z 29008KT 15SM FEW060 07/M03 A2997 RMK SC1 SLP172

CYQF;2007-05-06 05:00;CYQF 060500Z 27006KT 15SM SKC 05/M03 A2998 RMK SLP175

CYQF;2007-05-06 06:00;CYQF 060600Z 28008KT 15SM SKC 05/M03 A2998 RMK SLP175

CYQF;2007-05-06 07:00;CYQF 060700Z 27002KT 15SM SKC 03/M04 A2999 RMK SLP177

CYQF;2007-05-06 08:00;CYQF 060800Z 24002KT 15SM SKC 03/M04 A2999 RMK SLP178

CYQF;2007-05-06 09:00;CYQF 060900Z 21002KT 15SM SKC 02/M03 A3000 RMK SLP181

CYQF;2007-05-06 10:00;CYQF 061000Z 21003KT 15SM SKC M00/M04 A2999 RMK SLP180

CYQF;2007-05-06 11:00;CYQF 061100Z 19003KT 15SM SKC M00/M03 A3000 RMK SLP182

CYQF;2007-05-06 12:00;CYQF 061200Z 20003KT 15SM FEW250 M00/M04 A3000 RMK CI1 SLP186

CYQF;2007-05-06 13:00;CYQF 061300Z 21002KT 15SM FEW070 FEW250 M01/M03 A3001 RMK AC1CI0 SLP188

CYQF;2007-05-06 14:00;CYQF 061400Z 21004KT 15SM FEW070 SCT250 04/M02 A3003 RMK AC1CI1 SLP193

CYQF;2007-05-06 15:00;CYQF 061500Z 23004KT 15SM FEW080 SCT250 07/M01 A3003 RMK AC1CI1 SLP191

CYQF;2007-05-06 16:00;CYQF 061600Z 23003KT 15SM BKN250 11/00 A3003 RMK CI2 SLP191

CYQF;2007-05-06 17:00;CYQF 061700Z 20004KT 15SM BKN250 12/M01 A3000 RMK CS2 SLP183

CYQF;2007-05-06 18:00;CYQF 061800Z 19004KT 15SM BKN250 13/M02 A2999 RMK CS4 SLP175

CYQF;2007-05-06 19:00;CYQF 061900Z 22006KT 15SM BKN250 15/00 A2996 RMK CI2 SLP167

CYQF;2007-05-06 20:00;CYQF 062000Z 24010KT 15SM BKN250 15/M01 A2993 RMK CI2 SLP157

CYQF;2007-05-06 21:00;CYQF 062100Z 19013KT 15SM BKN250 18/M00 A2989 RMK CI2 SLP141

CYQF;2007-05-06 22:00;CYQF 062200Z 19007KT 15SM FEW060 SCT250 17/M01 A2986 RMK SC1CI1 SLP131

CYQF;2007-05-06 23:00;CYQF 062300Z 20008KT 15SM FEW060 SCT250 19/00 A2984 RMK CU1CI1 SLP124

CYQF;2007-05-07 00:00;CYQF 070000Z 27010G15KT 15SM SCT250 19/00 A2983 RMK CI1 SLP118

CYQF;2007-05-07 01:00;CYQF 070100Z 28010G15KT 15SM SCT250 19/M00 A2982 RMK CI1 SLP116

CYQF;2007-05-07 02:00;CYQF 070200Z 28010G15KT 15SM BKN250 17/01 A2982 RMK CI3 SLP115

CYQF;2007-05-07 03:00;CYQF 070300Z 29010G15KT 15SM BKN250 15/M00 A2982 RMK CI3 SLP113

CYQF;2007-05-07 04:00;CYQF 070400Z 27010G15KT 15SM SCT250 13/00 A2984 RMK CI2 SLP119

CYQF;2007-05-07 05:00;CYQF 070500Z 27010KT 15SM SKC 12/M00 A2986 RMK SLP125

CYQF;2007-05-07 06:00;CYQF 070600Z 26005KT 15SM SKC 08/M01 A2988 RMK SLP133

CYQF;2007-05-07 07:00;CYQF 070700Z 20005KT 15SM SKC 07/00 A2989 RMK SLP136

CYQF;2007-05-07 08:00;CYQF 070800Z 24005KT 15SM FEW250 06/M00 A2990 RMK CI2 SLP139

CYQF;2007-05-07 09:00;CYQF 070900Z 17003KT 15SM FEW250 06/M00 A2990 RMK CI1 SLP139

CYQF;2007-05-07 10:00;CYQF 071000Z 17003KT 15SM FEW120 06/00 A2991 RMK AC1 SLP140

CYQF;2007-05-07 11:00;CYQF 071100Z 20003KT 15SM FEW090 FEW250 04/M00 A2991 RMK AC1CI0 SLP141

CYQF;2007-05-07 12:00;CYQF 071200Z 01010KT 15SM FEW090 SCT250 05/M01 A2994 RMK AC2CI0 SLP151

CYQF;2007-05-07 13:00;CYQF 071300Z 00000KT 15SM FEW090 SCT250 04/00 A2994 RMK AC2CI1 SLP152

CYQF;2007-05-07 14:00;CYQF 071400Z 36002KT 15SM FEW090 SCT250 08/01 A2995 RMK AC2CI1 SLP156

CYQF;2007-05-07 15:00;CYQF 071500Z 03005KT 15SM FEW070 BKN250 12/02 A2996 RMK AC1CI1 SLP157

CYQF;2007-05-07 16:00;CYQF 071600Z 04010KT 15SM FEW070 BKN250 14/01 A2997 RMK AC1CI1 SLP158

CYQF;2007-05-07 17:00;CYQF 071700Z 01008KT 15SM FEW070 BKN250 14/03 A2996 RMK AC1CI1 SLP157

CYQF;2007-05-07 18:00;CYQF 071800Z 08004KT 15SM FEW070 BKN250 15/04 A2995 RMK AC1CI1 SLP157

CYQF;2007-05-07 19:00;CYQF 071900Z 11006KT 15SM FEW070 BKN250 18/04 A2993 RMK CU1CI1 SLP150

CYQF;2007-05-07 20:00;CYQF 072000Z 17008KT 15SM FEW060 SCT250 19/04 A2991 RMK CU1CI1 SLP143

CYQF;2007-05-07 21:00;CYQF 072100Z 17005KT 15SM FEW060 SCT250 21/04 A2987 RMK CU1CI1 SLP125

CYQF;2007-05-07 22:00;CYQF 072200Z 27008KT 15SM BKN065 BKN250 22/04 A2986 RMK CU5CI1 SLP120

CYQF;2007-05-07 23:00;CYQF 072300Z 24010G15KT 15SM SCT065 BKN250 23/03 A2984 RMK CU4CI2 SLP114

CYQF;2007-05-08 00:00;CYQF 080000Z 27010G16KT 15SM SCT065 BKN250 23/03 A2983 RMK CU3CI2 SLP110

CYQF;2007-05-08 01:00;CYQF 080100Z 27010G18KT 15SM FEW065 BKN250 21/03 A2983 RMK CU2CI1 SLP109

CYQF;2007-05-08 02:00;CYQF 080200Z 26008KT 15SM FEW065 SCT120 BKN250 19/04 A2983 RMK SC2AC2CI1 SLP108

CYQF;2007-05-08 03:00;CYQF 080300Z 25006KT 15SM FEW065 FEW120 BKN250 16/03 A2983 RMK SC1AC2CI1 SLP108

CYQF;2007-05-08 04:00;CYQF 080400Z 25005KT 15SM FEW120 BKN250 13/03 A2983 RMK AC2CI1 SLP110

CYQF;2007-05-08 05:00;CYQF 080500Z 19003KT 15SM FEW120 SCT250 12/04 A2983 RMK AC1CI1 SLP110

CYQF;2007-05-08 06:00;CYQF 080600Z 22008KT 15SM FEW120 SCT250 11/02 A2984 RMK AC1CI1 SLP114

CYQF;2007-05-08 07:00;CYQF 080700Z 20005KT 15SM FEW250 09/02 A2984 RMK CI1 SLP116

CYQF;2007-05-08 08:00;CYQF 080800Z 25004KT 15SM SKC 09/01 A2984 RMK SLP116

CYQF;2007-05-08 09:00;CYQF 080900Z 33008KT 15SM SKC 05/01 A2986 RMK SLP122

CYQF;2007-05-08 10:00;CYQF 081000Z 36004KT 15SM SKC 05/03 A2987 RMK SLP126

CYQF;2007-05-08 11:00;CYQF 081100Z 01004KT 15SM SKC 07/04 A2987 RMK SLP125

CYQF;2007-05-08 12:00;CYQF 081200Z 34003KT 15SM SKC 05/03 A2989 RMK SLP130

CYQF;2007-05-08 13:00;CYQF 081300Z 31003KT 15SM FEW250 05/04 A2990 RMK CI1 SLP134

CYQF;2007-05-08 14:00;CYQF 081400Z 02003KT 15SM FEW250 08/05 A2990 RMK CI1 SLP135

CYQF;2007-05-08 15:00;CYQF 081500Z 07005KT 15SM SCT250 11/06 A2989 RMK CI2 SLP133

CYQF;2007-05-08 16:00;CYQF 081600Z 11005KT 15SM SCT250 13/06 A2987 RMK CI2 SLP125

CYQF;2007-05-08 17:00;CYQF 081700Z 15007KT 15SM SCT250 15/05 A2984 RMK CI2 SLP117

CYQF;2007-05-08 18:00;CYQF 081800Z 16004KT 15SM BKN250 17/05 A2982 RMK CI2 SLP107

CYQF;2007-05-08 19:00;CYQF 081900Z 14008KT 15SM BKN250 20/04 A2979 RMK CI2 SLP096

CYQF;2007-05-08 20:00;CYQF 082000Z 14008KT 15SM BKN250 22/00 A2975 RMK CI2 SLP085

CYQF;2007-05-08 21:00;CYQF 082100Z 21010KT 15SM FEW060 BKN250 23/M01 A2972 RMK CU1CI2 SLP071

CYQF;2007-05-08 22:00;CYQF 082200Z 22010G15KT 15SM FEW100 BKN250 24/M03 A2969 RMK CU1CI2 SLP061

CYQF;2007-05-08 23:00;CYQF 082300Z 29005KT 15SM FEW100 BKN250 24/M01 A2966 RMK CU1CI3 SLP053

CYQF;2007-05-09 00:00;CYQF 090000Z 24015G20KT 15SM FEW100 BKN250 23/M01 A2965 RMK CU1CI3 SLP045

CYQF;2007-05-09 01:00;CYQF 090100Z 27005KT 15SM FEW090 BKN250 22/00 A2961 RMK CU1CI4 SLP034

CYQF;2007-05-09 02:00;CYQF 090200Z 26005KT 15SM FEW080 BKN250 21/M01 A2957 RMK AC2CI2 SLP023

CYQF;2007-05-09 03:00;CYQF 090300Z 24004KT 15SM SCT060 BKN080 BKN250 18/03 A2954 RMK SC3AC3CI1 VIRGA PRESFR SLP008

CYQF;2007-05-09 04:00;CYQF 090400Z CCA 28010G18KT 15SM BKN060 BKN080 BKN250 17/02 A2957 RMK CU5AC2CI1 OBS TAKEN

CYQF;2007-05-09 05:00;CYQF 090500Z 00000KT 15SM FEW040 BKN100 BKN250 15/04 A2958 RMK CU2AC5CI1 SLP020

CYQF;2007-05-09 06:00;CYQF 090600Z 21004KT 15SM OVC090 14/05 A2958 RMK AC8 SLP019

CYQF;2007-05-09 07:00;CYQF 090700Z 31010G15KT 15SM BKN100 OVC250 14/05 A2958 RMK AC6CI2 SLP020

CYQF;2007-05-09 08:00;CYQF 090800Z 28010KT 15SM BKN100 BKN250 13/05 A2961 RMK AC5CI2 SLP029

CYQF;2007-05-09 09:00;CYQF 090900Z 30010KT 15SM FEW100 11/04 A2964 RMK AC2 SLP036

CYQF;2007-05-09 10:00;CYQF 091000Z 32015G25KT 15SM SKC 08/03 A2970 RMK SLP055

CYQF;2007-05-09 11:00;CYQF 091100Z 32012G20KT 15SM FEW012 FEW040 07/03 A2974 RMK SC1SC1 SLP069

CYQF;2007-05-09 12:00;CYQF 091200Z 32012G20KT 15SM FEW010 FEW040 05/01 A2979 RMK SC1SC1 SLP096

CYQF;2007-05-09 13:00;CYQF 091300Z 33015G25KT 15SM FEW010 FEW040 05/00 A2982 RMK SC1SC1 SLP104

CYQF;2007-05-09 13:16;CYQF 091316Z 32015G35KT 15SM FEW020 FEW040 RMK SC1SC1 LWR SC INVDG FM NW

CYQF;2007-05-09 14:00;CYQF 091400Z 31020G32KT 15SM BKN020 06/01 A2987 RMK SC6 SLP121

CYQF;2007-05-09 15:00;CYQF 091500Z 31015G25KT 15SM SCT025 07/00 A2991 RMK SC3 SLP142

CYQF;2007-05-09 16:00;CYQF 091600Z 32020G30KT 15SM FEW025 08/00 A2994 RMK SC2 SLP149

CYQF;2007-05-09 17:00;CYQF 091700Z 31020G34KT 15SM SCT035 10/M00 A2995 RMK CU3 SLP155

CYQF;2007-05-09 18:00;CYQF 091800Z 33014G20KT 15SM SCT048 11/M01 A2998 RMK CU3 SLP163

CYQF;2007-05-09 19:00;CYQF 091900Z 36015G28KT 15SM BKN045 11/M00 A3000 RMK CU5 SLP171

CYQF;2007-05-09 20:00;CYQF 092000Z 36015G30KT 15SM SCT045 11/01 A3002 RMK CU4 SLP176

CYQF;2007-05-09 21:00;CYQF 092100Z 36015G26KT 15SM FEW045 10/00 A3003 RMK CU2 SLP186

CYQF;2007-05-09 22:00;CYQF 092200Z 05012G21KT 15SM FEW040 11/01 A3006 RMK CU2 SLP194

CYQF;2007-05-09 23:00;CYQF 092300Z 04011G20KT 15SM SCT040 10/00 A3006 RMK CU3 SLP196

CYQF;2007-05-10 00:00;CYQF 100000Z 07008KT 15SM FEW040 FEW080 11/01 A3008 RMK CU2AC1 SLP210

CYQF;2007-05-10 01:00;CYQF 100100Z 04006KT 15SM FEW040 SCT080 09/M00 A3010 RMK CU2AC2 SLP215

CYQF;2007-05-10 02:00;CYQF 100200Z 09008KT 15SM FEW040 BKN080 09/00 A3010 RMK SC1AC4 SLP217

CYQF;2007-05-10 03:00;CYQF 100300Z 10006KT 15SM FEW040 BKN080 08/00 A3012 RMK SC2AC3 SLP223

CYQF;2007-05-10 04:00;CYQF 100400Z 09005KT 15SM SCT040 BKN080 07/01 A3013 RMK SC3AC2 SLP228

CYQF;2007-05-10 05:00;CYQF 100500Z 11006KT 15SM FEW040 BKN100 07/01 A3014 RMK SC2AC4 SLP230

CYQF;2007-05-10 06:00;CYQF 100600Z 13006KT 15SM BKN100 07/01 A3015 RMK AC6 SLP230

CYQF;2007-05-10 07:00;CYQF 100700Z 14010KT 15SM BKN100 06/01 A3015 RMK AC6 SLP231

CYQF;2007-05-10 08:00;CYQF 100800Z 15012KT 15SM BKN100 06/01 A3015 RMK AC7 SLP231

CYQF;2007-05-10 09:00;CYQF 100900Z 16009KT 15SM BKN100 06/01 A3014 RMK AC7 SLP231

CYQF;2007-05-10 10:00;CYQF 101000Z 16008KT 15SM BKN100 06/01 A3014 RMK AC6 SLP230

CYQF;2007-05-10 11:00;CYQF 101100Z 15008KT 15SM SCT060 BKN100 05/01 A3013 RMK SC3AC3 SLP228

CYQF;2007-05-10 12:00;CYQF 101200Z 15010G15KT 15SM SCT060 BKN100 05/00 A3012 RMK SC3AC2 OBS TAKEN +10 SLP222

CYQF;2007-05-10 13:00;CYQF 101300Z 16010G15KT 15SM BKN060 BKN100 05/00 A3012 RMK SC5AC1 SLP223

CYQF;2007-05-10 14:00;CYQF 101400Z 16014G20KT 15SM SCT060 SCT250 06/00 A3013 RMK SC3CI0 SLP225

CYQF;2007-05-10 15:00;CYQF 101500Z 16014G22KT 15SM FEW060 FEW250 07/00 A3012 RMK SC1CI1 SLP223

CYQF;2007-05-10 16:00;CYQF 101600Z 16010G18KT 15SM FEW060 FEW250 09/01 A3010 RMK SC1CI1 SLP219

CYQF;2007-05-10 17:00;CYQF 101700Z 16014G23KT 15SM FEW060 FEW250 11/01 A3009 RMK SC1CI1 SLP216

CYQF;2007-05-10 18:00;CYQF 101800Z CCA 14015G20KT 15SM FEW060 FEW250 12/01 A3009 RMK CU1CI1 CU TR SLP209

CYQF;2007-05-10 19:00;CYQF 101900Z 15010G20KT 15SM FEW060 FEW250 13/01 A3007 RMK CU1CI1 CU TR SLP204

CYQF;2007-05-10 20:00;CYQF 102000Z 15015G22KT 15SM FEW060 FEW250 15/02 A3005 RMK CU1CI1 SLP196

CYQF;2007-05-10 21:00;CYQF 102100Z 15010G20KT 15SM FEW060 FEW250 15/01 A3003 RMK CU1CI1 CB DIST SW-W SLP186

CYQF;2007-05-10 22:00;CYQF 102200Z 15015G20KT 15SM FEW060 FEW250 16/01 A3001 RMK CU1CI1 SLP181

CYQF;2007-05-10 23:00;CYQF 102300Z 14015G20KT 15SM FEW060 FEW250 15/01 A3001 RMK CU1CI1 SLP179

CYQF;2007-05-11 00:00;CYQF 110000Z 14015G20KT 15SM FEW060CB FEW250 16/01 A3000 RMK CB1CI1 SLP176

CYQF;2007-05-11 01:00;CYQF 110100Z 14012G17KT 15SM FEW060CB FEW100 FEW250 15/01 A3000 RMK CB1AC1CI1 VIRGA SLP175

CYQF;2007-05-11 02:00;CYQF 110200Z 13013KT 15SM FEW060 FEW100 14/01 A3000 RMK CU1AC2 VIRGA SLP175

CYQF;2007-05-11 03:00;CYQF 110300Z 12006KT 15SM FEW060 FEW100 12/02 A3001 RMK CU2AC1 VIRGA TCU DIST NW SLP180

CYQF;2007-05-11 04:00;CYQF 110400Z 11006KT 15SM FEW060 FEW100 10/02 A3002 RMK CU2AC1 TCU DIST NW SLP184

CYQF;2007-05-11 05:00;CYQF 110500Z 12004KT 15SM FEW060 FEW100 09/02 A3003 RMK CU1AC2 SLP187

CYQF;2007-05-11 06:00;CYQF 110600Z 14005KT 15SM SKC 09/01 A3002 RMK SLP183

CYQF;2007-05-11 07:00;CYQF 110700Z 00000KT 15SM FEW060 07/02 A3002 RMK CU1 SLP182

CYQF;2007-05-11 08:00;CYQF 110800Z 16004KT 15SM FEW060 07/02 A3003 RMK SC1 SLP185

CYQF;2007-05-11 09:00;CYQF 110900Z 00000KT 15SM SKC 05/01 A3003 RMK SLP186

CYQF;2007-05-11 10:00;CYQF 111000Z 11006KT 15SM SKC 05/02 A3003 RMK SLP186

CYQF;2007-05-11 11:00;CYQF 111100Z 00000KT 15SM SKC 04/01 A3003 RMK SLP187

CYQF;2007-05-11 12:00;CYQF 111200Z CCA 00000KT 15SM SKC 03/01 A3003 RMK SLP190

CYQF;2007-05-11 13:00;CYQF 111300Z 00000KT 15SM FEW250 04/02 A3004 RMK CI2 SLP191

CYQF;2007-05-11 14:00;CYQF 111400Z 00000KT 15SM BKN250 07/04 A3003 RMK CI1 SLP190

CYQF;2007-05-11 15:00;CYQF 111500Z 19005KT 15SM BKN250 08/05 A3003 RMK CI2 SLP187

CYQF;2007-05-11 16:00;CYQF 111600Z 18005KT 15SM SCT250 12/06 A3003 RMK CI1 SLP186

CYQF;2007-05-11 17:00;CYQF 111700Z 18006KT 15SM FEW250 15/06 A3001 RMK CI0 SLP181

CYQF;2007-05-11 18:00;CYQF 111800Z 17008KT 15SM FEW050 18/04 A3000 RMK CU1 SLP171

CYQF;2007-05-11 19:00;CYQF 111900Z 18010G15KT 15SM FEW065 19/02 A2999 RMK CU1 SLP166

CYQF;2007-05-11 20:00;CYQF 112000Z 19010G15KT 15SM FEW070 21/03 A2996 RMK CU2 SLP159

CYQF;2007-05-11 21:00;CYQF 112100Z 18010G16KT 15SM SCT080 22/01 A2995 RMK CU4 TCU ASOCTD SLP151

CYQF;2007-05-11 22:00;CYQF 112200Z 15014KT 15SM SCT060 BKN100 22/M01 A2992 RMK CU4AC1 FEW TCU SLP142

CYQF;2007-05-11 23:00;CYQF 112300Z 24010KT 15SM SCT060 BKN100 22/M04 A2991 RMK CU4AC1 FEW TCU SLP141

CYQF;2007-05-12 00:00;CYQF 120000Z 27006KT 15SM SCT060 22/M05 A2991 RMK CU3 SLP140

CYQF;2007-05-12 01:00;CYQF 120100Z 24002KT 15SM FEW060 22/M05 A2990 RMK CU2 SLP138

CYQF;2007-05-12 02:00;CYQF 120200Z 30005KT 15SM FEW100 20/M03 A2991 RMK AC1 SLP139

CYQF;2007-05-12 03:00;CYQF 120300Z 30004KT 15SM FEW100 FEW250 16/M02 A2991 RMK AC1CI1 SLP142

CYQF;2007-05-12 04:00;CYQF 120400Z 00000KT 15SM FEW250 13/M00 A2992 RMK CI1 SLP145

CYQF;2007-05-12 05:00;CYQF 120500Z 00000KT 15SM FEW250 10/02 A2993 RMK CI0 SLP146

CYQF;2007-05-12 06:00;CYQF 120600Z 00000KT 15SM SKC 08/03 A2992 RMK SLP142

CYQF;2007-05-12 07:00;CYQF 120700Z 14004KT 15SM FEW250 08/03 A2992 RMK CI1 SLP143

CYQF;2007-05-12 08:00;CYQF 120800Z 00000KT 15SM BKN250 07/00 A2991 RMK CI2 SLP140

CYQF;2007-05-12 09:00;CYQF 120900Z 00000KT 15SM BKN250 06/00 A2988 RMK CI2 SLP128

CYQF;2007-05-12 10:00;CYQF 121000Z 25003KT 15SM BKN250 04/00 A2987 RMK CI3 SLP124

CYQF;2007-05-12 11:00;CYQF 121100Z 25006KT 15SM BKN250 06/M02 A2985 RMK CI3 SLP120

CYQF;2007-05-12 12:00;CYQF 121200Z 00000KT 15SM BKN250 06/M01 A2985 RMK CI2 SLP115

CYQF;2007-05-12 13:00;CYQF 121300Z 21003KT 15SM BKN250 05/00 A2985 RMK CI2 SLP115

CYQF;2007-05-12 15:00;CYQF 121500Z CCA 20003KT 15SM BKN270 14/01 A2983 RMK CI2 SLP108

CYQF;2007-05-12 16:00;CYQF 121600Z CCA 18011KT 15SM SCT270 18/M02 A2983 RMK CI2 SLP106

CYQF;2007-05-12 17:00;CYQF 121700Z CCA 23010KT 15SM SCT270 20/M01 A2981 RMK CI2 SLP101

CYQF;2007-05-12 18:00;CYQF 121800Z CCA 30007KT 15SM FEW050 SCT270 20/M02 A2981 RMK CU1CI2 SLP102

CYQF;2007-05-12 19:00;CYQF 121900Z CCA 35018G25KT 15SM FEW050 BKN270 18/02 A2983 RMK CU1CI3 SLP109

CYQF;2007-05-12 20:00;CYQF 122000Z CCA 36015G20KT 15SM FEW050 SCT270 16/02 A2985 RMK CU1CI2 SLP114

CYQF;2007-05-12 21:00;CYQF 122100Z 36015G22KT 15SM FEW050 17/03 A2987 RMK CU2 SLP129

CYQF;2007-05-12 22:00;CYQF 122200Z 36014G20KT 15SM FEW050 16/01 A2988 RMK CU2 SLP134

CYQF;2007-05-12 23:00;CYQF 122300Z 01016G23KT 15SM SCT250 16/01 RMK CI2 ALTM MISG SLP137

CYQF;2007-05-13 01:00;CYQF 130100Z CCA 36015G21KT 15SM BKN250 15/01 A2992 RMK CI2 -VIA YEG FIC- SLP148

CYQF;2007-05-13 02:00;CYQF 130200Z 36012KT 15SM BKN250 14/00 A2994 RMK CI2 SLP152

CYQF;2007-05-13 03:00;CYQF 130300Z CCA 02006KT 15SM BKN250 13/01 A2995 RMK CI2 SLP154

CYQF;2007-05-13 04:00;CYQF 130400Z 02004KT 15SM BKN250 11/00 A2998 RMK CI2 SLP162

CYQF;2007-05-13 05:00;CYQF 130500Z 35003KT 15SM SCT250 08/01 A3000 RMK CI2 SLP167

CYQF;2007-05-13 06:00;CYQF 130600Z 32003KT 15SM SKC 06/00 RMK ALTM MISG SLP176

CYQF;2007-05-13 07:00;CYQF 130700Z 32005KT 15SM SKC 06/00 RMK ALTM MISG SLP181

CYQF;2007-05-13 08:00;CYQF 130800Z 36004KT 15SM SKC 07/M01 RMK ALTM MISG SLP191

CYQF;2007-05-13 09:00;CYQF 130900Z 02004KT 15SM FEW250 05/M01 RMK CI1 ALTM MISG SLP209

CYQF;2007-05-13 10:00;CYQF 131000Z 02002KT 15SM SCT090 OVC250 05/M01 RMK AC3CI3 ALTM MISG SLP216

CYQF;2007-05-13 11:00;CYQF 131100Z 36003KT 15SM OVC090 05/M01 RMK AC7 ALTM MISG SLP215

CYQF;2007-05-13 12:00;CYQF 131200Z 02003KT 15SM BKN080 06/M02 A3012 RMK AC7 SLP217

CYQF;2007-05-13 13:00;CYQF 131300Z 00000KT 15SM BKN080 OVC250 06/01 A3014 RMK AC7CI0 SLP222

CYQF;2007-05-13 14:00;CYQF 131400Z 00000KT 15SM BKN080 BKN250 07/00 A3015 RMK AC6CI1 SLP224

CYQF;2007-05-13 15:00;CYQF 131500Z 17005KT 15SM FEW050 BKN080 BKN250 08/M01 A3016 RMK CU2AC4CI1 VIRGA SE-SW SLP232

CYQF;2007-05-13 16:00;CYQF 131600Z 16012KT 15SM VCSH SCT040 BKN080 BKN250 08/M01 A3016 RMK CU4AC2CI1 SLP231

CYQF;2007-05-13 17:00;CYQF 131700Z 17010KT 15SM SCT040 BKN080 OVC250 09/M01 A3015 RMK CU3AC3CI1 VIRGA SLP227

CYQF;2007-05-13 18:00;CYQF 131800Z 20009KT 15SM VCSH FEW015 BKN040 OVC080 07/01 A3016 RMK SC1CU5AC2 VIRGA SLP241

CYQF;2007-05-13 19:00;CYQF 131900Z 21007KT 15SM BKN040 BKN080 OVC250 07/02 A3014 RMK SC5AC2CI1 VIRGA SLP235

CYQF;2007-05-13 20:00;CYQF 132000Z 20003KT 15SM BKN040 BKN080 OVC250 08/01 A3012 RMK SC5AC2CI1 SLP229

CYQF;2007-05-13 21:00;CYQF 132100Z 14009KT 15SM SCT045 BKN080 BKN250 10/M00 A3011 RMK SC4AC2CI1 SLP221

CYQF;2007-05-13 22:00;CYQF 132200Z 18007KT 15SM FEW040 BKN080 BKN250 11/M00 A3011 RMK SC2AC3CI2 SLP220

CYQF;2007-05-13 23:00;CYQF 132300Z 14003KT 15SM FEW025 BKN080 BKN250 12/00 A3010 RMK SC2AC4CI1 SLP217

CYQF;2007-05-14 00:00;CYQF 140000Z 14009KT 15SM FEW025 BKN055 OVC090 12/M01 A3010 RMK SC1SC6AC1 SLP213

CYQF;2007-05-14 01:00;CYQF 140100Z 16006KT 15SM FEW025 BKN050 OVC090 11/M01 A3010 RMK SC1SC6AC2 SLP214

CYQF;2007-05-14 02:00;CYQF 140200Z 15010KT 15SM BKN050 OVC100 11/M02 A3011 RMK SC6AC2 SLP218

CYQF;2007-05-14 03:00;CYQF 140300Z 18005KT 15SM BKN050 BKN100 10/00 A3013 RMK SC5AC2 SLP223

CYQF;2007-05-14 04:00;CYQF 140400Z 19003KT 15SM SCT050 SCT100 BKN250 07/00 A3015 RMK SC3AC1CI0 SLP230

CYQF;2007-05-14 05:00;CYQF 140500Z 21004KT 15SM SCT050 BKN250 05/00 A3015 RMK SC3CI0 SLP230

CYQF;2007-05-14 06:00;CYQF 140600Z 24005KT 15SM SCT250 05/00 A3016 RMK CI2 SLP243

CYQF;2007-05-14 07:00;CYQF 140700Z 25005KT 15SM FEW250 03/M00 A3017 RMK CI0 SLP245

CYQF;2007-05-14 08:00;CYQF 140800Z 25005KT 15SM SKC 02/M01 A3018 RMK SLP248

CYQF;2007-05-14 09:00;CYQF 140900Z 23003KT 15SM SKC 02/M01 A3018 RMK SLP250

CYQF;2007-05-14 10:00;CYQF 141000Z 00000KT 15SM FEW250 01/M01 A3020 RMK CI1 SLP256

CYQF;2007-05-14 11:00;CYQF 141100Z 00000KT 15SM FEW100 SCT250 00/M01 A3022 RMK AC2CI0 SLP262

CYQF;2007-05-14 12:00;CYQF 141200Z 18003KT 10SM SCT080 BKN120 BKN250 01/M01 A3024 RMK AC3AC2CI1 VIRGA ACC ASOCTD SLP267

CYQF;2007-05-14 13:00;CYQF 141300Z 22002KT 15SM SCT080 BKN120 BKN250 03/01 A3026 RMK AC3AC2CI2 VIRGA SLP274

CYQF;2007-05-14 14:00;CYQF 141400Z 00000KT 15SM FEW060 BKN100 BKN250 05/02 A3027 RMK SC2AC4CI1 SLP279

CYQF;2007-05-14 15:00;CYQF 141500Z 00000KT 15SM FEW060 BKN100 BKN250 08/04 A3029 RMK SC2AC2CI1 VIRGA SLP281

CYQF;2007-05-14 16:00;CYQF 141600Z 00000KT 15SM FEW036 BKN080 BKN250 11/02 A3030 RMK CU1AC5CI1 VIRGA SLP282

CYQF;2007-05-14 17:00;CYQF 141700Z 29005KT 15SM FEW040TCU BKN080 12/01 A3030 RMK TCU2AC5 VIRGA SLP282

CYQF;2007-05-14 18:00;CYQF 141800Z 29006KT 15SM SCT050TCU BKN080 13/M00 A3029 RMK TCU4AC1 SLP279

CYQF;2007-05-14 19:00;CYQF 141900Z 29005KT 15SM VCSH BKN050TCU BKN090 13/M01 A3029 RMK TCU5AC2 SLP279

CYQF;2007-05-14 20:00;CYQF 142000Z 01003KT 15SM SCT050TCU BKN090 13/M01 A3029 RMK TCU3AC2 VIRGA SLP279

CYQF;2007-05-14 21:00;CYQF 142100Z 30009KT 15SM BKN050TCU BKN090 15/00 A3028 RMK TCU5AC2 SHS NE VIRGA W SLP278

CYQF;2007-05-14 21:21;CYQF 142121Z 34014KT 15SM -SHRA BKN050TCU BKN090 RMK TCU5AC2

CYQF;2007-05-14 21:39;CYQF 142139Z 04005KT 15SM BKN050TCU BKN090 RMK TCU5AC2

CYQF;2007-05-14 22:00;CYQF 142200Z 31002KT 15SM SCT050TCU BKN090 15/00 A3028 RMK TCU3AC2 SLP280

CYQF;2007-05-14 23:00;CYQF 142300Z 33003KT 15SM SCT060 SCT100 15/M01 A3027 RMK CU3AC1 SLP276

CYQF;2007-05-15 00:00;CYQF 150000Z 34005KT 15SM SCT060 SCT250 14/M01 A3027 RMK CU3CI0 SLP275

CYQF;2007-05-15 01:00;CYQF 150100Z 36005KT 15SM FEW060 SCT250 15/M01 A3026 RMK CU2CI0 SLP274

CYQF;2007-05-15 02:00;CYQF 150200Z 33002KT 15SM FEW060 SCT250 15/M02 A3026 RMK SC2CI0 SLP273

CYQF;2007-05-15 03:00;CYQF 150300Z 30002KT 15SM FEW060 SCT250 12/M01 A3027 RMK SC1CI2 SLP271

CYQF;2007-05-15 04:00;CYQF 150400Z 11002KT 15SM FEW050 SCT250 10/M00 A3028 RMK SC1CI2 SLP273

CYQF;2007-05-15 05:00;CYQF 150500Z 16002KT 15SM FEW250 06/M00 A3028 RMK CI1 SLP273

CYQF;2007-05-15 06:00;CYQF 150600Z 19004KT 15SM SKC 05/01 A3028 RMK SLP276

CYQF;2007-05-15 07:00;CYQF 150700Z 00000KT 15SM SKC 05/00 A3028 RMK SLP275

CYQF;2007-05-15 08:00;CYQF 150800Z 00000KT 15SM FEW250 04/00 A3028 RMK CI2 SLP275

CYQF;2007-05-15 09:00;CYQF 150900Z 00000KT 15SM FEW090 04/01 A3027 RMK AC2 SLP274

CYQF;2007-05-15 10:00;CYQF 151000Z 00000KT 15SM FEW090 FEW250 05/01 A3027 RMK AC2CI1 SLP273

CYQF;2007-05-15 11:00;CYQF 151100Z 19002KT 15SM FEW090 SCT250 03/00 A3026 RMK AC2CI1 SLP271

CYQF;2007-05-15 12:00;CYQF 151200Z 00000KT 15SM FEW090 SCT250 02/M01 A3026 RMK AC2CI2 SLP272

CYQF;2007-05-15 13:00;CYQF 151300Z 18002KT 15SM FEW250 02/00 A3026 RMK CI0 SLP271

CYQF;2007-05-15 14:00;CYQF 151400Z 00000KT 15SM FEW250 08/03 A3026 RMK CI0 SLP271

CYQF;2007-05-15 15:00;CYQF 151500Z 18004KT 15SM SKC 10/04 A3026 RMK SLP264

CYQF;2007-05-15 16:00;CYQF 151600Z 16010KT 15SM SKC 14/04 A3025 RMK SLP260

CYQF;2007-05-15 17:00;CYQF 151700Z 18010KT 15SM SKC 16/03 A3023 RMK SLP256

CYQF;2007-05-15 18:00;CYQF 151800Z 20010KT 15SM FEW055 17/03 A3023 RMK CU1 SLP252

CYQF;2007-05-15 19:00;CYQF 151900Z 17007KT 15SM SCT055 18/01 A3021 RMK CU4 SLP247

CYQF;2007-05-15 20:00;CYQF 152000Z 18010KT 15SM SCT070 19/01 A3019 RMK CU4 SLP242

CYQF;2007-05-15 21:00;CYQF 152100Z 15008KT 15SM SCT070 19/M01 A3018 RMK CU3 SLP236

CYQF;2007-05-15 22:00;CYQF 152200Z 24006KT 15SM SCT075 20/01 A3016 RMK CU3 SLP231

CYQF;2007-05-15 23:00;CYQF 152300Z 00000KT 15SM FEW075 20/M01 A3015 RMK CU2 SLP226

CYQF;2007-05-16 00:00;CYQF 160000Z 34003KT 15SM FEW075 20/M02 A3013 RMK CU1 SLP221

CYQF;2007-05-16 01:00;CYQF 160100Z 17004KT 15SM FEW075 20/M01 A3012 RMK CU1 SLP217

CYQF;2007-05-16 02:00;CYQF 160200Z 14007KT 15SM SKC 19/01 A3011 RMK SLP213

CYQF;2007-05-16 03:00;CYQF 160300Z 16007KT 15SM FEW250 16/02 A3011 RMK CI1 SLP207

CYQF;2007-05-16 04:00;CYQF 160400Z 16007KT 15SM FEW250 14/02 A3011 RMK CI1 SLP207

CYQF;2007-05-16 05:00;CYQF 160500Z 15010KT 15SM FEW250 13/02 A3011 RMK CI1 SLP207

CYQF;2007-05-16 06:00;CYQF 160600Z 16010KT 15SM SKC 12/02 A3010 RMK SLP201

CYQF;2007-05-16 07:00;CYQF 160700Z 18008KT 15SM SKC 10/02 A3009 RMK OBS TAKEN +07 SLP198

CYQF;2007-05-16 08:00;CYQF 160800Z 17008KT 15SM FEW250 10/02 A3008 RMK CI1 SLP196

CYQF;2007-05-16 09:00;CYQF 160900Z 17007KT 15SM FEW250 10/02 A3006 RMK CI1 SLP190

CYQF;2007-05-16 10:00;CYQF 161000Z 17006KT 15SM BKN250 08/02 A3005 RMK CI3 SLP184

CYQF;2007-05-16 11:00;CYQF 161100Z 17010KT 15SM BKN250 09/02 A3003 RMK CI3 SLP178

CYQF;2007-05-16 12:00;CYQF 161200Z 17007KT 15SM BKN250 08/01 A3001 RMK CI3 SLP170

CYQF;2007-05-16 13:00;CYQF 161300Z 17011KT 15SM BKN250 09/02 A3000 RMK CI5 SLP167

CYQF;2007-05-16 14:00;CYQF 161400Z 18008KT 15SM BKN250 09/02 A2998 RMK CI5 SLP162

CYQF;2007-05-16 15:00;CYQF 161500Z 17008KT 15SM BKN250 11/04 A2996 RMK CI5 SLP156

CYQF;2007-05-16 16:00;CYQF 161600Z 18010KT 15SM BKN250 15/04 A2996 RMK CI3 SLP154

CYQF;2007-05-16 17:00;CYQF 161700Z 17010KT 15SM BKN250 18/06 A2994 RMK CI3 SLP147

CYQF;2007-05-16 18:00;CYQF 161800Z 18008KT 15SM SCT250 20/05 A2992 RMK CI2 SLP134

CYQF;2007-05-16 19:00;CYQF 161900Z 22007KT 15SM SCT250 23/04 A2989 RMK CI2 SLP126

CYQF;2007-05-16 20:00;CYQF 162000Z 13003KT 15SM FEW070 SCT250 24/03 A2986 RMK CU1CI2 SLP117

CYQF;2007-05-16 21:00;CYQF 162100Z 07003KT 15SM FEW075 SCT250 24/01 A2983 RMK CU2CI2 SLP104

CYQF;2007-05-16 22:00;CYQF 162200Z 11008KT 15SM FEW075 BKN250 25/00 A2981 RMK CU2CI2 SLP098

CYQF;2007-05-16 23:00;CYQF 162300Z 20004KT 15SM BKN100TCU BKN250 25/01 A2979 RMK TCU6CI1 SLP091

CYQF;2007-05-17 00:00;CYQF 170000Z 30006KT 15SM SCT100TCU BKN250 25/00 A2978 RMK TCU3CI2 SLP085

CYQF;2007-05-17 01:00;CYQF 170100Z 29010KT 15SM FEW080 BKN120 OVC250 22/01 A2978 RMK CU2AC3CI2 TCU/VIRGA W SLP085

CYQF;2007-05-17 02:00;CYQF 170200Z 30005KT 15SM FEW080 BKN120 OVC250 20/04 A2977 RMK AC2AC4CI1 SLP083

CYQF;2007-05-17 03:00;CYQF 170300Z 30008KT 15SM FEW080 FEW120 OVC250 18/05 A2978 RMK AC1AC1CI4 SLP091

CYQF;2007-05-17 04:00;CYQF 170400Z 32005KT 15SM FEW080 SCT250 15/03 A2979 RMK AC1CI2 SLP094

CYQF;2007-05-17 05:00;CYQF 170500Z 00000KT 15SM FEW080 FEW250 14/04 A2980 RMK AC1CI1 SLP096

CYQF;2007-05-17 06:00;CYQF 170600Z 00000KT 15SM SKC 11/05 A2980 RMK SLP095

CYQF;2007-05-17 07:00;CYQF 170700Z 20003KT 15SM SKC 09/04 A2980 RMK SLP096

CYQF;2007-05-17 08:00;CYQF 170800Z 21006KT 15SM SCT250 08/04 A2981 RMK CI2 SLP097

CYQF;2007-05-17 09:00;CYQF 170900Z 18003KT 15SM SCT250 09/04 A2981 RMK CI2 SLP098

CYQF;2007-05-17 10:00;CYQF 171000Z 22003KT 15SM BKN250 07/03 A2982 RMK CI3 SLP099

CYQF;2007-05-17 11:00;CYQF 171100Z 00000KT 15SM FEW080 BKN250 08/03 A2983 RMK AC1CI4 SLP102

CYQF;2007-05-17 12:00;CYQF 171200Z 27002KT 15SM FEW080 BKN250 07/03 A2983 RMK AC1CI3 SLP105

CYQF;2007-05-17 13:00;CYQF 171300Z 00000KT 15SM FEW080 BKN250 09/04 A2985 RMK AC2CI3 SLP111

CYQF;2007-05-17 14:00;CYQF 171400Z 00000KT 15SM FEW070 BKN250 11/05 A2986 RMK AC2CI1 SLP115

CYQF;2007-05-17 15:00;CYQF 171500Z 36005KT 15SM FEW050 BKN250 14/04 A2988 RMK SC2CI2 SLP122

CYQF;2007-05-17 16:00;CYQF 171600Z 35004KT 15SM FEW060 BKN250 16/04 A2989 RMK SC2CI1 SLP124

CYQF;2007-05-17 17:00;CYQF 171700Z 03011KT 15SM FEW060 BKN250 17/03 A2988 RMK SC1CI2 SLP122

CYQF;2007-05-17 18:00;CYQF 171800Z 01007KT 15SM FEW060 BKN250 18/04 A2987 RMK CF1CI2 SLP123

CYQF;2007-05-17 19:00;CYQF 171900Z 02010KT 15SM FEW060 BKN250 19/04 A2985 RMK CF1CI2 SLP117

CYQF;2007-05-17 20:00;CYQF 172000Z 12008KT 15SM FEW060 OVC250 20/04 A2984 RMK CU1CS2 HZ SLP113

CYQF;2007-05-17 21:00;CYQF 172100Z 08007KT 15SM FEW050 BKN110 OVC250 21/04 A2982 RMK CF1AC5CI1 HZ SLP104

CYQF;2007-05-17 22:00;CYQF 172200Z 03002KT 15SM SCT110 OVC250 21/04 A2981 RMK AC3CI2 SLP102

CYQF;2007-05-17 23:00;CYQF 172300Z 09007KT 15SM FEW070 BKN100 OVC250 21/05 A2980 RMK CU2AC3CI2 SLP099

CYQF;2007-05-18 00:00;CYQF 180000Z 05007KT 15SM FEW070 BKN100 OVC250 21/05 A2979 RMK CU2AC3CI2 SLP095

CYQF;2007-05-18 01:00;CYQF 180100Z 07010KT 15SM FEW060TCU BKN100 OVC250 21/04 A2978 RMK TCU2AC3CI2 SLP092

CYQF;2007-05-18 02:00;CYQF 180200Z 06008KT 15SM VCSH BKN060TCU BKN100 OVC250 19/05 A2978 RMK TCU5AC2CI2 SLP094

CYQF;2007-05-18 02:18;CYQF 180218Z 18002KT 15SM -SHRA BKN060TCU BKN100 OVC250 RMK TCU6AC1CI1

CYQF;2007-05-18 02:42;CYQF 180242Z 04010G16KT 15SM VCSH BKN060TCU BKN100 OVC250 RMK TCU5AC2CI1

CYQF;2007-05-18 03:00;CYQF 180300Z CCA 01015G20KT 15SM SCT060TCU BKN100 BKN250 17/05 A2980 RMK TCU4AC1CI2 SHWRS ALQDS SLP096

CYQF;2007-05-18 04:00;CYQF 180400Z 02015G20KT 15SM BKN060TCU BKN100 BKN250 15/05 A2982 RMK TCU6AC1CI1 VIRGA ALQDS SLP101

CYQF;2007-05-18 05:00;CYQF 180500Z 03015G20KT 15SM FEW060TCU BKN100 OVC250 13/04 A2985 RMK TCU2AC3CI2 CB NW SLP109

CYQF;2007-05-18 06:00;CYQF 180600Z 02015G23KT 15SM FEW030 BKN080 12/04 A2987 RMK CU2AC5 SLP123

CYQF;2007-05-18 06:16;CYQF 180616Z 36015G21KT 10SM -SHRA OVC040 RMK SC8 CU ASOCTD

CYQF;2007-05-18 07:00;CYQF 180700Z 03010KT 10SM -SHRA OVC040 10/06 A2992 RMK SC8 SLP136

CYQF;2007-05-18 08:00;CYQF 180800Z 04005KT 15SM -SHRA FEW040 SCT250 08/05 A2993 RMK SC2CI0 SLP139

CYQF;2007-05-18 08:10;CYQF 180810Z 03005KT 15SM FEW040 FEW250 RMK SC2CI0

CYQF;2007-05-18 09:00;CYQF 180900Z 33006KT 15SM BKN040 07/04 A2993 RMK SC6 SLP145

CYQF;2007-05-18 10:00;CYQF 181000Z 31005KT 15SM OVC040 07/04 A2995 RMK SC8 SLP152

CYQF;2007-05-18 11:00;CYQF 181100Z 33005KT 15SM BKN040 OVC080 08/04 A2997 RMK SC6AC2 SLP158

CYQF;2007-05-18 12:00;CYQF 181200Z 33005KT 15SM BKN040 OVC080 07/05 A2998 RMK SC6AC2 SLP163

CYQF;2007-05-18 12:27;CYQF 181227Z 33008KT 15SM BKN014 OVC040 RMK SC6SC2

CYQF;2007-05-18 13:00;CYQF 181300Z 33005KT 15SM BKN012 OVC040 07/05 A3000 RMK SC6SC2 SLP167

CYQF;2007-05-18 13:41;CYQF 181341Z 33010KT 10SM -RA BKN012 OVC040 RMK SC6SC2

CYQF;2007-05-18 14:00;CYQF 181400Z 34006KT 3SM -RA BR BKN006 OVC012 07/06 A3001 RMK SF6SC2 SLP172

CYQF;2007-05-18 14:18;CYQF 181418Z 36008KT 1 1/4SM -RA BR BKN006 OVC012 RMK SF7SC1

CYQF;2007-05-18 14:47;CYQF 181447Z 36006KT 2SM -RA BR BKN006 OVC012 RMK SF7SC1 CIG RAG

CYQF;2007-05-18 15:00;CYQF 181500Z 02010KT 2SM -RA BR BKN005 OVC012 07/06 A3002 RMK SF7SC1 CIG RAG SLP179

CYQF;2007-05-18 16:00;CYQF 181600Z 03010KT 6SM -RA BR BKN006 OVC012 07/06 A3004 RMK SF7SC1 CIG RAG SLP186

CYQF;2007-05-18 17:00;CYQF 181700Z CCA 03007KT 12SM -RA BKN007 OVC012 07/06 A3005 RMK SF7SC1 CIG RAG SLP190

CYQF;2007-05-18 18:00;CYQF 181800Z 02008KT 10SM -RA BKN007 OVC020 08/06 A3007 RMK SF6SC2 CIG RAG BR SLP202

CYQF;2007-05-18 18:51;CYQF 181851Z 05010KT 2SM -RA BR BKN005 OVC020 RMK SF6SC2 CIG RAG

CYQF;2007-05-18 19:00;CYQF 181900Z 04010KT 2SM -RA BR BKN005 OVC020 08/07 A3007 RMK SF6SC2 CIG RAG VIS N 4 SLP203

CYQF;2007-05-18 19:15;CYQF 181915Z CCA 06010KT 5SM -DZ BR BKN006 OVC020 RMK SF6SC2 CIG RAG

CYQF;2007-05-18 20:00;CYQF 182000Z 08011KT 10SM BKN008 OVC020 09/07 A3008 RMK SC6SC2 CU ASCOTD SLP205

CYQF;2007-05-18 21:00;CYQF 182100Z 06011KT 15SM BKN010 OVC020 09/06 A3007 RMK SC6SC2 CU ASCOTD SLP208

CYQF;2007-05-18 22:00;CYQF 182200Z 07012KT 15SM BKN013 OVC020 09/07 A3008 RMK SC6SC2 SLP211

CYQF;2007-05-18 23:00;CYQF 182300Z 09010KT 15SM OVC013 09/06 A3008 RMK SC8 SLP211

CYQF;2007-05-19 00:00;CYQF 190000Z 09012KT 15SM OVC011 09/06 A3008 RMK SC8 SLP210

CYQF;2007-05-19 01:00;CYQF 190100Z 10010KT 15SM BKN012 OVC040 08/06 A3008 RMK SC6SC2 SLP209

CYQF;2007-05-19 02:00;CYQF 190200Z 10010KT 15SM BKN012 OVC040 08/06 A3007 RMK SC6SC2 SLP208

CYQF;2007-05-19 03:00;CYQF 190300Z 09010KT 15SM OVC011 08/06 A3007 RMK SC8 SLP207

CYQF;2007-05-19 04:00;CYQF 190400Z 09010KT 15SM BKN012 OVC040 08/06 A3006 RMK SC6SC2 SLP205

CYQF;2007-05-19 05:00;CYQF 190500Z 09008KT 15SM SCT012 OVC050 08/05 A3005 RMK SC4SC4 SLP200

CYQF;2007-05-19 06:00;CYQF 190600Z 13013G23KT 15SM FEW012 OVC050 08/04 A3003 RMK SC2SC6 SLP192

CYQF;2007-05-19 07:00;CYQF 190700Z 13015G20KT 15SM FEW010 OVC045 07/02 A3004 RMK SC2SC6 SLP195

CYQF;2007-05-19 08:00;CYQF 190800Z 15010G16KT 15SM FEW010 OVC045 06/02 A3001 RMK SC1SC7 SLP186

CYQF;2007-05-19 09:00;CYQF 190900Z 13010G15KT 15SM OVC045 05/02 A2998 RMK SC8 SLP178

CYQF;2007-05-19 10:00;CYQF 191000Z 14015G20KT 15SM FEW010 SCT040 04/01 A2998 RMK SC1SC2 SLP177

CYQF;2007-05-19 11:00;CYQF 191100Z 14010KT 15SM SCT040 BKN250 03/M00 A2996 RMK SC2CI1 SLP172

CYQF;2007-05-19 12:00;CYQF 191200Z 12010KT 10SM FEW010 BKN025 OVC060 03/M00 A2995 RMK SC2SC5SC1 SLP169

CYQF;2007-05-19 13:00;CYQF 191300Z 13010KT 10SM FEW010 SCT030 OVC250 03/M01 A2993 RMK SC1SC2CI2 SLP163

CYQF;2007-05-19 14:00;CYQF 191400Z 15012KT 10SM FEW010 OVC030 03/00 A2992 RMK SF2SC6 SLP159

CYQF;2007-05-19 14:10;CYQF 191410Z 15010G15KT 10SM BKN011 OVC030 RMK SC6SC2

CYQF;2007-05-19 15:00;CYQF 191500Z 14010G15KT 10SM OVC014 04/01 A2989 RMK SC8 SLP149

CYQF;2007-05-19 16:00;CYQF 191600Z 15010KT 15SM OVC014 05/01 A2987 RMK SC8 SLP141

CYQF;2007-05-19 17:00;CYQF 191700Z 14010KT 15SM SCT014 OVC120 08/03 A2985 RMK SC4AS4 SLP136

CYQF;2007-05-19 18:00;CYQF 191800Z 14010G15KT 15SM FEW014 SCT120 OVC210 10/04 A2982 RMK SC1AC3CS4 SLP118

CYQF;2007-05-19 19:00;CYQF 191900Z 14015G20KT 15SM FEW015 BKN120 OVC210 11/04 A2980 RMK SC1AC6CS2 SLP111

CYQF;2007-05-19 20:00;CYQF 192000Z 17010G15KT 15SM FEW015 BKN120 BKN210 12/05 A2979 RMK SC1AC3CS3 SLP109

CYQF;2007-05-19 21:00;CYQF 192100Z 18010KT 15SM BKN025 OVC120 12/06 A2979 RMK SC7AC1 SLP108

CYQF;2007-05-19 22:00;CYQF 192200Z 00000KT 15SM BKN025 OVC120 11/06 A2981 RMK SC7AC1 SLP112

CYQF;2007-05-19 22:22;CYQF 192222Z 00000KT 15SM -SHRA BKN025 OVC120 RMK SC6AC2 HVY SHWRS SE-SW

CYQF;2007-05-19 23:00;CYQF 192300Z 30005KT 15SM -SHRA SCT025 BKN060 OVC120 11/07 A2981 RMK SC3SC2AC2 SLP112

CYQF;2007-05-20 00:00;CYQF 200000Z 09013KT 15SM FEW020 SCT060 BKN120 BKN210 10/08 A2974 RMK CU2SC2AC2CI1 SLP096

CYQF;2007-05-20 01:00;CYQF 200100Z 31006KT 15SM FEW015 BKN090 BKN210 12/08 A2977 RMK CU1AC5CI1 VIRGA TCU SE SLP105

CYQF;2007-05-20 02:00;CYQF 200200Z 33006KT 15SM FEW020 SCT090 BKN250 12/06 A2977 RMK CU1AC2CI1 ACC ASCOTD SLP106

CYQF;2007-05-20 03:00;CYQF 200300Z 28003KT 15SM FEW040 BKN090 BKN250 10/07 A2978 RMK SC2AC2CI0 SLP109

CYQF;2007-05-20 04:00;CYQF 200400Z 30003KT 15SM BKN090 09/06 A2978 RMK AC6 SLP109

CYQF;2007-05-20 05:00;CYQF 200500Z 30003KT 15SM BKN100 08/06 A2978 RMK AC6 SLP107

CYQF;2007-05-20 06:00;CYQF 200600Z 31002KT 15SM BKN100 06/05 A2979 RMK AC7 SLP109

CYQF;2007-05-20 07:00;CYQF 200700Z 32004KT 15SM SCT080 06/04 A2978 RMK AC4 SLP107

CYQF;2007-05-20 08:00;CYQF 200800Z 33002KT 10SM FEW080 06/05 A2979 RMK AC2 MIFG SLP109

CYQF;2007-05-20 08:32;CYQF 200832Z 14002KT 2SM BR SKC RMK FG2

CYQF;2007-05-20 08:47;CYQF 200847Z 33004KT 3/4SM BR SKC RMK FG5

CYQF;2007-05-20 09:00;CYQF 200900Z 34004KT 1/2SM FG VV005 05/04 A2981 RMK FG8 SLP113

CYQF;2007-05-20 10:00;CYQF 201000Z 35006KT 1/2SM FG VV005 06/06 A2982 RMK FG8 SLP118

CYQF;2007-05-20 10:19;CYQF 201019Z 36008KT 1SM BR SKC RMK FG4

CYQF;2007-05-20 10:37;CYQF 201037Z 35004KT 3SM BR SKC RMK FG1

CYQF;2007-05-20 11:00;CYQF 201100Z 34002KT 6SM BR FEW080 06/05 A2983 RMK AC2 SLP120

CYQF;2007-05-20 12:00;CYQF 201200Z 25004KT 2SM BR SCT090 03/03 A2984 RMK FG2AC2 SLP130

CYQF;2007-05-20 13:00;CYQF 201300Z 19002KT 2SM BR SCT040 BKN090 06/05 A2985 RMK FG1SC2AC3 SLP131

CYQF;2007-05-20 13:50;CYQF 201350Z 27005KT 3SM BR SCT040 BKN090 RMK SC3AC2

CYQF;2007-05-20 14:00;CYQF 201400Z 28007KT 3SM BR FEW005 SCT040 BKN090 07/06 A2985 RMK SF1SC2AC2 SLP133

CYQF;2007-05-20 14:32;CYQF 201432Z 30006KT 2SM BR FEW005 SCT040 BKN090 RMK FG2SF1SC2AC2 SF TR

CYQF;2007-05-20 15:00;CYQF 201500Z 28003KT 2SM BR SCT005 BKN090 07/05 A2985 RMK FG2SF2AC2 SLP130

CYQF;2007-05-20 15:28;CYQF 201528Z 00000KT 3SM BR SCT005 BKN090 RMK SF3AC1 VSBY SE-S 2 BR

CYQF;2007-05-20 15:51;CYQF 201551Z 00000KT 6SM BR SCT015 BKN090 RMK CU3AC1

CYQF;2007-05-20 16:00;CYQF 201600Z 00000KT 6SM BR SCT015 BKN090 10/05 A2985 RMK CU3AC1 SLP127

CYQF;2007-05-20 17:00;CYQF 201700Z 06004KT 10SM FEW020 BKN090 11/05 A2984 RMK CU2AC4 SLP126

CYQF;2007-05-20 18:00;CYQF 201800Z 05004KT 10SM SCT025 BKN090 12/05 A2983 RMK CU4AC2 TCU ASOCTD SLP120

CYQF;2007-05-20 19:00;CYQF 201900Z 08004KT 10SM BKN030 BKN090 13/05 A2982 RMK CU5AC1 TCU ASOCTD AC TR SLP117

CYQF;2007-05-20 20:00;CYQF 202000Z 08008KT 15SM BKN035TCU BKN090 14/05 A2979 RMK TCU6AC1 CB ASOCTD DIST SW-NW SLP110

CYQF;2007-05-20 21:00;CYQF 202100Z 30015G26KT 15SM VCSH BKN035CB BKN090 10/04 A2980 RMK CB6AC1 SLP112

CYQF;2007-05-20 21:06;CYQF 202106Z 30015G25KT 15SM -SHRAPL BKN035CB BKN090 RMK CB6AC1

CYQF;2007-05-20 21:47;CYQF 202147Z 35008KT 15SM -SHRA SCT035TCU BKN100 BKN210 RMK TCU3AC2CI1

CYQF;2007-05-20 22:00;CYQF 202200Z 36010KT 15SM -SHRA SCT035TCU BKN100 BKN210 09/05 A2978 RMK TCU3AC2CI1 SLP108

CYQF;2007-05-20 22:41;CYQF 202241Z 02010KT 15SM SCT035TCU BKN100 BKN210 RMK TCU4AC2CI1

CYQF;2007-05-20 23:00;CYQF 202300Z 03008KT 15SM BKN035TCU BKN100 BKN210 11/04 A2978 RMK TCU5AC2CI1 SLP108

CYQF;2007-05-20 23:50;CYQF 202350Z 35006KT 15SM -SHRA BKN040TCU OVC100 RMK TCU6AC2

CYQF;2007-05-21 00:00;CYQF 210000Z 34006KT 15SM -SHRA BKN040TCU OVC100 09/05 A2980 RMK TCU6AC2 SLP115

CYQF;2007-05-21 01:00;CYQF 210100Z 24003KT 15SM BKN040 BKN100 09/03 A2978 RMK SC5AC2 TCU EMBD SLP111

CYQF;2007-05-21 02:00;CYQF 210200Z 00000KT 15SM SCT040 OVC100 09/03 A2978 RMK SC4AC4 TCU EMBD SH SW-NW SLP110

CYQF;2007-05-21 03:00;CYQF 210300Z 00000KT 15SM FEW020 SCT040 OVC100 09/05 A2979 RMK CU2SC2AC5 VIRGA SLP107

CYQF;2007-05-21 04:00;CYQF 210400Z 10005KT 15SM FEW020 SCT060 BKN100 OVC200 09/04 A2979 RMK CU1SC3AC2CI2 SLP109

CYQF;2007-05-21 05:00;CYQF 210500Z 00000KT 15SM BKN035 OVC060 08/05 A2980 RMK SC6SC2 SLP110

CYQF;2007-05-21 06:00;CYQF 210600Z 33010KT 15SM BKN035 OVC060 07/04 A2980 RMK SC6SC2 SLP111

CYQF;2007-05-21 06:17;CYQF 210617Z 34006KT 10SM -SHRA BKN035 OVC060 RMK SC6SC2

CYQF;2007-05-21 07:00;CYQF 210700Z 36007KT 10SM -SHRA OVC035 06/04 A2980 RMK SC8 SLP111

CYQF;2007-05-21 08:00;CYQF 210800Z 36012KT 10SM -SHRA OVC035 06/04 A2981 RMK SC8 SLP114

CYQF;2007-05-21 09:00;CYQF 210900Z 35008KT 10SM -RA OVC035 05/03 A2981 RMK SC8 SLP117

CYQF;2007-05-21 09:45;CYQF 210945Z 32010KT 8SM -RA FEW006 OVC035 RMK SF2SC6

CYQF;2007-05-21 10:00;CYQF 211000Z CCA 33012KT 8SM -RA FEW006 OVC023 05/04 A2981 RMK SF2SC6 SLP117

CYQF;2007-05-21 10:03;CYQF 211003Z 33012KT 8SM -RA FEW006 OVC032 05/04 RMK SF2SC6

CYQF;2007-05-21 11:00;CYQF 211100Z 36012KT 8SM -RA FEW006 OVC020 05/04 A2982 RMK SF2SC6 CIG RAG SLP119

CYQF;2007-05-21 12:00;CYQF 211200Z 36014KT 6SM RA FEW006 OVC013 05/03 A2983 RMK SF2SC6 CIG RAG SLP125

CYQF;2007-05-21 12:40;CYQF 211240Z 36014G20KT 5SM -RA BKN007 OVC015 RMK SC6SC2 CIG RAG RERA

CYQF;2007-05-21 13:00;CYQF 211300Z CCA 36015G20KT 5SM -RA OVC006 05/01 A2985 RMK SC8 SLP130

CYQF;2007-05-21 14:00;CYQF 211400Z 33010KT 6SM -RA BKN006 OVC012 05/03 A2986 RMK SC5SC3 SLP134

CYQF;2007-05-21 15:00;CYQF 211500Z 35008KT 10SM -RA SCT006 OVC015 05/04 A2986 RMK SF3SC5 SLP135

CYQF;2007-05-21 16:00;CYQF 211600Z 34012KT 10SM -RA SCT010 OVC020 06/04 A2987 RMK SF3SC5 SLP138

CYQF;2007-05-21 17:00;CYQF 211700Z 34009KT 5SM -RA BKN010 OVC020 07/05 A2988 RMK SF6SC2 CIG RAG SLP141

CYQF;2007-05-21 17:41;CYQF 211741Z 34013KT 15SM SCT015 OVC025 RMK CF4SC4

CYQF;2007-05-21 18:00;CYQF 211800Z 35012G23KT 15SM SCT015 OVC040 08/05 A2988 RMK CU4SC4 SLP142

CYQF;2007-05-21 19:00;CYQF 211900Z 36015G22KT 15SM BKN025 OVC050 09/03 A2987 RMK CU6SC2 SLP139

CYQF;2007-05-21 20:00;CYQF 212000Z 34010G16KT 15SM SCT025 OVC100 09/03 A2988 RMK CU3AC5 SLP143

CYQF;2007-05-21 21:00;CYQF 212100Z 31012G20KT 15SM -RA SCT025TCU BKN100 OVC240 09/05 A2990 RMK TCU3AC4CI1 SLP149

CYQF;2007-05-21 21:19;CYQF 212119Z 32012G20KT 15SM SCT025TCU BKN100 OVC240 RMK TCU3AC4CI1

CYQF;2007-05-21 22:00;CYQF 212200Z 33012G18KT 15SM SCT030 SCT100 OVC240 11/03 A2990 RMK CU3AC1CS4 SLP150

CYQF;2007-05-21 23:00;CYQF 212300Z 34012G18KT 15SM SCT030 BKN100 OVC250 10/02 A2991 RMK CU3AC3CI1 TCU ASOCTD SLP152

CYQF;2007-05-22 00:00;CYQF 220000Z 33016KT 15SM FEW040TCU SCT100 OVC250 11/01 A2991 RMK TCU2AC1CI1 SLP150

CYQF;2007-05-22 01:00;CYQF 220100Z 33012G17KT 15SM SCT040TCU BKN100 BKN250 11/01 A2992 RMK TCU4AC1CI1 SLP154

CYQF;2007-05-22 02:00;CYQF 220200Z 36012KT 15SM SCT040 SCT100 BKN250 11/01 A2993 RMK CU3AC1CI2 FEW TCU SLP157

CYQF;2007-05-22 03:00;CYQF 220300Z 35005KT 15SM SCT040 BKN250 08/02 A2995 RMK CU3CI1 SLP168

CYQF;2007-05-22 04:00;CYQF 220400Z 34004KT 15SM FEW040 SCT100 BKN250 06/01 A2997 RMK CU2AC1CI1 FEW MDT CU SLP175

CYQF;2007-05-22 05:00;CYQF 220500Z 32005KT 15SM FEW040 FEW100 SCT250 05/01 A2999 RMK CU2AC1CI0 SLP179

CYQF;2007-05-22 06:00;CYQF 220600Z 31004KT 15SM FEW100 03/00 A2999 RMK AC2 SLP184

CYQF;2007-05-22 07:00;CYQF 220700Z 29005KT 15SM FEW100 05/01 A3000 RMK AC2 SLP187

CYQF;2007-05-22 08:00;CYQF 220800Z 33006KT 15SM FEW100 03/00 A3001 RMK AC1 SLP190

CYQF;2007-05-22 09:00;CYQF 220900Z 32007KT 15SM FEW100 05/01 A3002 RMK AC1 SLP190

CYQF;2007-05-22 10:00;CYQF 221000Z 31003KT 15SM FEW100 03/M00 A3003 RMK AC1 SLP193

CYQF;2007-05-22 11:00;CYQF 221100Z 00000KT 15SM FEW080 FEW210 02/M01 A3005 RMK AC1CI0 SLP199

CYQF;2007-05-22 12:00;CYQF 221200Z 00000KT 15SM FEW080 FEW210 02/M00 A3006 RMK AC1CI0 SLP206

CYQF;2007-05-22 13:00;CYQF 221300Z 29004KT 15SM FEW080 FEW210 03/00 A3007 RMK AC1CI1 AC TR ACC ASOCTD S-SW SLP210

CYQF;2007-05-22 14:00;CYQF 221400Z 34004KT 15SM FEW040 FEW210 06/02 A3008 RMK CU1CI0 SLP212

CYQF;2007-05-22 15:00;CYQF 221500Z 31003KT 15SM FEW040 FEW100 FEW210 08/03 A3009 RMK CU1AC1CI0 SLP211

CYQF;2007-05-22 16:00;CYQF 221600Z 30005KT 15SM FEW040TCU 10/01 A3008 RMK TCU1 SLP208

CYQF;2007-05-22 17:00;CYQF 221700Z 35008KT 15SM SCT040 12/M01 A3007 RMK CU3 SLP206

CYQF;2007-05-22 18:00;CYQF 221800Z 34009KT 15SM BKN040 11/02 A3007 RMK CU6 TCU ASOCTD SLP207

CYQF;2007-05-22 19:00;CYQF 221900Z 32009KT 15SM BKN050 13/M00 A3007 RMK CU6 TCU ASOCTD SLP209

CYQF;2007-05-22 20:00;CYQF 222000Z 33007KT 15SM BKN050 13/M01 A3006 RMK CU5 TCU ASOCTD SLP206

CYQF;2007-05-22 21:00;CYQF 222100Z 36008KT 15SM SCT050TCU 14/M00 A3006 RMK TCU4 SLP198

CYQF;2007-05-22 22:00;CYQF 222200Z 36007KT 15SM SCT055TCU 15/M02 A3006 RMK TCU4 SLP198

CYQF;2007-05-22 23:00;CYQF 222300Z 00000KT 15SM SCT055TCU SCT100 14/M01 A3005 RMK TCU4AC1 VIRGA SLP196

CYQF;2007-05-23 00:00;CYQF 230000Z CCA 36005KT 15SM SCT055TCU SCT100 14/M03 A3005 RMK TCU4AC1 SHS DIST W SLP197

CYQF;2007-05-23 01:00;CYQF 230100Z 31003KT 15SM FEW055TCU SCT100 15/M02 A3005 RMK TCU2AC1 SHS DIST W SLP197

CYQF;2007-05-23 02:00;CYQF 230200Z 29007KT 15SM SCT055 BKN100 13/03 A3005 RMK CU3AC2 FEW TCU SHS DIST W-NW-N SLP200

CYQF;2007-05-23 03:00;CYQF 230300Z 30006KT 15SM SCT055TCU BKN100 11/03 A3007 RMK TCU3AC2 VIRGA SLP204

CYQF;2007-05-23 04:00;CYQF 230400Z 36010KT 15SM BKN040 BKN100 11/02 A3011 RMK SC5AC1 TCU ASOCTD SLP214

CYQF;2007-05-23 05:00;CYQF 230500Z 35008KT 15SM BKN040 BKN100 09/03 A3015 RMK SC5AC1 TCU ASOCTD SLP226

CYQF;2007-05-23 06:00;CYQF 230600Z 34010KT 15SM BKN040 BKN100 08/04 A3015 RMK SC5AC2 SLP231

CYQF;2007-05-23 06:20;CYQF 230620Z 36012KT 10SM -SHRA BKN040 OVC100 RMK SC6AC2 TCU ASOCTD

CYQF;2007-05-23 07:00;CYQF 230700Z 36010KT 10SM -SHRA BKN045 OVC100 07/04 A3015 RMK SC6AC2 TCU ASOCTD SLP230

CYQF;2007-05-23 08:00;CYQF 230800Z 35014G23KT 15SM BKN016 OVC050 06/03 A3016 RMK SC6SC2 SLP234

CYQF;2007-05-23 09:00;CYQF 230900Z 34012G25KT 15SM OVC015 05/01 A3018 RMK SC8 SLP240

CYQF;2007-05-23 10:00;CYQF 231000Z 34012G20KT 15SM FEW015 OVC030 04/M00 A3019 RMK SF2SC6 SLP243

CYQF;2007-05-23 11:00;CYQF 231100Z 33010KT 15SM OVC030 03/M00 A3020 RMK SC8 SLP246

CYQF;2007-05-23 12:00;CYQF 231200Z 35005KT 15SM BKN030 03/M01 A3020 RMK SC7 SLP248

CYQF;2007-05-23 13:00;CYQF 231300Z 02010KT 15SM BKN040 03/M02 A3020 RMK SC6 SLP249

CYQF;2007-05-23 14:00;CYQF 231400Z 03010KT 15SM FEW020 SCT040 BKN070 03/M03 A3020 RMK CU1SC2AC4 SLP249

CYQF;2007-05-23 15:00;CYQF 231500Z 02007KT 15SM FEW020 SCT040 BKN070 04/M02 A3019 RMK SC2SC2AC3 SLP251

CYQF;2007-05-23 16:00;CYQF 231600Z 01004KT 15SM FEW020 BKN040 BKN070 04/M02 A3019 RMK SC2SC4AC2 SLP251

CYQF;2007-05-23 17:00;CYQF 231700Z 02003KT 15SM FEW020 BKN040 05/M02 A3018 RMK SC2SC6 SLP246

CYQF;2007-05-23 18:00;CYQF 231800Z 33005KT 15SM FEW020 BKN040 06/M02 A3018 RMK SC2SC6 SLP247

CYQF;2007-05-23 19:00;CYQF 231900Z 36010KT 15SM FEW020 BKN040 06/M01 A3017 RMK SC2SC6 SLP244

CYQF;2007-05-23 20:00;CYQF 232000Z 34006KT 15SM FEW025 BKN045 06/M00 A3016 RMK SC2SC5 SLP242

CYQF;2007-05-23 21:00;CYQF 232100Z 01011KT 12SM -SHRA BKN025 OVC045 06/M01 A3016 RMK SC5SC3 SLP245

CYQF;2007-05-23 22:00;CYQF 232200Z 34012KT 15SM -SHRA FEW015 BKN025 OVC045 05/M00 A3017 RMK SF2SC5SC2 SLP247

CYQF;2007-05-23 23:00;CYQF 232300Z 34010KT 12SM -SHRA SCT015 OVC025 04/M01 A3017 RMK SC4SC4 SLP248

CYQF;2007-05-23 23:42;CYQF 232342Z 36011KT 5SM -RASN SCT015 OVC025 RMK SC4SC4

CYQF;2007-05-24 00:00;CYQF 240000Z 01010KT 6SM -RASN BKN013 OVC025 03/01 A3018 RMK SC6SC2 SLP256

CYQF;2007-05-24 00:38;CYQF 240038Z 36007KT 6SM -RA BKN013 OVC025 RMK SC6SC2

CYQF;2007-05-24 01:00;CYQF 240100Z 01007KT 8SM -RA FEW007 BKN010 OVC020 03/01 A3017 RMK SF2SC6SC1 SLP254

CYQF;2007-05-24 02:00;CYQF 240200Z 36007KT 10SM -SHRA FEW006 FEW010 OVC020 03/00 A3016 RMK SF2SC1SC6 SLP251

CYQF;2007-05-24 03:00;CYQF 240300Z 36007KT 10SM -SHRA FEW006 BKN013 OVC030 03/00 A3016 RMK SF2SC6SC1 SLP249

CYQF;2007-05-24 03:10;CYQF 240310Z 36010KT 15SM FEW006 BKN015 OVC030 RMK SF1SC6SC1

CYQF;2007-05-24 04:00;CYQF 240400Z 36005KT 10SM OVC020 03/01 A3017 RMK SC8 SLP250

CYQF;2007-05-24 04:39;CYQF 240439Z 35005KT 10SM -RA OVC020 RMK SC8

CYQF;2007-05-24 05:00;CYQF 240500Z 36010KT 10SM -RA OVC020 03/00 A3015 RMK SC8 SLP246

CYQF;2007-05-24 05:46;CYQF 240546Z 01012KT 2SM -RASN VV020 RMK SN8

CYQF;2007-05-24 06:00;CYQF 240600Z 36012KT 1 1/2SM -SN VV015 01/M00 A3017 RMK SN8 SLP251

CYQF;2007-05-24 06:16;CYQF 240616Z 36010KT 3/4SM -SN VV010 RMK SN8

CYQF;2007-05-24 07:00;CYQF 240700Z 36005KT 3/4SM -SN VV010 00/M01 A3017 RMK SN8 /S02/ SLP250

CYQF;2007-05-24 07:35;CYQF 240735Z 35005KT 1 1/2SM -SN OVC015 RMK SN4SC4

CYQF;2007-05-24 08:00;CYQF 240800Z 35007KT 1 1/2SM -SN OVC012 00/M01 A3016 RMK SN4SC4 /S03/ SLP248

CYQF;2007-05-24 08:30;CYQF 240830Z 32003KT 1SM -SN VV010 RMK SN8

CYQF;2007-05-24 09:00;CYQF 240900Z 32004KT 1SM -SN VV010 00/M01 A3015 RMK SN8 /S04/ SLP247

CYQF;2007-05-24 10:00;CYQF 241000Z 33005KT 1SM -SN VV010 00/M01 A3015 RMK SN8 /S05/ SLP244

CYQF;2007-05-24 11:00;CYQF 241100Z 34005KT 2SM -SN OVC010 00/M01 A3014 RMK SN4SC4 SLP243

CYQF;2007-05-24 12:00;CYQF 241200Z 33007KT 1 1/2SM -SN OVC006 00/M01 A3013 RMK ST8 SLP242

CYQF;2007-05-24 12:40;CYQF 241240Z 33009KT 3/4SM -SN OVC006 RMK ST8

CYQF;2007-05-24 13:00;CYQF 241300Z 33007KT 3/4SM -SN OVC004 00/M01 A3013 RMK ST8 /S01/ SLP241

CYQF;2007-05-24 13:47;CYQF 241347Z 33007KT 1SM -SN VV003 RMK SN8

CYQF;2007-05-24 14:00;CYQF 241400Z 33007KT 3/4SM -SN VV003 00/M01 A3012 RMK SN8 /S03/ SLP239

CYQF;2007-05-24 15:00;CYQF 241500Z 34008KT 1SM -SN VV003 00/M01 A3013 RMK SN8 SLP240

CYQF;2007-05-24 15:44;CYQF 241544Z 33007KT 3/4SM -SN VV003 RMK SN8

CYQF;2007-05-24 16:00;CYQF 241600Z 34010KT 3/4SM -SN VV003 00/M01 A3013 RMK SN8 /S04/ SLP242

CYQF;2007-05-24 17:33;CYQF 241733Z 33006KT 2SM -SN OVC008 RMK SN3SF5

CYQF;2007-05-24 17:44;CYQF 241744Z 32004KT 3SM -RA BR SCT008 OVC015 RMK FG2SF2SC4

CYQF;2007-05-24 18:00;CYQF 241800Z 32005KT 3SM -RASN BR SCT008 OVC010 01/00 A3015 RMK FG2SF2SC4 /S08/ SLP249

CYQF;2007-05-24 18:30;CYQF 241830Z 32003KT 3SM -RA BR BKN005 OVC010 RMK FG2SF4SC2

CYQF;2007-05-24 19:00;CYQF 241900Z 31003KT 6SM -RA BR BKN005 OVC012 02/01 A3016 RMK SF6SC2 SLP252

CYQF;2007-05-24 20:00;CYQF 242000Z 31003KT 10SM -RA BKN006 OVC012 03/02 A3017 RMK SF6SC2 BR CIG RAG SLP254

CYQF;2007-05-24 21:00;CYQF 242100Z 29003KT 10SM -RA BKN005 OVC012 04/02 A3017 RMK SF6SC2 CIG RAG SLP253

CYQF;2007-05-24 22:00;CYQF 242200Z 30005KT 10SM -RA FEW005 OVC030 04/02 A3017 RMK SF2SC6 SLP255

CYQF;2007-05-24 23:00;CYQF 242300Z 32002KT 10SM -RA FEW005 OVC030 04/02 A3018 RMK SF2SC6 SLP256

CYQF;2007-05-24 23:51;CYQF 242351Z 29005KT 8SM FEW005 BKN030 OVC090 RMK SF2SC3AC2 BR

CYQF;2007-05-25 00:00;CYQF 250000Z 29007KT 8SM FEW005 BKN030 OVC090 04/02 A3018 RMK SF1SC5AC2 BR SLP256

CYQF;2007-05-25 01:00;CYQF 250100Z 28005KT 10SM FEW005 BKN030 BKN090 04/02 A3017 RMK SF1SC5AC1 SLP253

CYQF;2007-05-25 02:00;CYQF 250200Z 28005KT 10SM FEW010 BKN040 OVC090 04/02 A3016 RMK SC1SC3AC3 SLP251

CYQF;2007-05-25 03:00;CYQF 250300Z 27004KT 15SM FEW040 BKN090 BKN250 03/02 A3016 RMK SC2AC2CI0 SLP252

CYQF;2007-05-25 04:00;CYQF 250400Z 00000KT 15SM SCT090 BKN250 03/02 A3018 RMK AC3CI1 SLP256

CYQF;2007-05-25 05:00;CYQF 250500Z 00000KT 15SM BKN090 03/01 A3017 RMK AC6 SLP253

CYQF;2007-05-25 06:00;CYQF 250600Z 00000KT 15SM BKN090 02/01 A3016 RMK AC7 SLP253

CYQF;2007-05-25 07:00;CYQF 250700Z CCA 00000KT 8SM BKN090 02/01 A3015 RMK AC5 BR SLP250

CYQF;2007-05-25 07:31;CYQF 250731Z 20003KT 2SM BR BKN090 RMK FG1AC5

CYQF;2007-05-25 07:41;CYQF 250741Z 20003KT 1/2SM FG SCT090 RMK FG2AC1

CYQF;2007-05-25 08:00;CYQF 250800Z 00000KT 1/4SM FG SKC 00/M01 A3014 RMK FG3 SLP246

CYQF;2007-05-25 08:36;CYQF 250836Z 00000KT 1/8SM FG SKC RMK FG6

CYQF;2007-05-25 09:00;CYQF 250900Z 22003KT 1/4SM FZFG SKC M01/M02 A3014 RMK FG5 SLP243

CYQF;2007-05-25 10:00;CYQF 251000Z 00000KT 1/4SM FZFG SCT090 M01/M02 A3013 RMK FG3AC1 FROIN SLP240

CYQF;2007-05-25 10:14;CYQF 251014Z 00000KT 3/4SM BR SCT090 RMK FG2AC1

CYQF;2007-05-25 11:00;CYQF 251100Z 20005KT 1/8SM FZFG SKC M01/M02 A3012 RMK FG3 FROIN SLP238

CYQF;2007-05-25 12:00;CYQF 251200Z 20005KT 3/8SM FZFG SCT090 SCT200 M01/M02 A3012 RMK FG2AC1CI0 FROIN SLP236

CYQF;2007-05-25 12:05;CYQF 251205Z 20005KT 2SM BR SCT090 SCT200 RMK FG1AC1CI1

CYQF;2007-05-25 12:15;CYQF 251215Z 19004KT 1SM BR SCT090 SCT200 RMK FG2AC1CI1 VIS VRB 1/2-11/2

CYQF;2007-05-25 12:34;CYQF 251234Z 17003KT 1/2SM FZFG FEW090 SCT200 RMK FG2AC1CI1 VIS VRB 1/8-1

CYQF;2007-05-25 12:45;CYQF 251245Z 15005KT 10SM PRFG FEW090 BKN200 RMK FG1AC1CI2

CYQF;2007-05-25 13:00;CYQF 251300Z 17004KT 10SM FEW090 BKN250 00/M00 A3011 RMK AC1CI2 BR SLP234

CYQF;2007-05-25 14:00;CYQF 251400Z 18003KT 15SM BKN250 02/01 A3010 RMK CI2 SLP231

CYQF;2007-05-25 15:00;CYQF 251500Z 00000KT 15SM BKN250 05/02 A3010 RMK CI2 SLP225

CYQF;2007-05-25 16:00;CYQF 251600Z 15004KT 15SM BKN250 06/02 A3010 RMK CI2 SLP225

CYQF;2007-05-25 17:00;CYQF 251700Z 15005KT 15SM FEW020 BKN250 07/02 A3010 RMK CU1CI1 SLP225

CYQF;2007-05-25 18:00;CYQF 251800Z 15008KT 15SM FEW020 FEW250 07/03 A3009 RMK CU1CI0 SLP220

CYQF;2007-05-25 19:00;CYQF 251900Z 16010KT 15SM FEW020 FEW250 08/04 A3008 RMK CU1CI0 SLP218

CYQF;2007-05-25 20:00;CYQF 252000Z 14010KT 15SM FEW020 10/05 A3008 RMK CU2 SLP216

CYQF;2007-05-25 21:00;CYQF 252100Z 16010KT 15SM FEW025 12/06 A3006 RMK CU2 SLP209

CYQF;2007-05-25 22:00;CYQF 252200Z 15010KT 15SM FEW030 13/05 A3005 RMK CU2 SLP203

CYQF;2007-05-25 23:00;CYQF 252300Z 14010KT 15SM FEW030 14/06 A3003 RMK CU2 SLP198

CYQF;2007-05-26 00:00;CYQF 260000Z 13010KT 15SM FEW030 14/05 A3002 RMK CU2 SLP191

CYQF;2007-05-26 01:00;CYQF 260100Z 14008KT 15SM FEW030 14/04 A3001 RMK CU2 SLP189

CYQF;2007-05-26 02:00;CYQF 260200Z 14008KT 15SM FEW030 14/04 A3001 RMK CU2 SLP187

CYQF;2007-05-26 03:00;CYQF 260300Z 13007KT 15SM FEW030 11/07 A3001 RMK SC1 SLP185

CYQF;2007-05-26 04:00;CYQF 260400Z 14010KT 15SM FEW030 FEW250 09/06 A3001 RMK SC1CI0 SLP186

CYQF;2007-05-26 05:00;CYQF 260500Z 15012KT 15SM FEW030 FEW250 08/06 A3001 RMK SC1CI0 SLP187

CYQF;2007-05-26 06:00;CYQF 260600Z 18005KT 15SM FEW100 07/05 A3001 RMK AC2 SLP186

CYQF;2007-05-26 07:00;CYQF 260700Z 17002KT 15SM SKC 07/05 A3000 RMK SLP182

CYQF;2007-05-26 08:00;CYQF 260800Z 17005KT 15SM FEW100 06/04 A2998 RMK AC2 SLP178

CYQF;2007-05-26 09:00;CYQF 260900Z 17005KT 15SM SKC 05/04 A2997 RMK SLP170

CYQF;2007-05-26 10:00;CYQF 261000Z 00000KT 15SM SKC 05/03 A2996 RMK SLP168

CYQF;2007-05-26 11:00;CYQF 261100Z 00000KT 6SM BR FEW100 04/03 A2996 RMK AC1 PRFG SLP166

CYQF;2007-05-26 12:00;CYQF 261200Z 15003KT 3SM BR SKC 04/03 A2995 RMK FG2 PRFG SLP164

CYQF;2007-05-26 12:24;CYQF 261224Z 15004KT 1SM BR SKC RMK FG3

CYQF;2007-05-26 13:00;CYQF 261300Z 18002KT 1SM BR SKC 04/03 A2995 RMK FG5 SLP164

CYQF;2007-05-26 13:04;CYQF 261304Z 21002KT 3/4SM BR OVC002 RMK FG6ST2

CYQF;2007-05-26 13:35;CYQF 261335Z 18004KT 1/4SM FG VV001 RMK FG8

CYQF;2007-05-26 14:00;CYQF 261400Z 18006KT 1/4SM FG VV003 04/04 A2995 RMK FG8 SLP161

CYQF;2007-05-26 14:18;CYQF 261418Z 18005KT 3/4SM BR SKC RMK FG6

CYQF;2007-05-26 14:24;CYQF 261424Z 17004KT 1SM BR SKC RMK FG5

CYQF;2007-05-26 14:32;CYQF 261432Z 15003KT 3SM BR BKN004 RMK FG2SF2 VSBY E-S 10

CYQF;2007-05-26 14:36;CYQF 261436Z 15004KT 5SM BR SCT004 RMK SF2

CYQF;2007-05-26 15:00;CYQF 261500Z 15002KT 10SM FEW006 SCT250 07/05 A2994 RMK SF2CI0 SLP157

CYQF;2007-05-26 16:00;CYQF 261600Z 15004KT 15SM FEW250 11/06 A2993 RMK CI1 SLP155

CYQF;2007-05-26 17:00;CYQF 261700Z 12004KT 15SM FEW250 14/07 A2992 RMK CI1 SLP151

CYQF;2007-05-26 18:00;CYQF 261800Z 16008KT 15SM FEW250 17/05 A2991 RMK CI1 SLP140

CYQF;2007-05-26 19:00;CYQF 261900Z 14008KT 15SM SCT250 18/04 A2989 RMK CI2 SLP136

CYQF;2007-05-26 20:00;CYQF 262000Z 16008KT 15SM FEW040 SCT250 19/M02 A2989 RMK CU1CI0 SLP134

CYQF;2007-05-26 21:00;CYQF 262100Z 17008KT 15SM FEW060 SCT250 20/00 A2986 RMK CU1CI1 SLP125

CYQF;2007-05-26 22:00;CYQF 262200Z 14012KT 15SM FEW060 BKN250 19/M00 A2985 RMK SC1CI2 SLP119

CYQF;2007-05-26 23:00;CYQF 262300Z 15008KT 15SM FEW070 BKN250 20/M00 A2983 RMK CU1CI2 SLP113

CYQF;2007-05-27 00:00;CYQF 270000Z 16006KT 15SM FEW070 BKN250 20/00 A2981 RMK AC1CI2 SLP108

CYQF;2007-05-27 01:00;CYQF 270100Z 15007KT 15SM FEW070 OVC250 19/01 A2979 RMK AC2CI2 SLP103

CYQF;2007-05-27 02:00;CYQF 270200Z 14004KT 15SM SCT080 OVC250 18/04 A2978 RMK AC4CI2 SLP100

CYQF;2007-05-27 03:00;CYQF 270300Z 13005KT 15SM SCT080 BKN250 17/04 A2977 RMK AC4CI1 SLP093

CYQF;2007-05-27 04:00;CYQF 270400Z 14003KT 15SM FEW080 BKN250 15/05 A2976 RMK AC2CI1 SLP090

CYQF;2007-05-27 05:00;CYQF 270500Z 15004KT 15SM FEW080 13/04 A2975 RMK AC1 SLP087

CYQF;2007-05-27 06:00;CYQF 270600Z 18004KT 15SM FEW090 11/05 A2975 RMK AC2 SLP080

CYQF;2007-05-27 07:00;CYQF 270700Z 19002KT 15SM SCT090 BKN250 09/06 A2973 RMK AC3CI3 OBS TAKEN +14 SLP076

CYQF;2007-05-27 08:00;CYQF 270800Z 20003KT 15SM FEW090 BKN250 08/06 A2973 RMK AC2CI3 SLP076

CYQF;2007-05-27 09:00;CYQF 270900Z 25002KT 15SM FEW090 SCT250 08/05 A2973 RMK AC2CI2 OBS TAKEN +10 SLP075

CYQF;2007-05-27 10:00;CYQF 271000Z 20003KT 15SM FEW090 SCT250 06/04 A2971 RMK AC2CI2 SLP070

CYQF;2007-05-27 11:00;CYQF 271100Z 21006KT 15SM FEW090 BKN250 07/03 A2971 RMK AC2CI2 OBS TAKEN +10 SLP070

CYQF;2007-05-27 12:00;CYQF 271200Z 22003KT 15SM SCT090 BKN250 07/03 A2971 RMK AC3CI2 SLP070

CYQF;2007-05-27 13:00;CYQF 271300Z 00000KT 15SM SCT090 BKN250 08/04 A2971 RMK AC3CI2 SLP069

CYQF;2007-05-27 14:00;CYQF 271400Z 22004KT 15SM SCT090 BKN250 10/05 A2971 RMK AC3CI2 SLP068

CYQF;2007-05-27 15:00;CYQF 271500Z 25005KT 15SM SCT090 OVC250 11/05 A2971 RMK AC3CI2 SLP067

CYQF;2007-05-27 16:00;CYQF 271600Z 25005KT 15SM SCT090 BKN250 13/06 A2969 RMK AC4CI2 SLP063

CYQF;2007-05-27 17:00;CYQF 271700Z 29005KT 15SM FEW040 FEW090 BKN250 16/06 A2968 RMK CU1AC2CI2 SLP060

CYQF;2007-05-27 18:00;CYQF 271800Z 33008KT 15SM FEW040 FEW090 SCT250 18/04 A2968 RMK CU1AC1CI1 SLP057

CYQF;2007-05-27 19:00;CYQF 271900Z 36008KT 15SM FEW050 FEW100 BKN250 18/05 A2967 RMK CU2AC1CI0 SLP054

CYQF;2007-05-27 20:00;CYQF 272000Z 35008KT 15SM SCT060 SCT120 BKN250 19/04 A2966 RMK CU3AC1CI0 SLP051

CYQF;2007-05-27 21:00;CYQF 272100Z 33008KT 15SM SCT060TCU BKN120 BKN250 20/05 A2966 RMK TCU4AC1CI0 SLP049

CYQF;2007-05-27 22:00;CYQF 272200Z 02009KT 15SM SCT060TCU SCT100 BKN250 20/05 A2964 RMK TCU3AC1CI1 SHWRS W SLP044

CYQF;2007-05-27 23:00;CYQF 272300Z 34005KT 15SM BKN050TCU BKN100 BKN250 18/06 A2964 RMK TCU5AC1CI1 SHWRS CB LTNG SW SLP045

CYQF;2007-05-28 00:00;CYQF 280000Z 30006KT 15SM BKN050CB BKN100 17/07 A2966 RMK CB6AC2 SHWRS S-W-N LTGCG NW SLP053

CYQF;2007-05-28 00:28;CYQF 280028Z 24008KT 15SM -TSRA BKN050CB BKN100 RMK CB6AC2 LTGCG N

CYQF;2007-05-28 01:00;CYQF 280100Z 30015G25KT 10SM -TSRA SCT020 BKN050CB OVC090 12/08 A2971 RMK SC3CB3AC2 LTGCG N PRESRR SLP069

CYQF;2007-05-28 01:41;CYQF 280141Z 34017G25KT 12SM -SHRA FEW020 BKN050TCU OVC090 RMK SC2TCU4AC2 CB NE

CYQF;2007-05-28 02:00;CYQF 280200Z 35015G20KT 12SM -SHRA FEW020 BKN050TCU OVC090 11/08 A2969 RMK SC2TCU5AC2 SLP065

CYQF;2007-05-28 02:36;CYQF 280236Z 34010KT 15SM BKN050 OVC090 RMK SC6AC2 TCU SHWRS NE

CYQF;2007-05-28 03:00;CYQF 280300Z 31006KT 15SM BKN050 OVC090 11/08 A2971 RMK SC6AC2 SLP074

CYQF;2007-05-28 04:00;CYQF 280400Z 27005KT 15SM FEW020 BKN050 OVC090 11/08 A2971 RMK SC2SC5AC2 TCU EMBD SLP074

CYQF;2007-05-28 05:00;CYQF 280500Z 30008KT 15SM SCT050 OVC080 11/08 A2972 RMK SC3AC5 SLP077

CYQF;2007-05-28 06:00;CYQF 280600Z 30010G15KT 15SM FEW050 BKN090 OVC250 11/07 A2971 RMK SC2AC3CI2 SLP068

CYQF;2007-05-28 07:00;CYQF 280700Z 30010KT 15SM FEW050 BKN080 BKN250 10/07 A2972 RMK SC1AC4CI1 SLP070

CYQF;2007-05-28 08:00;CYQF 280800Z 31011KT 15SM BKN080 BKN250 10/07 A2973 RMK AC6CI1 SLP074

CYQF;2007-05-28 09:00;CYQF 280900Z 35005KT 15SM BKN080 BKN250 09/06 A2974 RMK AC6CI1 SLP078

CYQF;2007-05-28 10:00;CYQF 281000Z 31013KT 15SM BKN090 BKN250 10/05 A2976 RMK AC6CI1 SLP083

CYQF;2007-05-28 11:00;CYQF 281100Z 32014G22KT 15SM BKN090 BKN250 10/03 A2978 RMK AC2CI1 SLP090

CYQF;2007-05-28 12:00;CYQF 281200Z 32015G24KT 15SM FEW030 FEW090 BKN250 09/01 A2980 RMK SC1AC2CI1 SLP101

CYQF;2007-05-28 13:00;CYQF 281300Z 32014G23KT 15SM FEW030 BKN090 BKN250 09/01 A2982 RMK SC1AC2CI1 SLP106

CYQF;2007-05-28 14:00;CYQF 281400Z 32012G20KT 15SM FEW030 SCT090 BKN250 11/01 A2984 RMK SC1AC2CI1 SLP114

CYQF;2007-05-28 15:00;CYQF 281500Z 31015G22KT 15SM FEW040 FEW080 BKN250 12/02 A2986 RMK CU1AC1CI1 SLP125

CYQF;2007-05-28 16:00;CYQF 281600Z 32015G20KT 15SM FEW040 SCT250 13/04 A2987 RMK CU1CI1 SLP130

CYQF;2007-05-28 17:00;CYQF 281700Z 31015G20KT 15SM FEW040 SCT250 15/05 A2988 RMK CU1CI1 SLP132

CYQF;2007-05-28 18:00;CYQF 281800Z 32014G22KT 15SM FEW050 SCT250 15/03 A2989 RMK CU1CI1 SLP132

CYQF;2007-05-28 19:00;CYQF 281900Z 30018G25KT 15SM SCT050 16/04 A2989 RMK CU3 SLP134

CYQF;2007-05-28 20:00;CYQF 282000Z 33015G20KT 15SM FEW050 16/04 A2990 RMK CU2 SLP135

CYQF;2007-05-28 21:00;CYQF 282100Z 31016G24KT 15SM FEW050 BKN090 16/04 A2991 RMK CU2AC2 SLP141

CYQF;2007-05-28 22:00;CYQF 282200Z 34015G22KT 15SM FEW050 BKN080 16/04 A2993 RMK CU2AC3 SLP146

CYQF;2007-05-28 23:00;CYQF 282300Z 34012G20KT 15SM SCT050 BKN090 16/03 A2994 RMK CU4AC2 TCU VIRGA W SLP150

CYQF;2007-05-29 00:00;CYQF 290000Z 34010G15KT 15SM SCT050TCU BKN090 15/04 A2996 RMK TCU4AC2 SHWRS SW-NW SLP159

CYQF;2007-05-29 00:19;CYQF 290019Z 33020G35KT 15SM  BKN050TCU BKN090 RMK TCU5AC1 VSBY 6 NW

CYQF;2007-05-29 00:30;CYQF 290030Z 33020G28KT 15SM -SHRA BKN050TCU BKN090 RMK TCU6AC2 REIP

CYQF;2007-05-29 00:34;CYQF 290034Z 32015G20KT 15SM BKN050TCU BKN090 RMK TCU5AC2 VCSH

CYQF;2007-05-29 01:00;CYQF 290100Z 33010G15KT 15SM BKN050TCU BKN090 12/05 A3000 RMK TCU5AC2 SHWRS ALQDS SLP170

CYQF;2007-05-29 02:00;CYQF 290200Z 33010G15KT 15SM SCT050TCU BKN090 13/06 A3001 RMK TCU3AC2 SLP175

CYQF;2007-05-29 03:00;CYQF 290300Z 35010G15KT 15SM FEW050 FEW090 11/04 A3005 RMK SC1AC2 SLP192

CYQF;2007-05-29 04:00;CYQF 290400Z 33012KT 15SM BKN050 BKN090 10/05 A3008 RMK SC2AC1 SLP202

CYQF;2007-05-29 05:00;CYQF 290500Z 31006KT 15SM FEW050 SCT090 09/05 A3010 RMK SC1AC1 SLP207

CYQF;2007-05-29 06:00;CYQF 290600Z 30010KT 15SM FEW050 SCT090 09/04 A3011 RMK SC1AC1 SLP211

CYQF;2007-05-29 07:00;CYQF 290700Z 31010KT 15SM FEW040 BKN090 09/05 A3013 RMK SC2AC2 SLP218

CYQF;2007-05-29 08:00;CYQF 290800Z 30010KT 15SM FEW040 BKN100 08/04 A3014 RMK SC2AC3 SLP219

CYQF;2007-05-29 09:00;CYQF 290900Z 32010KT 15SM BKN050 BKN100 09/05 A3014 RMK SC5AC2 SLP219

CYQF;2007-05-29 10:00;CYQF 291000Z 32008KT 15SM BKN040 BKN100 08/05 A3015 RMK SC5AC2 SLP222

CYQF;2007-05-29 11:00;CYQF 291100Z 30007KT 15SM SCT020 BKN040 BKN100 08/05 A3017 RMK SC3SC2AC1 SLP228

CYQF;2007-05-29 12:00;CYQF 291200Z 31008KT 15SM FEW010 BKN015 BKN080 07/05 A3018 RMK SF1SC4AC1 SLP237

CYQF;2007-05-29 13:00;CYQF 291300Z 32007KT 15SM FEW010 BKN015 BKN080 09/06 A3019 RMK SF1SC5AC1 SLP240

CYQF;2007-05-29 14:00;CYQF 291400Z 35007KT 15SM BKN010 BKN080 09/06 A3020 RMK SC5AC1 SLP243

CYQF;2007-05-29 14:14;CYQF 291414Z 35008KT 15SM SCT015 BKN080 RMK SC3AC2

CYQF;2007-05-29 15:00;CYQF 291500Z 02008KT 15SM FEW015 SCT080 10/07 A3021 RMK CU2AC2 SLP248

CYQF;2007-05-29 16:00;CYQF 291600Z 36008KT 15SM BKN020 BKN080 12/07 A3021 RMK SC5AC1 CU ASOCTD SLP248

CYQF;2007-05-29 17:00;CYQF 291700Z 35007KT 15SM SCT020 13/07 A3020 RMK SC4 CU ASOCTD SLP246

CYQF;2007-05-29 18:00;CYQF 291800Z 36010KT 15SM BKN030 14/06 A3021 RMK CU5 SLP247

CYQF;2007-05-29 19:00;CYQF 291900Z 01009KT 15SM BKN030 14/06 A3020 RMK CU6 SLP245

CYQF;2007-05-29 20:00;CYQF 292000Z 02007KT 15SM SCT030 BKN070 15/05 A3020 RMK CU3AC2 SLP244

CYQF;2007-05-29 21:00;CYQF 292100Z 35004KT 15SM SCT040 BKN070 16/06 A3019 RMK CU4AC1 SLP239

CYQF;2007-05-29 22:00;CYQF 292200Z 35003KT 15SM BKN040 17/07 A3018 RMK CU5 SLP236

CYQF;2007-05-29 23:00;CYQF 292300Z 01006KT 15SM SCT040 17/06 A3018 RMK CU3 SLP234

CYQF;2007-05-30 00:00;CYQF 300000Z 32006KT 15SM BKN050 17/05 A3017 RMK CU5 SLP231

CYQF;2007-05-30 01:00;CYQF 300100Z 07007KT 15SM FEW050 17/05 A3016 RMK SC2 SLP229

CYQF;2007-05-30 02:00;CYQF 300200Z 36004KT 15SM FEW050 17/05 A3016 RMK SC1 SLP228

CYQF;2007-05-30 03:00;CYQF 300300Z 07004KT 15SM FEW260 16/06 A3016 RMK CI1 SLP226

CYQF;2007-05-30 04:00;CYQF 300400Z 10003KT 15SM FEW260 13/06 A3016 RMK CI1 SLP226

CYQF;2007-05-30 05:00;CYQF 300500Z 15002KT 15SM FEW260 11/07 A3016 RMK CI1 SLP226

CYQF;2007-05-30 06:00;CYQF 300600Z 17003KT 15SM FEW260 08/06 A3016 RMK CI1 SLP232

CYQF;2007-05-30 07:00;CYQF 300700Z 19002KT 15SM SKC 08/05 A3016 RMK SLP232

CYQF;2007-05-30 08:00;CYQF 300800Z 17002KT 15SM SKC 08/06 A3016 RMK OBS TAKEN +08 SLP231

CYQF;2007-05-30 09:00;CYQF 300900Z 00000KT 15SM SKC 07/05 A3016 RMK SLP229

CYQF;2007-05-30 10:00;CYQF 301000Z 14004KT 15SM SKC 07/05 A3016 RMK SLP229

CYQF;2007-05-30 11:00;CYQF 301100Z 16004KT 15SM SKC 06/05 A3015 RMK SLP227

CYQF;2007-05-30 12:00;CYQF 301200Z 17002KT 10SM SKC 05/03 A3015 RMK MIFG SLP225

CYQF;2007-05-30 13:00;CYQF 301300Z 00000KT 15SM SKC 08/05 A3015 RMK SLP226

CYQF;2007-05-30 14:00;CYQF 301400Z 13003KT 12SM SKC 11/06 A3015 RMK HZ SLP226

CYQF;2007-05-30 15:00;CYQF 301500Z 14008KT 12SM SKC 12/07 A3015 RMK SLP220

CYQF;2007-05-30 16:00;CYQF 301600Z 17010KT 15SM SKC 15/08 A3015 RMK SLP219

CYQF;2007-05-30 17:00;CYQF 301700Z 15010KT 15SM FEW030 17/08 A3015 RMK CF1 CF TR E SLP218

CYQF;2007-05-30 18:00;CYQF 301800Z 13006KT 15SM SKC 18/07 A3014 RMK SLP218

CYQF;2007-05-30 19:00;CYQF 301900Z 18004KT 15SM SKC 19/06 A3013 RMK SLP214

CYQF;2007-05-30 20:00;CYQF 302000Z 17006KT 15SM FEW250 21/04 A3011 RMK CI0 SLP209

CYQF;2007-05-30 21:00;CYQF 302100Z 13007KT 15SM SKC 21/07 A3010 RMK SLP203

CYQF;2007-05-30 22:00;CYQF 302200Z 18008KT 15SM SKC 22/05 A3009 RMK SLP199

CYQF;2007-05-30 23:00;CYQF 302300Z 13011G16KT 15SM SKC 22/04 A3008 RMK SLP197

CYQF;2007-05-31 00:00;CYQF 310000Z 13008KT 15SM SKC 22/03 A3006 RMK SLP192

CYQF;2007-05-31 01:00;CYQF 310100Z 13013KT 15SM SKC 22/02 A3005 RMK SLP188

CYQF;2007-05-31 02:00;CYQF 310200Z 16012KT 15SM SKC 21/02 A3004 RMK SLP184

CYQF;2007-05-31 03:00;CYQF 310300Z 14005KT 15SM SKC 19/04 A3004 RMK SLP178

CYQF;2007-05-31 04:00;CYQF 310400Z 14008KT 15SM SKC 16/06 A3004 RMK SLP178

CYQF;2007-05-31 05:00;CYQF 310500Z 15010KT 15SM SKC 13/06 A3004 RMK SLP178

CYQF;2007-05-31 06:00;CYQF 310600Z 17010KT 15SM SKC 12/07 A3004 RMK SLP179

CYQF;2007-05-31 07:00;CYQF 310700Z 17012KT 15SM SKC 12/07 A3004 RMK SLP178

CYQF;2007-05-31 08:00;CYQF 310800Z 17007KT 15SM SKC 10/07 A3003 RMK SLP177

CYQF;2007-05-31 09:00;CYQF 310900Z 18007KT 15SM SKC 10/07 A3003 RMK SLP176

CYQF;2007-05-31 10:00;CYQF 311000Z 18006KT 15SM SKC 09/07 A3003 RMK SLP174

CYQF;2007-05-31 11:00;CYQF 311100Z 16006KT 15SM FEW250 09/07 A3002 RMK CI1 SLP171

CYQF;2007-05-31 12:00;CYQF 311200Z 15010KT 15SM FEW250 08/06 A3002 RMK CI1 SLP173

CYQF;2007-05-31 13:00;CYQF 311300Z 19006KT 10SM FEW250 09/07 A3003 RMK CI1 BR SLP176

CYQF;2007-05-31 13:47;CYQF 311347Z 16010KT 8SM FEW003 FEW250 RMK SF1CI0 BR

CYQF;2007-05-31 14:00;CYQF 311400Z 16010KT 8SM FEW003 FEW250 11/08 A3003 RMK SF1CI0 SF TR SLP175

CYQF;2007-05-31 15:00;CYQF 311500Z 15010KT 10SM FEW250 12/08 A3003 RMK CI1 CI TR SLP177

CYQF;2007-05-31 16:00;CYQF 311600Z CCA 17010KT 12SM FEW250 15/08 A3003 RMK CI1 HZ SLP173

CYQF;2007-05-31 17:00;CYQF 311700Z 17007KT 15SM FEW250 18/09 A3002 RMK CI1 HZ SLP170

CYQF;2007-05-31 20:00;CYQF 312000Z 15005KT 12SM FEW060 23/08 A2999 RMK CU1 CU TR DIST S-W HZ SLP160

CYQF;2007-05-31 21:00;CYQF 312100Z 18005KT 12SM SKC 24/07 A2998 RMK SLP155

CYQF;2007-05-31 22:00;CYQF 312200Z 00000KT 12SM SKC 24/05 A2996 RMK HZ SLP150

CYQF;2007-05-31 23:00;CYQF 312300Z 21003KT 15SM SKC 25/07 A2996 RMK SLP148

CYQF;2007-06-01 01:00;CYQF 010100Z 11008KT 15SM SKC 24/06 A2994 RMK SLP144

CYQF;2007-06-01 02:00;CYQF 010200Z 15005KT 15SM SKC 24/05 A2995 RMK SLP146

CYQF;2007-06-01 03:00;CYQF 010300Z 13006KT 15SM SKC 22/07 A2995 RMK SLP143

CYQF;2007-06-01 04:00;CYQF 010400Z 13005KT 15SM SKC 18/07 A2995 RMK SLP144

CYQF;2007-06-01 05:00;CYQF 010500Z 16006KT 15SM SKC 16/08 A2995 RMK SLP145

CYQF;2007-06-01 06:00;CYQF 010600Z 18004KT 15SM SKC 14/08 A2995 RMK SLP146

CYQF;2007-06-01 07:00;CYQF 010700Z 17006KT 15SM SKC 13/08 A2997 RMK SLP150

CYQF;2007-06-01 08:00;CYQF 010800Z 16005KT 15SM SKC 13/08 A2996 RMK SLP147

CYQF;2007-06-01 09:00;CYQF 010900Z 16005KT 15SM SKC 12/08 A2995 RMK SLP144

CYQF;2007-06-01 10:00;CYQF 011000Z 15004KT 15SM SKC 12/08 A2996 RMK SLP145

CYQF;2007-06-01 11:00;CYQF 011100Z 17002KT 15SM SKC 11/07 A2996 RMK SLP146

CYQF;2007-06-01 12:00;CYQF 011200Z 00000KT 15SM SKC 08/06 A2997 RMK SLP154

CYQF;2007-06-01 13:00;CYQF 011300Z 16004KT 15SM SKC 12/08 A2997 RMK SLP153

CYQF;2007-06-01 14:00;CYQF 011400Z 18004KT 15SM SKC 14/09 A2998 RMK SLP155

CYQF;2007-06-01 15:00;CYQF 011500Z 18006KT 15SM FEW270 16/10 A2998 RMK CI0 SLP150

CYQF;2007-06-01 16:00;CYQF 011600Z 18008KT 15SM FEW270 19/10 A2997 RMK CI1 SLP149

CYQF;2007-06-01 17:00;CYQF 011700Z 17010KT 15SM FEW270 22/10 A2996 RMK CI1 OBS TAKEN +18 SLP146

CYQF;2007-06-01 18:00;CYQF 011800Z 17008KT 15SM SCT270 23/10 A2996 RMK CI1 SLP144

CYQF;2007-06-01 19:00;CYQF 011900Z 17005KT 15SM SCT270 24/09 A2995 RMK CI2 SLP142

CYQF;2007-06-01 20:00;CYQF 012000Z 14007KT 15SM SCT270 25/07 A2994 RMK CI2 SLP138

CYQF;2007-06-01 21:00;CYQF 012100Z 17008KT 15SM FEW060 SCT270 26/07 A2993 RMK CU1CI2 SLP133

CYQF;2007-06-01 22:00;CYQF 012200Z 15009KT 15SM FEW065 BKN270 26/06 A2992 RMK CU1CI4 SLP129

CYQF;2007-06-01 23:00;CYQF 012300Z 00000KT 15SM FEW080 BKN270 26/06 A2991 RMK AC1CI3 SLP126

CYQF;2007-06-02 00:00;CYQF 020000Z 17008KT 15SM FEW080 BKN270 26/07 A2990 RMK AC2CI2 SLP127

CYQF;2007-06-02 01:00;CYQF 020100Z 16006KT 15SM FEW100 BKN270 26/08 A2989 RMK AC1CI4 SLP125

CYQF;2007-06-02 02:00;CYQF 020200Z 17003KT 15SM FEW100 BKN270 25/07 A2990 RMK AC1CI2 SLP126

CYQF;2007-06-02 03:00;CYQF 020300Z 16003KT 15SM FEW100 BKN270 24/09 A2990 RMK AC1CI2 SLP122

CYQF;2007-06-02 04:00;CYQF 020400Z CCA 11004KT 12SM FEW100 SCT270 20/09 A2992 RMK AC1CI1 ACC ASOCTD BR SLP126

CYQF;2007-06-02 05:00;CYQF 020500Z 14006KT 15SM FEW100 SCT270 19/09 A2993 RMK AC1CI1 SLP129

CYQF;2007-06-02 06:00;CYQF 020600Z 18004KT 15SM FEW100 SCT270 17/09 A2994 RMK AC1CI1 SLP133

CYQF;2007-06-02 07:00;CYQF 020700Z 18004KT 15SM FEW100 BKN270 15/09 A2995 RMK AC1CI2 SLP136

CYQF;2007-06-02 08:00;CYQF 020800Z 15006KT 15SM FEW100 SCT270 16/09 A2995 RMK AC1CI1 AC TR SLP137

CYQF;2007-06-02 09:00;CYQF 020900Z 16005KT 15SM FEW270 15/09 A2995 RMK CI0 SLP139

CYQF;2007-06-02 10:00;CYQF 021000Z 18004KT 15SM FEW100 14/09 A2996 RMK AC1 SLP141

CYQF;2007-06-02 11:00;CYQF 021100Z 15003KT 15SM FEW100 FEW270 13/09 A2996 RMK AC1CI1 AC TR SLP141

CYQF;2007-06-02 12:00;CYQF 021200Z 15002KT 15SM FEW100 FEW270 13/09 A2996 RMK AC1CI1 SLP143

CYQF;2007-06-02 13:00;CYQF 021300Z 00000KT 15SM FEW100 FEW270 13/09 A2997 RMK AC2CI1 SLP146

CYQF;2007-06-02 14:00;CYQF 021400Z 00000KT 15SM FEW120 SCT270 17/09 A2998 RMK AC2CI0 SLP148

CYQF;2007-06-02 15:00;CYQF 021500Z 00000KT 15SM SCT100 18/10 A2998 RMK AC4 SLP147

CYQF;2007-06-02 16:00;CYQF 021600Z 18005KT 15SM FEW080 SCT250 22/12 A2998 RMK AC2CI0 VIRGA SLP148

CYQF;2007-06-02 17:00;CYQF 021700Z 18010G15KT 15SM FEW080 SCT250 24/09 A2998 RMK AC2CI0 SLP147

CYQF;2007-06-02 18:00;CYQF 021800Z 15010KT 15SM FEW080 SCT250 25/10 A2998 RMK ACC1CI0 SLP147

CYQF;2007-06-02 19:00;CYQF 021900Z 15008KT 15SM FEW080 SCT250 26/08 A2998 RMK AC2CI1 SLP146

CYQF;2007-06-02 20:00;CYQF 022000Z 12010KT 15SM FEW080 SCT250 27/08 A2997 RMK CU1CI0 SLP144

CYQF;2007-06-02 21:00;CYQF 022100Z 15010KT 15SM FEW075 SCT250 27/09 A2997 RMK CU1CI0 SLP142

CYQF;2007-06-02 22:00;CYQF 022200Z 17006KT 15SM FEW075 SCT250 28/08 A2996 RMK CU1CI0 SLP140

CYQF;2007-06-02 23:00;CYQF 022300Z 17004KT 15SM FEW075 SCT250 27/09 A2996 RMK CU1CI0 SLP139

CYQF;2007-06-03 00:00;CYQF 030000Z 16005KT 15SM FEW075 BKN250 27/08 A2995 RMK CU2CI0 SLP139

CYQF;2007-06-03 01:00;CYQF 030100Z 18007KT 15SM FEW075 FEW250 28/09 A2995 RMK CU1CI1 SLP139

CYQF;2007-06-03 02:00;CYQF 030200Z 17003KT 15SM FEW075 FEW250 27/08 A2996 RMK CU1CI1 SLP141

CYQF;2007-06-03 03:00;CYQF 030300Z 00000KT 15SM FEW075 BKN250 25/10 A2997 RMK CU2CI1 SLP143

CYQF;2007-06-03 04:00;CYQF 030400Z 09003KT 15SM BKN080 BKN250 22/10 A2998 RMK AC5CI1 SLP146

CYQF;2007-06-03 05:00;CYQF 030500Z 15008KT 15SM BKN080 BKN250 22/10 A2999 RMK AC5CI1 SLP149

CYQF;2007-06-03 06:00;CYQF 030600Z 15005KT 15SM BKN100 BKN250 20/10 A3000 RMK AC5CI1 LTNG DIST N SLP151

CYQF;2007-06-03 07:00;CYQF 030700Z 36020G28KT 15SM BKN100 20/10 A3005 RMK AC6 SLP165

CYQF;2007-06-03 07:26;CYQF 030726Z CCA 01010G15KT 15SM -SHRA BKN090 RMK AC6 OCNL LTNG DIST N AND W

CYQF;2007-06-03 07:44;CYQF 030744Z 03010G15KT 15SM BKN090 RMK AC6 OCNL LTNG DIST N AND W

CYQF;2007-06-03 08:00;CYQF 030800Z 03012KT 15SM BKN090 17/11 A3006 RMK AC6 SLP170

CYQF;2007-06-03 09:00;CYQF 030900Z 06005KT 15SM BKN090 17/10 A3007 RMK AC6 SLP174

CYQF;2007-06-03 10:00;CYQF 031000Z 00000KT 15SM BKN100 16/10 A3007 RMK AC6 SLP176

CYQF;2007-06-03 11:00;CYQF 031100Z 01004KT 15SM BKN080 BKN120 14/10 A3006 RMK AC5AC1 SLP172

CYQF;2007-06-03 12:00;CYQF 031200Z CCA 29005KT 15SM SCT080 BKN120 BKN250 14/10 A3009 RMK ACC4AC2CI1 VIRGA SLP184

CYQF;2007-06-03 13:00;CYQF 031300Z 27004KT 15SM FEW080 SCT120 BKN250 14/10 A3010 RMK ACC2AC1CI0 SH N SLP186

CYQF;2007-06-03 14:00;CYQF 031400Z 31004KT 15SM FEW080 SCT250 16/11 A3011 RMK AC2CI1 SLP190

CYQF;2007-06-03 15:00;CYQF 031500Z 34005KT 15SM FEW080 SCT250 18/12 A3012 RMK AC2CI1 ACC ASOCTD SLP192

CYQF;2007-06-03 16:00;CYQF 031600Z 35008KT 15SM FEW030 SCT080 BKN250 19/12 A3012 RMK CU2ACC2CI0 SLP192

CYQF;2007-06-03 17:00;CYQF 031700Z 32006KT 15SM FEW045 SCT080 BKN250 22/11 A3011 RMK CU2ACC2CI2 SLP191

CYQF;2007-06-03 18:00;CYQF 031800Z 34007KT 15SM FEW045 SCT080 BKN250 22/12 A3012 RMK CU2AC2CI2 SLP194

CYQF;2007-06-03 19:00;CYQF 031900Z 02006KT 15SM FEW045 SCT080 BKN250 23/11 A3011 RMK CU2AC1CI2 SLP192

CYQF;2007-06-03 20:00;CYQF 032000Z 00000KT 15SM FEW045 FEW080 OVC250 24/12 A3010 RMK CU1AC2CI2 ACC ASOCTD SLP190

CYQF;2007-06-03 21:00;CYQF 032100Z 09004KT 15SM FEW055 FEW080 OVC250 25/11 A3009 RMK CU1AC2CI2 ACC ASOCTD SLP186

CYQF;2007-06-03 22:00;CYQF 032200Z 36003KT 15SM FEW055 SCT120 BKN270 25/11 A3009 RMK CU2AC2CI2 SLP186

CYQF;2007-06-03 23:00;CYQF 032300Z CCA 00000KT 15SM FEW055 SCT120 BKN270 25/12 A3009 RMK CU2AC2CI2 FEW TCU SLP184

CYQF;2007-06-04 00:00;CYQF 040000Z 03004KT 15SM FEW055 SCT120 BKN270 25/11 A3008 RMK CU2AC2CI2 FEW TCU SLP184

CYQF;2007-06-04 01:00;CYQF 040100Z 02002KT 15SM FEW055 SCT120 BKN270 25/11 A3008 RMK CU2AC2CI2 TCU ASOCTD SLP183

CYQF;2007-06-04 02:00;CYQF 040200Z 11003KT 15SM FEW055 SCT120 BKN270 25/11 A3008 RMK CU2AC2CI2 SLP184

CYQF;2007-06-04 03:00;CYQF 040300Z 00000KT 15SM FEW090 BKN250 23/12 A3008 RMK AC2CI2 ACC ASOCTD SLP182

CYQF;2007-06-04 04:00;CYQF 040400Z 05007KT 15SM FEW090 BKN250 22/13 A3010 RMK AC2CI2 SLP187

CYQF;2007-06-04 05:00;CYQF 040500Z 07004KT 15SM FEW090 BKN250 19/12 A3011 RMK AC2CI2 SLP190

CYQF;2007-06-04 06:00;CYQF 040600Z 00000KT 15SM SCT250 18/12 A3011 RMK CI2 SLP193

CYQF;2007-06-04 07:00;CYQF 040700Z 00000KT 15SM FEW250 17/11 A3012 RMK CI1 SLP196

CYQF;2007-06-04 08:00;CYQF 040800Z 08004KT 15SM FEW100 SCT250 16/11 A3012 RMK AC1CI1 SLP196

CYQF;2007-06-04 09:00;CYQF 040900Z 07005KT 15SM FEW100 SCT250 16/11 A3012 RMK AC1CI1 SLP196

CYQF;2007-06-04 10:00;CYQF 041000Z 09007KT 15SM FEW100 FEW250 16/11 A3011 RMK ACC1CI0 SLP193

CYQF;2007-06-04 11:00;CYQF 041100Z 09003KT 15SM FEW100 FEW250 15/11 A3010 RMK AC1CI2 SLP191

CYQF;2007-06-04 12:00;CYQF 041200Z 07003KT 15SM FEW100 SCT250 15/11 A3011 RMK ACC1CI0 SLP192

CYQF;2007-06-04 13:00;CYQF 041300Z 00000KT 15SM FEW100 SCT250 15/12 A3011 RMK ACC2CI0 SLP192

CYQF;2007-06-04 14:00;CYQF 041400Z 14012KT 15SM FEW100 17/13 A3010 RMK AC2 SLP190

CYQF;2007-06-04 15:00;CYQF 041500Z 14009KT 15SM SKC 20/13 A3009 RMK SLP183

CYQF;2007-06-04 16:00;CYQF 041600Z 14010G18KT 15SM FEW120 21/12 A3007 RMK AC1 SLP177

CYQF;2007-06-04 17:00;CYQF 041700Z 15013G20KT 15SM FEW120 23/12 A3005 RMK AC2 ACC ASOCTD E SLP172

CYQF;2007-06-04 18:00;CYQF 041800Z 14013G22KT 15SM FEW044 SCT120 24/13 A3003 RMK CU2AC1 SLP164

CYQF;2007-06-04 19:00;CYQF 041900Z 14013G20KT 15SM SCT048 BKN120 25/13 A3002 RMK CU4AC1 FEW TCU SLP159

CYQF;2007-06-04 20:00;CYQF 042000Z 15014G21KT 15SM BKN048 BKN120 25/13 A3000 RMK CU5AC1 FEW TCU SLP153

CYQF;2007-06-04 21:00;CYQF 042100Z 15015G20KT 15SM BKN050 26/12 A2996 RMK CU5 FEW TCU SLP142

CYQF;2007-06-04 22:00;CYQF 042200Z 13015G22KT 15SM BKN050 25/12 A2994 RMK CU6 TCU ASOCTD SLP135

CYQF;2007-06-04 23:00;CYQF 042300Z 15012G20KT 15SM BKN050TCU BKN250 25/12 A2992 RMK TCU5CI1 CB W SLP127

CYQF;2007-06-05 00:00;CYQF 050000Z 14010G15KT 15SM SCT050 BKN250 25/12 A2989 RMK CU3CI2 TCU W SLP118

CYQF;2007-06-05 01:00;CYQF 050100Z 15010G15KT 15SM FEW050 BKN250 25/12 A2986 RMK CU2CI2 SLP108

CYQF;2007-06-05 02:00;CYQF 050200Z 15010KT 15SM FEW050 BKN250 24/12 A2985 RMK CU2CI2 SLP104

CYQF;2007-06-05 03:00;CYQF 050300Z 15010KT 15SM FEW050 FEW090 BKN250 22/12 A2983 RMK SC1AC2CI2 SLP094

CYQF;2007-06-05 04:00;CYQF 050400Z 15010KT 15SM FEW100 BKN250 21/12 A2981 RMK AC2CI2 SLP089

CYQF;2007-06-05 05:00;CYQF 050500Z 16010KT 15SM FEW100 BKN250 19/11 A2980 RMK AC2CI2 SLP085

CYQF;2007-06-05 06:00;CYQF 050600Z 15010KT 15SM FEW100 FEW250 18/10 A2979 RMK AC2CI0 SLP080

CYQF;2007-06-05 07:00;CYQF 050700Z 15012KT 15SM SKC 17/10 A2976 RMK SLP072

CYQF;2007-06-05 08:00;CYQF 050800Z 14006KT 15SM SKC 16/10 A2973 RMK SLP062

CYQF;2007-06-05 09:00;CYQF 050900Z 15008KT 15SM FEW150 16/10 A2970 RMK AC2 SLP049

CYQF;2007-06-05 10:00;CYQF 051000Z 15010KT 15SM FEW150 SCT250 15/09 A2967 RMK AC2CI1 SLP041

CYQF;2007-06-05 11:00;CYQF 051100Z 16003KT 15SM SCT100 BKN250 14/09 A2965 RMK AC3CI0 SLP035

CYQF;2007-06-05 12:00;CYQF 051200Z 18005KT 15SM BKN100 BKN250 14/10 A2963 RMK AC6CI1 SLP027

CYQF;2007-06-05 13:00;CYQF 051300Z 16004KT 15SM BKN070 BKN120 14/10 A2961 RMK AC5AC2 SH W-NW SLP021

CYQF;2007-06-05 14:00;CYQF 051400Z 17002KT 15SM BKN100 BKN250 15/11 A2958 RMK AC5CI1 SLP013

CYQF;2007-06-05 15:00;CYQF 051500Z 18003KT 15SM SCT100 BKN250 17/12 A2956 RMK AC3CI0 SLP002

CYQF;2007-06-05 16:00;CYQF 051600Z 00000KT 15SM BKN100 BKN250 19/12 A2953 RMK AC5CI0 SLP994

CYQF;2007-06-05 17:00;CYQF 051700Z 24002KT 15SM FEW100 BKN250 21/12 A2951 RMK AC2CI2 SLP989

CYQF;2007-06-05 18:00;CYQF 051800Z 00000KT 15SM FEW035 BKN100 BKN250 21/12 A2949 RMK CU1AC4CI1 SLP981

CYQF;2007-06-05 19:00;CYQF 051900Z 32004KT 15SM SCT035 BKN100 BKN250 22/13 A2948 RMK CU3AC2CI1 TCU ASOCTD SLP976

CYQF;2007-06-05 20:00;CYQF 052000Z 00000KT 15SM BKN040TCU BKN100 BKN250 22/12 A2945 RMK TCU5AC1CI1 SLP968

CYQF;2007-06-05 21:00;CYQF 052100Z 29014G21KT 15SM BKN030TCU BKN100 BKN250 22/15 A2944 RMK TCU5AC1CI1 CB EMBD/LTGCG NNW/SH S SLP965

CYQF;2007-06-05 22:00;CYQF 052200Z 30015G20KT 15SM SCT030TCU BKN100 BKN250 20/13 A2943 RMK TCU4AC2CI1 CB EMBD SLP960

CYQF;2007-06-05 23:00;CYQF 052300Z 30011G17KT 15SM FEW015 SCT030TCU BKN080 BKN250 18/14 A2944 RMK SF1TCU3AC2CI0 CB ASOCTD SLP963

CYQF;2007-06-06 00:00;CYQF 060000Z 30010G15KT 15SM FEW015 FEW040CB BKN090 BKN250 19/14 A2941 RMK SF1CB2AC3CI1 SLP958

CYQF;2007-06-06 01:00;CYQF 060100Z 33006KT 15SM SCT015 BKN090 BKN250 19/14 A2941 RMK SC2AC2CI1 SLP959

CYQF;2007-06-06 02:00;CYQF 060200Z 29007KT 15SM FEW015 BKN090 BKN250 19/14 A2941 RMK SC2AC2CI2 SLP959

CYQF;2007-06-06 03:00;CYQF 060300Z 05006KT 15SM SCT011 BKN090 OVC250 18/14 A2940 RMK SC3AC3CI2 TCU ASOCTD SLP952

CYQF;2007-06-06 04:00;CYQF 060400Z CCA 06010KT 15SM BKN015 OVC090 15/13 A2942 RMK SC5AC3 TCU ASOCTD SLP959

CYQF;2007-06-06 04:16;CYQF 060416Z 09012KT 15SM -SHRA BKN015 OVC090 RMK SC5AC3 TCU ASOCTD

CYQF;2007-06-06 05:00;CYQF 060500Z 09012KT 10SM -SHRA BKN012 OVC080 15/13 A2942 RMK SC6AC2 TCU ASOCTD SLP958

CYQF;2007-06-06 06:00;CYQF 060600Z 08016G22KT 8SM SHRA BKN012 OVC060 14/12 A2942 RMK SC6SC2 TCU ASOCTD CIG RAG RERA SLP959

CYQF;2007-06-06 06:38;CYQF 060638Z 07014G20KT 10SM OVC012 RMK SC8

CYQF;2007-06-06 07:00;CYQF 060700Z 07012G20KT 12SM OVC012 13/11 A2942 RMK SC8 CIG RAG BR SLP960

CYQF;2007-06-06 08:00;CYQF 060800Z 06017G27KT 12SM OVC011 14/11 A2942 RMK SC8 CIG RAG BR SLP961

CYQF;2007-06-06 09:00;CYQF 060900Z CCA 05014G20KT 12SM OVC012 13/10 A2944 RMK SC8 OBS TAKEN +14 SLP966

CYQF;2007-06-06 10:00;CYQF 061000Z 04012G20KT 12SM -SHRA OVC012 12/10 A2945 RMK SC8 CIG RAG SLP970

CYQF;2007-06-06 10:32;CYQF 061032Z 05013KT 3SM -RA BR FEW006 OVC012 RMK SF2SC6 CIG RAG

CYQF;2007-06-06 11:00;CYQF 061100Z 06013KT 1 1/2SM -RA BR BKN006 OVC012 11/10 A2947 RMK SF6SC2 CIG RAG SLP977

CYQF;2007-06-06 12:00;CYQF 061200Z 04014KT 1 1/2SM -RA BR BKN006 OVC012 11/10 A2950 RMK SF6SC2 CIG RAG SLP992

CYQF;2007-06-06 12:40;CYQF 061240Z 04008KT 1SM -RA BR BKN004 OVC010 RMK SF6SC2 CIG RAG

CYQF;2007-06-06 13:00;CYQF 061300Z 03010KT 1 1/2SM -RA BR BKN004 OVC010 12/11 A2952 RMK SF6SC2 CIG RAG SLP000

CYQF;2007-06-06 14:00;CYQF 061400Z 04013G20KT 2SM -RA BR BKN004 OVC010 11/09 A2955 RMK SF6SC2 SLP008

CYQF;2007-06-06 14:50;CYQF 061450Z 02017KT 2SM -RA BR BKN002 OVC015 RMK SF6SC2 CIG RAG

CYQF;2007-06-06 15:00;CYQF 061500Z 02015KT 2SM -RA BR BKN002 OVC015 10/09 A2958 RMK SF6SC2 SLP023

CYQF;2007-06-06 15:19;CYQF 061519Z 02014KT 10SM SCT003 OVC011 RMK SF4SC4 CIG RAG

CYQF;2007-06-06 16:00;CYQF 061600Z 02015KT 10SM SCT012 OVC020 11/08 A2960 RMK SC4SC3 SLP030

CYQF;2007-06-06 17:00;CYQF 061700Z 01015KT 15SM BKN015 OVC040 11/07 A2963 RMK SC7SC1 SLP039

CYQF;2007-06-06 18:00;CYQF 061800Z 03015KT 15SM BKN015 OVC040 12/07 A2966 RMK SC6SC1 SLP054

CYQF;2007-06-06 19:00;CYQF 061900Z 02012KT 15SM BKN025 BKN080 BKN250 13/05 A2969 RMK CU5AC2CI0 SLP062

CYQF;2007-06-06 20:00;CYQF 062000Z 01014KT 15SM BKN030 BKN080 BKN250 13/05 A2971 RMK CU5AC1CI1 TCU ASOCTD SLP068

CYQF;2007-06-06 21:00;CYQF 062100Z 03015KT 15SM BKN040 BKN100 BKN250 14/03 A2972 RMK CU5AC1CI1 TCU ASOCTD SLP072

CYQF;2007-06-06 22:00;CYQF 062200Z 05010KT 15SM SCT040 BKN100 OVC250 14/04 A2974 RMK CU4AC2CI1 SLP078

CYQF;2007-06-06 23:00;CYQF 062300Z 01012KT 15SM SCT040 BKN100 OVC250 14/04 A2976 RMK CU4AC2CI1 TCU ASOCTD SLP083

CYQF;2007-06-07 00:00;CYQF 070000Z CCA 35006KT 15SM SCT040 BKN100 OVC250 14/05 A2976 RMK SC3AC3CI1 CU ASOCTD SLP090

CYQF;2007-06-07 01:00;CYQF 070100Z 36012G18KT 15SM FEW040 BKN090 OVC250 13/06 A2978 RMK SC2AC3CI2 TCU ASOCTD SLP094

CYQF;2007-06-07 02:00;CYQF 070200Z 36007KT 15SM SCT040 BKN090 OVC250 11/05 A2981 RMK SC3AC3CI2 TCU ASOCTD SLP103

CYQF;2007-06-07 03:00;CYQF 070300Z 34008KT 15SM FEW050 BKN100 OVC250 11/05 A2982 RMK SC2AC4CI2 SLP115

CYQF;2007-06-07 04:00;CYQF 070400Z 33010KT 15SM FEW050 BKN100 OVC250 11/04 A2984 RMK SC2AC5CI2 SHWRS NW SLP119

CYQF;2007-06-07 05:00;CYQF 070500Z 32008KT 15SM BKN100 BKN250 10/04 A2985 RMK AC5CI2 SLP123

CYQF;2007-06-07 06:00;CYQF 070600Z 30010KT 15SM BKN100 BKN250 10/06 A2985 RMK AC5CI2 SLP124

CYQF;2007-06-07 07:00;CYQF 070700Z 31011KT 15SM BKN100 BKN250 09/05 A2986 RMK AC5CI2 SLP126

CYQF;2007-06-07 08:00;CYQF 070800Z 29010KT 15SM BKN100 08/04 A2985 RMK AC6 SLP124

CYQF;2007-06-07 09:00;CYQF 070900Z 29008KT 15SM SCT100 07/04 A2986 RMK AC3 SLP127

CYQF;2007-06-07 10:00;CYQF 071000Z 32008KT 15SM FEW050 SCT100 07/04 A2986 RMK CU1AC2 SLP129

CYQF;2007-06-07 11:00;CYQF 071100Z 27003KT 15SM FEW050 SCT250 06/03 A2987 RMK CU2CI1 SLP131

CYQF;2007-06-07 12:00;CYQF 071200Z 30003KT 15SM FEW070 06/04 A2988 RMK AC1 SLP135

CYQF;2007-06-07 13:00;CYQF 071300Z 26002KT 15SM FEW070 07/04 A2988 RMK AC1 SLP137

CYQF;2007-06-07 14:00;CYQF 071400Z 27002KT 15SM SKC 08/05 A2989 RMK SLP138

CYQF;2007-06-07 15:00;CYQF 071500Z 31003KT 15SM SKC 10/06 A2989 RMK SLP138

CYQF;2007-06-07 16:00;CYQF 071600Z 32003KT 15SM FEW020 11/07 A2988 RMK CU1 SLP135

CYQF;2007-06-07 17:00;CYQF 071700Z 00000KT 15SM FEW020 13/05 A2986 RMK CU1 SLP131

CYQF;2007-06-07 18:00;CYQF 071800Z 23004KT 15SM FEW040 SCT250 14/04 A2985 RMK CU1CI0 SLP122

CYQF;2007-06-07 19:00;CYQF 071900Z 22002KT 15SM FEW045 SCT250 14/02 A2985 RMK CU2CI0 SLP119

CYQF;2007-06-07 20:00;CYQF 072000Z 29002KT 15SM FEW045 SCT250 15/02 A2983 RMK CU2CI0 SLP113

CYQF;2007-06-07 21:00;CYQF 072100Z 28008KT 15SM FEW045 SCT250 16/04 A2981 RMK CU2CI1 SLP108

CYQF;2007-06-07 22:00;CYQF 072200Z 32005KT 15SM FEW050 SCT250 17/05 A2979 RMK CU2CI1 SLP101

CYQF;2007-06-07 23:00;CYQF 072300Z 32005KT 15SM FEW050 SCT250 17/04 A2977 RMK CU1CI2 SLP095

CYQF;2007-06-08 00:00;CYQF 080000Z 35006KT 15SM FEW050 FEW100 BKN250 18/05 A2976 RMK CU1AC2CI1 SLP088

CYQF;2007-06-08 01:00;CYQF 080100Z 36003KT 15SM FEW050 SCT100 BKN250 18/05 A2976 RMK CU2AC2CI2 SLP088

CYQF;2007-06-08 02:00;CYQF 080200Z 30002KT 15SM FEW050 SCT100 BKN250 17/07 A2975 RMK CU1AC2CI2 SLP087

CYQF;2007-06-08 03:00;CYQF 080300Z 24003KT 15SM FEW050 BKN100 BKN250 16/08 A2975 RMK SC2AC3CI1 SLP084

CYQF;2007-06-08 04:00;CYQF 080400Z 24003KT 15SM SCT050 BKN100 OVC250 15/08 A2976 RMK SC3AC2CI1 SLP087

CYQF;2007-06-08 05:00;CYQF 080500Z 26004KT 15SM FEW050 BKN100 BKN250 14/09 A2977 RMK SC2AC2CI2 SLP090

CYQF;2007-06-08 06:00;CYQF 080600Z 27007KT 15SM BKN100 OVC250 14/08 A2977 RMK AC5CI2 SLP088

CYQF;2007-06-08 07:00;CYQF 080700Z 30008KT 15SM FEW050 OVC100 14/08 A2979 RMK SC2AC6 SLP094

CYQF;2007-06-08 07:50;CYQF 080750Z 30013KT 15SM -SHRA SCT050 OVC100 RMK SC3AC5

CYQF;2007-06-08 08:00;CYQF 080800Z 31012KT 15SM -SHRA SCT050 OVC100 14/07 A2981 RMK SC3AC5 SLP099

CYQF;2007-06-08 09:00;CYQF 080900Z 29006KT 15SM -SHRA FEW050 BKN100 13/08 A2982 RMK SC2AC4 SLP104

CYQF;2007-06-08 09:12;CYQF 080912Z 29004KT 15SM FEW050 BKN100 RMK SC2AC3

CYQF;2007-06-08 10:00;CYQF 081000Z 27007KT 15SM FEW050 BKN100 12/08 A2982 RMK SC1AC4 SLP105

CYQF;2007-06-08 11:00;CYQF 081100Z 26007KT 15SM BKN090 BKN250 11/08 A2983 RMK AC5CI1 SLP107

CYQF;2007-06-08 12:00;CYQF 081200Z 27007KT 15SM BKN090 BKN250 12/08 A2983 RMK AC5CI0 SLP106

CYQF;2007-06-08 13:00;CYQF 081300Z 30008KT 15SM FEW090 SCT250 12/07 A2984 RMK AC2CI0 SLP110

CYQF;2007-06-08 14:00;CYQF 081400Z 31012KT 15SM FEW080 FEW250 14/06 A2985 RMK AC2CI0 SLP112

CYQF;2007-06-08 15:00;CYQF 081500Z 31014G20KT 15SM FEW080 FEW250 15/05 A2985 RMK AC2CI0 SLP114

CYQF;2007-06-08 16:00;CYQF 081600Z 31014KT 15SM FEW090 16/06 A2985 RMK AC2 SLP113

CYQF;2007-06-08 17:00;CYQF 081700Z 33012KT 15SM FEW040 FEW090 16/06 A2985 RMK CU1AC1 SLP112

CYQF;2007-06-08 18:00;CYQF 081800Z 31014KT 15SM FEW045 FEW090 17/06 A2984 RMK CU2AC1 SLP108

CYQF;2007-06-08 19:00;CYQF 081900Z 36010KT 15SM FEW045 FEW090 18/06 A2982 RMK CU2AC1 SLP103

CYQF;2007-06-08 20:00;CYQF 082000Z 35010KT 15SM BKN050 BKN100 18/05 A2982 RMK CU5AC2 SLP102

CYQF;2007-06-08 21:00;CYQF 082100Z 31008KT 15SM SCT050 BKN100 18/05 A2981 RMK CU3AC2 SLP099

CYQF;2007-06-08 22:00;CYQF 082200Z 36006KT 15SM SCT050 BKN090 BKN280 18/05 A2980 RMK CU4AC1CI1 TCU ASOCTD SLP095

CYQF;2007-06-08 23:00;CYQF 082300Z 32007KT 15SM SCT050 SCT090 BKN280 18/05 A2979 RMK CU3AC1CI1 TCU ASOCTD SLP092

CYQF;2007-06-09 00:00;CYQF 090000Z 00000KT 15SM FEW050 SCT090 BKN280 19/05 A2977 RMK CU2AC1CI1 TCU ASOCTD SLP086

CYQF;2007-06-09 01:00;CYQF 090100Z 00000KT 15SM FEW050 SCT090 BKN280 18/05 A2977 RMK CU2AC1CI1 TCU ASOCTD SLP086

CYQF;2007-06-09 02:00;CYQF 090200Z 00000KT 15SM FEW050 SCT090 BKN280 19/06 A2977 RMK SC2AC2CI2 TCU DIST S SLP086

CYQF;2007-06-09 03:00;CYQF 090300Z 00000KT 15SM FEW050 FEW090 BKN280 18/06 A2976 RMK SC1AC2CI3 SLP082

CYQF;2007-06-09 04:00;CYQF 090400Z 00000KT 15SM FEW050 FEW090 BKN280 17/06 A2977 RMK CU1ACC2CI1 CB DIST S AND W SLP083

CYQF;2007-06-09 05:00;CYQF 090500Z 00000KT 15SM FEW050 FEW090 BKN280 14/08 A2978 RMK SC1ACC1CI1 SLP086

CYQF;2007-06-09 06:00;CYQF 090600Z 18002KT 15SM FEW040 BKN100 BKN250 13/08 A2978 RMK SC2AC4CI1 SLP090

CYQF;2007-06-09 06:53;CYQF 090653Z 29004KT 15SM -SHRA BKN040CB OVC100 RMK CB5AC3 LTGIC W

CYQF;2007-06-09 07:00;CYQF 090700Z 00000KT 15SM -SHRA BKN040CB OVC100 12/10 A2980 RMK CB5AC3 LTGIC W SLP096

CYQF;2007-06-09 07:27;CYQF 090727Z 26010KT 10SM -TSRA BKN040CB OVC100 RMK CB6AC2

CYQF;2007-06-09 07:48;CYQF 090748Z 32004KT 10SM -SHRA FEW007 BKN040CB OVC100 RMK SF2CB3AC3

CYQF;2007-06-09 08:00;CYQF 090800Z 00000KT 15SM VCSH FEW007 SCT040CB BKN100 11/09 A2981 RMK SF2CB2AC2 RETS SLP099

CYQF;2007-06-09 09:00;CYQF 090900Z 00000KT 15SM FEW040 SCT100 BKN250 11/09 A2979 RMK SC1AC2CI1 SLP095

CYQF;2007-06-09 10:00;CYQF 091000Z 00000KT 15SM FEW040 SCT100 BKN250 09/09 A2980 RMK SC1AC2CI2 SLP099

CYQF;2007-06-09 11:00;CYQF 091100Z 35002KT 15SM FEW030 BKN090 BKN250 10/09 A2981 RMK SC1AC4CI1 SLP102

CYQF;2007-06-09 12:00;CYQF 091200Z 05003KT 15SM FEW030 SCT090 BKN250 10/08 A2982 RMK SC1AC2CI0 SLP104

CYQF;2007-06-09 13:00;CYQF 091300Z 16002KT 15SM FEW030 FEW090 BKN250 10/08 A2982 RMK SC1AC2CI2 TR SC SLP106

CYQF;2007-06-09 14:00;CYQF 091400Z 00000KT 15SM FEW030 SCT090 BKN250 11/09 A2982 RMK SC1AC3CI2 TR SC ACC ASOCTD SLP105

CYQF;2007-06-09 15:00;CYQF 091500Z 00000KT 15SM FEW090 BKN250 13/09 A2982 RMK AC2CI2 ACC ASOCTD SLP103

CYQF;2007-06-09 16:00;CYQF 091600Z 17004KT 15SM FEW030 FEW090 BKN250 15/08 A2981 RMK CU1AC2CI1 SLP101

CYQF;2007-06-09 17:00;CYQF 091700Z 17004KT 15SM FEW030 SCT090 BKN250 16/09 A2982 RMK CU2AC2CI1 SLP102

CYQF;2007-06-09 18:00;CYQF 091800Z 22006KT 15SM FEW035 FEW090 BKN250 17/08 A2980 RMK CU2AC1CI1 SLP097

CYQF;2007-06-09 19:00;CYQF 091900Z 17007KT 15SM FEW040 SCT090 BKN250 18/09 A2979 RMK CU2AC1CI0 TCU ASOCTD SLP093

CYQF;2007-06-09 20:00;CYQF 092000Z 17008KT 15SM SCT045 BKN090 BKN250 19/08 A2977 RMK CU4AC2CI1 TCU ASOCTD CI TR SLP088

CYQF;2007-06-09 21:00;CYQF 092100Z 22003KT 15SM FEW055 SCT090 BKN250 20/06 A2975 RMK CU2AC1CI0 TCU ASOCTD SLP078

CYQF;2007-06-09 22:00;CYQF 092200Z 19007KT 15SM FEW050 SCT090 BKN250 20/07 A2973 RMK CU2AC1CI1 SLP073

CYQF;2007-06-09 23:00;CYQF 092300Z 18002KT 15SM FEW050 SCT110 BKN250 21/05 A2972 RMK CU2AC2CI0 SLP070

CYQF;2007-06-10 00:00;CYQF 100000Z 15012KT 15SM SCT050 BKN110 BKN250 21/06 A2971 RMK CU3AC2CI2 TCU ASOCTD SLP064

CYQF;2007-06-10 01:00;CYQF 100100Z 16010KT 15SM SCT050 BKN110 BKN250 20/06 A2969 RMK CU3AC2CI1 SLP059

CYQF;2007-06-10 02:00;CYQF 100200Z 13008KT 15SM FEW050 BKN110 BKN250 19/07 A2967 RMK CU2AC3CI1 SLP053

CYQF;2007-06-10 03:00;CYQF 100300Z 11008KT 15SM FEW050 BKN110 BKN250 18/09 A2966 RMK CU2AC2CI2 SLP047

CYQF;2007-06-10 04:00;CYQF 100400Z 12010KT 15SM FEW050 BKN110 BKN250 17/10 A2965 RMK CU2AC2CI2 SLP044

CYQF;2007-06-10 05:00;CYQF 100500Z 14013KT 15SM FEW050 BKN110 BKN250 16/10 A2964 RMK CU2AC2CI2 SLP042

CYQF;2007-06-10 06:00;CYQF 100600Z 13011KT 15SM SCT100 OVC250 14/10 A2963 RMK AC3CI2 SLP037

CYQF;2007-06-10 07:00;CYQF 100700Z 15012KT 15SM FEW100 OVC250 14/09 A2961 RMK AC2CI4 SLP031

CYQF;2007-06-10 08:00;CYQF 100800Z 15007KT 15SM FEW100 OVC250 13/09 A2960 RMK AC2CI2 SLP029

CYQF;2007-06-10 09:00;CYQF 100900Z 00000KT 15SM SCT100 OVC250 13/10 A2960 RMK AC3CI2 SLP024

CYQF;2007-06-10 10:00;CYQF 101000Z 00000KT 15SM FEW100 BKN250 11/09 A2960 RMK AC2CI3 SLP024

CYQF;2007-06-10 11:00;CYQF 101100Z 04003KT 15SM FEW100 BKN250 10/08 A2960 RMK AC2CI2 SLP024

CYQF;2007-06-10 12:00;CYQF 101200Z 00000KT 15SM BKN100 BKN250 10/09 A2960 RMK AC5CI1 VIRGA SLP025

CYQF;2007-06-10 13:00;CYQF 101300Z 00000KT 15SM BKN100 11/09 A2960 RMK AC7 VIRGA SLP027

CYQF;2007-06-10 14:00;CYQF 101400Z 00000KT 15SM BKN070 OVC250 12/10 A2960 RMK AC5CI3 SLP027

CYQF;2007-06-10 15:00;CYQF 101500Z 00000KT 15SM BKN080 OVC250 13/10 A2961 RMK AC6CI2 SLP031

CYQF;2007-06-10 16:00;CYQF 101600Z 00000KT 15SM BKN080 BKN250 15/12 A2961 RMK AC6CI1 SLP031

CYQF;2007-06-10 17:00;CYQF 101700Z 00000KT 15SM FEW030 SCT080 BKN250 18/11 A2962 RMK CU1AC2CI1 SLP032

CYQF;2007-06-10 18:00;CYQF 101800Z 00000KT 15SM FEW045 SCT080 BKN250 20/09 A2961 RMK CU1AC1CI1 TCU ASOCTD SLP027

CYQF;2007-06-10 19:00;CYQF 101900Z 00000KT 15SM FEW050 BKN100 BKN250 20/07 A2961 RMK CU2AC2CI1 TCU ASOCTD SLP028

CYQF;2007-06-10 20:00;CYQF 102000Z 21003KT 15SM FEW050 SCT100 BKN250 20/10 A2961 RMK CU2AC2CI1 CB DIST SW SLP027

CYQF;2007-06-10 21:00;CYQF 102100Z 03005KT 15SM FEW050 SCT100 BKN250 21/09 A2961 RMK CU2AC1CI1 CB WEST SLP025

CYQF;2007-06-10 22:00;CYQF 102200Z 00000KT 15SM SCT050 BKN100 BKN250 21/08 A2961 RMK CU3AC2CI1 CB WEST SLP025

CYQF;2007-06-10 23:00;CYQF 102300Z 06004KT 15SM SCT050TCU BKN100 BKN250 22/09 A2960 RMK TCU3AC2CI1 CB SW-NW SLP023

CYQF;2007-06-11 00:00;CYQF 110000Z 03010G15KT 15SM BKN050CB BKN100 BKN250 20/10 A2960 RMK CB5AC1CI2 SLP029

CYQF;2007-06-11 00:11;CYQF 110011Z 03010G15KT 15SM TS BKN050CB BKN100 BKN250 RMK CB6AC1CI1 AC TR

CYQF;2007-06-11 00:45;CYQF 110045Z 35010KT 15SM -TSRA BKN050CB BKN100 BKN250 RMK CB6AC1CI0

CYQF;2007-06-11 01:00;CYQF 110100Z 34015G26KT 10SM -TSRA BKN040CB OVC250 16/12 A2957 RMK CB6CI1 VIS LWR W +SHRA SLP020

CYQF;2007-06-11 01:05;CYQF 110105Z 33025G37KT 3SM +TSRAGR BKN040CB OVC250 RMK CB7CI0 HAIL DIAM 10MM

CYQF;2007-06-11 01:40;CYQF 110140Z 30010KT 10SM -TSRA BKN040CB OVC210 RMK CB6CI2 +SHRA E VIS E LWR

CYQF;2007-06-11 02:00;CYQF 110200Z 02015G25KT 10SM -TSRA BKN040CB BKN100 OVC250 14/12 A2964 RMK CB6AC1CI1 RERA +SHRA NW-N-E VIS LWR SLP040

CYQF;2007-06-11 03:00;CYQF 110300Z 33010KT 15SM SCT040TCU BKN100 BKN250 13/10 A2967 RMK TCU4AC2CI1 CB N SHWRS N SLP058

CYQF;2007-06-11 04:00;CYQF 110400Z 04008KT 15SM FEW040 SCT100 BKN250 13/10 A2966 RMK SC2AC2CI1 SLP055

CYQF;2007-06-11 05:00;CYQF 110500Z 01007KT 15SM FEW040TCU SCT100 BKN250 13/11 A2967 RMK TCU2AC2CI1 LTG W SLP056

CYQF;2007-06-11 06:00;CYQF 110600Z 32004KT 15SM FEW040 BKN100 11/09 A2968 RMK CU2AC2 SLP055

CYQF;2007-06-11 07:00;CYQF 110700Z 34005KT 15SM FEW040 SCT100 11/08 A2970 RMK SC1AC2 SLP060

CYQF;2007-06-11 08:00;CYQF 110800Z 00000KT 15SM FEW040 BKN080 11/09 A2970 RMK SC2AC3 SLP062

CYQF;2007-06-11 09:00;CYQF 110900Z 32005KT 15SM FEW040 BKN080 11/09 A2972 RMK SC2AC4 SLP068

CYQF;2007-06-11 10:00;CYQF 111000Z 32002KT 6SM BR FEW040 BKN080 11/10 A2973 RMK SC2AC3 SLP069

CYQF;2007-06-11 11:00;CYQF 111100Z 36004KT 3SM BR FEW010 FEW040 SCT080 BKN250 11/09 A2971 RMK SC1SC2AC2CI0 SLP064

CYQF;2007-06-11 12:00;CYQF 111200Z 00000KT 2SM BR BKN040 BKN250 10/09 A2971 RMK FG2CU3CI1 SLP067

CYQF;2007-06-11 12:34;CYQF 111234Z 26004KT 1SM BR OVC007 RMK ST8

CYQF;2007-06-11 13:00;CYQF 111300Z 30003KT 2SM BR BKN007 OVC040 11/10 A2973 RMK ST7CU1 SLP072

CYQF;2007-06-11 14:00;CYQF 111400Z 33004KT 5SM BR SCT007 SCT040 OVC080 12/10 A2974 RMK SF3SC1AC4 SLP074

CYQF;2007-06-11 15:00;CYQF 111500Z 30003KT 2SM -RA BR SCT007 BKN040 OVC080 13/10 A2974 RMK SF4SC2AC2 SLP081

CYQF;2007-06-11 15:05;CYQF 111505Z 29007KT 2SM -TSRA BR SCT007 BKN040 OVC080 RMK SF4SC2AC2 LTNG NNW

CYQF;2007-06-11 15:14;CYQF 111514Z 29007KT 2SM -TSRA BR BKN004 OVC040 RMK SF6SC2

CYQF;2007-06-11 16:00;CYQF 111600Z 22004KT 2SM -TSRA BR OVC004 12/10 A2975 RMK ST8 SLP085

CYQF;2007-06-11 16:44;CYQF 111644Z 19002KT 5SM -TSRA BR BKN004 OVC040 RMK ST6SC2 LTNG N CB ASOCTD

CYQF;2007-06-11 17:00;CYQF 111700Z 03003KT 8SM -TSRA SCT004 BKN040CB BKN100 12/11 A2974 RMK SF3CB3AC1 MAMATUS E SLP080

CYQF;2007-06-11 17:35;CYQF 111735Z 36005KT 8SM -SHRA FEW006 BKN040CB BKN100 RMK SF2CB3AC2

CYQF;2007-06-11 18:00;CYQF 111800Z 33005KT 8SM -SHRA SCT006 BKN040CB BKN100 12/10 A2973 RMK SF3CB2AC2 SLP081

CYQF;2007-06-11 18:27;CYQF 111827Z 02010KT 10SM BKN010 BKN040CB BKN100 RMK CU5CB2AC1

CYQF;2007-06-11 18:40;CYQF 111840Z 03006KT 10SM FEW010 SCT040CB BKN100 RMK CU2CB1AC2

CYQF;2007-06-11 19:00;CYQF 111900Z 01010KT 12SM FEW010 SCT040CB BKN080 13/10 A2974 RMK CU2CB2AC3 CB EMBD N TCU ALQDS SLP085

CYQF;2007-06-11 19:48;CYQF 111948Z 36010KT 12SM TS FEW010 BKN040CB BKN080 RMK SF1CB4AC2 SHRA S-W-NW

CYQF;2007-06-11 20:00;CYQF 112000Z 01010KT 12SM FEW010 BKN040CB OVC080 13/09 A2976 RMK SF1CB5AC2 SHRA SE-S-W SLP090

CYQF;2007-06-11 20:19;CYQF 112019Z 32010KT 10SM -TSRA FEW010 BKN040CB OVC080 RMK SF1CB6AC1 +SHRA SE-S

CYQF;2007-06-11 21:00;CYQF 112100Z 01010KT 10SM -TSRA FEW010 BKN040CB 11/09 A2976 RMK SF1CB6 SLP093

CYQF;2007-06-11 22:00;CYQF 112200Z 29004KT 15SM SCT015TCU BKN080 12/11 A2978 RMK TCU4AC2 SLP099

CYQF;2007-06-11 23:00;CYQF 112300Z 00000KT 15SM FEW020TCU SCT080 BKN210 14/10 A2977 RMK TCU2AC2CI0 SLP094

CYQF;2007-06-12 00:00;CYQF 120000Z 18004KT 15SM FEW020 FEW080 BKN210 15/10 A2977 RMK CU2AC1CI1 SLP093

CYQF;2007-06-12 01:00;CYQF 120100Z 00000KT 15SM FEW020 SCT080 BKN210 15/09 A2977 RMK CU2AC2CI1 SLP093

CYQF;2007-06-12 02:00;CYQF 120200Z 25004KT 15SM SCT030 SCT080 BKN210 16/09 A2978 RMK CU3AC1CI0 SLP095

CYQF;2007-06-12 03:00;CYQF 120300Z 00000KT 15SM SCT020CB BKN080 BKN210 13/09 A2978 RMK CB3AC2CI0 SLP096

CYQF;2007-06-12 04:00;CYQF 120400Z 00000KT 15SM VCSH SCT020 BKN080 BKN210 12/07 A2980 RMK SC3AC2CI0 TCU ASOCTD SLP102

CYQF;2007-06-12 05:00;CYQF 120500Z 36008KT 15SM FEW020CB BKN080 10/06 A2982 RMK CB2AC2 LTNG N SLP107

CYQF;2007-06-12 06:00;CYQF 120600Z 01003KT 15SM FEW020 BKN080 10/07 A2982 RMK SC2AC3 CB ASOCTD LTG DIST N SLP114

CYQF;2007-06-12 07:00;CYQF 120700Z 31008KT 15SM FEW030 BKN090 10/08 A2984 RMK SC2AC4 SLP118

CYQF;2007-06-12 08:00;CYQF 120800Z 32010G15KT 15SM FEW035 BKN090 09/06 A2985 RMK SC2AC6 SLP123

CYQF;2007-06-12 09:00;CYQF 120900Z 32008KT 15SM BKN050 OVC100 09/06 A2986 RMK SC5AC3 SLP128

CYQF;2007-06-12 09:14;CYQF 120914Z 33010KT 12SM -SHRA BKN040 OVC090 RMK SC6AC2 TCU EMBD

CYQF;2007-06-12 09:39;CYQF 120939Z 33008KT 15SM SCT040 BKN090 RMK SC4AC3

CYQF;2007-06-12 10:00;CYQF 121000Z 34010KT 15SM SCT040 BKN080 08/06 A2984 RMK SC3AC4 SLP123

CYQF;2007-06-12 11:00;CYQF 121100Z 30005KT 15SM FEW040 BKN080 07/05 A2985 RMK SC2AC3 SLP127

CYQF;2007-06-12 12:00;CYQF 121200Z 28004KT 15SM SCT080 06/05 A2987 RMK AC4 SLP131

CYQF;2007-06-12 13:00;CYQF 121300Z 28005KT 15SM BKN080 08/06 A2988 RMK AC5 SLP133

CYQF;2007-06-12 14:00;CYQF 121400Z 31006KT 15SM FEW080 BKN250 08/05 A2988 RMK AC2CI0 SLP135

CYQF;2007-06-12 15:00;CYQF 121500Z 32010KT 15SM FEW020 FEW080 SCT210 11/05 A2989 RMK CU1AC2CI0 SLP135

CYQF;2007-06-12 16:00;CYQF 121600Z 31010KT 15SM FEW025 SCT100 SCT210 11/05 A2989 RMK CU2AC1CI0 SLP135

CYQF;2007-06-12 17:00;CYQF 121700Z 31010KT 15SM BKN030 BKN260 12/05 A2989 RMK CU5CI0 SLP135

CYQF;2007-06-12 18:00;CYQF 121800Z 31012KT 15SM BKN035TCU BKN100 13/05 A2989 RMK TCU5AC1 SLP137

CYQF;2007-06-12 19:00;CYQF 121900Z 30010G22KT 15SM BKN035TCU BKN100 12/05 A2991 RMK TCU5AC1 SLP143

CYQF;2007-06-12 20:00;CYQF 122000Z 34012KT 15SM BKN030TCU BKN100 12/06 A2995 RMK TCU5AC1 SHWRS DIST SW AND S SLP154

CYQF;2007-06-12 21:00;CYQF 122100Z 32015G22KT 15SM VCSH SCT030 BKN100 13/05 A2995 RMK CU3AC3 CB S SLP158

CYQF;2007-06-12 22:00;CYQF 122200Z 30018G25KT 15SM FEW030 FEW100 BKN200 13/05 A2996 RMK CU2ACC1CI5 CB S SLP162

CYQF;2007-06-12 23:00;CYQF 122300Z 32011KT 15SM FEW030 FEW100 BKN200 13/04 A2997 RMK CU1AC1CI6 SLP166

CYQF;2007-06-13 00:00;CYQF 130000Z 31004KT 15SM FEW030 BKN100 BKN200 13/04 A2996 RMK CU2AC3CI2 SLP165

CYQF;2007-06-13 01:00;CYQF 130100Z 26007KT 15SM FEW040 SCT100 BKN200 15/05 A2995 RMK CU1AC4CI1 SLP161

CYQF;2007-06-13 02:00;CYQF 130200Z 29005KT 15SM FEW040 FEW070 SCT100 BKN200 14/04 A2997 RMK CU1AC2AC2CI2 SLP167

CYQF;2007-06-13 03:00;CYQF 130300Z CCA 22004KT 15SM FEW025 SCT080 BKN250 12/06 A2998 RMK CU2AC2CI1 TCU ACC ASOCTD SLP166

CYQF;2007-06-13 04:00;CYQF 130400Z 00000KT 15SM VCSH SCT025 BKN080 12/06 A2999 RMK CU4AC2 TCU ACC ASOCTD SH W-NE SLP170

CYQF;2007-06-13 04:08;CYQF 130408Z 00000KT 15SM TS VCSH SCT025TCU BKN080 RMK TCU4AC2 CB EMBD ACC ASOCTD SH W-E LTGCG

CYQF;2007-06-13 04:21;CYQF 130421Z 01011G17KT 15SM -TSRA BKN025CB BKN080 RMK CB6AC2 SH W-E LTGCGCC VIS LWR N

CYQF;2007-06-13 04:37;CYQF 130437Z 30008KT 6SM -SHRA BKN020TCU BKN080 RMK TCU5AC2 VIS LWR N

CYQF;2007-06-13 05:00;CYQF 130500Z 35007KT 15SM VCSH FEW020 SCT080 10/07 A3002 RMK CU2AC2 VIS LWR SE SLP178

CYQF;2007-06-13 06:00;CYQF 130600Z 00000KT 15SM FEW020TCU FEW080 09/07 A3002 RMK TCU2AC1 SLP180

CYQF;2007-06-13 07:00;CYQF 130700Z 00000KT 15SM FEW020 FEW080 07/07 A3002 RMK SC1AC1 SLP180

CYQF;2007-06-13 08:00;CYQF 130800Z 18002KT 15SM SKC 07/06 A3002 RMK SLP180

CYQF;2007-06-13 09:00;CYQF 130900Z 20003KT 15SM FEW100 06/05 A3002 RMK AC1 SLP185

CYQF;2007-06-13 10:00;CYQF 131000Z 19004KT 15SM FEW100 05/04 A3002 RMK AC1 SLP186

CYQF;2007-06-13 11:00;CYQF 131100Z 20003KT 15SM FEW080 05/03 A3002 RMK AC1 SLP184

CYQF;2007-06-13 12:00;CYQF 131200Z 19004KT 15SM FEW080 04/03 A3002 RMK AC1 AC TR SLP187

CYQF;2007-06-13 13:00;CYQF 131300Z 21005KT 15SM FEW080 SCT210 06/03 A3002 RMK AC1CI1 AC TR SLP186

CYQF;2007-06-13 14:00;CYQF 131400Z 21004KT 15SM FEW050 FEW080 09/04 A3001 RMK SC1AC2 SLP185

CYQF;2007-06-13 15:00;CYQF 131500Z 21004KT 15SM FEW100 FEW250 11/05 A3000 RMK AC1CI1 SLP174

CYQF;2007-06-13 16:00;CYQF 131600Z 22006KT 15SM FEW100 SCT250 14/03 A2999 RMK AC2CI2 SLP171

CYQF;2007-06-13 17:00;CYQF 131700Z 25005KT 15SM FEW100 SCT250 15/03 A2999 RMK AC2CI1 SLP169

CYQF;2007-06-13 18:00;CYQF 131800Z 12005KT 15SM FEW060 SCT100 SCT250 16/02 A2998 RMK CU1AC2CI1 SLP164

CYQF;2007-06-13 19:00;CYQF 131900Z 17007KT 15SM FEW060 BKN100 BKN250 18/01 A2996 RMK CU2AC3CI1 SLP159

CYQF;2007-06-13 20:00;CYQF 132000Z 14007KT 15SM FEW060 BKN100 BKN250 18/01 A2994 RMK CU2AC2CI1 VIRGA SLP153

CYQF;2007-06-13 21:00;CYQF 132100Z 20006KT 15SM SCT060 BKN100 18/02 A2993 RMK CU3AC2 SHS/VIRGA S-SW+W SLP148

CYQF;2007-06-13 22:00;CYQF 132200Z 16009KT 15SM VCSH SCT060 BKN100 BKN250 18/04 A2992 RMK CU4AC2CI1 SH SE-NW SLP144

CYQF;2007-06-13 23:00;CYQF 132300Z 17010KT 15SM VCSH FEW045CB BKN090 BKN250 16/05 A2992 RMK CB2AC3CI1 LTGCCCG SH W-NW SLP145

CYQF;2007-06-14 00:00;CYQF 140000Z 01010KT 15SM BKN040CB BKN090 BKN250 15/05 A2993 RMK CB5AC2CI1 SH W-SE SLP154

CYQF;2007-06-14 01:00;CYQF 140100Z 04007KT 15SM FEW050 FEW090 BKN250 16/04 A2992 RMK CU2AC1CI2 SH DIST W VIRGA CB TOPS SLP151

CYQF;2007-06-14 02:00;CYQF 140200Z 35006KT 15SM VCSH FEW035TCU SCT090 BKN250 14/06 A2992 RMK TCU2AC1CI0 SLP151

CYQF;2007-06-14 03:00;CYQF 140300Z 00000KT 15SM VCSH SCT030TCU SCT090 BKN250 14/07 A2993 RMK TCU3AC1CI1 CB TOP NE SLP147

CYQF;2007-06-14 04:00;CYQF 140400Z 03003KT 15SM FEW030 FEW090 SCT250 13/06 A2993 RMK CU2AC1CI0 CB TOP S SLP146

CYQF;2007-06-14 05:00;CYQF 140500Z 32002KT 15SM FEW030 BKN090 11/07 A2994 RMK CU1AC2 SLP150

CYQF;2007-06-14 06:00;CYQF 140600Z 35004KT 15SM FEW030 BKN090 10/06 A2994 RMK CU1AC2 SLP150

CYQF;2007-06-14 07:00;CYQF 140700Z 36003KT 15SM FEW090 10/06 A2994 RMK AC1 SLP150

CYQF;2007-06-14 08:00;CYQF 140800Z 00000KT 15SM SKC 08/05 A2994 RMK SLP149

CYQF;2007-06-14 09:00;CYQF 140900Z 00000KT 15SM FEW090 06/05 A2995 RMK AC1 SLP153

CYQF;2007-06-14 10:00;CYQF 141000Z 00000KT 15SM FEW090 06/04 A2995 RMK AC2 SLP155

CYQF;2007-06-14 11:00;CYQF 141100Z 00000KT 15SM BKN080 BKN250 07/05 A2996 RMK AC5CI0 ACC ASOCTD SW SLP157

CYQF;2007-06-14 12:00;CYQF 141200Z CCA 36002KT 15SM FEW080 BKN250 07/05 A2995 RMK ACC2CI1 VIRGA SE-S-W CB DIST WNW SLP157

CYQF;2007-06-14 13:00;CYQF 141300Z 02003KT 15SM BKN080 BKN250 08/06 A2995 RMK AC5CI1 ACC ASOCTD SLP158

CYQF;2007-06-14 14:00;CYQF 141400Z 30004KT 15SM SCT080 BKN250 10/07 A2996 RMK AC4CI1 SLP160

CYQF;2007-06-14 15:00;CYQF 141500Z 31006KT 15SM SCT080 BKN250 12/08 A2996 RMK AC3CI1 ACC ASOCTD SLP158

CYQF;2007-06-14 16:00;CYQF 141600Z 02005KT 15SM FEW025 BKN080 BKN250 14/08 A2995 RMK CU1AC4CI1 SLP156

CYQF;2007-06-14 17:00;CYQF 141700Z 35006KT 15SM FEW025TCU BKN080 BKN250 14/08 A2996 RMK TCU2AC2CI1 SLP159

CYQF;2007-06-14 18:00;CYQF 141800Z 02005KT 15SM BKN030CB BKN080 15/07 A2995 RMK CB5AC2 SLP157

CYQF;2007-06-14 18:34;CYQF 141834Z CCA 36006KT 15SM -SHRAGS BKN030CB BKN080 RMK CB7AC1

CYQF;2007-06-14 18:43;CYQF 141843Z 31005KT 15SM -SHRA BKN030CB RMK CB7

CYQF;2007-06-14 19:00;CYQF 141900Z 24006KT 6SM -SHRA BKN030CB 12/09 A2996 RMK CB7 SLP158

CYQF;2007-06-14 19:12;CYQF 141912Z 00000KT 6SM TSRA BKN030CB RMK CB7 VIS LWR N SW

CYQF;2007-06-14 20:00;CYQF 142000Z 36012G20KT 10SM -TSRA BKN030CB BKN080 11/06 A2996 RERA RMK CB6AC1 SLP160

CYQF;2007-06-14 20:34;CYQF 142034Z 02012G18KT 10SM -SHRA BKN030CB OVC080 RMK CB7AC1

CYQF;2007-06-14 21:00;CYQF 142100Z 36007KT 10SM -SHRA BKN020CB OVC080 11/08 A2999 RMK CB6AC2 SLP178

CYQF;2007-06-14 21:49;CYQF 142149Z 33003KT 10SM -TSRA BKN020CB OVC080 RMK CB5AC3

CYQF;2007-06-14 22:00;CYQF 142200Z 00000KT 10SM -TSRA BKN020CB OVC080 11/07 A3002 RMK CB5AC3 SLP185

CYQF;2007-06-14 22:40;CYQF 142240Z 00000KT 10SM -TSRA FEW008 BKN015CB OVC080 RMK SF1CB4AC3

CYQF;2007-06-14 23:00;CYQF 142300Z 17004KT 10SM -SHRA SCT010TCU OVC080 10/08 A3003 RMK TCU4AC4 SLP190

CYQF;2007-06-15 00:00;CYQF 150000Z 25005KT 10SM -SHRA SCT010TCU OVC080 11/09 A3004 RMK TCU3AC5 SLP192

CYQF;2007-06-15 00:36;CYQF 150036Z 29007KT 15SM FEW010 BKN100 OVC250 RMK CU2AC2CI2

CYQF;2007-06-15 01:00;CYQF 150100Z 28007KT 15SM FEW010 BKN100 BKN250 12/08 A3003 RMK CU2AC2CI2 SLP190

CYQF;2007-06-15 02:00;CYQF 150200Z 29007KT 15SM FEW010 BKN100 BKN250 12/08 A3002 RMK CU1AC2CI2 SLP188

CYQF;2007-06-15 03:00;CYQF 150300Z 28003KT 15SM FEW020 BKN100 BKN250 11/08 A3003 RMK SC1AC2CI2 SLP183

CYQF;2007-06-15 04:00;CYQF 150400Z 27003KT 15SM FEW020 FEW100 BKN250 09/07 A3004 RMK SC1AC1CI2 SLP186

CYQF;2007-06-15 05:00;CYQF 150500Z 25003KT 15SM FEW020 FEW100 BKN250 08/07 A3005 RMK SC1AC1CI1 SLP189

CYQF;2007-06-15 06:00;CYQF 150600Z 28005KT 15SM FEW100 SCT250 08/06 A3005 RMK AC2CI1 SLP189

CYQF;2007-06-15 07:00;CYQF 150700Z 30005KT 15SM FEW100 SCT250 08/06 A3005 RMK AC2CI1 SLP189

CYQF;2007-06-15 08:00;CYQF 150800Z 00000KT 15SM FEW100 SCT250 07/06 A3005 RMK AC2CI1 SLP190

CYQF;2007-06-15 09:00;CYQF 150900Z 00000KT 15SM FEW100 SCT250 07/05 A3005 RMK AC2CI1 SLP197

CYQF;2007-06-15 10:00;CYQF 151000Z 00000KT 15SM FEW100 SCT250 06/05 A3005 RMK AC1CI1 SLP196

CYQF;2007-06-15 11:00;CYQF 151100Z 00000KT 15SM FEW100 FEW250 05/04 A3005 RMK AC1CI1 SLP199

CYQF;2007-06-15 12:00;CYQF 151200Z 00000KT 15SM FEW100 05/04 A3006 RMK AC1 SLP205

CYQF;2007-06-15 13:00;CYQF 151300Z 00000KT 15SM FEW100 07/06 A3007 RMK AC1 SLP207

CYQF;2007-06-15 14:00;CYQF 151400Z 00000KT 15SM FEW100 09/07 A3008 RMK AC1 SLP210

CYQF;2007-06-15 15:00;CYQF 151500Z 28005KT 15SM FEW100 12/08 A3008 RMK AC1 SLP202

CYQF;2007-06-15 16:00;CYQF 151600Z 28005KT 15SM FEW100 13/09 A3008 RMK AC2 SLP201

CYQF;2007-06-15 17:00;CYQF 151700Z 24002KT 15SM FEW024 SCT270 14/08 A3008 RMK CU2CI2 SLP201

CYQF;2007-06-15 18:00;CYQF 151800Z 30002KT 15SM SCT030 SCT100 BKN270 16/09 A3008 RMK CU3AC1CI0 SLP199

CYQF;2007-06-15 19:00;CYQF 151900Z 00000KT 15SM BKN035TCU BKN270 16/07 A3007 RMK TCU5CI0 SLP196

CYQF;2007-06-15 20:00;CYQF 152000Z 35002KT 15SM SCT035TCU BKN270 18/06 A3006 RMK TCU4CI1 SLP193

CYQF;2007-06-15 21:00;CYQF 152100Z 03002KT 15SM SCT040TCU SCT100 BKN270 17/07 A3005 RMK TCU3AC1CI1 SLP191

CYQF;2007-06-15 22:00;CYQF 152200Z 04007KT 15SM VCSH BKN040TCU BKN270 17/07 A3005 RMK TCU5CI1 SLP191

CYQF;2007-06-15 23:00;CYQF 152300Z 04004KT 15SM SCT040TCU BKN270 17/06 A3004 RMK TCU4CI2 SLP188

CYQF;2007-06-15 23:42;CYQF 152342Z 14009KT 15SM TS BKN030CB BKN270 RMK CB5CI1 LTGCG SW-SE

CYQF;2007-06-16 00:00;CYQF 160000Z 17015KT 15SM TS VCSH BKN030CB BKN270 15/07 A3005 RMK CB5CI2 OCNL LTGCG SLP195

CYQF;2007-06-16 00:36;CYQF 160036Z 21013KT 15SM -TSRA BKN030CB OVC270 RMK CB5CI2 LTGCG

CYQF;2007-06-16 01:00;CYQF 160100Z 21010KT 15SM -TSRA BKN030CB OVC270 12/08 A3005 RMK CB5CI2 LTGCG SLP193

CYQF;2007-06-16 01:12;CYQF 160112Z CCA 22010KT 15SM VCSH BKN030CB BKN270 RETS RMK CB5CI2

CYQF;2007-06-16 02:00;CYQF 160200Z 24003KT 15SM SCT030CB BKN080 BKN270 13/07 A3005 RETS RMK CB3AC2CI1 SLP193

CYQF;2007-06-16 03:00;CYQF 160300Z 13004KT 15SM FEW030TCU BKN080 BKN270 13/09 A3005 RMK TCU2AC2CI1 SLP190

CYQF;2007-06-16 04:00;CYQF 160400Z 18005KT 15SM FEW040 SCT080 BKN160 12/07 A3006 RMK CU2AC2AC2 SLP193

CYQF;2007-06-16 05:00;CYQF 160500Z 32003KT 15SM FEW040 BKN160 11/07 A3006 RMK CU2AC5 SLP192

CYQF;2007-06-16 06:00;CYQF 160600Z 00000KT 15SM OVC120 10/08 A3005 RMK AC8 SLP188

CYQF;2007-06-16 07:00;CYQF 160700Z 00000KT 15SM OVC120 11/08 A3005 RMK AC6 SLP188

CYQF;2007-06-16 08:00;CYQF 160800Z 00000KT 15SM OVC120 10/08 A3005 RMK AC6 SLP189

CYQF;2007-06-16 08:21;CYQF 160821Z 00000KT 10SM -SHRA OVC080 RMK AC7

CYQF;2007-06-16 09:00;CYQF 160900Z 00000KT 15SM BKN080 09/08 A3005 RMK AC6 SLP188

CYQF;2007-06-16 10:00;CYQF 161000Z 00000KT 15SM BKN100 10/08 A3004 RMK AC6 SLP185

CYQF;2007-06-16 11:00;CYQF 161100Z 00000KT 10SM OVC080 09/08 A3004 RMK AC8 SLP184

CYQF;2007-06-16 12:00;CYQF 161200Z 00000KT 8SM OVC080 09/08 A3003 RMK AC8 SLP184

CYQF;2007-06-16 12:42;CYQF 161242Z 00000KT 8SM -SHRA SCT030 OVC050 RMK CU3SC5

CYQF;2007-06-16 13:00;CYQF 161300Z 36003KT 8SM -RA FEW006 SCT030 OVC050 10/09 A3004 RMK CU2SC2SC5 VIS LWR N SLP185

CYQF;2007-06-16 14:00;CYQF 161400Z 00000KT 10SM -RA FEW010 FEW030 OVC050 10/09 A3005 RMK CF2SC1SC6 SLP190

CYQF;2007-06-16 15:00;CYQF 161500Z 00000KT 8SM -RA FEW030 OVC050 10/09 A3005 RMK SC2SC6 BR SLP190

CYQF;2007-06-16 15:40;CYQF 161540Z 01004KT 10SM FEW007 FEW030 OVC050 RMK CF1SC2SC6

CYQF;2007-06-16 16:00;CYQF 161600Z 02003KT 10SM FEW007 FEW030 OVC050 11/09 A3004 RMK CF1SC2SC6 SLP186

CYQF;2007-06-16 17:00;CYQF 161700Z 00000KT 10SM FEW007 OVC050 12/09 A3003 RMK CF1SC7 SLP184

CYQF;2007-06-16 17:28;CYQF 161728Z 00000KT 8SM -RA FEW007 BKN012 OVC050 RMK CF1SC6SC2

CYQF;2007-06-16 18:00;CYQF 161800Z 09007KT 5SM -RA BR FEW007 SCT012 OVC025 11/10 A3003 RMK CF1SC3SC4 SLP186

CYQF;2007-06-16 19:00;CYQF 161900Z 08003KT 8SM -RA FEW007 SCT015 OVC030 11/09 A3003 RMK CF2SC2SC4 SLP184

CYQF;2007-06-16 20:00;CYQF 162000Z 35005KT 15SM FEW007 SCT030 BKN080 13/10 A3000 RMK CF1SC2AC2 SLP175

CYQF;2007-06-16 21:00;CYQF 162100Z 08002KT 15SM BKN020 BKN080 14/10 A2998 RMK CU5AC2 SLP167

CYQF;2007-06-16 22:00;CYQF 162200Z 36003KT 15SM BKN020 BKN080 14/10 A2995 RMK CU5AC2 SLP159

CYQF;2007-06-16 23:00;CYQF 162300Z 34006KT 15SM BKN020 BKN080 14/10 A2993 RMK CU5AC2 TCU ASOCTD SLP151

CYQF;2007-06-17 00:00;CYQF 170000Z 36005KT 15SM BKN020TCU BKN250 15/10 A2991 RMK TCU6CI1 SLP142

CYQF;2007-06-17 01:00;CYQF 170100Z 07006KT 15SM BKN020TCU BKN250 16/09 A2990 RMK TCU5CI2 SLP137

CYQF;2007-06-17 01:52;CYQF 170152Z 02008KT 15SM -SHRA BKN020TCU BKN250 RMK TCU5CI2

CYQF;2007-06-17 02:00;CYQF 170200Z CCA 10006KT 15SM -SHRA BKN020TCU BKN250 15/11 A2988 RMK TCU5CI2 LTGCG/HVY SH S SLP133

CYQF;2007-06-17 02:16;CYQF 170216Z CCA 13010KT 15SM -TSRA BKN020CB BKN250 RMK CB5CI2 LTGCG/HVY SH SW

CYQF;2007-06-17 02:48;CYQF 170248Z 11006KT 15SM BKN020CB BKN250 RMK CB5CI2 HVY SH SW+E RETS

CYQF;2007-06-17 03:00;CYQF 170300Z CCA 09010KT 15SM BKN020CB BKN250 13/09 A2990 RMK CB5CI2 HVY SH SW+E RETS SLP138

CYQF;2007-06-17 04:00;CYQF 170400Z 09006KT 15SM BKN020TCU BKN250 12/09 A2989 RMK TCU6CI1 CB ASOCTD HVY SH NW+NE SLP135

CYQF;2007-06-17 04:13;CYQF 170413Z 04002KT 15SM -SHRA BKN020TCU OVC060 RMK TCU6SC2 CB ASOCTD

CYQF;2007-06-17 05:00;CYQF 170500Z 36006KT 15SM -SHRA BKN030TCU OVC060 11/09 A2989 RMK TCU6SC2 CB ASOCTD SLP136

CYQF;2007-06-17 06:00;CYQF 170600Z 36003KT 10SM -SHRA FEW030 OVC060 11/10 A2989 RMK SC2SC6 SLP137

CYQF;2007-06-17 07:00;CYQF 170700Z 36006KT 10SM -SHRA OVC050 11/09 A2985 RMK SC8 SLP126

CYQF;2007-06-17 08:00;CYQF 170800Z 03005KT 10SM -SHRA FEW007 OVC050 11/09 A2984 RMK SF2SC6 SLP122

CYQF;2007-06-17 09:00;CYQF 170900Z CCA 02010G15KT 5SM -RA BR SCT004 OVC050 10/09 A2982 RMK SF2SC6 SLP109

CYQF;2007-06-17 09:27;CYQF 170927Z 02010KT 5SM -RA BR BKN004 OVC050 RMK ST6SC2

CYQF;2007-06-17 10:00;CYQF 171000Z 01006KT 5SM -RA BR OVC006 10/09 A2981 RMK ST8 SLP106

CYQF;2007-06-17 11:00;CYQF 171100Z CCA 01008KT 3SM RA BR BKN006 OVC050 10/09 A2980 RMK ST6SC2 SLP104

CYQF;2007-06-17 12:00;CYQF 171200Z 36010KT 5SM -RA BR SCT006 OVC015 10/09 A2978 RERA RMK SF2SC6 SLP096

CYQF;2007-06-17 13:00;CYQF 171300Z 36015G20KT 6SM -RA BR BKN006 OVC015 10/09 A2978 RMK SF6SC2 SLP095

CYQF;2007-06-17 14:00;CYQF 171400Z 36012G18KT 3SM -RA BR BKN006 OVC015 10/09 A2978 RMK SF6SC2 SLP097

CYQF;2007-06-17 15:00;CYQF 171500Z 01011G18KT 3SM -RA BR BKN005 OVC015 10/08 A2979 RMK SF6SC2 RERA SLP102

CYQF;2007-06-17 15:36;CYQF 171536Z 36010G17KT 12SM BKN005 OVC015 RMK SF6SC2

CYQF;2007-06-17 16:00;CYQF 171600Z 36014KT 10SM -RA BKN005 OVC015 10/08 A2979 RMK SF6SC2 SLP100

CYQF;2007-06-17 17:00;CYQF 171700Z 01011G18KT 8SM -RA BKN005 OVC015 10/08 A2979 RMK SF7SC1 VIS S 3 BR SLP102

CYQF;2007-06-17 17:25;CYQF 171725Z 36012G20KT 2SM -RA BR BKN005 OVC015 RMK SF7SC1

CYQF;2007-06-17 18:00;CYQF 171800Z 01012G20KT 3SM -RA BR BKN005 OVC015 10/09 A2980 RMK SF7SC1 CIG RAG SLP106

CYQF;2007-06-17 19:00;CYQF 171900Z 01010G15KT 3SM -RA BR SCT005 OVC020 10/08 A2981 RMK SF3SC5 SLP111

CYQF;2007-06-17 20:00;CYQF 172000Z 35010G15KT 5SM -RA BR SCT006 OVC015 10/08 A2982 RMK SF3SC5 SLP114

CYQF;2007-06-17 21:00;CYQF 172100Z 36010KT 8SM -RA FEW006 OVC020 11/09 A2983 RMK SF2SC6 SLP117

CYQF;2007-06-17 21:26;CYQF 172126Z 33006KT 15SM FEW006 BKN020 OVC090 RMK SF2SC3AC2

CYQF;2007-06-17 22:00;CYQF 172200Z 31010KT 15SM FEW006 BKN020 OVC090 12/08 A2984 RMK SF2SC3AC2 SLP119

CYQF;2007-06-17 23:00;CYQF 172300Z 31014KT 15SM VCSH FEW010 BKN020 BKN090 12/09 A2983 RMK SF1CU4AC2 SLP118

CYQF;2007-06-18 00:00;CYQF 180000Z 31015G20KT 15SM FEW010 SCT020CB BKN090 14/10 A2984 RMK SF2CB2AC2 SLP118

CYQF;2007-06-18 00:28;CYQF 180028Z 34016G24KT 15SM -SHRA FEW010 BKN020CB OVC080 RMK SF2CB5AC2

CYQF;2007-06-18 00:55;CYQF 180055Z 36012KT 15SM FEW010 BKN020TCU BKN080 OVC250 RMK SF1TCU4AC2CI1 CB ASOCTD

CYQF;2007-06-18 01:00;CYQF 180100Z 33010KT 15SM FEW010 BKN020TCU BKN080 OVC250 11/09 A2984 RMK SF1TCU4AC2CI1 CB ASOCTD HVY SH SW SLP119

CYQF;2007-06-18 02:00;CYQF 180200Z 30013KT 15SM SCT020 BKN080 BKN250 12/08 A2984 RMK SC3AC2CI1 TCU ASOCTD SLP117

CYQF;2007-06-18 03:00;CYQF 180300Z 31010KT 15SM FEW080 BKN250 12/09 A2984 RMK AC2CI1 SLP119

CYQF;2007-06-18 04:00;CYQF 180400Z 29014KT 15SM FEW080 SCT250 11/07 A2984 RMK AC1CI1 SLP118

CYQF;2007-06-18 05:00;CYQF 180500Z 29008KT 15SM FEW060 FEW250 10/07 A2984 RMK SC1CI0 SLP118

CYQF;2007-06-18 06:00;CYQF 180600Z 30008KT 15SM FEW250 09/07 A2983 RMK CI2 SLP120

CYQF;2007-06-18 07:00;CYQF 180700Z 27005KT 15SM FEW100 FEW250 08/06 A2984 RMK AC1CI1 SLP121

CYQF;2007-06-18 08:00;CYQF 180800Z 29004KT 15SM FEW100 SCT250 07/05 A2984 RMK AC1CI2 SLP121

CYQF;2007-06-18 09:00;CYQF 180900Z 26007KT 15SM FEW100 06/05 A2982 RMK AC2 SLP119

CYQF;2007-06-18 10:00;CYQF 181000Z 26006KT 15SM FEW100 06/05 A2982 RMK AC2 SLP119

CYQF;2007-06-18 11:00;CYQF 181100Z 00000KT 15SM FEW100 06/04 A2982 RMK AC2 SLP118

CYQF;2007-06-18 12:00;CYQF 181200Z 21002KT 15SM FEW100 05/04 A2982 RMK AC2 SLP116

CYQF;2007-06-18 13:00;CYQF 181300Z 20002KT 15SM FEW100 07/05 A2982 RMK AC2 SLP115

CYQF;2007-06-18 14:00;CYQF 181400Z 22003KT 15SM FEW100 08/06 A2982 RMK AC2 SLP116

CYQF;2007-06-18 15:00;CYQF 181500Z 00000KT 15SM FEW100 11/08 A2981 RMK AC1 SLP108

CYQF;2007-06-18 16:00;CYQF 181600Z 24003KT 15SM FEW100 13/09 A2980 RMK AC1 SLP105

CYQF;2007-06-18 17:00;CYQF 181700Z 27003KT 15SM FEW030TCU 15/09 A2980 RMK TCU1 SLP103

CYQF;2007-06-18 18:00;CYQF 181800Z 24005KT 15SM FEW040TCU 17/07 A2979 RMK TCU1 SLP098

CYQF;2007-06-18 19:00;CYQF 181900Z 22006KT 15SM FEW045TCU 17/06 A2978 RMK TCU2 SLP096

CYQF;2007-06-18 20:00;CYQF 182000Z 32003KT 15SM FEW050CB 18/07 A2977 RMK CB2 SLP093

CYQF;2007-06-18 21:00;CYQF 182100Z 00000KT 15SM FEW060CB 18/04 A2976 RMK CB2 SLP089

CYQF;2007-06-18 22:00;CYQF 182200Z 00000KT 15SM SCT060 BKN250 20/05 A2977 RMK CU3CI1 CB TOP E SLP091

CYQF;2007-06-18 23:00;CYQF 182300Z 26005KT 15SM FEW060 BKN250 20/06 A2976 RMK CU2CI2 SLP088

CYQF;2007-06-19 00:00;CYQF 190000Z CCA 24010G16KT 15SM SCT060TCU BKN250 18/08 A2978 RMK TCU3CI2 DIST SH W-N SLP097

CYQF;2007-06-19 01:00;CYQF 190100Z 31008KT 15SM SCT060TCU BKN250 16/08 A2978 RMK TCU3CI2 SLP097

CYQF;2007-06-19 02:00;CYQF 190200Z 00000KT 15SM FEW050TCU SCT080 BKN250 16/09 A2978 RMK TCU2AC1CI2 SHWRS N CB TOP SE SLP097

CYQF;2007-06-19 03:00;CYQF 190300Z 28005KT 15SM FEW050 FEW080 SCT250 15/09 A2979 RMK CU1AC1CI1 CB TOP E SLP098

CYQF;2007-06-19 04:00;CYQF 190400Z 25005KT 15SM FEW050 FEW080 12/07 A2981 RMK SC1AC2 TCU W SLP104

CYQF;2007-06-19 05:00;CYQF 190500Z 24004KT 15SM FEW050 FEW080 11/08 A2982 RMK SC2AC1 CB OCNL LTNG W SLP106

CYQF;2007-06-19 06:00;CYQF 190600Z 28005KT 15SM SCT050 BKN080 11/08 A2983 RMK SC3AC2 CB ASOCTD LTNG DIST NW SLP111

CYQF;2007-06-19 07:00;CYQF 190700Z 32015KT 15SM VCSH FEW050 BKN080 13/07 A2985 RMK SC2AC2 CB ASOCTD LTNG DIST NW SLP115

CYQF;2007-06-19 08:00;CYQF 190800Z 01006KT 15SM FEW050 BKN080 11/07 A2986 RMK SC2AC2 CB ASOCTD LTNG DIST N SLP120

CYQF;2007-06-19 09:00;CYQF 190900Z 00000KT 15SM FEW040 BKN080 08/06 A2989 RMK SC1AC2 SLP133

CYQF;2007-06-19 10:00;CYQF 191000Z 00000KT 15SM FEW040 BKN080 09/06 A2990 RMK SC2AC2 SLP135

CYQF;2007-06-19 11:00;CYQF 191100Z 18002KT 15SM FEW050 SCT120 08/06 A2989 RMK SC1AC1 SLP131

CYQF;2007-06-19 12:00;CYQF 191200Z 20003KT 15SM FEW050 FEW120 SCT250 07/06 A2990 RMK SC1AC1CI0 SLP136

CYQF;2007-06-19 13:00;CYQF 191300Z 22004KT 15SM FEW120 FEW250 09/07 A2990 RMK AC1CI1 SLP137

CYQF;2007-06-19 14:00;CYQF 191400Z 24007KT 15SM FEW120 FEW250 11/08 A2992 RMK AC1CI1 SLP141

CYQF;2007-06-19 15:00;CYQF 191500Z 28003KT 15SM FEW120 SCT250 13/07 A2992 RMK AC1CI1 SLP140

CYQF;2007-06-19 16:00;CYQF 191600Z 08002KT 15SM FEW030 SCT120 BKN250 15/08 A2992 RMK CF1AC3CI2 TR CF SLP140

CYQF;2007-06-19 17:00;CYQF 191700Z 21002KT 15SM FEW030 FEW120 BKN250 16/08 A2991 RMK CF1AC1CI2 SLP137

CYQF;2007-06-19 18:00;CYQF 191800Z 22003KT 15SM FEW040 FEW120 BKN250 17/08 A2991 RMK CU1AC2CI2 SLP138

CYQF;2007-06-19 19:00;CYQF 191900Z 25007KT 15SM FEW045 FEW120 BKN250 18/05 A2991 RMK CU1AC2CI2 SLP136

CYQF;2007-06-19 20:00;CYQF 192000Z 29003KT 15SM FEW055 SCT120 BKN250 19/04 A2990 RMK CU1AC2CI2 SLP135

CYQF;2007-06-19 21:00;CYQF 192100Z 20005KT 15SM FEW060 SCT120 BKN250 20/05 A2990 RMK CU1AC2CI2 SLP133

CYQF;2007-06-19 22:00;CYQF 192200Z 13005KT 15SM FEW060 SCT120 BKN250 20/04 A2988 RMK CU1AC2CI2 SLP129

CYQF;2007-06-19 23:00;CYQF 192300Z 18007KT 15SM FEW060 SCT250 21/05 A2988 RMK CU2CI1 SLP129

CYQF;2007-06-20 00:00;CYQF 200000Z 16005KT 15SM FEW060 FEW120 BKN250 21/06 A2987 RMK CU1AC1CI1 SLP123

CYQF;2007-06-20 02:00;CYQF 200200Z 15006KT 15SM FEW060 FEW090 BKN250 20/08 A2986 RMK CU1AC2CI1 SLP121

CYQF;2007-06-20 03:00;CYQF 200300Z 17005KT 15SM FEW060 FEW090 BKN250 20/09 A2986 RMK CU1AC2CI1 SLP116

CYQF;2007-06-20 04:00;CYQF 200400Z 22003KT 15SM FEW060 FEW100 SCT250 17/09 A2987 RMK SC2AC1CI1 AC TR SLP119

CYQF;2007-06-20 05:00;CYQF 200500Z 35006KT 15SM BKN050 BKN250 16/09 A2989 RMK SC5CI1 SLP123

CYQF;2007-06-20 06:00;CYQF 200600Z 02015KT 15SM SCT050 BKN250 14/08 A2993 RMK SC3CI0 SLP140

CYQF;2007-06-20 07:00;CYQF 200700Z 04010KT 15SM FEW050 BKN250 13/08 A2995 RMK SC2CI1 SLP147

CYQF;2007-06-20 08:00;CYQF 200800Z 03008KT 15SM FEW050 12/08 A2997 RMK SC2 SLP154

CYQF;2007-06-20 09:00;CYQF 200900Z 02007KT 15SM FEW070 11/08 A2999 RMK AC2 SLP164

CYQF;2007-06-20 10:00;CYQF 201000Z 00000KT 15SM FEW070 BKN250 10/08 A3001 RMK AC2CI2 SLP168

CYQF;2007-06-20 11:00;CYQF 201100Z 28003KT 15SM FEW070 BKN250 07/06 A3002 RMK AC1CI2 SLP172

CYQF;2007-06-20 12:00;CYQF 201200Z 26003KT 15SM FEW090 BKN250 08/07 A3002 RMK AC1CI1 SLP175

CYQF;2007-06-20 13:00;CYQF 201300Z 00000KT 15SM FEW090 BKN250 09/08 A3004 RMK AC1CI2 SLP179

CYQF;2007-06-20 14:00;CYQF 201400Z 24003KT 15SM BKN250 12/08 A3005 RMK CI2 SLP183

CYQF;2007-06-20 15:00;CYQF 201500Z 00000KT 15SM BKN250 14/09 A3005 RMK CI2 SLP179

CYQF;2007-06-20 16:00;CYQF 201600Z 12003KT 15SM FEW025 BKN250 15/10 A3005 RMK CF1CI2 SLP179

CYQF;2007-06-20 17:00;CYQF 201700Z 00000KT 15SM FEW030 SCT100 BKN250 16/10 A3004 RMK CU1AC2CI1 SLP176

CYQF;2007-06-20 18:00;CYQF 201800Z 12003KT 15SM FEW030 FEW100 BKN250 18/10 A3003 RMK CF1AC1CI3 SLP175

CYQF;2007-06-20 19:00;CYQF 201900Z 12006KT 15SM FEW035 FEW100 BKN250 19/10 A3003 RMK CF1AC1CI2 SLP173

CYQF;2007-06-20 20:00;CYQF 202000Z 11008KT 15SM FEW040 BKN250 20/11 A3002 RMK CU1CI2 SLP171

CYQF;2007-06-20 21:00;CYQF 202100Z 12010KT 15SM FEW045 SCT110 BKN250 21/11 A3000 RMK CU1AC2CI2 SLP165

CYQF;2007-06-20 22:00;CYQF 202200Z 14010G15KT 15SM FEW050 SCT120 BKN250 22/10 A2999 RMK CU1AC2CI1 SLP161

CYQF;2007-06-20 23:00;CYQF 202300Z 14010KT 15SM FEW120 SCT250 23/10 A2997 RMK AC2CI1 SLP156

CYQF;2007-06-21 00:00;CYQF 210000Z 14010KT 15SM FEW100 FEW250 23/10 A2996 RMK AC1CI1 AC TR SLP153

CYQF;2007-06-21 01:00;CYQF 210100Z 15010G15KT 15SM FEW100 FEW250 23/10 A2995 RMK AC1CI1 AC TR SLP150

CYQF;2007-06-21 02:00;CYQF 210200Z 12012KT 15SM FEW100 FEW210 22/11 A2995 RMK AC1CI0 SLP148

CYQF;2007-06-21 03:00;CYQF 210300Z 11008KT 15SM FEW100 FEW210 21/11 A2995 RMK AC1CI1 SLP143

CYQF;2007-06-21 04:00;CYQF 210400Z 12005KT 15SM FEW100 SCT210 19/11 A2995 RMK AC1CI2 SLP145

CYQF;2007-06-21 05:00;CYQF 210500Z 13004KT 15SM FEW100 SCT210 17/11 A2996 RMK AC1CI2 SLP146

CYQF;2007-06-21 06:00;CYQF 210600Z 11003KT 15SM FEW100 SCT210 16/11 A2995 RMK AC2CI1 SLP146

CYQF;2007-06-21 07:00;CYQF 210700Z 14007KT 15SM FEW100 BKN250 16/11 A2994 RMK AC1CI2 SLP142

CYQF;2007-06-21 08:00;CYQF 210800Z 15005KT 15SM FEW100 BKN250 15/11 A2994 RMK AC2CI2 SLP140

CYQF;2007-06-21 09:00;CYQF 210900Z 17005KT 15SM FEW100 SCT250 14/11 A2992 RMK AC1CI0 SLP134

CYQF;2007-06-21 10:00;CYQF 211000Z 15003KT 15SM SCT070 14/11 A2991 RMK AC2 SLP130

CYQF;2007-06-21 11:00;CYQF 211100Z 16003KT 15SM SCT070 14/11 A2988 RMK AC4 SLP121

CYQF;2007-06-21 12:00;CYQF 211200Z 17003KT 15SM FEW050 SCT090 BKN250 14/11 A2988 RMK CU2AC2CI0 SLP117

CYQF;2007-06-21 13:00;CYQF 211300Z 18005KT 15SM SCT070 BKN250 14/11 A2987 RMK AC2CI1 CU ASOCTD SLP114

CYQF;2007-06-21 14:00;CYQF 211400Z 19006KT 15SM FEW070 15/11 A2986 RMK AC2 CU ASOCTD SLP110

CYQF;2007-06-21 15:00;CYQF 211500Z 19005KT 15SM FEW070 17/12 A2985 RMK ACC1 SLP106

CYQF;2007-06-21 16:00;CYQF 211600Z 00000KT 15SM FEW070 FEW250 20/12 A2984 RMK ACC1CI0 SLP103

CYQF;2007-06-21 17:00;CYQF 211700Z 20005KT 15SM FEW040 BKN280 23/13 A2983 RMK CU2CI2 SLP100

CYQF;2007-06-21 18:00;CYQF 211800Z 20007KT 15SM FEW050 BKN280 25/12 A2983 RMK CU2CI2 SLP094

CYQF;2007-06-21 19:00;CYQF 211900Z 24009G15KT 15SM SCT060TCU BKN280 26/06 A2982 RMK TCU3CI1 SLP091

CYQF;2007-06-21 20:00;CYQF 212000Z 19008KT 15SM SCT060TCU BKN250 27/07 A2980 RMK TCU3CI2 CB DIST N SLP087

CYQF;2007-06-21 21:00;CYQF 212100Z 25009G15KT 15SM SCT060TCU BKN250 27/08 A2980 RMK TCU4CI1 CB N SLP085

CYQF;2007-06-21 22:00;CYQF 212200Z 29009G15KT 15SM SCT070TCU BKN100 BKN250 27/08 A2981 RMK TCU4AC2CI1 CB NE SLP087

CYQF;2007-06-21 23:00;CYQF 212300Z 36006KT 15SM BKN070TCU BKN250 26/10 A2982 RMK TCU5CI0 CB NE SLP090

CYQF;2007-06-22 00:00;CYQF 220000Z CCA 36020G25KT 15SM BKN070 23/14 A2984 RMK CU5 TCU ASOCTD VSBY NW-NE 6 DU SLP102

CYQF;2007-06-22 01:00;CYQF 220100Z 03010KT 15SM FEW070 SCT210 22/12 A2986 RMK CU2CI0 SLP109

CYQF;2007-06-22 02:00;CYQF 220200Z 02014KT 15SM FEW060 SCT210 21/11 A2987 RMK CU2CI0 SLP114

CYQF;2007-06-22 03:00;CYQF 220300Z 02008KT 15SM FEW060 FEW210 20/12 A2990 RMK CU2CI0 SLP122

CYQF;2007-06-22 04:00;CYQF 220400Z 01007KT 15SM FEW060 FEW210 18/11 A2991 RMK CU1CI1 SLP126

CYQF;2007-06-22 05:00;CYQF 220500Z 36005KT 15SM FEW060 FEW210 15/10 A2992 RMK CU1CI1 SLP130

CYQF;2007-06-22 06:00;CYQF 220600Z 36004KT 15SM FEW060 FEW210 15/10 A2993 RMK SC1CI1 SLP130

CYQF;2007-06-22 07:00;CYQF 220700Z 35002KT 15SM FEW060 14/10 A2994 RMK SC1 SLP135

CYQF;2007-06-22 08:00;CYQF 220800Z 34002KT 15SM FEW060 13/11 A2995 RMK SC1 SLP137

CYQF;2007-06-22 09:00;CYQF 220900Z 01003KT 15SM FEW060 13/10 A2995 RMK SC1 SLP140

CYQF;2007-06-22 10:00;CYQF 221000Z 00000KT 15SM FEW060 11/10 A2995 RMK SC1 SLP139

CYQF;2007-06-22 11:00;CYQF 221100Z 00000KT 15SM FEW060 11/10 A2995 RMK SC2 SLP139

CYQF;2007-06-22 12:00;CYQF 221200Z 20003KT 15SM FEW070 SCT210 11/10 A2994 RMK AC2CI0 ACC ASOCTD SLP140

CYQF;2007-06-22 13:00;CYQF 221300Z 01002KT 15SM FEW070 FEW210 12/11 A2994 RMK AC1CI0 ACC ASOCTD SLP141

CYQF;2007-06-22 14:00;CYQF 221400Z 02007KT 12SM FEW070 FEW210 15/12 A2994 RMK AC1CI1 TR LYRS SLP139

CYQF;2007-06-22 15:00;CYQF 221500Z 03008KT 15SM SKC 17/12 A2993 RMK SLP134

CYQF;2007-06-22 16:00;CYQF 221600Z 07010KT 15SM FEW020 18/13 A2990 RMK CF1 SLP125

CYQF;2007-06-22 17:00;CYQF 221700Z 15010G15KT 15SM SCT035 20/12 A2988 RMK CF2 CU ASOCTD SLP118

CYQF;2007-06-22 18:00;CYQF 221800Z 12008KT 15SM FEW035 21/11 A2986 RMK CU2 SLP113

CYQF;2007-06-22 19:00;CYQF 221900Z 13010KT 15SM FEW035CB 23/12 A2983 RMK CB1 LINE CBS DIST WSW-WNW. ACTV DVLPMNT SW END OF LINE SLP103

CYQF;2007-06-22 20:00;CYQF 222000Z 10008KT 15SM FEW035CB SCT100 23/13 A2981 RMK CB2AC1 CBS SW-N LTGCG NW SLP097

CYQF;2007-06-22 21:00;CYQF 222100Z 15008KT 15SM FEW050CB SCT100 25/11 A2979 RMK CB2AC2 OCNL LTNG W SLP086

CYQF;2007-06-22 21:25;CYQF 222125Z 15010KT 15SM TS VCSH SCT050CB BKN100 RMK CB3AC2 LTGCG N

CYQF;2007-06-22 22:00;CYQF 222200Z 36015G20KT 15SM FEW050CB FEW100 23/12 A2978 RMK CB2AC1 RETS SLP084

CYQF;2007-06-22 23:00;CYQF 222300Z 04013G20KT 15SM FEW050TCU FEW100 23/12 A2977 RMK TCU2AC1 CB TPS N AND NE SLP081

CYQF;2007-06-23 00:00;CYQF 230000Z 04010KT 15SM FEW050TCU FEW100 23/12 A2977 RMK TCU2AC1 CB TP NE SLP081

CYQF;2007-06-23 01:00;CYQF 230100Z 02010G16KT 15SM FEW100 18/11 A2978 RMK AC2 SLP084

CYQF;2007-06-23 02:00;CYQF 230200Z 03010G15KT 15SM FEW100 18/11 A2978 RMK AC2 SLP084

CYQF;2007-06-23 03:00;CYQF 230300Z 03010G15KT 15SM FEW100 17/11 A2977 RMK AC2 SLP083

CYQF;2007-06-23 04:00;CYQF 230400Z 03010KT 15SM FEW100 15/11 A2977 RMK AC2 SLP083

CYQF;2007-06-23 05:00;CYQF 230500Z 02010KT 15SM FEW050 FEW100 15/11 A2978 RMK SC1AC2 SLP086

CYQF;2007-06-23 06:00;CYQF 230600Z 03010KT 15SM FEW100 14/11 A2978 RMK AC2 SLP085

CYQF;2007-06-23 07:00;CYQF 230700Z 01005KT 15SM FEW020 FEW100 13/11 A2976 RMK SC1AC2 OCNL LTNG NW SLP079

CYQF;2007-06-23 08:00;CYQF 230800Z 33007KT 15SM SCT015 12/10 A2975 RMK SC4 SLP075

CYQF;2007-06-23 09:00;CYQF 230900Z 33005KT 15SM BKN008 OVC015 13/11 A2974 RMK SF6SC2 SLP067

CYQF;2007-06-23 10:00;CYQF 231000Z 36005KT 15SM SCT007 OVC012 13/11 A2975 RMK SF4SC4 SLP071

CYQF;2007-06-23 10:49;CYQF 231049Z 02003KT 15SM SCT007 OVC015 RMK SF3SC5

CYQF;2007-06-23 11:00;CYQF 231100Z 01003KT 15SM FEW007 OVC015 13/11 A2975 RMK SF2SC6 SLP071

CYQF;2007-06-23 11:11;CYQF 231111Z 29010G15KT 6SM SHRA SCT007 BKN015 OVC030 RMK SF3SC3SC2 TCU EMBD

CYQF;2007-06-23 11:36;CYQF 231136Z 33008KT 12SM FEW007 BKN015 RMK SF2SC4 TCU EMBD SHWRS E

CYQF;2007-06-23 12:00;CYQF 231200Z 32005KT 15SM FEW007 SCT015TCU 12/11 A2978 RMK SF2TCU2 RERA SLP086

CYQF;2007-06-23 12:32;CYQF 231232Z 35010G15KT 15SM VCSH BKN006 BKN015TCU BKN070 RMK SF5TCU2AC1 CB ASOCTD

CYQF;2007-06-23 12:50;CYQF 231250Z 34010G15KT 15SM -SHRA BKN007 BKN015TCU RMK SF5TCU2 CB HVYR SHWRS S

CYQF;2007-06-23 13:00;CYQF 231300Z 34008KT 15SM BKN007 BKN015TCU 12/10 A2981 RMK SF5TCU2 CB HVYR SHWRS SE SLP093

CYQF;2007-06-23 13:17;CYQF 231317Z 34008KT 15SM VCSH SCT007 BKN015TCU RMK SF4TCU2 CB HVYR SHWRS SE

CYQF;2007-06-23 13:48;CYQF 231348Z 36007KT 15SM SCT007 BKN014 RMK SF3SC4

CYQF;2007-06-23 14:00;CYQF 231400Z 01008KT 15SM SCT007 BKN014 12/10 A2981 RMK SF3SC4 SLP093

CYQF;2007-06-23 14:07;CYQF 231407Z 36010KT 15SM FEW007 FEW014 RMK SF1SC1 TR LYRS

CYQF;2007-06-23 15:00;CYQF 231500Z 33010KT 15SM FEW015 13/09 A2981 RMK SC2 SLP102

CYQF;2007-06-23 16:00;CYQF 231600Z 33010KT 15SM FEW025 15/09 A2983 RMK CU2 SLP106

CYQF;2007-06-23 17:00;CYQF 231700Z 34010KT 15SM FEW035 15/08 A2984 RMK CU2 SLP109

CYQF;2007-06-23 18:00;CYQF 231800Z 32010KT 15SM FEW035 17/07 A2985 RMK CU2 SLP112

CYQF;2007-06-23 19:00;CYQF 231900Z 36010G16KT 15SM FEW035 FEW090 17/07 A2984 RMK CU2AC1 SLP111

CYQF;2007-06-23 20:00;CYQF 232000Z 32010KT 15SM FEW035 FEW090 17/06 A2983 RMK CU1AC1 TCU DIST S-NW SLP108

CYQF;2007-06-23 21:00;CYQF 232100Z 03007KT 15SM FEW045 FEW090 17/05 A2984 RMK CU2AC1 TCU DIST S-W SLP110

CYQF;2007-06-23 22:00;CYQF 232200Z 08003KT 15SM SCT045 BKN090 BKN250 18/05 A2985 RMK CU4AC1CI1 SLP113

CYQF;2007-06-23 23:00;CYQF 232300Z 02007KT 15SM SCT045 BKN090 BKN250 18/05 A2984 RMK CU4AC1CI1 FEW TCU SLP112

CYQF;2007-06-24 00:00;CYQF 240000Z 05002KT 15SM SCT045 BKN090 BKN250 18/05 A2984 RMK CU4AC2CI1 FEW TCU SHS DIST SW+W SLP109

CYQF;2007-06-24 01:00;CYQF 240100Z 06007KT 15SM BKN045TCU BKN090 BKN250 17/07 A2984 RMK TCU5AC2CI1 SHS DIST SW W+N SLP110

CYQF;2007-06-24 01:28;CYQF 240128Z 06010KT 15SM -SHRA BKN045TCU BKN090 OVC250 RMK TCU5AC2CI1 HVR SHS DIST SE+W

CYQF;2007-06-24 02:00;CYQF 240200Z 02005KT 15SM -SHRA BKN045TCU BKN090 OVC250 15/09 A2986 RMK TCU6AC2CI0 HVR SHS DIST W-NW SLP118

CYQF;2007-06-24 02:09;CYQF 240209Z 24010KT 10SM -TSRA BKN045CB BKN090 OVC250 RMK CB6AC2CI0

CYQF;2007-06-24 03:00;CYQF 240300Z CCA 02010KT 15SM -SHRA BKN045TCU BKN090 BKN250 11/08 A2988 RMK TCU5AC2CI0 RETS CB EMBDD DIST NE LTGCG HVR SHS N-NE+W SLP130

CYQF;2007-06-24 03:33;CYQF 240333Z 03010KT 15SM SCT040TCU BKN090 BKN250 RMK TCU3AC2CI1 CB TPS DIST NE SHW DIST NE+W

CYQF;2007-06-24 04:00;CYQF 240400Z 04010KT 15SM SCT040TCU BKN090 BKN250 11/08 A2988 RMK TCU4AC2CI1 SHS DIST W+NE SLP131

CYQF;2007-06-24 05:00;CYQF 240500Z 36005KT 15SM BKN040TCU BKN090 BKN250 11/07 A2987 RMK TCU5AC2CI1 CB/LTNG DIST SW SLP129

CYQF;2007-06-24 06:00;CYQF 240600Z 32003KT 15SM BKN040 BKN090 OVC250 11/09 A2988 RMK CU5AC2CI1 SLP127

CYQF;2007-06-24 06:36;CYQF 240636Z 29010KT 6SM -SHRA BKN040TCU OVC090 RMK TCU6AC2

CYQF;2007-06-24 07:00;CYQF 240700Z CCA 29007KT 6SM SHRA BKN040TCU OVC090 11/09 A2991 RMK TCU5AC3 SLP138

CYQF;2007-06-24 08:00;CYQF 240800Z 36010KT 10SM -SHRA FEW006 SCT040 OVC080 10/08 A2991 RMK SF2SC2AC4 SLP137

CYQF;2007-06-24 09:00;CYQF 240900Z 02005KT 10SM -SHRA FEW006 OVC080 10/08 A2990 RMK SF2AC6 SLP136

CYQF;2007-06-24 10:00;CYQF 241000Z 07005KT 12SM -RA OVC070 09/08 A2990 RMK AC8 SLP136

CYQF;2007-06-24 10:25;CYQF 241025Z CCA 07005KT 12SM -TSRA SCT050CB BKN080 OVC120 RMK CB3AC3AC2

CYQF;2007-06-24 11:00;CYQF 241100Z 03008KT 12SM -SHRA FEW006 BKN050 OVC080 09/08 A2991 RMK SF2SC5AC2 TCU EMBD SLP137

CYQF;2007-06-24 11:39;CYQF 241139Z 02005KT 15SM VCSH FEW006 BKN040TCU OVC080 RMK SF2TCU4AC2

CYQF;2007-06-24 12:00;CYQF 241200Z 36007KT 15SM VCSH SCT020 BKN040TCU OVC080 09/07 A2991 RMK SC3TCU3AC2 CB ASOCTD SLP137

CYQF;2007-06-24 12:12;CYQF 241212Z 01007KT 12SM -TSRA FEW020 BKN040CB OVC080 RMK SC2CB4AC2

CYQF;2007-06-24 12:47;CYQF 241247Z 03010KT 15SM -SHRA FEW020 BKN050 OVC080 RMK SC2SC5AC2 TCU EMBD

CYQF;2007-06-24 13:00;CYQF 241300Z 03008KT 15SM -SHRA FEW015 BKN050TCU OVC080 09/07 A2991 RMK SC2TCU5AC2 CB ASOCTD SLP139

CYQF;2007-06-24 13:08;CYQF 241308Z CCA 36008KT 15SM -TSRA FEW015 BKN050CB OVC080 RMK SC2CB5AC2 LGTCCCG SW

CYQF;2007-06-24 13:44;CYQF 241344Z 33005KT 15SM -SHRA FEW006 BKN050CB OVC080 RMK SF1CB6AC1 RETS

CYQF;2007-06-24 14:00;CYQF 241400Z 35005KT 6SM -SHRA FEW006 BKN020 OVC050CB 08/07 A2993 RMK SF1SC6CB2 VSBY HIER SE-SW LOWER W-NW-N SLP143

CYQF;2007-06-24 14:27;CYQF 241427Z 03005KT 15SM FEW020 BKN050 BKN080 RMK SC2SC2AC2 CB ASOCTD

CYQF;2007-06-24 15:00;CYQF 241500Z 02010KT 15SM FEW008 BKN050 BKN100 10/07 A2992 RMK SC2SC3AC2 SLP149

CYQF;2007-06-24 16:00;CYQF 241600Z 36007KT 15SM FEW010 BKN050 11/07 A2992 RMK SC2SC3 SLP147

CYQF;2007-06-24 17:00;CYQF 241700Z 01008KT 15SM FEW020 BKN050 12/07 A2990 RMK CU2SC3 SLP142

CYQF;2007-06-24 18:00;CYQF 241800Z 33002KT 15SM BKN020 BKN050 13/07 A2990 RMK CU6SC2 SLP139

CYQF;2007-06-24 19:00;CYQF 241900Z 10008KT 15SM BKN015 BKN050 14/08 A2988 RMK CU5SC2 SLP132

CYQF;2007-06-24 20:00;CYQF 242000Z 17006KT 15SM SCT030 BKN050 16/08 A2986 RMK CU3SC2 SLP127

CYQF;2007-06-24 21:00;CYQF 242100Z 15010KT 15SM SCT035 BKN250 17/07 A2985 RMK CU3CI0 SLP118

CYQF;2007-06-24 22:00;CYQF 242200Z 13005KT 15SM SCT040 BKN250 18/06 A2984 RMK CU3CI2 CB TP DIST SW SLP114

CYQF;2007-06-24 23:00;CYQF 242300Z CCA 14002KT 15SM SCT040 BKN100 BKN250 17/07 A2985 RMK CU3AC2CI2 FEW TCU SHS DIST SW+NW SLP116

CYQF;2007-06-24 23:31;CYQF 242331Z 18002KT 15SM TS SCT040CB BKN100 BKN250 RMK CB4AC2CI2 LTGCG SW+W SHS SW-NW

CYQF;2007-06-25 00:00;CYQF 250000Z 24012G18KT 15SM TS BKN040CB BKN080 BKN250 16/07 A2987 RMK CB5AC2CI1 LTGCG SW SHS S-W+NW SLP127

CYQF;2007-06-25 00:05;CYQF 250005Z 25020G30KT 15SM -TSRA BKN040CB BKN080 BKN250 RMK CB5AC2CI1 LTGCG SW

CYQF;2007-06-25 00:48;CYQF 250048Z 35002KT 15SM -SHRA BKN040TCU BKN080 BKN250 RMK TCU5AC2CI1 VIS NE 5 CB EMBDD/HVY SHS NE

CYQF;2007-06-25 01:00;CYQF 250100Z 32003KT 15SM -SHRA SCT040TCU BKN080 BKN250 11/08 A2989 RMK TCU4AC2CI1 CB EMBDD/HVY SHS NE QUAD SLP133

CYQF;2007-06-25 01:29;CYQF 250129Z 06009KT 15SM SCT050TCU BKN080 BKN250 RMK TCU3AC2CI2 SHS DIST SW+NE

CYQF;2007-06-25 02:00;CYQF 250200Z 05003KT 15SM SCT050TCU BKN090 BKN250 12/08 A2985 RMK TCU3AC2CI2 SHS DIST SE-SW+NE SLP122

CYQF;2007-06-25 03:00;CYQF 250300Z 06002KT 15SM SCT050TCU BKN090 BKN250 13/09 A2985 RMK TCU3AC2CI2 CB TPS DIST NE SHS DIST SE SLP124

CYQF;2007-06-25 04:00;CYQF 250400Z 33002KT 15SM SCT050TCU BKN090 BKN250 12/09 A2987 RMK TCU3AC2CI2 CB EMBDD/SHS DIST E-SE SLP128

CYQF;2007-06-25 05:00;CYQF 250500Z 01005KT 15SM FEW050 BKN090 BKN250 12/09 A2988 RMK CU2AC3CI2 SHS DIST E QUAD SLP133

CYQF;2007-06-25 06:00;CYQF 250600Z 35003KT 15SM FEW050 BKN090 BKN250 11/08 A2989 RMK CU2AC4CI1 SLP133

CYQF;2007-06-25 07:00;CYQF 250700Z 00000KT 15SM OVC090 11/08 A2988 RMK AC8 LTNG DIST E SLP131

CYQF;2007-06-25 07:06;CYQF 250706Z 33004KT 15SM -SHRA BKN090 RMK AC6 LTNG DIST NE-ESE

CYQF;2007-06-25 07:10;CYQF 250710Z 32004KT 15SM BKN090 RMK AC6 LTNG DIST NE-ESE

CYQF;2007-06-25 08:00;CYQF 250800Z 04004KT 15SM BKN090 11/08 A2987 RMK AC7 LTNG DIST E-SE AND SW SLP128

CYQF;2007-06-25 09:00;CYQF 250900Z 00000KT 15SM BKN090 11/08 A2988 RMK AC6 SLP126

CYQF;2007-06-25 10:00;CYQF 251000Z 30004KT 15SM SCT090 09/08 A2987 RMK AC3 SLP123

CYQF;2007-06-25 11:00;CYQF 251100Z 00000KT 15SM FEW050 SCT090 09/07 A2987 RMK SC1AC3 SLP124

CYQF;2007-06-25 12:00;CYQF 251200Z 00000KT 15SM FEW050 SCT090 BKN250 08/07 A2986 RMK SC2AC2CI1 SLP125

CYQF;2007-06-25 13:00;CYQF 251300Z 00000KT 15SM FEW013 BKN050 BKN090 10/08 A2989 RMK SF1SC5AC1 CB ASOCTD W SLP134

CYQF;2007-06-25 14:00;CYQF 251400Z 35003KT 15SM FEW013 BKN050 BKN250 11/08 A2990 RMK SF1SC5CI1 CB W SLP135

CYQF;2007-06-25 15:00;CYQF 251500Z 35006KT 15SM FEW015 BKN050 BKN250 12/08 A2989 RMK CU2SC2CI1 TCU ASOCTD SLP134

CYQF;2007-06-25 16:00;CYQF 251600Z 01010KT 15SM SCT025 BKN080 BKN210 13/08 A2990 RMK CU3AC2CI0 TCU ASOCTD SLP137

CYQF;2007-06-25 17:00;CYQF 251700Z 35010KT 15SM SCT020 BKN080 BKN210 13/09 A2990 RMK CU3AC2CI1 TCU ASOCTD SLP136

CYQF;2007-06-25 18:00;CYQF 251800Z 32010KT 15SM SCT020 BKN080 BKN210 13/08 A2991 RMK CU3AC2CI1 TCU ASOCTD SLP140

CYQF;2007-06-25 19:00;CYQF 251900Z 34013KT 15SM BKN024 BKN080 BKN250 14/08 A2989 RMK CU6AC1CI1 FEW TCU SLP135

CYQF;2007-06-25 20:00;CYQF 252000Z 33012KT 15SM -SHRA BKN028TCU BKN080 15/08 A2989 RMK TCU6AC2 SLP135

CYQF;2007-06-25 20:41;CYQF 252041Z 35008KT 15SM -TSRA BKN028CB BKN080 RMK CB6AC2 HVYR SH NE

CYQF;2007-06-25 21:00;CYQF 252100Z 33011KT 15SM TS BKN025CB BKN080 14/09 A2989 RMK CB6AC2 LTGCG N+E/SHS N-E-SE SLP133

CYQF;2007-06-25 21:37;CYQF 252137Z 36007KT 15SM -TSRA BKN025CB BKN080 RMK CB6AC2

CYQF;2007-06-25 22:00;CYQF 252200Z 36007KT 15SM -SHRA BKN025TCU BKN080 12/08 A2990 RMK TCU6AC2 CB EMBDD/LTNG DIST SE SLP138

CYQF;2007-06-25 22:16;CYQF 252216Z 33013G20KT 15SM -TSRA BKN025CB BKN080 RMK CB6AC2 LTGCG S

CYQF;2007-06-25 22:43;CYQF 252243Z 33014G20KT 15SM BKN025TCU BKN080 RMK TCU6AC2 SHS DIST E+SE

CYQF;2007-06-25 22:44;CYQF 252244Z CCA 33014G20KT 15SM BKN025TCU BKN080 RMK TCU6AC2 SHS DIST E+SE RETS

CYQF;2007-06-25 23:00;CYQF 252300Z 33013G20KT 15SM SCT025 BKN050 BKN090 13/07 A2993 RMK CU4SC2AC2 TCU EMBDD/SHS DIST E-SE SLP145

CYQF;2007-06-26 00:00;CYQF 260000Z 32011KT 15SM SCT025 BKN050 BKN090 OVC250 13/07 A2995 RMK CU3SC2AC2CI1 SHS DIST SE SLP157

CYQF;2007-06-26 01:00;CYQF 260100Z 34012KT 15SM SCT025TCU BKN090 OVC250 12/07 A2996 RMK TCU4AC2CI2 SHS DIST NW+SE SLP163

CYQF;2007-06-26 01:29;CYQF 260129Z 33013KT 15SM -SHRA BKN025TCU BKN090 OVC250 RMK TCU5AC2CI1

CYQF;2007-06-26 01:52;CYQF 260152Z 33010KT 15SM VCSH SCT025TCU BKN090 OVC250 RMK TCU3AC2CI2

CYQF;2007-06-26 02:00;CYQF 260200Z 33008KT 15SM VCSH SCT025TCU BKN090 OVC250 13/09 A2999 RMK TCU3AC2CI2 SLP170

CYQF;2007-06-26 02:11;CYQF 260211Z 34015G25KT 15SM -SHRA BKN025TCU BKN090 OVC250 RMK TCU5AC2CI1

CYQF;2007-06-26 02:46;CYQF 260246Z 31012KT 15SM SCT025TCU BKN090 BKN250 RMK TCU4AC2CI1 VIRGA

CYQF;2007-06-26 03:00;CYQF 260300Z 32015KT 15SM SCT025TCU BKN090 BKN250 11/07 A3001 RMK TCU3AC2CI1 VIRGA SLP177

CYQF;2007-06-26 04:00;CYQF 260400Z 31013KT 15SM FEW025 BKN090 BKN250 11/06 A3002 RMK SC2AC2CI1 TCU ASOCTD SLP179

CYQF;2007-06-26 05:00;CYQF 260500Z 29012KT 15SM FEW025 FEW090 SCT250 10/05 A3004 RMK SC1AC1CI0 SLP185

CYQF;2007-06-26 06:00;CYQF 260600Z 30008KT 15SM FEW090 SCT250 09/05 A3006 RMK AC2CI0 SLP194

CYQF;2007-06-26 07:00;CYQF 260700Z 29010G15KT 15SM FEW090 09/05 A3007 RMK AC2 SLP199

CYQF;2007-06-26 08:00;CYQF 260800Z 29010G15KT 15SM SKC 09/04 A3008 RMK SLP201

CYQF;2007-06-26 09:00;CYQF 260900Z 30010G15KT 15SM FEW090 09/04 A3009 RMK AC1 SLP205

CYQF;2007-06-26 10:00;CYQF 261000Z 28010G15KT 15SM SCT090 09/04 A3010 RMK AC4 SLP209

CYQF;2007-06-26 11:00;CYQF 261100Z 27010G15KT 15SM FEW040 BKN080 09/04 A3013 RMK SC2AC2 OBS TAKEN +12 SLP216

CYQF;2007-06-26 12:00;CYQF 261200Z 29010G15KT 15SM FEW040 BKN070 10/04 A3015 RMK SC2AC3 SLP225

CYQF;2007-06-26 13:00;CYQF 261300Z 29012G18KT 15SM SCT070 11/04 A3017 RMK AC4 SLP231

CYQF;2007-06-26 14:00;CYQF 261400Z 29008KT 15SM FEW070 12/04 A3020 RMK AC1 SLP240

CYQF;2007-06-26 15:00;CYQF 261500Z 31013KT 15SM SKC 14/05 A3022 RMK SLP248

CYQF;2007-06-26 16:00;CYQF 261600Z 31014KT 15SM SKC 15/05 A3023 RMK SLP251

CYQF;2007-06-26 17:00;CYQF 261700Z 33013KT 15SM FEW035 16/05 A3024 RMK CU1 SLP253

CYQF;2007-06-26 18:00;CYQF 261800Z 31014KT 15SM FEW040 17/05 A3024 RMK CU1 SLP253

CYQF;2007-06-26 19:00;CYQF 261900Z 31012KT 15SM FEW045 18/05 A3025 RMK CU2 SLP255

CYQF;2007-06-26 20:00;CYQF 262000Z 30011KT 15SM FEW045 19/04 A3025 RMK CU2 SLP255

CYQF;2007-06-26 21:00;CYQF 262100Z 34004KT 15SM FEW050 18/04 A3024 RMK CU2 SLP252

CYQF;2007-06-26 22:00;CYQF 262200Z 00000KT 15SM FEW050 19/05 A3023 RMK CU2 SLP249

CYQF;2007-06-26 23:00;CYQF 262300Z 00000KT 15SM FEW050 19/05 A3023 RMK CU1 SLP248

CYQF;2007-06-27 00:00;CYQF 270000Z 00000KT 15SM FEW050 19/04 A3023 RMK CU1 SLP246

CYQF;2007-06-27 01:00;CYQF 270100Z 00000KT 15SM FEW050 20/05 A3022 RMK CU1 SLP242

CYQF;2007-06-27 02:00;CYQF 270200Z 00000KT 15SM FEW090 19/05 A3021 RMK AC1 SLP240

CYQF;2007-06-27 03:00;CYQF 270300Z 10005KT 15SM FEW250 18/07 A3022 RMK CI1 SLP241

CYQF;2007-06-27 04:00;CYQF 270400Z 12005KT 15SM FEW250 15/07 A3023 RMK CI0 SLP244

CYQF;2007-06-27 05:00;CYQF 270500Z 13005KT 15SM FEW250 14/07 A3024 RMK CI0 SLP248

CYQF;2007-06-27 06:00;CYQF 270600Z 07006KT 15SM FEW250 13/07 A3025 RMK CI0 SLP251

CYQF;2007-06-27 07:00;CYQF 270700Z 13010KT 15SM SKC 13/08 A3024 RMK SLP248

CYQF;2007-06-27 08:00;CYQF 270800Z 13010KT 15SM SKC 12/09 A3023 RMK SLP247

CYQF;2007-06-27 09:00;CYQF 270900Z 11010KT 15SM SKC 11/09 A3023 RMK SLP247

CYQF;2007-06-27 10:00;CYQF 271000Z 13004KT 15SM FEW250 11/08 A3023 RMK CI0 SLP245

CYQF;2007-06-27 11:00;CYQF 271100Z 15008KT 15SM FEW250 10/08 A3022 RMK CI0 SLP243

CYQF;2007-06-27 12:00;CYQF 271200Z 13006KT 15SM FEW120 SCT250 10/08 A3022 RMK AC1CI0 SLP243

CYQF;2007-06-27 13:00;CYQF 271300Z CCA 15010KT 15SM FEW120 SCT250 11/09 A3021 RMK AC2CI0 ACC ASOCTD SLP241

CYQF;2007-06-27 14:00;CYQF 271400Z 16013G19KT 15SM FEW120 SCT250 13/09 A3021 RMK AC2CI0 ACC ASOCTD SLP239

CYQF;2007-06-27 15:00;CYQF 271500Z 16014G20KT 15SM FEW090 BKN250 15/09 A3020 RMK AC2CI1 ACC ASOCTD SLP234

CYQF;2007-06-27 16:00;CYQF 271600Z 15015G22KT 15SM FEW090 BKN250 16/09 A3020 RMK AC2CI1 ACC ASOCTD SLP233

CYQF;2007-06-27 17:00;CYQF 271700Z 15018G27KT 15SM FEW040 FEW100 BKN250 17/10 A3020 RMK CU1AC1CI1 ACC ASOCTD SLP232

CYQF;2007-06-27 18:00;CYQF 271800Z 15016G26KT 15SM FEW040 FEW100 BKN250 19/10 A3018 RMK CU1AC1CI1 SLP228

CYQF;2007-06-27 19:00;CYQF 271900Z 15014G23KT 15SM FEW040 FEW100 BKN250 20/09 A3017 RMK CU1AC1CI1 SLP225

CYQF;2007-06-27 20:00;CYQF 272000Z 16014G22KT 15SM FEW040 FEW100 BKN250 21/11 A3016 RMK CU1AC1CI1 SLP221

CYQF;2007-06-27 21:00;CYQF 272100Z 15015G23KT 15SM FEW040 SCT250 21/09 A3015 RMK CU1CI1 SLP216

CYQF;2007-06-27 22:00;CYQF 272200Z 16020G27KT 15SM FEW040 SCT250 22/09 A3014 RMK CU1CI1 SLP211

CYQF;2007-06-27 23:00;CYQF 272300Z 16015G24KT 15SM FEW050 BKN250 22/09 A3012 RMK CU2CI2 SLP207

CYQF;2007-06-28 00:00;CYQF 280000Z 16017G25KT 15SM FEW050 BKN250 21/09 A3011 RMK SC1CI3 SLP204

CYQF;2007-06-28 01:00;CYQF 280100Z 15012G18KT 15SM FEW050 BKN250 21/09 A3011 RMK SC1CI4 SLP202

CYQF;2007-06-28 02:00;CYQF 280200Z 13013KT 15SM FEW050 FEW120 BKN250 20/10 A3010 RMK SC1AC2CI3 SLP200

CYQF;2007-06-28 03:00;CYQF 280300Z 13012KT 15SM FEW050 FEW120 BKN250 19/10 A3009 RMK SC1AC2CI3 SLP194

CYQF;2007-06-28 04:00;CYQF 280400Z 13012KT 15SM FEW050 FEW120 BKN250 17/09 A3009 RMK SC1AC2CI3 SLP195

CYQF;2007-06-28 05:00;CYQF 280500Z 14008KT 15SM FEW050 SCT120 BKN250 17/10 A3010 RMK SC1AC3CI2 SLP196

CYQF;2007-06-28 06:00;CYQF 280600Z 13005KT 15SM FEW120 BKN250 16/10 A3009 RMK AC2CI2 SLP191

CYQF;2007-06-28 07:00;CYQF 280700Z 13005KT 15SM OVC120 15/06 A3008 RMK AC8 SLP189

CYQF;2007-06-28 08:00;CYQF 280800Z 15004KT 15SM OVC120 14/10 A3007 RMK AC8 SLP186

CYQF;2007-06-28 09:00;CYQF 280900Z 14003KT 15SM OVC120 14/10 A3005 RMK AC8 SLP180

CYQF;2007-06-28 10:00;CYQF 281000Z 12008KT 15SM BKN120 14/10 A3004 RMK AC7 SLP176

CYQF;2007-06-28 11:00;CYQF 281100Z 14010KT 15SM BKN120 14/10 A3002 RMK AC7 SLP169

CYQF;2007-06-28 12:00;CYQF 281200Z 13010KT 15SM BKN100 14/10 A3002 RMK AC7 SLP167

CYQF;2007-06-28 13:00;CYQF 281300Z 13006KT 15SM BKN100 OVC250 14/10 A3002 RMK AC6CI2 SLP168

CYQF;2007-06-28 14:00;CYQF 281400Z 11007KT 15SM BKN100 BKN250 15/10 A3002 RMK AC5CI2 SLP168

CYQF;2007-06-28 15:00;CYQF 281500Z 16008KT 15SM FEW100 BKN250 16/11 A3002 RMK AC2CI1 ACC ASOCTD SLP167

CYQF;2007-06-28 16:00;CYQF 281600Z 16005KT 15SM FEW100 SCT250 19/12 A3001 RMK AC1CI1 SLP164

CYQF;2007-06-28 17:00;CYQF 281700Z 15012KT 15SM FEW100 BKN250 20/13 A3001 RMK AC1CI2 SLP163

CYQF;2007-06-28 18:00;CYQF 281800Z 15008KT 15SM FEW100 BKN250 21/13 A2999 RMK AC1CI4 SLP157

CYQF;2007-06-28 19:00;CYQF 281900Z 14009KT 15SM FEW100 OVC250 21/13 A2999 RMK AC2CI5 SLP155

CYQF;2007-06-28 20:00;CYQF 282000Z 12013KT 15SM FEW100 OVC250 22/13 A2997 RMK AC2CI5 SLP151

CYQF;2007-06-28 21:00;CYQF 282100Z 13012KT 15SM FEW040 FEW100 OVC250 21/12 A2996 RMK CU1AC2CI3 SLP147

CYQF;2007-06-28 22:00;CYQF 282200Z 10011KT 15SM FEW040 BKN100 OVC250 22/14 A2995 RMK CU1AC4CI2 SLP145

CYQF;2007-06-28 23:00;CYQF 282300Z 12011KT 15SM FEW040 BKN100 BKN250 22/13 A2995 RMK CU1AC4CI2 SLP143

CYQF;2007-06-29 00:00;CYQF 290000Z 12012KT 15SM FEW040 BKN100 OVC250 22/14 A2993 RMK SC2AC4CI2 SLP137

CYQF;2007-06-29 01:00;CYQF 290100Z 14008KT 15SM SCT040 BKN090 OVC250 21/15 A2994 RMK SC3AC3CI1 SLP140

CYQF;2007-06-29 02:00;CYQF 290200Z 00000KT 15SM SCT040 BKN090 OVC250 20/15 A2994 RMK SC4AC2CI1 TCU ASOCTD SLP140

CYQF;2007-06-29 02:22;CYQF 290222Z 07010KT 15SM -SHRA BKN040 BKN090 OVC250 RMK SC5AC2CI1 TCU ASOCTD

CYQF;2007-06-29 02:50;CYQF 290250Z 08006KT 15SM BKN040 BKN090 OVC250 RMK SC5AC2CI1 HVY DIST S+W TCU ASOCTD

CYQF;2007-06-29 03:00;CYQF 290300Z 21003KT 15SM BKN040TCU BKN090 OVC250 20/15 A2995 RMK TCU6AC2CI1 HVY SH DIST SE-SW SLP141

CYQF;2007-06-29 03:17;CYQF 290317Z 27004KT 15SM -SHRA BKN040TCU OVC090 RMK TCU6AC2 HVY SH DIST S+W CB ASOCTD

CYQF;2007-06-29 04:00;CYQF 290400Z CCA 08006KT 15SM -SHRA BKN040TCU OVC090 19/16 A2993 RMK TCU6AC2 CB ASOCTD HVY SH+LTGCGCC E-SE+DIST NW SLP137

CYQF;2007-06-29 04:37;CYQF 290437Z 07003KT 15SM SCT040TCU SCT090 BKN250 RMK TCU3AC1CI0 CB ASOCTD HVY SH NW-E LTGCG NW-NE

CYQF;2007-06-29 05:00;CYQF 290500Z 26003KT 15SM FEW040CB FEW080 BKN250 19/13 A2992 RMK CB2AC1CI1 LTGICCG DIST N SH NW-NE SLP134

CYQF;2007-06-29 06:00;CYQF 290600Z 05009KT 15SM FEW040TCU SCT080 BKN250 17/13 A2992 RMK TCU2AC2CI2 SLP131

CYQF;2007-06-29 07:00;CYQF 290700Z 07003KT 15SM FEW050TCU BKN250 16/13 A2990 RMK TCU2CI2 CB/LTNG DIST SE SLP125

CYQF;2007-06-29 08:00;CYQF 290800Z 13005KT 15SM FEW050 FEW090 BKN250 16/12 A2988 RMK CU2AC1CI2 CB EMBDD/LTNG DIST SE SLP119

CYQF;2007-06-29 09:00;CYQF 290900Z 12009KT 15SM FEW050 SCT250 15/12 A2985 RMK SC2CI1 CB EMBDD/LTNG DIST E SLP107

CYQF;2007-06-29 10:00;CYQF 291000Z 15005KT 15SM FEW090 BKN250 14/12 A2985 RMK AC2CI2 SLP109

CYQF;2007-06-29 11:00;CYQF 291100Z 19003KT 15SM FEW050TCU SCT090 BKN250 13/11 A2986 RMK TCU2AC2CI2 SLP112

CYQF;2007-06-29 12:00;CYQF 291200Z 15005KT 15SM FEW050TCU SCT090 BKN250 14/12 A2987 RMK TCU1AC2CI2 ACC ASOCTD SLP115

CYQF;2007-06-29 13:00;CYQF 291300Z 16007KT 15SM FEW090 BKN250 15/13 A2987 RMK AC2CI3 SLP114

CYQF;2007-06-29 14:00;CYQF 291400Z 24004KT 15SM FEW090 BKN250 17/14 A2987 RMK AC1CI2 SLP115

CYQF;2007-06-29 15:00;CYQF 291500Z 00000KT 15SM FEW090 BKN250 18/15 A2986 RMK AC2CI1 SLP109

CYQF;2007-06-29 15:54;CYQF 291554Z 00000KT 15SM FEW008 SCT090 BKN250 RMK SF2AC2CI1

CYQF;2007-06-29 16:00;CYQF 291600Z 00000KT 15SM FEW008 SCT090 BKN250 19/15 A2987 RMK SF2AC2CI1 SLP112

CYQF;2007-06-29 17:00;CYQF 291700Z 00000KT 15SM BKN080 BKN250 21/16 A2986 RMK AC5CI1 SLP110

CYQF;2007-06-29 18:00;CYQF 291800Z 24002KT 15SM BKN080 BKN250 21/16 A2987 RMK AC5CI1 SLP114

CYQF;2007-06-29 19:00;CYQF 291900Z 06006KT 15SM BKN080 OVC250 22/17 A2985 RMK AC6CI2 VIRGA SLP105

CYQF;2007-06-29 20:00;CYQF 292000Z 11008KT 15SM -SHRA FEW040TCU BKN080 OVC250 21/17 A2986 RMK TCU2AC2CI2 CB ASOCTD SLP109

CYQF;2007-06-29 21:00;CYQF 292100Z 15008KT 15SM -SHRA SCT040TCU BKN080 OVC250 20/17 A2988 RMK TCU3AC2CI2 SLP120

CYQF;2007-06-29 22:00;CYQF 292200Z CCA 12007KT 15SM FEW040TCU BKN080 OVC250 21/15 A2985 RMK TCU2AC2CI2 CB ASOCTD SLP112

CYQF;2007-06-29 23:00;CYQF 292300Z 09010KT 15SM FEW040TCU BKN080 BKN250 22/15 A2983 RMK TCU2AC3CI1 SLP103

CYQF;2007-06-30 00:00;CYQF 300000Z 12008KT 15SM FEW040CB FEW080 SCT250 23/14 A2979 RMK CB2AC1CI1 SLP086

CYQF;2007-06-30 01:00;CYQF 300100Z 11012KT 15SM FEW040TCU BKN250 23/14 A2976 RMK TCU2CI2 CB TOP W SLP077

CYQF;2007-06-30 02:00;CYQF 300200Z 11008KT 15SM FEW080 BKN250 22/14 A2978 RMK AC2CI2 SLP083

CYQF;2007-06-30 03:00;CYQF 300300Z 16010KT 15SM FEW020 BKN070 BKN250 20/14 A2981 RMK CU2AC4CI1 TCU ASOCTD SLP090

CYQF;2007-06-30 04:00;CYQF 300400Z 08010KT 15SM SCT020 BKN060TCU OVC250 19/15 A2978 RMK CU3TCU3CI1 CB LTNG S SLP083

CYQF;2007-06-30 04:31;CYQF 300431Z 08005KT 15SM -TSRA BKN020 OVC040CB RMK SC5CB3

CYQF;2007-06-30 05:00;CYQF 300500Z 07005KT 15SM -TSRA BKN015 OVC040CB 18/16 A2978 RMK SC5CB3 SLP081

CYQF;2007-06-30 05:23;CYQF 300523Z 10004KT 15SM VCSH FEW015 BKN040CB OVC100 RMK SC2CB4AC2 LTNG ALQDS

CYQF;2007-06-30 06:00;CYQF 300600Z 29015G25KT 15SM BKN015 OVC040CB 17/16 A2982 RMK SC5CB3 LTNG S-W WND SHFT PRESRR SLP095

CYQF;2007-06-30 06:05;CYQF 300605Z 30015G25KT 10SM -TSRA BKN015 OVC030CB RMK SC5CB3 LTGCG

CYQF;2007-06-30 06:19;CYQF 300619Z 28012KT 3SM +TSRA BKN015 OVC030CB RMK SC5CB3 FQT LTGCGCC

CYQF;2007-06-30 06:44;CYQF 300644Z 00000KT 8SM -TSRA FEW006 BKN015 OVC030CB RMK SF2SC2CB3 RERA

CYQF;2007-06-30 07:00;CYQF 300700Z 35005KT 10SM -TSRA SCT006 BKN030CB OVC090 12/10 A2981 RMK SF3CB3AC1 SLP093

CYQF;2007-06-30 07:20;CYQF 300720Z 03009KT 15SM FEW030CB BKN090 RMK CB2AC2 RETS LTG N

CYQF;2007-06-30 08:00;CYQF 300800Z 05003KT 15SM BKN100 12/10 A2977 RMK AC5 SLP079

CYQF;2007-06-30 09:00;CYQF 300900Z 24007KT 15SM FEW100 11/10 A2981 RMK AC2 SLP101

CYQF;2007-06-30 10:00;CYQF 301000Z 21003KT 15SM FEW100 10/09 A2980 RMK AC2 SLP097

CYQF;2007-06-30 11:00;CYQF 301100Z 27004KT 10SM PRFG SCT005 BKN100 09/08 A2982 RMK SF4AC1 VSBY W-N 1 SLP103

CYQF;2007-06-30 11:11;CYQF 301111Z 24003KT 6SM BR BKN007 RMK SF7

CYQF;2007-06-30 12:00;CYQF 301200Z 24002KT 3SM BR BKN007 10/09 A2983 RMK SF7 SLP103

CYQF;2007-06-30 12:20;CYQF 301220Z 22005KT 3/4SM BR VV003 RMK FG8

CYQF;2007-06-30 13:00;CYQF 301300Z 22007KT 1/2SM FG VV002 11/10 A2986 RMK FG8 SLP113

CYQF;2007-06-30 13:39;CYQF 301339Z 18004KT 1SM BR OVC002 RMK FG5ST2 BLN VIS 400FT

CYQF;2007-06-30 13:47;CYQF 301347Z 18005KT 2SM BR BKN002 BKN100 RMK SF6AC1

CYQF;2007-06-30 14:00;CYQF 301400Z 00000KT 3SM BR SCT004 BKN100 12/11 A2986 RMK SF4AC2 SLP114

CYQF;2007-06-30 15:00;CYQF 301500Z 29004KT 15SM FEW030 FEW100 15/12 A2990 RMK CU1AC1 TCU DIST NW SLP128

CYQF;2007-06-30 16:00;CYQF 301600Z 22004KT 15SM FEW030 FEW120 17/10 A2991 RMK CU1AC1 SLP131

CYQF;2007-06-30 17:00;CYQF 301700Z 22006KT 15SM FEW040 FEW120 18/08 A2992 RMK CU1AC1 SLP134

CYQF;2007-06-30 18:00;CYQF 301800Z 31002KT 15SM FEW050 FEW120 19/07 A2993 RMK CU1AC1 SLP135

CYQF;2007-06-30 19:00;CYQF 301900Z 24008KT 15SM FEW050 FEW120 20/06 A2993 RMK CU1AC1 TCU DIST NW SLP135

CYQF;2007-06-30 20:00;CYQF 302000Z 20003KT 15SM FEW060 20/04 A2993 RMK CU2 TCU ASOCTD SLP136

CYQF;2007-06-30 21:00;CYQF 302100Z 23008KT 15SM FEW060 22/06 A2993 RMK CU2 TCU ASOCTD SLP138

CYQF;2007-06-30 22:00;CYQF 302200Z 21010KT 15SM SCT060 22/06 A2992 RMK CU3 SLP137

CYQF;2007-06-30 23:00;CYQF 302300Z 22005KT 15SM FEW060 SCT250 22/04 A2992 RMK CU2CI1 SLP137

CYQF;2007-07-01 01:00;CYQF 010100Z 21007KT 15SM FEW060 22/03 A2992 RMK CU1 SLP135

CYQF;2007-07-01 02:00;CYQF 010200Z 23007KT 15SM FEW060 21/04 A2992 RMK CU1 SLP136

CYQF;2007-07-01 03:00;CYQF 010300Z 22008KT 15SM FEW060 18/05 A2993 RMK SC1 SLP140

CYQF;2007-07-01 04:00;CYQF 010400Z 24006KT 15SM FEW060 15/04 A2995 RMK SC1 SLP146

CYQF;2007-07-01 05:00;CYQF 010500Z 23006KT 15SM FEW060 13/05 A2997 RMK SC1 SLP151

CYQF;2007-07-01 06:00;CYQF 010600Z 23004KT 15SM FEW060 12/05 A2998 RMK SC1 SLP160

CYQF;2007-07-01 07:00;CYQF 010700Z 28003KT 15SM FEW100 11/03 A3000 RMK AC1 SLP165

CYQF;2007-07-01 08:00;CYQF 010800Z 29003KT 15SM FEW100 10/05 A3001 RMK AC1 SLP169

CYQF;2007-07-01 09:00;CYQF 010900Z 23002KT 15SM FEW100 09/04 A3002 RMK AC1 SLP171

CYQF;2007-07-01 10:00;CYQF 011000Z 00000KT 15SM FEW100 FEW250 08/04 A3003 RMK AC1CI1 SLP176

CYQF;2007-07-01 11:00;CYQF 011100Z 00000KT 15SM FEW100 FEW250 06/03 A3003 RMK AC1CI1 SLP175

CYQF;2007-07-01 12:00;CYQF 011200Z 00000KT 15SM FEW100 FEW250 06/04 A3003 RMK AC1CI0 SLP179

CYQF;2007-07-01 13:00;CYQF 011300Z 21005KT 15SM FEW100 FEW250 09/04 A3004 RMK AC1CI0 SLP180

CYQF;2007-07-01 14:00;CYQF 011400Z 22003KT 15SM FEW100 FEW250 11/05 A3004 RMK AC1CI1 SLP181

CYQF;2007-07-01 15:00;CYQF 011500Z 22003KT 15SM FEW100 FEW250 14/05 A3004 RMK AC1CI1 SLP176

CYQF;2007-07-01 16:00;CYQF 011600Z 14004KT 15SM FEW100 BKN250 17/06 A3002 RMK AC2CI2 SLP172

CYQF;2007-07-01 17:00;CYQF 011700Z 14007KT 15SM FEW100 BKN250 18/06 A3001 RMK AC2CI2 SLP169

CYQF;2007-07-01 18:00;CYQF 011800Z 15005KT 15SM FEW100 BKN250 19/04 A3000 RMK AC2CI2 SLP164

CYQF;2007-07-01 19:00;CYQF 011900Z 19010KT 15SM FEW060 SCT150 BKN250 20/03 A2998 RMK CU1AC2CI1 SLP160

CYQF;2007-07-01 20:00;CYQF 012000Z 20014KT 15SM FEW060 SCT150 BKN250 21/05 A2997 RMK CU1AC2CI1 SLP157

CYQF;2007-07-01 21:00;CYQF 012100Z 15012KT 15SM FEW060 SCT150 BKN250 21/06 A2996 RMK CU1AC2CI1 TCU ASOCTD SLP153

CYQF;2007-07-01 22:00;CYQF 012200Z 21010KT 15SM FEW060 FEW150 FEW250 22/06 A2995 RMK CU1AC1CI1 SLP149

CYQF;2007-07-01 23:00;CYQF 012300Z 18004KT 15SM FEW060 FEW150 FEW250 22/06 A2994 RMK CU1AC1CI1 SLP147

CYQF;2007-07-02 00:00;CYQF 020000Z 11005KT 15SM FEW060 FEW250 23/07 A2993 RMK CU1CI0 SLP144

CYQF;2007-07-02 01:00;CYQF 020100Z 13008KT 15SM FEW060 FEW250 22/07 A2992 RMK SC1CI0 SLP141

CYQF;2007-07-02 02:00;CYQF 020200Z 12011KT 15SM FEW120 BKN250 22/08 A2992 RMK AC1CI1 SLP141

CYQF;2007-07-02 03:00;CYQF 020300Z 10003KT 15SM BKN250 20/10 A2993 RMK CI1 SLP136

CYQF;2007-07-02 04:00;CYQF 020400Z 15005KT 15SM FEW120 BKN250 18/09 A2993 RMK AC1CI2 SLP138

CYQF;2007-07-02 05:00;CYQF 020500Z 00000KT 15SM FEW120 BKN250 17/09 A2994 RMK AC1CI2 SLP141

CYQF;2007-07-02 06:00;CYQF 020600Z 00000KT 15SM BKN250 16/10 A2995 RMK CI3 SLP141

CYQF;2007-07-02 07:00;CYQF 020700Z 00000KT 15SM BKN250 15/10 A2995 RMK CI5 SLP143

CYQF;2007-07-02 08:00;CYQF 020800Z 00000KT 15SM FEW100 BKN250 15/09 A2995 RMK AC1CI5 SLP144

CYQF;2007-07-02 09:00;CYQF 020900Z 00000KT 15SM FEW100 BKN250 15/10 A2995 RMK AC2CI4 SLP143

CYQF;2007-07-02 10:00;CYQF 021000Z 00000KT 15SM SCT100 OVC250 14/11 A2995 RMK AC3CI3 SLP143

CYQF;2007-07-02 11:00;CYQF 021100Z 00000KT 15SM SCT100 OVC250 13/10 A2995 RMK AC3CI3 SLP141

CYQF;2007-07-02 12:00;CYQF 021200Z 00000KT 15SM SCT100 BKN250 13/11 A2994 RMK AC3CI3 SLP140

CYQF;2007-07-02 13:00;CYQF 021300Z 00000KT 15SM SCT100 BKN250 14/12 A2995 RMK AC3CI3 SLP143

CYQF;2007-07-02 14:00;CYQF 021400Z 25004KT 15SM FEW040 SCT100 BKN250 16/13 A2995 RMK SC1AC2CI3 SLP144

CYQF;2007-07-02 15:00;CYQF 021500Z 00000KT 15SM FEW100 SCT250 18/12 A2995 RMK AC2CI1 SLP142

CYQF;2007-07-02 16:00;CYQF 021600Z 33004KT 15SM FEW100 SCT250 20/12 A2996 RMK AC1CI2 SLP144

CYQF;2007-07-02 17:00;CYQF 021700Z 35007KT 15SM FEW050 FEW100 BKN250 21/09 A2996 RMK CU1AC2CI2 SLP145

CYQF;2007-07-02 18:00;CYQF 021800Z 34007KT 15SM FEW050 FEW100 BKN250 22/09 A2996 RMK CU1AC1CI3 SLP145

CYQF;2007-07-02 19:00;CYQF 021900Z 34010KT 15SM FEW050 FEW100 FEW250 22/09 A2997 RMK CU1AC1CI1 SLP146

CYQF;2007-07-02 20:00;CYQF 022000Z 32010G15KT 15SM FEW055 SCT100 23/09 A2997 RMK CU1AC2 SLP147

CYQF;2007-07-02 21:00;CYQF 022100Z 33003KT 15SM FEW060 FEW100 23/08 A2997 RMK CU1AC1 SLP148

CYQF;2007-07-02 22:00;CYQF 022200Z 08003KT 15SM FEW060 FEW100 24/08 A2997 RMK CU1AC1 CU TR SLP148

CYQF;2007-07-02 23:00;CYQF 022300Z 24003KT 15SM FEW060 FEW100 24/08 A2997 RMK CU1AC1 SLP149

CYQF;2007-07-03 00:00;CYQF 030000Z 00000KT 15SM FEW065 FEW100 SCT250 24/07 A2998 RMK CU1AC1CI0 SLP151

CYQF;2007-07-03 01:00;CYQF 030100Z 00000KT 15SM FEW060 FEW100 SCT250 24/08 A2999 RMK CU1AC2CI0 SLP155

CYQF;2007-07-03 02:00;CYQF 030200Z 00000KT 15SM FEW100 FEW250 24/10 A3000 RMK AC1CI1 SLP158

CYQF;2007-07-03 03:00;CYQF 030300Z 00000KT 15SM FEW100 BKN250 23/10 A3002 RMK AC2CI1 SLP161

CYQF;2007-07-03 04:00;CYQF 030400Z 00000KT 15SM FEW100 SCT250 20/12 A3004 RMK AC2CI1 SLP166

CYQF;2007-07-03 05:00;CYQF 030500Z 00000KT 15SM FEW100 FEW250 18/12 A3005 RMK AC1CI1 SLP169

CYQF;2007-07-03 06:00;CYQF 030600Z 00000KT 15SM FEW100 FEW250 16/12 A3006 RMK AC1CI1 SLP179

CYQF;2007-07-03 07:00;CYQF 030700Z 03004KT 15SM FEW100 15/11 A3007 RMK AC2 SLP181

CYQF;2007-07-03 08:00;CYQF 030800Z 23004KT 15SM SKC 13/10 A3007 RMK SLP183

CYQF;2007-07-03 09:00;CYQF 030900Z 18002KT 15SM FEW090 SCT250 14/10 A3008 RMK AC2CI1 SLP186

CYQF;2007-07-03 10:00;CYQF 031000Z 20004KT 15SM FEW090 SCT250 13/10 A3008 RMK AC1CI1 SLP187

CYQF;2007-07-03 11:00;CYQF 031100Z 23006KT 15SM FEW090 SCT250 12/09 A3009 RMK AC1CI1 SLP189

CYQF;2007-07-03 12:00;CYQF 031200Z 22006KT 15SM FEW090 FEW250 11/09 A3010 RMK AC1CI1 SLP195

CYQF;2007-07-03 13:00;CYQF 031300Z 00000KT 15SM FEW090 FEW250 13/09 A3011 RMK AC1CI1 SLP197

CYQF;2007-07-03 14:00;CYQF 031400Z 21003KT 15SM FEW090 FEW250 15/09 A3011 RMK AC1CI1 AC TR SLP198

CYQF;2007-07-03 15:00;CYQF 031500Z 21002KT 15SM FEW090 SCT250 16/10 A3011 RMK AC1CI4 SLP196

CYQF;2007-07-03 16:00;CYQF 031600Z 22003KT 15SM FEW090 FEW250 19/10 A3011 RMK AC1CI1 TR LYRS SLP195

CYQF;2007-07-03 17:00;CYQF 031700Z 00000KT 15SM FEW090 FEW250 22/11 A3011 RMK AC1CI1 SLP195

CYQF;2007-07-03 18:00;CYQF 031800Z 00000KT 15SM FEW050 FEW090 FEW250 24/10 A3009 RMK CU1AC1CI1 SLP187

CYQF;2007-07-03 19:00;CYQF 031900Z 24004KT 15SM FEW050 FEW090 BKN250 25/06 A3009 RMK CU1AC1CI4 SLP187

CYQF;2007-07-03 20:00;CYQF 032000Z 24007KT 15SM FEW060 SCT120 SCT250 26/09 A3009 RMK CU1AC2CI1 SLP185

CYQF;2007-07-03 21:00;CYQF 032100Z 21005KT 15SM FEW060 SCT080 BKN250 26/09 A3008 RMK CU1AC3CI2 SLP183

CYQF;2007-07-03 22:00;CYQF 032200Z 15003KT 15SM FEW060 SCT100 BKN250 26/09 A3008 RMK CU2AC2CI2 TCU ASOCTD SLP182

CYQF;2007-07-03 23:00;CYQF 032300Z 23004KT 15SM FEW060 BKN100 BKN250 26/11 A3008 RMK CU2AC2CI1 TCU ASOCTD SLP182

CYQF;2007-07-04 00:00;CYQF 040000Z 24003KT 15SM FEW060 BKN100 BKN250 25/10 A3007 RMK CU2AC3CI1 TCU ASOCTD SLP185

CYQF;2007-07-04 01:00;CYQF 040100Z 25003KT 15SM SCT060 BKN100 OVC250 23/14 A3009 RMK SC3AC4CI1 TCU ASOCTD SLP189

CYQF;2007-07-04 02:00;CYQF 040200Z 00000KT 15SM FEW060 BKN100 23/13 A3009 RMK SC2AC4 SLP190

CYQF;2007-07-04 03:00;CYQF 040300Z 35006KT 15SM FEW040 BKN100 22/13 A3009 RMK SC2AC2 TCU SE SLP189

CYQF;2007-07-04 04:00;CYQF 040400Z 36005KT 15SM FEW100 20/12 A3011 RMK AC2 SLP195

CYQF;2007-07-04 05:00;CYQF 040500Z 00000KT 15SM FEW100 18/13 A3014 RMK AC1 SLP202

CYQF;2007-07-04 06:00;CYQF 040600Z 27003KT 15SM FEW100 FEW250 15/12 A3016 RMK AC1CI0 SLP212

CYQF;2007-07-04 07:00;CYQF 040700Z 29003KT 15SM FEW100 SCT250 15/12 A3016 RMK AC1CI0 SLP213

CYQF;2007-07-04 08:00;CYQF 040800Z 00000KT 15SM FEW010CB FEW100 SCT250 14/12 A3017 RMK CB1AC1CI0 CONT LTG FM CB DIST NW SLP214

CYQF;2007-07-04 09:00;CYQF 040900Z 00000KT 15SM FEW100 BKN250 13/11 A3018 RMK AC1CI1 SLP219

CYQF;2007-07-04 10:00;CYQF 041000Z 00000KT 15SM FEW100 BKN250 11/10 A3019 RMK AC1CI1 ACC ASOCTD SLP222

CYQF;2007-07-04 11:00;CYQF 041100Z 00000KT 10SM FEW010 FEW100 BKN250 12/10 A3021 RMK CU1AC1CI0 CU TR BR SLP227

CYQF;2007-07-04 12:00;CYQF 041200Z 00000KT 12SM FEW080 BKN250 12/11 A3022 RMK AC1CI1 ACC ASOCTD SLP233

CYQF;2007-07-04 13:00;CYQF 041300Z 00000KT 12SM FEW080 BKN250 14/12 A3023 RMK AC1CI2 SLP238

CYQF;2007-07-04 14:00;CYQF 041400Z 21002KT 15SM FEW080 BKN250 15/13 A3024 RMK AC1CI2 SLP240

CYQF;2007-07-04 15:00;CYQF 041500Z 23004KT 15SM FEW090 BKN280 18/13 A3025 RMK AC1CI2 SLP240

CYQF;2007-07-04 16:00;CYQF 041600Z 31004KT 15SM FEW090 BKN280 20/11 A3024 RMK AC1CI1 AC TR SLP239

CYQF;2007-07-04 17:00;CYQF 041700Z 00000KT 15SM FEW090 BKN280 21/11 A3024 RMK AC1CI1 SLP239

CYQF;2007-07-04 18:00;CYQF 041800Z 00000KT 15SM BKN280 22/13 A3024 RMK CI1 SLP241

CYQF;2007-07-04 19:00;CYQF 041900Z 00000KT 15SM FEW040 SCT280 22/12 A3023 RMK CU1CI1 SLP239

CYQF;2007-07-04 20:00;CYQF 042000Z 00000KT 15SM FEW045 FEW280 24/11 A3022 RMK CU1CI1 CI TR SLP235

CYQF;2007-07-04 21:00;CYQF 042100Z 00000KT 15SM FEW055 FEW280 25/11 A3020 RMK CU1CI1 SLP228

CYQF;2007-07-04 22:00;CYQF 042200Z 05003KT 15SM FEW060 FEW280 25/10 A3019 RMK CU1CI1 SLP225

CYQF;2007-07-04 23:00;CYQF 042300Z 00000KT 15SM FEW060 FEW280 26/11 A3018 RMK CU1CI0 SLP221

CYQF;2007-07-05 00:00;CYQF 050000Z 17006KT 15SM FEW060 FEW280 26/11 A3017 RMK CU1CI0 SLP216

CYQF;2007-07-05 01:00;CYQF 050100Z 13005KT 15SM FEW280 26/11 A3016 RMK CI1 SLP214

CYQF;2007-07-05 02:00;CYQF 050200Z 12005KT 15SM FEW280 25/13 A3016 RMK CI1 SLP213

CYQF;2007-07-05 03:00;CYQF 050300Z 11004KT 15SM FEW280 23/13 A3015 RMK CI1 SLP208

CYQF;2007-07-05 04:00;CYQF 050400Z 10004KT 15SM FEW120 21/13 A3016 RMK AC1 SLP209

CYQF;2007-07-05 05:00;CYQF 050500Z 08004KT 15SM FEW120 19/12 A3017 RMK AC1 SLP212

CYQF;2007-07-05 06:00;CYQF 050600Z 09003KT 15SM FEW120 FEW270 18/12 A3018 RMK AC1CI0 SLP217

CYQF;2007-07-05 07:00;CYQF 050700Z 00000KT 15SM FEW250 17/12 A3017 RMK CI0 SLP214

CYQF;2007-07-05 08:00;CYQF 050800Z 00000KT 15SM SKC 13/12 A3016 RMK OBS TAKEN +15 SLP211

CYQF;2007-07-05 09:00;CYQF 050900Z 00000KT 15SM SKC 15/11 A3015 RMK SLP208

CYQF;2007-07-05 10:00;CYQF 051000Z 00000KT 15SM SKC 16/11 A3013 RMK SLP202

CYQF;2007-07-05 11:00;CYQF 051100Z 18005KT 15SM SKC 15/10 A3012 RMK SLP197

CYQF;2007-07-05 12:00;CYQF 051200Z 21005KT 15SM SKC 14/10 A3012 RMK SLP195

CYQF;2007-07-05 13:00;CYQF 051300Z 00000KT 15SM SKC 16/11 A3011 RMK SLP193

CYQF;2007-07-05 14:00;CYQF 051400Z 17004KT 15SM FEW100 18/12 A3011 RMK AC1 TR AC SLP192

CYQF;2007-07-05 15:00;CYQF 051500Z 19004KT 15SM FEW250 21/13 A3009 RMK CI1 SLP183

CYQF;2007-07-05 16:00;CYQF 051600Z 18005KT 15SM FEW250 23/15 A3008 RMK CI1 CI TR SLP180

CYQF;2007-07-05 17:00;CYQF 051700Z 19004KT 15SM FEW250 25/15 A3006 RMK CI1 SLP174

CYQF;2007-07-05 18:00;CYQF 051800Z CCA 00000KT 15SM FEW250 28/16 A3005 RMK CI0 SLP167

CYQF;2007-07-05 19:00;CYQF 051900Z 19007KT 15SM FEW250 30/16 A3003 RMK CI1 CI TR SLP161

CYQF;2007-07-05 20:00;CYQF 052000Z CCA 16008KT 15SM FEW250 30/14 A3002 RMK CI1 CC ASOCTD SLP157

CYQF;2007-07-05 21:00;CYQF 052100Z 16012KT 15SM FEW250 31/15 A3000 RMK CI2 SLP148

CYQF;2007-07-05 22:00;CYQF 052200Z 14010KT 15SM SCT250 31/15 A2997 RMK CI0 SLP141

CYQF;2007-07-05 23:00;CYQF 052300Z 16010G16KT 15SM SCT250 31/12 A2995 RMK CI0 SLP135

CYQF;2007-07-06 00:00;CYQF 060000Z 15010G17KT 15SM SCT250 30/16 A2993 RMK CI0 SLP127

CYQF;2007-07-06 01:00;CYQF 060100Z 14012KT 15SM SCT280 29/17 A2991 RMK CI2 SLP121

CYQF;2007-07-06 02:00;CYQF 060200Z 15008KT 15SM SCT280 28/18 A2989 RMK CI2 SLP115

CYQF;2007-07-06 03:00;CYQF 060300Z 15003KT 15SM SCT280 26/18 A2988 RMK CI2 SLP108

CYQF;2007-07-06 04:00;CYQF 060400Z 23005KT 15SM SCT280 24/17 A2988 RMK CI2 LN CVCTV CLD DIST NW-N SLP108

CYQF;2007-07-06 05:00;CYQF 060500Z 23004KT 15SM FEW280 22/17 A2988 RMK CI1 LN CNCTV CLD DIST NW-N SLP107

CYQF;2007-07-06 06:00;CYQF 060600Z 24002KT 15SM FEW280 21/17 A2987 RMK CI1 CVCTV CLD TPS DIST N SLP102

CYQF;2007-07-06 07:00;CYQF 060700Z 16002KT 15SM BKN250 18/16 A2986 RMK CI0 SLP098

CYQF;2007-07-06 08:00;CYQF 060800Z 00000KT 15SM BKN250 18/16 A2985 RMK CI2 SLP097

CYQF;2007-07-06 09:00;CYQF 060900Z 19004KT 15SM SCT250 16/14 A2985 RMK CI1 SLP096

CYQF;2007-07-06 09:39;CYQF 060939Z 33015G20KT 15SM BKN250 RMK CI0

CYQF;2007-07-06 10:00;CYQF 061000Z 34015G23KT 15SM BKN250 18/14 A2990 RMK CI0 SLP113

CYQF;2007-07-06 11:00;CYQF 061100Z 33012KT 15SM FEW010 FEW250 15/12 A2995 RMK SF1CI1 SF TR SLP129

CYQF;2007-07-06 12:00;CYQF 061200Z 33010G17KT 15SM FEW015 FEW060 FEW250 15/11 A2998 RMK SC1SC1CI1 HIER LYR SC TR SLP142

CYQF;2007-07-06 13:00;CYQF 061300Z 34010KT 15SM FEW060 SCT250 15/11 A2998 RMK SC2CI1 SLP142

CYQF;2007-07-06 14:00;CYQF 061400Z 33012KT 15SM FEW060 SCT250 16/10 A2998 RMK SC2CI1 SLP143

CYQF;2007-07-06 15:00;CYQF 061500Z 33010G15KT 15SM FEW070 SCT250 17/10 A2999 RMK ACC2CI1 SLP148

CYQF;2007-07-06 16:00;CYQF 061600Z 34010G17KT 15SM SCT070 BKN250 18/10 A2997 RMK AC2CI1 ACC ASOCTD SLP143

CYQF;2007-07-06 17:00;CYQF 061700Z 34010G15KT 15SM FEW050 SCT250 19/10 A2998 RMK CU2CI1 SLP145

CYQF;2007-07-06 18:00;CYQF 061800Z 34010KT 15SM FEW050 SCT250 20/10 A2997 RMK CU1CI1 SLP144

CYQF;2007-07-06 19:00;CYQF 061900Z 01010G15KT 15SM FEW050 FEW250 22/11 A2995 RMK SC1CI0 SLP138

CYQF;2007-07-06 20:00;CYQF 062000Z 04011KT 15SM FEW050 FEW250 22/09 A2994 RMK SC1CI1 SLP133

CYQF;2007-07-06 21:00;CYQF 062100Z 36009KT 15SM SCT250 23/11 A2992 RMK CI1 SLP129

CYQF;2007-07-06 22:00;CYQF 062200Z 07007KT 15SM SCT250 23/12 A2990 RMK CI1 SLP124

CYQF;2007-07-06 23:00;CYQF 062300Z 07005KT 15SM SCT280 23/12 A2990 RMK CI1 SLP122

CYQF;2007-07-07 00:00;CYQF 070000Z 05005KT 15SM FEW050 SCT280 23/12 A2989 RMK CU1CI1 SLP118

CYQF;2007-07-07 01:00;CYQF 070100Z 03005KT 15SM FEW050 SCT280 23/11 A2988 RMK CU1CI1 SLP116

CYQF;2007-07-07 02:00;CYQF 070200Z 04005KT 15SM FEW090 SCT280 23/11 A2988 RMK AC2CI2 SLP117

CYQF;2007-07-07 03:00;CYQF 070300Z 02005KT 15SM FEW090 SCT280 21/12 A2989 RMK AC2CI1 ACC ASOCTD SLP118

CYQF;2007-07-07 04:00;CYQF 070400Z 36005KT 15SM SCT090 BKN280 18/12 A2991 RMK AC4CI0 ACC ASOCTD SLP124

CYQF;2007-07-07 05:00;CYQF 070500Z 03005KT 15SM BKN090 19/11 A2991 RMK AC6 ACC ASOCTD SLP124

CYQF;2007-07-07 06:00;CYQF 070600Z CCA 01004KT 15SM BKN090 BKN280 18/11 A2991 RMK AC6CI1 ACC ASOCTD SLP126

CYQF;2007-07-07 07:00;CYQF 070700Z 36003KT 15SM SCT090 SCT280 16/11 A2993 RMK AC3CI0 SLP131

CYQF;2007-07-07 08:00;CYQF 070800Z 36008KT 15SM SCT090 BKN280 15/10 A2994 RMK AC3CI1 SLP134

CYQF;2007-07-07 09:00;CYQF 070900Z 35015G24KT 15SM SCT100 BKN280 15/10 A2999 RMK AC4CI2 SLP154

CYQF;2007-07-07 10:00;CYQF 071000Z 35014G22KT 15SM SCT080 BKN120 BKN280 13/08 A3001 RMK AC3AC2CI1 SLP161

CYQF;2007-07-07 11:00;CYQF 071100Z 01008KT 15SM SCT080 BKN120 BKN280 12/09 A3004 RMK AC3AC2CI1 SLP169

CYQF;2007-07-07 12:00;CYQF 071200Z 01003KT 15SM FEW080 BKN120 12/09 A3003 RMK AC2AC5 SLP170

CYQF;2007-07-07 13:00;CYQF 071300Z 28004KT 15SM BKN090 BKN120 12/10 A3004 RMK AC5AC2 SLP174

CYQF;2007-07-07 14:00;CYQF 071400Z 28005KT 15SM BKN090 13/09 A3004 RMK AC6 SLP173

CYQF;2007-07-07 15:00;CYQF 071500Z 27007KT 15SM FEW015 BKN090 BKN250 14/09 A3004 RMK SC1AC5CI1 SLP174

CYQF;2007-07-07 16:00;CYQF 071600Z 28004KT 15SM FEW015 BKN090 BKN250 16/10 A3004 RMK SC1AC5CI1 SLP173

CYQF;2007-07-07 17:00;CYQF 071700Z 27003KT 15SM FEW030 SCT090 SCT250 17/10 A3003 RMK CU2AC2CI1 SLP170

CYQF;2007-07-07 18:00;CYQF 071800Z 09002KT 15SM FEW030 SCT090 BKN250 18/09 A3002 RMK CU2AC2CI1 SLP167

CYQF;2007-07-07 19:00;CYQF 071900Z 00000KT 15SM FEW035 SCT090 BKN250 19/07 A3001 RMK CU2AC2CI1 SLP165

CYQF;2007-07-07 20:00;CYQF 072000Z 00000KT 15SM FEW040 SCT270 19/06 A3000 RMK CU2CI2 SLP162

CYQF;2007-07-07 21:00;CYQF 072100Z 00000KT 15SM FEW040 SCT270 21/05 A2999 RMK CU2CI2 SLP157

CYQF;2007-07-07 22:00;CYQF 072200Z 02005KT 15SM FEW050 SCT270 21/07 A2998 RMK CU2CI1 SLP154

CYQF;2007-07-07 23:00;CYQF 072300Z 12003KT 15SM FEW050 BKN270 21/08 A2997 RMK CU2CI1 SLP150

CYQF;2007-07-08 00:00;CYQF 080000Z 00000KT 15SM FEW050 BKN270 21/07 A2996 RMK CU2CI1 SLP150

CYQF;2007-07-08 02:00;CYQF 080200Z 00000KT 15SM FEW050 FEW100 BKN270 21/08 A2997 RMK CU1AC1CI3 SLP152

CYQF;2007-07-08 03:00;CYQF 080300Z 15004KT 15SM FEW100 BKN270 20/10 A2998 RMK AC1CI2 SLP155

CYQF;2007-07-08 04:00;CYQF 080400Z 00000KT 15SM FEW080 SCT150 BKN270 18/09 A2999 RMK ACC2AC1CI1 SLP159

CYQF;2007-07-08 05:00;CYQF 080500Z 07004KT 15SM FEW080 SCT150 BKN270 18/10 A3000 RMK AC2AC1CI2 SLP162

CYQF;2007-07-08 06:00;CYQF 080600Z 00000KT 15SM FEW080 SCT150 BKN270 15/10 A3001 RMK AC2AC1CI1 SLP168

CYQF;2007-07-08 07:00;CYQF 080700Z 00000KT 15SM FEW080 SCT150 BKN270 16/09 A3001 RMK AC2AC2CI0 SLP168

CYQF;2007-07-08 08:00;CYQF 080800Z 00000KT 15SM SCT150 BKN270 15/10 A3002 RMK AC3CI2 SLP169

CYQF;2007-07-08 09:00;CYQF 080900Z 00000KT 15SM FEW150 BKN270 15/10 A3002 RMK AC2CI1 SLP166

CYQF;2007-07-08 10:00;CYQF 081000Z 04003KT 15SM FEW070 SCT140 BKN270 15/10 A3001 RMK AC1AC2CI1 SLP165

CYQF;2007-07-08 11:00;CYQF 081100Z 00000KT 15SM FEW070 BKN140 BKN270 13/10 A3002 RMK AC2AC2CI1 SLP168

CYQF;2007-07-08 12:00;CYQF 081200Z 00000KT 15SM FEW060 SCT140 13/08 A3003 RMK SC2AC1 SLP171

CYQF;2007-07-08 13:00;CYQF 081300Z 11005KT 15SM FEW060 SCT140 BKN270 13/09 A3004 RMK SC2AC2CI1 SLP175

CYQF;2007-07-08 14:00;CYQF 081400Z 15004KT 15SM FEW050 SCT120 BKN270 15/10 A3004 RMK SC2AC2CI1 SLP174

CYQF;2007-07-08 15:00;CYQF 081500Z 18003KT 15SM SCT050 SCT100 BKN270 16/11 A3004 RMK SC3AC1CI2 SLP174

CYQF;2007-07-08 16:00;CYQF 081600Z 17010KT 15SM FEW050 SCT100 BKN270 18/11 A3003 RMK SC2AC2CI2 SLP170

CYQF;2007-07-08 17:00;CYQF 081700Z 16008KT 15SM SCT020 BKN080 BKN270 19/12 A3003 RMK CU4AC1CI2 SLP169

CYQF;2007-07-08 18:00;CYQF 081800Z 18011KT 15SM FEW024 SCT080 BKN270 19/11 A3001 RMK CU2AC2CI2 SLP166

CYQF;2007-07-08 19:00;CYQF 081900Z 15015G20KT 15SM FEW030 FEW080 BKN270 19/10 A3000 RMK CU2AC1CI2 SLP161

CYQF;2007-07-08 20:00;CYQF 082000Z 17015G24KT 15SM BKN030 BKN080 OVC270 19/09 A2999 RMK CU5AC2CI1 SLP158

CYQF;2007-07-08 21:00;CYQF 082100Z 16012G19KT 15SM FEW030 BKN080 BKN270 19/08 A2997 RMK CU2AC2CI1 SLP153

CYQF;2007-07-08 22:00;CYQF 082200Z 16014G22KT 15SM FEW040 SCT100 BKN270 20/10 A2995 RMK CU1AC2CI1 SLP145

CYQF;2007-07-08 23:00;CYQF 082300Z 14013G20KT 15SM FEW040 BKN090 BKN270 20/10 A2993 RMK CU1AC4CI0 SLP138

CYQF;2007-07-09 00:00;CYQF 090000Z 17011G17KT 15SM FEW040 BKN090 BKN270 20/12 A2990 RMK CU1AC4CI0 SLP129

CYQF;2007-07-09 01:00;CYQF 090100Z CCA 16014G22KT 15SM FEW030 SCT090 BKN270 20/13 A2989 RMK CU1AC3CI1 TCU ACC ASOCTD SLP125

CYQF;2007-07-09 02:00;CYQF 090200Z 16010G20KT 15SM FEW030 BKN090 BKN270 19/13 A2987 RMK CU2AC3CI2 CB EMBD LTGIC DIST N SLP119

CYQF;2007-07-09 02:40;CYQF 090240Z 36014G21KT 6SM -TSRA SCT030CB BKN080 OVC270 RMK CB4AC2CI1

CYQF;2007-07-09 02:53;CYQF 090253Z 33008KT 3/4SM +TSRA OVC030CB RMK CB8 CONT LTNG ALQUADS

CYQF;2007-07-09 03:00;CYQF 090300Z 02006KT 1SM TSRA BKN030CB BKN080 13/11 A2993 RERA RMK CB7AC1 CONT LTNG N-SW PRES UNSTDY SLP144

CYQF;2007-07-09 03:05;CYQF 090305Z 19006KT 10SM -TSRA SCT030CB BKN080 BKN270 RERA RMK CB3AC3CI1

CYQF;2007-07-09 03:10;CYQF 090310Z 00000KT 15SM FEW010 SCT030CB BKN080 BKN270 RMK SF1CB2AC3CI0 VIS LWR SE

CYQF;2007-07-09 04:00;CYQF 090400Z CCA 00000KT 15SM BKN008 BKN030CB BKN080 13/12 A2994 RERA RMK ST6CB1ACC1 LTNG S SLP145

CYQF;2007-07-09 05:00;CYQF 090500Z 28004KT 15SM BKN010 BKN030 BKN080 12/11 A2995 RMK ST6CU1AC1 SLP151

CYQF;2007-07-09 06:00;CYQF 090600Z 29004KT 15SM FEW010 SCT080 12/11 A2995 RMK SF1AC2 SLP150

CYQF;2007-07-09 07:00;CYQF 090700Z 28003KT 15SM FEW010 SCT080 12/11 A2995 RMK SF1AC3 SLP149

CYQF;2007-07-09 08:00;CYQF 090800Z 30004KT 15SM FEW005 SCT080 12/11 A2994 RMK SF2AC2 SLP146

CYQF;2007-07-09 08:35;CYQF 090835Z 30003KT 10SM BKN005 BKN080 RMK ST6AC1

CYQF;2007-07-09 09:00;CYQF 090900Z 30004KT 10SM OVC005 13/12 A2994 RMK ST8 SLP144

CYQF;2007-07-09 10:00;CYQF 091000Z 30003KT 6SM BR OVC005 12/11 A2993 RMK ST8 SLP140

CYQF;2007-07-09 11:00;CYQF 091100Z 30002KT 15SM OVC005 12/11 A2993 RMK ST8 SLP140

CYQF;2007-07-09 12:00;CYQF 091200Z 35005KT 5SM BR BKN005 OVC030 13/11 A2995 RMK SF5SC3 SLP144

CYQF;2007-07-09 12:24;CYQF 091224Z 33006KT 6SM -RA FEW005 BKN030 OVC080 RMK SF2SC5AC1

CYQF;2007-07-09 13:00;CYQF 091300Z 33010KT 6SM RA FEW006 BKN012 OVC030 11/09 A3002 RMK SF2SC5SC1 SLP166

CYQF;2007-07-09 14:00;CYQF 091400Z CCA 31012KT 6SM -RA FEW006 BKN012 OVC030 11/09 A3004 RMK SF2SC4SC2 RERA SLP174

CYQF;2007-07-09 15:00;CYQF 091500Z 29012KT 10SM -RA FEW006 BKN012 BKN030 11/09 A3008 RMK SF2SC4SC1 SLP200

CYQF;2007-07-09 15:31;CYQF 091531Z 30010KT 15SM FEW006 SCT012 BKN030 BKN250 RMK SF1SC2SC2CI1

CYQF;2007-07-09 16:00;CYQF 091600Z 29010KT 15SM FEW006 BKN030 BKN250 11/09 A3007 RMK CF1SC4CI0 SLP199

CYQF;2007-07-09 17:00;CYQF 091700Z 31012G17KT 15SM BKN020 14/09 A3007 RMK CU5 TCU ASOCTD SLP199

CYQF;2007-07-09 18:00;CYQF 091800Z 31016G27KT 15SM BKN030TCU 16/08 A3008 RMK TCU6 SLP197

CYQF;2007-07-09 19:00;CYQF 091900Z 30015G25KT 15SM BKN020TCU BKN080 14/09 A3011 RMK TCU5AC2 SLP205

CYQF;2007-07-09 20:00;CYQF 092000Z 32015G25KT 15SM SCT030 BKN080 15/08 A3013 RMK CU3AC2 TCU ASOCTD SLP212

CYQF;2007-07-09 21:00;CYQF 092100Z 31015G25KT 15SM SCT030 BKN080 16/08 A3015 RMK CU3AC2 TCU ASOCTD SLP218

CYQF;2007-07-09 22:00;CYQF 092200Z 31015G25KT 15SM FEW030 BKN080 17/09 A3016 RMK CU2AC2 TCU ASOCTD SLP222

CYQF;2007-07-09 23:00;CYQF 092300Z 34013G18KT 15SM FEW025 BKN080 17/09 A3017 RMK CU2AC3 SLP226

CYQF;2007-07-10 00:00;CYQF 100000Z 35015G22KT 15SM FEW025 SCT080 17/09 A3017 RMK CU2AC1 TCU ASOCTD CONTRAILS SLP226

CYQF;2007-07-10 01:00;CYQF 100100Z CCA 33012G20KT 15SM FEW035 FEW080 17/08 A3018 RMK CU1AC1 SLP229

CYQF;2007-07-10 02:00;CYQF 100200Z CCA 33010G15KT 15SM FEW030 17/08 A3020 RMK CU1 CU TR SLP234

CYQF;2007-07-10 03:00;CYQF 100300Z 34006KT 15SM FEW100 15/09 A3021 RMK AC1 SLP242

CYQF;2007-07-10 04:00;CYQF 100400Z 33003KT 15SM FEW100 13/08 A3022 RMK AC1 SLP245

CYQF;2007-07-10 05:00;CYQF 100500Z 00000KT 15SM FEW100 11/08 A3023 RMK AC1 SLP249

CYQF;2007-07-10 06:00;CYQF 100600Z 26004KT 15SM FEW120 10/08 A3024 RMK AC2 SLP253

CYQF;2007-07-10 07:00;CYQF 100700Z 25005KT 15SM FEW250 10/08 A3024 RMK CI2 SLP253

CYQF;2007-07-10 08:00;CYQF 100800Z 00000KT 15SM FEW100 SCT250 09/08 A3024 RMK AC2CI2 OBS TAKEN +14 SLP254

CYQF;2007-07-10 09:00;CYQF 100900Z 21003KT 15SM SCT100 BKN250 09/08 A3024 RMK AC3CI2 SLP253

CYQF;2007-07-10 10:00;CYQF 101000Z 00000KT 15SM BKN090 BKN250 10/08 A3023 RMK AC5CI2 SLP250

CYQF;2007-07-10 11:00;CYQF 101100Z 20003KT 15SM FEW050 BKN090 10/08 A3022 RMK SC2AC5 SLP249

CYQF;2007-07-10 12:00;CYQF 101200Z 00000KT 15SM FEW050 BKN090 10/09 A3022 RMK SC2AC4 SLP244

CYQF;2007-07-10 13:00;CYQF 101300Z 00000KT 15SM FEW050 BKN090 11/09 A3022 RMK SC1AC5 SLP245

CYQF;2007-07-10 14:00;CYQF 101400Z 00000KT 15SM FEW050 BKN100 12/10 A3024 RMK SC1AC6 SLP249

CYQF;2007-07-10 15:00;CYQF 101500Z 00000KT 15SM BKN080 OVC120 13/10 A3024 RMK AC7AC1 SLP250

CYQF;2007-07-10 16:00;CYQF 101600Z 00000KT 15SM BKN080 OVC120 14/11 A3024 RMK AC6AC1 SLP251

CYQF;2007-07-10 17:00;CYQF 101700Z 00000KT 15SM FEW050 BKN080 BKN120 17/10 A3024 RMK SC1AC5AC2 SLP249

CYQF;2007-07-10 18:00;CYQF 101800Z 30003KT 15SM FEW050 BKN080 BKN120 18/11 A3023 RMK SC2AC3AC2 SLP248

CYQF;2007-07-10 19:00;CYQF 101900Z 30003KT 15SM FEW040 BKN080 BKN120 20/09 A3023 RMK CU1AC4AC2 SLP247

CYQF;2007-07-10 20:00;CYQF 102000Z 00000KT 15SM FEW045 BKN100 20/09 A3022 RMK CU1AC4 SLP243

CYQF;2007-07-10 21:00;CYQF 102100Z 26012KT 15SM FEW050 BKN100 BKN250 20/08 A3021 RMK CU1AC4CI1 SLP238

CYQF;2007-07-10 22:00;CYQF 102200Z 21005KT 15SM FEW050 BKN100 20/09 A3020 RMK CU1AC5 SLP235

CYQF;2007-07-10 23:00;CYQF 102300Z 36003KT 15SM FEW050 BKN100 21/10 A3018 RMK CU1AC5 SLP231

CYQF;2007-07-11 00:00;CYQF 110000Z 00000KT 15SM FEW050 FEW100 SCT250 21/10 A3016 RMK CU1AC2CI0 SLP222

CYQF;2007-07-11 01:00;CYQF 110100Z 00000KT 15SM FEW050 FEW100 FEW250 22/10 A3015 RMK SC1AC1CI0 SLP219

CYQF;2007-07-11 02:00;CYQF 110200Z 00000KT 15SM FEW050 FEW250 22/10 A3015 RMK SC1CI1 SLP219

CYQF;2007-07-11 03:00;CYQF 110300Z 07002KT 15SM FEW100 BKN250 21/11 A3015 RMK ACC1CI2 SLP214

CYQF;2007-07-11 04:00;CYQF 110400Z 00000KT 15SM FEW100 BKN250 18/12 A3016 RMK ACC2CI1 SLP217

CYQF;2007-07-11 05:00;CYQF 110500Z 00000KT 15SM BKN080 18/11 A3017 RMK AC6 ACC ASOCTD SLP219

CYQF;2007-07-11 05:49;CYQF 110549Z 18003KT 15SM -SHRA BKN080 RMK AC6

CYQF;2007-07-11 06:00;CYQF 110600Z 00000KT 15SM -SHRA BKN080 17/14 A3017 RMK AC6 SLP219

CYQF;2007-07-11 07:00;CYQF 110700Z 00000KT 15SM BKN090 16/13 A3016 RMK AC6 SLP216

CYQF;2007-07-11 08:00;CYQF 110800Z 00000KT 15SM BKN090 16/13 A3015 RMK AC6 SLP214

CYQF;2007-07-11 09:00;CYQF 110900Z 00000KT 15SM BKN090 15/12 A3015 RMK AC6 SLP211

CYQF;2007-07-11 10:00;CYQF 111000Z 00000KT 15SM BKN090 16/13 A3015 RMK AC6 SLP210

CYQF;2007-07-11 11:00;CYQF 111100Z 20003KT 15SM BKN090 15/12 A3014 RMK AC3 SLP209

CYQF;2007-07-11 12:00;CYQF 111200Z 21004KT 15SM FEW100 SCT270 13/11 A3014 RMK AC2CI0 SLP211

CYQF;2007-07-11 13:00;CYQF 111300Z 00000KT 15SM FEW100 BKN270 14/12 A3015 RMK AC1CI1 SLP213

CYQF;2007-07-11 14:00;CYQF 111400Z 23004KT 15SM FEW100 FEW270 16/13 A3015 RMK AC1CI1 SLP214

CYQF;2007-07-11 15:00;CYQF 111500Z 32006KT 15SM FEW100 FEW270 19/14 A3015 RMK AC1CI1 SLP209

CYQF;2007-07-11 16:00;CYQF 111600Z 29005KT 15SM FEW100 FEW270 22/13 A3016 RMK AC1CI1 SLP210

CYQF;2007-07-11 17:00;CYQF 111700Z 30004KT 15SM FEW040 FEW270 23/11 A3015 RMK CU1CI1 SLP208

CYQF;2007-07-11 18:00;CYQF 111800Z 04002KT 15SM FEW050 FEW270 23/12 A3014 RMK CU1CI1 SLP204

CYQF;2007-07-11 19:00;CYQF 111900Z 35004KT 15SM FEW050 FEW270 24/12 A3014 RMK CU1CI1 SLP202

CYQF;2007-07-11 20:00;CYQF 112000Z 33005KT 15SM FEW050 FEW270 24/12 A3013 RMK CU1CI1 SLP200

CYQF;2007-07-11 21:00;CYQF 112100Z 00000KT 15SM FEW050 FEW270 25/12 A3012 RMK CU1CI1 SLP197

CYQF;2007-07-11 22:00;CYQF 112200Z 00000KT 15SM FEW050 SCT270 25/13 A3011 RMK CU2CI2 SLP195

CYQF;2007-07-11 23:00;CYQF 112300Z 00000KT 15SM FEW050 SCT270 25/14 A3010 RMK CU2CI1 SLP192

CYQF;2007-07-12 00:00;CYQF 120000Z 00000KT 15SM FEW055 SCT270 25/12 A3010 RMK CU2CI1 FEW MDT CU SLP190

CYQF;2007-07-12 01:00;CYQF 120100Z 00000KT 15SM FEW055 SCT270 26/13 A3009 RMK CU2CI1 SLP188

CYQF;2007-07-12 02:00;CYQF 120200Z 00000KT 15SM FEW070 FEW270 25/14 A3009 RMK AC2CI0 SLP189

CYQF;2007-07-12 03:00;CYQF 120300Z 00000KT 15SM FEW070 FEW250 24/14 A3010 RMK AC1CI0 SLP185

CYQF;2007-07-12 04:00;CYQF 120400Z 00000KT 15SM FEW080 FEW250 22/15 A3010 RMK AC1CI1 ACC ASOCTD DIST SW CI TR SLP186

CYQF;2007-07-12 05:00;CYQF 120500Z 15002KT 15SM FEW080 FEW250 20/15 A3011 RMK AC1CI1 SLP190

CYQF;2007-07-12 06:00;CYQF 120600Z 19002KT 15SM SKC 18/15 A3012 RMK SLP194

CYQF;2007-07-12 07:00;CYQF 120700Z 00000KT 15SM SKC 17/14 A3012 RMK SLP196

CYQF;2007-07-12 08:00;CYQF 120800Z 00000KT 15SM SKC 16/14 A3012 RMK SLP195

CYQF;2007-07-12 09:00;CYQF 120900Z 00000KT 15SM SKC 15/13 A3012 RMK SLP196

CYQF;2007-07-12 10:00;CYQF 121000Z 19003KT 15SM FEW270 15/13 A3011 RMK CI1 SLP195

CYQF;2007-07-12 11:00;CYQF 121100Z 19002KT 15SM FEW270 14/12 A3012 RMK CI1 SLP198

CYQF;2007-07-12 12:00;CYQF 121200Z 20002KT 15SM FEW120 FEW270 14/11 A3013 RMK AC1CI1 SLP200

CYQF;2007-07-12 13:00;CYQF 121300Z 00000KT 15SM SKC 15/13 A3013 RMK SLP202

CYQF;2007-07-12 14:00;CYQF 121400Z 00000KT 15SM SKC 17/14 A3014 RMK SLP204

CYQF;2007-07-12 15:00;CYQF 121500Z 00000KT 15SM SKC 20/15 A3014 RMK SLP200

CYQF;2007-07-12 16:00;CYQF 121600Z 22004KT 15SM SKC 23/15 A3014 RMK SLP199

CYQF;2007-07-12 17:00;CYQF 121700Z 17004KT 15SM SKC 25/15 A3014 RMK SLP198

CYQF;2007-07-12 18:00;CYQF 121800Z 22006KT 15SM SKC 27/17 A3013 RMK SLP197

CYQF;2007-07-12 19:00;CYQF 121900Z 22004KT 15SM FEW050 27/14 A3012 RMK CU1 SLP194

CYQF;2007-07-12 20:00;CYQF 122000Z 16006KT 15SM FEW050 28/12 A3012 RMK CU1 SLP192

CYQF;2007-07-12 21:00;CYQF 122100Z 11004KT 15SM FEW050 28/13 A3011 RMK CU1 SLP188

CYQF;2007-07-12 22:00;CYQF 122200Z 16004KT 15SM FEW050 28/11 A3010 RMK CU1 SLP187

CYQF;2007-07-12 23:00;CYQF 122300Z 14006KT 15SM FEW055 29/14 A3009 RMK CU1 CB SW SLP184

CYQF;2007-07-13 00:00;CYQF 130000Z 15006KT 15SM FEW055 28/13 A3009 RMK CU1 CB DIST SW SLP183

CYQF;2007-07-13 01:00;CYQF 130100Z 13003KT 15SM FEW055 FEW280 28/15 A3009 RMK CU1CI1 SLP183

CYQF;2007-07-13 02:00;CYQF 130200Z 15005KT 15SM FEW280 27/15 A3008 RMK CI1 SLP182

CYQF;2007-07-13 03:00;CYQF 130300Z 15002KT 15SM SKC 25/17 A3008 RMK SLP179

CYQF;2007-07-13 04:00;CYQF 130400Z 00000KT 15SM SKC 23/17 A3009 RMK SLP180

CYQF;2007-07-13 05:00;CYQF 130500Z 00000KT 15SM SKC 20/16 A3009 RMK SLP182

CYQF;2007-07-13 06:00;CYQF 130600Z 00000KT 15SM SKC 19/16 A3009 RMK SLP179

CYQF;2007-07-13 07:00;CYQF 130700Z 00000KT 15SM SKC 18/15 A3009 RMK SLP180

CYQF;2007-07-13 08:00;CYQF 130800Z 00000KT 15SM SKC 17/15 A3010 RMK SLP182

CYQF;2007-07-13 09:00;CYQF 130900Z 00000KT 15SM SKC 17/15 A3010 RMK SLP183

CYQF;2007-07-13 10:00;CYQF 131000Z 00000KT 15SM SKC 16/14 A3010 RMK SLP183

CYQF;2007-07-13 11:00;CYQF 131100Z 00000KT 15SM SKC 15/14 A3010 RMK SLP183

CYQF;2007-07-13 12:00;CYQF 131200Z 00000KT 15SM FEW120 15/13 A3010 RMK AC1 SLP185

CYQF;2007-07-13 13:00;CYQF 131300Z 18003KT 15SM SKC 17/15 A3011 RMK SLP189

CYQF;2007-07-13 14:00;CYQF 131400Z 00000KT 15SM SKC 19/16 A3012 RMK SLP193

CYQF;2007-07-13 15:00;CYQF 131500Z 00000KT 12SM SKC 21/17 A3013 RMK HZ SLP192

CYQF;2007-07-13 16:00;CYQF 131600Z 00000KT 12SM SKC 24/16 A3013 RMK HZ SLP192

CYQF;2007-07-13 17:00;CYQF 131700Z 00000KT 15SM SKC 26/19 A3012 RMK SLP190

CYQF;2007-07-13 18:00;CYQF 131800Z 26003KT 15SM SKC 28/16 A3011 RMK SLP187

CYQF;2007-07-13 19:00;CYQF 131900Z 10004KT 15SM SKC 29/16 A3011 RMK SLP186

CYQF;2007-07-13 20:00;CYQF 132000Z CCA 18006KT 15SM FEW060 30/15 A3010 RMK CU1 TCU SW SLP182

CYQF;2007-07-13 21:00;CYQF 132100Z 15007KT 15SM FEW055 30/15 A3009 RMK CU1 CB DIST S-SW SLP178

CYQF;2007-07-13 22:00;CYQF 132200Z 14008KT 15SM FEW055CB 30/16 A3009 RMK CB2 CB S-SW SLP178

CYQF;2007-07-13 23:00;CYQF 132300Z 12006KT 15SM FEW055CB FEW280 30/16 A3008 RMK CB1CI1 CB SW SLP175

CYQF;2007-07-14 00:00;CYQF 140000Z 14009KT 15SM FEW055 BKN280 29/17 A3007 RMK CU1CI3 CI ORIG FM CB SLP175

CYQF;2007-07-14 01:00;CYQF 140100Z 13007KT 15SM FEW055 BKN280 29/17 A3006 RMK CU1CI3 SLP171

CYQF;2007-07-14 02:00;CYQF 140200Z 13004KT 15SM FEW050 SCT280 28/17 A3005 RMK SC1CI1 SLP170

CYQF;2007-07-14 03:00;CYQF 140300Z 00000KT 15SM FEW050 SCT280 26/18 A3005 RMK SC1CI1 SLP165

CYQF;2007-07-14 04:00;CYQF 140400Z 09004KT 15SM FEW090 SCT280 24/17 A3005 RMK AC2CI1 SLP163

CYQF;2007-07-14 05:00;CYQF 140500Z 00000KT 15SM FEW090 SCT280 22/16 A3005 RMK AC1CI1 SLP166

CYQF;2007-07-14 06:00;CYQF 140600Z 20003KT 15SM FEW090 SCT280 19/15 A3005 RMK AC1CI1 SLP166

CYQF;2007-07-14 07:00;CYQF 140700Z 00000KT 15SM SKC 19/15 A3005 RMK SLP165

CYQF;2007-07-14 08:00;CYQF 140800Z 16003KT 15SM SKC 20/16 A3004 RMK SLP163

CYQF;2007-07-14 09:00;CYQF 140900Z 19003KT 15SM SKC 18/15 A3003 RMK SLP157

CYQF;2007-07-14 10:00;CYQF 141000Z 22002KT 15SM FEW090 17/15 A3003 RMK AC2 SLP156

CYQF;2007-07-14 11:00;CYQF 141100Z 19002KT 15SM FEW090 SCT260 17/15 A3003 RMK AC2CI1 SLP156

CYQF;2007-07-14 12:00;CYQF 141200Z 16002KT 15SM FEW090 BKN260 17/14 A3002 RMK AC2CI2 SLP157

CYQF;2007-07-14 13:00;CYQF 141300Z 15002KT 15SM FEW080 BKN260 19/15 A3000 RMK AC2CI2 SLP150

CYQF;2007-07-14 14:00;CYQF 141400Z 00000KT 15SM FEW080 BKN260 19/16 A3000 RMK AC2CI2 ACC ASOCTD SLP151

CYQF;2007-07-14 15:00;CYQF 141500Z 19004KT 15SM FEW080 SCT120 BKN260 20/16 A3000 RMK AC1AC2CI2 ACC DIST SW SLP148

CYQF;2007-07-14 16:00;CYQF 141600Z 21006KT 15SM FEW120 BKN260 21/17 A3000 RMK AC2CI2 SLP148

CYQF;2007-07-14 17:00;CYQF 141700Z 20004KT 15SM FEW080 FEW120 BKN260 25/18 A2999 RMK ACC1AC2CI1 ACC NW SLP144

CYQF;2007-07-14 18:00;CYQF 141800Z 28004KT 15SM FEW120 SCT260 27/19 A2998 RMK AC2CI1 SLP143

CYQF;2007-07-14 19:00;CYQF 141900Z 35005KT 15SM FEW260 29/18 A2998 RMK CI2 SLP142

CYQF;2007-07-14 20:00;CYQF 142000Z 32006KT 15SM FEW120 SCT260 30/16 A2996 RMK AC1CI0 SLP138

CYQF;2007-07-14 21:00;CYQF 142100Z 02007KT 15SM FEW120 BKN260 30/15 A2996 RMK AC1CI1 SLP133

CYQF;2007-07-14 22:00;CYQF 142200Z 03004KT 15SM BKN250 30/17 A2994 RMK CI2 SLP127

CYQF;2007-07-14 23:00;CYQF 142300Z 08005KT 15SM BKN250 30/18 A2994 RMK CI2 SLP125

CYQF;2007-07-15 00:00;CYQF 150000Z 07002KT 15SM FEW055 BKN250 30/17 A2992 RMK CU1CI3 SLP120

CYQF;2007-07-15 01:00;CYQF 150100Z 00000KT 15SM BKN250 30/15 A2990 RMK CI3 SLP115

CYQF;2007-07-15 02:00;CYQF 150200Z 12002KT 15SM BKN250 29/17 A2989 RMK CI2 SLP111

CYQF;2007-07-15 03:00;CYQF 150300Z 09003KT 15SM SCT100 BKN250 27/18 A2989 RMK AC2CI2 ACSL SLP109

CYQF;2007-07-15 04:00;CYQF 150400Z 00000KT 12SM FEW100 BKN250 25/18 A2989 RMK AC1CI2 SLP110

CYQF;2007-07-15 05:00;CYQF 150500Z 00000KT 12SM SCT250 21/17 A2990 RMK CI2 SLP112

CYQF;2007-07-15 06:00;CYQF 150600Z 04002KT 15SM FEW090 SCT250 22/17 A2989 RMK AC1CI1 SLP107

CYQF;2007-07-15 07:00;CYQF 150700Z 00000KT 15SM SKC 20/16 A2988 RMK SLP106

CYQF;2007-07-15 08:00;CYQF 150800Z 00000KT 15SM FEW250 19/16 A2988 RMK CI0 SLP104

CYQF;2007-07-15 09:00;CYQF 150900Z 03003KT 15SM FEW250 19/16 A2988 RMK CI0 SLP103

CYQF;2007-07-15 10:00;CYQF 151000Z 34004KT 15SM FEW100 18/15 A2987 RMK AC1 SLP101

CYQF;2007-07-15 11:00;CYQF 151100Z 34005KT 15SM FEW100 SCT250 18/15 A2991 RMK AC2CI1 SLP112

CYQF;2007-07-15 12:00;CYQF 151200Z 33006KT 15SM SCT080 BKN250 18/15 A2994 RMK AC3CI1 CB SW SLP126

CYQF;2007-07-15 13:00;CYQF 151300Z 06006KT 15SM FEW080 BKN250 19/15 A2992 RMK AC2CI1 SLP120

CYQF;2007-07-15 14:00;CYQF 151400Z 00000KT 15SM FEW080 FEW250 20/15 A2991 RMK AC1CI0 SLP118

CYQF;2007-07-15 15:00;CYQF 151500Z 26002KT 15SM FEW080 SCT250 21/15 A2992 RMK AC1CI0 SLP120

CYQF;2007-07-15 16:00;CYQF 151600Z 21002KT 15SM FEW080 SCT250 23/16 A2993 RMK ACC1CI0 SLP121

CYQF;2007-07-15 17:00;CYQF 151700Z 00000KT 15SM FEW250 24/15 A2992 RMK CI0 SLP119

CYQF;2007-07-15 18:00;CYQF 151800Z 00000KT 15SM SCT250 25/16 A2991 RMK CI0 SLP115

CYQF;2007-07-15 19:00;CYQF 151900Z 10002KT 15SM FEW040 BKN250 27/17 A2990 RMK CU1CI0 SLP113

CYQF;2007-07-15 20:00;CYQF 152000Z 10006KT 15SM FEW040TCU SCT250 28/18 A2988 RMK TCU2CI0 SLP108

CYQF;2007-07-15 21:00;CYQF 152100Z 10010KT 15SM FEW040CB SCT100 BKN250 27/17 A2987 RMK CB2AC1CI2 SLP102

CYQF;2007-07-15 22:00;CYQF 152200Z 05006KT 15SM SCT040CB BKN100 BKN250 27/18 A2986 RMK CB3AC2CI2 SLP101

CYQF;2007-07-15 22:38;CYQF 152238Z CCA 36007KT 15SM TS BKN040CB BKN100 RMK CB5AC2 HVY SH SE-W-N

CYQF;2007-07-15 22:49;CYQF 152249Z 35008KT 15SM -TSRA BKN040CB BKN100 RMK CB5AC2 HVYR SH SW-W-N LTGCG

CYQF;2007-07-15 23:00;CYQF 152300Z 36009KT 15SM -TSRA BKN040CB BKN100 24/18 A2989 RMK CB6AC2 HVYR SH SW-W-N-NE LTGCG SLP108

CYQF;2007-07-16 00:00;CYQF 160000Z 00000KT 15SM -TSRA FEW025 BKN040CB BKN100 OVC270 23/16 A2991 RMK CF1CB6AC1CI1 HVYR SH NE-E-S LTGCCCG SLP123

CYQF;2007-07-16 00:23;CYQF 160023Z 05008KT 15SM TS BKN040CB BKN100 BKN270 RMK CB5AC2CI1 SH E-SE-S LTGCCCG MAMMATUS

CYQF;2007-07-16 01:00;CYQF 160100Z 01006KT 15SM BKN040CB BKN100 BKN270 21/18 A2986 RETS RMK CB5AC2CI1 SH LTG DIST SE MAMMATUS SLP109

CYQF;2007-07-16 02:00;CYQF 160200Z 00000KT 15SM FEW040CB SCT100 BKN250 23/17 A2985 RMK CB2AC2CI2 CB DIST SE-S SLP105

CYQF;2007-07-16 03:00;CYQF 160300Z 00000KT 15SM FEW100 BKN250 23/16 A2983 RMK AC2CI4 SLP093

CYQF;2007-07-16 04:00;CYQF 160400Z 25005KT 15SM FEW040CB SCT100 BKN250 20/17 A2985 RMK CB2AC2CI3 CB DIST S-SW MAMMATUS SLP098

CYQF;2007-07-16 05:00;CYQF 160500Z 00000KT 15SM FEW040CB FEW100 BKN250 20/17 A2987 RMK CB2AC1CI5 CB SE MAMMATUS ACC ASOCTD SLP105

CYQF;2007-07-16 06:00;CYQF 160600Z 00000KT 15SM FEW040CB FEW100 BKN250 19/17 A2986 RMK CB2AC1CI3 SLP104

CYQF;2007-07-16 07:00;CYQF 160700Z 00000KT 15SM SCT080 18/16 A2986 RMK AC3 SLP104

CYQF;2007-07-16 08:00;CYQF 160800Z 00000KT 15SM BKN080 18/16 A2986 RMK AC5 SLP102

CYQF;2007-07-16 09:00;CYQF 160900Z 00000KT 15SM BKN080 18/16 A2986 RMK AC5 SLP101

CYQF;2007-07-16 10:00;CYQF 161000Z 00000KT 15SM BKN080 17/15 A2987 RMK AC7 SLP106

CYQF;2007-07-16 11:00;CYQF 161100Z 00000KT 15SM BKN080 17/15 A2988 RMK AC6 SLP107

CYQF;2007-07-16 12:00;CYQF 161200Z 29003KT 15SM SCT080 BKN250 16/15 A2990 RMK AC3CI1 SLP122

CYQF;2007-07-16 13:00;CYQF 161300Z 36006KT 5SM BR FEW010 BKN080 BKN250 18/16 A2991 RMK SC2AC2CI1 ACC ASOCTD SLP123

CYQF;2007-07-16 13:36;CYQF 161336Z 34005KT 5SM BR BKN012 BKN250 RMK SC6CI1

CYQF;2007-07-16 13:55;CYQF 161355Z 01004KT 5SM BR FEW010 FEW080 BKN250 RMK SC2AC1CI1 CIG LWR E-S-SW

CYQF;2007-07-16 14:00;CYQF 161400Z 36006KT 6SM BR FEW010 FEW080 BKN250 19/16 A2991 RMK SC1AC2CI1 SLP124

CYQF;2007-07-16 15:00;CYQF 161500Z 36006KT 15SM FEW018 FEW080 BKN250 20/15 A2992 RMK SC2AC1CI1 CB TOP DIST N SLP126

CYQF;2007-07-16 16:00;CYQF 161600Z 01006KT 15SM FEW020 FEW250 21/15 A2993 RMK SC2CI0 SLP127

CYQF;2007-07-16 17:00;CYQF 161700Z 35002KT 10SM SCT020 22/16 A2992 RMK CU3 SLP126

CYQF;2007-07-16 18:00;CYQF 161800Z 02008KT 12SM FEW025 BKN250 22/16 A2993 RMK CU2CI1 HZ SLP128

CYQF;2007-07-16 19:00;CYQF 161900Z 08002KT 12SM SCT025 BKN250 23/16 A2993 RMK CU3CI2 HZ SLP128

CYQF;2007-07-16 20:00;CYQF 162000Z 33002KT 12SM FEW025 OVC250 25/17 A2991 RMK CU2CI2 HZ SLP124

CYQF;2007-07-16 21:00;CYQF 162100Z 08006KT 10SM FEW025 OVC250 25/17 A2991 RMK CU1CI6 CU TR HZ SLP120

CYQF;2007-07-16 22:00;CYQF 162200Z 08008KT 10SM FEW030 BKN250 25/17 A2990 RMK CU2CI3 HZ SLP118

CYQF;2007-07-16 23:00;CYQF 162300Z CCA 07005KT 10SM FEW030CB SCT100 OVC250 24/17 A2990 RMK CB2AC1CI4 CB SW W HZ SLP118

CYQF;2007-07-17 00:00;CYQF 170000Z 00000KT 12SM FEW030CB FEW100 BKN250 24/18 A2990 RMK CB1AC1CI6 SLP119

CYQF;2007-07-17 01:00;CYQF 170100Z 05004KT 10SM FEW100 BKN250 25/18 A2989 RMK AC1CI6 SLP118

CYQF;2007-07-17 02:00;CYQF 170200Z 06004KT 12SM FEW100 BKN250 25/18 A2989 RMK AC2CI3 SLP117

CYQF;2007-07-17 03:00;CYQF 170300Z 05003KT 15SM FEW100 BKN250 23/18 A2989 RMK AC2CI2 SLP115

CYQF;2007-07-17 04:00;CYQF 170400Z 03006KT 15SM FEW100 BKN250 22/17 A2990 RMK AC2CI3 SLP118

CYQF;2007-07-17 05:00;CYQF 170500Z 03004KT 15SM FEW100 BKN250 20/15 A2992 RMK AC2CI2 SLP124

CYQF;2007-07-17 06:00;CYQF 170600Z 03003KT 15SM FEW100 BKN250 19/15 A2994 RMK AC1CI2 SLP132

CYQF;2007-07-17 07:00;CYQF 170700Z 01004KT 15SM BKN100 19/15 A2994 RMK AC6 SLP133

CYQF;2007-07-17 08:00;CYQF 170800Z 01005KT 15SM FEW100 BKN250 19/15 A2995 RMK AC2CI0 SLP134

CYQF;2007-07-17 09:00;CYQF 170900Z 35004KT 15SM SCT100 BKN250 17/15 A2994 RMK AC3CI0 SLP133

CYQF;2007-07-17 10:00;CYQF 171000Z 35004KT 15SM BKN100 OVC250 18/16 A2995 RMK AC6CI0 SLP134

CYQF;2007-07-17 11:00;CYQF 171100Z CCA 35003KT 10SM SCT100 BKN250 17/15 A2995 RMK ACC3CI0 ACC ALQDS HZ SLP134

CYQF;2007-07-17 12:00;CYQF 171200Z 35003KT 10SM FEW080 SCT150 BKN250 16/15 A2995 RMK AC2AC2CI1 ACC ASOCTD E HZ SLP137

CYQF;2007-07-17 13:00;CYQF 171300Z 36002KT 12SM FEW080 FEW150 BKN250 18/16 A2995 RMK AC1AC2CI1 HZ SLP138

CYQF;2007-07-17 14:00;CYQF 171400Z 36003KT 10SM FEW250 18/16 A2996 RMK CI1 BR SLP140

CYQF;2007-07-17 15:00;CYQF 171500Z 00000KT 10SM FEW090 SCT250 20/17 A2996 RMK AC2CI0 HZ SLP138

CYQF;2007-07-17 16:00;CYQF 171600Z 00000KT 10SM FEW020 FEW090 SCT250 23/18 A2997 RMK CF1AC1CI0 HZ SLP142

CYQF;2007-07-17 17:00;CYQF 171700Z 09003KT 12SM FEW020 FEW250 24/18 A2998 RMK CF1CI0 SLP143

CYQF;2007-07-17 18:00;CYQF 171800Z 06008KT 12SM FEW028 SCT250 25/18 A2996 RMK CF2CI0 SLP138

CYQF;2007-07-17 19:00;CYQF 171900Z 07003KT 12SM FEW030 SCT250 26/18 A2997 RMK CU2CI0 SLP139

CYQF;2007-07-17 20:00;CYQF 172000Z 06007KT 15SM SCT036 BKN270 28/19 A2996 RMK CU4CI0 SLP136

CYQF;2007-07-17 21:00;CYQF 172100Z 09010KT 12SM SCT040 28/18 A2995 RMK CU4 SLP130

CYQF;2007-07-17 22:00;CYQF 172200Z 12009KT 12SM SCT040 BKN270 29/19 A2993 RMK CU3CI2 SLP124

CYQF;2007-07-17 23:00;CYQF 172300Z 13010KT 12SM FEW040 BKN270 29/18 A2992 RMK CU2CI2 SLP121

CYQF;2007-07-18 00:00;CYQF 180000Z 12008KT 12SM FEW040 BKN270 29/18 A2991 RMK CU2CI3 DSPTNG CB TP DIST NW SLP117

CYQF;2007-07-18 01:00;CYQF 180100Z 13007KT 12SM FEW040 BKN270 28/18 A2990 RMK CU1CI5 CB TP DIST NW SLP114

CYQF;2007-07-18 02:00;CYQF 180200Z 10003KT 15SM FEW040 BKN270 27/19 A2991 RMK CU1CI5 SLP117

CYQF;2007-07-18 03:00;CYQF 180300Z 09002KT 12SM FEW030 FEW120 BKN270 25/18 A2991 RMK CU1AC1CI4 SLP119

CYQF;2007-07-18 04:00;CYQF 180400Z 05006KT 12SM FEW030CB SCT120 OVC270 24/18 A2993 RMK CB2AC2CI2 FQT LTGICCG W SLP123

CYQF;2007-07-18 04:42;CYQF 180442Z 08007KT 12SM TS SCT030CB BKN120 OVC270 RMK CB4AC2CI2 FQT LTGCCICCG

CYQF;2007-07-18 05:00;CYQF 180500Z 07007KT 12SM TS SCT025CB BKN080 OVC270 23/18 A2993 RMK CB4AC2CI1 FQT LTGCCICCG SLP125

CYQF;2007-07-18 05:42;CYQF 180542Z 30017G27KT 10SM -TSRA BKN023CB OVC080 RMK CB6AC2

CYQF;2007-07-18 05:53;CYQF 180553Z 29018G32KT 1SM +TSRA OVC023CB RMK CB8

CYQF;2007-07-18 06:00;CYQF 180600Z 30017G30KT 1SM +TSRA BR FEW006 OVC020CB 16/15 A3001 RMK SF2CB6 PRESRR SLP157

CYQF;2007-07-18 06:21;CYQF 180621Z CCA 28008KT 6SM -TSRA SCT006 OVC020CB RMK SF3CB5 RERA

CYQF;2007-07-18 06:23;CYQF 180623Z 28008KT 6SM -TSRA SCT006 OVC020CB RMK SF3CB5

CYQF;2007-07-18 06:37;CYQF 180637Z 02010KT 3SM +TSRA BR SCT006 OVC020CB RMK SF3CB5

CYQF;2007-07-18 06:49;CYQF 180649Z CCA 36012G20KT 8SM -TSRA SCT006 OVC020CB RMK SF3CB5 RERA

CYQF;2007-07-18 07:00;CYQF 180700Z 34011KT 10SM -TSRA FEW006 OVC020CB 18/16 A3000 RMK SF2CB6 FQT LTGICCCCGGC RERA PRES UNSTDY SLP155

CYQF;2007-07-18 08:00;CYQF 180800Z 02010KT 10SM -TSRA BKN020CB OVC050 17/15 A3000 RMK CB6SC2 LTGCCIC SLP153

CYQF;2007-07-18 09:00;CYQF 180900Z 00000KT 15SM -TSRA BKN020CB OVC050 17/16 A2999 RMK CB6SC2 SLP147

CYQF;2007-07-18 09:25;CYQF 180925Z 07006KT 6SM +TSRA BKN020CB OVC050 RMK CB6SC2

CYQF;2007-07-18 09:38;CYQF 180938Z 23013G20KT 3SM TSRA BR BKN020CB OVC050 RMK CB6SC2 FQT LTNG

CYQF;2007-07-18 10:00;CYQF 181000Z CCA 04004KT 8SM -TSRA OVC050CB 17/15 A3002 RMK CB8 RERA SLP154

CYQF;2007-07-18 10:17;CYQF 181017Z 07013G19KT 3SM TSRA OVC050CB RMK CB8

CYQF;2007-07-18 10:30;CYQF 181030Z 08013KT 6SM -TSRA OVC050CB RMK CB8 LTGICCG RERA

CYQF;2007-07-18 11:00;CYQF 181100Z 09010KT 10SM -TSRA BKN040 BKN100 OVC250 17/16 A2999 RMK SC6AC1CI2 CB EMBD N-SE LTGCCIC RERA SLP145

CYQF;2007-07-18 11:15;CYQF 181115Z 11012KT 8SM BKN040 BKN100 OVC250 RMK SC5AC1CI2 CB EMBD NE LTGCCIC

CYQF;2007-07-18 12:00;CYQF 181200Z 07006KT 10SM FEW040 BKN100 OVC250 18/16 A2996 RMK SC2AC2CI3 SLP136

CYQF;2007-07-18 13:00;CYQF 181300Z 00000KT 10SM BKN040 OVC250 19/15 A2998 RMK SC6CI2 CVCTV EMBD SH E SLP140

CYQF;2007-07-18 13:26;CYQF 181326Z 00000KT 10SM -TSRA BKN030CB OVC100 RMK CB5AC3

CYQF;2007-07-18 14:00;CYQF 181400Z 14006KT 10SM -TSRA BKN020CB OVC100 19/15 A3001 RMK CB5AC3 SLP151

CYQF;2007-07-18 14:51;CYQF 181451Z 05010KT 12SM -SHRA BKN025TCU BKN100 OVC250 RMK TCU5AC2CI1 HVR SHS NE QUAD

CYQF;2007-07-18 15:00;CYQF 181500Z 07009KT 12SM -SHRA SCT030TCU BKN090 OVC250 17/15 A2997 RMK TCU4AC2CI2 HVR SHS N-E SLP144

CYQF;2007-07-18 15:45;CYQF 181545Z 18003KT 15SM BKN090 BKN250 RMK AC5CI2 SHS DIST NE

CYQF;2007-07-18 16:00;CYQF 181600Z 19005KT 15SM FEW090 BKN120 BKN250 19/16 A2999 RMK AC2AC3CI1 SHS DIST NE SLP150

CYQF;2007-07-18 17:00;CYQF 181700Z 15004KT 12SM FEW025 FEW120 22/18 A2998 RMK CU1AC2 SLP145

CYQF;2007-07-18 18:00;CYQF 181800Z 15011KT 12SM BKN016 23/18 A2997 RMK CU7 SLP147

CYQF;2007-07-18 19:00;CYQF 181900Z 13013KT 15SM BKN024 24/18 A2996 RMK CU6 FEW TCU SLP143

CYQF;2007-07-18 20:00;CYQF 182000Z 14012KT 12SM BKN028 BKN090 OVC250 25/18 A2995 RMK CU5AC2CI1 FEW TCU SLP140

CYQF;2007-07-18 21:00;CYQF 182100Z 13010KT 12SM SCT030 BKN090 BKN250 26/19 A2994 RMK CU4AC2CI1 FEW TCU SLP130

CYQF;2007-07-18 22:00;CYQF 182200Z 12009KT 12SM SCT030 BKN090 BKN250 28/20 A2993 RMK CU4AC1CI1 TCU ASOCTD SLP126

CYQF;2007-07-18 23:00;CYQF 182300Z 14013KT 12SM SCT030 SCT090 BKN250 28/19 A2990 RMK CU3AC1CI0 TCU ASOCTD SLP117

CYQF;2007-07-19 00:00;CYQF 190000Z 13011KT 12SM FEW040 SCT250 29/19 A2987 RMK CU2CI0 SLP104

CYQF;2007-07-19 01:00;CYQF 190100Z 12010KT 12SM FEW040 FEW250 28/20 A2986 RMK CU1CI0 SLP100

CYQF;2007-07-19 02:00;CYQF 190200Z 12010KT 12SM FEW040 FEW250 27/20 A2985 RMK CU1CI0 SLP096

CYQF;2007-07-19 03:00;CYQF 190300Z 13010KT 15SM FEW030 FEW100 SCT250 26/19 A2984 RMK CU1AC1CI0 SLP098

CYQF;2007-07-19 04:00;CYQF 190400Z 12010KT 15SM FEW030 SCT250 24/18 A2985 RMK CU1CI2 SLP102

CYQF;2007-07-19 05:00;CYQF 190500Z 13010G17KT 15SM FEW030 BKN250 24/18 A2985 RMK CU2CI2 SLP101

CYQF;2007-07-19 06:00;CYQF 190600Z 15010KT 15SM FEW030 BKN250 23/18 A2983 RMK CU1CI2 SLP091

CYQF;2007-07-19 07:00;CYQF 190700Z 14012G18KT 15SM OVC250 23/17 A2983 RMK CI8 SLP089

CYQF;2007-07-19 08:00;CYQF 190800Z 17009KT 15SM OVC250 22/17 A2984 RMK CI8 SLP092

CYQF;2007-07-19 09:00;CYQF 190900Z 15005KT 15SM FEW020 OVC250 21/17 A2986 RMK CU2CI6 SLP099

CYQF;2007-07-19 10:00;CYQF 191000Z 11006KT 15SM SCT100 OVC250 21/17 A2980 RMK AC3CI5 SLP082

CYQF;2007-07-19 11:00;CYQF 191100Z 12005KT 15SM FEW100 OVC250 21/16 A2976 RMK AC1CI7 SLP068

CYQF;2007-07-19 12:00;CYQF 191200Z 14005KT 10SM SCT100 OVC250 22/17 A2977 RMK AC4CI4 SLP065

CYQF;2007-07-19 13:00;CYQF 191300Z 10003KT 12SM SCT070 BKN100 OVC250 21/16 A2977 RMK AC3AC2CI2 SLP065

CYQF;2007-07-19 14:00;CYQF 191400Z 24005KT 10SM TS FEW015CB BKN100 OVC250 20/17 A2980 RMK CB2AC3CI2 LTGCG SW SLP075

CYQF;2007-07-19 15:00;CYQF 191500Z 10007KT 12SM FEW040 SCT100 OVC270 20/17 A2977 RMK CU2AC2CI3 SHS DIST NW QUAD SLP070

CYQF;2007-07-19 16:00;CYQF 191600Z 15008KT 12SM FEW040 SCT100 BKN270 23/17 A2976 RMK CU2AC2CI2 FEW TCU SLP066

CYQF;2007-07-19 17:00;CYQF 191700Z 17009KT 12SM BKN030 24/18 A2977 RMK CU6 TCU ASCTD SLP070

CYQF;2007-07-19 18:00;CYQF 191800Z 21007KT 12SM BKN030 24/18 A2977 RMK CU5 TCU ASCTD SLP070

CYQF;2007-07-19 19:00;CYQF 191900Z 16007KT 15SM SCT030 SCT090 25/18 A2976 RMK CU3AC1 SLP067

CYQF;2007-07-19 20:00;CYQF 192000Z 21005KT 15SM FEW030 SCT090 26/18 A2976 RMK CU2AC1 SLP065

CYQF;2007-07-19 21:00;CYQF 192100Z 17003KT 15SM FEW030 SCT090 27/16 A2975 RMK CU2AC1 SLP061

CYQF;2007-07-19 22:00;CYQF 192200Z CCA 19003KT 15SM FEW040 FEW090 27/16 A2974 RMK CU1AC1 SLP057

CYQF;2007-07-19 23:00;CYQF 192300Z 16008KT 15SM FEW050 28/15 A2973 RMK CU1 SLP054

CYQF;2007-07-20 00:00;CYQF 200000Z 16012KT 15SM FEW050TCU FEW270 28/16 A2971 RMK TCU1CI0 SLP046

CYQF;2007-07-20 01:00;CYQF 200100Z 18010KT 15SM FEW050TCU FEW270 27/16 A2970 RMK TCU1CI0 SLP042

CYQF;2007-07-20 02:00;CYQF 200200Z 20008KT 15SM FEW040 FEW100 SCT270 26/16 A2970 RMK CU2AC1CI0 SLP042

CYQF;2007-07-20 03:00;CYQF 200300Z 18006KT 15SM FEW040 FEW270 22/12 A2971 RMK CU1CI0 SLP051

CYQF;2007-07-20 04:00;CYQF 200400Z 20006KT 15SM FEW040 FEW270 20/10 A2973 RMK CU1CI1 TCU DIST N SLP057

CYQF;2007-07-20 05:00;CYQF 200500Z 21006KT 15SM FEW040 19/09 A2976 RMK SC1 SLP066

CYQF;2007-07-20 06:00;CYQF 200600Z 23007KT 15SM FEW040 16/08 A2978 RMK SC1 SLP079

CYQF;2007-07-20 07:00;CYQF 200700Z 00000KT 15SM SKC 16/08 A2982 RMK SLP090

CYQF;2007-07-20 08:00;CYQF 200800Z 00000KT 15SM SKC 15/09 A2983 RMK SLP093

CYQF;2007-07-20 09:00;CYQF 200900Z 00000KT 15SM FEW250 13/09 A2983 RMK CI2 SLP098

CYQF;2007-07-20 10:00;CYQF 201000Z CCA 00000KT 15SM SKC 12/10 A2985 RMK OBS TAKEN +12 SLP102

CYQF;2007-07-20 11:00;CYQF 201100Z 31003KT 15SM SKC 11/08 A2985 RMK SLP102

CYQF;2007-07-20 12:00;CYQF 201200Z 25005KT 15SM SKC 10/08 A2985 RMK SLP105

CYQF;2007-07-20 13:00;CYQF 201300Z 18005KT 15SM SKC 12/09 A2985 RMK SLP105

CYQF;2007-07-20 14:00;CYQF 201400Z 00000KT 15SM FEW250 15/10 A2986 RMK CI1 SLP108

CYQF;2007-07-20 15:00;CYQF 201500Z 00000KT 15SM FEW250 19/10 A2985 RMK CI1 SLP102

CYQF;2007-07-20 16:00;CYQF 201600Z 15006KT 15SM FEW100 SCT250 21/10 A2985 RMK AC1CI1 ACC ASOCTD SLP102

CYQF;2007-07-20 17:00;CYQF 201700Z 16006KT 15SM FEW100 BKN250 22/10 A2984 RMK AC2CI2 ACC ASOCTD SLP099

CYQF;2007-07-20 18:00;CYQF 201800Z 20006KT 15SM FEW050 FEW140 BKN250 22/11 A2983 RMK CU1AC2CI2 SLP096

CYQF;2007-07-20 19:00;CYQF 201900Z 16010KT 15SM FEW055 BKN250 24/10 A2981 RMK CU1CI2 SLP090

CYQF;2007-07-20 20:00;CYQF 202000Z 17010KT 15SM FEW060 SCT250 24/09 A2979 RMK CU1CI2 CC ASOCTD SLP085

CYQF;2007-07-20 21:00;CYQF 202100Z 14010KT 15SM FEW060 FEW250 25/10 A2977 RMK CU1CI1 CC ASOCTD SLP080

CYQF;2007-07-20 22:00;CYQF 202200Z 12008KT 15SM FEW060 FEW250 26/10 A2975 RMK CU1CI1 SLP073

CYQF;2007-07-20 23:00;CYQF 202300Z 13013KT 15SM FEW060 FEW250 26/10 A2975 RMK CU1CI1 SLP071

CYQF;2007-07-21 00:00;CYQF 210000Z 13010KT 15SM FEW060 BKN250 26/10 A2973 RMK CU1CI1 SLP067

CYQF;2007-07-21 01:00;CYQF 210100Z 12010KT 15SM FEW050 FEW100 BKN250 25/12 A2972 RMK CU1AC2CI1 TR CU SLP062

CYQF;2007-07-21 02:00;CYQF 210200Z 13005KT 15SM FEW050 SCT100 BKN250 22/12 A2971 RMK CU2AC2CI1 SLP059

CYQF;2007-07-21 03:00;CYQF 210300Z 36002KT 15SM FEW050 SCT100 BKN250 22/11 A2969 RMK CU2AC2CI1 SLP049

CYQF;2007-07-21 04:00;CYQF 210400Z 16004KT 15SM FEW050 BKN090 BKN250 21/11 A2968 RMK SC2AC3CI1 SLP046

CYQF;2007-07-21 05:00;CYQF 210500Z 17007KT 15SM FEW050 SCT090 BKN250 19/12 A2968 RMK SC2AC2CI2 SLP046

CYQF;2007-07-21 06:00;CYQF 210600Z 19005KT 15SM FEW050 SCT090 BKN250 18/13 A2970 RMK SC2AC2CI2 SLP052

CYQF;2007-07-21 07:00;CYQF 210700Z 20005KT 15SM FEW090 SCT250 16/10 A2969 RMK AC2CI2 SLP049

CYQF;2007-07-21 08:00;CYQF 210800Z 23009KT 15SM FEW090 SCT250 15/09 A2969 RMK AC1CI2 SLP050

CYQF;2007-07-21 09:00;CYQF 210900Z 24008KT 15SM FEW090 SCT250 16/10 A2970 RMK AC2CI2 SLP050

CYQF;2007-07-21 10:00;CYQF 211000Z 00000KT 15SM FEW090 BKN250 15/10 A2973 RMK AC1CI2 SLP061

CYQF;2007-07-21 11:00;CYQF 211100Z 19004KT 15SM FEW090 BKN250 13/09 A2976 RMK AC2CI2 SLP069

CYQF;2007-07-21 12:00;CYQF 211200Z 23005KT 15SM SCT090 BKN250 13/09 A2976 RMK AC3CI2 SLP076

CYQF;2007-07-21 13:00;CYQF 211300Z 00000KT 15SM FEW100 BKN250 13/10 A2979 RMK AC2CI2 SLP084

CYQF;2007-07-21 14:00;CYQF 211400Z 00000KT 15SM FEW090 BKN220 17/11 A2982 RMK AC1CI3 SLP092

CYQF;2007-07-21 15:00;CYQF 211500Z 00000KT 15SM FEW090 BKN250 18/11 A2983 RMK AC1CI2 SLP098

CYQF;2007-07-21 16:00;CYQF 211600Z 21004KT 15SM FEW090 BKN250 19/12 A2984 RMK AC1CI2 SLP099

CYQF;2007-07-21 17:00;CYQF 211700Z 00000KT 15SM FEW060 SCT250 21/13 A2984 RMK CU1CI0 SLP099

CYQF;2007-07-21 18:00;CYQF 211800Z 00000KT 15SM FEW060 SCT250 22/12 A2984 RMK CU1CI0 SLP101

CYQF;2007-07-21 19:00;CYQF 211900Z 17004KT 15SM FEW060 SCT250 24/12 A2984 RMK CU1CI1 SLP101

CYQF;2007-07-21 20:00;CYQF 212000Z 23003KT 15SM FEW060 FEW250 25/12 A2984 RMK CU1CI0 SLP099

CYQF;2007-07-21 21:00;CYQF 212100Z 17004KT 15SM FEW060 SCT250 25/11 A2984 RMK CU1CI1 SLP098

CYQF;2007-07-21 22:00;CYQF 212200Z 21004KT 15SM FEW060 SCT250 26/11 A2983 RMK CU1CI1 SLP097

CYQF;2007-07-21 23:00;CYQF 212300Z 23006KT 15SM FEW060 SCT250 26/10 A2984 RMK CU1CI2 SLP100

CYQF;2007-07-22 00:00;CYQF 220000Z 00000KT 15SM FEW065 BKN280 27/09 A2984 RMK CU1CI2 SLP100

CYQF;2007-07-22 01:00;CYQF 220100Z 18005KT 15SM FEW065 SCT120 BKN280 26/10 A2985 RMK CU1AC2CI2 SLP104

CYQF;2007-07-22 02:00;CYQF 220200Z 18003KT 15SM BKN120 OVC280 24/15 A2986 RMK AC6CI2 SLP106

CYQF;2007-07-22 03:00;CYQF 220300Z 00000KT 15SM SCT120 OVC250 23/16 A2986 RMK AC3CI3 SLP106

CYQF;2007-07-22 04:00;CYQF 220400Z 00000KT 15SM FEW120 BKN250 21/14 A2987 RMK AC2CI1 SLP110

CYQF;2007-07-22 05:00;CYQF 220500Z 31004KT 15SM FEW120 BKN250 19/13 A2989 RMK AC2CI1 SLP115

CYQF;2007-07-22 06:00;CYQF 220600Z 14003KT 15SM SCT120 BKN250 18/13 A2989 RMK AC3CI2 SLP116

CYQF;2007-07-22 07:00;CYQF 220700Z 00000KT 15SM SCT100 BKN250 16/12 A2989 RMK AC3CI2 SLP118

CYQF;2007-07-22 08:00;CYQF 220800Z 00000KT 15SM SCT100 SCT250 16/14 A2989 RMK AC3CI1 SLP117

CYQF;2007-07-22 09:00;CYQF 220900Z 00000KT 15SM SCT100 SCT250 16/12 A2989 RMK AC3CI1 SLP116

CYQF;2007-07-22 10:00;CYQF 221000Z 00000KT 15SM SCT100 BKN250 14/12 A2990 RMK AC4CI2 SLP120

CYQF;2007-07-22 11:00;CYQF 221100Z 19002KT 15SM SCT100 BKN250 13/11 A2992 RMK AC3CI2 SLP125

CYQF;2007-07-22 12:00;CYQF 221200Z 00000KT 15SM FEW090 SCT120 BKN250 14/11 A2993 RMK AC2AC2CI2 SLP131

CYQF;2007-07-22 13:00;CYQF 221300Z 00000KT 15SM SCT090 BKN250 14/11 A2994 RMK AC4CI2 SLP132

CYQF;2007-07-22 14:00;CYQF 221400Z 00000KT 15SM FEW090 SCT250 16/12 A2995 RMK AC1CI1 SLP135

CYQF;2007-07-22 15:00;CYQF 221500Z 21004KT 15SM FEW090 FEW250 19/13 A2996 RMK AC1CI1 SLP139

CYQF;2007-07-22 16:00;CYQF 221600Z 21008KT 15SM FEW090 FEW250 23/12 A2996 RMK AC1CI1 SLP139

CYQF;2007-07-22 17:00;CYQF 221700Z 22008KT 15SM FEW050 FEW100 FEW250 25/14 A2995 RMK CU1AC1CI1 TR CU SLP138

CYQF;2007-07-22 18:00;CYQF 221800Z 22010KT 15SM FEW050 SCT100 BKN250 26/14 A2994 RMK CU1AC3CI0 SLP128

CYQF;2007-07-22 19:00;CYQF 221900Z 22010KT 15SM FEW050 FEW100 BKN250 28/14 A2994 RMK CU1AC2CI1 SLP130

CYQF;2007-07-22 20:00;CYQF 222000Z 17003KT 15SM FEW060 FEW100 BKN250 27/13 A2994 RMK CU1AC2CI1 SLP130

CYQF;2007-07-22 21:00;CYQF 222100Z 20006KT 15SM FEW060 FEW140 BKN250 29/15 A2994 RMK CU1AC2CI1 SLP129

CYQF;2007-07-22 22:00;CYQF 222200Z 21007KT 15SM FEW060 FEW140 SCT250 30/15 A2995 RMK CU1AC2CI1 SLP130

CYQF;2007-07-22 23:00;CYQF 222300Z 19006KT 15SM FEW060 FEW140 BKN250 29/14 A2995 RMK SC1AC2CI1 SLP131

CYQF;2007-07-23 00:00;CYQF 230000Z 18010KT 15SM FEW060 FEW140 SCT250 30/15 A2993 RMK SC1AC1CI1 SLP128

CYQF;2007-07-23 01:00;CYQF 230100Z 20006KT 15SM FEW060 FEW140 SCT250 29/15 A2993 RMK SC1AC1CI1 SLP126

CYQF;2007-07-23 02:00;CYQF 230200Z 22007KT 15SM FEW060 FEW140 FEW250 27/16 A2993 RMK SC1AC1CI1 SLP128

CYQF;2007-07-23 03:00;CYQF 230300Z 21012KT 15SM FEW060 FEW140 SCT250 25/17 A2995 RMK SC1AC1CI2 SLP135

CYQF;2007-07-23 04:00;CYQF 230400Z 24010KT 15SM FEW060 FEW140 BKN250 22/15 A2997 RMK SC1AC1CI1 SC TR SLP140

CYQF;2007-07-23 05:00;CYQF 230500Z 27005KT 15SM FEW140 BKN250 21/14 A2999 RMK AC1CI1 SLP146

CYQF;2007-07-23 06:00;CYQF 230600Z 15004KT 15SM FEW120 SCT250 20/15 A3000 RMK AC2CI2 SLP148

CYQF;2007-07-23 07:00;CYQF 230700Z 00000KT 15SM FEW120 FEW250 17/14 A3000 RMK AC2CI1 SLP148

CYQF;2007-07-23 08:00;CYQF 230800Z 00000KT 15SM FEW250 17/14 A2999 RMK CI2 SLP146

CYQF;2007-07-23 09:00;CYQF 230900Z 30004KT 15SM FEW100 16/14 A2999 RMK AC1 SLP147

CYQF;2007-07-23 10:00;CYQF 231000Z 32004KT 15SM FEW100 16/13 A2999 RMK AC1 SLP145

CYQF;2007-07-23 11:00;CYQF 231100Z 19005KT 15SM FEW100 15/13 A2999 RMK AC2 SLP147

CYQF;2007-07-23 12:00;CYQF 231200Z 30004KT 15SM FEW120 15/12 A3001 RMK AC2 SLP153

CYQF;2007-07-23 13:00;CYQF 231300Z 00000KT 15SM FEW100 16/12 A3000 RMK AC1 SLP151

CYQF;2007-07-23 14:00;CYQF 231400Z 29002KT 15SM FEW100 19/14 A3000 RMK AC1 SLP151

CYQF;2007-07-23 15:00;CYQF 231500Z 00000KT 15SM FEW100 21/15 A3000 RMK AC1 SLP148

CYQF;2007-07-23 16:00;CYQF 231600Z 12004KT 15SM FEW100 24/15 A2998 RMK AC1 SLP144

CYQF;2007-07-23 17:00;CYQF 231700Z 15005KT 15SM FEW090 26/15 A2997 RMK AC1 SLP141

CYQF;2007-07-23 18:00;CYQF 231800Z 25003KT 15SM FEW040 FEW090 27/16 A2997 RMK CU1AC1 SLP137

CYQF;2007-07-23 19:00;CYQF 231900Z 00000KT 15SM FEW040 28/16 A2995 RMK CU1 SLP133

CYQF;2007-07-23 20:00;CYQF 232000Z 20002KT 15SM FEW040 29/18 A2993 RMK CU1 SLP126

CYQF;2007-07-23 21:00;CYQF 232100Z 13008KT 15SM FEW056 30/17 A2991 RMK CU1 SLP117

CYQF;2007-07-23 22:00;CYQF 232200Z 13008KT 15SM FEW060 31/14 A2988 RMK CU1 TCU W SLP109

CYQF;2007-07-23 23:00;CYQF 232300Z 13010G15KT 15SM FEW060 31/16 A2985 RMK CU1 CB TOP S SLP100

CYQF;2007-07-24 00:00;CYQF 240000Z CCA 13010KT 15SM FEW060TCU FEW100 FEW250 31/16 A2983 RMK TCU1AC1CC1 VIRGA W CB TOPS SLP089

CYQF;2007-07-24 01:00;CYQF 240100Z 12005KT 15SM FEW040CB SCT100 SCT250 28/17 A2980 RMK CB2AC1CI1 SH W LTGCCCG SLP080

CYQF;2007-07-24 02:00;CYQF 240200Z 14006KT 15SM FEW060 SCT100 SCT250 28/17 A2978 RMK CU2ACC2CI1 CB TOPS W-NW-N SLP076

CYQF;2007-07-24 03:00;CYQF 240300Z 35004KT 15SM BKN060TCU 27/17 A2977 RMK TCU6 SLP066

CYQF;2007-07-24 04:00;CYQF 240400Z 33015G20KT 15SM BKN060TCU 23/16 A2980 RMK TCU5 CB ASOCTD OCNL LTNG DIST NW-N SLP076

CYQF;2007-07-24 05:00;CYQF 240500Z 36010G16KT 15SM FEW060CB 20/15 A2981 RMK CB1 FQT LTNG DIST W-NW-N SLP079

CYQF;2007-07-24 06:00;CYQF 240600Z 01010KT 15SM FEW050CB 19/15 A2979 RMK CB1 LTGICCCCG W-N SLP077

CYQF;2007-07-24 07:00;CYQF 240700Z 02004KT 15SM FEW030CB 18/15 A2979 RMK CB1 LTGICCG W-N SLP077

CYQF;2007-07-24 08:00;CYQF 240800Z 32006KT 15SM FEW030CB 17/14 A2979 RMK CB2 LTGCG SW-NW SLP076

CYQF;2007-07-24 09:00;CYQF 240900Z 36002KT 15SM FEW050 SCT100 18/15 A2980 RMK SC1AC2 LTNG DIST N SLP078

CYQF;2007-07-24 10:00;CYQF 241000Z 00000KT 15SM FEW040 FEW100 16/14 A2981 RMK SC1AC1 SLP081

CYQF;2007-07-24 11:00;CYQF 241100Z 30005KT 15SM FEW030 SCT100 15/14 A2980 RMK CU1AC2 SLP077

CYQF;2007-07-24 12:00;CYQF 241200Z 30010KT 15SM SCT030 BKN100 16/14 A2983 RMK CU3AC2 CB TOP DIST N VIRGA W SLP090

CYQF;2007-07-24 13:00;CYQF 241300Z 31011KT 15SM FEW010 SCT040 BKN090 16/14 A2984 RMK SF1CU3AC2 CB TOP SW SLP093

CYQF;2007-07-24 13:27;CYQF 241327Z 34005KT 15SM BKN008 BKN040 RMK SF6CU2

CYQF;2007-07-24 13:42;CYQF 241342Z 34008KT 15SM SCT008 BKN040 BKN090 RMK SF3CU2AC1

CYQF;2007-07-24 14:00;CYQF 241400Z 32004KT 10SM BKN007 BKN040 OVC090 17/15 A2987 RMK SF5CU2AC2 BR SLP101

CYQF;2007-07-24 14:32;CYQF 241432Z 32004KT 12SM SCT007 SCT040 BKN090 RMK SF2CU2AC2

CYQF;2007-07-24 15:00;CYQF 241500Z 36008KT 15SM FEW010 FEW045 SCT090 19/15 A2986 RMK SF1CU2AC2 SLP100

CYQF;2007-07-24 16:00;CYQF 241600Z 36004KT 15SM FEW010 FEW045 BKN090 20/15 A2987 RMK SF1CU2AC3 SLP104

CYQF;2007-07-24 17:00;CYQF 241700Z 02010G15KT 15SM FEW020 FEW050 SCT090 20/14 A2987 RMK CF1CU1AC2 SLP103

CYQF;2007-07-24 18:00;CYQF 241800Z 33010G15KT 15SM SCT025 BKN090 20/14 A2987 RMK CU4AC2 SLP110

CYQF;2007-07-24 19:00;CYQF 241900Z 33008KT 15SM BKN025 BKN090 21/14 A2987 RMK CU5AC2 SLP112

CYQF;2007-07-24 20:00;CYQF 242000Z 01005KT 15SM BKN025 BKN090 21/14 A2987 RMK CU6AC2 TCU ASOCTD SLP111

CYQF;2007-07-24 21:00;CYQF 242100Z 03008KT 15SM SCT030TCU BKN090 22/15 A2987 RMK TCU4AC2 SLP111

CYQF;2007-07-24 22:00;CYQF 242200Z 02007KT 15SM SCT030TCU 22/14 A2988 RMK TCU4 SLP115

CYQF;2007-07-24 23:00;CYQF 242300Z 04010G15KT 15SM SCT030TCU 23/15 A2988 RMK TCU4 CB ASOCTD SLP115

CYQF;2007-07-25 00:00;CYQF 250000Z 02010KT 15SM SCT030CB 22/14 A2990 RMK CB4 SLP122

CYQF;2007-07-25 01:00;CYQF 250100Z 03010G15KT 15SM FEW035CB 20/11 A2992 RMK CB2 SLP128

CYQF;2007-07-25 02:00;CYQF 250200Z 03005KT 15SM FEW035CB SCT270 19/11 A2992 RMK CB2CI0 SLP130

CYQF;2007-07-25 03:00;CYQF 250300Z 03004KT 15SM FEW035CB SCT270 19/11 A2994 RMK CB2CI0 SLP135

CYQF;2007-07-25 04:00;CYQF 250400Z 02002KT 15SM FEW035 SCT270 17/11 A2995 RMK SC2CI0 CB TOP DIST SE SLP140

CYQF;2007-07-25 05:00;CYQF 250500Z 34004KT 15SM FEW040 SCT270 14/11 A2997 RMK SC2CI0 SLP145

CYQF;2007-07-25 06:00;CYQF 250600Z 33003KT 15SM FEW040 SCT270 14/10 A2998 RMK SC2CI0 SLP156

CYQF;2007-07-25 07:00;CYQF 250700Z 23002KT 15SM FEW040 12/10 A3002 RMK SC2 OBS TAKEN +20 SLP166

CYQF;2007-07-25 08:00;CYQF 250800Z 00000KT 15SM SKC 12/10 A3003 RMK SLP169

CYQF;2007-07-25 09:00;CYQF 250900Z 25002KT 15SM FEW080 11/10 A3004 RMK AC2 OBS TAKEN +6 SLP174

CYQF;2007-07-25 10:00;CYQF 251000Z 26002KT 15SM FEW080 11/10 A3005 RMK AC2 SLP178

CYQF;2007-07-25 11:00;CYQF 251100Z 00000KT 15SM FEW050 11/10 A3006 RMK SC2 SLP182

CYQF;2007-07-25 12:00;CYQF 251200Z 00000KT 15SM FEW050 10/09 A3007 RMK SC2 SLP188

CYQF;2007-07-25 13:00;CYQF 251300Z 16002KT 15SM FEW050 11/10 A3007 RMK SC2 SLP188

CYQF;2007-07-25 14:00;CYQF 251400Z 00000KT 15SM FEW050 SCT070 12/10 A3008 RMK SC1ACC4 SLP191

CYQF;2007-07-25 15:00;CYQF 251500Z 05002KT 15SM BKN070 BKN230 15/08 A3009 RMK ACC5CC2 SLP193

CYQF;2007-07-25 16:00;CYQF 251600Z 02007KT 15SM BKN070 15/06 A3009 RMK AC7 ACC ASOCTD SLP192

CYQF;2007-07-25 17:00;CYQF 251700Z 06004KT 15SM BKN070 17/07 A3010 RMK AC6 ACC ASOCTD SLP195

CYQF;2007-07-25 18:00;CYQF 251800Z 09006KT 15SM FEW045 BKN070 18/06 A3010 RMK CU1AC6 ACC ASOCTD SLP198

CYQF;2007-07-25 19:00;CYQF 251900Z 10005KT 15SM FEW045 BKN070 19/09 A3008 RMK CU1AC4 ACC ASOCTD SLP194

CYQF;2007-07-25 20:00;CYQF 252000Z 20004KT 15SM SCT050 BKN080 20/07 A3009 RMK CU3AC3 SLP196

CYQF;2007-07-25 21:00;CYQF 252100Z 00000KT 15SM SCT050 BKN090 19/07 A3010 RMK CU3AC2 SLP199

CYQF;2007-07-25 22:00;CYQF 252200Z 00000KT 15SM FEW050 FEW090 20/07 A3008 RMK CU1AC1 SLP195

CYQF;2007-07-25 23:00;CYQF 252300Z CCA 11003KT 15SM FEW040 FEW250 21/10 A3008 RMK CU1CI1 CB TOP S SLP194

CYQF;2007-07-26 00:00;CYQF 260000Z 00000KT 15SM FEW050 FEW250 21/08 A3008 RMK CU1CI0 SLP194

CYQF;2007-07-26 01:00;CYQF 260100Z CCA 00000KT 15SM FEW050 FEW250 21/07 A3009 RMK CU1CI1 SLP196

CYQF;2007-07-26 02:00;CYQF 260200Z 00000KT 15SM SKC 21/07 A3010 RMK SLP198

CYQF;2007-07-26 03:00;CYQF 260300Z 00000KT 15SM SKC 20/08 A3011 RMK SLP198

CYQF;2007-07-26 04:00;CYQF 260400Z 09004KT 15SM SKC 17/09 A3012 RMK SLP202

CYQF;2007-07-26 05:00;CYQF 260500Z 00000KT 15SM SKC 15/09 A3013 RMK SLP206

CYQF;2007-07-26 06:00;CYQF 260600Z 00000KT 15SM SKC 13/09 A3014 RMK SLP214

CYQF;2007-07-26 07:00;CYQF 260700Z 21004KT 15SM SKC 11/08 A3015 RMK SLP217

CYQF;2007-07-26 08:00;CYQF 260800Z 22003KT 15SM SKC 11/08 A3015 RMK SLP217

CYQF;2007-07-26 09:00;CYQF 260900Z 21003KT 15SM SKC 10/07 A3015 RMK SLP218

CYQF;2007-07-26 10:00;CYQF 261000Z 00000KT 15SM SKC 11/07 A3015 RMK SLP218

CYQF;2007-07-26 11:00;CYQF 261100Z 00000KT 15SM SKC 10/06 A3014 RMK SLP216

CYQF;2007-07-26 12:00;CYQF 261200Z 17003KT 15SM SKC 11/07 A3014 RMK SLP212

CYQF;2007-07-26 13:00;CYQF 261300Z 00000KT 15SM FEW250 12/08 A3014 RMK CI1 SLP213

CYQF;2007-07-26 14:00;CYQF 261400Z 14006KT 15SM FEW250 15/10 A3013 RMK CI2 SLP209

CYQF;2007-07-26 15:00;CYQF 261500Z 15010KT 15SM FEW250 18/10 A3012 RMK CI1 SLP201

CYQF;2007-07-26 16:00;CYQF 261600Z CCA 15010G18KT 15SM FEW250 20/10 A3011 RMK CI1 SLP197

CYQF;2007-07-26 17:00;CYQF 261700Z 17015G20KT 15SM FEW250 22/11 A3010 RMK CI1 SLP193

CYQF;2007-07-26 18:00;CYQF 261800Z 16020G30KT 15SM FEW250 23/10 A3008 RMK CI1 SLP187

CYQF;2007-07-26 19:00;CYQF 261900Z 16015G30KT 15SM FEW250 24/11 A3006 RMK CI1 SLP181

CYQF;2007-07-26 20:00;CYQF 262000Z 16020G27KT 15SM FEW050 FEW250 25/11 A3005 RMK CU1CI1 SLP176

CYQF;2007-07-26 21:00;CYQF 262100Z 18015G20KT 15SM FEW055 FEW250 26/12 A3003 RMK CU1CI1 SLP168

CYQF;2007-07-26 22:00;CYQF 262200Z 18015G21KT 15SM FEW060TCU SCT100 BKN250 25/11 A3001 RMK TCU1AC3CI2 SLP163

CYQF;2007-07-26 23:00;CYQF 262300Z 17015G20KT 15SM FEW060TCU SCT100 BKN250 27/12 A2999 RMK TCU1AC2CI2 SLP157

CYQF;2007-07-27 00:00;CYQF 270000Z 15010G15KT 15SM FEW060 FEW100 SCT250 27/12 A2997 RMK CU1AC1CI0 SLP149

CYQF;2007-07-27 01:00;CYQF 270100Z 15008KT 15SM FEW060 FEW250 26/12 A2996 RMK CU1CI1 SLP145

CYQF;2007-07-27 02:00;CYQF 270200Z 13006KT 15SM FEW050 FEW250 24/13 A2995 RMK CU1CI1 SLP143

CYQF;2007-07-27 03:00;CYQF 270300Z 12006KT 15SM FEW040 FEW100 FEW250 23/12 A2995 RMK CU1AC1CI0 SLP137

CYQF;2007-07-27 04:00;CYQF 270400Z 03004KT 15SM FEW035 FEW100 FEW250 21/11 A2996 RMK CU1AC1CI1 SLP141

CYQF;2007-07-27 05:00;CYQF 270500Z 09003KT 15SM FEW035 BKN075 19/12 A2995 RMK CU2AC2 SH W SLP139

CYQF;2007-07-27 05:25;CYQF 270525Z 33005KT 15SM TS SCT025CB BKN100 RMK CB3AC2 SH N LTGCG

CYQF;2007-07-27 06:00;CYQF 270600Z 03005KT 15SM SCT070CB SCT100 20/10 A2995 RMK CB3AC1 LTGICCCCG N-NE SLP133

CYQF;2007-07-27 07:00;CYQF 270700Z 07008KT 15SM SCT100 21/10 A2995 RMK AC3 LTNG DIST NE SLP134

CYQF;2007-07-27 08:00;CYQF 270800Z 09005KT 15SM SKC 18/10 A2994 RMK SLP132

CYQF;2007-07-27 09:00;CYQF 270900Z 10005KT 15SM SKC 17/10 A2994 RMK SLP131

CYQF;2007-07-27 10:00;CYQF 271000Z 00000KT 15SM SKC 16/09 A2994 RMK SLP130

CYQF;2007-07-27 11:00;CYQF 271100Z 00000KT 15SM SKC 13/09 A2994 RMK SLP130

CYQF;2007-07-27 12:00;CYQF 271200Z 00000KT 15SM FEW100 SCT250 11/09 A2993 RMK AC1CI1 OBS TAKEN +10 SLP133

CYQF;2007-07-27 13:00;CYQF 271300Z 25003KT 15SM FEW100 BKN250 14/10 A2993 RMK AC1CI2 SLP133

CYQF;2007-07-27 14:00;CYQF 271400Z 24004KT 15SM SCT110 BKN250 17/11 A2993 RMK AC2CI2 ACC ASOCTD NW SLP134

CYQF;2007-07-27 15:00;CYQF 271500Z 23004KT 15SM FEW110 FEW250 18/13 A2993 RMK AC1CI1 SLP131

CYQF;2007-07-27 16:00;CYQF 271600Z 24004KT 15SM FEW250 20/12 A2993 RMK CI1 SLP131

CYQF;2007-07-27 17:00;CYQF 271700Z 24004KT 15SM FEW250 22/13 A2992 RMK CI2 SLP128

CYQF;2007-07-27 18:00;CYQF 271800Z 00000KT 15SM SCT250 25/14 A2992 RMK CI2 SLP121

CYQF;2007-07-27 19:00;CYQF 271900Z 00000KT 15SM BKN250 26/16 A2991 RMK CI3 SLP118

CYQF;2007-07-27 20:00;CYQF 272000Z 15003KT 15SM FEW050 BKN260 27/16 A2989 RMK CU1CI2 SLP112

CYQF;2007-07-27 21:00;CYQF 272100Z 15004KT 15SM FEW050 FEW260 30/11 A2988 RMK CU1CI1 SLP107

CYQF;2007-07-27 22:00;CYQF 272200Z 15003KT 15SM FEW080 FEW260 30/11 A2987 RMK CU1CI0 SLP103

CYQF;2007-07-27 23:00;CYQF 272300Z 13006KT 15SM FEW070 FEW260 30/12 A2985 RMK CU1CI1 SLP098

CYQF;2007-07-28 00:00;CYQF 280000Z 12010KT 15SM FEW070 SCT260 30/13 A2984 RMK CU1CI1 SLP098

CYQF;2007-07-28 01:00;CYQF 280100Z 09007KT 15SM FEW070 BKN260 29/16 A2983 RMK CU1CI1 SLP095

CYQF;2007-07-28 02:00;CYQF 280200Z 07005KT 15SM FEW070 BKN250 27/17 A2983 RMK AC2CI1 SLP096

CYQF;2007-07-28 03:00;CYQF 280300Z 07005KT 15SM FEW090 BKN250 25/17 A2983 RMK AC2CI2 ACC ASCTD SLP091

CYQF;2007-07-28 04:00;CYQF 280400Z 09003KT 15SM FEW090 BKN260 23/16 A2984 RMK AC2CI1 SLP094

CYQF;2007-07-28 05:00;CYQF 280500Z 00000KT 15SM FEW090 SCT250 21/14 A2984 RMK AC2CI0 SLP094

CYQF;2007-07-28 06:00;CYQF 280600Z 00000KT 15SM FEW090 BKN250 19/14 A2984 RMK AC2CI2 SLP096

CYQF;2007-07-28 07:00;CYQF 280700Z CCA 03002KT 15SM FEW090 BKN250 19/13 A2985 RMK AC2CI2 SLP098

CYQF;2007-07-28 08:00;CYQF 280800Z 31002KT 15SM FEW090 SCT250 17/13 A2985 RMK AC1CI2 SLP097

CYQF;2007-07-28 09:00;CYQF 280900Z 36002KT 15SM FEW090 SCT250 17/13 A2985 RMK AC1CI2 SLP095

CYQF;2007-07-28 10:00;CYQF 281000Z 01005KT 15SM FEW090 SCT250 17/13 A2985 RMK AC1CI2 SLP095

CYQF;2007-07-28 11:00;CYQF 281100Z 01005KT 15SM FEW090 SCT250 17/14 A2985 RMK AC1CI1 SLP095

CYQF;2007-07-28 12:00;CYQF 281200Z 00000KT 15SM FEW090 SCT250 16/13 A2985 RMK AC1CI1 SLP097

CYQF;2007-07-28 13:00;CYQF 281300Z 28005KT 15SM FEW090 SCT250 15/13 A2986 RMK AC1CI1 SLP102

CYQF;2007-07-28 14:00;CYQF 281400Z 35006KT 15SM FEW250 18/15 A2989 RMK CI1 SLP109

CYQF;2007-07-28 15:00;CYQF 281500Z 03005KT 15SM FEW250 20/16 A2989 RMK CI1 SLP110

CYQF;2007-07-28 16:00;CYQF 281600Z 01003KT 15SM FEW250 22/15 A2989 RMK CI1 SLP111

CYQF;2007-07-28 17:00;CYQF 281700Z 00000KT 15SM SKC 23/16 A2988 RMK SLP109

CYQF;2007-07-28 18:00;CYQF 281800Z 00000KT 15SM SKC 25/17 A2988 RMK SLP108

CYQF;2007-07-28 19:00;CYQF 281900Z 10004KT 15SM SKC 27/16 A2988 RMK SLP108

CYQF;2007-07-28 20:00;CYQF 282000Z 10004KT 15SM SKC 27/17 A2987 RMK SLP105

CYQF;2007-07-28 21:00;CYQF 282100Z 12003KT 15SM FEW050 27/17 A2986 RMK CU1 SLP102

CYQF;2007-07-28 22:00;CYQF 282200Z 09006KT 15SM FEW050 28/17 A2984 RMK CU1 SLP097

CYQF;2007-07-28 23:00;CYQF 282300Z 09010KT 15SM SKC 29/17 A2983 RMK SLP092

CYQF;2007-07-29 00:00;CYQF 290000Z 09008KT 15SM SKC 29/17 A2981 RMK LN OF CNVCTV CLDN DIST NW SLP086

CYQF;2007-07-29 01:00;CYQF 290100Z 06005KT 15SM FEW120 28/19 A2980 RMK AC1 SLP082

CYQF;2007-07-29 02:00;CYQF 290200Z 06003KT 15SM FEW250 28/18 A2980 RMK CI1 SLP081

CYQF;2007-07-29 03:00;CYQF 290300Z 04004KT 15SM FEW100 FEW250 26/18 A2980 RMK AC1CI1 SLP080

CYQF;2007-07-29 04:00;CYQF 290400Z 05004KT 15SM FEW060 FEW250 24/17 A2981 RMK CU1CI1 TCU ASOCTD HZ SLP084

CYQF;2007-07-29 05:00;CYQF 290500Z 36003KT 15SM FEW060TCU 20/16 A2982 RMK TCU1 SLP085

CYQF;2007-07-29 06:00;CYQF 290600Z 00000KT 15SM FEW060CB 21/16 A2981 RMK CB1 CB DIST NW-N LGTICCCCG ASOCTD SLP084

CYQF;2007-07-29 07:00;CYQF 290700Z CCA 00000KT 15SM FEW060CB 19/15 A2981 RMK CB1 CB DIST NW-N LGTCCIC ASOCTD SLP083

CYQF;2007-07-29 08:00;CYQF 290800Z 30005KT 15SM FEW060CB 17/15 A2982 RMK CB1 CB/LTNG DIST N SLP087

CYQF;2007-07-29 09:00;CYQF 290900Z 00000KT 15SM SKC 18/15 A2982 RMK SLP088

CYQF;2007-07-29 10:00;CYQF 291000Z 36005KT 15SM SKC 17/14 A2982 RMK SLP089

CYQF;2007-07-29 11:00;CYQF 291100Z 36006KT 15SM FEW060CB 16/14 A2982 RMK CB1 CB TR DIST N SLP089

CYQF;2007-07-29 12:00;CYQF 291200Z 35005KT 12SM FEW060CB 15/14 A2983 RMK CB1 CB TR DIST N-NE SLP091

CYQF;2007-07-29 13:00;CYQF 291300Z 00000KT 15SM FEW250 15/14 A2984 RMK CI1 CI TR SLP095

CYQF;2007-07-29 14:00;CYQF 291400Z 30005KT 12SM SKC 17/15 A2985 RMK BR SLP099

CYQF;2007-07-29 15:00;CYQF 291500Z 33003KT 15SM SKC 19/15 A2985 RMK SLP098

CYQF;2007-07-29 16:00;CYQF 291600Z 00000KT 15SM FEW250 21/16 A2984 RMK CI0 SLP095

CYQF;2007-07-29 17:00;CYQF 291700Z 00000KT 15SM FEW250 23/17 A2983 RMK CI0 SLP093

CYQF;2007-07-29 18:00;CYQF 291800Z 00000KT 15SM FEW250 24/17 A2982 RMK CI0 SLP088

CYQF;2007-07-29 19:00;CYQF 291900Z 00000KT 15SM FEW250 26/18 A2980 RMK CI1 SLP082

CYQF;2007-07-29 20:00;CYQF 292000Z 00000KT 15SM FEW250 27/19 A2979 RMK CI1 SLP078

CYQF;2007-07-29 21:00;CYQF 292100Z 10003KT 15SM FEW040 28/18 A2977 RMK CU1 SLP071

CYQF;2007-07-29 22:00;CYQF 292200Z 00000KT 15SM FEW040 29/18 A2976 RMK CU1 SLP067

CYQF;2007-07-29 23:00;CYQF 292300Z 08005KT 15SM FEW120 29/18 A2974 RMK AC1 CB TP DIST NW SLP060

CYQF;2007-07-30 00:00;CYQF 300000Z 13005KT 15SM FEW060CB 30/15 A2973 RMK CB2 CB DIST NW SLP055

CYQF;2007-07-30 01:00;CYQF 300100Z 12005KT 15SM FEW060CB FEW120 29/15 A2971 RMK CB2AC1 CB DIST N SLP051

CYQF;2007-07-30 02:00;CYQF 300200Z 00000KT 15SM FEW060CB FEW120 28/17 A2971 RMK CB1AC1 CB DIST N SLP049

CYQF;2007-07-30 03:00;CYQF 300300Z 00000KT 15SM FEW060 FEW100 FEW250 26/17 A2971 RMK CU1ACC1CI1 CB DIST N SLP050

CYQF;2007-07-30 04:00;CYQF 300400Z 34003KT 10SM FEW060 FEW250 22/16 A2972 RMK CU1CI0 CB DIST N HZ SLP053

CYQF;2007-07-30 05:00;CYQF 300500Z 00000KT 10SM FEW250 20/15 A2973 RMK CI0 CB TOP DIST N HZ SLP055

CYQF;2007-07-30 06:00;CYQF 300600Z 36002KT 15SM SKC 20/16 A2973 RMK SLP058

CYQF;2007-07-30 07:00;CYQF 300700Z 34004KT 15SM FEW250 18/16 A2973 RMK CI0 SLP058

CYQF;2007-07-30 08:00;CYQF 300800Z 34003KT 15SM FEW250 18/15 A2975 RMK CI1 SLP063

CYQF;2007-07-30 09:00;CYQF 300900Z 32005KT 15SM SCT250 18/16 A2975 RMK CI1 SLP062

CYQF;2007-07-30 10:00;CYQF 301000Z 33006KT 15SM BKN250 18/16 A2977 RMK CI1 SLP070

CYQF;2007-07-30 11:00;CYQF 301100Z 35006KT 12SM FEW150 SCT250 18/16 A2979 RMK AC1CI1 AC TR SLP074

CYQF;2007-07-30 11:04;CYQF 301104Z 34010KT 12SM BKN007 RMK ST5 VSBY LWR N ST MVG RPDLY N-S

CYQF;2007-07-30 11:05;CYQF 301105Z CCA 34010KT 12SM BKN007 RMK ST5 VSBY LWR N ST MVG RPDLY N-S

CYQF;2007-07-30 11:06;CYQF 301106Z 34010G18KT 12SM OVC003 RMK ST8

CYQF;2007-07-30 11:17;CYQF 301117Z 34010G15KT 3SM BR OVC002 RMK ST8 VSBY LWR N

CYQF;2007-07-30 11:36;CYQF 301136Z 35010G15KT 6SM BR SCT002 SCT150 BKN250 RMK SF3AC1CI0 VSBY LWR SE-SW

CYQF;2007-07-30 12:00;CYQF 301200Z 33015G20KT 8SM BKN005 BKN150 17/14 A2984 RMK ST5AC1 SLP091

CYQF;2007-07-30 12:08;CYQF 301208Z 35010G20KT 12SM FEW005 FEW100 RMK SF1AC1

CYQF;2007-07-30 12:34;CYQF 301234Z 33010G15KT 12SM BKN007 BKN020 BKN080 RMK SF5CU1AC1 AC TR

CYQF;2007-07-30 13:00;CYQF 301300Z 33015G22KT 12SM BKN010 BKN020 BKN080 16/13 A2986 RMK SF5SC2AC1 CU ASOCTD SLP098

CYQF;2007-07-30 14:00;CYQF 301400Z 33012G20KT 15SM FEW010 SCT040 BKN220 16/12 A2988 RMK SC2SC2CI2 SLP106

CYQF;2007-07-30 15:00;CYQF 301500Z 34012G20KT 15SM FEW010 SCT040 BKN090 BKN250 16/11 A2991 RMK SF2SC2AC2CI1 SLP123

CYQF;2007-07-30 16:00;CYQF 301600Z 32010G18KT 15SM SCT030 BKN090 BKN250 17/11 A2993 RMK SC3AC2CI1 CU ASCTD SLP127

CYQF;2007-07-30 17:00;CYQF 301700Z 33012KT 15SM FEW030 SCT090 BKN250 18/11 A2992 RMK SC2AC2CI1 SLP125

CYQF;2007-07-30 18:00;CYQF 301800Z 35010KT 15SM FEW030 SCT090 BKN250 19/12 A2991 RMK SC2AC2CI1 SLP125

CYQF;2007-07-30 19:00;CYQF 301900Z 35009KT 15SM FEW030 SCT090 BKN250 19/13 A2989 RMK CU1AC2CI1 FU ALFT NE SLP119

CYQF;2007-07-30 20:00;CYQF 302000Z 34008KT 15SM FEW030 SCT090 SCT250 20/13 A2988 RMK CU1AC1CI1 SLP118

CYQF;2007-07-30 21:00;CYQF 302100Z 35010KT 15SM FEW030 SCT090 BKN250 21/13 A2987 RMK CU2AC2CI0 SLP112

CYQF;2007-07-30 22:00;CYQF 302200Z 35010KT 15SM SCT035 SCT090 BKN250 22/13 A2986 RMK CU3AC1CI1 SLP110

CYQF;2007-07-30 23:00;CYQF 302300Z 34004KT 15SM BKN035TCU OVC250 21/13 A2987 RMK TCU6CI1 SLP113

CYQF;2007-07-31 00:00;CYQF 310000Z 02010G15KT 15SM FEW020 SCT040 SCT100 BKN250 22/13 A2986 RMK SC2CU2AC1CI0 SLP108

CYQF;2007-07-31 01:00;CYQF 310100Z 07007KT 15SM FEW020 BKN040 BKN100 BKN250 22/14 A2987 RMK SC2CU2AC2CI0 TCU EMBD SLP112

CYQF;2007-07-31 02:00;CYQF 310200Z 06008KT 15SM SCT035 BKN250 21/15 A2987 RMK SC3CI0 CB S SLP112

CYQF;2007-07-31 03:00;CYQF 310300Z CCA 36010G16KT 15SM BKN030 BKN250 19/14 A2991 RMK SC6CI1 TCU EMBD SLP129

CYQF;2007-07-31 04:00;CYQF 310400Z 02008KT 15SM SCT030 BKN250 18/12 A2992 RMK SC4CI2 TCU EMBD SLP132

CYQF;2007-07-31 05:00;CYQF 310500Z CCA 02008KT 15SM SCT030 BKN250 17/12 A2992 RMK SC3CI1 CB/LTGIC DIST S+W SLP132

CYQF;2007-07-31 06:00;CYQF 310600Z 32008KT 15SM BKN040 BKN250 15/12 A2995 RMK SC5CI1 LTG DIST W SLP143

CYQF;2007-07-31 06:46;CYQF 310646Z 00000KT 15SM TS BKN045CB RMK CB6 LTGCC-CG

CYQF;2007-07-31 07:00;CYQF 310700Z 01003KT 15SM TS BKN045CB 15/11 A2996 RMK CB7 SLP149

CYQF;2007-07-31 07:32;CYQF 310732Z 00000KT 15SM BKN040 BKN080 RMK SC5AC2 CB EMBD LTNG E

CYQF;2007-07-31 08:00;CYQF 310800Z 33005KT 15SM FEW040 BKN080 15/12 A2995 RMK SC2AC3 SLP146

CYQF;2007-07-31 09:00;CYQF 310900Z 32002KT 15SM BKN080 14/11 A2995 RMK AC5 SLP144

CYQF;2007-07-31 10:00;CYQF 311000Z 00000KT 15SM FEW030 BKN080 14/11 A2995 RMK SC2AC4 SLP143

CYQF;2007-07-31 11:00;CYQF 311100Z 26004KT 15SM FEW030 BKN080 12/11 A2996 RMK SC2AC4 SLP146

CYQF;2007-07-31 12:00;CYQF 311200Z 00000KT 15SM BKN040 OVC080 13/11 A2996 RMK SC5AC3 CU EMBD SLP148

CYQF;2007-07-31 13:00;CYQF 311300Z 00000KT 15SM BKN040 BKN090 BKN250 13/11 A2997 RMK CU5AC1CI1 SLP151

CYQF;2007-07-31 14:00;CYQF 311400Z 34010G18KT 15SM FEW015 BKN040 BKN090 14/10 A3000 RMK SC2CU3AC2 TCU EMBDD SLP161

CYQF;2007-07-31 14:31;CYQF 311431Z 34013G22KT 15SM FEW006 FEW015 BKN040 BKN090 RMK SF1SC1SC5AC1 TCU EMBDD VIRGA

CYQF;2007-07-31 15:00;CYQF 311500Z 34011G18KT 15SM SCT008 BKN035 BKN090 11/08 A3002 RMK SF3SC3AC1 TCU EMBDD VIRGA SLP174

CYQF;2007-07-31 16:00;CYQF 311600Z 01012G20KT 15SM FEW008 BKN035 BKN090 12/06 A3002 RMK SF1SC4AC1 TCU EMBDD SLP172

CYQF;2007-07-31 17:00;CYQF 311700Z 01011KT 15SM FEW024 BKN040 14/07 A3001 RMK CU2SC3 TCU ASOCTD SLP171

CYQF;2007-07-31 18:00;CYQF 311800Z 03012KT 15SM FEW026 BKN045 15/07 A3001 RMK CU2SC3 TCU ASOCTD SLP169

CYQF;2007-07-31 19:00;CYQF 311900Z 02006KT 15SM FEW030 BKN050 15/06 A3000 RMK CU2SC6 TCU EMBDD SLP167

CYQF;2007-07-31 20:00;CYQF 312000Z 11004KT 15SM FEW030 BKN050 BKN090 16/07 A3000 RMK CU2SC4AC2 FEW TCU SLP165

CYQF;2007-07-31 21:00;CYQF 312100Z 03004KT 15SM SCT035 BKN090 BKN250 17/08 A3001 RMK CU3AC2CI1 FEW TCU SLP168

CYQF;2007-07-31 22:00;CYQF 312200Z 02003KT 15SM SCT040 BKN100 18/08 A3000 RMK CU3AC1 CB TOP N SLP167

CYQF;2007-07-31 23:00;CYQF 312300Z 33005KT 15SM FEW045 SCT250 19/07 A3001 RMK CU2CI1 CB TOPS N SLP168

CYQF;2007-08-01 01:00;CYQF 010100Z 30006KT 15SM FEW050 SCT100 BKN250 18/06 A3004 RMK CU2AC2CI1 CB TOPS N SLP177

CYQF;2007-08-01 02:00;CYQF 010200Z 34014KT 15SM FEW050 SCT090 BKN250 17/08 A3006 RMK CU2AC2CI2 TCU ASOCTD SLP186

CYQF;2007-08-01 03:00;CYQF 010300Z 34007KT 15SM FEW050 14/05 A3009 RMK SC1 SLP202

CYQF;2007-08-01 04:00;CYQF 010400Z 32004KT 15SM SKC 12/05 A3012 RMK SLP210

CYQF;2007-08-01 05:00;CYQF 010500Z 29004KT 15SM SKC 10/05 A3014 RMK SLP217

CYQF;2007-08-01 06:00;CYQF 010600Z 27004KT 15SM SKC 08/04 A3015 RMK SLP228

CYQF;2007-08-01 07:00;CYQF 010700Z 24007KT 15SM SKC 08/04 A3017 RMK SLP232

CYQF;2007-08-01 08:00;CYQF 010800Z 25005KT 15SM SKC 08/05 A3018 RMK SLP236

CYQF;2007-08-01 09:00;CYQF 010900Z 25007KT 15SM SKC 08/05 A3020 RMK SLP240

CYQF;2007-08-01 10:00;CYQF 011000Z 26006KT 15SM SKC 08/05 A3020 RMK SLP242

CYQF;2007-08-01 11:00;CYQF 011100Z 25005KT 15SM FEW080 07/04 A3022 RMK AC1 SLP248

CYQF;2007-08-01 12:00;CYQF 011200Z 25007KT 15SM FEW080 08/04 A3023 RMK AC1 SLP251

CYQF;2007-08-01 13:00;CYQF 011300Z 00000KT 15SM FEW080 08/05 A3024 RMK AC1 SLP253

CYQF;2007-08-01 14:00;CYQF 011400Z 30006KT 15SM SKC 11/06 A3025 RMK SLP255

CYQF;2007-08-01 15:00;CYQF 011500Z 27010KT 15SM SKC 14/07 A3025 RMK SLP255

CYQF;2007-08-01 16:00;CYQF 011600Z 30007KT 15SM SKC 16/07 A3025 RMK SLP254

CYQF;2007-08-01 17:00;CYQF 011700Z 29005KT 15SM SKC 17/08 A3024 RMK SLP251

CYQF;2007-08-01 18:00;CYQF 011800Z 30010KT 15SM FEW040 18/09 A3022 RMK CU1 SLP247

CYQF;2007-08-01 19:00;CYQF 011900Z 36003KT 15SM FEW040 19/08 A3021 RMK CU1 SLP244

CYQF;2007-08-01 20:00;CYQF 012000Z 26005KT 15SM FEW040 20/08 A3020 RMK CU1 SLP241

CYQF;2007-08-01 21:00;CYQF 012100Z 31002KT 15SM FEW040 20/08 A3019 RMK CU1 SLP235

CYQF;2007-08-01 22:00;CYQF 012200Z 27004KT 15SM FEW040 21/08 A3018 RMK CU1 SLP232

CYQF;2007-08-01 23:00;CYQF 012300Z 06002KT 15SM FEW050 22/09 A3017 RMK CU1 SLP227

CYQF;2007-08-02 00:00;CYQF 020000Z 23005KT 15SM SKC 22/08 A3015 RMK SLP220

CYQF;2007-08-02 01:00;CYQF 020100Z 21003KT 15SM SKC 13/09 A3014 RMK SLP215

CYQF;2007-08-02 02:00;CYQF 020200Z 14002KT 15SM SKC 21/09 A3014 RMK SLP215

CYQF;2007-08-02 03:00;CYQF 020300Z 12003KT 15SM SKC 19/10 A3013 RMK SLP208

CYQF;2007-08-02 04:00;CYQF 020400Z 00000KT 15SM SKC 18/10 A3015 RMK SLP212

CYQF;2007-08-02 05:00;CYQF 020500Z 00000KT 15SM SKC 15/09 A3015 RMK SLP212

CYQF;2007-08-02 06:00;CYQF 020600Z 00000KT 15SM SKC 13/09 A3014 RMK SLP214

CYQF;2007-08-02 07:00;CYQF 020700Z 00000KT 15SM SKC 11/07 A3014 RMK SLP214

CYQF;2007-08-02 08:00;CYQF 020800Z 00000KT 15SM SKC 10/07 A3014 RMK SLP212

CYQF;2007-08-02 09:00;CYQF 020900Z 00000KT 15SM SKC 11/08 A3013 RMK SLP209

CYQF;2007-08-02 10:00;CYQF 021000Z 00000KT 15SM SKC 10/07 A3013 RMK SLP210

CYQF;2007-08-02 11:00;CYQF 021100Z 00000KT 15SM FEW250 10/07 A3013 RMK CI0 SLP208

CYQF;2007-08-02 12:00;CYQF 021200Z 00000KT 15SM FEW250 10/07 A3011 RMK CI1 SLP204

CYQF;2007-08-02 13:00;CYQF 021300Z 00000KT 15SM FEW250 10/07 A3011 RMK CI2 SLP203

CYQF;2007-08-02 14:00;CYQF 021400Z 15003KT 15SM SCT250 13/09 A3010 RMK CI2 SLP199

CYQF;2007-08-02 15:00;CYQF 021500Z 15005KT 15SM FEW250 17/09 A3009 RMK CI1 SLP192

CYQF;2007-08-02 16:00;CYQF 021600Z 13003KT 15SM FEW100 FEW250 19/10 A3008 RMK AC1CI1 SLP189

CYQF;2007-08-02 17:00;CYQF 021700Z 12010KT 15SM FEW120 20/10 A3007 RMK AC1 SLP185

CYQF;2007-08-02 18:00;CYQF 021800Z 13010KT 15SM FEW120 21/10 A3005 RMK AC1 SLP179

CYQF;2007-08-02 19:00;CYQF 021900Z 14013KT 15SM FEW120 23/12 A3004 RMK AC1 SLP175

CYQF;2007-08-02 20:00;CYQF 022000Z 15010KT 15SM FEW250 25/13 A3002 RMK CI0 SLP170

CYQF;2007-08-02 21:00;CYQF 022100Z 21008KT 15SM SKC 26/12 A3001 RMK SLP161

CYQF;2007-08-02 22:00;CYQF 022200Z 13005KT 15SM FEW250 27/13 A2999 RMK CI0 SLP156

CYQF;2007-08-02 23:00;CYQF 022300Z 13005KT 15SM FEW250 28/11 A2997 RMK CI0 SLP149

CYQF;2007-08-03 00:00;CYQF 030000Z 14006KT 15SM FEW250 28/11 A2995 RMK CI0 SLP142

CYQF;2007-08-03 01:00;CYQF 030100Z 13008KT 15SM FEW250 27/12 A2995 RMK CI0 SLP139

CYQF;2007-08-03 02:00;CYQF 030200Z 10004KT 15SM SKC 26/14 A2994 RMK SLP136

CYQF;2007-08-03 03:00;CYQF 030300Z 08005KT 12SM SKC 24/14 A2993 RMK SLP130

CYQF;2007-08-03 04:00;CYQF 030400Z 07006KT 12SM SKC 21/12 A2993 RMK HZ SLP129

CYQF;2007-08-03 05:00;CYQF 030500Z 07004KT 12SM SKC 19/11 A2992 RMK FU SLP126

CYQF;2007-08-03 06:00;CYQF 030600Z 02003KT 15SM SKC 16/11 A2990 RMK SLP124

CYQF;2007-08-03 07:00;CYQF 030700Z 01004KT 15SM SKC 16/11 A2989 RMK SLP120

CYQF;2007-08-03 08:00;CYQF 030800Z 01002KT 15SM FEW100 14/09 A2987 RMK AC2 SLP114

CYQF;2007-08-03 09:00;CYQF 030900Z 17003KT 15SM FEW100 16/07 A2985 RMK AC2 SLP100

CYQF;2007-08-03 10:00;CYQF 031000Z 17004KT 15SM FEW100 15/08 A2983 RMK AC2 SLP095

CYQF;2007-08-03 11:00;CYQF 031100Z 00000KT 15SM SCT090 13/07 A2981 RMK AC3 SLP088

CYQF;2007-08-03 12:00;CYQF 031200Z 00000KT 15SM FEW050TCU SCT090 13/06 A2980 RMK TCU2AC2 SLP084

CYQF;2007-08-03 13:00;CYQF 031300Z 21003KT 15SM FEW050TCU SCT090 11/07 A2978 RMK TCU2AC2 SLP080

CYQF;2007-08-03 14:00;CYQF 031400Z 30008KT 15SM FEW050TCU 14/09 A2982 RMK TCU1 SLP090

CYQF;2007-08-03 15:00;CYQF 031500Z 02002KT 15SM SKC 17/10 A2980 RMK SLP084

CYQF;2007-08-03 16:00;CYQF 031600Z 33010KT 15SM SKC 21/13 A2979 RMK SLP083

CYQF;2007-08-03 17:00;CYQF 031700Z 30010KT 15SM SKC 22/14 A2979 RMK SLP083

CYQF;2007-08-03 18:00;CYQF 031800Z 33010KT 15SM SKC 23/14 A2979 RMK SLP083

CYQF;2007-08-03 19:00;CYQF 031900Z 34007KT 15SM FEW250 23/14 A2979 RMK CI1 SLP083

CYQF;2007-08-03 20:00;CYQF 032000Z 35010G15KT 15SM FEW250 24/15 A2979 RMK CI1 HZ SLP084

CYQF;2007-08-03 21:00;CYQF 032100Z 33010G15KT 15SM FEW120 BKN250 24/14 A2978 RMK AC1CI2 HZ SLP079

CYQF;2007-08-03 22:00;CYQF 032200Z 36010G15KT 15SM FEW120 BKN250 23/14 A2978 RMK AC1CI2 SLP080

CYQF;2007-08-03 23:00;CYQF 032300Z 35010G15KT 15SM FEW040 SCT120 24/14 A2976 RMK CU1AC2 HZ CB TOPS DSNT W+NW SLP074

CYQF;2007-08-04 00:00;CYQF 040000Z 35010G15KT 15SM FEW040 FEW120 SCT250 23/15 A2977 RMK CU1AC1CI1 CB TOP W SLP079

CYQF;2007-08-04 01:00;CYQF 040100Z 29005KT 15SM BKN050TCU BKN100 21/14 A2980 RMK TCU5AC2 SHWRS SW CB ASOCTD SLP088

CYQF;2007-08-04 01:13;CYQF 040113Z 29010G15KT 12SM -SHRA FEW025 BKN050TCU BKN100 RMK SF1TCU4AC2

CYQF;2007-08-04 01:24;CYQF 040124Z 33010G15KT 15SM FEW025 BKN050TCU BKN100 RMK SF1TCU4AC2 SHWR NE

CYQF;2007-08-04 01:41;CYQF 040141Z 33025G33KT 15SM FEW024 SCT050TCU BKN100 RMK SF1TCU3AC2 SHWR NE

CYQF;2007-08-04 02:00;CYQF 040200Z 33025G35KT 15SM FEW025 FEW050TCU SCT100 20/13 A2978 RMK SF1TCU2AC1 CB ASOCTD SF TR SLP084

CYQF;2007-08-04 03:00;CYQF 040300Z 33020G30KT 15SM FEW020 FEW050CB SCT250 15/09 A2987 RMK SC2CB1CI2 PRESRR CI FM CB SLP120

CYQF;2007-08-04 04:00;CYQF 040400Z 36005KT 15SM SCT020 BKN050TCU BKN250 14/09 A2990 RMK SC3TCU2CI1 DIST SHWRS ALQDS SLP127

CYQF;2007-08-04 05:00;CYQF 040500Z 31005KT 15SM FEW050CB FEW250 13/09 A2989 RMK CB1CI2 OCNL LTNG W SLP124

CYQF;2007-08-04 06:00;CYQF 040600Z 23005KT 15SM FEW040 FEW100 11/09 A2990 RMK CU1AC1 SLP127

CYQF;2007-08-04 07:00;CYQF 040700Z 28005KT 15SM BKN200 12/08 A2990 RMK CI6 SLP128

CYQF;2007-08-04 08:00;CYQF 040800Z 28005KT 15SM SCT200 11/08 A2989 RMK CI2 SLP124

CYQF;2007-08-04 09:00;CYQF 040900Z 30005KT 15SM FEW200 12/08 A2989 RMK CI1 SLP121

CYQF;2007-08-04 10:00;CYQF 041000Z 30005KT 15SM FEW120 10/08 A2989 RMK AC2 SLP123

CYQF;2007-08-04 11:00;CYQF 041100Z 23005KT 15SM FEW100 FEW230 09/07 A2990 RMK AC1CI1 SLP126

CYQF;2007-08-04 12:00;CYQF 041200Z 24005KT 15SM FEW080 FEW230 08/07 A2990 RMK AC1CI1 SLP131

CYQF;2007-08-04 13:00;CYQF 041300Z 24005KT 15SM FEW080 FEW230 08/07 A2991 RMK AC1CI1 SLP134

CYQF;2007-08-04 14:00;CYQF 041400Z 27007KT 15SM FEW090 12/09 A2991 RMK AC2 SLP134

CYQF;2007-08-04 15:00;CYQF 041500Z 28007KT 15SM FEW020 FEW090 14/09 A2992 RMK CF1AC2 SLP138

CYQF;2007-08-04 16:00;CYQF 041600Z 31008KT 15SM FEW025 SCT090 16/09 A2991 RMK CF2AC2 SLP137

CYQF;2007-08-04 17:00;CYQF 041700Z 31012G20KT 15SM FEW030 BKN080 BKN250 17/08 A2991 RMK CU2AC3CI1 SLP136

CYQF;2007-08-04 18:00;CYQF 041800Z 31014G22KT 15SM VCSH FEW020 BKN050 BKN090 16/08 A2991 RMK SF2SC3AC1 SLP139

CYQF;2007-08-04 19:00;CYQF 041900Z 30018G25KT 15SM FEW040 BKN090 BKN250 19/09 A2990 RMK CU1AC4CI1 SLP136

CYQF;2007-08-04 20:00;CYQF 042000Z 30020G25KT 15SM SCT020 BKN040 BKN090 18/09 A2990 RMK CU3SC2AC2 SLP136

CYQF;2007-08-04 21:00;CYQF 042100Z 31015G30KT 15SM SCT015 BKN040 BKN090 18/09 A2990 RMK SC3SC3AC1 SLP133

CYQF;2007-08-04 23:00;CYQF 042300Z 30023G32KT 15SM FEW035 SCT090 BKN250 19/10 A2990 RMK SC2AC2CI1 SLP132

CYQF;2007-08-05 00:00;CYQF 050000Z 31020G28KT 15SM FEW035 FEW090 BKN250 19/09 A2991 RMK SC1AC1CI3 SLP139

CYQF;2007-08-05 01:00;CYQF 050100Z 33017G26KT 15SM FEW030 SCT090 BKN250 18/10 A2992 RMK CU1AC3CI1 SLP141

CYQF;2007-08-05 02:00;CYQF 050200Z 33012G17KT 15SM FEW030 FEW090 SCT250 17/10 A2994 RMK CU1AC1CI2 TCU ASOCTD CB TOP DIST S SLP148

CYQF;2007-08-05 03:00;CYQF 050300Z 32008KT 15SM FEW030 BKN070 BKN250 15/10 A2996 RMK CU1AC3CI2 CB TOPS DIST S SLP154

CYQF;2007-08-05 04:00;CYQF 050400Z 31009KT 15SM FEW020 BKN070 BKN250 15/10 A2998 RMK SC1AC4CI1 SLP161

CYQF;2007-08-05 05:00;CYQF 050500Z 32006KT 15SM FEW020 BKN070 BKN250 15/10 A3000 RMK SC1AC6CI1 LTNG DIST S SLP165

CYQF;2007-08-05 06:00;CYQF 050600Z 33012KT 15SM BKN080 15/11 A2999 RMK AC6 SLP163

CYQF;2007-08-05 07:00;CYQF 050700Z 32005KT 15SM SCT250 14/11 A3001 RMK CI1 SLP167

CYQF;2007-08-05 08:00;CYQF 050800Z 30005KT 15SM SKC 12/10 A3002 RMK SLP172

CYQF;2007-08-05 09:00;CYQF 050900Z 29008KT 15SM SKC 12/10 A3002 RMK SLP173

CYQF;2007-08-05 10:00;CYQF 051000Z 30007KT 15SM SKC 11/09 A3002 RMK SLP174

CYQF;2007-08-05 11:00;CYQF 051100Z 27003KT 15SM FEW100 FEW250 10/09 A3002 RMK AC1CI0 SLP174

CYQF;2007-08-05 12:00;CYQF 051200Z 00000KT 15SM FEW100 FEW250 10/08 A3003 RMK AC1CI1 SLP177

CYQF;2007-08-05 13:00;CYQF 051300Z 26003KT 15SM FEW100 FEW250 09/08 A3003 RMK AC1CI1 SLP178

CYQF;2007-08-05 14:00;CYQF 051400Z 23004KT 15SM FEW100 FEW250 12/11 A3004 RMK AC1CI1 SLP180

CYQF;2007-08-05 15:00;CYQF 051500Z 27002KT 15SM FEW015 FEW100 SCT250 14/11 A3003 RMK CF1AC2CI1 SLP177

CYQF;2007-08-05 16:00;CYQF 051600Z 32003KT 15SM FEW020 SCT100 16/12 A3002 RMK CF2AC2 SLP174

CYQF;2007-08-05 17:00;CYQF 051700Z 21003KT 15SM FEW025 SCT110 18/11 A3001 RMK CU2AC2 SLP172

CYQF;2007-08-05 18:00;CYQF 051800Z 22003KT 15SM SCT030 BKN110 19/11 A3000 RMK CU3AC2 SLP162

CYQF;2007-08-05 19:00;CYQF 051900Z 16005KT 15SM SCT035 SCT110 19/10 A2998 RMK CU3AC1 SLP155

CYQF;2007-08-05 20:00;CYQF 052000Z 16004KT 15SM SCT045 21/10 A2995 RMK CU4 CB DIST NW SLP147

CYQF;2007-08-05 21:00;CYQF 052100Z 21004KT 15SM SCT045 22/10 A2993 RMK CU4 CB DIST SW-NW SLP136

CYQF;2007-08-05 22:00;CYQF 052200Z 00000KT 15SM SCT045TCU 22/09 A2991 RMK TCU4 CB DIST SE-NW SLP131

CYQF;2007-08-05 23:00;CYQF 052300Z 18002KT 15SM FEW045TCU BKN250 22/09 A2989 RMK TCU2CI2 CI FM CB SE-NW SLP125

CYQF;2007-08-06 00:00;CYQF 060000Z 22004KT 15SM SCT040CB BKN250 21/11 A2988 RMK CB3CI2 SHWRS SW-NW SLP124

CYQF;2007-08-06 00:21;CYQF 060021Z 30011G17KT 15SM TS BKN040CB BKN250 RMK CB6CI1 SH SW-N

CYQF;2007-08-06 00:47;CYQF 060047Z 33011G19KT 15SM -TSRA BKN040CB BKN250 RMK CB6CI1

CYQF;2007-08-06 01:00;CYQF 060100Z 30010G15KT 15SM TS BKN040CB BKN250 16/09 A2989 RMK CB6CI2 SH SW-NE VIS LWR N SLP127

CYQF;2007-08-06 01:14;CYQF 060114Z 31009KT 15SM BKN040CB BKN100 BKN250 RMK CB6AC1CI2 SH S N

CYQF;2007-08-06 02:00;CYQF 060200Z 00000KT 15SM SCT040CB BKN100 BKN250 16/10 A2988 RMK CB3AC2CI1 VIRGA ACC ASOCTD SH DIST SE SLP123

CYQF;2007-08-06 03:00;CYQF 060300Z 00000KT 15SM FEW030 SCT070 BKN100 BKN250 16/11 A2988 RMK CU1AC3AC2CI1 VIRGA ACC ASOCTD SLP126

CYQF;2007-08-06 04:00;CYQF 060400Z 00000KT 15SM FEW030 BKN070 OVC250 15/10 A2989 RMK CU2AC4CI2 SH SW SLP129

CYQF;2007-08-06 05:00;CYQF 060500Z 27006KT 15SM BKN065 BKN100 OVC250 14/11 A2990 RMK SC5AC2CI1 SLP130

CYQF;2007-08-06 06:00;CYQF 060600Z 32007KT 15SM SCT065 BKN100 BKN250 15/11 A2990 RMK SC3AC2CI1 SLP127

CYQF;2007-08-06 07:00;CYQF 060700Z 30004KT 15SM FEW060 SCT100 BKN250 13/10 A2989 RMK SC2AC1CI1 SLP123

CYQF;2007-08-06 08:00;CYQF 060800Z 29004KT 15SM BKN060 BKN100 13/10 A2988 RMK SC5AC1 SLP120

CYQF;2007-08-06 09:00;CYQF 060900Z 27003KT 15SM BKN060 BKN100 12/11 A2986 RMK SC5AC2 SLP114

CYQF;2007-08-06 10:00;CYQF 061000Z 24004KT 15SM SCT060 12/10 A2986 RMK SC3 SLP112

CYQF;2007-08-06 11:00;CYQF 061100Z 35002KT 15SM FEW060 FEW090 12/10 A2986 RMK SC2AC1 SLP112

CYQF;2007-08-06 12:00;CYQF 061200Z 26006KT 15SM FEW060 FEW090 09/08 A2985 RMK SC2AC1 SLP113

CYQF;2007-08-06 13:00;CYQF 061300Z 20004KT 15SM FEW060 FEW090 SCT250 10/09 A2985 RMK SC1AC1CI1 SLP115

CYQF;2007-08-06 14:00;CYQF 061400Z 25004KT 15SM FEW060 FEW090 BKN250 11/10 A2985 RMK SC1AC1CI2 SLP115

CYQF;2007-08-06 15:00;CYQF 061500Z 00000KT 15SM FEW015 FEW090 SCT150 BKN250 13/11 A2985 RMK SF1AC1AC2CI2 SLP115

CYQF;2007-08-06 16:00;CYQF 061600Z 00000KT 15SM FEW015 FEW090 FEW150 BKN250 15/11 A2985 RMK SF1AC1AC1CI2 SLP114

CYQF;2007-08-06 17:00;CYQF 061700Z 00000KT 15SM FEW020 BKN150 17/12 A2984 RMK CU2AC2 SLP113

CYQF;2007-08-06 18:00;CYQF 061800Z 25004KT 15SM FEW030 FEW150 18/11 A2983 RMK CU1AC2 SLP102

CYQF;2007-08-06 19:00;CYQF 061900Z 24004KT 15SM FEW035 FEW150 19/11 A2981 RMK CU2AC1 SLP096

CYQF;2007-08-06 20:00;CYQF 062000Z 00000KT 15SM FEW040 20/12 A2979 RMK CU2 SLP090

CYQF;2007-08-06 21:00;CYQF 062100Z 00000KT 15SM FEW040 21/11 A2977 RMK CU2 SLP084

CYQF;2007-08-06 22:00;CYQF 062200Z 25010KT 15SM FEW040 22/10 A2976 RMK CU2 TCU ASOCTD SLP078

CYQF;2007-08-06 23:00;CYQF 062300Z 00000KT 15SM FEW040 FEW070 23/10 A2973 RMK CU1AC1 SLP071

CYQF;2007-08-07 00:00;CYQF 070000Z 00000KT 15SM FEW040 FEW070 23/10 A2972 RMK CU1AC1 SLP068

CYQF;2007-08-07 01:00;CYQF 070100Z 00000KT 15SM FEW070 23/10 A2971 RMK AC2 SLP063

CYQF;2007-08-07 02:00;CYQF 070200Z 00000KT 15SM FEW070 23/10 A2969 RMK AC2 SLP058

CYQF;2007-08-07 03:00;CYQF 070300Z 00000KT 15SM FEW070 20/11 A2969 RMK AC1 SLP056

CYQF;2007-08-07 04:00;CYQF 070400Z 16006KT 15SM FEW070 17/11 A2969 RMK AC0 SLP056

CYQF;2007-08-07 05:00;CYQF 070500Z 00000KT 15SM SKC 15/10 A2969 RMK SLP054

CYQF;2007-08-07 06:00;CYQF 070600Z 18003KT 15SM SKC 14/09 A2968 RMK SLP052

CYQF;2007-08-07 07:00;CYQF 070700Z 19006KT 15SM SKC 14/09 A2966 RMK SLP048

CYQF;2007-08-07 08:00;CYQF 070800Z 20006KT 15SM SKC 12/09 A2966 RMK SLP045

CYQF;2007-08-07 09:00;CYQF 070900Z 19005KT 15SM SKC 10/08 A2964 RMK SLP041

CYQF;2007-08-07 10:00;CYQF 071000Z 20005KT 15SM SKC 10/08 A2963 RMK SLP038

CYQF;2007-08-07 11:00;CYQF 071100Z 18004KT 15SM SKC 09/07 A2962 RMK SLP035

CYQF;2007-08-07 12:00;CYQF 071200Z 19002KT 15SM SKC 09/06 A2961 RMK SLP030

CYQF;2007-08-07 13:00;CYQF 071300Z 00000KT 15SM FEW250 09/06 A2961 RMK CI1 SLP029

CYQF;2007-08-07 14:00;CYQF 071400Z 21002KT 15SM FEW090 FEW250 12/09 A2960 RMK AC1CI1 SLP027

CYQF;2007-08-07 15:00;CYQF 071500Z 21004KT 15SM FEW250 16/09 A2959 RMK CI1 SLP019

CYQF;2007-08-07 16:00;CYQF 071600Z 21004KT 15SM FEW250 18/10 A2959 RMK CI2 SLP019

CYQF;2007-08-07 17:00;CYQF 071700Z 27006KT 15SM FEW250 22/12 A2958 RMK CI2 SLP014

CYQF;2007-08-07 18:00;CYQF 071800Z 00000KT 15SM FEW055 FEW250 24/10 A2957 RMK CU1CI2 SLP008

CYQF;2007-08-07 19:00;CYQF 071900Z 21003KT 15SM FEW060TCU FEW210 26/10 A2956 RMK TCU1CI2 TCU DIST W SLP006

CYQF;2007-08-07 20:00;CYQF 072000Z 03003KT 15SM FEW060TCU SCT160 27/08 A2956 RMK TCU1AC2 CB DIST W SLP004

CYQF;2007-08-07 21:00;CYQF 072100Z 33004KT 15SM FEW080 FEW160 BKN210 27/08 A2955 RMK CU1AC2CI1 SLP001

CYQF;2007-08-07 22:00;CYQF 072200Z 00000KT 15SM BKN080 BKN210 27/09 A2955 RMK CU6CU1 SLP003

CYQF;2007-08-07 23:00;CYQF 072300Z 35004KT 15SM VCSH BKN065 BKN210 26/10 A2956 RMK CU6CI1 SLP004

CYQF;2007-08-07 23:20;CYQF 072320Z 34015G20KT 15SM -SHRA BKN065 BKN100 RMK CU6AC1 TCU ASOCTD

CYQF;2007-08-07 23:55;CYQF 072355Z 35010G15KT 15SM VCSH BKN040TCU BKN100 RERA RMK TCU6AC1

CYQF;2007-08-08 00:00;CYQF 080000Z 33010G15KT 15SM VCSH BKN040TCU BKN100 18/13 A2961 RERA RMK TCU6AC1 SLP033

CYQF;2007-08-08 00:10;CYQF 080010Z 35010G15KT 15SM -SHRA BKN040CB BKN100 RMK CB6AC1 LTGCG S

CYQF;2007-08-08 00:19;CYQF 080019Z 35015G23KT 15SM -TSRA BKN040CB BKN100 BKN250 RMK CB5AC2CI1 LTGCG S+SW

CYQF;2007-08-08 01:00;CYQF 080100Z 15010KT 15SM -TSRA BKN040CB BKN100 16/13 A2964 RMK CB5AC2 LTGCG SE VIS S 4 HVR SHS S-E-NE SLP044

CYQF;2007-08-08 01:21;CYQF 080121Z 06006KT 15SM SCT045TCU BKN100 BKN250 RMK TCU3AC2CI2 CB EMBDD DIST E OCNL LTG SHS SE-NE RETS

CYQF;2007-08-08 02:00;CYQF 080200Z 05005KT 15SM FEW045 SCT100 BKN250 18/14 A2963 RMK CU2AC2CI2 CB TP E SHS DIST E RETS SLP040

CYQF;2007-08-08 03:00;CYQF 080300Z 23002KT 15SM FEW045 SCT090 BKN250 16/14 A2964 RMK CU2AC2CI2 SHS DIST NW-N SLP041

CYQF;2007-08-08 04:00;CYQF 080400Z 00000KT 15SM SCT040 BKN090 BKN250 15/13 A2967 RMK CU3AC2CI1 SHS/VIRGA N SLP049

CYQF;2007-08-08 05:00;CYQF 080500Z 35004KT 15SM FEW040 SCT090 BKN250 15/13 A2969 RMK SC2AC2CI2 SLP055

CYQF;2007-08-08 06:00;CYQF 080600Z 00000KT 15SM FEW040 BKN100 13/11 A2970 RMK SC2AC5 SLP053

CYQF;2007-08-08 07:00;CYQF 080700Z 22004KT 15SM BKN100 15/13 A2972 RMK AC7 SLP061

CYQF;2007-08-08 08:00;CYQF 080800Z 00000KT 15SM FEW040 OVC100 15/13 A2971 RMK SC2AC6 SLP057

CYQF;2007-08-08 09:00;CYQF 080900Z 27004KT 15SM OVC100 15/13 A2974 RMK AC8 SLP064

CYQF;2007-08-08 09:28;CYQF 080928Z 29005KT 15SM -RA OVC100 RMK AC8

CYQF;2007-08-08 10:00;CYQF 081000Z CCA 31006KT 10SM -RA FEW006 OVC100 15/11 A2978 RMK SF2AC6 SLP075

CYQF;2007-08-08 11:00;CYQF 081100Z 00000KT 15SM OVC075 14/12 A2978 RMK AC8 SLP075

CYQF;2007-08-08 12:00;CYQF 081200Z CCA 33006KT 10SM -RA FEW040 OVC070 14/11 A2980 RMK SC2AC6 BR SLP094

CYQF;2007-08-08 13:00;CYQF 081300Z CCA 33005KT 15SM -RA SCT040 OVC070 13/12 A2983 RMK SC3AC5 SLP103

CYQF;2007-08-08 14:00;CYQF 081400Z 00000KT 10SM -RA FEW040 BKN070 OVC150 12/10 A2984 RMK SC2AC6AC1 SLP107

CYQF;2007-08-08 15:00;CYQF 081500Z 00000KT 10SM -RA BKN070 BKN120 13/11 A2984 RMK AC6AC2 SLP112

CYQF;2007-08-08 15:17;CYQF 081517Z 33004KT 10SM BKN060 BKN120 RMK SC6AC1

CYQF;2007-08-08 15:42;CYQF 081542Z 29003KT 10SM FEW006 BKN060 OVC120 RMK ST1SC6AC2

CYQF;2007-08-08 16:00;CYQF 081600Z 00000KT 10SM FEW006 BKN060 OVC120 13/11 A2986 RMK ST1SC6AC2 SLP119

CYQF;2007-08-08 17:00;CYQF 081700Z 33003KT 15SM FEW010 BKN060 OVC120 15/11 A2988 RMK CU1SC5AC2 SLP125

CYQF;2007-08-08 17:08;CYQF 081708Z 34008KT 15SM -SHRA FEW010 BKN060 OVC120 RMK CU1SC5AC2

CYQF;2007-08-08 18:00;CYQF 081800Z 32003KT 10SM -SHRA FEW015TCU BKN060 OVC120 16/12 A2989 RMK TCU2SC3AC3 SLP128

CYQF;2007-08-08 19:00;CYQF 081900Z 35006KT 15SM FEW020 BKN040 OVC080 16/11 A2989 RMK CU2SC3AC2 SLP129

CYQF;2007-08-08 20:00;CYQF 082000Z 01010G15KT 15SM FEW020 BKN040 OVC080 15/10 A2990 RMK CU2SC3AC2 SLP132

CYQF;2007-08-08 21:00;CYQF 082100Z 02008KT 15SM FEW020 BKN050 OVC090 14/10 A2992 RMK SC2SC6AC1 SLP138

CYQF;2007-08-08 22:00;CYQF 082200Z 36013KT 15SM FEW020 BKN050 OVC090 13/09 A2992 RMK SC2SC5AC2 SLP139

CYQF;2007-08-08 23:00;CYQF 082300Z 02007KT 15SM FEW020 BKN050 OVC090 13/09 A2993 RMK SC2SC5AC2 SLP142

CYQF;2007-08-08 23:48;CYQF 082348Z 02005KT 15SM -SHRA FEW015 BKN045 OVC090 RMK SC2SC4AC2

CYQF;2007-08-09 00:00;CYQF 090000Z 02005KT 12SM -SHRA FEW015 BKN040 OVC090 13/10 A2994 RMK SC2SC4AC2 SLP150

CYQF;2007-08-09 00:42;CYQF 090042Z 04006KT 12SM FEW015 BKN040 OVC090 RMK SC2SC3AC2

CYQF;2007-08-09 01:00;CYQF 090100Z 04007KT 12SM SCT015 BKN040 OVC090 12/10 A2995 RMK SC3SC3AC2 SLP152

CYQF;2007-08-09 01:36;CYQF 090136Z 02007KT 10SM -SHRA BKN015 OVC040 RMK SC5SC3

CYQF;2007-08-09 02:00;CYQF 090200Z 03005KT 10SM -SHRA BKN015 OVC040 12/10 A2995 RMK SC5SC3 SLP151

CYQF;2007-08-09 02:40;CYQF 090240Z 02012KT 10SM -SHRA FEW008 OVC018 RMK SF2SC6

CYQF;2007-08-09 03:00;CYQF 090300Z 01010KT 12SM VCSH FEW008 BKN018 OVC040 11/09 A2995 RMK SF2SC4SC2 SLP157

CYQF;2007-08-09 03:49;CYQF 090349Z 36011KT 10SM -SHRA SCT008 OVC020 RMK SF3SC5

CYQF;2007-08-09 04:00;CYQF 090400Z 35005KT 10SM -SHRA BKN011 OVC025 10/09 A2999 RMK SC5SC3 SLP168

CYQF;2007-08-09 05:00;CYQF 090500Z 01010KT 15SM -RA SCT011 OVC035 10/09 A2998 RMK SC3SC5 SLP166

CYQF;2007-08-09 06:00;CYQF 090600Z 01005KT 15SM -RA SCT007 OVC030 10/09 A2999 RMK SF3SC5 SLP168

CYQF;2007-08-09 07:00;CYQF 090700Z 02008KT 6SM -RA BR BKN005 BKN012 OVC030 10/09 A3001 RMK SF5SF2SC2 CIG RAG SLP173

CYQF;2007-08-09 08:00;CYQF 090800Z 03005KT 6SM -RA BR SCT005 BKN011 OVC030 10/09 A3001 RMK SF3SF3SC2 SLP172

CYQF;2007-08-09 09:00;CYQF 090900Z 06004KT 8SM -SHRA SCT005 OVC020 10/08 A3001 RMK SF3SC5 CVCTV CLD EMBD SLP177

CYQF;2007-08-09 09:25;CYQF 090925Z 02003KT 8SM FEW005 OVC030 RMK SF2SC6 BR

CYQF;2007-08-09 10:00;CYQF 091000Z 02003KT 8SM FEW005 SCT009 OVC030 10/09 A3003 RMK SF2SF2SC4 BR SLP181

CYQF;2007-08-09 11:00;CYQF 091100Z 03004KT 6SM -DZ OVC006 10/09 A3002 RMK ST8 SLP180

CYQF;2007-08-09 12:00;CYQF 091200Z 03003KT 6SM -DZ BR BKN006 OVC016 10/08 A3003 RMK SF6ST2 BLN EST SLP186

CYQF;2007-08-09 12:11;CYQF 091211Z 00000KT 8SM FEW006 BKN016 OVC025 RMK SF2ST3SC2 BR

CYQF;2007-08-09 13:00;CYQF 091300Z 00000KT 8SM SCT005 OVC017 10/08 A3005 RMK SF4SC4 BR SLP191

CYQF;2007-08-09 13:12;CYQF 091312Z 34003KT 10SM BKN005 OVC017 RMK SF5SC3 BR

CYQF;2007-08-09 13:23;CYQF 091323Z 36003KT 8SM -DZ BKN005 OVC017 RMK SF6SC2 BR

CYQF;2007-08-09 13:41;CYQF 091341Z 36003KT 8SM -RA SCT005 BKN017 OVC070 RMK SF3SC4AC1 BR

CYQF;2007-08-09 14:00;CYQF 091400Z 02004KT 8SM -RA SCT005 BKN017 OVC070 10/08 A3005 RMK SF3SC3AC2 SLP193

CYQF;2007-08-09 14:35;CYQF 091435Z 36004KT 10SM SCT005 OVC009 RMK SF3ST4

CYQF;2007-08-09 15:00;CYQF 091500Z 01004KT 10SM SCT005 OVC011 10/08 A3007 RMK SF4ST3 SLP200

CYQF;2007-08-09 16:00;CYQF 091600Z 01006KT 10SM -DZ SCT005 OVC012 11/08 A3008 RMK SF3ST5 SLP202

CYQF;2007-08-09 17:00;CYQF 091700Z 36005KT 10SM -DZ SCT005 OVC012 11/08 A3008 RMK SF4ST4 SLP204

CYQF;2007-08-09 18:00;CYQF 091800Z 04005KT 10SM -DZ SCT005 OVC012 11/08 A3009 RMK SF3ST5 SLP206

CYQF;2007-08-09 19:00;CYQF 091900Z 36005KT 10SM -DZ SCT005 OVC015 12/08 A3008 RMK SF3CU4 SLP205

CYQF;2007-08-09 20:00;CYQF 092000Z 02006KT 10SM FEW005 BKN015 OVC030 13/08 A3008 RMK SF2CU3SC2 SLP203

CYQF;2007-08-09 21:00;CYQF 092100Z 02004KT 10SM BKN020 OVC040 13/08 A3009 RMK CU6SC2 SLP205

CYQF;2007-08-09 22:00;CYQF 092200Z 00000KT 12SM BKN022 OVC040 13/07 A3009 RMK CU6SC2 SLP206

CYQF;2007-08-09 23:00;CYQF 092300Z 02005KT 10SM -RA BKN020 OVC040 12/08 A3009 RMK SC6SC2 CU ASOCTD SLP206

CYQF;2007-08-10 00:00;CYQF 100000Z 05002KT 12SM -RA SCT020 OVC040 12/08 A3008 RMK SC3SC5 CU ASOCTD SLP204

CYQF;2007-08-10 01:00;CYQF 100100Z 06003KT 12SM -SHRA SCT020 OVC040 12/09 A3008 RMK SC3SC5 CU ASOCTD SLP204

CYQF;2007-08-10 02:00;CYQF 100200Z 03003KT 10SM -RA FEW020 BKN040 OVC070 12/09 A3008 RMK SC2SC5AC2 SLP202

CYQF;2007-08-10 03:00;CYQF 100300Z 00000KT 6SM -RA BR BKN020 OVC040 11/09 A3009 RMK SC6SC2 SLP206

CYQF;2007-08-10 04:00;CYQF 100400Z 06004KT 15SM -RA SCT020 OVC040 11/09 A3007 RMK SC3SC4 SLP202

CYQF;2007-08-10 05:00;CYQF 100500Z 09003KT 10SM -RA FEW007 OVC035 10/09 A3009 RMK SF2SC6 SLP208

CYQF;2007-08-10 06:00;CYQF 100600Z 09002KT 10SM -RA FEW007 OVC018 10/09 A3008 RMK SF2SC6 SLP202

CYQF;2007-08-10 07:00;CYQF 100700Z 11003KT 10SM -RA FEW006 OVC050 10/09 A3006 RERA RMK SF2SC6 SLP198

CYQF;2007-08-10 08:00;CYQF 100800Z 10005KT 15SM -RA FEW006 OVC050 10/10 A3004 RMK SF2SC6 SLP189

CYQF;2007-08-10 09:00;CYQF 100900Z 04003KT 6SM -RA BR FEW006 OVC050 10/09 A3004 RMK SF2SC6 SLP187

CYQF;2007-08-10 10:00;CYQF 101000Z 07005KT 3SM -RADZ BR FEW006 OVC011 10/09 A3003 RMK SF2ST6 SLP185

CYQF;2007-08-10 10:25;CYQF 101025Z 07007KT 6SM -DZ BR FEW006 BKN011 OVC040 RMK SF2ST4SC2

CYQF;2007-08-10 10:55;CYQF 101055Z 08003KT 4SM -RADZ BR FEW005 BKN009 OVC030 RMK SF2ST5SC2

CYQF;2007-08-10 11:00;CYQF 101100Z 08003KT 3SM -RADZ BR FEW005 BKN009 OVC030 10/09 A3001 RMK SF2ST5SC2 SLP179

CYQF;2007-08-10 11:22;CYQF 101122Z 07004KT 1 1/2SM RADZ BR FEW005 OVC010 RMK SF2ST6

CYQF;2007-08-10 11:41;CYQF 101141Z 08007KT 3SM RADZ BR FEW005 OVC010 RMK SF2ST6

CYQF;2007-08-10 12:00;CYQF 101200Z 10005KT 2SM -RA BR FEW005 OVC010 10/09 A3000 RMK SF2ST6 SLP176

CYQF;2007-08-10 12:17;CYQF 101217Z 09006KT 1 1/2SM -RA BR SCT005 OVC010 RMK SF3ST5

CYQF;2007-08-10 13:00;CYQF 101300Z 10009KT 6SM -RA BR FEW005 BKN008 OVC025 09/08 A2998 RMK SF2ST3SC2 SLP170

CYQF;2007-08-10 13:52;CYQF 101352Z 03005KT 2SM +RA BR SCT005 OVC008 RMK SF3ST5

CYQF;2007-08-10 14:00;CYQF 101400Z 01007KT 2SM +RA BR SCT005 OVC008 09/08 A2999 RMK SF3ST5 SLP172

CYQF;2007-08-10 14:42;CYQF 101442Z 01003KT 1 1/2SM -RA BR BKN007 OVC010 RMK SF6SC2 RERA

CYQF;2007-08-10 15:00;CYQF 101500Z 05008KT 1 1/4SM -RA BR BKN007 OVC010 09/08 A3000 RMK SF6SC2 RERA SLP177

CYQF;2007-08-10 16:00;CYQF 101600Z 07010KT 10SM -RA FEW007 BKN030 OVC070 08/07 A2997 RMK CF2SC5AC2 RERA HVR SHS E QUAD SLP167

CYQF;2007-08-10 17:00;CYQF 101700Z 03012KT 12SM -RA SCT007 BKN025 OVC070 09/07 A2997 RMK CF3SC3AC2 SLP167

CYQF;2007-08-10 18:00;CYQF 101800Z 02010KT 15SM SCT011 OVC021 09/07 A2998 RMK CU3SC5 SLP170

CYQF;2007-08-10 19:00;CYQF 101900Z 03009KT 15SM BKN012 OVC020 10/07 A2998 RMK CU6SC2 SLP171

CYQF;2007-08-10 20:00;CYQF 102000Z 36006KT 15SM BKN012 OVC020 10/07 A2998 RMK CU6SC2 TCU ASOCTD SLP171

CYQF;2007-08-10 21:00;CYQF 102100Z 36006KT 15SM BKN017 OVC025 11/06 A3000 RMK CU6SC2 TCU ASOCTD SLP175

CYQF;2007-08-10 22:00;CYQF 102200Z 36008KT 15SM FEW010 BKN017 OVC025 10/07 A3000 RMK CF2CU6SC1 TCU ASOCTD SLP177

CYQF;2007-08-10 23:00;CYQF 102300Z 35003KT 15SM FEW010 BKN017 OVC025 10/07 A3002 RMK CF2CU5SC2 TCU ASOCTD SLP181

CYQF;2007-08-11 00:00;CYQF 110000Z 30004KT 15SM FEW010 OVC020 10/07 A3003 RMK CF2SC6 SLP186

CYQF;2007-08-11 01:00;CYQF 110100Z 32010KT 15SM SCT010 OVC020 10/08 A3003 RMK CF3SC5 SLP188

CYQF;2007-08-11 02:00;CYQF 110200Z 32004KT 15SM FEW010 BKN030 BKN100 10/07 A3005 RMK CU2SC2AC2 CB W SLP192

CYQF;2007-08-11 03:00;CYQF 110300Z 00000KT 15SM FEW010CB BKN030 BKN100 10/08 A3005 RMK CB2SC2AC1 SLP198

CYQF;2007-08-11 04:00;CYQF 110400Z 24002KT 15SM FEW010 FEW210 08/07 A3007 RMK CU2CI0 SLP203

CYQF;2007-08-11 05:00;CYQF 110500Z 00000KT 15SM FEW030 07/07 A3007 RMK SC1 SLP202

CYQF;2007-08-11 06:00;CYQF 110600Z 00000KT 3SM BR SKC 06/05 A3007 RMK SLP207

CYQF;2007-08-11 06:18;CYQF 110618Z 19003KT 1SM BR SKC

CYQF;2007-08-11 07:00;CYQF 110700Z 23004KT 1SM BR SKC 04/04 A3006 RMK SLP205

CYQF;2007-08-11 08:00;CYQF 110800Z 22006KT 1SM BR SKC 03/03 A3006 RMK SLP205

CYQF;2007-08-11 09:00;CYQF 110900Z 00000KT 2SM BR SKC 04/03 A3007 RMK SLP207

CYQF;2007-08-11 09:37;CYQF 110937Z 00000KT 5SM BR SKC

CYQF;2007-08-11 10:00;CYQF 111000Z 00000KT 5SM BR SKC 04/03 A3008 RMK SLP209

CYQF;2007-08-11 11:00;CYQF 111100Z 20004KT 10SM VCFG SKC 02/02 A3008 RMK SLP211

CYQF;2007-08-11 12:00;CYQF 111200Z 00000KT 5SM BR SKC 02/01 A3010 RMK VIS NW 11/2 SLP219

CYQF;2007-08-11 13:00;CYQF 111300Z 00000KT 5SM BR SKC 02/02 A3010 RMK VIS NW 11/2 SLP220

CYQF;2007-08-11 14:00;CYQF 111400Z 00000KT 15SM SKC 05/04 A3011 RMK SLP224

CYQF;2007-08-11 15:00;CYQF 111500Z 00000KT 15SM FEW010 08/06 A3012 RMK SF1 SLP222

CYQF;2007-08-11 16:00;CYQF 111600Z 15002KT 15SM FEW270 10/07 A3012 RMK CI0 SLP222

CYQF;2007-08-11 17:00;CYQF 111700Z 19006KT 15SM FEW015 FEW270 13/08 A3012 RMK CF1CI0 SLP220

CYQF;2007-08-11 18:00;CYQF 111800Z 00000KT 15SM FEW025 SCT270 15/07 A3010 RMK CF1CI1 SLP211

CYQF;2007-08-11 19:00;CYQF 111900Z 16007KT 15SM FEW030 SCT270 17/07 A3010 RMK CU1CI2 SLP209

CYQF;2007-08-11 20:00;CYQF 112000Z 17008KT 15SM FEW030 SCT270 18/06 A3008 RMK CU1CI2 SLP205

CYQF;2007-08-11 21:00;CYQF 112100Z 18004KT 15SM FEW050 BKN270 19/05 A3007 RMK CU1CI2 SLP197

CYQF;2007-08-11 22:00;CYQF 112200Z 13008KT 15SM FEW050 BKN270 19/07 A3005 RMK CU1CI2 SLP191

CYQF;2007-08-11 23:00;CYQF 112300Z 17009KT 15SM FEW050 BKN270 19/06 A3004 RMK CU2CI6 SLP189

CYQF;2007-08-12 00:00;CYQF 120000Z 15008KT 15SM FEW050 BKN120 OVC270 18/06 A3002 RMK CU1AC5CI2 SLP184

CYQF;2007-08-12 01:00;CYQF 120100Z 14005KT 15SM FEW050 BKN150 OVC270 17/08 A3002 RMK CU1AC5CI3 SLP183

CYQF;2007-08-12 02:00;CYQF 120200Z 13005KT 15SM FEW050 BKN150 OVC270 16/08 A3002 RMK SC1AC6CI2 SLP182

CYQF;2007-08-12 03:00;CYQF 120300Z 09004KT 15SM FEW050 BKN160 OVC270 15/09 A3001 RMK SC1AC5CI2 SLP179

CYQF;2007-08-12 04:00;CYQF 120400Z 12005KT 15SM FEW160 BKN270 14/08 A3002 RMK AC2CI5 SLP180

CYQF;2007-08-12 05:00;CYQF 120500Z 14007KT 15SM FEW160 BKN270 13/08 A3001 RMK AC2CI6 SLP179

CYQF;2007-08-12 06:00;CYQF 120600Z 16005KT 15SM FEW160 BKN270 12/07 A3001 RMK AC2CI1 SLP173

CYQF;2007-08-12 07:00;CYQF 120700Z 13005KT 15SM FEW270 12/06 A3001 RMK CI0 SLP171

CYQF;2007-08-12 08:00;CYQF 120800Z 15006KT 15SM FEW210 11/06 A2999 RMK CI0 SLP166

CYQF;2007-08-12 09:00;CYQF 120900Z 12003KT 15SM SKC 11/06 A2996 RMK SLP154

CYQF;2007-08-12 10:00;CYQF 121000Z 00000KT 15SM SCT210 10/05 A2995 RMK CI2 SLP149

CYQF;2007-08-12 11:00;CYQF 121100Z 13006KT 15SM SCT210 10/05 A2994 RMK CI2 SLP145

CYQF;2007-08-12 12:00;CYQF 121200Z 14004KT 15SM BKN150 09/06 A2992 RMK AC6 SLP142

CYQF;2007-08-12 13:00;CYQF 121300Z 00000KT 15SM BKN150 09/06 A2992 RMK AC7 SLP142

CYQF;2007-08-12 14:00;CYQF 121400Z 00000KT 15SM BKN120 10/06 A2992 RMK AC7 SLP142

CYQF;2007-08-12 15:00;CYQF 121500Z 16003KT 15SM BKN120 BKN270 10/07 A2992 RMK AC6CI1 SLP144

CYQF;2007-08-12 16:00;CYQF 121600Z 21003KT 15SM BKN120 BKN270 11/07 A2993 RMK AC6CI1 SLP146

CYQF;2007-08-12 17:00;CYQF 121700Z 00000KT 15SM BKN120 BKN270 11/07 A2992 RMK AC6CI2 SLP143

CYQF;2007-08-12 18:00;CYQF 121800Z 33004KT 15SM FEW006 BKN120 BKN270 12/08 A2991 RMK SF1AC5CI1 SLP142

CYQF;2007-08-12 19:00;CYQF 121900Z 01008KT 15SM FEW020 BKN120 BKN270 15/09 A2992 RMK CU2AC2CI1 SLP144

CYQF;2007-08-12 20:00;CYQF 122000Z 34007KT 15SM SCT020 BKN120 BKN270 15/10 A2993 RMK CU4AC1CI0 SLP146

CYQF;2007-08-12 21:00;CYQF 122100Z 34006KT 15SM BKN025 BKN120 BKN270 16/09 A2993 RMK CU5AC1CI0 SLP146

CYQF;2007-08-12 22:00;CYQF 122200Z 33009KT 15SM SCT025 BKN100 BKN270 17/11 A2994 RMK CU4AC1CI1 SLP148

CYQF;2007-08-12 23:00;CYQF 122300Z 32010KT 15SM BKN025 BKN100 BKN270 17/10 A2995 RMK CU5AC1CI1 SLP152

CYQF;2007-08-13 00:00;CYQF 130000Z 33008KT 15SM SCT025 BKN100 BKN270 16/10 A2996 RMK CU4AC2CI1 SLP156

CYQF;2007-08-13 01:00;CYQF 130100Z 33010KT 15SM BKN025 OVC270 16/10 A2997 RMK SC6CI1 SLP161

CYQF;2007-08-13 02:00;CYQF 130200Z 32006KT 15SM FEW025 BKN100 OVC270 15/11 A2998 RMK SC2AC2CI1 VIRGA SLP163

CYQF;2007-08-13 03:00;CYQF 130300Z CCA 34006KT 12SM BKN100 OVC270 14/10 A3000 RMK AC6CI2 VIRGA SLP173

CYQF;2007-08-13 04:00;CYQF 130400Z 29005KT 10SM BKN100 OVC270 13/10 A3005 RMK AC6CI1 PRESRR SLP187

CYQF;2007-08-13 05:00;CYQF 130500Z 33007KT 15SM FEW100 BKN270 11/09 A3005 RMK AC1CI2 SLP189

CYQF;2007-08-13 06:00;CYQF 130600Z 32009KT 15SM OVC100 12/09 A3006 RMK AC8 SLP194

CYQF;2007-08-13 07:00;CYQF 130700Z 33004KT 12SM BKN016 OVC100 12/09 A3008 RMK SC6AC2 SLP200

CYQF;2007-08-13 08:00;CYQF 130800Z 31008KT 15SM OVC016 12/09 A3009 RMK SC8 SLP204

CYQF;2007-08-13 09:00;CYQF 130900Z 33012KT 15SM BKN016 OVC100 12/09 A3010 RMK SC5AC3 SLP205

CYQF;2007-08-13 10:00;CYQF 131000Z 33007KT 15SM BKN015 BKN100 12/09 A3012 RMK SC6AC1 SLP209

CYQF;2007-08-13 11:00;CYQF 131100Z 33007KT 15SM FEW006 BKN014 11/04 A3012 RMK SF1SC6 SLP211

CYQF;2007-08-13 12:00;CYQF 131200Z 34012KT 15SM FEW006 OVC014 11/08 A3015 RMK SF1SC7 SLP219

CYQF;2007-08-13 12:23;CYQF 131223Z 33010KT 15SM OVC010 RMK SC8

CYQF;2007-08-13 13:00;CYQF 131300Z 33007KT 15SM OVC012 11/08 A3017 RMK SC8 CIG RAG SLP227

CYQF;2007-08-13 14:00;CYQF 131400Z 34008KT 15SM OVC010 10/08 A3019 RMK SC8 CIG RAG SLP232

CYQF;2007-08-13 15:00;CYQF 131500Z 35012KT 15SM OVC010 11/07 A3020 RMK SC8 CIG RAG SLP242

CYQF;2007-08-13 16:00;CYQF 131600Z 32010KT 15SM OVC010 11/08 A3022 RMK SC8 CIG RAG SLP246

CYQF;2007-08-13 17:00;CYQF 131700Z 31010KT 15SM BKN012 OVC025 11/08 A3024 RMK CU7SC1 CIG RAG SLP252

CYQF;2007-08-13 18:00;CYQF 131800Z 33007KT 15SM FEW005 BKN012 OVC025 12/08 A3025 RMK CF1CU7SC1 CIG RAG SLP260

CYQF;2007-08-13 19:00;CYQF 131900Z 34010KT 15SM FEW005 BKN012 OVC080 11/08 A3025 RMK CF1CU6AC1 CIG RAG SLP261

CYQF;2007-08-13 20:00;CYQF 132000Z 35005KT 15SM OVC014 11/07 A3025 RMK SC8 CIG RAG SLP262

CYQF;2007-08-13 20:11;CYQF 132011Z 36003KT 15SM OVC016 RMK SC8 CIG RAG

CYQF;2007-08-13 21:00;CYQF 132100Z 34005KT 15SM OVC016 12/07 A3025 RMK SC8 SLP260

CYQF;2007-08-13 22:00;CYQF 132200Z 34006KT 15SM BKN021 12/08 A3025 RMK SC7 CIG RAG SLP259

CYQF;2007-08-13 23:00;CYQF 132300Z 33004KT 15SM BKN025 BKN090 14/07 A3024 RMK SC5AC1 SLP257

CYQF;2007-08-14 00:00;CYQF 140000Z 36002KT 15SM BKN025 BKN090 13/07 A3024 RMK SC6AC1 SLP255

CYQF;2007-08-14 01:00;CYQF 140100Z 00000KT 15SM FEW025 BKN090 14/07 A3023 RMK SC2AC2 SLP253

CYQF;2007-08-14 02:00;CYQF 140200Z 00000KT 15SM FEW025 BKN090 13/07 A3023 RMK SC1AC3 SLP252

CYQF;2007-08-14 03:00;CYQF 140300Z 24003KT 15SM SCT025 BKN090 11/08 A3024 RMK SC3AC2 SLP258

CYQF;2007-08-14 04:00;CYQF 140400Z 24003KT 15SM FEW030 10/07 A3025 RMK SC2 SLP259

CYQF;2007-08-14 05:00;CYQF 140500Z 26004KT 15SM SKC 08/07 A3024 RMK SLP257

CYQF;2007-08-14 06:00;CYQF 140600Z 00000KT 15SM SKC 07/06 A3024 RMK SLP261

CYQF;2007-08-14 07:00;CYQF 140700Z 00000KT 15SM FEW100 06/05 A3023 RMK AC2 SLP257

CYQF;2007-08-14 08:00;CYQF 140800Z 18003KT 15SM FEW100 06/04 A3022 RMK AC2 SLP254

CYQF;2007-08-14 09:00;CYQF 140900Z 00000KT 15SM BKN100 07/06 A3021 RMK AC5 SLP252

CYQF;2007-08-14 10:00;CYQF 141000Z 00000KT 15SM BKN090 BKN270 08/06 A3020 RMK AC6CI1 SLP248

CYQF;2007-08-14 11:00;CYQF 141100Z 00000KT 15SM BKN090 BKN270 08/07 A3018 RMK AC6CI1 SLP243

CYQF;2007-08-14 12:00;CYQF 141200Z 00000KT 15SM BKN090 BKN270 08/07 A3017 RMK AC6CI1 SLP236

CYQF;2007-08-14 13:00;CYQF 141300Z 18005KT 8SM FEW090 08/07 A3015 RMK AC2 BR SLP228

CYQF;2007-08-14 14:00;CYQF 141400Z 00000KT 10SM SCT090 10/08 A3014 RMK AC4 BR SLP225

CYQF;2007-08-14 15:00;CYQF 141500Z 17008KT 15SM BKN090 12/08 A3012 RMK AC3 SLP215

CYQF;2007-08-14 16:00;CYQF 141600Z 20006KT 15SM FEW025 BKN090 13/08 A3011 RMK CU1AC2 SLP211

CYQF;2007-08-14 17:00;CYQF 141700Z 23008KT 15SM SCT025 BKN090 15/09 A3010 RMK CU3AC1 SLP207

CYQF;2007-08-14 18:00;CYQF 141800Z 15005KT 15SM FEW025 16/09 A3007 RMK CU2 SLP199

CYQF;2007-08-14 19:00;CYQF 141900Z 23002KT 15SM FEW025 17/09 A3005 RMK CU2 SLP193

CYQF;2007-08-14 20:00;CYQF 142000Z 00000KT 15SM FEW035 18/08 A3003 RMK CU2 SLP186

CYQF;2007-08-14 21:00;CYQF 142100Z 02002KT 15SM FEW045 19/07 A3001 RMK CU1 SLP172

CYQF;2007-08-14 22:00;CYQF 142200Z 12003KT 15SM FEW045 20/07 A2999 RMK CU1 SLP166

CYQF;2007-08-14 23:00;CYQF 142300Z 00000KT 15SM SKC 20/06 A2997 RMK SLP161

CYQF;2007-08-15 00:00;CYQF 150000Z 00000KT 15SM SKC 21/06 A2996 RMK SLP155

CYQF;2007-08-15 01:00;CYQF 150100Z 02005KT 15SM SKC 20/06 A2996 RMK SLP155

CYQF;2007-08-15 02:00;CYQF 150200Z 06002KT 15SM SKC 18/08 A2997 RMK SLP157

CYQF;2007-08-15 03:00;CYQF 150300Z 06002KT 15SM FEW120 17/09 A2998 RMK AC1 SLP161

CYQF;2007-08-15 04:00;CYQF 150400Z 08002KT 15SM FEW120 14/08 A3000 RMK AC1 SLP168

CYQF;2007-08-15 05:00;CYQF 150500Z 01002KT 15SM FEW120 12/07 A3002 RMK AC1 SLP172

CYQF;2007-08-15 06:00;CYQF 150600Z 33003KT 15SM FEW120 11/07 A3004 RMK AC1 SLP182

CYQF;2007-08-15 07:00;CYQF 150700Z 20003KT 15SM FEW120 08/06 A3005 RMK AC1 SLP185

CYQF;2007-08-15 08:00;CYQF 150800Z 25003KT 15SM SKC 09/06 A3005 RMK SLP186

CYQF;2007-08-15 09:00;CYQF 150900Z 00000KT 15SM SKC 08/06 A3006 RMK SLP191

CYQF;2007-08-15 10:00;CYQF 151000Z 00000KT 15SM FEW250 07/05 A3007 RMK CI1 SLP194

CYQF;2007-08-15 11:00;CYQF 151100Z 00000KT 15SM FEW120 07/06 A3008 RMK AC1 SLP196

CYQF;2007-08-15 12:00;CYQF 151200Z 00000KT 15SM FEW120 06/04 A3009 RMK AC1 SLP200

CYQF;2007-08-15 13:00;CYQF 151300Z 20003KT 15SM FEW120 06/05 A3009 RMK AC1 SLP202

CYQF;2007-08-15 14:00;CYQF 151400Z 22005KT 15SM SKC 08/07 A3010 RMK SLP204

CYQF;2007-08-15 15:00;CYQF 151500Z 00000KT 15SM SKC 12/09 A3011 RMK SLP206

CYQF;2007-08-15 16:00;CYQF 151600Z 00000KT 15SM SKC 15/10 A3012 RMK SLP208

CYQF;2007-08-15 17:00;CYQF 151700Z 04004KT 15SM SKC 18/10 A3012 RMK SLP208

CYQF;2007-08-15 18:00;CYQF 151800Z 00000KT 15SM SKC 18/07 A3011 RMK SLP206

CYQF;2007-08-15 19:00;CYQF 151900Z 12004KT 15SM FEW040 19/08 A3010 RMK CU1 SLP203

CYQF;2007-08-15 20:00;CYQF 152000Z 23004KT 15SM FEW045 20/08 A3010 RMK CU2 SLP201

CYQF;2007-08-15 21:00;CYQF 152100Z 00000KT 15SM SCT050 21/08 A3010 RMK CU3 SLP200

CYQF;2007-08-15 22:00;CYQF 152200Z 00000KT 15SM SCT050 21/08 A3009 RMK CU4 SLP199

CYQF;2007-08-15 23:00;CYQF 152300Z 00000KT 15SM FEW050 21/08 A3009 RMK CU1 SLP197

CYQF;2007-08-16 00:00;CYQF 160000Z 05007KT 15SM FEW050 FEW270 21/09 A3009 RMK CU1CI0 SLP200

CYQF;2007-08-16 01:00;CYQF 160100Z 06006KT 15SM FEW050 FEW270 21/09 A3008 RMK CU1CI1 SLP197

CYQF;2007-08-16 02:00;CYQF 160200Z 06007KT 15SM FEW090 20/10 A3008 RMK AC1 SLP198

CYQF;2007-08-16 03:00;CYQF 160300Z 05007KT 15SM FEW100 17/10 A3008 RMK AC2 SLP197

CYQF;2007-08-16 04:00;CYQF 160400Z 07005KT 15SM FEW100 14/10 A3010 RMK AC1 SLP203

CYQF;2007-08-16 05:00;CYQF 160500Z 07003KT 15SM BKN100 14/09 A3011 RMK AC2 SLP205

CYQF;2007-08-16 06:00;CYQF 160600Z 00000KT 15SM BKN090 14/09 A3012 RMK AC2 SLP205

CYQF;2007-08-16 07:00;CYQF 160700Z 00000KT 15SM BKN090 14/09 A3012 RMK AC2 SLP204

CYQF;2007-08-16 08:00;CYQF 160800Z 00000KT 15SM BKN090 12/08 A3012 RMK AC6 SLP204

CYQF;2007-08-16 09:00;CYQF 160900Z 00000KT 15SM FEW090 11/08 A3011 RMK AC1 SLP202

CYQF;2007-08-16 10:00;CYQF 161000Z 00000KT 15SM FEW100 11/08 A3011 RMK AC1 SLP201

CYQF;2007-08-16 11:00;CYQF 161100Z 00000KT 15SM FEW100 08/06 A3010 RMK AC1 SLP199

CYQF;2007-08-16 12:00;CYQF 161200Z 00000KT 15SM FEW080 10/07 A3010 RMK AC1 SLP198

CYQF;2007-08-16 13:00;CYQF 161300Z 00000KT 15SM FEW080 FEW250 10/07 A3010 RMK AC1CI0 SLP199

CYQF;2007-08-16 14:00;CYQF 161400Z 00000KT 15SM FEW090 11/08 A3011 RMK AC2 SLP201

CYQF;2007-08-16 15:00;CYQF 161500Z 08002KT 15SM FEW090 15/08 A3012 RMK AC1 SLP204

CYQF;2007-08-16 16:00;CYQF 161600Z 11005KT 15SM FEW090 18/10 A3012 RMK AC1 SLP205

CYQF;2007-08-16 17:00;CYQF 161700Z 12012KT 15SM SKC 20/09 A3012 RMK SLP206

CYQF;2007-08-16 18:00;CYQF 161800Z 12010G15KT 15SM FEW050 21/09 A3012 RMK CU1 SLP201

CYQF;2007-08-16 19:00;CYQF 161900Z 10010G15KT 15SM FEW050 22/09 A3011 RMK CU2 SLP198

CYQF;2007-08-16 20:00;CYQF 162000Z 15012KT 15SM FEW050 22/09 A3010 RMK CU2 SLP195

CYQF;2007-08-16 21:00;CYQF 162100Z 13010G15KT 15SM SCT050 23/10 A3009 RMK CU4 SLP191

CYQF;2007-08-16 22:00;CYQF 162200Z 13010G15KT 15SM SCT050 24/10 A3007 RMK CU3 SLP186

CYQF;2007-08-16 23:00;CYQF 162300Z 13010G15KT 15SM FEW050 FEW250 24/10 A3005 RMK CU1CI1 SLP181

CYQF;2007-08-17 00:00;CYQF 170000Z 13010G15KT 15SM FEW050 FEW100 FEW250 24/10 A3004 RMK CU1AC1CI1 SLP176

CYQF;2007-08-17 01:00;CYQF 170100Z 12012KT 15SM FEW100 SCT250 23/10 A3003 RMK AC2CI1 SLP171

CYQF;2007-08-17 02:00;CYQF 170200Z 10007KT 15SM FEW100 FEW250 20/11 A3001 RMK AC2CI1 VIRGA ACC ASOCTD SLP166

CYQF;2007-08-17 03:00;CYQF 170300Z 09007KT 15SM FEW100 SCT250 18/10 A3001 RMK AC2CI0 SLP164

CYQF;2007-08-17 04:00;CYQF 170400Z 11008KT 15SM FEW100 FEW250 17/09 A3001 RMK AC1CI0 SLP164

CYQF;2007-08-17 05:00;CYQF 170500Z 11011KT 15SM SKC 16/08 A3001 RMK SLP166

CYQF;2007-08-17 06:00;CYQF 170600Z 12006KT 15SM SKC 16/07 A3001 RMK SLP161

CYQF;2007-08-17 07:00;CYQF 170700Z 11005KT 15SM SKC 15/07 A3000 RMK SLP160

CYQF;2007-08-17 08:00;CYQF 170800Z 09005KT 15SM FEW100 14/07 A2997 RMK AC1 SLP151

CYQF;2007-08-17 09:00;CYQF 170900Z 09004KT 15SM FEW100 13/07 A2995 RMK AC2 SLP144

CYQF;2007-08-17 10:00;CYQF 171000Z 13006KT 15SM FEW100 13/06 A2995 RMK AC2 SLP143

CYQF;2007-08-17 11:00;CYQF 171100Z 00000KT 15SM FEW100 11/06 A2995 RMK AC2 SLP141

CYQF;2007-08-17 12:00;CYQF 171200Z 04005KT 15SM SCT045CB BKN100 10/07 A2993 RMK CB3AC2 LTG DIST SE VIRGA SLP137

CYQF;2007-08-17 13:00;CYQF 171300Z 23010KT 15SM SCT045 BKN100 BKN260 11/07 A2995 RMK SC3AC2CI1 CB EMBDD VIRGA SLP145

CYQF;2007-08-17 14:00;CYQF 171400Z 00000KT 15SM FEW070 BKN250 11/07 A2995 RMK AC2CI2 SLP145

CYQF;2007-08-17 15:00;CYQF 171500Z 00000KT 15SM BKN250 14/08 A2995 RMK CI2 SLP148

CYQF;2007-08-17 16:00;CYQF 171600Z 09007KT 15SM FEW120 OVC250 16/09 A2993 RMK AC2CI3 SLP140

CYQF;2007-08-17 17:00;CYQF 171700Z 06008KT 15SM VCSH FEW060TCU SCT120 BKN250 15/09 A2990 RMK TCU2AC2CI2 SHS E QUAD SLP131

CYQF;2007-08-17 18:00;CYQF 171800Z 00000KT 15SM SCT120 BKN250 18/10 A2993 RMK AC3CI2 SHS DIST E SLP138

CYQF;2007-08-17 19:00;CYQF 171900Z 00000KT 15SM FEW060 SCT120 BKN250 18/10 A2992 RMK CU2AC2CI2 SHS DIST SE SLP134

CYQF;2007-08-17 20:00;CYQF 172000Z 00000KT 15SM FEW120 BKN250 20/11 A2990 RMK AC2CI3 FU SLP129

CYQF;2007-08-17 21:00;CYQF 172100Z 13009KT 15SM FEW120 BKN250 20/11 A2989 RMK AC1CI6 SLP126

CYQF;2007-08-17 22:00;CYQF 172200Z 14005KT 15SM FEW120 BKN250 22/12 A2989 RMK AC2CI2 FU SLP124

CYQF;2007-08-17 23:00;CYQF 172300Z 14008KT 15SM OVC250 21/11 A2987 RMK CI3 HZ SLP119

CYQF;2007-08-18 00:00;CYQF 180000Z 14006KT 15SM OVC250 22/12 A2986 RMK CI3 HZ SLP116

CYQF;2007-08-18 01:00;CYQF 180100Z 07003KT 10SM OVC250 20/12 A2985 RMK CI2 HZ SLP114

CYQF;2007-08-18 02:00;CYQF 180200Z 05005KT 10SM FEW250 19/12 A2985 RMK FU1CI1 FU SLP112

CYQF;2007-08-18 03:00;CYQF 180300Z 04005KT 10SM FEW100 FEW250 17/11 A2985 RMK AC1CI0 FU SLP112

CYQF;2007-08-18 04:00;CYQF 180400Z 05006KT 15SM SCT100 16/11 A2986 RMK AC3 SLP117

CYQF;2007-08-18 05:00;CYQF 180500Z 05010KT 15SM SCT100 15/10 A2988 RMK AC3 SLP122

CYQF;2007-08-18 06:00;CYQF 180600Z 06008KT 15SM SCT100 14/10 A2989 RMK AC3 SLP125

CYQF;2007-08-18 07:00;CYQF 180700Z 05007KT 15SM FEW120 13/09 A2989 RMK AC2 SLP126

CYQF;2007-08-18 08:00;CYQF 180800Z 07005KT 15SM SKC 12/09 A2988 RMK SLP124

CYQF;2007-08-18 09:00;CYQF 180900Z 01005KT 15SM FEW120 11/09 A2988 RMK AC2 SLP123

CYQF;2007-08-18 10:00;CYQF 181000Z 04005KT 15SM FEW120 SCT250 11/08 A2987 RMK AC2CI1 SLP121

CYQF;2007-08-18 11:00;CYQF 181100Z 03003KT 15SM SCT100 10/08 A2987 RMK AC3 SLP120

CYQF;2007-08-18 12:00;CYQF 181200Z 02002KT 15SM FEW100 09/08 A2986 RMK AC2 SLP118

CYQF;2007-08-18 12:51;CYQF 181251Z 01002KT 6SM BR SCT006 BKN100 RMK SF3AC2

CYQF;2007-08-18 13:00;CYQF 181300Z 00000KT 6SM BR BKN006 OVC100 10/09 A2986 RMK SF6AC2 SLP117

CYQF;2007-08-18 13:38;CYQF 181338Z 00000KT 2 1/2SM BR OVC004 RMK ST8

CYQF;2007-08-18 14:00;CYQF 181400Z 04002KT 2SM BR OVC004 11/09 A2987 RMK ST8 SLP121

CYQF;2007-08-18 15:00;CYQF 181500Z 03003KT 2SM BR OVC002 11/09 A2988 RMK ST8 BLN DSAPRD 400 FT SLP127

CYQF;2007-08-18 16:00;CYQF 181600Z 00000KT 2SM BR OVC004 11/09 A2987 RMK ST8 BLN DSAPRD 600 FT SLP123

CYQF;2007-08-18 16:35;CYQF 181635Z 00000KT 3SM BR OVC005 RMK ST8 BLN DSAPRD 600 FT

CYQF;2007-08-18 17:00;CYQF 181700Z 28003KT 3SM BR SCT005 SCT250 12/10 A2985 RMK ST3CI1 SLP118

CYQF;2007-08-18 17:12;CYQF 181712Z 00000KT 6SM BR BKN005 BKN250 RMK SF5CI1

CYQF;2007-08-18 17:38;CYQF 181738Z 00000KT 8SM BKN008 BKN250 RMK SC6CI1

CYQF;2007-08-18 18:00;CYQF 181800Z 00000KT 8SM BKN010 15/08 A2985 RMK SC6 SLP114

CYQF;2007-08-18 19:00;CYQF 181900Z 06003KT 8SM OVC016 15/11 A2984 RMK SC8 SLP112

CYQF;2007-08-18 20:00;CYQF 182000Z 03008KT 10SM OVC014 15/10 A2984 RMK SC8 SLP112

CYQF;2007-08-18 21:00;CYQF 182100Z 02008KT 10SM OVC015 15/11 A2983 RMK SC8 SLP112

CYQF;2007-08-18 22:00;CYQF 182200Z 02006KT 10SM OVC015 15/11 A2982 RMK SC8 SLP109

CYQF;2007-08-18 23:00;CYQF 182300Z 02006KT 12SM BKN020 BKN100 16/11 A2982 RMK CU5AC2 FU SLP107

CYQF;2007-08-19 00:00;CYQF 190000Z 34004KT 10SM BKN018 BKN100 OVC250 15/11 A2981 RMK SC5AC2CI1 CU ASOCTD FU SLP105

CYQF;2007-08-19 01:00;CYQF 190100Z 35010KT 8SM FEW020 BKN100 OVC250 15/11 A2979 RMK SC2AC3CI2 FU SLP099

CYQF;2007-08-19 02:00;CYQF 190200Z 35006KT 4SM FU BKN012 OVC100 15/12 A2979 RMK SC6AC2 SLP101

CYQF;2007-08-19 02:27;CYQF 190227Z 26015G25KT 3SM TSRA BKN012CB OVC090 RMK CB6AC2 LTGCGIC SW-NW+OVHD

CYQF;2007-08-19 03:00;CYQF 190300Z 30015G23KT 3SM TSRA OVC012CB 12/10 A2988 RMK CB8 LTG ALL TYPES PRESRR SLP131

CYQF;2007-08-19 03:24;CYQF 190324Z 35010KT 10SM -TSRA BKN015CB OVC090 RMK CB6AC2 RERA LTGCGCCIC S-E-N

CYQF;2007-08-19 04:00;CYQF 190400Z 04012G19KT 15SM -TSRA FEW006 BKN015CB BKN090 12/10 A2977 RMK SF2CB4AC2 RERA PRESFR LTGCGCC E-NE SLP099

CYQF;2007-08-19 04:22;CYQF 190422Z 35010KT 15SM FEW020 BKN090 RMK CU2AC3 RETS

CYQF;2007-08-19 05:00;CYQF 190500Z 05003KT 15SM FEW030 BKN090 12/10 A2976 RMK SC1AC4 RETS SLP096

CYQF;2007-08-19 06:00;CYQF 190600Z 22004KT 15SM FEW030 BKN090 11/10 A2979 RMK SC1AC4 SLP099

CYQF;2007-08-19 07:00;CYQF 190700Z 20004KT 15SM SKC 10/09 A2980 RMK SLP102

CYQF;2007-08-19 08:00;CYQF 190800Z 00000KT 15SM SKC 09/08 A2981 RMK BR SLP103

CYQF;2007-08-19 09:00;CYQF 190900Z 00000KT 3SM BR SKC 08/08 A2979 RMK SLP102

CYQF;2007-08-19 09:29;CYQF 190929Z 00000KT 3/4SM BR SKC RMK FG4

CYQF;2007-08-19 10:00;CYQF 191000Z 25003KT 1/2SM FG SKC 07/06 A2978 RMK FG6 SLP099

CYQF;2007-08-19 11:00;CYQF 191100Z 00000KT 1/2SM FG VV003 08/07 A2978 RMK FG8 SLP098

CYQF;2007-08-19 12:00;CYQF 191200Z 00000KT 1/4SM FG SKC 07/07 A2976 RMK FG7 SLP091

CYQF;2007-08-19 12:46;CYQF 191246Z 26003KT 3/4SM BR SCT120 BKN250 RMK FG2AC2CI2

CYQF;2007-08-19 13:00;CYQF 191300Z 00000KT 1SM BR SCT120 BKN250 08/07 A2976 RMK FG2AC2CI2 SLP092

CYQF;2007-08-19 14:00;CYQF 191400Z 00000KT 1SM BR SKC 09/08 A2976 RMK FG7 SLP091

CYQF;2007-08-19 15:00;CYQF 191500Z 00000KT 1 1/2SM BR VV005 10/09 A2976 RMK FG8 SLP092

CYQF;2007-08-19 16:00;CYQF 191600Z 00000KT 2SM BR OVC002 11/10 A2976 RMK ST8 BLN DSAPRD 500 FT SLP093

CYQF;2007-08-19 17:00;CYQF 191700Z 36004KT 6SM BR OVC005 12/11 A2972 RMK ST8 BLN DSAPRD 800 FT PRESFR SLP080

CYQF;2007-08-19 18:00;CYQF 191800Z 00000KT 6SM BR OVC008 14/12 A2971 RMK ST6 SLP072

CYQF;2007-08-19 19:00;CYQF 191900Z 00000KT 8SM BKN008 OVC030 15/12 A2969 RMK ST5SC3 SLP064

CYQF;2007-08-19 19:39;CYQF 191939Z 00000KT 8SM BKN011 OVC100 RMK ST6AC2

CYQF;2007-08-19 20:00;CYQF 192000Z 00000KT 10SM BKN015 OVC100 16/12 A2967 RMK ST6AC2 SLP060

CYQF;2007-08-19 21:00;CYQF 192100Z 00000KT 10SM BKN020 OVC100 16/12 A2967 RMK SC6AC2 SLP057

CYQF;2007-08-19 22:00;CYQF 192200Z 35003KT 12SM BKN020 OVC100 17/12 A2966 RMK SC6AC2 SLP053

CYQF;2007-08-19 23:00;CYQF 192300Z 36005KT 10SM OVC015 17/12 A2965 RMK SC8 FU SLP050

CYQF;2007-08-20 00:00;CYQF 200000Z 01003KT 12SM SCT015 OVC030 17/13 A2965 RMK SC4SC4 CU ASOCTD FU SLP051

CYQF;2007-08-20 01:00;CYQF 200100Z 01002KT 12SM BKN022 OVC080 16/13 A2965 RMK SC5AC3 FU SLP052

CYQF;2007-08-20 02:00;CYQF 200200Z 05004KT 12SM SCT020 OVC080 16/13 A2965 RMK SC3AC5 SLP051

CYQF;2007-08-20 03:00;CYQF 200300Z 35004KT 10SM FEW020 OVC080 15/12 A2965 RMK SC2AC6 FU SLP051

CYQF;2007-08-20 04:00;CYQF 200400Z 33003KT 10SM SCT015 OVC035 14/12 A2967 RMK SC3SC5 FU SLP057

CYQF;2007-08-20 05:00;CYQF 200500Z 33005KT 10SM FEW015 OVC080 14/12 A2965 RMK SC2AC6 FU SLP051

CYQF;2007-08-20 06:00;CYQF 200600Z 35003KT 10SM FEW015 OVC080 13/11 A2967 RMK SC2AC6 SLP054

CYQF;2007-08-20 07:00;CYQF 200700Z 30004KT 6SM BR SCT015 OVC080 13/11 A2965 RMK SC3AC5 SLP049

CYQF;2007-08-20 08:00;CYQF 200800Z 31006KT 6SM BR FEW015 OVC100 13/11 A2965 RMK SC2AC6 SLP047

CYQF;2007-08-20 09:00;CYQF 200900Z 30006KT 10SM OVC100 13/10 A2966 RMK AC8 SLP048

CYQF;2007-08-20 10:00;CYQF 201000Z 29010KT 12SM BKN100 OVC200 12/10 A2965 RMK AC6CI2 SLP047

CYQF;2007-08-20 11:00;CYQF 201100Z 29010KT 12SM FEW100 BKN250 12/09 A2966 RMK AC2CI2 SLP051

CYQF;2007-08-20 12:00;CYQF 201200Z 29008KT 12SM BKN080 OVC250 12/09 A2968 RMK AC6CI2 SLP056

CYQF;2007-08-20 13:00;CYQF 201300Z 27008KT 12SM FEW080 BKN120 BKN250 11/09 A2970 RMK AC2AC2CI0 SLP063

CYQF;2007-08-20 14:00;CYQF 201400Z 28005KT 15SM BKN080 BKN250 11/08 A2972 RMK AC5CI2 SLP070

CYQF;2007-08-20 15:00;CYQF 201500Z 30010KT 15SM BKN080 BKN250 13/08 A2973 RMK AC6CI1 SLP075

CYQF;2007-08-20 16:00;CYQF 201600Z 33010G15KT 15SM FEW080 FEW250 15/08 A2973 RMK AC1CI1 SLP076

CYQF;2007-08-20 17:00;CYQF 201700Z 31015G20KT 15SM FEW035 FEW250 16/07 A2973 RMK CU1CI1 SLP076

CYQF;2007-08-20 18:00;CYQF 201800Z 31010G15KT 15SM FEW040 FEW250 18/07 A2972 RMK CU1CI1 SLP069

CYQF;2007-08-20 19:00;CYQF 201900Z 33012G20KT 15SM FEW050 SCT120 BKN250 18/06 A2972 RMK CU2AC1CI1 SLP068

CYQF;2007-08-20 20:00;CYQF 202000Z 33010G15KT 15SM FEW050 BKN250 19/07 A2971 RMK CU2CI2 SLP066

CYQF;2007-08-20 21:00;CYQF 202100Z 34008KT 15SM FEW050 BKN250 19/06 A2970 RMK CU2CI2 SLP062

CYQF;2007-08-20 22:00;CYQF 202200Z 33005KT 15SM FEW040 SCT120 BKN250 20/06 A2970 RMK CU2AC1CI2 SLP060

CYQF;2007-08-20 23:00;CYQF 202300Z 35002KT 15SM SCT040 BKN120 BKN250 19/07 A2970 RMK CU3AC2CI2 SLP061

CYQF;2007-08-21 00:00;CYQF 210000Z 00000KT 15SM FEW040 SCT120 BKN250 19/07 A2970 RMK CU2AC2CI2 SLP062

CYQF;2007-08-21 01:00;CYQF 210100Z 00000KT 15SM SCT040 SCT120 BKN250 19/07 A2971 RMK CU3AC1CI2 SLP063

CYQF;2007-08-21 01:28;CYQF 210128Z 00000KT 15SM -SHRA SCT040 SCT120 BKN250 RMK CU3AC1CI2 TCU EMBDD

CYQF;2007-08-21 01:43;CYQF 210143Z 06002KT 15SM SCT040 BKN120 BKN250 RMK CU4AC1CI2 TCU/SHS SE

CYQF;2007-08-21 02:00;CYQF 210200Z 09002KT 15SM FEW040 SCT120 BKN250 16/10 A2971 RMK CU2AC2CI2 TCU/SHS E SLP065

CYQF;2007-08-21 03:00;CYQF 210300Z 19002KT 15SM FEW040 SCT120 BKN250 14/10 A2972 RMK CU2AC2CI2 SLP073

CYQF;2007-08-21 04:00;CYQF 210400Z 00000KT 15SM SCT040 BKN250 14/10 A2973 RMK SC4CI2 SLP077

CYQF;2007-08-21 05:00;CYQF 210500Z 00000KT 15SM FEW040 FEW120 FEW250 13/10 A2974 RMK SC1AC1CI0 SLP079

CYQF;2007-08-21 06:00;CYQF 210600Z 00000KT 15SM FEW040 FEW120 SCT250 12/09 A2976 RMK SC2AC1CI1 SLP082

CYQF;2007-08-21 07:00;CYQF 210700Z 30006KT 15SM FEW040 FEW120 SCT250 12/08 A2977 RMK SC1AC2CI0 SLP087

CYQF;2007-08-21 08:00;CYQF 210800Z 27009KT 15SM FEW100 SCT250 10/07 A2978 RMK AC2CI1 SLP090

CYQF;2007-08-21 09:00;CYQF 210900Z 30005KT 15SM FEW100 FEW250 10/06 A2979 RMK AC1CI1 SLP094

CYQF;2007-08-21 10:00;CYQF 211000Z 00000KT 15SM BKN100 10/05 A2980 RMK AC6 SLP097

CYQF;2007-08-21 11:00;CYQF 211100Z 00000KT 15SM SCT100 BKN250 09/06 A2981 RMK AC3CI3 SLP100

CYQF;2007-08-21 12:00;CYQF 211200Z 22005KT 15SM SCT070 BKN100 BKN250 09/07 A2982 RMK AC3AC2CI0 ACC ASOCTD SLP105

CYQF;2007-08-21 13:00;CYQF 211300Z 24005KT 15SM FEW070 SCT100 SCT250 08/06 A2982 RMK AC1AC3CI1 ACC ASOCTD SLP106

CYQF;2007-08-21 14:00;CYQF 211400Z 28004KT 15SM BKN070 BKN120 11/07 A2984 RMK AC5AC2 ACC ASOCTD SLP111

CYQF;2007-08-21 15:00;CYQF 211500Z 29006KT 15SM BKN060 BKN110 12/07 A2986 RMK SC6AC2 SHWRS N SLP121

CYQF;2007-08-21 16:00;CYQF 211600Z 29006KT 15SM SCT060 BKN100 13/09 A2985 RMK SC4AC2 SLP120

CYQF;2007-08-21 17:00;CYQF 211700Z 32018G26KT 15SM FEW030 BKN070 BKN100 15/07 A2987 RMK SC2AC4AC2 SLP124

CYQF;2007-08-21 18:00;CYQF 211800Z 29012G20KT 15SM FEW030 BKN070 OVC120 14/08 A2987 RMK SC2AC5AC1 SLP125

CYQF;2007-08-21 19:00;CYQF 211900Z 31018G30KT 15SM BKN030 OVC070 16/07 A2987 RMK SC5AC3 SLP127

CYQF;2007-08-21 19:38;CYQF 211938Z 31020G30KT 15SM -SHRA BKN030 OVC070 RMK SC6AC2 TCU ASOCTD

CYQF;2007-08-21 20:00;CYQF 212000Z 30020G30KT 15SM -SHRA BKN025 OVC070 14/07 A2990 RMK SC5AC3 TCU EMBDD SLP134

CYQF;2007-08-21 21:00;CYQF 212100Z 28015G25KT 15SM -SHRA BKN020 OVC050 13/08 A2991 RMK SF5SC3 SLP143

CYQF;2007-08-21 22:00;CYQF 212200Z 28012G20KT 15SM -SHRA SCT020 OVC045 13/09 A2991 RMK SF3SC5 SLP143

CYQF;2007-08-21 22:28;CYQF 212228Z 28011G17KT 15SM FEW015 BKN045 BKN090 RMK SF2SC3AC1

CYQF;2007-08-21 23:00;CYQF 212300Z 29012G17KT 15SM FEW015 BKN045 BKN090 15/09 A2991 RMK SF1SC4AC2 SLP143

CYQF;2007-08-22 00:00;CYQF 220000Z 30010KT 15SM FEW015 BKN040 BKN090 16/11 A2991 RMK SF1SC4AC2 SLP141

CYQF;2007-08-22 01:00;CYQF 220100Z 31018G26KT 15SM VCSH FEW015 BKN030 BKN090 17/08 A2992 RMK CF1CU4AC2 SLP145

CYQF;2007-08-22 02:00;CYQF 220200Z 31014KT 15SM VCSH FEW015 BKN030 BKN090 15/09 A2995 RMK CF1CU6AC1 SLP152

CYQF;2007-08-22 02:42;CYQF 220242Z 34015G22KT 15SM -SHRA FEW015 BKN030 BKN090 RMK CF1CU6AC1

CYQF;2007-08-22 03:00;CYQF 220300Z 33010G15KT 15SM VCSH FEW015 BKN030 BKN090 12/10 A2997 RMK CF1CU5AC2 SLP163

CYQF;2007-08-22 04:00;CYQF 220400Z 32010KT 15SM OVC060 13/09 A2999 RMK SC8 SLP169

CYQF;2007-08-22 05:00;CYQF 220500Z 30012KT 15SM FEW060 BKN150 12/09 A3000 RMK SC2AC4 SLP171

CYQF;2007-08-22 06:00;CYQF 220600Z 30010KT 15SM FEW060 BKN120 12/09 A3001 RMK SC1AC6 SLP172

CYQF;2007-08-22 07:00;CYQF 220700Z 29010KT 15SM OVC075 12/06 A3001 RMK AC8 SLP172

CYQF;2007-08-22 08:00;CYQF 220800Z 28012KT 15SM OVC060 12/08 A3001 RMK SC8 SLP172

CYQF;2007-08-22 09:00;CYQF 220900Z 30005KT 15SM BKN070 11/05 A3001 RMK AC7 SLP175

CYQF;2007-08-22 10:00;CYQF 221000Z 28006KT 15SM BKN070 11/08 A3001 RMK AC6 SLP175

CYQF;2007-08-22 11:00;CYQF 221100Z 30008KT 15SM BKN080 11/07 A3002 RMK AC6 SLP177

CYQF;2007-08-22 12:00;CYQF 221200Z 29006KT 15SM BKN080 10/07 A3003 RMK AC5 SLP179

CYQF;2007-08-22 13:00;CYQF 221300Z 28006KT 15SM BKN080 BKN250 10/06 A3004 RMK AC2CI1 SLP183

CYQF;2007-08-22 14:00;CYQF 221400Z 30007KT 15SM FEW100 BKN250 11/07 A3004 RMK AC2CI1 SLP184

CYQF;2007-08-22 15:00;CYQF 221500Z 32012KT 15SM FEW020 FEW100 BKN250 12/08 A3005 RMK SC1AC1CI1 SLP189

CYQF;2007-08-22 16:00;CYQF 221600Z 34010G15KT 15SM FEW020 BKN250 13/08 A3005 RMK CU2CI1 SLP188

CYQF;2007-08-22 17:00;CYQF 221700Z 31010G15KT 15SM BKN020 BKN250 14/09 A3005 RMK CU5CI1 SLP190

CYQF;2007-08-22 18:00;CYQF 221800Z 32010KT 15SM BKN025 BKN250 15/09 A3005 RMK CU6CI1 SLP189

CYQF;2007-08-22 19:00;CYQF 221900Z 32008KT 15SM BKN025 BKN250 15/09 A3005 RMK CU6CI1 SLP188

CYQF;2007-08-22 20:00;CYQF 222000Z 33009KT 15SM SCT030 BKN080 BKN250 16/08 A3005 RMK CU4AC2CI0 SLP186

CYQF;2007-08-22 21:00;CYQF 222100Z 34010G15KT 15SM SCT040 BKN080 BKN250 17/09 A3004 RMK CU3AC2CI1 SLP182

CYQF;2007-08-22 22:00;CYQF 222200Z 33012KT 15SM FEW040 BKN080 BKN250 17/08 A3004 RMK CU2AC2CI1 SLP182

CYQF;2007-08-22 23:00;CYQF 222300Z 34013KT 15SM FEW040 FEW090 BKN250 17/08 A3003 RMK CU2AC1CI2 SLP179

CYQF;2007-08-23 00:00;CYQF 230000Z 36005KT 15SM FEW040TCU SCT090 BKN250 16/09 A3004 RMK TCU2AC2CI1 SLP182

CYQF;2007-08-23 01:00;CYQF 230100Z 27005KT 15SM VCSH FEW040TCU BKN090 BKN250 13/08 A3004 RMK TCU2AC3CI0 SH SE-S SLP183

CYQF;2007-08-23 02:00;CYQF 230200Z 25004KT 15SM FEW040 SCT090 BKN250 14/10 A3004 RMK SC2AC2CI1 SLP182

CYQF;2007-08-23 03:00;CYQF 230300Z 26005KT 15SM SCT090 BKN250 11/09 A3004 RMK AC3CI1 SLP188

CYQF;2007-08-23 04:00;CYQF 230400Z 28004KT 15SM FEW090 BKN250 11/09 A3005 RMK AC2CI1 SLP190

CYQF;2007-08-23 05:00;CYQF 230500Z 28004KT 15SM FEW090 BKN250 11/09 A3005 RMK AC2CI1 SLP191

CYQF;2007-08-23 06:00;CYQF 230600Z 00000KT 15SM OVC120 11/09 A3005 RMK AC8 SLP189

CYQF;2007-08-23 07:00;CYQF 230700Z 00000KT 15SM BKN050 11/09 A3006 RMK SC6 SLP190

CYQF;2007-08-23 08:00;CYQF 230800Z 00000KT 15SM BKN060 10/08 A3005 RMK SC7 SLP188

CYQF;2007-08-23 09:00;CYQF 230900Z 00000KT 15SM BKN060 10/08 A3005 RMK SC7 SLP185

CYQF;2007-08-23 10:00;CYQF 231000Z 00000KT 15SM OVC060 09/08 A3005 RMK SC8 SLP185

CYQF;2007-08-23 11:00;CYQF 231100Z 00000KT 15SM BKN060 09/08 A3004 RMK SC7 SLP182

CYQF;2007-08-23 12:00;CYQF 231200Z 00000KT 15SM BKN060 10/08 A3002 RMK SC7 SLP179

CYQF;2007-08-23 13:00;CYQF 231300Z 00000KT 15SM BKN060 09/08 A3003 RMK SC7 VIRGA SE SLP181

CYQF;2007-08-23 14:00;CYQF 231400Z 00000KT 15SM BKN060 10/08 A3003 RMK SC7 SLP181

CYQF;2007-08-23 15:00;CYQF 231500Z 00000KT 15SM FEW015 BKN060 BKN250 11/09 A3004 RMK CU1SC6CI0 SLP189

CYQF;2007-08-23 16:00;CYQF 231600Z 00000KT 15SM FEW015 BKN060 BKN250 12/09 A3003 RMK CU1SC4CI1 SLP187

CYQF;2007-08-23 17:00;CYQF 231700Z 00000KT 15SM FEW025 BKN060 BKN250 14/08 A3003 RMK CU2SC3CI1 SLP186

CYQF;2007-08-23 18:00;CYQF 231800Z 00000KT 15SM FEW030 BKN060 BKN250 15/08 A3002 RMK CU2SC2CI1 TCU ASOCTD SLP178

CYQF;2007-08-23 19:00;CYQF 231900Z 05003KT 15SM SCT030 BKN060 BKN250 16/07 A3001 RMK CU4SC2CI0 TCU ASOCTD SLP175

CYQF;2007-08-23 20:00;CYQF 232000Z 06003KT 15SM VCSH SCT035TCU BKN090 BKN250 16/07 A3001 RMK TCU4AC2CI1 SLP173

CYQF;2007-08-23 21:00;CYQF 232100Z 22007KT 15SM VCSH BKN030TCU BKN090 BKN250 15/09 A3001 RMK TCU5AC2CI0 SLP176

CYQF;2007-08-23 21:17;CYQF 232117Z 31013G19KT 15SM -SHRA BKN030TCU BKN090 BKN250 RMK TCU5AC2CI0 CB ASOCTD

CYQF;2007-08-23 21:21;CYQF 232121Z 32014G20KT 15SM -TSRA BKN030CB BKN090 BKN250 RMK CB5AC2CI0 LTGCG

CYQF;2007-08-23 22:00;CYQF 232200Z 31008KT 10SM -SHRA FEW015 BKN030TCU OVC090 10/09 A3004 RMK SF2TCU5AC2 SLP184

CYQF;2007-08-23 23:00;CYQF 232300Z 10010KT 15SM FEW015 BKN040TCU BKN090 11/10 A3003 RMK SF1TCU4AC2 SLP180

CYQF;2007-08-24 00:00;CYQF 240000Z 00000KT 15SM FEW015 SCT040TCU BKN090 14/08 A3003 RMK SF1TCU2AC1 SLP182

CYQF;2007-08-24 01:00;CYQF 240100Z 24003KT 15SM FEW040TCU BKN090 15/08 A3002 RMK TCU2AC2 SLP179

CYQF;2007-08-24 02:00;CYQF 240200Z 27004KT 15SM FEW050 FEW090 SCT250 12/09 A3003 RMK SC2AC1CI1 SLP182

CYQF;2007-08-24 03:00;CYQF 240300Z 00000KT 15SM FEW050 SCT090 11/09 A3003 RMK SC2AC2 SLP185

CYQF;2007-08-24 04:00;CYQF 240400Z 19003KT 15SM FEW050 09/08 A3003 RMK SC2 SLP185

CYQF;2007-08-24 05:00;CYQF 240500Z 27005KT 15SM FEW050 08/06 A3003 RMK SC2 SLP186

CYQF;2007-08-24 06:00;CYQF 240600Z 27004KT 15SM SKC 07/06 A3003 RMK SLP183

CYQF;2007-08-24 07:00;CYQF 240700Z 00000KT 15SM FEW120 07/05 A3002 RMK AC1 SLP180

CYQF;2007-08-24 08:00;CYQF 240800Z 20003KT 15SM SKC 05/04 A3001 RMK SLP178

CYQF;2007-08-24 09:00;CYQF 240900Z CCA 00000KT 12SM SKC 05/04 A3001 RMK FG BNK S SLP180

CYQF;2007-08-24 09:08;CYQF 240908Z 00000KT 1SM BR SKC RMK FG3

CYQF;2007-08-24 09:42;CYQF 240942Z 18003KT 1/2SM FG SKC RMK FG4

CYQF;2007-08-24 10:00;CYQF 241000Z 20002KT 1SM BR SKC 04/03 A3001 RMK FG3 SLP179

CYQF;2007-08-24 10:45;CYQF 241045Z 00000KT 1/2SM FG SKC RMK FG4

CYQF;2007-08-24 11:00;CYQF 241100Z 20003KT 1/2SM FG SKC 04/03 A3000 RMK FG4 SLP177

CYQF;2007-08-24 12:00;CYQF 241200Z 19003KT 1/2SM FG SCT005 04/03 A2999 RMK FG3SF1 SLP177

CYQF;2007-08-24 13:00;CYQF 241300Z 00000KT 1/2SM FG SKC 03/03 A3000 RMK FG5 SLP178

CYQF;2007-08-24 13:16;CYQF 241316Z 00000KT 1SM BR FEW090 FEW250 RMK FG1AC1CI1

CYQF;2007-08-24 13:44;CYQF 241344Z 00000KT 3SM BR FEW090 FEW250 RMK AC1CI0

CYQF;2007-08-24 14:00;CYQF 241400Z 00000KT 5SM BR FEW090 FEW250 05/05 A3000 RMK AC1CI0 VIS N 1 SLP178

CYQF;2007-08-24 15:00;CYQF 241500Z 23004KT 15SM FEW010 FEW100 SCT250 08/08 A2999 RMK SF1AC1CI0 SLP175

CYQF;2007-08-24 16:00;CYQF 241600Z 00000KT 15SM FEW010 FEW250 11/09 A2998 RMK SF1CI0 SLP173

CYQF;2007-08-24 17:00;CYQF 241700Z 24003KT 15SM FEW250 14/09 A2997 RMK CI0 SLP170

CYQF;2007-08-24 18:00;CYQF 241800Z 00000KT 15SM FEW020 FEW250 15/09 A2997 RMK CU1CI0 SLP163

CYQF;2007-08-24 19:00;CYQF 241900Z 00000KT 15SM FEW020 SCT250 17/08 A2995 RMK CU1CI1 SLP159

CYQF;2007-08-24 20:00;CYQF 242000Z 00000KT 15SM FEW030 BKN250 18/08 A2994 RMK CU1CI1 SLP155

CYQF;2007-08-24 21:00;CYQF 242100Z 00000KT 15SM FEW040 BKN250 19/08 A2993 RMK CU1CI1 SLP148

CYQF;2007-08-24 22:00;CYQF 242200Z 00000KT 15SM FEW045 BKN250 20/07 A2992 RMK CU1CI1 SLP144

CYQF;2007-08-24 23:00;CYQF 242300Z 10005KT 15SM FEW050 BKN250 20/06 A2990 RMK CU1CI2 SLP138

CYQF;2007-08-25 00:00;CYQF 250000Z 00000KT 15SM FEW050 BKN250 20/08 A2988 RMK CU1CI2 SLP132

CYQF;2007-08-25 01:00;CYQF 250100Z 08003KT 15SM FEW050 SCT250 20/06 A2987 RMK CU1CI1 SLP129

CYQF;2007-08-25 02:00;CYQF 250200Z 07005KT 15SM FEW060 SCT250 18/08 A2986 RMK SC1CI1 SLP125

CYQF;2007-08-25 03:00;CYQF 250300Z 10005KT 15SM FEW060 SCT250 15/08 A2985 RMK SC1CI1 SLP123

CYQF;2007-08-25 04:00;CYQF 250400Z 11005KT 15SM FEW060 SCT250 14/07 A2984 RMK SC1CI1 SLP119

CYQF;2007-08-25 05:00;CYQF 250500Z 11004KT 15SM FEW080 FEW250 13/07 A2982 RMK AC1CI0 SLP114

CYQF;2007-08-25 06:00;CYQF 250600Z 00000KT 15SM FEW080 FEW250 10/06 A2981 RMK AC1CI0 SLP104

CYQF;2007-08-25 07:00;CYQF 250700Z 15003KT 15SM FEW080 FEW250 11/06 A2977 RMK AC1CI0 SLP094

CYQF;2007-08-25 08:00;CYQF 250800Z 16005KT 15SM FEW080 11/05 A2973 RMK AC1 SLP080

CYQF;2007-08-25 09:00;CYQF 250900Z 17007KT 15SM SKC 11/06 A2971 RMK SLP066

CYQF;2007-08-25 10:00;CYQF 251000Z 17009KT 15SM FEW080 SCT250 11/06 A2969 RMK AC1CI1 SLP059

CYQF;2007-08-25 11:00;CYQF 251100Z 17004KT 15SM FEW100 BKN250 10/06 A2966 RMK AC2CI2 SLP051

CYQF;2007-08-25 12:00;CYQF 251200Z 18005KT 15SM BKN090 BKN250 10/06 A2965 RMK AC6CI1 SLP043

CYQF;2007-08-25 13:00;CYQF 251300Z 17002KT 15SM BKN100 BKN250 09/06 A2963 RMK AC6CI1 SLP038

CYQF;2007-08-25 14:00;CYQF 251400Z 27004KT 15SM FEW060 BKN100 BKN250 11/07 A2965 RMK SC1AC5CI1 SLP044

CYQF;2007-08-25 15:00;CYQF 251500Z 20003KT 15SM FEW060 BKN100 OVC250 11/08 A2966 RMK SC1AC5CI2 SLP053

CYQF;2007-08-25 16:00;CYQF 251600Z 27006KT 15SM FEW060 BKN100 BKN250 12/08 A2966 RMK SC1AC4CI2 SLP054

CYQF;2007-08-25 17:00;CYQF 251700Z 31007KT 15SM FEW060 BKN100 BKN250 13/09 A2967 RMK SC1AC4CI2 SLP057

CYQF;2007-08-25 18:00;CYQF 251800Z 33005KT 15SM FEW060 BKN100 OVC250 15/09 A2968 RMK SC2AC4CI2 SLP060

CYQF;2007-08-25 19:00;CYQF 251900Z 34012KT 15SM FEW060 BKN100 BKN250 16/10 A2967 RMK SC2AC3CI1 SLP057

CYQF;2007-08-25 20:00;CYQF 252000Z 34010KT 15SM FEW020 BKN070 15/09 A2968 RMK SC1AC6 VIRGA SLP062

CYQF;2007-08-25 21:00;CYQF 252100Z 34010G15KT 15SM FEW025 BKN070 16/10 A2969 RMK CU2AC3 VIRGA E SLP062

CYQF;2007-08-25 22:00;CYQF 252200Z 35010G15KT 15SM FEW030 SCT080 BKN250 18/10 A2969 RMK CU2AC2CI1 SLP061

CYQF;2007-08-25 23:00;CYQF 252300Z 35010G15KT 15SM FEW030 SCT080 BKN250 18/08 A2969 RMK CU2AC2CI1 SLP062

CYQF;2007-08-26 00:00;CYQF 260000Z 33010G15KT 15SM FEW035TCU BKN090 BKN250 17/08 A2972 RMK TCU2AC2CI1 SH W SLP073

CYQF;2007-08-26 00:13;CYQF 260013Z 30020G28KT 15SM -SHRA BKN035TCU BKN090 BKN250 RMK TCU6AC1CI1 VSBY NW 2 +SHRA CI TR

CYQF;2007-08-26 00:42;CYQF 260042Z 02008KT 15SM SCT035TCU BKN090 BKN250 RMK TCU4AC2CI2 SHRA N-E DIST SHRA W-SW

CYQF;2007-08-26 01:00;CYQF 260100Z 36006KT 15SM SCT035TCU SCT090 BKN250 13/10 A2973 RMK TCU3AC1CI2 SHRA DIST N-E SW SLP074

CYQF;2007-08-26 01:46;CYQF 260146Z 27007KT 15SM FEW005 BKN035TCU BKN090 BKN250 RMK SF1TCU6AC1CI1 SHRA SW SF TR

CYQF;2007-08-26 02:00;CYQF 260200Z 27007KT 15SM FEW005 BKN035TCU BKN090 BKN250 12/10 A2977 RMK SF1TCU6AC1CI1 SHRA S SF CI TR SLP088

CYQF;2007-08-26 02:07;CYQF 260207Z 02009KT 15SM -SHRA BKN035TCU BKN090 BKN250 RMK TCU6AC1CI1 CI TR

CYQF;2007-08-26 02:22;CYQF 260222Z 15006KT 15SM BKN035TCU OVC090 RMK TCU5AC3

CYQF;2007-08-26 03:00;CYQF 260300Z 29003KT 15SM SCT035 BKN090 BKN250 12/10 A2973 RMK SC3AC4CI1 SLP082

CYQF;2007-08-26 04:00;CYQF 260400Z 28005KT 15SM FEW035 OVC090 11/09 A2976 RMK SC2AC6 CB ASOCTD LTNG DIST SW SLP089

CYQF;2007-08-26 05:00;CYQF 260500Z 25010KT 15SM OVC090 11/10 A2977 RMK AC8 SLP093

CYQF;2007-08-26 05:08;CYQF 260508Z 21008KT 15SM -SHRA OVC090 RMK AC8

CYQF;2007-08-26 06:00;CYQF 260600Z 21004KT 15SM OVC075 11/09 A2980 RMK AC8 SLP101

CYQF;2007-08-26 07:00;CYQF 260700Z 20009KT 15SM OVC075 11/09 A2979 RMK AC8 SLP097

CYQF;2007-08-26 07:52;CYQF 260752Z 21004KT 15SM OVC075 RMK AC8

CYQF;2007-08-26 08:00;CYQF 260800Z 21003KT 15SM OVC075 10/09 A2981 RMK AC8 SLP103

CYQF;2007-08-26 09:00;CYQF 260900Z 26005KT 15SM OVC100 10/08 A2980 RMK AC8 SLP102

CYQF;2007-08-26 09:47;CYQF 260947Z 25005KT 15SM OVC100 RMK AC8

CYQF;2007-08-26 10:00;CYQF 261000Z 23005KT 15SM OVC100 10/08 A2981 RMK AC8 SLP104

CYQF;2007-08-26 11:00;CYQF 261100Z CCA 21005KT 15SM OVC075 10/08 A2982 RMK AC8 -RA SLP107

CYQF;2007-08-26 12:00;CYQF 261200Z 27003KT 15SM -RA OVC075 10/08 A2983 RMK AC8 SLP111

CYQF;2007-08-26 13:00;CYQF 261300Z 00000KT 8SM -RA FEW020 OVC070 10/08 A2984 RMK SC2AC6 BR SLP113

CYQF;2007-08-26 14:00;CYQF 261400Z 32004KT 10SM -RA FEW020 OVC070 10/09 A2983 RMK SC2AC6 SLP110

CYQF;2007-08-26 15:00;CYQF 261500Z 35004KT 10SM -RA FEW020 OVC070 10/09 A2983 RMK SC2AC6 SLP116

CYQF;2007-08-26 16:00;CYQF 261600Z 36004KT 8SM -RA FEW015 OVC060 11/08 A2983 RMK SF2SC6 SLP116

CYQF;2007-08-26 17:00;CYQF 261700Z CCA 00000KT 10SM -RA FEW015 OVC060 11/08 A2984 RMK SF2SC6 SLP118

CYQF;2007-08-26 18:00;CYQF 261800Z 00000KT 10SM -RA FEW015 OVC060 11/08 A2985 RMK SF2SC6 SLP121

CYQF;2007-08-26 19:00;CYQF 261900Z 01004KT 8SM -RA SCT009 OVC060 10/09 A2985 RMK SF4SC4 CIG RAG SLP124

CYQF;2007-08-26 20:00;CYQF 262000Z 36006KT 8SM -RA SCT015 OVC030 10/07 A2987 RMK SF3SC5 RAG BASES SLP129

CYQF;2007-08-26 21:00;CYQF 262100Z 36007KT 8SM -RA SCT015 OVC030 10/08 A2989 RMK SF3SC5 SLP138

CYQF;2007-08-26 21:46;CYQF 262146Z 35003KT 6SM -RA BR FEW005 BKN010 OVC030 RMK SF1SC4SC3

CYQF;2007-08-26 22:00;CYQF 262200Z 36003KT 6SM -RA BR BKN008 OVC030 10/08 A2990 RMK SF6SC2 SLP143

CYQF;2007-08-26 23:00;CYQF 262300Z 35002KT 10SM -RA FEW008 BKN015 OVC040 10/07 A2991 RMK SF2SC2SC3 SLP146

CYQF;2007-08-27 00:00;CYQF 270000Z 00000KT 15SM -RA FEW010 SCT040 OVC090 10/07 A2993 RMK SF2SC2AC4 SLP153

CYQF;2007-08-27 01:00;CYQF 270100Z 07005KT 15SM -RA BKN010 BKN040 OVC090 10/07 A2994 RMK SC6SC1AC2 SLP157

CYQF;2007-08-27 01:46;CYQF 270146Z 09003KT 15SM -RA SCT010 BKN040 OVC090 RMK SC3SC4AC1

CYQF;2007-08-27 02:00;CYQF 270200Z 09003KT 15SM -RA FEW010 BKN040 OVC090 09/07 A2996 RMK SC2SC6AC1 CU ASOCTD SLP162

CYQF;2007-08-27 02:28;CYQF 270228Z 00000KT 15SM FEW010 BKN040 OVC090 RMK SF1SC6AC2

CYQF;2007-08-27 02:38;CYQF 270238Z 00000KT 15SM -RA FEW010 BKN040 OVC090 RMK SF1SC6AC2

CYQF;2007-08-27 03:00;CYQF 270300Z 00000KT 15SM -RA FEW010 OVC040 09/06 A2997 RMK SF1SC8 SLP169

CYQF;2007-08-27 04:00;CYQF 270400Z 00000KT 15SM -RA OVC060 09/07 A2998 RMK SC8 SLP170

CYQF;2007-08-27 04:21;CYQF 270421Z 00000KT 15SM OVC060 RMK SC8

CYQF;2007-08-27 05:00;CYQF 270500Z 00000KT 15SM OVC060 09/07 A2998 RMK SC8 SLP172

CYQF;2007-08-27 06:00;CYQF 270600Z 00000KT 15SM OVC060 09/07 A2999 RMK SC8 SLP173

CYQF;2007-08-27 07:00;CYQF 270700Z 00000KT 15SM OVC050 09/07 A3000 RMK SC8 SLP176

CYQF;2007-08-27 07:19;CYQF 270719Z 00000KT 15SM -RA OVC050 RMK SC8

CYQF;2007-08-27 08:00;CYQF 270800Z 27010KT 10SM -RA OVC040 08/07 A3000 RMK SC8 SLP177

CYQF;2007-08-27 09:00;CYQF 270900Z 00000KT 10SM -RA OVC040 08/07 A3001 RMK SC8 SLP184

CYQF;2007-08-27 10:00;CYQF 271000Z 33004KT 8SM -RA FEW007 OVC040 08/07 A3001 RMK SF1SC7 SLP184

CYQF;2007-08-27 11:00;CYQF 271100Z 33005KT 8SM -RA FEW007 OVC040 08/06 A3002 RMK SF1SC7 SLP185

CYQF;2007-08-27 12:00;CYQF 271200Z 00000KT 8SM -RA FEW007 OVC040 07/06 A3003 RMK SF2SC6 SLP190

CYQF;2007-08-27 13:00;CYQF 271300Z 00000KT 4SM -RA BR FEW007 OVC025 07/06 A3004 RMK SF2SC6 SLP193

CYQF;2007-08-27 13:46;CYQF 271346Z 36003KT 3SM -RA BR FEW006 OVC014 RMK SF2SC6

CYQF;2007-08-27 14:00;CYQF 271400Z 34004KT 3SM -RA BR SCT006 OVC012 07/06 A3005 RMK SF4SC4 SLP198

CYQF;2007-08-27 15:00;CYQF 271500Z 33008KT 5SM -RA BR FEW007 OVC015 07/05 A3007 RMK SF2SC6 SLP207

CYQF;2007-08-27 15:48;CYQF 271548Z 30007KT 5SM -RA BR BKN006 OVC015 RMK SF5SC3

CYQF;2007-08-27 16:00;CYQF 271600Z 30010KT 5SM -RA BR BKN006 OVC015 07/05 A3008 RMK SF5SC3 SLP210

CYQF;2007-08-27 16:42;CYQF 271642Z 30007KT 10SM -RA SCT007 BKN020 OVC080 RMK SF3SC4AC1

CYQF;2007-08-27 17:00;CYQF 271700Z 30008KT 10SM -RA FEW008 BKN025 OVC080 08/05 A3009 RMK SF2SC4AC2 SLP213

CYQF;2007-08-27 17:43;CYQF 271743Z 29008KT 12SM -RA BKN010 OVC030 RMK SF5SC3

CYQF;2007-08-27 18:00;CYQF 271800Z 31010KT 15SM BKN012 OVC030 08/05 A3009 RMK SF6SC2 SLP214

CYQF;2007-08-27 19:00;CYQF 271900Z 30010KT 15SM BKN015 OVC030 08/06 A3009 RMK SC5SC3 SLP214

CYQF;2007-08-27 20:00;CYQF 272000Z 31010G15KT 15SM BKN015 09/05 A3009 RMK SC7 CU EMBDD SLP214

CYQF;2007-08-27 21:00;CYQF 272100Z 32010KT 15SM BKN020 11/05 A3009 RMK SC6 CU EMBD SLP208

CYQF;2007-08-27 22:00;CYQF 272200Z 34010KT 15SM BKN025 12/06 A3008 RMK CU6 SLP207

CYQF;2007-08-27 23:00;CYQF 272300Z 33010KT 15SM SCT025 12/06 A3009 RMK CU4 SLP208

CYQF;2007-08-28 00:00;CYQF 280000Z 34011KT 15SM SCT030 12/05 A3009 RMK CU4 SLP209

CYQF;2007-08-28 01:00;CYQF 280100Z 32006KT 15SM SCT030 12/04 A3010 RMK CU3 SLP211

CYQF;2007-08-28 02:00;CYQF 280200Z 33002KT 15SM FEW020 10/05 A3011 RMK CU1 SLP215

CYQF;2007-08-28 03:00;CYQF 280300Z 33002KT 15SM FEW100 08/04 A3012 RMK AC1 SLP225

CYQF;2007-08-28 04:00;CYQF 280400Z 00000KT 15SM FEW100 05/02 A3014 RMK AC1 SLP230

CYQF;2007-08-28 05:00;CYQF 280500Z 00000KT 15SM SKC 05/03 A3015 RMK SLP232

CYQF;2007-08-28 06:00;CYQF 280600Z 00000KT 15SM SKC 04/03 A3015 RMK SLP238

CYQF;2007-08-28 07:00;CYQF 280700Z 21004KT 15SM SKC 03/02 A3015 RMK SLP239

CYQF;2007-08-28 08:00;CYQF 280800Z 21002KT 15SM SKC 03/02 A3015 RMK SLP239

CYQF;2007-08-28 09:00;CYQF 280900Z 20003KT 10SM SKC 02/01 A3015 RMK MIFG SLP236

CYQF;2007-08-28 10:00;CYQF 281000Z 20004KT 10SM SKC 02/01 A3015 RMK MIFG SLP236

CYQF;2007-08-28 11:00;CYQF 281100Z 18002KT 15SM SKC 02/01 A3015 RMK SLP236

CYQF;2007-08-28 12:00;CYQF 281200Z 21002KT 15SM SKC 02/00 A3015 RMK SLP238

CYQF;2007-08-28 13:00;CYQF 281300Z 00000KT 15SM SKC 01/00 A3016 RMK SLP241

CYQF;2007-08-28 14:00;CYQF 281400Z 24002KT 15SM SKC 03/01 A3017 RMK SLP244

CYQF;2007-08-28 15:00;CYQF 281500Z 24002KT 15SM FEW080 07/05 A3018 RMK AC1 SLP247

CYQF;2007-08-28 16:00;CYQF 281600Z 00000KT 15SM FEW080 09/06 A3019 RMK AC1 SLP249

CYQF;2007-08-28 17:00;CYQF 281700Z 28002KT 15SM FEW090 FEW260 11/06 A3019 RMK AC1CI0 SLP249

CYQF;2007-08-28 18:00;CYQF 281800Z 30004KT 15SM FEW030 FEW260 13/06 A3018 RMK CU1CI1 CU TR SLP245

CYQF;2007-08-28 19:00;CYQF 281900Z 00000KT 15SM FEW040 14/03 A3018 RMK CU2 SLP245

CYQF;2007-08-28 20:00;CYQF 282000Z 28004KT 15SM FEW045 SCT260 15/03 A3018 RMK CU2CI0 SLP244

CYQF;2007-08-28 21:00;CYQF 282100Z 15003KT 15SM SCT045 BKN260 15/04 A3017 RMK CU4CI0 SLP238

CYQF;2007-08-28 22:00;CYQF 282200Z 00000KT 15SM FEW045 SCT250 16/04 A3016 RMK CU2CI1 SLP235

CYQF;2007-08-28 23:00;CYQF 282300Z 00000KT 15SM FEW045 SCT260 16/03 A3015 RMK CU1CI1 SLP233

CYQF;2007-08-29 00:00;CYQF 290000Z 00000KT 15SM FEW050 SCT250 17/04 A3014 RMK CU1CI1 SLP227

CYQF;2007-08-29 01:00;CYQF 290100Z 00000KT 15SM FEW050 FEW100 FEW250 16/02 A3014 RMK CU1AC1CI1 SLP228

CYQF;2007-08-29 02:00;CYQF 290200Z 00000KT 15SM FEW100 FEW250 15/04 A3014 RMK AC2CI1 SLP228

CYQF;2007-08-29 03:00;CYQF 290300Z 00000KT 15SM SCT080 13/05 A3015 RMK AC4 SLP229

CYQF;2007-08-29 04:00;CYQF 290400Z 00000KT 15SM BKN080 12/05 A3015 RMK AC5 SLP228

CYQF;2007-08-29 05:00;CYQF 290500Z 00000KT 15SM BKN080 11/05 A3015 RMK AC4 SLP228

CYQF;2007-08-29 06:00;CYQF 290600Z 00000KT 15SM BKN100 09/04 A3014 RMK AC2 SLP223

CYQF;2007-08-29 07:00;CYQF 290700Z 05002KT 15SM SCT100 08/05 A3013 RMK AC3 SLP221

CYQF;2007-08-29 08:00;CYQF 290800Z 14002KT 15SM SCT100 BKN250 09/04 A3012 RMK AC3CI1 OBS TAKEN +9 SLP217

CYQF;2007-08-29 09:00;CYQF 290900Z 17004KT 15SM FEW100 FEW250 08/04 A3011 RMK AC2CI0 SLP211

CYQF;2007-08-29 10:00;CYQF 291000Z 17005KT 15SM FEW100 07/04 A3010 RMK AC1 SLP208

CYQF;2007-08-29 11:00;CYQF 291100Z 20003KT 15SM SKC 07/04 A3009 RMK SLP205

CYQF;2007-08-29 12:00;CYQF 291200Z 20003KT 15SM SKC 06/04 A3008 RMK SLP200

CYQF;2007-08-29 13:00;CYQF 291300Z 23003KT 15SM FEW090 SCT250 05/03 A3007 RMK AC2CI0 SLP198

CYQF;2007-08-29 14:00;CYQF 291400Z 00000KT 15SM BKN090 BKN250 07/05 A3009 RMK AC5CI2 SLP203

CYQF;2007-08-29 15:00;CYQF 291500Z 21004KT 15SM BKN090 BKN250 08/06 A3009 RMK AC5CI1 SLP206

CYQF;2007-08-29 16:00;CYQF 291600Z 00000KT 15SM BKN110 OVC250 10/07 A3009 RMK AC4CI2 SLP206

CYQF;2007-08-29 17:00;CYQF 291700Z 00000KT 15SM BKN110 BKN250 14/08 A3008 RMK AC5CI1 SLP204

CYQF;2007-08-29 18:00;CYQF 291800Z 00000KT 15SM SCT110 BKN250 16/08 A3008 RMK AC4CI2 SLP198

CYQF;2007-08-29 19:00;CYQF 291900Z 00000KT 15SM FEW100 SCT250 19/08 A3007 RMK AC1CI2 SLP196

CYQF;2007-08-29 20:00;CYQF 292000Z 00000KT 15SM FEW100 SCT250 21/06 A3006 RMK AC1CI2 SLP192

CYQF;2007-08-29 21:00;CYQF 292100Z 27002KT 15SM FEW100 SCT250 21/06 A3005 RMK AC1CI2 SLP184

CYQF;2007-08-29 22:00;CYQF 292200Z 14002KT 15SM FEW100 SCT250 22/09 A3004 RMK AC1CI2 SLP181

CYQF;2007-08-29 23:00;CYQF 292300Z 18003KT 15SM BKN250 22/08 A3003 RMK CI4 SLP179

CYQF;2007-08-30 00:00;CYQF 300000Z 00000KT 15SM FEW100 BKN250 22/09 A3002 RMK AC1CI4 SLP176

CYQF;2007-08-30 01:00;CYQF 300100Z 00000KT 15SM FEW100 BKN250 22/10 A3002 RMK AC1CI2 SLP175

CYQF;2007-08-30 02:00;CYQF 300200Z 07004KT 15SM FEW100 FEW250 20/11 A3002 RMK AC1CI1 SLP176

CYQF;2007-08-30 03:00;CYQF 300300Z 00000KT 15SM FEW250 17/11 A3003 RMK CI1 SLP182

CYQF;2007-08-30 04:00;CYQF 300400Z 00000KT 15SM SKC 13/09 A3004 RMK SLP184

CYQF;2007-08-30 05:00;CYQF 300500Z 00000KT 15SM SKC 12/09 A3004 RMK SLP186

CYQF;2007-08-30 06:00;CYQF 300600Z 00000KT 15SM SKC 11/08 A3004 RMK SLP183

CYQF;2007-08-30 07:00;CYQF 300700Z 19004KT 15SM SKC 10/07 A3004 RMK SLP183

CYQF;2007-08-30 08:00;CYQF 300800Z 21005KT 15SM SKC 09/07 A3003 RMK SLP181

CYQF;2007-08-30 09:00;CYQF 300900Z 18002KT 15SM FEW250 08/07 A3003 RMK CI1 SLP178

CYQF;2007-08-30 10:00;CYQF 301000Z 00000KT 15SM FEW250 08/04 A3003 RMK CI1 SLP176

CYQF;2007-08-30 11:00;CYQF 301100Z 00000KT 15SM SKC 08/06 A3002 RMK SLP174

CYQF;2007-08-30 12:00;CYQF 301200Z 00000KT 15SM SKC 07/06 A3003 RMK SLP176

CYQF;2007-08-30 13:00;CYQF 301300Z 19003KT 15SM FEW100 06/05 A3002 RMK AC1 SLP175

CYQF;2007-08-30 14:00;CYQF 301400Z 00000KT 15SM FEW250 09/07 A3002 RMK CI1 SLP175

CYQF;2007-08-30 15:00;CYQF 301500Z 00000KT 15SM FEW250 13/10 A3002 RMK CI1 SLP173

CYQF;2007-08-30 16:00;CYQF 301600Z 18002KT 15SM FEW250 16/10 A3001 RMK CI1 SLP169

CYQF;2007-08-30 17:00;CYQF 301700Z 00000KT 15SM FEW250 21/12 A2999 RMK CI1 SLP163

CYQF;2007-08-30 18:00;CYQF 301800Z 12003KT 15SM FEW250 24/12 A2997 RMK CI1 SLP150

CYQF;2007-08-30 19:00;CYQF 301900Z 13010KT 15SM FEW250 26/11 A2995 RMK CI1 SLP145

CYQF;2007-08-30 20:00;CYQF 302000Z 16012KT 15SM FEW250 27/09 A2992 RMK CI1 SLP135

CYQF;2007-08-30 21:00;CYQF 302100Z 17015KT 15SM BKN250 27/11 A2990 RMK CI5 SLP127

CYQF;2007-08-30 22:00;CYQF 302200Z 18010KT 15SM FEW120 BKN250 27/11 A2988 RMK AC2CI1 SLP120

CYQF;2007-08-30 23:00;CYQF 302300Z 18010KT 15SM FEW120 BKN250 26/11 A2987 RMK AC2CI2 SLP117

CYQF;2007-08-31 00:00;CYQF 310000Z 18005KT 15SM SCT100 BKN250 24/13 A2985 RMK AC3CI2 SLP113

CYQF;2007-08-31 01:00;CYQF 310100Z 16006KT 15SM SCT100 BKN250 24/12 A2984 RMK AC3CI2 SLP109

CYQF;2007-08-31 02:00;CYQF 310200Z 18005KT 15SM FEW100 FEW250 20/13 A2983 RMK AC1CI0 SLP105

CYQF;2007-08-31 03:00;CYQF 310300Z 18005KT 15SM FEW100 FEW250 18/11 A2982 RMK AC1CI0 SLP103

CYQF;2007-08-31 04:00;CYQF 310400Z 18003KT 15SM FEW100 16/11 A2982 RMK AC1 SLP103

CYQF;2007-08-31 05:00;CYQF 310500Z 20005KT 15SM SKC 13/10 A2983 RMK SLP105

CYQF;2007-08-31 06:00;CYQF 310600Z 21007KT 15SM SKC 13/10 A2983 RMK SLP099

CYQF;2007-08-31 07:00;CYQF 310700Z 20005KT 15SM SKC 11/08 A2983 RMK SLP099

CYQF;2007-08-31 08:00;CYQF 310800Z 19005KT 15SM SKC 11/08 A2983 RMK SLP099

CYQF;2007-08-31 09:00;CYQF 310900Z 20005KT 15SM FEW250 10/07 A2983 RMK CI1 SLP099

CYQF;2007-08-31 10:00;CYQF 311000Z 19004KT 15SM FEW250 11/07 A2983 RMK CI1 SLP099

CYQF;2007-08-31 11:00;CYQF 311100Z 00000KT 15SM FEW250 12/08 A2985 RMK CI1 SLP106

CYQF;2007-08-31 12:00;CYQF 311200Z 30006KT 15SM FEW250 12/09 A2989 RMK CI2 SLP122

CYQF;2007-08-31 13:00;CYQF 311300Z 30005KT 15SM SCT160 BKN250 12/10 A2990 RMK AC2CI2 SLP126

CYQF;2007-08-31 13:27;CYQF 311327Z 31006KT 15SM FEW011 BKN160 BKN250 RMK SF1AC2CI3 SF MVG N-S. MORE XTNSV NW QUAD

CYQF;2007-08-31 14:00;CYQF 311400Z 33008KT 15SM FEW011 FEW070 BKN250 13/11 A2991 RMK SF2AC1CI4 SLP129

CYQF;2007-08-31 15:00;CYQF 311500Z 32013KT 15SM BKN013 OVC070 14/11 A2993 RMK SC6AC2 SLP139

CYQF;2007-08-31 16:00;CYQF 311600Z 34008KT 15SM OVC012 14/11 A2993 RMK SC8 SLP139

CYQF;2007-08-31 17:00;CYQF 311700Z 35005KT 15SM OVC012 14/11 A2993 RMK SC8 SLP138

CYQF;2007-08-31 18:00;CYQF 311800Z 34006KT 15SM OVC014 16/11 A2991 RMK SC8 SLP137

CYQF;2007-08-31 19:00;CYQF 311900Z 32004KT 15SM BKN014 BKN070 17/13 A2990 RMK SC6AC1 SLP133

CYQF;2007-08-31 20:00;CYQF 312000Z 35005KT 15SM SCT020 BKN250 18/13 A2988 RMK SC4CI1 CU EMBD SLP128

CYQF;2007-08-31 21:00;CYQF 312100Z 02006KT 15SM SCT025 BKN250 19/12 A2987 RMK SC3CI2 CU EMBD SLP122

CYQF;2007-08-31 22:00;CYQF 312200Z 03002KT 15SM FEW025 BKN250 20/12 A2985 RMK SC2CI2 SLP117

CYQF;2007-08-31 23:00;CYQF 312300Z 02005KT 15SM FEW040 SCT120 BKN250 20/13 A2985 RMK SC2AC2CI2 SLP117

CYQF;2007-09-01 01:00;CYQF 010100Z 01005KT 15SM SCT040 BKN120 OVC250 18/13 A2985 RMK SC3AC2CI2 CB SH OCNL LTNG SE SLP114

CYQF;2007-09-01 02:00;CYQF 010200Z 35006KT 15SM FEW040 BKN120 OVC250 17/13 A2983 RMK SC2AC2CI2 SLP108

CYQF;2007-09-01 03:00;CYQF 010300Z 36007KT 15SM FEW040 BKN100 OVC250 17/12 A2981 RMK SC2AC2CI2 SLP101

CYQF;2007-09-01 04:00;CYQF 010400Z 01008KT 15SM FEW040 SCT100 BKN250 15/11 A2980 RMK SC2AC2CI2 SLP096

CYQF;2007-09-01 05:00;CYQF 010500Z 34005KT 15SM FEW040 SCT100 BKN250 14/10 A2980 RMK SC2AC2CI2 LTNG DIST SW-NW SLP096

CYQF;2007-09-01 05:31;CYQF 010531Z 32005KT 12SM -TSRA SCT040CB OVC100 RMK CB3AC5 LTGICCG

CYQF;2007-09-01 05:38;CYQF 010538Z 29015G22KT 2SM +TSRA BKN040CB OVC100 RMK CB6AC2 LTGICCG

CYQF;2007-09-01 06:00;CYQF 010600Z 31011KT 2SM +TSRA BR FEW020 OVC040CB 13/11 A2988 RMK SF2CB6 LTGICCG PRESRR SLP125

CYQF;2007-09-01 06:44;CYQF 010644Z 36017G27KT 10SM SHRA FEW020 BKN040CB OVC100 RERA RMK SF2CB4AC2 LTNG NE-E

CYQF;2007-09-01 07:00;CYQF 010700Z 36017KT 12SM -SHRA FEW006 SCT040CB OVC075 11/09 A2985 RERA RMK SF2CB2AC5 LTNG DIST NE SLP117

CYQF;2007-09-01 07:28;CYQF 010728Z 04013KT 15SM FEW040 SCT070 OVC100 RMK SC2AC2AC4 SH N

CYQF;2007-09-01 08:00;CYQF 010800Z 07006KT 15SM FEW010 SCT070 OVC100 11/09 A2983 RMK SC1AC2AC5 OBS TAKEN +9 SLP111

CYQF;2007-09-01 09:00;CYQF 010900Z 34008KT 15SM OVC014 11/10 A2986 RMK SC8 SLP118

CYQF;2007-09-01 09:40;CYQF 010940Z 31003KT 15SM -SHRA OVC010 RMK SC8

CYQF;2007-09-01 10:00;CYQF 011000Z 33006KT 15SM SCT010 OVC025 11/10 A2987 RMK SC4SC4 SLP120

CYQF;2007-09-01 10:52;CYQF 011052Z 34008KT 6SM -DZ SCT005 OVC008 RMK SF3ST5

CYQF;2007-09-01 11:00;CYQF 011100Z 33007KT 6SM -DZ SCT005 OVC008 11/09 A2989 RMK SF3ST5 SLP128

CYQF;2007-09-01 11:51;CYQF 011151Z 33010KT 15SM OVC008 RMK ST8 CIG RAG

CYQF;2007-09-01 12:00;CYQF 011200Z 34009KT 15SM OVC008 10/09 A2990 RMK ST8 SLP131

CYQF;2007-09-01 12:12;CYQF 011212Z 36008KT 15SM SCT008 BKN025 BKN100 RMK ST3SC2AC1

CYQF;2007-09-01 13:00;CYQF 011300Z 33005KT 15SM FEW008 SCT025 BKN100 09/08 A2991 RMK ST1SC2AC2 SLP134

CYQF;2007-09-01 14:00;CYQF 011400Z 29006KT 15SM FEW008 BKN015 OVC050 11/09 A2994 RMK SF2SC4SC2 SLP143

CYQF;2007-09-01 14:13;CYQF 011413Z 30006KT 12SM -SHRA FEW008 BKN015 OVC050 RMK SF2SC4SC2

CYQF;2007-09-01 15:00;CYQF 011500Z 28005KT 12SM -SHRA FEW006 BKN015 BKN050 11/09 A2996 RMK SF2SC3SC2 SLP156

CYQF;2007-09-01 15:08;CYQF 011508Z 29007KT 15SM FEW006 BKN015 OVC050 RMK SF2SC3SC2

CYQF;2007-09-01 16:00;CYQF 011600Z 31010G15KT 15SM FEW006 SCT015 OVC050 12/10 A3000 RMK SF2SC2SC5 +SHRA NW SLP168

CYQF;2007-09-01 16:42;CYQF 011642Z 30010G15KT 15SM -SHRA SCT006 BKN011 OVC060 RMK SF3SC3SC2

CYQF;2007-09-01 17:00;CYQF 011700Z 30010G18KT 15SM FEW011 SCT090 OVC210 12/09 A3002 RMK SF2AC2CI4 SLP175

CYQF;2007-09-01 18:00;CYQF 011800Z 29010G15KT 15SM FEW011 SCT090 BKN210 13/10 A3003 RMK SF1AC2CI3 SLP182

CYQF;2007-09-01 19:00;CYQF 011900Z 30010G15KT 15SM FEW020 SCT210 15/09 A3004 RMK CU2CI1 SLP183

CYQF;2007-09-01 20:00;CYQF 012000Z 31006KT 15SM FEW025 FEW210 16/08 A3004 RMK CU1CI1 SLP184

CYQF;2007-09-01 21:00;CYQF 012100Z 30010KT 15SM BKN035 BKN210 17/08 A3005 RMK CU5CI0 SLP186

CYQF;2007-09-01 22:00;CYQF 012200Z 35010KT 15SM FEW035 BKN210 18/08 A3004 RMK CU2CI1 SLP183

CYQF;2007-09-01 23:00;CYQF 012300Z 32003KT 15SM FEW040 BKN250 18/08 A3004 RMK CU1CI1 SLP183

CYQF;2007-09-02 00:00;CYQF 020000Z 00000KT 15SM FEW040 BKN250 18/06 A3004 RMK CU1CI1 SLP182

CYQF;2007-09-02 01:00;CYQF 020100Z 05003KT 15SM FEW040 FEW250 17/07 A3004 RMK CU1CI0 SLP183

CYQF;2007-09-02 02:00;CYQF 020200Z 00000KT 15SM FEW120 BKN250 15/08 A3005 RMK AC1CI1 SLP184

CYQF;2007-09-02 03:00;CYQF 020300Z 00000KT 15SM BKN250 13/07 A3005 RMK CI2 SLP191

CYQF;2007-09-02 04:00;CYQF 020400Z 00000KT 15SM BKN250 11/08 A3005 RMK CI2 SLP192

CYQF;2007-09-02 05:00;CYQF 020500Z 00000KT 15SM BKN250 11/08 A3006 RMK CI4 SLP195

CYQF;2007-09-02 06:00;CYQF 020600Z 00000KT 15SM FEW100 OVC250 11/07 A3005 RMK AC2CI6 SLP190

CYQF;2007-09-02 07:00;CYQF 020700Z 00000KT 15SM FEW100 BKN250 12/07 A3004 RMK AC1CI5 SLP185

CYQF;2007-09-02 08:00;CYQF 020800Z 16005KT 15SM BKN250 11/07 A3003 RMK CI5 SLP184

CYQF;2007-09-02 09:00;CYQF 020900Z 16004KT 15SM BKN075 OVC250 11/07 A3002 RMK AC6CI2 SLP176

CYQF;2007-09-02 10:00;CYQF 021000Z 00000KT 15SM SCT070 OVC100 10/07 A3002 RMK AC3AC3 SLP175

CYQF;2007-09-02 11:00;CYQF 021100Z 00000KT 15SM SCT100 OVC250 10/07 A3001 RMK AC3CI3 SLP171

CYQF;2007-09-02 12:00;CYQF 021200Z 14006KT 15SM BKN070 OVC250 10/07 A3000 RMK AC6CI1 SLP168

CYQF;2007-09-02 13:00;CYQF 021300Z 15004KT 15SM BKN080 OVC250 10/07 A2999 RMK AC6CI1 VIRGA SLP165

CYQF;2007-09-02 14:00;CYQF 021400Z 14004KT 15SM SCT080 BKN250 10/07 A2998 RMK AC3CI2 SLP162

CYQF;2007-09-02 15:00;CYQF 021500Z 14005KT 15SM FEW090 BKN250 11/08 A2996 RMK AC2CI2 SLP160

CYQF;2007-09-02 16:00;CYQF 021600Z 14010G15KT 15SM FEW090 BKN250 14/09 A2994 RMK AC1CI4 SLP153

CYQF;2007-09-02 17:00;CYQF 021700Z 16010KT 15SM FEW090 BKN250 16/09 A2994 RMK AC1CI6 SLP151

CYQF;2007-09-02 18:00;CYQF 021800Z 17010KT 15SM FEW090 OVC250 17/09 A2994 RMK AC1CI5 SLP146

CYQF;2007-09-02 19:00;CYQF 021900Z 20006KT 15SM FEW030 FEW120 OVC250 18/10 A2993 RMK CU1AC2CI3 SLP143

CYQF;2007-09-02 20:00;CYQF 022000Z 15002KT 15SM FEW030 FEW120 BKN250 19/10 A2993 RMK CU1AC1CI4 SLP144

CYQF;2007-09-02 21:00;CYQF 022100Z 00000KT 15SM FEW030 BKN120 BKN250 19/10 A2993 RMK CU1AC4CI2 SLP143

CYQF;2007-09-02 22:00;CYQF 022200Z 00000KT 15SM FEW040 SCT120 BKN250 20/10 A2993 RMK CU1AC2CI1 SLP142

CYQF;2007-09-02 23:00;CYQF 022300Z 00000KT 15SM FEW040 BKN250 21/11 A2992 RMK SC1CI2 SLP139

CYQF;2007-09-03 00:00;CYQF 030000Z 00000KT 15SM FEW050 BKN250 20/11 A2991 RMK SC1CI3 SLP136

CYQF;2007-09-03 01:00;CYQF 030100Z 00000KT 15SM FEW070 BKN250 20/11 A2991 RMK AC2CI2 SLP136

CYQF;2007-09-03 02:00;CYQF 030200Z 05005KT 15SM FEW070 BKN250 18/11 A2991 RMK AC1CI3 SLP134

CYQF;2007-09-03 03:00;CYQF 030300Z 00000KT 15SM FEW090 BKN250 16/11 A2993 RMK AC1CI2 SLP143

CYQF;2007-09-03 04:00;CYQF 030400Z 00000KT 15SM FEW090 OVC250 15/11 A2994 RMK AC1CI6 SLP146

CYQF;2007-09-03 05:00;CYQF 030500Z 00000KT 15SM FEW100 OVC250 15/11 A2994 RMK AC1CI6 SLP146

CYQF;2007-09-03 06:00;CYQF 030600Z 17003KT 15SM BKN250 13/11 A2993 RMK CI6 SLP142

CYQF;2007-09-03 07:00;CYQF 030700Z 13003KT 15SM FEW100 OVC250 13/10 A2992 RMK AC1CI6 SLP140

CYQF;2007-09-03 08:00;CYQF 030800Z 23005KT 15SM OVC250 14/10 A2993 RMK CI8 SLP142

CYQF;2007-09-03 09:00;CYQF 030900Z 00000KT 15SM SCT100 OVC250 14/10 A2994 RMK AC4CI4 SLP141

CYQF;2007-09-03 09:08;CYQF 030908Z 00000KT 15SM -RA SCT090 OVC250 RMK AC4CI4

CYQF;2007-09-03 09:53;CYQF 030953Z 00000KT 15SM SCT090 OVC250 RMK AC4CI4

CYQF;2007-09-03 10:00;CYQF 031000Z 00000KT 15SM SCT100 OVC250 14/10 A2995 RMK AC4CI4 SLP144

CYQF;2007-09-03 11:00;CYQF 031100Z 17004KT 15SM BKN090 BKN250 13/11 A2994 RMK AC6CI1 SLP143

CYQF;2007-09-03 12:00;CYQF 031200Z 23003KT 15SM FEW090 BKN250 11/09 A2995 RMK AC2CI1 SLP147

CYQF;2007-09-03 13:00;CYQF 031300Z 27003KT 15SM FEW090 SCT250 10/08 A2995 RMK AC2CI0 SLP149

CYQF;2007-09-03 14:00;CYQF 031400Z 35005KT 15SM FEW090 BKN250 10/08 A2998 RMK AC1CI1 SLP157

CYQF;2007-09-03 15:00;CYQF 031500Z 36006KT 15SM SCT080 BKN250 13/11 A3000 RMK AC3CI1 F BNK DST NW-NE SLP167

CYQF;2007-09-03 16:00;CYQF 031600Z 35003KT 15SM FEW080 BKN250 14/11 A3000 RMK AC2CI2 FG BNK NW-NE SLP167

CYQF;2007-09-03 17:00;CYQF 031700Z 00000KT 15SM FEW006 BKN250 15/11 A3000 RMK SF1CI2 FG BNK NW-N SLP167

CYQF;2007-09-03 18:00;CYQF 031800Z 00000KT 10SM FEW010 BKN250 16/12 A2999 RMK SF1CI2 SLP164

CYQF;2007-09-03 19:00;CYQF 031900Z 03004KT 10SM FEW010 BKN250 18/12 A2998 RMK SF1CI2 SLP160

CYQF;2007-09-03 20:00;CYQF 032000Z 06004KT 15SM FEW015 OVC250 19/11 A2997 RMK SF1CS7 SF TR HALO SLP158

CYQF;2007-09-03 21:00;CYQF 032100Z 00000KT 15SM FEW015 FEW120 BKN250 21/12 A2995 RMK SF1AC1CS5 SF AC TR SLP146

CYQF;2007-09-03 22:00;CYQF 032200Z 06004KT 15SM FEW120 OVC250 20/10 A2994 RMK AC1CS5 SLP142

CYQF;2007-09-03 23:00;CYQF 032300Z 09007KT 15SM FEW120 OVC250 21/11 A2992 RMK AC2CI4 SLP136

CYQF;2007-09-04 00:00;CYQF 040000Z 06005KT 15SM FEW120 OVC250 20/11 A2991 RMK AC2CS4 SLP135

CYQF;2007-09-04 01:00;CYQF 040100Z 06004KT 15SM BKN100 OVC250 19/12 A2990 RMK AC5CS2 SLP130

CYQF;2007-09-04 02:00;CYQF 040200Z 06006KT 15SM BKN100 OVC250 17/11 A2989 RMK AC5CI2 SLP127

CYQF;2007-09-04 03:00;CYQF 040300Z 05004KT 15SM FEW060 BKN100 OVC250 16/10 A2988 RMK SC1AC5CS2 SLP125

CYQF;2007-09-04 04:00;CYQF 040400Z 07003KT 15SM FEW060 BKN100 OVC250 15/10 A2987 RMK SC1AC4CS2 SLP122

CYQF;2007-09-04 05:00;CYQF 040500Z 00000KT 15SM FEW060 SCT100 OVC250 15/10 A2985 RMK SC1AC3CS2 SLP116

CYQF;2007-09-04 06:00;CYQF 040600Z 04003KT 15SM OVC250 15/09 A2984 RMK CI6 SLP109

CYQF;2007-09-04 07:00;CYQF 040700Z 00000KT 15SM OVC250 14/09 A2982 RMK CI8 SLP103

CYQF;2007-09-04 08:00;CYQF 040800Z 00000KT 15SM OVC250 12/09 A2979 RMK CI8 SLP095

CYQF;2007-09-04 09:00;CYQF 040900Z 00000KT 15SM FEW100 OVC250 12/09 A2976 RMK AC2CI5 SLP082

CYQF;2007-09-04 10:00;CYQF 041000Z 00000KT 15SM BKN100 OVC250 11/09 A2975 RMK AC6CI2 SLP078

CYQF;2007-09-04 11:00;CYQF 041100Z 00000KT 15SM BKN100 OVC250 12/09 A2973 RMK AC5CI2 SLP070

CYQF;2007-09-04 12:00;CYQF 041200Z 00000KT 15SM FEW100 BKN250 10/09 A2971 RMK AC2CI0 SLP065

CYQF;2007-09-04 13:00;CYQF 041300Z CCA 23002KT 15SM FEW100 BKN250 10/08 A2972 RMK AC2CI0 SLP070

CYQF;2007-09-04 14:00;CYQF 041400Z 30003KT 15SM FEW100 BKN250 11/09 A2972 RMK AC2CI2 SLP070

CYQF;2007-09-04 15:00;CYQF 041500Z 29002KT 15SM FEW120 BKN250 13/10 A2974 RMK AC2CI1 SLP078

CYQF;2007-09-04 16:00;CYQF 041600Z 33010KT 15SM FEW120 BKN250 16/12 A2975 RMK AC2CI1 SLP079

CYQF;2007-09-04 17:00;CYQF 041700Z 35008KT 15SM FEW110 FEW250 17/12 A2976 RMK AC2CI0 SLP085

CYQF;2007-09-04 18:00;CYQF 041800Z 35012KT 15SM FEW110 FEW250 20/10 A2977 RMK AC1CI0 SLP081

CYQF;2007-09-04 19:00;CYQF 041900Z 34012G20KT 15SM FEW040 FEW110 BKN250 20/10 A2977 RMK SC1AC1CI1 SLP082

CYQF;2007-09-04 20:00;CYQF 042000Z 33012G18KT 15SM FEW040 FEW110 BKN250 21/11 A2977 RMK SC1AC1CI1 TCU DIST W SLP082

CYQF;2007-09-04 21:00;CYQF 042100Z 02010KT 15SM FEW040TCU SCT250 21/10 A2978 RMK TCU1CI2 SLP086

CYQF;2007-09-04 22:00;CYQF 042200Z 36010KT 15SM FEW040TCU 21/10 A2978 RMK TCU2 SLP087

CYQF;2007-09-04 23:00;CYQF 042300Z 35015G26KT 15SM VCSH SCT040CB 21/10 A2980 RMK CB3 HVY SH N MVG E SLP092

CYQF;2007-09-05 00:00;CYQF 050000Z 01007KT 15SM FEW050 20/11 A2979 RMK SC2 CU EMBD SLP095

CYQF;2007-09-05 01:00;CYQF 050100Z 01004KT 15SM FEW045 20/11 A2981 RMK SC2 CU EMBD SLP101

CYQF;2007-09-05 02:00;CYQF 050200Z 01010KT 15SM FEW040 16/09 A2984 RMK CU2 SLP110

CYQF;2007-09-05 03:00;CYQF 050300Z 00000KT 15SM FEW040 SCT080 14/08 A2986 RMK SC2AC2 SLP123

CYQF;2007-09-05 04:00;CYQF 050400Z 00000KT 15SM SCT100 13/08 A2988 RMK AC3 SLP127

CYQF;2007-09-05 05:00;CYQF 050500Z 00000KT 15SM FEW100 10/08 A2990 RMK AC2 SLP133

CYQF;2007-09-05 06:00;CYQF 050600Z 26004KT 15SM SKC 10/08 A2990 RMK SLP132

CYQF;2007-09-05 07:00;CYQF 050700Z 00000KT 15SM FEW100 10/08 A2990 RMK AC1 SLP133

CYQF;2007-09-05 08:00;CYQF 050800Z 00000KT 15SM BKN100 09/07 A2992 RMK AC3 SLP138

CYQF;2007-09-05 09:00;CYQF 050900Z 00000KT 15SM SCT100 09/07 A2992 RMK AC2 SLP137

CYQF;2007-09-05 10:00;CYQF 051000Z 00000KT 15SM FEW100 08/07 A2993 RMK AC2 SLP140

CYQF;2007-09-05 11:00;CYQF 051100Z 00000KT 15SM SCT100 08/07 A2992 RMK AC2 SLP139

CYQF;2007-09-05 12:00;CYQF 051200Z 22003KT 15SM BKN090 08/07 A2993 RMK AC5 SLP142

CYQF;2007-09-05 13:00;CYQF 051300Z 19002KT 15SM BKN090 BKN250 10/08 A2993 RMK AC5CI0 SLP142

CYQF;2007-09-05 15:00;CYQF 051500Z 23002KT 15SM FEW050 BKN090 BKN250 11/10 A2993 RMK SC1AC5CI0 TCU DIST NW SLP146

CYQF;2007-09-05 16:00;CYQF 051600Z 16002KT 15SM FEW050 FEW090 SCT250 14/11 A2991 RMK SC1AC2CI1 TCU N SLP140

CYQF;2007-09-05 17:00;CYQF 051700Z 17005KT 15SM FEW050 FEW090 BKN250 18/08 A2989 RMK SC1AC2CI1 SLP136

CYQF;2007-09-05 18:00;CYQF 051800Z 17013KT 15SM FEW100 BKN250 19/10 A2987 RMK AC1CI2 SLP122

CYQF;2007-09-05 19:00;CYQF 051900Z 18008KT 15SM FEW040 BKN250 20/09 A2985 RMK CU2CI1 SLP115

CYQF;2007-09-05 20:00;CYQF 052000Z 17003KT 15SM FEW040 FEW120 BKN250 20/06 A2982 RMK CU2AC1CI1 SLP108

CYQF;2007-09-05 21:00;CYQF 052100Z 30005KT 15SM FEW050 BKN250 22/08 A2980 RMK CU1CI2 SLP096

CYQF;2007-09-05 22:00;CYQF 052200Z 00000KT 15SM FEW050 BKN250 21/07 A2978 RMK CU1CI5 SLP090

CYQF;2007-09-05 23:00;CYQF 052300Z 00000KT 15SM FEW050 SCT120 OVC250 21/08 A2976 RMK CU1AC2CI3 SLP084

CYQF;2007-09-06 00:00;CYQF 060000Z 00000KT 15SM FEW050 BKN120 OVC250 21/08 A2976 RMK SC2AC3CI2 SLP083

CYQF;2007-09-06 01:00;CYQF 060100Z 02003KT 15SM FEW050 BKN120 OVC250 19/11 A2975 RMK SC2AC3CI2 SLP081

CYQF;2007-09-06 02:00;CYQF 060200Z 36006KT 15SM SCT050 BKN120 OVC250 18/09 A2975 RMK CU3AC2CI2 SLP081

CYQF;2007-09-06 02:19;CYQF 060219Z 36020G30KT 15SM FEW050 BKN120 OVC250 RMK CU2AC3CI2

CYQF;2007-09-06 03:00;CYQF 060300Z CCA 01023G35KT 15SM FEW050 OVC120 14/07 A2980 RMK CU2AC6 PRESRR SLP101

CYQF;2007-09-06 04:00;CYQF 060400Z 02015G22KT 15SM BKN018 OVC120 12/08 A2983 RMK SC6AC2 SLP111

CYQF;2007-09-06 05:00;CYQF 060500Z 36006KT 15SM OVC050 11/08 A2985 RMK SC8 SLP118

CYQF;2007-09-06 06:00;CYQF 060600Z 36004KT 15SM OVC050 11/07 A2985 RMK SC8 SLP115

CYQF;2007-09-06 06:19;CYQF 060619Z 35008KT 15SM -RA OVC050 RMK SC8

CYQF;2007-09-06 07:00;CYQF 060700Z 36007KT 15SM -RA OVC050 11/08 A2985 RMK SC8 SLP114

CYQF;2007-09-06 08:00;CYQF 060800Z 34003KT 10SM -RA OVC050 10/08 A2985 RMK SC8 SLP115

CYQF;2007-09-06 09:00;CYQF 060900Z 00000KT 10SM -RA OVC050 10/09 A2985 RMK SC8 SLP112

CYQF;2007-09-06 09:42;CYQF 060942Z 00000KT 15SM FEW010 SCT050 RMK SF1SC3

CYQF;2007-09-06 10:00;CYQF 061000Z 00000KT 15SM FEW010 FEW050 SCT100 08/07 A2985 RMK SF1SC2AC1 SLP114

CYQF;2007-09-06 11:00;CYQF 061100Z 26005KT 15SM FEW050 FEW100 07/06 A2986 RMK SC1AC1 SLP117

CYQF;2007-09-06 12:00;CYQF 061200Z 27006KT 15SM FEW100 07/06 A2987 RMK AC2 SLP123

CYQF;2007-09-06 13:00;CYQF 061300Z 22002KT 15SM FEW100 07/06 A2987 RMK AC2 SLP124

CYQF;2007-09-06 14:00;CYQF 061400Z 28002KT 15SM FEW100 SCT250 09/08 A2988 RMK AC2CI1 SLP127

CYQF;2007-09-06 15:00;CYQF 061500Z CCA 00000KT 15SM FEW015 FEW070TCU SCT100 BKN250 10/08 A2989 RMK SF1TCU2AC2CI1 TCU W-NW SLP135

CYQF;2007-09-06 15:35;CYQF 061535Z 36010KT 15SM SCT011 BKN070 BKN250 RMK SC3AC2CI1 SH N

CYQF;2007-09-06 16:00;CYQF 061600Z 35012KT 15SM VCSH FEW015 BKN070 10/07 A2992 RMK SC2AC5 SH ALQDS TCU EMBD SLP143

CYQF;2007-09-06 16:26;CYQF 061626Z 33015G22KT 8SM -SHRA FEW010 OVC070 RMK SC2AC6 TCU EMBD

CYQF;2007-09-06 17:00;CYQF 061700Z 31015G22KT 6SM -SHRA SCT012 OVC070 08/06 A2997 RMK SC3AC5 TCU EMBD SLP159

CYQF;2007-09-06 18:00;CYQF 061800Z CCA 31008KT 10SM -SHRA BKN016 OVC060 08/06 A3000 RMK SC5SC2 RERA TCU EMBD SLP177

CYQF;2007-09-06 18:40;CYQF 061840Z 27005KT 15SM SCT040 BKN080 BKN250 RMK SC3AC3CI1 TCU NW

CYQF;2007-09-06 19:00;CYQF 061900Z 27008KT 15SM FEW040 BKN080 08/06 A3000 RMK SC2AC5 TCU NW SLP177

CYQF;2007-09-06 20:00;CYQF 062000Z 28010KT 15SM FEW040 BKN070 10/07 A2999 RMK SC2AC5 TCU/CB NW-N SLP175

CYQF;2007-09-06 21:00;CYQF 062100Z 27008KT 15SM FEW040 FEW080 SCT250 11/06 A2999 RMK SC1AC2CI0 CB NW SLP174

CYQF;2007-09-06 22:00;CYQF 062200Z 29014KT 15SM FEW040 FEW080 SCT250 13/05 A3000 RMK SC1AC2CI0 CB/HVY SH N SLP176

CYQF;2007-09-06 23:00;CYQF 062300Z 33008KT 15SM FEW030TCU FEW080 SCT250 12/04 A3001 RMK TCU2AC1CI1 CB TOP NW WND G28 PAST HR SLP180

CYQF;2007-09-07 00:00;CYQF 070000Z 30007KT 15SM FEW030CB 13/05 A3001 RMK CB1 SLP179

CYQF;2007-09-07 01:00;CYQF 070100Z 30007KT 15SM FEW030CB 13/04 A3002 RMK CB1 SLP184

CYQF;2007-09-07 02:00;CYQF 070200Z 27003KT 15SM FEW030 FEW250 10/05 A3003 RMK SC1CI1 CI TR SLP187

CYQF;2007-09-07 03:00;CYQF 070300Z 21002KT 15SM FEW030 FEW250 08/05 A3005 RMK SC1CI1 SLP196

CYQF;2007-09-07 04:00;CYQF 070400Z 25006KT 15SM SKC 07/04 A3006 RMK SLP200

CYQF;2007-09-07 05:00;CYQF 070500Z 20002KT 15SM SKC 06/04 A3006 RMK SLP200

CYQF;2007-09-07 06:00;CYQF 070600Z 00000KT 15SM BKN100 06/04 A3007 RMK AC3 SLP209

CYQF;2007-09-07 07:00;CYQF 070700Z 20005KT 15SM FEW100 BKN250 05/03 A3007 RMK AC2CI2 SLP208

CYQF;2007-09-07 08:00;CYQF 070800Z 00000KT 15SM FEW100 BKN250 05/03 A3007 RMK AC2CI3 SLP209

CYQF;2007-09-07 09:00;CYQF 070900Z 00000KT 15SM FEW100 OVC250 06/04 A3007 RMK AC2CI3 SLP204

CYQF;2007-09-07 10:00;CYQF 071000Z 00000KT 15SM FEW100 OVC250 06/04 A3007 RMK AC2CI3 SLP204

CYQF;2007-09-07 11:00;CYQF 071100Z 00000KT 15SM FEW040CB BKN100 OVC250 05/04 A3007 RMK CB1AC4CI2 OCNL LTNG SW SLP204

CYQF;2007-09-07 12:00;CYQF 071200Z 21003KT 15SM FEW040CB BKN100 OVC250 06/04 A3006 RMK CB2AC4CI2 OCNL LTNG W-SW SLP199

CYQF;2007-09-07 12:16;CYQF 071216Z 22008KT 15SM -SHRA BKN050TCU BKN100 OVC250 RMK TCU5AC2CI1 CB EMBDD

CYQF;2007-09-07 12:42;CYQF 071242Z 22003KT 15SM VCSH BKN050TCU BKN100 BKN250 RMK TCU5AC2CI0

CYQF;2007-09-07 13:00;CYQF 071300Z 00000KT 15SM VCSH SCT050TCU BKN100 OVC250 06/04 A3006 RMK TCU3AC2CI1 SLP199

CYQF;2007-09-07 14:00;CYQF 071400Z 00000KT 15SM SCT040TCU BKN080 OVC250 06/04 A3007 RMK TCU4AC2CI1 SH S SLP203

CYQF;2007-09-07 15:00;CYQF 071500Z 00000KT 15SM SCT040TCU BKN080 OVC250 07/05 A3007 RMK TCU4AC2CI1 SH S SLP208

CYQF;2007-09-07 16:00;CYQF 071600Z 28004KT 15SM BKN045 OVC080 08/06 A3009 RMK SC6AC2 TCU EMBD SH S SLP212

CYQF;2007-09-07 16:43;CYQF 071643Z 28005KT 15SM -SHRA FEW012 BKN045 OVC080 RMK SF1SC6AC2

CYQF;2007-09-07 17:00;CYQF 071700Z 27007KT 15SM -SHRA FEW012 BKN045 OVC080 08/06 A3010 RMK SF1SC6AC2 TCU EMBD HVYR SH SW SLP216

CYQF;2007-09-07 18:00;CYQF 071800Z 26008KT 15SM -SHRA FEW012 BKN050TCU OVC090 09/06 A3011 RMK SF1TCU5AC2 HVYR SH SW SLP222

CYQF;2007-09-07 18:40;CYQF 071840Z 25006KT 15SM FEW015 BKN050TCU BKN090 RMK CF2TCU4AC2 SH S

CYQF;2007-09-07 19:00;CYQF 071900Z 24005KT 15SM FEW015 BKN050TCU BKN090 10/07 A3011 RMK CF2TCU3AC2 SH S SLP223

CYQF;2007-09-07 19:24;CYQF 071924Z 23004KT 15SM -SHRA FEW015 BKN040TCU BKN090 RMK SF2TCU3AC2

CYQF;2007-09-07 20:00;CYQF 072000Z 24004KT 15SM FEW018 BKN040TCU BKN090 11/06 A3011 RMK SC2TCU3AC2 SLP221

CYQF;2007-09-07 21:00;CYQF 072100Z 22004KT 15SM BKN030TCU BKN090 12/05 A3011 RMK TCU5AC2 SLP218

CYQF;2007-09-07 22:00;CYQF 072200Z 33013KT 15SM BKN025TCU BKN090 11/04 A3013 RMK TCU6AC1 CB ASOCTD SLP223

CYQF;2007-09-07 23:00;CYQF 072300Z 33008KT 15SM BKN025CB BKN090 11/04 A3014 RMK CB6AC1 SLP226

CYQF;2007-09-08 00:00;CYQF 080000Z 32005KT 15SM SCT025CB BKN090 11/04 A3015 RMK CB3AC2 SLP234

CYQF;2007-09-08 01:00;CYQF 080100Z 31005KT 15SM SCT025CB BKN090 10/05 A3018 RMK CB4AC2 SLP241

CYQF;2007-09-08 02:00;CYQF 080200Z 00000KT 15SM VCSH SCT025TCU BKN090 10/05 A3021 RMK TCU3AC3 SLP251

CYQF;2007-09-08 03:00;CYQF 080300Z 26005KT 15SM FEW025 BKN090 07/05 A3022 RMK SC2AC2 SLP260

CYQF;2007-09-08 04:00;CYQF 080400Z 23005KT 15SM FEW090 05/03 A3024 RMK AC1 SLP264

CYQF;2007-09-08 05:00;CYQF 080500Z 25005KT 15SM FEW090 05/03 A3024 RMK AC1 SLP266

CYQF;2007-09-08 06:00;CYQF 080600Z CCA 26005KT 15SM SKC 04/03 A3025 RMK SLP273

CYQF;2007-09-08 07:00;CYQF 080700Z 21006KT 15SM SKC 04/02 A3025 RMK SLP273

CYQF;2007-09-08 08:00;CYQF 080800Z 25007KT 15SM SKC 04/02 A3026 RMK SLP276

CYQF;2007-09-08 09:00;CYQF 080900Z 24003KT 15SM FEW250 04/02 A3027 RMK CI1 SLP276

CYQF;2007-09-08 10:00;CYQF 081000Z 25004KT 15SM SKC 04/02 A3028 RMK SLP279

CYQF;2007-09-08 11:00;CYQF 081100Z 24006KT 15SM SKC 03/01 A3028 RMK SLP279

CYQF;2007-09-08 12:00;CYQF 081200Z 00000KT 15SM SKC 03/01 A3029 RMK SLP285

CYQF;2007-09-08 13:00;CYQF 081300Z 00000KT 15SM FEW080 02/00 A3030 RMK AC2 SLP289

CYQF;2007-09-08 14:00;CYQF 081400Z 18003KT 15SM FEW080 BKN120 02/01 A3032 RMK AC2AC2 ACC ASOCTD SLP294

CYQF;2007-09-08 15:00;CYQF 081500Z 24004KT 15SM FEW070 BKN100 06/03 A3033 RMK AC2AC6 ACC ASOCTD SLP298

CYQF;2007-09-08 16:00;CYQF 081600Z 00000KT 15SM FEW070 SCT100 07/05 A3033 RMK ACC1AC3 SLP299

CYQF;2007-09-08 17:00;CYQF 081700Z 27005KT 15SM FEW020 FEW070 BKN100 10/05 A3033 RMK CU1AC2AC2 SLP299

CYQF;2007-09-08 18:00;CYQF 081800Z 27005KT 15SM FEW025 BKN090 12/04 A3033 RMK CU2AC4 SLP295

CYQF;2007-09-08 19:00;CYQF 081900Z 32005KT 15SM FEW025 BKN090 12/04 A3032 RMK CU2AC2 SLP293

CYQF;2007-09-08 20:00;CYQF 082000Z 32003KT 15SM FEW030CB SCT090 13/04 A3031 RMK CB2AC1 CB NW-NE SLP290

CYQF;2007-09-08 21:00;CYQF 082100Z 02010KT 15SM VCSH BKN030TCU BKN090 10/03 A3031 RMK TCU6AC1 CB EMBD HVYR SH NE SLP291

CYQF;2007-09-08 22:00;CYQF 082200Z 05003KT 15SM FEW030TCU SCT090 BKN250 13/04 A3029 RMK TCU2AC1CI0 SLP286

CYQF;2007-09-08 23:00;CYQF 082300Z 33005KT 15SM VCSH BKN035TCU BKN250 13/04 A3029 RMK TCU5CI1 SHS SW-NW SLP286

CYQF;2007-09-08 23:20;CYQF 082320Z 28007KT 15SM TS BKN030CB BKN250 RMK CB5CI2 OCNL LTGICCC

CYQF;2007-09-08 23:30;CYQF 082330Z 30018G28KT 15SM -TSRA BKN030CB BKN250 RMK CB6CI1 OCNL LTGICCCCG

CYQF;2007-09-09 00:00;CYQF 090000Z 32012G18KT 10SM -TSRA OVC030CB 08/06 A3034 RMK CB8 OCNL LTGICCG SLP307

CYQF;2007-09-09 00:47;CYQF 090047Z 00000KT 15SM SCT030CB BKN070 RETS RMK CB3AC3

CYQF;2007-09-09 01:00;CYQF 090100Z 00000KT 15SM FEW030CB BKN070 BKN250 08/06 A3034 RMK CB2AC2CI1 RETS SLP305

CYQF;2007-09-09 02:00;CYQF 090200Z 00000KT 15SM FEW030TCU SCT090 BKN250 08/06 A3034 RMK TCU1AC2CI1 SLP305

CYQF;2007-09-09 03:00;CYQF 090300Z 25005KT 15SM FEW030 BKN090 05/04 A3036 RMK SC2AC3 TCU ASOCTD SLP311

CYQF;2007-09-09 04:00;CYQF 090400Z 00000KT 15SM FEW030 BKN080 07/05 A3036 RMK SC2AC2 SLP313

CYQF;2007-09-09 05:00;CYQF 090500Z 25005KT 15SM FEW030 04/03 A3036 RMK SC1 SLP311

CYQF;2007-09-09 06:00;CYQF 090600Z 24008KT 15SM SKC 04/03 A3036 RMK SLP308

CYQF;2007-09-09 07:00;CYQF 090700Z 26008KT 15SM SKC 04/02 A3036 RMK SLP308

CYQF;2007-09-09 08:00;CYQF 090800Z 24005KT 15SM SKC 03/02 A3035 RMK SLP305

CYQF;2007-09-09 09:00;CYQF 090900Z 21002KT 15SM SKC 02/01 A3035 RMK SLP307

CYQF;2007-09-09 10:00;CYQF 091000Z 19002KT 15SM SKC 02/01 A3034 RMK SLP304

CYQF;2007-09-09 11:00;CYQF 091100Z 20002KT 15SM SKC 01/00 A3033 RMK SLP301

CYQF;2007-09-09 12:00;CYQF 091200Z 19003KT 15SM SKC 01/M00 A3033 RMK SLP303

CYQF;2007-09-09 13:00;CYQF 091300Z 20004KT 15SM FEW250 01/M00 A3032 RMK CI1 SLP301

CYQF;2007-09-09 14:00;CYQF 091400Z 20003KT 15SM FEW250 01/M00 A3032 RMK CI1 FG IN RVR VLY NW SLP299

CYQF;2007-09-09 15:00;CYQF 091500Z 20003KT 15SM BKN250 05/02 A3031 RMK CI1 SLP297

CYQF;2007-09-09 16:00;CYQF 091600Z 18005KT 15SM BKN250 07/04 A3030 RMK CI2 SLP293

CYQF;2007-09-09 17:00;CYQF 091700Z 19004KT 15SM FEW250 11/06 A3028 RMK CI1 SLP287

CYQF;2007-09-09 18:00;CYQF 091800Z 19008KT 15SM SCT250 14/04 A3025 RMK CI1 SLP268

CYQF;2007-09-09 19:00;CYQF 091900Z 19007KT 15SM BKN250 15/03 A3024 RMK CI2 SLP262

CYQF;2007-09-09 20:00;CYQF 092000Z 21009KT 15SM BKN250 16/02 A3021 RMK CI2 SLP253

CYQF;2007-09-09 21:00;CYQF 092100Z 21008KT 15SM SCT250 17/02 A3018 RMK CI2 SLP242

CYQF;2007-09-09 22:00;CYQF 092200Z 24003KT 15SM SCT250 17/02 A3017 RMK CI1 SLP237

CYQF;2007-09-09 23:00;CYQF 092300Z 20005KT 15SM FEW150 SCT250 17/01 A3014 RMK AC2CI1 SLP228

CYQF;2007-09-10 00:00;CYQF 100000Z 20002KT 15SM FEW150 SCT250 18/01 A3013 RMK AC1CI0 SLP222

CYQF;2007-09-10 01:00;CYQF 100100Z 21002KT 15SM FEW150 SCT250 17/04 A3011 RMK AC2CI0 SLP218

CYQF;2007-09-10 02:00;CYQF 100200Z 00000KT 15SM SCT120 BKN250 16/04 A3011 RMK AC4CI0 SLP218

CYQF;2007-09-10 03:00;CYQF 100300Z 19003KT 15SM BKN120 13/07 A3011 RMK AC6 SLP219

CYQF;2007-09-10 04:00;CYQF 100400Z 21003KT 15SM BKN120 12/07 A3011 RMK AC6 SLP219

CYQF;2007-09-10 05:00;CYQF 100500Z 24007KT 15SM FEW120 10/04 A3011 RMK AC1 SLP219

CYQF;2007-09-10 06:00;CYQF 100600Z 25008KT 15SM SKC 10/04 A3012 RMK SLP216

CYQF;2007-09-10 07:00;CYQF 100700Z 26004KT 15SM SKC 09/04 A3014 RMK SLP220

CYQF;2007-09-10 08:00;CYQF 100800Z 28005KT 15SM SKC 10/04 A3015 RMK SLP223

CYQF;2007-09-10 09:00;CYQF 100900Z 21007KT 15SM SKC 07/04 A3015 RMK SLP226

CYQF;2007-09-10 10:00;CYQF 101000Z 23005KT 15SM SKC 07/04 A3015 RMK SLP226

CYQF;2007-09-10 11:00;CYQF 101100Z 26005KT 15SM SCT100 07/04 A3015 RMK AC3 SLP226

CYQF;2007-09-10 12:00;CYQF 101200Z 28008KT 15SM BKN090 10/05 A3015 RMK AC6 SLP221

CYQF;2007-09-10 13:00;CYQF 101300Z 27008KT 15SM FEW090 08/04 A3016 RMK AC2 SLP225

CYQF;2007-09-10 14:00;CYQF 101400Z 27004KT 15SM FEW090 SCT250 07/05 A3017 RMK AC1CI2 SLP227

CYQF;2007-09-10 15:00;CYQF 101500Z 28010KT 15SM FEW090 BKN250 13/06 A3018 RMK AC1CI1 SLP233

CYQF;2007-09-10 16:00;CYQF 101600Z 31008KT 15SM SCT090 OVC250 16/07 A3018 RMK AC3CI1 SLP234

CYQF;2007-09-10 17:00;CYQF 101700Z 33008KT 15SM BKN090 OVC250 17/09 A3019 RMK AC6CI1 SLP236

CYQF;2007-09-10 18:00;CYQF 101800Z 32010G15KT 15SM FEW060 BKN080 OVC250 17/09 A3020 RMK SC2AC5CI1 SLP237

CYQF;2007-09-10 19:00;CYQF 101900Z 33010G15KT 15SM BKN060 BKN080 BKN250 18/10 A3019 RMK SC5AC2CI1 SLP236

CYQF;2007-09-10 20:00;CYQF 102000Z 33006KT 15SM FEW060 BKN080 BKN250 19/10 A3020 RMK SC2AC2CI2 SLP237

CYQF;2007-09-10 21:00;CYQF 102100Z 33008KT 15SM FEW050 BKN080 BKN250 20/10 A3020 RMK CU1AC5CI1 SLP238

CYQF;2007-09-10 22:00;CYQF 102200Z 34008KT 15SM FEW035 BKN080 OVC250 19/10 A3019 RMK CU1AC6CI0 SLP237

CYQF;2007-09-10 23:00;CYQF 102300Z 01003KT 15SM BKN090 BKN250 19/10 A3019 RMK AC6CI1 SLP235

CYQF;2007-09-11 00:00;CYQF 110000Z 36002KT 15SM SCT090 BKN250 20/10 A3017 RMK AC3CI2 SLP227

CYQF;2007-09-11 01:00;CYQF 110100Z 05002KT 15SM FEW090 BKN250 20/09 A3016 RMK AC1CI2 SLP223

CYQF;2007-09-11 02:00;CYQF 110200Z 17002KT 15SM FEW090 BKN250 18/10 A3015 RMK AC1CI2 TR AC SLP221

CYQF;2007-09-11 03:00;CYQF 110300Z 17003KT 15SM FEW090 SCT250 14/10 A3015 RMK AC1CI0 SLP221

CYQF;2007-09-11 04:00;CYQF 110400Z 17003KT 15SM FEW250 12/09 A3014 RMK CI0 SLP218

CYQF;2007-09-11 05:00;CYQF 110500Z 18003KT 15SM SKC 11/08 A3012 RMK SLP213

CYQF;2007-09-11 06:00;CYQF 110600Z 00000KT 15SM SKC 10/08 A3011 RMK SLP207

CYQF;2007-09-11 07:00;CYQF 110700Z 18003KT 15SM SKC 09/07 A3009 RMK SLP202

CYQF;2007-09-11 08:00;CYQF 110800Z 21003KT 15SM SKC 09/07 A3008 RMK SLP199

CYQF;2007-09-11 09:00;CYQF 110900Z 17002KT 15SM SKC 09/07 A3006 RMK SLP189

CYQF;2007-09-11 10:00;CYQF 111000Z 19004KT 15SM SKC 08/06 A3004 RMK SLP180

CYQF;2007-09-11 11:00;CYQF 111100Z 19005KT 15SM SKC 08/06 A3002 RMK SLP175

CYQF;2007-09-11 12:00;CYQF 111200Z 19004KT 15SM SKC 07/06 A3000 RMK SLP170

CYQF;2007-09-11 13:00;CYQF 111300Z 21004KT 15SM SKC 06/05 A2999 RMK SLP167

CYQF;2007-09-11 14:00;CYQF 111400Z 21006KT 15SM SKC 07/06 A2999 RMK SLP165

CYQF;2007-09-11 15:00;CYQF 111500Z 23004KT 15SM SKC 10/08 A2998 RMK SLP165

CYQF;2007-09-11 16:00;CYQF 111600Z 26003KT 15SM SKC 14/10 A2996 RMK SLP161

CYQF;2007-09-11 17:00;CYQF 111700Z 22003KT 15SM FEW250 17/10 A2995 RMK CI1 SLP156

CYQF;2007-09-11 18:00;CYQF 111800Z 31005KT 15SM FEW250 21/10 A2994 RMK CI1 SLP144

CYQF;2007-09-11 19:00;CYQF 111900Z 00000KT 15SM FEW250 22/09 A2993 RMK CI1 SLP140

CYQF;2007-09-11 20:00;CYQF 112000Z 00000KT 15SM BKN250 23/08 A2991 RMK CI2 SLP135

CYQF;2007-09-11 21:00;CYQF 112100Z 32012KT 15SM BKN250 23/07 A2990 RMK CI2 SLP128

CYQF;2007-09-11 22:00;CYQF 112200Z 33005KT 15SM FEW110 BKN250 24/08 A2988 RMK AC2CI1 SLP122

CYQF;2007-09-11 23:00;CYQF 112300Z 02008KT 15SM FEW110 BKN250 23/07 A2987 RMK AC2CI1 SLP119

CYQF;2007-09-12 00:00;CYQF 120000Z 36007KT 15SM FEW100 BKN250 23/08 A2986 RMK AC2CI1 SLP119

CYQF;2007-09-12 01:00;CYQF 120100Z 02007KT 15SM SCT090 BKN250 21/09 A2987 RMK AC4CI1 SLP120

CYQF;2007-09-12 02:00;CYQF 120200Z 02011G18KT 15SM BKN050 BKN090 19/10 A2989 RMK SC6AC1 SLP126

CYQF;2007-09-12 02:49;CYQF 120249Z 36010G15KT 15SM TS FEW015 SCT030CB OVC100 RMK SF1CB3AC3

CYQF;2007-09-12 03:00;CYQF 120300Z 33013G24KT 10SM -TSRA FEW015 BKN025CB OVC100 17/10 A2997 RMK SF2CB5AC2 PRESRR SLP158

CYQF;2007-09-12 03:04;CYQF 120304Z 33019G29KT 4SM +TSRA FEW015 OVC025CB RMK SF2CB6

CYQF;2007-09-12 03:18;CYQF 120318Z 34007KT 10SM -TSRA FEW006 BKN022CB OVC090 RMK SF2CB4AC2

CYQF;2007-09-12 03:36;CYQF 120336Z 33002KT 15SM FEW006 SCT020 BKN090 RMK SF2SC2AC2 RETS/LTNG DIST E/CB ASOCTD

CYQF;2007-09-12 04:00;CYQF 120400Z 34006KT 15SM -SHRA FEW006 SCT020 OVC100 13/11 A2997 RMK SF2SC2AC4 RETS SLP159

CYQF;2007-09-12 05:00;CYQF 120500Z 34010G15KT 8SM -SHRA SCT006 OVC075 12/10 A3001 RMK SF4AC4 SLP170

CYQF;2007-09-12 06:00;CYQF 120600Z 33013KT 8SM -SHRA SCT006 OVC075 10/09 A3004 RMK SF4AC4 SLP177

CYQF;2007-09-12 07:00;CYQF 120700Z 30010KT 8SM -SHRA FEW006 OVC035 10/09 A3002 RMK SF2SC6 SLP173

CYQF;2007-09-12 08:00;CYQF 120800Z CCA 29010KT 8SM -SHRA FEW006 SCT010 OVC025 10/09 A3004 RMK SF2SC2SC5 SLP177

CYQF;2007-09-12 09:00;CYQF 120900Z 32013KT 12SM -RA BKN009 OVC030 10/08 A3002 RMK SF5SC3 SLP169

CYQF;2007-09-12 10:00;CYQF 121000Z 36014G21KT 8SM FEW006 OVC015 08/06 A3004 RMK SF2SC6 SLP176

CYQF;2007-09-12 10:31;CYQF 121031Z 35010G15KT 12SM FEW015 OVC025 RMK SC2SC6

CYQF;2007-09-12 11:00;CYQF 121100Z 34012G18KT 15SM FEW015 BKN030 07/05 A3005 RMK SC1SC6 SLP179

CYQF;2007-09-12 13:00;CYQF 121300Z 34013KT 15SM BKN025 BKN100 OVC250 05/02 A3011 RMK SC5AC2CI0 SLP202

CYQF;2007-09-12 14:00;CYQF 121400Z 35010G15KT 15SM SCT030 BKN100 05/01 A3012 RMK SC3AC2 SLP206

CYQF;2007-09-12 15:00;CYQF 121500Z 33009G15KT 15SM BKN018 05/01 A3012 RMK SC7 SLP217

CYQF;2007-09-12 16:00;CYQF 121600Z 33014G23KT 15SM BKN022 06/02 A3012 RMK SC7 SLP217

CYQF;2007-09-12 17:00;CYQF 121700Z 33017G30KT 15SM BKN025 06/01 A3013 RMK SC7 SLP220

CYQF;2007-09-12 18:00;CYQF 121800Z 33017G25KT 15SM BKN025 07/01 A3014 RMK SC7 SLP229

CYQF;2007-09-12 19:00;CYQF 121900Z 33012G21KT 15SM BKN030 08/01 A3015 RMK SC6 SLP231

CYQF;2007-09-12 20:00;CYQF 122000Z 33018G28KT 15SM BKN028 08/01 A3014 RMK SC6 SLP230

CYQF;2007-09-12 21:00;CYQF 122100Z 33019G27KT 15SM BKN030 09/01 A3014 RMK SC7 SLP227

CYQF;2007-09-12 22:00;CYQF 122200Z 33012G22KT 15SM BKN030 09/01 A3015 RMK SC6 SLP231

CYQF;2007-09-12 23:00;CYQF 122300Z 32015G21KT 15SM BKN030 09/01 A3016 RMK SC6 SLP234

CYQF;2007-09-13 00:00;CYQF 130000Z 34013G18KT 15SM BKN035 08/01 A3018 RMK SC5 SLP244

CYQF;2007-09-13 01:00;CYQF 130100Z 35015KT 15SM FEW030 08/01 A3018 RMK SC2 SLP246

CYQF;2007-09-13 02:00;CYQF 130200Z 34010KT 15SM FEW030 06/01 A3020 RMK SC1 SLP251

CYQF;2007-09-13 03:00;CYQF 130300Z 34005KT 15SM SKC 04/00 A3022 RMK SLP263

CYQF;2007-09-13 04:00;CYQF 130400Z 00000KT 15SM SKC 04/M00 A3023 RMK SLP267

CYQF;2007-09-13 05:00;CYQF 130500Z 00000KT 15SM SKC 03/M00 A3024 RMK SLP270

CYQF;2007-09-13 06:00;CYQF 130600Z 00000KT 15SM SKC 01/M01 A3025 RMK SLP277

CYQF;2007-09-13 07:00;CYQF 130700Z 28003KT 15SM SKC 00/M02 A3025 RMK SLP276

CYQF;2007-09-13 08:00;CYQF 130800Z 00000KT 15SM SKC 01/M01 A3024 RMK SLP275

CYQF;2007-09-13 09:00;CYQF 130900Z 00000KT 15SM SKC M00/M02 A3024 RMK SLP273

CYQF;2007-09-13 10:00;CYQF 131000Z 00000KT 15SM SKC M01/M02 A3024 RMK GLAZE ON INDCTR SLP271

CYQF;2007-09-13 11:00;CYQF 131100Z 00000KT 15SM SKC M01/M03 A3023 RMK FROIN SLP269

CYQF;2007-09-13 12:00;CYQF 131200Z 00000KT 15SM SKC M01/M03 A3022 RMK FROIN SLP268

CYQF;2007-09-13 13:00;CYQF 131300Z 00000KT 15SM SKC M01/M03 A3021 RMK FROIN FZFG SW-N OVER RIVER SLP266

CYQF;2007-09-13 14:00;CYQF 131400Z 00000KT 15SM SKC M01/M02 A3021 RMK FROIN SLP266

CYQF;2007-09-13 15:00;CYQF 131500Z 16004KT 15SM FEW240 02/M01 A3020 RMK CI1 SLP263

CYQF;2007-09-13 16:00;CYQF 131600Z 19007KT 15SM SKC 06/02 A3019 RMK SLP260

CYQF;2007-09-13 17:00;CYQF 131700Z 17006KT 15SM SKC 09/03 A3019 RMK SLP259

CYQF;2007-09-13 18:00;CYQF 131800Z 17005KT 15SM FEW280 11/03 A3018 RMK CI1 SLP248

CYQF;2007-09-13 19:00;CYQF 131900Z 15008KT 15SM SKC 12/03 A3015 RMK SLP241

CYQF;2007-09-13 20:00;CYQF 132000Z 19007KT 15SM SKC 14/04 A3014 RMK SLP236

CYQF;2007-09-13 21:00;CYQF 132100Z 14010KT 15SM SKC 15/03 A3013 RMK SLP227

CYQF;2007-09-13 22:00;CYQF 132200Z 15008KT 15SM SKC 16/03 A3011 RMK SLP221

CYQF;2007-09-13 23:00;CYQF 132300Z 19008KT 15SM SKC 16/03 A3009 RMK SLP216

CYQF;2007-09-14 00:00;CYQF 140000Z 17008KT 15SM SKC 16/03 A3007 RMK SLP208

CYQF;2007-09-14 01:00;CYQF 140100Z 17003KT 15SM SKC 15/04 A3007 RMK SLP206

CYQF;2007-09-14 02:00;CYQF 140200Z 00000KT 15SM SKC 13/04 A3006 RMK SLP205

CYQF;2007-09-14 03:00;CYQF 140300Z CCA 00000KT 15SM SKC 09/03 A3006 RMK BARO READ H+11 SLP209

CYQF;2007-09-14 04:00;CYQF 140400Z 00000KT 15SM SKC 08/04 A3006 RMK SLP209

CYQF;2007-09-14 05:00;CYQF 140500Z 00000KT 15SM SKC 07/03 A3006 RMK SLP209

CYQF;2007-09-14 06:00;CYQF 140600Z 15005KT 15SM SKC 07/03 A3006 RMK SLP202

CYQF;2007-09-14 07:00;CYQF 140700Z 16005KT 15SM SKC 05/02 A3006 RMK SLP201

CYQF;2007-09-14 08:00;CYQF 140800Z 19004KT 15SM SKC 05/02 A3006 RMK SLP200

CYQF;2007-09-14 09:00;CYQF 140900Z 00000KT 15SM SKC 03/01 A3005 RMK SLP199

CYQF;2007-09-14 10:00;CYQF 141000Z 00000KT 15SM SKC 03/01 A3005 RMK SLP199

CYQF;2007-09-14 11:00;CYQF 141100Z 00000KT 15SM SKC 02/00 A3005 RMK SLP198

CYQF;2007-09-14 12:00;CYQF 141200Z 00000KT 15SM SKC 02/00 A3005 RMK SLP195

CYQF;2007-09-14 13:00;CYQF 141300Z 21003KT 10SM VCFG FEW250 01/M00 A3004 RMK CI0 SLP194

CYQF;2007-09-14 14:00;CYQF 141400Z 18002KT 10SM SKC 02/00 A3004 RMK BR SLP192

CYQF;2007-09-14 15:00;CYQF 141500Z 00000KT 10SM SKC 04/02 A3004 RMK BR SLP197

CYQF;2007-09-14 16:00;CYQF 141600Z 00000KT 15SM FEW250 08/06 A3003 RMK CI1 SLP194

CYQF;2007-09-14 17:00;CYQF 141700Z 00000KT 15SM FEW250 12/08 A3002 RMK CI1 SLP191

CYQF;2007-09-14 18:00;CYQF 141800Z 22003KT 15SM FEW250 16/07 A3000 RMK CI1 SLP173

CYQF;2007-09-14 19:00;CYQF 141900Z 00000KT 15SM FEW250 19/07 A2999 RMK CI0 SLP170

CYQF;2007-09-14 20:00;CYQF 142000Z 18003KT 15SM FEW250 20/05 A2996 RMK CI0 SLP162

CYQF;2007-09-14 21:00;CYQF 142100Z 00000KT 15SM FEW250 21/06 A2995 RMK CI0 SLP156

CYQF;2007-09-14 22:00;CYQF 142200Z 00000KT 15SM FEW250 22/06 A2995 RMK CI0 SLP154

CYQF;2007-09-14 23:00;CYQF 142300Z 30004KT 15SM FEW250 22/01 A2993 RMK CI0 SLP150

CYQF;2007-09-15 00:00;CYQF 150000Z 30003KT 15SM FEW250 21/05 A2993 RMK CI0 SLP149

CYQF;2007-09-15 01:00;CYQF 150100Z 00000KT 15SM SCT250 20/07 A2992 RMK CI0 SLP147

CYQF;2007-09-15 02:00;CYQF 150200Z 00000KT 15SM SCT250 15/07 A2992 RMK CI1 SLP145

CYQF;2007-09-15 03:00;CYQF 150300Z 29002KT 15SM FEW250 11/06 A2993 RMK CI1 SLP158

CYQF;2007-09-15 04:00;CYQF 150400Z 28002KT 15SM SKC 08/04 A2994 RMK SLP162

CYQF;2007-09-15 05:00;CYQF 150500Z 21004KT 15SM SKC 07/05 A2994 RMK SLP162

CYQF;2007-09-15 06:00;CYQF 150600Z 00000KT 15SM SKC 06/04 A2993 RMK SLP151

CYQF;2007-09-15 07:00;CYQF 150700Z 21005KT 15SM FEW240 06/04 A2993 RMK CI1 SLP150

CYQF;2007-09-15 08:00;CYQF 150800Z 00000KT 15SM SKC 05/04 A2993 RMK SLP149

CYQF;2007-09-15 09:00;CYQF 150900Z 18003KT 15SM SKC 04/03 A2992 RMK SLP143

CYQF;2007-09-15 10:00;CYQF 151000Z 20002KT 15SM SKC 03/02 A2991 RMK SLP139

CYQF;2007-09-15 11:00;CYQF 151100Z 19003KT 15SM SKC 03/02 A2990 RMK SLP138

CYQF;2007-09-15 12:00;CYQF 151200Z 21002KT 15SM FEW250 03/01 A2990 RMK CI1 SLP138

CYQF;2007-09-15 13:00;CYQF 151300Z 00000KT 15SM FEW250 03/01 A2990 RMK CI1 SLP137

CYQF;2007-09-15 14:00;CYQF 151400Z 00000KT 15SM FEW250 03/01 A2989 RMK CI0 SLP136

CYQF;2007-09-15 15:00;CYQF 151500Z 21005KT 15SM FEW250 07/04 A2990 RMK CI0 SLP146

CYQF;2007-09-15 16:00;CYQF 151600Z 21004KT 15SM FEW250 09/06 A2990 RMK CI0 SLP145

CYQF;2007-09-15 17:00;CYQF 151700Z 22005KT 15SM FEW250 12/07 A2990 RMK CI0 SLP144

CYQF;2007-09-15 18:00;CYQF 151800Z 00000KT 15SM FEW250 16/08 A2988 RMK CI0 SLP134

CYQF;2007-09-15 19:00;CYQF 151900Z 00000KT 15SM FEW250 19/08 A2987 RMK CI0 SLP129

CYQF;2007-09-15 20:00;CYQF 152000Z 00000KT 15SM FEW250 21/07 A2986 RMK CI0 SLP126

CYQF;2007-09-15 21:00;CYQF 152100Z 36004KT 15SM FEW250 22/08 A2985 RMK CI0 SLP116

CYQF;2007-09-15 22:00;CYQF 152200Z 00000KT 15SM FEW250 23/06 A2983 RMK CI0 SLP112

CYQF;2007-09-15 23:00;CYQF 152300Z 03004KT 15SM FEW250 23/05 A2981 RMK CI0 SLP105

CYQF;2007-09-16 00:00;CYQF 160000Z 05002KT 15SM FEW250 23/05 A2981 RMK CI0 SLP104

CYQF;2007-09-16 01:00;CYQF 160100Z 08002KT 15SM SKC 21/05 A2979 RMK SLP100

CYQF;2007-09-16 02:00;CYQF 160200Z 00000KT 15SM SKC 14/06 A2979 RMK SLP098

CYQF;2007-09-16 03:00;CYQF 160300Z 00000KT 15SM SKC 13/06 A2979 RMK SLP105

CYQF;2007-09-16 04:00;CYQF 160400Z 20002KT 15SM SKC 11/06 A2979 RMK SLP104

CYQF;2007-09-16 05:00;CYQF 160500Z 21003KT 15SM SKC 09/05 A2977 RMK SLP100

CYQF;2007-09-16 06:00;CYQF 160600Z 00000KT 15SM SKC 06/04 A2976 RMK SLP090

CYQF;2007-09-16 07:00;CYQF 160700Z 22003KT 15SM SKC 06/04 A2975 RMK SLP087

CYQF;2007-09-16 08:00;CYQF 160800Z 18004KT 15SM SKC 06/04 A2974 RMK SLP083

CYQF;2007-09-16 09:00;CYQF 160900Z 00000KT 15SM SKC 07/05 A2973 RMK SLP072

CYQF;2007-09-16 10:00;CYQF 161000Z 20002KT 15SM SKC 05/03 A2972 RMK SLP069

CYQF;2007-09-16 11:00;CYQF 161100Z 20002KT 15SM SKC 04/03 A2970 RMK SLP064

CYQF;2007-09-16 12:00;CYQF 161200Z 20004KT 15SM SKC 03/02 A2970 RMK SLP067

CYQF;2007-09-16 13:00;CYQF 161300Z 20005KT 15SM FEW240 03/01 A2969 RMK CI1 SLP064

CYQF;2007-09-16 14:00;CYQF 161400Z 19002KT 15SM FEW240 03/01 A2968 RMK CI1 SLP062

CYQF;2007-09-16 15:00;CYQF 161500Z 17002KT 15SM FEW240 06/04 A2968 RMK CI1 SLP067

CYQF;2007-09-16 16:00;CYQF 161600Z 00000KT 15SM FEW240 11/06 A2967 RMK CI0 SLP064

CYQF;2007-09-16 17:00;CYQF 161700Z 00000KT 15SM FEW250 14/07 A2965 RMK CI0 SLP058

CYQF;2007-09-16 18:00;CYQF 161800Z 00000KT 15SM FEW250 16/06 A2963 RMK CI1 SLP047

CYQF;2007-09-16 19:00;CYQF 161900Z 00000KT 15SM FEW250 19/07 A2961 RMK CI1 SLP039

CYQF;2007-09-16 20:00;CYQF 162000Z 00000KT 15SM FEW250 21/07 A2958 RMK CI1 SLP031

CYQF;2007-09-16 21:00;CYQF 162100Z 00000KT 15SM FEW250 22/07 A2957 RMK CI1 SLP018

CYQF;2007-09-16 22:00;CYQF 162200Z 02002KT 15SM FEW250 23/05 A2955 RMK CI1 SLP013

CYQF;2007-09-16 23:00;CYQF 162300Z 00000KT 15SM FEW120 FEW250 23/05 A2955 RMK AC1CI0 SLP013

CYQF;2007-09-17 00:00;CYQF 170000Z 01005KT 15SM FEW080 FEW250 23/04 A2956 RMK CU2CI0 SLP017

CYQF;2007-09-17 01:00;CYQF 170100Z 35008KT 15SM SCT070TCU BKN250 17/08 A2956 RMK TCU4CI0 SLP018

CYQF;2007-09-17 02:00;CYQF 170200Z 34010KT 15SM FEW020 BKN070TCU 17/07 A2960 RMK SC2TCU6 VIRGA SW SLP032

CYQF;2007-09-17 03:00;CYQF 170300Z 36012G20KT 15SM BKN070TCU BKN120 17/07 A2963 RMK TCU5AC2 VIRGA SLP047

CYQF;2007-09-17 04:00;CYQF 170400Z 01012G20KT 15SM BKN080 16/07 A2965 RMK AC6 LTNG DSNT W SLP051

CYQF;2007-09-17 05:00;CYQF 170500Z 33010G15KT 15SM SCT100 14/05 A2968 RMK AC4 LTNG DSNT W SLP063

CYQF;2007-09-17 06:00;CYQF 170600Z 33010G22KT 15SM FEW040TCU BKN100 12/06 A2972 RMK TCU2AC4 LTNG DIST W-NW PRESRR SLP070

CYQF;2007-09-17 06:13;CYQF 170613Z 33010G15KT 15SM -SHRA FEW040TCU BKN100 RMK TCU2AC5

CYQF;2007-09-17 06:44;CYQF 170644Z 34013KT 15SM FEW040TCU OVC080 RMK TCU1AC7

CYQF;2007-09-17 07:00;CYQF 170700Z 33013KT 15SM OVC080 12/07 A2975 RMK AC8 SLP080

CYQF;2007-09-17 07:28;CYQF 170728Z 01009KT 12SM -SHRA FEW006 OVC080 RMK SF2AC6

CYQF;2007-09-17 08:00;CYQF 170800Z 36007KT 12SM -SHRA FEW006 BKN050TCU OVC080 10/08 A2975 RMK ST0TCU5AC3 SLP079

CYQF;2007-09-17 09:00;CYQF 170900Z 30003KT 8SM -RA OVC010 10/08 A2978 RMK SC8 BR SLP089

CYQF;2007-09-17 09:14;CYQF 170914Z 33003KT 8SM -RA BKN009 OVC030 RMK ST6SC2 CIR RAG BR

CYQF;2007-09-17 10:00;CYQF 171000Z 02003KT 10SM -RA SCT009 BKN025 OVC040 10/08 A2979 RMK SF4SC2SC2 SLP092

CYQF;2007-09-17 11:00;CYQF 171100Z 34007KT 10SM -RA FEW010 OVC030 09/08 A2981 RMK SF2SC6 SLP098

CYQF;2007-09-17 12:00;CYQF 171200Z CCA 35010KT 15SM FEW030 BKN075 09/06 A2981 RMK SC2AC5 SLP099

CYQF;2007-09-17 13:00;CYQF 171300Z 33005KT 15SM BKN090 OVC200 07/05 A2982 RMK AC6CI2 SLP101

CYQF;2007-09-17 14:00;CYQF 171400Z 30007KT 15SM FEW040 BKN080 BKN200 08/05 A2983 RMK SC2AC4CI1 SLP105

CYQF;2007-09-17 15:00;CYQF 171500Z 29005KT 15SM FEW040 SCT080 BKN100 BKN200 08/05 A2985 RMK SC1AC2AC2CI1 SLP121

CYQF;2007-09-17 16:00;CYQF 171600Z 32008KT 15SM FEW030 FEW080 BKN100 BKN220 11/05 A2986 RMK SC1AC2AC2CI1 SLP122

CYQF;2007-09-17 17:00;CYQF 171700Z 33008KT 15SM FEW030 SCT100 SCT220 11/04 A2987 RMK SC1AC2CI1 SLP125

CYQF;2007-09-17 18:00;CYQF 171800Z 32007KT 15SM FEW030 SCT090 12/02 A2987 RMK SC1AC2 SLP129

CYQF;2007-09-17 19:00;CYQF 171900Z 34004KT 15SM FEW040 SCT090 12/00 A2987 RMK SC1AC3 SLP127

CYQF;2007-09-17 20:00;CYQF 172000Z 25002KT 15SM FEW040 SCT090 12/M00 A2986 RMK SC1AC3 SLP125

CYQF;2007-09-17 21:00;CYQF 172100Z 29002KT 15SM FEW045 SCT090 13/M01 A2986 RMK SC1AC3 SLP125

CYQF;2007-09-17 22:00;CYQF 172200Z 13002KT 15SM SCT055 14/M00 A2985 RMK SC4 CU EMBD SLP124

CYQF;2007-09-17 23:00;CYQF 172300Z 00000KT 15SM SCT055 13/M00 A2986 RMK SC4 CU EMBD SLP125

CYQF;2007-09-18 00:00;CYQF 180000Z 00000KT 15SM SCT050 14/01 A2987 RMK CU4 CU EMBD SLP129

CYQF;2007-09-18 01:00;CYQF 180100Z 21002KT 15SM SCT050 BKN090 13/02 A2988 RMK SC3AC2 SLP133

CYQF;2007-09-18 02:00;CYQF 180200Z 00000KT 15SM FEW050 BKN080 11/03 A2989 RMK SC2AC4 SLP137

CYQF;2007-09-18 03:00;CYQF 180300Z 24003KT 15SM FEW050 BKN080 10/05 A2991 RMK SC2AC6 SLP148

CYQF;2007-09-18 04:00;CYQF 180400Z 25003KT 15SM BKN080 OVC150 09/05 A2992 RMK AC6AC2 VIRGA N SLP151

CYQF;2007-09-18 05:00;CYQF 180500Z 24006KT 15SM FEW050 BKN080 OVC150 09/05 A2994 RMK SC1AC6AC2 SLP158

CYQF;2007-09-18 06:00;CYQF 180600Z 23013KT 15SM FEW040 OVC070 09/02 A2995 RMK SC1AC7 SLP158

CYQF;2007-09-18 07:00;CYQF 180700Z 02006KT 15SM OVC060 09/04 A2997 RMK SC8 SLP165

CYQF;2007-09-18 07:38;CYQF 180738Z 00000KT 15SM -RA OVC060 RMK SC8

CYQF;2007-09-18 08:00;CYQF 180800Z 31004KT 15SM -RA OVC060 08/04 A2998 RMK SC8 SLP167

CYQF;2007-09-18 08:09;CYQF 180809Z 00000KT 15SM OVC060 RMK SC8

CYQF;2007-09-18 09:00;CYQF 180900Z 00000KT 15SM SCT060 06/03 A2997 RMK SC3 SLP170

CYQF;2007-09-18 10:00;CYQF 181000Z 00000KT 15SM SCT060 05/03 A2999 RMK SC3 SLP174

CYQF;2007-09-18 11:00;CYQF 181100Z 26005KT 15SM FEW060 BKN200 05/03 A2999 RMK SC2CI3 SLP176

CYQF;2007-09-18 12:00;CYQF 181200Z 28005KT 15SM FEW070 BKN200 05/03 A3000 RMK AC1CI5 SLP179

CYQF;2007-09-18 13:00;CYQF 181300Z 25002KT 15SM BKN070 BKN200 04/02 A3001 RMK AC5CI2 SLP183

CYQF;2007-09-18 14:00;CYQF 181400Z 00000KT 15SM BKN070 04/03 A3003 RMK AC7 VIRGA NW ACC EMBD SLP188

CYQF;2007-09-18 15:00;CYQF 181500Z 00000KT 15SM FEW050 BKN080 05/03 A3004 RMK SC2AC6 SLP196

CYQF;2007-09-18 16:00;CYQF 181600Z 03002KT 15SM FEW050 OVC080 07/03 A3005 RMK SC2AC5 SLP200

CYQF;2007-09-18 17:00;CYQF 181700Z 04003KT 15SM FEW050 BKN080 08/03 A3006 RMK SC2AC5 SLP202

CYQF;2007-09-18 18:00;CYQF 181800Z 01007KT 15SM FEW030 BKN090 10/02 A3007 RMK CU1AC5 SLP202

CYQF;2007-09-18 19:00;CYQF 181900Z 36010KT 15SM FEW030 BKN100 10/02 A3007 RMK CU2AC2 SLP203

CYQF;2007-09-18 20:00;CYQF 182000Z 36008KT 15SM FEW030 BKN100 10/03 A3008 RMK CU2AC3 SLP205

CYQF;2007-09-18 21:00;CYQF 182100Z CCA 03010G15KT 15SM BKN035 BKN100 11/02 A3008 RMK CU5AC2 TCU EMBD SLP208

CYQF;2007-09-18 22:00;CYQF 182200Z 02010KT 15SM SCT035 BKN100 10/02 A3009 RMK CU4AC3 SLP212

CYQF;2007-09-18 23:00;CYQF 182300Z 03010G15KT 15SM SCT035 BKN100 10/03 A3009 RMK CU3AC2 SLP212

CYQF;2007-09-19 00:00;CYQF 190000Z 03010KT 15SM FEW030 SCT100 09/02 A3011 RMK SC2AC2 SLP222

CYQF;2007-09-19 01:00;CYQF 190100Z 02010G15KT 15SM FEW035 SCT100 BKN210 08/02 A3013 RMK CU2AC2CI2 SLP228

CYQF;2007-09-19 02:00;CYQF 190200Z 03008KT 15SM FEW040 BKN100 BKN210 07/01 A3016 RMK SC1AC5CI1 SLP236

CYQF;2007-09-19 03:00;CYQF 190300Z 03009KT 15SM BKN090 OVC210 07/01 A3018 RMK AC6CI2 SLP248

CYQF;2007-09-19 04:00;CYQF 190400Z 03010KT 15SM BKN090 OVC210 06/M00 A3020 RMK AC6CI2 SLP255

CYQF;2007-09-19 05:00;CYQF 190500Z 04012KT 15SM BKN090 05/M01 A3022 RMK AC7 SLP260

CYQF;2007-09-19 06:00;CYQF 190600Z 03008KT 15SM BKN090 09/M02 A3023 RMK AC6 SLP259

CYQF;2007-09-19 07:00;CYQF 190700Z 04008KT 15SM BKN090 04/M02 A3024 RMK AC6 SLP262

CYQF;2007-09-19 08:00;CYQF 190800Z 03006KT 15SM SCT090 03/M03 A3026 RMK AC3 OBS TAKEN +07 SLP268

CYQF;2007-09-19 09:00;CYQF 190900Z 02004KT 15SM BKN090 02/M03 A3028 RMK AC5 SLP281

CYQF;2007-09-19 10:00;CYQF 191000Z 01006KT 15SM SCT090 02/M03 A3028 RMK AC3 SLP281

CYQF;2007-09-19 11:00;CYQF 191100Z 36004KT 15SM SCT090 01/M03 A3029 RMK AC4 SLP284

CYQF;2007-09-19 12:00;CYQF 191200Z 02003KT 15SM FEW090 01/M03 A3028 RMK AC2 SLP286

CYQF;2007-09-19 13:00;CYQF 191300Z 15002KT 15SM SCT090 BKN220 00/M02 A3030 RMK AC4CI2 SLP292

CYQF;2007-09-19 14:00;CYQF 191400Z 00000KT 15SM BKN090 BKN220 01/M02 A3030 RMK AC4CI3 SLP290

CYQF;2007-09-19 15:00;CYQF 191500Z 13003KT 15SM SCT090 BKN220 02/M02 A3029 RMK AC3CI2 SLP290

CYQF;2007-09-19 16:00;CYQF 191600Z 15005KT 15SM FEW040 BKN090 BKN250 03/M02 A3028 RMK SC1AC4CI1 SLP287

CYQF;2007-09-19 17:00;CYQF 191700Z 15006KT 15SM FEW040 FEW090 SCT250 05/M02 A3026 RMK SC1AC2CI1 SLP282

CYQF;2007-09-19 18:00;CYQF 191800Z 14007KT 15SM FEW035 FEW090 07/M02 A3026 RMK CU2AC1 SLP271

CYQF;2007-09-19 19:00;CYQF 191900Z 14010KT 15SM FEW035 SCT250 07/M01 A3023 RMK CU1CI1 SLP262

CYQF;2007-09-19 20:00;CYQF 192000Z 18010G15KT 15SM FEW035 FEW250 09/M00 A3020 RMK CU1CI1 CU TR SLP253

CYQF;2007-09-19 21:00;CYQF 192100Z 17012G18KT 15SM FEW040 SCT250 09/M01 A3017 RMK CU1CI1 SLP248

CYQF;2007-09-19 22:00;CYQF 192200Z 14010G15KT 15SM FEW250 09/M00 A3014 RMK CI1 CI TR SLP237

CYQF;2007-09-19 23:00;CYQF 192300Z 16010G15KT 15SM SKC 09/M00 A3011 RMK SLP228

CYQF;2007-09-20 00:00;CYQF 200000Z 15010G15KT 15SM SKC 09/M00 A3008 RMK SLP216

CYQF;2007-09-20 01:00;CYQF 200100Z 16010G16KT 15SM FEW060 08/M00 A3005 RMK SC1 SLP205

CYQF;2007-09-20 02:00;CYQF 200200Z 16010G15KT 15SM FEW060 06/M00 A3003 RMK SC1 SLP200

CYQF;2007-09-20 03:00;CYQF 200300Z 17010G15KT 15SM SKC 06/M00 A3000 RMK SLP192

CYQF;2007-09-20 04:00;CYQF 200400Z 17010G15KT 15SM SKC 05/00 A2996 RMK SLP179

CYQF;2007-09-20 05:00;CYQF 200500Z 17010G15KT 15SM SKC 04/00 A2992 RMK SLP167

CYQF;2007-09-20 06:00;CYQF 200600Z 18010G16KT 15SM SKC 03/00 A2987 RMK SLP143

CYQF;2007-09-20 07:00;CYQF 200700Z 16010KT 15SM SKC 03/00 A2982 RMK SLP128

CYQF;2007-09-20 08:00;CYQF 200800Z 18008KT 15SM SKC 03/01 A2978 RMK SLP114

CYQF;2007-09-20 09:00;CYQF 200900Z 16006KT 15SM BKN100 03/01 A2974 RMK AC6 SLP096

CYQF;2007-09-20 10:00;CYQF 201000Z 16005KT 15SM SCT100 BKN250 03/01 A2970 RMK AC4CI2 SLP083

CYQF;2007-09-20 11:00;CYQF 201100Z 17004KT 15SM SCT100 BKN250 02/00 A2967 RMK AC3CI2 OBS TAKEN +39 SLP074

CYQF;2007-09-20 12:00;CYQF 201200Z 00000KT 15SM SCT100 BKN250 02/00 A2965 RMK AC3CI2 SLP066

CYQF;2007-09-20 13:00;CYQF 201300Z 00000KT 15SM BKN100 BKN250 03/01 A2964 RMK AC6CI2 SLP063

CYQF;2007-09-20 14:00;CYQF 201400Z 00000KT 15SM BKN100 03/01 A2964 RMK AC7 SLP063

CYQF;2007-09-20 15:00;CYQF 201500Z 18003KT 15SM BKN090 BKN250 04/02 A2965 RMK AC6CI2 SLP067

CYQF;2007-09-20 16:00;CYQF 201600Z 21003KT 15SM BKN090 BKN250 06/03 A2965 RMK AC5CI1 SLP066

CYQF;2007-09-20 17:00;CYQF 201700Z 00000KT 15SM BKN080 OVC250 08/04 A2965 RMK AC6CI1 SLP067

CYQF;2007-09-20 18:00;CYQF 201800Z 00000KT 15SM BKN060 OVC090 09/03 A2965 RMK SC6AC1 SLP062

CYQF;2007-09-20 19:00;CYQF 201900Z 25003KT 15SM BKN050 OVC090 10/04 A2965 RMK SC5AC2 TCU EMBD VIRGA W+S SLP064

CYQF;2007-09-20 20:00;CYQF 202000Z 00000KT 15SM FEW030 BKN050 OVC090 11/04 A2965 RMK CU1SC5AC2 VIRGA SLP062

CYQF;2007-09-20 21:00;CYQF 202100Z 00000KT 15SM FEW030 BKN050 OVC090 12/02 A2964 RMK CU2SC3AC2 SH W-N SLP058

CYQF;2007-09-20 22:00;CYQF 202200Z 03008KT 15SM VCSH FEW030 BKN090 BKN250 12/04 A2964 RMK CU2AC3CI0 SLP057

CYQF;2007-09-20 23:00;CYQF 202300Z 13003KT 15SM VCSH FEW030CB SCT090 BKN250 12/04 A2963 RMK CB2AC2CI0 SLP055

CYQF;2007-09-20 23:39;CYQF 202339Z 33022G30KT 4SM -SHRA BKN030CB BKN090 BKN250 RMK CB5AC2CI1

CYQF;2007-09-21 00:00;CYQF 210000Z 28010G15KT 8SM -SHRA BKN030CB BKN090 BKN250 07/04 A2969 RMK CB6AC1CI1 SLP080

CYQF;2007-09-21 00:22;CYQF 210022Z 26007KT 15SM BKN030CB BKN090 BKN250 RMK CB5AC2CI1 SH E-SW

CYQF;2007-09-21 01:00;CYQF 210100Z 00000KT 15SM VCSH SCT030CB BKN090 07/05 A2968 RMK CB3AC3 SLP077

CYQF;2007-09-21 02:00;CYQF 210200Z 25003KT 15SM VCSH FEW030CB BKN090 06/04 A2969 RMK CB2AC2 SLP081

CYQF;2007-09-21 03:00;CYQF 210300Z 25008KT 15SM FEW050 BKN090 06/03 A2972 RMK SC2AC2 SLP090

CYQF;2007-09-21 04:00;CYQF 210400Z 00000KT 15SM FEW090 BKN250 05/03 A2975 RMK AC2CI1 SLP099

CYQF;2007-09-21 05:00;CYQF 210500Z 00000KT 15SM SCT090 05/03 A2978 RMK AC3 SLP109

CYQF;2007-09-21 05:45;CYQF 210545Z 31012KT 10SM -RA BKN050 RMK SC7

CYQF;2007-09-21 06:00;CYQF 210600Z 30010G16KT 10SM -RA BKN050 07/04 A2981 RMK SC7 SLP115

CYQF;2007-09-21 07:00;CYQF 210700Z 26008KT 15SM -RA BKN060 05/04 A2981 RMK SC6 SLP115

CYQF;2007-09-21 07:40;CYQF 210740Z 28004KT 15SM SCT060 RMK SC4

CYQF;2007-09-21 08:00;CYQF 210800Z 28004KT 15SM SCT080 04/03 A2981 RMK AC3 SLP117

CYQF;2007-09-21 09:00;CYQF 210900Z 23005KT 15SM SCT080 04/03 A2981 RMK AC4 SLP114

CYQF;2007-09-21 10:00;CYQF 211000Z 22007KT 15SM SCT080 04/03 A2981 RMK AC4 SLP115

CYQF;2007-09-21 11:00;CYQF 211100Z 25008KT 15SM SCT080 03/02 A2980 RMK AC3 SLP113

CYQF;2007-09-21 12:00;CYQF 211200Z 21005KT 15SM FEW080 02/01 A2980 RMK AC2 SLP120

CYQF;2007-09-21 13:00;CYQF 211300Z 20006KT 15SM FEW080 SCT220 02/01 A2980 RMK AC2CI0 SLP119

CYQF;2007-09-21 14:00;CYQF 211400Z 20002KT 15SM FEW080 FEW220 02/00 A2979 RMK AC1CI1 SLP116

CYQF;2007-09-21 15:00;CYQF 211500Z 18002KT 15SM FEW100 FEW250 04/02 A2977 RMK AC1CI1 SLP109

CYQF;2007-09-21 16:00;CYQF 211600Z 17010KT 15SM FEW100 SCT250 09/04 A2976 RMK AC1CI2 SLP104

CYQF;2007-09-21 17:00;CYQF 211700Z 15010KT 15SM BKN100 BKN250 10/04 A2973 RMK AC3CI1 SLP096

CYQF;2007-09-21 18:00;CYQF 211800Z 18005KT 15SM FEW100 BKN250 12/05 A2972 RMK AC1CS4 HALO SLP083

CYQF;2007-09-21 19:00;CYQF 211900Z 16006KT 15SM BKN120 OVC250 13/05 A2970 RMK AC6CI2 SLP075

CYQF;2007-09-21 20:00;CYQF 212000Z 21008KT 15SM SCT120 OVC250 15/04 A2967 RMK AC3CS5 HAO SLP067

CYQF;2007-09-21 21:00;CYQF 212100Z 18008KT 15SM FEW120 OVC250 16/03 A2964 RMK AC1CI6 SLP052

CYQF;2007-09-21 22:00;CYQF 212200Z 18010KT 15SM FEW120 OVC250 17/03 A2961 RMK AC2CI4 SLP043

CYQF;2007-09-21 23:00;CYQF 212300Z 21006KT 15SM FEW150 OVC250 17/04 A2960 RMK AC2CI3 SLP040

CYQF;2007-09-22 00:00;CYQF 220000Z 17006KT 15SM FEW050 BKN150 OVC250 16/04 A2959 RMK CU1AC4CI2 SLP037

CYQF;2007-09-22 01:00;CYQF 220100Z 16006KT 15SM FEW050 BKN150 OVC250 14/05 A2958 RMK SC1AC6CI2 SLP034

CYQF;2007-09-22 02:00;CYQF 220200Z 15003KT 15SM FEW050 BKN120 13/05 A2957 RMK SC1AC6 SLP031

CYQF;2007-09-22 03:00;CYQF 220300Z 00000KT 15SM BKN120 13/05 A2957 RMK AC7 SLP032

CYQF;2007-09-22 04:00;CYQF 220400Z 00000KT 15SM BKN120 10/06 A2957 RMK AC7 SLP034

CYQF;2007-09-22 05:00;CYQF 220500Z 00000KT 15SM BKN120 09/06 A2958 RMK AC7 SLP035

CYQF;2007-09-22 06:00;CYQF 220600Z 22003KT 15SM BKN120 BKN250 08/05 A2958 RMK AC5CI1 SLP031

CYQF;2007-09-22 07:00;CYQF 220700Z 19002KT 15SM SCT120 08/03 A2958 RMK AC3 SLP033

CYQF;2007-09-22 08:00;CYQF 220800Z 28003KT 15SM FEW120 06/02 A2957 RMK AC2 SLP028

CYQF;2007-09-22 09:00;CYQF 220900Z 19006KT 15SM FEW100 03/01 A2957 RMK AC2 SLP029

CYQF;2007-09-22 10:00;CYQF 221000Z 27004KT 15SM FEW100 03/M00 A2958 RMK AC2 SLP032

CYQF;2007-09-22 11:00;CYQF 221100Z 30004KT 15SM FEW100 02/M00 A2960 RMK AC2 SLP038

CYQF;2007-09-22 12:00;CYQF 221200Z 06003KT 15SM FEW100 03/00 A2959 RMK AC2 SLP036

CYQF;2007-09-22 13:00;CYQF 221300Z 00000KT 15SM FEW060 00/M03 A2960 RMK SC2 SLP039

CYQF;2007-09-22 14:00;CYQF 221400Z 00000KT 15SM FEW060 03/01 A2960 RMK SC2 VIRGA SLP041

CYQF;2007-09-22 15:00;CYQF 221500Z 00000KT 15SM BKN090 04/03 A2962 RMK AC6 SLP048

CYQF;2007-09-22 16:00;CYQF 221600Z 31008KT 15SM BKN090 06/03 A2965 RMK AC7 SLP057

CYQF;2007-09-22 17:00;CYQF 221700Z 32012KT 15SM BKN090 BKN250 10/05 A2966 RMK AC6CI1 SLP062

CYQF;2007-09-22 18:00;CYQF 221800Z 33006KT 15SM FEW025 SCT090 BKN250 10/04 A2968 RMK CU1AC2CI0 SLP067

CYQF;2007-09-22 19:00;CYQF 221900Z 34003KT 15SM SCT030 BKN150 11/03 A2968 RMK CU3AC1 SLP069

CYQF;2007-09-22 20:00;CYQF 222000Z 33005KT 15SM BKN030 BKN120 11/04 A2969 RMK CU5AC1 SLP070

CYQF;2007-09-22 21:00;CYQF 222100Z 32008KT 15SM BKN030 BKN250 12/04 A2969 RMK CU5CI1 SLP076

CYQF;2007-09-22 22:00;CYQF 222200Z 27003KT 15SM SCT030 BKN250 12/03 A2970 RMK CU4CI1 SLP080

CYQF;2007-09-22 23:00;CYQF 222300Z 34005KT 15SM SCT030 BKN120 12/03 A2972 RMK CU3AC2 SLP085

CYQF;2007-09-23 00:00;CYQF 230000Z 32010KT 15SM SCT035 SCT250 11/03 A2974 RMK CU3CI0 SLP094

CYQF;2007-09-23 01:00;CYQF 230100Z 34008KT 15SM FEW040 SCT120 BKN250 08/03 A2976 RMK CU2AC2CI1 SLP100

CYQF;2007-09-23 02:00;CYQF 230200Z 31005KT 15SM FEW040 BKN120 BKN250 08/03 A2978 RMK CU2AC2CI1 SLP107

CYQF;2007-09-23 03:00;CYQF 230300Z 00000KT 15SM FEW040 BKN075 07/03 A2982 RMK SC2AC4 SLP124

CYQF;2007-09-23 04:00;CYQF 230400Z 00000KT 15SM BKN080 07/02 A2985 RMK AC6 SLP133

CYQF;2007-09-23 05:00;CYQF 230500Z 00000KT 15SM FEW030 BKN080 07/02 A2985 RMK SC1AC4 SLP135

CYQF;2007-09-23 06:00;CYQF 230600Z 35006KT 15SM FEW030 BKN080 07/03 A2987 RMK SC1AC4 SLP136

CYQF;2007-09-23 07:00;CYQF 230700Z 00000KT 15SM OVC080 05/02 A2988 RMK AC8 SLP139

CYQF;2007-09-23 08:00;CYQF 230800Z 36004KT 15SM OVC080 06/03 A2989 RMK AC8 SLP141

CYQF;2007-09-23 09:00;CYQF 230900Z 35005KT 15SM BKN080 05/02 A2991 RMK AC6 SLP148

CYQF;2007-09-23 10:00;CYQF 231000Z 34004KT 15SM OVC016 05/02 A2994 RMK SC8 SLP157

CYQF;2007-09-23 11:00;CYQF 231100Z 36007KT 15SM OVC020 05/02 A2995 RMK SC8 SLP160

CYQF;2007-09-23 12:00;CYQF 231200Z 02005KT 15SM FEW018 OVC035 05/02 A2996 RMK SC2SC6 SLP168

CYQF;2007-09-23 13:00;CYQF 231300Z 36006KT 15SM FEW018 BKN035 05/02 A2997 RMK SC1SC6 SLP172

CYQF;2007-09-23 13:44;CYQF 231344Z 35008KT 15SM FEW008 BKN015 OVC040 RMK SF1SC6SC1

CYQF;2007-09-23 14:00;CYQF 231400Z 35007KT 15SM FEW008 OVC015 04/02 A2999 RMK SF1SC6 SLP178

CYQF;2007-09-23 15:00;CYQF 231500Z 01005KT 15SM FEW010 OVC018 05/02 A3000 RMK SF1SC7 SLP187

CYQF;2007-09-23 16:00;CYQF 231600Z 36005KT 15SM BKN018 OVC220 05/02 A3001 RMK SC7CI1 SLP190

CYQF;2007-09-23 17:00;CYQF 231700Z 36009KT 15SM BKN020 BKN220 05/01 A3002 RMK SC6CI1 SLP192

CYQF;2007-09-23 18:00;CYQF 231800Z 36010KT 15SM BKN020 05/01 A3003 RMK SC7 SLP196

CYQF;2007-09-23 19:00;CYQF 231900Z 34008KT 15SM BKN020 06/01 A3002 RMK SC7 SLP193

CYQF;2007-09-23 20:00;CYQF 232000Z 34008KT 15SM BKN025 BKN250 06/01 A3003 RMK SC6CI0 SLP196

CYQF;2007-09-23 21:00;CYQF 232100Z 36010KT 15SM BKN035 BKN250 07/00 A3004 RMK SC6CI0 SLP198

CYQF;2007-09-23 22:00;CYQF 232200Z 04007KT 15SM FEW030 BKN250 07/00 A3005 RMK SC2CI2 SLP202

CYQF;2007-09-23 23:00;CYQF 232300Z 03010KT 15SM FEW030 BKN250 07/M00 A3007 RMK SC2CI2 SLP208

CYQF;2007-09-24 00:00;CYQF 240000Z 02006KT 15SM FEW030 SCT250 07/M00 A3008 RMK SC1CI2 SLP216

CYQF;2007-09-24 01:00;CYQF 240100Z 04004KT 15SM FEW250 06/M01 A3009 RMK CI1 SLP217

CYQF;2007-09-24 02:00;CYQF 240200Z 06004KT 15SM FEW250 04/M01 A3009 RMK CI1 SLP218

CYQF;2007-09-24 03:00;CYQF 240300Z 00000KT 15SM FEW250 03/M01 A3009 RMK CI0 SLP224

CYQF;2007-09-24 04:00;CYQF 240400Z 00000KT 15SM SKC 01/M01 A3010 RMK SLP226

CYQF;2007-09-24 05:00;CYQF 240500Z 00000KT 15SM SKC M00/M02 A3011 RMK SLP229

CYQF;2007-09-24 06:00;CYQF 240600Z 00000KT 15SM SKC M00/M02 A3011 RMK SLP234

CYQF;2007-09-24 07:00;CYQF 240700Z 00000KT 15SM SKC M02/M03 A3012 RMK SLP235

CYQF;2007-09-24 08:00;CYQF 240800Z 18002KT 15SM SKC M02/M04 A3012 RMK SLP235

CYQF;2007-09-24 09:00;CYQF 240900Z 18002KT 15SM SKC M02/M04 A3012 RMK SLP235

CYQF;2007-09-24 10:00;CYQF 241000Z 22002KT 15SM SKC M03/M04 A3013 RMK SLP238

CYQF;2007-09-24 11:00;CYQF 241100Z 00000KT 15SM SKC M03/M05 A3012 RMK SLP236

CYQF;2007-09-24 12:00;CYQF 241200Z 00000KT 15SM SKC M02/M04 A3012 RMK SLP235

CYQF;2007-09-24 13:00;CYQF 241300Z 17004KT 10SM SKC M03/M04 A3011 RMK BR SLP234

CYQF;2007-09-24 14:00;CYQF 241400Z 20003KT 15SM FEW090 M03/M04 A3010 RMK AC1 SLP229

CYQF;2007-09-24 15:00;CYQF 241500Z 00000KT 15SM SKC M00/M02 A3008 RMK SLP226

CYQF;2007-09-24 16:00;CYQF 241600Z 18003KT 15SM FEW250 03/00 A3007 RMK CI1 SLP223

CYQF;2007-09-24 17:00;CYQF 241700Z 18007KT 15SM FEW250 07/03 A3006 RMK CI1 SLP219

CYQF;2007-09-24 18:00;CYQF 241800Z 15004KT 15SM FEW250 10/03 A3004 RMK CI1 SLP201

CYQF;2007-09-24 19:00;CYQF 241900Z 14005KT 15SM SCT250 12/01 A3001 RMK CI0 SLP194

CYQF;2007-09-24 20:00;CYQF 242000Z 18005KT 15SM SCT250 13/01 A2999 RMK CI1 SLP187

CYQF;2007-09-24 21:00;CYQF 242100Z 19003KT 15SM SCT250 14/M01 A2997 RMK CI2 SLP177

CYQF;2007-09-24 22:00;CYQF 242200Z 20004KT 15SM SCT250 15/M02 A2995 RMK CI2 SLP170

CYQF;2007-09-24 23:00;CYQF 242300Z 24005KT 15SM SCT250 14/M01 A2994 RMK CI1 SLP166

CYQF;2007-09-25 00:00;CYQF 250000Z 16005KT 15SM SCT250 14/M01 A2992 RMK CI1 SLP157

CYQF;2007-09-25 01:00;CYQF 250100Z 16003KT 15SM FEW080 SCT250 13/M01 A2990 RMK AC1CI1 SLP152

CYQF;2007-09-25 02:00;CYQF 250200Z 00000KT 15SM FEW080 SCT250 09/M01 A2989 RMK AC1CI1 SLP149

CYQF;2007-09-25 03:00;CYQF 250300Z 00000KT 15SM SCT250 07/M01 A2988 RMK CI1 SLP151

CYQF;2007-09-25 04:00;CYQF 250400Z 00000KT 15SM FEW250 06/M01 A2987 RMK CI0 SLP148

CYQF;2007-09-25 05:00;CYQF 250500Z 21004KT 15SM FEW250 04/M01 A2987 RMK CI1 SLP147

CYQF;2007-09-25 06:00;CYQF 250600Z 00000KT 15SM FEW250 04/M01 A2987 RMK CI1 SLP137

CYQF;2007-09-25 07:00;CYQF 250700Z 22005KT 15SM FEW250 02/M01 A2986 RMK CI1 SLP135

CYQF;2007-09-25 08:00;CYQF 250800Z 24006KT 15SM SCT150 02/M01 A2986 RMK AC2 SLP134

CYQF;2007-09-25 09:00;CYQF 250900Z 24006KT 15SM BKN120 03/M00 A2986 RMK AC6 SLP134

CYQF;2007-09-25 10:00;CYQF 251000Z 00000KT 15SM BKN100 05/01 A2985 RMK AC6 OBS TAKEN +7 SLP131

CYQF;2007-09-25 11:00;CYQF 251100Z 18004KT 15SM BKN080 04/01 A2985 RMK AC6 SLP129

CYQF;2007-09-25 12:00;CYQF 251200Z 18003KT 15SM BKN080 04/01 A2984 RMK AC6 SLP124

CYQF;2007-09-25 13:00;CYQF 251300Z 19003KT 15SM BKN080 03/00 A2983 RMK AC6 SLP119

CYQF;2007-09-25 14:00;CYQF 251400Z 00000KT 15SM FEW030 BKN080 05/01 A2983 RMK SC1AC6 SLP119

CYQF;2007-09-25 15:00;CYQF 251500Z 00000KT 15SM FEW030 BKN070 06/02 A2984 RMK SC1AC6 VIRGA ALQDS SLP128

CYQF;2007-09-25 16:00;CYQF 251600Z 00000KT 15SM BKN030 BKN070 08/04 A2985 RMK SC5AC2 VIRGA ALQDS SLP133

CYQF;2007-09-25 16:26;CYQF 251626Z 32003KT 15SM -SHRA BKN030 BKN070 RMK SC5AC2

CYQF;2007-09-25 17:00;CYQF 251700Z 01013KT 15SM -SHRA SCT030 BKN070 09/03 A2988 RMK SC4AC3 SLP143

CYQF;2007-09-25 17:15;CYQF 251715Z 02010KT 15SM SCT030 BKN080 RMK SC3AC3

CYQF;2007-09-25 18:00;CYQF 251800Z 05006KT 15SM FEW030 BKN080 10/05 A2988 RMK SC2AC5 SLP142

CYQF;2007-09-25 19:00;CYQF 251900Z 05003KT 15SM FEW030 BKN080 BKN250 11/05 A2989 RMK CU2AC3CI1 TCU ASOCTD SLP144

CYQF;2007-09-25 20:00;CYQF 252000Z 34010KT 15SM BKN040 BKN090 BKN250 13/03 A2990 RMK CU5AC2CI1 TCU ASOCTD SLP147

CYQF;2007-09-25 21:00;CYQF 252100Z 30010KT 15SM FEW040 FEW090 BKN250 14/04 A2988 RMK CU2AC1CI2 SLP139

CYQF;2007-09-25 22:00;CYQF 252200Z 26007KT 15SM FEW040 FEW090 SCT250 14/02 A2987 RMK CU2AC1CI0 CB TOP W SLP136

CYQF;2007-09-25 23:00;CYQF 252300Z 27015G20KT 15SM VCSH SCT040CB BKN090 BKN250 11/04 A2989 RMK CB3AC1CI1 SLP142

CYQF;2007-09-26 00:00;CYQF 260000Z 26010G15KT 15SM VCSH SCT040CB SCT090 BKN250 09/03 A2989 RMK CB3AC1CI1 SLP148

CYQF;2007-09-26 01:00;CYQF 260100Z 24010KT 15SM FEW040 FEW090 09/04 A2989 RMK CU1AC1 CB TOP S SLP148

CYQF;2007-09-26 02:00;CYQF 260200Z 23010KT 15SM FEW040 FEW250 06/03 A2990 RMK SC1CI0 SLP150

CYQF;2007-09-26 03:00;CYQF 260300Z 23008KT 15SM FEW040 FEW250 06/02 A2989 RMK SC1CI0 SLP149

CYQF;2007-09-26 04:00;CYQF 260400Z 22010KT 15SM FEW040 FEW090 FEW250 04/01 A2989 RMK SC1AC1CI0 SLP148

CYQF;2007-09-26 05:00;CYQF 260500Z 24008KT 15SM SCT080 BKN250 05/02 A2988 RMK AC3CI1 SLP146

CYQF;2007-09-26 06:00;CYQF 260600Z 24007KT 15SM SCT080 03/01 A2988 RMK AC3 SLP143

CYQF;2007-09-26 07:00;CYQF 260700Z 22005KT 15SM FEW250 02/00 A2987 RMK CI1 SLP139

CYQF;2007-09-26 08:00;CYQF 260800Z 00000KT 15SM SCT250 02/M01 A2984 RMK CI2 SLP130

CYQF;2007-09-26 09:00;CYQF 260900Z 20005KT 15SM SCT250 01/M01 A2984 RMK CI2 SLP126

CYQF;2007-09-26 10:00;CYQF 261000Z 21005KT 15SM BKN090 BKN250 01/M01 A2982 RMK AC6CI1 SLP122

CYQF;2007-09-26 11:00;CYQF 261100Z 22003KT 15SM SCT090 BKN250 03/00 A2981 RMK AC4CI1 SLP118

CYQF;2007-09-26 12:00;CYQF 261200Z 20002KT 15SM SCT090 BKN250 03/00 A2980 RMK AC4CI1 SLP118

CYQF;2007-09-26 13:00;CYQF 261300Z 11002KT 15SM SCT090 BKN250 02/M01 A2979 RMK AC3CI0 SLP115

CYQF;2007-09-26 14:00;CYQF 261400Z 00000KT 15SM BKN080 BKN220 03/00 A2981 RMK AC5CI1 SLP119

CYQF;2007-09-26 15:00;CYQF 261500Z 00000KT 15SM BKN080 BKN250 05/02 A2982 RMK AC6CI1 SLP125

CYQF;2007-09-26 16:00;CYQF 261600Z 21005KT 15SM FEW060 BKN080 07/03 A2984 RMK SC1AC6 VIRGA SLP132

CYQF;2007-09-26 16:36;CYQF 261636Z 25003KT 15SM -DZ FEW040 BKN060 RMK CU1SC6

CYQF;2007-09-26 17:00;CYQF 261700Z 12003KT 15SM -SHRA FEW030 BKN050 08/04 A2986 RMK CU2SC4 SLP137

CYQF;2007-09-26 17:32;CYQF 261732Z 00000KT 15SM FEW030 SCT060 RMK CU2SC2 VIRGA

CYQF;2007-09-26 18:00;CYQF 261800Z 00000KT 15SM FEW020 BKN050 11/05 A2985 RMK CF1CU5 VIRGA SLP130

CYQF;2007-09-26 18:31;CYQF 261831Z 00000KT 15SM -SHRA FEW020 BKN050 RMK CF1CU6

CYQF;2007-09-26 18:52;CYQF 261852Z 08002KT 15SM FEW020 SCT050 BKN250 RMK CF1CU3CI0 TCU ASOCTD

CYQF;2007-09-26 19:00;CYQF 261900Z 08002KT 15SM FEW020 SCT050 BKN250 13/07 A2984 RMK CF1CU2CI0 TCU ASOCTD SLP128

CYQF;2007-09-26 20:00;CYQF 262000Z 00000KT 15SM SCT035TCU BKN090 BKN250 13/05 A2985 RMK TCU3AC2CI1 VIRGA CB ASCOTD SLP133

CYQF;2007-09-26 20:26;CYQF 262026Z CCA 35017G30KT 15SM -SHRA BKN035CB BKN090 BKN250 RMK CB5AC1CI0 LTG W

CYQF;2007-09-26 20:37;CYQF 262037Z 34010G15KT 15SM -TSRA BKN030CB BKN090 RMK CB6AC1

CYQF;2007-09-26 21:00;CYQF 262100Z 32008KT 15SM VCSH BKN030CB BKN090 08/05 A2992 RMK CB6AC1 RETS SLP163

CYQF;2007-09-26 21:05;CYQF 262105Z 27010KT 10SM -SHRA BKN030CB BKN090 RMK CB6AC1

CYQF;2007-09-26 21:32;CYQF 262132Z 24005KT 15SM VCSH BKN030CB BKN250 RMK CB5CI1

CYQF;2007-09-26 22:00;CYQF 262200Z 00000KT 15SM FEW030CB 10/06 A2992 RMK CB2 SLP161

CYQF;2007-09-26 23:00;CYQF 262300Z 36005KT 15SM FEW030TCU 12/05 A2993 RMK TCU1 SLP166

CYQF;2007-09-27 00:00;CYQF 270000Z 32008KT 15SM FEW030 13/02 A2995 RMK SC1 SLP166

CYQF;2007-09-27 01:00;CYQF 270100Z 34006KT 15SM SKC 09/00 A2997 RMK SLP172

CYQF;2007-09-27 02:00;CYQF 270200Z 31003KT 15SM SKC 06/M01 A3000 RMK SLP180

CYQF;2007-09-27 03:00;CYQF 270300Z 00000KT 15SM SKC 05/M02 A3002 RMK SLP196

CYQF;2007-09-27 04:00;CYQF 270400Z 18003KT 15SM SKC 03/M00 A3005 RMK SLP205

CYQF;2007-09-27 05:00;CYQF 270500Z 22005KT 15SM SKC 02/M01 A3006 RMK SLP209

CYQF;2007-09-27 06:00;CYQF 270600Z 18003KT 15SM SKC 01/M01 A3007 RMK SLP210

CYQF;2007-09-27 07:00;CYQF 270700Z 18004KT 15SM FEW250 01/M01 A3006 RMK CI0 SLP207

CYQF;2007-09-27 08:00;CYQF 270800Z 18004KT 15SM SCT250 M00/M02 A3006 RMK CI0 SLP206

CYQF;2007-09-27 09:00;CYQF 270900Z 17004KT 15SM SCT250 01/M01 A3004 RMK CI0 SLP203

CYQF;2007-09-27 10:00;CYQF 271000Z 18003KT 15SM BKN250 01/M01 A3002 RMK CI0 SLP196

CYQF;2007-09-27 11:00;CYQF 271100Z 17003KT 15SM BKN250 02/M00 A2999 RMK CI1 SLP189

CYQF;2007-09-27 12:00;CYQF 271200Z 00000KT 15SM BKN250 02/M00 A2998 RMK CI2 SLP176

CYQF;2007-09-27 13:00;CYQF 271300Z 00000KT 15SM FEW120 BKN250 02/M00 A2994 RMK AC2CI2 SLP164

CYQF;2007-09-27 14:00;CYQF 271400Z 17008KT 15SM FEW120 BKN250 02/M01 A2989 RMK AC2CI2 SLP148

CYQF;2007-09-27 15:00;CYQF 271500Z 17008KT 15SM FEW250 04/01 A2988 RMK CI1 SLP147

CYQF;2007-09-27 16:00;CYQF 271600Z 16010KT 15SM BKN250 06/02 A2984 RMK CI1 SLP134

CYQF;2007-09-27 17:00;CYQF 271700Z 17010KT 15SM FEW100 BKN250 09/03 A2979 RMK AC1CI2 SLP120

CYQF;2007-09-27 18:00;CYQF 271800Z 17010KT 15SM FEW100 BKN250 11/04 A2976 RMK AC1CI2 SLP102

CYQF;2007-09-27 19:00;CYQF 271900Z 17010KT 15SM FEW030 FEW100 BKN250 12/05 A2973 RMK CU1AC2CI2 SLP093

CYQF;2007-09-27 20:00;CYQF 272000Z 17010G15KT 15SM FEW030 BKN100 BKN250 13/05 A2969 RMK CU1AC3CI2 SLP081

CYQF;2007-09-27 21:00;CYQF 272100Z 16010G15KT 15SM FEW030 BKN100 BKN250 15/04 A2965 RMK CU1AC2CI2 SLP061

CYQF;2007-09-27 22:00;CYQF 272200Z 15010G17KT 15SM FEW040 SCT090 BKN250 16/05 A2962 RMK CU1AC3CI2 SLP052

CYQF;2007-09-27 23:00;CYQF 272300Z 14010KT 15SM FEW040 SCT090 BKN250 16/05 A2960 RMK CU1AC2CI3 SLP046

CYQF;2007-09-28 00:00;CYQF 280000Z 15008KT 15SM FEW040 SCT090 BKN250 15/05 A2958 RMK CU1AC2CI3 SLP034

CYQF;2007-09-28 01:00;CYQF 280100Z 15012KT 15SM FEW040 FEW100 BKN250 14/05 A2955 RMK CU1AC2CI3 TR CU SLP026

CYQF;2007-09-28 02:00;CYQF 280200Z 15010KT 15SM SCT100 BKN250 12/05 A2954 RMK AC3CI2 SLP022

CYQF;2007-09-28 03:00;CYQF 280300Z 13005KT 15SM FEW100 BKN250 10/05 A2952 RMK AC2CI2 SLP019

CYQF;2007-09-28 04:00;CYQF 280400Z 18005KT 15SM FEW100 BKN250 09/04 A2950 RMK AC2CI2 SLP013

CYQF;2007-09-28 05:00;CYQF 280500Z 00000KT 15SM BKN100 OVC250 09/03 A2950 RMK AC5CI2 SLP012

CYQF;2007-09-28 06:00;CYQF 280600Z 00000KT 15SM BKN120 OVC250 08/03 A2950 RMK AC6CI2 SLP003

CYQF;2007-09-28 07:00;CYQF 280700Z 18005KT 15SM SCT120 OVC250 08/03 A2948 RMK AC3CI3 SLP997

CYQF;2007-09-28 08:00;CYQF 280800Z 18005KT 15SM BKN120 OVC250 06/03 A2946 RMK AC5CI2 SLP993

CYQF;2007-09-28 09:00;CYQF 280900Z 36008KT 15SM SCT120 OVC250 09/03 A2947 RMK AC3CI3 SLP989

CYQF;2007-09-28 10:00;CYQF 281000Z 35005KT 15SM FEW120 BKN250 06/02 A2948 RMK AC2CI2 SLP992

CYQF;2007-09-28 11:00;CYQF 281100Z 29006KT 15SM FEW120 BKN250 05/02 A2950 RMK AC1CI2 SLP999

CYQF;2007-09-28 12:00;CYQF 281200Z 30002KT 15SM FEW120 BKN250 04/02 A2952 RMK AC1CI2 SLP010

CYQF;2007-09-28 13:00;CYQF 281300Z 00000KT 15SM BKN120 BKN250 05/02 A2953 RMK AC5CI2 SLP014

CYQF;2007-09-28 14:00;CYQF 281400Z 34002KT 15SM FEW090 BKN120 BKN250 04/02 A2952 RMK AC2AC3CI2 SLP011

CYQF;2007-09-28 15:00;CYQF 281500Z 33008KT 15SM FEW080 BKN120 OVC250 06/04 A2953 RMK AC2AC3CI2 SLP018

CYQF;2007-09-28 16:00;CYQF 281600Z 34010KT 15SM FEW080 BKN100 BKN250 07/03 A2953 RMK AC2AC2CI2 SLP018

CYQF;2007-09-28 17:00;CYQF 281700Z 33006KT 15SM SCT020 BKN090 07/04 A2953 RMK SC3AC4 SLP017

CYQF;2007-09-28 17:42;CYQF 281742Z 33007KT 15SM BKN012 BKN080 RMK SC6AC1

CYQF;2007-09-28 18:00;CYQF 281800Z 35007KT 15SM BKN011 OVC080 07/04 A2953 RMK SC7AC1 SLP018

CYQF;2007-09-28 19:00;CYQF 281900Z 35007KT 15SM OVC013 08/04 A2951 RMK SC8 SLP014

CYQF;2007-09-28 20:00;CYQF 282000Z 32010KT 15SM OVC017 08/04 A2952 RMK SC8 SLP016

CYQF;2007-09-28 21:00;CYQF 282100Z 36008KT 15SM OVC018 09/04 A2952 RMK SC8 SLP015

CYQF;2007-09-28 22:00;CYQF 282200Z 34012G18KT 15SM OVC018 09/03 A2952 RMK SC8 SLP015

CYQF;2007-09-28 23:00;CYQF 282300Z 33015KT 15SM OVC020 07/02 A2955 RMK SC8 SLP023

CYQF;2007-09-29 00:00;CYQF 290000Z 33010G15KT 15SM FEW015 OVC020 06/02 A2957 RMK SF2SC6 SLP040

CYQF;2007-09-29 01:00;CYQF 290100Z CCA 34010G15KT 15SM FEW015 OVC020 05/01 A2959 RMK SF2SC6 SLP046

CYQF;2007-09-29 01:22;CYQF 290122Z 33010G15KT 15SM BKN014 OVC020 RMK SF6SC2

CYQF;2007-09-29 02:00;CYQF 290200Z 34010G15KT 15SM -SHRA BKN008 OVC015 04/02 A2962 RMK SF6SC2 SLP054

CYQF;2007-09-29 02:37;CYQF 290237Z 33010G15KT 10SM -SHRA SCT008 OVC028 RMK SF4SC4

CYQF;2007-09-29 03:00;CYQF 290300Z 34010G15KT 8SM -SHRA SCT008 SCT014 OVC026 03/02 A2964 RMK SF3SC1SC4 SLP063

CYQF;2007-09-29 03:43;CYQF 290343Z 33010G15KT 5SM -SHRA BR OVC009 RMK ST8

CYQF;2007-09-29 04:00;CYQF 290400Z 33010KT 5SM -SHRA BR BKN006 OVC020 03/01 A2967 RMK ST6SC2 SLP073

CYQF;2007-09-29 04:14;CYQF 290414Z 33010KT 10SM -SHRA FEW007 FEW020 OVC040 RMK SF2SC1SC6

CYQF;2007-09-29 05:00;CYQF 290500Z 33010KT 15SM -SHRA OVC045 03/02 A2967 RMK SC8 SLP075

CYQF;2007-09-29 06:00;CYQF 290600Z 33010KT 15SM OVC050 03/01 A2970 RMK SC8 SLP084

CYQF;2007-09-29 07:00;CYQF 290700Z 29005KT 15SM OVC050 03/01 A2970 RMK SC8 SLP083

CYQF;2007-09-29 08:00;CYQF 290800Z 30010KT 15SM OVC050 03/01 A2970 RMK SC8 SLP085

CYQF;2007-09-29 09:00;CYQF 290900Z 30008KT 15SM OVC060 03/01 A2972 RMK SC8 SLP090

CYQF;2007-09-29 10:00;CYQF 291000Z 33010KT 15SM OVC060 03/01 A2974 RMK SC8 SLP094

CYQF;2007-09-29 11:00;CYQF 291100Z 33007KT 15SM OVC060 03/M00 A2977 RMK SC8 SLP104

CYQF;2007-09-29 12:00;CYQF 291200Z 31004KT 15SM BKN070 02/M01 A2978 RMK AC5 SLP114

CYQF;2007-09-29 13:00;CYQF 291300Z 31004KT 15SM BKN070 01/M01 A2979 RMK AC4 SLP118

CYQF;2007-09-29 14:00;CYQF 291400Z 29004KT 15SM FEW080 BKN250 M00/M02 A2982 RMK AC2CI2 SLP126

CYQF;2007-09-29 15:00;CYQF 291500Z 00000KT 15SM FEW080 BKN250 01/M00 A2984 RMK AC1CI2 SLP137

CYQF;2007-09-29 16:00;CYQF 291600Z 00000KT 15SM SCT250 03/01 A2984 RMK CI2 SLP137

CYQF;2007-09-29 17:00;CYQF 291700Z 00000KT 15SM FEW080 06/M01 A2984 RMK AC1 SLP139

CYQF;2007-09-29 18:00;CYQF 291800Z 19003KT 15SM FEW030 07/M01 A2984 RMK CU2 SLP133

CYQF;2007-09-29 19:00;CYQF 291900Z 27003KT 15SM FEW035 08/M01 A2984 RMK CU2 SLP132

CYQF;2007-09-29 20:00;CYQF 292000Z 21004KT 15SM FEW040 09/M02 A2984 RMK CU2 SLP131

CYQF;2007-09-29 21:00;CYQF 292100Z 19010KT 15SM FEW040 10/03 A2983 RMK CU2 SLP126

CYQF;2007-09-29 22:00;CYQF 292200Z 19007KT 15SM FEW040 10/M02 A2981 RMK CU2 SLP120

CYQF;2007-09-29 23:00;CYQF 292300Z 18008KT 15SM FEW035 FEW250 10/M02 A2981 RMK CU1CI1 SLP119

CYQF;2007-09-30 00:00;CYQF 300000Z 18007KT 15SM FEW250 10/M02 A2980 RMK CI1 SLP118

CYQF;2007-09-30 01:00;CYQF 300100Z 15005KT 15SM SCT250 08/M02 A2980 RMK CI2 SLP116

CYQF;2007-09-30 02:00;CYQF 300200Z 15006KT 15SM SCT250 05/M02 A2980 RMK CI2 SLP118

CYQF;2007-09-30 03:00;CYQF 300300Z 15008KT 15SM FEW050 BKN250 04/M03 A2979 RMK SC2CI2 SLP121

CYQF;2007-09-30 04:00;CYQF 300400Z 17008KT 15SM FEW050 BKN250 03/M02 A2979 RMK SC2CI3 SLP120

CYQF;2007-09-30 05:00;CYQF 300500Z 17007KT 15SM FEW050 SCT250 03/M03 A2978 RMK SC1CI2 SLP119

CYQF;2007-09-30 06:00;CYQF 300600Z 18007KT 15SM FEW250 03/M02 A2978 RMK CI2 SLP111

CYQF;2007-09-30 07:00;CYQF 300700Z 17006KT 15SM SKC 02/M02 A2976 RMK SLP105

CYQF;2007-09-30 08:00;CYQF 300800Z 18006KT 15SM SKC 01/M02 A2977 RMK SLP109

CYQF;2007-09-30 09:00;CYQF 300900Z 16003KT 15SM SKC M00/M03 A2976 RMK SLP107

CYQF;2007-09-30 10:00;CYQF 301000Z 17004KT 15SM FEW250 M01/M03 A2976 RMK CI0 SLP106

CYQF;2007-09-30 11:00;CYQF 301100Z 19002KT 15SM SKC M02/M04 A2976 RMK SLP107

CYQF;2007-09-30 12:00;CYQF 301200Z 19002KT 15SM FEW250 M03/M06 A2976 RMK CI0 SLP111

CYQF;2007-09-30 13:00;CYQF 301300Z 00000KT 15SM FEW120 FEW250 M03/M05 A2976 RMK AC1CI0 SLP109

CYQF;2007-09-30 14:00;CYQF 301400Z 19002KT 15SM FEW120 SCT250 M03/M05 A2975 RMK AC1CI1 SLP107

CYQF;2007-09-30 15:00;CYQF 301500Z 00000KT 15SM SCT120 BKN250 01/M03 A2976 RMK AC3CI1 SLP110

CYQF;2007-09-30 16:00;CYQF 301600Z 14003KT 15SM FEW120 BKN250 04/M01 A2976 RMK AC2CI2 SLP110

CYQF;2007-09-30 17:00;CYQF 301700Z 15003KT 15SM FEW120 BKN250 08/02 A2975 RMK AC2CI2 SLP109

CYQF;2007-09-30 18:00;CYQF 301800Z 15004KT 15SM FEW120 BKN250 10/02 A2973 RMK AC2CI3 SLP092

CYQF;2007-09-30 19:00;CYQF 301900Z 20008KT 15SM FEW120 BKN250 14/03 A2972 RMK AC2CI2 SLP088

CYQF;2007-09-30 20:00;CYQF 302000Z 19010G15KT 15SM FEW120 OVC250 15/02 A2970 RMK AC1CI3 SLP081

CYQF;2007-09-30 21:00;CYQF 302100Z 23010KT 15SM FEW120 OVC250 16/02 A2967 RMK AC1CS6 SLP069

CYQF;2007-09-30 22:00;CYQF 302200Z 23010KT 15SM FEW060 OVC250 16/01 A2967 RMK CU1CI4 CS ASOCTD SLP069

CYQF;2007-09-30 23:00;CYQF 302300Z 21005KT 15SM FEW060 FEW120 OVC250 16/01 A2966 RMK CU1AC1CI6 SLP063

CYQF;2007-10-01 01:00;CYQF 010100Z 22004KT 15SM FEW060 SCT120 BKN250 11/02 A2965 RMK SC1AC2CI3 SLP065

CYQF;2007-10-01 02:00;CYQF 010200Z 16003KT 15SM FEW060 SCT120 BKN250 08/02 A2962 RMK SC1AC2CI3 SLP058

CYQF;2007-10-01 03:00;CYQF 010300Z 17005KT 15SM FEW120 BKN250 07/01 A2962 RMK AC2CI2 SLP060

CYQF;2007-10-01 04:00;CYQF 010400Z 19004KT 15SM FEW120 BKN250 05/01 A2962 RMK AC2CI2 SLP058

CYQF;2007-10-01 05:00;CYQF 010500Z 20003KT 15SM FEW110 BKN220 04/00 A2961 RMK AC1CI4 SLP055

CYQF;2007-10-01 06:00;CYQF 010600Z 18004KT 15SM FEW110 BKN220 03/M00 A2960 RMK AC1CI2 SLP046

CYQF;2007-10-01 07:00;CYQF 010700Z 20005KT 15SM FEW110 BKN220 04/M00 A2959 RMK AC1CI2 SLP043

CYQF;2007-10-01 08:00;CYQF 010800Z 22004KT 15SM BKN220 03/M01 A2958 RMK CI2 SLP041

CYQF;2007-10-01 09:00;CYQF 010900Z 07002KT 15SM FEW100 BKN220 03/M01 A2959 RMK AC1CI2 SLP037

CYQF;2007-10-01 10:00;CYQF 011000Z 17004KT 15SM FEW100 BKN220 02/M01 A2959 RMK AC1CI3 SLP037

CYQF;2007-10-01 11:00;CYQF 011100Z 20004KT 15SM FEW100 BKN220 03/M00 A2958 RMK AC1CI3 SLP035

CYQF;2007-10-01 12:00;CYQF 011200Z 22004KT 15SM FEW100 OVC220 03/M00 A2959 RMK AC2CI3 SLP039

CYQF;2007-10-01 13:00;CYQF 011300Z 23003KT 15SM FEW100 OVC220 03/M01 A2959 RMK AC2CI3 SLP040

CYQF;2007-10-01 14:00;CYQF 011400Z 14004KT 15SM FEW100 BKN220 03/M00 A2960 RMK AC2CI4 SLP043

CYQF;2007-10-01 15:00;CYQF 011500Z 23005KT 15SM FEW060 SCT120 BKN220 03/01 A2961 RMK SC1AC2CI4 SLP054

CYQF;2007-10-01 16:00;CYQF 011600Z 27006KT 15SM FEW060 SCT120 BKN220 07/02 A2963 RMK SC1AC2CI4 SLP060

CYQF;2007-10-01 17:00;CYQF 011700Z 00000KT 15SM FEW060 SCT120 BKN220 07/02 A2964 RMK SC1AC2CI1 SLP063

CYQF;2007-10-01 18:00;CYQF 011800Z 29007KT 15SM FEW060 BKN120 OVC240 11/03 A2965 RMK SC1AC4CI1 SLP060

CYQF;2007-10-01 19:00;CYQF 011900Z 30010KT 15SM FEW060 SCT120 OVC240 12/02 A2965 RMK SC1AC3CI1 SLP062

CYQF;2007-10-01 20:00;CYQF 012000Z 32007KT 15SM FEW060 BKN100 BKN240 12/02 A2965 RMK CU1AC5CI2 SLP062

CYQF;2007-10-01 21:00;CYQF 012100Z 27002KT 15SM FEW045 BKN100 BKN240 12/02 A2965 RMK CU2AC3CI2 TCU W SLP062

CYQF;2007-10-01 22:00;CYQF 012200Z 27004KT 15SM FEW045 BKN240 14/03 A2965 RMK CU2CI3 SLP062

CYQF;2007-10-01 23:00;CYQF 012300Z 23003KT 15SM FEW050 SCT250 14/02 A2966 RMK CU2CI1 CB TOP N SLP063

CYQF;2007-10-02 00:00;CYQF 020000Z 24003KT 15SM FEW050CB SCT250 14/03 A2966 RMK CB2CI1 VIRGA SLP064

CYQF;2007-10-02 01:00;CYQF 020100Z 21003KT 15SM BKN050 BKN250 11/03 A2968 RMK SC5CI1 CB EMBDD VIRGA SHS DIST NW-N SLP070

CYQF;2007-10-02 02:00;CYQF 020200Z 33002KT 15SM VCSH SCT050CB BKN250 10/00 A2969 RMK CB4CI1 SHS NE-E SLP074

CYQF;2007-10-02 03:00;CYQF 020300Z 28002KT 15SM FEW050 06/M01 A2970 RMK SC2 SLP086

CYQF;2007-10-02 04:00;CYQF 020400Z 17002KT 15SM FEW050 04/M00 A2972 RMK SC1 SLP091

CYQF;2007-10-02 05:00;CYQF 020500Z 18003KT 15SM FEW050 02/M01 A2972 RMK SC1 SLP091

CYQF;2007-10-02 06:00;CYQF 020600Z 00000KT 15SM SKC 02/M01 A2971 RMK SLP084

CYQF;2007-10-02 07:00;CYQF 020700Z 20006KT 15SM SCT250 01/M02 A2970 RMK CI2 SLP080

CYQF;2007-10-02 08:00;CYQF 020800Z 18007KT 15SM FEW250 02/M03 A2968 RMK CI1 SLP074

CYQF;2007-10-02 09:00;CYQF 020900Z 20006KT 15SM BKN250 M01/M04 A2966 RMK CI2 SLP070

CYQF;2007-10-02 10:00;CYQF 021000Z 20004KT 15SM BKN250 00/M03 A2966 RMK CI2 SLP067

CYQF;2007-10-02 11:00;CYQF 021100Z 21004KT 15SM SKC 00/M03 A2965 RMK SLP064

CYQF;2007-10-02 12:00;CYQF 021200Z 21003KT 15SM BKN230 01/M03 A2964 RMK CI5 SLP059

CYQF;2007-10-02 13:00;CYQF 021300Z 22004KT 15SM BKN230 01/M02 A2963 RMK CI5 SLP055

CYQF;2007-10-02 13:40;CYQF 021340Z 18005KT 15SM BKN080 BKN230 RMK AC5CI1 VIRGA SE-W

CYQF;2007-10-02 14:00;CYQF 021400Z 21005KT 15SM FEW015 BKN080 BKN230 01/M02 A2960 RMK SF1AS5CI2 SF TR SW VIRGA S QUADS SLP047

CYQF;2007-10-02 15:00;CYQF 021500Z 19006KT 15SM FEW030 BKN160 04/M01 A2958 RMK SC1AS6 SLP044

CYQF;2007-10-02 16:00;CYQF 021600Z 20005KT 15SM FEW030 BKN160 06/01 A2958 RMK SC1AS6 SLP043

CYQF;2007-10-02 17:00;CYQF 021700Z 19003KT 15SM FEW030 BKN160 10/02 A2956 RMK SC1AS6 SLP037

CYQF;2007-10-02 18:00;CYQF 021800Z 24011KT 15SM FEW030 SCT160 BKN230 13/00 A2954 RMK SC1AS2CI2 SLP023

CYQF;2007-10-02 19:00;CYQF 021900Z 23010KT 15SM FEW030 SCT160 BKN230 14/M01 A2952 RMK SC1AC2CI2 SLP017

CYQF;2007-10-02 20:00;CYQF 022000Z 24008KT 15SM FEW030 BKN160 BKN230 15/00 A2950 RMK SC1AC2CI2 SLP012

CYQF;2007-10-02 21:00;CYQF 022100Z 24009KT 15SM FEW060 SCT160 BKN230 16/M02 A2947 RMK CU2AC2CI2 SLP000

CYQF;2007-10-02 22:00;CYQF 022200Z CCA 19005KT 15SM SCT060 BKN100 BKN230 15/M01 A2946 RMK CU3AC2CI1 VIRGA SLP994

CYQF;2007-10-02 23:00;CYQF 022300Z 36006KT 15SM VCSH SCT050 BKN250 13/M00 A2946 RMK CU3CI2 VIRGA TCU ASOCTD SLP997

CYQF;2007-10-03 00:00;CYQF 030000Z 35013G21KT 15SM FEW050TCU BKN250 10/01 A2949 RMK TCU2CI2 VIRGA SLP009

CYQF;2007-10-03 01:00;CYQF 030100Z 35015G20KT 15SM FEW015 SCT060 BKN250 07/03 A2953 RMK SF1SC2CI2 SLP022

CYQF;2007-10-03 02:00;CYQF 030200Z 34010KT 15SM FEW060 BKN250 05/01 A2954 RMK SC2CI1 SLP026

CYQF;2007-10-03 03:00;CYQF 030300Z 31010KT 15SM SCT050 BKN100 BKN250 06/01 A2954 RMK SC3AC2CI1 SLP028

CYQF;2007-10-03 04:00;CYQF 030400Z 28010KT 15SM BKN075 OVC250 06/M00 A2955 RMK AC6CI1 VIRGA ALQDS SLP031

CYQF;2007-10-03 05:00;CYQF 030500Z 25006KT 15SM SCT075 BKN250 04/00 A2952 RMK AC3CI2 SLP022

CYQF;2007-10-03 06:00;CYQF 030600Z 26008KT 15SM FEW075 BKN250 03/01 A2953 RMK AC2CI1 SLP017

CYQF;2007-10-03 07:00;CYQF 030700Z 26005KT 15SM FEW080 01/M01 A2953 RMK AC2 SLP018

CYQF;2007-10-03 08:00;CYQF 030800Z 20004KT 15SM FEW080 FEW230 00/M01 A2952 RMK AC1CI0 SLP016

CYQF;2007-10-03 09:00;CYQF 030900Z 18002KT 15SM BKN080 00/M01 A2953 RMK AC5 SLP018

CYQF;2007-10-03 10:00;CYQF 031000Z 20002KT 15SM SCT080 00/M01 A2953 RMK AC3 SLP019

CYQF;2007-10-03 11:00;CYQF 031100Z 00000KT 15SM FEW080 M01/M03 A2954 RMK AC1 SLP020

CYQF;2007-10-03 12:00;CYQF 031200Z 18004KT 15SM FEW080 FEW230 M02/M04 A2955 RMK AC1CI1 SLP034

CYQF;2007-10-03 13:00;CYQF 031300Z 22004KT 15SM SCT080 BKN230 M03/M04 A2956 RMK AC3CI0 SLP037

CYQF;2007-10-03 14:00;CYQF 031400Z 00000KT 15SM FEW090 BKN230 M02/M03 A2957 RMK AC2CI2 SLP042

CYQF;2007-10-03 15:00;CYQF 031500Z 00000KT 15SM FEW090 BKN230 M01/M02 A2960 RMK AC2CI2 SLP054

CYQF;2007-10-03 16:00;CYQF 031600Z 00000KT 15SM FEW090 BKN230 04/00 A2961 RMK AC1CI1 SLP057

CYQF;2007-10-03 17:00;CYQF 031700Z 34005KT 15SM FEW090 BKN230 07/M00 A2961 RMK AC1CI2 ACC ASOCTD SLP057

CYQF;2007-10-03 18:00;CYQF 031800Z 30003KT 15SM FEW090 BKN200 07/M02 A2961 RMK AC1CI4 SLP054

CYQF;2007-10-03 19:00;CYQF 031900Z 30006KT 15SM FEW040 FEW090 BKN200 08/M02 A2962 RMK CU1AC1CI3 SLP057

CYQF;2007-10-03 20:00;CYQF 032000Z 28006KT 15SM FEW040 FEW090 BKN200 09/M01 A2962 RMK CU2AC1CI1 CB TPS DIST SW-W SLP057

CYQF;2007-10-03 21:00;CYQF 032100Z 34006KT 15SM SCT050 BKN200 09/M03 A2962 RMK CU3CI1 CB TOPS SW-W SLP058

CYQF;2007-10-03 22:00;CYQF 032200Z 34004KT 15SM VCSH BKN050 BKN200 09/M02 A2964 RMK CU5CI2 SLP062

CYQF;2007-10-03 23:00;CYQF 032300Z 31003KT 15SM VCSH BKN050 BKN210 09/M01 A2965 RMK CU6CI1 TCU EMBDD SLP067

CYQF;2007-10-04 00:00;CYQF 040000Z 30005KT 15SM SCT050TCU BKN100 BKN210 09/M02 A2967 RMK TCU3AC2CI1 SLP079

CYQF;2007-10-04 01:00;CYQF 040100Z 25005KT 15SM FEW050TCU BKN100 BKN210 04/M02 A2968 RMK TCU2AC2CI0 SLP082

CYQF;2007-10-04 02:00;CYQF 040200Z 24008KT 15SM FEW050 BKN100 BKN210 04/M00 A2971 RMK SC2AC2CI1 SLP089

CYQF;2007-10-04 03:00;CYQF 040300Z 00000KT 15SM FEW050 FEW100 BKN210 03/M00 A2972 RMK SC1AC1CI1 SLP099

CYQF;2007-10-04 04:00;CYQF 040400Z 00000KT 15SM FEW100 FEW210 02/M01 A2973 RMK AC1CI0 SLP104

CYQF;2007-10-04 05:00;CYQF 040500Z 00000KT 15SM FEW100 SCT210 M00/M02 A2974 RMK AC2CI0 SLP106

CYQF;2007-10-04 06:00;CYQF 040600Z 21004KT 15SM FEW100 SCT210 00/M02 A2975 RMK AC2CI0 SLP106

CYQF;2007-10-04 07:00;CYQF 040700Z 00000KT 15SM FEW100 FEW210 M01/M03 A2976 RMK AC1CI2 SLP107

CYQF;2007-10-04 08:00;CYQF 040800Z 00000KT 15SM FEW100 FEW210 M01/M03 A2976 RMK AC1CI1 SLP109

CYQF;2007-10-04 09:00;CYQF 040900Z 21003KT 15SM FEW100 FEW210 M02/M04 A2978 RMK AC1CI1 SLP115

CYQF;2007-10-04 10:00;CYQF 041000Z 00000KT 15SM SCT100 M03/M04 A2979 RMK AC3 SLP119

CYQF;2007-10-04 11:00;CYQF 041100Z 00000KT 10SM SCT080 BKN210 M03/M04 A2981 RMK AC3CI0 BR SLP125

CYQF;2007-10-04 12:00;CYQF 041200Z 00000KT 15SM FEW080 FEW210 M03/M05 A2982 RMK AC1CI0 SLP131

CYQF;2007-10-04 12:13;CYQF 041213Z 00000KT 2SM BR FEW080 FEW210 RMK FG1AC1CI0

CYQF;2007-10-04 12:24;CYQF 041224Z 00000KT 2SM BR FEW001 RMK ST1

CYQF;2007-10-04 12:35;CYQF 041235Z 00000KT 1SM BR FEW080 RMK FG2AC1

CYQF;2007-10-04 13:00;CYQF 041300Z 00000KT 1/2SM FZFG FEW080 M04/M06 A2983 RMK FG2AC1 SLP135

CYQF;2007-10-04 13:03;CYQF 041303Z 00000KT 1/4SM FZFG FEW080 RMK FG2AC1

CYQF;2007-10-04 14:00;CYQF 041400Z 00000KT 1/4SM FZFG BKN090 M04/M05 A2985 RMK FG2AC2 SLP142

CYQF;2007-10-04 14:09;CYQF 041409Z 00000KT 2SM BR BKN100 RMK AC3

CYQF;2007-10-04 14:19;CYQF 041419Z 00000KT 3SM BR BKN100 RMK AC4

CYQF;2007-10-04 15:00;CYQF 041500Z 00000KT 6SM BR BKN100 M01/M02 A2988 RMK AC6 SLP156

CYQF;2007-10-04 16:00;CYQF 041600Z 01003KT 8SM BKN100 M00/M01 A2990 RMK AC6 SLP161

CYQF;2007-10-04 17:00;CYQF 041700Z 05004KT 15SM BKN100 BKN220 02/M00 A2991 RMK AC6CI1 SLP165

CYQF;2007-10-04 18:00;CYQF 041800Z 05007KT 15SM FEW040 BKN100 04/01 A2992 RMK SC2AC5 TCU ASOCTD SLP167

CYQF;2007-10-04 19:00;CYQF 041900Z 09004KT 15SM FEW020 BKN050 BKN100 06/01 A2993 RMK CU2SC3AC2 SLP171

CYQF;2007-10-04 19:41;CYQF 041941Z 09006KT 15SM -SHRA SCT020 BKN050 BKN100 RMK CU3SC2AC2

CYQF;2007-10-04 20:00;CYQF 042000Z CCA 09008KT 15SM VCSH BKN025 BKN050 06/M00 A2993 RMK CU5SC2 SLP171

CYQF;2007-10-04 21:00;CYQF 042100Z 08006KT 15SM BKN025 BKN250 07/01 A2993 RMK CU6CI0 SLP170

CYQF;2007-10-04 22:00;CYQF 042200Z 06005KT 15SM VCSH BKN030 BKN250 07/M00 A2994 RMK CU6CI0 TCU ASCOTD SLP172

CYQF;2007-10-04 23:00;CYQF 042300Z 06010KT 15SM VCSH BKN030TCU BKN080 BKN250 06/01 A2995 RMK TCU5AC2CI0 SLP177

CYQF;2007-10-04 23:51;CYQF 042351Z 12012G19KT 15SM -SHRA BKN030TCU BKN080 OVC250 RMK TCU6AC2CI0

CYQF;2007-10-05 00:00;CYQF 050000Z 12013G21KT 15SM -SHRA BKN030TCU BKN080 OVC250 03/01 A2997 RMK TCU6AC2CI0 SLP190

CYQF;2007-10-05 00:38;CYQF 050038Z 08008KT 15SM VCSH SCT030TCU BKN080 OVC250 RMK TCU3AC2CI2

CYQF;2007-10-05 01:00;CYQF 050100Z 08008KT 15SM VCSH SCT030TCU BKN080 OVC250 03/01 A2999 RMK TCU3AC2CI2 SLP195

CYQF;2007-10-05 01:10;CYQF 050110Z 09005KT 15SM -SHRA BKN040TCU BKN080 OVC250 RMK TCU5AC2CI2

CYQF;2007-10-05 02:00;CYQF 050200Z 06008KT 15SM -SHRA BKN030 OVC090 03/01 A3001 RMK SC6AC2 TCU EMBDD SLP201

CYQF;2007-10-05 03:00;CYQF 050300Z 03008KT 15SM BKN040 BKN090 OVC250 04/02 A3002 RMK SC5AC2CI1 SLP205

CYQF;2007-10-05 04:00;CYQF 050400Z 06012KT 15SM BKN050 BKN090 03/M01 A3003 RMK SC6AC2 SLP208

CYQF;2007-10-05 05:00;CYQF 050500Z 07009KT 15SM BKN050 BKN100 02/M02 A3005 RMK SC6AC2 SLP214

CYQF;2007-10-05 06:00;CYQF 050600Z 07009KT 15SM BKN050 BKN100 01/M02 A3005 RMK SC6AC2 SLP210

CYQF;2007-10-05 07:00;CYQF 050700Z 04004KT 15SM BKN030 00/M02 A3005 RMK SC6 SLP210

CYQF;2007-10-05 07:13;CYQF 050713Z 06006KT 15SM OVC012 RMK SC8 VIS S 5

CYQF;2007-10-05 08:00;CYQF 050800Z 06005KT 15SM OVC012 01/M02 A3005 RMK SC8 SLP211

CYQF;2007-10-05 08:16;CYQF 050816Z 04006KT 10SM -SHSN OVC045 RMK SC8

CYQF;2007-10-05 09:00;CYQF 050900Z 03004KT 8SM -SHSN OVC040 01/M01 A3005 RMK SC8 SLP210

CYQF;2007-10-05 09:28;CYQF 050928Z 01004KT 1 1/2SM -SHSN BKN012 OVC040 RMK SN3SC2SC3 VIS S 6

CYQF;2007-10-05 09:34;CYQF 050934Z 03004KT 12SM -SHSN OVC040 RMK SC8 VIS NW 3

CYQF;2007-10-05 10:00;CYQF 051000Z 04006KT 8SM -SHSN OVC040 00/M01 A3006 RMK SC8 SLP211

CYQF;2007-10-05 11:00;CYQF 051100Z 03002KT 10SM -SHSN BKN040 00/M02 A3007 RMK SC6 VIS S 21/2 SLP214

CYQF;2007-10-05 11:05;CYQF 051105Z 03004KT 2SM -SHSN VV020 RMK SN8 VIS S 6

CYQF;2007-10-05 11:11;CYQF 051111Z 03002KT 10SM -SHSN BKN050 RMK SC7

CYQF;2007-10-05 11:39;CYQF 051139Z 02004KT 15SM FEW050 BKN080 RMK SC2AC2

CYQF;2007-10-05 12:00;CYQF 051200Z 04004KT 15SM FEW050 SCT080 BKN240 M00/M02 A3007 RMK SC1AC2CI0 SLP222

CYQF;2007-10-05 12:23;CYQF 051223Z 03004KT 15SM BKN014 BKN080 RMK SC5AC2

CYQF;2007-10-05 13:00;CYQF 051300Z CCA 04005KT 15SM BKN014 BKN040 M01/M03 A3008 RMK SC2SC2 SLP224

CYQF;2007-10-05 14:00;CYQF 051400Z 03002KT 15SM FEW040 SCT250 M02/M04 A3009 RMK SC2CI2 SLP228

CYQF;2007-10-05 15:00;CYQF 051500Z 02003KT 15SM FEW070 SCT250 M01/M03 A3010 RMK AC2CI1 SLP233

CYQF;2007-10-05 16:00;CYQF 051600Z 08003KT 15SM FEW070 FEW250 00/M02 A3009 RMK AC1CI1 SLP230

CYQF;2007-10-05 17:00;CYQF 051700Z 00000KT 15SM FEW070 03/M01 A3009 RMK AC1 SLP230

CYQF;2007-10-05 18:00;CYQF 051800Z 14012KT 15SM FEW024 SCT070 SCT250 05/M01 A3008 RMK CU2AC1CI0 SLP222

CYQF;2007-10-05 19:00;CYQF 051900Z 16006KT 15SM FEW030 SCT250 07/00 A3007 RMK CU2CI1 SLP218

CYQF;2007-10-05 20:00;CYQF 052000Z 14012KT 15SM FEW030 07/00 A3006 RMK CU2 SLP215

CYQF;2007-10-05 21:00;CYQF 052100Z 13009KT 15SM BKN025 07/00 A3004 RMK CU6 SLP206

CYQF;2007-10-05 22:00;CYQF 052200Z 14010KT 15SM BKN025 07/00 A3003 RMK CU5 SLP203

CYQF;2007-10-05 23:00;CYQF 052300Z 16010G15KT 15SM BKN025 07/00 A3002 RMK SC5 CU ASOCTD SLP200

CYQF;2007-10-06 00:00;CYQF 060000Z 17010G15KT 15SM BKN025 07/01 A3002 RMK SC6 SLP199

CYQF;2007-10-06 01:00;CYQF 060100Z 20010KT 15SM BKN025 06/01 A3003 RMK SC6 SLP202

CYQF;2007-10-06 02:00;CYQF 060200Z 19010KT 15SM OVC023 06/01 A3002 RMK SC8 SLP199

CYQF;2007-10-06 03:00;CYQF 060300Z 17010KT 15SM OVC020 05/01 A3001 RMK SC8 SLP198

CYQF;2007-10-06 04:00;CYQF 060400Z 17012G18KT 15SM OVC015 05/02 A3000 RMK SC8 SLP194

CYQF;2007-10-06 05:00;CYQF 060500Z 16012G18KT 15SM OVC012 05/02 A2998 RMK SC8 SLP188

CYQF;2007-10-06 06:00;CYQF 060600Z 17013G20KT 15SM OVC012 04/02 A2995 RMK SC8 SLP172

CYQF;2007-10-06 07:00;CYQF 060700Z 16015G20KT 15SM BKN011 04/02 A2991 RMK SC7 SLP160

CYQF;2007-10-06 08:00;CYQF 060800Z 16010G16KT 15SM OVC010 04/01 A2990 RMK SC8 SLP155

CYQF;2007-10-06 09:00;CYQF 060900Z 17010G15KT 15SM OVC009 04/01 A2989 RMK SC8 SLP151

CYQF;2007-10-06 10:00;CYQF 061000Z 18010G15KT 15SM OVC008 03/01 A2986 RMK SC8 SLP142

CYQF;2007-10-06 11:00;CYQF 061100Z 18010G15KT 15SM OVC008 03/01 A2986 RMK SC8 SLP140

CYQF;2007-10-06 12:00;CYQF 061200Z 18010G15KT 15SM OVC008 03/01 A2984 RMK SC8 SLP133

CYQF;2007-10-06 13:00;CYQF 061300Z 17015G20KT 15SM OVC008 03/01 A2983 RMK SC8 SLP130

CYQF;2007-10-06 13:45;CYQF 061345Z 18011G18KT 7SM OVC010 RMK SC8 CIG RAG

CYQF;2007-10-06 14:00;CYQF 061400Z 17011G18KT 5SM BR OVC010 03/01 A2982 RMK SC8 CIG RAG SLP126

CYQF;2007-10-06 15:00;CYQF 061500Z 19010KT 10SM OVC009 03/01 A2983 RMK SC8 CIG RAG SLP130

CYQF;2007-10-06 16:00;CYQF 061600Z 17012KT 15SM BKN010 BKN250 04/00 A2982 RMK SC5CI1 SLP128

CYQF;2007-10-06 16:32;CYQF 061632Z 17011KT 15SM SCT010 BKN250 RMK SC3CI2

CYQF;2007-10-06 17:00;CYQF 061700Z 17010KT 15SM FEW010 BKN250 04/01 A2982 RMK SC2CI2 SLP129

CYQF;2007-10-06 18:00;CYQF 061800Z 17010KT 15SM FEW015 FEW130 07/02 A2981 RMK SC1AC1 SLP122

CYQF;2007-10-06 19:00;CYQF 061900Z 17008KT 15SM FEW130 08/01 A2980 RMK AC2 SLP119

CYQF;2007-10-06 20:00;CYQF 062000Z 20003KT 15SM FEW015 FEW100 BKN250 10/00 A2980 RMK SC1AC1CI2 SLP117

CYQF;2007-10-06 21:00;CYQF 062100Z 29008KT 15SM FEW020 BKN250 11/M01 A2980 RMK SC1CI2 SLP112

CYQF;2007-10-06 22:00;CYQF 062200Z 36005KT 15SM FEW020 BKN250 12/M02 A2980 RMK SC1CI2 SLP113

CYQF;2007-10-06 23:00;CYQF 062300Z 36005KT 15SM FEW050 SCT250 12/M03 A2980 RMK SC1CI1 CU ASOCTD SLP113

CYQF;2007-10-07 00:00;CYQF 070000Z 00000KT 15SM FEW050 BKN250 12/M03 A2981 RMK SC1CI2 SLP116

CYQF;2007-10-07 01:00;CYQF 070100Z 14002KT 15SM FEW050 BKN250 10/M03 A2982 RMK SC1CI2 SLP119

CYQF;2007-10-07 02:00;CYQF 070200Z 17004KT 15SM FEW050 SCT250 06/M02 A2984 RMK SC1CI1 SLP124

CYQF;2007-10-07 03:00;CYQF 070300Z 18007KT 15SM SKC 04/M03 A2985 RMK SLP138

CYQF;2007-10-07 04:00;CYQF 070400Z 19005KT 15SM SKC 03/M02 A2985 RMK SLP141

CYQF;2007-10-07 05:00;CYQF 070500Z 18004KT 15SM SKC 03/M01 A2985 RMK SLP139

CYQF;2007-10-07 06:00;CYQF 070600Z 18005KT 15SM SKC 01/M02 A2985 RMK SLP137

CYQF;2007-10-07 07:00;CYQF 070700Z 19006KT 15SM SKC 00/M03 A2982 RMK SLP129

CYQF;2007-10-07 08:00;CYQF 070800Z 18004KT 15SM SKC 00/M04 A2980 RMK SLP122

CYQF;2007-10-07 09:00;CYQF 070900Z 15005KT 15SM SKC 01/M04 A2977 RMK SLP108

CYQF;2007-10-07 10:00;CYQF 071000Z 15006KT 15SM SKC 01/M04 A2976 RMK SLP104

CYQF;2007-10-07 11:00;CYQF 071100Z 16008KT 15SM SKC 00/M04 A2975 RMK SLP099

CYQF;2007-10-07 12:00;CYQF 071200Z 17006KT 15SM SKC 02/M03 A2973 RMK SLP090

CYQF;2007-10-07 13:00;CYQF 071300Z 17006KT 15SM SCT100 02/M02 A2973 RMK AC3 SLP089

CYQF;2007-10-07 14:00;CYQF 071400Z 19008KT 15SM FEW150 04/M01 A2972 RMK AC2 SLP087

CYQF;2007-10-07 15:00;CYQF 071500Z 15005KT 15SM BKN150 05/M01 A2972 RMK AC2 SLP092

CYQF;2007-10-07 16:00;CYQF 071600Z 19013KT 15SM SCT150 13/03 A2971 RMK AC2 SLP090

CYQF;2007-10-07 17:00;CYQF 071700Z 21011KT 15SM FEW150 15/03 A2968 RMK AC2 SLP081

CYQF;2007-10-07 18:00;CYQF 071800Z 23014G21KT 15SM BKN120 18/03 A2968 RMK AC5 SLP068

CYQF;2007-10-07 19:00;CYQF 071900Z 20012G19KT 15SM BKN100 BKN250 17/03 A2968 RMK AC5CI1 SLP068

CYQF;2007-10-07 20:00;CYQF 072000Z 20013G20KT 15SM BKN100 19/03 A2966 RMK AC5 SLP061

CYQF;2007-10-07 21:00;CYQF 072100Z 20014G20KT 15SM FEW100 BKN250 20/03 A2966 RMK AC2CI1 SLP057

CYQF;2007-10-07 22:00;CYQF 072200Z 22008G16KT 15SM FEW100 BKN250 20/03 A2965 RMK AC2CI1 SLP055

CYQF;2007-10-07 23:00;CYQF 072300Z 20012KT 15SM FEW100 SCT250 20/02 A2964 RMK AC2CI0 SLP051

CYQF;2007-10-08 00:00;CYQF 080000Z 18008KT 15SM FEW100 SCT250 18/03 A2963 RMK AC2CI0 SLP048

CYQF;2007-10-08 01:00;CYQF 080100Z 19006KT 15SM FEW100 BKN250 14/03 A2963 RMK AC2CI0 SLP049

CYQF;2007-10-08 02:00;CYQF 080200Z 19007KT 15SM SCT100 BKN250 13/03 A2963 RMK AC4CI1 SLP049

CYQF;2007-10-08 03:00;CYQF 080300Z 22015KT 15SM BKN250 12/02 A2963 RMK CI2 SLP052

CYQF;2007-10-08 04:00;CYQF 080400Z 23010G15KT 15SM OVC250 12/02 A2965 RMK CI3 SLP056

CYQF;2007-10-08 05:00;CYQF 080500Z 24010KT 15SM OVC250 11/02 A2966 RMK CI8 SLP060

CYQF;2007-10-08 06:00;CYQF 080600Z 23012G18KT 15SM SCT100 OVC250 12/02 A2964 RMK AC3CI5 SLP043

CYQF;2007-10-08 07:00;CYQF 080700Z 30016G22KT 15SM BKN100 OVC250 12/02 A2972 RMK AC5CI3 PRESRR SLP066

CYQF;2007-10-08 08:00;CYQF 080800Z 35012G17KT 15SM BKN100 OVC250 08/02 A2979 RMK AC6CI2 SLP088

CYQF;2007-10-08 09:00;CYQF 080900Z 35009KT 15SM BKN100 OVC250 07/01 A2983 RMK AC6CI2 SLP110

CYQF;2007-10-08 10:00;CYQF 081000Z 32008KT 15SM SCT100 OVC250 06/01 A2986 RMK AC4CI4 SLP120

CYQF;2007-10-08 11:00;CYQF 081100Z 31010KT 15SM SCT100 OVC250 06/01 A2988 RMK AC4CI4 SLP125

CYQF;2007-10-08 12:00;CYQF 081200Z 30009KT 15SM SCT110 BKN250 06/01 A2990 RMK AC4CI2 SLP139

CYQF;2007-10-08 13:00;CYQF 081300Z 30012KT 15SM BKN110 BKN250 06/00 A2992 RMK AC5CI2 SLP145

CYQF;2007-10-08 14:00;CYQF 081400Z 29011KT 15SM BKN100 BKN250 05/M01 A2996 RMK AC5CI0 SLP156

CYQF;2007-10-08 15:00;CYQF 081500Z 29004KT 15SM SCT060 BKN100 BKN250 06/01 A2998 RMK SC3AC2CI0 SLP173

CYQF;2007-10-08 16:00;CYQF 081600Z 26003KT 15SM BKN060 BKN100 BKN250 07/01 A3001 RMK SC6AC1CI0 SLP181

CYQF;2007-10-08 17:00;CYQF 081700Z 27003KT 15SM BKN060 BKN100 BKN250 07/01 A3003 RMK SC5AC1CI1 SLP188

CYQF;2007-10-08 18:00;CYQF 081800Z 31006KT 15SM BKN080 08/M00 A3005 RMK AC6 SLP194

CYQF;2007-10-08 19:00;CYQF 081900Z 33006KT 15SM BKN080 09/M01 A3004 RMK AC6 SLP192

CYQF;2007-10-08 20:00;CYQF 082000Z 00000KT 15SM BKN080 09/M02 A3005 RMK AC6 SLP193

CYQF;2007-10-08 21:00;CYQF 082100Z 00000KT 15SM BKN080 10/M03 A3004 RMK AC7 SLP195

CYQF;2007-10-08 22:00;CYQF 082200Z 00000KT 15SM BKN080 10/M02 A3007 RMK AC7 SLP204

CYQF;2007-10-08 23:00;CYQF 082300Z 16003KT 15SM BKN080 10/M03 A3007 RMK AC7 SLP205

CYQF;2007-10-09 00:00;CYQF 090000Z 00000KT 15SM BKN080 10/M03 A3009 RMK AC7 SLP214

CYQF;2007-10-09 01:00;CYQF 090100Z 00000KT 15SM BKN080 BKN250 09/M03 A3010 RMK AC5CI1 SLP215

CYQF;2007-10-09 02:00;CYQF 090200Z 07002KT 15SM SCT080 06/M02 A3010 RMK AC4 SLP217

CYQF;2007-10-09 03:00;CYQF 090300Z 00000KT 15SM BKN090 06/M02 A3014 RMK AC4 SLP233

CYQF;2007-10-09 04:00;CYQF 090400Z 00000KT 15SM FEW090 04/M02 A3015 RMK AC2 SLP238

CYQF;2007-10-09 05:00;CYQF 090500Z 00000KT 15SM SKC 02/M03 A3016 RMK SLP242

CYQF;2007-10-09 06:00;CYQF 090600Z 13003KT 15SM SKC M00/M05 A3016 RMK SLP245

CYQF;2007-10-09 07:00;CYQF 090700Z 00000KT 15SM FEW080 01/M05 A3017 RMK AC2 SLP249

CYQF;2007-10-09 08:00;CYQF 090800Z 00000KT 15SM FEW080 00/M05 A3017 RMK AC2 SLP248

CYQF;2007-10-09 09:00;CYQF 090900Z 00000KT 15SM FEW080 M01/M05 A3018 RMK AC2 SLP252

CYQF;2007-10-09 10:00;CYQF 091000Z 00000KT 15SM BKN080 00/M04 A3019 RMK AC6 SLP257

CYQF;2007-10-09 11:00;CYQF 091100Z 12004KT 15SM BKN080 04/M04 A3018 RMK AC5 SLP253

CYQF;2007-10-09 12:00;CYQF 091200Z 13003KT 15SM BKN080 02/M05 A3018 RMK AC5 SLP250

CYQF;2007-10-09 13:00;CYQF 091300Z 14005KT 15SM BKN080 03/M05 A3018 RMK AC6 SLP250

CYQF;2007-10-09 14:00;CYQF 091400Z 13007KT 15SM BKN080 04/M04 A3019 RMK AC7 SLP252

CYQF;2007-10-09 15:00;CYQF 091500Z 14007KT 15SM FEW035 BKN070 05/M03 A3019 RMK SC2AC6 SLP254

CYQF;2007-10-09 16:00;CYQF 091600Z 14012KT 15SM FEW040 BKN070 BKN250 06/M02 A3019 RMK SC1AC4CI1 SLP253

CYQF;2007-10-09 17:00;CYQF 091700Z 13013KT 15SM FEW070 BKN250 09/M01 A3017 RMK AC2CI1 SLP249

CYQF;2007-10-09 18:00;CYQF 091800Z 15015G21KT 15SM FEW090 BKN250 10/00 A3017 RMK AC1CI1 SLP248

CYQF;2007-10-09 19:00;CYQF 091900Z 14015G22KT 15SM FEW090 BKN250 12/01 A3015 RMK AC2CI2 SLP242

CYQF;2007-10-09 20:00;CYQF 092000Z 16015G22KT 15SM BKN090 BKN250 12/02 A3013 RMK AC5CI2 SLP235

CYQF;2007-10-09 21:00;CYQF 092100Z 15018G30KT 15SM SCT120 BKN250 13/02 A3010 RMK AC3CI2 SLP222

CYQF;2007-10-09 22:00;CYQF 092200Z 14020G30KT 15SM FEW150 BKN250 14/01 A3009 RMK AC2CI2 SLP218

CYQF;2007-10-09 23:00;CYQF 092300Z 15022G30KT 15SM FEW150 SCT250 15/02 A3006 RMK AC1CI2 SLP209

CYQF;2007-10-10 00:00;CYQF 100000Z 15018G25KT 15SM FEW150 FEW250 15/02 A3005 RMK AC1CI1 SLP197

CYQF;2007-10-10 01:00;CYQF 100100Z 15010G16KT 15SM FEW150 FEW250 12/02 A3005 RMK AC1CI1 SLP197

CYQF;2007-10-10 02:00;CYQF 100200Z 14010G15KT 15SM FEW150 11/02 A3004 RMK AC1 SLP194

CYQF;2007-10-10 03:00;CYQF 100300Z 15015G20KT 15SM SKC 10/M01 A3003 RMK SLP193

CYQF;2007-10-10 04:00;CYQF 100400Z 14012G18KT 15SM SKC 09/M01 A3002 RMK SLP189

CYQF;2007-10-10 05:00;CYQF 100500Z 14010G15KT 15SM SKC 09/M01 A2999 RMK SLP182

CYQF;2007-10-10 06:00;CYQF 100600Z 14015G22KT 15SM SKC 08/M01 A2997 RMK SLP169

CYQF;2007-10-10 07:00;CYQF 100700Z 15020G26KT 15SM SKC 07/M01 A2995 RMK SLP163

CYQF;2007-10-10 08:00;CYQF 100800Z 15013G21KT 15SM SKC 05/M01 A2995 RMK SLP163

CYQF;2007-10-10 09:00;CYQF 100900Z 13010G15KT 15SM SKC 05/M01 A2994 RMK SLP158

CYQF;2007-10-10 10:00;CYQF 101000Z 13010G16KT 15SM SKC 04/M02 A2992 RMK SLP151

CYQF;2007-10-10 11:00;CYQF 101100Z 14013KT 15SM SKC 04/M01 A2989 RMK SLP143

CYQF;2007-10-10 12:00;CYQF 101200Z 13012KT 15SM SKC 03/M02 A2988 RMK SLP139

CYQF;2007-10-10 13:00;CYQF 101300Z 13012G19KT 15SM SCT100 03/M01 A2985 RMK AC2 SLP129

CYQF;2007-10-10 14:00;CYQF 101400Z 14011KT 15SM BKN100 04/M01 A2984 RMK AC4 SLP124

CYQF;2007-10-10 15:00;CYQF 101500Z 16010KT 15SM BKN110 OVC250 04/M01 A2983 RMK AC5CI2 SLP123

CYQF;2007-10-10 16:00;CYQF 101600Z 14010G15KT 15SM BKN110 OVC250 05/M01 A2981 RMK AC6CI2 SLP118

CYQF;2007-10-10 17:00;CYQF 101700Z 15015G20KT 15SM BKN110 OVC250 06/M00 A2980 RMK AC6CI2 SLP115

CYQF;2007-10-10 18:00;CYQF 101800Z 15015G20KT 15SM FEW070 BKN110 OVC250 07/00 A2977 RMK AC1AC5CI2 SLP104

CYQF;2007-10-10 20:00;CYQF 102000Z CCA 15015G22KT 15SM FEW080 BKN120 OVC250 10/02 A2975 RMK AC2AC3CI2 SLP097

CYQF;2007-10-10 21:00;CYQF 102100Z 15015G20KT 15SM BKN140 OVC250 10/02 A2974 RMK AC5CI2 SLP092

CYQF;2007-10-10 22:00;CYQF 102200Z 16012G18KT 15SM BKN140 BKN250 11/03 A2973 RMK AC5CI2 SLP088

CYQF;2007-10-10 23:00;CYQF 102300Z 14015G20KT 15SM SCT150 BKN250 12/03 A2971 RMK AC4CI2 SLP084

CYQF;2007-10-11 00:00;CYQF 110000Z 15010G15KT 15SM BKN150 OVC250 11/03 A2971 RMK AC3CI3 SLP081

CYQF;2007-10-11 01:00;CYQF 110100Z 18002KT 15SM BKN120 OVC250 10/03 A2971 RMK AC6CI2 SLP081

CYQF;2007-10-11 02:00;CYQF 110200Z 10003KT 15SM OVC100 08/03 A2971 RMK AC8 VIRGA SLP081

CYQF;2007-10-11 03:00;CYQF 110300Z 33004KT 15SM OVC100 07/03 A2972 RMK AC8 VIRGA SLP091

CYQF;2007-10-11 04:00;CYQF 110400Z 30006KT 15SM SCT040 OVC100 07/04 A2975 RMK SC3AC5 SLP099

CYQF;2007-10-11 05:00;CYQF 110500Z 00000KT 15SM FEW100 BKN250 07/04 A2974 RMK AC2CI1 SLP096

CYQF;2007-10-11 08:00;CYQF 110800Z 27005KT 15SM FEW100 OVC250 03/01 A2976 RMK AC1CI6 SLP101

CYQF;2007-10-11 09:00;CYQF 110900Z 30012KT 15SM FEW100 OVC250 05/03 A2977 RMK AC2CI6 SLP104

CYQF;2007-10-11 10:00;CYQF 111000Z 32007KT 15SM FEW100 OVC250 06/03 A2978 RMK AC2CI6 SLP107

CYQF;2007-10-11 11:00;CYQF 111100Z 25003KT 15SM FEW100 OVC250 06/04 A2981 RMK AC2CI6 SLP115

CYQF;2007-10-11 12:00;CYQF 111200Z 27004KT 15SM FEW120 04/02 A2984 RMK AC1 SLP126

CYQF;2007-10-11 13:00;CYQF 111300Z 29006KT 15SM FEW100 04/03 A2985 RMK AC2 SLP129

CYQF;2007-10-11 14:00;CYQF 111400Z 27007KT 15SM FEW100 04/02 A2986 RMK AC2 SLP135

CYQF;2007-10-11 15:00;CYQF 111500Z 30008KT 15SM FEW080 05/03 A2988 RMK AC2 ACC SLP144

CYQF;2007-10-11 16:00;CYQF 111600Z 32010KT 15SM FEW080 09/03 A2989 RMK AC2 SLP148

CYQF;2007-10-11 17:00;CYQF 111700Z 33010KT 15SM BKN070 10/03 A2990 RMK AC6 ACC/VIRGA SLP150

CYQF;2007-10-11 18:00;CYQF 111800Z 36008KT 15SM SCT070 12/01 A2990 RMK AC4 SLP146

CYQF;2007-10-11 19:00;CYQF 111900Z 35004KT 15SM FEW040 FEW070 13/00 A2989 RMK CU1AC2 SLP145

CYQF;2007-10-11 20:00;CYQF 112000Z 35008KT 15SM FEW050 FEW080 13/M01 A2989 RMK CU1AC2 SLP143

CYQF;2007-10-11 21:00;CYQF 112100Z 36006KT 15SM FEW050 SCT090 13/M01 A2989 RMK CU2AC2 VIRGA W SLP140

CYQF;2007-10-11 22:00;CYQF 112200Z 04004KT 15SM FEW050 BKN090 14/M00 A2988 RMK CU2AC3 SLP139

CYQF;2007-10-11 23:00;CYQF 112300Z 00000KT 15SM FEW050 FEW090 14/M01 A2988 RMK CU1AC2 SLP138

CYQF;2007-10-12 00:00;CYQF 120000Z 00000KT 15SM FEW055 FEW090 13/M01 A2989 RMK CU2AC1 SLP142

CYQF;2007-10-12 01:00;CYQF 120100Z 00000KT 15SM FEW055 BKN090 10/M02 A2989 RMK CU1AC3 SLP144

CYQF;2007-10-12 02:00;CYQF 120200Z 01003KT 15SM BKN090 08/M00 A2990 RMK AC6 SLP147

CYQF;2007-10-12 03:00;CYQF 120300Z 00000KT 15SM BKN090 08/00 A2991 RMK AC6 SLP152

CYQF;2007-10-12 04:00;CYQF 120400Z 00000KT 15SM BKN090 07/00 A2991 RMK AC4 SLP154

CYQF;2007-10-12 05:00;CYQF 120500Z 00000KT 15SM SCT090 06/M01 A2992 RMK AC2 SLP156

CYQF;2007-10-12 06:00;CYQF 120600Z 24004KT 15SM FEW090 03/M02 A2992 RMK AC2 SLP155

CYQF;2007-10-12 07:00;CYQF 120700Z 23003KT 15SM FEW090 02/M01 A2992 RMK AC2 SLP155

CYQF;2007-10-12 08:00;CYQF 120800Z 25006KT 15SM SCT090 03/M02 A2992 RMK AC3 OBS TAKEN +5 SLP154

CYQF;2007-10-12 09:00;CYQF 120900Z 25004KT 15SM SCT090 03/M02 A2992 RMK AC3 SLP153

CYQF;2007-10-12 10:00;CYQF 121000Z 29004KT 15SM SCT090 03/M03 A2992 RMK AC4 SLP152

CYQF;2007-10-12 11:00;CYQF 121100Z 17002KT 15SM SCT090 02/M03 A2992 RMK AC3 SLP154

CYQF;2007-10-12 12:00;CYQF 121200Z 33002KT 15SM SCT090 02/M02 A2992 RMK AC4 SLP155

CYQF;2007-10-12 13:00;CYQF 121300Z 00000KT 15SM BKN090 01/M02 A2992 RMK AC5 SLP154

CYQF;2007-10-12 14:00;CYQF 121400Z 00000KT 15SM BKN090 BKN250 01/M02 A2991 RMK AC5CI1 SLP153

CYQF;2007-10-12 15:00;CYQF 121500Z 33003KT 15SM FEW080 BKN100 BKN270 02/M02 A2991 RMK AC1AC4CI0 ACC ASOCTD SLP156

CYQF;2007-10-12 16:00;CYQF 121600Z CCA 36002KT 15SM FEW080 SCT100 BKN270 05/M01 A2990 RMK AC1AC2CI1 ACC ASOCTD SLP154

CYQF;2007-10-12 17:00;CYQF 121700Z 05005KT 15SM FEW100 BKN270 07/M01 A2989 RMK AC2CI3 SLP152

CYQF;2007-10-12 18:00;CYQF 121800Z 06011KT 12SM BKN100 BKN270 09/M01 A2988 RMK AC2CI2 SLP144

CYQF;2007-10-12 19:00;CYQF 121900Z 06004KT 15SM SCT100 BKN270 10/M00 A2987 RMK AC3CI2 SLP142

CYQF;2007-10-12 20:00;CYQF 122000Z 00000KT 15SM SCT100 BKN270 11/M01 A2985 RMK AC4CI2 SLP137

CYQF;2007-10-12 21:00;CYQF 122100Z 06007KT 15SM SCT100 BKN270 11/M00 A2985 RMK AC3CI2 SLP130

CYQF;2007-10-12 22:00;CYQF 122200Z 03005KT 15SM BKN100 BKN270 11/M00 A2983 RMK AC5CI2 SLP126

CYQF;2007-10-12 23:00;CYQF 122300Z 04005KT 15SM FEW040 BKN100 11/M00 A2983 RMK CU1AC7 SLP126

CYQF;2007-10-13 00:00;CYQF 130000Z 02003KT 15SM BKN100 BKN250 10/M00 A2984 RMK AC7CI1 VIRGA SLP130

CYQF;2007-10-13 01:00;CYQF 130100Z 03004KT 15SM BKN100 OVC250 09/00 A2984 RMK AC6CI2 SLP132

CYQF;2007-10-13 02:00;CYQF 130200Z 06003KT 15SM BKN100 OVC250 08/M00 A2986 RMK AC6CI2 SLP137

CYQF;2007-10-13 03:00;CYQF 130300Z 00000KT 15SM OVC100 07/00 A2986 RMK AC8 SLP143

CYQF;2007-10-13 04:00;CYQF 130400Z 32003KT 15SM OVC100 06/01 A2988 RMK AC8 SLP149

CYQF;2007-10-13 05:00;CYQF 130500Z 00000KT 15SM BKN100 06/01 A2988 RMK AC6 SLP149

CYQF;2007-10-13 06:00;CYQF 130600Z 31003KT 15SM BKN100 04/01 A2990 RMK AC6 SLP149

CYQF;2007-10-13 07:00;CYQF 130700Z 00000KT 15SM SCT100 05/M00 A2989 RMK AC3 SLP148

CYQF;2007-10-13 08:00;CYQF 130800Z CCA 00000KT 15SM SCT100 02/M01 A2990 RMK AC2 SLP149

CYQF;2007-10-13 09:00;CYQF 130900Z 00000KT 15SM BKN090 02/M01 A2991 RMK AC6 SLP155

CYQF;2007-10-13 10:00;CYQF 131000Z 00000KT 15SM BKN100 02/M00 A2992 RMK AC7 SLP158

CYQF;2007-10-13 11:00;CYQF 131100Z 00000KT 15SM OVC100 02/M00 A2993 RMK AC8 SLP161

CYQF;2007-10-13 12:00;CYQF 131200Z 00000KT 15SM SKC 00/M03 A2994 RMK SLP166

CYQF;2007-10-13 13:00;CYQF 131300Z 00000KT 15SM FEW100 M00/M02 A2994 RMK AC1 SLP167

CYQF;2007-10-13 13:43;CYQF 131343Z 00000KT 3/4SM BR SKC RMK FG2 VIS SW-W 1/4 FOG

CYQF;2007-10-13 14:00;CYQF 131400Z CCA 19003KT 1/2SM FZFG FEW210 M03/M04 A2995 RMK FG1CI1 VIS SW-N 1/4 SLP171

CYQF;2007-10-13 14:05;CYQF 131405Z 21003KT 10SM FEW210 RMK CI1 VIS NW-N 3/4

CYQF;2007-10-13 15:00;CYQF 131500Z 00000KT 15SM SCT210 M00/M02 A2996 RMK CI1 SLP178

CYQF;2007-10-13 16:00;CYQF 131600Z 00000KT 15SM FEW250 03/00 A2996 RMK CI1 SLP179

CYQF;2007-10-13 17:00;CYQF 131700Z 18004KT 15SM FEW250 07/01 A2996 RMK CI1 SLP180

CYQF;2007-10-13 18:00;CYQF 131800Z 17007KT 15SM FEW250 09/01 A2997 RMK CI1 SLP173

CYQF;2007-10-13 19:00;CYQF 131900Z 16008KT 15SM BKN250 11/M01 A2995 RMK CI3 SLP167

CYQF;2007-10-13 20:00;CYQF 132000Z 20008KT 15SM FEW250 12/M01 A2993 RMK CI1 SLP161

CYQF;2007-10-13 21:00;CYQF 132100Z 17006KT 15SM SCT250 13/M01 A2992 RMK CI1 SLP155

CYQF;2007-10-13 22:00;CYQF 132200Z 16011KT 15SM FEW250 14/M01 A2991 RMK CI1 SLP152

CYQF;2007-10-13 23:00;CYQF 132300Z 19008KT 15SM SCT250 13/M01 A2990 RMK CI2 SLP150

CYQF;2007-10-14 00:00;CYQF 140000Z 14005KT 15SM BKN250 12/M01 A2990 RMK CI2 SLP153

CYQF;2007-10-14 01:00;CYQF 140100Z 14004KT 15SM SCT250 10/M00 A2991 RMK CI2 SLP156

CYQF;2007-10-14 02:00;CYQF 140200Z 15003KT 15SM FEW250 08/M01 A2992 RMK CI2 SLP158

CYQF;2007-10-14 03:00;CYQF 140300Z 00000KT 15SM FEW250 06/M02 A2993 RMK CI2 SLP169

CYQF;2007-10-14 04:00;CYQF 140400Z 19002KT 15SM FEW250 05/M02 A2993 RMK CI1 SLP170

CYQF;2007-10-14 05:00;CYQF 140500Z 17004KT 15SM FEW250 04/M02 A2994 RMK CI1 SLP172

CYQF;2007-10-14 06:00;CYQF 140600Z 17008KT 15SM FEW250 04/M02 A2994 RMK CI1 SLP164

CYQF;2007-10-14 07:00;CYQF 140700Z 19006KT 15SM SKC 04/M01 A2993 RMK SLP162

CYQF;2007-10-14 08:00;CYQF 140800Z 00000KT 15SM SKC 03/M01 A2994 RMK SLP165

CYQF;2007-10-14 09:00;CYQF 140900Z 18005KT 15SM SKC 02/M02 A2994 RMK SLP162

CYQF;2007-10-14 10:00;CYQF 141000Z 18005KT 15SM SKC 01/M02 A2994 RMK SLP163

CYQF;2007-10-14 11:00;CYQF 141100Z 19003KT 15SM SKC M00/M03 A2993 RMK SLP160

CYQF;2007-10-14 12:00;CYQF 141200Z 19002KT 15SM SKC M01/M03 A2993 RMK SLP164

CYQF;2007-10-14 13:00;CYQF 141300Z 19003KT 15SM SKC M01/M03 A2994 RMK SLP166

CYQF;2007-10-14 14:00;CYQF 141400Z 00000KT 10SM FEW080 M02/M04 A2994 RMK AC1 AC TR BR SLP166

CYQF;2007-10-14 15:00;CYQF 141500Z 18003KT 15SM FEW140 M00/M03 A2995 RMK AC1 SLP174

CYQF;2007-10-14 16:00;CYQF 141600Z 18003KT 15SM FEW140 04/M00 A2994 RMK AC1 SLP172

CYQF;2007-10-14 17:00;CYQF 141700Z 19004KT 15SM FEW140 SCT200 09/01 A2993 RMK AC1CI1 SLP168

CYQF;2007-10-14 18:00;CYQF 141800Z 20004KT 15SM FEW140 BKN200 15/02 A2991 RMK AC1CI2 SLP147

CYQF;2007-10-14 19:00;CYQF 141900Z 16010G17KT 15SM SCT200 17/01 A2990 RMK CI1 SLP143

CYQF;2007-10-14 20:00;CYQF 142000Z CCA 16010G16KT 15SM SCT200 18/01 A2988 RMK CI2 SLP137

CYQF;2007-10-14 21:00;CYQF 142100Z 16010G17KT 15SM SCT200 19/01 A2986 RMK CI2 SLP128

CYQF;2007-10-14 22:00;CYQF 142200Z 16010G16KT 15SM BKN200 19/01 A2985 RMK CI3 SLP125

CYQF;2007-10-14 23:00;CYQF 142300Z 16011G18KT 15SM FEW120 BKN250 19/M01 A2984 RMK AC2CI2 SLP121

CYQF;2007-10-15 00:00;CYQF 150000Z 16010KT 15SM FEW120 SCT250 17/M00 A2983 RMK AC2CI1 SLP123

CYQF;2007-10-15 01:00;CYQF 150100Z 16010KT 15SM FEW120 SCT250 15/M01 A2983 RMK AC1CI2 SLP123

CYQF;2007-10-15 02:00;CYQF 150200Z 16010G16KT 15SM FEW120 SCT250 12/00 A2982 RMK AC2CI1 SLP120

CYQF;2007-10-15 03:00;CYQF 150300Z 16009KT 15SM FEW120 10/00 A2982 RMK AC2 SLP125

CYQF;2007-10-15 04:00;CYQF 150400Z 17008KT 15SM FEW100 10/M00 A2981 RMK AC2 SLP124

CYQF;2007-10-15 06:00;CYQF 150600Z 17012KT 15SM FEW100 09/M01 A2978 RMK AC1 SLP096

CYQF;2007-10-15 07:00;CYQF 150700Z 18005KT 15SM FEW250 07/M01 A2977 RMK CI1 SLP094

CYQF;2007-10-15 08:00;CYQF 150800Z 15003KT 15SM FEW250 06/M00 A2976 RMK CI1 SLP090

CYQF;2007-10-15 09:00;CYQF 150900Z 15006KT 15SM FEW250 06/M00 A2975 RMK CI1 SLP084

CYQF;2007-10-15 10:00;CYQF 151000Z 18007KT 15SM SCT250 05/00 A2974 RMK CI2 SLP083

CYQF;2007-10-15 11:00;CYQF 151100Z 14004KT 15SM FEW250 05/M00 A2974 RMK CI2 SLP082

CYQF;2007-10-15 12:00;CYQF 151200Z 17005KT 15SM FEW250 04/M00 A2973 RMK CI1 SLP081

CYQF;2007-10-15 13:00;CYQF 151300Z 00000KT 15SM FEW250 03/M01 A2973 RMK CI1 SLP082

CYQF;2007-10-15 14:00;CYQF 151400Z 00000KT 15SM BKN200 02/M01 A2972 RMK CI2 SLP078

CYQF;2007-10-15 15:00;CYQF 151500Z 00000KT 15SM FEW110 SCT250 02/M01 A2972 RMK AC1CI1 SLP088

CYQF;2007-10-15 16:00;CYQF 151600Z 18003KT 15SM FEW110 SCT250 06/01 A2971 RMK AC1CI1 SLP086

CYQF;2007-10-15 17:00;CYQF 151700Z 18004KT 15SM FEW110 SCT250 08/02 A2970 RMK AC1CI1 SLP081

CYQF;2007-10-15 18:00;CYQF 151800Z 21004KT 15SM FEW110 FEW250 11/03 A2969 RMK AC1CI1 SLP070

CYQF;2007-10-15 19:00;CYQF 151900Z 16002KT 15SM FEW110 FEW250 14/03 A2966 RMK AC1CI2 SLP062

CYQF;2007-10-15 20:00;CYQF 152000Z 17003KT 15SM FEW100 FEW250 17/04 A2965 RMK AC2CI0 SLP056

CYQF;2007-10-15 21:00;CYQF 152100Z 12006KT 15SM FEW100 FEW250 18/04 A2964 RMK AC1CI1 SLP046

CYQF;2007-10-15 22:00;CYQF 152200Z 17006KT 15SM FEW100 FEW250 19/04 A2962 RMK AC1CI0 SLP042

CYQF;2007-10-15 23:00;CYQF 152300Z 14008KT 15SM SCT250 19/02 A2962 RMK CI1 SLP040

CYQF;2007-10-16 00:00;CYQF 160000Z 14006KT 15SM SCT250 17/02 A2962 RMK CI1 SLP044

CYQF;2007-10-16 01:00;CYQF 160100Z 13005KT 15SM FEW250 14/01 A2961 RMK CI1 SLP042

CYQF;2007-10-16 02:00;CYQF 160200Z 00000KT 15SM FEW250 10/00 A2960 RMK CI1 SLP038

CYQF;2007-10-16 03:00;CYQF 160300Z 17003KT 15SM SCT250 10/M00 A2958 RMK CI2 SLP041

CYQF;2007-10-16 04:00;CYQF 160400Z 19006KT 15SM FEW250 08/M00 A2957 RMK CI1 SLP038

CYQF;2007-10-16 05:00;CYQF 160500Z 19005KT 15SM SKC 07/M00 A2957 RMK SLP037

CYQF;2007-10-16 06:00;CYQF 160600Z 19003KT 15SM SKC 04/M02 A2956 RMK SLP030

CYQF;2007-10-16 07:00;CYQF 160700Z 15004KT 15SM SKC 04/M01 A2955 RMK SLP028

CYQF;2007-10-16 08:00;CYQF 160800Z 18004KT 15SM FEW250 02/M02 A2954 RMK CI1 SLP025

CYQF;2007-10-16 09:00;CYQF 160900Z 17005KT 15SM FEW250 02/M02 A2954 RMK CI1 SLP017

CYQF;2007-10-16 10:00;CYQF 161000Z 19005KT 15SM SKC 00/M03 A2952 RMK SLP013

CYQF;2007-10-16 11:00;CYQF 161100Z 20004KT 15SM FEW250 00/M03 A2951 RMK CI1 SLP010

CYQF;2007-10-16 12:00;CYQF 161200Z 24006KT 15SM SKC M01/M03 A2950 RMK SLP010

CYQF;2007-10-16 13:00;CYQF 161300Z 18004KT 15SM FEW250 M01/M03 A2948 RMK CI1 SLP004

CYQF;2007-10-16 14:00;CYQF 161400Z 16005KT 15SM FEW150 BKN250 00/M03 A2947 RMK AC2CI1 SLP001

CYQF;2007-10-16 15:00;CYQF 161500Z 16002KT 15SM SCT120 BKN250 01/M01 A2947 RMK AC3CI1 SLP003

CYQF;2007-10-16 16:00;CYQF 161600Z 15007KT 15SM SCT120 BKN250 03/00 A2947 RMK AC3CI1 SLP002

CYQF;2007-10-16 17:00;CYQF 161700Z 18004KT 15SM FEW100 BKN250 08/02 A2945 RMK AC2CI2 CC ASCTD SLP996

CYQF;2007-10-16 18:00;CYQF 161800Z 15002KT 15SM SCT100 BKN250 12/03 A2943 RMK AC3CI2 SLP985

CYQF;2007-10-16 19:00;CYQF 161900Z 12004KT 15SM SCT100 BKN250 15/04 A2942 RMK AC4CI2 SLP980

CYQF;2007-10-16 20:00;CYQF 162000Z 13010KT 15SM BKN100 BKN250 14/03 A2940 RMK AC6CI2 SLP976

CYQF;2007-10-16 21:00;CYQF 162100Z 14006KT 15SM BKN100 BKN250 15/03 A2939 RMK AC6CI2 SLP969

CYQF;2007-10-16 22:00;CYQF 162200Z 15010KT 15SM BKN100 BKN250 14/03 A2938 RMK AC6CI2 SLP966

CYQF;2007-10-16 23:00;CYQF 162300Z 15012KT 15SM BKN100 BKN250 15/04 A2936 RMK AC6CI2 SLP961

CYQF;2007-10-17 00:00;CYQF 170000Z 13010KT 15SM SCT100 BKN250 14/04 A2936 RMK AC4CI2 SLP962

CYQF;2007-10-17 01:00;CYQF 170100Z 14010KT 15SM FEW100 BKN250 12/03 A2935 RMK AC2CI2 SLP960

CYQF;2007-10-17 02:00;CYQF 170200Z 15007KT 15SM FEW100 BKN250 11/03 A2934 RMK AC2CI2 SLP956

CYQF;2007-10-17 03:00;CYQF 170300Z 00000KT 15SM BKN250 07/02 A2934 RMK CI3 SLP960

CYQF;2007-10-17 04:00;CYQF 170400Z 20007KT 15SM SCT250 04/00 A2934 RMK CI2 SLP960

CYQF;2007-10-17 05:00;CYQF 170500Z 00000KT 15SM BKN250 04/00 A2934 RMK CI3 SLP961

CYQF;2007-10-17 06:00;CYQF 170600Z 19006KT 15SM FEW250 02/M01 A2935 RMK CI1 SLP958

CYQF;2007-10-17 07:00;CYQF 170700Z 20004KT 15SM FEW250 00/M03 A2935 RMK CI1 SLP959

CYQF;2007-10-17 08:00;CYQF 170800Z 20005KT 15SM FEW250 01/M03 A2936 RMK CI2 SLP962

CYQF;2007-10-17 09:00;CYQF 170900Z 00000KT 15SM SCT120 01/M03 A2937 RMK AC3 SLP963

CYQF;2007-10-17 10:00;CYQF 171000Z 18005KT 15SM FEW120 SCT250 01/M03 A2937 RMK AC1CI0 SLP963

CYQF;2007-10-17 11:00;CYQF 171100Z 00000KT 15SM FEW120 FEW250 01/M03 A2938 RMK AC1CI0 SLP966

CYQF;2007-10-17 12:00;CYQF 171200Z 19003KT 15SM FEW250 M00/M03 A2939 RMK CI0 SLP971

CYQF;2007-10-17 13:00;CYQF 171300Z 27005KT 15SM FEW120 FEW250 M00/M03 A2940 RMK AC1CI0 SLP976

CYQF;2007-10-17 14:00;CYQF 171400Z 26007KT 15SM SCT060 SCT100 BKN250 02/M01 A2942 RMK SC3AC1CI2 SLP981

CYQF;2007-10-17 15:00;CYQF 171500Z 28005KT 15SM SCT060 SCT100 BKN250 05/01 A2944 RMK SC3AC1CI2 SLP990

CYQF;2007-10-17 16:00;CYQF 171600Z 26005KT 15SM BKN090 BKN250 07/02 A2945 RMK AC5CI1 SLP995

CYQF;2007-10-17 17:00;CYQF 171700Z 33011KT 15SM SCT090 BKN250 09/02 A2946 RMK AC4CI2 SLP998

CYQF;2007-10-17 18:00;CYQF 171800Z 32010KT 15SM BKN090 BKN250 09/03 A2947 RMK AC6CI1 SLP004

CYQF;2007-10-17 19:00;CYQF 171900Z 33008KT 15SM BKN090 BKN250 10/03 A2949 RMK AC6CI1 SLP009

CYQF;2007-10-17 20:00;CYQF 172000Z 31006KT 15SM BKN100 BKN250 10/04 A2949 RMK AC6CI1 SLP010

CYQF;2007-10-17 21:00;CYQF 172100Z 32005KT 15SM BKN100 BKN250 11/03 A2951 RMK AC6CI1 SLP014

CYQF;2007-10-17 22:00;CYQF 172200Z 35003KT 15SM FEW100 BKN250 12/02 A2952 RMK AC2CI2 SLP018

CYQF;2007-10-17 23:00;CYQF 172300Z 35006KT 15SM FEW100 SCT250 11/00 A2953 RMK AC2CI1 SLP022

CYQF;2007-10-18 00:00;CYQF 180000Z 33002KT 15SM FEW100 BKN250 09/01 A2955 RMK AC2CI1 SLP033

CYQF;2007-10-18 01:00;CYQF 180100Z 00000KT 15SM FEW100 BKN250 06/M01 A2957 RMK AC2CI2 SLP039

CYQF;2007-10-18 02:00;CYQF 180200Z 00000KT 15SM FEW100 SCT250 04/M02 A2960 RMK AC1CI2 SLP049

CYQF;2007-10-18 03:00;CYQF 180300Z 27004KT 15SM SCT250 02/M02 A2962 RMK CI2 SLP059

CYQF;2007-10-18 04:00;CYQF 180400Z 19003KT 15SM FEW080 SCT250 02/M02 A2963 RMK AC2CI1 SLP064

CYQF;2007-10-18 05:00;CYQF 180500Z 25008KT 15SM SCT080 BKN250 03/M01 A2965 RMK AC3CI1 SLP070

CYQF;2007-10-18 06:00;CYQF 180600Z 27005KT 15SM BKN120 06/00 A2967 RMK AC6 SLP068

CYQF;2007-10-18 07:00;CYQF 180700Z 28010KT 15SM -RA OVC100 07/01 A2968 RMK AC8 SLP073

CYQF;2007-10-18 08:00;CYQF 180800Z 27005KT 15SM OVC080 07/02 A2969 RMK AC8 SLP075

CYQF;2007-10-18 09:00;CYQF 180900Z 27004KT 15SM BKN100 04/M02 A2971 RMK AC6 SLP084

CYQF;2007-10-18 10:00;CYQF 181000Z 25004KT 15SM BKN080 04/M02 A2972 RMK AC6 SLP086

CYQF;2007-10-18 11:00;CYQF 181100Z 20003KT 15SM BKN080 02/M03 A2973 RMK AC5 SLP089

CYQF;2007-10-18 12:00;CYQF 181200Z 22005KT 15SM SCT080 01/M04 A2973 RMK AC3 SLP095

CYQF;2007-10-18 13:00;CYQF 181300Z 23006KT 15SM BKN080 00/M04 A2974 RMK AC5 SLP097

CYQF;2007-10-18 14:00;CYQF 181400Z 22006KT 15SM SCT080 BKN250 00/M05 A2973 RMK AC3CI1 SLP096

CYQF;2007-10-18 15:00;CYQF 181500Z 00000KT 15SM FEW080 M00/M05 A2973 RMK AC1 SLP104

CYQF;2007-10-18 16:00;CYQF 181600Z 22005KT 15SM FEW080 02/M04 A2973 RMK AC1 SLP103

CYQF;2007-10-18 17:00;CYQF 181700Z 23003KT 15SM FEW080 05/M04 A2971 RMK AC1 SLP099

CYQF;2007-10-18 18:00;CYQF 181800Z 18003KT 15SM FEW080 08/M03 A2970 RMK AC1 SLP080

CYQF;2007-10-18 19:00;CYQF 181900Z 18002KT 15SM FEW080 11/M05 A2967 RMK AC1 SLP071

CYQF;2007-10-18 20:00;CYQF 182000Z 24002KT 15SM FEW080 11/M07 A2965 RMK AC1 SLP063

CYQF;2007-10-18 21:00;CYQF 182100Z 15006KT 15SM FEW090 SCT250 12/M07 A2961 RMK AC2CI0 SLP048

CYQF;2007-10-18 22:00;CYQF 182200Z 16010KT 15SM FEW090 SCT250 12/M07 A2959 RMK AC1CI1 SLP040

CYQF;2007-10-18 23:00;CYQF 182300Z 18010KT 15SM FEW060 BKN120 BKN250 10/M06 A2957 RMK SC2AC2CI2 SLP035

CYQF;2007-10-19 00:00;CYQF 190000Z 17010KT 15SM FEW100 BKN250 10/M06 A2955 RMK AC2CI1 SLP031

CYQF;2007-10-19 01:00;CYQF 190100Z 15008KT 15SM FEW100 SCT250 06/M07 A2953 RMK AC2CI1 SLP024

CYQF;2007-10-19 02:00;CYQF 190200Z 13007KT 15SM FEW100 SCT250 06/M07 A2950 RMK AC2CI1 SLP015

CYQF;2007-10-19 03:00;CYQF 190300Z 16008KT 15SM FEW100 SCT250 05/M06 A2947 RMK AC1CI2 SLP010

CYQF;2007-10-19 04:00;CYQF 190400Z 17006KT 15SM FEW100 SCT250 05/M06 A2945 RMK AC2CI1 SLP004

CYQF;2007-10-19 05:00;CYQF 190500Z 14006KT 15SM SCT100 BKN250 03/M06 A2943 RMK AC4CI1 SLP998

CYQF;2007-10-19 06:00;CYQF 190600Z 00000KT 15SM FEW100 BKN250 03/M06 A2941 RMK AC2CI2 SLP984

CYQF;2007-10-19 07:00;CYQF 190700Z 12004KT 15SM FEW080 SCT250 03/M06 A2938 RMK AC2CI0 SLP975

CYQF;2007-10-19 08:00;CYQF 190800Z 16003KT 15SM FEW080 SCT250 00/M06 A2937 RMK AC2CI0 SLP970

CYQF;2007-10-19 09:00;CYQF 190900Z 00000KT 15SM BKN080 BKN250 M00/M06 A2936 RMK AC5CI0 SLP965

CYQF;2007-10-19 10:00;CYQF 191000Z 07002KT 15SM SCT080 BKN250 01/M05 A2935 RMK AC4CI0 SLP961

CYQF;2007-10-19 11:00;CYQF 191100Z 00000KT 15SM FEW080 M02/M06 A2933 RMK AC2 SLP956

CYQF;2007-10-19 12:00;CYQF 191200Z 00000KT 15SM SKC M03/M07 A2932 RMK SLP957

CYQF;2007-10-19 13:00;CYQF 191300Z 00000KT 15SM SKC M03/M07 A2932 RMK SLP957

CYQF;2007-10-19 14:00;CYQF 191400Z 17006KT 15SM FEW100 M05/M08 A2932 RMK AC1 SLP955

CYQF;2007-10-19 15:00;CYQF 191500Z 00000KT 15SM BKN100 M03/M06 A2932 RMK AC5 SLP961

CYQF;2007-10-19 16:00;CYQF 191600Z 00000KT 15SM BKN080 M00/M04 A2932 RMK AC5 SLP961

CYQF;2007-10-19 17:00;CYQF 191700Z 18003KT 15SM BKN080 02/M03 A2933 RMK AC6 SLP963

CYQF;2007-10-19 18:00;CYQF 191800Z 00000KT 15SM BKN070 04/M03 A2932 RMK AC6 SLP958

CYQF;2007-10-19 19:00;CYQF 191900Z 00000KT 15SM BKN070 05/M03 A2932 RMK AC6 SLP956

CYQF;2007-10-19 20:00;CYQF 192000Z 00000KT 15SM FEW080 08/M03 A2931 RMK AC2 SLP955

CYQF;2007-10-19 21:00;CYQF 192100Z 04003KT 15SM FEW100 10/M03 A2931 RMK AC2 SLP950

CYQF;2007-10-19 22:00;CYQF 192200Z 04005KT 15SM FEW100 BKN250 11/M03 A2930 RMK AC2CI1 SLP946

CYQF;2007-10-19 23:00;CYQF 192300Z 07003KT 15SM FEW100 BKN250 10/M03 A2930 RMK AC2CI2 SLP946

CYQF;2007-10-20 00:00;CYQF 200000Z 04004KT 15SM SCT100 BKN250 09/M03 A2931 RMK AC3CI2 SLP952

CYQF;2007-10-20 01:00;CYQF 200100Z 34003KT 15SM FEW050TCU BKN100 OVC250 06/M03 A2931 RMK TCU2AC3CI2 VIRGA/SHWRS SW-W SLP954

CYQF;2007-10-20 02:00;CYQF 200200Z 19005KT 15SM FEW050 BKN090 OVC250 07/M03 A2935 RMK SC2AC4CI2 VIRGA SLP964

CYQF;2007-10-20 03:00;CYQF 200300Z 22003KT 15SM OVC090 07/M01 A2936 RMK AC8 SLP973

CYQF;2007-10-20 03:51;CYQF 200351Z 24010KT 15SM -SHRA BKN025 OVC090 RMK SC5AC3 TCU EMBD

CYQF;2007-10-20 04:00;CYQF 200400Z 24010G15KT 12SM -SHRA BKN025 OVC090 05/01 A2939 RMK SC5AC3 TCU EMBD SLP983

CYQF;2007-10-20 04:37;CYQF 200437Z 02008KT 15SM SCT025 OVC090 RMK SC3AC5

CYQF;2007-10-20 05:00;CYQF 200500Z 36005KT 15SM FEW025 OVC100 04/01 A2939 RMK SC2AC6 SLP982

CYQF;2007-10-20 06:00;CYQF 200600Z 33004KT 15SM FEW025 OVC100 03/02 A2940 RMK SC2AC6 SLP985

CYQF;2007-10-20 07:00;CYQF 200700Z 34006KT 15SM FEW025 OVC100 03/01 A2942 RMK SC1AC7 SLP989

CYQF;2007-10-20 08:00;CYQF 200800Z 34005KT 15SM BKN028 OVC100 02/01 A2943 RMK SC5AC3 SLP994

CYQF;2007-10-20 09:00;CYQF 200900Z 28002KT 15SM BKN025 OVC100 02/01 A2946 RMK SC6AC2 SLP999

CYQF;2007-10-20 09:27;CYQF 200927Z 27006KT 15SM -SHRA FEW015 BKN025 OVC100 RMK SC2SC5AC2

CYQF;2007-10-20 10:00;CYQF 201000Z 31005KT 15SM -SHRA BKN011 OVC025 02/01 A2948 RMK ST5SC3 SLP006

CYQF;2007-10-20 11:00;CYQF 201100Z 31003KT 15SM -SHRA BKN010 OVC025 02/01 A2950 RMK ST6SC2 SLP011

CYQF;2007-10-20 11:43;CYQF 201143Z 30003KT 15SM FEW010 SCT025 OVC100 RMK ST2SC2AC5

CYQF;2007-10-20 12:00;CYQF 201200Z 29002KT 15SM FEW010 SCT025 OVC100 01/00 A2951 RMK ST1SC2AC5 SLP017

CYQF;2007-10-20 13:00;CYQF 201300Z 27002KT 15SM FEW025 OVC100 01/00 A2952 RMK SC2AC6 SLP022

CYQF;2007-10-20 14:00;CYQF 201400Z 27005KT 15SM FEW015 BKN090 OVC250 02/00 A2954 RMK SC2AC6CI1 SLP027

CYQF;2007-10-20 15:00;CYQF 201500Z 28008KT 15SM FEW015 BKN090 BKN250 02/01 A2955 RMK SC1AC4CI1 SLP034

CYQF;2007-10-20 16:00;CYQF 201600Z 29013KT 15SM FEW015 FEW090 BKN250 03/01 A2958 RMK SC1AC2CI2 SLP044

CYQF;2007-10-20 17:00;CYQF 201700Z 30012KT 15SM FEW090 BKN250 04/01 A2961 RMK AC2CI2 SLP052

CYQF;2007-10-20 18:00;CYQF 201800Z 29012KT 15SM FEW090 BKN250 05/01 A2963 RMK AC2CI2 SLP060

CYQF;2007-10-20 19:00;CYQF 201900Z 30011KT 15SM FEW025 BKN250 07/01 A2964 RMK CU2CI0 SLP065

CYQF;2007-10-20 20:00;CYQF 202000Z 34012KT 15SM FEW030 SCT250 08/M00 A2965 RMK CU2CI1 SLP068

CYQF;2007-10-20 21:00;CYQF 202100Z 32010G15KT 15SM FEW035 SCT250 08/M01 A2967 RMK CU2CI1 SLP074

CYQF;2007-10-20 22:00;CYQF 202200Z 33010KT 15SM FEW035 FEW090 SCT250 08/M02 A2969 RMK CU2AC1CI1 SLP080

CYQF;2007-10-20 23:00;CYQF 202300Z 32010KT 15SM FEW035 08/M02 A2971 RMK CU2 FEW TCU SLP087

CYQF;2007-10-21 00:00;CYQF 210000Z 35005KT 15SM FEW040TCU SCT090 06/M01 A2975 RMK TCU2AC2 VIRGA SLP104

CYQF;2007-10-21 01:00;CYQF 210100Z 03003KT 15SM FEW040TCU FEW090 04/M02 A2977 RMK TCU1AC1 VIRGA SLP112

CYQF;2007-10-21 02:00;CYQF 210200Z 00000KT 15SM FEW090 02/M03 A2981 RMK AC1 SLP122

CYQF;2007-10-21 03:00;CYQF 210300Z 24006KT 15SM SCT100 M00/M03 A2984 RMK AC4 SLP141

CYQF;2007-10-21 04:00;CYQF 210400Z 25007KT 15SM SCT100 M00/M03 A2986 RMK AC3 SLP150

CYQF;2007-10-21 05:00;CYQF 210500Z 26005KT 15SM BKN100 01/M02 A2989 RMK AC6 SLP159

CYQF;2007-10-21 06:00;CYQF 210600Z 26008KT 15SM BKN100 01/M02 A2992 RMK AC6 SLP163

CYQF;2007-10-21 07:00;CYQF 210700Z 30008KT 15SM BKN090 02/M02 A2995 RMK AC6 SLP175

CYQF;2007-10-21 08:00;CYQF 210800Z 31007KT 15SM BKN100 02/M02 A2999 RMK AC6 SLP186

CYQF;2007-10-21 09:00;CYQF 210900Z 25005KT 15SM BKN100 01/M02 A3001 RMK AC6 SLP192

CYQF;2007-10-21 10:00;CYQF 211000Z 24003KT 15SM BKN100 01/M02 A3003 RMK AC6 SLP198

CYQF;2007-10-21 11:00;CYQF 211100Z 26005KT 15SM FEW100 M00/M02 A3004 RMK AC2 SLP202

CYQF;2007-10-21 12:00;CYQF 211200Z 25007KT 15SM FEW100 M00/M02 A3006 RMK AC2 SLP214

CYQF;2007-10-21 13:00;CYQF 211300Z 25007KT 15SM FEW100 M01/M04 A3008 RMK AC2 SLP220

CYQF;2007-10-21 14:00;CYQF 211400Z 00000KT 15SM FEW080 SCT250 M01/M04 A3011 RMK AC2CI0 SLP230

CYQF;2007-10-21 15:00;CYQF 211500Z 19003KT 15SM FEW080 FEW250 M02/M04 A3013 RMK AC1CI0 SLP248

CYQF;2007-10-21 16:00;CYQF 211600Z 20004KT 15SM FEW250 00/M03 A3015 RMK CI1 SLP254

CYQF;2007-10-21 17:00;CYQF 211700Z 21002KT 15SM FEW250 03/M02 A3016 RMK CI1 SLP257

CYQF;2007-10-21 18:00;CYQF 211800Z 17003KT 15SM BKN250 06/M00 A3015 RMK CI2 SLP244

CYQF;2007-10-21 19:00;CYQF 211900Z 17005KT 15SM BKN250 08/M02 A3014 RMK CI2 SLP241

CYQF;2007-10-21 20:00;CYQF 212000Z 17009KT 15SM FEW090 OVC250 09/M03 A3012 RMK AC1CI3 SLP234

CYQF;2007-10-21 21:00;CYQF 212100Z 17006KT 15SM FEW090 OVC250 10/M04 A3010 RMK AC2CI3 SLP223

CYQF;2007-10-21 22:00;CYQF 212200Z 17008KT 15SM FEW060 OVC230 10/M04 A3009 RMK SC1CI5 SLP219

CYQF;2007-10-21 23:00;CYQF 212300Z 16007KT 15SM FEW060 OVC230 09/M04 A3007 RMK SC1CI5 SLP212

CYQF;2007-10-22 00:00;CYQF 220000Z 13005KT 15SM FEW060 SCT140 OVC230 08/M03 A3005 RMK SC1AC2CI2 SLP207

CYQF;2007-10-22 01:00;CYQF 220100Z 17003KT 15SM BKN120 OVC230 06/M03 A3005 RMK AC5CI2 SLP206

CYQF;2007-10-22 02:00;CYQF 220200Z 19004KT 15SM BKN120 OVC230 04/M02 A3005 RMK AC5CI2 SLP206

CYQF;2007-10-22 03:00;CYQF 220300Z 20007KT 15SM BKN120 OVC230 03/M03 A3002 RMK AC6CI2 BARO READ H+12 SLP207

CYQF;2007-10-22 04:00;CYQF 220400Z 23004KT 15SM OVC120 03/M04 A3002 RMK AC8 SLP205

CYQF;2007-10-22 05:00;CYQF 220500Z 21004KT 15SM OVC120 03/M04 A3002 RMK AC8 SLP205

CYQF;2007-10-22 06:00;CYQF 220600Z 22006KT 15SM OVC120 04/M03 A3002 RMK AC8 SLP194

CYQF;2007-10-22 07:00;CYQF 220700Z 22006KT 15SM OVC120 04/M04 A3001 RMK AC8 SLP193

CYQF;2007-10-22 08:00;CYQF 220800Z 21006KT 15SM OVC120 04/M03 A3001 RMK AC8 SLP191

CYQF;2007-10-22 09:00;CYQF 220900Z 22002KT 15SM OVC120 05/M03 A3000 RMK AC8 SLP184

CYQF;2007-10-22 10:00;CYQF 221000Z 25006KT 15SM OVC120 06/M02 A3002 RMK AC8 SLP188

CYQF;2007-10-22 11:00;CYQF 221100Z 24005KT 15SM OVC120 07/M03 A3002 RMK AC8 SLP188

CYQF;2007-10-22 12:00;CYQF 221200Z 25008KT 15SM BKN120 OVC250 08/M01 A3002 RMK AC6CI2 SLP187

CYQF;2007-10-22 13:00;CYQF 221300Z 21007KT 15SM BKN100 OVC250 06/M00 A3001 RMK AC6CI2 SLP185

CYQF;2007-10-22 14:00;CYQF 221400Z 22006KT 15SM OVC120 05/M01 A2998 RMK AC8 SLP175

CYQF;2007-10-22 15:00;CYQF 221500Z 22007KT 15SM OVC120 07/M01 A2995 RMK AC7 SLP173

CYQF;2007-10-22 16:00;CYQF 221600Z 22007KT 15SM OVC120 08/01 A2995 RMK AC7 SLP172

CYQF;2007-10-22 17:00;CYQF 221700Z 24010KT 15SM FEW090 BKN120 BKN250 12/01 A2994 RMK AC1AC4CI1 SLP168

CYQF;2007-10-22 18:00;CYQF 221800Z 30005KT 15SM FEW110 BKN250 13/M00 A2992 RMK AC1CI2 SLP151

CYQF;2007-10-22 19:00;CYQF 221900Z 25008KT 15SM FEW110 BKN250 14/01 A2990 RMK AC1CI2 SLP146

CYQF;2007-10-22 20:00;CYQF 222000Z 27005KT 15SM FEW050 BKN120 15/M00 A2988 RMK CU1AC3 SLP140

CYQF;2007-10-22 21:00;CYQF 222100Z 16003KT 15SM FEW060 SCT120 BKN250 16/M01 A2986 RMK CU1AC2CI1 SLP127

CYQF;2007-10-22 22:00;CYQF 222200Z 19006KT 15SM FEW060 SCT250 17/M00 A2984 RMK CU1CI1 SLP120

CYQF;2007-10-22 23:00;CYQF 222300Z 18007KT 15SM FEW060 FEW250 17/00 A2982 RMK SC1CI1 SLP114

CYQF;2007-10-23 00:00;CYQF 230000Z 20003KT 15SM FEW060 FEW080 SCT250 15/01 A2981 RMK SC1AC1CI1 AC INVDG SLOWLY FM N SLP109

CYQF;2007-10-23 01:00;CYQF 230100Z 00000KT 15SM FEW060 SCT080 BKN250 10/00 A2982 RMK SC1AC2CI1 SLP111

CYQF;2007-10-23 02:00;CYQF 230200Z 30005KT 15SM FEW090 BKN250 10/01 A2985 RMK AC2CI0 SLP119

CYQF;2007-10-23 03:00;CYQF 230300Z 03010KT 15SM SCT090 BKN250 09/01 A2988 RMK AC3CI0 SLP141

CYQF;2007-10-23 04:00;CYQF 230400Z 03006KT 15SM SCT250 07/01 A2991 RMK CI1 SLP148

CYQF;2007-10-23 05:00;CYQF 230500Z 03005KT 15SM BKN250 04/00 A2993 RMK CI1 SLP156

CYQF;2007-10-23 06:00;CYQF 230600Z 36003KT 15SM SCT250 04/00 A2996 RMK CI2 SLP167

CYQF;2007-10-23 07:00;CYQF 230700Z 36003KT 15SM SCT250 03/00 A3000 RMK CI2 SLP178

CYQF;2007-10-23 08:00;CYQF 230800Z 00000KT 15SM FEW080 SCT250 03/M00 A3003 RMK AC1CI1 SLP188

CYQF;2007-10-23 09:00;CYQF 230900Z 27003KT 15SM FEW080 SCT250 01/M01 A3007 RMK AC1CI1 SLP206

CYQF;2007-10-23 10:00;CYQF 231000Z 23002KT 15SM FEW080 SCT250 M01/M03 A3008 RMK AC1CI1 SLP209

CYQF;2007-10-23 11:00;CYQF 231100Z 26002KT 15SM FEW080 SCT250 M00/M02 A3012 RMK AC2CI1 SLP220

CYQF;2007-10-23 12:00;CYQF 231200Z 18003KT 15SM FEW250 M01/M03 A3015 RMK CI1 SLP235

CYQF;2007-10-23 13:00;CYQF 231300Z 17004KT 15SM FEW080 SCT250 M02/M04 A3016 RMK AC2CI1 SLP238

CYQF;2007-10-23 14:00;CYQF 231400Z 19002KT 15SM SCT080 BKN250 M01/M03 A3018 RMK AC2CI3 SLP245

CYQF;2007-10-23 15:00;CYQF 231500Z 20005KT 15SM SCT017 BKN080 BKN250 M01/M02 A3019 RMK SC2AC3CI2 SLP257

CYQF;2007-10-23 16:00;CYQF 231600Z CCA 18003KT 10SM FEW017 FEW080 BKN250 02/M00 A3019 RMK SC1AC1CI3 HZ SLP256

CYQF;2007-10-23 17:00;CYQF 231700Z 16009KT 8SM FEW017 BKN250 05/03 A3017 RMK SC1CI6 HZ SC TR DIST N SLP250

CYQF;2007-10-23 18:00;CYQF 231800Z 16014KT 15SM FEW016 BKN250 07/04 A3015 RMK SC1CI6 SLP239

CYQF;2007-10-23 19:00;CYQF 231900Z 17012KT 15SM BKN080 BKN250 10/04 A3013 RMK AC5CI1 SLP232

CYQF;2007-10-23 20:00;CYQF 232000Z 17010G15KT 15SM FEW040 SCT080 BKN200 11/04 A3010 RMK SC1AC2CI5 SLP224

CYQF;2007-10-23 21:00;CYQF 232100Z 16008KT 15SM FEW040 BKN080 BKN210 12/05 A3007 RMK SC1AC4CI2 SLP208

CYQF;2007-10-23 22:00;CYQF 232200Z 13005KT 15SM FEW040 FEW120 BKN210 12/05 A3005 RMK SC1AC2CI6 SLP202

CYQF;2007-10-23 23:00;CYQF 232300Z 15005KT 15SM FEW040 FEW120 BKN210 13/05 A3003 RMK SC1AC2CI6 SLP197

CYQF;2007-10-24 00:00;CYQF 240000Z 15005KT 15SM FEW040 BKN210 13/05 A3002 RMK SC1CI7 SLP193

CYQF;2007-10-24 01:00;CYQF 240100Z 22010G15KT 15SM FEW040 BKN210 13/05 A3000 RMK SC1CI5 SLP186

CYQF;2007-10-24 02:00;CYQF 240200Z 22010KT 15SM BKN210 16/05 A2999 RMK CI6 SLP183

CYQF;2007-10-24 03:00;CYQF 240300Z 21012KT 15SM BKN210 15/05 A2997 RMK CI5 SLP173

CYQF;2007-10-24 04:00;CYQF 240400Z 22010G15KT 15SM OVC150 16/05 A2996 RMK AC6 SLP170

CYQF;2007-10-24 05:00;CYQF 240500Z 21010G15KT 15SM OVC150 15/05 A2995 RMK AC6 SLP167

CYQF;2007-10-24 06:00;CYQF 240600Z 22010G15KT 15SM OVC150 16/04 A2994 RMK AC6 SLP152

CYQF;2007-10-24 07:00;CYQF 240700Z 20010KT 15SM SCT140 OVC240 13/04 A2993 RMK AC3CI3 SLP148

CYQF;2007-10-24 08:00;CYQF 240800Z 21008KT 15SM SCT120 OVC240 15/04 A2991 RMK AC3CI3 SLP142

CYQF;2007-10-24 09:00;CYQF 240900Z 21012KT 15SM FEW120 BKN240 13/04 A2987 RMK AC2CI2 SLP128

CYQF;2007-10-24 10:00;CYQF 241000Z 18010KT 15SM FEW120 BKN240 13/03 A2984 RMK AC2CI2 SLP116

CYQF;2007-10-24 11:00;CYQF 241100Z 20012G18KT 15SM FEW120 BKN240 15/03 A2979 RMK AC2CI2 SLP102

CYQF;2007-10-24 12:00;CYQF 241200Z 18010G15KT 15SM FEW120 BKN240 14/03 A2976 RMK AC2CI2 SLP086

CYQF;2007-10-24 13:00;CYQF 241300Z 18010G15KT 15SM SCT120 BKN240 14/03 A2975 RMK AC3CI2 SLP082

CYQF;2007-10-24 14:00;CYQF 241400Z 18004KT 15SM SCT120 BKN240 13/02 A2973 RMK AC3CI3 SLP076

CYQF;2007-10-24 15:00;CYQF 241500Z 19005KT 15SM SCT120 BKN250 12/03 A2970 RMK AC3CI2 SLP066

CYQF;2007-10-24 16:00;CYQF 241600Z 16007KT 15SM SCT120 BKN250 13/03 A2968 RMK AC3CI2 SLP058

CYQF;2007-10-24 17:00;CYQF 241700Z 20010G15KT 15SM SCT120 BKN250 18/04 A2966 RMK AC4CI2 SLP054

CYQF;2007-10-24 18:00;CYQF 241800Z 18010KT 15SM SCT120 BKN250 20/04 A2964 RMK AC3CI2 SLP036

CYQF;2007-10-24 19:00;CYQF 241900Z 20010G15KT 15SM SCT120 BKN250 23/03 A2961 RMK AC3CI2 SLP025

CYQF;2007-10-24 20:00;CYQF 242000Z 23018G26KT 15SM FEW040 SCT120 BKN250 23/02 A2957 RMK CU1AC3CI2 SLP013

CYQF;2007-10-24 21:00;CYQF 242100Z 22020G28KT 15SM FEW040 SCT120 BKN250 23/02 A2956 RMK CU2AC2CI2 SLP007

CYQF;2007-10-24 22:00;CYQF 242200Z 24012G19KT 15SM FEW050 BKN120 BKN250 21/02 A2956 RMK CU2AC2CI1 SLP009

CYQF;2007-10-24 22:39;CYQF 242239Z 36020G30KT 15SM BKN080 BKN250 RMK AC6CI1 PRESRR WSHFT 2230

CYQF;2007-10-24 23:00;CYQF 242300Z 35020G30KT 15SM BKN080 BKN250 14/06 A2964 RMK AC6CI1 PRESRR SLP032

CYQF;2007-10-25 00:00;CYQF 250000Z 36020G32KT 15SM BKN080 BKN250 08/01 A2972 RMK AC6CI2 PRESRR SLP076

CYQF;2007-10-25 01:00;CYQF 250100Z 35020G25KT 15SM BKN080 BKN250 05/M01 A2977 RMK AC6CI2 SLP094

CYQF;2007-10-25 01:33;CYQF 250133Z 34015G25KT 15SM -RA OVC080 RMK AC8

CYQF;2007-10-25 02:00;CYQF 250200Z 35015G20KT 10SM -RA OVC070 02/M00 A2983 RMK AC8 SLP110

CYQF;2007-10-25 02:09;CYQF 250209Z 33010G15KT 8SM -RASN SCT014 OVC050 RMK SC4SC4

CYQF;2007-10-25 02:28;CYQF 250228Z 33010G15KT 5SM -RASN OVC014 RMK SC8

CYQF;2007-10-25 03:00;CYQF 250300Z 32008KT 10SM -RA BKN006 OVC014 02/00 A2985 RMK SC5SC3 SLP133

CYQF;2007-10-25 03:48;CYQF 250348Z 33006KT 15SM FEW006 BKN014 OVC080 RMK SF2SC4AC2

CYQF;2007-10-25 04:00;CYQF 250400Z 31005KT 15SM FEW006 BKN020 OVC080 02/00 A2985 RMK SF1SC6AC2 SLP134

CYQF;2007-10-25 05:00;CYQF 250500Z 26006KT 15SM BKN020 OVC080 02/00 A2986 RMK SC5AC3 SLP136

CYQF;2007-10-25 06:00;CYQF 250600Z 26003KT 15SM FEW025 OVC080 02/M00 A2989 RMK SC2AC6 SLP137

CYQF;2007-10-25 07:00;CYQF 250700Z 23005KT 15SM OVC080 02/M00 A2989 RMK AC7 SLP138

CYQF;2007-10-25 08:00;CYQF 250800Z 24008KT 15SM BKN080 02/M01 A2991 RMK AC6 SLP144

CYQF;2007-10-25 09:00;CYQF 250900Z 00000KT 15SM OVC090 02/M01 A2993 RMK AC7 SLP147

CYQF;2007-10-25 10:00;CYQF 251000Z 26004KT 15SM OVC090 02/M01 A2995 RMK AC8 SLP152

CYQF;2007-10-25 11:00;CYQF 251100Z 00000KT 15SM BKN100 02/M01 A2996 RMK AC6 SLP158

CYQF;2007-10-25 12:00;CYQF 251200Z 23005KT 15SM FEW050 BKN120 01/M01 A2999 RMK SC2AC4 SLP186

CYQF;2007-10-25 13:00;CYQF 251300Z 25007KT 15SM SCT050 BKN120 M00/M02 A3000 RMK SC3AC1 SLP190

CYQF;2007-10-25 14:00;CYQF 251400Z 24006KT 15SM FEW050 SCT120 00/M02 A3002 RMK SC2AC1 CU/VIRGA ASOCTD SLP194

CYQF;2007-10-25 15:00;CYQF 251500Z 26007KT 15SM FEW050 BKN120 01/M02 A3004 RMK SC2AC2 VIRGA SLP211

CYQF;2007-10-25 16:00;CYQF 251600Z 30005KT 15SM FEW050 FEW120 02/M03 A3006 RMK SC1AC1 SLP218

CYQF;2007-10-25 17:00;CYQF 251700Z 27005KT 15SM FEW100 03/M02 A3009 RMK AC2 VIRGA SLP226

CYQF;2007-10-25 18:00;CYQF 251800Z 28012G18KT 15SM FEW050 FEW100 05/M04 A3010 RMK CU1AC1 VIRGA SLP226

CYQF;2007-10-25 19:00;CYQF 251900Z 28010G18KT 15SM FEW050 FEW100 07/M05 A3011 RMK CU1AC1 SLP228

CYQF;2007-10-25 20:00;CYQF 252000Z 30010G17KT 15SM BKN065 06/M09 A3011 RMK CU5 SHWRS ALQDS SLP230

CYQF;2007-10-25 20:26;CYQF 252026Z 32020G36KT 15SM SCT065 RMK CU4 SHWRS ALQDS

CYQF;2007-10-25 21:00;CYQF 252100Z 31015G28KT 15SM BKN065 06/M08 A3012 RMK CU5 SLP233

CYQF;2007-10-25 22:00;CYQF 252200Z 31010G17KT 15SM VCSH BKN060 06/M09 A3014 RMK CU6 SLP238

CYQF;2007-10-25 23:00;CYQF 252300Z 35006KT 15SM VCSH BKN045 05/M06 A3016 RMK CU5 SLP244

CYQF;2007-10-26 01:00;CYQF 260100Z 33003KT 15SM BKN060 01/M06 A3019 RMK SC5 SLP259

CYQF;2007-10-26 02:00;CYQF 260200Z CCA 31003KT 15SM SCT060 00/M06 A3020 RMK SC4 SLP262

CYQF;2007-10-26 03:00;CYQF 260300Z 31007KT 15SM BKN060 01/M06 A3022 RMK SC6 SLP273

CYQF;2007-10-26 04:00;CYQF 260400Z 33010KT 15SM SCT025 BKN060 02/M06 A3024 RMK SC3SC2 SLP281

CYQF;2007-10-26 05:00;CYQF 260500Z 30010KT 15SM BKN030 BKN060 02/M06 A3026 RMK SC5SC2 SLP286

CYQF;2007-10-26 06:00;CYQF 260600Z 32008KT 15SM FEW030 SCT070 01/M06 A3027 RMK SC2AC2 SLP287

CYQF;2007-10-26 07:00;CYQF 260700Z 29003KT 15SM BKN080 M01/M06 A3027 RMK AC5 VIRGA SLP286

CYQF;2007-10-26 08:00;CYQF 260800Z 23007KT 15SM FEW080 FEW250 M03/M06 A3028 RMK AC2CI1 SLP288

CYQF;2007-10-26 09:00;CYQF 260900Z 22007KT 15SM SCT080 M04/M07 A3027 RMK AC3 SLP292

CYQF;2007-10-26 10:00;CYQF 261000Z 22003KT 15SM BKN080 M04/M07 A3028 RMK AC6 VIRGA SLP293

CYQF;2007-10-26 11:00;CYQF 261100Z 24006KT 15SM OVC100 M02/M06 A3029 RMK AC7 VIRGA SLP297

CYQF;2007-10-26 12:00;CYQF 261200Z 30008KT 15SM OVC100 M01/M06 A3032 RMK AC8 VIRGA SLP308

CYQF;2007-10-26 12:12;CYQF 261212Z 29008KT 4SM -SHSN VV016 RMK SN8

CYQF;2007-10-26 12:29;CYQF 261229Z 30007KT 15SM FEW050 SCT100 BKN250 RMK SC1AC3CI2

CYQF;2007-10-26 13:00;CYQF 261300Z 29008KT 15SM BKN100 00/M03 A3032 RMK AC6 SLP308

CYQF;2007-10-26 13:09;CYQF 261309Z 29012G20KT 10SM -SHSN BKN040 OVC100 RMK SC6AC2

CYQF;2007-10-26 14:00;CYQF 261400Z 29009KT 15SM -SHSN SCT040 BKN100 M01/M03 A3034 RMK SC3AC4 SLP313

CYQF;2007-10-26 14:07;CYQF 261407Z 28009KT 15SM SCT040 BKN100 RMK SC3AC4 SHS S VIS 8

CYQF;2007-10-26 15:00;CYQF 261500Z 27008KT 15SM SCT040 BKN100 M01/M03 A3034 RMK SC3AC1 VIRGA SLP317

CYQF;2007-10-26 16:00;CYQF 261600Z 29006KT 15SM FEW040 FEW100 01/M02 A3035 RMK SC1AC1 SLP320

CYQF;2007-10-26 17:00;CYQF 261700Z 31010G15KT 15SM SCT030 SCT100 03/M04 A3037 RMK CU3AC1 SLP326

CYQF;2007-10-26 18:00;CYQF 261800Z 36015G20KT 15SM FEW020 FEW100 02/M05 A3040 RMK CU2AC1 SLP335

CYQF;2007-10-26 19:00;CYQF 261900Z 35011G23KT 15SM FEW020 FEW100 01/M06 A3042 RMK SC2AC1 SLP340

CYQF;2007-10-26 20:00;CYQF 262000Z 35010G17KT 15SM FEW020 FEW100 02/M06 A3042 RMK CF1AC1 SLP341

CYQF;2007-10-26 21:00;CYQF 262100Z 01008KT 15SM FEW030 FEW250 03/M06 A3042 RMK CF1CI1 SLP345

CYQF;2007-10-26 22:00;CYQF 262200Z 36007KT 15SM FEW030 FEW250 03/M06 A3041 RMK CF1CI0 SLP344

CYQF;2007-10-26 23:00;CYQF 262300Z 03002KT 15SM FEW250 03/M06 A3040 RMK CI1 SLP340

CYQF;2007-10-27 00:00;CYQF 270000Z 10002KT 15SM FEW250 02/M06 A3040 RMK CI0 SLP339

CYQF;2007-10-27 01:00;CYQF 270100Z 13003KT 15SM FEW250 M01/M07 A3041 RMK CI0 SLP340

CYQF;2007-10-27 02:00;CYQF 270200Z 17004KT 15SM SKC M02/M07 A3041 RMK SLP340

CYQF;2007-10-27 03:00;CYQF 270300Z 18005KT 15SM SKC M03/M08 A3038 RMK SLP337

CYQF;2007-10-27 04:00;CYQF 270400Z 17007KT 15SM SKC M04/M08 A3038 RMK SLP335

CYQF;2007-10-27 05:00;CYQF 270500Z 17006KT 15SM SKC M03/M08 A3037 RMK SLP333

CYQF;2007-10-27 06:00;CYQF 270600Z 18007KT 15SM SKC M04/M09 A3037 RMK SLP331

CYQF;2007-10-27 07:00;CYQF 270700Z 18009KT 15SM SKC M03/M08 A3035 RMK SLP324

CYQF;2007-10-27 08:00;CYQF 270800Z 18008KT 15SM BKN250 M03/M07 A3032 RMK CI2 SLP314

CYQF;2007-10-27 09:00;CYQF 270900Z 18009KT 15SM BKN250 M03/M07 A3030 RMK CS2 SLP303

CYQF;2007-10-27 10:00;CYQF 271000Z 19008KT 15SM BKN250 M03/M07 A3026 RMK CI4 SLP293

CYQF;2007-10-27 11:00;CYQF 271100Z 17006KT 15SM OVC250 M03/M07 A3024 RMK CI4 SLP286

CYQF;2007-10-27 12:00;CYQF 271200Z 17009KT 15SM SCT250 M05/M08 A3022 RMK CI2 SLP279

CYQF;2007-10-27 13:00;CYQF 271300Z 17004KT 15SM FEW250 M06/M09 A3021 RMK CI1 SLP275

CYQF;2007-10-27 14:00;CYQF 271400Z 16005KT 15SM FEW250 M06/M09 A3017 RMK CI1 SLP264

CYQF;2007-10-27 15:00;CYQF 271500Z 17003KT 15SM FEW250 M06/M09 A3015 RMK CI0 SLP263

CYQF;2007-10-27 16:00;CYQF 271600Z 18007KT 15SM BKN250 M03/M07 A3013 RMK CI0 SLP256

CYQF;2007-10-27 17:00;CYQF 271700Z 16005KT 15SM SCT250 M00/M06 A3011 RMK CI1 SLP250

CYQF;2007-10-27 18:00;CYQF 271800Z 16006KT 15SM BKN250 04/M04 A3008 RMK CI1 SLP226

CYQF;2007-10-27 19:00;CYQF 271900Z 16007KT 15SM SCT250 07/M03 A3005 RMK CI1 SLP216

CYQF;2007-10-27 20:00;CYQF 272000Z 18008KT 15SM FEW250 11/M03 A3001 RMK CI2 SLP206

CYQF;2007-10-27 21:00;CYQF 272100Z 17006KT 15SM BKN250 13/M03 A3000 RMK CI2 SLP187

CYQF;2007-10-27 22:00;CYQF 272200Z 14008KT 15SM SCT130 BKN250 12/M02 A2995 RMK AC3CI3 SLP174

CYQF;2007-10-27 23:00;CYQF 272300Z 13005KT 15SM FEW120 BKN250 11/M03 A2995 RMK AC2CI2 SLP173

CYQF;2007-10-28 00:00;CYQF 280000Z 17002KT 15SM BKN120 BKN250 08/M03 A2995 RMK AC5CI1 SLP178

CYQF;2007-10-28 01:00;CYQF 280100Z 18005KT 15SM SCT250 04/M04 A2993 RMK CI2 SLP171

CYQF;2007-10-28 02:00;CYQF 280200Z 19007KT 15SM FEW250 02/M06 A2992 RMK CI2 SLP169

CYQF;2007-10-28 03:00;CYQF 280300Z 00000KT 15SM BKN250 02/M06 A2992 RMK CI3 SLP175

CYQF;2007-10-28 04:00;CYQF 280400Z 00000KT 15SM SCT100 OVC250 02/M06 A2991 RMK AC3CI4 SLP173

CYQF;2007-10-28 05:00;CYQF 280500Z 23004KT 15SM FEW100 OVC250 01/M05 A2992 RMK AC2CI5 SLP176

CYQF;2007-10-28 06:00;CYQF 280600Z 26002KT 15SM SCT100 OVC200 02/M05 A2994 RMK AC4CI4 SLP172

CYQF;2007-10-28 07:00;CYQF 280700Z 24003KT 15SM SCT100 OVC200 01/M04 A2996 RMK AC4CI4 OBS TAKEN +15 SLP179

CYQF;2007-10-28 08:00;CYQF 280800Z 00000KT 15SM FEW100 OVC250 04/M04 A2998 RMK AC2CI6 SLP184

CYQF;2007-10-28 09:00;CYQF 280900Z 00000KT 15SM BKN080 BKN200 05/M04 A2999 RMK AC6CI2 SLP177

CYQF;2007-10-28 10:00;CYQF 281000Z 23004KT 15SM FEW080 BKN200 01/M04 A3000 RMK AC2CI2 SLP179

CYQF;2007-10-28 11:00;CYQF 281100Z 23005KT 15SM FEW080 FEW200 M00/M05 A3002 RMK AC2CI1 SLP184

CYQF;2007-10-28 12:00;CYQF 281200Z 20005KT 15SM SCT080 BKN200 M01/M05 A3002 RMK AC1CI0 SLP200

CYQF;2007-10-28 13:00;CYQF 281300Z 20002KT 15SM FEW200 M02/M06 A3003 RMK CI1 SLP201

CYQF;2007-10-28 14:00;CYQF 281400Z 18003KT 15SM SCT200 M02/M05 A3004 RMK CI1 SLP205

CYQF;2007-10-28 15:00;CYQF 281500Z 18005KT 15SM FEW120 BKN200 M01/M05 A3004 RMK AC2CI1 SLP214

CYQF;2007-10-28 16:00;CYQF 281600Z 00000KT 15SM BKN100 BKN250 02/M02 A3006 RMK AC5CI2 SLP221

CYQF;2007-10-28 17:00;CYQF 281700Z 17004KT 15SM BKN100 OVC250 05/M01 A3005 RMK AC6CI1 SLP217

CYQF;2007-10-28 18:00;CYQF 281800Z 16010KT 15SM BKN100 OVC250 09/M02 A3005 RMK AC6CI1 SLP204

CYQF;2007-10-28 19:00;CYQF 281900Z 15007KT 15SM BKN100 BKN250 10/M01 A3003 RMK AC5CI2 SLP200

CYQF;2007-10-28 20:00;CYQF 282000Z 17010KT 15SM FEW100 OVC250 12/M01 A3000 RMK AC2CI2 SLP190

CYQF;2007-10-28 21:00;CYQF 282100Z 17012KT 15SM FEW030 SCT100 BKN250 13/M02 A2998 RMK SC1AC2CI2 SLP174

CYQF;2007-10-28 22:00;CYQF 282200Z 16010KT 15SM FEW030 FEW100 BKN250 13/M03 A2997 RMK SC1AC2CI2 SLP169

CYQF;2007-10-28 23:00;CYQF 282300Z 16008KT 15SM FEW030 FEW100 BKN250 12/M03 A2995 RMK SC1AC2CI2 SLP165

CYQF;2007-10-29 00:00;CYQF 290000Z 14004KT 15SM FEW030 FEW100 BKN250 11/M03 A2994 RMK SC1AC2CI2 SLP168

CYQF;2007-10-29 01:00;CYQF 290100Z 06004KT 15SM FEW030 SCT100 BKN250 08/M03 A2993 RMK SC1AC2CI2 SLP164

CYQF;2007-10-29 02:00;CYQF 290200Z 02005KT 15SM FEW100 BKN250 04/M04 A2991 RMK AC2CI3 SLP159

CYQF;2007-10-29 03:00;CYQF 290300Z 00000KT 15SM FEW100 BKN250 04/M04 A2990 RMK AC2CI4 SLP163

CYQF;2007-10-29 04:00;CYQF 290400Z 00000KT 15SM FEW100 OVC250 04/M04 A2989 RMK AC2CI5 SLP159

CYQF;2007-10-29 05:00;CYQF 290500Z 00000KT 15SM BKN250 04/M04 A2989 RMK CI3 SLP159

CYQF;2007-10-29 06:00;CYQF 290600Z 00000KT 15SM BKN250 01/M05 A2989 RMK CI2 SLP151

CYQF;2007-10-29 07:00;CYQF 290700Z 21003KT 15SM BKN250 M00/M04 A2988 RMK CI2 SLP149

CYQF;2007-10-29 08:00;CYQF 290800Z 22003KT 15SM FEW120 OVC250 M01/M04 A2987 RMK AC2CI2 SLP146

CYQF;2007-10-29 09:00;CYQF 290900Z 22003KT 15SM OVC220 M00/M04 A2987 RMK CI3 SLP142

CYQF;2007-10-29 10:00;CYQF 291000Z 19003KT 15SM OVC200 M01/M04 A2987 RMK CI3 SLP142

CYQF;2007-10-29 11:00;CYQF 291100Z 26004KT 15SM FEW120 BKN200 M00/M03 A2988 RMK AC1CI2 SLP143

CYQF;2007-10-29 12:00;CYQF 291200Z 16003KT 15SM FEW200 M01/M04 A2985 RMK CI1 SLP138

CYQF;2007-10-29 13:00;CYQF 291300Z 21004KT 15SM FEW120 BKN200 M02/M05 A2985 RMK AC2CI1 SLP136

CYQF;2007-10-29 14:00;CYQF 291400Z CCA 19003KT 15SM FEW100 BKN200 M02/M05 A2985 RMK AC2CI2 SLP136

CYQF;2007-10-29 15:00;CYQF 291500Z 00000KT 15SM FEW100 BKN250 M02/M04 A2985 RMK AC2CI2 SLP143

CYQF;2007-10-29 16:00;CYQF 291600Z 00000KT 15SM FEW090 BKN250 02/M02 A2983 RMK AC2CI0 SLP138

CYQF;2007-10-29 17:00;CYQF 291700Z 00000KT 15SM FEW090 BKN250 05/00 A2983 RMK AC2CI1 SLP138

CYQF;2007-10-29 18:00;CYQF 291800Z 00000KT 15SM SCT090 BKN250 07/01 A2981 RMK AC3CI1 SLP126

CYQF;2007-10-29 19:00;CYQF 291900Z 00000KT 15SM FEW090 BKN250 10/02 A2981 RMK AC2CI1 SLP125

CYQF;2007-10-29 20:00;CYQF 292000Z 01003KT 15SM FEW080 BKN250 10/02 A2980 RMK AC2CI1 SLP121

CYQF;2007-10-29 21:00;CYQF 292100Z 34003KT 15SM FEW070 BKN250 11/01 A2979 RMK AC2CI2 SLP115

CYQF;2007-10-29 22:00;CYQF 292200Z 36007KT 15SM BKN070 BKN250 11/01 A2978 RMK AC5CI1 SLP112

CYQF;2007-10-29 23:00;CYQF 292300Z 36005KT 15SM FEW070 BKN250 10/01 A2977 RMK AC2CI0 SLP110

CYQF;2007-10-30 00:00;CYQF 300000Z 33005KT 15SM SCT060 BKN250 09/M00 A2978 RMK CU4CI2 VIRGA SLP115

CYQF;2007-10-30 01:00;CYQF 300100Z 36013KT 15SM SCT060 BKN250 06/00 A2981 RMK CU3CI2 VIRGA SLP124

CYQF;2007-10-30 02:00;CYQF 300200Z 35005KT 15SM SCT060 BKN250 03/M00 A2984 RMK CU3CI2 SLP132

CYQF;2007-10-30 03:00;CYQF 300300Z 33018G25KT 15SM BKN020 OVC060 05/01 A2987 RMK SC5SC3 SLP150

CYQF;2007-10-30 03:24;CYQF 300324Z 34015G22KT 15SM -RA BKN020 OVC050 RMK SC6SC2

CYQF;2007-10-30 04:00;CYQF 300400Z 32012G18KT 15SM -RA BKN020 OVC045 03/00 A2989 RMK SC5SC3 SLP158

CYQF;2007-10-30 04:30;CYQF 300430Z 33012G18KT 15SM FEW010 OVC030 RMK SF2SC6

CYQF;2007-10-30 05:00;CYQF 300500Z 32010KT 15SM FEW010 BKN040 03/01 A2992 RMK SF1SC6 SLP165

CYQF;2007-10-30 05:40;CYQF 300540Z 30008KT 15SM -SHRA SCT015 OVC040 RMK SC3SC5

CYQF;2007-10-30 06:00;CYQF 300600Z 30011KT 12SM -SHRASN SCT015 OVC030 02/00 A2994 RMK SC4SC4 SLP169

CYQF;2007-10-30 07:00;CYQF 300700Z 29005KT 15SM FEW015 BKN040 01/M00 A2994 RMK SC2SC5 SLP169

CYQF;2007-10-30 08:00;CYQF 300800Z 28008KT 15SM FEW015 SCT040 BKN080 01/M01 A2995 RMK SC1SC2AC4 SLP171

CYQF;2007-10-30 09:00;CYQF 300900Z 30006KT 15SM FEW040 BKN080 01/M01 A2995 RMK SC2AC5 SLP170

CYQF;2007-10-30 10:00;CYQF 301000Z 29008KT 15SM SCT080 BKN200 01/M02 A2997 RMK AC3CI2 SLP174

CYQF;2007-10-30 11:00;CYQF 301100Z 27010KT 15SM FEW080 FEW200 M01/M04 A2999 RMK AC1CI2 SLP180

CYQF;2007-10-30 12:00;CYQF 301200Z 27004KT 15SM SCT080 BKN200 M01/M04 A3001 RMK AC3CI1 SLP193

CYQF;2007-10-30 13:00;CYQF 301300Z 26010KT 15SM BKN080 BKN200 M01/M03 A3002 RMK AC5CI1 SLP198

CYQF;2007-10-30 14:00;CYQF 301400Z 26007KT 15SM FEW080 M03/M05 A3005 RMK AC2 SLP205

CYQF;2007-10-30 15:00;CYQF 301500Z 23007KT 15SM BKN070 M02/M04 A3006 RMK AC6 SLP219

CYQF;2007-10-30 16:00;CYQF 301600Z 28005KT 15SM BKN060 M00/M03 A3009 RMK SC6 VIRGA SLP227

CYQF;2007-10-30 17:00;CYQF 301700Z 29005KT 15SM SCT090 01/M03 A3011 RMK AC2 SLP232

CYQF;2007-10-30 18:00;CYQF 301800Z 30005KT 15SM FEW090 04/M04 A3011 RMK AC2 SLP230

CYQF;2007-10-30 19:00;CYQF 301900Z 27010G15KT 15SM FEW090 06/M04 A3011 RMK AC1 SLP231

CYQF;2007-10-30 20:00;CYQF 302000Z 31015G20KT 15SM FEW060 06/M07 A3010 RMK CU1 SLP228

CYQF;2007-10-30 21:00;CYQF 302100Z 32015G20KT 15SM FEW060 07/M08 A3010 RMK CU1 SLP225

CYQF;2007-10-30 22:00;CYQF 302200Z CCA 31015G20KT 15SM FEW060 07/M07 A3010 RMK CU1 SLP225

CYQF;2007-10-30 23:00;CYQF 302300Z 31010KT 15SM SKC 06/M08 A3011 RMK SLP228

CYQF;2007-10-31 00:00;CYQF 310000Z 30002KT 15SM SKC 03/M07 A3012 RMK SLP238

CYQF;2007-10-31 01:00;CYQF 310100Z 00000KT 15SM SKC 01/M08 A3012 RMK SLP240

CYQF;2007-10-31 02:00;CYQF 310200Z 20003KT 15SM SKC M01/M07 A3013 RMK SLP241

CYQF;2007-10-31 03:00;CYQF 310300Z 19004KT 15SM SKC M02/M08 A3012 RMK SLP247

CYQF;2007-10-31 04:00;CYQF 310400Z 17003KT 15SM SKC M04/M08 A3013 RMK SLP250

CYQF;2007-10-31 05:00;CYQF 310500Z 17004KT 15SM SKC M04/M08 A3014 RMK SLP251

CYQF;2007-10-31 06:00;CYQF 310600Z 19006KT 15SM SKC M05/M09 A3012 RMK SLP241

CYQF;2007-10-31 07:00;CYQF 310700Z 20005KT 15SM SCT250 M05/M09 A3010 RMK CI2 SLP237

CYQF;2007-10-31 08:00;CYQF 310800Z 20005KT 15SM SCT250 M05/M09 A3009 RMK CI2 SLP233

CYQF;2007-10-31 09:00;CYQF 310900Z 20005KT 15SM BKN250 M06/M09 A3009 RMK CI2 SLP229

CYQF;2007-10-31 10:00;CYQF 311000Z 20003KT 15SM SCT250 M06/M10 A3007 RMK CI1 SLP225

CYQF;2007-10-31 11:00;CYQF 311100Z 18004KT 15SM SCT100 BKN250 M06/M10 A3006 RMK AC2CI2 SLP220

CYQF;2007-10-31 12:00;CYQF 311200Z 22003KT 15SM FEW100 BKN250 M06/M10 A3004 RMK AC1CI2 SLP215

CYQF;2007-10-31 13:00;CYQF 311300Z 27004KT 15SM FEW100 BKN250 M06/M10 A3003 RMK AC1CI2 SLP212

CYQF;2007-10-31 14:00;CYQF 311400Z 00000KT 15SM SCT100 BKN250 M05/M09 A3002 RMK AC2CI2 SLP209

CYQF;2007-10-31 15:00;CYQF 311500Z 17004KT 15SM FEW080 BKN120 OVC250 M05/M08 A2999 RMK AC2AC4CI2 SLP204

CYQF;2007-10-31 16:00;CYQF 311600Z 19002KT 15SM FEW080 BKN120 OVC250 M03/M07 A2997 RMK AC2AC3CI2 SLP199

CYQF;2007-10-31 17:00;CYQF 311700Z 19003KT 15SM FEW080 BKN120 OVC250 M01/M06 A2996 RMK AC2AC3CI2 SLP194

CYQF;2007-10-31 18:00;CYQF 311800Z 20004KT 15SM FEW080 SCT120 BKN250 02/M04 A2994 RMK AC2AC2CI2 SLP184

CYQF;2007-10-31 19:00;CYQF 311900Z 00000KT 15SM FEW100 BKN250 04/M04 A2992 RMK AC2CI2 SLP178

CYQF;2007-10-31 20:00;CYQF 312000Z 19003KT 15SM FEW100 BKN250 06/M05 A2991 RMK AC2CI2 SLP173

CYQF;2007-10-31 21:00;CYQF 312100Z 17002KT 15SM FEW100 BKN250 07/M04 A2989 RMK AC2CI2 SLP161

CYQF;2007-10-31 22:00;CYQF 312200Z 22004KT 15SM SCT100 BKN250 08/M03 A2987 RMK AC3CI2 SLP156

CYQF;2007-10-31 23:00;CYQF 312300Z 22005KT 15SM FEW100 BKN250 09/M03 A2987 RMK AC2CI2 SLP154

CYQF;2007-11-01 01:00;CYQF 010100Z 18007KT 15SM BKN100 BKN250 02/M05 A2984 RMK AC5CI1 SLP144

CYQF;2007-11-01 02:00;CYQF 010200Z 20003KT 15SM SCT100 BKN250 01/M05 A2984 RMK AC3CI1 SLP144

CYQF;2007-11-01 03:00;CYQF 010300Z 20007KT 15SM SCT100 BKN250 02/M04 A2983 RMK AC3CI1 SLP143

CYQF;2007-11-01 04:00;CYQF 010400Z 23004KT 15SM OVC075 02/M04 A2983 RMK AC8 VIRGA SLP143

CYQF;2007-11-01 05:00;CYQF 010500Z 23004KT 15SM BKN080 OVC250 02/M04 A2983 RMK AC6CI2 SLP143

CYQF;2007-11-01 06:00;CYQF 010600Z 27002KT 15SM SCT080 BKN250 02/M05 A2982 RMK AC3CI0 SLP132

CYQF;2007-11-01 07:00;CYQF 010700Z 16004KT 15SM FEW080 SCT250 M01/M05 A2981 RMK AC2CI1 SLP130

CYQF;2007-11-01 08:00;CYQF 010800Z 21004KT 15SM FEW080 FEW250 M01/M06 A2980 RMK AC2CI0 SLP128

CYQF;2007-11-01 09:00;CYQF 010900Z 00000KT 15SM FEW080 M03/M07 A2981 RMK AC2 SLP129

CYQF;2007-11-01 10:00;CYQF 011000Z 28003KT 15SM FEW080 SCT250 M03/M07 A2981 RMK AC2CI1 SLP129

CYQF;2007-11-01 11:00;CYQF 011100Z 21003KT 15SM FEW250 M04/M08 A2981 RMK CI1 SLP130

CYQF;2007-11-01 12:00;CYQF 011200Z 00000KT 15SM FEW080 SCT250 M05/M09 A2982 RMK AC2CI1 SLP136

CYQF;2007-11-01 13:00;CYQF 011300Z 27005KT 15SM SCT080 BKN250 M04/M07 A2983 RMK AC4CI1 SLP138

CYQF;2007-11-01 14:00;CYQF 011400Z 25005KT 15SM BKN080 BKN250 M02/M06 A2984 RMK AC5CI2 SLP143

CYQF;2007-11-01 15:00;CYQF 011500Z CCA 20003KT 15SM BKN060 BKN250 M02/M06 A2985 RMK SC5CI2 VIRGA ALQSD SLP147

CYQF;2007-11-01 16:00;CYQF 011600Z 25005KT 15SM BKN060 BKN250 M01/M05 A2987 RMK SC5CI2 VIRGA S-E SLP153

CYQF;2007-11-01 17:00;CYQF 011700Z CCA 15003KT 15SM BKN060 BKN250 01/M05 A2988 RMK SC6CI1 VIRGA S-E SLP158

CYQF;2007-11-01 18:00;CYQF 011800Z CCA 26003KT 15SM FEW060 SCT250 03/M04 A2989 RMK SC2CI1 CU ASOCTD SLP158

CYQF;2007-11-01 19:00;CYQF 011900Z 29008KT 15SM FEW060 SCT250 05/M04 A2990 RMK CU2CI1 SLP160

CYQF;2007-11-01 20:00;CYQF 012000Z 33014KT 15SM FEW060 SCT250 07/M11 A2989 RMK CU2CI0 SLP158

CYQF;2007-11-01 21:00;CYQF 012100Z 31014KT 15SM FEW060 SCT250 06/M11 A2992 RMK CU2CI0 SLP168

CYQF;2007-11-01 22:00;CYQF 012200Z 31018G35KT 15SM FEW060 06/M11 A2994 RMK SC2 SLP176

CYQF;2007-11-01 23:00;CYQF 012300Z 31015G22KT 15SM FEW060 FEW250 05/M12 A2995 RMK SC1CI0 SLP179

CYQF;2007-11-02 00:00;CYQF 020000Z 31012G18KT 15SM FEW050 FEW120 SCT250 04/M12 A2997 RMK SC1AC1CI1 SLP192

CYQF;2007-11-02 01:00;CYQF 020100Z 30010G15KT 15SM FEW250 03/M11 A3000 RMK CI1 SLP200

CYQF;2007-11-02 02:00;CYQF 020200Z 30010KT 15SM FEW250 02/M12 A3003 RMK CI1 SLP210

CYQF;2007-11-02 03:00;CYQF 020300Z 30010G15KT 15SM FEW250 02/M11 A3006 RMK CI1 SLP222

CYQF;2007-11-02 04:00;CYQF 020400Z 31008KT 15SM SKC 01/M11 A3009 RMK SLP231

CYQF;2007-11-02 05:00;CYQF 020500Z 30012G18KT 15SM SKC 00/M11 A3012 RMK SLP238

CYQF;2007-11-02 06:00;CYQF 020600Z 29010KT 15SM SKC M00/M11 A3014 RMK SLP246

CYQF;2007-11-02 07:00;CYQF 020700Z 27006KT 15SM SKC M04/M12 A3016 RMK SLP253

CYQF;2007-11-02 08:00;CYQF 020800Z 27005KT 15SM SKC M06/M12 A3018 RMK SLP257

CYQF;2007-11-02 09:00;CYQF 020900Z 26005KT 15SM SKC M06/M12 A3019 RMK SLP265

CYQF;2007-11-02 10:00;CYQF 021000Z 24005KT 15SM SKC M06/M13 A3019 RMK SLP266

CYQF;2007-11-02 11:00;CYQF 021100Z 21005KT 15SM SKC M08/M12 A3020 RMK SLP270

CYQF;2007-11-02 12:00;CYQF 021200Z 24003KT 15SM SKC M08/M13 A3019 RMK SLP270

CYQF;2007-11-02 13:00;CYQF 021300Z 19003KT 15SM SKC M08/M13 A3019 RMK SLP269

CYQF;2007-11-02 14:00;CYQF 021400Z 19003KT 15SM FEW250 M08/M13 A3019 RMK CI1 SLP269

CYQF;2007-11-02 15:00;CYQF 021500Z 20004KT 15SM FEW250 M08/M13 A3017 RMK CI1 SLP266

CYQF;2007-11-02 16:00;CYQF 021600Z 19005KT 15SM SCT250 M05/M10 A3016 RMK CI2 SLP261

CYQF;2007-11-02 17:00;CYQF 021700Z 20007KT 15SM SCT250 M01/M10 A3014 RMK CI1 SLP256

CYQF;2007-11-02 18:00;CYQF 021800Z 17003KT 15SM OVC250 02/M09 A3010 RMK CI4 SLP234

CYQF;2007-11-02 19:00;CYQF 021900Z 18006KT 15SM OVC250 05/M09 A3007 RMK CI5 SLP224

CYQF;2007-11-02 20:00;CYQF 022000Z 18010KT 15SM FEW140 OVC250 07/M11 A3002 RMK AC1CI4 SLP207

CYQF;2007-11-02 21:00;CYQF 022100Z 17010KT 15SM FEW140 OVC250 07/M09 A2995 RMK AC1CI3 SLP183

CYQF;2007-11-02 22:00;CYQF 022200Z 17013KT 15SM FEW140 SCT250 07/M11 A2991 RMK AC1CI1 SLP169

CYQF;2007-11-02 23:00;CYQF 022300Z 17005KT 15SM FEW140 BKN250 07/M10 A2988 RMK AC1CI1 SLP160

CYQF;2007-11-03 00:00;CYQF 030000Z 17002KT 15SM BKN080 OVC250 05/M10 A2987 RMK AC7CI1 SLP158

CYQF;2007-11-03 01:00;CYQF 030100Z CCA 16004KT 15SM BKN100 05/M10 A2984 RMK AC7 CLRG FM W SLP149

CYQF;2007-11-03 02:00;CYQF 030200Z 24004KT 15SM FEW100 00/M09 A2983 RMK AC2 SLP146

CYQF;2007-11-03 03:00;CYQF 030300Z 24006KT 15SM SKC M01/M10 A2983 RMK SLP150

CYQF;2007-11-03 04:00;CYQF 030400Z 25006KT 15SM SKC M00/M09 A2983 RMK SLP149

CYQF;2007-11-03 05:00;CYQF 030500Z 25003KT 15SM FEW160 M01/M09 A2984 RMK AC1 SLP153

CYQF;2007-11-03 06:00;CYQF 030600Z 22004KT 15SM SKC M03/M09 A2986 RMK SLP154

CYQF;2007-11-03 07:00;CYQF 030700Z 18006KT 15SM SKC M05/M10 A2987 RMK SLP157

CYQF;2007-11-03 08:00;CYQF 030800Z 21006KT 15SM SKC M04/M09 A2987 RMK SLP156

CYQF;2007-11-03 09:00;CYQF 030900Z 19004KT 15SM FEW250 M05/M09 A2989 RMK CI1 SLP159

CYQF;2007-11-03 10:00;CYQF 031000Z 21004KT 15SM SCT250 M04/M09 A2990 RMK CI2 SLP161

CYQF;2007-11-03 11:00;CYQF 031100Z 19004KT 15SM SCT250 M04/M09 A2991 RMK CI2 SLP164

CYQF;2007-11-03 12:00;CYQF 031200Z 21005KT 15SM SCT250 M06/M10 A2992 RMK CI2 SLP173

CYQF;2007-11-03 13:00;CYQF 031300Z 18002KT 15SM FEW250 M05/M09 A2994 RMK CI1 SLP180

CYQF;2007-11-03 14:00;CYQF 031400Z 20002KT 15SM SCT250 M07/M11 A2995 RMK CI2 SLP184

CYQF;2007-11-03 15:00;CYQF 031500Z 21004KT 15SM BKN250 M06/M09 A2997 RMK CI3 SLP198

CYQF;2007-11-03 16:00;CYQF 031600Z 19004KT 15SM FEW050 BKN250 M03/M07 A2998 RMK SC1CI3 SLP200

CYQF;2007-11-03 17:00;CYQF 031700Z 00000KT 15SM FEW050 SCT120 BKN250 00/M05 A2999 RMK SC1AC2CI2 SLP203

CYQF;2007-11-03 18:00;CYQF 031800Z 19004KT 15SM FEW050 BKN100 OVC250 03/M05 A2999 RMK SC1AC4CI1 SLP196

CYQF;2007-11-03 19:00;CYQF 031900Z 00000KT 15SM FEW050 BKN090 05/M05 A2998 RMK SC1AC7 SLP194

CYQF;2007-11-03 20:00;CYQF 032000Z 09005KT 15SM BKN090 05/M05 A2996 RMK AC7 SLP187

CYQF;2007-11-03 21:00;CYQF 032100Z 11007KT 15SM BKN090 BKN250 06/M05 A2991 RMK AC7CI1 VIRGA SLP168

CYQF;2007-11-03 22:00;CYQF 032200Z 12006KT 15SM BKN080 BKN250 06/M05 A2989 RMK AC4CI3 VIRGA SLP161

CYQF;2007-11-03 23:00;CYQF 032300Z 13006KT 15SM BKN080 BKN250 06/M06 A2986 RMK AC6CI2 SLP151

CYQF;2007-11-04 00:00;CYQF 040000Z 11004KT 15SM BKN080 BKN250 05/M06 A2981 RMK AC6CI1 SLP136

CYQF;2007-11-04 01:00;CYQF 040100Z 08004KT 15SM BKN080 04/M06 A2977 RMK AC6 SLP124

CYQF;2007-11-04 02:00;CYQF 040200Z 08005KT 15SM BKN080 03/M06 A2974 RMK AC7 SLP114

CYQF;2007-11-04 03:00;CYQF 040300Z 06005KT 15SM BKN080 03/M06 A2973 RMK AC7 SLP109

CYQF;2007-11-04 04:00;CYQF 040400Z 06005KT 15SM BKN080 03/M07 A2969 RMK AC7 SLP098

CYQF;2007-11-04 05:00;CYQF 040500Z 02004KT 15SM OVC080 02/M07 A2967 RMK AC8 SLP090

CYQF;2007-11-04 06:00;CYQF 040600Z 03008KT 15SM OVC080 01/M07 A2968 RMK AC8 SLP083

CYQF;2007-11-04 07:00;CYQF 040700Z 03007KT 15SM OVC080 02/M08 A2968 RMK AC8 SLP085

CYQF;2007-11-04 07:44;CYQF 040744Z 01014KT 15SM -SN FEW040 OVC080 RMK SC2AC6

CYQF;2007-11-04 08:00;CYQF 040800Z 02010KT 15SM FEW011 SCT040 OVC080 01/M02 A2972 RMK SF2SC2AC4 SLP097

CYQF;2007-11-04 09:00;CYQF 040900Z CCA 36010KT 15SM SCT010 OVC040 00/M02 A2979 RMK SC4SC4 PRESRR SLP119

CYQF;2007-11-04 09:20;CYQF 040920Z 36012KT 15SM -SN SCT008 OVC030 RMK SC4SC4 PRESRR

CYQF;2007-11-04 10:00;CYQF 041000Z 02006KT 10SM -SN SCT008 OVC030 M00/M02 A2985 RMK SC4SC4 SLP137

CYQF;2007-11-04 11:00;CYQF 041100Z 35010KT 5SM -SN SCT008 OVC020 M00/M02 A2990 RMK SN1SC3SC4 SLP153

CYQF;2007-11-04 11:21;CYQF 041121Z 36008KT 2SM -SN OVC007 RMK SN3SC5

CYQF;2007-11-04 12:00;CYQF 041200Z 34013KT 2SM -SN OVC007 M01/M02 A2991 RMK SN3SC5 /S02/ SLP163

CYQF;2007-11-04 12:35;CYQF 041235Z 33008KT 5SM -SN BKN007 OVC060 RMK SC6SC2

CYQF;2007-11-04 13:00;CYQF 041300Z 30006KT 10SM -SN BKN008 OVC070 M01/M03 A2998 RMK SC5AC3 SLP185

CYQF;2007-11-04 13:20;CYQF 041320Z 33007KT 10SM -SN SCT008 OVC070 RMK SC3AC5

CYQF;2007-11-04 14:00;CYQF 041400Z 31007KT 10SM -SN SCT008 OVC070 M01/M03 A2998 RMK SC3AC5 SLP185

CYQF;2007-11-04 14:35;CYQF 041435Z 29007KT 15SM FEW008 SCT040 OVC080 RMK SF2SC2AC4

CYQF;2007-11-04 15:00;CYQF 041500Z 29009KT 15SM FEW008 SCT040 OVC080 M01/M03 A3000 RMK SC2SC2AC5 SLP199

CYQF;2007-11-04 16:00;CYQF 041600Z 30010G15KT 15SM FEW010 BKN040 BKN080 M01/M03 A3003 RMK SF2SC3AC2 SLP206

CYQF;2007-11-04 17:00;CYQF 041700Z 29010G15KT 15SM FEW010 FEW040 SCT080 BKN250 M01/M03 A3005 RMK SF1SC1AC2CI2 SF TR SLP214

CYQF;2007-11-04 18:00;CYQF 041800Z 29010G15KT 15SM FEW010 BKN080 BKN250 M00/M03 A3008 RMK SF1AC6CI1 SLP227

CYQF;2007-11-04 19:00;CYQF 041900Z 29010G15KT 15SM FEW015 SCT090 BKN250 00/M04 A3008 RMK CF1AC3CI2 SLP228

CYQF;2007-11-04 20:00;CYQF 042000Z 31010G15KT 15SM FEW015 SCT090 BKN250 00/M04 A3011 RMK CF1AC2CI1 SLP235

CYQF;2007-11-04 21:00;CYQF 042100Z 32009KT 15SM FEW025 FEW160 FEW250 01/M05 A3012 RMK CF1AC2CI0 SLP241

CYQF;2007-11-04 22:00;CYQF 042200Z 31012G18KT 15SM FEW025 FEW120 01/M06 A3015 RMK CF1AC2 SLP250

CYQF;2007-11-04 23:00;CYQF 042300Z 31012G18KT 15SM FEW025 FEW120 00/M06 A3018 RMK CF1AC1 SLP258

CYQF;2007-11-05 00:00;CYQF 050000Z 30006KT 15SM FEW120 M02/M07 A3020 RMK AC2 SLP273

CYQF;2007-11-05 01:00;CYQF 050100Z 31010KT 15SM FEW120 M02/M07 A3022 RMK AC1 SLP279

CYQF;2007-11-05 02:00;CYQF 050200Z 31006KT 15SM SKC M04/M09 A3025 RMK SLP288

CYQF;2007-11-05 03:00;CYQF 050300Z 29008KT 15SM SKC M04/M08 A3028 RMK SLP302

CYQF;2007-11-05 04:00;CYQF 050400Z 30006KT 15SM SKC M05/M08 A3030 RMK SLP308

CYQF;2007-11-05 05:00;CYQF 050500Z 29005KT 15SM SKC M06/M09 A3033 RMK SLP318

CYQF;2007-11-05 06:00;CYQF 050600Z 28005KT 15SM SKC M07/M09 A3035 RMK SLP330

CYQF;2007-11-05 07:00;CYQF 050700Z 29007KT 15SM SKC M06/M09 A3036 RMK SLP334

CYQF;2007-11-05 08:00;CYQF 050800Z 30008KT 15SM SKC M06/M09 A3038 RMK SLP339

CYQF;2007-11-05 09:00;CYQF 050900Z 29008KT 15SM SKC M07/M09 A3039 RMK SLP340

CYQF;2007-11-05 10:00;CYQF 051000Z 28008KT 15SM SKC M07/M10 A3040 RMK SLP343

CYQF;2007-11-05 11:00;CYQF 051100Z 26010KT 15SM SKC M08/M11 A3040 RMK SLP345

CYQF;2007-11-05 12:00;CYQF 051200Z 26010KT 15SM SKC M08/M11 A3041 RMK SLP352

CYQF;2007-11-05 13:00;CYQF 051300Z 00000KT 15SM SKC M08/M11 A3041 RMK SLP352

CYQF;2007-11-05 14:00;CYQF 051400Z 18005KT 15SM SKC M11/M13 A3040 RMK SLP350

CYQF;2007-11-05 15:00;CYQF 051500Z 18003KT 15SM SCT280 M11/M13 A3041 RMK CI1 SLP358

CYQF;2007-11-05 16:00;CYQF 051600Z 18004KT 15SM BKN280 M08/M11 A3039 RMK CI1 SLP354

CYQF;2007-11-05 17:00;CYQF 051700Z 17003KT 15SM FEW250 M04/M09 A3037 RMK CI1 SLP348

CYQF;2007-11-05 18:00;CYQF 051800Z 15005KT 15SM SCT250 M02/M07 A3036 RMK CI1 SLP335

CYQF;2007-11-05 19:00;CYQF 051900Z 16010KT 15SM BKN250 M01/M08 A3034 RMK CI1 SLP330

CYQF;2007-11-05 20:00;CYQF 052000Z 15012KT 15SM OVC250 M00/M08 A3031 RMK CS2 SLP318

CYQF;2007-11-05 21:00;CYQF 052100Z 17013G19KT 15SM OVC210 00/M07 A3029 RMK CS6 SLP308

CYQF;2007-11-05 22:00;CYQF 052200Z 15010G15KT 15SM OVC210 01/M07 A3026 RMK CS6 SLP300

CYQF;2007-11-05 23:00;CYQF 052300Z 17010G15KT 15SM BKN210 M00/M07 A3024 RMK CI2 SLP291

CYQF;2007-11-06 00:00;CYQF 060000Z 16010KT 15SM SCT210 M01/M07 A3021 RMK CI1 SLP284

CYQF;2007-11-06 01:00;CYQF 060100Z 16010KT 15SM SCT210 M02/M08 A3019 RMK CI1 SLP278

CYQF;2007-11-06 02:00;CYQF 060200Z 17012KT 15SM BKN210 M02/M07 A3017 RMK CI5 SLP271

CYQF;2007-11-06 03:00;CYQF 060300Z 17010KT 15SM FEW090 BKN210 M02/M06 A3014 RMK AC2CI0 SLP264

CYQF;2007-11-06 04:00;CYQF 060400Z 18012G17KT 15SM BKN100 BKN210 M02/M06 A3012 RMK AC5CI0 SLP258

CYQF;2007-11-06 05:00;CYQF 060500Z 17013G20KT 15SM SCT100 BKN210 M03/M06 A3010 RMK AC3CI0 SLP251

CYQF;2007-11-06 06:00;CYQF 060600Z 17012KT 15SM FEW100 BKN210 M03/M06 A3009 RMK AC2CI2 SLP236

CYQF;2007-11-06 07:00;CYQF 060700Z 16015G20KT 15SM BKN100 M03/M06 A3006 RMK AC6 SLP227

CYQF;2007-11-06 08:00;CYQF 060800Z 17010G15KT 15SM FEW100 OVC210 M03/M06 A3004 RMK AC1CI2 SLP222

CYQF;2007-11-06 09:00;CYQF 060900Z 17010G15KT 15SM OVC210 M04/M06 A3001 RMK CI2 SLP206

CYQF;2007-11-06 10:00;CYQF 061000Z 18009KT 15SM SCT210 M04/M07 A2999 RMK CI1 SLP200

CYQF;2007-11-06 11:00;CYQF 061100Z 00000KT 15SM BKN210 M05/M07 A2997 RMK CI2 SLP195

CYQF;2007-11-06 12:00;CYQF 061200Z 14003KT 15SM FEW210 M06/M08 A2995 RMK CI1 SLP192

CYQF;2007-11-06 13:00;CYQF 061300Z 18004KT 15SM BKN210 M07/M09 A2994 RMK CI3 SLP187

CYQF;2007-11-06 14:00;CYQF 061400Z 21003KT 15SM FEW100 BKN210 M07/M09 A2993 RMK AC2CI2 SLP183

CYQF;2007-11-06 15:00;CYQF 061500Z 00000KT 15SM FEW100 BKN210 M06/M08 A2992 RMK AC1CI6 SLP180

CYQF;2007-11-06 16:00;CYQF 061600Z 00000KT 15SM SCT100 BKN250 M05/M07 A2993 RMK AC4CI3 SLP184

CYQF;2007-11-06 17:00;CYQF 061700Z 00000KT 15SM SCT100 BKN250 M03/M06 A2992 RMK AC4CI2 SLP181

CYQF;2007-11-06 18:00;CYQF 061800Z 18005KT 15SM SCT100 BKN250 01/M03 A2993 RMK AC3CI2 SLP176

CYQF;2007-11-06 19:00;CYQF 061900Z 26004KT 15SM FEW100 SCT250 05/M02 A2991 RMK AC2CI1 SLP171

CYQF;2007-11-06 20:00;CYQF 062000Z 00000KT 15SM FEW040 SCT090 08/M01 A2990 RMK SC2AC2 SLP168

CYQF;2007-11-06 21:00;CYQF 062100Z 00000KT 15SM FEW040 FEW100 BKN250 10/00 A2989 RMK SC1AC1CI2 SLP155

CYQF;2007-11-06 22:00;CYQF 062200Z 00000KT 15SM FEW100 BKN250 11/00 A2989 RMK AC2CI2 SLP153

CYQF;2007-11-06 23:00;CYQF 062300Z 22003KT 15SM FEW100 BKN250 11/00 A2989 RMK AC2CI2 SLP154

CYQF;2007-11-07 00:00;CYQF 070000Z 01006KT 15SM BKN100 BKN250 06/M01 A2991 RMK AC3CI2 SLP168

CYQF;2007-11-07 01:00;CYQF 070100Z 00000KT 15SM BKN100 04/M01 A2991 RMK AC6 SLP169

CYQF;2007-11-07 02:00;CYQF 070200Z 05004KT 15SM BKN100 05/M01 A2991 RMK AC6 SLP167

CYQF;2007-11-07 03:00;CYQF 070300Z 27002KT 15SM BKN050 OVC100 04/M01 A2992 RMK SC6AC2 SLP173

CYQF;2007-11-07 03:40;CYQF 070340Z 33003KT 15SM -RA BKN030 OVC100 RMK SC6AC2

CYQF;2007-11-07 04:00;CYQF 070400Z 36005KT 15SM -RA OVC030 04/M01 A2994 RMK SC8 SLP179

CYQF;2007-11-07 05:00;CYQF 070500Z 01003KT 15SM -RA FEW007 OVC035 03/01 A2995 RMK SF2SC6 SLP181

CYQF;2007-11-07 06:00;CYQF 070600Z 03002KT 15SM -RA OVC050 02/01 A2994 RMK SC8 SLP174

CYQF;2007-11-07 07:00;CYQF 070700Z 01007KT 15SM SCT050 OVC200 02/00 A2993 RMK SC4CI0 SLP172

CYQF;2007-11-07 08:00;CYQF 070800Z 00000KT 15SM OVC100 01/M00 A2995 RMK AC8 SLP177

CYQF;2007-11-07 09:00;CYQF 070900Z 32003KT 10SM OVC090 01/M00 A2996 RMK AC8 BR SLP173

CYQF;2007-11-07 10:00;CYQF 071000Z 00000KT 8SM SCT010 OVC090 01/00 A2996 RMK ST3AC5 BR SLP175

CYQF;2007-11-07 10:46;CYQF 071046Z 00000KT 2SM BR SCT090 RMK FG2AC2

CYQF;2007-11-07 11:00;CYQF 071100Z 00000KT 1 1/2SM BR SCT090 M00/M01 A2996 RMK FG2AC1 SLP173

CYQF;2007-11-07 11:14;CYQF 071114Z 00000KT 1/2SM FZFG SKC RMK FG3

CYQF;2007-11-07 11:41;CYQF 071141Z 00000KT 1/4SM FZFG SKC RMK FG6

CYQF;2007-11-07 12:00;CYQF 071200Z 18003KT 1/4SM FZFG SKC M01/M03 A2996 RMK FG6 SLP180

CYQF;2007-11-07 13:00;CYQF 071300Z 00000KT 1/4SM FZFG SKC M02/M03 A2996 RMK FG5 SLP181

CYQF;2007-11-07 14:00;CYQF 071400Z 00000KT 3/8SM FZFG SCT250 M04/M05 A2995 RMK FG2CI0 SLP179

CYQF;2007-11-07 14:48;CYQF 071448Z 00000KT 3SM BR FEW120 FEW250 RMK AC1CI0 VSBY W 1

CYQF;2007-11-07 15:00;CYQF 071500Z 00000KT 2SM BR FEW120 SCT250 M05/M06 A2995 RMK AC1CI1 VSBY W 1/2 SLP182

CYQF;2007-11-07 15:40;CYQF 071540Z 19004KT 3SM BR FEW120 BKN250 RMK AC2CI1

CYQF;2007-11-07 16:00;CYQF 071600Z 00000KT 5SM BR SCT100 BKN250 M01/M02 A2995 RMK AC3CI2 SLP181

CYQF;2007-11-07 17:00;CYQF 071700Z 00000KT 15SM BKN100 OVC250 00/M00 A2994 RMK AC6CI2 BR SLP178

CYQF;2007-11-07 18:00;CYQF 071800Z CCA 18009KT 12SM BKN100 BKN250 03/02 A2993 RMK AC6CI2 BR SLP168

CYQF;2007-11-07 19:00;CYQF 071900Z 18009KT 15SM SCT100 BKN250 04/01 A2990 RMK AC4CI2 SLP161

CYQF;2007-11-07 20:00;CYQF 072000Z 17008KT 15SM SCT100 BKN250 05/00 A2988 RMK AC3CI2 SLP154

CYQF;2007-11-07 21:00;CYQF 072100Z 17007KT 15SM SCT100 BKN250 06/00 A2985 RMK AC3CI3 SLP141

CYQF;2007-11-07 22:00;CYQF 072200Z 15002KT 15SM BKN090 OVC250 06/00 A2983 RMK AC6CI2 VIRGA SLP135

CYQF;2007-11-07 23:00;CYQF 072300Z 00000KT 15SM BKN090 OVC250 05/01 A2984 RMK AC6CI2 VIRGA SLP137

CYQF;2007-11-08 00:00;CYQF 080000Z 20002KT 15SM BKN090 OVC250 04/01 A2984 RMK AC6CI2 VIRGA SLP140

CYQF;2007-11-08 01:00;CYQF 080100Z 18003KT 15SM BKN090 BKN250 03/M01 A2982 RMK AC5CI1 SLP135

CYQF;2007-11-08 02:00;CYQF 080200Z 20004KT 15SM OVC100 02/M01 A2982 RMK AC8 SLP135

CYQF;2007-11-08 03:00;CYQF 080300Z 21002KT 15SM FEW030 OVC070 02/M01 A2981 RMK SC1AC7 SLP138

CYQF;2007-11-08 04:00;CYQF 080400Z 00000KT 15SM BKN100 02/M00 A2982 RMK AC7 SLP141

CYQF;2007-11-08 05:00;CYQF 080500Z 00000KT 15SM SCT100 02/M00 A2985 RMK AC3 SLP148

CYQF;2007-11-08 06:00;CYQF 080600Z 00000KT 15SM FEW100 01/M01 A2984 RMK AC2 SLP140

CYQF;2007-11-08 07:00;CYQF 080700Z 23003KT 15SM FEW100 M01/M03 A2985 RMK AC1 SLP142

CYQF;2007-11-08 08:00;CYQF 080800Z 27003KT 15SM SCT100 M01/M03 A2986 RMK AC2 SLP146

CYQF;2007-11-08 09:00;CYQF 080900Z 23004KT 15SM BKN100 M02/M04 A2985 RMK AC6 FROIN SLP143

CYQF;2007-11-08 10:00;CYQF 081000Z 28003KT 15SM FEW100 M01/M03 A2986 RMK AC2 SLP145

CYQF;2007-11-08 11:00;CYQF 081100Z 00000KT 15SM FEW100 FEW250 M01/M03 A2986 RMK AC0CI1 SLP147

CYQF;2007-11-08 12:00;CYQF 081200Z 00000KT 15SM SKC M02/M03 A2988 RMK SLP155

CYQF;2007-11-08 13:00;CYQF 081300Z 21003KT 15SM FEW100 M03/M04 A2989 RMK AC1 SLP159

CYQF;2007-11-08 14:00;CYQF 081400Z 00000KT 15SM FEW050 FEW100 M02/M04 A2993 RMK SC1AC1 SLP172

CYQF;2007-11-08 15:00;CYQF 081500Z 20005KT 15SM FEW050 FEW210 M04/M06 A2996 RMK SC1CI0 SLP188

CYQF;2007-11-08 16:00;CYQF 081600Z 20004KT 15SM FEW050 FEW250 M01/M03 A3000 RMK SC1CI2 SLP200

CYQF;2007-11-08 17:00;CYQF 081700Z 30010KT 15SM FEW050 FEW250 03/M01 A3001 RMK SC1CI2 SLP204

CYQF;2007-11-08 18:00;CYQF 081800Z 32008KT 15SM FEW050 FEW250 04/M03 A3004 RMK CU1CI2 SLP208

CYQF;2007-11-08 19:00;CYQF 081900Z 34008KT 15SM FEW050 FEW250 04/M03 A3004 RMK CU1CI1 SLP208

CYQF;2007-11-08 20:00;CYQF 082000Z 32008KT 15SM FEW040 BKN250 04/M04 A3005 RMK CF1CI2 SLP210

CYQF;2007-11-08 21:00;CYQF 082100Z 35010KT 15SM FEW050 SCT250 03/M05 A3005 RMK SC1CI2 SLP213

CYQF;2007-11-08 22:00;CYQF 082200Z 36010KT 15SM FEW050 BKN250 04/M05 A3005 RMK SC1CI2 SLP215

CYQF;2007-11-08 23:00;CYQF 082300Z 36006KT 15SM SCT250 02/M05 A3006 RMK CI2 SLP218

CYQF;2007-11-09 00:00;CYQF 090000Z 00000KT 15SM FEW050 SCT250 M00/M06 A3007 RMK SC1CI2 SLP226

CYQF;2007-11-09 01:00;CYQF 090100Z 00000KT 15SM FEW050 SCT250 M02/M07 A3008 RMK SC1CI2 SLP229

CYQF;2007-11-09 02:00;CYQF 090200Z 18003KT 15SM FEW090 FEW250 M04/M07 A3008 RMK AC1CI0 SLP230

CYQF;2007-11-09 03:00;CYQF 090300Z 00000KT 15SM BKN080 OVC250 M03/M06 A3008 RMK AC6CI2 SLP236

CYQF;2007-11-09 04:00;CYQF 090400Z 00000KT 15SM OVC070 M02/M05 A3007 RMK AC8 SLP234

CYQF;2007-11-09 05:00;CYQF 090500Z 14004KT 15SM OVC060 M00/M05 A3006 RMK SC8 SLP229

CYQF;2007-11-09 06:00;CYQF 090600Z 14010KT 15SM BKN070 M00/M06 A3004 RMK AC5 SLP211

CYQF;2007-11-09 07:00;CYQF 090700Z 15012KT 15SM OVC070 M01/M06 A3003 RMK AC8 SLP207

CYQF;2007-11-09 08:00;CYQF 090800Z 15012KT 15SM OVC080 M01/M07 A2999 RMK AC8 SLP196

CYQF;2007-11-09 09:00;CYQF 090900Z 16010G15KT 15SM OVC080 M01/M07 A2995 RMK AC8 SLP180

CYQF;2007-11-09 10:00;CYQF 091000Z 16010G15KT 15SM BKN070 M00/M06 A2993 RMK AC7 SLP173

CYQF;2007-11-09 10:20;CYQF 091020Z 16015G20KT 5SM -SN OVC070 RMK AC8

CYQF;2007-11-09 11:00;CYQF 091100Z 15015G20KT 10SM OVC070 M01/M05 A2987 RMK AC8 SLP156

CYQF;2007-11-09 12:00;CYQF 091200Z 16015G22KT 15SM OVC070 M01/M06 A2983 RMK AC8 SLP141

CYQF;2007-11-09 13:00;CYQF 091300Z 17015G20KT 15SM OVC070 M01/M06 A2977 RMK AC8 SLP125

CYQF;2007-11-09 14:00;CYQF 091400Z 16015G20KT 15SM BKN020 OVC070 M01/M07 A2972 RMK SC6AC2 SLP108

CYQF;2007-11-09 15:00;CYQF 091500Z 15013G19KT 15SM SCT020 BKN070 BKN220 M01/M07 A2967 RMK SC4AC2CI1 SLP090

CYQF;2007-11-09 16:00;CYQF 091600Z 15012G19KT 15SM FEW020 BKN080 BKN220 M00/M06 A2962 RMK SC2AC4CI1 SLP075

CYQF;2007-11-09 17:00;CYQF 091700Z 18013G20KT 15SM FEW020 BKN100 BKN220 00/M05 A2958 RMK SC2AC4CI1 SLP061

CYQF;2007-11-09 18:00;CYQF 091800Z 18015G25KT 15SM FEW020 BKN100 BKN220 00/M05 A2954 RMK SC1AC5CI1 SLP040

CYQF;2007-11-09 19:00;CYQF 091900Z 19015G25KT 15SM FEW020 SCT100 03/M03 A2947 RMK SC1AC3 PRESFR SLP018

CYQF;2007-11-09 20:00;CYQF 092000Z 20010KT 15SM FEW020 BKN080 08/M01 A2944 RMK SC1AC5 SLP010

CYQF;2007-11-09 21:00;CYQF 092100Z 24010KT 15SM FEW020 FEW080 SCT220 13/M00 A2942 RMK SC1AC2CI0 SLP985

CYQF;2007-11-09 22:00;CYQF 092200Z 23010KT 15SM FEW020 SCT080 SCT220 11/M02 A2941 RMK SC1AC2CI0 SLP983

CYQF;2007-11-09 23:00;CYQF 092300Z 22005KT 15SM FEW020 SCT090 SCT250 08/M02 A2943 RMK SC1AC2CI0 SLP988

CYQF;2007-11-10 00:00;CYQF 100000Z 21003KT 15SM FEW020 SCT090 BKN250 06/M03 A2945 RMK SC1AC2CI0 SLP002

CYQF;2007-11-10 01:00;CYQF 100100Z 00000KT 15SM SCT090 BKN250 05/M03 A2947 RMK AC2CI2 SLP011

CYQF;2007-11-10 02:00;CYQF 100200Z 23004KT 15SM FEW090 BKN250 03/M03 A2949 RMK AC2CI2 SLP016

CYQF;2007-11-10 03:00;CYQF 100300Z 03002KT 15SM FEW090 BKN250 02/M02 A2952 RMK AC2CI2 SLP030

CYQF;2007-11-10 04:00;CYQF 100400Z 00000KT 15SM FEW090 SCT250 M01/M04 A2952 RMK AC1CI1 SLP032

CYQF;2007-11-10 05:00;CYQF 100500Z 17002KT 15SM FEW250 M02/M05 A2952 RMK CI1 SLP031

CYQF;2007-11-10 06:00;CYQF 100600Z 00000KT 15SM SKC M04/M06 A2952 RMK SLP038

CYQF;2007-11-10 07:00;CYQF 100700Z 19005KT 15SM FEW100 M03/M06 A2952 RMK AC1 SLP038

CYQF;2007-11-10 08:00;CYQF 100800Z 19006KT 15SM FEW100 M04/M07 A2952 RMK AC1 SLP038

CYQF;2007-11-10 09:00;CYQF 100900Z 18002KT 15SM FEW100 FEW220 M02/M06 A2950 RMK AC1CI1 SLP015

CYQF;2007-11-10 10:00;CYQF 101000Z 00000KT 15SM FEW100 M02/M06 A2950 RMK AC1 SLP016

CYQF;2007-11-10 11:00;CYQF 101100Z 15003KT 15SM FEW100 M03/M06 A2948 RMK AC1 SLP010

CYQF;2007-11-10 12:00;CYQF 101200Z 00000KT 15SM FEW100 M03/M06 A2946 RMK AC1 SLP010

CYQF;2007-11-10 13:00;CYQF 101300Z 19003KT 15SM FEW100 SCT220 M03/M06 A2944 RMK AC2CI1 SLP003

CYQF;2007-11-10 14:00;CYQF 101400Z 19005KT 15SM SCT080 BKN220 M02/M05 A2944 RMK AC3CI2 SLP002

CYQF;2007-11-10 15:00;CYQF 101500Z 19007KT 15SM BKN090 BKN250 M01/M05 A2943 RMK AC5CI1 SLP999

CYQF;2007-11-10 16:00;CYQF 101600Z 17005KT 15SM SCT110 M01/M06 A2939 RMK AC4 SLP989

CYQF;2007-11-10 17:00;CYQF 101700Z 20004KT 15SM FEW030 FEW090 BKN150 02/M03 A2935 RMK CU1AC1AC5 SLP974

CYQF;2007-11-10 18:00;CYQF 101800Z 18005KT 15SM FEW030 FEW090 BKN150 05/M02 A2932 RMK CU1AC2AC3 SLP962

CYQF;2007-11-10 19:00;CYQF 101900Z 18009KT 15SM FEW030 SCT120 BKN250 13/M02 A2928 RMK CU1AC2CI2 SLP950

CYQF;2007-11-10 20:00;CYQF 102000Z 17008KT 15SM FEW030 BKN120 12/M03 A2924 RMK CU1AC6 SLP937

CYQF;2007-11-10 21:00;CYQF 102100Z 18012KT 15SM FEW030 BKN120 12/M02 A2922 RMK CU1AC6 SLP918

CYQF;2007-11-10 22:00;CYQF 102200Z 21010KT 15SM FEW040 SCT100 13/M01 A2921 RMK CU1AC4 SLP916

CYQF;2007-11-10 23:00;CYQF 102300Z 21008KT 15SM SCT040 BKN100 10/M01 A2922 RMK CU4AC2 TCU/SHWRS W SLP917

CYQF;2007-11-10 23:44;CYQF 102344Z 29016G24KT 15SM -SHRA BKN040 BKN100 RMK CU5AC2 TCU ASOCTD HVY SH NW

CYQF;2007-11-11 00:00;CYQF 110000Z CCA 28020G28KT 15SM BKN040 BKN100 08/00 A2925 RMK CU5AC2 TCU ASOCTD HVY SH NW SLP935

CYQF;2007-11-11 00:44;CYQF 110044Z 34012KT 15SM FEW020 BKN040 BKN090 RMK SC2CU5AC1 TCU ASOCTD

CYQF;2007-11-11 01:00;CYQF 110100Z CCA 35030G38KT 15SM FEW020 BKN050 BKN090 05/M02 A2935 RMK SC2SC5AC1 TCU ASOCTD PRESRR SLP966

CYQF;2007-11-11 01:16;CYQF 110116Z 35020G28KT 15SM -RA FEW020 BKN050 BKN090 RMK SC2CU5AC1 TCU ASOCTD PRESRR

CYQF;2007-11-11 01:43;CYQF 110143Z 34015G25KT 15SM SCT040 OVC080 RMK SC3AC5

CYQF;2007-11-11 02:00;CYQF 110200Z 33013G22KT 15SM OVC080 03/M02 A2943 RMK AC7 SLP990

CYQF;2007-11-11 03:00;CYQF 110300Z 35008KT 15SM OVC090 03/M03 A2944 RMK AC7 SLP002

CYQF;2007-11-11 04:00;CYQF 110400Z 30005KT 15SM BKN100 02/M04 A2948 RMK AC6 SLP015

CYQF;2007-11-11 05:00;CYQF 110500Z 27010KT 15SM SCT100 01/M04 A2951 RMK AC4 SLP024

CYQF;2007-11-11 06:00;CYQF 110600Z 27008KT 15SM SKC 00/M05 A2956 RMK SLP040

CYQF;2007-11-11 07:00;CYQF 110700Z 27006KT 15SM SKC M01/M05 A2959 RMK SLP050

CYQF;2007-11-11 08:00;CYQF 110800Z 25006KT 15SM SKC M02/M07 A2960 RMK SLP053

CYQF;2007-11-11 09:00;CYQF 110900Z 17006KT 15SM SKC M04/M08 A2961 RMK SLP057

CYQF;2007-11-11 10:00;CYQF 111000Z 25008KT 15SM SKC M06/M10 A2962 RMK SLP058

CYQF;2007-11-11 11:00;CYQF 111100Z 21002KT 15SM SKC M06/M11 A2963 RMK SLP063

CYQF;2007-11-11 12:00;CYQF 111200Z 23009KT 15SM FEW080 M06/M11 A2965 RMK AC1 SLP074

CYQF;2007-11-11 13:00;CYQF 111300Z 21007KT 15SM FEW080 M05/M12 A2965 RMK AC1 SLP076

CYQF;2007-11-11 14:00;CYQF 111400Z 18006KT 15SM SCT080 M06/M12 A2967 RMK AC2 SLP081

CYQF;2007-11-11 15:00;CYQF 111500Z 19002KT 15SM BKN080 BKN250 M06/M12 A2967 RMK AC5CI1 SLP088

CYQF;2007-11-11 16:00;CYQF 111600Z 20003KT 15SM BKN090 M05/M09 A2966 RMK AC7 SLP086

CYQF;2007-11-11 17:00;CYQF 111700Z 00000KT 15SM BKN080 M03/M08 A2965 RMK AC6 SLP083

CYQF;2007-11-11 18:00;CYQF 111800Z 00000KT 15SM BKN070 M02/M08 A2964 RMK AC6 SLP075

CYQF;2007-11-11 19:00;CYQF 111900Z 00000KT 15SM BKN070 01/M06 A2962 RMK AC6 SLP069

CYQF;2007-11-11 20:00;CYQF 112000Z 22010G17KT 15SM FEW070 06/M08 A2961 RMK AC2 SLP066

CYQF;2007-11-11 21:00;CYQF 112100Z 22015KT 15SM FEW040 FEW250 08/M11 A2962 RMK CU1CI1 SLP063

CYQF;2007-11-11 22:00;CYQF 112200Z 25012KT 15SM FEW040 SCT250 08/M11 A2962 RMK CU1CI1 SLP062

CYQF;2007-11-11 23:00;CYQF 112300Z 25008KT 15SM FEW250 08/M11 A2963 RMK CI1 SLP066

CYQF;2007-11-12 00:00;CYQF 120000Z 24009KT 15SM FEW100 FEW250 02/M11 A2964 RMK AC1CI0 SLP077

CYQF;2007-11-12 01:00;CYQF 120100Z 21005KT 15SM FEW100 BKN250 M03/M10 A2964 RMK AC2CI2 SLP079

CYQF;2007-11-12 02:00;CYQF 120200Z 18005KT 15SM SCT120 OVC250 M01/M10 A2965 RMK AC4CI2 SLP081

CYQF;2007-11-12 03:00;CYQF 120300Z 20003KT 15SM SCT120 OVC250 00/M09 A2965 RMK AC4CI2 SLP085

CYQF;2007-11-12 04:00;CYQF 120400Z 16004KT 15SM SCT150 OVC250 01/M09 A2964 RMK AC3CI3 SLP082

CYQF;2007-11-12 05:00;CYQF 120500Z 20008KT 15SM SCT150 OVC250 01/M09 A2964 RMK AC3CI4 SLP081

CYQF;2007-11-12 06:00;CYQF 120600Z 19010KT 15SM FEW150 BKN250 01/M10 A2962 RMK AC2CI2 SLP069

CYQF;2007-11-12 07:00;CYQF 120700Z 19007KT 15SM FEW150 BKN250 00/M09 A2962 RMK AC2CI2 SLP068

CYQF;2007-11-12 08:00;CYQF 120800Z 19011KT 15SM SCT150 BKN250 02/M09 A2960 RMK AC3CI3 SLP063

CYQF;2007-11-12 09:00;CYQF 120900Z 20010KT 15SM SCT150 BKN250 02/M08 A2959 RMK AC3CI3 SLP045

CYQF;2007-11-12 10:00;CYQF 121000Z 18012KT 15SM SCT150 OVC250 03/M08 A2957 RMK AC3CI3 SLP039

CYQF;2007-11-12 11:00;CYQF 121100Z 19008KT 15SM SCT150 OVC250 04/M08 A2954 RMK AC3CI3 SLP029

CYQF;2007-11-12 12:00;CYQF 121200Z 19013KT 15SM SCT150 OVC250 04/M08 A2952 RMK AC3CI3 SLP026

CYQF;2007-11-12 13:00;CYQF 121300Z 17013KT 15SM SCT150 BKN250 04/M08 A2950 RMK AC3CI3 SLP019

CYQF;2007-11-12 14:00;CYQF 121400Z 18010KT 15SM BKN150 OVC250 03/M08 A2947 RMK AC5CI2 SLP010

CYQF;2007-11-12 15:00;CYQF 121500Z 18012KT 15SM OVC120 04/M08 A2945 RMK AC6 SLP004

CYQF;2007-11-12 16:00;CYQF 121600Z 17012KT 15SM OVC120 04/M07 A2943 RMK AC6 SLP997

CYQF;2007-11-12 17:00;CYQF 121700Z 18015KT 15SM FEW090 OVC120 06/M07 A2938 RMK AC1AC6 SLP984

CYQF;2007-11-12 18:00;CYQF 121800Z 19015G20KT 15SM FEW090 OVC120 08/M08 A2934 RMK AC2AC6 SLP959

CYQF;2007-11-12 19:00;CYQF 121900Z CCA 20017G24KT 15SM SCT090 BKN120 09/M07 A2925 RMK AC3AC3 PRESFR SLP933

CYQF;2007-11-12 20:00;CYQF 122000Z 18018G29KT 15SM FEW090 BKN150 09/M07 A2919 RMK AC2AC3 SLP915

CYQF;2007-11-12 21:00;CYQF 122100Z 18016G25KT 15SM FEW090 BKN150 09/M07 A2913 RMK AC2AC5 PRESFR SLP884

CYQF;2007-11-12 22:00;CYQF 122200Z CCA 20017G24KT 15SM SCT090 BKN150 09/M07 A2906 RMK AC3AC3 PRESFR SLP864

CYQF;2007-11-12 23:00;CYQF 122300Z 18016G22KT 15SM BKN080 08/M05 A2902 RMK AC5 SLP852

CYQF;2007-11-13 00:00;CYQF 130000Z 20012KT 15SM FEW080 07/M06 A2900 RMK AC2 SLP841

CYQF;2007-11-13 01:00;CYQF 130100Z 23010G19KT 15SM FEW080 06/M06 A2897 RMK AC2 SLP832

CYQF;2007-11-13 01:23;CYQF 130123Z 21025G35KT 15SM FEW080 RMK AC2

CYQF;2007-11-13 02:00;CYQF 130200Z 22020G34KT 15SM FEW080 06/M04 A2896 RMK AC1 SLP829

CYQF;2007-11-13 03:00;CYQF 130300Z 22014G21KT 15SM OVC160 05/M03 A2899 RMK AC3 SLP839

CYQF;2007-11-13 04:00;CYQF 130400Z 21015G26KT 15SM BKN160 04/M02 A2899 RMK AC2 SLP839

CYQF;2007-11-13 05:00;CYQF 130500Z 24010G15KT 15SM BKN160 03/M02 A2903 RMK AC5 SLP852

CYQF;2007-11-13 06:00;CYQF 130600Z 21007KT 15SM FEW160 01/M03 A2906 RMK AC2 SLP865

CYQF;2007-11-13 07:00;CYQF 130700Z 24008KT 15SM BKN140 00/M03 A2913 RMK AC5 PRESRR SLP885

CYQF;2007-11-13 08:00;CYQF 130800Z 27012G18KT 15SM BKN140 04/M05 A2918 RMK AC3 SLP901

CYQF;2007-11-13 09:00;CYQF 130900Z 29011G17KT 15SM BKN140 04/M10 A2924 RMK AC3 SLP921

CYQF;2007-11-13 10:00;CYQF 131000Z 28014G23KT 15SM BKN140 04/M11 A2929 RMK AC5 SLP938

CYQF;2007-11-13 11:00;CYQF 131100Z 27010G16KT 15SM BKN140 04/M11 A2935 RMK AC5 SLP956

CYQF;2007-11-13 12:00;CYQF 131200Z 26010KT 15SM BKN140 02/M11 A2939 RMK AC4 SLP979

CYQF;2007-11-13 13:00;CYQF 131300Z CCA 27010KT 15SM FEW120 BKN250 02/M11 A2943 RMK AC2CI2 SLP992

CYQF;2007-11-13 14:00;CYQF 131400Z 28011KT 15SM BKN120 BKN250 02/M11 A2948 RMK AC5CI2 SLP006

CYQF;2007-11-13 15:00;CYQF 131500Z 28012KT 15SM FEW060 BKN120 BKN250 02/M11 A2953 RMK SC1AC4CI1 SLP028

CYQF;2007-11-13 16:00;CYQF 131600Z 32010KT 15SM FEW040 BKN120 BKN250 02/M12 A2958 RMK SC1AC4CI1 SLP044

CYQF;2007-11-13 17:00;CYQF 131700Z 30012G20KT 15SM BKN050 04/M12 A2964 RMK SC7 SLP062

CYQF;2007-11-13 18:00;CYQF 131800Z 32020G33KT 15SM FEW025 BKN045 05/M11 A2968 RMK SC2SC6 VIRGA SLP082

CYQF;2007-11-13 19:00;CYQF 131900Z 33018G25KT 15SM FEW025 SCT050 BKN120 05/M10 A2973 RMK SC2SC2AC2 SLP096

CYQF;2007-11-13 20:00;CYQF 132000Z 32015G25KT 15SM FEW020 SCT050 BKN120 05/M09 A2976 RMK CF1SC2AC2 VIRGA SLP107

CYQF;2007-11-13 21:00;CYQF 132100Z 33015G25KT 15SM FEW020 FEW050 SCT120 BKN250 05/M09 A2979 RMK CF1SC2AC2CI1 SLP116

CYQF;2007-11-13 22:00;CYQF 132200Z 33015G25KT 15SM FEW030 BKN250 04/M09 A2983 RMK CF2CI2 SLP129

CYQF;2007-11-13 23:00;CYQF 132300Z 34012G20KT 15SM FEW040 SCT250 03/M08 A2988 RMK SC2CI1 SLP144

CYQF;2007-11-14 00:00;CYQF 140000Z 34010G15KT 15SM FEW040 01/M08 A2993 RMK SC2 SLP173

CYQF;2007-11-14 01:00;CYQF 140100Z 32007KT 15SM FEW040 M00/M08 A2997 RMK SC2 SLP186

CYQF;2007-11-14 02:00;CYQF 140200Z 34010KT 15SM BKN160 M02/M08 A3002 RMK AC6 SLP201

CYQF;2007-11-14 03:00;CYQF 140300Z 33010G15KT 15SM BKN160 01/M07 A3005 RMK AC6 SLP213

CYQF;2007-11-14 04:00;CYQF 140400Z 33009KT 15SM BKN120 01/M07 A3007 RMK AC7 SLP221

CYQF;2007-11-14 05:00;CYQF 140500Z 33004KT 15SM OVC120 00/M07 A3011 RMK AC8 SLP233

CYQF;2007-11-14 06:00;CYQF 140600Z 28007KT 15SM OVC120 M01/M07 A3014 RMK AC8 SLP241

CYQF;2007-11-14 07:00;CYQF 140700Z 30008KT 15SM BKN120 M01/M10 A3016 RMK AC5 SLP250

CYQF;2007-11-14 08:00;CYQF 140800Z 31006KT 15SM SCT120 M02/M11 A3019 RMK AC3 SLP257

CYQF;2007-11-14 09:00;CYQF 140900Z 19004KT 15SM SCT120 M03/M11 A3021 RMK AC3 SLP271

CYQF;2007-11-14 10:00;CYQF 141000Z 24004KT 15SM FEW100 M04/M11 A3023 RMK AC2 SLP276

CYQF;2007-11-14 11:00;CYQF 141100Z 25005KT 15SM FEW100 M05/M12 A3025 RMK AC2 SLP281

CYQF;2007-11-14 12:00;CYQF 141200Z 27002KT 15SM FEW100 M07/M13 A3025 RMK AC2 SLP292

CYQF;2007-11-14 13:00;CYQF 141300Z 20005KT 15SM FEW100 M07/M12 A3025 RMK AC2 SLP294

CYQF;2007-11-14 14:00;CYQF 141400Z 21005KT 15SM SKC M08/M13 A3026 RMK SLP295

CYQF;2007-11-14 15:00;CYQF 141500Z 19003KT 15SM SKC M08/M13 A3025 RMK SLP296

CYQF;2007-11-14 16:00;CYQF 141600Z 18003KT 15SM FEW280 M07/M13 A3026 RMK CI0 SLP299

CYQF;2007-11-14 17:00;CYQF 141700Z 18005KT 15SM SKC M02/M10 A3025 RMK SLP296

CYQF;2007-11-14 18:00;CYQF 141800Z 18005KT 15SM SCT280 01/M12 A3025 RMK CI1 SLP286

CYQF;2007-11-14 19:00;CYQF 141900Z 20003KT 15SM SCT280 03/M12 A3023 RMK CI1 SLP279

CYQF;2007-11-14 20:00;CYQF 142000Z 00000KT 15SM FEW280 04/M11 A3021 RMK CI1 SLP272

CYQF;2007-11-14 21:00;CYQF 142100Z 14007KT 15SM FEW280 05/M10 A3017 RMK CI1 SLP258

CYQF;2007-11-14 22:00;CYQF 142200Z 14005KT 15SM BKN280 05/M11 A3014 RMK CI2 SLP246

CYQF;2007-11-14 23:00;CYQF 142300Z 14007KT 15SM OVC280 03/M10 A3012 RMK CS5 HALO SLP241

CYQF;2007-11-15 00:00;CYQF 150000Z 15006KT 15SM OVC240 01/M11 A3009 RMK CS6 SLP236

CYQF;2007-11-15 01:00;CYQF 150100Z 14005KT 15SM OVC220 M01/M12 A3004 RMK CS6 SLP222

CYQF;2007-11-15 02:00;CYQF 150200Z 00000KT 15SM OVC220 M01/M12 A3000 RMK CS6 SLP208

CYQF;2007-11-15 03:00;CYQF 150300Z 16008KT 15SM OVC220 M01/M12 A2995 RMK CS6 SLP194

CYQF;2007-11-15 04:00;CYQF 150400Z 16006KT 15SM OVC200 M02/M13 A2989 RMK CS5 SLP173

CYQF;2007-11-15 05:00;CYQF 150500Z 15007KT 15SM OVC150 M01/M12 A2984 RMK AC7 SLP157

CYQF;2007-11-15 06:00;CYQF 150600Z 16010KT 15SM OVC150 M01/M11 A2979 RMK AC8 SLP128

CYQF;2007-11-15 07:00;CYQF 150700Z 15007KT 15SM OVC120 M00/M06 A2976 RMK AC8 SLP116

CYQF;2007-11-15 07:26;CYQF 150726Z 16005KT 15SM -FZRA OVC120 RMK AC8

CYQF;2007-11-15 08:00;CYQF 150800Z 13010KT 15SM OVC120 M01/M08 A2970 RMK AC8 REFZRA SLP100

CYQF;2007-11-15 09:00;CYQF 150900Z 13006KT 15SM OVC120 M01/M08 A2966 RMK AC8 SLP076

CYQF;2007-11-15 10:00;CYQF 151000Z 15005KT 15SM BKN120 M01/M09 A2960 RMK AC5 SLP058

CYQF;2007-11-15 11:00;CYQF 151100Z 19008KT 15SM BKN120 M02/M09 A2955 RMK AC6 SLP044

CYQF;2007-11-15 12:00;CYQF 151200Z 20010KT 15SM SCT120 M03/M09 A2951 RMK AC3 SLP031

CYQF;2007-11-15 13:00;CYQF 151300Z 21003KT 15SM FEW120 M02/M09 A2951 RMK AC2 SLP031

CYQF;2007-11-15 14:00;CYQF 151400Z 22010KT 15SM FEW120 SCT250 M03/M08 A2951 RMK AC2CI1 SLP031

CYQF;2007-11-15 15:00;CYQF 151500Z 00000KT 15SM FEW080 BKN120 OVC250 M02/M07 A2952 RMK AC2AC2CI2 SLP036

CYQF;2007-11-15 16:00;CYQF 151600Z 00000KT 15SM FEW080 BKN120 OVC250 M01/M07 A2952 RMK AC2AC4CI1 SLP036

CYQF;2007-11-15 17:00;CYQF 151700Z 00000KT 15SM FEW080 BKN120 OVC250 M00/M06 A2953 RMK AC2AC4CI1 SLP038

CYQF;2007-11-15 18:00;CYQF 151800Z 00000KT 15SM FEW070 SCT120 BKN250 02/M05 A2954 RMK AC1AC2CI0 SLP038

CYQF;2007-11-15 19:00;CYQF 151900Z 00000KT 15SM FEW120 SCT250 06/M06 A2953 RMK AC1CI2 SLP036

CYQF;2007-11-15 20:00;CYQF 152000Z 00000KT 15SM FEW100 SCT250 06/M05 A2954 RMK AC2CI1 SLP039

CYQF;2007-11-15 21:00;CYQF 152100Z 00000KT 15SM FEW100 BKN250 09/M04 A2956 RMK AC2CI2 SLP036

CYQF;2007-11-15 22:00;CYQF 152200Z 08002KT 15SM SCT100 BKN250 07/M05 A2956 RMK AC3CI2 SLP038

CYQF;2007-11-15 23:00;CYQF 152300Z 04004KT 15SM FEW120 BKN250 05/M05 A2957 RMK AC1CI2 SLP042

CYQF;2007-11-16 00:00;CYQF 160000Z 08002KT 15SM FEW120 SCT250 02/M06 A2959 RMK AC1CI2 SLP059

CYQF;2007-11-16 01:00;CYQF 160100Z 00000KT 15SM FEW120 BKN250 00/M06 A2959 RMK AC1CI2 SLP059

CYQF;2007-11-16 02:00;CYQF 160200Z 00000KT 15SM FEW120 SCT250 M01/M06 A2959 RMK AC1CI1 SLP060

CYQF;2007-11-16 03:00;CYQF 160300Z 00000KT 15SM FEW120 BKN250 01/M06 A2962 RMK AC2CI2 SLP068

CYQF;2007-11-16 04:00;CYQF 160400Z 36010KT 15SM FEW120 M03/M07 A2962 RMK AC2 SLP070

CYQF;2007-11-16 05:00;CYQF 160500Z 00000KT 15SM FEW120 BKN250 M01/M06 A2962 RMK AC2CI1 SLP070

CYQF;2007-11-16 06:00;CYQF 160600Z 00000KT 15SM FEW120 BKN250 M02/M06 A2961 RMK AC2CI1 SLP066

CYQF;2007-11-16 07:00;CYQF 160700Z 00000KT 15SM FEW250 M03/M07 A2960 RMK CI1 SLP063

CYQF;2007-11-16 08:00;CYQF 160800Z 15002KT 15SM SCT120 M03/M07 A2962 RMK AC3 SLP067

CYQF;2007-11-16 09:00;CYQF 160900Z 00000KT 15SM FEW120 SCT250 M01/M07 A2962 RMK AC1CI1 SLP058

CYQF;2007-11-16 10:00;CYQF 161000Z 00000KT 15SM FEW250 M03/M07 A2959 RMK CI1 SLP050

CYQF;2007-11-16 11:00;CYQF 161100Z 00000KT 15SM SKC M02/M07 A2958 RMK SLP048

CYQF;2007-11-16 12:00;CYQF 161200Z 00000KT 15SM SCT250 M04/M07 A2958 RMK CI2 SLP055

CYQF;2007-11-16 13:00;CYQF 161300Z 00000KT 15SM SCT120 OVC240 M04/M08 A2957 RMK AC4CI2 SLP053

CYQF;2007-11-16 14:00;CYQF 161400Z 00000KT 15SM BKN100 OVC220 M03/M07 A2956 RMK AC6CI2 SLP051

CYQF;2007-11-16 15:00;CYQF 161500Z 00000KT 15SM BKN090 BKN220 M04/M07 A2956 RMK AC5CI2 SLP053

CYQF;2007-11-16 16:00;CYQF 161600Z 00000KT 15SM FEW040 BKN090 BKN220 M04/M07 A2956 RMK SC1AC4CI2 SLP052

CYQF;2007-11-16 17:00;CYQF 161700Z 14005KT 15SM FEW040 BKN090 BKN250 00/M04 A2957 RMK SC1AC5CI2 VIRGA SLP055

CYQF;2007-11-16 18:00;CYQF 161800Z 15005KT 15SM FEW040 BKN090 BKN250 01/M04 A2957 RMK SC2AC4CI1 VIRGA SLP051

CYQF;2007-11-16 19:00;CYQF 161900Z 16007KT 15SM FEW040 SCT090 BKN160 02/M04 A2956 RMK SC2AC2AC2 SLP050

CYQF;2007-11-16 20:00;CYQF 162000Z 12003KT 15SM FEW040 FEW090 BKN160 04/M03 A2956 RMK SC1AC2AC3 SLP050

CYQF;2007-11-16 21:00;CYQF 162100Z 12003KT 15SM FEW040 FEW090 BKN160 05/M03 A2958 RMK SC1AC1AC3 SLP050

CYQF;2007-11-16 22:00;CYQF 162200Z 05002KT 15SM FEW040 SCT090 BKN150 04/M03 A2959 RMK SC2AC2AC2 SLP054

CYQF;2007-11-16 23:00;CYQF 162300Z 03002KT 15SM FEW040 BKN090 BKN150 04/M03 A2961 RMK SC2AC3AC2 SLP059

CYQF;2007-11-17 00:00;CYQF 170000Z 36010KT 15SM FEW040 FEW090 BKN210 M00/M04 A2964 RMK SC1AC2CI1 SLP078

CYQF;2007-11-17 01:00;CYQF 170100Z 36004KT 15SM FEW040 FEW090 BKN210 M02/M05 A2965 RMK SC1AC2CI2 SLP082

CYQF;2007-11-17 02:00;CYQF 170200Z 35005KT 15SM FEW090 BKN210 M00/M04 A2967 RMK AC2CI1 SLP088

CYQF;2007-11-17 03:00;CYQF 170300Z 33005KT 15SM BKN080 M01/M05 A2969 RMK AC6 SLP100

CYQF;2007-11-17 04:00;CYQF 170400Z 00000KT 15SM BKN080 M01/M05 A2971 RMK AC6 SLP104

CYQF;2007-11-17 05:00;CYQF 170500Z 00000KT 15SM SCT080 M02/M05 A2971 RMK AC3 SLP105

CYQF;2007-11-17 06:00;CYQF 170600Z 35002KT 15SM FEW080 M04/M07 A2973 RMK AC2 SLP108

CYQF;2007-11-17 07:00;CYQF 170700Z 27002KT 15SM BKN080 M05/M07 A2976 RMK AC5 SLP118

CYQF;2007-11-17 08:00;CYQF 170800Z 00000KT 15SM BKN080 M03/M05 A2978 RMK AC7 SLP125

CYQF;2007-11-17 09:00;CYQF 170900Z 00000KT 15SM BKN080 M02/M05 A2978 RMK AC7 SLP122

CYQF;2007-11-17 10:00;CYQF 171000Z 00000KT 15SM FEW080 M03/M05 A2979 RMK AC2 SLP123

CYQF;2007-11-17 11:00;CYQF 171100Z 00000KT 15SM SCT080 M03/M05 A2979 RMK AC3 SLP124

CYQF;2007-11-17 12:00;CYQF 171200Z 00000KT 15SM BKN110 M04/M06 A2980 RMK AC5 SLP136

CYQF;2007-11-17 13:00;CYQF 171300Z 00000KT 15SM BKN110 M04/M06 A2983 RMK AC7 SLP143

CYQF;2007-11-17 14:00;CYQF 171400Z 00000KT 15SM BKN110 M04/M06 A2982 RMK AC6 SLP141

CYQF;2007-11-17 15:00;CYQF 171500Z 00000KT 15SM FEW110 SCT200 M05/M07 A2980 RMK AC2CI1 SLP138

CYQF;2007-11-17 16:00;CYQF 171600Z 00000KT 15SM FEW110 SCT200 M05/M07 A2981 RMK AC2CI1 SLP140

CYQF;2007-11-17 17:00;CYQF 171700Z 23003KT 15SM BKN200 M03/M05 A2980 RMK CI5 SLP139

CYQF;2007-11-17 18:00;CYQF 171800Z 00000KT 15SM BKN200 M01/M04 A2978 RMK CI5 SLP130

CYQF;2007-11-17 19:00;CYQF 171900Z 00000KT 15SM BKN200 01/M03 A2976 RMK CI6 SLP123

CYQF;2007-11-17 20:00;CYQF 172000Z 10003KT 15SM SCT160 BKN200 02/M03 A2972 RMK AC3CI3 SLP112

CYQF;2007-11-17 21:00;CYQF 172100Z 12005KT 15SM BKN150 03/M03 A2969 RMK AC6 SLP092

CYQF;2007-11-17 22:00;CYQF 172200Z 10005KT 15SM BKN150 02/M03 A2967 RMK AC6 SLP087

CYQF;2007-11-17 23:00;CYQF 172300Z 10005KT 15SM BKN150 02/M04 A2964 RMK AC6 SLP075

CYQF;2007-11-18 00:00;CYQF 180000Z 13005KT 15SM BKN150 01/M04 A2961 RMK AC6 SLP067

CYQF;2007-11-18 01:00;CYQF 180100Z 16005KT 15SM BKN150 00/M05 A2959 RMK AC6 SLP060

CYQF;2007-11-18 02:00;CYQF 180200Z 14005KT 15SM BKN150 BKN250 00/M04 A2955 RMK AC5CI1 SLP048

CYQF;2007-11-18 03:00;CYQF 180300Z 15005KT 15SM BKN150 BKN250 M00/M05 A2951 RMK AC5CI1 SLP036

CYQF;2007-11-18 04:00;CYQF 180400Z 14003KT 15SM BKN150 BKN250 M00/M05 A2948 RMK AC5CI1 SLP026

CYQF;2007-11-18 05:00;CYQF 180500Z 14008KT 15SM BKN120 BKN250 M00/M05 A2944 RMK AC6CI1 SLP014

CYQF;2007-11-18 06:00;CYQF 180600Z 11003KT 15SM BKN120 M02/M05 A2943 RMK AC5 SLP004

CYQF;2007-11-18 07:00;CYQF 180700Z 00000KT 15SM OVC060 M01/M05 A2943 RMK SC8 SLP005

CYQF;2007-11-18 08:00;CYQF 180800Z 34003KT 15SM FEW060 BKN120 M03/M05 A2942 RMK SC2AC3 SLP003

CYQF;2007-11-18 09:00;CYQF 180900Z 30003KT 15SM FEW060 FEW120 M05/M08 A2943 RMK SC1AC2 SLP004

CYQF;2007-11-18 10:00;CYQF 181000Z 30007KT 15SM FEW120 M04/M06 A2944 RMK AC1 SLP009

CYQF;2007-11-18 11:00;CYQF 181100Z 29005KT 15SM FEW120 M06/M08 A2946 RMK AC1 SLP015

CYQF;2007-11-18 12:00;CYQF 181200Z 27003KT 15SM OVC120 M04/M06 A2951 RMK AC6 SLP034

CYQF;2007-11-18 12:24;CYQF 181224Z 21007KT 5SM -SHGS OVC050 OVC120 RMK SC5AC3

CYQF;2007-11-18 12:31;CYQF 181231Z 00000KT 10SM -SN BKN060 BKN120 RMK SC5AC2

CYQF;2007-11-18 13:00;CYQF 181300Z 30003KT 15SM BKN120 M04/M06 A2956 RMK AC5 SLP048

CYQF;2007-11-18 14:00;CYQF 181400Z 31013G20KT 15SM BKN017 BKN120 M01/M04 A2958 RMK SC5AC2 SLP055

CYQF;2007-11-18 15:00;CYQF 181500Z 32011G16KT 15SM SCT017 BKN060 BKN120 M01/M03 A2961 RMK SC3SC2AC2 TCU EMBDD SLP065

CYQF;2007-11-18 16:00;CYQF 181600Z 31010G15KT 15SM FEW020 SCT090 M00/M03 A2963 RMK SC1AC2 SLP072

CYQF;2007-11-18 17:00;CYQF 181700Z 28010KT 15SM FEW090 01/M02 A2966 RMK AC2 SLP080

CYQF;2007-11-18 18:00;CYQF 181800Z 28010G15KT 15SM FEW090 03/M04 A2968 RMK AC2 SLP089

CYQF;2007-11-18 19:00;CYQF 181900Z 29010G15KT 15SM BKN090 04/M06 A2970 RMK AC4 SLP093

CYQF;2007-11-18 20:00;CYQF 182000Z 30010G15KT 15SM FEW040 SCT090 05/M05 A2969 RMK CU1AC2 SLP091

CYQF;2007-11-18 21:00;CYQF 182100Z 29010G15KT 15SM FEW050 SCT090 05/M07 A2969 RMK CU2AC1 SLP092

CYQF;2007-11-18 22:00;CYQF 182200Z 35010KT 15SM VCSH SCT050CB BKN090 05/M08 A2969 RMK CB3AC2 SLP093

CYQF;2007-11-18 23:00;CYQF 182300Z 32012KT 15SM SCT050TCU SCT100 04/M12 A2970 RMK TCU3AC1 VIRGA SLP095

CYQF;2007-11-19 00:00;CYQF 190000Z 29006KT 15SM FEW050 FEW100 01/M14 A2971 RMK CU2AC1 VIRGA SLP104

CYQF;2007-11-19 01:00;CYQF 190100Z 30008KT 15SM FEW050 FEW100 M00/M14 A2972 RMK SC1AC1 SLP106

CYQF;2007-11-19 02:00;CYQF 190200Z 31012KT 15SM FEW100 M01/M14 A2975 RMK AC1 SLP114

CYQF;2007-11-19 03:00;CYQF 190300Z 30006KT 15SM FEW100 M02/M09 A2975 RMK AC1 SLP117

CYQF;2007-11-19 04:00;CYQF 190400Z 28005KT 15SM SKC M05/M10 A2976 RMK SLP120

CYQF;2007-11-19 05:00;CYQF 190500Z 26005KT 15SM SKC M06/M11 A2977 RMK SLP124

CYQF;2007-11-19 06:00;CYQF 190600Z 20002KT 15SM SKC M07/M12 A2979 RMK SLP131

CYQF;2007-11-19 07:00;CYQF 190700Z 19004KT 15SM SKC M08/M13 A2981 RMK SLP137

CYQF;2007-11-19 08:00;CYQF 190800Z 24007KT 15SM FEW250 M10/M15 A2981 RMK CI1 SLP138

CYQF;2007-11-19 09:00;CYQF 190900Z 24006KT 15SM FEW250 M09/M15 A2983 RMK CI1 SLP144

CYQF;2007-11-19 10:00;CYQF 191000Z 29004KT 15SM FEW250 M09/M15 A2985 RMK CI0 SLP152

CYQF;2007-11-19 13:00;CYQF 191300Z 27007KT 15SM SKC M09/M15 A2990 RMK SLP174

CYQF;2007-11-19 14:00;CYQF 191400Z 29006KT 15SM SKC M08/M15 A2991 RMK SLP177

CYQF;2007-11-19 15:00;CYQF 191500Z 25006KT 15SM SKC M10/M15 A2993 RMK SLP188

CYQF;2007-11-19 16:00;CYQF 191600Z 25008KT 15SM SKC M08/M13 A2995 RMK SLP196

CYQF;2007-11-19 17:00;CYQF 191700Z 25004KT 15SM SKC M05/M12 A2996 RMK SLP200

CYQF;2007-11-19 18:00;CYQF 191800Z 27006KT 15SM SKC M02/M11 A2998 RMK SLP202

CYQF;2007-11-19 19:00;CYQF 191900Z 24002KT 15SM SKC 00/M11 A2997 RMK SLP201

CYQF;2007-11-19 20:00;CYQF 192000Z 33005KT 15SM SKC 02/M12 A2998 RMK SLP204

CYQF;2007-11-19 21:00;CYQF 192100Z 28003KT 15SM SKC 02/M11 A2999 RMK SLP203

CYQF;2007-11-19 22:00;CYQF 192200Z 31002KT 15SM SKC 02/M12 A2999 RMK SLP204

CYQF;2007-11-19 23:00;CYQF 192300Z 00000KT 15SM SKC 01/M12 A3000 RMK SLP207

CYQF;2007-11-20 00:00;CYQF 200000Z 00000KT 15SM SKC M03/M13 A3002 RMK SLP220

CYQF;2007-11-20 01:00;CYQF 200100Z 00000KT 15SM SKC M06/M12 A3003 RMK SLP224

CYQF;2007-11-20 02:00;CYQF 200200Z 00000KT 15SM SKC M09/M14 A3005 RMK SLP231

CYQF;2007-11-20 03:00;CYQF 200300Z 00000KT 15SM SKC M08/M14 A3007 RMK SLP244

CYQF;2007-11-20 04:00;CYQF 200400Z 00000KT 15SM SKC M09/M14 A3008 RMK SLP248

CYQF;2007-11-20 05:00;CYQF 200500Z 00000KT 15SM SKC M10/M14 A3009 RMK SLP250

CYQF;2007-11-20 06:00;CYQF 200600Z 00000KT 15SM FEW250 M10/M14 A3009 RMK CI0 SLP245

CYQF;2007-11-20 07:00;CYQF 200700Z 00000KT 15SM BKN220 M11/M15 A3009 RMK CI1 SLP246

CYQF;2007-11-20 08:00;CYQF 200800Z 19003KT 15SM BKN150 M09/M13 A3010 RMK AC5 SLP247

CYQF;2007-11-20 09:00;CYQF 200900Z 20003KT 15SM SCT150 M10/M13 A3010 RMK AC3 SLP244

CYQF;2007-11-20 10:00;CYQF 201000Z 20004KT 15SM FEW150 M10/M13 A3011 RMK AC2 SLP248

CYQF;2007-11-20 11:00;CYQF 201100Z 00000KT 15SM SCT150 M10/M13 A3012 RMK AC2 SLP251

CYQF;2007-11-20 12:00;CYQF 201200Z 00000KT 15SM FEW150 M10/M14 A3014 RMK AC2 SLP262

CYQF;2007-11-20 13:00;CYQF 201300Z 00000KT 15SM FEW150 M12/M15 A3015 RMK AC2 SLP268

CYQF;2007-11-20 14:00;CYQF 201400Z 00000KT 15SM FEW150 M12/M16 A3017 RMK AC1 SLP274

CYQF;2007-11-20 15:00;CYQF 201500Z 25004KT 15SM FEW120 FEW250 M12/M16 A3019 RMK AC2CI0 SLP291

CYQF;2007-11-20 16:00;CYQF 201600Z 21003KT 15SM FEW120 FEW250 M11/M15 A3021 RMK AC1CI1 SLP296

CYQF;2007-11-20 17:00;CYQF 201700Z 00000KT 15SM FEW120 FEW250 M06/M11 A3023 RMK AC1CI0 SLP302

CYQF;2007-11-20 18:00;CYQF 201800Z 32010KT 15SM FEW060 FEW120 SCT250 M03/M09 A3024 RMK SC1AC1CI2 SLP298

CYQF;2007-11-20 19:00;CYQF 201900Z 33010G15KT 15SM BKN023 BKN120 M03/M09 A3025 RMK SC5AC1 SLP300

CYQF;2007-11-20 20:00;CYQF 202000Z 34010G15KT 15SM SCT025 BKN100 M03/M09 A3025 RMK SC4AC2 SLP302

CYQF;2007-11-20 21:00;CYQF 202100Z 34010KT 15SM SCT025 BKN100 BKN250 M04/M10 A3026 RMK SC3AC2CI1 SLP307

CYQF;2007-11-20 22:00;CYQF 202200Z 35010G15KT 15SM BKN025 BKN100 M03/M09 A3027 RMK SC5AC2 SLP309

CYQF;2007-11-20 23:00;CYQF 202300Z 35010KT 15SM BKN020 BKN080 M04/M09 A3030 RMK SC5AC2 SLP317

CYQF;2007-11-20 23:20;CYQF 202320Z 34010KT 10SM -SN BKN020 OVC080 RMK SC6AC2

CYQF;2007-11-21 00:00;CYQF 210000Z 35007KT 3SM -SN OVC020 M05/M08 A3032 RMK SN1SC7 SLP328

CYQF;2007-11-21 01:00;CYQF 210100Z 35003KT 2SM -SN OVC020 M06/M08 A3034 RMK SN2SC6 SLP335

CYQF;2007-11-21 01:11;CYQF 210111Z 02002KT 4SM -SN OVC020 RMK SC8

CYQF;2007-11-21 02:00;CYQF 210200Z 03008KT 3SM -SN OVC020 M06/M08 A3036 RMK SN1SC7 SLP341

CYQF;2007-11-21 02:47;CYQF 210247Z 01010KT 15SM BKN020 RMK SC6

CYQF;2007-11-21 03:00;CYQF 210300Z 02010KT 15SM BKN018 M07/M09 A3038 RMK SC6 SLP354

CYQF;2007-11-21 04:00;CYQF 210400Z 02002KT 15SM BKN017 M07/M10 A3041 RMK SC6 SLP362

CYQF;2007-11-21 05:00;CYQF 210500Z 02007KT 15SM BKN017 M08/M10 A3042 RMK SC7 SLP367

CYQF;2007-11-21 06:00;CYQF 210600Z 30002KT 15SM SCT017 M10/M13 A3043 RMK SC3 SLP363

CYQF;2007-11-21 07:00;CYQF 210700Z 24004KT 15SM SCT016 BKN090 M13/M16 A3043 RMK SC4AC1 SLP364

CYQF;2007-11-21 08:00;CYQF 210800Z 25003KT 15SM FEW016 SCT090 M12/M14 A3043 RMK SC2AC1 SLP365

CYQF;2007-11-21 09:00;CYQF 210900Z 18003KT 15SM SKC M14/M16 A3042 RMK SLP367

CYQF;2007-11-21 10:00;CYQF 211000Z 21005KT 15SM SKC M15/M17 A3041 RMK SLP362

CYQF;2007-11-21 11:00;CYQF 211100Z 20003KT 15SM FEW090 M14/M16 A3040 RMK AC1 SLP359

CYQF;2007-11-21 12:00;CYQF 211200Z 19004KT 15SM FEW090 M16/M18 A3038 RMK AC2 SLP355

CYQF;2007-11-21 13:00;CYQF 211300Z 18006KT 15SM SKC M15/M17 A3036 RMK SLP351

CYQF;2007-11-21 14:00;CYQF 211400Z 19004KT 15SM FEW090 M15/M17 A3035 RMK AC1 SLP347

CYQF;2007-11-21 15:00;CYQF 211500Z 19003KT 15SM FEW090 M15/M18 A3035 RMK AC1 SLP347

CYQF;2007-11-21 16:00;CYQF 211600Z 19003KT 15SM FEW090 SCT270 M14/M17 A3034 RMK AC1CI1 SLP345

CYQF;2007-11-21 17:00;CYQF 211700Z 19005KT 15SM FEW100 FEW270 M12/M14 A3034 RMK AC1CI0 SLP345

CYQF;2007-11-21 18:00;CYQF 211800Z 19005KT 15SM FEW120 M09/M13 A3034 RMK AC1 SLP341

CYQF;2007-11-21 19:00;CYQF 211900Z 22005KT 15SM FEW210 M08/M12 A3033 RMK CI1 SLP337

CYQF;2007-11-21 20:00;CYQF 212000Z 25004KT 15SM FEW210 M05/M10 A3032 RMK CI1 SLP333

CYQF;2007-11-21 21:00;CYQF 212100Z 29006KT 15SM FEW210 M03/M09 A3031 RMK CI1 SLP327

CYQF;2007-11-21 22:00;CYQF 212200Z 28005KT 15SM FEW210 M02/M10 A3030 RMK CI1 SLP325

CYQF;2007-11-21 23:00;CYQF 212300Z 28005KT 15SM FEW210 M04/M11 A3030 RMK CI1 SLP324

CYQF;2007-11-22 00:00;CYQF 220000Z 29002KT 15SM FEW210 M05/M12 A3030 RMK CI1 SLP327

CYQF;2007-11-22 01:00;CYQF 220100Z 27005KT 15SM FEW210 M08/M14 A3030 RMK CI1 SLP328

CYQF;2007-11-22 02:00;CYQF 220200Z 26003KT 15SM FEW210 M09/M14 A3030 RMK CI1 SLP327

CYQF;2007-11-22 03:00;CYQF 220300Z 25004KT 15SM SKC M10/M15 A3030 RMK SLP333

CYQF;2007-11-22 04:00;CYQF 220400Z 18002KT 15SM BKN210 M10/M15 A3030 RMK CI2 SLP333

CYQF;2007-11-22 05:00;CYQF 220500Z 25006KT 15SM SCT210 M10/M15 A3030 RMK CI2 SLP333

CYQF;2007-11-22 06:00;CYQF 220600Z 26008KT 15SM BKN230 M08/M13 A3030 RMK CI2 SLP323

CYQF;2007-11-22 07:00;CYQF 220700Z 25003KT 15SM BKN230 M09/M14 A3029 RMK CI3 SLP320

CYQF;2007-11-22 08:00;CYQF 220800Z 00000KT 15SM FEW100 BKN230 M09/M13 A3028 RMK AC2CI3 SLP318

CYQF;2007-11-22 09:00;CYQF 220900Z 25006KT 15SM FEW100 BKN230 M08/M13 A3027 RMK AC2CI3 SLP306

CYQF;2007-11-22 10:00;CYQF 221000Z 24004KT 15SM FEW100 BKN230 M08/M13 A3027 RMK AC2CI3 SLP307

CYQF;2007-11-22 11:00;CYQF 221100Z CCA 24003KT 15SM FEW090 SCT230 M10/M14 A3026 RMK AC2CI2 OBS TAKEN +15 SLP304

CYQF;2007-11-22 12:00;CYQF 221200Z 21002KT 15SM FEW090 SCT230 M10/M15 A3026 RMK AC2CI1 SLP308

CYQF;2007-11-22 13:00;CYQF 221300Z 26004KT 15SM FEW090 M10/M15 A3027 RMK AC2 SLP310

CYQF;2007-11-22 14:00;CYQF 221400Z 23010KT 15SM FEW090 FEW250 M08/M14 A3027 RMK AC1CI0 SLP310

CYQF;2007-11-22 15:00;CYQF 221500Z 25005KT 15SM FEW090 BKN250 M10/M15 A3027 RMK AC1CI2 SLP318

CYQF;2007-11-22 16:00;CYQF 221600Z CCA 25007KT 15SM FEW090 BKN250 M08/M13 A3026 RMK AC1CI2 SLP313

CYQF;2007-11-22 17:00;CYQF 221700Z 29013KT 15SM FEW090 SCT250 M03/M11 A3026 RMK AC1CI1 SLP314

CYQF;2007-11-22 18:00;CYQF 221800Z 30010KT 15SM SCT250 M01/M10 A3027 RMK CI0 SLP304

CYQF;2007-11-22 19:00;CYQF 221900Z 30010KT 15SM SCT250 01/M09 A3027 RMK CI0 SLP304

CYQF;2007-11-22 20:00;CYQF 222000Z 33010KT 15SM FEW250 02/M09 A3025 RMK CI0 SLP299

CYQF;2007-11-22 21:00;CYQF 222100Z 32010KT 15SM FEW250 03/M09 A3023 RMK CI0 SLP286

CYQF;2007-11-22 22:00;CYQF 222200Z 32004KT 15SM FEW140 BKN250 03/M09 A3021 RMK AC2CI1 SLP280

CYQF;2007-11-22 23:00;CYQF 222300Z 26004KT 15SM BKN120 BKN250 02/M08 A3020 RMK AC5CI1 SLP276

CYQF;2007-11-23 00:00;CYQF 230000Z 28004KT 15SM SCT120 BKN250 M01/M09 A3022 RMK AC3CI1 SLP288

CYQF;2007-11-23 01:00;CYQF 230100Z 31006KT 15SM FEW120 SCT250 M03/M10 A3023 RMK AC2CI1 SLP292

CYQF;2007-11-23 02:00;CYQF 230200Z 30004KT 15SM SKC M04/M11 A3024 RMK SLP294

CYQF;2007-11-23 03:00;CYQF 230300Z 29008KT 15SM SKC M03/M10 A3025 RMK SLP300

CYQF;2007-11-23 04:00;CYQF 230400Z 32010KT 15SM SKC M02/M10 A3025 RMK SLP301

CYQF;2007-11-23 05:00;CYQF 230500Z 31006KT 15SM SKC M06/M11 A3025 RMK SLP302

CYQF;2007-11-23 06:00;CYQF 230600Z 28005KT 15SM SKC M08/M12 A3024 RMK SLP294

CYQF;2007-11-23 07:00;CYQF 230700Z 28007KT 15SM SKC M06/M11 A3024 RMK SLP293

CYQF;2007-11-23 08:00;CYQF 230800Z 28007KT 15SM SKC M07/M11 A3023 RMK SLP290

CYQF;2007-11-23 09:00;CYQF 230900Z 28006KT 15SM SKC M08/M12 A3021 RMK SLP280

CYQF;2007-11-23 10:00;CYQF 231000Z 27007KT 15SM SKC M07/M11 A3021 RMK SLP279

CYQF;2007-11-23 11:00;CYQF 231100Z 27007KT 15SM SCT250 M07/M11 A3020 RMK CI1 SLP276

CYQF;2007-11-23 12:00;CYQF 231200Z 27007KT 15SM SCT250 M07/M11 A3019 RMK CI1 SLP274

CYQF;2007-11-23 13:00;CYQF 231300Z 00000KT 15SM SCT250 M09/M13 A3018 RMK CI1 SLP271

CYQF;2007-11-23 14:00;CYQF 231400Z 19003KT 15SM SCT250 M10/M13 A3016 RMK CI2 SLP266

CYQF;2007-11-23 15:00;CYQF 231500Z 21003KT 15SM SCT250 M11/M14 A3015 RMK CI1 SLP268

CYQF;2007-11-23 16:00;CYQF 231600Z 20005KT 15SM SCT250 M09/M12 A3014 RMK CI1 SLP264

CYQF;2007-11-23 17:00;CYQF 231700Z 22007KT 15SM FEW140 BKN250 M06/M10 A3012 RMK AC2CI1 SLP258

CYQF;2007-11-23 18:00;CYQF 231800Z 23008KT 15SM FEW140 SCT250 M02/M09 A3009 RMK AC1CI1 SLP244

CYQF;2007-11-23 19:00;CYQF 231900Z 22006KT 15SM FEW140 SCT250 M00/M08 A3006 RMK AC1CI1 SLP234

CYQF;2007-11-23 20:00;CYQF 232000Z 23005KT 15SM FEW140 SCT250 02/M08 A3003 RMK AC1CI1 SLP223

CYQF;2007-11-23 21:00;CYQF 232100Z 24006KT 15SM FEW140 BKN250 03/M08 A3000 RMK AC2CI2 SLP206

CYQF;2007-11-23 22:00;CYQF 232200Z 24003KT 15SM FEW140 BKN250 03/M07 A2997 RMK AC1CI2 SLP197

CYQF;2007-11-23 23:00;CYQF 232300Z 24006KT 15SM FEW140 BKN250 00/M08 A2995 RMK AC2CI2 SLP192

CYQF;2007-11-24 00:00;CYQF 240000Z 19004KT 15SM BKN140 BKN250 M00/M08 A2993 RMK AC5CI2 SLP183

CYQF;2007-11-24 01:00;CYQF 240100Z 23005KT 15SM FEW140 BKN250 M02/M09 A2991 RMK AC2CI2 SLP176

CYQF;2007-11-24 02:00;CYQF 240200Z 22002KT 15SM FEW140 BKN250 M02/M09 A2989 RMK AC2CI2 SLP172

CYQF;2007-11-24 03:00;CYQF 240300Z 22004KT 15SM BKN140 BKN250 M06/M11 A2988 RMK AC5CI0 SLP177

CYQF;2007-11-24 04:00;CYQF 240400Z 21005KT 15SM FEW140 FEW250 M05/M11 A2987 RMK AC1CI1 SLP175

CYQF;2007-11-24 05:00;CYQF 240500Z 20005KT 15SM SCT140 M04/M10 A2985 RMK AC4 SLP170

CYQF;2007-11-24 06:00;CYQF 240600Z 18003KT 15SM FEW140 M05/M10 A2985 RMK AC2 SLP154

CYQF;2007-11-24 07:00;CYQF 240700Z 20005KT 15SM FEW140 M06/M11 A2984 RMK AC2 SLP151

CYQF;2007-11-24 08:00;CYQF 240800Z 20003KT 15SM SCT210 M05/M10 A2982 RMK CI2 SLP147

CYQF;2007-11-24 09:00;CYQF 240900Z 20003KT 15SM SCT210 M06/M11 A2981 RMK CI1 SLP137

CYQF;2007-11-24 10:00;CYQF 241000Z 00000KT 15SM BKN210 M06/M11 A2980 RMK CI2 SLP135

CYQF;2007-11-24 11:00;CYQF 241100Z 00000KT 15SM BKN150 M06/M11 A2978 RMK AC6 SLP127

CYQF;2007-11-24 12:00;CYQF 241200Z 24003KT 15SM BKN150 M06/M10 A2977 RMK AC3 SLP127

CYQF;2007-11-24 13:00;CYQF 241300Z 00000KT 15SM FEW150 BKN250 M07/M11 A2974 RMK AC2CI1 SLP119

CYQF;2007-11-24 14:00;CYQF 241400Z 20003KT 15SM FEW150 BKN250 M07/M11 A2973 RMK AC2CI2 SLP116

CYQF;2007-11-24 15:00;CYQF 241500Z CCA 21006KT 15SM FEW150 BKN250 M07/M11 A2970 RMK AC2CI2 SLP111

CYQF;2007-11-24 16:00;CYQF 241600Z 00000KT 15SM FEW120 BKN250 M07/M11 A2968 RMK AC2CI2 SLP106

CYQF;2007-11-24 17:00;CYQF 241700Z 00000KT 15SM BKN120 OVC250 M04/M10 A2967 RMK AC6CI2 SLP103

CYQF;2007-11-24 18:00;CYQF 241800Z 00000KT 15SM FEW080 BKN140 OVC250 M03/M08 A2966 RMK AC2AC3CI1 SLP092

CYQF;2007-11-24 19:00;CYQF 241900Z 20003KT 15SM FEW080 SCT140 BKN250 00/M08 A2962 RMK AC1AC2CI1 SLP079

CYQF;2007-11-24 20:00;CYQF 242000Z 00000KT 15SM FEW080 SCT140 BKN250 01/M08 A2960 RMK AC1AC2CI1 SLP073

CYQF;2007-11-24 21:00;CYQF 242100Z 00000KT 15SM FEW080 SCT130 04/M07 A2958 RMK AC2AC2 SLP057

CYQF;2007-11-24 22:00;CYQF 242200Z 00000KT 15SM FEW050 BKN090 03/M08 A2958 RMK SC2AC5 SLP057

CYQF;2007-11-24 23:00;CYQF 242300Z 34003KT 15SM SCT050 BKN090 02/M07 A2959 RMK SC3AC4 SLP061

CYQF;2007-11-25 00:00;CYQF 250000Z 00000KT 15SM BKN050 OVC090 01/M07 A2961 RMK SC5AC2 SLP070

CYQF;2007-11-25 01:00;CYQF 250100Z 00000KT 15SM BKN050 01/M07 A2962 RMK SC7 SLP074

CYQF;2007-11-25 02:00;CYQF 250200Z 24005KT 15SM OVC050 01/M07 A2960 RMK SC8 SLP066

CYQF;2007-11-25 03:00;CYQF 250300Z 30012KT 15SM OVC050 04/M06 A2960 RMK SC8 SLP064

CYQF;2007-11-25 04:00;CYQF 250400Z 29006KT 15SM BKN060 01/M04 A2962 RMK SC5 SLP071

CYQF;2007-11-25 05:00;CYQF 250500Z 27010KT 15SM BKN070 01/M04 A2964 RMK AC5 SLP075

CYQF;2007-11-25 06:00;CYQF 250600Z 30006KT 15SM SCT070 00/M04 A2966 RMK AC3 SLP086

CYQF;2007-11-25 07:00;CYQF 250700Z 32010G15KT 15SM FEW070 01/M07 A2969 RMK AC1 SLP095

CYQF;2007-11-25 08:00;CYQF 250800Z 33010KT 15SM FEW070 M00/M09 A2973 RMK AC1 SLP107

CYQF;2007-11-25 09:00;CYQF 250900Z 29004KT 15SM FEW090 M03/M09 A2977 RMK AC1 SLP119

CYQF;2007-11-25 10:00;CYQF 251000Z 27002KT 15SM BKN090 M04/M09 A2980 RMK AC5 SLP127

CYQF;2007-11-25 11:00;CYQF 251100Z 28005KT 15SM SCT090 M04/M09 A2980 RMK AC2 SLP129

CYQF;2007-11-25 12:00;CYQF 251200Z 26007KT 15SM SCT090 M07/M11 A2982 RMK AC2 SLP142

CYQF;2007-11-25 13:00;CYQF 251300Z 26004KT 15SM FEW080 M05/M10 A2982 RMK AC1 SLP144

CYQF;2007-11-25 14:00;CYQF 251400Z 24004KT 15SM SCT060 M06/M11 A2984 RMK SC4 SLP149

CYQF;2007-11-25 15:00;CYQF 251500Z 24003KT 15SM FEW040 BKN250 M07/M11 A2986 RMK SC2CI2 SLP155

CYQF;2007-11-25 16:00;CYQF 251600Z 22004KT 15SM FEW040 SCT250 M07/M11 A2987 RMK SC2CI1 SLP158

CYQF;2007-11-25 17:00;CYQF 251700Z 27005KT 15SM FEW050 M04/M09 A2990 RMK SC2 VIRGA SLP167

CYQF;2007-11-25 18:00;CYQF 251800Z 34010G15KT 15SM FEW050 FEW250 01/M08 A2992 RMK SC1CI1 SLP169

CYQF;2007-11-25 19:00;CYQF 251900Z 35012G20KT 15SM FEW040 SCT090 BKN250 01/M07 A2993 RMK SC2AC2CI1 SLP174

CYQF;2007-11-25 20:00;CYQF 252000Z 33010KT 15SM FEW040 SCT090 BKN250 01/M08 A2995 RMK SC2AC2CI1 VIRGA SLP179

CYQF;2007-11-25 21:00;CYQF 252100Z 30010G15KT 15SM SCT040 SCT090 BKN250 02/M08 A2995 RMK SC3AC1CI2 SHWRS/VIRGA W-N-NE SLP185

CYQF;2007-11-25 22:00;CYQF 252200Z CCA 31010G15KT 15SM FEW040 SCT090 BKN250 00/M07 A2998 RMK CU2AC2CI1 SHWRS SW VIRGA ALQDS SLP192

CYQF;2007-11-25 23:00;CYQF 252300Z 30010KT 15SM FEW040 M01/M08 A2999 RMK CU1 SLP195

CYQF;2007-11-26 00:00;CYQF 260000Z 25007KT 15SM FEW040 M04/M07 A3000 RMK SC1 SLP213

CYQF;2007-11-26 01:00;CYQF 260100Z 24005KT 15SM FEW040 M06/M09 A3000 RMK SC1 SLP213

CYQF;2007-11-26 02:00;CYQF 260200Z 24005KT 15SM SKC M07/M10 A3001 RMK SLP215

CYQF;2007-11-26 03:00;CYQF 260300Z 24010KT 15SM FEW060 M08/M11 A3002 RMK SC1 SLP224

CYQF;2007-11-26 04:00;CYQF 260400Z 23006KT 15SM FEW080 M08/M10 A3003 RMK AC2 SLP226

CYQF;2007-11-26 05:00;CYQF 260500Z 00000KT 15SM FEW080 M09/M11 A3004 RMK AC2 SLP229

CYQF;2007-11-26 06:00;CYQF 260600Z CCA 00000KT 15SM FEW030 FEW080 M09/M11 A3003 RMK SC1AC1 TR AC SLP220

CYQF;2007-11-26 07:00;CYQF 260700Z 03010G16KT 15SM SCT030 BKN080 M08/M10 A3009 RMK SC4AC2 SLP237

CYQF;2007-11-26 07:26;CYQF 260726Z 03014G20KT 10SM -SN SCT020 OVC060 RMK SC4SC4

CYQF;2007-11-26 08:00;CYQF 260800Z CCA 03015G22KT 15SM -SN SCT020 OVC060 M12/M15 A3015 RMK SC3SC5 SLP256

CYQF;2007-11-26 09:00;CYQF 260900Z 01016G22KT 15SM -SN SCT020 OVC050 M13/M18 A3017 RMK SC3SC5 SLP274

CYQF;2007-11-26 10:00;CYQF 261000Z 35016G24KT 15SM -SN SCT020 OVC050 M15/M19 A3023 RMK SC3SC5 SLP290

CYQF;2007-11-26 11:00;CYQF 261100Z 02014KT 15SM -SN FEW020 OVC040 M17/M23 A3025 RMK SC2SC6 SLP297

CYQF;2007-11-26 12:00;CYQF 261200Z 01012KT 15SM BKN020 OVC040 M17/M23 A3025 RMK SC5SC3 SLP311

CYQF;2007-11-26 13:00;CYQF 261300Z 01012KT 15SM -SN BKN020 OVC050 M17/M24 A3029 RMK SC5SC3 SLP322

CYQF;2007-11-26 14:00;CYQF 261400Z 01008KT 15SM -SN SCT020 OVC040 M17/M24 A3029 RMK SC3SC5 SLP324

CYQF;2007-11-26 15:00;CYQF 261500Z 01003KT 15SM -SN BKN040 OVC090 M17/M23 A3028 RMK SC6AC2 SLP325

CYQF;2007-11-26 16:00;CYQF 261600Z CCA 04004KT 12SM -SN BKN040 OVC090 M17/M23 A3027 RMK SC6AC2 SLP322

CYQF;2007-11-26 16:43;CYQF 261643Z 11002KT 1 1/2SM -SN VV014 RMK SN8

CYQF;2007-11-26 17:00;CYQF 261700Z 11003KT 1 1/2SM -SN VV014 M17/M22 A3027 RMK SN8 SLP322

CYQF;2007-11-26 17:28;CYQF 261728Z 11003KT 1SM -SN VV013 RMK SN8

CYQF;2007-11-26 18:00;CYQF 261800Z 15005KT 2SM -SN VV015 M17/M21 A3025 RMK SN8 SLP318

CYQF;2007-11-26 19:00;CYQF 261900Z 15011KT 2SM -SN VV015 M16/M20 A3023 RMK SN8 SLP311

CYQF;2007-11-26 20:00;CYQF 262000Z 15010G15KT 2SM -SN VV015 M16/M21 A3018 RMK SN8 VIS VRB 11/2-21/2 SLP296

CYQF;2007-11-26 20:48;CYQF 262048Z 16010G15KT 15SM FEW015 OVC050 RMK SF2SC6

CYQF;2007-11-26 21:00;CYQF 262100Z 17010G15KT 8SM -SN FEW015 BKN050 OVC100 M15/M21 A3013 RMK SF2SC3AC2 SLP279

CYQF;2007-11-26 22:00;CYQF 262200Z 16012G20KT 15SM FEW050 BKN090 OVC250 M15/M21 A3008 RMK SC2AC3CI2 SLP264

CYQF;2007-11-26 23:00;CYQF 262300Z 15013G20KT 15SM SCT050 OVC090 M15/M21 A3005 RMK SC3AC5 SLP255

CYQF;2007-11-27 00:00;CYQF 270000Z 15015KT 15SM BKN050 OVC090 M15/M20 A3001 RMK SC5AC3 SLP239

CYQF;2007-11-27 01:00;CYQF 270100Z 15010G15KT 15SM SCT018 OVC060 M15/M20 A2995 RMK SC3SC5 SLP221

CYQF;2007-11-27 02:00;CYQF 270200Z 15010G15KT 15SM OVC020 M15/M20 A2990 RMK SC8 SLP205

CYQF;2007-11-27 03:00;CYQF 270300Z 16015G20KT 15SM OVC020 M15/M21 A2985 RMK SC8 SLP185

CYQF;2007-11-27 04:00;CYQF 270400Z 15015G20KT 15SM OVC020 M15/M20 A2981 RMK SC8 SLP173

CYQF;2007-11-27 05:00;CYQF 270500Z 16015G20KT 15SM FEW020 OVC070 M15/M20 A2978 RMK SC2AC6 SLP162

CYQF;2007-11-27 06:00;CYQF 270600Z 14010G15KT 15SM FEW020 OVC090 M15/M19 A2976 RMK SC2AC6 SLP154

CYQF;2007-11-27 06:36;CYQF 270636Z 15013KT 15SM -SN BKN020 OVC090 RMK SC5AC3

CYQF;2007-11-27 07:00;CYQF 270700Z 14012KT 15SM -SN BKN018 OVC090 M15/M19 A2974 RMK SC6AC2 SLP147

CYQF;2007-11-27 08:00;CYQF 270800Z 12010KT 15SM -SN OVC014 M15/M19 A2972 RMK SC8 SLP141

CYQF;2007-11-27 09:00;CYQF 270900Z 14010KT 15SM -SN OVC012 M15/M19 A2971 RMK SC8 SLP134

CYQF;2007-11-27 10:00;CYQF 271000Z 11006KT 5SM -SN OVC012 M15/M19 A2971 RMK SC8 SLP133

CYQF;2007-11-27 11:00;CYQF 271100Z 11003KT 6SM -SN OVC020 M15/M19 A2969 RMK SC6 SLP129

CYQF;2007-11-27 12:00;CYQF 271200Z 00000KT 6SM -SN BKN020 OVC090 M15/M19 A2970 RMK SC6AC2 SLP128

CYQF;2007-11-27 13:00;CYQF 271300Z 00000KT 4SM -SN OVC020 M15/M19 A2971 RMK SC8 SLP131

CYQF;2007-11-27 14:00;CYQF 271400Z 35005KT 4SM -SN OVC020 M14/M18 A2973 RMK SC8 SLP138

CYQF;2007-11-27 14:08;CYQF 271408Z 34004KT 2 1/2SM -SN OVC020 RMK SN6SC2

CYQF;2007-11-27 14:34;CYQF 271434Z 33006KT 1 1/2SM -SN VV014 RMK SN8

CYQF;2007-11-27 15:00;CYQF 271500Z 35004KT 1 1/2SM -SN VV014 M14/M17 A2976 RMK SN8 SLP148

CYQF;2007-11-27 15:10;CYQF 271510Z 34004KT 2SM -SN VV015 RMK SN8 VIS VRB 11/2-21/2

CYQF;2007-11-27 16:00;CYQF 271600Z 34007KT 2SM -SN VV015 M14/M18 A2978 RMK SN8 VIS VRB 11/2-21/2 SLP155

CYQF;2007-11-27 17:00;CYQF 271700Z 33010G15KT 2 1/2SM -SN OVC025 M13/M17 A2982 RMK SN4SC4 SLP168

CYQF;2007-11-27 17:16;CYQF 271716Z 33010G15KT 5SM -SN OVC025 RMK SN5SC3

CYQF;2007-11-27 18:00;CYQF 271800Z 32010G15KT 6SM -SN DRSN OVC025 M12/M17 A2985 RMK SC8 SLP177

CYQF;2007-11-27 18:23;CYQF 271823Z 33010G15KT 10SM DRSN FEW025 BKN090 BKN250 RESN RMK SC1AC5CI2 VSBY SE-SW 6

CYQF;2007-11-27 19:00;CYQF 271900Z 34010G15KT 10SM DRSN FEW014 BKN090 BKN250 M11/M16 A2986 RMK SC1AC4CI2 SLP183

CYQF;2007-11-27 20:00;CYQF 272000Z 33010KT 10SM BKN017 OVC090 M11/M16 A2989 RMK SC6AC2 SLP190

CYQF;2007-11-27 21:00;CYQF 272100Z 35008KT 10SM SCT017 BKN090 OVC250 M11/M16 A2991 RMK SC2AC3CI2 SLP197

CYQF;2007-11-27 21:43;CYQF 272143Z 33007KT 6SM -SN FEW017 BKN080 OVC250 RMK SC2AC5CI0

CYQF;2007-11-27 22:00;CYQF 272200Z 35011KT 6SM -SN FEW017 BKN080 OVC250 M11/M15 A2993 RMK SC2AC3CI2 SLP204

CYQF;2007-11-27 22:22;CYQF 272222Z 34006KT 15SM FEW017 BKN080 OVC250 RMK SC2AC3CI1

CYQF;2007-11-27 23:00;CYQF 272300Z 36010KT 15SM FEW017 BKN080 OVC250 M11/M15 A2996 RMK SC2AC4CI2 SLP213

CYQF;2007-11-28 00:00;CYQF 280000Z 35005KT 10SM FEW017 OVC080 M11/M15 A2999 RMK SC2AC6 SLP225

CYQF;2007-11-28 01:00;CYQF 280100Z 36003KT 15SM FEW017 OVC080 M10/M18 A3001 RMK SC2AC6 SLP231

CYQF;2007-11-28 02:00;CYQF 280200Z CCA 00000KT 15SM FEW020 BKN080 M13/M16 A3001 RMK SC2AC4 SLP232

CYQF;2007-11-28 03:00;CYQF 280300Z 00000KT 15SM FEW020 BKN080 BKN250 M12/M14 A3003 RMK SC2AC3CI2 SLP239

CYQF;2007-11-28 04:00;CYQF 280400Z 00000KT 10SM -SN SCT020 OVC080 M11/M14 A3005 RMK SC3AC5 SLP245

CYQF;2007-11-28 05:00;CYQF 280500Z 00000KT 12SM -SN FEW020 BKN100 M11/M13 A3005 RMK SC2AC5 SLP247

CYQF;2007-11-28 06:00;CYQF 280600Z 00000KT 15SM -SN FEW020 OVC090 M10/M12 A3006 RMK SC2AC6 SLP246

CYQF;2007-11-28 07:00;CYQF 280700Z 20003KT 15SM -SN FEW020 OVC090 M10/M12 A3006 RMK SC2AC6 SLP246

CYQF;2007-11-28 08:00;CYQF 280800Z 25004KT 15SM -SN FEW020 OVC070 M09/M10 A3007 RMK SC2AC6 SLP249

CYQF;2007-11-28 09:00;CYQF 280900Z 28005KT 15SM FEW020 OVC070 M07/M09 A3008 RMK SC2AC6 SLP247

CYQF;2007-11-28 10:00;CYQF 281000Z 31005KT 15SM OVC030 M08/M10 A3011 RMK SC8 SLP257

CYQF;2007-11-28 11:00;CYQF 281100Z 33012KT 15SM FEW010 OVC030 M08/M12 A3014 RMK SC2SC6 SLP266

CYQF;2007-11-28 11:46;CYQF 281146Z 01007KT 10SM -SN FEW010 OVC030 RMK SC2SC6

CYQF;2007-11-28 12:00;CYQF 281200Z 03010KT 10SM -SN FEW010 OVC030 M12/M15 A3017 RMK SC1SC7 SLP287

CYQF;2007-11-28 13:00;CYQF 281300Z 00000KT 10SM -SN OVC040 M13/M16 A3019 RMK SC8 SLP292

CYQF;2007-11-28 14:00;CYQF 281400Z 33005KT 6SM -SN OVC060 M12/M15 A3020 RMK SC8 SLP294

CYQF;2007-11-28 15:00;CYQF 281500Z 35009KT 3SM -SN OVC060 M13/M16 A3021 RMK SC8 SLP301

CYQF;2007-11-28 15:03;CYQF 281503Z 36005KT 2SM -SN OVC025 RMK SN5SC3

CYQF;2007-11-28 15:44;CYQF 281544Z 36005KT 4SM -SN OVC025 RMK SN2SC6

CYQF;2007-11-28 16:00;CYQF 281600Z 34004KT 4SM -SN BKN025 OVC080 M13/M16 A3021 RMK SN2SC5AC2 VIS N 2 SLP302

CYQF;2007-11-28 17:00;CYQF 281700Z 33005KT 3SM -SN BKN025 BKN080 M13/M16 A3021 RMK SN2SC4AC2 VIS N 2 SLP302

CYQF;2007-11-28 18:00;CYQF 281800Z 35004KT 10SM -SN SCT025 BKN080 BKN250 M13/M17 A3021 RMK SC3AC2CI1 SLP298

CYQF;2007-11-28 18:35;CYQF 281835Z 36005KT 2SM -SN BKN025 OVC080 RMK SN3SC4AC1

CYQF;2007-11-28 19:00;CYQF 281900Z 33004KT 15SM BKN025 BKN080 M12/M16 A3019 RMK SC5AC2 SLP294

CYQF;2007-11-28 20:00;CYQF 282000Z 00000KT 8SM -SN BKN025 BKN080 OVC250 M12/M15 A3018 RMK SC5AC2CI1 VIS LWR N SLP291

CYQF;2007-11-28 21:00;CYQF 282100Z 29006KT 10SM -SN SCT025 BKN080 BKN250 M11/M14 A3017 RMK SC4AC2CI1 SLP278

CYQF;2007-11-28 22:00;CYQF 282200Z 00000KT 15SM -SN SCT025 BKN080 OVC250 M11/M14 A3015 RMK SC3AC3CI2 SLP274

CYQF;2007-11-28 23:00;CYQF 282300Z 00000KT 8SM -SN SCT025 OVC080 M10/M14 A3015 RMK SC4AC3 SLP272

CYQF;2007-11-29 00:00;CYQF 290000Z 00000KT 12SM -SN BKN025 OVC080 M11/M13 A3013 RMK SC5AC3 SLP272

CYQF;2007-11-29 01:00;CYQF 290100Z 00000KT 12SM -SN SCT025 BKN080 M11/M13 A3013 RMK SC4AC2 SLP270

CYQF;2007-11-29 02:00;CYQF 290200Z 00000KT 12SM -SN SCT025 BKN090 M11/M13 A3012 RMK SC3AC3 SLP269

CYQF;2007-11-29 03:00;CYQF 290300Z 00000KT 12SM -SN FEW025 OVC090 M10/M13 A3012 RMK SC2AC5 SLP267

CYQF;2007-11-29 04:00;CYQF 290400Z 00000KT 10SM -SN BKN030 OVC090 M10/M12 A3011 RMK SC6AC2 SLP266

CYQF;2007-11-29 05:00;CYQF 290500Z 01003KT 10SM -SN FEW020 BKN050 OVC090 M11/M14 A3012 RMK SC2SC3AC2 SLP269

CYQF;2007-11-29 05:32;CYQF 290532Z 02005KT 15SM FEW020 BKN060 RMK SC2SC4

CYQF;2007-11-29 06:00;CYQF 290600Z 02006KT 15SM FEW020 BKN060 M12/M15 A3013 RMK SC1SC4 SLP272

CYQF;2007-11-29 07:00;CYQF 290700Z 36006KT 15SM BKN060 M13/M16 A3013 RMK SC5 SLP274

CYQF;2007-11-29 08:00;CYQF 290800Z 36006KT 15SM FEW060 M15/M17 A3014 RMK SC1 SLP276

CYQF;2007-11-29 09:00;CYQF 290900Z 35005KT 15SM FEW060 M18/M21 A3015 RMK SC1 SLP284

CYQF;2007-11-29 10:00;CYQF 291000Z 00000KT 15SM SKC M17/M21 A3016 RMK SLP287

CYQF;2007-11-29 11:00;CYQF 291100Z 30006KT 15SM SKC M18/M22 A3016 RMK SLP288

CYQF;2007-11-29 12:00;CYQF 291200Z 30005KT 15SM SKC M20/M25 A3017 RMK SLP296

CYQF;2007-11-29 13:00;CYQF 291300Z 30005KT 15SM SKC M19/M23 A3019 RMK SLP301

CYQF;2007-11-29 14:00;CYQF 291400Z 30004KT 15SM SKC M20/M25 A3020 RMK SLP305

CYQF;2007-11-29 15:00;CYQF 291500Z 29005KT 15SM FEW200 M19/M23 A3022 RMK CI1 SLP309

CYQF;2007-11-29 16:00;CYQF 291600Z 29004KT 15SM SCT120 BKN200 M16/M20 A3024 RMK AC2CI2 SLP316

CYQF;2007-11-29 17:00;CYQF 291700Z 30010KT 15SM FEW100 M14/M19 A3025 RMK AC2 SLP318

CYQF;2007-11-29 18:00;CYQF 291800Z 31013KT 15SM FEW100 M13/M19 A3026 RMK AC2 SLP319

CYQF;2007-11-29 19:00;CYQF 291900Z 32011G17KT 15SM FEW100 M11/M20 A3026 RMK AC1 SLP319

CYQF;2007-11-29 20:00;CYQF 292000Z 32012G20KT 15SM DRSN FEW100 M11/M20 A3025 RMK AC1 SLP318

CYQF;2007-11-29 21:00;CYQF 292100Z 32011KT 15SM SCT240 M10/M21 A3027 RMK CI1 SLP325

CYQF;2007-11-29 22:00;CYQF 292200Z 31010KT 15SM FEW250 M10/M20 A3027 RMK CI1 SLP326

CYQF;2007-11-29 23:00;CYQF 292300Z 31008KT 15SM FEW250 M11/M20 A3028 RMK CI1 SLP329

CYQF;2007-11-30 00:00;CYQF 300000Z 30003KT 15SM SKC M14/M22 A3029 RMK SLP340

CYQF;2007-11-30 01:00;CYQF 300100Z 30007KT 15SM SKC M14/M22 A3029 RMK SLP340

CYQF;2007-11-30 02:00;CYQF 300200Z 25007KT 15SM SKC M18/M25 A3029 RMK SLP341

CYQF;2007-11-30 03:00;CYQF 300300Z 26007KT 15SM SKC M17/M23 A3028 RMK SLP338

CYQF;2007-11-30 04:00;CYQF 300400Z 27008KT 15SM SKC M17/M28 A3027 RMK SLP335

CYQF;2007-11-30 05:00;CYQF 300500Z 26008KT 15SM SKC M17/M24 A3025 RMK SLP329

CYQF;2007-11-30 06:00;CYQF 300600Z 00000KT 15SM SKC M18/M24 A3024 RMK SLP319

CYQF;2007-11-30 07:00;CYQF 300700Z 00000KT 15SM SKC M19/M25 A3023 RMK SLP317

CYQF;2007-11-30 08:00;CYQF 300800Z 20004KT 15SM SKC M20/M26 A3022 RMK SLP314

CYQF;2007-11-30 09:00;CYQF 300900Z 20004KT 15SM SKC M20/M26 A3020 RMK SLP305

CYQF;2007-11-30 10:00;CYQF 301000Z 21003KT 15SM SKC M21/M27 A3019 RMK SLP300

CYQF;2007-11-30 11:00;CYQF 301100Z 18004KT 15SM SKC M21/M27 A3016 RMK SLP293

CYQF;2007-11-30 12:00;CYQF 301200Z 21005KT 15SM SKC M21/M27 A3015 RMK SLP294

CYQF;2007-11-30 13:00;CYQF 301300Z 18005KT 15SM SKC M22/M28 A3014 RMK SLP289

CYQF;2007-11-30 14:00;CYQF 301400Z 20004KT 15SM SKC M23/M29 A3013 RMK SLP287

CYQF;2007-11-30 15:00;CYQF 301500Z 18003KT 15SM FEW250 M23/M29 A3012 RMK CI1 SLP287

CYQF;2007-11-30 16:00;CYQF 301600Z 19004KT 15SM FEW130 FEW250 M22/M28 A3011 RMK AC1CI0 SLP286

CYQF;2007-11-30 17:00;CYQF 301700Z 20002KT 15SM FEW250 M19/M26 A3012 RMK CI1 SLP289

CYQF;2007-11-30 18:00;CYQF 301800Z 22005KT 15SM BKN250 M17/M24 A3011 RMK CI2 SLP280

CYQF;2007-11-30 19:00;CYQF 301900Z 29005KT 15SM BKN250 M14/M21 A3010 RMK CI2 SLP277

CYQF;2007-11-30 20:00;CYQF 302000Z 34013KT 15SM SCT250 M10/M17 A3009 RMK CI2 SLP272

CYQF;2007-11-30 21:00;CYQF 302100Z 34010G17KT 15SM FEW100 SCT250 M11/M18 A3008 RMK AC1CI1 SLP263

CYQF;2007-11-30 22:00;CYQF 302200Z 35010G15KT 15SM FEW030 BKN250 M11/M17 A3007 RMK SC2CI1 SLP260

CYQF;2007-11-30 23:00;CYQF 302300Z 34010G15KT 15SM BKN040 BKN250 M12/M17 A3006 RMK SC5CI2 SLP259

CYQF;2007-12-01 01:00;CYQF 010100Z 34010KT 15SM BKN019 M13/M18 A3007 RMK SC7 SLP263

CYQF;2007-12-01 01:10;CYQF 010110Z 35010KT 10SM -SN BKN019 RMK SC7

CYQF;2007-12-01 02:00;CYQF 010200Z 36010KT 10SM -SN OVC022 M13/M18 A3006 RMK SC8 SLP262

CYQF;2007-12-01 03:00;CYQF 010300Z 35010KT 8SM -SN OVC020 M13/M18 A3007 RMK SC8 SLP266

CYQF;2007-12-01 04:00;CYQF 010400Z 36005KT 10SM -SN OVC020 M14/M18 A3008 RMK SC8 SLP268

CYQF;2007-12-01 05:00;CYQF 010500Z 34005KT 8SM -SN OVC025 M13/M18 A3007 RMK SC8 SLP266

CYQF;2007-12-01 06:00;CYQF 010600Z 34005KT 6SM -SN OVC023 M14/M18 A3006 RMK SC8 SLP258

CYQF;2007-12-01 07:00;CYQF 010700Z 36006KT 3SM -SN OVC020 M14/M18 A3005 RMK SC8 SLP255

CYQF;2007-12-01 08:00;CYQF 010800Z 33010KT 5SM -SN OVC030 M14/M19 A3005 RMK SC8 SLP253

CYQF;2007-12-01 09:00;CYQF 010900Z 34008KT 10SM -SN OVC030 M15/M19 A3004 RMK SC8 SLP243

CYQF;2007-12-01 10:00;CYQF 011000Z 34010KT 10SM -SN OVC030 M15/M20 A3004 RMK SC8 SLP243

CYQF;2007-12-01 11:00;CYQF 011100Z 36006KT 10SM -SN OVC040 M16/M21 A3003 RMK SC8 SLP240

CYQF;2007-12-01 12:00;CYQF 011200Z 36003KT 15SM -SN OVC030 M16/M20 A3001 RMK SC8 SLP237

CYQF;2007-12-01 13:00;CYQF 011300Z 06004KT 15SM -SN BKN040 M16/M21 A2999 RMK SC6 SLP230

CYQF;2007-12-01 14:00;CYQF 011400Z 00000KT 10SM -SN OVC040 M16/M20 A2998 RMK SC8 SLP228

CYQF;2007-12-01 15:00;CYQF 011500Z 34008KT 6SM -SN OVC030 M17/M23 A2997 RMK SC7 SLP226

CYQF;2007-12-01 16:00;CYQF 011600Z 35005KT 12SM BKN021 BKN090 M18/M23 A2998 RMK SC5AC2 SLP228

CYQF;2007-12-01 17:00;CYQF 011700Z 03003KT 15SM FEW020 BKN090 BKN250 M18/M22 A2996 RMK SC2AC2CI1 SLP222

CYQF;2007-12-01 18:00;CYQF 011800Z 02003KT 15SM FEW020 FEW090 BKN250 M17/M22 A2995 RMK SC1AC1CI2 SLP216

CYQF;2007-12-01 19:00;CYQF 011900Z CCA 00000KT 15SM FEW020 BKN250 M17/M23 A2990 RMK CU2CI2 SHS NE SLP203

CYQF;2007-12-01 19:11;CYQF 011911Z 35002KT 12SM -SHSN SCT020 BKN250 RMK CU3CI2 VIS NE 1

CYQF;2007-12-01 20:00;CYQF 012000Z 04002KT 12SM -SHSN SCT020 BKN250 M17/M23 A2987 RMK CU3CI2 VIS S-SW 2 SLP193

CYQF;2007-12-01 21:00;CYQF 012100Z 00000KT 10SM -SHSN SCT020 BKN250 M17/M22 A2985 RMK CU4CI2 VIS N-NE 3 SLP182

CYQF;2007-12-01 22:00;CYQF 012200Z 14004KT 15SM VCSH FEW020 BKN250 M17/M24 A2983 RMK CU2CI1 SLP177

CYQF;2007-12-01 23:00;CYQF 012300Z 09005KT 15SM FEW030 FEW090 BKN250 M18/M23 A2983 RMK CU2AC1CI1 SLP178

CYQF;2007-12-02 00:00;CYQF 020000Z 08004KT 15SM BKN030 BKN090 OVC250 M19/M23 A2984 RMK SC3AC2CI1 SLP183

CYQF;2007-12-02 01:00;CYQF 020100Z 09006KT 15SM SCT030 SCT090 BKN250 M20/M24 A2982 RMK SC3AC1CI0 SLP179

CYQF;2007-12-02 02:00;CYQF 020200Z 09005KT 15SM FEW030 SCT090 BKN250 M20/M24 A2981 RMK SC2AC1CI2 SLP175

CYQF;2007-12-02 03:00;CYQF 020300Z 11004KT 15SM SCT030 BKN250 M20/M25 A2979 RMK SC3CI2 SLP171

CYQF;2007-12-02 04:00;CYQF 020400Z 17003KT 15SM FEW030 BKN250 M21/M26 A2978 RMK SC2CI2 SLP168

CYQF;2007-12-02 05:00;CYQF 020500Z 10002KT 15SM FEW030 SCT250 M22/M26 A2978 RMK SC2CI1 SLP166

CYQF;2007-12-02 06:00;CYQF 020600Z 13002KT 15SM FEW030 SCT250 M21/M26 A2976 RMK SC2CI0 SLP162

CYQF;2007-12-02 07:00;CYQF 020700Z 00000KT 15SM FEW030 M22/M27 A2976 RMK SC1 SLP162

CYQF;2007-12-02 08:00;CYQF 020800Z 15006KT 15SM SKC M22/M26 A2976 RMK OB TAKEN +11 SLP159

CYQF;2007-12-02 09:00;CYQF 020900Z 15006KT 15SM SKC M22/M27 A2973 RMK SLP152

CYQF;2007-12-02 10:00;CYQF 021000Z 15005KT 15SM BKN020 M22/M26 A2973 RMK SC6 SLP151

CYQF;2007-12-02 11:00;CYQF 021100Z 13010KT 15SM OVC020 M21/M25 A2972 RMK SC8 SLP149

CYQF;2007-12-02 11:22;CYQF 021122Z 13010KT 15SM -SN BKN006 OVC020 RMK ST6SC2

CYQF;2007-12-02 12:00;CYQF 021200Z 13012KT 5SM -SN VV009 M21/M25 A2971 RMK SN8 SLP143

CYQF;2007-12-02 13:00;CYQF 021300Z 13008KT 15SM -SN BKN006 OVC020 M21/M25 A2971 RMK ST6SC2 SLP143

CYQF;2007-12-02 14:00;CYQF 021400Z 11005KT 3SM -SN BKN006 OVC020 M20/M24 A2971 RMK ST5SC3 SLP145

CYQF;2007-12-02 14:25;CYQF 021425Z 11005KT 10SM -SN SCT006 BKN020 BKN250 RMK ST4SC1CI1 VIS N 3

CYQF;2007-12-02 15:00;CYQF 021500Z 09003KT 10SM -SN FEW006 BKN020 BKN250 M20/M24 A2971 RMK ST2SC3CI1 SN VRY LGT SLP146

CYQF;2007-12-02 15:21;CYQF 021521Z 10006KT 10SM -SN FEW005 OVC014 RMK ST2SC6 SN VRY LGT

CYQF;2007-12-02 16:00;CYQF 021600Z 10005KT 6SM -SN FEW005 OVC015 M18/M22 A2972 RMK ST2SC6 SLP148

CYQF;2007-12-02 17:00;CYQF 021700Z 12011KT 8SM -SN FEW007 OVC020 M18/M22 A2973 RMK ST2SC6 SLP150

CYQF;2007-12-02 18:00;CYQF 021800Z 13013KT 3SM -SN OVC015 M18/M21 A2974 RMK SC8 SLP154

CYQF;2007-12-02 19:00;CYQF 021900Z 16012KT 3SM -SN OVC015 M17/M21 A2975 RMK SC8 SLP156

CYQF;2007-12-02 20:00;CYQF 022000Z 16008KT 3SM -SN OVC015 M17/M21 A2975 RMK SC8 SLP156

CYQF;2007-12-02 21:00;CYQF 022100Z 14005KT 6SM -SN OVC015 M17/M22 A2974 RMK SC8 SLP156

CYQF;2007-12-02 22:00;CYQF 022200Z 15004KT 8SM -SN OVC015 M16/M21 A2974 RMK SC8 SLP156

CYQF;2007-12-02 23:00;CYQF 022300Z 10003KT 6SM -SN OVC015 M16/M20 A2976 RMK SC8 SLP160

CYQF;2007-12-03 00:00;CYQF 030000Z 08006KT 10SM -SN OVC020 M16/M21 A2976 RMK SC8 SLP160

CYQF;2007-12-03 01:00;CYQF 030100Z 06010KT 10SM -SN OVC017 M16/M21 A2976 RMK SC8 SLP159

CYQF;2007-12-03 02:00;CYQF 030200Z 06008KT 15SM -SN SCT017 OVC030 M17/M21 A2975 RMK SC3SC5 SLP156

CYQF;2007-12-03 02:45;CYQF 030245Z 06008KT 2 1/2SM -SN OVC013 RMK SN2SC6

CYQF;2007-12-03 03:00;CYQF 030300Z 06006KT 2SM -SN VV011 M17/M22 A2975 RMK SN8 SLP157

CYQF;2007-12-03 03:42;CYQF 030342Z 07007KT 10SM -SN BKN013 OVC030 RMK SC5SC3

CYQF;2007-12-03 04:00;CYQF 030400Z 06010KT 2 1/2SM -SN BKN013 OVC030 M18/M22 A2976 RMK SN1SC5SC2 SLP159

CYQF;2007-12-03 04:24;CYQF 030424Z 05007KT 9SM -SN BKN014 OVC030 RMK SC6SC2

CYQF;2007-12-03 05:00;CYQF 030500Z 04006KT 10SM -SN BKN014 OVC030 M18/M22 A2977 RMK SC5SC3 SLP163

CYQF;2007-12-03 06:00;CYQF 030600Z 06007KT 15SM -SN SCT013 OVC023 M18/M23 A2980 RMK SC3SC5 /S01/ SLP170

CYQF;2007-12-03 07:00;CYQF 030700Z 03004KT 15SM -SN FEW016 OVC022 M18/M23 A2981 RMK SC2SC6 SLP175

CYQF;2007-12-03 08:00;CYQF 030800Z 05007KT 10SM -SN OVC017 M18/M23 A2981 RMK SC8 SLP174

CYQF;2007-12-03 09:00;CYQF 030900Z 36005KT 12SM -SN OVC016 M19/M23 A2984 RMK SC8 SLP186

CYQF;2007-12-03 10:00;CYQF 031000Z 36008KT 15SM -SN OVC015 M19/M24 A2986 RMK SC8 SLP192

CYQF;2007-12-03 11:00;CYQF 031100Z 02004KT 15SM -SN OVC018 M19/M24 A2986 RMK SC8 SLP191

CYQF;2007-12-03 12:00;CYQF 031200Z 36005KT 15SM -SN OVC018 M19/M24 A2986 RMK SC8 SLP191

CYQF;2007-12-03 13:00;CYQF 031300Z 36007KT 8SM -SN OVC018 M19/M24 A2989 RMK SC8 SLP201

CYQF;2007-12-03 14:00;CYQF 031400Z 01007KT 8SM -SN OVC011 M19/M24 A2989 RMK SC8 SLP202

CYQF;2007-12-03 15:00;CYQF 031500Z 36004KT 6SM -SN OVC011 M19/M23 A2990 RMK SC8 SLP207

CYQF;2007-12-03 15:45;CYQF 031545Z 35002KT 1 1/2SM -SN OVC011 RMK SN3SC5

CYQF;2007-12-03 16:00;CYQF 031600Z 00000KT 3SM -SN OVC016 M19/M23 A2988 RMK SC8 VSBY S 11/2 SLP202

CYQF;2007-12-03 17:00;CYQF 031700Z 00000KT 3SM -SN OVC015 M19/M24 A2986 RMK SC8 SLP196

CYQF;2007-12-03 18:00;CYQF 031800Z 00000KT 3SM -SN OVC020 M19/M24 A2987 RMK SN2SC6 SLP196

CYQF;2007-12-03 19:00;CYQF 031900Z 00000KT 5SM -SN OVC020 M18/M24 A2985 RMK SC7 SLP191

CYQF;2007-12-03 20:00;CYQF 032000Z 16003KT 10SM -SN OVC020 M18/M24 A2984 RMK SC7 SLP188

CYQF;2007-12-03 21:00;CYQF 032100Z 12003KT 15SM BKN020 OVC090 M18/M24 A2984 RMK SC5AC2 SLP185

CYQF;2007-12-03 22:00;CYQF 032200Z 12005KT 15SM BKN025 OVC090 M18/M24 A2983 RMK SC5AC2 SLP182

CYQF;2007-12-03 23:00;CYQF 032300Z 13004KT 15SM FEW030 BKN090 BKN250 M17/M23 A2982 RMK SC2AC2CI1 SLP181

CYQF;2007-12-04 00:00;CYQF 040000Z 13006KT 15SM FEW030 BKN090 BKN250 M17/M23 A2981 RMK SC2AC3CI1 SLP176

CYQF;2007-12-04 01:00;CYQF 040100Z 16006KT 15SM FEW090 SCT250 M18/M23 A2981 RMK AC2CI1 SLP176

CYQF;2007-12-04 02:00;CYQF 040200Z 09002KT 15SM FEW090 SCT250 M18/M23 A2979 RMK AC2CI1 SLP171

CYQF;2007-12-04 03:00;CYQF 040300Z 09004KT 15SM BKN024 BKN090 M18/M23 A2979 RMK SC5AC2 SLP171

CYQF;2007-12-04 04:00;CYQF 040400Z 04005KT 15SM BKN026 M18/M22 A2981 RMK SC6 SLP177

CYQF;2007-12-04 05:00;CYQF 040500Z 03006KT 15SM OVC026 M17/M27 A2985 RMK SC8 SLP188

CYQF;2007-12-04 06:00;CYQF 040600Z 35005KT 15SM OVC023 M17/M22 A2986 RMK SC8 SLP193

CYQF;2007-12-04 07:00;CYQF 040700Z 36005KT 15SM BKN022 M17/M22 A2988 RMK SC6 SLP198

CYQF;2007-12-04 08:00;CYQF 040800Z 36004KT 15SM BKN025 M18/M23 A2989 RMK SC5 SLP202

CYQF;2007-12-04 09:00;CYQF 040900Z 01005KT 15SM BKN023 M18/M22 A2990 RMK SC6 SLP205

CYQF;2007-12-04 10:00;CYQF 041000Z 01005KT 15SM BKN025 M18/M22 A2992 RMK SC6 SLP211

CYQF;2007-12-04 11:00;CYQF 041100Z 36007KT 15SM BKN025 M17/M22 A2993 RMK SC6 SLP216

CYQF;2007-12-04 12:00;CYQF 041200Z 33004KT 15SM BKN025 M17/M22 A2996 RMK SC6 SLP228

CYQF;2007-12-04 13:00;CYQF 041300Z 33003KT 15SM SCT025 OVC060 M17/M22 A2997 RMK SC4SC4 SLP229

CYQF;2007-12-04 14:00;CYQF 041400Z 33002KT 15SM BKN025 OVC060 M17/M22 A2998 RMK SC6SC2 SLP234

CYQF;2007-12-04 14:36;CYQF 041436Z 00000KT 5SM -SN BR BKN020 OVC060 RMK SC6SC2

CYQF;2007-12-04 15:00;CYQF 041500Z 36005KT 10SM -SN BKN025 OVC060 M16/M21 A3000 RMK SC6SC2 SLP240

CYQF;2007-12-04 15:35;CYQF 041535Z 00000KT 10SM -SN BKN014 OVC060 RMK SC6SC2

CYQF;2007-12-04 16:00;CYQF 041600Z 00000KT 10SM -SN BKN014 BKN060 OVC250 M17/M21 A3002 RMK SC3SC2CI1 SN VRY LGT SLP247

CYQF;2007-12-04 17:00;CYQF 041700Z 03005KT 10SM FEW015 SCT060 OVC250 M16/M21 A3005 RMK SC2SC2CI3 SLP255

CYQF;2007-12-04 18:00;CYQF 041800Z 03004KT 10SM FEW020 SCT080 OVC250 M16/M21 A3005 RMK SC2AC2CI2 SLP256

CYQF;2007-12-04 19:00;CYQF 041900Z 10006KT 10SM FEW020 FEW090 BKN250 M16/M21 A3005 RMK SC1AC2CI2 SLP256

CYQF;2007-12-04 20:00;CYQF 042000Z 08003KT 15SM FEW020 SCT090 BKN250 M16/M21 A3005 RMK SC1AC2CI1 VIS S 10 SLP256

CYQF;2007-12-04 21:00;CYQF 042100Z 07004KT 15SM FEW020 SCT090 BKN250 M16/M21 A3006 RMK SC1AC3CI0 SLP259

CYQF;2007-12-04 22:00;CYQF 042200Z 11003KT 15SM FEW020 BKN090 BKN250 M15/M20 A3006 RMK SC1AC4CI2 SLP261

CYQF;2007-12-04 23:00;CYQF 042300Z 05005KT 15SM FEW020 BKN090 BKN250 M15/M20 A3008 RMK SC1AC4CI2 SLP267

CYQF;2007-12-05 00:00;CYQF 050000Z 06006KT 15SM SCT030 BKN090 M16/M20 A3011 RMK SC3AC4 SLP275

CYQF;2007-12-05 01:00;CYQF 050100Z 06005KT 10SM -SN OVC017 M15/M20 A3012 RMK SC8 SLP278

CYQF;2007-12-05 02:00;CYQF 050200Z 06003KT 10SM -SN SCT017 OVC090 M15/M20 A3012 RMK SC3AC5 SLP278

CYQF;2007-12-05 03:00;CYQF 050300Z CCA 09003KT 10SM -SN FEW017 BKN090 M15/M20 A3011 RMK SC2AC6 SLP275

CYQF;2007-12-05 04:00;CYQF 050400Z 08004KT 10SM -SN BKN017 OVC090 M15/M19 A3010 RMK SC6AC2 SLP273

CYQF;2007-12-05 05:00;CYQF 050500Z 13004KT 15SM -SN BKN017 OVC090 M14/M19 A3010 RMK SC6AC2 SLP272

CYQF;2007-12-05 06:00;CYQF 050600Z 10004KT 10SM -SN BKN017 OVC090 M14/M19 A3010 RMK SC6AC2 SLP270

CYQF;2007-12-05 07:00;CYQF 050700Z 10002KT 10SM -SN BKN015 OVC090 M14/M19 A3009 RMK SC6AC2 SLP268

CYQF;2007-12-05 08:00;CYQF 050800Z 00000KT 10SM -SN OVC018 M14/M19 A3010 RMK SC8 SLP269

CYQF;2007-12-05 09:00;CYQF 050900Z 36004KT 10SM -SN OVC018 M14/M19 A3009 RMK SC8 SLP267

CYQF;2007-12-05 10:00;CYQF 051000Z 34003KT 5SM -SN OVC018 M14/M19 A3010 RMK SC8 SLP270

CYQF;2007-12-05 11:00;CYQF 051100Z 33003KT 15SM -SN OVC020 M14/M18 A3009 RMK SC8 SLP267

CYQF;2007-12-05 12:00;CYQF 051200Z 33005KT 15SM OVC020 M14/M19 A3008 RMK SC8 SLP263

CYQF;2007-12-05 13:00;CYQF 051300Z 34005KT 15SM OVC022 M14/M19 A3007 RMK SC8 SLP258

CYQF;2007-12-05 13:37;CYQF 051337Z 34005KT 10SM -SN OVC026 RMK SC8

CYQF;2007-12-05 14:00;CYQF 051400Z 34003KT 10SM -SN OVC027 M14/M19 A3005 RMK SC8 SLP252

CYQF;2007-12-05 15:00;CYQF 051500Z 36002KT 10SM -SN FEW015 OVC025 M14/M18 A3005 RMK SC2SC6 SLP250

CYQF;2007-12-05 16:00;CYQF 051600Z 36007KT 3SM -SN OVC025 M14/M18 A3005 RMK SC8 SLP250

CYQF;2007-12-05 16:13;CYQF 051613Z 34005KT 2SM -SN VV015 RMK SN8 VIS VRB 1-3

CYQF;2007-12-05 17:00;CYQF 051700Z 35005KT 2SM -SN VV015 M15/M19 A3005 RMK SN8 VIS VRB 1-3 SLP252

CYQF;2007-12-05 18:00;CYQF 051800Z CCA 35007KT 2SM -SN VV015 M14/M18 A3005 RMK SN8 VIS VRB 1-3 SLP250

CYQF;2007-12-05 19:00;CYQF 051900Z 31008KT 2SM -SN VV015 M14/M18 A3004 RMK SN8 VIS VRB 1-3 SLP247

CYQF;2007-12-05 19:18;CYQF 051918Z 31008KT 3SM -SN OVC025 RMK SN4SC4 VIS SE-S 2

CYQF;2007-12-05 19:48;CYQF 051948Z 30008KT 8SM OVC025 RMK SC7 VIS S 6

CYQF;2007-12-05 20:00;CYQF 052000Z 29010KT 8SM OVC025 M14/M19 A3001 RMK SC7 VIS S4 SLP238

CYQF;2007-12-05 21:00;CYQF 052100Z 31009KT 10SM BKN025 BKN210 M13/M18 A3000 RMK SC6CI2 SLP230

CYQF;2007-12-05 22:00;CYQF 052200Z 32005KT 12SM SCT025 BKN090 BKN210 M13/M18 A2999 RMK SC2AC2CI1 SLP228

CYQF;2007-12-05 23:00;CYQF 052300Z 30002KT 15SM FEW025 SCT090 BKN210 M14/M19 A2998 RMK SC2AC2CI1 SLP226

CYQF;2007-12-06 00:00;CYQF 060000Z 00000KT 15SM FEW030 SCT090 BKN210 M16/M20 A2998 RMK SC2AC2CI1 SLP229

CYQF;2007-12-06 01:00;CYQF 060100Z 25003KT 15SM FEW030 SCT090 BKN210 M16/M20 A2998 RMK SC2AC2CI1 SLP227

CYQF;2007-12-06 02:00;CYQF 060200Z 22005KT 15SM FEW030 SCT090 BKN210 M17/M21 A2997 RMK SC1AC2CI1 SLP225

CYQF;2007-12-06 03:00;CYQF 060300Z 24005KT 15SM FEW090 FEW210 M18/M22 A2995 RMK AC2CI0 SLP220

CYQF;2007-12-06 04:00;CYQF 060400Z 25003KT 15SM FEW090 SCT210 M15/M19 A2995 RMK AC2CI0 SLP217

CYQF;2007-12-06 05:00;CYQF 060500Z 18004KT 15SM FEW090 SCT210 M17/M21 A2993 RMK AC2CI0 SLP213

CYQF;2007-12-06 06:00;CYQF 060600Z 23004KT 15SM FEW090 M20/M24 A2992 RMK AC2 SLP210

CYQF;2007-12-06 07:00;CYQF 060700Z 20004KT 15SM SKC M23/M28 A2991 RMK SLP209

CYQF;2007-12-06 08:00;CYQF 060800Z 19006KT 15SM FEW110 M22/M26 A2989 RMK AC1 SLP203

CYQF;2007-12-06 09:00;CYQF 060900Z 22003KT 15SM FEW110 M20/M25 A2988 RMK AC1 SLP197

CYQF;2007-12-06 10:00;CYQF 061000Z 17002KT 15SM SCT110 M20/M24 A2987 RMK AC2 SLP195

CYQF;2007-12-06 11:00;CYQF 061100Z 00000KT 15SM FEW110 M19/M24 A2986 RMK AC1 SLP192

CYQF;2007-12-06 12:00;CYQF 061200Z 00000KT 15SM FEW110 M21/M25 A2985 RMK AC1 SLP191

CYQF;2007-12-06 13:00;CYQF 061300Z 23007KT 15SM FEW090 M22/M26 A2984 RMK AC1 SLP187

CYQF;2007-12-06 14:00;CYQF 061400Z 22005KT 15SM FEW090 M21/M26 A2985 RMK AC1 SLP190

CYQF;2007-12-06 15:00;CYQF 061500Z 13002KT 15SM FEW090 M21/M26 A2987 RMK AC1 SLP199

CYQF;2007-12-06 16:00;CYQF 061600Z 18005KT 15SM FEW090 M24/M27 A2987 RMK AC1 SLP201

CYQF;2007-12-06 17:00;CYQF 061700Z 20006KT 15SM FEW090 M19/M23 A2989 RMK AC1 SLP207

CYQF;2007-12-06 18:00;CYQF 061800Z 21005KT 15SM FEW090 FEW250 M16/M20 A2991 RMK AC1CI1 SLP209

CYQF;2007-12-06 19:00;CYQF 061900Z 26003KT 15SM FEW090 FEW250 M12/M19 A2991 RMK AC1CI1 AC TR SLP210

CYQF;2007-12-06 20:00;CYQF 062000Z 27002KT 15SM FEW090 M10/M17 A2991 RMK AC1 SLP209

CYQF;2007-12-06 21:00;CYQF 062100Z 27002KT 15SM FEW090 M09/M17 A2990 RMK AC1 AC TR SLP200

CYQF;2007-12-06 22:00;CYQF 062200Z 00000KT 15SM FEW090 FEW250 M09/M17 A2990 RMK AC1CI1 ALL LYRS TR SLP199

CYQF;2007-12-06 23:00;CYQF 062300Z 00000KT 15SM FEW090 M10/M17 A2990 RMK AC1 SLP200

CYQF;2007-12-07 00:00;CYQF 070000Z 00000KT 15SM FEW090 M14/M19 A2991 RMK AC2 SLP210

CYQF;2007-12-07 01:00;CYQF 070100Z 00000KT 15SM FEW090 M17/M20 A2992 RMK AC2 SLP213

CYQF;2007-12-07 02:00;CYQF 070200Z 24002KT 15SM FEW100 M19/M24 A2993 RMK AC2 SLP216

CYQF;2007-12-07 03:00;CYQF 070300Z 26005KT 15SM SKC M20/M24 A2995 RMK SLP231

CYQF;2007-12-07 04:00;CYQF 070400Z 23004KT 15SM SKC M18/M22 A2996 RMK SLP234

CYQF;2007-12-07 05:00;CYQF 070500Z 25005KT 15SM SKC M15/M20 A2997 RMK SLP237

CYQF;2007-12-07 06:00;CYQF 070600Z 29009KT 15SM SKC M14/M19 A2998 RMK SLP230

CYQF;2007-12-07 07:00;CYQF 070700Z 27008KT 15SM SKC M15/M20 A3000 RMK SLP235

CYQF;2007-12-07 08:00;CYQF 070800Z 28008KT 15SM SKC M14/M19 A3000 RMK SLP235

CYQF;2007-12-07 09:00;CYQF 070900Z 29010KT 15SM SKC M13/M19 A3000 RMK SLP224

CYQF;2007-12-07 10:00;CYQF 071000Z 29008KT 15SM SKC M13/M19 A3000 RMK SLP226

CYQF;2007-12-07 11:00;CYQF 071100Z 27007KT 15SM SKC M14/M20 A3000 RMK SLP226

CYQF;2007-12-07 12:00;CYQF 071200Z 27012KT 15SM SKC M14/M20 A3000 RMK SLP232

CYQF;2007-12-07 13:00;CYQF 071300Z 28010KT 15SM SKC M14/M20 A3001 RMK SLP235

CYQF;2007-12-07 14:00;CYQF 071400Z 27007KT 15SM SKC M15/M20 A3002 RMK SLP239

CYQF;2007-12-07 15:00;CYQF 071500Z 27009KT 15SM SKC M16/M21 A3003 RMK SLP252

CYQF;2007-12-07 16:00;CYQF 071600Z 21004KT 15SM SKC M18/M24 A3005 RMK SLP257

CYQF;2007-12-07 17:00;CYQF 071700Z 19005KT 15SM SKC M18/M23 A3007 RMK SLP264

CYQF;2007-12-07 18:00;CYQF 071800Z 18005KT 15SM SKC M16/M21 A3008 RMK SLP264

CYQF;2007-12-07 19:00;CYQF 071900Z 20003KT 15SM SKC M14/M20 A3009 RMK SLP266

CYQF;2007-12-07 20:00;CYQF 072000Z 26005KT 15SM SKC M12/M19 A3009 RMK SLP265

CYQF;2007-12-07 21:00;CYQF 072100Z 26005KT 15SM SKC M12/M19 A3009 RMK SLP260

CYQF;2007-12-07 22:00;CYQF 072200Z 23003KT 15SM SKC M11/M19 A3010 RMK SLP262

CYQF;2007-12-07 23:00;CYQF 072300Z 00000KT 15SM SKC M11/M18 A3011 RMK SLP266

CYQF;2007-12-08 00:00;CYQF 080000Z 00000KT 15SM SKC M15/M20 A3012 RMK SLP277

CYQF;2007-12-08 01:00;CYQF 080100Z 00000KT 15SM SKC M18/M23 A3014 RMK SLP282

CYQF;2007-12-08 02:00;CYQF 080200Z 00000KT 15SM SKC M19/M23 A3015 RMK SLP285

CYQF;2007-12-08 03:00;CYQF 080300Z 19003KT 15SM SKC M20/M24 A3016 RMK SLP296

CYQF;2007-12-08 04:00;CYQF 080400Z 20004KT 15SM SKC M22/M27 A3017 RMK SLP301

CYQF;2007-12-08 05:00;CYQF 080500Z 20004KT 15SM SKC M23/M27 A3018 RMK SLP304

CYQF;2007-12-08 06:00;CYQF 080600Z 22003KT 15SM SKC M22/M27 A3020 RMK SLP312

CYQF;2007-12-08 07:00;CYQF 080700Z 20007KT 15SM SKC M23/M27 A3019 RMK SLP310

CYQF;2007-12-08 08:00;CYQF 080800Z 22002KT 15SM SKC M22/M26 A3020 RMK SLP313

CYQF;2007-12-08 09:00;CYQF 080900Z 21005KT 15SM SKC M23/M28 A3020 RMK SLP309

CYQF;2007-12-08 10:00;CYQF 081000Z 21005KT 15SM SKC M25/M29 A3021 RMK SLP312

CYQF;2007-12-08 11:00;CYQF 081100Z 20003KT 15SM SKC M24/M29 A3021 RMK SLP312

CYQF;2007-12-08 12:00;CYQF 081200Z 22002KT 15SM SKC M24/M28 A3022 RMK SLP321

CYQF;2007-12-08 13:00;CYQF 081300Z 21005KT 15SM SKC M25/M30 A3021 RMK SLP319

CYQF;2007-12-08 14:00;CYQF 081400Z 20006KT 15SM SKC M24/M29 A3022 RMK SLP321

CYQF;2007-12-08 15:00;CYQF 081500Z 21005KT 15SM SKC M25/M30 A3021 RMK SLP325

CYQF;2007-12-08 16:00;CYQF 081600Z 21005KT 15SM SKC M25/M29 A3021 RMK SLP326

CYQF;2007-12-08 17:00;CYQF 081700Z 21003KT 15SM SKC M23/M27 A3020 RMK SLP321

CYQF;2007-12-08 18:00;CYQF 081800Z 00000KT 15SM SKC M18/M22 A3019 RMK SLP314

CYQF;2007-12-08 19:00;CYQF 081900Z 18004KT 15SM SKC M14/M21 A3016 RMK SLP304

CYQF;2007-12-08 20:00;CYQF 082000Z 20004KT 15SM SKC M13/M20 A3014 RMK SLP297

CYQF;2007-12-08 21:00;CYQF 082100Z 00000KT 15SM SKC M10/M19 A3014 RMK SLP286

CYQF;2007-12-08 22:00;CYQF 082200Z 00000KT 15SM SKC M09/M18 A3013 RMK SLP284

CYQF;2007-12-08 23:00;CYQF 082300Z 22004KT 15SM SKC M13/M20 A3012 RMK SLP282

CYQF;2007-12-09 00:00;CYQF 090000Z 22006KT 15SM SKC M17/M23 A3012 RMK SLP287

CYQF;2007-12-09 01:00;CYQF 090100Z 19004KT 15SM SKC M18/M22 A3012 RMK SLP287

CYQF;2007-12-09 02:00;CYQF 090200Z 18004KT 15SM SKC M20/M25 A3012 RMK SLP289

CYQF;2007-12-09 03:00;CYQF 090300Z 20005KT 15SM SKC M20/M24 A3013 RMK SLP297

CYQF;2007-12-09 04:00;CYQF 090400Z 19005KT 15SM SKC M20/M25 A3011 RMK SLP292

CYQF;2007-12-09 05:00;CYQF 090500Z 00000KT 15SM SKC M19/M24 A3010 RMK SLP290

CYQF;2007-12-09 06:00;CYQF 090600Z 20005KT 15SM SKC M19/M24 A3009 RMK SLP275

CYQF;2007-12-09 07:00;CYQF 090700Z 21004KT 15SM SKC M17/M23 A3009 RMK SLP275

CYQF;2007-12-09 08:00;CYQF 090800Z 20003KT 15SM SKC M19/M24 A3007 RMK SLP269

CYQF;2007-12-09 09:00;CYQF 090900Z 18007KT 15SM SKC M19/M24 A3004 RMK SLP248

CYQF;2007-12-09 10:00;CYQF 091000Z 23005KT 15SM SKC M19/M25 A3002 RMK SLP241

CYQF;2007-12-09 11:00;CYQF 091100Z 22003KT 15SM SKC M20/M25 A2999 RMK SLP234

CYQF;2007-12-09 12:00;CYQF 091200Z 18003KT 15SM SKC M19/M25 A2996 RMK SLP227

CYQF;2007-12-09 13:00;CYQF 091300Z 19004KT 15SM FEW250 M18/M23 A2992 RMK CI0 SLP216

CYQF;2007-12-09 14:00;CYQF 091400Z 22002KT 15SM SCT250 M17/M23 A2991 RMK CI1 SLP213

CYQF;2007-12-09 15:00;CYQF 091500Z 22003KT 15SM OVC250 M15/M21 A2990 RMK CI7 SLP205

CYQF;2007-12-09 16:00;CYQF 091600Z 21004KT 15SM OVC170 M14/M20 A2989 RMK AC7 VIRGA SLP204

CYQF;2007-12-09 17:00;CYQF 091700Z 18005KT 15SM BKN070 OVC170 M13/M19 A2987 RMK AC7AC1 VIRGA SLP198

CYQF;2007-12-09 18:00;CYQF 091800Z 19005KT 15SM BKN070 OVC170 M11/M18 A2986 RMK AC7AC1 SLP187

CYQF;2007-12-09 19:00;CYQF 091900Z 20005KT 15SM SCT050 BKN070 BKN170 M10/M16 A2983 RMK SC1AC4AC2 VIRGA SLP177

CYQF;2007-12-09 20:00;CYQF 092000Z 00000KT 15SM FEW050 SCT070 BKN170 M08/M18 A2981 RMK SC1AC3AC2 SLP171

CYQF;2007-12-09 21:00;CYQF 092100Z 00000KT 15SM BKN050 BKN120 M07/M13 A2980 RMK SC6AC1 SLP161

CYQF;2007-12-09 22:00;CYQF 092200Z 00000KT 15SM BKN050 OVC120 M06/M12 A2978 RMK SC5AC2 SLP153

CYQF;2007-12-09 23:00;CYQF 092300Z 00000KT 15SM SCT050 BKN120 M06/M11 A2977 RMK SC3AC2 SLP151

CYQF;2007-12-10 00:00;CYQF 100000Z 21002KT 15SM BKN050 OVC100 M07/M12 A2978 RMK SC5AC2 VIRGA SLP153

CYQF;2007-12-10 01:00;CYQF 100100Z 26005KT 15SM BKN040 BKN100 M07/M12 A2979 RMK SC5AC2 VIRGA SLP156

CYQF;2007-12-10 02:00;CYQF 100200Z 00000KT 15SM OVC040 M08/M12 A2979 RMK SC8 VIRGA SLP157

CYQF;2007-12-10 02:07;CYQF 100207Z 24003KT 8SM -SN OVC040 RMK SC8

CYQF;2007-12-10 02:21;CYQF 100221Z 24003KT 2SM -SN OVC040 RMK SN6SC2

CYQF;2007-12-10 02:42;CYQF 100242Z 21005KT 8SM -SN OVC040 RMK SC8

CYQF;2007-12-10 03:00;CYQF 100300Z 22007KT 5SM -SN FEW015 OVC040 M06/M09 A2979 RMK SC2SC6 SLP153

CYQF;2007-12-10 04:00;CYQF 100400Z 32009KT 15SM OVC038 M01/M07 A2981 RMK SC8 SLP158

CYQF;2007-12-10 05:00;CYQF 100500Z 33007KT 15SM OVC040 M03/M06 A2983 RMK SC8 SLP164

CYQF;2007-12-10 06:00;CYQF 100600Z 32010G15KT 15SM BKN038 M03/M08 A2985 RMK SC6 SLP163

CYQF;2007-12-10 07:00;CYQF 100700Z 32015G21KT 10SM -SHSN OVC050 M03/M06 A2987 RMK SC8 SLP169

CYQF;2007-12-10 07:33;CYQF 100733Z 31010G20KT 15SM FEW040 OVC070 RMK SC2AC6

CYQF;2007-12-10 08:00;CYQF 100800Z 30010G20KT 15SM OVC070 M03/M06 A2989 RMK AC6 SLP176

CYQF;2007-12-10 08:24;CYQF 100824Z 31015G22KT 10SM OVC075 RMK AC8 VSBY S 6

CYQF;2007-12-10 08:27;CYQF 100827Z 31015G22KT 10SM -SHSN OVC075 RMK AC8 VSBY S 6

CYQF;2007-12-10 09:00;CYQF 100900Z 30011KT 10SM -SHSN OVC075 M03/M06 A2990 RMK AC8 SLP177

CYQF;2007-12-10 10:00;CYQF 101000Z 29010KT 6SM -SN FEW040 BKN075 M04/M06 A2992 RMK SC1AC5 SC TR SLP183

CYQF;2007-12-10 10:19;CYQF 101019Z 30016KT 2SM -SN VV015 RMK SN8

CYQF;2007-12-10 10:23;CYQF 101023Z 29012KT 1SM -SN VV012 RMK SN8

CYQF;2007-12-10 10:39;CYQF 101039Z 33015G20KT 3/4SM -SN VV010 RMK SN8 HVY DRFTG SNW

CYQF;2007-12-10 10:49;CYQF 101049Z 34015KT 1 1/2SM -SN VV015 RMK SN8

CYQF;2007-12-10 11:00;CYQF 101100Z 32015KT 5SM -SN FEW025 OVC075 M03/M06 A2995 RMK SC2AC6 SLP190

CYQF;2007-12-10 11:18;CYQF 101118Z 33015G25KT 1 1/2SM -SN VV015 RMK SN8 HVY DRFTG SNW

CYQF;2007-12-10 11:27;CYQF 101127Z CCA 33015G25KT 2SM -SN VV012 RMK SN8 VIS VRB 1-3 HVY DRFTG SNW

CYQF;2007-12-10 12:00;CYQF 101200Z 33015G27KT 2SM -SN BLSN VV012 M04/M07 A2996 RMK SN8 VIS VRB 1-3 SLP199

CYQF;2007-12-10 12:07;CYQF 101207Z 33015G25KT 3/8SM SN BLSN VV008 RMK SN8

CYQF;2007-12-10 12:18;CYQF 101218Z 33010G16KT 1 1/2SM -SN VV013 RMK SN8 RESN

CYQF;2007-12-10 12:47;CYQF 101247Z 33015G25KT 3SM -SN BLSN OVC035 RMK SN4SC4 PEAK GUST 33KTS SINCE 12Z

CYQF;2007-12-10 13:00;CYQF 101300Z 33015G26KT 2SM -SN OVC035 M04/M07 A3001 RMK SN5SC3 VIS VRB 1-3 OCNL BS SLP213

CYQF;2007-12-10 13:33;CYQF 101333Z 33010G16KT 6SM -SN OVC035 RMK SC8

CYQF;2007-12-10 14:00;CYQF 101400Z CCA 33020G33KT 8SM OVC035 M04/M08 A3005 RMK SC8 OCNL BS SLP225

CYQF;2007-12-10 15:00;CYQF 101500Z 34018G31KT 15SM DRSN OVC035 M05/M09 A3007 RMK SC8 OCNL BS SLP238

CYQF;2007-12-10 16:00;CYQF 101600Z 34015KT 15SM DRSN BKN025 M05/M09 A3011 RMK SC7 SLP250

CYQF;2007-12-10 17:00;CYQF 101700Z 33010G15KT 15SM BKN025 M05/M09 A3014 RMK SC6 SLP258

CYQF;2007-12-10 18:00;CYQF 101800Z 34010KT 15SM FEW025 M05/M09 A3016 RMK SC2 SLP263

CYQF;2007-12-10 19:00;CYQF 101900Z 33009KT 15SM FEW150 M04/M09 A3016 RMK AC1 SLP263

CYQF;2007-12-10 20:00;CYQF 102000Z 32012KT 15SM FEW150 M04/M09 A3015 RMK AC1 SLP261

CYQF;2007-12-10 21:00;CYQF 102100Z 30006KT 15SM FEW150 M04/M09 A3014 RMK AC1 SLP254

CYQF;2007-12-10 22:00;CYQF 102200Z 00000KT 15SM FEW150 M04/M09 A3014 RMK AC1 SLP254

CYQF;2007-12-10 23:00;CYQF 102300Z 00000KT 15SM FEW150 M06/M11 A3014 RMK AC1 SLP254

CYQF;2007-12-11 00:00;CYQF 110000Z 18003KT 15SM FEW150 M09/M12 A3014 RMK AC1 SLP263

CYQF;2007-12-11 01:00;CYQF 110100Z 21002KT 15SM SCT120 M10/M13 A3014 RMK AC2 SLP263

CYQF;2007-12-11 02:00;CYQF 110200Z 20005KT 15SM SCT120 M14/M16 A3013 RMK AC2 SLP261

CYQF;2007-12-11 03:00;CYQF 110300Z 20005KT 15SM SKC M15/M17 A3013 RMK SLP267

CYQF;2007-12-11 04:00;CYQF 110400Z 20006KT 15SM SKC M16/M18 A3012 RMK SLP263

CYQF;2007-12-11 05:00;CYQF 110500Z 19003KT 15SM SKC M15/M17 A3010 RMK SLP258

CYQF;2007-12-11 06:00;CYQF 110600Z 20003KT 15SM SKC M14/M16 A3008 RMK SLP251

CYQF;2007-12-11 07:00;CYQF 110700Z 22002KT 15SM SKC M16/M19 A3007 RMK SLP246

CYQF;2007-12-11 08:00;CYQF 110800Z 20003KT 15SM SKC M15/M18 A3005 RMK SLP242

CYQF;2007-12-11 09:00;CYQF 110900Z 00000KT 15SM SKC M16/M19 A3003 RMK SLP234

CYQF;2007-12-11 10:00;CYQF 111000Z 17002KT 15SM FEW100 FEW250 M15/M18 A3003 RMK AC1CI0 SLP233

CYQF;2007-12-11 11:00;CYQF 111100Z 19004KT 15SM FEW100 FEW250 M14/M17 A3001 RMK AC1CI1 SLP227

CYQF;2007-12-11 12:00;CYQF 111200Z 19002KT 15SM FEW100 FEW250 M15/M18 A3000 RMK AC1CI1 SLP228

CYQF;2007-12-11 13:00;CYQF 111300Z 00000KT 15SM FEW100 BKN250 M15/M18 A2998 RMK AC2CI2 SLP223

CYQF;2007-12-11 14:00;CYQF 111400Z 21003KT 15SM FEW100 SCT250 M16/M19 A2997 RMK AC2CI1 SLP220

CYQF;2007-12-11 15:00;CYQF 111500Z 19004KT 15SM FEW100 SCT250 M15/M18 A2995 RMK AC1CI1 SLP216

CYQF;2007-12-11 16:00;CYQF 111600Z 24003KT 15SM FEW100 BKN270 M16/M19 A2994 RMK AC2CI2 SLP214

CYQF;2007-12-11 17:00;CYQF 111700Z 21003KT 15SM FEW100 BKN250 M13/M16 A2993 RMK AC2CI2 SLP209

CYQF;2007-12-11 18:00;CYQF 111800Z 20002KT 15SM FEW100 BKN250 M11/M15 A2991 RMK AC2CI2 SLP197

CYQF;2007-12-11 19:00;CYQF 111900Z 22002KT 15SM FEW100 BKN250 M09/M14 A2990 RMK AC2CI2 SLP193

CYQF;2007-12-11 20:00;CYQF 112000Z 00000KT 15SM FEW100 SCT250 M08/M14 A2987 RMK AC1CI2 SLP185

CYQF;2007-12-11 21:00;CYQF 112100Z 00000KT 15SM SCT100 BKN250 M07/M13 A2985 RMK AC4CI2 VIRGA SLP172

CYQF;2007-12-11 22:00;CYQF 112200Z 00000KT 15SM BKN100 BKN250 M06/M12 A2982 RMK AC6CI1 SLP165

CYQF;2007-12-11 23:00;CYQF 112300Z 00000KT 15SM FEW090 BKN250 M06/M12 A2981 RMK AC2CI2 SLP161

CYQF;2007-12-12 00:00;CYQF 120000Z 20003KT 15SM FEW090 BKN250 M10/M14 A2978 RMK AC2CI1 SLP154

CYQF;2007-12-12 01:00;CYQF 120100Z 21003KT 15SM SCT090 BKN250 M11/M15 A2976 RMK AC3CI2 SLP147

CYQF;2007-12-12 02:00;CYQF 120200Z 21003KT 15SM BKN080 OVC220 M08/M12 A2973 RMK AC5CI2 SLP138

CYQF;2007-12-12 03:00;CYQF 120300Z 18004KT 15SM OVC060 M06/M10 A2970 RMK SC8 SLP119

CYQF;2007-12-12 04:00;CYQF 120400Z 00000KT 15SM BKN080 OVC220 M06/M10 A2966 RMK AC6CI2 SLP105

CYQF;2007-12-12 05:00;CYQF 120500Z 00000KT 15SM BKN100 OVC220 M06/M10 A2963 RMK AC5CI3 SLP096

CYQF;2007-12-12 06:00;CYQF 120600Z 15005KT 15SM SCT100 BKN220 M06/M10 A2960 RMK AC3CI2 SLP080

CYQF;2007-12-12 07:00;CYQF 120700Z 00000KT 15SM FEW100 SCT220 M08/M11 A2959 RMK AC2CI2 SLP077

CYQF;2007-12-12 08:00;CYQF 120800Z 20004KT 15SM BKN120 M08/M11 A2957 RMK AC6 SLP072

CYQF;2007-12-12 09:00;CYQF 120900Z 24005KT 15SM BKN120 M09/M12 A2957 RMK AC5 SLP067

CYQF;2007-12-12 10:00;CYQF 121000Z 00000KT 15SM BKN120 M07/M11 A2959 RMK AC6 SLP073

CYQF;2007-12-12 11:00;CYQF 121100Z 31004KT 15SM OVC050 M03/M06 A2960 RMK SC8 SLP076

CYQF;2007-12-12 11:23;CYQF 121123Z 36010G15KT 10SM -SN OVC050 RMK SC8

CYQF;2007-12-12 12:00;CYQF 121200Z 36008KT 15SM SCT050 OVC120 M01/M03 A2960 RMK SC3AC5 SLP073

CYQF;2007-12-12 13:00;CYQF 121300Z 26003KT 15SM SCT050 OVC120 M02/M04 A2962 RMK SC3AC5 SLP078

CYQF;2007-12-12 14:00;CYQF 121400Z 24006KT 15SM SCT050 OVC120 M03/M06 A2963 RMK SC3AC5 SLP082

CYQF;2007-12-12 15:00;CYQF 121500Z 29008KT 15SM FEW050 OVC120 M01/M07 A2964 RMK SC2AC6 SLP081

CYQF;2007-12-12 16:00;CYQF 121600Z 29010KT 15SM FEW050 BKN120 M01/M09 A2966 RMK SC1AC6 SLP088

CYQF;2007-12-12 17:00;CYQF 121700Z 29008KT 15SM BKN100 M02/M10 A2968 RMK AC6 SLP095

CYQF;2007-12-12 18:00;CYQF 121800Z 30005KT 15SM BKN100 M02/M10 A2970 RMK AC6 SLP105

CYQF;2007-12-12 19:00;CYQF 121900Z 29010KT 15SM FEW030 BKN100 M00/M10 A2971 RMK CU1AC5 SLP108

CYQF;2007-12-12 20:00;CYQF 122000Z 30013G21KT 15SM FEW030 BKN090 01/M10 A2974 RMK CU1AC5 SLP115

CYQF;2007-12-12 21:00;CYQF 122100Z 31020G33KT 15SM DRSN FEW030 BKN090 01/M11 A2977 RMK CU1AC6 SLP129

CYQF;2007-12-12 22:00;CYQF 122200Z 31015G25KT 15SM DRSN FEW030 BKN090 01/M12 A2980 RMK CU1AC6 SLP137

CYQF;2007-12-12 23:00;CYQF 122300Z 31010G15KT 15SM FEW030 SCT120 BKN250 M00/M12 A2983 RMK CU1AC2CI2 SLP147

CYQF;2007-12-13 00:00;CYQF 130000Z 29006KT 15SM FEW030 SCT120 BKN250 M03/M12 A2986 RMK CU1AC2CI2 SLP156

CYQF;2007-12-13 01:00;CYQF 130100Z 19008KT 15SM FEW030 SCT120 BKN250 M01/M12 A2988 RMK CU1AC3CI2 SLP163

CYQF;2007-12-13 02:00;CYQF 130200Z 30007KT 15SM BKN120 BKN250 M02/M11 A2991 RMK AC5CI2 SLP172

CYQF;2007-12-13 03:00;CYQF 130300Z 30010KT 15SM BKN120 BKN250 M01/M11 A2992 RMK AC5CI2 SLP175

CYQF;2007-12-13 04:00;CYQF 130400Z 30010KT 15SM SCT120 BKN250 M03/M12 A2994 RMK AC3CI1 SLP180

CYQF;2007-12-13 05:00;CYQF 130500Z 30007KT 15SM FEW120 SCT250 M06/M14 A2995 RMK AC2CI0 SLP186

CYQF;2007-12-13 06:00;CYQF 130600Z 26007KT 15SM SCT120 BKN250 M09/M15 A2997 RMK AC3CI1 SLP203

CYQF;2007-12-13 07:00;CYQF 130700Z 26010KT 15SM OVC120 M06/M13 A2998 RMK AC8 SLP206

CYQF;2007-12-13 08:00;CYQF 130800Z 25005KT 15SM OVC100 M05/M13 A2999 RMK AC8 SLP208

CYQF;2007-12-13 09:00;CYQF 130900Z 26004KT 15SM OVC090 M06/M13 A3000 RMK AC8 SLP206

CYQF;2007-12-13 10:00;CYQF 131000Z 23008KT 15SM OVC090 M05/M14 A3002 RMK AC8 SLP210

CYQF;2007-12-13 11:00;CYQF 131100Z 25006KT 15SM OVC090 M06/M13 A3002 RMK AC7 SLP211

CYQF;2007-12-13 12:00;CYQF 131200Z 21003KT 15SM OVC090 M07/M13 A3002 RMK AC8 SLP217

CYQF;2007-12-13 13:00;CYQF 131300Z 00000KT 15SM OVC090 M06/M14 A3002 RMK AC8 SLP218

CYQF;2007-12-13 14:00;CYQF 131400Z 20005KT 15SM OVC090 M07/M14 A3002 RMK AC8 SLP218

CYQF;2007-12-13 15:00;CYQF 131500Z CCA 18002KT 15SM BKN080 M07/M13 A3001 RMK AC7 VIRGA SLP214

CYQF;2007-12-13 16:00;CYQF 131600Z 00000KT 15SM BKN080 M06/M13 A3002 RMK AC7 SLP215

CYQF;2007-12-13 17:00;CYQF 131700Z 21005KT 15SM BKN080 M07/M12 A3001 RMK AC6 VIRGA SLP213

CYQF;2007-12-13 18:00;CYQF 131800Z 19005KT 15SM BKN080 BKN220 M05/M13 A3000 RMK AC5CI1 SLP216

CYQF;2007-12-13 19:00;CYQF 131900Z 19003KT 15SM FEW040 BKN080 M04/M12 A2999 RMK SC2AC6 SLP212

CYQF;2007-12-13 20:00;CYQF 132000Z 00000KT 15SM FEW040 BKN070 M02/M11 A2997 RMK SC1AC6 SLP206

CYQF;2007-12-13 21:00;CYQF 132100Z 00000KT 15SM FEW040 BKN070 BKN220 M01/M11 A2996 RMK SC1AC3CI2 SLP194

CYQF;2007-12-13 22:00;CYQF 132200Z 00000KT 15SM FEW040 BKN080 BKN220 M01/M10 A2996 RMK SC1AC3CI1 SLP194

CYQF;2007-12-13 23:00;CYQF 132300Z 00000KT 15SM FEW040 SCT080 BKN220 M02/M10 A2996 RMK SC1AC3CI1 SLP194

CYQF;2007-12-14 00:00;CYQF 140000Z 00000KT 15SM FEW040 SCT080 BKN220 M05/M11 A2996 RMK SC1AC2CI1 SLP201

CYQF;2007-12-14 01:00;CYQF 140100Z 18002KT 15SM FEW040 BKN080 BKN220 M06/M11 A2996 RMK SC1AC4CI1 SLP199

CYQF;2007-12-14 02:00;CYQF 140200Z 17002KT 15SM BKN070 BKN220 M06/M11 A2996 RMK AC5CI2 SLP200

CYQF;2007-12-14 03:00;CYQF 140300Z 19004KT 15SM BKN070 BKN220 M07/M11 A2996 RMK AC5CI2 SLP202

CYQF;2007-12-14 04:00;CYQF 140400Z 19006KT 15SM BKN070 BKN220 M07/M11 A2996 RMK AC5CI2 SLP203

CYQF;2007-12-14 05:00;CYQF 140500Z 20006KT 15SM BKN090 OVC220 M06/M10 A2996 RMK AC6CI2 SLP202

CYQF;2007-12-14 06:00;CYQF 140600Z 20006KT 15SM BKN090 OVC220 M06/M11 A2996 RMK AC6CI2 SLP201

CYQF;2007-12-14 07:00;CYQF 140700Z 24006KT 15SM BKN090 M06/M12 A2997 RMK AC6 SLP203

CYQF;2007-12-14 08:00;CYQF 140800Z 20003KT 15SM BKN090 M06/M12 A2997 RMK AC6 SLP203

CYQF;2007-12-14 09:00;CYQF 140900Z 00000KT 15SM BKN090 M06/M11 A2997 RMK AC7 SLP199

CYQF;2007-12-14 10:00;CYQF 141000Z 23005KT 15SM BKN090 M05/M12 A2998 RMK AC7 SLP202

CYQF;2007-12-14 11:00;CYQF 141100Z 25003KT 15SM BKN090 M05/M12 A2999 RMK AC5 SLP203

CYQF;2007-12-14 12:00;CYQF 141200Z 24003KT 15SM BKN090 M06/M12 A3000 RMK AC6 SLP212

CYQF;2007-12-14 13:00;CYQF 141300Z 26003KT 15SM BKN090 M06/M12 A3001 RMK AC7 SLP216

CYQF;2007-12-14 14:00;CYQF 141400Z 28004KT 15SM BKN090 M05/M11 A3003 RMK AC7 SLP221

CYQF;2007-12-14 15:00;CYQF 141500Z 28008KT 15SM BKN090 M04/M12 A3004 RMK AC6 SLP226

CYQF;2007-12-14 16:00;CYQF 141600Z 27005KT 15SM FEW090 M08/M14 A3005 RMK AC2 SLP229

CYQF;2007-12-14 17:00;CYQF 141700Z 23008KT 15SM FEW090 M08/M14 A3006 RMK AC2 SLP233

CYQF;2007-12-14 18:00;CYQF 141800Z 25004KT 15SM FEW090 M03/M11 A3006 RMK AC2 SLP233

CYQF;2007-12-14 19:00;CYQF 141900Z 24007KT 15SM FEW090 M03/M11 A3005 RMK AC1 SLP229

CYQF;2007-12-14 20:00;CYQF 142000Z 25006KT 15SM FEW090 M02/M10 A3005 RMK AC1 SLP229

CYQF;2007-12-14 21:00;CYQF 142100Z 23005KT 15SM FEW090 M01/M10 A3004 RMK AC1 SLP221

CYQF;2007-12-14 22:00;CYQF 142200Z 18003KT 15SM FEW090 M01/M10 A3004 RMK AC1 SLP220

CYQF;2007-12-14 23:00;CYQF 142300Z 17005KT 15SM SKC M03/M11 A3003 RMK SLP218

CYQF;2007-12-15 00:00;CYQF 150000Z 17006KT 15SM SKC M07/M13 A3001 RMK SLP218

CYQF;2007-12-15 01:00;CYQF 150100Z 18005KT 15SM SKC M10/M15 A3000 RMK SLP215

CYQF;2007-12-15 02:00;CYQF 150200Z 19003KT 15SM SKC M10/M16 A2999 RMK SLP211

CYQF;2007-12-15 03:00;CYQF 150300Z 00000KT 15SM SKC M11/M15 A2997 RMK SLP207

CYQF;2007-12-15 04:00;CYQF 150400Z 00000KT 15SM SKC M10/M15 A2995 RMK SLP201

CYQF;2007-12-15 05:00;CYQF 150500Z 00000KT 15SM SKC M13/M16 A2993 RMK SLP194

CYQF;2007-12-15 06:00;CYQF 150600Z 18003KT 15SM SKC M14/M18 A2992 RMK SLP191

CYQF;2007-12-15 07:00;CYQF 150700Z 18003KT 15SM SKC M14/M18 A2989 RMK SLP183

CYQF;2007-12-15 08:00;CYQF 150800Z 17003KT 15SM SKC M15/M18 A2986 RMK SLP175

CYQF;2007-12-15 09:00;CYQF 150900Z 19004KT 15SM SKC M17/M20 A2985 RMK SLP166

CYQF;2007-12-15 10:00;CYQF 151000Z 18003KT 15SM SKC M16/M20 A2981 RMK SLP155

CYQF;2007-12-15 11:00;CYQF 151100Z 19003KT 15SM SCT250 M16/M19 A2978 RMK CI2 SLP146

CYQF;2007-12-15 12:00;CYQF 151200Z 00000KT 15SM FEW250 M15/M19 A2976 RMK CI1 SLP139

CYQF;2007-12-15 13:00;CYQF 151300Z 00000KT 15SM FEW250 M15/M19 A2971 RMK CI1 SLP126

CYQF;2007-12-15 14:00;CYQF 151400Z 15005KT 15SM FEW250 M12/M17 A2967 RMK CI1 SLP113

CYQF;2007-12-15 15:00;CYQF 151500Z 15003KT 15SM BKN100 BKN250 M10/M15 A2964 RMK AC6CI1 SLP097

CYQF;2007-12-15 16:00;CYQF 151600Z 14005KT 15SM BKN100 OVC250 M08/M14 A2962 RMK AC6CI2 SLP091

CYQF;2007-12-15 17:00;CYQF 151700Z 16005KT 15SM BKN100 OVC250 M08/M14 A2959 RMK AC6CI2 SLP082

CYQF;2007-12-15 18:00;CYQF 151800Z 05002KT 15SM BKN110 OVC250 M06/M12 A2957 RMK AC6CI2 SLP075

CYQF;2007-12-15 19:00;CYQF 151900Z 14006KT 15SM BKN100 OVC250 M05/M11 A2955 RMK AC6CI2 SLP066

CYQF;2007-12-15 20:00;CYQF 152000Z 13003KT 15SM BKN060 OVC100 M05/M10 A2953 RMK SC5AC2 SLP062

CYQF;2007-12-15 21:00;CYQF 152100Z 18002KT 15SM BKN060 OVC100 M05/M10 A2951 RMK SC5AC2 SLP055

CYQF;2007-12-15 22:00;CYQF 152200Z 17003KT 15SM BKN060 BKN100 M04/M10 A2951 RMK SC5AC2 SLP054

CYQF;2007-12-15 23:00;CYQF 152300Z 17005KT 15SM SCT060 BKN100 M04/M09 A2951 RMK SC3AC4 SLP055

CYQF;2007-12-16 00:00;CYQF 160000Z 00000KT 15SM FEW060 BKN100 M06/M09 A2952 RMK SC2AC5 SLP056

CYQF;2007-12-16 01:00;CYQF 160100Z 00000KT 15SM FEW060 BKN100 M05/M09 A2953 RMK SC2AC4 SLP058

CYQF;2007-12-16 02:00;CYQF 160200Z 21007KT 15SM OVC090 M05/M09 A2953 RMK AC8 VIRGA N-NE SLP058

CYQF;2007-12-16 03:00;CYQF 160300Z 29010KT 15SM OVC090 M00/M10 A2954 RMK AC8 SLP052

CYQF;2007-12-16 04:00;CYQF 160400Z 28010KT 15SM OVC090 01/M09 A2956 RMK AC8 VIRGA NW-NE SLP056

CYQF;2007-12-16 05:00;CYQF 160500Z 27010KT 15SM OVC090 00/M10 A2956 RMK AC8 SLP059

CYQF;2007-12-16 06:00;CYQF 160600Z 27005KT 15SM OVC090 M00/M09 A2958 RMK AC8 SLP063

CYQF;2007-12-16 07:00;CYQF 160700Z 22007KT 15SM OVC090 M02/M10 A2959 RMK AC8 SLP065

CYQF;2007-12-16 08:00;CYQF 160800Z 22006KT 15SM BKN090 M03/M11 A2961 RMK AC6 SLP070

CYQF;2007-12-16 09:00;CYQF 160900Z 22005KT 15SM BKN090 M04/M12 A2961 RMK AC5 SLP075

CYQF;2007-12-16 10:00;CYQF 161000Z 22006KT 15SM FEW090 M06/M14 A2963 RMK AC2 SLP080

CYQF;2007-12-16 11:00;CYQF 161100Z 17003KT 15SM FEW090 M07/M15 A2964 RMK AC2 SLP084

CYQF;2007-12-16 12:00;CYQF 161200Z 19005KT 15SM FEW090 M10/M16 A2965 RMK AC2 SLP094

CYQF;2007-12-16 13:00;CYQF 161300Z 18003KT 15SM SKC M10/M16 A2966 RMK SLP098

CYQF;2007-12-16 14:00;CYQF 161400Z 19005KT 15SM SKC M12/M18 A2966 RMK SLP100

CYQF;2007-12-16 15:00;CYQF 161500Z 23007KT 15SM FEW100 M11/M16 A2967 RMK AC1 SLP097

CYQF;2007-12-16 16:00;CYQF 161600Z 18005KT 15SM FEW100 M10/M16 A2968 RMK AC1 SLP100

CYQF;2007-12-16 17:00;CYQF 161700Z 22006KT 15SM FEW120 FEW250 M08/M15 A2968 RMK AC1CI0 SLP100

CYQF;2007-12-16 18:00;CYQF 161800Z 22006KT 15SM FEW120 FEW250 M06/M14 A2969 RMK AC1CI0 SLP098

CYQF;2007-12-16 19:00;CYQF 161900Z 19003KT 15SM FEW150 SCT220 M03/M12 A2967 RMK AC1CI2 SLP094

CYQF;2007-12-16 20:00;CYQF 162000Z 20004KT 15SM SCT150 M00/M11 A2966 RMK AC2 SLP091

CYQF;2007-12-16 21:00;CYQF 162100Z 18003KT 15SM FEW220 01/M09 A2964 RMK CI1 SLP078

CYQF;2007-12-16 22:00;CYQF 162200Z 18004KT 15SM FEW140 02/M09 A2962 RMK AC1 SLP071

CYQF;2007-12-16 23:00;CYQF 162300Z 18005KT 15SM FEW220 M01/M10 A2961 RMK CI1 SLP068

CYQF;2007-12-17 00:00;CYQF 170000Z 17005KT 15SM FEW220 M05/M12 A2960 RMK CI1 SLP077

CYQF;2007-12-17 01:00;CYQF 170100Z 17004KT 15SM FEW120 M06/M12 A2958 RMK AC1 SLP071

CYQF;2007-12-17 02:00;CYQF 170200Z 19005KT 15SM SKC M08/M13 A2957 RMK SLP068

CYQF;2007-12-17 03:00;CYQF 170300Z 18004KT 15SM FEW250 M08/M13 A2955 RMK CI2 SLP065

CYQF;2007-12-17 04:00;CYQF 170400Z 19004KT 15SM BKN250 M10/M14 A2953 RMK CI2 SLP058

CYQF;2007-12-17 05:00;CYQF 170500Z 18005KT 15SM BKN250 M09/M14 A2952 RMK CI4 SLP054

CYQF;2007-12-17 06:00;CYQF 170600Z 19007KT 15SM FEW100 BKN250 M11/M16 A2950 RMK AC1CI3 SLP044

CYQF;2007-12-17 07:00;CYQF 170700Z 18006KT 15SM FEW100 BKN250 M09/M14 A2948 RMK AC2CI2 SLP038

CYQF;2007-12-17 08:00;CYQF 170800Z 17005KT 15SM FEW100 M06/M12 A2946 RMK AC2 SLP031

CYQF;2007-12-17 09:00;CYQF 170900Z 17007KT 15SM SCT100 M06/M12 A2943 RMK AC2 SLP008

CYQF;2007-12-17 10:00;CYQF 171000Z 15005KT 15SM FEW100 BKN250 M03/M11 A2942 RMK AC2CI2 SLP004

CYQF;2007-12-17 11:00;CYQF 171100Z 18008KT 15SM FEW100 BKN250 M04/M11 A2940 RMK AC2CI2 SLP998

CYQF;2007-12-17 12:00;CYQF 171200Z 19008KT 15SM OVC100 M03/M10 A2937 RMK AC8 SLP990

CYQF;2007-12-17 13:00;CYQF 171300Z 18004KT 15SM OVC100 M04/M10 A2935 RMK AC8 SLP982

CYQF;2007-12-17 14:00;CYQF 171400Z 18003KT 15SM OVC100 M05/M10 A2935 RMK AC8 SLP982

CYQF;2007-12-17 15:00;CYQF 171500Z 14005KT 15SM OVC100 M05/M10 A2933 RMK AC8 SLP982

CYQF;2007-12-17 16:00;CYQF 171600Z 17003KT 15SM BKN100 M05/M10 A2933 RMK AC7 SLP981

CYQF;2007-12-17 17:00;CYQF 171700Z 17006KT 15SM BKN100 M03/M09 A2933 RMK AC7 SLP982

CYQF;2007-12-17 18:00;CYQF 171800Z 00000KT 15SM BKN100 BKN230 M03/M08 A2934 RMK AC6CI2 SLP986

CYQF;2007-12-17 19:00;CYQF 171900Z 18004KT 15SM BKN100 BKN230 M01/M07 A2934 RMK AC6CI2 SLP986

CYQF;2007-12-17 20:00;CYQF 172000Z 20005KT 15SM FEW100 BKN230 M00/M07 A2934 RMK AC2CI2 SLP986

CYQF;2007-12-17 21:00;CYQF 172100Z 24004KT 15SM FEW100 BKN230 01/M07 A2934 RMK AC1CI3 SLP977

CYQF;2007-12-17 22:00;CYQF 172200Z 21005KT 15SM FEW100 FEW230 01/M08 A2936 RMK AC1CI1 SLP981

CYQF;2007-12-17 23:00;CYQF 172300Z 23007KT 15SM FEW100 FEW230 M03/M09 A2938 RMK AC1CI1 SLP988

CYQF;2007-12-18 00:00;CYQF 180000Z 21005KT 15SM FEW100 FEW230 M05/M11 A2940 RMK AC1CI1 SLP999

CYQF;2007-12-18 01:00;CYQF 180100Z 00000KT 15SM FEW100 M08/M14 A2942 RMK AC1 SLP005

CYQF;2007-12-18 02:00;CYQF 180200Z 21003KT 15SM FEW100 FEW230 M08/M13 A2944 RMK AC1CI0 SLP011

CYQF;2007-12-18 03:00;CYQF 180300Z 23009KT 15SM FEW100 FEW230 M08/M14 A2946 RMK AC1CI0 SLP025

CYQF;2007-12-18 04:00;CYQF 180400Z 20006KT 15SM FEW100 M10/M15 A2948 RMK AC1 SLP032

CYQF;2007-12-18 05:00;CYQF 180500Z 23008KT 15SM FEW100 M14/M17 A2950 RMK AC1 SLP040

CYQF;2007-12-18 06:00;CYQF 180600Z 23006KT 15SM FEW100 M12/M16 A2953 RMK AC1 SLP052

CYQF;2007-12-18 07:00;CYQF 180700Z 02015G22KT 15SM FEW100 M12/M16 A2955 RMK AC1 SLP060

CYQF;2007-12-18 08:00;CYQF 180800Z 33002KT 15SM SKC M10/M15 A2960 RMK SLP075

CYQF;2007-12-18 09:00;CYQF 180900Z 20004KT 15SM SKC M12/M16 A2963 RMK SLP084

CYQF;2007-12-18 10:00;CYQF 181000Z 25003KT 15SM SKC M12/M15 A2965 RMK SLP090

CYQF;2007-12-18 11:00;CYQF 181100Z 21003KT 15SM SKC M14/M18 A2967 RMK SLP096

CYQF;2007-12-18 12:00;CYQF 181200Z 17004KT 15SM SKC M14/M17 A2967 RMK SLP105

CYQF;2007-12-18 13:00;CYQF 181300Z 20005KT 15SM SKC M14/M18 A2968 RMK SLP109

CYQF;2007-12-18 14:00;CYQF 181400Z 17005KT 15SM SKC M15/M18 A2969 RMK SLP112

CYQF;2007-12-18 15:00;CYQF 181500Z 00000KT 15SM BKN200 M15/M19 A2969 RMK CI3 SLP117

CYQF;2007-12-18 16:00;CYQF 181600Z 20005KT 15SM BKN140 M15/M19 A2967 RMK AC3 SLP113

CYQF;2007-12-18 17:00;CYQF 181700Z 17003KT 15SM BKN100 BKN200 M13/M17 A2965 RMK AC5CI1 SLP106

CYQF;2007-12-18 18:00;CYQF 181800Z 00000KT 15SM BKN100 BKN200 M10/M15 A2962 RMK AC6CI1 SLP094

CYQF;2007-12-18 19:00;CYQF 181900Z 14004KT 15SM SCT100 BKN220 M05/M11 A2959 RMK AC3CI2 SLP084

CYQF;2007-12-18 20:00;CYQF 182000Z 15010KT 15SM SCT120 BKN220 M04/M10 A2955 RMK AC3CI3 SLP072

CYQF;2007-12-18 21:00;CYQF 182100Z 16007KT 15SM FEW060 BKN120 BKN220 M05/M10 A2951 RMK SC2AC3CI2 SLP048

CYQF;2007-12-18 22:00;CYQF 182200Z 16013KT 15SM FEW060 BKN120 BKN220 M04/M10 A2947 RMK SC2AC3CI2 SLP038

CYQF;2007-12-18 23:00;CYQF 182300Z 16012KT 15SM BKN120 BKN220 M04/M10 A2944 RMK AC5CI1 SLP027

CYQF;2007-12-19 00:00;CYQF 190000Z 16015KT 15SM BKN150 M05/M11 A2941 RMK AC7 SLP015

CYQF;2007-12-19 01:00;CYQF 190100Z 16006KT 15SM OVC150 M05/M10 A2939 RMK AC8 SLP010

CYQF;2007-12-19 02:00;CYQF 190200Z 12005KT 15SM OVC150 M05/M09 A2935 RMK AC8 SLP998

CYQF;2007-12-19 03:00;CYQF 190300Z 17010G15KT 15SM OVC150 M03/M07 A2932 RMK AC8 SLP983

CYQF;2007-12-19 04:00;CYQF 190400Z 17008KT 15SM FEW150 M04/M07 A2928 RMK AC2 SLP972

CYQF;2007-12-19 05:00;CYQF 190500Z 00000KT 15SM OVC150 M04/M08 A2928 RMK AC8 SLP972

CYQF;2007-12-19 06:00;CYQF 190600Z 21004KT 15SM OVC150 M04/M07 A2927 RMK AC8 SLP962

CYQF;2007-12-19 07:00;CYQF 190700Z 25004KT 15SM FEW150 M06/M09 A2928 RMK AC2 SLP964

CYQF;2007-12-19 08:00;CYQF 190800Z 00000KT 15SM FEW150 M07/M10 A2929 RMK AC2 SLP969

CYQF;2007-12-19 09:00;CYQF 190900Z 20003KT 15SM FEW120 SCT230 M11/M14 A2931 RMK AC1CI1 SLP978

CYQF;2007-12-19 10:00;CYQF 191000Z 20002KT 15SM FEW230 M12/M14 A2931 RMK CI1 SLP979

CYQF;2007-12-19 11:00;CYQF 191100Z 24002KT 15SM SKC M12/M15 A2933 RMK SLP985

CYQF;2007-12-19 12:00;CYQF 191200Z 21004KT 15SM BKN230 M14/M16 A2934 RMK CI3 SLP991

CYQF;2007-12-19 13:00;CYQF 191300Z 14003KT 15SM SCT120 BKN230 M11/M13 A2936 RMK AC3CI2 SLP997

CYQF;2007-12-19 14:00;CYQF 191400Z 00000KT 15SM BKN120 M11/M14 A2936 RMK AC6 SLP997

CYQF;2007-12-19 15:00;CYQF 191500Z 00000KT 15SM BKN120 M10/M13 A2937 RMK AC7 SLP996

CYQF;2007-12-19 16:00;CYQF 191600Z 15003KT 15SM BKN120 M09/M12 A2938 RMK AC7 SLP999

CYQF;2007-12-19 17:00;CYQF 191700Z 00000KT 15SM BKN120 M09/M12 A2939 RMK AC6 SLP002

CYQF;2007-12-19 18:00;CYQF 191800Z 00000KT 15SM FEW080 BKN120 M06/M10 A2941 RMK AC2AC4 SLP005

CYQF;2007-12-19 19:00;CYQF 191900Z 00000KT 15SM FEW080 BKN120 M04/M09 A2941 RMK AC2AC4 SLP005

CYQF;2007-12-19 20:00;CYQF 192000Z CCA 36005KT 10SM BKN100 BKN250 M04/M10 A2941 RMK AC5CI1 HZ SLP006

CYQF;2007-12-19 21:00;CYQF 192100Z 03006KT 15SM BKN100 BKN250 M04/M10 A2940 RMK AC5CI2 SLP007

CYQF;2007-12-19 22:00;CYQF 192200Z 03006KT 15SM SCT100 BKN250 M04/M10 A2939 RMK AC3CI2 SLP006

CYQF;2007-12-19 23:00;CYQF 192300Z 04006KT 15SM FEW100 SCT250 M06/M11 A2940 RMK AC2CI1 SLP007

CYQF;2007-12-20 00:00;CYQF 200000Z 12002KT 15SM FEW100 BKN250 M08/M12 A2939 RMK AC2CI2 SLP013

CYQF;2007-12-20 01:00;CYQF 200100Z 17003KT 15SM FEW100 FEW250 M11/M15 A2939 RMK AC2CI1 SLP012

CYQF;2007-12-20 02:00;CYQF 200200Z 00000KT 15SM FEW100 FEW250 M12/M15 A2936 RMK AC2CI1 SLP003

CYQF;2007-12-20 03:00;CYQF 200300Z 21002KT 15SM FEW100 BKN250 M14/M17 A2935 RMK AC2CI2 SLP000

CYQF;2007-12-20 04:00;CYQF 200400Z 00000KT 15SM FEW100 BKN250 M12/M15 A2933 RMK AC2CI2 SLP996

CYQF;2007-12-20 05:00;CYQF 200500Z 20003KT 15SM FEW100 M16/M19 A2932 RMK AC2 SLP992

CYQF;2007-12-20 06:00;CYQF 200600Z 00000KT 15SM SKC M15/M18 A2931 RMK SLP986

CYQF;2007-12-20 07:00;CYQF 200700Z 00000KT 10SM SKC M16/M19 A2930 RMK BR SLP983

CYQF;2007-12-20 08:00;CYQF 200800Z 23008KT 12SM SKC M16/M18 A2929 RMK SLP978

CYQF;2007-12-20 09:00;CYQF 200900Z 18003KT 12SM SCT200 M15/M18 A2929 RMK CI2 SLP973

CYQF;2007-12-20 10:00;CYQF 201000Z 23008KT 15SM BKN200 M16/M20 A2929 RMK CI3 SLP974

CYQF;2007-12-20 11:00;CYQF 201100Z 21008KT 15SM SCT200 M11/M14 A2928 RMK CI2 SLP972

CYQF;2007-12-20 12:00;CYQF 201200Z 23005KT 15SM SKC M11/M15 A2928 RMK SLP971

CYQF;2007-12-20 13:00;CYQF 201300Z 19005KT 15SM SKC M13/M17 A2927 RMK SLP969

CYQF;2007-12-20 14:00;CYQF 201400Z 00000KT 15SM SKC M12/M15 A2928 RMK SLP971

CYQF;2007-12-20 15:00;CYQF 201500Z 00000KT 15SM SCT100 M14/M17 A2929 RMK AC1 SLP985

CYQF;2007-12-20 16:00;CYQF 201600Z 00000KT 15SM FEW100 FEW250 M14/M17 A2931 RMK AC1CI1 SLP991

CYQF;2007-12-20 17:00;CYQF 201700Z 20003KT 15SM FEW100 SCT250 M14/M16 A2932 RMK AC1CI2 TR AC SLP995

CYQF;2007-12-20 18:00;CYQF 201800Z CCA 21003KT 15SM FEW100 FEW250 M10/M14 A2934 RMK AC1CI1 AC TR SLP997

CYQF;2007-12-20 19:00;CYQF 201900Z 19004KT 15SM FEW100 FEW250 M06/M11 A2935 RMK AC1CI1 SLP000

CYQF;2007-12-20 20:00;CYQF 202000Z 00000KT 15SM FEW100 FEW250 M04/M10 A2936 RMK AC1CI1 SLP006

CYQF;2007-12-20 21:00;CYQF 202100Z 00000KT 15SM FEW100 BKN250 M01/M09 A2939 RMK AC1CI2 SLP005

CYQF;2007-12-20 22:00;CYQF 202200Z 00000KT 15SM FEW035 FEW250 M01/M09 A2941 RMK CF1CI1 SLP012

CYQF;2007-12-20 23:00;CYQF 202300Z 00000KT 15SM FEW150 FEW250 M04/M11 A2945 RMK AC1CI0 SLP023

CYQF;2007-12-21 00:00;CYQF 210000Z 34012KT 15SM FEW080 FEW150 SCT250 M06/M12 A2952 RMK AC1AC2CI0 VIRGA W SLP052

CYQF;2007-12-21 01:00;CYQF 210100Z 36015G24KT 5SM -SN OVC070 M05/M10 A2959 RMK AC8 SLP075

CYQF;2007-12-21 01:06;CYQF 210106Z 34015G21KT 1 1/2SM -SN OVC070 RMK SN6AC2

CYQF;2007-12-21 01:53;CYQF 210153Z 36012G20KT 10SM -SN VCBLSN FEW020 BKN070 RMK SC2AC4

CYQF;2007-12-21 02:00;CYQF 210200Z 35015G25KT 12SM -SN SCT020 BKN070 M06/M10 A2966 RMK SC3AC3 SLP095

CYQF;2007-12-21 03:00;CYQF 210300Z CCA 34008KT 15SM BKN048 BKN070 M06/M10 A2972 RMK SC6AC2 PRESRR SLP127

CYQF;2007-12-21 04:00;CYQF 210400Z 33012G18KT 15SM SCT050 OVC090 M07/M15 A2976 RMK SC3AC5 SLP137

CYQF;2007-12-21 05:00;CYQF 210500Z 34012KT 15SM FEW050 OVC100 M08/M15 A2980 RMK SC2AC6 SLP151

CYQF;2007-12-21 06:00;CYQF 210600Z 34009KT 15SM BKN100 M09/M16 A2984 RMK AC7 SLP167

CYQF;2007-12-21 07:00;CYQF 210700Z 33010KT 15SM BKN100 M10/M18 A2987 RMK AC6 SLP176

CYQF;2007-12-21 08:00;CYQF 210800Z 31008KT 15SM FEW100 M11/M18 A2989 RMK AC2 SLP183

CYQF;2007-12-21 09:00;CYQF 210900Z 31006KT 15SM SCT100 M13/M20 A2992 RMK AC3 SLP190

CYQF;2007-12-21 10:00;CYQF 211000Z 25005KT 15SM FEW100 FEW250 M14/M20 A2995 RMK AC1CI1 SLP198

CYQF;2007-12-21 11:00;CYQF 211100Z 20005KT 15SM SKC M16/M22 A2997 RMK SLP206

CYQF;2007-12-21 12:00;CYQF 211200Z 22006KT 15SM SKC M17/M23 A3000 RMK SLP226

CYQF;2007-12-21 13:00;CYQF 211300Z 23006KT 15SM SKC M18/M24 A3001 RMK SLP231

CYQF;2007-12-21 14:00;CYQF 211400Z 19003KT 15SM SKC M17/M23 A3003 RMK SLP237

CYQF;2007-12-21 15:00;CYQF 211500Z 22007KT 15SM FEW100 M19/M24 A3005 RMK AC1 SLP245

CYQF;2007-12-21 16:00;CYQF 211600Z 21005KT 15SM FEW100 M17/M23 A3007 RMK AC1 SLP253

CYQF;2007-12-21 17:00;CYQF 211700Z 23006KT 15SM FEW100 M15/M21 A3009 RMK AC1 SLP259

CYQF;2007-12-21 18:00;CYQF 211800Z 22006KT 15SM FEW100 M13/M20 A3010 RMK AC1 SLP259

CYQF;2007-12-21 19:00;CYQF 211900Z 23006KT 15SM FEW100 M11/M18 A3010 RMK AC1 SLP261

CYQF;2007-12-21 20:00;CYQF 212000Z 27007KT 15SM SKC M09/M18 A3010 RMK SLP259

CYQF;2007-12-21 21:00;CYQF 212100Z 31006KT 15SM SKC M09/M18 A3010 RMK SLP258

CYQF;2007-12-21 22:00;CYQF 212200Z 27005KT 15SM SKC M09/M17 A3011 RMK SLP261

CYQF;2007-12-21 23:00;CYQF 212300Z 24003KT 15SM FEW250 M11/M18 A3012 RMK CI0 SLP265

CYQF;2007-12-22 00:00;CYQF 220000Z 23005KT 15SM FEW250 M15/M20 A3013 RMK CI0 SLP281

CYQF;2007-12-22 01:00;CYQF 220100Z 24005KT 15SM SKC M14/M19 A3014 RMK SLP284

CYQF;2007-12-22 02:00;CYQF 220200Z 20002KT 15SM SKC M18/M22 A3015 RMK SLP287

CYQF;2007-12-22 03:00;CYQF 220300Z 19005KT 15SM SKC M18/M21 A3014 RMK SLP291

CYQF;2007-12-22 04:00;CYQF 220400Z CCB 20007KT 15SM SKC M19/M24 A3014 RMK SLP291

CYQF;2007-12-22 05:00;CYQF 220500Z 21006KT 15SM SKC M20/M24 A3013 RMK SLP288

CYQF;2007-12-22 06:00;CYQF 220600Z 21006KT 15SM SKC M18/M23 A3013 RMK SLP281

CYQF;2007-12-22 07:00;CYQF 220700Z 20003KT 15SM SKC M19/M23 A3013 RMK SLP282

CYQF;2007-12-22 08:00;CYQF 220800Z 21004KT 15SM SKC M22/M26 A3013 RMK SLP280

CYQF;2007-12-22 09:00;CYQF 220900Z 21002KT 15SM FEW250 M21/M26 A3011 RMK CI0 SLP272

CYQF;2007-12-22 10:00;CYQF 221000Z 21004KT 15SM SCT250 M21/M26 A3010 RMK CI0 SLP270

CYQF;2007-12-22 11:00;CYQF 221100Z 16003KT 15SM SCT250 M19/M24 A3008 RMK CI0 SLP262

CYQF;2007-12-22 12:00;CYQF 221200Z 00000KT 15SM SCT250 M19/M24 A3005 RMK CI0 SLP256

CYQF;2007-12-22 13:00;CYQF 221300Z 17007KT 15SM SCT250 M16/M22 A3003 RMK CI0 SLP250

CYQF;2007-12-22 14:00;CYQF 221400Z 15010KT 15SM FEW150 SCT250 M14/M21 A3000 RMK AC2CI1 SLP240

CYQF;2007-12-22 15:00;CYQF 221500Z 15010KT 15SM BKN150 M12/M20 A2995 RMK AC5 SLP217

CYQF;2007-12-22 16:00;CYQF 221600Z 15010G15KT 15SM BKN150 M11/M19 A2994 RMK AC6 SLP212

CYQF;2007-12-22 17:00;CYQF 221700Z 17015G20KT 15SM BKN100 BKN250 M10/M19 A2992 RMK AC6CI1 SLP205

CYQF;2007-12-22 18:00;CYQF 221800Z 15013G20KT 15SM BKN100 BKN250 M10/M18 A2988 RMK AC6CI2 VIRGA SLP192

CYQF;2007-12-22 19:00;CYQF 221900Z 17012G18KT 15SM BKN090 BKN250 M09/M18 A2985 RMK AC6CI2 VIRGA SLP183

CYQF;2007-12-22 20:00;CYQF 222000Z 17010KT 15SM BKN090 BKN250 M09/M17 A2982 RMK AC6CI2 SLP171

CYQF;2007-12-22 21:00;CYQF 222100Z 17015G20KT 15SM BKN090 BKN250 M08/M16 A2977 RMK AC6CI1 SLP154

CYQF;2007-12-22 22:00;CYQF 222200Z 17013KT 15SM FEW030 BKN090 BKN250 M08/M15 A2975 RMK CU1AC5CI1 SLP146

CYQF;2007-12-22 23:00;CYQF 222300Z 18008KT 15SM FEW030 BKN090 BKN250 M08/M14 A2972 RMK CU1AC4CI1 SLP139

CYQF;2007-12-23 00:00;CYQF 230000Z 18008KT 15SM SCT090 BKN250 M08/M13 A2969 RMK AC2CI2 SLP124

CYQF;2007-12-23 01:00;CYQF 230100Z 18006KT 15SM BKN090 OVC250 M08/M13 A2966 RMK AC6CI2 SLP115

CYQF;2007-12-23 02:00;CYQF 230200Z 18005KT 15SM OVC090 M08/M13 A2967 RMK AC7 SLP116

CYQF;2007-12-23 03:00;CYQF 230300Z 20006KT 15SM OVC090 M09/M13 A2967 RMK AC7 SLP108

CYQF;2007-12-23 04:00;CYQF 230400Z 22004KT 15SM OVC090 M09/M13 A2970 RMK AC8 SLP117

CYQF;2007-12-23 05:00;CYQF 230500Z 00000KT 15SM OVC070 M08/M12 A2973 RMK AC8 SLP127

CYQF;2007-12-23 05:28;CYQF 230528Z 32007KT 10SM -SN OVC070 RMK AC8

CYQF;2007-12-23 05:48;CYQF 230548Z 30006KT 15SM OVC070 RMK AC8

CYQF;2007-12-23 06:00;CYQF 230600Z 31006KT 15SM OVC070 M02/M09 A2976 RMK AC8 SLP131

CYQF;2007-12-23 07:00;CYQF 230700Z 00000KT 15SM SCT070 BKN100 OVC200 M02/M09 A2978 RMK AC3AC4CI1 SLP135

CYQF;2007-12-23 08:00;CYQF 230800Z 19004KT 15SM FEW070 BKN100 OVC200 M04/M09 A2979 RMK AC2AC5CI2 SLP138

CYQF;2007-12-23 09:00;CYQF 230900Z 22005KT 15SM BKN100 BKN200 M06/M11 A2981 RMK AC5CI2 SLP150

CYQF;2007-12-23 10:00;CYQF 231000Z 19004KT 15SM FEW100 FEW200 M10/M13 A2985 RMK AC1CI0 SLP164

CYQF;2007-12-23 11:00;CYQF 231100Z 20006KT 15SM SKC M12/M15 A2987 RMK SLP170

CYQF;2007-12-23 12:00;CYQF 231200Z 20008KT 15SM FEW200 M14/M17 A2989 RMK CI1 SLP188

CYQF;2007-12-23 13:00;CYQF 231300Z 18004KT 15SM FEW200 M13/M16 A2990 RMK CI1 SLP190

CYQF;2007-12-23 14:00;CYQF 231400Z 19007KT 15SM FEW200 M14/M17 A2990 RMK CI1 SLP190

CYQF;2007-12-23 15:00;CYQF 231500Z 18003KT 15SM FEW200 M12/M17 A2991 RMK CI0 SLP192

CYQF;2007-12-23 16:00;CYQF 231600Z 20007KT 15SM BKN200 M14/M18 A2989 RMK CI0 SLP186

CYQF;2007-12-23 17:00;CYQF 231700Z 19007KT 15SM FEW100 BKN250 M09/M15 A2990 RMK AC2CI1 SLP190

CYQF;2007-12-23 18:00;CYQF 231800Z 18006KT 15SM FEW100 OVC250 M07/M13 A2987 RMK AC2CI4 SLP164

CYQF;2007-12-23 19:00;CYQF 231900Z 18005KT 15SM BKN150 OVC250 M02/M10 A2982 RMK AC6CI2 SLP150

CYQF;2007-12-23 20:00;CYQF 232000Z 15007KT 15SM FEW100 BKN150 OVC250 M01/M09 A2974 RMK AC1AC6CI2 PRESFR SLP124

CYQF;2007-12-23 21:00;CYQF 232100Z 19003KT 15SM BKN100 OVC250 M00/M08 A2977 RMK AC6CI2 SLP126

CYQF;2007-12-23 22:00;CYQF 232200Z 15010KT 15SM BKN090 OVC250 M01/M08 A2971 RMK AC6CI2 SLP108

CYQF;2007-12-23 23:00;CYQF 232300Z 15005KT 15SM OVC090 M01/M07 A2966 RMK AC8 SLP091

CYQF;2007-12-24 00:00;CYQF 240000Z 18005KT 15SM BKN090 BKN250 01/M07 A2964 RMK AC6CI1 SLP088

CYQF;2007-12-24 01:00;CYQF 240100Z 17010KT 15SM OVC090 00/M07 A2958 RMK AC8 SLP071

CYQF;2007-12-24 02:00;CYQF 240200Z 18010KT 15SM OVC090 M01/M07 A2958 RMK AC8 SLP070

CYQF;2007-12-24 03:00;CYQF 240300Z 22006KT 15SM BKN090 OVC250 M02/M07 A2958 RMK AC3CI2 SLP072

CYQF;2007-12-24 04:00;CYQF 240400Z 20004KT 15SM BKN090 OVC250 M03/M08 A2957 RMK AC3CI2 SLP068

CYQF;2007-12-24 05:00;CYQF 240500Z 24005KT 15SM OVC100 M04/M09 A2956 RMK AC7 SLP066

CYQF;2007-12-24 06:00;CYQF 240600Z 24006KT 15SM OVC100 M03/M09 A2957 RMK AC8 SLP062

CYQF;2007-12-24 07:00;CYQF 240700Z 25005KT 15SM OVC100 M03/M09 A2957 RMK AC7 SLP063

CYQF;2007-12-24 08:00;CYQF 240800Z 00000KT 15SM BKN100 M02/M09 A2957 RMK AC6 SLP062

CYQF;2007-12-24 09:00;CYQF 240900Z 24003KT 15SM BKN100 M06/M10 A2958 RMK AC5 SLP061

CYQF;2007-12-24 10:00;CYQF 241000Z 22003KT 15SM BKN100 M07/M11 A2959 RMK AC6 SLP065

CYQF;2007-12-24 11:00;CYQF 241100Z 33004KT 15SM SCT100 M06/M11 A2960 RMK AC2 SLP067

CYQF;2007-12-24 12:00;CYQF 241200Z 24006KT 15SM BKN100 M06/M11 A2959 RMK AC5 SLP063

CYQF;2007-12-24 13:00;CYQF 241300Z 24003KT 15SM SCT100 M07/M12 A2962 RMK AC3 SLP071

CYQF;2007-12-24 14:00;CYQF 241400Z 19006KT 15SM FEW100 M10/M14 A2963 RMK AC2 SLP076

CYQF;2007-12-24 15:00;CYQF 241500Z 18005KT 15SM SCT100 M11/M14 A2965 RMK AC3 SLP091

CYQF;2007-12-24 16:00;CYQF 241600Z 19005KT 15SM BKN100 BKN250 M11/M15 A2966 RMK AC4CI0 VIRGA SLP097

CYQF;2007-12-24 17:00;CYQF 241700Z 23007KT 15SM FEW080 SCT220 M10/M14 A2969 RMK AC2CI1 VIRGA SLP105

CYQF;2007-12-24 18:00;CYQF 241800Z 25006KT 15SM FEW080 BKN220 M04/M11 A2969 RMK AC2CI1 VIRGA SLP102

CYQF;2007-12-24 19:00;CYQF 241900Z 23006KT 15SM FEW080 BKN220 M03/M10 A2970 RMK AC2CI2 VIRGA SLP103

CYQF;2007-12-24 20:00;CYQF 242000Z 00000KT 15SM BKN090 BKN220 00/M09 A2970 RMK AC5CI1 VIRGA SLP105

CYQF;2007-12-24 21:00;CYQF 242100Z 00000KT 15SM SCT090 BKN220 01/M08 A2971 RMK AC2CI2 SLP104

CYQF;2007-12-24 22:00;CYQF 242200Z 26004KT 15SM BKN090 BKN220 01/M09 A2973 RMK AC6CI1 SLP110

CYQF;2007-12-24 23:00;CYQF 242300Z 29004KT 15SM BKN090 M01/M08 A2976 RMK AC6 SLP121

CYQF;2007-12-25 00:00;CYQF 250000Z 30004KT 15SM BKN090 M01/M09 A2979 RMK AC7 SLP135

CYQF;2007-12-25 01:00;CYQF 250100Z 28004KT 15SM OVC090 M00/M09 A2982 RMK AC8 SLP143

CYQF;2007-12-25 02:00;CYQF 250200Z 28006KT 15SM FEW040 OVC090 01/M10 A2984 RMK SC1AC7 SLP150

CYQF;2007-12-25 03:00;CYQF 250300Z 28008KT 15SM OVC090 M00/M10 A2987 RMK AC8 SLP166

CYQF;2007-12-25 04:00;CYQF 250400Z 29005KT 15SM OVC090 M01/M10 A2989 RMK AC6 SLP172

CYQF;2007-12-25 05:00;CYQF 250500Z 27007KT 15SM OVC090 M02/M10 A2990 RMK AC6 SLP177

CYQF;2007-12-25 06:00;CYQF 250600Z 29010KT 15SM OVC090 M01/M11 A2993 RMK AC6 SLP183

CYQF;2007-12-25 07:00;CYQF 250700Z 30006KT 15SM OVC090 M02/M10 A2996 RMK AC7 SLP192

CYQF;2007-12-25 08:00;CYQF 250800Z 29004KT 15SM BKN090 M02/M09 A2998 RMK AC7 SLP199

CYQF;2007-12-25 09:00;CYQF 250900Z 25002KT 15SM BKN090 M05/M11 A3000 RMK AC6 SLP204

CYQF;2007-12-25 10:00;CYQF 251000Z 30005KT 15SM BKN090 M05/M11 A3002 RMK AC6 SLP210

CYQF;2007-12-25 11:00;CYQF 251100Z 29003KT 15SM FEW050 BKN090 M04/M10 A3003 RMK SC2AC5 SLP214

CYQF;2007-12-25 12:00;CYQF 251200Z 26003KT 15SM SCT040 BKN090 M05/M10 A3003 RMK SC4AC3 SLP218

CYQF;2007-12-25 13:00;CYQF 251300Z 21003KT 15SM FEW040 BKN090 M04/M10 A3003 RMK SC2AC5 SLP217

CYQF;2007-12-25 14:00;CYQF 251400Z 19003KT 15SM FEW040 OVC090 M05/M10 A3003 RMK SC2AC6 SLP216

CYQF;2007-12-25 15:00;CYQF 251500Z 20003KT 15SM BKN090 M05/M09 A3000 RMK AC7 SLP206

CYQF;2007-12-25 16:00;CYQF 251600Z 19004KT 15SM SCT090 BKN240 M07/M11 A3000 RMK AC2CI1 SLP204

CYQF;2007-12-25 17:00;CYQF 251700Z 19005KT 15SM FEW090 FEW240 M08/M12 A3000 RMK AC1CI1 SLP205

CYQF;2007-12-25 18:00;CYQF 251800Z 18004KT 15SM FEW090 FEW240 M04/M10 A2998 RMK AC1CI1 SLP198

CYQF;2007-12-25 19:00;CYQF 251900Z 16005KT 15SM SCT240 M01/M09 A2993 RMK CI0 SLP184

CYQF;2007-12-25 20:00;CYQF 252000Z 16003KT 15SM BKN250 00/M08 A2990 RMK CI1 SLP174

CYQF;2007-12-25 21:00;CYQF 252100Z 16004KT 15SM BKN250 M01/M10 A2986 RMK CI2 SLP160

CYQF;2007-12-25 22:00;CYQF 252200Z 15003KT 15SM FEW100 BKN250 M02/M10 A2985 RMK AC1CI2 SLP154

CYQF;2007-12-25 23:00;CYQF 252300Z 17003KT 15SM FEW100 BKN250 M04/M10 A2983 RMK AC2CI2 SLP150

CYQF;2007-12-26 00:00;CYQF 260000Z 14002KT 15SM SCT100 OVC250 M04/M10 A2982 RMK AC2CI2 SLP147

CYQF;2007-12-26 01:00;CYQF 260100Z 18005KT 15SM SCT100 BKN250 M06/M12 A2980 RMK AC2CI2 SLP141

CYQF;2007-12-26 02:00;CYQF 260200Z 00000KT 15SM BKN120 OVC240 M07/M12 A2977 RMK AC5CI1 SLP133

CYQF;2007-12-26 03:00;CYQF 260300Z 00000KT 15SM BKN120 OVC240 M08/M12 A2974 RMK AC5CI2 SLP124

CYQF;2007-12-26 04:00;CYQF 260400Z 19002KT 15SM FEW120 BKN240 M08/M12 A2972 RMK AC2CI2 SLP118

CYQF;2007-12-26 05:00;CYQF 260500Z 00000KT 15SM FEW120 BKN240 M11/M15 A2971 RMK AC2CI1 SLP114

CYQF;2007-12-26 06:00;CYQF 260600Z 18002KT 15SM FEW120 BKN240 M10/M14 A2969 RMK AC2CI1 SLP108

CYQF;2007-12-26 07:00;CYQF 260700Z 14003KT 15SM FEW100 BKN250 M10/M13 A2967 RMK AC2CI2 SLP102

CYQF;2007-12-26 08:00;CYQF 260800Z 00000KT 15SM FEW100 BKN250 M10/M14 A2966 RMK AC2CI1 SLP098

CYQF;2007-12-26 09:00;CYQF 260900Z 00000KT 15SM SCT100 BKN250 M13/M16 A2966 RMK AC3CI0 SLP096

CYQF;2007-12-26 10:00;CYQF 261000Z 03003KT 15SM SCT100 BKN250 M12/M15 A2965 RMK AC3CI0 SLP095

CYQF;2007-12-26 11:00;CYQF 261100Z 00000KT 15SM FEW100 BKN250 M14/M16 A2964 RMK AC1CI2 SLP092

CYQF;2007-12-26 12:00;CYQF 261200Z 27003KT 15SM FEW100 BKN250 M14/M17 A2964 RMK AC2CI3 SLP095

CYQF;2007-12-26 13:00;CYQF 261300Z 00000KT 15SM SCT100 BKN250 M11/M15 A2965 RMK AC3CI3 SLP098

CYQF;2007-12-26 14:00;CYQF 261400Z 00000KT 15SM SCT100 OVC250 M11/M14 A2966 RMK AC3CI4 SLP100

CYQF;2007-12-26 15:00;CYQF 261500Z 29005KT 15SM BKN100 OVC250 M11/M14 A2966 RMK AC6CI2 SLP104

CYQF;2007-12-26 16:00;CYQF 261600Z 00000KT 15SM BKN100 OVC250 M10/M13 A2968 RMK AC4CI2 SLP110

CYQF;2007-12-26 17:00;CYQF 261700Z 30004KT 15SM SCT100 OVC250 M09/M13 A2970 RMK AC3CI2 SLP116

CYQF;2007-12-26 18:00;CYQF 261800Z 30002KT 15SM BKN100 OVC250 M07/M11 A2972 RMK AC5CI2 SLP120

CYQF;2007-12-26 19:00;CYQF 261900Z 31012KT 15SM BKN100 OVC250 M03/M08 A2971 RMK AC5CI2 SLP117

CYQF;2007-12-26 20:00;CYQF 262000Z 33010G15KT 15SM FEW040 SCT100 OVC250 M02/M10 A2971 RMK SC1AC2CI2 SLP117

CYQF;2007-12-26 21:00;CYQF 262100Z 32010KT 15SM FEW040 SCT100 OVC250 M03/M09 A2972 RMK SC1AC2CI1 SLP120

CYQF;2007-12-26 22:00;CYQF 262200Z 32010G15KT 15SM FEW040 BKN100 OVC250 M02/M07 A2973 RMK SC2AC3CI2 SLP124

CYQF;2007-12-26 22:15;CYQF 262215Z 31010G15KT 4SM -SN SCT040 OVC100 RMK SN2SC2AC4

CYQF;2007-12-26 23:00;CYQF 262300Z 33008KT 6SM -SN BKN035 OVC100 M03/M06 A2976 RMK SC5AC3 SLP132

CYQF;2007-12-27 00:00;CYQF 270000Z 32010KT 4SM -SN OVC030 M03/M06 A2976 RMK SN2SC6 SLP138

CYQF;2007-12-27 00:46;CYQF 270046Z 30008KT 1SM -SN VV014 RMK SN8

CYQF;2007-12-27 01:00;CYQF 270100Z 31008KT 2SM -SN VV015 M03/M06 A2977 RMK SN8 SLP141

CYQF;2007-12-27 02:00;CYQF 270200Z 32011KT 5SM -SN OVC070 M04/M06 A2978 RMK AC8 SLP142

CYQF;2007-12-27 02:37;CYQF 270237Z 31010KT 2SM -SN OVC025 RMK SN5SC3

CYQF;2007-12-27 02:52;CYQF 270252Z 33010KT 5SM -SN OVC025 RMK SC8

CYQF;2007-12-27 03:00;CYQF 270300Z 31008KT 5SM -SN OVC025 M04/M07 A2979 RMK SC8 SLP143

CYQF;2007-12-27 04:00;CYQF 270400Z 33012KT 5SM -SN OVC032 M04/M07 A2980 RMK SC8 SLP145

CYQF;2007-12-27 05:00;CYQF 270500Z 32015KT 3SM -SN OVC020 M04/M07 A2980 RMK SC8 /S01/ SLP147

CYQF;2007-12-27 06:00;CYQF 270600Z 32011KT 3SM -SN SCT020 OVC070 M04/M07 A2981 RMK SC3AC5 SLP146

CYQF;2007-12-27 07:00;CYQF 270700Z 32010KT 10SM -SN OVC070 M04/M07 A2982 RMK AC8 SLP149

CYQF;2007-12-27 08:00;CYQF 270800Z 30008KT 10SM -SN OVC070 M04/M08 A2982 RMK AC7 SLP149

CYQF;2007-12-27 09:00;CYQF 270900Z 31012KT 10SM -SN OVC070 M04/M08 A2982 RMK AC7 SLP146

CYQF;2007-12-27 10:00;CYQF 271000Z 31008KT 10SM -SN OVC070 M04/M09 A2984 RMK AC8 SLP150

CYQF;2007-12-27 11:00;CYQF 271100Z 32008KT 10SM -SN OVC070 M04/M09 A2984 RMK AC8 SLP150

CYQF;2007-12-27 12:00;CYQF 271200Z 31006KT 5SM -SN OVC070 M05/M08 A2983 RMK AC8 SLP148

CYQF;2007-12-27 13:00;CYQF 271300Z 33006KT 10SM -SN OVC070 M05/M09 A2982 RMK AC8 SLP146

CYQF;2007-12-27 14:00;CYQF 271400Z 32010KT 10SM -SN OVC070 M05/M09 A2981 RMK AC8 SLP143

CYQF;2007-12-27 15:00;CYQF 271500Z 31005KT 4SM -SN SCT030 OVC070 M05/M09 A2981 RMK SN2SC2AC5 SLP143

CYQF;2007-12-27 16:00;CYQF 271600Z 30005KT 5SM -SN FEW030 OVC080 M06/M09 A2980 RMK SC2AC5 /S01/ SLP141

CYQF;2007-12-27 17:00;CYQF 271700Z 23004KT 8SM -SN FEW030 BKN080 M06/M09 A2981 RMK SC2AC5 SLP143

CYQF;2007-12-27 18:00;CYQF 271800Z 29005KT 10SM -SN FEW030 BKN100 M06/M10 A2979 RMK SC2AC4 SLP139

CYQF;2007-12-27 19:00;CYQF 271900Z 30006KT 15SM FEW030 BKN100 M05/M11 A2978 RMK SC2AC4 SLP136

CYQF;2007-12-27 20:00;CYQF 272000Z 31005KT 15SM FEW040 BKN100 M05/M11 A2976 RMK SC1AC3 SLP130

CYQF;2007-12-27 21:00;CYQF 272100Z 29005KT 15SM SCT100 M05/M11 A2975 RMK AC2 SLP124

CYQF;2007-12-27 22:00;CYQF 272200Z 29005KT 15SM BKN100 M04/M11 A2975 RMK AC4 SLP122

CYQF;2007-12-27 23:00;CYQF 272300Z 27003KT 15SM BKN100 M05/M11 A2975 RMK AC4 SLP122

CYQF;2007-12-28 00:00;CYQF 280000Z 00000KT 15SM BKN100 M08/M13 A2974 RMK AC5 SLP125

CYQF;2007-12-28 01:00;CYQF 280100Z 00000KT 15SM BKN100 M10/M14 A2973 RMK AC6 SLP121

CYQF;2007-12-28 02:00;CYQF 280200Z 22002KT 15SM FEW100 M12/M16 A2971 RMK AC2 SLP115

CYQF;2007-12-28 03:00;CYQF 280300Z 19005KT 15SM SKC M16/M19 A2970 RMK SLP119

CYQF;2007-12-28 04:00;CYQF 280400Z 18005KT 15SM SKC M18/M21 A2968 RMK SLP114

CYQF;2007-12-28 05:00;CYQF 280500Z 20005KT 15SM SKC M18/M22 A2967 RMK SLP110

CYQF;2007-12-28 06:00;CYQF 280600Z 21004KT 15SM SKC M18/M22 A2966 RMK SLP110

CYQF;2007-12-28 07:00;CYQF 280700Z 19003KT 15SM SKC M20/M24 A2965 RMK SLP106

CYQF;2007-12-28 08:00;CYQF 280800Z 00000KT 15SM SKC M19/M23 A2962 RMK SLP098

CYQF;2007-12-28 09:00;CYQF 280900Z 00000KT 15SM FEW015 M19/M23 A2962 RMK SC2 SLP094

CYQF;2007-12-28 10:00;CYQF 281000Z 00000KT 15SM FEW200 M21/M25 A2961 RMK CI0 SLP091

CYQF;2007-12-28 10:41;CYQF 281041Z 00000KT 2SM BR SKC

CYQF;2007-12-28 11:00;CYQF 281100Z 00000KT 5SM BR SKC M19/M23 A2960 RMK SLP088

CYQF;2007-12-28 12:00;CYQF 281200Z 00000KT 10SM FEW001 M22/M27 A2959 RMK SF0 SLP092

CYQF;2007-12-28 13:00;CYQF 281300Z 00000KT 10SM FEW001 M21/M25 A2958 RMK SF1 SLP089

CYQF;2007-12-28 14:00;CYQF 281400Z 00000KT 10SM FEW001 M22/M27 A2957 RMK SF1 SLP087

CYQF;2007-12-28 15:00;CYQF 281500Z 17002KT 15SM SCT250 M22/M26 A2957 RMK CI2 SLP094

CYQF;2007-12-28 16:00;CYQF 281600Z 18003KT 15SM FEW120 SCT250 M23/M28 A2956 RMK AC1CI2 SLP092

CYQF;2007-12-28 17:00;CYQF 281700Z 21002KT 15SM FEW120 BKN250 M22/M26 A2957 RMK AC2CI2 SLP095

CYQF;2007-12-28 18:00;CYQF 281800Z 00000KT 15SM FEW120 OVC250 M18/M22 A2957 RMK AC2CI2 SLP094

CYQF;2007-12-28 19:00;CYQF 281900Z 00000KT 15SM FEW080 FEW120 BKN250 M16/M19 A2956 RMK AC1AC2CI2 SLP091

CYQF;2007-12-28 20:00;CYQF 282000Z 00000KT 15SM FEW080 FEW120 BKN250 M15/M18 A2954 RMK AC1AC2CI1 SLP084

CYQF;2007-12-28 21:00;CYQF 282100Z 00000KT 15SM FEW100 BKN250 M14/M18 A2953 RMK AC1CI3 SLP075

CYQF;2007-12-28 22:00;CYQF 282200Z 00000KT 15SM FEW100 BKN250 M13/M18 A2953 RMK AC2CI2 SLP075

CYQF;2007-12-28 23:00;CYQF 282300Z 00000KT 15SM FEW100 SCT250 M16/M20 A2954 RMK AC2CI1 SLP076

CYQF;2007-12-29 00:00;CYQF 290000Z 00000KT 15SM FEW100 BKN250 M15/M20 A2954 RMK AC2CI2 SLP083

CYQF;2007-12-29 01:00;CYQF 290100Z 14003KT 15SM SCT100 BKN250 M15/M20 A2953 RMK AC3CI2 SLP080

CYQF;2007-12-29 02:00;CYQF 290200Z 00000KT 15SM SCT050 OVC100 M14/M19 A2954 RMK SC3AC5 SLP082

CYQF;2007-12-29 03:00;CYQF 290300Z 35004KT 15SM FEW050 FEW100 SCT250 M15/M20 A2954 RMK SC1AC1CI1 SLP082

CYQF;2007-12-29 04:00;CYQF 290400Z 00000KT 15SM FEW050 FEW100 SCT250 M16/M21 A2954 RMK SC2AC1CI1 SLP081

CYQF;2007-12-29 05:00;CYQF 290500Z 00000KT 15SM FEW080 FEW250 M17/M22 A2953 RMK AC1CI1 SLP080

CYQF;2007-12-29 06:00;CYQF 290600Z 00000KT 15SM FEW080 FEW250 M18/M23 A2953 RMK AC1CI1 SLP078

CYQF;2007-12-29 07:00;CYQF 290700Z 20002KT 15SM FEW080 FEW250 M19/M24 A2954 RMK AC1CI1 SLP081

CYQF;2007-12-29 08:00;CYQF 290800Z 21005KT 15SM FEW080 SCT250 M20/M25 A2953 RMK AC2CI2 SLP079

CYQF;2007-12-29 09:00;CYQF 290900Z 24002KT 15SM FEW080 FEW250 M21/M25 A2954 RMK AC1CI1 SLP078

CYQF;2007-12-29 10:00;CYQF 291000Z 21004KT 15SM FEW080 FEW250 M22/M26 A2955 RMK AC1CI1 SLP083

CYQF;2007-12-29 11:00;CYQF 291100Z 20005KT 15SM FEW080 SCT250 M22/M27 A2954 RMK AC2CI1 SLP080

CYQF;2007-12-29 12:00;CYQF 291200Z 20004KT 15SM FEW080 FEW250 M22/M27 A2954 RMK AC2CI0 SLP083

CYQF;2007-12-29 13:00;CYQF 291300Z 19004KT 15SM FEW080 FEW250 M22/M27 A2954 RMK AC2CI0 SLP082

CYQF;2007-12-29 14:00;CYQF 291400Z 19003KT 15SM FEW080 SCT250 M21/M25 A2953 RMK AC2CI0 SLP080

CYQF;2007-12-29 15:00;CYQF 291500Z 18005KT 15SM FEW090 M21/M25 A2953 RMK AC2 SLP079

CYQF;2007-12-29 16:00;CYQF 291600Z 23003KT 15SM BKN100 M22/M26 A2954 RMK AC2 SLP081

CYQF;2007-12-29 17:00;CYQF 291700Z 00000KT 15SM FEW100 M20/M25 A2956 RMK AC2 SLP087

CYQF;2007-12-29 18:00;CYQF 291800Z 18005KT 15SM BKN100 BKN250 M16/M21 A2956 RMK AC5CI1 SLP085

CYQF;2007-12-29 19:00;CYQF 291900Z 23005KT 15SM BKN100 M12/M18 A2955 RMK AC7 SLP084

CYQF;2007-12-29 20:00;CYQF 292000Z 21003KT 15SM BKN075 M10/M16 A2956 RMK AC7 SLP085

CYQF;2007-12-29 21:00;CYQF 292100Z 21003KT 15SM BKN080 M09/M14 A2954 RMK AC6 SLP074

CYQF;2007-12-29 22:00;CYQF 292200Z 20003KT 15SM FEW080 M07/M13 A2954 RMK AC2 SLP072

CYQF;2007-12-29 23:00;CYQF 292300Z 00000KT 15SM FEW100 M08/M14 A2954 RMK AC2 SLP074

CYQF;2007-12-30 00:00;CYQF 300000Z 18002KT 15SM FEW100 M12/M16 A2955 RMK AC2 SLP080

CYQF;2007-12-30 01:00;CYQF 300100Z 18005KT 15SM FEW100 M13/M17 A2954 RMK AC2 SLP078

CYQF;2007-12-30 02:00;CYQF 300200Z 18004KT 15SM FEW100 M16/M20 A2953 RMK AC2 SLP076

CYQF;2007-12-30 03:00;CYQF 300300Z 19004KT 15SM FEW100 M16/M21 A2952 RMK AC2 SLP074

CYQF;2007-12-30 04:00;CYQF 300400Z 20006KT 15SM FEW100 M17/M22 A2951 RMK AC2 SLP071

CYQF;2007-12-30 05:00;CYQF 300500Z 19004KT 15SM FEW100 M17/M21 A2950 RMK AC1 SLP068

CYQF;2007-12-30 06:00;CYQF 300600Z 19004KT 15SM FEW100 M19/M23 A2949 RMK AC1 SLP063

CYQF;2007-12-30 07:00;CYQF 300700Z 21005KT 15SM FEW100 M19/M23 A2949 RMK AC2 SLP062

CYQF;2007-12-30 08:00;CYQF 300800Z 15004KT 15SM FEW100 M18/M22 A2949 RMK AC2 SLP061

CYQF;2007-12-30 09:00;CYQF 300900Z 25005KT 15SM FEW090 M17/M22 A2949 RMK AC2 SLP052

CYQF;2007-12-30 10:00;CYQF 301000Z 23003KT 15SM FEW090 M16/M22 A2949 RMK AC2 SLP053

CYQF;2007-12-30 11:00;CYQF 301100Z 20002KT 15SM FEW090 M18/M24 A2949 RMK AC2 SLP053

CYQF;2007-12-30 12:00;CYQF 301200Z CCA 17002KT 15SM SKC M19/M24 A2950 RMK SLP063

CYQF;2007-12-30 13:00;CYQF 301300Z 26004KT 15SM FEW090 M21/M25 A2952 RMK AC2 SLP067

CYQF;2007-12-30 14:00;CYQF 301400Z 22004KT 15SM FEW090 M22/M26 A2953 RMK AC2 SLP072

CYQF;2007-12-30 15:00;CYQF 301500Z 20003KT 15SM FEW030 BKN090 M21/M25 A2956 RMK SC2AC3 SLP089

CYQF;2007-12-30 16:00;CYQF 301600Z 00000KT 15SM BKN030 BKN090 M19/M23 A2959 RMK SC5AC2 SLP099

CYQF;2007-12-30 17:00;CYQF 301700Z 00000KT 15SM FEW030 BKN080 M18/M22 A2962 RMK SC1AC3 SC TR SLP108

CYQF;2007-12-30 17:30;CYQF 301730Z 00000KT 10SM FEW005 BKN080 RMK ST1AC4 BR

CYQF;2007-12-30 18:00;CYQF 301800Z 00000KT 15SM FEW003 BKN080 M17/M21 A2965 RMK ST2AC4 BR SLP119

CYQF;2007-12-30 19:00;CYQF 301900Z 00000KT 10SM SCT003 BKN025 OVC080 M14/M18 A2965 RMK ST2SC3AC3 ST MORE XTNSV NW-N-NE SLP119

CYQF;2007-12-30 20:00;CYQF 302000Z 00000KT 12SM FEW025 BKN080 M13/M17 A2967 RMK SC2AC4 HZ SLP124

CYQF;2007-12-30 21:00;CYQF 302100Z 00000KT 12SM FEW080 BKN250 M13/M17 A2968 RMK AC1CS3 HZ HALO SLP124

CYQF;2007-12-30 22:00;CYQF 302200Z 00000KT 10SM FEW080 BKN250 M12/M16 A2971 RMK AC1CS2 SLP131

CYQF;2007-12-30 23:00;CYQF 302300Z 00000KT 10SM BKN120 BKN250 M11/M15 A2975 RMK AC6CI1 SLP144

CYQF;2007-12-31 00:00;CYQF 310000Z 00000KT 10SM BKN120 M13/M17 A2978 RMK AC6 SLP162

CYQF;2007-12-31 01:00;CYQF 310100Z 00000KT 15SM BKN120 M13/M16 A2981 RMK AC6 SLP170

CYQF;2007-12-31 02:00;CYQF 310200Z 33005KT 15SM OVC100 M11/M14 A2984 RMK AC8 SLP180

CYQF;2007-12-31 03:00;CYQF 310300Z 32005KT 15SM OVC100 M12/M14 A2987 RMK AC8 SLP193

CYQF;2007-12-31 03:47;CYQF 310347Z 35010KT 10SM -SN OVC080 RMK AC8

CYQF;2007-12-31 04:00;CYQF 310400Z 33005KT 10SM -SN OVC080 M11/M14 A2991 RMK AC8 SLP204

CYQF;2007-12-31 05:00;CYQF 310500Z 33004KT 15SM -SN BKN100 M13/M16 A2993 RMK AC3 SLP211

CYQF;2007-12-31 05:37;CYQF 310537Z 33006KT 2SM -SN OVC080 RMK AC8

CYQF;2007-12-31 06:00;CYQF 310600Z 35005KT 3SM -SN OVC080 M12/M15 A2996 RMK AC7 SLP219

CYQF;2007-12-31 07:00;CYQF 310700Z 00000KT 10SM -SN BKN080 M13/M16 A2998 RMK AC5 SLP226

CYQF;2007-12-31 08:00;CYQF 310800Z 00000KT 5SM -SN SCT035 OVC080 M13/M16 A3001 RMK SC4AC3 SLP233

CYQF;2007-12-31 09:00;CYQF 310900Z 00000KT 6SM -SN SCT035 BKN080 M13/M16 A3004 RMK SC3AC4 SLP242

CYQF;2007-12-31 10:00;CYQF 311000Z 32002KT 8SM -SN BKN040 OVC080 M12/M15 A3007 RMK SC5AC3 SLP252

CYQF;2007-12-31 11:00;CYQF 311100Z 27002KT 5SM -SN OVC060 M11/M14 A3009 RMK SC8 SLP260

CYQF;2007-12-31 12:00;CYQF 311200Z 28003KT 4SM -SN BKN060 M11/M14 A3011 RMK SC6 /S01/ SLP267

CYQF;2007-12-31 13:00;CYQF 311300Z 31003KT 4SM -SN OVC070 M11/M14 A3015 RMK AC7 SLP278

CYQF;2007-12-31 14:00;CYQF 311400Z 29003KT 6SM -SN OVC070 M11/M14 A3016 RMK AC7 SLP282

CYQF;2007-12-31 15:00;CYQF 311500Z 25003KT 15SM BKN070 M13/M15 A3018 RMK AC6 SLP292

CYQF;2007-12-31 16:00;CYQF 311600Z 26003KT 15SM FEW070 M15/M17 A3022 RMK AC2 SLP303

CYQF;2007-12-31 17:00;CYQF 311700Z 26005KT 15SM FEW070 M15/M17 A3024 RMK AC1 SLP309

CYQF;2007-12-31 18:00;CYQF 311800Z 26006KT 15SM FEW070 M12/M14 A3027 RMK AC1 SLP322

CYQF;2007-12-31 19:00;CYQF 311900Z 26006KT 15SM SKC M11/M14 A3028 RMK SLP325

CYQF;2007-12-31 20:00;CYQF 312000Z 25004KT 15SM FEW070 M10/M14 A3029 RMK AC1 SLP327

CYQF;2007-12-31 21:00;CYQF 312100Z 23005KT 15SM SKC M09/M13 A3030 RMK SLP328

CYQF;2007-12-31 22:00;CYQF 312200Z 25003KT 15SM FEW220 M09/M13 A3032 RMK CI1 SLP334

CYQF;2007-12-31 23:00;CYQF 312300Z 00000KT 15SM FEW220 M10/M14 A3033 RMK CI1 SLP339

