CYQF;2006-01-01 00:00;METAR CYQF 010000Z 15005KT 1SM BR VV003 M05/M06 A2925 RMK FG8 SLP955=

CYQF;2006-01-01 01:00;METAR CYQF 010100Z 16005KT 1 1/2SM BR VV004 M06/M06 A2926 RMK FG8 SLP957=

CYQF;2006-01-01 02:00;METAR CYQF 010200Z 00000KT 1SM BR VV004 M05/M06 A2925 RMK FG8 SLP956=

CYQF;2006-01-01 03:00;METAR CYQF 010300Z 00000KT 1 1/2SM BR VV004 M05/M06 A2925 RMK FG8 SLP954=

CYQF;2006-01-01 04:00;METAR CYQF 010400Z 17002KT 2SM BR OVC001 M05/M06 A2928 RMK ST8 SLP964=

CYQF;2006-01-01 05:00;METAR CYQF 010500Z 00000KT 2SM BR OVC001 M06/M07 A2930 RMK ST8 SLP968=

CYQF;2006-01-01 06:00;METAR CYQF 010600Z 00000KT 2SM BR OVC001 M06/M07 A2931 RMK ST8 SLP977=

CYQF;2006-01-01 07:00;METAR CYQF 010700Z 25002KT 2SM BR VV002 M06/M07 A2933 RMK FG8 SLP981=

CYQF;2006-01-01 08:00;METAR CYQF 010800Z 31003KT 2SM BR VV002 M07/M08 A2932 RMK FG8 SLP980=

CYQF;2006-01-01 09:00;METAR CYQF 010900Z 24003KT 1 1/2SM BR VV002 M06/M08 A2933 RMK FG8 SLP982=

CYQF;2006-01-01 10:00;METAR CYQF 011000Z 17003KT 1 1/2SM BR VV002 M06/M08 A2934 RMK FG8 SLP984=

CYQF;2006-01-01 11:00;METAR CYQF 011100Z 24003KT 1 1/2SM BR VV002 M06/M08 A2936 RMK FG8 SLP990=

CYQF;2006-01-01 12:00;METAR CYQF 011200Z 26002KT 1SM BR VV002 M06/M07 A2937 RMK FG8 SLP993=

CYQF;2006-01-01 12:40;SPECI CYQF 011240Z 26002KT 1/2SM FZFG VV001 RMK FG8=

CYQF;2006-01-01 13:00;METAR CYQF 011300Z 28002KT 1/2SM FZFG VV001 M06/M07 A2938 RMK FG8 SLP997=

CYQF;2006-01-01 14:00;METAR CYQF 011400Z 28002KT 1/2SM FZFG VV001 M06/M07 A2939 RMK FG8 SLP001=

CYQF;2006-01-01 15:00;METAR CYQF 011500Z 31002KT 1/4SM FZFG VV002 M06/M07 A2940 RMK FG8 SLP002=

CYQF;2006-01-01 16:00;METAR CYQF 011600Z 00000KT 1/2SM FZFG VV004 M06/M07 A2940 RMK FG8 SLP004=

CYQF;2006-01-01 17:00;METAR CYQF 011700Z 00000KT 1/2SM FZFG VV003 M05/M07 A2942 RMK FG8 SLP010=

CYQF;2006-01-01 17:36;SPECI CYQF 011736Z 00000KT 3SM BR BKN005 OVC050 RMK SF5SC3=

CYQF;2006-01-01 18:00;METAR CYQF 011800Z 00000KT 3SM BR SCT005 BKN100 OVC250 M05/M06 A2943 RMK SF4AC2CI1 SLP015=

CYQF;2006-01-01 18:41;SPECI CYQF 011841Z 00000KT 5SM BR BKN004 OVC100 RMK SC6AC1=

CYQF;2006-01-01 19:00;METAR CYQF 011900Z 00000KT 5SM BR BKN005 M04/M05 A2942 RMK SC6 VIS NW-NE LWR SLP011=

CYQF;2006-01-01 20:00;METAR CYQF 012000Z 21003KT 10SM BKN005 M04/M05 A2942 RMK SC6 SLP011=

CYQF;2006-01-01 21:00;METAR CYQF 012100Z 17004KT 6SM BR BKN005 M03/M04 A2942 RMK SC7 SLP010=

CYQF;2006-01-01 21:43;SPECI CYQF 012143Z 13003KT 3SM BR OVC003 RMK SC8 VIS N LWR=

CYQF;2006-01-01 22:00;METAR CYQF 012200Z 12003KT 1 1/2SM BR OVC003 M04/M05 A2943 RMK SF8 SLP012=

CYQF;2006-01-01 22:34;SPECI CYQF 012234Z 14003KT 3/4SM BR VV004 RMK FG8=

CYQF;2006-01-01 23:00;METAR CYQF 012300Z 14004KT 3/4SM BR VV003 M04/M06 A2945 RMK FG8 SLP017=

CYQF;2006-01-02 00:00;METAR CYQF 020000Z 15003KT 1/2SM FZFG VV002 M05/M07 A2945 RMK FG8 SLP022=

CYQF;2006-01-02 01:00;METAR CYQF 020100Z 18002KT 1/2SM FZFG VV002 M06/M07 A2946 RMK FG8 SLP023=

CYQF;2006-01-02 02:00;METAR CYQF 020200Z 00000KT 1SM BR VV002 M06/M08 A2945 RMK FG8 SLP020=

CYQF;2006-01-02 03:00;METAR CYQF 020300Z 00000KT 3SM BR VV004 M06/M08 A2943 RMK FG8 SLP015=

CYQF;2006-01-02 03:20;SPECI CYQF 020320Z 00000KT 10SM SCT004 OVC050 RMK SF3SC5 VIS N 4=

CYQF;2006-01-02 04:00;METAR CYQF 020400Z 00000KT 10SM SCT004 OVC050 M06/M08 A2943 RMK SF3SC5 VIS N 4 SLP014=

CYQF;2006-01-02 05:00;METAR CYQF 020500Z 00000KT 15SM SCT008 BKN090 BKN250 M06/M08 A2942 RMK SF3AC2CI2 SLP011=

CYQF;2006-01-02 06:00;METAR CYQF 020600Z 00000KT 15SM FEW008 BKN090 BKN250 M06/M07 A2941 RMK SF2AC2CI2 SLP006=

CYQF;2006-01-02 07:00;METAR CYQF 020700Z 00000KT 15SM FEW008 SCT090 BKN250 M06/M07 A2939 RMK SF2AC2CI2 SLP000=

CYQF;2006-01-02 08:00;METAR CYQF 020800Z 17002KT 15SM BKN090 OVC250 M05/M06 A2937 RMK AC5CI3 SLP996=

CYQF;2006-01-02 09:00;METAR CYQF 020900Z 20002KT 15SM BKN090 OVC250 M05/M06 A2937 RMK AC6CI2 SLP990=

CYQF;2006-01-02 10:00;METAR CYQF 021000Z 21003KT 15SM BKN090 BKN250 M05/M07 A2937 RMK AC5CI1 SLP991=

CYQF;2006-01-02 11:00;METAR CYQF 021100Z 17003KT 15SM FEW090 SCT250 M06/M07 A2937 RMK AC2CI1 SLP991=

CYQF;2006-01-02 12:00;METAR CYQF 021200Z 19002KT 15SM FEW090 FEW250 M07/M09 A2937 RMK AC1CI0 SLP996=

CYQF;2006-01-02 13:00;METAR CYQF 021300Z 00000KT 15SM FEW250 M07/M09 A2938 RMK CI0 SLP999=

CYQF;2006-01-02 14:00;METAR CYQF 021400Z 21005KT 15SM FEW250 M08/M11 A2939 RMK CI0 SLP003=

CYQF;2006-01-02 15:00;METAR CYQF 021500Z 21006KT 15SM FEW100 FEW250 M09/M11 A2939 RMK AC1CI0 SLP007=

CYQF;2006-01-02 16:00;METAR CYQF 021600Z 20005KT 15SM FEW100 FEW250 M09/M11 A2941 RMK AC1CI0 SLP012=

CYQF;2006-01-02 17:00;METAR CYQF 021700Z 23008KT 15SM FEW080 FEW250 M09/M13 A2943 RMK AC2CI0 SLP017=

CYQF;2006-01-02 18:00;METAR CYQF 021800Z 20006KT 15SM FEW080 SCT250 M08/M11 A2944 RMK AC2CI1 SLP021=

CYQF;2006-01-02 19:00;METAR CYQF 021900Z 20003KT 15SM FEW080 BKN250 M05/M08 A2945 RMK AC2CI2 SLP022=

CYQF;2006-01-02 20:00;METAR CYQF 022000Z 26008KT 15SM FEW080 BKN250 M02/M07 A2945 RMK AC2CI2 SLP023=

CYQF;2006-01-02 21:00;METAR CYQF 022100Z 21006KT 15SM FEW080 BKN250 M01/M06 A2945 RMK AC1CI2 SLP014=

CYQF;2006-01-02 22:00;METAR CYQF 022200Z 22004KT 15SM FEW080 BKN250 M00/M06 A2946 RMK AC1CI2 SLP018=

CYQF;2006-01-02 23:00;METAR CYQF 022300Z 25004KT 15SM FEW080 BKN250 M02/M07 A2949 RMK AC1CI2 SLP027=

CYQF;2006-01-03 00:00;METAR CYQF 030000Z 17002KT 15SM FEW080 BKN250 M05/M09 A2952 RMK AC1CI3 SLP046=

CYQF;2006-01-03 01:00;METAR CYQF 030100Z 00000KT 15SM FEW090 SCT250 M06/M10 A2952 RMK AC1CI1 SLP048=

CYQF;2006-01-03 02:00;METAR CYQF 030200Z 00000KT 15SM BKN250 M09/M12 A2953 RMK CI2 SLP049=

CYQF;2006-01-03 03:00;METAR CYQF 030300Z 00000KT 15SM BKN250 M09/M13 A2954 RMK CI2 SLP059=

CYQF;2006-01-03 04:00;METAR CYQF 030400Z 26006KT 15SM BKN250 M09/M12 A2954 RMK CI3 SLP061=

CYQF;2006-01-03 05:00;METAR CYQF 030500Z 00000KT 15SM SCT250 M09/M12 A2956 RMK CI2 SLP066=

CYQF;2006-01-03 06:00;METAR CYQF 030600Z 18004KT 15SM FEW250 M11/M15 A2956 RMK CI1 SLP069=

CYQF;2006-01-03 07:00;METAR CYQF 030700Z 21002KT 15SM SCT250 M10/M14 A2957 RMK CI2 SLP072=

CYQF;2006-01-03 08:00;METAR CYQF 030800Z 22004KT 15SM SCT150 OVC250 M09/M13 A2958 RMK AC4CI3 SLP074=

CYQF;2006-01-03 09:00;METAR CYQF 030900Z 19002KT 15SM FEW150 SCT250 M09/M13 A2959 RMK AC2CI1 SLP070=

CYQF;2006-01-03 10:00;METAR CYQF 031000Z 17002KT 15SM BKN120 OVC250 M08/M12 A2961 RMK AC6CI2 SLP076=

CYQF;2006-01-03 11:00;METAR CYQF 031100Z 21002KT 15SM SCT120 BKN250 M08/M12 A2963 RMK AC4CI2 SLP080=

CYQF;2006-01-03 12:00;METAR CYQF 031200Z 20002KT 15SM BKN120 OVC250 M09/M12 A2963 RMK AC6CI1 SLP086=

CYQF;2006-01-03 13:00;METAR CYQF 031300Z 18002KT 15SM BKN120 OVC250 M08/M12 A2964 RMK AC6CI2 SLP088=

CYQF;2006-01-03 14:00;METAR CYQF 031400Z 00000KT 15SM BKN050 BKN100 OVC250 M07/M10 A2966 RMK SC5AC2CI1 SLP096=

CYQF;2006-01-03 15:00;METAR CYQF 031500Z 32003KT 15SM FEW050 BKN100 OVC250 M07/M10 A2966 RMK SC2AC4CI1 SLP098=

CYQF;2006-01-03 16:00;METAR CYQF 031600Z 20002KT 15SM FEW050 BKN100 BKN250 M06/M10 A2969 RMK SC1AC6CI0 SLP108=

CYQF;2006-01-03 17:00;METAR CYQF 031700Z 17006KT 15SM BKN100 OVC250 M06/M10 A2971 RMK AC6CI1 SLP114=

CYQF;2006-01-03 18:00;METAR CYQF 031800Z 00000KT 15SM BKN100 M04/M08 A2972 RMK AC7 SLP119=

CYQF;2006-01-03 19:00;METAR CYQF 031900Z 15003KT 15SM FEW100 BKN250 M03/M08 A2971 RMK AC2CI0 SLP117=

CYQF;2006-01-03 20:00;METAR CYQF 032000Z 19002KT 15SM FEW100 FEW250 M01/M06 A2972 RMK AC1CI1 SLP119=

CYQF;2006-01-03 21:00;METAR CYQF 032100Z 21005KT 15SM FEW100 FEW250 01/M05 A2974 RMK AC1CI1 SLP119=

CYQF;2006-01-03 22:00;METAR CYQF 032200Z 24003KT 15SM FEW100 01/M05 A2975 RMK AC1 SLP123=

CYQF;2006-01-03 23:00;METAR CYQF 032300Z 22003KT 15SM FEW100 M01/M07 A2976 RMK AC1 SLP127=

CYQF;2006-01-04 00:00;METAR CYQF 040000Z 18003KT 15SM FEW100 M03/M08 A2978 RMK AC1 SLP137=

CYQF;2006-01-04 01:00;METAR CYQF 040100Z 20006KT 15SM FEW100 M08/M12 A2980 RMK AC1 SLP143=

CYQF;2006-01-04 02:00;METAR CYQF 040200Z 23007KT 15SM FEW250 M09/M14 A2981 RMK CI1 SLP145=

CYQF;2006-01-04 03:00;METAR CYQF 040300Z 22003KT 15SM FEW250 M09/M13 A2981 RMK CI1 SLP152=

CYQF;2006-01-04 04:00;METAR CYQF 040400Z 18003KT 15SM FEW250 M09/M14 A2982 RMK CI1 SLP154=

CYQF;2006-01-04 05:00;METAR CYQF 040500Z 18004KT 15SM FEW250 M10/M14 A2982 RMK CI1 SLP156=

CYQF;2006-01-04 06:00;METAR CYQF 040600Z 17004KT 15SM FEW250 M10/M15 A2983 RMK CI1 SLP158=

CYQF;2006-01-04 07:00;METAR CYQF 040700Z 00000KT 15SM FEW250 M10/M14 A2984 RMK CI1 SLP160=

CYQF;2006-01-04 08:00;METAR CYQF 040800Z 21008KT 15SM SCT250 M10/M14 A2985 RMK CI2 SLP162=

CYQF;2006-01-04 09:00;METAR CYQF 040900Z 19005KT 15SM FEW100 OVC250 M10/M14 A2986 RMK AC2CI4 SLP161=

CYQF;2006-01-04 10:00;METAR CYQF 041000Z 17004KT 15SM FEW100 BKN250 M10/M13 A2987 RMK AC2CI2 SLP166=

CYQF;2006-01-04 11:00;METAR CYQF 041100Z 00000KT 15SM FEW100 BKN250 M12/M15 A2989 RMK AC2CI2 SLP171=

CYQF;2006-01-04 12:00;METAR CYQF 041200Z 22002KT 15SM SCT100 OVC250 M10/M14 A2990 RMK AC3CI4 SLP181=

CYQF;2006-01-04 13:00;METAR CYQF 041300Z 00000KT 15SM SCT100 OVC250 M09/M13 A2992 RMK AC4CI4 SLP186=

CYQF;2006-01-04 14:00;METAR CYQF 041400Z 20003KT 15SM SCT100 OVC250 M09/M13 A2994 RMK AC4CI4 SLP193=

CYQF;2006-01-04 15:00;METAR CYQF 041500Z 19004KT 15SM BKN100 OVC250 M08/M13 A2996 RMK AC6CI2 SLP207=

CYQF;2006-01-04 16:00;METAR CYQF 041600Z 20005KT 15SM FEW080 BKN120 OVC250 M08/M13 A3001 RMK AC1AC4CI2 SLP220=

CYQF;2006-01-04 17:00;METAR CYQF 041700Z 18003KT 15SM FEW080 BKN110 BKN250 M07/M11 A3003 RMK AC1AC5CI1 SLP228=

CYQF;2006-01-04 18:00;METAR CYQF 041800Z 00000KT 15SM BKN100 BKN250 M04/M09 A3007 RMK AC5CI1 SLP242=

CYQF;2006-01-04 19:00;METAR CYQF 041900Z 26003KT 15SM BKN100 BKN250 00/M07 A3009 RMK AC4CI1 SLP247=

CYQF;2006-01-04 20:00;METAR CYQF 042000Z 18004KT 15SM FEW100 FEW250 03/M05 A3011 RMK AC1CI1 SLP254=

CYQF;2006-01-04 21:00;METAR CYQF 042100Z 24005KT 15SM FEW100 FEW250 04/M05 A3014 RMK AC1CI1 SLP254=

CYQF;2006-01-04 22:00;METAR CYQF 042200Z 23003KT 15SM FEW100 FEW250 04/M06 A3017 RMK AC1CI1 SLP266=

CYQF;2006-01-04 23:00;METAR CYQF 042300Z 19007KT 15SM FEW100 BKN250 01/M07 A3020 RMK AC1CI1 SLP274=

CYQF;2006-01-05 00:00;METAR CYQF 050000Z 20004KT 15SM FEW100 SCT250 M02/M09 A3023 RMK AC1CI1 SLP291=

CYQF;2006-01-05 01:00;METAR CYQF 050100Z 00000KT 15SM FEW100 SCT250 M04/M10 A3024 RMK AC1CI1 SLP294=

CYQF;2006-01-05 02:00;METAR CYQF 050200Z 18004KT 15SM FEW250 M07/M13 A3024 RMK CI1 SLP295=

CYQF;2006-01-05 03:00;METAR CYQF 050300Z 19005KT 15SM FEW250 M07/M13 A3025 RMK CI1 SLP302=

CYQF;2006-01-05 04:00;METAR CYQF 050400Z 18004KT 15SM FEW250 M07/M13 A3025 RMK CI1 SLP305=

CYQF;2006-01-05 05:00;METAR CYQF 050500Z 19006KT 15SM SCT250 M10/M15 A3025 RMK CI2 SLP305=

CYQF;2006-01-05 06:00;METAR CYQF 050600Z 18004KT 15SM FEW100 BKN250 M08/M13 A3025 RMK AC2CI2 SLP302=

CYQF;2006-01-05 07:00;METAR CYQF 050700Z 20006KT 15SM SCT250 M10/M15 A3025 RMK CI2 SLP300=

CYQF;2006-01-05 08:00;METAR CYQF 050800Z 19005KT 15SM SKC M09/M14 A3022 RMK SLP291=

CYQF;2006-01-05 09:00;METAR CYQF 050900Z 18002KT 15SM SKC M08/M14 A3019 RMK SLP272=

CYQF;2006-01-05 10:00;METAR CYQF 051000Z 16005KT 15SM BKN210 M06/M11 A3018 RMK CI4 SLP268=

CYQF;2006-01-05 11:00;METAR CYQF 051100Z 16005KT 15SM FEW120 OVC210 M04/M10 A3016 RMK AC2CI5 SLP261=

CYQF;2006-01-05 12:00;METAR CYQF 051200Z 15005KT 15SM FEW120 OVC210 M04/M09 A3013 RMK AC2CI6 SLP250=

CYQF;2006-01-05 13:00;METAR CYQF 051300Z 15003KT 15SM FEW120 OVC210 M02/M09 A3009 RMK AC2CI6 SLP238=

CYQF;2006-01-05 14:00;METAR CYQF 051400Z 16010KT 15SM FEW100 OVC160 M01/M08 A3006 RMK AC2AS6 SLP228=

CYQF;2006-01-05 15:00;METAR CYQF 051500Z 16008KT 15SM SCT100 BKN160 OVC230 01/M08 A3002 RMK AC3AS3CI1 SLP214=

CYQF;2006-01-05 16:00;METAR CYQF 051600Z 16010KT 15SM SCT100 BKN160 BKN250 00/M08 A2999 RMK AC3AC2CI1 SLP204=

CYQF;2006-01-05 17:00;METAR CYQF 051700Z 17009KT 15SM FEW090 BKN140 BKN250 01/M07 A2998 RMK AC2AC4CI1 SLP200=

CYQF;2006-01-05 18:00;METAR CYQF 051800Z 18010KT 15SM FEW090 BKN140 BKN250 03/M06 A2994 RMK AC2AC3CI1 SLP184=

CYQF;2006-01-05 19:00;METAR CYQF 051900Z 19011KT 15SM FEW090 BKN120 BKN250 05/M05 A2991 RMK AC2AC3CI1 SLP174=

CYQF;2006-01-05 20:00;METAR CYQF 052000Z 18009KT 15SM FEW090 BKN120 BKN250 09/M04 A2987 RMK AC2AC4CI1 SLP164=

CYQF;2006-01-05 21:00;METAR CYQF 052100Z 17010KT 15SM FEW090 BKN120 OVC250 10/M03 A2984 RMK AC2AC5CI1 SLP141=

CYQF;2006-01-05 22:00;METAR CYQF 052200Z 17004KT 15SM FEW090 BKN120 OVC250 09/M03 A2985 RMK AC2AC5CI1 SLP145=

CYQF;2006-01-05 23:00;METAR CYQF 052300Z 21006KT 15SM FEW090 BKN110 BKN250 07/M03 A2985 RMK AC1AC6CI1 SLP146=

CYQF;2006-01-06 00:00;METAR CYQF 060000Z 23008KT 15SM FEW090 BKN110 BKN250 06/M04 A2986 RMK AC1AC5CI1 SLP150=

CYQF;2006-01-06 01:00;METAR CYQF 060100Z 24007KT 15SM SCT110 BKN250 04/M05 A2989 RMK AC3CI1 SLP159=

CYQF;2006-01-06 02:00;METAR CYQF 060200Z 25010KT 15SM FEW110 BKN250 03/M06 A2991 RMK AC2CI1 SLP165=

CYQF;2006-01-06 03:00;METAR CYQF 060300Z 27013KT 15SM FEW110 BKN250 04/M06 A2991 RMK AC2CI2 SLP161=

CYQF;2006-01-06 05:00;METAR CYQF 060500Z 25014KT 15SM SCT110 BKN250 06/M06 A2992 RMK AC3CI2 SLP165=

CYQF;2006-01-06 06:00;METAR CYQF 060600Z 26012KT 15SM FEW110 BKN250 04/M07 A2993 RMK AC2CI2 SLP166=

CYQF;2006-01-06 07:00;METAR CYQF 060700Z 27005KT 15SM FEW110 BKN250 01/M08 A2993 RMK AC2CI2 SLP166=

CYQF;2006-01-06 08:00;METAR CYQF 060800Z 07004KT 15SM FEW100 SCT250 01/M08 A2992 RMK AC2CI1 SLP164=

CYQF;2006-01-06 09:00;METAR CYQF 060900Z 15005KT 15SM FEW100 BKN250 01/M08 A2992 RMK AC2CI2 SLP158=

CYQF;2006-01-06 10:00;METAR CYQF 061000Z 19008KT 15SM FEW100 OVC230 M01/M08 A2993 RMK AC2CI3 SLP163=

CYQF;2006-01-06 11:00;METAR CYQF 061100Z 00000KT 15SM SCT100 OVC230 00/M07 A2992 RMK AC3CI5 SLP158=

CYQF;2006-01-06 12:00;METAR CYQF 061200Z 13004KT 15SM FEW100 OVC230 M01/M08 A2993 RMK AC2CI6 SLP168=

CYQF;2006-01-06 13:00;METAR CYQF 061300Z 00000KT 15SM BKN120 OVC230 M01/M07 A2991 RMK AC6CI2 SLP163=

CYQF;2006-01-06 14:00;METAR CYQF 061400Z 22005KT 15SM BKN120 OVC230 M01/M08 A2993 RMK AC6CI2 SLP169=

CYQF;2006-01-06 15:00;METAR CYQF 061500Z 00000KT 15SM SCT100 BKN140 M04/M09 A2990 RMK AC3AC2 SLP166=

CYQF;2006-01-06 16:00;METAR CYQF 061600Z 15004KT 15SM SCT100 BKN250 M02/M07 A2990 RMK AC4CI2 VIRGA SLP165=

CYQF;2006-01-06 17:00;METAR CYQF 061700Z 00000KT 15SM BKN090 BKN250 M02/M07 A2990 RMK AC5CI2 VIRGA W SLP164=

CYQF;2006-01-06 18:00;METAR CYQF 061800Z 00000KT 15SM SCT090 BKN250 00/M05 A2988 RMK AC4CI2 VIRGA S+N SLP153=

CYQF;2006-01-06 19:00;METAR CYQF 061900Z 10003KT 15SM FEW050 SCT090 BKN250 03/M06 A2982 RMK SC2AC2CI2 VIRGA NW SLP135=

CYQF;2006-01-06 20:00;METAR CYQF 062000Z 12010KT 15SM FEW050 SCT090 BKN250 04/M07 A2981 RMK SC2AC2CI2 SLP130=

CYQF;2006-01-06 21:00;METAR CYQF 062100Z 15006KT 15SM FEW050 SCT090 BKN250 04/M08 A2977 RMK SC2AC2CI2 SLP115=

CYQF;2006-01-06 22:00;METAR CYQF 062200Z 12006KT 15SM FEW050 FEW090 BKN250 03/M07 A2973 RMK SC2AC1CI2 SLP102=

CYQF;2006-01-06 23:00;METAR CYQF 062300Z 12011KT 15SM FEW050 FEW090 BKN250 03/M08 A2968 RMK SC1AC1CI3 SLP088=

CYQF;2006-01-07 00:00;METAR CYQF 070000Z 14004KT 15SM FEW090 SCT250 01/M07 A2967 RMK AC1CI2 SLP087=

CYQF;2006-01-07 02:00;METAR CYQF 070200Z 17008KT 15SM FEW100 SCT250 M01/M05 A2961 RMK AC1CI2 SLP068=

CYQF;2006-01-07 03:00;METAR CYQF 070300Z 00000KT 15SM FEW250 M02/M06 A2959 RMK CI1 SLP064=

CYQF;2006-01-07 04:00;METAR CYQF 070400Z 18010KT 15SM FEW250 M04/M08 A2957 RMK CI1 SLP057=

CYQF;2006-01-07 05:00;METAR CYQF 070500Z 19007KT 15SM FEW250 M07/M10 A2956 RMK CI1 SLP056=

CYQF;2006-01-07 06:00;METAR CYQF 070600Z 00000KT 15SM FEW250 M07/M10 A2956 RMK CI1 SLP055=

CYQF;2006-01-07 07:00;METAR CYQF 070700Z 20003KT 15SM BKN250 M08/M11 A2956 RMK CI3 SLP056=

CYQF;2006-01-07 08:00;METAR CYQF 070800Z 33003KT 15SM BKN250 M06/M10 A2958 RMK CI3 SLP060=

CYQF;2006-01-07 09:00;METAR CYQF 070900Z 28003KT 15SM BKN250 M05/M09 A2962 RMK CI4 SLP068=

CYQF;2006-01-07 10:00;METAR CYQF 071000Z 24004KT 15SM SCT250 M04/M09 A2964 RMK CI2 SLP074=

CYQF;2006-01-07 11:00;METAR CYQF 071100Z 30006KT 15SM BKN250 M04/M09 A2963 RMK CI2 SLP073=

CYQF;2006-01-07 12:00;METAR CYQF 071200Z 30007KT 15SM FEW250 M06/M10 A2964 RMK CI1 SLP081=

CYQF;2006-01-07 13:00;METAR CYQF 071300Z 27002KT 15SM FEW250 M06/M10 A2965 RMK CI1 SLP084=

CYQF;2006-01-07 14:00;METAR CYQF 071400Z 32007KT 15SM FEW250 M07/M10 A2965 RMK CI1 SLP082=

CYQF;2006-01-07 15:00;METAR CYQF 071500Z 29002KT 15SM FEW100 FEW250 M09/M12 A2965 RMK AC1CI0 SLP090=

CYQF;2006-01-07 16:00;METAR CYQF 071600Z 31005KT 15SM FEW100 FEW250 M08/M11 A2966 RMK AC1CI0 SLP093=

CYQF;2006-01-07 17:00;METAR CYQF 071700Z 05002KT 15SM BKN007 BKN100 M07/M10 A2968 RMK ST5AC2 VIS N-E 5 FG SLP099=

CYQF;2006-01-07 18:00;METAR CYQF 071800Z 01003KT 3SM BR OVC005 M05/M07 A2968 RMK ST8 SLP103=

CYQF;2006-01-07 19:00;METAR CYQF 071900Z 35002KT 3SM BR OVC004 M04/M07 A2968 RMK ST8 SLP101=

CYQF;2006-01-07 20:00;METAR CYQF 072000Z 32003KT 4SM BR OVC004 M04/M06 A2967 RMK ST7 SLP098=

CYQF;2006-01-07 21:00;METAR CYQF 072100Z 33002KT 5SM BR OVC004 M04/M06 A2968 RMK ST8 SLP098=

CYQF;2006-01-07 21:35;SPECI CYQF 072135Z 02003KT 10SM SCT005 BKN080 RMK SF4AC2 VIS E-S 4 FG=

CYQF;2006-01-07 22:00;METAR CYQF 072200Z 04004KT 10SM SCT005 BKN080 M03/M06 A2968 RMK SC4AC2 VIS E-S 5 FG SLP100=

CYQF;2006-01-07 23:00;METAR CYQF 072300Z 20002KT 15SM FEW008 FEW080 M06/M09 A2969 RMK SC2AC1 VIS S 6 FG SLP103=

CYQF;2006-01-08 00:00;METAR CYQF 080000Z 35002KT 15SM FEW008 FEW080 M06/M08 A2971 RMK SC2AC1 MIFG SLP111=

CYQF;2006-01-08 00:34;SPECI CYQF 080034Z 00000KT 1SM BR SCT080 RMK FG2AC2=

CYQF;2006-01-08 01:00;METAR CYQF 080100Z 00000KT 1SM BR SCT080 M09/M12 A2971 RMK FG2AC2 SLP112=

CYQF;2006-01-08 01:26;SPECI CYQF 080126Z 00000KT 1/2SM FZFG SCT080 RMK FG3AC1=

CYQF;2006-01-08 02:47;SPECI CYQF 080247Z 23003KT 1SM BR SKC RMK FG6=

CYQF;2006-01-08 03:00;METAR CYQF 080300Z 24005KT 3SM BR BKN003 M06/M07 A2972 RMK ST4 SLP120=

CYQF;2006-01-08 04:00;METAR CYQF 080400Z 22004KT 3SM BR SKC M08/M09 A2973 RMK SLP123=

CYQF;2006-01-08 05:00;METAR CYQF 080500Z 00000KT 2SM BR SCT003 M10/M12 A2973 RMK ST2 SLP123=

CYQF;2006-01-08 05:28;SPECI CYQF 080528Z 00000KT 3/4SM BR SKC RMK FG4 FROIN=

CYQF;2006-01-08 06:22;SPECI CYQF 080622Z 21002KT 1/2SM FZFG VV003 RMK FG8=

CYQF;2006-01-08 07:00;METAR CYQF 080700Z 20003KT 1/4SM FZFG VV003 M09/M11 A2975 RMK FG8 RIME ON INDICATOR SLP130=

CYQF;2006-01-08 08:00;METAR CYQF 080800Z 00000KT 1/2SM FZFG SKC M11/M12 A2977 RMK FG4 SLP136=

CYQF;2006-01-08 08:48;SPECI CYQF 080848Z 00000KT 6SM BR FEW250 RMK CI1=

CYQF;2006-01-08 09:00;METAR CYQF 080900Z 00000KT 10SM FEW100 SCT250 M11/M13 A2978 RMK AC1CI1 BR SLP141=

CYQF;2006-01-08 10:00;METAR CYQF 081000Z 00000KT 10SM BCFG FEW250 M11/M12 A2979 RMK CI1 SLP145=

CYQF;2006-01-08 11:00;METAR CYQF 081100Z 00000KT 10SM BCFG SKC M13/M15 A2980 RMK SLP147=

CYQF;2006-01-08 12:00;METAR CYQF 081200Z 20003KT 15SM SKC M15/M17 A2980 RMK SLP155=

CYQF;2006-01-08 13:00;METAR CYQF 081300Z 00000KT 15SM SKC M13/M14 A2982 RMK SLP161=

CYQF;2006-01-08 14:00;METAR CYQF 081400Z 00000KT 15SM SKC M13/M14 A2983 RMK SLP162=

CYQF;2006-01-08 15:00;METAR CYQF 081500Z 00000KT 8SM FEW250 M13/M14 A2983 RMK CI1 BR SLP162=

CYQF;2006-01-08 16:00;METAR CYQF 081600Z 19004KT 6SM BR FEW250 M13/M15 A2985 RMK CI1 SLP170=

CYQF;2006-01-08 17:00;METAR CYQF 081700Z 17003KT 4SM BR SCT250 M11/M13 A2985 RMK CI1 SLP170=

CYQF;2006-01-08 18:00;METAR CYQF 081800Z 17003KT 4SM BR SCT250 M07/M08 A2987 RMK CI1 SLP173=

CYQF;2006-01-08 19:00;METAR CYQF 081900Z 20003KT 4SM BR FEW250 M04/M06 A2986 RMK CI1 SLP172=

CYQF;2006-01-08 20:00;METAR CYQF 082000Z 17006KT 5SM BR FEW250 M03/M05 A2986 RMK CI1 SLP170=

CYQF;2006-01-08 21:00;METAR CYQF 082100Z 20003KT 15SM SCT250 M02/M05 A2986 RMK CI1 BR SLP165=

CYQF;2006-01-08 23:00;METAR CYQF 082300Z 16007KT 6SM BR FEW250 M04/M07 A2987 RMK CI1 SLP168=

CYQF;2006-01-08 23:25;SPECI CYQF 082325Z 15005KT 2SM BR BKN250 RMK FG2CI1=

CYQF;2006-01-08 23:31;SPECI CYQF 082331Z 14006KT 1/4SM FZFG SKC RMK FG3=

CYQF;2006-01-09 00:00;METAR CYQF 090000Z 16008KT 1/4SM FZFG SKC M05/M07 A2986 RMK FG6 RIME ON INDICATOR SLP174=

CYQF;2006-01-09 01:00;METAR CYQF 090100Z 18003KT 1/4SM FZFG SKC M06/M09 A2986 RMK FG6 SLP174=

CYQF;2006-01-09 01:46;SPECI CYQF 090146Z 16003KT 1/2SM FZFG SKC RMK FG5=

CYQF;2006-01-09 02:00;METAR CYQF 090200Z 15003KT 1/2SM FZFG SKC M05/M08 A2984 RMK FG4 RIME ON INDICATOR SLP167=

CYQF;2006-01-09 02:11;SPECI CYQF 090211Z 14004KT 1SM BR SKC RMK FG2=

CYQF;2006-01-09 02:48;SPECI CYQF 090248Z 16006KT 5SM BR SKC RMK REFZFG=

CYQF;2006-01-09 03:00;METAR CYQF 090300Z 16008KT 6SM BR SKC M06/M09 A2979 RMK REFZFG FROIN SLP150=

CYQF;2006-01-09 04:00;METAR CYQF 090400Z 18006KT 15SM BKN270 M07/M10 A2977 RMK CI2 SLP143=

CYQF;2006-01-09 05:00;METAR CYQF 090500Z 18007KT 15SM SCT110 BKN270 M07/M10 A2974 RMK AC3CI1 SLP134=

CYQF;2006-01-09 06:00;METAR CYQF 090600Z 21004KT 15SM SCT110 BKN270 M05/M08 A2973 RMK AC4CI1 SLP120=

CYQF;2006-01-09 07:00;METAR CYQF 090700Z 23007KT 15SM BKN110 OVC270 M04/M08 A2973 RMK AC6CI1 SLP120=

CYQF;2006-01-09 09:00;METAR CYQF 090900Z 23008KT 15SM BKN100 OVC250 M03/M09 A2970 RMK AC6CI2 SLP101=

CYQF;2006-01-09 10:00;METAR CYQF 091000Z 20005KT 15SM BKN100 OVC250 M01/M10 A2970 RMK AC6CI2 SLP101=

CYQF;2006-01-09 11:00;METAR CYQF 091100Z 19004KT 15SM BKN100 OVC250 M03/M10 A2968 RMK AC6CI2 SLP096=

CYQF;2006-01-09 12:00;METAR CYQF 091200Z 19005KT 15SM BKN100 OVC250 M02/M09 A2966 RMK AC6CI2 SLP090=

CYQF;2006-01-09 13:00;METAR CYQF 091300Z 20006KT 15SM BKN100 OVC250 M02/M09 A2965 RMK AC6CI2 SLP087=

CYQF;2006-01-09 14:00;METAR CYQF 091400Z 17005KT 15SM BKN100 OVC250 M02/M09 A2963 RMK AC6CI2 SLP081=

CYQF;2006-01-09 15:00;METAR CYQF 091500Z 22007KT 15SM BKN100 BKN250 M02/M08 A2961 RMK AC5CI2 SLP072=

CYQF;2006-01-09 16:00;METAR CYQF 091600Z 20008KT 15SM BKN100 BKN250 02/M07 A2960 RMK AC5CI2 SLP070=

CYQF;2006-01-09 17:00;METAR CYQF 091700Z 20010KT 15SM SCT100 BKN250 02/M07 A2959 RMK AC4CI2 SLP067=

CYQF;2006-01-09 18:00;METAR CYQF 091800Z 20008KT 15SM FEW100 BKN250 03/M06 A2957 RMK AC2CI4 SLP052=

CYQF;2006-01-09 19:00;METAR CYQF 091900Z 23012KT 15SM SCT120 BKN250 06/M06 A2955 RMK AC3CI3 SLP046=

CYQF;2006-01-09 20:00;METAR CYQF 092000Z 22005KT 15SM FEW120 BKN250 06/M06 A2954 RMK AC2CI3 SLP042=

CYQF;2006-01-09 21:00;METAR CYQF 092100Z 24010G15KT 15SM FEW120 BKN250 08/M07 A2954 RMK AC2CI3 SLP032=

CYQF;2006-01-09 22:00;METAR CYQF 092200Z 29010KT 15SM FEW120 BKN250 07/M08 A2957 RMK AC2CI3 SLP042=

CYQF;2006-01-09 23:00;METAR CYQF 092300Z 35010KT 15SM FEW120 BKN250 02/M06 A2963 RMK AC2CI2 SLP061=

CYQF;2006-01-10 00:00;METAR CYQF 100000Z 35004KT 15SM FEW120 BKN250 00/M07 A2963 RMK AC2CI2 SLP075=

CYQF;2006-01-10 01:00;METAR CYQF 100100Z 00000KT 15SM FEW120 BKN250 M04/M10 A2964 RMK AC2CI2 SLP076=

CYQF;2006-01-10 02:00;METAR CYQF 100200Z 23007KT 15SM SCT120 OVC250 M04/M08 A2964 RMK AC3CI2 SLP077=

CYQF;2006-01-10 03:00;METAR CYQF 100300Z 23006KT 15SM SCT120 OVC250 M05/M08 A2964 RMK AC3CI2 SLP083=

CYQF;2006-01-10 04:00;METAR CYQF 100400Z 22005KT 15SM SCT120 OVC250 M05/M09 A2965 RMK AC4CI3 SLP084=

CYQF;2006-01-10 05:00;METAR CYQF 100500Z 19002KT 15SM BKN120 OVC250 M04/M09 A2965 RMK AC6CI2 SLP086=

CYQF;2006-01-10 06:00;METAR CYQF 100600Z 16002KT 15SM BKN120 OVC250 M04/M08 A2965 RMK AC6CI2 SLP080=

CYQF;2006-01-10 07:00;METAR CYQF 100700Z 19005KT 15SM BKN120 OVC250 M05/M09 A2966 RMK AC6CI1 SLP083=

CYQF;2006-01-10 08:00;METAR CYQF 100800Z 17004KT 15SM BKN120 M06/M09 A2964 RMK AC6 SLP077=

CYQF;2006-01-10 09:00;METAR CYQF 100900Z 00000KT 15SM FEW120 M07/M11 A2963 RMK AC2 SLP071=

CYQF;2006-01-10 10:00;METAR CYQF 101000Z 15006KT 15SM FEW120 SCT250 M06/M10 A2962 RMK AC2CI0 SLP067=

CYQF;2006-01-10 11:00;METAR CYQF 101100Z 00000KT 15SM SCT100 BKN250 M06/M10 A2959 RMK AC3CI1 SLP057=

CYQF;2006-01-10 12:00;METAR CYQF 101200Z 15002KT 15SM SCT100 BKN250 M06/M11 A2956 RMK AC3CI2 SLP054=

CYQF;2006-01-10 13:00;METAR CYQF 101300Z 14004KT 15SM BKN100 OVC250 M04/M09 A2953 RMK AC5CI3 SLP044=

CYQF;2006-01-10 14:00;METAR CYQF 101400Z 13003KT 15SM BKN100 OVC250 M03/M09 A2950 RMK AC6CI2 SLP034=

CYQF;2006-01-10 15:00;METAR CYQF 101500Z 15008KT 15SM BKN080 OVC250 M02/M08 A2947 RMK AC6CI2 SLP023=

CYQF;2006-01-10 16:00;METAR CYQF 101600Z 16005KT 15SM OVC050 M02/M09 A2944 RMK SC8 VIRGA SLP013=

CYQF;2006-01-10 17:00;METAR CYQF 101700Z 13008KT 15SM OVC050 M01/M09 A2939 RMK SC8 VIRGA SLP999=

CYQF;2006-01-10 18:26;SPECI CYQF 101826Z 00000KT 1 1/2SM -SN BKN010 OVC030 RMK SC6SC2=

CYQF;2006-01-10 18:44;SPECI CYQF 101844Z 23002KT 3/4SM -SN VV005 RMK SN8=

CYQF;2006-01-10 19:00;METAR CYQF 101900Z 00000KT 3/4SM -SN VV005 M03/M06 A2936 RMK SN8 SLP983=

CYQF;2006-01-10 20:00;METAR CYQF 102000Z 06004KT 1SM -SN VV010 M02/M04 A2932 RMK SN8 /S01/ SLP972=

CYQF;2006-01-10 21:00;METAR CYQF 102100Z 07006KT 1 1/2SM -SN BKN008 OVC014 M02/M04 A2931 RMK SN2SF4SC2 /S02/ SLP969=

CYQF;2006-01-10 21:46;SPECI CYQF 102146Z 03005KT 3SM -SN BKN010 OVC025 RMK SF5SC2=

CYQF;2006-01-10 22:00;METAR CYQF 102200Z 04005KT 8SM SCT010 OVC025 M02/M04 A2931 RMK SF3SC4 SLP969=

CYQF;2006-01-10 23:00;METAR CYQF 102300Z 04003KT 15SM FEW010 OVC025 M01/M04 A2932 RMK SF2SC6 SLP974=

CYQF;2006-01-11 00:00;METAR CYQF 110000Z 36003KT 8SM BKN010 OVC025 M02/M04 A2934 RMK SF6SC2 BR /S03/ SLP980=

CYQF;2006-01-11 01:00;METAR CYQF 110100Z 02003KT 5SM -SN BR BKN010 OVC025 M02/M05 A2934 RMK SF5SC3 SLP979=

CYQF;2006-01-11 01:15;SPECI CYQF 110115Z 33003KT 6SM -SN BKN005 OVC010 RMK SF6SC2 BR=

CYQF;2006-01-11 02:00;METAR CYQF 110200Z 02002KT 4SM -SN BKN004 OVC010 M02/M05 A2937 RMK SF6SC2 BR SLP988=

CYQF;2006-01-11 02:25;SPECI CYQF 110225Z 32003KT 2SM BR VV004 RMK FG8=

CYQF;2006-01-11 02:39;SPECI CYQF 110239Z 34002KT 1SM BR VV004 RMK FG8=

CYQF;2006-01-11 03:00;METAR CYQF 110300Z 33002KT 1SM BR VV004 M03/M05 A2937 RMK FG8 SLP987=

CYQF;2006-01-11 03:48;SPECI CYQF 110348Z 33004KT 3/4SM BR VV003 RMK FG8=

CYQF;2006-01-11 04:00;METAR CYQF 110400Z 33004KT 3/4SM BR VV003 M03/M05 A2938 RMK FG8 RIME ON INDICATOR SLP989=

CYQF;2006-01-11 04:33;SPECI CYQF 110433Z 36002KT 1/2SM FZFG VV003 RMK FG8 RIME ON INDICATOR=

CYQF;2006-01-11 05:00;METAR CYQF 110500Z 32002KT 1/2SM FZFG VV003 M03/M05 A2936 RMK FG8 RIME ON INDICATOR SLP983=

CYQF;2006-01-11 06:00;METAR CYQF 110600Z 32002KT 1/2SM FZFG VV004 M03/M05 A2936 RMK FG8 RIME ON INDICATOR SLP981=

CYQF;2006-01-11 07:00;METAR CYQF 110700Z 00000KT 1SM BR VV004 M03/M05 A2936 RMK FG8 RIME ON INDICATOR SLP980=

CYQF;2006-01-11 08:00;METAR CYQF 110800Z 03003KT 1SM -FZDZ BKN002 OVC010 M03/M05 A2933 RMK FG6SF2SC1 RIME ON INDICATOR SLP972=

CYQF;2006-01-11 09:00;METAR CYQF 110900Z 00000KT 1SM -FZDZ VV003 M03/M05 A2935 RMK DZ8 RIME ON INDICATOR SLP979=

CYQF;2006-01-11 10:00;METAR CYQF 111000Z 00000KT 1SM -FZDZ BR VV003 M03/M05 A2934 RMK DZ8 RIME ON INDICATOR SLP975=

CYQF;2006-01-11 10:31;SPECI CYQF 111031Z 00000KT 1/2SM FZFG VV002 RMK FG8 RIME ON INDICATOR=

CYQF;2006-01-11 11:00;METAR CYQF 111100Z 03002KT 1/2SM FZFG VV002 M03/M05 A2933 RMK FG8 RIME ON INDICATOR SLP973=

CYQF;2006-01-11 12:00;METAR CYQF 111200Z 00000KT 1/2SM FZFG VV003 M03/M05 A2933 RMK FG8 RIME ON INDICATOR SLP971=

CYQF;2006-01-11 13:00;METAR CYQF 111300Z 35002KT 1/2SM FZFG VV003 M03/M05 A2932 RMK FG8 RIME ON INDICATOR SLP970=

CYQF;2006-01-11 13:21;SPECI CYQF 111321Z 32003KT 1SM -SN BR OVC005 RMK SF8 RIME ON INDICATOR=

CYQF;2006-01-11 13:39;SPECI CYQF 111339Z 00000KT 2SM -SN BR OVC007 RMK SF8=

CYQF;2006-01-11 14:00;METAR CYQF 111400Z 00000KT 2SM -SN BR OVC008 M03/M05 A2934 RMK SF8 SLP976=

CYQF;2006-01-11 15:00;METAR CYQF 111500Z 31003KT 1SM -SN BR OVC008 M03/M06 A2934 RMK SF8 SLP978=

CYQF;2006-01-11 16:00;METAR CYQF 111600Z 34003KT 1 1/2SM -SN BR SCT008 OVC020 M04/M06 A2935 RMK SN2SF2SC3 SLP979=

CYQF;2006-01-11 17:00;METAR CYQF 111700Z 27002KT 2SM -SN BR SCT010 OVC030 M03/M06 A2937 RMK FG2SF2SC3 SLP987=

CYQF;2006-01-11 17:47;SPECI CYQF 111747Z 28002KT 3SM -SN BR SCT012 BKN090 RMK FG1SF2AC3=

CYQF;2006-01-11 18:00;METAR CYQF 111800Z 27002KT 2SM -SN BR SCT008 BKN030 BKN090 M03/M05 A2939 RMK FG2SF2SC2AC2 /S01/ SLP996=

CYQF;2006-01-11 19:00;METAR CYQF 111900Z 31003KT 2 1/2SM -SN BR SCT008 BKN030 OVC090 M02/M05 A2940 RMK FG2SF2SC2AC2 SLP998=

CYQF;2006-01-11 19:09;SPECI CYQF 111909Z 30004KT 3SM BR SCT010 BKN040 RMK SC3SC3=

CYQF;2006-01-11 20:00;METAR CYQF 112000Z 31004KT 3SM -SN BR SCT012 BKN040 OVC090 M02/M05 A2941 RMK SC3SC3AC1 SLP000=

CYQF;2006-01-12 00:00;METAR CYQF 120000Z 23004KT 10SM FEW090 BKN250 M05/M08 A2948 RMK AC2CI2 SLP028=

CYQF;2006-01-12 01:00;METAR CYQF 120100Z 26003KT 12SM SCT090 OVC250 M05/M08 A2949 RMK AC3CI2 SLP032=

CYQF;2006-01-12 02:00;METAR CYQF 120200Z 20003KT 10SM SCT090 OVC250 M05/M07 A2952 RMK AC3CI2 VIA YEG FIC SLP040=

CYQF;2006-01-12 03:00;METAR CYQF 120300Z 22004KT 10SM SCT090 OVC250 M05/M08 A2953 RMK AC3CI3 SLP044=

CYQF;2006-01-12 03:36;SPECI CYQF 120336Z 18002KT 8SM -SN SCT050 OVC250 RMK SC3CI3=

CYQF;2006-01-12 04:00;METAR CYQF 120400Z 25005KT 8SM -SN SCT050 OVC250 M04/M07 A2954 RMK SC3CI3 SLP048=

CYQF;2006-01-12 06:00;METAR CYQF 120600Z 26003KT 5SM -SN BKN040 OVC250 M03/M06 A2957 RMK SC5CI2 SLP057=

CYQF;2006-01-12 07:00;METAR CYQF 120700Z 25004KT 6SM -SN FEW010 OVC040 M04/M06 A2959 RMK SF1SC7 SLP063=

CYQF;2006-01-12 08:00;METAR CYQF 120800Z 26004KT 15SM FEW010 BKN040 BKN250 M05/M07 A2960 RMK SF2SC3CI1 SLP067=

CYQF;2006-01-12 09:00;METAR CYQF 120900Z 25005KT 15SM FEW010 BKN040 BKN250 M06/M09 A2962 RMK SF2SC4CI1 SLP077=

CYQF;2006-01-12 10:00;METAR CYQF 121000Z 26004KT 10SM FEW010 BKN040 BKN250 M06/M09 A2965 RMK SF2SC3CI1 SLP085=

CYQF;2006-01-12 11:00;METAR CYQF 121100Z 26004KT 8SM FEW010 BKN040 BKN250 M08/M10 A2966 RMK SF2SC3CI1 BR SLP090=

CYQF;2006-01-12 12:00;METAR CYQF 121200Z 21003KT 6SM BR FEW010 SCT040 BKN250 M08/M11 A2969 RMK SF1SC2CI1 SLP106=

CYQF;2006-01-12 13:00;METAR CYQF 121300Z 23005KT 4SM BR FEW040 BKN250 M09/M11 A2970 RMK SC2CI2 SLP110=

CYQF;2006-01-12 14:00;METAR CYQF 121400Z 00000KT 10SM FEW040 BKN250 M09/M11 A2972 RMK SC2CI2 SLP115=

CYQF;2006-01-12 15:00;METAR CYQF 121500Z 20003KT 15SM FEW050 BKN220 M08/M11 A2973 RMK SC2CI2 SLP121=

CYQF;2006-01-12 16:00;METAR CYQF 121600Z 22003KT 15SM FEW040 BKN090 BKN230 M10/M13 A2976 RMK SC2AC2CI1 SLP130=

CYQF;2006-01-12 17:00;METAR CYQF 121700Z 21003KT 15SM FEW040 BKN090 BKN230 M07/M09 A2977 RMK SC2AC2CI1 VIRGA SLP135=

CYQF;2006-01-12 18:00;METAR CYQF 121800Z 26004KT 15SM BKN040 BKN100 M04/M07 A2980 RMK SC5AC2 TCU SHSN W SLP139=

CYQF;2006-01-12 19:00;METAR CYQF 121900Z 00000KT 15SM FEW070 SCT120 BKN240 M04/M07 A2980 RMK AC2AC2CI0 SLP138=

CYQF;2006-01-12 20:00;METAR CYQF 122000Z 00000KT 15SM SCT070 BKN120 M00/M06 A2981 RMK AC3AC1 SLP143=

CYQF;2006-01-12 21:00;METAR CYQF 122100Z 00000KT 15SM BKN060 BKN120 BKN240 M00/M05 A2982 RMK SC5AC1CI0 SLP146=

CYQF;2006-01-12 22:00;METAR CYQF 122200Z 00000KT 15SM FEW060 BKN240 M00/M06 A2982 RMK SC2CI2 SLP146=

CYQF;2006-01-12 23:00;METAR CYQF 122300Z 19003KT 15SM FEW060 SCT240 M02/M06 A2983 RMK SC1CI1 SLP149=

CYQF;2006-01-13 00:00;METAR CYQF 130000Z 19002KT 15SM FEW240 M04/M08 A2984 RMK CI1 SLP159=

CYQF;2006-01-13 01:00;METAR CYQF 130100Z 19003KT 15SM FEW240 M07/M09 A2984 RMK CI1 SLP159=

CYQF;2006-01-13 04:00;METAR CYQF 130400Z 16004KT 10SM SCT250 M10/M13 A2984 RMK CS1 MIFG SLP166=

CYQF;2006-01-13 05:00;METAR CYQF 130500Z 12003KT 15SM BKN240 M10/M13 A2982 RMK CS2 MIFG SLP161=

CYQF;2006-01-13 06:00;METAR CYQF 130600Z 11004KT 15SM BKN240 M08/M10 A2980 RMK CS2 SLP143=

CYQF;2006-01-13 07:00;METAR CYQF 130700Z 14006KT 15SM OVC240 M06/M08 A2978 RMK CS3 SLP138=

CYQF;2006-01-13 08:00;METAR CYQF 130800Z 16007KT 15SM OVC240 M06/M09 A2975 RMK CS3 SLP129=

CYQF;2006-01-13 09:00;METAR CYQF 130900Z 17007KT 15SM OVC240 M06/M08 A2973 RMK CS8 SLP114=

CYQF;2006-01-13 10:00;METAR CYQF 131000Z 15008KT 6SM BR OVC240 M06/M09 A2971 RMK CS8 SLP106=

CYQF;2006-01-13 11:00;METAR CYQF 131100Z 15005KT 10SM OVC240 M07/M09 A2969 RMK CS5 SLP100=

CYQF;2006-01-13 12:00;METAR CYQF 131200Z 13005KT 15SM SCT120 OVC240 M07/M10 A2966 RMK AC3CS3 SLP094=

CYQF;2006-01-13 13:00;METAR CYQF 131300Z 15010KT 15SM SCT120 OVC240 M07/M10 A2965 RMK AC4CS2 SLP090=

CYQF;2006-01-13 14:00;METAR CYQF 131400Z 14007KT 15SM SCT120 BKN240 M08/M11 A2963 RMK AC3CS2 SLP086=

CYQF;2006-01-13 15:00;METAR CYQF 131500Z 17008KT 15SM FEW120 SCT240 M08/M12 A2961 RMK AC1CI2 SLP087=

CYQF;2006-01-13 16:00;METAR CYQF 131600Z 19003KT 15SM FEW120 FEW250 M09/M13 A2961 RMK AC1CI1 TR AC SLP086=

CYQF;2006-01-13 17:00;METAR CYQF 131700Z 20005KT 15SM FEW120 BKN250 M08/M12 A2957 RMK AC1CI1 TR AC SLP076=

CYQF;2006-01-13 18:00;METAR CYQF 131800Z 16004KT 15SM FEW120 FEW250 M06/M10 A2957 RMK AC1CI1 TR AC SLP066=

CYQF;2006-01-13 19:00;METAR CYQF 131900Z 18005KT 15SM FEW250 M04/M09 A2955 RMK CI1 SLP060=

CYQF;2006-01-13 20:00;METAR CYQF 132000Z 18005KT 15SM FEW250 M02/M07 A2952 RMK CI1 SLP050=

CYQF;2006-01-13 21:00;METAR CYQF 132100Z 00000KT 15SM FEW100 BKN250 M02/M07 A2951 RMK AC1CI1 TR AC SLP040=

CYQF;2006-01-13 22:00;METAR CYQF 132200Z 03004KT 15SM SCT120 BKN250 M02/M07 A2952 RMK AC2CI2 SLP042=

CYQF;2006-01-13 23:00;METAR CYQF 132300Z 00000KT 15SM FEW100 BKN250 M02/M07 A2952 RMK AC1CI3 SLP041=

CYQF;2006-01-14 00:00;METAR CYQF 140000Z 00000KT 15SM FEW100 BKN250 M04/M08 A2953 RMK AC1CI2 SLP048=

CYQF;2006-01-14 01:00;METAR CYQF 140100Z 36004KT 15SM FEW100 BKN250 M04/M08 A2952 RMK AC2CI3 SLP046=

CYQF;2006-01-14 02:00;METAR CYQF 140200Z 33003KT 15SM BKN100 M06/M09 A2952 RMK AC6 SLP046=

CYQF;2006-01-14 03:00;METAR CYQF 140300Z 34005KT 15SM FEW100 BKN250 M07/M10 A2952 RMK AC2CI2 SLP049=

CYQF;2006-01-14 04:00;METAR CYQF 140400Z 35002KT 15SM SCT250 M06/M09 A2952 RMK CI2 SLP050=

CYQF;2006-01-14 05:00;METAR CYQF 140500Z 36007KT 15SM BKN250 M07/M09 A2952 RMK CI4 SLP049=

CYQF;2006-01-14 06:00;METAR CYQF 140600Z 00000KT 15SM BKN250 M12/M15 A2952 RMK CI2 SLP054=

CYQF;2006-01-14 07:00;METAR CYQF 140700Z 00000KT 15SM FEW100 SCT250 M11/M13 A2951 RMK AC1CI1 SLP050=

CYQF;2006-01-14 08:00;METAR CYQF 140800Z 00000KT 15SM FEW100 SCT250 M13/M15 A2952 RMK AC1CI1 SLP053=

CYQF;2006-01-14 09:00;METAR CYQF 140900Z 00000KT 15SM FEW100 FEW250 M12/M15 A2952 RMK AC1CI1 SLP047=

CYQF;2006-01-14 10:00;METAR CYQF 141000Z 00000KT 15SM FEW100 FEW250 M13/M16 A2951 RMK AC1CI1 SLP044=

CYQF;2006-01-14 11:00;METAR CYQF 141100Z 00000KT 3/4SM BR SKC M13/M16 A2951 RMK FG6 SLP044=

CYQF;2006-01-14 12:00;METAR CYQF 141200Z 00000KT 3/4SM BR SKC M13/M16 A2952 RMK FG7 SLP052=

CYQF;2006-01-14 13:00;METAR CYQF 141300Z 00000KT 3/4SM BR SKC M13/M16 A2951 RMK FG6 SLP050=

CYQF;2006-01-14 13:21;SPECI CYQF 141321Z 00000KT 1/4SM FZFG SKC RMK FG7=

CYQF;2006-01-14 14:00;METAR CYQF 141400Z 00000KT 1/4SM FZFG SKC M13/M15 A2950 RMK FG7 SLP046=

CYQF;2006-01-14 14:45;SPECI CYQF 141445Z 00000KT 3/4SM BR BKN250 RMK FG3CI1=

CYQF;2006-01-14 15:00;METAR CYQF 141500Z 00000KT 3/4SM BR BKN250 M14/M17 A2951 RMK FG3CI1 SLP054=

CYQF;2006-01-14 15:27;SPECI CYQF 141527Z 00000KT 1 1/2SM BR BKN250 RMK FG2CI3=

CYQF;2006-01-14 16:00;METAR CYQF 141600Z 00000KT 2SM BR BKN250 M14/M16 A2950 RMK FG2CI2 SLP050=

CYQF;2006-01-14 17:00;METAR CYQF 141700Z 34002KT 4SM BR FEW150 BKN250 M13/M16 A2951 RMK AC1CI2 SLP055=

CYQF;2006-01-14 17:31;SPECI CYQF 141731Z 00000KT 4SM BR BKN003 BKN120 OVC250 RMK SF5AC1CI1=

CYQF;2006-01-14 19:00;METAR CYQF 141900Z 00000KT 4SM BR FEW003 BKN120 OVC250 M10/M12 A2950 RMK SF2AC2CI2 VIS LWR N-NE SLP053=

CYQF;2006-01-14 20:00;METAR CYQF 142000Z 00000KT 3SM BR FEW003 FEW030 SCT120 BKN250 M09/M10 A2948 RMK SF1SC1AC2CI1 SLP045=

CYQF;2006-01-14 21:00;METAR CYQF 142100Z 03002KT 4SM BR FEW004 FEW120 BKN250 M08/M10 A2947 RMK SF1AC2CI1 SLP039=

CYQF;2006-01-14 22:00;METAR CYQF 142200Z 02004KT 4SM BR FEW030 BKN120 OVC250 M08/M09 A2947 RMK SC2AC4CI1 SLP039=

CYQF;2006-01-14 23:00;METAR CYQF 142300Z 35005KT 3SM BR BKN020 BKN120 OVC250 M08/M10 A2950 RMK SC6AC1CI1 SLP047=

CYQF;2006-01-15 00:00;METAR CYQF 150000Z 03003KT 3SM BR BKN025 OVC100 M08/M10 A2949 RMK SC7AC1 SLP048=

CYQF;2006-01-15 02:00;METAR CYQF 150200Z 00000KT 6SM BR SCT007 BKN025 OVC100 M08/M10 A2950 RMK SF2SC2AC2 SLP049=

CYQF;2006-01-15 03:00;METAR CYQF 150300Z 32003KT 8SM FEW007 OVC100 M08/M11 A2951 RMK SF2AC6 BR SLP056=

CYQF;2006-01-15 04:00;METAR CYQF 150400Z 03005KT 10SM OVC090 M08/M10 A2952 RMK AS7 SLP057=

CYQF;2006-01-15 05:00;METAR CYQF 150500Z 35003KT 10SM BKN090 OVC240 M08/M11 A2951 RMK AC5CS2 SLP056=

CYQF;2006-01-15 06:00;METAR CYQF 150600Z 00000KT 6SM BR SCT090 OVC240 M08/M11 A2954 RMK AC4CS3 SLP061=

CYQF;2006-01-15 07:00;METAR CYQF 150700Z 00000KT 6SM BR SCT090 OVC240 M08/M11 A2953 RMK AC3CS3 SLP060=

CYQF;2006-01-15 08:00;METAR CYQF 150800Z 29003KT 6SM BR BKN090 OVC240 M09/M13 A2955 RMK AC5CS2 SLP064=

CYQF;2006-01-15 09:00;METAR CYQF 150900Z 00000KT 10SM BKN090 OVC240 M09/M12 A2956 RMK AC6CS2 SLP065=

CYQF;2006-01-15 10:00;METAR CYQF 151000Z 00000KT 12SM BKN090 OVC240 M08/M11 A2957 RMK AC6CS2 SLP069=

CYQF;2006-01-15 11:00;METAR CYQF 151100Z 00000KT 12SM BKN090 OVC240 M08/M11 A2958 RMK AC6CS2 SLP073=

CYQF;2006-01-15 12:00;METAR CYQF 151200Z 00000KT 12SM BKN090 OVC240 M08/M11 A2958 RMK AC5CS2 SLP074=

CYQF;2006-01-15 13:00;METAR CYQF 151300Z 00000KT 12SM BKN090 OVC240 M08/M11 A2962 RMK AC5CI2 SLP084=

CYQF;2006-01-15 14:00;METAR CYQF 151400Z 00000KT 12SM BKN090 OVC240 M08/M12 A2963 RMK AC5CI2 SLP088=

CYQF;2006-01-15 14:55;SPECI CYQF 151455Z 00000KT 10SM BKN005 OVC090 RMK ST6AC2=

CYQF;2006-01-15 15:00;METAR CYQF 151500Z 00000KT 10SM BKN005 OVC090 M07/M10 A2965 RMK ST6AC2 SLP095=

CYQF;2006-01-15 15:24;SPECI CYQF 151524Z 31007KT 2SM -SN OVC005 RMK SN2SC6=

CYQF;2006-01-15 16:00;METAR CYQF 151600Z 27003KT 4SM BR BKN011 OVC080 M05/M08 A2967 RMK SC7AC1 SLP101=

CYQF;2006-01-15 17:00;METAR CYQF 151700Z 31010KT 8SM BKN012 OVC080 M02/M06 A2969 RMK SC7AC1 BR SLP106=

CYQF;2006-01-15 18:00;METAR CYQF 151800Z 30009KT 15SM SCT012 BKN025 OVC250 M03/M06 A2970 RMK SC3SC4CI0 SLP109=

CYQF;2006-01-15 19:00;METAR CYQF 151900Z 29006KT 15SM FEW012 SCT150 BKN250 M02/M05 A2972 RMK SC2AC2CI0 SLP113=

CYQF;2006-01-15 19:40;SPECI CYQF 151940Z 32008KT 15SM BKN009 BKN025 OVC150 RMK SC6SC2AC1=

CYQF;2006-01-15 20:00;METAR CYQF 152000Z 30008KT 15SM BKN010 BKN025 OVC150 M02/M06 A2973 RMK SC6SC1AC1 SLP116=

CYQF;2006-01-15 21:00;METAR CYQF 152100Z 30006KT 15SM SCT012 BKN025 BKN150 BKN250 M01/M05 A2974 RMK SC3SC3AC1CI0 SLP119=

CYQF;2006-01-15 22:00;METAR CYQF 152200Z 32005KT 15SM FEW012 FEW025 SCT250 M01/M05 A2976 RMK SC1SC1CI0 SLP126=

CYQF;2006-01-15 23:00;METAR CYQF 152300Z 32003KT 15SM FEW025 FEW250 M02/M06 A2978 RMK SC1CI0 SLP133=

CYQF;2006-01-16 01:00;METAR CYQF 160100Z 22003KT 15SM BKN070 M07/M09 A2981 RMK AC6 VIRGA SLP152=

CYQF;2006-01-16 02:00;METAR CYQF 160200Z 23006KT 15SM BKN080 M07/M10 A2983 RMK AC6 SLP157=

CYQF;2006-01-16 03:00;METAR CYQF 160300Z 19005KT 15SM SCT040 OVC080 M05/M09 A2983 RMK SC4AC3 VIRGA SLP154=

CYQF;2006-01-16 03:47;SPECI CYQF 160347Z 02007KT 10SM -SHSN BKN040 OVC080 RMK SC6AC2=

CYQF;2006-01-16 04:00;METAR CYQF 160400Z 01007KT 10SM -SHSN BKN040 OVC080 M02/M05 A2987 RMK SC6AC2 SLP167=

CYQF;2006-01-16 04:14;SPECI CYQF 160414Z 31010G15KT 1SM -SHSN VV008 RMK SN8=

CYQF;2006-01-16 05:00;METAR CYQF 160500Z 36006KT 1SM -SHSN VV008 M03/M06 A2989 RMK SN8 SLP174=

CYQF;2006-01-16 05:25;SPECI CYQF 160525Z 11003KT 15SM BKN075 RMK AC6=

CYQF;2006-01-16 06:00;METAR CYQF 160600Z 14002KT 15SM BKN080 M04/M07 A2988 RMK AC6 SLP167=

CYQF;2006-01-16 06:47;SPECI CYQF 160647Z 23005KT 2SM BR FEW080 RMK FG1AC1=

CYQF;2006-01-16 07:00;METAR CYQF 160700Z 24005KT 1SM BR FEW080 M08/M12 A2990 RMK FG2AC1 SLP172=

CYQF;2006-01-16 08:00;METAR CYQF 160800Z 23008KT 1 1/2SM BR SCT080 M10/M12 A2991 RMK FG1AC2 SLP175=

CYQF;2006-01-16 09:00;METAR CYQF 160900Z 19003KT 1/2SM FZFG SKC M13/M15 A2992 RMK FG3 SLP189=

CYQF;2006-01-16 10:00;METAR CYQF 161000Z 00000KT 1/2SM FZFG SKC M16/M18 A2994 RMK FG4 SLP194=

CYQF;2006-01-16 11:00;METAR CYQF 161100Z 20004KT 1/4SM FZFG SKC M17/M19 A2994 RMK FG5 SLP195=

CYQF;2006-01-16 12:00;METAR CYQF 161200Z 18004KT 1/4SM FZFG SKC M16/M18 A2993 RMK FG6 SLP203=

CYQF;2006-01-16 12:31;SPECI CYQF 161231Z 19003KT 3/4SM BR SKC RMK FG2 VIS S 1/4=

CYQF;2006-01-16 13:00;METAR CYQF 161300Z 19003KT 1/2SM FZFG SKC M18/M21 A2992 RMK FG3 VIS S 1/4 SLP200=

CYQF;2006-01-16 14:00;METAR CYQF 161400Z 20003KT 3/4SM BR SKC M19/M22 A2993 RMK FG2 SLP203=

CYQF;2006-01-16 14:14;SPECI CYQF 161414Z 00000KT 10SM BCFG SCT001 RMK SF1=

CYQF;2006-01-16 15:00;METAR CYQF 161500Z 00000KT 10SM BCFG FEW001 M20/M23 A2993 RMK SF1 SLP202=

CYQF;2006-01-16 16:00;METAR CYQF 161600Z 20002KT 15SM SKC M20/M22 A2993 RMK SLP204=

CYQF;2006-01-16 17:00;METAR CYQF 161700Z 00000KT 15SM FEW100 M18/M21 A2993 RMK AC1 SLP202=

CYQF;2006-01-16 18:00;METAR CYQF 161800Z 00000KT 15SM FEW100 M14/M16 A2991 RMK AC1 SLP189=

CYQF;2006-01-16 19:00;METAR CYQF 161900Z 00000KT 15SM FEW100 SCT250 M10/M11 A2990 RMK AC1CI1 SLP185=

CYQF;2006-01-16 20:00;METAR CYQF 162000Z 00000KT 15SM FEW100 FEW250 M08/M10 A2987 RMK AC1CI0 SLP178=

CYQF;2006-01-16 21:00;METAR CYQF 162100Z 00000KT 15SM FEW100 SCT250 M07/M09 A2985 RMK AC1CI1 SLP172=

CYQF;2006-01-16 22:00;METAR CYQF 162200Z 00000KT 15SM FEW100 FEW250 M05/M09 A2985 RMK AC1CI1 TR AC SLP170=

CYQF;2006-01-16 23:00;METAR CYQF 162300Z 00000KT 15SM FEW100 BKN250 M08/M12 A2984 RMK AC1CI1 SLP167=

CYQF;2006-01-17 00:00;METAR CYQF 170000Z 00000KT 15SM FEW120 SCT250 M09/M13 A2984 RMK AC1CI1 SLP172=

CYQF;2006-01-17 01:00;METAR CYQF 170100Z 15003KT 15SM FEW100 M09/M13 A2982 RMK AC2 SLP168=

CYQF;2006-01-17 02:00;METAR CYQF 170200Z 18002KT 15SM SCT120 M12/M15 A2981 RMK AC2 SLP164=

CYQF;2006-01-17 03:00;METAR CYQF 170300Z 00000KT 15SM BKN120 M13/M17 A2979 RMK AC5 SLP166=

CYQF;2006-01-17 04:00;METAR CYQF 170400Z 00000KT 15SM BKN120 M12/M16 A2977 RMK AC6 SLP160=

CYQF;2006-01-17 05:00;METAR CYQF 170500Z 13002KT 15SM BKN120 M09/M13 A2975 RMK AC4 SLP153=

CYQF;2006-01-17 06:00;METAR CYQF 170600Z 16007KT 15SM BKN120 OVC250 M08/M12 A2973 RMK AC5CI2 SLP129=

CYQF;2006-01-17 08:00;METAR CYQF 170800Z 16006KT 15SM BKN100 OVC250 M06/M11 A2962 RMK AC6CI2 PRESFR SLP096=

CYQF;2006-01-17 09:00;METAR CYQF 170900Z 15006KT 15SM BKN100 OVC250 M04/M10 A2958 RMK AC6CI2 SLP068=

CYQF;2006-01-17 10:00;METAR CYQF 171000Z 17007KT 15SM SCT030 OVC090 M04/M09 A2956 RMK SC4AC4 SLP059=

CYQF;2006-01-17 11:00;METAR CYQF 171100Z 15006KT 15SM SCT030 OVC090 M04/M09 A2951 RMK SC3AC5 SLP044=

CYQF;2006-01-17 12:00;METAR CYQF 171200Z 15008KT 15SM FEW030 SCT090 OVC250 M05/M09 A2948 RMK SC2AC1CI3 SLP034=

CYQF;2006-01-17 13:00;METAR CYQF 171300Z 18007KT 15SM FEW030 FEW090 BKN250 M05/M10 A2947 RMK SC1AC1CI1 SLP032=

CYQF;2006-01-17 14:00;METAR CYQF 171400Z 19008KT 15SM FEW040 SCT250 M08/M11 A2945 RMK SC1CI1 SLP024=

CYQF;2006-01-17 15:00;METAR CYQF 171500Z 23011KT 15SM FEW040 FEW250 M04/M10 A2943 RMK SC1CI1 SLP022=

CYQF;2006-01-17 16:00;METAR CYQF 171600Z 24008KT 15SM FEW040 SCT250 M07/M12 A2945 RMK SC2CI0 SLP027=

CYQF;2006-01-17 17:00;METAR CYQF 171700Z 12004KT 15SM FEW040 SCT250 M04/M10 A2946 RMK SC2CI1 SLP030=

CYQF;2006-01-17 18:00;METAR CYQF 171800Z 21003KT 15SM FEW040 SCT250 M00/M09 A2946 RMK SC2CI1 SLP023=

CYQF;2006-01-17 19:00;METAR CYQF 171900Z 24007KT 15SM SCT040 02/M06 A2946 RMK SC2 SLP021=

CYQF;2006-01-17 20:00;METAR CYQF 172000Z 22005KT 15SM FEW040 05/M05 A2945 RMK SC2 SLP019=

CYQF;2006-01-17 21:00;METAR CYQF 172100Z 23003KT 15SM FEW040 05/M06 A2945 RMK SC1 SLP007=

CYQF;2006-01-17 22:00;METAR CYQF 172200Z 26005KT 15SM FEW040 06/M06 A2944 RMK SC1 SLP006=

CYQF;2006-01-17 23:00;METAR CYQF 172300Z 25003KT 15SM FEW040 06/M08 A2945 RMK SC1 SLP007=

CYQF;2006-01-18 00:00;METAR CYQF 180000Z 24004KT 15SM FEW040 01/M09 A2946 RMK SC1 SLP014=

CYQF;2006-01-18 01:00;METAR CYQF 180100Z 20002KT 15SM FEW100 M03/M11 A2945 RMK AC1 SLP013=

CYQF;2006-01-18 03:00;METAR CYQF 180300Z 22006KT 15SM SKC M09/M15 A2945 RMK SLP024=

CYQF;2006-01-18 04:00;METAR CYQF 180400Z 22007KT 15SM FEW090 M08/M15 A2945 RMK AC2 SLP024=

CYQF;2006-01-18 05:00;METAR CYQF 180500Z 19003KT 15SM SCT090 BKN250 M06/M14 A2945 RMK AC3CI0 SLP022=

CYQF;2006-01-18 06:00;METAR CYQF 180600Z 18005KT 15SM FEW090 BKN250 M10/M16 A2943 RMK AC2CI1 SLP014=

CYQF;2006-01-18 07:00;METAR CYQF 180700Z 22004KT 15SM FEW090 SCT250 M09/M15 A2943 RMK AC2CI1 SLP013=

CYQF;2006-01-18 08:00;METAR CYQF 180800Z 19005KT 15SM SCT250 M11/M17 A2943 RMK CI2 SLP013=

CYQF;2006-01-18 09:00;METAR CYQF 180900Z 19006KT 15SM FEW250 M10/M16 A2944 RMK CI1 SLP011=

CYQF;2006-01-18 10:00;METAR CYQF 181000Z 19005KT 15SM SCT100 BKN250 M12/M17 A2945 RMK AC2CI1 SLP014=

CYQF;2006-01-18 11:00;METAR CYQF 181100Z 18004KT 15SM FEW100 BKN250 M09/M15 A2945 RMK AC2CI2 SLP015=

CYQF;2006-01-18 12:00;METAR CYQF 181200Z 18006KT 15SM FEW100 BKN250 M10/M15 A2946 RMK AC1CI2 SLP022=

CYQF;2006-01-18 13:00;METAR CYQF 181300Z 18003KT 15SM FEW100 BKN250 M09/M15 A2946 RMK AC2CI2 SLP024=

CYQF;2006-01-18 14:00;METAR CYQF 181400Z 20005KT 15SM SCT100 OVC250 M08/M13 A2948 RMK AC3CI3 SLP028=

CYQF;2006-01-18 16:00;METAR CYQF 181600Z 20004KT 15SM SCT100 BKN250 M06/M11 A2951 RMK AC4CI2 SLP047=

CYQF;2006-01-18 17:00;METAR CYQF 181700Z 21002KT 15SM SCT080 BKN250 M05/M11 A2954 RMK AC4CI2 SLP056=

CYQF;2006-01-18 18:00;METAR CYQF 181800Z 20003KT 15SM BKN060 BKN250 M03/M10 A2955 RMK SC6CI1 SLP058=

CYQF;2006-01-18 19:00;METAR CYQF 181900Z 24004KT 15SM SCT060 BKN250 M02/M10 A2956 RMK SC4CI2 SLP060=

CYQF;2006-01-18 20:00;METAR CYQF 182000Z 00000KT 15SM SCT060 BKN250 02/M08 A2956 RMK SC4CI2 VIRGA ALQDS SLP062=

CYQF;2006-01-18 21:00;METAR CYQF 182100Z 27007KT 15SM BKN060 BKN250 02/M07 A2956 RMK SC5CI2 VIRGA ALQDS SLP058=

CYQF;2006-01-18 22:00;METAR CYQF 182200Z 24004KT 15SM BKN060 BKN250 02/M06 A2957 RMK SC5CI1 SLP060=

CYQF;2006-01-18 23:00;METAR CYQF 182300Z 27005KT 15SM BKN060 BKN250 01/M06 A2959 RMK SC5CI1 VIRGA W SLP067=

CYQF;2006-01-19 00:00;METAR CYQF 190000Z 25003KT 15SM BKN060 BKN250 00/M06 A2962 RMK SC6CI1 VIRGA S-NW SLP080=

CYQF;2006-01-19 01:00;METAR CYQF 190100Z 24007KT 15SM BKN030 OVC060 M00/M06 A2964 RMK SC5SC3 VIRGA ALQDS SLP084=

CYQF;2006-01-19 02:00;METAR CYQF 190200Z 33007KT 15SM -SN SCT030 BKN060 OVC250 M02/M06 A2966 RMK SC3SC2CI1 SLP092=

CYQF;2006-01-19 02:37;SPECI CYQF 190237Z 35010KT 15SM BKN030 BKN060 OVC250 RMK SC5SC2CI1 VIRGA=

CYQF;2006-01-19 02:52;SPECI CYQF 190252Z 01010KT 15SM -SN BKN030 OVC060 RMK SC6SC2=

CYQF;2006-01-19 03:00;METAR CYQF 190300Z 02008KT 15SM -SN SCT018 BKN028 OVC060 M04/M07 A2970 RMK SC3SC3SC2 SLP109=

CYQF;2006-01-19 03:48;SPECI CYQF 190348Z 05002KT 15SM FEW018 SCT028 BKN060 BKN250 RMK SC2SC2SC2CI1=

CYQF;2006-01-19 04:00;METAR CYQF 190400Z 34004KT 15SM SCT028 BKN080 BKN250 M06/M09 A2973 RMK SC3AC2CI1 SLP118=

CYQF;2006-01-19 04:50;SPECI CYQF 190450Z 33003KT 15SM -SN BKN010 OVC030 RMK SC6SC2=

CYQF;2006-01-19 05:00;METAR CYQF 190500Z 32002KT 12SM -SN BKN010 OVC030 M06/M09 A2975 RMK SC6SC2 SLP124=

CYQF;2006-01-19 06:00;METAR CYQF 190600Z 34004KT 12SM -SN SCT010 BKN030 OVC070 M07/M10 A2977 RMK SC4SC2AC2 SLP133=

CYQF;2006-01-19 06:12;SPECI CYQF 190612Z 33003KT 1SM -SN VV006 RMK SN8=

CYQF;2006-01-19 06:30;SPECI CYQF 190630Z 32005KT 2SM -SN BKN008 OVC025 RMK SN2SC4SC2=

CYQF;2006-01-19 07:00;METAR CYQF 190700Z 34005KT 3SM -SN SCT008 BKN025 OVC070 M08/M11 A2978 RMK SC3SC3AC2 SLP136=

CYQF;2006-01-19 08:00;METAR CYQF 190800Z 36005KT 5SM -SN OVC050 M08/M12 A2979 RMK SC8 SLP137=

CYQF;2006-01-19 09:00;METAR CYQF 190900Z 00000KT 6SM -SN OVC050 M09/M12 A2980 RMK SC8 SLP138=

CYQF;2006-01-19 10:00;METAR CYQF 191000Z 28002KT 4SM -SN OVC050 M09/M13 A2982 RMK SC8 SLP143=

CYQF;2006-01-19 11:00;METAR CYQF 191100Z 00000KT 3SM -SN OVC050 M09/M12 A2981 RMK SC8 SLP142=

CYQF;2006-01-19 12:00;METAR CYQF 191200Z 00000KT 6SM -SN OVC050 M09/M13 A2981 RMK SC8 SLP145=

CYQF;2006-01-19 12:42;SPECI CYQF 191242Z 00000KT 10SM -SN BKN006 OVC050 RMK SF6SC2=

CYQF;2006-01-19 13:00;METAR CYQF 191300Z 00000KT 15SM -SN BKN005 OVC050 M10/M13 A2980 RMK SF7SC1 SLP142=

CYQF;2006-01-19 14:00;METAR CYQF 191400Z 00000KT 4SM -SN OVC005 M09/M12 A2981 RMK SF8 SLP143=

CYQF;2006-01-19 14:50;SPECI CYQF 191450Z 36007KT 1 1/2SM -SN VV005 RMK SN8=

CYQF;2006-01-19 15:00;METAR CYQF 191500Z 36006KT 2SM -SN BKN050 BKN120 M09/M13 A2983 RMK SN3SC2AC2 /S01/ SLP157=

CYQF;2006-01-19 15:07;SPECI CYQF 191507Z 36005KT 3SM -SN BKN050 BKN120 RMK SC5AC2=

CYQF;2006-01-19 15:25;SPECI CYQF 191525Z 05005KT 1 1/2SM -SN OVC050 RMK SN3SC5=

CYQF;2006-01-19 16:00;METAR CYQF 191600Z 00000KT 2SM -SN OVC050 M10/M13 A2984 RMK SN3SC4 SLP158=

CYQF;2006-01-19 16:42;SPECI CYQF 191642Z 20003KT 3SM -SN OVC050 RMK SC8=

CYQF;2006-01-19 17:00;METAR CYQF 191700Z 20003KT 2SM -SN BKN050 M09/M13 A2984 RMK SC6 SLP158=

CYQF;2006-01-19 17:10;SPECI CYQF 191710Z 21005KT 4SM -SN BKN050 RMK SC6=

CYQF;2006-01-19 17:49;SPECI CYQF 191749Z 21003KT 10SM SCT050 BKN100 RMK SC4AC2=

CYQF;2006-01-19 18:00;METAR CYQF 191800Z 20004KT 10SM SCT050 BKN100 M08/M12 A2982 RMK SC4AC2 SLP154=

CYQF;2006-01-19 18:10;SPECI CYQF 191810Z 21005KT 10SM -SHSN SCT050 BKN100 RMK SC4AC2 VIS N LWR=

CYQF;2006-01-19 18:42;SPECI CYQF 191842Z 21006KT 15SM FEW050 SCT100 BKN250 RMK SC2AC2CI1=

CYQF;2006-01-19 19:00;METAR CYQF 191900Z 23007KT 15SM FEW050 SCT100 BKN250 M08/M11 A2980 RMK SC2AC2CI1 SLP149=

CYQF;2006-01-19 20:00;METAR CYQF 192000Z 22004KT 15SM FEW050 SCT100 BKN250 M06/M10 A2980 RMK SC2AC2CI1 SLP147=

CYQF;2006-01-19 21:00;METAR CYQF 192100Z 23005KT 15SM FEW050 FEW100 SCT250 M05/M10 A2979 RMK SC1AC1CI1 SLP142=

CYQF;2006-01-19 22:00;METAR CYQF 192200Z 19004KT 15SM FEW050 FEW100 SCT250 M05/M09 A2978 RMK SC1AC1CI1 SLP139=

CYQF;2006-01-19 23:00;METAR CYQF 192300Z 00000KT 15SM FEW040 FEW100 SCT250 M06/M10 A2979 RMK SC2AC1CI0 SLP143=

CYQF;2006-01-20 00:00;METAR CYQF 200000Z 17005KT 15SM FEW040 FEW100 SCT250 M08/M11 A2979 RMK SC2AC1CI1 SLP148=

CYQF;2006-01-20 00:41;SPECI CYQF 200041Z 18007KT 1SM BR SCT040 OVC100 RMK FG2SC2AC3=

CYQF;2006-01-20 00:46;SPECI CYQF 200046Z 18008KT 1/2SM FZFG OVC040 RMK FG6SC2=

CYQF;2006-01-20 01:00;METAR CYQF 200100Z 18007KT 1/2SM FZFG OVC012 M11/M14 A2979 RMK FG7SC1 SLP147=

CYQF;2006-01-20 01:21;SPECI CYQF 200121Z 17004KT 1/4SM FZFG VV003 RMK FG8=

CYQF;2006-01-20 01:51;SPECI CYQF 200151Z 19005KT 1/8SM FZFG VV001 RMK FG8=

CYQF;2006-01-20 02:00;METAR CYQF 200200Z 19005KT 1/8SM FZFG VV001 M09/M12 A2979 RMK FG8 SLP148=

CYQF;2006-01-20 03:00;METAR CYQF 200300Z 20002KT 1/8SM FZFG SKC M11/M13 A2979 RMK FG7 SLP149=

CYQF;2006-01-20 03:49;SPECI CYQF 200349Z 18005KT 1/4SM FZFG SKC RMK FG5=

CYQF;2006-01-20 04:00;METAR CYQF 200400Z 19005KT 1/2SM FZFG SCT040 M13/M15 A2978 RMK FG3SC1 SLP148=

CYQF;2006-01-20 04:30;SPECI CYQF 200430Z 22003KT 3SM BR SCT040 BKN080 RMK FG2SC2AC2 VSBY LWR SW=

CYQF;2006-01-20 05:00;METAR CYQF 200500Z 00000KT 3SM BR SCT040 BKN080 M14/M15 A2978 RMK FG2SC2AC2 SLP148=

CYQF;2006-01-20 06:00;METAR CYQF 200600Z 00000KT 1/2SM FZFG BKN040 BKN080 M16/M16 A2979 RMK FG4SC2AC1 SLP153=

CYQF;2006-01-20 06:45;SPECI CYQF 200645Z 00000KT 1/4SM FZFG BKN080 RMK FG4AC1=

CYQF;2006-01-20 07:00;METAR CYQF 200700Z 19002KT 1/2SM FZFG SKC M17/M19 A2978 RMK FG5 VIS VRB 1/4-3/4 SLP151=

CYQF;2006-01-20 08:00;METAR CYQF 200800Z 20003KT 1/2SM FZFG SKC M18/M20 A2978 RMK FG3 VIS VRB 1/4-3/4 SLP151=

CYQF;2006-01-20 09:00;METAR CYQF 200900Z 19004KT 1/2SM FZFG SKC M18/M20 A2977 RMK FG3 SLP147=

CYQF;2006-01-20 09:35;SPECI CYQF 200935Z 18004KT 2SM BR SKC RMK FG2=

CYQF;2006-01-20 10:00;METAR CYQF 201000Z 18003KT 1 3/4SM BR SKC M18/M20 A2977 RMK FG2 VIS S 3 SLP148=

CYQF;2006-01-20 10:25;SPECI CYQF 201025Z 18004KT 3SM BR SKC RMK FG2=

CYQF;2006-01-20 11:00;METAR CYQF 201100Z 18004KT 4SM BR SKC M18/M20 A2977 RMK SLP146=

CYQF;2006-01-20 12:00;METAR CYQF 201200Z 18003KT 6SM BR SKC M18/M20 A2976 RMK SLP148=

CYQF;2006-01-20 13:00;METAR CYQF 201300Z 18002KT 10SM SKC M18/M20 A2976 RMK SLP146=

CYQF;2006-01-20 14:00;METAR CYQF 201400Z 30002KT 10SM SKC M18/M20 A2976 RMK SLP147=

CYQF;2006-01-20 15:00;METAR CYQF 201500Z 30002KT 10SM SCT250 M19/M21 A2975 RMK CI2 SLP147=

CYQF;2006-01-20 16:00;METAR CYQF 201600Z 21003KT 15SM BKN250 M19/M22 A2976 RMK CI4 SLP150=

CYQF;2006-01-20 17:00;METAR CYQF 201700Z 24003KT 15SM FEW100 BKN230 M16/M18 A2977 RMK AC2CI3 SLP153=

CYQF;2006-01-20 18:00;METAR CYQF 201800Z 00000KT 15SM FEW100 BKN230 M14/M16 A2976 RMK AC2CI2 SLP152=

CYQF;2006-01-20 19:00;METAR CYQF 201900Z 00000KT 15SM FEW100 BKN230 M13/M15 A2976 RMK AC2CI3 SLP150=

CYQF;2006-01-20 20:00;METAR CYQF 202000Z 00000KT 15SM BKN090 OVC230 M12/M13 A2976 RMK AC5CI2 SLP149=

CYQF;2006-01-20 21:00;METAR CYQF 202100Z 00000KT 15SM BKN090 OVC230 M10/M12 A2974 RMK AC5CI2 SLP143=

CYQF;2006-01-20 22:00;METAR CYQF 202200Z 00000KT 15SM FEW040 BKN090 OVC230 M10/M11 A2975 RMK SC2AC4CI1 SLP146=

CYQF;2006-01-20 23:00;METAR CYQF 202300Z 27003KT 15SM FEW030 BKN080 OVC230 M09/M11 A2978 RMK SC2AC5CI1 VIRGA SLP155=

CYQF;2006-01-21 00:00;METAR CYQF 210000Z 06003KT 15SM FEW035 OVC080 M09/M11 A2979 RMK SC2AC6 SLP157=

CYQF;2006-01-21 00:42;SPECI CYQF 210042Z 04003KT 10SM -SN SCT035 OVC080 RMK SC3AC5=

CYQF;2006-01-21 01:00;METAR CYQF 210100Z 06003KT 10SM -SN SCT035 OVC080 M09/M12 A2979 RMK SC3AC5 SLP159=

CYQF;2006-01-21 03:00;METAR CYQF 210300Z 35003KT 6SM -SN SCT030 OVC060 M09/M12 A2982 RMK SC3SC5 SLP168=

CYQF;2006-01-21 04:00;METAR CYQF 210400Z 00000KT 6SM -SN SCT030 OVC060 M09/M12 A2983 RMK SC3SC5 SLP173=

CYQF;2006-01-21 05:00;METAR CYQF 210500Z 00000KT 6SM -SN FEW030 BKN075 M09/M12 A2985 RMK SC2AC4 SLP178=

CYQF;2006-01-21 06:00;METAR CYQF 210600Z 00000KT 6SM -SN FEW030 BKN075 M10/M13 A2986 RMK SC2AC3 SLP179=

CYQF;2006-01-21 07:00;METAR CYQF 210700Z 20003KT 6SM -SN FEW030 OVC075 M11/M13 A2987 RMK SC2AC6 SLP182=

CYQF;2006-01-21 08:00;METAR CYQF 210800Z 22003KT 10SM -SN BKN040 BKN080 M10/M13 A2987 RMK SC6AC2 SLP181=

CYQF;2006-01-21 08:29;SPECI CYQF 210829Z 19003KT 15SM BKN040 RMK SC6=

CYQF;2006-01-21 09:00;METAR CYQF 210900Z 19003KT 15SM FEW040 SCT080 M12/M15 A2987 RMK SC2AC2 SLP180=

CYQF;2006-01-21 10:00;METAR CYQF 211000Z 18003KT 6SM BR SCT100 M15/M18 A2987 RMK AC2 SLP182=

CYQF;2006-01-21 11:00;METAR CYQF 211100Z 19003KT 6SM BR BKN100 M14/M16 A2988 RMK AC5 SLP184=

CYQF;2006-01-21 12:00;METAR CYQF 211200Z 20003KT 15SM BKN100 M12/M14 A2988 RMK AC6 SLP182=

CYQF;2006-01-21 13:00;METAR CYQF 211300Z 22002KT 15SM FEW040 BKN100 M12/M14 A2989 RMK SC2AC4 SLP185=

CYQF;2006-01-21 14:00;METAR CYQF 211400Z 20002KT 15SM FEW040 BKN100 M11/M13 A2990 RMK SC2AC4 SLP190=

CYQF;2006-01-21 15:00;METAR CYQF 211500Z 20004KT 15SM FEW090 M14/M16 A2991 RMK AC2 SLP196=

CYQF;2006-01-21 16:00;METAR CYQF 211600Z 19004KT 15SM FEW090 FEW250 M14/M17 A2994 RMK AC1CI0 SLP204=

CYQF;2006-01-21 17:00;METAR CYQF 211700Z 21004KT 15SM FEW100 M16/M18 A2996 RMK AC1 SLP212=

CYQF;2006-01-21 18:00;METAR CYQF 211800Z 21002KT 15SM SKC M11/M13 A2998 RMK SLP218=

CYQF;2006-01-21 19:00;METAR CYQF 211900Z 25003KT 15SM SKC M10/M13 A2999 RMK SLP221=

CYQF;2006-01-21 20:00;METAR CYQF 212000Z 00000KT 15SM FEW100 M08/M12 A3000 RMK AC1 SLP223=

CYQF;2006-01-21 21:00;METAR CYQF 212100Z 00000KT 15SM SKC M06/M11 A3000 RMK SLP221=

CYQF;2006-01-21 22:00;METAR CYQF 212200Z 00000KT 15SM FEW250 M06/M11 A3000 RMK CI0 SLP220=

CYQF;2006-01-21 23:00;METAR CYQF 212300Z 19003KT 15SM FEW250 M07/M12 A3001 RMK CI0 SLP223=

CYQF;2006-01-22 00:00;METAR CYQF 220000Z 19003KT 15SM FEW250 M10/M14 A3002 RMK CI1 SLP232=

CYQF;2006-01-22 01:00;METAR CYQF 220100Z 19005KT 15SM FEW250 M13/M16 A3003 RMK CI1 SLP234=

CYQF;2006-01-22 02:00;METAR CYQF 220200Z 20005KT 15SM FEW250 M13/M17 A3003 RMK CI1 SLP235=

CYQF;2006-01-22 03:00;METAR CYQF 220300Z 20007KT 15SM BKN250 M14/M18 A3003 RMK CI2 SLP242=

CYQF;2006-01-22 04:00;METAR CYQF 220400Z 20006KT 15SM SCT250 M13/M17 A3003 RMK CI2 SLP242=

CYQF;2006-01-22 05:00;METAR CYQF 220500Z 20006KT 15SM BKN250 M14/M18 A3001 RMK CI2 SLP237=

CYQF;2006-01-22 06:00;METAR CYQF 220600Z 19007KT 15SM SCT250 M11/M14 A3001 RMK CI2 SLP227=

CYQF;2006-01-22 07:00;METAR CYQF 220700Z 20007KT 15SM FEW250 M12/M16 A2999 RMK CI1 SLP222=

CYQF;2006-01-22 08:00;METAR CYQF 220800Z 20007KT 15SM SKC M13/M17 A2998 RMK SLP218=

CYQF;2006-01-22 09:00;METAR CYQF 220900Z 21005KT 15SM SKC M14/M18 A2997 RMK SLP213=

CYQF;2006-01-22 10:00;METAR CYQF 221000Z 20003KT 15SM SCT250 M17/M20 A2995 RMK CI2 SLP208=

CYQF;2006-01-22 11:00;METAR CYQF 221100Z 21003KT 15SM OVC230 M14/M17 A2993 RMK CI6 SLP202=

CYQF;2006-01-22 12:00;METAR CYQF 221200Z 20003KT 15SM FEW090 OVC220 M12/M16 A2995 RMK AC2CI6 SLP209=

CYQF;2006-01-22 13:00;METAR CYQF 221300Z 21004KT 15SM SCT090 BKN220 M13/M17 A2995 RMK AC4CI2 SLP206=

CYQF;2006-01-22 14:00;METAR CYQF 221400Z 23006KT 15SM FEW050 SCT090 BKN220 M13/M17 A2994 RMK SC1AC2CI1 SLP204=

CYQF;2006-01-22 15:00;METAR CYQF 221500Z 21004KT 15SM FEW050 SCT090 BKN220 M13/M17 A2992 RMK SC1AC2CI1 SLP204=

CYQF;2006-01-22 16:00;METAR CYQF 221600Z 18004KT 15SM SCT090 BKN250 M12/M16 A2991 RMK AC3CI1 SLP200=

CYQF;2006-01-22 17:00;METAR CYQF 221700Z 19004KT 15SM BKN090 BKN250 M09/M13 A2990 RMK AC5CI1 SLP196=

CYQF;2006-01-22 18:00;METAR CYQF 221800Z 22006KT 15SM SCT090 BKN250 M05/M11 A2989 RMK AC2CI1 SLP178=

CYQF;2006-01-22 19:00;METAR CYQF 221900Z 21005KT 15SM FEW090 BKN250 M02/M09 A2987 RMK AC1CI2 SLP172=

CYQF;2006-01-22 20:00;METAR CYQF 222000Z 19006KT 15SM FEW100 BKN250 00/M07 A2983 RMK AC1CI1 SLP161=

CYQF;2006-01-22 21:00;METAR CYQF 222100Z 17004KT 15SM BKN100 BKN250 01/M06 A2982 RMK AC6CI1 SLP151=

CYQF;2006-01-22 22:00;METAR CYQF 222200Z 18005KT 15SM BKN100 BKN250 03/M04 A2980 RMK AC7CI1 SLP145=

CYQF;2006-01-22 23:00;METAR CYQF 222300Z 18005KT 15SM FEW090 BKN120 03/M04 A2977 RMK AC1AC6 SLP138=

CYQF;2006-01-23 00:00;METAR CYQF 230000Z 18006KT 15SM BKN120 BKN250 02/M05 A2975 RMK AC6CI1 SLP123=

CYQF;2006-01-23 01:00;METAR CYQF 230100Z 22010KT 15SM BKN120 OVC250 03/M05 A2973 RMK AC6CI1 SLP118=

CYQF;2006-01-23 02:00;METAR CYQF 230200Z 21010KT 15SM OVC120 03/M05 A2970 RMK AC8 SLP109=

CYQF;2006-01-23 03:00;METAR CYQF 230300Z 20007KT 15SM OVC120 03/M05 A2967 RMK AC8 SLP096=

CYQF;2006-01-23 04:00;METAR CYQF 230400Z 22010KT 15SM OVC120 04/M05 A2966 RMK AC8 SLP094=

CYQF;2006-01-23 05:00;METAR CYQF 230500Z 18005KT 15SM OVC120 03/M05 A2963 RMK AC8 SLP085=

CYQF;2006-01-23 06:00;METAR CYQF 230600Z 21008KT 15SM OVC120 03/M05 A2962 RMK AC8 SLP069=

CYQF;2006-01-23 07:00;METAR CYQF 230700Z 23008KT 15SM SCT120 BKN250 03/M06 A2961 RMK AC4CI1 SLP066=

CYQF;2006-01-23 08:00;METAR CYQF 230800Z 23008KT 15SM FEW120 BKN250 M01/M08 A2960 RMK AC2CI2 SLP064=

CYQF;2006-01-23 09:00;METAR CYQF 230900Z 23008KT 15SM FEW100 BKN250 M00/M08 A2960 RMK AC1CI2 SLP061=

CYQF;2006-01-23 10:00;METAR CYQF 231000Z 24005KT 15SM FEW100 BKN250 M02/M09 A2961 RMK AC2CI3 SLP064=

CYQF;2006-01-23 11:00;METAR CYQF 231100Z 22006KT 15SM FEW100 BKN250 M03/M09 A2963 RMK AC1CI2 SLP069=

CYQF;2006-01-23 12:00;METAR CYQF 231200Z 27005KT 15SM FEW100 SCT250 M04/M10 A2964 RMK AC1CI1 SLP076=

CYQF;2006-01-23 13:00;METAR CYQF 231300Z 26002KT 15SM FEW100 BKN250 M05/M10 A2967 RMK AC1CI2 SLP086=

CYQF;2006-01-23 14:00;METAR CYQF 231400Z 30008KT 15SM SCT100 BKN250 02/M07 A2969 RMK AC2CI2 SLP093=

CYQF;2006-01-23 15:00;METAR CYQF 231500Z 28007KT 15SM SCT100 BKN250 02/M06 A2970 RMK AC3CI2 SLP091=

CYQF;2006-01-23 16:00;METAR CYQF 231600Z 27009KT 15SM FEW060 BKN100 BKN250 01/M07 A2972 RMK SC2AC4CI1 SLP095=

CYQF;2006-01-23 17:00;METAR CYQF 231700Z 31005KT 15SM FEW050 BKN090 BKN250 02/M06 A2976 RMK SC2AC4CI1 VIRGA NW SLP107=

CYQF;2006-01-23 18:00;METAR CYQF 231800Z 27004KT 15SM FEW050 BKN090 03/M05 A2978 RMK SC2AC6 VIRGA SLP116=

CYQF;2006-01-23 19:00;METAR CYQF 231900Z 05005KT 15SM SCT050 BKN090 BKN250 03/M04 A2980 RMK SC4AC2CI0 VIRGA SLP124=

CYQF;2006-01-23 20:00;METAR CYQF 232000Z 00000KT 15SM SCT050 BKN090 BKN250 03/M04 A2982 RMK SC3AC3CI1 VIRGA S-W SLP129=

CYQF;2006-01-23 21:00;METAR CYQF 232100Z 00000KT 15SM SCT050 BKN090 04/M03 A2984 RMK SC4AC2 SLP138=

CYQF;2006-01-23 22:00;METAR CYQF 232200Z 20002KT 15SM FEW050 SCT090 BKN250 04/M04 A2986 RMK SC2AC2CI0 SLP146=

CYQF;2006-01-23 23:00;METAR CYQF 232300Z 00000KT 15SM FEW050 SCT090 BKN250 03/M04 A2988 RMK SC1AC2CI1 SLP153=

CYQF;2006-01-24 00:00;METAR CYQF 240000Z 00000KT 15SM FEW050 SCT090 BKN250 01/M06 A2992 RMK SC1AC2CI1 SLP176=

CYQF;2006-01-24 01:00;METAR CYQF 240100Z 34008KT 15SM FEW050 BKN100 BKN250 03/M07 A2995 RMK SC2AC2CI2 SLP183=

CYQF;2006-01-24 02:00;METAR CYQF 240200Z 08004KT 15SM FEW050 BKN100 BKN250 M01/M05 A3002 RMK SC2AC3CI1 SLP205=

CYQF;2006-01-24 03:00;METAR CYQF 240300Z 07004KT 15SM FEW050 BKN100 OVC250 M01/M06 A3006 RMK SC2AC4CI1 SLP219=

CYQF;2006-01-24 04:00;METAR CYQF 240400Z 16003KT 6SM -SN SCT050 OVC100 M01/M06 A3007 RMK SC3AC5 SLP224=

CYQF;2006-01-24 04:24;SPECI CYQF 240424Z 00000KT 2SM -SN VV040 RMK SN8=

CYQF;2006-01-24 05:00;METAR CYQF 240500Z 18003KT 8SM -SN BKN050 BKN100 OVC250 M02/M05 A3008 RMK SC5AC2CI0 SLP226=

CYQF;2006-01-24 06:00;METAR CYQF 240600Z 16003KT 10SM -SN FEW050 BKN100 BKN250 M02/M05 A3008 RMK SC2AC2CI1 SLP228=

CYQF;2006-01-24 07:00;METAR CYQF 240700Z 17004KT 15SM FEW040 OVC075 M03/M06 A3008 RMK SC2AC6 SLP228=

CYQF;2006-01-24 08:00;METAR CYQF 240800Z 20007KT 15SM SCT045 BKN080 M03/M06 A3008 RMK SC3AC4 SLP227=

CYQF;2006-01-24 09:00;METAR CYQF 240900Z 19005KT 15SM FEW050 SCT090 M03/M07 A3007 RMK SC2AC2 SLP225=

CYQF;2006-01-24 10:00;METAR CYQF 241000Z 18005KT 15SM FEW090 M06/M09 A3007 RMK AC2 SLP225=

CYQF;2006-01-24 11:00;METAR CYQF 241100Z 20007KT 15SM FEW090 M06/M09 A3005 RMK AC2 SLP217=

CYQF;2006-01-24 12:00;METAR CYQF 241200Z 18004KT 15SM SKC M07/M10 A3003 RMK SLP217=

CYQF;2006-01-24 13:00;METAR CYQF 241300Z 19004KT 15SM SKC M06/M10 A3001 RMK SLP210=

CYQF;2006-01-24 14:00;METAR CYQF 241400Z 20007KT 15SM SKC M04/M09 A3000 RMK SLP207=

CYQF;2006-01-24 15:00;METAR CYQF 241500Z 18007KT 15SM FEW090 SCT240 M06/M10 A3000 RMK AC1CI1 SLP207=

CYQF;2006-01-24 16:00;METAR CYQF 241600Z 18006KT 15SM FEW090 BKN250 M08/M12 A3000 RMK AC2CI1 SLP208=

CYQF;2006-01-24 17:00;METAR CYQF 241700Z 19004KT 15SM FEW090 BKN250 M06/M10 A3000 RMK AC2CI2 SLP209=

CYQF;2006-01-24 18:00;METAR CYQF 241800Z 20003KT 15SM FEW090 BKN250 M02/M08 A3000 RMK AC2CI1 SLP205=

CYQF;2006-01-24 19:00;METAR CYQF 241900Z 18004KT 15SM FEW090 BKN250 02/M05 A2998 RMK AC1CI2 SLP200=

CYQF;2006-01-24 20:00;METAR CYQF 242000Z 18003KT 15SM FEW090 BKN250 05/M03 A2997 RMK AC2CI2 SLP197=

CYQF;2006-01-24 21:00;METAR CYQF 242100Z 19004KT 15SM FEW090 BKN250 06/M02 A2996 RMK AC2CI2 SLP183=

CYQF;2006-01-24 22:00;METAR CYQF 242200Z 18005KT 15SM FEW090 BKN250 04/M03 A2996 RMK AC2CI2 SLP182=

CYQF;2006-01-24 23:00;METAR CYQF 242300Z 18005KT 15SM SCT090 OVC250 02/M04 A2995 RMK AC4CI2 SLP179=

CYQF;2006-01-25 00:00;METAR CYQF 250000Z 15002KT 15SM BKN090 OVC250 04/M03 A2994 RMK AC5CI2 SLP181=

CYQF;2006-01-25 01:00;METAR CYQF 250100Z 15005KT 15SM BKN090 BKN250 03/M04 A2992 RMK AC5CI1 SLP177=

CYQF;2006-01-25 02:00;METAR CYQF 250200Z 16004KT 15SM BKN090 BKN250 02/M05 A2990 RMK AC5CI1 SLP170=

CYQF;2006-01-25 03:00;METAR CYQF 250300Z 18003KT 15SM BKN090 00/M06 A2988 RMK AC7 SLP164=

CYQF;2006-01-25 04:00;METAR CYQF 250400Z 18007KT 15SM BKN090 00/M05 A2987 RMK AC6 SLP161=

CYQF;2006-01-25 05:00;METAR CYQF 250500Z 18007KT 15SM BKN090 M00/M06 A2986 RMK AC7 SLP159=

CYQF;2006-01-25 06:00;METAR CYQF 250600Z 19005KT 15SM SCT090 M03/M07 A2984 RMK AC4 SLP148=

CYQF;2006-01-25 07:00;METAR CYQF 250700Z 00000KT 15SM BKN090 M02/M07 A2981 RMK AC6 SLP140=

CYQF;2006-01-25 08:00;METAR CYQF 250800Z 18005KT 15SM BKN090 M01/M06 A2978 RMK AC7 SLP130=

CYQF;2006-01-25 09:00;METAR CYQF 250900Z 34003KT 15SM BKN090 OVC250 M03/M08 A2975 RMK AC6CI2 SLP108=

CYQF;2006-01-25 10:00;METAR CYQF 251000Z 00000KT 15SM SCT090 OVC250 M02/M07 A2973 RMK AC4CI4 SLP103=

CYQF;2006-01-25 11:00;METAR CYQF 251100Z 17004KT 15SM SCT090 BKN250 M04/M08 A2971 RMK AC3CI4 SLP095=

CYQF;2006-01-25 12:00;METAR CYQF 251200Z 22002KT 15SM SCT090 BKN250 M01/M07 A2968 RMK AC3CI4 SLP087=

CYQF;2006-01-25 13:00;METAR CYQF 251300Z 00000KT 15SM SCT090 BKN250 M04/M08 A2967 RMK AC3CI4 SLP084=

CYQF;2006-01-25 14:00;METAR CYQF 251400Z 19003KT 15SM SCT090 BKN250 M04/M09 A2966 RMK AC3CI4 SLP079=

CYQF;2006-01-25 15:00;METAR CYQF 251500Z 20006KT 15SM SCT090 BKN250 M03/M09 A2965 RMK AC3CI3 SLP080=

CYQF;2006-01-25 16:00;METAR CYQF 251600Z 20010KT 15SM SCT090 BKN250 M03/M09 A2963 RMK AC4CI3 SLP075=

CYQF;2006-01-25 17:00;METAR CYQF 251700Z 21008KT 15SM SCT090 BKN250 M00/M08 A2961 RMK AC3CI4 SLP070=

CYQF;2006-01-25 18:00;METAR CYQF 251800Z 35003KT 15SM SCT090 BKN250 00/M07 A2960 RMK AC3CI4 SLP065=

CYQF;2006-01-25 19:00;METAR CYQF 251900Z 13003KT 15SM SCT100 BKN250 03/M06 A2956 RMK AC3CI3 SLP051=

CYQF;2006-01-25 20:00;METAR CYQF 252000Z 26005KT 15SM FEW100 BKN250 08/M05 A2953 RMK AC2CI3 SLP043=

CYQF;2006-01-25 21:00;METAR CYQF 252100Z 19008KT 15SM FEW100 BKN250 09/M04 A2951 RMK AC2CI3 SLP021=

CYQF;2006-01-25 22:00;METAR CYQF 252200Z 20012KT 15SM FEW100 BKN250 10/M03 A2950 RMK AC1CI2 SLP018=

CYQF;2006-01-25 23:00;METAR CYQF 252300Z 17010KT 15SM FEW100 SCT250 08/M03 A2949 RMK AC1CI2 SLP017=

CYQF;2006-01-26 00:00;METAR CYQF 260000Z 18008KT 15SM FEW100 BKN250 07/M04 A2948 RMK AC1CI2 SLP014=

CYQF;2006-01-26 01:00;METAR CYQF 260100Z 20012KT 15SM SCT100 BKN250 05/M05 A2946 RMK AC3CI1 SLP009=

CYQF;2006-01-26 02:00;METAR CYQF 260200Z 20011KT 15SM SCT100 BKN250 05/M05 A2945 RMK AC3CI2 SLP005=

CYQF;2006-01-26 03:00;METAR CYQF 260300Z 25006KT 15SM SCT100 BKN250 04/M05 A2945 RMK AC3CI2 SLP009=

CYQF;2006-01-26 04:00;METAR CYQF 260400Z 23009KT 15SM SCT100 BKN250 03/M06 A2944 RMK AC3CI2 SLP006=

CYQF;2006-01-26 05:00;METAR CYQF 260500Z 22010G15KT 15SM SCT100 BKN250 05/M06 A2944 RMK AC4CI2 SLP005=

CYQF;2006-01-26 06:00;METAR CYQF 260600Z 21007KT 15SM SCT100 SCT250 03/M06 A2944 RMK AC3CI1 SLP003=

CYQF;2006-01-26 07:00;METAR CYQF 260700Z 22007KT 15SM BKN100 BKN250 02/M06 A2944 RMK AC5CI2 SLP003=

CYQF;2006-01-26 08:00;METAR CYQF 260800Z 23005KT 15SM BKN100 OVC250 02/M07 A2943 RMK AC6CI2 SLP000=

CYQF;2006-01-26 09:00;METAR CYQF 260900Z 22007KT 15SM BKN100 OVC250 M02/M08 A2942 RMK AC6CI2 SLP992=

CYQF;2006-01-26 10:00;METAR CYQF 261000Z 21006KT 15SM SCT100 BKN250 M01/M08 A2942 RMK AC4CI1 SLP991=

CYQF;2006-01-26 11:00;METAR CYQF 261100Z 21008KT 15SM FEW100 BKN250 02/M08 A2940 RMK AC2CI1 SLP986=

CYQF;2006-01-26 12:00;METAR CYQF 261200Z 22008KT 15SM FEW100 SCT250 M02/M09 A2940 RMK AC2CI1 SLP985=

CYQF;2006-01-26 13:00;METAR CYQF 261300Z 26008KT 15SM BKN100 OVC250 M00/M08 A2939 RMK AC6CI1 SLP984=

CYQF;2006-01-26 14:00;METAR CYQF 261400Z 24011KT 15SM FEW100 SCT250 M03/M10 A2939 RMK AC2CI1 SLP983=

CYQF;2006-01-26 15:00;METAR CYQF 261500Z 24008KT 15SM FEW050 FEW100 SCT250 M01/M09 A2939 RMK SC1AC1CI0 SLP986=

CYQF;2006-01-26 16:00;METAR CYQF 261600Z 24005KT 15SM FEW050 SCT100 BKN250 M01/M09 A2947 RMK SC2AC2CI1 CB TOPS DIST NW SLP009=

CYQF;2006-01-26 17:00;METAR CYQF 261700Z 30008KT 15SM SCT050 BKN090 BKN250 00/M06 A2949 RMK SC3AC2CI1 CB DIST W+NW SLP015=

CYQF;2006-01-26 19:00;METAR CYQF 261900Z 09004KT 15SM FEW040 FEW250 02/M03 A2950 RMK SC1CI1 SLP023=

CYQF;2006-01-26 20:00;METAR CYQF 262000Z 00000KT 15SM FEW040 FEW250 04/M03 A2950 RMK SC1CI1 SLP023=

CYQF;2006-01-26 21:00;METAR CYQF 262100Z 08002KT 15SM FEW040 FEW250 04/M02 A2950 RMK SC1CI0 SLP024=

CYQF;2006-01-26 22:00;METAR CYQF 262200Z 16003KT 15SM FEW040 FEW250 04/M03 A2951 RMK SC1CI0 SLP027=

CYQF;2006-01-26 23:00;METAR CYQF 262300Z 13004KT 15SM FEW040 FEW250 04/M02 A2953 RMK SC1CI0 SLP032=

CYQF;2006-01-27 00:00;METAR CYQF 270000Z 16004KT 15SM FEW040 FEW250 03/M04 A2954 RMK SC1CI0 SLP039=

CYQF;2006-01-27 02:00;METAR CYQF 270200Z 18003KT 15SM FEW040 FEW100 M04/M07 A2957 RMK SC2AC1 SLP048=

CYQF;2006-01-27 03:00;METAR CYQF 270300Z 22005KT 15SM FEW040 SCT100 M05/M08 A2957 RMK SC2AC2 SLP058=

CYQF;2006-01-27 04:00;METAR CYQF 270400Z 00000KT 15SM FEW100 M04/M07 A2959 RMK AC1 SLP062=

CYQF;2006-01-27 05:00;METAR CYQF 270500Z 18005KT 15SM MIFG FEW100 FEW250 M07/M10 A2959 RMK AC1CI0 SLP064=

CYQF;2006-01-27 06:00;METAR CYQF 270600Z 20003KT 15SM FEW100 M08/M12 A2960 RMK AC1 SLP068=

CYQF;2006-01-27 07:00;METAR CYQF 270700Z 00000KT 15SM MIFG FEW100 M08/M11 A2961 RMK AC1 SLP071=

CYQF;2006-01-27 08:00;METAR CYQF 270800Z 00000KT 15SM FEW100 M09/M11 A2960 RMK AC1 SLP070=

CYQF;2006-01-27 09:00;METAR CYQF 270900Z 19004KT 15SM FEW100 M09/M12 A2960 RMK AC2 SLP069=

CYQF;2006-01-27 10:00;METAR CYQF 271000Z 20003KT 15SM FEW100 M11/M14 A2962 RMK AC2 SLP073=

CYQF;2006-01-27 11:00;METAR CYQF 271100Z 20004KT 15SM FEW100 M10/M14 A2962 RMK AC1 SLP075=

CYQF;2006-01-27 12:00;METAR CYQF 271200Z 18003KT 15SM FEW100 M12/M15 A2963 RMK AC1 SLP081=

CYQF;2006-01-27 13:00;METAR CYQF 271300Z 18002KT 15SM FEW100 M11/M14 A2963 RMK AC2 SLP080=

CYQF;2006-01-27 14:00;METAR CYQF 271400Z 00000KT 15SM FEW100 FEW250 M12/M16 A2962 RMK AC2CI0 SLP077=

CYQF;2006-01-27 15:00;METAR CYQF 271500Z 00000KT 15SM BKN100 BKN250 M12/M16 A2963 RMK AC5CI1 SLP089=

CYQF;2006-01-27 16:00;METAR CYQF 271600Z 21006KT 15SM BKN060 BKN100 BKN250 M11/M16 A2963 RMK SC5AC2CI0 SLP089=

CYQF;2006-01-27 17:00;METAR CYQF 271700Z 19002KT 15SM BKN060 BKN100 M09/M13 A2962 RMK SC5AC2 SLP087=

CYQF;2006-01-27 18:00;METAR CYQF 271800Z 00000KT 15SM BKN060 BKN100 BKN250 M08/M11 A2962 RMK SC5AC2CI0 SLP087=

CYQF;2006-01-27 19:00;METAR CYQF 271900Z 00000KT 15SM BKN070 BKN110 M06/M10 A2962 RMK AC5AC2 SLP087=

CYQF;2006-01-27 20:00;METAR CYQF 272000Z 35003KT 15SM SCT080 BKN120 M05/M09 A2961 RMK AC3AC3 SLP084=

CYQF;2006-01-27 21:00;METAR CYQF 272100Z 02003KT 12SM SCT120 OVC250 M03/M07 A2961 RMK AC3CI3 BR SLP078=

CYQF;2006-01-27 22:00;METAR CYQF 272200Z 36003KT 12SM FEW120 BKN250 M03/M07 A2961 RMK AC2CI2 HZ SLP079=

CYQF;2006-01-27 23:00;METAR CYQF 272300Z 36005KT 12SM FEW040 BKN250 M03/M08 A2962 RMK CU1CI2 HZ SLP083=

CYQF;2006-01-28 00:00;METAR CYQF 280000Z 36005KT 12SM FEW040 FEW120 BKN250 M05/M09 A2964 RMK CU1AC1CI1 HZ SLP093=

CYQF;2006-01-28 01:00;METAR CYQF 280100Z 01004KT 12SM FEW040 FEW120 SCT250 M07/M10 A2966 RMK SC1AC1CI1 HZ SLP099=

CYQF;2006-01-28 02:00;METAR CYQF 280200Z 36005KT 4SM BR FEW040 FEW250 M09/M11 A2967 RMK SC1CI0 SLP104=

CYQF;2006-01-28 02:25;SPECI CYQF 280225Z 01004KT 2SM BR FEW250 RMK FG2CI0=

CYQF;2006-01-28 02:40;SPECI CYQF 280240Z 33008KT 3/4SM BR SKC RMK FG5=

CYQF;2006-01-28 03:00;METAR CYQF 280300Z 35007KT 1/2SM FZFG SKC M10/M13 A2969 RMK FG6 SLP116=

CYQF;2006-01-28 03:44;SPECI CYQF 280344Z 34006KT 1/4SM FZFG VV003 RMK FG8 FROIN=

CYQF;2006-01-28 04:00;METAR CYQF 280400Z 34003KT 1/4SM FZFG VV003 M09/M12 A2970 RMK FG8 FROIN SLP120=

CYQF;2006-01-28 05:00;METAR CYQF 280500Z 32002KT 1/4SM FZFG VV003 M09/M11 A2970 RMK FG8 FROIN SLP120=

CYQF;2006-01-28 05:25;SPECI CYQF 280525Z 32002KT 1/4SM FZFG VV002 RMK FG8 FROIN=

CYQF;2006-01-28 06:00;METAR CYQF 280600Z 23004KT 1/4SM FZFG VV002 M10/M12 A2970 RMK FG8 FROIN SLP115=

CYQF;2006-01-28 06:29;SPECI CYQF 280629Z 20002KT 1/8SM FZFG VV001 RMK FG8 RIME ICE ON INDICATOR=

CYQF;2006-01-28 07:00;METAR CYQF 280700Z 00000KT 1/8SM FZFG VV001 M11/M13 A2970 RMK FG8 SLP116=

CYQF;2006-01-28 08:00;METAR CYQF 280800Z 00000KT 1/4SM FZFG VV002 M13/M13 A2969 RMK FG8 SLP114=

CYQF;2006-01-28 09:00;METAR CYQF 280900Z 00000KT 1/4SM FZFG VV002 M13/M15 A2969 RMK FG8 SLP112=

CYQF;2006-01-28 11:00;METAR CYQF 281100Z 00000KT 1/2SM FZFG SKC M15/M17 A2966 RMK FG5 SLP100=

CYQF;2006-01-28 12:00;METAR CYQF 281200Z 00000KT 3SM BR SCT250 M16/M18 A2962 RMK CI2 SLP091=

CYQF;2006-01-28 13:00;METAR CYQF 281300Z 00000KT 15SM FEW100 BKN250 M15/M17 A2959 RMK AC2CI2 SLP083=

CYQF;2006-01-28 14:00;METAR CYQF 281400Z 00000KT 15SM FEW100 BKN250 M14/M16 A2956 RMK AC2CI2 SLP073=

CYQF;2006-01-28 15:00;METAR CYQF 281500Z 00000KT 15SM FEW100 BKN250 M14/M16 A2953 RMK AC2CI2 SLP065=

CYQF;2006-01-28 16:00;METAR CYQF 281600Z 15005KT 15SM SCT100 BKN250 M11/M12 A2949 RMK AC2CI2 SLP053=

CYQF;2006-01-28 17:00;METAR CYQF 281700Z 16004KT 15SM SCT100 BKN250 M09/M10 A2947 RMK AC2CI2 SLP046=

CYQF;2006-01-28 18:00;METAR CYQF 281800Z 16008KT 15SM SCT100 OVC250 M09/M11 A2945 RMK AC4CI2 SLP029=

CYQF;2006-01-28 19:00;METAR CYQF 281900Z 15008KT 15SM BKN100 OVC250 M08/M11 A2940 RMK AC6CI2 SLP016=

CYQF;2006-01-28 20:00;METAR CYQF 282000Z 16007KT 15SM BKN100 OVC250 M06/M10 A2937 RMK AC5CI2 SLP006=

CYQF;2006-01-28 21:00;METAR CYQF 282100Z 15009KT 15SM SCT100 BKN250 M05/M10 A2934 RMK AC4CI3 SLP991=

CYQF;2006-01-28 22:00;METAR CYQF 282200Z 17005KT 15SM BKN100 OVC250 M04/M09 A2933 RMK AC5CI2 SLP987=

CYQF;2006-01-28 23:00;METAR CYQF 282300Z 16006KT 15SM BKN100 OVC250 M03/M07 A2933 RMK AC6CI2 SLP987=

CYQF;2006-01-29 00:00;METAR CYQF 290000Z 13003KT 15SM BKN100 M03/M07 A2933 RMK AC7 SLP988=

CYQF;2006-01-29 01:00;METAR CYQF 290100Z 08003KT 15SM BKN100 M04/M08 A2933 RMK AC7 SLP989=

CYQF;2006-01-29 02:00;METAR CYQF 290200Z 01004KT 15SM BKN090 M05/M08 A2935 RMK AC7 SLP994=

CYQF;2006-01-29 03:00;METAR CYQF 290300Z 09002KT 15SM OVC090 M05/M08 A2936 RMK AC8 SLP998=

CYQF;2006-01-29 04:00;METAR CYQF 290400Z 35003KT 15SM BKN100 M06/M09 A2938 RMK AC6 SLP004=

CYQF;2006-01-29 05:00;METAR CYQF 290500Z 34004KT 15SM OVC080 M06/M09 A2941 RMK AC8 SLP013=

CYQF;2006-01-29 06:00;METAR CYQF 290600Z 33002KT 15SM BKN100 M06/M09 A2944 RMK AC7 SLP021=

CYQF;2006-01-29 07:00;METAR CYQF 290700Z 32004KT 15SM BKN100 M07/M10 A2947 RMK AC7 SLP032=

CYQF;2006-01-29 08:00;METAR CYQF 290800Z 28003KT 15SM SCT100 BKN250 M07/M10 A2950 RMK AC4CI0 SLP041=

CYQF;2006-01-29 09:00;METAR CYQF 290900Z 00000KT 15SM FEW100 SCT250 M08/M11 A2953 RMK AC2CI1 SLP051=

CYQF;2006-01-29 10:00;METAR CYQF 291000Z 24003KT 15SM FEW100 SCT250 M12/M16 A2956 RMK AC1CI1 SLP060=

CYQF;2006-01-29 11:00;METAR CYQF 291100Z 21004KT 15SM FEW250 M11/M14 A2958 RMK CI1 SLP069=

CYQF;2006-01-29 12:00;METAR CYQF 291200Z 21005KT 15SM FEW250 M14/M17 A2961 RMK CI1 SLP082=

CYQF;2006-01-29 13:00;METAR CYQF 291300Z 20003KT 15SM FEW250 M12/M14 A2963 RMK CI1 SLP089=

CYQF;2006-01-29 14:00;METAR CYQF 291400Z 20004KT 15SM SKC M13/M17 A2965 RMK SLP096=

CYQF;2006-01-29 15:00;METAR CYQF 291500Z 20003KT 15SM SKC M13/M16 A2967 RMK SLP105=

CYQF;2006-01-29 16:00;METAR CYQF 291600Z 19004KT 15SM FEW100 M13/M17 A2968 RMK AC1 SLP109=

CYQF;2006-01-29 17:00;METAR CYQF 291700Z 00000KT 15SM FEW100 M09/M12 A2970 RMK AC1 TR CLD SLP114=

CYQF;2006-01-29 18:00;METAR CYQF 291800Z 21005KT 15SM FEW100 M05/M10 A2971 RMK AC1 TR CLD SLP113=

CYQF;2006-01-29 19:00;METAR CYQF 291900Z 20006KT 15SM SKC M01/M09 A2972 RMK SLP114=

CYQF;2006-01-29 20:00;METAR CYQF 292000Z 21007KT 15SM FEW250 02/M08 A2971 RMK CI1 TR CLD SLP112=

CYQF;2006-01-29 21:00;METAR CYQF 292100Z 20005KT 15SM FEW250 04/M09 A2970 RMK CI0 SLP101=

CYQF;2006-01-29 22:00;METAR CYQF 292200Z 18004KT 15SM FEW250 04/M11 A2969 RMK CI1 SLP098=

CYQF;2006-01-29 23:00;METAR CYQF 292300Z 13003KT 15SM BKN250 03/M13 A2969 RMK CI2 SLP099=

CYQF;2006-01-30 00:00;METAR CYQF 300000Z 11003KT 15SM FEW120 BKN250 01/M13 A2970 RMK AC1CI2 SLP110=

CYQF;2006-01-30 01:00;METAR CYQF 300100Z 00000KT 15SM FEW120 BKN250 M03/M13 A2969 RMK AC1CI2 SLP106=

CYQF;2006-01-30 02:00;METAR CYQF 300200Z 13005KT 15SM FEW120 BKN250 M04/M13 A2966 RMK AC2CI2 SLP098=

CYQF;2006-01-30 03:00;METAR CYQF 300300Z 19004KT 15SM SCT100 BKN250 M05/M13 A2962 RMK AC4CI2 SLP088=

CYQF;2006-01-30 04:00;METAR CYQF 300400Z 17005KT 15SM SCT100 BKN250 M04/M12 A2958 RMK AC4CI2 SLP075=

CYQF;2006-01-30 05:00;METAR CYQF 300500Z 16006KT 15SM BKN100 OVC250 M03/M11 A2956 RMK AC5CI2 SLP067=

CYQF;2006-01-30 06:00;METAR CYQF 300600Z 17006KT 15SM BKN100 OVC250 M03/M11 A2952 RMK AC6CI2 SLP043=

CYQF;2006-01-30 07:00;METAR CYQF 300700Z 15006KT 15SM BKN100 OVC250 M03/M11 A2947 RMK AC6CI2 SLP028=

CYQF;2006-01-30 08:00;METAR CYQF 300800Z 15004KT 15SM BKN100 BKN250 M03/M11 A2944 RMK AC5CI1 SLP017=

CYQF;2006-01-30 09:00;METAR CYQF 300900Z 16010KT 15SM BKN100 OVC250 M03/M10 A2939 RMK AC6CI1 SLP987=

CYQF;2006-01-30 10:00;METAR CYQF 301000Z 16010KT 15SM BKN100 OVC250 M02/M09 A2935 RMK AC7CI1 SLP973=

CYQF;2006-01-30 11:00;METAR CYQF 301100Z 18010KT 15SM BKN100 OVC250 M02/M10 A2933 RMK AC6CI2 SLP967=

CYQF;2006-01-30 12:00;METAR CYQF 301200Z 17009KT 15SM SCT100 BKN250 M03/M10 A2927 RMK AC4CI2 SLP950=

CYQF;2006-01-30 13:00;METAR CYQF 301300Z 17012KT 15SM FEW100 BKN250 M03/M09 A2924 RMK AC2CI2 SLP940=

CYQF;2006-01-30 14:00;METAR CYQF 301400Z 19010KT 15SM FEW100 SCT250 M04/M07 A2923 RMK AC2CI1 SLP937=

CYQF;2006-01-30 15:00;METAR CYQF 301500Z 18008KT 15SM FEW100 SCT250 M05/M10 A2922 RMK AC2CI0 SLP938=

CYQF;2006-01-30 16:00;METAR CYQF 301600Z 24004KT 15SM FEW100 BKN250 M06/M10 A2921 RMK AC2CI2 SLP935=

CYQF;2006-01-30 17:00;METAR CYQF 301700Z 00000KT 15SM SCT100 BKN250 M04/M09 A2924 RMK AC2CI2 SLP945=

CYQF;2006-01-30 18:00;METAR CYQF 301800Z 31002KT 15SM BKN100 BKN250 M02/M08 A2924 RMK AC5CI2 SLP940=

CYQF;2006-01-30 19:00;METAR CYQF 301900Z 18002KT 15SM BKN100 BKN250 M01/M08 A2924 RMK AC6CI2 SLP942=

CYQF;2006-01-30 20:00;METAR CYQF 302000Z 33003KT 15SM BKN100 BKN250 M00/M08 A2926 RMK AC5CI2 SLP946=

CYQF;2006-01-30 21:00;METAR CYQF 302100Z 36010KT 15SM BKN100 BKN250 M01/M08 A2928 RMK AC5CI2 SLP954=

CYQF;2006-01-30 22:00;METAR CYQF 302200Z 35006KT 15SM SCT100 BKN250 M01/M09 A2931 RMK AC3CI1 SLP962=

CYQF;2006-01-30 23:00;METAR CYQF 302300Z 36010KT 15SM FEW100 SCT250 M02/M09 A2932 RMK AC2CI1 SLP967=

CYQF;2006-01-31 00:00;METAR CYQF 310000Z 33006KT 15SM SCT100 BKN250 M03/M09 A2936 RMK AC3CI1 SLP984=

CYQF;2006-01-31 01:00;METAR CYQF 310100Z 32010KT 15SM SCT090 BKN250 M04/M10 A2941 RMK AC4CI2 SLP999=

CYQF;2006-01-31 02:00;METAR CYQF 310200Z 34006KT 15SM BKN090 BKN250 M05/M10 A2944 RMK AC5CI2 SLP010=

CYQF;2006-01-31 03:00;METAR CYQF 310300Z 33006KT 15SM BKN090 BKN250 M05/M10 A2946 RMK AC5CI2 SLP023=

CYQF;2006-01-31 04:00;METAR CYQF 310400Z 35004KT 15SM SCT030 BKN090 M06/M10 A2950 RMK SC3AC4 SLP037=

CYQF;2006-01-31 06:00;METAR CYQF 310600Z 29004KT 15SM BKN017 OVC030 M06/M10 A2956 RMK SC5SC3 SLP055=

CYQF;2006-01-31 07:00;METAR CYQF 310700Z 36004KT 15SM BKN017 OVC030 M05/M09 A2957 RMK SC5SC3 SLP059=

CYQF;2006-01-31 08:00;METAR CYQF 310800Z 32003KT 15SM SCT014 BKN030 M09/M12 A2960 RMK SC4SC2 SLP067=

CYQF;2006-01-31 09:00;METAR CYQF 310900Z 00000KT 12SM FEW012 BKN250 M10/M13 A2960 RMK SC2CI2 BR SLP073=

CYQF;2006-01-31 10:00;METAR CYQF 311000Z 20002KT 10SM FEW250 M11/M14 A2961 RMK CI2 BR SLP077=

CYQF;2006-01-31 11:00;METAR CYQF 311100Z 24003KT 12SM FEW250 M12/M15 A2962 RMK CI2 BR SLP080=

CYQF;2006-01-31 12:00;METAR CYQF 311200Z 18002KT 12SM SKC M13/M16 A2963 RMK BR SLP089=

CYQF;2006-01-31 13:00;METAR CYQF 311300Z 17004KT 12SM FEW250 M12/M16 A2964 RMK CI2 BR SLP093=

CYQF;2006-01-31 14:00;METAR CYQF 311400Z 19003KT 15SM FEW250 M13/M16 A2965 RMK CI2 SLP094=

CYQF;2006-01-31 15:00;METAR CYQF 311500Z 00000KT 8SM FEW250 M13/M16 A2964 RMK CI2 SLP096=

CYQF;2006-01-31 16:00;METAR CYQF 311600Z 00000KT 8SM FEW100 BKN250 M12/M15 A2965 RMK AC2CI1 BR VIS LWR NW-NE SLP097=

CYQF;2006-01-31 17:00;METAR CYQF 311700Z 19003KT 10SM FEW100 BKN250 M09/M12 A2964 RMK AC2CI1 BR SLP095=

CYQF;2006-01-31 18:00;METAR CYQF 311800Z 20003KT 10SM FEW100 BKN250 M06/M10 A2964 RMK AC1CI2 BR SLP087=

CYQF;2006-01-31 19:00;METAR CYQF 311900Z 15002KT 12SM FEW100 BKN250 M02/M07 A2961 RMK AC2CI1 SLP080=

CYQF;2006-01-31 20:00;METAR CYQF 312000Z 20002KT 15SM BKN100 OVC250 00/M06 A2959 RMK AC6CI1 SLP074=

CYQF;2006-01-31 21:00;METAR CYQF 312100Z 16004KT 15SM SCT100 BKN250 03/M05 A2957 RMK AC3CI2 SLP057=

CYQF;2006-01-31 22:00;METAR CYQF 312200Z 14004KT 15SM FEW100 SCT250 03/M05 A2955 RMK AC1CI1 SLP051=

CYQF;2006-01-31 23:00;METAR CYQF 312300Z 15003KT 15SM FEW100 BKN250 02/M06 A2953 RMK AC2CI1 SLP044=

CYQF;2006-02-01 00:00;METAR CYQF 010000Z 14004KT 15SM FEW100 BKN250 01/M07 A2950 RMK AC2CI1 SLP041=

CYQF;2006-02-01 01:00;METAR CYQF 010100Z 16006KT 15SM FEW100 SCT250 M04/M09 A2949 RMK AC1CI1 SLP038=

CYQF;2006-02-01 02:00;METAR CYQF 010200Z 17006KT 15SM FEW100 FEW250 M05/M11 A2946 RMK AC1CI0 SLP029=

CYQF;2006-02-01 03:00;METAR CYQF 010300Z 17007KT 15SM FEW250 M04/M11 A2940 RMK CI1 SLP011=

CYQF;2006-02-01 04:00;METAR CYQF 010400Z 17008KT 15SM SCT250 M06/M11 A2936 RMK CI1 SLP998=

CYQF;2006-02-01 05:00;METAR CYQF 010500Z 18008KT 15SM OVC250 M05/M11 A2931 RMK CI5 SLP983=

CYQF;2006-02-01 06:00;METAR CYQF 010600Z 19007KT 15SM SCT100 OVC250 M04/M10 A2927 RMK AC2CI6 SLP960=

CYQF;2006-02-01 07:00;METAR CYQF 010700Z 16008KT 15SM BKN100 OVC250 M03/M09 A2924 RMK AC6CI2 SLP949=

CYQF;2006-02-01 08:00;METAR CYQF 010800Z 15006KT 15SM BKN100 OVC250 M03/M10 A2918 RMK AC6CI2 SLP931=

CYQF;2006-02-01 09:00;METAR CYQF 010900Z 16008KT 15SM OVC100 M04/M09 A2915 RMK AC8 SLP905=

CYQF;2006-02-01 10:00;METAR CYQF 011000Z 16008KT 15SM OVC090 M03/M09 A2912 RMK AC8 SLP896=

CYQF;2006-02-01 11:00;METAR CYQF 011100Z 18007KT 15SM OVC090 M03/M09 A2910 RMK AC8 SLP889=

CYQF;2006-02-01 12:00;METAR CYQF 011200Z 20006KT 15SM OVC090 M02/M09 A2907 RMK AC8 SLP881=

CYQF;2006-02-01 13:00;METAR CYQF 011300Z 20008KT 15SM OVC090 M02/M09 A2906 RMK AC8 SLP878=

CYQF;2006-02-01 14:00;METAR CYQF 011400Z 23010KT 15SM OVC090 M01/M09 A2907 RMK AC8 SLP880=

CYQF;2006-02-01 15:00;METAR CYQF 011500Z 23007KT 15SM OVC090 M02/M09 A2907 RMK AC8 SLP885=

CYQF;2006-02-01 16:00;METAR CYQF 011600Z 33003KT 15SM BKN090 OVC250 M02/M09 A2911 RMK AC7CI1 SLP895=

CYQF;2006-02-01 17:00;METAR CYQF 011700Z 00000KT 15SM FEW025 BKN090 OVC250 M01/M10 A2913 RMK SC2AC6CI0 SLP902=

CYQF;2006-02-01 18:00;METAR CYQF 011800Z 00000KT 15SM FEW025 SCT090 BKN250 M00/M08 A2917 RMK SC1AC2CI1 SLP916=

CYQF;2006-02-01 19:00;METAR CYQF 011900Z 00000KT 15SM FEW025 FEW090 BKN250 03/M08 A2918 RMK SC1AC1CI1 SLP921=

CYQF;2006-02-01 20:00;METAR CYQF 012000Z 20002KT 15SM FEW025 FEW090 BKN250 03/M08 A2920 RMK SC1AC1CI2 SLP925=

CYQF;2006-02-01 21:00;METAR CYQF 012100Z 00000KT 15SM FEW030 FEW090 BKN250 05/M08 A2921 RMK SC1AC1CI1 SLP923=

CYQF;2006-02-01 22:00;METAR CYQF 012200Z 02003KT 15SM FEW030 FEW090 SCT250 05/M07 A2923 RMK SC1AC1CI0 SLP930=

CYQF;2006-02-01 23:00;METAR CYQF 012300Z 02003KT 15SM FEW030 FEW090 SCT250 04/M07 A2926 RMK SC1AC1CI0 SLP941=

CYQF;2006-02-02 00:00;METAR CYQF 020000Z 00000KT 15SM FEW030 SCT090 BKN250 04/M07 A2929 RMK SC2AC1CI0 SLP953=

CYQF;2006-02-02 01:00;METAR CYQF 020100Z 00000KT 15SM SCT090 BKN250 00/M07 A2931 RMK AC4CI1 SLP959=

CYQF;2006-02-02 02:00;METAR CYQF 020200Z 22002KT 15SM SCT090 BKN250 M02/M08 A2934 RMK AC4CI2 SLP966=

CYQF;2006-02-02 03:00;METAR CYQF 020300Z 24002KT 15SM SCT090 M03/M08 A2935 RMK AC4 SLP981=

CYQF;2006-02-02 04:00;METAR CYQF 020400Z 24002KT 15SM SCT090 BKN250 M05/M10 A2937 RMK AC4CI1 SLP987=

CYQF;2006-02-02 05:00;METAR CYQF 020500Z 00000KT 15SM FEW090 M06/M10 A2940 RMK AC2 SLP997=

CYQF;2006-02-02 06:00;METAR CYQF 020600Z 22004KT 15SM FEW090 SCT250 M08/M12 A2943 RMK AC2CI2 SLP012=

CYQF;2006-02-02 07:00;METAR CYQF 020700Z 16004KT 15SM FEW100 BKN250 M05/M10 A2946 RMK AC2CI1 SLP020=

CYQF;2006-02-02 08:00;METAR CYQF 020800Z 19005KT 15SM BKN100 M06/M11 A2948 RMK AC6 SLP026=

CYQF;2006-02-02 09:00;METAR CYQF 020900Z 21008KT 15SM FEW100 M06/M11 A2949 RMK AC2 SLP023=

CYQF;2006-02-02 10:00;METAR CYQF 021000Z 23002KT 15SM FEW100 M07/M12 A2951 RMK AC1 SLP031=

CYQF;2006-02-02 11:00;METAR CYQF 021100Z 21005KT 15SM SKC M10/M14 A2953 RMK SLP035=

CYQF;2006-02-02 12:00;METAR CYQF 021200Z 20003KT 15SM SKC M08/M13 A2954 RMK SLP043=

CYQF;2006-02-02 13:00;METAR CYQF 021300Z 20004KT 15SM FEW100 M11/M15 A2955 RMK AC1 SLP047=

CYQF;2006-02-02 14:00;METAR CYQF 021400Z 19004KT 15SM FEW100 M09/M14 A2956 RMK AC2 SLP049=

CYQF;2006-02-02 15:00;METAR CYQF 021500Z 24004KT 15SM SCT100 SCT250 M12/M16 A2956 RMK AC3CI0 SLP066=

CYQF;2006-02-02 16:00;METAR CYQF 021600Z 20002KT 15SM FEW100 FEW250 M12/M17 A2957 RMK AC1CI0 SLP067=

CYQF;2006-02-02 17:00;METAR CYQF 021700Z 00000KT 15SM FEW100 FEW250 M07/M12 A2957 RMK AC1CI0 SLP068=

CYQF;2006-02-02 18:00;METAR CYQF 021800Z 00000KT 15SM FEW100 BKN250 M04/M09 A2957 RMK AC2CI2 SLP065=

CYQF;2006-02-02 19:00;METAR CYQF 021900Z 17002KT 15SM FEW100 BKN250 03/M05 A2957 RMK AC2CI2 SLP065=

CYQF;2006-02-02 20:00;METAR CYQF 022000Z 15007KT 15SM FEW100 BKN250 03/M06 A2956 RMK AC2CI1 SLP062=

CYQF;2006-02-02 21:00;METAR CYQF 022100Z 15007KT 15SM FEW100 SCT250 04/M07 A2956 RMK AC1CI1 SLP050=

CYQF;2006-02-02 22:00;METAR CYQF 022200Z 13006KT 15SM FEW100 FEW250 05/M05 A2957 RMK AC1CI0 SLP052=

CYQF;2006-02-02 23:00;METAR CYQF 022300Z 14004KT 15SM FEW060 FEW100 FEW250 05/M06 A2958 RMK SC1AC1CI0 TR SC SLP057=

CYQF;2006-02-03 00:00;METAR CYQF 030000Z 13002KT 15SM FEW090 FEW250 04/M07 A2960 RMK AC1CI0 SLP065=

CYQF;2006-02-03 01:00;METAR CYQF 030100Z 17004KT 15SM FEW090 FEW250 M01/M08 A2962 RMK AC1CI0 SLP070=

CYQF;2006-02-03 02:00;METAR CYQF 030200Z 18005KT 15SM FEW090 M04/M10 A2964 RMK AC1 SLP077=

CYQF;2006-02-03 03:00;METAR CYQF 030300Z 21004KT 15SM FEW090 M08/M13 A2965 RMK AC1 SLP101=

CYQF;2006-02-03 04:00;METAR CYQF 030400Z 19003KT 15SM SCT150 M08/M12 A2966 RMK AC2 SLP103=

CYQF;2006-02-03 05:00;METAR CYQF 030500Z 20003KT 15SM SCT150 M09/M13 A2967 RMK AC2 SLP106=

CYQF;2006-02-03 06:00;METAR CYQF 030600Z 00000KT 15SM SKC M08/M13 A2967 RMK SLP100=

CYQF;2006-02-03 07:00;METAR CYQF 030700Z 20005KT 15SM SKC M09/M13 A2968 RMK SLP102=

CYQF;2006-02-03 09:00;METAR CYQF 030900Z 18004KT 15SM SKC M09/M14 A2972 RMK SLP108=

CYQF;2006-02-03 10:00;METAR CYQF 031000Z 20002KT 15SM FEW100 M11/M16 A2974 RMK AC1 SLP115=

CYQF;2006-02-03 11:00;METAR CYQF 031100Z 18004KT 15SM FEW100 M09/M14 A2975 RMK AC1 SLP118=

CYQF;2006-02-03 12:00;METAR CYQF 031200Z 19005KT 15SM SKC M12/M16 A2976 RMK SLP127=

CYQF;2006-02-03 13:00;METAR CYQF 031300Z 20005KT 15SM SKC M10/M15 A2979 RMK SLP134=

CYQF;2006-02-03 14:00;METAR CYQF 031400Z 19006KT 15SM SKC M11/M16 A2981 RMK SLP140=

CYQF;2006-02-03 15:00;METAR CYQF 031500Z 19006KT 15SM FEW250 M11/M15 A2982 RMK CI1 SLP159=

CYQF;2006-02-03 16:00;METAR CYQF 031600Z 19004KT 15SM FEW100 SCT250 M11/M16 A2984 RMK AC1CI1 SLP163=

CYQF;2006-02-03 17:00;METAR CYQF 031700Z 20004KT 15SM FEW060 FEW100 BKN250 M06/M12 A2985 RMK SC1AC1CI1 SLP167=

CYQF;2006-02-03 18:00;METAR CYQF 031800Z 20004KT 15SM FEW100 SCT250 M03/M10 A2987 RMK AC1CI1 SLP167=

CYQF;2006-02-03 19:00;METAR CYQF 031900Z 20004KT 15SM FEW100 SCT250 M00/M10 A2987 RMK AC1CI1 SLP167=

CYQF;2006-02-03 20:00;METAR CYQF 032000Z 00000KT 15SM FEW100 FEW250 03/M08 A2986 RMK AC1CI1 SLP164=

CYQF;2006-02-03 21:00;METAR CYQF 032100Z 00000KT 15SM FEW100 FEW250 05/M09 A2985 RMK AC1CI1 SLP154=

CYQF;2006-02-03 22:00;METAR CYQF 032200Z 22003KT 15SM FEW250 06/M09 A2986 RMK CI2 SLP157=

CYQF;2006-02-03 23:00;METAR CYQF 032300Z 15002KT 15SM FEW050 SCT250 04/M09 A2987 RMK SC1CI2 SLP159=

CYQF;2006-02-04 00:00;METAR CYQF 040000Z 00000KT 15SM FEW100 BKN250 01/M09 A2987 RMK AC1CI3 SLP168=

CYQF;2006-02-04 01:00;METAR CYQF 040100Z 00000KT 15SM FEW100 OVC250 M03/M10 A2987 RMK AC2CI4 SLP167=

CYQF;2006-02-04 02:00;METAR CYQF 040200Z 18005KT 15SM FEW100 BKN250 M04/M11 A2987 RMK AC1CI4 SLP167=

CYQF;2006-02-04 03:00;METAR CYQF 040300Z 17004KT 15SM FEW100 BKN250 M04/M12 A2985 RMK AC1CI2 SLP164=

CYQF;2006-02-04 04:00;METAR CYQF 040400Z 00000KT 15SM FEW100 BKN250 M05/M11 A2983 RMK AC2CI2 SLP159=

CYQF;2006-02-04 05:00;METAR CYQF 040500Z 20004KT 15SM FEW100 OVC250 M06/M11 A2980 RMK AC2CI3 SLP150=

CYQF;2006-02-04 06:00;METAR CYQF 040600Z 16005KT 15SM FEW100 BKN250 M04/M10 A2978 RMK AC2CI3 SLP132=

CYQF;2006-02-04 07:00;METAR CYQF 040700Z 16005KT 15SM FEW100 OVC250 M05/M10 A2977 RMK AC2CI4 SLP127=

CYQF;2006-02-04 08:00;METAR CYQF 040800Z 18005KT 15SM FEW100 OVC250 M04/M11 A2972 RMK AC2CI4 SLP112=

CYQF;2006-02-04 09:00;METAR CYQF 040900Z 16006KT 15SM SCT100 OVC250 M03/M10 A2967 RMK AC3CI3 SLP083=

CYQF;2006-02-04 10:00;METAR CYQF 041000Z 15006KT 15SM SCT100 OVC250 M03/M10 A2962 RMK AC4CI2 SLP068=

CYQF;2006-02-04 11:00;METAR CYQF 041100Z 14012KT 15SM BKN100 OVC250 M02/M09 A2957 RMK AC6CI2 SLP053=

CYQF;2006-02-04 13:00;METAR CYQF 041300Z 15008KT 15SM BKN100 M01/M08 A2946 RMK AC7 SLP016=

CYQF;2006-02-04 14:00;METAR CYQF 041400Z 16012KT 15SM BKN100 OVC250 00/M07 A2941 RMK AC6CI1 SLP000=

CYQF;2006-02-04 15:00;METAR CYQF 041500Z 18010KT 15SM BKN100 OVC250 00/M07 A2938 RMK AC6CI1 SLP991=

CYQF;2006-02-04 16:00;METAR CYQF 041600Z 16008KT 15SM FEW040 BKN100 BKN250 00/M06 A2934 RMK SC2AC5CI1 VIRGA N-NE SLP977=

CYQF;2006-02-04 18:00;METAR CYQF 041800Z 18006KT 15SM FEW040 BKN090 02/M05 A2927 RMK SC2AC6 VIRGA N-E SLP950=

CYQF;2006-02-04 19:00;METAR CYQF 041900Z 18007KT 15SM FEW040 BKN090 02/M04 A2926 RMK SC1AC6 VIRGA E SLP946=

CYQF;2006-02-04 20:00;METAR CYQF 042000Z 18011KT 15SM FEW040 BKN090 03/M03 A2921 RMK SC1AC6 VIRGA E SLP929=

CYQF;2006-02-04 21:00;METAR CYQF 042100Z 19007KT 15SM FEW040 BKN090 05/M02 A2919 RMK SC1AC6 SLP915=

CYQF;2006-02-04 22:00;METAR CYQF 042200Z 00000KT 15SM FEW040 BKN090 07/M02 A2921 RMK SC2AC4 SHWRS SW-NW SLP922=

CYQF;2006-02-04 23:00;METAR CYQF 042300Z 31007KT 15SM SCT040 BKN090 06/M02 A2926 RMK SC4AC3 SHWRS SW QUAD+DIST N SLP936=

CYQF;2006-02-05 00:00;METAR CYQF 050000Z 00000KT 15SM BKN040 BKN080 04/M04 A2930 RMK SC5AC2 SLP955=

CYQF;2006-02-05 01:00;METAR CYQF 050100Z 33003KT 15SM BKN040 BKN080 04/M05 A2934 RMK SC6AC2 VIRGA SLP966=

CYQF;2006-02-05 03:00;METAR CYQF 050300Z 32004KT 15SM FEW025 SCT040 BKN080 OVC250 01/M06 A2938 RMK SC2SC2AC2CI2 SLP984=

CYQF;2006-02-05 04:00;METAR CYQF 050400Z 30008KT 15SM FEW040 FEW080 SCT250 M00/M07 A2942 RMK SC1AC1CI1 SLP996=

CYQF;2006-02-05 05:00;METAR CYQF 050500Z 30008KT 15SM FEW040 BKN090 BKN250 M01/M07 A2947 RMK SC2AC2CI1 SLP011=

CYQF;2006-02-05 07:00;METAR CYQF 050700Z 31008KT 15SM FEW040 FEW090 BKN250 01/M06 A2955 RMK SC1AC2CI1 SLP041=

CYQF;2006-02-05 08:00;METAR CYQF 050800Z 32010KT 15SM FEW040 SCT090 BKN250 01/M03 A2959 RMK SC2AC2CI0 SLP053=

CYQF;2006-02-05 09:00;METAR CYQF 050900Z 26006KT 15SM FEW040 SCT100 BKN250 M01/M05 A2963 RMK SC2AC2CI0 SLP066=

CYQF;2006-02-05 10:00;METAR CYQF 051000Z 25005KT 15SM FEW040 SCT100 BKN250 M02/M07 A2966 RMK SC2AC2CI1 SLP078=

CYQF;2006-02-05 11:00;METAR CYQF 051100Z 22003KT 15SM FEW100 FEW250 M04/M08 A2969 RMK AC2CI0 SLP087=

CYQF;2006-02-05 12:00;METAR CYQF 051200Z 36002KT 15SM FEW100 FEW250 M03/M07 A2974 RMK AC2CI0 SLP108=

CYQF;2006-02-05 13:00;METAR CYQF 051300Z 30004KT 15SM FEW100 FEW250 M04/M08 A2978 RMK AC2CI0 SLP120=

CYQF;2006-02-05 14:00;METAR CYQF 051400Z 33006KT 15SM FEW100 FEW250 M03/M07 A2982 RMK AC2CI0 SLP134=

CYQF;2006-02-05 15:00;METAR CYQF 051500Z 33006KT 15SM SCT060 BKN250 M04/M07 A2987 RMK SC4CI2 SLP158=

CYQF;2006-02-05 16:00;METAR CYQF 051600Z 27003KT 15SM SCT060 BKN100 OVC250 M02/M06 A2990 RMK SC3AC2CI2 SLP168=

CYQF;2006-02-05 16:41;SPECI CYQF 051641Z 27004KT 12SM -SHSN BKN050 OVC100 RMK SC5AC2=

CYQF;2006-02-05 17:00;METAR CYQF 051700Z 29008KT 10SM -SHGS BKN045 OVC100 M02/M06 A2994 RMK SC6AC2 SLP179=

CYQF;2006-02-05 17:24;SPECI CYQF 051724Z 32012KT 15SM FEW025 BKN050 BKN100 RMK SF1SC5AC2 RESHGS=

CYQF;2006-02-05 18:00;METAR CYQF 051800Z 32013KT 15SM FEW015 SCT050 BKN100 M01/M07 A2997 RMK SF1SC2AC3 RESHGS SLP191=

CYQF;2006-02-05 19:00;METAR CYQF 051900Z 33012KT 15SM FEW020 FEW045 BKN100 BKN240 M00/M06 A2999 RMK SC1SC2AC3CI1 SLP197=

CYQF;2006-02-05 20:00;METAR CYQF 052000Z 33015KT 15SM FEW020 SCT045 BKN100 00/M07 A3001 RMK SC2SC2AC3 SLP203=

CYQF;2006-02-05 21:00;METAR CYQF 052100Z 32014G22KT 15SM FEW020 BKN045 BKN100 M00/M09 A3003 RMK SF1SC4AC2 SLP213=

CYQF;2006-02-05 22:00;METAR CYQF 052200Z 32012G20KT 15SM FEW020 SCT045 BKN100 M00/M09 A3006 RMK SF1SC2AC3 SLP221=

CYQF;2006-02-05 23:00;METAR CYQF 052300Z 32010KT 15SM BKN045 BKN100 M00/M09 A3008 RMK SC5AC2 SLP228=

CYQF;2006-02-06 00:00;METAR CYQF 060000Z 35009KT 15SM BKN045 BKN100 M02/M09 A3011 RMK SC5AC2 SLP242=

CYQF;2006-02-06 01:00;METAR CYQF 060100Z 33004KT 15SM BKN060 BKN100 M04/M10 A3013 RMK SC5AC2 SLP249=

CYQF;2006-02-06 02:00;METAR CYQF 060200Z 32005KT 15SM FEW060 SCT100 M05/M12 A3015 RMK SC2AC2 SLP255=

CYQF;2006-02-06 03:00;METAR CYQF 060300Z 30006KT 15SM FEW060 SCT100 M06/M12 A3016 RMK SC2AC2 SLP266=

CYQF;2006-02-06 04:00;METAR CYQF 060400Z 31008KT 15SM FEW060 FEW100 M05/M12 A3018 RMK SC2AC1 SLP272=

CYQF;2006-02-06 05:00;METAR CYQF 060500Z 30010KT 15SM FEW060 FEW100 M06/M13 A3019 RMK SC1AC1 SLP277=

CYQF;2006-02-06 06:00;METAR CYQF 060600Z 30010KT 15SM FEW100 M06/M13 A3021 RMK AC1 SLP279=

CYQF;2006-02-06 08:00;METAR CYQF 060800Z 00000KT 15SM SKC M08/M13 A3023 RMK SLP286=

CYQF;2006-02-06 09:00;METAR CYQF 060900Z 27006KT 15SM SKC M10/M15 A3024 RMK SLP294=

CYQF;2006-02-06 10:00;METAR CYQF 061000Z 18003KT 15SM FEW250 M10/M14 A3024 RMK CI1 SLP295=

CYQF;2006-02-06 11:00;METAR CYQF 061100Z 19003KT 15SM FEW250 M10/M15 A3025 RMK CI1 SLP297=

CYQF;2006-02-06 12:00;METAR CYQF 061200Z 22003KT 15SM FEW250 M13/M16 A3024 RMK CI1 SLP299=

CYQF;2006-02-06 13:00;METAR CYQF 061300Z 24004KT 15SM SCT250 M11/M15 A3023 RMK CI2 SLP297=

CYQF;2006-02-06 14:00;METAR CYQF 061400Z 25007KT 15SM SCT250 M12/M16 A3023 RMK CI2 SLP297=

CYQF;2006-02-06 15:00;METAR CYQF 061500Z 26006KT 15SM BKN250 M11/M15 A3023 RMK CI2 SLP298=

CYQF;2006-02-06 16:00;METAR CYQF 061600Z 20003KT 15SM BKN250 M11/M15 A3022 RMK CI3 SLP296=

CYQF;2006-02-06 17:00;METAR CYQF 061700Z 00000KT 15SM BKN250 M09/M13 A3021 RMK CI3 SLP293=

CYQF;2006-02-06 18:00;METAR CYQF 061800Z 22004KT 15SM BKN250 M06/M11 A3020 RMK CI2 SLP284=

CYQF;2006-02-06 19:00;METAR CYQF 061900Z 23004KT 15SM BKN250 M04/M11 A3019 RMK CI2 SLP281=

CYQF;2006-02-06 20:00;METAR CYQF 062000Z 22002KT 15SM BKN250 M01/M10 A3017 RMK CI2 SLP275=

CYQF;2006-02-06 21:00;METAR CYQF 062100Z 00000KT 15SM BKN250 M00/M10 A3017 RMK CI2 SLP270=

CYQF;2006-02-06 22:00;METAR CYQF 062200Z 00000KT 15SM FEW250 01/M10 A3017 RMK CI1 SLP271=

CYQF;2006-02-06 23:00;METAR CYQF 062300Z 00000KT 15SM FEW250 00/M10 A3018 RMK CI1 SLP273=

CYQF;2006-02-07 00:00;METAR CYQF 070000Z 00000KT 15SM FEW250 M01/M10 A3017 RMK CI1 SLP275=

CYQF;2006-02-07 01:00;METAR CYQF 070100Z 02003KT 15SM FEW250 M05/M12 A3018 RMK CI1 SLP277=

CYQF;2006-02-07 02:00;METAR CYQF 070200Z 13002KT 15SM SKC M06/M12 A3018 RMK SLP277=

CYQF;2006-02-07 04:00;METAR CYQF 070400Z 19005KT 15SM SKC M10/M15 A3017 RMK SLP280=

CYQF;2006-02-07 05:00;METAR CYQF 070500Z 17004KT 15SM SCT250 M10/M15 A3015 RMK CS1 SLP274=

CYQF;2006-02-07 06:00;METAR CYQF 070600Z 17006KT 15SM SCT250 M10/M14 A3015 RMK CS2 SLP269=

CYQF;2006-02-07 07:00;METAR CYQF 070700Z 18004KT 15SM FEW120 SCT250 M10/M14 A3013 RMK AC1CS2 SLP263=

CYQF;2006-02-07 08:00;METAR CYQF 070800Z 00000KT 15SM FEW120 BKN250 M09/M13 A3013 RMK AC2CS2 SLP263=

CYQF;2006-02-07 09:00;METAR CYQF 070900Z 00000KT 15SM FEW120 BKN250 M10/M14 A3013 RMK AC2CS2 SLP255=

CYQF;2006-02-07 10:00;METAR CYQF 071000Z 00000KT 15SM FEW120 SCT250 M10/M14 A3012 RMK AC1CI1 SLP253=

CYQF;2006-02-07 11:00;METAR CYQF 071100Z 00000KT 15SM FEW120 SCT250 M11/M15 A3010 RMK AC1CI1 SLP247=

CYQF;2006-02-07 12:00;METAR CYQF 071200Z 00000KT 15SM FEW250 M12/M15 A3009 RMK CI1 SLP247=

CYQF;2006-02-07 13:00;METAR CYQF 071300Z 21004KT 15SM SCT250 M12/M16 A3009 RMK CI2 SLP245=

CYQF;2006-02-07 14:00;METAR CYQF 071400Z 00000KT 15SM BKN250 M12/M16 A3009 RMK CI2 SLP245=

CYQF;2006-02-07 15:00;METAR CYQF 071500Z 18004KT 15SM FEW120 BKN250 M12/M15 A3008 RMK AC2CI2 SLP248=

CYQF;2006-02-07 16:00;METAR CYQF 071600Z 00000KT 15SM BKN120 BKN250 M09/M13 A3009 RMK AC6CI0 SLP251=

CYQF;2006-02-07 17:00;METAR CYQF 071700Z 19003KT 15SM SCT120 BKN250 M07/M11 A3009 RMK AC4CI1 SLP251=

CYQF;2006-02-07 18:00;METAR CYQF 071800Z 00000KT 15SM SCT120 BKN250 M04/M09 A3008 RMK AC3CI1 SLP243=

CYQF;2006-02-07 19:00;METAR CYQF 071900Z 00000KT 15SM FEW120 BKN250 M01/M08 A3007 RMK AC2CI1 SLP241=

CYQF;2006-02-07 20:00;METAR CYQF 072000Z 00000KT 15SM FEW120 BKN250 03/M06 A3006 RMK AC2CI2 SLP237=

CYQF;2006-02-07 21:00;METAR CYQF 072100Z 15006KT 15SM FEW120 BKN250 04/M05 A3004 RMK AC2CI2 SLP218=

CYQF;2006-02-07 22:00;METAR CYQF 072200Z 14007KT 15SM SCT120 BKN250 05/M05 A3003 RMK AC4CI2 SLP216=

CYQF;2006-02-07 23:00;METAR CYQF 072300Z 14007KT 15SM SCT120 BKN250 04/M05 A3002 RMK AC4CI2 SLP212=

CYQF;2006-02-08 00:00;METAR CYQF 080000Z 15006KT 15SM FEW120 BKN250 03/M04 A3000 RMK AC2CI2 SLP210=

CYQF;2006-02-08 01:00;METAR CYQF 080100Z 17006KT 15SM FEW120 BKN250 02/M05 A2998 RMK AC2CI2 SLP204=

CYQF;2006-02-08 02:00;METAR CYQF 080200Z 16012KT 15SM FEW120 BKN250 01/M05 A2995 RMK AC2CI2 SLP193=

CYQF;2006-02-08 03:00;METAR CYQF 080300Z 17008KT 15SM FEW120 BKN250 00/M06 A2992 RMK AC2CI2 SLP186=

CYQF;2006-02-08 04:00;METAR CYQF 080400Z 18004KT 15SM FEW100 BKN250 M00/M06 A2990 RMK AC2CI3 SLP180=

CYQF;2006-02-08 05:00;METAR CYQF 080500Z 15007KT 15SM FEW100 BKN250 M02/M07 A2989 RMK AC2CI3 SLP176=

CYQF;2006-02-08 06:00;METAR CYQF 080600Z 00000KT 15SM SCT100 BKN250 M02/M06 A2988 RMK AC4CI2 SLP165=

CYQF;2006-02-08 07:00;METAR CYQF 080700Z 00000KT 15SM SCT100 BKN250 M02/M07 A2987 RMK AC4CI2 SLP161=

CYQF;2006-02-08 08:00;METAR CYQF 080800Z 21003KT 15SM BKN100 BKN250 M02/M06 A2985 RMK AC6CI1 SLP157=

CYQF;2006-02-08 09:00;METAR CYQF 080900Z 20004KT 15SM BKN100 OVC250 M02/M06 A2985 RMK AC6CI2 SLP143=

CYQF;2006-02-08 10:00;METAR CYQF 081000Z 21003KT 15SM BKN100 OVC250 M02/M07 A2983 RMK AC6CI2 SLP139=

CYQF;2006-02-08 11:00;METAR CYQF 081100Z 19005KT 15SM BKN100 OVC250 M01/M07 A2981 RMK AC6CI2 SLP133=

CYQF;2006-02-08 12:00;METAR CYQF 081200Z 16009KT 15SM SCT100 BKN250 M01/M07 A2978 RMK AC4CI2 SLP120=

CYQF;2006-02-08 13:00;METAR CYQF 081300Z 23004KT 15SM FEW100 BKN250 M01/M08 A2980 RMK AC2CI2 SLP128=

CYQF;2006-02-08 14:00;METAR CYQF 081400Z 25008KT 15SM SCT100 BKN250 00/M07 A2980 RMK AC3CI2 SLP126=

CYQF;2006-02-08 15:00;METAR CYQF 081500Z 21010KT 15SM BKN100 BKN250 M01/M08 A2979 RMK AC5CI2 SLP129=

CYQF;2006-02-08 17:00;METAR CYQF 081700Z 34017G27KT 15SM FEW050 SCT100 04/M06 A2986 RMK SC2AC2 VIRGA N SLP149=

CYQF;2006-02-08 18:00;METAR CYQF 081800Z 36017G25KT 15SM SCT030 BKN100 02/M04 A2992 RMK CU4AC2 FEW MDT CU SLP170=

CYQF;2006-02-08 19:00;METAR CYQF 081900Z 35012G19KT 15SM FEW015 SCT030 BKN100 03/M04 A2995 RMK SC1CU3AC2 TCU TPS W VIRGA/SHWRS ASCTD SLP180=

CYQF;2006-02-08 19:50;SPECI CYQF 081950Z 33020G30KT 15SM -SHSN BKN025TCU BKN100 RMK TCU6AC2 HVR SHS W=

CYQF;2006-02-08 20:00;METAR CYQF 082000Z 33025G35KT 10SM -SHSN BKN025TCU BKN100 04/M05 A2997 RMK TCU6AC2 SLP188=

CYQF;2006-02-09 00:00;METAR CYQF 090000Z 25008KT 15SM FEW030 SCT080 03/M07 A2998 RMK CU2AC2 VIRGA SW+S SLP191=

CYQF;2006-02-09 01:00;METAR CYQF 090100Z 27009KT 15SM FEW030 SCT080 M00/M08 A3001 RMK CU1AC2 VIRGA SW-S SLP201=

CYQF;2006-02-09 02:00;METAR CYQF 090200Z 31012G20KT 15SM FEW080 02/M12 A3005 RMK AC2 SLP213=

CYQF;2006-02-09 03:00;METAR CYQF 090300Z 31010G15KT 15SM SCT100 02/M11 A3008 RMK AC4 SLP227=

CYQF;2006-02-09 04:00;METAR CYQF 090400Z 31010G15KT 15SM FEW100 01/M12 A3012 RMK AC2 SLP239=

CYQF;2006-02-09 05:00;METAR CYQF 090500Z 32012G20KT 15SM FEW120 00/M13 A3014 RMK AC2 SLP245=

CYQF;2006-02-09 06:00;METAR CYQF 090600Z 32012G20KT 15SM SKC M00/M14 A3017 RMK SLP257=

CYQF;2006-02-09 07:00;METAR CYQF 090700Z 32012G20KT 15SM SKC M00/M14 A3020 RMK SLP266=

CYQF;2006-02-09 08:00;METAR CYQF 090800Z 31012G17KT 15SM SKC M01/M14 A3022 RMK SLP273=

CYQF;2006-02-09 09:00;METAR CYQF 090900Z 31010G15KT 15SM FEW060 M02/M14 A3025 RMK SC1 SLP284=

CYQF;2006-02-09 10:00;METAR CYQF 091000Z 31010G15KT 15SM FEW060 M02/M14 A3027 RMK SC1 SLP292=

CYQF;2006-02-09 11:00;METAR CYQF 091100Z 31015G25KT 15SM SKC M02/M14 A3029 RMK SLP297=

CYQF;2006-02-09 12:00;METAR CYQF 091200Z 30010G18KT 15SM FEW060 M02/M13 A3032 RMK SC1 SLP309=

CYQF;2006-02-09 13:00;METAR CYQF 091300Z 32012G18KT 15SM FEW050 M03/M13 A3036 RMK SC1 SLP322=

CYQF;2006-02-09 14:00;METAR CYQF 091400Z 31010G18KT 15SM FEW050 M03/M13 A3038 RMK SC1 SLP329=

CYQF;2006-02-09 15:00;METAR CYQF 091500Z 30010G15KT 15SM FEW050 FEW100 M03/M12 A3040 RMK SC1AC1 SLP342=

CYQF;2006-02-09 17:00;METAR CYQF 091700Z 31015G25KT 15SM FEW090 M01/M12 A3045 RMK AC1 SLP357=

CYQF;2006-02-09 18:00;METAR CYQF 091800Z 33018G27KT 15SM FEW025 SCT090 M01/M13 A3047 RMK CU2AC2 SLP364=

CYQF;2006-02-09 19:00;METAR CYQF 091900Z 31016G25KT 15SM FEW040 SCT090 M00/M13 A3049 RMK CU1AC3 SLP371=

CYQF;2006-02-09 20:00;METAR CYQF 092000Z 31018G28KT 15SM FEW040 BKN090 M00/M13 A3050 RMK CU2AC3 SLP373=

CYQF;2006-02-09 21:00;METAR CYQF 092100Z 31015G25KT 15SM SCT035 BKN090 01/M13 A3050 RMK CU4AC2 SLP374=

CYQF;2006-02-09 22:00;METAR CYQF 092200Z 30015G25KT 15SM SCT035 BKN090 01/M13 A3050 RMK CU4AC1 SLP375=

CYQF;2006-02-09 23:00;METAR CYQF 092300Z 32016G23KT 15SM FEW035 SCT090 00/M14 A3051 RMK CU2AC1 SLP378=

CYQF;2006-02-10 00:00;METAR CYQF 100000Z 32015G23KT 15SM FEW035 M01/M15 A3054 RMK SC2 SLP390=

CYQF;2006-02-10 01:00;METAR CYQF 100100Z 33012KT 15SM FEW035 FEW250 M02/M16 A3056 RMK SC1CI0 SLP396=

CYQF;2006-02-10 02:00;METAR CYQF 100200Z 33013KT 15SM FEW250 M04/M16 A3057 RMK CI0 SLP401=

CYQF;2006-02-10 03:00;METAR CYQF 100300Z 33008KT 15SM SKC M05/M16 A3060 RMK SLP417=

CYQF;2006-02-10 04:00;METAR CYQF 100400Z 33005KT 15SM SKC M08/M16 A3061 RMK SLP421=

CYQF;2006-02-10 05:00;METAR CYQF 100500Z 32007KT 15SM SKC M09/M17 A3063 RMK SLP427=

CYQF;2006-02-10 06:00;METAR CYQF 100600Z 33008KT 15SM SKC M07/M16 A3065 RMK SLP434=

CYQF;2006-02-10 07:00;METAR CYQF 100700Z 33009KT 15SM FEW100 M07/M15 A3065 RMK AC1 SLP435=

CYQF;2006-02-10 08:00;METAR CYQF 100800Z 28005KT 15SM FEW100 M09/M16 A3067 RMK AC1 SLP440=

CYQF;2006-02-10 09:00;METAR CYQF 100900Z 31008KT 15SM SKC M09/M16 A3067 RMK SLP443=

CYQF;2006-02-10 10:00;METAR CYQF 101000Z 31009KT 15SM SKC M09/M16 A3069 RMK SLP447=

CYQF;2006-02-10 11:00;METAR CYQF 101100Z 31008KT 15SM SKC M09/M16 A3069 RMK SLP447=

CYQF;2006-02-10 12:00;METAR CYQF 101200Z 28005KT 15SM SKC M12/M17 A3069 RMK SLP455=

CYQF;2006-02-10 13:00;METAR CYQF 101300Z 28006KT 15SM FEW250 M13/M18 A3069 RMK CI1 SLP455=

CYQF;2006-02-10 14:00;METAR CYQF 101400Z 29008KT 15SM SCT250 M11/M17 A3070 RMK CI1 SLP456=

CYQF;2006-02-10 15:00;METAR CYQF 101500Z 29004KT 15SM SCT250 M13/M18 A3069 RMK CI1 SLP460=

CYQF;2006-02-10 16:00;METAR CYQF 101600Z 27005KT 15SM SCT250 M18/M18 A3069 RMK CI2 SLP461=

CYQF;2006-02-10 17:00;METAR CYQF 101700Z 25004KT 15SM BKN250 M08/M15 A3068 RMK CI2 SLP457=

CYQF;2006-02-10 18:00;METAR CYQF 101800Z 25003KT 15SM BKN250 M05/M14 A3065 RMK CI3 SLP442=

CYQF;2006-02-10 19:00;METAR CYQF 101900Z 24004KT 15SM BKN250 M05/M14 A3064 RMK CI3 SLP436=

CYQF;2006-02-10 20:00;METAR CYQF 102000Z 31002KT 15SM BKN250 M03/M14 A3061 RMK CI5 SLP428=

CYQF;2006-02-10 21:00;METAR CYQF 102100Z 26004KT 15SM BKN250 M02/M15 A3057 RMK CI3 SLP411=

CYQF;2006-02-10 22:00;METAR CYQF 102200Z 20006KT 15SM SCT250 M01/M15 A3054 RMK CI1 SLP399=

CYQF;2006-02-10 23:00;METAR CYQF 102300Z 19007KT 15SM FEW250 M00/M16 A3051 RMK CI1 SLP390=

CYQF;2006-02-11 00:00;METAR CYQF 110000Z 18006KT 15SM FEW250 M01/M15 A3048 RMK CI0 SLP382=

CYQF;2006-02-11 01:00;METAR CYQF 110100Z 17006KT 15SM FEW250 M05/M16 A3044 RMK CI0 SLP371=

CYQF;2006-02-11 02:00;METAR CYQF 110200Z 18005KT 15SM FEW250 M07/M16 A3044 RMK CI1 SLP368=

CYQF;2006-02-11 03:00;METAR CYQF 110300Z 17005KT 15SM BKN090 M06/M16 A3042 RMK AC3 SLP368=

CYQF;2006-02-11 04:00;METAR CYQF 110400Z 19009KT 15SM BKN080 M03/M15 A3039 RMK AC6 SLP359=

CYQF;2006-02-11 05:00;METAR CYQF 110500Z 20007KT 15SM BKN080 M04/M15 A3037 RMK AC6 SLP353=

CYQF;2006-02-11 06:00;METAR CYQF 110600Z 23005KT 15SM SCT080 M06/M15 A3036 RMK AC2 SLP337=

CYQF;2006-02-11 07:00;METAR CYQF 110700Z 24007KT 15SM FEW240 M08/M16 A3035 RMK CI1 SLP335=

CYQF;2006-02-11 08:00;METAR CYQF 110800Z 24005KT 15SM SCT250 M06/M15 A3035 RMK CI1 SLP335=

CYQF;2006-02-11 09:00;METAR CYQF 110900Z 22004KT 15SM FEW250 M06/M16 A3034 RMK CI0 SLP326=

CYQF;2006-02-11 10:00;METAR CYQF 111000Z 28005KT 15SM SCT250 M07/M15 A3034 RMK CI1 SLP327=

CYQF;2006-02-11 11:00;METAR CYQF 111100Z 27008KT 15SM BKN250 M05/M14 A3034 RMK CI3 SLP325=

CYQF;2006-02-11 12:00;METAR CYQF 111200Z 27007KT 15SM BKN250 M05/M14 A3034 RMK CI2 SLP324=

CYQF;2006-02-11 13:00;METAR CYQF 111300Z 32003KT 15SM BKN250 M05/M14 A3036 RMK CI2 SLP332=

CYQF;2006-02-11 14:00;METAR CYQF 111400Z 00000KT 15SM SCT250 M07/M14 A3036 RMK CI2 SLP332=

CYQF;2006-02-11 15:00;METAR CYQF 111500Z 18004KT 15SM FEW250 M08/M15 A3036 RMK CI1 SLP342=

CYQF;2006-02-11 16:00;METAR CYQF 111600Z 19005KT 15SM FEW250 M07/M14 A3038 RMK CI1 SLP347=

CYQF;2006-02-11 17:00;METAR CYQF 111700Z 22006KT 15SM SKC M01/M11 A3039 RMK SLP351=

CYQF;2006-02-11 18:00;METAR CYQF 111800Z 21005KT 15SM SKC 02/M11 A3039 RMK SLP341=

CYQF;2006-02-11 19:00;METAR CYQF 111900Z 24004KT 15SM SKC 05/M09 A3038 RMK SLP338=

CYQF;2006-02-11 20:00;METAR CYQF 112000Z 27005KT 15SM SKC 08/M09 A3037 RMK SLP334=

CYQF;2006-02-11 21:00;METAR CYQF 112100Z 26005KT 15SM SKC 09/M10 A3036 RMK SLP320=

CYQF;2006-02-11 22:00;METAR CYQF 112200Z 27004KT 15SM SKC 10/M10 A3034 RMK SLP316=

CYQF;2006-02-11 23:00;METAR CYQF 112300Z 27003KT 15SM SKC 10/M09 A3033 RMK SLP312=

CYQF;2006-02-12 00:00;METAR CYQF 120000Z 27002KT 15SM SKC 07/M08 A3033 RMK SLP311=

CYQF;2006-02-12 01:00;METAR CYQF 120100Z 00000KT 15SM SKC 02/M08 A3032 RMK SLP308=

CYQF;2006-02-12 02:00;METAR CYQF 120200Z 22004KT 15SM SKC 01/M09 A3031 RMK SLP306=

CYQF;2006-02-12 03:00;METAR CYQF 120300Z 21004KT 15SM SKC M03/M10 A3031 RMK SLP320=

CYQF;2006-02-12 04:00;METAR CYQF 120400Z 18005KT 15SM SKC M03/M11 A3029 RMK SLP315=

CYQF;2006-02-12 05:00;METAR CYQF 120500Z 21006KT 15SM SKC M04/M11 A3028 RMK SLP311=

CYQF;2006-02-12 06:00;METAR CYQF 120600Z 19004KT 15SM SKC M04/M11 A3027 RMK SLP295=

CYQF;2006-02-12 07:00;METAR CYQF 120700Z 22006KT 15SM SKC M05/M11 A3026 RMK SLP293=

CYQF;2006-02-12 08:00;METAR CYQF 120800Z 19005KT 15SM SKC M05/M11 A3024 RMK SLP285=

CYQF;2006-02-12 09:00;METAR CYQF 120900Z 20006KT 15SM SKC M06/M11 A3021 RMK SLP268=

CYQF;2006-02-12 10:00;METAR CYQF 121000Z 24005KT 15SM SKC M05/M11 A3018 RMK SLP261=

CYQF;2006-02-12 11:00;METAR CYQF 121100Z 24008KT 15SM SKC M05/M11 A3017 RMK SLP257=

CYQF;2006-02-12 12:00;METAR CYQF 121200Z 22005KT 15SM FEW250 M05/M11 A3016 RMK CI2 SLP253=

CYQF;2006-02-12 13:00;METAR CYQF 121300Z 21004KT 15SM FEW250 M05/M11 A3017 RMK CI2 SLP256=

CYQF;2006-02-12 14:00;METAR CYQF 121400Z 21003KT 15SM FEW250 M06/M12 A3017 RMK CI2 SLP257=

CYQF;2006-02-12 15:00;METAR CYQF 121500Z 19006KT 15SM SCT250 M07/M12 A3018 RMK CI2 SLP272=

CYQF;2006-02-12 16:00;METAR CYQF 121600Z 18004KT 15SM FEW120 BKN250 M04/M09 A3018 RMK AC2CI2 CC ASOCTD SLP272=

CYQF;2006-02-12 17:00;METAR CYQF 121700Z 20003KT 15SM FEW120 BKN250 M01/M08 A3016 RMK AC2CI2 SLP268=

CYQF;2006-02-12 18:00;METAR CYQF 121800Z 26005KT 15SM FEW120 BKN210 03/M06 A3015 RMK AC2CI3 SLP253=

CYQF;2006-02-12 19:00;METAR CYQF 121900Z 24003KT 15SM FEW120 BKN210 05/M06 A3014 RMK AC2CI3 CC ASOCTD SLP248=

CYQF;2006-02-12 20:00;METAR CYQF 122000Z 00000KT 15SM FEW120 BKN230 05/M06 A3012 RMK AC2CI2 SLP243=

CYQF;2006-02-12 21:00;METAR CYQF 122100Z 23005KT 15SM FEW120 BKN230 08/M05 A3009 RMK AC1CI2 SLP230=

CYQF;2006-02-12 22:00;METAR CYQF 122200Z 26005KT 15SM FEW120 BKN230 10/M05 A3007 RMK AC1CI2 SLP224=

CYQF;2006-02-12 23:00;METAR CYQF 122300Z 33002KT 15SM FEW120 BKN230 11/M05 A3007 RMK AC1CI2 SLP222=

CYQF;2006-02-13 00:00;METAR CYQF 130000Z 31005KT 15SM FEW120 SCT230 10/M05 A3006 RMK AC1CI2 SLP215=

CYQF;2006-02-13 01:00;METAR CYQF 130100Z 00000KT 15SM FEW120 SCT210 06/M06 A3006 RMK AC2CI1 SLP215=

CYQF;2006-02-13 02:00;METAR CYQF 130200Z 21002KT 15SM SCT120 SCT210 02/M07 A3005 RMK AC3CI0 SLP212=

CYQF;2006-02-13 03:00;METAR CYQF 130300Z 25004KT 15SM FEW120 M00/M08 A3005 RMK AC2 SLP226=

CYQF;2006-02-13 04:00;METAR CYQF 130400Z 26007KT 15SM FEW120 SCT250 M01/M09 A3005 RMK AC1CI1 SLP225=

CYQF;2006-02-13 05:00;METAR CYQF 130500Z 29004KT 15SM SCT250 M01/M08 A3004 RMK CI3 SLP223=

CYQF;2006-02-13 06:00;METAR CYQF 130600Z 19004KT 15SM FEW250 M04/M10 A3005 RMK CI2 SLP216=

CYQF;2006-02-13 07:00;METAR CYQF 130700Z 16004KT 15SM FEW250 M02/M09 A3005 RMK CI1 SLP217=

CYQF;2006-02-13 08:00;METAR CYQF 130800Z 20006KT 15SM SCT250 M06/M11 A3004 RMK CI1 SLP214=

CYQF;2006-02-13 09:00;METAR CYQF 130900Z 21006KT 15SM SCT090 BKN250 M03/M09 A3003 RMK AC3CI1 SLP204=

CYQF;2006-02-13 10:00;METAR CYQF 131000Z 14003KT 15SM BKN080 OVC250 M03/M09 A3002 RMK AC6CI2 SLP200=

CYQF;2006-02-13 11:00;METAR CYQF 131100Z 20004KT 15SM BKN080 OVC250 M02/M08 A2999 RMK AC6CI2 SLP192=

CYQF;2006-02-13 12:00;METAR CYQF 131200Z 23004KT 15SM BKN080 OVC250 M01/M08 A2998 RMK AC6CI2 SLP185=

CYQF;2006-02-13 13:00;METAR CYQF 131300Z 29005KT 15SM BKN080 OVC250 M01/M07 A3000 RMK AC6CI2 SLP190=

CYQF;2006-02-13 13:22;SPECI CYQF 131322Z 32013KT 10SM -SN BKN046 OVC080 RMK SC5AC3=

CYQF;2006-02-13 14:00;METAR CYQF 131400Z 33010KT 10SM -SN BKN040 OVC080 04/M02 A3002 RMK SC6AC2 SLP195=

CYQF;2006-02-13 15:00;METAR CYQF 131500Z 34015G20KT 15SM -RA BKN040 OVC080 04/M05 A3001 RMK SC6AC2 SLP199=

CYQF;2006-02-13 15:06;SPECI CYQF 131506Z 34015G22KT 15SM BKN040 OVC080 RMK SC6AC2=

CYQF;2006-02-13 16:00;METAR CYQF 131600Z 31005KT 15SM BKN040 BKN080 03/M06 A2999 RMK SC5AC2 SHS/VIRGA W-SW-S SLP194=

CYQF;2006-02-13 17:00;METAR CYQF 131700Z 31006KT 15SM FEW030 BKN080 04/M10 A2998 RMK SC2AC4 VIRGA W+S SLP190=

CYQF;2006-02-13 18:00;METAR CYQF 131800Z 33012KT 15SM FEW040 BKN080 BKN250 03/M14 A2996 RMK SC2AC3CI1 VIRGA DIST SW SLP186=

CYQF;2006-02-13 19:00;METAR CYQF 131900Z 31014G20KT 15SM FEW040 BKN080 04/M15 A2993 RMK CU2AC3 VIRGA DIST W SLP177=

CYQF;2006-02-13 20:00;METAR CYQF 132000Z 33015G22KT 15SM FEW040 BKN080 04/M15 A2990 RMK CU2AC4 ACC ASOCTD VIRGA NW-N-NE SLP169=

CYQF;2006-02-13 21:00;METAR CYQF 132100Z 32013G20KT 15SM SCT040 BKN080 04/M15 A2987 RMK CU4AC3 SHS DIST W VIRGA SLP152=

CYQF;2006-02-13 22:00;METAR CYQF 132200Z 31010G18KT 15SM BKN040 BKN080 04/M15 A2985 RMK CU6AC2 VIRGA SHS DIST S QUAD SLP147=

CYQF;2006-02-13 23:00;METAR CYQF 132300Z 32013G20KT 15SM BKN040 BKN080 03/M16 A2984 RMK CU6AC2 XTNSV VIRGA SLP144=

CYQF;2006-02-14 00:00;METAR CYQF 140000Z 32012G21KT 15SM FEW040 BKN080 02/M16 A2984 RMK CU2AC4 SHS/VIRGA S QUAD SHS DIST NW SLP143=

CYQF;2006-02-14 01:00;METAR CYQF 140100Z 31008KT 15SM FEW040 SCT080 M01/M17 A2984 RMK SC2AC2 SLP142=

CYQF;2006-02-14 02:00;METAR CYQF 140200Z 30006KT 15SM FEW040 FEW080 M02/M17 A2983 RMK SC1AC2 SHS DIST W SLP141=

CYQF;2006-02-14 03:00;METAR CYQF 140300Z 30006KT 15SM FEW080 M04/M17 A2984 RMK AC1 SLP143=

CYQF;2006-02-14 04:00;METAR CYQF 140400Z 29011KT 15SM FEW080 M04/M17 A2984 RMK AC1 SLP143=

CYQF;2006-02-14 05:00;METAR CYQF 140500Z 30009KT 15SM FEW080 FEW250 M04/M17 A2985 RMK AC1CI0 SLP146=

CYQF;2006-02-14 06:00;METAR CYQF 140600Z 30008KT 15SM FEW080 FEW250 M06/M17 A2986 RMK AC1CI0 SLP156=

CYQF;2006-02-14 07:00;METAR CYQF 140700Z 31009KT 15SM FEW080 M04/M17 A2988 RMK AC1 SLP160=

CYQF;2006-02-14 08:00;METAR CYQF 140800Z 32014KT 15SM FEW080 M04/M16 A2990 RMK AC1 SLP166=

CYQF;2006-02-14 09:00;METAR CYQF 140900Z 29008KT 15SM FEW080 M06/M16 A2991 RMK AC1 SLP171=

CYQF;2006-02-14 10:00;METAR CYQF 141000Z 29010KT 15SM SKC M05/M16 A2992 RMK SLP173=

CYQF;2006-02-14 11:00;METAR CYQF 141100Z 28006KT 15SM SKC M08/M16 A2994 RMK SLP179=

CYQF;2006-02-14 12:00;METAR CYQF 141200Z 29008KT 15SM SKC M07/M16 A2996 RMK SLP192=

CYQF;2006-02-14 13:00;METAR CYQF 141300Z 33008KT 15SM SKC M07/M15 A2998 RMK SLP198=

CYQF;2006-02-14 14:00;METAR CYQF 141400Z 31012KT 15SM FEW080 FEW250 M07/M13 A3000 RMK AC1CI1 SLP204=

CYQF;2006-02-14 15:00;METAR CYQF 141500Z 31012KT 15SM FEW080 SCT250 M05/M12 A3002 RMK AC2CI1 SLP218=

CYQF;2006-02-14 16:00;METAR CYQF 141600Z 31010KT 15SM FEW080 BKN250 M05/M12 A3004 RMK AC2CI1 SLP223=

CYQF;2006-02-14 17:00;METAR CYQF 141700Z 31014G23KT 15SM FEW020 SCT080 BKN250 M04/M10 A3005 RMK SC2AC2CI1 SLP227=

CYQF;2006-02-14 17:24;SPECI CYQF 141724Z 31015G26KT 10SM -SHSN BKN020 BKN080 OVC250 RMK SC6AC2CI0=

CYQF;2006-02-14 18:00;METAR CYQF 141800Z 31015G27KT 2SM -SHSN OVC020 M04/M09 A3008 RMK SC8 SLP237=

CYQF;2006-02-14 18:03;SPECI CYQF 141803Z 32013G25KT 1SM -SHSN OVC020 RMK SN3SC5=

CYQF;2006-02-14 18:26;SPECI CYQF 141826Z 32015G26KT 2SM -SHSN SCT010 OVC020 RMK SF3SC5=

CYQF;2006-02-14 18:52;SPECI CYQF 141852Z 33015G25KT 4SM -SHSN FEW010 OVC020 RMK SF2SC6 DRSN=

CYQF;2006-02-14 19:00;METAR CYQF 141900Z 33015G25KT 4SM -SHSN FEW010 OVC020 M04/M09 A3009 RMK SF2SC6 DRSN SLP242=

CYQF;2006-02-14 20:00;METAR CYQF 142000Z 36013G25KT 1SM -SHSN SCT010 OVC020 M06/M10 A3012 RMK SF3SC5 DRSN SLP250=

CYQF;2006-02-14 20:45;SPECI CYQF 142045Z 01013G21KT 3SM -SHSN FEW010 BKN020 OVC250 RMK SF2SC4CI1=

CYQF;2006-02-14 21:00;METAR CYQF 142100Z 02012G20KT 2SM -SHSN FEW010 BKN020 OVC250 M06/M11 A3013 RMK SF2SC4CI1 SLP260=

CYQF;2006-02-14 21:20;SPECI CYQF 142120Z 01012KT 3SM -SHSN FEW010 BKN025 BKN250 RMK SF2SC3CI1=

CYQF;2006-02-14 22:00;METAR CYQF 142200Z 36010KT 10SM -SHSN FEW010 BKN020 BKN250 M07/M12 A3015 RMK SF2SC3CI1 SLP267=

CYQF;2006-02-14 23:00;METAR CYQF 142300Z 35012KT 15SM FEW010 SCT020 BKN080 BKN250 M08/M14 A3016 RMK SF2SC2AC1CI0 SLP270=

CYQF;2006-02-15 00:00;METAR CYQF 150000Z 36010KT 15SM FEW020 SCT080 BKN250 M09/M17 A3018 RMK SC2AC2CI1 SLP280=

CYQF;2006-02-15 01:00;METAR CYQF 150100Z 01005KT 15SM BKN090 OVC250 M10/M18 A3018 RMK AC6CI1 SLP282=

CYQF;2006-02-15 02:00;METAR CYQF 150200Z 33003KT 15SM BKN080 BKN250 M10/M17 A3019 RMK AC6CI1 SLP283=

CYQF;2006-02-15 03:00;METAR CYQF 150300Z 32003KT 15SM SCT080 BKN220 M11/M16 A3019 RMK AC3CI1 SLP285=

CYQF;2006-02-15 04:00;METAR CYQF 150400Z 34003KT 15SM FEW010 FEW080 BKN220 M12/M16 A3019 RMK SC1AC2CI1 SLP286=

CYQF;2006-02-15 05:00;METAR CYQF 150500Z 31005KT 15SM SCT120 M12/M17 A3020 RMK AC4 SLP287=

CYQF;2006-02-15 06:00;METAR CYQF 150600Z 34003KT 15SM OVC100 M11/M16 A3021 RMK AC8 SLP289=

CYQF;2006-02-15 06:42;SPECI CYQF 150642Z 33004KT 10SM -SN OVC100 RMK AC8=

CYQF;2006-02-15 07:00;METAR CYQF 150700Z 32005KT 10SM -SN OVC100 M11/M15 A3020 RMK AC8 SLP286=

CYQF;2006-02-15 08:00;METAR CYQF 150800Z 34010KT 10SM -SN SCT040 OVC100 M11/M17 A3020 RMK SC3AC5 SLP285=

CYQF;2006-02-15 09:00;METAR CYQF 150900Z 34010KT 15SM -SN SCT040 OVC100 M11/M17 A3021 RMK SC3AC5 SLP292=

CYQF;2006-02-15 10:00;METAR CYQF 151000Z 32006KT 15SM -SN SCT040 BKN100 M13/M18 A3020 RMK SC3AC3 SLP289=

CYQF;2006-02-15 10:44;SPECI CYQF 151044Z 30005KT 15SM FEW040 BKN100 RMK SC2AC3=

CYQF;2006-02-15 11:00;METAR CYQF 151100Z 30006KT 15SM FEW040 BKN100 M13/M18 A3018 RMK SC2AC4 SLP285=

CYQF;2006-02-15 13:00;METAR CYQF 151300Z 29006KT 15SM SCT100 BKN250 M12/M17 A3015 RMK AC4CI2 SLP279=

CYQF;2006-02-15 14:00;METAR CYQF 151400Z 33008KT 15SM BKN100 OVC250 M11/M17 A3014 RMK AC5CI2 SLP274=

CYQF;2006-02-15 15:00;METAR CYQF 151500Z 32008KT 15SM FEW030 BKN090 M11/M17 A3014 RMK SC2AC6 SLP273=

CYQF;2006-02-15 16:00;METAR CYQF 151600Z 32010KT 15SM FEW020 BKN080 M11/M16 A3014 RMK SC2AC4 SLP272=

CYQF;2006-02-15 17:00;METAR CYQF 151700Z 34009KT 15SM FEW020 SCT080 BKN240 M10/M16 A3012 RMK SC2AC2CI0 SLP267=

CYQF;2006-02-15 18:00;METAR CYQF 151800Z 32013G20KT 15SM SCT025 BKN080 BKN240 M09/M16 A3010 RMK SC4AC2CI1 SLP259=

CYQF;2006-02-15 19:00;METAR CYQF 151900Z 33012G19KT 15SM SCT025 BKN080 BKN240 M08/M15 A3008 RMK SC3AC3CI1 SLP252=

CYQF;2006-02-15 20:00;METAR CYQF 152000Z 32012G19KT 15SM BKN024 BKN080 M08/M15 A3005 RMK SC6AC2 SHSN DIST N SLP243=

CYQF;2006-02-15 20:34;SPECI CYQF 152034Z 33011KT 8SM -SHSN BKN020 OVC080 RMK SC7AC1=

CYQF;2006-02-15 21:00;METAR CYQF 152100Z 35012KT 8SM -SHSN BKN020 OVC080 M08/M14 A3003 RMK SC6AC2 SLP233=

CYQF;2006-02-15 21:46;SPECI CYQF 152146Z 35012KT 1 1/2SM -SHSN OVC020 RMK SN2SC6 DRSN=

CYQF;2006-02-15 22:00;METAR CYQF 152200Z 34008KT 1 1/2SM -SHSN OVC020 M08/M13 A3003 RMK SN2SC6=

CYQF;2006-02-15 22:29;SPECI CYQF 152229Z 33013G20KT 6SM -SHSN BKN015 BKN220 RMK SC6CI1 DRSN=

CYQF;2006-02-15 23:00;METAR CYQF 152300Z 33012G20KT 5SM -SHSN BKN015 OVC220 M08/M14 A3004 RMK SC6CI1 DRSN SLP235=

CYQF;2006-02-16 00:00;METAR CYQF 160000Z 33013G20KT 12SM -SHSN FEW015 BKN080 OVC220 M09/M16 A3007 RMK SF2AC4CI1 DRSN SLP248=

CYQF;2006-02-16 00:49;SPECI CYQF 160049Z 34012G20KT 15SM SCT080 RMK AC4=

CYQF;2006-02-16 01:00;METAR CYQF 160100Z 34012G20KT 15SM SCT080 M10/M17 A3009 RMK AC4 SLP256=

CYQF;2006-02-16 01:09;SPECI CYQF 160109Z 02017G23KT 1/4SM SHSN +BLSN VV010 RMK SN8=

CYQF;2006-02-16 01:25;SPECI CYQF 160125Z 02016G22KT 1SM -SHSN BKN020 OVC080 RMK SN2SC2AC3 BLSN=

CYQF;2006-02-16 01:36;SPECI CYQF 160136Z 36013G20KT 6SM -SHSN BKN015 OVC080 RMK SC5AC3 DRSN=

CYQF;2006-02-16 02:00;METAR CYQF 160200Z 01012G18KT 15SM -SN FEW015 BKN080 M13/M20 A3016 RMK SC2AC2 DRSN PRESRR SLP278=

CYQF;2006-02-16 02:35;SPECI CYQF 160235Z 36010G15KT 15SM FEW080 RMK AC2=

CYQF;2006-02-16 04:00;METAR CYQF 160400Z 35012KT 15SM SCT100 M16/M22 A3023 RMK AC3 SLP309=

CYQF;2006-02-16 05:00;METAR CYQF 160500Z 34010KT 15SM FEW020 SCT100 M16/M23 A3026 RMK SC2AC2 SLP317=

CYQF;2006-02-16 06:00;METAR CYQF 160600Z 01007KT 15SM FEW100 M18/M23 A3031 RMK AC2 /S01/ SLP340=

CYQF;2006-02-16 07:00;METAR CYQF 160700Z 36007KT 15SM FEW100 M19/M24 A3034 RMK AC2 SLP347=

CYQF;2006-02-16 08:00;METAR CYQF 160800Z 36008KT 15SM SCT100 M20/M26 A3037 RMK AC2 SLP358=

CYQF;2006-02-16 09:00;METAR CYQF 160900Z 35004KT 15SM FEW020 FEW100 M22/M27 A3040 RMK SC1AC2 SLP375=

CYQF;2006-02-16 09:18;SPECI CYQF 160918Z 35005KT 8SM -SHSN BKN040 BKN100 RMK SC5AC1=

CYQF;2006-02-16 10:00;METAR CYQF 161000Z 36005KT 8SM -SHSN SCT040 BKN100 M22/M27 A3043 RMK SC3AC0 SLP382=

CYQF;2006-02-16 11:00;METAR CYQF 161100Z 01006KT 10SM -SN BKN040 M23/M28 A3045 RMK SC5 SLP389=

CYQF;2006-02-16 12:00;METAR CYQF 161200Z 36008KT 8SM -SN FEW012 BKN030 M23/M29 A3048 RMK SC1SC4 SLP403=

CYQF;2006-02-16 13:00;METAR CYQF 161300Z 01008KT 8SM -SN FEW012 SCT030 M25/M31 A3051 RMK SC1SC3 SLP413=

CYQF;2006-02-16 14:00;METAR CYQF 161400Z 34006KT 12SM -SN BKN030 M26/M32 A3053 RMK SC3 SLP420=

CYQF;2006-02-16 14:37;SPECI CYQF 161437Z 01005KT 12SM FEW030 SCT120 RMK SC2AC1=

CYQF;2006-02-16 15:00;METAR CYQF 161500Z 02005KT 6SM BR FEW030 SCT120 M27/M32 A3056 RMK SC1AC2 SLP442=

CYQF;2006-02-16 16:00;METAR CYQF 161600Z 36007KT 6SM BR FEW030 FEW120 M27/M33 A3060 RMK SC1AC1 SLP456=

CYQF;2006-02-16 17:00;METAR CYQF 161700Z 34008KT 12SM FEW025 FEW230 M27/M33 A3063 RMK SF1CI1 SLP464=

CYQF;2006-02-16 18:00;METAR CYQF 161800Z 34009KT 15SM FEW025 FEW230 M26/M33 A3064 RMK SF1CI1 SLP473=

CYQF;2006-02-16 19:00;METAR CYQF 161900Z 01003KT 15SM FEW025 FEW230 M25/M32 A3065 RMK SF1CI1 SLP478=

CYQF;2006-02-16 20:00;METAR CYQF 162000Z 36008KT 15SM FEW025 SCT230 M25/M32 A3067 RMK SF2CI1 SLP482=

CYQF;2006-02-16 21:00;METAR CYQF 162100Z 36008KT 15SM FEW025 SCT230 M24/M32 A3068 RMK SF2CI1 SLP490=

CYQF;2006-02-16 22:00;METAR CYQF 162200Z 36011KT 15SM FEW025 FEW230 M24/M32 A3069 RMK SF1CI1 SLP493=

CYQF;2006-02-16 23:00;METAR CYQF 162300Z 35005KT 15SM FEW230 M23/M32 A3069 RMK CI1 SLP495=

CYQF;2006-02-17 00:00;METAR CYQF 170000Z 36009KT 15SM SKC M23/M32 A3070 RMK SLP499=

CYQF;2006-02-17 01:00;METAR CYQF 170100Z 02005KT 15SM SKC M25/M32 A3071 RMK SLP501=

CYQF;2006-02-17 02:00;METAR CYQF 170200Z 02003KT 15SM SKC M25/M32 A3072 RMK SLP503=

CYQF;2006-02-17 03:00;METAR CYQF 170300Z 01003KT 15SM SKC M27/M34 A3072 RMK SLP513=

CYQF;2006-02-17 04:00;METAR CYQF 170400Z 25005KT 15SM SKC M30/M36 A3073 RMK SLP516=

CYQF;2006-02-17 05:00;METAR CYQF 170500Z 25004KT 15SM SKC M29/M35 A3073 RMK SLP516=

CYQF;2006-02-17 06:00;METAR CYQF 170600Z 23004KT 15SM SKC M30/M35 A3072 RMK SLP515=

CYQF;2006-02-17 07:00;METAR CYQF 170700Z 19003KT 15SM SKC M30/M36 A3072 RMK SLP515=

CYQF;2006-02-17 08:00;METAR CYQF 170800Z 19004KT 15SM SKC M30/M35 A3071 RMK SLP512=

CYQF;2006-02-17 09:00;METAR CYQF 170900Z 19004KT 15SM SKC M30/M35 A3069 RMK SLP504=

CYQF;2006-02-17 10:00;METAR CYQF 171000Z 20006KT 15SM SKC M29/M35 A3067 RMK SLP497=

CYQF;2006-02-17 12:00;METAR CYQF 171200Z 19002KT 15SM SKC M29/M35 A3063 RMK SLP479=

CYQF;2006-02-17 13:00;METAR CYQF 171300Z 20006KT 15SM SKC M29/M35 A3060 RMK SLP471=

CYQF;2006-02-17 14:00;METAR CYQF 171400Z 20004KT 15SM SKC M29/M35 A3058 RMK SLP466=

CYQF;2006-02-17 15:00;METAR CYQF 171500Z 20005KT 15SM FEW250 M28/M35 A3057 RMK CI1 SLP464=

CYQF;2006-02-17 16:00;METAR CYQF 171600Z 22004KT 15SM FEW250 M25/M32 A3055 RMK CI1 SLP459=

CYQF;2006-02-17 17:00;METAR CYQF 171700Z 22005KT 15SM FEW250 M22/M29 A3054 RMK CI1 SLP455=

CYQF;2006-02-17 18:00;METAR CYQF 171800Z 23006KT 15SM FEW250 M19/M27 A3051 RMK CI1 SLP434=

CYQF;2006-02-17 19:00;METAR CYQF 171900Z 20004KT 15SM FEW250 M14/M24 A3048 RMK CI1 SLP426=

CYQF;2006-02-17 20:00;METAR CYQF 172000Z 21006KT 15SM FEW250 M11/M23 A3044 RMK CI1 SLP414=

CYQF;2006-02-17 21:00;METAR CYQF 172100Z 23008KT 15SM FEW250 M09/M22 A3041 RMK CI1 SLP388=

CYQF;2006-02-17 22:00;METAR CYQF 172200Z 25007KT 15SM FEW250 M07/M20 A3037 RMK CI1 SLP376=

CYQF;2006-02-17 23:00;METAR CYQF 172300Z 25004KT 15SM FEW120 SCT250 M06/M19 A3035 RMK AC1CI1 SLP369=

CYQF;2006-02-18 01:00;METAR CYQF 180100Z 00000KT 15SM BKN100 M08/M19 A3032 RMK AC6 SLP351=

CYQF;2006-02-18 02:00;METAR CYQF 180200Z 30003KT 15SM BKN100 M10/M20 A3031 RMK AC6 SLP349=

CYQF;2006-02-18 03:00;METAR CYQF 180300Z 30004KT 15SM SCT100 M13/M22 A3031 RMK AC4 SLP356=

CYQF;2006-02-18 04:00;METAR CYQF 180400Z 29005KT 15SM SCT100 M13/M23 A3031 RMK AC3 SLP355=

CYQF;2006-02-18 05:00;METAR CYQF 180500Z 00000KT 15SM FEW100 M13/M23 A3030 RMK AC1 SLP353=

CYQF;2006-02-18 06:00;METAR CYQF 180600Z 21002KT 15SM FEW100 M14/M24 A3029 RMK AC2 SLP340=

CYQF;2006-02-18 07:00;METAR CYQF 180700Z 30005KT 15SM FEW100 M12/M23 A3028 RMK AC1 SLP337=

CYQF;2006-02-18 08:00;METAR CYQF 180800Z 30005KT 15SM FEW100 M10/M22 A3028 RMK AC2 SLP335=

CYQF;2006-02-18 09:00;METAR CYQF 180900Z 30005KT 15SM FEW100 M13/M23 A3028 RMK AC2 SLP322=

CYQF;2006-02-18 10:00;METAR CYQF 181000Z 30007KT 15SM FEW100 SCT250 M13/M22 A3027 RMK AC2CI2 SLP319=

CYQF;2006-02-18 11:00;METAR CYQF 181100Z 30005KT 15SM FEW100 BKN250 M13/M22 A3026 RMK AC2CI2 SLP317=

CYQF;2006-02-18 12:00;METAR CYQF 181200Z 30003KT 15SM BKN250 M13/M21 A3027 RMK CI3 SLP314=

CYQF;2006-02-18 13:00;METAR CYQF 181300Z 24003KT 15SM BKN250 M12/M19 A3026 RMK CI6 SLP313=

CYQF;2006-02-18 14:00;METAR CYQF 181400Z 26004KT 15SM FEW100 BKN250 M10/M18 A3026 RMK AC2CI2 SLP311=

CYQF;2006-02-18 15:00;METAR CYQF 181500Z 30004KT 15SM SCT100 BKN250 M10/M16 A3025 RMK AC3CI2 SLP314=

CYQF;2006-02-18 16:00;METAR CYQF 181600Z 30006KT 15SM FEW100 BKN250 M08/M15 A3026 RMK AC2CI2 SLP316=

CYQF;2006-02-18 17:00;METAR CYQF 181700Z 32008KT 15SM FEW100 BKN250 M06/M13 A3027 RMK AC2CI2 SLP318=

CYQF;2006-02-18 18:00;METAR CYQF 181800Z 33010G20KT 15SM SCT030 OVC250 M05/M12 A3026 RMK SC4CI2 SLP314=

CYQF;2006-02-18 19:00;METAR CYQF 181900Z 33012G21KT 15SM SCT030 OVC250 M05/M11 A3026 RMK SC3CI2 SLP313=

CYQF;2006-02-18 20:00;METAR CYQF 182000Z 33012G24KT 15SM SCT030 BKN250 M05/M11 A3026 RMK SC4CI2 SLP313=

CYQF;2006-02-18 20:50;SPECI CYQF 182050Z 33012G21KT 10SM -SN BKN025 OVC250 RMK SC6CI2=

CYQF;2006-02-18 21:00;METAR CYQF 182100Z 33010G20KT 6SM -SN OVC025 M05/M10 A3025 RMK SC8 SLP306=

CYQF;2006-02-18 22:00;METAR CYQF 182200Z 34008KT 10SM -SN SCT025 BKN120 BKN250 M04/M10 A3024 RMK SC4AC2CI1 SLP303=

CYQF;2006-02-18 22:30;SPECI CYQF 182230Z 33010KT 15SM FEW025 BKN060 BKN120 OVC250 RMK SC2SC2AC2CI1=

CYQF;2006-02-18 23:00;METAR CYQF 182300Z 32006KT 15SM FEW025 BKN060 OVC250 M04/M10 A3023 RMK SC2SC4CI2 SLP300=

CYQF;2006-02-19 00:00;METAR CYQF 190000Z 34009KT 15SM SCT025 BKN060 OVC250 M05/M10 A3023 RMK SC3SC4CI1 SLP299=

CYQF;2006-02-19 00:21;SPECI CYQF 190021Z 34008KT 15SM -SN BKN025 OVC060 RMK SC6SC2=

CYQF;2006-02-19 01:00;METAR CYQF 190100Z 34007KT 10SM -SN OVC025 M05/M10 A3023 RMK SC8 SLP299=

CYQF;2006-02-19 02:00;METAR CYQF 190200Z 33004KT 10SM -SN OVC030 M05/M10 A3023 RMK SC8 SLP299=

CYQF;2006-02-19 03:00;METAR CYQF 190300Z 33005KT 15SM -SN OVC023 M05/M11 A3022 RMK SC8 SLP294=

CYQF;2006-02-19 04:00;METAR CYQF 190400Z 33005KT 15SM -SN OVC022 M05/M10 A3020 RMK SC8 SLP287=

CYQF;2006-02-19 05:00;METAR CYQF 190500Z 31006KT 15SM OVC022 M05/M11 A3018 RMK SC8 SLP281=

CYQF;2006-02-19 06:00;METAR CYQF 190600Z 25004KT 15SM FEW022 M11/M15 A3016 RMK SC2 SLP274=

CYQF;2006-02-19 07:00;METAR CYQF 190700Z 22004KT 15SM SKC M11/M14 A3013 RMK SLP265=

CYQF;2006-02-19 08:00;METAR CYQF 190800Z 20004KT 15SM SKC M14/M17 A3011 RMK SLP257=

CYQF;2006-02-19 09:00;METAR CYQF 190900Z 21004KT 15SM SKC M17/M20 A3008 RMK SLP253=

CYQF;2006-02-19 10:00;METAR CYQF 191000Z 20004KT 15SM SKC M15/M18 A3005 RMK SLP244=

CYQF;2006-02-19 11:00;METAR CYQF 191100Z 20003KT 15SM SKC M15/M18 A3003 RMK SLP236=

CYQF;2006-02-19 12:00;METAR CYQF 191200Z 22005KT 15SM SKC M14/M17 A3000 RMK SLP222=

CYQF;2006-02-19 13:00;METAR CYQF 191300Z 00000KT 15SM SKC M14/M17 A2998 RMK SLP216=

CYQF;2006-02-19 14:00;METAR CYQF 191400Z 21006KT 15SM SKC M14/M18 A2995 RMK SLP206=

CYQF;2006-02-19 15:00;METAR CYQF 191500Z 22007KT 15SM FEW100 FEW250 M14/M18 A2992 RMK AC2CI0 SLP195=

CYQF;2006-02-19 16:00;METAR CYQF 191600Z 27005KT 15SM SCT250 M12/M16 A2992 RMK CI2 SLP194=

CYQF;2006-02-19 17:00;METAR CYQF 191700Z 24005KT 15SM SCT250 M09/M14 A2990 RMK CI2 SLP189=

CYQF;2006-02-19 18:00;METAR CYQF 191800Z 26007KT 15SM SCT250 M06/M13 A2989 RMK CI2 SLP181=

CYQF;2006-02-19 19:00;METAR CYQF 191900Z 25007KT 15SM BKN250 M03/M11 A2987 RMK CI2 SLP174=

CYQF;2006-02-19 20:00;METAR CYQF 192000Z 28007KT 15SM FEW060 BKN250 00/M10 A2985 RMK SC1CI2 SLP167=

CYQF;2006-02-19 21:00;METAR CYQF 192100Z 30012KT 15SM FEW060 BKN250 02/M10 A2983 RMK SC1CI2 SLP157=

CYQF;2006-02-19 22:00;METAR CYQF 192200Z 32012G21KT 15SM FEW060 BKN250 01/M07 A2982 RMK SC1CI2 SLP155=

CYQF;2006-02-19 23:00;METAR CYQF 192300Z 32010KT 15SM FEW050 BKN250 00/M06 A2982 RMK SC1CI2 SLP154=

CYQF;2006-02-20 00:00;METAR CYQF 200000Z 32010KT 15SM FEW050 BKN250 01/M07 A2981 RMK SC2CI2 SLP150=

CYQF;2006-02-20 01:00;METAR CYQF 200100Z 28004KT 15SM FEW050 FEW120 SCT250 M03/M08 A2980 RMK SC1AC2CI1 SLP146=

CYQF;2006-02-20 02:00;METAR CYQF 200200Z 28006KT 15SM SCT120 M02/M06 A2979 RMK AC3 SLP143=

CYQF;2006-02-20 03:00;METAR CYQF 200300Z 29007KT 15SM FEW120 M01/M05 A2980 RMK AC2 SLP147=

CYQF;2006-02-20 04:00;METAR CYQF 200400Z 30006KT 15SM SCT120 M03/M07 A2980 RMK AC2 SLP148=

CYQF;2006-02-20 05:00;METAR CYQF 200500Z 31005KT 15SM FEW120 M05/M09 A2982 RMK AC2 SLP153=

CYQF;2006-02-20 06:00;METAR CYQF 200600Z 31004KT 15SM FEW120 M06/M11 A2982 RMK AC2 SLP152=

CYQF;2006-02-20 07:00;METAR CYQF 200700Z 00000KT 15SM FEW120 M08/M13 A2982 RMK AC1 SLP150=

CYQF;2006-02-20 08:00;METAR CYQF 200800Z 27003KT 15SM FEW100 M09/M14 A2981 RMK AC1 SLP147=

CYQF;2006-02-20 09:00;METAR CYQF 200900Z 27003KT 15SM FEW100 M10/M15 A2981 RMK AC1 SLP143=

CYQF;2006-02-20 10:00;METAR CYQF 201000Z 20003KT 15SM FEW100 M10/M14 A2981 RMK AC2 SLP142=

CYQF;2006-02-20 11:00;METAR CYQF 201100Z 20004KT 15SM SCT100 M09/M13 A2979 RMK AC3 SLP136=

CYQF;2006-02-20 12:00;METAR CYQF 201200Z 20006KT 15SM SCT100 BKN250 M09/M11 A2977 RMK AC3CI1 SLP130=

CYQF;2006-02-20 13:00;METAR CYQF 201300Z 23004KT 15SM SCT100 BKN250 M09/M12 A2976 RMK AC3CI2 SLP128=

CYQF;2006-02-20 14:00;METAR CYQF 201400Z 20004KT 15SM SCT100 BKN250 M08/M12 A2976 RMK AC3CI2 SLP128=

CYQF;2006-02-20 15:00;METAR CYQF 201500Z 29004KT 15SM FEW040 OVC080 M06/M10 A2977 RMK SC2AC4 SLP128=

CYQF;2006-02-20 15:38;SPECI CYQF 201538Z 30006KT 4SM -SN BKN030 OVC080 RMK SC6AC2=

CYQF;2006-02-20 16:00;METAR CYQF 201600Z 32004KT 3SM -SN BKN030 OVC100 M04/M07 A2978 RMK SC6AC2 SLP131=

CYQF;2006-02-20 17:00;METAR CYQF 201700Z 27003KT 2SM -SN BKN030 OVC080 M03/M06 A2979 RMK SC6AC2 SLP134=

CYQF;2006-02-20 17:40;SPECI CYQF 201740Z 29004KT 3SM -SN FEW010 BKN030 OVC080 RMK SF2SC5AC2=

CYQF;2006-02-20 18:00;METAR CYQF 201800Z 30005KT 1 1/2SM -SN FEW010 OVC040 M03/M06 A2979 RMK SF2SC6 SLP137=

CYQF;2006-02-20 19:00;METAR CYQF 201900Z 26004KT 1 1/4SM -SN FEW010 OVC030 M02/M04 A2979 RMK SF2SC6 SLP136=

CYQF;2006-02-20 19:23;SPECI CYQF 201923Z 28006KT 3SM -SN FEW010 OVC030 RMK SF2SC6=

CYQF;2006-02-20 20:00;METAR CYQF 202000Z 29010KT 5SM -SN FEW010 BKN040 OVC090 M02/M05 A2977 RMK SF2SC3AC2 SLP131=

CYQF;2006-02-20 21:00;METAR CYQF 202100Z 31012KT 3SM -SN SCT010 OVC040 M01/M05 A2976 RMK SF3SC5 SLP131=

CYQF;2006-02-20 21:25;SPECI CYQF 202125Z 31010KT 1 1/2SM -SHSN SCT010 OVC040 RMK SF4SC4=

CYQF;2006-02-20 22:00;METAR CYQF 202200Z 32012KT 3SM -SHSN SCT010 OVC040 M01/M05 A2976 RMK SF4SC4 SLP129=

CYQF;2006-02-20 22:43;SPECI CYQF 202243Z 33012KT 15SM FEW010 BKN030 RMK SF2SC5=

CYQF;2006-02-21 00:00;METAR CYQF 210000Z 32012KT 15SM FEW015 BKN030 BKN250 M01/M06 A2976 RMK SF2SC4CI1 SLP130=

CYQF;2006-02-21 01:00;METAR CYQF 210100Z 32009KT 15SM FEW015 BKN040 OVC100 M01/M06 A2978 RMK SF2SC6AC1 SLP135=

CYQF;2006-02-21 01:37;SPECI CYQF 210137Z 31006KT 12SM -SHSN FEW015 BKN040 OVC100 RMK SF2SC5AC1=

CYQF;2006-02-21 02:00;METAR CYQF 210200Z 34010KT 15SM -SHSN FEW015 BKN050 OVC100 M01/M07 A2978 RMK SF2SC6AC1 SLP136=

CYQF;2006-02-21 02:32;SPECI CYQF 210232Z 33010KT 15SM FEW015 BKN050 OVC100 RMK SF2SC6AC1=

CYQF;2006-02-21 03:00;METAR CYQF 210300Z 32005KT 15SM FEW015 BKN050 OVC100 M02/M07 A2980 RMK SF2SC4AC2 SLP138=

CYQF;2006-02-21 04:00;METAR CYQF 210400Z 29005KT 15SM FEW050 SCT100 M05/M09 A2979 RMK SC2AC1 SLP137=

CYQF;2006-02-21 05:00;METAR CYQF 210500Z 28006KT 15SM SCT050 BKN100 M02/M08 A2979 RMK SC3AC2 SLP135=

CYQF;2006-02-21 06:00;METAR CYQF 210600Z 27004KT 15SM FEW050 SCT100 M04/M09 A2979 RMK SC2AC2 SLP136=

CYQF;2006-02-21 07:00;METAR CYQF 210700Z 27005KT 15SM FEW045 FEW100 M05/M09 A2978 RMK SC1AC2 SLP133=

CYQF;2006-02-21 08:00;METAR CYQF 210800Z 28004KT 15SM FEW045 SCT100 M06/M09 A2977 RMK SC2AC2 SLP130=

CYQF;2006-02-21 09:00;METAR CYQF 210900Z 31004KT 15SM FEW045 SCT100 M06/M09 A2976 RMK SC2AC2 SLP123=

CYQF;2006-02-21 10:00;METAR CYQF 211000Z 28006KT 15SM SCT040 BKN100 M05/M09 A2975 RMK SC3AC3 SLP121=

CYQF;2006-02-21 11:00;METAR CYQF 211100Z 27006KT 15SM SCT040 OVC100 M03/M08 A2975 RMK SC3AC5 SLP120=

CYQF;2006-02-21 11:25;SPECI CYQF 211125Z 25004KT 4SM -SN BKN040 OVC080 RMK SC6AC2=

CYQF;2006-02-21 11:38;SPECI CYQF 211138Z 29008KT 2SM -SN BKN030 OVC080 RMK SN2SC5AC1=

CYQF;2006-02-21 12:00;METAR CYQF 211200Z 27008KT 2SM -SN OVC030 M03/M06 A2974 RMK SN2SC6 SLP115=

CYQF;2006-02-21 12:38;SPECI CYQF 211238Z 26008KT 5SM -SN OVC035 RMK SC8=

CYQF;2006-02-21 13:00;METAR CYQF 211300Z 25006KT 4SM -SN OVC025 M03/M07 A2973 RMK SC8 SLP111=

CYQF;2006-02-21 14:00;METAR CYQF 211400Z 25008KT 10SM -SN BKN025 OVC060 M03/M07 A2970 RMK SC5SC3 SLP103=

CYQF;2006-02-21 14:25;SPECI CYQF 211425Z 26008KT 15SM SCT030 OVC080 RMK SC3AC5=

CYQF;2006-02-21 15:00;METAR CYQF 211500Z 26008KT 15SM FEW025 BKN080 BKN250 M03/M07 A2969 RMK SC2AC3CI1 SLP098=

CYQF;2006-02-21 16:00;METAR CYQF 211600Z 25004KT 15SM FEW030 BKN090 OVC250 M04/M08 A2969 RMK SC2AC3CI2 SLP098=

CYQF;2006-02-21 17:00;METAR CYQF 211700Z 24004KT 15SM FEW090 BKN250 M03/M07 A2967 RMK AC2CI2 SLP093=

CYQF;2006-02-21 18:00;METAR CYQF 211800Z 28005KT 15SM FEW040 BKN090 BKN250 M01/M07 A2967 RMK SC2AC3CI1 SLP091=

CYQF;2006-02-21 18:42;SPECI CYQF 211842Z 29012KT 10SM -SHSN BKN040 BKN090 RMK SC5AC2 VIS N 2=

CYQF;2006-02-21 19:00;METAR CYQF 211900Z 29008KT 5SM -SHSN BKN040 OVC090 M01/M06 A2966 RMK SC6AC1 SLP087=

CYQF;2006-02-21 19:13;SPECI CYQF 211913Z 28008KT 15SM FEW015 BKN040 OVC090 RMK SF2SC3AC2=

CYQF;2006-02-21 20:00;METAR CYQF 212000Z 29007KT 15SM FEW025 SCT090 BKN270 M01/M06 A2963 RMK SC2AC1CI1 SLP079=

CYQF;2006-02-21 21:00;METAR CYQF 212100Z 30009KT 15SM SCT025 BKN090 BKN270 00/M05 A2961 RMK SC4AC2CI0 SHS DIST N SLP070=

CYQF;2006-02-21 22:00;METAR CYQF 212200Z 33007KT 15SM FEW025 BKN090 BKN270 00/M06 A2957 RMK SC2AC2CI0 TCU ASOCTD SLP060=

CYQF;2006-02-21 23:00;METAR CYQF 212300Z 30005KT 15SM FEW025 BKN080 01/M06 A2957 RMK SC2AC5 SHS DIST W SLP059=

CYQF;2006-02-21 23:12;SPECI CYQF 212312Z 29009KT 6SM -SHSN BKN025 OVC080 RMK SC5AC3 VIS W 2=

CYQF;2006-02-21 23:32;SPECI CYQF 212332Z 30004KT 15SM BKN025 OVC080 RMK SC6AC2 VIRGA=

CYQF;2006-02-21 23:51;SPECI CYQF 212351Z 03003KT 12SM -SHSN BKN025 OVC080 RMK SC7AC1=

CYQF;2006-02-22 00:00;METAR CYQF 220000Z 02003KT 12SM -SHSN BKN025 OVC080 M01/M05 A2957 RMK SC7AC1 SLP054=

CYQF;2006-02-22 01:00;METAR CYQF 220100Z 29004KT 6SM -SHSN FEW010 OVC020 M01/M05 A2957 RMK SF2SC6 SLP055=

CYQF;2006-02-22 01:47;SPECI CYQF 220147Z 29005KT 1 1/2SM -SHSN OVC016 RMK SC8=

CYQF;2006-02-22 02:00;METAR CYQF 220200Z 30005KT 1/2SM SN VV006 M02/M05 A2958 RMK SN8 SLP057=

CYQF;2006-02-22 02:27;SPECI CYQF 220227Z 31003KT 5SM -SN OVC016 RESN RMK SC8=

CYQF;2006-02-22 03:00;METAR CYQF 220300Z 00000KT 8SM -SN OVC014 M03/M05 A2957 RESN RMK SC8 SLP058=

CYQF;2006-02-22 04:00;METAR CYQF 220400Z 27004KT 15SM -SN SCT014 BKN028 M04/M07 A2957 RMK SC4SC3 SLP059=

CYQF;2006-02-22 05:00;METAR CYQF 220500Z 27004KT 15SM FEW014 OVC028 M04/M07 A2957 RMK SC2SC6 SLP059=

CYQF;2006-02-22 06:00;METAR CYQF 220600Z 00000KT 15SM FEW015 OVC030 M04/M07 A2959 RMK SC1SC7 SLP065=

CYQF;2006-02-22 07:00;METAR CYQF 220700Z 00000KT 15SM OVC025 M04/M08 A2959 RMK SC8 SLP064=

CYQF;2006-02-22 07:27;SPECI CYQF 220727Z 27003KT 8SM -SHSN OVC023 RMK SC8=

CYQF;2006-02-22 07:49;SPECI CYQF 220749Z 27002KT 1SM -SHSN OVC012 RMK SN5SC3=

CYQF;2006-02-22 08:00;METAR CYQF 220800Z 28002KT 1SM -SHSN OVC012 M04/M06 A2959 RMK SN5SC3 SLP065=

CYQF;2006-02-22 08:29;SPECI CYQF 220829Z 36002KT 1 1/2SM -SN OVC010 RMK SN5SC3=

CYQF;2006-02-22 08:53;SPECI CYQF 220853Z 36003KT 1 1/2SM -SN OVC007 RMK SN6SC2=

CYQF;2006-02-22 09:00;METAR CYQF 220900Z 01005KT 1 1/2SM -SN OVC007 M04/M06 A2960 RMK SN6SC2 /S02/ SLP066=

CYQF;2006-02-22 10:00;METAR CYQF 221000Z 06008KT 3SM -SN OVC015 M06/M09 A2963 RMK SN2SC6 SLP074=

CYQF;2006-02-22 10:40;SPECI CYQF 221040Z 05007KT 1 1/2SM -SN OVC012 RMK SN5SC3=

CYQF;2006-02-22 11:00;METAR CYQF 221100Z 06009KT 1 1/2SM -SN OVC012 M06/M09 A2964 RMK SN5SC3 SLP076=

CYQF;2006-02-22 11:38;SPECI CYQF 221138Z 06006KT 3SM -SN OVC011 RMK SN2SC6=

CYQF;2006-02-22 12:00;METAR CYQF 221200Z 06006KT 10SM -SN OVC011 M07/M10 A2966 RMK SC8 CIG RAG SLP089=

CYQF;2006-02-22 13:00;METAR CYQF 221300Z 09006KT 10SM -SN OVC010 M07/M10 A2967 RMK SC8 CIG RAG SLP093=

CYQF;2006-02-22 13:35;SPECI CYQF 221335Z 09004KT 2SM -SN OVC010 RMK SN6SC2=

CYQF;2006-02-22 14:00;METAR CYQF 221400Z 10005KT 1 1/2SM -SN OVC010 M07/M10 A2968 RMK SN6SC2 SLP098=

CYQF;2006-02-22 15:00;METAR CYQF 221500Z 11003KT 1SM -SN OVC010 M07/M10 A2971 RMK SN6SC2 SLP109=

CYQF;2006-02-22 15:33;SPECI CYQF 221533Z 00000KT 3/4SM -SN VV010 RMK SN8=

CYQF;2006-02-22 16:00;METAR CYQF 221600Z 14004KT 3/4SM -SN VV010 M07/M10 A2973 RMK SN8 /S01/ SLP115=

CYQF;2006-02-22 16:31;SPECI CYQF 221631Z 15004KT 3/8SM SN VV008 RMK SN8=

CYQF;2006-02-22 16:51;SPECI CYQF 221651Z 13004KT 1SM -SN VV010 RMK SN8=

CYQF;2006-02-22 17:00;METAR CYQF 221700Z 14005KT 1SM -SN VV010 M08/M10 A2975 RMK SN8 /S02/ SLP121=

CYQF;2006-02-22 17:14;SPECI CYQF 221714Z 14004KT 1 1/2SM -SN OVC020 RMK SN6SC2=

CYQF;2006-02-22 17:38;SPECI CYQF 221738Z 14004KT 1SM -SN VV010 RMK SN8=

CYQF;2006-02-22 18:00;METAR CYQF 221800Z 14004KT 1 3/4SM -SN OVC020 M07/M10 A2976 RMK SN6SC2 /S04/ SLP127=

CYQF;2006-02-22 18:09;SPECI CYQF 221809Z 13003KT 2 1/2SM -SN OVC030 RMK SN2SC6=

CYQF;2006-02-22 18:16;SPECI CYQF 221816Z 13004KT 1SM -SN VV010 RMK SN8=

CYQF;2006-02-22 18:52;SPECI CYQF 221852Z 16005KT 4SM -SN OVC030 RMK SC8=

CYQF;2006-02-22 19:00;METAR CYQF 221900Z 16005KT 4SM -SN OVC030 M07/M10 A2977 RMK SC8 /S01/ SLP133=

CYQF;2006-02-22 20:00;METAR CYQF 222000Z 23003KT 15SM BKN020 BKN090 M05/M09 A2977 RMK SC6AC1 SLP132=

CYQF;2006-02-22 21:00;METAR CYQF 222100Z 33012G20KT 15SM DRSN FEW030 SCT090 BKN250 M06/M11 A2980 RMK SC2AC2CI1 SLP141=

CYQF;2006-02-22 22:00;METAR CYQF 222200Z 35005KT 15SM FEW030 SCT090 BKN250 M07/M12 A2982 RMK SC2AC1CI1 SLP146=

CYQF;2006-02-22 23:00;METAR CYQF 222300Z 33004KT 15SM FEW030 FEW090 SCT250 M07/M13 A2983 RMK SF1AC1CI1 SLP151=

CYQF;2006-02-23 00:00;METAR CYQF 230000Z 35005KT 15SM FEW030 SCT090 BKN250 M08/M14 A2985 RMK SC2AC1CI1 SLP163=

CYQF;2006-02-23 01:00;METAR CYQF 230100Z 35003KT 15SM FEW030 BKN090 BKN250 M10/M15 A2985 RMK SC2AC3CI1 SLP165=

CYQF;2006-02-23 02:00;METAR CYQF 230200Z 00000KT 15SM SCT030 BKN100 OVC250 M12/M15 A2985 RMK SC3AC3CI1 SLP165=

CYQF;2006-02-23 03:00;METAR CYQF 230300Z 00000KT 15SM FEW030 BKN100 BKN250 M13/M16 A2985 RMK SC2AC2CI0 SLP172=

CYQF;2006-02-23 05:00;METAR CYQF 230500Z 00000KT 15SM FEW030 BKN080 M13/M16 A2985 RMK SC2AC5 SLP173=

CYQF;2006-02-23 06:00;METAR CYQF 230600Z 20003KT 15SM OVC075 M15/M19 A2985 RMK AC8 SLP175=

CYQF;2006-02-23 07:00;METAR CYQF 230700Z 00000KT 15SM OVC075 M13/M16 A2985 RMK AC7 SLP175=

CYQF;2006-02-23 08:00;METAR CYQF 230800Z 00000KT 12SM FEW030 OVC080 M12/M15 A2987 RMK SC2AC5 SLP179=

CYQF;2006-02-23 09:00;METAR CYQF 230900Z 20002KT 15SM SCT080 BKN250 M14/M18 A2985 RMK AC3CI1 SLP171=

CYQF;2006-02-23 10:00;METAR CYQF 231000Z 00000KT 15SM FEW080 OVC230 M14/M17 A2985 RMK AC2CI5 SLP173=

CYQF;2006-02-23 11:00;METAR CYQF 231100Z 00000KT 15SM FEW040 OVC100 M15/M18 A2986 RMK SC2AC6 SLP174=

CYQF;2006-02-23 12:00;METAR CYQF 231200Z 00000KT 15SM OVC100 M15/M18 A2985 RMK AC7 SLP175=

CYQF;2006-02-23 13:00;METAR CYQF 231300Z 22002KT 15SM OVC100 M15/M18 A2985 RMK AC8 SLP175=

CYQF;2006-02-23 14:00;METAR CYQF 231400Z 00000KT 10SM SCT050 BKN100 M14/M18 A2984 RMK SC3AC4 BR SLP172=

CYQF;2006-02-23 15:00;METAR CYQF 231500Z 00000KT 10SM FEW050 BKN100 M15/M18 A2985 RMK SC2AC5 SLP178=

CYQF;2006-02-23 16:00;METAR CYQF 231600Z 00000KT 10SM FEW050 OVC100 M13/M16 A2985 RMK SC2AC5 BR SLP179=

CYQF;2006-02-23 17:00;METAR CYQF 231700Z 00000KT 10SM SCT050 OVC090 M11/M15 A2985 RMK SC4AC3 BR SLP178=

CYQF;2006-02-23 18:00;METAR CYQF 231800Z 03002KT 10SM SCT050 OVC090 M11/M15 A2985 RMK SC4AC3 BR SLP176=

CYQF;2006-02-23 19:00;METAR CYQF 231900Z 09004KT 10SM FEW015 BKN045 OVC080 M09/M13 A2984 RMK SC1SC5AC2 BR SLP173=

CYQF;2006-02-23 20:00;METAR CYQF 232000Z 12003KT 12SM FEW015 BKN045 OVC080 M08/M12 A2982 RMK SC1SC5AC2 SLP169=

CYQF;2006-02-23 21:00;METAR CYQF 232100Z 11003KT 15SM SCT045 OVC080 M07/M12 A2982 RMK SC4AC4 SLP162=

CYQF;2006-02-23 22:00;METAR CYQF 232200Z 09002KT 15SM FEW045 OVC080 M07/M12 A2983 RMK SC2AC5 SLP164=

CYQF;2006-02-23 23:00;METAR CYQF 232300Z 05004KT 15SM FEW045 OVC080 M07/M12 A2983 RMK SC2AC5 SLP166=

CYQF;2006-02-23 23:23;SPECI CYQF 232323Z 06004KT 10SM -SN SCT040 OVC080 RMK SC4AC4 VIS S 3=

CYQF;2006-02-24 00:00;METAR CYQF 240000Z 05005KT 8SM -SN BKN040 OVC080 M08/M12 A2984 RMK SC5AC3 VIS S 3 SLP170=

CYQF;2006-02-24 01:00;METAR CYQF 240100Z 06006KT 10SM -SN SCT040 BKN100 OVC250 M09/M13 A2985 RMK SC3AC3CI1 SLP172=

CYQF;2006-02-24 02:00;METAR CYQF 240200Z 05007KT 15SM FEW040 BKN100 OVC250 M09/M13 A2987 RMK SC2AC3CI2 SLP179=

CYQF;2006-02-24 03:00;METAR CYQF 240300Z 04008KT 10SM -SN BKN010 OVC040 M10/M13 A2988 RMK SC6SC2 SLP185=

CYQF;2006-02-24 04:00;METAR CYQF 240400Z 05005KT 10SM -SN OVC007 M10/M13 A2990 RMK SC8 SLP192=

CYQF;2006-02-24 05:00;METAR CYQF 240500Z 06004KT 10SM -SN SCT008 OVC025 M11/M13 A2991 RMK SF4SC4 SLP194=

CYQF;2006-02-24 06:00;METAR CYQF 240600Z 05003KT 15SM FEW010 SCT025 OVC050 M11/M14 A2993 RMK SF2SC2SC4 SLP200=

CYQF;2006-02-24 06:38;SPECI CYQF 240638Z 06004KT 10SM -SN SCT006 OVC030 RMK SF3SC5=

CYQF;2006-02-24 07:00;METAR CYQF 240700Z 06004KT 10SM -SN BKN006 OVC030 M11/M14 A2995 RMK SF6SC2 SLP206=

CYQF;2006-02-24 07:43;SPECI CYQF 240743Z 05004KT 1SM -SN VV005 RMK SN8=

CYQF;2006-02-24 08:00;METAR CYQF 240800Z 06004KT 1SM -SN SCT006 VV015 M11/M14 A2997 RMK SF3SN5 SLP212=

CYQF;2006-02-24 09:00;METAR CYQF 240900Z 04004KT 1SM -SN BR VV012 M11/M14 A2999 RMK SN8 SLP217=

CYQF;2006-02-24 09:28;SPECI CYQF 240928Z 05004KT 2SM -SN BR VV015 RMK SN8=

CYQF;2006-02-24 10:00;METAR CYQF 241000Z 05003KT 2 1/2SM -SN BR OVC020 M12/M15 A3000 RMK SN4SC4 SLP222=

CYQF;2006-02-24 11:00;METAR CYQF 241100Z 03003KT 1 1/2SM -SN BR VV015 M12/M15 A3002 RMK SN8 /S01/ SLP228=

CYQF;2006-02-24 11:26;SPECI CYQF 241126Z 04004KT 1SM -SN BR VV010 RMK SN8=

CYQF;2006-02-24 12:00;METAR CYQF 241200Z 05003KT 1SM -SN BR VV010 M11/M15 A3004 RMK SN8 /S02/ SLP235=

CYQF;2006-02-24 13:00;METAR CYQF 241300Z 07003KT 1SM -SN VV012 M12/M15 A3006 RMK SN8 SLP241=

CYQF;2006-02-24 14:00;METAR CYQF 241400Z 05002KT 1SM -SN VV012 M11/M15 A3007 RMK SN8 SLP245=

CYQF;2006-02-24 15:00;METAR CYQF 241500Z 08002KT 2SM -SN OVC060 M12/M15 A3009 RMK SN3SC5 /S01/ SLP255=

CYQF;2006-02-24 16:00;METAR CYQF 241600Z 08002KT 1SM -SN OVC040 M12/M15 A3010 RMK SN6SC2 VIS VRB 3/4-11/4 SLP259=

CYQF;2006-02-24 16:54;SPECI CYQF 241654Z 14002KT 3SM -SN FEW040 BKN250 RMK SC2CI2=

CYQF;2006-02-24 17:00;METAR CYQF 241700Z 15002KT 3SM -SN FEW040 BKN250 M11/M15 A3011 RMK SC2CI1 SLP263=

CYQF;2006-02-24 18:00;METAR CYQF 241800Z 15003KT 15SM FEW040 FEW250 M10/M15 A3012 RMK SC2CI0 /S02/ SLP265=

CYQF;2006-02-24 19:00;METAR CYQF 241900Z 15004KT 15SM FEW250 M10/M15 A3013 RMK CI2 SLP269=

CYQF;2006-02-24 20:00;METAR CYQF 242000Z 18006KT 12SM SCT035 M09/M14 A3014 RMK SC3 SHS DIST S SLP271=

CYQF;2006-02-24 21:00;METAR CYQF 242100Z 20005KT 15SM -SN SCT035 M09/M14 A3014 RMK SC3 SLP270=

CYQF;2006-02-24 21:29;SPECI CYQF 242129Z 16005KT 15SM SCT035 RMK SC2=

CYQF;2006-02-24 22:00;METAR CYQF 242200Z 16004KT 15SM FEW035 SCT250 M09/M14 A3013 RMK SC2CI1 SLP269=

CYQF;2006-02-24 23:00;METAR CYQF 242300Z 19003KT 15SM FEW040 SCT100 BKN250 M09/M14 A3015 RMK SC2AC2CI2 SLP273=

CYQF;2006-02-25 00:00;METAR CYQF 250000Z 19002KT 15SM FEW040 SCT100 BKN250 M11/M15 A3015 RMK SC2AC2CI1 SLP279=

CYQF;2006-02-25 01:00;METAR CYQF 250100Z 00000KT 15SM FEW040 SCT100 BKN250 M12/M16 A3017 RMK SC2AC2CI1 SLP284=

CYQF;2006-02-25 02:00;METAR CYQF 250200Z 19003KT 15SM FEW040 SCT080 OVC250 M13/M16 A3018 RMK SC2AC2CI2 SLP287=

CYQF;2006-02-25 03:00;METAR CYQF 250300Z 17003KT 15SM SCT080 BKN250 M13/M17 A3019 RMK AC4CI2 SLP295=

CYQF;2006-02-25 04:00;METAR CYQF 250400Z 00000KT 15SM SCT080 BKN250 M14/M17 A3020 RMK AC3CI0 SLP297=

CYQF;2006-02-25 05:00;METAR CYQF 250500Z 00000KT 15SM FEW080 M17/M20 A3020 RMK AC2 SLP298=

CYQF;2006-02-25 06:00;METAR CYQF 250600Z 00000KT 15SM FEW080 M20/M22 A3021 RMK AC2 SLP307=

CYQF;2006-02-25 07:00;METAR CYQF 250700Z 18003KT 8SM SCT080 M20/M22 A3022 RMK AC4 BR SLP309=

CYQF;2006-02-25 07:44;SPECI CYQF 250744Z 17002KT 3/4SM BR SKC RMK FG6=

CYQF;2006-02-25 08:00;METAR CYQF 250800Z 18002KT 3/4SM BR SKC M21/M24 A3021 RMK FG7 SLP308=

CYQF;2006-02-25 08:43;SPECI CYQF 250843Z 00000KT 1/4SM FZFG VV001 RMK FG8=

CYQF;2006-02-25 09:00;METAR CYQF 250900Z 00000KT 1/4SM FZFG VV001 M20/M21 A3022 RMK FG8 SLP311=

CYQF;2006-02-25 10:00;METAR CYQF 251000Z 00000KT 3/4SM BR VV002 M20/M21 A3023 RMK FG8 SLP314=

CYQF;2006-02-25 11:00;METAR CYQF 251100Z 00000KT 1/8SM FZFG VV000 M20/M21 A3024 RMK FG8 SLP316=

CYQF;2006-02-25 12:00;METAR CYQF 251200Z 00000KT 1/8SM FZFG VV000 M20/M21 A3025 RMK FG8 SLP324=

CYQF;2006-02-25 13:00;METAR CYQF 251300Z 00000KT 1/8SM FZFG VV000 M19/M20 A3027 RMK FG8 SLP329=

CYQF;2006-02-25 14:00;METAR CYQF 251400Z 00000KT 1/4SM FZFG VV001 M20/M21 A3028 RMK FG8 SLP331=

CYQF;2006-02-25 14:20;SPECI CYQF 251420Z 00000KT 1SM BR OVC008 RMK FG6SF2=

CYQF;2006-02-25 14:41;SPECI CYQF 251441Z 00000KT 1SM -SN BR OVC008 RMK FG6SF2=

CYQF;2006-02-25 15:00;METAR CYQF 251500Z 00000KT 2SM -SN BR BKN020 M19/M20 A3029 RMK FG5SC2 SLP338=

CYQF;2006-02-25 16:00;METAR CYQF 251600Z 00000KT 1 1/2SM -SN BR BKN020 BKN080 M18/M19 A3030 RMK FG2SC2AC2 SLP342=

CYQF;2006-02-25 16:42;SPECI CYQF 251642Z 00000KT 4SM -SN BR BKN025 BKN080 RMK SC5AC1=

CYQF;2006-02-25 17:00;METAR CYQF 251700Z 00000KT 6SM -SN BR FEW025 SCT080 M16/M16 A3031 RMK SC2AC1 SLP343=

CYQF;2006-02-25 17:41;SPECI CYQF 251741Z 00000KT 6SM BR FEW025 FEW080 RMK SC1AC2=

CYQF;2006-02-25 18:00;METAR CYQF 251800Z 00000KT 6SM BR FEW025 FEW080 M15/M15 A3032 RMK SC1AC2 SLP350=

CYQF;2006-02-25 19:00;METAR CYQF 251900Z 00000KT 10SM FEW025 FEW080 M14/M16 A3031 RMK SC1AC2 BR SLP349=

CYQF;2006-02-25 20:00;METAR CYQF 252000Z 00000KT 10SM FEW025 FEW080 M13/M15 A3031 RMK SC1AC1 BR SLP348=

CYQF;2006-02-25 21:00;METAR CYQF 252100Z 00000KT 12SM FEW030 FEW080 M13/M15 A3030 RMK SC1AC1 SLP342=

CYQF;2006-02-25 22:00;METAR CYQF 252200Z 00000KT 15SM FEW030 FEW080 M12/M15 A3029 RMK SC1AC1 SLP338=

CYQF;2006-02-25 23:00;METAR CYQF 252300Z 00000KT 15SM FEW080 BKN270 M12/M16 A3028 RMK AC1CI1 SLP335=

CYQF;2006-02-26 00:00;METAR CYQF 260000Z 15003KT 15SM BKN270 M12/M16 A3027 RMK CI2 SLP330=

CYQF;2006-02-26 01:00;METAR CYQF 260100Z 13002KT 15SM SCT250 M14/M17 A3026 RMK CI2 SLP327=

CYQF;2006-02-26 02:00;METAR CYQF 260200Z 15003KT 15SM SCT250 M15/M18 A3025 RMK CI2 SLP323=

CYQF;2006-02-26 03:00;METAR CYQF 260300Z 00000KT 10SM FEW080 BKN250 M18/M20 A3024 RMK AC1CI2 SLP325=

CYQF;2006-02-26 04:00;METAR CYQF 260400Z 00000KT 8SM FEW080 BKN250 M18/M20 A3022 RMK AC2CI2 BR SLP319=

CYQF;2006-02-26 05:00;METAR CYQF 260500Z 00000KT 8SM OVC015 M16/M18 A3020 RMK ST8 BR SLP312=

CYQF;2006-02-26 06:00;METAR CYQF 260600Z 00000KT 10SM SCT015 M16/M19 A3016 RMK ST4 SLP293=

CYQF;2006-02-26 07:00;METAR CYQF 260700Z 00000KT 10SM BKN015 M17/M19 A3015 RMK ST6 SLP287=

CYQF;2006-02-26 07:41;SPECI CYQF 260741Z 14006KT 8SM -SN OVC013 RMK ST8=

CYQF;2006-02-26 08:00;METAR CYQF 260800Z 14008KT 8SM -SN OVC013 M14/M16 A3010 RMK ST8 SLP274=

CYQF;2006-02-26 09:00;METAR CYQF 260900Z 15008KT 8SM -SN OVC013 M13/M16 A3007 RMK ST8 SLP254=

CYQF;2006-02-26 10:00;METAR CYQF 261000Z 13007KT 8SM -SN SCT013 OVC025 M13/M16 A3004 RMK SF4SC4 SLP245=

CYQF;2006-02-26 11:00;METAR CYQF 261100Z 14008KT 5SM -SN BKN014 OVC025 M13/M16 A3000 RMK SC6SC2 SLP232=

CYQF;2006-02-26 12:00;METAR CYQF 261200Z 14007KT 8SM -SN OVC015 M13/M16 A2997 RMK SC8 SLP218=

CYQF;2006-02-26 13:00;METAR CYQF 261300Z 16008KT 5SM -SN OVC015 M13/M17 A2995 RMK SC8 SLP211=

CYQF;2006-02-26 14:00;METAR CYQF 261400Z 16005KT 8SM -SN OVC014 M13/M16 A2992 RMK SC8 SLP203=

CYQF;2006-02-26 15:00;METAR CYQF 261500Z 17003KT 4SM -SN OVC015 M13/M17 A2989 RMK ST8 SLP197=

CYQF;2006-02-26 15:17;SPECI CYQF 261517Z 18002KT 2SM -SN BR OVC012 RMK FG3SC5=

CYQF;2006-02-26 16:00;METAR CYQF 261600Z 00000KT 2SM -SN BR OVC012 M13/M16 A2987 RMK FG3SC5 SLP190=

CYQF;2006-02-26 18:00;METAR CYQF 261800Z 18004KT 3SM -SN SCT010 OVC015 M11/M16 A2982 RMK SF3SC5 SLP170=

CYQF;2006-02-26 19:00;METAR CYQF 261900Z 20003KT 10SM -SN FEW010 OVC025 M11/M16 A2982 RMK SF2SC6 SLP169=

CYQF;2006-02-26 20:00;METAR CYQF 262000Z 00000KT 10SM -SN FEW010 BKN025 OVC080 M10/M14 A2980 RMK SF2SC4AC2 SLP162=

CYQF;2006-02-26 21:00;METAR CYQF 262100Z 00000KT 10SM -SN BKN025 OVC080 M11/M15 A2979 RMK SC5AC2 SLP156=

CYQF;2006-02-26 22:00;METAR CYQF 262200Z 06003KT 10SM -SN BKN025 BKN080 OVC250 M10/M15 A2979 RMK SC5AC2CI1 SLP154=

CYQF;2006-02-26 23:00;METAR CYQF 262300Z 07003KT 15SM FEW025 BKN080 BKN250 M10/M15 A2979 RMK SC2AC2CI2 SLP154=

CYQF;2006-02-27 00:00;METAR CYQF 270000Z 09003KT 15SM FEW025 BKN080 OVC250 M10/M14 A2979 RMK SC2AC2CI2 SLP152=

CYQF;2006-02-27 00:29;SPECI CYQF 270029Z 06005KT 12SM -SN BKN025 OVC080 RMK SC6AC2=

CYQF;2006-02-27 01:00;METAR CYQF 270100Z 06005KT 12SM -SN BKN025 OVC080 M11/M14 A2978 RMK SC5AC2 SLP149=

CYQF;2006-02-27 02:00;METAR CYQF 270200Z 06005KT 12SM -SN BKN025 OVC080 M11/M15 A2978 RMK SC6AC2 SLP149=

CYQF;2006-02-27 03:00;METAR CYQF 270300Z 07005KT 12SM -SN BKN020 OVC080 M12/M15 A2978 RMK SC6AC2 SLP151=

CYQF;2006-02-27 04:00;METAR CYQF 270400Z 10004KT 12SM -SN OVC018 M12/M15 A2976 RMK SC8 SLP147=

CYQF;2006-02-27 05:00;METAR CYQF 270500Z 11003KT 15SM -SN OVC025 M12/M15 A2976 RMK SC8 SLP146=

CYQF;2006-02-27 06:00;METAR CYQF 270600Z 10003KT 15SM -SN BKN025 OVC080 M12/M15 A2973 RMK SC6AC1 SLP134=

CYQF;2006-02-27 07:00;METAR CYQF 270700Z 08003KT 15SM -SN BKN023 OVC080 M12/M15 A2971 RMK SC7AC1 SLP126=

CYQF;2006-02-27 08:00;METAR CYQF 270800Z 10005KT 8SM -SN OVC022 M12/M15 A2966 RMK SC8 SLP111=

CYQF;2006-02-27 09:00;METAR CYQF 270900Z 12005KT 8SM -SN OVC022 M12/M15 A2964 RMK SC8 SLP100=

CYQF;2006-02-27 10:00;METAR CYQF 271000Z 12006KT 5SM -SN OVC020 M12/M16 A2962 RMK SC8 SLP093=

CYQF;2006-02-27 11:00;METAR CYQF 271100Z 12006KT 10SM -SN OVC019 M12/M16 A2958 RMK SC8 SLP083=

CYQF;2006-02-27 12:00;METAR CYQF 271200Z 12010KT 10SM -SN SCT010 OVC019 M13/M16 A2955 RMK SC3SC5 SLP069=

CYQF;2006-02-27 13:00;METAR CYQF 271300Z 13008KT 3SM -SN BKN005 OVC010 M13/M16 A2952 RMK SF6SC2 CIG RAG SLP061=

CYQF;2006-02-27 14:00;METAR CYQF 271400Z 12008KT 2SM -SN OVC005 M13/M16 A2948 RMK SF8 CIG RAG TPS 051 SLP047=

CYQF;2006-02-27 15:00;METAR CYQF 271500Z 12009KT 1 1/2SM -SN OVC006 M13/M16 A2945 RMK SF8 CIG RAG SLP035=

CYQF;2006-02-27 16:39;SPECI CYQF 271639Z 14012KT 4SM -SN FEW007 OVC015 RMK SF2SC6=

CYQF;2006-02-27 17:00;METAR CYQF 271700Z 15010KT 6SM -SN FEW008 OVC015 M12/M15 A2938 RMK SF2SC6 SLP014=

CYQF;2006-02-27 18:00;METAR CYQF 271800Z 14009KT 10SM -SN BKN020 BKN100 M11/M15 A2936 RMK SC5AC2 SLP006=

CYQF;2006-02-27 18:31;SPECI CYQF 271831Z 14014KT 15SM DRSN FEW020 BKN100 RMK SC2AC2=

CYQF;2006-02-27 20:00;METAR CYQF 272000Z 15008KT 15SM FEW100 BKN280 M09/M12 A2927 RMK AC2CI1 SLP977=

CYQF;2006-02-27 21:00;METAR CYQF 272100Z 15011KT 15SM FEW100 SCT280 M07/M11 A2925 RMK AC2CI1 SLP960=

CYQF;2006-02-27 22:00;METAR CYQF 272200Z 15006KT 15SM FEW100 FEW280 M06/M10 A2922 RMK AC1CI1 SLP951=

CYQF;2006-02-27 23:00;METAR CYQF 272300Z 17010KT 15SM FEW100 FEW280 M04/M09 A2922 RMK AC1CI1 SLP950=

CYQF;2006-02-28 00:00;METAR CYQF 280000Z 16010KT 15SM FEW100 SCT280 M04/M08 A2919 RMK AC2CI1 SLP939=

CYQF;2006-02-28 01:00;METAR CYQF 280100Z 18007KT 15SM FEW100 SCT250 M04/M09 A2920 RMK AC1CI1 SLP940=

CYQF;2006-02-28 02:00;METAR CYQF 280200Z 20006KT 15SM FEW100 SCT250 M05/M09 A2918 RMK AC2CI1 SLP935=

CYQF;2006-02-28 03:00;METAR CYQF 280300Z 24008KT 15SM FEW100 M02/M08 A2920 RMK AC2 SLP940=

CYQF;2006-02-28 04:00;METAR CYQF 280400Z 23012G20KT 15SM FEW100 06/M03 A2922 RMK AC2 SLP944=

CYQF;2006-02-28 05:00;METAR CYQF 280500Z 36020G30KT 10SM DRSN FEW100 M04/M08 A2933 RMK AC2 OCNL BLSN PRESRR WND SHIFT 0455 SLP980=

CYQF;2006-02-28 06:00;METAR CYQF 280600Z 36008KT 15SM SKC M08/M13 A2942 RMK PRESRR SLP020=

CYQF;2006-02-28 07:00;METAR CYQF 280700Z 01004KT 15SM SKC M10/M13 A2947 RMK SLP036=

CYQF;2006-02-28 08:00;METAR CYQF 280800Z 00000KT 15SM SKC M11/M15 A2952 RMK SLP052=

CYQF;2006-02-28 09:00;METAR CYQF 280900Z 00000KT 15SM SKC M13/M16 A2956 RMK SLP070=

CYQF;2006-02-28 10:00;METAR CYQF 281000Z 31004KT 15SM FEW250 M15/M19 A2960 RMK CI2 SLP083=

CYQF;2006-02-28 11:00;METAR CYQF 281100Z 31004KT 15SM FEW250 M14/M17 A2961 RMK CI2 SLP084=

CYQF;2006-02-28 12:00;METAR CYQF 281200Z 30004KT 15SM FEW100 BKN250 M14/M17 A2963 RMK AC2CI3 SLP092=

CYQF;2006-02-28 13:00;METAR CYQF 281300Z 31003KT 15SM SCT100 BKN250 M11/M15 A2965 RMK AC4CI2 SLP097=

CYQF;2006-02-28 14:00;METAR CYQF 281400Z 32002KT 15SM SCT100 BKN250 M11/M15 A2966 RMK AC4CI3 SLP101=

CYQF;2006-02-28 15:00;METAR CYQF 281500Z 30002KT 15SM BKN100 OVC250 M10/M14 A2966 RMK AC6CI2 SLP094=

CYQF;2006-02-28 16:00;METAR CYQF 281600Z 33003KT 15SM BKN100 OVC250 M09/M14 A2965 RMK AC6CI2 SLP092=

CYQF;2006-02-28 17:00;METAR CYQF 281700Z 00000KT 12SM BKN060 OVC100 M08/M14 A2968 RMK SC5AC3 SLP102=

CYQF;2006-02-28 17:41;SPECI CYQF 281741Z 00000KT 3SM -SN SCT020 OVC060 RMK SC3SC5=

CYQF;2006-02-28 17:48;SPECI CYQF 281748Z 00000KT 1 1/2SM -SN VV020 RMK SN8=

CYQF;2006-02-28 18:00;METAR CYQF 281800Z 00000KT 1SM -SN VV015 M09/M14 A2969 RMK SN8 SLP112=

CYQF;2006-02-28 18:40;SPECI CYQF 281840Z 01004KT 3/4SM -SN VV010 RMK SN8=

CYQF;2006-02-28 19:00;METAR CYQF 281900Z 01006KT 1/2SM SN VV008 M09/M13 A2965 RMK SN8 /S01/ SLP100=

CYQF;2006-02-28 20:00;METAR CYQF 282000Z 02005KT 3/8SM SN VV006 M09/M13 A2964 RMK SN8 /S03/ SLP097=

CYQF;2006-02-28 21:00;METAR CYQF 282100Z 03005KT 1/2SM SN VV008 M09/M12 A2965 RMK SN8 /S06/ SLP101=

CYQF;2006-02-28 22:00;METAR CYQF 282200Z 04005KT 1/2SM SN VV008 M09/M12 A2964 RMK SN8 /S09/ SLP098=

CYQF;2006-02-28 22:41;SPECI CYQF 282241Z 02005KT 1 1/2SM -SN VV015 RMK SN8=

CYQF;2006-02-28 23:00;METAR CYQF 282300Z 03005KT 2 1/2SM -SN SCT010 OVC030 M09/M13 A2966 RMK SN2SF2SC4 /S10/ SLP104=

CYQF;2006-02-28 23:23;SPECI CYQF 282323Z 01005KT 1 1/2SM -SN VV010 RMK SN8=

CYQF;2006-02-28 23:47;SPECI CYQF 282347Z 36008KT 5/8SM -SN VV006 RMK SN8=

CYQF;2006-03-01 00:00;METAR CYQF 010000Z 35008KT 5/8SM -SN VV006 M10/M13 A2965 RMK SN8 /S12/ SLP104=

CYQF;2006-03-01 00:42;SPECI CYQF 010042Z 35010KT 1SM -SN VV010 RMK SN8 VSBY VRB 3/4-11/4=

CYQF;2006-03-01 01:00;METAR CYQF 010100Z 35008KT 3SM -SN OVC030 M10/M14 A2966 RMK SN4SC4 /S01/ SLP107=

CYQF;2006-03-01 01:30;SPECI CYQF 010130Z 36006KT 1SM -SN OVC030 RMK SN6SC2=

CYQF;2006-03-01 01:41;SPECI CYQF 010141Z 01006KT 1/2SM SN VV006 RMK SN8=

CYQF;2006-03-01 02:00;METAR CYQF 010200Z 36008KT 1/2SM SN VV006 M11/M14 A2970 RMK SN8 /S02/ SLP120=

CYQF;2006-03-01 02:20;SPECI CYQF 010220Z 01006KT 2SM -SN OVC020 RMK SN4SC4=

CYQF;2006-03-01 03:00;METAR CYQF 010300Z 01007KT 2SM -SN OVC020 M11/M14 A2971 RMK SN5SC3 /S03/ SLP124=

CYQF;2006-03-01 03:39;SPECI CYQF 010339Z 36005KT 3SM -SN OVC020 RMK SN2SC6=

CYQF;2006-03-01 04:00;METAR CYQF 010400Z 35008KT 4SM -SN OVC020 M11/M14 A2975 RMK SC8 SLP134=

CYQF;2006-03-01 04:36;SPECI CYQF 010436Z 36005KT 2SM -SN OVC020 RMK SN4SC4=

CYQF;2006-03-01 05:00;METAR CYQF 010500Z 35006KT 2SM -SN OVC020 M11/M15 A2977 RMK SN4SC4 /S04/ SLP143=

CYQF;2006-03-01 05:16;SPECI CYQF 010516Z 34006KT 3SM -SN OVC020 RMK SN2SC6=

CYQF;2006-03-01 06:00;METAR CYQF 010600Z 36008KT 5SM -SN OVC030 M11/M15 A2978 RMK SC8 SLP148=

CYQF;2006-03-01 07:00;METAR CYQF 010700Z 34006KT 10SM BKN030 OVC250 M12/M15 A2980 RMK SC6CI1 SLP154=

CYQF;2006-03-01 08:00;METAR CYQF 010800Z 33004KT 15SM FEW023 BKN080 M15/M18 A2983 RMK SC2AC4 SLP163=

CYQF;2006-03-01 08:22;SPECI CYQF 010822Z 33003KT 6SM -SN BKN016 OVC025 RMK SC6SC2=

CYQF;2006-03-01 09:00;METAR CYQF 010900Z 33007KT 15SM FEW030 BKN080 M14/M17 A2985 RMK SC2AC4 SLP176=

CYQF;2006-03-01 10:00;METAR CYQF 011000Z 31008KT 15SM FEW025 BKN080 BKN250 M12/M16 A2987 RMK SC2AC3CI2 SLP181=

CYQF;2006-03-01 11:00;METAR CYQF 011100Z 30006KT 15SM FEW014 BKN025 OVC080 M12/M16 A2989 RMK SC2SC6AC1 SLP188=

CYQF;2006-03-01 12:00;METAR CYQF 011200Z 30007KT 15SM SCT016 BKN030 M14/M17 A2992 RMK SC3SC2 SLP200=

CYQF;2006-03-01 13:00;METAR CYQF 011300Z 31007KT 15SM FEW015 BKN025 BKN080 M14/M17 A2995 RMK SC2SC3AC2 SLP209=

CYQF;2006-03-01 13:12;SPECI CYQF 011312Z 30005KT 15SM -SN FEW015 BKN025 BKN080 RMK SC1SC4AC2=

CYQF;2006-03-01 14:00;METAR CYQF 011400Z 32005KT 5SM -SN FEW015 OVC025 M11/M15 A2997 RMK SC2SC6 SLP215=

CYQF;2006-03-01 15:00;METAR CYQF 011500Z 32007KT 8SM -SN BKN014 OVC025 M11/M15 A3000 RMK SC6SC2 SLP224=

CYQF;2006-03-01 16:00;METAR CYQF 011600Z 30004KT 3SM -SN BKN014 OVC030 M11/M14 A3003 RMK SC7SC1 SLP233=

CYQF;2006-03-01 17:00;METAR CYQF 011700Z 30005KT 5SM -SN BR BKN015 BKN090 M11/M14 A3005 RMK SF5AC2 SLP240=

CYQF;2006-03-01 18:00;METAR CYQF 011800Z 31005KT 10SM FEW015 M10/M14 A3005 RMK SF2 SLP243=

CYQF;2006-03-01 19:00;METAR CYQF 011900Z 33007KT 12SM FEW015 M09/M14 A3008 RMK SF2 SLP250=

CYQF;2006-03-01 20:00;METAR CYQF 012000Z 33007KT 15SM FEW015 SCT090 M09/M14 A3009 RMK SF2AC1 SLP254=

CYQF;2006-03-01 21:00;METAR CYQF 012100Z 35008KT 15SM FEW020 FEW250 M09/M13 A3010 RMK SF1CI0 SLP259=

CYQF;2006-03-01 22:00;METAR CYQF 012200Z 35007KT 15SM FEW020 M09/M14 A3010 RMK SF2 SLP261=

CYQF;2006-03-01 23:00;METAR CYQF 012300Z 01007KT 15SM FEW020 M08/M13 A3012 RMK SF1 SLP267=

CYQF;2006-03-02 00:00;METAR CYQF 020000Z 36005KT 15SM BKN025 M09/M14 A3015 RMK SF5 SLP277=

CYQF;2006-03-02 01:00;METAR CYQF 020100Z 01005KT 15SM BKN025 M10/M14 A3016 RMK SC5 SLP282=

CYQF;2006-03-02 02:00;METAR CYQF 020200Z 32004KT 15SM FEW025 SCT090 M13/M16 A3019 RMK SC2AC2 SLP289=

CYQF;2006-03-02 03:00;METAR CYQF 020300Z 25004KT 15SM FEW090 M19/M22 A3023 RMK AC2 SLP312=

CYQF;2006-03-02 04:00;METAR CYQF 020400Z 33003KT 10SM FEW090 M15/M18 A3024 RMK AC2 BCFG SLP316=

CYQF;2006-03-02 05:00;METAR CYQF 020500Z 03002KT 5SM BR FEW090 M18/M21 A3024 RMK AC2 SLP315=

CYQF;2006-03-02 05:28;SPECI CYQF 020528Z 05002KT 2SM BR SKC RMK FG5=

CYQF;2006-03-02 05:35;SPECI CYQF 020535Z 22002KT 1SM BR SKC RMK FG6=

CYQF;2006-03-02 06:00;METAR CYQF 020600Z 26003KT 3/4SM BR SKC M20/M22 A3025 RMK FG6 SLP320=

CYQF;2006-03-02 07:00;METAR CYQF 020700Z 20004KT 1SM BR VV003 M21/M24 A3026 RMK FG8 SLP323=

CYQF;2006-03-02 08:00;METAR CYQF 020800Z 00000KT 1/2SM FZFG VV003 M19/M21 A3026 RMK FG8 SLP324=

CYQF;2006-03-02 09:00;METAR CYQF 020900Z 00000KT 2SM -SN BR OVC014 M17/M18 A3027 RMK SC8 SLP323=

CYQF;2006-03-02 10:00;METAR CYQF 021000Z 00000KT 2SM -SN BR OVC012 M16/M17 A3027 RMK SC8 SLP323=

CYQF;2006-03-02 11:00;METAR CYQF 021100Z 00000KT 2SM -SN BR OVC012 M15/M17 A3027 RMK SC8 SLP324=

CYQF;2006-03-02 12:00;METAR CYQF 021200Z 00000KT 3SM -SN BR OVC012 M15/M16 A3028 RMK SC8 SLP324=

CYQF;2006-03-02 13:00;METAR CYQF 021300Z 00000KT 6SM -SN OVC012 M15/M16 A3028 RMK SC8 SLP324=

CYQF;2006-03-02 14:00;METAR CYQF 021400Z 00000KT 4SM -SN OVC015 M15/M16 A3029 RMK SC8 SLP328=

CYQF;2006-03-02 15:00;METAR CYQF 021500Z 00000KT 5SM -SN OVC015 M14/M15 A3028 RMK SC8 SLP336=

CYQF;2006-03-02 16:00;METAR CYQF 021600Z 00000KT 3SM -SN OVC013 M13/M14 A3029 RMK SN2SC6 SLP338=

CYQF;2006-03-02 16:44;SPECI CYQF 021644Z 13004KT 8SM -SN SCT015 RMK SC3=

CYQF;2006-03-02 17:00;METAR CYQF 021700Z 15003KT 10SM FEW015 SCT250 M12/M14 A3029 RMK SC2CI1 SLP339=

CYQF;2006-03-02 18:00;METAR CYQF 021800Z 14005KT 10SM SKC M12/M15 A3029 RMK SLP338=

CYQF;2006-03-02 19:00;METAR CYQF 021900Z 12007KT 15SM SKC M11/M16 A3028 RMK SLP335=

CYQF;2006-03-02 20:00;METAR CYQF 022000Z 14006KT 15SM FEW015 FEW250 M11/M16 A3027 RMK CF1CI0 SLP331=

CYQF;2006-03-02 21:00;METAR CYQF 022100Z 14007KT 15SM FEW015 FEW250 M11/M15 A3025 RMK CF1CI0 SLP320=

CYQF;2006-03-02 22:00;METAR CYQF 022200Z 14007KT 15SM FEW020 FEW250 M11/M15 A3024 RMK SC1CI0 SLP315=

CYQF;2006-03-02 23:00;METAR CYQF 022300Z 14007KT 15SM FEW025 SCT250 M11/M16 A3023 RMK SC1CI1 SLP312=

CYQF;2006-03-03 00:00;METAR CYQF 030000Z 13008KT 15SM FEW025 SCT250 M12/M16 A3022 RMK SC1CI1 SLP307=

CYQF;2006-03-03 01:00;METAR CYQF 030100Z 12005KT 15SM SCT017 BKN030 BKN250 M12/M17 A3021 RMK SC3SC2CI1 SLP305=

CYQF;2006-03-03 02:00;METAR CYQF 030200Z 11007KT 15SM SCT015 BKN030 BKN250 M12/M16 A3022 RMK SC3SC2CI1 SLP307=

CYQF;2006-03-03 02:16;SPECI CYQF 030216Z 12008KT 15SM -SN FEW015 OVC040 RMK SC2SC5=

CYQF;2006-03-03 03:00;METAR CYQF 030300Z 14008KT 15SM -SN FEW015 OVC040 M13/M16 A3022 RMK SC2SC6 SLP305=

CYQF;2006-03-03 04:00;METAR CYQF 030400Z 14008KT 15SM -SN BKN040 M13/M16 A3021 RMK SC7 SLP304=

CYQF;2006-03-03 05:00;METAR CYQF 030500Z 14006KT 15SM -SN BKN040 BKN090 M14/M18 A3020 RMK SC5AC2 SLP301=

CYQF;2006-03-03 05:45;SPECI CYQF 030545Z 15010KT 15SM SCT040 BKN090 RMK SC4AC2=

CYQF;2006-03-03 06:00;METAR CYQF 030600Z 14008KT 15SM BKN040 BKN090 M14/M17 A3019 RMK SC5AC2 SLP295=

CYQF;2006-03-03 07:00;METAR CYQF 030700Z 14008KT 15SM BKN040 BKN090 M14/M18 A3017 RMK SC5AC2 SLP289=

CYQF;2006-03-03 08:00;METAR CYQF 030800Z 15010KT 10SM -SN OVC040 M15/M18 A3015 RMK SC8 SLP284=

CYQF;2006-03-03 09:00;METAR CYQF 030900Z 15010KT 6SM -SN OVC030 M14/M18 A3015 RMK SC8 SLP279=

CYQF;2006-03-03 10:00;METAR CYQF 031000Z 14010KT 6SM -SN OVC030 M14/M18 A3013 RMK SC8 SLP275=

CYQF;2006-03-03 11:00;METAR CYQF 031100Z 13008KT 10SM -SN OVC030 M14/M17 A3012 RMK SC8 SLP271=

CYQF;2006-03-03 12:00;METAR CYQF 031200Z 14008KT 10SM -SN OVC025 M14/M17 A3009 RMK SC8 SLP260=

CYQF;2006-03-03 13:00;METAR CYQF 031300Z 14010KT 10SM -SN OVC025 M14/M17 A3010 RMK SC8 SLP263=

CYQF;2006-03-03 13:31;SPECI CYQF 031331Z 14010KT 1SM -SN VV015 RMK SN8=

CYQF;2006-03-03 14:00;METAR CYQF 031400Z 13006KT 6SM -SN OVC025 M13/M16 A3007 RMK SC8 SLP255=

CYQF;2006-03-03 15:00;METAR CYQF 031500Z 12008KT 3SM -SN OVC025 M13/M16 A3008 RMK SC8 SLP259=

CYQF;2006-03-03 17:00;METAR CYQF 031700Z 15009KT 8SM -SN BKN035 OVC100 M11/M15 A3006 RMK SC7AC1 SLP253=

CYQF;2006-03-03 18:00;METAR CYQF 031800Z 13007KT 8SM -SN SCT035 OVC080 M11/M15 A3006 RMK SC4AC3 SLP249=

CYQF;2006-03-03 19:00;METAR CYQF 031900Z 13008KT 10SM FEW035 BKN080 M11/M16 A3005 RMK SC2AC5 SLP246=

CYQF;2006-03-03 20:00;METAR CYQF 032000Z 14008KT 12SM FEW040 OVC080 M10/M15 A3005 RMK SC1AC6 SLP246=

CYQF;2006-03-03 21:00;METAR CYQF 032100Z 13009KT 12SM SCT035 OVC080 M10/M14 A3003 RMK SC3AC4 SLP238=

CYQF;2006-03-03 22:00;METAR CYQF 032200Z 13006KT 12SM BKN030 OVC080 M10/M14 A3003 RMK SC7AC1 SLP236=

CYQF;2006-03-03 23:00;METAR CYQF 032300Z 12004KT 12SM OVC030 M09/M13 A3002 RMK SC8 SLP234=

CYQF;2006-03-03 23:50;SPECI CYQF 032350Z 14006KT 8SM -SN OVC025 RMK SC8=

CYQF;2006-03-04 00:00;METAR CYQF 040000Z 13004KT 8SM -SN OVC025 M09/M13 A3002 RMK SC8 SLP233=

CYQF;2006-03-04 00:17;SPECI CYQF 040017Z 14007KT 2SM -SN OVC025 RMK SN3SC5=

CYQF;2006-03-04 01:00;METAR CYQF 040100Z 09005KT 2SM -SN OVC025 M09/M12 A3002 RMK SN3SC5 SLP233=

CYQF;2006-03-04 02:00;METAR CYQF 040200Z 07003KT 1 1/2SM -SN VV020 M10/M13 A3003 RMK SN8 SLP235=

CYQF;2006-03-04 03:00;METAR CYQF 040300Z 05003KT 1 1/2SM -SN VV020 M10/M13 A3003 RMK SN8 /S01/ SLP236=

CYQF;2006-03-04 04:00;METAR CYQF 040400Z 06005KT 1SM -SN VV015 M11/M13 A3003 RMK SN8 SLP235=

CYQF;2006-03-04 04:47;SPECI CYQF 040447Z 07005KT 3/4SM -SN VV006 RMK SN8=

CYQF;2006-03-04 05:00;METAR CYQF 040500Z 07005KT 3/4SM -SN VV006 M11/M14 A3003 RMK SN8 /S03/ SLP235=

CYQF;2006-03-04 06:00;METAR CYQF 040600Z 09004KT 1SM -SN VV008 M11/M14 A3003 RMK SN8 /S04/ SLP234=

CYQF;2006-03-04 06:28;SPECI CYQF 040628Z 07005KT 2SM -SN VV020 RMK SN8=

CYQF;2006-03-04 07:00;METAR CYQF 040700Z 05005KT 6SM -SN BKN020 M11/M14 A3000 RMK SN2SC3 SLP227=

CYQF;2006-03-04 08:00;METAR CYQF 040800Z 08003KT 15SM -SN BKN030 M13/M15 A2998 RMK SC5 SLP221=

CYQF;2006-03-04 09:00;METAR CYQF 040900Z 07003KT 15SM -SN BKN030 M15/M18 A2999 RMK SC4 SLP225=

CYQF;2006-03-04 10:00;METAR CYQF 041000Z 00000KT 15SM -SN BKN030 M19/M22 A3000 RMK SC5 SLP228=

CYQF;2006-03-04 10:23;SPECI CYQF 041023Z 00000KT 15SM BKN030 RMK SC5=

CYQF;2006-03-04 11:00;METAR CYQF 041100Z 00000KT 15SM BKN030 M18/M21 A2999 RMK SC6 SLP226=

CYQF;2006-03-04 12:00;METAR CYQF 041200Z 00000KT 15SM BKN030 M18/M21 A2998 RMK SC6 SLP223=

CYQF;2006-03-04 13:00;METAR CYQF 041300Z 00000KT 15SM BKN030 M21/M24 A2999 RMK SC6 SLP226=

CYQF;2006-03-04 14:00;METAR CYQF 041400Z 00000KT 15SM BKN030 M22/M25 A2998 RMK SC6 SLP225=

CYQF;2006-03-04 15:00;METAR CYQF 041500Z 00000KT 15SM SCT030 BKN250 M23/M26 A2999 RMK SC3CI2 SLP235=

CYQF;2006-03-04 16:00;METAR CYQF 041600Z 00000KT 12SM FEW030 BKN250 M20/M23 A3001 RMK SC2CI2 SLP241=

CYQF;2006-03-04 17:00;METAR CYQF 041700Z 00000KT 10SM FEW030 BKN250 M19/M22 A3002 RMK SC2CI1 BR SLP244=

CYQF;2006-03-04 18:00;METAR CYQF 041800Z 00000KT 8SM FEW030 BKN250 M16/M18 A3001 RMK SC1CI2 BR SLP236=

CYQF;2006-03-04 19:00;METAR CYQF 041900Z 00000KT 8SM FEW030 SCT250 M14/M16 A3000 RMK SC1CI1 BR SLP233=

CYQF;2006-03-04 20:00;METAR CYQF 042000Z 00000KT 12SM FEW250 M11/M16 A3001 RMK CI1 SLP234=

CYQF;2006-03-04 21:00;METAR CYQF 042100Z 00000KT 15SM FEW250 M11/M16 A2999 RMK CI1 SLP227=

CYQF;2006-03-04 22:00;METAR CYQF 042200Z 00000KT 15SM FEW250 M09/M15 A2999 RMK CI0 SLP228=

CYQF;2006-03-04 23:00;METAR CYQF 042300Z 08003KT 15SM FEW250 M11/M15 A3001 RMK CI0 SLP233=

CYQF;2006-03-05 00:00;METAR CYQF 050000Z 07003KT 15SM FEW250 M11/M16 A3002 RMK CI0 SLP241=

CYQF;2006-03-05 01:00;METAR CYQF 050100Z 06003KT 15SM FEW120 FEW250 M12/M16 A3004 RMK AC1CI0 SLP246=

CYQF;2006-03-05 02:00;METAR CYQF 050200Z 00000KT 15SM FEW120 FEW250 M14/M17 A3005 RMK AC1CI0 SLP249=

CYQF;2006-03-05 03:00;METAR CYQF 050300Z 00000KT 15SM FEW250 M17/M20 A3007 RMK CI1 SLP270=

CYQF;2006-03-05 04:00;METAR CYQF 050400Z 16002KT 15SM FEW250 M20/M23 A3007 RMK CI1 BR SLP272=

CYQF;2006-03-05 05:00;METAR CYQF 050500Z 20003KT 15SM SKC M21/M24 A3007 RMK SLP270=

CYQF;2006-03-05 06:00;METAR CYQF 050600Z 00000KT 10SM SKC M22/M24 A3007 RMK BR SLP269=

CYQF;2006-03-05 06:17;SPECI CYQF 050617Z 00000KT 6SM BR SCT001 RMK ST2=

CYQF;2006-03-05 07:00;METAR CYQF 050700Z 00000KT 6SM BR SCT001 M24/M26 A3006 RMK ST2 SLP267=

CYQF;2006-03-05 08:00;METAR CYQF 050800Z 00000KT 15SM FEW001 SCT250 M23/M25 A3006 RMK SF2CI1 BR SLP265=

CYQF;2006-03-05 09:00;METAR CYQF 050900Z 00000KT 6SM BR SCT001 BKN080 M25/M28 A3007 RMK ST4AC1 SLP266=

CYQF;2006-03-05 10:00;METAR CYQF 051000Z 00000KT 6SM BR BKN001 M25/M28 A3007 RMK ST6 SLP267=

CYQF;2006-03-05 11:00;METAR CYQF 051100Z 00000KT 3SM BR BKN001 M25/M28 A3008 RMK ST6 SLP270=

CYQF;2006-03-05 11:27;SPECI CYQF 051127Z 00000KT 1/4SM FZFG VV000 RMK FG8=

CYQF;2006-03-05 12:00;METAR CYQF 051200Z 00000KT 0SM FZFG VV000 M24/M26 A3007 RMK FG8 SLP265=

CYQF;2006-03-05 13:00;METAR CYQF 051300Z 00000KT 0SM FZFG VV000 M25/M29 A3007 RMK FG8 SLP264=

CYQF;2006-03-05 13:31;SPECI CYQF 051331Z 00000KT 1/8SM FZFG SKC RMK FG7=

CYQF;2006-03-05 14:00;METAR CYQF 051400Z 00000KT 1/4SM FZFG SKC M26/M30 A3008 RMK FG7 SLP269=

CYQF;2006-03-05 14:14;SPECI CYQF 051414Z 00000KT 1 1/2SM BR SCT002 BKN080 RMK SF4AC1=

CYQF;2006-03-05 14:40;SPECI CYQF 051440Z 00000KT 3/4SM BR BKN080 RMK FG5AC1=

CYQF;2006-03-05 15:00;METAR CYQF 051500Z 00000KT 3/4SM BR SKC M25/M29 A3008 RMK FG7 SLP277=

CYQF;2006-03-05 16:00;METAR CYQF 051600Z 00000KT 2SM BR SKC M21/M25 A3007 RMK FG2 SLP274=

CYQF;2006-03-05 16:23;SPECI CYQF 051623Z 00000KT 5SM BR FEW250 RMK CI0=

CYQF;2006-03-05 17:00;METAR CYQF 051700Z 00000KT 3SM BR FEW250 M18/M20 A3007 RMK CI0 VIS S 8 SLP275=

CYQF;2006-03-05 18:00;METAR CYQF 051800Z 00000KT 5SM BR FEW250 M15/M17 A3006 RMK CI0 SLP264=

CYQF;2006-03-05 19:00;METAR CYQF 051900Z 00000KT 6SM BR SCT250 M12/M15 A3005 RMK CI1 SLP259=

CYQF;2006-03-05 20:00;METAR CYQF 052000Z 15005KT 8SM SCT250 M10/M14 A3003 RMK CI1 BR SLP253=

CYQF;2006-03-05 21:00;METAR CYQF 052100Z 13004KT 8SM BKN250 M10/M15 A2999 RMK CI2 BR SLP238=

CYQF;2006-03-06 00:00;METAR CYQF 060000Z 15006KT 8SM FEW120 OVC250 M10/M14 A2994 RMK AC2CI6 BR SLP219=

CYQF;2006-03-06 01:00;METAR CYQF 060100Z 15007KT 8SM FEW120 OVC250 M10/M13 A2992 RMK AC2CI5 BR SLP212=

CYQF;2006-03-06 02:00;METAR CYQF 060200Z 14005KT 10SM FEW120 BKN250 M10/M13 A2990 RMK AC2CI4 BR SLP207=

CYQF;2006-03-06 03:00;METAR CYQF 060300Z 13007KT 15SM BKN250 M10/M14 A2987 RMK CI2 SLP195=

CYQF;2006-03-06 04:00;METAR CYQF 060400Z 16006KT 15SM SCT250 M10/M14 A2985 RMK CI2 SLP189=

CYQF;2006-03-06 05:00;METAR CYQF 060500Z 15010KT 15SM SCT250 M10/M13 A2983 RMK CI2 SLP182=

CYQF;2006-03-06 06:00;METAR CYQF 060600Z 17012KT 6SM BR OVC230 M10/M13 A2981 RMK CI6 SLP162=

CYQF;2006-03-06 07:00;METAR CYQF 060700Z 16008KT 5SM BR OVC230 M10/M13 A2978 RMK CI6 SLP155=

CYQF;2006-03-06 08:00;METAR CYQF 060800Z 18007KT 10SM OVC250 M10/M13 A2976 RMK CI6 BR SLP147=

CYQF;2006-03-06 09:00;METAR CYQF 060900Z 00000KT 10SM BKN250 M12/M15 A2976 RMK CI3 BR SLP143=

CYQF;2006-03-06 10:00;METAR CYQF 061000Z 00000KT 10SM OVC250 M13/M16 A2976 RMK CI4 BR SLP140=

CYQF;2006-03-06 11:00;METAR CYQF 061100Z 19003KT 10SM OVC250 M13/M16 A2975 RMK CI4 BR SLP137=

CYQF;2006-03-06 12:00;METAR CYQF 061200Z 19002KT 10SM OVC250 M14/M17 A2975 RMK CI4 BR SLP139=

CYQF;2006-03-06 13:00;METAR CYQF 061300Z 00000KT 15SM BKN250 M14/M17 A2976 RMK CI3 SLP142=

CYQF;2006-03-06 14:00;METAR CYQF 061400Z 00000KT 10SM BKN250 M15/M18 A2976 RMK CI3 BR SLP142=

CYQF;2006-03-06 15:00;METAR CYQF 061500Z 33002KT 8SM FEW150 BKN250 M16/M20 A2976 RMK AC2CI3 BR SLP148=

CYQF;2006-03-06 16:00;METAR CYQF 061600Z 00000KT 8SM FEW150 BKN250 M13/M16 A2976 RMK AC1CI5 BR SLP147=

CYQF;2006-03-06 17:00;METAR CYQF 061700Z 19002KT 8SM BKN250 M11/M15 A2976 RMK CI6 BR SLP148=

CYQF;2006-03-06 18:00;METAR CYQF 061800Z 00000KT 8SM BKN250 M08/M13 A2975 RMK CI7 BR SLP132=

CYQF;2006-03-06 19:00;METAR CYQF 061900Z 00000KT 8SM BKN250 M05/M11 A2973 RMK CI6 BR SLP127=

CYQF;2006-03-06 20:00;METAR CYQF 062000Z 00000KT 8SM BKN250 M03/M10 A2971 RMK CI4 BR SLP120=

CYQF;2006-03-06 21:00;METAR CYQF 062100Z 00000KT 10SM BKN250 M03/M09 A2967 RMK CI3 BR SLP103=

CYQF;2006-03-06 22:00;METAR CYQF 062200Z 00000KT 10SM FEW120 BKN250 M01/M03 A2966 RMK AC1CI2 BR SLP100=

CYQF;2006-03-06 23:00;METAR CYQF 062300Z 00000KT 12SM BKN250 M01/M07 A2965 RMK CI4 SLP095=

CYQF;2006-03-07 00:00;METAR CYQF 070000Z 00000KT 12SM FEW080 BKN250 M00/M06 A2963 RMK AC1CI5 SLP088=

CYQF;2006-03-07 01:00;METAR CYQF 070100Z 17002KT 12SM FEW090 BKN250 M01/M07 A2963 RMK AC2CI3 SLP086=

CYQF;2006-03-07 02:00;METAR CYQF 070200Z 11002KT 12SM FEW060 BKN100 OVC250 M01/M06 A2962 RMK SC2AC3CI2 SLP085=

CYQF;2006-03-07 03:00;METAR CYQF 070300Z 14002KT 15SM FEW060 OVC100 M01/M06 A2961 RMK SC2AC5 SLP084=

CYQF;2006-03-07 04:00;METAR CYQF 070400Z 00000KT 15SM OVC100 M02/M06 A2960 RMK AC7 SLP081=

CYQF;2006-03-07 05:00;METAR CYQF 070500Z 02003KT 15SM BKN100 OVC250 M04/M08 A2959 RMK AC5CI2 SLP077=

CYQF;2006-03-07 06:00;METAR CYQF 070600Z 00000KT 15SM BKN100 OVC250 M05/M08 A2957 RMK AC5CI2 SLP065=

CYQF;2006-03-07 07:00;METAR CYQF 070700Z 00000KT 10SM SCT100 BKN250 M05/M08 A2956 RMK AC3CI1 SLP060=

CYQF;2006-03-07 08:00;METAR CYQF 070800Z 00000KT 6SM BR FEW100 BKN250 M08/M11 A2955 RMK AC2CI2 SLP057=

CYQF;2006-03-07 09:00;METAR CYQF 070900Z 00000KT 1SM BR FEW100 BKN250 M10/M13 A2953 RMK AC2CI2 SLP052=

CYQF;2006-03-07 09:10;SPECI CYQF 070910Z 00000KT 0SM FZFG VV000 RMK FG8=

CYQF;2006-03-07 10:00;METAR CYQF 071000Z 00000KT 0SM FZFG VV000 M10/M12 A2956 RMK FG8 SLP059=

CYQF;2006-03-07 11:00;METAR CYQF 071100Z 00000KT 1/8SM FZFG VV000 M09/M09 A2955 RMK FG8 SLP057=

CYQF;2006-03-07 12:00;METAR CYQF 071200Z 00000KT 1/8SM FZFG VV000 M09/M09 A2956 RMK FG8 SLP056=

CYQF;2006-03-07 12:50;SPECI CYQF 071250Z 00000KT 1SM BR BKN250 RMK FG2CI1=

CYQF;2006-03-07 13:00;METAR CYQF 071300Z 27003KT 2SM BR BKN100 BKN250 M09/M10 A2956 RMK FG2AC3CI1 SLP056=

CYQF;2006-03-07 13:12;SPECI CYQF 071312Z 27002KT 5SM BR BKN075 BKN250 RMK AC5CI1=

CYQF;2006-03-07 14:00;METAR CYQF 071400Z 00000KT 3SM BR BKN070 OVC250 M07/M08 A2957 RMK AC6CI2 SLP059=

CYQF;2006-03-07 15:00;METAR CYQF 071500Z 18003KT 5SM BR FEW020 OVC070 M07/M08 A2958 RMK SC2AC6 SLP064=

CYQF;2006-03-07 16:00;METAR CYQF 071600Z 00000KT 8SM BKN080 OVC250 M07/M07 A2959 RMK AC6CI2 BR SLP066=

CYQF;2006-03-07 17:00;METAR CYQF 071700Z 22003KT 10SM BKN080 OVC250 M05/M06 A2960 RMK AC6CI2 SLP070=

CYQF;2006-03-07 18:00;METAR CYQF 071800Z 00000KT 10SM BKN080 OVC250 M03/M06 A2961 RMK AC6CI2 SLP072=

CYQF;2006-03-07 19:00;METAR CYQF 071900Z 00000KT 15SM SCT080 BKN250 M01/M06 A2961 RMK AC3CI2 SLP072=

CYQF;2006-03-07 20:00;METAR CYQF 072000Z 22003KT 15SM FEW050 FEW080 BKN250 03/M04 A2960 RMK CU1AC2CI2 SLP071=

CYQF;2006-03-07 21:00;METAR CYQF 072100Z 00000KT 15SM FEW050 FEW100 BKN210 07/M03 A2960 RMK SC1AC1CI2 SLP065=

CYQF;2006-03-07 22:00;METAR CYQF 072200Z 00000KT 15SM FEW050 SCT210 06/M05 A2960 RMK SC2CI2 SLP065=

CYQF;2006-03-07 23:00;METAR CYQF 072300Z 00000KT 15SM FEW050 SCT210 06/M05 A2961 RMK SC2CI1 SLP069=

CYQF;2006-03-08 00:00;METAR CYQF 080000Z 21003KT 15SM FEW050 SCT210 04/M04 A2963 RMK SC2CI1 SLP075=

CYQF;2006-03-08 01:00;METAR CYQF 080100Z 19003KT 15SM FEW050 SCT210 01/M06 A2964 RMK SC2CI1 SLP079=

CYQF;2006-03-08 02:00;METAR CYQF 080200Z 18005KT 15SM FEW050 SCT210 M01/M07 A2965 RMK SC2CI1 SLP082=

CYQF;2006-03-08 03:00;METAR CYQF 080300Z 00000KT 15SM SCT050 M04/M09 A2966 RMK SC3 SLP095=

CYQF;2006-03-08 04:00;METAR CYQF 080400Z 00000KT 15SM SCT050 M03/M09 A2967 RMK SC3 SLP097=

CYQF;2006-03-08 05:00;METAR CYQF 080500Z 20003KT 15SM FEW050 M05/M10 A2967 RMK SC2 SLP099=

CYQF;2006-03-08 06:00;METAR CYQF 080600Z 29008KT 15SM FEW050 M05/M10 A2969 RMK SC2 SLP100=

CYQF;2006-03-08 07:00;METAR CYQF 080700Z 31004KT 15SM FEW100 M03/M10 A2968 RMK AC1 SLP098=

CYQF;2006-03-08 09:00;METAR CYQF 080900Z 18002KT 15SM SKC M07/M14 A2968 RMK SLP088=

CYQF;2006-03-08 10:00;METAR CYQF 081000Z 19003KT 15SM SKC M11/M16 A2967 RMK SLP086=

CYQF;2006-03-08 11:00;METAR CYQF 081100Z 18003KT 15SM SKC M11/M16 A2965 RMK SLP080=

CYQF;2006-03-08 12:00;METAR CYQF 081200Z 21003KT 15SM SKC M11/M16 A2963 RMK SLP080=

CYQF;2006-03-08 13:00;METAR CYQF 081300Z 18004KT 15SM SKC M11/M16 A2960 RMK SLP071=

CYQF;2006-03-08 14:00;METAR CYQF 081400Z 18005KT 15SM FEW250 M12/M17 A2957 RMK CI1 SLP062=

CYQF;2006-03-08 15:00;METAR CYQF 081500Z 18005KT 15SM FEW100 FEW250 M09/M16 A2953 RMK AC1CI1 SLP052=

CYQF;2006-03-08 16:00;METAR CYQF 081600Z 18005KT 15SM FEW100 BKN250 M05/M13 A2950 RMK AC1CI2 SLP042=

CYQF;2006-03-08 17:00;METAR CYQF 081700Z 17004KT 15SM FEW100 BKN250 M03/M10 A2946 RMK AC2CI5 SLP030=

CYQF;2006-03-08 18:00;METAR CYQF 081800Z 15006KT 15SM SCT120 BKN250 M02/M09 A2941 RMK AC3CI2 SLP002=

CYQF;2006-03-08 19:00;METAR CYQF 081900Z 16008KT 15SM FEW120 BKN250 M00/M08 A2936 RMK AC2CI2 SLP986=

CYQF;2006-03-08 20:00;METAR CYQF 082000Z 16008KT 15SM SCT120 BKN250 03/M05 A2931 RMK AC3CI2 SLP971=

CYQF;2006-03-08 21:00;METAR CYQF 082100Z 17010KT 15SM SCT120 BKN250 04/M05 A2924 RMK AC3CI3 SLP939=

CYQF;2006-03-08 22:00;METAR CYQF 082200Z 17010KT 15SM FEW120 BKN210 04/M04 A2919 RMK AC2CI2 SLP926=

CYQF;2006-03-08 23:00;METAR CYQF 082300Z 16008KT 15SM SCT120 BKN210 03/M04 A2916 RMK AC3CI2 SLP915=

CYQF;2006-03-09 00:00;METAR CYQF 090000Z 16007KT 15SM FEW080 BKN210 02/M04 A2912 RMK AC2CI4 SLP904=

CYQF;2006-03-09 01:00;METAR CYQF 090100Z 17005KT 15SM BKN100 01/M04 A2908 RMK AC7 SLP891=

CYQF;2006-03-09 02:00;METAR CYQF 090200Z 18004KT 15SM BKN100 01/M05 A2904 RMK AC7 SLP880=

CYQF;2006-03-09 03:00;METAR CYQF 090300Z 17005KT 15SM OVC100 00/M05 A2902 RMK AC8 SLP868=

CYQF;2006-03-09 04:00;METAR CYQF 090400Z 18004KT 15SM BKN100 OVC200 M01/M05 A2898 RMK AC6CI2 SLP857=

CYQF;2006-03-09 05:00;METAR CYQF 090500Z 16005KT 15SM BKN100 OVC210 00/M06 A2895 RMK AC6CI2 SLP848=

CYQF;2006-03-09 06:00;METAR CYQF 090600Z 24005KT 15SM BKN100 OVC210 M02/M07 A2892 RMK AC7CI1 SLP829=

CYQF;2006-03-09 07:00;METAR CYQF 090700Z 24006KT 15SM BKN100 OVC210 01/M07 A2890 RMK AC7CI1 SLP824=

CYQF;2006-03-09 08:00;METAR CYQF 090800Z 20006KT 15SM OVC100 01/M07 A2889 RMK AC8 SLP821=

CYQF;2006-03-09 09:00;METAR CYQF 090900Z 24007KT 15SM OVC100 01/M07 A2889 RMK AC8 SLP809=

CYQF;2006-03-09 10:00;METAR CYQF 091000Z 25007KT 15SM OVC100 01/M07 A2888 RMK AC8 SLP807=

CYQF;2006-03-09 11:00;METAR CYQF 091100Z 29008KT 15SM OVC100 01/M07 A2890 RMK AC8 SLP812=

CYQF;2006-03-09 12:00;METAR CYQF 091200Z 30007KT 15SM OVC100 01/M08 A2892 RMK AC8 SLP820=

CYQF;2006-03-09 13:00;METAR CYQF 091300Z 02008KT 15SM SCT050 OVC100 01/M07 A2895 RMK SC3AC5 SLP829=

CYQF;2006-03-09 13:26;SPECI CYQF 091326Z 02004KT 10SM -SN BKN050 OVC100 RMK SC5AC3=

CYQF;2006-03-09 14:00;METAR CYQF 091400Z 34006KT 2SM -SN OVC050 M01/M04 A2897 RMK SN4SC4 SLP837=

CYQF;2006-03-09 14:11;SPECI CYQF 091411Z 35006KT 1SM -SN VV007 RMK SN8=

CYQF;2006-03-09 14:25;SPECI CYQF 091425Z 32005KT 1/2SM SN VV006 RMK SN8=

CYQF;2006-03-09 14:42;SPECI CYQF 091442Z 27004KT 1SM -SN VV007 RMK SN8=

CYQF;2006-03-09 15:00;METAR CYQF 091500Z 26004KT 3SM -SN OVC050 M01/M03 A2898 RMK SN2SC6 /S01/ SLP848=

CYQF;2006-03-09 16:00;METAR CYQF 091600Z 27003KT 4SM -SN SCT020 OVC050 M01/M03 A2899 RMK SC3SC5 SLP851=

CYQF;2006-03-09 16:55;SPECI CYQF 091655Z 32010KT 2SM -SN SCT020 OVC050 RMK SC3SC5=

CYQF;2006-03-09 17:00;METAR CYQF 091700Z 32010KT 1 1/2SM -SN OVC020 00/M03 A2902 RMK SN3SC5 SLP859=

CYQF;2006-03-09 18:23;SPECI CYQF 091823Z 33012KT 15SM SCT020 OVC050 RMK SC3SC5 SHWRS S=

CYQF;2006-03-09 19:00;METAR CYQF 091900Z 32012KT 15SM FEW020 OVC050 00/M05 A2905 RMK SC2SC6 SLP871=

CYQF;2006-03-09 19:35;SPECI CYQF 091935Z 33014G21KT 3SM -SN FEW020 OVC045 RMK SC2SC6 VIS N LWR=

CYQF;2006-03-09 20:00;METAR CYQF 092000Z 32012KT 15SM FEW020 OVC045 M00/M05 A2906 RMK SC2SC6 SLP876=

CYQF;2006-03-09 21:00;METAR CYQF 092100Z 33013G23KT 10SM -SHSN OVC045 00/M08 A2908 RMK SC8 SLP879=

CYQF;2006-03-09 22:00;METAR CYQF 092200Z 35012G22KT 15SM OVC060 00/M10 A2910 RMK SC8 SLP885=

CYQF;2006-03-09 23:00;METAR CYQF 092300Z 35010KT 15SM OVC080 00/M10 A2912 RMK AC8 SLP892=

CYQF;2006-03-10 00:00;METAR CYQF 100000Z 34006KT 15SM BKN080 M00/M09 A2915 RMK AC7 SLP902=

CYQF;2006-03-10 01:00;METAR CYQF 100100Z 36010KT 15SM OVC080 M01/M10 A2917 RMK AC8 VIRGA SLP910=

CYQF;2006-03-10 02:00;METAR CYQF 100200Z 33007KT 15SM BKN050 OVC080 M01/M11 A2920 RMK SC6AC2 VIRGA SLP920=

CYQF;2006-03-10 03:00;METAR CYQF 100300Z 30006KT 15SM BKN050 OVC080 M01/M10 A2923 RMK SC6AC2 SLP936=

CYQF;2006-03-10 04:00;METAR CYQF 100400Z 30005KT 15SM BKN050 OVC080 M02/M11 A2925 RMK SC6AC2 SLP941=

CYQF;2006-03-10 05:00;METAR CYQF 100500Z 33006KT 15SM SCT050 OVC080 M02/M12 A2926 RMK SC4AC4 SLP946=

CYQF;2006-03-10 06:00;METAR CYQF 100600Z 32006KT 15SM FEW050 OVC080 M03/M12 A2928 RMK SC1AC6 SLP955=

CYQF;2006-03-10 07:00;METAR CYQF 100700Z 32007KT 15SM BKN080 M03/M12 A2931 RMK AC6 SLP962=

CYQF;2006-03-10 08:00;METAR CYQF 100800Z 31007KT 15SM BKN080 BKN250 M04/M13 A2932 RMK AC5CI2 SLP966=

CYQF;2006-03-10 09:00;METAR CYQF 100900Z 29007KT 15SM FEW080 BKN250 M05/M15 A2934 RMK AC2CI1 SLP974=

CYQF;2006-03-10 10:00;METAR CYQF 101000Z 29008KT 15SM FEW080 BKN250 M06/M15 A2934 RMK AC2CI2 SLP976=

CYQF;2006-03-10 11:00;METAR CYQF 101100Z 29008KT 15SM SCT080 BKN250 M06/M15 A2935 RMK AC4CI1 SLP979=

CYQF;2006-03-10 12:00;METAR CYQF 101200Z 30006KT 15SM SCT080 BKN250 M06/M15 A2937 RMK AC4CI2 SLP988=

CYQF;2006-03-10 13:00;METAR CYQF 101300Z 31008KT 15SM BKN090 OVC250 M06/M16 A2939 RMK AC5CI2 SLP994=

CYQF;2006-03-10 14:00;METAR CYQF 101400Z 30008KT 15SM BKN090 OVC250 M06/M15 A2941 RMK AC6CI2 SLP999=

CYQF;2006-03-10 15:00;METAR CYQF 101500Z 30007KT 15SM BKN090 OVC250 M06/M15 A2942 RMK AC6CI2 SLP006=

CYQF;2006-03-10 16:00;METAR CYQF 101600Z 30007KT 15SM FEW040 OVC090 M05/M15 A2944 RMK SC2AC5 VIRGA SLP012=

CYQF;2006-03-10 17:00;METAR CYQF 101700Z 29007KT 15SM FEW040 OVC090 M05/M14 A2946 RMK SC2AC6 SLP019=

CYQF;2006-03-10 18:00;METAR CYQF 101800Z 29008KT 15SM FEW040 OVC090 M04/M13 A2948 RMK SC2AC6 SLP026=

CYQF;2006-03-10 19:00;METAR CYQF 101900Z 32008KT 15SM OVC090 M03/M12 A2949 RMK AC8 SLP029=

CYQF;2006-03-10 20:00;METAR CYQF 102000Z 30011KT 15SM FEW035 OVC090 M02/M12 A2949 RMK SC2AC6 PCPN DIST N SLP031=

CYQF;2006-03-10 21:00;METAR CYQF 102100Z 32011KT 15SM FEW035 OVC090 M02/M12 A2950 RMK SC2AC6 PCPN DIST N SLP034=

CYQF;2006-03-10 22:00;METAR CYQF 102200Z 35011KT 12SM SCT035 OVC090 M03/M09 A2953 RMK SC3AC5 PCPN N SLP044=

CYQF;2006-03-10 22:10;SPECI CYQF 102210Z 35011KT 10SM -SN BKN035 OVC090 RMK SC5AC3=

CYQF;2006-03-10 22:26;SPECI CYQF 102226Z 36009KT 2 1/2SM -SN BKN035 OVC090 RMK SC6AC2=

CYQF;2006-03-10 23:00;METAR CYQF 102300Z 34010KT 2 1/2SM -SN BKN035 OVC090 M04/M08 A2956 RMK SC6AC2 SLP053=

CYQF;2006-03-11 00:00;METAR CYQF 110000Z 35012KT 2SM -SN OVC030 M05/M09 A2959 RMK SC8 SLP070=

CYQF;2006-03-11 00:22;SPECI CYQF 110022Z 36011KT 4SM -SN BKN030 OVC090 RMK SC5AC3=

CYQF;2006-03-11 01:00;METAR CYQF 110100Z 35012KT 3SM -SN DRSN FEW010 OVC040 M05/M10 A2961 RMK SF2SC6 SLP077=

CYQF;2006-03-11 03:00;METAR CYQF 110300Z 33008KT 4SM -SN OVC040 M06/M10 A2968 RMK SC8 SLP101=

CYQF;2006-03-11 04:00;METAR CYQF 110400Z 33010KT 3SM -SN OVC040 M06/M10 A2970 RMK SC8 SLP107=

CYQF;2006-03-11 05:00;METAR CYQF 110500Z 32009KT 3SM -SN OVC050 M07/M10 A2971 RMK SC8 SLP112=

CYQF;2006-03-11 06:00;METAR CYQF 110600Z 33010KT 6SM -SN OVC050 M07/M11 A2974 RMK SC8 SLP120=

CYQF;2006-03-11 07:00;METAR CYQF 110700Z 32010KT 4SM -SN OVC050 M08/M12 A2976 RMK SC6 SLP126=

CYQF;2006-03-11 08:00;METAR CYQF 110800Z 33010KT 3SM -SN BKN040 BKN210 M08/M12 A2978 RMK SN2SC2CI2 SLP133=

CYQF;2006-03-11 09:00;METAR CYQF 110900Z 31010KT 6SM -SN BKN030 OVC210 M09/M13 A2979 RMK SC5CI2 SLP140=

CYQF;2006-03-11 10:00;METAR CYQF 111000Z 32010KT 6SM -SN BKN027 OVC210 M09/M13 A2981 RMK SC6CI1 SLP145=

CYQF;2006-03-11 11:00;METAR CYQF 111100Z 32010KT 6SM -SN OVC025 M09/M14 A2982 RMK SC7 SLP148=

CYQF;2006-03-11 13:00;METAR CYQF 111300Z 32010G15KT 6SM -SN DRSN OVC025 M10/M15 A2986 RMK SC8 SLP166=

CYQF;2006-03-11 13:39;SPECI CYQF 111339Z 33010G15KT 1 1/2SM -SN DRSN VV020 RMK SN8=

CYQF;2006-03-11 14:00;METAR CYQF 111400Z 32010G15KT 2SM -SN DRSN OVC025 M10/M15 A2988 RMK SN4SC4 SLP173=

CYQF;2006-03-11 15:49;SPECI CYQF 111549Z 33010G17KT 1SM -SN DRSN OVC020 RMK SN5SC3=

CYQF;2006-03-11 16:00;METAR CYQF 111600Z 32010G17KT 1SM -SN DRSN OVC020 M10/M14 A2992 RMK SN5SC2 SLP191=

CYQF;2006-03-11 16:32;SPECI CYQF 111632Z 32010G18KT 2SM -SN DRSN OVC020 RMK SN3SC4 VIS VRB 1-3=

CYQF;2006-03-11 17:00;METAR CYQF 111700Z 33014KT 2SM -SN DRSN BKN015 OVC080 M10/M15 A2995 RMK SN3SC2AC2 VIS VRB 1-3 SLP199=

CYQF;2006-03-11 18:00;METAR CYQF 111800Z 34012G18KT 2SM -SN DRSN BKN012 OVC080 M10/M14 A2996 RMK SN3SC2AC2 VIS VRB 1-3 SLP206=

CYQF;2006-03-11 19:00;METAR CYQF 111900Z 32010G16KT 2SM -SN DRSN BKN012 OVC080 M09/M13 A2996 RMK SN3SC2AC2 VIS VRB 1-3 SLP207=

CYQF;2006-03-11 20:00;METAR CYQF 112000Z 33012G18KT 2SM -SN DRSN BKN012 OVC080 M09/M13 A2997 RMK SN3SC2AC2 VIS VRB 1-3 SLP208=

CYQF;2006-03-11 20:38;SPECI CYQF 112038Z 33010KT 5SM -SN BKN012 OVC080 RMK SC6AC2=

CYQF;2006-03-11 21:00;METAR CYQF 112100Z 35010KT 10SM SCT012 BKN080 OVC250 M08/M13 A2996 RMK SC3AC2CI2 SLP207=

CYQF;2006-03-11 22:00;METAR CYQF 112200Z 33009KT 10SM SCT012 BKN080 OVC250 M08/M13 A2997 RMK SC3AC2CI1 SLP209=

CYQF;2006-03-11 23:00;METAR CYQF 112300Z 34010KT 15SM FEW012 SCT080 OVC250 M08/M14 A2998 RMK SC2AC2CI2 SLP212=

CYQF;2006-03-12 00:00;METAR CYQF 120000Z 33010KT 15SM SCT080 OVC250 M08/M14 A2998 RMK AC3CI2 SLP214=

CYQF;2006-03-12 01:00;METAR CYQF 120100Z 32010KT 15SM FEW040 SCT080 OVC250 M08/M14 A2999 RMK SC2AC2CI2 SLP216=

CYQF;2006-03-12 02:00;METAR CYQF 120200Z 33008KT 10SM -SN FEW020 SCT080 OVC250 M09/M14 A3001 RMK SC2AC2CI2 SLP221=

CYQF;2006-03-12 03:00;METAR CYQF 120300Z 33010KT 10SM -SN SCT020 BKN080 OVC250 M09/M14 A3003 RMK SC3AC2CI2 SLP232=

CYQF;2006-03-12 04:00;METAR CYQF 120400Z 33006KT 6SM -SN SCT020 BKN080 OVC250 M09/M13 A3004 RMK SC3AC2CI1 SLP235=

CYQF;2006-03-12 05:00;METAR CYQF 120500Z 32005KT 8SM -SN SCT080 OVC250 M10/M14 A3004 RMK AC3CS2 SLP236=

CYQF;2006-03-12 06:00;METAR CYQF 120600Z 32005KT 8SM -SN SCT080 OVC250 M10/M13 A3005 RMK AC3CS2 SLP239=

CYQF;2006-03-12 07:00;METAR CYQF 120700Z 31004KT 6SM -SN SCT080 OVC250 M10/M14 A3005 RMK AC3CS2 SLP238=

CYQF;2006-03-12 08:00;METAR CYQF 120800Z 33005KT 6SM -SN SCT080 OVC250 M11/M15 A3005 RMK AC3CS2 SLP238=

CYQF;2006-03-12 09:00;METAR CYQF 120900Z 31004KT 10SM -SN SCT012 BKN080 M12/M16 A3005 RMK SF3AC2 SLP241=

CYQF;2006-03-12 10:00;METAR CYQF 121000Z 31005KT 10SM -SN FEW012 SCT080 OVC250 M13/M17 A3004 RMK SF2AC2CS1 SLP238=

CYQF;2006-03-12 11:00;METAR CYQF 121100Z 33005KT 10SM -SN FEW080 OVC250 M13/M16 A3004 RMK AC2CS2 SLP236=

CYQF;2006-03-12 12:00;METAR CYQF 121200Z 33005KT 8SM -SN SCT080 OVC250 M13/M16 A3004 RMK AC3CS2 SLP236=

CYQF;2006-03-12 13:00;METAR CYQF 121300Z 34003KT 8SM -SN BKN090 OVC250 M13/M16 A3004 RMK AC5CS2 SLP236=

CYQF;2006-03-12 14:00;METAR CYQF 121400Z 00000KT 8SM -SN OVC100 M13/M16 A3004 RMK AC7 SLP237=

CYQF;2006-03-12 15:00;METAR CYQF 121500Z 00000KT 3SM -SN BKN100 OVC250 M13/M16 A3004 RMK AC5CI2 SLP239=

CYQF;2006-03-12 16:00;METAR CYQF 121600Z 00000KT 2SM -SN SCT020 BKN080 OVC250 M12/M16 A3005 RMK SC3AC2CI2 VIS VRB 1-3 SLP242=

CYQF;2006-03-12 17:00;METAR CYQF 121700Z 01002KT 2SM -SN SCT020 BKN080 OVC250 M11/M15 A3005 RMK SC3AC2CI2 SLP243=

CYQF;2006-03-12 17:37;SPECI CYQF 121737Z 02002KT 8SM -SN FEW020 BKN080 OVC250 RMK SC2AC2CI2=

CYQF;2006-03-12 18:00;METAR CYQF 121800Z 00000KT 8SM -SN FEW020 BKN080 OVC250 M11/M15 A3005 RMK SC2AC2CI2 SLP239=

CYQF;2006-03-12 19:00;METAR CYQF 121900Z 00000KT 5SM -SN FEW020 BKN080 OVC250 M09/M14 A3004 RMK SC2AC2CI2 SLP238=

CYQF;2006-03-12 20:00;METAR CYQF 122000Z 00000KT 12SM -SN FEW020 BKN080 OVC250 M09/M14 A3003 RMK SC1AC4CI1 SLP235=

CYQF;2006-03-12 21:00;METAR CYQF 122100Z 00000KT 12SM FEW020 BKN080 BKN250 M08/M14 A3001 RMK SC1AC3CI2 SLP228=

CYQF;2006-03-12 22:00;METAR CYQF 122200Z 00000KT 12SM FEW020 BKN080 BKN250 M08/M13 A3001 RMK SC2AC2CI2 SLP226=

CYQF;2006-03-12 23:00;METAR CYQF 122300Z 00000KT 15SM FEW020 BKN080 OVC250 M08/M14 A3001 RMK SC2AC2CI2 SLP227=

CYQF;2006-03-13 00:00;METAR CYQF 130000Z 15004KT 15SM FEW020 BKN090 OVC250 M09/M14 A3000 RMK SC2AC3CI2 SLP225=

CYQF;2006-03-13 01:00;METAR CYQF 130100Z 14004KT 15SM BKN090 OVC250 M09/M15 A3000 RMK AC5CI2 SLP224=

CYQF;2006-03-13 02:00;METAR CYQF 130200Z 00000KT 15SM SCT090 OVC250 M10/M15 A3000 RMK AC3CI3 SLP224=

CYQF;2006-03-13 04:00;METAR CYQF 130400Z 13004KT 15SM SCT080 OVC250 M12/M16 A2999 RMK AC3CS2 SLP223=

CYQF;2006-03-13 05:00;METAR CYQF 130500Z 15004KT 15SM BKN250 M14/M18 A2998 RMK CS3 SLP222=

CYQF;2006-03-13 06:00;METAR CYQF 130600Z 15002KT 15SM SCT250 M15/M18 A2998 RMK CI2 SLP221=

CYQF;2006-03-13 07:00;METAR CYQF 130700Z 00000KT 15SM SCT250 M16/M19 A2996 RMK CI2 SLP215=

CYQF;2006-03-13 08:00;METAR CYQF 130800Z 14004KT 15SM FEW250 M16/M18 A2994 RMK CI1 SLP210=

CYQF;2006-03-13 09:00;METAR CYQF 130900Z 00000KT 15SM FEW230 M17/M20 A2993 RMK CI1 SLP206=

CYQF;2006-03-13 10:00;METAR CYQF 131000Z 00000KT 15SM SKC M17/M20 A2992 RMK SLP203=

CYQF;2006-03-13 11:00;METAR CYQF 131100Z 00000KT 15SM SKC M18/M20 A2991 RMK SLP199=

CYQF;2006-03-13 11:29;SPECI CYQF 131129Z 00000KT 6SM BR SCT003 RMK ST2 FROIN=

CYQF;2006-03-13 12:00;METAR CYQF 131200Z 00000KT 6SM BR SCT003 M19/M22 A2991 RMK ST2 FROIN SLP199=

CYQF;2006-03-13 12:49;SPECI CYQF 131249Z 20002KT 5SM IC OVC003 RMK ST6 FROIN=

CYQF;2006-03-13 13:00;METAR CYQF 131300Z 20003KT 5SM IC OVC004 M19/M21 A2990 RMK ST6 FROIN SLP198=

CYQF;2006-03-13 14:00;METAR CYQF 131400Z 20005KT 2SM BR OVC003 M18/M20 A2989 RMK FG2ST6 FROIN VIS W 1BR SLP195=

CYQF;2006-03-13 14:10;SPECI CYQF 131410Z 19004KT 5/8SM BR VV003 RMK FG8=

CYQF;2006-03-13 14:19;SPECI CYQF 131419Z 19004KT 1/2SM FZFG VV002 RMK FG8 RIME ON INDICATOR=

CYQF;2006-03-13 14:44;SPECI CYQF 131444Z 20002KT 3/4SM BR BKN003 RMK FG2ST3=

CYQF;2006-03-13 15:00;METAR CYQF 131500Z 00000KT 1SM BR OVC003 M18/M19 A2988 RMK FG2ST4 FROIN SLP193=

CYQF;2006-03-13 16:00;METAR CYQF 131600Z 00000KT 1 1/2SM BR SCT003 M16/M17 A2988 RMK FG2ST1 SLP193=

CYQF;2006-03-13 17:00;METAR CYQF 131700Z 18002KT 3SM BR FEW250 M15/M15 A2987 RMK FG2CI1 FROIN SLP190=

CYQF;2006-03-13 18:00;METAR CYQF 131800Z 17003KT 5SM BR FEW100 M13/M14 A2986 RMK AC2 SLP184=

CYQF;2006-03-13 19:00;METAR CYQF 131900Z 14004KT 8SM FEW100 FEW250 M12/M16 A2986 RMK AC1CI2 BR SLP184=

CYQF;2006-03-13 20:00;METAR CYQF 132000Z 15003KT 8SM FEW100 FEW250 M10/M16 A2985 RMK AC1CI1 BR SLP180=

CYQF;2006-03-13 21:00;METAR CYQF 132100Z 13005KT 10SM FEW100 BKN250 M09/M15 A2983 RMK AC2CI2 SLP171=

CYQF;2006-03-13 22:00;METAR CYQF 132200Z 14004KT 10SM FEW100 BKN250 M08/M15 A2983 RMK AC2CI2 SLP170=

CYQF;2006-03-13 23:00;METAR CYQF 132300Z 18005KT 12SM FEW100 BKN250 M07/M14 A2983 RMK AC2CI2 SLP171=

CYQF;2006-03-14 00:00;METAR CYQF 140000Z 00000KT 12SM FEW100 BKN250 M08/M14 A2983 RMK AC2CI2 SLP173=

CYQF;2006-03-14 01:00;METAR CYQF 140100Z 00000KT 15SM FEW100 BKN250 M09/M15 A2984 RMK AC2CI2 SLP175=

CYQF;2006-03-14 02:00;METAR CYQF 140200Z 00000KT 15SM FEW100 BKN250 M11/M16 A2985 RMK AC2CI2 SLP179=

CYQF;2006-03-14 03:00;METAR CYQF 140300Z 00000KT 15SM FEW100 BKN250 M13/M17 A2986 RMK AC2CI2 SLP186=

CYQF;2006-03-14 04:00;METAR CYQF 140400Z 00000KT 15SM FEW100 BKN250 M14/M18 A2986 RMK AC2CI2 SLP186=

CYQF;2006-03-14 05:00;METAR CYQF 140500Z 00000KT 15SM FEW100 BKN220 M17/M20 A2985 RMK AC2CI1 SLP184=

CYQF;2006-03-14 06:00;METAR CYQF 140600Z 00000KT 15SM BKN220 M17/M20 A2984 RMK CI2 SLP180=

CYQF;2006-03-14 07:00;METAR CYQF 140700Z 00000KT 15SM BKN220 M17/M20 A2983 RMK CS3 SLP176=

CYQF;2006-03-14 08:00;METAR CYQF 140800Z 00000KT 10SM BKN220 M17/M20 A2983 RMK CI3 SLP175=

CYQF;2006-03-14 09:00;METAR CYQF 140900Z 18003KT 10SM SCT150 OVC220 M17/M20 A2982 RMK AC3CI2 SLP166=

CYQF;2006-03-14 10:00;METAR CYQF 141000Z 17002KT 10SM FEW150 BKN220 M16/M19 A2981 RMK AC2CI2 SLP164=

CYQF;2006-03-14 11:00;METAR CYQF 141100Z 17003KT 10SM SCT150 OVC220 M15/M18 A2979 RMK AC3CI2 SLP159=

CYQF;2006-03-14 12:00;METAR CYQF 141200Z 15004KT 10SM FEW150 BKN220 M15/M18 A2979 RMK AC2CI2 SLP152=

CYQF;2006-03-14 13:00;METAR CYQF 141300Z 15004KT 10SM BKN120 OVC220 M15/M18 A2978 RMK AC5CI2 SLP151=

CYQF;2006-03-14 14:00;METAR CYQF 141400Z 15005KT 6SM BR BKN120 OVC220 M14/M17 A2977 RMK AC6CI2 SLP148=

CYQF;2006-03-14 15:00;METAR CYQF 141500Z 18002KT 6SM BR FEW100 BKN150 OVC230 M13/M16 A2977 RMK AC2AC4CI1 SLP151=

CYQF;2006-03-14 16:00;METAR CYQF 141600Z 14003KT 6SM BR FEW100 SCT150 BKN230 M13/M16 A2977 RMK AC2AC2CI2 SLP150=

CYQF;2006-03-14 17:00;METAR CYQF 141700Z 14004KT 10SM FEW100 BKN230 M11/M15 A2976 RMK AC2CI3 SLP146=

CYQF;2006-03-14 18:00;METAR CYQF 141800Z 15008KT 10SM FEW100 BKN230 M10/M14 A2975 RMK AC2CI2 SLP143=

CYQF;2006-03-14 19:00;METAR CYQF 141900Z 14008KT 10SM FEW090 BKN230 M08/M13 A2974 RMK AC2CI2 SLP140=

CYQF;2006-03-14 20:00;METAR CYQF 142000Z 14007KT 15SM FEW090 BKN230 M08/M13 A2974 RMK AC2CI2 SLP139=

CYQF;2006-03-14 21:00;METAR CYQF 142100Z 15008KT 15SM FEW090 BKN230 M08/M13 A2972 RMK AC2CI3 SLP129=

CYQF;2006-03-14 22:00;METAR CYQF 142200Z 13007KT 15SM SCT120 BKN230 M07/M13 A2971 RMK AC3CI2 SLP126=

CYQF;2006-03-14 23:00;METAR CYQF 142300Z 13007KT 15SM FEW120 BKN230 M06/M11 A2971 RMK AC2CI2 SLP128=

CYQF;2006-03-15 00:00;METAR CYQF 150000Z 14006KT 15SM FEW120 BKN230 M06/M12 A2971 RMK AC2CI3 SLP123=

CYQF;2006-03-15 01:00;METAR CYQF 150100Z 12008KT 15SM SCT120 BKN250 M07/M11 A2970 RMK AC4CI2 SLP121=

CYQF;2006-03-15 02:00;METAR CYQF 150200Z 12004KT 15SM SCT120 BKN250 M07/M11 A2971 RMK AC3CI2 SLP124=

CYQF;2006-03-15 03:00;METAR CYQF 150300Z 14005KT 15SM FEW120 BKN250 M08/M12 A2972 RMK AC2CI2 SLP127=

CYQF;2006-03-15 04:00;METAR CYQF 150400Z 14005KT 15SM FEW120 BKN250 M08/M11 A2972 RMK AC2CI2 SLP127=

CYQF;2006-03-15 05:00;METAR CYQF 150500Z 15003KT 15SM FEW120 BKN250 M08/M11 A2972 RMK AC2CI3 SLP126=

CYQF;2006-03-15 06:00;METAR CYQF 150600Z 16004KT 15SM FEW120 BKN250 M08/M11 A2972 RMK AC2CI2 SLP124=

CYQF;2006-03-15 07:00;METAR CYQF 150700Z 15005KT 10SM BKN250 M09/M11 A2972 RMK CI6 SLP124=

CYQF;2006-03-15 08:00;METAR CYQF 150800Z 15005KT 6SM BR OVC250 M08/M11 A2973 RMK CI5 SLP125=

CYQF;2006-03-15 09:00;METAR CYQF 150900Z 15005KT 6SM BR OVC250 M08/M11 A2974 RMK CI4 SLP127=

CYQF;2006-03-15 10:00;METAR CYQF 151000Z 14004KT 6SM BR BKN250 M09/M11 A2974 RMK CI4 SLP128=

CYQF;2006-03-15 11:00;METAR CYQF 151100Z 15004KT 6SM BR BKN250 M10/M13 A2975 RMK CI2 SLP129=

CYQF;2006-03-15 12:00;METAR CYQF 151200Z 00000KT 6SM BR BKN250 M10/M12 A2976 RMK CI2 SLP135=

CYQF;2006-03-15 13:00;METAR CYQF 151300Z 00000KT 2SM BR SCT250 M11/M14 A2978 RMK CI2 SLP140=

CYQF;2006-03-15 14:00;METAR CYQF 151400Z 15005KT 6SM BR BKN250 M11/M13 A2979 RMK CI2 SLP144=

CYQF;2006-03-15 15:00;METAR CYQF 151500Z 00000KT 3SM BR SCT250 M12/M14 A2981 RMK CI2 SLP156=

CYQF;2006-03-15 15:07;SPECI CYQF 151507Z 23002KT 1/2SM FZFG SCT250 RMK FG2CI0=

CYQF;2006-03-15 15:27;SPECI CYQF 151527Z 00000KT 1/8SM FZFG SKC RMK FG6=

CYQF;2006-03-15 16:00;METAR CYQF 151600Z 00000KT 1/4SM FZFG SKC M11/M13 A2983 RMK FG5 SLP163=

CYQF;2006-03-15 16:22;SPECI CYQF 151622Z 00000KT 2SM BR SKC RMK FG2=

CYQF;2006-03-15 17:00;METAR CYQF 151700Z 14005KT 3SM BR SKC M08/M09 A2985 RMK FG1 SLP167=

CYQF;2006-03-15 17:33;SPECI CYQF 151733Z 16005KT 3SM BR OVC004 RMK FG2ST5=

CYQF;2006-03-15 19:00;METAR CYQF 151900Z 14008KT 3SM BR OVC003 M05/M07 A2987 RMK FG2ST6 SLP170=

CYQF;2006-03-15 20:00;METAR CYQF 152000Z 15008KT 4SM BR OVC004 M04/M07 A2988 RMK ST8 SLP174=

CYQF;2006-03-15 21:00;METAR CYQF 152100Z 15008KT 3SM -SN BR OVC004 M03/M06 A2989 RMK ST8 SLP176=

CYQF;2006-03-15 22:00;METAR CYQF 152200Z 12008KT 5SM BR OVC005 M03/M06 A2990 RMK ST8 SLP178=

CYQF;2006-03-15 23:00;METAR CYQF 152300Z 14007KT 5SM BR OVC005 M03/M06 A2992 RMK ST8 SLP183=

CYQF;2006-03-16 00:00;METAR CYQF 160000Z 11008KT 5SM BR OVC006 M03/M06 A2993 RMK ST8 SLP191=

CYQF;2006-03-16 02:45;SPECI CYQF 160245Z 12006KT 5SM BR OVC006 RMK SF8 CIG RAG=

CYQF;2006-03-16 03:00;METAR CYQF 160300Z 12008KT 5SM BR OVC006 M07/M10 A2999 RMK SF8 CIG RAG BARO READ +22 SLP218=

CYQF;2006-03-16 04:00;METAR CYQF 160400Z 13008KT 8SM OVC007 M08/M11 A3000 RMK SF8 CIG RAG BR SLP221=

CYQF;2006-03-16 05:00;METAR CYQF 160500Z 13008KT 8SM -SN OVC007 M08/M12 A3001 RMK SF8 CIG RAG SLP224=

CYQF;2006-03-16 06:00;METAR CYQF 160600Z 13006KT 5SM -SN BR OVC006 M09/M12 A3001 RMK SF8 CIG RAG SLP218=

CYQF;2006-03-16 07:00;METAR CYQF 160700Z 13006KT 5SM -SN OVC005 M09/M12 A3000 RMK SF8 CIG RAG SLP216=

CYQF;2006-03-16 08:00;METAR CYQF 160800Z 12003KT 5SM -SN OVC005 M09/M12 A2999 RMK SF8 SLP214=

CYQF;2006-03-16 09:00;METAR CYQF 160900Z 14003KT 5SM -SN OVC004 M09/M12 A2999 RMK SF8 SLP210=

CYQF;2006-03-16 10:00;METAR CYQF 161000Z 14004KT 5SM -SN OVC004 M09/M12 A2999 RMK SF8 SLP209=

CYQF;2006-03-16 11:00;METAR CYQF 161100Z 15004KT 4SM -SN BR OVC004 M09/M12 A2998 RMK SF8 SLP206=

CYQF;2006-03-16 12:00;METAR CYQF 161200Z 14004KT 4SM -SN BR OVC005 M09/M12 A2998 RMK SF8 SLP208=

CYQF;2006-03-16 13:00;METAR CYQF 161300Z 13007KT 5SM -SN BR OVC006 M09/M12 A2999 RMK SF8 CIG RAG SLP209=

CYQF;2006-03-16 14:00;METAR CYQF 161400Z 11004KT 3SM -SN BR OVC006 M09/M11 A2999 RMK SF8 CIG RAG SLP211=

CYQF;2006-03-16 15:00;METAR CYQF 161500Z 14005KT 2 1/2SM -SN BR OVC005 M08/M11 A2999 RMK SF8 CIG RGD SLP215=

CYQF;2006-03-16 16:00;METAR CYQF 161600Z 14004KT 2 1/2SM -SN BR OVC006 M08/M10 A3000 RMK ST8 SLP216=

CYQF;2006-03-16 17:00;METAR CYQF 161700Z 12005KT 3SM -SN BR OVC006 M07/M10 A2999 RMK ST8 SLP214=

CYQF;2006-03-16 18:00;METAR CYQF 161800Z 13005KT 4SM -SN BR OVC006 M06/M09 A2999 RMK ST8 SLP212=

CYQF;2006-03-16 19:00;METAR CYQF 161900Z 14005KT 4SM -SN BR OVC006 M05/M09 A2998 RMK ST8 SLP210=

CYQF;2006-03-16 20:00;METAR CYQF 162000Z 15007KT 4SM -SN BR OVC006 M05/M09 A2998 RMK ST8 SLP211=

CYQF;2006-03-16 21:00;METAR CYQF 162100Z 16006KT 6SM BR OVC008 M05/M09 A2997 RMK ST8 SLP207=

CYQF;2006-03-16 22:00;METAR CYQF 162200Z 14007KT 6SM BR OVC010 M05/M09 A2998 RMK ST8 SLP208=

CYQF;2006-03-16 23:00;METAR CYQF 162300Z 09007KT 6SM BR OVC010 M05/M09 A2999 RMK ST8 SLP211=

CYQF;2006-03-16 23:32;SPECI CYQF 162332Z 13006KT 6SM BR OVC006 RMK ST8=

CYQF;2006-03-17 00:00;METAR CYQF 170000Z 12007KT 8SM OVC006 M05/M09 A2998 RMK ST8 BR SLP210=

CYQF;2006-03-17 01:00;METAR CYQF 170100Z 11005KT 8SM OVC006 M06/M09 A2998 RMK ST8 BR SLP210=

CYQF;2006-03-17 02:00;METAR CYQF 170200Z 10005KT 6SM BR OVC007 M06/M09 A2997 RMK ST8 SLP208=

CYQF;2006-03-17 02:50;SPECI CYQF 170250Z 14005KT 8SM -SN OVC008 RMK ST8=

CYQF;2006-03-17 03:00;METAR CYQF 170300Z 14006KT 8SM -SN OVC008 M06/M09 A2999 RMK SF8 CIG RAG SLP213=

CYQF;2006-03-17 04:00;METAR CYQF 170400Z 13005KT 8SM -SN OVC007 M06/M09 A2999 RMK SF8 CIG RAG SLP212=

CYQF;2006-03-17 05:00;METAR CYQF 170500Z 14007KT 6SM -SN OVC006 M06/M09 A2998 RMK SF8 CIG RAG SLP210=

CYQF;2006-03-17 06:00;METAR CYQF 170600Z 15007KT 5SM -SN BR OVC004 M06/M09 A2997 RMK SF8 CIG RAG SLP204=

CYQF;2006-03-17 06:26;SPECI CYQF 170626Z 13007KT 2SM BR OVC003 RMK SF8=

CYQF;2006-03-17 07:00;METAR CYQF 170700Z 12008KT 2SM BR OVC003 M07/M09 A2996 RMK SF8 SLP201=

CYQF;2006-03-17 07:40;SPECI CYQF 170740Z 14007KT 2SM -SN BR OVC004 RMK SF8=

CYQF;2006-03-17 08:00;METAR CYQF 170800Z 14007KT 1 1/2SM -SN BR OVC004 M07/M09 A2995 RMK SF8 SLP198=

CYQF;2006-03-17 09:00;METAR CYQF 170900Z 14008KT 1SM BR OVC003 M07/M09 A2994 RMK SF8 SLP192=

CYQF;2006-03-17 10:00;METAR CYQF 171000Z 14006KT 1SM BR OVC003 M07/M09 A2992 RMK SF8 SLP187=

CYQF;2006-03-17 11:00;METAR CYQF 171100Z 14007KT 1/2SM FZFG VV003 M06/M09 A2991 RMK FG8 SLP182=

CYQF;2006-03-17 12:00;METAR CYQF 171200Z 14007KT 1/2SM FZFG VV003 M06/M09 A2989 RMK FG8 RIME ON INDICATOR SLP176=

CYQF;2006-03-17 12:42;SPECI CYQF 171242Z 14005KT 1SM BR OVC005 RMK FG6SF2 RIME ON INDICATOR=

CYQF;2006-03-17 13:00;METAR CYQF 171300Z 14006KT 1SM BR OVC005 M06/M08 A2989 RMK FG6SF2 RIME ON INDICATOR SLP174=

CYQF;2006-03-17 14:00;METAR CYQF 171400Z 13008KT 1SM BR OVC003 M06/M08 A2988 RMK FG6SF2 SLP172=

CYQF;2006-03-17 15:00;METAR CYQF 171500Z 13006KT 1SM BR VV003 M06/M07 A2986 RMK FG8 SLP166=

CYQF;2006-03-17 16:00;METAR CYQF 171600Z 14008KT 3/4SM BR VV002 M06/M07 A2986 RMK FG8 RIME ON INDICATOR SLP166=

CYQF;2006-03-17 17:00;METAR CYQF 171700Z 14007KT 1/2SM FZFG VV002 M06/M06 A2986 RMK FG8 RIME ON INDICATOR SLP164=

CYQF;2006-03-17 18:00;METAR CYQF 171800Z 14007KT 3/4SM BR VV002 M05/M06 A2985 RMK FG8 RIME ON INDICATOR SLP160=

CYQF;2006-03-17 18:40;SPECI CYQF 171840Z 13007KT 1SM BR VV004 RMK FG8=

CYQF;2006-03-17 19:00;METAR CYQF 171900Z 14007KT 1 1/2SM BR VV006 M05/M06 A2984 RMK FG8 SLP158=

CYQF;2006-03-17 19:49;SPECI CYQF 171949Z 13007KT 3SM BR OVC010 RMK ST8=

CYQF;2006-03-17 20:00;METAR CYQF 172000Z 15007KT 3SM BR OVC010 M04/M05 A2983 RMK ST8 SLP154=

CYQF;2006-03-17 20:30;SPECI CYQF 172030Z 14008KT 4SM BR OVC005 RMK ST8=

CYQF;2006-03-17 21:00;METAR CYQF 172100Z 14006KT 4SM BR OVC005 M04/M06 A2981 RMK ST8 SLP147=

CYQF;2006-03-17 22:00;METAR CYQF 172200Z 14010KT 6SM BR OVC008 M04/M06 A2980 RMK ST8 SLP144=

CYQF;2006-03-17 23:00;METAR CYQF 172300Z 14008KT 8SM OVC009 M02/M05 A2980 RMK ST8 BR SLP144=

CYQF;2006-03-17 23:27;SPECI CYQF 172327Z 14010KT 10SM OVC010 RMK ST8 BR=

CYQF;2006-03-18 00:00;METAR CYQF 180000Z 11008KT 10SM OVC010 M01/M05 A2980 RMK ST8 BR SLP139=

CYQF;2006-03-18 01:00;METAR CYQF 180100Z 13005KT 10SM OVC011 M01/M05 A2980 RMK ST8 BR SLP139=

CYQF;2006-03-18 02:00;METAR CYQF 180200Z 10004KT 10SM OVC010 M02/M05 A2982 RMK ST8 SLP145=

CYQF;2006-03-18 03:00;METAR CYQF 180300Z 35004KT 10SM OVC010 M02/M05 A2985 RMK ST8 SLP155=

CYQF;2006-03-18 04:00;METAR CYQF 180400Z 01005KT 10SM OVC010 M02/M05 A2985 RMK ST8 SLP158=

CYQF;2006-03-18 05:00;METAR CYQF 180500Z 07008KT 10SM OVC007 M03/M05 A2986 RMK ST8 SLP159=

CYQF;2006-03-18 06:00;METAR CYQF 180600Z 07006KT 10SM OVC007 M04/M07 A2986 RMK ST8 SLP161=

CYQF;2006-03-18 06:41;SPECI CYQF 180641Z 04004KT 2SM -SN OVC008 RMK SN3SC5=

CYQF;2006-03-18 07:00;METAR CYQF 180700Z 02004KT 1 1/2SM -SN VV007 M05/M07 A2986 RMK SN8 SLP163=

CYQF;2006-03-18 08:00;METAR CYQF 180800Z 03004KT 3SM -SN OVC008 M05/M08 A2986 RMK SC8 SLP162=

CYQF;2006-03-18 08:30;SPECI CYQF 180830Z 04003KT 1SM -SN VV008 RMK SN8=

CYQF;2006-03-18 08:40;SPECI CYQF 180840Z 00000KT 3/4SM -SN VV006 RMK SN8=

CYQF;2006-03-18 09:00;METAR CYQF 180900Z 03003KT 3/4SM -SN VV006 M05/M07 A2987 RMK SN8 /S02/ SLP164=

CYQF;2006-03-18 09:35;SPECI CYQF 180935Z 36004KT 2SM -SN VV020 RMK SN8=

CYQF;2006-03-18 10:00;METAR CYQF 181000Z 35003KT 1 1/2SM -SN VV018 M05/M08 A2986 RMK SN8 /S02/ SLP163=

CYQF;2006-03-18 11:00;METAR CYQF 181100Z 34004KT 2SM -SN OVC025 M05/M08 A2986 RMK SC8 SLP163=

CYQF;2006-03-18 12:00;METAR CYQF 181200Z 36004KT 2SM -SN OVC025 M05/M08 A2988 RMK SC8 SLP167=

CYQF;2006-03-18 12:18;SPECI CYQF 181218Z 34003KT 3SM -SN OVC025 RMK SC8=

CYQF;2006-03-18 13:00;METAR CYQF 181300Z 35005KT 5SM -SN OVC025 M06/M08 A2990 RMK SC8 SLP171=

CYQF;2006-03-18 13:46;SPECI CYQF 181346Z 34004KT 4SM BR OVC025 RMK SC8=

CYQF;2006-03-18 14:00;METAR CYQF 181400Z 34003KT 4SM BR OVC025 M06/M09 A2990 RMK SC8 SLP171=

CYQF;2006-03-18 15:00;METAR CYQF 181500Z 02003KT 4SM BR OVC025 M05/M09 A2991 RMK SC8 SLP175=

CYQF;2006-03-18 16:00;METAR CYQF 181600Z 35004KT 3SM -SN BR OVC025 M05/M08 A2992 RMK SC8 SLP180=

CYQF;2006-03-18 17:00;METAR CYQF 181700Z 36005KT 3SM -SN BR OVC025 M05/M08 A2994 RMK SC8 SLP185=

CYQF;2006-03-18 18:00;METAR CYQF 181800Z 35007KT 4SM -SN BR OVC025 M05/M09 A2996 RMK SC8 SLP196=

CYQF;2006-03-18 19:00;METAR CYQF 181900Z 35007KT 4SM -SN BR OVC025 M05/M09 A2997 RMK SC8 SLP201=

CYQF;2006-03-18 20:00;METAR CYQF 182000Z 36010KT 6SM -SN BR OVC025 M05/M10 A3000 RMK SC8 SLP208=

CYQF;2006-03-18 21:00;METAR CYQF 182100Z 01011KT 3SM -SN BR OVC025 M06/M10 A3002 RMK SC8 SLP219=

CYQF;2006-03-18 23:00;METAR CYQF 182300Z 01010KT 10SM -SN OVC025 M07/M11 A3008 RMK SC8 SLP239=

CYQF;2006-03-19 00:00;METAR CYQF 190000Z 36008KT 10SM -SN SCT020 OVC035 M07/M12 A3012 RMK SC3SC5 SLP257=

CYQF;2006-03-19 01:00;METAR CYQF 190100Z 35008KT 10SM -SN SCT020 OVC035 M07/M13 A3015 RMK SC3SC5 SLP264=

CYQF;2006-03-19 03:00;METAR CYQF 190300Z 36006KT 10SM -SN FEW020 OVC040 M08/M12 A3020 RMK SC2SC6 SLP284=

CYQF;2006-03-19 04:00;METAR CYQF 190400Z 36006KT 10SM -SN FEW020 OVC035 M08/M12 A3023 RMK SC2SC6 SLP293=

CYQF;2006-03-19 05:00;METAR CYQF 190500Z 35007KT 6SM -SN FEW020 OVC035 M09/M13 A3025 RMK SC2SC6 SLP300=

CYQF;2006-03-19 06:00;METAR CYQF 190600Z 34006KT 10SM -SN FEW020 BKN040 M09/M13 A3027 RMK SC2SC6 SLP310=

CYQF;2006-03-19 07:00;METAR CYQF 190700Z 32005KT 10SM -SN BKN040 M10/M14 A3027 RMK SC5 SLP312=

CYQF;2006-03-19 08:00;METAR CYQF 190800Z 33005KT 15SM SCT030 BKN075 M11/M15 A3028 RMK SC2AC1 SLP313=

CYQF;2006-03-19 09:00;METAR CYQF 190900Z 32005KT 15SM SCT030 BKN080 M12/M16 A3029 RMK SC2AC2 SLP320=

CYQF;2006-03-19 10:00;METAR CYQF 191000Z 33005KT 15SM SCT030 BKN080 M13/M17 A3029 RMK SC2AC2 SLP321=

CYQF;2006-03-19 11:00;METAR CYQF 191100Z 34006KT 15SM BKN080 M12/M16 A3029 RMK AC4 SLP320=

CYQF;2006-03-19 12:00;METAR CYQF 191200Z 36004KT 15SM BKN080 M12/M16 A3029 RMK AC4 SLP323=

CYQF;2006-03-19 13:00;METAR CYQF 191300Z 32004KT 15SM BKN080 M14/M17 A3029 RMK AC3 SLP324=

CYQF;2006-03-19 14:00;METAR CYQF 191400Z 00000KT 15SM BKN080 M15/M18 A3030 RMK AC4 SLP326=

CYQF;2006-03-19 15:00;METAR CYQF 191500Z 00000KT 15SM SCT080 M15/M18 A3029 RMK AC3 SLP327=

CYQF;2006-03-19 16:00;METAR CYQF 191600Z 00000KT 10SM FEW030 OVC070 M13/M16 A3028 RMK SC2AC5 SLP325=

CYQF;2006-03-19 17:00;METAR CYQF 191700Z 35003KT 15SM FEW030 OVC070 M12/M15 A3027 RMK SC2AC6 SLP321=

CYQF;2006-03-19 18:00;METAR CYQF 191800Z 00000KT 15SM OVC070 M10/M14 A3026 RMK AC7 SLP313=

CYQF;2006-03-19 19:00;METAR CYQF 191900Z 00000KT 15SM OVC080 M10/M14 A3025 RMK AC7 SLP309=

CYQF;2006-03-19 20:00;METAR CYQF 192000Z 00000KT 10SM -SN SCT020 OVC045 M08/M13 A3023 RMK SC4SC4 SLP303=

CYQF;2006-03-19 21:00;METAR CYQF 192100Z 07003KT 15SM SCT020 BKN045 M07/M12 A3020 RMK SC3SC2 SLP293=

CYQF;2006-03-19 22:00;METAR CYQF 192200Z 09003KT 15SM FEW020 BKN030 M07/M11 A3018 RMK SC2SC5 SLP286=

CYQF;2006-03-19 23:00;METAR CYQF 192300Z 09003KT 15SM FEW015 BKN030 M05/M10 A3016 RMK SC2SC4 SLP281=

CYQF;2006-03-20 00:00;METAR CYQF 200000Z 14006KT 15SM FEW015 BKN030 M05/M10 A3016 RMK SC2SC4 SLP276=

CYQF;2006-03-20 01:00;METAR CYQF 200100Z 16006KT 15SM SCT015 OVC030 M07/M10 A3016 RMK SC3SC5 SLP275=

CYQF;2006-03-20 02:00;METAR CYQF 200200Z 14008KT 15SM BKN015 OVC030 M07/M11 A3015 RMK SC5SC3 SLP272=

CYQF;2006-03-20 03:00;METAR CYQF 200300Z 15007KT 15SM BKN006 OVC020 M07/M11 A3014 RMK SC5SC3 SLP273=

CYQF;2006-03-20 03:35;SPECI CYQF 200335Z 15006KT 10SM -SN BKN008 OVC020 RMK SC6SC2=

CYQF;2006-03-20 04:00;METAR CYQF 200400Z 26007KT 10SM -SN BKN008 OVC020 M07/M10 A3013 RMK SC6SC2 SLP271=

CYQF;2006-03-20 05:00;METAR CYQF 200500Z 18004KT 10SM -SN OVC006 M06/M09 A3012 RMK ST8 SLP268=

CYQF;2006-03-20 06:00;METAR CYQF 200600Z 15007KT 10SM -SN OVC006 M07/M09 A3011 RMK ST8 SLP256=

CYQF;2006-03-20 07:00;METAR CYQF 200700Z 14005KT 2SM BR VV006 M07/M09 A3009 RMK FG8 SLP250=

CYQF;2006-03-20 08:00;METAR CYQF 200800Z 14004KT 2SM BR VV006 M06/M09 A3007 RMK FG8 SLP244=

CYQF;2006-03-20 09:00;METAR CYQF 200900Z 13005KT 2SM BR VV006 M06/M08 A3005 RMK FG8 SLP232=

CYQF;2006-03-20 09:19;SPECI CYQF 200919Z 13005KT 3SM BR OVC007 RMK ST8=

CYQF;2006-03-20 10:00;METAR CYQF 201000Z 12005KT 3SM BR SCT007 OVC020 M06/M08 A3003 RMK ST3SC5 SLP226=

CYQF;2006-03-20 11:00;METAR CYQF 201100Z 12004KT 2SM BR BKN005 OVC020 M06/M08 A3002 RMK ST6SC2 SLP222=

CYQF;2006-03-20 12:00;METAR CYQF 201200Z 12004KT 1 1/4SM BR VV004 M05/M08 A3001 RMK FG8 SLP214=

CYQF;2006-03-20 12:16;SPECI CYQF 201216Z 12005KT 1/2SM FZFG VV002 RMK FG8=

CYQF;2006-03-20 13:00;METAR CYQF 201300Z 11003KT 3/4SM BR VV003 M05/M07 A3000 RMK FG8 RIME ON INDICATOR SLP213=

CYQF;2006-03-20 13:28;SPECI CYQF 201328Z 12003KT 1SM -SN BR VV004 RMK FG8=

CYQF;2006-03-20 14:00;METAR CYQF 201400Z 13004KT 1 1/4SM -SN BR VV004 M05/M07 A2999 RMK FG8 SLP210=

CYQF;2006-03-20 15:00;METAR CYQF 201500Z 12007KT 1 1/2SM -SN BR VV005 M05/M07 A2999 RMK SN8 SLP209=

CYQF;2006-03-20 16:00;METAR CYQF 201600Z 14007KT 2 1/2SM -SN BR OVC003 M05/M07 A2998 RMK ST8 SLP208=

CYQF;2006-03-20 17:00;METAR CYQF 201700Z 16010KT 5SM -SN BR OVC007 M04/M07 A2997 RMK ST8 SLP205=

CYQF;2006-03-20 18:00;METAR CYQF 201800Z 15009KT 10SM -SN OVC008 M04/M08 A2998 RMK ST8 SLP204=

CYQF;2006-03-20 19:00;METAR CYQF 201900Z 15010KT 15SM -SN OVC015 M03/M08 A2997 RMK SC8 SLP203=

CYQF;2006-03-20 19:20;SPECI CYQF 201920Z 15010KT 15SM BKN015 RMK SC7=

CYQF;2006-03-20 20:00;METAR CYQF 202000Z 15010KT 15SM OVC015 M03/M08 A2997 RMK SC8 SLP202=

CYQF;2006-03-20 21:00;METAR CYQF 202100Z 14010KT 10SM -SN OVC015 M03/M07 A2995 RMK SC8 SLP195=

CYQF;2006-03-20 22:00;METAR CYQF 202200Z 14010KT 8SM -SN OVC018 M03/M06 A2994 RMK SC8 SLP191=

CYQF;2006-03-20 23:00;METAR CYQF 202300Z 14010KT 6SM -SN OVC018 M04/M06 A2995 RMK SC8 SLP192=

CYQF;2006-03-21 00:00;METAR CYQF 210000Z 14009KT 6SM -SN OVC018 M04/M06 A2994 RMK SC8 SLP189=

CYQF;2006-03-21 01:00;METAR CYQF 210100Z 14008KT 8SM -SN OVC018 M04/M06 A2994 RMK SC8 SLP190=

CYQF;2006-03-21 01:51;SPECI CYQF 210151Z 15007KT 15SM OVC020 RMK SC8=

CYQF;2006-03-21 02:00;METAR CYQF 210200Z 15007KT 15SM OVC020 M04/M07 A2995 RMK SC8 SLP191=

CYQF;2006-03-21 03:00;METAR CYQF 210300Z 15007KT 15SM OVC027 M04/M06 A2995 RMK SC8 SLP191=

CYQF;2006-03-21 03:34;SPECI CYQF 210334Z 14006KT 15SM -SN OVC028 RMK SC8=

CYQF;2006-03-21 04:00;METAR CYQF 210400Z 13007KT 12SM -SN SCT010 OVC028 M04/M06 A2995 RMK SF3SC5 SLP191=

CYQF;2006-03-21 05:00;METAR CYQF 210500Z 13008KT 12SM -SN SCT011 OVC028 M04/M05 A2993 RMK SF3SC5 SLP187=

CYQF;2006-03-21 05:24;SPECI CYQF 210524Z 14008KT 12SM -SN BKN011 OVC028 RMK SF5SC3=

CYQF;2006-03-21 06:00;METAR CYQF 210600Z 13008KT 12SM -SN BKN011 OVC028 M04/M05 A2992 RMK SF5SC3 SLP180=

CYQF;2006-03-21 06:43;SPECI CYQF 210643Z 13008KT 15SM -SN SCT012 OVC030 RMK SF3SC5=

CYQF;2006-03-21 07:00;METAR CYQF 210700Z 14007KT 15SM -SN FEW012 OVC030 M04/M05 A2990 RMK SF2SC6 SLP175=

CYQF;2006-03-21 08:00;METAR CYQF 210800Z 13008KT 15SM -SN SCT010 OVC040 M04/M05 A2989 RMK SF4SC4 SLP172=

CYQF;2006-03-21 08:40;SPECI CYQF 210840Z 14008KT 10SM OVC009 OVC040 RMK SF6SC2 BR=

CYQF;2006-03-21 09:00;METAR CYQF 210900Z 14010KT 10SM OVC008 M04/M05 A2989 RMK SF8 BR SLP170=

CYQF;2006-03-21 10:00;METAR CYQF 211000Z 14010G15KT 6SM -SN BR OVC006 M05/M06 A2988 RMK SF8 SLP168=

CYQF;2006-03-21 11:00;METAR CYQF 211100Z 13010G15KT 6SM -SN BR OVC006 M05/M06 A2987 RMK SF8 SLP164=

CYQF;2006-03-21 12:00;METAR CYQF 211200Z 14010KT 6SM -SN BR OVC007 M04/M05 A2987 RMK SF8 SLP165=

CYQF;2006-03-21 13:00;METAR CYQF 211300Z 13010KT 6SM -SN BR OVC007 M04/M05 A2988 RMK SF8 SLP167=

CYQF;2006-03-21 14:00;METAR CYQF 211400Z 14008KT 3SM -SN BR OVC005 M04/M05 A2988 RMK SF8 SLP167=

CYQF;2006-03-21 14:41;SPECI CYQF 211441Z 14008KT 6SM BR BKN008 OVC035 RMK SF6SC2=

CYQF;2006-03-21 15:00;METAR CYQF 211500Z 14008KT 6SM BR BKN008 OVC035 M03/M05 A2988 RMK SF6SC2 SLP166=

CYQF;2006-03-21 15:50;SPECI CYQF 211550Z 14010KT 5SM BR BKN007 OVC030 RMK SF6SC2=

CYQF;2006-03-21 16:00;METAR CYQF 211600Z 13009KT 4SM BR BKN007 OVC030 M03/M05 A2988 RMK SF6SC2 SLP167=

CYQF;2006-03-21 17:00;METAR CYQF 211700Z 14012KT 2SM -SN BKN007 OVC030 M03/M04 A2989 RMK SF6SC2 SLP170=

CYQF;2006-03-21 19:00;METAR CYQF 211900Z 13014KT 4SM -SN BKN007 OVC030 M03/M04 A2990 RMK SF6SC2 SLP171=

CYQF;2006-03-21 20:00;METAR CYQF 212000Z 14013KT 8SM -SN BKN007 OVC030 M02/M05 A2990 RMK SF6SC2 SLP171=

CYQF;2006-03-21 21:00;METAR CYQF 212100Z 13008KT 8SM -SN BKN008 OVC030 M02/M04 A2990 RMK SF6SC2 SLP171=

CYQF;2006-03-21 22:00;METAR CYQF 212200Z 13014KT 6SM -SN BKN008 OVC030 M02/M04 A2991 RMK SF6SC2 SLP174=

CYQF;2006-03-21 23:00;METAR CYQF 212300Z 13012KT 4SM -SN OVC009 M02/M04 A2992 RMK ST8 SLP177=

CYQF;2006-03-21 23:45;SPECI CYQF 212345Z 14010KT 10SM BKN009 OVC030 RMK SF6SC2=

CYQF;2006-03-22 00:00;METAR CYQF 220000Z 14010KT 10SM BKN010 OVC030 M02/M04 A2992 RMK SF6SC2 SLP177=

CYQF;2006-03-22 01:00;METAR CYQF 220100Z 14010G15KT 10SM BKN010 OVC030 M02/M04 A2992 RMK SF6SC2 SLP178=

CYQF;2006-03-22 02:00;METAR CYQF 220200Z 14010G15KT 10SM BKN010 OVC030 M02/M04 A2993 RMK SF6SC2 SLP182=

CYQF;2006-03-22 03:00;METAR CYQF 220300Z 14010G15KT 15SM OVC009 M02/M03 A2995 RMK SF8 SLP189=

CYQF;2006-03-22 04:00;METAR CYQF 220400Z 15010KT 15SM OVC010 M02/M03 A2996 RMK SF8 SLP191=

CYQF;2006-03-22 05:00;METAR CYQF 220500Z 15010KT 15SM OVC010 M01/M03 A2996 RMK SF8 SLP192=

CYQF;2006-03-22 06:00;METAR CYQF 220600Z 16010G15KT 15SM SCT010 OVC024 M01/M03 A2997 RMK SF3SC5 SLP195=

CYQF;2006-03-22 07:00;METAR CYQF 220700Z 15010G15KT 15SM FEW010 OVC025 M01/M04 A2999 RMK SF2SC6 SLP200=

CYQF;2006-03-22 08:00;METAR CYQF 220800Z 16012KT 15SM FEW010 OVC025 M01/M04 A3000 RMK SF2SC6 SLP203=

CYQF;2006-03-22 09:00;METAR CYQF 220900Z 15010KT 15SM OVC024 M01/M04 A3001 RMK SC8 SLP206=

CYQF;2006-03-22 10:00;METAR CYQF 221000Z 15010KT 15SM OVC020 M01/M04 A3002 RMK SC8 SLP208=

CYQF;2006-03-22 11:00;METAR CYQF 221100Z 16010KT 15SM BKN010 OVC020 M02/M04 A3003 RMK SF6SC2 SLP213=

CYQF;2006-03-22 11:49;SPECI CYQF 221149Z 16010G15KT 5SM -SN DRSN OVC007 RMK SF8=

CYQF;2006-03-22 12:00;METAR CYQF 221200Z 16010G15KT 3SM -SN DRSN OVC007 M03/M04 A3005 RMK SF8 SLP224=

CYQF;2006-03-22 12:46;SPECI CYQF 221246Z 17012KT 2SM -SN BR OVC008 RMK SF8 DRSN=

CYQF;2006-03-22 13:00;METAR CYQF 221300Z 17010KT 2SM -SN BR OVC008 M04/M05 A3007 RMK SN2SF6=

CYQF;2006-03-22 14:00;METAR CYQF 221400Z 15010KT 2 1/2SM -SN BR OVC007 M05/M06 A3009 RMK FG2SF6 DRSN SLP235=

CYQF;2006-03-22 14:43;SPECI CYQF 221443Z 14010KT 2SM BR OVC004 RMK FG2ST6=

CYQF;2006-03-22 15:00;METAR CYQF 221500Z 15012KT 2SM BR OVC004 M06/M07 A3010 RMK FG2ST6 SLP242=

CYQF;2006-03-22 16:00;METAR CYQF 221600Z 18010KT 2SM BR OVC005 M05/M06 A3011 RMK ST8 SLP246=

CYQF;2006-03-22 17:00;METAR CYQF 221700Z 18010KT 3SM BR OVC005 M05/M06 A3012 RMK ST8 SLP250=

CYQF;2006-03-22 18:00;METAR CYQF 221800Z 15009KT 3SM BR OVC005 M05/M07 A3014 RMK ST8 SLP254=

CYQF;2006-03-22 19:00;METAR CYQF 221900Z 15005KT 8SM SCT006 BKN250 M03/M06 A3014 RMK SF4CI0 SLP256=

CYQF;2006-03-22 20:00;METAR CYQF 222000Z 18006KT 8SM FEW006 BKN250 M02/M05 A3015 RMK SF2CI1 SLP257=

CYQF;2006-03-22 21:00;METAR CYQF 222100Z 19005KT 10SM FEW010 BKN250 M00/M04 A3016 RMK SF1CI1 SLP257=

CYQF;2006-03-22 22:00;METAR CYQF 222200Z 13007KT 15SM FEW010 SCT250 M01/M05 A3017 RMK SF1CI1 SLP261=

CYQF;2006-03-22 23:00;METAR CYQF 222300Z 15007KT 15SM SCT007 BKN250 M02/M05 A3018 RMK SF3CI0 SLP264=

CYQF;2006-03-23 00:00;METAR CYQF 230000Z 15008KT 15SM SCT007 BKN250 M01/M05 A3020 RMK SF3CI0 SLP273=

CYQF;2006-03-23 00:28;SPECI CYQF 230028Z 14009KT 15SM BKN007 RMK SF6=

CYQF;2006-03-23 00:52;SPECI CYQF 230052Z 14005KT 15SM SCT007 BKN250 RMK SF2CI2=

CYQF;2006-03-23 01:00;METAR CYQF 230100Z 14005KT 15SM SCT007 BKN250 M02/M04 A3020 RMK SF2CI2 SLP273=

CYQF;2006-03-23 02:00;METAR CYQF 230200Z 00000KT 15SM FEW007 BKN250 M03/M05 A3020 RMK SF1CI2 SLP274=

CYQF;2006-03-23 03:00;METAR CYQF 230300Z 00000KT 15SM SCT250 M03/M05 A3022 RMK CI2 SLP284=

CYQF;2006-03-23 04:00;METAR CYQF 230400Z 00000KT 15SM OVC008 M03/M04 A3022 RMK ST8 SLP286=

CYQF;2006-03-23 05:00;METAR CYQF 230500Z 00000KT 15SM OVC006 M02/M04 A3022 RMK ST8 SLP286=

CYQF;2006-03-23 06:00;METAR CYQF 230600Z 14005KT 10SM OVC004 M02/M03 A3023 RMK ST8 BR SLP287=

CYQF;2006-03-23 07:00;METAR CYQF 230700Z 00000KT 6SM BR OVC002 M02/M03 A3023 RMK ST8 SLP287=

CYQF;2006-03-23 07:11;SPECI CYQF 230711Z 14003KT 2SM BR OVC002 RMK ST8=

CYQF;2006-03-23 08:00;METAR CYQF 230800Z 19003KT 1/2SM FZFG VV001 M01/M02 A3023 RMK FG8 SLP287=

CYQF;2006-03-23 09:00;METAR CYQF 230900Z 18003KT 1/2SM FZFG VV001 M02/M03 A3024 RMK FG8 SLP284=

CYQF;2006-03-23 10:00;METAR CYQF 231000Z 17003KT 1/2SM FZFG VV001 M02/M03 A3023 RMK FG8 SLP283=

CYQF;2006-03-23 10:53;SPECI CYQF 231053Z 14003KT 3/8SM FZFG VV001 RMK FG8=

CYQF;2006-03-23 11:00;METAR CYQF 231100Z 18002KT 3/8SM FZFG VV001 M02/M03 A3024 RMK FG8 RIME ON INDCTR SLP284=

CYQF;2006-03-23 11:24;SPECI CYQF 231124Z 20003KT 1/4SM FZFG VV000 RMK FG8=

CYQF;2006-03-23 12:00;METAR CYQF 231200Z 21002KT 1/4SM FZFG VV001 M03/M03 A3025 RMK FG8 SLP292=

CYQF;2006-03-23 13:00;METAR CYQF 231300Z 00000KT 1/4SM FZFG VV001 M03/M04 A3026 RMK FG8 RIME ON INDCTR SLP295=

CYQF;2006-03-23 14:00;METAR CYQF 231400Z 00000KT 1/8SM FZFG VV001 M03/M04 A3026 RMK FG8 SLP294=

CYQF;2006-03-23 15:00;METAR CYQF 231500Z 23003KT 1/4SM FZFG VV003 M03/M04 A3026 RMK FG8 SLP296=

CYQF;2006-03-23 16:00;METAR CYQF 231600Z 00000KT 1/4SM FZFG VV003 M03/M04 A3026 RMK FG8 RIME ON INDCTR SLP296=

CYQF;2006-03-23 17:00;METAR CYQF 231700Z 00000KT 1/4SM FZFG VV003 M03/M04 A3026 RMK FG8 SLP298=

CYQF;2006-03-23 17:30;SPECI CYQF 231730Z 00000KT 1/2SM FZFG VV004 RMK FG8=

CYQF;2006-03-23 18:00;METAR CYQF 231800Z 11002KT 1SM BR OVC004 M02/M03 A3026 RMK FG6ST2 SLP294=

CYQF;2006-03-23 19:00;METAR CYQF 231900Z 08003KT 1 1/2SM BR OVC004 M03/M03 A3025 RMK ST8 SLP293=

CYQF;2006-03-23 20:00;METAR CYQF 232000Z 00000KT 3SM BR OVC005 M03/M03 A3025 RMK ST8 SLP293=

CYQF;2006-03-23 21:00;METAR CYQF 232100Z 12003KT 3SM BR OVC005 M02/M04 A3024 RMK ST8 SLP287=

CYQF;2006-03-23 22:00;METAR CYQF 232200Z 08005KT 4SM BR OVC005 M02/M03 A3022 RMK ST8 SLP282=

CYQF;2006-03-23 23:00;METAR CYQF 232300Z 10005KT 4SM BR OVC005 M02/M03 A3022 RMK ST8 SLP281=

CYQF;2006-03-24 00:00;METAR CYQF 240000Z 12002KT 3SM BR OVC003 M02/M03 A3022 RMK ST8 SLP282=

CYQF;2006-03-24 00:29;SPECI CYQF 240029Z 15005KT 2SM BR OVC002 RMK ST8=

CYQF;2006-03-24 01:00;METAR CYQF 240100Z 15005KT 2SM BR OVC002 M02/M03 A3022 RMK ST8 SLP281=

CYQF;2006-03-24 01:40;SPECI CYQF 240140Z 16005KT 1SM BR OVC001 RMK ST8=

CYQF;2006-03-24 02:00;METAR CYQF 240200Z 15005KT 1/2SM FZFG VV002 M03/M03 A3021 RMK FG8 SLP277=

CYQF;2006-03-24 03:00;METAR CYQF 240300Z 16005KT 1/4SM FZFG VV001 M03/M04 A3021 RMK FG8 SLP279=

CYQF;2006-03-24 04:00;METAR CYQF 240400Z 15005KT 1/4SM FZFG VV001 M03/M03 A3019 RMK FG8 SLP273=

CYQF;2006-03-24 05:00;METAR CYQF 240500Z 00000KT 1/8SM FZFG VV001 M02/M03 A3017 RMK FG8 SLP267=

CYQF;2006-03-24 06:00;METAR CYQF 240600Z 00000KT 1/8SM FZFG VV001 M02/M03 A3015 RMK FG8 SLP256=

CYQF;2006-03-24 07:00;METAR CYQF 240700Z 00000KT 1/8SM FZFG VV001 M02/M02 A3012 RMK FG8 SLP248=

CYQF;2006-03-24 08:00;METAR CYQF 240800Z 00000KT 1/8SM FZFG VV001 M02/M02 A3010 RMK FG8 SLP242=

CYQF;2006-03-24 08:29;SPECI CYQF 240829Z 09003KT 1/2SM FZFG VV002 RMK FG8=

CYQF;2006-03-24 09:00;METAR CYQF 240900Z 13004KT 1/8SM FZFG VV001 M02/M03 A3007 RMK FG8 SLP231=

CYQF;2006-03-24 10:00;METAR CYQF 241000Z 09003KT 1/8SM FZFG VV001 M03/M04 A3006 RMK FG8 SLP226=

CYQF;2006-03-24 11:00;METAR CYQF 241100Z 11002KT 1/8SM FZFG VV001 M03/M04 A3004 RMK FG8 SLP220=

CYQF;2006-03-24 12:00;METAR CYQF 241200Z 12004KT 1/8SM FZFG VV001 M03/M04 A3002 RMK FG8 RIME ON INDCR SLP211=

CYQF;2006-03-24 13:00;METAR CYQF 241300Z 13006KT 1/4SM FZFG VV002 M03/M05 A3001 RMK FG8 RIME ON INDCR SLP208=

CYQF;2006-03-24 14:00;METAR CYQF 241400Z 14005KT 1/2SM FZFG VV002 M04/M04 A2999 RMK FG8 SLP204=

CYQF;2006-03-24 14:21;SPECI CYQF 241421Z 16007KT 3/4SM BR VV002 RMK FG8=

CYQF;2006-03-24 14:40;SPECI CYQF 241440Z 15009KT 1/2SM FZFG VV002 RMK FG8=

CYQF;2006-03-24 15:00;METAR CYQF 241500Z 16005KT 1/2SM FZFG VV002 M03/M04 A2997 RMK FG8 SLP197=

CYQF;2006-03-24 15:50;SPECI CYQF 241550Z 15006KT 3/4SM BR VV004 RMK FG8=

CYQF;2006-03-24 16:00;METAR CYQF 241600Z 16005KT 1SM BR OVC003 M03/M04 A2996 RMK ST8 SLP193=

CYQF;2006-03-24 17:00;METAR CYQF 241700Z 16006KT 1SM BR OVC003 M02/M03 A2995 RMK ST8 SLP189=

CYQF;2006-03-24 18:00;METAR CYQF 241800Z 14007KT 1SM BR OVC003 M02/M02 A2993 RMK ST8 SLP178=

CYQF;2006-03-24 19:00;METAR CYQF 241900Z 14009KT 1 1/2SM BR OVC003 M01/M02 A2991 RMK ST8 SLP173=

CYQF;2006-03-24 19:40;SPECI CYQF 241940Z 14010KT 3SM BR OVC005 RMK ST8=

CYQF;2006-03-24 20:00;METAR CYQF 242000Z 15007KT 3SM BR OVC005 M00/M01 A2988 RMK ST8 SLP165=

CYQF;2006-03-24 20:35;SPECI CYQF 242035Z 15010KT 6SM BR FEW008 BKN030 OVC100 RMK SF2SC2AC2=

CYQF;2006-03-24 21:00;METAR CYQF 242100Z 15009KT 10SM FEW010 BKN030 OVC100 02/M01 A2986 RMK SF2SC2AC2 SLP153=

CYQF;2006-03-24 22:00;METAR CYQF 242200Z 14010KT 10SM BKN010 OVC100 02/M01 A2985 RMK SC6AC2 SLP148=

CYQF;2006-03-24 23:00;METAR CYQF 242300Z 15010KT 10SM OVC010 02/M01 A2984 RMK SC8 SLP146=

CYQF;2006-03-25 00:00;METAR CYQF 250000Z 13007KT 10SM OVC011 02/M01 A2982 RMK SC8 SLP139=

CYQF;2006-03-25 01:27;SPECI CYQF 250127Z 15007KT 10SM SCT012 OVC100 RMK SC4AC3=

CYQF;2006-03-25 02:00;METAR CYQF 250200Z 15009KT 12SM FEW012 BKN100 02/M00 A2979 RMK SC1AC6 SLP129=

CYQF;2006-03-25 03:00;METAR CYQF 250300Z 18004KT 12SM FEW012 FEW060 BKN100 02/M00 A2976 RMK SC1SC1AC3 SLP120=

CYQF;2006-03-25 04:00;METAR CYQF 250400Z 16007KT 12SM FEW060 SCT100 01/M00 A2975 RMK SC1AC2 SLP114=

CYQF;2006-03-25 05:00;METAR CYQF 250500Z 17008KT 15SM FEW100 01/M01 A2974 RMK AC2 SLP111=

CYQF;2006-03-25 06:00;METAR CYQF 250600Z 00000KT 10SM FEW100 00/M01 A2972 RMK AC2 SLP105=

CYQF;2006-03-25 07:00;METAR CYQF 250700Z 17003KT 5SM BR SCT003 BKN100 M00/M01 A2971 RMK SF4AC1 SLP102=

CYQF;2006-03-25 07:10;SPECI CYQF 250710Z 14006KT 1SM BR VV003 RMK FG8=

CYQF;2006-03-25 07:19;SPECI CYQF 250719Z 15007KT 1/4SM FZFG VV001 RMK FG8=

CYQF;2006-03-25 08:00;METAR CYQF 250800Z 16004KT 1/8SM FZFG SKC M01/M02 A2970 RMK FG6 SLP098=

CYQF;2006-03-25 08:08;SPECI CYQF 250808Z 17004KT 1SM BR BKN003 RMK FG5SF2=

CYQF;2006-03-25 08:41;SPECI CYQF 250841Z 00000KT 1/8SM FZFG SKC RMK FG6=

CYQF;2006-03-25 09:31;SPECI CYQF 250931Z 15002KT 3SM BR SCT090 BKN250 RMK FG2AC1CI2=

CYQF;2006-03-25 10:00;METAR CYQF 251000Z 00000KT 10SM FEW090 BKN250 M04/M05 A2969 RMK AC2CI4 BR SLP093=

CYQF;2006-03-25 11:00;METAR CYQF 251100Z 00000KT 15SM MIFG FEW090 SCT250 M04/M05 A2969 RMK AC2CI2 SLP094=

CYQF;2006-03-25 12:00;METAR CYQF 251200Z 00000KT 15SM MIFG FEW090 FEW250 M06/M08 A2971 RMK AC2CI1 FROIN SLP103=

CYQF;2006-03-25 12:38;SPECI CYQF 251238Z 25002KT 1/4SM FZFG SCT090 BKN250 RMK FG2AC2CI2=

CYQF;2006-03-25 13:00;METAR CYQF 251300Z 00000KT 1 1/2SM BR BKN090 BKN250 M06/M07 A2970 RMK FG2AC3CI2 SLP102=

CYQF;2006-03-25 13:24;SPECI CYQF 251324Z 12002KT 3/4SM BR BKN090 OVC250 RMK FG2AC4CI2=

CYQF;2006-03-25 14:00;METAR CYQF 251400Z 00000KT 1/4SM FZFG BKN090 OVC250 M06/M07 A2970 RMK FG2AC3CI2 SLP102=

CYQF;2006-03-25 14:41;SPECI CYQF 251441Z 36002KT 3/4SM BR OVC090 RMK FG5AC3=

CYQF;2006-03-25 15:00;METAR CYQF 251500Z 00000KT 1/2SM FZFG OVC090 M05/M06 A2970 RMK FG6AC2 SLP099=

CYQF;2006-03-25 15:19;SPECI CYQF 251519Z 00000KT 3SM BR FEW005 OVC090 RMK SF2AC4 VSBL N LWR=

CYQF;2006-03-25 16:00;METAR CYQF 251600Z 12006KT 6SM BR SCT005 OVC090 M04/M05 A2968 RMK SF2AC5 SLP093=

CYQF;2006-03-25 17:00;METAR CYQF 251700Z 00000KT 10SM FEW008 OVC090 M02/M03 A2967 RMK SF2AC6 SLP089=

CYQF;2006-03-25 18:00;METAR CYQF 251800Z 18002KT 15SM FEW008 BKN040 OVC090 M02/M04 A2966 RMK SF2SC3AC3 SLP081=

CYQF;2006-03-25 18:15;SPECI CYQF 251815Z 22004KT 10SM -SHRA FEW010 BKN040 OVC090 RMK SF2SC3AC2=

CYQF;2006-03-25 19:00;METAR CYQF 251900Z 25004KT 6SM -SHRA BR SCT010 OVC040 03/00 A2963 RMK SF3SC5 VSBL LWR SW-NW SLP072=

CYQF;2006-03-25 19:27;SPECI CYQF 251927Z 00000KT 15SM SCT010 BKN040 OVC090 RMK SF3SC4AC1=

CYQF;2006-03-25 20:00;METAR CYQF 252000Z 00000KT 12SM -SHRA FEW010 BKN040 OVC090 03/01 A2961 RMK SF2SC5AC1 SLP066=

CYQF;2006-03-25 21:00;METAR CYQF 252100Z 04005KT 15SM FEW015 BKN040 OVC090 02/01 A2957 RMK SF2SC5AC2 SLP051=

CYQF;2006-03-25 22:00;METAR CYQF 252200Z 08005KT 15SM FEW040 SCT090 BKN270 02/M01 A2955 RMK SC2AC1CI1 SLP045=

CYQF;2006-03-25 23:00;METAR CYQF 252300Z 08006KT 15SM FEW040 BKN090 BKN270 02/M01 A2956 RMK SC2AC2CI2 SLP048=

CYQF;2006-03-26 00:00;METAR CYQF 260000Z 06005KT 15SM FEW040 BKN090 OVC270 02/M01 A2956 RMK SC2AC5CI1 SLP052=

CYQF;2006-03-26 01:00;METAR CYQF 260100Z 06007KT 12SM FEW040 BKN080 OVC250 02/M02 A2953 RMK SC1AC6CI1 SLP042=

CYQF;2006-03-26 02:00;METAR CYQF 260200Z 05004KT 12SM BKN090 BKN250 01/M03 A2954 RMK AC6CI1 SLP047=

CYQF;2006-03-26 03:00;METAR CYQF 260300Z 36003KT 12SM BKN100 OVC250 00/M03 A2955 RMK AC7CI1 SLP048=

CYQF;2006-03-26 04:00;METAR CYQF 260400Z 01005KT 8SM BKN080 OVC250 M00/M02 A2955 RMK AC7CI1 BR SLP047=

CYQF;2006-03-26 04:40;SPECI CYQF 260440Z 35004KT 3SM BR SCT007 OVC080 RMK SF4AC4=

CYQF;2006-03-26 05:00;METAR CYQF 260500Z 33006KT 3SM BR BKN004 OVC080 M01/M02 A2954 RMK SF6AC2 SLP046=

CYQF;2006-03-26 06:00;METAR CYQF 260600Z 36005KT 2SM BR OVC002 M01/M02 A2954 RMK SF8 SLP043=

CYQF;2006-03-26 06:41;SPECI CYQF 260641Z 35005KT 1SM BR OVC004 RMK FG6SF2=

CYQF;2006-03-26 07:00;METAR CYQF 260700Z 35004KT 1SM BR OVC004 M01/M02 A2956 RMK FG6SF2 SLP048=

CYQF;2006-03-26 08:00;METAR CYQF 260800Z 35007KT 1SM BR VV003 M01/M02 A2956 RMK FG8 SLP049=

CYQF;2006-03-26 08:45;SPECI CYQF 260845Z 33005KT 1 1/2SM BR VV003 RMK FG8=

CYQF;2006-03-26 09:00;METAR CYQF 260900Z 34004KT 1 1/2SM BR VV003 M01/M02 A2957 RMK FG8 SLP049=

CYQF;2006-03-26 09:52;SPECI CYQF 260952Z 33008KT 2SM BR BKN005 OVC020 RMK FG2SF3SC2=

CYQF;2006-03-26 10:00;METAR CYQF 261000Z 33008KT 2SM BR BKN005 OVC020 M01/M02 A2957 RMK FG2SF3SC2 SLP049=

CYQF;2006-03-26 11:00;METAR CYQF 261100Z 34005KT 2SM BR OVC005 M01/M02 A2957 RMK FG2SF6 SLP049=

CYQF;2006-03-26 12:00;METAR CYQF 261200Z 32005KT 2SM BR OVC005 00/M01 A2961 RMK FG2SF6 SLP061=

CYQF;2006-03-26 12:50;SPECI CYQF 261250Z 32009KT 3SM BR OVC006 RMK FG2SF6=

CYQF;2006-03-26 13:00;METAR CYQF 261300Z 31008KT 3SM BR OVC006 M00/M01 A2963 RMK FG2SF6 SLP068=

CYQF;2006-03-26 13:32;SPECI CYQF 261332Z 32007KT 2SM BR OVC006 RMK FG2SF6=

CYQF;2006-03-26 14:00;METAR CYQF 261400Z 32008KT 2SM BR OVC006 01/M01 A2965 RMK FG2SF6 SLP074=

CYQF;2006-03-26 14:54;SPECI CYQF 261454Z 33005KT 4SM BR OVC012 RMK SC8=

CYQF;2006-03-26 15:00;METAR CYQF 261500Z 33007KT 4SM BR OVC012 01/M02 A2967 RMK SC8 SLP084=

CYQF;2006-03-26 16:00;METAR CYQF 261600Z 30008KT 6SM BR OVC015 01/M02 A2968 RMK SC7 SLP088=

CYQF;2006-03-26 17:00;METAR CYQF 261700Z 31010KT 10SM BKN020 OVC080 03/M02 A2970 RMK SC5AC2 SLP093=

CYQF;2006-03-26 18:00;METAR CYQF 261800Z 31010G15KT 15SM FEW020 BKN025 OVC080 03/M03 A2971 RMK CU1SC4AC2 SLP098=

CYQF;2006-03-26 19:00;METAR CYQF 261900Z 32008KT 15SM FEW025 BKN100 BKN250 04/M03 A2973 RMK CU2AC3CI1 SLP104=

CYQF;2006-03-26 20:00;METAR CYQF 262000Z 30007KT 15SM FEW030 SCT100 BKN250 05/M03 A2976 RMK CU2AC2CI1 SLP111=

CYQF;2006-03-26 21:00;METAR CYQF 262100Z 33008KT 15SM FEW030 FEW100 BKN250 06/M03 A2976 RMK CU1AC2CI1 SLP111=

CYQF;2006-03-26 22:00;METAR CYQF 262200Z 01005KT 15SM FEW035 SCT250 06/M04 A2977 RMK CU1CI1 SLP115=

CYQF;2006-03-26 23:00;METAR CYQF 262300Z 34003KT 15SM FEW040 SCT250 05/M04 A2979 RMK CU1CI1 TCU/VIRGA ASOCTD SLP121=

CYQF;2006-03-27 00:00;METAR CYQF 270000Z 00000KT 15SM FEW040TCU FEW080 SCT230 06/M03 A2981 RMK TCU2AC1CI1 SHWRS W SLP128=

CYQF;2006-03-27 01:00;METAR CYQF 270100Z 00000KT 15SM FEW040 SCT080 BKN250 05/M07 A2982 RMK CU2AC2CI0 TCU/ VIRGA ASOCTD SLP130=

CYQF;2006-03-27 02:00;METAR CYQF 270200Z 00000KT 15SM SCT050 SCT090 04/M06 A2983 RMK CU3AC1 VIRGA SLP132=

CYQF;2006-03-27 03:00;METAR CYQF 270300Z 00000KT 15SM FEW050 FEW090 01/M05 A2985 RMK CU2AC1 VIRGA W SLP147=

CYQF;2006-03-27 04:00;METAR CYQF 270400Z 17003KT 15SM FEW050 M01/M06 A2987 RMK SC2 SLP153=

CYQF;2006-03-27 05:00;METAR CYQF 270500Z 00000KT 15SM FEW060 M02/M07 A2988 RMK SC1 SLP156=

CYQF;2006-03-27 06:00;METAR CYQF 270600Z 23004KT 15SM SKC M03/M09 A2990 RMK SLP164=

CYQF;2006-03-27 07:00;METAR CYQF 270700Z 23006KT 15SM SKC M03/M10 A2991 RMK SLP169=

CYQF;2006-03-27 08:00;METAR CYQF 270800Z 22007KT 15SM SKC M05/M11 A2992 RMK SLP171=

CYQF;2006-03-27 09:00;METAR CYQF 270900Z 22007KT 15SM SKC M05/M11 A2993 RMK SLP174=

CYQF;2006-03-27 10:00;METAR CYQF 271000Z 24008KT 15SM SKC M05/M11 A2993 RMK SLP176=

CYQF;2006-03-27 11:00;METAR CYQF 271100Z 00000KT 15SM SKC M05/M11 A2993 RMK SLP176=

CYQF;2006-03-27 12:00;METAR CYQF 271200Z 00000KT 15SM SKC M07/M11 A2993 RMK SLP177=

CYQF;2006-03-27 13:00;METAR CYQF 271300Z 22004KT 15SM FEW250 M07/M12 A2993 RMK CI1 SLP177=

CYQF;2006-03-27 14:00;METAR CYQF 271400Z 21004KT 15SM FEW250 M07/M12 A2993 RMK CI1 SLP177=

CYQF;2006-03-27 15:00;METAR CYQF 271500Z 21004KT 15SM FEW100 BKN250 M05/M11 A2994 RMK AC2CI1 SLP182=

CYQF;2006-03-27 16:00;METAR CYQF 271600Z 21003KT 15SM FEW100 BKN250 M01/M10 A2993 RMK AC2CI2 ACC TPS DIST N SLP179=

CYQF;2006-03-27 17:00;METAR CYQF 271700Z 17003KT 15SM FEW100 BKN250 01/M09 A2992 RMK AC2CI2 SLP176=

CYQF;2006-03-27 18:00;METAR CYQF 271800Z 18003KT 15SM FEW040 FEW100 BKN250 03/M07 A2991 RMK SC1AC2CI2 SLP168=

CYQF;2006-03-27 19:00;METAR CYQF 271900Z 21004KT 15SM FEW040 SCT100 BKN250 05/M08 A2990 RMK SC1AC2CI2 SLP165=

CYQF;2006-03-27 20:00;METAR CYQF 272000Z 19003KT 15SM FEW040 SCT100 BKN250 05/M06 A2989 RMK SC1AC2CI2 SLP161=

CYQF;2006-03-27 21:00;METAR CYQF 272100Z 18004KT 15SM FEW040 SCT100 BKN250 05/M06 A2987 RMK SC1AC2CI2 SLP156=

CYQF;2006-03-27 22:00;METAR CYQF 272200Z 18004KT 15SM FEW040 SCT100 BKN250 05/M07 A2985 RMK SC1AC3CI2 SLP150=

CYQF;2006-03-27 23:00;METAR CYQF 272300Z 18003KT 15SM FEW040 SCT100 BKN250 05/M05 A2984 RMK SC1AC2CI2 SLP145=

CYQF;2006-03-28 00:00;METAR CYQF 280000Z 16004KT 15SM FEW040 SCT100 BKN250 05/M07 A2982 RMK SC1AC3CI2 SLP140=

CYQF;2006-03-28 01:00;METAR CYQF 280100Z 17005KT 15SM FEW040 BKN100 BKN250 04/M07 A2980 RMK SC1AC4CI1 SLP134=

CYQF;2006-03-28 02:00;METAR CYQF 280200Z 18006KT 15SM FEW050 BKN100 BKN250 03/M06 A2979 RMK SC1AC5CI1 SLP131=

CYQF;2006-03-28 03:00;METAR CYQF 280300Z 18005KT 15SM FEW050 SCT100 02/M05 A2980 RMK SC1AC2 SLP133=

CYQF;2006-03-28 04:00;METAR CYQF 280400Z 00000KT 15SM FEW100 M00/M06 A2979 RMK AC2 SLP132=

CYQF;2006-03-28 05:00;METAR CYQF 280500Z 00000KT 15SM FEW100 M02/M06 A2979 RMK AC1 SLP131=

CYQF;2006-03-28 06:00;METAR CYQF 280600Z 19003KT 15SM FEW100 M02/M07 A2979 RMK AC1 SLP126=

CYQF;2006-03-28 07:00;METAR CYQF 280700Z 18003KT 15SM FEW250 M03/M07 A2978 RMK CI1 SLP123=

CYQF;2006-03-28 08:00;METAR CYQF 280800Z 18003KT 15SM FEW250 M04/M07 A2977 RMK CI1 SLP121=

CYQF;2006-03-28 09:00;METAR CYQF 280900Z 20003KT 15SM SCT250 M05/M07 A2977 RMK CI2 SLP120=

CYQF;2006-03-28 10:00;METAR CYQF 281000Z 20003KT 15SM FEW120 BKN250 M05/M08 A2977 RMK AC2CI2 SLP119=

CYQF;2006-03-28 11:00;METAR CYQF 281100Z 21004KT 15SM FEW120 OVC250 M06/M08 A2977 RMK AC2CI2 SLP119=

CYQF;2006-03-28 12:00;METAR CYQF 281200Z 00000KT 15SM SCT120 OVC250 M04/M08 A2977 RMK AC3CI2 SLP121=

CYQF;2006-03-28 13:00;METAR CYQF 281300Z 00000KT 15SM FEW120 BKN250 M04/M09 A2978 RMK AC2CI2 SLP122=

CYQF;2006-03-28 14:00;METAR CYQF 281400Z 00000KT 15SM FEW120 BKN250 M06/M09 A2979 RMK AC2CI2 SLP125=

CYQF;2006-03-28 15:00;METAR CYQF 281500Z 00000KT 15SM FEW120 BKN250 M04/M08 A2981 RMK AC2CI2 SLP135=

CYQF;2006-03-28 16:00;METAR CYQF 281600Z 00000KT 15SM SCT120 BKN250 M01/M07 A2981 RMK AC3CI2 SLP135=

CYQF;2006-03-28 17:00;METAR CYQF 281700Z 00000KT 15SM FEW100 BKN250 01/M06 A2981 RMK AC2CI3 SLP135=

CYQF;2006-03-28 18:00;METAR CYQF 281800Z 00000KT 15SM FEW100 BKN250 03/M06 A2981 RMK AC1CI2 SLP134=

CYQF;2006-03-28 19:00;METAR CYQF 281900Z 00000KT 15SM FEW100 SCT250 04/M06 A2980 RMK AC1CI2 SLP131=

CYQF;2006-03-28 20:00;METAR CYQF 282000Z 00000KT 15SM FEW040 SCT250 05/M06 A2979 RMK CU1CI2 SLP128=

CYQF;2006-03-28 21:00;METAR CYQF 282100Z 00000KT 15SM FEW040 FEW100 BKN250 05/M06 A2980 RMK CU1AC1CI2 SLP128=

CYQF;2006-03-28 22:00;METAR CYQF 282200Z 05003KT 15SM FEW040 FEW100 BKN250 05/M07 A2979 RMK CU1AC2CI2 SLP125=

CYQF;2006-03-28 23:00;METAR CYQF 282300Z 06005KT 15SM FEW040 FEW100 BKN250 04/M06 A2979 RMK CU1AC2CI3 SLP125=

CYQF;2006-03-29 00:00;METAR CYQF 290000Z 06007KT 15SM FEW040 SCT100 BKN250 04/M06 A2978 RMK CU1AC3CI3 VIRGA SLP123=

CYQF;2006-03-29 01:00;METAR CYQF 290100Z 06005KT 15SM SCT100 BKN250 03/M06 A2978 RMK AC3CI4 VIRGA SLP125=

CYQF;2006-03-29 02:00;METAR CYQF 290200Z 06004KT 15SM BKN100 BKN250 02/M05 A2978 RMK AC5CI2 SLP124=

CYQF;2006-03-29 03:00;METAR CYQF 290300Z 04003KT 15SM BKN100 BKN250 01/M05 A2978 RMK AC5CI1 SLP128=

CYQF;2006-03-29 04:00;METAR CYQF 290400Z 00000KT 15SM BKN100 00/M05 A2980 RMK AC7 SLP132=

CYQF;2006-03-29 05:00;METAR CYQF 290500Z 04003KT 15SM OVC110 00/M05 A2980 RMK AC8 SLP132=

CYQF;2006-03-29 06:00;METAR CYQF 290600Z 03003KT 15SM BKN110 00/M05 A2978 RMK AC6 SLP119=

CYQF;2006-03-29 07:00;METAR CYQF 290700Z 00000KT 15SM BKN110 M01/M05 A2978 RMK AC3 SLP119=

CYQF;2006-03-29 08:00;METAR CYQF 290800Z 05004KT 15SM FEW050 BKN100 M00/M05 A2976 RMK SC2AC4 SLP114=

CYQF;2006-03-29 09:00;METAR CYQF 290900Z 09003KT 15SM BKN050 OVC100 00/M05 A2976 RMK SC5AC3 SLP111=

CYQF;2006-03-29 10:00;METAR CYQF 291000Z 07005KT 10SM -SN OVC050 M00/M05 A2975 RMK SC8 SLP107=

CYQF;2006-03-29 11:00;METAR CYQF 291100Z 04004KT 10SM OVC050 M00/M05 A2974 RMK SC8 SLP104=

CYQF;2006-03-29 12:00;METAR CYQF 291200Z 06004KT 15SM OVC050 M00/M05 A2974 RMK SC8 SLP106=

CYQF;2006-03-29 13:00;METAR CYQF 291300Z 07005KT 15SM OVC050 M00/M04 A2973 RMK SC8 SLP103=

CYQF;2006-03-29 13:42;SPECI CYQF 291342Z 07003KT 10SM -SN BKN050 OVC100 RMK SC6AC2=

CYQF;2006-03-29 14:00;METAR CYQF 291400Z 04004KT 15SM BKN050 OVC100 M00/M04 A2974 RMK SC6AC2 SLP104=

CYQF;2006-03-29 15:00;METAR CYQF 291500Z 06004KT 15SM BKN050 M01/M05 A2973 RMK SC7 SLP107=

CYQF;2006-03-29 16:00;METAR CYQF 291600Z 07003KT 15SM BKN050 BKN100 00/M04 A2972 RMK SC6AC2 SLP104=

CYQF;2006-03-29 17:00;METAR CYQF 291700Z 12003KT 15SM BKN050 BKN100 01/M04 A2973 RMK SC5AC2 SLP105=

CYQF;2006-03-29 18:00;METAR CYQF 291800Z 10004KT 15SM FEW050 SCT100 BKN250 03/M03 A2972 RMK SC2AC2CI0 SLP097=

CYQF;2006-03-29 19:00;METAR CYQF 291900Z 13005KT 15SM BKN100 BKN250 04/M03 A2971 RMK AC6CI1 SLP095=

CYQF;2006-03-29 20:00;METAR CYQF 292000Z 12002KT 15SM FEW050 BKN090 BKN250 04/M02 A2972 RMK SC2AC5CI1 SLP097=

CYQF;2006-03-29 21:00;METAR CYQF 292100Z 11004KT 15SM FEW050 SCT090 BKN250 04/M03 A2971 RMK SC2AC2CI2 SLP095=

CYQF;2006-03-29 22:00;METAR CYQF 292200Z 06007KT 15SM FEW050 FEW090 BKN250 04/M02 A2970 RMK SC1AC2CI3 SLP090=

CYQF;2006-03-29 23:00;METAR CYQF 292300Z 17004KT 15SM FEW090 BKN250 05/M02 A2970 RMK AC2CI3 SLP092=

CYQF;2006-03-30 00:00;METAR CYQF 300000Z 14004KT 15SM FEW100 BKN250 04/M02 A2971 RMK AC2CI2 SLP094=

CYQF;2006-03-30 01:00;METAR CYQF 300100Z 14003KT 15SM FEW100 BKN250 04/M02 A2971 RMK AC2CI2 SLP096=

CYQF;2006-03-30 02:00;METAR CYQF 300200Z 14003KT 15SM FEW100 SCT250 02/M02 A2974 RMK AC2CI1 SLP103=

CYQF;2006-03-30 03:00;METAR CYQF 300300Z 12002KT 15SM FEW100 FEW250 01/M03 A2975 RMK AC1CI1 SLP111=

CYQF;2006-03-30 04:00;METAR CYQF 300400Z 00000KT 15SM FEW100 M00/M03 A2976 RMK AC2 SLP114=

CYQF;2006-03-30 05:00;METAR CYQF 300500Z 00000KT 15SM BKN040 BKN100 00/M02 A2976 RMK SC6AC2 SLP116=

CYQF;2006-03-30 06:00;METAR CYQF 300600Z 00000KT 15SM BKN040 01/M01 A2976 RMK SC7 SLP113=

CYQF;2006-03-30 07:00;METAR CYQF 300700Z 16003KT 15SM OVC030 01/M01 A2976 RMK SC8 SLP112=

CYQF;2006-03-30 08:00;METAR CYQF 300800Z 16007KT 10SM BKN030 02/00 A2976 RMK SC7 SLP112=

CYQF;2006-03-30 09:00;METAR CYQF 300900Z 16007KT 4SM BR BKN014 OVC030 02/00 A2976 RMK SF6SC2 SLP111=

CYQF;2006-03-30 10:00;METAR CYQF 301000Z 17006KT 4SM BR BKN008 OVC030 02/00 A2977 RMK SF6SC2 SLP112=

CYQF;2006-03-30 11:00;METAR CYQF 301100Z 17009KT 4SM BR OVC007 02/00 A2977 RMK ST8 SLP114=

CYQF;2006-03-30 12:00;METAR CYQF 301200Z 18010KT 4SM BR OVC007 02/00 A2978 RMK ST8 SLP117=

CYQF;2006-03-30 13:00;METAR CYQF 301300Z 17006KT 3SM BR OVC007 02/00 A2979 RMK ST8 SLP119=

CYQF;2006-03-30 14:00;METAR CYQF 301400Z 18007KT 3SM BR OVC006 02/M00 A2980 RMK ST8 SLP122=

CYQF;2006-03-30 15:00;METAR CYQF 301500Z 18008KT 4SM BR OVC006 02/M00 A2981 RMK SC8 SLP130=

CYQF;2006-03-30 16:00;METAR CYQF 301600Z 18007KT 3SM BR OVC007 02/M00 A2982 RMK SF8 SLP134=

CYQF;2006-03-30 17:00;METAR CYQF 301700Z 17008KT 5SM BR FEW007 BKN011 03/M00 A2983 RMK SF2SC6 SLP136=

CYQF;2006-03-30 18:00;METAR CYQF 301800Z 17009KT 10SM BKN015 04/00 A2982 RMK SC6 HZ SLP133=

CYQF;2006-03-30 19:00;METAR CYQF 301900Z 18007KT 12SM SCT015 BKN250 05/01 A2982 RMK SC3CI2 SLP132=

CYQF;2006-03-30 20:00;METAR CYQF 302000Z 15010KT 15SM FEW015 SCT090 SCT250 05/01 A2982 RMK SC2AC2CI0 SLP132=

CYQF;2006-03-30 21:00;METAR CYQF 302100Z 16008KT 15SM FEW030 FEW090 SCT250 06/02 A2981 RMK CU1AC2CI1 SLP126=

CYQF;2006-03-30 22:00;METAR CYQF 302200Z 15010KT 15SM FEW030 FEW090 BKN250 07/02 A2980 RMK CU1AC2CI2 SLP123=

CYQF;2006-03-30 23:00;METAR CYQF 302300Z 14009KT 15SM FEW030 SCT090 BKN250 06/01 A2980 RMK CU2AC2CI2 SLP123=

CYQF;2006-03-31 01:00;METAR CYQF 310100Z 14008KT 15SM FEW040 SCT090 BKN250 05/01 A2980 RMK CU2AC1CI2 SHS/VIRGA W SLP122=

CYQF;2006-03-31 02:00;METAR CYQF 310200Z 16003KT 15SM FEW040 SCT090 BKN250 03/01 A2981 RMK SC2AC2CI1 TCU ASOCTD SHS/VIRGA W SLP126=

CYQF;2006-03-31 03:00;METAR CYQF 310300Z 12005KT 15SM SCT040 SCT090 BKN250 02/00 A2982 RMK SC3AC1CI2 VIRGA SLP133=

CYQF;2006-03-31 03:46;SPECI CYQF 310346Z 31004KT 12SM -SHRA BKN040 BKN090 RMK SC6AC2=

CYQF;2006-03-31 04:00;METAR CYQF 310400Z 07005KT 12SM -SHRA BKN030 BKN090 02/00 A2986 RMK SC5AC2 SLP145=

CYQF;2006-03-31 04:18;SPECI CYQF 310418Z 08006KT 15SM SCT030 BKN090 RMK SC3AC2=

CYQF;2006-03-31 05:00;METAR CYQF 310500Z 10006KT 15SM FEW030 FEW090 01/M00 A2985 RMK SC1AC2 SLP140=

CYQF;2006-03-31 06:00;METAR CYQF 310600Z 18004KT 15SM FEW090 00/M01 A2985 RMK AC1 SLP142=

CYQF;2006-03-31 07:00;METAR CYQF 310700Z 00000KT 6SM BR BKN004 00/M01 A2985 RMK ST6 SLP141=

CYQF;2006-03-31 07:37;SPECI CYQF 310737Z 19004KT 1 1/2SM BR VV003 RMK FG8=

CYQF;2006-03-31 08:00;METAR CYQF 310800Z 21003KT 1 1/2SM BR VV003 01/00 A2985 RMK FG8 SLP141=

CYQF;2006-03-31 08:40;SPECI CYQF 310840Z 19003KT 1/2SM FG VV002 RMK FG8=

CYQF;2006-03-31 09:00;METAR CYQF 310900Z 20003KT 1/2SM FG VV002 01/00 A2984 RMK FG8 SLP137=

CYQF;2006-03-31 10:00;METAR CYQF 311000Z 20003KT 1/2SM FG VV002 01/00 A2984 RMK FG8 SLP135=

CYQF;2006-03-31 11:00;METAR CYQF 311100Z 25002KT 1/4SM FG VV001 01/00 A2983 RMK FG8 SLP132=

CYQF;2006-03-31 12:00;METAR CYQF 311200Z 00000KT 0SM FG VV000 01/M00 A2981 RMK FG8 SLP128=

CYQF;2006-03-31 13:00;METAR CYQF 311300Z 27003KT 0SM FG VV000 00/M01 A2981 RMK FG8 SLP127=

CYQF;2006-03-31 14:00;METAR CYQF 311400Z 23002KT 0SM FZFG VV000 M01/M01 A2981 RMK FG8 SLP127=

CYQF;2006-03-31 15:00;METAR CYQF 311500Z 00000KT 1/8SM FZFG VV001 M01/M02 A2982 RMK FG8 SLP134=

CYQF;2006-03-31 15:31;SPECI CYQF 311531Z 28002KT 1/2SM FZFG VV004 RMK FG8=

CYQF;2006-03-31 16:00;METAR CYQF 311600Z 24004KT 2SM BR OVC004 M01/M01 A2981 RMK FG3SF5 SLP131=

CYQF;2006-03-31 16:33;SPECI CYQF 311633Z 23003KT 3SM BR SCT004 BKN009 OVC250 RMK FG2SF2SF2CI2=

CYQF;2006-03-31 17:00;METAR CYQF 311700Z 22004KT 4SM BR FEW006 BKN120 OVC250 00/M01 A2981 RMK SF2AC2CS3 SLP131=

CYQF;2006-03-31 18:00;METAR CYQF 311800Z 26002KT 8SM BKN120 OVC250 03/01 A2979 RMK AC5CS3 SLP124=

CYQF;2006-03-31 19:00;METAR CYQF 311900Z 06003KT 10SM SCT120 OVC250 04/00 A2979 RMK AC3CS3 SLP122=

CYQF;2006-03-31 20:00;METAR CYQF 312000Z 13003KT 15SM SCT120 OVC250 06/01 A2976 RMK AC3CS3 SLP115=

CYQF;2006-03-31 21:00;METAR CYQF 312100Z 06003KT 15SM FEW120 BKN250 07/01 A2975 RMK AC2CI2 SLP103=

CYQF;2006-03-31 22:00;METAR CYQF 312200Z 09003KT 15SM FEW120 BKN250 08/M01 A2974 RMK AC2CI2 SLP100=

CYQF;2006-03-31 23:00;METAR CYQF 312300Z 09002KT 15SM FEW080 SCT120 09/M03 A2972 RMK AC1AC2 SLP095=

CYQF;2006-04-01 00:00;METAR CYQF 010000Z 12003KT 15SM FEW080 SCT250 09/M01 A2972 RMK AC2CI1 SLP093=

CYQF;2006-04-01 01:00;METAR CYQF 010100Z 14002KT 15SM FEW090 SCT250 08/M02 A2972 RMK AC2CI2 SLP091=

CYQF;2006-04-01 02:00;METAR CYQF 010200Z 15004KT 15SM FEW080 SCT250 05/M00 A2972 RMK AC2CI1 SLP091=

CYQF;2006-04-01 03:00;METAR CYQF 010300Z 15005KT 15SM FEW080 SCT250 04/M00 A2973 RMK AC2CI1 SLP102=

CYQF;2006-04-01 04:00;METAR CYQF 010400Z 00000KT 15SM SKC 02/M01 A2972 RMK SLP100=

CYQF;2006-04-01 05:00;METAR CYQF 010500Z 00000KT 15SM FEW250 00/M02 A2972 RMK CI1 SLP098=

CYQF;2006-04-01 06:00;METAR CYQF 010600Z 00000KT 12SM FEW090 BKN250 00/M02 A2971 RMK AC2CI2 BR SLP094=

CYQF;2006-04-01 07:00;METAR CYQF 010700Z 00000KT 8SM FEW090 M03/M05 A2971 RMK AC2 BR SLP094=

CYQF;2006-04-01 08:00;METAR CYQF 010800Z 00000KT 5SM BR FEW090 M01/M02 A2970 RMK AC1 SLP093=

CYQF;2006-04-01 08:30;SPECI CYQF 010830Z 00000KT 1 1/2SM BR SKC RMK FG4=

CYQF;2006-04-01 09:00;METAR CYQF 010900Z 00000KT 1 1/2SM BR SKC M02/M03 A2969 RMK FG3 SLP086=

CYQF;2006-04-01 10:00;METAR CYQF 011000Z 00000KT 2SM BR BKN075 M00/M02 A2970 RMK AC6 SLP089=

CYQF;2006-04-01 11:00;METAR CYQF 011100Z 35003KT 2SM BR OVC080 M00/M01 A2969 RMK AC8 SLP086=

CYQF;2006-04-01 11:36;SPECI CYQF 011136Z 07005KT 6SM -SHRA BR SCT025 OVC080 RMK SC4AC4=

CYQF;2006-04-01 12:00;METAR CYQF 011200Z 25005KT 8SM -SHRA BKN020 OVC080 01/M00 A2970 RMK SC6AC2 SLP083=

CYQF;2006-04-01 13:00;METAR CYQF 011300Z 31003KT 10SM BKN020TCU BKN080 OVC250 01/M00 A2971 RMK TCU5AC2CI1 SLP086=

CYQF;2006-04-01 13:31;SPECI CYQF 011331Z 00000KT 8SM -SHRA BKN020 BKN080 BKN250 RMK SC5AC2CI1 TCU ASOCTD=

CYQF;2006-04-01 14:00;METAR CYQF 011400Z 00000KT 6SM -RASN BKN020 OVC080 01/M00 A2973 RMK SC6AC2 TCU EMBD SLP094=

CYQF;2006-04-01 15:00;METAR CYQF 011500Z 27004KT 5SM -RA BKN008 OVC080 01/M00 A2975 RMK SC6AC2 SLP107=

CYQF;2006-04-01 16:00;METAR CYQF 011600Z 21002KT 6SM BR FEW008 BKN020 OVC080 02/00 A2976 RMK SF2SC5AC1 SLP112=

CYQF;2006-04-01 16:40;SPECI CYQF 011640Z 17004KT 5SM -RA BR SCT006 BKN020 OVC080 RMK SF3SC4AC1=

CYQF;2006-04-01 17:00;METAR CYQF 011700Z 26008KT 3SM -RA BR SCT006 BKN015 OVC080 01/00 A2977 RMK SF3SC3AC2 CIG AND VIS LWR S SLP114=

CYQF;2006-04-01 17:43;SPECI CYQF 011743Z 10005KT 6SM BR BKN005 OVC015 RMK SF5SC3=

CYQF;2006-04-01 18:00;METAR CYQF 011800Z 11003KT 8SM SCT005 OVC020 03/01 A2980 RMK SF4SC4 BR SLP126=

CYQF;2006-04-01 18:31;SPECI CYQF 011831Z 14003KT 8SM -RA FEW005 BKN015 OVC080 RMK SF2SC4AC2 BR=

CYQF;2006-04-01 19:00;METAR CYQF 011900Z 22004KT 8SM -RA FEW005 BKN015 OVC080 03/01 A2979 RMK SF2SC5AC2 BR SLP125=

CYQF;2006-04-01 19:32;SPECI CYQF 011932Z 30008KT 10SM BKN020 OVC080 RMK SC5AC3 BR=

CYQF;2006-04-01 20:00;METAR CYQF 012000Z 30007KT 10SM FEW010 BKN025 BKN080 05/02 A2979 RMK SF1SC4AC2 BR SLP123=

CYQF;2006-04-01 21:00;METAR CYQF 012100Z 35004KT 15SM FEW020 BKN080 OVC230 06/01 A2981 RMK CU2AC3CI1 SLP128=

CYQF;2006-04-01 22:00;METAR CYQF 012200Z 35003KT 15SM FEW020 SCT080 BKN230 06/01 A2982 RMK CU2AC2CI2 SLP133=

CYQF;2006-04-01 23:00;METAR CYQF 012300Z 02004KT 15SM FEW025 FEW080 BKN230 07/M01 A2983 RMK CU2AC1CI2 SLP135=

CYQF;2006-04-02 00:00;METAR CYQF 020000Z 01005KT 15SM FEW030 FEW090 SCT230 07/M02 A2984 RMK CU1AC1CI1 SLP134=

CYQF;2006-04-02 01:00;METAR CYQF 020100Z 08005KT 15SM FEW090 FEW230 07/M01 A2985 RMK AC1CI1 SLP138=

CYQF;2006-04-02 02:00;METAR CYQF 020200Z 00000KT 15SM FEW090 SCT250 05/M01 A2988 RMK AC2CI1 SLP146=

CYQF;2006-04-02 03:00;METAR CYQF 020300Z 00000KT 12SM FEW090 FEW250 02/M01 A2990 RMK AC1CI1 BR SLP162=

CYQF;2006-04-02 04:00;METAR CYQF 020400Z 05004KT 15SM FEW090 01/M01 A2993 RMK AC2 SLP170=

CYQF;2006-04-02 05:00;METAR CYQF 020500Z 00000KT 12SM FEW090 M01/M02 A2994 RMK AC1 BR SLP174=

CYQF;2006-04-02 06:00;METAR CYQF 020600Z 19003KT 12SM FEW090 M00/M02 A2995 RMK AC1 BR SLP182=

CYQF;2006-04-02 07:00;METAR CYQF 020700Z 00000KT 8SM FEW090 M01/M02 A2997 RMK AC1 BR SLP187=

CYQF;2006-04-02 08:00;METAR CYQF 020800Z 00000KT 5SM BR SKC M02/M03 A2997 RMK VIS N 2 SLP188=

CYQF;2006-04-02 08:41;SPECI CYQF 020841Z 00000KT 1SM BR SKC RMK FG2=

CYQF;2006-04-02 09:00;METAR CYQF 020900Z 18002KT 1/4SM FZFG SKC M04/M05 A2998 RMK FG4 SLP189=

CYQF;2006-04-02 10:00;METAR CYQF 021000Z 16003KT 3SM BR SKC M02/M03 A2999 RMK SLP193=

CYQF;2006-04-02 11:00;METAR CYQF 021100Z 17002KT 8SM SKC M03/M04 A3000 RMK SLP196=

CYQF;2006-04-02 12:00;METAR CYQF 021200Z 16002KT 10SM SKC M03/M04 A3002 RMK BR SLP202=

CYQF;2006-04-02 13:00;METAR CYQF 021300Z 16003KT 10SM FEW120 FEW250 M02/M04 A3003 RMK AC1CI0 BR SLP206=

CYQF;2006-04-02 14:00;METAR CYQF 021400Z 15003KT 10SM SCT250 M01/M02 A3005 RMK CI1 SLP210=

CYQF;2006-04-02 15:00;METAR CYQF 021500Z 16003KT 10SM SCT250 02/M01 A3005 RMK CI2 BR SLP214=

CYQF;2006-04-02 16:00;METAR CYQF 021600Z 16007KT 15SM SCT250 04/M00 A3006 RMK CI2 SLP215=

CYQF;2006-04-02 17:00;METAR CYQF 021700Z 14010KT 15SM BKN250 05/M00 A3006 RMK CI2 SLP217=

CYQF;2006-04-02 18:00;METAR CYQF 021800Z 16010G15KT 15SM FEW015 BKN250 05/01 A3007 RMK CF1CI2 SLP218=

CYQF;2006-04-02 19:00;METAR CYQF 021900Z 15010G15KT 15SM FEW020 BKN250 07/02 A3006 RMK CF2CI1 SLP215=

CYQF;2006-04-02 20:00;METAR CYQF 022000Z 14012G18KT 15SM FEW025 BKN250 08/01 A3005 RMK CU2CI2 SLP214=

CYQF;2006-04-02 22:00;METAR CYQF 022200Z 15012G20KT 15SM FEW030 BKN250 10/02 A3002 RMK CU1CI2 SLP201=

CYQF;2006-04-02 23:00;METAR CYQF 022300Z 15012G20KT 15SM FEW030 FEW080 BKN250 10/02 A3001 RMK SC1AC1CI2 SLP197=

CYQF;2006-04-03 00:00;METAR CYQF 030000Z 15012G20KT 15SM FEW080 SCT250 11/02 A2999 RMK AC1CI2 SLP188=

CYQF;2006-04-03 01:00;METAR CYQF 030100Z 14010G17KT 15SM FEW080 SCT250 10/03 A2998 RMK AC2CI2 SLP184=

CYQF;2006-04-03 02:00;METAR CYQF 030200Z 14012KT 15SM FEW080 SCT250 08/02 A2997 RMK AC2CI2 SLP181=

CYQF;2006-04-03 03:00;METAR CYQF 030300Z 14009KT 15SM FEW080 SCT250 06/02 A2998 RMK AC1CI2 SLP183=

CYQF;2006-04-03 04:00;METAR CYQF 030400Z 15012KT 15SM FEW080 SCT250 05/01 A2999 RMK AC2CI1 SLP186=

CYQF;2006-04-03 05:00;METAR CYQF 030500Z 15011KT 15SM FEW080 04/00 A2998 RMK AC2 SLP184=

CYQF;2006-04-03 06:00;METAR CYQF 030600Z 16009KT 15SM FEW080 FEW250 03/M00 A2998 RMK AC2CI0 SLP182=

CYQF;2006-04-03 07:00;METAR CYQF 030700Z 18006KT 15SM FEW080 FEW250 02/M01 A2997 RMK AC1CI0 SLP179=

CYQF;2006-04-03 08:00;METAR CYQF 030800Z 19003KT 15SM SKC 02/M01 A2996 RMK SLP177=

CYQF;2006-04-03 09:00;METAR CYQF 030900Z 20002KT 15SM SKC M00/M02 A2996 RMK SLP177=

CYQF;2006-04-03 10:00;METAR CYQF 031000Z 18002KT 15SM SKC M01/M03 A2996 RMK SLP177=

CYQF;2006-04-03 11:00;METAR CYQF 031100Z 22003KT 15SM SKC M02/M04 A2996 RMK SLP176=

CYQF;2006-04-03 12:00;METAR CYQF 031200Z 00000KT 15SM FEW250 M01/M04 A2997 RMK CI0 SLP180=

CYQF;2006-04-03 13:00;METAR CYQF 031300Z 00000KT 15SM FEW050 SCT250 M01/M04 A2998 RMK SC2CI1 SLP181=

CYQF;2006-04-03 14:00;METAR CYQF 031400Z 00000KT 15SM FEW070 SCT250 M01/M03 A2998 RMK AC2CI1 SLP183=

CYQF;2006-04-03 15:00;METAR CYQF 031500Z 00000KT 15SM FEW080 SCT250 03/M02 A2998 RMK AC1CI2 SLP182=

CYQF;2006-04-03 16:00;METAR CYQF 031600Z 30008KT 15SM FEW080 SCT250 06/M04 A2998 RMK AC1CI2 SLP182=

CYQF;2006-04-03 17:00;METAR CYQF 031700Z 31010G15KT 15SM SCT250 08/M03 A2998 RMK CI1 SLP183=

CYQF;2006-04-03 18:00;METAR CYQF 031800Z 33008KT 15SM FEW250 09/M02 A2997 RMK CI1 SLP177=

CYQF;2006-04-03 19:00;METAR CYQF 031900Z 30010KT 15SM FEW030 SCT250 10/M00 A2996 RMK CU1CI1 SLP173=

CYQF;2006-04-03 20:00;METAR CYQF 032000Z 04005KT 15SM FEW040 BKN250 11/M01 A2995 RMK CU1CI2 SLP169=

CYQF;2006-04-03 21:00;METAR CYQF 032100Z 35005KT 15SM FEW040 OVC250 11/M01 A2993 RMK CU1CI4 SLP164=

CYQF;2006-04-03 22:00;METAR CYQF 032200Z 02002KT 15SM FEW040 BKN250 11/M02 A2991 RMK CU1CI3 SLP158=

CYQF;2006-04-03 23:00;METAR CYQF 032300Z 09005KT 15SM FEW040 SCT120 OVC250 11/M02 A2991 RMK SC1AC2CI2 SLP156=

CYQF;2006-04-04 00:00;METAR CYQF 040000Z 00000KT 15SM BKN120 OVC250 11/M02 A2990 RMK AC5CI2 SLP155=

CYQF;2006-04-04 02:00;METAR CYQF 040200Z 14004KT 15SM BKN100 BKN250 09/M00 A2988 RMK AC6CI1 VIRGA SLP147=

CYQF;2006-04-04 03:00;METAR CYQF 040300Z 14004KT 15SM BKN100 BKN250 08/M01 A2988 RMK AC5CI1 VIRGA SLP148=

CYQF;2006-04-04 04:00;METAR CYQF 040400Z 12004KT 15SM SCT100 BKN250 06/M02 A2987 RMK AC3CI1 SLP145=

CYQF;2006-04-04 05:00;METAR CYQF 040500Z 00000KT 15SM SCT100 BKN250 04/M02 A2986 RMK AC3CI3 SLP140=

CYQF;2006-04-04 06:00;METAR CYQF 040600Z 00000KT 15SM FEW100 BKN250 03/M02 A2984 RMK AC2CI4 SLP132=

CYQF;2006-04-04 07:00;METAR CYQF 040700Z 20002KT 15SM FEW100 BKN250 01/M03 A2984 RMK AC2CI2 SLP130=

CYQF;2006-04-04 08:00;METAR CYQF 040800Z 18003KT 15SM SCT100 BKN250 02/M03 A2982 RMK AC3CI2 SLP126=

CYQF;2006-04-04 09:00;METAR CYQF 040900Z 20002KT 15SM FEW100 BKN250 02/M03 A2982 RMK AC2CI2 SLP124=

CYQF;2006-04-04 10:00;METAR CYQF 041000Z 11002KT 15SM FEW100 BKN250 02/M02 A2981 RMK AC2CI3 SLP119=

CYQF;2006-04-04 11:00;METAR CYQF 041100Z 30002KT 15SM FEW100 BKN250 01/M03 A2981 RMK AC2CI3 SLP121=

CYQF;2006-04-04 12:00;METAR CYQF 041200Z 30002KT 15SM SCT100 BKN250 01/M03 A2981 RMK AC3CI2 SLP121=

CYQF;2006-04-04 13:00;METAR CYQF 041300Z 24003KT 15SM SCT100 BKN250 M00/M03 A2982 RMK AC3CI2 SLP123=

CYQF;2006-04-04 14:00;METAR CYQF 041400Z 21002KT 15SM SCT100 OVC250 00/M02 A2982 RMK AC3CI4 SLP124=

CYQF;2006-04-04 15:00;METAR CYQF 041500Z 00000KT 15SM FEW100 BKN250 02/M01 A2981 RMK AC2CI2 SLP123=

CYQF;2006-04-04 16:00;METAR CYQF 041600Z 00000KT 15SM SCT100 OVC250 05/M02 A2983 RMK AC2CI2 SLP128=

CYQF;2006-04-04 17:00;METAR CYQF 041700Z 33003KT 15SM BKN100 OVC250 07/M02 A2984 RMK AC6CI2 SLP132=

CYQF;2006-04-04 18:00;METAR CYQF 041800Z 32003KT 15SM BKN100 OVC250 08/M02 A2982 RMK AC4CI2 SLP126=

CYQF;2006-04-04 19:00;METAR CYQF 041900Z 00000KT 15SM SCT100 OVC250 09/M02 A2981 RMK AC2CI3 SLP123=

CYQF;2006-04-04 20:00;METAR CYQF 042000Z 00000KT 15SM SCT100 OVC250 11/M01 A2980 RMK AC3CI2 SLP120=

CYQF;2006-04-04 21:00;METAR CYQF 042100Z 00000KT 15SM SCT100 OVC250 11/M02 A2980 RMK AC3CI4 SLP117=

CYQF;2006-04-04 22:00;METAR CYQF 042200Z 00000KT 15SM BKN100 OVC250 11/M01 A2980 RMK AC6CI2 SLP116=

CYQF;2006-04-04 23:00;METAR CYQF 042300Z 00000KT 15SM BKN100 OVC250 11/M02 A2979 RMK AC6CI2 SLP113=

CYQF;2006-04-05 00:00;METAR CYQF 050000Z 00000KT 15SM BKN100 OVC250 11/00 A2978 RMK AC6CI2 SLP111=

CYQF;2006-04-05 01:00;METAR CYQF 050100Z 14002KT 15SM BKN100 BKN250 11/01 A2978 RMK AC6CI2 SLP110=

CYQF;2006-04-05 02:00;METAR CYQF 050200Z 14005KT 15SM SCT100 BKN250 10/01 A2977 RMK AC4CI3 SLP108=

CYQF;2006-04-05 03:00;METAR CYQF 050300Z 11004KT 15SM BKN100 BKN250 08/01 A2978 RMK AC5CI2 SLP114=

CYQF;2006-04-05 04:00;METAR CYQF 050400Z 14003KT 15SM BKN100 OVC250 07/01 A2979 RMK AC5CI2 SLP116=

CYQF;2006-04-05 05:00;METAR CYQF 050500Z 12004KT 15SM BKN100 OVC250 07/00 A2979 RMK AC6CI2 SLP117=

CYQF;2006-04-05 06:00;METAR CYQF 050600Z 12004KT 15SM SCT100 OVC250 06/00 A2979 RMK AC4CI3 SLP111=

CYQF;2006-04-05 07:00;METAR CYQF 050700Z 05004KT 15SM SCT100 OVC250 05/01 A2978 RMK AC3CI2 SLP109=

CYQF;2006-04-05 08:00;METAR CYQF 050800Z 14004KT 15SM BKN100 OVC250 05/02 A2978 RMK AC5CI3 SLP108=

CYQF;2006-04-05 08:38;SPECI CYQF 050838Z 24004KT 10SM -RA BKN100 OVC250 RMK AC6CI2=

CYQF;2006-04-05 09:00;METAR CYQF 050900Z 21004KT 10SM -RA BKN100 OVC250 05/03 A2976 RMK AC6CI2 SLP099=

CYQF;2006-04-05 10:00;METAR CYQF 051000Z 24002KT 10SM -RA SCT040 OVC090 05/04 A2978 RMK SC3AC5 SLP106=

CYQF;2006-04-05 11:00;METAR CYQF 051100Z 23004KT 8SM -RA BKN040 OVC090 05/03 A2978 RMK SC6AC2 SLP104=

CYQF;2006-04-05 11:40;SPECI CYQF 051140Z 10003KT 10SM BKN040 OVC070 RMK SC5AC3=

CYQF;2006-04-05 12:00;METAR CYQF 051200Z 07002KT 10SM BKN040 OVC070 04/03 A2977 RMK SC6AC2 SLP104=

CYQF;2006-04-05 13:00;METAR CYQF 051300Z 29006KT 4SM BR FEW004 OVC050 04/03 A2977 RMK SF1SC7 SLP103=

CYQF;2006-04-05 13:17;SPECI CYQF 051317Z 09002KT 3SM -RA BR FEW004 OVC050 RMK SF2SC6=

CYQF;2006-04-05 13:34;SPECI CYQF 051334Z 09004KT 2SM -RA BR FEW004 OVC050 RMK SF2SC6=

CYQF;2006-04-05 14:00;METAR CYQF 051400Z 00000KT 2 1/2SM -RA BR SCT005 OVC040 04/03 A2977 RMK SF3SC5 SLP104=

CYQF;2006-04-05 14:41;SPECI CYQF 051441Z 09002KT 4SM -RA BR FEW005 OVC030 RMK SF2SC6=

CYQF;2006-04-05 15:00;METAR CYQF 051500Z 00000KT 6SM BR FEW005 BKN030 OVC070 05/04 A2977 RMK SF2SC6AC1 SLP106=

CYQF;2006-04-05 16:00;METAR CYQF 051600Z 36005KT 5SM BR FEW005 OVC030 05/04 A2977 RMK SF2SC6 SLP106=

CYQF;2006-04-05 17:00;METAR CYQF 051700Z 36004KT 10SM FEW005 BKN030 OVC070 07/04 A2976 RMK SF1SC6AC2 BR SLP103=

CYQF;2006-04-05 18:00;METAR CYQF 051800Z 36006KT 15SM FEW005 BKN040 OVC070 07/04 A2976 RMK SF1SC6AC2 SLP100=

CYQF;2006-04-05 19:00;METAR CYQF 051900Z 03005KT 15SM FEW008 BKN045 OVC070 08/03 A2976 RMK SF1SC6AC1 SLP100=

CYQF;2006-04-05 20:00;METAR CYQF 052000Z 07003KT 15SM BKN050 OVC080 08/02 A2975 RMK SC6AC2 SLP096=

CYQF;2006-04-05 21:00;METAR CYQF 052100Z 03009KT 15SM BKN026 OVC070 09/M00 A2974 RMK SC6AC2 SLP092=

CYQF;2006-04-05 22:00;METAR CYQF 052200Z 06010KT 15SM BKN025 OVC070 08/01 A2974 RMK SC6AC2 SLP093=

CYQF;2006-04-05 23:00;METAR CYQF 052300Z 05008KT 15SM BKN020 OVC050 08/02 A2973 RMK SC6SC2 SLP091=

CYQF;2006-04-05 23:18;SPECI CYQF 052318Z 06015KT 10SM -RA BKN020 OVC050 RMK SC7SC1=

CYQF;2006-04-06 00:00;METAR CYQF 060000Z 04008KT 8SM -RA BKN015 OVC050 06/04 A2974 RMK SF6SC2 BR SLP096=

CYQF;2006-04-06 00:39;SPECI CYQF 060039Z 04008KT 2 1/2SM -RA BR BKN008 OVC015 RMK SF6SC2=

CYQF;2006-04-06 01:00;METAR CYQF 060100Z 06005KT 2 1/2SM BR BKN006 OVC015 06/04 A2974 RMK SF7SC1 CIG RAG SLP097=

CYQF;2006-04-06 02:00;METAR CYQF 060200Z 07007KT 2SM BR OVC005 06/04 A2974 RMK SF8 CIG RAG SLP098=

CYQF;2006-04-06 02:24;SPECI CYQF 060224Z 06009KT 3/4SM BR VV003 RMK FG8=

CYQF;2006-04-06 02:31;SPECI CYQF 060231Z 09008KT 1/2SM -RA FG VV003 RMK FG8=

CYQF;2006-04-06 03:00;METAR CYQF 060300Z 07006KT 1/2SM -RA FG VV003 05/05 A2975 RMK FG8 SLP100=

CYQF;2006-04-06 04:00;METAR CYQF 060400Z 07007KT 1/2SM FG VV003 05/05 A2976 RMK FG8 SLP103=

CYQF;2006-04-06 04:34;SPECI CYQF 060434Z 08005KT 1 1/2SM -DZ BR VV004 RMK FG8=

CYQF;2006-04-06 05:00;METAR CYQF 060500Z 06004KT 1SM -DZ BR VV003 05/04 A2976 RMK FG8 SLP104=

CYQF;2006-04-06 06:00;METAR CYQF 060600Z 05005KT 3SM BR BKN008 OVC016 05/04 A2975 RMK SF6SC2 CIG RAG SLP100=

CYQF;2006-04-06 07:00;METAR CYQF 060700Z 06004KT 3SM BR BKN008 OVC020 04/04 A2976 RMK SF6SC2 CIG RAG SLP101=

CYQF;2006-04-06 08:00;METAR CYQF 060800Z 06008KT 3SM -RA BR BKN008 OVC015 04/03 A2976 RMK SF6SC2 CIG RAG SLP104=

CYQF;2006-04-06 09:00;METAR CYQF 060900Z 03004KT 3SM -RA BR BKN008 OVC015 04/03 A2976 RMK SF6SC2 CIG RAG SLP103=

CYQF;2006-04-06 10:00;METAR CYQF 061000Z 03004KT 3SM -RA BR BKN008 OVC015 04/03 A2977 RMK SF6SC2 SLP104=

CYQF;2006-04-06 11:00;METAR CYQF 061100Z 04004KT 3SM -RA BR OVC007 03/03 A2978 RMK SF8 CIG RAG SLP107=

CYQF;2006-04-06 11:40;SPECI CYQF 061140Z 04004KT 4SM BR OVC007 RMK SF8 CIG RAG=

CYQF;2006-04-06 12:00;METAR CYQF 061200Z 03003KT 3SM BR OVC007 03/02 A2978 RMK SF8 SLP114=

CYQF;2006-04-06 13:14;SPECI CYQF 061314Z 06004KT 2SM -RA BR OVC006 RMK SF8 CIG RAG=

CYQF;2006-04-06 14:00;METAR CYQF 061400Z 03003KT 3SM -RA BR SCT006 OVC016 03/02 A2980 RMK SF4SC4 SLP118=

CYQF;2006-04-06 15:00;METAR CYQF 061500Z 00000KT 4SM -RA BR BKN006 OVC013 04/03 A2982 RMK SF6SC2 SLP126=

CYQF;2006-04-06 16:00;METAR CYQF 061600Z 15004KT 5SM BR BKN006 OVC015 04/03 A2983 RMK SF5SC3 SLP131=

CYQF;2006-04-06 16:18;SPECI CYQF 061618Z 15003KT 4SM -RA BR BKN006 OVC015 RMK SF6SC2=

CYQF;2006-04-06 17:00;METAR CYQF 061700Z 13008KT 6SM BR BKN007 OVC020 06/04 A2985 RMK SF6SC2 SLP137=

CYQF;2006-04-06 17:52;SPECI CYQF 061752Z 16008KT 6SM BR SCT009 BKN020 OVC070 RMK SF4SC2AC2=

CYQF;2006-04-06 18:00;METAR CYQF 061800Z 15008KT 6SM BR SCT009 BKN020 OVC070 06/03 A2986 RMK SF3SC2CI2 SLP139=

CYQF;2006-04-06 18:46;SPECI CYQF 061846Z 14012KT 8SM BKN011 OVC020 RMK SF6SC2 BR=

CYQF;2006-04-06 19:00;METAR CYQF 061900Z 15010KT 8SM BKN011 OVC020 08/04 A2986 RMK SF6SC2 BR SLP139=

CYQF;2006-04-06 20:00;METAR CYQF 062000Z 15010KT 8SM BKN012 OVC030 08/04 A2987 RMK SF6SC2 BR SLP143=

CYQF;2006-04-06 21:00;METAR CYQF 062100Z 15010KT 8SM BKN009 OVC020 07/04 A2989 RMK SF6SC2 BR SLP148=

CYQF;2006-04-06 22:00;METAR CYQF 062200Z 18010G15KT 10SM BKN013 OVC030 08/04 A2990 RMK SF6SC2 BR SLP153=

CYQF;2006-04-06 23:00;METAR CYQF 062300Z 18010G15KT 10SM -RA BKN012 OVC030 07/04 A2991 RMK SF6SC2 BR SLP156=

CYQF;2006-04-06 23:40;SPECI CYQF 062340Z 18010KT 10SM SCT014 BKN030 OVC080 RMK SF3SC2AC3 BR=

CYQF;2006-04-07 00:00;METAR CYQF 070000Z 18010KT 10SM SCT014 BKN030 OVC080 08/04 A2991 RMK SF2SC2AC3 BR SLP157=

CYQF;2006-04-07 01:00;METAR CYQF 070100Z 18003KT 10SM FEW014 BKN030 OVC080 08/05 A2991 RMK SC2SC3AC3 BR SLP157=

CYQF;2006-04-07 02:00;METAR CYQF 070200Z 17010KT 10SM FEW015 SCT030 OVC080 07/04 A2992 RMK SC2SC2AC4 BR SLP158=

CYQF;2006-04-07 03:00;METAR CYQF 070300Z 17010KT 10SM SCT013 BKN030 OVC080 07/04 A2993 RMK SC3SC2AC2 BR SLP162=

CYQF;2006-04-07 04:00;METAR CYQF 070400Z 18008KT 10SM BKN011 OVC030 07/04 A2994 RMK SC6SC2 BR SLP166=

CYQF;2006-04-07 05:00;METAR CYQF 070500Z 16011KT 8SM OVC010 06/05 A2995 RMK SF8 BR SLP168=

CYQF;2006-04-07 05:37;SPECI CYQF 070537Z 18010KT 10SM -RA BKN009 OVC080 RMK SF6AC1 BR=

CYQF;2006-04-07 06:00;METAR CYQF 070600Z 17010KT 8SM -RA BKN009 OVC080 06/05 A2995 RMK SF6AC1 BR SLP168=

CYQF;2006-04-07 07:00;METAR CYQF 070700Z 17015G20KT 10SM -RA BKN009 OVC080 06/04 A2995 RMK SF6AC2 SLP168=

CYQF;2006-04-07 08:00;METAR CYQF 070800Z 14014KT 10SM -RA BKN008 OVC060 06/04 A2995 RMK SF6SC2 SLP168=

CYQF;2006-04-07 08:42;SPECI CYQF 070842Z 18012KT 15SM BKN008 OVC060 RMK SF5SC3=

CYQF;2006-04-07 09:00;METAR CYQF 070900Z 18010KT 15SM BKN008 OVC060 06/04 A2995 RMK SF6SC2 SLP169=

CYQF;2006-04-07 09:26;SPECI CYQF 070926Z 18010KT 15SM BKN012 OVC060 RMK SF6SC2=

CYQF;2006-04-07 09:52;SPECI CYQF 070952Z 18008KT 10SM -RA BKN010 OVC060 RMK SF6SC2=

CYQF;2006-04-07 10:00;METAR CYQF 071000Z 19010KT 10SM -RA BKN010 OVC060 06/04 A2996 RMK SF6SC2 SLP171=

CYQF;2006-04-07 11:00;METAR CYQF 071100Z 16006KT 8SM -RA BKN010 OVC050 05/04 A2997 RMK SC6SC2 SLP173=

CYQF;2006-04-07 12:00;METAR CYQF 071200Z 18006KT 6SM -RA BR BKN008 OVC050 05/04 A2997 RMK SF5SC3 SLP175=

CYQF;2006-04-07 13:00;METAR CYQF 071300Z 16006KT 3SM -RA BR BKN006 OVC050 05/03 A2998 RMK SF6SC2 SLP177=

CYQF;2006-04-07 14:00;METAR CYQF 071400Z 17008KT 4SM -RA BR BKN006 OVC050 04/03 A2999 RMK SF6SC2 SLP180=

CYQF;2006-04-07 14:19;SPECI CYQF 071419Z 18006KT 4SM BR SCT006 BKN050 OVC250 RMK SF4SC2CI1=

CYQF;2006-04-07 14:45;SPECI CYQF 071445Z 20007KT 3SM BR BKN006 OVC050 RMK SF6SC2=

CYQF;2006-04-07 15:00;METAR CYQF 071500Z 18008KT 3SM BR BKN005 OVC050 05/03 A3000 RMK SF6SC2 SLP185=

CYQF;2006-04-07 16:00;METAR CYQF 071600Z 20008KT 3SM BR OVC005 06/04 A3000 RMK SC8 SLP187=

CYQF;2006-04-07 17:00;METAR CYQF 071700Z 19003KT 4SM BR BKN005 07/05 A3001 RMK SC6 SLP189=

CYQF;2006-04-07 17:17;SPECI CYQF 071717Z 17005KT 4SM BR SCT005 BKN250 RMK SC3CI1=

CYQF;2006-04-07 18:00;METAR CYQF 071800Z 00000KT 10SM FEW005 SCT250 10/06 A3001 RMK SC2CI1 SLP184=

CYQF;2006-04-07 19:00;METAR CYQF 071900Z 32007KT 15SM SCT015TCU BKN250 11/06 A3001 RMK TCU4CI0 SLP186=

CYQF;2006-04-07 20:00;METAR CYQF 072000Z 36005KT 15SM SCT020 BKN250 11/06 A3001 RMK CU3CI1 SLP186=

CYQF;2006-04-07 21:00;METAR CYQF 072100Z 36005KT 15SM FEW020 SCT250 12/06 A3002 RMK CU2CI1 SLP185=

CYQF;2006-04-07 22:00;METAR CYQF 072200Z 35003KT 15SM FEW025 FEW100 BKN250 13/06 A3001 RMK CU2AC1CI1 SLP183=

CYQF;2006-04-07 23:00;METAR CYQF 072300Z 36002KT 15SM FEW025 FEW100 BKN250 13/05 A3000 RMK CU2AC1CI1 SLP180=

CYQF;2006-04-08 00:00;METAR CYQF 080000Z 02004KT 15SM FEW030 FEW100 BKN250 13/04 A2999 RMK CU1AC1CI1 SLP177=

CYQF;2006-04-08 04:00;METAR CYQF 080400Z 14003KT 15SM BKN250 07/03 A2998 RMK CI2 SLP180=

CYQF;2006-04-08 05:00;METAR CYQF 080500Z 00000KT 15SM BKN250 06/03 A2998 RMK CI3 SLP180=

CYQF;2006-04-08 06:00;METAR CYQF 080600Z 00000KT 15SM OVC250 05/03 A2997 RMK CI4 SLP173=

CYQF;2006-04-08 07:00;METAR CYQF 080700Z 00000KT 15SM OVC250 04/03 A2996 RMK CI4 SLP169=

CYQF;2006-04-08 08:00;METAR CYQF 080800Z 18002KT 10SM BKN250 02/02 A2995 RMK CI3 MIFG SLP165=

CYQF;2006-04-08 08:40;SPECI CYQF 080840Z 16003KT 2SM BR BKN250 RMK FG2CI2=

CYQF;2006-04-08 09:00;METAR CYQF 080900Z 12003KT 2SM BR BKN250 01/01 A2993 RMK FG2CI2 SLP160=

CYQF;2006-04-08 10:00;METAR CYQF 081000Z 07003KT 1SM BR SCT250 M01/M02 A2992 RMK FG2CI0 SLP157=

CYQF;2006-04-08 11:00;METAR CYQF 081100Z 15003KT 1 1/2SM BR SKC M02/M02 A2991 RMK FG1 SLP154=

CYQF;2006-04-08 12:00;METAR CYQF 081200Z 02002KT 2SM BR FEW250 M02/M03 A2990 RMK FG1CI1 SLP154=

CYQF;2006-04-08 13:00;METAR CYQF 081300Z 05006KT 2SM BR FEW100 BKN250 01/M00 A2989 RMK FG1AC2CI2 SLP151=

CYQF;2006-04-08 13:23;SPECI CYQF 081323Z 02002KT 4SM BR SCT100 BKN250 RMK AC3CI1=

CYQF;2006-04-08 14:00;METAR CYQF 081400Z 00000KT 10SM SCT090 BKN250 01/M00 A2989 RMK AC3CI1 SLP149=

CYQF;2006-04-08 15:00;METAR CYQF 081500Z 00000KT 15SM BKN090 BKN250 05/03 A2988 RMK AC6CI1 SLP144=

CYQF;2006-04-08 16:00;METAR CYQF 081600Z 12006KT 15SM BKN090 BKN250 08/04 A2987 RMK AC6CI1 SLP141=

CYQF;2006-04-08 17:00;METAR CYQF 081700Z 11010KT 15SM BKN090 BKN250 10/05 A2986 RMK AC5CI1 SLP138=

CYQF;2006-04-08 18:00;METAR CYQF 081800Z 11010KT 15SM FEW040 BKN090 BKN250 11/04 A2984 RMK CU1AC3CI2 SLP127=

CYQF;2006-04-08 19:00;METAR CYQF 081900Z 13008KT 15SM FEW040 BKN090 BKN250 12/04 A2982 RMK CU1AC3CI2 SLP121=

CYQF;2006-04-08 20:00;METAR CYQF 082000Z 14013KT 15SM FEW040 FEW090 BKN250 13/04 A2982 RMK CU1AC2CI2 SLP119=

CYQF;2006-04-08 21:00;METAR CYQF 082100Z 15012KT 15SM FEW040 SCT090 OVC250 12/03 A2980 RMK CU1AC2CI2 SLP114=

CYQF;2006-04-08 22:00;METAR CYQF 082200Z 12012KT 15SM SCT090 OVC250 12/04 A2977 RMK AC3CS3 SLP107=

CYQF;2006-04-08 23:00;METAR CYQF 082300Z 15010KT 15SM FEW100 OVC250 12/03 A2976 RMK AC2CS5 SLP102=

CYQF;2006-04-09 00:00;METAR CYQF 090000Z 15008KT 15SM FEW100 OVC250 12/03 A2975 RMK AC2CI5 SLP101=

CYQF;2006-04-09 01:00;METAR CYQF 090100Z 13005KT 15SM FEW100 OVC250 11/04 A2974 RMK AC2CI5 SLP098=

CYQF;2006-04-09 02:00;METAR CYQF 090200Z 13005KT 15SM SCT100 OVC250 10/04 A2972 RMK AC3CI3 SLP093=

CYQF;2006-04-09 03:00;METAR CYQF 090300Z 12004KT 15SM SCT100 OVC250 08/04 A2972 RMK AC3CI3 SLP088=

CYQF;2006-04-09 04:00;METAR CYQF 090400Z 12003KT 15SM BKN100 OVC250 08/04 A2972 RMK AC5CI2 SLP087=

CYQF;2006-04-09 05:00;METAR CYQF 090500Z 12003KT 15SM BKN100 OVC250 08/04 A2970 RMK AC5CI2 SLP083=

CYQF;2006-04-09 06:00;METAR CYQF 090600Z 00000KT 15SM BKN100 OVC250 07/03 A2968 RMK AC6CI2 SLP071=

CYQF;2006-04-09 07:00;METAR CYQF 090700Z 13005KT 15SM BKN070 BKN250 07/03 A2967 RMK AC5CI2 SLP066=

CYQF;2006-04-09 08:00;METAR CYQF 090800Z 17003KT 15SM FEW070 BKN250 06/03 A2965 RMK AC2CI2 SLP060=

CYQF;2006-04-09 09:00;METAR CYQF 090900Z 00000KT 15SM FEW070 BKN250 05/03 A2964 RMK AC2CI4 SLP055=

CYQF;2006-04-09 10:00;METAR CYQF 091000Z 00000KT 15SM SCT070 BKN250 04/03 A2964 RMK AC3CI4 SLP054=

CYQF;2006-04-09 11:00;METAR CYQF 091100Z 00000KT 15SM SCT090 OVC250 04/02 A2963 RMK AC3CI4 SLP053=

CYQF;2006-04-09 12:00;METAR CYQF 091200Z 00000KT 15SM BKN090 BKN250 04/02 A2964 RMK AC5CI2 SLP056=

CYQF;2006-04-09 12:24;SPECI CYQF 091224Z 21002KT 3SM -SHRA BR SCT030 BKN090 OVC250 RMK SC3AC3CI1=

CYQF;2006-04-09 13:00;METAR CYQF 091300Z 00000KT 8SM SCT030 BKN090 OVC250 04/03 A2964 RMK SC4AC2CI2 BR SLP058=

CYQF;2006-04-09 14:00;METAR CYQF 091400Z 00000KT 4SM BR SCT030 BKN090 OVC250 04/03 A2965 RMK SC3AC3CI1 SHS E-SE SLP059=

CYQF;2006-04-09 14:55;SPECI CYQF 091455Z 00000KT 4SM -SHRA BR SCT030 BKN090 OVC250 RMK SC4AC3CI1=

CYQF;2006-04-09 15:00;METAR CYQF 091500Z 00000KT 4SM -SHRA BR SCT030 BKN090 OVC250 06/04 A2966 RMK SC4AC3CI1 SLP065=

CYQF;2006-04-09 16:00;METAR CYQF 091600Z 36006KT 10SM -SHRA SCT030 BKN090 BKN250 08/04 A2965 RMK SC3AC2CI1 SLP063=

CYQF;2006-04-09 17:00;METAR CYQF 091700Z 29004KT 15SM FEW040 SCT100 BKN250 09/06 A2966 RMK SC2AC2CI2 SHS NE-SW SLP065=

CYQF;2006-04-09 18:00;METAR CYQF 091800Z 31009KT 15SM FEW040 SCT100 BKN250 10/05 A2966 RMK SC2AC2CI2 SLP061=

CYQF;2006-04-09 19:00;METAR CYQF 091900Z 32012KT 15SM SCT030 SCT100 BKN250 12/05 A2966 RMK CU3AC1CI1 SLP062=

CYQF;2006-04-09 20:00;METAR CYQF 092000Z 35012KT 15SM SCT030TCU SCT100 BKN250 12/04 A2966 RMK TCU3AC1CI0 SLP063=

CYQF;2006-04-09 21:00;METAR CYQF 092100Z 34013KT 15SM SCT030TCU BKN250 13/04 A2966 RMK TCU3CI1 SLP061=

CYQF;2006-04-09 22:00;METAR CYQF 092200Z 02010G15KT 15SM FEW030 SCT250 12/03 A2966 RMK CU2CI1 SLP060=

CYQF;2006-04-09 23:00;METAR CYQF 092300Z 02013KT 15SM FEW030 SCT250 12/03 A2964 RMK CU2CI1 SLP054=

CYQF;2006-04-10 00:00;METAR CYQF 100000Z 36008KT 15SM SCT090 12/03 A2964 RMK AC2 SLP057=

CYQF;2006-04-10 01:00;METAR CYQF 100100Z 06004KT 15SM FEW050 SCT090 11/02 A2964 RMK SC1AC2 SLP058=

CYQF;2006-04-10 02:00;METAR CYQF 100200Z 11003KT 15SM FEW050 BKN090 BKN250 10/04 A2964 RMK SC1AC4CI0 SLP058=

CYQF;2006-04-10 03:00;METAR CYQF 100300Z 00000KT 15SM FEW050 BKN090 09/04 A2965 RMK SC1AC3 SLP063=

CYQF;2006-04-10 04:00;METAR CYQF 100400Z 18003KT 15SM FEW050 BKN090 06/03 A2965 RMK SC1AC4 SLP063=

CYQF;2006-04-10 05:00;METAR CYQF 100500Z 00000KT 15SM SCT090 05/03 A2965 RMK AC2 SLP063=

CYQF;2006-04-10 06:00;METAR CYQF 100600Z 00000KT 15SM BKN090 04/03 A2965 RMK AC5 SLP062=

CYQF;2006-04-10 07:00;METAR CYQF 100700Z 19004KT 15SM BKN080 05/03 A2964 RMK AC7 SLP059=

CYQF;2006-04-10 08:00;METAR CYQF 100800Z 35004KT 15SM BKN080 BKN250 06/02 A2966 RMK AC6CI1 SLP065=

CYQF;2006-04-10 09:00;METAR CYQF 100900Z 03004KT 15SM BKN080 BKN250 05/02 A2964 RMK AC6CI1 SLP056=

CYQF;2006-04-10 10:00;METAR CYQF 101000Z 18003KT 15SM BKN080 BKN250 04/02 A2963 RMK AC5CI1 SLP053=

CYQF;2006-04-10 11:00;METAR CYQF 101100Z 23004KT 15SM SCT080 BKN250 04/02 A2962 RMK AC4CI1 SLP049=

CYQF;2006-04-10 12:00;METAR CYQF 101200Z 27002KT 15SM SCT080 BKN250 02/01 A2962 RMK AC3CI1 SLP051=

CYQF;2006-04-10 13:00;METAR CYQF 101300Z 15004KT 15SM SCT080 BKN120 BKN250 03/01 A2963 RMK AC3CI2CI1 SH NE-S SLP054=

CYQF;2006-04-10 14:00;METAR CYQF 101400Z 18004KT 15SM SCT060 BKN110 BKN250 03/02 A2965 RMK SC4AC2CI1 SH NE-S SLP061=

CYQF;2006-04-10 15:00;METAR CYQF 101500Z 00000KT 15SM SCT040 BKN100 BKN250 04/02 A2966 RMK SC3AC2CI2 SHS SE-SW VIS LWR S SLP066=

CYQF;2006-04-10 16:00;METAR CYQF 101600Z 28004KT 15SM SCT040 BKN100 BKN250 06/03 A2966 RMK SC3AC2CI2 SHS SE-SW VIS LWR S SLP066=

CYQF;2006-04-10 17:00;METAR CYQF 101700Z 36003KT 15SM FEW005 SCT040 BKN100 BKN250 07/02 A2966 RMK SF1SC3AC2CI1 SHS SE-SW SLP067=

CYQF;2006-04-10 18:00;METAR CYQF 101800Z 05003KT 15SM FEW008 BKN040 OVC100 09/03 A2966 RMK SF1SC5AC2 SHS SE SLP067=

CYQF;2006-04-10 19:00;METAR CYQF 101900Z 14003KT 15SM BKN030 OVC080 08/01 A2966 RMK SC5AC3 SLP067=

CYQF;2006-04-10 20:00;METAR CYQF 102000Z 23007KT 15SM BKN030 BKN080 OVC250 08/03 A2966 RMK SC5AC2CI1 SLP065=

CYQF;2006-04-10 21:00;METAR CYQF 102100Z 24005KT 15SM VCSH FEW012 BKN030 BKN080 OVC250 08/04 A2965 RMK SF1SC4AC2CI1 SLP064=

CYQF;2006-04-10 22:00;METAR CYQF 102200Z 18005KT 15SM FEW012 SCT030 SCT080 BKN250 08/03 A2964 RMK SF1CU2AC1CI0 SLP060=

CYQF;2006-04-10 23:00;METAR CYQF 102300Z 22004KT 15SM FEW030 SCT080 BKN250 09/03 A2962 RMK CU2AC2CI1 SLP056=

CYQF;2006-04-11 00:00;METAR CYQF 110000Z 00000KT 15SM FEW030 SCT080 BKN250 09/01 A2963 RMK CU2AC2CI2 SLP057=

CYQF;2006-04-11 01:00;METAR CYQF 110100Z 00000KT 15SM SCT080 BKN250 10/M01 A2963 RMK AC2CI2 SLP058=

CYQF;2006-04-11 02:00;METAR CYQF 110200Z 00000KT 15SM SCT080 BKN250 08/M00 A2964 RMK AC2CI2 SLP060=

CYQF;2006-04-11 03:00;METAR CYQF 110300Z 00000KT 15SM SCT040 BKN080 07/M00 A2965 RMK SC3AC3 SLP065=

CYQF;2006-04-11 04:00;METAR CYQF 110400Z 00000KT 15SM OVC050 05/01 A2966 RMK SC8 SLP070=

CYQF;2006-04-11 05:00;METAR CYQF 110500Z 00000KT 15SM BKN050 OVC080 05/00 A2967 RMK SC6AC2 SLP071=

CYQF;2006-04-11 06:00;METAR CYQF 110600Z 00000KT 15SM SCT050 BKN090 OVC250 05/02 A2967 RMK SC3AC1CI2 SLP070=

CYQF;2006-04-11 07:00;METAR CYQF 110700Z 29004KT 15SM FEW050 SCT080 BKN250 08/00 A2967 RMK SC2AC2CI2 SLP071=

CYQF;2006-04-11 08:00;METAR CYQF 110800Z 22004KT 15SM FEW050 FEW090 BKN250 03/00 A2967 RMK SC2AC1CI1 SLP071=

CYQF;2006-04-11 09:00;METAR CYQF 110900Z 21004KT 15SM FEW050 FEW250 01/M00 A2968 RMK SC1CI0 SLP080=

CYQF;2006-04-11 10:00;METAR CYQF 111000Z 24003KT 15SM FEW250 00/M01 A2969 RMK CI0 SLP082=

CYQF;2006-04-11 11:00;METAR CYQF 111100Z 16004KT 15SM SCT250 M00/M01 A2970 RMK CI1 SLP086=

CYQF;2006-04-11 12:00;METAR CYQF 111200Z 19002KT 15SM FEW090 SCT250 M01/M02 A2972 RMK AC1CI1 SLP092=

CYQF;2006-04-11 13:00;METAR CYQF 111300Z 24005KT 15SM SCT100 BKN250 M01/M03 A2973 RMK AC3CI1 SLP096=

CYQF;2006-04-11 14:00;METAR CYQF 111400Z 24002KT 15SM FEW100 BKN250 M00/M01 A2975 RMK AC2CI2 BR SLP101=

CYQF;2006-04-11 15:00;METAR CYQF 111500Z 26004KT 15SM FEW120 BKN250 03/01 A2976 RMK AC2CI1 SLP103=

CYQF;2006-04-11 16:00;METAR CYQF 111600Z 00000KT 15SM FEW120 BKN250 07/01 A2977 RMK AC1CI2 SLP108=

CYQF;2006-04-11 17:00;METAR CYQF 111700Z 07002KT 15SM FEW120 BKN250 10/01 A2978 RMK AC1CI2 SLP111=

CYQF;2006-04-11 18:00;METAR CYQF 111800Z 33003KT 15SM FEW045 BKN250 11/M01 A2978 RMK CU2CI1 SLP106=

CYQF;2006-04-11 19:00;METAR CYQF 111900Z 05005KT 15SM SCT050 BKN250 12/M03 A2979 RMK CU3CI1 TCU/VIRGA ASOCTD SLP107=

CYQF;2006-04-11 20:00;METAR CYQF 112000Z 35010G15KT 15SM BKN050TCU 11/M03 A2979 RMK TCU7 SHS ALQDS SLP109=

CYQF;2006-04-11 21:00;METAR CYQF 112100Z 23003KT 15SM SCT050TCU BKN090 BKN250 10/M03 A2981 RMK TCU3AC1CI0 VIRGA SLP121=

CYQF;2006-04-11 22:00;METAR CYQF 112200Z 03010KT 15SM FEW045TCU FEW100 BKN250 11/M01 A2981 RMK TCU2AC1CI1 VIRGA SLP120=

CYQF;2006-04-11 23:00;METAR CYQF 112300Z 06006KT 15SM FEW050TCU FEW100 SCT250 12/M01 A2981 RMK TCU2AC1CI1 VIRGA SLP120=

CYQF;2006-04-12 00:00;METAR CYQF 120000Z 04003KT 15SM FEW050TCU FEW100 SCT250 11/M03 A2981 RMK TCU2AC1CI1 SLP122=

CYQF;2006-04-12 01:00;METAR CYQF 120100Z 06003KT 15SM FEW050TCU FEW100 SCT250 11/M03 A2981 RMK TCU1AC1CI1 SLP121=

CYQF;2006-04-12 02:00;METAR CYQF 120200Z 09003KT 15SM FEW050 FEW100 SCT250 10/M02 A2981 RMK SC1AC1CI1 SLP122=

CYQF;2006-04-12 03:00;METAR CYQF 120300Z 24002KT 15SM FEW100 FEW250 06/M02 A2983 RMK AC1CI1 SLP130=

CYQF;2006-04-12 04:00;METAR CYQF 120400Z 19004KT 15SM FEW250 03/M01 A2984 RMK CI1 SLP135=

CYQF;2006-04-12 05:00;METAR CYQF 120500Z 19004KT 15SM SCT250 02/M01 A2985 RMK CI2 SLP137=

CYQF;2006-04-12 06:00;METAR CYQF 120600Z 17003KT 15SM SCT250 02/M01 A2985 RMK CI2 SLP131=

CYQF;2006-04-12 07:00;METAR CYQF 120700Z 18005KT 15SM SCT250 02/M02 A2984 RMK CI2 SLP129=

CYQF;2006-04-12 08:00;METAR CYQF 120800Z 17007KT 15SM FEW250 02/M01 A2984 RMK CI1 SLP129=

CYQF;2006-04-12 09:00;METAR CYQF 120900Z 18008KT 15SM FEW250 02/M01 A2983 RMK CI1 SLP127=

CYQF;2006-04-12 10:00;METAR CYQF 121000Z 16003KT 15SM SCT250 01/M01 A2982 RMK CI1 SLP124=

CYQF;2006-04-12 11:00;METAR CYQF 121100Z 17008KT 15SM SCT250 00/M02 A2981 RMK CI1 SLP120=

CYQF;2006-04-12 12:00;METAR CYQF 121200Z 17006KT 15SM SCT250 M00/M02 A2980 RMK CI1 SLP118=

CYQF;2006-04-12 13:00;METAR CYQF 121300Z 17004KT 15SM FEW100 SCT250 M00/M02 A2979 RMK AC1CI1 SLP116=

CYQF;2006-04-12 14:00;METAR CYQF 121400Z 16004KT 15SM FEW100 BKN250 01/M01 A2979 RMK AC1CI2 SLP114=

CYQF;2006-04-12 15:00;METAR CYQF 121500Z 16008KT 15SM FEW100 BKN250 03/M00 A2978 RMK AC2CI2 SLP112=

CYQF;2006-04-12 16:00;METAR CYQF 121600Z 17008KT 15SM SCT100 BKN250 06/00 A2976 RMK AC3CI2 SLP107=

CYQF;2006-04-12 17:00;METAR CYQF 121700Z 17007KT 15SM FEW050 SCT100 BKN250 09/00 A2975 RMK SC2AC2CI2 SLP102=

CYQF;2006-04-12 18:00;METAR CYQF 121800Z 18006KT 15SM FEW050 SCT100 BKN250 12/M01 A2972 RMK SC2AC2CI1 SLP087=

CYQF;2006-04-12 19:00;METAR CYQF 121900Z 15009KT 15SM FEW050 SCT100 BKN250 13/M02 A2968 RMK CU2AC2CI2 SLP075=

CYQF;2006-04-12 20:00;METAR CYQF 122000Z 25012G20KT 15SM SCT050 BKN100 BKN250 14/M04 A2965 RMK CU4AC2CI1 SLP066=

CYQF;2006-04-12 21:00;METAR CYQF 122100Z 19012G20KT 15SM SCT050 BKN100 BKN250 13/M03 A2964 RMK CU3AC2CI1 SLP057=

CYQF;2006-04-12 22:00;METAR CYQF 122200Z 17010G18KT 15SM FEW040 SCT080 BKN110 BKN250 14/M03 A2959 RMK CU2AC2AC2CI1 SLP043=

CYQF;2006-04-12 23:00;METAR CYQF 122300Z 17013KT 15SM FEW040 BKN080 BKN110 14/M03 A2956 RMK CU2AC3AC2 VIRGA SLP033=

CYQF;2006-04-13 01:00;METAR CYQF 130100Z 20010KT 15SM FEW040 SCT080 BKN250 13/M02 A2950 RMK CU1AC3CI1 SLP012=

CYQF;2006-04-13 02:00;METAR CYQF 130200Z 20005KT 15SM FEW040 SCT080 SCT250 10/M01 A2949 RMK SC1AC2CI0 OBS TAKEN +23 SLP008=

CYQF;2006-04-13 03:00;METAR CYQF 130300Z 25010KT 15SM FEW040 SCT080 SCT250 07/M03 A2951 RMK SC1AC2CI0 OBS TAKEN +43 SLP018=

CYQF;2006-04-13 04:00;METAR CYQF 130400Z 25004KT 15SM FEW060 FEW250 05/M03 A2951 RMK SC1CI1 SLP019=

CYQF;2006-04-13 05:00;METAR CYQF 130500Z 27007KT 15SM FEW250 05/M04 A2952 RMK CI1 SLP021=

CYQF;2006-04-13 06:00;METAR CYQF 130600Z 28005KT 15SM FEW060 SCT250 03/M05 A2952 RMK SC1CI1 SLP017=

CYQF;2006-04-13 07:00;METAR CYQF 130700Z 27005KT 15SM FEW100 BKN250 01/M04 A2954 RMK AC2CI2 SLP021=

CYQF;2006-04-13 08:00;METAR CYQF 130800Z 29003KT 15SM BKN080 OVC250 03/M04 A2956 RMK AC5CI2 SLP028=

CYQF;2006-04-13 09:00;METAR CYQF 130900Z 00000KT 15SM BKN090 OVC250 02/M04 A2954 RMK AC6CI2 SLP023=

CYQF;2006-04-13 10:00;METAR CYQF 131000Z 21006KT 15SM OVC100 01/M03 A2955 RMK AC8 SLP026=

CYQF;2006-04-13 11:00;METAR CYQF 131100Z 00000KT 15SM OVC100 01/M03 A2956 RMK AC7 OBS TAKEN +07 SLP031=

CYQF;2006-04-13 12:00;METAR CYQF 131200Z 08006KT 15SM OVC100 02/M02 A2956 RMK AC7 SLP030=

CYQF;2006-04-13 13:00;METAR CYQF 131300Z 35005KT 15SM FEW040 OVC080 02/M02 A2958 RMK SC2AC6 VIRGA SLP036=

CYQF;2006-04-13 14:00;METAR CYQF 131400Z 33002KT 15SM FEW020 BKN080 03/M02 A2961 RMK SC2AC6 VIRGA SLP044=

CYQF;2006-04-13 15:00;METAR CYQF 131500Z 02002KT 15SM FEW020 FEW080 BKN250 04/M01 A2963 RMK SC1AC1CI2 SLP057=

CYQF;2006-04-13 16:00;METAR CYQF 131600Z 00000KT 15SM FEW020 FEW080 SCT250 05/M01 A2964 RMK SC1AC1CI1 TR AC SLP060=

CYQF;2006-04-13 17:00;METAR CYQF 131700Z 06005KT 15SM FEW025 FEW250 07/M01 A2964 RMK SC1CI1 TR CI SLP060=

CYQF;2006-04-13 18:00;METAR CYQF 131800Z 13005KT 15SM FEW030 FEW250 08/M01 A2962 RMK CU1CI1 TR CI SLP055=

CYQF;2006-04-13 19:00;METAR CYQF 131900Z 16008KT 15SM FEW040 FEW250 10/M03 A2959 RMK CU1CI1 TR CLD SLP045=

CYQF;2006-04-13 20:00;METAR CYQF 132000Z 19008KT 15SM FEW040 FEW250 12/M04 A2957 RMK CU2CI1 SLP040=

CYQF;2006-04-13 21:00;METAR CYQF 132100Z 18008KT 15SM FEW060 FEW250 14/M04 A2955 RMK CU1CI0 SLP024=

CYQF;2006-04-13 22:00;METAR CYQF 132200Z 23006KT 15SM FEW070 BKN250 15/M06 A2952 RMK CU1CI2 TR CU SLP017=

CYQF;2006-04-13 23:00;METAR CYQF 132300Z 23013G20KT 15SM FEW070 BKN250 15/M06 A2951 RMK CU1CI3 TR CU SLP014=

CYQF;2006-04-14 00:00;METAR CYQF 140000Z 24014G22KT 15SM FEW070 BKN210 15/M07 A2950 RMK CU1CI3 SLP009=

CYQF;2006-04-14 01:00;METAR CYQF 140100Z 23015G23KT 15SM SCT140 BKN210 11/M06 A2950 RMK AC3CI2 SLP007=

CYQF;2006-04-14 02:00;METAR CYQF 140200Z 23012KT 15SM SCT140 OVC210 10/M06 A2950 RMK AC3CI3 SLP007=

CYQF;2006-04-14 03:00;METAR CYQF 140300Z 21013KT 15SM SCT140 OVC210 08/M05 A2948 RMK AC3CI3 SLP007=

CYQF;2006-04-14 04:00;METAR CYQF 140400Z 21009KT 15SM SCT140 OVC210 07/M05 A2948 RMK AC3CI3 SLP006=

CYQF;2006-04-14 05:00;METAR CYQF 140500Z 21010KT 15SM SCT140 OVC210 05/M04 A2946 RMK AC3CI3 SLP998=

CYQF;2006-04-14 06:00;METAR CYQF 140600Z 21013KT 15SM SCT140 OVC210 07/M03 A2944 RMK AC3CI2 SLP987=

CYQF;2006-04-14 07:00;METAR CYQF 140700Z 20007KT 15SM SCT140 BKN230 05/M03 A2941 RMK AC3CI2 SLP980=

CYQF;2006-04-14 08:00;METAR CYQF 140800Z 21006KT 15SM FEW140 BKN230 04/M03 A2939 RMK AC2CI2 SLP974=

CYQF;2006-04-14 09:00;METAR CYQF 140900Z 17005KT 15SM FEW120 BKN230 03/M03 A2937 RMK AC2CI2 SLP962=

CYQF;2006-04-14 10:00;METAR CYQF 141000Z 00000KT 15SM SCT100 OVC250 04/M03 A2935 RMK AC3CI2 SLP957=

CYQF;2006-04-14 11:00;METAR CYQF 141100Z 00000KT 15SM BKN120 OVC250 03/M03 A2935 RMK AC5CI2 SLP955=

CYQF;2006-04-14 12:00;METAR CYQF 141200Z 19008KT 15SM SCT120 BKN250 06/M03 A2934 RMK AC3CI2 SLP948=

CYQF;2006-04-14 13:00;METAR CYQF 141300Z 17007KT 15SM FEW120 BKN250 05/M03 A2933 RMK AC2CI2 SLP944=

CYQF;2006-04-14 14:00;METAR CYQF 141400Z 19008KT 15SM FEW120 BKN250 06/M01 A2931 RMK AC2CI2 SLP939=

CYQF;2006-04-14 15:00;METAR CYQF 141500Z 18006KT 15SM FEW025 FEW120 BKN250 09/M02 A2929 RMK SC1AC2CI3 SLP934=

CYQF;2006-04-14 16:00;METAR CYQF 141600Z 21013KT 15SM FEW025 FEW120 BKN250 11/M02 A2926 RMK SC1AC2CI4 SLP926=

CYQF;2006-04-14 17:00;METAR CYQF 141700Z 22015G25KT 15SM FEW025 SCT120 BKN250 12/M02 A2925 RMK CU1AC3CI2 VIRGA SLP923=

CYQF;2006-04-14 18:00;METAR CYQF 141800Z 18015G25KT 15SM FEW025 SCT120 BKN250 15/M03 A2924 RMK CU1AC2CI2 VIRGA E SLP912=

CYQF;2006-04-14 19:00;METAR CYQF 141900Z 18016G26KT 15SM FEW040 FEW120 OVC250 16/M03 A2921 RMK CU1AC1CI2 SLP903=

CYQF;2006-04-14 20:00;METAR CYQF 142000Z 18015G28KT 15SM FEW050 FEW120 OVC250 17/M02 A2919 RMK CU2AC1CI2 SLP896=

CYQF;2006-04-14 21:00;METAR CYQF 142100Z 19017G27KT 15SM FEW060 FEW120 BKN250 17/M03 A2916 RMK CU2AC1CI2 SLP887=

CYQF;2006-04-14 22:00;METAR CYQF 142200Z 20014KT 15SM SCT060 BKN250 18/M03 A2913 RMK CU3CI2 VIRGA SLP877=

CYQF;2006-04-14 23:00;METAR CYQF 142300Z 21014KT 15SM SCT060 OVC250 17/M03 A2912 RMK CU3CI3 VIRGA SLP873=

CYQF;2006-04-15 00:00;METAR CYQF 150000Z 22012G18KT 15SM FEW060 SCT120 OVC250 17/M03 A2911 RMK CU2AC2CI3 SLP865=

CYQF;2006-04-15 01:00;METAR CYQF 150100Z 21014G21KT 15SM FEW060 OVC250 15/M03 A2910 RMK CU2CI3 SLP863=

CYQF;2006-04-15 02:00;METAR CYQF 150200Z 22013KT 15SM FEW060 BKN250 13/M03 A2910 RMK CU1CI2 SLP863=

CYQF;2006-04-15 03:00;METAR CYQF 150300Z 22012KT 15SM FEW060 SCT250 10/M02 A2910 RMK CU1CI2 SLP868=

CYQF;2006-04-15 04:00;METAR CYQF 150400Z 22013KT 15SM FEW060 SCT250 08/M02 A2911 RMK CU1CI1 SLP870=

CYQF;2006-04-15 05:00;METAR CYQF 150500Z 21008KT 15SM SCT250 05/M03 A2911 RMK CI1 SLP871=

CYQF;2006-04-15 06:00;METAR CYQF 150600Z 16003KT 15SM BKN250 06/M03 A2913 RMK CI2 SLP874=

CYQF;2006-04-15 07:00;METAR CYQF 150700Z 33010KT 15SM BKN250 05/M02 A2917 RMK CI3 SLP888=

CYQF;2006-04-15 08:00;METAR CYQF 150800Z 35010G18KT 15SM FEW100 OVC250 02/M03 A2921 RMK AC1CI4 SLP901=

CYQF;2006-04-15 09:00;METAR CYQF 150900Z 36010G15KT 15SM FEW100 OVC250 01/M04 A2922 RMK AC1CI6 SLP908=

CYQF;2006-04-15 10:00;METAR CYQF 151000Z 32010KT 15SM SCT100 BKN250 01/M06 A2926 RMK AC2CI3 SLP919=

CYQF;2006-04-15 11:00;METAR CYQF 151100Z 33012G17KT 15SM SCT050 BKN100 OVC250 01/M04 A2928 RMK SC3AC2CI2 SLP928=

CYQF;2006-04-15 12:21;SPECI CYQF 151221Z 35010KT 6SM -SN BKN040 BKN090 OVC250 RMK SC6AC1CI1 VIS N-W 3=

CYQF;2006-04-15 12:45;SPECI CYQF 151245Z 34005KT 15SM BKN040 OVC090 RMK SC7AC1 VIS E 5=

CYQF;2006-04-15 13:00;METAR CYQF 151300Z 30006KT 15SM -SHSN FEW008 BKN040 OVC090 00/M02 A2933 RMK SF2SC5AC2 SLP947=

CYQF;2006-04-15 13:41;SPECI CYQF 151341Z 34003KT 15SM FEW008 BKN040 BKN090 OVC250 RMK SF1SC5AC2CI1 TR SF VIRGA SW+S=

CYQF;2006-04-15 14:00;METAR CYQF 151400Z 30002KT 15SM FEW008 BKN040 BKN090 OVC250 00/M02 A2935 RMK SC1SC5AC2CI1 TR SF VIRGA S SLP954=

CYQF;2006-04-15 14:11;SPECI CYQF 151411Z 23003KT 15SM -SHSN FEW008 BKN040 BKN090 OVC250 RMK SF1SC5AC2CI1 TR SF=

CYQF;2006-04-15 14:50;SPECI CYQF 151450Z 30008KT 1 1/2SM -SHSN FEW008 OVC040 RMK SF2SC6=

CYQF;2006-04-15 15:00;METAR CYQF 151500Z 30006KT 1 1/2SM -SHSN FEW008 OVC040 01/M01 A2937 RMK SF2SC6 SLP971=

CYQF;2006-04-15 15:11;SPECI CYQF 151511Z 29006KT 4SM -SHSN FEW008 OVC040 RMK SF2SC6=

CYQF;2006-04-15 16:00;METAR CYQF 151600Z 26004KT 10SM -SN FEW006 OVC040 00/M01 A2939 RMK SF1SC7 SLP976=

CYQF;2006-04-15 16:47;SPECI CYQF 151647Z 28004KT 15SM FEW006 BKN040 OVC090 RMK SF1SC6AC1=

CYQF;2006-04-15 17:00;METAR CYQF 151700Z 25007KT 15SM FEW015 BKN040 OVC090 02/M03 A2941 RMK SF1SC6AC1 SLP983=

CYQF;2006-04-15 17:40;SPECI CYQF 151740Z 27003KT 10SM -SN FEW015 BKN035 OVC090 RMK SF2SC6AC1=

CYQF;2006-04-15 18:00;METAR CYQF 151800Z 33002KT 15SM -SN FEW015 BKN035 OVC090 03/M03 A2943 RMK SC2SC6AC1 SLP992=

CYQF;2006-04-15 19:00;METAR CYQF 151900Z 20004KT 15SM FEW020 BKN040 OVC090 04/M03 A2943 RMK SC2SC6AC1 SLP992=

CYQF;2006-04-15 20:00;METAR CYQF 152000Z 17002KT 15SM FEW030 BKN050 OVC090 05/M04 A2943 RMK SC2SC6AC1 SLP993=

CYQF;2006-04-15 21:00;METAR CYQF 152100Z 06004KT 15SM FEW030 BKN050 OVC090 05/M04 A2946 RMK SC2SC5AC1 SHSN ALQDS SLP003=

CYQF;2006-04-15 22:00;METAR CYQF 152200Z 30003KT 15SM FEW030 OVC050 04/M03 A2947 RMK SC2SC6 SHSN ALQDS SLP008=

CYQF;2006-04-15 22:39;SPECI CYQF 152239Z 14004KT 10SM -SN FEW025 OVC050 RMK SC2SC6=

CYQF;2006-04-15 23:00;METAR CYQF 152300Z 13003KT 10SM -SN FEW025 OVC050 03/M01 A2948 RMK SC2SC6 SLP012=

CYQF;2006-04-15 23:15;SPECI CYQF 152315Z 09007KT 15SM FEW025 SCT050 BKN250 RMK SC2SC2CI1 TCU TPS W-NW=

CYQF;2006-04-16 00:00;METAR CYQF 160000Z 14005KT 15SM FEW025 SCT050 SCT250 05/M02 A2947 RMK SC1SC2CI0 SLP008=

CYQF;2006-04-16 01:00;METAR CYQF 160100Z 13010KT 15SM FEW050 FEW250 06/M03 A2947 RMK SC2CI0 SLP008=

CYQF;2006-04-16 02:00;METAR CYQF 160200Z 12006KT 15SM FEW050 FEW250 04/M01 A2947 RMK SC1CI1 SLP009=

CYQF;2006-04-16 03:00;METAR CYQF 160300Z 17003KT 15SM FEW050 FEW250 01/M02 A2948 RMK SC1CI1 SLP016=

CYQF;2006-04-16 04:00;METAR CYQF 160400Z 00000KT 15SM FEW250 00/M03 A2947 RMK CI1 SLP013=

CYQF;2006-04-16 05:00;METAR CYQF 160500Z 23005KT 15SM FEW250 M03/M06 A2948 RMK CI1 SLP016=

CYQF;2006-04-16 06:00;METAR CYQF 160600Z 25004KT 15SM SCT250 M02/M04 A2949 RMK CI2 SLP021=

CYQF;2006-04-16 07:00;METAR CYQF 160700Z 00000KT 15SM SCT080 BKN250 M01/M03 A2947 RMK AC2CI1 SLP016=

CYQF;2006-04-16 08:00;METAR CYQF 160800Z 00000KT 15SM BKN070 BKN250 M01/M03 A2946 RMK AC6CI1 SLP011=

CYQF;2006-04-16 09:00;METAR CYQF 160900Z 00000KT 15SM BKN070 BKN250 M01/M02 A2946 RMK AC5CI1 SLP006=

CYQF;2006-04-16 10:00;METAR CYQF 161000Z 06003KT 15SM SCT070 BKN250 M01/M03 A2943 RMK AC3CI3 SLP998=

CYQF;2006-04-16 11:00;METAR CYQF 161100Z 00000KT 15SM BKN080 OVC250 M02/M04 A2945 RMK AC6CI2 SLP003=

CYQF;2006-04-16 13:00;METAR CYQF 161300Z 21003KT 12SM FEW030 SCT080 BKN250 M04/M06 A2945 RMK SC1AC3CI2 VIRGA BR SLP005=

CYQF;2006-04-16 14:00;METAR CYQF 161400Z 18004KT 15SM FEW030 FEW080 FEW250 M02/M04 A2944 RMK SC1AC1CI0 CB DIST N SLP003=

CYQF;2006-04-16 15:00;METAR CYQF 161500Z 15002KT 15SM FEW040 FEW080 FEW250 02/M01 A2945 RMK SC1AC1CI0 CB DIST N SLP004=

CYQF;2006-04-16 16:00;METAR CYQF 161600Z 20002KT 15SM FEW040 SCT250 04/M01 A2946 RMK SC2CI0 TCU NW SLP008=

CYQF;2006-04-16 17:00;METAR CYQF 161700Z 27006KT 15SM FEW040 BKN080 BKN250 05/M02 A2946 RMK SC2AC2CI0 SLP010=

CYQF;2006-04-16 18:00;METAR CYQF 161800Z 28013KT 15SM FEW006 FEW030 BKN080 05/M02 A2949 RMK SF1SC2AC5 SLP021=

CYQF;2006-04-16 19:00;METAR CYQF 161900Z 29010KT 15SM FEW008 SCT040 BKN080 06/M03 A2950 RMK CU1SC3AC3 TCU ASOCTD SH NW VIRGA SE-SW SLP023=

CYQF;2006-04-16 20:00;METAR CYQF 162000Z 28010KT 15SM FEW008 SCT040 BKN090 07/M03 A2953 RMK SC1SC2AC4 TCU ASOCTD VIRGA ALQDS SLP032=

CYQF;2006-04-16 21:00;METAR CYQF 162100Z 30012KT 15SM VCSH SCT050 BKN090 BKN250 08/M04 A2955 RMK SC3AC2CI1 TCU ASOCTD VCSH SE-W-NW SLP035=

CYQF;2006-04-16 22:00;METAR CYQF 162200Z 27012KT 15SM VCSH SCT050 BKN090 BKN250 06/M07 A2959 RMK SC4AC2CI1 CB ASOCTD LTGCG DIST N HVY SHRA S+NE SLP047=

CYQF;2006-04-16 23:00;METAR CYQF 162300Z 33015G22KT 15SM SCT050 BKN090 BKN250 04/M03 A2961 RMK SC3AC2CI1 TCU ASOCTD HVY SHRA NW SLP055=

CYQF;2006-04-17 00:00;METAR CYQF 170000Z 02009KT 15SM FEW050 SCT090 SCT250 05/M03 A2963 RMK SC2AC1CI0 TCU ASOCTD VIRGA SLP070=

CYQF;2006-04-17 01:00;METAR CYQF 170100Z 34005KT 15SM FEW050 SCT090 BKN250 05/M05 A2966 RMK SC2AC1CI1 TCU ASOCTD VIRGA SLP078=

CYQF;2006-04-17 02:00;METAR CYQF 170200Z 03005KT 15SM FEW040 SCT090 BKN250 04/M03 A2967 RMK SC2AC1CI1 TCU ASOCTD VIRGA SLP082=

CYQF;2006-04-17 03:00;METAR CYQF 170300Z 16003KT 15SM FEW040 FEW090 SCT250 02/M04 A2970 RMK SC2AC1CI0 SLP092=

CYQF;2006-04-17 04:00;METAR CYQF 170400Z 36003KT 15SM FEW040 FEW090 M00/M04 A2969 RMK SC1AC1 SLP090=

CYQF;2006-04-17 05:00;METAR CYQF 170500Z 32003KT 15SM FEW090 M02/M06 A2972 RMK AC1 SLP098=

CYQF;2006-04-17 06:00;METAR CYQF 170600Z 27004KT 15SM FEW090 M02/M05 A2973 RMK AC1 SLP102=

CYQF;2006-04-17 07:00;METAR CYQF 170700Z 18007KT 15SM SKC M04/M07 A2974 RMK SLP104=

CYQF;2006-04-17 08:00;METAR CYQF 170800Z 00000KT 15SM FEW090 M04/M07 A2977 RMK AC2 SLP114=

CYQF;2006-04-17 09:00;METAR CYQF 170900Z 24005KT 15SM FEW250 M05/M07 A2977 RMK CI1 SLP117=

CYQF;2006-04-17 10:00;METAR CYQF 171000Z 20002KT 15SM FEW090 FEW250 M04/M06 A2977 RMK AC1CI1 SLP117=

CYQF;2006-04-17 11:00;METAR CYQF 171100Z 26006KT 15SM FEW090 FEW250 M06/M08 A2977 RMK AC1CI1 SLP117=

CYQF;2006-04-17 12:00;METAR CYQF 171200Z 20003KT 15SM FEW250 M06/M09 A2978 RMK CI2 SLP125=

CYQF;2006-04-17 13:00;METAR CYQF 171300Z 19004KT 15SM SCT250 M06/M09 A2980 RMK CI2 SLP131=

CYQF;2006-04-17 14:00;METAR CYQF 171400Z 20004KT 15SM SCT250 M05/M08 A2983 RMK CI2 SLP139=

CYQF;2006-04-17 15:00;METAR CYQF 171500Z 22004KT 15SM FEW100 SCT250 M03/M06 A2985 RMK AC2CI1 SLP147=

CYQF;2006-04-17 16:00;METAR CYQF 171600Z 26005KT 15SM FEW100 BKN250 02/M04 A2985 RMK AC2CI1 SLP148=

CYQF;2006-04-17 17:00;METAR CYQF 171700Z 33007KT 15SM FEW100 BKN250 06/M09 A2985 RMK AC2CI2 SLP150=

CYQF;2006-04-17 18:00;METAR CYQF 171800Z 35008KT 15SM FEW100 BKN250 07/M09 A2986 RMK AC2CI2 SLP146=

CYQF;2006-04-17 19:00;METAR CYQF 171900Z 34006KT 15SM FEW060 FEW100 BKN250 07/M10 A2987 RMK CU1AC1CI1 SLP148=

CYQF;2006-04-17 20:00;METAR CYQF 172000Z 01012KT 15SM FEW060 FEW100 SCT250 08/M10 A2987 RMK CU1AC1CI1 SLP149=

CYQF;2006-04-17 21:00;METAR CYQF 172100Z 15006KT 15SM FEW070 SCT250 09/M11 A2988 RMK CU2CI1 TCU DIST SW-NW SLP153=

CYQF;2006-04-17 22:00;METAR CYQF 172200Z 35008KT 15SM FEW070 BKN250 10/M12 A2988 RMK CU2CI1 TCU DIST SW-NW SLP154=

CYQF;2006-04-17 23:00;METAR CYQF 172300Z 27007KT 15SM SCT070 BKN250 10/M13 A2990 RMK CU3CI1 TCU ASOCTD SLP160=

CYQF;2006-04-18 00:00;METAR CYQF 180000Z 35010G18KT 15SM BKN060TCU BKN250 09/M11 A2993 RMK TCU5CI2 VIRGA SLP171=

CYQF;2006-04-18 01:00;METAR CYQF 180100Z 36006KT 15SM BKN060 BKN250 07/M09 A2996 RMK SC5CI1 VIRGA SLP182=

CYQF;2006-04-18 02:00;METAR CYQF 180200Z 36003KT 15SM BKN060 06/M08 A2998 RMK SC5 VIRGA SLP186=

CYQF;2006-04-18 03:00;METAR CYQF 180300Z 00000KT 15SM SCT050 02/M08 A3000 RMK SC2 SLP200=

CYQF;2006-04-18 04:00;METAR CYQF 180400Z 00000KT 15SM FEW050 02/M07 A3003 RMK SC1 SLP209=

CYQF;2006-04-18 06:00;METAR CYQF 180600Z 26005KT 15SM SKC M04/M08 A3006 RMK SLP218=

CYQF;2006-04-18 07:00;METAR CYQF 180700Z 26005KT 15SM SKC M02/M08 A3009 RMK SLP225=

CYQF;2006-04-18 08:00;METAR CYQF 180800Z 19005KT 15SM SKC M04/M08 A3011 RMK SLP231=

CYQF;2006-04-18 09:00;METAR CYQF 180900Z 24003KT 15SM SKC M04/M08 A3012 RMK SLP234=

CYQF;2006-04-18 10:00;METAR CYQF 181000Z 18003KT 15SM SKC M06/M10 A3013 RMK SLP237=

CYQF;2006-04-18 11:00;METAR CYQF 181100Z 20004KT 15SM SKC M06/M10 A3014 RMK SLP240=

CYQF;2006-04-18 12:00;METAR CYQF 181200Z 21004KT 15SM SKC M06/M09 A3014 RMK SLP245=

CYQF;2006-04-18 13:00;METAR CYQF 181300Z 19005KT 15SM SKC M05/M10 A3015 RMK SLP247=

CYQF;2006-04-18 14:00;METAR CYQF 181400Z 20002KT 15SM SKC M03/M08 A3015 RMK SLP248=

CYQF;2006-04-18 15:00;METAR CYQF 181500Z 21004KT 15SM FEW250 01/M07 A3016 RMK CI0 SLP252=

CYQF;2006-04-18 16:00;METAR CYQF 181600Z 22004KT 15SM FEW250 05/M08 A3017 RMK CI0 SLP254=

CYQF;2006-04-18 17:00;METAR CYQF 181700Z 19003KT 15SM FEW250 08/M09 A3018 RMK CI0 SLP257=

CYQF;2006-04-18 18:00;METAR CYQF 181800Z 15006KT 15SM FEW250 09/M11 A3017 RMK CI0 SLP253=

CYQF;2006-04-18 19:00;METAR CYQF 181900Z 18010G17KT 15SM FEW250 11/M10 A3015 RMK CI0 SLP247=

CYQF;2006-04-18 20:00;METAR CYQF 182000Z 20010G15KT 15SM FEW250 12/M11 A3013 RMK CI0 SLP241=

CYQF;2006-04-18 21:00;METAR CYQF 182100Z 20010G17KT 15SM FEW250 13/M12 A3012 RMK CI0 SLP231=

CYQF;2006-04-18 22:00;METAR CYQF 182200Z 17010G15KT 15SM FEW250 12/M12 A3010 RMK CI0 SLP226=

CYQF;2006-04-18 23:00;METAR CYQF 182300Z 18011KT 15SM FEW250 13/M13 A3008 RMK CI0 SLP221=

CYQF;2006-04-19 00:00;METAR CYQF 190000Z 18007KT 15SM FEW250 13/M12 A3007 RMK CI0 SLP215=

CYQF;2006-04-19 01:00;METAR CYQF 190100Z 15013KT 15SM FEW250 12/M11 A3006 RMK CI0 SLP212=

CYQF;2006-04-19 02:00;METAR CYQF 190200Z 15008KT 15SM FEW250 10/M11 A3005 RMK CI0 SLP210=

CYQF;2006-04-19 03:00;METAR CYQF 190300Z 15008KT 15SM SCT250 06/M09 A3006 RMK CI1 SLP211=

CYQF;2006-04-19 04:00;METAR CYQF 190400Z 16008KT 15SM SCT250 03/M04 A3007 RMK CI1 SLP214=

CYQF;2006-04-19 05:00;METAR CYQF 190500Z 16008KT 15SM FEW250 04/M10 A3006 RMK CI1 SLP212=

CYQF;2006-04-19 06:00;METAR CYQF 190600Z 17012KT 15SM FEW250 04/M11 A3006 RMK CI1 SLP208=

CYQF;2006-04-19 07:00;METAR CYQF 190700Z 16012KT 15SM SKC 03/M10 A3006 RMK SLP207=

CYQF;2006-04-19 08:00;METAR CYQF 190800Z 18006KT 15SM SKC 02/M10 A3006 RMK SLP208=

CYQF;2006-04-19 09:00;METAR CYQF 190900Z 18004KT 15SM SKC M02/M10 A3006 RMK SLP208=

CYQF;2006-04-19 10:00;METAR CYQF 191000Z 16005KT 15SM FEW250 00/M07 A3006 RMK CI1 SLP209=

CYQF;2006-04-19 11:00;METAR CYQF 191100Z 21004KT 15SM FEW250 M03/M10 A3006 RMK CI1 SLP209=

CYQF;2006-04-19 12:00;METAR CYQF 191200Z 20005KT 15SM FEW250 M03/M09 A3006 RMK CI0 SLP209=

CYQF;2006-04-19 13:00;METAR CYQF 191300Z 00000KT 15SM FEW250 M04/M09 A3006 RMK CI0 SLP209=

CYQF;2006-04-19 14:00;METAR CYQF 191400Z 00000KT 15SM FEW250 M01/M07 A3006 RMK CI1 SLP209=

CYQF;2006-04-19 15:00;METAR CYQF 191500Z 14005KT 15SM FEW250 05/M07 A3005 RMK CI1 SLP204=

CYQF;2006-04-19 16:00;METAR CYQF 191600Z 15010KT 15SM FEW250 08/M07 A3004 RMK CI1 SLP200=

CYQF;2006-04-19 17:00;METAR CYQF 191700Z 16011KT 15SM FEW150 FEW250 11/M06 A3003 RMK AC1CI0 SLP198=

CYQF;2006-04-19 18:00;METAR CYQF 191800Z 15014KT 15SM FEW180 13/M08 A3001 RMK CI2 SLP185=

CYQF;2006-04-19 19:00;METAR CYQF 191900Z 16013G22KT 15SM BKN180 13/M08 A3000 RMK CI2 SLP181=

CYQF;2006-04-19 20:00;METAR CYQF 192000Z 14011KT 15SM BKN200 14/M09 A2997 RMK CI2 SLP174=

CYQF;2006-04-19 21:00;METAR CYQF 192100Z 17015G22KT 15SM BKN200 15/M08 A2996 RMK CI2 SLP171=

CYQF;2006-04-19 22:00;METAR CYQF 192200Z 15014G21KT 15SM BKN200 16/M08 A2994 RMK CI2 SLP164=

CYQF;2006-04-19 23:00;METAR CYQF 192300Z 15014G21KT 15SM BKN200 16/M09 A2992 RMK CI2 SLP159=

CYQF;2006-04-20 00:00;METAR CYQF 200000Z 17012G20KT 15SM BKN200 16/M09 A2991 RMK CI3 SLP154=

CYQF;2006-04-20 01:00;METAR CYQF 200100Z 16015G20KT 15SM BKN220 15/M09 A2990 RMK CI3 SLP150=

CYQF;2006-04-20 02:00;METAR CYQF 200200Z 16012KT 15SM BKN220 13/M07 A2988 RMK CI2 SLP145=

CYQF;2006-04-20 03:00;METAR CYQF 200300Z 14010KT 15SM FEW120 SCT220 10/M07 A2988 RMK AC1CI2 SLP143=

CYQF;2006-04-20 04:00;METAR CYQF 200400Z 16012KT 15SM FEW120 FEW220 09/M07 A2989 RMK AC1CI1 SLP145=

CYQF;2006-04-20 05:00;METAR CYQF 200500Z 17012KT 15SM FEW220 08/M07 A2989 RMK CI1 SLP144=

CYQF;2006-04-20 06:00;METAR CYQF 200600Z 17012KT 15SM FEW220 06/M06 A2989 RMK CI0 SLP139=

CYQF;2006-04-20 07:00;METAR CYQF 200700Z 16010KT 15SM BKN250 05/M06 A2989 RMK CI2 SLP139=

CYQF;2006-04-20 08:00;METAR CYQF 200800Z 18009KT 15SM BKN250 05/M05 A2989 RMK CI2 SLP139=

CYQF;2006-04-20 09:00;METAR CYQF 200900Z 18005KT 15SM BKN250 03/M05 A2988 RMK CI2 SLP139=

CYQF;2006-04-20 11:00;METAR CYQF 201100Z 00000KT 15SM BKN250 M01/M06 A2989 RMK CI3 SLP141=

CYQF;2006-04-20 12:00;METAR CYQF 201200Z 18003KT 15SM BKN250 00/M05 A2989 RMK CI3 SLP145=

CYQF;2006-04-20 13:00;METAR CYQF 201300Z 19002KT 15SM SCT140 BKN250 M01/M05 A2991 RMK AC3CI1 SLP149=

CYQF;2006-04-20 14:00;METAR CYQF 201400Z 19003KT 15SM FEW120 BKN250 02/M03 A2991 RMK AC2CI2 SLP151=

CYQF;2006-04-20 15:00;METAR CYQF 201500Z 19002KT 15SM FEW110 BKN250 06/M02 A2991 RMK AC2CI2 SLP151=

CYQF;2006-04-20 16:00;METAR CYQF 201600Z 00000KT 15SM FEW110 BKN250 13/M00 A2991 RMK AC2CI1 SLP149=

CYQF;2006-04-20 17:00;METAR CYQF 201700Z 21005KT 15SM FEW110 BKN250 16/M03 A2989 RMK AC1CI2 SLP145=

CYQF;2006-04-20 18:00;METAR CYQF 201800Z 21006KT 15SM FEW110 BKN250 17/M03 A2988 RMK AC2CI1 SLP133=

CYQF;2006-04-20 19:00;METAR CYQF 201900Z 21004KT 15SM FEW110 BKN250 18/M02 A2987 RMK AC2CI1 SLP128=

CYQF;2006-04-20 20:00;METAR CYQF 202000Z 16010KT 15SM FEW110 BKN250 19/M03 A2985 RMK AC1CI2 SLP123=

CYQF;2006-04-20 21:00;METAR CYQF 202100Z 17010KT 15SM FEW110 SCT250 20/M03 A2983 RMK AC1CI1 SLP116=

CYQF;2006-04-20 22:00;METAR CYQF 202200Z 18003KT 15SM FEW110 BKN250 21/M02 A2982 RMK AC1CI1 SLP113=

CYQF;2006-04-20 23:00;METAR CYQF 202300Z 19006KT 15SM FEW120 SCT250 21/M03 A2980 RMK AC1CI1 SLP106=

CYQF;2006-04-21 00:00;METAR CYQF 210000Z 13004KT 15SM FEW120 SCT250 20/M03 A2979 RMK AC1CI2 SLP105=

CYQF;2006-04-21 01:00;METAR CYQF 210100Z 11002KT 15SM FEW120 BKN250 19/M01 A2978 RMK AC2CI2 SLP102=

CYQF;2006-04-21 02:00;METAR CYQF 210200Z 13008KT 15SM SCT120 BKN250 18/M01 A2977 RMK AC3CI1 SLP099=

CYQF;2006-04-21 03:00;METAR CYQF 210300Z 15006KT 15SM BKN120 BKN250 15/00 A2978 RMK AC5CI1 SLP099=

CYQF;2006-04-21 04:00;METAR CYQF 210400Z 14007KT 15SM BKN120 BKN250 14/M02 A2978 RMK AC5CI1 SLP099=

CYQF;2006-04-21 05:00;METAR CYQF 210500Z 18004KT 15SM BKN100 BKN250 11/M01 A2977 RMK AC6CI1 SLP098=

CYQF;2006-04-21 06:00;METAR CYQF 210600Z 19008KT 15SM BKN100 OVC220 12/00 A2976 RMK AC6CI2 SLP085=

CYQF;2006-04-21 07:00;METAR CYQF 210700Z 17004KT 15SM BKN100 OVC220 10/00 A2976 RMK AC5CI3 SLP083=

CYQF;2006-04-21 08:00;METAR CYQF 210800Z 21003KT 15SM SCT100 BKN220 07/M01 A2975 RMK AC3CI2 SLP081=

CYQF;2006-04-21 09:00;METAR CYQF 210900Z 19004KT 15SM SCT100 BKN220 06/M00 A2974 RMK AC3CI2 SLP079=

CYQF;2006-04-21 10:00;METAR CYQF 211000Z 19004KT 15SM SCT100 OVC220 05/M01 A2973 RMK AC4CI2 SLP076=

CYQF;2006-04-21 11:00;METAR CYQF 211100Z 00000KT 15SM FEW100 BKN220 04/M01 A2972 RMK AC2CI2 SLP075=

CYQF;2006-04-21 12:00;METAR CYQF 211200Z 00000KT 15SM FEW100 BKN220 04/M00 A2972 RMK AC1CI2 SLP076=

CYQF;2006-04-21 13:00;METAR CYQF 211300Z 00000KT 15SM FEW100 BKN220 03/M01 A2971 RMK AC2CI2 SLP073=

CYQF;2006-04-21 14:00;METAR CYQF 211400Z 00000KT 15SM FEW100 BKN240 05/01 A2971 RMK AC2CI2 SLP072=

CYQF;2006-04-21 15:00;METAR CYQF 211500Z 18005KT 15SM FEW100 BKN250 11/01 A2970 RMK AC1CI3 SLP066=

CYQF;2006-04-21 16:00;METAR CYQF 211600Z 17007KT 15SM FEW100 OVC250 17/00 A2969 RMK AC1CI2 SLP063=

CYQF;2006-04-21 17:00;METAR CYQF 211700Z 17014G20KT 15SM FEW100 OVC250 18/M02 A2966 RMK AC1CI4 SLP055=

CYQF;2006-04-21 18:00;METAR CYQF 211800Z 16015G23KT 15SM SCT100 OVC250 19/M02 A2965 RMK AC3CI3 SLP044=

CYQF;2006-04-21 19:00;METAR CYQF 211900Z 17013G20KT 15SM SCT100 OVC250 20/M02 A2963 RMK AC2CI4 SLP039=

CYQF;2006-04-21 20:00;METAR CYQF 212000Z 18015G20KT 15SM FEW060 SCT100 OVC250 21/M02 A2961 RMK SC1AC2CI3 SLP033=

CYQF;2006-04-21 21:00;METAR CYQF 212100Z 18015G20KT 15SM FEW060 BKN100 OVC250 21/M03 A2960 RMK SC1AC4CI2 SLP032=

CYQF;2006-04-21 22:00;METAR CYQF 212200Z 17015G20KT 15SM FEW060 BKN100 OVC250 22/M02 A2958 RMK SC1AC3CI2 SLP026=

CYQF;2006-04-21 23:00;METAR CYQF 212300Z 18015G20KT 15SM FEW080 SCT100 BKN250 23/M01 A2956 RMK AC2AC1CI2 SLP019=

CYQF;2006-04-22 00:00;METAR CYQF 220000Z 18012G18KT 15SM SCT075 BKN250 23/M01 A2954 RMK AC3CI1 SLP011=

CYQF;2006-04-22 01:00;METAR CYQF 220100Z 21015KT 15SM FEW075 BKN250 22/M02 A2956 RMK AC2CI2 TCU/SHS W SLP015=

CYQF;2006-04-22 02:00;METAR CYQF 220200Z 24010G15KT 15SM FEW070 BKN250 18/M02 A2959 RMK AC2CI2 CU EMBDD VIRGA SLP025=

CYQF;2006-04-22 03:00;METAR CYQF 220300Z 32012KT 15SM FEW070 BKN250 12/02 A2966 RMK AC2CI2 PRESRR SLP057=

CYQF;2006-04-22 04:00;METAR CYQF 220400Z 32012G18KT 15SM FEW070 BKN250 11/01 A2971 RMK AC1CI2 SLP070=

CYQF;2006-04-22 05:00;METAR CYQF 220500Z 33015G25KT 15SM SCT250 08/02 A2976 RMK CI2 SLP088=

CYQF;2006-04-22 06:00;METAR CYQF 220600Z 33015G25KT 15SM SCT070 BKN250 06/01 A2981 RMK AC3CI2 SLP104=

CYQF;2006-04-22 07:00;METAR CYQF 220700Z 32011G18KT 15SM FEW070 BKN250 05/M00 A2984 RMK AC2CI2 SLP114=

CYQF;2006-04-22 08:00;METAR CYQF 220800Z 33012G20KT 15SM BKN025 BKN070 04/M00 A2988 RMK SC6AC1 SLP128=

CYQF;2006-04-22 09:00;METAR CYQF 220900Z 32012KT 15SM OVC016 03/M00 A2991 RMK SC8 SLP141=

CYQF;2006-04-22 10:00;METAR CYQF 221000Z 32012KT 15SM OVC017 03/M00 A2993 RMK SC8 SLP147=

CYQF;2006-04-22 11:00;METAR CYQF 221100Z 31007KT 15SM OVC018 03/00 A2996 RMK SC8 SLP157=

CYQF;2006-04-22 11:33;SPECI CYQF 221133Z 32011KT 15SM -RA OVC018 RMK SC8=

CYQF;2006-04-22 12:00;METAR CYQF 221200Z 31012G20KT 12SM -RA OVC018 02/00 A2998 RMK SC8 SLP165=

CYQF;2006-04-22 12:36;SPECI CYQF 221236Z 33010G18KT 15SM OVC020 RMK SC8=

CYQF;2006-04-22 13:00;METAR CYQF 221300Z 32012KT 15SM OVC020 03/00 A3000 RMK SC8 SLP171=

CYQF;2006-04-22 14:00;METAR CYQF 221400Z 33016G24KT 15SM VCSH BKN020 OVC070 03/00 A3002 RMK SC7AC1 SLP177=

CYQF;2006-04-22 15:00;METAR CYQF 221500Z 32012G18KT 15SM BKN013 OVC070 03/M00 A3005 RMK SC6AC1 SLP201=

CYQF;2006-04-22 16:00;METAR CYQF 221600Z 33015G25KT 15SM BKN020 OVC070 04/M01 A3007 RMK SC7AC1 SLP207=

CYQF;2006-04-22 17:00;METAR CYQF 221700Z 33018G28KT 15SM BKN025 04/M02 A3010 RMK SC7 SLP214=

CYQF;2006-04-22 18:00;METAR CYQF 221800Z 34015G25KT 15SM BKN025 04/M03 A3012 RMK SC7 SLP230=

CYQF;2006-04-22 19:00;METAR CYQF 221900Z 32015G25KT 15SM BKN030 BKN100 06/M03 A3014 RMK SC6AC1 SLP234=

CYQF;2006-04-22 20:00;METAR CYQF 222000Z 34015G25KT 15SM BKN037 06/M04 A3015 RMK SC7 SLP240=

CYQF;2006-04-22 21:00;METAR CYQF 222100Z 35012G25KT 15SM BKN040 06/M04 A3017 RMK SC7 SLP248=

CYQF;2006-04-22 22:00;METAR CYQF 222200Z 35012G22KT 15SM BKN040 07/M05 A3019 RMK SC6 SLP253=

CYQF;2006-04-22 23:00;METAR CYQF 222300Z 35012G22KT 15SM SCT040 08/M06 A3020 RMK SC4 SLP257=

CYQF;2006-04-23 00:00;METAR CYQF 230000Z 34012G22KT 15SM SCT040 07/M06 A3022 RMK SC3 SLP266=

CYQF;2006-04-23 01:00;METAR CYQF 230100Z 35012G20KT 15SM FEW045 07/M06 A3025 RMK SC2 SLP274=

CYQF;2006-04-23 02:00;METAR CYQF 230200Z 34012G20KT 15SM FEW045 05/M07 A3028 RMK SC2 SLP283=

CYQF;2006-04-23 03:00;METAR CYQF 230300Z 35010G15KT 15SM FEW050 03/M06 A3030 RMK SC2 SLP297=

CYQF;2006-04-23 04:00;METAR CYQF 230400Z 01009KT 15SM FEW050 02/M06 A3033 RMK SC1 SLP305=

CYQF;2006-04-23 05:00;METAR CYQF 230500Z 01005KT 15SM SKC 00/M06 A3035 RMK SLP312=

CYQF;2006-04-23 06:00;METAR CYQF 230600Z 32003KT 15SM SKC M03/M07 A3036 RMK SLP323=

CYQF;2006-04-23 07:00;METAR CYQF 230700Z 28004KT 15SM FEW090 M03/M07 A3037 RMK AC1 SLP327=

CYQF;2006-04-23 08:00;METAR CYQF 230800Z 27004KT 15SM FEW090 M04/M07 A3038 RMK AC1 SLP330=

CYQF;2006-04-23 09:00;METAR CYQF 230900Z 00000KT 15SM FEW090 M06/M08 A3039 RMK AC1 SLP334=

CYQF;2006-04-23 10:00;METAR CYQF 231000Z 23002KT 15SM FEW090 M06/M09 A3039 RMK AC1 SLP335=

CYQF;2006-04-23 11:00;METAR CYQF 231100Z 20003KT 15SM SKC M06/M08 A3041 RMK SLP340=

CYQF;2006-04-23 12:00;METAR CYQF 231200Z 18004KT 15SM SKC M07/M10 A3042 RMK SLP344=

CYQF;2006-04-23 13:00;METAR CYQF 231300Z 21003KT 15SM SKC M07/M09 A3042 RMK SLP346=

CYQF;2006-04-23 14:00;METAR CYQF 231400Z 23003KT 15SM SKC M03/M06 A3044 RMK SLP351=

CYQF;2006-04-23 15:00;METAR CYQF 231500Z 24003KT 15SM SKC 01/M03 A3044 RMK SLP349=

CYQF;2006-04-23 16:00;METAR CYQF 231600Z 22004KT 15SM SKC 04/M05 A3044 RMK SLP347=

CYQF;2006-04-23 17:00;METAR CYQF 231700Z 23005KT 15SM FEW040 06/M06 A3044 RMK CU1 SLP347=

CYQF;2006-04-23 18:00;METAR CYQF 231800Z 20009KT 15SM SKC 07/M07 A3043 RMK SLP345=

CYQF;2006-04-23 19:00;METAR CYQF 231900Z 18011KT 15SM SKC 08/M09 A3041 RMK SLP339=

CYQF;2006-04-23 20:00;METAR CYQF 232000Z 19007KT 15SM SKC 10/M09 A3040 RMK SLP335=

CYQF;2006-04-23 21:00;METAR CYQF 232100Z 17009KT 15SM FEW100 11/M11 A3039 RMK AC1 SLP329=

CYQF;2006-04-23 22:00;METAR CYQF 232200Z 15007KT 15SM FEW100 10/M12 A3037 RMK AC1 SLP323=

CYQF;2006-04-23 23:00;METAR CYQF 232300Z 18008KT 15SM SKC 11/M11 A3036 RMK SLP320=

CYQF;2006-04-24 00:00;METAR CYQF 240000Z 16005KT 15SM SKC 11/M11 A3035 RMK SLP317=

CYQF;2006-04-24 01:00;METAR CYQF 240100Z 17010KT 15SM SKC 11/M11 A3035 RMK SLP317=

CYQF;2006-04-24 02:00;METAR CYQF 240200Z 17008KT 15SM SKC 09/M10 A3034 RMK SLP314=

CYQF;2006-04-24 03:00;METAR CYQF 240300Z 15007KT 15SM SKC 06/M09 A3034 RMK SLP309=

CYQF;2006-04-24 04:00;METAR CYQF 240400Z 15008KT 15SM SKC 04/M09 A3036 RMK SLP315=

CYQF;2006-04-24 06:00;METAR CYQF 240600Z 19008KT 15SM SKC 01/M08 A3036 RMK SLP317=

CYQF;2006-04-24 07:00;METAR CYQF 240700Z 18007KT 15SM SKC M01/M08 A3036 RMK SLP317=

CYQF;2006-04-24 08:00;METAR CYQF 240800Z 18007KT 15SM SKC M01/M07 A3035 RMK SLP314=

CYQF;2006-04-24 09:00;METAR CYQF 240900Z 18010KT 15SM SKC M01/M07 A3035 RMK SLP310=

CYQF;2006-04-24 10:00;METAR CYQF 241000Z 18010KT 15SM SKC M00/M07 A3033 RMK SLP304=

CYQF;2006-04-24 11:00;METAR CYQF 241100Z 18008KT 15SM SKC M02/M07 A3033 RMK SLP303=

CYQF;2006-04-24 12:00;METAR CYQF 241200Z 19010KT 15SM SKC M00/M07 A3031 RMK SLP296=

CYQF;2006-04-24 13:00;METAR CYQF 241300Z 18010KT 15SM SKC 02/M07 A3031 RMK SLP294=

CYQF;2006-04-24 14:00;METAR CYQF 241400Z 18012G20KT 15SM SKC 04/M07 A3030 RMK SLP293=

CYQF;2006-04-24 15:00;METAR CYQF 241500Z 18012G22KT 15SM SKC 06/M08 A3030 RMK SLP289=

CYQF;2006-04-24 16:00;METAR CYQF 241600Z 19015G25KT 15SM SKC 08/M08 A3028 RMK SLP285=

CYQF;2006-04-24 17:00;METAR CYQF 241700Z 17012G22KT 15SM SKC 10/M08 A3027 RMK SLP282=

CYQF;2006-04-24 18:00;METAR CYQF 241800Z 18015G25KT 15SM SKC 12/M08 A3026 RMK SLP274=

CYQF;2006-04-24 19:00;METAR CYQF 241900Z 18015G22KT 15SM SKC 14/M08 A3025 RMK SLP271=

CYQF;2006-04-24 20:00;METAR CYQF 242000Z 18015G25KT 15SM SKC 15/M09 A3023 RMK SLP265=

CYQF;2006-04-24 21:00;METAR CYQF 242100Z 17015G20KT 15SM SKC 16/M11 A3022 RMK SLP258=

CYQF;2006-04-24 22:00;METAR CYQF 242200Z 16015G22KT 15SM SKC 16/M10 A3020 RMK SLP252=

CYQF;2006-04-24 23:00;METAR CYQF 242300Z 17015G22KT 15SM SKC 16/M12 A3018 RMK SLP246=

CYQF;2006-04-25 00:00;METAR CYQF 250000Z 17015G23KT 15SM SKC 16/M12 A3016 RMK SLP238=

CYQF;2006-04-25 01:00;METAR CYQF 250100Z 16015G22KT 15SM SKC 15/M09 A3015 RMK SLP235=

CYQF;2006-04-25 02:00;METAR CYQF 250200Z 17012G20KT 15SM SKC 13/M09 A3013 RMK SLP229=

CYQF;2006-04-25 03:00;METAR CYQF 250300Z 17012G20KT 15SM SKC 10/M10 A3012 RMK SLP222=

CYQF;2006-04-25 04:00;METAR CYQF 250400Z 17010G15KT 15SM SKC 08/M09 A3012 RMK SLP222=

CYQF;2006-04-25 05:00;METAR CYQF 250500Z 18010KT 15SM SKC 07/M09 A3010 RMK SLP218=

CYQF;2006-04-25 06:00;METAR CYQF 250600Z 19010KT 15SM SKC 04/M08 A3008 RMK SLP210=

CYQF;2006-04-25 07:00;METAR CYQF 250700Z 19010G15KT 15SM SKC 05/M09 A3007 RMK SLP206=

CYQF;2006-04-25 08:00;METAR CYQF 250800Z 19010KT 15SM SKC 03/M09 A3005 RMK SLP200=

CYQF;2006-04-25 09:00;METAR CYQF 250900Z 20010KT 15SM SKC 02/M08 A3004 RMK SLP193=

CYQF;2006-04-25 10:00;METAR CYQF 251000Z 19010KT 15SM SKC 02/M09 A3002 RMK SLP186=

CYQF;2006-04-25 11:00;METAR CYQF 251100Z 18008KT 15SM SKC 02/M09 A3000 RMK SLP182=

CYQF;2006-04-25 12:00;METAR CYQF 251200Z 18010KT 15SM SKC 02/M09 A2998 RMK SLP174=

CYQF;2006-04-25 13:00;METAR CYQF 251300Z 17010KT 15SM FEW250 01/M09 A2998 RMK CI1 TR CLD SLP172=

CYQF;2006-04-25 14:00;METAR CYQF 251400Z 17010KT 15SM FEW250 04/M08 A2997 RMK CI1 SLP170=

CYQF;2006-04-25 15:00;METAR CYQF 251500Z 18015KT 15SM FEW250 07/M06 A2996 RMK CI1 SLP167=

CYQF;2006-04-25 17:00;METAR CYQF 251700Z 17015G24KT 15SM FEW250 12/M06 A2993 RMK CI1 SLP157=

CYQF;2006-04-25 18:00;METAR CYQF 251800Z 17016G26KT 15SM FEW250 13/M07 A2991 RMK CI1 SLP148=

CYQF;2006-04-25 19:00;METAR CYQF 251900Z 17018G26KT 15SM FEW250 14/M08 A2989 RMK CI1 SLP142=

CYQF;2006-04-25 20:00;METAR CYQF 252000Z 14018G25KT 15SM SCT250 15/M08 A2986 RMK CI2 SLP133=

CYQF;2006-04-25 21:00;METAR CYQF 252100Z 16018G28KT 15SM SCT250 16/M07 A2984 RMK CI2 SLP123=

CYQF;2006-04-25 22:00;METAR CYQF 252200Z 17016G25KT 15SM SCT250 16/M09 A2982 RMK CI2 SLP116=

CYQF;2006-04-25 23:00;METAR CYQF 252300Z 16017G26KT 15SM BKN250 16/M06 A2980 RMK CI2 SLP110=

CYQF;2006-04-26 00:00;METAR CYQF 260000Z 17017G24KT 15SM BKN250 17/M06 A2978 RMK CI2 SLP104=

CYQF;2006-04-26 01:00;METAR CYQF 260100Z 15014G22KT 15SM SCT250 16/M04 A2977 RMK CI2 SLP100=

CYQF;2006-04-26 02:00;METAR CYQF 260200Z 15010G15KT 15SM SCT250 15/M03 A2975 RMK CI2 SLP094=

CYQF;2006-04-26 03:00;METAR CYQF 260300Z 15009KT 15SM FEW250 12/M02 A2975 RMK CI2 SLP091=

CYQF;2006-04-26 04:00;METAR CYQF 260400Z 15010KT 15SM FEW250 10/M02 A2975 RMK CI1 SLP092=

CYQF;2006-04-26 05:00;METAR CYQF 260500Z 16010KT 15SM FEW250 08/M02 A2975 RMK CI1 SLP091=

CYQF;2006-04-26 06:00;METAR CYQF 260600Z 19005KT 15SM FEW250 07/M02 A2975 RMK CI0 SLP089=

CYQF;2006-04-26 07:00;METAR CYQF 260700Z 22005KT 15SM SKC 03/M03 A2974 RMK OBS TKN +11 SLP087=

CYQF;2006-04-26 08:00;METAR CYQF 260800Z 18002KT 15SM SKC 04/M03 A2973 RMK SLP085=

CYQF;2006-04-26 09:00;METAR CYQF 260900Z 19006KT 15SM SKC 00/M03 A2973 RMK SLP087=

CYQF;2006-04-26 10:00;METAR CYQF 261000Z 18004KT 15SM SKC M00/M03 A2972 RMK SLP085=

CYQF;2006-04-26 11:00;METAR CYQF 261100Z 20004KT 15SM SKC M03/M05 A2973 RMK SLP087=

CYQF;2006-04-26 12:00;METAR CYQF 261200Z 25003KT 15SM SCT250 M02/M05 A2974 RMK CI2 SLP094=

CYQF;2006-04-26 13:00;METAR CYQF 261300Z 25002KT 15SM SCT250 M01/M05 A2975 RMK CI2 SLP096=

CYQF;2006-04-26 14:00;METAR CYQF 261400Z 30004KT 15SM SCT250 05/M02 A2975 RMK CI2 SLP097=

CYQF;2006-04-26 15:00;METAR CYQF 261500Z 32007KT 15SM FEW250 10/M02 A2975 RMK CI1 SLP089=

CYQF;2006-04-26 16:00;METAR CYQF 261600Z 35010KT 15SM FEW250 12/M02 A2975 RMK CI1 SLP087=

CYQF;2006-04-26 17:00;METAR CYQF 261700Z 35010KT 15SM FEW250 15/M01 A2974 RMK CI1 SLP085=

CYQF;2006-04-26 18:00;METAR CYQF 261800Z 35010KT 15SM FEW250 16/M02 A2973 RMK CI0 SLP080=

CYQF;2006-04-26 19:00;METAR CYQF 261900Z 32010KT 15SM FEW250 17/M03 A2971 RMK CI0 SLP075=

CYQF;2006-04-26 20:00;METAR CYQF 262000Z 34014KT 15SM FEW050 18/M04 A2970 RMK CU1 SLP071=

CYQF;2006-04-26 22:00;METAR CYQF 262200Z 33010KT 15SM FEW060 FEW250 19/M05 A2967 RMK CU1CI1 SLP065=

CYQF;2006-04-26 23:00;METAR CYQF 262300Z 33006KT 15SM FEW060 SCT250 20/M06 A2966 RMK CU1CI1 SLP060=

CYQF;2006-04-27 00:00;METAR CYQF 270000Z 34007KT 15SM SCT060 SCT250 19/M07 A2965 RMK CU3CI0 SLP061=

CYQF;2006-04-27 01:00;METAR CYQF 270100Z 32002KT 15SM BKN060 BKN250 17/M03 A2965 RMK SC5CI1 TCU EMBD VIRGA W-S SLP060=

CYQF;2006-04-27 02:00;METAR CYQF 270200Z 29010G18KT 15SM BKN060 BKN120 BKN250 16/M04 A2966 RMK SC6AC1CI1 TCU EMBD VIRGA SLP064=

CYQF;2006-04-27 03:00;METAR CYQF 270300Z 28015G25KT 15SM BKN060 OVC100 15/M05 A2968 RMK SC6AC2 TCU EMBD VIRGA SLP060=

CYQF;2006-04-27 04:00;METAR CYQF 270400Z 30010G15KT 15SM SCT060 OVC100 13/M06 A2971 RMK SC4AC4 VIRGA SLP070=

CYQF;2006-04-27 05:00;METAR CYQF 270500Z 32010G20KT 15SM SCT075 BKN100 13/M02 A2975 RMK AC3AC3 SLP081=

CYQF;2006-04-27 06:00;METAR CYQF 270600Z 29010KT 15SM FEW075 BKN100 10/M01 A2977 RMK AC2AC2 SLP090=

CYQF;2006-04-27 07:00;METAR CYQF 270700Z 32010KT 15SM FEW075 BKN100 10/M02 A2977 RMK AC2AC2 SLP091=

CYQF;2006-04-27 08:00;METAR CYQF 270800Z 32010KT 15SM SCT070 BKN100 10/M00 A2979 RMK AC3AC3 SLP098=

CYQF;2006-04-27 09:00;METAR CYQF 270900Z 30008KT 15SM SCT070 BKN100 07/01 A2982 RMK AC3AC2 SLP106=

CYQF;2006-04-27 10:00;METAR CYQF 271000Z 32010KT 15SM FEW070 SCT100 07/00 A2983 RMK AC2AC2 SLP111=

CYQF;2006-04-27 11:00;METAR CYQF 271100Z 30012KT 15SM FEW070 SCT100 07/M01 A2986 RMK AC1AC2 SLP119=

CYQF;2006-04-27 12:00;METAR CYQF 271200Z 30013KT 15SM FEW070 FEW120 07/M01 A2989 RMK AC1AC1 SLP132=

CYQF;2006-04-27 13:00;METAR CYQF 271300Z 30010KT 15SM FEW070 FEW120 06/M01 A2991 RMK AC1AC1 SLP138=

CYQF;2006-04-27 14:00;METAR CYQF 271400Z 33015G23KT 15SM FEW100 FEW250 07/M02 A2994 RMK AC1CI1 SLP147=

CYQF;2006-04-27 15:00;METAR CYQF 271500Z 34015G25KT 15SM FEW100 09/M03 A2995 RMK AC1 SLP155=

CYQF;2006-04-27 16:00;METAR CYQF 271600Z 34015G23KT 15SM FEW100 11/M03 A2996 RMK AC1 SLP158=

CYQF;2006-04-27 17:00;METAR CYQF 271700Z 33018G30KT 15SM FEW060 FEW250 12/M03 A2997 RMK CU1CI0 SLP161=

CYQF;2006-04-27 18:00;METAR CYQF 271800Z 33015G27KT 15SM FEW060 13/M04 A2998 RMK CU2 SLP166=

CYQF;2006-04-27 19:00;METAR CYQF 271900Z 31018G28KT 15SM FEW060 14/M04 A2998 RMK CU2 SLP166=

CYQF;2006-04-27 20:00;METAR CYQF 272000Z 32017G25KT 15SM FEW060 14/M05 A2998 RMK CU2 SLP166=

CYQF;2006-04-27 21:00;METAR CYQF 272100Z 31012G20KT 15SM FEW060 16/M06 A2998 RMK CU2 SLP166=

CYQF;2006-04-27 22:00;METAR CYQF 272200Z 34013G20KT 15SM FEW060 16/M05 A2997 RMK CU2 SLP164=

CYQF;2006-04-27 23:00;METAR CYQF 272300Z 34012G20KT 15SM FEW060 FEW250 16/M05 A2997 RMK CU1CI0 SLP164=

CYQF;2006-04-28 00:00;METAR CYQF 280000Z 35010KT 15SM FEW060 FEW250 17/M05 A2997 RMK CU1CI0 SLP165=

CYQF;2006-04-28 01:00;METAR CYQF 280100Z 02007KT 15SM FEW060 FEW250 16/M05 A2998 RMK CU1CI1 SLP166=

CYQF;2006-04-28 02:00;METAR CYQF 280200Z 01005KT 15SM FEW060 FEW250 15/M05 A2999 RMK CU1CI1 SLP171=

CYQF;2006-04-28 03:00;METAR CYQF 280300Z 00000KT 15SM FEW060 FEW250 12/M04 A3002 RMK SC1CI1 SLP182=

CYQF;2006-04-28 04:00;METAR CYQF 280400Z 17003KT 15SM FEW250 07/M04 A3004 RMK CI1 SLP188=

CYQF;2006-04-28 05:00;METAR CYQF 280500Z 18004KT 15SM FEW250 07/M04 A3005 RMK CI1 SLP193=

CYQF;2006-04-28 06:00;METAR CYQF 280600Z 21006KT 15SM FEW250 04/M04 A3006 RMK CI1 SLP203=

CYQF;2006-04-28 07:00;METAR CYQF 280700Z 17003KT 15SM FEW250 04/M04 A3008 RMK CI1 SLP207=

CYQF;2006-04-28 08:00;METAR CYQF 280800Z 19006KT 15SM FEW250 02/M04 A3008 RMK CI1 SLP208=

CYQF;2006-04-28 09:00;METAR CYQF 280900Z 19006KT 15SM FEW250 03/M04 A3008 RMK CI1 SLP208=

CYQF;2006-04-28 10:00;METAR CYQF 281000Z 19005KT 15SM FEW250 02/M04 A3009 RMK CI1 SLP209=

CYQF;2006-04-28 11:00;METAR CYQF 281100Z 25010KT 15SM FEW250 01/M05 A3009 RMK CI1 SLP211=

CYQF;2006-04-28 12:00;METAR CYQF 281200Z 18005KT 15SM FEW250 01/M05 A3009 RMK CI1 SLP212=

CYQF;2006-04-28 13:00;METAR CYQF 281300Z 21004KT 15SM FEW250 01/M04 A3010 RMK CI1 SLP214=

CYQF;2006-04-28 14:00;METAR CYQF 281400Z 22006KT 15SM FEW250 05/M03 A3010 RMK CI1 SLP215=

CYQF;2006-04-28 15:00;METAR CYQF 281500Z 22005KT 15SM BKN250 09/M02 A3010 RMK CI2 SLP212=

CYQF;2006-04-28 16:00;METAR CYQF 281600Z 19004KT 15SM BKN250 13/M02 A3009 RMK CI2 SLP208=

CYQF;2006-04-28 17:00;METAR CYQF 281700Z 20008KT 15SM BKN250 16/M02 A3007 RMK CI2 SLP203=

CYQF;2006-04-28 18:00;METAR CYQF 281800Z 18007KT 15SM BKN250 18/M02 A3006 RMK CI2 SLP196=

CYQF;2006-04-28 19:00;METAR CYQF 281900Z 15010G15KT 15SM BKN250 19/M02 A3005 RMK CI3 SLP191=

CYQF;2006-04-28 20:00;METAR CYQF 282000Z 18006KT 15SM BKN250 20/M02 A3001 RMK CI3 SLP181=

CYQF;2006-04-28 21:00;METAR CYQF 282100Z 16007KT 15SM BKN250 22/M00 A2999 RMK CI2 SLP169=

CYQF;2006-04-28 22:00;METAR CYQF 282200Z 17012KT 15SM FEW090 BKN250 23/M00 A2997 RMK AC1CI2 SLP162=

CYQF;2006-04-28 23:00;METAR CYQF 282300Z 18013KT 15SM SCT090 BKN250 22/M01 A2995 RMK AC3CI2 OBS TAKEN +13 SLP156=

CYQF;2006-04-29 00:00;METAR CYQF 290000Z 15010KT 15SM SCT090 BKN250 21/M00 A2994 RMK AC4CI2 OBS TKN +17 SLP154=

CYQF;2006-04-29 01:00;METAR CYQF 290100Z 17006KT 15SM SCT090 BKN250 20/00 A2994 RMK AC4CI2 SLP154=

CYQF;2006-04-29 02:00;METAR CYQF 290200Z 17005KT 15SM FEW090 BKN250 19/00 A2993 RMK AC2CI4 SLP150=

CYQF;2006-04-29 03:00;METAR CYQF 290300Z 16007KT 15SM FEW090 BKN250 15/01 A2992 RMK AC2CI3 SLP143=

CYQF;2006-04-29 04:00;METAR CYQF 290400Z 19007KT 15SM FEW090 BKN250 14/00 A2992 RMK AC2CI2 SLP144=

CYQF;2006-04-29 05:00;METAR CYQF 290500Z 21007KT 15SM FEW090 SCT250 10/00 A2992 RMK AC2CI2 SLP144=

CYQF;2006-04-29 06:00;METAR CYQF 290600Z 19005KT 15SM SCT090 09/M01 A2991 RMK AC3 SLP137=

CYQF;2006-04-29 07:00;METAR CYQF 290700Z 21005KT 15SM FEW090 SCT230 08/M01 A2990 RMK AC2CI1 SLP135=

CYQF;2006-04-29 08:00;METAR CYQF 290800Z 20005KT 15SM FEW090 SCT230 07/M02 A2989 RMK AC2CI1 SLP133=

CYQF;2006-04-29 10:00;METAR CYQF 291000Z 24010KT 15SM FEW100 SCT230 08/M01 A2989 RMK AC2CI1 SLP129=

CYQF;2006-04-29 11:00;METAR CYQF 291100Z 24008KT 15SM SCT100 BKN230 11/M01 A2988 RMK AC3CI2 SLP128=

CYQF;2006-04-29 12:00;METAR CYQF 291200Z 23008KT 15SM BKN100 BKN250 10/M00 A2988 RMK AC5CI1 SLP123=

CYQF;2006-04-29 13:00;METAR CYQF 291300Z 23008KT 15SM BKN100 BKN250 12/01 A2988 RMK AC5CI2 SLP125=

CYQF;2006-04-29 14:00;METAR CYQF 291400Z 22006KT 15SM BKN100 BKN250 14/01 A2990 RMK AC6CI2 SLP130=

CYQF;2006-04-29 15:00;METAR CYQF 291500Z 23006KT 15SM BKN090 BKN250 16/02 A2991 RMK AC5CI2 SLP134=

CYQF;2006-04-29 16:00;METAR CYQF 291600Z 24008KT 15SM BKN090 BKN250 17/02 A2992 RMK AC5CI2 SLP137=

CYQF;2006-04-29 17:00;METAR CYQF 291700Z 27003KT 15SM FEW040 BKN090 BKN250 18/03 A2993 RMK SC2AC3CI2 VIRGA SLP139=

CYQF;2006-04-29 18:00;METAR CYQF 291800Z 31002KT 15SM FEW040 BKN090 BKN250 18/02 A2993 RMK CU2AC3CI2 VIRGA SLP145=

CYQF;2006-04-29 19:00;METAR CYQF 291900Z 01012KT 15SM FEW040 BKN090 BKN250 20/03 A2992 RMK CU2AC3CI1 VIRGA SLP140=

CYQF;2006-04-29 20:00;METAR CYQF 292000Z 36010KT 15SM FEW040 BKN090 BKN250 19/02 A2991 RMK CU2AC3CI1 SLP139=

CYQF;2006-04-29 21:00;METAR CYQF 292100Z 01010KT 15SM FEW040 SCT090 BKN250 21/04 A2990 RMK CU2AC2CI2 SLP132=

CYQF;2006-04-29 22:00;METAR CYQF 292200Z 04010KT 15SM FEW050 SCT100 BKN250 21/03 A2988 RMK CU2AC2CI2 SLP127=

CYQF;2006-04-29 23:00;METAR CYQF 292300Z 05005KT 15SM FEW050 BKN250 21/04 A2985 RMK CU2CI2 SLP116=

CYQF;2006-04-30 00:00;METAR CYQF 300000Z 05010KT 15SM FEW050 SCT100 BKN250 21/04 A2983 RMK CU2AC1CI1 SLP106=

CYQF;2006-04-30 01:00;METAR CYQF 300100Z 08010KT 15SM SCT050 SCT100 BKN250 20/03 A2981 RMK SC3AC1CI1 SLP099=

CYQF;2006-04-30 02:00;METAR CYQF 300200Z 07010KT 15SM SCT050 BKN250 18/04 A2979 RMK SC3CI1 SLP093=

CYQF;2006-04-30 03:00;METAR CYQF 300300Z 07005KT 15SM FEW040 SCT080 BKN250 16/03 A2978 RMK SC2AC2CI2 SLP087=

CYQF;2006-04-30 04:00;METAR CYQF 300400Z 00000KT 15SM FEW040 SCT080 BKN250 14/03 A2977 RMK SC2AC2CI2 SLP085=

CYQF;2006-04-30 05:00;METAR CYQF 300500Z 20008KT 15SM SCT040 BKN090 BKN250 14/04 A2979 RMK SC3AC2CI1 SLP091=

CYQF;2006-04-30 06:00;METAR CYQF 300600Z 31012KT 15SM FEW040 SCT090 BKN250 13/07 A2977 RMK SC2AC2CI1 SLP085=

CYQF;2006-04-30 07:00;METAR CYQF 300700Z 33020G30KT 15SM FEW030 BKN090 OVC250 10/04 A2984 RMK SC2AC5CI1 PRESRR SLP105=

CYQF;2006-04-30 07:19;SPECI CYQF 300719Z 33018G26KT 15SM -RA SCT015 OVC090 RMK SC3AC5=

CYQF;2006-04-30 08:00;METAR CYQF 300800Z 34020G30KT 15SM -RA BKN015 OVC050 05/03 A2989 RMK SC5SC3 SLP121=

CYQF;2006-04-30 08:34;SPECI CYQF 300834Z 32015G25KT 15SM BKN013 OVC040 RMK SC6SC2=

CYQF;2006-04-30 09:00;METAR CYQF 300900Z 34015G25KT 15SM OVC012 05/02 A2991 RMK SC8 SLP141=

CYQF;2006-04-30 10:00;METAR CYQF 301000Z 33017G25KT 15SM -SHRA BKN013 OVC040 04/02 A2993 RMK SC6SC2 SLP147=

CYQF;2006-04-30 11:00;METAR CYQF 301100Z 32013G22KT 15SM -SHRA FEW008 BKN012 OVC030 03/02 A2994 RMK SF2SC4SC2 SLP150=

CYQF;2006-04-30 12:00;METAR CYQF 301200Z 32012G20KT 15SM -SHRA FEW008 OVC013 04/02 A2996 RMK SF2SC6 SLP159=

CYQF;2006-04-30 12:48;SPECI CYQF 301248Z 32018G26KT 12SM -SHRA BKN009 OVC014 RMK SF5SC3=

CYQF;2006-04-30 13:00;METAR CYQF 301300Z 33020G30KT 10SM -RA BKN009 OVC014 03/01 A2998 RMK SF7SC1 SLP166=

CYQF;2006-04-30 14:00;METAR CYQF 301400Z 33016G25KT 15SM -RA OVC010 04/01 A3001 RMK SF8 SLP174=

CYQF;2006-04-30 14:40;SPECI CYQF 301440Z 34017G28KT 15SM BKN011 OVC070 RMK SF7AC1=

CYQF;2006-04-30 15:00;METAR CYQF 301500Z 34015G25KT 15SM SCT012 BKN030 OVC070 04/M00 A3003 RMK SF4SC3AC1 SLP188=

CYQF;2006-04-30 16:00;METAR CYQF 301600Z 33015G25KT 15SM SCT012 BKN040 OVC080 04/M00 A3003 RMK SF2SC5AC1 SLP187=

CYQF;2006-04-30 17:00;METAR CYQF 301700Z 33015G23KT 15SM BKN040 OVC080 05/M01 A3004 RMK SC6AC2 SLP189=

CYQF;2006-04-30 18:00;METAR CYQF 301800Z 32017G25KT 15SM BKN040 BKN080 OVC250 06/M01 A3004 RMK SC5AC2CI1 SLP193=

CYQF;2006-04-30 19:00;METAR CYQF 301900Z 33015G23KT 15SM BKN040 BKN080 OVC250 07/M01 A3005 RMK SC6AC2CI1 SLP197=

CYQF;2006-04-30 20:00;METAR CYQF 302000Z 32015G24KT 15SM FEW020 BKN040 OVC250 08/M03 A3006 RMK SC1SC6CI1 SLP199=

CYQF;2006-04-30 21:00;METAR CYQF 302100Z 33016G25KT 15SM FEW020 BKN040 OVC250 09/M06 A3006 RMK SC1SC6CI1 SLP206=

CYQF;2006-04-30 22:00;METAR CYQF 302200Z 33015G22KT 15SM FEW020 BKN040 OVC250 09/M07 A3005 RMK SC1SC6CI1 SLP203=

CYQF;2006-04-30 23:00;METAR CYQF 302300Z 32014G20KT 15SM BKN040 BKN100 BKN250 09/M06 A3005 RMK SC5AC2CI0 SLP202=

CYQF;2006-05-01 01:00;METAR CYQF 010100Z 32012KT 15SM FEW040 BKN090 BKN250 10/M06 A3003 RMK SC2AC3CI1 SLP194=

CYQF;2006-05-01 02:00;METAR CYQF 010200Z 31008KT 15SM FEW040 BKN090 BKN250 09/M06 A3002 RMK SC2AC4CI1 SLP192=

CYQF;2006-05-01 03:00;METAR CYQF 010300Z 30005KT 15SM FEW040 BKN090 08/M05 A3003 RMK SC2AC4 SLP195=

CYQF;2006-05-01 05:00;METAR CYQF 010500Z 29005KT 15SM FEW090 BKN250 03/M06 A3002 RMK AC2CI1 SLP192=

CYQF;2006-05-01 06:00;METAR CYQF 010600Z 28006KT 15SM FEW090 BKN250 03/M07 A3000 RMK AC2CI1 SLP188=

CYQF;2006-05-01 07:00;METAR CYQF 010700Z 29005KT 15SM SCT250 02/M07 A2999 RMK CI2 SLP186=

CYQF;2006-05-01 08:00;METAR CYQF 010800Z 00000KT 15SM FEW250 M02/M07 A2998 RMK CI1 SLP183=

CYQF;2006-05-01 09:00;METAR CYQF 010900Z 24003KT 15SM FEW250 M04/M07 A2997 RMK CI1 SLP183=

CYQF;2006-05-01 10:00;METAR CYQF 011000Z 12002KT 15SM FEW250 M03/M07 A2996 RMK CI1 SLP180=

CYQF;2006-05-01 11:00;METAR CYQF 011100Z 25005KT 15SM FEW250 M05/M08 A2995 RMK CI1 SLP178=

CYQF;2006-05-01 12:00;METAR CYQF 011200Z 26006KT 15SM FEW120 FEW250 M04/M08 A2994 RMK AC1CI1 TR AC SLP173=

CYQF;2006-05-01 13:00;METAR CYQF 011300Z 28003KT 15SM FEW120 FEW250 M02/M07 A2994 RMK AC1CI1 TR AC SLP171=

CYQF;2006-05-01 14:00;METAR CYQF 011400Z 20002KT 15SM FEW120 FEW250 M01/M05 A2992 RMK AC1CI1 SLP167=

CYQF;2006-05-01 15:00;METAR CYQF 011500Z 29005KT 15SM FEW120 FEW250 05/M03 A2990 RMK AC1CI1 SLP152=

CYQF;2006-05-01 16:00;METAR CYQF 011600Z 30004KT 15SM FEW120 SCT250 09/M05 A2988 RMK AC1CI2 SLP144=

CYQF;2006-05-01 17:00;METAR CYQF 011700Z 32007KT 15SM FEW050 FEW120 SCT250 11/M07 A2986 RMK CU1AC1CI2 SLP139=

CYQF;2006-05-01 18:00;METAR CYQF 011800Z 35009KT 15SM FEW055 FEW120 BKN250 12/M08 A2985 RMK CU2AC1CI2 SLP129=

CYQF;2006-05-01 19:00;METAR CYQF 011900Z 35006KT 15SM FEW055 SCT120 BKN250 12/M07 A2983 RMK CU2AC1CI2 SLP123=

CYQF;2006-05-01 20:00;METAR CYQF 012000Z 31013KT 15SM SCT055 BKN250 12/M08 A2980 RMK CU3CI2 SLP116=

CYQF;2006-05-01 21:00;METAR CYQF 012100Z 31004KT 15SM SCT055 BKN120 BKN250 12/M09 A2980 RMK CU4AC2CI1 SLP120=

CYQF;2006-05-01 22:00;METAR CYQF 012200Z 34005KT 15SM SCT055 BKN120 OVC250 13/M07 A2979 RMK CU4AC2CI2 SLP117=

CYQF;2006-05-01 23:00;METAR CYQF 012300Z 36009KT 15SM SCT055 BKN120 OVC250 12/M08 A2978 RMK CU4AC2CI1 VIRGA SLP115=

CYQF;2006-05-02 00:00;METAR CYQF 020000Z 33012KT 15SM SCT050 BKN100 OVC250 12/M07 A2978 RMK CU3AC3CI1 VIRGA SLP114=

CYQF;2006-05-02 01:00;METAR CYQF 020100Z 35008KT 15SM SCT050 BKN100 OVC250 11/M06 A2979 RMK SC3AC3CI1 SLP118=

CYQF;2006-05-02 02:00;METAR CYQF 020200Z 33010KT 15SM SCT050 BKN100 OVC250 11/M06 A2980 RMK SC3AC4CI1 SLP120=

CYQF;2006-05-02 03:00;METAR CYQF 020300Z 32008KT 15SM BKN050 OVC100 10/M05 A2982 RMK SC5AC3 SLP121=

CYQF;2006-05-02 04:00;METAR CYQF 020400Z 36018G28KT 15SM BKN040 OVC100 09/M04 A2985 RMK SC6AC2 SLP132=

CYQF;2006-05-02 05:00;METAR CYQF 020500Z 01013G23KT 15SM BKN040 OVC120 06/00 A2989 RMK SC5AC2 SLP143=

CYQF;2006-05-02 06:00;METAR CYQF 020600Z 35010KT 15SM BKN040 OVC090 05/01 A2990 RMK SC5AC3 SLP148=

CYQF;2006-05-02 07:00;METAR CYQF 020700Z 33010KT 15SM BKN025 BKN090 04/00 A2992 RMK SC6AC2 SLP154=

CYQF;2006-05-02 08:00;METAR CYQF 020800Z 33010KT 15SM BKN035 04/M00 A2993 RMK SC7 SLP156=

CYQF;2006-05-02 09:00;METAR CYQF 020900Z 31013G20KT 15SM -RA OVC020 04/01 A2993 RMK SC8 SLP157=

CYQF;2006-05-02 10:00;METAR CYQF 021000Z 33015G25KT 15SM -RA BKN020 OVC090 03/01 A2994 RMK SC6AC2 SLP159=

CYQF;2006-05-02 10:17;SPECI CYQF 021017Z 31015G23KT 15SM BKN020 OVC090 RMK SC5AC3=

CYQF;2006-05-02 11:00;METAR CYQF 021100Z 33015G25KT 15SM SCT020 OVC090 03/01 A2995 RMK SC3AC5 SLP165=

CYQF;2006-05-02 12:00;METAR CYQF 021200Z 34016G28KT 15SM SCT020 BKN050 OVC090 03/M02 A2997 RMK SC3SC2AC2 SLP171=

CYQF;2006-05-02 12:32;SPECI CYQF 021232Z 33018G30KT 12SM -SHRA BKN020 OVC050 RMK SC6SC2=

CYQF;2006-05-02 12:42;SPECI CYQF 021242Z 33018G30KT 15SM VCSH SCT020 BKN050 OVC090 RMK SC4SC2AC2=

CYQF;2006-05-02 13:00;METAR CYQF 021300Z 32012G25KT 15SM SCT020 BKN050 OVC090 03/M02 A2997 RMK SC3SC3AC2 SLP172=

CYQF;2006-05-02 14:00;METAR CYQF 021400Z 31020G35KT 15SM BKN020 BKN080 OVC220 04/M02 A2998 RMK SC6AC2CI1 SLP175=

CYQF;2006-05-02 15:00;METAR CYQF 021500Z 33028G43KT 15SM BKN025 OVC080 04/M03 A2999 RMK SC6AC2 SH W-N-NE SLP182=

CYQF;2006-05-02 15:19;SPECI CYQF 021519Z 33028G34KT 15SM BKN025 OVC080 RMK SC6AC2=

CYQF;2006-05-02 16:00;METAR CYQF 021600Z 33024G33KT 15SM -SN BKN025 OVC080 04/M02 A3002 RMK SC6AC2 VIS NW-NE 10 SLP189=

CYQF;2006-05-02 16:50;SPECI CYQF 021650Z 32024G32KT 15SM -RA BKN025 OVC080 RMK SC6AC2=

CYQF;2006-05-02 17:00;METAR CYQF 021700Z 32018G26KT 10SM -RA OVC025 03/00 A3003 RMK SC8 SLP194=

CYQF;2006-05-02 18:00;METAR CYQF 021800Z 33025G33KT 10SM -RA BKN018 OVC080 03/00 A3006 RMK SC6AC2 SLP211=

CYQF;2006-05-02 19:00;METAR CYQF 021900Z 33024G32KT 15SM -RA BKN020 OVC080 04/M00 A3006 RMK SC6AC2 SLP211=

CYQF;2006-05-02 20:00;METAR CYQF 022000Z 32024G30KT 15SM -RA BKN030 OVC080 05/M02 A3006 RMK SC6AC2 SLP213=

CYQF;2006-05-02 21:00;METAR CYQF 022100Z 33022G32KT 15SM -RA BKN035 OVC080 05/M01 A3007 RMK SC6AC2 SLP215=

CYQF;2006-05-02 22:00;METAR CYQF 022200Z 34015G22KT 15SM BKN035 BKN090 OVC250 08/M04 A3008 RMK SC5AC1CI2 SLP216=

CYQF;2006-05-03 00:00;METAR CYQF 030000Z 33020G31KT 15SM SCT050 BKN090 BKN250 09/M07 A3010 RMK CU4AC2CI1 FEW TCU SHS/VIRGA ALQDS SLP219=

CYQF;2006-05-03 01:00;METAR CYQF 030100Z 36013G22KT 15SM FEW020 SCT050 BKN100 BKN250 08/M05 A3012 RMK CF1CU4AC2CI1 FEW TCU SHS NW+SE TR CF SLP226=

CYQF;2006-05-03 02:00;METAR CYQF 030200Z 35011KT 15SM FEW020 SCT050 BKN100 BKN250 07/M05 A3015 RMK CF1CU3AC1CI2 FEW TCU SHS NW+SE TR CF SLP234=

CYQF;2006-05-03 03:00;METAR CYQF 030300Z 36013KT 15SM SCT050 BKN100 BKN250 05/M04 A3018 RMK CU4AC2CI0 TCU EMBDD SHS S-W-NW SLP252=

CYQF;2006-05-03 04:00;METAR CYQF 030400Z 01012G18KT 15SM FEW050 SCT090 BKN250 04/M04 A3022 RMK SC2AC2CI1 SLP264=

CYQF;2006-05-03 05:00;METAR CYQF 030500Z 33008KT 15SM SCT090 SCT250 01/M05 A3024 RMK AC3CI1 SLP269=

CYQF;2006-05-03 06:00;METAR CYQF 030600Z 34008KT 15SM FEW090 M00/M05 A3024 RMK AC2 SLP281=

CYQF;2006-05-03 07:00;METAR CYQF 030700Z 35006KT 15SM FEW050 FEW250 M02/M06 A3025 RMK SC1CI1 SLP283=

CYQF;2006-05-03 08:00;METAR CYQF 030800Z 34008KT 15SM FEW250 M02/M05 A3025 RMK CI1 SLP284=

CYQF;2006-05-03 09:00;METAR CYQF 030900Z 32009KT 15SM FEW250 M00/M04 A3025 RMK CI1 SLP282=

CYQF;2006-05-03 10:00;METAR CYQF 031000Z 33010G15KT 15SM SKC M00/M05 A3026 RMK SLP285=

CYQF;2006-05-03 11:00;METAR CYQF 031100Z 33012KT 15SM FEW250 M01/M05 A3029 RMK CI0 SLP292=

CYQF;2006-05-03 12:00;METAR CYQF 031200Z 36008KT 15SM FEW020 FEW250 M02/M05 A3030 RMK SC1CI0 SLP295=

CYQF;2006-05-03 13:00;METAR CYQF 031300Z 35007KT 15SM FEW020 M03/M06 A3032 RMK SC2 SLP300=

CYQF;2006-05-03 14:00;METAR CYQF 031400Z 34013KT 15SM FEW020 M01/M04 A3034 RMK SC2 SLP306=

CYQF;2006-05-03 15:00;METAR CYQF 031500Z 36013KT 15SM FEW020 00/M03 A3034 RMK SC2 SLP313=

CYQF;2006-05-03 16:00;METAR CYQF 031600Z 01014KT 15SM FEW025 03/M03 A3036 RMK SC2 CU ASOCTD SLP317=

CYQF;2006-05-03 17:00;METAR CYQF 031700Z 02015KT 15SM FEW030 04/M05 A3036 RMK CU2 SLP317=

CYQF;2006-05-03 18:00;METAR CYQF 031800Z 34014KT 15SM FEW040 05/M05 A3036 RMK CU2 SLP320=

CYQF;2006-05-03 19:00;METAR CYQF 031900Z 35014KT 15SM FEW040 06/M08 A3034 RMK CU1 SLP315=

CYQF;2006-05-03 20:00;METAR CYQF 032000Z 35014KT 15SM FEW050 07/M08 A3033 RMK CF1 TR CF SLP309=

CYQF;2006-05-03 21:00;METAR CYQF 032100Z 36014KT 15SM FEW060 08/M12 A3032 RMK SC1 TR SC SLP303=

CYQF;2006-05-03 22:00;METAR CYQF 032200Z 36012KT 15SM FEW060 09/M10 A3032 RMK SC1 TR SC SLP301=

CYQF;2006-05-03 23:00;METAR CYQF 032300Z 34014KT 15SM FEW060 09/M08 A3031 RMK SC1 TR SC SLP298=

CYQF;2006-05-04 00:00;METAR CYQF 040000Z 35009KT 15SM FEW060 10/M09 A3030 RMK SC1 SLP295=

CYQF;2006-05-04 01:00;METAR CYQF 040100Z 01007KT 15SM SKC 09/M10 A3030 RMK SLP294=

CYQF;2006-05-04 02:00;METAR CYQF 040200Z 01007KT 15SM SKC 09/M11 A3029 RMK SLP293=

CYQF;2006-05-04 03:00;METAR CYQF 040300Z 05005KT 15SM SKC 07/M11 A3029 RMK SLP292=

CYQF;2006-05-04 04:00;METAR CYQF 040400Z 00000KT 15SM SKC 02/M10 A3030 RMK SLP294=

CYQF;2006-05-04 05:00;METAR CYQF 040500Z 17006KT 15SM SKC M02/M09 A3030 RMK SLP294=

CYQF;2006-05-04 06:00;METAR CYQF 040600Z 20005KT 15SM SKC M02/M09 A3029 RMK SLP298=

CYQF;2006-05-04 07:00;METAR CYQF 040700Z 18003KT 15SM SKC M03/M09 A3029 RMK SLP296=

CYQF;2006-05-04 08:00;METAR CYQF 040800Z 19004KT 15SM SKC M04/M09 A3028 RMK SLP293=

CYQF;2006-05-04 09:00;METAR CYQF 040900Z 17005KT 15SM SKC M04/M09 A3025 RMK SLP283=

CYQF;2006-05-04 10:00;METAR CYQF 041000Z 18005KT 15SM SKC M04/M09 A3024 RMK SLP279=

CYQF;2006-05-04 11:00;METAR CYQF 041100Z 17004KT 15SM FEW250 M04/M10 A3023 RMK CI1 SLP275=

CYQF;2006-05-04 12:00;METAR CYQF 041200Z 19005KT 15SM FEW100 FEW250 M04/M09 A3022 RMK AC1CI0 SLP270=

CYQF;2006-05-04 13:00;METAR CYQF 041300Z 18005KT 15SM FEW100 FEW250 M02/M08 A3021 RMK AC1CI0 SLP267=

CYQF;2006-05-04 14:00;METAR CYQF 041400Z 19008KT 15SM FEW250 02/M06 A3020 RMK CI0 SLP265=

CYQF;2006-05-04 15:00;METAR CYQF 041500Z 20008KT 15SM FEW100 FEW250 05/M05 A3019 RMK AC1CI0 TR AC SLP253=

CYQF;2006-05-04 16:00;METAR CYQF 041600Z 23006KT 15SM FEW110 FEW250 10/M04 A3017 RMK AC1CI0 TR AC SLP245=

CYQF;2006-05-04 17:00;METAR CYQF 041700Z 24008KT 15SM FEW100 FEW250 13/M04 A3015 RMK AC1CI1 TR AC SLP239=

CYQF;2006-05-04 18:00;METAR CYQF 041800Z 23010KT 15SM FEW100 FEW250 15/M05 A3013 RMK AC1CI1 SLP230=

CYQF;2006-05-04 19:00;METAR CYQF 041900Z 23010KT 15SM FEW100 SCT250 16/M04 A3011 RMK AC1CI1 SLP223=

CYQF;2006-05-04 20:00;METAR CYQF 042000Z 33006KT 15SM FEW120 SCT250 17/M04 A3008 RMK AC1CI1 SLP215=

CYQF;2006-05-04 21:00;METAR CYQF 042100Z 29012KT 15SM FEW070 FEW120 FEW250 18/M03 A3005 RMK CU1AC1CI0 SLP202=

CYQF;2006-05-04 22:00;METAR CYQF 042200Z 27006KT 15SM FEW070 FEW120 FEW250 19/M02 A3003 RMK CU1AC1CI0 SLP195=

CYQF;2006-05-04 23:00;METAR CYQF 042300Z 30006KT 15SM FEW070 SCT250 19/M01 A3001 RMK CU1CI1 SLP189=

CYQF;2006-05-05 00:00;METAR CYQF 050000Z 31003KT 15SM FEW055 BKN250 19/M02 A2998 RMK CU2CI2 SLP177=

CYQF;2006-05-05 01:00;METAR CYQF 050100Z 04002KT 15SM FEW055 BKN250 19/M01 A2997 RMK CU2CI2 SLP172=

CYQF;2006-05-05 02:00;METAR CYQF 050200Z 00000KT 15SM FEW055 FEW120 BKN250 19/M02 A2995 RMK CU2AC1CI2 SLP167=

CYQF;2006-05-05 03:00;METAR CYQF 050300Z 20002KT 15SM FEW080 BKN250 14/M02 A2995 RMK AC2CI2 SLP161=

CYQF;2006-05-05 04:00;METAR CYQF 050400Z 18002KT 15SM FEW080 SCT250 11/M01 A2996 RMK AC1CI2 SLP163=

CYQF;2006-05-05 05:00;METAR CYQF 050500Z 17002KT 15SM FEW090 SCT250 09/M01 A2996 RMK AC1CI2 SLP163=

CYQF;2006-05-05 06:00;METAR CYQF 050600Z 19002KT 15SM SCT250 06/M01 A2995 RMK CI2 SLP159=

CYQF;2006-05-05 08:00;METAR CYQF 050800Z 20006KT 15SM FEW250 03/M02 A2993 RMK CI2 SLP152=

CYQF;2006-05-05 09:00;METAR CYQF 050900Z 19005KT 15SM SCT250 03/M03 A2993 RMK CI2 SLP151=

CYQF;2006-05-05 10:00;METAR CYQF 051000Z 20005KT 15SM SCT250 03/M03 A2992 RMK CI4 SLP148=

CYQF;2006-05-05 11:00;METAR CYQF 051100Z 19004KT 15SM BKN250 02/M02 A2992 RMK CI4 SLP148=

CYQF;2006-05-05 12:00;METAR CYQF 051200Z 18003KT 15SM BKN220 03/M02 A2992 RMK CI5 SLP146=

CYQF;2006-05-05 13:00;METAR CYQF 051300Z 21004KT 15SM FEW100 BKN220 01/M02 A2991 RMK AC1CI4 SLP144=

CYQF;2006-05-05 14:00;METAR CYQF 051400Z 22006KT 15SM FEW100 BKN240 06/M00 A2991 RMK AC1CI3 SLP145=

CYQF;2006-05-05 15:00;METAR CYQF 051500Z 22005KT 15SM FEW100 BKN240 11/00 A2990 RMK AC1CI4 CC ASOCTD SLP139=

CYQF;2006-05-05 16:00;METAR CYQF 051600Z 24005KT 15SM BKN250 14/01 A2989 RMK CI4 CC ASOCTD SLP135=

CYQF;2006-05-05 17:00;METAR CYQF 051700Z 20005KT 15SM BKN250 17/M00 A2987 RMK CI3 SLP129=

CYQF;2006-05-05 18:00;METAR CYQF 051800Z 27003KT 15SM BKN250 19/M01 A2985 RMK CI2 SLP119=

CYQF;2006-05-05 20:00;METAR CYQF 052000Z 24008KT 15SM FEW090 FEW160 BKN250 20/M02 A2980 RMK CU1AC1CI2 SLP103=

CYQF;2006-05-05 21:00;METAR CYQF 052100Z 15003KT 15SM FEW090 SCT160 BKN250 21/M03 A2977 RMK CU1AC2CI2 SLP094=

CYQF;2006-05-05 22:00;METAR CYQF 052200Z 00000KT 15SM FEW090 SCT160 BKN250 21/M03 A2975 RMK CU1AC2CI2 SLP088=

CYQF;2006-05-05 23:00;METAR CYQF 052300Z 11002KT 15SM FEW085 FEW160 BKN250 21/M01 A2973 RMK CU1AC1CI2 SLP080=

CYQF;2006-05-06 00:00;METAR CYQF 060000Z 09008KT 15SM FEW080 BKN250 22/M01 A2970 RMK CU1CI2 SLP066=

CYQF;2006-05-06 01:00;METAR CYQF 060100Z 15006KT 15SM FEW080 BKN250 22/M03 A2967 RMK AC1CI2 SLP058=

CYQF;2006-05-06 02:00;METAR CYQF 060200Z 08006KT 15SM FEW080 BKN250 20/00 A2966 RMK AC1CI2 SLP053=

CYQF;2006-05-06 03:00;METAR CYQF 060300Z 12005KT 15SM FEW080 BKN250 18/M02 A2964 RMK AC2CI2 SLP042=

CYQF;2006-05-06 04:00;METAR CYQF 060400Z 31004KT 15SM FEW080 BKN250 15/M02 A2963 RMK AC1CI2 SLP039=

CYQF;2006-05-06 06:00;METAR CYQF 060600Z 29010KT 15SM FEW080 BKN250 12/M03 A2964 RMK AC1CI2 SLP039=

CYQF;2006-05-06 07:00;METAR CYQF 060700Z 29008KT 15SM FEW100 BKN250 12/M03 A2964 RMK AC2CI3 SLP039=

CYQF;2006-05-06 08:00;METAR CYQF 060800Z 28008KT 15SM FEW100 BKN250 11/M04 A2963 RMK AC2CI3 SLP037=

CYQF;2006-05-06 09:00;METAR CYQF 060900Z 27005KT 15SM FEW100 BKN250 09/M04 A2962 RMK AC2CI2 SLP034=

CYQF;2006-05-06 10:00;METAR CYQF 061000Z 24006KT 15SM FEW100 BKN250 06/M03 A2960 RMK AC1CI2 SLP030=

CYQF;2006-05-06 11:00;METAR CYQF 061100Z 28007KT 15SM FEW100 BKN250 07/M04 A2960 RMK AC2CI2 SLP028=

CYQF;2006-05-06 12:00;METAR CYQF 061200Z 22006KT 15SM FEW100 BKN250 06/M03 A2960 RMK AC2CI2 SLP029=

CYQF;2006-05-06 13:00;METAR CYQF 061300Z 22007KT 15SM SCT100 BKN250 05/M02 A2959 RMK AC4CI2 SLP027=

CYQF;2006-05-06 14:00;METAR CYQF 061400Z 27004KT 15SM FEW060 BKN100 OVC250 11/M00 A2959 RMK SC1AC4CI2 SLP028=

CYQF;2006-05-06 15:00;METAR CYQF 061500Z 29010G15KT 15SM SCT050 BKN100 OVC250 12/M01 A2959 RMK SC3AC2CI1 SLP026=

CYQF;2006-05-06 16:00;METAR CYQF 061600Z 31020G33KT 15SM FEW050 FEW090 FEW250 14/00 A2959 RMK SC1AC1CI1 SLP026=

CYQF;2006-05-06 17:00;METAR CYQF 061700Z 30020G35KT 15SM FEW050 SCT090 BKN250 15/02 A2961 RMK SC2AC1CI1 SLP031=

CYQF;2006-05-06 18:00;METAR CYQF 061800Z 31025G35KT 15SM BKN045 BKN090 14/03 A2963 RMK SC5AC2 SLP042=

CYQF;2006-05-06 19:00;METAR CYQF 061900Z 30022G32KT 15SM VCSH BKN045 BKN090 13/04 A2964 RMK SC5AC2 SLP043=

CYQF;2006-05-06 20:00;METAR CYQF 062000Z 34018G30KT 12SM -SHRA BKN045TCU BKN090 11/05 A2963 RMK TCU5AC2 SLP042=

CYQF;2006-05-06 20:15;SPECI CYQF 062015Z 34018G28KT 15SM VCSH FEW030 SCT045TCU SCT090 RMK SC1TCU2AC1=

CYQF;2006-05-06 21:00;METAR CYQF 062100Z 36015G23KT 15SM FEW040 FEW090 SCT250 13/04 A2963 RMK SC2AC1CI1 SLP046=

CYQF;2006-05-06 22:00;METAR CYQF 062200Z 36015G20KT 15SM FEW040 SCT090 13/02 A2962 RMK SC1AC2 SLP043=

CYQF;2006-05-06 23:00;METAR CYQF 062300Z 02015G20KT 15SM FEW040 FEW090 FEW250 14/04 A2962 RMK SC1AC1CI1 TR SC SLP044=

CYQF;2006-05-07 00:00;METAR CYQF 070000Z 01010G15KT 15SM FEW040CB FEW090 SCT250 13/05 A2963 RMK CB1AC1CI1 CB+SHRA SW-NW SLP049=

CYQF;2006-05-07 00:39;SPECI CYQF 070039Z 35014G20KT 15SM -SHRA BKN040 BKN090 RMK SC6AC1 CB ASOCTD HVY SHRA DIST N=

CYQF;2006-05-07 01:00;METAR CYQF 070100Z 01010G15KT 15SM -SHRA BKN040 BKN090 BKN250 09/05 A2965 RMK SC5AC2CI0 CB ASOCTD HVY SHRA NE+SE SLP055=

CYQF;2006-05-07 01:42;SPECI CYQF 070142Z 09004KT 15SM SCT040 BKN090 BKN250 RMK SC4AC2CI0 CB ASOCTD HVY SHRA SE=

CYQF;2006-05-07 02:00;METAR CYQF 070200Z 10004KT 15SM SCT040 BKN090 BKN250 10/05 A2965 RMK SC3AC2CI1 SHRA E-S CB ASOCTD SLP056=

CYQF;2006-05-07 03:00;METAR CYQF 070300Z 23006KT 15SM SCT040 SCT090 BKN250 08/04 A2966 RMK SC3AC1CI2 TCU ASOCTD CB+SHRA SE SLP061=

CYQF;2006-05-07 04:00;METAR CYQF 070400Z 31004KT 15SM BKN040 BKN090 BKN250 08/04 A2968 RMK SC5AC1CI1 SLP066=

CYQF;2006-05-07 05:00;METAR CYQF 070500Z 31002KT 15SM SCT040 BKN090 BKN250 08/04 A2966 RMK SC4AC1CI2 SLP062=

CYQF;2006-05-07 06:00;METAR CYQF 070600Z 22008KT 15SM SCT040 SCT090 BKN250 06/03 A2966 RMK SC3AC1CI2 SLP059=

CYQF;2006-05-07 07:00;METAR CYQF 070700Z 26003KT 15SM FEW090 BKN250 07/04 A2967 RMK AC2CI2 SLP061=

CYQF;2006-05-07 08:00;METAR CYQF 070800Z 23005KT 15SM FEW090 SCT250 04/02 A2965 RMK AC1CI2 SLP055=

CYQF;2006-05-07 09:00;METAR CYQF 070900Z 29003KT 15SM FEW250 03/01 A2965 RMK CI1 SLP059=

CYQF;2006-05-07 10:00;METAR CYQF 071000Z 22005KT 15SM FEW250 02/01 A2965 RMK CI1 SLP059=

CYQF;2006-05-07 11:00;METAR CYQF 071100Z 21005KT 15SM FEW250 01/00 A2965 RMK CI1 SLP059=

CYQF;2006-05-07 12:00;METAR CYQF 071200Z 18005KT 10SM SKC M01/M01 A2964 RMK MIFG SLP061=

CYQF;2006-05-07 13:00;METAR CYQF 071300Z 00000KT 15SM FEW250 01/M00 A2964 RMK CI1 MIFG SLP059=

CYQF;2006-05-07 14:00;METAR CYQF 071400Z 21006KT 15SM FEW250 04/03 A2964 RMK CI1 SLP060=

CYQF;2006-05-07 15:00;METAR CYQF 071500Z 18004KT 15SM BKN250 08/03 A2963 RMK CI1 SLP054=

CYQF;2006-05-07 16:00;METAR CYQF 071600Z 17005KT 15SM SCT250 12/01 A2960 RMK CI1 SLP044=

CYQF;2006-05-07 17:00;METAR CYQF 071700Z 16006KT 15SM FEW090 FEW250 14/M01 A2958 RMK AC1CI1 TR AC SLP038=

CYQF;2006-05-07 18:00;METAR CYQF 071800Z 16008KT 15SM FEW050 FEW250 16/M00 A2957 RMK CU1CI1 TR CU SLP027=

CYQF;2006-05-07 19:00;METAR CYQF 071900Z 16007KT 15SM FEW050 FEW250 16/M02 A2954 RMK CU1CI1 SLP017=

CYQF;2006-05-07 20:00;METAR CYQF 072000Z 22008KT 15SM FEW060 BKN250 17/M03 A2952 RMK CU1CI1 SLP011=

CYQF;2006-05-07 21:00;METAR CYQF 072100Z 18010KT 15SM FEW060 BKN250 17/M03 A2949 RMK CU2CI2 SLP001=

CYQF;2006-05-07 22:00;METAR CYQF 072200Z 17009KT 15SM BKN050 17/M04 A2947 RMK CU7 VIRGA SLP996=

CYQF;2006-05-07 23:00;METAR CYQF 072300Z 20007KT 15SM BKN050 16/M02 A2948 RMK SC7 VIRGA SLP997=

CYQF;2006-05-08 00:00;METAR CYQF 080000Z 28006KT 15SM SCT050 BKN250 16/M01 A2947 RMK SC4CI1 SLP998=

CYQF;2006-05-08 01:00;METAR CYQF 080100Z 31004KT 15SM SCT050 BKN250 15/M01 A2945 RMK SC4CI1 SLP993=

CYQF;2006-05-08 02:00;METAR CYQF 080200Z 17004KT 15SM BKN040 BKN250 15/M01 A2945 RMK SC5CI1 SHRA NW VIRGA ALQDS SLP993=

CYQF;2006-05-08 04:00;METAR CYQF 080400Z 28010KT 15SM FEW040 FEW250 10/M06 A2949 RMK SC2CI0 SLP997=

CYQF;2006-05-08 05:00;METAR CYQF 080500Z 28008KT 15SM FEW040 08/M05 A2951 RMK SC2 SLP003=

CYQF;2006-05-08 06:00;METAR CYQF 080600Z 28008KT 15SM FEW040 07/M04 A2952 RMK SC2 SLP009=

CYQF;2006-05-08 07:00;METAR CYQF 080700Z 29005KT 15SM FEW040 07/M05 A2954 RMK SC2 SLP013=

CYQF;2006-05-08 08:00;METAR CYQF 080800Z 27007KT 15SM FEW050 03/M06 A2955 RMK SC2 SLP018=

CYQF;2006-05-08 09:00;METAR CYQF 080900Z 00000KT 15SM FEW060 04/M06 A2957 RMK SC2 SLP029=

CYQF;2006-05-08 10:00;METAR CYQF 081000Z 33015G25KT 15SM BKN035 05/01 A2962 RMK SC6 SLP043=

CYQF;2006-05-08 11:00;METAR CYQF 081100Z 34012G20KT 15SM BKN030 BKN060 05/M00 A2965 RMK SC5SC2 SLP051=

CYQF;2006-05-08 12:00;METAR CYQF 081200Z 32012G20KT 15SM SCT030 BKN060 05/M02 A2966 RMK SC3SC3 SLP060=

CYQF;2006-05-08 13:00;METAR CYQF 081300Z 32012G20KT 15SM FEW030 SCT060 BKN250 04/M02 A2969 RMK SC1SC2CI1 SLP068=

CYQF;2006-05-08 14:00;METAR CYQF 081400Z 32012KT 15SM FEW030 SCT050 BKN250 06/M02 A2971 RMK SC1SC2CI2 VIRGA SLP074=

CYQF;2006-05-08 15:00;METAR CYQF 081500Z 33016G24KT 15SM FEW050 FEW090 BKN250 07/M04 A2971 RMK SC1AC1CI2 SLP078=

CYQF;2006-05-08 16:00;METAR CYQF 081600Z 33020G33KT 15SM FEW050 FEW090 BKN250 08/M05 A2972 RMK CU1AC1CI2 SLP079=

CYQF;2006-05-08 18:00;METAR CYQF 081800Z 33018G30KT 15SM FEW050 BKN250 09/M07 A2974 RMK CU1CI3 SLP089=

CYQF;2006-05-08 19:00;METAR CYQF 081900Z 33015G25KT 15SM SCT035 BKN250 12/M07 A2974 RMK CU3CI2 SHS/VIRGA S+SW SLP089=

CYQF;2006-05-08 21:00;METAR CYQF 082100Z 33015G25KT 15SM BKN050TCU OVC250 10/M07 A2976 RMK TCU6CI2 VIRGA/SHS ALQDS SLP099=

CYQF;2006-05-08 22:00;METAR CYQF 082200Z 34017G28KT 15SM BKN050TCU BKN250 11/M06 A2977 RMK TCU5CI2 VIRGA/SHS ALQDS SLP105=

CYQF;2006-05-08 23:00;METAR CYQF 082300Z 33018G30KT 15SM SCT050TCU SCT250 10/M05 A2980 RMK TCU3CI0 VIRGA/SHS ALQDS SLP113=

CYQF;2006-05-09 01:00;METAR CYQF 090100Z 32018G23KT 15SM FEW050 BKN250 09/M05 A2986 RMK SC2CI2 TCU ASOCTD SHS S-SW+NW SLP133=

CYQF;2006-05-09 02:00;METAR CYQF 090200Z 32018G25KT 15SM FEW050 SCT100 BKN250 07/M06 A2988 RMK SC2AC2CI1 SLP140=

CYQF;2006-05-09 03:00;METAR CYQF 090300Z 32016G26KT 15SM SCT050 BKN100 BKN250 05/M03 A2991 RMK SC3AC2CI1 SLP156=

CYQF;2006-05-09 03:35;SPECI CYQF 090335Z 31020G25KT 10SM -SHRA BKN050 OVC090 RMK SC6AC2=

CYQF;2006-05-09 04:00;METAR CYQF 090400Z 29015G20KT 15SM -SHRA BKN050 BKN090 OVC250 02/M00 A2994 RMK SC6AC2CI1 SLP165=

CYQF;2006-05-09 04:45;SPECI CYQF 090445Z 29016G22KT 15SM SCT050 OVC080 RMK SC4AC4=

CYQF;2006-05-09 05:00;METAR CYQF 090500Z 28012G18KT 15SM BKN040 OVC080 03/M01 A2995 RMK SC5AC3 SLP167=

CYQF;2006-05-09 06:00;METAR CYQF 090600Z 29014G20KT 15SM SCT040 OVC080 03/M01 A2994 RMK SC4AC4 SLP166=

CYQF;2006-05-09 07:00;METAR CYQF 090700Z 26010G15KT 15SM BKN040 OVC080 03/M01 A2994 RMK SC6AC2 SLP165=

CYQF;2006-05-09 08:00;METAR CYQF 090800Z 28015G23KT 15SM SCT040 OVC090 05/M04 A2993 RMK SC3AC5 SLP163=

CYQF;2006-05-09 09:00;METAR CYQF 090900Z 30020G30KT 15SM SCT030 OVC080 05/M04 A2994 RMK SC3AC5 SLP162=

CYQF;2006-05-09 10:00;METAR CYQF 091000Z 30017G26KT 15SM FEW030 OVC080 03/M02 A2995 RMK SC2AC6 SLP166=

CYQF;2006-05-09 11:00;METAR CYQF 091100Z 31015G25KT 15SM BKN030 OVC080 05/M05 A2995 RMK SC6AC2 SLP164=

CYQF;2006-05-09 12:00;METAR CYQF 091200Z 30025G35KT 15SM BKN025 OVC080 06/M07 A2995 RMK SC5AC3 VIRGA SLP167=

CYQF;2006-05-09 13:00;METAR CYQF 091300Z 31027G38KT 15SM FEW025 BKN080 OVC250 06/M07 A2996 RMK SC2AC4CI2 VIRGA SLP168=

CYQF;2006-05-09 15:00;METAR CYQF 091500Z 33017G30KT 15SM FEW025 BKN080 BKN250 06/M07 A2998 RMK SC2AC3CI1 VIRGA SLP182=

CYQF;2006-05-09 16:00;METAR CYQF 091600Z 32025G35KT 15SM FEW030 BKN080 BKN250 07/M06 A2999 RMK SC2AC5CI1 VIRGA SLP183=

CYQF;2006-05-09 17:00;METAR CYQF 091700Z 32020G30KT 15SM FEW040 BKN080 08/M06 A3000 RMK SC2AC4 VIRGA W-S SLP187=

CYQF;2006-05-09 18:00;METAR CYQF 091800Z 32017G30KT 15SM FEW040 BKN070 BKN250 08/M06 A3001 RMK SC1AC6CI1 SLP190=

CYQF;2006-05-09 19:00;METAR CYQF 091900Z 33017G30KT 15SM BKN060 BKN100 09/M06 A3002 RMK SC6AC2 SLP192=

CYQF;2006-05-09 20:00;METAR CYQF 092000Z 33017G30KT 15SM BKN050 BKN100 11/M06 A3002 RMK SC6AC1 SLP193=

CYQF;2006-05-09 21:00;METAR CYQF 092100Z 33015G28KT 15SM BKN050 BKN100 10/M05 A3004 RMK SC7AC1 SLP195=

CYQF;2006-05-09 22:00;METAR CYQF 092200Z 34020G30KT 15SM BKN060 OVC100 11/M05 A3005 RMK SC6AC2 SLP199=

CYQF;2006-05-09 23:00;METAR CYQF 092300Z 34020G30KT 15SM BKN060 OVC090 11/M04 A3007 RMK SC6AC2 SLP205=

CYQF;2006-05-10 00:00;METAR CYQF 100000Z 33017G28KT 15SM BKN060 BKN090 OVC250 11/M03 A3008 RMK SC5AC2CI1 SLP210=

CYQF;2006-05-10 01:00;METAR CYQF 100100Z 34016G27KT 15SM FEW060 SCT090 OVC250 10/M03 A3010 RMK SC2AC2CI2 SLP216=

CYQF;2006-05-10 02:00;METAR CYQF 100200Z 35017G30KT 15SM FEW060 BKN100 OVC250 10/M03 A3012 RMK SC2AC3CI2 SLP222=

CYQF;2006-05-10 03:00;METAR CYQF 100300Z 35008G16KT 15SM FEW100 BKN250 08/M03 A3014 RMK AC1CI2 SLP233=

CYQF;2006-05-10 04:00;METAR CYQF 100400Z 36005KT 15SM FEW100 FEW250 06/M02 A3016 RMK AC1CI0 SLP239=

CYQF;2006-05-10 05:00;METAR CYQF 100500Z 33005KT 15SM FEW100 FEW250 03/M04 A3018 RMK AC1CI1 TR CLD SLP244=

CYQF;2006-05-10 06:00;METAR CYQF 100600Z 35005KT 15SM FEW250 02/M03 A3018 RMK CI1 TR CLD SLP250=

CYQF;2006-05-10 07:00;METAR CYQF 100700Z 33005KT 15SM SKC 01/M03 A3019 RMK SLP253=

CYQF;2006-05-10 08:00;METAR CYQF 100800Z 27005KT 15SM SKC M01/M05 A3021 RMK SLP260=

CYQF;2006-05-10 09:00;METAR CYQF 100900Z 28006KT 15SM SKC 00/M04 A3022 RMK SLP264=

CYQF;2006-05-10 10:00;METAR CYQF 101000Z 32003KT 15SM SKC 01/M04 A3023 RMK SLP267=

CYQF;2006-05-10 11:00;METAR CYQF 101100Z 29007KT 15SM SKC 00/M04 A3024 RMK SLP269=

CYQF;2006-05-10 12:00;METAR CYQF 101200Z 25003KT 15SM SKC M02/M05 A3024 RMK SLP273=

CYQF;2006-05-10 13:00;METAR CYQF 101300Z 21003KT 15SM FEW090 M02/M05 A3025 RMK AC1 SLP276=

CYQF;2006-05-10 14:00;METAR CYQF 101400Z 27003KT 15SM FEW090 03/M03 A3027 RMK AC2 SLP281=

CYQF;2006-05-10 15:00;METAR CYQF 101500Z 31003KT 15SM FEW090 FEW250 07/M01 A3027 RMK AC1CI0 SLP276=

CYQF;2006-05-10 16:00;METAR CYQF 101600Z 34006KT 15SM FEW090 BKN250 10/M01 A3027 RMK AC2CI0 SLP275=

CYQF;2006-05-10 17:00;METAR CYQF 101700Z 34006KT 15SM FEW090 BKN250 11/M02 A3025 RMK AC1CI1 SLP270=

CYQF;2006-05-10 18:00;METAR CYQF 101800Z 00000KT 15SM FEW050 BKN250 12/M00 A3023 RMK CU1CI2 SLP264=

CYQF;2006-05-10 19:00;METAR CYQF 101900Z 00000KT 15SM FEW055 BKN250 13/M01 A3022 RMK CU2CI2 SLP260=

CYQF;2006-05-10 20:00;METAR CYQF 102000Z 27004KT 15SM FEW055 SCT250 14/M02 A3021 RMK CU2CI2 SLP256=

CYQF;2006-05-10 21:00;METAR CYQF 102100Z 23007KT 15SM FEW055 SCT250 14/M03 A3019 RMK CU2CI0 SLP250=

CYQF;2006-05-10 22:00;METAR CYQF 102200Z 18002KT 15SM FEW060 SCT250 15/M03 A3018 RMK CU2CI1 SLP247=

CYQF;2006-05-10 23:00;METAR CYQF 102300Z 17003KT 15SM FEW060 SCT250 16/M04 A3015 RMK CU2CI2 SLP238=

CYQF;2006-05-11 00:00;METAR CYQF 110000Z 00000KT 15SM FEW060 BKN250 15/M05 A3014 RMK CU1CI2 SLP231=

CYQF;2006-05-11 01:00;METAR CYQF 110100Z 10002KT 15SM FEW060 BKN250 15/M04 A3013 RMK CU1CI4 SLP228=

CYQF;2006-05-11 02:00;METAR CYQF 110200Z 12004KT 15SM FEW060 FEW100 BKN250 14/M03 A3011 RMK CU1AC1CI3 SLP224=

CYQF;2006-05-11 03:00;METAR CYQF 110300Z 09005KT 15SM FEW100 BKN250 12/M01 A3011 RMK AC2CI2 SLP217=

CYQF;2006-05-11 04:00;METAR CYQF 110400Z 11006KT 15SM FEW100 BKN250 10/M01 A3012 RMK AC2CI2 SLP219=

CYQF;2006-05-11 05:00;METAR CYQF 110500Z 13015KT 15SM BKN100 OVC250 11/01 A3012 RMK AC5CI2 SLP219=

CYQF;2006-05-11 06:00;METAR CYQF 110600Z 13013KT 15SM SCT100 OVC250 10/02 A3012 RMK AC4CI2 SLP216=

CYQF;2006-05-11 07:00;METAR CYQF 110700Z 13012KT 15SM SCT100 OVC250 09/02 A3012 RMK AC3CI2 SLP217=

CYQF;2006-05-11 08:00;METAR CYQF 110800Z 14007KT 15SM FEW100 BKN250 08/02 A3012 RMK AC2CI4 SLP216=

CYQF;2006-05-11 09:00;METAR CYQF 110900Z 15004KT 15SM FEW100 BKN250 07/02 A3010 RMK AC2CI3 SLP211=

CYQF;2006-05-11 10:00;METAR CYQF 111000Z 18004KT 15SM FEW100 SCT250 05/01 A3010 RMK AC2CI0 SLP211=

CYQF;2006-05-11 11:00;METAR CYQF 111100Z 12002KT 15SM SCT100 BKN250 04/01 A3009 RMK AC3CI2 SLP209=

CYQF;2006-05-11 12:00;METAR CYQF 111200Z 14003KT 15SM FEW100 SCT250 04/01 A3008 RMK AC2CI1 SLP206=

CYQF;2006-05-11 13:00;METAR CYQF 111300Z 20002KT 15SM FEW250 03/01 A3008 RMK CI1 SLP205=

CYQF;2006-05-11 14:00;METAR CYQF 111400Z 17005KT 15SM FEW250 08/03 A3007 RMK CI1 SLP204=

CYQF;2006-05-11 15:00;METAR CYQF 111500Z 19007KT 15SM SCT250 10/03 A3006 RMK CI2 SLP196=

CYQF;2006-05-11 16:00;METAR CYQF 111600Z 16011KT 15SM BKN250 12/02 A3005 RMK CI2 SLP192=

CYQF;2006-05-11 17:00;METAR CYQF 111700Z 16010G15KT 15SM BKN250 14/01 A3003 RMK CI5 SLP186=

CYQF;2006-05-11 18:00;METAR CYQF 111800Z 15010G15KT 15SM FEW050 BKN250 15/01 A3002 RMK CU1CI5 SLP178=

CYQF;2006-05-11 19:00;METAR CYQF 111900Z 11010G20KT 15SM FEW055 BKN250 16/01 A2997 RMK CU1CI5 SLP165=

CYQF;2006-05-11 20:00;METAR CYQF 112000Z 15010G20KT 15SM FEW060 BKN250 17/M00 A2994 RMK CU2CI2 SLP154=

CYQF;2006-05-11 21:00;METAR CYQF 112100Z 15014G25KT 15SM FEW060 BKN250 17/00 A2992 RMK CU2CI1 SLP144=

CYQF;2006-05-11 22:00;METAR CYQF 112200Z 14010G18KT 15SM FEW060 BKN250 18/00 A2988 RMK CU2CI1 SLP134=

CYQF;2006-05-11 23:00;METAR CYQF 112300Z 16009G15KT 15SM FEW060 SCT250 18/M01 A2985 RMK CU2CI1 SLP123=

CYQF;2006-05-12 00:00;METAR CYQF 120000Z 15010G18KT 15SM FEW060 FEW250 19/M01 A2982 RMK CU1CI1 SLP111=

CYQF;2006-05-12 01:00;METAR CYQF 120100Z 16010G15KT 15SM FEW060 BKN250 19/M02 A2980 RMK CU1CI2 SLP104=

CYQF;2006-05-12 02:00;METAR CYQF 120200Z 15012KT 15SM FEW060 SCT120 BKN250 17/M01 A2978 RMK SC1AC2CI1 SLP099=

CYQF;2006-05-12 03:00;METAR CYQF 120300Z 13010G15KT 15SM FEW070 BKN120 OVC250 16/M01 A2976 RMK AC2AC4CI2 VIRGA SLP089=

CYQF;2006-05-12 04:00;METAR CYQF 120400Z 11010KT 15SM SCT060 OVC100 14/M01 A2976 RMK SC3AC4 VIRGA SLP087=

CYQF;2006-05-12 05:00;METAR CYQF 120500Z 12010G15KT 15SM SCT060 OVC100 15/M01 A2975 RMK SC4AC4 VIRGA SLP083=

CYQF;2006-05-12 06:00;METAR CYQF 120600Z 14010G15KT 15SM SCT060 OVC100 14/00 A2973 RMK SC3AC5 SLP075=

CYQF;2006-05-12 07:00;METAR CYQF 120700Z 19006KT 15SM BKN075 OVC100 14/02 A2973 RMK AC5AC3 SLP073=

CYQF;2006-05-12 08:00;METAR CYQF 120800Z 11005KT 15SM SCT075 BKN120 12/04 A2970 RMK AC3AC3 SLP066=

CYQF;2006-05-12 09:00;METAR CYQF 120900Z 12002KT 15SM FEW070 BKN100 11/03 A2969 RMK AC2AC4 SLP060=

CYQF;2006-05-12 10:00;METAR CYQF 121000Z 19004KT 15SM FEW070 BKN100 09/03 A2970 RMK AC2AC4 SLP062=

CYQF;2006-05-12 11:00;METAR CYQF 121100Z 15002KT 15SM SCT050 BKN100 10/03 A2969 RMK SC4AC2 VIRGA N SLP060=

CYQF;2006-05-12 13:00;METAR CYQF 121300Z 00000KT 15SM SCT050 BKN100 08/04 A2970 RMK CU4AC1 FEW TCU VIRGA NE SLP066=

CYQF;2006-05-12 14:00;METAR CYQF 121400Z 24005KT 15SM FEW050 FEW250 10/05 A2971 RMK CU1CI0 TCU ASOCTD N SLP068=

CYQF;2006-05-12 15:00;METAR CYQF 121500Z 29010KT 15SM FEW050 FEW250 12/03 A2971 RMK CU1CI0 SLP067=

CYQF;2006-05-12 16:00;METAR CYQF 121600Z 28013KT 15SM FEW050 FEW250 14/M01 A2971 RMK CU1CI0 TCU TPS N SLP067=

CYQF;2006-05-12 17:00;METAR CYQF 121700Z 29012KT 15SM SCT050TCU SCT250 14/03 A2971 RMK TCU3CI0 SLP069=

CYQF;2006-05-12 18:00;METAR CYQF 121800Z 31010KT 15SM BKN050TCU BKN250 13/04 A2972 RMK TCU5CI0 SLP073=

CYQF;2006-05-12 19:00;METAR CYQF 121900Z 03008KT 15SM BKN050TCU BKN250 14/03 A2973 RMK TCU5CI0 SLP075=

CYQF;2006-05-12 19:14;SPECI CYQF 121914Z 08008KT 15SM -SHRA BKN050TCU BKN250 RMK TCU5CI0=

CYQF;2006-05-12 19:40;SPECI CYQF 121940Z 07008KT 15SM SCT050TCU BKN250 RMK TCU4CI0 CB ASOCTD=

CYQF;2006-05-12 20:00;METAR CYQF 122000Z 06008KT 15SM SCT050TCU BKN250 14/02 A2972 RMK TCU4CI0 SHS NW SLP071=

CYQF;2006-05-12 20:10;SPECI CYQF 122010Z 08005KT 15SM TS BKN050CB BKN250 RMK CB6CI0 HVY SHS W - NW=

CYQF;2006-05-12 20:30;SPECI CYQF 122030Z 36005KT 15SM -TSRA BKN050CB BKN250 RMK CB5CI1=

CYQF;2006-05-12 21:00;METAR CYQF 122100Z 35004KT 15SM TS SCT050CB BKN250 14/01 A2972 RMK CB4CI1 SHS NW NE-SE SLP074=

CYQF;2006-05-12 22:00;METAR CYQF 122200Z 02008KT 15SM SCT050CB BKN250 13/01 A2974 RMK CB3CI2 SHS NE RETS SLP081=

CYQF;2006-05-12 22:43;SPECI CYQF 122243Z 01012KT 15SM -SHRA BKN050CB BKN250 RMK CB5CI1=

CYQF;2006-05-12 23:00;METAR CYQF 122300Z 33015G20KT 15SM -SHRA BKN050CB BKN250 12/04 A2976 RMK CB5CI1 SLP085=

CYQF;2006-05-12 23:21;SPECI CYQF 122321Z 36015G22KT 15SM VCSH SCT050CB BKN250 RMK CB4CI1=

CYQF;2006-05-13 00:00;METAR CYQF 130000Z 36015G21KT 15SM SCT050CB BKN250 12/03 A2978 RMK CB3CI1 SLP101=

CYQF;2006-05-13 01:00;METAR CYQF 130100Z 36010G17KT 15SM FEW050TCU FEW120 SCT250 11/02 A2979 RMK TCU2AC1CI0 SLP106=

CYQF;2006-05-13 02:00;METAR CYQF 130200Z 35010G15KT 15SM FEW050TCU FEW120 SCT250 10/02 A2984 RMK TCU1AC2CI0 SLP119=

CYQF;2006-05-13 03:00;METAR CYQF 130300Z 34011KT 15SM FEW050TCU SCT120 BKN250 08/02 A2987 RMK TCU2AC2CI0 SLP132=

CYQF;2006-05-13 04:00;METAR CYQF 130400Z 33011KT 15SM FEW050 BKN120 BKN250 07/03 A2991 RMK SC2AC3CI1 TCU ASOCTD SLP144=

CYQF;2006-05-13 05:00;METAR CYQF 130500Z 34007KT 15SM FEW060 BKN100 BKN250 07/02 A2995 RMK SC1AC5CI1 SLP156=

CYQF;2006-05-13 06:00;METAR CYQF 130600Z 31008KT 15SM FEW060 BKN100 07/02 A2998 RMK SC2AC5 SLP172=

CYQF;2006-05-13 07:00;METAR CYQF 130700Z 35007KT 15SM FEW060 BKN100 06/02 A3001 RMK SC2AC5 SLP181=

CYQF;2006-05-13 08:00;METAR CYQF 130800Z 32008KT 15SM FEW060 BKN100 06/02 A3002 RMK SC2AC5 SLP184=

CYQF;2006-05-13 09:00;METAR CYQF 130900Z 31004KT 15SM FEW060 BKN090 05/02 A3005 RMK SC2AC5 SLP197=

CYQF;2006-05-13 10:00;METAR CYQF 131000Z 27004KT 15SM FEW060 BKN090 05/02 A3007 RMK SC2AC5 SLP202=

CYQF;2006-05-13 11:00;METAR CYQF 131100Z 27005KT 15SM BKN080 05/02 A3010 RMK AC6 SLP210=

CYQF;2006-05-13 12:00;METAR CYQF 131200Z 31007KT 15SM FEW080 04/01 A3010 RMK AC2 SLP216=

CYQF;2006-05-13 13:00;METAR CYQF 131300Z 30005KT 15SM FEW100 FEW250 04/01 A3012 RMK AC1CI1 SLP222=

CYQF;2006-05-13 14:00;METAR CYQF 131400Z 30009KT 15SM FEW100 BKN260 06/02 A3013 RMK AC1CI1 SLP226=

CYQF;2006-05-13 15:00;METAR CYQF 131500Z 31007KT 15SM FEW040 FEW100 SCT260 08/01 A3014 RMK CU1AC1CI0 SLP230=

CYQF;2006-05-13 16:00;METAR CYQF 131600Z 34006KT 15SM FEW040 FEW100 09/M01 A3015 RMK CU2AC1 SLP231=

CYQF;2006-05-13 17:00;METAR CYQF 131700Z 34009KT 15SM FEW045 SCT100 11/M01 A3015 RMK CU2AC1 SLP233=

CYQF;2006-05-13 18:00;METAR CYQF 131800Z 00000KT 15SM SCT050 BKN100 10/M03 A3015 RMK CU4AC1 TCU ASOCTD SLP234=

CYQF;2006-05-13 19:00;METAR CYQF 131900Z 05006KT 15SM BKN055 11/M03 A3015 RMK CU6 TCU ASOCTD SLP234=

CYQF;2006-05-13 20:00;METAR CYQF 132000Z 00000KT 15SM BKN055 BKN100 13/M01 A3015 RMK CU5AC1 TCU ASOCTD VIRGA SLP234=

CYQF;2006-05-13 21:00;METAR CYQF 132100Z 15003KT 15SM BKN055 BKN100 13/M03 A3016 RMK CU6AC1 TCU ASOCTD VIRGA SLP236=

CYQF;2006-05-13 22:00;METAR CYQF 132200Z 15003KT 15SM BKN055 BKN100 14/M02 A3016 RMK CU5AC1 TCU ASOCTD SLP236=

CYQF;2006-05-13 23:00;METAR CYQF 132300Z 13007KT 15SM BKN055 15/M02 A3016 RMK CU5 OBS TKN +10 SLP237=

CYQF;2006-05-14 00:00;METAR CYQF 140000Z 11005KT 15SM SCT060 15/M03 A3016 RMK CU3 SLP234=

CYQF;2006-05-14 01:00;METAR CYQF 140100Z 13008KT 15SM FEW060 SCT100 14/M03 A3016 RMK CU2AC0 SLP235=

CYQF;2006-05-14 02:00;METAR CYQF 140200Z 09006KT 15SM FEW070 SCT100 14/M03 A3017 RMK AC2AC1 SLP237=

CYQF;2006-05-14 03:00;METAR CYQF 140300Z 09007KT 15SM FEW070 11/M02 A3018 RMK AC2 SLP241=

CYQF;2006-05-14 04:00;METAR CYQF 140400Z 09005KT 15SM SCT070 10/M02 A3020 RMK AC3 SLP246=

CYQF;2006-05-14 05:00;METAR CYQF 140500Z 11006KT 15SM FEW070 08/M02 A3022 RMK AC2 SLP251=

CYQF;2006-05-14 06:00;METAR CYQF 140600Z 00000KT 15SM FEW070 08/M02 A3024 RMK AC1 SLP263=

CYQF;2006-05-14 07:00;METAR CYQF 140700Z 00000KT 15SM FEW070 06/M01 A3026 RMK AC1 SLP268=

CYQF;2006-05-14 08:00;METAR CYQF 140800Z 21002KT 15SM SKC 03/M02 A3028 RMK SLP275=

CYQF;2006-05-14 09:00;METAR CYQF 140900Z 19004KT 15SM SKC 03/M02 A3029 RMK SLP282=

CYQF;2006-05-14 10:00;METAR CYQF 141000Z 12005KT 15SM SKC 01/M03 A3030 RMK SLP285=

CYQF;2006-05-14 11:00;METAR CYQF 141100Z 17003KT 15SM SKC 00/M03 A3031 RMK SLP288=

CYQF;2006-05-14 12:00;METAR CYQF 141200Z 18003KT 15SM FEW250 01/M03 A3032 RMK CI1 SLP292=

CYQF;2006-05-14 13:00;METAR CYQF 141300Z 00000KT 15SM BKN250 02/M02 A3033 RMK CI1 SLP295=

CYQF;2006-05-14 14:00;METAR CYQF 141400Z 24004KT 15SM BKN250 06/00 A3033 RMK CI1 SLP296=

CYQF;2006-05-14 15:00;METAR CYQF 141500Z 22004KT 15SM SCT250 08/01 A3035 RMK CI1 SLP299=

CYQF;2006-05-14 16:00;METAR CYQF 141600Z 18003KT 15SM FEW250 11/02 A3034 RMK CI0 SLP297=

CYQF;2006-05-14 17:00;METAR CYQF 141700Z 20012KT 15SM FEW250 15/03 A3033 RMK CI0 SLP291=

CYQF;2006-05-14 18:00;METAR CYQF 141800Z 16015KT 15SM BKN250 17/02 A3031 RMK CI1 SLP280=

CYQF;2006-05-14 19:00;METAR CYQF 141900Z 16010G15KT 15SM FEW060 BKN250 18/01 A3030 RMK CU1CI2 SLP277=

CYQF;2006-05-14 20:00;METAR CYQF 142000Z 17010G20KT 15SM FEW060 BKN250 19/02 A3029 RMK CU2CI2 SLP274=

CYQF;2006-05-14 21:00;METAR CYQF 142100Z 18012G18KT 15SM FEW060 BKN250 20/00 A3028 RMK CU1CI2 SLP272=

CYQF;2006-05-14 22:00;METAR CYQF 142200Z 18010G18KT 15SM FEW060 BKN250 20/01 A3027 RMK CU1CI2 SLP268=

CYQF;2006-05-14 23:00;METAR CYQF 142300Z 16010G15KT 15SM FEW060 SCT250 20/02 A3025 RMK CU1CI2 SLP262=

CYQF;2006-05-15 00:00;METAR CYQF 150000Z 16010G15KT 15SM FEW060 SCT250 21/01 A3024 RMK CU1CI2 SLP258=

CYQF;2006-05-15 01:00;METAR CYQF 150100Z 12010G15KT 15SM FEW100 BKN250 21/01 A3023 RMK AC1CI2 SLP256=

CYQF;2006-05-15 02:00;METAR CYQF 150200Z 10007KT 15SM FEW120 BKN250 20/02 A3024 RMK AC1CI1 SLP257=

CYQF;2006-05-15 03:00;METAR CYQF 150300Z 09006KT 15SM FEW120 BKN250 18/02 A3024 RMK AC1CI1 SLP252=

CYQF;2006-05-15 04:00;METAR CYQF 150400Z 14007KT 15SM FEW120 SCT250 16/01 A3025 RMK AC1CI1 SLP256=

CYQF;2006-05-15 05:00;METAR CYQF 150500Z 15010KT 15SM FEW120 FEW250 15/01 A3025 RMK AC1CI1 SLP258=

CYQF;2006-05-15 06:00;METAR CYQF 150600Z 15012KT 15SM FEW250 14/02 A3025 RMK CI1 SLP254=

CYQF;2006-05-15 07:00;METAR CYQF 150700Z 23005KT 15SM FEW250 12/02 A3027 RMK CI1 SLP260=

CYQF;2006-05-15 08:00;METAR CYQF 150800Z 00000KT 15SM FEW250 10/02 A3027 RMK CI0 SLP260=

CYQF;2006-05-15 09:00;METAR CYQF 150900Z 00000KT 15SM FEW250 07/00 A3026 RMK CI0 SLP261=

CYQF;2006-05-15 10:00;METAR CYQF 151000Z 00000KT 15SM SCT250 05/M01 A3026 RMK CI1 SLP260=

CYQF;2006-05-15 11:00;METAR CYQF 151100Z 00000KT 15SM BKN250 03/M01 A3025 RMK CI2 SLP258=

CYQF;2006-05-15 12:00;METAR CYQF 151200Z 22003KT 15SM FEW120 BKN250 03/M01 A3025 RMK AC1CI1 SLP260=

CYQF;2006-05-15 13:00;METAR CYQF 151300Z 00000KT 15SM FEW120 SCT250 05/01 A3026 RMK AC1CI1 SLP264=

CYQF;2006-05-15 14:00;METAR CYQF 151400Z 23004KT 15SM SCT250 08/03 A3027 RMK CI1 SLP265=

CYQF;2006-05-15 15:00;METAR CYQF 151500Z 00000KT 15SM FEW250 12/05 A3027 RMK CI1 SLP259=

CYQF;2006-05-15 16:00;METAR CYQF 151600Z 00000KT 15SM FEW250 15/04 A3026 RMK CI1 SLP256=

CYQF;2006-05-15 17:00;METAR CYQF 151700Z 04003KT 15SM FEW250 19/01 A3025 RMK CI1 SLP252=

CYQF;2006-05-15 18:00;METAR CYQF 151800Z 00000KT 15SM SKC 20/M01 A3024 RMK SLP243=

CYQF;2006-05-15 19:00;METAR CYQF 151900Z 00000KT 15SM SKC 21/M01 A3022 RMK SLP238=

CYQF;2006-05-15 20:00;METAR CYQF 152000Z 13005KT 15SM FEW080 23/02 A3020 RMK CU1 SLP233=

CYQF;2006-05-15 21:00;METAR CYQF 152100Z 00000KT 15SM FEW080 25/03 A3018 RMK CU1 SLP228=

CYQF;2006-05-15 22:00;METAR CYQF 152200Z 17007KT 15SM FEW080 25/01 A3016 RMK AC1 SLP221=

CYQF;2006-05-15 23:00;METAR CYQF 152300Z 15009KT 15SM FEW080 FEW120 26/03 A3013 RMK AC1AC1 SLP212=

CYQF;2006-05-16 00:00;METAR CYQF 160000Z 10008KT 15SM FEW080 SCT140 26/02 A3012 RMK AC1AC2 SLP209=

CYQF;2006-05-16 01:00;METAR CYQF 160100Z 12009KT 15SM FEW100 BKN150 25/03 A3011 RMK AC1AC2 SLP207=

CYQF;2006-05-16 02:00;METAR CYQF 160200Z 09011KT 15SM BKN080 BKN150 23/04 A3011 RMK FU1AC1 SLP207=

CYQF;2006-05-16 03:00;METAR CYQF 160300Z 08006KT 15SM BKN080 BKN100 21/04 A3011 RMK FU2AC1 SLP202=

CYQF;2006-05-16 04:00;METAR CYQF 160400Z 05005KT 15SM SCT050 BKN100 17/04 A3012 RMK FU2AC1 SLP205=

CYQF;2006-05-16 05:00;METAR CYQF 160500Z 01005KT 15SM FEW050 17/04 A3013 RMK FU1 SLP206=

CYQF;2006-05-16 06:00;METAR CYQF 160600Z 02004KT 15SM SKC 15/04 A3012 RMK SLP202=

CYQF;2006-05-16 07:00;METAR CYQF 160700Z 00000KT 15SM SKC 11/03 A3011 RMK SLP199=

CYQF;2006-05-16 08:00;METAR CYQF 160800Z 00000KT 15SM FEW250 14/03 A3012 RMK CI0 SLP201=

CYQF;2006-05-16 09:00;METAR CYQF 160900Z 00000KT 15SM SCT250 10/03 A3011 RMK CI2 SLP199=

CYQF;2006-05-16 10:00;METAR CYQF 161000Z 00000KT 15SM BKN250 09/03 A3012 RMK CI2 SLP202=

CYQF;2006-05-16 11:00;METAR CYQF 161100Z 29005KT 15SM FEW100 BKN250 08/03 A3013 RMK AC2CI2 SLP204=

CYQF;2006-05-16 12:00;METAR CYQF 161200Z 00000KT 15SM FEW100 BKN250 08/03 A3013 RMK AC1CI2 SLP208=

CYQF;2006-05-16 13:00;METAR CYQF 161300Z 00000KT 15SM FEW100 BKN250 08/04 A3014 RMK AC1CI2 SLP211=

CYQF;2006-05-16 14:00;METAR CYQF 161400Z 00000KT 15SM FEW100 BKN250 12/05 A3014 RMK AC1CI3 SLP211=

CYQF;2006-05-16 15:00;METAR CYQF 161500Z 02002KT 15SM FEW100 BKN250 15/06 A3015 RMK AC1CI3 SLP210=

CYQF;2006-05-16 16:00;METAR CYQF 161600Z 36005KT 15SM FEW120 BKN250 18/06 A3015 RMK AC1CI2 SLP211=

CYQF;2006-05-16 17:00;METAR CYQF 161700Z 03005KT 15SM FEW120 BKN250 21/06 A3014 RMK AC1CI3 SLP209=

CYQF;2006-05-16 18:00;METAR CYQF 161800Z 00000KT 15SM FEW120 BKN270 23/06 A3014 RMK AC2CI3 SLP203=

CYQF;2006-05-16 19:00;METAR CYQF 161900Z 06004KT 15SM FEW120 BKN270 26/05 A3013 RMK AC2CI3 SLP201=

CYQF;2006-05-16 20:00;METAR CYQF 162000Z 02007KT 15SM FEW060 SCT140 BKN270 27/06 A3012 RMK CU1AC2CI2 SLP198=

CYQF;2006-05-16 21:00;METAR CYQF 162100Z 09006KT 15SM FEW060 BKN270 27/05 A3011 RMK CU1CI2 SLP196=

CYQF;2006-05-16 22:00;METAR CYQF 162200Z 03005KT 15SM FEW060 BKN270 28/05 A3010 RMK CU1CI2 SLP192=

CYQF;2006-05-16 23:00;METAR CYQF 162300Z 11009KT 15SM FEW100 SCT270 28/04 A3008 RMK AC1CI2 SLP188=

CYQF;2006-05-17 00:00;METAR CYQF 170000Z 10002KT 15SM FEW100 SCT270 27/03 A3008 RMK AC2CI1 SLP187=

CYQF;2006-05-17 01:00;METAR CYQF 170100Z 08003KT 15SM FEW100 SCT250 27/05 A3006 RMK AC2CI1 SLP183=

CYQF;2006-05-17 02:00;METAR CYQF 170200Z 09003KT 15SM SCT100 24/06 A3006 RMK AC3 VIRGA NE SLP183=

CYQF;2006-05-17 03:00;METAR CYQF 170300Z 12006KT 15SM BKN100 24/05 A3006 RMK AC5 VIRGA W-N SLP177=

CYQF;2006-05-17 04:00;METAR CYQF 170400Z 11004KT 15SM BKN080 21/06 A3008 RMK AC5 VIRGA SLP183=

CYQF;2006-05-17 05:00;METAR CYQF 170500Z 00000KT 15SM SCT080 22/05 A3006 RMK AC3 SLP178=

CYQF;2006-05-17 06:00;METAR CYQF 170600Z 15006KT 15SM FEW080 20/05 A3006 RMK AC2 SLP171=

CYQF;2006-05-17 07:00;METAR CYQF 170700Z 36012KT 15SM FEW080 16/04 A3009 RMK AC2 SLP180=

CYQF;2006-05-17 08:00;METAR CYQF 170800Z 10005KT 15SM SKC 16/05 A3009 RMK SLP181=

CYQF;2006-05-17 09:00;METAR CYQF 170900Z 14008KT 15SM SKC 16/04 A3008 RMK SLP179=

CYQF;2006-05-17 10:00;METAR CYQF 171000Z 19004KT 15SM FEW080 12/03 A3006 RMK AC1 SLP173=

CYQF;2006-05-17 11:00;METAR CYQF 171100Z 22007KT 15SM FEW080 10/03 A3005 RMK AC1 SLP170=

CYQF;2006-05-17 12:00;METAR CYQF 171200Z 23007KT 15SM FEW080 FEW250 10/04 A3005 RMK AC1CI1 SLP175=

CYQF;2006-05-17 13:00;METAR CYQF 171300Z 20004KT 15SM FEW080 FEW250 11/05 A3005 RMK AC1CI1 SLP175=

CYQF;2006-05-17 14:00;METAR CYQF 171400Z 23005KT 15SM FEW250 14/06 A3005 RMK CI2 SLP174=

CYQF;2006-05-17 15:00;METAR CYQF 171500Z 25006KT 15SM FEW270 18/06 A3004 RMK CI2 SLP165=

CYQF;2006-05-17 16:00;METAR CYQF 171600Z 23008KT 15SM FEW270 22/07 A3003 RMK CI2 SLP162=

CYQF;2006-05-17 17:00;METAR CYQF 171700Z 31007KT 15SM FEW060 FEW270 26/08 A3001 RMK CU1CI2 SLP158=

CYQF;2006-05-17 18:00;METAR CYQF 171800Z 27007KT 15SM FEW060 FEW160 SCT270 28/06 A2999 RMK CU2AC1CI1 SLP144=

CYQF;2006-05-17 19:00;METAR CYQF 171900Z 32006KT 15SM FEW060 SCT160 BKN270 28/06 A2997 RMK CU2AC2CI0 SLP136=

CYQF;2006-05-17 20:00;METAR CYQF 172000Z 09002KT 15SM FEW060 SCT160 BKN270 29/06 A2995 RMK CU2AC2CI0 FEW TCU W SLP129=

CYQF;2006-05-17 21:00;METAR CYQF 172100Z 07007KT 15SM FEW060 SCT160 BKN270 30/05 A2992 RMK CU2AC1CI1 TCU TPS N SLP121=

CYQF;2006-05-17 22:00;METAR CYQF 172200Z 24007KT 15SM SCT070 SCT160 BKN270 31/05 A2990 RMK CU3AC1CI1 TCU TPS N SLP116=

CYQF;2006-05-17 23:00;METAR CYQF 172300Z 27004KT 15SM SCT070 BKN270 31/05 A2988 RMK CU4CI1 SLP110=

CYQF;2006-05-18 00:00;METAR CYQF 180000Z 25012KT 15SM SCT070 BKN160 BKN270 28/05 A2987 RMK CU4AC2CI1 TCU EMBD SHS E SLP113=

CYQF;2006-05-18 01:00;METAR CYQF 180100Z 35007KT 15SM SCT070 BKN120 BKN250 27/07 A2987 RMK CU4AC2CI0 TCU ASOCTD SHS E SLP111=

CYQF;2006-05-18 02:00;METAR CYQF 180200Z 30007KT 15SM FEW070 BKN100 BKN250 25/03 A2986 RMK CU2AC2CI2 SLP108=

CYQF;2006-05-18 03:00;METAR CYQF 180300Z 26005KT 15SM FEW070 SCT100 BKN250 21/03 A2985 RMK CU1AC3CI2 SLP106=

CYQF;2006-05-18 04:00;METAR CYQF 180400Z 24007KT 15SM FEW080 BKN110 BKN250 18/03 A2985 RMK AC1AC4CI0 SLP106=

CYQF;2006-05-18 05:00;METAR CYQF 180500Z 26007KT 15SM FEW080 SCT120 BKN250 17/03 A2986 RMK AC1AC3CI0 SLP107=

CYQF;2006-05-18 06:00;METAR CYQF 180600Z 26007KT 15SM FEW120 SCT250 16/03 A2985 RMK AC2CI0 SLP100=

CYQF;2006-05-18 07:00;METAR CYQF 180700Z 26008KT 15SM FEW120 SCT250 16/03 A2984 RMK AC2CI1 SLP096=

CYQF;2006-05-18 08:00;METAR CYQF 180800Z 27008KT 15SM FEW120 SCT250 17/04 A2985 RMK AC2CI1 SLP098=

CYQF;2006-05-18 09:00;METAR CYQF 180900Z 30008KT 15SM SCT120 BKN250 17/04 A2985 RMK AC3CI1 SLP094=

CYQF;2006-05-18 10:00;METAR CYQF 181000Z 33003KT 15SM SCT120 BKN250 15/04 A2986 RMK AC3CI1 SLP098=

CYQF;2006-05-18 11:00;METAR CYQF 181100Z 00000KT 15SM FEW120 BKN250 17/05 A2986 RMK AC2CI2 SLP100=

CYQF;2006-05-18 12:00;METAR CYQF 181200Z 36004KT 15SM FEW120 BKN250 15/05 A2987 RMK AC2CI2 SLP108=

CYQF;2006-05-18 13:00;METAR CYQF 181300Z 30004KT 15SM FEW120 SCT250 12/06 A2988 RMK AC2CI1 SLP109=

CYQF;2006-05-18 14:00;METAR CYQF 181400Z 34004KT 15SM FEW120 SCT250 16/07 A2989 RMK AC2CI1 SLP113=

CYQF;2006-05-18 15:00;METAR CYQF 181500Z 36006KT 15SM FEW140 BKN250 20/05 A2990 RMK AC2CI2 SLP121=

CYQF;2006-05-18 16:00;METAR CYQF 181600Z 36003KT 15SM SCT140 BKN250 19/05 A2990 RMK AC3CI2 SLP121=

CYQF;2006-05-18 17:00;METAR CYQF 181700Z 36005KT 15SM SCT140 BKN270 21/02 A2991 RMK AC4CI1 SLP122=

CYQF;2006-05-18 18:00;METAR CYQF 181800Z 01007KT 15SM FEW140 SCT270 23/03 A2990 RMK AC2CI1 SLP123=

CYQF;2006-05-18 19:00;METAR CYQF 181900Z 01003KT 15SM FEW140 SCT270 24/03 A2989 RMK AC2CI1 SLP119=

CYQF;2006-05-18 20:00;METAR CYQF 182000Z 32006KT 15SM FEW140 SCT270 25/04 A2988 RMK AC2CI1 SLP116=

CYQF;2006-05-18 21:00;METAR CYQF 182100Z 05008KT 15SM FEW140 SCT270 25/04 A2987 RMK AC2CI1 SLP108=

CYQF;2006-05-18 22:00;METAR CYQF 182200Z 06011KT 15SM FEW140 SCT270 26/04 A2986 RMK AC2CI0 SLP104=

CYQF;2006-05-18 23:00;METAR CYQF 182300Z 09010KT 15SM FEW140 BKN270 26/04 A2985 RMK AC2CI2 SLP102=

CYQF;2006-05-19 00:00;METAR CYQF 190000Z 07006KT 15SM FEW140 BKN270 26/04 A2985 RMK AC2CI2 SLP101=

CYQF;2006-05-19 01:00;METAR CYQF 190100Z 10005KT 15SM FEW070 FEW140 SCT270 25/03 A2984 RMK CU1AC1CI1 SLP099=

CYQF;2006-05-19 02:00;METAR CYQF 190200Z 08008KT 15SM FEW070 SCT270 24/03 A2984 RMK CU1CI2 SLP100=

CYQF;2006-05-19 03:00;METAR CYQF 190300Z 04008KT 15SM FEW070 SCT270 22/02 A2985 RMK CU1CI2 SLP101=

CYQF;2006-05-19 04:00;METAR CYQF 190400Z 04005KT 15SM FEW070 SCT270 20/02 A2986 RMK CU1CI2 SLP105=

CYQF;2006-05-19 05:00;METAR CYQF 190500Z 00000KT 15SM SCT250 16/03 A2988 RMK CI2 SLP112=

CYQF;2006-05-19 06:00;METAR CYQF 190600Z 01004KT 15SM SCT250 15/03 A2989 RMK CI2 SLP121=

CYQF;2006-05-19 07:00;METAR CYQF 190700Z 00000KT 15SM SCT250 13/03 A2989 RMK CI1 SLP120=

CYQF;2006-05-19 08:00;METAR CYQF 190800Z 00000KT 15SM SCT250 14/04 A2989 RMK CI1 SLP121=

CYQF;2006-05-19 09:00;METAR CYQF 190900Z 00000KT 15SM SCT250 11/03 A2989 RMK CI1 SLP122=

CYQF;2006-05-19 10:00;METAR CYQF 191000Z 00000KT 15SM SCT250 10/04 A2988 RMK CI2 SLP119=

CYQF;2006-05-19 11:00;METAR CYQF 191100Z 00000KT 15SM FEW120 SCT250 09/04 A2989 RMK AC1CI1 SLP120=

CYQF;2006-05-19 12:00;METAR CYQF 191200Z 00000KT 15SM FEW080 BKN250 10/04 A2989 RMK CU2CI1 SLP123=

CYQF;2006-05-19 14:00;METAR CYQF 191400Z 00000KT 15SM SCT080 BKN250 14/06 A2990 RMK AC3CI2 SHS SE SLP126=

CYQF;2006-05-19 15:00;METAR CYQF 191500Z 10004KT 15SM FEW080 BKN250 19/06 A2990 RMK AC2CI1 SLP121=

CYQF;2006-05-19 16:00;METAR CYQF 191600Z 14008KT 15SM FEW060 BKN250 20/05 A2991 RMK CU1CI2 SLP123=

CYQF;2006-05-19 18:00;METAR CYQF 191800Z 13012G18KT 15SM FEW120 BKN250 24/06 A2986 RMK AC1CI3 SLP108=

CYQF;2006-05-19 19:00;METAR CYQF 191900Z 13013G20KT 15SM SCT110 BKN250 25/05 A2987 RMK AC4CI1 SLP110=

CYQF;2006-05-19 20:00;METAR CYQF 192000Z 18011KT 15SM -SHRA SCT070 BKN110 BKN250 23/08 A2989 RMK AC3AC3CI1 CU ASOCTD SLP117=

CYQF;2006-05-19 20:35;SPECI CYQF 192035Z 09008KT 15SM FEW080 BKN110 OVC250 RMK AC2AC4CI2 CU ASOCTD=

CYQF;2006-05-19 21:00;METAR CYQF 192100Z 12010KT 15SM FEW080 BKN110 BKN250 23/09 A2987 RMK AC2AC4CI1 CU ASOCTD VIRGA S SLP118=

CYQF;2006-05-19 22:00;METAR CYQF 192200Z 16013KT 15SM FEW080 BKN110 BKN250 25/07 A2985 RMK AC2AC3CI1 CU ASOCTD SLP112=

CYQF;2006-05-19 23:00;METAR CYQF 192300Z 09015G24KT 15SM FEW080 FEW120 SCT250 25/08 A2985 RMK AC1AC1CI1 SLP110=

CYQF;2006-05-20 00:00;METAR CYQF 200000Z 10015G20KT 15SM FEW080 FEW250 23/08 A2985 RMK AC1CI0 SLP109=

CYQF;2006-05-20 01:00;METAR CYQF 200100Z 11015G25KT 15SM FEW100 SCT270 22/08 A2984 RMK AC2CI2 SLP108=

CYQF;2006-05-20 02:00;METAR CYQF 200200Z 11014KT 15SM SCT100 SCT270 21/08 A2984 RMK AC3CI1 SLP108=

CYQF;2006-05-20 03:00;METAR CYQF 200300Z 12010KT 15SM SCT090 BKN270 19/08 A2985 RMK AC4CI1 SLP105=

CYQF;2006-05-20 04:00;METAR CYQF 200400Z 08003KT 15SM SCT090 BKN270 17/07 A2986 RMK AC4CI1 SLP110=

CYQF;2006-05-20 05:00;METAR CYQF 200500Z 06003KT 15SM SCT090 BKN270 16/07 A2988 RMK AC4CI2 SLP115=

CYQF;2006-05-20 06:00;METAR CYQF 200600Z 09006KT 15SM SCT090 BKN250 16/07 A2989 RMK AC4CI2 CB/LTGCG DIST S SLP118=

CYQF;2006-05-20 07:00;METAR CYQF 200700Z 13011KT 15SM -SHRA BKN090 BKN250 16/06 A2993 RMK AC5CI1 CB/LTGCC SW SLP130=

CYQF;2006-05-20 07:39;SPECI CYQF 200739Z 11007KT 15SM SCT090 RMK AC3=

CYQF;2006-05-20 08:00;METAR CYQF 200800Z 12005KT 15SM SCT090 14/06 A2990 RMK AC4 SLP122=

CYQF;2006-05-20 09:00;METAR CYQF 200900Z 09009KT 15SM FEW090 13/05 A2988 RMK AC2 SLP118=

CYQF;2006-05-20 10:00;METAR CYQF 201000Z 09011KT 15SM SCT090 SCT250 12/05 A2989 RMK AC3CI0 SLP122=

CYQF;2006-05-20 11:00;METAR CYQF 201100Z 06009KT 15SM FEW100 SCT250 11/05 A2990 RMK AC2CI1 SLP124=

CYQF;2006-05-20 12:00;METAR CYQF 201200Z 09007KT 15SM FEW100 BKN250 10/04 A2988 RMK AC2CI3 SLP122=

CYQF;2006-05-20 13:00;METAR CYQF 201300Z 09012KT 15SM FEW120 BKN250 11/05 A2989 RMK AC1CI4 SLP123=

CYQF;2006-05-20 14:00;METAR CYQF 201400Z 10012KT 15SM FEW120 BKN250 12/06 A2988 RMK AC1CI2 SLP120=

CYQF;2006-05-20 15:00;METAR CYQF 201500Z 13015KT 15SM FEW120 BKN250 13/06 A2988 RMK AC1CI2 SLP122=

CYQF;2006-05-20 16:00;METAR CYQF 201600Z 13015G20KT 15SM SCT120 OVC250 14/06 A2986 RMK AC2CI4 SLP118=

CYQF;2006-05-20 17:00;METAR CYQF 201700Z 13015G20KT 15SM FEW030 SCT100 OVC250 14/07 A2985 RMK SC1AC2CI4 SLP115=

CYQF;2006-05-20 18:00;METAR CYQF 201800Z 14014G20KT 15SM FEW035 SCT100 BKN250 17/08 A2983 RMK SC2AC2CI2 SLP104=

CYQF;2006-05-20 19:00;METAR CYQF 201900Z 15015G25KT 15SM SCT040 BKN100 BKN250 18/08 A2981 RMK SC3AC2CI2 SLP097=

CYQF;2006-05-20 20:00;METAR CYQF 202000Z 10016G22KT 15SM FEW040 BKN100 BKN250 18/08 A2978 RMK SC2AC2CI2 SLP089=

CYQF;2006-05-20 21:00;METAR CYQF 202100Z 14016G25KT 15SM BKN040 OVC090 19/09 A2974 RMK SC6AC2 SLP074=

CYQF;2006-05-20 22:00;METAR CYQF 202200Z 13015G25KT 15SM BKN040 OVC090 20/09 A2971 RMK SC6AC2 VIRGA SLP063=

CYQF;2006-05-20 23:00;METAR CYQF 202300Z 12012G20KT 15SM SCT040 OVC090 21/09 A2966 RMK SC4AC4 VIRGA SLP050=

CYQF;2006-05-21 00:00;METAR CYQF 210000Z 09012G20KT 15SM BKN040 BKN090 OVC250 20/09 A2962 RMK SC5AC2CI2 SHS S-SW-W SLP035=

CYQF;2006-05-21 00:22;SPECI CYQF 210022Z 12012G20KT 12SM -SHRA BKN035 BKN090 OVC250 RMK CU6AC2CI1 TCU EMBDD=

CYQF;2006-05-21 00:25;SPECI CYQF 210025Z 13012KT 12SM -TSRA BKN035TCU BKN090 OVC250 RMK TCU6AC2CI1 CB EMBDD LGT S=

CYQF;2006-05-21 00:39;SPECI CYQF 210039Z 18015G24KT 1SM +SHRA OVC030TCU RMK TCU8=

CYQF;2006-05-21 00:48;SPECI CYQF 210048Z 16012G20KT 2SM -SHRA BR FEW012 OVC025TCU RMK SF2TCU6 HVR SHS N=

CYQF;2006-05-21 01:00;METAR CYQF 210100Z 16007KT 2SM -SHRA BR BKN012 OVC025 15/13 A2963 RMK SC6SC2 TCU EMBD SLP036=

CYQF;2006-05-21 01:05;SPECI CYQF 210105Z 16004KT 4SM -SHRA SCT012 BKN025 OVC090 RMK SC3SC2AC2 TCU EMBDD HVR SHS N QUAD VIS S 12 N 2=

CYQF;2006-05-21 01:53;SPECI CYQF 210153Z 13008KT 15SM FEW012 BKN030TCU BKN090 BKN250 RMK SF2TCU3AC2CI1 SHS DIST NW-N-NE=

CYQF;2006-05-21 02:00;METAR CYQF 210200Z 14008KT 15SM FEW012 BKN030TCU BKN090 BKN250 17/11 A2961 RMK SF2TCU3AC2CI1 SHS DIST NW-N-NE SLP031=

CYQF;2006-05-21 03:00;METAR CYQF 210300Z 14017G26KT 15SM -SHRA FEW012 BKN030TCU BKN090 15/11 A2959 RMK SC2TCU3AC2 HVR SHS DIST N-NE SLP026=

CYQF;2006-05-21 03:19;SPECI CYQF 210319Z 14015G27KT 15SM FEW012 BKN030TCU BKN090 RMK SC2TCU3AC2 SHS NW+N-NE=

CYQF;2006-05-21 04:00;METAR CYQF 210400Z 16012G18KT 15SM FEW012 SCT030 SCT090 14/11 A2958 RMK SC1CU3AC1 TR SC TCU ASCTD SHS DIST N SLP024=

CYQF;2006-05-21 05:00;METAR CYQF 210500Z 17010KT 15SM FEW030 13/11 A2958 RMK CU2 SLP023=

CYQF;2006-05-21 06:00;METAR CYQF 210600Z 19007KT 15SM SCT030 13/11 A2959 RMK CU3 SLP024=

CYQF;2006-05-21 07:00;METAR CYQF 210700Z 27003KT 15SM FEW030 11/10 A2961 RMK SC2 SLP031=

CYQF;2006-05-21 08:00;METAR CYQF 210800Z 29004KT 15SM FEW250 11/10 A2962 RMK CI1 SLP032=

CYQF;2006-05-21 09:00;METAR CYQF 210900Z 24005KT 15SM FEW250 09/08 A2963 RMK CI1 SLP039=

CYQF;2006-05-21 10:00;METAR CYQF 211000Z 24005KT 15SM FEW250 08/07 A2963 RMK CI1 SLP040=

CYQF;2006-05-21 10:37;SPECI CYQF 211037Z 19002KT 1SM BR SCT120 RMK FG3AC1=

CYQF;2006-05-21 11:00;METAR CYQF 211100Z 20005KT 3/4SM BR BKN100 07/07 A2964 RMK FG4AC1 SLP043=

CYQF;2006-05-21 11:35;SPECI CYQF 211135Z 19003KT 1/4SM FG BKN100 RMK FG6AC1=

CYQF;2006-05-21 12:00;METAR CYQF 211200Z 20004KT 1/4SM FG BKN100 06/06 A2965 RMK FG6AC1 SLP049=

CYQF;2006-05-21 12:16;SPECI CYQF 211216Z 20002KT 1SM BR BKN100 RMK FG2AC3=

CYQF;2006-05-21 12:29;SPECI CYQF 211229Z 20004KT 8SM BKN100 RMK AC6 BR=

CYQF;2006-05-21 13:00;METAR CYQF 211300Z 22006KT 15SM BKN100 BKN250 09/09 A2966 RMK AC5CI1 SLP050=

CYQF;2006-05-21 14:00;METAR CYQF 211400Z 17003KT 15SM BKN120 BKN250 10/09 A2967 RMK AC4CI1 SLP055=

CYQF;2006-05-21 15:00;METAR CYQF 211500Z 18002KT 15SM FEW100 BKN250 15/11 A2967 RMK AC2CI1 SLP054=

CYQF;2006-05-21 16:00;METAR CYQF 211600Z 21005KT 15SM FEW100 BKN250 16/09 A2968 RMK AC1CI2 SLP055=

CYQF;2006-05-21 18:00;METAR CYQF 211800Z 16002KT 15SM FEW060 BKN250 20/05 A2966 RMK CU1CI2 TR CU SLP047=

CYQF;2006-05-21 19:00;METAR CYQF 211900Z 18008KT 15SM FEW060 BKN250 21/03 A2966 RMK CU1CI2 SLP044=

CYQF;2006-05-21 20:00;METAR CYQF 212000Z 16012KT 15SM FEW060 BKN250 22/04 A2964 RMK CU1CI1 SLP040=

CYQF;2006-05-21 21:00;METAR CYQF 212100Z 18005KT 15SM FEW060 BKN250 23/06 A2962 RMK CU1CI1 SLP032=

CYQF;2006-05-21 22:00;METAR CYQF 212200Z 18010G15KT 15SM FEW060 BKN250 24/04 A2960 RMK CU1CI1 SLP027=

CYQF;2006-05-21 23:00;METAR CYQF 212300Z 17011KT 15SM FEW060 BKN250 25/03 A2958 RMK CU2CI2 SLP022=

CYQF;2006-05-22 00:00;METAR CYQF 220000Z 18009KT 15SM FEW060 BKN250 24/02 A2958 RMK CU2CI2 SLP020=

CYQF;2006-05-22 01:00;METAR CYQF 220100Z 21010KT 15SM FEW060 SCT250 24/02 A2958 RMK CU2CI2 SLP020=

CYQF;2006-05-22 02:00;METAR CYQF 220200Z 21006KT 15SM FEW060 BKN120 BKN250 23/05 A2958 RMK CU2AC3CI1 SLP020=

CYQF;2006-05-22 03:00;METAR CYQF 220300Z 19005KT 15SM FEW060 BKN120 BKN250 20/05 A2958 RMK CU2AC3CI1 SLP016=

CYQF;2006-05-22 04:00;METAR CYQF 220400Z 18002KT 15SM SCT100 BKN250 18/05 A2959 RMK AC3CI1 SLP020=

CYQF;2006-05-22 05:00;METAR CYQF 220500Z 29003KT 15SM FEW100 15/05 A2962 RMK AC2 SLP029=

CYQF;2006-05-22 06:00;METAR CYQF 220600Z 21003KT 15SM FEW100 12/05 A2964 RMK AC2 SLP040=

CYQF;2006-05-22 07:00;METAR CYQF 220700Z 24003KT 15SM FEW100 11/04 A2966 RMK AC2 SLP045=

CYQF;2006-05-22 08:00;METAR CYQF 220800Z 26007KT 15SM FEW100 10/04 A2966 RMK AC2 SLP046=

CYQF;2006-05-22 09:00;METAR CYQF 220900Z 19005KT 15SM SCT100 10/05 A2967 RMK AC4 SLP048=

CYQF;2006-05-22 10:00;METAR CYQF 221000Z 20004KT 15SM BKN100 11/05 A2967 RMK AC6 SLP049=

CYQF;2006-05-22 11:00;METAR CYQF 221100Z 22002KT 15SM BKN080 11/05 A2969 RMK AC7 SLP054=

CYQF;2006-05-22 12:00;METAR CYQF 221200Z 00000KT 15SM BKN080 BKN250 10/05 A2969 RMK AC5CI2 SLP055=

CYQF;2006-05-22 13:00;METAR CYQF 221300Z 00000KT 15SM BKN080 BKN250 10/06 A2971 RMK AC5CI2 SLP060=

CYQF;2006-05-22 14:00;METAR CYQF 221400Z 16003KT 15SM SCT080 BKN250 13/07 A2972 RMK AC3CI2 SLP064=

CYQF;2006-05-22 15:00;METAR CYQF 221500Z 27003KT 15SM FEW100 BKN250 15/07 A2972 RMK AC2CI3 SLP062=

CYQF;2006-05-22 16:00;METAR CYQF 221600Z 00000KT 15SM FEW090 BKN250 17/08 A2972 RMK AC2CI3 SLP064=

CYQF;2006-05-22 17:00;METAR CYQF 221700Z 00000KT 15SM FEW090 BKN250 20/08 A2971 RMK AC2CI2 SLP060=

CYQF;2006-05-22 18:00;METAR CYQF 221800Z 02007KT 15SM FEW090 BKN250 22/04 A2969 RMK AC1CI2 SLP053=

CYQF;2006-05-22 19:00;METAR CYQF 221900Z 05007KT 15SM FEW090 BKN250 23/05 A2968 RMK AC2CI2 SLP052=

CYQF;2006-05-22 20:00;METAR CYQF 222000Z 08010KT 15SM FEW080 BKN140 OVC250 24/05 A2968 RMK AC2AC2CI2 VIRGA SLP050=

CYQF;2006-05-22 20:51;SPECI CYQF 222051Z 16006KT 15SM -SHRA BKN080TCU OVC140 RMK TCU5AC2=

CYQF;2006-05-22 21:00;METAR CYQF 222100Z 20005KT 15SM -SHRA BKN080TCU BKN140 OVC250 23/07 A2968 RMK TCU5AC2CI1 SLP052=

CYQF;2006-05-22 22:00;METAR CYQF 222200Z 30003KT 15SM -SHRA BKN080TCU BKN140 OVC250 22/08 A2967 RMK TCU5AC2CI1 SLP050=

CYQF;2006-05-22 22:49;SPECI CYQF 222249Z 21007KT 15SM VCSH SCT080CB BKN250 RMK CB3CI2=

CYQF;2006-05-22 23:00;METAR CYQF 222300Z 21003KT 15SM FEW070CB BKN250 22/10 A2967 RMK CB2CI2 SHS E SLP049=

CYQF;2006-05-23 00:00;METAR CYQF 230000Z 07008KT 15SM FEW070TCU BKN250 22/09 A2966 RMK TCU2CI2 SLP045=

CYQF;2006-05-23 01:00;METAR CYQF 230100Z 05012KT 15SM FEW070 BKN100 BKN250 21/09 A2963 RMK AC2AC2CI2 SHS DIST S+SW SLP036=

CYQF;2006-05-23 02:21;SPECI CYQF 230221Z 10007KT 15SM -TSRA BKN045CB BKN100 BKN250 RMK CB5AC2CI1 LTGICCCCG O/H S+W HVR SHS S=

CYQF;2006-05-23 03:00;METAR CYQF 230300Z 18007KT 15SM -TSRA BKN045TCU OVC100 18/12 A2971 RMK TCU6AC2 CB EMBD SE-E-NE+NW LTGICCG HVR SHS E QUAD SLP062=

CYQF;2006-05-23 03:39;SPECI CYQF 230339Z 00000KT 15SM -SHRA SCT045TCU BKN080 OVC100 RMK TCU4AC2AC2 HVR SHS NW-N-NE VIS N 5 RETS=

CYQF;2006-05-23 04:00;METAR CYQF 230400Z 05007KT 15SM -SHRA BKN040 BKN090 OVC250 14/13 A2969 RMK CU6AC2CI1 TCU ASCTD N HVY SHS N QUAD RETS SLP057=

CYQF;2006-05-23 04:18;SPECI CYQF 230418Z 01008KT 15SM BKN045 BKN090 OVC250 RMK CU6AC2CI1 SHS DIST NW+N-NE=

CYQF;2006-05-23 05:00;METAR CYQF 230500Z 01005KT 15SM SCT045 BKN090 OVC250 14/12 A2967 RMK SC3AC2CI2 SLP050=

CYQF;2006-05-23 06:00;METAR CYQF 230600Z 02009KT 15SM FEW045 SCT090 BKN250 14/12 A2966 RMK SC2AC2CI2 SLP043=

CYQF;2006-05-23 07:00;METAR CYQF 230700Z 02010KT 15SM FEW045 BKN080 BKN250 14/12 A2965 RMK SC2AC4CI1 SLP040=

CYQF;2006-05-23 07:28;SPECI CYQF 230728Z 31005KT 15SM -SHRA FEW040 BKN080 BKN250 RMK SC2AC5CI1=

CYQF;2006-05-23 08:00;METAR CYQF 230800Z 31008KT 15SM FEW040 BKN080 BKN250 14/12 A2967 RMK SC2AC4CI1 SLP047=

CYQF;2006-05-23 09:00;METAR CYQF 230900Z 30005KT 15SM FEW080 SCT250 11/10 A2966 RMK AC2CI1 SLP045=

CYQF;2006-05-23 10:00;METAR CYQF 231000Z 36006KT 15SM FEW080 SCT250 12/10 A2965 RMK AC2CI1 SLP041=

CYQF;2006-05-23 11:00;METAR CYQF 231100Z 27006KT 15SM SCT080 BKN120 BKN250 11/10 A2967 RMK AC3AC2CI2 SLP048=

CYQF;2006-05-23 12:00;METAR CYQF 231200Z 29004KT 15SM SCT080 BKN120 OVC250 11/10 A2968 RMK AC3AC2CI2 SLP053=

CYQF;2006-05-23 13:00;METAR CYQF 231300Z 00000KT 15SM FEW080 SCT120 OVC250 12/11 A2968 RMK AC2AC2CI2 SLP054=

CYQF;2006-05-23 14:00;METAR CYQF 231400Z 36003KT 15SM SCT100 BKN250 14/12 A2969 RMK AC2CI2 SLP055=

CYQF;2006-05-23 15:00;METAR CYQF 231500Z 00000KT 15SM SCT100 OVC250 15/12 A2969 RMK AC3CI3 SLP057=

CYQF;2006-05-23 16:00;METAR CYQF 231600Z 00000KT 15SM FEW010 BKN100 OVC250 16/12 A2972 RMK SC1AC4CI2 SLP065=

CYQF;2006-05-23 17:00;METAR CYQF 231700Z 29003KT 15SM FEW012 SCT100 OVC250 17/13 A2972 RMK SC1AC3CI4 TR SC SLP065=

CYQF;2006-05-23 18:00;METAR CYQF 231800Z 30005KT 15SM BKN090 OVC250 18/13 A2973 RMK AC4CI4 SLP072=

CYQF;2006-05-23 19:00;METAR CYQF 231900Z 27005KT 15SM BKN090 OVC250 19/13 A2975 RMK AC5CI3 SLP076=

CYQF;2006-05-23 20:00;METAR CYQF 232000Z 31007KT 15SM SCT090 BKN250 20/13 A2975 RMK AC3CI4 SLP078=

CYQF;2006-05-23 21:00;METAR CYQF 232100Z 31009KT 15SM FEW030 BKN090 BKN250 20/12 A2977 RMK CU1AC4CI2 SLP085=

CYQF;2006-05-23 22:00;METAR CYQF 232200Z 34008KT 15SM FEW030 SCT090 BKN250 20/12 A2978 RMK CU1AC2CI3 SLP089=

CYQF;2006-05-23 23:00;METAR CYQF 232300Z 36010G15KT 15SM FEW040TCU SCT090 BKN250 21/12 A2979 RMK TCU1AC2CI2 SLP091=

CYQF;2006-05-24 00:00;METAR CYQF 240000Z 36015G25KT 15SM FEW035CB SCT250 20/12 A2979 RMK CB2CI1 SLP092=

CYQF;2006-05-24 01:00;METAR CYQF 240100Z 34020G30KT 15SM VCSH FEW020 BKN040CB OVC090 16/10 A2984 RMK SF2CB4AC2 LTGCG SW SLP107=

CYQF;2006-05-24 01:07;SPECI CYQF 240107Z 36015G25KT 15SM -TSRA FEW020 BKN040CB OVC090 RMK SF2CB4AC2 LTGCG=

CYQF;2006-05-24 01:38;SPECI CYQF 240138Z 34010G16KT 15SM -SHRA FEW010 SCT040CB OVC090 RMK SF2CB2AC3=

CYQF;2006-05-24 02:00;METAR CYQF 240200Z 32006KT 15SM FEW010 BKN050CB OVC100 13/11 A2990 RMK SF2CB3AC2 SLP126=

CYQF;2006-05-24 02:26;SPECI CYQF 240226Z 31010G15KT 15SM -SHRA FEW008 BKN050 OVC100 RMK SF2SC4AC1=

CYQF;2006-05-24 03:00;METAR CYQF 240300Z 36005KT 15SM -SHRA BKN050 BKN100 OVC250 13/10 A2992 RMK SC5AC2CI1 TCU EMBD SLP140=

CYQF;2006-05-24 03:31;SPECI CYQF 240331Z 35007KT 15SM BKN050 BKN100 BKN250 RMK SC5AC2CI0=

CYQF;2006-05-24 04:00;METAR CYQF 240400Z 32007KT 15SM FEW050 BKN090 BKN160 12/09 A2994 RMK SC2AC2AC2 SLP146=

CYQF;2006-05-24 05:00;METAR CYQF 240500Z 28005KT 15SM FEW050 SCT090 BKN160 11/09 A2995 RMK SC1AC2AC2 SLP152=

CYQF;2006-05-24 06:00;METAR CYQF 240600Z 27005KT 15SM SCT160 10/08 A2997 RMK AC2 SLP158=

CYQF;2006-05-24 07:00;METAR CYQF 240700Z 31002KT 15SM FEW160 10/08 A2997 RMK AC1 SLP159=

CYQF;2006-05-24 08:00;METAR CYQF 240800Z 30004KT 15SM FEW250 10/07 A2997 RMK CI1 SLP158=

CYQF;2006-05-24 09:00;METAR CYQF 240900Z 30004KT 15SM FEW250 08/07 A2997 RMK CI0 SLP160=

CYQF;2006-05-24 10:00;METAR CYQF 241000Z 25006KT 15SM FEW100 FEW250 06/04 A2999 RMK AC1CI0 SLP166=

CYQF;2006-05-24 11:00;METAR CYQF 241100Z 27006KT 15SM FEW100 SCT250 06/05 A2999 RMK AC1CI1 SLP166=

CYQF;2006-05-24 12:00;METAR CYQF 241200Z 31002KT 15SM FEW100 SCT250 06/05 A2999 RMK AC1CI1 SLP168=

CYQF;2006-05-24 13:00;METAR CYQF 241300Z 00000KT 15SM FEW100 FEW250 07/06 A3000 RMK AC1CI1 SLP170=

CYQF;2006-05-24 14:00;METAR CYQF 241400Z 34008KT 15SM FEW012 SCT250 09/07 A3001 RMK SC2CI1 SLP173=

CYQF;2006-05-24 14:09;SPECI CYQF 241409Z 33008KT 15SM FEW009 SCT250 RMK SC2CI1=

CYQF;2006-05-24 15:00;METAR CYQF 241500Z 32007KT 15SM FEW009 FEW250 10/07 A3002 RMK SC2CI0 SLP181=

CYQF;2006-05-24 16:00;METAR CYQF 241600Z 32006KT 15SM SCT010 SCT250 12/08 A3002 RMK SC2CI0 SLP182=

CYQF;2006-05-24 17:00;METAR CYQF 241700Z 36008KT 15SM SCT015 SCT250 13/08 A3001 RMK SC2CI0 SLP178=

CYQF;2006-05-24 18:00;METAR CYQF 241800Z 33008KT 15SM FEW020 FEW250 13/08 A3001 RMK SC2CI0 SLP177=

CYQF;2006-05-24 19:00;METAR CYQF 241900Z 36008KT 15SM FEW020 FEW250 15/08 A3001 RMK CU2CI0 SLP176=

CYQF;2006-05-24 20:00;METAR CYQF 242000Z 36005KT 15SM FEW025 FEW250 16/08 A2999 RMK CU1CI0 SLP172=

CYQF;2006-05-24 21:00;METAR CYQF 242100Z 36008KT 15SM FEW030 FEW250 17/09 A2997 RMK CU1CI1 TR CU SLP160=

CYQF;2006-05-24 22:00;METAR CYQF 242200Z 06010KT 15SM FEW250 18/07 A2995 RMK CI1 SLP154=

CYQF;2006-05-24 23:00;METAR CYQF 242300Z 05005KT 15SM FEW040CB BKN250 18/06 A2995 RMK CB1CI2 CB/SHS W-SW SLP153=

CYQF;2006-05-25 00:00;METAR CYQF 250000Z 06006KT 15SM SCT040 BKN080 BKN250 18/07 A2994 RMK SC3AC2CI1 SHS W SLP153=

CYQF;2006-05-25 01:00;METAR CYQF 250100Z 08007KT 15SM FEW040 SCT080 BKN250 17/07 A2992 RMK SC2AC2CI1 TCU/SHS W SLP146=

CYQF;2006-05-25 02:00;METAR CYQF 250200Z 08010KT 15SM BKN040 BKN090 BKN250 16/07 A2990 RMK SC5AC1CI0 TCU/SHS W SLP140=

CYQF;2006-05-25 03:00;METAR CYQF 250300Z 09010KT 15SM BKN040 BKN090 OVC250 16/08 A2990 RMK SC5AC1CI1 TCU/SHS W SLP135=

CYQF;2006-05-25 04:00;METAR CYQF 250400Z 36005KT 15SM -SHRA BKN040CB OVC090 15/08 A2991 RMK CB6AC2 LTNG S-SW SLP139=

CYQF;2006-05-25 04:37;SPECI CYQF 250437Z 30008KT 6SM TSRA FEW006 BKN040CB OVC090 RMK SF2CB5AC1 LTGCG=

CYQF;2006-05-25 05:00;METAR CYQF 250500Z 28007KT 10SM TSRA FEW006 BKN040CB OVC090 12/10 A2994 RMK SF2CB5AC2 SLP148=

CYQF;2006-05-25 05:44;SPECI CYQF 250544Z 05012G18KT 12SM -SHRA FEW006 SCT040 OVC100 RMK SF2SC2AC4 TCU EMBD=

CYQF;2006-05-25 06:00;METAR CYQF 250600Z 05015KT 12SM -SHRA FEW006 SCT040 OVC100 11/09 A2989 RMK SF2SC2AC4 RERA RETS TCU EMBD SLP133=

CYQF;2006-05-25 06:21;SPECI CYQF 250621Z 30010KT 5SM -TSRA FEW006 BKN040CB OVC100 RMK SF2CB5AC2 LTGICCG SW-NW=

CYQF;2006-05-25 06:38;SPECI CYQF 250638Z 34003KT 3SM +TSRA SCT006 OVC035CB RMK SF3CB5 LTGICCG W-NW=

CYQF;2006-05-25 07:00;METAR CYQF 250700Z 04003KT 2SM TSRA BR SCT006 OVC040CB 10/09 A2991 RMK SF3CB5 LTGCGIC SW-NW SLP139=

CYQF;2006-05-25 07:48;SPECI CYQF 250748Z 06011KT 10SM -SHRA SCT006 OVC040 RMK SF3SC5 TCU EMBD RETS RERA=

CYQF;2006-05-25 08:00;METAR CYQF 250800Z 08008KT 12SM -SHRA FEW006 SCT040 OVC075 09/08 A2988 RMK SF2SC2AC4 TCU EMBD RETS RERA SLP130=

CYQF;2006-05-25 08:44;SPECI CYQF 250844Z 07013KT 3SM SHRA BR FEW006 BKN035 OVC080 RMK SF2SC4AC2 TCU EMBD=

CYQF;2006-05-25 09:00;METAR CYQF 250900Z 07012KT 12SM -SHRA FEW007 SCT035 OVC080 09/07 A2985 RMK SF2SC2AC4 RERA SLP120=

CYQF;2006-05-25 09:45;SPECI CYQF 250945Z 06007KT 15SM FEW007 SCT040 BKN075 RMK SF1SC2AC4=

CYQF;2006-05-25 10:00;METAR CYQF 251000Z 04002KT 15SM FEW040 BKN075 09/07 A2984 RMK SC2AC5 SLP115=

CYQF;2006-05-25 11:00;METAR CYQF 251100Z 00000KT 15SM FEW007 SCT040 BKN070 09/07 A2984 RMK SF2SC2AC2 SLP114=

CYQF;2006-05-25 11:53;SPECI CYQF 251153Z 25004KT 15SM FEW007 BKN012 OVC070 RMK SF2SC6AC1=

CYQF;2006-05-25 12:00;METAR CYQF 251200Z 25003KT 15SM FEW007 BKN012 OVC070 09/08 A2984 RMK SF2SC6AC1 SLP115=

CYQF;2006-05-25 12:38;SPECI CYQF 251238Z 30008KT 10SM -SHRA FEW007 BKN012 BKN070 RMK SF2SC4AC2=

CYQF;2006-05-25 13:00;METAR CYQF 251300Z 32008KT 8SM -SHRA FEW007 BKN012 OVC070 09/08 A2986 RMK SF2SC5AC2 SLP120=

CYQF;2006-05-25 13:28;SPECI CYQF 251328Z 24003KT 15SM FEW007 SCT012 BKN070 RMK SF1SC2AC4=

CYQF;2006-05-25 14:00;METAR CYQF 251400Z 00000KT 15SM FEW007 FEW012 BKN070 10/08 A2984 RMK SF1SC2AC4 SLP115=

CYQF;2006-05-25 15:00;METAR CYQF 251500Z 32010KT 15SM SCT010 BKN080 BKN250 12/10 A2986 RMK CU3AC2CI1 SLP121=

CYQF;2006-05-25 16:00;METAR CYQF 251600Z 29013G20KT 15SM FEW020 FEW080 FEW250 14/07 A2985 RMK CU1AC1CI1 TR CI SLP117=

CYQF;2006-05-25 17:00;METAR CYQF 251700Z 30017G28KT 15SM FEW030 FEW250 15/05 A2983 RMK CU1CI1 SLP111=

CYQF;2006-05-25 18:00;METAR CYQF 251800Z 32018G30KT 15SM FEW030 FEW250 15/06 A2983 RMK CU2CI1 SLP110=

CYQF;2006-05-25 19:00;METAR CYQF 251900Z 32017G27KT 15SM FEW035 SCT250 15/06 A2983 RMK CU2CI0 SLP110=

CYQF;2006-05-25 20:00;METAR CYQF 252000Z 34016G25KT 15SM FEW030 SCT250 15/07 A2983 RMK CU2CI1 SLP112=

CYQF;2006-05-25 21:00;METAR CYQF 252100Z 35015G25KT 15SM FEW030 BKN250 14/06 A2983 RMK CU2CI2 SLP115=

CYQF;2006-05-25 22:00;METAR CYQF 252200Z 35015G25KT 15SM FEW035 FEW080 BKN250 14/06 A2983 RMK CU2AC1CI2 TR AC SLP114=

CYQF;2006-05-25 23:00;METAR CYQF 252300Z 36015G23KT 15SM FEW030 FEW080 BKN250 13/05 A2982 RMK CU1AC1CI2 CB DIST S SLP111=

CYQF;2006-05-26 00:00;METAR CYQF 260000Z 03013G20KT 15SM FEW030 FEW080 BKN250 13/06 A2982 RMK CU2AC1CI1 SLP113=

CYQF;2006-05-26 01:00;METAR CYQF 260100Z 13010KT 15SM FEW030 FEW080 SCT250 13/06 A2981 RMK CU2AC1CI1 SLP109=

CYQF;2006-05-26 02:00;METAR CYQF 260200Z 04005KT 15SM FEW030 SCT080 BKN250 12/05 A2982 RMK CU2AC2CI2 TCU W SLP113=

CYQF;2006-05-26 03:00;METAR CYQF 260300Z 00000KT 15SM FEW040 SCT090 OVC250 12/05 A2982 RMK SC2AC2CI2 SLP112=

CYQF;2006-05-26 04:00;METAR CYQF 260400Z 00000KT 15SM FEW040 SCT090 OVC250 11/06 A2982 RMK SC2AC2CI2 SLP112=

CYQF;2006-05-26 05:00;METAR CYQF 260500Z 00000KT 15SM FEW040 SCT090 OVC250 10/06 A2981 RMK SC2AC2CI2 SLP108=

CYQF;2006-05-26 06:00;METAR CYQF 260600Z 00000KT 15SM FEW040 SCT090 OVC250 09/06 A2981 RMK SC2AC2CI2 SLP107=

CYQF;2006-05-26 07:00;METAR CYQF 260700Z 00000KT 15SM SCT010 BKN040 OVC250 08/06 A2981 RMK SC3SC2CI1 SLP105=

CYQF;2006-05-26 08:00;METAR CYQF 260800Z 14004KT 15SM FEW010 BKN050 OVC250 08/06 A2978 RMK SC2SC3CI1 SLP098=

CYQF;2006-05-26 09:00;METAR CYQF 260900Z 06005KT 15SM FEW010 BKN050 OVC250 08/06 A2977 RMK SC2SC4CI1 SLP096=

CYQF;2006-05-26 10:00;METAR CYQF 261000Z 12005KT 15SM BKN016 OVC050 08/06 A2978 RMK SC5SC3 SLP097=

CYQF;2006-05-26 11:00;METAR CYQF 261100Z 09005KT 15SM SCT015 OVC040 08/06 A2976 RMK SC4SC4 SLP092=

CYQF;2006-05-26 12:00;METAR CYQF 261200Z 11005KT 15SM SCT010 OVC040 07/06 A2975 RMK SC4SC4 SLP091=

CYQF;2006-05-26 13:00;METAR CYQF 261300Z 12004KT 15SM SCT010 OVC040 07/05 A2975 RMK SC3SC5 SLP091=

CYQF;2006-05-26 14:00;METAR CYQF 261400Z 06008KT 15SM FEW010 BKN040 BKN080 07/04 A2974 RMK SC1SC5AC2 SLP087=

CYQF;2006-05-26 14:25;SPECI CYQF 261425Z 06006KT 15SM BKN010 OVC040 RMK SC6SC2=

CYQF;2006-05-26 15:00;METAR CYQF 261500Z 05005KT 15SM BKN011 OVC040 07/05 A2973 RMK SC7SC1 SLP083=

CYQF;2006-05-26 16:00;METAR CYQF 261600Z 02006KT 15SM BKN011 OVC040 08/05 A2972 RMK SC7SC1 SLP081=

CYQF;2006-05-26 17:00;METAR CYQF 261700Z 05007KT 15SM BKN012 OVC040 08/05 A2972 RMK SC7SC1 SLP082=

CYQF;2006-05-26 18:00;METAR CYQF 261800Z 05010KT 15SM BKN013 OVC040 08/04 A2972 RMK SC7SC1 SLP085=

CYQF;2006-05-26 19:00;METAR CYQF 261900Z 06009KT 15SM BKN013 OVC040 08/05 A2972 RMK SC7SC1 SLP085=

CYQF;2006-05-26 20:00;METAR CYQF 262000Z 06008KT 15SM BKN014 OVC040 09/04 A2972 RMK SC7SC1 SLP083=

CYQF;2006-05-26 21:00;METAR CYQF 262100Z 05011KT 15SM BKN012 OVC040 09/04 A2972 RMK SC6SC2 SLP082=

CYQF;2006-05-26 22:00;METAR CYQF 262200Z 07010KT 15SM BKN016 OVC040 09/04 A2972 RMK SC6SC2 SLP083=

CYQF;2006-05-26 23:00;METAR CYQF 262300Z 04006KT 15SM BKN018 OVC040 08/04 A2972 RMK SC6SC2 SLP084=

CYQF;2006-05-27 00:00;METAR CYQF 270000Z 02012KT 15SM BKN016 OVC040 08/03 A2973 RMK SC7SC1 SLP087=

CYQF;2006-05-27 01:00;METAR CYQF 270100Z 02009KT 15SM BKN020 OVC040 08/03 A2973 RMK SC6SC2 SLP089=

CYQF;2006-05-27 02:00;METAR CYQF 270200Z 36009KT 15SM BKN015 OVC040 08/03 A2975 RMK SC6SC2 SLP093=

CYQF;2006-05-27 03:00;METAR CYQF 270300Z 02008KT 10SM BKN015 OVC040 07/04 A2977 RMK SC6SC2 BR SLP103=

CYQF;2006-05-27 03:34;SPECI CYQF 270334Z 02006KT 8SM -RA BKN015 OVC040 RMK SC7SC1 BR=

CYQF;2006-05-27 04:00;METAR CYQF 270400Z 05007KT 6SM -RA BR BKN012 OVC020 06/05 A2978 RMK SC7SC1 SLP107=

CYQF;2006-05-27 04:26;SPECI CYQF 270426Z 02003KT 12SM BKN012 OVC022 RMK SC5SC3 BR=

CYQF;2006-05-27 05:00;METAR CYQF 270500Z 01004KT 15SM BKN012 OVC022 07/04 A2978 RMK SC5SC3 CIG RAG SLP108=

CYQF;2006-05-27 06:00;METAR CYQF 270600Z 03007KT 15SM SCT012 OVC030 06/04 A2978 RMK SC3SC5 SLP109=

CYQF;2006-05-27 07:00;METAR CYQF 270700Z 35005KT 15SM -RA SCT011 OVC030 06/04 A2979 RMK SC4SC4 SLP110=

CYQF;2006-05-27 08:00;METAR CYQF 270800Z 36004KT 15SM -RA SCT008 OVC030 06/04 A2979 RMK SC3SC5 SLP110=

CYQF;2006-05-27 10:00;METAR CYQF 271000Z 36006KT 10SM -RA FEW008 OVC040 05/04 A2980 RMK SC2SC6 CIG RAG SLP114=

CYQF;2006-05-27 11:00;METAR CYQF 271100Z 34005KT 10SM -RA FEW006 OVC040 05/04 A2981 RMK SF2SC6 CIG RAG SLP116=

CYQF;2006-05-27 11:46;SPECI CYQF 271146Z 33003KT 15SM FEW006 OVC040 RMK SF2SC6=

CYQF;2006-05-27 12:00;METAR CYQF 271200Z 33004KT 15SM FEW006 BKN040 OVC080 05/04 A2981 RMK SF2SC5AC2 SLP119=

CYQF;2006-05-27 13:00;METAR CYQF 271300Z 35004KT 15SM FEW006 BKN040 OVC080 06/04 A2982 RMK SF1SC6AC2 SLP122=

CYQF;2006-05-27 14:00;METAR CYQF 271400Z 02007KT 15SM FEW006 BKN045 OVC080 06/04 A2982 RMK SF2SC5AC2 SLP122=

CYQF;2006-05-27 15:00;METAR CYQF 271500Z 01010KT 15SM SCT012 BKN045 OVC080 07/03 A2982 RMK SC4SC1AC3 SLP123=

CYQF;2006-05-27 16:00;METAR CYQF 271600Z 02007KT 15SM SCT016 OVC080 08/02 A2984 RMK SC4AC3 SLP127=

CYQF;2006-05-27 17:00;METAR CYQF 271700Z 02008KT 15SM BKN025 OVC080 08/02 A2983 RMK SC6AC2 SLP126=

CYQF;2006-05-27 18:00;METAR CYQF 271800Z 02007KT 15SM BKN025 BKN080 09/03 A2983 RMK CU6AC1 SLP125=

CYQF;2006-05-27 19:00;METAR CYQF 271900Z 02010KT 15SM BKN025TCU BKN250 10/03 A2982 RMK TCU6CI2 SLP120=

CYQF;2006-05-27 20:00;METAR CYQF 272000Z 02007KT 15SM BKN030 BKN080 10/02 A2982 RMK SC6AC1 TCU EMBD SLP120=

CYQF;2006-05-27 21:00;METAR CYQF 272100Z 01008KT 15SM BKN040 BKN100 12/02 A2981 RMK CU6AC1 TCU ASOCTD SLP114=

CYQF;2006-05-27 22:00;METAR CYQF 272200Z 03009KT 15SM BKN040 BKN100 11/02 A2981 RMK CU6AC1 TCU EMBD SLP116=

CYQF;2006-05-27 23:00;METAR CYQF 272300Z 06010G15KT 15SM SCT040 BKN100 12/03 A2980 RMK CU3AC3 SLP113=

CYQF;2006-05-28 00:00;METAR CYQF 280000Z 05008KT 15SM BKN040 BKN100 12/03 A2981 RMK CU5AC2 SLP115=

CYQF;2006-05-28 01:00;METAR CYQF 280100Z 03007KT 15SM BKN040 BKN070 BKN250 12/03 A2981 RMK CU5AC2CI1 SLP114=

CYQF;2006-05-28 02:00;METAR CYQF 280200Z 03008KT 15SM BKN040TCU BKN070 BKN250 11/03 A2983 RMK TCU5AC2CI1 SLP119=

CYQF;2006-05-28 03:00;METAR CYQF 280300Z 03005KT 15SM SCT040TCU BKN070 BKN250 10/04 A2984 RMK TCU3AC3CI1 SLP124=

CYQF;2006-05-28 04:00;METAR CYQF 280400Z 09003KT 15SM FEW040 BKN070 BKN250 10/04 A2985 RMK SC2AC5CI1 SLP129=

CYQF;2006-05-28 05:00;METAR CYQF 280500Z 16004KT 15SM FEW040 SCT070 BKN250 09/04 A2986 RMK SC1AC2CI1 SLP133=

CYQF;2006-05-28 06:00;METAR CYQF 280600Z 00000KT 15SM SCT075 BKN250 07/04 A2987 RMK AC2CI2 SLP137=

CYQF;2006-05-28 07:00;METAR CYQF 280700Z 00000KT 15SM SCT075 BKN250 06/03 A2987 RMK AC3CI2 SLP137=

CYQF;2006-05-28 08:00;METAR CYQF 280800Z 00000KT 15SM FEW090 BKN250 06/04 A2986 RMK AC2CI3 SLP132=

CYQF;2006-05-28 09:00;METAR CYQF 280900Z 00000KT 15SM SCT090 BKN250 05/03 A2987 RMK AC3CI3 SLP135=

CYQF;2006-05-28 10:00;METAR CYQF 281000Z 34002KT 15SM SCT090 BKN250 05/04 A2987 RMK AC4CI2 SLP135=

CYQF;2006-05-28 11:00;METAR CYQF 281100Z 00000KT 15SM BKN090 BKN250 05/04 A2987 RMK AC5CI2 SLP135=

CYQF;2006-05-28 12:00;METAR CYQF 281200Z 00000KT 15SM BKN090 BKN250 06/04 A2987 RMK AC5CI2 SLP135=

CYQF;2006-05-28 13:00;METAR CYQF 281300Z 36002KT 15SM BKN100 OVC250 06/04 A2988 RMK AC5CI3 SLP138=

CYQF;2006-05-28 14:00;METAR CYQF 281400Z 04004KT 15SM BKN100 OVC250 07/05 A2988 RMK AC5CI3 SLP138=

CYQF;2006-05-28 15:00;METAR CYQF 281500Z 09004KT 15SM FEW015 SCT100 OVC250 09/05 A2988 RMK CU1AC2CI2 SLP138=

CYQF;2006-05-28 16:00;METAR CYQF 281600Z 07010KT 15SM FEW020 SCT100 BKN250 09/03 A2989 RMK CU2AC1CI2 TCU ASOCTD SLP140=

CYQF;2006-05-28 17:00;METAR CYQF 281700Z 07007KT 15SM BKN025 OVC250 10/04 A2989 RMK CU6CI2 TCU ASOCTD SLP140=

CYQF;2006-05-28 18:00;METAR CYQF 281800Z 06007KT 15SM BKN025 OVC250 10/03 A2989 RMK CU5CS2 TCU ASOCTD SLP141=

CYQF;2006-05-28 19:00;METAR CYQF 281900Z 03007KT 15SM BKN030 BKN250 11/03 A2988 RMK CU5CI2 TCU ASOCTD SLP139=

CYQF;2006-05-28 20:00;METAR CYQF 282000Z 04007KT 15SM BKN030 BKN250 11/03 A2987 RMK CU6CI1 TCU ASOCTD SLP137=

CYQF;2006-05-28 21:00;METAR CYQF 282100Z 07007KT 15SM BKN040 BKN250 12/03 A2987 RMK CU6CI1 TCU ASOCTD SLP134=

CYQF;2006-05-28 22:00;METAR CYQF 282200Z 06005KT 15SM BKN045 BKN100 BKN250 12/03 A2987 RMK CU5AC1CI1 TCU ASOCTD SLP135=

CYQF;2006-05-28 23:00;METAR CYQF 282300Z 06003KT 15SM BKN045 BKN100 OVC250 12/03 A2987 RMK CU5AC1CI1 TCU ASOCTD SLP135=

CYQF;2006-05-29 00:00;METAR CYQF 290000Z 08007KT 15SM BKN045 BKN100 OVC250 11/03 A2987 RMK CU6AC1CI1 TCU ASOCTD SLP137=

CYQF;2006-05-29 01:00;METAR CYQF 290100Z 07005KT 15SM BKN050 BKN100 OVC250 11/03 A2988 RMK SC6AC1CI1 SLP138=

CYQF;2006-05-29 02:00;METAR CYQF 290200Z 09002KT 15SM BKN050 BKN100 OVC250 11/04 A2988 RMK SC5AC2CI1 SLP138=

CYQF;2006-05-29 03:00;METAR CYQF 290300Z 12002KT 15SM SCT050 BKN100 OVC250 11/04 A2989 RMK SC3AC3CI2 SLP139=

CYQF;2006-05-29 04:00;METAR CYQF 290400Z 14007KT 15SM SCT050 BKN100 OVC250 09/05 A2990 RMK SC3AC4CI1 SLP143=

CYQF;2006-05-29 05:00;METAR CYQF 290500Z 14004KT 15SM FEW050 BKN080 08/05 A2990 RMK SC2AC5 SLP144=

CYQF;2006-05-29 06:00;METAR CYQF 290600Z 15003KT 15SM FEW050 BKN080 08/04 A2990 RMK SC2AC6 SLP145=

CYQF;2006-05-29 07:00;METAR CYQF 290700Z 15003KT 15SM -SHRA BKN050 OVC080 07/04 A2990 RMK SC5AC3 SLP145=

CYQF;2006-05-29 08:00;METAR CYQF 290800Z 16003KT 15SM -RA BKN050 OVC080 07/05 A2989 RMK SC6AC2 SLP143=

CYQF;2006-05-29 08:33;SPECI CYQF 290833Z 00000KT 15SM BKN050 OVC080 RMK SC5AC3=

CYQF;2006-05-29 09:00;METAR CYQF 290900Z 00000KT 15SM BKN050 OVC080 07/05 A2989 RMK SC5AC3 SLP139=

CYQF;2006-05-29 10:00;METAR CYQF 291000Z 00000KT 15SM BKN050 OVC100 06/04 A2990 RMK SC6AC2 SLP142=

CYQF;2006-05-29 11:00;METAR CYQF 291100Z 00000KT 10SM MIFG FEW050 BKN100 OVC250 06/05 A2990 RMK SC2AC3CI2 BR SLP143=

CYQF;2006-05-29 12:00;METAR CYQF 291200Z 00000KT 8SM FEW050 BKN100 BKN250 06/05 A2990 RMK SC2AC2CI2 BR SLP147=

CYQF;2006-05-29 13:00;METAR CYQF 291300Z 24002KT 10SM BKN100 OVC250 06/05 A2991 RMK AC6CI2 BR SLP150=

CYQF;2006-05-29 14:00;METAR CYQF 291400Z 27005KT 10SM FEW050 SCT100 OVC250 07/05 A2992 RMK SC1AC2CI3 BR SLP151=

CYQF;2006-05-29 15:00;METAR CYQF 291500Z 27005KT 10SM FEW050 FEW100 OVC250 08/06 A2992 RMK SC1AC1CI3 BR SLP149=

CYQF;2006-05-29 16:00;METAR CYQF 291600Z 30004KT 15SM FEW050 FEW100 OVC250 10/06 A2991 RMK CU1AC1CS4 SLP147=

CYQF;2006-05-29 17:00;METAR CYQF 291700Z 31005KT 15SM FEW040 SCT080 OVC250 11/05 A2990 RMK CU2AC1CI2 SLP143=

CYQF;2006-05-29 18:00;METAR CYQF 291800Z 32008KT 15SM FEW050 SCT080 OVC250 13/04 A2988 RMK CU2AC1CS3 SLP134=

CYQF;2006-05-29 19:00;METAR CYQF 291900Z 34008KT 15SM BKN050 OVC250 14/03 A2987 RMK CU5CI2 TCU ASOCTD SLP131=

CYQF;2006-05-29 20:00;METAR CYQF 292000Z 33008KT 15SM SCT050 OVC250 16/03 A2985 RMK CU4CS1 TCU ASOCTD SLP126=

CYQF;2006-05-29 21:00;METAR CYQF 292100Z 32013KT 15SM SCT060 BKN250 16/02 A2985 RMK CU4CS2 SLP120=

CYQF;2006-05-29 22:00;METAR CYQF 292200Z 33014KT 15SM SCT060 BKN250 17/03 A2985 RMK CU4CS2 SLP121=

CYQF;2006-05-29 23:00;METAR CYQF 292300Z 35012KT 15SM SCT070 BKN250 17/03 A2985 RMK CU4CS2 SHRA DIST SW VIRGA W SLP123=

CYQF;2006-05-30 01:00;METAR CYQF 300100Z 30004KT 15SM VCSH BKN070 OVC250 15/04 A2989 RMK CU5CS2 SHRA ALQDS TCU ASOCTD SLP138=

CYQF;2006-05-30 01:10;SPECI CYQF 300110Z 30015G20KT 15SM -SHRA BKN060TCU BKN090 OVC250 RMK TCU5AC2CI1=

CYQF;2006-05-30 01:45;SPECI CYQF 300145Z 27010KT 15SM BKN060TCU BKN090 OVC250 RMK TCU5AC2CI1 SHRA DIST SW=

CYQF;2006-05-30 02:00;METAR CYQF 300200Z 27008KT 15SM SCT060TCU BKN090 OVC250 11/07 A2992 RMK TCU4AC1CI2 SHRA DIST S+SW+E SLP148=

CYQF;2006-05-30 03:00;METAR CYQF 300300Z 30010KT 15SM FEW060TCU BKN090 BKN250 11/07 A2993 RMK TCU2AC4CI1 SLP154=

CYQF;2006-05-30 04:00;METAR CYQF 300400Z 29008KT 15SM BKN090 BKN250 10/07 A2995 RMK AC5CI1 SLP159=

CYQF;2006-05-30 05:00;METAR CYQF 300500Z 29010KT 15SM FEW090 SCT250 09/06 A2996 RMK AC1CI1 SLP165=

CYQF;2006-05-30 06:00;METAR CYQF 300600Z 28004KT 15SM FEW090 FEW250 08/06 A2996 RMK AC2CI0 SLP164=

CYQF;2006-05-30 07:00;METAR CYQF 300700Z 31006KT 15SM SKC 08/06 A2998 RMK SLP169=

CYQF;2006-05-30 08:00;METAR CYQF 300800Z 28008KT 15SM FEW090 FEW250 07/05 A2999 RMK AC1CI1 SLP172=

CYQF;2006-05-30 09:00;METAR CYQF 300900Z 30009KT 15SM FEW090 FEW250 07/05 A3000 RMK AC1CI0 SLP173=

CYQF;2006-05-30 10:00;METAR CYQF 301000Z 28005KT 15SM FEW090 07/04 A3001 RMK AC2 SLP177=

CYQF;2006-05-30 11:00;METAR CYQF 301100Z 27002KT 15SM FEW090 FEW250 05/03 A3003 RMK AC2CI0 SLP182=

CYQF;2006-05-30 12:00;METAR CYQF 301200Z 25007KT 15SM FEW100 FEW250 05/04 A3005 RMK AC1CI1 SLP194=

CYQF;2006-05-30 13:00;METAR CYQF 301300Z 27006KT 15SM FEW100 FEW250 07/05 A3006 RMK AC1CI0 SLP198=

CYQF;2006-05-30 14:00;METAR CYQF 301400Z 30010KT 15SM FEW080 FEW250 10/05 A3007 RMK ACC1CI0 SLP203=

CYQF;2006-05-30 15:00;METAR CYQF 301500Z 31007KT 15SM FEW080 FEW250 13/07 A3008 RMK AC1CI0 SLP201=

CYQF;2006-05-30 16:00;METAR CYQF 301600Z 32007KT 15SM FEW080 FEW250 14/06 A3008 RMK AC1CI1 SLP202=

CYQF;2006-05-30 17:00;METAR CYQF 301700Z 28008KT 15SM FEW070 FEW250 15/06 A3008 RMK CU1CI1 SLP202=

CYQF;2006-05-30 18:00;METAR CYQF 301800Z 27008KT 15SM FEW070 FEW250 17/05 A3008 RMK CU1CI1 SLP199=

CYQF;2006-05-30 19:00;METAR CYQF 301900Z 25007KT 15SM FEW070 SCT250 18/05 A3008 RMK CU2CI1 SLP199=

CYQF;2006-05-30 20:00;METAR CYQF 302000Z 30008KT 15SM SCT060 BKN250 18/04 A3006 RMK CU3CI1 SLP195=

CYQF;2006-05-30 21:00;METAR CYQF 302100Z 26004KT 15SM SCT060 SCT100 BKN250 19/02 A3006 RMK CU3AC1CI0 VIRGA SLP191=

CYQF;2006-05-30 23:00;METAR CYQF 302300Z 21010KT 15SM -TSRA BKN060TCU BKN100 BKN250 14/06 A3009 RMK TCU5AC1CI1 CB ASOCTD SLP200=

CYQF;2006-05-30 23:25;SPECI CYQF 302325Z 15010KT 15SM SCT050TCU BKN250 RMK TCU3CI1 HVY SHRA+CB E+S=

CYQF;2006-05-31 00:00;METAR CYQF 310000Z 16008KT 15SM FEW050TCU BKN250 17/07 A3007 RMK TCU2CI1 SLP201=

CYQF;2006-05-31 01:00;METAR CYQF 310100Z 19007KT 15SM SCT050TCU BKN250 17/06 A3007 RMK TCU3CI1 SHS DIST W SLP199=

CYQF;2006-05-31 02:00;METAR CYQF 310200Z 16003KT 15SM SCT050TCU SCT250 17/07 A3006 RMK TCU3CI0 SH W+N CB ASOCTD SLP197=

CYQF;2006-05-31 03:00;METAR CYQF 310300Z 34012G18KT 15SM VCSH SCT050CB BKN090 BKN250 13/06 A3008 RMK CB3AC2CI0 SH N+E SLP198=

CYQF;2006-05-31 04:00;METAR CYQF 310400Z 08005KT 15SM FEW050 BKN080 BKN250 13/06 A3009 RMK CU2AC3CI1 SLP201=

CYQF;2006-05-31 05:00;METAR CYQF 310500Z 00000KT 15SM SCT050 BKN250 10/07 A3010 RMK SC3CI1 SLP204=

CYQF;2006-05-31 06:00;METAR CYQF 310600Z 19004KT 15SM FEW050 SCT250 08/05 A3010 RMK SC2CI0 SLP207=

CYQF;2006-05-31 07:00;METAR CYQF 310700Z 00000KT 15SM FEW070 09/06 A3011 RMK AC2 SLP208=

CYQF;2006-05-31 08:00;METAR CYQF 310800Z 25007KT 15SM FEW070 SCT250 08/05 A3011 RMK AC2CI0 SLP210=

CYQF;2006-05-31 09:00;METAR CYQF 310900Z 06002KT 15SM SCT070 08/05 A3013 RMK AC4 SLP213=

CYQF;2006-05-31 10:00;METAR CYQF 311000Z 20003KT 15SM SCT070 06/04 A3013 RMK AC4 SLP214=

CYQF;2006-05-31 11:00;METAR CYQF 311100Z 22004KT 15SM SCT080 SCT250 06/04 A3013 RMK AC3CI0 SLP215=

CYQF;2006-05-31 12:00;METAR CYQF 311200Z 20005KT 15SM FEW090 FEW250 05/04 A3014 RMK AC2CI0 SLP224=

CYQF;2006-05-31 13:00;METAR CYQF 311300Z 21005KT 15SM FEW090 07/05 A3015 RMK AC1 SLP225=

CYQF;2006-05-31 14:00;METAR CYQF 311400Z 25003KT 15SM FEW090 09/06 A3015 RMK AC1 SLP227=

CYQF;2006-05-31 16:00;METAR CYQF 311600Z 26003KT 15SM FEW035 FEW270 15/08 A3016 RMK CU1CI0 SLP226=

CYQF;2006-05-31 17:00;METAR CYQF 311700Z 29003KT 15SM FEW045 FEW270 18/06 A3015 RMK CU1CI0 SLP224=

CYQF;2006-05-31 18:00;METAR CYQF 311800Z 24002KT 15SM FEW055 19/05 A3015 RMK CU1 SLP220=

CYQF;2006-05-31 19:00;METAR CYQF 311900Z 00000KT 15SM FEW060 SCT270 19/04 A3013 RMK CU2CI1 SLP216=

CYQF;2006-05-31 20:00;METAR CYQF 312000Z 35003KT 15SM FEW065 BKN270 20/03 A3012 RMK CU2CI0 SLP213=

CYQF;2006-05-31 21:00;METAR CYQF 312100Z 17003KT 15SM FEW065 SCT270 21/02 A3011 RMK CU2CI1 SLP205=

CYQF;2006-05-31 22:00;METAR CYQF 312200Z 24003KT 15SM FEW065 21/02 A3010 RMK CU2 SLP201=

CYQF;2006-05-31 23:00;METAR CYQF 312300Z 29003KT 15SM FEW065 22/03 A3008 RMK CU2 SLP196=

CYQF;2006-06-01 00:00;METAR CYQF 010000Z 17005KT 15SM FEW065 FEW250 22/01 A3007 RMK CU1CI1 SLP195=

CYQF;2006-06-01 01:00;METAR CYQF 010100Z 15005KT 15SM FEW065 22/03 A3006 RMK SC1 SLP191=

CYQF;2006-06-01 02:00;METAR CYQF 010200Z 14005KT 15SM SKC 21/02 A3005 RMK SLP189=

CYQF;2006-06-01 03:00;METAR CYQF 010300Z 12004KT 15SM SKC 19/04 A3005 RMK SLP181=

CYQF;2006-06-01 04:00;METAR CYQF 010400Z 12004KT 15SM SKC 17/04 A3006 RMK SLP185=

CYQF;2006-06-01 05:00;METAR CYQF 010500Z 15005KT 15SM SKC 15/03 A3007 RMK SLP187=

CYQF;2006-06-01 06:00;METAR CYQF 010600Z 18005KT 15SM SKC 12/03 A3006 RMK SLP187=

CYQF;2006-06-01 07:00;METAR CYQF 010700Z 18005KT 15SM SKC 14/03 A3007 RMK SLP188=

CYQF;2006-06-01 08:00;METAR CYQF 010800Z 18003KT 15SM SKC 10/04 A3006 RMK SLP186=

CYQF;2006-06-01 09:00;METAR CYQF 010900Z 19003KT 15SM SKC 09/04 A3005 RMK SLP185=

CYQF;2006-06-01 10:00;METAR CYQF 011000Z 19002KT 15SM SKC 09/04 A3005 RMK SLP185=

CYQF;2006-06-01 11:00;METAR CYQF 011100Z 00000KT 15SM SCT240 08/04 A3005 RMK CI2 SLP183=

CYQF;2006-06-01 12:00;METAR CYQF 011200Z 00000KT 15SM BKN250 08/04 A3004 RMK CI3 SLP181=

CYQF;2006-06-01 13:00;METAR CYQF 011300Z 20002KT 15SM FEW100 BKN250 09/05 A3004 RMK AC2CI2 SLP181=

CYQF;2006-06-01 14:00;METAR CYQF 011400Z 18004KT 15SM SCT100 BKN250 12/06 A3004 RMK AC3CI2 SLP181=

CYQF;2006-06-01 15:00;METAR CYQF 011500Z 25002KT 15SM SCT090 BKN250 14/06 A3004 RMK AC4CI2 SLP174=

CYQF;2006-06-01 16:00;METAR CYQF 011600Z 21003KT 15SM SCT090 BKN250 16/07 A3003 RMK AC3CI2 SLP171=

CYQF;2006-06-01 17:00;METAR CYQF 011700Z 21003KT 15SM SCT090 BKN250 19/07 A3001 RMK AC3CI2 SLP166=

CYQF;2006-06-01 18:00;METAR CYQF 011800Z 00000KT 15SM FEW050 FEW090 SCT250 21/06 A3000 RMK CU1AC2CI1 SLP163=

CYQF;2006-06-01 19:00;METAR CYQF 011900Z 18004KT 15SM FEW060 FEW090 SCT250 23/06 A2999 RMK CU1AC1CI1 SLP161=

CYQF;2006-06-01 20:00;METAR CYQF 012000Z 16008KT 15SM FEW060 FEW090 SCT250 23/05 A2998 RMK CU1AC1CI1 SLP156=

CYQF;2006-06-01 21:00;METAR CYQF 012100Z 18005KT 15SM FEW065 FEW250 24/05 A2995 RMK CU1CI1 SLP147=

CYQF;2006-06-01 22:00;METAR CYQF 012200Z 24005KT 15SM FEW065 SCT250 24/06 A2994 RMK CU1CI1 SLP142=

CYQF;2006-06-01 23:00;METAR CYQF 012300Z 00000KT 15SM FEW065 FEW120 SCT250 26/06 A2992 RMK CU2AC1CI0 SLP137=

CYQF;2006-06-02 00:00;METAR CYQF 020000Z 15005KT 15SM FEW065 BKN250 25/05 A2991 RMK CU2CI1 SLP130=

CYQF;2006-06-02 01:00;METAR CYQF 020100Z 18005KT 15SM FEW060 FEW120 BKN250 25/06 A2989 RMK CU2AC1CI1 SLP125=

CYQF;2006-06-02 02:00;METAR CYQF 020200Z 16003KT 15SM FEW060 FEW120 BKN250 25/07 A2988 RMK SC1AC1CI2 SLP121=

CYQF;2006-06-02 03:00;METAR CYQF 020300Z 18003KT 15SM FEW120 BKN250 23/09 A2987 RMK AC1CI2 SLP114=

CYQF;2006-06-02 04:00;METAR CYQF 020400Z 00000KT 15SM FEW120 BKN250 20/09 A2988 RMK AC2CI2 SLP115=

CYQF;2006-06-02 05:00;METAR CYQF 020500Z 16005KT 15SM SCT120 BKN250 18/07 A2987 RMK AC3CI1 SLP114=

CYQF;2006-06-02 06:00;METAR CYQF 020600Z 00000KT 15SM BKN120 BKN250 17/07 A2986 RMK AC5CI1 SLP110=

CYQF;2006-06-02 07:00;METAR CYQF 020700Z 19004KT 15SM BKN120 BKN250 17/09 A2985 RMK AC5CI1 SLP106=

CYQF;2006-06-02 08:00;METAR CYQF 020800Z 18005KT 15SM SCT120 BKN250 17/08 A2984 RMK AC4CI1 SLP102=

CYQF;2006-06-02 10:00;METAR CYQF 021000Z 00000KT 15SM BKN120 OVC250 15/09 A2983 RMK AC5CI2 SLP095=

CYQF;2006-06-02 11:00;METAR CYQF 021100Z 00000KT 15SM BKN120 OVC250 15/09 A2982 RMK AC5CI2 SLP093=

CYQF;2006-06-02 12:00;METAR CYQF 021200Z 00000KT 15SM FEW080 BKN120 OVC250 14/09 A2982 RMK AC2AC4CI1 SLP093=

CYQF;2006-06-02 13:00;METAR CYQF 021300Z 21005KT 15SM FEW080 BKN120 OVC250 16/10 A2981 RMK AC2AC4CI1 SLP092=

CYQF;2006-06-02 15:00;METAR CYQF 021500Z 00000KT 15SM FEW080 BKN120 BKN250 18/10 A2981 RMK AC2AC3CI2 SLP090=

CYQF;2006-06-02 16:00;METAR CYQF 021600Z 24003KT 15SM FEW080 BKN120 BKN250 19/10 A2981 RMK AC2AC3CI0 SLP089=

CYQF;2006-06-02 17:00;METAR CYQF 021700Z 21007KT 15SM FEW080 BKN120 BKN250 23/11 A2980 RMK AC2AC3CI0 SLP086=

CYQF;2006-06-02 18:00;METAR CYQF 021800Z 27008KT 15SM SCT120 SCT250 25/08 A2978 RMK AC3CI0 SLP078=

CYQF;2006-06-02 19:00;METAR CYQF 021900Z 28004KT 15SM FEW060 SCT120 BKN250 25/08 A2978 RMK CU1AC3CI1 TR CU SLP078=

CYQF;2006-06-02 20:00;METAR CYQF 022000Z 27008KT 15SM FEW065 FEW120 BKN250 26/08 A2977 RMK CU1AC1CI2 SLP074=

CYQF;2006-06-02 21:00;METAR CYQF 022100Z 28006KT 15SM FEW060 SCT120 BKN250 26/07 A2976 RMK CU2AC2CI2 SLP071=

CYQF;2006-06-02 22:00;METAR CYQF 022200Z 26005KT 15SM FEW060 SCT120 BKN250 26/07 A2975 RMK CU2AC2CI2 SLP066=

CYQF;2006-06-02 23:00;METAR CYQF 022300Z 00000KT 15SM FEW060 SCT120 BKN250 27/07 A2973 RMK CU2AC2CI2 SLP062=

CYQF;2006-06-03 00:00;METAR CYQF 030000Z 00000KT 15SM FEW060 SCT120 BKN250 27/06 A2971 RMK CU2AC2CI2 SLP056=

CYQF;2006-06-03 01:00;METAR CYQF 030100Z 00000KT 15SM FEW060 FEW120 BKN250 27/08 A2970 RMK CU2AC1CI2 SLP052=

CYQF;2006-06-03 02:00;METAR CYQF 030200Z 17005KT 15SM FEW060 FEW120 BKN250 24/09 A2969 RMK CU1AC1CI2 OBS TAKEN +23 SLP048=

CYQF;2006-06-03 03:00;METAR CYQF 030300Z 17005KT 15SM FEW060 FEW120 BKN250 24/11 A2968 RMK CU1AC1CI2 SLP044=

CYQF;2006-06-03 04:00;METAR CYQF 030400Z 18005KT 15SM FEW050 FEW120 BKN250 20/09 A2968 RMK SC2AC1CI2 SLP045=

CYQF;2006-06-03 05:00;METAR CYQF 030500Z 20005KT 15SM FEW060 SCT120 BKN250 17/09 A2967 RMK SC2AC2CI1 SLP042=

CYQF;2006-06-03 06:00;METAR CYQF 030600Z 32015KT 15SM FEW060 BKN090 BKN250 17/09 A2967 RMK SC2AC3CI1 SLP041=

CYQF;2006-06-03 07:00;METAR CYQF 030700Z 36005KT 15SM FEW060 BKN100 16/09 A2973 RMK SC2AC5 SLP057=

CYQF;2006-06-03 08:00;METAR CYQF 030800Z 34010G15KT 15SM FEW060 OVC100 15/09 A2972 RMK SC2AC6 SLP056=

CYQF;2006-06-03 09:00;METAR CYQF 030900Z 33015G20KT 15SM FEW060 OVC100 15/09 A2973 RMK SC2AC5 SLP061=

CYQF;2006-06-03 10:00;METAR CYQF 031000Z 34010KT 15SM FEW060 BKN100 14/08 A2975 RMK SC2AC5 SLP066=

CYQF;2006-06-03 11:00;METAR CYQF 031100Z 31005KT 15SM SCT100 SCT250 12/08 A2976 RMK AC2CI1 SLP072=

CYQF;2006-06-03 12:00;METAR CYQF 031200Z 21004KT 15SM FEW100 FEW250 11/07 A2979 RMK AC1CI0 SLP085=

CYQF;2006-06-03 15:00;METAR CYQF 031500Z 30010KT 15SM FEW250 18/07 A2983 RMK CI1 SLP096=

CYQF;2006-06-03 16:00;METAR CYQF 031600Z 32010KT 15SM FEW250 19/04 A2985 RMK CI1 SLP102=

CYQF;2006-06-03 17:00;METAR CYQF 031700Z 33013KT 15SM FEW250 20/04 A2985 RMK CI1 SLP103=

CYQF;2006-06-03 18:00;METAR CYQF 031800Z 27006KT 15SM FEW070 FEW250 20/03 A2985 RMK CU1CI1 SLP108=

CYQF;2006-06-03 19:00;METAR CYQF 031900Z 27010KT 15SM FEW070 FEW140 BKN250 21/03 A2985 RMK CU1AC2CI1 SLP107=

CYQF;2006-06-03 20:00;METAR CYQF 032000Z 29008KT 15SM FEW070 FEW140 BKN250 21/02 A2985 RMK CU1AC2CI2 SLP105=

CYQF;2006-06-03 21:00;METAR CYQF 032100Z 26007KT 15SM FEW080 FEW140 BKN250 22/02 A2984 RMK CU1AC1CI2 SLP104=

CYQF;2006-06-03 22:00;METAR CYQF 032200Z 26008KT 15SM FEW080 FEW140 BKN250 23/00 A2984 RMK CU1AC1CI2 SLP102=

CYQF;2006-06-03 23:00;METAR CYQF 032300Z 30012KT 15SM FEW080 FEW140 BKN250 23/M01 A2983 RMK CU1AC1CI1 SLP100=

CYQF;2006-06-04 00:00;METAR CYQF 040000Z 30005KT 15SM FEW065 FEW120 BKN270 23/M01 A2982 RMK CU1AC2CI1 SLP100=

CYQF;2006-06-04 01:00;METAR CYQF 040100Z 30010KT 15SM FEW065 BKN110 BKN270 22/M00 A2982 RMK CU1AC2CI1 SLP101=

CYQF;2006-06-04 02:00;METAR CYQF 040200Z 32006KT 15SM FEW065 SCT110 BKN270 20/01 A2983 RMK CU1AC2CI2 SLP104=

CYQF;2006-06-04 03:00;METAR CYQF 040300Z 31005KT 15SM FEW055 FEW100 BKN270 17/02 A2984 RMK CU1AC2CI1 SLP106=

CYQF;2006-06-04 04:00;METAR CYQF 040400Z 27004KT 15SM FEW040 SCT100 BKN270 14/02 A2986 RMK SC1AC2CI1 SLP112=

CYQF;2006-06-04 05:00;METAR CYQF 040500Z 33003KT 15SM FEW040 FEW100 BKN270 15/M00 A2986 RMK SC1AC1CI1 SLP114=

CYQF;2006-06-04 06:00;METAR CYQF 040600Z 32007KT 15SM FEW100 FEW250 13/M01 A2988 RMK AC1CI1 SLP123=

CYQF;2006-06-04 07:00;METAR CYQF 040700Z 32008KT 15SM FEW100 FEW250 13/M00 A2988 RMK AC1CI1 SLP122=

CYQF;2006-06-04 08:00;METAR CYQF 040800Z 34006KT 15SM FEW100 FEW250 10/M01 A2987 RMK AC1CI0 SLP120=

CYQF;2006-06-04 09:00;METAR CYQF 040900Z 36005KT 15SM FEW100 FEW250 11/M01 A2988 RMK AC1CI0 SLP121=

CYQF;2006-06-04 10:00;METAR CYQF 041000Z 00000KT 15SM FEW100 FEW250 06/00 A2987 RMK AC1CI0 SLP118=

CYQF;2006-06-04 11:00;METAR CYQF 041100Z 28005KT 15SM FEW100 BKN250 04/M01 A2986 RMK AC1CI2 SLP116=

CYQF;2006-06-04 12:00;METAR CYQF 041200Z 00000KT 15SM BKN100 BKN250 06/00 A2987 RMK AC4CI1 SLP121=

CYQF;2006-06-04 13:00;METAR CYQF 041300Z 00000KT 15SM SCT100 BKN250 07/02 A2986 RMK AC2CI1 SLP120=

CYQF;2006-06-04 14:00;METAR CYQF 041400Z 20002KT 15SM FEW100 BKN250 10/03 A2986 RMK AC1CI2 SLP118=

CYQF;2006-06-04 15:00;METAR CYQF 041500Z 22002KT 15SM FEW120 BKN250 14/03 A2985 RMK AC1CI2 SLP115=

CYQF;2006-06-04 16:00;METAR CYQF 041600Z 12002KT 15SM FEW120 BKN250 17/03 A2983 RMK AC1CI2 SLP109=

CYQF;2006-06-04 17:00;METAR CYQF 041700Z 28004KT 15SM FEW120 BKN250 18/01 A2981 RMK AC2CI2 SLP103=

CYQF;2006-06-04 18:00;METAR CYQF 041800Z 10003KT 15SM SCT120 BKN250 18/M00 A2979 RMK AC3CI1 SLP093=

CYQF;2006-06-04 19:00;METAR CYQF 041900Z 14004KT 15SM FEW100 BKN250 19/01 A2977 RMK AC2CI1 SLP086=

CYQF;2006-06-04 20:00;METAR CYQF 042000Z 23010KT 15SM FEW100 BKN250 20/03 A2974 RMK AC1CI2 SLP076=

CYQF;2006-06-04 21:00;METAR CYQF 042100Z 20010KT 15SM FEW100 SCT250 20/02 A2971 RMK AC1CI2 SLP066=

CYQF;2006-06-04 22:00;METAR CYQF 042200Z 10005KT 15SM FEW070 FEW100 BKN250 21/02 A2969 RMK CU1AC1CI2 TR CU SLP060=

CYQF;2006-06-04 23:00;METAR CYQF 042300Z 17006KT 15SM FEW070 BKN250 21/02 A2967 RMK CU1CI3 SLP054=

CYQF;2006-06-05 00:00;METAR CYQF 050000Z 15007KT 15SM SCT080 BKN250 21/01 A2966 RMK AC3CI2 SLP049=

CYQF;2006-06-05 01:00;METAR CYQF 050100Z 15007KT 15SM SCT090 BKN250 21/02 A2964 RMK AC3CI2 SLP045=

CYQF;2006-06-05 02:00;METAR CYQF 050200Z 17006KT 15SM FEW100 BKN250 21/03 A2964 RMK AC2CI2 SLP044=

CYQF;2006-06-05 03:00;METAR CYQF 050300Z 17005KT 15SM BKN100 BKN250 19/03 A2966 RMK AC6CI1 SLP046=

CYQF;2006-06-05 04:00;METAR CYQF 050400Z 18004KT 15SM BKN100 BKN250 18/04 A2966 RMK AC6CI1 SLP047=

CYQF;2006-06-05 05:00;METAR CYQF 050500Z 16003KT 15SM BKN090 BKN250 17/04 A2968 RMK AC6CI1 SLP052=

CYQF;2006-06-05 06:00;METAR CYQF 050600Z 22005KT 15SM BKN090 BKN250 16/05 A2969 RMK AC6CI1 SLP054=

CYQF;2006-06-05 07:00;METAR CYQF 050700Z 24005KT 15SM BKN090 15/05 A2969 RMK AC7 SLP055=

CYQF;2006-06-05 08:00;METAR CYQF 050800Z 23005KT 15SM BKN090 15/04 A2970 RMK AC7 SLP057=

CYQF;2006-06-05 09:00;METAR CYQF 050900Z 30010G18KT 15SM OVC090 16/04 A2972 RMK AC8 SLP062=

CYQF;2006-06-05 10:00;METAR CYQF 051000Z 31010G15KT 15SM BKN090 OVC250 16/02 A2974 RMK AC7CI1 SLP069=

CYQF;2006-06-05 11:00;METAR CYQF 051100Z 30010KT 15SM BKN090 OVC250 14/03 A2977 RMK AC7CI1 SLP078=

CYQF;2006-06-05 12:00;METAR CYQF 051200Z 29007KT 15SM BKN090 BKN250 13/04 A2979 RMK AC5CI1 SLP088=

CYQF;2006-06-05 13:00;METAR CYQF 051300Z 28007KT 15SM SCT090 SCT250 12/04 A2981 RMK AC3CI0 SLP094=

CYQF;2006-06-05 14:00;METAR CYQF 051400Z 30006KT 15SM FEW090 FEW250 15/04 A2983 RMK AC1CI0 SLP100=

CYQF;2006-06-05 15:00;METAR CYQF 051500Z 02008KT 15SM FEW250 17/04 A2983 RMK CI1 SLP100=

CYQF;2006-06-05 16:00;METAR CYQF 051600Z 34007KT 15SM SCT250 17/03 A2984 RMK CI2 SLP102=

CYQF;2006-06-05 17:00;METAR CYQF 051700Z 36005KT 15SM BKN250 18/02 A2983 RMK CI2 SLP101=

CYQF;2006-06-05 18:00;METAR CYQF 051800Z 10004KT 15SM FEW060 BKN250 19/03 A2983 RMK CU1CS3 TR CU SLP102=

CYQF;2006-06-05 19:00;METAR CYQF 051900Z 20008KT 15SM FEW070 BKN250 20/04 A2981 RMK CU1CI3 CC ASOCTD SLP096=

CYQF;2006-06-05 20:00;METAR CYQF 052000Z 20010KT 15SM FEW060 BKN250 22/04 A2980 RMK CU1CI2 SLP092=

CYQF;2006-06-05 21:00;METAR CYQF 052100Z 19006KT 15SM FEW065 BKN250 23/05 A2977 RMK CU2CI2 SLP079=

CYQF;2006-06-05 22:00;METAR CYQF 052200Z 19012KT 15SM FEW070 BKN250 23/03 A2976 RMK CU2CI1 TCU ASOCTD SLP074=

CYQF;2006-06-05 23:00;METAR CYQF 052300Z 22016G22KT 15SM FEW070 BKN250 23/04 A2975 RMK CU2CI1 TCU ASOCTD SLP072=

CYQF;2006-06-06 00:00;METAR CYQF 060000Z 26014KT 15SM FEW070 SCT250 24/02 A2976 RMK CU2CI1 TCU ASOCTD SLP075=

CYQF;2006-06-06 01:00;METAR CYQF 060100Z 35012G20KT 15SM BKN070 BKN250 19/09 A2978 RMK CU5CI1 VIRGA SLP082=

CYQF;2006-06-06 02:00;METAR CYQF 060200Z 36012G22KT 15SM BKN070TCU BKN120 16/09 A2983 RMK TCU6AC1 VIRGA SLP097=

CYQF;2006-06-06 03:00;METAR CYQF 060300Z 34012G28KT 15SM FEW040 BKN070 BKN120 12/05 A2991 RMK CU2AC3AC1 VIRGA TCU ASOCTD PRESRR SLP134=

CYQF;2006-06-06 04:00;METAR CYQF 060400Z 34006KT 15SM BKN070 BKN120 12/05 A2996 RMK AC5AC2 VIRGA SLP150=

CYQF;2006-06-06 05:00;METAR CYQF 060500Z 34003KT 15SM SCT070 SCT120 10/05 A2995 RMK AC3AC1 SHS=

CYQF;2006-06-06 06:00;METAR CYQF 060600Z 26002KT 15SM FEW070 FEW120 07/05 A2996 RMK AC2AC1 SLP158=

CYQF;2006-06-06 07:00;METAR CYQF 060700Z 23003KT 15SM FEW080 08/05 A2999 RMK AC2 SLP166=

CYQF;2006-06-06 08:00;METAR CYQF 060800Z 20004KT 15SM FEW080 05/04 A3000 RMK AC1 SLP170=

CYQF;2006-06-06 09:00;METAR CYQF 060900Z 22003KT 15SM FEW080 04/03 A3002 RMK AC1 SLP177=

CYQF;2006-06-06 10:00;METAR CYQF 061000Z 25005KT 15SM FEW250 04/02 A3004 RMK CI0 SLP182=

CYQF;2006-06-06 11:00;METAR CYQF 061100Z 24007KT 15SM FEW250 04/02 A3005 RMK CI0 SLP186=

CYQF;2006-06-06 12:00;METAR CYQF 061200Z 25006KT 15SM FEW080 04/03 A3007 RMK AC1 SLP194=

CYQF;2006-06-06 13:00;METAR CYQF 061300Z 25005KT 15SM FEW250 06/05 A3009 RMK CI0 SLP199=

CYQF;2006-06-06 14:00;METAR CYQF 061400Z 23005KT 15SM FEW250 09/05 A3011 RMK CI0 SLP206=

CYQF;2006-06-06 15:00;METAR CYQF 061500Z 30005KT 15SM SKC 11/06 A3013 RMK SLP217=

CYQF;2006-06-06 16:00;METAR CYQF 061600Z 36006KT 15SM SKC 14/03 A3013 RMK SLP218=

CYQF;2006-06-06 17:00;METAR CYQF 061700Z 36008KT 15SM FEW050 15/03 A3013 RMK CU1 SLP218=

CYQF;2006-06-06 18:00;METAR CYQF 061800Z 32008KT 15SM FEW050 16/03 A3013 RMK CU1 SLP217=

CYQF;2006-06-06 19:00;METAR CYQF 061900Z 29004KT 15SM FEW050 16/03 A3012 RMK CU1 SLP216=

CYQF;2006-06-06 20:00;METAR CYQF 062000Z 34004KT 15SM FEW055 FEW120 17/04 A3012 RMK CU2AC1 SLP215=

CYQF;2006-06-06 21:00;METAR CYQF 062100Z 35007KT 15SM FEW060 FEW120 18/02 A3011 RMK CU2AC1 SLP213=

CYQF;2006-06-06 22:00;METAR CYQF 062200Z 01003KT 15SM FEW060 18/01 A3010 RMK CU2 SLP210=

CYQF;2006-06-06 23:00;METAR CYQF 062300Z 18004KT 15SM FEW060 18/02 A3009 RMK CU2 SLP207=

CYQF;2006-06-07 00:00;METAR CYQF 070000Z 04005KT 15SM FEW060 19/02 A3009 RMK SC2 CU ASOCTD SLP204=

CYQF;2006-06-07 01:00;METAR CYQF 070100Z 06003KT 15SM BKN060 18/04 A3008 RMK SC5 SLP202=

CYQF;2006-06-07 02:00;METAR CYQF 070200Z 09007KT 15SM BKN060 18/04 A3008 RMK SC5 SLP203=

CYQF;2006-06-07 03:00;METAR CYQF 070300Z 07005KT 15SM BKN060 18/07 A3008 RMK SC6 SLP195=

CYQF;2006-06-07 04:00;METAR CYQF 070400Z 10005KT 15SM BKN060 15/05 A3011 RMK SC6 SLP204=

CYQF;2006-06-07 05:00;METAR CYQF 070500Z 10008KT 15SM BKN060 14/05 A3010 RMK SC6 SLP201=

CYQF;2006-06-07 06:00;METAR CYQF 070600Z 10010KT 15SM BKN060 BKN100 14/05 A3012 RMK SC6AC1 SLP208=

CYQF;2006-06-07 07:00;METAR CYQF 070700Z 09010KT 15SM SCT050 BKN100 12/07 A3012 RMK SC3AC2 SLP209=

CYQF;2006-06-07 08:00;METAR CYQF 070800Z 07003KT 15SM SCT050 BKN100 11/07 A3012 RMK SC3AC2 SLP209=

CYQF;2006-06-07 09:00;METAR CYQF 070900Z 06004KT 15SM SCT050 BKN090 BKN250 11/07 A3013 RMK SC3AC2CI2 SLP213=

CYQF;2006-06-07 10:00;METAR CYQF 071000Z 08005KT 15SM SCT050 BKN090 BKN250 11/07 A3013 RMK SC3AC2CI1 SLP213=

CYQF;2006-06-07 11:00;METAR CYQF 071100Z 07004KT 15SM BKN050 BKN090 11/07 A3014 RMK SC6AC2 SLP215=

CYQF;2006-06-07 12:00;METAR CYQF 071200Z 08006KT 15SM SCT050 BKN090 BKN250 11/07 A3014 RMK SC4AC2CI1 SLP215=

CYQF;2006-06-07 13:00;METAR CYQF 071300Z 08005KT 15SM FEW050 BKN090 BKN250 11/07 A3014 RMK CU1AC5CI0 SLP214=

CYQF;2006-06-07 14:00;METAR CYQF 071400Z 07002KT 15SM FEW050 BKN080 13/06 A3015 RMK CU1AC6 SLP217=

CYQF;2006-06-07 15:00;METAR CYQF 071500Z 13008KT 15SM BKN080 14/06 A3015 RMK AC6 ACC ASOCTD SLP215=

CYQF;2006-06-07 16:00;METAR CYQF 071600Z 13010KT 15SM BKN070 BKN250 15/07 A3015 RMK AC5CI1 ACC ASOCTD SLP214=

CYQF;2006-06-07 17:00;METAR CYQF 071700Z 13008KT 15SM FEW080 FEW120 BKN250 17/08 A3014 RMK ACC2AC1CI1 SLP212=

CYQF;2006-06-07 18:00;METAR CYQF 071800Z 13010KT 15SM FEW070 BKN250 19/08 A3013 RMK AC2CI1 SLP208=

CYQF;2006-06-07 19:00;METAR CYQF 071900Z 15010G15KT 15SM SCT070 BKN250 20/06 A3012 RMK AC2CI2 ACC ASOCTD SLP205=

CYQF;2006-06-07 20:00;METAR CYQF 072000Z 14012G25KT 15SM FEW060 BKN090 BKN260 21/05 A3011 RMK CU2AC2CI1 SLP201=

CYQF;2006-06-07 21:00;METAR CYQF 072100Z 13012G20KT 15SM BKN060 OVC250 21/03 A3010 RMK SC6CI1 CU EMBD SLP197=

CYQF;2006-06-07 22:00;METAR CYQF 072200Z 13012G20KT 15SM BKN060 OVC260 22/05 A3009 RMK SC6CI1 CU EMBD SLP196=

CYQF;2006-06-07 23:00;METAR CYQF 072300Z 14010G15KT 15SM BKN060 OVC260 21/04 A3010 RMK SC6CI1 CU EMBD SLP197=

CYQF;2006-06-08 00:00;METAR CYQF 080000Z 13012G18KT 15SM BKN060 BKN260 22/05 A3008 RMK SC6CI1 CU EMBD SLP191=

CYQF;2006-06-08 01:00;METAR CYQF 080100Z 11010KT 15SM BKN060 BKN260 21/06 A3007 RMK SC5CI1 CU EMBD SLP189=

CYQF;2006-06-08 02:00;METAR CYQF 080200Z 12010G16KT 15SM BKN060 BKN260 20/06 A3006 RMK SC5CI1 CU ASOCTD TCU S SLP186=

CYQF;2006-06-08 03:00;METAR CYQF 080300Z 11012KT 15SM FEW060 BKN260 18/06 A3008 RMK SC2CI3 SLP190=

CYQF;2006-06-08 04:00;METAR CYQF 080400Z 08010KT 15SM FEW060 BKN090 BKN260 17/07 A3010 RMK SC2AC2CI2 CU ASOCTD SLP196=

CYQF;2006-06-08 05:00;METAR CYQF 080500Z 09012KT 15SM SCT060 BKN100 BKN260 17/08 A3010 RMK SC4AC2CI1 CU ASOCTD SLP198=

CYQF;2006-06-08 07:00;METAR CYQF 080700Z 12010KT 15SM SCT050 OVC100 16/07 A3008 RMK SC3AC5 OBS TKN H+11 SLP188=

CYQF;2006-06-08 08:00;METAR CYQF 080800Z 13010KT 15SM FEW030 BKN060 OVC100 16/07 A3007 RMK SC2SC3AC2 SLP186=

CYQF;2006-06-08 09:00;METAR CYQF 080900Z 13014G27KT 10SM -SHRA BKN030 OVC060 14/09 A3008 RMK SC6SC2 SLP188=

CYQF;2006-06-08 10:00;METAR CYQF 081000Z 15012KT 10SM -SHRA BKN015 OVC030 12/10 A3009 RMK SC5SC3 SLP193=

CYQF;2006-06-08 11:00;METAR CYQF 081100Z 14005KT 10SM -RA BKN010 OVC030 11/10 A3008 RMK SC5SC3 SLP190=

CYQF;2006-06-08 12:00;METAR CYQF 081200Z 12006KT 10SM -RA SCT010 OVC030 12/10 A3007 RMK SF4SC4 SLP187=

CYQF;2006-06-08 13:00;METAR CYQF 081300Z 10010KT 10SM -RA OVC015 11/10 A3005 RMK SC8 SLP180=

CYQF;2006-06-08 13:36;SPECI CYQF 081336Z 08008KT 15SM BKN011 OVC020 RMK SC7SC1=

CYQF;2006-06-08 14:00;METAR CYQF 081400Z 09010KT 15SM FEW007 OVC010 11/10 A3004 RMK SF2SC6 SLP177=

CYQF;2006-06-08 14:29;SPECI CYQF 081429Z 09010KT 12SM -RA SCT007 OVC010 RMK SF3SC5=

CYQF;2006-06-08 15:00;METAR CYQF 081500Z 09010KT 6SM -RA BR SCT006 OVC010 11/10 A3004 RMK SF3SC5 SLP180=

CYQF;2006-06-08 16:00;METAR CYQF 081600Z 09008KT 6SM -RA BR FEW006 OVC010 11/10 A3003 RMK SF2SC6 SLP176=

CYQF;2006-06-08 16:31;SPECI CYQF 081631Z 09009KT 8SM -RA BKN007 OVC012 RMK SF6SC2 CIG RAG=

CYQF;2006-06-08 17:00;METAR CYQF 081700Z 10010KT 10SM -RA BKN006 OVC010 11/11 A3002 RMK SF6SC2 CIG RAG SLP174=

CYQF;2006-06-08 18:00;METAR CYQF 081800Z 08010KT 3SM -RA BR BKN005 OVC010 11/11 A3001 RMK SF6SC2 SLP171=

CYQF;2006-06-08 19:00;METAR CYQF 081900Z 09010KT 3SM -RA BR BKN004 OVC010 12/12 A3000 RMK SF6SC2 SLP168=

CYQF;2006-06-08 20:00;METAR CYQF 082000Z 09008KT 3SM -RA BR BKN004 OVC010 12/12 A2999 RMK SF6SC2 SLP166=

CYQF;2006-06-08 21:00;METAR CYQF 082100Z 11010G15KT 5SM -RA BR BKN006 OVC012 13/12 A2999 RMK SF6SC2 SLP168=

CYQF;2006-06-08 21:43;SPECI CYQF 082143Z 11012KT 5SM -RA BR SCT007 OVC010 RMK SF4SC4 CIG RAG=

CYQF;2006-06-08 22:00;METAR CYQF 082200Z 11012G20KT 5SM -RA BR SCT007 OVC010 13/12 A3000 RMK SF3SC5 SLP169=

CYQF;2006-06-08 23:00;METAR CYQF 082300Z 11010G15KT 3SM -RA BR OVC009 12/11 A3000 RMK SF8 CIG RAG SLP170=

CYQF;2006-06-09 00:00;METAR CYQF 090000Z 09010G15KT 3SM -RA BR OVC008 12/11 A3000 RMK SF8 CIG RAG SLP174=

CYQF;2006-06-09 02:00;METAR CYQF 090200Z 10014KT 4SM -RA BR OVC008 10/10 A3001 RMK SF8 CIG RAG SLP176=

CYQF;2006-06-09 04:00;METAR CYQF 090400Z 09012KT 4SM -RA BR BKN008 OVC012 10/09 A3002 RMK SF6SC2 CIG RAG SLP184=

CYQF;2006-06-09 05:00;METAR CYQF 090500Z 08010KT 4SM -RA BR BKN007 OVC010 10/09 A3003 RMK SF6SC2 CIG RAG SLP185=

CYQF;2006-06-09 06:00;METAR CYQF 090600Z 08007KT 4SM -RA BR BKN007 OVC014 10/10 A3003 RMK SF5SC3 SLP188=

CYQF;2006-06-09 07:00;METAR CYQF 090700Z 09007KT 10SM -RA OVC007 09/09 A3002 RMK SF8 CIG RGD SLP185=

CYQF;2006-06-09 07:38;SPECI CYQF 090738Z 05003KT 4SM -DZ BR SCT003 OVC006 RMK SF3ST5 CIG RGD=

CYQF;2006-06-09 08:00;METAR CYQF 090800Z 06006KT 4SM -DZ BR SCT003 OVC006 09/09 A3002 RMK SF3ST5 CIG RGD SLP184=

CYQF;2006-06-09 09:00;METAR CYQF 090900Z 05005KT 2SM -DZ BR OVC005 09/09 A3002 RMK ST8 CIG RGD SLP181=

CYQF;2006-06-09 10:00;METAR CYQF 091000Z 05005KT 2SM -DZ BR OVC005 09/09 A3002 RMK ST8 SLP181=

CYQF;2006-06-09 11:00;METAR CYQF 091100Z 05007KT 5SM -DZ BR OVC006 09/09 A3002 RMK ST8 CIG RGD SLP182=

CYQF;2006-06-09 12:00;METAR CYQF 091200Z 05008KT 5SM -DZ BR OVC005 09/09 A3004 RMK ST8 CIG RGD SLP189=

CYQF;2006-06-09 13:00;METAR CYQF 091300Z 06005KT 6SM -DZ BR OVC007 09/09 A3005 RMK ST8 SLP192=

CYQF;2006-06-09 13:48;SPECI CYQF 091348Z 05004KT 12SM BKN007 OVC020 RMK ST6SC2 CIG RGD=

CYQF;2006-06-09 14:00;METAR CYQF 091400Z 05004KT 12SM BKN011 OVC020 10/09 A3005 RMK SF6SC2 CIG RGD SLP193=

CYQF;2006-06-09 15:00;METAR CYQF 091500Z 03005KT 15SM BKN008 10/09 A3006 RMK SF7 SLP198=

CYQF;2006-06-09 16:00;METAR CYQF 091600Z 02005KT 15SM BKN008 11/08 A3006 RMK SC7 SLP200=

CYQF;2006-06-09 17:00;METAR CYQF 091700Z 36008KT 15SM BKN010 OVC030 11/09 A3007 RMK SC7SC1 SLP201=

CYQF;2006-06-09 18:00;METAR CYQF 091800Z 34008KT 15SM BKN011 OVC030 12/09 A3008 RMK SC7SC1 SLP202=

CYQF;2006-06-09 19:00;METAR CYQF 091900Z 01008KT 15SM BKN012 OVC080 13/09 A3008 RMK CU7AC1 TCU ASOCTD SLP204=

CYQF;2006-06-09 19:18;SPECI CYQF 091918Z 34008KT 15SM SCT012 BKN023 OVC080 RMK CU4SC3AC1 TCU EMBDD=

CYQF;2006-06-09 20:00;METAR CYQF 092000Z 02011KT 15SM FEW012 BKN020 OVC080 13/08 A3008 RMK SC2CU6AC1 SLP204=

CYQF;2006-06-09 21:00;METAR CYQF 092100Z 01010KT 15SM FEW012 BKN020 OVC080 12/09 A3009 RMK SC2CU6AC1 SLP208=

CYQF;2006-06-09 22:00;METAR CYQF 092200Z 02011KT 15SM FEW012 BKN026 OVC080 12/08 A3010 RMK SC2CU6AC1 SLP209=

CYQF;2006-06-09 23:00;METAR CYQF 092300Z 01010KT 15SM FEW012 BKN025 BKN080 11/08 A3010 RMK SC2CU5AC1 FEW TCU SLP209=

CYQF;2006-06-10 00:00;METAR CYQF 100000Z 36009KT 15SM FEW012 BKN027 OVC080 12/09 A3009 RMK SC2CU5AC1 SLP209=

CYQF;2006-06-10 01:00;METAR CYQF 100100Z 36007KT 15SM FEW012 BKN020 OVC080 12/08 A3010 RMK SF2CU4AC2 FEW TCU SHS NW-NE SLP211=

CYQF;2006-06-10 02:00;METAR CYQF 100200Z 01012KT 15SM FEW010 BKN020 OVC050 11/08 A3009 RMK SF2SC4SC2 CU EMBD SLP209=

CYQF;2006-06-10 03:00;METAR CYQF 100300Z 33007KT 15SM -SHRA FEW010 BKN020 OVC050 11/08 A3011 RMK SF2SC3SC3 CU EMBD SLP214=

CYQF;2006-06-10 04:00;METAR CYQF 100400Z 36004KT 3SM -SHRA BR SCT008 OVC015 09/09 A3012 RMK SF3SC5 SLP218=

CYQF;2006-06-10 04:31;SPECI CYQF 100431Z 35003KT 12SM FEW007 BKN012 OVC040 RMK SF2SC4SC2 BR=

CYQF;2006-06-10 04:45;SPECI CYQF 100445Z 34003KT 12SM -SHRA FEW007 BKN014 OVC040 RMK SF2SC5SC2=

CYQF;2006-06-10 05:00;METAR CYQF 100500Z 33004KT 12SM -SHRA FEW008 BKN016 OVC040 10/09 A3012 RMK SF2SC5SC2 SLP218=

CYQF;2006-06-10 05:24;SPECI CYQF 100524Z 33003KT 15SM FEW008 BKN020 BKN080 RMK SF1SC4AC1=

CYQF;2006-06-10 06:00;METAR CYQF 100600Z 33004KT 15SM FEW020 BKN040 BKN080 08/08 A3011 RMK SC2SC2AC1 SLP214=

CYQF;2006-06-10 07:00;METAR CYQF 100700Z 30003KT 15SM FEW020 BKN040 BKN080 08/08 A3009 RMK SC1SC5AC1 SLP210=

CYQF;2006-06-10 08:00;METAR CYQF 100800Z 31005KT 15SM BKN040 BKN080 09/09 A3009 RMK SC6AC2 SLP208=

CYQF;2006-06-10 09:00;METAR CYQF 100900Z 30003KT 15SM SCT040 BKN090 09/08 A3008 RMK SC3AC4 SLP203=

CYQF;2006-06-10 10:00;METAR CYQF 101000Z 00000KT 15SM SCT040 BKN090 09/09 A3007 RMK SC3AC4 SLP200=

CYQF;2006-06-10 11:00;METAR CYQF 101100Z 34004KT 15SM FEW015 SCT040 BKN090 09/08 A3005 RMK SF1SC2AC3 SLP194=

CYQF;2006-06-10 12:00;METAR CYQF 101200Z 34003KT 15SM FEW015 FEW040 BKN080 09/08 A3005 RMK SF1SC2AC4 SLP193=

CYQF;2006-06-10 13:00;METAR CYQF 101300Z 00000KT 15SM FEW010 SCT030 BKN070 09/08 A3005 RMK SF2SC2AC3 SLP192=

CYQF;2006-06-10 14:00;METAR CYQF 101400Z 36003KT 15SM FEW010 SCT030 BKN070 10/09 A3004 RMK SF2SC2AC2 SLP191=

CYQF;2006-06-10 14:38;SPECI CYQF 101438Z 36004KT 15SM BKN010 BKN070 RMK CU5AC2=

CYQF;2006-06-10 15:00;METAR CYQF 101500Z 01003KT 15SM BKN013 BKN070 10/08 A3004 RMK CU5AC2 SLP191=

CYQF;2006-06-10 16:00;METAR CYQF 101600Z 02003KT 15SM BKN015 BKN070 11/08 A3003 RMK CU5AC2 SLP188=

CYQF;2006-06-10 17:00;METAR CYQF 101700Z 36006KT 15SM BKN024 13/07 A3002 RMK CU6 SLP185=

CYQF;2006-06-10 18:00;METAR CYQF 101800Z 01011KT 15SM BKN030 14/07 A3001 RMK CU6 SLP179=

CYQF;2006-06-10 19:00;METAR CYQF 101900Z 36007KT 15SM BKN030 15/07 A3002 RMK CU5 SLP180=

CYQF;2006-06-10 20:00;METAR CYQF 102000Z 35011KT 15SM BKN030 BKN250 16/08 A3001 RMK CU5CI0 SLP178=

CYQF;2006-06-10 21:00;METAR CYQF 102100Z 01010KT 15SM BKN040 BKN250 16/06 A3000 RMK CU5CI0 SLP173=

CYQF;2006-06-10 22:00;METAR CYQF 102200Z 36008KT 15SM SCT045 BKN250 17/06 A2999 RMK CU4CI0 SLP168=

CYQF;2006-06-10 23:00;METAR CYQF 102300Z 35008KT 15SM SCT050 BKN210 17/07 A2997 RMK CU4CI1 SLP164=

CYQF;2006-06-11 00:00;METAR CYQF 110000Z 35006KT 15SM FEW050 BKN250 17/07 A2995 RMK CU2CI1 SLP153=

CYQF;2006-06-11 01:00;METAR CYQF 110100Z 34008KT 15SM FEW050 SCT250 18/07 A2994 RMK CU2CI0 SLP150=

CYQF;2006-06-11 02:00;METAR CYQF 110200Z 35005KT 15SM FEW050 17/07 A2993 RMK SC2 SLP148=

CYQF;2006-06-11 04:00;METAR CYQF 110400Z 17003KT 15SM FEW080 13/09 A2993 RMK AC2 SLP144=

CYQF;2006-06-11 05:00;METAR CYQF 110500Z 20004KT 15SM BKN070 12/09 A2992 RMK AC6 SLP143=

CYQF;2006-06-11 06:00;METAR CYQF 110600Z 19006KT 15SM SCT070 11/09 A2990 RMK AC3 SLP137=

CYQF;2006-06-11 07:00;METAR CYQF 110700Z 06013KT 15SM -SHRA BKN050 BKN100 11/09 A2992 RMK SC6AC2 SLP143=

CYQF;2006-06-11 08:00;METAR CYQF 110800Z 35008KT 3SM SHRA BR BKN010 OVC050 10/09 A2995 RMK SF6SC2 SLP151=

CYQF;2006-06-11 09:00;METAR CYQF 110900Z 00000KT 10SM -SHRA FEW010 OVC050 09/08 A2992 RMK SF2SC6 SLP145=

CYQF;2006-06-11 10:00;METAR CYQF 111000Z 23005KT 15SM FEW010 SCT050 BKN100 BKN250 09/08 A2988 RMK SF2SC2AC2CI1 SLP131=

CYQF;2006-06-11 11:00;METAR CYQF 111100Z 30006KT 15SM FEW050 SCT090 BKN250 08/08 A2990 RMK SC2AC2CI0 SLP138=

CYQF;2006-06-11 12:00;METAR CYQF 111200Z 32006KT 15SM SCT050 BKN090 09/08 A2989 RMK SC3AC3 SLP133=

CYQF;2006-06-11 13:00;METAR CYQF 111300Z 34004KT 15SM SCT050 SCT090 BKN250 11/09 A2991 RMK SC3AC1CI2 SLP138=

CYQF;2006-06-11 14:00;METAR CYQF 111400Z 35005KT 15SM FEW012 SCT050 BKN250 10/08 A2992 RMK CF2SC2CI2 SLP142=

CYQF;2006-06-11 15:00;METAR CYQF 111500Z 34007KT 15SM -SHRA BKN007 OVC020 10/09 A2994 RMK SF6SC2 VIS N 6 SLP149=

CYQF;2006-06-11 16:00;METAR CYQF 111600Z 36006KT 8SM BKN006 BKN050 BKN120 10/10 A2994 RMK SF5SC1AC2 BR SLP150=

CYQF;2006-06-11 17:41;SPECI CYQF 111741Z 02011KT 15SM BKN015 BKN050 BKN120 RMK SC5SC1AC1 SHS SE-S=

CYQF;2006-06-11 18:00;METAR CYQF 111800Z 36007KT 15SM BKN015 BKN120 BKN250 12/09 A2995 RMK SC5AC2CI0 SLP158=

CYQF;2006-06-11 19:00;METAR CYQF 111900Z 35006KT 15SM BKN020 BKN100 BKN250 14/09 A2996 RMK SC6AC2CI0 SLP160=

CYQF;2006-06-11 21:00;METAR CYQF 112100Z 36010G15KT 15SM BKN024 BKN100 BKN250 14/07 A2999 RMK SC5AC1CI1 TCU ASOCTD SLP170=

CYQF;2006-06-11 22:00;METAR CYQF 112200Z 34010KT 15SM BKN025 BKN080 BKN250 14/08 A3000 RMK SC5AC1CI1 TCU ASOCTD SLP174=

CYQF;2006-06-11 23:00;METAR CYQF 112300Z 01010G17KT 15SM BKN025 BKN080 BKN250 14/08 A3002 RMK SC5AC2CI0 TCU ASOCTD SLP178=

CYQF;2006-06-12 00:00;METAR CYQF 120000Z 01010G17KT 15SM SCT025 BKN080 BKN250 14/09 A3003 RMK SC3AC3CI1 TCU ASOCTD SLP183=

CYQF;2006-06-12 01:00;METAR CYQF 120100Z 01010G17KT 15SM FEW010 SCT025 BKN080 OVC250 13/09 A3005 RMK SF1SC2AC3CI1 CU EMBD SLP189=

CYQF;2006-06-12 02:00;METAR CYQF 120200Z 35010KT 15SM FEW010 BKN020 OVC080 12/09 A3006 RMK SF2SC3AC2 CU EMBD SLP195=

CYQF;2006-06-12 03:00;METAR CYQF 120300Z 33007KT 15SM FEW015 BKN090 BKN250 11/09 A3008 RMK SC2AC3CI1 CU EMBDD SLP205=

CYQF;2006-06-12 04:00;METAR CYQF 120400Z 33005KT 15SM FEW015 BKN090 BKN250 10/09 A3011 RMK SC2AC3CI1 SLP212=

CYQF;2006-06-12 05:00;METAR CYQF 120500Z 32005KT 15SM BKN030 BKN090 10/09 A3012 RMK SC5AC2 SLP217=

CYQF;2006-06-12 05:38;SPECI CYQF 120538Z 32003KT 15SM BKN008 OVC030 RMK SF6SC2=

CYQF;2006-06-12 06:00;METAR CYQF 120600Z 00000KT 15SM BKN008 OVC050 10/09 A3013 RMK SF5SC3 SLP219=

CYQF;2006-06-12 07:00;METAR CYQF 120700Z 00000KT 15SM BKN007 OVC015 10/10 A3013 RMK SF6SC2 SLP220=

CYQF;2006-06-12 08:00;METAR CYQF 120800Z 00000KT 10SM BKN006 OVC015 10/10 A3014 RMK SF6SC2 SLP222=

CYQF;2006-06-12 09:00;METAR CYQF 120900Z 00000KT 6SM BR OVC008 10/10 A3014 RMK ST8 SLP220=

CYQF;2006-06-12 10:00;METAR CYQF 121000Z 35003KT 6SM BR SCT010 BKN030 OVC100 10/10 A3014 RMK SF3SC3AC2 SLP221=

CYQF;2006-06-12 11:00;METAR CYQF 121100Z 00000KT 6SM BR BKN010 OVC030 10/10 A3015 RMK SF6SC2 SLP224=

CYQF;2006-06-12 12:00;METAR CYQF 121200Z 00000KT 6SM BR SCT010 BKN030 10/10 A3016 RMK SF4SC3 SLP229=

CYQF;2006-06-12 13:00;METAR CYQF 121300Z 15002KT 5SM BR BKN010 BKN030 11/10 A3017 RMK SF6SC2 SLP233=

CYQF;2006-06-12 13:25;SPECI CYQF 121325Z 16003KT 5SM BR BKN007 OVC030 RMK SF6SC2 CIG RAG=

CYQF;2006-06-12 14:00;METAR CYQF 121400Z 21004KT 8SM BKN006 BKN030 11/10 A3019 RMK CF6SC2 BR CIG RAG SLP237=

CYQF;2006-06-12 14:45;SPECI CYQF 121445Z 19002KT 10SM FEW008 SCT030 RMK CF2SC2 BR=

CYQF;2006-06-12 15:00;METAR CYQF 121500Z 21002KT 12SM FEW012 SCT030 13/10 A3019 RMK CU2SC1 SLP238=

CYQF;2006-06-12 16:00;METAR CYQF 121600Z 14005KT 15SM BKN020 14/09 A3019 RMK CU5 SLP239=

CYQF;2006-06-12 18:00;METAR CYQF 121800Z 17007KT 15SM BKN025 BKN210 17/10 A3019 RMK CU6CI0 SLP235=

CYQF;2006-06-12 19:00;METAR CYQF 121900Z 16005KT 15SM BKN030 BKN090 16/09 A3019 RMK CU6AC2 SLP236=

CYQF;2006-06-12 20:00;METAR CYQF 122000Z 15009KT 15SM BKN030 BKN090 16/09 A3018 RMK CU6AC2 SLP233=

CYQF;2006-06-12 21:00;METAR CYQF 122100Z 16010KT 15SM BKN035 BKN090 17/09 A3017 RMK CU5AC1 SLP228=

CYQF;2006-06-12 22:00;METAR CYQF 122200Z 16009KT 15SM SCT035 OVC070 18/09 A3017 RMK CU4AC4 SLP227=

CYQF;2006-06-12 23:00;METAR CYQF 122300Z 17011KT 15SM SCT035 BKN070 17/09 A3017 RMK CU3AC3 SLP227=

CYQF;2006-06-13 00:00;METAR CYQF 130000Z 15010G15KT 15SM SCT040 BKN070 17/10 A3016 RMK SC4AC3 SLP226=

CYQF;2006-06-13 01:00;METAR CYQF 130100Z 18010KT 15SM SCT040 BKN080 16/09 A3016 RMK SC4AC3 SLP226=

CYQF;2006-06-13 02:00;METAR CYQF 130200Z 17010KT 15SM FEW040 BKN080 16/10 A3016 RMK SC2AC5 SLP226=

CYQF;2006-06-13 03:00;METAR CYQF 130300Z 16006KT 15SM FEW040 BKN070 15/10 A3015 RMK SC2AC6 SLP221=

CYQF;2006-06-13 04:00;METAR CYQF 130400Z 17005KT 15SM FEW040 BKN070 15/11 A3016 RMK SC2AC6 SLP223=

CYQF;2006-06-13 05:00;METAR CYQF 130500Z 14006KT 15SM FEW040 BKN070 14/11 A3016 RMK SC2AC6 SLP222=

CYQF;2006-06-13 06:00;METAR CYQF 130600Z 14004KT 15SM FEW040 BKN070 14/11 A3015 RMK SC2AC6 SLP218=

CYQF;2006-06-13 07:00;METAR CYQF 130700Z 15008KT 15SM FEW040 BKN070 14/10 A3014 RMK SC2AC6 SLP215=

CYQF;2006-06-13 08:00;METAR CYQF 130800Z 15008KT 15SM FEW040 BKN070 14/10 A3014 RMK SC2AC5 SLP214=

CYQF;2006-06-13 09:00;METAR CYQF 130900Z 15009KT 15SM FEW040 BKN070 13/09 A3014 RMK SC2AC5 SLP212=

CYQF;2006-06-13 10:00;METAR CYQF 131000Z 15011KT 15SM FEW040 SCT070 12/09 A3011 RMK SC1AC3 SLP205=

CYQF;2006-06-13 11:00;METAR CYQF 131100Z 15011KT 15SM SCT040 BKN070 12/09 A3012 RMK SC4AC2 SLP206=

CYQF;2006-06-13 12:00;METAR CYQF 131200Z 15012KT 15SM SCT040 BKN090 BKN250 11/09 A3010 RMK SC3AC2CI2 SLP202=

CYQF;2006-06-13 13:00;METAR CYQF 131300Z 14012KT 15SM FEW040 BKN090 BKN250 12/09 A3009 RMK SC2AC2CI1 SLP201=

CYQF;2006-06-13 14:00;METAR CYQF 131400Z 15013KT 15SM FEW040 FEW090 SCT250 14/10 A3007 RMK SC1AC1CI0 SLP195=

CYQF;2006-06-13 15:00;METAR CYQF 131500Z 15015G21KT 15SM FEW040 SCT090 SCT250 15/10 A3007 RMK SC1AC2CI0 SLP189=

CYQF;2006-06-13 16:00;METAR CYQF 131600Z 15015G20KT 15SM FEW040 FEW090 FEW250 16/11 A3007 RMK SC1AC1CI1 SLP189=

CYQF;2006-06-13 17:00;METAR CYQF 131700Z 14015KT 15SM FEW040 FEW100 SCT250 17/11 A3006 RMK SC1AC1CI1 SLP187=

CYQF;2006-06-13 18:00;METAR CYQF 131800Z 14014G23KT 15SM FEW040 FEW100 BKN250 19/13 A3005 RMK SC1AC2CI1 SLP180=

CYQF;2006-06-13 19:00;METAR CYQF 131900Z 14022G28KT 15SM FEW040 BKN090 BKN250 19/13 A3003 RMK SC1AC5CI1 SLP175=

CYQF;2006-06-13 20:00;METAR CYQF 132000Z 15017G24KT 15SM FEW040 BKN090 BKN250 20/13 A3003 RMK SC1AC5CI1 SLP174=

CYQF;2006-06-13 21:00;METAR CYQF 132100Z 14015KT 15SM FEW040 BKN090 BKN250 21/14 A3002 RMK SC2AC3CI1 SLP167=

CYQF;2006-06-13 22:00;METAR CYQF 132200Z 12015KT 15SM BKN040 BKN090 OVC250 21/14 A3001 RMK SC5AC1CI1 SLP164=

CYQF;2006-06-13 23:00;METAR CYQF 132300Z 16015G20KT 15SM SCT040 BKN090 OVC250 20/13 A3000 RMK SC3AC2CI2 SLP161=

CYQF;2006-06-14 00:00;METAR CYQF 140000Z 17010G15KT 15SM SCT040 OVC080 20/14 A2999 RMK SC4AC4 SLP160=

CYQF;2006-06-14 01:00;METAR CYQF 140100Z 15011KT 15SM BKN040 OVC080 20/14 A2997 RMK SC6AC2 SLP155=

CYQF;2006-06-14 02:00;METAR CYQF 140200Z 14007KT 15SM BKN040 OVC090 20/14 A2997 RMK SC6AC2 SLP154=

CYQF;2006-06-14 03:00;METAR CYQF 140300Z 12005KT 15SM SCT050 BKN090 19/14 A2995 RMK SC3AC4 SLP146=

CYQF;2006-06-14 04:00;METAR CYQF 140400Z 12006KT 15SM SCT050 OVC090 19/14 A2995 RMK SC4AC4 SLP144=

CYQF;2006-06-14 05:00;METAR CYQF 140500Z 13006KT 15SM BKN050 BKN090 19/13 A2994 RMK SC5AC2 SLP142=

CYQF;2006-06-14 06:00;METAR CYQF 140600Z 13005KT 15SM SCT050 BKN090 BKN250 18/12 A2992 RMK SC3AC2CI1 SLP130=

CYQF;2006-06-14 07:00;METAR CYQF 140700Z 14005KT 15SM SCT050 BKN090 OVC250 17/12 A2991 RMK SC3AC3CI2 SLP127=

CYQF;2006-06-14 08:00;METAR CYQF 140800Z 16003KT 15SM SCT040 BKN075 OVC250 16/12 A2989 RMK SC4AC3CI1 CB/LTGICCG DIST SE-SW SLP122=

CYQF;2006-06-14 09:00;METAR CYQF 140900Z 18010KT 15SM -SHRA SCT040 OVC075 16/12 A2987 RMK SC4AC4 CB EMBDD LTGICCG SE+SW-W SLP113=

CYQF;2006-06-14 09:43;SPECI CYQF 140943Z 19009KT 15SM BKN040 OVC075 RMK SC5AC3 CB EMBD OCNL=

CYQF;2006-06-14 10:00;METAR CYQF 141000Z 14006KT 15SM SCT040 BKN080 15/13 A2986 RMK SC4AC3 CB EMBD OCNL LTNG DIST SE SLP110=

CYQF;2006-06-14 10:33;SPECI CYQF 141033Z 17007KT 15SM -SHRA BKN040 OVC080 RMK CU6AC2 CB EMBD OCNL LTNG E=

CYQF;2006-06-14 11:00;METAR CYQF 141100Z 22006KT 12SM -SHRA FEW015 BKN030 OVC080 14/13 A2985 RMK SC2CU6AC1 CB EMBD OCNL LTNG E SLP107=

CYQF;2006-06-14 11:12;SPECI CYQF 141112Z 22010KT 12SM -TSRA FEW015 BKN040 BKN080 RMK SC2CU3AC2 CB EMBD W LTGCG W=

CYQF;2006-06-14 12:00;METAR CYQF 141200Z 12008KT 6SM -TSRA FEW015 OVC030 14/14 A2985 RMK SC2CU6 CB EMBD LTGICCG E+O/H SLP108=

CYQF;2006-06-14 12:29;SPECI CYQF 141229Z 00000KT 12SM -SHRA FEW015 BKN030 OVC090 RMK SC2SC4AC2=

CYQF;2006-06-14 13:00;METAR CYQF 141300Z 10012KT 12SM -SHRA FEW015 BKN030 BKN090 OVC250 15/13 A2976 RMK SC2SC3AC2CI1 RETS SLP081=

CYQF;2006-06-14 13:46;SPECI CYQF 141346Z 12012KT 15SM FEW010 BKN030 BKN090 OVC250 RMK SC1SC4AC2CI1 SHRA NE-SE=

CYQF;2006-06-14 14:00;METAR CYQF 141400Z 11015KT 15SM FEW010 BKN040 BKN090 OVC250 17/13 A2976 RMK SC1SC2AC2CI1 SLP082=

CYQF;2006-06-14 15:00;METAR CYQF 141500Z 18005KT 15SM SCT010 BKN090 OVC250 15/14 A2978 RMK SC2AC2CI2 SLP084=

CYQF;2006-06-14 16:00;METAR CYQF 141600Z 10005KT 15SM FEW010 BKN100 OVC250 16/14 A2977 RMK SC2AS3CI2 SLP081=

CYQF;2006-06-14 17:00;METAR CYQF 141700Z 00000KT 15SM SCT012 BKN100 OVC250 16/14 A2975 RMK SC2AC2CS2 SLP075=

CYQF;2006-06-14 17:39;SPECI CYQF 141739Z 11010KT 15SM BKN010 OVC100 RMK SC6AC1=

CYQF;2006-06-14 18:00;METAR CYQF 141800Z 13005KT 15SM BKN011 OVC100 17/14 A2977 RMK SC6AC1 SLP082=

CYQF;2006-06-14 19:00;METAR CYQF 141900Z 16010KT 15SM BKN013 OVC100 18/13 A2976 RMK CU6AC2 SLP078=

CYQF;2006-06-14 19:44;SPECI CYQF 141944Z 18008KT 15SM BKN015 BKN100 RMK CU4AC2=

CYQF;2006-06-14 20:00;METAR CYQF 142000Z 19008KT 15SM BKN015 BKN100 19/14 A2975 RMK CU5AC2 SLP075=

CYQF;2006-06-14 21:00;METAR CYQF 142100Z 11010KT 15SM FEW010 BKN020 BKN080 18/15 A2974 RMK CF1SC5AC2 SLP070=

CYQF;2006-06-14 22:00;METAR CYQF 142200Z 10007KT 15SM FEW020 BKN030 OVC080 17/14 A2974 RMK CF1SC5AC2 SLP071=

CYQF;2006-06-15 00:00;METAR CYQF 150000Z 10010KT 15SM FEW010 BKN015 OVC250 17/14 A2974 RMK CU1SC6CI0 TCU ASOCTD W CIG LWR E SLP073=

CYQF;2006-06-15 01:00;METAR CYQF 150100Z 09006KT 10SM BKN012 BKN050 OVC090 17/15 A2972 RMK SC6SC1AC1 BR SLP069=

CYQF;2006-06-15 02:00;METAR CYQF 150200Z 09004KT 10SM FEW012 SCT090 OVC250 17/15 A2971 RMK SC2AC2CI3 BR SLP066=

CYQF;2006-06-15 03:00;METAR CYQF 150300Z 05002KT 12SM SCT090 BKN140 OVC250 17/15 A2970 RMK AC4AC1CI2 SLP060=

CYQF;2006-06-15 04:00;METAR CYQF 150400Z 06004KT 10SM BKN050 OVC090 17/15 A2971 RMK SC6AC2 BR SLP063=

CYQF;2006-06-15 05:00;METAR CYQF 150500Z 06004KT 10SM -SHRA BKN025 OVC050 16/15 A2970 RMK SC6SC2 BR SLP061=

CYQF;2006-06-15 06:00;METAR CYQF 150600Z 08002KT 10SM -SHRA BKN025 OVC050 16/15 A2968 RMK SC6SC2 SLP054=

CYQF;2006-06-15 06:46;SPECI CYQF 150646Z 03004KT 15SM BKN025 OVC050 RMK SC6SC2=

CYQF;2006-06-15 06:48;SPECI CYQF 150648Z 03004KT 15SM BKN025 OVC050 RMK SC6SC2=

CYQF;2006-06-15 07:00;METAR CYQF 150700Z 03004KT 15SM BKN025 OVC050 16/15 A2966 RMK SC6SC2 SLP048=

CYQF;2006-06-15 07:36;SPECI CYQF 150736Z 02003KT 10SM -SHRA OVC025 RMK SC8=

CYQF;2006-06-15 08:00;METAR CYQF 150800Z 03003KT 10SM -SHRA FEW008 OVC025 15/15 A2966 RMK SF2SC6 RERA SLP045=

CYQF;2006-06-15 09:00;METAR CYQF 150900Z 02004KT 10SM -RA FEW008 OVC020 15/15 A2963 RMK SF2SC6 SLP035=

CYQF;2006-06-15 10:00;METAR CYQF 151000Z 36005KT 12SM -RA FEW008 OVC020 15/14 A2962 RMK SF2SC6 SLP032=

CYQF;2006-06-15 10:39;SPECI CYQF 151039Z 34004KT 12SM FEW008 OVC020 RMK SF2SC6=

CYQF;2006-06-15 11:00;METAR CYQF 151100Z 01007KT 10SM FEW006 OVC020 14/14 A2962 RMK SF2SC6 BR SLP031=

CYQF;2006-06-15 11:43;SPECI CYQF 151143Z 02007KT 8SM -RA FEW006 OVC020 RMK SF2SC6=

CYQF;2006-06-15 12:00;METAR CYQF 151200Z 36006KT 8SM -RA SCT006 OVC020 14/13 A2962 RMK SF3SC5 SLP033=

CYQF;2006-06-15 12:35;SPECI CYQF 151235Z 03008KT 5SM -RA BR BKN006 OVC020 RMK SF6SC2=

CYQF;2006-06-15 12:44;SPECI CYQF 151244Z 02005KT 2SM -RA BR OVC004 RMK SF8=

CYQF;2006-06-15 13:00;METAR CYQF 151300Z 02005KT 1 1/2SM -RA BR OVC004 14/14 A2961 RMK SF8 SLP031=

CYQF;2006-06-15 14:00;METAR CYQF 151400Z 36008KT 3SM -RA BR BKN005 OVC020 14/14 A2959 RMK SF5SC3 SLP025=

CYQF;2006-06-15 15:00;METAR CYQF 151500Z 36010KT 5SM -RA BR OVC005 14/14 A2959 RMK ST8 SLP024=

CYQF;2006-06-15 16:00;METAR CYQF 151600Z 01012KT 3SM -RA BR BKN005 OVC020 14/14 A2959 RMK SF6SC2 SLP022=

CYQF;2006-06-15 17:00;METAR CYQF 151700Z 01014G22KT 3SM -RA BR OVC005 14/14 A2958 RMK SF8 SLP021=

CYQF;2006-06-15 18:00;METAR CYQF 151800Z 02014G23KT 6SM -RA BR OVC005 14/14 A2959 RMK SF8 SLP024=

CYQF;2006-06-15 19:00;METAR CYQF 151900Z 01013KT 3SM -RA BR OVC005 14/14 A2959 RMK SF8 SLP025=

CYQF;2006-06-15 20:00;METAR CYQF 152000Z 01010KT 3SM -RA BR OVC005 15/14 A2960 RMK SF8 SLP026=

CYQF;2006-06-15 21:00;METAR CYQF 152100Z 36010KT 10SM -SHRA OVC007 15/15 A2960 RMK SC8 SLP028=

CYQF;2006-06-15 22:00;METAR CYQF 152200Z 35012KT 15SM BKN011 17/15 A2960 RMK SC7 SLP027=

CYQF;2006-06-15 22:25;SPECI CYQF 152225Z 34014G25KT 10SM -SHRA OVC010 RMK SC8 TCU ASCTD=

CYQF;2006-06-15 23:00;METAR CYQF 152300Z 35010KT 8SM -SHRA SCT005 OVC011 15/15 A2962 RMK SF3SC5 SLP032=

CYQF;2006-06-16 00:00;METAR CYQF 160000Z 34012KT 10SM -SHRA BKN006 OVC015 15/15 A2962 RMK SF6SC2 TCU ASCTD SLP035=

CYQF;2006-06-16 00:30;SPECI CYQF 160030Z 34009KT 12SM BKN008 OVC015 RMK SF6SC2 TCU ASOCTD=

CYQF;2006-06-16 01:00;METAR CYQF 160100Z 32009KT 15SM SCT008 BKN015 BKN070 15/14 A2963 RMK SF4SC2AC1 TCU ASOCTD SLP038=

CYQF;2006-06-16 01:21;SPECI CYQF 160121Z 35012KT 12SM -SHRA BKN008 BKN015 BKN070 RMK SF5SC2AC1 TCU ASOCTD VIS N 5=

CYQF;2006-06-16 02:08;SPECI CYQF 160208Z 31006KT 10SM -SHRA SCT006 BKN015TCU OVC070 RERA RMK SF4TCU3AC1=

CYQF;2006-06-16 03:00;METAR CYQF 160300Z 31008KT 10SM OVC009 14/14 A2964 RERA RMK SF8 TCU EMBD SLP044=

CYQF;2006-06-16 04:00;METAR CYQF 160400Z 34012KT 10SM BKN010 OVC070 15/14 A2966 RMK SF6AC2 BR SLP048=

CYQF;2006-06-16 04:51;SPECI CYQF 160451Z 32012KT 10SM -SHRA BKN010 OVC020 RMK SF6SC2=

CYQF;2006-06-16 05:00;METAR CYQF 160500Z 31010KT 10SM -SHRA BKN010 OVC020 15/14 A2966 RMK SF6SC2 SLP050=

CYQF;2006-06-16 06:00;METAR CYQF 160600Z 31012KT 10SM BKN009 OVC020 14/13 A2966 RMK SF6SC2 CIG RAG SLP052=

CYQF;2006-06-16 07:00;METAR CYQF 160700Z 31012KT 10SM BKN009 OVC020 13/13 A2966 RMK SF6SC2 CIG RAG SLP052=

CYQF;2006-06-16 08:00;METAR CYQF 160800Z 31012KT 10SM OVC009 13/11 A2966 RMK SF8 CIG RAG SLP051=

CYQF;2006-06-16 09:00;METAR CYQF 160900Z 31012KT 10SM BKN009 OVC050 13/12 A2967 RMK SF6SC2 SLP053=

CYQF;2006-06-16 10:00;METAR CYQF 161000Z 30012KT 10SM BKN009 OVC050 13/12 A2967 RMK SF6SC2 SLP055=

CYQF;2006-06-16 11:00;METAR CYQF 161100Z 31006KT 10SM BKN010 OVC050 13/13 A2968 RMK SC6SC2 SLP058=

CYQF;2006-06-16 11:24;SPECI CYQF 161124Z 32008KT 5SM -SHRA BKN009 OVC050 RMK SC7SC1=

CYQF;2006-06-16 12:00;METAR CYQF 161200Z 33002KT 3SM +SHRA BR OVC005 13/13 A2970 RMK SF8 CIR RAG SLP065=

CYQF;2006-06-16 13:00;METAR CYQF 161300Z 31002KT 3SM +SHRA BR OVC004 13/13 A2971 RMK SF8 CIG RAG SLP066=

CYQF;2006-06-16 13:34;SPECI CYQF 161334Z 31005KT 2 1/2SM -RA BR BKN003 OVC010 RMK SF6SC2=

CYQF;2006-06-16 14:00;METAR CYQF 161400Z 30007KT 2 1/2SM -RA BR BKN003 OVC008 13/13 A2971 RMK SF6SC2 SLP067=

CYQF;2006-06-16 15:00;METAR CYQF 161500Z 31010KT 2 1/2SM -RA BR BKN004 OVC008 13/12 A2972 RMK SF6SC2 SLP071=

CYQF;2006-06-16 16:00;METAR CYQF 161600Z 30005KT 6SM -RA BR BKN005 OVC010 13/13 A2972 RMK SF6SC2 SLP073=

CYQF;2006-06-16 16:40;SPECI CYQF 161640Z 30004KT 10SM BKN009 OVC015 RMK SF6SC2=

CYQF;2006-06-16 17:00;METAR CYQF 161700Z 28004KT 15SM BKN010 OVC020 14/13 A2972 RMK SC6SC2 SLP073=

CYQF;2006-06-16 17:48;SPECI CYQF 161748Z 31008KT 15SM SCT015 BKN040 OVC080 RMK SC4SC2AC2=

CYQF;2006-06-16 18:00;METAR CYQF 161800Z 28006KT 15SM SCT015 BKN040 OVC080 15/13 A2972 RMK SC4SC2AC2 SLP071=

CYQF;2006-06-16 19:00;METAR CYQF 161900Z 30010KT 15SM FEW015 BKN040 OVC080 16/12 A2971 RMK SF2SC3AC2 SLP068=

CYQF;2006-06-16 20:00;METAR CYQF 162000Z 32012KT 15SM FEW015 FEW040 BKN080 BKN250 17/11 A2971 RMK SF1SC2AC3CI2 SLP066=

CYQF;2006-06-16 21:00;METAR CYQF 162100Z 30008KT 15SM FEW015 FEW030 OVC080 18/10 A2971 RMK SF1SC2AC5 SLP063=

CYQF;2006-06-16 22:00;METAR CYQF 162200Z 30005KT 15SM FEW015 FEW030 BKN080 17/11 A2971 RMK SF1SC2AC5 TCU ASOCTD WSW SLP063=

CYQF;2006-06-16 23:00;METAR CYQF 162300Z 30003KT 15SM FEW020 BKN080 17/10 A2970 RMK SF2AC5 CB ASOCTD S+W SLP060=

CYQF;2006-06-17 00:00;METAR CYQF 170000Z 31004KT 15SM FEW020 BKN080 BKN250 17/10 A2968 RMK CF2AC3CI1 CB ASOCTD W SLP057=

CYQF;2006-06-17 01:00;METAR CYQF 170100Z 03008KT 15SM FEW040TCU BKN100 BKN250 17/13 A2968 RMK TCU2AC2CI1 SHS S AND W SLP056=

CYQF;2006-06-17 02:00;METAR CYQF 170200Z 02007KT 15SM SCT040TCU BKN100 BKN250 17/11 A2968 RMK TCU3AC2CI1 SLP056=

CYQF;2006-06-17 03:00;METAR CYQF 170300Z 00000KT 15SM FEW020 BKN060 BKN100 OVC250 15/13 A2970 RMK SC2SC4AC1CI1 SLP066=

CYQF;2006-06-17 04:00;METAR CYQF 170400Z 24007KT 15SM FEW020 BKN050 BKN100 OVC250 14/12 A2973 RMK CF1SC5AC2CI0 SLP074=

CYQF;2006-06-17 04:10;SPECI CYQF 170410Z 22003KT 15SM -SHRA FEW020 BKN050 OVC250 RMK CF1SC6CI1=

CYQF;2006-06-17 06:00;METAR CYQF 170600Z 31004KT 12SM -SHRA OVC080 13/11 A2976 RMK AC8 OBS TAKEN +13 SLP083=

CYQF;2006-06-17 06:48;SPECI CYQF 170648Z 31008KT 15SM OVC080 RMK AC8=

CYQF;2006-06-17 07:00;METAR CYQF 170700Z 30007KT 15SM OVC080 13/11 A2977 RMK AC8 SLP087=

CYQF;2006-06-17 08:00;METAR CYQF 170800Z 00000KT 15SM OVC080 12/10 A2976 RMK AC8 SLP085=

CYQF;2006-06-17 09:00;METAR CYQF 170900Z 27005KT 15SM BKN080 11/10 A2976 RMK AC6 SLP086=

CYQF;2006-06-17 10:00;METAR CYQF 171000Z 28008KT 15SM BKN080 11/10 A2977 RMK AC6 SLP087=

CYQF;2006-06-17 11:00;METAR CYQF 171100Z 26005KT 15SM BKN080 11/10 A2978 RMK AC6 SLP091=

CYQF;2006-06-17 12:00;METAR CYQF 171200Z 26006KT 15SM FEW050 SCT080 BKN250 10/10 A2979 RMK SC2AC2CI1 SLP097=

CYQF;2006-06-17 13:00;METAR CYQF 171300Z 28005KT 15SM FEW050 SCT080 BKN250 10/09 A2981 RMK SC1AC2CI1 SLP102=

CYQF;2006-06-17 14:00;METAR CYQF 171400Z 28005KT 15SM FEW050 FEW080 BKN250 12/10 A2982 RMK SC1AC2CI2 SLP105=

CYQF;2006-06-17 15:00;METAR CYQF 171500Z 34008KT 15SM FEW050 FEW080 BKN250 15/09 A2983 RMK SC1AC2CI1 SLP108=

CYQF;2006-06-17 16:00;METAR CYQF 171600Z 32018KT 15SM FEW030 FEW090 BKN250 15/07 A2985 RMK CU1AC1CI2 TR CU SLP113=

CYQF;2006-06-17 17:00;METAR CYQF 171700Z 32007KT 15SM FEW035 FEW090 BKN250 17/08 A2985 RMK CU1AC1CI2 TR CU S-W SLP113=

CYQF;2006-06-17 18:00;METAR CYQF 171800Z 33015G22KT 15SM FEW040 FEW090 BKN250 18/06 A2984 RMK CU1AC1CI2 TCU DIST W SLP109=

CYQF;2006-06-17 19:00;METAR CYQF 171900Z 34016G23KT 15SM FEW045 FEW090 BKN250 18/07 A2985 RMK CU1AC2CI2 TCU ASOCTD SLP111=

CYQF;2006-06-17 20:00;METAR CYQF 172000Z 33015G22KT 15SM FEW055 FEW120 BKN250 19/06 A2984 RMK CU1AC2CI2 SLP109=

CYQF;2006-06-17 21:00;METAR CYQF 172100Z 35012KT 15SM FEW055TCU FEW120 BKN250 19/07 A2984 RMK TCU1AC2CI2 SLP111=

CYQF;2006-06-17 22:00;METAR CYQF 172200Z 36008KT 15SM SCT050 BKN120 BKN250 19/05 A2986 RMK SC3AC2CI1 TCU ASOCTD VIRGA SW-W SLP116=

CYQF;2006-06-17 23:00;METAR CYQF 172300Z 30006KT 15SM FEW050 SCT130 BKN250 19/06 A2986 RMK SC2AC2CI2 TCU ASOCTD SHRA S SLP118=

CYQF;2006-06-18 00:00;METAR CYQF 180000Z 29006KT 15SM FEW050TCU SCT120 BKN250 19/07 A2987 RMK TCU2AC2CI2 SLP122=

CYQF;2006-06-18 01:00;METAR CYQF 180100Z 00000KT 15SM FEW050 SCT120 BKN250 18/08 A2988 RMK SC2AC2CI3 SLP125=

CYQF;2006-06-18 02:00;METAR CYQF 180200Z 00000KT 15SM FEW050 SCT120 BKN250 18/08 A2989 RMK SC2AC2CI3 SLP129=

CYQF;2006-06-18 03:00;METAR CYQF 180300Z 00000KT 15SM SCT050 BKN250 17/12 A2991 RMK SC3CI3 SLP132=

CYQF;2006-06-18 04:00;METAR CYQF 180400Z 31004KT 15SM SCT050 BKN250 16/10 A2992 RMK SC3CI2 SLP137=

CYQF;2006-06-18 05:00;METAR CYQF 180500Z 36003KT 15SM FEW050 SCT090 BKN250 16/08 A2994 RMK SC2AC2CI2 SLP143=

CYQF;2006-06-18 06:00;METAR CYQF 180600Z 35004KT 15SM SCT090 BKN250 14/07 A2995 RMK AC3CI2 SLP149=

CYQF;2006-06-18 07:00;METAR CYQF 180700Z 30003KT 15SM FEW090 BKN250 13/08 A2997 RMK AC2CI2 SLP154=

CYQF;2006-06-18 08:00;METAR CYQF 180800Z 27005KT 15SM SCT090 11/08 A2998 RMK AC3 SLP157=

CYQF;2006-06-18 09:00;METAR CYQF 180900Z 27005KT 15SM SCT090 BKN250 09/06 A2999 RMK AC3CI1 SLP165=

CYQF;2006-06-18 10:00;METAR CYQF 181000Z 26005KT 15SM FEW090 SCT250 08/06 A3000 RMK AC2CI1 SLP168=

CYQF;2006-06-18 11:00;METAR CYQF 181100Z 28008KT 15SM FEW090 09/06 A3002 RMK AC2 SLP172=

CYQF;2006-06-18 12:00;METAR CYQF 181200Z 29005KT 15SM FEW090 09/05 A3002 RMK AC1 SLP175=

CYQF;2006-06-18 13:00;METAR CYQF 181300Z 27002KT 15SM FEW090 FEW250 10/06 A3003 RMK AC1CI0 SLP178=

CYQF;2006-06-18 14:00;METAR CYQF 181400Z 30006KT 15SM FEW250 13/06 A3003 RMK CI1 SLP179=

CYQF;2006-06-18 15:00;METAR CYQF 181500Z 31010G15KT 15SM FEW100 FEW250 15/05 A3004 RMK AC1CI1 SLP177=

CYQF;2006-06-18 16:00;METAR CYQF 181600Z 32010KT 15SM FEW100 FEW250 16/05 A3004 RMK AC1CI0 SLP176=

CYQF;2006-06-18 17:00;METAR CYQF 181700Z 34009KT 15SM FEW050 FEW120 FEW250 17/05 A3003 RMK CU1AC1CI0 SLP175=

CYQF;2006-06-18 18:00;METAR CYQF 181800Z 33010G15KT 15SM FEW050 FEW120 FEW250 18/06 A3003 RMK CU1AC1CI0 SLP176=

CYQF;2006-06-18 19:00;METAR CYQF 181900Z 30006KT 15SM FEW050 FEW120 18/05 A3003 RMK CU2AC1 SLP174=

CYQF;2006-06-18 20:00;METAR CYQF 182000Z 32003KT 15SM SCT050 18/05 A3003 RMK CU3 SLP174=

CYQF;2006-06-18 21:00;METAR CYQF 182100Z 33004KT 15SM SCT055 19/05 A3002 RMK CU3 SLP175=

CYQF;2006-06-18 22:00;METAR CYQF 182200Z 00000KT 15SM FEW060 20/05 A3001 RMK CU2 SLP173=

CYQF;2006-06-18 23:00;METAR CYQF 182300Z 20002KT 15SM FEW060 21/08 A3001 RMK CU2 SLP171=

CYQF;2006-06-19 00:00;METAR CYQF 190000Z 00000KT 15SM SCT060 21/06 A3000 RMK CU3 SLP166=

CYQF;2006-06-19 01:00;METAR CYQF 190100Z 00000KT 15SM FEW060 20/07 A2999 RMK CU2 CB TP S OBS TKN H+26 SLP163=

CYQF;2006-06-19 02:00;METAR CYQF 190200Z 00000KT 15SM FEW060 SCT250 19/08 A2999 RMK CU2CI1 TCU TPS SW - NW SLP162=

CYQF;2006-06-19 03:00;METAR CYQF 190300Z 16007KT 15SM SCT050TCU BKN250 18/10 A2999 RMK TCU3CI1 CB LTGCG W SLP160=

CYQF;2006-06-19 04:00;METAR CYQF 190400Z 28012KT 15SM BKN050CB 16/08 A3002 RMK CB6 LTGIC/CG NW HVY SHS NW MVG ENE SLP169=

CYQF;2006-06-19 05:00;METAR CYQF 190500Z 33013KT 15SM BKN050 13/08 A3003 RMK SC6 TCU ASCTD CB NNW SHS NW - NE SLP171=

CYQF;2006-06-19 06:00;METAR CYQF 190600Z 34010KT 15SM BKN050 12/09 A3001 RMK SC5 TCU N SLP171=

CYQF;2006-06-19 07:00;METAR CYQF 190700Z 00000KT 15SM SCT060 11/08 A3001 RMK SC4 SLP169=

CYQF;2006-06-19 08:00;METAR CYQF 190800Z 00000KT 15SM FEW060 08/07 A3001 RMK SC2 SLP170=

CYQF;2006-06-19 09:00;METAR CYQF 190900Z 24003KT 15SM FEW070 08/07 A3001 RMK AC2 SLP172=

CYQF;2006-06-19 10:00;METAR CYQF 191000Z 17003KT 15SM FEW070 07/07 A3000 RMK AC2 SLP171=

CYQF;2006-06-19 11:00;METAR CYQF 191100Z 00000KT 15SM FEW040 FEW080 06/06 A3000 RMK CF1AC1 SLP171=

CYQF;2006-06-19 12:00;METAR CYQF 191200Z 00000KT 15SM FEW070 08/07 A3001 RMK AC1 SLP171=

CYQF;2006-06-19 13:00;METAR CYQF 191300Z 00000KT 15SM FEW070 08/07 A3001 RMK AC1 SLP172=

CYQF;2006-06-19 14:00;METAR CYQF 191400Z 00000KT 15SM FEW070 FEW250 12/10 A3001 RMK AC1CI1 SLP172=

CYQF;2006-06-19 15:00;METAR CYQF 191500Z 36002KT 15SM FEW070 FEW250 14/09 A3001 RMK AC2CI1 SLP169=

CYQF;2006-06-19 16:00;METAR CYQF 191600Z 03002KT 15SM FEW030 FEW120 SCT270 16/09 A3000 RMK CU1AC1CI1 SLP165=

CYQF;2006-06-19 17:00;METAR CYQF 191700Z 01005KT 15SM FEW030 SCT270 17/09 A2999 RMK CU2CI1 TCU TPS NW SLP161=

CYQF;2006-06-19 18:00;METAR CYQF 191800Z 36006KT 15SM SCT030 BKN270 18/11 A2998 RMK CU3CI1 FEW MDT CU SLP159=

CYQF;2006-06-19 19:00;METAR CYQF 191900Z 07005KT 15SM SCT036 BKN270 19/10 A2997 RMK CU4CI1 TCU ASCTD SLP157=

CYQF;2006-06-19 20:00;METAR CYQF 192000Z 09006KT 15SM SCT040 BKN270 20/09 A2995 RMK CU4CI2 TCU ASCTD SLP148=

CYQF;2006-06-19 21:00;METAR CYQF 192100Z 10004KT 15SM SCT040 BKN270 21/09 A2993 RMK CU4CI2 TCU ASCTD SLP144=

CYQF;2006-06-19 22:00;METAR CYQF 192200Z 15003KT 15SM SCT040 BKN270 20/08 A2992 RMK CU4CI2 FEW TCU SLP140=

CYQF;2006-06-19 23:00;METAR CYQF 192300Z 00000KT 15SM BKN050TCU BKN270 20/09 A2991 RMK TCU5CI2 CB EMBD SW+W LTGCG W SHS SW-W SLP136=

CYQF;2006-06-19 23:44;SPECI CYQF 192344Z 30015G25KT 15SM TS BKN050TCU BKN270 RMK TCU6CI1 CB EMBD/LTGCCCG SW SHS SW+NW=

CYQF;2006-06-20 00:00;METAR CYQF 200000Z 33012G20KT 15SM TS BKN050TCU OVC270 14/08 A2993 RMK TCU7CI1 CB EMBD/LGTCG SW+NE SHS SW+NW-NE SLP149=

CYQF;2006-06-20 00:26;SPECI CYQF 200026Z 32009G15KT 12SM -TSRA BKN050CB OVC100 RMK CB6AC2 HVYR SHS SW+NE=

CYQF;2006-06-20 01:00;METAR CYQF 200100Z 30010G15KT 12SM -TSRA BKN050CB BKN100 OVC250 12/10 A2993 RMK CB6AC2CI1 HVYR SHS SW+NE SLP149=

CYQF;2006-06-20 01:17;SPECI CYQF 200117Z 01009KT 15SM -SHRA FEW035 BKN050TCU OVC100 RMK SC2TCU5AC1 CB/SHS NNE=

CYQF;2006-06-20 02:00;METAR CYQF 200200Z 35010G15KT 15SM -SHRA FEW030 BKN050TCU OVC100 12/09 A2991 RMK SC2TCU5AC1 RETS CB HVY SHS N SLP143=

CYQF;2006-06-20 02:33;SPECI CYQF 200233Z 35005KT 15SM FEW030 BKN050TCU OVC100 RMK SC2TCU4AC2=

CYQF;2006-06-20 03:00;METAR CYQF 200300Z 19005KT 15SM FEW010 FEW025 SCT050TCU OVC100 13/08 A2990 RMK SF1SC2TCU2AC3 SLP136=

CYQF;2006-06-20 04:00;METAR CYQF 200400Z 27004KT 15SM FEW025 BKN050 OVC100 12/10 A2992 RMK SC2SC4AC2 TCU EMBD SLP142=

CYQF;2006-06-20 05:00;METAR CYQF 200500Z 21004KT 15SM FEW025 BKN050 OVC100 12/10 A2992 RMK SC2SC5AC2 TCU/SHS E SLP142=

CYQF;2006-06-20 06:00;METAR CYQF 200600Z 13005KT 15SM OVC050 11/10 A2992 RMK SC8 SLP138=

CYQF;2006-06-20 06:10;SPECI CYQF 200610Z 13005KT 10SM -TSRA OVC040CB RMK CB8 LGTIC=

CYQF;2006-06-20 07:00;METAR CYQF 200700Z 18002KT 4SM -TSRA BR SCT007 OVC040CB 11/10 A2992 RMK SF4CB4 LGTIC SLP138=

CYQF;2006-06-20 07:12;SPECI CYQF 200712Z 18005KT 3SM -TSRA BR BKN006 OVC040CB RMK SF6CB2 LTGIC=

CYQF;2006-06-20 07:22;SPECI CYQF 200722Z 17003KT 2SM TSRA BR BKN006 OVC030CB RMK SF6CB2 LTGICCG=

CYQF;2006-06-20 08:00;METAR CYQF 200800Z 00000KT 2SM -TSRA BR BKN007 OVC025CB 10/10 A2990 RMK SF5CB3 SLP133=

CYQF;2006-06-20 08:13;SPECI CYQF 200813Z 00000KT 4SM -SHRA BR BKN006 OVC025 RMK SF5SC3 CB EMBDD=

CYQF;2006-06-20 08:40;SPECI CYQF 200840Z 24008KT 10SM -TSRA FEW006 OVC050CB RMK SF2CB6 LTGIC=

CYQF;2006-06-20 09:00;METAR CYQF 200900Z 00000KT 10SM -TSRA FEW006 OVC050CB 10/10 A2990 RMK SF2CB6 LTGIC SLP129=

CYQF;2006-06-20 09:37;SPECI CYQF 200937Z 25010KT 10SM -SHRA FEW006 OVC050 RMK SF2SC6=

CYQF;2006-06-20 10:00;METAR CYQF 201000Z 26004KT 8SM -SHRA SCT006 OVC040 10/10 A2989 RETS RMK SF3SC5 SLP126=

CYQF;2006-06-20 10:13;SPECI CYQF 201013Z 25005KT 10SM -TSRA FEW006 OVC040CB RMK SF2CB6 LTGIC=

CYQF;2006-06-20 10:44;SPECI CYQF 201044Z 00000KT 6SM -SHRA BR FEW006 OVC025 RMK SF2SC6=

CYQF;2006-06-20 11:00;METAR CYQF 201100Z 28007KT 6SM -SHRA BR SCT006 BKN020 OVC050 10/10 A2990 RETS RMK SF2SC4SC2 SLP129=

CYQF;2006-06-20 11:28;SPECI CYQF 201128Z 00000KT 10SM FEW006 SCT020 BKN050 OVC080 RMK SF1SC2SC3AC2=

CYQF;2006-06-20 12:00;METAR CYQF 201200Z 36005KT 15SM FEW020 BKN050 OVC090 11/10 A2990 RMK SC2SC3AC3 /R20/ SLP137=

CYQF;2006-06-20 13:00;METAR CYQF 201300Z 33013KT 15SM FEW020 BKN040 BKN090 11/09 A2991 RMK SC1SC3AC2 SLP139=

CYQF;2006-06-20 14:00;METAR CYQF 201400Z 32010G15KT 15SM BKN060 BKN100 BKN250 11/09 A2991 RMK SC5AC2CI0 SLP141=

CYQF;2006-06-20 15:00;METAR CYQF 201500Z 31010KT 15SM FEW060 BKN090 BKN250 12/09 A2992 RMK SC2AC3CI1 SLP143=

CYQF;2006-06-20 16:00;METAR CYQF 201600Z 33008KT 15SM FEW060 FEW090 BKN250 14/09 A2993 RMK SC1AC2CI2 SLP145=

CYQF;2006-06-20 17:00;METAR CYQF 201700Z 34014KT 15SM FEW060 FEW090 BKN250 16/09 A2993 RMK SC1AC1CI2 SLP146=

CYQF;2006-06-20 21:00;METAR CYQF 202100Z 32012KT 15SM FEW040 SCT090 BKN250 18/08 A2994 RMK CU2AC1CI2 TCU ASOCTD SLP148=

CYQF;2006-06-20 22:00;METAR CYQF 202200Z 32010KT 15SM FEW045TCU SCT090 BKN250 20/08 A2994 RMK TCU2AC1CI1 SLP146=

CYQF;2006-06-20 23:00;METAR CYQF 202300Z 31014KT 15SM FEW050TCU FEW100 BKN250 20/08 A2993 RMK TCU2AC1CI1 SLP145=

CYQF;2006-06-21 00:00;METAR CYQF 210000Z 01007KT 15SM FEW050TCU FEW100 BKN250 20/08 A2993 RMK TCU2AC1CI1 CB SE SLP142=

CYQF;2006-06-21 01:00;METAR CYQF 210100Z 34010KT 15SM FEW050TCU SCT100 BKN250 20/08 A2994 RMK TCU2AC1CI1 VIRGA E QUAD SLP143=

CYQF;2006-06-21 02:00;METAR CYQF 210200Z 34010KT 15SM FEW050TCU SCT100 BKN250 18/08 A2996 RMK TCU2AC2CI1 SLP150=

CYQF;2006-06-21 03:00;METAR CYQF 210300Z 01010KT 15SM FEW050TCU SCT100 BKN250 18/09 A2998 RMK TCU2AC2CI1 CB TPS DIST SW+E SLP158=

CYQF;2006-06-21 04:00;METAR CYQF 210400Z 01005KT 15SM FEW050 SCT100 BKN250 15/10 A3000 RMK CU2AC2CI1 SLP165=

CYQF;2006-06-21 05:00;METAR CYQF 210500Z 31002KT 15SM FEW050 SCT100 BKN250 13/09 A3002 RMK CU2AC2CI1 CB EMBD DIST S+W OCNL LTNG SLP172=

CYQF;2006-06-21 06:00;METAR CYQF 210600Z 30003KT 15SM FEW050 SCT100 11/07 A3004 RMK CU1AC2=

CYQF;2006-06-21 07:00;METAR CYQF 210700Z 31007KT 15SM BKN060 12/08 A3006 RMK SC3 SLP188=

CYQF;2006-06-21 08:00;METAR CYQF 210800Z 29006KT 15SM SCT070 11/08 A3007 RMK AC2 SLP193=

CYQF;2006-06-21 09:00;METAR CYQF 210900Z 27008KT 15SM BKN070 11/08 A3009 RMK AC2 SLP200=

CYQF;2006-06-21 10:00;METAR CYQF 211000Z 27008KT 15SM FEW040 SCT080 11/08 A3010 RMK CU1AC2 SLP201=

CYQF;2006-06-21 11:00;METAR CYQF 211100Z 26005KT 15SM FEW030 SCT080 BKN250 10/08 A3009 RMK SC1AC2CI0 SLP199=

CYQF;2006-06-21 12:00;METAR CYQF 211200Z 29010KT 15SM FEW080 SCT250 10/07 A3010 RMK AC2CI0 SLP202=

CYQF;2006-06-21 13:00;METAR CYQF 211300Z 30005KT 15SM FEW080 SCT250 12/09 A3011 RMK AC2CI0 SLP205=

CYQF;2006-06-21 14:00;METAR CYQF 211400Z 28006KT 15SM FEW080 FEW250 13/09 A3012 RMK AC1CI0 SLP207=

CYQF;2006-06-21 15:00;METAR CYQF 211500Z 30007KT 15SM FEW080 FEW250 15/09 A3013 RMK AC1CI0 SLP208=

CYQF;2006-06-21 16:00;METAR CYQF 211600Z 22008KT 15SM FEW030 FEW080 FEW250 16/08 A3013 RMK CU1AC1CI0 TR AC TCU SW SLP209=

CYQF;2006-06-21 17:00;METAR CYQF 211700Z 33005KT 15SM FEW040 FEW090 17/07 A3014 RMK CU1AC1 TR AC TCU ASOCTD SLP210=

CYQF;2006-06-21 19:00;METAR CYQF 211900Z 34005KT 15SM FEW045 18/07 A3013 RMK CU2 CB DIST S SLP212=

CYQF;2006-06-21 20:00;METAR CYQF 212000Z 34005KT 15SM FEW045 18/08 A3013 RMK CU2 FEW TCU CB=

CYQF;2006-06-21 21:00;METAR CYQF 212100Z 36002KT 15SM FEW045 19/08 A3013 RMK CU2 FEW TCU SHRA DIS S+SW SLP210=

CYQF;2006-06-21 22:00;METAR CYQF 212200Z 28004KT 15SM SCT050 BKN080 18/06 A3013 RMK CU4AC2 TCU ASOCTD SHRA SE+SW SLP210=

CYQF;2006-06-21 23:00;METAR CYQF 212300Z 24006KT 15SM SCT050 BKN080 18/09 A3013 RMK CU3AC2 TCU ASOCTD SLP210=

CYQF;2006-06-22 00:00;METAR CYQF 220000Z 12002KT 15SM FEW050 SCT080 19/08 A3011 RMK CU2AC2 TCU ASOCTD SLP206=

CYQF;2006-06-22 01:00;METAR CYQF 220100Z 18002KT 15SM FEW050 SCT080 BKN270 19/08 A3012 RMK CU2AC2CI1 FEW TCU SLP208=

CYQF;2006-06-22 02:00;METAR CYQF 220200Z 00000KT 15SM FEW040 SCT080 SCT270 19/08 A3012 RMK CU2AC2CI1 SLP208=

CYQF;2006-06-22 03:00;METAR CYQF 220300Z 17002KT 15SM FEW040 SCT080 BKN270 16/11 A3014 RMK CU2AC2CI0 SLP212=

CYQF;2006-06-22 04:00;METAR CYQF 220400Z 18002KT 15SM FEW040 SCT080 BKN270 15/11 A3015 RMK CU2AC2CI1 SLP216=

CYQF;2006-06-22 05:00;METAR CYQF 220500Z 20004KT 15SM FEW040 BKN080 BKN270 13/11 A3015 RMK SC1AC5CI0 SLP218=

CYQF;2006-06-22 06:00;METAR CYQF 220600Z 19004KT 15SM BKN080 13/11 A3016 RMK AC6 OBS TAKEN +12 SLP223=

CYQF;2006-06-22 07:00;METAR CYQF 220700Z 26006KT 15SM BKN090 12/11 A3018 RMK AC7 SLP228=

CYQF;2006-06-22 08:00;METAR CYQF 220800Z 27005KT 15SM OVC080 12/09 A3017 RMK AC8 SLP226=

CYQF;2006-06-22 09:00;METAR CYQF 220900Z 18004KT 15SM OVC100 12/09 A3017 RMK AC8 SLP224=

CYQF;2006-06-22 10:00;METAR CYQF 221000Z 36004KT 15SM FEW050 BKN100 12/09 A3017 RMK SC2AC6 SLP223=

CYQF;2006-06-22 11:00;METAR CYQF 221100Z 31004KT 15SM SCT050 BKN100 BKN250 11/08 A3019 RMK SC2AC2CI1 SLP229=

CYQF;2006-06-22 12:00;METAR CYQF 221200Z 16008KT 15SM SCT040 BKN100 BKN250 11/07 A3021 RMK CU2AC2CI0 SLP238=

CYQF;2006-06-22 13:00;METAR CYQF 221300Z 27004KT 15SM FEW040TCU SCT100 SCT250 11/07 A3021 RMK TCU2AC2CI0 SLP238=

CYQF;2006-06-22 14:00;METAR CYQF 221400Z 27007KT 15SM FEW040TCU FEW100 SCT260 12/08 A3021 RMK TCU2AC1CI0 SLP239=

CYQF;2006-06-22 15:00;METAR CYQF 221500Z 29008KT 15SM SCT040TCU BKN090 BKN260 14/08 A3022 RMK TCU3AC2CI0 CB ASOCTD SHRA DIST W SLP242=

CYQF;2006-06-22 20:00;METAR CYQF 222000Z 33002KT 15SM FEW050 FEW100 BKN260 18/09 A3020 RMK CU2AC1CS3 FEW TCU SLP237=

CYQF;2006-06-22 21:00;METAR CYQF 222100Z 16006KT 15SM FEW050 SCT110 OVC260 19/09 A3018 RMK CU2AC2CS2 CB DIST W+NW SLP227=

CYQF;2006-06-22 22:00;METAR CYQF 222200Z 26010KT 15SM SCT040TCU BKN110 OVC260 17/09 A3018 RMK TCU4AC1CS2 SHRA S-W-NW CB DIST W SLP227=

CYQF;2006-06-22 23:00;METAR CYQF 222300Z 27008KT 15SM BKN040TCU BKN110 BKN260 15/08 A3018 RMK TCU6AC1CI1 SHRA ALQDS CB S SLP227=

CYQF;2006-06-23 00:00;METAR CYQF 230000Z 32010G16KT 15SM SCT040TCU SCT100 BKN260 16/08 A3019 RMK TCU3AC1CI1 CB+SHRA DIST S SLP235=

CYQF;2006-06-23 01:00;METAR CYQF 230100Z 33011KT 15SM FEW040 SCT100 BKN260 15/08 A3017 RMK CU2AC2CI1 CB TPS DIST SE+NE SLP229=

CYQF;2006-06-23 02:00;METAR CYQF 230200Z 36004KT 15SM FEW040 SCT090 BKN250 16/08 A3017 RMK CU2AC2CI1 FEW TCU SLP229=

CYQF;2006-06-23 03:00;METAR CYQF 230300Z 18002KT 15SM FEW040 FEW090 SCT250 15/09 A3017 RMK CU1AC2CI1 CB TP DIST S SLP226=

CYQF;2006-06-23 04:00;METAR CYQF 230400Z 22003KT 15SM FEW090 SCT250 12/09 A3018 RMK AC2CI2 SLP229=

CYQF;2006-06-23 05:00;METAR CYQF 230500Z 00000KT 15SM FEW090 SCT250 11/09 A3019 RMK AC2CI2 SLP232=

CYQF;2006-06-23 06:00;METAR CYQF 230600Z 00000KT 15SM FEW090 08/07 A3019 RMK AC2 SLP238=

CYQF;2006-06-23 07:00;METAR CYQF 230700Z 21003KT 15SM FEW090 08/07 A3019 RMK AC2 SLP238=

CYQF;2006-06-23 08:00;METAR CYQF 230800Z 00000KT 15SM FEW090 08/07 A3019 RMK AC1 SLP240=

CYQF;2006-06-23 09:00;METAR CYQF 230900Z 00000KT 15SM FEW090 07/06 A3019 RMK AC1 SLP237=

CYQF;2006-06-23 10:00;METAR CYQF 231000Z 32005KT 15SM MIFG FEW090 FEW250 06/06 A3020 RMK AC1CI0 SLP240=

CYQF;2006-06-23 11:00;METAR CYQF 231100Z 19002KT 15SM MIFG FEW090 BKN250 05/05 A3021 RMK AC1CI2 SLP241=

CYQF;2006-06-23 12:00;METAR CYQF 231200Z 31005KT 15SM FEW100 BKN250 06/06 A3022 RMK AC1CI2 SLP249=

CYQF;2006-06-23 13:00;METAR CYQF 231300Z 33003KT 15SM FEW100 BKN250 09/08 A3023 RMK AC1CI2 SLP254=

CYQF;2006-06-23 14:00;METAR CYQF 231400Z 33004KT 15SM FEW100 BKN250 12/09 A3024 RMK AC1CI2 SLP257=

CYQF;2006-06-23 15:00;METAR CYQF 231500Z 31008KT 15SM FEW090 BKN250 13/09 A3026 RMK AC2CI2 SLP258=

CYQF;2006-06-23 16:00;METAR CYQF 231600Z 32009KT 15SM FEW050 SCT090 BKN250 15/09 A3027 RMK SC2AC2CI2 SLP260=

CYQF;2006-06-23 17:00;METAR CYQF 231700Z 32011KT 15SM FEW040 BKN080 BKN250 15/08 A3028 RMK SC1AC4CI2 SLP263=

CYQF;2006-06-23 18:00;METAR CYQF 231800Z 33004KT 15SM FEW040 BKN080 BKN250 16/08 A3028 RMK CU2AC3CI2 SLP270=

CYQF;2006-06-23 19:00;METAR CYQF 231900Z 34010KT 15SM FEW040 BKN080 BKN250 16/08 A3029 RMK CU2AC2CI2 VIRGA FEW TCU TPS W SLP272=

CYQF;2006-06-23 20:00;METAR CYQF 232000Z 36010KT 15SM FEW040 SCT090 BKN250 17/09 A3029 RMK CU2AC2CI0 VIRGA FEW TCU SLP272=

CYQF;2006-06-23 21:00;METAR CYQF 232100Z 31010KT 15SM FEW040 SCT090 18/08 A3029 RMK CU2AC1 FEW TCU SLP272=

CYQF;2006-06-23 22:00;METAR CYQF 232200Z 34012KT 15SM SCT040 BKN090 19/09 A3029 RMK CU4AC1 FEW MDT CU SLP270=

CYQF;2006-06-23 23:00;METAR CYQF 232300Z 32007KT 15SM SCT048 20/07 A3028 RMK CU4 SLP269=

CYQF;2006-06-24 00:00;METAR CYQF 240000Z 32009KT 15SM SCT050 SCT090 20/06 A3028 RMK CU3AC1 SLP269=

CYQF;2006-06-24 01:00;METAR CYQF 240100Z 01005KT 15SM FEW050 FEW090 20/07 A3028 RMK CU2AC1 SLP269=

CYQF;2006-06-24 02:00;METAR CYQF 240200Z 36004KT 15SM FEW050 19/07 A3029 RMK CU1 SLP270=

CYQF;2006-06-24 03:00;METAR CYQF 240300Z 36003KT 15SM FEW050 18/06 A3030 RMK SC1 SLP268=

CYQF;2006-06-24 04:00;METAR CYQF 240400Z 15002KT 15SM FEW050 16/09 A3032 RMK SC1 TR SC SLP273=

CYQF;2006-06-24 05:00;METAR CYQF 240500Z 18004KT 15SM SKC 13/08 A3034 RMK SLP279=

CYQF;2006-06-24 06:00;METAR CYQF 240600Z 19003KT 15SM SKC 10/08 A3035 RMK OBS TKN H+14 SLP291=

CYQF;2006-06-24 07:00;METAR CYQF 240700Z 00000KT 15SM SKC 09/08 A3036 RMK SLP293=

CYQF;2006-06-24 08:00;METAR CYQF 240800Z 00000KT 15SM SKC 09/07 A3037 RMK SLP296=

CYQF;2006-06-24 09:00;METAR CYQF 240900Z 00000KT 15SM SKC 08/07 A3037 RMK SLP297=

CYQF;2006-06-24 10:00;METAR CYQF 241000Z 00000KT 15SM SKC 08/07 A3037 RMK SLP299=

CYQF;2006-06-24 11:00;METAR CYQF 241100Z 00000KT 15SM SKC 07/07 A3038 RMK SLP301=

CYQF;2006-06-24 12:00;METAR CYQF 241200Z 00000KT 15SM FEW250 07/06 A3039 RMK CI1 SLP304=

CYQF;2006-06-24 13:00;METAR CYQF 241300Z 00000KT 15SM FEW250 09/08 A3040 RMK CI1 SLP307=

CYQF;2006-06-24 14:00;METAR CYQF 241400Z 20003KT 15SM FEW250 12/10 A3040 RMK CI1 SLP309=

CYQF;2006-06-24 15:00;METAR CYQF 241500Z 19003KT 15SM FEW250 15/11 A3040 RMK CI1 SLP301=

CYQF;2006-06-24 16:00;METAR CYQF 241600Z 17008KT 15SM FEW250 18/11 A3040 RMK CI1 SLP300=

CYQF;2006-06-24 17:00;METAR CYQF 241700Z 17011KT 15SM FEW250 20/09 A3040 RMK CI1 SLP300=

CYQF;2006-06-24 18:00;METAR CYQF 241800Z 17010KT 15SM FEW045 FEW250 21/09 A3040 RMK CU1CI0 SLP301=

CYQF;2006-06-24 19:00;METAR CYQF 241900Z 15012G20KT 15SM FEW050 SCT250 22/07 A3039 RMK CU1CI1 SLP299=

CYQF;2006-06-24 20:00;METAR CYQF 242000Z 18012G18KT 15SM FEW050 SCT250 22/07 A3038 RMK CU1CI1 SLP296=

CYQF;2006-06-24 21:00;METAR CYQF 242100Z 17011KT 15SM FEW050 SCT250 22/09 A3038 RMK CU1CI1 SLP296=

CYQF;2006-06-24 22:00;METAR CYQF 242200Z 17010KT 15SM FEW050 BKN250 23/10 A3037 RMK CU1CI1 SLP293=

CYQF;2006-06-24 23:00;METAR CYQF 242300Z 16012KT 15SM FEW050 BKN250 23/10 A3035 RMK CU1CI1 SLP289=

CYQF;2006-06-25 00:00;METAR CYQF 250000Z 16010KT 15SM BKN250 23/10 A3034 RMK CI2 SLP284=

CYQF;2006-06-25 01:00;METAR CYQF 250100Z 17010KT 15SM SCT250 22/11 A3033 RMK CI1 SLP282=

CYQF;2006-06-25 02:00;METAR CYQF 250200Z 17010KT 15SM SCT250 21/12 A3034 RMK CI1 SLP284=

CYQF;2006-06-25 03:00;METAR CYQF 250300Z 13006KT 15SM SCT250 20/13 A3034 RMK CI1 SLP280=

CYQF;2006-06-25 04:00;METAR CYQF 250400Z 13006KT 15SM SCT250 17/12 A3036 RMK CI1 SLP284=

CYQF;2006-06-25 05:00;METAR CYQF 250500Z 16005KT 15SM FEW250 16/11 A3036 RMK CI0 SLP286=

CYQF;2006-06-25 06:00;METAR CYQF 250600Z 17004KT 15SM FEW250 15/11 A3037 RMK CI1 SLP288=

CYQF;2006-06-25 07:00;METAR CYQF 250700Z 19005KT 15SM SKC 13/10 A3037 RMK SLP288=

CYQF;2006-06-25 08:00;METAR CYQF 250800Z 20005KT 15SM SKC 12/10 A3037 RMK SLP287=

CYQF;2006-06-25 09:00;METAR CYQF 250900Z 00000KT 15SM SKC 12/09 A3037 RMK SLP291=

CYQF;2006-06-25 10:00;METAR CYQF 251000Z 00000KT 15SM FEW120 FEW250 10/09 A3038 RMK AC1CI0 SLP293=

CYQF;2006-06-25 11:00;METAR CYQF 251100Z 00000KT 15SM FEW120 FEW250 10/08 A3039 RMK AC1CI0 SLP295=

CYQF;2006-06-25 12:00;METAR CYQF 251200Z 00000KT 15SM SKC 10/09 A3039 RMK SLP299=

CYQF;2006-06-25 13:00;METAR CYQF 251300Z 00000KT 15SM SKC 11/10 A3040 RMK SLP300=

CYQF;2006-06-25 14:00;METAR CYQF 251400Z 00000KT 15SM FEW270 14/12 A3041 RMK CI2 SLP304=

CYQF;2006-06-25 15:00;METAR CYQF 251500Z 00000KT 15SM FEW270 17/13 A3042 RMK CI1 SLP303=

CYQF;2006-06-25 16:00;METAR CYQF 251600Z 33002KT 15SM FEW270 19/15 A3042 RMK CI1 SLP304=

CYQF;2006-06-25 17:00;METAR CYQF 251700Z 34007KT 15SM FEW270 20/15 A3043 RMK CI1 SLP306=

CYQF;2006-06-25 18:00;METAR CYQF 251800Z 02007KT 15SM FEW270 22/14 A3043 RMK CI1 SLP306=

CYQF;2006-06-25 19:00;METAR CYQF 251900Z 02009KT 15SM FEW050 SCT270 23/11 A3042 RMK CU1CI1 SLP305=

CYQF;2006-06-25 20:00;METAR CYQF 252000Z 34008KT 15SM FEW050 FEW270 23/12 A3042 RMK CU1CI1 SLP304=

CYQF;2006-06-25 21:00;METAR CYQF 252100Z 02009KT 15SM FEW050 BKN270 24/11 A3041 RMK CU1CI1 SLP302=

CYQF;2006-06-25 22:00;METAR CYQF 252200Z 05007KT 15SM FEW050 BKN270 25/10 A3039 RMK CU1CI1 SLP297=

CYQF;2006-06-25 23:00;METAR CYQF 252300Z 00000KT 15SM FEW050 BKN270 25/11 A3038 RMK CU1CI1 SLP293=

CYQF;2006-06-26 00:00;METAR CYQF 260000Z 00000KT 15SM FEW050 BKN270 25/11 A3037 RMK CU1CI2 SLP289=

CYQF;2006-06-26 01:00;METAR CYQF 260100Z 35004KT 15SM FEW050 BKN270 25/11 A3036 RMK CU1CI1 SLP285=

CYQF;2006-06-26 02:00;METAR CYQF 260200Z 05003KT 15SM SCT270 24/10 A3035 RMK CI1 SLP284=

CYQF;2006-06-26 03:00;METAR CYQF 260300Z 09004KT 15SM SCT270 23/13 A3035 RMK CI2 SLP277=

CYQF;2006-06-26 04:00;METAR CYQF 260400Z 07006KT 15SM SCT270 20/13 A3035 RMK CI2 SLP278=

CYQF;2006-06-26 05:00;METAR CYQF 260500Z 00000KT 15SM FEW270 18/13 A3036 RMK CI1 SLP280=

CYQF;2006-06-26 06:00;METAR CYQF 260600Z 00000KT 15SM FEW270 15/11 A3036 RMK CI1 SLP284=

CYQF;2006-06-26 07:00;METAR CYQF 260700Z 00000KT 15SM SKC 15/11 A3036 RMK SLP282=

CYQF;2006-06-26 08:00;METAR CYQF 260800Z 00000KT 15SM SKC 14/11 A3035 RMK SLP280=

CYQF;2006-06-26 09:00;METAR CYQF 260900Z 00000KT 15SM SKC 12/10 A3034 RMK SLP276=

CYQF;2006-06-26 10:00;METAR CYQF 261000Z 00000KT 15SM SKC 12/10 A3033 RMK SLP274=

CYQF;2006-06-26 11:00;METAR CYQF 261100Z 00000KT 15SM SKC 13/10 A3033 RMK SLP273=

CYQF;2006-06-26 12:00;METAR CYQF 261200Z 00000KT 15SM SKC 11/10 A3033 RMK SLP274=

CYQF;2006-06-26 13:00;METAR CYQF 261300Z 00000KT 15SM SKC 15/11 A3032 RMK SLP271=

CYQF;2006-06-26 14:00;METAR CYQF 261400Z 16003KT 15SM SKC 18/14 A3031 RMK SLP268=

CYQF;2006-06-26 15:00;METAR CYQF 261500Z 16006KT 15SM SKC 20/14 A3031 RMK SLP258=

CYQF;2006-06-26 16:00;METAR CYQF 261600Z 18009KT 15SM SKC 22/15 A3029 RMK SLP254=

CYQF;2006-06-26 17:00;METAR CYQF 261700Z 18010KT 15SM SKC 23/15 A3028 RMK SLP249=

CYQF;2006-06-26 18:00;METAR CYQF 261800Z 16008KT 15SM FEW040 25/14 A3026 RMK CU1 SLP245=

CYQF;2006-06-26 19:00;METAR CYQF 261900Z 15010KT 15SM FEW040 26/15 A3025 RMK CU1 SLP241=

CYQF;2006-06-26 20:00;METAR CYQF 262000Z 15012KT 15SM FEW040 26/15 A3023 RMK CU1 SLP236=

CYQF;2006-06-26 21:00;METAR CYQF 262100Z 17012KT 15SM FEW040 27/15 A3021 RMK CU1 SLP229=

CYQF;2006-06-26 22:00;METAR CYQF 262200Z 15011KT 15SM FEW040 27/15 A3019 RMK CU1 SLP223=

CYQF;2006-06-26 23:00;METAR CYQF 262300Z 17012KT 15SM SKC 26/15 A3016 RMK SLP215=

CYQF;2006-06-27 00:00;METAR CYQF 270000Z 16014KT 15SM SKC 26/13 A3014 RMK SLP207=

CYQF;2006-06-27 01:00;METAR CYQF 270100Z 14014KT 15SM SKC 26/15 A3012 RMK SLP201=

CYQF;2006-06-27 02:00;METAR CYQF 270200Z 16008KT 15SM SKC 24/15 A3011 RMK SLP196=

CYQF;2006-06-27 03:00;METAR CYQF 270300Z 15007KT 15SM SKC 22/15 A3009 RMK SLP185=

CYQF;2006-06-27 04:00;METAR CYQF 270400Z 16010KT 15SM SKC 20/15 A3009 RMK SLP183=

CYQF;2006-06-27 05:00;METAR CYQF 270500Z 17010KT 15SM SKC 19/14 A3008 RMK SLP181=

CYQF;2006-06-27 06:00;METAR CYQF 270600Z 17010KT 15SM SKC 18/13 A3007 RMK SLP178=

CYQF;2006-06-27 07:00;METAR CYQF 270700Z 18010KT 15SM SKC 17/13 A3005 RMK SLP172=

CYQF;2006-06-27 08:00;METAR CYQF 270800Z 18010KT 15SM SKC 17/13 A3004 RMK SLP168=

CYQF;2006-06-27 09:00;METAR CYQF 270900Z 17010KT 15SM SKC 15/13 A3003 RMK SLP162=

CYQF;2006-06-27 10:00;METAR CYQF 271000Z 18014KT 15SM SKC 17/12 A3001 RMK SLP157=

CYQF;2006-06-27 11:00;METAR CYQF 271100Z 18008KT 15SM SKC 15/12 A2999 RMK SLP152=

CYQF;2006-06-27 12:00;METAR CYQF 271200Z 19010KT 15SM SKC 15/12 A2998 RMK SLP146=

CYQF;2006-06-27 13:00;METAR CYQF 271300Z 18010KT 15SM SKC 16/12 A2996 RMK SLP142=

CYQF;2006-06-27 14:00;METAR CYQF 271400Z 16007KT 15SM SKC 18/13 A2996 RMK SLP140=

CYQF;2006-06-27 15:00;METAR CYQF 271500Z 17010KT 15SM SKC 19/14 A2995 RMK SLP139=

CYQF;2006-06-27 16:00;METAR CYQF 271600Z 16010KT 15SM SKC 21/15 A2994 RMK SLP135=

CYQF;2006-06-27 17:00;METAR CYQF 271700Z 18011KT 15SM SKC 23/16 A2993 RMK SLP130=

CYQF;2006-06-27 18:00;METAR CYQF 271800Z 17012KT 15SM SKC 24/15 A2992 RMK SLP124=

CYQF;2006-06-27 19:00;METAR CYQF 271900Z 17013KT 15SM SKC 26/16 A2991 RMK SLP123=

CYQF;2006-06-27 20:00;METAR CYQF 272000Z 17009KT 15SM SKC 27/16 A2990 RMK SLP119=

CYQF;2006-06-27 21:00;METAR CYQF 272100Z 16012KT 15SM FEW220 28/15 A2988 RMK CI1 SLP112=

CYQF;2006-06-27 22:00;METAR CYQF 272200Z 15014KT 15SM FEW220 28/16 A2986 RMK CI1 SLP106=

CYQF;2006-06-27 23:00;METAR CYQF 272300Z 15014G22KT 15SM FEW050 FEW220 28/16 A2985 RMK CU1CI1 CB TP DIST W SLP103=

CYQF;2006-06-28 00:00;METAR CYQF 280000Z 15016G22KT 15SM FEW050CB FEW220 28/15 A2984 RMK CB1CI1 SLP095=

CYQF;2006-06-28 01:00;METAR CYQF 280100Z 16010G15KT 15SM FEW050CB FEW140 FEW220 26/15 A2983 RMK CB1AC1CI0 CB N SLP092=

CYQF;2006-06-28 02:00;METAR CYQF 280200Z 15012KT 15SM FEW050CB FEW120 FEW220 25/16 A2981 RMK CB1AC1CI0 CB NE SLP087=

CYQF;2006-06-28 03:00;METAR CYQF 280300Z 15012KT 15SM FEW120 SCT250 24/16 A2980 RMK AC1CI2 SLP085=

CYQF;2006-06-28 04:00;METAR CYQF 280400Z 16007KT 15SM FEW050 SCT250 21/16 A2981 RMK SC1CI2 TCU ASOCTD SLP086=

CYQF;2006-06-28 05:00;METAR CYQF 280500Z 16005KT 15SM FEW050 SCT250 21/15 A2980 RMK SC1CI2 TCU ASOCTD SLP083=

CYQF;2006-06-28 06:00;METAR CYQF 280600Z 17010KT 15SM FEW090 20/15 A2978 RMK AC2 SLP075=

CYQF;2006-06-28 07:00;METAR CYQF 280700Z 00000KT 15SM FEW090 19/14 A2977 RMK AC1 SLP073=

CYQF;2006-06-28 08:00;METAR CYQF 280800Z 18005KT 15SM FEW090 17/14 A2976 RMK AC1 SLP070=

CYQF;2006-06-28 09:00;METAR CYQF 280900Z 00000KT 15SM FEW090 17/14 A2976 RMK AC1 SLP069=

CYQF;2006-06-28 10:00;METAR CYQF 281000Z 00000KT 15SM FEW090 14/13 A2976 RMK AC1 SLP068=

CYQF;2006-06-28 11:00;METAR CYQF 281100Z 00000KT 10SM MIFG FEW050 FEW090 SCT250 13/12 A2976 RMK SC1AC2CI0 SLP069=

CYQF;2006-06-28 12:00;METAR CYQF 281200Z 18004KT 10SM MIFG FEW050 FEW090 BKN250 12/12 A2977 RMK SC1AC2CI0 SLP078=

CYQF;2006-06-28 13:00;METAR CYQF 281300Z 27003KT 15SM FEW080 SCT250 15/14 A2978 RMK AC1CI1 SLP081=

CYQF;2006-06-28 14:00;METAR CYQF 281400Z 22004KT 15SM FEW080 SCT250 17/15 A2980 RMK AC2CI2 SLP087=

CYQF;2006-06-28 15:00;METAR CYQF 281500Z 31004KT 15SM FEW080 FEW250 22/13 A2982 RMK AC1CI1 SLP088=

CYQF;2006-06-28 16:00;METAR CYQF 281600Z 36010KT 15SM FEW080 FEW250 22/13 A2984 RMK AC1CI1 SLP094=

CYQF;2006-06-28 17:00;METAR CYQF 281700Z 02005KT 15SM FEW250 23/15 A2985 RMK CI1 SLP097=

CYQF;2006-06-28 18:00;METAR CYQF 281800Z 07002KT 15SM FEW250 23/14 A2986 RMK CI1 SLP105=

CYQF;2006-06-28 19:00;METAR CYQF 281900Z 03005KT 15SM SCT250 25/14 A2986 RMK CI2 SLP106=

CYQF;2006-06-28 20:00;METAR CYQF 282000Z 01005KT 15SM BKN250 25/13 A2986 RMK CI2 SLP104=

CYQF;2006-06-28 21:00;METAR CYQF 282100Z 06009KT 15SM FEW250 27/13 A2986 RMK CI1 SLP102=

CYQF;2006-06-28 22:00;METAR CYQF 282200Z 06006KT 15SM FEW250 27/13 A2985 RMK CI1 SLP099=

CYQF;2006-06-28 23:00;METAR CYQF 282300Z 05009KT 15SM FEW250 26/13 A2984 RMK CI2 SLP097=

CYQF;2006-06-29 00:00;METAR CYQF 290000Z 05009KT 15SM FEW250 27/11 A2984 RMK CI2 SLP099=

CYQF;2006-06-29 01:00;METAR CYQF 290100Z 05007KT 15SM FEW250 27/12 A2983 RMK CI1 SLP096=

CYQF;2006-06-29 02:00;METAR CYQF 290200Z 05007KT 15SM FEW250 26/13 A2982 RMK CI1 SLP095=

CYQF;2006-06-29 03:00;METAR CYQF 290300Z 01005KT 15SM FEW250 25/12 A2983 RMK CI1 SLP088=

CYQF;2006-06-29 04:00;METAR CYQF 290400Z 36005KT 15SM FEW050 FEW250 21/13 A2984 RMK SC1CI1 TCU ASOCTD SLP091=

CYQF;2006-06-29 05:00;METAR CYQF 290500Z 33007KT 15SM FEW050 FEW250 19/14 A2985 RMK SC1CI1 FEW TCU ASOCTD CB TOP DIST NW SLP095=

CYQF;2006-06-29 06:00;METAR CYQF 290600Z 33007KT 15SM FEW050 18/13 A2985 RMK SC2 SLP104=

CYQF;2006-06-29 07:00;METAR CYQF 290700Z 34004KT 15SM FEW050 17/13 A2986 RMK SC2 SLP107=

CYQF;2006-06-29 08:00;METAR CYQF 290800Z 33010G17KT 15SM FEW050 18/13 A2990 RMK SC2 SLP118=

CYQF;2006-06-29 09:00;METAR CYQF 290900Z 33012KT 15SM FEW050 15/14 A2994 RMK SC2 SLP133=

CYQF;2006-06-29 10:00;METAR CYQF 291000Z 34012G20KT 15SM SCT015 BKN050 15/13 A2997 RMK SC3SC2 SLP143=

CYQF;2006-06-29 11:00;METAR CYQF 291100Z 35010G18KT 15SM BKN015 OVC050 15/12 A3001 RMK SC6SC2 SLP154=

CYQF;2006-06-29 12:00;METAR CYQF 291200Z 35010G17KT 15SM BKN015 OVC050 14/12 A3004 RMK SC6SC2 SLP168=

CYQF;2006-06-29 13:00;METAR CYQF 291300Z 36012G20KT 15SM FEW015 BKN040 BKN090 14/08 A3008 RMK SC2SC4AC2 SLP180=

CYQF;2006-06-29 14:00;METAR CYQF 291400Z 35008KT 15SM FEW020 BKN040 BKN100 14/09 A3012 RMK SC2SC4AC2 SLP191=

CYQF;2006-06-29 15:00;METAR CYQF 291500Z 35011KT 15SM FEW020 BKN040 BKN100 15/07 A3013 RMK SC2SC4AC1 SLP200=

CYQF;2006-06-29 16:00;METAR CYQF 291600Z 02014KT 15SM FEW020 BKN040 BKN100 15/05 A3014 RMK SC1SC4AC1 SLP203=

CYQF;2006-06-29 17:00;METAR CYQF 291700Z 01011KT 15SM FEW040 SCT100 BKN270 17/05 A3015 RMK SC2AC1CI0 SLP206=

CYQF;2006-06-29 18:00;METAR CYQF 291800Z 35008KT 15SM FEW090 FEW270 16/06 A3015 RMK AC1CI1 SLP211=

CYQF;2006-06-29 19:00;METAR CYQF 291900Z 07006KT 15SM FEW270 18/07 A3014 RMK CI1 SLP210=

CYQF;2006-06-29 20:00;METAR CYQF 292000Z 07004KT 15SM FEW270 19/09 A3013 RMK CI1 SLP205=

CYQF;2006-06-29 21:00;METAR CYQF 292100Z 02005KT 15SM FEW270 20/09 A3012 RMK CI1 SLP201=

CYQF;2006-06-29 22:00;METAR CYQF 292200Z 09005KT 15SM FEW270 21/10 A3012 RMK CI1 SLP200=

CYQF;2006-06-29 23:00;METAR CYQF 292300Z 18006KT 15SM BKN270 22/10 A3011 RMK CI2 SLP197=

CYQF;2006-06-30 00:00;METAR CYQF 300000Z 15004KT 15SM FEW060 BKN270 22/10 A3011 RMK CF1CI2 SLP196=

CYQF;2006-06-30 01:00;METAR CYQF 300100Z 14007KT 15SM FEW060 BKN270 21/10 A3010 RMK SC1CI2 SLP193=

CYQF;2006-06-30 02:00;METAR CYQF 300200Z 15005KT 15SM FEW070 BKN270 21/11 A3010 RMK AC1CI2 SLP195=

CYQF;2006-06-30 03:00;METAR CYQF 300300Z 15005KT 15SM FEW070 BKN270 19/12 A3010 RMK AC1CI2 SLP197=

CYQF;2006-06-30 04:00;METAR CYQF 300400Z 15005KT 15SM SCT120 BKN250 17/13 A3011 RMK AC2CI2 SLP200=

CYQF;2006-06-30 05:00;METAR CYQF 300500Z 00000KT 15SM SCT070 BKN250 16/12 A3012 RMK AC3CI1 SLP203=

CYQF;2006-06-30 06:00;METAR CYQF 300600Z 11002KT 15SM FEW070 BKN250 15/12 A3012 RMK AC2CI2 SLP206=

CYQF;2006-06-30 07:00;METAR CYQF 300700Z 00000KT 15SM FEW070 BKN250 14/11 A3011 RMK AC2CI2 SLP204=

CYQF;2006-06-30 08:00;METAR CYQF 300800Z 00000KT 15SM SCT070 BKN250 14/11 A3011 RMK AC3CI2 SLP202=

CYQF;2006-06-30 09:00;METAR CYQF 300900Z 00000KT 15SM FEW090 BKN250 15/11 A3010 RMK AC2CI4 SLP194=

CYQF;2006-06-30 10:00;METAR CYQF 301000Z 17003KT 15SM FEW090 BKN250 13/10 A3010 RMK AC2CI2 SLP194=

CYQF;2006-06-30 11:00;METAR CYQF 301100Z 18004KT 15SM SCT080 BKN250 12/10 A3009 RMK AC4CI2 SLP193=

CYQF;2006-06-30 12:00;METAR CYQF 301200Z 00000KT 15SM SCT040 BKN080 BKN250 13/10 A3010 RMK SC3AC2CI1 SLP195=

CYQF;2006-06-30 13:00;METAR CYQF 301300Z 00000KT 15SM SCT040 BKN080 BKN250 14/11 A3011 RMK SC3AC2CI2 SLP198=

CYQF;2006-06-30 14:00;METAR CYQF 301400Z 20005KT 15SM FEW040 SCT100 BKN250 15/12 A3010 RMK SC2AC1CI0 SLP197=

CYQF;2006-06-30 15:00;METAR CYQF 301500Z 18007KT 15SM FEW100 SCT250 17/14 A3009 RMK AC2CI1 SLP190=

CYQF;2006-06-30 16:00;METAR CYQF 301600Z 23005KT 15SM FEW010 FEW100 SCT250 18/14 A3009 RMK CF1AC2CI0 SLP189=

CYQF;2006-06-30 17:00;METAR CYQF 301700Z 28007KT 15SM FEW015 FEW100 SCT250 19/15 A3008 RMK CF1AC2CI0 SLP186=

CYQF;2006-06-30 18:00;METAR CYQF 301800Z 00000KT 15SM FEW020 FEW100 SCT250 20/15 A3007 RMK CF1AC1CI0 SLP184=

CYQF;2006-06-30 19:00;METAR CYQF 301900Z 00000KT 15SM FEW040 FEW100 SCT250 22/15 A3005 RMK CU2AC1CI0 SLP180=

CYQF;2006-06-30 20:00;METAR CYQF 302000Z 36004KT 15SM FEW040TCU FEW100 SCT250 23/15 A3004 RMK TCU2AC1CI0 SLP174=

CYQF;2006-06-30 21:00;METAR CYQF 302100Z 03004KT 15SM FEW040TCU FEW100 SCT250 24/13 A3002 RMK TCU2AC1CI0 SLP163=

CYQF;2006-06-30 22:00;METAR CYQF 302200Z 03004KT 15SM SCT050TCU SCT100 BKN250 25/10 A3001 RMK TCU3AC1CI0 CB W SLP161=

CYQF;2006-06-30 22:29;SPECI CYQF 302229Z 31004KT 15SM -SHRA BKN050CB BKN250 RMK CB5CI1 HVY SHS W=

CYQF;2006-06-30 23:00;METAR CYQF 302300Z 00000KT 15SM -SHRA BKN050CB BKN250 23/10 A3001 RMK CB6CI1 LTGCG NW SLP161=

CYQF;2006-06-30 23:07;SPECI CYQF 302307Z 00000KT 15SM BKN050CB BKN250 RMK CB6CI1 SHRA ALQDS=

CYQF;2006-07-01 00:00;METAR CYQF 010000Z 00000KT 15SM BKN050CB BKN250 20/10 A2999 RMK CB6CI1 SHRA DIST SW SLP159=

CYQF;2006-07-01 01:00;METAR CYQF 010100Z 04008KT 15SM FEW050CB SCT250 23/12 A3000 RMK CB2CI0 SLP162=

CYQF;2006-07-01 02:00;METAR CYQF 010200Z 07007KT 15SM FEW050TCU SCT250 21/11 A3001 RMK TCU2CI0 SLP165=

CYQF;2006-07-01 03:00;METAR CYQF 010300Z 15003KT 15SM FEW050TCU SCT250 20/11 A3002 RMK TCU2CI0 SLP164=

CYQF;2006-07-01 04:00;METAR CYQF 010400Z 00000KT 15SM FEW050TCU SCT250 18/12 A3003 RMK TCU2CI0 SLP168=

CYQF;2006-07-01 05:00;METAR CYQF 010500Z 22003KT 15SM FEW040 SCT250 15/11 A3004 RMK SC2CI0 SLP171=

CYQF;2006-07-01 07:00;METAR CYQF 010700Z 18002KT 15SM FEW040 FEW250 12/11 A3006 RMK SC2CI0 SLP183=

CYQF;2006-07-01 08:00;METAR CYQF 010800Z 02002KT 15SM FEW250 11/10 A3007 RMK CI0 SLP187=

CYQF;2006-07-01 09:00;METAR CYQF 010900Z 00000KT 15SM FEW040 SCT250 10/09 A3008 RMK SC2CI0 CB ASOCTD LTGCG S+SE SLP190=

CYQF;2006-07-01 10:00;METAR CYQF 011000Z 18002KT 15SM FEW040 SCT250 11/10 A3009 RMK SC2CI0 CB+SHRA+LTGCG SE SLP192=

CYQF;2006-07-01 12:00;METAR CYQF 011200Z 24004KT 15SM FEW040 FEW250 08/08 A3009 RMK SC1CI0 MIFG SLP198=

CYQF;2006-07-01 13:00;METAR CYQF 011300Z 20004KT 15SM FEW040 10/10 A3009 RMK SC1 SLP200=

CYQF;2006-07-01 14:00;METAR CYQF 011400Z 21005KT 15SM FEW040 14/12 A3009 RMK SC1 SLP199=

CYQF;2006-07-01 15:00;METAR CYQF 011500Z 23005KT 15SM FEW040 FEW250 17/13 A3009 RMK SC1CI0 SLP189=

CYQF;2006-07-01 16:00;METAR CYQF 011600Z 21004KT 15SM FEW060 FEW250 20/12 A3009 RMK SC1CI1 SLP189=

CYQF;2006-07-01 17:00;METAR CYQF 011700Z 21005KT 15SM FEW050TCU 22/10 A3008 RMK TCU1 SLP186=

CYQF;2006-07-01 18:00;METAR CYQF 011800Z 21005KT 15SM FEW050TCU 22/11 A3007 RMK TCU1 SLP184=

CYQF;2006-07-01 19:00;METAR CYQF 011900Z 21005KT 15SM FEW050CB 23/12 A3006 RMK CB1 CB DIST SSW SLP180=

CYQF;2006-07-01 20:00;METAR CYQF 012000Z 00000KT 15SM FEW050 24/12 A3004 RMK CU1 CB TOPS S SLP175=

CYQF;2006-07-01 21:00;METAR CYQF 012100Z 35010KT 15SM FEW060 25/07 A3003 RMK CU1 CB TOPS SW SLP171=

CYQF;2006-07-01 22:00;METAR CYQF 012200Z 28004KT 15SM FEW060 25/08 A3002 RMK CU1 CB TOPS S+W SLP169=

CYQF;2006-07-01 23:00;METAR CYQF 012300Z 06005KT 15SM FEW060 FEW120 FEW250 26/09 A3001 RMK CU1AC1CI1 SLP166=

CYQF;2006-07-02 00:00;METAR CYQF 020000Z 04005KT 15SM FEW060 FEW250 25/07 A3001 RMK CU1CI1 SLP166=

CYQF;2006-07-02 01:00;METAR CYQF 020100Z 36003KT 15SM FEW060 FEW250 25/07 A3001 RMK CU1CI1 CB TOPS DIST S SLP165=

CYQF;2006-07-02 02:00;METAR CYQF 020200Z 07004KT 15SM FEW060 FEW250 25/09 A3001 RMK CU1CI1 CB TOPS DIST S SLP167=

CYQF;2006-07-02 03:00;METAR CYQF 020300Z 09005KT 15SM FEW060 FEW250 23/10 A3002 RMK CU1CI2 CB TOPS DIST S OBS TKN +05 SLP164=

CYQF;2006-07-02 04:00;METAR CYQF 020400Z 00000KT 15SM SCT250 19/11 A3004 RMK CI2 CB TOPS DIST S SLP169=

CYQF;2006-07-02 05:00;METAR CYQF 020500Z 00000KT 15SM FEW100 SCT250 17/12 A3005 RMK AC1CI2 SLP172=

CYQF;2006-07-02 06:00;METAR CYQF 020600Z 36002KT 15SM FEW100 SCT250 17/10 A3005 RMK AC1CI2 SLP174=

CYQF;2006-07-02 07:00;METAR CYQF 020700Z 00000KT 15SM FEW100 SCT250 15/10 A3005 RMK AC1CI2 SLP175=

CYQF;2006-07-02 08:00;METAR CYQF 020800Z 17002KT 15SM FEW250 13/11 A3006 RMK CI1 SLP176=

CYQF;2006-07-02 09:00;METAR CYQF 020900Z 21006KT 15SM FEW250 10/09 A3006 RMK CI1 SLP180=

CYQF;2006-07-02 10:00;METAR CYQF 021000Z 22003KT 15SM FEW050 10/10 A3005 RMK SC1 SLP179=

CYQF;2006-07-02 11:00;METAR CYQF 021100Z 00000KT 15SM FEW040 SCT080 BKN250 10/09 A3006 RMK SC2AC2CI1 SLP181=

CYQF;2006-07-02 12:00;METAR CYQF 021200Z 00000KT 15SM FEW040 SCT080 BKN250 11/10 A3008 RMK SC2AC1CI2 SLP188=

CYQF;2006-07-02 13:00;METAR CYQF 021300Z 21005KT 15SM FEW040 SCT080 BKN250 10/10 A3008 RMK SC2AC2CI1 SLP187=

CYQF;2006-07-02 14:00;METAR CYQF 021400Z 21002KT 10SM FEW040 SCT100 BKN250 15/12 A3008 RMK CU2AC1CI1 SLP187=

CYQF;2006-07-02 15:00;METAR CYQF 021500Z 30008KT 15SM FEW040 FEW100 BKN250 16/12 A3010 RMK SC1AC1CI2 SLP191=

CYQF;2006-07-02 16:00;METAR CYQF 021600Z 32005KT 10SM FEW090 BKN250 19/11 A3011 RMK AC2CI2 SLP195=

CYQF;2006-07-02 17:00;METAR CYQF 021700Z 32005KT 8SM FEW060 BKN250 20/12 A3012 RMK CU1CI2 FU SLP197=

CYQF;2006-07-02 18:00;METAR CYQF 021800Z 06003KT 8SM FEW050TCU BKN250 22/11 A3012 RMK TCU1CI2 FU SLP198=

CYQF;2006-07-02 19:00;METAR CYQF 021900Z 01003KT 10SM FEW050TCU SCT250 23/12 A3012 RMK TCU1CI2 CB TOP WSW SLP198=

CYQF;2006-07-02 20:00;METAR CYQF 022000Z 03005KT 15SM FEW050TCU SCT250 25/11 A3012 RMK TCU1CI1 CB TOP WSW SLP197=

CYQF;2006-07-02 21:00;METAR CYQF 022100Z 00000KT 15SM FEW050TCU SCT250 25/11 A3012 RMK TCU1CI1 SLP201=

CYQF;2006-07-02 22:00;METAR CYQF 022200Z 00000KT 15SM FEW055 SCT250 25/09 A3013 RMK CU1CI2 TCU ASOCTD SLP203=

CYQF;2006-07-02 23:00;METAR CYQF 022300Z 17004KT 15SM FEW060CB BKN250 25/10 A3013 RMK CB1CI2 CB N SLP203=

CYQF;2006-07-03 00:00;METAR CYQF 030000Z 22005KT 15SM FEW050CB OVC250 23/14 A3013 RMK CB2CI2 SLP205=

CYQF;2006-07-03 01:00;METAR CYQF 030100Z 15003KT 15SM FEW050CB SCT120 BKN250 25/11 A3013 RMK CB2AC2CI2 CB N SLP207=

CYQF;2006-07-03 02:00;METAR CYQF 030200Z 21005KT 15SM FEW050TCU FEW120 SCT250 23/14 A3012 RMK TCU1AC1CI1 SLP203=

CYQF;2006-07-03 03:00;METAR CYQF 030300Z 00000KT 15SM FEW120 FEW250 22/15 A3012 RMK AC2CI0 SLP199=

CYQF;2006-07-03 04:00;METAR CYQF 030400Z 00000KT 15SM FEW120 FEW250 20/15 A3013 RMK AC1CI0 SLP202=

CYQF;2006-07-03 05:00;METAR CYQF 030500Z 17003KT 15SM FEW250 17/14 A3014 RMK CI1 SLP204=

CYQF;2006-07-03 06:00;METAR CYQF 030600Z 19004KT 15SM FEW250 15/13 A3014 RMK CI1 SLP207=

CYQF;2006-07-03 07:00;METAR CYQF 030700Z 20004KT 15SM FEW250 13/11 A3016 RMK CI2 SLP212=

CYQF;2006-07-03 08:00;METAR CYQF 030800Z 20005KT 15SM FEW250 12/11 A3015 RMK CI2 SLP211=

CYQF;2006-07-03 09:00;METAR CYQF 030900Z 00000KT 15SM SKC 12/11 A3015 RMK SLP211=

CYQF;2006-07-03 10:00;METAR CYQF 031000Z 00000KT 15SM SCT250 11/08 A3016 RMK CI2 SLP213=

CYQF;2006-07-03 11:00;METAR CYQF 031100Z 00000KT 15SM BKN250 10/09 A3015 RMK CI3 SLP211=

CYQF;2006-07-03 12:00;METAR CYQF 031200Z 00000KT 15SM BKN250 10/09 A3016 RMK CI4 SLP217=

CYQF;2006-07-03 13:00;METAR CYQF 031300Z 00000KT 15SM FEW050TCU BKN250 10/09 A3017 RMK TCU1CI3 SLP220=

CYQF;2006-07-03 14:00;METAR CYQF 031400Z 00000KT 15SM FEW050 BKN250 14/12 A3017 RMK CU1CI2 SLP220=

CYQF;2006-07-03 15:00;METAR CYQF 031500Z 18002KT 15SM FEW050 BKN250 17/14 A3017 RMK CU1CI2 SLP214=

CYQF;2006-07-03 16:00;METAR CYQF 031600Z 00000KT 15SM BKN250 20/14 A3017 RMK CI2 SLP214=

CYQF;2006-07-03 17:00;METAR CYQF 031700Z 19005KT 15SM FEW050TCU BKN250 23/15 A3015 RMK TCU1CI2 SLP210=

CYQF;2006-07-03 18:00;METAR CYQF 031800Z 15008KT 15SM FEW050TCU BKN250 25/13 A3015 RMK TCU1CI2 SLP208=

CYQF;2006-07-03 19:00;METAR CYQF 031900Z 16010KT 15SM FEW050TCU BKN250 26/13 A3015 RMK TCU1CI2 SLP206=

CYQF;2006-07-03 20:00;METAR CYQF 032000Z 16012KT 15SM FEW050TCU BKN250 26/13 A3014 RMK TCU1CI2 SLP205=

CYQF;2006-07-03 21:00;METAR CYQF 032100Z 15012KT 15SM BKN250 26/14 A3014 RMK CI2 CB TOP DIST W SLP205=

CYQF;2006-07-03 22:00;METAR CYQF 032200Z 17012KT 15SM BKN250 27/16 A3014 RMK CI2 CB TOPS S+W SLP204=

CYQF;2006-07-03 23:00;METAR CYQF 032300Z 15012KT 15SM BKN250 27/15 A3013 RMK CI2 CB TOPS DIST SW SLP201=

CYQF;2006-07-04 00:00;METAR CYQF 040000Z 18010KT 15SM FEW060TCU BKN250 27/15 A3013 RMK TCU1CI2 CB TOPS W SLP204=

CYQF;2006-07-04 01:00;METAR CYQF 040100Z 17006KT 15SM FEW060 FEW120 BKN250 25/16 A3013 RMK CU1AC2CI2 CB TOPS DIST SW SLP203=

CYQF;2006-07-04 02:00;METAR CYQF 040200Z 15004KT 15SM FEW060TCU FEW120 BKN250 24/16 A3012 RMK TCU1AC2CI2 CB TOPS DIST SW SLP199=

CYQF;2006-07-04 03:00;METAR CYQF 040300Z 15003KT 15SM FEW120 BKN250 23/17 A3012 RMK AC2CI2 SLP198=

CYQF;2006-07-04 04:00;METAR CYQF 040400Z 15003KT 15SM FEW120 BKN250 21/17 A3013 RMK AC2CI2 SLP199=

CYQF;2006-07-04 05:00;METAR CYQF 040500Z 15005KT 15SM FEW070 FEW120 SCT250 19/16 A3013 RMK AC1AC2CI1 SLP201=

CYQF;2006-07-04 06:00;METAR CYQF 040600Z 16006KT 15SM FEW250 17/15 A3012 RMK CI2 SLP195=

CYQF;2006-07-04 07:00;METAR CYQF 040700Z 00000KT 15SM FEW250 16/14 A3012 RMK CI1 SLP195=

CYQF;2006-07-04 08:00;METAR CYQF 040800Z 00000KT 15SM FEW250 17/15 A3013 RMK CI1 SLP196=

CYQF;2006-07-04 09:00;METAR CYQF 040900Z 00000KT 15SM SKC 15/14 A3012 RMK SLP195=

CYQF;2006-07-04 10:00;METAR CYQF 041000Z 06005KT 15SM FEW100 SCT250 14/13 A3012 RMK AC1CI1 SLP195=

CYQF;2006-07-04 12:00;METAR CYQF 041200Z 19004KT 15SM FEW250 12/11 A3012 RMK CI2 SLP198=

CYQF;2006-07-04 13:00;METAR CYQF 041300Z 20003KT 15SM FEW250 13/12 A3013 RMK CI2 SLP200=

CYQF;2006-07-04 14:00;METAR CYQF 041400Z 20004KT 15SM FEW250 15/14 A3013 RMK CI1 SLP201=

CYQF;2006-07-04 15:00;METAR CYQF 041500Z 18002KT 15SM FEW250 18/13 A3012 RMK CI2 SLP197=

CYQF;2006-07-04 16:00;METAR CYQF 041600Z 19004KT 15SM FEW250 21/14 A3013 RMK CI2 SLP198=

CYQF;2006-07-04 17:00;METAR CYQF 041700Z 15005KT 15SM FEW270 23/14 A3012 RMK CI2 SLP195=

CYQF;2006-07-04 18:00;METAR CYQF 041800Z 18006KT 15SM FEW270 26/14 A3011 RMK CI2 SLP189=

CYQF;2006-07-04 19:00;METAR CYQF 041900Z 17006KT 15SM FEW048 27/15 A3010 RMK CU1 SLP187=

CYQF;2006-07-04 20:00;METAR CYQF 042000Z 17010KT 15SM FEW050 SCT270 28/13 A3009 RMK CU1CI0 SLP185=

CYQF;2006-07-04 21:00;METAR CYQF 042100Z 18012KT 15SM FEW055 FEW270 29/14 A3008 RMK CU1CI0 CB TP DIST SW SLP179=

CYQF;2006-07-04 22:00;METAR CYQF 042200Z 18010KT 15SM FEW064 SCT270 29/13 A3007 RMK CU2CI1 SLP176=

CYQF;2006-07-04 23:00;METAR CYQF 042300Z 18013KT 15SM FEW060 SCT270 29/14 A3005 RMK CU2CI1 CB TP DIST W SLP171=

CYQF;2006-07-05 00:00;METAR CYQF 050000Z 17009KT 15SM FEW060 FEW140 SCT270 28/14 A3005 RMK CU2AC1CI1 CB TP DIST W SLP172=

CYQF;2006-07-05 01:00;METAR CYQF 050100Z 17007KT 15SM FEW050 FEW120 BKN270 27/13 A3004 RMK CU1AC2CI2 CB TOP DIST W SLP168=

CYQF;2006-07-05 02:00;METAR CYQF 050200Z 16007KT 15SM FEW120 BKN270 24/16 A3003 RMK AC2CI2 SLP167=

CYQF;2006-07-05 03:00;METAR CYQF 050300Z 17006KT 15SM SCT120 BKN250 22/16 A3004 RMK AC3CI2 SLP168=

CYQF;2006-07-05 04:00;METAR CYQF 050400Z 00000KT 15SM SCT120 BKN250 21/16 A3004 RMK AC4CI2 SLP168=

CYQF;2006-07-05 05:00;METAR CYQF 050500Z 20004KT 15SM SCT120 BKN250 18/13 A3004 RMK AC3CI1 SLP170=

CYQF;2006-07-05 06:00;METAR CYQF 050600Z 17003KT 15SM FEW120 BKN250 18/16 A3003 RMK AC2CI1 SLP160=

CYQF;2006-07-05 07:00;METAR CYQF 050700Z 19005KT 15SM FEW100 BKN250 16/14 A3003 RMK AC2CI2 SLP161=

CYQF;2006-07-05 08:00;METAR CYQF 050800Z 18007KT 15SM FEW100 BKN250 15/14 A3004 RMK AC2CI2 SLP164=

CYQF;2006-07-05 09:00;METAR CYQF 050900Z 20005KT 15SM FEW100 SCT250 15/13 A3001 RMK AC1CI1 SLP155=

CYQF;2006-07-05 10:00;METAR CYQF 051000Z 22005KT 15SM FEW100 SCT250 13/11 A3002 RMK AC1CI1 SLP157=

CYQF;2006-07-05 11:00;METAR CYQF 051100Z 19004KT 15SM FEW100 FEW250 13/11 A3001 RMK AC1CI1 SLP155=

CYQF;2006-07-05 12:00;METAR CYQF 051200Z 19003KT 15SM FEW100 SCT250 11/10 A3001 RMK AC1CI2 SLP159=

CYQF;2006-07-05 13:00;METAR CYQF 051300Z 18004KT 15SM FEW100 SCT250 13/12 A3000 RMK AC1CI2 SLP156=

CYQF;2006-07-05 14:00;METAR CYQF 051400Z 20005KT 15SM FEW050 SCT100 17/12 A3000 RMK SC2AC2 SLP155=

CYQF;2006-07-05 15:00;METAR CYQF 051500Z 23005KT 15SM SCT070 BKN120 19/13 A3000 RMK AC3AC2 SLP154=

CYQF;2006-07-05 16:00;METAR CYQF 051600Z 21005KT 15SM FEW080 SCT120 BKN270 22/15 A2999 RMK AC2AC2CI0 VIRGA S+SE SLP152=

CYQF;2006-07-05 17:00;METAR CYQF 051700Z 23002KT 15SM SCT070 SCT120 BKN270 24/15 A2997 RMK AC3AC1CI1 SLP145=

CYQF;2006-07-05 18:00;METAR CYQF 051800Z 25002KT 15SM FEW070 SCT120 26/16 A2997 RMK AC2AC2 SLP140=

CYQF;2006-07-05 19:00;METAR CYQF 051900Z 15002KT 15SM FEW080 SCT270 27/15 A2997 RMK AC2CI2 VIRGA DIST SE SLP141=

CYQF;2006-07-05 20:00;METAR CYQF 052000Z 18005KT 15SM FEW050 SCT270 29/11 A2996 RMK CU1CI2 SLP137=

CYQF;2006-07-05 21:00;METAR CYQF 052100Z 00000KT 15SM FEW050TCU SCT270 29/12 A2995 RMK TCU1CI2 SLP134=

CYQF;2006-07-05 22:00;METAR CYQF 052200Z 16003KT 15SM FEW050TCU SCT120 BKN270 29/11 A2994 RMK TCU2AC2CI2 SLP130=

CYQF;2006-07-06 00:00;METAR CYQF 060000Z 16006KT 15SM FEW050TCU SCT120 BKN270 30/13 A2991 RMK TCU2AC2CI1 CB TP DIST W SLP122=

CYQF;2006-07-06 01:00;METAR CYQF 060100Z 14006KT 15SM FEW050TCU FEW120 BKN270 28/15 A2989 RMK TCU1AC1CI3 CB TOP DIST NW SLP118=

CYQF;2006-07-06 02:00;METAR CYQF 060200Z 13003KT 15SM FEW050CB FEW120 BKN270 27/17 A2989 RMK CB1AC1CI2 SLP118=

CYQF;2006-07-06 04:00;METAR CYQF 060400Z 00000KT 15SM FEW070 BKN120 BKN250 24/18 A2990 RMK AC1AC5CI1 SLP116=

CYQF;2006-07-06 06:00;METAR CYQF 060600Z 00000KT 15SM SCT120 BKN250 20/17 A2988 RMK AC3CI1 CB TOPS DIST NW SLP109=

CYQF;2006-07-06 07:00;METAR CYQF 060700Z 01006KT 15SM SCT120 BKN250 20/15 A2988 RMK AC3CI2 CB TOPS NW DIST LTGIC NW SLP109=

CYQF;2006-07-06 09:00;METAR CYQF 060900Z 35006KT 15SM FEW120 BKN250 17/13 A2991 RMK AC2CI2 SLP119=

CYQF;2006-07-06 10:00;METAR CYQF 061000Z 01005KT 10SM FEW050 SCT120 BKN250 17/16 A2991 RMK CU1AC2CI2 CB TOPS W DIST LTGIC W FU SLP117=

CYQF;2006-07-06 11:00;METAR CYQF 061100Z 28005KT 6SM FU FEW050 SCT100 BKN250 17/16 A2991 RMK SC2AC2CI2 SLP117=

CYQF;2006-07-06 12:00;METAR CYQF 061200Z 31010KT 4SM FU BKN010 OVC100 17/16 A2992 RMK SC6AC2 SLP119=

CYQF;2006-07-06 13:00;METAR CYQF 061300Z 33010KT 4SM FU SCT015 BKN060 OVC100 18/15 A2991 RMK SC3SC3AC2 SLP118=

CYQF;2006-07-06 14:00;METAR CYQF 061400Z 02004KT 12SM SCT040 BKN080 OVC250 18/14 A2990 RMK SC3AC3CI2 FU SLP113=

CYQF;2006-07-06 15:00;METAR CYQF 061500Z 24007KT 10SM SCT040 OVC080 18/15 A2993 RMK SC4AC4 FU SHS DIST S-SW SLP127=

CYQF;2006-07-06 16:00;METAR CYQF 061600Z 00000KT 15SM SCT040 BKN080 BKN250 18/15 A2993 RMK SC3AC3CI1 FU SHS DIST NE+SW SLP126=

CYQF;2006-07-06 16:25;SPECI CYQF 061625Z 04012KT 10SM -SHRA SCT040 BKN080 OVC250 RMK SC3AC3CI2 FU=

CYQF;2006-07-06 16:39;SPECI CYQF 061639Z 36010KT 3SM FU SCT040 BKN080 BKN250 RMK SC3AC2CI2=

CYQF;2006-07-06 17:30;SPECI CYQF 061730Z 34006KT 4SM FU BKN010 BKN080 BKN250 RMK CU5AC2CI1=

CYQF;2006-07-06 19:00;METAR CYQF 061900Z 36009KT 3SM FU FEW013 BKN020 22/17 A2994 RMK SC1CU4 FEW TCU SLP134=

CYQF;2006-07-06 20:00;METAR CYQF 062000Z 07002KT 3SM FU BKN024 22/16 A2994 RMK CU5 FEW TCU SLP133=

CYQF;2006-07-06 21:00;METAR CYQF 062100Z 04008KT 3SM FU BKN025 23/16 A2991 RMK FU2CU3 SLP124=

CYQF;2006-07-06 22:00;METAR CYQF 062200Z 04004KT 3SM FU BKN028 23/16 A2991 RMK FU2CU4 FEW TCU SLP123=

CYQF;2006-07-06 23:00;METAR CYQF 062300Z 03004KT 3SM FU BKN032 BKN250 24/16 A2990 RMK FU2CU3CI2 SLP122=

CYQF;2006-07-07 00:00;METAR CYQF 070000Z 06005KT 3SM FU SCT032 BKN250 24/16 A2987 RMK FU2CU2CI2 SLP110=

CYQF;2006-07-07 01:00;METAR CYQF 070100Z 00000KT 4SM FU SCT032 BKN090 OVC250 23/16 A2991 RMK FU2CU2AC2CI2 CB S-W SLP121=

CYQF;2006-07-07 01:05;SPECI CYQF 070105Z 00000KT 4SM TS FU BKN032CB OVC090 RMK FU2CB3AC3 CB S-W LTGICCG=

CYQF;2006-07-07 01:13;SPECI CYQF 070113Z 00000KT 4SM -TSRA FU BKN032CB OVC090 RMK FU2CB4AC2 LTGICCG=

CYQF;2006-07-07 02:00;METAR CYQF 070200Z 14006KT 4SM -TSRA FU BKN035CB BKN100 BKN250 20/17 A2989 RMK CB5AC2CI1 LTGICCG SE-S SLP116=

CYQF;2006-07-07 02:30;SPECI CYQF 070230Z 18010G17KT 4SM FU FEW010 BKN040CB BKN100 BKN250 RETS RMK CF1CB4AC2CI1 CB SE=

CYQF;2006-07-07 03:00;METAR CYQF 070300Z 17011KT 12SM FEW020 SCT040CB BKN100 BKN250 18/14 A2988 RETS RMK CF1CB2AC2CI1 CB E-SE OBS TKN+08 SLP118=

CYQF;2006-07-07 04:00;METAR CYQF 070400Z 21003KT 15SM SCT040 BKN100 BKN250 16/14 A2987 RMK CU3AC2CI1 CB DIST NE-SE SLP116=

CYQF;2006-07-07 05:00;METAR CYQF 070500Z 00000KT 15SM FEW040 BKN100 BKN250 16/14 A2989 RMK SC2AC4CI1 SLP122=

CYQF;2006-07-07 06:00;METAR CYQF 070600Z 00000KT 15SM FEW040 BKN120 BKN250 14/13 A2988 RMK SC2AC4CI1 SLP121=

CYQF;2006-07-07 07:00;METAR CYQF 070700Z 00000KT 15SM FEW040 BKN120 BKN250 14/13 A2986 RMK SC2AC2CI1 SLP115=

CYQF;2006-07-07 08:00;METAR CYQF 070800Z 00000KT 15SM SCT120 BKN250 14/13 A2985 RMK AC3CI2 SLP112=

CYQF;2006-07-07 09:00;METAR CYQF 070900Z 00000KT 15SM SCT120 BKN250 13/12 A2986 RMK AC3CI2 SLP111=

CYQF;2006-07-07 10:00;METAR CYQF 071000Z 00000KT 15SM FEW120 BKN250 14/13 A2988 RMK AC2CI2 SLP118=

CYQF;2006-07-07 11:00;METAR CYQF 071100Z 34010KT 15SM BKN060 BKN250 16/14 A2993 RMK SC6CI1 SLP132=

CYQF;2006-07-07 12:00;METAR CYQF 071200Z 34008KT 15SM SCT060 SCT100 BKN250 16/12 A2995 RMK SC3AC1CI2 SLP139=

CYQF;2006-07-07 13:00;METAR CYQF 071300Z 31005KT 15SM SCT050 BKN100 BKN250 15/13 A2997 RMK SC4AC1CI1 SLP145=

CYQF;2006-07-07 14:00;METAR CYQF 071400Z 28010KT 15SM BKN050 BKN100 BKN250 15/13 A2999 RMK SC5AC1CI1 SLP151=

CYQF;2006-07-07 15:00;METAR CYQF 071500Z 30010KT 15SM FEW050 SCT100 BKN250 16/13 A3001 RMK SC2AC2CI0 SLP165=

CYQF;2006-07-07 16:00;METAR CYQF 071600Z 33010KT 15SM FEW050 FEW090 SCT250 19/11 A3003 RMK SC1AC1CI2 SLP170=

CYQF;2006-07-07 17:00;METAR CYQF 071700Z 34013G18KT 15SM FEW050 FEW090 FEW250 20/11 A3004 RMK SC1AC1CI1 SLP175=

CYQF;2006-07-07 18:00;METAR CYQF 071800Z 34010G16KT 15SM FEW050 FEW250 21/09 A3005 RMK SC1CI0 SLP178=

CYQF;2006-07-07 19:00;METAR CYQF 071900Z 02012KT 15SM FEW050 FEW250 21/10 A3005 RMK CU1CI1 SLP176=

CYQF;2006-07-07 20:00;METAR CYQF 072000Z 35004KT 15SM FEW050 FEW250 22/11 A3004 RMK CU1CI1 SLP175=

CYQF;2006-07-07 21:00;METAR CYQF 072100Z 22005KT 15SM FEW050 FEW250 23/10 A3004 RMK CU1CI1 SLP174=

CYQF;2006-07-07 22:00;METAR CYQF 072200Z 20006KT 15SM FEW050 FEW250 23/11 A3004 RMK CU1CI1 CB=

CYQF;2006-07-07 23:00;METAR CYQF 072300Z 20006KT 15SM FEW055 SCT250 24/10 A3003 RMK CU2CI1 CB=

CYQF;2006-07-08 00:00;METAR CYQF 080000Z 19010KT 15SM FEW050CB SCT250 24/12 A3001 RMK CB2CI1 CB+SHRA NE SLP160=

CYQF;2006-07-08 01:00;METAR CYQF 080100Z 17007KT 15SM SCT050TCU BKN250 24/13 A3000 RMK TCU3CI2 CB DIST E SLP156=

CYQF;2006-07-08 02:00;METAR CYQF 080200Z 17005KT 15SM SCT050TCU SCT120 BKN250 24/14 A3000 RMK TCU3AC1CI1 CB TP DIST NE SLP155=

CYQF;2006-07-08 03:00;METAR CYQF 080300Z 23005KT 15SM FEW050TCU SCT120 BKN250 21/14 A3001 RMK TCU2AC2CI2 CB TPS DIST NE SHS DIST W SLP161=

CYQF;2006-07-08 04:00;METAR CYQF 080400Z 34004KT 15SM FEW050TCU SCT080 BKN250 18/14 A3004 RMK TCU1AC3CI2 SLP169=

CYQF;2006-07-08 05:00;METAR CYQF 080500Z 36013KT 15SM FEW050 BKN080 BKN250 17/12 A3007 RMK CU1AC5CI1 SLP181=

CYQF;2006-07-08 06:00;METAR CYQF 080600Z 06005KT 15SM SCT080 BKN250 16/11 A3011 RMK AC3CI1 SLP196=

CYQF;2006-07-08 07:00;METAR CYQF 080700Z 00000KT 15SM FEW080 SCT250 13/10 A3012 RMK AC2CI1 OBS TKN H+12 SLP199=

CYQF;2006-07-08 08:00;METAR CYQF 080800Z 00000KT 15SM SCT080 BKN250 11/10 A3013 RMK AC3CI1 SLP203=

CYQF;2006-07-08 09:00;METAR CYQF 080900Z 00000KT 15SM SCT080 BKN250 12/10 A3015 RMK AC3CI1 SLP213=

CYQF;2006-07-08 10:00;METAR CYQF 081000Z 00000KT 15SM FEW050 SCT120 BKN250 11/10 A3017 RMK SC2AC2CI1 SLP220=

CYQF;2006-07-08 11:00;METAR CYQF 081100Z 00000KT 15SM FEW050 SCT250 10/09 A3018 RMK SC2CI0 SLP222=

CYQF;2006-07-08 12:00;METAR CYQF 081200Z 00000KT 15SM FEW050 SCT250 09/08 A3019 RMK SC2CI1 SLP227=

CYQF;2006-07-08 13:00;METAR CYQF 081300Z 20003KT 15SM FEW080 FEW250 10/09 A3019 RMK AC1CI0 SLP228=

CYQF;2006-07-08 14:00;METAR CYQF 081400Z 00000KT 15SM FEW100 FEW270 14/10 A3021 RMK AC1CI1 SLP234=

CYQF;2006-07-08 15:00;METAR CYQF 081500Z 00000KT 15SM FEW100 FEW270 17/08 A3022 RMK AC1CI1 SLP232=

CYQF;2006-07-08 16:00;METAR CYQF 081600Z 00000KT 15SM FEW100 FEW270 18/09 A3022 RMK AC1CI1 SLP234=

CYQF;2006-07-08 17:00;METAR CYQF 081700Z 00000KT 15SM FEW100 FEW270 20/05 A3022 RMK AC1CI1 SLP234=

CYQF;2006-07-08 18:00;METAR CYQF 081800Z 05006KT 15SM FEW100 FEW270 20/06 A3022 RMK AC1CI1 SLP234=

CYQF;2006-07-08 19:00;METAR CYQF 081900Z 23003KT 15SM FEW100 SCT270 22/07 A3022 RMK AC1CI2 SLP235=

CYQF;2006-07-08 20:00;METAR CYQF 082000Z 00000KT 15SM FEW100 SCT270 22/07 A3020 RMK AC1CI1 SLP230=

CYQF;2006-07-08 21:00;METAR CYQF 082100Z 15004KT 15SM FEW100 SCT270 24/09 A3018 RMK AC1CI1 SLP224=

CYQF;2006-07-08 22:00;METAR CYQF 082200Z 00000KT 15SM FEW070 SCT270 24/08 A3017 RMK CU1CI1 SLP221=

CYQF;2006-07-08 23:00;METAR CYQF 082300Z 00000KT 15SM FEW070 SCT270 24/09 A3017 RMK CU1CI1 SLP219=

CYQF;2006-07-09 00:00;METAR CYQF 090000Z 00000KT 15SM FEW070 FEW270 24/09 A3016 RMK CU1CI1 SLP217=

CYQF;2006-07-09 01:00;METAR CYQF 090100Z 17005KT 15SM FEW060 FEW270 25/09 A3014 RMK CU1CI1 SLP212=

CYQF;2006-07-09 02:00;METAR CYQF 090200Z 15004KT 15SM FEW060 FEW270 24/12 A3014 RMK CU1CI2 SLP212=

CYQF;2006-07-09 03:00;METAR CYQF 090300Z 13004KT 15SM FEW120 FEW270 22/12 A3014 RMK AC1CI1 SLP203=

CYQF;2006-07-09 04:00;METAR CYQF 090400Z 13004KT 15SM FEW120 FEW270 20/11 A3014 RMK AC2CI1 SLP203=

CYQF;2006-07-09 05:00;METAR CYQF 090500Z 13004KT 15SM FEW120 FEW270 18/10 A3013 RMK AC2CI1 SLP202=

CYQF;2006-07-09 06:00;METAR CYQF 090600Z 15003KT 15SM FEW120 16/11 A3012 RMK AC2 SLP201=

CYQF;2006-07-09 07:00;METAR CYQF 090700Z 15003KT 15SM FEW120 15/12 A3011 RMK AC1 SLP197=

CYQF;2006-07-09 08:00;METAR CYQF 090800Z 17006KT 15SM FEW120 15/11 A3010 RMK AC2 SLP193=

CYQF;2006-07-09 09:00;METAR CYQF 090900Z 18008KT 15SM FEW120 13/10 A3009 RMK AC1 SLP188=

CYQF;2006-07-09 10:00;METAR CYQF 091000Z 17006KT 15SM FEW120 14/10 A3007 RMK AC1 SLP183=

CYQF;2006-07-09 11:00;METAR CYQF 091100Z 19006KT 15SM FEW100 13/09 A3005 RMK AC2 SLP178=

CYQF;2006-07-09 12:00;METAR CYQF 091200Z 18004KT 15SM FEW090 13/09 A3005 RMK AC2 SLP174=

CYQF;2006-07-09 13:00;METAR CYQF 091300Z 17005KT 15SM FEW050 FEW250 14/10 A3003 RMK SC1CI1 SLP168=

CYQF;2006-07-09 14:00;METAR CYQF 091400Z 17004KT 15SM FEW050 FEW250 17/12 A3000 RMK SC1CI1 SLP161=

CYQF;2006-07-09 15:00;METAR CYQF 091500Z 16010KT 15SM FEW050 FEW250 20/13 A2999 RMK SC1CI1 SLP150=

CYQF;2006-07-09 16:00;METAR CYQF 091600Z 18005KT 15SM FEW050 FEW250 22/14 A2997 RMK SC1CI1 SLP145=

CYQF;2006-07-09 17:00;METAR CYQF 091700Z 28005KT 15SM FEW050TCU FEW250 23/14 A2996 RMK TCU1CI1 SLP140=

CYQF;2006-07-09 18:00;METAR CYQF 091800Z 35012G20KT 15SM FEW050TCU SCT250 24/14 A2996 RMK TCU2CI1 SLP142=

CYQF;2006-07-09 19:00;METAR CYQF 091900Z 04010KT 15SM FEW050CB SCT250 25/15 A2994 RMK CB2CI1 SLP136=

CYQF;2006-07-09 20:00;METAR CYQF 092000Z 01010G15KT 15SM FEW050CB SCT100 BKN250 26/13 A2993 RMK CB2AC2CI1 SLP133=

CYQF;2006-07-09 21:00;METAR CYQF 092100Z 01020G26KT 15SM FEW040CB BKN090 BKN250 23/13 A2993 RMK CB2AC2CI2 SLP135=

CYQF;2006-07-09 22:00;METAR CYQF 092200Z 36012G19KT 15SM BKN040CB BKN090 BKN250 21/13 A2993 RMK CB5AC1CI1 LTGCG SW SH SW+NW SLP136=

CYQF;2006-07-09 22:08;SPECI CYQF 092208Z 34010G15KT 15SM -TSRA FEW020 BKN040CB BKN090 BKN250 RMK CF1CB5AC2CI1 LTGCG=

CYQF;2006-07-09 23:00;METAR CYQF 092300Z 09005KT 15SM -TSRA BKN025CB BKN090 BKN250 18/15 A2992 RMK CB5AC2CI1 LTGCG HVYR SH SE-S SLP133=

CYQF;2006-07-09 23:31;SPECI CYQF 092331Z 12010KT 15SM BKN030CB BKN250 RMK CB5CI2 LTGCG E-SE=

CYQF;2006-07-10 00:00;METAR CYQF 100000Z 29010KT 15SM BKN035CB BKN090 BKN250 17/16 A2990 RETS RMK CB5AC1CI1 SLP133=

CYQF;2006-07-10 01:00;METAR CYQF 100100Z 00000KT 15SM FEW035TCU BKN090 BKN250 19/14 A2987 RMK TCU2AC3CI1 CB TPS DIST W SHS DIST E-SE SLP123=

CYQF;2006-07-10 02:00;METAR CYQF 100200Z 00000KT 15SM FEW035TCU SCT090 BKN270 20/15 A2982 RMK TCU2AC2CI2 CB TPS DIST W-NW SHS DIST E SLP106=

CYQF;2006-07-10 03:00;METAR CYQF 100300Z 26002KT 15SM FEW040TCU SCT090 BKN270 17/15 A2982 RMK TCU2AC2CI2 SHS DIST W-NW+E CB TPS S SLP098=

CYQF;2006-07-10 04:00;METAR CYQF 100400Z 00000KT 15SM SCT040 BKN090 BKN250 16/14 A2985 RMK CU4AC2CI1 CB EMBD SW LTGCGIC SW SHS SW-NW SLP105=

CYQF;2006-07-10 05:00;METAR CYQF 100500Z 00000KT 15SM SCT040 BKN090 BKN250 16/14 A2984 RMK CU4AC2CI1 CB EMBD/LTGICCG SW SHS SW-NW SLP103=

CYQF;2006-07-10 05:25;SPECI CYQF 100525Z 23002KT 15SM -SHRA SCT040 BKN090 BKN250 RMK CU4AC2CI1 CB EMBD LTGCCCG S=

CYQF;2006-07-10 06:00;METAR CYQF 100600Z 01002KT 15SM -SHRA BKN040 BKN090 OVC250 16/15 A2985 RMK CU5AC2CI1 CB EMBD LTGCCCG S SLP105=

CYQF;2006-07-10 08:00;METAR CYQF 100800Z 27004KT 15SM SCT040 BKN100 BKN250 15/14 A2980 RMK SC3AC2CI2 TCU EMBD SLP090=

CYQF;2006-07-10 09:00;METAR CYQF 100900Z 19004KT 15SM FEW040 SCT100 BKN250 14/14 A2979 RMK SC2AC2CI1 SLP085=

CYQF;2006-07-10 10:00;METAR CYQF 101000Z 16004KT 15SM FEW040 SCT250 13/13 A2976 RMK SC2CI0 BCFG SLP077=

CYQF;2006-07-10 10:33;SPECI CYQF 101033Z 20002KT 2SM BR FEW040 SCT250 RMK FG1SC2CI0=

CYQF;2006-07-10 11:00;METAR CYQF 101100Z 00000KT 2SM BR FEW040 SCT250 11/11 A2976 RMK FG1SC2CI0 SLP076=

CYQF;2006-07-10 11:18;SPECI CYQF 101118Z 20002KT 3/4SM BR FEW040 FEW250 RMK FG1SC1CI0=

CYQF;2006-07-10 13:00;METAR CYQF 101300Z 26003KT 1SM BR BKN080 BKN250 11/11 A2975 RMK FG1AC2CI1 SLP084=

CYQF;2006-07-10 13:11;SPECI CYQF 101311Z 00000KT 3SM BR BKN004 BKN100 BKN250 RMK ST5AC1CI0=

CYQF;2006-07-10 13:33;SPECI CYQF 101333Z 00000KT 4SM BR SCT004 BKN050 BKN100 BKN250 RMK ST3SC2AC1CI0=

CYQF;2006-07-10 14:00;METAR CYQF 101400Z 36004KT 4SM BR PRFG SCT004 BKN080 BKN250 14/14 A2973 RMK ST4AC2CI0 FG BNK N VIS N 2 SLP077=

CYQF;2006-07-10 14:06;SPECI CYQF 101406Z 33002KT 2SM BR BKN004 OVC080 RMK ST6AC1=

CYQF;2006-07-10 14:33;SPECI CYQF 101433Z 00000KT 4SM -SHRA BR BKN004 BKN080 RMK SF6AC1=

CYQF;2006-07-10 15:00;METAR CYQF 101500Z 00000KT 8SM -SHRA SCT006 BKN040 OVC080 15/15 A2975 RMK SF4SC2AC2 SLP076=

CYQF;2006-07-10 15:36;SPECI CYQF 101536Z 31002KT 8SM SCT007 BKN050 BKN080 RMK SF4SC2AC2 BR=

CYQF;2006-07-10 16:00;METAR CYQF 101600Z 00000KT 8SM BKN007 OVC050 16/15 A2974 RMK SF6SC2 BR SLP074=

CYQF;2006-07-10 17:00;METAR CYQF 101700Z 22008KT 8SM BKN007 OVC060 15/15 A2975 RMK SF6SC2 BR SLP078=

CYQF;2006-07-10 17:19;SPECI CYQF 101719Z 19004KT 8SM -SHRA BKN007 BKN060 OVC250 RMK SF5SC2CI1 BR=

CYQF;2006-07-10 18:00;METAR CYQF 101800Z 10005KT 8SM -SHRA BKN007 BKN060 OVC250 16/15 A2971 RMK SF5SC2CI1 BR SLP065=

CYQF;2006-07-10 18:19;SPECI CYQF 101819Z 16004KT 10SM BKN007 BKN060 RMK SF5SC2=

CYQF;2006-07-10 18:44;SPECI CYQF 101844Z 20006KT 12SM SCT008 BKN060 OVC250 RMK SF3SC3CI2=

CYQF;2006-07-10 19:00;METAR CYQF 101900Z 22005KT 12SM FEW008 BKN060 OVC250 17/15 A2969 RMK SF2SC5CI2 SHS E-S SLP059=

CYQF;2006-07-10 20:00;METAR CYQF 102000Z 00000KT 15SM BKN012 BKN060 OVC250 18/15 A2968 RMK SC5SC2CI1 SLP056=

CYQF;2006-07-10 21:00;METAR CYQF 102100Z 30004KT 15SM BKN016 BKN250 19/15 A2967 RMK SC5CI2 SLP050=

CYQF;2006-07-10 22:00;METAR CYQF 102200Z 31008KT 15SM BKN024TCU BKN250 20/13 A2967 RMK TCU5CI2 SLP049=

CYQF;2006-07-10 22:49;SPECI CYQF 102249Z 28008KT 15SM -SHRA BKN024TCU BKN100 BKN250 RMK TCU5AC1CI2=

CYQF;2006-07-10 23:00;METAR CYQF 102300Z 26006KT 15SM -SHRA BKN024TCU BKN100 BKN250 18/14 A2967 RMK TCU5AC1CI2 SLP048=

CYQF;2006-07-10 23:37;SPECI CYQF 102337Z 30006KT 15SM SCT024 BKN100 BKN250 RMK CU3AC2CI2 TCU ASOCTD=

CYQF;2006-07-11 00:00;METAR CYQF 110000Z 31009KT 15SM FEW030 BKN080 BKN250 20/10 A2966 RMK CU2AC2CI2 TCU ASOCTD SLP048=

CYQF;2006-07-11 01:00;METAR CYQF 110100Z 31009KT 15SM FEW030TCU FEW050 BKN090 BKN250 20/11 A2966 RMK TCU1SC2AC2CI1 SLP050=

CYQF;2006-07-11 02:00;METAR CYQF 110200Z 00000KT 15SM FEW030TCU BKN090 BKN250 19/13 A2967 RMK TCU2AC2CI1 VIRGA SE SLP053=

CYQF;2006-07-11 03:00;METAR CYQF 110300Z 00000KT 15SM FEW030TCU SCT090 BKN250 18/13 A2968 RMK TCU2AC1CI2 CB TP DIST W SLP054=

CYQF;2006-07-11 04:00;METAR CYQF 110400Z 30002KT 15SM SCT040TCU SCT090 BKN250 17/12 A2970 RMK TCU3AC1CI2 CB EMBD/SHS W-NW LTGCG NW SLP059=

CYQF;2006-07-11 05:00;METAR CYQF 110500Z 34013KT 15SM -TSRA BKN035CB BKN090 BKN250 14/11 A2973 RMK CB5AC1CI1 TSTM E+NE LTGICCCCG SE-E-NE SLP069=

CYQF;2006-07-11 05:35;SPECI CYQF 110535Z 29002KT 15SM SCT035 SCT090 BKN250 RMK SC3AC1CI0 CB EMBD NE=

CYQF;2006-07-11 07:00;METAR CYQF 110700Z 24004KT 15SM FEW035 FEW250 10/09 A2975 RMK SC1CI0 SLP082=

CYQF;2006-07-11 08:00;METAR CYQF 110800Z 25006KT 15SM FEW040 FEW250 10/09 A2976 RMK SC1CI0 SLP085=

CYQF;2006-07-11 09:00;METAR CYQF 110900Z 26005KT 15SM FEW040 FEW250 08/08 A2977 RMK SC1CI0 SLP089=

CYQF;2006-07-11 10:00;METAR CYQF 111000Z 18005KT 15SM FEW040 FEW250 07/07 A2978 RMK SC1CI0 SLP093=

CYQF;2006-07-11 11:00;METAR CYQF 111100Z 26008KT 15SM FEW040 FEW250 08/08 A2979 RMK SC1CI0 SLP095=

CYQF;2006-07-11 12:00;METAR CYQF 111200Z 28007KT 15SM FEW040 FEW250 08/08 A2980 RMK SC1CI0 SLP098=

CYQF;2006-07-11 13:00;METAR CYQF 111300Z 00000KT 15SM FEW250 09/09 A2981 RMK CI0 SLP101=

CYQF;2006-07-11 14:00;METAR CYQF 111400Z 23003KT 15SM FEW250 12/10 A2981 RMK CI0 SLP103=

CYQF;2006-07-11 15:00;METAR CYQF 111500Z 22002KT 15SM FEW100 FEW250 15/11 A2981 RMK AC1CI0 SLP099=

CYQF;2006-07-11 16:00;METAR CYQF 111600Z 00000KT 15SM FEW100 FEW250 16/11 A2982 RMK AC1CI1 SLP102=

CYQF;2006-07-11 17:00;METAR CYQF 111700Z 21003KT 15SM FEW100 FEW250 18/11 A2982 RMK AC1CI1 SLP100=

CYQF;2006-07-11 18:00;METAR CYQF 111800Z 19005KT 15SM FEW050 FEW250 20/11 A2981 RMK CU1CI1 SLP098=

CYQF;2006-07-11 19:00;METAR CYQF 111900Z 19006KT 15SM FEW050 SCT250 20/09 A2980 RMK CU1CI1 SLP094=

CYQF;2006-07-11 20:00;METAR CYQF 112000Z 16008KT 15SM FEW050 BKN250 21/10 A2979 RMK CU1CI2 SLP092=

CYQF;2006-07-11 21:00;METAR CYQF 112100Z 16007KT 15SM FEW050 BKN250 22/11 A2978 RMK CU1CI2 SLP090=

CYQF;2006-07-11 22:00;METAR CYQF 112200Z 15009KT 15SM FEW050 SCT120 BKN250 23/11 A2977 RMK CU1AC2CI1 SLP088=

CYQF;2006-07-11 23:00;METAR CYQF 112300Z 15010KT 15SM FEW050 SCT120 BKN250 22/12 A2976 RMK CU1AC3CI2 SLP084=

CYQF;2006-07-12 00:00;METAR CYQF 120000Z 16010KT 15SM FEW050 SCT120 BKN250 22/12 A2975 RMK CU1AC3CI2 SLP079=

CYQF;2006-07-12 01:00;METAR CYQF 120100Z 14005KT 15SM FEW050 SCT120 BKN250 23/13 A2973 RMK CU1AC3CI2 SLP074=

CYQF;2006-07-12 02:00;METAR CYQF 120200Z 13009KT 15SM FEW050 SCT120 BKN250 23/14 A2972 RMK CU1AC3CI2 SLP071=

CYQF;2006-07-12 03:00;METAR CYQF 120300Z 06003KT 15SM SCT060 BKN120 BKN250 21/14 A2973 RMK SC3AC2CI0 SLP065=

CYQF;2006-07-12 04:00;METAR CYQF 120400Z 04003KT 15SM FEW020 SCT060 BKN120 19/14 A2973 RMK CU1SC3AC1 CB/LTGCG DIST N SLP065=

CYQF;2006-07-12 05:00;METAR CYQF 120500Z 01006KT 15SM BKN060 BKN120 19/13 A2973 RMK SC5AC1 SLP067=

CYQF;2006-07-12 06:00;METAR CYQF 120600Z 36007KT 15SM BKN060 BKN120 18/14 A2975 RMK SC5AC2 SLP071=

CYQF;2006-07-12 07:00;METAR CYQF 120700Z 03008KT 15SM BKN060 BKN120 17/11 A2975 RMK SC5AC1 SLP071=

CYQF;2006-07-12 08:00;METAR CYQF 120800Z 35007KT 15SM SCT060 BKN110 16/11 A2976 RMK SC4AC1 SLP073=

CYQF;2006-07-12 09:00;METAR CYQF 120900Z 36007KT 15SM SCT060 BKN250 15/09 A2975 RMK SC3CI1 SLP072=

CYQF;2006-07-12 10:00;METAR CYQF 121000Z 34006KT 15SM SCT060 BKN250 12/10 A2975 RMK SC3CI1 SLP070=

CYQF;2006-07-12 11:00;METAR CYQF 121100Z 29005KT 15SM BKN060 BKN250 12/10 A2977 RMK SC5CI2 SLP077=

CYQF;2006-07-12 12:00;METAR CYQF 121200Z 30005KT 15SM BKN060 BKN090 BKN250 12/10 A2977 RMK SC5AC1CI1 SLP081=

CYQF;2006-07-12 13:00;METAR CYQF 121300Z 34007KT 15SM BKN060 BKN090 BKN250 13/10 A2977 RMK SC5AC2CI1 SLP081=

CYQF;2006-07-12 14:00;METAR CYQF 121400Z 00000KT 15SM SCT060 BKN090 BKN250 13/10 A2977 RMK SC2AC2CI2 SLP081=

CYQF;2006-07-12 15:00;METAR CYQF 121500Z 33005KT 15SM FEW055 BKN090 BKN250 14/10 A2977 RMK SC2AC3CI2 SLP082=

CYQF;2006-07-12 16:00;METAR CYQF 121600Z 33007KT 15SM FEW055 BKN090 BKN250 15/11 A2977 RMK SC2AC2CI2 SLP081=

CYQF;2006-07-12 17:00;METAR CYQF 121700Z 02005KT 15SM FEW055 SCT090 BKN250 17/12 A2976 RMK SC2AC2CI1 SLP079=

CYQF;2006-07-12 18:00;METAR CYQF 121800Z 03005KT 15SM FEW055 SCT090 BKN250 18/12 A2976 RMK SC2AC2CI2 SLP076=

CYQF;2006-07-12 19:00;METAR CYQF 121900Z 06002KT 15SM FEW055 BKN090 BKN250 19/13 A2976 RMK SC2AC3CI2 SLP078=

CYQF;2006-07-12 20:00;METAR CYQF 122000Z 04005KT 15SM FEW050 BKN090 BKN250 20/13 A2976 RMK SC2AC3CI2 SLP077=

CYQF;2006-07-12 21:00;METAR CYQF 122100Z 03003KT 15SM FEW025 FEW050 BKN100 BKN250 21/13 A2976 RMK SC1SC2AC2CI2 SLP077=

CYQF;2006-07-12 22:00;METAR CYQF 122200Z 06006KT 15SM FEW025 SCT050 BKN100 BKN250 21/14 A2976 RMK SC1CU2AC2CI2 SLP077=

CYQF;2006-07-12 23:00;METAR CYQF 122300Z 03002KT 15SM SCT040 BKN100 BKN250 22/14 A2976 RMK CU3AC2CI2 TCU EMBD W SLP075=

CYQF;2006-07-13 00:00;METAR CYQF 130000Z 07008KT 15SM SCT040TCU BKN100 BKN250 22/14 A2974 RMK TCU3AC2CI2 VIRGA SLP071=

CYQF;2006-07-13 01:00;METAR CYQF 130100Z 04005KT 15SM SCT040CB SCT100 BKN250 20/14 A2973 RMK CB3AC1CI1 SHRA DIST SW SLP069=

CYQF;2006-07-13 01:46;SPECI CYQF 130146Z 00000KT 15SM -SHRA SCT040CB SCT100 BKN250 RMK CB3AC1CI2 HVY SHS SW=

CYQF;2006-07-13 02:00;METAR CYQF 130200Z 00000KT 15SM -SHRA SCT040CB BKN100 BKN250 20/15 A2974 RMK CB3AC2CI2 HVY SHS SW SLP070=

CYQF;2006-07-13 02:29;SPECI CYQF 130229Z 06004KT 15SM SCT040CB BKN100 BKN250 RMK CB3AC3CI1 CB/LTGCG S=

CYQF;2006-07-13 03:00;METAR CYQF 130300Z 00000KT 15SM SCT040CB BKN090 BKN250 19/14 A2974 RMK CB3AC3CI1 CB/LTGCG SE-S SLP073=

CYQF;2006-07-13 04:00;METAR CYQF 130400Z 00000KT 15SM SCT050CB BKN090 BKN250 17/14 A2975 RMK CB3AC2CI0 CB/LTGICCC DIST E-SE SLP077=

CYQF;2006-07-13 05:00;METAR CYQF 130500Z 00000KT 15SM SCT060 BKN100 15/13 A2976 RMK SC4AC2 CB/LTGICCG DIST SE+NW SLP079=

CYQF;2006-07-13 06:00;METAR CYQF 130600Z 00000KT 15SM FEW060CB BKN100 15/13 A2976 RMK CB2AC2 LTGIC NW SLP079=

CYQF;2006-07-13 07:00;METAR CYQF 130700Z 00000KT 15SM FEW060CB FEW250 12/11 A2975 RMK CB1CI0 LTGIC DIST NW SLP077=

CYQF;2006-07-13 08:00;METAR CYQF 130800Z 29004KT 15SM FEW060 FEW250 11/11 A2976 RMK SC1CI1 SLP078=

CYQF;2006-07-13 09:00;METAR CYQF 130900Z 36003KT 15SM FEW060 SCT250 13/12 A2977 RMK SC1CI0 SLP083=

CYQF;2006-07-13 10:00;METAR CYQF 131000Z 00000KT 10SM PRFG FEW060 SCT250 10/09 A2977 RMK SC1CI1 SLP084=

CYQF;2006-07-13 10:27;SPECI CYQF 131027Z 17003KT 1SM BR SCT070 BKN250 RMK FG2AC1CI1 VIS N 3=

CYQF;2006-07-13 11:00;METAR CYQF 131100Z 00000KT 1SM BR BKN070 BKN250 09/09 A2977 RMK FG2AC2CI1 VIS S-SW 1/2 SLP083=

CYQF;2006-07-13 11:35;SPECI CYQF 131135Z 23005KT 3/4SM BR BKN070 RMK FG5AC2 VIS S-SW 1/8=

CYQF;2006-07-13 11:44;SPECI CYQF 131144Z 25004KT 1/4SM FG BKN070 RMK FG5AC2=

CYQF;2006-07-13 12:00;METAR CYQF 131200Z 26005KT 3/4SM BR BKN070 10/10 A2979 RMK FG3AC2 SLP090=

CYQF;2006-07-13 12:22;SPECI CYQF 131222Z 26004KT 6SM BR FEW050 SCT090 RMK CU1AC2=

CYQF;2006-07-13 13:00;METAR CYQF 131300Z 00000KT 10SM FEW040TCU SCT100 12/12 A2980 RMK TCU1AC2 FG S SLP094=

CYQF;2006-07-13 14:00;METAR CYQF 131400Z 00000KT 15SM FEW040TCU FEW100 SCT250 14/12 A2981 RMK TCU1AC1CI1 SLP098=

CYQF;2006-07-13 15:00;METAR CYQF 131500Z 29006KT 15SM FEW015 FEW050TCU FEW100 16/13 A2982 RMK SF1TCU1AC1 SLP098=

CYQF;2006-07-13 16:00;METAR CYQF 131600Z 00000KT 15SM FEW015 FEW050TCU SCT250 18/14 A2982 RMK SC1TCU1CI1 SLP098=

CYQF;2006-07-13 17:00;METAR CYQF 131700Z 29008KT 15SM FEW040TCU BKN200 20/12 A2982 RMK TCU2CI2 SLP097=

CYQF;2006-07-13 18:00;METAR CYQF 131800Z 33005KT 15SM FEW040TCU SCT200 21/09 A2982 RMK TCU2CI1 SLP096=

CYQF;2006-07-13 19:00;METAR CYQF 131900Z 28005KT 15SM FEW045TCU SCT200 23/08 A2982 RMK TCU2CI1 SLP097=

CYQF;2006-07-13 20:00;METAR CYQF 132000Z 26005KT 15SM FEW055TCU SCT110 BKN250 22/07 A2982 RMK TCU2AC2CI1 SLP097=

CYQF;2006-07-13 21:00;METAR CYQF 132100Z 28004KT 15SM FEW055TCU SCT110 BKN250 24/08 A2981 RMK TCU2AC2CI1 SLP092=

CYQF;2006-07-13 22:00;METAR CYQF 132200Z 20006KT 15SM FEW055TCU SCT100 BKN250 25/08 A2980 RMK TCU2AC2CI1 SLP091=

CYQF;2006-07-13 23:00;METAR CYQF 132300Z 18004KT 15SM SCT055TCU BKN250 24/07 A2980 RMK TCU4CI0 SLP090=

CYQF;2006-07-14 00:00;METAR CYQF 140000Z 17008KT 15SM SCT055TCU BKN250 22/08 A2979 RMK TCU3CI1 SLP093=

CYQF;2006-07-14 01:00;METAR CYQF 140100Z 14008KT 15SM SCT055TCU BKN250 23/09 A2978 RMK TCU3CI1 SLP088=

CYQF;2006-07-14 02:00;METAR CYQF 140200Z 31002KT 15SM FEW055 SCT250 23/10 A2977 RMK SC2CI1 FEW TCU SLP087=

CYQF;2006-07-14 03:00;METAR CYQF 140300Z 30007KT 15SM FEW050 FEW250 21/08 A2979 RMK SC1CI1 TCU NE SLP085=

CYQF;2006-07-14 04:00;METAR CYQF 140400Z 01015G22KT 15SM FEW050 FEW250 16/09 A2985 RMK SC2CI0 CB DIST NE SLP102=

CYQF;2006-07-14 05:00;METAR CYQF 140500Z 01007KT 15SM FEW050 14/09 A2988 RMK SC1 SLP112=

CYQF;2006-07-14 06:00;METAR CYQF 140600Z 26005KT 15SM FEW050 10/07 A2991 RMK SC1 SLP134=

CYQF;2006-07-14 07:00;METAR CYQF 140700Z 28004KT 15SM SKC 10/08 A2991 RMK SLP134=

CYQF;2006-07-14 08:00;METAR CYQF 140800Z 26004KT 15SM FEW090 08/07 A2991 RMK AC1 SLP135=

CYQF;2006-07-14 09:00;METAR CYQF 140900Z 00000KT 15SM SCT090 09/07 A2992 RMK AC3 SLP134=

CYQF;2006-07-14 10:00;METAR CYQF 141000Z 18003KT 15SM SCT080 BKN250 07/06 A2992 RMK AC2CI0 SLP136=

CYQF;2006-07-14 11:00;METAR CYQF 141100Z 00000KT 15SM FEW080 SCT250 07/06 A2993 RMK AC2CI0 SLP138=

CYQF;2006-07-14 12:00;METAR CYQF 141200Z 00000KT 15SM PRFG FEW040 SCT080 07/06 A2994 RMK CU1AC2 SLP146=

CYQF;2006-07-14 13:00;METAR CYQF 141300Z 00000KT 15SM SCT060 08/08 A2994 RMK SC3 SLP146=

CYQF;2006-07-14 14:00;METAR CYQF 141400Z 00000KT 15SM BKN060 11/09 A2993 RMK SC6 SLP145=

CYQF;2006-07-14 15:00;METAR CYQF 141500Z 00000KT 15SM BKN060 12/10 A2993 RMK SC6 SLP139=

CYQF;2006-07-14 16:00;METAR CYQF 141600Z 20003KT 15SM BKN060 16/11 A2993 RMK SC5 SLP137=

CYQF;2006-07-14 17:00;METAR CYQF 141700Z 20003KT 15SM FEW070 SCT200 19/11 A2991 RMK AC2CI0 SLP132=

CYQF;2006-07-14 18:00;METAR CYQF 141800Z 24002KT 15SM SCT055 SCT200 21/07 A2991 RMK CU3CI0 SLP133=

CYQF;2006-07-14 19:00;METAR CYQF 141900Z 26008KT 15SM SCT060 23/08 A2990 RMK CU3 TCU ASOCTD SLP132=

CYQF;2006-07-14 20:00;METAR CYQF 142000Z 30006KT 15SM SCT060 22/07 A2990 RMK CU4 TCU ASOCTD SLP130=

CYQF;2006-07-14 21:00;METAR CYQF 142100Z 30004KT 15SM FEW060 SCT210 23/08 A2988 RMK CU2CI0 TCU ASOCTD SLP124=

CYQF;2006-07-14 22:00;METAR CYQF 142200Z 34007KT 15SM SCT060 SCT210 24/07 A2988 RMK CU3CI0 SLP123=

CYQF;2006-07-14 23:00;METAR CYQF 142300Z 36004KT 15SM SCT060TCU BKN210 22/07 A2988 RMK TCU4CI1 VIRGA SLP123=

CYQF;2006-07-15 00:00;METAR CYQF 150000Z 00000KT 15SM FEW060 FEW210 23/07 A2988 RMK CU2CI0 TCU ASOCTD SLP124=

CYQF;2006-07-15 01:00;METAR CYQF 150100Z 00000KT 15SM FEW060 SCT210 23/08 A2987 RMK CU2CI0 TCU ASOCTD SLP122=

CYQF;2006-07-15 02:00;METAR CYQF 150200Z 06005KT 15SM FEW060 FEW210 23/08 A2988 RMK CU1CI0 SLP124=

CYQF;2006-07-15 03:00;METAR CYQF 150300Z 08008KT 15SM FEW060TCU FEW210 20/11 A2989 RMK TCU1CI0 SLP125=

CYQF;2006-07-15 05:00;METAR CYQF 150500Z 00000KT 15SM FEW050 15/11 A2992 RMK SC2 TCU ASOCTD SLP135=

CYQF;2006-07-15 06:00;METAR CYQF 150600Z 31004KT 15SM FEW050 14/10 A2994 RMK SC1 OBS TAKEN +17 SLP139=

CYQF;2006-07-15 07:00;METAR CYQF 150700Z 00000KT 15SM FEW080 12/10 A2993 RMK AC1 SLP137=

CYQF;2006-07-15 08:00;METAR CYQF 150800Z 00000KT 15SM FEW080 10/08 A2995 RMK AC1 SLP142=

CYQF;2006-07-15 09:00;METAR CYQF 150900Z 20004KT 15SM FEW080 SCT250 10/08 A2994 RMK AC1CI1 SLP141=

CYQF;2006-07-15 10:00;METAR CYQF 151000Z 00000KT 15SM FEW080 BKN250 09/08 A2994 RMK AC1CI2 SLP141=

CYQF;2006-07-15 11:00;METAR CYQF 151100Z 00000KT 15SM FEW070 BKN250 09/07 A2994 RMK AC1CI2 SLP141=

CYQF;2006-07-15 12:00;METAR CYQF 151200Z 00000KT 15SM FEW050 SCT090 BKN250 08/08 A2994 RMK SC1AC2CI2 SLP144=

CYQF;2006-07-15 13:00;METAR CYQF 151300Z 00000KT 15SM FEW050 SCT090 BKN250 10/09 A2995 RMK SC2AC2CI2 SLP149=

CYQF;2006-07-15 14:00;METAR CYQF 151400Z 00000KT 15SM FEW050 FEW090 BKN250 12/10 A2995 RMK SC2AC1CI2 SLP149=

CYQF;2006-07-15 15:00;METAR CYQF 151500Z 00000KT 15SM FEW050 SCT250 15/10 A2995 RMK SC2CI1 SLP143=

CYQF;2006-07-15 16:00;METAR CYQF 151600Z 00000KT 15SM FEW050 FEW100 SCT250 18/10 A2995 RMK SC2AC1CI1 SLP144=

CYQF;2006-07-15 17:00;METAR CYQF 151700Z 35005KT 15SM FEW050 FEW100 SCT250 21/10 A2994 RMK SC1AC1CI1 SLP140=

CYQF;2006-07-15 18:00;METAR CYQF 151800Z 34003KT 15SM FEW050 FEW100 FEW250 21/10 A2994 RMK CU1AC1CI0 SLP140=

CYQF;2006-07-15 19:00;METAR CYQF 151900Z 35008KT 15SM FEW050 FEW100 FEW250 23/10 A2994 RMK CU1AC1CI0 SLP138=

CYQF;2006-07-15 20:00;METAR CYQF 152000Z 01004KT 15SM FEW060 FEW100 SCT250 24/10 A2993 RMK CU2AC1CI0 SLP136=

CYQF;2006-07-15 21:00;METAR CYQF 152100Z 36010KT 15SM FEW060TCU SCT250 24/10 A2992 RMK TCU2CI0 SLP136=

CYQF;2006-07-15 22:00;METAR CYQF 152200Z 02010G17KT 15SM FEW060TCU SCT250 24/10 A2993 RMK TCU2CI0 SLP137=

CYQF;2006-07-15 23:00;METAR CYQF 152300Z 02012G20KT 15SM FEW060TCU FEW250 24/09 A2993 RMK TCU1CI1 SLP137=

CYQF;2006-07-16 00:00;METAR CYQF 160000Z 02011KT 15SM FEW060TCU FEW250 23/09 A2993 RMK TCU1CI1 SLP140=

CYQF;2006-07-16 01:00;METAR CYQF 160100Z 03011KT 15SM FEW055 FEW250 23/08 A2993 RMK CU1CI1 TCU ASOCTD SLP139=

CYQF;2006-07-16 02:00;METAR CYQF 160200Z 03008KT 15SM FEW055 22/08 A2993 RMK CU1 TCU ASOCTD SLP141=

CYQF;2006-07-16 03:00;METAR CYQF 160300Z 03006KT 15SM FEW050 21/08 A2994 RMK CU1 CB TOP DIST NW SLP140=

CYQF;2006-07-16 04:00;METAR CYQF 160400Z 03004KT 15SM FEW050 17/08 A2996 RMK CU1 CB TOPS DIST=

CYQF;2006-07-16 05:00;METAR CYQF 160500Z 34002KT 15SM FEW050 15/08 A2999 RMK CU1 LTGIC NW+NE SLP155=

CYQF;2006-07-16 06:00;METAR CYQF 160600Z 18003KT 15SM FEW050 12/08 A3001 RMK CU1 SLP165=

CYQF;2006-07-16 07:00;METAR CYQF 160700Z 34010G15KT 15SM SCT070 13/09 A3005 RMK AC4 SLP178=

CYQF;2006-07-16 08:00;METAR CYQF 160800Z 36010KT 15SM BKN070 12/09 A3008 RMK AC3 SLP188=

CYQF;2006-07-16 09:00;METAR CYQF 160900Z 33004KT 15SM BKN070 12/09 A3010 RMK AC2 SLP196=

CYQF;2006-07-16 10:00;METAR CYQF 161000Z 28004KT 15SM SCT050 10/08 A3011 RMK SC2 SLP197=

CYQF;2006-07-16 11:00;METAR CYQF 161100Z 29005KT 15SM BKN040 11/09 A3013 RMK SC6 SLP204=

CYQF;2006-07-16 12:00;METAR CYQF 161200Z 30003KT 15SM BKN035 11/08 A3015 RMK SC7 SLP212=

CYQF;2006-07-16 13:00;METAR CYQF 161300Z 30003KT 15SM BKN035 12/08 A3016 RMK SC7 SLP217=

CYQF;2006-07-16 14:00;METAR CYQF 161400Z 27003KT 15SM BKN050 12/08 A3017 RMK SC6 SLP219=

CYQF;2006-07-16 15:00;METAR CYQF 161500Z 31007KT 15SM BKN050 14/06 A3018 RMK SC6 SLP225=

CYQF;2006-07-16 16:00;METAR CYQF 161600Z 31005KT 15SM FEW050 15/07 A3019 RMK SC2 SLP227=

CYQF;2006-07-16 17:00;METAR CYQF 161700Z 33010KT 15SM FEW050 17/04 A3018 RMK SC2 SLP225=

CYQF;2006-07-16 18:00;METAR CYQF 161800Z 33012KT 15SM FEW050 18/02 A3017 RMK CU2 SLP226=

CYQF;2006-07-16 19:00;METAR CYQF 161900Z 32004KT 15SM FEW050 20/05 A3018 RMK CU1 SLP227=

CYQF;2006-07-16 20:00;METAR CYQF 162000Z 33008KT 15SM FEW050 20/04 A3017 RMK CU1 SLP225=

CYQF;2006-07-16 21:00;METAR CYQF 162100Z 30010KT 15SM FEW050 FEW210 22/05 A3016 RMK CU1CI0 SLP218=

CYQF;2006-07-16 22:00;METAR CYQF 162200Z 30009KT 15SM FEW060 FEW220 22/04 A3015 RMK CU1CI1 SLP215=

CYQF;2006-07-16 23:00;METAR CYQF 162300Z 31006KT 15SM FEW060 FEW220 22/02 A3015 RMK CU1CI1 SLP213=

CYQF;2006-07-17 00:00;METAR CYQF 170000Z 01003KT 15SM FEW060 SCT220 22/03 A3014 RMK CU1CI1 SLP211=

CYQF;2006-07-17 01:00;METAR CYQF 170100Z 00000KT 15SM FEW220 22/03 A3014 RMK CI1 SLP210=

CYQF;2006-07-17 02:00;METAR CYQF 170200Z 21002KT 15SM SCT220 22/04 A3014 RMK CI2 SLP212=

CYQF;2006-07-17 03:00;METAR CYQF 170300Z 00000KT 15SM FEW100 BKN220 20/06 A3015 RMK AC1CI2 SLP212=

CYQF;2006-07-17 04:00;METAR CYQF 170400Z 20004KT 15SM FEW100 BKN220 16/08 A3015 RMK AC1CI2 SLP215=

CYQF;2006-07-17 05:00;METAR CYQF 170500Z 00000KT 15SM SCT120 SCT220 15/09 A3017 RMK AC3CI0 SLP220=

CYQF;2006-07-17 06:00;METAR CYQF 170600Z 00000KT 15SM SCT120 BKN250 13/09 A3017 RMK AC3CI1 SLP224=

CYQF;2006-07-17 07:00;METAR CYQF 170700Z 00000KT 15SM SCT120 BKN250 14/09 A3016 RMK AC3CI3 SLP222=

CYQF;2006-07-17 08:00;METAR CYQF 170800Z 00000KT 15SM FEW070 SCT120 BKN250 14/09 A3016 RMK AC2AC2CI2 SLP220=

CYQF;2006-07-17 09:00;METAR CYQF 170900Z 00000KT 15SM BKN070 OVC120 14/09 A3015 RMK AC6AC2 SLP212=

CYQF;2006-07-17 10:00;METAR CYQF 171000Z 00000KT 15SM BKN070 BKN120 14/10 A3015 RMK AC6AC2 SLP212=

CYQF;2006-07-17 11:00;METAR CYQF 171100Z 15006KT 15SM FEW070 SCT120 12/09 A3014 RMK AC2AC1 SLP208=

CYQF;2006-07-17 12:00;METAR CYQF 171200Z 18008KT 15SM FEW070 FEW150 10/08 A3013 RMK AC1AC0 SLP207=

CYQF;2006-07-17 13:00;METAR CYQF 171300Z 15004KT 15SM FEW070 FEW210 12/08 A3012 RMK AC1CI1 SLP206=

CYQF;2006-07-17 14:00;METAR CYQF 171400Z 14006KT 15SM FEW070 SCT210 15/09 A3011 RMK AC1CI1 SLP202=

CYQF;2006-07-17 15:00;METAR CYQF 171500Z 17012KT 15SM FEW050TCU SCT210 18/08 A3009 RMK TCU1CI2 SLP187=

CYQF;2006-07-17 16:00;METAR CYQF 171600Z 17012KT 15SM FEW080 SCT210 20/08 A3007 RMK AC1CI2 SLP181=

CYQF;2006-07-17 17:00;METAR CYQF 171700Z 18012G18KT 15SM FEW050TCU FEW100 BKN210 22/09 A3005 RMK TCU1AC1CI2 SLP174=

CYQF;2006-07-17 18:00;METAR CYQF 171800Z 17012G18KT 15SM FEW050TCU BKN210 23/10 A3002 RMK TCU2CI2 SLP168=

CYQF;2006-07-17 19:00;METAR CYQF 171900Z 16008KT 15SM FEW050 BKN210 23/11 A3000 RMK SC2CI2 SLP160=

CYQF;2006-07-17 20:00;METAR CYQF 172000Z 14012KT 15SM FEW050 BKN210 26/11 A2996 RMK SC2CI1 SLP148=

CYQF;2006-07-17 21:00;METAR CYQF 172100Z 14011KT 15SM BKN050TCU BKN210 27/11 A2992 RMK TCU5CI1 SHRA W SLP127=

CYQF;2006-07-17 21:29;SPECI CYQF 172129Z 12010KT 15SM TS BKN050CB RMK CB6 SHRA W-N-NE=

CYQF;2006-07-17 22:00;METAR CYQF 172200Z 02006KT 15SM TS FEW035 BKN050CB 24/11 A2992 RMK CF2CB5 SHRA W-N-NE SLP125=

CYQF;2006-07-17 22:25;SPECI CYQF 172225Z 01013KT 15SM -TSRA FEW035 BKN050CB RMK CF1CB6 LTGCCCG=

CYQF;2006-07-17 23:00;METAR CYQF 172300Z 33012KT 15SM -SHRA FEW035 BKN050CB 17/12 A2993 RMK CF1CB5 RETS SLP130=

CYQF;2006-07-17 23:31;SPECI CYQF 172331Z 09012KT 15SM FEW050CB SCT090 RMK CB2AC1 SHRA E=

CYQF;2006-07-18 00:00;METAR CYQF 180000Z 07012KT 15SM SCT050CB BKN090 23/13 A2988 RMK CB4AC1 SHRA N+E SLP122=

CYQF;2006-07-18 00:44;SPECI CYQF 180044Z 33012KT 15SM -TSRA SCT050CB BKN090 RMK CB4AC1=

CYQF;2006-07-18 01:00;METAR CYQF 180100Z 08012KT 15SM +TSRAGR BKN050CB BKN090 BKN250 18/12 A2987 RMK CB5AC1CI1 HAIL DIAM 12 MM SLP120=

CYQF;2006-07-18 01:47;SPECI CYQF 180147Z 17004KT 15SM -SHRA FEW045TCU SCT090 SCT250 RMK TCU2AC1CI0 CB E RERA RETS=

CYQF;2006-07-18 02:00;METAR CYQF 180200Z 13003KT 15SM FEW045TCU SCT090 SCT250 18/14 A2988 RMK TCU2AC1CI0 CB E RERA RETS SLP122=

CYQF;2006-07-18 03:00;METAR CYQF 180300Z 36010KT 15SM FEW045TCU SCT250 18/12 A2988 RMK TCU2CI1 HVY SHRA+CB E SLP119=

CYQF;2006-07-18 04:00;METAR CYQF 180400Z 36010G20KT 15SM FEW045TCU SCT250 16/11 A2993 RMK TCU2CI1 CB+LTGCCCGIC E CB DIST NW SLP133=

CYQF;2006-07-18 05:00;METAR CYQF 180500Z 36010G20KT 15SM SCT045TCU SCT250 14/10 A2998 RMK TCU3CI1 CB N+E LTGICCCCG SLP149=

CYQF;2006-07-18 06:00;METAR CYQF 180600Z 36010G17KT 15SM FEW050 SCT250 13/09 A3000 RMK SC2CI0 SLP161=

CYQF;2006-07-18 07:00;METAR CYQF 180700Z 36009KT 15SM FEW050 SCT250 12/09 A3001 RMK SC2CI0 SLP164=

CYQF;2006-07-18 08:00;METAR CYQF 180800Z 32009KT 15SM FEW050 SCT100 12/09 A3003 RMK SC2AC2 SLP168=

CYQF;2006-07-18 09:00;METAR CYQF 180900Z 31006KT 15SM FEW050 BKN100 12/09 A3002 RMK SC2AC4 SLP164=

CYQF;2006-07-18 10:00;METAR CYQF 181000Z 28005KT 15SM FEW050 BKN100 10/09 A3003 RMK SC2AC5 SLP165=

CYQF;2006-07-18 11:00;METAR CYQF 181100Z 00000KT 15SM SCT050 BKN100 11/09 A3004 RMK SC4AC2 SLP170=

CYQF;2006-07-18 12:00;METAR CYQF 181200Z 25005KT 15SM -SHRA FEW050 BKN080 11/10 A3004 RMK SC2AC5 SLP177=

CYQF;2006-07-18 12:34;SPECI CYQF 181234Z 23004KT 15SM FEW050 BKN080 RMK SC2AC5=

CYQF;2006-07-18 13:00;METAR CYQF 181300Z 22004KT 15SM SCT050 BKN080 11/10 A3004 RMK SC3AC4 SLP177=

CYQF;2006-07-18 14:00;METAR CYQF 181400Z 23004KT 15SM -RA FEW050 BKN080 12/10 A3005 RMK SC2AC5 SLP179=

CYQF;2006-07-18 14:46;SPECI CYQF 181446Z 22003KT 15SM FEW050 BKN080 RMK SC2AC4=

CYQF;2006-07-18 15:00;METAR CYQF 181500Z 25003KT 15SM FEW050 BKN080 12/10 A3005 RMK SC2AC4 SLP183=

CYQF;2006-07-18 16:00;METAR CYQF 181600Z 26004KT 15SM FEW050 BKN080 14/10 A3005 RMK SC2AC4 SLP183=

CYQF;2006-07-18 17:00;METAR CYQF 181700Z 24004KT 15SM FEW030 BKN080 BKN120 15/11 A3005 RMK CU1AC3AC2 SLP183=

CYQF;2006-07-18 18:00;METAR CYQF 181800Z 28005KT 15SM FEW030 SCT080 SCT250 17/10 A3004 RMK CU2AC1CI1 SLP181=

CYQF;2006-07-18 19:00;METAR CYQF 181900Z 32005KT 15SM SCT040 SCT250 19/09 A3003 RMK CU3CI1 SLP176=

CYQF;2006-07-18 20:00;METAR CYQF 182000Z 28008KT 15SM SCT050 BKN100 BKN250 19/07 A3002 RMK CU4AC1CI1 TCU ASOCTD SLP175=

CYQF;2006-07-18 21:00;METAR CYQF 182100Z 27005KT 15SM SCT050 SCT100 BKN250 20/08 A3002 RMK CU3AC1CI1 SLP172=

CYQF;2006-07-18 22:00;METAR CYQF 182200Z 29010KT 15SM SCT050 BKN100 BKN250 20/08 A3002 RMK CU4AC2CI1 TCU ASOCTD LTGCG+HVY SH SW SLP171=

CYQF;2006-07-18 23:00;METAR CYQF 182300Z 26008KT 15SM SCT050TCU SCT100 19/07 A3002 RMK TCU3AC1 CB ASOCTD SLP172=

CYQF;2006-07-19 00:00;METAR CYQF 190000Z 25005KT 15SM FEW050TCU SCT250 20/06 A3002 RMK TCU2CI1 SLP172=

CYQF;2006-07-19 01:00;METAR CYQF 190100Z 32004KT 15SM FEW050 SCT250 21/07 A3001 RMK CU2CI1 FEW TCU SLP170=

CYQF;2006-07-19 02:00;METAR CYQF 190200Z 32005KT 15SM SCT050 SCT250 19/09 A3002 RMK CU3CI1 TCU ASCTD/SHS DIST W SLP172=

CYQF;2006-07-19 03:00;METAR CYQF 190300Z 00000KT 15SM FEW050 SCT080 SCT250 16/10 A3003 RMK CU2AC2CI1 SLP179=

CYQF;2006-07-19 05:00;METAR CYQF 190500Z 03005KT 15SM SCT080 SCT250 14/09 A3007 RMK AC3CI0 SLP190=

CYQF;2006-07-19 06:00;METAR CYQF 190600Z 30002KT 15SM SCT080 11/08 A3007 RMK AC3 SLP194=

CYQF;2006-07-19 07:00;METAR CYQF 190700Z 00000KT 15SM FEW080 11/08 A3008 RMK AC2 SLP197=

CYQF;2006-07-19 08:00;METAR CYQF 190800Z 34002KT 15SM FEW100 10/08 A3010 RMK AC1 SLP201=

CYQF;2006-07-19 09:00;METAR CYQF 190900Z 00000KT 15SM FEW100 08/07 A3011 RMK AC1 SLP205=

CYQF;2006-07-19 10:00;METAR CYQF 191000Z 24003KT 15SM FEW100 06/05 A3012 RMK AC2 SLP210=

CYQF;2006-07-19 11:00;METAR CYQF 191100Z 26003KT 15SM FEW100 07/05 A3013 RMK AC1 SLP211=

CYQF;2006-07-19 12:00;METAR CYQF 191200Z 00000KT 15SM FEW080 06/05 A3014 RMK AC1 SLP219=

CYQF;2006-07-19 13:00;METAR CYQF 191300Z 18004KT 15SM FEW080 06/05 A3015 RMK AC1 SLP223=

CYQF;2006-07-19 14:00;METAR CYQF 191400Z 19004KT 15SM FEW040 FEW080 10/09 A3017 RMK CU1AC1 SLP229=

CYQF;2006-07-19 15:00;METAR CYQF 191500Z 20003KT 15SM FEW040 FEW080 14/10 A3017 RMK CU1AC1 SLP226=

CYQF;2006-07-19 16:00;METAR CYQF 191600Z 27003KT 15SM FEW040 FEW080 16/09 A3017 RMK CU1AC1 SLP226=

CYQF;2006-07-19 17:00;METAR CYQF 191700Z 26006KT 15SM FEW040 FEW080 17/09 A3017 RMK CU1AC1 SLP225=

CYQF;2006-07-19 18:00;METAR CYQF 191800Z 35003KT 15SM FEW040 19/08 A3016 RMK CU2 SLP221=

CYQF;2006-07-19 19:00;METAR CYQF 191900Z 00000KT 15SM FEW050 SCT250 20/08 A3015 RMK CU2CI0 SLP220=

CYQF;2006-07-19 20:00;METAR CYQF 192000Z 00000KT 15SM SCT050 BKN250 20/09 A3015 RMK CU3CS0 SLP218=

CYQF;2006-07-19 21:00;METAR CYQF 192100Z 20007KT 15SM SCT050 BKN250 22/10 A3014 RMK CU3CI1 SLP214=

CYQF;2006-07-19 22:00;METAR CYQF 192200Z 18004KT 15SM FEW050 BKN250 23/09 A3012 RMK CU2CI2 SLP209=

CYQF;2006-07-19 23:00;METAR CYQF 192300Z 17005KT 15SM FEW050 BKN250 22/09 A3011 RMK CU2CS2 SLP204=

CYQF;2006-07-20 00:00;METAR CYQF 200000Z 15007KT 15SM FEW050 BKN250 22/09 A3009 RMK CU1CS2 SLP200=

CYQF;2006-07-20 01:00;METAR CYQF 200100Z 13008KT 15SM FEW050 BKN250 22/11 A3008 RMK CU1CS4 SLP198=

CYQF;2006-07-20 02:00;METAR CYQF 200200Z 14006KT 15SM FEW120 BKN250 21/12 A3007 RMK AC1CS3 SLP195=

CYQF;2006-07-20 04:00;METAR CYQF 200400Z 09004KT 15SM FEW120 BKN250 17/12 A3008 RMK AC2CI2 SLP191=

CYQF;2006-07-20 05:00;METAR CYQF 200500Z 14003KT 15SM FEW120 BKN250 16/12 A3008 RMK AC2CI2 SLP190=

CYQF;2006-07-20 06:00;METAR CYQF 200600Z 14002KT 15SM SCT120 OVC250 16/12 A3007 RMK AC3CI2 SLP187=

CYQF;2006-07-20 07:00;METAR CYQF 200700Z 00000KT 15SM BKN090 OVC250 15/12 A3008 RMK AC5CI2=

CYQF;2006-07-20 08:00;METAR CYQF 200800Z 03003KT 15SM SCT090 BKN250 15/12 A3008 RMK AC4CI2 SLP190=

CYQF;2006-07-20 09:00;METAR CYQF 200900Z 05005KT 15SM SCT090 BKN250 16/11 A3010 RMK AC3CI3 SLP191=

CYQF;2006-07-20 10:00;METAR CYQF 201000Z 04007KT 15SM FEW090 BKN250 15/11 A3010 RMK AC2CI2 SLP193=

CYQF;2006-07-20 11:00;METAR CYQF 201100Z 00000KT 15SM BKN090 BKN250 15/11 A3011 RMK AC5CI0 SLP194=

CYQF;2006-07-20 12:00;METAR CYQF 201200Z 18005KT 15SM FEW050 BKN090 14/12 A3011 RMK SC1AC5 SLP197=

CYQF;2006-07-20 13:00;METAR CYQF 201300Z 00000KT 15SM FEW050 BKN090 14/12 A3014 RMK SC1AC4 SLP206=

CYQF;2006-07-20 14:00;METAR CYQF 201400Z 27003KT 15SM FEW090 15/12 A3016 RMK AC2 SLP212=

CYQF;2006-07-20 15:00;METAR CYQF 201500Z 28007KT 15SM FEW100 18/13 A3018 RMK AC2 SLP220=

CYQF;2006-07-20 16:00;METAR CYQF 201600Z 33003KT 15SM FEW100 19/13 A3020 RMK AC2 SLP226=

CYQF;2006-07-20 17:00;METAR CYQF 201700Z 32010KT 15SM FEW040 FEW100 21/12 A3021 RMK CU1AC1 SLP231=

CYQF;2006-07-20 18:00;METAR CYQF 201800Z 32010KT 15SM FEW040TCU 22/11 A3022 RMK TCU1 SLP232=

CYQF;2006-07-20 19:00;METAR CYQF 201900Z 36007KT 15SM FEW050 23/10 A3023 RMK CU2 TCU ASOCTD SLP235=

CYQF;2006-07-20 20:00;METAR CYQF 202000Z 33005KT 15SM SCT050 24/10 A3023 RMK CU3 SLP235=

CYQF;2006-07-20 21:00;METAR CYQF 202100Z 29003KT 15SM FEW050 25/11 A3024 RMK CU2 SLP236=

CYQF;2006-07-20 22:00;METAR CYQF 202200Z 34004KT 15SM FEW060 25/11 A3025 RMK CU2 SLP239=

CYQF;2006-07-20 23:00;METAR CYQF 202300Z 36004KT 15SM FEW060 25/10 A3024 RMK CU2 SLP237=

CYQF;2006-07-21 00:00;METAR CYQF 210000Z 00000KT 15SM FEW060 26/10 A3024 RMK CU1 SLP239=

CYQF;2006-07-21 01:00;METAR CYQF 210100Z 00000KT 15SM SKC 26/10 A3025 RMK SLP242=

CYQF;2006-07-21 02:00;METAR CYQF 210200Z 00000KT 15SM SKC 25/12 A3026 RMK SLP245=

CYQF;2006-07-21 03:00;METAR CYQF 210300Z 00000KT 15SM SKC 23/13 A3027 RMK SLP248=

CYQF;2006-07-21 04:00;METAR CYQF 210400Z 00000KT 15SM SKC 18/13 A3029 RMK SLP253=

CYQF;2006-07-21 05:00;METAR CYQF 210500Z 20004KT 15SM SKC 15/12 A3029 RMK SLP254=

CYQF;2006-07-21 06:00;METAR CYQF 210600Z 20004KT 15SM SKC 15/12 A3030 RMK SLP261=

CYQF;2006-07-21 07:00;METAR CYQF 210700Z 00000KT 15SM SKC 14/10 A3030 RMK SLP262=

CYQF;2006-07-21 08:00;METAR CYQF 210800Z 23004KT 15SM SKC 13/11 A3030 RMK SLP263=

CYQF;2006-07-21 09:00;METAR CYQF 210900Z 20003KT 15SM SKC 12/10 A3031 RMK SLP267=

CYQF;2006-07-21 10:00;METAR CYQF 211000Z 21004KT 15SM SKC 11/10 A3032 RMK SLP268=

CYQF;2006-07-21 11:00;METAR CYQF 211100Z 20003KT 15SM SKC 11/09 A3033 RMK SLP271=

CYQF;2006-07-21 12:00;METAR CYQF 211200Z 20004KT 15SM SCT250 10/09 A3034 RMK CI1 SLP277=

CYQF;2006-07-21 13:00;METAR CYQF 211300Z 20004KT 15SM SCT250 12/10 A3034 RMK CI1 SLP278=

CYQF;2006-07-21 14:00;METAR CYQF 211400Z 23002KT 15SM FEW250 15/12 A3036 RMK CI1 SLP283=

CYQF;2006-07-21 15:00;METAR CYQF 211500Z 00000KT 15SM SCT270 19/14 A3036 RMK CI2 SLP279=

CYQF;2006-07-21 16:00;METAR CYQF 211600Z 00000KT 15SM SCT270 23/12 A3036 RMK CI2 SLP278=

CYQF;2006-07-21 17:00;METAR CYQF 211700Z 02003KT 15SM SCT270 25/13 A3035 RMK CI2 SLP276=

CYQF;2006-07-21 18:00;METAR CYQF 211800Z 00000KT 15SM SCT270 26/13 A3034 RMK CI2 SLP271=

CYQF;2006-07-21 19:00;METAR CYQF 211900Z 15003KT 15SM SCT270 28/14 A3032 RMK CI2 SLP266=

CYQF;2006-07-21 20:00;METAR CYQF 212000Z 20002KT 15SM FEW270 28/12 A3032 RMK CI2 SLP265=

CYQF;2006-07-21 21:00;METAR CYQF 212100Z 28004KT 15SM FEW270 29/12 A3031 RMK CI1 SLP261=

CYQF;2006-07-21 22:00;METAR CYQF 212200Z 19005KT 15SM FEW270 30/12 A3029 RMK CI2 SLP256=

CYQF;2006-07-21 23:00;METAR CYQF 212300Z 23003KT 15SM FEW270 29/11 A3028 RMK CI2 SLP251=

CYQF;2006-07-22 00:00;METAR CYQF 220000Z 17002KT 15SM FEW270 29/12 A3027 RMK CI2 SLP249=

CYQF;2006-07-22 01:00;METAR CYQF 220100Z 19003KT 15SM FEW250 29/13 A3025 RMK CI1 SLP244=

CYQF;2006-07-22 02:00;METAR CYQF 220200Z 17004KT 15SM FEW120 FEW250 29/15 A3025 RMK AC1CI0 SLP241=

CYQF;2006-07-22 03:00;METAR CYQF 220300Z 16004KT 15SM FEW120 FEW250 26/17 A3024 RMK AC2CI0 SLP231=

CYQF;2006-07-22 05:00;METAR CYQF 220500Z 19003KT 15SM FEW120 SCT250 20/16 A3023 RMK AC1CI1 SLP230=

CYQF;2006-07-22 06:00;METAR CYQF 220600Z 17003KT 15SM FEW120 SCT250 17/14 A3023 RMK AC1CI1 SLP231=

CYQF;2006-07-22 07:00;METAR CYQF 220700Z 20003KT 15SM FEW120 16/13 A3022 RMK AC1 SLP229=

CYQF;2006-07-22 08:00;METAR CYQF 220800Z 19004KT 15SM SKC 16/13 A3022 RMK SLP227=

CYQF;2006-07-22 09:00;METAR CYQF 220900Z 20005KT 15SM SKC 15/13 A3021 RMK SLP222=

CYQF;2006-07-22 10:00;METAR CYQF 221000Z 00000KT 15SM FEW250 15/12 A3019 RMK CI1 SLP218=

CYQF;2006-07-22 11:00;METAR CYQF 221100Z 00000KT 15SM FEW120 SCT250 15/13 A3019 RMK AC1CI1 SLP216=

CYQF;2006-07-22 12:00;METAR CYQF 221200Z 00000KT 15SM FEW120 SCT250 13/12 A3018 RMK AC1CI2 SLP214=

CYQF;2006-07-22 13:00;METAR CYQF 221300Z 00000KT 15SM BKN250 14/12 A3018 RMK CI2 SLP214=

CYQF;2006-07-22 14:00;METAR CYQF 221400Z 23002KT 15SM SCT250 17/15 A3017 RMK CI2 SLP213=

CYQF;2006-07-22 15:00;METAR CYQF 221500Z 20003KT 15SM SCT250 21/16 A3016 RMK CI1 SLP205=

CYQF;2006-07-22 16:00;METAR CYQF 221600Z 16004KT 15SM SCT250 25/16 A3015 RMK CI1 SLP200=

CYQF;2006-07-22 17:00;METAR CYQF 221700Z 20008KT 15SM BKN250 27/15 A3014 RMK CI2 SLP197=

CYQF;2006-07-22 18:00;METAR CYQF 221800Z 18010KT 15SM BKN250 29/15 A3012 RMK CI2 SLP190=

CYQF;2006-07-22 19:00;METAR CYQF 221900Z 16012KT 15SM BKN250 29/15 A3011 RMK CI3 SLP186=

CYQF;2006-07-22 20:00;METAR CYQF 222000Z 17012KT 15SM FEW140 BKN250 29/16 A3010 RMK AC2CI3 SLP184=

CYQF;2006-07-22 21:00;METAR CYQF 222100Z 20008KT 15SM FEW140 BKN250 32/16 A3008 RMK AC2CI3 SLP176=

CYQF;2006-07-22 22:00;METAR CYQF 222200Z 20008KT 15SM FEW140 BKN250 32/16 A3007 RMK AC2CI3 SLP172=

CYQF;2006-07-22 23:00;METAR CYQF 222300Z 24007KT 15SM FEW140 BKN250 31/16 A3006 RMK AC2CI3 SLP169=

CYQF;2006-07-23 00:00;METAR CYQF 230000Z 22002KT 15SM FEW120 BKN240 31/16 A3005 RMK AC2CS4 SLP167=

CYQF;2006-07-23 01:00;METAR CYQF 230100Z 00000KT 15SM FEW120 BKN240 31/16 A3003 RMK AC2CC3 SLP163=

CYQF;2006-07-23 02:00;METAR CYQF 230200Z 19002KT 15SM FEW120 BKN240 28/19 A3002 RMK AC2CC3 SLP159=

CYQF;2006-07-23 03:00;METAR CYQF 230300Z 29002KT 15SM FEW120 BKN240 27/20 A3002 RMK AC2CI2 CC ASOCTD SLP155=

CYQF;2006-07-23 04:00;METAR CYQF 230400Z 00000KT 15SM FEW120 BKN240 23/18 A3004 RMK AC1CI3 CC ASOCTD SLP159=

CYQF;2006-07-23 05:00;METAR CYQF 230500Z 00000KT 15SM FEW120 BKN240 20/17 A3003 RMK AC1CI2 SLP157=

CYQF;2006-07-23 06:00;METAR CYQF 230600Z 00000KT 15SM SCT240 20/16 A3003 RMK CI2 SLP155=

CYQF;2006-07-23 07:00;METAR CYQF 230700Z 00000KT 15SM FEW090 SCT240 19/17 A3002 RMK AC1CI1=

CYQF;2006-07-23 08:00;METAR CYQF 230800Z 20006KT 15SM FEW080 17/16 A3003 RMK AC2 LTNG SE-S SLP156=

CYQF;2006-07-23 09:00;METAR CYQF 230900Z 27007KT 15SM FEW080 17/17 A3004 RMK AC2 SLP160=

CYQF;2006-07-23 10:00;METAR CYQF 231000Z 34004KT 15SM FEW080 SCT240 17/15 A3003 RMK AC2CI1 SLP155=

CYQF;2006-07-23 12:00;METAR CYQF 231200Z 00000KT 15SM FEW070 SCT120 16/13 A3004 RMK ACC2AC2 SLP161=

CYQF;2006-07-23 13:00;METAR CYQF 231300Z 25005KT 15SM FEW070 BKN120 16/14 A3003 RMK ACC2AC2 SLP160=

CYQF;2006-07-23 14:00;METAR CYQF 231400Z 22004KT 15SM FEW070 BKN250 17/14 A3003 RMK ACC2CI2 SLP160=

CYQF;2006-07-23 15:00;METAR CYQF 231500Z 26007KT 15SM FEW050 SCT080 BKN250 21/15 A3003 RMK SC2AC2CI1 TCU ASOCTD SLP157=

CYQF;2006-07-23 16:00;METAR CYQF 231600Z 27005KT 15SM FEW050 FEW090 BKN250 21/16 A3002 RMK SC1AC1CI1 SLP153=

CYQF;2006-07-23 17:00;METAR CYQF 231700Z 32007KT 15SM FEW250 26/14 A3001 RMK CI1 SLP151=

CYQF;2006-07-23 18:00;METAR CYQF 231800Z 36007KT 15SM FEW080 SCT250 28/15 A3000 RMK AC1CI2 SLP147=

CYQF;2006-07-23 19:00;METAR CYQF 231900Z 04003KT 15SM FEW060 SCT250 29/14 A2998 RMK CU1CI1 SLP143=

CYQF;2006-07-23 20:00;METAR CYQF 232000Z 23002KT 15SM FEW060 SCT250 31/14 A2996 RMK SC1CI1 SLP137=

CYQF;2006-07-23 21:00;METAR CYQF 232100Z 17006KT 15SM FEW060 SCT250 31/13 A2995 RMK SC1CI2 TCU SE SLP128=

CYQF;2006-07-23 22:00;METAR CYQF 232200Z 25004KT 15SM FEW070TCU BKN250 33/14 A2994 RMK TCU2CI2 SLP126=

CYQF;2006-07-23 23:00;METAR CYQF 232300Z 31018G26KT 15SM BKN060TCU BKN250 25/11 A2998 RMK TCU5CI1 CB ASOCTD SH W-N PRESRR SLP137=

CYQF;2006-07-23 23:49;SPECI CYQF 232349Z 31016G28KT 15SM BKN055CB BKN250 RMK CB6CI1=

CYQF;2006-07-24 00:00;METAR CYQF 240000Z 31015G26KT 15SM BKN055CB BKN250 22/13 A2995 RMK CB6CI1 LTGCG SHRA W SLP141=

CYQF;2006-07-24 00:34;SPECI CYQF 240034Z 32012KT 15SM BKN055CB BKN250 RMK CB6CI2 VIRGA RETS=

CYQF;2006-07-24 01:00;METAR CYQF 240100Z 28003KT 15SM SCT055TCU BKN250 24/13 A2992 RMK TCU4CI2 VIRGA CB E RETS SLP130=

CYQF;2006-07-24 02:00;METAR CYQF 240200Z 06005KT 15SM FEW055TCU BKN250 24/13 A2994 RMK TCU2CI2 SLP135=

CYQF;2006-07-24 03:00;METAR CYQF 240300Z 27008KT 15SM FEW050 BKN250 21/15 A2996 RMK SC2CI1 TCU ASOCTD SLP140=

CYQF;2006-07-24 04:00;METAR CYQF 240400Z 18003KT 15SM FEW050 BKN250 19/14 A2995 RMK SC2CI2 SLP138=

CYQF;2006-07-24 05:00;METAR CYQF 240500Z 16007KT 15SM FEW050 SCT250 17/14 A2993 RMK SC1CI1 SLP131=

CYQF;2006-07-24 06:00;METAR CYQF 240600Z 23002KT 15SM FEW050 SCT250 17/14 A2994 RMK SC1CI1 SLP130=

CYQF;2006-07-24 08:00;METAR CYQF 240800Z 00000KT 15SM FEW250 15/13 A2992 RMK CI2 SLP125=

CYQF;2006-07-24 09:00;METAR CYQF 240900Z 21004KT 15SM FEW250 12/11 A2992 RMK CI2 SLP124=

CYQF;2006-07-24 10:00;METAR CYQF 241000Z 20004KT 15SM SCT100 13/11 A2988 RMK AC3 SLP113=

CYQF;2006-07-24 11:00;METAR CYQF 241100Z 21003KT 15SM FEW100 SCT250 13/12 A2988 RMK AC2CI0 OBS TAKEN +08 SLP112=

CYQF;2006-07-24 12:00;METAR CYQF 241200Z 22006KT 15SM FEW050TCU SCT090 BKN250 13/12 A2988 RMK TCU2AC2CI1 SLP120=

CYQF;2006-07-24 13:00;METAR CYQF 241300Z 25004KT 15SM FEW050TCU SCT090 BKN250 14/13 A2990 RMK TCU2AC2CI1 SLP124=

CYQF;2006-07-24 14:00;METAR CYQF 241400Z 22002KT 15SM SCT050 BKN090 BKN250 15/14 A2990 RMK SC3AC2CI1 TCU ASOCTD SLP126=

CYQF;2006-07-24 15:00;METAR CYQF 241500Z 25012KT 15SM BKN060 BKN090 OVC250 18/15 A2993 RMK SC5AC2CI1 TCU ASOCTD SLP133=

CYQF;2006-07-24 16:00;METAR CYQF 241600Z 30008KT 15SM BKN060 OVC090 19/14 A2992 RMK SC6AC2 TCU ASOCTD SLP130=

CYQF;2006-07-24 17:00;METAR CYQF 241700Z 29009KT 15SM BKN060 OVC090 21/13 A2992 RMK SC6AC2 SLP130=

CYQF;2006-07-24 18:00;METAR CYQF 241800Z 27010KT 15SM VCSH BKN060 BKN090 BKN250 19/16 A2991 RMK SC5AC2CI1 SHS SW SLP128=

CYQF;2006-07-24 19:00;METAR CYQF 241900Z 29010KT 15SM SCT060 BKN090 BKN250 24/15 A2991 RMK SC4AC2CI2 SLP127=

CYQF;2006-07-24 20:00;METAR CYQF 242000Z 29005KT 15SM FEW060 BKN090 BKN250 24/15 A2991 RMK SC2AC2CI2 SLP127=

CYQF;2006-07-24 21:00;METAR CYQF 242100Z 34006KT 15SM FEW060 SCT090 BKN250 26/14 A2991 RMK CU1AC2CI2 SLP126=

CYQF;2006-07-24 22:00;METAR CYQF 242200Z 36007KT 15SM FEW060 BKN250 27/13 A2989 RMK CU2CI2 SLP122=

CYQF;2006-07-24 23:00;METAR CYQF 242300Z 04007KT 15SM FEW060 SCT250 28/12 A2988 RMK CU2CI1 SLP118=

CYQF;2006-07-25 00:00;METAR CYQF 250000Z 00000KT 15SM FEW060 SCT120 BKN250 27/12 A2987 RMK CU2AC1CI1 TCU ASOCTD SLP112=

CYQF;2006-07-25 01:00;METAR CYQF 250100Z 03003KT 15SM FEW060 FEW120 SCT250 27/13 A2987 RMK CU2AC1CI1 SLP110=

CYQF;2006-07-25 02:00;METAR CYQF 250200Z 00000KT 15SM BKN060CB BKN120 25/14 A2988 RMK CB5AC1 SHRA VIRGA DIST W-NW SLP113=

CYQF;2006-07-25 02:30;SPECI CYQF 250230Z 01004KT 15SM -SHRA BKN060CB BKN120 RMK CB6AC2 LTGCG W=

CYQF;2006-07-25 02:51;SPECI CYQF 250251Z 00000KT 12SM -TSRA BKN060CB BKN120 RMK CB5AC2 LTGCG=

CYQF;2006-07-25 03:00;METAR CYQF 250300Z 24012KT 12SM -TSRA BKN060CB BKN120 BKN270 21/17 A2991 RMK CB5AC2CI0 LTGCG SLP124=

CYQF;2006-07-25 03:13;SPECI CYQF 250313Z 21012KT 15SM VCSH BKN060CB BKN120 BKN270 RMK CB5AC2CI0 RETS SHRA E-S=

CYQF;2006-07-25 04:00;METAR CYQF 250400Z 00000KT 15SM BKN055 BKN120 BKN270 19/16 A2991 RMK SC5AC2CI1 CB DIST E TCU EMBDD VIRGA SLP126=

CYQF;2006-07-25 06:00;METAR CYQF 250600Z 00000KT 15SM FEW050 SCT120 17/16 A2991 RMK SC2AC2 CB LTG DIST NW SLP128=

CYQF;2006-07-25 07:00;METAR CYQF 250700Z 00000KT 15SM SCT050 BKN100 17/16 A2992 RMK SC3AC2 SLP131=

CYQF;2006-07-25 08:00;METAR CYQF 250800Z 34002KT 15SM FEW050 FEW100 15/14 A2992 RMK SC1AC2 SLP131=

CYQF;2006-07-25 09:00;METAR CYQF 250900Z 00000KT 15SM FEW100 15/14 A2991 RMK AC2 SLP125=

CYQF;2006-07-25 10:00;METAR CYQF 251000Z 00000KT 15SM FEW050 BKN100 13/13 A2991 RMK SC1AC4 SLP123=

CYQF;2006-07-25 11:00;METAR CYQF 251100Z 22002KT 15SM FEW050 BKN100 13/13 A2991 RMK SC2AC2 SLP123=

CYQF;2006-07-25 11:52;SPECI CYQF 251152Z 26002KT 15SM -TSRA SCT040 BKN090 RMK CU3AC2 CB EMBD LTGCG W CB TPS DIST S=

CYQF;2006-07-25 12:00;METAR CYQF 251200Z 11010KT 15SM -TSRA SCT040 BKN090 15/14 A2989 RMK CU3AC2 CB EMBD NE CB TOS DIST S SLP116=

CYQF;2006-07-25 12:23;SPECI CYQF 251223Z 18004KT 15SM SCT040 BKN090 RMK CU3AC2 SHS NE CB TP DIST S=

CYQF;2006-07-25 13:00;METAR CYQF 251300Z 00000KT 15SM FEW040TCU SCT100 15/14 A2991 RMK TCU2AC2 SLP121=

CYQF;2006-07-25 14:00;METAR CYQF 251400Z 00000KT 15SM FEW050 17/15 A2990 RMK SC2 SLP118=

CYQF;2006-07-25 15:00;METAR CYQF 251500Z 16007KT 15SM FEW050 20/17 A2989 RMK SC2 SLP115=

CYQF;2006-07-25 16:00;METAR CYQF 251600Z 15010G15KT 15SM FEW070 FEW250 22/16 A2987 RMK ACC1CI0 SLP111=

CYQF;2006-07-25 17:00;METAR CYQF 251700Z 18010G15KT 15SM FEW070 FEW250 24/15 A2986 RMK ACC1CI0 SLP108=

CYQF;2006-07-25 18:00;METAR CYQF 251800Z 16012G17KT 15SM FEW040 25/15 A2986 RMK CU1 SLP105=

CYQF;2006-07-25 19:00;METAR CYQF 251900Z 18013KT 15SM FEW045 26/16 A2985 RMK CU2 TCU ASOCTD SLP101=

CYQF;2006-07-25 20:00;METAR CYQF 252000Z 20011KT 15SM FEW050 FEW110 28/15 A2983 RMK CU2AC1 TCU ASOCTD SLP096=

CYQF;2006-07-25 21:00;METAR CYQF 252100Z 21006KT 15SM FEW055 SCT250 28/14 A2980 RMK CU2CI2 SLP084=

CYQF;2006-07-25 22:00;METAR CYQF 252200Z 20006KT 15SM SCT055TCU BKN250 28/14 A2979 RMK TCU3CI2 CB TOPS W-NW SLP081=

CYQF;2006-07-25 23:00;METAR CYQF 252300Z 24003KT 15SM FEW055TCU SCT100 BKN250 28/15 A2979 RMK TCU2AC1CI2 CB TOPS ALQDS SLP079=

CYQF;2006-07-26 00:00;METAR CYQF 260000Z 26003KT 15SM FEW055TCU SCT120 BKN250 28/13 A2979 RMK TCU2AC2CI1 CB SW-SE SHS DIST S SLP079=

CYQF;2006-07-26 01:00;METAR CYQF 260100Z 01004KT 15SM SCT055TCU SCT120 BKN250 28/13 A2979 RMK TCU3AC1CI1 CB/SHS DIST E-S SLP079=

CYQF;2006-07-26 02:00;METAR CYQF 260200Z 08007KT 15SM SCT055TCU BKN120 BKN250 25/16 A2981 RMK TCU3AC2CI1 CB/SHS DIST E-SW SLP085=

CYQF;2006-07-26 03:46;SPECI CYQF 260346Z 19007KT 15SM TS BKN050CB BKN100 BKN250 RMK CB5AC1CI1 HVY SHS/LTGCG SE+SW=

CYQF;2006-07-26 04:00;METAR CYQF 260400Z 18004KT 15SM TS BKN050CB BKN100 BKN250 21/15 A2984 RMK CB5AC1CI1 HVY SHS/LTGCG E+SW SLP098=

CYQF;2006-07-26 04:16;SPECI CYQF 260416Z 12012KT 15SM -TSRA BKN050CB BKN100 BKN250 RMK CB5AC1CI1 LTGCG S+E HVY SHS E+S+NW=

CYQF;2006-07-26 05:00;METAR CYQF 260500Z 31010KT 15SM -TSRA BKN050CB BKN100 OVC250 19/16 A2985 RMK CB5AC2CI1 LTGCG/IC W-NE SLP100=

CYQF;2006-07-26 07:00;METAR CYQF 260700Z 35006KT 15SM BKN050CB BKN100 18/14 A2983 RMK CB5AC2 LTGCG/IC SW-NW SLP093=

CYQF;2006-07-26 09:00;METAR CYQF 260900Z 19005KT 15SM BKN050 BKN100 15/14 A2986 RMK SC5AC2 SLP104=

CYQF;2006-07-26 10:00;METAR CYQF 261000Z 24005KT 15SM SCT050 BKN100 15/14 A2988 RMK SC4AC2 SLP109=

CYQF;2006-07-26 11:00;METAR CYQF 261100Z 00000KT 15SM FEW050 SCT100 BKN250 15/14 A2988 RMK SC2AC2CI0 SLP110=

CYQF;2006-07-26 12:00;METAR CYQF 261200Z 00000KT 15SM FEW050 SCT100 14/13 A2988 RMK SC2AC1 SLP111=

CYQF;2006-07-26 13:00;METAR CYQF 261300Z 00000KT 15SM FEW050 FEW100 14/14 A2988 RMK SC1AC2 SLP112=

CYQF;2006-07-26 14:00;METAR CYQF 261400Z 22004KT 15SM FEW090 16/15 A2989 RMK AC2 SLP116=

CYQF;2006-07-26 15:00;METAR CYQF 261500Z 27007KT 15SM SCT090 19/15 A2990 RMK AC4 SLP120=

CYQF;2006-07-26 16:00;METAR CYQF 261600Z 28004KT 15SM FEW090 20/15 A2991 RMK AC2 SLP123=

CYQF;2006-07-26 17:00;METAR CYQF 261700Z 32006KT 15SM FEW090 22/15 A2990 RMK AC2 SLP121=

CYQF;2006-07-26 18:00;METAR CYQF 261800Z 32007KT 15SM FEW250 23/15 A2990 RMK CI1 SLP118=

CYQF;2006-07-26 19:00;METAR CYQF 261900Z 00000KT 15SM FEW040 SCT250 24/14 A2989 RMK CU1CI2 SLP116=

CYQF;2006-07-26 20:00;METAR CYQF 262000Z 00000KT 15SM FEW050 BKN250 26/14 A2987 RMK CU1CI2 SLP109=

CYQF;2006-07-26 21:00;METAR CYQF 262100Z 04006KT 15SM FEW050 BKN250 27/12 A2985 RMK CU1CI2 SLP101=

CYQF;2006-07-26 22:00;METAR CYQF 262200Z 00000KT 15SM FEW050 BKN250 27/10 A2984 RMK CU1CI3 SLP096=

CYQF;2006-07-26 23:00;METAR CYQF 262300Z 00000KT 15SM FEW050 BKN250 27/11 A2982 RMK CU1CI2 SLP090=

CYQF;2006-07-27 00:00;METAR CYQF 270000Z 12003KT 15SM FEW090 BKN250 28/13 A2980 RMK AC1CI2 SLP085=

CYQF;2006-07-27 01:00;METAR CYQF 270100Z 16003KT 15SM BKN110 BKN250 27/13 A2979 RMK AC5CI1 SLP083=

CYQF;2006-07-27 02:00;METAR CYQF 270200Z 16002KT 15SM BKN110 BKN250 26/13 A2979 RMK AC6CI1 SLP083=

CYQF;2006-07-27 03:00;METAR CYQF 270300Z 35004KT 15SM BKN110 BKN250 24/15 A2981 RMK AC6CI1 SLP088=

CYQF;2006-07-27 04:00;METAR CYQF 270400Z 36008KT 15SM SCT050 BKN100 BKN250 23/12 A2984 RMK SC3AC2CI1 TCU ASOCTD SLP096=

CYQF;2006-07-27 05:00;METAR CYQF 270500Z 01010G15KT 15SM BKN050 BKN100 18/13 A2988 RMK SC6AC2 SLP108=

CYQF;2006-07-27 06:00;METAR CYQF 270600Z 02010G15KT 15SM BKN050 OVC100 17/12 A2992 RMK SC6AC2 OBS TKN +10 SLP129=

CYQF;2006-07-27 07:00;METAR CYQF 270700Z 02009KT 15SM SCT060 BKN110 16/13 A2993 RMK SC4AC2 SLP132=

CYQF;2006-07-27 08:00;METAR CYQF 270800Z 00000KT 15SM FEW060 SCT110 15/13 A2993 RMK SC2AC2 SLP131=

CYQF;2006-07-27 09:00;METAR CYQF 270900Z 21002KT 15SM BKN120 14/13 A2993 RMK AC6 SLP130=

CYQF;2006-07-27 10:00;METAR CYQF 271000Z 25005KT 15SM FEW075 BKN120 14/13 A2995 RMK AC2AC4 SLP136=

CYQF;2006-07-27 11:00;METAR CYQF 271100Z 24005KT 15SM SCT070 BKN120 14/13 A2994 RMK AC3AC3 SLP133=

CYQF;2006-07-27 12:00;METAR CYQF 271200Z 00000KT 15SM FEW070 BKN100 15/13 A2995 RMK AC2AC4 SLP134=

CYQF;2006-07-27 13:00;METAR CYQF 271300Z 00000KT 15SM BKN080 15/13 A2995 RMK AC6 SLP137=

CYQF;2006-07-27 14:00;METAR CYQF 271400Z 25003KT 15SM BKN080 16/14 A2995 RMK AC7 SLP137=

CYQF;2006-07-27 15:00;METAR CYQF 271500Z 23003KT 15SM BKN060 BKN100 17/14 A2995 RMK SC5AC2 SLP138=

CYQF;2006-07-27 16:00;METAR CYQF 271600Z 26004KT 15SM FEW030 SCT060 BKN100 20/14 A2995 RMK CU1SC2AC1 SLP136=

CYQF;2006-07-27 17:00;METAR CYQF 271700Z 19004KT 15SM FEW040 SCT100 22/12 A2994 RMK CU2AC2 SLP133=

CYQF;2006-07-27 18:00;METAR CYQF 271800Z 23004KT 15SM FEW040 BKN100 22/12 A2994 RMK CU2AC3 SLP134=

CYQF;2006-07-27 19:00;METAR CYQF 271900Z 21006KT 15SM FEW040 BKN100 23/11 A2993 RMK CU2AC4 SLP132=

CYQF;2006-07-27 20:00;METAR CYQF 272000Z 22002KT 15SM SCT045 BKN100 23/11 A2992 RMK CU3AC3 SLP128=

CYQF;2006-07-27 21:00;METAR CYQF 272100Z 13004KT 15SM FEW045 BKN100 24/11 A2991 RMK CU2AC2 SLP126=

CYQF;2006-07-27 22:00;METAR CYQF 272200Z 12005KT 15SM SCT050 BKN100 24/12 A2990 RMK CU3AC2 SLP123=

CYQF;2006-07-27 23:00;METAR CYQF 272300Z 15003KT 15SM FEW050 SCT100 25/12 A2989 RMK CU2AC2 SLP120=

CYQF;2006-07-28 00:00;METAR CYQF 280000Z 16004KT 15SM FEW050 BKN100 25/11 A2989 RMK CU2AC2 SLP117=

CYQF;2006-07-28 01:00;METAR CYQF 280100Z 12004KT 15SM FEW050 BKN100 25/11 A2988 RMK CU2AC2 SLP116=

CYQF;2006-07-28 02:00;METAR CYQF 280200Z 13005KT 15SM FEW050 BKN100 24/13 A2988 RMK CU2AC2 SLP115=

CYQF;2006-07-28 03:00;METAR CYQF 280300Z 12006KT 15SM SCT050 BKN090 22/13 A2988 RMK CU3AC2 TCU ASOCTD SLP114=

CYQF;2006-07-28 04:00;METAR CYQF 280400Z 12005KT 15SM SCT050 BKN090 20/13 A2988 RMK SC3AC2 TCU ASOCTD SLP115=

CYQF;2006-07-28 05:00;METAR CYQF 280500Z 00000KT 15SM SCT050TCU BKN090 19/14 A2989 RMK TCU4AC2 CB/LTGICCG NW SLP117=

CYQF;2006-07-28 06:00;METAR CYQF 280600Z 04008KT 15SM BKN060TCU OVC090 20/14 A2990 RMK TCU6AC2 CB/LTGICCG NW-NE SLP119=

CYQF;2006-07-28 07:00;METAR CYQF 280700Z 10009KT 15SM BKN060 OVC100 19/13 A2989 RMK SC6AC2 CB/LTGIC DIST NW-N SLP117=

CYQF;2006-07-28 08:00;METAR CYQF 280800Z 36012G22KT 15SM FEW020 BKN060CB OVC100 18/13 A2995 RMK CF2CB5AC2 LTGICCG N SLP135=

CYQF;2006-07-28 08:13;SPECI CYQF 280813Z 01015G30KT 15SM -TSRA FEW020 BKN060CB OVC100 RMK CF2CB4AC2 LTGICCG W-N-NE=

CYQF;2006-07-28 09:00;METAR CYQF 280900Z 03010G15KT 12SM -SHRA FEW010 OVC050TCU 15/14 A2997 RETS RMK CF2TCU6 SLP146=

CYQF;2006-07-28 09:53;SPECI CYQF 280953Z 08009KT 12SM -TSRA BKN060CB OVC100 RMK CB6AC2 LTGICCG S-SE=

CYQF;2006-07-28 10:00;METAR CYQF 281000Z 07010KT 12SM -TSRA BKN060CB OVC100 15/14 A2996 RMK CB6AC2 LTGICCG SE-SW SLP142=

CYQF;2006-07-28 11:00;METAR CYQF 281100Z 08008KT 15SM BKN050 OVC100 15/14 A2996 RETS RMK SC7AC1 TCU EMBD SLP142=

CYQF;2006-07-28 12:00;METAR CYQF 281200Z 10003KT 15SM OVC050 15/14 A2997 RETS RMK SC8 SLP144=

CYQF;2006-07-28 13:00;METAR CYQF 281300Z 00000KT 15SM FEW005 BKN050 BKN120 15/14 A2998 RMK SF1SC6AC1 SLP148=

CYQF;2006-07-28 14:00;METAR CYQF 281400Z 01003KT 15SM FEW005 BKN050 BKN120 15/14 A2999 RMK SF1SC5AC2 SLP151=

CYQF;2006-07-28 15:00;METAR CYQF 281500Z 08002KT 15SM FEW006 SCT060 BKN120 BKN250 16/13 A2999 RMK CF1SC2AC2CI2 CC ASOCTD SLP152=

CYQF;2006-07-28 16:00;METAR CYQF 281600Z 07002KT 15SM FEW010 BKN090 OVC250 17/14 A2999 RMK CF1AC6CI1 SLP153=

CYQF;2006-07-28 17:00;METAR CYQF 281700Z 10005KT 15SM FEW010 BKN090 OVC250 17/13 A2999 RMK CF1AC6CI1 SLP152=

CYQF;2006-07-28 18:00;METAR CYQF 281800Z 10002KT 15SM FEW020 BKN090 OVC250 18/13 A2998 RMK CU1AC6CI1 SLP150=

CYQF;2006-07-28 19:00;METAR CYQF 281900Z 12004KT 15SM FEW020 BKN080 OVC250 19/13 A2998 RMK CU1AC6CI1 SLP150=

CYQF;2006-07-28 19:38;SPECI CYQF 281938Z 10005KT 15SM -SHRA FEW020 BKN050 OVC080 RMK CU1SC4AC3=

CYQF;2006-07-28 20:00;METAR CYQF 282000Z 06008KT 15SM -SHRA FEW020 BKN050 OVC080 19/15 A2997 RMK CU1SC4AC3 SLP147=

CYQF;2006-07-28 20:42;SPECI CYQF 282042Z 06010KT 15SM FEW020 SCT050 OVC080 RMK CU1SC3AC4=

CYQF;2006-07-28 21:00;METAR CYQF 282100Z 06008KT 15SM FEW020 SCT050 OVC080 19/15 A2996 RMK CU1SC3AC3 SLP146=

CYQF;2006-07-28 23:00;METAR CYQF 282300Z 03013KT 15SM FEW018 BKN030 OVC080 20/15 A2995 RMK CF2CU3AC2 TCU EMBD/SHS DIST NW-NE SLP142=

CYQF;2006-07-29 00:00;METAR CYQF 290000Z 03012KT 15SM BKN015TCU OVC030 18/15 A2995 RMK TCU6SC2 CB LTNG/SHS N SLP146=

CYQF;2006-07-29 00:22;SPECI CYQF 290022Z 03012KT 12SM FEW008 BKN012TCU OVC030 RMK SF2TCU5SC2 CB EMBD/SHS/LTNG NW-NE=

CYQF;2006-07-29 01:00;METAR CYQF 290100Z 04013KT 12SM FEW008 BKN012TCU OVC080 17/15 A2991 RMK SF2TCU5AC2 SHS DIST NE SLP133=

CYQF;2006-07-29 01:12;SPECI CYQF 290112Z 30014KT 12SM FEW008 BKN012TCU OVC080 RMK SF2TCU6AC1 WND SHFT 0110 SHS S-SW+NW=

CYQF;2006-07-29 01:36;SPECI CYQF 290136Z 36010KT 12SM -SHRA BKN010TCU BKN090 RMK TCU6AC1 CB EMBD E HVR SHS N-E VSBY LWR N-NE=

CYQF;2006-07-29 02:00;METAR CYQF 290200Z 03010KT 15SM FEW010 BKN015TCU BKN090 16/15 A2994 RMK CF2TCU5AC1 CB EMBD E SHS NE-E SLP142=

CYQF;2006-07-29 03:00;METAR CYQF 290300Z 07010G15KT 15SM FEW010 BKN020TCU OVC090 16/15 A2990 RMK SC2TCU5AC1 CB EMBD LTNG WNW SLP129=

CYQF;2006-07-29 03:23;SPECI CYQF 290323Z 07012G18KT 15SM TS FEW010 BKN020CB OVC090 RMK SF2CB5AC1 LTGCG SHS N=

CYQF;2006-07-29 03:34;SPECI CYQF 290334Z 06010G15KT 15SM -TSRA FEW008 BKN015CB OVC090 RMK SF2CB5AC1 LTGCG HVYR SHS N=

CYQF;2006-07-29 04:00;METAR CYQF 290400Z 01013G20KT 15SM -TSRA FEW008 BKN014CB OVC090 16/14 A2991 RMK SF2CB5AC1 LTGCG SLP133=

CYQF;2006-07-29 04:33;SPECI CYQF 290433Z 04012G20KT 10SM -SHRA SCT012CB BKN030 OVC090 RMK CB4SC3AC1 LTNG N-NE=

CYQF;2006-07-29 05:00;METAR CYQF 290500Z 06012KT 15SM -SHRA FEW015TCU BKN040 OVC090 15/14 A2993 RMK TCU2SC4AC2 SLP139=

CYQF;2006-07-29 05:10;SPECI CYQF 290510Z 07012KT 15SM SCT040 OVC080 RMK SC4AC4=

CYQF;2006-07-29 06:00;METAR CYQF 290600Z 08006KT 15SM SCT040 OVC075 15/13 A2992 RMK SC3AC5 /R15/ SLP134=

CYQF;2006-07-29 07:00;METAR CYQF 290700Z 09013KT 15SM SCT040 OVC075 15/13 A2991 RMK SC3AC5 SLP133=

CYQF;2006-07-29 08:00;METAR CYQF 290800Z 09010KT 15SM FEW040 OVC080 15/14 A2990 RMK SC2AC6 SLP130=

CYQF;2006-07-29 09:00;METAR CYQF 290900Z 08004KT 15SM BKN040 OVC080 15/14 A2990 RMK SC6AC2 SLP128=

CYQF;2006-07-29 10:00;METAR CYQF 291000Z 09005KT 15SM OVC040 15/14 A2989 RMK SC8 SLP125=

CYQF;2006-07-29 11:00;METAR CYQF 291100Z 11006KT 15SM BKN040 OVC080 15/13 A2988 RMK SC6AC2 SLP120=

CYQF;2006-07-29 12:00;METAR CYQF 291200Z 12004KT 15SM BKN040 OVC080 15/13 A2986 RMK SC6AC2 SLP115=

CYQF;2006-07-29 13:00;METAR CYQF 291300Z 13005KT 15SM OVC040 15/12 A2985 RMK SC7 SLP112=

CYQF;2006-07-29 14:00;METAR CYQF 291400Z 15005KT 15SM BKN040 BKN100 15/13 A2985 RMK SC6AC1 SLP111=

CYQF;2006-07-29 15:00;METAR CYQF 291500Z 15004KT 15SM SCT020 BKN040 BKN120 16/13 A2984 RMK SC3SC3AC1 SLP108=

CYQF;2006-07-29 16:00;METAR CYQF 291600Z 14004KT 15SM BKN016 BKN040 17/13 A2982 RMK SC5SC2 SLP103=

CYQF;2006-07-29 16:22;SPECI CYQF 291622Z 16003KT 15SM BKN014 OVC040 RMK SC7SC1=

CYQF;2006-07-29 17:00;METAR CYQF 291700Z 00000KT 15SM BKN014 OVC040 17/14 A2981 RMK SC7SC1 SLP100=

CYQF;2006-07-29 18:00;METAR CYQF 291800Z 12004KT 15SM OVC015 18/15 A2979 RMK SC8 SLP091=

CYQF;2006-07-29 19:00;METAR CYQF 291900Z 07006KT 15SM OVC012 18/14 A2977 RMK SC8 SLP086=

CYQF;2006-07-29 20:00;METAR CYQF 292000Z 11007KT 15SM BKN018 OVC040 18/14 A2977 RMK SC7SC1 SLP085=

CYQF;2006-07-29 21:00;METAR CYQF 292100Z 09006KT 15SM BKN020 BKN040 19/15 A2975 RMK SC6SC1 SLP073=

CYQF;2006-07-29 22:00;METAR CYQF 292200Z 08007KT 15SM BKN020 BKN120 21/16 A2973 RMK SC5AC1 SLP068=

CYQF;2006-07-29 23:00;METAR CYQF 292300Z 10009KT 15SM SCT025 21/15 A2970 RMK CU4 SLP060=

CYQF;2006-07-30 00:00;METAR CYQF 300000Z 06008KT 15SM FEW015 SCT030CB BKN240 20/15 A2969 RMK SF2CB2CI1 SLP054=

CYQF;2006-07-30 00:40;SPECI CYQF 300040Z 03010G15KT 10SM -TSRA FEW015 BKN030CB BKN090 RMK SF2CB4AC1 LTGCG HVYR SHS S=

CYQF;2006-07-30 01:00;METAR CYQF 300100Z 04010G15KT 10SM -TSRA FEW015 BKN030CB BKN090 19/15 A2971 RMK SF2CB4AC1 LTGCG HVYR SHS S SLP059=

CYQF;2006-07-30 01:14;SPECI CYQF 300114Z 04010G15KT 12SM FEW015 SCT030CB BKN090 RMK SF1CB2AC2 HZ LTNG/SHS SE=

CYQF;2006-07-30 02:00;METAR CYQF 300200Z 03010G15KT 15SM FEW015 SCT030CB SCT090 BKN250 18/14 A2970 RMK SF1CB2AC1CI1 SLP056=

CYQF;2006-07-30 03:00;METAR CYQF 300300Z 01006KT 15SM SCT030 BKN100 BKN250 17/14 A2970 RMK SC3AC2CI1 CB E SLP058=

CYQF;2006-07-30 04:00;METAR CYQF 300400Z 31006KT 15SM FEW030 FEW100 BKN250 15/13 A2972 RMK SC2AC1CI1 FEW TCU SLP065=

CYQF;2006-07-30 05:00;METAR CYQF 300500Z 32004KT 15SM FEW040 SCT100 BKN250 15/14 A2974 RMK SC2AC2CI0 SLP070=

CYQF;2006-07-30 06:00;METAR CYQF 300600Z 34005KT 15SM BKN025 OVC040 15/14 A2976 RMK SC6SC2 SLP080=

CYQF;2006-07-30 07:00;METAR CYQF 300700Z 33003KT 10SM FEW030 BKN250 14/13 A2976 RMK SC2CI1 SLP080=

CYQF;2006-07-30 08:00;METAR CYQF 300800Z 32004KT 6SM BR BKN014 BKN040 13/13 A2976 RMK SC5SC1 SLP080=

CYQF;2006-07-30 09:00;METAR CYQF 300900Z 28003KT 3SM BR FEW015 OVC030 13/13 A2976 RMK SC2SC6 SLP082=

CYQF;2006-07-30 09:46;SPECI CYQF 300946Z 31005KT 3SM BR OVC009 RMK SC8=

CYQF;2006-07-30 10:00;METAR CYQF 301000Z 33003KT 3SM BR OVC008 13/13 A2976 RMK ST8 SLP080=

CYQF;2006-07-30 10:47;SPECI CYQF 301047Z 00000KT 1SM BR VV003 RMK FG8=

CYQF;2006-07-30 11:00;METAR CYQF 301100Z 00000KT 1/2SM FG VV002 14/14 A2976 RMK FG8 SLP081=

CYQF;2006-07-30 12:00;METAR CYQF 301200Z 00000KT 1SM BR OVC004 14/14 A2975 RMK ST8 SLP075=

CYQF;2006-07-30 13:00;METAR CYQF 301300Z 00000KT 1 1/2SM BR FEW004 OVC008 15/14 A2974 RMK SF2ST6 SLP073=

CYQF;2006-07-30 14:00;METAR CYQF 301400Z 26004KT 1 1/2SM BR FEW004 OVC008 14/14 A2975 RMK SF2ST6 SLP076=

CYQF;2006-07-30 15:00;METAR CYQF 301500Z 28004KT 3SM BR BKN007 BKN020 15/14 A2974 RMK SF6SC2 SLP075=

CYQF;2006-07-30 16:00;METAR CYQF 301600Z 36002KT 8SM BKN009 BKN020 17/14 A2972 RMK CF6SC2 BR SLP069=

CYQF;2006-07-30 17:00;METAR CYQF 301700Z 07006KT 8SM SCT012 BKN050 18/14 A2969 RMK CU4SC3 BR SLP059=

CYQF;2006-07-30 18:00;METAR CYQF 301800Z 11005KT 8SM BKN016 BKN100 18/14 A2966 RMK CU6AC2 BR SLP046=

CYQF;2006-07-30 19:00;METAR CYQF 301900Z 09008KT 12SM BKN020 OVC100 19/13 A2965 RMK CU6AC2 TCU EMBD SLP041=

CYQF;2006-07-30 20:00;METAR CYQF 302000Z 35011KT 15SM BKN010TCU BKN100 18/13 A2964 RMK TCU6AC1 CB/SHS NW-NE SLP037=

CYQF;2006-07-30 20:46;SPECI CYQF 302046Z 35015G30KT 12SM -TSRA FEW006 BKN012CB OVC100 RMK CF1CB6AC1 LTGICCG NW=

CYQF;2006-07-30 21:00;METAR CYQF 302100Z 33015G30KT 10SM TSRA FEW006 BKN012CB OVC080 12/10 A2968 RMK CF2CB6AC1 SLP060=

CYQF;2006-07-30 21:08;SPECI CYQF 302108Z 31012G25KT 2 1/2SM +TSRAGR FEW006 OVC012CB RMK CF2CB6 LTGICCG HAIL DIAM 5 MM=

CYQF;2006-07-30 21:15;SPECI CYQF 302115Z 33012G25KT 3SM +TSRA FEW006 OVC012CB RMK CF2CB6 LTGICCG=

CYQF;2006-07-30 22:00;METAR CYQF 302200Z 34020G35KT 6SM TSRA FEW006 OVC012CB 09/09 A2968 RMK CF2CB6 LTGICCG WND G45 PAST HR SLP061=

CYQF;2006-07-30 22:30;SPECI CYQF 302230Z 35010G20KT 6SM -TSRA FEW006 SCT012CB OVC020 RERA RMK CF1CB3SC4 LTGICCG=

CYQF;2006-07-30 22:48;SPECI CYQF 302248Z 36010G15KT 10SM -SHRA FEW004 SCT012CB BKN020 RETSRA RMK CF1CB2SC4=

CYQF;2006-07-30 23:00;METAR CYQF 302300Z 36010G15KT 10SM -SHRA FEW004 SCT012CB BKN020 10/10 A2969 RETSRA RMK CF1CB2SC4 HVY SHS NW SLP065=

CYQF;2006-07-30 23:30;SPECI CYQF 302330Z 35006KT 15SM FEW004 BKN030TCU BKN080 RETS RMK CF1TCU5AC2=

CYQF;2006-07-31 00:00;METAR CYQF 310000Z 29007KT 15SM FEW004 SCT030TCU BKN080 10/10 A2974 RMK CF1TCU2AC4 VIRGA SLP081=

CYQF;2006-07-31 00:52;SPECI CYQF 310052Z 29010G15KT 15SM -SHRA FEW006 BKN030TCU BKN080 RMK SF2TCU4AC2=

CYQF;2006-07-31 01:00;METAR CYQF 310100Z 27010G15KT 15SM -SHRA FEW006 BKN030TCU BKN080 11/10 A2974 RMK SF2TCU4AC2 SLP081=

CYQF;2006-07-31 01:33;SPECI CYQF 310133Z 24003KT 15SM FEW008 BKN030TCU OVC080 RMK SF2TCU4AC2=

CYQF;2006-07-31 02:00;METAR CYQF 310200Z 28010KT 15SM SCT030 BKN090 OVC250 11/10 A2974 RMK SC3AC2CI2 FEW TCU SLP082=

CYQF;2006-07-31 03:00;METAR CYQF 310300Z 24003KT 15SM SCT040 BKN090 OVC250 11/10 A2973 RMK SC4AC2CI1 SLP076=

CYQF;2006-07-31 04:00;METAR CYQF 310400Z 21005KT 15SM FEW040 BKN090 OVC250 11/10 A2974 RMK SC2AC3CI1 SLP078=

CYQF;2006-07-31 05:00;METAR CYQF 310500Z 23005KT 15SM FEW040 SCT090 BKN250 10/09 A2974 RMK SC2AC2CI0 SLP080=

CYQF;2006-07-31 06:00;METAR CYQF 310600Z 22005KT 15SM FEW040 BKN090 10/09 A2974 RMK SC2AC3 SLP078=

CYQF;2006-07-31 07:00;METAR CYQF 310700Z 26004KT 15SM FEW050 BKN100 10/09 A2974 RMK SC2AC4 SLP077=

CYQF;2006-07-31 08:00;METAR CYQF 310800Z 30008KT 15SM -SHRA SCT040 OVC090 11/08 A2974 RMK SC4AC4 SLP079=

CYQF;2006-07-31 09:00;METAR CYQF 310900Z 27012KT 15SM -SHRA SCT040 OVC090 10/08 A2975 RMK SC4AC4 SLP088=

CYQF;2006-07-31 09:40;SPECI CYQF 310940Z 27010G17KT 15SM SCT040 OVC090 RMK SC3AC5=

CYQF;2006-07-31 10:00;METAR CYQF 311000Z 26011KT 15SM -SHRA SCT040 OVC090 10/09 A2975 RMK SC3AC5 SLP089=

CYQF;2006-07-31 11:00;METAR CYQF 311100Z 28010KT 15SM FEW040 BKN090 10/08 A2975 RMK SC2AC4 SLP089=

CYQF;2006-07-31 12:00;METAR CYQF 311200Z 28009KT 15SM SCT040 BKN090 BKN250 10/08 A2976 RMK SC4AC2CI0 SLP094=

CYQF;2006-07-31 13:00;METAR CYQF 311300Z 28006KT 15SM FEW040 SCT090 BKN250 09/07 A2977 RMK SC2AC2CI2 SHS DIST W VIRGA E SLP098=

CYQF;2006-07-31 14:00;METAR CYQF 311400Z 30010KT 15SM SCT080 BKN250 10/08 A2979 RMK AC3CI2 SLP102=

CYQF;2006-07-31 15:00;METAR CYQF 311500Z 32010G15KT 15SM FEW020 SCT090 BKN250 12/09 A2980 RMK CU1AC3CI0 SLP103=

CYQF;2006-07-31 16:00;METAR CYQF 311600Z 30010G15KT 15SM SCT020 BKN090 BKN250 14/08 A2981 RMK CU3AC2CI0 SLP106=

CYQF;2006-07-31 17:00;METAR CYQF 311700Z 31010G15KT 15SM SCT030 BKN090 BKN250 16/08 A2981 RMK CU3AC2CI0 SLP107=

CYQF;2006-07-31 18:00;METAR CYQF 311800Z 34010G15KT 15SM BKN035 BKN100 16/07 A2982 RMK CU5AC1 SLP108=

CYQF;2006-07-31 19:00;METAR CYQF 311900Z 31010KT 15SM BKN035 BKN100 17/08 A2981 RMK CU5AC1 TCU ASOCTD SHS NW SLP106=

CYQF;2006-07-31 20:00;METAR CYQF 312000Z 35010G15KT 15SM SCT035 SCT100 BKN210 18/09 A2981 RMK CU3AC1CI1 TCU ASOCTD SLP104=

CYQF;2006-07-31 21:00;METAR CYQF 312100Z 31010KT 15SM FEW040 FEW100 BKN210 18/07 A2980 RMK CU2AC1CI3 SLP100=

CYQF;2006-07-31 22:00;METAR CYQF 312200Z 32010G15KT 15SM SCT040 SCT120 BKN210 19/08 A2979 RMK CU3AC1CI0 TCU ASOCTD SHS SW + N SLP097=

CYQF;2006-07-31 23:00;METAR CYQF 312300Z 33010KT 15SM FEW050 SCT120 BKN210 19/07 A2979 RMK CU2AC2CI0 CB SE SHS SE + S SLP095=

CYQF;2006-08-01 00:00;METAR CYQF 010000Z 30006KT 15SM FEW050 FEW120 BKN210 19/07 A2979 RMK CU2AC1CI2 TCU ASOCTD SHS SE + N SLP094=

CYQF;2006-08-01 01:00;METAR CYQF 010100Z 31005KT 15SM FEW050 FEW100 SCT240 19/07 A2979 RMK CU2AC1CI0 CB TOP NE SLP094=

CYQF;2006-08-01 02:00;METAR CYQF 010200Z 35005KT 15SM SCT050 17/08 A2979 RMK SC4 CU ASOCTD SLP096=

CYQF;2006-08-01 03:00;METAR CYQF 010300Z 35004KT 15SM FEW050 SCT090 16/08 A2980 RMK SC2AC1 FEW CU SLP097=

CYQF;2006-08-01 04:00;METAR CYQF 010400Z 00000KT 15SM SCT055 BKN090 14/09 A2981 RMK SC3AC2 CU EMBD VIRGA W SLP101=

CYQF;2006-08-01 05:00;METAR CYQF 010500Z 00000KT 15SM SCT050 BKN100 12/09 A2982 RMK SC3AC3 SLP103=

CYQF;2006-08-01 05:31;SPECI CYQF 010531Z 24005KT 15SM TS SCT050 BKN100 RMK SC4AC2 CB EMBD LTGCG W=

CYQF;2006-08-01 05:42;SPECI CYQF 010542Z 23008KT 15SM -SHRA BKN050 BKN100 RMK SC5AC2 CB EMBD=

CYQF;2006-08-01 06:00;METAR CYQF 010600Z 24006KT 15SM -SHRA BKN050 BKN100 OVC250 13/10 A2984 RMK SC5AC2CI2 TCU EMBD SLP112=

CYQF;2006-08-01 06:48;SPECI CYQF 010648Z 02005KT 15SM SCT050 BKN100 RMK SC3AC4=

CYQF;2006-08-01 07:00;METAR CYQF 010700Z 00000KT 15SM SCT050 BKN100 14/09 A2984 RMK SC3AC4 SLP111=

CYQF;2006-08-01 07:17;SPECI CYQF 010717Z 15005KT 15SM -SHRA BKN040 OVC100 RMK SC5AC3 TCU EMBD=

CYQF;2006-08-01 07:36;SPECI CYQF 010736Z 09002KT 15SM FEW040 BKN100 BKN250 RMK SC2AC2CI2=

CYQF;2006-08-01 08:00;METAR CYQF 010800Z 00000KT 15SM FEW050 BKN100 13/10 A2984 RMK SC2AC3 SLP111=

CYQF;2006-08-01 09:00;METAR CYQF 010900Z 19002KT 15SM SCT100 11/09 A2983 RMK AC3 SLP109=

CYQF;2006-08-01 10:00;METAR CYQF 011000Z 23002KT 15SM FEW100 09/08 A2984 RMK AC2 SLP110=

CYQF;2006-08-01 11:00;METAR CYQF 011100Z 00000KT 15SM SCT050 BKN100 10/09 A2985 RMK SC4AC1 SLP115=

CYQF;2006-08-01 12:00;METAR CYQF 011200Z 20003KT 15SM SCT040 SCT080 09/08 A2986 RMK SC3AC1 CU ASCTD SLP121=

CYQF;2006-08-01 13:00;METAR CYQF 011300Z 18002KT 15SM SCT040 BKN080 08/08 A2987 RMK CU4AC2 SLP124=

CYQF;2006-08-01 14:00;METAR CYQF 011400Z 24002KT 15SM BKN050 10/09 A2988 RMK SC6 SLP127=

CYQF;2006-08-01 15:00;METAR CYQF 011500Z 00000KT 15SM BKN050 11/10 A2989 RMK SC5 SLP131=

CYQF;2006-08-01 16:00;METAR CYQF 011600Z 19005KT 15SM FEW050 15/11 A2989 RMK SC2 SLP132=

CYQF;2006-08-01 17:00;METAR CYQF 011700Z 00000KT 15SM FEW050 SCT210 18/06 A2989 RMK CU2CI1 SLP131=

CYQF;2006-08-01 18:00;METAR CYQF 011800Z 30003KT 15SM FEW050 SCT210 19/07 A2989 RMK CU2CI1 SLP126=

CYQF;2006-08-01 19:00;METAR CYQF 011900Z 32007KT 15SM FEW050 SCT210 20/06 A2988 RMK CU2CI1 SLP123=

CYQF;2006-08-01 20:00;METAR CYQF 012000Z 00000KT 15SM FEW050 SCT210 20/06 A2988 RMK CU2CI1 SLP122=

CYQF;2006-08-01 21:00;METAR CYQF 012100Z 24005KT 15SM FEW050 SCT210 21/06 A2987 RMK CU2CI1 SLP121=

CYQF;2006-08-01 22:00;METAR CYQF 012200Z 00000KT 15SM FEW050 SCT210 21/06 A2988 RMK CU2CI1 SLP122=

CYQF;2006-08-01 23:00;METAR CYQF 012300Z 00000KT 15SM FEW050 SCT210 22/06 A2987 RMK CU2CI1 SLP121=

CYQF;2006-08-02 00:00;METAR CYQF 020000Z 22004KT 15SM FEW050 FEW100 BKN210 21/06 A2987 RMK CU2AC1CI1 SLP120=

CYQF;2006-08-02 01:00;METAR CYQF 020100Z 00000KT 15SM FEW055TCU SCT120 BKN210 22/07 A2986 RMK TCU2AC1CI0 SHS DIST W-N SLP119=

CYQF;2006-08-02 02:00;METAR CYQF 020200Z 36012G20KT 15SM FEW055TCU BKN100 BKN210 17/08 A2989 RMK TCU2AC2CI1 SHS DIST N-NE SLP127=

CYQF;2006-08-02 03:00;METAR CYQF 020300Z 35005KT 15SM BKN055TCU BKN100 BKN210 16/08 A2990 RMK TCU5AC2CI0 CB/LTGCG SW SHS SW-N-NE OBS TKN +08 SLP134=

CYQF;2006-08-02 03:15;SPECI CYQF 020315Z 36010G15KT 12SM -SHRA BKN055CB BKN100 BKN210 RMK CB5AC2CI0 LTGCG SW=

CYQF;2006-08-02 03:42;SPECI CYQF 020342Z 00000KT 15SM BKN055CB BKN100 RMK CB6AC1 LTGCG SW-W=

CYQF;2006-08-02 04:00;METAR CYQF 020400Z 26012KT 15SM BKN055CB BKN100 14/10 A2994 RMK CB6AC1 LTGCG SW SLP147=

CYQF;2006-08-02 04:08;SPECI CYQF 020408Z 27010G15KT 15SM TS BKN050CB BKN100 RMK CB6AC1 LTGCG W=

CYQF;2006-08-02 04:19;SPECI CYQF 020419Z 28010G18KT 10SM -TSRA BKN050CB OVC100 RMK CB7AC1 LTGCG=

CYQF;2006-08-02 04:44;SPECI CYQF 020444Z 28010G18KT 8SM -SHRA OVC050CB RETS RMK CB8=

CYQF;2006-08-02 05:27;SPECI CYQF 020527Z 04008KT 10SM -SHRA BKN050CB BKN090 RMK CB5AC2=

CYQF;2006-08-02 05:47;SPECI CYQF 020547Z 06010KT 15SM SCT050TCU BKN100 BKN240 RMK TCU3AC2CI1=

CYQF;2006-08-02 06:00;METAR CYQF 020600Z 06010KT 15SM FEW050 BKN100 BKN240 13/09 A2996 RMK SC2AC2CI2 RETS TCU EMBDD SLP150=

CYQF;2006-08-02 07:00;METAR CYQF 020700Z 09006KT 15SM SCT100 BKN240 11/09 A2995 RMK AC3CI1 SLP149=

CYQF;2006-08-02 08:00;METAR CYQF 020800Z 00000KT 15SM FEW100 09/08 A2995 RMK AC2 SLP149=

CYQF;2006-08-02 09:00;METAR CYQF 020900Z 19002KT 15SM BKN100 09/08 A2998 RMK AC5 SLP159=

CYQF;2006-08-02 10:00;METAR CYQF 021000Z 00000KT 15SM BKN100 08/08 A2999 RMK AC6 SLP162=

CYQF;2006-08-02 11:00;METAR CYQF 021100Z 00000KT 15SM FEW060 BKN100 08/08 A2999 RMK SC2AC3 SLP164=

CYQF;2006-08-02 12:00;METAR CYQF 021200Z 21003KT 15SM FEW050 SCT100 08/08 A3000 RMK SC2AC2 SLP168=

CYQF;2006-08-02 13:00;METAR CYQF 021300Z 22003KT 15SM FEW050 BKN100 08/08 A3001 RMK SC2AC4 SLP169=

CYQF;2006-08-02 14:00;METAR CYQF 021400Z 26004KT 15SM FEW050 BKN100 11/10 A3002 RMK SC2AC2 SLP174=

CYQF;2006-08-02 15:00;METAR CYQF 021500Z 30006KT 15SM FEW050 SCT100 13/09 A3004 RMK SC2AC2 SLP179=

CYQF;2006-08-02 16:00;METAR CYQF 021600Z 33006KT 15SM FEW050 FEW100 16/07 A3005 RMK SC1AC1 SLP182=

CYQF;2006-08-02 17:00;METAR CYQF 021700Z 34010KT 15SM FEW050 FEW100 17/08 A3004 RMK CU1AC1 SLP181=

CYQF;2006-08-02 18:00;METAR CYQF 021800Z 33006KT 15SM FEW050 FEW100 17/06 A3004 RMK CU1AC1 SLP180=

CYQF;2006-08-02 19:00;METAR CYQF 021900Z 31005KT 15SM FEW050 19/06 A3004 RMK CU2 SLP179=

CYQF;2006-08-02 20:00;METAR CYQF 022000Z 02007KT 15SM FEW050 20/08 A3002 RMK CU2 SLP174=

CYQF;2006-08-02 21:00;METAR CYQF 022100Z 04006KT 15SM FEW050 FEW100 20/07 A3002 RMK CU2AC1 SLP174=

CYQF;2006-08-02 22:00;METAR CYQF 022200Z 12003KT 15SM FEW060 FEW100 21/07 A3001 RMK CU1AC1 TCU ASOCTD SLP172=

CYQF;2006-08-02 23:00;METAR CYQF 022300Z 18004KT 15SM FEW060 FEW100 FEW210 21/06 A3000 RMK CU1AC1CI0 TCU TPS ASCOTD SLP169=

CYQF;2006-08-03 00:00;METAR CYQF 030000Z 18003KT 15SM FEW060TCU FEW100 SCT210 22/06 A2999 RMK TCU2AC1CI0 CB N SHS N SLP165=

CYQF;2006-08-03 01:00;METAR CYQF 030100Z 02010G20KT 15SM SCT060TCU SCT100 18/08 A3000 RMK TCU3AC1 SHS W SLP166=

CYQF;2006-08-03 02:00;METAR CYQF 030200Z 05008KT 15SM -SHRA SCT060TCU BKN090 17/09 A3000 RMK TCU4AC2 SLP168=

CYQF;2006-08-03 02:03;SPECI CYQF 030203Z 06003KT 15SM -TSRA BKN060CB BKN090 RMK CB5AC2 LTGIC=

CYQF;2006-08-03 02:41;SPECI CYQF 030241Z 18011KT 8SM TSRAGR BKN060CB BKN090 RMK CB5AC1 LTGICCG=

CYQF;2006-08-03 02:50;SPECI CYQF 030250Z 00000KT 15SM TS SCT060CB BKN090 RERA RMK CB4AC1 LTGICCG E=

CYQF;2006-08-03 03:00;METAR CYQF 030300Z 00000KT 15SM TS SCT060CB SCT090 15/10 A2999 RERA RMK CB3AC1 SHS/LTGICCG E SLP166=

CYQF;2006-08-03 03:45;SPECI CYQF 030345Z 07002KT 15SM SCT060CB SCT090 RETSRA RMK CB3AC1 SHS/LTGICCG NW-NE=

CYQF;2006-08-03 04:00;METAR CYQF 030400Z 00000KT 15SM FEW050CB SCT090 14/09 A3001 RETS RMK CB2AC2 SHS/LTGICCCCG NW-NE SLP171=

CYQF;2006-08-03 05:00;METAR CYQF 030500Z 36005KT 15SM SCT060CB BKN110 13/09 A3003 RMK CB4AC2 LTGICCCCG NW-N-SE SLP178=

CYQF;2006-08-03 06:00;METAR CYQF 030600Z 36008KT 15SM SCT060CB BKN110 13/09 A3005 RMK CB4AC2 LTGICCG DIST NE SLP185=

CYQF;2006-08-03 06:24;SPECI CYQF 030624Z 35008KT 15SM -SHRA BKN060TCU BKN110 RMK TCU5AC2 CB ASOCTD=

CYQF;2006-08-03 07:00;METAR CYQF 030700Z 35007KT 15SM -SHRA BKN060TCU BKN110 12/10 A3009 RMK TCU5AC2 CB ASOCTD RERA SLP195=

CYQF;2006-08-03 08:00;METAR CYQF 030800Z 35006KT 15SM -SHRA BKN050TCU BKN110 11/10 A3009 RMK TCU5AC1 CB ASOCTD SLP195=

CYQF;2006-08-03 08:37;SPECI CYQF 030837Z 32004KT 15SM SCT050TCU BKN100 RMK TCU4AC2=

CYQF;2006-08-03 08:49;SPECI CYQF 030849Z 31007KT 15SM -SHRA BKN050TCU BKN100 RMK TCU5AC2=

CYQF;2006-08-03 09:00;METAR CYQF 030900Z 33007KT 15SM -SHRA BKN050TCU BKN100 11/10 A3010 RMK TCU5AC2 SLP201=

CYQF;2006-08-03 10:00;METAR CYQF 031000Z 19004KT 15SM SCT050 BKN090 BKN250 11/10 A3010 RMK SC3AC2CI2 SLP200=

CYQF;2006-08-03 11:00;METAR CYQF 031100Z 28005KT 15SM SCT050 BKN090 BKN250 11/10 A3010 RMK SC4AC2CI2 SLP199=

CYQF;2006-08-03 11:07;SPECI CYQF 031107Z 29004KT 15SM -SHRA SCT050 BKN090 BKN250 RMK SC4AC2CI1=

CYQF;2006-08-03 12:00;METAR CYQF 031200Z 29008KT 15SM -SHRA BKN050 BKN090 BKN250 11/10 A3010 RMK SC5AC1CI1 SLP198=

CYQF;2006-08-03 12:35;SPECI CYQF 031235Z 29006KT 15SM BKN050 BKN090 RMK SC5AC2=

CYQF;2006-08-03 13:00;METAR CYQF 031300Z 29004KT 15SM BKN050 BKN090 10/09 A3010 RMK SC5AC1 CU ASOCTD SLP199=

CYQF;2006-08-03 14:00;METAR CYQF 031400Z 32005KT 15SM FEW050 SCT090 11/09 A3011 RMK SC2AC1 SLP201=

CYQF;2006-08-03 15:00;METAR CYQF 031500Z 32004KT 15SM FEW050 13/08 A3012 RMK SC2 SLP210=

CYQF;2006-08-03 16:00;METAR CYQF 031600Z 00000KT 15SM FEW050 15/08 A3012 RMK SC2 SLP209=

CYQF;2006-08-03 17:00;METAR CYQF 031700Z 02005KT 15SM FEW050 16/09 A3011 RMK CU2 SLP206=

CYQF;2006-08-03 18:00;METAR CYQF 031800Z 00000KT 15SM FEW050 17/08 A3009 RMK CU1 SLP199=

CYQF;2006-08-03 19:00;METAR CYQF 031900Z 15005KT 15SM FEW050 SCT210 18/06 A3008 RMK CU2CI1 SLP195=

CYQF;2006-08-03 20:00;METAR CYQF 032000Z 21005KT 15SM FEW050 SCT220 20/07 A3006 RMK CU2CI1 SLP188=

CYQF;2006-08-03 21:00;METAR CYQF 032100Z 00000KT 15SM FEW050 SCT220 20/07 A3004 RMK CU2CI2 CB=

CYQF;2006-08-03 22:00;METAR CYQF 032200Z 14007KT 15SM FEW055 BKN220 20/06 A3002 RMK CU2CI2 CB=

CYQF;2006-08-03 23:00;METAR CYQF 032300Z 12008KT 15SM SCT050TCU BKN220 20/07 A3000 RMK TCU3CI4 CB SHS DIST S-SW SLP167=

CYQF;2006-08-04 00:00;METAR CYQF 040000Z 10011KT 15SM SCT050TCU SCT120 BKN220 20/08 A2999 RMK TCU3AC1CI2 CB/SHS-SE-SW-NW SLP161=

CYQF;2006-08-04 01:00;METAR CYQF 040100Z 15005KT 15SM BKN045CB OVC220 17/09 A3001 RMK CB7CI1 SHS ALQDS SLP167=

CYQF;2006-08-04 01:08;SPECI CYQF 040108Z 18008KT 15SM -SHRA BKN045CB OVC220 RMK CB7CI1=

CYQF;2006-08-04 02:00;METAR CYQF 040200Z 00000KT 15SM BKN044CB BKN120 BKN220 15/10 A3000 RMK CB5AC1CI1 SHS ALQDS SLP166=

CYQF;2006-08-04 03:00;METAR CYQF 040300Z 05008KT 15SM BKN050 BKN120 BKN220 12/08 A3005 RMK SC5AC1CI0 CB/SHS N SLP188=

CYQF;2006-08-04 04:00;METAR CYQF 040400Z 08011KT 15SM FEW050 SCT120 SCT220 11/08 A3005 RMK SC2AC1CI0 CB/SHS NW-NE LTGICCG NW SLP190=

CYQF;2006-08-04 05:00;METAR CYQF 040500Z 04005KT 15SM FEW050 SCT120 BKN220 11/08 A3006 RMK SC2AC1CI1 SHS NW-NE SLP191=

CYQF;2006-08-04 06:00;METAR CYQF 040600Z 11007KT 15SM FEW050 FEW120 BKN220 10/08 A3004 RMK SC2AC1CI1 SLP184=

CYQF;2006-08-04 07:00;METAR CYQF 040700Z 17006KT 15SM FEW050 SCT220 09/07 A3002 RMK SC2CI1 SLP178=

CYQF;2006-08-04 08:00;METAR CYQF 040800Z 20004KT 15SM FEW050 SCT220 09/07 A3001 RMK SC2CI1 SLP175=

CYQF;2006-08-04 09:00;METAR CYQF 040900Z 27004KT 15SM FEW050 SCT220 09/08 A2999 RMK SC2CI1 SLP165=

CYQF;2006-08-04 10:00;METAR CYQF 041000Z 32003KT 15SM SCT060 BKN220 09/08 A2998 RMK SC3CI1 SLP161=

CYQF;2006-08-04 11:00;METAR CYQF 041100Z 09002KT 15SM FEW060 SCT090 08/07 A2996 RMK SC2AC1 SLP155=

CYQF;2006-08-04 12:00;METAR CYQF 041200Z CCA 27005KT 15SM SCT060 BKN090 08/08 A2997 RMK SC3AC3 SHRS DIST SW-N SLP158=

CYQF;2006-08-04 13:00;METAR CYQF 041300Z 04006KT 15SM SCT060 BKN090 OVC250 10/08 A2995 RMK SC3AC4CI1 CB/HVY SHRS NW-NE LTGCG N SLP153=

CYQF;2006-08-04 14:00;METAR CYQF 041400Z 05003KT 15SM FEW050 BKN080 OVC250 10/09 A2994 RMK SC2AC6CI1 SLP148=

CYQF;2006-08-04 15:00;METAR CYQF 041500Z 09002KT 15SM FEW020 SCT050 OVC080 11/09 A2993 RMK SF1SC3AC4 LTNG SE SLP150=

CYQF;2006-08-04 16:00;METAR CYQF 041600Z 08012KT 15SM FEW010 SCT040 OVC090 13/09 A2990 RMK SF1SC3AC3 SLP139=

CYQF;2006-08-04 17:00;METAR CYQF 041700Z 10008KT 15SM FEW010 SCT030 OVC090 12/10 A2988 RMK SF2SC2AC3 SLP135=

CYQF;2006-08-04 18:00;METAR CYQF 041800Z 07003KT 15SM FEW010 SCT030 OVC090 13/10 A2987 RMK SF2SC2AC3 SLP130=

CYQF;2006-08-04 19:00;METAR CYQF 041900Z 05003KT 15SM -SHRA FEW010 BKN025 OVC090 13/10 A2986 RMK SF2SC3AC2 SLP127=

CYQF;2006-08-04 19:36;SPECI CYQF 041936Z 04003KT 15SM FEW008 BKN020 OVC080 RMK SF2SC5AC2 TCU EMBD=

CYQF;2006-08-04 20:00;METAR CYQF 042000Z 03003KT 15SM FEW010 BKN028 OVC080 13/11 A2987 RMK SF2SC5AC2 TCU EMBD SLP130=

CYQF;2006-08-04 20:40;SPECI CYQF 042040Z 08005KT 10SM -SHRA FEW010 OVC025 RMK SF2SC6 TCU EMBD=

CYQF;2006-08-04 21:00;METAR CYQF 042100Z 00000KT 8SM -SHRA FEW005 OVC018 12/11 A2988 RMK SF2SC6 TCU EMBD SLP135=

CYQF;2006-08-04 21:09;SPECI CYQF 042109Z 36010KT 2SM -SHRA BKN004TCU OVC015 RMK TCU6SC2 CB EMBD=

CYQF;2006-08-04 22:00;METAR CYQF 042200Z 35010KT 2SM -SHRA BR BKN005 OVC015 11/10 A2990 RMK CU6SC2 TCU ASOCTD SLP141=

CYQF;2006-08-04 22:27;SPECI CYQF 042227Z 33010KT 4SM -SHRA BR BKN005 OVC015 RMK CU6SC2=

CYQF;2006-08-04 22:36;SPECI CYQF 042236Z 32008KT 4SM -SHRA BR SCT005 OVC015 RMK CU4SC4=

CYQF;2006-08-04 23:00;METAR CYQF 042300Z 00000KT 5SM -SHRA BR SCT005 OVC015 11/10 A2994 RMK CF3SC5 SLP151=

CYQF;2006-08-05 00:00;METAR CYQF 050000Z 27005KT 10SM -SHRA SCT005 OVC015 11/10 A2993 RMK CF4SC4 SLP154=

CYQF;2006-08-05 01:00;METAR CYQF 050100Z 28007KT 15SM FEW005 BKN010 OVC030 11/10 A2994 RMK SF2SC4SC2 SLP155=

CYQF;2006-08-05 01:20;SPECI CYQF 050120Z 28007KT 10SM -SHRA SCT005 OVC010 RMK SF3SC5=

CYQF;2006-08-05 02:00;METAR CYQF 050200Z 33013KT 10SM -SHRA FEW005 OVC010 11/10 A2995 RMK SF2SC6 SLP161=

CYQF;2006-08-05 03:00;METAR CYQF 050300Z 31012KT 6SM -SHRA BR BKN008 OVC025 10/09 A3000 RMK SC6SC2 SLP176=

CYQF;2006-08-05 04:00;METAR CYQF 050400Z 33010KT 6SM -SHRA BR BKN008 OVC025 09/08 A3004 RMK SC6SC2 SLP187=

CYQF;2006-08-05 04:40;SPECI CYQF 050440Z 29014KT 15SM FEW010 SCT025 BKN100 RMK SC2SC2AC3=

CYQF;2006-08-05 05:00;METAR CYQF 050500Z 30013KT 15SM FEW010 SCT025 BKN100 08/07 A3004 RMK SF2SC2AC3 SLP189=

CYQF;2006-08-05 06:00;METAR CYQF 050600Z 29010G15KT 15SM FEW025 BKN100 08/07 A3003 RMK SC2AC5 SLP186=

CYQF;2006-08-05 07:00;METAR CYQF 050700Z 29012G20KT 15SM BKN100 08/07 A3004 RMK AC6 SLP188=

CYQF;2006-08-05 08:00;METAR CYQF 050800Z 30010KT 15SM FEW100 07/06 A3005 RMK AC2 SLP190=

CYQF;2006-08-05 09:00;METAR CYQF 050900Z 30012KT 15SM SKC 07/05 A3004 RMK SLP191=

CYQF;2006-08-05 10:00;METAR CYQF 051000Z 29008KT 15SM SKC 06/05 A3004 RMK SLP190=

CYQF;2006-08-05 11:00;METAR CYQF 051100Z 27006KT 15SM SKC 06/05 A3005 RMK SLP194=

CYQF;2006-08-05 12:00;METAR CYQF 051200Z 28008KT 15SM SKC 06/04 A3005 RMK SLP198=

CYQF;2006-08-05 13:00;METAR CYQF 051300Z 23007KT 15SM SKC 04/04 A3006 RMK SLP201=

CYQF;2006-08-05 14:00;METAR CYQF 051400Z 18003KT 15SM FEW250 07/06 A3006 RMK CI0 SLP202=

CYQF;2006-08-05 15:00;METAR CYQF 051500Z 00000KT 15SM SKC 11/07 A3006 RMK SLP199=

CYQF;2006-08-05 16:00;METAR CYQF 051600Z 31004KT 15SM SKC 13/08 A3006 RMK SLP199=

CYQF;2006-08-05 17:00;METAR CYQF 051700Z 30008KT 15SM FEW250 15/08 A3006 RMK CI1 SLP198=

CYQF;2006-08-05 18:00;METAR CYQF 051800Z 30007KT 15SM FEW035 FEW250 17/08 A3005 RMK CU1CI1 SLP190=

CYQF;2006-08-05 19:00;METAR CYQF 051900Z 25005KT 15SM FEW035 SCT250 18/07 A3004 RMK CU2CI1 SLP186=

CYQF;2006-08-05 20:00;METAR CYQF 052000Z 33005KT 15SM FEW040 FEW090 SCT250 18/05 A3003 RMK CU2AC1CI1 SLP181=

CYQF;2006-08-05 21:00;METAR CYQF 052100Z 31005KT 15SM FEW040 SCT250 19/07 A3003 RMK CU2CI2 SLP179=

CYQF;2006-08-05 22:00;METAR CYQF 052200Z 35005KT 15SM FEW040 SCT250 19/07 A3002 RMK CU2CI2 SLP177=

CYQF;2006-08-05 23:00;METAR CYQF 052300Z 31007KT 15SM FEW040 SCT250 20/05 A3001 RMK CU2CI2 SLP175=

CYQF;2006-08-06 00:00;METAR CYQF 060000Z 36004KT 15SM FEW045 FEW150 SCT250 20/06 A3001 RMK CU1AC2CI1 SLP173=

CYQF;2006-08-06 01:00;METAR CYQF 060100Z 00000KT 15SM FEW080 20/04 A3001 RMK AC2 SLP174=

CYQF;2006-08-06 02:00;METAR CYQF 060200Z 00000KT 15SM FEW080 20/06 A3001 RMK AC1 SLP175=

CYQF;2006-08-06 03:00;METAR CYQF 060300Z 09004KT 15SM FEW080 17/08 A3003 RMK AC1 SLP178=

CYQF;2006-08-06 04:00;METAR CYQF 060400Z 00000KT 15SM FEW080 15/08 A3004 RMK AC2 SLP183=

CYQF;2006-08-06 05:00;METAR CYQF 060500Z 18005KT 15SM FEW080 12/09 A3005 RMK AC2 SLP185=

CYQF;2006-08-06 06:00;METAR CYQF 060600Z 19005KT 15SM FEW080 11/08 A3005 RMK AC2 SLP188=

CYQF;2006-08-06 07:00;METAR CYQF 060700Z 19003KT 15SM FEW070 09/07 A3006 RMK AC2 SLP189=

CYQF;2006-08-06 08:00;METAR CYQF 060800Z 23005KT 15SM FEW070 08/06 A3006 RMK AC1 SLP189=

CYQF;2006-08-06 09:00;METAR CYQF 060900Z 00000KT 15SM SKC 08/06 A3006 RMK SLP189=

CYQF;2006-08-06 10:00;METAR CYQF 061000Z 00000KT 15SM SKC 07/06 A3006 RMK SLP190=

CYQF;2006-08-06 11:00;METAR CYQF 061100Z 18002KT 15SM SKC 06/06 A3006 RMK SLP191=

CYQF;2006-08-06 12:00;METAR CYQF 061200Z 20004KT 15SM SKC 06/05 A3007 RMK SLP194=

CYQF;2006-08-06 13:00;METAR CYQF 061300Z 21003KT 15SM FEW250 07/06 A3007 RMK CI1 SLP195=

CYQF;2006-08-06 14:00;METAR CYQF 061400Z 19002KT 15SM SKC 10/08 A3007 RMK SLP196=

CYQF;2006-08-06 15:00;METAR CYQF 061500Z 21005KT 15SM FEW250 13/08 A3008 RMK CI1 SLP194=

CYQF;2006-08-06 16:00;METAR CYQF 061600Z 19008KT 15SM SCT250 17/10 A3008 RMK CI2 SLP193=

CYQF;2006-08-06 17:00;METAR CYQF 061700Z 20010KT 15SM BKN250 20/09 A3007 RMK CI2 SLP191=

CYQF;2006-08-06 18:00;METAR CYQF 061800Z 20010KT 15SM BKN250 21/09 A3006 RMK CI4 SLP185=

CYQF;2006-08-06 19:00;METAR CYQF 061900Z 17010KT 15SM BKN250 22/08 A3005 RMK CI6 SLP181=

CYQF;2006-08-06 20:00;METAR CYQF 062000Z 17010KT 15SM BKN250 24/08 A3004 RMK CI3 SLP177=

CYQF;2006-08-06 21:00;METAR CYQF 062100Z 21006KT 15SM FEW060 SCT250 24/07 A3002 RMK CU1CI2 SLP170=

CYQF;2006-08-06 22:00;METAR CYQF 062200Z 12009KT 15SM FEW050 FEW250 24/07 A3000 RMK CU1CI1 SLP164=

CYQF;2006-08-06 23:00;METAR CYQF 062300Z 13009KT 15SM FEW050 FEW250 25/05 A2998 RMK CU1CI1 SLP158=

CYQF;2006-08-07 00:00;METAR CYQF 070000Z 13008KT 15SM FEW250 25/04 A2996 RMK CI2 SLP152=

CYQF;2006-08-07 01:00;METAR CYQF 070100Z 13008KT 15SM FEW250 24/06 A2995 RMK CI1 SLP149=

CYQF;2006-08-07 02:00;METAR CYQF 070200Z 12004KT 15SM SKC 23/09 A2995 RMK SLP147=

CYQF;2006-08-07 03:00;METAR CYQF 070300Z 12003KT 15SM SKC 20/10 A2995 RMK SLP144=

CYQF;2006-08-07 04:00;METAR CYQF 070400Z 00000KT 15SM FEW250 16/10 A2995 RMK CI1 SLP146=

CYQF;2006-08-07 05:00;METAR CYQF 070500Z 00000KT 15SM FEW250 14/09 A2995 RMK CI1 SLP145=

CYQF;2006-08-07 06:00;METAR CYQF 070600Z 00000KT 15SM FEW250 12/08 A2995 RMK CI1 SLP143=

CYQF;2006-08-07 07:00;METAR CYQF 070700Z 00000KT 15SM SCT250 11/09 A2995 RMK CI1 SLP143=

CYQF;2006-08-07 08:00;METAR CYQF 070800Z 00000KT 15SM FEW250 11/08 A2995 RMK CI1 SLP143=

CYQF;2006-08-07 09:00;METAR CYQF 070900Z 18003KT 15SM SKC 10/08 A2994 RMK AURBO SLP139=

CYQF;2006-08-07 10:00;METAR CYQF 071000Z 00000KT 15SM SKC 09/07 A2994 RMK SLP139=

CYQF;2006-08-07 11:00;METAR CYQF 071100Z 00000KT 15SM FEW250 07/06 A2994 RMK CI0 SLP141=

CYQF;2006-08-07 12:00;METAR CYQF 071200Z 18005KT 15SM SCT250 07/06 A2995 RMK CI1 SLP147=

CYQF;2006-08-07 13:00;METAR CYQF 071300Z 19003KT 15SM SCT250 07/06 A2996 RMK CI1 SLP150=

CYQF;2006-08-07 14:00;METAR CYQF 071400Z 27004KT 15SM SCT250 10/09 A2997 RMK CI1 SLP152=

CYQF;2006-08-07 15:00;METAR CYQF 071500Z 29002KT 15SM FEW250 14/11 A2997 RMK CI1 SLP153=

CYQF;2006-08-07 16:00;METAR CYQF 071600Z 24002KT 15SM FEW250 16/12 A2997 RMK CI0 SLP153=

CYQF;2006-08-07 17:00;METAR CYQF 071700Z 00000KT 15SM FEW250 19/13 A2996 RMK CI0 SLP150=

CYQF;2006-08-07 18:00;METAR CYQF 071800Z 00000KT 15SM FEW250 22/13 A2996 RMK CI0 SLP146=

CYQF;2006-08-07 19:00;METAR CYQF 071900Z 13003KT 15SM FEW250 25/13 A2994 RMK CI1 SLP141=

CYQF;2006-08-07 20:00;METAR CYQF 072000Z 16007KT 15SM FEW250 27/13 A2992 RMK CI1 SLP135=

CYQF;2006-08-07 21:00;METAR CYQF 072100Z 12007KT 12SM FEW250 28/13 A2991 RMK CI0 SLP125=

CYQF;2006-08-07 22:00;METAR CYQF 072200Z 16008KT 12SM FEW250 28/11 A2989 RMK CI0 FU SLP120=

CYQF;2006-08-07 23:00;METAR CYQF 072300Z 15009KT 10SM SKC 29/10 A2988 RMK SLP116=

CYQF;2006-08-08 00:00;METAR CYQF 080000Z 13006KT 10SM SKC 28/11 A2987 RMK SLP115=

CYQF;2006-08-08 01:00;METAR CYQF 080100Z 13006KT 15SM SKC 27/12 A2986 RMK FU SLP112=

CYQF;2006-08-08 02:00;METAR CYQF 080200Z 13004KT 10SM SKC 25/13 A2985 RMK FU SLP111=

CYQF;2006-08-08 03:00;METAR CYQF 080300Z 00000KT 15SM FEW100 22/14 A2986 RMK AC2 SLP113=

CYQF;2006-08-08 04:00;METAR CYQF 080400Z 12005KT 15SM FEW100 19/13 A2988 RMK AC2 SLP117=

CYQF;2006-08-08 05:00;METAR CYQF 080500Z 08003KT 15SM FEW240 19/12 A2988 RMK CI1 SLP117=

CYQF;2006-08-08 06:00;METAR CYQF 080600Z 00000KT 15SM SKC 14/11 A2989 RMK SLP120=

CYQF;2006-08-08 07:00;METAR CYQF 080700Z 13003KT 15SM SCT250 14/11 A2989 RMK CI0 SLP122=

CYQF;2006-08-08 08:00;METAR CYQF 080800Z 00000KT 15SM SCT250 13/10 A2989 RMK CI0 SLP121=

CYQF;2006-08-08 09:00;METAR CYQF 080900Z 24005KT 15SM SCT250 11/10 A2989 RMK CI0 SLP118=

CYQF;2006-08-08 10:00;METAR CYQF 081000Z 26002KT 15SM FEW250 12/09 A2989 RMK CI0 SLP118=

CYQF;2006-08-08 11:00;METAR CYQF 081100Z 26003KT 15SM FEW250 10/09 A2990 RMK CI0 SLP123=

CYQF;2006-08-08 12:00;METAR CYQF 081200Z 00000KT 10SM SCT250 10/09 A2991 RMK CI1 SLP125=

CYQF;2006-08-08 13:00;METAR CYQF 081300Z 19005KT 10SM BKN250 09/09 A2993 RMK CI2 FU SLP132=

CYQF;2006-08-08 14:00;METAR CYQF 081400Z 24004KT 10SM BKN250 13/11 A2993 RMK CI2 FU SLP132=

CYQF;2006-08-08 15:00;METAR CYQF 081500Z 24005KT 10SM BKN250 16/13 A2994 RMK CI2 FU SLP136=

CYQF;2006-08-08 16:00;METAR CYQF 081600Z 26003KT 10SM SCT250 19/13 A2994 RMK CI2 FU SLP135=

CYQF;2006-08-08 17:00;METAR CYQF 081700Z 17003KT 10SM SCT250 22/15 A2993 RMK CI2 FU SLP133=

CYQF;2006-08-08 19:00;METAR CYQF 081900Z 22006KT 10SM FEW110 BKN250 28/14 A2991 RMK AC2CI2 FU SLP126=

CYQF;2006-08-08 20:00;METAR CYQF 082000Z 17008KT 15SM FEW110 BKN250 30/12 A2991 RMK AC2CI2 SLP126=

CYQF;2006-08-08 21:00;METAR CYQF 082100Z 13010KT 15SM SCT110 BKN250 30/10 A2989 RMK AC3CI1 SLP117=

CYQF;2006-08-08 22:00;METAR CYQF 082200Z 16008KT 15SM SCT120 BKN250 30/09 A2988 RMK AC3CI2 SLP114=

CYQF;2006-08-08 23:00;METAR CYQF 082300Z 14007KT 15SM FEW120 BKN250 30/12 A2988 RMK AC2CI3 SLP112=

CYQF;2006-08-09 00:00;METAR CYQF 090000Z 10008KT 15SM FEW120 BKN250 30/12 A2986 RMK AC2CI3 SLP109=

CYQF;2006-08-09 01:00;METAR CYQF 090100Z 12008KT 12SM FEW120 BKN250 28/13 A2985 RMK AC1CI3 SLP105=

CYQF;2006-08-09 02:00;METAR CYQF 090200Z 13002KT 12SM FEW060 SCT120 BKN270 26/14 A2985 RMK CU1AC2CI2 SLP105=

CYQF;2006-08-09 03:00;METAR CYQF 090300Z 00000KT 12SM SCT060 SCT120 BKN250 24/14 A2985 RMK CU4AC1CI1 TCU ASOCTD SLP105=

CYQF;2006-08-09 04:00;METAR CYQF 090400Z 16003KT 12SM FEW055 FEW080 BKN250 20/14 A2986 RMK CU1AC2CI2 SLP106=

CYQF;2006-08-09 05:00;METAR CYQF 090500Z 00000KT 12SM SCT090 21/14 A2987 RMK AC3 SLP110=

CYQF;2006-08-09 06:00;METAR CYQF 090600Z 16005KT 15SM BKN090 19/14 A2986 RMK AC6 SLP105=

CYQF;2006-08-09 07:00;METAR CYQF 090700Z 30005KT 15SM OVC090 18/13 A2987 RMK AC8 SLP108=

CYQF;2006-08-09 08:00;METAR CYQF 090800Z 31008KT 15SM FEW050 OVC090 18/13 A2989 RMK SC2AC6 SLP113=

CYQF;2006-08-09 09:00;METAR CYQF 090900Z 34010KT 15SM OVC090 18/14 A2991 RMK AC8 SLP116=

CYQF;2006-08-09 10:00;METAR CYQF 091000Z 00000KT 15SM OVC080 16/14 A2993 RMK AC8 SLP121=

CYQF;2006-08-09 11:00;METAR CYQF 091100Z 31007KT 15SM OVC080 16/14 A2994 RMK AC8 SLP126=

CYQF;2006-08-09 12:00;METAR CYQF 091200Z 31015G23KT 15SM FEW040 BKN080 OVC250 16/13 A2992 RMK SC2AC5CI2 SLP120=

CYQF;2006-08-09 13:00;METAR CYQF 091300Z 30010KT 15SM FEW030 BKN070 OVC250 15/13 A2995 RMK SC2AC3CI2 ACC ASOCTD SLP132=

CYQF;2006-08-09 13:31;SPECI CYQF 091331Z 31010G15KT 15SM -SHRA FEW008 FEW030 SCT070 OVC250 RMK SF1SC2AC2CI2=

CYQF;2006-08-09 14:00;METAR CYQF 091400Z 33012KT 15SM -SHRA BKN010 OVC030 16/14 A2999 RMK SC6SC2 SLP144=

CYQF;2006-08-09 14:46;SPECI CYQF 091446Z 35008KT 15SM SCT010 BKN080 BKN250 RMK SC3AC2CI2=

CYQF;2006-08-09 15:00;METAR CYQF 091500Z 32013KT 15SM FEW010 SCT080 BKN250 16/14 A3000 RMK SC2AC2CI2 SLP156=

CYQF;2006-08-09 16:00;METAR CYQF 091600Z 32012KT 15SM FEW008 BKN080 OVC250 17/13 A2999 RMK SF1AC5CI2 SLP152=

CYQF;2006-08-09 17:00;METAR CYQF 091700Z 29010KT 15SM FEW008 FEW050 BKN080 OVC250 17/13 A3002 RMK SF1SC2AC3CI2 TR SF SLP160=

CYQF;2006-08-09 17:21;SPECI CYQF 091721Z 31012KT 15SM -SHRA FEW008 FEW050 BKN080 OVC250 RMK SF1SC2AC2CI2 TR SF TCU ASOCTD SE=

CYQF;2006-08-09 18:00;METAR CYQF 091800Z 33010KT 15SM FEW020 SCT080 BKN250 18/13 A3002 RMK CF1AC2CI2 SLP165=

CYQF;2006-08-09 19:00;METAR CYQF 091900Z 36008KT 15SM FEW025 BKN080 BKN250 18/13 A3001 RMK SC2AC3CI1 SLP162=

CYQF;2006-08-09 20:00;METAR CYQF 092000Z 36005KT 15SM FEW025 BKN080 BKN250 20/13 A3000 RMK SC2AC3CI1 SLP160=

CYQF;2006-08-09 21:00;METAR CYQF 092100Z 36008KT 15SM FEW025 SCT120 OVC250 20/14 A3000 RMK SC1AC2CI2 SLP158=

CYQF;2006-08-09 22:00;METAR CYQF 092200Z 36008KT 15SM FEW030 SCT120 BKN250 21/14 A3000 RMK SC1AC2CI2 SLP158=

CYQF;2006-08-09 23:00;METAR CYQF 092300Z 01012KT 15SM FEW030 SCT120 BKN250 21/13 A2998 RMK SC1AC2CI2 SLP153=

CYQF;2006-08-10 00:00;METAR CYQF 100000Z 01012KT 15SM BKN030 BKN120 BKN250 21/13 A3001 RMK SC5AC1CI0 CU ASOCTD SLP162=

CYQF;2006-08-10 01:00;METAR CYQF 100100Z 36006KT 15SM TS BKN030CB OVC120 19/13 A3002 RMK CB6AC2 SHRA LTG W SLP166=

CYQF;2006-08-10 01:20;SPECI CYQF 100120Z 36007KT 15SM -TSRA BKN030CB OVC120 RMK CB7AC1 LTGCG=

CYQF;2006-08-10 02:00;METAR CYQF 100200Z 34006KT 10SM -TSRA BKN030TCU OVC120 17/15 A3005 RMK TCU6AC2 CB EMBD O/H+S LGTCGCC SLP173=

CYQF;2006-08-10 03:00;METAR CYQF 100300Z 34005KT 15SM -SHRA FEW012 BKN040TCU BKN100 16/14 A3005 RMK CF1TCU6AC2 CB EMBD SH E S DIST LTNG SE SLP181=

CYQF;2006-08-10 04:00;METAR CYQF 100400Z CCA 36004KT 15SM BKN040 BKN100 OVC250 15/13 A3006 RMK SC5AC2CI2 CB EMBD OCNL LTNG DIST E SLP185=

CYQF;2006-08-10 04:23;SPECI CYQF 100423Z 28003KT 15SM -SHRA BKN045 BKN100 OVC250 RMK SC5AC2CI2 TCU EMBD=

CYQF;2006-08-10 05:00;METAR CYQF 100500Z 30004KT 15SM -SHRA BKN040 BKN100 OVC250 14/13 A3009 RMK SC5AC2CI2 TCU EMBD SLP194=

CYQF;2006-08-10 06:49;SPECI CYQF 100649Z 00000KT 15SM SCT040 BKN100 RMK SC4AC3=

CYQF;2006-08-10 07:00;METAR CYQF 100700Z 00000KT 15SM SCT040 BKN100 13/12 A3008 RMK SC3AC3 SLP192=

CYQF;2006-08-10 08:00;METAR CYQF 100800Z 29005KT 15SM FEW040 BKN100 12/12 A3008 RMK SC2AC4 SLP191=

CYQF;2006-08-10 09:00;METAR CYQF 100900Z 00000KT 15SM FEW040 BKN100 12/12 A3007 RMK SC2AC3 SLP189=

CYQF;2006-08-10 10:00;METAR CYQF 101000Z 00000KT 15SM FEW040 BKN100 12/12 A3009 RMK SC2AC4 SLP193=

CYQF;2006-08-10 11:00;METAR CYQF 101100Z 00000KT 8SM BCFG FEW010 FEW040 BKN080 12/12 A3010 RMK ST1SC2AC4 VIS S 3 SLP196=

CYQF;2006-08-10 11:33;SPECI CYQF 101133Z 00000KT 10SM BCFG BKN014 BKN080 RMK SC6AC2=

CYQF;2006-08-10 12:00;METAR CYQF 101200Z 00000KT 10SM BKN015 BKN080 12/12 A3010 RMK SC6AC2 SLP198=

CYQF;2006-08-10 13:00;METAR CYQF 101300Z 00000KT 15SM FEW015 BKN030 BKN080 12/12 A3009 RMK SC2SC4AC1 CU EMBD SLP195=

CYQF;2006-08-10 14:00;METAR CYQF 101400Z 12003KT 15SM FEW015 BKN030 BKN080 13/13 A3009 RMK SC1SC6AC1 CU EMBD SLP196=

CYQF;2006-08-10 15:00;METAR CYQF 101500Z 19005KT 15SM FEW008 BKN030 BKN080 14/13 A3010 RMK SF1SC6AC1 TCU EMBD SLP202=

CYQF;2006-08-10 16:00;METAR CYQF 101600Z 16004KT 15SM FEW008 FEW030 SCT080 BKN250 16/12 A3009 RMK SC1SC2AC1CI1 TCU ASOCTD SLP197=

CYQF;2006-08-10 17:00;METAR CYQF 101700Z 28002KT 15SM FEW020 SCT090 BKN250 17/11 A3007 RMK SC2AC2CI1 SLP193=

CYQF;2006-08-10 18:00;METAR CYQF 101800Z 14002KT 15SM FEW020 SCT090 BKN250 18/12 A3006 RMK SC2AC2CI2 SLP187=

CYQF;2006-08-10 19:00;METAR CYQF 101900Z 16004KT 15SM FEW030 SCT090 BKN250 19/13 A3005 RMK SC2AC2CI2 CU ASOCTD SLP184=

CYQF;2006-08-10 20:00;METAR CYQF 102000Z 10003KT 15SM SCT030 BKN090 OVC250 18/13 A3004 RMK SC4AC2CI2 CU ASOCTD SHS DIS SW SLP180=

CYQF;2006-08-10 20:11;SPECI CYQF 102011Z 00000KT 15SM -SHRA BKN030 BKN090 OVC250 RMK SC5AC2CI2 TCU ASOCTD=

CYQF;2006-08-10 21:00;METAR CYQF 102100Z 35004KT 15SM SCT030 BKN090 BKN250 18/15 A3003 RMK SC3AC2CI1 TCU ASOCTD RERA SLP176=

CYQF;2006-08-10 22:00;METAR CYQF 102200Z 03008KT 15SM -TSRA BKN030TCU OVC090 18/14 A2998 RMK TCU6AC2 CB ASOCTD SLP162=

CYQF;2006-08-10 22:52;SPECI CYQF 102252Z 30012G18KT 10SM -TSRA BKN004CB OVC030 RMK CB6SC2=

CYQF;2006-08-10 23:00;METAR CYQF 102300Z 30025G35KT 1SM +TSRAGR OVC004CB 07/06 A2996 RMK CB8 LTGCG HAIL DIAM 20MM SLP156=

CYQF;2006-08-10 23:12;SPECI CYQF 102312Z 32012KT 5SM +TSRA BKN008CB OVC030 RMK CB6SC2=

CYQF;2006-08-10 23:23;SPECI CYQF 102323Z 32008KT 8SM -TSRA BKN015CB OVC030 RMK CB6SC2 RERA LTGCCCG NE=

CYQF;2006-08-10 23:49;SPECI CYQF 102349Z 32012KT 10SM BKN015CB OVC030 RMK CB5SC3 RERA RETS REGR=

CYQF;2006-08-11 00:00;METAR CYQF 110000Z CCA 23008KT 15SM -SHRA FEW015 BKN030CB OVC090 11/10 A3002 RMK CF1CB6AC2 RETS REGR PRESRR PEAK GUST 65 SLP182=

CYQF;2006-08-11 01:00;METAR CYQF 110100Z 33004KT 15SM MIFG FEW015 BKN030CB OVC090 12/12 A2999 RMK CF1CB5AC2 SLP172=

CYQF;2006-08-11 02:00;METAR CYQF 110200Z 00000KT 15SM MIFG FEW020TCU BKN035CB OVC090 12/12 A2997 RMK TCU1CB4AC3 SLP167=

CYQF;2006-08-11 02:44;SPECI CYQF 110244Z 00000KT 15SM -SHRA MIFG FEW010 SCT040 BKN090 RMK CU1SC4AC3 SH NE S=

CYQF;2006-08-11 03:00;METAR CYQF 110300Z 26008KT 15SM -SHRA MIFG FEW010 BKN040 BKN090 11/11 A2997 RMK CU1SC5AC2 SLP163=

CYQF;2006-08-11 04:00;METAR CYQF 110400Z 26005KT 15SM MIFG FEW010 BKN040 11/11 A3000 RMK CU1SC7 SLP172=

CYQF;2006-08-11 04:46;SPECI CYQF 110446Z 34003KT 1/4SM FG OVC040 10/10 RMK FG5SC3 VIS S 5=

CYQF;2006-08-11 05:00;METAR CYQF 110500Z 31005KT 1SM BR BKN040 OVC090 10/10 A2997 RMK FG2SC5AC1 SLP163=

CYQF;2006-08-11 06:00;METAR CYQF 110600Z 35003KT 1SM BR OVC040 11/11 A2996 RMK FG2SC6 SLP154=

CYQF;2006-08-11 07:00;METAR CYQF 110700Z 00000KT 3/4SM BR OVC030 11/11 A2994 RMK FG5SC3 SLP146=

CYQF;2006-08-11 07:29;SPECI CYQF 110729Z 34004KT 1/4SM FG BKN030 RMK FG6SC1=

CYQF;2006-08-11 08:00;METAR CYQF 110800Z 33005KT 1SM BR BKN030 09/09 A2991 RMK FG2SC3 SLP139=

CYQF;2006-08-11 08:50;SPECI CYQF 110850Z 00000KT 1/2SM FG OVC030 RMK FG6SC2=

CYQF;2006-08-11 09:00;METAR CYQF 110900Z 00000KT 1/2SM FG OVC030 08/08 A2992 RMK FG6SC2 SLP141=

CYQF;2006-08-11 09:55;SPECI CYQF 110955Z 29003KT 3/4SM BR VV003 RMK FG8=

CYQF;2006-08-11 10:00;METAR CYQF 111000Z 29003KT 3/4SM BR VV003 11/11 A2991 RMK FG8 SLP140=

CYQF;2006-08-11 11:00;METAR CYQF 111100Z 32004KT 1SM BR VV004 11/11 A2990 RMK FG8 SLP136=

CYQF;2006-08-11 11:35;SPECI CYQF 111135Z 33004KT 2 1/2SM BR OVC006 RMK ST8=

CYQF;2006-08-11 12:00;METAR CYQF 111200Z 00000KT 2SM BR OVC007 11/11 A2989 RMK ST8 SLP136=

CYQF;2006-08-11 13:00;METAR CYQF 111300Z 00000KT 2SM BR OVC009 11/11 A2988 RMK ST8 SLP134=

CYQF;2006-08-11 13:39;SPECI CYQF 111339Z 00000KT 3SM BR OVC008 RMK ST8=

CYQF;2006-08-11 14:00;METAR CYQF 111400Z 32004KT 3SM -RA BR BKN006 OVC030 12/11 A2987 RMK SF6SC2 SLP132=

CYQF;2006-08-11 15:00;METAR CYQF 111500Z 34006KT 5SM BR OVC007 12/11 A2986 RMK SC8 SLP127=

CYQF;2006-08-11 16:00;METAR CYQF 111600Z 34007KT 5SM BR OVC005 12/11 A2984 RMK SF8 CIG RAG SLP121=

CYQF;2006-08-11 17:00;METAR CYQF 111700Z 35006KT 5SM BR OVC006 12/12 A2984 RMK SC8 CIG RGD SLP120=

CYQF;2006-08-11 18:00;METAR CYQF 111800Z 35007KT 6SM BR OVC006 13/12 A2984 RMK SC8 CIG RAG SLP116=

CYQF;2006-08-11 18:21;SPECI CYQF 111821Z 01006KT 6SM -RA BR BKN006 OVC025 RMK SF6SC2=

CYQF;2006-08-11 19:00;METAR CYQF 111900Z 34003KT 5SM -RA BR BKN006 OVC025 13/11 A2984 RMK SF6SC2 SLP117=

CYQF;2006-08-11 20:00;METAR CYQF 112000Z 26010KT 1 1/2SM RA BR OVC005 11/11 A2985 RMK SF8 SLP121=

CYQF;2006-08-11 20:31;SPECI CYQF 112031Z 29010G15KT 1 1/2SM RA BR OVC003 RMK SF8 CIG RAG=

CYQF;2006-08-11 21:51;SPECI CYQF 112151Z 28012G20KT 3SM -RA BR SCT005 OVC015 RMK SF4SC4=

CYQF;2006-08-11 22:00;METAR CYQF 112200Z 29012G20KT 3SM -RA BR SCT005 OVC015 11/11 A2986 RMK SF4SC4 /R20/ SLP131=

CYQF;2006-08-11 23:00;METAR CYQF 112300Z 29010G15KT 5SM -RA BR SCT005 OVC015 12/11 A2988 RMK SF4SC4 SLP135=

CYQF;2006-08-12 00:00;METAR CYQF 120000Z 30012G20KT 6SM -RA BR FEW005 OVC020 12/11 A2989 RMK SF2SC6 /R25/ SLP135=

CYQF;2006-08-12 01:00;METAR CYQF 120100Z 30013KT 8SM -RA FEW005 OVC020 11/10 A2990 RMK SF2SC6 SLP138=

CYQF;2006-08-12 02:00;METAR CYQF 120200Z 30015G22KT 8SM -RA FEW006 OVC020 11/10 A2991 RMK SF2SC6 SLP141=

CYQF;2006-08-12 02:48;SPECI CYQF 120248Z 29012KT 10SM FEW009 OVC025 RMK SC2SC6=

CYQF;2006-08-12 03:00;METAR CYQF 120300Z 30012KT 10SM FEW009 OVC025 11/09 A2991 RMK SC2SC6 SLP144=

CYQF;2006-08-12 04:00;METAR CYQF 120400Z 30012KT 10SM FEW008 BKN025 OVC070 10/09 A2992 RMK SC2SC4AC2 SLP147=

CYQF;2006-08-12 05:00;METAR CYQF 120500Z 30010KT 15SM FEW010 SCT025 OVC100 10/09 A2993 RMK SC2SC2AC4 SLP149=

CYQF;2006-08-12 06:00;METAR CYQF 120600Z 30010KT 15SM SCT025 OVC100 10/09 A2993 RMK SC3AC5 SLP150=

CYQF;2006-08-12 07:00;METAR CYQF 120700Z 29010KT 15SM SCT025 OVC100 10/09 A2993 RMK SC3AC5 SLP149=

CYQF;2006-08-12 08:00;METAR CYQF 120800Z 30010KT 15SM SCT025 BKN100 OVC210 10/09 A2993 RMK SC3AC3CI2 SLP149=

CYQF;2006-08-12 09:00;METAR CYQF 120900Z 30008KT 15SM SCT025 BKN080 OVC250 11/09 A2994 RMK SC3AC4CI1 SLP154=

CYQF;2006-08-12 10:00;METAR CYQF 121000Z 28005KT 15SM FEW025 BKN080 OVC250 10/09 A2994 RMK SC2AC4CI2 SLP154=

CYQF;2006-08-12 11:00;METAR CYQF 121100Z 29007KT 15SM FEW025 BKN080 OVC250 10/09 A2994 RMK SC2AC4CI2 SLP154=

CYQF;2006-08-12 12:00;METAR CYQF 121200Z 29005KT 15SM FEW030 BKN080 BKN250 10/08 A2995 RMK SC2AC4CI1 SLP159=

CYQF;2006-08-12 13:00;METAR CYQF 121300Z 28005KT 15SM SCT040 BKN100 BKN250 10/08 A2997 RMK SC3AC2CI1 SLP164=

CYQF;2006-08-12 14:00;METAR CYQF 121400Z 24002KT 15SM FEW030 BKN100 BKN250 10/08 A2998 RMK SC2AC2CI1 CU EMBD SLP168=

CYQF;2006-08-12 15:00;METAR CYQF 121500Z 28005KT 15SM FEW030 BKN100 BKN250 11/09 A2999 RMK SC2AC2CI1 TCU EMBD SLP172=

CYQF;2006-08-12 16:00;METAR CYQF 121600Z 30010KT 15SM FEW030TCU SCT100 BKN250 14/10 A3000 RMK TCU2AC2CI1 SHS DIST N SLP174=

CYQF;2006-08-12 17:00;METAR CYQF 121700Z 30004KT 15SM FEW030TCU FEW100 BKN250 15/10 A3001 RMK TCU2AC1CI1 SLP177=

CYQF;2006-08-12 18:00;METAR CYQF 121800Z 32004KT 15SM FEW030TCU FEW100 BKN250 16/09 A3000 RMK TCU2AC1CI1 SLP171=

CYQF;2006-08-12 19:00;METAR CYQF 121900Z 31006KT 15SM FEW035TCU SCT100 BKN250 18/10 A2999 RMK TCU2AC1CI1 SLP167=

CYQF;2006-08-12 20:00;METAR CYQF 122000Z 29008KT 15SM FEW035TCU SCT100 BKN250 18/08 A2999 RMK TCU2AC1CI1 SLP166=

CYQF;2006-08-12 21:00;METAR CYQF 122100Z 31011KT 15SM FEW040TCU BKN250 19/07 A2997 RMK TCU2CI1 CB DIST WNW SLP158=

CYQF;2006-08-12 22:00;METAR CYQF 122200Z 30007KT 15SM SCT050TCU BKN250 19/06 A2997 RMK TCU3CI1 CB DIST W + S SLP157=

CYQF;2006-08-12 22:37;SPECI CYQF 122237Z 33009KT 15SM -SHRA BKN040CB BKN250 RMK CB6CI0=

CYQF;2006-08-12 23:00;METAR CYQF 122300Z 31018G27KT 15SM -SHRA BKN040CB 14/08 A3000 RMK CB6 SLP166=

CYQF;2006-08-12 23:18;SPECI CYQF 122318Z 29010KT 15SM -TSRA BKN035CB RMK CB7=

CYQF;2006-08-13 00:00;METAR CYQF 130000Z 23007KT 15SM BKN040TCU BKN250 13/10 A2999 RMK TCU5CI1 CB E+SE SLP171=

CYQF;2006-08-13 01:00;METAR CYQF 130100Z 29006KT 15SM FEW040CB BKN250 18/07 A2999 RMK CB2CI1 SLP172=

CYQF;2006-08-13 03:00;METAR CYQF 130300Z 25006KT 15SM FEW040 13/04 A3000 RMK SC2 CB DIST E SLP172=

CYQF;2006-08-13 04:00;METAR CYQF 130400Z 22004KT 15SM FEW040 11/08 A3001 RMK SC2 SLP177=

CYQF;2006-08-13 05:00;METAR CYQF 130500Z 20006KT 15SM FEW040 09/07 A3002 RMK SC1 SLP180=

CYQF;2006-08-13 06:00;METAR CYQF 130600Z 20003KT 15SM FEW040 08/07 A3003 RMK SC2 SLP182=

CYQF;2006-08-13 07:00;METAR CYQF 130700Z 20005KT 15SM FEW080 08/07 A3003 RMK AC2 SLP182=

CYQF;2006-08-13 08:00;METAR CYQF 130800Z 22004KT 15SM FEW080 08/07 A3002 RMK AC1 SLP180=

CYQF;2006-08-13 09:00;METAR CYQF 130900Z 21004KT 15SM SKC 07/06 A3002 RMK SLP179=

CYQF;2006-08-13 10:00;METAR CYQF 131000Z 20003KT 15SM SKC 06/06 A3002 RMK SLP179=

CYQF;2006-08-13 11:00;METAR CYQF 131100Z 20003KT 15SM FEW080 06/05 A3003 RMK AC2 SLP180=

CYQF;2006-08-13 12:00;METAR CYQF 131200Z 20003KT 15SM SCT060 07/06 A3003 RMK SC4 SLP188=

CYQF;2006-08-13 13:00;METAR CYQF 131300Z 21006KT 15SM SCT060 06/06 A3004 RMK SC3 SLP189=

CYQF;2006-08-13 14:00;METAR CYQF 131400Z 00000KT 15SM FEW060 07/06 A3004 RMK SC2 SLP191=

CYQF;2006-08-13 15:00;METAR CYQF 131500Z 22005KT 15SM FEW080 12/08 A3005 RMK AC2 SLP189=

CYQF;2006-08-13 16:00;METAR CYQF 131600Z 27004KT 15SM FEW080 15/09 A3005 RMK AC2 SLP187=

CYQF;2006-08-13 17:00;METAR CYQF 131700Z 29005KT 15SM FEW035 FEW080 18/09 A3005 RMK CU1AC2 SLP187=

CYQF;2006-08-13 18:00;METAR CYQF 131800Z 31005KT 15SM FEW035 FEW080 19/07 A3004 RMK CU1AC2 SLP183=

CYQF;2006-08-13 19:00;METAR CYQF 131900Z 33004KT 15SM FEW050 21/07 A3002 RMK CU2 SLP178=

CYQF;2006-08-13 20:00;METAR CYQF 132000Z 33004KT 15SM SCT050 21/06 A3002 RMK CU4 SLP177=

CYQF;2006-08-13 21:00;METAR CYQF 132100Z 34003KT 15SM SCT050 SCT100 22/07 A3001 RMK CU3AC1 SLP172=

CYQF;2006-08-13 22:00;METAR CYQF 132200Z 00000KT 15SM FEW050 SCT240 22/05 A3001 RMK CU2CI0 SLP171=

CYQF;2006-08-13 23:00;METAR CYQF 132300Z 34003KT 15SM FEW050 22/06 A3000 RMK CU2 SLP168=

CYQF;2006-08-14 00:00;METAR CYQF 140000Z 24005KT 15SM FEW050 22/05 A3000 RMK CU1 SLP167=

CYQF;2006-08-14 01:00;METAR CYQF 140100Z 00000KT 15SM FEW050 22/05 A2999 RMK CU1 SLP165=

CYQF;2006-08-14 02:00;METAR CYQF 140200Z 16003KT 15SM SKC 21/08 A2999 RMK SLP165=

CYQF;2006-08-14 03:00;METAR CYQF 140300Z 00000KT 15SM SKC 19/09 A3000 RMK SLP164=

CYQF;2006-08-14 04:00;METAR CYQF 140400Z 16003KT 15SM SKC 14/09 A3001 RMK SLP168=

CYQF;2006-08-14 05:00;METAR CYQF 140500Z 18003KT 15SM SKC 12/08 A3002 RMK SLP170=

CYQF;2006-08-14 06:00;METAR CYQF 140600Z 18004KT 15SM SKC 11/08 A3001 RMK SLP171=

CYQF;2006-08-14 07:00;METAR CYQF 140700Z 00000KT 15SM SKC 11/06 A3001 RMK SLP171=

CYQF;2006-08-14 08:00;METAR CYQF 140800Z 20002KT 15SM SKC 10/06 A3001 RMK SLP170=

CYQF;2006-08-14 09:00;METAR CYQF 140900Z 19005KT 15SM SKC 09/06 A3000 RMK SLP166=

CYQF;2006-08-14 10:00;METAR CYQF 141000Z 20003KT 15SM SKC 08/06 A3000 RMK SLP166=

CYQF;2006-08-14 11:00;METAR CYQF 141100Z 21005KT 15SM SKC 08/06 A3000 RMK SLP164=

CYQF;2006-08-14 12:00;METAR CYQF 141200Z 21005KT 15SM SKC 07/06 A3000 RMK SLP166=

CYQF;2006-08-14 13:00;METAR CYQF 141300Z 20005KT 15SM SKC 07/06 A3000 RMK SLP166=

CYQF;2006-08-14 14:00;METAR CYQF 141400Z 23005KT 15SM SKC 10/08 A2999 RMK SLP165=

CYQF;2006-08-14 15:00;METAR CYQF 141500Z 22003KT 15SM SKC 13/09 A2998 RMK SLP157=

CYQF;2006-08-14 16:00;METAR CYQF 141600Z 00000KT 15SM SKC 17/10 A2997 RMK SLP154=

CYQF;2006-08-14 17:00;METAR CYQF 141700Z 00000KT 15SM SKC 20/10 A2995 RMK SLP149=

CYQF;2006-08-14 18:00;METAR CYQF 141800Z 20005KT 15SM SKC 22/09 A2995 RMK SLP145=

CYQF;2006-08-14 19:00;METAR CYQF 141900Z 16005KT 15SM FEW060 24/09 A2993 RMK CU1 SLP138=

CYQF;2006-08-14 20:00;METAR CYQF 142000Z 16008KT 15SM FEW060 24/06 A2991 RMK CU1 SLP134=

CYQF;2006-08-14 21:00;METAR CYQF 142100Z 19010KT 15SM FEW060 FEW250 25/07 A2990 RMK CU1CI1 SLP127=

CYQF;2006-08-14 22:00;METAR CYQF 142200Z 16010KT 15SM FEW060 FEW250 25/07 A2988 RMK CU1CI1 SLP121=

CYQF;2006-08-14 23:00;METAR CYQF 142300Z 18012KT 15SM FEW060 FEW250 26/08 A2986 RMK CU1CI1 SLP117=

CYQF;2006-08-15 00:00;METAR CYQF 150000Z 16013KT 15SM FEW060 FEW250 25/07 A2984 RMK CU1CI1 SLP110=

CYQF;2006-08-15 01:00;METAR CYQF 150100Z 16008KT 15SM FEW060 FEW250 24/08 A2982 RMK CU1CI1 SLP104=

CYQF;2006-08-15 02:00;METAR CYQF 150200Z 16004KT 15SM FEW060 FEW250 21/09 A2981 RMK SC1CI1 CU ASOCTD SLP100=

CYQF;2006-08-15 03:00;METAR CYQF 150300Z 15005KT 15SM FEW050TCU FEW250 19/09 A2981 RMK TCU1CI1 SLP096=

CYQF;2006-08-15 04:00;METAR CYQF 150400Z 34010G16KT 15SM FEW050 SCT250 16/09 A2983 RMK SC2CI1 SLP104=

CYQF;2006-08-15 05:00;METAR CYQF 150500Z 35014G20KT 15SM FEW050 FEW250 14/09 A2990 RMK SC1CI1 PRESRR SLP124=

CYQF;2006-08-15 06:00;METAR CYQF 150600Z 02010G15KT 15SM FEW090 13/09 A2990 RMK AC2 SLP128=

CYQF;2006-08-15 07:00;METAR CYQF 150700Z 31007KT 15SM FEW090 11/09 A2995 RMK AC2 SLP142=

CYQF;2006-08-15 08:00;METAR CYQF 150800Z 30007KT 15SM FEW080 10/09 A2995 RMK AC2 SLP143=

CYQF;2006-08-15 09:00;METAR CYQF 150900Z 00000KT 15SM FEW080 SCT250 10/09 A2994 RMK AC2CI1 SLP141=

CYQF;2006-08-15 10:00;METAR CYQF 151000Z 25004KT 15SM FEW090 FEW250 08/07 A2993 RMK AC1CI1 SLP138=

CYQF;2006-08-15 11:00;METAR CYQF 151100Z 24007KT 15SM FEW040 SCT090 BKN250 08/07 A2994 RMK SC1AC2CI1 SLP141=

CYQF;2006-08-15 12:00;METAR CYQF 151200Z 30007KT 15SM FEW040 BKN080 09/09 A2992 RMK SC2AC2 CU EMBD SLP134=

CYQF;2006-08-15 12:41;SPECI CYQF 151241Z 27007KT 15SM FEW040 SCT080 RMK SC1AC3 ACC ASOCTD=

CYQF;2006-08-15 13:00;METAR CYQF 151300Z 27007KT 15SM FEW080 09/09 A2994 RMK AC2 ACC/VIRGA ASOCTD SLP140=

CYQF;2006-08-15 14:00;METAR CYQF 151400Z 00000KT 15SM SCT080 10/10 A2995 RMK AC3 VIRGA/SHS S SLP144=

CYQF;2006-08-15 15:00;METAR CYQF 151500Z 32005KT 15SM SCT070 14/10 A2996 RMK AC3 SLP150=

CYQF;2006-08-15 16:00;METAR CYQF 151600Z 33008KT 15SM FEW070 15/09 A2997 RMK AC2 SLP154=

CYQF;2006-08-15 17:00;METAR CYQF 151700Z 34010KT 15SM FEW030 SCT070 SCT210 15/08 A2998 RMK CU1AC2CI1 SLP156=

CYQF;2006-08-15 18:00;METAR CYQF 151800Z 01009KT 15SM FEW030 FEW070 FEW210 17/08 A2998 RMK CU1AC2CI1 SLP161=

CYQF;2006-08-15 19:00;METAR CYQF 151900Z 32011KT 15SM FEW036 SCT100 SCT210 17/08 A2999 RMK CU2AC2CI0 SLP163=

CYQF;2006-08-15 20:00;METAR CYQF 152000Z 33011KT 15SM FEW040 BKN100 BKN210 17/08 A3000 RMK CU2AC3CI0 SLP166=

CYQF;2006-08-15 21:00;METAR CYQF 152100Z 35010G15KT 15SM FEW040 SCT120 18/09 A2999 RMK CU2AC2 SLP165=

CYQF;2006-08-15 22:00;METAR CYQF 152200Z 33007KT 15SM FEW040 SCT120 19/08 A3000 RMK CU2AC2 SLP167=

CYQF;2006-08-15 23:00;METAR CYQF 152300Z 32005KT 15SM FEW048 FEW120 SCT250 19/07 A2999 RMK CU2AC1CI0 SLP165=

CYQF;2006-08-16 00:00;METAR CYQF 160000Z 35005KT 15SM FEW050 FEW120 SCT250 19/08 A2999 RMK CU1AC2CI0 SLP165=

CYQF;2006-08-16 01:00;METAR CYQF 160100Z 35005KT 15SM FEW050 SCT120 SCT250 18/07 A3000 RMK SC2AC2CI0 SLP167=

CYQF;2006-08-16 02:00;METAR CYQF 160200Z 36005KT 15SM SCT060 SCT250 18/07 A3000 RMK SC2CI1 SLP169=

CYQF;2006-08-16 03:00;METAR CYQF 160300Z 00000KT 15SM FEW060 SCT250 16/08 A3001 RMK SC2CI0 SLP171=

CYQF;2006-08-16 04:00;METAR CYQF 160400Z 00000KT 15SM SCT070 14/08 A3003 RMK AC2 SLP177=

CYQF;2006-08-16 05:00;METAR CYQF 160500Z 00000KT 15SM FEW070 13/08 A3005 RMK AC2 SLP181=

CYQF;2006-08-16 06:00;METAR CYQF 160600Z 36002KT 15SM FEW070 10/08 A3005 RMK AC2 SLP188=

CYQF;2006-08-16 07:00;METAR CYQF 160700Z 33003KT 15SM SCT120 10/08 A3005 RMK AC3 SLP188=

CYQF;2006-08-16 08:00;METAR CYQF 160800Z 00000KT 15SM FEW120 SCT250 08/07 A3005 RMK AC1CI2 SLP189=

CYQF;2006-08-16 09:00;METAR CYQF 160900Z 23003KT 15SM BKN250 09/07 A3007 RMK CI2 SLP193=

CYQF;2006-08-16 10:00;METAR CYQF 161000Z 00000KT 15SM BKN250 09/08 A3007 RMK CI2 SLP194=

CYQF;2006-08-16 11:00;METAR CYQF 161100Z 00000KT 15SM BKN100 BKN250 08/07 A3007 RMK AC5CI1 SLP194=

CYQF;2006-08-16 12:00;METAR CYQF 161200Z 00000KT 15SM FEW040 BKN080 BKN250 09/08 A3007 RMK SC2AC3CI1 SLP193=

CYQF;2006-08-16 13:00;METAR CYQF 161300Z 16002KT 15SM BKN070 BKN250 09/08 A3007 RMK AC5CI1 SLP192=

CYQF;2006-08-16 14:00;METAR CYQF 161400Z 00000KT 15SM BKN070 BKN250 10/09 A3007 RMK AC5CI1 SLP193=

CYQF;2006-08-16 15:00;METAR CYQF 161500Z 00000KT 15SM BKN070 BKN250 13/09 A3007 RMK AC5CI1 SLP191=

CYQF;2006-08-16 16:00;METAR CYQF 161600Z 18004KT 15SM BKN070 BKN250 15/11 A3007 RMK AC6CI1 SLP191=

CYQF;2006-08-16 17:00;METAR CYQF 161700Z 17007KT 15SM FEW032 SCT070 BKN250 17/09 A3006 RMK CU1AC2CI2 SLP187=

CYQF;2006-08-16 18:00;METAR CYQF 161800Z 20006KT 15SM FEW036 FEW090 BKN250 18/09 A3005 RMK CU2AC1CI2 SLP185=

CYQF;2006-08-16 19:00;METAR CYQF 161900Z 19004KT 15SM FEW050 SCT090 BKN250 19/07 A3004 RMK CU2AC2CI0 SLP183=

CYQF;2006-08-16 20:00;METAR CYQF 162000Z 20004KT 15SM BKN040 BKN090 BKN250 20/07 A3004 RMK CU5AC2CI1 SLP181=

CYQF;2006-08-16 21:00;METAR CYQF 162100Z 15006KT 15SM SCT050 SCT090 BKN250 21/07 A3002 RMK CU3AC1CI2 SLP174=

CYQF;2006-08-16 22:00;METAR CYQF 162200Z 16008KT 15SM BKN050 BKN090 BKN250 20/08 A3003 RMK CU5AC1CI2 TCU EMBD SHS SW-NW SLP176=

CYQF;2006-08-16 22:42;SPECI CYQF 162242Z 19003KT 15SM -SHRA BKN050TCU BKN110 BKN250 RMK TCU5AC2CI1=

CYQF;2006-08-16 23:00;METAR CYQF 162300Z 16003KT 15SM BKN050TCU BKN110 BKN250 19/10 A3003 RMK TCU5AC2CI1 VIRGA SHS W-SW SLP175=

CYQF;2006-08-17 00:00;METAR CYQF 170000Z 00000KT 15SM SCT050TCU BKN110 BKN250 19/09 A3003 RMK TCU3AC2CI1 SHS S + SW SLP178=

CYQF;2006-08-17 01:00;METAR CYQF 170100Z 00000KT 15SM FEW050TCU SCT110 BKN250 19/09 A3003 RMK TCU2AC1CI1 SLP177=

CYQF;2006-08-17 02:00;METAR CYQF 170200Z 02004KT 15SM FEW050TCU FEW110 BKN260 18/12 A3003 RMK TCU1AC2CI1 SLP178=

CYQF;2006-08-17 03:00;METAR CYQF 170300Z 00000KT 15SM FEW110 FEW260 15/11 A3004 RMK AC1CI1 SLP182=

CYQF;2006-08-17 04:00;METAR CYQF 170400Z 00000KT 15SM FEW260 13/10 A3005 RMK CI1 SLP186=

CYQF;2006-08-17 05:00;METAR CYQF 170500Z 21002KT 15SM FEW260 12/10 A3006 RMK CI1 SLP190=

CYQF;2006-08-17 06:00;METAR CYQF 170600Z 19002KT 15SM FEW260 11/09 A3006 RMK CI1 SLP189=

CYQF;2006-08-17 07:00;METAR CYQF 170700Z 00000KT 15SM FEW100 08/08 A3006 RMK AC1 SLP188=

CYQF;2006-08-17 08:00;METAR CYQF 170800Z 22004KT 10SM FEW100 07/07 A3007 RMK AC1 BR SLP191=

CYQF;2006-08-17 08:27;SPECI CYQF 170827Z 22003KT 1/2SM FG SKC RMK FG2=

CYQF;2006-08-17 08:38;SPECI CYQF 170838Z 22003KT 1/4SM FG SKC RMK FG3=

CYQF;2006-08-17 09:00;METAR CYQF 170900Z 20004KT 1/4SM FG SKC 06/06 A3007 RMK FG4 SLP193=

CYQF;2006-08-17 09:40;SPECI CYQF 170940Z 19003KT 3/4SM BR SKC RMK FG2=

CYQF;2006-08-17 10:00;METAR CYQF 171000Z 18003KT 3/8SM FG SKC 05/05 A3007 RMK FG2 SLP195=

CYQF;2006-08-17 10:30;SPECI CYQF 171030Z 21003KT 5SM BCFG SKC RMK FG2=

CYQF;2006-08-17 11:00;METAR CYQF 171100Z 22003KT 5SM BCFG SKC 04/04 A3008 RMK FG2 SLP197=

CYQF;2006-08-17 12:00;METAR CYQF 171200Z 20002KT 10SM MIFG FEW090 05/05 A3008 RMK AC1 SLP201=

CYQF;2006-08-17 13:00;METAR CYQF 171300Z 21004KT 15SM FEW090 06/05 A3010 RMK AC1 SLP205=

CYQF;2006-08-17 14:00;METAR CYQF 171400Z 21004KT 15SM FEW090 07/07 A3011 RMK AC1 SLP209=

CYQF;2006-08-17 15:00;METAR CYQF 171500Z 23004KT 15SM FEW090 10/08 A3012 RMK AC1 SLP214=

CYQF;2006-08-17 16:00;METAR CYQF 171600Z 17003KT 15SM FEW090 FEW250 13/09 A3013 RMK AC1CI0 SLP217=

CYQF;2006-08-17 17:00;METAR CYQF 171700Z 19005KT 15SM FEW090 FEW250 17/10 A3014 RMK AC1CI0 SLP218=

CYQF;2006-08-17 18:00;METAR CYQF 171800Z 18003KT 15SM FEW100 FEW250 19/10 A3014 RMK AC1CI0 SLP213=

CYQF;2006-08-17 19:00;METAR CYQF 171900Z 00000KT 15SM FEW050 22/09 A3013 RMK CU1 SLP210=

CYQF;2006-08-17 20:00;METAR CYQF 172000Z 20004KT 15SM FEW055 22/08 A3012 RMK CU1 SLP208=

CYQF;2006-08-17 21:00;METAR CYQF 172100Z 17004KT 15SM FEW060 23/05 A3012 RMK CU2 SLP209=

CYQF;2006-08-17 22:00;METAR CYQF 172200Z 29004KT 15SM FEW060 23/05 A3012 RMK CU2 SLP209=

CYQF;2006-08-17 23:00;METAR CYQF 172300Z 00000KT 15SM FEW065 24/06 A3012 RMK CU2 SLP209=

CYQF;2006-08-18 00:00;METAR CYQF 180000Z 16002KT 15SM FEW060 FEW280 24/05 A3012 RMK CU1CI0 SLP209=

CYQF;2006-08-18 01:00;METAR CYQF 180100Z 18002KT 15SM FEW060 FEW280 23/06 A3012 RMK CU1CI0 SLP210=

CYQF;2006-08-18 02:00;METAR CYQF 180200Z 15003KT 15SM FEW060 FEW280 22/06 A3012 RMK CU1CI1 SLP210=

CYQF;2006-08-18 03:00;METAR CYQF 180300Z 15003KT 15SM FEW280 19/08 A3014 RMK CI1 SLP215=

CYQF;2006-08-18 04:00;METAR CYQF 180400Z 17003KT 15SM FEW280 16/08 A3015 RMK CI1 SLP220=

CYQF;2006-08-18 05:00;METAR CYQF 180500Z 19003KT 15SM FEW280 13/08 A3015 RMK CI1 SLP220=

CYQF;2006-08-18 06:00;METAR CYQF 180600Z 19003KT 15SM SKC 11/07 A3015 RMK SLP218=

CYQF;2006-08-18 07:00;METAR CYQF 180700Z 18003KT 15SM SKC 11/07 A3015 RMK SLP219=

CYQF;2006-08-18 08:00;METAR CYQF 180800Z 17002KT 15SM SKC 10/07 A3015 RMK SLP219=

CYQF;2006-08-18 09:00;METAR CYQF 180900Z 00000KT 15SM SKC 09/07 A3015 RMK SLP216=

CYQF;2006-08-18 10:00;METAR CYQF 181000Z 19003KT 15SM SKC 08/06 A3015 RMK SLP215=

CYQF;2006-08-18 11:00;METAR CYQF 181100Z 00000KT 15SM FEW080 07/06 A3014 RMK AC1 SLP214=

CYQF;2006-08-18 12:00;METAR CYQF 181200Z 20003KT 15SM FEW080 06/05 A3014 RMK AC1 ACC ASOCTED SLP214=

CYQF;2006-08-18 13:00;METAR CYQF 181300Z 19004KT 15SM FEW080 07/06 A3015 RMK AC2 SLP217=

CYQF;2006-08-18 14:00;METAR CYQF 181400Z 19004KT 15SM FEW080 09/07 A3015 RMK AC1 SLP217=

CYQF;2006-08-18 15:00;METAR CYQF 181500Z 19004KT 15SM SKC 13/09 A3015 RMK SLP217=

CYQF;2006-08-18 16:00;METAR CYQF 181600Z 18003KT 15SM SKC 16/10 A3015 RMK SLP217=

CYQF;2006-08-18 17:00;METAR CYQF 181700Z 17002KT 15SM SKC 19/10 A3015 RMK SLP215=

CYQF;2006-08-18 18:00;METAR CYQF 181800Z 23005KT 15SM FEW050 22/11 A3014 RMK CU1 SLP209=

CYQF;2006-08-18 19:00;METAR CYQF 181900Z 13003KT 15SM FEW050 23/11 A3013 RMK CU1 SLP206=

CYQF;2006-08-18 20:00;METAR CYQF 182000Z 00000KT 15SM FEW050TCU 25/09 A3011 RMK TCU1 SLP201=

CYQF;2006-08-18 21:00;METAR CYQF 182100Z 33005KT 15SM FEW050 FEW210 26/09 A3010 RMK CU1CI0 SLP195=

CYQF;2006-08-18 22:00;METAR CYQF 182200Z 22005KT 15SM FEW050 FEW210 26/08 A3008 RMK CU1CI0 CB TP NW SLP189=

CYQF;2006-08-18 23:00;METAR CYQF 182300Z 18005KT 15SM FEW060 FEW210 27/08 A3006 RMK SC1CI1 CB TP N SLP183=

CYQF;2006-08-19 00:00;METAR CYQF 190000Z 20003KT 15SM FEW060 FEW210 26/08 A3005 RMK SC1CI1 SLP179=

CYQF;2006-08-19 01:00;METAR CYQF 190100Z 17002KT 15SM FEW090 FEW210 26/08 A3003 RMK AC1CI1 SLP175=

CYQF;2006-08-19 02:00;METAR CYQF 190200Z 15003KT 15SM FEW090 SCT210 24/10 A3002 RMK AC1CI2 SLP171=

CYQF;2006-08-19 03:00;METAR CYQF 190300Z 16003KT 15SM FEW090 SCT210 20/10 A3001 RMK AC1CI2 SLP166=

CYQF;2006-08-19 04:00;METAR CYQF 190400Z 18005KT 15SM FEW090 FEW210 16/10 A3001 RMK AC1CI1 CB/LTG DIST N SLP167=

CYQF;2006-08-19 05:00;METAR CYQF 190500Z 19004KT 15SM FEW100 FEW210 15/09 A3001 RMK AC1CI1 SLP166=

CYQF;2006-08-19 06:00;METAR CYQF 190600Z 22004KT 15SM FEW100 15/09 A3001 RMK AC1 SLP161=

CYQF;2006-08-19 07:00;METAR CYQF 190700Z 20006KT 15SM FEW080 13/10 A3001 RMK AC1 SLP161=

CYQF;2006-08-19 08:00;METAR CYQF 190800Z 20004KT 15SM FEW080 12/09 A3000 RMK AC1 SLP159=

CYQF;2006-08-19 09:00;METAR CYQF 190900Z 23002KT 15SM SKC 12/09 A3001 RMK SLP161=

CYQF;2006-08-19 10:00;METAR CYQF 191000Z 33004KT 15SM SKC 09/07 A3003 RMK SLP166=

CYQF;2006-08-19 11:00;METAR CYQF 191100Z 32008KT 15SM SKC 11/09 A3005 RMK SLP174=

CYQF;2006-08-19 12:00;METAR CYQF 191200Z 00000KT 15SM FEW060 09/07 A3005 RMK SC1 SLP177=

CYQF;2006-08-19 13:00;METAR CYQF 191300Z 29005KT 15SM FEW060 09/08 A3005 RMK SC1 SLP179=

CYQF;2006-08-19 14:00;METAR CYQF 191400Z 00000KT 15SM FEW060 10/09 A3006 RMK SC1 SLP181=

CYQF;2006-08-19 15:00;METAR CYQF 191500Z 00000KT 15SM FEW080 14/11 A3006 RMK AC2 SLP183=

CYQF;2006-08-19 16:00;METAR CYQF 191600Z 35002KT 15SM FEW080 17/11 A3005 RMK AC2 SLP180=

CYQF;2006-08-19 17:00;METAR CYQF 191700Z 00000KT 15SM FEW080 19/10 A3005 RMK AC2 SLP178=

CYQF;2006-08-19 18:00;METAR CYQF 191800Z 06002KT 15SM SKC 20/11 A3004 RMK SLP174=

CYQF;2006-08-19 19:00;METAR CYQF 191900Z 00000KT 15SM SKC 21/11 A3002 RMK SLP168=

CYQF;2006-08-19 20:00;METAR CYQF 192000Z 05007KT 15SM SKC 23/12 A3000 RMK SLP163=

CYQF;2006-08-19 21:00;METAR CYQF 192100Z 09006KT 15SM FEW220 23/11 A2999 RMK CI1 SLP156=

CYQF;2006-08-19 22:00;METAR CYQF 192200Z 05008KT 15SM FEW040 SCT150 BKN250 23/11 A2998 RMK CU1AC2CI2 SHS DIST W SLP153=

CYQF;2006-08-19 23:00;METAR CYQF 192300Z 06005KT 15SM SCT040 BKN120 BKN250 22/11 A2997 RMK CU3AC2CI2 TCU EMBD/SHS W SLP151=

CYQF;2006-08-19 23:26;SPECI CYQF 192326Z 01004KT 15SM -TSRA BKN040TCU BKN120 RMK TCU5AC2 CB EMBD LTGCG N HVR SHS NE=

CYQF;2006-08-19 23:48;SPECI CYQF 192348Z 05008KT 15SM SCT040TCU BKN100 BKN250 RMK TCU3AC2CI1 CB TP NE SHS NW+NE=

CYQF;2006-08-20 00:00;METAR CYQF 200000Z CCA 05008KT 15SM SCT040TCU BKN100 BKN250 21/13 A2996 RETS RMK TCU3AC2CI0 CB TP NE SHS NW+NE SLP153=

CYQF;2006-08-20 00:26;SPECI CYQF 200026Z 04010KT 15SM TS SCT040CB BKN080 RMK CB3AC3 LTGCG N SHS NW-NE=

CYQF;2006-08-20 00:46;SPECI CYQF 200046Z 34010G28KT 15SM -TSRA BKN040CB BKN080 RMK CB6AC2 LTGICCCCG NW-NE VIS LWR N=

CYQF;2006-08-20 01:00;METAR CYQF 200100Z 35015G35KT 8SM TSRA BKN040CB OVC080 14/10 A3002 RMK CB6AC2 LTGICCCCG W-N-E SLP169=

CYQF;2006-08-20 01:05;SPECI CYQF 200105Z 36015G30KT 6SM TSRAGR BKN040CB OVC080 RMK CB6AC2 LTGICCCCG W-N-E HAIL DIAM 10MM=

CYQF;2006-08-20 01:16;SPECI CYQF 200116Z 36015G25KT 10SM -TSRA BKN040CB BKN080 RERA RMK CB6AC1 LTGICCCCG N-SE=

CYQF;2006-08-20 02:00;METAR CYQF 200200Z 01010G15KT 12SM -SHRA SCT040TCU BKN070 BKN220 13/11 A3003 RETSRA RMK TCU3AC3CI1 CB DIST E-SE SLP174=

CYQF;2006-08-20 02:09;SPECI CYQF 200209Z 03010G20KT 12SM -TSRA SCT040CB BKN070 RERA RMK CB4AC3 LTGCG NW-N=

CYQF;2006-08-20 03:00;METAR CYQF 200300Z 35004KT 15SM -TSRA SCT040CB BKN070 12/12 A3009 RMK CB4AC2 LTGICCCCG NE-E-S SLP201=

CYQF;2006-08-20 03:30;SPECI CYQF 200330Z 02002KT 15SM FEW040CB BKN070 BKN220 RETS RMK CB1AC4CI1 LTG DIST E=

CYQF;2006-08-20 04:00;METAR CYQF 200400Z 29005KT 15SM FEW040CB BKN070 12/11 A3009 RETS RMK CB1AC6 LTG DIST SE SLP201=

CYQF;2006-08-20 05:00;METAR CYQF 200500Z 00000KT 15SM FEW040CB BKN090 12/11 A3011 RMK CB1AC6 LTG DIST S SLP208=

CYQF;2006-08-20 06:00;METAR CYQF 200600Z 27006KT 15SM FEW040TCU BKN090 12/11 A3011 RMK TCU1AC5 SLP203=

CYQF;2006-08-20 07:00;METAR CYQF 200700Z 24005KT 15SM FEW040 SCT090 12/10 A3012 RMK SC1AC2 SLP206=

CYQF;2006-08-20 08:00;METAR CYQF 200800Z 20004KT 15SM FEW090 SCT250 09/09 A3013 RMK AC2CI1 SLP208=

CYQF;2006-08-20 09:00;METAR CYQF 200900Z 24002KT 15SM FEW090 FEW250 09/09 A3013 RMK AC1CI1 SLP207=

CYQF;2006-08-20 10:00;METAR CYQF 201000Z 20003KT 10SM FEW250 07/07 A3014 RMK CI1 MIFG SLP210=

CYQF;2006-08-20 11:00;METAR CYQF 201100Z 23005KT 15SM SKC 06/06 A3014 RMK MIFG SLP211=

CYQF;2006-08-20 12:00;METAR CYQF 201200Z 23002KT 5SM BR SKC 07/07 A3014 RMK SLP217=

CYQF;2006-08-20 12:25;SPECI CYQF 201225Z 22003KT 2SM BR SKC RMK FG1=

CYQF;2006-08-20 12:37;SPECI CYQF 201237Z 22004KT 3/4SM BR SKC RMK FG1=

CYQF;2006-08-20 13:00;METAR CYQF 201300Z 22003KT 1/2SM FG SKC 05/05 A3015 RMK FG1 SLP219=

CYQF;2006-08-20 13:17;SPECI CYQF 201317Z 00000KT 1 1/2SM BR SKC RMK FG1 VIS SE - S 1/2 FG=

CYQF;2006-08-20 13:43;SPECI CYQF 201343Z 00000KT 6SM BR SKC RMK MIFG=

CYQF;2006-08-20 14:00;METAR CYQF 201400Z 00000KT 6SM BR SKC 08/08 A3015 RMK SLP221=

CYQF;2006-08-20 15:00;METAR CYQF 201500Z 24002KT 15SM SKC 12/11 A3016 RMK SLP229=

CYQF;2006-08-20 16:00;METAR CYQF 201600Z 00000KT 15SM SKC 15/11 A3016 RMK SLP229=

CYQF;2006-08-20 17:00;METAR CYQF 201700Z 16002KT 15SM SKC 17/12 A3017 RMK SLP230=

CYQF;2006-08-20 18:00;METAR CYQF 201800Z 12002KT 15SM SKC 20/10 A3016 RMK SLP220=

CYQF;2006-08-20 19:00;METAR CYQF 201900Z 10003KT 15SM FEW040 20/09 A3015 RMK CF1 SLP217=

CYQF;2006-08-20 20:00;METAR CYQF 202000Z 10004KT 15SM FEW050 21/08 A3014 RMK CF1 SLP213=

CYQF;2006-08-20 21:00;METAR CYQF 202100Z 16003KT 15SM SKC 22/07 A3013 RMK SLP208=

CYQF;2006-08-20 22:00;METAR CYQF 202200Z 18010KT 15SM SKC 23/07 A3011 RMK SLP203=

CYQF;2006-08-20 23:00;METAR CYQF 202300Z 13008KT 15SM SKC 23/07 A3010 RMK SLP201=

CYQF;2006-08-21 00:00;METAR CYQF 210000Z 12006KT 15SM SKC 24/08 A3009 RMK SLP198=

CYQF;2006-08-21 01:00;METAR CYQF 210100Z 14006KT 15SM SKC 23/06 A3009 RMK SLP197=

CYQF;2006-08-21 02:00;METAR CYQF 210200Z 09008KT 15SM SKC 21/11 A3009 RMK SLP197=

CYQF;2006-08-21 03:00;METAR CYQF 210300Z 08005KT 15SM SKC 18/11 A3009 RMK SLP199=

CYQF;2006-08-21 04:00;METAR CYQF 210400Z 08004KT 15SM SKC 16/11 A3011 RMK SLP205=

CYQF;2006-08-21 05:00;METAR CYQF 210500Z 00000KT 15SM SKC 15/10 A3012 RMK SLP207=

CYQF;2006-08-21 06:00;METAR CYQF 210600Z 00000KT 15SM SKC 14/09 A3012 RMK SLP203=

CYQF;2006-08-21 07:00;METAR CYQF 210700Z 00000KT 15SM SKC 14/08 A3012 RMK SLP202=

CYQF;2006-08-21 08:00;METAR CYQF 210800Z 17006KT 15SM SKC 13/08 A3012 RMK SLP202=

CYQF;2006-08-21 09:00;METAR CYQF 210900Z 16007KT 15SM SKC 12/08 A3011 RMK SLP200=

CYQF;2006-08-21 10:00;METAR CYQF 211000Z 15007KT 15SM SKC 12/07 A3010 RMK SLP197=

CYQF;2006-08-21 11:00;METAR CYQF 211100Z 15004KT 15SM SKC 12/07 A3009 RMK SLP193=

CYQF;2006-08-21 12:00;METAR CYQF 211200Z 16004KT 15SM SKC 11/07 A3008 RMK SLP189=

CYQF;2006-08-21 13:00;METAR CYQF 211300Z 13003KT 15SM SCT250 11/07 A3007 RMK CI1 SLP187=

CYQF;2006-08-21 14:00;METAR CYQF 211400Z 18003KT 15SM SCT250 10/07 A3007 RMK CI2 SLP186=

CYQF;2006-08-21 15:00;METAR CYQF 211500Z 18003KT 15SM BKN250 13/08 A3006 RMK CI2 SLP187=

CYQF;2006-08-21 16:00;METAR CYQF 211600Z 20004KT 15SM BKN250 16/09 A3006 RMK CI2 SLP187=

CYQF;2006-08-21 17:00;METAR CYQF 211700Z 15004KT 15SM BKN250 18/11 A3005 RMK CI2 SLP184=

CYQF;2006-08-21 18:00;METAR CYQF 211800Z 15003KT 15SM BKN250 19/12 A3005 RMK CI2 SLP179=

CYQF;2006-08-21 19:00;METAR CYQF 211900Z 23003KT 15SM BKN250 21/12 A3004 RMK CI2 SLP175=

CYQF;2006-08-21 20:00;METAR CYQF 212000Z 00000KT 15SM BKN250 23/12 A3002 RMK CI2 SLP171=

CYQF;2006-08-21 21:00;METAR CYQF 212100Z 00000KT 15SM BKN250 24/12 A3001 RMK CI2 SLP163=

CYQF;2006-08-21 22:00;METAR CYQF 212200Z 05003KT 15SM BKN250 26/12 A2999 RMK CI3 SLP158=

CYQF;2006-08-21 23:00;METAR CYQF 212300Z 06003KT 15SM BKN250 27/10 A2997 RMK CI3 SLP152=

CYQF;2006-08-22 00:00;METAR CYQF 220000Z 06006KT 15SM BKN250 27/12 A2996 RMK CI2 SLP146=

CYQF;2006-08-22 01:00;METAR CYQF 220100Z 07008KT 15SM BKN250 24/14 A2995 RMK CI3 SLP141=

CYQF;2006-08-22 02:00;METAR CYQF 220200Z 09006KT 15SM FEW150 BKN210 22/15 A2995 RMK AC2CI2 SLP141=

CYQF;2006-08-22 03:00;METAR CYQF 220300Z 09004KT 15SM FEW150 SCT210 19/14 A2995 RMK AC2CI1 SLP145=

CYQF;2006-08-22 04:00;METAR CYQF 220400Z 09004KT 15SM FEW120 FEW210 18/14 A2995 RMK AC1CI1 SLP147=

CYQF;2006-08-22 05:00;METAR CYQF 220500Z 00000KT 15SM FEW120 FEW210 16/13 A2995 RMK AC1CI0 SLP145=

CYQF;2006-08-22 06:00;METAR CYQF 220600Z 29005KT 15SM FEW210 13/11 A2995 RMK CI1 SLP146=

CYQF;2006-08-22 07:00;METAR CYQF 220700Z 00000KT 15SM FEW210 13/11 A2995 RMK CI1 SLP145=

CYQF;2006-08-22 08:00;METAR CYQF 220800Z 20003KT 15SM FEW210 10/09 A2994 RMK CI1 SLP144=

CYQF;2006-08-22 09:00;METAR CYQF 220900Z 21003KT 15SM FEW210 10/10 A2994 RMK CI0 SLP139=

CYQF;2006-08-22 10:00;METAR CYQF 221000Z 20004KT 15SM FEW210 09/08 A2993 RMK CI0 SLP137=

CYQF;2006-08-22 11:00;METAR CYQF 221100Z 22005KT 10SM SKC 07/07 A2993 RMK VIS LWR N BR SLP136=

CYQF;2006-08-22 12:00;METAR CYQF 221200Z 22004KT 10SM FEW080 SCT210 07/07 A2993 RMK AC2CI0 MIFG SLP137=

CYQF;2006-08-22 13:00;METAR CYQF 221300Z 20004KT 15SM FEW090 BKN230 07/07 A2992 RMK AC2CI2 MIFG SLP135=

CYQF;2006-08-22 14:00;METAR CYQF 221400Z 00000KT 10SM SCT090 BKN250 10/09 A2992 RMK AC3CI1 SLP134=

CYQF;2006-08-22 15:00;METAR CYQF 221500Z 26003KT 10SM BKN080 BKN250 14/12 A2992 RMK AC5CI1 FU SLP134=

CYQF;2006-08-22 16:00;METAR CYQF 221600Z 00000KT 10SM SCT080 BKN250 17/10 A2991 RMK AC4CI1 FU SLP133=

CYQF;2006-08-22 17:00;METAR CYQF 221700Z 18002KT 10SM FEW080 BKN250 20/12 A2990 RMK AC2CI2 FU SLP128=

CYQF;2006-08-22 18:00;METAR CYQF 221800Z 00000KT 10SM FEW080 BKN250 23/12 A2988 RMK AC2CI2 FU SLP120=

CYQF;2006-08-22 19:00;METAR CYQF 221900Z 00000KT 10SM FEW080 BKN250 26/14 A2987 RMK AC2CI2 FU SLP117=

CYQF;2006-08-22 20:00;METAR CYQF 222000Z 14009KT 10SM SCT080 BKN250 28/07 A2987 RMK AC3CI2 FU SLP115=

CYQF;2006-08-22 21:00;METAR CYQF 222100Z 17004KT 10SM SCT050 BKN090 OVC250 28/09 A2986 RMK SC3AC2CI2 FU SLP108=

CYQF;2006-08-22 22:00;METAR CYQF 222200Z 28012KT 10SM SCT055 BKN090 OVC250 25/14 A2986 RMK SC3AC3CI1 FU SLP110=

CYQF;2006-08-22 23:00;METAR CYQF 222300Z 30012KT 10SM SCT050 BKN090 OVC250 24/13 A2989 RMK SC3AC2CI2 FU SLP119=

CYQF;2006-08-23 00:00;METAR CYQF 230000Z 33011KT 10SM SCT050 BKN090 OVC250 22/11 A2987 RMK SC4AC2CI1 FEW CU FU SLP122=

CYQF;2006-08-23 01:00;METAR CYQF 230100Z 26010KT 10SM BKN050 OVC100 20/11 A2991 RMK SC5AC3 TCU EMBD FU SLP133=

CYQF;2006-08-23 02:00;METAR CYQF 230200Z 23006KT 10SM BKN050 BKN100 OVC250 19/12 A2995 RMK SC5AC2CI1 TCU EMBD FU SLP146=

CYQF;2006-08-23 02:05;SPECI CYQF 230205Z 22010KT 10SM -SHRA BKN050 BKN100 OVC250 RMK SC5AC2CI1 TCU EMBD FU=

CYQF;2006-08-23 02:41;SPECI CYQF 230241Z 34010KT 10SM VCSH SCT050 BKN100 OVC250 RMK SC3AC2CI1 TCU ASOCTD=

CYQF;2006-08-23 03:00;METAR CYQF 230300Z 32010KT 10SM VCSH SCT050 BKN100 OVC250 17/12 A2989 RMK SC3AC2CI1 SLP129=

CYQF;2006-08-23 04:00;METAR CYQF 230400Z 21005KT 15SM SCT050 BKN090 13/11 A2990 RMK SC2AC4=

CYQF;2006-08-23 05:00;METAR CYQF 230500Z 20007KT 15SM FEW050 SCT090 12/10 A2991 RMK SC2AC1 SLP135=

CYQF;2006-08-23 06:00;METAR CYQF 230600Z 00000KT 15SM FEW050 SCT250 12/10 A2994 RMK SC2CI0 SLP139=

CYQF;2006-08-23 07:00;METAR CYQF 230700Z 05004KT 15SM SCT050 BKN210 11/10 A2991 RMK SC3CI2 SLP132=

CYQF;2006-08-23 08:00;METAR CYQF 230800Z 16008KT 15SM FEW050 SCT120 BKN210 11/10 A2989 RMK SC2AC2CI1 SLP126=

CYQF;2006-08-23 09:00;METAR CYQF 230900Z 14004KT 15SM FEW050 BKN120 BKN250 12/10 A2989 RMK SC2AC2CI1 SLP119=

CYQF;2006-08-23 10:00;METAR CYQF 231000Z 36005KT 15SM SCT120 BKN250 12/10 A2991 RMK AC3CI2 SLP124=

CYQF;2006-08-23 11:00;METAR CYQF 231100Z 36004KT 15SM SCT120 BKN250 13/11 A2991 RMK AC3CI3 SLP124=

CYQF;2006-08-23 12:00;METAR CYQF 231200Z 36007KT 15SM SCT100 BKN250 13/11 A2992 RMK AC3CI2 SLP131=

CYQF;2006-08-23 13:00;METAR CYQF 231300Z 02007KT 15SM BKN100 BKN250 13/12 A2992 RMK AC5CI1 SLP131=

CYQF;2006-08-23 14:00;METAR CYQF 231400Z 35005KT 15SM FEW010 BKN090 BKN250 12/12 A2993 RMK SF1AC5CI1 SLP134=

CYQF;2006-08-23 15:00;METAR CYQF 231500Z 01009KT 15SM FEW010 SCT090 BKN250 13/11 A2994 RMK SF1AC2CI0 SLP144=

CYQF;2006-08-23 16:00;METAR CYQF 231600Z 35004KT 15SM FEW012 BKN090 BKN250 14/11 A2996 RMK SF2AC4CI1 SLP152=

CYQF;2006-08-23 17:00;METAR CYQF 231700Z 36005KT 15SM FEW013 BKN090 BKN250 15/11 A2996 RMK SC2AC2CI1 SLP153=

CYQF;2006-08-23 18:00;METAR CYQF 231800Z 29006KT 15SM SCT016 OVC090 15/11 A2997 RMK CU4AC4 SLP161=

CYQF;2006-08-23 19:00;METAR CYQF 231900Z 31006KT 15SM SCT020 OVC090 15/11 A2998 RMK CU4AC4 SHS=

CYQF;2006-08-23 19:43;SPECI CYQF 231943Z 30004KT 8SM -SHRA BKN020 OVC090 RMK SC6AC2 TCU EMBD=

CYQF;2006-08-23 20:00;METAR CYQF 232000Z 12004KT 3SM -SHRA BKN023 OVC090 13/12 A3000 RMK CU6AC2 TCU EMBD SLP168=

CYQF;2006-08-23 21:00;METAR CYQF 232100Z 04008KT 10SM -SHRA BKN030 BKN090 BKN250 13/12 A2995 RMK CU6AC1CI1 TCU EMBD SLP154=

CYQF;2006-08-23 22:00;METAR CYQF 232200Z 33003KT 15SM FEW010 FEW030 BKN090 BKN250 15/11 A2996 RMK CU1CU2AC2CI1 SLP158=

CYQF;2006-08-23 23:00;METAR CYQF 232300Z 29006KT 15SM FEW016 SCT050 BKN090 BKN250 15/10 A2997 RMK CU2SC2AC2CI1 SLP160=

CYQF;2006-08-24 00:00;METAR CYQF 240000Z 32003KT 15SM FEW016 BKN040 BKN090 BKN250 15/11 A2995 RMK CU1SC4AC2CI1 SHS SW-W SLP153=

CYQF;2006-08-24 01:00;METAR CYQF 240100Z 28007KT 15SM FEW015 BKN040 BKN090 BKN250 14/12 A2996 RMK CU2SC2AC2CI0 SLP155=

CYQF;2006-08-24 02:00;METAR CYQF 240200Z 30005KT 15SM SCT015 BKN060 BKN250 14/11 A2996 RMK CU4SC2CI1 SLP155=

CYQF;2006-08-24 03:00;METAR CYQF 240300Z 26005KT 15SM FEW015 BKN050 OVC250 12/11 A2996 RMK CU2SC4CI1 SLP159=

CYQF;2006-08-24 04:00;METAR CYQF 240400Z 26004KT 15SM FEW015 BKN040 BKN250 11/10 A2996 RMK SC1SC4CI2 SLP159=

CYQF;2006-08-24 05:00;METAR CYQF 240500Z 26004KT 15SM BKN040 BKN100 12/10 A2996 RMK SC5AC2 SLP158=

CYQF;2006-08-24 06:00;METAR CYQF 240600Z 27004KT 15SM BKN040 BKN100 12/10 A2996 RMK SC5AC2 SLP155=

CYQF;2006-08-24 07:00;METAR CYQF 240700Z 28005KT 15SM BKN040 BKN100 11/10 A2996 RMK SC6AC2 SLP157=

CYQF;2006-08-24 08:00;METAR CYQF 240800Z 32004KT 15SM BKN040 BKN090 11/10 A2997 RMK SC5AC2 SLP158=

CYQF;2006-08-24 09:00;METAR CYQF 240900Z 00000KT 15SM FEW040 SCT090 10/09 A2997 RMK SC2AC2 SLP164=

CYQF;2006-08-24 10:00;METAR CYQF 241000Z 24003KT 15SM FEW040 FEW090 08/08 A2997 RMK SC1AC2 SLP163=

CYQF;2006-08-24 11:00;METAR CYQF 241100Z 26006KT 15SM BKN100 08/08 A2997 RMK AC3 SLP164=

CYQF;2006-08-24 12:00;METAR CYQF 241200Z 21006KT 15SM FEW040 BKN100 08/07 A2997 RMK SC1AC3 SLP163=

CYQF;2006-08-24 13:00;METAR CYQF 241300Z 24006KT 15SM FEW040 BKN100 07/07 A2997 RMK SC1AC2 SLP163=

CYQF;2006-08-24 14:00;METAR CYQF 241400Z 24005KT 15SM FEW040 BKN100 09/08 A2997 RMK SC1AC5 SLP164=

CYQF;2006-08-24 15:00;METAR CYQF 241500Z 21002KT 15SM BKN100 09/08 A2997 RMK AC6 SLP167=

CYQF;2006-08-24 16:00;METAR CYQF 241600Z 30008KT 15SM FEW030 SCT100 15/10 A2997 RMK CU1AC3 SLP166=

CYQF;2006-08-24 17:00;METAR CYQF 241700Z 34008KT 15SM FEW030 FEW100 17/09 A2997 RMK CU1AC2 SLP165=

CYQF;2006-08-24 18:00;METAR CYQF 241800Z 31009KT 15SM FEW040 FEW120 18/09 A2997 RMK CU1AC2 SLP155=

CYQF;2006-08-24 19:00;METAR CYQF 241900Z 34011KT 15SM FEW050 FEW120 19/07 A2996 RMK CU1AC1 SLP154=

CYQF;2006-08-24 20:00;METAR CYQF 242000Z 36006KT 15SM FEW050TCU SCT120 20/07 A2996 RMK TCU2AC1 SLP153=

CYQF;2006-08-24 21:00;METAR CYQF 242100Z 35008KT 15SM SCT050TCU SCT100 20/06 A2995 RMK TCU3AC1 SLP151=

CYQF;2006-08-24 22:00;METAR CYQF 242200Z 31002KT 15SM SCT055TCU BKN120 BKN270 21/04 A2995 RMK TCU4AC1CI0 SLP148=

CYQF;2006-08-24 23:00;METAR CYQF 242300Z 32006KT 15SM FEW055TCU SCT120 BKN270 21/06 A2994 RMK TCU2AC1CI1 SLP146=

CYQF;2006-08-25 00:00;METAR CYQF 250000Z 35002KT 15SM FEW055TCU FEW120 BKN270 21/06 A2994 RMK TCU2AC1CI2 SLP147=

CYQF;2006-08-25 01:00;METAR CYQF 250100Z 33005KT 15SM FEW045 FEW120 BKN270 19/08 A2995 RMK CU1AC2CI1 SLP149=

CYQF;2006-08-25 02:00;METAR CYQF 250200Z 00000KT 15SM FEW040 SCT090 BKN270 18/09 A2995 RMK CU1AC3CI1 SLP152=

CYQF;2006-08-25 03:00;METAR CYQF 250300Z 26005KT 15SM FEW030 SCT090 BKN270 15/08 A2998 RMK CU1AC2CI1 SLP166=

CYQF;2006-08-25 04:00;METAR CYQF 250400Z 27005KT 15SM FEW030 SCT090 BKN270 14/08 A3000 RMK CU1AC2CI0 SLP173=

CYQF;2006-08-25 05:00;METAR CYQF 250500Z 29008KT 15SM FEW090 13/08 A3002 RMK AC2 SLP178=

CYQF;2006-08-25 06:00;METAR CYQF 250600Z 24003KT 15SM SCT090 11/08 A3003 RMK AC3 SLP178=

CYQF;2006-08-25 07:00;METAR CYQF 250700Z 24004KT 15SM BKN090 10/09 A3004 RMK AC6 SLP179=

CYQF;2006-08-25 08:00;METAR CYQF 250800Z 26004KT 15SM BKN090 12/09 A3005 RMK AC6 SLP182=

CYQF;2006-08-25 09:00;METAR CYQF 250900Z 30004KT 15SM BKN090 13/08 A3005 RMK AC6 SLP182=

CYQF;2006-08-25 10:00;METAR CYQF 251000Z 29007KT 15SM BKN090 12/08 A3007 RMK AC6 SLP186=

CYQF;2006-08-25 11:00;METAR CYQF 251100Z 28007KT 15SM SCT090 11/08 A3008 RMK AC3 SLP189=

CYQF;2006-08-25 12:00;METAR CYQF 251200Z 29004KT 15SM SCT090 10/07 A3009 RMK AC2 SLP198=

CYQF;2006-08-25 13:00;METAR CYQF 251300Z 29008KT 15SM SCT090 10/07 A3010 RMK AC2 SLP201=

CYQF;2006-08-25 14:00;METAR CYQF 251400Z 31009KT 15SM FEW080 FEW250 11/08 A3012 RMK AC2CI0 SLP207=

CYQF;2006-08-25 15:00;METAR CYQF 251500Z 34007KT 15SM FEW080 FEW250 14/09 A3013 RMK AC1CI0 SLP214=

CYQF;2006-08-25 16:00;METAR CYQF 251600Z 36008KT 15SM FEW080 FEW250 15/09 A3013 RMK AC1CI0 SLP213=

CYQF;2006-08-25 17:00;METAR CYQF 251700Z 30007KT 15SM FEW025 FEW080 FEW250 16/10 A3013 RMK CU1AC1CI0 SLP213=

CYQF;2006-08-25 18:00;METAR CYQF 251800Z 34005KT 15SM FEW030 17/10 A3012 RMK CU2 SLP210=

CYQF;2006-08-25 19:00;METAR CYQF 251900Z 34003KT 15SM BKN030 17/09 A3011 RMK CU5 SLP206=

CYQF;2006-08-25 20:00;METAR CYQF 252000Z 33005KT 15SM SCT035 19/10 A3009 RMK CU4 SLP201=

CYQF;2006-08-25 21:00;METAR CYQF 252100Z 32006KT 15SM SCT040 19/08 A3008 RMK CU4 SLP193=

CYQF;2006-08-25 22:00;METAR CYQF 252200Z 35003KT 15SM SCT045 20/07 A3007 RMK CU4 SLP188=

CYQF;2006-08-25 23:00;METAR CYQF 252300Z 00000KT 15SM SCT045 20/07 A3005 RMK CU3 SLP183=

CYQF;2006-08-26 00:00;METAR CYQF 260000Z 00000KT 15SM FEW045 20/08 A3004 RMK CU2 SLP180=

CYQF;2006-08-26 01:00;METAR CYQF 260100Z 00000KT 15SM FEW250 20/08 A3003 RMK CI1 SLP175=

CYQF;2006-08-26 02:00;METAR CYQF 260200Z 12002KT 15SM FEW250 19/09 A3002 RMK CI1 SLP172=

CYQF;2006-08-26 03:00;METAR CYQF 260300Z 12004KT 15SM FEW250 16/08 A3001 RMK CI2 SLP170=

CYQF;2006-08-26 04:00;METAR CYQF 260400Z 16003KT 15SM FEW250 13/08 A3001 RMK CI1 SLP170=

CYQF;2006-08-26 05:00;METAR CYQF 260500Z 17004KT 15SM FEW250 12/08 A3001 RMK CI1 SLP171=

CYQF;2006-08-26 06:00;METAR CYQF 260600Z 12003KT 15SM SKC 12/08 A3001 RMK SLP169=

CYQF;2006-08-26 07:00;METAR CYQF 260700Z 13002KT 15SM SKC 12/08 A2999 RMK SLP165=

CYQF;2006-08-26 08:00;METAR CYQF 260800Z 16004KT 15SM SKC 11/07 A2998 RMK SLP162=

CYQF;2006-08-26 09:00;METAR CYQF 260900Z 19005KT 15SM SKC 09/07 A2997 RMK SLP160=

CYQF;2006-08-26 10:00;METAR CYQF 261000Z 21002KT 15SM FEW250 08/06 A2997 RMK CI1 SLP158=

CYQF;2006-08-26 11:00;METAR CYQF 261100Z 00000KT 15SM FEW250 07/06 A2996 RMK CI2 SLP156=

CYQF;2006-08-26 12:00;METAR CYQF 261200Z 22002KT 15SM FEW250 06/06 A2996 RMK CI2 SLP156=

CYQF;2006-08-26 13:00;METAR CYQF 261300Z 21002KT 15SM BKN250 07/06 A2996 RMK CI4 SLP156=

CYQF;2006-08-26 14:00;METAR CYQF 261400Z 21003KT 15SM FEW100 BKN250 08/07 A2997 RMK AC1CI2 SLP158=

CYQF;2006-08-26 15:00;METAR CYQF 261500Z 26005KT 15SM FEW100 BKN250 12/10 A2997 RMK AC1CI2 SLP160=

CYQF;2006-08-26 16:00;METAR CYQF 261600Z 23002KT 15SM FEW100 BKN250 15/10 A2998 RMK AC1CI2 SLP161=

CYQF;2006-08-26 17:00;METAR CYQF 261700Z 34002KT 15SM BKN250 18/11 A2998 RMK CI2 SLP162=

CYQF;2006-08-26 18:00;METAR CYQF 261800Z 01004KT 15SM SCT250 21/10 A2997 RMK CI2 SLP154=

CYQF;2006-08-26 19:00;METAR CYQF 261900Z 02008KT 15SM FEW120 SCT250 23/09 A2997 RMK AC1CI1 SLP153=

CYQF;2006-08-26 20:00;METAR CYQF 262000Z 02006KT 15SM FEW050 SCT250 24/08 A2996 RMK CF1CI1 SLP150=

CYQF;2006-08-26 21:00;METAR CYQF 262100Z 23003KT 15SM FEW060 SCT250 24/08 A2995 RMK CU1CI1 SLP147=

CYQF;2006-08-26 22:00;METAR CYQF 262200Z 00000KT 15SM FEW060 FEW250 24/08 A2995 RMK CU1CI1 SLP145=

CYQF;2006-08-26 23:00;METAR CYQF 262300Z 00000KT 15SM FEW060 FEW250 24/08 A2994 RMK CU1CI1 SLP143=

CYQF;2006-08-27 00:00;METAR CYQF 270000Z 35007KT 15SM SCT250 24/10 A2995 RMK CI2 SLP147=

CYQF;2006-08-27 01:00;METAR CYQF 270100Z 04003KT 15SM SCT250 24/06 A2995 RMK CI2 SLP147=

CYQF;2006-08-27 02:00;METAR CYQF 270200Z 08004KT 15SM FEW250 22/09 A2996 RMK CI1 SLP151=

CYQF;2006-08-27 03:00;METAR CYQF 270300Z 00000KT 15SM FEW100 FEW250 18/09 A2997 RMK AC1CI1 SLP156=

CYQF;2006-08-27 04:00;METAR CYQF 270400Z 00000KT 15SM SKC 15/09 A2999 RMK SLP162=

CYQF;2006-08-27 05:00;METAR CYQF 270500Z 00000KT 15SM FEW250 13/08 A3000 RMK CI0 SLP166=

CYQF;2006-08-27 06:00;METAR CYQF 270600Z 00000KT 15SM FEW250 12/09 A3001 RMK CI0 SLP165=

CYQF;2006-08-27 07:00;METAR CYQF 270700Z 00000KT 15SM FEW100 SCT250 12/08 A3002 RMK AC2CI0 SLP169=

CYQF;2006-08-27 08:00;METAR CYQF 270800Z 24006KT 15SM FEW100 12/08 A3002 RMK AC1 SLP170=

CYQF;2006-08-27 09:00;METAR CYQF 270900Z 00000KT 15SM FEW100 10/08 A3005 RMK AC1 SLP177=

CYQF;2006-08-27 10:00;METAR CYQF 271000Z 00000KT 15SM FEW080 09/08 A3006 RMK AC2 SLP182=

CYQF;2006-08-27 11:00;METAR CYQF 271100Z 00000KT 15SM SKC 09/08 A3007 RMK SLP186=

CYQF;2006-08-27 12:00;METAR CYQF 271200Z 00000KT 15SM FEW080 07/06 A3009 RMK AC2 SLP196=

CYQF;2006-08-27 12:36;SPECI CYQF 271236Z 00000KT 12SM MIFG FEW080 FEW250 RMK AC1CI0=

CYQF;2006-08-27 13:00;METAR CYQF 271300Z 00000KT 12SM MIFG FEW080 FEW250 06/05 A3010 RMK AC1CI0 SLP200=

CYQF;2006-08-27 14:00;METAR CYQF 271400Z 00000KT 15SM FEW080 FEW250 08/07 A3012 RMK AC1CI0 SLP205=

CYQF;2006-08-27 15:00;METAR CYQF 271500Z 00000KT 15SM FEW250 13/10 A3013 RMK CI0 SLP209=

CYQF;2006-08-27 16:00;METAR CYQF 271600Z 00000KT 15SM FEW250 17/11 A3013 RMK CI0 SLP209=

CYQF;2006-08-27 17:00;METAR CYQF 271700Z 00000KT 15SM SCT250 19/11 A3014 RMK CI1 SLP211=

CYQF;2006-08-27 18:00;METAR CYQF 271800Z 00000KT 15SM SCT250 22/11 A3013 RMK CI1 SLP205=

CYQF;2006-08-27 19:00;METAR CYQF 271900Z 17006KT 15SM BKN250 24/10 A3012 RMK CI1 SLP202=

CYQF;2006-08-27 20:00;METAR CYQF 272000Z 17007KT 15SM SCT250 25/08 A3010 RMK CI1 SLP198=

CYQF;2006-08-27 21:00;METAR CYQF 272100Z 19009KT 15SM SCT250 26/09 A3008 RMK CI1 SLP188=

CYQF;2006-08-27 22:00;METAR CYQF 272200Z 19007KT 15SM FEW050 SCT250 27/08 A3006 RMK CU1CI1 SLP183=

CYQF;2006-08-27 23:00;METAR CYQF 272300Z 20004KT 15SM FEW060 SCT250 27/07 A3005 RMK CU1CI2 SLP178=

CYQF;2006-08-28 00:00;METAR CYQF 280000Z 20007KT 15SM SCT250 27/07 A3004 RMK CI1 SLP174=

CYQF;2006-08-28 01:00;METAR CYQF 280100Z 17004KT 15SM SCT250 26/07 A3002 RMK CI1 CONTRAILS SLP170=

CYQF;2006-08-28 02:00;METAR CYQF 280200Z 12003KT 15SM FEW250 25/08 A3001 RMK CI1 SLP167=

CYQF;2006-08-28 03:00;METAR CYQF 280300Z 13002KT 15SM FEW100 FEW250 21/08 A3002 RMK AC1CI1 SLP169=

CYQF;2006-08-28 04:00;METAR CYQF 280400Z 16003KT 15SM FEW100 FEW250 18/07 A3003 RMK AC1CI1 SLP171=

CYQF;2006-08-28 05:00;METAR CYQF 280500Z 18002KT 15SM FEW100 15/07 A3003 RMK AC1 SLP172=

CYQF;2006-08-28 06:00;METAR CYQF 280600Z 16006KT 15SM SKC 16/06 A3002 RMK OBS TKN +08 SLP164=

CYQF;2006-08-28 07:00;METAR CYQF 280700Z 14006KT 15SM SKC 15/06 A3001 RMK SLP161=

CYQF;2006-08-28 08:00;METAR CYQF 280800Z 17010KT 15SM SKC 15/06 A3000 RMK SLP158=

CYQF;2006-08-28 09:00;METAR CYQF 280900Z 19008KT 15SM SKC 13/06 A3000 RMK SLP155=

CYQF;2006-08-28 10:00;METAR CYQF 281000Z 18008KT 15SM FEW250 11/06 A2999 RMK CI2 SLP152=

CYQF;2006-08-28 11:00;METAR CYQF 281100Z 19004KT 15SM FEW250 10/05 A2998 RMK CI1 SLP150=

CYQF;2006-08-28 12:00;METAR CYQF 281200Z 00000KT 15SM FEW250 09/05 A2998 RMK CI2 SLP152=

CYQF;2006-08-28 13:00;METAR CYQF 281300Z 00000KT 15SM FEW120 FEW250 09/05 A2997 RMK AC1CI1 SLP151=

CYQF;2006-08-28 14:00;METAR CYQF 281400Z 00000KT 15SM FEW120 BKN250 10/06 A2996 RMK AC1CI2 SLP148=

CYQF;2006-08-28 15:00;METAR CYQF 281500Z 19005KT 15SM FEW120 BKN250 14/08 A2996 RMK AC2CI2 SLP148=

CYQF;2006-08-28 16:00;METAR CYQF 281600Z 18005KT 15SM FEW120 BKN250 17/09 A2994 RMK AC2CI2 SLP142=

CYQF;2006-08-28 17:00;METAR CYQF 281700Z 20005KT 15SM BKN210 20/09 A2993 RMK CI2 SLP137=

CYQF;2006-08-28 18:00;METAR CYQF 281800Z 16004KT 15SM BKN210 24/12 A2991 RMK CI2 SLP123=

CYQF;2006-08-28 19:00;METAR CYQF 281900Z 15007KT 15SM BKN210 26/12 A2989 RMK CI2 SLP119=

CYQF;2006-08-28 20:00;METAR CYQF 282000Z 18010KT 15SM BKN210 29/10 A2986 RMK CI3 SLP109=

CYQF;2006-08-28 21:00;METAR CYQF 282100Z 19006KT 15SM BKN210 30/07 A2985 RMK CI2 SLP099=

CYQF;2006-08-28 22:00;METAR CYQF 282200Z 21005KT 15SM BKN210 30/07 A2983 RMK CI2 SLP094=

CYQF;2006-08-28 23:00;METAR CYQF 282300Z 18007KT 15SM BKN250 30/07 A2981 RMK CI2 SLP089=

CYQF;2006-08-29 00:00;METAR CYQF 290000Z 18006KT 15SM BKN250 29/08 A2979 RMK CI2 SLP084=

CYQF;2006-08-29 01:00;METAR CYQF 290100Z 13004KT 12SM SCT250 29/08 A2977 RMK CI2 SLP078=

CYQF;2006-08-29 02:00;METAR CYQF 290200Z 15003KT 12SM FEW250 26/09 A2975 RMK CI1 SLP073=

CYQF;2006-08-29 03:00;METAR CYQF 290300Z 17003KT 12SM FEW250 22/09 A2974 RMK CI2 SLP071=

CYQF;2006-08-29 04:00;METAR CYQF 290400Z 00000KT 15SM FEW250 18/08 A2974 RMK CI1 SLP069=

CYQF;2006-08-29 05:00;METAR CYQF 290500Z 18003KT 15SM FEW250 14/08 A2972 RMK CI1 SLP064=

CYQF;2006-08-29 06:00;METAR CYQF 290600Z 20004KT 15SM FEW250 15/07 A2970 RMK CI1 SLP054=

CYQF;2006-08-29 07:00;METAR CYQF 290700Z 22002KT 15SM SCT250 15/07 A2968 RMK CI3 SLP047=

CYQF;2006-08-29 08:00;METAR CYQF 290800Z 00000KT 15SM SCT250 13/08 A2966 RMK CI3 SLP040=

CYQF;2006-08-29 09:00;METAR CYQF 290900Z 19003KT 15SM BKN250 12/07 A2965 RMK CI3 SLP033=

CYQF;2006-08-29 10:00;METAR CYQF 291000Z 00000KT 15SM SCT250 11/08 A2965 RMK CI2 SLP032=

CYQF;2006-08-29 11:00;METAR CYQF 291100Z 00000KT 15SM SCT250 12/07 A2963 RMK CI3 SLP028=

CYQF;2006-08-29 12:00;METAR CYQF 291200Z 00000KT 15SM BKN250 11/07 A2963 RMK CI5 SLP025=

CYQF;2006-08-29 13:00;METAR CYQF 291300Z 20005KT 10SM BKN090 OVC250 10/07 A2963 RMK AC6CI2 SLP025=

CYQF;2006-08-29 14:00;METAR CYQF 291400Z 33006KT 10SM SCT120 OVC250 14/08 A2967 RMK AC3CI3 SLP038=

CYQF;2006-08-29 15:00;METAR CYQF 291500Z 30007KT 10SM SCT120 OVC250 15/10 A2968 RMK AC3CI3 SLP050=

CYQF;2006-08-29 16:00;METAR CYQF 291600Z 32010KT 10SM SCT120 OVC250 16/09 A2969 RMK AC3CI3 SLP051=

CYQF;2006-08-29 17:00;METAR CYQF 291700Z 34012KT 15SM SCT120 OVC250 17/09 A2969 RMK AC3CI3 SLP051=

CYQF;2006-08-29 18:00;METAR CYQF 291800Z 35010KT 15SM FEW120 BKN250 17/09 A2969 RMK AC2CI3 SLP058=

CYQF;2006-08-29 19:00;METAR CYQF 291900Z 35010KT 15SM FEW120 BKN250 18/09 A2967 RMK AC2CI2 SLP052=

CYQF;2006-08-29 20:00;METAR CYQF 292000Z 36006KT 15SM FEW060 FEW120 BKN250 19/09 A2967 RMK CU1AC2CI2 SLP051=

CYQF;2006-08-29 21:00;METAR CYQF 292100Z 01012KT 15SM FEW060 FEW120 BKN250 20/09 A2967 RMK CU1AC2CI2 SLP050=

CYQF;2006-08-29 22:00;METAR CYQF 292200Z 35008KT 15SM FEW060 SCT120 OVC250 19/09 A2965 RMK CU2AC2CI2 SLP044=

CYQF;2006-08-29 23:00;METAR CYQF 292300Z 32005KT 15SM FEW060 BKN120 BKN250 19/10 A2967 RMK CU2AC2CI2 SLP051=

CYQF;2006-08-30 00:00;METAR CYQF 300000Z 03010KT 15SM FEW060 FEW120 BKN250 19/09 A2961 RMK CU2AC1CI2 SLP030=

CYQF;2006-08-30 01:00;METAR CYQF 300100Z 01005KT 15SM FEW060 SCT120 BKN250 20/10 A2962 RMK CU2AC2CI2 OBS TAKEN +18 SLP032=

CYQF;2006-08-30 02:00;METAR CYQF 300200Z 33004KT 15SM FEW040 SCT120 SCT250 16/10 A2962 RMK CU2AC2CI1 SLP034=

CYQF;2006-08-30 03:00;METAR CYQF 300300Z 32006KT 15SM SCT030 BKN100 BKN250 15/10 A2964 RMK CU4AC1CI1 CB EMBD/LTG DIST NW SLP043=

CYQF;2006-08-30 04:00;METAR CYQF 300400Z 34014KT 15SM SCT030 BKN100 14/10 A2965 RMK CU3AC2 CB EMBD/LTG DIST W+NW SLP046=

CYQF;2006-08-30 05:00;METAR CYQF 300500Z 33010G15KT 15SM SCT030 BKN100 13/10 A2967 RMK CU3AC2 CB EMBD/LTG DIST W-N SLP053=

CYQF;2006-08-30 06:00;METAR CYQF 300600Z 01011KT 15SM FEW030 BKN110 14/09 A2966 RMK SC2AC5 SLP047=

CYQF;2006-08-30 07:00;METAR CYQF 300700Z 31004KT 15SM FEW030 BKN110 12/09 A2969 RMK SC1AC6 SLP057=

CYQF;2006-08-30 08:00;METAR CYQF 300800Z 33006KT 15SM -SHRA FEW020 OVC100 12/10 A2970 RMK SC2AC6 SLP061=

CYQF;2006-08-30 09:00;METAR CYQF 300900Z 33010G15KT 15SM -SHRA SCT012 OVC100 12/11 A2969 RMK SC4AC4 SLP058=

CYQF;2006-08-30 10:00;METAR CYQF 301000Z 32005KT 15SM -SHRA FEW012 OVC100 10/09 A2969 RMK SC2AC6 SLP059=

CYQF;2006-08-30 11:00;METAR CYQF 301100Z 00000KT 10SM -SHRA FEW012 OVC080 10/09 A2969 RMK SC1AC7 SLP059=

CYQF;2006-08-30 12:00;METAR CYQF 301200Z 31008KT 10SM -SHRA FEW008 OVC060 09/09 A2970 RMK SF2SC6 SLP063=

CYQF;2006-08-30 13:00;METAR CYQF 301300Z 33007KT 8SM -RA FEW007 OVC040 09/08 A2971 RMK SF2SC6 SLP067=

CYQF;2006-08-30 14:00;METAR CYQF 301400Z 30010KT 8SM -RA SCT010 OVC040 09/08 A2972 RMK SF3SC5 SLP071=

CYQF;2006-08-30 15:00;METAR CYQF 301500Z 29008KT 10SM -RA FEW005 SCT015 BKN040 OVC100 09/08 A2973 RMK SF2SC2SC3AC2 SLP078=

CYQF;2006-08-30 16:00;METAR CYQF 301600Z 28010KT 15SM -RA FEW005 SCT015 OVC040 09/08 A2972 RMK SF2SC2SC4 SLP077=

CYQF;2006-08-30 17:00;METAR CYQF 301700Z 30010KT 10SM -RA SCT005 OVC011 10/09 A2974 RMK SF3SC5 SLP082=

CYQF;2006-08-30 18:00;METAR CYQF 301800Z 31012KT 10SM -RA BKN010 OVC025 10/09 A2976 RMK SC5SC3 SLP089=

CYQF;2006-08-30 19:00;METAR CYQF 301900Z 32012KT 15SM -RA SCT010 OVC025 10/08 A2978 RMK SF3SC5 SLP096=

CYQF;2006-08-30 20:00;METAR CYQF 302000Z 31008KT 15SM -RA SCT010 OVC025 10/09 A2980 RMK SF4SC4 SLP102=

CYQF;2006-08-30 21:00;METAR CYQF 302100Z 30010KT 15SM -RA SCT010 OVC025 10/09 A2982 RMK SF4SC4 SLP111=

CYQF;2006-08-30 22:00;METAR CYQF 302200Z 33012KT 15SM SCT015 BKN025 OVC100 11/08 A2983 RMK SC3SC3AC2 SLP114=

CYQF;2006-08-30 22:40;SPECI CYQF 302240Z 36012KT 15SM SCT015 BKN030 OVC100 RMK CF3SC3AC2=

CYQF;2006-08-30 23:00;METAR CYQF 302300Z 36008KT 15SM FEW010 SCT020TCU BKN040 BKN090 10/08 A2985 RMK CF2TCU2SC2AC2 SLP122=

CYQF;2006-08-31 00:00;METAR CYQF 310000Z 32005KT 15SM FEW010 SCT040 BKN090 BKN250 11/07 A2986 RMK CF1CU2AC2CI2 TCU EMBD SW SLP129=

CYQF;2006-08-31 01:00;METAR CYQF 310100Z 27003KT 15SM FEW012 FEW050 SCT090 BKN250 12/09 A2988 RMK CF1CU2AC2CI2 TCU EMBD/SHS DIST W SLP134=

CYQF;2006-08-31 02:00;METAR CYQF 310200Z 26004KT 15SM FEW040 SCT090 BKN250 09/06 A2988 RMK SC2AC2CI2 SHS DIST W SLP134=

CYQF;2006-08-31 03:00;METAR CYQF 310300Z 27006KT 15SM FEW090 FEW250 07/05 A2988 RMK AC2CI1 SLP139=

CYQF;2006-08-31 04:00;METAR CYQF 310400Z 28006KT 15SM FEW090 08/06 A2990 RMK AC2 SLP145=

CYQF;2006-08-31 05:00;METAR CYQF 310500Z 16004KT 15SM SKC 06/05 A2993 RMK SLP154=

CYQF;2006-08-31 06:00;METAR CYQF 310600Z 21002KT 15SM SCT100 07/06 A2996 RMK AC3 SLP166=

CYQF;2006-08-31 07:00;METAR CYQF 310700Z 25004KT 15SM OVC075 07/07 A2996 RMK AC8 SLP167=

CYQF;2006-08-31 08:00;METAR CYQF 310800Z 27007KT 15SM OVC070 08/07 A2997 RMK AC8 SLP169=

CYQF;2006-08-31 09:00;METAR CYQF 310900Z 30010KT 15SM OVC090 08/07 A2998 RMK AC8 SLP173=

CYQF;2006-08-31 10:00;METAR CYQF 311000Z 29010KT 15SM OVC090 08/05 A3000 RMK AC8 SLP179=

CYQF;2006-08-31 11:00;METAR CYQF 311100Z 30010KT 15SM OVC090 08/06 A3002 RMK AC8 SLP185=

CYQF;2006-08-31 12:00;METAR CYQF 311200Z 29010KT 15SM FEW040 BKN090 07/05 A3004 RMK SC2AC5 SLP193=

CYQF;2006-08-31 13:00;METAR CYQF 311300Z 28012KT 15SM FEW010 BKN060 BKN100 07/05 A3005 RMK SF1SC5AC2 SLP198=

CYQF;2006-08-31 14:00;METAR CYQF 311400Z 30010KT 15SM BKN050 BKN100 07/05 A3008 RMK SC5AC2 SLP206=

CYQF;2006-08-31 15:00;METAR CYQF 311500Z 30013KT 15SM BKN045 BKN100 08/05 A3009 RMK SC6AC2 SLP214=

CYQF;2006-08-31 16:00;METAR CYQF 311600Z CCA 29009KT 15SM BKN045 BKN100 09/05 A3010 RMK SC5AC2 SHS DIST SW SLP217=

CYQF;2006-08-31 17:00;METAR CYQF 311700Z 33009KT 15SM FEW040 SCT100 11/06 A3011 RMK SC2AC2 CU ASCTD SLP220=

CYQF;2006-08-31 19:00;METAR CYQF 311900Z 30010KT 15SM SCT030 13/06 A3012 RMK CU4 TCU ASCTD SLP219=

CYQF;2006-08-31 20:00;METAR CYQF 312000Z 30010KT 15SM BKN040 15/05 A3013 RMK CU6 FEW TCU SLP221=

CYQF;2006-08-31 20:51;SPECI CYQF 312051Z 32011KT 15SM -SHRA BKN040 BKN090 RMK CU6AC1 FEW TCU=

CYQF;2006-08-31 21:00;METAR CYQF 312100Z 34007KT 15SM -SHRA BKN040 BKN090 14/08 A3014 RMK CU6AC1 TCU EMBD SLP222=

CYQF;2006-08-31 21:10;SPECI CYQF 312110Z 31007KT 15SM BKN040 BKN090 RMK CU5AC1 TCU EMBD SHS E=

CYQF;2006-08-31 22:00;METAR CYQF 312200Z 36003KT 15SM SCT040 BKN090 15/06 A3013 RMK CU3AC2 TCU EMBD SLP220=

CYQF;2006-08-31 23:00;METAR CYQF 312300Z 31007KT 15SM SCT045 BKN090 15/04 A3013 RMK CU3AC2 TCU EMBD SLP220=

CYQF;2006-09-01 00:00;METAR CYQF 010000Z 30009KT 15SM FEW045 BKN090 15/04 A3014 RMK CU2AC2 FEW TCU SLP221=

CYQF;2006-09-01 01:00;METAR CYQF 010100Z 28006KT 15SM FEW045 FEW090 15/04 A3015 RMK CU1AC2 SLP224=

CYQF;2006-09-01 02:00;METAR CYQF 010200Z 27004KT 15SM FEW060 FEW250 13/04 A3015 RMK SC2CI0 SLP226=

CYQF;2006-09-01 03:00;METAR CYQF 010300Z 25003KT 15SM FEW050 FEW250 10/04 A3017 RMK SC1CI0 SLP238=

CYQF;2006-09-01 04:00;METAR CYQF 010400Z 21003KT 15SM FEW050 FEW250 07/04 A3019 RMK SC1CI0 SLP243=

CYQF;2006-09-01 05:00;METAR CYQF 010500Z 20004KT 15SM SKC 06/04 A3020 RMK SLP247=

CYQF;2006-09-01 06:00;METAR CYQF 010600Z 21005KT 15SM SKC 05/03 A3021 RMK SLP253=

CYQF;2006-09-01 07:00;METAR CYQF 010700Z 21005KT 15SM SKC 05/03 A3021 RMK SLP254=

CYQF;2006-09-01 08:00;METAR CYQF 010800Z 20004KT 15SM SKC 04/03 A3022 RMK SLP256=

CYQF;2006-09-01 09:00;METAR CYQF 010900Z 20005KT 15SM SKC 02/01 A3023 RMK SLP260=

CYQF;2006-09-01 10:00;METAR CYQF 011000Z 18004KT 15SM SKC 03/02 A3024 RMK SLP263=

CYQF;2006-09-01 11:00;METAR CYQF 011100Z 19004KT 15SM SKC 03/01 A3024 RMK SLP264=

CYQF;2006-09-01 12:00;METAR CYQF 011200Z 00000KT 15SM SKC 03/01 A3025 RMK SLP264=

CYQF;2006-09-01 13:00;METAR CYQF 011300Z 19004KT 15SM SKC 02/00 A3025 RMK SLP266=

CYQF;2006-09-01 14:00;METAR CYQF 011400Z 20005KT 15SM SKC 03/01 A3026 RMK SLP270=

CYQF;2006-09-01 15:00;METAR CYQF 011500Z 20004KT 15SM SKC 07/04 A3027 RMK SLP274=

CYQF;2006-09-01 16:00;METAR CYQF 011600Z 20005KT 15SM SKC 10/05 A3027 RMK SLP273=

CYQF;2006-09-01 17:00;METAR CYQF 011700Z 19002KT 15SM SKC 14/06 A3026 RMK SLP272=

CYQF;2006-09-01 18:00;METAR CYQF 011800Z 18005KT 15SM FEW250 17/04 A3025 RMK CI1 SLP263=

CYQF;2006-09-01 19:00;METAR CYQF 011900Z 16007KT 15SM SKC 19/02 A3025 RMK SLP261=

CYQF;2006-09-01 20:00;METAR CYQF 012000Z 21006KT 15SM SKC 19/00 A3024 RMK SLP259=

CYQF;2006-09-01 21:00;METAR CYQF 012100Z 20008KT 15SM FEW250 20/01 A3023 RMK CI0 SLP255=

CYQF;2006-09-01 22:00;METAR CYQF 012200Z 20007KT 15SM SKC 21/01 A3022 RMK SLP252=

CYQF;2006-09-01 23:00;METAR CYQF 012300Z 24005KT 15SM SKC 21/04 A3021 RMK SLP247=

CYQF;2006-09-02 00:00;METAR CYQF 020000Z 22004KT 15SM SKC 21/05 A3020 RMK SLP241=

CYQF;2006-09-02 01:00;METAR CYQF 020100Z 17004KT 15SM SKC 21/04 A3019 RMK SLP238=

CYQF;2006-09-02 02:00;METAR CYQF 020200Z 16003KT 15SM SKC 19/06 A3018 RMK SLP236=

CYQF;2006-09-02 03:00;METAR CYQF 020300Z 17004KT 15SM SKC 14/07 A3018 RMK SLP239=

CYQF;2006-09-02 04:00;METAR CYQF 020400Z 18005KT 15SM SKC 11/06 A3019 RMK SLP241=

CYQF;2006-09-02 05:00;METAR CYQF 020500Z 18006KT 15SM SKC 10/05 A3019 RMK SLP241=

CYQF;2006-09-02 06:00;METAR CYQF 020600Z 19004KT 15SM SKC 08/03 A3018 RMK SLP232=

CYQF;2006-09-02 07:00;METAR CYQF 020700Z 18004KT 15SM SKC 08/03 A3017 RMK SLP229=

CYQF;2006-09-02 08:00;METAR CYQF 020800Z 17003KT 15SM SKC 07/02 A3015 RMK SLP224=

CYQF;2006-09-02 09:00;METAR CYQF 020900Z 18003KT 15SM SKC 07/02 A3014 RMK SLP216=

CYQF;2006-09-02 10:00;METAR CYQF 021000Z 00000KT 15SM SKC 07/02 A3013 RMK SLP214=

CYQF;2006-09-02 11:00;METAR CYQF NIL=

CYQF;2006-09-02 12:00;METAR CYQF 021200Z 18003KT 15SM SKC 04/02 A3012 RMK SLP213=

CYQF;2006-09-02 13:00;METAR CYQF 021300Z 00000KT 15SM FEW250 04/02 A3011 RMK CI0 SLP211=

CYQF;2006-09-02 14:00;METAR CYQF 021400Z 18005KT 15SM FEW250 07/03 A3011 RMK CI0 SLP211=

CYQF;2006-09-02 15:00;METAR CYQF 021500Z 17006KT 15SM FEW250 11/05 A3011 RMK CI0 SLP209=

CYQF;2006-09-02 16:00;METAR CYQF 021600Z 15005KT 15SM FEW250 14/06 A3009 RMK CI0 SLP205=

CYQF;2006-09-02 17:00;METAR CYQF 021700Z 15010KT 15SM FEW250 19/07 A3009 RMK CI0 SLP204=

CYQF;2006-09-02 18:00;METAR CYQF 021800Z 17016KT 15SM FEW250 22/06 A3007 RMK CI0 SLP191=

CYQF;2006-09-02 19:00;METAR CYQF 021900Z 17010G16KT 15SM FEW250 23/07 A3006 RMK CI0 SLP186=

CYQF;2006-09-02 20:00;METAR CYQF 022000Z 17010G15KT 15SM SKC 25/06 A3005 RMK SLP182=

CYQF;2006-09-02 21:00;METAR CYQF 022100Z 16013KT 15SM SKC 26/06 A3003 RMK SLP173=

CYQF;2006-09-02 22:00;METAR CYQF 022200Z 15013KT 15SM FEW250 27/05 A3001 RMK CI1 SLP168=

CYQF;2006-09-02 23:00;METAR CYQF 022300Z 15012KT 15SM FEW250 27/05 A3000 RMK CI1 SLP164=

CYQF;2006-09-03 00:00;METAR CYQF 030000Z 14010KT 15SM FEW250 27/04 A2999 RMK CI1 SLP160=

CYQF;2006-09-03 01:00;METAR CYQF 030100Z 13008KT 15SM SKC 26/04 A2997 RMK SLP156=

CYQF;2006-09-03 02:00;METAR CYQF 030200Z 14006KT 15SM SKC 23/04 A2997 RMK SLP154=

CYQF;2006-09-03 03:00;METAR CYQF 030300Z 15005KT 15SM SKC 20/04 A2997 RMK SLP155=

CYQF;2006-09-03 04:00;METAR CYQF 030400Z 19004KT 15SM SKC 17/04 A2998 RMK SLP157=

CYQF;2006-09-03 05:00;METAR CYQF 030500Z 18006KT 15SM SKC 17/03 A2998 RMK SLP158=

CYQF;2006-09-03 06:00;METAR CYQF 030600Z 19010KT 15SM SKC 13/03 A2998 RMK SLP153=

CYQF;2006-09-03 07:00;METAR CYQF 030700Z 21005KT 15SM SKC 12/03 A2998 RMK SLP153=

CYQF;2006-09-03 08:00;METAR CYQF 030800Z 20004KT 15SM SKC 12/03 A2997 RMK SLP152=

CYQF;2006-09-03 09:00;METAR CYQF 030900Z 00000KT 15SM SKC 10/03 A2998 RMK SLP152=

CYQF;2006-09-03 10:00;METAR CYQF 031000Z 19002KT 15SM SKC 08/04 A2998 RMK SLP154=

CYQF;2006-09-03 11:00;METAR CYQF 031100Z 20002KT 15SM SKC 07/04 A2999 RMK SLP155=

CYQF;2006-09-03 12:00;METAR CYQF 031200Z 20004KT 15SM SKC 06/04 A2999 RMK SLP160=

CYQF;2006-09-03 13:00;METAR CYQF 031300Z 19003KT 15SM FEW150 06/04 A3000 RMK AC1 SLP162=

CYQF;2006-09-03 14:00;METAR CYQF 031400Z 22002KT 15SM FEW150 08/06 A3001 RMK AC1 SLP166=

CYQF;2006-09-03 15:00;METAR CYQF 031500Z 27003KT 15SM FEW150 13/09 A3003 RMK AC1 SLP172=

CYQF;2006-09-03 16:00;METAR CYQF 031600Z 33004KT 15SM FEW150 17/10 A3003 RMK AC1 SLP173=

CYQF;2006-09-03 17:00;METAR CYQF 031700Z 35005KT 15SM FEW150 20/11 A3004 RMK AC1 SLP175=

CYQF;2006-09-03 18:00;METAR CYQF 031800Z 35005KT 15SM FEW210 21/11 A3004 RMK CI1 SLP173=

CYQF;2006-09-03 19:00;METAR CYQF 031900Z 33007KT 15SM SCT250 23/11 A3003 RMK CI1 SLP172=

CYQF;2006-09-03 20:00;METAR CYQF 032000Z 33006KT 15SM BKN250 24/11 A3003 RMK CI1 SLP172=

CYQF;2006-09-03 21:00;METAR CYQF 032100Z 32004KT 15SM SCT250 26/11 A3003 RMK CI1 SLP171=

CYQF;2006-09-03 22:00;METAR CYQF 032200Z 02005KT 15SM FEW250 26/13 A3003 RMK CI0 SLP169=

CYQF;2006-09-03 23:00;METAR CYQF 032300Z 03005KT 15SM FEW250 26/13 A3003 RMK CI1 SLP169=

CYQF;2006-09-04 00:00;METAR CYQF 040000Z 36003KT 15SM FEW250 26/13 A3003 RMK CI1 SLP172=

CYQF;2006-09-04 01:00;METAR CYQF 040100Z 04004KT 15SM FEW250 26/13 A3002 RMK CI1 SLP171=

CYQF;2006-09-04 02:00;METAR CYQF 040200Z 00000KT 15SM FEW250 22/12 A3003 RMK CI1 SLP172=

CYQF;2006-09-04 03:00;METAR CYQF 040300Z 00000KT 15SM FEW250 20/12 A3004 RMK CI1 SLP177=

CYQF;2006-09-04 04:00;METAR CYQF 040400Z 00000KT 15SM SKC 14/10 A3005 RMK SLP182=

CYQF;2006-09-04 05:00;METAR CYQF 040500Z 00000KT 15SM SKC 13/11 A3005 RMK SLP182=

CYQF;2006-09-04 06:00;METAR CYQF 040600Z 20005KT 15SM SKC 11/09 A3005 RMK SLP183=

CYQF;2006-09-04 07:00;METAR CYQF 040700Z 25003KT 15SM SKC 10/09 A3006 RMK SLP184=

CYQF;2006-09-04 08:00;METAR CYQF 040800Z 19003KT 15SM SKC 09/09 A3006 RMK SLP185=

CYQF;2006-09-04 09:00;METAR CYQF 040900Z 00000KT 15SM SKC 08/08 A3006 RMK SLP183=

CYQF;2006-09-04 10:00;METAR CYQF 041000Z 21002KT 8SM SKC 07/07 A3007 RMK BR SLP186=

CYQF;2006-09-04 11:00;METAR CYQF 041100Z 19003KT 3/4SM BR SKC 06/06 A3008 RMK FG4 SLP188=

CYQF;2006-09-04 11:36;SPECI CYQF 041136Z 20003KT 5SM BR SKC=

CYQF;2006-09-04 12:00;METAR CYQF 041200Z 21003KT 8SM MIFG FEW250 06/06 A3008 RMK CI0 SLP192=

CYQF;2006-09-04 13:00;METAR CYQF 041300Z 20002KT 3SM BR PRFG SCT250 06/06 A3009 RMK CI1 FG BNK W QUAD SLP196=

CYQF;2006-09-04 13:29;SPECI CYQF 041329Z 20002KT 1 1/2SM BR SCT250 RMK FG2CI1 VIS S 3/4=

CYQF;2006-09-04 13:44;SPECI CYQF 041344Z 21004KT 3SM BR BKN250 RMK FG1CI2=

CYQF;2006-09-04 14:00;METAR CYQF 041400Z 21005KT 10SM BKN250 08/08 A3011 RMK FG1CI1 SLP202=

CYQF;2006-09-04 15:00;METAR CYQF 041500Z 22003KT 10SM BKN250 12/11 A3012 RMK CI2 SLP207=

CYQF;2006-09-04 16:00;METAR CYQF 041600Z 24003KT 10SM BKN250 15/12 A3012 RMK CI2 FU SLP206=

CYQF;2006-09-04 17:00;METAR CYQF 041700Z 00000KT 10SM BKN250 19/13 A3012 RMK CI2 FU SLP207=

CYQF;2006-09-04 18:00;METAR CYQF 041800Z 00000KT 10SM BKN250 22/13 A3012 RMK CI2 FU SLP205=

CYQF;2006-09-04 19:00;METAR CYQF 041900Z 00000KT 10SM BKN250 24/14 A3011 RMK CI2 FU SLP201=

CYQF;2006-09-04 20:00;METAR CYQF 042000Z 00000KT 10SM BKN250 26/13 A3010 RMK CI2 SLP200=

CYQF;2006-09-04 22:00;METAR CYQF 042200Z 02003KT 15SM BKN250 28/10 A3010 RMK CI2 SLP195=

CYQF;2006-09-04 23:00;METAR CYQF 042300Z 07003KT 15SM BKN250 28/10 A3009 RMK CI2 FU SLP193=

CYQF;2006-09-05 00:00;METAR CYQF 050000Z 05003KT 15SM BKN250 28/09 A3009 RMK CI2 SLP194=

CYQF;2006-09-05 01:00;METAR CYQF 050100Z 04006KT 15SM BKN250 26/14 A3010 RMK CI2 SLP195=

CYQF;2006-09-05 02:00;METAR CYQF 050200Z 04008KT 15SM BKN250 23/13 A3011 RMK CI2 SLP198=

CYQF;2006-09-05 03:00;METAR CYQF 050300Z 04004KT 15SM BKN250 21/12 A3012 RMK CI2 SLP206=

CYQF;2006-09-05 04:00;METAR CYQF 050400Z 01004KT 15SM BKN250 18/11 A3013 RMK CI2 SLP209=

CYQF;2006-09-05 05:00;METAR CYQF 050500Z 00000KT 15SM BKN250 17/12 A3014 RMK CI2 SLP211=

CYQF;2006-09-05 06:00;METAR CYQF 050600Z 00000KT 15SM BKN250 13/10 A3014 RMK CI2 SLP209=

CYQF;2006-09-05 07:00;METAR CYQF 050700Z 00000KT 15SM BKN250 12/10 A3015 RMK CI4 SLP213=

CYQF;2006-09-05 08:00;METAR CYQF 050800Z 00000KT 15SM FEW120 BKN250 10/09 A3015 RMK AC2CI4 SLP214=

CYQF;2006-09-05 09:00;METAR CYQF 050900Z 00000KT 15SM FEW120 BKN250 10/09 A3016 RMK AC2CI4 SLP213=

CYQF;2006-09-05 10:00;METAR CYQF 051000Z 00000KT 15SM BKN250 11/10 A3016 RMK CI3 SLP215=

CYQF;2006-09-05 11:00;METAR CYQF 051100Z 00000KT 15SM SCT250 09/08 A3017 RMK CI2 OBS TKN +11 SLP216=

CYQF;2006-09-05 12:00;METAR CYQF 051200Z 00000KT 10SM FEW120 SCT250 09/08 A3017 RMK AC1CI2 BR SLP218=

CYQF;2006-09-05 12:07;SPECI CYQF 051207Z 19003KT 2SM BR FEW120 SCT250 RMK FG2AC1CI1=

CYQF;2006-09-05 12:44;SPECI CYQF 051244Z 22002KT 15SM FEW120 SCT250 RMK FG1AC1CI1=

CYQF;2006-09-05 13:00;METAR CYQF 051300Z 00000KT 5SM BR FEW120 SCT250 08/08 A3018 RMK AC1CI1 SLP219=

CYQF;2006-09-05 14:00;METAR CYQF 051400Z 00000KT 6SM BR FEW100 BKN250 09/09 A3019 RMK AC2CI1 TCU ASOCTD SLP223=

CYQF;2006-09-05 15:00;METAR CYQF 051500Z 00000KT 10SM FEW100 BKN250 13/12 A3020 RMK AC1CI2 SLP230=

CYQF;2006-09-05 16:00;METAR CYQF 051600Z 00000KT 10SM FEW100 BKN250 17/12 A3020 RMK AC1CI1 SLP231=

CYQF;2006-09-05 16:00;SPECI CYQF 051600Z 00000KT 10SM FEW100 BKN250 17/12 A3020 RMK AC1CI1 SLP231=

CYQF;2006-09-05 17:00;METAR CYQF 051700Z 00000KT 10SM FEW100 BKN250 20/13 A3020 RMK AC1CI1 SLP231=

CYQF;2006-09-05 18:00;METAR CYQF 051800Z 00000KT 10SM FEW100 BKN250 22/14 A3020 RMK AC1CI1 SLP228=

CYQF;2006-09-05 19:00;METAR CYQF 051900Z 00000KT 10SM BKN250 25/14 A3018 RMK CI1 SLP223=

CYQF;2006-09-05 20:00;METAR CYQF 052000Z 00000KT 15SM BKN250 26/13 A3017 RMK CI1 SLP221=

CYQF;2006-09-05 21:00;METAR CYQF 052100Z 18003KT 10SM BKN250 28/09 A3016 RMK CI1 SLP214=

CYQF;2006-09-05 22:00;METAR CYQF 052200Z 20005KT 10SM SCT250 29/10 A3015 RMK CI1 FU SLP210=

CYQF;2006-09-05 23:00;METAR CYQF 052300Z 29005KT 10SM SKC 28/13 A3015 RMK FU SLP208=

CYQF;2006-09-06 00:00;METAR CYQF 060000Z 27004KT 15SM SKC 27/13 A3015 RMK SLP210=

CYQF;2006-09-06 01:00;METAR CYQF 060100Z 30003KT 15SM SKC 25/14 A3014 RMK SLP209=

CYQF;2006-09-06 02:00;METAR CYQF 060200Z 33005KT 15SM SKC 21/13 A3014 RMK FU SLP209=

CYQF;2006-09-06 03:00;METAR CYQF 060300Z 31003KT 15SM SKC 18/12 A3015 RMK FU SLP218=

CYQF;2006-09-06 04:00;METAR CYQF 060400Z 33003KT 15SM SKC 16/12 A3017 RMK FU SLP222=

CYQF;2006-09-06 05:00;METAR CYQF 060500Z 00000KT 15SM SKC 14/11 A3016 RMK SLP219=

CYQF;2006-09-06 06:00;METAR CYQF 060600Z 00000KT 15SM SKC 12/11 A3016 RMK SLP215=

CYQF;2006-09-06 07:00;METAR CYQF 060700Z 00000KT 15SM SKC 12/11 A3017 RMK SLP218=

CYQF;2006-09-06 08:00;METAR CYQF 060800Z 29004KT 15SM FEW100 10/09 A3016 RMK AC1 SLP217=

CYQF;2006-09-06 09:00;METAR CYQF 060900Z 00000KT 15SM MIFG FEW100 10/09 A3016 RMK AC1 SLP215=

CYQF;2006-09-06 10:00;METAR CYQF 061000Z 27003KT 15SM MIFG FEW100 08/07 A3016 RMK AC2 SLP215=

CYQF;2006-09-06 11:00;METAR CYQF 061100Z 21004KT 15SM FEW100 07/07 A3017 RMK AC1 BR SLP217=

CYQF;2006-09-06 12:00;METAR CYQF 061200Z 21002KT 8SM FEW100 07/07 A3017 RMK AC1 BR SLP220=

CYQF;2006-09-06 13:00;METAR CYQF 061300Z CCA 00000KT 8SM FEW090 08/07 A3017 RMK AC2 BR SLP222=

CYQF;2006-09-06 14:00;METAR CYQF 061400Z 18002KT 10SM FEW090 10/09 A3019 RMK AC2 BR SLP227=

CYQF;2006-09-06 15:00;METAR CYQF 061500Z 19003KT 15SM SKC 13/12 A3020 RMK SLP232=

CYQF;2006-09-06 16:00;METAR CYQF 061600Z 30005KT 15SM FEW100 18/14 A3020 RMK AC1 SLP234=

CYQF;2006-09-06 17:00;METAR CYQF 061700Z 31006KT 15SM FEW100 20/14 A3020 RMK AC1 SLP232=

CYQF;2006-09-06 18:00;METAR CYQF 061800Z 30004KT 15SM SKC 22/13 A3018 RMK SLP225=

CYQF;2006-09-06 19:00;METAR CYQF 061900Z 34006KT 15SM SKC 23/14 A3016 RMK SLP219=

CYQF;2006-09-06 20:00;METAR CYQF 062000Z 34006KT 15SM SKC 24/13 A3015 RMK SLP215=

CYQF;2006-09-06 21:00;METAR CYQF 062100Z 34006KT 15SM SKC 25/12 A3013 RMK SLP207=

CYQF;2006-09-06 22:00;METAR CYQF 062200Z 32006KT 15SM SKC 25/11 A3012 RMK SLP204=

CYQF;2006-09-06 23:00;METAR CYQF 062300Z 36006KT 15SM SKC 25/13 A3011 RMK SLP200=

CYQF;2006-09-07 00:00;METAR CYQF 070000Z 35005KT 15SM SKC 24/13 A3010 RMK SLP199=

CYQF;2006-09-07 01:00;METAR CYQF 070100Z 34004KT 15SM SKC 21/14 A3009 RMK SLP196=

CYQF;2006-09-07 02:00;METAR CYQF 070200Z 34004KT 15SM SKC 21/14 A3008 RMK SLP195=

CYQF;2006-09-07 03:00;METAR CYQF 070300Z 31004KT 10SM FEW090 17/10 A3010 RMK AC1 SLP202=

CYQF;2006-09-07 04:00;METAR CYQF 070400Z 00000KT 10SM FEW090 15/10 A3011 RMK AC1 SLP204=

CYQF;2006-09-07 05:00;METAR CYQF 070500Z 00000KT 12SM FEW090 13/10 A3011 RMK AC1 SLP203=

CYQF;2006-09-07 06:00;METAR CYQF 070600Z 00000KT 15SM SCT090 12/10 A3010 RMK AC3 SLP197=

CYQF;2006-09-07 07:00;METAR CYQF 070700Z 00000KT 15SM SCT090 11/10 A3011 RMK AC3 SLP198=

CYQF;2006-09-07 08:00;METAR CYQF 070800Z 32002KT 15SM SCT080 12/10 A3011 RMK AC4 SLP198=

CYQF;2006-09-07 09:00;METAR CYQF 070900Z 01006KT 15SM BKN080 12/10 A3011 RMK AC5 SLP196=

CYQF;2006-09-07 10:00;METAR CYQF 071000Z 33003KT 15SM SCT080 12/10 A3012 RMK AC3 SLP198=

CYQF;2006-09-07 11:00;METAR CYQF 071100Z 00000KT 15SM FEW080 09/07 A3012 RMK AC2 SLP200=

CYQF;2006-09-07 12:00;METAR CYQF 071200Z 00000KT 15SM FEW080 08/06 A3013 RMK AC2 SLP208=

CYQF;2006-09-07 13:00;METAR CYQF 071300Z 00000KT 8SM FEW100 FEW250 07/06 A3014 RMK AC2CI0 BR SLP212=

CYQF;2006-09-07 14:00;METAR CYQF 071400Z CCA 00000KT 12SM FEW080 08/07 A3015 RMK AC2 BR SLP216=

CYQF;2006-09-07 15:00;METAR CYQF 071500Z 00000KT 10SM FEW080 SCT250 12/10 A3015 RMK AC2CI1 FU SLP218=

CYQF;2006-09-07 16:00;METAR CYQF 071600Z 00000KT 10SM FEW090 SCT250 14/10 A3014 RMK AC2CI1 FU SLP216=

CYQF;2006-09-07 17:00;METAR CYQF 071700Z 00000KT 10SM SCT250 18/10 A3014 RMK CI1 FU SLP214=

CYQF;2006-09-07 18:00;METAR CYQF 071800Z CCA 00000KT 10SM SCT250 20/10 A3012 RMK CI1 FU SLP206=

CYQF;2006-09-07 19:00;METAR CYQF 071900Z 09005KT 10SM SCT250 22/08 A3009 RMK CI0 FU SLP197=

CYQF;2006-09-07 20:00;METAR CYQF 072000Z 08010KT 10SM SCT250 22/08 A3008 RMK CI1 FU SLP192=

CYQF;2006-09-07 21:00;METAR CYQF 072100Z 08010KT 10SM SCT250 23/08 A3006 RMK CI1 FU SLP182=

CYQF;2006-09-07 22:00;METAR CYQF 072200Z 11010KT 10SM SCT250 23/09 A3005 RMK CI1 FU SLP176=

CYQF;2006-09-07 23:00;METAR CYQF 072300Z 08012KT 15SM BKN250 23/08 A3003 RMK CI1 SLP171=

CYQF;2006-09-08 00:00;METAR CYQF 080000Z 06011KT 15SM BKN210 22/08 A3002 RMK CI1 SLP173=

CYQF;2006-09-08 01:00;METAR CYQF 080100Z 08012KT 15SM SCT210 20/08 A3001 RMK CI1 SLP171=

CYQF;2006-09-08 02:00;METAR CYQF 080200Z 07006KT 15SM FEW120 SCT210 18/07 A3001 RMK AC1CI1 SLP169=

CYQF;2006-09-08 03:00;METAR CYQF 080300Z 06005KT 15SM FEW120 SCT210 16/07 A3002 RMK AC1CI1 SLP175=

CYQF;2006-09-08 04:00;METAR CYQF 080400Z 06004KT 15SM FEW210 15/07 A3002 RMK CI1 SLP176=

CYQF;2006-09-08 05:00;METAR CYQF 080500Z 09005KT 15SM FEW210 15/06 A3002 RMK CI0 SLP174=

CYQF;2006-09-08 06:00;METAR CYQF 080600Z 00000KT 15SM FEW210 13/05 A3000 RMK CI0 SLP164=

CYQF;2006-09-08 07:00;METAR CYQF 080700Z 17002KT 15SM SCT250 13/04 A3000 RMK CI1 SLP162=

CYQF;2006-09-08 08:00;METAR CYQF 080800Z 20002KT 15SM FEW250 12/04 A2998 RMK CI1 SLP158=

CYQF;2006-09-08 09:00;METAR CYQF 080900Z 00000KT 15SM SCT250 10/04 A2997 RMK CI1 SLP154=

CYQF;2006-09-08 10:00;METAR CYQF 081000Z 00000KT 15SM SKC 11/03 A2996 RMK SLP151=

CYQF;2006-09-08 11:00;METAR CYQF 081100Z 00000KT 15SM SKC 08/03 A2996 RMK SLP149=

CYQF;2006-09-08 12:00;METAR CYQF 081200Z 00000KT 15SM SKC 10/03 A2995 RMK SLP146=

CYQF;2006-09-08 13:00;METAR CYQF 081300Z 18005KT 15SM FEW250 10/03 A2994 RMK CI1 SLP143=

CYQF;2006-09-08 14:00;METAR CYQF 081400Z 17006KT 15SM FEW250 10/03 A2994 RMK CI1 SLP142=

CYQF;2006-09-08 15:00;METAR CYQF 081500Z 15003KT 15SM FEW250 13/03 A2993 RMK CI1 SLP144=

CYQF;2006-09-08 16:00;METAR CYQF 081600Z 16010G15KT 15SM FEW250 16/03 A2992 RMK CI0 SLP141=

CYQF;2006-09-08 17:00;METAR CYQF 081700Z 14010KT 15SM FEW250 18/04 A2992 RMK CI0 SLP139=

CYQF;2006-09-08 18:00;METAR CYQF 081800Z 17013KT 15SM FEW250 20/05 A2990 RMK CI0 SLP129=

CYQF;2006-09-08 19:00;METAR CYQF 081900Z 15013KT 15SM SKC 22/05 A2988 RMK SLP123=

CYQF;2006-09-08 20:00;METAR CYQF 082000Z 16015G20KT 12SM FEW250 24/05 A2986 RMK CI0 SLP117=

CYQF;2006-09-08 21:00;METAR CYQF 082100Z 15015KT 12SM FEW250 25/06 A2985 RMK CI1 SLP110=

CYQF;2006-09-08 22:00;METAR CYQF 082200Z 14018KT 12SM FEW250 25/05 A2983 RMK CI1 SLP104=

CYQF;2006-09-08 23:00;METAR CYQF 082300Z 14017KT 15SM FEW250 25/05 A2982 RMK CI0 SLP100=

CYQF;2006-09-09 00:00;METAR CYQF 090000Z 14013KT 12SM FEW250 25/06 A2981 RMK CI0 SLP093=

CYQF;2006-09-09 01:00;METAR CYQF 090100Z 14008KT 12SM FEW250 24/06 A2980 RMK CI0 SLP090=

CYQF;2006-09-09 02:00;METAR CYQF 090200Z 10005KT 12SM FEW250 20/07 A2979 RMK CI0 FU SLP088=

CYQF;2006-09-09 03:00;METAR CYQF 090300Z 13007KT 10SM FEW250 19/06 A2980 RMK CI0 FU SLP093=

CYQF;2006-09-09 04:00;METAR CYQF 090400Z 14008KT 10SM FEW250 19/05 A2979 RMK CI0 FU SLP092=

CYQF;2006-09-09 05:00;METAR CYQF 090500Z 14010KT 10SM FEW250 17/07 A2979 RMK CI0 FU SLP090=

CYQF;2006-09-09 06:00;METAR CYQF 090600Z 16012KT 15SM SKC 16/07 A2978 RMK SLP085=

CYQF;2006-09-09 07:00;METAR CYQF 090700Z 16008KT 15SM SKC 15/06 A2978 RMK SLP084=

CYQF;2006-09-09 08:00;METAR CYQF 090800Z 18005KT 15SM SKC 13/06 A2977 RMK SLP081=

CYQF;2006-09-09 09:00;METAR CYQF 090900Z 16007KT 15SM SKC 13/06 A2977 RMK SLP078=

CYQF;2006-09-09 10:00;METAR CYQF 091000Z 16006KT 15SM SKC 11/06 A2977 RMK SLP078=

CYQF;2006-09-09 11:00;METAR CYQF 091100Z 15005KT 15SM SKC 11/06 A2977 RMK SLP078=

CYQF;2006-09-09 12:00;METAR CYQF 091200Z 00000KT 15SM SKC 11/06 A2976 RMK SLP077=

CYQF;2006-09-09 13:00;METAR CYQF 091300Z 18003KT 15SM SKC 10/06 A2976 RMK SLP077=

CYQF;2006-09-09 14:00;METAR CYQF 091400Z 18003KT 15SM SKC 09/06 A2976 RMK SLP078=

CYQF;2006-09-09 15:00;METAR CYQF 091500Z 18012KT 15SM SKC 13/08 A2976 RMK SLP081=

CYQF;2006-09-09 16:00;METAR CYQF 091600Z 16008KT 15SM SKC 15/08 A2976 RMK SLP080=

CYQF;2006-09-09 17:00;METAR CYQF 091700Z 17008KT 15SM SKC 18/09 A2975 RMK SLP078=

CYQF;2006-09-09 18:00;METAR CYQF 091800Z 12006KT 15SM SKC 20/09 A2975 RMK SLP071=

CYQF;2006-09-09 19:00;METAR CYQF 091900Z 12008KT 15SM SKC 22/10 A2974 RMK SLP068=

CYQF;2006-09-09 20:00;METAR CYQF 092000Z 12012KT 15SM SKC 24/08 A2973 RMK SLP067=

CYQF;2006-09-09 21:00;METAR CYQF 092100Z 16008KT 12SM SKC 25/08 A2972 RMK FU ALFG SLP059=

CYQF;2006-09-09 22:00;METAR CYQF 092200Z 15015KT 12SM SKC 26/08 A2970 RMK FU ALF SLP054=

CYQF;2006-09-09 23:00;METAR CYQF 092300Z 16012KT 12SM SKC 27/07 A2970 RMK FU ALF SLP054=

CYQF;2006-09-10 00:00;METAR CYQF 100000Z 18008KT 10SM SKC 26/09 A2969 RMK FU SLP051=

CYQF;2006-09-10 01:00;METAR CYQF 100100Z 14003KT 10SM FEW090 25/09 A2969 RMK AC1 FU SLP050=

CYQF;2006-09-10 02:00;METAR CYQF 100200Z 17005KT 10SM FEW090 21/08 A2970 RMK AC1 FU SLP054=

CYQF;2006-09-10 03:00;METAR CYQF 100300Z 18006KT 10SM FEW090 16/08 A2972 RMK AC1 FU SLP068=

CYQF;2006-09-10 04:00;METAR CYQF 100400Z 00000KT 10SM SCT090 16/08 A2973 RMK AC2 FU SLP071=

CYQF;2006-09-10 05:00;METAR CYQF 100500Z 00000KT 10SM BKN090 15/09 A2973 RMK AC3 FU SLP071=

CYQF;2006-09-10 06:00;METAR CYQF 100600Z 35002KT 15SM SCT090 16/10 A2973 RMK AC3 SLP066=

CYQF;2006-09-10 07:00;METAR CYQF 100700Z 31012G24KT 15SM SCT090 15/11 A2978 RMK AC2 SLP080=

CYQF;2006-09-10 08:00;METAR CYQF 100800Z 31012G20KT 15SM BKN080 15/10 A2977 RMK AC6 SLP079=

CYQF;2006-09-10 09:00;METAR CYQF 100900Z 33012G20KT 15SM BKN080 14/10 A2980 RMK AC6 SLP088=

CYQF;2006-09-10 10:00;METAR CYQF 101000Z 33010KT 15SM SCT080 BKN250 13/10 A2981 RMK AC3CI1 SLP091=

CYQF;2006-09-10 11:00;METAR CYQF 101100Z 32008KT 15SM BKN080 BKN250 14/10 A2982 RMK AC5CI1 SLP095=

CYQF;2006-09-10 11:52;SPECI CYQF 101152Z 32012G20KT 15SM TS SCT050CB BKN090 BKN250 RMK CB3AC2CI1 LTGIC/CG S-SW=

CYQF;2006-09-10 12:00;METAR CYQF 101200Z 33013G23KT 15SM TS SCT050CB BKN090 BKN250 14/09 A2984 RMK CB4AC2CI0 LTGIC/CG S-SW SLP100=

CYQF;2006-09-10 12:30;SPECI CYQF 101230Z 25008KT 15SM SCT050 BKN090 BKN250 RMK SC4AC2CI0=

CYQF;2006-09-10 12:41;SPECI CYQF 101241Z 22004KT 15SM -TSRA SCT050CB BKN090 OVC250 RMK CB4AC2CI0=

CYQF;2006-09-10 13:26;SPECI CYQF 101326Z 33006KT 15SM TS SCT050 BKN090 BKN250 RMK CU3AC2CI0 LTGCG N CB ASOCTD TSTM N=

CYQF;2006-09-10 14:00;METAR CYQF 101400Z 32006KT 15SM SCT050 SCT090 BKN250 12/09 A2986 RMK CU3AC1CI2 CB ASOCTD SHRA DIST N SLP108=

CYQF;2006-09-10 15:00;METAR CYQF 101500Z 28005KT 15SM FEW050 SCT090 SCT250 12/09 A2989 RMK CU2AC1CI0 SLP128=

CYQF;2006-09-10 16:00;METAR CYQF 101600Z 34013KT 15SM FEW050 FEW100 SCT250 15/09 A2990 RMK SC2AC1CI1 CU ASOCTD SLP133=

CYQF;2006-09-10 17:00;METAR CYQF 101700Z 34015KT 15SM FEW100 FEW250 16/10 A2991 RMK AC1CI0 SLP135=

CYQF;2006-09-10 18:00;METAR CYQF 101800Z 31016KT 15SM SKC 18/10 A2991 RMK SLP131=

CYQF;2006-09-10 19:00;METAR CYQF 101900Z 31014KT 15SM SKC 19/10 A2993 RMK SLP135=

CYQF;2006-09-10 20:00;METAR CYQF 102000Z 31016G22KT 15SM FEW040 20/09 A2993 RMK CU1 SLP136=

CYQF;2006-09-10 21:00;METAR CYQF 102100Z 31015KT 15SM FEW050 20/09 A2995 RMK CU1 SLP144=

CYQF;2006-09-10 22:00;METAR CYQF 102200Z 33012KT 15SM FEW050 FEW250 21/08 A2995 RMK CU1CI0 SLP145=

CYQF;2006-09-10 23:00;METAR CYQF 102300Z 33012KT 15SM FEW050 FEW250 21/08 A2995 RMK CU1CI1 SLP145=

CYQF;2006-09-11 00:00;METAR CYQF 110000Z 33005KT 15SM FEW050 FEW250 21/09 A2995 RMK SC1CI1 SLP145=

CYQF;2006-09-11 01:00;METAR CYQF 110100Z 36003KT 15SM FEW090 BKN250 19/09 A2996 RMK AC1CI1 SLP149=

CYQF;2006-09-11 02:00;METAR CYQF 110200Z 00000KT 15SM FEW090 BKN250 16/09 A2997 RMK AC1CI2 SLP151=

CYQF;2006-09-11 03:00;METAR CYQF 110300Z 00000KT 15SM BKN250 13/08 A2999 RMK CI2 SLP167=

CYQF;2006-09-11 04:00;METAR CYQF 110400Z 00000KT 15SM SKC 11/07 A3000 RMK SLP172=

CYQF;2006-09-11 05:00;METAR CYQF 110500Z 00000KT 15SM SKC 09/07 A3002 RMK SLP176=

CYQF;2006-09-11 06:00;METAR CYQF 110600Z 00000KT 15SM FEW250 08/06 A3003 RMK CI2 SLP180=

CYQF;2006-09-11 07:00;METAR CYQF 110700Z 00000KT 15SM FEW250 08/06 A3004 RMK CI2 SLP184=

CYQF;2006-09-11 08:00;METAR CYQF 110800Z 22004KT 15SM FEW250 07/05 A3005 RMK CI1 SLP186=

CYQF;2006-09-11 09:00;METAR CYQF 110900Z 19003KT 15SM FEW250 07/05 A3005 RMK CI0 SLP188=

CYQF;2006-09-11 10:00;METAR CYQF 111000Z 20003KT 15SM SCT250 05/05 A3007 RMK CI2 SLP193=

CYQF;2006-09-11 11:00;METAR CYQF 111100Z 23002KT 15SM BKN080 BKN250 05/04 A3008 RMK AC6CI1 SLP196=

CYQF;2006-09-11 12:00;METAR CYQF 111200Z 20004KT 15SM SCT100 SCT250 06/05 A3009 RMK AC2CI1 SLP203=

CYQF;2006-09-11 13:00;METAR CYQF 111300Z 20003KT 15SM SCT100 BKN210 05/04 A3010 RMK AC2CI1 SLP205=

CYQF;2006-09-11 14:00;METAR CYQF 111400Z 00000KT 15SM BKN080 BKN210 06/05 A3011 RMK AC2CI1 SLP207=

CYQF;2006-09-11 15:00;METAR CYQF 111500Z 22007KT 15SM FEW050 SCT080 BKN210 11/08 A3012 RMK SC1AC2CI1 SLP213=

CYQF;2006-09-11 16:00;METAR CYQF 111600Z 25003KT 15SM FEW050 SCT100 SCT250 14/09 A3011 RMK SC1AC2CI0 SLP211=

CYQF;2006-09-11 17:00;METAR CYQF 111700Z 21004KT 15SM FEW100 SCT250 19/08 A3010 RMK AC2CI1 SLP209=

CYQF;2006-09-11 18:00;METAR CYQF 111800Z 20006KT 15SM SCT100 BKN250 22/08 A3009 RMK AC3CI1 SLP198=

CYQF;2006-09-11 19:00;METAR CYQF 111900Z 17006KT 15SM SCT100 BKN250 24/07 A3007 RMK AC4CI1 SLP192=

CYQF;2006-09-11 20:00;METAR CYQF 112000Z 23006KT 15SM BKN090 BKN250 24/08 A3006 RMK AC5CI1 SLP188=

CYQF;2006-09-11 21:00;METAR CYQF 112100Z 23008KT 15SM SCT090 BKN250 23/08 A3005 RMK AC4CI1 SLP184=

CYQF;2006-09-11 22:00;METAR CYQF 112200Z 31004KT 15SM FEW090 SCT250 25/08 A3004 RMK AC2CI1 SLP180=

CYQF;2006-09-11 23:00;METAR CYQF 112300Z 24007KT 15SM FEW090 SCT250 25/06 A3003 RMK AC1CI1 SLP178=

CYQF;2006-09-12 00:00;METAR CYQF 120000Z 32004KT 15SM FEW100 SCT250 24/06 A3002 RMK AC1CI1 SLP174=

CYQF;2006-09-12 01:00;METAR CYQF 120100Z 04003KT 15SM FEW100 SCT250 23/06 A3002 RMK AC2CI0 SLP172=

CYQF;2006-09-12 02:00;METAR CYQF 120200Z 00000KT 15SM FEW100 SCT250 20/08 A3001 RMK AC2CI1 SLP171=

CYQF;2006-09-12 03:00;METAR CYQF 120300Z 34003KT 15SM BKN080 BKN250 15/09 A3003 RMK AC5CI1 SLP182=

CYQF;2006-09-12 04:00;METAR CYQF 120400Z 00000KT 15SM SCT080 SCT250 15/08 A3005 RMK AC3CI0 SLP187=

CYQF;2006-09-12 05:00;METAR CYQF 120500Z 29005KT 15SM FEW080 BKN250 11/07 A3005 RMK AC2CI2=

CYQF;2006-09-12 06:00;METAR CYQF 120600Z 26005KT 15SM FEW080 BKN250 12/06 A3006 RMK AC2CI0 SLP183=

CYQF;2006-09-12 07:00;METAR CYQF 120700Z 25005KT 15SM SCT100 12/06 A3007 RMK AC2 SLP186=

CYQF;2006-09-12 08:00;METAR CYQF 120800Z 36006KT 15SM BKN250 12/08 A3010 RMK CI2 SLP196=

CYQF;2006-09-12 09:00;METAR CYQF 120900Z 01007KT 15SM SCT250 12/08 A3011 RMK CI2 SLP200=

CYQF;2006-09-12 10:00;METAR CYQF 121000Z 00000KT 15SM BKN250 10/08 A3014 RMK CI2 SLP207=

CYQF;2006-09-12 11:00;METAR CYQF 121100Z 31003KT 15SM BKN250 08/06 A3015 RMK CS0 SLP213=

CYQF;2006-09-12 12:00;METAR CYQF 121200Z 32003KT 15SM FEW100 SCT250 08/07 A3018 RMK AC2CI0 SLP227=

CYQF;2006-09-12 13:00;METAR CYQF 121300Z CCA 30003KT 15SM FEW100 SCT210 08/07 A3019 RMK AC2CI1 VIRGA W SLP229=

CYQF;2006-09-12 14:00;METAR CYQF 121400Z 00000KT 15SM BKN080 BKN210 07/06 A3020 RMK AC2CI1 SLP232=

CYQF;2006-09-12 15:00;METAR CYQF 121500Z 00000KT 15SM FEW080 BKN210 10/08 A3020 RMK AC1CI3 SLP241=

CYQF;2006-09-12 16:00;METAR CYQF 121600Z 00000KT 15SM FEW080 BKN210 13/10 A3020 RMK AC2CI2 SLP240=

CYQF;2006-09-12 17:00;METAR CYQF 121700Z 00000KT 15SM FEW080 BKN210 14/10 A3019 RMK AC2CI3 SLP238=

CYQF;2006-09-12 18:00;METAR CYQF 121800Z 00000KT 15SM FEW080 FEW150 BKN210 16/09 A3018 RMK AC2AC1CI4 SLP230=

CYQF;2006-09-12 19:00;METAR CYQF 121900Z 09002KT 15SM FEW080 BKN150 BKN210 17/08 A3016 RMK AC1AC4CI2 VIRGA FU SW SLP225=

CYQF;2006-09-12 20:00;METAR CYQF 122000Z 08010KT 15SM FEW080 BKN120 OVC210 18/07 A3014 RMK AC1AC5CI2 VIRGA SLP217=

CYQF;2006-09-12 21:00;METAR CYQF 122100Z 09009KT 15SM FEW080 SCT120 BKN210 18/07 A3011 RMK AC1AC2CI2 SLP205=

CYQF;2006-09-12 22:00;METAR CYQF 122200Z 09009KT 15SM FEW050 FEW120 BKN210 19/07 A3009 RMK CU1AC2CI2 SLP198=

CYQF;2006-09-12 23:00;METAR CYQF 122300Z 09008KT 15SM FEW050 FEW120 BKN210 19/07 A3006 RMK CU1AC1CI1 SLP190=

CYQF;2006-09-13 00:00;METAR CYQF 130000Z 09009KT 15SM FEW050 BKN210 19/08 A3004 RMK CU1CI2 SLP184=

CYQF;2006-09-13 01:00;METAR CYQF 130100Z 07010KT 15SM FEW050 BKN210 18/08 A3002 RMK SC1CI2 SLP176=

CYQF;2006-09-13 02:00;METAR CYQF 130200Z 09008KT 15SM FEW050 FEW090 BKN210 14/06 A2999 RMK SC1AC1CI2 SLP167=

CYQF;2006-09-13 03:00;METAR CYQF 130300Z 09008KT 15SM FEW050 BKN210 14/06 A2997 RMK SC2CI2 LTG=

CYQF;2006-09-13 04:00;METAR CYQF 130400Z CCA 09007KT 15SM FEW050 BKN210 13/04 A2996 RMK SC2CI2 CB ASOCTD/LTGCG DIST NW-N SLP159=

CYQF;2006-09-13 05:00;METAR CYQF 130500Z 02015G25KT 15SM BKN050 BKN250 14/04 A2999 RMK CU6CI2 CB EMBD LTGCC W-N SLP169=

CYQF;2006-09-13 05:37;SPECI CYQF 130537Z 01025G30KT 15SM BKN040CB BKN090 OVC250 RMK CB5AC2CI2 TS -SHRA=

CYQF;2006-09-13 06:00;METAR CYQF 130600Z CCA 36010G15KT 12SM -TSRA FEW006 BKN040CB OVC250 09/08 A3007 RMK CF1CB6CI2 SLP196=

CYQF;2006-09-13 06:48;SPECI CYQF 130648Z 04015G20KT 15SM BKN040 BKN100 BKN250 09/08 RMK CU5AC2CI0=

CYQF;2006-09-13 07:00;METAR CYQF 130700Z 01015G20KT 15SM BKN040 BKN100 BKN250 09/08 A3004 RMK CU6AC1CI1 SLP186=

CYQF;2006-09-13 07:06;SPECI CYQF 130706Z 03015G20KT 15SM TS BKN040 BKN100 RMK CU6AC1 CB EMBD LTGIC W-E=

CYQF;2006-09-13 07:36;SPECI CYQF 130736Z 05010G15KT 15SM -SHRA BKN040 BKN100 RMK CU6AC1 OCNL=

CYQF;2006-09-13 08:00;METAR CYQF 130800Z 07013KT 15SM BKN040 BKN100 10/07 A3002 RMK CU5AC1 SLP180=

CYQF;2006-09-13 09:00;METAR CYQF 130900Z 06006KT 15SM FEW040 BKN100 09/07 A3001 RMK CU1AC4=

CYQF;2006-09-13 10:00;METAR CYQF 131000Z 31004KT 15SM SCT040 BKN100 08/07 A3000 RMK CU4AC2 SLP171=

CYQF;2006-09-13 11:00;METAR CYQF 131100Z 25003KT 15SM SCT100 07/06 A2998 RMK AC4 SLP165=

CYQF;2006-09-13 12:00;METAR CYQF 131200Z 00000KT 15SM FEW012 SCT050 BKN100 07/07 A2997 RMK ST2SC2AC2 SLP162=

CYQF;2006-09-13 13:00;METAR CYQF 131300Z 00000KT 10SM BKN020 OVC050 07/07 A2996 RMK SC5SC3 SLP158=

CYQF;2006-09-13 14:00;METAR CYQF 131400Z 00000KT 10SM BKN010 OVC040 08/08 A2994 RMK SC5SC3 SLP152=

CYQF;2006-09-13 15:00;METAR CYQF 131500Z 00000KT 8SM SCT010 OVC015 09/08 A2992 RMK SC4SC4 SLP147=

CYQF;2006-09-13 15:36;SPECI CYQF 131536Z 00000KT 8SM FEW003 BKN013 OVC030 RMK SF1SC5SC2=

CYQF;2006-09-13 15:52;SPECI CYQF 131552Z 00000KT 8SM -RA FEW003 BKN014 OVC030 RMK SF1SC6SC2=

CYQF;2006-09-13 16:00;METAR CYQF 131600Z 00000KT 8SM -RA FEW003 BKN014 OVC030 09/08 A2989 RMK SF1SC6SC2 SLP138=

CYQF;2006-09-13 17:00;METAR CYQF 131700Z 29003KT 4SM -RA BR SCT006 OVC014 10/09 A2987 RMK SF3SC5 SLP133=

CYQF;2006-09-13 18:00;METAR CYQF 131800Z 36005KT 3SM -RA BR BKN007 OVC014 10/09 A2985 RMK SF6SC2 SLP128=

CYQF;2006-09-13 19:00;METAR CYQF 131900Z 34005KT 4SM -RA BR BKN007 OVC015 09/09 A2985 RMK SF6SC2 SLP128=

CYQF;2006-09-13 20:00;METAR CYQF 132000Z 36010KT 4SM -RA BR BKN008 OVC015 09/08 A2985 RMK SF5SC3 SLP127=

CYQF;2006-09-13 21:00;METAR CYQF 132100Z 36004KT 5SM -RA BR BKN008 OVC015 09/09 A2985 RMK SF5SC3 SLP128=

CYQF;2006-09-13 22:00;METAR CYQF 132200Z 01005KT 4SM -RA BR BKN008 OVC015 09/08 A2985 RMK SF6SC2 SLP129=

CYQF;2006-09-13 23:00;METAR CYQF 132300Z 34006KT 5SM -RA BR SCT008 OVC014 09/07 A2984 RMK SF4SC4 SLP125=

CYQF;2006-09-13 23:22;SPECI CYQF 132322Z 33005KT 15SM FEW008 BKN015 OVC050 RMK SF2SC3SC3=

CYQF;2006-09-14 00:00;METAR CYQF 140000Z 34005KT 15SM FEW010 BKN020 OVC050 10/08 A2984 RMK SF2SC3SC3 SLP125=

CYQF;2006-09-14 01:00;METAR CYQF 140100Z 02004KT 15SM FEW010 SCT020 OVC050 09/07 A2984 RMK SF1SC3SC4 SLP126=

CYQF;2006-09-14 02:00;METAR CYQF 140200Z 29004KT 15SM FEW020 SCT050 OVC080 08/08 A2984 RMK SC2SC2AC4 SLP126=

CYQF;2006-09-14 03:00;METAR CYQF 140300Z 35005KT 15SM FEW020 FEW050 BKN080 OVC250 08/07 A2985 RMK SC1SC2AC3CI2 SLP127=

CYQF;2006-09-14 04:00;METAR CYQF 140400Z 35012KT 15SM FEW015 SCT025 OVC080 08/07 A2985 RMK SC2SC2AC4 SLP128=

CYQF;2006-09-14 04:13;SPECI CYQF 140413Z 36010KT 15SM -RA FEW015 SCT025 OVC080 RMK SC2SC2AC4=

CYQF;2006-09-14 05:00;METAR CYQF 140500Z 01006KT 15SM -RA FEW015 BKN050 OVC080 07/06 A2985 RMK SC2SC4AC2 SLP128=

CYQF;2006-09-14 06:00;METAR CYQF 140600Z 34006KT 8SM -RA OVC010 07/06 A2985 RMK SC8 SLP130=

CYQF;2006-09-14 07:00;METAR CYQF 140700Z 01008KT 8SM -RA OVC010 07/06 A2985 RMK ST8 SLP129=

CYQF;2006-09-14 07:22;SPECI CYQF 140722Z 35008KT 6SM -RA OVC009 RMK ST8=

CYQF;2006-09-14 08:00;METAR CYQF 140800Z 35008KT 6SM -RA OVC005 07/06 A2985 RMK ST8 SLP129=

CYQF;2006-09-14 08:38;SPECI CYQF 140838Z 36005KT 6SM -RA SCT006 OVC008 RMK ST3SC5=

CYQF;2006-09-14 09:00;METAR CYQF 140900Z 36008KT 6SM -RA FEW006 BKN008 OVC015 07/07 A2985 RMK ST2SC4SC2 SLP128=

CYQF;2006-09-14 09:40;SPECI CYQF 140940Z 36008KT 6SM -RA OVC006 RMK ST8 CIG RAG=

CYQF;2006-09-14 10:00;METAR CYQF 141000Z 36006KT 6SM -RA OVC006 07/07 A2984 RMK ST8 SLP125=

CYQF;2006-09-14 10:16;SPECI CYQF 141016Z 01008KT 3SM -RA OVC004 RMK ST8 CIG RAG=

CYQF;2006-09-14 10:20;SPECI CYQF 141020Z 01008KT 3SM -RA OVC004 RMK ST8 CIG RAG=

CYQF;2006-09-14 10:47;SPECI CYQF 141047Z 03008KT 3SM -RA FEW004 OVC006 RMK SF2ST6 CIG RAG=

CYQF;2006-09-14 11:00;METAR CYQF 141100Z 05015KT 8SM -RA FEW004 BKN007 OVC012 07/07 A2983 RMK SC2SC3SC3 SLP124=

CYQF;2006-09-14 11:27;SPECI CYQF 141127Z 06010KT 8SM -RA SCT007 OVC030 RMK ST3SC5=

CYQF;2006-09-14 12:00;METAR CYQF 141200Z 05010KT 8SM -RA FEW007 OVC030 07/07 A2984 RMK SF1SC7 SLP125=

CYQF;2006-09-14 13:00;METAR CYQF 141300Z 04010KT 6SM -RA BKN008 OVC030 07/07 A2984 RMK SC6SC2 SLP125=

CYQF;2006-09-14 14:00;METAR CYQF 141400Z 03010KT 8SM -RA BKN007 OVC030 07/06 A2984 RMK SC6SC2 SLP125=

CYQF;2006-09-14 15:00;METAR CYQF 141500Z 06006KT 10SM -RA BKN008 OVC030 07/07 A2984 RMK SC6SC2 CIG RAG SLP128=

CYQF;2006-09-14 15:36;SPECI CYQF 141536Z 06013KT 8SM -RA BKN006 OVC015 RMK SC7SC1 CIG RAG=

CYQF;2006-09-14 16:00;METAR CYQF 141600Z 05012KT 10SM -RA FEW004 BKN006 OVC015 07/07 A2984 RMK SF2SC6SC1 CIG RAG SLP128=

CYQF;2006-09-14 17:00;METAR CYQF 141700Z 05015G22KT 12SM -RA SCT006 BKN011 OVC015 08/06 A2984 RMK SF3SC4SC1 CIG RAG SLP128=

CYQF;2006-09-14 18:00;METAR CYQF 141800Z 05014KT 6SM -RA BR FEW006 BKN010 OVC015 08/07 A2984 RMK SF2SC6SC1 CIG RAG SLP129=

CYQF;2006-09-14 19:00;METAR CYQF 141900Z 06012G20KT 6SM -RA BR FEW006 BKN011 OVC015 07/07 A2984 RMK SF2SC6SC1 CIG RAG SLP129=

CYQF;2006-09-14 20:00;METAR CYQF 142000Z 06012G20KT 8SM -RA FEW006 BKN010 OVC015 07/06 A2985 RMK SF2SC6SC1 CIG RAG SLP130=

CYQF;2006-09-14 21:00;METAR CYQF 142100Z 06012G20KT 8SM -RA FEW006 BKN011 OVC015 07/06 A2985 RMK SF2SC6SC1 CIG RAG SLP130=

CYQF;2006-09-14 22:00;METAR CYQF 142200Z 06012G22KT 8SM -RA FEW006 BKN013 OVC015 07/06 A2984 RMK SF2SC5SC2 CIG RAG SLP128=

CYQF;2006-09-14 23:00;METAR CYQF 142300Z 05015G22KT 6SM -RA BR FEW006 BKN011 OVC015 07/07 A2984 RMK SF2SC6SC1 CIG RAG SLP128=

CYQF;2006-09-15 00:00;METAR CYQF 150000Z 05013G20KT 7SM -RA FEW006 BKN010 OVC015 07/07 A2984 RMK SF2SC6SC1 CIG RAG SLP129=

CYQF;2006-09-15 01:00;METAR CYQF 150100Z 03014G20KT 6SM -RA BKN010 OVC015 07/07 A2984 RMK SC7SC1 CIG RAG SLP129=

CYQF;2006-09-15 01:35;SPECI CYQF 150135Z 04010KT 6SM -RA OVC008 RMK SC8 CIG RAG=

CYQF;2006-09-15 02:00;METAR CYQF 150200Z 04010KT 6SM -RA OVC008 07/07 A2984 RMK SC8 CIG RAG SLP129=

CYQF;2006-09-15 03:00;METAR CYQF 150300Z 03010KT 6SM -RA OVC007 07/07 A2984 RMK SC8 CIG RAG SLP128=

CYQF;2006-09-15 04:00;METAR CYQF 150400Z 03014G20KT 6SM -RA OVC007 07/06 A2983 RMK SC8 CIG RAG SLP125=

CYQF;2006-09-15 05:00;METAR CYQF 150500Z 04010G15KT 6SM -RA OVC007 07/06 A2982 RMK ST8 SLP122=

CYQF;2006-09-15 06:00;METAR CYQF 150600Z 06010G20KT 6SM -RA BKN007 OVC012 07/06 A2982 RMK SC5SC3 SLP120=

CYQF;2006-09-15 07:00;METAR CYQF 150700Z 04010G18KT 3SM -RA BR OVC007 06/06 A2981 RMK SC8 SLP117=

CYQF;2006-09-15 08:00;METAR CYQF 150800Z 06016KT 3SM -RA BR OVC007 07/06 A2981 RMK SC8 SLP117=

CYQF;2006-09-15 08:34;SPECI CYQF 150834Z 06010G18KT 2SM -RA BR OVC006 RMK ST8=

CYQF;2006-09-15 09:00;METAR CYQF 150900Z 06015KT 2SM -RA BR OVC006 06/06 A2981 RMK SC8 SLP117=

CYQF;2006-09-15 10:00;METAR CYQF 151000Z 07010G17KT 1 1/2SM -RA BR OVC003 06/06 A2981 RMK FG2ST6 SLP117=

CYQF;2006-09-15 10:43;SPECI CYQF 151043Z 06013KT 1SM -RA BR OVC002 RMK FG3ST5=

CYQF;2006-09-15 11:00;METAR CYQF 151100Z 06009KT 1SM -RA BR OVC002 06/06 A2981 RMK FG3ST5 SLP119=

CYQF;2006-09-15 11:10;SPECI CYQF 151110Z 06013KT 2SM -RA BR OVC004 RMK FG2ST6 VSBY S 6=

CYQF;2006-09-15 11:41;SPECI CYQF 151141Z 06010KT 3SM -RA BR OVC004 RMK ST8=

CYQF;2006-09-15 12:00;METAR CYQF 151200Z 06010KT 3SM -RA BR OVC004 07/07 A2982 RMK ST8 CIG RAG SLP123=

CYQF;2006-09-15 13:00;METAR CYQF 151300Z 06010KT 2SM -RA BR OVC004 07/07 A2984 RMK ST8 CIG RAG SLP127=

CYQF;2006-09-15 14:00;METAR CYQF 151400Z 06009KT 3SM -RA BR OVC005 07/07 A2985 RMK ST8 CIG RAG SLP130=

CYQF;2006-09-15 15:00;METAR CYQF 151500Z 06011KT 2 1/2SM -RA BR OVC005 07/07 A2985 RMK SF8 SLP134=

CYQF;2006-09-15 16:00;METAR CYQF 151600Z 07007KT 3SM -RA BR BKN005 OVC010 07/07 A2986 RMK SF6SC2 SLP135=

CYQF;2006-09-15 17:00;METAR CYQF 151700Z 06012KT 3SM -RA BR BKN005 OVC010 07/07 A2986 RMK SF6SC2 SLP137=

CYQF;2006-09-15 17:31;SPECI CYQF 151731Z 06008KT 2SM -RA BR BKN005 OVC010 RMK SF7SC1=

CYQF;2006-09-15 18:00;METAR CYQF 151800Z 07007KT 2SM -RA BR BKN005 OVC010 07/07 A2989 RMK SF7SC1 SLP145=

CYQF;2006-09-15 19:00;METAR CYQF 151900Z 07010KT 3SM -RA BR BKN008 OVC010 07/07 A2989 RMK SF6SC2 SLP145=

CYQF;2006-09-15 20:00;METAR CYQF 152000Z 06013KT 8SM -RA BKN009 OVC020 07/06 A2989 RMK SF6SC2 BR SLP146=

CYQF;2006-09-15 21:00;METAR CYQF 152100Z 04010G15KT 8SM -RA BKN008 OVC020 06/06 A2991 RMK SF6SC2 BR SLP153=

CYQF;2006-09-15 22:00;METAR CYQF 152200Z 04009KT 6SM -RA BKN008 OVC015 06/06 A2992 RMK SF6SC2 BR SLP157=

CYQF;2006-09-15 23:00;METAR CYQF 152300Z 05010G15KT 8SM -RA BKN009 OVC015 05/04 A2993 RMK SF7SC1 SLP161=

CYQF;2006-09-16 00:00;METAR CYQF 160000Z 04008KT 6SM -RA BKN010 OVC015 05/04 A2995 RMK SF6SC2 BR SLP169=

CYQF;2006-09-16 01:00;METAR CYQF 160100Z 04008KT 6SM -RA BKN010 OVC015 04/04 A2996 RMK SF6SC2 BR SLP172=

CYQF;2006-09-16 02:00;METAR CYQF 160200Z 01008KT 8SM -RA BKN009 OVC015 04/03 A2997 RMK SC7SC1 SLP176=

CYQF;2006-09-16 03:00;METAR CYQF 160300Z 03008KT 8SM -RA OVC009 04/03 A2998 RMK SC8 SLP181=

CYQF;2006-09-16 04:00;METAR CYQF 160400Z 03008KT 6SM -RA OVC009 03/03 A2998 RMK SC8 CIG RAG SLP182=

CYQF;2006-09-16 05:00;METAR CYQF 160500Z 03010KT 6SM -RA OVC009 03/02 A2999 RMK SC8 SLP184=

CYQF;2006-09-16 06:00;METAR CYQF 160600Z 01010KT 6SM -RA OVC007 03/02 A2998 RMK ST8 SLP182=

CYQF;2006-09-16 07:00;METAR CYQF 160700Z 35010KT 6SM -RA OVC007 03/02 A2997 RMK ST8 SLP179=

CYQF;2006-09-16 08:00;METAR CYQF 160800Z 36010KT 10SM -RA OVC007 03/02 A2998 RMK ST8 SLP181=

CYQF;2006-09-16 09:00;METAR CYQF 160900Z 35010KT 10SM -RA OVC008 03/02 A2998 RMK ST8 SLP183=

CYQF;2006-09-16 10:00;METAR CYQF 161000Z 35010KT 12SM -RA OVC009 03/02 A2996 RMK ST8 SLP178=

CYQF;2006-09-16 11:00;METAR CYQF 161100Z 36010KT 12SM -RA OVC008 03/02 A2996 RMK ST8 SLP178=

CYQF;2006-09-16 12:00;METAR CYQF 161200Z 33010KT 10SM -RA OVC007 03/02 A2997 RMK ST8 SLP181=

CYQF;2006-09-16 13:00;METAR CYQF 161300Z 33010KT 8SM -RA OVC007 02/02 A2996 RMK ST8 SLP179=

CYQF;2006-09-16 14:00;METAR CYQF 161400Z 33010KT 8SM -RA OVC008 02/02 A2997 RMK SC8 SLP180=

CYQF;2006-09-16 15:00;METAR CYQF 161500Z 34012KT 8SM -RA OVC007 03/02 A2997 RMK SC8 SLP182=

CYQF;2006-09-16 16:00;METAR CYQF 161600Z 32012KT 8SM -RA OVC006 03/03 A2997 RMK SF8 SLP181=

CYQF;2006-09-16 16:28;SPECI CYQF 161628Z 32010G15KT 12SM OVC006 RMK SC8=

CYQF;2006-09-16 17:00;METAR CYQF 161700Z 31010G15KT 15SM BKN008 OVC015 04/03 A2997 RMK SC6SC2 SLP182=

CYQF;2006-09-16 18:00;METAR CYQF 161800Z 35012G20KT 15SM BKN009 OVC015 05/02 A2997 RMK SC6SC2 SLP182=

CYQF;2006-09-16 19:00;METAR CYQF 161900Z 33014G23KT 15SM BKN012 OVC100 06/02 A2997 RMK SC6AC2 SLP181=

CYQF;2006-09-16 19:30;SPECI CYQF 161930Z 34015G24KT 15SM -SHRA BKN015 OVC100 RMK SC6AC2=

CYQF;2006-09-16 20:00;METAR CYQF 162000Z 33012G20KT 15SM -SHRA BKN012 BKN100 05/03 A2998 RMK SC6AC1 SLP183=

CYQF;2006-09-16 21:00;METAR CYQF 162100Z 33010G18KT 15SM -SHRA BKN012 OVC100 06/03 A2998 RMK SC7AC1 SLP183=

CYQF;2006-09-16 22:00;METAR CYQF 162200Z 34010G18KT 12SM -SHRA BKN010 OVC100 04/03 A2999 RMK SC7AC1 SLP186=

CYQF;2006-09-16 22:30;SPECI CYQF 162230Z 33010G20KT 15SM BKN012 OVC100 RMK SC7AC1=

CYQF;2006-09-17 00:00;METAR CYQF 170000Z 33010G16KT 15SM SCT015 BKN050 OVC090 05/02 A3003 RMK SC3SC2AC2 SHS W+N SLP201=

CYQF;2006-09-17 01:00;METAR CYQF 170100Z 33010G15KT 15SM FEW008 BKN015 OVC090 05/02 A3004 RMK SF2SC4AC2 SLP204=

CYQF;2006-09-17 02:00;METAR CYQF 170200Z 33010G15KT 15SM FEW008 BKN015 OVC050 04/02 A3005 RMK SF2SC5SC2 SLP209=

CYQF;2006-09-17 03:00;METAR CYQF 170300Z 32012G18KT 15SM -RA SCT012 OVC040 03/02 A3007 RMK SF4SC4 SLP218=

CYQF;2006-09-17 04:00;METAR CYQF 170400Z 33010G16KT 15SM -RA SCT012 OVC022 03/02 A3009 RMK SF3SC5 SLP223=

CYQF;2006-09-17 04:34;SPECI CYQF 170434Z 33010G15KT 15SM SCT009 OVC025 RMK SF4SC4=

CYQF;2006-09-17 05:00;METAR CYQF 170500Z 34010G15KT 15SM SCT010 OVC035 02/01 A3010 RMK SF4SC4 SLP227=

CYQF;2006-09-17 06:00;METAR CYQF 170600Z 33013KT 15SM FEW010 BKN050 OVC250 01/00 A3011 RMK SF2SC4CI1 SLP232=

CYQF;2006-09-17 07:00;METAR CYQF 170700Z 33012KT 15SM SCT012 BKN050 02/00 A3012 RMK SC4SC3 SLP235=

CYQF;2006-09-17 08:00;METAR CYQF 170800Z 31015KT 15SM SCT012 BKN050 01/M00 A3013 RMK SC3SC3 SLP236=

CYQF;2006-09-17 09:00;METAR CYQF 170900Z 32010KT 15SM BKN014 OVC050 01/M01 A3013 RMK SC6SC2 SLP235=

CYQF;2006-09-17 10:00;METAR CYQF 171000Z 33011KT 15SM BKN014 OVC050 02/M00 A3014 RMK SC6SC2 SLP239=

CYQF;2006-09-17 11:00;METAR CYQF 171100Z 33013KT 15SM SCT014 OVC060 02/M00 A3015 RMK SC4SC4 SLP241=

CYQF;2006-09-17 12:00;METAR CYQF 171200Z 33014KT 15SM SCT015 OVC050 02/M00 A3015 RMK SC3SC4 SLP243=

CYQF;2006-09-17 13:00;METAR CYQF 171300Z 35013KT 15SM SCT015 OVC050 02/00 A3015 RMK SC3SC4 SLP245=

CYQF;2006-09-17 14:00;METAR CYQF 171400Z 34011KT 15SM SCT015 BKN050 02/M00 A3016 RMK SC3SC4 SLP248=

CYQF;2006-09-17 15:00;METAR CYQF 171500Z 33009KT 15SM SCT011 OVC050 02/00 A3018 RMK SC4SC4 SLP255=

CYQF;2006-09-17 16:00;METAR CYQF 171600Z 33010G18KT 15SM SCT011 BKN040 03/01 A3018 RMK SC4SC3 SLP256=

CYQF;2006-09-17 17:00;METAR CYQF 171700Z 33010G17KT 15SM BKN012 OVC040 04/00 A3018 RMK SC5SC3 SLP256=

CYQF;2006-09-17 18:00;METAR CYQF 171800Z 34012KT 15SM BKN015 OVC040 04/00 A3018 RMK SC7SC1 SLP258=

CYQF;2006-09-17 19:00;METAR CYQF 171900Z 32007KT 15SM BKN020 OVC040 04/00 A3018 RMK SC6SC2 SLP257=

CYQF;2006-09-17 20:00;METAR CYQF 172000Z 32013KT 15SM BKN021 OVC080 05/01 A3018 RMK SC6AC2 SLP256=

CYQF;2006-09-17 21:00;METAR CYQF 172100Z 35010G15KT 15SM BKN025 BKN070 05/01 A3018 RMK SC6AC2 SLP255=

CYQF;2006-09-17 22:00;METAR CYQF 172200Z 33011KT 15SM BKN025 BKN070 06/01 A3017 RMK SC6AC1 SLP254=

CYQF;2006-09-17 23:00;METAR CYQF 172300Z 35008KT 15SM BKN025 BKN070 06/01 A3018 RMK SC6AC1 SLP255=

CYQF;2006-09-18 00:00;METAR CYQF 180000Z 33008KT 15SM BKN025 BKN070 06/01 A3018 RMK SC6AC1 SLP254=

CYQF;2006-09-18 01:00;METAR CYQF 180100Z 03004KT 15SM FEW025 BKN040 BKN070 05/02 A3018 RMK SC2SC4AC2 SLP254=

CYQF;2006-09-18 02:00;METAR CYQF 180200Z 03002KT 15SM FEW025 FEW040 SCT070 04/02 A3017 RMK SC1SC2AC2 SLP252=

CYQF;2006-09-18 03:00;METAR CYQF 180300Z 00000KT 15SM FEW025 SCT036 BKN070 04/02 A3017 RMK SC1SC2AC2 SLP252=

CYQF;2006-09-18 04:00;METAR CYQF 180400Z 09004KT 15SM FEW035 03/01 A3016 RMK SC2 SLP250=

CYQF;2006-09-18 05:00;METAR CYQF 180500Z 00000KT 15SM BKN035 00/M00 A3015 RMK SC3 SLP247=

CYQF;2006-09-18 06:00;METAR CYQF 180600Z 00000KT 15SM BKN040 00/M00 A3016 RMK SC6 SLP251=

CYQF;2006-09-18 07:00;METAR CYQF 180700Z 19003KT 15SM SCT040 M01/M02 A3014 RMK SC3 SLP243=

CYQF;2006-09-18 08:00;METAR CYQF 180800Z 18003KT 15SM FEW040 M02/M02 A3013 RMK SC2 SLP241=

CYQF;2006-09-18 09:00;METAR CYQF 180900Z 17003KT 15SM SKC M02/M03 A3011 RMK SLP235=

CYQF;2006-09-18 10:00;METAR CYQF 181000Z 00000KT 15SM SKC M01/M02 A3010 RMK SLP231=

CYQF;2006-09-18 11:00;METAR CYQF 181100Z 00000KT 15SM SKC M02/M02 A3009 RMK SLP229=

CYQF;2006-09-18 12:00;METAR CYQF 181200Z 00000KT 15SM PRFG SKC M03/M04 A3009 RMK SLP229=

CYQF;2006-09-18 13:00;METAR CYQF 181300Z CCA 05004KT 10SM SKC M02/M03 A3008 RMK BCFG SLP226=

CYQF;2006-09-18 14:00;METAR CYQF 181400Z CCA 00000KT 12SM SCT210 M02/M03 A3008 RMK CI1 SLP225=

CYQF;2006-09-18 15:00;METAR CYQF 181500Z 14006KT 12SM FEW100 FEW210 02/00 A3008 RMK AC1CI0 SLP220=

CYQF;2006-09-18 16:00;METAR CYQF 181600Z 15006KT 12SM FEW008 FEW120 SCT210 03/01 A3008 RMK SF1AC1CI1 SLP221=

CYQF;2006-09-18 17:00;METAR CYQF 181700Z 13011KT 12SM FEW012 BKN210 04/01 A3007 RMK CF1CI1 SLP218=

CYQF;2006-09-18 18:00;METAR CYQF 181800Z 11011KT 15SM FEW015 FEW120 SCT210 07/02 A3006 RMK CF1AC1CI1 SLP212=

CYQF;2006-09-18 19:00;METAR CYQF 181900Z 16010KT 15SM FEW024 FEW120 BKN250 09/03 A3004 RMK CF2AC1CI0 SLP206=

CYQF;2006-09-18 20:00;METAR CYQF 182000Z 15010KT 15SM FEW030 FEW120 BKN210 10/04 A3003 RMK CF1AC1CI2 SLP203=

CYQF;2006-09-18 21:00;METAR CYQF 182100Z 14009KT 15SM FEW030 FEW120 BKN210 11/04 A3002 RMK SC1AC1CI1 SLP195=

CYQF;2006-09-18 22:00;METAR CYQF 182200Z 16010G15KT 15SM FEW120 BKN210 12/04 A3000 RMK AC2CI2 SLP190=

CYQF;2006-09-18 23:00;METAR CYQF 182300Z 12012KT 15SM FEW150 BKN210 13/04 A3000 RMK AC2CI2 SLP190=

CYQF;2006-09-19 00:00;METAR CYQF 190000Z 12010KT 15SM SCT150 BKN210 12/04 A2999 RMK AC3CI2 SLP186=

CYQF;2006-09-19 01:00;METAR CYQF 190100Z 13006KT 15SM BKN100 BKN210 11/04 A2999 RMK AC6CI2 SLP185=

CYQF;2006-09-19 02:00;METAR CYQF 190200Z 12006KT 15SM BKN100 BKN210 10/05 A2998 RMK AC6CI2 SLP184=

CYQF;2006-09-19 03:00;METAR CYQF 190300Z 12010KT 15SM BKN120 OVC210 09/04 A2998 RMK AC6CI2 SLP182=

CYQF;2006-09-19 04:00;METAR CYQF 190400Z 13010KT 15SM BKN120 OVC210 08/05 A2999 RMK AC6CI2 SLP183=

CYQF;2006-09-19 05:00;METAR CYQF 190500Z 13010G15KT 15SM BKN120 OVC210 07/04 A2999 RMK AC6CI2 SLP184=

CYQF;2006-09-19 06:00;METAR CYQF 190600Z 15010KT 15SM OVC100 06/04 A3000 RMK AC8 SLP185=

CYQF;2006-09-19 07:00;METAR CYQF 190700Z 14008KT 15SM OVC120 06/04 A2999 RMK AC8 SLP182=

CYQF;2006-09-19 08:00;METAR CYQF 190800Z 14007KT 15SM OVC120 06/04 A2999 RMK AC8 SLP181=

CYQF;2006-09-19 09:00;METAR CYQF 190900Z 12007KT 15SM SCT010 OVC100 05/04 A2998 RMK SC2AC6 SLP173=

CYQF;2006-09-19 09:29;SPECI CYQF 190929Z 12008KT 15SM BKN007 OVC100 RMK SC6AC2=

CYQF;2006-09-19 10:00;METAR CYQF 191000Z 12007KT 15SM BKN007 OVC100 05/04 A2998 RMK SC6AC2 SLP174=

CYQF;2006-09-19 11:00;METAR CYQF 191100Z 13010KT 15SM OVC006 05/04 A2997 RMK SC8 SLP172=

CYQF;2006-09-19 12:00;METAR CYQF 191200Z 15006KT 15SM OVC006 05/03 A2998 RMK SC8 SLP175=

CYQF;2006-09-19 13:00;METAR CYQF 191300Z 14004KT 15SM OVC006 04/03 A3000 RMK SC8 SLP179=

CYQF;2006-09-19 14:00;METAR CYQF 191400Z 12003KT 6SM BR OVC005 04/03 A3001 RMK ST8 SLP182=

CYQF;2006-09-19 15:00;METAR CYQF 191500Z 00000KT 3SM BR OVC004 04/04 A3000 RMK ST8 SLP186=

CYQF;2006-09-19 16:00;METAR CYQF 191600Z 36003KT 3SM BR OVC004 04/04 A3001 RMK ST8 SLP188=

CYQF;2006-09-19 16:29;SPECI CYQF 191629Z 03005KT 6SM BR OVC005 RMK ST8 VSBY LWR S=

CYQF;2006-09-19 17:00;METAR CYQF 191700Z 00000KT 6SM BR OVC006 05/04 A3001 RMK ST8 SLP189=

CYQF;2006-09-19 18:00;METAR CYQF 191800Z 00000KT 6SM BR OVC008 06/04 A3002 RMK ST8 SLP194=

CYQF;2006-09-19 19:00;METAR CYQF 191900Z 31003KT 8SM OVC012 06/04 A3002 RMK ST8 SLP194=

CYQF;2006-09-19 20:00;METAR CYQF 192000Z 03004KT 8SM OVC016 07/05 A3002 RMK SC8 SLP193=

CYQF;2006-09-19 22:00;METAR CYQF 192200Z 00000KT 8SM OVC015 09/05 A3003 RMK SC8 SLP193=

CYQF;2006-09-19 23:00;METAR CYQF 192300Z 03008KT 10SM OVC020 09/05 A3003 RMK SC8 SLP193=

CYQF;2006-09-20 00:00;METAR CYQF 200000Z 02008KT 10SM OVC018 09/05 A3003 RMK SC8 SLP194=

CYQF;2006-09-20 01:00;METAR CYQF 200100Z 04003KT 12SM OVC020 09/05 A3003 RMK SC8 SLP195=

CYQF;2006-09-20 02:00;METAR CYQF 200200Z 04003KT 15SM OVC020 08/05 A3004 RMK SC8 SLP197=

CYQF;2006-09-20 03:00;METAR CYQF 200300Z 00000KT 12SM OVC020 08/05 A3004 RMK SC8 SLP201=

CYQF;2006-09-20 04:00;METAR CYQF 200400Z 00000KT 12SM OVC022 08/05 A3004 RMK SC8 SLP201=

CYQF;2006-09-20 05:00;METAR CYQF 200500Z 00000KT 15SM OVC024 08/05 A3005 RMK SC8 SLP203=

CYQF;2006-09-20 06:00;METAR CYQF 200600Z 00000KT 15SM OVC030 07/05 A3004 RMK SC8 SLP199=

CYQF;2006-09-20 07:00;METAR CYQF 200700Z 00000KT 15SM OVC027 07/06 A3002 RMK SC8 SLP193=

CYQF;2006-09-20 08:00;METAR CYQF 200800Z 18003KT 15SM OVC025 07/06 A3003 RMK SC8 SLP194=

CYQF;2006-09-20 09:00;METAR CYQF 200900Z 00000KT 15SM OVC025 07/06 A3001 RMK SC8 SLP186=

CYQF;2006-09-20 10:00;METAR CYQF 201000Z 00000KT 15SM OVC023 07/05 A2999 RMK SC8 SLP180=

CYQF;2006-09-20 11:00;METAR CYQF 201100Z 00000KT 15SM OVC022 06/05 A2999 RMK SC8 SLP179=

CYQF;2006-09-20 12:00;METAR CYQF 201200Z 13003KT 15SM OVC022 07/05 A2997 RMK SC8 SLP172=

CYQF;2006-09-20 13:00;METAR CYQF 201300Z 15003KT 15SM OVC020 07/05 A2994 RMK SC8 SLP163=

CYQF;2006-09-20 14:00;METAR CYQF 201400Z 14003KT 15SM OVC017 07/05 A2993 RMK SC8 SLP158=

CYQF;2006-09-20 14:21;SPECI CYQF 201421Z 13003KT 15SM OVC014 RMK SC8=

CYQF;2006-09-20 15:00;METAR CYQF 201500Z 13006KT 15SM OVC014 07/04 A2991 RMK SC8 SLP150=

CYQF;2006-09-20 16:00;METAR CYQF 201600Z 15004KT 15SM OVC015 07/04 A2989 RMK SC8 SLP144=

CYQF;2006-09-20 17:00;METAR CYQF 201700Z 15006KT 10SM OVC015 07/04 A2986 RMK SC8 CIG RAG SLP135=

CYQF;2006-09-20 18:00;METAR CYQF 201800Z 15006KT 10SM OVC015 08/04 A2982 RMK SC8 SLP121=

CYQF;2006-09-20 19:00;METAR CYQF 201900Z 16007KT 10SM OVC015 08/04 A2979 RMK SC8 SLP111=

CYQF;2006-09-20 20:00;METAR CYQF 202000Z 14005KT 10SM BKN018 OVC090 09/05 A2976 RMK SC7AC1 LWR LYR TOP 055ASL SLP100=

CYQF;2006-09-20 21:00;METAR CYQF 202100Z 15007KT 10SM BKN020 OVC090 10/05 A2973 RMK SC3AC5 SLP086=

CYQF;2006-09-20 22:00;METAR CYQF 202200Z 15011KT 10SM FEW020 SCT090 BKN210 12/07 A2970 RMK SC1AC2CI2 SLP077=

CYQF;2006-09-20 23:00;METAR CYQF 202300Z 13010KT 10SM FEW090 FEW150 BKN210 12/06 A2967 RMK AC1AC1CI4 SLP068=

CYQF;2006-09-21 00:00;METAR CYQF 210000Z 15007KT 10SM FEW060 BKN090 BKN210 13/06 A2964 RMK SC2AC2CI3 SLP052=

CYQF;2006-09-21 01:00;METAR CYQF 210100Z 04003KT 10SM FEW030TCU BKN060 OVC090 12/07 A2963 RMK TCU2SC3AC3 CB/LTGICCG DIST SW SLP049=

CYQF;2006-09-21 01:32;SPECI CYQF 210132Z 24012KT 6SM -SHRA BKN030TCU OVC060 RMK TCU6SC2 WND SHFT 0125=

CYQF;2006-09-21 02:00;METAR CYQF 210200Z 25006KT 4SM -SHRA BR BKN030 OVC060 08/07 A2963 RMK SC6SC2 SLP051=

CYQF;2006-09-21 03:00;METAR CYQF 210300Z 06005KT 10SM -RA FEW030 OVC050 09/07 A2960 RMK SC2SC6 SLP043=

CYQF;2006-09-21 04:00;METAR CYQF 210400Z 09004KT 15SM BKN050 BKN100 08/07 A2959 RMK SC5AC2 SLP041=

CYQF;2006-09-21 05:00;METAR CYQF 210500Z 00000KT 15SM SCT050 BKN110 08/07 A2958 RMK SC4AC3 SLP037=

CYQF;2006-09-21 06:00;METAR CYQF 210600Z 28006KT 15SM SCT050 BKN110 07/07 A2957 RMK SC4AC3 SLP035=

CYQF;2006-09-21 07:00;METAR CYQF 210700Z 27003KT 15SM SCT050 BKN110 07/07 A2956 RMK SC3AC4 SLP031=

CYQF;2006-09-21 08:00;METAR CYQF 210800Z 33005KT 10SM FEW008 SCT050 BKN090 07/07 A2956 RMK SF2SC2AC3 SLP030=

CYQF;2006-09-21 08:22;SPECI CYQF 210822Z 02005KT 10SM -RA FEW008 BKN050 OVC090 RMK SF2SC3AC2=

CYQF;2006-09-21 09:00;METAR CYQF 210900Z 02006KT 10SM -RA FEW008 BKN050 OVC090 07/07 A2955 RMK SF2SC2AC3 SLP025=

CYQF;2006-09-21 10:00;METAR CYQF 211000Z 34006KT 4SM -RA BR FEW008 OVC060 07/07 A2955 RMK SF2SC6 SLP024=

CYQF;2006-09-21 11:00;METAR CYQF 211100Z 31006KT 4SM -RA BR FEW008 OVC060 07/07 A2956 RMK SF2SC6 SLP029=

CYQF;2006-09-21 12:00;METAR CYQF 211200Z 30006KT 10SM -RA FEW006 OVC050 07/06 A2958 RMK SF2SC6 SLP031=

CYQF;2006-09-21 13:00;METAR CYQF 211300Z 30010KT 10SM -RA FEW006 OVC028 07/06 A2958 RMK SF2SC6 SLP033=

CYQF;2006-09-21 14:00;METAR CYQF 211400Z 30010KT 10SM -RA FEW006 BKN020 OVC060 06/06 A2959 RMK SF2SC2SC3 SLP036=

CYQF;2006-09-21 14:53;SPECI CYQF 211453Z 30008KT 6SM -RA BR BKN010 OVC020 RMK SC6SC2 CIG RAG=

CYQF;2006-09-21 15:00;METAR CYQF 211500Z 30008KT 6SM -RA BR BKN010 OVC020 07/06 A2960 RMK SC6SC2 SLP044=

CYQF;2006-09-21 15:21;SPECI CYQF 211521Z 31007KT 6SM -RA BR OVC009 OVC020 RMK SC7SC1 CIG RAG LWR NW-N=

CYQF;2006-09-21 15:48;SPECI CYQF 211548Z 33010KT 6SM -RA BR SCT009 OVC020 RMK SF2SC6 CIG LWR SE-SW=

CYQF;2006-09-21 16:00;METAR CYQF 211600Z 33013KT 5SM -RA BR SCT009 OVC020 07/07 A2961 RMK SF4SC4 CIG/VSBY LWR SW-W SLP047=

CYQF;2006-09-21 17:00;METAR CYQF 211700Z 34012KT 5SM -RA BR BKN008 OVC020 07/07 A2963 RMK SF5SC3 SLP053=

CYQF;2006-09-21 18:00;METAR CYQF 211800Z 33010G15KT 5SM -RA BR BKN007 OVC020 07/07 A2965 RMK SF5SC3 SLP062=

CYQF;2006-09-21 19:00;METAR CYQF 211900Z 30010G19KT 6SM -RA BR OVC008 07/07 A2967 RMK SC8 CIG RAG SLP068=

CYQF;2006-09-21 20:00;METAR CYQF 212000Z CCA 33010G15KT 10SM -RA OVC008 08/06 A2969 RMK SC8 CIG RAG SLP074=

CYQF;2006-09-21 21:00;METAR CYQF 212100Z CCA 33012G20KT 6SM -RA BR BKN009 OVC020 08/07 A2971 RMK SC5SC3 CIG RAG SLP083=

CYQF;2006-09-21 22:00;METAR CYQF 212200Z 33010G15KT 6SM -RA BR BKN009 OVC020 08/07 A2974 RMK SF5SC3 CIG RAG SLP092=

CYQF;2006-09-21 23:00;METAR CYQF 212300Z 32010G15KT 6SM -RA BR BKN008 OVC016 08/07 A2977 RMK SF5SC3 SLP100=

CYQF;2006-09-22 00:00;METAR CYQF 220000Z 33010G15KT 4SM -RA BR BKN009 OVC016 07/07 A2980 RMK SF6SC2 SLP114=

CYQF;2006-09-22 01:00;METAR CYQF 220100Z 34011KT 8SM SCT010 BKN016 OVC040 07/07 A2984 RMK SF3SC3SC2 BR SLP125=

CYQF;2006-09-22 02:00;METAR CYQF 220200Z 34012KT 8SM SCT011 OVC030 07/07 A2987 RMK SF3SC5 BR SLP135=

CYQF;2006-09-22 03:00;METAR CYQF 220300Z 34011KT 10SM FEW010 OVC024 07/06 A2990 RMK SF2SC6 SLP148=

CYQF;2006-09-22 04:00;METAR CYQF 220400Z 32009KT 12SM -RA BKN024 OVC050 07/06 A2993 RMK SC6SC2 SLP157=

CYQF;2006-09-22 05:00;METAR CYQF 220500Z 33009KT 12SM -RA FEW010 OVC030 07/07 A2995 RMK SF2SC6 SLP164=

CYQF;2006-09-22 06:00;METAR CYQF 220600Z 32012KT 10SM -RA FEW010 OVC030 07/06 A2997 RMK SC2SC6 SLP172=

CYQF;2006-09-22 07:00;METAR CYQF 220700Z 33012KT 15SM -RA FEW010 BKN030 OVC080 07/06 A2999 RMK SC2SC4AC2 SLP179=

CYQF;2006-09-22 07:35;SPECI CYQF 220735Z 32012KT 15SM SCT030 OVC080 RMK SC3AC5=

CYQF;2006-09-22 08:00;METAR CYQF 220800Z 32012KT 15SM FEW030 OVC080 07/06 A3001 RMK SC2AC6 SLP184=

CYQF;2006-09-22 09:00;METAR CYQF 220900Z 32010KT 15SM FEW030 OVC080 07/06 A3003 RMK SC2AC6 SLP192=

CYQF;2006-09-22 10:00;METAR CYQF 221000Z 31014KT 15SM SCT030 OVC080 07/06 A3005 RMK SC3AC5 SLP199=

CYQF;2006-09-22 11:00;METAR CYQF 221100Z 33014KT 15SM SCT020 OVC080 07/05 A3006 RMK SC4AC4 SLP204=

CYQF;2006-09-22 12:00;METAR CYQF 221200Z 33015KT 15SM BKN016 OVC080 07/06 A3009 RMK SC6AC2 SLP214=

CYQF;2006-09-22 12:25;SPECI CYQF 221225Z 32013KT 15SM -RA BKN015 OVC080 RMK SC6AC2=

CYQF;2006-09-22 13:00;METAR CYQF 221300Z 33012KT 10SM -RA FEW006 BKN013 OVC080 07/06 A3011 RMK SF1SC6AC2 CIG RAG SLP220=

CYQF;2006-09-22 13:33;SPECI CYQF 221333Z 32011KT 10SM FEW006 SCT013 BKN080 RMK SF1SC3AC3=

CYQF;2006-09-22 14:00;METAR CYQF 221400Z 33014KT 15SM FEW006 BKN015 OVC080 07/06 A3014 RMK SF2SC5AC2 SLP229=

CYQF;2006-09-22 15:00;METAR CYQF 221500Z 33010KT 15SM FEW008 OVC012 07/06 A3015 RMK SF2SC6 SLP235=

CYQF;2006-09-22 16:00;METAR CYQF 221600Z 33012KT 15SM OVC013 07/06 A3016 RMK SC8 CIG RAG SLP238=

CYQF;2006-09-22 17:00;METAR CYQF 221700Z 32014KT 15SM OVC013 08/06 A3017 RMK SC8 CIG RAG SLP242=

CYQF;2006-09-22 18:00;METAR CYQF 221800Z 32015KT 15SM BKN013 OVC060 08/06 A3018 RMK SC7SC1 CIG RAG SLP245=

CYQF;2006-09-22 19:00;METAR CYQF 221900Z 32010G15KT 15SM BKN013 OVC060 08/06 A3019 RMK SC7SC1 CIG RAG SLP249=

CYQF;2006-09-22 20:00;METAR CYQF 222000Z 33010KT 15SM BKN015 OVC050 09/06 A3021 RMK SC6SC2 CIG RAG SLP253=

CYQF;2006-09-22 21:00;METAR CYQF 222100Z 33010KT 15SM BKN015 OVC070 10/07 A3020 RMK CU5AC2 SLP249=

CYQF;2006-09-22 22:00;METAR CYQF 222200Z 33010KT 15SM BKN015 BKN100 BKN250 10/06 A3019 RMK CU5AC2CI0 TCU ASOCTD SH W SLP247=

CYQF;2006-09-22 23:00;METAR CYQF 222300Z 36007KT 15SM SCT020 BKN100 10/06 A3019 RMK CU4AC2 TCU ASOCTD SLP246=

CYQF;2006-09-23 00:00;METAR CYQF 230000Z 29005KT 15SM VCSH SCT030 BKN120 BKN250 09/05 A3019 RMK CU3AC2CI0 TCU ASOCTD SLP247=

CYQF;2006-09-23 01:00;METAR CYQF 230100Z 33005KT 15SM FEW030 BKN120 BKN210 10/05 A3020 RMK CU2AC2CI0 VIRGA/SHWRS SE-SW SLP249=

CYQF;2006-09-23 02:00;METAR CYQF 230200Z 00000KT 15SM FEW120 FEW210 06/04 A3019 RMK AC1CI1 SLP248=

CYQF;2006-09-23 03:00;METAR CYQF 230300Z 00000KT 15SM SKC 04/03 A3019 RMK SLP253=

CYQF;2006-09-23 04:00;METAR CYQF 230400Z 21005KT 15SM FEW210 03/02 A3018 RMK CI0 SLP251=

CYQF;2006-09-23 05:00;METAR CYQF 230500Z 25005KT 15SM FEW210 03/02 A3018 RMK CI0 SLP251=

CYQF;2006-09-23 06:00;METAR CYQF 230600Z 17004KT 15SM FEW210 02/02 A3017 RMK CI1 SLP248=

CYQF;2006-09-23 07:00;METAR CYQF 230700Z 22005KT 15SM FEW210 01/00 A3017 RMK CI1 SLP247=

CYQF;2006-09-23 08:00;METAR CYQF 230800Z 21003KT 15SM FEW210 00/00 A3016 RMK CI0 SLP245=

CYQF;2006-09-23 09:00;METAR CYQF 230900Z 20003KT 15SM SKC 00/M00 A3015 RMK SLP241=

CYQF;2006-09-23 10:00;METAR CYQF 231000Z 21004KT 15SM FEW210 M00/M01 A3014 RMK CI0 SLP236=

CYQF;2006-09-23 11:00;METAR CYQF 231100Z 20003KT 15SM FEW210 M00/M01 A3014 RMK CI0 SLP236=

CYQF;2006-09-23 12:00;METAR CYQF 231200Z 21003KT 15SM SKC M01/M01 A3013 RMK SLP235=

CYQF;2006-09-23 13:00;METAR CYQF 231300Z 21003KT 15SM FEW080 FEW210 M01/M02 A3012 RMK AC1CI1 SLP233=

CYQF;2006-09-23 14:00;METAR CYQF 231400Z 21005KT 15SM FEW080 SCT210 M00/M01 A3013 RMK AC2CI1 SLP234=

CYQF;2006-09-23 15:00;METAR CYQF 231500Z 20005KT 15SM BKN080 BKN210 02/01 A3013 RMK AC5CI1 SLP237=

CYQF;2006-09-23 16:00;METAR CYQF 231600Z 21004KT 15SM BKN080 BKN210 03/02 A3013 RMK AC6CI1 SLP237=

CYQF;2006-09-23 17:00;METAR CYQF 231700Z 23005KT 15SM OVC080 06/05 A3013 RMK AC8 SLP238=

CYQF;2006-09-23 18:00;METAR CYQF 231800Z 25004KT 15SM OVC080 09/06 A3013 RMK AC8 SLP232=

CYQF;2006-09-23 19:00;METAR CYQF 231900Z 25006KT 15SM OVC090 12/08 A3012 RMK AC8 SLP229=

CYQF;2006-09-23 20:00;METAR CYQF 232000Z 29010KT 15SM FEW025 BKN090 15/09 A3010 RMK CU1AC5 SLP223=

CYQF;2006-09-23 21:00;METAR CYQF 232100Z 31010KT 15SM FEW030 FEW090 15/07 A3009 RMK CU2AC1 SLP215=

CYQF;2006-09-23 22:00;METAR CYQF 232200Z 31010KT 15SM FEW030 FEW090 16/07 A3008 RMK CU1AC1 SLP212=

CYQF;2006-09-23 23:00;METAR CYQF 232300Z 32010KT 15SM FEW030 17/07 A3007 RMK CF1 SLP208=

CYQF;2006-09-24 00:00;METAR CYQF 240000Z 30004KT 15SM FEW040 16/08 A3006 RMK CF1 SLP204=

CYQF;2006-09-24 01:00;METAR CYQF 240100Z 00000KT 15SM FEW210 15/08 A3006 RMK CI1 SLP202=

CYQF;2006-09-24 02:00;METAR CYQF 240200Z 21003KT 15SM FEW210 11/07 A3006 RMK CI1 SLP202=

CYQF;2006-09-24 03:00;METAR CYQF 240300Z 21003KT 15SM FEW210 09/06 A3006 RMK CI1 SLP207=

CYQF;2006-09-24 04:00;METAR CYQF 240400Z 20004KT 15SM FEW210 07/05 A3006 RMK CI1 SLP209=

CYQF;2006-09-24 05:00;METAR CYQF 240500Z 21005KT 15SM SKC 06/05 A3006 RMK SLP209=

CYQF;2006-09-24 06:00;METAR CYQF 240600Z 00000KT 15SM SKC 06/05 A3007 RMK SLP207=

CYQF;2006-09-24 07:00;METAR CYQF 240700Z 23003KT 15SM FEW100 04/04 A3008 RMK AC1 SLP210=

CYQF;2006-09-24 08:00;METAR CYQF 240800Z 25005KT 15SM FEW100 05/04 A3009 RMK AC2 SLP212=

CYQF;2006-09-24 09:00;METAR CYQF 240900Z 00000KT 15SM SCT100 05/04 A3009 RMK AC3 SLP207=

CYQF;2006-09-24 10:00;METAR CYQF 241000Z 17004KT 15SM FEW100 05/04 A3009 RMK AC1 SLP207=

CYQF;2006-09-24 11:00;METAR CYQF 241100Z CCA 20006KT 15SM FEW100 FEW210 04/03 A3009 RMK AC2CI1 OBS TAKEN +6 SLP207=

CYQF;2006-09-24 12:00;METAR CYQF 241200Z 00000KT 15SM FEW100 04/03 A3009 RMK AC1 SLP208=

CYQF;2006-09-24 13:00;METAR CYQF 241300Z 22005KT 15SM BKN070 06/04 A3010 RMK AC6 SLP210=

CYQF;2006-09-24 14:00;METAR CYQF 241400Z 22005KT 15SM BKN070 BKN250 06/05 A3011 RMK AC5CI0 SLP214=

CYQF;2006-09-24 15:00;METAR CYQF 241500Z 22005KT 15SM SCT070 SCT250 08/05 A3012 RMK AC2CI0 SLP221=

CYQF;2006-09-24 16:00;METAR CYQF 241600Z 23003KT 15SM FEW070 SCT250 11/07 A3013 RMK AC2CI0 SLP225=

CYQF;2006-09-24 17:00;METAR CYQF 241700Z 22005KT 15SM FEW070 FEW250 15/08 A3013 RMK AC1CI0 SLP226=

CYQF;2006-09-24 18:00;METAR CYQF 241800Z 34007KT 15SM FEW060 FEW250 17/08 A3014 RMK CU1CI0 SLP222=

CYQF;2006-09-24 19:00;METAR CYQF 241900Z 33012KT 15SM FEW060 FEW250 18/08 A3013 RMK CU1CI0 SLP218=

CYQF;2006-09-24 20:00;METAR CYQF 242000Z 32010KT 15SM FEW060 FEW250 19/09 A3013 RMK CU1CI0 SLP218=

CYQF;2006-09-24 21:00;METAR CYQF 242100Z 35005KT 15SM FEW060 FEW250 19/09 A3011 RMK CU1CI0 SLP209=

CYQF;2006-09-24 22:00;METAR CYQF 242200Z 02006KT 15SM FEW080 SCT250 19/08 A3010 RMK AC1CI1 SLP207=

CYQF;2006-09-24 23:00;METAR CYQF 242300Z 02003KT 15SM FEW080 FEW250 19/08 A3009 RMK AC1CI1 ACSL SLP205=

CYQF;2006-09-25 00:00;METAR CYQF 250000Z 02003KT 15SM FEW080 FEW250 19/07 A3010 RMK AC1CI1 ACSL TR SLP208=

CYQF;2006-09-25 01:00;METAR CYQF 250100Z 01002KT 15SM FEW080 BKN200 18/08 A3009 RMK AC1CI2 ACSL TR SLP206=

CYQF;2006-09-25 02:00;METAR CYQF 250200Z 00000KT 15SM SCT150 BKN210 15/09 A3009 RMK AC1CI2 SLP205=

CYQF;2006-09-25 03:00;METAR CYQF 250300Z 16003KT 15SM SCT150 BKN210 12/08 A3010 RMK AC1CI1 SLP211=

CYQF;2006-09-25 04:00;METAR CYQF 250400Z 19003KT 15SM SCT210 09/07 A3010 RMK CI1 SLP211=

CYQF;2006-09-25 05:00;METAR CYQF 250500Z 00000KT 15SM FEW210 09/07 A3010 RMK CI0 SLP212=

CYQF;2006-09-25 06:00;METAR CYQF 250600Z 21005KT 15SM SKC 07/06 A3010 RMK SLP208=

CYQF;2006-09-25 07:00;METAR CYQF 250700Z 21004KT 15SM FEW250 07/06 A3010 RMK CI0 SLP207=

CYQF;2006-09-25 08:00;METAR CYQF 250800Z 19004KT 15SM SCT250 06/05 A3009 RMK CI1 SLP203=

CYQF;2006-09-25 09:00;METAR CYQF 250900Z 21004KT 15SM SKC 06/04 A3008 RMK SLP200=

CYQF;2006-09-25 10:00;METAR CYQF 251000Z 21007KT 15SM SKC 05/04 A3007 RMK SLP198=

CYQF;2006-09-25 11:00;METAR CYQF 251100Z 21005KT 15SM SKC 05/04 A3007 RMK SLP196=

CYQF;2006-09-25 12:00;METAR CYQF 251200Z 21004KT 15SM SKC 04/03 A3006 RMK SLP195=

CYQF;2006-09-25 13:00;METAR CYQF 251300Z 20005KT 15SM FEW210 03/02 A3005 RMK CI1 SLP191=

CYQF;2006-09-25 14:00;METAR CYQF 251400Z 19004KT 15SM FEW120 FEW210 04/02 A3004 RMK AC1CI0 SLP188=

CYQF;2006-09-25 15:00;METAR CYQF 251500Z 20003KT 15SM FEW080 SCT110 BKN220 07/05 A3003 RMK AC1AC2CI1 SLP187=

CYQF;2006-09-25 16:00;METAR CYQF 251600Z 22005KT 15SM FEW080 BKN110 BKN220 12/06 A3001 RMK AC1AC4CI1 SLP183=

CYQF;2006-09-25 17:00;METAR CYQF 251700Z 00000KT 15SM FEW050 BKN100 BKN220 13/06 A3000 RMK SC1AC5CI1 SLP180=

CYQF;2006-09-25 18:00;METAR CYQF 251800Z 00000KT 15SM FEW050 BKN100 BKN220 16/09 A2999 RMK SC1AC4CI1 SLP170=

CYQF;2006-09-25 19:00;METAR CYQF 251900Z 24002KT 15SM FEW050 SCT100 BKN220 18/08 A2996 RMK SC1AC2CI1 SLP162=

CYQF;2006-09-25 20:00;METAR CYQF 252000Z 26006KT 15SM FEW100 SCT220 20/09 A2993 RMK AC2CI1 SLP152=

CYQF;2006-09-25 21:00;METAR CYQF 252100Z 27006KT 15SM FEW100 BKN220 21/08 A2992 RMK AC2CI2 SLP140=

CYQF;2006-09-25 22:00;METAR CYQF 252200Z 32007KT 15SM FEW090 BKN220 22/07 A2990 RMK AC2CI3 SLP135=

CYQF;2006-09-25 23:00;METAR CYQF 252300Z 31010KT 15SM FEW090 BKN140 BKN220 21/07 A2990 RMK AC2AC4CI1 SLP135=

CYQF;2006-09-26 00:00;METAR CYQF 260000Z 29006KT 15SM SCT070 BKN120 BKN220 20/09 A2990 RMK AC4AC2CI1 VIRGA SLP140=

CYQF;2006-09-26 01:00;METAR CYQF 260100Z 33008KT 15SM SCT060 SCT120 BKN210 17/08 A2992 RMK SC3AC1CI0 SLP145=

CYQF;2006-09-26 02:00;METAR CYQF 260200Z 32010KT 15SM BKN060 BKN120 BKN210 16/08 A2994 RMK SC5AC1CI0 SLP150=

CYQF;2006-09-26 03:00;METAR CYQF 260300Z 35010KT 15SM BKN075 15/08 A2995 RMK AC6 SLP155=

CYQF;2006-09-26 04:00;METAR CYQF 260400Z 34008KT 15SM BKN075 15/08 A2995 RMK AC6 SLP158=

CYQF;2006-09-26 05:00;METAR CYQF 260500Z 33018G24KT 15SM BKN080 15/07 A2998 RMK AC7 SLP165=

CYQF;2006-09-26 05:27;SPECI CYQF 260527Z 33015G22KT 15SM -RA OVC080 RMK AC8=

CYQF;2006-09-26 06:00;METAR CYQF 260600Z 33012G19KT 15SM -RA OVC090 13/09 A3000 RMK AC8 SLP167=

CYQF;2006-09-26 07:00;METAR CYQF 260700Z 32008KT 15SM -RA OVC090 12/09 A3001 RMK AC8 SLP170=

CYQF;2006-09-26 08:00;METAR CYQF 260800Z 33010KT 12SM -RA OVC050 11/10 A3004 RMK SC8 SLP180=

CYQF;2006-09-26 09:00;METAR CYQF 260900Z 31010KT 10SM -RA FEW015 OVC040 11/10 A3006 RMK SC2SC6 SLP186=

CYQF;2006-09-26 10:00;METAR CYQF 261000Z 29010KT 10SM -RA OVC040 10/10 A3008 RMK SC8 SLP191=

CYQF;2006-09-26 11:00;METAR CYQF 261100Z 27010KT 10SM -RA OVC040 10/09 A3008 RMK SC8 SLP192=

CYQF;2006-09-26 12:00;METAR CYQF 261200Z 28010G15KT 12SM -RA FEW040 OVC090 10/09 A3009 RMK SC2AC6 SLP197=

CYQF;2006-09-26 13:00;METAR CYQF 261300Z 29010KT 12SM -RA FEW040 BKN090 10/09 A3009 RMK SC2AC6 SLP199=

CYQF;2006-09-26 14:00;METAR CYQF 261400Z 27006KT 15SM FEW040 BKN090 10/09 A3011 RMK SC2AC5 SLP204=

CYQF;2006-09-26 15:00;METAR CYQF 261500Z 29008KT 15SM FEW040 BKN090 BKN250 11/09 A3013 RMK SC2AC3CI1 SLP214=

CYQF;2006-09-26 16:00;METAR CYQF 261600Z 29008KT 15SM FEW040 SCT100 BKN250 12/10 A3014 RMK SC1AC2CI1 SLP217=

CYQF;2006-09-26 17:00;METAR CYQF 261700Z 33008KT 15SM FEW040 SCT100 BKN250 13/10 A3014 RMK SC1AC2CI0 SLP219=

CYQF;2006-09-26 18:00;METAR CYQF 261800Z 31010KT 15SM FEW040 SCT100 14/08 A3015 RMK CU2AC2 SLP222=

CYQF;2006-09-26 19:00;METAR CYQF 261900Z 31008KT 15SM FEW030 SCT100 15/09 A3015 RMK CU2AC2 SLP222=

CYQF;2006-09-26 20:00;METAR CYQF 262000Z 30015KT 15SM SCT030 BKN100 15/09 A3016 RMK CU3AC2 SLP225=

CYQF;2006-09-26 21:49;SPECI CYQF 262149Z 30012KT 15SM -SHRA BKN035 BKN100 RMK CU5AC2 TCU ASOCTD=

CYQF;2006-09-26 22:00;METAR CYQF 262200Z 31012KT 15SM -SHRA BKN035TCU BKN100 12/09 A3017 RMK TCU5AC2 RERA SLP228=

CYQF;2006-09-26 22:40;SPECI CYQF 262240Z 30008KT 15SM BKN035TCU BKN090 BKN250 RMK TCU5AC1CI0 RERA=

CYQF;2006-09-26 23:00;METAR CYQF 262300Z 30008KT 15SM BKN035TCU BKN090 12/09 A3018 RMK TCU5AC2 SHRA SE+S SLP231=

CYQF;2006-09-27 00:00;METAR CYQF 270000Z 36008KT 15SM FEW030 SCT090 12/07 A3021 RMK SC2AC1 SLP247=

CYQF;2006-09-27 01:00;METAR CYQF 270100Z 36007KT 15SM FEW030 SCT090 BKN250 11/07 A3023 RMK SC2AC2CI0 SLP254=

CYQF;2006-09-27 02:00;METAR CYQF 270200Z 34007KT 15SM SCT080 SCT250 08/06 A3026 RMK AC3CI0 SLP263=

CYQF;2006-09-27 03:00;METAR CYQF 270300Z 34008KT 15SM BKN080 10/05 A3028 RMK AC4 SLP274=

CYQF;2006-09-27 04:00;METAR CYQF 270400Z 33006KT 15SM SCT080 07/04 A3030 RMK AC2 SLP280=

CYQF;2006-09-27 05:00;METAR CYQF 270500Z 00000KT 15SM FEW080 05/03 A3032 RMK AC2 SLP285=

CYQF;2006-09-27 06:00;METAR CYQF 270600Z 30003KT 15SM SCT090 04/02 A3033 RMK AC2 SLP293=

CYQF;2006-09-27 07:00;METAR CYQF 270700Z 36003KT 15SM FEW090 06/03 A3034 RMK AC1 SLP296=

CYQF;2006-09-27 08:00;METAR CYQF 270800Z 00000KT 15SM FEW090 03/01 A3035 RMK AC1 SLP299=

CYQF;2006-09-27 09:00;METAR CYQF 270900Z 00000KT 15SM FEW100 02/01 A3035 RMK AC1 SLP301=

CYQF;2006-09-27 10:00;METAR CYQF 271000Z 00000KT 15SM FEW100 02/01 A3034 RMK AC1 SLP299=

CYQF;2006-09-27 11:00;METAR CYQF 271100Z 00000KT 15SM SKC 01/00 A3034 RMK SLP299=

CYQF;2006-09-27 12:00;METAR CYQF 271200Z 19004KT 15SM SKC 01/00 A3034 RMK SLP302=

CYQF;2006-09-27 13:00;METAR CYQF 271300Z 20004KT 15SM FEW090 00/00 A3033 RMK AC1 SLP299=

CYQF;2006-09-27 14:00;METAR CYQF 271400Z 18005KT 15SM FEW250 01/00 A3032 RMK CI0 SLP295=

CYQF;2006-09-27 15:00;METAR CYQF 271500Z 17004KT 15SM BKN250 04/02 A3031 RMK CI2 SLP292=

CYQF;2006-09-27 16:00;METAR CYQF 271600Z 17008KT 15SM BKN250 07/05 A3030 RMK CI2 SLP290=

CYQF;2006-09-27 17:00;METAR CYQF 271700Z 17007KT 15SM BKN250 10/05 A3029 RMK CI2 SLP285=

CYQF;2006-09-27 18:00;METAR CYQF 271800Z 17009KT 15SM SCT250 12/06 A3027 RMK CI1 SLP277=

CYQF;2006-09-27 19:00;METAR CYQF 271900Z 17008KT 15SM FEW250 13/07 A3025 RMK CI1 SLP269=

CYQF;2006-09-27 20:00;METAR CYQF 272000Z 15008KT 15SM FEW250 15/08 A3021 RMK CI1 SLP258=

CYQF;2006-09-27 21:00;METAR CYQF 272100Z 21010KT 15SM FEW120 FEW250 17/07 A3018 RMK AC1CI1 TR AC SLP240=

CYQF;2006-09-27 22:00;METAR CYQF 272200Z 18010KT 15SM FEW120 FEW250 18/06 A3015 RMK AC1CI1 TR AC SLP230=

CYQF;2006-09-27 23:00;METAR CYQF 272300Z 19012KT 15SM FEW120 19/05 A3011 RMK AC2 SLP219=

CYQF;2006-09-28 00:00;METAR CYQF 280000Z 21008KT 15SM BKN120 18/06 A3008 RMK AC4 BARO READ +10 SLP206=

CYQF;2006-09-28 01:00;METAR CYQF 280100Z 17007KT 15SM FEW120 SCT250 16/07 A3005 RMK AC2CI1 SLP196=

CYQF;2006-09-28 02:00;METAR CYQF 280200Z 17003KT 15SM FEW100 FEW250 12/06 A3003 RMK AC1CI1 SLP191=

CYQF;2006-09-28 03:00;METAR CYQF 280300Z 18008KT 15SM FEW100 FEW250 11/06 A3001 RMK AC1CI1 SLP185=

CYQF;2006-09-28 04:00;METAR CYQF 280400Z 18005KT 15SM FEW120 09/06 A2999 RMK AC2 SLP179=

CYQF;2006-09-28 05:00;METAR CYQF 280500Z 18005KT 15SM BKN120 10/06 A2996 RMK AC5 SLP171=

CYQF;2006-09-28 06:00;METAR CYQF 280600Z 17004KT 15SM SCT120 09/05 A2994 RMK AC3 SLP156=

CYQF;2006-09-28 07:00;METAR CYQF 280700Z 20002KT 15SM BKN120 09/06 A2994 RMK AC5 SLP155=

CYQF;2006-09-28 08:00;METAR CYQF 280800Z 00000KT 15SM BKN100 09/07 A2994 RMK AC6 SLP154=

CYQF;2006-09-28 09:00;METAR CYQF 280900Z 00000KT 15SM FEW100 08/06 A2993 RMK AC2 SLP147=

CYQF;2006-09-28 10:00;METAR CYQF 281000Z 18002KT 15SM FEW100 07/06 A2991 RMK AC1 SLP142=

CYQF;2006-09-28 11:00;METAR CYQF 281100Z 20003KT 15SM FEW100 04/04 A2992 RMK AC2 SLP143=

CYQF;2006-09-28 12:00;METAR CYQF 281200Z 23004KT 15SM FEW100 FEW250 06/05 A2993 RMK AC1CI0 SLP149=

CYQF;2006-09-28 13:00;METAR CYQF 281300Z 00000KT 15SM SCT080 BKN250 06/05 A2994 RMK AC3CI1 SLP151=

CYQF;2006-09-28 14:00;METAR CYQF 281400Z 24005KT 15SM BKN080 BKN250 07/06 A2993 RMK AC5CI1 SLP149=

CYQF;2006-09-28 15:00;METAR CYQF 281500Z 25005KT 15SM BKN080 BKN250 09/07 A2993 RMK AC5CI2 SLP151=

CYQF;2006-09-28 16:00;METAR CYQF 281600Z 24006KT 15SM BKN090 OVC250 10/08 A2994 RMK AC5CI2 SLP154=

CYQF;2006-09-28 17:00;METAR CYQF 281700Z 24006KT 15SM SCT090 OVC250 13/09 A2994 RMK AC3CI3 SLP154=

CYQF;2006-09-28 18:00;METAR CYQF 281800Z 25006KT 15SM FEW090 BKN250 16/09 A2993 RMK AC2CI2 SLP147=

CYQF;2006-09-28 19:00;METAR CYQF 281900Z 30003KT 15SM FEW090 BKN250 17/06 A2991 RMK AC2CI2 SLP141=

CYQF;2006-09-28 20:00;METAR CYQF 282000Z 32005KT 15SM SCT120 BKN250 18/06 A2988 RMK AC3CI2 SLP132=

CYQF;2006-09-28 21:00;METAR CYQF 282100Z 25003KT 15SM SCT120 BKN250 19/09 A2986 RMK AC3CI2 SLP123=

CYQF;2006-09-28 22:00;METAR CYQF 282200Z 14004KT 15SM FEW120 BKN250 19/07 A2984 RMK AC2CI2 SLP116=

CYQF;2006-09-28 23:00;METAR CYQF 282300Z 23005KT 15SM SCT120 BKN250 19/09 A2984 RMK AC3CI2 SLP114=

CYQF;2006-09-29 00:00;METAR CYQF 290000Z 17004KT 15SM FEW120 BKN250 19/09 A2983 RMK AC2CI2 SLP114=

CYQF;2006-09-29 01:00;METAR CYQF 290100Z 22004KT 15SM FEW110 BKN250 14/09 A2983 RMK AC2CI2 SLP112=

CYQF;2006-09-29 02:00;METAR CYQF 290200Z 00000KT 15SM FEW110 BKN250 14/09 A2984 RMK AC2CI2 SLP115=

CYQF;2006-09-29 03:00;METAR CYQF 290300Z 00000KT 15SM FEW110 SCT250 11/08 A2985 RMK AC1CI1 SLP126=

CYQF;2006-09-29 04:00;METAR CYQF 290400Z 00000KT 15SM FEW250 10/07 A2987 RMK CI1 SLP133=

CYQF;2006-09-29 05:00;METAR CYQF 290500Z 26004KT 15SM FEW250 07/06 A2988 RMK CI1 SLP136=

CYQF;2006-09-29 06:00;METAR CYQF 290600Z 26004KT 15SM FEW250 08/07 A2991 RMK CI1 SLP140=

CYQF;2006-09-29 07:00;METAR CYQF 290700Z 00000KT 15SM FEW120 SCT250 06/05 A2990 RMK AC2CI2 SLP139=

CYQF;2006-09-29 08:00;METAR CYQF 290800Z 21004KT 15SM FEW120 BKN250 06/05 A2991 RMK AC2CI2 SLP140=

CYQF;2006-09-29 09:00;METAR CYQF 290900Z 22005KT 15SM FEW120 SCT250 06/05 A2990 RMK AC2CI1 SLP139=

CYQF;2006-09-29 10:00;METAR CYQF 291000Z 00000KT 15SM FEW120 FEW250 06/05 A2991 RMK AC1CI1 SLP141=

CYQF;2006-09-29 11:00;METAR CYQF 291100Z 18003KT 15SM FEW120 SCT250 06/05 A2991 RMK AC2CI0 SLP141=

CYQF;2006-09-29 12:00;METAR CYQF 291200Z 00000KT 15SM FEW120 FEW250 06/04 A2991 RMK AC1CI0 SLP140=

CYQF;2006-09-29 13:00;METAR CYQF 291300Z 21008KT 15SM SCT120 BKN250 03/02 A2990 RMK AC3CI1 SLP137=

CYQF;2006-09-29 14:00;METAR CYQF 291400Z 21004KT 15SM SCT120 BKN250 04/03 A2990 RMK AC2CI2 SLP137=

CYQF;2006-09-29 15:00;METAR CYQF 291500Z 23005KT 15SM BKN080 BKN250 08/05 A2989 RMK AC6CI2 SLP141=

CYQF;2006-09-29 16:00;METAR CYQF 291600Z 18002KT 15SM BKN080 BKN250 10/07 A2988 RMK AC6CI2 SLP139=

CYQF;2006-09-29 17:00;METAR CYQF 291700Z 18003KT 15SM FEW080 BKN250 14/08 A2987 RMK AC2CI2 SLP134=

CYQF;2006-09-29 18:00;METAR CYQF 291800Z 24005KT 15SM FEW080 BKN250 17/09 A2985 RMK AC1CI3 SLP120=

CYQF;2006-09-29 19:00;METAR CYQF 291900Z 25008KT 15SM FEW080 BKN250 21/10 A2984 RMK AC1CI3 SLP114=

CYQF;2006-09-29 20:00;METAR CYQF 292000Z 27005KT 15SM FEW060 BKN210 21/09 A2982 RMK SC1CI4 SLP109=

CYQF;2006-09-29 21:00;METAR CYQF 292100Z 00000KT 15SM FEW060 FEW100 BKN210 22/09 A2980 RMK CU1AC1CI3 SLP101=

CYQF;2006-09-29 22:00;METAR CYQF 292200Z 27010KT 15SM FEW060 FEW100 BKN210 23/08 A2978 RMK SC1AC2CI2 SLP094=

CYQF;2006-09-29 23:00;METAR CYQF 292300Z 31007KT 15SM FEW060 SCT100 BKN210 23/08 A2977 RMK SC1AC2CI1 SLP091=

CYQF;2006-09-30 00:00;METAR CYQF 300000Z 36007KT 15SM BKN090 BKN220 21/10 A2978 RMK AC5CI1 SLP093=

CYQF;2006-09-30 01:00;METAR CYQF 300100Z 35003KT 15SM FEW080 BKN270 17/08 A2979 RMK AC2CI2 SLP098=

CYQF;2006-09-30 02:00;METAR CYQF 300200Z 36004KT 15SM FEW080 BKN220 16/08 A2979 RMK AC2CI2 SLP098=

CYQF;2006-09-30 03:00;METAR CYQF 300300Z 02005KT 15SM FEW080 SCT220 14/07 A2979 RMK AC2CI1 SLP104=

CYQF;2006-09-30 04:00;METAR CYQF 300400Z 20002KT 15SM FEW220 10/07 A2979 RMK CI0 SLP103=

CYQF;2006-09-30 05:00;METAR CYQF 300500Z 23002KT 15SM FEW220 09/06 A2978 RMK CI0 SLP100=

CYQF;2006-09-30 06:00;METAR CYQF 300600Z 21003KT 15SM FEW220 08/06 A2978 RMK CI0 SLP095=

CYQF;2006-09-30 07:00;METAR CYQF 300700Z 18002KT 15SM FEW210 06/05 A2976 RMK CI1 SLP091=

CYQF;2006-09-30 08:00;METAR CYQF 300800Z 00000KT 15SM SKC 06/05 A2976 RMK SLP088=

CYQF;2006-09-30 09:00;METAR CYQF 300900Z 00000KT 15SM SKC 06/05 A2975 RMK SLP082=

CYQF;2006-09-30 10:00;METAR CYQF 301000Z 19003KT 15SM SKC 04/03 A2973 RMK SLP076=

CYQF;2006-09-30 11:00;METAR CYQF 301100Z 00000KT 15SM BCFG SKC 04/03 A2971 RMK SLP070=

CYQF;2006-09-30 12:00;METAR CYQF 301200Z 00000KT 15SM BCFG SKC 03/02 A2969 RMK SLP065=

CYQF;2006-09-30 13:00;METAR CYQF 301300Z 00000KT 15SM FEW100 04/03 A2967 RMK AC1 SLP059=

CYQF;2006-09-30 14:00;METAR CYQF 301400Z 00000KT 15SM FEW100 03/02 A2965 RMK AC1 SLP052=

CYQF;2006-09-30 15:00;METAR CYQF 301500Z 00000KT 15SM FEW090 07/07 A2963 RMK AC1 SLP048=

CYQF;2006-09-30 16:00;METAR CYQF 301600Z 20003KT 15SM FEW090 12/08 A2962 RMK AC1 SLP044=

CYQF;2006-09-30 17:00;METAR CYQF 301700Z 27003KT 15SM FEW270 14/08 A2961 RMK CI1 SLP042=

CYQF;2006-09-30 18:00;METAR CYQF 301800Z 00000KT 15SM FEW270 16/08 A2960 RMK CI1 SLP035=

CYQF;2006-09-30 19:00;METAR CYQF 301900Z 36009KT 15SM FEW270 19/07 A2959 RMK CI1 SLP033=

CYQF;2006-09-30 20:00;METAR CYQF 302000Z 34010KT 15SM SKC 19/07 A2958 RMK SLP030=

CYQF;2006-09-30 21:00;METAR CYQF 302100Z 03007KT 15SM SKC 20/07 A2956 RMK SLP019=

CYQF;2006-09-30 22:00;METAR CYQF 302200Z 01008KT 15SM FEW060 FEW270 20/05 A2956 RMK CU1CI1 SLP018=

CYQF;2006-10-01 00:00;METAR CYQF 010000Z 01007KT 15SM FEW060 FEW270 19/06 A2956 RMK CU1CI1 SLP021=

CYQF;2006-10-01 01:00;METAR CYQF 010100Z 35006KT 15SM FEW060 FEW270 16/07 A2956 RMK CU1CI1 SLP023=

CYQF;2006-10-01 02:00;METAR CYQF 010200Z 34003KT 15SM FEW060 12/06 A2958 RMK SC1 SLP029=

CYQF;2006-10-01 04:00;METAR CYQF 010400Z 35012KT 15SM FEW060 SCT250 12/07 A2961 RMK SC2CI1 SLP044=

CYQF;2006-10-01 05:00;METAR CYQF 010500Z 01010KT 15SM SCT060 BKN250 11/07 A2964 RMK SC3CI1 OCNL LGTIC DSTNT NW SLP052=

CYQF;2006-10-01 06:00;METAR CYQF 010600Z 36010G15KT 15SM FEW015 SCT060 BKN210 09/07 A2968 RMK SC2SC2CI1 SLP061=

CYQF;2006-10-01 07:00;METAR CYQF 010700Z 35005KT 15SM FEW015 FEW060 SCT210 08/06 A2969 RMK SC1SC1CI0 SLP065=

CYQF;2006-10-01 08:00;METAR CYQF 010800Z 35006KT 15SM FEW015 BKN060 OVC210 08/07 A2971 RMK SC1SC6CI2 SLP071=

CYQF;2006-10-01 09:00;METAR CYQF 010900Z 36005KT 15SM FEW015 BKN060 BKN210 09/07 A2973 RMK SC1SC6CI1 SLP073=

CYQF;2006-10-01 10:00;METAR CYQF 011000Z 32005KT 15SM FEW015 OVC060 09/07 A2974 RMK SC2SC6 SLP077=

CYQF;2006-10-01 11:00;METAR CYQF 011100Z 33007KT 15SM BKN060 08/06 A2976 RMK SC6 SLP081=

CYQF;2006-10-01 12:00;METAR CYQF 011200Z 31006KT 15SM BKN060 BKN090 08/05 A2978 RMK SC6AC1 SLP094=

CYQF;2006-10-01 14:00;METAR CYQF 011400Z 35007KT 15SM FEW020 BKN060 BKN090 07/02 A2983 RMK SF1SC6AC1 SLP108=

CYQF;2006-10-01 15:00;METAR CYQF 011500Z 33002KT 10SM -SHRA FEW020 BKN060 06/03 A2985 RMK SC2SC6 SLP130=

CYQF;2006-10-01 16:00;METAR CYQF 011600Z 31008KT 12SM -SHRA SCT015 BKN040 06/04 A2988 RMK SC3SC4 SLP140=

CYQF;2006-10-01 17:00;METAR CYQF 011700Z 17005KT 15SM FEW015 BKN040 BKN070 06/04 A2988 RMK SC1SC4AC2 VIRGA SLP139=

CYQF;2006-10-01 18:00;METAR CYQF 011800Z 20004KT 15SM FEW040 BKN080 07/02 A2988 RMK SC2AC5 VIRGA S QUAD SLP141=

CYQF;2006-10-01 19:00;METAR CYQF 011900Z 23004KT 15SM FEW020 BKN080 07/04 A2988 RMK CU1AC5 SLP141=

CYQF;2006-10-01 20:00;METAR CYQF 012000Z 21005KT 15SM FEW020 BKN080 07/03 A2987 RMK CU1AC5 SLP138=

CYQF;2006-10-01 21:00;METAR CYQF 012100Z 30002KT 15SM FEW035 SCT100 09/01 A2986 RMK CU1AC2 SLP131=

CYQF;2006-10-01 22:00;METAR CYQF 012200Z 20009KT 15SM FEW035 SCT100 09/01 A2987 RMK CU1AC3 SLP133=

CYQF;2006-10-01 23:00;METAR CYQF 012300Z 19004KT 15SM FEW040 BKN100 09/M01 A2986 RMK CU1AC4 SLP132=

CYQF;2006-10-02 00:00;METAR CYQF 020000Z 23006KT 15SM FEW040 SCT100 09/M00 A2987 RMK SC2AC1 SLP137=

CYQF;2006-10-02 01:00;METAR CYQF 020100Z 22005KT 15SM FEW040 SCT100 07/M00 A2988 RMK SC2AC1 SLP139=

CYQF;2006-10-02 02:00;METAR CYQF 020200Z 24005KT 15SM FEW040 FEW090 04/M00 A2990 RMK SC2AC1 SLP145=

CYQF;2006-10-02 03:00;METAR CYQF 020300Z 33003KT 15SM FEW040 04/00 A2993 RMK SC2 SLP163=

CYQF;2006-10-02 04:00;METAR CYQF 020400Z 02003KT 15SM FEW040 BKN080 04/01 A2995 RMK SC2AC3 SLP171=

CYQF;2006-10-02 05:00;METAR CYQF 020500Z 00000KT 15SM FEW040 BKN080 05/02 A2996 RMK SC2AC4 SLP175=

CYQF;2006-10-02 06:00;METAR CYQF 020600Z 36006KT 15SM FEW040 BKN100 06/01 A2998 RMK SC2AC4 SLP180=

CYQF;2006-10-02 07:00;METAR CYQF 020700Z 36007KT 15SM FEW040 BKN073 06/00 A3001 RMK SC2AC4 SLP187=

CYQF;2006-10-02 08:00;METAR CYQF 020800Z 36008KT 15SM FEW020 SCT040 OVC073 06/00 A3003 RMK SC2SC2AC4 SLP194=

CYQF;2006-10-02 09:00;METAR CYQF 020900Z 00000KT 15SM FEW020 SCT040 OVC070 05/01 A3005 RMK SC2SC2AC5 SLP202=

CYQF;2006-10-02 10:00;METAR CYQF 021000Z 23004KT 15SM -SHRA BKN030 OVC070 03/02 A3006 RMK SC5AC3 SLP204=

CYQF;2006-10-02 11:00;METAR CYQF 021100Z 00000KT 15SM BKN050 OVC070 03/02 A3007 RMK SC6AC2 SLP208=

CYQF;2006-10-02 12:00;METAR CYQF 021200Z 24004KT 15SM FEW050 BKN100 03/02 A3009 RMK SC2AC2 SLP217=

CYQF;2006-10-02 13:00;METAR CYQF 021300Z 20004KT 15SM FEW050 SCT070 BKN120 01/01 A3011 RMK SC1AC3AC1 SLP222=

CYQF;2006-10-02 14:00;METAR CYQF 021400Z 23005KT 15SM BKN070 BKN120 02/01 A3012 RMK AC3AC2 SLP227=

CYQF;2006-10-02 15:00;METAR CYQF 021500Z 00000KT 15SM FEW040 BKN080 BKN250 02/02 A3013 RMK SC1AC4CI1 SLP238=

CYQF;2006-10-02 16:00;METAR CYQF 021600Z 22005KT 15SM SCT080 BKN250 04/03 A3014 RMK AC3CI1 SLP242=

CYQF;2006-10-02 17:00;METAR CYQF 021700Z 23005KT 15SM FEW015 FEW090 BKN250 06/02 A3015 RMK CU1AC2CI1 SLP244=

CYQF;2006-10-02 18:00;METAR CYQF 021800Z 00000KT 15SM SCT025 SCT090 BKN250 08/02 A3015 RMK CU3AC1CI0 SLP235=

CYQF;2006-10-02 19:00;METAR CYQF 021900Z 29003KT 15SM BKN030 BKN250 08/00 A3015 RMK CU5CI1 SLP235=

CYQF;2006-10-02 20:00;METAR CYQF 022000Z 15004KT 15SM SCT030 BKN250 08/M01 A3015 RMK CU4CI0 SLP234=

CYQF;2006-10-02 21:00;METAR CYQF 022100Z 00000KT 15SM SCT035 BKN250 09/01 A3014 RMK CU4CI0 SLP232=

CYQF;2006-10-02 22:00;METAR CYQF 022200Z 18005KT 15SM SCT040 SCT150 BKN250 10/M01 A3013 RMK CU3AC1CI0 SLP231=

CYQF;2006-10-02 23:00;METAR CYQF 022300Z 18005KT 15SM FEW040 SCT150 BKN250 10/01 A3013 RMK CU2AC1CI0 SLP230=

CYQF;2006-10-03 00:00;METAR CYQF 030000Z 19005KT 15SM FEW040 SCT120 BKN250 08/01 A3014 RMK CU2AC1CI1 SLP235=

CYQF;2006-10-03 01:00;METAR CYQF 030100Z 20006KT 15SM FEW040 FEW100 BKN250 06/01 A3015 RMK SC2AC1CI1 SLP239=

CYQF;2006-10-03 02:00;METAR CYQF 030200Z 20006KT 15SM FEW040 SCT250 03/M00 A3016 RMK SC2CI1 SLP242=

CYQF;2006-10-03 03:00;METAR CYQF 030300Z 20006KT 15SM FEW240 02/M01 A3017 RMK CI1 SLP254=

CYQF;2006-10-03 04:00;METAR CYQF 030400Z 19006KT 15SM FEW240 00/M02 A3018 RMK CI1 SLP257=

CYQF;2006-10-03 05:00;METAR CYQF 030500Z 19006KT 15SM FEW060 SCT100 BKN250 M01/M02 A3019 RMK SC2AC2CI1 SLP260=

CYQF;2006-10-03 07:00;METAR CYQF 030700Z 00000KT 15SM FEW100 SCT250 M00/M01 A3020 RMK AC2CI0 SLP259=

CYQF;2006-10-03 08:00;METAR CYQF 030800Z 00000KT 15SM FEW100 FEW250 00/M00 A3020 RMK AC1CI0 SLP260=

CYQF;2006-10-03 09:00;METAR CYQF 030900Z 00000KT 15SM BCFG FEW250 M02/M03 A3021 RMK CI1 SLP265=

CYQF;2006-10-03 10:00;METAR CYQF 031000Z 00000KT 10SM BCFG SCT250 M01/M02 A3021 RMK CI1 SLP266=

CYQF;2006-10-03 11:00;METAR CYQF 031100Z 00000KT 10SM BCFG SCT035 BKN100 BKN250 M01/M01 A3022 RMK SC3AC2CI1 SLP268=

CYQF;2006-10-03 12:00;METAR CYQF 031200Z 00000KT 10SM BKN035 OVC100 01/00 A3022 RMK SC6AC2 SLP266=

CYQF;2006-10-03 13:00;METAR CYQF 031300Z 00000KT 10SM OVC035 02/01 A3023 RMK SC8 SLP268=

CYQF;2006-10-03 14:00;METAR CYQF 031400Z 00000KT 8SM BKN035 OVC100 03/02 A3024 RMK SC6AC2 BR SLP271=

CYQF;2006-10-03 15:00;METAR CYQF 031500Z 16006KT 10SM BKN035 OVC080 04/03 A3025 RMK SC6AC2 SLP280=

CYQF;2006-10-03 16:00;METAR CYQF 031600Z 15005KT 12SM FEW040 BKN070 BKN250 05/03 A3026 RMK SC2AC2CI1 SLP283=

CYQF;2006-10-03 17:00;METAR CYQF 031700Z 16008KT 15SM FEW020 SCT080 BKN210 08/03 A3027 RMK CU1AC3CI1 SLP286=

CYQF;2006-10-03 18:00;METAR CYQF 031800Z 17010G15KT 15SM FEW024 BKN080 BKN210 08/02 A3027 RMK CU2AC3CI1 SLP284=

CYQF;2006-10-03 19:00;METAR CYQF 031900Z 16010G15KT 15SM FEW024 BKN090 09/03 A3027 RMK CU2AC5 SLP284=

CYQF;2006-10-03 20:00;METAR CYQF 032000Z 17010G15KT 15SM FEW024 BKN090 BKN210 09/03 A3028 RMK CU2AC3CI1 SLP285=

CYQF;2006-10-03 21:00;METAR CYQF 032100Z 18010G15KT 15SM SCT024 OVC090 09/03 A3027 RMK CU4AC4 SLP286=

CYQF;2006-10-03 22:00;METAR CYQF 032200Z 16011KT 15SM BKN030 OVC090 09/03 A3027 RMK SC6AC2 SLP285=

CYQF;2006-10-03 23:00;METAR CYQF 032300Z 16012KT 15SM BKN020 OVC080 08/03 A3027 RMK SC6AC2 SLP286=

CYQF;2006-10-04 00:00;METAR CYQF 040000Z 16012KT 15SM BKN020 OVC080 08/03 A3026 RMK SC6AC2 SLP281=

CYQF;2006-10-04 01:00;METAR CYQF 040100Z 17008KT 15SM BKN025 OVC080 07/04 A3026 RMK SC6AC2 SLP281=

CYQF;2006-10-04 02:00;METAR CYQF 040200Z 17007KT 15SM OVC030 07/04 A3028 RMK SC8 SLP285=

CYQF;2006-10-04 03:00;METAR CYQF 040300Z 17007KT 15SM OVC030 06/04 A3028 RMK SC8 SLP283=

CYQF;2006-10-04 04:00;METAR CYQF 040400Z 15007KT 15SM OVC030 06/04 A3028 RMK SC8 SLP283=

CYQF;2006-10-04 05:00;METAR CYQF 040500Z 15007KT 15SM OVC030 06/04 A3028 RMK SC8 SLP283=

CYQF;2006-10-04 06:00;METAR CYQF 040600Z 17005KT 15SM OVC030 06/04 A3028 RMK SC8 SLP279=

CYQF;2006-10-04 07:00;METAR CYQF 040700Z 18005KT 15SM OVC025 06/04 A3027 RMK SC8 SLP277=

CYQF;2006-10-04 08:00;METAR CYQF 040800Z 15005KT 15SM OVC025 06/04 A3026 RMK SC8 SLP273=

CYQF;2006-10-04 09:00;METAR CYQF 040900Z 16006KT 15SM OVC025 06/04 A3025 RMK SC8 SLP270=

CYQF;2006-10-04 10:00;METAR CYQF 041000Z 16004KT 15SM OVC025 06/04 A3024 RMK SC8 SLP267=

CYQF;2006-10-04 11:00;METAR CYQF 041100Z 00000KT 15SM BKN025 05/04 A3025 RMK SC7 SLP268=

CYQF;2006-10-04 12:00;METAR CYQF 041200Z 00000KT 15SM BKN025 04/03 A3025 RMK SC6 SLP271=

CYQF;2006-10-04 13:00;METAR CYQF 041300Z 00000KT 15SM SCT025 03/02 A3024 RMK SC3 SLP270=

CYQF;2006-10-04 13:42;SPECI CYQF 041342Z 00000KT 1 1/2SM BR FEW025 FEW100 RMK SC2AC1 VIS N 1/4 VIS SE 12=

CYQF;2006-10-04 14:00;METAR CYQF 041400Z 00000KT 1/2SM FG SCT100 02/02 A3025 RMK FG2AC1 SLP272=

CYQF;2006-10-04 14:30;SPECI CYQF 041430Z 26005KT 1/4SM FG SKC RMK FG5=

CYQF;2006-10-04 15:00;METAR CYQF 041500Z 00000KT 1/8SM FG SKC 01/01 A3026 RMK FG6 SLP281=

CYQF;2006-10-04 16:00;METAR CYQF 041600Z 22002KT 1/8SM FG VV003 03/03 A3026 RMK FG8 SLP282=

CYQF;2006-10-04 17:00;METAR CYQF 041700Z 21003KT 1/2SM FG SKC 03/03 A3026 RMK FG7 SLP282=

CYQF;2006-10-04 17:15;SPECI CYQF 041715Z 00000KT 1SM BR BKN003 RMK FG6ST2=

CYQF;2006-10-04 17:44;SPECI CYQF 041744Z 00000KT 6SM BR SCT005 RMK SF4=

CYQF;2006-10-04 18:00;METAR CYQF 041800Z 00000KT 8SM FEW005 06/05 A3026 RMK SF2 BR SLP277=

CYQF;2006-10-04 19:00;METAR CYQF 041900Z 00000KT 12SM SKC 09/05 A3024 RMK SLP271=

CYQF;2006-10-04 20:00;METAR CYQF 042000Z 00000KT 15SM SKC 11/04 A3021 RMK SLP262=

CYQF;2006-10-04 21:00;METAR CYQF 042100Z 00000KT 15SM SKC 14/02 A3018 RMK SLP240=

CYQF;2006-10-04 22:00;METAR CYQF 042200Z 20004KT 15SM SKC 14/M01 A3016 RMK SLP234=

CYQF;2006-10-04 23:00;METAR CYQF 042300Z 18003KT 15SM SKC 15/01 A3013 RMK SLP225=

CYQF;2006-10-05 01:00;METAR CYQF 050100Z 15005KT 15SM FEW120 11/02 A3010 RMK AC1 SLP214=

CYQF;2006-10-05 02:00;METAR CYQF 050200Z 15005KT 15SM FEW250 08/02 A3009 RMK CI1 SLP210=

CYQF;2006-10-05 03:00;METAR CYQF 050300Z 17005KT 15SM SKC 07/02 A3008 RMK SLP217=

CYQF;2006-10-05 04:00;METAR CYQF 050400Z 18005KT 15SM SKC 05/02 A3005 RMK SLP210=

CYQF;2006-10-05 05:00;METAR CYQF 050500Z 18004KT 15SM SKC 06/04 A3005 RMK SLP207=

CYQF;2006-10-05 06:00;METAR CYQF 050600Z 18003KT 15SM SKC 05/04 A3004 RMK SLP199=

CYQF;2006-10-05 07:00;METAR CYQF 050700Z 00000KT 15SM SKC 05/04 A3001 RMK SLP190=

CYQF;2006-10-05 08:00;METAR CYQF 050800Z 15004KT 15SM SKC 03/02 A2998 RMK SLP181=

CYQF;2006-10-05 09:00;METAR CYQF 050900Z 18006KT 15SM SKC 02/02 A2995 RMK SLP164=

CYQF;2006-10-05 10:00;METAR CYQF 051000Z 18007KT 15SM SKC 04/03 A2992 RMK SLP156=

CYQF;2006-10-05 11:00;METAR CYQF 051100Z 22003KT 15SM SKC 01/01 A2990 RMK SLP148=

CYQF;2006-10-05 12:00;METAR CYQF 051200Z 18007KT 15SM SKC 02/01 A2989 RMK SLP144=

CYQF;2006-10-05 13:00;METAR CYQF 051300Z 19005KT 15SM SKC 01/00 A2987 RMK SLP139=

CYQF;2006-10-05 14:00;METAR CYQF 051400Z 19006KT 15SM BCFG SKC 00/M01 A2987 RMK SLP139=

CYQF;2006-10-05 15:00;METAR CYQF 051500Z 18004KT 10SM SKC 01/00 A2987 RMK BR SLP145=

CYQF;2006-10-05 16:00;METAR CYQF 051600Z 22004KT 12SM FEW210 05/03 A2987 RMK CI1 SLP145=

CYQF;2006-10-05 17:00;METAR CYQF 051700Z 24002KT 15SM FEW210 08/04 A2986 RMK CI1 SLP143=

CYQF;2006-10-05 18:00;METAR CYQF 051800Z 24002KT 15SM FEW210 11/04 A2983 RMK CI1 SLP122=

CYQF;2006-10-05 19:00;METAR CYQF 051900Z 00000KT 15SM FEW210 14/05 A2980 RMK CI1 SLP114=

CYQF;2006-10-05 20:00;METAR CYQF 052000Z 00000KT 15SM FEW210 17/03 A2978 RMK CI1 SLP107=

CYQF;2006-10-05 21:00;METAR CYQF 052100Z 03003KT 15SM FEW210 18/00 A2976 RMK CI1 SLP095=

CYQF;2006-10-05 22:00;METAR CYQF 052200Z 04006KT 15SM FEW080 FEW210 18/M01 A2975 RMK AC1CI1 SLP091=

CYQF;2006-10-05 23:00;METAR CYQF 052300Z 12005KT 15SM FEW080 FEW210 18/M00 A2974 RMK AC1CI1 SLP087=

CYQF;2006-10-06 00:00;METAR CYQF 060000Z 09005KT 15SM FEW100 FEW210 17/M00 A2973 RMK AC1CI1 SLP085=

CYQF;2006-10-06 01:00;METAR CYQF 060100Z 07004KT 15SM FEW060 BKN080 15/01 A2972 RMK SC2AC3 SLP083=

CYQF;2006-10-06 02:00;METAR CYQF 060200Z 00000KT 15SM BKN080 12/03 A2974 RMK AC6 SLP088=

CYQF;2006-10-06 03:00;METAR CYQF 060300Z 00000KT 15SM FEW080 10/02 A2975 RMK AC2 SLP099=

CYQF;2006-10-06 04:00;METAR CYQF 060400Z 00000KT 15SM SCT070 10/02 A2976 RMK AC4 SLP102=

CYQF;2006-10-06 05:00;METAR CYQF 060500Z 00000KT 15SM FEW070 08/02 A2976 RMK AC2 SLP103=

CYQF;2006-10-06 06:00;METAR CYQF 060600Z 01003KT 15SM FEW080 06/01 A2977 RMK AC2 SLP101=

CYQF;2006-10-06 07:00;METAR CYQF 060700Z 02008KT 15SM FEW080 SCT260 07/02 A2978 RMK AC2CI1 SLP104=

CYQF;2006-10-06 08:00;METAR CYQF 060800Z 34004KT 15SM FEW080 SCT260 05/01 A2983 RMK AC2CI0 SLP118=

CYQF;2006-10-06 09:00;METAR CYQF 060900Z 01006KT 15SM FEW090 FEW260 05/M01 A2985 RMK AC2CI0 SLP120=

CYQF;2006-10-06 10:00;METAR CYQF 061000Z 33005KT 15SM SCT090 BKN260 03/M01 A2986 RMK AC3CI0 SLP125=

CYQF;2006-10-06 11:00;METAR CYQF 061100Z 32005KT 15SM BKN090 04/01 A2986 RMK AC6 SLP126=

CYQF;2006-10-06 12:00;METAR CYQF 061200Z 33004KT 15SM BKN090 05/01 A2987 RMK AC6 SLP129=

CYQF;2006-10-06 13:00;METAR CYQF 061300Z 30005KT 15SM BKN090 04/01 A2988 RMK AC6 SLP131=

CYQF;2006-10-06 14:00;METAR CYQF 061400Z 31004KT 15SM BKN090 BKN140 BKN250 03/00 A2989 RMK AC3AC2CI2 SLP134=

CYQF;2006-10-06 15:00;METAR CYQF 061500Z 33004KT 15SM BKN090 BKN140 BKN210 04/02 A2990 RMK AC4AC1CI2 VIRGA E-S SLP148=

CYQF;2006-10-06 16:00;METAR CYQF 061600Z 33004KT 15SM SCT090 BKN140 BKN210 07/03 A2989 RMK AC2AC2CI2 SLP147=

CYQF;2006-10-06 17:00;METAR CYQF 061700Z 36008KT 15SM BKN090 BKN210 09/02 A2989 RMK AC6CI2 SLP146=

CYQF;2006-10-06 18:00;METAR CYQF 061800Z 03005KT 15SM BKN090 OVC210 09/03 A2989 RMK AC6CI2 SLP145=

CYQF;2006-10-06 19:00;METAR CYQF 061900Z 33005KT 15SM BKN060 BKN090 OVC210 10/04 A2990 RMK SC6AC1CI1 VIRGA ALQDS SLP148=

CYQF;2006-10-06 20:26;SPECI CYQF 062026Z 01010KT 15SM -SHRA BKN050 BKN100 OVC210 RMK SC6AC2CI1=

CYQF;2006-10-06 21:00;METAR CYQF 062100Z CCA 03008KT 15SM -SHRA BKN050 BKN100 BKN210 09/04 A2988 RMK SC5AC1CI2 SLP141=

CYQF;2006-10-06 22:00;METAR CYQF 062200Z 03007KT 15SM FEW025 BKN060 BKN100 BKN210 10/04 A2988 RMK SC1SC5AC2CI1 LWR SC TR DSNT NW SLP142=

CYQF;2006-10-06 23:00;METAR CYQF 062300Z 02007KT 15SM BKN060 BKN120 BKN210 09/05 A2990 RMK SC6AC1CI1 SLP147=

CYQF;2006-10-07 01:35;SPECI CYQF 070135Z 00000KT 15SM -SHRA FEW015 SCT040 OVC090 RMK SC2SC2AC5=

CYQF;2006-10-07 02:00;METAR CYQF 070200Z 03005KT 15SM -SHRA SCT040 OVC090 08/06 A2994 RMK SC3AC5 SLP162=

CYQF;2006-10-07 03:00;METAR CYQF 070300Z 01005KT 15SM -SHRA FEW011 SCT040 OVC080 07/06 A2996 RMK SF2SC2AC4 SLP173=

CYQF;2006-10-07 03:43;SPECI CYQF 070343Z 36005KT 15SM FEW011 SCT040 BKN080 RMK SF1SC3AC3=

CYQF;2006-10-07 04:00;METAR CYQF 070400Z 01003KT 15SM FEW040 BKN080 07/06 A2997 RMK SC2AC3 SLP177=

CYQF;2006-10-07 05:00;METAR CYQF 070500Z 34008KT 15SM FEW040 BKN080 06/05 A2999 RMK SC2AC3 SLP183=

CYQF;2006-10-07 05:39;SPECI CYQF 070539Z 33010KT 10SM -RA SCT040 BKN080 RMK SC4AC2=

CYQF;2006-10-07 06:00;METAR CYQF 070600Z 33014KT 10SM -RA BKN030 OVC080 05/03 A3001 RMK SC6AC2 SLP186=

CYQF;2006-10-07 06:45;SPECI CYQF 070645Z 30010KT 15SM BKN030 OVC080 RMK SC6AC2=

CYQF;2006-10-07 07:00;METAR CYQF 070700Z 29010KT 15SM BKN030 OVC060 05/04 A3002 RMK SC6SC2 SLP190=

CYQF;2006-10-07 08:00;METAR CYQF 070800Z 30015KT 15SM OVC016 04/03 A3003 RMK SC8 SLP194=

CYQF;2006-10-07 09:00;METAR CYQF 070900Z 31012KT 10SM -RA OVC015 04/03 A3005 RMK SC8 SLP200=

CYQF;2006-10-07 10:00;METAR CYQF 071000Z 30012KT 15SM -RA OVC015 04/03 A3005 RMK SC8 SLP203=

CYQF;2006-10-07 10:35;SPECI CYQF 071035Z 30013KT 15SM BKN015 OVC040 RMK SC6SC2=

CYQF;2006-10-07 11:00;METAR CYQF 071100Z 31010KT 15SM BKN015 OVC050 03/01 A3006 RMK SC6SC2 SLP205=

CYQF;2006-10-07 12:00;METAR CYQF 071200Z 31012G17KT 15SM SCT020 BKN050 03/01 A3007 RMK SC3SC2 SLP210=

CYQF;2006-10-07 13:00;METAR CYQF 071300Z 31010G15KT 15SM FEW020 SCT050 03/00 A3008 RMK SC2SC2 SLP215=

CYQF;2006-10-07 14:00;METAR CYQF 071400Z 31010G15KT 15SM FEW020 FEW050 02/M01 A3010 RMK SC1SC2 LWR SC TR SLP219=

CYQF;2006-10-07 15:00;METAR CYQF 071500Z 30010G17KT 15SM FEW020 FEW100 03/M00 A3012 RMK SC1AC1 SLP229=

CYQF;2006-10-07 16:00;METAR CYQF 071600Z 30015G21KT 15SM FEW020 FEW100 04/M01 A3012 RMK SC1AC1 SLP231=

CYQF;2006-10-07 17:00;METAR CYQF 071700Z CCA 31015G23KT 15SM SCT025 SCT100 06/M00 A3013 RMK SC3AC1 SLP233=

CYQF;2006-10-07 18:00;METAR CYQF 071800Z 33015G24KT 15SM BKN025 05/M01 A3014 RMK SC6 SLP237=

CYQF;2006-10-07 19:00;METAR CYQF 071900Z 32015G26KT 15SM BKN025 05/M00 A3015 RMK SC6 SLP238=

CYQF;2006-10-07 20:00;METAR CYQF 072000Z 33015G24KT 15SM BKN030 06/M01 A3016 RMK CU7 PK GUST PST HR 28KTS SLP242=

CYQF;2006-10-07 21:00;METAR CYQF 072100Z 34012G20KT 15SM BKN030 07/M01 A3016 RMK CU5 SLP244=

CYQF;2006-10-07 22:00;METAR CYQF 072200Z 33010G15KT 15SM BKN040 08/M02 A3017 RMK CU5 SHS W SLP245=

CYQF;2006-10-07 23:00;METAR CYQF 072300Z 33010G17KT 15SM BKN050 08/M03 A3017 RMK CU5 SHS NW SLP247=

CYQF;2006-10-08 00:00;METAR CYQF 080000Z 33010G15KT 15SM SCT050 07/M03 A3020 RMK CU3 SLP256=

CYQF;2006-10-08 01:00;METAR CYQF 080100Z 33008KT 15SM FEW050 05/M02 A3020 RMK SC2 SLP258=

CYQF;2006-10-08 02:00;METAR CYQF 080200Z 28005KT 15SM FEW050 02/M03 A3022 RMK SC1 SLP263=

CYQF;2006-10-08 03:00;METAR CYQF 080300Z 28004KT 15SM FEW060 01/M03 A3023 RMK SC1 SLP276=

CYQF;2006-10-08 04:00;METAR CYQF 080400Z 00000KT 15SM SKC M01/M04 A3024 RMK SLP278=

CYQF;2006-10-08 05:00;METAR CYQF 080500Z 20004KT 15SM SKC M03/M05 A3025 RMK SLP280=

CYQF;2006-10-08 06:00;METAR CYQF 080600Z 16005KT 15SM SKC M03/M05 A3025 RMK SLP284=

CYQF;2006-10-08 07:00;METAR CYQF 080700Z 20006KT 15SM SKC M05/M07 A3026 RMK SLP287=

CYQF;2006-10-08 08:00;METAR CYQF 080800Z 17004KT 15SM SKC M04/M06 A3027 RMK SLP291=

CYQF;2006-10-08 09:00;METAR CYQF 080900Z 17004KT 15SM SKC M04/M06 A3029 RMK SLP296=

CYQF;2006-10-08 10:00;METAR CYQF 081000Z 22007KT 15SM SKC M06/M07 A3030 RMK SLP299=

CYQF;2006-10-08 11:00;METAR CYQF 081100Z 20004KT 15SM SKC M06/M08 A3030 RMK SLP300=

CYQF;2006-10-08 12:00;METAR CYQF 081200Z 19003KT 15SM SKC M06/M08 A3031 RMK SLP306=

CYQF;2006-10-08 13:00;METAR CYQF 081300Z 21003KT 15SM SKC M07/M08 A3031 RMK SLP307=

CYQF;2006-10-08 14:00;METAR CYQF 081400Z 00000KT 15SM FEW180 M06/M07 A3033 RMK AC1 SLP311=

CYQF;2006-10-08 15:00;METAR CYQF 081500Z 00000KT 15SM FEW180 M04/M05 A3035 RMK AC1 SLP324=

CYQF;2006-10-08 16:00;METAR CYQF 081600Z 00000KT 15SM FEW210 00/M02 A3036 RMK CI1 SLP329=

CYQF;2006-10-08 17:00;METAR CYQF 081700Z 00000KT 15SM FEW100 FEW250 04/M01 A3038 RMK AC1CI1 SLP334=

CYQF;2006-10-08 18:00;METAR CYQF 081800Z 00000KT 15SM FEW100 SCT250 06/M01 A3038 RMK AC1CI1 SLP330=

CYQF;2006-10-08 19:00;METAR CYQF 081900Z 07004KT 15SM FEW040 FEW120 08/M02 A3039 RMK CU1AC1 SLP332=

CYQF;2006-10-08 20:00;METAR CYQF 082000Z 00000KT 15SM SCT040 SCT120 10/M01 A3039 RMK CU3AC0 SLP332=

CYQF;2006-10-08 21:00;METAR CYQF 082100Z 34003KT 15SM BKN050 09/M05 A3039 RMK CU5 SLP328=

CYQF;2006-10-08 22:00;METAR CYQF 082200Z 36005KT 15SM SCT050 09/M05 A3039 RMK CU4 SLP329=

CYQF;2006-10-08 23:00;METAR CYQF 082300Z 36011KT 15SM SCT050 09/M04 A3039 RMK SC3 SLP329=

CYQF;2006-10-09 00:00;METAR CYQF 090000Z 36004KT 15SM FEW060 08/M04 A3040 RMK SC2 SLP337=

CYQF;2006-10-09 01:00;METAR CYQF 090100Z 02004KT 15SM FEW060 07/M05 A3041 RMK SC1 SLP339=

CYQF;2006-10-09 02:00;METAR CYQF 090200Z 09002KT 15SM SKC 04/M05 A3043 RMK SLP346=

CYQF;2006-10-09 03:00;METAR CYQF 090300Z 00000KT 15SM SKC M00/M05 A3045 RMK SLP360=

CYQF;2006-10-09 04:00;METAR CYQF 090400Z 19004KT 15SM SKC M01/M06 A3046 RMK SLP365=

CYQF;2006-10-09 05:00;METAR CYQF 090500Z 20004KT 15SM SKC M02/M06 A3047 RMK SLP366=

CYQF;2006-10-09 06:00;METAR CYQF 090600Z 23005KT 15SM SKC M04/M07 A3047 RMK SLP362=

CYQF;2006-10-09 07:00;METAR CYQF 090700Z 18002KT 15SM SKC M04/M07 A3047 RMK SLP362=

CYQF;2006-10-09 08:00;METAR CYQF 090800Z 19003KT 15SM SKC M04/M06 A3047 RMK SLP363=

CYQF;2006-10-09 09:00;METAR CYQF 090900Z 18003KT 15SM SKC M05/M07 A3046 RMK SLP355=

CYQF;2006-10-09 10:00;METAR CYQF 091000Z 20005KT 15SM SKC M05/M07 A3045 RMK SLP351=

CYQF;2006-10-09 11:00;METAR CYQF 091100Z 19005KT 15SM SKC M03/M06 A3044 RMK SLP347=

CYQF;2006-10-09 12:00;METAR CYQF 091200Z 20004KT 15SM SKC M04/M07 A3043 RMK SLP343=

CYQF;2006-10-09 13:00;METAR CYQF 091300Z 21004KT 15SM SKC M05/M07 A3042 RMK SLP341=

CYQF;2006-10-09 14:00;METAR CYQF 091400Z 19005KT 15SM FEW250 M05/M07 A3041 RMK CI1 SLP338=

CYQF;2006-10-09 15:00;METAR CYQF 091500Z 19005KT 15SM SCT250 M03/M05 A3039 RMK CI0 SLP338=

CYQF;2006-10-09 16:00;METAR CYQF 091600Z 19005KT 15SM BKN250 01/M02 A3038 RMK CI0 SLP335=

CYQF;2006-10-09 17:00;METAR CYQF 091700Z 19007KT 15SM BKN250 05/M02 A3037 RMK CI0 SLP331=

CYQF;2006-10-09 18:00;METAR CYQF 091800Z 20008KT 15SM BKN250 08/M03 A3034 RMK CI1 SLP313=

CYQF;2006-10-09 19:00;METAR CYQF 091900Z 20008KT 15SM BKN250 11/M04 A3030 RMK CI1 SLP302=

CYQF;2006-10-09 20:00;METAR CYQF 092000Z 21010KT 15SM FEW120 BKN250 12/M05 A3028 RMK AC1CI2 SLP295=

CYQF;2006-10-09 21:00;METAR CYQF 092100Z 25008KT 15SM FEW120 BKN250 14/M06 A3024 RMK AC1CI2 SLP273=

CYQF;2006-10-09 22:00;METAR CYQF 092200Z 29006KT 15SM FEW140 BKN250 14/M07 A3021 RMK AC2CI2 SLP264=

CYQF;2006-10-09 23:00;METAR CYQF 092300Z 24005KT 15SM FEW140 BKN250 14/M06 A3019 RMK AC2CI2 SLP257=

CYQF;2006-10-10 00:00;METAR CYQF 100000Z 19002KT 15SM FEW140 BKN250 12/M03 A3016 RMK AC2CI3 SLP246=

CYQF;2006-10-10 01:00;METAR CYQF 100100Z 20003KT 15SM FEW140 BKN250 09/M03 A3015 RMK AC2CI3 SLP242=

CYQF;2006-10-10 02:00;METAR CYQF 100200Z 18002KT 15SM SCT140 BKN250 07/M03 A3013 RMK AC3CI2 SLP237=

CYQF;2006-10-10 03:00;METAR CYQF 100300Z 22003KT 15SM FEW140 BKN250 06/M02 A3014 RMK AC2CI4 SLP243=

CYQF;2006-10-10 04:00;METAR CYQF 100400Z 23004KT 15SM FEW120 BKN210 06/M04 A3012 RMK AC1CI6 SLP238=

CYQF;2006-10-10 05:00;METAR CYQF 100500Z 03005KT 15SM OVC120 06/M03 A3013 RMK AC8 SLP242=

CYQF;2006-10-10 06:00;METAR CYQF 100600Z 30003KT 15SM OVC120 05/M03 A3014 RMK AC8 SLP232=

CYQF;2006-10-10 07:00;METAR CYQF 100700Z 32005KT 15SM OVC210 05/M02 A3013 RMK CS7 HALO SLP230=

CYQF;2006-10-10 08:00;METAR CYQF 100800Z 30005KT 15SM SCT120 OVC210 05/M03 A3012 RMK AC4CS4 SLP228=

CYQF;2006-10-10 09:00;METAR CYQF 100900Z 30010KT 15SM BKN120 OVC210 09/M02 A3012 RMK AC5CS3 SLP215=

CYQF;2006-10-10 10:00;METAR CYQF 101000Z 33015G25KT 15SM BKN120 OVC210 10/M00 A3012 RMK AC6CS2 SLP217=

CYQF;2006-10-10 11:00;METAR CYQF 101100Z 32012KT 15SM BKN080 OVC120 07/02 A3011 RMK AC6AC2 SLP212=

CYQF;2006-10-10 12:00;METAR CYQF 101200Z 31007KT 15SM BKN080 OVC120 07/03 A3009 RMK AC5AC3 SLP209=

CYQF;2006-10-10 13:00;METAR CYQF 101300Z 30005KT 15SM BKN080 OVC120 07/03 A3008 RMK AC6AC2 SLP205=

CYQF;2006-10-10 14:00;METAR CYQF 101400Z 28004KT 15SM BKN080 OVC120 06/03 A3007 RMK AC6AC2 SLP203=

CYQF;2006-10-10 15:00;METAR CYQF 101500Z 30009KT 15SM SCT080 OVC100 07/03 A3007 RMK AC3AS5 SLP208=

CYQF;2006-10-10 16:00;METAR CYQF 101600Z 30005KT 15SM FEW050 BKN080 OVC100 08/04 A3007 RMK SC2AC3AS3 SLP208=

CYQF;2006-10-10 17:00;METAR CYQF 101700Z 35010G15KT 15SM BKN050 BKN080 OVC100 08/02 A3007 RMK SC5AC2AS2 SLP210=

CYQF;2006-10-10 17:26;SPECI CYQF 101726Z 35010G15KT 12SM -RA BKN050 BKN080 OVC100 RMK SC5AC2AS2=

CYQF;2006-10-10 18:00;METAR CYQF 101800Z 02008KT 10SM -RA BKN050 OVC100 07/04 A3008 RMK SC6AS2 SLP215=

CYQF;2006-10-10 18:24;SPECI CYQF 101824Z 02010G15KT 8SM -RA BKN013 OVC050 RMK SC6SC2=

CYQF;2006-10-10 19:00;METAR CYQF 101900Z 36010KT 8SM -RA OVC008 06/04 A3009 RMK SC8 CIG RAG SLP216=

CYQF;2006-10-10 20:00;METAR CYQF 102000Z CCA 36010G15KT 3SM -RA BR OVC008 05/04 A3009 RMK SC8 CIG RAG SLP217=

CYQF;2006-10-10 21:00;METAR CYQF 102100Z 34010KT 8SM -RA BKN008 OVC015 05/04 A3007 RMK SF5SC3 SLP209=

CYQF;2006-10-10 22:00;METAR CYQF 102200Z 34012KT 8SM -RA BKN008 OVC015 05/04 A3008 RMK SC6SC2 SLP211=

CYQF;2006-10-10 22:27;SPECI CYQF 102227Z 03010KT 8SM -RA BKN006 OVC010 RMK SC7SC1 VIS LWR N=

CYQF;2006-10-10 23:45;SPECI CYQF 102345Z 02005KT 8SM BKN007 OVC012 RMK SC6SC2=

CYQF;2006-10-11 00:00;METAR CYQF 110000Z 02005KT 8SM BKN007 OVC012 03/02 A3011 RMK SC6SC2 SLP225=

CYQF;2006-10-11 01:00;METAR CYQF 110100Z 03005KT 10SM BKN008 OVC015 03/02 A3012 RMK SC6SC2 SLP229=

CYQF;2006-10-11 02:00;METAR CYQF 110200Z 03005KT 10SM OVC008 02/01 A3013 RMK SC8 SLP232=

CYQF;2006-10-11 03:00;METAR CYQF 110300Z 36005KT 10SM OVC008 02/01 A3015 RMK SC8 SLP243=

CYQF;2006-10-11 03:50;SPECI CYQF 110350Z 36005KT 8SM -SN OVC005 RMK SC8=

CYQF;2006-10-11 04:00;METAR CYQF 110400Z 36005KT 8SM -SN BKN005 OVC011 02/01 A3017 RMK SC6SC2 SLP247=

CYQF;2006-10-11 05:00;METAR CYQF 110500Z 01005KT 5SM -SN BR OVC006 02/01 A3016 RMK SC8 SLP246=

CYQF;2006-10-11 06:00;METAR CYQF 110600Z 04006KT 5SM -SN OVC006 01/01 A3017 RMK ST8 SLP250=

CYQF;2006-10-11 06:41;SPECI CYQF 110641Z 05005KT 9SM -SN FEW006 OVC050 RMK ST2SC6=

CYQF;2006-10-11 07:00;METAR CYQF 110700Z 04005KT 10SM -SN FEW010 OVC050 01/00 A3016 RMK ST2SC6 SLP246=

CYQF;2006-10-11 07:32;SPECI CYQF 110732Z 04005KT 3SM -SN BR FEW003 BKN006 OVC050 RMK SF2ST5SC2=

CYQF;2006-10-11 08:00;METAR CYQF 110800Z 04005KT 10SM -SN OVC006 00/00 A3015 RMK ST8 SLP244=

CYQF;2006-10-11 09:00;METAR CYQF 110900Z 08007KT 5SM -FZDZ SCT003 OVC006 M00/M01 A3015 RMK SF4SC4 SLP247=

CYQF;2006-10-11 09:30;SPECI CYQF 110930Z 09005KT 3SM -FZDZ BR OVC004 RMK ST8=

CYQF;2006-10-11 10:00;METAR CYQF 111000Z 11007KT 3SM -FZDZ BR OVC004 M01/M02 A3015 RMK ST8 SLP245=

CYQF;2006-10-11 10:41;SPECI CYQF 111041Z 12003KT 6SM -FZDZ OVC006 RMK ST8=

CYQF;2006-10-11 11:00;METAR CYQF 111100Z 15005KT 5SM -FZDZ BR OVC006 M01/M02 A3013 RMK ST8 SLP241=

CYQF;2006-10-11 11:43;SPECI CYQF 111143Z 14004KT 6SM BR OVC004 REFZDZ RMK ST8=

CYQF;2006-10-11 12:00;METAR CYQF 111200Z 14005KT 6SM BR OVC004 M01/M02 A3013 REFZDZ RMK ST8 SLP241=

CYQF;2006-10-11 13:00;METAR CYQF 111300Z 14003KT 10SM OVC004 M01/M02 A3011 RMK ST8 SLP236=

CYQF;2006-10-11 14:00;METAR CYQF 111400Z 13003KT 4SM BR OVC004 M01/M02 A3011 RMK ST8 SLP237=

CYQF;2006-10-11 14:29;SPECI CYQF 111429Z 11003KT 2SM BR OVC004 RMK ST8=

CYQF;2006-10-11 14:43;SPECI CYQF 111443Z 11003KT 1SM BR OVC003 RMK ST8=

CYQF;2006-10-11 15:00;METAR CYQF 111500Z 14002KT 1/2SM FZFG OVC003 M01/M01 A3011 RMK FG3ST5 SLP237=

CYQF;2006-10-11 15:26;SPECI CYQF 111526Z 13002KT 1/2SM -SN FZFG OVC003 RMK FG3ST5=

CYQF;2006-10-11 16:00;METAR CYQF 111600Z 00000KT 1SM -SN BR OVC003 M01/M01 A3012 RMK FG2ST6 SLP239=

CYQF;2006-10-11 16:26;SPECI CYQF 111626Z 00000KT 1SM BR OVC003 RMK ST8=

CYQF;2006-10-11 17:00;METAR CYQF 111700Z 00000KT 2SM BR OVC002 M01/M01 A3012 RMK ST8 SLP241=

CYQF;2006-10-11 17:06;SPECI CYQF 111706Z 00000KT 2SM -SN BR OVC002 RMK ST8=

CYQF;2006-10-11 18:00;METAR CYQF 111800Z 00000KT 2SM -SN BR OVC002 00/M00 A3014 RMK SF8 SLP248=

CYQF;2006-10-11 18:35;SPECI CYQF 111835Z 00000KT 4SM BR OVC003 RMK SF8=

CYQF;2006-10-11 19:00;METAR CYQF 111900Z 09003KT 5SM BR OVC005 00/M00 A3015 RMK SF8 SLP251=

CYQF;2006-10-11 20:00;METAR CYQF 112000Z 08006KT 6SM BR OVC006 01/00 A3015 RMK SF8 SLP249=

CYQF;2006-10-11 21:00;METAR CYQF 112100Z 07003KT 8SM OVC007 02/00 A3014 RMK SF8 BR SLP245=

CYQF;2006-10-11 22:00;METAR CYQF 112200Z 00000KT 8SM OVC011 02/M00 A3013 RMK SC8 BR SLP243=

CYQF;2006-10-11 23:00;METAR CYQF 112300Z 00000KT 10SM OVC011 02/M01 A3013 RMK SC8 SLP243=

CYQF;2006-10-12 00:00;METAR CYQF 120000Z 13005KT 10SM BKN012 OVC030 02/M00 A3012 RMK SC6SC2 SLP239=

CYQF;2006-10-12 01:00;METAR CYQF 120100Z 13002KT 10SM OVC012 02/00 A3010 RMK SC8 SLP234=

CYQF;2006-10-12 02:00;METAR CYQF 120200Z 15004KT 10SM OVC011 02/00 A3008 RMK SC8 SLP228=

CYQF;2006-10-12 03:00;METAR CYQF 120300Z 17007KT 10SM OVC011 02/01 A3005 RMK SC8 SLP217=

CYQF;2006-10-12 04:00;METAR CYQF 120400Z 18007KT 10SM OVC010 02/01 A3003 RMK SC8 SLP209=

CYQF;2006-10-12 04:25;SPECI CYQF 120425Z 18010KT 6SM BR OVC006 RMK SC8=

CYQF;2006-10-12 05:00;METAR CYQF 120500Z 17012KT 5SM BR OVC004 02/01 A3000 RMK ST8 SLP202=

CYQF;2006-10-12 06:00;METAR CYQF 120600Z 18009KT 2SM BR OVC002 02/02 A2998 RMK ST8 SLP191=

CYQF;2006-10-12 06:31;SPECI CYQF 120631Z 18007KT 1SM BR OVC001 RMK ST8=

CYQF;2006-10-12 07:00;METAR CYQF 120700Z 18007KT 1 1/2SM BR OVC002 02/02 A2996 RMK ST8 SLP185=

CYQF;2006-10-12 08:00;METAR CYQF 120800Z 14004KT 1 1/2SM BR OVC002 02/02 A2996 RMK ST8 SLP183=

CYQF;2006-10-12 09:00;METAR CYQF 120900Z 14005KT 1SM BR OVC002 02/02 A2996 RMK ST8 SLP182=

CYQF;2006-10-12 10:00;METAR CYQF 121000Z 17003KT 3/4SM BR OVC002 02/02 A2996 RMK ST8 SLP181=

CYQF;2006-10-12 10:23;SPECI CYQF 121023Z 17003KT 1/2SM FG OVC002 RMK FG2ST6=

CYQF;2006-10-12 11:00;METAR CYQF 121100Z CCA 15005KT 1/2SM FG VV004 02/02 A2995 RMK FG8 SLP180=

CYQF;2006-10-12 11:33;SPECI CYQF 121133Z 18005KT 3/8SM FG VV003 RMK FG8 VIS VRB 1/4-1/2=

CYQF;2006-10-12 13:00;METAR CYQF 121300Z 21003KT 1/2SM FG VV004 02/02 A2995 RMK FG8 SLP179=

CYQF;2006-10-12 14:00;METAR CYQF 121400Z 21003KT 1/4SM FG VV003 02/02 A2996 RMK FG8 SLP180=

CYQF;2006-10-12 15:00;METAR CYQF 121500Z 19004KT 1/2SM FG VV004 02/02 A2997 RMK FG8 SLP184=

CYQF;2006-10-12 16:00;METAR CYQF 121600Z 16005KT 1/2SM FG VV004 02/02 A2998 RMK FG8 SLP187=

CYQF;2006-10-12 16:29;SPECI CYQF 121629Z 16005KT 1SM -DZ BR OVC005 RMK FG4ST4=

CYQF;2006-10-12 17:00;METAR CYQF 121700Z 14006KT 2SM BR OVC004 03/03 A2999 RMK FG2ST6 SLP190=

CYQF;2006-10-12 18:00;METAR CYQF 121800Z 16008KT 3SM BR OVC004 03/03 A2999 RMK SF8 SLP190=

CYQF;2006-10-12 19:00;METAR CYQF 121900Z 17006KT 4SM BR OVC005 04/03 A3000 RMK SF8 SLP192=

CYQF;2006-10-12 20:00;METAR CYQF 122000Z 16004KT 6SM BR OVC008 05/03 A2999 RMK SF7 SLP190=

CYQF;2006-10-12 21:00;METAR CYQF 122100Z 14006KT 4SM BR OVC006 05/03 A2998 RMK SF8 SLP186=

CYQF;2006-10-12 21:35;SPECI CYQF 122135Z 11004KT 5SM BR OVC010 RMK SC8=

CYQF;2006-10-12 22:00;METAR CYQF 122200Z 14002KT 5SM BR OVC011 06/04 A2999 RMK SC7 SLP187=

CYQF;2006-10-12 23:00;METAR CYQF 122300Z 14010KT 5SM BR OVC011 05/04 A2998 RMK SC8 CIG LWR N SLP186=

CYQF;2006-10-12 23:29;SPECI CYQF 122329Z 14010KT 5SM BR BKN007 OVC070 RMK SC7AC1 VIS N 3=

CYQF;2006-10-12 23:48;SPECI CYQF 122348Z 12010KT 5SM BR BKN011 OVC070 RMK SC7AC1=

CYQF;2006-10-13 00:00;METAR CYQF 130000Z 12010KT 5SM BR BKN011 OVC070 04/03 A2999 RMK SC7AC1 SLP189=

CYQF;2006-10-13 00:12;SPECI CYQF 130012Z 12008KT 4SM BR OVC008 RMK ST8=

CYQF;2006-10-13 00:42;SPECI CYQF 130042Z 12008KT 2 1/2SM BR OVC005 RMK ST8=

CYQF;2006-10-13 01:00;METAR CYQF 130100Z 11006KT 2 1/2SM BR OVC005 04/03 A2999 RMK ST8 SLP189=

CYQF;2006-10-13 02:00;METAR CYQF 130200Z 14004KT 3SM BR OVC005 03/02 A3000 RMK ST8 SLP191=

CYQF;2006-10-13 03:00;METAR CYQF 130300Z 00000KT 5SM BR SCT005 OVC100 02/02 A3000 RMK SF4AC4 SLP196=

CYQF;2006-10-13 04:00;METAR CYQF 130400Z 12003KT 5SM BR SCT005 OVC100 02/02 A3000 RMK SF4AC4 SLP196=

CYQF;2006-10-13 05:00;METAR CYQF 130500Z 17003KT 10SM SCT005 BKN100 02/02 A3000 RMK SF3AC4 SLP194=

CYQF;2006-10-13 06:00;METAR CYQF 130600Z 15002KT 10SM FEW005 BKN100 02/02 A3000 RMK SF2AC6 SLP192=

CYQF;2006-10-13 07:00;METAR CYQF 130700Z 00000KT 10SM BKN100 03/02 A2998 RMK AC7 SLP188=

CYQF;2006-10-13 08:00;METAR CYQF 130800Z 00000KT 10SM BKN100 01/00 A2998 RMK AC6 SLP186=

CYQF;2006-10-13 09:00;METAR CYQF 130900Z 00000KT 10SM SCT100 BKN250 01/00 A2997 RMK AC4CI0 SLP183=

CYQF;2006-10-13 10:00;METAR CYQF 131000Z 00000KT 8SM FEW100 SCT250 M01/M02 A2996 RMK AC2CI0 SLP179=

CYQF;2006-10-13 11:00;METAR CYQF 131100Z 14003KT 3SM BR FEW100 SCT250 M00/M01 A2995 RMK AC2CI0 SLP178=

CYQF;2006-10-13 11:29;SPECI CYQF 131129Z 34003KT 3/8SM FZFG BKN100 RMK FG2AC5=

CYQF;2006-10-13 12:00;METAR CYQF 131200Z CCA 00000KT 1SM BR BKN100 01/01 A2996 RMK AC7 GLAZE ON INDICATOR SLP181=

CYQF;2006-10-13 12:19;SPECI CYQF 131219Z 03003KT 1 1/2SM BR BKN100 RMK AC7=

CYQF;2006-10-13 13:00;METAR CYQF 131300Z 05003KT 3SM BR FEW003 BKN100 M01/M01 A2997 RMK SF2AC5 SLP182=

CYQF;2006-10-13 14:00;METAR CYQF 131400Z 02002KT 2SM BR BKN004 OVC080 M01/M01 A2997 RMK SF6AC2 F BNK N SLP182=

CYQF;2006-10-13 15:00;METAR CYQF 131500Z 03004KT 3SM BR BKN004 OVC080 M00/M01 A2998 RMK SF5AC3 SLP191=

CYQF;2006-10-13 15:40;SPECI CYQF 131540Z 36004KT 3SM BR SCT004 OVC080 RMK SF3AC5=

CYQF;2006-10-13 16:00;METAR CYQF 131600Z 02004KT 3SM BR SCT004 OVC080 01/M00 A2998 RMK SF3AC5 SLP192=

CYQF;2006-10-13 16:28;SPECI CYQF 131628Z 02003KT 2SM BR BKN003 OVC080 01/01 RMK SF6AC2 PIREP CLD TOPS 3400 ASL=

CYQF;2006-10-13 17:00;METAR CYQF 131700Z 35004KT 3SM BR BKN004 OVC080 02/01 A3000 RMK SF6AC2 SLP197=

CYQF;2006-10-13 18:00;METAR CYQF 131800Z 03002KT 4SM BR BKN005 OVC080 03/02 A3000 RMK SC5AC3 SLP194=

CYQF;2006-10-13 18:49;SPECI CYQF 131849Z 01004KT 6SM BR SCT005 BKN090 RMK SC3AC3=

CYQF;2006-10-13 19:00;METAR CYQF 131900Z 01007KT 6SM BR SCT005 BKN090 04/03 A3000 RMK SC3AC3 SLP194=

CYQF;2006-10-13 20:00;METAR CYQF 132000Z 02004KT 6SM BR FEW006 BKN100 BKN250 05/03 A2999 RMK SC2AC2CI1 SLP190=

CYQF;2006-10-13 21:00;METAR CYQF 132100Z CCA 01007KT 8SM FEW008 SCT110 BKN250 06/03 A2998 RMK SC2AC2CI1 BR SLP186=

CYQF;2006-10-13 22:00;METAR CYQF 132200Z 35005KT 10SM FEW008 SCT110 BKN250 07/04 A2998 RMK SC2AC2CI2 BR SLP186=

CYQF;2006-10-13 23:00;METAR CYQF 132300Z 01004KT 10SM BKN090 BKN250 07/04 A2998 RMK AC5CI2 BR SLP186=

CYQF;2006-10-14 00:00;METAR CYQF 140000Z 06005KT 10SM BKN080 BKN250 05/04 A2998 RMK AC5CI1 BR SLP187=

CYQF;2006-10-14 01:00;METAR CYQF 140100Z 04003KT 7SM BKN080 BKN250 04/03 A2998 RMK AC5CI1 BR SLP186=

CYQF;2006-10-14 02:00;METAR CYQF 140200Z 00000KT 6SM BR SCT080 BKN250 02/02 A2998 RMK AC4CI2 SLP187=

CYQF;2006-10-14 02:50;SPECI CYQF 140250Z 00000KT 1/2SM FG BKN080 RMK FG2AC4=

CYQF;2006-10-14 03:00;METAR CYQF 140300Z 00000KT 1/2SM FG BKN080 02/02 A2998 RMK FG2AC4 SLP191=

CYQF;2006-10-14 03:34;SPECI CYQF 140334Z 00000KT 1/4SM FG BKN080 RMK FG3AC2=

CYQF;2006-10-14 04:00;METAR CYQF 140400Z 00000KT 1/4SM FZFG BKN080 M00/M01 A2997 RMK FG3AC2 SLP187=

CYQF;2006-10-14 05:00;METAR CYQF 140500Z 00000KT 1/8SM FZFG SKC M01/M01 A2997 RMK FG6 SLP189=

CYQF;2006-10-14 06:00;METAR CYQF 140600Z 00000KT 1/2SM FZFG BKN080 M01/M01 A2996 RMK FG6AC2 RIME ON INDCTR SLP185=

CYQF;2006-10-14 06:36;SPECI CYQF 140636Z 00000KT 1SM BR BKN080 RMK FG4AC2=

CYQF;2006-10-14 07:00;METAR CYQF 140700Z 00000KT 2SM BR BKN120 00/00 A2995 RMK FG2AC6 SLP182=

CYQF;2006-10-14 08:00;METAR CYQF 140800Z 00000KT 3SM BR BKN120 00/00 A2995 RMK AC7 SLP180=

CYQF;2006-10-14 09:00;METAR CYQF 140900Z 00000KT 8SM BKN120 M00/M01 A2993 RMK AC6 BR SLP169=

CYQF;2006-10-14 10:00;METAR CYQF 141000Z 17002KT 10SM SCT120 M01/M01 A2991 RMK AC4 SLP162=

CYQF;2006-10-14 11:00;METAR CYQF 141100Z 17004KT 15SM FEW120 00/M02 A2989 RMK AC2 SLP155=

CYQF;2006-10-14 12:00;METAR CYQF 141200Z 00000KT 15SM SKC M00/M02 A2987 RMK SLP151=

CYQF;2006-10-14 13:00;METAR CYQF 141300Z 16005KT 15SM FEW250 M00/M02 A2986 RMK CI0 SLP146=

CYQF;2006-10-14 14:00;METAR CYQF 141400Z 16006KT 15SM SCT250 M01/M02 A2985 RMK CI2 SLP144=

CYQF;2006-10-14 15:00;METAR CYQF 141500Z 17002KT 15SM FEW120 BKN250 00/M01 A2983 RMK AC1CI2 SLP137=

CYQF;2006-10-14 16:00;METAR CYQF 141600Z 18005KT 15SM BKN100 BKN250 04/01 A2981 RMK AC5CI1 SLP132=

CYQF;2006-10-14 17:00;METAR CYQF 141700Z 15007KT 15SM BKN100 BKN250 05/01 A2978 RMK AC6CI1 SLP124=

CYQF;2006-10-14 18:00;METAR CYQF 141800Z 17008KT 15SM FEW100 BKN250 08/02 A2976 RMK AC2CI1 SLP109=

CYQF;2006-10-14 19:00;METAR CYQF 141900Z 17012KT 15SM FEW100 BKN250 10/03 A2974 RMK AC2CI2 SLP101=

CYQF;2006-10-14 20:00;METAR CYQF 142000Z 16010KT 15SM FEW120 BKN250 11/03 A2971 RMK AC2CI2 SLP092=

CYQF;2006-10-14 21:00;METAR CYQF 142100Z 16009KT 15SM FEW120 SCT250 11/04 A2968 RMK AC1CI1 SLP077=

CYQF;2006-10-14 22:00;METAR CYQF 142200Z 13007KT 15SM SCT120 BKN250 12/04 A2966 RMK AC3CI2 SLP069=

CYQF;2006-10-14 23:00;METAR CYQF 142300Z 10003KT 15SM SCT100 OVC250 11/04 A2965 RMK AC3CI2 SLP067=

CYQF;2006-10-15 00:00;METAR CYQF 150000Z 06005KT 15SM BKN100 OVC250 11/04 A2964 RMK AC6CI2 SLP064=

CYQF;2006-10-15 01:00;METAR CYQF 150100Z 08005KT 15SM BKN100 OVC250 10/04 A2963 RMK AC6CI2 VIRGA SLP059=

CYQF;2006-10-15 02:00;METAR CYQF 150200Z 36003KT 15SM BKN100 BKN250 08/04 A2960 RMK AC6CI2 OBS TAKEN +28 SLP050=

CYQF;2006-10-15 03:00;METAR CYQF 150300Z 01002KT 15SM BKN100 BKN250 07/04 A2959 RMK AC5CI2 SLP048=

CYQF;2006-10-15 04:00;METAR CYQF 150400Z 03004KT 15SM BKN100 BKN250 08/04 A2957 RMK AC5CI2 SLP042=

CYQF;2006-10-15 05:00;METAR CYQF 150500Z 00000KT 15SM BKN100 BKN250 07/04 A2955 RMK AC5CI2 SLP037=

CYQF;2006-10-15 06:00;METAR CYQF 150600Z 36007KT 15SM BKN100 OVC250 07/04 A2956 RMK AC5CI3 SLP030=

CYQF;2006-10-15 07:00;METAR CYQF 150700Z 06009KT 15SM BKN100 BKN250 06/04 A2953 RMK AC5CI2 SLP021=

CYQF;2006-10-15 08:00;METAR CYQF 150800Z 32004KT 15SM SCT100 OVC250 05/03 A2953 RMK AC4CI4 SLP020=

CYQF;2006-10-15 09:00;METAR CYQF 150900Z 02008KT 15SM SCT100 BKN250 06/03 A2952 RMK AC4CI2 SLP015=

CYQF;2006-10-15 10:00;METAR CYQF 151000Z 02007KT 15SM BKN120 OVC250 06/03 A2950 RMK AC6CI2 SLP009=

CYQF;2006-10-15 11:00;METAR CYQF 151100Z 05005KT 15SM BKN120 OVC250 05/03 A2949 RMK AC5CI3 SLP005=

CYQF;2006-10-15 12:00;METAR CYQF 151200Z 36003KT 15SM SCT120 BKN220 04/02 A2948 RMK AC4CI2 SLP003=

CYQF;2006-10-15 13:00;METAR CYQF 151300Z 34003KT 15SM OVC120 04/02 A2946 RMK AC8 SLP995=

CYQF;2006-10-15 13:37;SPECI CYQF 151337Z 36004KT 15SM -RA BKN030 OVC080 RMK SC6AC2=

CYQF;2006-10-15 14:00;METAR CYQF 151400Z 00000KT 8SM -RA OVC015 04/03 A2946 RMK SC8 SLP996=

CYQF;2006-10-15 15:00;METAR CYQF 151500Z 01007KT 5SM -RA BR BKN015 OVC030 04/03 A2944 RMK SC6SC2 SLP994=

CYQF;2006-10-15 16:00;METAR CYQF 151600Z 02007KT 6SM -RA BR FEW010 BKN030 OVC060 04/03 A2944 RMK SF2SC5SC2 SLP992=

CYQF;2006-10-15 16:33;SPECI CYQF 151633Z 02005KT 6SM -RA BR FEW008 BKN030 OVC060 RMK SF2SC4SC2=

CYQF;2006-10-15 17:00;METAR CYQF 151700Z 36005KT 5SM -RA BR BKN007 OVC025 03/03 A2944 RMK SF5SC3 SLP993=

CYQF;2006-10-15 18:00;METAR CYQF 151800Z 36007KT 5SM -RA BR BKN005 OVC025 03/03 A2944 RMK SF6SC2 SLP995=

CYQF;2006-10-15 19:00;METAR CYQF 151900Z 36005KT 4SM -RA BR BKN006 OVC025 03/03 A2945 RMK SF6SC2 SLP997=

CYQF;2006-10-15 20:00;METAR CYQF 152000Z 02007KT 6SM -RA BR BKN006 OVC025 04/03 A2945 RMK SF5SC3 SLP996=

CYQF;2006-10-15 21:00;METAR CYQF 152100Z 36006KT 3SM -RA BR BKN005 OVC025 04/03 A2945 RMK SF6SC2 SLP998=

CYQF;2006-10-15 22:00;METAR CYQF 152200Z 36010KT 5SM -RA BR BKN006 OVC015 04/03 A2946 RMK SF6SC2 SLP000=

CYQF;2006-10-15 23:00;METAR CYQF 152300Z 01006KT 6SM -RA BR BKN005 OVC015 04/03 A2947 RMK SF6SC2 SLP006=

CYQF;2006-10-16 00:00;METAR CYQF 160000Z 36008KT 5SM -RA BR OVC006 04/03 A2949 RMK SC8 SLP015=

CYQF;2006-10-16 01:00;METAR CYQF 160100Z 01005KT 5SM -RA BR BKN005 OVC015 03/03 A2951 RMK SF6SC2 CIG RAG SLP019=

CYQF;2006-10-16 02:00;METAR CYQF 160200Z 01004KT 10SM -RA BKN005 OVC015 03/03 A2954 RMK SF6SC2 CIG RAG OBS TAKEN +15 SLP028=

CYQF;2006-10-16 03:00;METAR CYQF 160300Z 03004KT 12SM -RA SCT005 OVC012 03/03 A2954 RMK SF3SC5 SLP033=

CYQF;2006-10-16 04:00;METAR CYQF 160400Z 06005KT 10SM -RA BKN007 OVC012 03/02 A2955 RMK SF6SC2 BR SLP036=

CYQF;2006-10-16 05:00;METAR CYQF 160500Z 06004KT 6SM -SN OVC007 02/01 A2958 RMK SC8 SLP046=

CYQF;2006-10-16 06:00;METAR CYQF 160600Z 05003KT 3SM -SN BKN007 OVC014 01/01 A2960 RMK SN2SC4SC2 SLP056=

CYQF;2006-10-16 07:00;METAR CYQF 160700Z 02003KT 3SM -SN BKN006 OVC014 01/01 A2962 RMK SN2SC4SC2 SLP061=

CYQF;2006-10-16 07:32;SPECI CYQF 160732Z 01005KT 2SM -SN OVC006 RMK SN2SC6=

CYQF;2006-10-16 08:00;METAR CYQF 160800Z 36003KT 3SM -SN BKN006 OVC014 01/01 A2963 RMK SN2SC3SC3 SLP066=

CYQF;2006-10-16 09:00;METAR CYQF 160900Z 01003KT 1 1/2SM -SN OVC006 01/01 A2966 RMK SN3SC5 SLP076=

CYQF;2006-10-16 10:00;METAR CYQF 161000Z 01003KT 1SM -SN VV012 00/00 A2968 RMK SN8 SLP082=

CYQF;2006-10-16 11:00;METAR CYQF 161100Z 03002KT 1SM -SN VV010 00/00 A2970 RMK SN8 SLP089=

CYQF;2006-10-16 12:00;METAR CYQF 161200Z 04002KT 1SM -SN VV010 00/00 A2973 RMK SN8 SLP102=

CYQF;2006-10-16 13:00;METAR CYQF 161300Z 00000KT 1SM -SN VV008 00/M00 A2976 RMK SN8 SLP110=

CYQF;2006-10-16 14:00;METAR CYQF 161400Z 05003KT 1 1/2SM -SN VV015 00/M00 A2979 RMK SN8 SLP119=

CYQF;2006-10-16 15:00;METAR CYQF 161500Z 00000KT 2SM -SN OVC020 M00/M00 A2981 RMK SN4SC4 /S01/ SLP130=

CYQF;2006-10-16 16:00;METAR CYQF 161600Z 00000KT 1 1/2SM -SN BR BKN010 OVC025 00/M00 A2984 RMK SN4SF3SC1 SLP139=

CYQF;2006-10-16 16:48;SPECI CYQF 161648Z 00000KT 2 1/4SM -SN BR BKN010 OVC025 RMK SN2SF4SC2=

CYQF;2006-10-16 17:33;SPECI CYQF 161733Z 36003KT 3SM -SN BR BKN006 OVC015 RMK SF6SC2=

CYQF;2006-10-16 18:00;METAR CYQF 161800Z 01003KT 3SM -SN BR BKN006 OVC015 01/00 A2987 RMK SF6SC2 SLP154=

CYQF;2006-10-16 18:51;SPECI CYQF 161851Z 35005KT 5SM BR OVC006 RMK SF8=

CYQF;2006-10-16 19:00;METAR CYQF 161900Z 36005KT 5SM BR OVC006 01/00 A2989 RMK SF8 CIG RAG SLP160=

CYQF;2006-10-16 19:27;SPECI CYQF 161927Z 00000KT 1SM -SN OVC007 RMK SF8=

CYQF;2006-10-16 20:00;METAR CYQF 162000Z 35010KT 1SM -SN BR OVC007 01/00 A2990 RMK SF8 CIG RAG SLP163=

CYQF;2006-10-16 20:35;SPECI CYQF 162035Z 01007KT 10SM BKN007 OVC020 RMK SF5SC3=

CYQF;2006-10-16 21:00;METAR CYQF 162100Z 35007KT 12SM BKN007 OVC020 01/00 A2992 RMK SF6SC2 SLP171=

CYQF;2006-10-16 22:00;METAR CYQF 162200Z 35009KT 12SM SCT007 OVC020 01/M00 A2994 RMK SF4SC4 SLP177=

CYQF;2006-10-16 23:00;METAR CYQF 162300Z 35007KT 15SM FEW007 BKN015 OVC025 01/00 A2996 RMK SF2SC3SC2 SLP182=

CYQF;2006-10-17 00:00;METAR CYQF 170000Z 33005KT 15SM FEW007 BKN015 OVC025 01/M00 A2998 RMK SF2SC3SC2 SLP191=

CYQF;2006-10-17 00:41;SPECI CYQF 170041Z 33007KT 6SM -SN SCT007 OVC015 RMK SF3SC5=

CYQF;2006-10-17 00:53;SPECI CYQF 170053Z 32007KT 2SM -SN BR BKN008 OVC015 RMK SF6SC2=

CYQF;2006-10-17 01:00;METAR CYQF 170100Z 33006KT 3SM -SN BR BKN008 OVC015 01/M00 A3000 RMK SF6SC2 SLP196=

CYQF;2006-10-17 01:10;SPECI CYQF 170110Z 33007KT 8SM -SN SCT008 OVC015 RMK SF3SC5=

CYQF;2006-10-17 01:52;SPECI CYQF 170152Z 33010KT 3SM -SN SCT007 OVC020 RMK SF3SC5=

CYQF;2006-10-17 02:00;METAR CYQF 170200Z 32008KT 2SM -SN SCT007 OVC020 00/M00 A3001 RMK SF4SC4 SLP201=

CYQF;2006-10-17 02:53;SPECI CYQF 170253Z 33009KT 2SM -SN BKN008 OVC012 RMK SF5SC3=

CYQF;2006-10-17 03:00;METAR CYQF 170300Z 32008KT 2SM -SN BKN008 OVC012 00/M00 A3003 RMK SF5SC3 SLP209=

CYQF;2006-10-17 03:50;SPECI CYQF 170350Z 01008KT 1SM -SN BKN008 OVC012 RMK SN4SF2SC2=

CYQF;2006-10-17 04:00;METAR CYQF 170400Z 36006KT 1SM -SN BKN009 OVC012 M00/M01 A3005 RMK SN5SF2SC1 SLP216=

CYQF;2006-10-17 05:00;METAR CYQF 170500Z 01005KT 1 1/2SM -SN BKN008 OVC012 M00/M01 A3006 RMK SN4SF2SC2 SLP218=

CYQF;2006-10-17 06:00;METAR CYQF 170600Z CCA 35003KT 1 1/2SM -SN OVC008 M01/M01 A3007 RMK SN3SF5 /S03/ SLP224=

CYQF;2006-10-17 07:00;METAR CYQF 170700Z 35005KT 2SM -SN OVC008 M01/M02 A3008 RMK SN2SC6 SLP227=

CYQF;2006-10-17 07:47;SPECI CYQF 170747Z 32007KT 4SM -SN OVC005 RMK SF8=

CYQF;2006-10-17 09:00;METAR CYQF 170900Z 35005KT 10SM -SN BKN006 OVC017 M01/M02 A3010 RMK SF6SC2 SLP233=

CYQF;2006-10-17 10:00;METAR CYQF 171000Z 33008KT 10SM -SN BKN008 OVC025 M01/M02 A3010 RMK SF5SC3 SLP234=

CYQF;2006-10-17 10:45;SPECI CYQF 171045Z 35006KT 10SM -SN SCT008 OVC025 RMK SF3SC5=

CYQF;2006-10-17 11:00;METAR CYQF 171100Z 34008KT 10SM -SN SCT008 OVC029 M02/M03 A3009 RMK SF3SC5 SLP232=

CYQF;2006-10-17 12:00;METAR CYQF 171200Z 01004KT 15SM SCT008 OVC026 M02/M03 A3009 RMK SF3SC5 SLP233=

CYQF;2006-10-17 13:00;METAR CYQF 171300Z 33004KT 15SM FEW008 OVC030 M02/M03 A3010 RMK SF2SC6 SLP234=

CYQF;2006-10-17 14:00;METAR CYQF 171400Z 30002KT 15SM BKN008 OVC030 M02/M03 A3011 RMK SF6SC2 SLP239=

CYQF;2006-10-17 14:30;SPECI CYQF 171430Z 00000KT 15SM BKN010 OVC018 RMK SF6SC2 CIG RAG=

CYQF;2006-10-17 15:00;METAR CYQF 171500Z 00000KT 15SM FEW010 BKN018 OVC030 M02/M03 A3011 RMK SF2SC3SC2 SLP238=

CYQF;2006-10-17 16:00;METAR CYQF 171600Z 28003KT 15SM FEW010 BKN025 OVC030 M01/M03 A3010 RMK SF2SC3SC2 SLP237=

CYQF;2006-10-17 17:00;METAR CYQF 171700Z 22003KT 15SM SCT010 OVC025 M01/M05 A3009 RMK SF3SC5 SLP233=

CYQF;2006-10-17 18:00;METAR CYQF 171800Z 25008KT 15SM FEW010 OVC025 M01/M04 A3008 RMK SF2SC6 SLP230=

CYQF;2006-10-17 18:43;SPECI CYQF 171843Z 22007KT 15SM BKN014 RMK SC7=

CYQF;2006-10-17 19:00;METAR CYQF 171900Z 23004KT 15SM BKN014 M01/M04 A3006 RMK SC7 SLP225=

CYQF;2006-10-17 19:30;SPECI CYQF 171930Z 21007KT 15SM SCT014 RMK SC3=

CYQF;2006-10-17 20:00;METAR CYQF 172000Z 19010KT 15SM FEW014 00/M04 A3004 RMK SC2 SLP217=

CYQF;2006-10-17 21:00;METAR CYQF 172100Z 18007KT 15SM FEW014 BKN250 02/M02 A3001 RMK SC2CI1 SLP203=

CYQF;2006-10-17 23:00;METAR CYQF 172300Z 19009KT 15SM FEW250 03/M02 A2998 RMK CI1 SLP194=

CYQF;2006-10-18 00:00;METAR CYQF 180000Z 18009KT 15SM FEW250 03/M02 A2996 RMK CI1 SLP186=

CYQF;2006-10-18 01:00;METAR CYQF 180100Z 18007KT 15SM FEW250 00/M02 A2993 RMK CI1 SLP176=

CYQF;2006-10-18 02:00;METAR CYQF 180200Z 17007KT 15SM FEW250 M00/M02 A2992 RMK CI1 BARO READ +08 SLP172=

CYQF;2006-10-18 03:00;METAR CYQF 180300Z 18007KT 15SM SKC M01/M02 A2990 RMK SLP168=

CYQF;2006-10-18 04:00;METAR CYQF 180400Z 18003KT 15SM SKC M03/M04 A2988 RMK SLP163=

CYQF;2006-10-18 05:00;METAR CYQF 180500Z 19005KT 15SM SKC M04/M05 A2986 RMK SLP157=

CYQF;2006-10-18 06:00;METAR CYQF 180600Z 18005KT 15SM SKC M04/M05 A2984 RMK WX OB TAKEN +18 MIN SLP149=

CYQF;2006-10-18 07:00;METAR CYQF 180700Z 17007KT 15SM SKC M05/M06 A2983 RMK SLP145=

CYQF;2006-10-18 08:00;METAR CYQF 180800Z 17003KT 15SM SKC M05/M06 A2981 RMK SLP141=

CYQF;2006-10-18 09:00;METAR CYQF 180900Z 20006KT 15SM SKC M05/M06 A2981 RMK SLP137=

CYQF;2006-10-18 10:00;METAR CYQF 181000Z 20004KT 15SM SKC M05/M06 A2980 RMK SLP135=

CYQF;2006-10-18 11:00;METAR CYQF 181100Z 19004KT 15SM SKC M06/M07 A2979 RMK SLP132=

CYQF;2006-10-18 12:00;METAR CYQF 181200Z 23004KT 15SM SKC M06/M07 A2980 RMK SLP134=

CYQF;2006-10-18 13:00;METAR CYQF 181300Z 00000KT 15SM FEW250 M05/M06 A2979 RMK CI1 SLP132=

CYQF;2006-10-18 14:00;METAR CYQF 181400Z 21003KT 15SM FEW120 BKN250 M06/M06 A2979 RMK AC1CI1 SLP131=

CYQF;2006-10-18 15:00;METAR CYQF 181500Z 23003KT 15SM FEW120 OVC250 M04/M05 A2979 RMK AC2CI6 SLP133=

CYQF;2006-10-18 16:00;METAR CYQF 181600Z CCA 20003KT 15SM BKN120 OVC250 M02/M03 A2979 RMK AC6CI2 SLP133=

CYQF;2006-10-18 17:00;METAR CYQF 181700Z 00000KT 15SM BKN120 OVC250 M00/M01 A2980 RMK AC7CI1 VIRGA SLP137=

CYQF;2006-10-18 19:00;METAR CYQF 181900Z 22004KT 15SM SCT080 BKN120 OVC250 03/00 A2978 RMK AC3AC4CI1 VIRGA SLP128=

CYQF;2006-10-18 20:00;METAR CYQF 182000Z 24006KT 15SM BKN080 OVC120 04/00 A2979 RMK AC6AC2 SLP130=

CYQF;2006-10-18 20:40;SPECI CYQF 182040Z 21003KT 10SM -SHSN BKN040 OVC120 RMK SC6AC2=

CYQF;2006-10-18 21:00;METAR CYQF 182100Z 16005KT 10SM -SHRASN BKN040 BKN080 OVC120 04/M00 A2977 RMK SC6AC2AC1 CU EMBD SLP123=

CYQF;2006-10-18 22:00;METAR CYQF 182200Z 00000KT 15SM -SHRA BKN040 BKN080 OVC120 05/M00 A2977 RMK SC6AC2AC1 SLP123=

CYQF;2006-10-18 23:00;METAR CYQF 182300Z CCA 24003KT 15SM -SHRA BKN040 OVC080 05/00 A2980 RMK SC6AC2 CU EMBD SLP130=

CYQF;2006-10-19 00:00;METAR CYQF 190000Z 22005KT 15SM -SHRA BKN040 OVC080 05/02 A2981 RMK SC6AC2 SLP135=

CYQF;2006-10-19 00:49;SPECI CYQF 190049Z 23004KT 15SM FEW020 BKN040 OVC090 RMK SF2SC3AC3=

CYQF;2006-10-19 01:00;METAR CYQF 190100Z 26003KT 15SM FEW020 BKN045 BKN090 03/01 A2981 RMK SF2SC3AC2 BARO READ +15 SLP135=

CYQF;2006-10-19 02:00;METAR CYQF 190200Z 27003KT 15SM VCSH FEW020 SCT050 BKN100 04/01 A2983 RMK SF2SC2AC4 SLP140=

CYQF;2006-10-19 02:24;SPECI CYQF 190224Z 29003KT 15SM -SHRA BKN025 BKN050 RMK SC5SC2=

CYQF;2006-10-19 03:00;METAR CYQF 190300Z 27003KT 15SM -SHRA BKN025 OVC050 04/02 A2984 RMK SC5SC3 SLP146=

CYQF;2006-10-19 04:00;METAR CYQF 190400Z 24003KT 15SM -RA FEW025 BKN050 OVC100 03/02 A2985 RMK SC2SC2AC3 SLP149=

CYQF;2006-10-19 04:40;SPECI CYQF 190440Z 24005KT 15SM FEW025 SCT050 OVC100 RMK SC2SC2AC5=

CYQF;2006-10-19 05:00;METAR CYQF 190500Z 25005KT 15SM FEW025 SCT050 OVC100 03/02 A2985 RMK SC2SC2AC5 SLP150=

CYQF;2006-10-19 06:00;METAR CYQF 190600Z 24004KT 15SM FEW050 OVC120 03/02 A2985 RMK SC2AC6 SLP145=

CYQF;2006-10-19 07:00;METAR CYQF 190700Z 25005KT 15SM FEW015 FEW050 OVC100 03/02 A2985 RMK SC1SC2AC6 SLP144=

CYQF;2006-10-19 08:00;METAR CYQF 190800Z 16004KT 15SM FEW015 FEW050 OVC100 02/01 A2985 RMK SC1SC2AC6 SLP143=

CYQF;2006-10-19 09:00;METAR CYQF 190900Z 18003KT 15SM FEW050 OVC100 02/01 A2984 RMK SC2AC6 SLP139=

CYQF;2006-10-19 10:00;METAR CYQF 191000Z 00000KT 15SM OVC075 02/01 A2984 RMK AC8 SLP137=

CYQF;2006-10-19 11:00;METAR CYQF 191100Z 00000KT 15SM OVC090 01/01 A2983 RMK AC8 SLP135=

CYQF;2006-10-19 12:00;METAR CYQF 191200Z 00000KT 15SM OVC100 01/00 A2982 RMK AC8 SLP130=

CYQF;2006-10-19 13:00;METAR CYQF 191300Z 20003KT 15SM OVC100 02/01 A2982 RMK AC8 SLP130=

CYQF;2006-10-19 14:00;METAR CYQF 191400Z 00000KT 15SM OVC100 01/01 A2980 RMK AC8 SLP125=

CYQF;2006-10-19 15:00;METAR CYQF 191500Z 00000KT 15SM FEW040 SCT080 BKN100 03/00 A2978 RMK SC1AC2AC4 SLP116=

CYQF;2006-10-19 16:00;METAR CYQF 191600Z 00000KT 15SM BKN080 BKN100 03/01 A2977 RMK AC6AC2 SLP114=

CYQF;2006-10-19 17:00;METAR CYQF 191700Z 16003KT 15SM BKN080 BKN100 05/02 A2975 RMK AC6AC2 SLP106=

CYQF;2006-10-19 18:00;METAR CYQF 191800Z 17005KT 15SM BKN080 BKN100 07/02 A2973 RMK AC6AC2 SLP094=

CYQF;2006-10-19 19:00;METAR CYQF 191900Z 17004KT 15SM BKN080 BKN100 07/02 A2970 RMK AC6AC1 SLP087=

CYQF;2006-10-19 22:00;METAR CYQF 192200Z 15008KT 15SM BKN080 OVC100 09/04 A2965 RMK AC6AC2 VIRGA SLP066=

CYQF;2006-10-19 23:00;METAR CYQF 192300Z CCA 13003KT 15SM SCT060 BKN080 BKN100 09/04 A2965 RMK SC3AC3AC1 SH W SLP067=

CYQF;2006-10-19 23:37;SPECI CYQF 192337Z 06007KT 10SM -SHRA BKN060 OVC080 RMK SC6AC2=

CYQF;2006-10-20 01:00;METAR CYQF 200100Z 00000KT 15SM FEW010 OVC050 06/05 A2967 RMK SC1SC7 SLP077=

CYQF;2006-10-20 02:00;METAR CYQF 200200Z 00000KT 15SM FEW015 SCT050 OVC080 06/04 A2969 RMK SF1SC2AC5 SLP082=

CYQF;2006-10-20 02:34;SPECI CYQF 200234Z 31005KT 15SM -SHRA FEW010 BKN045 OVC080 RMK SF2SC4AC2=

CYQF;2006-10-20 03:00;METAR CYQF 200300Z 30006KT 12SM -SHRA FEW010 BKN050 OVC080 06/05 A2972 RMK SF2SC4AC2 SLP092=

CYQF;2006-10-20 04:00;METAR CYQF 200400Z 30008KT 12SM -SHRA FEW010 BKN025 OVC050 06/05 A2973 RMK SC2SC4SC2 SLP097=

CYQF;2006-10-20 05:00;METAR CYQF 200500Z 33010G15KT 12SM -SHRA SCT020 OVC040 06/04 A2975 RMK SF3SC5 SLP103=

CYQF;2006-10-20 06:00;METAR CYQF 200600Z 33010KT 15SM -RA FEW040 BKN070 06/04 A2977 RMK SC2AC5 SLP106=

CYQF;2006-10-20 06:32;SPECI CYQF 200632Z 33005KT 15SM FEW040 BKN070 RMK SC2AC5=

CYQF;2006-10-20 07:00;METAR CYQF 200700Z 32008KT 15SM FEW040 SCT070 04/03 A2979 RMK SC1AC3 SLP112=

CYQF;2006-10-20 08:00;METAR CYQF 200800Z 29010KT 15SM FEW040 BKN070 03/03 A2981 RMK SC2AC5 SLP118=

CYQF;2006-10-20 09:00;METAR CYQF 200900Z 31010KT 15SM FEW040 OVC100 04/03 A2982 RMK SC2AC6 SLP123=

CYQF;2006-10-20 10:00;METAR CYQF 201000Z 30007KT 15SM BKN030 OVC090 04/03 A2984 RMK SC5AC3 SLP129=

CYQF;2006-10-20 10:21;SPECI CYQF 201021Z 30008KT 12SM -RA BKN030 OVC090 RMK SC6AC2=

CYQF;2006-10-20 11:00;METAR CYQF 201100Z 31010KT 15SM -RA OVC030 04/03 A2985 RMK SC8 SLP131=

CYQF;2006-10-20 12:00;METAR CYQF 201200Z 31013G20KT 12SM -RA FEW010 OVC020 04/03 A2987 RMK SF2SC6 SLP143=

CYQF;2006-10-20 13:00;METAR CYQF 201300Z 34010G15KT 12SM -RA FEW010 OVC018 03/02 A2992 RMK SF2SC6 SLP157=

CYQF;2006-10-20 14:00;METAR CYQF 201400Z 34012G22KT 10SM -RA SCT008 OVC014 02/01 A2996 RMK SF3SC5 SLP170=

CYQF;2006-10-20 14:38;SPECI CYQF 201438Z 33015G25KT 3SM -RASN OVC010 RMK SF8=

CYQF;2006-10-20 15:00;METAR CYQF 201500Z 34015G25KT 6SM -RASN BKN008 OVC014 02/00 A3000 RMK SF6SC2 SLP192=

CYQF;2006-10-20 16:00;METAR CYQF 201600Z 34015G25KT 6SM -SHSN BKN008 OVC030 02/00 A3004 RMK SF6SC2 SLP204=

CYQF;2006-10-20 16:41;SPECI CYQF 201641Z 35012G22KT 15SM BKN012 OVC030 RMK SC6SC2=

CYQF;2006-10-20 17:00;METAR CYQF 201700Z 33012G22KT 15SM BKN012 OVC030 02/00 A3008 RMK SC6SC2 SLP216=

CYQF;2006-10-20 18:00;METAR CYQF 201800Z 33010G17KT 15SM BKN010 OVC030 03/01 A3010 RMK SC7SC1 SLP226=

CYQF;2006-10-20 19:00;METAR CYQF 201900Z 33010G20KT 15SM BKN012 OVC030 03/01 A3012 RMK SC7SC1 SLP232=

CYQF;2006-10-20 20:00;METAR CYQF 202000Z 34010G18KT 15SM BKN015 BKN030 04/01 A3012 RMK SC6SC2 SLP231=

CYQF;2006-10-20 21:00;METAR CYQF 202100Z 33010G20KT 15SM BKN018 05/01 A3012 RMK SC7 SLP232=

CYQF;2006-10-20 21:18;SPECI CYQF 202118Z 35010G17KT 15SM -SHRASN BKN018 RMK SC7=

CYQF;2006-10-20 22:00;METAR CYQF 202200Z 33010G17KT 15SM BKN018 05/02 A3013 RMK SC5 SHS S QUAD SLP234=

CYQF;2006-10-20 23:00;METAR CYQF 202300Z 34010G15KT 15SM FEW020 SCT070 06/01 A3013 RMK SC2AC1 SLP235=

CYQF;2006-10-21 00:00;METAR CYQF 210000Z 35012KT 15SM FEW020 SCT090 06/01 A3014 RMK SC2AC2 SLP238=

CYQF;2006-10-21 00:09;SPECI CYQF 210009Z 34007KT 15SM BKN012 BKN090 RMK SC5AC1 SH SW-NW=

CYQF;2006-10-21 00:39;SPECI CYQF 210039Z 32005KT 15SM FEW012 SCT090 RMK SC2AC2 SH DIST S-W=

CYQF;2006-10-21 01:00;METAR CYQF 210100Z 31005KT 15SM FEW012 BKN090 02/M01 A3016 RMK SC2AC2 SLP243=

CYQF;2006-10-21 02:00;METAR CYQF 210200Z 29003KT 15SM FEW050 BKN090 02/00 A3017 RMK SC2AC5 SLP247=

CYQF;2006-10-21 03:00;METAR CYQF 210300Z 28005KT 15SM SCT050 BKN090 03/01 A3018 RMK SC3AC4 SLP256=

CYQF;2006-10-21 04:00;METAR CYQF 210400Z 29010KT 15SM FEW050 BKN090 03/02 A3018 RMK SC2AC5 SLP258=

CYQF;2006-10-21 05:00;METAR CYQF 210500Z 29007KT 15SM SCT090 02/01 A3019 RMK AC4 SLP260=

CYQF;2006-10-21 06:00;METAR CYQF 210600Z 27007KT 15SM FEW050 BKN090 02/01 A3020 RMK SC2AC4 SLP262=

CYQF;2006-10-21 07:00;METAR CYQF 210700Z 30009KT 15SM FEW050 BKN090 02/00 A3020 RMK SC2AC4 SLP263=

CYQF;2006-10-21 08:00;METAR CYQF 210800Z 30009KT 15SM FEW050 BKN100 03/00 A3021 RMK SC2AC5 SLP265=

CYQF;2006-10-21 09:00;METAR CYQF 210900Z 30009KT 15SM FEW050 BKN100 02/01 A3021 RMK SC2AC5 SLP265=

CYQF;2006-10-21 10:00;METAR CYQF 211000Z 30009KT 15SM SCT050 BKN100 02/01 A3022 RMK SC4AC3 SLP268=

CYQF;2006-10-21 11:00;METAR CYQF 211100Z 33011KT 15SM BKN050 OVC100 03/01 A3023 RMK SC5AC3 SLP270=

CYQF;2006-10-21 12:00;METAR CYQF 211200Z 33002KT 15SM FEW030 BKN050 OVC100 01/00 A3024 RMK SC2SC3AC2 SLP276=

CYQF;2006-10-21 13:00;METAR CYQF 211300Z 29005KT 15SM FEW030 FEW050 BKN100 01/01 A3025 RMK SC1SC2AC4 SLP279=

CYQF;2006-10-21 14:00;METAR CYQF 211400Z 29010KT 15SM FEW030 SCT050 BKN100 01/00 A3026 RMK SC1SC2AC1 SLP282=

CYQF;2006-10-21 15:00;METAR CYQF 211500Z 29008KT 15SM FEW025 FEW050 SCT100 01/M01 A3027 RMK SC1SC2AC1 LWR SC TR SLP290=

CYQF;2006-10-21 15:40;SPECI CYQF 211540Z 32004KT 15SM BKN014 BKN050 BKN100 RMK SC6SC1AC1=

CYQF;2006-10-21 16:00;METAR CYQF 211600Z 34007KT 15SM SCT014 BKN050 02/00 A3029 RMK SC3SC2 SLP296=

CYQF;2006-10-21 17:00;METAR CYQF 211700Z 36015KT 15SM BKN015 03/01 A3031 RMK SC6 SLP300=

CYQF;2006-10-21 18:00;METAR CYQF 211800Z 36011KT 15SM BKN015 BKN050 03/00 A3032 RMK SC6SC1 SLP303=

CYQF;2006-10-21 19:00;METAR CYQF 211900Z 35010KT 15SM BKN015 BKN050 04/M00 A3032 RMK SC6SC1 SLP303=

CYQF;2006-10-21 20:00;METAR CYQF 212000Z 36010KT 15SM BKN020 BKN090 05/M00 A3031 RMK SC5AC2 SLP300=

CYQF;2006-10-21 21:00;METAR CYQF 212100Z 33012KT 15SM BKN025 05/M00 A3030 RMK SC7 SLP297=

CYQF;2006-10-21 22:00;METAR CYQF 212200Z 34006KT 15SM BKN025 BKN050 05/M00 A3030 RMK SC6SC1 SLP295=

CYQF;2006-10-21 23:00;METAR CYQF 212300Z 03008KT 15SM FEW025 SCT050 05/M01 A3029 RMK SC2SC2 SLP294=

CYQF;2006-10-22 00:00;METAR CYQF 220000Z 04005KT 15SM FEW050 05/M01 A3030 RMK SC1 SLP297=

CYQF;2006-10-22 01:00;METAR CYQF 220100Z 08004KT 15SM FEW250 02/M01 A3029 RMK CI1 SLP293=

CYQF;2006-10-22 02:00;METAR CYQF 220200Z 16008KT 15SM SKC M01/M02 A3028 RMK SLP292=

CYQF;2006-10-22 03:00;METAR CYQF 220300Z 17003KT 15SM SKC M02/M02 A3028 RMK SLP298=

CYQF;2006-10-22 04:00;METAR CYQF 220400Z 00000KT 15SM SKC M02/M03 A3027 RMK SLP295=

CYQF;2006-10-22 05:00;METAR CYQF 220500Z 17003KT 15SM SKC M02/M03 A3025 RMK SLP290=

CYQF;2006-10-22 06:00;METAR CYQF 220600Z 00000KT 15SM SKC M02/M03 A3024 RMK SLP280=

CYQF;2006-10-22 07:00;METAR CYQF 220700Z 17002KT 15SM SKC M03/M04 A3021 RMK SLP271=

CYQF;2006-10-22 08:00;METAR CYQF 220800Z 00000KT 15SM SKC M03/M04 A3019 RMK SLP267=

CYQF;2006-10-22 09:00;METAR CYQF 220900Z 17002KT 15SM SKC M04/M05 A3018 RMK SLP261=

CYQF;2006-10-22 10:00;METAR CYQF 221000Z 16002KT 15SM BKN250 M03/M04 A3015 RMK CI6 SLP253=

CYQF;2006-10-22 11:00;METAR CYQF 221100Z 00000KT 15SM FEW090 BKN250 M03/M04 A3014 RMK AC2CI5 SLP250=

CYQF;2006-10-22 12:00;METAR CYQF 221200Z 15002KT 15SM FEW090 OVC250 M02/M03 A3013 RMK AC2CI6 SLP243=

CYQF;2006-10-22 13:00;METAR CYQF 221300Z 15003KT 15SM FEW090 BKN250 M02/M03 A3012 RMK AC2CI5 SLP238=

CYQF;2006-10-22 14:00;METAR CYQF 221400Z 18004KT 15SM FEW100 SCT250 M03/M04 A3010 RMK AC2CI1 SLP234=

CYQF;2006-10-22 15:00;METAR CYQF 221500Z 17006KT 10SM BKN100 M03/M04 A3009 RMK AC6 SLP238=

CYQF;2006-10-22 16:00;METAR CYQF 221600Z 17005KT 15SM BKN100 M01/M02 A3008 RMK AC6 SLP234=

CYQF;2006-10-22 17:00;METAR CYQF 221700Z 18004KT 15SM FEW100 FEW210 02/M02 A3007 RMK AC1CI1 SLP230=

CYQF;2006-10-22 18:00;METAR CYQF 221800Z 17004KT 15SM FEW210 04/M00 A3004 RMK CI1 SLP212=

CYQF;2006-10-22 19:00;METAR CYQF 221900Z 17008KT 15SM SCT210 09/M01 A3000 RMK CI1 SLP200=

CYQF;2006-10-22 20:00;METAR CYQF 222000Z 16010KT 15SM FEW210 11/01 A2998 RMK CI1 SLP192=

CYQF;2006-10-22 21:00;METAR CYQF 222100Z 16010KT 15SM FEW210 11/M00 A2995 RMK CI2 SLP176=

CYQF;2006-10-22 22:00;METAR CYQF 222200Z 15010KT 15SM FEW210 12/02 A2994 RMK CI2 SLP170=

CYQF;2006-10-22 23:00;METAR CYQF 222300Z 15008KT 15SM BKN210 12/00 A2991 RMK CI5 SLP163=

CYQF;2006-10-23 00:00;METAR CYQF 230000Z 15008KT 15SM FEW130 BKN210 10/M01 A2989 RMK AC2CI2 SLP153=

CYQF;2006-10-23 01:00;METAR CYQF 230100Z 14008KT 15SM FEW120 SCT210 07/M00 A2987 RMK AC2CI1 SLP148=

CYQF;2006-10-23 02:00;METAR CYQF 230200Z 16012KT 15SM FEW120 05/01 A2985 RMK AC2 SLP142=

CYQF;2006-10-23 03:00;METAR CYQF 230300Z 16010G15KT 15SM BKN100 BKN230 05/01 A2984 RMK AC5CI0 SLP142=

CYQF;2006-10-23 04:00;METAR CYQF 230400Z 17012KT 15SM SCT100 BKN230 04/00 A2983 RMK AC3CI0 SLP138=

CYQF;2006-10-23 05:00;METAR CYQF 230500Z 17012KT 15SM FEW100 SCT230 04/M00 A2982 RMK AC2CI0 SLP137=

CYQF;2006-10-23 06:00;METAR CYQF 230600Z 20006KT 15SM FEW100 SCT230 02/M01 A2982 RMK AC2CI0 SLP129=

CYQF;2006-10-23 07:00;METAR CYQF 230700Z 21004KT 15SM FEW100 FEW250 01/M01 A2982 RMK AC2CI0 SLP131=

CYQF;2006-10-23 08:00;METAR CYQF 230800Z 22005KT 15SM SCT250 M00/M02 A2983 RMK CI2 SLP133=

CYQF;2006-10-23 09:00;METAR CYQF 230900Z 28003KT 15SM BKN250 01/M01 A2985 RMK CI2 SLP135=

CYQF;2006-10-23 09:37;SPECI CYQF 230937Z 34010G17KT 15SM SCT150 BKN250 RMK AC3CI2 WND SHFT 0935=

CYQF;2006-10-23 10:00;METAR CYQF 231000Z 34012G20KT 15SM BKN150 OVC250 07/M00 A2987 RMK AC5CI3 SLP141=

CYQF;2006-10-23 11:00;METAR CYQF 231100Z 35010G15KT 15SM BKN150 OVC250 07/M00 A2990 RMK AC6CI2 SLP151=

CYQF;2006-10-23 12:00;METAR CYQF 231200Z 34010G15KT 15SM BKN120 OVC250 07/00 A2995 RMK AC6CI2 SLP163=

CYQF;2006-10-23 13:00;METAR CYQF 231300Z 35010KT 15SM OVC100 06/01 A2997 RMK AC8 SLP171=

CYQF;2006-10-23 14:00;METAR CYQF 231400Z 36005KT 15SM OVC100 06/01 A2997 RMK AC8 SLP170=

CYQF;2006-10-23 15:00;METAR CYQF 231500Z 33005KT 15SM BKN090 BKN210 05/02 A2997 RMK AC3CI3 SLP179=

CYQF;2006-10-23 16:00;METAR CYQF 231600Z 23004KT 15SM FEW090 04/02 A2999 RMK AC2 SLP183=

CYQF;2006-10-23 17:00;METAR CYQF 231700Z 23002KT 15SM FEW090 07/03 A2999 RMK AC2 SLP184=

CYQF;2006-10-23 18:00;METAR CYQF 231800Z 22003KT 15SM SKC 10/02 A2999 RMK SLP183=

CYQF;2006-10-23 19:00;METAR CYQF 231900Z 24002KT 15SM SKC 10/03 A2999 RMK SLP183=

CYQF;2006-10-23 20:00;METAR CYQF 232000Z 21008KT 15SM SKC 11/01 A2996 RMK SLP175=

CYQF;2006-10-23 21:00;METAR CYQF 232100Z 20007KT 15SM FEW210 12/00 A2994 RMK CI1 SLP165=

CYQF;2006-10-23 22:00;METAR CYQF 232200Z 00000KT 15SM FEW210 13/M01 A2993 RMK CI1 SLP161=

CYQF;2006-10-23 23:00;METAR CYQF 232300Z 16003KT 15SM FEW210 13/M02 A2992 RMK CI1 SLP158=

CYQF;2006-10-24 00:00;METAR CYQF 240000Z 15003KT 15SM BKN210 11/M00 A2992 RMK CI2 SLP152=

CYQF;2006-10-24 01:00;METAR CYQF 240100Z 14008KT 15SM SCT100 BKN250 07/M01 A2990 RMK AC3CI2 SLP146=

CYQF;2006-10-24 02:00;METAR CYQF 240200Z 14008KT 15SM SCT100 BKN250 07/M01 A2989 RMK AC3CI2 SLP142=

CYQF;2006-10-24 03:00;METAR CYQF 240300Z 17006KT 15SM SCT100 OVC250 06/00 A2988 RMK AC3CI3 SLP145=

CYQF;2006-10-24 04:00;METAR CYQF 240400Z 16008KT 15SM SCT100 OVC250 06/01 A2984 RMK AC3CI3 SLP134=

CYQF;2006-10-24 05:00;METAR CYQF 240500Z 18005KT 15SM FEW100 BKN250 04/00 A2982 RMK AC2CI2 SLP127=

CYQF;2006-10-24 06:00;METAR CYQF 240600Z 18007KT 15SM SCT250 04/00 A2979 RMK CI2 SLP112=

CYQF;2006-10-24 07:00;METAR CYQF 240700Z 17007KT 15SM FEW250 02/M01 A2977 RMK CI1 SLP105=

CYQF;2006-10-24 08:00;METAR CYQF 240800Z 18005KT 15SM SKC M01/M02 A2975 RMK SLP099=

CYQF;2006-10-24 09:00;METAR CYQF 240900Z 00000KT 15SM FEW250 M01/M02 A2974 RMK CI1 SLP095=

CYQF;2006-10-24 10:00;METAR CYQF 241000Z 20003KT 15SM SKC M02/M04 A2972 RMK SLP091=

CYQF;2006-10-24 11:00;METAR CYQF 241100Z 18004KT 15SM SKC M03/M04 A2969 RMK SLP081=

CYQF;2006-10-24 12:00;METAR CYQF 241200Z 18004KT 15SM SKC M03/M04 A2967 RMK SLP077=

CYQF;2006-10-24 13:00;METAR CYQF 241300Z 20004KT 15SM SKC M03/M04 A2966 RMK SLP071=

CYQF;2006-10-24 14:00;METAR CYQF 241400Z 18006KT 15SM SCT120 BKN250 M03/M05 A2963 RMK AC3CI2 SLP063=

CYQF;2006-10-24 15:00;METAR CYQF 241500Z 00000KT 15SM FEW030 BKN120 BKN250 M02/M03 A2960 RMK SC1AC5CI1 SLP057=

CYQF;2006-10-24 16:00;METAR CYQF 241600Z 00000KT 15SM FEW030 BKN120 BKN250 M01/M04 A2960 RMK SC1AC5CI1 SLP056=

CYQF;2006-10-24 17:00;METAR CYQF 241700Z 00000KT 15SM FEW030 SCT120 BKN250 02/M02 A2958 RMK SC1AC3CI2 SLP051=

CYQF;2006-10-24 18:00;METAR CYQF 241800Z 21003KT 15SM FEW030 FEW100 BKN250 05/M00 A2958 RMK SC1AC2CI2 SLP043=

CYQF;2006-10-24 19:00;METAR CYQF 241900Z 25006KT 15SM FEW040 FEW120 SCT250 11/01 A2956 RMK SC1AC1CI2 SLP037=

CYQF;2006-10-24 20:00;METAR CYQF 242000Z 24010KT 15SM FEW040 FEW250 14/00 A2955 RMK SC1CI1 SLP035=

CYQF;2006-10-24 21:00;METAR CYQF 242100Z 27005KT 15SM FEW040 FEW250 14/M03 A2954 RMK SC1CI1 SLP023=

CYQF;2006-10-24 22:00;METAR CYQF 242200Z 22008KT 15SM FEW070 FEW250 15/M05 A2953 RMK CU1AC1 SLP021=

CYQF;2006-10-24 23:00;METAR CYQF 242300Z 00000KT 15SM FEW070 14/M05 A2952 RMK AC2 SLP019=

CYQF;2006-10-25 00:00;METAR CYQF 250000Z 00000KT 15SM SCT070 11/M04 A2952 RMK AC3 VIRGA SLP025=

CYQF;2006-10-25 01:00;METAR CYQF 250100Z 01007KT 15SM SCT090 09/M03 A2954 RMK AC3 SLP029=

CYQF;2006-10-25 02:00;METAR CYQF 250200Z 33006KT 15SM BKN100 05/M01 A2956 RMK AC5 SLP038=

CYQF;2006-10-25 03:00;METAR CYQF 250300Z 32008KT 15SM SCT100 05/M01 A2959 RMK AC2 SLP056=

CYQF;2006-10-25 04:00;METAR CYQF 250400Z 33006KT 15SM BKN100 04/M01 A2962 RMK AC6 SLP065=

CYQF;2006-10-25 04:36;SPECI CYQF 250436Z 33015G24KT 15SM -SHRA BKN100 RMK AC6=

CYQF;2006-10-25 05:00;METAR CYQF 250500Z 36010G17KT 15SM -SHRA BKN100 05/01 A2966 RMK AC6 SLP078=

CYQF;2006-10-25 05:21;SPECI CYQF 250521Z 36010KT 15SM BKN100 RMK AC6=

CYQF;2006-10-25 06:00;METAR CYQF 250600Z 35006KT 15SM BKN100 05/01 A2968 RMK AC6 SLP076=

CYQF;2006-10-25 07:00;METAR CYQF 250700Z 31003KT 15SM SCT100 03/00 A2971 RMK AC3 SLP085=

CYQF;2006-10-25 08:00;METAR CYQF 250800Z 30005KT 15SM FEW100 01/M01 A2974 RMK AC2 SLP094=

CYQF;2006-10-25 09:00;METAR CYQF 250900Z 31007KT 15SM SKC M00/M02 A2976 RMK SLP101=

CYQF;2006-10-25 10:00;METAR CYQF 251000Z 30005KT 15SM SKC M00/M02 A2978 RMK SLP107=

CYQF;2006-10-25 11:00;METAR CYQF 251100Z 28004KT 15SM SKC M03/M05 A2980 RMK SLP113=

CYQF;2006-10-25 12:00;METAR CYQF 251200Z 27005KT 15SM SKC M02/M04 A2982 RMK SLP128=

CYQF;2006-10-25 13:00;METAR CYQF 251300Z 27008KT 15SM SKC M01/M03 A2985 RMK SLP138=

CYQF;2006-10-25 14:00;METAR CYQF 251400Z 29004KT 15SM SCT090 M01/M04 A2986 RMK AC3 FEW ACC SLP142=

CYQF;2006-10-25 15:00;METAR CYQF 251500Z 22005KT 15SM SCT090 M03/M04 A2989 RMK AC2 SLP161=

CYQF;2006-10-25 16:00;METAR CYQF 251600Z 21006KT 15SM BKN080 01/M02 A2992 RMK AC6 SLP169=

CYQF;2006-10-25 17:00;METAR CYQF 251700Z 23008KT 15SM BKN080 03/M01 A2993 RMK AC6 SLP173=

CYQF;2006-10-25 18:00;METAR CYQF 251800Z 20003KT 15SM SCT090 05/M01 A2993 RMK AC3 SLP163=

CYQF;2006-10-25 19:00;METAR CYQF 251900Z 16003KT 15SM FEW070 09/M03 A2991 RMK AC1 SLP158=

CYQF;2006-10-25 20:00;METAR CYQF 252000Z 19007KT 15SM FEW060 FEW250 10/M03 A2991 RMK CU1CI1 SLP157=

CYQF;2006-10-25 21:00;METAR CYQF 252100Z 18010KT 15SM FEW060 FEW250 10/M04 A2988 RMK CU1CI1 SLP147=

CYQF;2006-10-25 22:00;METAR CYQF 252200Z 16012KT 15SM FEW060 SCT250 11/M03 A2987 RMK CU1CI1 SLP144=

CYQF;2006-10-25 23:00;METAR CYQF 252300Z 19007KT 15SM FEW060 SCT120 BKN250 10/M04 A2986 RMK CU1AC2CI0 SLP141=

CYQF;2006-10-26 00:00;METAR CYQF 260000Z 21003KT 15SM FEW090 BKN250 09/M02 A2985 RMK AC1CI2 SLP142=

CYQF;2006-10-26 01:00;METAR CYQF 260100Z 19005KT 15SM SCT250 04/M04 A2984 RMK CI1 SLP137=

CYQF;2006-10-26 02:00;METAR CYQF 260200Z 21006KT 15SM SKC 02/M06 A2984 RMK SLP138=

CYQF;2006-10-26 03:00;METAR CYQF 260300Z 24008KT 15SM SCT250 02/M06 A2984 RMK CI1 SLP143=

CYQF;2006-10-26 04:00;METAR CYQF 260400Z 24009KT 15SM BKN250 03/M06 A2984 RMK CI2 SLP145=

CYQF;2006-10-26 05:00;METAR CYQF 260500Z CCA 23007KT 15SM FEW120 SCT250 00/M06 A2985 RMK AC2CI0 SLP146=

CYQF;2006-10-26 06:00;METAR CYQF 260600Z 22010KT 15SM FEW120 BKN250 01/M05 A2985 RMK AC2CI4 SLP139=

CYQF;2006-10-26 07:00;METAR CYQF 260700Z 19006KT 15SM FEW120 BKN250 01/M05 A2983 RMK AC2CI4 SLP134=

CYQF;2006-10-26 08:00;METAR CYQF 260800Z 22005KT 15SM FEW120 BKN250 03/M04 A2981 RMK AC2CI4 SLP128=

CYQF;2006-10-26 09:00;METAR CYQF 260900Z 18004KT 15SM SCT120 OVC250 04/M04 A2981 RMK AC3CI5 SLP119=

CYQF;2006-10-26 10:00;METAR CYQF 261000Z 21006KT 15SM FEW120 BKN250 03/M03 A2979 RMK AC2CI5 SLP112=

CYQF;2006-10-26 11:00;METAR CYQF 261100Z 19007KT 15SM FEW120 SCT250 03/M04 A2977 RMK AC1CI2 SLP107=

CYQF;2006-10-26 12:00;METAR CYQF 261200Z 24003KT 15SM FEW120 BKN250 01/M04 A2976 RMK AC1CI3 SLP104=

CYQF;2006-10-26 13:00;METAR CYQF 261300Z 23006KT 15SM SCT100 BKN250 05/M03 A2975 RMK AC3CI2 SLP103=

CYQF;2006-10-26 14:00;METAR CYQF 261400Z 24008KT 15SM BKN100 BKN250 05/M03 A2976 RMK AC5CI2 SLP104=

CYQF;2006-10-26 15:00;METAR CYQF 261500Z 19005KT 15SM SCT090 BKN250 05/M04 A2976 RMK AC3CI2 SLP110=

CYQF;2006-10-26 16:00;METAR CYQF 261600Z 00000KT 15SM FEW090 SCT250 06/M03 A2979 RMK AC1CI2 SLP117=

CYQF;2006-10-26 17:00;METAR CYQF 261700Z 24006KT 15SM FEW090 SCT250 09/M01 A2979 RMK AC1CI2 SLP119=

CYQF;2006-10-26 18:00;METAR CYQF 261800Z 29006KT 15SM FEW060 BKN250 12/M01 A2980 RMK SC1CI2 SLP116=

CYQF;2006-10-26 19:00;METAR CYQF 261900Z 02010KT 15SM FEW050 FEW080 BKN250 12/M02 A2981 RMK CU1AC1CI2 SLP120=

CYQF;2006-10-26 20:00;METAR CYQF 262000Z 02015KT 15SM SCT050 SCT080 BKN250 10/M01 A2982 RMK CU3AC1CI1 SLP122=

CYQF;2006-10-26 21:00;METAR CYQF 262100Z 03015G20KT 15SM SCT050 SCT080 BKN250 08/01 A2984 RMK SC2AC1CI2 SLP131=

CYQF;2006-10-26 22:00;METAR CYQF 262200Z 01015KT 15SM FEW040 SCT070 BKN250 06/00 A2987 RMK SC1AC2CI2 SLP140=

CYQF;2006-10-26 23:00;METAR CYQF 262300Z 03010G15KT 15SM BKN030 BKN060 BKN250 04/M00 A2990 RMK SC5SC2CI0 SLP148=

CYQF;2006-10-27 00:00;METAR CYQF 270000Z 06005KT 15SM SCT015 BKN030 BKN070 BKN250 04/00 A2992 RMK SC2SC3AC2CI1 SLP166=

CYQF;2006-10-27 01:00;METAR CYQF 270100Z 00000KT 15SM SCT015 BKN030 03/00 A2993 RMK SC3SC4 SLP170=

CYQF;2006-10-27 02:00;METAR CYQF 270200Z 27002KT 15SM OVC025 03/01 A2997 RMK SC8 SLP183=

CYQF;2006-10-27 02:16;SPECI CYQF 270216Z 31010KT 10SM -SHRA BKN010 OVC025 RMK SC6SC2=

CYQF;2006-10-27 03:00;METAR CYQF 270300Z 26004KT 10SM FEW010 OVC030 03/02 A2999 RMK SC2SC6 SLP188=

CYQF;2006-10-27 04:00;METAR CYQF 270400Z 24008KT 15SM OVC060 03/02 A3001 RMK SC8 SLP192=

CYQF;2006-10-27 05:00;METAR CYQF 270500Z 25007KT 15SM OVC060 03/01 A3002 RMK SC8 SLP196=

CYQF;2006-10-27 06:00;METAR CYQF 270600Z 30010KT 15SM OVC040 05/M03 A3004 RMK SC8 OBS TAKEN +6 SLP195=

CYQF;2006-10-27 07:00;METAR CYQF 270700Z 25005KT 15SM OVC040 02/00 A3005 RMK SC8 SLP200=

CYQF;2006-10-27 08:00;METAR CYQF 270800Z 23009KT 15SM OVC030 02/01 A3007 RMK SC8 SLP205=

CYQF;2006-10-27 09:00;METAR CYQF 270900Z 23016KT 15SM FEW020 OVC050 01/01 A3008 RMK SC1SC7 SLP218=

CYQF;2006-10-27 10:00;METAR CYQF 271000Z CCA 21010G15KT 12SM SCT020 OVC050 01/00 A3010 RMK SC3SC5 SLP223=

CYQF;2006-10-27 11:00;METAR CYQF 271100Z 24010G15KT 4SM -SHRASN BKN020 OVC050 01/00 A3010 RMK SC6SC2 SLP224=

CYQF;2006-10-27 11:35;SPECI CYQF 271135Z 24006KT 2SM -SHRASN BR OVC020 RMK SC8=

CYQF;2006-10-27 12:00;METAR CYQF 271200Z 23005KT 3SM -SHRASN BR OVC020 01/00 A3011 RMK SC8 SLP234=

CYQF;2006-10-27 12:13;SPECI CYQF 271213Z 23005KT 1 1/2SM -SHSN BR OVC015 RMK SN4SC4=

CYQF;2006-10-27 13:00;METAR CYQF 271300Z 23005KT 3/4SM -SHSN BR VV008 00/00 A3013 RMK SN8 /S01/ SLP240=

CYQF;2006-10-27 13:17;SPECI CYQF 271317Z 23003KT 3SM -SHSN BKN010 OVC025 RMK SN2SF4SC2=

CYQF;2006-10-27 13:44;SPECI CYQF 271344Z 22010G15KT 2SM -SHSN BKN008 OVC020 RMK SN2SF4SC2=

CYQF;2006-10-27 14:00;METAR CYQF 271400Z 21013KT 1 1/2SM -SHSN OVC008 00/00 A3012 RMK SN3SF5 SLP237=

CYQF;2006-10-27 14:50;SPECI CYQF 271450Z 21009KT 1 1/2SM -SN OVC007 RMK SN3SF5=

CYQF;2006-10-27 15:00;METAR CYQF 271500Z 22010KT 1 1/2SM -SN OVC007 01/00 A3013 RMK SN4SF4 SLP240=

CYQF;2006-10-27 16:00;METAR CYQF 271600Z 19008KT 1 1/4SM -SN OVC007 01/00 A3014 RMK SN4SF4 SLP244=

CYQF;2006-10-27 16:52;SPECI CYQF 271652Z 21008KT 1 1/2SM -SN BR BKN009 OVC090 RMK FG3SF3AC2=

CYQF;2006-10-27 17:00;METAR CYQF 271700Z 21008KT 1 1/2SM -SN BR BKN009 OVC090 01/01 A3014 RMK FG3SF2AC2 SLP242=

CYQF;2006-10-27 17:38;SPECI CYQF 271738Z 22008KT 1 1/4SM -SN BR BKN006 OVC030 RMK FG3SF3SC2=

CYQF;2006-10-27 18:00;METAR CYQF 271800Z 21008KT 1 1/4SM -SN BR BKN006 OVC030 01/01 A3014 RMK FG4SF3SC1 SLP242=

CYQF;2006-10-27 19:00;METAR CYQF 271900Z 20006KT 6SM -SN BR BKN005 OVC012 02/02 A3013 RMK SF6SC2 SLP238=

CYQF;2006-10-27 19:43;SPECI CYQF 271943Z 20010G15KT 8SM -SN FEW005 BKN012 OVC080 RMK SF2SC3AS2 BR PCPN VRY LGT=

CYQF;2006-10-27 20:00;METAR CYQF 272000Z 21010KT 8SM FEW005 BKN012 OVC050 03/02 A3008 RMK SF2SC3SC2 BR SLP224=

CYQF;2006-10-27 21:00;METAR CYQF 272100Z 22012KT 15SM FEW005 BKN040 BKN090 04/02 A3006 RMK SC2SC3AC2 SLP214=

CYQF;2006-10-27 22:00;METAR CYQF 272200Z 22007KT 15SM FEW010 BKN050 BKN090 04/02 A3004 RMK SC2SC4AC2 SLP208=

CYQF;2006-10-27 23:00;METAR CYQF 272300Z 18007KT 15SM FEW010 BKN050 BKN090 04/02 A3003 RMK SC1SC4AC2 SLP205=

CYQF;2006-10-28 00:00;METAR CYQF 280000Z 17006KT 15SM FEW010 BKN050 BKN090 03/01 A3001 RMK SC1SC4AC1 SLP198=

CYQF;2006-10-28 01:00;METAR CYQF 280100Z 18004KT 15SM FEW010 SCT050 01/M00 A2997 RMK SC1SC2 SLP188=

CYQF;2006-10-28 02:00;METAR CYQF 280200Z 00000KT 15SM FEW060 00/M01 A2996 RMK SC2 SLP184=

CYQF;2006-10-28 03:00;METAR CYQF 280300Z 04003KT 15SM FEW060 M01/M01 A2995 RMK SC1 SLP182=

CYQF;2006-10-28 04:00;METAR CYQF 280400Z 00000KT 15SM FEW050 M02/M02 A2994 RMK SC1 SLP179=

CYQF;2006-10-28 05:00;METAR CYQF 280500Z 02004KT 15SM FEW050 M02/M02 A2993 RMK SC2 SLP176=

CYQF;2006-10-28 05:37;SPECI CYQF 280537Z 07005KT 2SM BR OVC009 RMK ST8=

CYQF;2006-10-28 06:00;METAR CYQF 280600Z 07008KT 2SM BR OVC008 00/00 A2993 RMK FG2ST6 SLP172=

CYQF;2006-10-28 06:17;SPECI CYQF 280617Z 07009KT 3SM BR OVC003 RMK ST8=

CYQF;2006-10-28 07:00;METAR CYQF 280700Z 09009KT 3SM BR OVC002 00/M00 A2992 RMK ST8 SLP170=

CYQF;2006-10-28 08:00;METAR CYQF 280800Z CCA 07006KT 3SM BR OVC002 00/M00 A2992 RMK ST8 SLP170=

CYQF;2006-10-28 09:00;METAR CYQF 280900Z 07006KT 3SM BR OVC003 M00/M01 A2991 RMK ST8 SLP164=

CYQF;2006-10-28 10:00;METAR CYQF 281000Z CCA 07005KT 3SM BR OVC003 M00/M01 A2991 RMK ST8 OBS TAKEN +15 SLP163=

CYQF;2006-10-28 11:00;METAR CYQF 281100Z 07004KT 10SM BKN006 OVC012 M00/M01 A2989 RMK SF5SC3 SLP158=

CYQF;2006-10-28 12:00;METAR CYQF 281200Z 07003KT 15SM SCT008 OVC018 M00/M01 A2989 RMK SF3SC5 SLP159=

CYQF;2006-10-28 13:00;METAR CYQF 281300Z 06005KT 15SM SCT008 BKN022 M00/M01 A2990 RMK SF3SC4 SLP160=

CYQF;2006-10-28 14:00;METAR CYQF 281400Z 07008KT 15SM SCT008 BKN020 M01/M02 A2989 RMK SF3SC4 SLP159=

CYQF;2006-10-28 15:00;METAR CYQF 281500Z 07006KT 15SM SCT008 BKN020 BKN250 M01/M02 A2989 RMK SF3SC2CI0 SLP165=

CYQF;2006-10-28 15:20;SPECI CYQF 281520Z 06006KT 15SM BKN006 BKN020 RMK SF6SC2=

CYQF;2006-10-28 16:00;METAR CYQF 281600Z 09006KT 15SM OVC006 M01/M02 A2989 RMK SC7 SLP165=

CYQF;2006-10-28 16:48;SPECI CYQF 281648Z 07010KT 15SM OVC011 RMK SC7=

CYQF;2006-10-28 17:00;METAR CYQF 281700Z 08008KT 15SM OVC011 00/M02 A2988 RMK SC8 SLP162=

CYQF;2006-10-28 18:00;METAR CYQF 281800Z 10012KT 15SM BKN016 01/M02 A2985 RMK SC7 SLP147=

CYQF;2006-10-28 19:00;METAR CYQF 281900Z 14008KT 15SM OVC013 02/M02 A2984 RMK SC8 SLP142=

CYQF;2006-10-28 20:00;METAR CYQF 282000Z 15008KT 15SM OVC013 02/M02 A2979 RMK SC8 SLP129=

CYQF;2006-10-28 21:00;METAR CYQF 282100Z 15010KT 15SM BKN013 BKN250 03/M02 A2975 RMK SC6CI0 SLP108=

CYQF;2006-10-28 22:00;METAR CYQF 282200Z 06008KT 15SM BKN015 BKN250 02/M01 A2972 RMK SC6CI0 SLP099=

CYQF;2006-10-28 23:00;METAR CYQF 282300Z 05008KT 15SM BKN015 02/M01 A2971 RMK SC7 SLP097=

CYQF;2006-10-29 00:00;METAR CYQF 290000Z 05013KT 15SM SCT010 OVC020 01/M02 A2970 RMK SC3SC5 SLP094=

CYQF;2006-10-29 01:00;METAR CYQF 290100Z 06012KT 15SM SCT010 OVC030 00/M02 A2968 RMK SC3SC5 SLP088=

CYQF;2006-10-29 02:00;METAR CYQF 290200Z 06015KT 15SM FEW010 OVC030 M00/M02 A2966 RMK SC2SC6 SLP084=

CYQF;2006-10-29 03:00;METAR CYQF 290300Z 04015KT 15SM OVC013 M01/M02 A2967 RMK SC8 SLP086=

CYQF;2006-10-29 04:00;METAR CYQF 290400Z 05012KT 15SM OVC009 M01/M02 A2968 RMK SC8 SLP090=

CYQF;2006-10-29 05:00;METAR CYQF 290500Z 02014KT 15SM OVC006 M01/M02 A2969 RMK SC8 SLP094=

CYQF;2006-10-29 05:31;SPECI CYQF 290531Z 02012KT 2SM -FZDZ SCT004 OVC008 RMK SF3ST5=

CYQF;2006-10-29 06:00;METAR CYQF 290600Z CCA 02011KT 2SM -SN -FZDZ BKN004 OVC008 M02/M02 A2973 RMK SF5ST3 GLAZE ON INDICATOR SLP107=

CYQF;2006-10-29 07:00;METAR CYQF 290700Z CCA 03011KT 2SM -SN BKN006 OVC014 M02/M03 A2976 RMK SF5SC3 OBS TAKEN +7 SLP116=

CYQF;2006-10-29 08:00;METAR CYQF 290800Z 02010KT 1SM -SN VV013 M03/M04 A2977 RMK SN8 SLP119=

CYQF;2006-10-29 09:00;METAR CYQF 290900Z CCA 03015KT 1SM -SN OVC025 M04/M05 A2980 RMK SN4SC4 /S02/ SLP133=

CYQF;2006-10-29 10:00;METAR CYQF 291000Z 02010KT 1SM -SN VV011 M05/M06 A2984 RMK SN8 OBS TAKEN +12 SLP145=

CYQF;2006-10-29 10:24;SPECI CYQF 291024Z 35014KT 3/4SM -SN VV010 RMK SN8=

CYQF;2006-10-29 11:00;METAR CYQF 291100Z CCA 01013KT 1SM -SN VV010 M05/M07 A2986 RMK SN8 /S03/ SLP150=

CYQF;2006-10-29 12:00;METAR CYQF 291200Z 01011G17KT 1SM -SN VV012 M06/M08 A2987 RMK SN8 SLP162=

CYQF;2006-10-29 13:00;METAR CYQF 291300Z 01014KT 1SM -SN VV012 M07/M08 A2989 RMK SN8 SLP168=

CYQF;2006-10-29 14:00;METAR CYQF 291400Z 01012KT 1SM -SN VV010 M07/M08 A2991 RMK SN8 SLP174=

CYQF;2006-10-29 14:38;SPECI CYQF 291438Z 01010KT 1SM -SN VV006 RMK SN8 OCNL DS=

CYQF;2006-10-29 15:00;METAR CYQF 291500Z 02008KT 1SM -SN VV006 M07/M09 A2993 RMK SN8 /S01/ SLP184=

CYQF;2006-10-29 16:00;METAR CYQF 291600Z 36008KT 1SM -SN VV007 M07/M09 A2996 RMK SN8 SLP193=

CYQF;2006-10-29 16:44;SPECI CYQF 291644Z 01010G15KT 3SM -SN SCT006 OVC012 RMK SN2SF2SC5 OCNL=

CYQF;2006-10-29 17:00;METAR CYQF 291700Z 36012G18KT 3SM -SN DRSN SCT006 OVC012 M08/M09 A2996 RMK SN2SF2SC4 /S02/ SLP195=

CYQF;2006-10-29 17:44;SPECI CYQF 291744Z 36008KT 2SM -SN OVC011 RMK SN4SC4=

CYQF;2006-10-29 18:00;METAR CYQF 291800Z 36009G15KT 2SM -SN DRSN OVC010 M08/M09 A2996 RMK SN4SC4 /S03/ SLP196=

CYQF;2006-10-29 18:28;SPECI CYQF 291828Z 34012G18KT 6SM -SN DRSN FEW006 BKN012 OVC025 RMK SF2SC3SC2=

CYQF;2006-10-29 19:00;METAR CYQF 291900Z 34010G15KT 10SM -SN FEW006 BKN015 OVC025 M08/M10 A2998 RMK SF2SC5SC2 DRSN SLP203=

CYQF;2006-10-29 20:00;METAR CYQF 292000Z 33014G20KT 12SM -SN BKN015 OVC025 M07/M10 A2997 RMK SC5SC3 DRSN SLP200=

CYQF;2006-10-29 21:00;METAR CYQF 292100Z 33010G15KT 15SM BKN015 OVC025 M07/M10 A2998 RMK SC6SC2 DRSN SLP207=

CYQF;2006-10-29 21:43;SPECI CYQF 292143Z 34012G18KT 3SM -SHSN OVC015 RMK SN2SC6 DRSN=

CYQF;2006-10-29 22:00;METAR CYQF 292200Z 35012G20KT 12SM -SHSN BKN015 OVC030 M08/M11 A2998 RMK SC6SC2 DRSN SLP207=

CYQF;2006-10-29 23:00;METAR CYQF 292300Z 33012G18KT 8SM -SHSN BKN018 OVC030 M08/M11 A3000 RMK SC5SC3 DRSN SLP213=

CYQF;2006-10-29 23:32;SPECI CYQF 292332Z 33012G20KT 15SM BKN018 OVC030 RMK SC5SC3 DRSN=

CYQF;2006-10-30 00:00;METAR CYQF 300000Z 34012G20KT 15SM BKN018 OVC030 M08/M12 A3001 RMK SC5SC3 /S01/ DRSN SLP220=

CYQF;2006-10-30 01:00;METAR CYQF 300100Z 34015KT 15SM DRSN OVC025 M08/M12 A3004 RMK SC8 SLP228=

CYQF;2006-10-30 01:16;SPECI CYQF 300116Z 33015KT 12SM -SHSN OVC030 RMK SC8=

CYQF;2006-10-30 02:00;METAR CYQF 300200Z 32014KT 12SM -SHSN DRSN FEW015 OVC040 M08/M12 A3005 RMK SC2SC6 SLP232=

CYQF;2006-10-30 04:00;METAR CYQF 300400Z 34015G20KT 15SM -SN DRSN OVC050 M08/M11 A3007 RMK SC8 SLP241=

CYQF;2006-10-30 05:00;METAR CYQF 300500Z 33015G21KT 15SM -SN DRSN OVC050 M08/M11 A3007 RMK SC8 SLP243=

CYQF;2006-10-30 05:23;SPECI CYQF 300523Z 33015G20KT 15SM DRSN FEW010 OVC050 RMK SC1SC7=

CYQF;2006-10-30 06:00;METAR CYQF 300600Z 33015G21KT 15SM DRSN FEW010 OVC050 M08/M12 A3008 RMK SC1SC7 SLP245=

CYQF;2006-10-30 07:00;METAR CYQF 300700Z 33012G20KT 15SM DRSN FEW010 OVC075 M08/M11 A3009 RMK SC2AC6 SLP248=

CYQF;2006-10-30 08:00;METAR CYQF 300800Z 33014KT 15SM FEW012 OVC070 M08/M12 A3010 RMK SC2AC6 SLP253=

CYQF;2006-10-30 10:00;METAR CYQF 301000Z 29011KT 15SM DRSN FEW012 OVC075 M09/M12 A3013 RMK SC2AC6 SLP261=

CYQF;2006-10-30 10:45;SPECI CYQF 301045Z 30010KT 15SM -SN SCT012 OVC070 RMK SC3AC5=

CYQF;2006-10-30 11:00;METAR CYQF 301100Z 30009KT 15SM -SN SCT012 OVC070 M09/M12 A3013 RMK SC3AC5 SLP263=

CYQF;2006-10-30 11:15;SPECI CYQF 301115Z 30012KT 15SM SCT012 OVC070 RMK SC3AC5=

CYQF;2006-10-30 12:00;METAR CYQF 301200Z 28010KT 15SM FEW012 SCT030 OVC075 M09/M12 A3013 RMK SC2SC2AC5 SLP263=

CYQF;2006-10-30 13:00;METAR CYQF 301300Z 30012KT 15SM FEW012 SCT030 OVC075 M09/M12 A3013 RMK SC1SC2AC5 SLP264=

CYQF;2006-10-30 14:00;METAR CYQF 301400Z 29010KT 15SM FEW012 SCT030 OVC075 M09/M12 A3012 RMK SC1SC2AC5 SLP262=

CYQF;2006-10-30 15:00;METAR CYQF 301500Z 29010KT 15SM SCT075 M09/M13 A3013 RMK AC4 SLP263=

CYQF;2006-10-30 16:00;METAR CYQF 301600Z 28012KT 15SM FEW220 M10/M14 A3012 RMK CI1 SLP262=

CYQF;2006-10-30 17:00;METAR CYQF 301700Z 28012KT 15SM FEW220 M10/M15 A3012 RMK CI0 SLP260=

CYQF;2006-10-30 18:00;METAR CYQF 301800Z 29010KT 15SM FEW220 M09/M15 A3011 RMK CI0 SLP257=

CYQF;2006-10-30 19:00;METAR CYQF 301900Z 29008KT 15SM FEW220 M08/M14 A3010 RMK CI0 SLP253=

CYQF;2006-10-30 20:00;METAR CYQF 302000Z 27006KT 15SM FEW220 M08/M13 A3008 RMK CI0 SLP248=

CYQF;2006-10-30 21:00;METAR CYQF 302100Z 29008KT 15SM SKC M07/M13 A3006 RMK SLP239=

CYQF;2006-10-30 22:00;METAR CYQF 302200Z 27007KT 15SM SKC M06/M12 A3005 RMK SLP233=

CYQF;2006-10-30 23:00;METAR CYQF 302300Z 27006KT 15SM FEW220 M06/M12 A3005 RMK CI1 SLP233=

CYQF;2006-10-31 00:00;METAR CYQF 310000Z 25008KT 15SM SCT220 M08/M13 A3004 RMK CI1 SLP233=

CYQF;2006-10-31 01:00;METAR CYQF 310100Z 25007KT 15SM BKN220 M10/M14 A3004 RMK CI5 SLP231=

CYQF;2006-10-31 02:00;METAR CYQF 310200Z 28005KT 15SM FEW060 BKN220 M10/M13 A3004 RMK SC2CI3 SLP231=

CYQF;2006-10-31 03:00;METAR CYQF 310300Z 25004KT 15SM FEW060 BKN220 M10/M14 A3003 RMK SC2CI2 SLP233=

CYQF;2006-10-31 04:00;METAR CYQF 310400Z 26007KT 15SM FEW050 BKN220 M10/M13 A3003 RMK SC2CI2 SLP231=

CYQF;2006-10-31 05:00;METAR CYQF 310500Z 27007KT 15SM FEW080 BKN220 M10/M13 A3003 RMK AC1CI2 SLP232=

CYQF;2006-10-31 06:00;METAR CYQF 310600Z 27008KT 15SM FEW080 SCT220 M10/M13 A3003 RMK AC1CI2 SLP233=

CYQF;2006-10-31 07:00;METAR CYQF 310700Z 27007KT 15SM FEW080 SCT250 M11/M14 A3003 RMK AC1CI3 SLP233=

CYQF;2006-10-31 08:00;METAR CYQF 310800Z 29010KT 15SM FEW080 SCT250 M09/M13 A3004 RMK AC1CI2 SLP234=

CYQF;2006-10-31 09:00;METAR CYQF 310900Z 30013KT 15SM FEW080 SCT250 M09/M13 A3004 RMK AC1CI3 SLP232=

CYQF;2006-10-31 10:00;METAR CYQF 311000Z 31013KT 15SM FEW080 FEW250 M10/M13 A3004 RMK AC1CI2 SLP233=

CYQF;2006-10-31 11:00;METAR CYQF 311100Z 30012KT 15SM FEW080 FEW250 M10/M13 A3004 RMK AC1CI2 SLP233=

CYQF;2006-10-31 12:00;METAR CYQF 311200Z 30012KT 15SM FEW080 SCT250 M10/M13 A3004 RMK AC1CI2 SLP235=

CYQF;2006-10-31 13:00;METAR CYQF 311300Z 28009KT 15SM FEW080 M10/M13 A3005 RMK AC2 SLP236=

CYQF;2006-10-31 14:00;METAR CYQF 311400Z 29012KT 15SM FEW080 M10/M14 A3005 RMK AC2 SLP238=

CYQF;2006-10-31 15:00;METAR CYQF 311500Z 29013KT 15SM FEW030 FEW080 M09/M12 A3006 RMK SC2AC1 SLP242=

CYQF;2006-10-31 16:00;METAR CYQF 311600Z 29012KT 15SM FEW020 SCT250 M08/M11 A3007 RMK SC1CI1 SLP245=

CYQF;2006-10-31 17:00;METAR CYQF 311700Z 30013KT 15SM FEW020 SCT250 M07/M10 A3008 RMK SC1CI1 SLP248=

CYQF;2006-10-31 18:00;METAR CYQF 311800Z 30013KT 15SM FEW020 SCT250 M05/M09 A3008 RMK SC2CI1 SLP246=

CYQF;2006-10-31 20:00;METAR CYQF 312000Z 30012G20KT 15SM BKN020 M04/M09 A3008 RMK CU5 SLP245=

CYQF;2006-10-31 21:00;METAR CYQF 312100Z 31015G21KT 15SM BKN020 M04/M09 A3008 RMK CU5 SLP243=

CYQF;2006-10-31 22:00;METAR CYQF 312200Z 31014G20KT 15SM SCT020 M03/M09 A3009 RMK CU4 SLP246=

CYQF;2006-10-31 23:00;METAR CYQF 312300Z 31014G22KT 15SM BKN020 M04/M09 A3011 RMK CU6 SLP251=

CYQF;2006-11-01 00:00;METAR CYQF 010000Z 32010G15KT 15SM BKN025 M04/M09 A3012 RMK SC6 SLP256=

CYQF;2006-11-01 01:00;METAR CYQF 010100Z 32010G17KT 15SM BKN030 M04/M09 A3013 RMK SC6 SLP259=

CYQF;2006-11-01 02:00;METAR CYQF 010200Z 32010G15KT 15SM SCT030 M05/M10 A3014 RMK SC3 SLP263=

CYQF;2006-11-01 03:00;METAR CYQF 010300Z 32004KT 15SM FEW030 M07/M11 A3016 RMK SC2 SLP273=

CYQF;2006-11-01 04:00;METAR CYQF 010400Z 29006KT 15SM FEW030 M08/M11 A3017 RMK SC1 SLP276=

CYQF;2006-11-01 05:00;METAR CYQF 010500Z 27003KT 15SM FEW030 SCT250 M11/M13 A3019 RMK SC2CI0 SLP282=

CYQF;2006-11-01 06:00;METAR CYQF 010600Z 29002KT 15SM FEW050 M12/M14 A3020 RMK SC2 SLP289=

CYQF;2006-11-01 07:00;METAR CYQF 010700Z 27004KT 15SM FEW015 SCT050 M12/M14 A3021 RMK SC1SC3 SLP291=

CYQF;2006-11-01 08:00;METAR CYQF 010800Z 27005KT 15SM BKN028 M11/M13 A3023 RMK SC6 SLP297=

CYQF;2006-11-01 09:00;METAR CYQF 010900Z 27004KT 15SM SCT030 M10/M11 A3023 RMK SC4 SLP294=

CYQF;2006-11-01 10:00;METAR CYQF 011000Z 26005KT 15SM BKN026 M10/M11 A3023 RMK SC6 SLP296=

CYQF;2006-11-01 11:00;METAR CYQF 011100Z 27006KT 15SM FEW025 M11/M13 A3024 RMK SC1 SLP297=

CYQF;2006-11-01 12:00;METAR CYQF 011200Z 27006KT 15SM FEW025 M12/M14 A3024 RMK SC1 SLP302=

CYQF;2006-11-01 13:00;METAR CYQF 011300Z 28006KT 15SM SKC M13/M15 A3025 RMK SLP303=

CYQF;2006-11-01 14:00;METAR CYQF 011400Z 00000KT 15SM FEW250 M15/M16 A3025 RMK CI1 SLP304=

CYQF;2006-11-01 15:00;METAR CYQF 011500Z 16003KT 15SM FEW080 SCT250 M14/M15 A3025 RMK AC2CI1 SLP312=

CYQF;2006-11-01 16:00;METAR CYQF 011600Z 21005KT 15SM FEW080 BKN250 M14/M15 A3027 RMK AC2CI2 SLP317=

CYQF;2006-11-01 17:00;METAR CYQF 011700Z 25005KT 15SM FEW100 BKN250 M12/M14 A3028 RMK AC1CI3 SLP319=

CYQF;2006-11-01 18:00;METAR CYQF 011800Z 26006KT 15SM FEW100 BKN250 M10/M13 A3028 RMK AC1CI2 SLP322=

CYQF;2006-11-01 19:00;METAR CYQF 011900Z 27004KT 15SM FEW100 BKN250 M07/M11 A3028 RMK AC1CI2 SLP322=

CYQF;2006-11-01 20:00;METAR CYQF 012000Z 24003KT 15SM FEW030 FEW100 BKN250 M06/M10 A3028 RMK SC1AC1CI1 SLP321=

CYQF;2006-11-01 21:00;METAR CYQF 012100Z 23003KT 15SM FEW030 SCT100 BKN250 M05/M10 A3027 RMK SC1AC2CI1 SLP311=

CYQF;2006-11-01 22:00;METAR CYQF 012200Z 00000KT 15SM FEW030 SCT100 BKN250 M05/M10 A3027 RMK SC1AC4CI1 SLP310=

CYQF;2006-11-01 23:00;METAR CYQF 012300Z 00000KT 15SM FEW100 FEW250 M04/M10 A3026 RMK AC1CI2 SLP308=

CYQF;2006-11-02 00:00;METAR CYQF 020000Z 00000KT 15SM SCT250 M07/M11 A3026 RMK CI2 SLP313=

CYQF;2006-11-02 01:00;METAR CYQF 020100Z 00000KT 15SM FEW250 M09/M12 A3026 RMK CI1 SLP312=

CYQF;2006-11-02 02:00;METAR CYQF 020200Z 16002KT 15SM FEW250 M11/M12 A3025 RMK CI1 SLP311=

CYQF;2006-11-02 03:00;METAR CYQF 020300Z 00000KT 15SM FEW250 M13/M14 A3026 RMK CI0 SLP320=

CYQF;2006-11-02 04:00;METAR CYQF 020400Z 00000KT 15SM FEW250 M13/M14 A3026 RMK CI0 SLP320=

CYQF;2006-11-02 05:00;METAR CYQF 020500Z 00000KT 15SM FEW250 M14/M15 A3026 RMK CI0 SLP321=

CYQF;2006-11-02 06:00;METAR CYQF 020600Z 00000KT 15SM FEW250 M14/M15 A3026 RMK CI0 SLP318=

CYQF;2006-11-02 07:00;METAR CYQF 020700Z 00000KT 15SM SCT250 M13/M15 A3025 RMK CI2 SLP315=

CYQF;2006-11-02 08:00;METAR CYQF 020800Z 00000KT 15SM SCT250 M14/M15 A3024 RMK CI2 SLP311=

CYQF;2006-11-02 09:00;METAR CYQF 020900Z 00000KT 15SM BKN250 M14/M15 A3023 RMK CI3 SLP301=

CYQF;2006-11-02 10:00;METAR CYQF 021000Z 00000KT 15SM BKN250 M13/M14 A3021 RMK CI2 SLP296=

CYQF;2006-11-02 11:00;METAR CYQF 021100Z 00000KT 15SM SCT250 M11/M12 A3021 RMK CI2 SLP294=

CYQF;2006-11-02 12:00;METAR CYQF 021200Z 14005KT 15SM SCT250 M11/M13 A3019 RMK CI2 SLP286=

CYQF;2006-11-02 13:00;METAR CYQF 021300Z 15009KT 15SM SCT250 M12/M13 A3017 RMK CI2 SLP281=

CYQF;2006-11-02 14:00;METAR CYQF 021400Z 14010KT 10SM FEW100 BKN250 M12/M13 A3015 RMK AC2CI6 SLP276=

CYQF;2006-11-02 15:00;METAR CYQF 021500Z 14008KT 10SM BKN250 M12/M13 A3015 RMK CI4 SLP280=

CYQF;2006-11-02 16:00;METAR CYQF 021600Z 15010KT 10SM FEW120 BKN250 M11/M13 A3014 RMK AC1CI4 SLP278=

CYQF;2006-11-02 17:00;METAR CYQF 021700Z 14008KT 10SM FEW120 BKN250 M09/M11 A3013 RMK AC1CI2 SLP273=

CYQF;2006-11-02 18:00;METAR CYQF 021800Z 14012KT 10SM FEW030 FEW120 BKN250 M08/M10 A3011 RMK SC1AC1CI1 SLP263=

CYQF;2006-11-02 19:00;METAR CYQF 021900Z 14013KT 10SM FEW012 SCT250 M07/M10 A3008 RMK SC1CI1 SLP254=

CYQF;2006-11-02 20:00;METAR CYQF 022000Z 14010G15KT 10SM FEW012 SCT250 M06/M10 A3005 RMK SC1CI1 SLP246=

CYQF;2006-11-02 21:00;METAR CYQF 022100Z 13011G18KT 15SM FEW012 BKN250 M05/M10 A3003 RMK SC1CI1 SLP230=

CYQF;2006-11-02 22:00;METAR CYQF 022200Z 12010G16KT 15SM FEW012 BKN250 M05/M09 A3001 RMK SC1CI1 SLP226=

CYQF;2006-11-02 23:00;METAR CYQF 022300Z 13010KT 15SM FEW015 FEW100 BKN250 M06/M10 A3000 RMK SC1AC1CI2 SLP222=

CYQF;2006-11-03 00:00;METAR CYQF 030000Z 14010KT 15SM FEW015 FEW100 BKN250 M07/M11 A2998 RMK SC1AC2CI2 SLP215=

CYQF;2006-11-03 01:00;METAR CYQF 030100Z 13006KT 15SM FEW015 SCT100 BKN250 M07/M11 A2997 RMK SC1AS2CI2 SLP210=

CYQF;2006-11-03 02:00;METAR CYQF 030200Z 13007KT 15SM SCT100 BKN250 M07/M10 A2994 RMK AC4CI2 SLP201=

CYQF;2006-11-03 03:00;METAR CYQF 030300Z 14007KT 15SM BKN028 OVC090 M06/M10 A2993 RMK SC6AC2 SLP195=

CYQF;2006-11-03 04:00;METAR CYQF 030400Z 13012KT 15SM BKN028 OVC090 M06/M09 A2990 RMK SC6AC2 SLP187=

CYQF;2006-11-03 05:00;METAR CYQF 030500Z 12011KT 15SM BKN030 OVC090 M06/M09 A2988 RMK SC6AC2 SLP182=

CYQF;2006-11-03 05:49;SPECI CYQF 030549Z 12011KT 12SM -SN BKN030 OVC090 RMK SC6AC2=

CYQF;2006-11-03 06:00;METAR CYQF 030600Z 13012KT 12SM -SN BKN030 OVC090 M06/M09 A2987 RMK SC6AC2 SLP170=

CYQF;2006-11-03 07:00;METAR CYQF 030700Z 13008KT 10SM -SN BKN015 OVC090 M07/M09 A2984 RMK SC6AC2 OBS TKN H+20 SLP162=

CYQF;2006-11-03 08:00;METAR CYQF 030800Z 13010KT 10SM -SN OVC011 M07/M10 A2982 RMK SC8 SLP156=

CYQF;2006-11-03 09:00;METAR CYQF 030900Z 13009KT 10SM -SN OVC007 M06/M08 A2981 RMK SC8 SLP148=

CYQF;2006-11-03 09:39;SPECI CYQF 030939Z 12008KT 2SM -SN OVC006 RMK SC8=

CYQF;2006-11-03 10:00;METAR CYQF 031000Z 12010KT 3SM -SN BR OVC005 M06/M07 A2978 RMK SC8 SLP139=

CYQF;2006-11-03 11:00;METAR CYQF 031100Z 12007KT 2SM -SN BR VV015 M06/M07 A2976 RMK SN8 SLP133=

CYQF;2006-11-03 11:20;SPECI CYQF 031120Z 12005KT 6SM -SN FEW005 BKN014 OVC100 RMK SF2SC4AC2=

CYQF;2006-11-03 12:00;METAR CYQF 031200Z 14010KT 10SM -SN BKN008 OVC015 M05/M07 A2975 RMK SF6SC2 SLP126=

CYQF;2006-11-03 13:00;METAR CYQF 031300Z 14010KT 6SM BR OVC006 M06/M07 A2975 RMK SC8 SLP125=

CYQF;2006-11-03 14:00;METAR CYQF 031400Z 14010KT 4SM BR OVC005 M06/M06 A2974 RMK SC8 SLP122=

CYQF;2006-11-03 15:00;METAR CYQF 031500Z 15008KT 6SM BR OVC005 M06/M07 A2973 RMK ST8 SLP121=

CYQF;2006-11-03 16:00;METAR CYQF 031600Z 14007KT 6SM BR OVC004 M06/M06 A2972 RMK ST8 SLP118=

CYQF;2006-11-03 17:00;METAR CYQF 031700Z 16007KT 10SM OVC006 M06/M06 A2972 RMK ST8 BR SLP118=

CYQF;2006-11-03 18:00;METAR CYQF 031800Z 12005KT 10SM OVC006 M05/M06 A2973 RMK ST8 BR SLP118=

CYQF;2006-11-03 19:00;METAR CYQF 031900Z 12003KT 12SM OVC007 M05/M07 A2972 RMK ST8 SLP117=

CYQF;2006-11-03 20:00;METAR CYQF 032000Z 10002KT 12SM OVC008 M05/M07 A2972 RMK ST8 SLP116=

CYQF;2006-11-03 21:00;METAR CYQF 032100Z 00000KT 12SM OVC008 M05/M07 A2972 RMK ST8 SLP117=

CYQF;2006-11-03 22:00;METAR CYQF 032200Z 00000KT 10SM OVC008 M05/M07 A2973 RMK ST8 SLP118=

CYQF;2006-11-03 23:00;METAR CYQF 032300Z 05005KT 10SM OVC007 M05/M07 A2974 RMK ST8 SLP122=

CYQF;2006-11-04 00:00;METAR CYQF 040000Z 00000KT 10SM OVC008 M05/M07 A2974 RMK ST8 SLP122=

CYQF;2006-11-04 01:00;METAR CYQF 040100Z 00000KT 10SM OVC008 M05/M07 A2974 RMK ST8 SLP121=

CYQF;2006-11-04 02:00;METAR CYQF 040200Z 00000KT 10SM OVC008 M05/M07 A2975 RMK ST8 SLP123=

CYQF;2006-11-04 03:00;METAR CYQF 040300Z 00000KT 10SM OVC008 M05/M07 A2975 RMK ST8 SLP126=

CYQF;2006-11-04 04:00;METAR CYQF 040400Z 00000KT 10SM -FZDZ OVC009 M05/M06 A2975 RMK ST8 SLP125=

CYQF;2006-11-04 04:11;SPECI CYQF 040411Z 00000KT 8SM -FZRA OVC009 RMK ST8 ICE ON INDICATOR=

CYQF;2006-11-04 04:51;SPECI CYQF 040451Z 00000KT 8SM -FZRA OVC012 RMK ST8=

CYQF;2006-11-04 05:00;METAR CYQF 040500Z 00000KT 8SM -FZRA OVC012 M05/M06 A2975 RMK ST8 SLP124=

CYQF;2006-11-04 05:07;SPECI CYQF 040507Z 00000KT 8SM OVC012 RMK ST8=

CYQF;2006-11-04 06:00;METAR CYQF 040600Z 33002KT 8SM OVC011 M05/M06 A2976 RMK ST8 REFZRA SLP127=

CYQF;2006-11-04 07:00;METAR CYQF 040700Z 36003KT 8SM OVC011 M05/M06 A2976 RMK ST8 SLP129=

CYQF;2006-11-04 08:00;METAR CYQF 040800Z 35003KT 8SM OVC006 M05/M06 A2977 RMK ST8 SLP131=

CYQF;2006-11-04 09:00;METAR CYQF 040900Z 35003KT 8SM OVC007 M05/M06 A2978 RMK ST8 SLP136=

CYQF;2006-11-04 10:00;METAR CYQF 041000Z 00000KT 8SM OVC008 M05/M06 A2979 RMK ST8 MOON DMLY VSBL SLP139=

CYQF;2006-11-04 11:00;METAR CYQF 041100Z 00000KT 8SM OVC006 M05/M06 A2982 RMK ST8 SLP146=

CYQF;2006-11-04 12:00;METAR CYQF 041200Z 00000KT 8SM OVC006 M05/M06 A2982 RMK ST8 SLP149=

CYQF;2006-11-04 14:00;METAR CYQF 041400Z 00000KT 4SM BR OVC004 M05/M06 A2983 RMK ST8 SLP153=

CYQF;2006-11-04 14:25;SPECI CYQF 041425Z 12003KT 2SM BR OVC004 RMK ST8=

CYQF;2006-11-04 15:00;METAR CYQF 041500Z 12004KT 2SM BR OVC004 M05/M06 A2983 RMK ST8 SLP152=

CYQF;2006-11-04 16:00;METAR CYQF 041600Z 14006KT 2SM BR OVC003 M06/M06 A2983 RMK ST8 SLP153=

CYQF;2006-11-04 17:00;METAR CYQF 041700Z 15007KT 2SM BR OVC002 M05/M06 A2982 RMK ST8 SLP149=

CYQF;2006-11-04 18:00;METAR CYQF 041800Z 16007KT 4SM BR BKN004 OVC012 M05/M06 A2980 RMK SF6SC2 SLP142=

CYQF;2006-11-04 19:00;METAR CYQF 041900Z 16009KT 6SM BR BKN005 OVC012 M04/M05 A2979 RMK SF6SC2 SLP137=

CYQF;2006-11-04 20:00;METAR CYQF 042000Z 15012KT 4SM BR OVC005 M04/M05 A2977 RMK ST8 SLP133=

CYQF;2006-11-04 21:00;METAR CYQF 042100Z 17009KT 5SM BR OVC005 M03/M05 A2975 RMK SF7 SLP123=

CYQF;2006-11-04 22:00;METAR CYQF 042200Z 16010KT 5SM BR OVC005 M04/M05 A2973 RMK ST8 SLP116=

CYQF;2006-11-04 23:00;METAR CYQF 042300Z 15007KT 4SM BR OVC005 M03/M04 A2972 RMK ST8 SLP112=

CYQF;2006-11-04 23:23;SPECI CYQF 042323Z 12005KT 5SM BR SCT005 BKN110 RMK ST3AC2=

CYQF;2006-11-05 00:00;METAR CYQF 050000Z 11002KT 6SM BR FEW005 BKN110 M03/M05 A2967 RMK ST2AC4 SLP096=

CYQF;2006-11-05 01:00;METAR CYQF 050100Z 12003KT 10SM BKN110 M03/M05 A2964 RMK AC6 SLP085=

CYQF;2006-11-05 02:00;METAR CYQF 050200Z 12004KT 15SM BKN100 M02/M04 A2960 RMK AC6 SLP073=

CYQF;2006-11-05 03:00;METAR CYQF 050300Z 14002KT 15SM FEW015 BKN100 M02/M04 A2957 RMK SC1AC6 SLP058=

CYQF;2006-11-05 04:00;METAR CYQF 050400Z 00000KT 15SM FEW015 OVC100 M03/M04 A2954 RMK SC1AC6 SLP048=

CYQF;2006-11-05 05:00;METAR CYQF 050500Z 00000KT 15SM FEW015 OVC090 M03/M04 A2953 RMK SC1AC6 SLP046=

CYQF;2006-11-05 06:00;METAR CYQF 050600Z 00000KT 15SM FEW015 OVC090 M03/M04 A2952 RMK SC1AC6 SLP043=

CYQF;2006-11-05 07:00;METAR CYQF 050700Z 00000KT 15SM FEW015 OVC090 M03/M04 A2952 RMK SC2AC5 SLP041=

CYQF;2006-11-05 08:00;METAR CYQF 050800Z 00000KT 15SM FEW015 SCT100 BKN250 M03/M05 A2953 RMK SC1AC2CI0 SLP046=

CYQF;2006-11-05 09:00;METAR CYQF 050900Z 22005KT 12SM FEW100 FEW250 M06/M07 A2954 RMK AC1CI1 SLP050=

CYQF;2006-11-05 10:00;METAR CYQF 051000Z 21005KT 10SM FEW100 M06/M07 A2953 RMK AC2 SLP047=

CYQF;2006-11-05 11:00;METAR CYQF 051100Z 00000KT 10SM FEW100 M08/M09 A2954 RMK AC1 SLP050=

CYQF;2006-11-05 12:00;METAR CYQF 051200Z 25003KT 10SM FEW100 M10/M10 A2955 RMK AC1 FROIN SLP057=

CYQF;2006-11-05 13:00;METAR CYQF 051300Z 20005KT 8SM BKN100 M09/M10 A2956 RMK AC2 SLP061=

CYQF;2006-11-05 14:00;METAR CYQF 051400Z 19004KT 8SM BKN100 M09/M09 A2958 RMK AC2 SLP066=

CYQF;2006-11-05 15:00;METAR CYQF 051500Z 36003KT 8SM FEW090 SCT210 M08/M09 A2962 RMK AC1CI1 VSBY NW-N 5 SLP079=

CYQF;2006-11-05 16:00;METAR CYQF 051600Z 03006KT 4SM BR SCT110 SCT210 M07/M08 A2966 RMK AC2CI1 SLP094=

CYQF;2006-11-05 16:13;SPECI CYQF 051613Z 01008KT 1SM BR BKN110 BKN210 RMK FG3AC2CI1 VIS SE 1/2=

CYQF;2006-11-05 16:24;SPECI CYQF 051624Z 36010KT 1/2SM FZFG VV002 RMK FG8=

CYQF;2006-11-05 17:00;METAR CYQF 051700Z 36011KT 1/2SM FZFG SKC M06/M06 A2971 RMK FG7 SLP107=

CYQF;2006-11-05 17:13;SPECI CYQF 051713Z 36010KT 5/8SM BR SKC RMK FG6=

CYQF;2006-11-05 17:23;SPECI CYQF 051723Z 01007KT 1SM -SN BR SKC RMK FG6=

CYQF;2006-11-05 17:39;SPECI CYQF 051739Z 36004KT 2SM -SN BR BKN110 RMK FG5AC1=

CYQF;2006-11-05 18:00;METAR CYQF 051800Z 35004KT 1 1/2SM -SN BR BKN110 M05/M05 A2973 RMK FG4AC2 SLP114=

CYQF;2006-11-05 19:00;METAR CYQF 051900Z 35005KT 2SM -SN BR BKN004 M04/M04 A2973 RMK SF7 SLP116=

CYQF;2006-11-05 20:00;METAR CYQF 052000Z 00000KT 2SM -SN BR OVC004 M04/M05 A2974 RMK ST8 SLP117=

CYQF;2006-11-05 21:00;METAR CYQF 052100Z 00000KT 2SM BR OVC004 M04/M05 A2975 RMK ST8 SLP125=

CYQF;2006-11-05 22:00;METAR CYQF 052200Z 00000KT 1 1/2SM BR OVC004 M03/M04 A2976 RMK FG3ST5 SLP127=

CYQF;2006-11-05 23:00;METAR CYQF 052300Z 04004KT 1 1/2SM BR OVC004 M04/M04 A2980 RMK FG5ST3 SLP140=

CYQF;2006-11-06 00:00;METAR CYQF 060000Z 35008KT 1 1/2SM BR OVC004 M04/M04 A2985 RMK FG5ST3 SLP162=

CYQF;2006-11-06 00:34;SPECI CYQF 060034Z 01012KT 1 1/2SM -SN BR OVC004 RMK FG4ST4=

CYQF;2006-11-06 01:00;METAR CYQF 060100Z 01007KT 2SM -SN BR BKN004 BKN100 M04/M04 A2986 RMK ST5AC1 SLP166=

CYQF;2006-11-06 01:27;SPECI CYQF 060127Z 33003KT 2SM BR OVC004 RMK ST8=

CYQF;2006-11-06 01:47;SPECI CYQF 060147Z 35003KT 2SM -SN BR OVC004 RMK ST8=

CYQF;2006-11-06 02:00;METAR CYQF 060200Z 35005KT 2SM -SN BR OVC004 M04/M04 A2988 RMK ST8 SLP171=

CYQF;2006-11-06 02:35;SPECI CYQF 060235Z 32003KT 3/4SM BR VV003 RMK FG8=

CYQF;2006-11-06 03:00;METAR CYQF 060300Z 00000KT 1 1/2SM BR OVC004 M04/M05 A2989 RMK ST8 SLP175=

CYQF;2006-11-06 04:00;METAR CYQF 060400Z 00000KT 1 1/2SM BR OVC004 M04/M05 A2987 RMK ST8 SLP171=

CYQF;2006-11-06 05:00;METAR CYQF 060500Z 00000KT 2SM BR OVC006 M04/M05 A2986 RMK ST8 SLP168=

CYQF;2006-11-06 06:00;METAR CYQF 060600Z 00000KT 3/4SM BR VV003 M04/M05 A2987 RMK FG8 SLP164=

CYQF;2006-11-06 06:19;SPECI CYQF 060619Z 00000KT 1/4SM FZFG VV003 RMK FG8=

CYQF;2006-11-06 07:00;METAR CYQF 060700Z 06003KT 1/4SM FZFG VV003 M04/M05 A2985 RMK FG8 SLP158=

CYQF;2006-11-06 08:00;METAR CYQF 060800Z 12006KT 1/4SM FZFG VV003 M04/M05 A2981 RMK FG8 SLP146=

CYQF;2006-11-06 09:00;METAR CYQF 060900Z 12006KT 1/4SM FZFG VV003 M04/M04 A2977 RMK FG8 SLP128=

CYQF;2006-11-06 09:20;SPECI CYQF 060920Z 12010KT 1 1/2SM BR OVC004 RMK ST8=

CYQF;2006-11-06 09:46;SPECI CYQF 060946Z 12006KT 1/4SM FZFG VV003 RMK FG8=

CYQF;2006-11-06 10:00;METAR CYQF 061000Z 12008KT 1/2SM FZFG VV004 M04/M05 A2975 RMK FG8 SLP121=

CYQF;2006-11-06 10:21;SPECI CYQF 061021Z 09008KT 1 1/2SM -SN BR VV006 RMK SN8=

CYQF;2006-11-06 11:00;METAR CYQF 061100Z CCA 11006KT 2 1/2SM -SN OVC003 M05/M05 A2972 RMK ST8 SLP114=

CYQF;2006-11-06 11:30;SPECI CYQF 061130Z 12005KT 4SM -SN BR OVC003 RMK ST8=

CYQF;2006-11-06 12:00;METAR CYQF 061200Z 12005KT 3SM BR OVC004 M05/M05 A2971 RMK ST8 SLP107=

CYQF;2006-11-06 13:00;METAR CYQF 061300Z 07004KT 3SM BR OVC004 M05/M05 A2971 RMK ST8 SLP107=

CYQF;2006-11-06 14:00;METAR CYQF 061400Z 09008KT 3SM BR OVC004 M05/M05 A2969 RMK ST8 SLP102=

CYQF;2006-11-06 15:00;METAR CYQF 061500Z 10008KT 3SM BR OVC004 M04/M06 A2966 RMK ST8 SLP093=

CYQF;2006-11-06 16:00;METAR CYQF 061600Z 06006KT 3SM -SN BR OVC004 M06/M06 A2969 RMK ST8 SLP102=

CYQF;2006-11-06 17:00;METAR CYQF 061700Z 09009KT 3SM -SN BR OVC003 M06/M06 A2967 RMK ST8 SLP096=

CYQF;2006-11-06 18:00;METAR CYQF 061800Z 09007KT 2SM -SN BR OVC003 M06/M06 A2967 RMK ST8 SLP097=

CYQF;2006-11-06 19:00;METAR CYQF 061900Z 09005KT 1 1/2SM -SN BR OVC002 M05/M06 A2966 RMK ST8 SLP092=

CYQF;2006-11-06 20:00;METAR CYQF 062000Z 10005KT 1 1/2SM BR OVC002 M05/M06 A2963 RMK FG3ST5 SLP085=

CYQF;2006-11-06 21:00;METAR CYQF 062100Z 12006KT 2SM BR OVC003 M05/M05 A2963 RMK ST8 SLP080=

CYQF;2006-11-06 22:00;METAR CYQF 062200Z 12007KT 2SM BR OVC004 M04/M05 A2959 RMK ST8 SLP070=

CYQF;2006-11-06 23:00;METAR CYQF 062300Z 12009KT 2SM BR OVC005 M04/M05 A2958 RMK ST8 SLP067=

CYQF;2006-11-07 00:00;METAR CYQF 070000Z 13010KT 1 1/2SM BR OVC002 M04/M04 A2956 RMK ST8 SLP058=

CYQF;2006-11-07 00:29;SPECI CYQF 070029Z 12007KT 3/4SM BR VV002 RMK FG8=

CYQF;2006-11-07 01:00;METAR CYQF 070100Z 11007KT 1/2SM FZFG VV001 M04/M04 A2954 RMK FG8 SLP049=

CYQF;2006-11-07 01:17;SPECI CYQF 070117Z 14007KT 1 1/2SM BR OVC005 RMK ST8=

CYQF;2006-11-07 02:00;METAR CYQF 070200Z 15010KT 2SM BR OVC006 M03/M04 A2951 RMK ST8 SLP042=

CYQF;2006-11-07 02:30;SPECI CYQF 070230Z 14006KT 1 1/2SM -SN BR OVC008 RMK ST8=

CYQF;2006-11-07 03:00;METAR CYQF 070300Z 13003KT 1 1/2SM -SN BR OVC007 M03/M04 A2949 RMK ST8 SLP033=

CYQF;2006-11-07 04:00;METAR CYQF 070400Z 11002KT 2SM -SN BR OVC006 M03/M04 A2945 RMK ST8 SLP019=

CYQF;2006-11-07 05:00;METAR CYQF 070500Z 11005KT 1 1/2SM -SN BR OVC005 M03/M03 A2944 RMK ST8 SLP015=

CYQF;2006-11-07 05:30;SPECI CYQF 070530Z 11005KT 1SM -SN BR OVC004 RMK ST8=

CYQF;2006-11-07 05:46;SPECI CYQF 070546Z 10008KT 3/4SM BR VV003 RMK FG8=

CYQF;2006-11-07 06:00;METAR CYQF 070600Z 11008KT 3/4SM BR VV003 M03/M03 A2943 RMK FG8 SLP012=

CYQF;2006-11-07 07:00;METAR CYQF 070700Z 13008KT 1/2SM FZFG VV003 M03/M03 A2940 RMK FG8 SLP003=

CYQF;2006-11-07 08:00;METAR CYQF 070800Z 15007KT 1/2SM FZFG VV003 M03/M03 A2937 RMK FG8 SLP994=

CYQF;2006-11-07 09:00;METAR CYQF 070900Z 19007KT 3/4SM BR VV004 M03/M03 A2939 RMK FG8 SLP996=

CYQF;2006-11-07 09:45;SPECI CYQF 070945Z 21006KT 1SM BR OVC002 RMK FG4ST4 MOON DMLY VSBL=

CYQF;2006-11-07 10:00;METAR CYQF 071000Z 21007KT 1SM BR VV005 M03/M03 A2936 RMK FG8 SLP989=

CYQF;2006-11-07 10:23;SPECI CYQF 071023Z 21003KT 3/4SM BR VV004 RMK FG8=

CYQF;2006-11-07 10:46;SPECI CYQF 071046Z 24005KT 1/2SM FZFG VV004 RMK FG8=

CYQF;2006-11-07 11:00;METAR CYQF 071100Z 25005KT 1/2SM FZFG VV004 M03/M03 A2938 RMK FG8 SLP993=

CYQF;2006-11-07 12:00;METAR CYQF 071200Z 35007KT 1/2SM FZFG VV004 M03/M04 A2942 RMK FG8 SLP005=

CYQF;2006-11-07 12:10;SPECI CYQF 071210Z 36013KT 1 1/2SM BR VV006 RMK FG8=

CYQF;2006-11-07 12:32;SPECI CYQF 071232Z 36010G15KT 2SM BR FEW003 OVC007 RMK SF2ST6=

CYQF;2006-11-07 13:00;METAR CYQF 071300Z 36011KT 2SM BR FEW003 OVC007 M03/M03 A2945 RMK SF2ST6 SLP014=

CYQF;2006-11-07 13:41;SPECI CYQF 071341Z 36003KT 1SM BR VV005 RMK FG8=

CYQF;2006-11-07 14:00;METAR CYQF 071400Z 35003KT 1SM BR VV005 M03/M03 A2944 RMK FG8 SLP013=

CYQF;2006-11-07 15:00;METAR CYQF 071500Z 23003KT 3/4SM BR VV003 M03/M04 A2943 RMK FG8 SLP010=

CYQF;2006-11-07 15:41;SPECI CYQF 071541Z 24005KT 1/2SM FZFG VV002 RMK FG8=

CYQF;2006-11-07 16:00;METAR CYQF 071600Z 22006KT 1/2SM FZFG VV002 M04/M04 A2944 RMK FG8 SLP011=

CYQF;2006-11-07 17:00;METAR CYQF 071700Z 22006KT 1/2SM FZFG VV003 M04/M04 A2943 RMK FG8 SLP009=

CYQF;2006-11-07 18:00;METAR CYQF 071800Z 22004KT 1/2SM FZFG VV003 M03/M03 A2942 RMK FG8 SLP005=

CYQF;2006-11-07 18:20;SPECI CYQF 071820Z 21005KT 2SM BR SCT005 BKN050 OVC100 RMK ST3SC2AC2=

CYQF;2006-11-07 18:32;SPECI CYQF 071832Z 18004KT 3SM BR FEW005 FEW050 BKN100 BKN210 RMK SF2SC1AC2CI1=

CYQF;2006-11-07 19:00;METAR CYQF 071900Z 19003KT 3SM BR FEW005 SCT100 BKN210 M02/M02 A2940 RMK SF2AC2CI1 SLP999=

CYQF;2006-11-07 20:00;METAR CYQF 072000Z 00000KT 10SM SCT100 SCT210 M01/M02 A2938 RMK AC2CI0 SLP992=

CYQF;2006-11-07 21:00;METAR CYQF 072100Z 00000KT 10SM FEW120 FEW210 03/M00 A2935 RMK AC2CI0 SLP974=

CYQF;2006-11-07 22:00;METAR CYQF 072200Z 15005KT 15SM FEW120 FEW210 04/00 A2931 RMK AC1CI1 SLP962=

CYQF;2006-11-07 23:00;METAR CYQF 072300Z 20004KT 15SM FEW120 BKN210 03/00 A2930 RMK AC2CI3 SLP960=

CYQF;2006-11-08 00:00;METAR CYQF 080000Z 00000KT 15SM BKN110 BKN210 02/M00 A2929 RMK AC5CI2 SLP956=

CYQF;2006-11-08 01:00;METAR CYQF 080100Z 00000KT 15SM BKN110 BKN210 02/M00 A2925 RMK AC6CI1 SLP943=

CYQF;2006-11-08 02:00;METAR CYQF 080200Z 00000KT 15SM BKN110 OVC210 00/M01 A2926 RMK AC6CI2 SLP944=

CYQF;2006-11-08 03:00;METAR CYQF 080300Z 20010G15KT 15SM BKN080 OVC210 04/00 A2925 RMK AC6CI2 WND SHFT 0249Z VIRGA N SLP938=

CYQF;2006-11-08 05:00;METAR CYQF 080500Z 18009KT 15SM -SHRA BKN040 OVC090 03/01 A2923 RMK SC6AC2 SLP932=

CYQF;2006-11-08 05:29;SPECI CYQF 080529Z 21004KT 15SM SCT040 OVC080 RMK SC4AC4=

CYQF;2006-11-08 05:50;SPECI CYQF 080550Z 34004KT 15SM -SHRA SCT040 OVC080 RMK SC3AC5=

CYQF;2006-11-08 06:00;METAR CYQF 080600Z 36003KT 15SM -SHRA SCT040 OVC080 03/01 A2924 RMK SC3AC5 SLP937=

CYQF;2006-11-08 06:27;SPECI CYQF 080627Z 25004KT 15SM OVC080 RMK AC8=

CYQF;2006-11-08 07:00;METAR CYQF 080700Z 29010KT 15SM OVC080 04/01 A2928 RMK AC8 SLP948=

CYQF;2006-11-08 07:08;SPECI CYQF 080708Z 30013G20KT 15SM -SHRA BKN040 OVC080 RMK SC6AC2=

CYQF;2006-11-08 07:24;SPECI CYQF 080724Z 30015G26KT 15SM FEW040 OVC080 RMK SC2AC6=

CYQF;2006-11-08 07:45;SPECI CYQF 080745Z 32025G36KT 10SM -SHRA OVC012 RMK SC8=

CYQF;2006-11-08 08:00;METAR CYQF 080800Z 32020G26KT 1SM -SHSN VV012 01/00 A2937 RMK SN8 PRESRR SLP978=

CYQF;2006-11-08 08:10;SPECI CYQF 080810Z 32026G35KT 10SM -SHSN OVC080 RMK AC8=

CYQF;2006-11-08 09:00;METAR CYQF 080900Z 33016G24KT 2SM -SHSN FEW005 OVC040 02/M00 A2940 RMK SF2SC6 SLP988=

CYQF;2006-11-08 09:14;SPECI CYQF 080914Z 36015KT 10SM FEW005 OVC040 RMK SF1SC7=

CYQF;2006-11-08 10:00;METAR CYQF 081000Z 33010KT 15SM OVC040 02/00 A2943 RMK SC8 SLP997=

CYQF;2006-11-08 11:00;METAR CYQF 081100Z 31008KT 15SM BKN080 01/M00 A2945 RMK AC6 SLP003=

CYQF;2006-11-08 12:00;METAR CYQF 081200Z 28010KT 15SM FEW080 BKN210 01/M01 A2947 RMK AC2CS3=

CYQF;2006-11-08 13:00;METAR CYQF 081300Z 27008KT 15SM FEW080 OVC210 M00/M01 A2952 RMK AC2CS3 SLP028=

CYQF;2006-11-08 14:00;METAR CYQF 081400Z 29005KT 15SM FEW080 BKN210 M02/M02 A2953 RMK AC2CI2 SLP031=

CYQF;2006-11-08 15:00;METAR CYQF 081500Z 28005KT 15SM FEW100 SCT210 M01/M02 A2956 RMK AC2CI0 SLP045=

CYQF;2006-11-08 16:00;METAR CYQF 081600Z 36005KT 15SM FEW030 BKN090 M00/M02 A2961 RMK SC2AC5 VIRGA SLP059=

CYQF;2006-11-08 16:25;SPECI CYQF 081625Z 03009KT 15SM BKN012 OVC090 RMK ST6AC2 VIRGA=

CYQF;2006-11-08 17:00;METAR CYQF 081700Z 02008KT 3SM -SN BKN012 OVC080 M00/M01 A2964 RMK SF6AC2 SLP070=

CYQF;2006-11-08 17:17;SPECI CYQF 081717Z 04007KT 1SM -SHSN VV009 RMK SN8=

CYQF;2006-11-08 18:00;METAR CYQF 081800Z 04008KT 3/4SM -SN OVC007 M01/M01 A2967 RMK SN3ST5 SLP083=

CYQF;2006-11-08 19:00;METAR CYQF 081900Z 36006KT 1SM -SN OVC010 M01/M02 A2969 RMK SN2ST6 SLP090=

CYQF;2006-11-08 19:33;SPECI CYQF 081933Z 36003KT 1/2SM SN OVC009 RMK SN6ST2 /S01/=

CYQF;2006-11-08 19:42;SPECI CYQF 081942Z 36003KT 1SM -SN OVC012 RMK SN3SC5=

CYQF;2006-11-08 20:00;METAR CYQF 082000Z 03004KT 3SM -SN OVC010 M01/M02 A2971 RMK ST8 SLP096=

CYQF;2006-11-08 21:00;METAR CYQF 082100Z 36008KT 10SM -SN BKN015 OVC030 M02/M04 A2972 RMK SC5SC3 SLP103=

CYQF;2006-11-08 21:36;SPECI CYQF 082136Z 36006KT 2SM -SN OVC015 RMK SC8=

CYQF;2006-11-08 22:00;METAR CYQF 082200Z 35003KT 1 1/2SM -SN OVC010 M02/M04 A2976 RMK ST8 SLP113=

CYQF;2006-11-08 23:00;METAR CYQF 082300Z 33004KT 5SM -SN BKN012 OVC030 M03/M04 A2977 RMK SC6SC2 SLP118=

CYQF;2006-11-09 00:00;METAR CYQF 090000Z 33005KT 10SM FEW015 BKN050 OVC100 M03/M05 A2981 RMK SC1SC6AC2 SLP135=

CYQF;2006-11-09 00:17;SPECI CYQF 090017Z 32005KT 1 1/2SM -SN VV015 RMK SN8=

CYQF;2006-11-09 00:37;SPECI CYQF 090037Z 00000KT 10SM -SHSN FEW015 BKN050 RMK SC1SC4=

CYQF;2006-11-09 01:00;METAR CYQF 090100Z 00000KT 15SM FEW015 BKN050 M05/M06 A2982 RMK SC2SC6 SLP138=

CYQF;2006-11-09 02:00;METAR CYQF 090200Z 35004KT 15SM FEW015 OVC075 M05/M06 A2983 RMK SC1AC7 SLP142=

CYQF;2006-11-09 03:00;METAR CYQF 090300Z 00000KT 15SM BKN075 M05/M06 A2984 RMK AC7 SLP151=

CYQF;2006-11-09 04:00;METAR CYQF 090400Z 05002KT 15SM OVC060 M05/M07 A2986 RMK SC8 SLP157=

CYQF;2006-11-09 05:00;METAR CYQF 090500Z 00000KT 10SM -SN OVC050 M05/M07 A2987 RMK SC8 SLP160=

CYQF;2006-11-09 06:00;METAR CYQF 090600Z 00000KT 4SM -SN OVC045 M05/M07 A2988 RMK SC8 SLP165=

CYQF;2006-11-09 07:00;METAR CYQF 090700Z 07014KT 5SM -SN OVC045 M06/M07 A2989 RMK SC8 SLP167=

CYQF;2006-11-09 08:00;METAR CYQF 090800Z 06006KT 8SM -SN BKN050 M07/M08 A2989 RMK SC7 SLP168=

CYQF;2006-11-09 09:00;METAR CYQF 090900Z 06005KT 8SM -SN OVC070 M07/M08 A2990 RMK AC8 SLP176=

CYQF;2006-11-09 10:00;METAR CYQF 091000Z 08004KT 8SM -SN OVC070 M07/M08 A2991 RMK AC8 SLP178=

CYQF;2006-11-09 10:40;SPECI CYQF 091040Z 09004KT 10SM OVC070 RMK AC8=

CYQF;2006-11-09 11:00;METAR CYQF 091100Z 08004KT 10SM SCT012 OVC060 M07/M09 A2992 RMK SC3SC5 SLP182=

CYQF;2006-11-09 11:27;SPECI CYQF 091127Z 08004KT 5SM -SN SCT012 OVC050 RMK SC4SC4=

CYQF;2006-11-09 12:00;METAR CYQF 091200Z CCA 10005KT 4SM -SN BKN012 OVC050 M07/M09 A2994 RMK SC6SC2 /S01/ SLP189=

CYQF;2006-11-09 13:00;METAR CYQF 091300Z 08004KT 4SM -SN BKN012 OVC050 M07/M09 A2995 RMK SC6SC2 SLP195=

CYQF;2006-11-09 14:00;METAR CYQF 091400Z 11003KT 6SM -SN OVC012 M07/M09 A2997 RMK SC8 SLP200=

CYQF;2006-11-09 15:00;METAR CYQF 091500Z 07004KT 3SM -SN OVC025 M08/M09 A2999 RMK SC8 SLP210=

CYQF;2006-11-09 16:00;METAR CYQF 091600Z 11004KT 3SM -SN OVC030 M08/M09 A3000 RMK SC6 SLP215=

CYQF;2006-11-09 17:00;METAR CYQF 091700Z 14005KT 6SM -SN OVC030 M07/M10 A3002 RMK SC8 SLP219=

CYQF;2006-11-09 18:00;METAR CYQF 091800Z 14005KT 15SM -SN BKN040 M06/M08 A3002 RMK SC7 SLP220=

CYQF;2006-11-09 19:00;METAR CYQF 091900Z 14004KT 15SM -SN BKN060 M06/M08 A3003 RMK SC7 SLP222=

CYQF;2006-11-09 20:00;METAR CYQF 092000Z 12005KT 15SM BKN060 M06/M08 A3002 RMK SC6 SLP221=

CYQF;2006-11-09 21:00;METAR CYQF 092100Z 16005KT 15SM FEW015 BKN060 M06/M08 A3003 RMK SC1SC6 SLP224=

CYQF;2006-11-09 22:00;METAR CYQF NIL=

CYQF;2006-11-09 23:00;METAR CYQF 092300Z 13005KT 15SM BKN012 OVC050 M05/M07 A3004 RMK SC5SC3 SLP228=

CYQF;2006-11-10 00:00;METAR CYQF 100000Z 13008KT 15SM OVC011 M05/M07 A3005 RMK SC8 CIG RAG SLP232=

CYQF;2006-11-10 00:44;SPECI CYQF 100044Z 13010KT 15SM FEW005 OVC010 RMK SF1SC7 CIG RAG=

CYQF;2006-11-10 01:00;METAR CYQF 100100Z 14008KT 15SM FEW005 OVC011 M06/M07 A3006 RMK SF2SC6 CIG RAG SLP236=

CYQF;2006-11-10 02:00;METAR CYQF 100200Z 15009KT 15SM BKN009 OVC022 M06/M07 A3007 RMK SF5SC3 CIG RAG SLP238=

CYQF;2006-11-10 03:00;METAR CYQF 100300Z 16006KT 15SM SCT010 OVC022 M06/M08 A3007 RMK SF3SC5 SLP241=

CYQF;2006-11-10 04:00;METAR CYQF 100400Z 16006KT 15SM SCT008 OVC020 M06/M07 A3008 RMK SF4SC4 SLP242=

CYQF;2006-11-10 05:00;METAR CYQF 100500Z 15011KT 15SM FEW010 OVC022 M06/M08 A3006 RMK SF2SC6 SLP238=

CYQF;2006-11-10 06:00;METAR CYQF 100600Z 15010KT 15SM FEW010 OVC022 M06/M08 A3006 RMK SF2SC6 SLP236=

CYQF;2006-11-10 07:00;METAR CYQF 100700Z 15010KT 15SM OVC025 M06/M08 A3005 RMK SC8 SLP232=

CYQF;2006-11-10 08:00;METAR CYQF 100800Z 16013KT 15SM OVC030 M06/M08 A3005 RMK SC8 SLP231=

CYQF;2006-11-10 08:25;SPECI CYQF 100825Z 15010KT 15SM FEW009 OVC030 RMK SF2SC6=

CYQF;2006-11-10 09:00;METAR CYQF 100900Z 17013KT 15SM SCT009 OVC030 M07/M08 A3005 RMK SF3SC5 SLP229=

CYQF;2006-11-10 10:00;METAR CYQF 101000Z 15012KT 15SM FEW009 OVC033 M07/M08 A3003 RMK SF2SC6 SLP224=

CYQF;2006-11-10 11:00;METAR CYQF 101100Z 16012KT 15SM FEW009 OVC025 M07/M08 A3002 RMK SF1SC7 SLP220=

CYQF;2006-11-10 11:40;SPECI CYQF 101140Z 16012KT 15SM BKN009 OVC020 RMK SC6SC2=

CYQF;2006-11-10 12:00;METAR CYQF 101200Z 16010KT 15SM OVC009 M07/M08 A3002 RMK ST8 SLP219=

CYQF;2006-11-10 13:00;METAR CYQF 101300Z 16011KT 10SM OVC006 M06/M08 A3000 RMK ST8 SLP213=

CYQF;2006-11-10 14:00;METAR CYQF 101400Z 14010KT 6SM BR OVC005 M06/M07 A2996 RMK ST8 SLP202=

CYQF;2006-11-10 15:00;METAR CYQF 101500Z 16012KT 3SM BR OVC005 M06/M07 A2996 RMK ST8 SLP199=

CYQF;2006-11-10 16:00;METAR CYQF 101600Z 17013KT 3SM BR OVC004 M06/M07 A2994 RMK ST8 SLP194=

CYQF;2006-11-10 17:00;METAR CYQF 101700Z 16013KT 3SM BR OVC004 M06/M07 A2990 RMK ST8 SLP182=

CYQF;2006-11-10 18:00;METAR CYQF 101800Z 15012KT 3SM BR OVC004 M05/M06 A2986 RMK ST8 BLN DSAPRD 500 FT SLP166=

CYQF;2006-11-10 19:00;METAR CYQF 101900Z 15013KT 2 1/2SM BR OVC007 M05/M06 A2984 RMK ST8 SLP158=

CYQF;2006-11-10 20:00;METAR CYQF 102000Z 15012KT 3SM BR OVC006 M05/M06 A2979 RMK ST8 SLP143=

CYQF;2006-11-10 21:00;METAR CYQF 102100Z 15010KT 3SM BR OVC008 M05/M06 A2974 RMK ST8 SLP122=

CYQF;2006-11-10 22:00;METAR CYQF 102200Z 13008KT 8SM OVC007 M04/M06 A2970 RMK ST8 SLP111=

CYQF;2006-11-10 23:00;METAR CYQF 102300Z 15008KT 8SM OVC008 M04/M05 A2967 RMK ST8 SLP100=

CYQF;2006-11-10 23:10;SPECI CYQF 102310Z 13008KT 8SM SCT005 OVC013 RMK ST4SC4=

CYQF;2006-11-11 00:00;METAR CYQF 110000Z 15006KT 10SM SCT008 OVC013 M04/M05 A2964 RMK ST4SC4 SLP086=

CYQF;2006-11-11 01:00;METAR CYQF 110100Z 00000KT 15SM SCT008 OVC050 M04/M05 A2959 RMK ST3SC5 SLP072=

CYQF;2006-11-11 02:00;METAR CYQF 110200Z 10006KT 15SM FEW008 OVC080 M04/M05 A2956 RMK ST1AC7 SLP062=

CYQF;2006-11-11 03:00;METAR CYQF 110300Z 12004KT 15SM FEW008 FEW080 M05/M06 A2953 RMK ST1AC1 SLP047=

CYQF;2006-11-11 04:00;METAR CYQF 110400Z 02005KT 10SM VCFG FEW080 BKN210 M06/M06 A2950 RMK AC1CI0 VIS N-NE 1 SLP040=

CYQF;2006-11-11 04:15;SPECI CYQF 110415Z 00000KT 1SM BR FEW080 BKN210 RMK FG3AC1CI0=

CYQF;2006-11-11 04:27;SPECI CYQF 110427Z 35005KT 1/2SM FZFG SKC RMK FG6=

CYQF;2006-11-11 05:00;METAR CYQF 110500Z 34003KT 1/2SM FZFG SKC M07/M08 A2949 RMK FG6 SLP035=

CYQF;2006-11-11 05:41;SPECI CYQF 110541Z 34006KT 3SM BR OVC006 RMK ST8=

CYQF;2006-11-11 06:00;METAR CYQF 110600Z 34005KT 5SM BR OVC005 M08/M08 A2949 RMK ST8 SLP036=

CYQF;2006-11-11 07:00;METAR CYQF 110700Z 31003KT 2SM BR OVC005 M05/M06 A2949 RMK ST8 SLP036=

CYQF;2006-11-11 08:00;METAR CYQF 110800Z 33004KT 2SM BR OVC004 M05/M05 A2949 RMK ST8 SLP038=

CYQF;2006-11-11 09:00;METAR CYQF 110900Z 34008KT 2SM BR OVC004 M04/M05 A2949 RMK ST8 SLP032=

CYQF;2006-11-11 10:00;METAR CYQF 111000Z 34007KT 2SM BR OVC004 M04/M05 A2950 RMK ST8 SLP035=

CYQF;2006-11-11 11:00;METAR CYQF 111100Z 33011KT 2SM BR OVC005 M04/M05 A2950 RMK ST8 SLP037=

CYQF;2006-11-11 12:00;METAR CYQF 111200Z 32007KT 2SM BR OVC005 M05/M05 A2952 RMK ST8 SLP041=

CYQF;2006-11-11 13:00;METAR CYQF 111300Z 33010KT 2SM BR OVC005 M05/M06 A2954 RMK ST8 SLP048=

CYQF;2006-11-11 13:12;SPECI CYQF 111312Z 32008KT 2SM -SN BR OVC004 RMK ST8=

CYQF;2006-11-11 14:00;METAR CYQF 111400Z 34008KT 3SM -SN BR OVC004 M05/M06 A2955 RMK ST8 SLP051=

CYQF;2006-11-11 14:26;SPECI CYQF 111426Z 34008KT 3SM BR OVC004 RMK ST8=

CYQF;2006-11-11 15:00;METAR CYQF 111500Z 34010G15KT 8SM OVC007 M06/M07 A2957 RMK ST8 SLP063=

CYQF;2006-11-11 16:00;METAR CYQF 111600Z 31010KT 8SM OVC008 M05/M06 A2959 RMK ST8 BR SLP069=

CYQF;2006-11-11 17:00;METAR CYQF 111700Z 36006KT 8SM OVC008 M06/M07 A2961 RMK ST8 BR VIS LWR N SLP076=

CYQF;2006-11-11 18:00;METAR CYQF 111800Z 32012KT 12SM FEW008 BKN012 BKN090 M06/M09 A2964 RMK SF2SC3AC2 SLP090=

CYQF;2006-11-11 19:00;METAR CYQF 111900Z 35014KT 15SM FEW015 BKN090 BKN250 M07/M10 A2964 RMK SC2AC3CI2 SLP090=

CYQF;2006-11-11 20:00;METAR CYQF 112000Z 32006KT 15SM FEW015 BKN090 BKN250 M07/M10 A2966 RMK SC2AC3CI1 SLP095=

CYQF;2006-11-11 21:00;METAR CYQF 112100Z 34004KT 15SM BKN025 BKN090 M06/M10 A2966 RMK SC5AC2 SLP095=

CYQF;2006-11-11 22:00;METAR CYQF 112200Z 34006KT 15SM BKN025 BKN090 M06/M09 A2968 RMK SC6AC2 SLP100=

CYQF;2006-11-11 23:00;METAR CYQF 112300Z 34004KT 15SM BKN025 BKN090 M06/M09 A2971 RMK SC6AC2 SLP108=

CYQF;2006-11-12 00:00;METAR CYQF 120000Z 34002KT 12SM BKN025 OVC090 M06/M09 A2972 RMK SC6AC2 SLP115=

CYQF;2006-11-12 01:00;METAR CYQF 120100Z 36005KT 15SM OVC016 M07/M09 A2973 RMK SC8 SLP118=

CYQF;2006-11-12 02:00;METAR CYQF 120200Z 01003KT 15SM OVC015 M07/M09 A2974 RMK SC8 SLP121=

CYQF;2006-11-12 03:00;METAR CYQF 120300Z 00000KT 15SM OVC014 M07/M09 A2975 RMK SC8 SLP125=

CYQF;2006-11-12 04:00;METAR CYQF 120400Z 00000KT 15SM OVC012 M06/M08 A2976 RMK SC8 SLP128=

CYQF;2006-11-12 04:43;SPECI CYQF 120443Z 12005KT 6SM -SN BKN015 OVC025 RMK SC5SC3=

CYQF;2006-11-12 05:00;METAR CYQF 120500Z 12005KT 6SM -SN SCT010 OVC075 M06/M08 A2975 RMK SC4AC4 SLP126=

CYQF;2006-11-12 06:00;METAR CYQF 120600Z 17004KT 15SM FEW010 BKN075 M08/M09 A2975 RMK SC2AC3 SLP130=

CYQF;2006-11-12 07:00;METAR CYQF 120700Z 17005KT 15SM OVC012 M08/M09 A2974 RMK ST8 SLP127=

CYQF;2006-11-12 08:00;METAR CYQF 120800Z 18004KT 10SM OVC010 M07/M08 A2973 RMK ST8 SLP124=

CYQF;2006-11-12 09:00;METAR CYQF 120900Z 18005KT 10SM OVC008 M06/M07 A2973 RMK ST8 SLP120=

CYQF;2006-11-12 10:00;METAR CYQF 121000Z 18010KT 5SM BR OVC007 M06/M07 A2972 RMK ST8 SLP117=

CYQF;2006-11-12 11:00;METAR CYQF 121100Z 18010KT 5SM BR OVC006 M06/M07 A2970 RMK ST8 SLP112=

CYQF;2006-11-12 12:00;METAR CYQF 121200Z 18008KT 5SM BR OVC006 M06/M07 A2969 RMK ST8 SLP106=

CYQF;2006-11-12 13:00;METAR CYQF 121300Z 19006KT 5SM BR OVC006 M06/M07 A2968 RMK ST8 SLP103=

CYQF;2006-11-12 13:44;SPECI CYQF 121344Z 20003KT 5SM BR SCT006 RMK ST4=

CYQF;2006-11-12 14:00;METAR CYQF 121400Z 00000KT 3SM BR SCT006 M08/M08 A2968 RMK ST2 SLP102=

CYQF;2006-11-12 14:12;SPECI CYQF 121412Z 18004KT 1 1/2SM BR SCT006 RMK ST2=

CYQF;2006-11-12 14:28;SPECI CYQF 121428Z 18004KT 1SM BR SCT006 RMK ST2=

CYQF;2006-11-12 14:35;SPECI CYQF 121435Z 19008KT 1/2SM FZFG FEW006 RMK ST2=

CYQF;2006-11-12 14:42;SPECI CYQF 121442Z 20007KT 1/4SM FZFG SCT006 RMK FG2ST1=

CYQF;2006-11-12 14:46;SPECI CYQF 121446Z 19007KT 1/8SM FZFG SKC RMK FG3=

CYQF;2006-11-12 15:00;METAR CYQF 121500Z 19007KT 1/8SM FZFG BKN006 M10/M10 A2967 RMK FG3SF0 SLP106=

CYQF;2006-11-12 15:52;SPECI CYQF 121552Z 20004KT 1/4SM FZFG OVC006 RMK FG6SF2=

CYQF;2006-11-12 16:00;METAR CYQF 121600Z 20003KT 1/4SM FZFG OVC006 M09/M10 A2967 RMK FG3SF3 SLP104=

CYQF;2006-11-12 16:13;SPECI CYQF 121613Z 20003KT 1/2SM FZFG BKN006 RMK FG3SF3=

CYQF;2006-11-12 16:23;SPECI CYQF 121623Z 00000KT 1SM BR BKN006 RMK FG2SF2=

CYQF;2006-11-12 17:00;METAR CYQF 121700Z 20003KT 1 1/2SM BR SCT020 BKN090 BKN250 M09/M10 A2966 RMK FG2SC2AC2CI0 SLP100=

CYQF;2006-11-12 18:00;METAR CYQF 121800Z 00000KT 2SM BR SCT025 BKN090 BKN250 M08/M09 A2965 RMK FG2SC2AC2CI1 SLP096=

CYQF;2006-11-12 18:22;SPECI CYQF 121822Z 00000KT 3SM BR SCT030 BKN090 BKN250 RMK SC3AC3CI1=

CYQF;2006-11-12 20:00;METAR CYQF 122000Z 04002KT 5SM BR BKN030 BKN090 M06/M08 A2960 RMK SC5AC2 VIS LWR NE SLP082=

CYQF;2006-11-12 21:00;METAR CYQF 122100Z 00000KT 6SM BR FEW030 SCT090 BKN250 M05/M08 A2959 RMK SC2AC2CI1 SLP069=

CYQF;2006-11-12 22:00;METAR CYQF 122200Z 00000KT 12SM SCT030 BKN090 BKN250 M05/M08 A2959 RMK SC3AC2CI2 SLP070=

CYQF;2006-11-12 23:00;METAR CYQF 122300Z 12002KT 12SM SCT030 BKN090 M05/M07 A2957 RMK SC4AC3 SLP063=

CYQF;2006-11-13 00:00;METAR CYQF 130000Z 00000KT 15SM FEW030 BKN090 M05/M07 A2956 RMK SC2AC6 SLP058=

CYQF;2006-11-13 01:00;METAR CYQF 130100Z 00000KT 15SM BKN090 M06/M08 A2954 RMK AC6 SLP054=

CYQF;2006-11-13 02:00;METAR CYQF 130200Z 00000KT 15SM SCT090 BKN250 M07/M08 A2953 RMK AC2CI1 SLP049=

CYQF;2006-11-13 03:00;METAR CYQF 130300Z 00000KT 8SM SCT090 M08/M08 A2951 RMK AC2 SLP051=

CYQF;2006-11-13 04:00;METAR CYQF 130400Z 00000KT 3SM BR BKN090 M09/M10 A2948 RMK FG2AC1 SLP042=

CYQF;2006-11-13 05:00;METAR CYQF 130500Z 01004KT 3SM BR BKN210 M09/M09 A2945 RMK FG2CI0 SLP032=

CYQF;2006-11-13 06:00;METAR CYQF 130600Z 00000KT 10SM SCT210 M10/M11 A2942 RMK CI2 SLP019=

CYQF;2006-11-13 07:00;METAR CYQF 130700Z 04005KT 10SM BKN210 M09/M10 A2939 RMK CI4 SLP009=

CYQF;2006-11-13 08:00;METAR CYQF 130800Z 00000KT 10SM SCT210 M11/M12 A2935 RMK CI2 SLP998=

CYQF;2006-11-13 09:00;METAR CYQF 130900Z 36005KT 10SM FEW030 BKN210 M11/M12 A2930 RMK SC2CI4 SLP973=

CYQF;2006-11-13 10:00;METAR CYQF 131000Z 02007KT 8SM FEW030 OVC210 M10/M10 A2926 RMK SC2CI2 SLP961=

CYQF;2006-11-13 11:00;METAR CYQF 131100Z CCA 02006KT 12SM FEW030 BKN100 OVC210 M09/M09 A2922 RMK SC1AS4CI3 MOON DMLY VSBL SLP950=

CYQF;2006-11-13 12:00;METAR CYQF 131200Z 05007KT 15SM SCT030 OVC210 M08/M09 A2919 RMK SC3CI5 SLP933=

CYQF;2006-11-13 13:00;METAR CYQF 131300Z 05008KT 15SM BKN060 OVC210 M08/M08 A2916 RMK SC6CI2 SLP923=

CYQF;2006-11-13 14:00;METAR CYQF 131400Z 05007KT 15SM SCT060 OVC210 M08/M09 A2913 RMK SC4CI2 SLP916=

CYQF;2006-11-13 15:00;METAR CYQF 131500Z 03006KT 4SM BR BKN060 OVC210 M08/M08 A2911 RMK SC6CI2 SLP907=

CYQF;2006-11-13 15:15;SPECI CYQF 131515Z 35002KT 2SM -SN BR BKN017 OVC040 RMK SC6SC2=

CYQF;2006-11-13 15:43;SPECI CYQF 131543Z 35004KT 1SM -SN BR OVC015 RMK SN3SC5=

CYQF;2006-11-13 16:00;METAR CYQF 131600Z 01010KT 1SM -SN BR OVC015 M07/M08 A2910 RMK SN3SC5 SLP906=

CYQF;2006-11-13 17:00;METAR CYQF 131700Z 02008KT 1SM -SN BR OVC010 M07/M08 A2910 RMK SN5SC3 SLP906=

CYQF;2006-11-13 17:19;SPECI CYQF 131719Z 02007KT 3/4SM -SN BR VV010 RMK SN8=

CYQF;2006-11-13 18:00;METAR CYQF 131800Z 35008KT 3/4SM -SN BR VV010 M07/M08 A2910 RMK SN8 /SO2/ SLP906=

CYQF;2006-11-13 19:00;METAR CYQF 131900Z 36007KT 1SM -SN BR VV012 M07/M08 A2911 RMK SN8 SLP908=

CYQF;2006-11-13 19:48;SPECI CYQF 131948Z 35009KT 8SM -SN OVC030 RMK SC8=

CYQF;2006-11-13 20:00;METAR CYQF 132000Z 36008KT 8SM -SN OVC030 M07/M08 A2911 RMK SC8 BR SLP910=

CYQF;2006-11-13 20:34;SPECI CYQF 132034Z 35008KT 8SM OVC030 RMK SC8 BR=

CYQF;2006-11-13 21:00;METAR CYQF 132100Z 33008KT 8SM OVC030 M06/M08 A2915 RMK SC8 SLP922=

CYQF;2006-11-13 22:00;METAR CYQF 132200Z 35008KT 12SM OVC030 M07/M09 A2919 RMK SC8 SLP937=

CYQF;2006-11-13 23:00;METAR CYQF 132300Z 35008KT 12SM OVC030 M07/M09 A2922 RMK SC8 SLP946=

CYQF;2006-11-14 00:00;METAR CYQF 140000Z 33012KT 12SM DRSN SCT012 OVC030 M07/M10 A2926 RMK SC3SC5 SLP962=

CYQF;2006-11-14 01:00;METAR CYQF 140100Z 33010KT 8SM -SN SCT012 OVC030 M07/M10 A2928 RMK SC3SC5 SLP968=

CYQF;2006-11-14 01:15;SPECI CYQF 140115Z 31010G15KT 2 1/2SM -SN DRSN FEW012 OVC030 RMK SC2SC6=

CYQF;2006-11-14 01:26;SPECI CYQF 140126Z 31010KT 1SM -SN VV009 RMK SN8=

CYQF;2006-11-14 01:49;SPECI CYQF 140149Z 30010KT 6SM -SN VV020 RMK SN8=

CYQF;2006-11-14 02:00;METAR CYQF 140200Z 31010KT 8SM -SN BKN090 M08/M10 A2931 RMK AC7 SLP977=

CYQF;2006-11-14 02:20;SPECI CYQF 140220Z 32010KT 10SM -SN BKN018 RMK SC6=

CYQF;2006-11-14 03:00;METAR CYQF 140300Z 33010G16KT 15SM SCT018 BKN080 M09/M11 A2933 RMK SC3AC3 SLP986=

CYQF;2006-11-14 04:00;METAR CYQF 140400Z 33010G15KT 15SM FEW020 SCT090 BKN230 M10/M12 A2936 RMK SC2AC2CI2 SLP993=

CYQF;2006-11-14 05:00;METAR CYQF 140500Z 31010KT 15SM BKN015 BKN090 M09/M12 A2938 RMK SC5AC2 SLP000=

CYQF;2006-11-14 06:00;METAR CYQF 140600Z 33014G22KT 15SM OVC016 M08/M11 A2939 RMK SC8 SLP004=

CYQF;2006-11-14 07:00;METAR CYQF 140700Z 30013G22KT 15SM BKN020 M09/M11 A2941 RMK SC7 SLP012=

CYQF;2006-11-14 08:00;METAR CYQF 140800Z 31015G20KT 15SM BKN025 BKN250 M10/M13 A2945 RMK SC6CI2 SLP024=

CYQF;2006-11-14 09:00;METAR CYQF 140900Z CCA 29010G15KT 15SM BKN025 M10/M13 A2947 RMK SC7 SLP036=

CYQF;2006-11-14 10:00;METAR CYQF 141000Z 30010G15KT 15SM BKN020 M11/M14 A2951 RMK SC7 SLP047=

CYQF;2006-11-14 11:00;METAR CYQF 141100Z 30015KT 10SM -SN BKN020 M10/M13 A2955 RMK SC6 SLP058=

CYQF;2006-11-14 12:00;METAR CYQF 141200Z 30015G20KT 8SM -SN BKN015 M10/M12 A2958 RMK SC6 SLP075=

CYQF;2006-11-14 12:21;SPECI CYQF 141221Z 29015G20KT 1 1/2SM -SN BKN015 RMK SC7=

CYQF;2006-11-14 13:00;METAR CYQF 141300Z 32015G20KT 6SM -SN BKN015 M09/M11 A2963 RMK SC7 SLP088=

CYQF;2006-11-14 13:03;SPECI CYQF 141303Z 31015G20KT 4SM -SN BKN015 RMK SC7 VIS VRBL 2-6=

CYQF;2006-11-14 13:23;SPECI CYQF 141323Z 33016G22KT 6SM BLSN SCT015 BKN100 RMK SC4AC1=

CYQF;2006-11-14 13:39;SPECI CYQF 141339Z 32014G21KT 15SM SCT015 SCT100 RMK SC3AC1=

CYQF;2006-11-14 14:00;METAR CYQF 141400Z 31012G20KT 15SM SCT015 SCT100 M09/M12 A2968 RMK SC3AC1 SLP104=

CYQF;2006-11-14 15:00;METAR CYQF 141500Z 33015G25KT 15SM FEW015 SCT100 M09/M11 A2972 RMK SC2AC2 SLP122=

CYQF;2006-11-14 16:00;METAR CYQF 141600Z 33008KT 15SM SCT080 M09/M12 A2977 RMK AC3 SLP137=

CYQF;2006-11-14 17:00;METAR CYQF 141700Z 33010KT 15SM FEW080 FEW210 M08/M11 A2979 RMK AC1CI1 AC TR SLP144=

CYQF;2006-11-14 18:00;METAR CYQF 141800Z 28005KT 15SM SCT210 M07/M10 A2983 RMK CI3 SLP158=

CYQF;2006-11-14 19:00;METAR CYQF 141900Z 28005KT 15SM BKN210 M07/M11 A2985 RMK CI6 SLP165=

CYQF;2006-11-14 20:00;METAR CYQF 142000Z 26004KT 15SM BKN210 M07/M11 A2985 RMK CI7 SLP164=

CYQF;2006-11-14 21:00;METAR CYQF 142100Z 26004KT 15SM BKN210 M07/M11 A2985 RMK CI3 SLP167=

CYQF;2006-11-14 22:00;METAR CYQF 142200Z 18004KT 15SM FEW210 M06/M10 A2986 RMK CI2 BARO READ +17 SLP172=

CYQF;2006-11-14 23:00;METAR CYQF 142300Z 14005KT 15SM SCT210 M06/M11 A2987 RMK CI2 SLP174=

CYQF;2006-11-15 00:00;METAR CYQF 150000Z 16005KT 15SM FEW210 M09/M11 A2986 RMK CI1 SLP174=

CYQF;2006-11-15 01:00;METAR CYQF 150100Z 15005KT 15SM FEW210 M10/M12 A2988 RMK CI1 SLP180=

CYQF;2006-11-15 02:00;METAR CYQF 150200Z 19003KT 15SM FEW250 M10/M12 A2986 RMK CI2 SLP172=

CYQF;2006-11-15 03:00;METAR CYQF 150300Z 18012KT 15SM SCT080 BKN250 M07/M09 A2984 RMK AC3CI3 SLP162=

CYQF;2006-11-15 04:00;METAR CYQF 150400Z 15010KT 15SM SCT080 OVC250 M07/M10 A2983 RMK AC3CI5 SLP157=

CYQF;2006-11-15 05:00;METAR CYQF 150500Z 18005KT 15SM BKN080 OVC250 M07/M10 A2981 RMK AC5CI3 SLP152=

CYQF;2006-11-15 06:00;METAR CYQF 150600Z 18005KT 15SM SCT080 OVC250 M05/M10 A2979 RMK AC4CI4 SLP142=

CYQF;2006-11-15 07:00;METAR CYQF 150700Z 18008KT 15SM SCT080 OVC250 M05/M09 A2977 RMK AC4CI4 SLP136=

CYQF;2006-11-15 08:00;METAR CYQF 150800Z CCA 17007KT 15SM BKN080 OVC250 M04/M08 A2975 RMK AC6CI2 OBS TAKEN +10 SLP128=

CYQF;2006-11-15 09:00;METAR CYQF 150900Z 18009KT 15SM BKN080 OVC250 M03/M08 A2972 RMK AC6CI2 SLP115=

CYQF;2006-11-15 10:00;METAR CYQF 151000Z 18007KT 15SM FEW080 BKN250 M03/M08 A2969 RMK AC2CI2 SLP106=

CYQF;2006-11-15 11:00;METAR CYQF 151100Z 17006KT 15SM FEW080 OVC250 M04/M09 A2966 RMK AC2CI3 SLP097=

CYQF;2006-11-15 12:00;METAR CYQF 151200Z CCA 17006KT 15SM SCT080 OVC250 M02/M08 A2963 RMK AC3CI5 SLP083=

CYQF;2006-11-15 13:00;METAR CYQF 151300Z 19015G20KT 15SM FEW080 OVC250 M01/M07 A2959 RMK AC2CI2 SLP071=

CYQF;2006-11-15 14:00;METAR CYQF 151400Z 18014KT 15SM SCT100 BKN250 00/M07 A2956 RMK AC3CI2 SLP062=

CYQF;2006-11-15 15:00;METAR CYQF 151500Z 18010KT 15SM BKN110 BKN250 M01/M07 A2953 RMK AC5CI1 VIRGA SLP045=

CYQF;2006-11-15 16:00;METAR CYQF 151600Z 18015KT 15SM FEW035 BKN100 01/M06 A2948 RMK SF1AC6 SLP031=

CYQF;2006-11-15 17:00;METAR CYQF 151700Z 18015KT 15SM FEW035 BKN100 OVC250 02/M05 A2943 RMK SF1AC6CI1 SLP015=

CYQF;2006-11-15 18:00;METAR CYQF 151800Z CCA 18015KT 15SM FEW035 BKN100 BKN250 01/M05 A2939 RMK SF1AC6CI1 SLP994=

CYQF;2006-11-15 19:00;METAR CYQF 151900Z 16015KT 15SM FEW035 FEW100 BKN250 02/M05 A2934 RMK SF1AC2CI3 SLP977=

CYQF;2006-11-15 20:00;METAR CYQF 152000Z 17015KT 15SM FEW035 FEW100 BKN250 03/M04 A2928 RMK CF1AC1CI4 ACSL SW SLP958=

CYQF;2006-11-15 21:00;METAR CYQF 152100Z 17020G26KT 15SM FEW035 FEW100 BKN250 05/M03 A2921 RMK CF1AC1CI5 SLP925=

CYQF;2006-11-15 22:00;METAR CYQF 152200Z 16020G26KT 15SM FEW035 SCT100 OVC210 05/M02 A2915 RMK CF1AC2CI5 PRESFR SLP904=

CYQF;2006-11-15 23:00;METAR CYQF 152300Z 16025G30KT 15SM FEW035 SCT100 BKN210 05/M01 A2910 RMK CF1AC2CI4 SLP890=

CYQF;2006-11-16 00:00;METAR CYQF 160000Z 16020G25KT 15SM FEW035 SCT080 BKN200 06/M01 A2907 RMK CF1AC3CI3 SLP875=

CYQF;2006-11-16 01:00;METAR CYQF 160100Z 16013G21KT 15SM FEW030 BKN080 BKN250 05/M01 A2902 RMK SC2AC3CI1 SLP858=

CYQF;2006-11-16 02:00;METAR CYQF 160200Z 16015G22KT 15SM SCT030 BKN080 05/M01 A2899 RMK SC3AC4 SLP850=

CYQF;2006-11-16 03:00;METAR CYQF 160300Z 17014G20KT 15SM FEW030 BKN080 05/M01 A2896 RMK SC2AC4 SLP835=

CYQF;2006-11-16 04:00;METAR CYQF 160400Z 18013G20KT 15SM FEW030 BKN080 BKN250 06/M00 A2895 RMK SC2AC3CI2 SLP832=

CYQF;2006-11-16 05:00;METAR CYQF 160500Z 16013G20KT 15SM FEW030 SCT080 BKN250 05/M01 A2893 RMK SC2AC2CI3 SLP825=

CYQF;2006-11-16 06:00;METAR CYQF 160600Z 22011KT 15SM SCT080 BKN250 05/M01 A2891 RMK AC3CI2 SLP816=

CYQF;2006-11-16 07:00;METAR CYQF 160700Z 20010KT 15SM FEW080 BKN250 05/M01 A2893 RMK AC2CI3 SLP822=

CYQF;2006-11-16 08:00;METAR CYQF 160800Z 18010KT 15SM FEW080 SCT250 04/M01 A2894 RMK AC1CI2 SLP823=

CYQF;2006-11-16 09:00;METAR CYQF 160900Z 22009KT 15SM FEW100 BKN250 05/M01 A2896 RMK AC2CI1 SLP827=

CYQF;2006-11-16 10:00;METAR CYQF 161000Z 23009KT 15SM FEW100 SCT250 05/M02 A2898 RMK AC1CI1 SLP836=

CYQF;2006-11-16 11:00;METAR CYQF 161100Z 25008KT 15SM FEW120 SCT250 05/M02 A2903 RMK AC2CI0 SLP849=

CYQF;2006-11-16 12:00;METAR CYQF 161200Z 27005KT 15SM FEW120 04/M02 A2911 RMK AC2 PRESRR SLP882=

CYQF;2006-11-16 12:02;SPECI CYQF 161202Z 31020G35KT 15SM FEW120 RMK AC2 WND SHFT 1201 PRESRR=

CYQF;2006-11-16 13:00;METAR CYQF 161300Z 34015G25KT 15SM SCT120 03/M02 A2923 RMK AC4 SLP917=

CYQF;2006-11-16 14:00;METAR CYQF 161400Z 33015G20KT 15SM SCT120 02/M02 A2929 RMK AC4 SLP936=

CYQF;2006-11-16 15:00;METAR CYQF 161500Z 34010G15KT 15SM VCSH FEW020 BKN050 01/M04 A2937 RMK SC1SC4 SLP976=

CYQF;2006-11-16 16:00;METAR CYQF 161600Z 36011KT 15SM FEW020 BKN050 M00/M05 A2944 RMK SC1SC4 PRESRR SLP997=

CYQF;2006-11-16 17:00;METAR CYQF 161700Z 34015G20KT 15SM FEW050 FEW080 M00/M06 A2951 RMK SC2AC1 PRESRR SLP018=

CYQF;2006-11-16 18:00;METAR CYQF 161800Z 35010G15KT 15SM FEW050 M00/M07 A2957 RMK SC2 SHS DIST S PRESRR SLP045=

CYQF;2006-11-16 19:00;METAR CYQF 161900Z 32010KT 15SM FEW050 00/M07 A2962 RMK SC1 SHS DIST SE SLP060=

CYQF;2006-11-16 20:00;METAR CYQF 162000Z 35006KT 15SM FEW050 00/M07 A2965 RMK SC1 SLP068=

CYQF;2006-11-16 21:00;METAR CYQF 162100Z 03003KT 15SM FEW050 01/M07 A2967 RMK SC1 SLP080=

CYQF;2006-11-16 22:00;METAR CYQF 162200Z 00000KT 15SM SKC 02/M08 A2970 RMK SLP090=

CYQF;2006-11-16 23:00;METAR CYQF 162300Z 00000KT 15SM SKC 01/M07 A2972 RMK SLP096=

CYQF;2006-11-17 00:00;METAR CYQF 170000Z 17004KT 15SM SKC M02/M06 A2975 RMK SLP110=

CYQF;2006-11-17 01:00;METAR CYQF 170100Z 20007KT 15SM SKC M04/M07 A2978 RMK OBS TAKEN +40 SLP120=

CYQF;2006-11-17 02:00;METAR CYQF 170200Z 17005KT 15SM SKC M04/M07 A2978 RMK SLP122=

CYQF;2006-11-17 03:00;METAR CYQF 170300Z 18007KT 15SM SKC M06/M08 A2978 RMK OBS TAKEN +38 SLP127=

CYQF;2006-11-17 04:00;METAR CYQF 170400Z 21010KT 15SM SKC M05/M07 A2978 RMK SLP128=

CYQF;2006-11-17 05:00;METAR CYQF 170500Z 21004KT 15SM SKC M07/M09 A2979 RMK SLP132=

CYQF;2006-11-17 06:00;METAR CYQF 170600Z 16008KT 15SM SKC M06/M09 A2981 RMK SLP141=

CYQF;2006-11-17 07:00;METAR CYQF 170700Z 00000KT 15SM SKC M05/M10 A2982 RMK SLP144=

CYQF;2006-11-17 08:00;METAR CYQF 170800Z 19005KT 15SM SKC M05/M10 A2982 RMK SLP144=

CYQF;2006-11-17 09:00;METAR CYQF 170900Z 21004KT 15SM SKC M06/M10 A2982 RMK SLP144=

CYQF;2006-11-17 10:00;METAR CYQF 171000Z 17006KT 15SM SKC M04/M10 A2984 RMK SLP148=

CYQF;2006-11-17 11:00;METAR CYQF 171100Z 22006KT 15SM SKC M08/M12 A2985 RMK SLP153=

CYQF;2006-11-17 12:00;METAR CYQF 171200Z 21003KT 15SM FEW100 M07/M11 A2986 RMK AC1 SLP161=

CYQF;2006-11-17 13:00;METAR CYQF 171300Z 00000KT 15SM FEW100 M07/M11 A2987 RMK AC1 SLP166=

CYQF;2006-11-17 14:00;METAR CYQF 171400Z 18008KT 15SM FEW100 M07/M11 A2987 RMK AC1 SLP164=

CYQF;2006-11-17 15:00;METAR CYQF 171500Z 21005KT 15SM FEW100 BKN250 M09/M12 A2988 RMK AC1CI1 SLP177=

CYQF;2006-11-17 16:00;METAR CYQF 171600Z 21007KT 15SM FEW100 BKN250 M05/M10 A2989 RMK AC1CI1 SLP178=

CYQF;2006-11-17 17:00;METAR CYQF 171700Z 12004KT 15SM FEW080 BKN140 BKN250 M02/M08 A2989 RMK AC1AC2CI0 SLP179=

CYQF;2006-11-17 18:00;METAR CYQF 171800Z 14007KT 15SM BKN140 02/M07 A2990 RMK AC3 SLP168=

CYQF;2006-11-17 19:00;METAR CYQF 171900Z 15006KT 15SM BKN140 BKN250 03/M06 A2990 RMK AC2CI0 SLP168=

CYQF;2006-11-17 20:00;METAR CYQF 172000Z 21007KT 15SM BKN120 BKN250 02/M04 A2988 RMK AC3CI1 SLP163=

CYQF;2006-11-17 21:00;METAR CYQF 172100Z 19004KT 15SM BKN120 BKN250 03/M04 A2989 RMK AC2CI1 SLP164=

CYQF;2006-11-17 22:00;METAR CYQF 172200Z 20007KT 15SM FEW120 BKN250 03/M04 A2989 RMK AC2CI2 SLP164=

CYQF;2006-11-17 23:00;METAR CYQF 172300Z 13008KT 15SM SCT120 BKN250 02/M04 A2989 RMK AC2CI1 SLP166=

CYQF;2006-11-18 00:00;METAR CYQF 180000Z 20006KT 15SM FEW120 BKN250 M03/M07 A2990 RMK AC2CI2 SLP177=

CYQF;2006-11-18 01:00;METAR CYQF 180100Z 18006KT 15SM FEW120 SCT250 M04/M08 A2989 RMK AC2CI1 SLP174=

CYQF;2006-11-18 02:00;METAR CYQF 180200Z 18006KT 15SM SKC M03/M08 A2990 RMK SLP175=

CYQF;2006-11-18 03:00;METAR CYQF 180300Z 18003KT 15SM SKC M03/M08 A2990 RMK SLP180=

CYQF;2006-11-18 04:00;METAR CYQF 180400Z 18004KT 15SM SKC M05/M09 A2991 RMK SLP182=

CYQF;2006-11-18 05:00;METAR CYQF 180500Z 21008KT 15SM SKC M07/M10 A2991 RMK SLP183=

CYQF;2006-11-18 06:00;METAR CYQF 180600Z 20004KT 15SM SCT220 M04/M08 A2991 RMK CI2 SLP172=

CYQF;2006-11-18 07:00;METAR CYQF 180700Z 00000KT 15SM OVC220 M05/M08 A2991 RMK CI6 SLP171=

CYQF;2006-11-18 08:00;METAR CYQF 180800Z 23003KT 15SM OVC220 M05/M08 A2990 RMK CI6 SLP167=

CYQF;2006-11-18 09:00;METAR CYQF 180900Z 00000KT 15SM OVC220 M05/M08 A2990 RMK CI6 SLP166=

CYQF;2006-11-18 10:00;METAR CYQF 181000Z 00000KT 15SM SCT100 OVC220 M05/M08 A2990 RMK AC3CI5 SLP167=

CYQF;2006-11-18 11:00;METAR CYQF 181100Z 20006KT 15SM SCT100 OVC220 M04/M07 A2991 RMK AC4CI4 SLP169=

CYQF;2006-11-18 12:00;METAR CYQF 181200Z 25005KT 15SM OVC220 M04/M07 A2993 RMK CI6 SLP181=

CYQF;2006-11-18 13:00;METAR CYQF 181300Z 00000KT 15SM BKN220 M02/M07 A2996 RMK CI3 SLP191=

CYQF;2006-11-18 14:00;METAR CYQF 181400Z 25005KT 15SM FEW100 M03/M08 A2998 RMK AC2 SLP197=

CYQF;2006-11-18 15:00;METAR CYQF 181500Z 26004KT 15SM FEW100 M02/M09 A3002 RMK AC2 SLP211=

CYQF;2006-11-18 16:00;METAR CYQF 181600Z 00000KT 15SM FEW100 M04/M09 A3005 RMK AC1 SLP220=

CYQF;2006-11-18 17:00;METAR CYQF 181700Z 19005KT 15SM FEW210 M02/M07 A3009 RMK CI1 SLP233=

CYQF;2006-11-18 19:00;METAR CYQF 181900Z 14002KT 15SM FEW210 02/M06 A3012 RMK CI1 SLP246=

CYQF;2006-11-18 20:00;METAR CYQF 182000Z 00000KT 15SM SCT210 03/M05 A3014 RMK CI2 SLP251=

CYQF;2006-11-18 21:00;METAR CYQF 182100Z 04002KT 15SM BKN210 03/M05 A3015 RMK CI3 SLP255=

CYQF;2006-11-18 22:00;METAR CYQF 182200Z 07003KT 15SM OVC210 03/M04 A3019 RMK CI5 SLP265=

CYQF;2006-11-18 23:00;METAR CYQF 182300Z 07005KT 15SM OVC210 01/M04 A3018 RMK CI6 SLP264=

CYQF;2006-11-19 00:00;METAR CYQF 190000Z 09004KT 15SM OVC200 M00/M04 A3017 RMK CI6 SLP263=

CYQF;2006-11-19 01:00;METAR CYQF 190100Z 10004KT 15SM SCT200 M01/M05 A3018 RMK CI3 SLP266=

CYQF;2006-11-19 02:00;METAR CYQF 190200Z 14007KT 15SM SCT200 M01/M05 A3018 RMK CI2 SLP268=

CYQF;2006-11-19 03:00;METAR CYQF 190300Z 15012KT 15SM SCT200 M01/M05 A3018 RMK CI2 SLP264=

CYQF;2006-11-19 04:00;METAR CYQF 190400Z 16010G15KT 15SM SCT200 M01/M05 A3016 RMK CI2 SLP259=

CYQF;2006-11-19 05:00;METAR CYQF 190500Z 16010G15KT 15SM FEW200 M00/M06 A3013 RMK CI2 SLP250=

CYQF;2006-11-19 06:00;METAR CYQF 190600Z 18012KT 15SM FEW200 00/M06 A3011 RMK CI2 SLP238=

CYQF;2006-11-19 07:00;METAR CYQF 190700Z 17012KT 15SM FEW200 M01/M06 A3010 RMK CI1 SLP235=

CYQF;2006-11-19 08:00;METAR CYQF 190800Z 18010KT 15SM FEW200 M01/M06 A3008 RMK CI2 SLP227=

CYQF;2006-11-19 09:00;METAR CYQF 190900Z 18012KT 15SM BKN200 M01/M06 A3005 RMK CI3 SLP215=

CYQF;2006-11-19 10:00;METAR CYQF 191000Z 18012KT 15SM OVC200 M01/M06 A3002 RMK CI5 SLP204=

CYQF;2006-11-19 11:00;METAR CYQF 191100Z 18010KT 15SM OVC200 M02/M06 A2998 RMK CI6 SLP193=

CYQF;2006-11-19 12:00;METAR CYQF 191200Z 16010KT 15SM SCT200 M02/M06 A2995 RMK CI2 PRESFR SLP184=

CYQF;2006-11-19 13:00;METAR CYQF 191300Z 16012KT 15SM FEW110 BKN220 M02/M06 A2992 RMK AC2CI2 SLP175=

CYQF;2006-11-19 14:00;METAR CYQF 191400Z 18012KT 15SM SCT110 BKN220 M02/M06 A2989 RMK AC2CI2 SLP168=

CYQF;2006-11-19 15:00;METAR CYQF 191500Z 16012KT 15SM BKN110 BKN210 M02/M06 A2985 RMK AC4CI2 SLP148=

CYQF;2006-11-19 16:00;METAR CYQF 191600Z 18015KT 15SM BKN110 OVC210 M01/M05 A2982 RMK AC6CI2 SLP141=

CYQF;2006-11-19 17:00;METAR CYQF 191700Z 16011KT 15SM BKN100 OVC210 01/M05 A2978 RMK AC6CI2 SLP128=

CYQF;2006-11-19 18:00;METAR CYQF 191800Z 16010G15KT 15SM BKN100 OVC210 01/M04 A2974 RMK AC7CI1 SLP108=

CYQF;2006-11-19 19:00;METAR CYQF 191900Z 18010G15KT 15SM BKN100 OVC200 03/M03 A2970 RMK AC6CI2 ACSL S SLP095=

CYQF;2006-11-19 20:00;METAR CYQF 192000Z 17011G17KT 15SM BKN100 BKN230 03/M02 A2963 RMK AC6CI1 ACSL PRESFR SLP074=

CYQF;2006-11-19 21:00;METAR CYQF 192100Z 18010G18KT 15SM BKN100 BKN210 04/M01 A2959 RMK AC6CI1 ACSL S SLP054=

CYQF;2006-11-19 22:00;METAR CYQF 192200Z 18008KT 15SM SCT100 BKN210 06/M01 A2956 RMK AC3CI3 SLP045=

CYQF;2006-11-19 23:00;METAR CYQF 192300Z 17013KT 15SM SCT100 OVC210 07/M00 A2952 RMK AC2CI6 SLP033=

CYQF;2006-11-20 00:00;METAR CYQF 200000Z 18014KT 15SM SCT100 OVC210 07/00 A2950 RMK AC4CI4 SLP021=

CYQF;2006-11-20 01:00;METAR CYQF 200100Z 17014KT 15SM BKN100 OVC210 07/00 A2947 RMK AC5CI3 SLP013=

CYQF;2006-11-20 02:00;METAR CYQF 200200Z 18014KT 15SM BKN090 OVC210 06/00 A2945 RMK AC6CI2 SLP006=

CYQF;2006-11-20 03:00;METAR CYQF 200300Z 18012KT 15SM BKN090 OVC210 06/00 A2944 RMK AC6CI2 SLP002=

CYQF;2006-11-20 04:00;METAR CYQF 200400Z 19012KT 15SM BKN090 OVC210 06/00 A2943 RMK AC6CI2 SLP999=

CYQF;2006-11-20 05:00;METAR CYQF 200500Z 20012KT 15SM BKN090 OVC210 05/00 A2944 RMK AC6CI2 SLP002=

CYQF;2006-11-20 06:00;METAR CYQF 200600Z 19007KT 15SM BKN090 OVC210 06/M00 A2944 RMK AC6CI2 SLP998=

CYQF;2006-11-20 07:00;METAR CYQF 200700Z 19008KT 15SM BKN090 BKN210 06/M01 A2947 RMK AC6CI2 SLP007=

CYQF;2006-11-20 08:00;METAR CYQF 200800Z 25010G15KT 15SM FEW090 FEW210 07/M00 A2951 RMK AC2CI1 SLP020=

CYQF;2006-11-20 08:44;SPECI CYQF 200844Z 02020G30KT 15SM FEW090 FEW210 RMK AC1CI1 WSHFT 0840=

CYQF;2006-11-20 09:00;METAR CYQF 200900Z 02015G20KT 15SM FEW090 FEW210 03/M02 A2962 RMK AC1CI1 PRESRR SLP059=

CYQF;2006-11-20 10:00;METAR CYQF 201000Z 01010G15KT 15SM FEW090 FEW210 01/M03 A2967 RMK AC1CI1 SLP075=

CYQF;2006-11-20 11:00;METAR CYQF 201100Z 01006KT 15SM FEW100 SCT210 01/M03 A2970 RMK AC2CI1 SLP086=

CYQF;2006-11-20 12:00;METAR CYQF 201200Z 18007KT 15SM FEW100 BKN210 M01/M03 A2974 RMK AC2CI2 SLP101=

CYQF;2006-11-20 13:00;METAR CYQF 201300Z 16005KT 15SM SCT100 BKN210 M00/M03 A2972 RMK AC3CI1 SLP097=

CYQF;2006-11-20 14:00;METAR CYQF 201400Z 00000KT 15SM SCT100 BKN250 M04/M05 A2972 RMK AC3CI2 SLP096=

CYQF;2006-11-20 15:00;METAR CYQF 201500Z 22005KT 15SM SCT100 BKN210 M03/M04 A2973 RMK AC4CI1 SLP103=

CYQF;2006-11-20 16:00;METAR CYQF 201600Z 18006KT 15SM FEW050 BKN090 BKN210 M01/M03 A2974 RMK SC1AC4CI1 SLP107=

CYQF;2006-11-20 17:00;METAR CYQF 201700Z 19008KT 15SM FEW050 FEW090 00/M03 A2974 RMK SC1AC1 SLP107=

CYQF;2006-11-20 18:00;METAR CYQF 201800Z 15010KT 15SM FEW040 FEW090 FEW210 03/M03 A2972 RMK SC1AC1CI1 CI TR SLP094=

CYQF;2006-11-20 19:00;METAR CYQF 201900Z 16016KT 15SM FEW090 FEW210 03/M03 A2970 RMK AC1CI2 SLP088=

CYQF;2006-11-20 20:00;METAR CYQF 202000Z 18010G16KT 15SM BKN090 05/M05 A2970 RMK AC6 SLP087=

CYQF;2006-11-20 21:00;METAR CYQF 202100Z 18008KT 15SM BKN050 BKN090 04/M04 A2970 RMK SC5AC2 SLP088=

CYQF;2006-11-20 22:00;METAR CYQF 202200Z 20007KT 15SM FEW050 FEW090 05/M04 A2969 RMK SC2AC1 VIRGA E SLP086=

CYQF;2006-11-20 23:00;METAR CYQF 202300Z CCA 18007KT 15SM FEW050 FEW090 03/M04 A2969 RMK SC1AC1 VIRGA E SLP086=

CYQF;2006-11-21 00:00;METAR CYQF 210000Z 15005KT 15SM FEW050 02/M04 A2968 RMK SC1 SLP087=

CYQF;2006-11-21 01:00;METAR CYQF 210100Z 20005KT 15SM FEW080 M01/M04 A2970 RMK AC1 SLP093=

CYQF;2006-11-21 02:00;METAR CYQF 210200Z 23003KT 15SM SKC M02/M04 A2969 RMK SLP091=

CYQF;2006-11-21 03:00;METAR CYQF 210300Z 19003KT 15SM SKC M03/M08 A2969 RMK SLP098=

CYQF;2006-11-21 04:00;METAR CYQF 210400Z 17006KT 15SM SKC M02/M06 A2967 RMK SLP093=

CYQF;2006-11-21 05:00;METAR CYQF 210500Z 19010KT 15SM SKC M04/M07 A2966 RMK SLP088=

CYQF;2006-11-21 06:00;METAR CYQF 210600Z 19008KT 15SM SKC M04/M07 A2965 RMK SLP078=

CYQF;2006-11-21 07:00;METAR CYQF 210700Z 17012KT 15SM SKC 01/M05 A2963 RMK SLP074=

CYQF;2006-11-21 08:00;METAR CYQF 210800Z 20010G15KT 15SM SKC M00/M05 A2963 RMK SLP072=

CYQF;2006-11-21 09:00;METAR CYQF 210900Z 19012KT 15SM SKC M01/M06 A2963 RMK SLP067=

CYQF;2006-11-21 10:00;METAR CYQF 211000Z 19010KT 15SM SKC M02/M06 A2961 RMK SLP063=

CYQF;2006-11-21 11:00;METAR CYQF 211100Z 20008KT 15SM SKC M04/M07 A2961 RMK SLP062=

CYQF;2006-11-21 12:00;METAR CYQF 211200Z 19002KT 15SM SKC M05/M08 A2961 RMK SLP069=

CYQF;2006-11-21 13:00;METAR CYQF 211300Z 00000KT 15SM SKC M06/M08 A2962 RMK SLP070=

CYQF;2006-11-21 14:00;METAR CYQF 211400Z 00000KT 15SM SKC M07/M09 A2963 RMK SLP073=

CYQF;2006-11-21 15:00;METAR CYQF 211500Z 00000KT 15SM FEW150 M06/M09 A2962 RMK AC1 SLP077=

CYQF;2006-11-21 16:00;METAR CYQF 211600Z 36008KT 15SM FEW150 SCT250 M08/M10 A2964 RMK AC2CI0 SLP084=

CYQF;2006-11-21 17:00;METAR CYQF 211700Z 05006KT 15SM FEW150 BKN250 M02/M06 A2963 RMK AC2CI1 SLP082=

CYQF;2006-11-21 18:00;METAR CYQF 211800Z 00000KT 15SM FEW040 BKN150 BKN250 01/M04 A2963 RMK SC1AC4CI1 SLP075=

CYQF;2006-11-21 19:00;METAR CYQF 211900Z 00000KT 15SM FEW040 BKN120 BKN250 00/M04 A2962 RMK SC1AC6CI0 SLP071=

CYQF;2006-11-21 20:00;METAR CYQF 212000Z 02008KT 15SM FEW030 BKN100 BKN250 01/M04 A2962 RMK SC1AC5CI1 SLP070=

CYQF;2006-11-21 21:00;METAR CYQF 212100Z 02010G15KT 15SM FEW030 BKN080 M00/M05 A2961 RMK SC1AC6 VIRGA SLP065=

CYQF;2006-11-21 22:00;METAR CYQF 212200Z 03015G20KT 15SM FEW015 BKN030 OVC080 M03/M06 A2959 RMK SF1SC7AC1 VSBY LWR N SLP060=

CYQF;2006-11-21 22:20;SPECI CYQF 212220Z 02015G20KT 6SM BR BKN011 BKN030 OVC080 RMK ST6SC1AC1 VSBY LWR N=

CYQF;2006-11-21 22:48;SPECI CYQF 212248Z 02015G20KT 2SM BR OVC004 RMK ST8 PIREP JS31 ST TOP A040=

CYQF;2006-11-21 23:00;METAR CYQF 212300Z 02020G26KT 2SM BR OVC004 M06/M07 A2958 RMK ST8 SLP057=

CYQF;2006-11-22 01:00;METAR CYQF 220100Z 36012G18KT 1 1/2SM -SN BR OVC003 M08/M09 A2962 RMK ST8 SLP080=

CYQF;2006-11-22 01:39;SPECI CYQF 220139Z 35015KT 1 1/2SM -SN BR SCT007 OVC014 RMK SN3SC1SC4=

CYQF;2006-11-22 02:00;METAR CYQF 220200Z 36010G15KT 1SM -SN BR VV007 M09/M10 A2963 RMK SN8 SLP084=

CYQF;2006-11-22 03:00;METAR CYQF 220300Z CCA 36010G16KT 1SM -SN VV007 M10/M11 A2965 RMK SN8 S01 SLP096=

CYQF;2006-11-22 03:11;SPECI CYQF 220311Z 35010KT 3SM -SN OVC007 RMK SC8=

CYQF;2006-11-22 04:00;METAR CYQF 220400Z 36015G20KT 3SM -SN OVC009 M10/M13 A2968 RMK SC8 SLP107=

CYQF;2006-11-22 04:38;SPECI CYQF 220438Z 01020G25KT 8SM -SN OVC012 RMK SC8=

CYQF;2006-11-22 05:00;METAR CYQF 220500Z 02015G20KT 8SM -SN OVC010 M11/M13 A2969 RMK SC8 SLP108=

CYQF;2006-11-22 05:20;SPECI CYQF 220520Z 36015G20KT 1SM -SN VV014 RMK SN8=

CYQF;2006-11-22 06:00;METAR CYQF 220600Z 36010G15KT 2SM -SN OVC025 M12/M14 A2972 RMK SC8 SLP116=

CYQF;2006-11-22 06:50;SPECI CYQF 220650Z 35010G15KT 5SM -SN SCT020 OVC028 RMK SF4SC4=

CYQF;2006-11-22 07:00;METAR CYQF 220700Z 34010G15KT 6SM -SN SCT020 OVC028 M12/M15 A2973 RMK SF4SC4 SLP118=

CYQF;2006-11-22 08:00;METAR CYQF 220800Z 36012G18KT 10SM -SN OVC024 M12/M15 A2974 RMK SC8 SLP121=

CYQF;2006-11-22 09:00;METAR CYQF 220900Z 36010G15KT 10SM -SN OVC022 M13/M16 A2977 RMK SC8 SLP136=

CYQF;2006-11-22 10:00;METAR CYQF 221000Z 36010KT 15SM -SN BKN020 M14/M16 A2982 RMK SC6 SLP149=

CYQF;2006-11-22 10:37;SPECI CYQF 221037Z 35007KT 15SM SCT020 RMK SC4=

CYQF;2006-11-22 11:00;METAR CYQF 221100Z 36008KT 15SM BKN030 M15/M18 A2985 RMK SC6 SLP158=

CYQF;2006-11-22 12:00;METAR CYQF 221200Z 36008KT 15SM BKN018 M15/M18 A2986 RMK SC6 SLP177=

CYQF;2006-11-22 13:00;METAR CYQF 221300Z 01007KT 15SM BKN025 M15/M18 A2989 RMK SC7 OBS TAKEN +10 SLP186=

CYQF;2006-11-22 14:00;METAR CYQF 221400Z 02008KT 15SM OVC025 M15/M18 A2990 RMK SC8 SLP189=

CYQF;2006-11-22 15:00;METAR CYQF 221500Z 36002KT 15SM OVC025 M15/M18 A2994 RMK SC8 SLP209=

CYQF;2006-11-22 16:00;METAR CYQF 221600Z 03004KT 15SM -SN OVC025 M15/M18 A2996 RMK SC8 SLP215=

CYQF;2006-11-22 17:00;METAR CYQF 221700Z 03003KT 12SM -SN OVC025 M15/M18 A2998 RMK SC8 SLP220=

CYQF;2006-11-22 18:00;METAR CYQF 221800Z 04004KT 15SM -SN OVC025 M14/M17 A2999 RMK SC8 SLP225=

CYQF;2006-11-22 19:00;METAR CYQF 221900Z 00000KT 15SM -SN OVC022 M14/M17 A2998 RMK SC8 SLP223=

CYQF;2006-11-22 20:00;METAR CYQF 222000Z 13004KT 15SM -SN OVC020 M13/M16 A2997 RMK SC8 SLP219=

CYQF;2006-11-22 21:00;METAR CYQF 222100Z 09002KT 15SM OVC020 M12/M16 A2995 RMK SC8 SLP213=

CYQF;2006-11-22 22:00;METAR CYQF 222200Z 12005KT 15SM BKN020 BKN100 M12/M16 A2996 RMK SC6AC2 SLP214=

CYQF;2006-11-22 23:00;METAR CYQF 222300Z 15009KT 15SM BKN020 BKN100 M12/M15 A2995 RMK SC5AC1 SLP210=

CYQF;2006-11-23 00:00;METAR CYQF 230000Z 13005KT 15SM BKN020 OVC100 M13/M15 A2995 RMK SC6AC1 SLP212=

CYQF;2006-11-23 01:00;METAR CYQF 230100Z 15007KT 15SM BKN021 OVC100 M12/M15 A2993 RMK SC7AC1 SLP208=

CYQF;2006-11-23 02:00;METAR CYQF 230200Z 13010G15KT 10SM -SN OVC018 M12/M15 A2993 RMK SC8 SLP207=

CYQF;2006-11-23 03:00;METAR CYQF 230300Z 10008KT 10SM -SN OVC014 M12/M14 A2991 RMK SC8 SLP199=

CYQF;2006-11-23 04:00;METAR CYQF 230400Z 12012KT 15SM -SN OVC016 M12/M14 A2988 RMK SC8 SLP189=

CYQF;2006-11-23 05:00;METAR CYQF 230500Z 13010KT 10SM -SN OVC015 M12/M14 A2989 RMK SC8 SLP193=

CYQF;2006-11-23 06:00;METAR CYQF 230600Z 11010KT 10SM -SN OVC015 M12/M15 A2987 RMK SC8 SLP185=

CYQF;2006-11-23 07:00;METAR CYQF 230700Z 13012KT 10SM -SN OVC015 M12/M15 A2985 RMK SC8 SLP180=

CYQF;2006-11-23 08:00;METAR CYQF 230800Z 12008KT 10SM -SN OVC015 M12/M14 A2983 RMK SC8 SLP172=

CYQF;2006-11-23 09:00;METAR CYQF 230900Z 11013KT 8SM -SN OVC012 M12/M14 A2979 RMK SC8 SLP157=

CYQF;2006-11-23 10:00;METAR CYQF 231000Z 12010KT 8SM -SN OVC010 M13/M14 A2979 RMK SC8 SLP157=

CYQF;2006-11-23 11:00;METAR CYQF 231100Z 11012KT 10SM -SN OVC012 M12/M14 A2976 RMK SC8 SLP145=

CYQF;2006-11-23 11:43;SPECI CYQF 231143Z 12010KT 2SM -SN OVC010 RMK SN3SC5=

CYQF;2006-11-23 12:00;METAR CYQF 231200Z 09007KT 1 1/2SM -SN OVC010 M12/M14 A2972 RMK SN6SC2 SLP130=

CYQF;2006-11-23 12:39;SPECI CYQF 231239Z 07003KT 1SM -SN VV008 RMK SN8=

CYQF;2006-11-23 12:50;SPECI CYQF 231250Z 09005KT 3/4SM -SN VV006 RMK SN8=

CYQF;2006-11-23 13:00;METAR CYQF 231300Z 08003KT 1SM -SN VV006 M13/M14 A2970 RMK SN8 /S01/ SLP126=

CYQF;2006-11-23 14:00;METAR CYQF 231400Z 05005KT 4SM -SN OVC015 M13/M14 A2970 RMK SC8 /S02/ SLP125=

CYQF;2006-11-23 14:23;SPECI CYQF 231423Z 06005KT 1 1/2SM -SN VV010 RMK SN8=

CYQF;2006-11-23 14:42;SPECI CYQF 231442Z 06005KT 8SM -SN OVC024 RMK SC8=

CYQF;2006-11-23 15:00;METAR CYQF 231500Z 06008KT 6SM -SN OVC024 M13/M15 A2969 RMK SC8 SLP119=

CYQF;2006-11-23 16:00;METAR CYQF 231600Z 04007KT 6SM -SN OVC020 M13/M15 A2967 RMK SC8 /S03/ SLP114=

CYQF;2006-11-23 17:00;METAR CYQF 231700Z CCA 04004KT 8SM -SN FEW012 OVC025 M13/M15 A2968 RMK SC2SC6 SLP118=

CYQF;2006-11-23 18:00;METAR CYQF 231800Z 03008KT 8SM -SN OVC021 M14/M16 A2969 RMK SC8 /S04/ SLP121=

CYQF;2006-11-23 19:00;METAR CYQF 231900Z 36008KT 8SM -SN OVC021 M14/M17 A2968 RMK SC8 SLP118=

CYQF;2006-11-23 20:00;METAR CYQF 232000Z 36005KT 10SM -SN OVC020 M15/M17 A2968 RMK SC8 SLP118=

CYQF;2006-11-23 21:00;METAR CYQF 232100Z 32005KT 12SM OVC020 M14/M17 A2970 RMK SC8 SLP125=

CYQF;2006-11-23 22:00;METAR CYQF 232200Z 33007KT 15SM FEW020 BKN050 OVC100 M14/M17 A2972 RMK SC2SC5AC1 SLP131=

CYQF;2006-11-23 23:00;METAR CYQF 232300Z 34008KT 15SM SCT023 OVC050 M14/M17 A2973 RMK SC4SC4 SLP136=

CYQF;2006-11-23 23:24;SPECI CYQF 232324Z 34008KT 10SM -SN SCT023 BKN050 OVC100 RMK SC3SC3AC1=

CYQF;2006-11-23 23:45;SPECI CYQF 232345Z 32005KT 12SM FEW020 BKN080 RMK SC2AC5=

CYQF;2006-11-24 00:00;METAR CYQF 240000Z 30008KT 12SM FEW020 BKN080 M14/M18 A2975 RMK SC2AC5 SLP143=

CYQF;2006-11-24 01:00;METAR CYQF 240100Z 30013KT 15SM FEW080 BKN210 M15/M18 A2976 RMK AC2CI2 SLP147=

CYQF;2006-11-24 02:00;METAR CYQF 240200Z 31010KT 15SM FEW080 SCT210 M15/M19 A2978 RMK AC1CI1 SLP154=

CYQF;2006-11-24 03:00;METAR CYQF 240300Z 32013KT 15SM BKN040 M15/M18 A2978 RMK SC5 SLP156=

CYQF;2006-11-24 04:00;METAR CYQF 240400Z 31008KT 15SM SCT050 M16/M19 A2979 RMK SC3 SLP158=

CYQF;2006-11-24 05:00;METAR CYQF 240500Z 30005KT 15SM FEW050 M17/M20 A2978 RMK SC2 SLP157=

CYQF;2006-11-24 06:00;METAR CYQF 240600Z 28004KT 15SM FEW050 M18/M20 A2981 RMK SC2 SLP169=

CYQF;2006-11-24 07:00;METAR CYQF 240700Z 32008KT 15SM FEW050 M17/M19 A2981 RMK SC2 OBS TAKEN +12 SLP169=

CYQF;2006-11-24 08:00;METAR CYQF 240800Z 32006KT 15SM SCT030 M18/M20 A2981 RMK SC3 SLP170=

CYQF;2006-11-24 09:00;METAR CYQF 240900Z 31012G17KT 15SM FEW030 M17/M20 A2982 RMK SC2 SLP173=

CYQF;2006-11-24 10:00;METAR CYQF 241000Z 31013KT 15SM FEW030 M17/M20 A2982 RMK SC2 SLP174=

CYQF;2006-11-24 11:00;METAR CYQF 241100Z 31013KT 15SM SCT030 M17/M20 A2983 RMK SC3 SLP176=

CYQF;2006-11-24 12:00;METAR CYQF 241200Z 30012G18KT 15SM FEW030 SCT250 M18/M21 A2985 RMK SC2CI2 OBS TAKEN +13 SLP184=

CYQF;2006-11-24 13:00;METAR CYQF 241300Z 30014KT 15SM DRSN FEW030 SCT250 M18/M21 A2987 RMK SC2CI2 SLP190=

CYQF;2006-11-24 14:00;METAR CYQF 241400Z 31012KT 15SM DRSN FEW030 BKN250 M18/M21 A2987 RMK SC2CI2 SLP192=

CYQF;2006-11-24 15:00;METAR CYQF 241500Z 30015G20KT 15SM FEW050 BKN250 M18/M22 A2988 RMK SC2CI2 SLP197=

CYQF;2006-11-24 16:00;METAR CYQF 241600Z 31015G20KT 15SM SCT080 BKN220 M18/M22 A2990 RMK AC2CI2 SLP203=

CYQF;2006-11-24 17:00;METAR CYQF 241700Z 30015G21KT 15SM SCT080 BKN220 M18/M21 A2992 RMK AC2CI2 SLP209=

CYQF;2006-11-24 18:00;METAR CYQF 241800Z 31015G23KT 15SM SCT080 BKN220 M18/M22 A2995 RMK AC2CI3 SLP222=

CYQF;2006-11-24 19:00;METAR CYQF 241900Z 33014KT 2SM -SN BKN080 OVC220 M17/M21 A2995 RMK AC6CI2 SLP225=

CYQF;2006-11-24 20:00;METAR CYQF 242000Z 31012KT 2SM -SN BKN080 OVC220 M17/M21 A2996 RMK AC7CI1 SLP227=

CYQF;2006-11-24 20:35;SPECI CYQF 242035Z 32016KT 4SM -SN BKN080 OVC220 RMK AC5CI2=

CYQF;2006-11-24 21:00;METAR CYQF 242100Z 31012KT 5SM -SN SCT080 OVC220 M17/M21 A2997 RMK AC4CI2 SLP229=

CYQF;2006-11-24 21:35;SPECI CYQF 242135Z 32012KT 10SM FEW080 BKN220 RMK AC2CI2=

CYQF;2006-11-24 22:00;METAR CYQF 242200Z 32006KT 10SM -SN SCT080 BKN220 M17/M22 A2999 RMK AC3CI2 SLP234=

CYQF;2006-11-24 23:00;METAR CYQF 242300Z 34011KT 15SM SCT080 BKN220 M18/M23 A3001 RMK AC3CI2 SLP241=

CYQF;2006-11-25 00:00;METAR CYQF 250000Z 32010KT 15SM SCT080 BKN220 M18/M23 A3004 RMK AC3CI1 SLP255=

CYQF;2006-11-25 01:00;METAR CYQF 250100Z 34011KT 15SM BKN080 BKN220 M18/M24 A3005 RMK AC5CI0 SLP260=

CYQF;2006-11-25 01:36;SPECI CYQF 250136Z 33013KT 10SM -SN BKN100 RMK AC6=

CYQF;2006-11-25 02:00;METAR CYQF 250200Z 33014KT 10SM -SN BKN100 M18/M23 A3006 RMK AC7 SLP261=

CYQF;2006-11-25 03:00;METAR CYQF 250300Z 35008KT 8SM -SN OVC100 M18/M24 A3009 RMK AC8 SLP274=

CYQF;2006-11-25 04:00;METAR CYQF 250400Z 33011KT 8SM -SN OVC090 M18/M24 A3009 RMK AC8 SLP273=

CYQF;2006-11-25 05:00;METAR CYQF 250500Z 36009KT 10SM -SN OVC090 M19/M24 A3009 RMK AC8 SLP275=

CYQF;2006-11-25 06:00;METAR CYQF 250600Z 33009KT 8SM -SN OVC100 M19/M24 A3010 RMK AC8 SLP278=

CYQF;2006-11-25 07:00;METAR CYQF 250700Z 34007KT 6SM -SN OVC080 M19/M24 A3011 RMK AC8 SLP281=

CYQF;2006-11-25 08:00;METAR CYQF 250800Z 33006KT 8SM -SN OVC080 M20/M25 A3012 RMK AC8 SLP282=

CYQF;2006-11-25 09:00;METAR CYQF 250900Z 36006KT 10SM -SN BKN080 M20/M25 A3012 RMK AC7 SLP285=

CYQF;2006-11-25 10:00;METAR CYQF 251000Z 36006KT 10SM -SN BKN080 M21/M25 A3012 RMK AC6 SLP284=

CYQF;2006-11-25 10:45;SPECI CYQF 251045Z 35006KT 15SM BKN090 RMK AC5=

CYQF;2006-11-25 11:00;METAR CYQF 251100Z 35007KT 15SM SCT090 M22/M26 A3012 RMK AC3 SLP285=

CYQF;2006-11-25 12:00;METAR CYQF 251200Z 35004KT 15SM FEW090 M23/M27 A3012 RMK AC2 SLP288=

CYQF;2006-11-25 13:00;METAR CYQF 251300Z 36004KT 15SM FEW090 FEW250 M23/M27 A3012 RMK AC2CI0 SLP290=

CYQF;2006-11-25 14:00;METAR CYQF 251400Z 34003KT 15SM FEW090 BKN250 M24/M28 A3014 RMK AC2CI1 SLP295=

CYQF;2006-11-25 15:00;METAR CYQF 251500Z 36004KT 15SM FEW050 SCT090 BKN250 M24/M28 A3014 RMK SC2AC2CI1 SLP297=

CYQF;2006-11-25 16:00;METAR CYQF 251600Z 00000KT 15SM SCT050 OVC090 M23/M27 A3015 RMK SC3AC4 SLP299=

CYQF;2006-11-25 16:06;SPECI CYQF 251606Z 36003KT 4SM -SN BKN040 OVC090 RMK SC5AC2=

CYQF;2006-11-25 17:00;METAR CYQF 251700Z 01005KT 4SM -SN BKN040 OVC090 M23/M27 A3015 RMK SC5AC2 SLP299=

CYQF;2006-11-25 18:00;METAR CYQF 251800Z 05004KT 1 1/2SM -SN VV015 M22/M27 A3015 RMK SN8 SLP301=

CYQF;2006-11-25 19:00;METAR CYQF 251900Z 00000KT 3SM -SN OVC030 M21/M26 A3014 RMK SN3SC5 SLP297=

CYQF;2006-11-25 20:00;METAR CYQF 252000Z 00000KT 3SM -SN OVC030 M22/M27 A3013 RMK SN3SC5 SLP295=

CYQF;2006-11-25 21:00;METAR CYQF 252100Z 00000KT 3SM -SN BKN030 OVC250 M21/M27 A3012 RMK SN3SC4CI1 /S01/ SLP288=

CYQF;2006-11-25 22:00;METAR CYQF 252200Z 36005KT 2SM -SN OVC030 M21/M26 A3012 RMK SN4SC4 SLP289=

CYQF;2006-11-25 23:00;METAR CYQF 252300Z 36005KT 4SM -SN BKN030 BKN120 M21/M25 A3013 RMK SC5AC2 SLP291=

CYQF;2006-11-26 00:00;METAR CYQF 260000Z 35004KT 10SM -SN SCT030 BKN120 M22/M26 A3014 RMK SC3AC4 SLP302=

CYQF;2006-11-26 00:29;SPECI CYQF 260029Z 35005KT 15SM FEW030 BKN120 RMK SC2AC5=

CYQF;2006-11-26 01:00;METAR CYQF 260100Z 01005KT 15SM FEW030 BKN120 M22/M27 A3015 RMK SC1AC5 SLP303=

CYQF;2006-11-26 02:00;METAR CYQF 260200Z 36004KT 15SM -SN FEW030 BKN120 M22/M27 A3015 RMK SC1AC6 SLP304=

CYQF;2006-11-26 03:00;METAR CYQF 260300Z 35007KT 15SM -SN FEW030 OVC120 M22/M28 A3017 RMK SC1AC7 SLP312=

CYQF;2006-11-26 04:00;METAR CYQF 260400Z 36006KT 8SM -SN OVC100 M22/M27 A3017 RMK AC8 SLP314=

CYQF;2006-11-26 05:00;METAR CYQF 260500Z 36005KT 3SM -SN SCT030 OVC090 M22/M27 A3018 RMK SC4AC4 SLP317=

CYQF;2006-11-26 05:20;SPECI CYQF 260520Z 36004KT 1SM -SN OVC030 RMK SN5SC3=

CYQF;2006-11-26 06:00;METAR CYQF 260600Z 35007KT 8SM -SN BKN030 OVC075 M22/M27 A3020 RMK SC5AC3 SLP320=

CYQF;2006-11-26 07:00;METAR CYQF 260700Z 33006KT 8SM -SN BKN030 OVC075 M22/M27 A3020 RMK SC5AC3 SLP321=

CYQF;2006-11-26 08:00;METAR CYQF 260800Z 33004KT 10SM -SN SCT030 BKN075 M24/M28 A3021 RMK SC3AC2 SLP324=

CYQF;2006-11-26 08:38;SPECI CYQF 260838Z 32004KT 10SM FEW030 SCT080 RMK SC2AC2=

CYQF;2006-11-26 09:00;METAR CYQF 260900Z 33004KT 10SM FEW030 M27/M31 A3021 RMK SC2 SLP330=

CYQF;2006-11-26 10:00;METAR CYQF 261000Z 31004KT 10SM SKC M28/M32 A3022 RMK SLP332=

CYQF;2006-11-26 11:00;METAR CYQF 261100Z 29004KT 10SM FEW220 M28/M32 A3021 RMK CI2 SLP331=

CYQF;2006-11-26 12:00;METAR CYQF 261200Z 32006KT 15SM FEW220 M26/M30 A3020 RMK CI2 SLP327=

CYQF;2006-11-26 13:00;METAR CYQF 261300Z 31004KT 15SM SCT220 M25/M29 A3022 RMK CI2 SLP332=

CYQF;2006-11-26 14:00;METAR CYQF 261400Z 34003KT 15SM SCT220 M25/M29 A3023 RMK CI2 SLP334=

CYQF;2006-11-26 15:00;METAR CYQF 261500Z 00000KT 15SM BKN220 M25/M29 A3023 RMK CI3 SLP333=

CYQF;2006-11-26 16:00;METAR CYQF 261600Z 00000KT 15SM OVC220 M25/M29 A3022 RMK CI4 SLP331=

CYQF;2006-11-26 17:00;METAR CYQF 261700Z 36005KT 15SM FEW090 OVC220 M24/M28 A3022 RMK AC2CI2 SLP331=

CYQF;2006-11-26 18:00;METAR CYQF 261800Z 36002KT 15SM FEW010 BKN080 OVC220 M24/M28 A3022 RMK SC1AC5CI1 SLP331=

CYQF;2006-11-26 18:14;SPECI CYQF 261814Z 36005KT 10SM -SN FEW010 SCT040 OVC080 RMK SC1SC2AC5 VIS S 3=

CYQF;2006-11-26 18:34;SPECI CYQF 261834Z 02005KT 1SM -SN OVC030 RMK SN4SC4=

CYQF;2006-11-26 19:00;METAR CYQF 261900Z 36005KT 3/4SM -SN OVC011 M23/M28 A3020 RMK SN5SC3 SLP323=

CYQF;2006-11-26 20:00;METAR CYQF 262000Z 01005KT 1 1/2SM -SN OVC020 M23/M28 A3017 RMK SN3SC5 SLP315=

CYQF;2006-11-26 21:00;METAR CYQF 262100Z 01007KT 1SM -SN OVC020 M23/M27 A3017 RMK SN3SC5 SLP317=

CYQF;2006-11-26 22:00;METAR CYQF 262200Z 35007KT 1 1/2SM -SN OVC020 M23/M27 A3015 RMK SN3SC5 SLP313=

CYQF;2006-11-26 23:00;METAR CYQF 262300Z 01008KT 1 1/2SM -SN OVC020 M23/M27 A3014 RMK SN4SC4 /S01/ SLP307=

CYQF;2006-11-27 00:00;METAR CYQF 270000Z 36007KT 1SM -SN OVC020 M23/M27 A3014 RMK SN4SC4 /S02/ SLP307=

CYQF;2006-11-27 01:00;METAR CYQF 270100Z 04005KT 1SM -SN OVC020 M23/M27 A3014 RMK SN4SC4 SLP305=

CYQF;2006-11-27 02:00;METAR CYQF 270200Z 04009KT 1SM -SN OVC020 M23/M27 A3014 RMK SN5SC3 SLP305=

CYQF;2006-11-27 03:00;METAR CYQF 270300Z 02005KT 1SM -SN OVC020 M23/M28 A3013 RMK SN5SC3 SLP302=

CYQF;2006-11-27 04:00;METAR CYQF 270400Z 01008KT 1 1/2SM -SN OVC020 M23/M28 A3010 RMK SN5SC3 /S01/ SLP293=

CYQF;2006-11-27 05:00;METAR CYQF 270500Z 01008KT 1SM -SN VV012 M23/M27 A3011 RMK SN8 SLP295=

CYQF;2006-11-27 06:00;METAR CYQF 270600Z 36006KT 1SM -SN VV012 M24/M28 A3010 RMK SN8 /S02/ SLP290=

CYQF;2006-11-27 07:00;METAR CYQF 270700Z 36006KT 6SM -SN BKN070 M23/M28 A3008 RMK AC7 SLP284=

CYQF;2006-11-27 08:00;METAR CYQF 270800Z 35006KT 10SM -SN OVC070 M23/M28 A3007 RMK AC8 SLP280=

CYQF;2006-11-27 08:22;SPECI CYQF 270822Z 35010KT 15SM OVC070 RMK AC8=

CYQF;2006-11-27 08:39;SPECI CYQF 270839Z 35008KT 10SM -SN OVC070 RMK AC8=

CYQF;2006-11-27 08:52;SPECI CYQF 270852Z 36010KT 1 1/2SM -SN VV014 RMK SN8=

CYQF;2006-11-27 09:00;METAR CYQF 270900Z 35008KT 1 1/2SM -SN VV015 M23/M27 A3006 RMK SN8 SLP275=

CYQF;2006-11-27 10:00;METAR CYQF 271000Z 34005KT 3SM -SN OVC070 M23/M28 A3005 RMK SN2AC6 SLP273=

CYQF;2006-11-27 11:00;METAR CYQF 271100Z 33008KT 6SM -SN OVC070 M23/M28 A3005 RMK AC8 /S01/ SLP272=

CYQF;2006-11-27 11:36;SPECI CYQF 271136Z 31010KT 15SM BKN070 RMK AC7=

CYQF;2006-11-27 12:00;METAR CYQF 271200Z 33010KT 15SM BKN070 M23/M28 A3003 RMK AC7 SLP264=

CYQF;2006-11-27 13:00;METAR CYQF 271300Z 33010KT 15SM SCT020 OVC070 M23/M28 A3003 RMK SC3AC5 SLP263=

CYQF;2006-11-27 13:27;SPECI CYQF 271327Z 33010KT 10SM -SN SCT020 OVC070 RMK SC3AC5=

CYQF;2006-11-27 14:00;METAR CYQF 271400Z 34010KT 10SM -SN SCT020 OVC075 M23/M28 A3002 RMK SC3AC5 SLP262=

CYQF;2006-11-27 15:00;METAR CYQF 271500Z 33010KT 10SM -SN FEW020 OVC070 M23/M27 A3003 RMK SC2AC6 SLP265=

CYQF;2006-11-27 16:00;METAR CYQF 271600Z 34010KT 5SM -SN FEW020 OVC070 M23/M28 A3004 RMK SC2AC6 SLP266=

CYQF;2006-11-27 16:25;SPECI CYQF 271625Z 33013KT 1 1/2SM -SN BLSN OVC020 RMK SN2SC6=

CYQF;2006-11-27 17:00;METAR CYQF 271700Z 33010G15KT 1SM -SN BLSN OVC020 M23/M27 A3004 RMK SN3SC5 SLP268=

CYQF;2006-11-27 18:00;METAR CYQF 271800Z 33014KT 1SM -SN BLSN OVC020 M23/M28 A3004 RMK SN3SC5 SLP269=

CYQF;2006-11-27 18:49;SPECI CYQF 271849Z 33017KT 3/4SM -SN BLSN OVC015 RMK SN4SC4=

CYQF;2006-11-27 19:00;METAR CYQF 271900Z 33015KT 3/4SM -SN BLSN VV015 M23/M28 A3004 RMK SN8 SLP267=

CYQF;2006-11-27 20:00;METAR CYQF 272000Z 33015KT 1SM -SN BLSN VV015 M24/M28 A3003 RMK SN8 SLP264=

CYQF;2006-11-27 21:00;METAR CYQF 272100Z 34015KT 1SM -SN BLSN VV015 M24/M29 A3003 RMK SN8 SLP266=

CYQF;2006-11-27 22:00;METAR CYQF 272200Z 33015G20KT 2SM -SN BLSN OVC030 M24/M29 A3004 RMK SN2SC6 SLP267=

CYQF;2006-11-27 23:00;METAR CYQF 272300Z 33015KT 2SM -SN BLSN BKN030 OVC070 M24/M29 A3005 RMK SN2SC3AC3 SLP271=

CYQF;2006-11-27 23:21;SPECI CYQF 272321Z 33012G18KT 3SM -SN BLSN BKN030 OVC070 RMK SN2SC3AC3=

CYQF;2006-11-28 00:00;METAR CYQF 280000Z 33010G15KT 3SM -SN OVC030 M24/M29 A3007 RMK SN2SC6 /S01/ SLP280=

CYQF;2006-11-28 00:28;SPECI CYQF 280028Z 34010G15KT 1 1/2SM -SN BLSN VV015 RMK SN8=

CYQF;2006-11-28 01:00;METAR CYQF 280100Z 34010G15KT 2SM -SN BLSN OVC025 M24/M29 A3007 RMK SN6SC2 SLP280=

CYQF;2006-11-28 02:00;METAR CYQF 280200Z 33010G15KT 2SM -SN OVC027 M24/M29 A3007 RMK SN4SC4 SLP279=

CYQF;2006-11-28 03:00;METAR CYQF 280300Z 34012KT 2SM -SN OVC025 M24/M29 A3008 RMK SN5SC3 SLP282=

CYQF;2006-11-28 03:28;SPECI CYQF 280328Z 34008KT 6SM -SN BKN025 RMK SC6=

CYQF;2006-11-28 04:00;METAR CYQF 280400Z 33008KT 12SM -SN SCT025 M25/M30 A3009 RMK SC3 SLP285=

CYQF;2006-11-28 05:00;METAR CYQF 280500Z 34007KT 15SM FEW025 M26/M31 A3008 RMK SC1 SLP283=

CYQF;2006-11-28 06:00;METAR CYQF 280600Z 32006KT 15SM SKC M27/M32 A3009 RMK SLP289=

CYQF;2006-11-28 07:00;METAR CYQF 280700Z 32010KT 15SM SCT200 M26/M32 A3008 RMK CI2 SLP287=

CYQF;2006-11-28 08:00;METAR CYQF 280800Z 33013KT 15SM SCT200 M26/M31 A3010 RMK CI2 SLP294=

CYQF;2006-11-28 09:00;METAR CYQF 280900Z 32013KT 15SM SCT200 M26/M32 A3011 RMK CI3 SLP296=

CYQF;2006-11-28 10:00;METAR CYQF 281000Z 32008KT 15SM FEW200 M28/M33 A3012 RMK CI0 SLP299=

CYQF;2006-11-28 11:00;METAR CYQF 281100Z 32010KT 15SM FEW200 M28/M33 A3012 RMK CI1 SLP300=

CYQF;2006-11-28 12:00;METAR CYQF 281200Z 30006KT 15SM SCT100 M28/M33 A3012 RMK AC3 SLP302=

CYQF;2006-11-28 13:00;METAR CYQF 281300Z 32013KT 15SM FEW100 BKN200 M27/M33 A3013 RMK AC2CI0 SLP304=

CYQF;2006-11-28 14:00;METAR CYQF 281400Z 31013KT 15SM FEW100 BKN200 M28/M34 A3013 RMK AC1CI1 SLP305=

CYQF;2006-11-28 15:00;METAR CYQF 281500Z 31012KT 15SM FEW100 SCT200 M29/M35 A3013 RMK AC1CI1 SLP306=

CYQF;2006-11-28 16:00;METAR CYQF 281600Z 31006KT 15SM FEW100 FEW250 M30/M35 A3015 RMK AC1CI1 SLP312=

CYQF;2006-11-28 17:00;METAR CYQF 281700Z 30006KT 15SM FEW250 M29/M35 A3016 RMK CI2 SLP316=

CYQF;2006-11-28 18:00;METAR CYQF 281800Z 32007KT 15SM FEW250 M28/M34 A3015 RMK CI2 SLP319=

CYQF;2006-11-28 19:00;METAR CYQF 281900Z 32013KT 15SM FEW250 M27/M32 A3015 RMK CI2 SLP317=

CYQF;2006-11-28 20:00;METAR CYQF 282000Z 31013KT 15SM FEW250 M26/M32 A3014 RMK CI2 SLP313=

CYQF;2006-11-28 21:00;METAR CYQF 282100Z 31012KT 15SM FEW250 M25/M32 A3014 RMK CI2 SLP308=

CYQF;2006-11-28 22:00;METAR CYQF 282200Z 32013KT 15SM FEW250 M25/M31 A3014 RMK CI2 SLP309=

CYQF;2006-11-28 23:00;METAR CYQF 282300Z 33009KT 15SM FEW100 SCT250 M25/M31 A3015 RMK AC1CI2 SLP311=

CYQF;2006-11-29 00:00;METAR CYQF 290000Z 32002KT 15SM SCT250 M26/M32 A3016 RMK CI2 SLP319=

CYQF;2006-11-29 01:00;METAR CYQF 290100Z 31003KT 15SM SCT250 M27/M31 A3017 RMK CI2 SLP323=

CYQF;2006-11-29 02:00;METAR CYQF 290200Z 00000KT 15SM SKC M29/M34 A3019 RMK SLP329=

CYQF;2006-11-29 03:00;METAR CYQF 290300Z 30004KT 15SM SKC M29/M33 A3020 RMK SLP337=

CYQF;2006-11-29 04:00;METAR CYQF 290400Z 27005KT 15SM SKC M29/M33 A3020 RMK SLP339=

CYQF;2006-11-29 05:00;METAR CYQF 290500Z 30008KT 15SM SKC M27/M31 A3021 RMK SLP341=

CYQF;2006-11-29 06:00;METAR CYQF 290600Z 28005KT 15SM SKC M27/M31 A3021 RMK SLP337=

CYQF;2006-11-29 07:00;METAR CYQF 290700Z 00000KT 15SM SKC M28/M33 A3021 RMK SLP339=

CYQF;2006-11-29 08:00;METAR CYQF 290800Z 19005KT 15SM SKC M30/M34 A3021 RMK SLP339=

CYQF;2006-11-29 09:00;METAR CYQF 290900Z 18005KT 15SM SKC M31/M35 A3021 RMK SLP338=

CYQF;2006-11-29 10:00;METAR CYQF 291000Z 19007KT 15SM SKC M31/M35 A3020 RMK SLP337=

CYQF;2006-11-29 11:00;METAR CYQF 291100Z 22005KT 15SM SKC M30/M34 A3021 RMK SLP338=

CYQF;2006-11-29 12:00;METAR CYQF 291200Z 20005KT 15SM SKC M30/M34 A3019 RMK SLP333=

CYQF;2006-11-29 13:00;METAR CYQF 291300Z 23008KT 15SM SKC M31/M36 A3020 RMK SLP334=

CYQF;2006-11-29 14:00;METAR CYQF 291400Z 21006KT 15SM SKC M29/M34 A3020 RMK SLP335=

CYQF;2006-11-29 15:00;METAR CYQF 291500Z 18004KT 15SM SKC M30/M34 A3017 RMK SLP331=

CYQF;2006-11-29 16:00;METAR CYQF 291600Z 20007KT 15SM SKC M30/M34 A3017 RMK SLP330=

CYQF;2006-11-29 17:00;METAR CYQF 291700Z 20002KT 15SM SKC M27/M31 A3014 RMK SLP321=

CYQF;2006-11-29 18:00;METAR CYQF 291800Z 19003KT 15SM SKC M24/M29 A3014 RMK SLP308=

CYQF;2006-11-29 19:00;METAR CYQF 291900Z 16002KT 15SM SKC M21/M26 A3010 RMK SLP298=

CYQF;2006-11-29 20:00;METAR CYQF 292000Z 00000KT 15SM FEW250 M20/M26 A3008 RMK CI2 SLP291=

CYQF;2006-11-29 21:00;METAR CYQF 292100Z 16004KT 15SM SCT250 M18/M25 A3005 RMK CI2 SLP273=

CYQF;2006-11-29 22:00;METAR CYQF 292200Z 16004KT 15SM FEW100 BKN250 M19/M25 A3002 RMK AC1CI2 SLP266=

CYQF;2006-11-29 23:00;METAR CYQF 292300Z 16006KT 15SM FEW100 BKN250 M20/M26 A3000 RMK AC2CI2 SLP258=

CYQF;2006-11-30 00:00;METAR CYQF 300000Z 17006KT 15SM FEW100 BKN250 M20/M26 A2997 RMK AC2CI3 SLP248=

CYQF;2006-11-30 01:00;METAR CYQF 300100Z 15007KT 15SM FEW100 BKN250 M19/M24 A2992 RMK AC2CI2 SLP233=

CYQF;2006-11-30 02:00;METAR CYQF 300200Z 15005KT 15SM FEW090 OVC250 M18/M24 A2989 RMK AC2CI2 SLP224=

CYQF;2006-11-30 03:00;METAR CYQF 300300Z 15006KT 15SM SCT090 OVC250 M17/M22 A2984 RMK AC3CI3 SLP198=

CYQF;2006-11-30 04:00;METAR CYQF 300400Z 16010KT 15SM BKN090 OVC250 M14/M20 A2980 RMK AC5CI2 SLP185=

CYQF;2006-11-30 05:00;METAR CYQF 300500Z 16010KT 15SM OVC090 M13/M18 A2976 RMK AC8 SLP174=

CYQF;2006-11-30 06:00;METAR CYQF 300600Z 16010KT 15SM FEW020 OVC090 M12/M17 A2972 RMK SC2AC6 SLP144=

CYQF;2006-11-30 07:00;METAR CYQF 300700Z 15005KT 15SM OVC080 M12/M16 A2967 RMK AC8 SLP129=

CYQF;2006-11-30 08:00;METAR CYQF 300800Z 16004KT 15SM OVC090 M11/M15 A2964 RMK AC8 SLP118=

CYQF;2006-11-30 09:00;METAR CYQF 300900Z 15012KT 15SM OVC090 M10/M14 A2957 RMK AC8 SLP084=

CYQF;2006-11-30 10:00;METAR CYQF 301000Z 15010KT 15SM OVC090 M10/M13 A2955 RMK AC8 SLP077=

CYQF;2006-11-30 11:00;METAR CYQF 301100Z 13004KT 15SM OVC090 M10/M13 A2954 RMK AC8 SLP075=

CYQF;2006-11-30 12:00;METAR CYQF 301200Z 00000KT 15SM OVC090 M10/M13 A2954 RMK AC8 SLP075=

CYQF;2006-11-30 13:00;METAR CYQF 301300Z 34006KT 15SM FEW020 OVC090 M10/M11 A2955 RMK SC2AC6 VIRGA N SLP079=

CYQF;2006-11-30 13:40;SPECI CYQF 301340Z 35010G15KT 15SM -SN OVC090 RMK AC8=

CYQF;2006-11-30 14:00;METAR CYQF 301400Z 32014KT 3SM -SN OVC015 M04/M04 A2957 RMK SN3SC5 SLP086=

CYQF;2006-11-30 14:16;SPECI CYQF 301416Z 31008KT 2SM -SN OVC012 RMK SN4SC4=

CYQF;2006-11-30 14:29;SPECI CYQF 301429Z 32007KT 10SM -SN BKN015 OVC080 RMK SC5AC3=

CYQF;2006-11-30 15:00;METAR CYQF 301500Z 33010KT 15SM -SN BKN030 OVC080 M03/M04 A2962 RMK SC5AC3 SLP089=

CYQF;2006-11-30 16:00;METAR CYQF 301600Z 32013KT 15SM BKN030 BKN080 M01/M06 A2963 RMK SC5AC2 SLP094=

CYQF;2006-11-30 17:00;METAR CYQF 301700Z 31006KT 15SM FEW030 BKN080 M02/M07 A2966 RMK SC2AC4 SLP103=

CYQF;2006-11-30 18:00;METAR CYQF 301800Z 29011KT 15SM FEW030 BKN080 M02/M07 A2969 RMK SC2AC4 SLP107=

CYQF;2006-11-30 19:00;METAR CYQF 301900Z 29010KT 15SM FEW100 BKN250 M03/M08 A2970 RMK AC2CI2 SLP111=

CYQF;2006-11-30 20:00;METAR CYQF 302000Z 29008KT 15SM FEW100 BKN250 M02/M10 A2972 RMK AC2CI2 SLP118=

CYQF;2006-11-30 21:00;METAR CYQF 302100Z 28008KT 15SM FEW100 SCT250 M02/M10 A2973 RMK AC2CI2 SLP119=

CYQF;2006-11-30 22:00;METAR CYQF 302200Z 31006KT 15SM SCT040 BKN100 M03/M11 A2975 RMK SC3AC1 SLP126=

CYQF;2006-11-30 23:00;METAR CYQF 302300Z 29007KT 15SM FEW040 BKN100 M04/M13 A2978 RMK SC2AC2 SLP135=

CYQF;2006-12-01 00:00;METAR CYQF 010000Z 30010KT 15SM FEW090 SCT250 M03/M11 A2979 RMK AC2CI2 SLP144=

CYQF;2006-12-01 01:00;METAR CYQF 010100Z 29008KT 15SM FEW090 SCT250 M04/M12 A2981 RMK AC2CI2 SLP150=

CYQF;2006-12-01 02:00;METAR CYQF 010200Z 29010KT 15SM BKN090 OVC250 M04/M12 A2981 RMK AC5CI2 OBS TAKEN +25 SLP150=

CYQF;2006-12-01 03:00;METAR CYQF 010300Z 29010KT 15SM FEW030 BKN090 OVC250 M03/M12 A2983 RMK SC2AC4CI2 SLP146=

CYQF;2006-12-01 04:00;METAR CYQF 010400Z 01010KT 15SM FEW030 OVC100 M06/M09 A2985 RMK SC2AC6 SLP154=

CYQF;2006-12-01 05:00;METAR CYQF 010500Z 36013KT 15SM OVC100 M07/M10 A2988 RMK AC8 SLP164=

CYQF;2006-12-01 05:21;SPECI CYQF 010521Z 36013KT 10SM -SN FEW050 OVC100 RMK SC2AC6=

CYQF;2006-12-01 06:00;METAR CYQF 010600Z 36015KT 3SM -SN DRSN BKN050 OVC100 M08/M10 A2991 RMK SN2SC5AC1 SLP179=

CYQF;2006-12-01 07:00;METAR CYQF 010700Z 33010G15KT 3SM -SN DRSN VV040 M08/M11 A2994 RMK SN8 SLP190=

CYQF;2006-12-01 07:21;SPECI CYQF 010721Z 33010KT 1SM -SN VV012 RMK SN8 DLA OBS VSBY 1 -SN SINCE 0715=

CYQF;2006-12-01 08:00;METAR CYQF 010800Z 29010KT 1SM -SN VV012 M09/M10 A2996 RMK SN8 SLP195=

CYQF;2006-12-01 08:08;SPECI CYQF 010808Z 29020G30KT 3/4SM -SN BLSN VV012 RMK SN8=

CYQF;2006-12-01 08:15;SPECI CYQF 010815Z 29015G20KT 1 1/2SM -SN DRSN VV012 RMK SN8=

CYQF;2006-12-01 08:29;SPECI CYQF 010829Z 30010G15KT 3SM -SN DRSN VV040 RMK SN8=

CYQF;2006-12-01 09:00;METAR CYQF 010900Z 31010G15KT 5SM -SN DRSN VV050 M09/M11 A2998 RMK SN8 SLP206=

CYQF;2006-12-01 09:34;SPECI CYQF 010934Z 31015G25KT 2SM -SN BLSN BKN075 RMK SN6AC1=

CYQF;2006-12-01 10:00;METAR CYQF 011000Z 31015G25KT 2SM -SN BLSN BKN075 M09/M12 A3002 RMK SN5AC1 SLP217=

CYQF;2006-12-01 10:22;SPECI CYQF 011022Z 31015G25KT 1SM -SN BLSN VV018 RMK SN8=

CYQF;2006-12-01 11:00;METAR CYQF 011100Z 31015G25KT 2SM BLSN SCT075 M12/M15 A3007 RMK BLSN2AC1 VSBY VRBL 1-3 SLP233=

CYQF;2006-12-01 11:21;SPECI CYQF 011121Z 35010G15KT 8SM DRSN FEW075 RMK AC1=

CYQF;2006-12-01 12:00;METAR CYQF 011200Z 33010G15KT 15SM FEW075 M14/M17 A3010 RMK AC1 SLP256=

CYQF;2006-12-01 12:47;SPECI CYQF 011247Z 33015G25KT 10SM -SN DRSN FEW040 OVC070 RMK SC1AC7=

CYQF;2006-12-01 13:00;METAR CYQF 011300Z 34015G20KT 10SM -SN FEW040 OVC070 M13/M16 A3014 RMK SC1AC7 DRSN SLP268=

CYQF;2006-12-01 14:00;METAR CYQF 011400Z 33015G20KT 12SM -SN FEW040 OVC070 M13/M16 A3017 RMK SC1AC7 DRSN SLP277=

CYQF;2006-12-01 15:00;METAR CYQF 011500Z 33012KT 15SM FEW040 OVC080 M13/M16 A3020 RMK SC1AC7 SLP286=

CYQF;2006-12-01 16:00;METAR CYQF 011600Z 33014KT 15SM BKN080 M13/M16 A3022 RMK AC7 SLP294=

CYQF;2006-12-01 17:00;METAR CYQF 011700Z 32012KT 15SM BKN080 OVC220 M12/M16 A3025 RMK AC6CI2 SLP301=

CYQF;2006-12-01 18:00;METAR CYQF 011800Z 33012KT 15SM BKN080 OVC220 M12/M16 A3027 RMK AC7CI1 SLP318=

CYQF;2006-12-01 19:00;METAR CYQF 011900Z 34014KT 15SM BKN080 OVC220 M12/M15 A3028 RMK AC6CI2 SLP321=

CYQF;2006-12-01 20:00;METAR CYQF 012000Z 33012KT 15SM BKN080 OVC220 M11/M15 A3029 RMK AC5CI2 SLP324=

CYQF;2006-12-01 21:00;METAR CYQF 012100Z 34007KT 15SM BKN080 OVC220 M11/M16 A3031 RMK AC5CI2 SLP332=

CYQF;2006-12-01 22:00;METAR CYQF 012200Z 31005KT 15SM FEW090 BKN220 M12/M17 A3032 RMK AC2CI2 SLP334=

CYQF;2006-12-01 23:00;METAR CYQF 012300Z 29005KT 15SM SCT090 BKN220 M11/M16 A3034 RMK AC3CI2 SLP341=

CYQF;2006-12-02 01:00;METAR CYQF 020100Z 29004KT 15SM BKN220 M13/M18 A3039 RMK CI0 OBS TAKEN +24 SLP362=

CYQF;2006-12-02 02:00;METAR CYQF 020200Z 32004KT 15SM SCT220 M14/M19 A3039 RMK CI0 SLP364=

CYQF;2006-12-02 03:00;METAR CYQF 020300Z 28007KT 15SM FEW150 SCT220 M15/M20 A3041 RMK AC1CI0 SLP375=

CYQF;2006-12-02 04:00;METAR CYQF 020400Z 28004KT 15SM FEW100 SCT220 M14/M17 A3042 RMK AC1CI0 SLP379=

CYQF;2006-12-02 05:00;METAR CYQF 020500Z 33003KT 15SM BKN100 M15/M18 A3044 RMK AC3 SLP386=

CYQF;2006-12-02 06:00;METAR CYQF 020600Z 34005KT 15SM SCT100 M16/M19 A3045 RMK AC3 SLP389=

CYQF;2006-12-02 07:00;METAR CYQF 020700Z 00000KT 15SM FEW100 M17/M19 A3047 RMK AC1 OBS TKN +18 SLP396=

CYQF;2006-12-02 08:00;METAR CYQF 020800Z 29002KT 15SM SKC M18/M20 A3048 RMK SLP399=

CYQF;2006-12-02 09:00;METAR CYQF 020900Z 00000KT 15SM SKC M21/M23 A3049 RMK SLP407=

CYQF;2006-12-02 10:00;METAR CYQF 021000Z 00000KT 15SM SKC M22/M25 A3050 RMK SLP409=

CYQF;2006-12-02 11:00;METAR CYQF 021100Z 00000KT 15SM SKC M22/M26 A3051 RMK SLP412=

CYQF;2006-12-02 12:00;METAR CYQF 021200Z 00000KT 15SM SKC M22/M26 A3051 RMK SLP417=

CYQF;2006-12-02 13:00;METAR CYQF 021300Z 21003KT 15SM FEW120 M24/M28 A3053 RMK AC1 SLP421=

CYQF;2006-12-02 14:00;METAR CYQF 021400Z 20004KT 15SM FEW002 SCT120 M24/M27 A3052 RMK SF2AC1 SLP420=

CYQF;2006-12-02 15:00;METAR CYQF 021500Z 21003KT 10SM FEW002 FEW120 SCT220 M24/M28 A3053 RMK SF1AC1CI0 SLP430=

CYQF;2006-12-02 16:00;METAR CYQF 021600Z 18003KT 10SM FEW120 SCT220 M25/M28 A3054 RMK AC1CI0 SLP432=

CYQF;2006-12-02 17:00;METAR CYQF 021700Z 19004KT 10SM FEW220 M22/M26 A3053 RMK CI1 SLP430=

CYQF;2006-12-02 18:00;METAR CYQF 021800Z 20003KT 10SM FEW220 M19/M22 A3052 RMK CI1 SLP420=

CYQF;2006-12-02 19:00;METAR CYQF 021900Z 19002KT 15SM FEW220 M17/M20 A3049 RMK CI1 SLP413=

CYQF;2006-12-02 20:00;METAR CYQF 022000Z 14005KT 15SM FEW220 M14/M17 A3045 RMK CI1 SLP400=

CYQF;2006-12-02 21:00;METAR CYQF 022100Z 15005KT 15SM FEW220 M14/M19 A3044 RMK CI1 SLP392=

CYQF;2006-12-02 22:00;METAR CYQF 022200Z 17005KT 15SM FEW220 M13/M18 A3040 RMK CI1 SLP382=

CYQF;2006-12-02 23:00;METAR CYQF 022300Z 15006KT 15SM SCT220 M14/M18 A3039 RMK CI1 SLP377=

CYQF;2006-12-03 00:00;METAR CYQF 030000Z 16006KT 15SM FEW090 SCT220 M14/M18 A3035 RMK AC1CI1 SLP366=

CYQF;2006-12-03 01:00;METAR CYQF 030100Z 17014KT 15SM OVC220 M12/M16 A3031 RMK CI2 SLP353=

CYQF;2006-12-03 02:00;METAR CYQF 030200Z 17013KT 15SM FEW090 OVC200 M12/M15 A3030 RMK AC2CS0=

CYQF;2006-12-03 03:00;METAR CYQF 030300Z 18009KT 15SM SCT090 OVC200 M12/M16 A3027 RMK AC4CS0 SLP337=

CYQF;2006-12-03 04:00;METAR CYQF 030400Z 16006KT 15SM OVC090 M12/M15 A3025 RMK AS8 VIRGA MOON DMLY VSBL SLP331=

CYQF;2006-12-03 05:00;METAR CYQF 030500Z 17009KT 15SM BKN090 OVC200 M11/M14 A3023 RMK AS6CS0 VIRGA SLP325=

CYQF;2006-12-03 06:00;METAR CYQF 030600Z 16005KT 15SM BKN090 OVC200 M11/M14 A3020 RMK AC6CS0 VIRGA SLP305=

CYQF;2006-12-03 07:00;METAR CYQF 030700Z 21005KT 15SM OVC090 M09/M11 A3020 RMK AC8 VIRGA SLP303=

CYQF;2006-12-03 07:34;SPECI CYQF 030734Z 18005KT 1SM -SN SCT030 OVC090 RMK SC4AC4=

CYQF;2006-12-03 08:00;METAR CYQF 030800Z 20005KT 1 1/2SM -SN OVC090 M09/M10 A3019 RMK SN6AC2 OBS TKN +05 SLP300=

CYQF;2006-12-03 08:39;SPECI CYQF 030839Z 22004KT 8SM -SN FEW030 OVC080 RMK SC2AC6=

CYQF;2006-12-03 09:00;METAR CYQF 030900Z 21004KT 12SM -SN FEW030 OVC080 M08/M09 A3017 RMK SC1AC7 SLP284=

CYQF;2006-12-03 10:00;METAR CYQF 031000Z 24002KT 8SM -SN BKN013 OVC030 M07/M08 A3018 RMK SC5SC3 SLP288=

CYQF;2006-12-03 11:00;METAR CYQF 031100Z 00000KT 12SM -SN OVC018 M04/M06 A3018 RMK SC8 SLP288=

CYQF;2006-12-03 12:00;METAR CYQF 031200Z 00000KT 12SM -SN OVC016 M04/M05 A3018 RMK SC8 SLP284=

CYQF;2006-12-03 13:00;METAR CYQF 031300Z 26004KT 12SM -SN SCT020 OVC090 M05/M06 A3019 RMK SC3AC5 OBS TKN +03 SLP286=

CYQF;2006-12-03 14:00;METAR CYQF 031400Z 31012KT 15SM -SN SCT020 OVC090 M02/M04 A3020 RMK SC3AC5 SLP291=

CYQF;2006-12-03 15:00;METAR CYQF 031500Z 32008KT 15SM -SN SCT020 OVC090 M02/M04 A3023 RMK SC4AC4 SLP295=

CYQF;2006-12-03 16:00;METAR CYQF 031600Z 29003KT 8SM -SN SCT020 OVC080 M03/M04 A3025 RMK SC3AC5 SLP301=

CYQF;2006-12-03 17:00;METAR CYQF 031700Z 32012KT 10SM -SN SCT020 BKN070 M03/M04 A3026 RMK SC3AC4 SLP306=

CYQF;2006-12-03 18:00;METAR CYQF 031800Z 33008KT 6SM -SN SCT020 OVC070 M03/M05 A3027 RMK SC4AC4 SLP311=

CYQF;2006-12-03 19:00;METAR CYQF 031900Z 33010G15KT 3SM -SN DRSN BKN020 OVC070 M03/M06 A3027 RMK SC6AC2 SLP309=

CYQF;2006-12-03 19:33;SPECI CYQF 031933Z 33010G15KT 2SM -SN DRSN OVC020 RMK SN2SC6=

CYQF;2006-12-03 20:00;METAR CYQF 032000Z 33010G15KT 2SM -SN DRSN OVC020 M03/M06 A3027 RMK SN3SC5 SLP309=

CYQF;2006-12-03 21:00;METAR CYQF 032100Z 33008KT 2SM -SN DRSN BKN020 OVC070 M04/M06 A3027 RMK SN2SC5AS2 SLP307=

CYQF;2006-12-03 22:00;METAR CYQF 032200Z 35007KT 2SM -SN DRSN BKN020 OVC070 M05/M06 A3028 RMK SN2SC5AS2 SLP309=

CYQF;2006-12-03 23:00;METAR CYQF 032300Z 36006KT 1SM -SN OVC020 M05/M06 A3029 RMK SN4SC4 SLP312=

CYQF;2006-12-04 00:00;METAR CYQF 040000Z 05005KT 2SM -SN OVC020 M06/M07 A3029 RMK SN3SC5 SLP312=

CYQF;2006-12-04 00:44;SPECI CYQF 040044Z 09003KT 8SM -SN OVC020 RMK SC8=

CYQF;2006-12-04 01:00;METAR CYQF 040100Z 00000KT 15SM BKN080 M07/M08 A3027 RMK AC7 SLP307=

CYQF;2006-12-04 02:00;METAR CYQF 040200Z 00000KT 10SM OVC080 M07/M08 A3026 RMK AC8 VIRGA SLP303=

CYQF;2006-12-04 02:32;SPECI CYQF 040232Z 19004KT 10SM -SN OVC080 RMK AC8=

CYQF;2006-12-04 03:00;METAR CYQF 040300Z 19003KT 8SM -SN OVC080 M07/M08 A3024 RMK AC6 SLP293=

CYQF;2006-12-04 04:00;METAR CYQF 040400Z 19006KT 15SM OVC080 M06/M07 A3022 RMK AC8 SLP287=

CYQF;2006-12-04 04:22;SPECI CYQF 040422Z 19005KT 10SM -SN OVC080 RMK AC8 -SN INTMT=

CYQF;2006-12-04 05:00;METAR CYQF 040500Z 18005KT 12SM -SN OVC080 M06/M07 A3019 RMK AC8 -SN INTMT SLP277=

CYQF;2006-12-04 06:00;METAR CYQF 040600Z 18010KT 15SM -SN OVC090 M05/M07 A3015 RMK AC8 -SN INTMT PRESFR SLP263=

CYQF;2006-12-04 07:00;METAR CYQF 040700Z 17012KT 15SM -SN OVC090 M05/M06 A3013 RMK AC8 OBS TKN +04 SLP254=

CYQF;2006-12-04 08:00;METAR CYQF 040800Z CCA 18008KT 15SM -SN OVC090 M05/M06 A3009 RMK AC8 SLP242=

CYQF;2006-12-04 08:47;SPECI CYQF 040847Z 18008KT 15SM BKN090 RMK AC6=

CYQF;2006-12-04 09:00;METAR CYQF 040900Z 19008KT 15SM BKN090 M05/M07 A3006 RMK AC6 SLP231=

CYQF;2006-12-04 10:00;METAR CYQF 041000Z 18008KT 15SM SCT090 M06/M07 A3003 RMK AC3 SLP222=

CYQF;2006-12-04 11:00;METAR CYQF 041100Z 19008KT 15SM FEW090 SCT220 M08/M09 A3001 RMK AC2CI1 SLP216=

CYQF;2006-12-04 12:00;METAR CYQF 041200Z 17006KT 15SM FEW090 SCT220 M08/M09 A2998 RMK AC1CI1 SLP208=

CYQF;2006-12-04 13:00;METAR CYQF 041300Z 20007KT 15SM FEW220 M09/M10 A2996 RMK CI1 SLP203=

CYQF;2006-12-04 14:00;METAR CYQF 041400Z 18004KT 15SM BKN220 M10/M11 A2995 RMK CI3 SLP199=

CYQF;2006-12-04 15:00;METAR CYQF 041500Z 00000KT 15SM BKN220 M09/M10 A2993 RMK CI3 SLP194=

CYQF;2006-12-04 16:00;METAR CYQF 041600Z 19003KT 12SM FEW120 OVC220 M11/M12 A2991 RMK AC2CI2 SLP188=

CYQF;2006-12-04 17:00;METAR CYQF 041700Z 20003KT 10SM FEW120 OVC220 M09/M10 A2990 RMK AC2CI3 SLP184=

CYQF;2006-12-04 18:00;METAR CYQF 041800Z 21003KT 10SM FEW100 OVC220 M07/M08 A2988 RMK AC2CI3 SLP173=

CYQF;2006-12-04 19:00;METAR CYQF 041900Z 19003KT 10SM FEW040 BKN090 OVC220 M05/M07 A2984 RMK SC1AC5CI3 SLP160=

CYQF;2006-12-04 20:00;METAR CYQF 042000Z 11005KT 10SM FEW040 BKN090 BKN220 M04/M06 A2980 RMK SC1AC5CI1 SLP146=

CYQF;2006-12-04 21:00;METAR CYQF 042100Z 33002KT 8SM BKN090 M03/M05 A2978 RMK AC6 HZ SLP134=

CYQF;2006-12-04 22:00;METAR CYQF 042200Z 03003KT 8SM FEW040 BKN100 M02/M05 A2975 RMK SC2AC4 HZ SLP124=

CYQF;2006-12-04 23:00;METAR CYQF 042300Z 00000KT 8SM FEW040 BKN100 M03/M05 A2974 RMK SC2AC5 HZ SLP121=

CYQF;2006-12-05 00:00;METAR CYQF 050000Z 00000KT 10SM FEW030 BKN100 M03/M04 A2975 RMK SC2AC5 BR SLP124=

CYQF;2006-12-05 00:38;SPECI CYQF 050038Z 33005KT 10SM BKN010 OVC090 RMK ST5AC2 BR=

CYQF;2006-12-05 01:00;METAR CYQF 050100Z 34004KT 10SM BKN007 OVC090 M02/M04 A2974 RMK ST5AC3 SLP122=

CYQF;2006-12-05 01:40;SPECI CYQF 050140Z 30006KT 6SM -SN BKN006 OVC040 RMK ST6SC2=

CYQF;2006-12-05 02:00;METAR CYQF 050200Z 31006KT 6SM -SN BKN005 OVC040 M01/M02 A2976 RMK ST6SC2 SLP129=

CYQF;2006-12-05 02:40;SPECI CYQF 050240Z 28007KT 1 1/2SM -SN VV010 RMK SN8=

CYQF;2006-12-05 03:00;METAR CYQF 050300Z 28008KT 1 1/2SM -SN VV010 M01/M01 A2977 RMK SN8 SLP132=

CYQF;2006-12-05 04:00;METAR CYQF 050400Z 27006KT 2SM -SN SCT007 VV015 M00/M01 A2978 RMK SF4SN4 /S02/ SLP136=

CYQF;2006-12-05 04:18;SPECI CYQF 050418Z 30004KT 6SM -SN SCT010 BKN040 OVC100 RMK SF3SC3AC2=

CYQF;2006-12-05 05:00;METAR CYQF 050500Z 30004KT 15SM FEW010 SCT040 OVC100 M01/M01 A2979 RMK SF2SC2AC4 SLP139=

CYQF;2006-12-05 06:00;METAR CYQF 050600Z 27006KT 15SM FEW010 FEW040 SCT100 OVC220 M01/M01 A2982 RMK SF1SC1AC2CS2 SLP145=

CYQF;2006-12-05 07:00;METAR CYQF 050700Z 27006KT 15SM SCT100 OVC220 M02/M02 A2983 RMK AC3CS2 SLP149=

CYQF;2006-12-05 08:00;METAR CYQF 050800Z 31006KT 15SM SCT100 OVC220 M02/M03 A2984 RMK AC3CS2 SLP153=

CYQF;2006-12-05 09:00;METAR CYQF 050900Z 29003KT 15SM SCT100 OVC220 M00/M02 A2985 RMK AC3CS2 SLP153=

CYQF;2006-12-05 10:00;METAR CYQF 051000Z 31008KT 15SM BKN100 OVC220 00/M02 A2987 RMK AC5CS2 SLP158=

CYQF;2006-12-05 11:00;METAR CYQF 051100Z 31006KT 15SM BKN100 OVC220 M00/M02 A2988 RMK AC6CI2 SLP162=

CYQF;2006-12-05 12:00;METAR CYQF 051200Z 27003KT 15SM OVC100 M02/M03 A2990 RMK AC8 SLP171=

CYQF;2006-12-05 13:00;METAR CYQF 051300Z 23006KT 15SM OVC090 M03/M04 A2991 RMK AC8 SLP175=

CYQF;2006-12-05 14:00;METAR CYQF 051400Z 24008KT 15SM OVC090 M03/M04 A2992 RMK AC8 SLP177=

CYQF;2006-12-05 15:00;METAR CYQF 051500Z 24008KT 15SM BKN090 BKN220 M03/M04 A2994 RMK AC6CI0 SLP183=

CYQF;2006-12-05 16:00;METAR CYQF 051600Z 22005KT 15SM SCT090 SCT220 M05/M06 A2994 RMK AC3CI0 SLP184=

CYQF;2006-12-05 17:00;METAR CYQF 051700Z 24006KT 15SM FEW100 BKN220 M05/M06 A2997 RMK AC2CI2 SLP192=

CYQF;2006-12-05 18:00;METAR CYQF 051800Z 24007KT 15SM FEW100 FEW220 M05/M08 A2998 RMK AC1CI1 SLP201=

CYQF;2006-12-05 19:00;METAR CYQF 051900Z 24003KT 15SM FEW100 FEW220 M03/M08 A2998 RMK AC1CI1 SLP201=

CYQF;2006-12-05 20:00;METAR CYQF 052000Z 21003KT 15SM FEW100 SCT220 M02/M07 A2998 RMK AC1CI1 SLP200=

CYQF;2006-12-05 21:00;METAR CYQF 052100Z 23003KT 15SM SCT220 M02/M07 A2999 RMK CI1 SLP199=

CYQF;2006-12-05 22:00;METAR CYQF 052200Z 21003KT 15SM FEW220 M04/M09 A3001 RMK CI1 SLP205=

CYQF;2006-12-05 23:00;METAR CYQF 052300Z 22005KT 15SM FEW220 M05/M10 A3003 RMK CI1 SLP212=

CYQF;2006-12-06 00:00;METAR CYQF 060000Z 23005KT 15SM FEW220 M08/M11 A3005 RMK CI1 SLP227=

CYQF;2006-12-06 01:00;METAR CYQF 060100Z 21004KT 15SM FEW220 M12/M14 A3007 RMK CI1 SLP235=

CYQF;2006-12-06 02:00;METAR CYQF 060200Z 26005KT 15SM SKC M12/M15 A3008 RMK SLP237=

CYQF;2006-12-06 03:00;METAR CYQF 060300Z 26006KT 15SM SCT220 M11/M14 A3009 RMK CI2 SLP248=

CYQF;2006-12-06 04:00;METAR CYQF 060400Z 26006KT 15SM BKN220 M11/M13 A3010 RMK CI2 SLP250=

CYQF;2006-12-06 05:00;METAR CYQF 060500Z 25008KT 15SM BKN230 M13/M15 A3012 RMK CI4 SLP256=

CYQF;2006-12-06 06:00;METAR CYQF 060600Z 22002KT 15SM BKN230 M13/M15 A3013 RMK CI2 SLP265=

CYQF;2006-12-06 07:00;METAR CYQF 060700Z 24006KT 15SM BKN230 M13/M18 A3014 RMK CS2 SLP269=

CYQF;2006-12-06 08:00;METAR CYQF 060800Z 18003KT 15SM BKN250 M12/M15 A3015 RMK CS3 SLP272=

CYQF;2006-12-06 09:00;METAR CYQF 060900Z 14003KT 15SM OVC230 M13/M15 A3018 RMK CS3 SLP278=

CYQF;2006-12-06 10:00;METAR CYQF 061000Z 31003KT 15SM OVC230 M12/M14 A3022 RMK CS6 SLP290=

CYQF;2006-12-06 11:00;METAR CYQF 061100Z 02003KT 15SM OVC230 M12/M14 A3024 RMK CS6 SLP297=

CYQF;2006-12-06 12:00;METAR CYQF 061200Z 19003KT 15SM SCT100 OVC230 M11/M13 A3025 RMK AC3CS2 SLP308=

CYQF;2006-12-06 12:40;SPECI CYQF 061240Z 23004KT 10SM SCT004 OVC080 RMK SF3AC5=

CYQF;2006-12-06 13:00;METAR CYQF 061300Z 20004KT 3SM BR VV004 M09/M09 A3027 RMK FG8 SLP314=

CYQF;2006-12-06 13:28;SPECI CYQF 061328Z 09003KT 5SM BR SCT004 OVC027 RMK SF4SC4=

CYQF;2006-12-06 13:49;SPECI CYQF 061349Z 00000KT 5SM BR BKN004 OVC030 RMK SF6SC2=

CYQF;2006-12-06 14:00;METAR CYQF 061400Z 00000KT 5SM BR BKN004 OVC030 M09/M10 A3029 RMK SF6SC2 SLP320=

CYQF;2006-12-06 14:14;SPECI CYQF 061414Z 00000KT 6SM BR SCT004 BKN030 OVC100 RMK SF3SC2AC2=

CYQF;2006-12-06 15:00;METAR CYQF 061500Z 00000KT 6SM BR FEW004 BKN030 BKN100 M08/M09 A3030 RMK SF2SC2AC2 SLP325=

CYQF;2006-12-06 15:28;SPECI CYQF 061528Z 18004KT 6SM BR BKN003 OVC100 RMK ST7AC1=

CYQF;2006-12-06 16:00;METAR CYQF 061600Z 17003KT 6SM BR OVC003 M08/M09 A3031 RMK ST8 SLP329=

CYQF;2006-12-06 17:00;METAR CYQF 061700Z 14005KT 6SM BR OVC004 M06/M07 A3031 RMK ST8 SLP330=

CYQF;2006-12-06 18:00;METAR CYQF 061800Z 12005KT 3SM BR OVC004 M06/M07 A3032 RMK ST8 SLP334=

CYQF;2006-12-06 18:21;SPECI CYQF 061821Z 14009KT 2 1/2SM BR OVC003 RMK ST8=

CYQF;2006-12-06 19:00;METAR CYQF 061900Z 17012KT 2 1/2SM BR OVC003 M05/M06 A3031 RMK ST8 SLP330=

CYQF;2006-12-06 20:00;METAR CYQF 062000Z 15010G15KT 1 1/2SM BR OVC003 M05/M06 A3030 RMK ST8 SLP326=

CYQF;2006-12-06 20:51;SPECI CYQF 062051Z 15015KT 5SM BR OVC006 RMK ST8=

CYQF;2006-12-06 21:00;METAR CYQF 062100Z 16015G21KT 5SM BR BKN006 BKN200 M05/M07 A3028 RMK ST3CI2 SLP317=

CYQF;2006-12-06 21:15;SPECI CYQF 062115Z 16015G20KT 8SM SCT006 SCT200 RMK ST2CI1 BR=

CYQF;2006-12-06 21:49;SPECI CYQF 062149Z 15015G20KT 5SM BR BKN006 BKN200 RMK ST3CI1 CI TR=

CYQF;2006-12-06 22:00;METAR CYQF 062200Z 15010G15KT 5SM BR OVC005 M06/M07 A3026 RMK ST6 SLP312=

CYQF;2006-12-06 22:36;SPECI CYQF 062236Z 16015G23KT 2SM BR OVC005 RMK ST8=

CYQF;2006-12-06 22:51;SPECI CYQF 062251Z 16015G20KT 1 1/2SM -SG BR BKN005 RMK ST7=

CYQF;2006-12-06 23:00;METAR CYQF 062300Z 16015G20KT 1 1/2SM -SG BR OVC004 M06/M07 A3026 RMK ST7 SLP311=

CYQF;2006-12-07 00:00;METAR CYQF 070000Z 17015G22KT 2SM -SG BR OVC004 M05/M06 A3025 RMK ST8 SLP303=

CYQF;2006-12-07 01:00;METAR CYQF 070100Z 18015G20KT 8SM -SG OVC007 M04/M06 A3022 RMK ST8 SLP296=

CYQF;2006-12-07 02:00;METAR CYQF 070200Z 17015G20KT 10SM FEW007 SCT200 M05/M06 A3021 RMK SF2CI0 SLP291=

CYQF;2006-12-07 03:00;METAR CYQF 070300Z 18013G20KT 4SM BR FEW007 SCT200 M05/M06 A3018 RMK SF1CI0 SLP276=

CYQF;2006-12-07 04:00;METAR CYQF 070400Z 17015KT 8SM SCT200 M05/M06 A3016 RMK CI0 SLP271=

CYQF;2006-12-07 05:00;METAR CYQF 070500Z 18013KT 10SM BKN200 M06/M07 A3015 RMK CI2 SLP266=

CYQF;2006-12-07 06:00;METAR CYQF 070600Z 17012KT 12SM BKN100 BKN230 M06/M08 A3013 RMK AC5CI2 SLP257=

CYQF;2006-12-07 07:00;METAR CYQF 070700Z 18007KT 12SM BKN090 BKN230 M07/M08 A3011 RMK AC6CI2 SLP252=

CYQF;2006-12-07 08:00;METAR CYQF 070800Z 18005KT 15SM BKN090 OVC230 M07/M08 A3009 RMK AC6CI2 SLP246=

CYQF;2006-12-07 09:00;METAR CYQF 070900Z 18004KT 15SM BKN090 BKN230 M08/M09 A3008 RMK AC3CI2 SLP242=

CYQF;2006-12-07 10:00;METAR CYQF 071000Z 00000KT 15SM FEW090 BKN230 M09/M10 A3008 RMK AC2CI1 SLP242=

CYQF;2006-12-07 11:00;METAR CYQF 071100Z 00000KT 15SM FEW090 SCT230 M09/M11 A3007 RMK AC2CI1 SLP241=

CYQF;2006-12-07 12:00;METAR CYQF 071200Z 00000KT 15SM FEW090 SCT230 M10/M11 A3007 RMK AC2CI1 SLP242=

CYQF;2006-12-07 13:00;METAR CYQF 071300Z 00000KT 15SM FEW040 BKN090 M09/M10 A3007 RMK SC2AC5 SLP241=

CYQF;2006-12-07 14:00;METAR CYQF 071400Z 20007KT 15SM FEW040 BKN090 M08/M09 A3007 RMK SC2AC5 SLP241=

CYQF;2006-12-07 15:00;METAR CYQF 071500Z 00000KT 15SM FEW040 BKN090 M07/M09 A3006 RMK SC2AC6 SLP235=

CYQF;2006-12-07 16:00;METAR CYQF 071600Z 21004KT 15SM BKN090 BKN210 M05/M07 A3005 RMK AC7CI1 SLP233=

CYQF;2006-12-07 18:00;METAR CYQF 071800Z 24002KT 15SM BKN090 BKN210 M03/M05 A3005 RMK AC7CI1 CI TR SLP229=

CYQF;2006-12-07 19:00;METAR CYQF 071900Z 19005KT 15SM FEW040 SCT090 SCT210 M02/M06 A3004 RMK CF1AC2CI1 CF TR SLP224=

CYQF;2006-12-07 21:00;METAR CYQF 072100Z 00000KT 15SM FEW090 BKN210 M01/M04 A3000 RMK AC1CI2 SLP211=

CYQF;2006-12-07 22:00;METAR CYQF 072200Z 00000KT 15SM FEW090 FEW150 BKN210 M01/M05 A2998 RMK AC1AC2CI2 LWR AC TR SLP203=

CYQF;2006-12-07 23:00;METAR CYQF 072300Z 00000KT 15SM FEW090 BKN150 BKN210 M02/M05 A2998 RMK AC1AC2CI2 LWR AC TR SLP203=

CYQF;2006-12-08 00:00;METAR CYQF 080000Z 30002KT 15SM SCT090 BKN150 BKN210 M05/M07 A2996 RMK AC3AC2CI1 SLP203=

CYQF;2006-12-08 01:00;METAR CYQF 080100Z 20005KT 15SM SCT090 BKN150 BKN210 M03/M06 A2993 RMK AC3AC2CI1 SLP194=

CYQF;2006-12-08 02:00;METAR CYQF 080200Z 20007KT 15SM FEW090 BKN150 OVC210 M02/M04 A2991 RMK AC2AC4CI1 SLP187=

CYQF;2006-12-08 03:00;METAR CYQF 080300Z 18005KT 15SM FEW090 BKN150 OVC210 00/M03 A2990 RMK AC2AC4CI1 SLP172=

CYQF;2006-12-08 04:00;METAR CYQF 080400Z 19004KT 15SM FEW090 BKN150 OVC210 02/M02 A2987 RMK AC2AC4CI1 SLP163=

CYQF;2006-12-08 05:00;METAR CYQF 080500Z 19007KT 15SM FEW090 BKN150 OVC210 03/M03 A2985 RMK AC2AC4CI1 SLP158=

CYQF;2006-12-08 06:00;METAR CYQF 080600Z 23007KT 15SM FEW090 BKN150 OVC210 03/M03 A2984 RMK AC2AC4CI1 SLP143=

CYQF;2006-12-08 07:00;METAR CYQF 080700Z 20004KT 15SM BKN100 BKN210 M01/M05 A2982 RMK AC3CI2 SLP138=

CYQF;2006-12-08 08:00;METAR CYQF 080800Z 15004KT 15SM BKN090 01/M04 A2980 RMK AC7 SLP133=

CYQF;2006-12-08 09:00;METAR CYQF 080900Z 00000KT 15SM BKN090 M00/M05 A2980 RMK AC7 SLP131=

CYQF;2006-12-08 10:00;METAR CYQF 081000Z 19010KT 15SM SCT090 M03/M06 A2978 RMK AC2 SLP127=

CYQF;2006-12-08 11:00;METAR CYQF 081100Z 19005KT 15SM FEW090 M02/M06 A2975 RMK AC2 SLP117=

CYQF;2006-12-08 12:00;METAR CYQF 081200Z 19005KT 15SM SCT090 M03/M07 A2974 RMK AC2 SLP118=

CYQF;2006-12-08 13:00;METAR CYQF 081300Z 00000KT 15SM BKN090 M02/M06 A2972 RMK AC5 SLP113=

CYQF;2006-12-08 14:00;METAR CYQF 081400Z 00000KT 15SM SCT090 BKN230 M03/M06 A2973 RMK AC2CI1 SLP116=

CYQF;2006-12-08 15:00;METAR CYQF 081500Z 22007KT 15SM SCT090 BKN230 M06/M08 A2973 RMK AC3CI1 SLP112=

CYQF;2006-12-08 16:00;METAR CYQF 081600Z 00000KT 15SM SCT090 BKN230 M05/M08 A2974 RMK AC2CI2 SLP115=

CYQF;2006-12-08 17:00;METAR CYQF 081700Z 00000KT 15SM FEW040 FEW100 BKN230 M06/M09 A2973 RMK SC2AC1CI1 SLP113=

CYQF;2006-12-08 18:00;METAR CYQF 081800Z 00000KT 15SM FEW050 FEW100 BKN230 M00/M07 A2972 RMK SC2AC1CI2 SLP098=

CYQF;2006-12-08 19:00;METAR CYQF 081900Z 19003KT 15SM FEW060 BKN230 M02/M07 A2971 RMK SC2CI2 SLP095=

CYQF;2006-12-08 20:00;METAR CYQF 082000Z 00000KT 15SM FEW060 BKN230 02/M05 A2968 RMK SC2CI1 SLP087=

CYQF;2006-12-08 21:00;METAR CYQF 082100Z 00000KT 15SM BKN060 BKN230 00/M06 A2966 RMK SC6CI1 SLP081=

CYQF;2006-12-08 22:00;METAR CYQF 082200Z 00000KT 15SM SCT070 BKN120 BKN230 M00/M04 A2963 RMK AC3AC2CI1 SLP073=

CYQF;2006-12-08 23:00;METAR CYQF 082300Z 00000KT 15SM FEW070 SCT110 BKN230 M00/M05 A2962 RMK AC2AC2CI2 SLP070=

CYQF;2006-12-09 00:00;METAR CYQF 090000Z 17005KT 15SM FEW025 FEW070 BKN120 BKN230 M00/M05 A2961 RMK SC1AC2AC3CI1 SLP070=

CYQF;2006-12-09 01:00;METAR CYQF 090100Z 16005KT 15SM FEW015 BKN120 01/M04 A2959 RMK SC1AC7 SLP064=

CYQF;2006-12-09 02:00;METAR CYQF 090200Z 31004KT 15SM FEW210 M02/M05 A2960 RMK CI2 SLP065=

CYQF;2006-12-09 03:00;METAR CYQF 090300Z CCA 36005KT 15SM FEW210 M05/M07 A2961 RMK CI1 SLP076=

CYQF;2006-12-09 04:00;METAR CYQF 090400Z 36005KT 15SM BKN210 M03/M07 A2964 RMK CI2 SLP085=

CYQF;2006-12-09 05:00;METAR CYQF 090500Z 00000KT 15SM BKN210 M07/M09 A2967 RMK CI2 SLP096=

CYQF;2006-12-09 06:00;METAR CYQF 090600Z 31007KT 15SM SCT210 M05/M07 A2971 RMK CI0 SLP104=

CYQF;2006-12-09 07:00;METAR CYQF 090700Z 25004KT 15SM FEW090 BKN230 M08/M09 A2973 RMK AC2CI4 SLP110=

CYQF;2006-12-09 08:00;METAR CYQF 090800Z 28004KT 15SM FEW100 BKN230 M06/M07 A2973 RMK AC2CI5 SLP110=

CYQF;2006-12-09 09:00;METAR CYQF 090900Z 27005KT 15SM FEW080 BKN230 M08/M09 A2972 RMK AC1CI5 SLP111=

CYQF;2006-12-09 10:00;METAR CYQF 091000Z 20004KT 6SM BR SCT230 M10/M12 A2974 RMK CI4 SLP117=

CYQF;2006-12-09 11:00;METAR CYQF 091100Z 22005KT 15SM FEW070 OVC230 M09/M10 A2975 RMK AC2CI5 SLP122=

CYQF;2006-12-09 12:00;METAR CYQF 091200Z 00000KT 6SM BR FEW070 OVC230 M08/M09 A2974 RMK AC2CI4 SLP119=

CYQF;2006-12-09 13:00;METAR CYQF 091300Z 20005KT 5SM BR FEW070 OVC230 M08/M09 A2974 RMK AC2CI6 SLP120=

CYQF;2006-12-09 14:00;METAR CYQF 091400Z 19007KT 5SM BR FEW070 OVC230 M08/M09 A2973 RMK AC2CI6 SLP116=

CYQF;2006-12-09 15:00;METAR CYQF 091500Z 20004KT 8SM FEW090 BKN230 M07/M08 A2974 RMK AC2CI6 BR SLP121=

CYQF;2006-12-09 16:00;METAR CYQF 091600Z 04003KT 8SM OVC150 M06/M07 A2974 RMK AC8 SLP121=

CYQF;2006-12-09 17:00;METAR CYQF 091700Z 00000KT 8SM OVC150 M06/M06 A2974 RMK AC8 SLP123=

CYQF;2006-12-09 18:00;METAR CYQF 091800Z 00000KT 8SM BKN150 M05/M06 A2975 RMK AC7 SLP124=

CYQF;2006-12-09 19:00;METAR CYQF 091900Z 00000KT 8SM SCT150 BKN250 M05/M06 A2974 RMK AC3CI2 SLP121=

CYQF;2006-12-09 20:00;METAR CYQF 092000Z 15005KT 10SM FEW150 BKN250 00/M03 A2971 RMK AC2CI2 SLP112=

CYQF;2006-12-09 21:00;METAR CYQF 092100Z 14006KT 10SM FEW150 BKN250 M02/M03 A2969 RMK AC2CI3 SLP105=

CYQF;2006-12-09 22:00;METAR CYQF 092200Z 08003KT 10SM BKN150 BKN210 M02/M04 A2969 RMK AC3CI4 SLP104=

CYQF;2006-12-09 23:00;METAR CYQF 092300Z 13004KT 15SM SCT150 BKN210 M01/M04 A2971 RMK AC3CI2 SLP111=

CYQF;2006-12-10 00:00;METAR CYQF 100000Z 13005KT 10SM SCT120 BKN210 M02/M04 A2971 RMK AC3CI2 SLP111=

CYQF;2006-12-10 01:00;METAR CYQF 100100Z 15003KT 15SM FEW120 M03/M05 A2971 RMK AC2 SLP110=

CYQF;2006-12-10 02:00;METAR CYQF 100200Z 06005KT 15SM BKN120 M05/M07 A2970 RMK AC2 SLP109=

CYQF;2006-12-10 03:00;METAR CYQF 100300Z 06006KT 15SM SCT120 M06/M07 A2969 RMK AC2 SLP108=

CYQF;2006-12-10 04:00;METAR CYQF 100400Z 11002KT 15SM BKN120 M06/M07 A2968 RMK AC2 SLP103=

CYQF;2006-12-10 05:00;METAR CYQF 100500Z 14010KT 15SM FEW120 M04/M06 A2966 RMK AC2 SLP097=

CYQF;2006-12-10 06:00;METAR CYQF 100600Z 13008KT 15SM FEW120 M04/M06 A2964 RMK AC1 SLP087=

CYQF;2006-12-10 07:00;METAR CYQF 100700Z 12010KT 15SM FEW120 M05/M07 A2962 RMK AC1 OBS TKN +10 SLP080=

CYQF;2006-12-10 08:00;METAR CYQF 100800Z 10008KT 15SM FEW120 M07/M08 A2961 RMK AC2 SLP076=

CYQF;2006-12-10 09:00;METAR CYQF 100900Z 13004KT 15SM FEW120 M07/M08 A2960 RMK AC2 SLP069=

CYQF;2006-12-10 10:00;METAR CYQF 101000Z 11002KT 10SM SKC M09/M10 A2959 RMK SLP066=

CYQF;2006-12-10 10:14;SPECI CYQF 101014Z 16003KT 2SM BR SKC RMK FG2=

CYQF;2006-12-10 10:22;SPECI CYQF 101022Z 21003KT 3/4SM BR SKC RMK FG3=

CYQF;2006-12-10 11:00;METAR CYQF 101100Z 23004KT 1SM BR SKC M11/M11 A2957 RMK FG2 SLP061=

CYQF;2006-12-10 11:46;SPECI CYQF 101146Z 35003KT 1/2SM FZFG SKC RMK FG3=

CYQF;2006-12-10 12:00;METAR CYQF 101200Z 23003KT 1/2SM FZFG SKC M12/M13 A2957 RMK FG3 SLP067=

CYQF;2006-12-10 13:00;METAR CYQF 101300Z 12003KT 1/2SM FZFG SKC M12/M13 A2956 RMK FG4 SLP064=

CYQF;2006-12-10 13:19;SPECI CYQF 101319Z 18006KT 1/2SM FZFG VV003 RMK FG8=

CYQF;2006-12-10 14:00;METAR CYQF 101400Z 00000KT 1/4SM FZFG VV002 M12/M13 A2956 RMK FG8 SLP065=

CYQF;2006-12-10 14:45;SPECI CYQF 101445Z 20005KT 1SM BR BKN040 RMK FG4SC2=

CYQF;2006-12-10 15:00;METAR CYQF 101500Z 22005KT 2SM BR BKN040 M12/M13 A2958 RMK SC5 SLP074=

CYQF;2006-12-10 16:00;METAR CYQF 101600Z 00000KT 5SM BR FEW040 SCT210 M13/M14 A2957 RMK SC2CI0 SLP072=

CYQF;2006-12-10 17:00;METAR CYQF 101700Z 20004KT 5SM BR FEW040 SCT210 M12/M12 A2959 RMK SC1CI1 SLP077=

CYQF;2006-12-10 18:00;METAR CYQF 101800Z 00000KT 5SM BR FEW040 SCT210 M09/M10 A2960 RMK SC1CI1 SLP075=

CYQF;2006-12-10 19:00;METAR CYQF 101900Z 00000KT 5SM BR FEW090 BKN210 M09/M10 A2960 RMK AC2CI2 SLP075=

CYQF;2006-12-10 20:00;METAR CYQF 102000Z 00000KT 5SM BR FEW110 BKN210 M07/M08 A2959 RMK AC2CI2 SLP074=

CYQF;2006-12-10 21:00;METAR CYQF 102100Z 00000KT 5SM BR FEW110 BKN210 M07/M08 A2959 RMK AC1CI2 SLP074=

CYQF;2006-12-10 22:00;METAR CYQF 102200Z 00000KT 5SM BR FEW110 BKN210 M05/M08 A2960 RMK AC1CI2 SLP075=

CYQF;2006-12-10 23:00;METAR CYQF 102300Z 00000KT 10SM FEW110 BKN210 M07/M09 A2960 RMK AC2CI1 SLP075=

CYQF;2006-12-11 00:00;METAR CYQF 110000Z 00000KT 15SM SCT110 BKN210 M09/M10 A2961 RMK AC3CI1 SLP089=

CYQF;2006-12-11 01:00;METAR CYQF 110100Z 18002KT 15SM FEW110 BKN210 M09/M11 A2963 RMK AC1CI1 SLP094=

CYQF;2006-12-11 02:00;METAR CYQF 110200Z 20004KT 15SM FEW110 SCT210 M09/M10 A2963 RMK AC1CI1 SLP093=

CYQF;2006-12-11 03:00;METAR CYQF 110300Z 00000KT 15SM OVC210 M09/M10 A2963 RMK CI6 SLP095=

CYQF;2006-12-11 04:00;METAR CYQF 110400Z 19006KT 15SM OVC210 M08/M08 A2964 RMK CI6 SLP096=

CYQF;2006-12-11 05:00;METAR CYQF 110500Z 18005KT 15SM OVC200 M06/M08 A2963 RMK CI8 SLP095=

CYQF;2006-12-11 06:00;METAR CYQF 110600Z 19003KT 15SM SCT100 OVC200 M05/M07 A2964 RMK AC3CI5 SLP089=

CYQF;2006-12-11 07:00;METAR CYQF 110700Z 19008KT 15SM SCT100 OVC200 M05/M07 A2964 RMK AC3CI5 SLP090=

CYQF;2006-12-11 08:00;METAR CYQF 110800Z 24005KT 15SM FEW100 BKN200 M05/M08 A2965 RMK AC2CI1 SLP092=

CYQF;2006-12-11 09:00;METAR CYQF 110900Z 22008KT 15SM FEW100 FEW200 M05/M08 A2965 RMK AC2CI0 SLP092=

CYQF;2006-12-11 10:00;METAR CYQF 111000Z 23008KT 15SM FEW200 M01/M06 A2966 RMK CI1 SLP093=

CYQF;2006-12-11 11:00;METAR CYQF 111100Z 24009KT 15SM FEW200 M02/M06 A2965 RMK CI1 SLP092=

CYQF;2006-12-11 12:00;METAR CYQF 111200Z 25012G18KT 15SM SKC 00/M06 A2966 RMK SLP090=

CYQF;2006-12-11 13:00;METAR CYQF 111300Z 24020G25KT 15SM BKN040 03/M03 A2964 RMK SC5 SLP084=

CYQF;2006-12-11 14:00;METAR CYQF 111400Z 23013KT 15SM FEW040 BKN200 01/M04 A2966 RMK SC1CI1 SLP092=

CYQF;2006-12-11 15:00;METAR CYQF 111500Z 22010KT 15SM FEW040 BKN200 M02/M06 A2967 RMK SC1CI1 SLP097=

CYQF;2006-12-11 16:00;METAR CYQF 111600Z 23006KT 15SM BKN200 M02/M07 A2966 RMK CI2 SLP095=

CYQF;2006-12-11 17:00;METAR CYQF 111700Z 24010G15KT 15SM BKN150 02/M05 A2966 RMK AC3 SLP094=

CYQF;2006-12-11 18:00;METAR CYQF 111800Z 23010KT 15SM BKN150 02/M04 A2966 RMK AC6 SLP084=

CYQF;2006-12-11 19:00;METAR CYQF 111900Z 19005KT 15SM BKN150 BKN220 03/M03 A2965 RMK AC5CI2 SLP081=

CYQF;2006-12-11 20:00;METAR CYQF 112000Z 19005KT 15SM BKN150 BKN220 03/M02 A2964 RMK AC5CI2 SLP079=

CYQF;2006-12-11 21:00;METAR CYQF 112100Z 21008KT 15SM SCT120 BKN220 05/M03 A2963 RMK AC3CI2 SLP072=

CYQF;2006-12-11 22:00;METAR CYQF 112200Z 20007KT 15SM SCT120 BKN220 04/M03 A2961 RMK AC3CI3 SLP066=

CYQF;2006-12-11 23:00;METAR CYQF 112300Z 18008KT 15SM SCT080 BKN220 02/M03 A2960 RMK AC3CI2 SLP063=

CYQF;2006-12-12 00:00;METAR CYQF 120000Z 19008KT 15SM BKN080 BKN220 01/M04 A2958 RMK AC5CI1 SLP053=

CYQF;2006-12-12 01:00;METAR CYQF 120100Z 18008KT 15SM BKN080 BKN220 04/M03 A2955 RMK AC5CI2 SLP044=

CYQF;2006-12-12 02:00;METAR CYQF 120200Z 18011KT 15SM SCT080 BKN220 04/M03 A2952 RMK AC3CI1 SLP035=

CYQF;2006-12-12 03:00;METAR CYQF 120300Z 16011KT 15SM BKN080 02/M04 A2948 RMK AC5 SLP020=

CYQF;2006-12-12 04:00;METAR CYQF 120400Z 00000KT 15SM BKN080 BKN220 M01/M04 A2947 RMK AC5CI1 SLP015=

CYQF;2006-12-12 05:00;METAR CYQF 120500Z 20011KT 15SM BKN080 OVC220 04/M02 A2945 RMK AC6CI2 SLP010=

CYQF;2006-12-12 06:00;METAR CYQF 120600Z 20011KT 15SM OVC080 03/M02 A2944 RMK AC8 SLP002=

CYQF;2006-12-12 07:00;METAR CYQF 120700Z 04005KT 15SM OVC080 01/M03 A2945 RMK AC7 SLP003=

CYQF;2006-12-12 08:00;METAR CYQF 120800Z 24013KT 15SM BKN080 OVC200 03/M04 A2945 RMK AC5CI3 SLP003=

CYQF;2006-12-12 09:00;METAR CYQF 120900Z 23012KT 15SM SCT080 BKN200 02/M06 A2945 RMK AC3CI1 SLP999=

CYQF;2006-12-12 10:00;METAR CYQF 121000Z 22009KT 15SM FEW080 SCT200 M00/M07 A2945 RMK AC1CI1 SLP001=

CYQF;2006-12-12 11:00;METAR CYQF 121100Z 20007KT 15SM FEW200 M00/M07 A2945 RMK CI1 SLP001=

CYQF;2006-12-12 12:00;METAR CYQF 121200Z 21008KT 15SM SKC M00/M07 A2947 RMK SLP014=

CYQF;2006-12-12 13:00;METAR CYQF 121300Z 21008KT 15SM SKC M01/M07 A2948 RMK SLP017=

CYQF;2006-12-12 14:00;METAR CYQF 121400Z 21008KT 15SM SKC M04/M09 A2946 RMK SLP011=

CYQF;2006-12-12 15:00;METAR CYQF 121500Z 22012KT 15SM FEW120 00/M08 A2945 RMK AC1 SLP006=

CYQF;2006-12-12 16:00;METAR CYQF 121600Z 24007KT 15SM FEW120 M01/M08 A2947 RMK AC2 SLP013=

CYQF;2006-12-12 17:00;METAR CYQF 121700Z 24008KT 15SM FEW120 SCT210 M02/M08 A2948 RMK AC2CI0 SLP017=

CYQF;2006-12-12 18:00;METAR CYQF 121800Z 24010G15KT 15SM FEW040 SCT120 BKN210 M01/M07 A2949 RMK SC2AC2CI1 SLP022=

CYQF;2006-12-12 19:00;METAR CYQF 121900Z 22012KT 15SM FEW040 SCT120 BKN210 M01/M07 A2950 RMK SC2AC2CI1 SLP025=

CYQF;2006-12-12 20:00;METAR CYQF 122000Z 28006KT 15SM FEW040 FEW120 BKN210 01/M07 A2953 RMK SC2AC1CI2 SLP034=

CYQF;2006-12-12 21:00;METAR CYQF 122100Z 28006KT 15SM FEW040 FEW120 BKN210 01/M07 A2956 RMK SC2AC1CI2 SLP044=

CYQF;2006-12-12 22:00;METAR CYQF 122200Z 30008KT 15SM FEW040 FEW120 BKN210 01/M07 A2958 RMK SC2AC1CI1 VIRGA SLP050=

CYQF;2006-12-12 23:00;METAR CYQF 122300Z 12003KT 15SM FEW040 FEW120 BKN210 00/M08 A2962 RMK SC2AC1CI1 SLP063=

CYQF;2006-12-13 00:00;METAR CYQF 130000Z 20002KT 15SM FEW040 SCT210 M01/M08 A2966 RMK SC2CI1 SLP083=

CYQF;2006-12-13 01:00;METAR CYQF 130100Z 20005KT 15SM FEW210 M05/M10 A2969 RMK CI0 SLP092=

CYQF;2006-12-13 02:00;METAR CYQF 130200Z 20005KT 15SM SKC M07/M11 A2971 RMK SLP099=

CYQF;2006-12-13 03:00;METAR CYQF 130300Z 20005KT 15SM SKC M09/M12 A2973 RMK OB TAKEN +5 SLP115=

CYQF;2006-12-13 04:00;METAR CYQF 130400Z 20005KT 15SM SKC M10/M13 A2974 RMK SLP119=

CYQF;2006-12-13 05:00;METAR CYQF 130500Z 22002KT 15SM SKC M10/M13 A2973 RMK SLP117=

CYQF;2006-12-13 06:00;METAR CYQF 130600Z 17004KT 15SM SKC M11/M15 A2972 RMK SLP117=

CYQF;2006-12-13 07:00;METAR CYQF 130700Z 00000KT 15SM SKC M10/M14 A2971 RMK SLP112=

CYQF;2006-12-13 08:00;METAR CYQF 130800Z 00000KT 15SM SKC M12/M14 A2968 RMK SLP104=

CYQF;2006-12-13 09:00;METAR CYQF 130900Z 00000KT 15SM SKC M12/M14 A2964 RMK SLP088=

CYQF;2006-12-13 10:00;METAR CYQF 131000Z 00000KT 15SM BKN200 M12/M15 A2961 RMK CI4 SLP078=

CYQF;2006-12-13 11:00;METAR CYQF 131100Z 00000KT 15SM OVC200 M12/M14 A2957 RMK CI6 SLP066=

CYQF;2006-12-13 12:00;METAR CYQF 131200Z 14007KT 15SM OVC200 M06/M10 A2946 RMK CI8 PRESFR SLP021=

CYQF;2006-12-13 13:00;METAR CYQF 131300Z 15007KT 15SM OVC200 M05/M09 A2944 RMK CI8 SLP015=

CYQF;2006-12-13 14:00;METAR CYQF 131400Z 17005KT 15SM SCT120 OVC230 M05/M09 A2938 RMK AC3CI5 SLP996=

CYQF;2006-12-13 15:00;METAR CYQF 131500Z 18005KT 15SM BKN100 BKN230 M04/M08 A2931 RMK AC5CI2 PRESFR SLP973=

CYQF;2006-12-13 16:00;METAR CYQF 131600Z 15005KT 15SM BKN100 BKN230 M04/M09 A2926 RMK AC5CI1 SLP959=

CYQF;2006-12-13 17:00;METAR CYQF 131700Z 13007KT 15SM FEW030 BKN100 BKN230 M04/M09 A2923 RMK CU1AC5CI1 SLP949=

CYQF;2006-12-13 18:00;METAR CYQF 131800Z 17005KT 15SM FEW030 BKN100 BKN230 M04/M08 A2920 RMK CU1AC5CI1 SLP939=

CYQF;2006-12-13 19:00;METAR CYQF 131900Z 21007KT 15SM FEW030 BKN100 BKN230 M06/M09 A2918 RMK CU1AC4CI1 SLP933=

CYQF;2006-12-13 20:00;METAR CYQF 132000Z 20007KT 15SM FEW030 FEW100 SCT230 M03/M08 A2918 RMK CU1AC2CI0 SLP932=

CYQF;2006-12-13 21:00;METAR CYQF 132100Z 21003KT 15SM FEW030 BKN100 BKN230 M00/M06 A2919 RMK CU1AC4CI1 SLP932=

CYQF;2006-12-13 22:00;METAR CYQF 132200Z 19004KT 15SM FEW030 BKN090 BKN230 M01/M06 A2920 RMK CU1AC4CI1 SLP936=

CYQF;2006-12-13 23:00;METAR CYQF 132300Z 21005KT 15SM FEW030 BKN090 BKN230 01/M06 A2922 RMK CU1AC6CI2 SLP942=

CYQF;2006-12-14 00:00;METAR CYQF 140000Z 24005KT 15SM BKN090 BKN210 01/M05 A2925 RMK AC6CI1 SLP945=

CYQF;2006-12-14 01:00;METAR CYQF 140100Z 24005KT 15SM BKN090 01/M05 A2927 RMK AC7 SLP952=

CYQF;2006-12-14 02:00;METAR CYQF 140200Z 00000KT 15SM OVC090 M01/M05 A2931 RMK AC8 SLP962=

CYQF;2006-12-14 03:00;METAR CYQF 140300Z 00000KT 15SM SCT090 M04/M06 A2933 RMK AC3 SLP974=

CYQF;2006-12-14 04:00;METAR CYQF 140400Z 22005KT 15SM FEW090 BKN210 M05/M08 A2934 RMK AC2CI2 SLP978=

CYQF;2006-12-14 05:00;METAR CYQF 140500Z 20005KT 15SM FEW090 BKN210 M05/M08 A2936 RMK AC2CI4 SLP984=

CYQF;2006-12-14 06:00;METAR CYQF 140600Z 22007KT 15SM FEW090 BKN210 M04/M08 A2936 RMK AC2CI1 SLP988=

CYQF;2006-12-14 07:00;METAR CYQF 140700Z 25006KT 15SM SCT120 BKN230 M04/M08 A2940 RMK AC3CI2 SLP998=

CYQF;2006-12-14 08:00;METAR CYQF 140800Z 24006KT 15SM BKN100 BKN230 M01/M07 A2942 RMK AC5CI1 SLP004=

CYQF;2006-12-14 09:00;METAR CYQF 140900Z 25007KT 15SM BKN100 OVC230 01/M06 A2944 RMK AC6CI2 VIRGA SLP006=

CYQF;2006-12-14 10:00;METAR CYQF 141000Z 29003KT 15SM BKN100 OVC230 01/M06 A2947 RMK AC6CI2 VIRGA SLP016=

CYQF;2006-12-14 11:00;METAR CYQF 141100Z 11003KT 15SM BKN090 OVC230 M00/M05 A2952 RMK AC6CI2 VIRGA SLP029=

CYQF;2006-12-14 12:00;METAR CYQF 141200Z 23003KT 15SM BKN090 OVC230 M00/M06 A2952 RMK AC6CI2 SLP033=

CYQF;2006-12-14 13:00;METAR CYQF 141300Z 20004KT 15SM BKN090 OVC230 M02/M07 A2954 RMK AC5CI2 SLP038=

CYQF;2006-12-14 14:00;METAR CYQF 141400Z 19004KT 15SM FEW090 FEW230 M04/M08 A2956 RMK AC1CI0 SLP043=

CYQF;2006-12-14 15:00;METAR CYQF 141500Z 22005KT 15SM FEW090 BKN230 M06/M11 A2957 RMK AC1CI2 SLP063=

CYQF;2006-12-14 16:00;METAR CYQF 141600Z 21005KT 15SM FEW090 BKN230 M06/M12 A2960 RMK AC1CI2 SLP070=

CYQF;2006-12-14 17:00;METAR CYQF 141700Z 23007KT 15SM FEW090 BKN230 M03/M11 A2961 RMK AC1CI0 SLP074=

CYQF;2006-12-14 18:00;METAR CYQF 141800Z 24005KT 15SM FEW100 M03/M11 A2961 RMK AC1 SLP073=

CYQF;2006-12-14 19:00;METAR CYQF 141900Z 22005KT 15SM FEW230 M00/M11 A2961 RMK CI1 SLP073=

CYQF;2006-12-14 20:00;METAR CYQF 142000Z 23005KT 15SM FEW230 M01/M09 A2962 RMK CI1 SLP076=

CYQF;2006-12-14 21:00;METAR CYQF 142100Z 16003KT 15SM SCT230 02/M10 A2959 RMK CI1 SLP055=

CYQF;2006-12-14 22:00;METAR CYQF 142200Z 16005KT 15SM FEW120 BKN230 M02/M10 A2957 RMK AC1CI1 SLP050=

CYQF;2006-12-14 23:00;METAR CYQF 142300Z 15005KT 15SM SCT100 BKN230 M04/M11 A2957 RMK AC2CI2 SLP050=

CYQF;2006-12-15 00:00;METAR CYQF 150000Z 15006KT 15SM SCT100 OVC230 M03/M10 A2955 RMK AC3CI3 SLP047=

CYQF;2006-12-15 01:00;METAR CYQF 150100Z 18005KT 15SM BKN100 OVC230 M03/M09 A2951 RMK AC6CI2 SLP036=

CYQF;2006-12-15 02:00;METAR CYQF 150200Z 15007KT 15SM OVC100 M04/M09 A2948 RMK AC8 SLP025=

CYQF;2006-12-15 03:00;METAR CYQF 150300Z 16006KT 15SM OVC100 M02/M10 A2941 RMK AC8 SLP005=

CYQF;2006-12-15 04:00;METAR CYQF 150400Z 14010KT 15SM OVC100 M02/M08 A2935 RMK AC8 PRESFR SLP985=

CYQF;2006-12-15 05:00;METAR CYQF 150500Z 14009KT 15SM FEW030 OVC090 M03/M08 A2930 RMK SC2AC6 SLP972=

CYQF;2006-12-15 06:00;METAR CYQF 150600Z 14013KT 15SM VCSH FEW030 OVC060 M03/M08 A2925 RMK SC2SC6 SLP945=

CYQF;2006-12-15 06:21;SPECI CYQF 150621Z 15014KT 10SM -SN OVC015 RMK SC8=

CYQF;2006-12-15 07:00;METAR CYQF 150700Z 13008KT 15SM FEW015 BKN040 OVC100 M03/M05 A2918 RMK SC2SC3AC2 SLP926=

CYQF;2006-12-15 08:00;METAR CYQF 150800Z 13007KT 15SM FEW015 BKN100 M04/M06 A2912 RMK SC2AC4 SLP907=

CYQF;2006-12-15 08:23;SPECI CYQF 150823Z 14011KT 10SM OVC005 RMK ST8=

CYQF;2006-12-15 09:00;METAR CYQF 150900Z 15012KT 10SM OVC005 M02/M03 A2906 RMK ST8 BR SLP875=

CYQF;2006-12-15 10:00;METAR CYQF 151000Z 17015KT 15SM SCT008 BKN100 M01/M02 A2901 RMK ST3AC2 SLP857=

CYQF;2006-12-15 11:00;METAR CYQF 151100Z 17012KT 15SM FEW008 BKN100 M01/M03 A2894 RMK ST2AC4 PRESFR SLP837=

CYQF;2006-12-15 12:00;METAR CYQF 151200Z 18010KT 15SM SCT100 M02/M04 A2895 RMK AC4 SLP839=

CYQF;2006-12-15 13:00;METAR CYQF 151300Z 20002KT 15SM BKN100 OVC230 M03/M05 A2891 RMK AC5CI2 SLP829=

CYQF;2006-12-15 14:00;METAR CYQF 151400Z 27006KT 15SM BKN100 OVC230 M03/M06 A2892 RMK AC6CI2 SLP831=

CYQF;2006-12-15 15:00;METAR CYQF 151500Z 32007KT 15SM BKN100 BKN230 M03/M06 A2895 RMK AC6CI2 SLP840=

CYQF;2006-12-15 15:36;SPECI CYQF 151536Z 35007KT 4SM BR BKN004 OVC100 RMK SF6AC2 VIS N 11/2 S 8=

CYQF;2006-12-15 16:00;METAR CYQF 151600Z 32008KT 1 1/2SM BR OVC004 M03/M04 A2897 RMK SF8 SLP848=

CYQF;2006-12-15 17:00;METAR CYQF 151700Z 28008KT 2SM BR BKN005 OVC015 M03/M04 A2901 RMK SF6SC2 SLP860=

CYQF;2006-12-15 17:33;SPECI CYQF 151733Z 28010KT 6SM BR BKN008 OVC015 RMK SF6SC2=

CYQF;2006-12-15 18:00;METAR CYQF 151800Z 30007KT 10SM BKN008 OVC015 M04/M06 A2905 RMK SF6SC2 SLP876=

CYQF;2006-12-15 19:00;METAR CYQF 151900Z 32013KT 10SM FEW008 OVC015 M03/M05 A2906 RMK SF2SC6 SLP881=

CYQF;2006-12-15 20:00;METAR CYQF 152000Z 31008KT 10SM OVC010 M03/M05 A2909 RMK SC8 SLP889=

CYQF;2006-12-15 21:00;METAR CYQF 152100Z 32010KT 10SM OVC010 M03/M05 A2912 RMK SC8 SLP901=

CYQF;2006-12-15 22:00;METAR CYQF 152200Z 30010KT 12SM OVC011 M03/M05 A2917 RMK SC8 SLP916=

CYQF;2006-12-15 23:00;METAR CYQF 152300Z 33013G22KT 10SM SCT011 BKN025 OVC090 M02/M05 A2921 RMK SC4SC3AC1 VIS LWR N SLP928=

CYQF;2006-12-16 00:00;METAR CYQF 160000Z 32017G25KT 12SM -SN SCT011 BKN025 OVC090 M02/M05 A2925 RMK SC3SC4AC1 DS SLP944=

CYQF;2006-12-16 00:49;SPECI CYQF 160049Z 32015G20KT 12SM DRSN OVC020 RMK SC8=

CYQF;2006-12-16 01:00;METAR CYQF 160100Z 30016G22KT 10SM DRSN OVC020 M02/M05 A2929 RMK SC8 SLP955=

CYQF;2006-12-16 02:00;METAR CYQF 160200Z 31020G25KT 15SM DRSN BKN020 OVC080 M02/M06 A2932 RMK SC6AC2 SLP966=

CYQF;2006-12-16 03:00;METAR CYQF 160300Z 31020G27KT 15SM DRSN BKN025 M03/M07 A2936 RMK SC6 SLP985=

CYQF;2006-12-16 04:00;METAR CYQF 160400Z 31017G25KT 15SM DRSN FEW020 OVC080 M03/M07 A2940 RMK SC2AC6 SLP997=

CYQF;2006-12-16 06:00;METAR CYQF 160600Z 32025G35KT 15SM DRSN SCT090 M04/M08 A2946 RMK AC2 SLP019=

CYQF;2006-12-16 07:00;METAR CYQF 160700Z 31018G26KT 15SM DRSN BKN080 M04/M08 A2950 RMK AC7 SLP032=

CYQF;2006-12-16 08:00;METAR CYQF 160800Z 31015G25KT 15SM DRSN OVC080 M04/M08 A2953 RMK AC8 SLP041=

CYQF;2006-12-16 09:00;METAR CYQF 160900Z 32010G15KT 15SM OVC080 M05/M09 A2956 RMK AC8 SLP057=

CYQF;2006-12-16 10:00;METAR CYQF 161000Z 33010G18KT 15SM BKN080 M05/M09 A2960 RMK AC6 SLP068=

CYQF;2006-12-16 11:00;METAR CYQF 161100Z 33015G20KT 15SM OVC080 M05/M10 A2963 RMK AC6 SLP076=

CYQF;2006-12-16 12:00;METAR CYQF 161200Z 32013KT 15SM OVC080 M06/M11 A2965 RMK AC6 SLP088=

CYQF;2006-12-16 13:00;METAR CYQF 161300Z 31015G20KT 15SM OVC080 M05/M11 A2968 RMK AC4 SLP097=

CYQF;2006-12-16 14:00;METAR CYQF 161400Z 33020G32KT 15SM OVC080 M05/M12 A2970 RMK AC4 SLP104=

CYQF;2006-12-16 15:00;METAR CYQF 161500Z 31012KT 15SM BKN080 BKN250 M05/M13 A2972 RMK AC5CI1 SLP113=

CYQF;2006-12-16 16:00;METAR CYQF 161600Z 31012KT 15SM SCT080 BKN250 M06/M13 A2975 RMK AC3CI2 SLP122=

CYQF;2006-12-16 17:00;METAR CYQF 161700Z 31012KT 15SM FEW080 BKN250 M07/M13 A2978 RMK AC2CI2 SLP132=

CYQF;2006-12-16 18:00;METAR CYQF 161800Z 29010KT 15SM FEW080 BKN250 M07/M13 A2981 RMK AC2CI2 SLP146=

CYQF;2006-12-16 19:00;METAR CYQF 161900Z 29007KT 15SM FEW100 BKN250 M07/M13 A2982 RMK AC2CI2 SLP148=

CYQF;2006-12-16 20:00;METAR CYQF 162000Z 32008KT 15SM FEW100 BKN250 M06/M13 A2983 RMK AC2CI2 SLP153=

CYQF;2006-12-16 21:00;METAR CYQF 162100Z 29008KT 15SM FEW100 BKN250 M05/M13 A2985 RMK AC2CI2 SLP159=

CYQF;2006-12-16 22:00;METAR CYQF 162200Z 30007KT 15SM SCT250 M06/M14 A2986 RMK CI2 SLP164=

CYQF;2006-12-16 23:00;METAR CYQF 162300Z 32005KT 15SM FEW250 M08/M15 A2988 RMK CI1 SLP170=

CYQF;2006-12-17 00:00;METAR CYQF 170000Z 36004KT 15SM SKC M07/M16 A2989 RMK SLP177=

CYQF;2006-12-17 01:00;METAR CYQF 170100Z 19004KT 15SM SKC M14/M18 A2991 RMK SLP182=

CYQF;2006-12-17 02:00;METAR CYQF 170200Z 23006KT 15SM SKC M16/M19 A2992 RMK SLP184=

CYQF;2006-12-17 03:00;METAR CYQF 170300Z 22006KT 15SM SKC M17/M20 A2993 RMK SLP200=

CYQF;2006-12-17 04:00;METAR CYQF 170400Z 18004KT 15SM SKC M17/M19 A2993 RMK SLP202=

CYQF;2006-12-17 05:00;METAR CYQF 170500Z 20005KT 15SM SKC M19/M21 A2993 RMK SLP202=

CYQF;2006-12-17 06:00;METAR CYQF 170600Z 19005KT 15SM SKC M18/M20 A2993 RMK SLP205=

CYQF;2006-12-17 07:00;METAR CYQF 170700Z 19006KT 15SM SKC M19/M21 A2993 RMK SLP205=

CYQF;2006-12-17 08:00;METAR CYQF 170800Z 18006KT 15SM SCT210 M18/M21 A2992 RMK CI2 SLP202=

CYQF;2006-12-17 09:00;METAR CYQF 170900Z 00000KT 15SM BKN100 OVC210 M15/M18 A2991 RMK AC6CI2 SLP193=

CYQF;2006-12-17 10:00;METAR CYQF 171000Z 00000KT 15SM FEW100 BKN210 M15/M18 A2991 RMK AC2CI2 SLP193=

CYQF;2006-12-17 11:00;METAR CYQF 171100Z 14005KT 15SM FEW100 SCT210 M13/M17 A2990 RMK AC2CI1 SLP188=

CYQF;2006-12-17 12:00;METAR CYQF 171200Z 15005KT 15SM FEW100 BKN210 M13/M18 A2989 RMK AC2CI0 BARO READ +14 SLP185=

CYQF;2006-12-17 13:00;METAR CYQF 171300Z 21007KT 15SM FEW100 BKN210 M14/M18 A2989 RMK AC1CI0 SLP184=

CYQF;2006-12-17 14:00;METAR CYQF 171400Z 22003KT 15SM FEW100 BKN210 M14/M19 A2990 RMK AC2CI0 SLP187=

CYQF;2006-12-17 15:00;METAR CYQF 171500Z 00000KT 15SM BKN100 BKN250 M17/M20 A2990 RMK AC5CI1 SLP203=

CYQF;2006-12-17 16:00;METAR CYQF 171600Z 20005KT 15SM BKN100 BKN250 M16/M19 A2991 RMK AC5CI1 SLP207=

CYQF;2006-12-17 17:00;METAR CYQF 171700Z 21005KT 15SM SCT100 SCT250 M16/M19 A2993 RMK AC3CI0 SLP213=

CYQF;2006-12-17 18:00;METAR CYQF 171800Z 21004KT 15SM FEW100 M14/M19 A2994 RMK AC2 SLP217=

CYQF;2006-12-17 19:00;METAR CYQF 171900Z 29003KT 15SM FEW100 M12/M18 A2994 RMK AC1 SLP217=

CYQF;2006-12-17 20:00;METAR CYQF 172000Z 20003KT 15SM SKC M11/M18 A2994 RMK SLP217=

CYQF;2006-12-17 21:00;METAR CYQF 172100Z 18005KT 15SM SKC M10/M17 A2994 RMK SLP209=

CYQF;2006-12-17 22:00;METAR CYQF 172200Z 20005KT 15SM SKC M10/M16 A2995 RMK SLP211=

CYQF;2006-12-17 23:00;METAR CYQF 172300Z 20003KT 15SM SKC M11/M17 A2995 RMK SLP213=

CYQF;2006-12-18 00:00;METAR CYQF 180000Z 18004KT 15SM SKC M13/M17 A2995 RMK SLP215=

CYQF;2006-12-18 01:00;METAR CYQF 180100Z 20005KT 15SM SKC M15/M19 A2996 RMK SLP216=

CYQF;2006-12-18 02:00;METAR CYQF 180200Z 18005KT 15SM SKC M17/M20 A2996 RMK SLP218=

CYQF;2006-12-18 03:00;METAR CYQF 180300Z 18005KT 15SM SKC M18/M20 A2995 RMK SLP222=

CYQF;2006-12-18 04:00;METAR CYQF 180400Z 18005KT 15SM SKC M15/M18 A2995 RMK SLP222=

CYQF;2006-12-18 05:00;METAR CYQF 180500Z 20005KT 15SM SKC M14/M17 A2995 RMK SLP221=

CYQF;2006-12-18 06:00;METAR CYQF 180600Z 19005KT 15SM SKC M15/M19 A2994 RMK SLP211=

CYQF;2006-12-18 07:00;METAR CYQF 180700Z 20006KT 15SM SKC M16/M19 A2993 RMK SLP210=

CYQF;2006-12-18 08:00;METAR CYQF 180800Z 21006KT 15SM SKC M16/M19 A2993 RMK SLP209=

CYQF;2006-12-18 09:00;METAR CYQF 180900Z 21005KT 15SM SKC M16/M19 A2992 RMK SLP202=

CYQF;2006-12-18 10:00;METAR CYQF 181000Z 20005KT 15SM SKC M16/M19 A2992 RMK SLP200=

CYQF;2006-12-18 11:00;METAR CYQF 181100Z 19004KT 15SM FEW250 M12/M17 A2990 RMK CI2 SLP195=

CYQF;2006-12-18 12:00;METAR CYQF 181200Z 19003KT 15SM FEW250 M13/M17 A2987 RMK CI2 SLP185=

CYQF;2006-12-18 13:00;METAR CYQF 181300Z 20007KT 15SM FEW100 SCT250 M11/M16 A2985 RMK AC2CI2 SLP179=

CYQF;2006-12-18 14:00;METAR CYQF 181400Z 19006KT 15SM SCT100 SCT250 M08/M14 A2984 RMK AC3CI1 SLP176=

CYQF;2006-12-18 15:00;METAR CYQF 181500Z 20007KT 15SM BKN100 BKN250 M06/M11 A2983 RMK AC5CI2 SLP168=

CYQF;2006-12-18 16:00;METAR CYQF 181600Z 20006KT 15SM SCT100 BKN250 M06/M11 A2985 RMK AC3CI2 SLP172=

CYQF;2006-12-18 17:00;METAR CYQF 181700Z 18006KT 15SM SCT100 BKN250 M05/M10 A2984 RMK AC2CI2 SLP171=

CYQF;2006-12-18 18:00;METAR CYQF 181800Z 19006KT 15SM BKN090 OVC250 M02/M08 A2985 RMK AC5CI2 SLP168=

CYQF;2006-12-18 19:00;METAR CYQF 181900Z 18008KT 15SM BKN100 BKN250 M01/M06 A2983 RMK AC5CI2 SLP162=

CYQF;2006-12-18 20:00;METAR CYQF 182000Z 18005KT 15SM FEW060 BKN100 BKN250 01/M06 A2980 RMK SC2AC3CI1 SLP154=

CYQF;2006-12-18 21:00;METAR CYQF 182100Z 21010KT 15SM SCT060 BKN100 BKN250 03/M04 A2977 RMK SC3AC2CI1 SLP136=

CYQF;2006-12-18 22:00;METAR CYQF 182200Z 18006KT 15SM BKN060 BKN100 03/M05 A2978 RMK SC6AC2 SLP137=

CYQF;2006-12-18 23:00;METAR CYQF 182300Z 17006KT 15SM BKN060 BKN100 BKN250 02/M05 A2977 RMK SC5AC1CI0 SLP135=

CYQF;2006-12-19 00:00;METAR CYQF 190000Z 22008KT 15SM BKN060 BKN100 BKN250 02/M05 A2978 RMK SC5AC2CI0 SLP137=

CYQF;2006-12-19 01:00;METAR CYQF 190100Z 23005KT 15SM BKN060 BKN100 00/M05 A2978 RMK SC5AC2 SLP135=

CYQF;2006-12-19 02:00;METAR CYQF 190200Z 22009KT 15SM SCT060 SCT100 BKN250 01/M06 A2977 RMK SC3AC1CI1 SLP132=

CYQF;2006-12-19 03:00;METAR CYQF 190300Z 21009KT 15SM SCT060 BKN100 00/M06 A2975 RMK SC3AC3 SLP119=

CYQF;2006-12-19 04:00;METAR CYQF 190400Z 20011KT 15SM SCT060 OVC100 02/M06 A2973 RMK SC3AC5 SLP114=

CYQF;2006-12-19 05:00;METAR CYQF 190500Z 19010KT 15SM SCT060 OVC100 02/M06 A2969 RMK SC3AC5 SLP100=

CYQF;2006-12-19 06:00;METAR CYQF 190600Z 21006KT 15SM FEW060 OVC100 01/M06 A2968 RMK SC2AC6 SLP090=

CYQF;2006-12-19 07:00;METAR CYQF 190700Z 18006KT 15SM FEW060 BKN100 02/M06 A2966 RMK SC2AC3 SLP086=

CYQF;2006-12-19 08:00;METAR CYQF 190800Z 18007KT 15SM FEW050 OVC120 00/M07 A2965 RMK SC2AC5 SLP080=

CYQF;2006-12-19 09:00;METAR CYQF 190900Z 18006KT 15SM FEW050 BKN120 04/M06 A2963 RMK SC2AC6 SLP063=

CYQF;2006-12-19 09:50;SPECI CYQF 190950Z 23015G20KT 15SM FEW090 BKN120 RMK AC2AC4=

CYQF;2006-12-19 10:00;METAR CYQF 191000Z 24016G22KT 15SM FEW090 BKN120 04/M06 A2962 RMK AC2AC4 SLP062=

CYQF;2006-12-19 11:00;METAR CYQF 191100Z 24014KT 15SM BKN120 BKN250 03/M06 A2965 RMK AC6CI2 SLP069=

CYQF;2006-12-19 12:00;METAR CYQF 191200Z 23008KT 15SM SCT120 BKN250 01/M06 A2966 RMK AC3CI2 OBS TAKEN +10 SLP076=

CYQF;2006-12-19 13:00;METAR CYQF 191300Z 27007KT 15SM FEW120 M01/M08 A2968 RMK AC2 SLP085=

CYQF;2006-12-19 14:00;METAR CYQF 191400Z 24006KT 15SM FEW120 FEW220 M00/M08 A2971 RMK AC1CI0 SLP094=

CYQF;2006-12-19 15:00;METAR CYQF 191500Z 22005KT 15SM FEW120 SCT220 M03/M09 A2975 RMK AC2CI0 SLP116=

CYQF;2006-12-19 16:00;METAR CYQF 191600Z 29013G19KT 15SM FEW030 FEW120 SCT220 03/M07 A2978 RMK SC1AC1CI1 SLP126=

CYQF;2006-12-19 17:00;METAR CYQF 191700Z 34012G18KT 15SM FEW030 FEW120 SCT220 01/M07 A2985 RMK SC1AC1CI0 PRESRR SLP146=

CYQF;2006-12-19 18:00;METAR CYQF 191800Z 34007KT 15SM FEW120 01/M05 A2989 RMK AC1 SLP159=

CYQF;2006-12-19 19:00;METAR CYQF 191900Z 34010KT 15SM FEW120 01/M05 A2990 RMK AC1 SLP162=

CYQF;2006-12-19 20:00;METAR CYQF 192000Z 34010KT 15SM FEW120 01/M05 A2990 RMK AC1 SLP162=

CYQF;2006-12-19 21:00;METAR CYQF 192100Z 23005KT 15SM FEW120 01/M06 A2994 RMK AC1 SLP172=

CYQF;2006-12-19 22:00;METAR CYQF 192200Z 19002KT 15SM FEW120 03/M06 A2994 RMK AC1 SLP174=

CYQF;2006-12-19 23:00;METAR CYQF 192300Z 20005KT 15SM FEW120 FEW220 M03/M08 A2996 RMK AC1CI0 SLP179=

CYQF;2006-12-20 00:00;METAR CYQF 200000Z 19007KT 15SM FEW120 FEW220 M04/M09 A2999 RMK AC1CI0 SLP201=

CYQF;2006-12-20 01:00;METAR CYQF 200100Z 00000KT 15SM SKC M06/M08 A3003 RMK SLP211=

CYQF;2006-12-20 02:00;METAR CYQF 200200Z 18004KT 15SM SKC M08/M10 A3004 RMK SLP215=

CYQF;2006-12-20 03:00;METAR CYQF 200300Z 20003KT 15SM SKC M09/M11 A3004 RMK SLP227=

CYQF;2006-12-20 04:00;METAR CYQF 200400Z 36003KT 15SM SKC M09/M10 A3005 RMK SLP231=

CYQF;2006-12-20 05:00;METAR CYQF 200500Z 05004KT 15SM SKC M10/M11 A3005 RMK SLP231=

CYQF;2006-12-20 06:00;METAR CYQF 200600Z 22007KT 15SM SKC M13/M15 A3005 RMK SLP230=

CYQF;2006-12-20 07:00;METAR CYQF 200700Z 19005KT 15SM FEW100 M12/M13 A3005 RMK AC2 SLP229=

CYQF;2006-12-20 08:00;METAR CYQF 200800Z 19005KT 15SM FEW100 M12/M13 A3003 RMK AC2 SLP223=

CYQF;2006-12-20 09:00;METAR CYQF 200900Z 19003KT 15SM FEW100 BKN250 M11/M12 A3000 RMK AC2CI3 SLP211=

CYQF;2006-12-20 10:00;METAR CYQF 201000Z 00000KT 15SM FEW100 BKN250 M10/M12 A2999 RMK AC2CI3 SLP208=

CYQF;2006-12-20 11:00;METAR CYQF 201100Z 23004KT 15SM SCT100 BKN250 M10/M12 A2997 RMK AC3CI3 SLP203=

CYQF;2006-12-20 12:00;METAR CYQF 201200Z 00000KT 15SM FEW100 BKN250 M10/M11 A2997 RMK AC2CI3 SLP205=

CYQF;2006-12-20 13:00;METAR CYQF 201300Z 18004KT 15SM FEW100 BKN250 M10/M12 A2995 RMK AC2CI4 SLP199=

CYQF;2006-12-20 14:00;METAR CYQF 201400Z 20005KT 15SM SCT100 BKN250 M09/M12 A2993 RMK AC3CI2 SLP192=

CYQF;2006-12-20 15:00;METAR CYQF 201500Z 20005KT 15SM BKN100 BKN250 M09/M12 A2991 RMK AC5CI1 SLP190=

CYQF;2006-12-20 16:00;METAR CYQF 201600Z 20006KT 15SM BKN100 BKN250 M07/M11 A2990 RMK AC5CI1 SLP186=

CYQF;2006-12-20 17:00;METAR CYQF 201700Z 18008KT 15SM BKN100 BKN250 M05/M09 A2988 RMK AC5CI1 SLP180=

CYQF;2006-12-20 18:00;METAR CYQF 201800Z 18007KT 15SM SCT100 SCT250 M06/M09 A2988 RMK AC2CI0 SLP178=

CYQF;2006-12-20 19:00;METAR CYQF 201900Z 18005KT 15SM FEW100 SCT250 M03/M08 A2984 RMK AC2CI0 SLP165=

CYQF;2006-12-20 20:00;METAR CYQF 202000Z 00000KT 15SM FEW100 BKN250 M03/M07 A2982 RMK AC2CI1 SLP159=

CYQF;2006-12-20 21:00;METAR CYQF 202100Z 00000KT 15SM SCT100 BKN250 M01/M05 A2981 RMK AC2CI1 SLP149=

CYQF;2006-12-20 22:00;METAR CYQF 202200Z 22006KT 15SM FEW040 FEW100 SCT250 02/M05 A2980 RMK CU1AC1CI1 TR CU SLP145=

CYQF;2006-12-20 23:00;METAR CYQF 202300Z 23010KT 15SM FEW040 FEW100 FEW250 01/M05 A2979 RMK CU1AC1CI0 TR CU SLP143=

CYQF;2006-12-21 00:00;METAR CYQF 210000Z 21006KT 15SM FEW100 FEW250 01/M05 A2981 RMK AC1CI0 SLP142=

CYQF;2006-12-21 01:00;METAR CYQF 210100Z 25008KT 15SM FEW100 FEW250 M02/M07 A2981 RMK AC1CI0 SLP143=

CYQF;2006-12-21 02:00;METAR CYQF 210200Z 20005KT 15SM FEW100 FEW250 M04/M07 A2981 RMK AC1CI0 SLP143=

CYQF;2006-12-21 03:00;METAR CYQF 210300Z 21005KT 15SM SKC M06/M08 A2980 RMK SLP148=

CYQF;2006-12-21 04:00;METAR CYQF 210400Z 22006KT 15SM SKC M06/M09 A2979 RMK SLP145=

CYQF;2006-12-21 05:00;METAR CYQF 210500Z 19004KT 15SM SKC M07/M09 A2977 RMK SLP139=

CYQF;2006-12-21 06:00;METAR CYQF 210600Z 18006KT 15SM SCT250 M06/M09 A2976 RMK CI1 SLP132=

CYQF;2006-12-21 07:00;METAR CYQF 210700Z 20006KT 15SM SCT250 M08/M11 A2973 RMK CI1 SLP121=

CYQF;2006-12-21 08:00;METAR CYQF 210800Z 16005KT 15SM BKN250 M04/M08 A2970 RMK CI2 SLP111=

CYQF;2006-12-21 09:00;METAR CYQF 210900Z 17006KT 15SM SCT220 M07/M10 A2967 RMK CI1 SLP095=

CYQF;2006-12-21 10:00;METAR CYQF 211000Z 17008KT 15SM SCT220 M03/M07 A2964 RMK CI2 SLP086=

CYQF;2006-12-21 11:00;METAR CYQF 211100Z 18008KT 15SM FEW120 BKN220 M02/M06 A2961 RMK AC2CI2 SLP077=

CYQF;2006-12-21 12:00;METAR CYQF 211200Z 18012KT 15SM FEW120 BKN220 00/M05 A2957 RMK AC2CI2 SLP050=

CYQF;2006-12-21 13:00;METAR CYQF 211300Z 18010KT 15SM FEW120 BKN220 M01/M06 A2954 RMK AC2CI2 SLP040=

CYQF;2006-12-21 14:00;METAR CYQF 211400Z 19006KT 15SM OVC100 01/M05 A2952 RMK AC8 SLP032=

CYQF;2006-12-21 15:00;METAR CYQF 211500Z 19008KT 15SM BKN120 00/M04 A2951 RMK AC7 SLP035=

CYQF;2006-12-21 16:00;METAR CYQF 211600Z 20003KT 15SM BKN100 BKN220 01/M04 A2950 RMK AC6CI1 SLP032=

CYQF;2006-12-21 17:00;METAR CYQF 211700Z 18010G15KT 15SM SCT100 BKN220 02/M04 A2949 RMK AC3CI2 SLP029=

CYQF;2006-12-21 18:00;METAR CYQF 211800Z 19009KT 15SM FEW030 SCT100 BKN220 03/M03 A2951 RMK SC1AC3CI2 SLP032=

CYQF;2006-12-21 19:00;METAR CYQF 211900Z 21010KT 15SM FEW030 FEW100 SCT250 07/M03 A2951 RMK SC1AC1CI1 SLP033=

CYQF;2006-12-21 20:00;METAR CYQF 212000Z 23014G22KT 15SM FEW030 FEW100 SCT250 07/M04 A2952 RMK SC1AC1CI1 SLP037=

CYQF;2006-12-21 21:00;METAR CYQF 212100Z 27010G15KT 15SM FEW040 SCT250 06/M05 A2955 RMK SC1CI1 SLP044=

CYQF;2006-12-21 22:00;METAR CYQF 212200Z 26010KT 15SM FEW040 06/M06 A2957 RMK SC1 SLP052=

CYQF;2006-12-21 23:00;METAR CYQF 212300Z 23008KT 15SM FEW040 03/M06 A2961 RMK SC1 SLP063=

CYQF;2006-12-22 00:00;METAR CYQF 220000Z 24010G15KT 15SM SKC 01/M07 A2963 RMK SLP069=

CYQF;2006-12-22 01:00;METAR CYQF 220100Z 24010KT 15SM SKC 01/M08 A2966 RMK SLP080=

CYQF;2006-12-22 02:00;METAR CYQF 220200Z 25010KT 15SM SKC M01/M09 A2967 RMK SLP083=

CYQF;2006-12-22 03:00;METAR CYQF 220300Z 24010G17KT 15SM SKC M00/M09 A2969 RMK SLP091=

CYQF;2006-12-22 04:00;METAR CYQF 220400Z 25010G16KT 15SM SKC M01/M10 A2970 RMK SLP096=

CYQF;2006-12-22 05:00;METAR CYQF 220500Z 24012KT 15SM SKC M00/M10 A2973 RMK SLP103=

CYQF;2006-12-22 06:00;METAR CYQF 220600Z 25010KT 15SM SKC M03/M11 A2976 RMK SLP114=

CYQF;2006-12-22 07:00;METAR CYQF 220700Z 23008KT 15SM SKC M06/M12 A2978 RMK SLP122=

CYQF;2006-12-22 08:00;METAR CYQF 220800Z 23010KT 15SM SKC M05/M13 A2979 RMK OB TAKEN +10 SLP126=

CYQF;2006-12-22 09:00;METAR CYQF 220900Z 23006KT 15SM SKC M05/M14 A2980 RMK SLP130=

CYQF;2006-12-22 10:00;METAR CYQF 221000Z 20008KT 15SM SKC M11/M15 A2983 RMK SLP138=

CYQF;2006-12-22 11:00;METAR CYQF 221100Z 00000KT 15SM SKC M12/M16 A2985 RMK SLP145=

CYQF;2006-12-22 12:00;METAR CYQF 221200Z 20006KT 15SM FEW220 M11/M16 A2986 RMK CI0 SLP161=

CYQF;2006-12-22 13:00;METAR CYQF 221300Z 21005KT 15SM FEW220 M11/M16 A2986 RMK CI0 SLP163=

CYQF;2006-12-22 14:00;METAR CYQF 221400Z 20005KT 15SM FEW220 M11/M16 A2988 RMK CI0 SLP167=

CYQF;2006-12-22 15:00;METAR CYQF 221500Z 20005KT 15SM FEW120 SCT220 M13/M16 A2988 RMK AC2CI1 SLP173=

CYQF;2006-12-22 16:00;METAR CYQF 221600Z 18005KT 15SM SCT120 SCT220 M11/M16 A2989 RMK AC2CI1 SLP177=

CYQF;2006-12-22 17:00;METAR CYQF 221700Z 00000KT 15SM SCT120 M10/M14 A2991 RMK AC2 SLP183=

CYQF;2006-12-22 18:00;METAR CYQF 221800Z 21004KT 15SM FEW120 M08/M14 A2990 RMK AC1 SLP179=

CYQF;2006-12-22 19:00;METAR CYQF 221900Z 21006KT 15SM FEW120 M05/M12 A2991 RMK AC1 SLP180=

CYQF;2006-12-22 20:00;METAR CYQF 222000Z 21005KT 15SM FEW120 M03/M10 A2991 RMK AC1 SLP181=

CYQF;2006-12-22 21:00;METAR CYQF 222100Z 00000KT 15SM FEW120 M01/M09 A2992 RMK AC1 SLP178=

CYQF;2006-12-22 22:00;METAR CYQF 222200Z 20003KT 15SM FEW030 FEW120 M01/M09 A2994 RMK SF1AC1 SLP184=

CYQF;2006-12-22 23:00;METAR CYQF 222300Z 00000KT 15SM FEW030 FEW120 M01/M09 A2995 RMK SF1AC1 SLP189=

CYQF;2006-12-23 00:00;METAR CYQF 230000Z 00000KT 15SM FEW030 FEW120 M06/M11 A2996 RMK SF1AC1 SLP207=

CYQF;2006-12-23 01:00;METAR CYQF 230100Z 00000KT 15SM FEW120 M08/M12 A2998 RMK AC1 SLP212=

CYQF;2006-12-23 02:00;METAR CYQF 230200Z 18003KT 15SM SKC M09/M13 A2997 RMK SLP209=

CYQF;2006-12-23 03:00;METAR CYQF 230300Z 18005KT 15SM SKC M11/M14 A2999 RMK SLP222=

CYQF;2006-12-23 04:00;METAR CYQF 230400Z 00000KT 15SM FEW100 M12/M15 A2998 RMK AC1 SLP219=

CYQF;2006-12-23 05:00;METAR CYQF 230500Z 17005KT 15SM FEW100 M13/M16 A2998 RMK AC1 SLP219=

CYQF;2006-12-23 06:00;METAR CYQF 230600Z 21005KT 15SM FEW100 M12/M16 A2999 RMK AC1 SLP221=

CYQF;2006-12-23 07:00;METAR CYQF 230700Z 20005KT 15SM FEW100 BKN250 M13/M16 A3002 RMK AC1CI2 SLP228=

CYQF;2006-12-23 08:00;METAR CYQF 230800Z 20005KT 15SM BKN120 BKN250 M12/M15 A3000 RMK AC5CI1 SLP223=

CYQF;2006-12-23 09:00;METAR CYQF 230900Z 18005KT 15SM BKN120 M10/M14 A2996 RMK AC6 SLP198=

CYQF;2006-12-23 10:00;METAR CYQF 231000Z 20005KT 15SM SCT120 BKN250 M11/M15 A2992 RMK AC2CI2 SLP185=

CYQF;2006-12-23 11:00;METAR CYQF 231100Z 17006KT 15SM SCT120 M11/M15 A2988 RMK AC2 SLP173=

CYQF;2006-12-23 12:00;METAR CYQF 231200Z 17008KT 15SM FEW120 M09/M14 A2984 RMK AC1 SLP161=

CYQF;2006-12-23 13:00;METAR CYQF 231300Z 16006KT 15SM FEW120 M10/M14 A2979 RMK AC1 SLP146=

CYQF;2006-12-23 14:00;METAR CYQF 231400Z 18003KT 15SM SKC M10/M14 A2975 RMK SLP133=

CYQF;2006-12-23 15:00;METAR CYQF 231500Z 19005KT 15SM FEW120 BKN210 M12/M16 A2969 RMK AC1CI0 SLP119=

CYQF;2006-12-23 16:00;METAR CYQF 231600Z 19003KT 15SM FEW120 SCT210 M12/M16 A2966 RMK AC1CI1 SLP109=

CYQF;2006-12-23 17:00;METAR CYQF 231700Z 18006KT 15SM FEW120 BKN210 M08/M13 A2963 RMK AC2CC1 SLP099=

CYQF;2006-12-23 18:00;METAR CYQF 231800Z 19004KT 15SM FEW080 FEW120 OVC210 M07/M12 A2960 RMK AC1AC1CI2 SLP083=

CYQF;2006-12-23 19:00;METAR CYQF 231900Z 00000KT 15SM FEW080 BKN120 OVC210 M05/M11 A2958 RMK AC1AC4CI2 SLP077=

CYQF;2006-12-23 20:00;METAR CYQF 232000Z 23006KT 15SM FEW080 BKN120 OVC210 M04/M09 A2956 RMK AC1AC6CI1 SLP072=

CYQF;2006-12-23 21:21;SPECI CYQF 232121Z 29012G20KT 15SM FEW040 BKN080 OVC210 RMK SC1AC6CI1 260V320 VIRGA=

CYQF;2006-12-23 22:00;METAR CYQF 232200Z 28010G15KT 15SM OVC080 00/M09 A2960 RMK AC8 VIRGA SLP074=

CYQF;2006-12-23 23:00;METAR CYQF 232300Z CCA 30010G15KT 15SM BKN080 OVC210 00/M08 A2965 RMK AC7CI1 VIRGA SLP089=

CYQF;2006-12-24 00:00;METAR CYQF 240000Z 31010KT 15SM SCT080 BKN120 BKN210 M01/M08 A2967 RMK AC3AC2CI0 SLP097=

CYQF;2006-12-24 01:00;METAR CYQF 240100Z 30007KT 15SM BKN100 BKN210 M02/M09 A2971 RMK AC5CI2 SLP108=

CYQF;2006-12-24 02:00;METAR CYQF 240200Z 00000KT 15SM BKN050 OVC100 M02/M08 A2974 RMK SC5AC2 SLP117=

CYQF;2006-12-24 03:00;METAR CYQF 240300Z 00000KT 15SM BKN050 OVC100 M02/M08 A2977 RMK SC6AC2 SLP135=

CYQF;2006-12-24 04:00;METAR CYQF 240400Z 32005KT 15SM SCT050 OVC100 M03/M07 A2981 RMK SC4AC2 SLP148=

CYQF;2006-12-24 05:00;METAR CYQF 240500Z 31013G21KT 15SM FEW050 BKN100 BKN210 M02/M09 A2984 RMK SC2AC3CI1 SLP158=

CYQF;2006-12-24 06:00;METAR CYQF 240600Z 31018G31KT 15SM SCT100 BKN210 M00/M10 A2987 RMK AC3CI2 SLP163=

CYQF;2006-12-24 07:00;METAR CYQF 240700Z 30015G21KT 15SM SKC M02/M11 A2993 RMK SLP180=

CYQF;2006-12-24 08:00;METAR CYQF 240800Z 31018G24KT 15SM SKC M03/M12 A2997 RMK SLP193=

CYQF;2006-12-24 09:00;METAR CYQF 240900Z 30013G20KT 15SM SKC M04/M12 A3001 RMK SLP211=

CYQF;2006-12-24 10:00;METAR CYQF 241000Z 28010KT 15SM SKC M06/M13 A3005 RMK SLP225=

CYQF;2006-12-24 11:00;METAR CYQF 241100Z 27006KT 15SM SKC M10/M15 A3008 RMK SLP234=

CYQF;2006-12-24 12:00;METAR CYQF 241200Z 21005KT 15SM SKC M10/M15 A3012 RMK SLP254=

CYQF;2006-12-24 13:00;METAR CYQF 241300Z 18007KT 15SM SKC M13/M17 A3014 RMK SLP261=

CYQF;2006-12-24 14:00;METAR CYQF 241400Z 18005KT 15SM SKC M13/M17 A3014 RMK SLP261=

CYQF;2006-12-24 15:00;METAR CYQF 241500Z 19006KT 15SM SKC M16/M19 A3014 RMK SLP268=

CYQF;2006-12-24 16:00;METAR CYQF 241600Z 19006KT 15SM SKC M17/M20 A3013 RMK SLP265=

CYQF;2006-12-24 17:00;METAR CYQF 241700Z 21010KT 15SM SKC M15/M19 A3014 RMK SLP267=

CYQF;2006-12-24 18:00;METAR CYQF 241800Z 18004KT 15SM SCT250 M10/M17 A3013 RMK CI1 SLP257=

CYQF;2006-12-24 19:00;METAR CYQF 241900Z 18004KT 15SM FEW250 M06/M14 A3010 RMK CI1 SLP248=

CYQF;2006-12-24 20:00;METAR CYQF 242000Z 16004KT 10SM BKN250 M06/M14 A3009 RMK CI5 SLP246=

CYQF;2006-12-24 21:00;METAR CYQF 242100Z 18003KT 15SM BKN250 M05/M13 A3009 RMK CI6 SLP241=

CYQF;2006-12-24 22:00;METAR CYQF 242200Z 15005KT 15SM BKN200 M05/M12 A3005 RMK CI7 SLP227=

CYQF;2006-12-24 23:00;METAR CYQF 242300Z 16004KT 15SM FEW100 BKN200 M06/M12 A3002 RMK AC1CI4 SLP219=

CYQF;2006-12-25 00:00;METAR CYQF 250000Z 14003KT 15SM FEW100 BKN210 M07/M12 A3000 RMK AC2CI3 SLP218=

CYQF;2006-12-25 01:00;METAR CYQF 250100Z 17007KT 15SM FEW100 BKN210 M06/M11 A2996 RMK AC2CI3 SLP208=

CYQF;2006-12-25 02:00;METAR CYQF 250200Z 17008KT 15SM BKN100 OVC210 M04/M11 A2991 RMK AC5CI2 SLP190=

CYQF;2006-12-25 03:00;METAR CYQF 250300Z 14008KT 15SM BKN100 OVC210 M04/M11 A2984 RMK AC6CI2 PRESFR SLP165=

CYQF;2006-12-25 04:00;METAR CYQF 250400Z 16012KT 15SM BKN100 OVC210 M03/M10 A2979 RMK AC6CI2 SLP150=

CYQF;2006-12-25 05:00;METAR CYQF 250500Z 18007KT 15SM OVC100 M03/M10 A2972 RMK AC8 SLP130=

CYQF;2006-12-25 06:00;METAR CYQF 250600Z 18010KT 15SM OVC100 M03/M11 A2968 RMK AC8 SLP102=

CYQF;2006-12-25 07:00;METAR CYQF 250700Z 18015G20KT 15SM OVC100 M02/M11 A2964 RMK AC8 BARO READ H+11 SLP089=

CYQF;2006-12-25 08:00;METAR CYQF 250800Z 18010KT 15SM OVC100 M02/M11 A2961 RMK AC8 SLP080=

CYQF;2006-12-25 09:00;METAR CYQF 250900Z 18010KT 15SM OVC100 M01/M11 A2958 RMK AC8 SLP062=

CYQF;2006-12-25 10:00;METAR CYQF 251000Z 18015KT 15SM SCT100 BKN210 M02/M09 A2956 RMK AC3CI0 SLP054=

CYQF;2006-12-25 11:00;METAR CYQF 251100Z 20010KT 15SM FEW210 M01/M08 A2956 RMK CI0 SLP053=

CYQF;2006-12-25 12:00;METAR CYQF 251200Z CCA 20004KT 15SM FEW210 M02/M07 A2956 RMK CI2 SLP055=

CYQF;2006-12-25 13:00;METAR CYQF 251300Z 20005KT 15SM FEW210 M04/M08 A2957 RMK CI1 SLP059=

CYQF;2006-12-25 14:00;METAR CYQF 251400Z 26005KT 15SM FEW210 M07/M10 A2958 RMK CI1 SLP062=

CYQF;2006-12-25 15:00;METAR CYQF 251500Z 24010KT 15SM FEW090 FEW250 M07/M10 A2960 RMK AC1CI1 SLP073=

CYQF;2006-12-25 16:00;METAR CYQF 251600Z 24008KT 15SM FEW090 FEW210 M08/M11 A2963 RMK AC1CI1 SLP081=

CYQF;2006-12-25 17:00;METAR CYQF 251700Z 24007KT 15SM FEW090 M03/M09 A2965 RMK AC1 SLP089=

CYQF;2006-12-25 18:00;METAR CYQF 251800Z 22006KT 15SM SKC M02/M09 A2967 RMK SLP092=

CYQF;2006-12-25 19:00;METAR CYQF 251900Z 23009KT 15SM SKC M01/M09 A2968 RMK SLP095=

CYQF;2006-12-25 20:00;METAR CYQF 252000Z 26005KT 15SM SKC 01/M07 A2970 RMK SLP099=

CYQF;2006-12-25 21:00;METAR CYQF 252100Z 26006KT 15SM SKC 01/M07 A2970 RMK SLP096=

CYQF;2006-12-25 22:00;METAR CYQF 252200Z 26010KT 15SM SKC 02/M08 A2973 RMK SLP104=

CYQF;2006-12-25 23:00;METAR CYQF 252300Z 25005KT 15SM SKC 01/M09 A2975 RMK SLP109=

CYQF;2006-12-26 00:00;METAR CYQF 260000Z 25005KT 15SM SKC M03/M10 A2976 RMK SLP120=

CYQF;2006-12-26 01:00;METAR CYQF 260100Z 23010KT 15SM SKC M02/M11 A2976 RMK SLP123=

CYQF;2006-12-26 02:00;METAR CYQF 260200Z 23010KT 15SM SKC M04/M11 A2977 RMK SLP126=

CYQF;2006-12-26 03:00;METAR CYQF 260300Z 24008KT 15SM SKC M04/M11 A2977 RMK SLP134=

CYQF;2006-12-26 04:00;METAR CYQF 260400Z 23010KT 15SM SKC M04/M11 A2978 RMK SLP137=

CYQF;2006-12-26 05:00;METAR CYQF 260500Z 23008KT 15SM SKC M06/M12 A2978 RMK SLP136=

CYQF;2006-12-26 06:00;METAR CYQF 260600Z 22008KT 15SM SKC M06/M13 A2978 RMK SLP133=

CYQF;2006-12-26 07:00;METAR CYQF 260700Z 23010KT 15SM SKC M08/M14 A2978 RMK SLP134=

CYQF;2006-12-26 08:00;METAR CYQF 260800Z 25010G15KT 15SM SKC M06/M13 A2978 RMK SLP134=

CYQF;2006-12-26 09:00;METAR CYQF 260900Z 24012KT 15SM SKC M05/M12 A2977 RMK SLP125=

CYQF;2006-12-26 10:00;METAR CYQF 261000Z 23010KT 15SM SKC M07/M13 A2977 RMK SLP126=

CYQF;2006-12-26 11:00;METAR CYQF 261100Z 22008KT 15SM SKC M10/M15 A2978 RMK SLP128=

CYQF;2006-12-26 12:00;METAR CYQF 261200Z 23005KT 15SM SKC M10/M15 A2976 RMK SLP131=

CYQF;2006-12-26 13:00;METAR CYQF 261300Z 19008KT 15SM FEW210 M11/M15 A2974 RMK CI1 SLP123=

CYQF;2006-12-26 14:00;METAR CYQF 261400Z 20006KT 15SM FEW210 M12/M16 A2973 RMK CI1 SLP120=

CYQF;2006-12-26 15:00;METAR CYQF 261500Z 21008KT 15SM FEW120 FEW250 M12/M16 A2974 RMK AC1CI1 SLP127=

CYQF;2006-12-26 16:00;METAR CYQF 261600Z 00000KT 15SM FEW120 FEW250 M11/M15 A2973 RMK AC2CI0 SLP124=

CYQF;2006-12-26 17:00;METAR CYQF 261700Z 19006KT 15SM FEW120 FEW250 M12/M16 A2972 RMK AC2CI0 SLP120=

CYQF;2006-12-26 18:00;METAR CYQF 261800Z 00000KT 15SM FEW120 FEW250 M09/M13 A2970 RMK AC1CI1 SLP112=

CYQF;2006-12-26 19:00;METAR CYQF 261900Z 21006KT 15SM FEW120 FEW250 M06/M12 A2969 RMK AC1CI1 SLP109=

CYQF;2006-12-26 20:00;METAR CYQF 262000Z 00000KT 15SM FEW120 SCT220 M03/M11 A2969 RMK AC1CI1 SLP108=

CYQF;2006-12-26 21:00;METAR CYQF 262100Z 00000KT 15SM FEW120 BKN220 M03/M10 A2967 RMK AC1CI2 CC ASOCTD SLP096=

CYQF;2006-12-26 22:00;METAR CYQF 262200Z 00000KT 15SM FEW120 BKN220 M03/M10 A2967 RMK AC1CI2 SLP096=

CYQF;2006-12-26 23:00;METAR CYQF 262300Z 00000KT 15SM FEW120 BKN220 M04/M10 A2967 RMK AC2CI1 SLP095=

CYQF;2006-12-27 00:00;METAR CYQF 270000Z 36005KT 15SM FEW120 BKN220 M07/M11 A2966 RMK AC1CI1 SLP102=

CYQF;2006-12-27 01:00;METAR CYQF 270100Z 02004KT 15SM BKN220 M06/M11 A2964 RMK CI2 SLP094=

CYQF;2006-12-27 02:00;METAR CYQF 270200Z 01004KT 15SM OVC220 M07/M12 A2963 RMK CI2 SLP090=

CYQF;2006-12-27 03:00;METAR CYQF 270300Z 00000KT 15SM OVC220 M12/M15 A2963 RMK CI2 SLP098=

CYQF;2006-12-27 04:00;METAR CYQF 270400Z 00000KT 15SM OVC220 M12/M15 A2963 RMK CI4 SLP098=

CYQF;2006-12-27 05:00;METAR CYQF 270500Z 00000KT 15SM OVC220 M12/M14 A2963 RMK CI2 SLP098=

CYQF;2006-12-27 06:00;METAR CYQF 270600Z 00000KT 15SM OVC120 M11/M14 A2964 RMK AC6 SLP098=

CYQF;2006-12-27 07:00;METAR CYQF 270700Z 00000KT 15SM OVC120 M11/M13 A2963 RMK AC8 SLP093=

CYQF;2006-12-27 08:00;METAR CYQF 270800Z 03003KT 15SM OVC120 M10/M13 A2960 RMK AC7 SLP086=

CYQF;2006-12-27 09:00;METAR CYQF 270900Z 00000KT 15SM OVC100 M10/M13 A2959 RMK AC3 SLP073=

CYQF;2006-12-27 10:00;METAR CYQF 271000Z 00000KT 15SM OVC100 M10/M12 A2958 RMK AC8 SLP071=

CYQF;2006-12-27 11:00;METAR CYQF 271100Z 23002KT 15SM OVC100 M10/M12 A2959 RMK AC8 SLP072=

CYQF;2006-12-27 12:00;METAR CYQF 271200Z 00000KT 15SM OVC080 M09/M12 A2958 RMK AC8 SLP071=

CYQF;2006-12-27 13:00;METAR CYQF 271300Z 00000KT 15SM OVC080 M08/M11 A2957 RMK AC8 SLP070=

CYQF;2006-12-27 14:00;METAR CYQF 271400Z 07002KT 15SM OVC080 M08/M10 A2958 RMK AC8 SLP072=

CYQF;2006-12-27 14:24;SPECI CYQF 271424Z 02003KT 10SM -SN OVC080 RMK AC8=

CYQF;2006-12-27 15:00;METAR CYQF 271500Z 00000KT 4SM -SN SCT030 OVC080 M07/M09 A2959 RMK SC4AC4 SLP079=

CYQF;2006-12-27 15:35;SPECI CYQF 271535Z 35003KT 2SM -SN OVC030 RMK SC8=

CYQF;2006-12-27 16:00;METAR CYQF 271600Z 35003KT 2SM -SN OVC015 M07/M08 A2960 RMK SC8 SLP084=

CYQF;2006-12-27 16:45;SPECI CYQF 271645Z 01005KT 5SM -SN OVC030 RMK SC8=

CYQF;2006-12-27 17:00;METAR CYQF 271700Z 34005KT 6SM -SN BKN030 OVC080 M06/M08 A2962 RMK SC6AC2 /S01/ SLP089=

CYQF;2006-12-27 18:00;METAR CYQF 271800Z 36005KT 3SM -SN OVC030 M06/M07 A2963 RMK SC8 SLP091=

CYQF;2006-12-27 18:36;SPECI CYQF 271836Z 01005KT 1 1/2SM -SN OVC030 RMK SC8=

CYQF;2006-12-27 19:00;METAR CYQF 271900Z 02005KT 1 1/2SM -SN OVC015 M05/M07 A2964 RMK SC8 SLP095=

CYQF;2006-12-27 19:30;SPECI CYQF 271930Z 35005KT 3/4SM -SN OVC015 RMK SC8=

CYQF;2006-12-27 20:00;METAR CYQF 272000Z 36006KT 1SM -SN OVC015 M05/M06 A2966 RMK SC8 SLP101=

CYQF;2006-12-27 21:00;METAR CYQF 272100Z 36012KT 1SM -SN OVC015 M05/M06 A2968 RMK SC8 SLP107=

CYQF;2006-12-27 22:00;METAR CYQF 272200Z 36005KT 1SM -SN OVC015 M05/M06 A2973 RMK SC8 /S04/ SLP122=

CYQF;2006-12-27 23:00;METAR CYQF 272300Z 36010KT 1SM -SN OVC015 M05/M06 A2978 RMK SC8 SLP138=

CYQF;2006-12-28 00:00;METAR CYQF 280000Z 34010KT 1SM -SN OVC015 M05/M06 A2983 RMK SC8 /S06/ SLP157=

CYQF;2006-12-28 01:00;METAR CYQF 280100Z 33013KT 1SM -SN VV010 M05/M06 A2987 RMK SN8 SLP171=

CYQF;2006-12-28 02:00;METAR CYQF 280200Z 34010KT 1SM -SN OVC015 M05/M07 A2992 RMK SN4SC3 MOON DMLY VSBL SLP185=

CYQF;2006-12-28 03:00;METAR CYQF 280300Z 33012KT 2SM -SN BKN015 OVC200 M05/M06 A2996 RMK SC6CI0 SLP199=

CYQF;2006-12-28 03:40;SPECI CYQF 280340Z 32012KT 10SM -SN SCT015 OVC050 RMK SC3SC3=

CYQF;2006-12-28 04:00;METAR CYQF 280400Z 32010KT 10SM -SN SCT015 OVC050 M05/M07 A3000 RMK SC3SC3 SLP211=

CYQF;2006-12-28 05:00;METAR CYQF 280500Z 32010KT 8SM -SN FEW015 OVC050 M05/M07 A3004 RMK SC2SC5 SLP225=

CYQF;2006-12-28 06:00;METAR CYQF 280600Z 32008KT 4SM -SN OVC050 M05/M06 A3007 RMK SC6 /S02/ SLP236=

CYQF;2006-12-28 07:00;METAR CYQF 280700Z 31008KT 10SM -SN BKN050 OVC250 M05/M07 A3010 RMK SC5CI1 SLP246=

CYQF;2006-12-28 08:00;METAR CYQF 280800Z 30010KT 10SM -SN BKN050 OVC250 M06/M07 A3014 RMK SC6CI1 SLP257=

CYQF;2006-12-28 09:00;METAR CYQF 280900Z 30006KT 10SM -SN BKN050 OVC250 M06/M08 A3017 RMK SC6CI1 SLP272=

CYQF;2006-12-28 10:00;METAR CYQF 281000Z 32012KT 10SM -SN OVC035 M05/M07 A3021 RMK SC8 SLP283=

CYQF;2006-12-28 11:00;METAR CYQF 281100Z 32014KT 10SM -SN OVC040 M05/M08 A3025 RMK SC7 SLP296=

CYQF;2006-12-28 12:00;METAR CYQF 281200Z 32012KT 10SM -SN BKN040 BKN250 M06/M09 A3029 RMK SC5CI1 SLP314=

CYQF;2006-12-28 13:00;METAR CYQF 281300Z 30006KT 10SM -SN SCT050 BKN250 M07/M09 A3033 RMK SC3CI1 SLP326=

CYQF;2006-12-28 14:00;METAR CYQF 281400Z 27006KT 10SM -SN SCT050 BKN250 M10/M11 A3035 RMK SC3CI1 SLP332=

CYQF;2006-12-28 14:24;SPECI CYQF 281424Z 26002KT 15SM FEW050 SCT100 BKN250 RMK SC1AC2CI0=

CYQF;2006-12-28 15:00;METAR CYQF 281500Z 27005KT 15SM FEW050 SCT100 BKN250 M12/M13 A3036 RMK SC1AC1CI1 SLP344=

CYQF;2006-12-28 16:00;METAR CYQF 281600Z 28005KT 15SM SCT100 M12/M14 A3038 RMK AC2 SLP350=

CYQF;2006-12-28 17:00;METAR CYQF 281700Z 28006KT 15SM BKN100 M09/M10 A3041 RMK AC5 SLP360=

CYQF;2006-12-28 18:00;METAR CYQF 281800Z 30005KT 15SM BKN100 M08/M09 A3043 RMK AC6 SLP363=

CYQF;2006-12-28 19:00;METAR CYQF 281900Z 00000KT 15SM BKN100 M08/M10 A3043 RMK AC3 SLP363=

CYQF;2006-12-28 20:00;METAR CYQF 282000Z 00000KT 15SM FEW100 SCT250 M07/M09 A3044 RMK AC2CI0 SLP367=

CYQF;2006-12-28 21:00;METAR CYQF 282100Z 00000KT 15SM FEW250 M06/M10 A3044 RMK CI0 SLP369=

CYQF;2006-12-28 22:00;METAR CYQF 282200Z 21005KT 15SM FEW250 M10/M12 A3044 RMK CI0 SLP366=

CYQF;2006-12-28 23:00;METAR CYQF 282300Z 19005KT 15SM FEW250 M10/M11 A3045 RMK CI0 SLP370=

CYQF;2006-12-29 00:00;METAR CYQF 290000Z 18005KT 15SM FEW250 M13/M15 A3046 RMK CI0 SLP383=

CYQF;2006-12-29 01:00;METAR CYQF 290100Z 17005KT 15SM FEW250 M16/M17 A3045 RMK CI1 SLP380=

CYQF;2006-12-29 02:00;METAR CYQF 290200Z 18005KT 15SM SKC M17/M18 A3045 RMK SLP379=

CYQF;2006-12-29 03:00;METAR CYQF 290300Z 28008KT 15SM SKC M15/M16 A3043 RMK FROIN SLP380=

CYQF;2006-12-29 04:00;METAR CYQF 290400Z 20005KT 15SM FEW240 M16/M17 A3042 RMK CI1 FROIN SLP376=

CYQF;2006-12-29 05:00;METAR CYQF 290500Z 18007KT 15SM FEW240 M13/M14 A3040 RMK CI1 FROIN SLP372=

CYQF;2006-12-29 06:00;METAR CYQF 290600Z 17008KT 15SM SKC M13/M14 A3039 RMK SLP359=

CYQF;2006-12-29 07:00;METAR CYQF 290700Z 18008KT 15SM SKC M12/M14 A3036 RMK SLP351=

CYQF;2006-12-29 08:00;METAR CYQF 290800Z 17010KT 15SM SKC M13/M15 A3034 RMK SLP342=

CYQF;2006-12-29 09:00;METAR CYQF 290900Z 17008KT 15SM SKC M14/M16 A3031 RMK SLP332=

CYQF;2006-12-29 11:00;METAR CYQF 291100Z 17012KT 15SM SKC M12/M14 A3027 RMK SLP318=

CYQF;2006-12-29 12:00;METAR CYQF 291200Z CCA 17012G18KT 15SM SKC M10/M13 A3025 RMK DRSN SLP313=

CYQF;2006-12-29 13:00;METAR CYQF 291300Z 12015KT 15SM SKC M10/M14 A3024 RMK DRSN SLP310=

CYQF;2006-12-29 14:00;METAR CYQF 291400Z 17015G22KT 15SM SKC M10/M14 A3020 RMK SLP299=

CYQF;2006-12-29 15:00;METAR CYQF 291500Z 18013KT 15SM DRSN FEW220 M09/M14 A3017 RMK CI0 SLP287=

CYQF;2006-12-29 16:00;METAR CYQF 291600Z 17013G20KT 15SM SCT220 M09/M14 A3015 RMK CI2 SLP281=

CYQF;2006-12-29 17:00;METAR CYQF 291700Z 16010G15KT 15SM SCT230 M10/M15 A3014 RMK CI2 SLP276=

CYQF;2006-12-29 18:00;METAR CYQF 291800Z 18012KT 15SM FEW100 SCT230 M08/M14 A3011 RMK AC1CI1 SLP261=

CYQF;2006-12-29 19:00;METAR CYQF 291900Z 17012G18KT 15SM FEW100 BKN250 M08/M13 A3006 RMK AC1CI2 SLP246=

CYQF;2006-12-29 20:00;METAR CYQF 292000Z 17013KT 15SM FEW100 BKN250 M08/M13 A3003 RMK AC1CI2 SLP237=

CYQF;2006-12-29 21:00;METAR CYQF 292100Z 17012G18KT 15SM FEW100 BKN250 M08/M13 A2998 RMK AC2CI2 SLP218=

CYQF;2006-12-29 22:00;METAR CYQF 292200Z 16010KT 15SM BKN100 OVC250 M07/M12 A2995 RMK AC5CI1 SLP207=

CYQF;2006-12-29 23:00;METAR CYQF 292300Z 18010G15KT 15SM BKN110 OVC250 M07/M11 A2992 RMK AC6CI2 SLP200=

CYQF;2006-12-30 00:00;METAR CYQF 300000Z 18010G15KT 15SM BKN110 BKN250 M06/M11 A2990 RMK AC5CI1 SLP184=

CYQF;2006-12-30 01:00;METAR CYQF 300100Z 17012KT 15SM BKN110 BKN250 M07/M11 A2986 RMK AC5CI1 SLP171=

CYQF;2006-12-30 02:00;METAR CYQF 300200Z 16013G19KT 15SM BKN110 OVC250 M06/M10 A2983 RMK AC6CI2 SLP162=

CYQF;2006-12-30 03:00;METAR CYQF 300300Z 18010G15KT 15SM BKN110 OVC250 M05/M09 A2983 RMK AC6CI2 SLP155=

CYQF;2006-12-30 04:00;METAR CYQF 300400Z 18010KT 15SM OVC110 M04/M09 A2981 RMK AC8 SLP150=

CYQF;2006-12-30 05:00;METAR CYQF 300500Z 28012KT 15SM OVC110 M04/M09 A2986 RMK AC8 SLP165=

CYQF;2006-12-30 06:00;METAR CYQF 300600Z 23005KT 15SM BKN140 M06/M10 A2988 RMK AC3 SLP173=

CYQF;2006-12-30 07:00;METAR CYQF 300700Z 30019G31KT 15SM DRSN SCT140 02/M07 A2990 RMK AC2 SLP181=

CYQF;2006-12-30 08:00;METAR CYQF 300800Z 29015G25KT 15SM DRSN BKN140 02/M07 A2994 RMK AC5 SLP192=

CYQF;2006-12-30 09:00;METAR CYQF 300900Z 29017G26KT 15SM DRSN BKN120 03/M07 A3000 RMK AC5 PRESRR SLP207=

CYQF;2006-12-30 10:00;METAR CYQF 301000Z 31007KT 15SM FEW120 BKN230 M00/M09 A3007 RMK AC2CI1 PRESRR SLP229=

CYQF;2006-12-30 11:00;METAR CYQF 301100Z 30013KT 15SM FEW120 SCT230 00/M08 A3011 RMK AC2CI1 SLP240=

CYQF;2006-12-30 12:00;METAR CYQF 301200Z 29007KT 15SM FEW120 SCT230 M02/M10 A3014 RMK AC2CI1 SLP257=

CYQF;2006-12-30 13:00;METAR CYQF 301300Z 26006KT 15SM BKN120 BKN230 M02/M11 A3015 RMK AC5CI1 SLP262=

CYQF;2006-12-30 14:00;METAR CYQF 301400Z 24010KT 15SM FEW120 SCT230 M05/M12 A3017 RMK AC2CI1 SLP267=

CYQF;2006-12-30 15:00;METAR CYQF 301500Z 20006KT 15SM FEW100 SCT230 M09/M14 A3017 RMK AC2CI0 SLP273=

CYQF;2006-12-30 16:00;METAR CYQF 301600Z 18006KT 15SM FEW100 SCT250 M09/M14 A3018 RMK AC2CI0 SLP276=

CYQF;2006-12-30 17:00;METAR CYQF 301700Z 20007KT 15SM SCT100 M08/M15 A3018 RMK AC3 SLP277=

CYQF;2006-12-30 18:00;METAR CYQF 301800Z 22010KT 15SM FEW100 M07/M15 A3018 RMK AC2 SLP276=

CYQF;2006-12-30 19:00;METAR CYQF 301900Z 20008KT 15SM FEW100 M04/M13 A3015 RMK AC2 SLP266=

CYQF;2006-12-30 20:00;METAR CYQF 302000Z 21008KT 15SM SKC M03/M12 A3012 RMK SLP258=

CYQF;2006-12-30 21:00;METAR CYQF 302100Z 19006KT 15SM SKC M01/M11 A3010 RMK SLP232=

CYQF;2006-12-30 22:00;METAR CYQF 302200Z 18004KT 15SM SKC M02/M11 A3011 RMK SLP234=

CYQF;2006-12-30 23:00;METAR CYQF 302300Z 17003KT 15SM SKC M02/M12 A3012 RMK SLP237=

CYQF;2006-12-31 00:00;METAR CYQF 310000Z 17006KT 15SM FEW250 M05/M13 A3015 RMK CI2 SLP260=

CYQF;2006-12-31 01:00;METAR CYQF 310100Z 20007KT 15SM FEW250 M10/M15 A3015 RMK CI1 SLP262=

CYQF;2006-12-31 02:00;METAR CYQF 310200Z 20005KT 15SM FEW250 M11/M16 A3016 RMK CI1 SLP263=

CYQF;2006-12-31 03:00;METAR CYQF 310300Z 22005KT 15SM SCT250 M12/M16 A3016 RMK CI2 SLP281=

CYQF;2006-12-31 04:00;METAR CYQF 310400Z 23008KT 15SM FEW250 M15/M18 A3016 RMK CI1 SLP281=

CYQF;2006-12-31 05:00;METAR CYQF 310500Z 16004KT 15SM SCT250 M14/M16 A3018 RMK CI2 SLP285=

CYQF;2006-12-31 06:00;METAR CYQF 310600Z 19005KT 15SM SCT250 M14/M16 A3017 RMK CI2 SLP283=

CYQF;2006-12-31 07:00;METAR CYQF 310700Z 20005KT 15SM OVC230 M14/M17 A3017 RMK CI5 SLP283=

CYQF;2006-12-31 08:00;METAR CYQF 310800Z 00000KT 15SM OVC230 M14/M16 A3016 RMK CI5 SLP280=

CYQF;2006-12-31 09:00;METAR CYQF 310900Z 00000KT 15SM OVC230 M14/M17 A3015 RMK CI5 SLP268=

CYQF;2006-12-31 10:00;METAR CYQF 311000Z 00000KT 15SM OVC230 M15/M17 A3015 RMK CI5 SLP267=

CYQF;2006-12-31 11:00;METAR CYQF 311100Z 00000KT 15SM OVC230 M14/M17 A3014 RMK CI5 SLP265=

CYQF;2006-12-31 12:00;METAR CYQF 311200Z 00000KT 15SM FEW130 OVC220 M12/M15 A3013 RMK AC2CI3 SLP264=

CYQF;2006-12-31 13:00;METAR CYQF 311300Z 00000KT 15SM FEW130 BKN220 M13/M16 A3011 RMK AC2CI3 SLP258=

CYQF;2006-12-31 14:00;METAR CYQF 311400Z 00000KT 15SM BKN130 M12/M15 A3010 RMK AC3 SLP256=

CYQF;2006-12-31 15:00;METAR CYQF 311500Z 00000KT 15SM BKN100 M13/M16 A3008 RMK AC4 SLP256=

CYQF;2006-12-31 16:00;METAR CYQF 311600Z 18003KT 15SM BKN100 BKN250 M12/M16 A3005 RMK AC5CI2 SLP249=

CYQF;2006-12-31 17:00;METAR CYQF 311700Z 18005KT 15SM BKN100 BKN250 M10/M14 A3004 RMK AC5CI1 SLP244=

CYQF;2006-12-31 18:00;METAR CYQF 311800Z 00000KT 15SM BKN100 BKN250 M09/M14 A3003 RMK AC4CI0 SLP237=

CYQF;2006-12-31 19:00;METAR CYQF 311900Z 21004KT 15SM SCT100 BKN250 M08/M13 A3001 RMK AC2CI2 SLP229=

CYQF;2006-12-31 20:00;METAR CYQF 312000Z 22004KT 15SM SCT100 BKN250 M07/M13 A2998 RMK AC2CI2 SLP221=

CYQF;2006-12-31 21:00;METAR CYQF 312100Z 00000KT 15SM FEW100 SCT250 M06/M12 A2996 RMK AC2CI1 SLP211=

CYQF;2006-12-31 22:00;METAR CYQF 312200Z 00000KT 15SM FEW100 SCT250 M07/M12 A2996 RMK AC2CI1 SLP211=

CYQF;2006-12-31 23:00;METAR CYQF 312300Z 19004KT 15SM FEW100 FEW250 M09/M14 A2998 RMK AC2CI0 SLP215=

