CYQF;2012-01-01 07:00;CYQF 010700Z 19008KT 15SM SKC M18/M23 A3037 RMK SLP354

CYQF;2012-01-01 08:00;CYQF 010800Z 22010KT 15SM SKC M18/M23 A3039 RMK SLP362

CYQF;2012-01-01 09:00;CYQF 010900Z 20006KT 15SM SKC M19/M24 A3040 RMK SLP369

CYQF;2012-01-01 10:00;CYQF 011000Z 21008KT 15SM SKC M19/M24 A3040 RMK SLP369

CYQF;2012-01-01 11:00;CYQF 011100Z 21008KT 15SM SKC 19/M24 A3041 RMK SLP371

CYQF;2012-01-01 12:00;CYQF 011200Z 19003KT 15SM SKC M20/M25 A3041 RMK SLP377

CYQF;2012-01-01 13:00;CYQF 011300Z 00000KT 15SM SKC M21/M25 A3041 RMK SLP377

CYQF;2012-01-01 14:00;CYQF 011400Z 00000KT 15SM SKC M20/M24 A3039 RMK SLP370

CYQF;2012-01-01 15:00;CYQF 011500Z 18004KT 15SM BKN220 M20/M25 A3040 RMK CI6 SLP380

CYQF;2012-01-01 16:00;CYQF 011600Z 00000KT 15SM FEW220 M20/M24 A3040 RMK CI2 SLP380

CYQF;2012-01-01 17:00;CYQF 011700Z 15005KT 15SM FEW220 M13/M16 A3041 RMK CI1 SLP382

CYQF;2012-01-01 18:00;CYQF 011800Z 18014KT 15SM SKC M09/M12 A3040 RMK SLP366

CYQF;2012-01-01 19:00;CYQF 011900Z 16012KT 15SM SKC M09/M11 A3036 RMK SLP355

CYQF;2012-01-01 20:00;CYQF 012000Z 15008KT 15SM FEW220 M10/M12 A3036 RMK CI1 SLP356

CYQF;2012-01-01 21:00;CYQF 012100Z 15006KT 15SM FEW220 M09/M11 A3035 RMK CI1 SLP354

CYQF;2012-01-01 22:00;CYQF 012200Z 15004KT 15SM SCT220 M09/M11 A3034 RMK CI2 SLP350

CYQF;2012-01-01 23:00;CYQF 012300Z 14004KT 15SM BKN220 M10/M12 A3035 RMK CI3 SLP356

CYQF;2012-01-02 00:00;CYQF 020000Z 16008KT 15SM BKN220 M10/M12 A3033 RMK CI3 SLP349

CYQF;2012-01-02 01:00;CYQF 020100Z 17007KT 15SM SCT220 M10/M12 A3031 RMK CI2 SLP342

CYQF;2012-01-02 02:00;CYQF 020200Z 15006KT 15SM BKN210 M09/M11 A3029 RMK CI2 SLP337

CYQF;2012-01-02 03:00;CYQF 020300Z 18008KT 15SM BKN210 M10/M13 A3027 RMK CI2 SLP329

CYQF;2012-01-02 04:00;CYQF 020400Z 16010KT 15SM OVC150 M08/M11 A3023 RMK AC8 SLP315

CYQF;2012-01-02 05:00;CYQF 020500Z 17010KT 15SM OVC150 M07/M10 A3019 RMK AC8 SLP303

CYQF;2012-01-02 06:00;CYQF 020600Z 17012KT 15SM SCT150 BKN220 M05/M09 A3015 RMK AC4CI2 SLP268

CYQF;2012-01-02 07:00;CYQF 020700Z 14010G15KT 15SM OVC150 M05/M09 A3011 RMK AC8 SLP254

CYQF;2012-01-02 08:00;CYQF 020800Z 17007KT 15SM OVC150 M05/M09 A3006 RMK AC8 SLP241

CYQF;2012-01-02 09:00;CYQF 020900Z 16007KT 15SM OVC150 M05/M08 A3002 RMK AC8 SLP224

CYQF;2012-01-02 10:00;CYQF 021000Z 15007KT 15SM OVC090 M04/M08 A2999 RMK AC8 SLP213

CYQF;2012-01-02 11:00;CYQF 021100Z 19005KT 15SM OVC090 M04/M07 A2995 RMK AC8 SLP203

CYQF;2012-01-02 12:00;CYQF 021200Z 17012KT 15SM OVC090 M03/M07 A2991 RMK AC8 SLP184

CYQF;2012-01-02 13:00;CYQF 021300Z 16007KT 15SM OVC100 M04/M07 A2989 RMK AC8 SLP177

CYQF;2012-01-02 14:00;CYQF 021400Z 18012KT 15SM OVC100 M02/M05 A2986 RMK AC8 SLP168

CYQF;2012-01-02 15:00;CYQF 021500Z 20010KT 15SM BKN100 M01/M04 A2983 RMK AC7 SLP154

CYQF;2012-01-02 16:00;CYQF 021600Z 19007KT 15SM BKN100 OVC230 02/M03 A2980 RMK AC6CI1 SLP145

CYQF;2012-01-02 17:00;CYQF 021700Z 21011G16KT 15SM BKN120 BKN230 05/M02 A2978 RMK AC6CI1 SLP138

CYQF;2012-01-02 18:00;CYQF 021800Z 21012G18KT 15SM FEW150 BKN250 06/M02 A2976 RMK AC2CI5 SLP114

CYQF;2012-01-02 19:00;CYQF 021900Z 20010G15KT 15SM FEW150 BKN250 05/M01 A2973 RMK AC2CI4 SLP106

CYQF;2012-01-02 20:00;CYQF 022000Z 22010G15KT 15SM SCT150 BKN250 06/M01 A2971 RMK AC3CI3 SLP100

CYQF;2012-01-02 21:00;CYQF 022100Z 24010G15KT 15SM SCT150 BKN250 07/M01 A2969 RMK AC3CI3 SLP090

CYQF;2012-01-02 22:00;CYQF 022200Z 17008KT 15SM SCT150 BKN250 07/M02 A2967 RMK AC4CI2 SLP084

CYQF;2012-01-02 23:00;CYQF 022300Z 15005KT 15SM FEW150 BKN250 07/M02 A2966 RMK AC2CI2 SLP080

CYQF;2012-01-03 00:00;CYQF 030000Z 20005KT 15SM FEW150 BKN250 02/M02 A2965 RMK AC2CI2 SLP080

CYQF;2012-01-03 01:00;CYQF 030100Z 23010KT 15SM FEW150 BKN250 04/M03 A2964 RMK AC1CI2 SLP077

CYQF;2012-01-03 02:00;CYQF 030200Z 23010KT 15SM FEW150 BKN250 02/M04 A2962 RMK AC2CI2 SLP071

CYQF;2012-01-03 03:00;CYQF 030300Z 24008KT 15SM FEW150 BKN250 04/M04 A2961 RMK AC2CI1 SLP062

CYQF;2012-01-03 04:00;CYQF 030400Z 23012KT 15SM BKN150 BKN250 04/M05 A2960 RMK AC5CI1 SLP058

CYQF;2012-01-03 05:00;CYQF 030500Z 23010G15KT 15SM OVC150 05/M03 A2958 RMK AC8 SLP053

CYQF;2012-01-03 06:00;CYQF 030600Z 24013KT 15SM OVC150 05/M03 A2958 RMK AC8 SLP043

CYQF;2012-01-03 07:00;CYQF 030700Z 26010G15KT 15SM OVC060 05/M03 A2961 RMK SC8 SLP050

CYQF;2012-01-03 08:00;CYQF 030800Z 30010KT 15SM BKN060 OVC150 06/M03 A2965 RMK SC6AC2 SLP062

CYQF;2012-01-03 09:00;CYQF 030900Z 31007KT 15SM BKN060 BKN150 03/M02 A2968 RMK SC5AC2 SLP077

CYQF;2012-01-03 10:00;CYQF 031000Z 29006KT 15SM FEW060 SCT150 03/M03 A2973 RMK SC2AC2 SLP093

CYQF;2012-01-03 11:00;CYQF 031100Z 30005KT 15SM FEW060 FEW150 01/M04 A2977 RMK SC1AC2 SLP107

CYQF;2012-01-03 12:00;CYQF 031200Z 31006KT 15SM FEW150 00/M05 A2982 RMK AC2 SLP134

CYQF;2012-01-03 13:00;CYQF 031300Z 18006KT 15SM SKC M03/M06 A2984 RMK SLP141

CYQF;2012-01-03 14:00;CYQF 031400Z 18005KT 15SM SKC M04/M07 A2985 RMK SLP144

CYQF;2012-01-03 15:00;CYQF 031500Z 21005KT 15SM BKN100 BKN250 M07/M09 A2987 RMK AC2CI1 SLP157

CYQF;2012-01-03 16:00;CYQF 031600Z 19005KT 15SM BKN100 BKN250 M05/M07 A2987 RMK AC5CI1 SLP157

CYQF;2012-01-03 17:00;CYQF 031700Z 15003KT 15SM FEW100 BKN250 M03/M07 A2988 RMK AC1CI2 SLP162

CYQF;2012-01-03 18:00;CYQF 031800Z 19004KT 15SM FEW100 BKN250 M00/M05 A2988 RMK AC2CI3 SLP152

CYQF;2012-01-03 19:00;CYQF 031900Z 20007KT 15SM FEW100 BKN250 01/M04 A2986 RMK AC2CI2 SLP146

CYQF;2012-01-03 20:00;CYQF 032000Z 00000KT 15SM SCT100 BKN250 02/M03 A2983 RMK AC3CI2 SLP138

CYQF;2012-01-03 21:00;CYQF 032100Z 18006KT 15SM BKN100 BKN250 03/M02 A2980 RMK AC5CI1 SLP125

CYQF;2012-01-03 22:00;CYQF 032200Z 20004KT 15SM FEW040 SCT100 BKN250 03/M03 A2982 RMK SC1AC2CI2 SLP131

CYQF;2012-01-03 23:00;CYQF 032300Z 19004KT 15SM FEW040 BKN100 BKN250 01/M02 A2981 RMK SC1AC5CI2 SLP126

CYQF;2012-01-04 00:00;CYQF 040000Z 00000KT 15SM BKN100 BKN250 03/M02 A2983 RMK AC6CI1 SLP137

CYQF;2012-01-04 01:00;CYQF 040100Z 00000KT 15SM BKN120 BKN250 02/M02 A2983 RMK AC6CI1 SLP137

CYQF;2012-01-04 02:00;CYQF 040200Z 21004KT 15SM BKN120 01/M02 A2983 RMK AC6 SLP138

CYQF;2012-01-04 03:00;CYQF 040300Z 21003KT 15SM BKN120 01/M02 A2983 RMK AC7 SLP148

CYQF;2012-01-04 04:00;CYQF 040400Z 21010KT 15SM BKN120 02/M02 A2983 RMK AC7 SLP148

CYQF;2012-01-04 05:00;CYQF 040500Z 20004KT 15SM SCT120 OVC210 M00/M03 A2983 RMK AC3CI4 SLP148

CYQF;2012-01-04 06:00;CYQF 040600Z 22003KT 15SM FEW120 OVC210 00/M03 A2985 RMK AC2CI2 SLP146

CYQF;2012-01-04 07:00;CYQF 040700Z 20008KT 15SM FEW120 BKN210 M01/M04 A2984 RMK AC2CI2 SLP144

CYQF;2012-01-04 08:00;CYQF 040800Z 16007KT 15SM FEW120 SCT210 M00/M04 A2984 RMK AC1CI1 SLP143

CYQF;2012-01-04 09:00;CYQF 040900Z 18005KT 15SM FEW120 SCT210 M02/M04 A2983 RMK AC1CI1 SLP140

CYQF;2012-01-04 10:00;CYQF 041000Z 18005KT 15SM SCT120 BKN210 M02/M04 A2983 RMK AC3CI1 SLP139

CYQF;2012-01-04 11:00;CYQF 041100Z 00000KT 15SM SCT120 BKN210 M02/M04 A2980 RMK AC4CI1 SLP131

CYQF;2012-01-04 12:00;CYQF 041200Z 00000KT 15SM BKN120 BKN210 M01/M03 A2979 RMK AC5CI2 SLP125

CYQF;2012-01-04 13:00;CYQF 041300Z 00000KT 15SM SCT120 BKN210 M03/M05 A2980 RMK AC3CI2 SLP127

CYQF;2012-01-04 14:00;CYQF 041400Z 00000KT 15SM FEW120 M02/M03 A2976 RMK AC2 SLP115

CYQF;2012-01-04 15:00;CYQF 041500Z 19007KT 15SM FEW120 SCT250 00/M02 A2973 RMK AC2CI1 SLP105

CYQF;2012-01-04 16:00;CYQF 041600Z 17008KT 15SM SCT120 BKN230 02/M01 A2971 RMK AC3CI2 SLP097

CYQF;2012-01-04 17:00;CYQF 041700Z 19010KT 15SM BKN080 BKN230 02/M01 A2971 RMK AC5CI1 SLP097

CYQF;2012-01-04 18:00;CYQF 041800Z 16006KT 15SM FEW100 BKN230 06/M00 A2967 RMK AC2CI2 SLP080

CYQF;2012-01-04 19:00;CYQF 041900Z 18008KT 15SM FEW100 BKN230 06/00 A2964 RMK AC1CI2 SLP070

CYQF;2012-01-04 20:00;CYQF 042000Z 22010KT 15SM FEW100 BKN230 09/M01 A2964 RMK AC1CI2 SLP070

CYQF;2012-01-04 21:00;CYQF 042100Z 23010KT 15SM FEW100 SCT230 08/M01 A2967 RMK AC1CI1 SLP079

CYQF;2012-01-04 22:00;CYQF 042200Z 22010KT 15SM FEW100 SCT250 08/M01 A2967 RMK AC1CI1 SLP078

CYQF;2012-01-04 23:00;CYQF 042300Z 23012G18KT 15SM FEW100 BKN250 09/M01 A2967 RMK AC1CI2 SLP078

CYQF;2012-01-05 00:00;CYQF 050000Z 23010G15KT 15SM FEW100 BKN250 07/M01 A2967 RMK AC2CI1 SLP077

CYQF;2012-01-05 01:00;CYQF 050100Z 23008KT 15SM SCT250 07/M01 A2966 RMK CI2 SLP076

CYQF;2012-01-05 02:00;CYQF 050200Z 23010KT 15SM SCT250 04/M01 A2966 RMK CI2 SLP076

CYQF;2012-01-05 03:00;CYQF 050300Z 23010G15KT 15SM FEW240 05/M01 A2964 RMK CI1 SLP069

CYQF;2012-01-05 04:00;CYQF 050400Z 23010G15KT 15SM SCT240 05/M01 A2962 RMK CI2 SLP063

CYQF;2012-01-05 05:00;CYQF 050500Z 22011G16KT 15SM BKN240 06/M01 A2961 RMK CI2 SLP058

CYQF;2012-01-05 06:00;CYQF 050600Z 23015G20KT 15SM SCT240 05/M01 A2958 RMK CI2 SLP042

CYQF;2012-01-05 07:00;CYQF 050700Z 23012KT 15SM SCT240 05/M01 A2954 RMK CI2 SLP030

CYQF;2012-01-05 08:00;CYQF 050800Z 22016G23KT 15SM SKC 05/M01 A2952 RMK SLP024

CYQF;2012-01-05 09:00;CYQF 050900Z 21016G22KT 15SM SKC 05/M00 A2951 RMK SLP015

CYQF;2012-01-05 10:00;CYQF 051000Z 22012KT 15SM SKC 04/00 A2950 RMK SLP013

CYQF;2012-01-05 11:00;CYQF 051100Z 21020G27KT 15SM SKC 04/00 A2950 RMK SLP012

CYQF;2012-01-05 12:00;CYQF 051200Z 23018G23KT 15SM SKC 05/M00 A2952 RMK SLP019

CYQF;2012-01-05 13:00;CYQF 051300Z 27013KT 15SM SCT060 04/M01 A2958 RMK SC3 SLP038

CYQF;2012-01-05 14:00;CYQF 051400Z 30012KT 15SM BKN060 03/M00 A2961 RMK SC6 PK WND 29036 1325 SLP047

CYQF;2012-01-05 15:00;CYQF 051500Z 27007KT 15SM BKN060 02/M00 A2963 RMK SC6 SLP061

CYQF;2012-01-05 16:00;CYQF 051600Z 27006KT 15SM BKN060 02/M00 A2965 RMK SC7 VIRGA SLP067

CYQF;2012-01-05 17:00;CYQF 051700Z 28008KT 15SM FEW030 BKN060 BKN100 03/M02 A2968 RMK SC1SC6AC1 VIRGA SLP077

CYQF;2012-01-05 18:00;CYQF 051800Z 27010KT 15SM FEW030 SCT060 BKN100 03/M03 A2970 RMK SC1SC3AC2 SLP086

CYQF;2012-01-05 19:00;CYQF 051900Z 27010KT 15SM FEW030 SCT070 BKN210 03/M03 A2970 RMK SC1AC2CI2 SLP085

CYQF;2012-01-05 20:00;CYQF 052000Z 27010KT 15SM FEW030 SCT080 BKN200 03/M03 A2969 RMK SC1AC2CI2 SLP084

CYQF;2012-01-05 21:00;CYQF 052100Z 26012KT 15SM FEW030 BKN080 BKN200 04/M05 A2969 RMK SC1AC6CI1 SLP084

CYQF;2012-01-05 22:00;CYQF 052200Z 29010KT 15SM BKN030 BKN080 03/M06 A2970 RMK SC6AC2 SLP087

CYQF;2012-01-05 23:00;CYQF 052300Z 29008KT 15SM BKN030 BKN080 02/M05 A2972 RMK SC6AC2 VIRGA ALQDS SLP091

CYQF;2012-01-06 00:00;CYQF 060000Z 27007KT 15SM SCT030 BKN080 01/M05 A2973 RMK SC4AC3 VIRGA SLP099

CYQF;2012-01-06 01:00;CYQF 060100Z 24008KT 15SM FEW030 BKN075 02/M06 A2974 RMK SC2AC5 VIRGA SLP102

CYQF;2012-01-06 02:00;CYQF 060200Z 26010KT 15SM BKN080 01/M04 A2976 RMK AC6 SLP107

CYQF;2012-01-06 03:00;CYQF 060300Z 28010KT 15SM BKN100 M00/M03 A2978 RMK AC4 SLP120

CYQF;2012-01-06 04:00;CYQF 060400Z 27008KT 15SM SCT100 BKN200 M01/M04 A2979 RMK AC3CI2 SLP124

CYQF;2012-01-06 05:00;CYQF 060500Z 25007KT 15SM SCT100 BKN200 M02/M05 A2980 RMK AC4CI1 SLP127

CYQF;2012-01-06 06:00;CYQF 060600Z 26007KT 15SM FEW100 SCT200 M03/M06 A2981 RMK AC1CI1 SLP134

CYQF;2012-01-06 07:00;CYQF 060700Z 24007KT 15SM FEW100 SCT200 M04/M07 A2982 RMK AC1CI1 SLP136

CYQF;2012-01-06 08:00;CYQF 060800Z 25006KT 15SM FEW200 M04/M10 A2982 RMK CI0 SLP138

CYQF;2012-01-06 09:00;CYQF 060900Z 24006KT 15SM FEW200 M05/M10 A2984 RMK CI0 SLP146

CYQF;2012-01-06 10:00;CYQF 061000Z 21006KT 15SM FEW200 M08/M11 A2987 RMK CI1 SLP154

CYQF;2012-01-06 11:00;CYQF 061100Z 23007KT 15SM FEW200 M07/M12 A2988 RMK CI0 SLP158

CYQF;2012-01-06 12:00;CYQF 061200Z 24006KT 15SM FEW100 M09/M12 A2989 RMK AC1 SLP171

CYQF;2012-01-06 13:00;CYQF 061300Z 23004KT 15SM FEW100 M07/M12 A2991 RMK AC1 SLP175

CYQF;2012-01-06 14:00;CYQF 061400Z 23007KT 15SM FEW100 FEW200 M09/M13 A2992 RMK AC1CI0 SLP179

CYQF;2012-01-06 15:00;CYQF 061500Z 00000KT 15SM FEW100 FEW200 M09/M13 A2993 RMK AC1CI0 SLP185

CYQF;2012-01-06 16:00;CYQF 061600Z 00000KT 15SM FEW100 FEW200 M09/M13 A2994 RMK AC1CI1 SLP190

CYQF;2012-01-06 17:00;CYQF 061700Z 00000KT 15SM FEW100 FEW200 M10/M13 A2995 RMK AC1CI1 SLP192

CYQF;2012-01-06 18:00;CYQF 061800Z 20002KT 15SM FEW200 M06/M12 A2995 RMK CI1 SLP193

CYQF;2012-01-06 19:00;CYQF 061900Z 18003KT 15SM SCT200 M03/M09 A2994 RMK CI1 SLP189

CYQF;2012-01-06 20:00;CYQF 062000Z 24002KT 15SM BKN250 M01/M09 A2993 RMK CI1 SLP186

CYQF;2012-01-06 21:00;CYQF 062100Z 00000KT 15SM FEW250 01/M10 A2992 RMK CI1 SLP176

CYQF;2012-01-06 22:00;CYQF 062200Z 00000KT 15SM FEW250 00/M08 A2993 RMK CI1 SLP178

CYQF;2012-01-06 23:00;CYQF 062300Z 08002KT 15SM FEW250 M01/M08 A2993 RMK CI1 SLP179

CYQF;2012-01-07 00:00;CYQF 070000Z 00000KT 15SM SKC M05/M08 A2995 RMK SLP197

CYQF;2012-01-07 01:00;CYQF 070100Z 00000KT 15SM SKC M07/M11 A2995 RMK SLP198

CYQF;2012-01-07 02:00;CYQF 070200Z 00000KT 15SM SKC M08/M11 A2995 RMK SLP199

CYQF;2012-01-07 03:00;CYQF 070300Z 00000KT 15SM SKC M09/M12 A2996 RMK SLP207

CYQF;2012-01-07 04:00;CYQF 070400Z 00000KT 15SM SKC M10/M12 A2995 RMK SLP205

CYQF;2012-01-07 05:00;CYQF 070500Z 00000KT 15SM SKC M12/M15 A2995 RMK SLP205

CYQF;2012-01-07 06:00;CYQF 070600Z 00000KT 15SM SKC M12/M14 A2996 RMK SLP207

CYQF;2012-01-07 07:00;CYQF 070700Z 21004KT 15SM SKC M12/M13 A2997 RMK SLP209

CYQF;2012-01-07 08:00;CYQF 070800Z 20005KT 15SM BKN220 M12/M14 A2996 RMK CI3 SLP207

CYQF;2012-01-07 09:00;CYQF 070900Z 23007KT 15SM OVC220 M10/M12 A2997 RMK CS6 SLP199

CYQF;2012-01-07 10:00;CYQF 071000Z 22006KT 15SM OVC220 M10/M12 A2998 RMK CS7 SLP203

CYQF;2012-01-07 11:00;CYQF 071100Z 21007KT 15SM OVC220 M09/M11 A2999 RMK CS7 SLP204

CYQF;2012-01-07 12:00;CYQF 071200Z 20005KT 15SM BKN220 M09/M12 A2999 RMK CS6 SLP212

CYQF;2012-01-07 13:00;CYQF 071300Z 22006KT 15SM SKC M10/M13 A2999 RMK SLP211

CYQF;2012-01-07 14:00;CYQF 071400Z 20006KT 15SM SKC M10/M13 A2999 RMK SLP211

CYQF;2012-01-07 15:00;CYQF 071500Z 17002KT 15SM FEW100 M11/M13 A2999 RMK AC1 SLP219

CYQF;2012-01-07 16:00;CYQF 071600Z 20006KT 15SM FEW100 M11/M14 A2999 RMK AC1 SLP218

CYQF;2012-01-07 17:00;CYQF 071700Z 21009KT 15SM FEW100 M09/M13 A3000 RMK AC1 SLP222

CYQF;2012-01-07 18:00;CYQF 071800Z 21007KT 15SM FEW100 M06/M12 A3000 RMK AC1 SLP220

CYQF;2012-01-07 19:00;CYQF 071900Z 22007KT 15SM FEW220 M04/M10 A2998 RMK CI1 SLP214

CYQF;2012-01-07 20:00;CYQF 072000Z 21005KT 15SM FEW220 M02/M10 A2996 RMK CI1 SLP209

CYQF;2012-01-07 21:00;CYQF 072100Z 19005KT 15SM BKN220 00/M08 A2995 RMK CI2 SLP192

CYQF;2012-01-07 22:00;CYQF 072200Z 19005KT 15SM BKN220 M01/M08 A2993 RMK CI2 SLP188

CYQF;2012-01-07 23:00;CYQF 072300Z 17005KT 15SM BKN220 M03/M08 A2992 RMK CI2 SLP184

CYQF;2012-01-08 00:00;CYQF 080000Z 18005KT 15SM BKN220 M04/M09 A2989 RMK CI3 SLP175

CYQF;2012-01-08 01:00;CYQF 080100Z 18005KT 15SM BKN220 M04/M09 A2987 RMK CI2 SLP171

CYQF;2012-01-08 02:00;CYQF 080200Z 18006KT 15SM SCT220 M04/M10 A2985 RMK CI2 SLP164

CYQF;2012-01-08 03:00;CYQF 080300Z 19005KT 15SM BKN220 M06/M10 A2984 RMK CI2 SLP162

CYQF;2012-01-08 04:00;CYQF 080400Z 18003KT 15SM BKN220 M05/M10 A2983 RMK CI4 SLP160

CYQF;2012-01-08 05:00;CYQF 080500Z 19005KT 15SM BKN210 M04/M09 A2981 RMK CI6 SLP154

CYQF;2012-01-08 06:00;CYQF 080600Z 18006KT 15SM BKN100 OVC210 M05/M09 A2980 RMK AC6CI2 SLP142

CYQF;2012-01-08 07:00;CYQF 080700Z 18005KT 15SM OVC150 M04/M08 A2978 RMK AC8 SLP138

CYQF;2012-01-08 08:00;CYQF 080800Z 18007KT 15SM FEW100 OVC220 M06/M09 A2978 RMK AC2CS2 SLP137

CYQF;2012-01-08 09:00;CYQF 080900Z 20005KT 15SM FEW100 OVC220 M05/M08 A2975 RMK AC2CS3 SLP120

CYQF;2012-01-08 10:00;CYQF 081000Z 18006KT 15SM BKN100 M04/M07 A2973 RMK AC7 SLP114

CYQF;2012-01-08 11:00;CYQF 081100Z 19007KT 15SM OVC100 M04/M07 A2973 RMK AC7 SLP113

CYQF;2012-01-08 12:00;CYQF 081200Z 23004KT 15SM OVC100 M03/M06 A2974 RMK AC8 SLP118

CYQF;2012-01-08 13:00;CYQF 081300Z 19003KT 15SM BKN100 OVC220 M02/M06 A2975 RMK AC5CI1 SLP120

CYQF;2012-01-08 14:00;CYQF 081400Z 20003KT 15SM OVC100 M03/M06 A2977 RMK AC8 SLP126

CYQF;2012-01-08 15:00;CYQF 081500Z 18004KT 15SM BKN100 M04/M06 A2977 RMK AC7 SLP132

CYQF;2012-01-08 16:00;CYQF 081600Z 19004KT 15SM BKN100 BKN220 M03/M06 A2978 RMK AC5CI2 SLP134

CYQF;2012-01-08 17:00;CYQF 081700Z 24006KT 15SM FEW050 BKN100 BKN220 M03/M06 A2980 RMK SC1AC5CI2 SLP141

CYQF;2012-01-08 18:00;CYQF 081800Z 20004KT 15SM FEW050 BKN100 BKN220 M01/M04 A2982 RMK SC1AC5CI2 TR SC SLP142

CYQF;2012-01-08 19:00;CYQF 081900Z 19004KT 15SM FEW050 SCT100 BKN220 02/M03 A2980 RMK SC1AC3CI3 TR SC SLP137

CYQF;2012-01-08 20:00;CYQF 082000Z 20004KT 15SM FEW100 BKN220 04/M01 A2979 RMK AC2CI2 SLP135

CYQF;2012-01-08 21:00;CYQF 082100Z 20005KT 15SM FEW050 FEW100 BKN220 05/M01 A2978 RMK SC1AC2CI2 SLP123

CYQF;2012-01-08 22:00;CYQF 082200Z 20003KT 15SM FEW050 FEW100 BKN220 07/M01 A2977 RMK SC1AC2CI2 SLP122

CYQF;2012-01-08 23:00;CYQF 082300Z 10003KT 15SM FEW100 BKN220 06/M01 A2979 RMK AC2CI1 SLP126

CYQF;2012-01-09 00:00;CYQF 090000Z 20005KT 15SM SCT100 BKN220 03/M02 A2980 RMK AC3CI0 SLP129

CYQF;2012-01-09 01:00;CYQF 090100Z 24003KT 15SM BKN100 BKN220 00/M03 A2981 RMK AC5CI0 SLP133

CYQF;2012-01-09 02:00;CYQF 090200Z 22004KT 15SM SCT100 00/M03 A2981 RMK AC3 SLP134

CYQF;2012-01-09 03:00;CYQF 090300Z 20005KT 15SM FEW100 M00/M04 A2982 RMK AC2 SLP142

CYQF;2012-01-09 04:00;CYQF 090400Z 20005KT 15SM SCT100 M00/M05 A2983 RMK AC2 SLP144

CYQF;2012-01-09 05:00;CYQF 090500Z 17005KT 15SM FEW100 01/M03 A2983 RMK AC1 SLP144

CYQF;2012-01-09 06:00;CYQF 090600Z 12004KT 15SM SKC M01/M04 A2983 RMK SLP142

CYQF;2012-01-09 07:00;CYQF 090700Z 14003KT 15SM FEW220 00/M04 A2983 RMK CI1 SLP143

CYQF;2012-01-09 08:00;CYQF 090800Z 13003KT 15SM FEW090 SCT220 M01/M05 A2982 RMK AC2CI1 SLP138

CYQF;2012-01-09 09:00;CYQF 090900Z 22004KT 15SM BKN090 M03/M05 A2981 RMK AC5 SLP131

CYQF;2012-01-09 10:00;CYQF 091000Z 22008KT 15SM BKN090 02/M02 A2980 RMK AC5 SLP127

CYQF;2012-01-09 11:00;CYQF 091100Z 23010G15KT 15SM FEW090 03/M02 A2977 RMK AC2 SLP119

CYQF;2012-01-09 12:00;CYQF 091200Z 22013KT 15SM FEW090 04/M02 A2976 RMK AC2 SLP109

CYQF;2012-01-09 13:00;CYQF 091300Z 20008KT 15SM FEW090 02/M02 A2975 RMK AC2 SLP106

CYQF;2012-01-09 14:00;CYQF 091400Z 20010KT 15SM FEW090 02/M03 A2973 RMK AC2 SLP100

CYQF;2012-01-09 15:00;CYQF 091500Z 21010KT 15SM BKN090 BKN210 03/M02 A2970 RMK AC5CI2 SLP093

CYQF;2012-01-09 16:00;CYQF 091600Z 21010KT 15SM BKN090 BKN210 06/M02 A2969 RMK AC5CI2 SLP090

CYQF;2012-01-09 17:00;CYQF 091700Z 20012KT 15SM SCT090 BKN210 05/M02 A2968 RMK AC3CI2 SLP088

CYQF;2012-01-09 18:00;CYQF 091800Z 21013KT 15SM FEW050 SCT100 BKN210 06/M01 A2969 RMK SC1AC2CI4 SLP087

CYQF;2012-01-09 19:00;CYQF 091900Z 21014KT 15SM FEW050 FEW100 BKN210 07/M02 A2967 RMK SC1AC2CI2 SLP081

CYQF;2012-01-09 20:00;CYQF 092000Z 24009KT 15SM FEW050 SCT210 08/M02 A2968 RMK SC1CI2 SLP083

CYQF;2012-01-09 21:00;CYQF 092100Z 26011KT 15SM FEW050 FEW210 08/M03 A2969 RMK SC1CI1 SLP088

CYQF;2012-01-09 22:00;CYQF 092200Z 26010G18KT 15SM FEW050 FEW210 07/M04 A2970 RMK SC1CI1 SLP091

CYQF;2012-01-09 23:00;CYQF 092300Z 24010G15KT 15SM FEW050 FEW210 06/M03 A2971 RMK SC1CI1 SLP093

CYQF;2012-01-10 00:00;CYQF 100000Z 23010G15KT 15SM FEW100 FEW210 06/M05 A2972 RMK AC1CI1 SLP092

CYQF;2012-01-10 01:00;CYQF 100100Z 24013KT 15SM FEW100 05/M05 A2973 RMK AC1 SLP095

CYQF;2012-01-10 02:00;CYQF 100200Z 22010KT 15SM SKC 02/M05 A2972 RMK SLP090

CYQF;2012-01-10 03:00;CYQF 100300Z 22011KT 15SM SKC 02/M05 A2969 RMK SLP088

CYQF;2012-01-10 04:00;CYQF 100400Z 24009KT 15SM FEW250 01/M06 A2969 RMK CI2 SLP088

CYQF;2012-01-10 05:00;CYQF 100500Z 24007KT 15SM BKN250 01/M06 A2971 RMK CI2 SLP092

CYQF;2012-01-10 06:00;CYQF 100600Z 36012KT 15SM FEW070 SCT250 02/M02 A2977 RMK AC2CI1 SLP110

CYQF;2012-01-10 07:00;CYQF 100700Z 36012KT 15SM FEW070 BKN250 M00/M03 A2978 RMK AC2CS2 SLP115

CYQF;2012-01-10 08:00;CYQF 100800Z 34012KT 15SM SCT070 BKN250 M01/M03 A2979 RMK AC3CI2 SLP118

CYQF;2012-01-10 09:00;CYQF 100900Z 32012G20KT 15SM BKN070 M01/M04 A2982 RMK AC6 SLP130

CYQF;2012-01-10 09:23;CYQF 100923Z 33012KT 10SM -SN OVC060 RMK SC8

CYQF;2012-01-10 10:00;CYQF 101000Z 24005KT 15SM OVC060 M02/M04 A2983 RMK SC8 SLP132

CYQF;2012-01-10 11:00;CYQF 101100Z 30008KT 15SM -SN BKN060 M01/M05 A2983 RMK SC6 SLP133

CYQF;2012-01-10 11:35;CYQF 101135Z 28008KT 15SM BKN060 RMK SC6

CYQF;2012-01-10 12:00;CYQF 101200Z 30007KT 15SM BKN060 M02/M06 A2985 RMK SC6 SLP145

CYQF;2012-01-10 13:00;CYQF 101300Z 33015G22KT 15SM BKN060 M02/M09 A2988 RMK SC6 SLP154

CYQF;2012-01-10 14:00;CYQF 101400Z 34015G24KT 15SM SCT060 M02/M10 A2990 RMK SC4 SLP160

CYQF;2012-01-10 15:00;CYQF 101500Z 32020G25KT 15SM BKN060 M03/M11 A2995 RMK SC6 SLP181

CYQF;2012-01-10 16:00;CYQF 101600Z 32015G25KT 15SM FEW040 BKN090 M03/M12 A3000 RMK SC1AC5 SLP197

CYQF;2012-01-10 17:00;CYQF 101700Z 33015G21KT 15SM FEW040 SCT090 BKN240 M04/M13 A3005 RMK SC2AC2CI2 SLP212

CYQF;2012-01-10 18:00;CYQF 101800Z 32014G24KT 15SM OVC040 M04/M11 A3009 RMK SC8 SLP235

CYQF;2012-01-10 18:18;CYQF 101818Z 31015G20KT 10SM -SN OVC040 RMK SC8

CYQF;2012-01-10 18:34;CYQF 101834Z 33020G30KT 1/2SM -SN BLSN OVC040 RMK SN4SC4

CYQF;2012-01-10 18:48;CYQF 101848Z 32020G30KT 1SM -SN BLSN OVC040 RMK SN3SC5

CYQF;2012-01-10 19:00;CYQF 101900Z 33030G40KT 10SM -SN BKN040 M06/M11 A3015 RMK SC6 SLP251

CYQF;2012-01-10 19:22;CYQF 101922Z 33020G25KT 15SM SCT040 RMK SC4

CYQF;2012-01-10 20:00;CYQF 102000Z 34020G30KT 15SM FEW040 FEW090 M06/M14 A3017 RMK SC1AC1 SLP260

CYQF;2012-01-10 21:00;CYQF 102100Z 33018G28KT 15SM FEW040 M06/M14 A3021 RMK SC1 SLP278

CYQF;2012-01-10 22:00;CYQF 102200Z 32015G25KT 15SM SCT035 M05/M14 A3024 RMK SC3 SLP287

CYQF;2012-01-10 23:00;CYQF 102300Z 32020G35KT 15SM BKN030 M06/M14 A3026 RMK SC5 SLP296

CYQF;2012-01-11 00:00;CYQF 110000Z 32015G30KT 15SM FEW030 SCT100 M07/M14 A3032 RMK SC1AC1 SLP321

CYQF;2012-01-11 01:00;CYQF 110100Z 33012G25KT 15SM FEW030 FEW100 M08/M16 A3036 RMK SC1AC1 SLP334

CYQF;2012-01-11 02:00;CYQF 110200Z 33010G15KT 15SM SKC M09/M16 A3039 RMK SLP343

CYQF;2012-01-11 03:00;CYQF 110300Z 33010KT 15SM SKC M10/M16 A3041 RMK SLP358

CYQF;2012-01-11 04:00;CYQF 110400Z 31010KT 15SM SKC M10/M16 A3042 RMK SLP360

CYQF;2012-01-11 05:00;CYQF 110500Z 30010KT 15SM SKC M12/M16 A3042 RMK SLP360

CYQF;2012-01-11 06:00;CYQF 110600Z 30008KT 15SM SKC M13/M17 A3041 RMK SLP360

CYQF;2012-01-11 07:00;CYQF 110700Z 26006KT 15SM SKC M15/M19 A3041 RMK SLP360

CYQF;2012-01-11 08:00;CYQF 110800Z 26006KT 15SM SKC M15/M18 A3040 RMK SLP358

CYQF;2012-01-11 09:00;CYQF 110900Z 27006KT 15SM SKC M15/M18 A3038 RMK SLP355

CYQF;2012-01-11 10:00;CYQF 111000Z 24007KT 15SM SKC M16/M19 A3038 RMK SLP356

CYQF;2012-01-11 11:00;CYQF 111100Z 19006KT 15SM SKC M17/M19 A3037 RMK SLP351

CYQF;2012-01-11 12:00;CYQF 111200Z 19006KT 15SM SKC M18/M21 A3035 RMK SLP352

CYQF;2012-01-11 13:00;CYQF 111300Z 21004KT 15SM SKC M18/M20 A3037 RMK SLP356

CYQF;2012-01-11 14:00;CYQF 111400Z 17005KT 15SM SKC M17/M20 A3034 RMK SLP348

CYQF;2012-01-11 15:00;CYQF 111500Z 21004KT 15SM FEW210 M18/M21 A3033 RMK CI1 SLP346

CYQF;2012-01-11 16:00;CYQF 111600Z 20005KT 15SM SCT210 M17/M21 A3032 RMK CI4 SLP344

CYQF;2012-01-11 17:00;CYQF 111700Z 20007KT 15SM BKN210 M15/M19 A3030 RMK CI2 SLP338

CYQF;2012-01-11 18:00;CYQF 111800Z 19005KT 15SM FEW210 M12/M19 A3027 RMK CI2 SLP322

CYQF;2012-01-11 19:00;CYQF 111900Z 21008KT 15SM FEW120 SCT210 M09/M16 A3024 RMK AC2CI2 SLP311

CYQF;2012-01-11 20:00;CYQF 112000Z 19005KT 15SM FEW120 SCT210 M07/M15 A3021 RMK AC1CI1 SLP302

CYQF;2012-01-11 21:00;CYQF 112100Z 19004KT 15SM FEW120 BKN210 M05/M13 A3018 RMK AC1CI1 SLP285

CYQF;2012-01-11 22:00;CYQF 112200Z 19005KT 15SM FEW120 BKN210 M04/M12 A3016 RMK AC1CI2 SLP279

CYQF;2012-01-11 23:00;CYQF 112300Z 19005KT 15SM FEW120 BKN210 M06/M11 A3013 RMK AC2CI1 SLP269

CYQF;2012-01-12 00:00;CYQF 120000Z 21004KT 15SM FEW120 BKN210 M07/M11 A3011 RMK AC2CI1 SLP268

CYQF;2012-01-12 01:00;CYQF 120100Z 00000KT 15SM FEW120 BKN210 M07/M12 A3012 RMK AC2CI1 SLP271

CYQF;2012-01-12 02:00;CYQF 120200Z 25003KT 15SM BKN210 M09/M13 A3013 RMK CI3 SLP273

CYQF;2012-01-12 03:00;CYQF 120300Z 00000KT 15SM BKN210 M09/M13 A3014 RMK CI5 SLP279

CYQF;2012-01-12 04:00;CYQF 120400Z 21004KT 15SM OVC150 M08/M11 A3013 RMK AC8 SLP276

CYQF;2012-01-12 05:00;CYQF 120500Z 24008KT 15SM OVC150 M08/M12 A3014 RMK AC8 SLP278

CYQF;2012-01-12 06:00;CYQF 120600Z 00000KT 15SM OVC150 M08/M12 A3013 RMK AS8 SLP267

CYQF;2012-01-12 07:00;CYQF 120700Z 23005KT 15SM OVC100 M07/M10 A3012 RMK AC8 SLP266

CYQF;2012-01-12 08:00;CYQF 120800Z 24005KT 15SM BKN100 OVC210 M06/M10 A3012 RMK AC5CS2 SLP265

CYQF;2012-01-12 09:00;CYQF 120900Z 23007KT 15SM FEW100 M06/M12 A3011 RMK AC2 SLP251

CYQF;2012-01-12 10:00;CYQF 121000Z 23005KT 15SM SKC M08/M12 A3012 RMK SLP254

CYQF;2012-01-12 11:00;CYQF 121100Z 22004KT 15SM SKC M09/M13 A3011 RMK SLP252

CYQF;2012-01-12 12:00;CYQF 121200Z 00000KT 15SM SKC M07/M12 A3012 RMK SLP256

CYQF;2012-01-12 13:00;CYQF 121300Z 24005KT 15SM FEW220 M09/M13 A3013 RMK CI1 SLP260

CYQF;2012-01-12 14:00;CYQF 121400Z 25005KT 15SM SCT220 M10/M13 A3012 RMK CI2 SLP258

CYQF;2012-01-12 15:00;CYQF 121500Z 24009KT 15SM BKN220 M08/M12 A3012 RMK CI6 SLP262

CYQF;2012-01-12 16:00;CYQF 121600Z 25010G15KT 15SM BKN220 M08/M12 A3012 RMK CI5 SLP262

CYQF;2012-01-12 17:00;CYQF 121700Z 24010G15KT 15SM FEW120 BKN220 M07/M11 A3012 RMK AC2CI4 SLP260

CYQF;2012-01-12 18:00;CYQF 121800Z 24010G15KT 15SM FEW120 BKN220 M06/M11 A3009 RMK AC2CI4 SLP247

CYQF;2012-01-12 19:00;CYQF 121900Z 20006KT 15SM FEW120 BKN220 M04/M09 A3004 RMK AC2CI5 SLP230

CYQF;2012-01-12 20:00;CYQF 122000Z 15005KT 15SM SCT120 BKN220 M01/M08 A2999 RMK AC3CS3 PRESFR SLP217

CYQF;2012-01-12 21:00;CYQF 122100Z 00000KT 15SM SCT120 BKN220 01/M08 A2998 RMK AC3CS3 SLP199

CYQF;2012-01-12 22:00;CYQF 122200Z 14003KT 15SM SCT120 BKN220 01/M07 A2998 RMK AC3CS3 SLP199

CYQF;2012-01-12 23:00;CYQF 122300Z 00000KT 15SM BKN100 BKN220 M00/M07 A2997 RMK AC5CS2 SLP195

CYQF;2012-01-13 00:00;CYQF 130000Z 00000KT 15SM BKN100 BKN220 M01/M07 A2995 RMK AC5CS2 SLP191

CYQF;2012-01-13 01:00;CYQF 130100Z 17005KT 15SM OVC090 M02/M07 A2992 RMK AC8 SLP182

CYQF;2012-01-13 02:00;CYQF 130200Z 16005KT 15SM OVC090 M02/M07 A2989 RMK AC8 SLP174

CYQF;2012-01-13 03:00;CYQF 130300Z 22006KT 15SM SCT100 M03/M07 A2987 RMK AC3 SLP167

CYQF;2012-01-13 04:00;CYQF 130400Z 20005KT 15SM SKC M05/M08 A2985 RMK SLP160

CYQF;2012-01-13 05:00;CYQF 130500Z 19004KT 15SM SKC M07/M09 A2982 RMK SLP153

CYQF;2012-01-13 06:00;CYQF 130600Z 19004KT 15SM FEW220 M08/M10 A2980 RMK CI1 SLP147

CYQF;2012-01-13 07:00;CYQF 130700Z 18004KT 15SM FEW220 M07/M10 A2977 RMK CI1 SLP138

CYQF;2012-01-13 08:00;CYQF 130800Z 00000KT 15SM FEW090 BKN220 M08/M10 A2975 RMK AC2CI2 SLP131

CYQF;2012-01-13 09:00;CYQF 130900Z 17005KT 15SM BKN090 M06/M09 A2977 RMK AC5 SLP127

CYQF;2012-01-13 10:00;CYQF 131000Z 08002KT 15SM FEW090 M07/M09 A2976 RMK AC2 SLP121

CYQF;2012-01-13 11:00;CYQF 131100Z 30008KT 15SM BKN080 M07/M09 A2979 RMK AC6 SLP133

CYQF;2012-01-13 11:21;CYQF 131121Z 34018G26KT 5SM -SN BLSN OVC060 RMK SC8

CYQF;2012-01-13 11:33;CYQF 131133Z 34015G22KT 2SM -SN BLSN OVC060 RMK SN3SC5

CYQF;2012-01-13 11:43;CYQF 131143Z 33014G20KT 10SM -SN OVC060 RMK SC8 REBLSN

CYQF;2012-01-13 12:00;CYQF 131200Z 32018G25KT 6SM -SN BLSN OVC060 M00/M06 A2986 RMK SC8 PRESRR SLP153

CYQF;2012-01-13 12:43;CYQF 131243Z 30008KT 15SM OVC060 RMK SC8 REBLSN

CYQF;2012-01-13 13:00;CYQF 131300Z 25004KT 15SM BKN060 M02/M06 A2985 RMK SC6 REBLSN SLP149

CYQF;2012-01-13 14:00;CYQF 131400Z 26010KT 15SM FEW060 M04/M07 A2985 RMK SC2 SLP149

CYQF;2012-01-13 15:00;CYQF 131500Z 28010KT 15SM FEW070 M04/M07 A2985 RMK AC1 SLP158

CYQF;2012-01-13 16:00;CYQF 131600Z 28006KT 15SM FEW070 M05/M08 A2987 RMK AC1 SLP163

CYQF;2012-01-13 17:00;CYQF 131700Z 25008KT 15SM FEW040 FEW220 M06/M09 A2988 RMK SC2CI1 SLP167

CYQF;2012-01-13 18:00;CYQF 131800Z 27009KT 15SM SCT050 SCT220 M03/M07 A2990 RMK SC2CI0 VIRGA SLP177

CYQF;2012-01-13 19:00;CYQF 131900Z 30010G16KT 15SM SCT050 BKN240 M00/M08 A2990 RMK SC2CI1 VIRGA SLP178

CYQF;2012-01-13 20:00;CYQF 132000Z 29010KT 15SM FEW120 BKN240 M00/M09 A2990 RMK AC1CI1 SLP177

CYQF;2012-01-13 21:00;CYQF 132100Z 29010KT 15SM FEW050 SCT240 00/M10 A2990 RMK SC1CI0 SLP172

CYQF;2012-01-13 22:00;CYQF 132200Z 30008KT 15SM FEW240 01/M10 A2991 RMK CI1 SLP176

CYQF;2012-01-13 23:00;CYQF 132300Z 26003KT 15SM FEW240 M01/M09 A2991 RMK CI1 SLP175

CYQF;2012-01-14 00:00;CYQF 140000Z 24004KT 15SM SCT240 M04/M11 A2992 RMK CI1 SLP178

CYQF;2012-01-14 01:00;CYQF 140100Z 24007KT 15SM FEW240 M06/M13 A2994 RMK CI1 SLP183

CYQF;2012-01-14 02:00;CYQF 140200Z 26004KT 15SM FEW240 M07/M13 A2994 RMK CI1 SLP184

CYQF;2012-01-14 03:00;CYQF 140300Z 18005KT 15SM SKC M08/M13 A2994 RMK SLP191

CYQF;2012-01-14 04:00;CYQF 140400Z 08002KT 15SM BKN210 M09/M13 A2993 RMK CI2 SLP190

CYQF;2012-01-14 05:00;CYQF 140500Z 17002KT 15SM BKN210 M10/M14 A2992 RMK CI5 SLP187

CYQF;2012-01-14 06:00;CYQF 140600Z 00000KT 15SM BKN210 M10/M13 A2992 RMK CI5 SLP186

CYQF;2012-01-14 07:00;CYQF 140700Z 00000KT 15SM BKN210 M09/M12 A2990 RMK CI5 SLP180

CYQF;2012-01-14 08:00;CYQF 140800Z 13006KT 15SM SCT210 M08/M13 A2988 RMK CI2 SLP175

CYQF;2012-01-14 09:00;CYQF 140900Z 02004KT 15SM BKN210 M08/M13 A2985 RMK CI3 SLP157

CYQF;2012-01-14 10:00;CYQF 141000Z 00000KT 15SM FEW090 BKN210 M10/M13 A2982 RMK AC1CI2 SLP147

CYQF;2012-01-14 11:00;CYQF 141100Z 00000KT 15SM FEW090 BKN250 M08/M13 A2978 RMK AC1CI2 SLP136

CYQF;2012-01-14 12:00;CYQF 141200Z 15006KT 15SM FEW090 SCT210 M07/M13 A2974 RMK AC1CI1 SLP122

CYQF;2012-01-14 13:00;CYQF 141300Z 12012KT 15SM SCT080 M06/M12 A2970 RMK AC4 SLP111

CYQF;2012-01-14 14:00;CYQF 141400Z 12008KT 15SM BKN080 M07/M13 A2967 RMK AC6 SLP102

CYQF;2012-01-14 15:00;CYQF 141500Z 16002KT 15SM BKN080 BKN210 M06/M12 A2963 RMK AC6CI2 SLP087

CYQF;2012-01-14 16:00;CYQF 141600Z 15007KT 15SM BKN080 BKN210 M07/M12 A2961 RMK AC6CI2 SLP081

CYQF;2012-01-14 17:00;CYQF 141700Z 13010KT 15SM BKN100 BKN250 M06/M12 A2957 RMK AC7CI1 SLP069

CYQF;2012-01-14 18:00;CYQF 141800Z 12008KT 15SM BKN100 BKN250 M06/M12 A2956 RMK AC6CI1 SLP064

CYQF;2012-01-14 19:00;CYQF 141900Z 12006KT 15SM BKN100 M05/M11 A2954 RMK AC6 SLP057

CYQF;2012-01-14 20:00;CYQF 142000Z 16003KT 15SM FEW060TCU BKN100 BKN250 M05/M11 A2951 RMK TCU1AC7CI1 SW-NE LINE TCU NW SLP050

CYQF;2012-01-14 21:00;CYQF 142100Z 36002KT 15SM FEW060 BKN100 BKN250 M05/M10 A2951 RMK CU1AC6CI1 SLP045

CYQF;2012-01-14 22:00;CYQF 142200Z 33007KT 15SM FEW040 BKN090 BKN250 M05/M10 A2952 RMK CU2AC3CI1 VIRGA SLP047

CYQF;2012-01-14 23:00;CYQF 142300Z 34006KT 15SM SCT040 SCT250 M06/M10 A2952 RMK SC3CI1 CU ASOCTD SLP049

CYQF;2012-01-15 00:00;CYQF 150000Z 32008KT 15SM BKN040 BKN090 BKN250 M06/M10 A2955 RMK SC5AC1CI1 VIS S 10 SLP057

CYQF;2012-01-15 01:00;CYQF 150100Z 33006KT 15SM FEW040 SCT250 M08/M10 A2956 RMK SC1CI2 SLP063

CYQF;2012-01-15 02:00;CYQF 150200Z 32012KT 15SM FEW080 SCT250 M08/M10 A2958 RMK AC2CI2 SLP067

CYQF;2012-01-15 02:34;CYQF 150234Z 34010G15KT 12SM -SN FEW080 SCT250 RMK AC2CI2

CYQF;2012-01-15 03:00;CYQF 150300Z 33009KT 15SM -SN BKN080 M08/M09 A2959 RMK AC6 SLP071

CYQF;2012-01-15 04:00;CYQF 150400Z 36011KT 15SM -SN OVC040 M07/M08 A2959 RMK SC8 SLP072

CYQF;2012-01-15 05:00;CYQF 150500Z 01010G15KT 15SM -SN OVC030 M07/M09 A2961 RMK SC8 SLP078

CYQF;2012-01-15 06:00;CYQF 150600Z 36010G16KT 15SM -SN DRSN OVC030 M06/M08 A2964 RMK SC8 SLP087

CYQF;2012-01-15 07:00;CYQF 150700Z 36012G18KT 10SM -SN DRSN OVC020 M06/M09 A2968 RMK SC8 SLP101

CYQF;2012-01-15 08:00;CYQF 150800Z 36015G20KT 3SM -SN DRSN OVC020 M07/M09 A2971 RMK SN3SC5 SLP109

CYQF;2012-01-15 08:22;CYQF 150822Z 36016G23KT 2SM -SN DRSN OVC020 RMK SN5SC3

CYQF;2012-01-15 08:43;CYQF 150843Z 34018G24KT 1SM -SN BLSN VV006 RMK SN8

CYQF;2012-01-15 09:00;CYQF 150900Z 36016G24KT 1SM -SN BLSN VV005 M11/M13 A2976 RMK SN8 SLP135

CYQF;2012-01-15 09:24;CYQF 150924Z 34018G26KT 2SM -SN BLSN OVC020 RMK SN4SC4

CYQF;2012-01-15 10:00;CYQF 151000Z 33016G24KT 2SM -SN BLSN OVC015 M12/M14 A2983 RMK SN4SC4 PRESRR SLP156

CYQF;2012-01-15 10:30;CYQF 151030Z 33017G24KT 1SM -SN BLSN VV006 RMK SN8

CYQF;2012-01-15 11:00;CYQF 151100Z 34020G28KT 1SM -SN BLSN VV008 M14/M16 A2987 RMK SN8 /S02/ SLP170

CYQF;2012-01-15 12:00;CYQF 151200Z 32016G25KT 3SM -SN BLSN OVC015 M15/M17 A2991 RMK SN3SC5 SLP192

CYQF;2012-01-15 13:00;CYQF 151300Z 32018G26KT 3SM -SN OVC015 M16/M19 A2997 RMK SN3SC5 SLP211

CYQF;2012-01-15 14:00;CYQF 151400Z 32013G23KT 4SM -SN BLSN OVC015 M17/M20 A3001 RMK SN2SC6 SLP223

CYQF;2012-01-15 15:00;CYQF 151500Z 33011G18KT 4SM -SN DRSN OVC015 M17/M20 A3003 RMK SC8 OCNL BLSN REBLSN SLP239

CYQF;2012-01-15 15:26;CYQF 151526Z 33018G24KT 1SM -SN BLSN OVC010 RMK SN4SC4

CYQF;2012-01-15 16:00;CYQF 151600Z 34015G22KT 1 1/2SM -SN BLSN OVC012 M18/M21 A3005 RMK SN3SC5 VIS VRBL 1-2 SLP246

CYQF;2012-01-15 17:00;CYQF 151700Z 35015G20KT 1 1/2SM -SN BLSN VV009 M19/M21 A3007 RMK SN8 VIS VRB 1-2 SLP253

CYQF;2012-01-15 18:00;CYQF 151800Z 33010G20KT 1 1/2SM -SN DRSN OVC009 M19/M22 A3009 RMK SN2ST6 VIS VRB 1-2 SUN DMLY VIS SLP261

CYQF;2012-01-15 18:32;CYQF 151832Z 33013G18KT 2SM -SN BLSN FEW010 BKN080 OVC220 RMK SC1AS5CI2

CYQF;2012-01-15 19:00;CYQF 151900Z 33010G16KT 3SM IC DRSN BKN080 OVC220 M19/M22 A3009 RMK AC5CI2 SLP261

CYQF;2012-01-15 20:00;CYQF 152000Z 33012G18KT 5SM IC DRSN FEW080 OVC220 M19/M22 A3008 RMK AC2CI4 SLP257

CYQF;2012-01-15 21:00;CYQF 152100Z 34012G17KT 5SM IC DRSN FEW080 OVC250 M20/M23 A3008 RMK AC1CS5 SLP262

CYQF;2012-01-15 22:00;CYQF 152200Z 34010KT 7SM FEW080 OVC250 M20/M24 A3009 RMK AC2CI2 IC SLP265

CYQF;2012-01-15 23:00;CYQF 152300Z 36007KT 6SM IC SCT100 OVC250 M20/M25 A3010 RMK AS4CI2 SLP268

CYQF;2012-01-16 00:00;CYQF 160000Z 36006KT 6SM IC BKN250 M21/M27 A3011 RMK CI6 SLP278

CYQF;2012-01-16 01:00;CYQF 160100Z 35007KT 6SM IC BKN250 M21/M27 A3012 RMK CI6 SLP281

CYQF;2012-01-16 02:00;CYQF 160200Z 35008KT 6SM IC BKN250 M22/M28 A3013 RMK CI5 SLP285

CYQF;2012-01-16 03:00;CYQF 160300Z 34005KT 12SM BKN250 M23/M28 A3013 RMK CI2 IC SLP292

CYQF;2012-01-16 04:00;CYQF 160400Z 33004KT 15SM BKN250 M23/M28 A3014 RMK CI3 IC SLP293

CYQF;2012-01-16 05:00;CYQF 160500Z 33005KT 15SM BKN250 M23/M29 A3013 RMK CI2 IC SLP292

CYQF;2012-01-16 06:00;CYQF 160600Z 32007KT 15SM BKN250 M23/M28 A3014 RMK CI2 IC SLP296

CYQF;2012-01-16 07:00;CYQF 160700Z 33008KT 15SM SCT250 M23/M28 A3014 RMK CI2 IC SLP297

CYQF;2012-01-16 08:00;CYQF 160800Z 33012KT 15SM SCT250 M23/M29 A3014 RMK CI2 IC SLP297

CYQF;2012-01-16 09:00;CYQF 160900Z 36008KT 15SM BKN250 M24/M29 A3014 RMK CI2 SLP300

CYQF;2012-01-16 10:00;CYQF 161000Z 34008KT 15SM BKN250 M24/M29 A3015 RMK CI3 IC SLP301

CYQF;2012-01-16 11:00;CYQF 161100Z 33006KT 15SM BKN250 M25/M30 A3014 RMK CI2 IC SLP300

CYQF;2012-01-16 12:00;CYQF 161200Z 33004KT 15SM BKN250 M25/M30 A3014 RMK CI2 IC SLP303

CYQF;2012-01-16 13:00;CYQF 161300Z CCA 34006KT 15SM BKN250 M25/M30 A3014 RMK CI2 IC SLP303

CYQF;2012-01-16 14:00;CYQF 161400Z 01005KT 15SM BKN250 M26/M30 A3015 RMK CI2 IC SLP306

CYQF;2012-01-16 15:00;CYQF 161500Z 36004KT 6SM IC FEW030 BKN250 M26/M30 A3016 RMK SC2CI2 SLP313

CYQF;2012-01-16 16:00;CYQF 161600Z 35006KT 4SM IC BKN030 OVC250 M26/M30 A3018 RMK SC6CI2 SLP318

CYQF;2012-01-16 16:35;CYQF 161635Z 35008KT 2SM IC OVC030 RMK IC2SC6

CYQF;2012-01-16 17:00;CYQF 161700Z 35007KT 6SM IC BKN030 BKN250 M26/M32 A3019 RMK SC6CI1 SLP321

CYQF;2012-01-16 18:00;CYQF 161800Z 35007KT 10SM BKN030 BKN250 M26/M32 A3019 RMK SC5CI1 IC SLP323

CYQF;2012-01-16 19:00;CYQF 161900Z 33008KT 15SM FEW100 SCT250 M26/M32 A3018 RMK AC1CI2 IC SLP320

CYQF;2012-01-16 20:00;CYQF 162000Z 34007KT 10SM FEW020 SCT100 BKN250 M26/M32 A3016 RMK SC2AC1CI0 IC SLP315

CYQF;2012-01-16 21:00;CYQF 162100Z 35008KT 12SM FEW020 FEW250 M26/M33 A3015 RMK SC2CI1 IC SLP312

CYQF;2012-01-16 22:00;CYQF 162200Z 35008KT 15SM FEW020 FEW100 FEW250 M26/M33 A3016 RMK SC1AC1CI1 SC/CI TR SLP313

CYQF;2012-01-16 22:39;CYQF 162239Z 36008KT 1 1/2SM IC SKC RMK SN7 VIS SW E

CYQF;2012-01-16 23:00;CYQF 162300Z 02006KT 1SM IC OVC250 M27/M32 A3017 RMK IC6CI0 SLP318

CYQF;2012-01-16 23:49;CYQF 162349Z 35007KT 3SM IC FEW250 RMK CI1 VIS S - W 2

CYQF;2012-01-17 00:00;CYQF 170000Z 34004KT 5SM IC FEW250 M27/M34 A3020 RMK CI1 SLP331

CYQF;2012-01-17 01:00;CYQF 170100Z 36004KT 15SM FEW250 M28/M33 A3021 RMK CI2 SLP335

CYQF;2012-01-17 02:00;CYQF 170200Z 35003KT 3SM IC SKC M28/M33 A3022 RMK IC6 SLP337

CYQF;2012-01-17 03:00;CYQF 170300Z 36004KT 3SM IC SKC M28/M32 A3021 RMK IC5 SLP337

CYQF;2012-01-17 04:00;CYQF 170400Z 00000KT 10SM FEW120 M28/M33 A3021 RMK AC2 SLP337

CYQF;2012-01-17 05:00;CYQF 170500Z 00000KT 15SM SKC M29/M33 A3021 RMK SLP337

CYQF;2012-01-17 06:00;CYQF 170600Z 35002KT 15SM SKC M30/M34 A3022 RMK IC SLP341

CYQF;2012-01-17 07:00;CYQF 170700Z 01002KT 15SM SKC M30/M35 A3021 RMK IC SLP339

CYQF;2012-01-17 08:00;CYQF 170800Z 33003KT 15SM SKC M30/M35 A3020 RMK IC SLP337

CYQF;2012-01-17 09:00;CYQF 170900Z 27003KT 15SM SKC M33/M37 A3019 RMK IC SLP336

CYQF;2012-01-17 10:00;CYQF 171000Z 17003KT 15SM SKC M33/M37 A3018 RMK IC SLP334

CYQF;2012-01-17 11:00;CYQF 171100Z 25002KT 15SM SCT250 M32/M36 A3017 RMK CI2 IC SLP330

CYQF;2012-01-17 12:00;CYQF 171200Z 20003KT 8SM BKN250 M30/M35 A3015 RMK CI3 IC SLP321

CYQF;2012-01-17 13:00;CYQF 171300Z 00000KT 10SM BKN250 M30/M35 A3013 RMK CI3 IC SLP313

CYQF;2012-01-17 14:00;CYQF 171400Z 31002KT 15SM BKN250 M30/M34 A3012 RMK CI3 IC SLP312

CYQF;2012-01-17 15:00;CYQF 171500Z 00000KT 6SM -SN BKN100 OVC250 M29/M34 A3010 RMK AC5CI3 SLP303

CYQF;2012-01-17 15:08;CYQF 171508Z 00000KT 2 1/2SM -SN OVC100 RMK AC8

CYQF;2012-01-17 16:00;CYQF 171600Z 00000KT 2 1/2SM -SN OVC100 M29/M34 A3009 RMK AC8 SLP299

CYQF;2012-01-17 16:48;CYQF 171648Z 00000KT 3SM -SN OVC100 RMK AC8

CYQF;2012-01-17 17:00;CYQF 171700Z 00000KT 3SM -SN OVC100 M29/M34 A3009 RMK SN2AC6 SLP299

CYQF;2012-01-17 17:29;CYQF 171729Z 00000KT 2SM -SN OVC100 RMK SN2AC6

CYQF;2012-01-17 18:00;CYQF 171800Z 00000KT 2SM -SN OVC100 M28/M33 A3008 RMK SN3AS5 SLP296

CYQF;2012-01-17 19:00;CYQF 171900Z 00000KT 1SM -SN OVC100 M28/M33 A3005 RMK SN3AS5 SLP288

CYQF;2012-01-17 20:00;CYQF 172000Z 00000KT 1 1/2SM -SN OVC090 M28/M34 A3003 RMK SN3AS5 SLP281

CYQF;2012-01-17 21:00;CYQF 172100Z 00000KT 2 1/2SM -SN SCT100 OVC220 M28/M34 A3000 RMK AS4CS4 SLP272

CYQF;2012-01-17 21:33;CYQF 172133Z 00000KT 6SM -SN SCT100 OVC220 RMK AS4CS4

CYQF;2012-01-17 22:00;CYQF 172200Z 00000KT 6SM -SN SCT100 OVC220 M28/M34 A2999 RMK AS4CS4 SLP268

CYQF;2012-01-17 23:00;CYQF 172300Z 00000KT 3SM -SN OVC100 M28/M35 A2999 RMK SN2AS6 SLP268

CYQF;2012-01-18 00:00;CYQF 180000Z 00000KT 3SM -SN OVC100 M28/M34 A2997 RMK SN2AS6 SLP260

CYQF;2012-01-18 01:00;CYQF 180100Z 00000KT 3SM -SN OVC100 M28/M34 A2996 RMK SN2AC5 SLP255

CYQF;2012-01-18 02:00;CYQF 180200Z 00000KT 10SM -SN BKN100 M28/M33 A2995 RMK AC6 SLP254

CYQF;2012-01-18 03:00;CYQF 180300Z 33003KT 6SM -SN OVC100 M28/M33 A2995 RMK AC8 SLP251

CYQF;2012-01-18 04:00;CYQF 180400Z 00000KT 3SM -SN OVC060 M28/M33 A2995 RMK SC8 SLP251

CYQF;2012-01-18 05:00;CYQF 180500Z 00000KT 5SM -SN OVC060 M28/M33 A2995 RMK SC8 SLP252

CYQF;2012-01-18 06:00;CYQF 180600Z 27003KT 8SM -SN OVC060 M28/M34 A2996 RMK SC8 SLP252

CYQF;2012-01-18 07:00;CYQF 180700Z 29004KT 15SM FEW060 FEW220 M30/M34 A2996 RMK SC1CI1 IC SLP252

CYQF;2012-01-18 08:00;CYQF 180800Z 27004KT 15SM SKC M31/M36 A2996 RMK IC SLP253

CYQF;2012-01-18 09:00;CYQF 180900Z 27004KT 15SM FEW220 M31/M35 A2997 RMK CI1 IC SLP258

CYQF;2012-01-18 10:00;CYQF 181000Z 27004KT 15SM FEW220 M32/M36 A2997 RMK CI1 SLP259

CYQF;2012-01-18 11:00;CYQF 181100Z 25005KT 15SM FEW220 M33/M37 A2999 RMK CI1 IC SLP263

CYQF;2012-01-18 11:37;CYQF 181137Z 25005KT 15SM SKC

CYQF;2012-01-18 12:00;CYQF 181200Z 24006KT 15SM SKC M33/M38 A2999 RMK SLP268

CYQF;2012-01-18 13:00;CYQF 181300Z 25006KT 15SM SKC M33/M37 A2999 RMK SLP268

CYQF;2012-01-18 14:00;CYQF 181400Z 23008KT 15SM SKC M34/M39 A2998 RMK SLP266

CYQF;2012-01-18 15:00;CYQF 181500Z 22006KT 15SM SKC M34/M39 A2998 RMK SLP266

CYQF;2012-01-18 16:00;CYQF 181600Z 23009KT 15SM FEW240 M34/M39 A2997 RMK CI1 SLP264

CYQF;2012-01-18 17:00;CYQF 181700Z 21005KT 15SM FEW240 M33/M38 A2997 RMK CI1 SLP263

CYQF;2012-01-18 18:00;CYQF 181800Z 20004KT 15SM FEW240 M31/M36 A2996 RMK CI1 SLP257

CYQF;2012-01-18 19:00;CYQF 181900Z 25008KT 15SM FEW240 M28/M35 A2995 RMK CI1 SLP251

CYQF;2012-01-18 20:00;CYQF 182000Z 23005KT 15SM FEW240 M28/M35 A2991 RMK CI2 SLP240

CYQF;2012-01-18 21:00;CYQF 182100Z 24009KT 15SM SCT240 M27/M34 A2990 RMK CI4 SLP232

CYQF;2012-01-18 22:00;CYQF 182200Z 24005KT 15SM BKN240 M25/M33 A2990 RMK CI6 SLP232

CYQF;2012-01-18 23:00;CYQF 182300Z 24004KT 15SM BKN240 M25/M33 A2987 RMK CI3 SLP225

CYQF;2012-01-19 00:00;CYQF 190000Z 24005KT 15SM SCT240 M26/M34 A2987 RMK CI2 SLP225

CYQF;2012-01-19 01:00;CYQF 190100Z 23006KT 15SM FEW210 M28/M34 A2988 RMK CI0 SLP227

CYQF;2012-01-19 02:00;CYQF 190200Z 24006KT 15SM SKC M28/M34 A2987 RMK SLP224

CYQF;2012-01-19 03:00;CYQF 190300Z 25006KT 15SM SKC M28/M32 A2985 RMK SLP222

CYQF;2012-01-19 04:00;CYQF 190400Z 25006KT 15SM SKC M26/M33 A2984 RMK SLP218

CYQF;2012-01-19 05:00;CYQF 190500Z 26006KT 15SM SKC M28/M33 A2985 RMK SLP219

CYQF;2012-01-19 06:00;CYQF 190600Z 26006KT 15SM SKC M27/M32 A2985 RMK SLP215

CYQF;2012-01-19 07:00;CYQF 190700Z 27006KT 15SM SKC M27/M33 A2985 RMK SLP217

CYQF;2012-01-19 08:00;CYQF 190800Z 26008KT 15SM SKC M28/M32 A2984 RMK SLP213

CYQF;2012-01-19 09:00;CYQF 190900Z 25008KT 15SM SKC M29/M34 A2984 RMK SLP210

CYQF;2012-01-19 10:00;CYQF 191000Z 25008KT 15SM SKC M29/M34 A2984 RMK SLP209

CYQF;2012-01-19 11:00;CYQF 191100Z 25008KT 15SM SKC M29/M34 A2985 RMK SLP212

CYQF;2012-01-19 12:00;CYQF 191200Z 26003KT 15SM SKC M28/M34 A2984 RMK SLP207

CYQF;2012-01-19 13:00;CYQF 191300Z 21006KT 15SM SKC M29/M35 A2983 RMK SLP205

CYQF;2012-01-19 14:00;CYQF 191400Z 27004KT 15SM SKC M31/M35 A2983 RMK SLP204

CYQF;2012-01-19 15:00;CYQF 191500Z 26008KT 15SM FEW220 M28/M33 A2983 RMK CI1 SLP206

CYQF;2012-01-19 16:00;CYQF 191600Z 21005KT 15SM FEW220 M28/M33 A2983 RMK CI1 SLP207

CYQF;2012-01-19 17:00;CYQF 191700Z 23005KT 15SM FEW220 M28/M34 A2983 RMK CI1 SLP207

CYQF;2012-01-19 18:00;CYQF 191800Z 19004KT 15SM FEW220 M26/M32 A2983 RMK CI2 SLP203

CYQF;2012-01-19 19:00;CYQF 191900Z 17004KT 15SM FEW220 M24/M31 A2980 RMK CI2 SLP195

CYQF;2012-01-19 20:00;CYQF 192000Z 24002KT 15SM FEW220 M23/M30 A2978 RMK CI2 SLP187

CYQF;2012-01-19 21:00;CYQF 192100Z 00000KT 15SM FEW220 M22/M29 A2976 RMK CI1 SLP176

CYQF;2012-01-19 22:00;CYQF 192200Z 00000KT 15SM FEW220 M21/M29 A2975 RMK CI1 SLP173

CYQF;2012-01-19 23:00;CYQF 192300Z 00000KT 15SM FEW220 M22/M29 A2976 RMK CI1 SLP175

CYQF;2012-01-20 00:00;CYQF 200000Z 00000KT 15SM FEW220 M23/M29 A2976 RMK CI1 SLP176

CYQF;2012-01-20 01:00;CYQF 200100Z 00000KT 15SM FEW220 M27/M32 A2976 RMK CI1 SLP177

CYQF;2012-01-20 02:00;CYQF 200200Z 00000KT 15SM SKC M27/M31 A2977 RMK SLP178

CYQF;2012-01-20 03:00;CYQF 200300Z 00000KT 15SM SKC M28/M33 A2977 RMK SLP188

CYQF;2012-01-20 04:00;CYQF 200400Z 00000KT 15SM SKC M29/M33 A2978 RMK SLP191

CYQF;2012-01-20 05:00;CYQF 200500Z 21003KT 15SM SKC M30/M35 A2979 RMK SLP193

CYQF;2012-01-20 06:00;CYQF 200600Z 00000KT 15SM SKC M30/M34 A2980 RMK SLP194

CYQF;2012-01-20 07:00;CYQF 200700Z 00000KT 15SM SKC M31/M35 A2981 RMK SLP197

CYQF;2012-01-20 08:00;CYQF 200800Z 00000KT 15SM SCT220 M30/M34 A2981 RMK CI2 SLP198

CYQF;2012-01-20 09:00;CYQF 200900Z 00000KT 15SM SCT220 M30/M35 A2981 RMK CI2 SLP194

CYQF;2012-01-20 10:00;CYQF 201000Z 00000KT 15SM SCT220 M29/M34 A2982 RMK CI2 SLP198

CYQF;2012-01-20 11:00;CYQF 201100Z 00000KT 15SM BKN220 M28/M33 A2982 RMK CI5 SLP198

CYQF;2012-01-20 12:00;CYQF 201200Z 00000KT 15SM FEW100 BKN220 M26/M30 A2982 RMK AC1CI4 SLP193

CYQF;2012-01-20 13:00;CYQF 201300Z 11003KT 15SM BKN220 M25/M30 A2981 RMK CI3 SLP191

CYQF;2012-01-20 14:00;CYQF 201400Z 14004KT 15SM FEW100 BKN220 M23/M28 A2981 RMK AC2CI4 SLP190

CYQF;2012-01-20 15:00;CYQF 201500Z 15008KT 15SM SCT100 BKN250 M22/M27 A2981 RMK AC3CI3 SLP192

CYQF;2012-01-20 16:00;CYQF 201600Z 15007KT 15SM FEW100 BKN250 M22/M27 A2981 RMK AC2CI2 SLP192

CYQF;2012-01-20 17:00;CYQF 201700Z 14008KT 15SM OVC250 M21/M26 A2982 RMK CS7 SLP194

CYQF;2012-01-20 18:00;CYQF 201800Z 14011KT 15SM OVC250 M20/M25 A2979 RMK CS8 SLP184

CYQF;2012-01-20 19:00;CYQF 201900Z 12010KT 15SM OVC250 M19/M25 A2977 RMK CS8 HALO SLP177

CYQF;2012-01-20 20:00;CYQF 202000Z 15012G17KT 15SM DRSN OVC250 M18/M24 A2975 RMK CI6 SLP171

CYQF;2012-01-20 21:00;CYQF 202100Z 16010G15KT 15SM DRSN OVC150 M18/M23 A2971 RMK AS8 SLP154

CYQF;2012-01-20 22:00;CYQF 202200Z 15010G15KT 15SM DRSN OVC120 M17/M23 A2968 RMK AS8 SLP144

CYQF;2012-01-20 23:00;CYQF 202300Z 16010G15KT 10SM DRSN OVC150 M17/M22 A2965 RMK AS8 SLP135

CYQF;2012-01-21 00:00;CYQF 210000Z 15013G18KT 15SM DRSN OVC200 M17/M22 A2962 RMK CI8 SLP116

CYQF;2012-01-21 01:00;CYQF 210100Z 15010G15KT 15SM SCT200 M17/M22 A2960 RMK CI2 SLP112

CYQF;2012-01-21 02:00;CYQF 210200Z 14010G15KT 15SM SCT200 M17/M22 A2956 RMK CI2 SLP099

CYQF;2012-01-21 03:00;CYQF 210300Z 15010G15KT 15SM DRSN FEW020 M17/M22 A2951 RMK SC2 SLP074

CYQF;2012-01-21 04:00;CYQF 210400Z 13012KT 15SM FEW020 BKN100 M17/M22 A2946 RMK SC2AC2 SLP060

CYQF;2012-01-21 05:00;CYQF 210500Z 13010G15KT 10SM FEW020 OVC060 M17/M21 A2941 RMK SC2SC6 SLP044

CYQF;2012-01-21 06:00;CYQF 210600Z 13012KT 15SM BKN013 OVC060 M18/M22 A2938 RMK SC5SC3 SLP027

CYQF;2012-01-21 07:00;CYQF 210700Z 12007KT 10SM OVC013 M18/M22 A2934 RMK SC8 SLP015

CYQF;2012-01-21 08:00;CYQF 210800Z 11008KT 10SM OVC013 M17/M21 A2931 RMK SC8 IC SLP005

CYQF;2012-01-21 09:00;CYQF 210900Z 11008KT 10SM -SN OVC012 M17/M21 A2927 RMK SC8 SLP987

CYQF;2012-01-21 10:00;CYQF 211000Z 10009KT 10SM -SN SCT015 OVC030 M16/M20 A2925 RMK SC4SC4 SLP980

CYQF;2012-01-21 11:00;CYQF 211100Z 11007KT 15SM -SN BKN014 OVC040 M16/M20 A2921 RMK SC5SC3 SLP966

CYQF;2012-01-21 12:00;CYQF 211200Z 09004KT 15SM -SN OVC014 M16/M20 A2918 RMK SC8 SLP952

CYQF;2012-01-21 13:00;CYQF 211300Z 11008KT 15SM -SN OVC014 M16/M20 A2913 RMK SC8 SLP938

CYQF;2012-01-21 14:00;CYQF 211400Z 11005KT 15SM -SN OVC012 M16/M20 A2912 RMK SC8 SLP934

CYQF;2012-01-21 15:00;CYQF 211500Z 07004KT 15SM -SN OVC012 M16/M20 A2911 RMK SC8 SLP929

CYQF;2012-01-21 16:00;CYQF 211600Z CCA 08006KT 15SM -SN OVC012 M16/M19 A2908 RMK SC8 SLP919

CYQF;2012-01-21 16:39;CYQF 211639Z 06004KT 6SM -SN OVC012 RMK SC8

CYQF;2012-01-21 17:00;CYQF 211700Z 07005KT 5SM -SN OVC012 M16/M19 A2909 RMK SC8 SLP922

CYQF;2012-01-21 17:12;CYQF 211712Z 07005KT 3SM -SN OVC012 RMK SC8

CYQF;2012-01-21 18:00;CYQF 211800Z 05006KT 5SM -SN OVC011 M15/M19 A2908 RMK SC8 SLP918

CYQF;2012-01-21 19:00;CYQF 211900Z 07004KT 5SM -SN OVC011 M16/M19 A2906 RMK SC8 SLP912

CYQF;2012-01-21 20:00;CYQF 212000Z 04004KT 8SM -SN OVC012 M15/M19 A2906 RMK SC7 SLP911

CYQF;2012-01-21 21:00;CYQF 212100Z 00000KT 6SM -SN BKN015 BKN100 M15/M18 A2906 RMK SC6AC2 SLP910

CYQF;2012-01-21 22:00;CYQF 212200Z 08002KT 15SM BKN015 BKN080 OVC250 M15/M19 A2908 RMK SC5AC2CI1 SLP915

CYQF;2012-01-21 23:00;CYQF 212300Z 00000KT 15SM BKN015 OVC080 M15/M19 A2912 RMK SC6AC2 SLP927

CYQF;2012-01-22 00:00;CYQF 220000Z 34003KT 15SM BKN018 BKN080 M15/M19 A2914 RMK SC5AC2 SLP937

CYQF;2012-01-22 01:00;CYQF 220100Z 00000KT 15SM BKN018 BKN080 M15/M19 A2916 RMK SC5AC2 SLP944

CYQF;2012-01-22 02:00;CYQF 220200Z 34004KT 15SM OVC017 M14/M19 A2919 RMK SC8 SLP953

CYQF;2012-01-22 03:00;CYQF 220300Z 36004KT 15SM OVC027 M14/M18 A2923 RMK SC8 SLP966

CYQF;2012-01-22 04:00;CYQF 220400Z 33005KT 15SM OVC050 M14/M18 A2927 RMK SC8 SLP980

CYQF;2012-01-22 04:16;CYQF 220416Z 33006KT 10SM -SN FEW020 OVC040 RMK SC2SC6

CYQF;2012-01-22 04:49;CYQF 220449Z 31004KT 1 1/2SM -SN OVC020 RMK SN3SC5

CYQF;2012-01-22 05:00;CYQF 220500Z 29004KT 3/4SM -SN VV007 M14/M17 A2932 RMK SN8 SLP995

CYQF;2012-01-22 05:24;CYQF 220524Z 26004KT 1/2SM SN VV004 RMK SN8

CYQF;2012-01-22 05:33;CYQF 220533Z 24005KT 3/4SM -SN VV008 RMK SN8

CYQF;2012-01-22 06:00;CYQF 220600Z 22005KT 3/4SM -SN VV008 M13/M16 A2935 RMK SN8 /S01/ SLP005

CYQF;2012-01-22 06:10;CYQF 220610Z 25006KT 5SM -SN FEW015 OVC030 RMK SC2SC6

CYQF;2012-01-22 07:00;CYQF 220700Z 24006KT 3SM -SN FEW015 OVC030 M12/M15 A2938 RMK SC2SC6 SLP016

CYQF;2012-01-22 08:00;CYQF 220800Z 25007KT 10SM -SN FEW015 OVC030 M11/M14 A2941 RMK SC2SC6 SLP024

CYQF;2012-01-22 08:43;CYQF 220843Z 20005KT 15SM FEW015 BKN030 OVC100 RMK SC2SC2AC3

CYQF;2012-01-22 09:00;CYQF 220900Z 18008KT 15SM SCT030 OVC100 M11/M12 A2942 RMK SC3AC5 SLP027

CYQF;2012-01-22 10:00;CYQF 221000Z 00000KT 15SM FEW030 OVC100 M10/M11 A2946 RMK SC2AC6 SLP039

CYQF;2012-01-22 11:00;CYQF 221100Z 00000KT 15SM FEW030 OVC100 M09/M10 A2950 RMK SC2AC6 SLP052

CYQF;2012-01-22 12:00;CYQF 221200Z 23010KT 15SM FEW030 OVC100 M07/M09 A2953 RMK SC2AC6 SLP061

CYQF;2012-01-22 13:00;CYQF 221300Z 25005KT 15SM SCT030 OVC100 M05/M07 A2956 RMK SC3AC5 SLP069

CYQF;2012-01-22 14:00;CYQF 221400Z 31002KT 15SM FEW030 OVC090 M04/M07 A2958 RMK SC2AC6 SLP078

CYQF;2012-01-22 15:00;CYQF 221500Z 18005KT 15SM FEW030 BKN080 M05/M07 A2960 RMK SC2AC5 SLP083

CYQF;2012-01-22 16:00;CYQF 221600Z 21006KT 15SM BKN030 BKN250 M06/M07 A2963 RMK SC6CI1 SLP091

CYQF;2012-01-22 17:00;CYQF 221700Z 17005KT 15SM BKN030 BKN250 M05/M07 A2963 RMK SC6CI2 SLP093

CYQF;2012-01-22 18:00;CYQF 221800Z 19005KT 15SM FEW030 BKN250 M04/M07 A2965 RMK SC1CI1 SLP097

CYQF;2012-01-22 19:00;CYQF 221900Z 17006KT 15SM FEW030 FEW100 BKN250 M03/M07 A2963 RMK SC1AC1CI6 SLP093

CYQF;2012-01-22 20:00;CYQF 222000Z 17010KT 15SM FEW100 FEW250 M02/M06 A2961 RMK AC1CI1 AC TR SLP085

CYQF;2012-01-22 21:00;CYQF 222100Z 15005KT 15SM BKN100 BKN250 M02/M06 A2959 RMK AC6CI1 SLP072

CYQF;2012-01-22 22:00;CYQF 222200Z 16006KT 15SM FEW100 BKN250 M01/M06 A2958 RMK AC2CI1 SLP068

CYQF;2012-01-22 23:00;CYQF 222300Z 15007KT 15SM BKN100 BKN250 M03/M07 A2956 RMK AC5CI2 SLP062

CYQF;2012-01-23 00:00;CYQF 230000Z 15007KT 15SM BKN100 BKN250 M03/M08 A2954 RMK AC6CI2 SLP052

CYQF;2012-01-23 01:00;CYQF 230100Z 18010KT 15SM BKN100 BKN250 M04/M09 A2953 RMK AC5CI2 SLP049

CYQF;2012-01-23 02:00;CYQF 230200Z 16013KT 15SM SCT100 BKN250 M05/M10 A2949 RMK AC4CI2 SLP037

CYQF;2012-01-23 03:00;CYQF 230300Z 17012KT 15SM BKN100 BKN250 M05/M09 A2946 RMK AC5CI2 SLP024

CYQF;2012-01-23 04:00;CYQF 230400Z 15013KT 15SM BKN100 OVC250 M06/M10 A2944 RMK AC6CI2 SLP019

CYQF;2012-01-23 05:00;CYQF 230500Z 16007KT 15SM BKN120 M06/M11 A2941 RMK AC6 SLP009

CYQF;2012-01-23 06:00;CYQF 230600Z 19005KT 15SM SCT120 M08/M12 A2939 RMK AC3 SLP000

CYQF;2012-01-23 07:00;CYQF 230700Z 16008KT 15SM SCT120 BKN250 M05/M12 A2938 RMK AC3CI1 SLP997

CYQF;2012-01-23 08:00;CYQF 230800Z 20007KT 15SM BKN120 M05/M11 A2937 RMK AC6 SLP995

CYQF;2012-01-23 09:00;CYQF 230900Z 20006KT 15SM BKN120 BKN250 M05/M11 A2938 RMK AC5CI1 SLP993

CYQF;2012-01-23 10:00;CYQF 231000Z 23008KT 15SM SCT120 BKN250 M07/M12 A2939 RMK AC4CI1 SLP996

CYQF;2012-01-23 11:00;CYQF 231100Z 22007KT 15SM FEW120 BKN250 M07/M13 A2939 RMK AC2CI1 SLP995

CYQF;2012-01-23 12:00;CYQF 231200Z 20006KT 15SM FEW120 M11/M15 A2939 RMK AC2 SLP003

CYQF;2012-01-23 13:00;CYQF 231300Z 20007KT 15SM SKC M08/M14 A2938 RMK SLP000

CYQF;2012-01-23 14:00;CYQF 231400Z 19010KT 15SM SKC M06/M13 A2938 RMK SLP999

CYQF;2012-01-23 15:00;CYQF 231500Z 21010KT 15SM FEW080 M06/M14 A2938 RMK AC1 SLP999

CYQF;2012-01-23 16:00;CYQF 231600Z 23010KT 15SM FEW080 FEW250 M10/M16 A2940 RMK AC1CI1 SLP005

CYQF;2012-01-23 17:00;CYQF 231700Z 23011KT 15SM FEW080 SCT250 M07/M14 A2944 RMK AC1CI0 SLP015

CYQF;2012-01-23 18:00;CYQF 231800Z 23010KT 15SM BKN070 BKN250 M04/M12 A2946 RMK AC6CI1 SLP026

CYQF;2012-01-23 19:00;CYQF 231900Z 25007KT 15SM BKN070 M03/M10 A2948 RMK AC7 SLP031

CYQF;2012-01-23 20:00;CYQF 232000Z 27008KT 15SM BKN070 BKN250 M01/M10 A2949 RMK AC5CI2 SLP036

CYQF;2012-01-23 21:00;CYQF 232100Z 27008KT 15SM FEW040 FEW080 BKN250 M00/M10 A2952 RMK SC1AC2CI2 SLP038

CYQF;2012-01-23 22:00;CYQF 232200Z 26005KT 15SM FEW040 SCT100 BKN250 M01/M10 A2955 RMK SC1AC2CI2 SLP049

CYQF;2012-01-23 23:00;CYQF 232300Z 26004KT 15SM FEW040 FEW100 BKN250 M03/M11 A2958 RMK SC1AC2CI3 SLP059

CYQF;2012-01-24 00:00;CYQF 240000Z 24004KT 15SM FEW040 FEW250 M05/M12 A2961 RMK SC1CI0 SLP084

CYQF;2012-01-24 01:00;CYQF 240100Z 22006KT 15SM SKC M10/M15 A2964 RMK SLP092

CYQF;2012-01-24 02:00;CYQF 240200Z 22007KT 15SM SKC M11/M16 A2965 RMK SLP095

CYQF;2012-01-24 03:00;CYQF 240300Z 19007KT 15SM SKC M11/M16 A2965 RMK SLP098

CYQF;2012-01-24 04:00;CYQF 240400Z 21005KT 15SM SKC M09/M17 A2966 RMK OBS TAKEN +14 SLP101

CYQF;2012-01-24 05:00;CYQF 240500Z 22010KT 15SM FEW100 SCT250 M11/M17 A2966 RMK AC1CI0 SLP102

CYQF;2012-01-24 06:00;CYQF 240600Z 23010KT 15SM FEW250 M08/M16 A2968 RMK CI1 SLP101

CYQF;2012-01-24 07:00;CYQF 240700Z 22007KT 15SM SCT120 M08/M15 A2969 RMK AC2 SLP104

CYQF;2012-01-24 08:00;CYQF 240800Z 20007KT 15SM SCT120 M10/M15 A2969 RMK AC2 SLP105

CYQF;2012-01-24 09:00;CYQF 240900Z 21008KT 15SM SCT120 M08/M14 A2970 RMK AC2 SLP105

CYQF;2012-01-24 10:00;CYQF 241000Z 20007KT 15SM SCT120 M09/M15 A2970 RMK AC2 SLP106

CYQF;2012-01-24 11:00;CYQF 241100Z 18010KT 15SM FEW120 SCT250 M08/M15 A2970 RMK AC1CI1 SLP106

CYQF;2012-01-24 12:00;CYQF 241200Z 18008KT 15SM FEW120 M07/M14 A2970 RMK AC1 SLP109

CYQF;2012-01-24 13:00;CYQF 241300Z 18012KT 15SM FEW120 M08/M15 A2970 RMK AC1 SLP110

CYQF;2012-01-24 14:00;CYQF 241400Z 17007KT 15SM SKC M11/M16 A2969 RMK SLP108

CYQF;2012-01-24 15:00;CYQF 241500Z 18008KT 15SM FEW250 M12/M16 A2968 RMK CI1 SLP114

CYQF;2012-01-24 16:00;CYQF 241600Z 17008KT 15SM FEW200 M12/M16 A2968 RMK CI2 SLP113

CYQF;2012-01-24 17:00;CYQF 241700Z 18006KT 15SM FEW120 BKN220 M10/M15 A2967 RMK AC1CI2 VIRGA W SLP112

CYQF;2012-01-24 18:00;CYQF 241800Z 18009KT 15SM FEW120 BKN220 M03/M12 A2964 RMK AC2CI2 SLP088

CYQF;2012-01-24 19:00;CYQF 241900Z 18008KT 15SM FEW040 BKN100 BKN250 M02/M10 A2959 RMK SC1AC4CI2 SLP073

CYQF;2012-01-24 20:00;CYQF 242000Z 22010G16KT 15SM FEW040 SCT100 BKN250 01/M09 A2955 RMK SC1AC3CI3 SLP059

CYQF;2012-01-24 21:00;CYQF 242100Z 18010KT 15SM FEW040 SCT100 BKN250 00/M08 A2952 RMK SC1AC3CI3 SLP041

CYQF;2012-01-24 22:00;CYQF 242200Z 18007KT 15SM FEW040 BKN100 BKN250 00/M07 A2951 RMK SC1AC6CI2 SLP038

CYQF;2012-01-24 23:00;CYQF 242300Z 18008KT 15SM FEW040 BKN100 BKN250 M00/M07 A2947 RMK SC1AC6CI1 SLP026

CYQF;2012-01-25 00:00;CYQF 250000Z 18010KT 15SM BKN100 OVC250 M00/M07 A2945 RMK AC6CI2 SLP016

CYQF;2012-01-25 01:00;CYQF 250100Z 15004KT 15SM BKN100 BKN250 01/M07 A2940 RMK AC6CI1 SLP002

CYQF;2012-01-25 02:00;CYQF 250200Z 18010KT 15SM BKN100 BKN250 01/M06 A2937 RMK AC6CI1 OBS TAKEN +6 SLP993

CYQF;2012-01-25 03:00;CYQF 250300Z 19010G15KT 15SM BKN120 BKN250 00/M07 A2931 RMK AC6CI1 PRESFR SLP974

CYQF;2012-01-25 04:00;CYQF 250400Z 21012G20KT 15SM BKN120 OVC250 01/M07 A2929 RMK AC6CI2 SLP968

CYQF;2012-01-25 05:00;CYQF 250500Z 19012G20KT 15SM BKN120 OVC250 01/M06 A2927 RMK AC6CI2 SLP960

CYQF;2012-01-25 06:00;CYQF 250600Z 20010G15KT 15SM SCT120 BKN250 01/M06 A2922 RMK AC2CI1 SLP932

CYQF;2012-01-25 07:00;CYQF 250700Z 19012KT 15SM FEW120 SCT250 M01/M07 A2919 RMK AC1CI1 SLP924

CYQF;2012-01-25 08:00;CYQF 250800Z 19007KT 15SM FEW120 M03/M08 A2918 RMK AC1 SLP920

CYQF;2012-01-25 09:00;CYQF 250900Z 17005KT 15SM BKN120 M03/M08 A2919 RMK AC3 SLP923

CYQF;2012-01-25 10:00;CYQF 251000Z 20006KT 15SM BKN120 M03/M08 A2921 RMK AC5 SLP927

CYQF;2012-01-25 11:00;CYQF 251100Z 22008KT 15SM BKN120 M03/M08 A2922 RMK AC6 SLP930

CYQF;2012-01-25 12:00;CYQF 251200Z 20007KT 15SM FEW120 BKN250 M04/M08 A2923 RMK AC2CI2 SLP936

CYQF;2012-01-25 13:00;CYQF 251300Z 23007KT 15SM FEW120 SCT250 M04/M09 A2925 RMK AC1CI1 SLP942

CYQF;2012-01-25 14:00;CYQF 251400Z 17004KT 15SM FEW120 FEW250 M07/M11 A2927 RMK AC1CI0 SLP951

CYQF;2012-01-25 15:00;CYQF 251500Z 21007KT 15SM FEW120 FEW250 M08/M12 A2930 RMK AC1CI1 SLP966

CYQF;2012-01-25 16:00;CYQF 251600Z 21006KT 15SM FEW120 FEW250 M09/M13 A2933 RMK AC1CI1 SLP974

CYQF;2012-01-25 17:00;CYQF 251700Z 21006KT 15SM FEW120 BKN250 M06/M11 A2937 RMK AC2CI1 SLP986

CYQF;2012-01-25 18:00;CYQF 251800Z 24012KT 15SM FEW040 BKN120 BKN250 02/M08 A2941 RMK SC1AC6CI2 SLP990

CYQF;2012-01-25 19:00;CYQF 251900Z 26008KT 15SM FEW040 BKN070 03/M07 A2946 RMK SC1AC6 SLP005

CYQF;2012-01-25 20:00;CYQF 252000Z 28010KT 15SM FEW040 BKN070 05/M08 A2949 RMK SC1AC6 SLP016

CYQF;2012-01-25 21:00;CYQF 252100Z 28015G20KT 15SM FEW040 SCT070 BKN250 05/M09 A2953 RMK SC1AC3CI2 SLP034

CYQF;2012-01-25 22:00;CYQF 252200Z 33007KT 15SM FEW040 FEW070 SCT250 03/M06 A2958 RMK SC1AC2CI1 SLP050

CYQF;2012-01-25 23:00;CYQF 252300Z 31005KT 15SM FEW040 FEW070 01/M07 A2962 RMK SC1AC2 SLP062

CYQF;2012-01-26 00:00;CYQF 260000Z 27010G15KT 15SM FEW040 SCT080 01/M11 A2965 RMK CU2AC2 CB + SH N SLP082

CYQF;2012-01-26 01:00;CYQF 260100Z 32007KT 15SM FEW040 SCT100 00/M12 A2971 RMK SC2AC2 OBS TAKEN +08 SLP101

CYQF;2012-01-26 02:00;CYQF 260200Z 00000KT 15SM FEW100 M02/M13 A2973 RMK AC2 SLP105

CYQF;2012-01-26 03:00;CYQF 260300Z 26010KT 15SM SKC M03/M14 A2973 RMK SLP118

CYQF;2012-01-26 04:00;CYQF 260400Z 23008KT 15SM SKC M05/M15 A2974 RMK SLP120

CYQF;2012-01-26 05:00;CYQF 260500Z 22005KT 15SM SKC M06/M15 A2974 RMK SLP121

CYQF;2012-01-26 06:00;CYQF 260600Z 21008KT 15SM SKC M10/M16 A2976 RMK SLP125

CYQF;2012-01-26 07:00;CYQF 260700Z 21007KT 15SM SKC M11/M16 A2976 RMK SLP126

CYQF;2012-01-26 08:00;CYQF 260800Z 18004KT 15SM FEW060 M11/M16 A2977 RMK SC1 SLP128

CYQF;2012-01-26 09:00;CYQF 260900Z 18005KT 15SM FEW060 M11/M17 A2975 RMK SC1 SLP120

CYQF;2012-01-26 10:00;CYQF 261000Z 23003KT 15SM FEW060 M14/M17 A2975 RMK SC1 SLP119

CYQF;2012-01-26 11:00;CYQF 261100Z 00000KT 15SM SKC M13/M17 A2975 RMK SLP121

CYQF;2012-01-26 12:00;CYQF 261200Z 03003KT 15SM SKC M13/M17 A2972 RMK SLP116

CYQF;2012-01-26 13:00;CYQF 261300Z 00000KT 15SM SCT230 M15/M18 A2971 RMK CI2 SLP114

CYQF;2012-01-26 14:00;CYQF 261400Z 00000KT 15SM BKN230 M14/M17 A2970 RMK CI3 SLP109

CYQF;2012-01-26 15:00;CYQF 261500Z 00000KT 15SM BKN080 BKN230 M12/M15 A2966 RMK AS6CI2 SLP100

CYQF;2012-01-26 16:00;CYQF 261600Z 03002KT 15SM FEW040 BKN080 M08/M11 A2964 RMK SC1AS7 SLP093

CYQF;2012-01-26 17:00;CYQF 261700Z 02006KT 15SM FEW040 BKN080 M07/M10 A2965 RMK SC1AS7 SLP095

CYQF;2012-01-26 17:50;CYQF 261750Z 27005KT 10SM -SN FEW040 OVC080 RMK SC2AC6

CYQF;2012-01-26 18:00;CYQF 261800Z 27004KT 6SM -SN FEW040 OVC080 M06/M09 A2967 RMK SC2AC6 SLP103

CYQF;2012-01-26 19:00;CYQF 261900Z 27004KT 4SM -SN FEW010 BKN020 OVC080 M05/M08 A2968 RMK SC1SC6AC2 VIS SE-S 2 NW-N 6 SLP106

CYQF;2012-01-26 19:43;CYQF 261943Z 29004KT 15SM FEW010 SCT020 BKN080 RMK SC1SC3AC2

CYQF;2012-01-26 20:00;CYQF 262000Z 29006KT 15SM FEW020 BKN080 M05/M08 A2968 RMK SC2AS4 SLP108

CYQF;2012-01-26 21:00;CYQF 262100Z 29006KT 15SM FEW020 BKN080 OVC250 M04/M09 A2970 RMK SC2AC5CI1 SLP114

CYQF;2012-01-26 22:00;CYQF 262200Z 31010KT 15SM FEW020 BKN080 BKN250 M04/M08 A2973 RMK SC2AC2CI1 CU ASOCTD SLP121

CYQF;2012-01-26 23:00;CYQF 262300Z 27004KT 15SM FEW040 BKN080 BKN250 M05/M08 A2974 RMK SC1AC4CI1 SLP126

CYQF;2012-01-27 00:00;CYQF 270000Z 23007KT 15SM FEW040 BKN080 BKN250 M07/M09 A2977 RMK SC1AC4CI1 SLP142

CYQF;2012-01-27 01:00;CYQF 270100Z 00000KT 15SM BKN080 BKN250 M06/M09 A2981 RMK AC5CI2 VIRGA SLP154

CYQF;2012-01-27 02:00;CYQF 270200Z 29008KT 15SM FEW030 OVC080 M04/M08 A2984 RMK SC2AC6 VIRGA SLP165

CYQF;2012-01-27 02:28;CYQF 270228Z 31020G30KT 6SM -SN BKN025 OVC080 RMK SC5AC3

CYQF;2012-01-27 02:33;CYQF 270233Z 32015G25KT 1SM -SN BLSN BKN025 OVC080 RMK SN2SC5AC2

CYQF;2012-01-27 03:00;CYQF 270300Z 31009KT 8SM -SN BKN030 BKN080 M05/M08 A2988 RMK SC5AC2 SLP178

CYQF;2012-01-27 03:25;CYQF 270325Z 27005KT 15SM FEW030 BKN080 RMK SC2AC2

CYQF;2012-01-27 04:00;CYQF 270400Z 28005KT 15SM FEW030 BKN080 M07/M09 A2990 RMK SC2AC3 SLP183

CYQF;2012-01-27 04:33;CYQF 270433Z 30010G15KT 12SM -SN SCT030 OVC080 RMK SC4AC4

CYQF;2012-01-27 04:45;CYQF 270445Z 29012G18KT 2SM -SN DRSN OVC030 RMK SN2SC6

CYQF;2012-01-27 05:00;CYQF 270500Z 25010G15KT 12SM DRSN BKN030 OVC080 M05/M08 A2993 RMK SC6AC2 SLP192

CYQF;2012-01-27 06:00;CYQF 270600Z 26011KT 15SM DRSN SCT030 BKN080 M06/M09 A2995 RMK SC3AC2 SLP194

CYQF;2012-01-27 07:00;CYQF 270700Z 27010KT 15SM FEW030 OVC100 M07/M10 A2997 RMK SC2AC6 SLP202

CYQF;2012-01-27 08:00;CYQF 270800Z 29010G15KT 15SM BKN040 OVC100 M05/M11 A3000 RMK SC5AC3 SLP212

CYQF;2012-01-27 09:00;CYQF 270900Z 28005KT 15SM OVC040 M05/M13 A3001 RMK SC8 SLP214

CYQF;2012-01-27 10:00;CYQF 271000Z 28010KT 15SM OVC040 M05/M12 A3004 RMK SC8 SLP222

CYQF;2012-01-27 11:00;CYQF 271100Z 26008KT 15SM SCT040 M08/M13 A3005 RMK SC3 SLP225

CYQF;2012-01-27 12:00;CYQF 271200Z 25010KT 15SM FEW040 M10/M13 A3006 RMK SC2 SLP239

CYQF;2012-01-27 13:00;CYQF 271300Z 22009KT 15SM SCT040 M11/M14 A3007 RMK SC4 SLP242

CYQF;2012-01-27 14:00;CYQF 271400Z 22008KT 15SM FEW040 M11/M14 A3006 RMK SC2 SLP239

CYQF;2012-01-27 15:00;CYQF 271500Z 22010KT 15SM BKN100 M10/M14 A3005 RMK AC7 SLP233

CYQF;2012-01-27 16:00;CYQF 271600Z 21008KT 15SM BKN100 M09/M14 A3004 RMK AC7 SLP229

CYQF;2012-01-27 17:00;CYQF 271700Z 19008KT 15SM OVC100 M09/M14 A3002 RMK AC8 SLP223

CYQF;2012-01-27 18:00;CYQF 271800Z 19006KT 15SM BKN100 M08/M14 A2999 RMK AC7 SLP212

CYQF;2012-01-27 19:00;CYQF 271900Z 18004KT 15SM OVC100 M06/M13 A2997 RMK AC8 SLP206

CYQF;2012-01-27 20:00;CYQF 272000Z 20004KT 15SM BKN100 BKN250 M04/M11 A2995 RMK AC6CI1 SLP199

CYQF;2012-01-27 21:00;CYQF 272100Z 24006KT 15SM BKN100 BKN250 M02/M13 A2994 RMK AC6CI2 SLP188

CYQF;2012-01-27 22:00;CYQF 272200Z 26010G15KT 15SM FEW040 SCT100 BKN250 M00/M13 A2993 RMK SC2AC2CI1 SLP183

CYQF;2012-01-27 23:00;CYQF 272300Z 27010G15KT 15SM FEW080 BKN250 M02/M14 A2993 RMK AC2CI2 SLP184

CYQF;2012-01-28 00:00;CYQF 280000Z 27012G20KT 15SM SCT080 BKN250 M02/M14 A2994 RMK AC3CI2 SLP191

CYQF;2012-01-28 01:00;CYQF 280100Z 26010KT 15SM BKN100 BKN250 M03/M14 A2994 RMK AC5CI2 SLP191

CYQF;2012-01-28 02:00;CYQF 280200Z 26008KT 15SM SCT100 BKN250 M04/M14 A2994 RMK AC3CI3 SLP192

CYQF;2012-01-28 03:00;CYQF 280300Z 24008KT 15SM BKN100 OVC250 M04/M13 A2994 RMK AC5CI2 SLP195

CYQF;2012-01-28 04:00;CYQF 280400Z 24007KT 15SM BKN100 M03/M14 A2995 RMK AC6 VIRGA SLP196

CYQF;2012-01-28 05:00;CYQF 280500Z 24009KT 15SM FEW050 BKN100 M04/M14 A2995 RMK SC2AC5 VIRGA SLP197

CYQF;2012-01-28 06:00;CYQF 280600Z 28006KT 15SM FEW030 SCT090 M03/M12 A2996 RMK SC2AC2 SLP197

CYQF;2012-01-28 07:00;CYQF 280700Z 00000KT 15SM FEW030 M05/M14 A2999 RMK SC2 SLP206

CYQF;2012-01-28 07:47;CYQF 280747Z 32015G20KT 10SM -SHSN BKN025 RMK SC6

CYQF;2012-01-28 08:00;CYQF 280800Z 32020G25KT 6SM -SHSN DRSN OVC025 M03/M06 A3001 RMK SC8 SLP212

CYQF;2012-01-28 09:00;CYQF 280900Z 31015G20KT 5SM -SHSN DRSN OVC040 M04/M06 A3003 RMK SC8 SLP216

CYQF;2012-01-28 10:00;CYQF 281000Z 33010G15KT 5SM -SHSN DRSN BKN040 OVC075 M04/M07 A3005 RMK SC5AC3 SLP223

CYQF;2012-01-28 10:45;CYQF 281045Z 31011G16KT 10SM DRSN VCSH BKN025 OVC070 RMK SC6AC2

CYQF;2012-01-28 11:00;CYQF 281100Z 31011KT 15SM BKN025 OVC070 M05/M09 A3005 RMK SC6AC2 SLP222

CYQF;2012-01-28 12:00;CYQF 281200Z 33005KT 15SM SCT025 OVC070 M06/M09 A3006 RMK SC4AC4 SLP231

CYQF;2012-01-28 13:00;CYQF 281300Z 25005KT 15SM SCT025 OVC090 M07/M10 A3008 RMK SC3AC5 SLP236

CYQF;2012-01-28 14:00;CYQF 281400Z 28004KT 15SM FEW025 OVC050 M07/M10 A3009 RMK SC2SC6 SLP240

CYQF;2012-01-28 14:14;CYQF 281414Z 28003KT 15SM -SN OVC050 RMK SC8

CYQF;2012-01-28 14:48;CYQF 281448Z 27003KT 2 1/2SM -SN OVC050 RMK SC8

CYQF;2012-01-28 15:00;CYQF 281500Z 25003KT 2SM -SN OVC050 M07/M09 A3009 RMK SN3SC5 SLP245

CYQF;2012-01-28 15:21;CYQF 281521Z 25005KT 6SM -SN SCT050 OVC240 RMK SC4CI3

CYQF;2012-01-28 15:44;CYQF 281544Z 24003KT 15SM FEW050 OVC240 RMK SC2CI5

CYQF;2012-01-28 16:00;CYQF 281600Z 24004KT 15SM FEW050 OVC240 M09/M11 A3009 RMK SC2CI5 CC SLP243

CYQF;2012-01-28 17:00;CYQF 281700Z 20002KT 15SM FEW050 BKN240 M10/M12 A3009 RMK SC2CI3 SLP245

CYQF;2012-01-28 18:00;CYQF 281800Z 18006KT 15SM FEW050 BKN240 M08/M11 A3008 RMK SC2CI3 SLP240

CYQF;2012-01-28 19:00;CYQF 281900Z 16005KT 15SM FEW050 BKN240 M06/M10 A3004 RMK SC2CI3 SLP228

CYQF;2012-01-28 20:00;CYQF 282000Z 16010KT 15SM FEW050 BKN240 M05/M10 A2999 RMK SC1CI6 SLP214

CYQF;2012-01-28 21:00;CYQF 282100Z 17010G15KT 15SM BKN100 OVC250 M05/M10 A2996 RMK AC5CI3 SLP195

CYQF;2012-01-28 22:00;CYQF 282200Z 15012KT 15SM OVC100 M04/M09 A2992 RMK AC8 SLP183

CYQF;2012-01-28 23:00;CYQF 282300Z 15010G16KT 15SM OVC100 M04/M10 A2989 RMK AS8 SLP174

CYQF;2012-01-29 00:00;CYQF 290000Z 15012G18KT 15SM OVC070 M04/M09 A2985 RMK AS8 VIRGA SLP157

CYQF;2012-01-29 01:00;CYQF 290100Z 15010G18KT 15SM OVC070 M04/M10 A2980 RMK AC8 VIRGA SLP144

CYQF;2012-01-29 02:00;CYQF 290200Z 17010G15KT 15SM OVC070 M05/M09 A2977 RMK AC6 SLP133

CYQF;2012-01-29 03:00;CYQF 290300Z 17010G15KT 15SM OVC030 M04/M08 A2974 RMK SC8 VIRGA VIS S 6 SLP121

CYQF;2012-01-29 03:08;CYQF 290308Z 15010G15KT 6SM -SN OVC070 RMK SC8

CYQF;2012-01-29 04:00;CYQF 290400Z 17008KT 15SM -SN OVC070 M04/M07 A2969 RMK AC8 SLP107

CYQF;2012-01-29 04:19;CYQF 290419Z 16008KT 15SM OVC070 RMK AC8 VIRGA

CYQF;2012-01-29 05:00;CYQF 290500Z 15011KT 15SM OVC100 M03/M07 A2966 RMK AC8 VIRGA SLP098

CYQF;2012-01-29 06:00;CYQF 290600Z 18004KT 15SM OVC100 M03/M07 A2964 RMK AC8 VIRGA SLP087

CYQF;2012-01-29 07:00;CYQF 290700Z 17004KT 15SM FEW040 OVC090 M04/M07 A2961 RMK SC1AS8 SLP079

CYQF;2012-01-29 08:00;CYQF 290800Z 17005KT 15SM FEW040 OVC090 M04/M07 A2957 RMK SC1AS8 SLP066

CYQF;2012-01-29 09:00;CYQF 290900Z 15004KT 15SM OVC090 M04/M07 A2953 RMK AS8 SLP047

CYQF;2012-01-29 10:00;CYQF 291000Z 09003KT 15SM OVC090 M04/M07 A2950 RMK AC8 SLP037

CYQF;2012-01-29 11:00;CYQF 291100Z 17004KT 15SM OVC090 M04/M07 A2947 RMK AC8 SLP029

CYQF;2012-01-29 12:00;CYQF 291200Z 18005KT 15SM OVC090 M04/M07 A2944 RMK AC8 SLP013

CYQF;2012-01-29 13:00;CYQF 291300Z 15003KT 15SM OVC090 M04/M07 A2940 RMK AC8 SLP002

CYQF;2012-01-29 14:00;CYQF 291400Z 00000KT 15SM OVC090 M04/M07 A2938 RMK AC8 SLP995

CYQF;2012-01-29 15:00;CYQF 291500Z 20006KT 15SM FEW040 OVC090 M03/M06 A2936 RMK SC1AC8 SLP986

CYQF;2012-01-29 16:00;CYQF 291600Z 21003KT 15SM FEW040 BKN090 M03/M06 A2934 RMK SC1AC7 SLP981

CYQF;2012-01-29 17:00;CYQF 291700Z 23005KT 15SM FEW040 BKN090 M02/M06 A2935 RMK SC1AC7 SLP984

CYQF;2012-01-29 18:00;CYQF 291800Z 00000KT 15SM FEW040 BKN090 BKN250 M01/M05 A2937 RMK SC1AC7CI1 SLP987

CYQF;2012-01-29 19:00;CYQF 291900Z 19008KT 15SM FEW040 BKN090 BKN250 M01/M05 A2937 RMK SC1AC7CI1 SLP987

CYQF;2012-01-29 20:00;CYQF 292000Z 17006KT 15SM FEW040 SCT090 BKN250 01/M04 A2937 RMK SC1AC3CI3 SLP987

CYQF;2012-01-29 21:00;CYQF 292100Z 14002KT 15SM FEW040 BKN090 BKN250 03/M04 A2937 RMK SC1AC4CI2 SLP981

CYQF;2012-01-29 22:00;CYQF 292200Z 18003KT 15SM FEW040 SCT090 OVC250 03/M03 A2937 RMK SC1AC3CI4 SLP983

CYQF;2012-01-29 23:00;CYQF 292300Z 18005KT 15SM FEW040 SCT090 OVC250 02/M04 A2938 RMK SC1AC3CI4 SLP984

CYQF;2012-01-30 00:00;CYQF 300000Z 17004KT 15SM FEW040 SCT090 BKN250 03/M03 A2937 RMK SC1AC3CI3 SLP984

CYQF;2012-01-30 01:00;CYQF 300100Z 20005KT 15SM BKN090 BKN250 01/M04 A2938 RMK AC4CI2 SLP986

CYQF;2012-01-30 02:00;CYQF 300200Z 20008KT 15SM SCT100 OVC250 M01/M05 A2938 RMK AC3CI4 SLP987

CYQF;2012-01-30 03:00;CYQF 300300Z 21003KT 15SM FEW100 OVC250 M01/M05 A2937 RMK AC2CS2 HALO SLP987

CYQF;2012-01-30 04:00;CYQF 300400Z 17003KT 15SM SCT100 OVC250 M01/M06 A2937 RMK AC3CS2 SLP985

CYQF;2012-01-30 05:00;CYQF 300500Z 21004KT 15SM FEW100 OVC250 M02/M06 A2937 RMK AC2CI4 SLP986

CYQF;2012-01-30 06:00;CYQF 300600Z 00000KT 15SM FEW090 OVC250 M02/M06 A2937 RMK AC1CI8 SLP986

CYQF;2012-01-30 07:00;CYQF 300700Z 19005KT 15SM SCT250 M03/M07 A2938 RMK CI2 SLP989

CYQF;2012-01-30 08:00;CYQF 300800Z 18006KT 15SM FEW250 M06/M08 A2938 RMK CI1 SLP988

CYQF;2012-01-30 09:00;CYQF 300900Z 20008KT 15SM FEW250 M08/M10 A2938 RMK CI1 SLP991

CYQF;2012-01-30 10:00;CYQF 301000Z 20005KT 15SM SCT250 M08/M10 A2939 RMK CI1 SLP992

CYQF;2012-01-30 11:00;CYQF 301100Z 22002KT 15SM SCT080 M08/M10 A2938 RMK AC3 SLP990

CYQF;2012-01-30 12:00;CYQF 301200Z 20004KT 15SM BKN080 M06/M09 A2938 RMK AC5 SLP989

CYQF;2012-01-30 13:00;CYQF 301300Z 20003KT 15SM BKN080 M06/M09 A2940 RMK AC6 SLP994

CYQF;2012-01-30 14:00;CYQF 301400Z 19003KT 15SM BKN080 M07/M09 A2940 RMK AC6 SLP994

CYQF;2012-01-30 15:00;CYQF 301500Z 00000KT 15SM SCT090 BKN250 M07/M10 A2941 RMK AC3CI0 SLP003

CYQF;2012-01-30 16:00;CYQF 301600Z 20005KT 15SM FEW090 SCT250 M10/M12 A2942 RMK AC2CI1 SLP007

CYQF;2012-01-30 17:00;CYQF 301700Z 18003KT 15SM FEW030 SCT100 SCT250 M06/M09 A2943 RMK SC1AC2CI0 SLP010

CYQF;2012-01-30 18:00;CYQF 301800Z 19002KT 15SM FEW030 FEW120 FEW250 M06/M09 A2944 RMK SC1AC2CI1 SLP013

CYQF;2012-01-30 19:00;CYQF 301900Z 16002KT 15SM FEW040 FEW120 M00/M07 A2944 RMK SC1AC2 SLP012

CYQF;2012-01-30 20:00;CYQF 302000Z 00000KT 15SM FEW040 BKN120 01/M06 A2944 RMK SC1AC2 SLP014

CYQF;2012-01-30 21:00;CYQF 302100Z 00000KT 15SM FEW040 BKN120 04/M05 A2945 RMK CU1AC2 SLP012

CYQF;2012-01-30 22:00;CYQF 302200Z 00000KT 15SM FEW040 BKN120 06/M04 A2946 RMK SC1AC4 SLP015

CYQF;2012-01-30 23:00;CYQF 302300Z 00000KT 15SM FEW040 SCT120 BKN240 05/M06 A2948 RMK SC1AC1CI2 VIRGA SLP023

CYQF;2012-01-31 00:00;CYQF 310000Z 13002KT 15SM SCT100 BKN250 04/M05 A2951 RMK AC1CI4 VIRGA SLP032

CYQF;2012-01-31 01:00;CYQF 310100Z 26002KT 15SM BKN100 BKN250 M00/M05 A2954 RMK AC2CI2 SLP041

CYQF;2012-01-31 02:00;CYQF 310200Z 00000KT 15SM BKN100 OVC200 02/M05 A2956 RMK AC6CI2 VIRGA SLP047

CYQF;2012-01-31 03:00;CYQF 310300Z 24006KT 15SM FEW100 SCT200 M00/M05 A2958 RMK AC2CI1 SLP061

CYQF;2012-01-31 04:00;CYQF 310400Z 31003KT 15SM SKC M03/M07 A2960 RMK SLP069

CYQF;2012-01-31 05:00;CYQF 310500Z 22003KT 15SM SKC M06/M09 A2962 RMK SLP074

CYQF;2012-01-31 06:00;CYQF 310600Z 18002KT 15SM BKN090 M05/M09 A2963 RMK AC7 SLP083

CYQF;2012-01-31 07:00;CYQF 310700Z 20004KT 15SM BKN090 M06/M10 A2964 RMK AC7 SLP087

CYQF;2012-01-31 08:00;CYQF 310800Z 19004KT 15SM BKN090 M07/M10 A2964 RMK AC7 SLP087

CYQF;2012-01-31 09:00;CYQF 310900Z 05003KT 15SM BKN090 M06/M10 A2964 RMK AC7 SLP077

CYQF;2012-01-31 10:00;CYQF 311000Z 18003KT 15SM BKN090 M05/M10 A2964 RMK AC7 SLP077

CYQF;2012-01-31 11:00;CYQF 311100Z 18004KT 15SM BKN080 M06/M10 A2963 RMK AC7 SLP074

CYQF;2012-01-31 12:00;CYQF 311200Z 18005KT 15SM BKN080 M05/M09 A2964 RMK AC7 SLP076

CYQF;2012-01-31 13:00;CYQF 311300Z 17007KT 15SM BKN080 M03/M08 A2963 RMK AC7 SLP073

CYQF;2012-01-31 14:00;CYQF 311400Z 17005KT 15SM BKN080 M02/M08 A2963 RMK AC7 SLP072

CYQF;2012-01-31 15:00;CYQF 311500Z 00000KT 15SM BKN090 M04/M08 A2963 RMK AC7 SLP075

CYQF;2012-01-31 16:00;CYQF 311600Z 19002KT 15SM BKN090 BKN240 M03/M08 A2963 RMK AC6CI1 SLP075

CYQF;2012-01-31 17:00;CYQF 311700Z 22003KT 15SM SCT090 BKN240 M03/M07 A2964 RMK AC3CI2 SLP078

CYQF;2012-01-31 18:00;CYQF 311800Z 00000KT 15SM BKN090 BKN250 M01/M07 A2966 RMK AC3CI2 SLP088

CYQF;2012-01-31 19:00;CYQF 311900Z 25003KT 15SM FEW040 BKN090 BKN250 02/M06 A2967 RMK SC1AC4CI2 VIRGA SLP092

CYQF;2012-01-31 20:00;CYQF 312000Z 00000KT 15SM FEW040 FEW090 BKN250 03/M05 A2968 RMK SC1AC2CI4 SLP094

CYQF;2012-01-31 21:00;CYQF 312100Z 27005KT 15SM FEW040 FEW090 BKN250 03/M04 A2968 RMK SC1AC2CI2 SLP094

CYQF;2012-01-31 22:00;CYQF 312200Z 26003KT 15SM FEW040 FEW090 BKN250 03/M05 A2970 RMK SC1AC1CI2 SLP098

CYQF;2012-01-31 23:00;CYQF 312300Z 21005KT 15SM FEW040 FEW090 FEW250 03/M05 A2971 RMK CU1AC1CI1 SLP103

CYQF;2012-02-01 00:00;CYQF 010000Z 00000KT 15SM FEW040 FEW090 FEW250 01/M07 A2973 RMK SC1AC1CI1 SLP110

CYQF;2012-02-01 01:00;CYQF 010100Z 21004KT 15SM FEW090 FEW250 M05/M10 A2976 RMK AC1CI1 SLP118

CYQF;2012-02-01 02:00;CYQF 010200Z 21003KT 15SM SKC M05/M10 A2976 RMK SLP121

CYQF;2012-02-01 03:00;CYQF 010300Z 19002KT 15SM SKC M05/M10 A2978 RMK SLP134

CYQF;2012-02-01 04:00;CYQF 010400Z 22005KT 15SM SKC M07/M11 A2979 RMK SLP138

CYQF;2012-02-01 05:00;CYQF 010500Z 19004KT 15SM SKC M09/M12 A2980 RMK SLP139

CYQF;2012-02-01 06:00;CYQF 010600Z 20005KT 15SM SCT240 M09/M12 A2980 RMK CI1 SLP140

CYQF;2012-02-01 07:00;CYQF 010700Z 19006KT 15SM SCT240 M08/M13 A2980 RMK CI1 SLP140

CYQF;2012-02-01 08:00;CYQF 010800Z 18006KT 15SM SCT240 M09/M13 A2979 RMK CI1 SLP137

CYQF;2012-02-01 09:00;CYQF 010900Z 17004KT 15SM SCT240 M09/M13 A2978 RMK CI1 SLP130

CYQF;2012-02-01 10:00;CYQF 011000Z 17004KT 15SM SCT240 M09/M13 A2977 RMK CI1 SLP128

CYQF;2012-02-01 11:00;CYQF 011100Z 20004KT 15SM SCT240 M11/M14 A2976 RMK CI1 SLP125

CYQF;2012-02-01 12:00;CYQF 011200Z CCA 20002KT 15SM FEW240 M12/M15 A2976 RMK CI0 SLP128

CYQF;2012-02-01 13:00;CYQF 011300Z 18005KT 15SM FEW240 M12/M15 A2975 RMK CI0 SLP124

CYQF;2012-02-01 14:00;CYQF 011400Z 18005KT 15SM FEW240 M10/M13 A2974 RMK CI0 SLP122

CYQF;2012-02-01 15:00;CYQF 011500Z 00000KT 15SM FEW150 FEW250 M12/M16 A2974 RMK AC1CI0 SLP129

CYQF;2012-02-01 16:00;CYQF 011600Z 18003KT 15SM FEW100 BKN250 M11/M15 A2974 RMK AC1CI2 SLP129

CYQF;2012-02-01 17:00;CYQF 011700Z 20004KT 15SM FEW100 BKN250 M09/M13 A2974 RMK AC1CI1 SLP130

CYQF;2012-02-01 18:00;CYQF 011800Z 00000KT 15SM FEW100 BKN250 M05/M10 A2976 RMK AC2CI1 SLP130

CYQF;2012-02-01 19:00;CYQF 011900Z 00000KT 15SM FEW100 BKN250 M03/M08 A2976 RMK AC2CI2 SLP132

CYQF;2012-02-01 20:00;CYQF 012000Z 00000KT 15SM FEW100 BKN250 M01/M08 A2976 RMK AC1CI1 SLP132

CYQF;2012-02-01 21:00;CYQF 012100Z 29005KT 15SM FEW100 BKN250 M00/M08 A2978 RMK AC2CI1 SLP133

CYQF;2012-02-01 22:00;CYQF 012200Z 34003KT 15SM FEW050 FEW100 BKN250 M00/M08 A2979 RMK CU1AC2CI2 SLP138

CYQF;2012-02-01 23:00;CYQF 012300Z 35003KT 15SM FEW050 FEW100 BKN210 M00/M07 A2983 RMK SC1AC1CI3 SLP148

CYQF;2012-02-02 00:00;CYQF 020000Z 35006KT 15SM FEW050 BKN120 BKN210 00/M09 A2987 RMK SC1AC4CI1 SLP167

CYQF;2012-02-02 01:00;CYQF 020100Z 32008KT 15SM FEW050 BKN120 BKN210 M01/M08 A2991 RMK SC1AC4CI1 SLP179

CYQF;2012-02-02 02:00;CYQF 020200Z 33007KT 15SM FEW120 OVC210 M01/M07 A2995 RMK AC2CS3 SLP191

CYQF;2012-02-02 03:00;CYQF 020300Z 35008KT 15SM FEW120 OVC210 M01/M06 A2999 RMK AC2CS2 SLP211

CYQF;2012-02-02 04:00;CYQF 020400Z 32012KT 15SM FEW120 OVC210 00/M05 A3004 RMK AC2CS3 SLP225

CYQF;2012-02-02 04:49;CYQF 020449Z 33013KT 10SM -SN BKN100 OVC210 RMK AC5CS1

CYQF;2012-02-02 05:00;CYQF 020500Z 32008KT 10SM -SN BKN090 OVC210 M00/M03 A3008 RMK AC5CS1 SLP239

CYQF;2012-02-02 05:31;CYQF 020531Z 31011KT 15SM BKN090 BKN210 RMK AC5CI1

CYQF;2012-02-02 06:00;CYQF 020600Z 31008KT 15SM BKN090 BKN210 M02/M05 A3012 RMK AC6CI1 SLP248

CYQF;2012-02-02 07:00;CYQF 020700Z 30005KT 15SM BKN090 M03/M06 A3015 RMK AC7 SLP257

CYQF;2012-02-02 08:00;CYQF 020800Z 29005KT 15SM SKC M05/M07 A3016 RMK SLP263

CYQF;2012-02-02 09:00;CYQF 020900Z 27006KT 15SM SKC M05/M07 A3018 RMK SLP270

CYQF;2012-02-02 10:00;CYQF 021000Z 28009KT 15SM SKC M06/M07 A3019 RMK SLP273

CYQF;2012-02-02 11:00;CYQF 021100Z 27008KT 15SM SKC M06/M08 A3021 RMK SLP278

CYQF;2012-02-02 12:00;CYQF 021200Z 27009KT 15SM SKC M06/M08 A3023 RMK SLP286

CYQF;2012-02-02 13:00;CYQF 021300Z 28008KT 15SM SKC M07/M09 A3025 RMK SLP291

CYQF;2012-02-02 14:00;CYQF 021400Z 19003KT 15SM SKC M11/M13 A3026 RMK SLP297

CYQF;2012-02-02 15:00;CYQF 021500Z 15003KT 15SM SKC M11/M13 A3026 RMK SLP304

CYQF;2012-02-02 16:00;CYQF 021600Z 20006KT 15SM SKC M14/M15 A3028 RMK SLP310

CYQF;2012-02-02 17:00;CYQF 021700Z 18005KT 15SM SKC M09/M11 A3029 RMK SLP312

CYQF;2012-02-02 18:00;CYQF 021800Z 18005KT 15SM SCT250 M06/M10 A3030 RMK CI0 SLP312

CYQF;2012-02-02 19:00;CYQF 021900Z 19005KT 15SM BKN250 M03/M08 A3030 RMK CI2 SLP313

CYQF;2012-02-02 20:00;CYQF 022000Z 16003KT 15SM FEW140 BKN250 M01/M06 A3028 RMK AC1CI2 SLP306

CYQF;2012-02-02 21:00;CYQF 022100Z 18005KT 15SM FEW140 BKN250 02/M06 A3026 RMK AC1CI2 SLP296

CYQF;2012-02-02 22:00;CYQF 022200Z 13008KT 15SM FEW140 BKN250 02/M06 A3026 RMK AC2CI2 SLP294

CYQF;2012-02-02 23:00;CYQF 022300Z 16006KT 15SM FEW140 BKN250 02/M05 A3025 RMK AC1CI1 SLP290

CYQF;2012-02-03 00:00;CYQF 030000Z 15006KT 15SM FEW140 BKN250 01/M05 A3025 RMK AC1CI1 SLP291

CYQF;2012-02-03 01:00;CYQF 030100Z 17008KT 15SM FEW140 BKN250 M00/M07 A3025 RMK AC2CI1 SLP292

CYQF;2012-02-03 02:00;CYQF 030200Z 17008KT 15SM FEW140 BKN250 M01/M07 A3025 RMK AC2CI2 SLP293

CYQF;2012-02-03 03:00;CYQF 030300Z 17010KT 15SM FEW140 BKN250 M01/M06 A3027 RMK AC2CI2 SLP309

CYQF;2012-02-03 04:00;CYQF 030400Z 16007KT 15SM FEW140 BKN250 M01/M06 A3027 RMK AC2CI2 SLP308

CYQF;2012-02-03 05:00;CYQF 030500Z 19004KT 15SM FEW140 SCT250 M03/M07 A3028 RMK AC1CI0 SLP311

CYQF;2012-02-03 06:00;CYQF 030600Z 18004KT 15SM FEW240 M03/M07 A3028 RMK CI0 SLP307

CYQF;2012-02-03 07:00;CYQF 030700Z 18006KT 15SM FEW240 M05/M09 A3029 RMK CI0 SLP310

CYQF;2012-02-03 08:00;CYQF 030800Z 18005KT 15SM SKC M07/M09 A3029 RMK SLP311

CYQF;2012-02-03 09:00;CYQF 030900Z 18004KT 15SM FEW240 M08/M10 A3029 RMK CI0 SLP309

CYQF;2012-02-03 10:00;CYQF 031000Z 19004KT 15SM SCT240 M08/M10 A3030 RMK CI0 SLP312

CYQF;2012-02-03 11:00;CYQF 031100Z 18004KT 15SM SCT240 M09/M11 A3031 RMK CI0 SLP313

CYQF;2012-02-03 12:00;CYQF 031200Z 19003KT 15SM SCT240 M09/M11 A3031 RMK CI0 SLP317

CYQF;2012-02-03 13:00;CYQF 031300Z 00000KT 15SM FEW240 M10/M12 A3031 RMK CI0 SLP318

CYQF;2012-02-03 14:00;CYQF 031400Z 20004KT 15SM FEW240 M12/M13 A3032 RMK CI0 FROIN SLP321

CYQF;2012-02-03 15:00;CYQF 031500Z 19006KT 15SM BKN240 M12/M13 A3032 RMK CI2 SLP326

CYQF;2012-02-03 16:00;CYQF 031600Z 22004KT 15SM BKN250 M13/M15 A3032 RMK CI2 SLP326

CYQF;2012-02-03 17:00;CYQF 031700Z 20005KT 15SM BKN250 M09/M11 A3032 RMK CI1 SLP324

CYQF;2012-02-03 18:00;CYQF 031800Z 21003KT 15SM BKN250 M05/M09 A3032 RMK CI1 SLP318

CYQF;2012-02-03 19:00;CYQF 031900Z 19002KT 15SM BKN250 M02/M08 A3029 RMK CI1 SLP311

CYQF;2012-02-03 20:00;CYQF 032000Z 18002KT 15SM BKN250 M01/M07 A3028 RMK CI1 SLP308

CYQF;2012-02-03 21:00;CYQF 032100Z 00000KT 15SM BKN250 02/M05 A3027 RMK CI1 SLP300

CYQF;2012-02-03 22:00;CYQF 032200Z 18008KT 15SM BKN250 04/M04 A3025 RMK CI1 SLP296

CYQF;2012-02-03 23:00;CYQF 032300Z 17003KT 15SM SCT250 03/M03 A3025 RMK CI1 SLP293

CYQF;2012-02-04 00:00;CYQF 040000Z 15006KT 15SM SCT250 03/M04 A3024 RMK CI1 SLP289

CYQF;2012-02-04 01:00;CYQF 040100Z 17006KT 15SM FEW250 00/M07 A3023 RMK CI0 SLP287

CYQF;2012-02-04 02:00;CYQF 040200Z 17006KT 15SM SKC 00/M08 A3022 RMK OBS TAKEN +12 SLP283

CYQF;2012-02-04 03:00;CYQF 040300Z 17008KT 15SM SKC M01/M09 A3021 RMK OBS TAKEN +10 SLP286

CYQF;2012-02-04 04:00;CYQF 040400Z 18010KT 15SM SKC M02/M08 A3019 RMK SLP280

CYQF;2012-02-04 05:00;CYQF 040500Z 19008KT 15SM SKC M01/M08 A3018 RMK SLP277

CYQF;2012-02-04 06:00;CYQF 040600Z 17010KT 15SM SKC M02/M09 A3017 RMK SLP266

CYQF;2012-02-04 07:00;CYQF 040700Z 15009KT 15SM SKC M04/M10 A3017 RMK SLP265

CYQF;2012-02-04 08:00;CYQF 040800Z 16008KT 15SM SKC M04/M10 A3016 RMK SLP262

CYQF;2012-02-04 09:00;CYQF 040900Z 15008KT 15SM SKC M05/M10 A3015 RMK SLP253

CYQF;2012-02-04 10:00;CYQF 041000Z 16003KT 15SM SKC M06/M10 A3014 RMK SLP251

CYQF;2012-02-04 11:00;CYQF 041100Z 00000KT 15SM SKC M06/M10 A3014 RMK SLP252

CYQF;2012-02-04 12:00;CYQF 041200Z 15010KT 15SM SKC M07/M11 A3014 RMK SLP254

CYQF;2012-02-04 13:00;CYQF 041300Z 15008KT 15SM SKC M07/M11 A3014 RMK SLP254

CYQF;2012-02-04 14:00;CYQF 041400Z 16005KT 15SM SKC M10/M13 A3015 RMK SLP255

CYQF;2012-02-04 15:00;CYQF 041500Z 19003KT 15SM FEW250 M10/M12 A3014 RMK CI1 SLP261

CYQF;2012-02-04 16:00;CYQF 041600Z 19006KT 15SM FEW250 M11/M13 A3014 RMK CI1 SLP262

CYQF;2012-02-04 17:00;CYQF 041700Z 19005KT 15SM FEW250 M07/M11 A3014 RMK CI0 SLP262

CYQF;2012-02-04 18:00;CYQF 041800Z 20004KT 15SM FEW250 M04/M09 A3014 RMK CI0 SLP255

CYQF;2012-02-04 19:00;CYQF 041900Z 19003KT 15SM FEW250 M01/M07 A3013 RMK CI0 SLP251

CYQF;2012-02-04 20:00;CYQF 042000Z 00000KT 15SM FEW250 02/M06 A3011 RMK CI0 SLP246

CYQF;2012-02-04 21:00;CYQF 042100Z 00000KT 15SM FEW250 04/M05 A3011 RMK CI0 SLP240

CYQF;2012-02-04 22:00;CYQF 042200Z 02002KT 15SM FEW250 03/M04 A3012 RMK CI1 SLP243

CYQF;2012-02-04 23:00;CYQF 042300Z 00000KT 15SM SKC 03/M04 A3013 RMK SLP245

CYQF;2012-02-05 00:00;CYQF 050000Z 21002KT 15SM SKC 02/M05 A3013 RMK SLP250

CYQF;2012-02-05 01:00;CYQF 050100Z 27005KT 15SM SKC M02/M06 A3014 RMK SLP252

CYQF;2012-02-05 02:00;CYQF 050200Z 00000KT 15SM SKC M03/M07 A3014 RMK SLP254

CYQF;2012-02-05 03:00;CYQF 050300Z 19004KT 15SM SKC M06/M08 A3015 RMK SLP272

CYQF;2012-02-05 04:00;CYQF 050400Z 20003KT 15SM SKC M07/M10 A3016 RMK SLP274

CYQF;2012-02-05 05:00;CYQF 050500Z 20002KT 15SM SKC M08/M10 A3017 RMK SLP276

CYQF;2012-02-05 06:00;CYQF 050600Z 28002KT 15SM SKC M08/M11 A3017 RMK CLR SLP274

CYQF;2012-02-05 07:00;CYQF 050700Z 00000KT 15SM SKC M09/M11 A3018 RMK SLP277

CYQF;2012-02-05 08:00;CYQF 050800Z 00000KT 15SM SKC M09/M11 A3018 RMK SLP276

CYQF;2012-02-05 09:00;CYQF 050900Z 19005KT 15SM SKC M09/M11 A3019 RMK SLP273

CYQF;2012-02-05 10:00;CYQF 051000Z 19003KT 15SM SKC M09/M11 A3020 RMK SLP275

CYQF;2012-02-05 11:00;CYQF 051100Z 19003KT 15SM SKC M09/M11 A3021 RMK SLP278

CYQF;2012-02-05 12:00;CYQF 051200Z 21002KT 15SM SKC M11/M13 A3021 RMK SLP283

CYQF;2012-02-05 13:00;CYQF 051300Z 00000KT 15SM SKC M11/M13 A3021 RMK SLP284

CYQF;2012-02-05 14:00;CYQF 051400Z 21004KT 15SM SKC M11/M13 A3022 RMK SLP286

CYQF;2012-02-05 15:00;CYQF 051500Z 22005KT 15SM SKC M10/M12 A3024 RMK FROIN SLP300

CYQF;2012-02-05 16:00;CYQF 051600Z 00000KT 15SM FEW250 M10/M11 A3025 RMK CI1 SLP305

CYQF;2012-02-05 17:00;CYQF 051700Z 22003KT 15SM FEW250 M07/M10 A3027 RMK CI1 SLP310

CYQF;2012-02-05 18:00;CYQF 051800Z 19002KT 15SM FEW250 M04/M08 A3028 RMK CI1 SLP312

CYQF;2012-02-05 19:00;CYQF 051900Z 00000KT 15SM FEW250 M01/M06 A3029 RMK CI1 SLP314

CYQF;2012-02-05 20:00;CYQF 052000Z 32004KT 15SM FEW250 00/M05 A3030 RMK CI1 SLP317

CYQF;2012-02-05 21:00;CYQF 052100Z 01006KT 15SM FEW250 03/M03 A3031 RMK CI1 SLP314

CYQF;2012-02-05 22:00;CYQF 052200Z 35006KT 15SM FEW100 FEW250 02/M03 A3031 RMK AC1CI0 SLP315

CYQF;2012-02-05 23:00;CYQF 052300Z 34004KT 15SM FEW100 SCT250 02/M03 A3033 RMK AC1CC3 SLP321

CYQF;2012-02-06 00:00;CYQF 060000Z 35008KT 15SM BKN030 BKN250 01/M03 A3034 RMK SC6CC2 SLP328

CYQF;2012-02-06 01:00;CYQF 060100Z 01010G15KT 15SM BKN045 OVC250 01/M06 A3036 RMK SC7CI1 SLP334

CYQF;2012-02-06 02:00;CYQF 060200Z 36007KT 15SM OVC050 00/M06 A3038 RMK SC8 SLP340

CYQF;2012-02-06 03:00;CYQF 060300Z 01006KT 15SM OVC050 00/M07 A3040 RMK SC8 SLP350

CYQF;2012-02-06 04:00;CYQF 060400Z 36008KT 15SM OVC050 M00/M07 A3043 RMK SC8 SLP358

CYQF;2012-02-06 05:00;CYQF 060500Z 36009KT 15SM OVC050 M01/M07 A3044 RMK SC8 SLP363

CYQF;2012-02-06 06:00;CYQF 060600Z 02010KT 15SM OVC050 M01/M07 A3045 RMK SC8 SLP364

CYQF;2012-02-06 07:00;CYQF 060700Z 02008KT 15SM OVC050 M02/M07 A3047 RMK SC8 SLP370

CYQF;2012-02-06 08:00;CYQF 060800Z 06006KT 15SM OVC050 M03/M08 A3048 RMK SC8 SLP373

CYQF;2012-02-06 09:00;CYQF 060900Z 08006KT 15SM OVC050 M04/M09 A3049 RMK SC8 SLP372

CYQF;2012-02-06 10:00;CYQF 061000Z 06006KT 15SM BKN050 M05/M10 A3050 RMK SC7 SLP374

CYQF;2012-02-06 11:00;CYQF 061100Z 06005KT 15SM BKN050 M06/M11 A3051 RMK SC6 SLP377

CYQF;2012-02-06 12:00;CYQF 061200Z 07005KT 15SM FEW050 M07/M13 A3052 RMK SC2 SLP388

CYQF;2012-02-06 13:00;CYQF 061300Z 05004KT 15SM FEW050 M09/M13 A3053 RMK SC2 SLP391

CYQF;2012-02-06 14:00;CYQF 061400Z 04004KT 15SM FEW050 FEW100 BKN250 M10/M14 A3054 RMK SC1AC1CI1 SLP392

CYQF;2012-02-06 15:00;CYQF 061500Z 08003KT 15SM FEW100 BKN250 M11/M14 A3054 RMK AC2CI2 SLP401

CYQF;2012-02-06 16:00;CYQF 061600Z 00000KT 15SM FEW100 BKN250 M10/M14 A3056 RMK AC2CI2 SLP405

CYQF;2012-02-06 17:00;CYQF 061700Z 00000KT 15SM FEW100 SCT250 M11/M14 A3057 RMK AC1CI1 AC TR SLP408

CYQF;2012-02-06 18:00;CYQF 061800Z 11004KT 15SM FEW100 SCT250 M07/M14 A3057 RMK AC1CI1 SLP407

CYQF;2012-02-06 19:00;CYQF 061900Z 09002KT 15SM FEW100 SCT250 M06/M13 A3057 RMK AC1CI1 AC TR SLP407

CYQF;2012-02-06 20:00;CYQF 062000Z 15008KT 15SM SCT250 M05/M13 A3055 RMK CI1 SLP402

CYQF;2012-02-06 21:00;CYQF 062100Z 12010KT 15SM SCT250 M04/M12 A3054 RMK CI1 SLP396

CYQF;2012-02-06 22:00;CYQF 062200Z 13005KT 15SM FEW250 M03/M12 A3053 RMK CI1 SLP392

CYQF;2012-02-06 23:00;CYQF 062300Z 11006KT 15SM FEW250 M04/M12 A3053 RMK CI1 SLP393

CYQF;2012-02-07 00:00;CYQF 070000Z 11006KT 15SM FEW250 M06/M13 A3052 RMK CI1 SLP396

CYQF;2012-02-07 01:00;CYQF 070100Z 10005KT 15SM FEW250 M08/M14 A3052 RMK CI1 SLP395

CYQF;2012-02-07 02:00;CYQF 070200Z 12003KT 15SM SKC M09/M14 A3051 RMK SLP393

CYQF;2012-02-07 03:00;CYQF 070300Z 15006KT 15SM SKC M10/M15 A3050 RMK SLP399

CYQF;2012-02-07 04:00;CYQF 070400Z 15002KT 15SM SKC M10/M15 A3050 RMK SLP397

CYQF;2012-02-07 05:00;CYQF 070500Z 14002KT 15SM SKC M11/M15 A3049 RMK SLP395

CYQF;2012-02-07 06:00;CYQF 070600Z 20003KT 15SM SKC M11/M15 A3047 RMK SLP384

CYQF;2012-02-07 07:00;CYQF 070700Z 15010KT 15SM SKC M12/M15 A3046 RMK SLP380

CYQF;2012-02-07 08:00;CYQF 070800Z 14010KT 15SM SKC M12/M16 A3044 RMK SLP375

CYQF;2012-02-07 09:00;CYQF 070900Z 16012KT 15SM SKC M13/M17 A3043 RMK SLP367

CYQF;2012-02-07 10:00;CYQF 071000Z 16010G15KT 15SM SKC M11/M16 A3042 RMK SLP364

CYQF;2012-02-07 11:00;CYQF 071100Z 15010G15KT 15SM SKC M12/M16 A3039 RMK SLP357

CYQF;2012-02-07 12:00;CYQF 071200Z 16008KT 15SM SKC M13/M17 A3038 RMK SLP353

CYQF;2012-02-07 13:00;CYQF 071300Z 17009KT 15SM SKC M12/M15 A3034 RMK SLP343

CYQF;2012-02-07 14:00;CYQF 071400Z 16008KT 15SM SKC M12/M15 A3033 RMK SLP338

CYQF;2012-02-07 15:00;CYQF 071500Z 15010G15KT 15SM SKC M12/M15 A3031 RMK SLP332

CYQF;2012-02-07 16:00;CYQF 071600Z 16010G18KT 15SM SKC M13/M16 A3030 RMK SLP330

CYQF;2012-02-07 17:00;CYQF 071700Z 16011G17KT 15SM SKC M10/M14 A3028 RMK SLP323

CYQF;2012-02-07 18:00;CYQF 071800Z 17010G18KT 15SM SKC M07/M13 A3026 RMK SLP310

CYQF;2012-02-07 19:00;CYQF 071900Z 16015G20KT 15SM SKC M05/M11 A3024 RMK SLP305

CYQF;2012-02-07 20:00;CYQF 072000Z 17018G25KT 15SM SKC M02/M10 A3021 RMK SLP294

CYQF;2012-02-07 21:00;CYQF 072100Z 17018G28KT 15SM SKC M01/M11 A3018 RMK SLP278

CYQF;2012-02-07 22:00;CYQF 072200Z 18020G30KT 15SM SKC M01/M10 A3016 RMK SLP271

CYQF;2012-02-07 23:00;CYQF 072300Z 16015G27KT 15SM SKC M01/M10 A3015 RMK SLP268

CYQF;2012-02-08 00:00;CYQF 080000Z 16015G25KT 15SM SKC M02/M11 A3013 RMK SLP262

CYQF;2012-02-08 01:00;CYQF 080100Z 16015G25KT 15SM SKC M04/M11 A3012 RMK SLP259

CYQF;2012-02-08 02:00;CYQF 080200Z 17010G18KT 15SM SKC M06/M11 A3011 RMK SLP257

CYQF;2012-02-08 03:00;CYQF 080300Z 17015G21KT 15SM SKC M06/M12 A3009 RMK SLP253

CYQF;2012-02-08 04:00;CYQF 080400Z 16015G20KT 15SM SKC M07/M13 A3007 RMK SLP246

CYQF;2012-02-08 05:00;CYQF 080500Z 15015G21KT 15SM SKC M08/M12 A3006 RMK SLP244

CYQF;2012-02-08 06:00;CYQF 080600Z 16010G18KT 15SM SKC M08/M12 A3005 RMK SLP237

CYQF;2012-02-08 07:00;CYQF 080700Z 17010KT 15SM SKC M09/M12 A3003 RMK SLP229

CYQF;2012-02-08 08:00;CYQF 080800Z 16010G15KT 15SM SKC M09/M12 A3001 RMK SLP222

CYQF;2012-02-08 09:00;CYQF 080900Z 17010G15KT 15SM SKC M09/M12 A2999 RMK SLP207

CYQF;2012-02-08 10:00;CYQF 081000Z 17008KT 15SM SKC M10/M13 A2998 RMK SLP206

CYQF;2012-02-08 11:00;CYQF 081100Z 17010KT 15SM SKC M12/M14 A2997 RMK SLP203

CYQF;2012-02-08 12:00;CYQF 081200Z 23005KT 15SM SKC M13/M16 A2996 RMK SLP206

CYQF;2012-02-08 13:00;CYQF 081300Z 20005KT 15SM SKC M16/M18 A2996 RMK SLP204

CYQF;2012-02-08 14:00;CYQF 081400Z 19003KT 15SM SKC M16/M18 A2995 RMK SLP201

CYQF;2012-02-08 15:00;CYQF 081500Z 20002KT 15SM SKC M18/M20 A2995 RMK SLP208

CYQF;2012-02-08 16:00;CYQF 081600Z 00000KT 15SM SKC M17/M18 A2996 RMK SLP212

CYQF;2012-02-08 17:00;CYQF 081700Z 20002KT 15SM SKC M14/M17 A2996 RMK SLP214

CYQF;2012-02-08 18:00;CYQF 081800Z 23003KT 15SM SKC M11/M15 A2997 RMK SLP212

CYQF;2012-02-08 19:00;CYQF 081900Z 25003KT 15SM SKC M08/M14 A2997 RMK SLP211

CYQF;2012-02-08 20:00;CYQF 082000Z 27004KT 15SM SKC M05/M13 A2995 RMK SLP207

CYQF;2012-02-08 21:00;CYQF 082100Z 27008KT 15SM SKC M03/M12 A2995 RMK SLP198

CYQF;2012-02-08 22:00;CYQF 082200Z 28008KT 15SM SKC M02/M10 A2996 RMK SLP200

CYQF;2012-02-08 23:00;CYQF 082300Z 34005KT 15SM SKC M01/M08 A2998 RMK SLP205

CYQF;2012-02-09 00:00;CYQF 090000Z 35006KT 15SM SKC M02/M10 A2999 RMK SLP212

CYQF;2012-02-09 01:00;CYQF 090100Z 33003KT 15SM SKC M06/M12 A2999 RMK SLP213

CYQF;2012-02-09 02:00;CYQF 090200Z 29003KT 15SM SKC M07/M12 A3001 RMK SLP219

CYQF;2012-02-09 03:00;CYQF 090300Z 28006KT 15SM SKC M08/M13 A3002 RMK OBS TAKEN +10 SLP237

CYQF;2012-02-09 04:00;CYQF 090400Z 29005KT 15SM SKC M06/M12 A3004 RMK SLP241

CYQF;2012-02-09 05:00;CYQF 090500Z 31004KT 15SM SKC M10/M14 A3006 RMK SLP249

CYQF;2012-02-09 06:00;CYQF 090600Z 30005KT 15SM FEW210 M10/M14 A3008 RMK CI0 SLP253

CYQF;2012-02-09 07:00;CYQF 090700Z 32008KT 15SM FEW210 M07/M12 A3011 RMK CI0 SLP262

CYQF;2012-02-09 08:00;CYQF 090800Z 33006KT 15SM BKN210 M08/M12 A3015 RMK CI2 SLP274

CYQF;2012-02-09 09:00;CYQF 090900Z 33008KT 15SM FEW210 M10/M13 A3017 RMK CI1 SLP275

CYQF;2012-02-09 10:00;CYQF 091000Z 34008KT 15SM FEW210 M11/M14 A3019 RMK CI0 SLP281

CYQF;2012-02-09 11:00;CYQF 091100Z 30005KT 15SM SKC M12/M15 A3021 RMK SLP287

CYQF;2012-02-09 12:00;CYQF 091200Z 30006KT 15SM SKC M12/M15 A3023 RMK SLP296

CYQF;2012-02-09 13:00;CYQF 091300Z 30006KT 15SM SKC M12/M15 A3025 RMK SLP302

CYQF;2012-02-09 14:00;CYQF 091400Z 31006KT 15SM SKC M12/M15 A3027 RMK SLP307

CYQF;2012-02-09 15:00;CYQF 091500Z 30005KT 10SM FEW100 M13/M16 A3028 RMK AC1 SLP321

CYQF;2012-02-09 16:00;CYQF 091600Z 05002KT 10SM FEW240 M13/M15 A3030 RMK CI1 SLP326

CYQF;2012-02-09 17:00;CYQF 091700Z 34004KT 12SM FEW240 M11/M13 A3031 RMK CI1 SLP331

CYQF;2012-02-09 18:00;CYQF 091800Z 34007KT 12SM SKC M09/M12 A3032 RMK SLP334

CYQF;2012-02-09 19:00;CYQF 091900Z 33006KT 15SM FEW020 SCT250 M09/M12 A3033 RMK SC1CI0 SLP336

CYQF;2012-02-09 20:00;CYQF 092000Z 36005KT 15SM FEW020 SCT250 M08/M13 A3032 RMK SC1CI1 SLP334

CYQF;2012-02-09 21:00;CYQF 092100Z 33005KT 15SM FEW250 M08/M12 A3032 RMK CI1 SLP330

CYQF;2012-02-09 22:00;CYQF 092200Z 28005KT 15SM FEW120 M07/M12 A3031 RMK AC1 SLP329

CYQF;2012-02-09 23:00;CYQF 092300Z 33003KT 15SM FEW100 M07/M13 A3031 RMK AC1 SLP329

CYQF;2012-02-10 00:00;CYQF 100000Z 00000KT 15SM FEW100 M08/M13 A3032 RMK AC1 SLP335

CYQF;2012-02-10 01:00;CYQF 100100Z 04003KT 15SM FEW100 M09/M14 A3034 RMK AC1 SLP340

CYQF;2012-02-10 02:00;CYQF 100200Z 07006KT 15SM FEW100 M11/M14 A3034 RMK AC1 SLP341

CYQF;2012-02-10 03:00;CYQF 100300Z 06006KT 5SM HZ SKC M12/M15 A3036 RMK VIS S 8 SLP356

CYQF;2012-02-10 04:00;CYQF 100400Z 00000KT 8SM SKC M14/M16 A3038 RMK VIS E 5 HZ SLP360

CYQF;2012-02-10 05:00;CYQF 100500Z 06005KT 8SM FEW250 M14/M16 A3038 RMK CI1 HZ SLP360

CYQF;2012-02-10 06:00;CYQF 100600Z 07004KT 10SM FEW250 M15/M17 A3038 RMK CI0 SLP359

CYQF;2012-02-10 07:00;CYQF 100700Z 00000KT 15SM BKN210 M17/M19 A3039 RMK CI2 SLP364

CYQF;2012-02-10 08:00;CYQF 100800Z 14003KT 15SM BKN210 M15/M17 A3040 RMK CI3 SLP366

CYQF;2012-02-10 09:00;CYQF 100900Z 10005KT 15SM BKN210 M16/M18 A3039 RMK CI3 SLP364

CYQF;2012-02-10 10:00;CYQF 101000Z 09004KT 10SM SCT060 OVC210 M16/M18 A3040 RMK SC3CI2 FROIN SLP366

CYQF;2012-02-10 11:00;CYQF 101100Z 09004KT 10SM SCT060 OVC210 M16/M18 A3038 RMK SC3CI2 FROIN SLP361

CYQF;2012-02-10 12:00;CYQF 101200Z 09004KT 15SM FEW060 SCT210 M16/M19 A3039 RMK SC2CI0 FROIN SLP365

CYQF;2012-02-10 13:00;CYQF 101300Z 15008KT 15SM BKN100 M17/M19 A3041 RMK AC7 SLP370

CYQF;2012-02-10 14:00;CYQF 101400Z 16004KT 15SM FEW100 M17/M19 A3041 RMK AC2 SLP369

CYQF;2012-02-10 15:00;CYQF 101500Z 15004KT 15SM FEW100 SCT250 M17/M20 A3040 RMK AC2CI1 SLP374

CYQF;2012-02-10 16:00;CYQF 101600Z 15003KT 15SM FEW015 FEW100 M17/M19 A3040 RMK SC1AC2 SLP372

CYQF;2012-02-10 17:00;CYQF 101700Z 14008KT 15SM FEW015 FEW100 M15/M18 A3041 RMK SC1AC1 SLP375

CYQF;2012-02-10 18:00;CYQF 101800Z 15010KT 15SM FEW120 M13/M17 A3041 RMK AC1 SLP374

CYQF;2012-02-10 19:00;CYQF 101900Z 15010G15KT 15SM FEW120 M12/M16 A3041 RMK AC1 SLP374

CYQF;2012-02-10 20:00;CYQF 102000Z 13010G15KT 15SM FEW020 BKN120 M11/M16 A3041 RMK SC2AC4 SLP374

CYQF;2012-02-10 21:00;CYQF 102100Z 13012KT 15SM FEW020 BKN120 M11/M16 A3040 RMK SC2AC3 SLP370

CYQF;2012-02-10 22:00;CYQF 102200Z 13010G15KT 15SM FEW030 FEW120 BKN250 M10/M16 A3039 RMK SC2AC1CI1 SLP367

CYQF;2012-02-10 23:00;CYQF 102300Z 14011KT 15SM FEW030 FEW250 M10/M17 A3039 RMK SC1CI1 SLP366

CYQF;2012-02-11 00:00;CYQF 110000Z 12010KT 15SM FEW050 FEW250 M10/M18 A3038 RMK SC1CI0 SLP362

CYQF;2012-02-11 01:00;CYQF 110100Z 13010KT 15SM FEW030 FEW250 M12/M19 A3038 RMK SC1CI0 SLP362

CYQF;2012-02-11 02:00;CYQF 110200Z 14010G15KT 15SM OVC025 M13/M20 A3037 RMK SC5 SLP359

CYQF;2012-02-11 03:00;CYQF 110300Z 15012KT 15SM FEW025 M14/M20 A3036 RMK SC1 SLP361

CYQF;2012-02-11 04:00;CYQF 110400Z 15010G15KT 15SM FEW025 M13/M20 A3034 RMK SC1 SLP356

CYQF;2012-02-11 05:00;CYQF 110500Z 15015G20KT 15SM SKC M14/M19 A3034 RMK SLP356

CYQF;2012-02-11 06:00;CYQF 110600Z 15015G20KT 15SM SKC M15/M20 A3034 RMK SLP350

CYQF;2012-02-11 07:00;CYQF 110700Z 16010G15KT 15SM SKC M15/M20 A3032 RMK SLP345

CYQF;2012-02-11 08:00;CYQF 110800Z 15010G15KT 15SM SKC M16/M21 A3032 RMK SLP344

CYQF;2012-02-11 09:00;CYQF 110900Z 16010G15KT 15SM SKC M17/M21 A3030 RMK SLP335

CYQF;2012-02-11 10:00;CYQF 111000Z 14010G15KT 15SM SKC M18/M21 A3029 RMK SLP333

CYQF;2012-02-11 11:00;CYQF 111100Z 13010KT 15SM SKC M18/M22 A3026 RMK SLP325

CYQF;2012-02-11 12:00;CYQF 111200Z 14006KT 15SM SKC M18/M21 A3025 RMK SLP321

CYQF;2012-02-11 13:00;CYQF 111300Z 14008KT 15SM SKC M18/M21 A3024 RMK SLP317

CYQF;2012-02-11 14:00;CYQF 111400Z 12008KT 15SM SKC M19/M22 A3022 RMK SLP310

CYQF;2012-02-11 15:00;CYQF 111500Z 15012KT 15SM SKC M18/M20 A3020 RMK SLP307

CYQF;2012-02-11 16:00;CYQF 111600Z 16011G16KT 15SM SKC M16/M19 A3019 RMK SLP304

CYQF;2012-02-11 17:00;CYQF 111700Z 17015G20KT 15SM SKC M14/M18 A3018 RMK SLP299

CYQF;2012-02-11 18:00;CYQF 111800Z 17015G22KT 15SM SKC M11/M16 A3015 RMK SLP282

CYQF;2012-02-11 19:00;CYQF 111900Z 17014G21KT 15SM SKC M09/M15 A3012 RMK SLP272

CYQF;2012-02-11 20:00;CYQF 112000Z 16018G23KT 15SM SKC M07/M15 A3008 RMK SLP260

CYQF;2012-02-11 21:00;CYQF 112100Z 16015G20KT 15SM SKC M05/M13 A3005 RMK SLP245

CYQF;2012-02-11 22:00;CYQF 112200Z 16015G20KT 15SM SKC M05/M12 A3003 RMK SLP238

CYQF;2012-02-11 23:00;CYQF 112300Z 15010KT 15SM SKC M05/M12 A3002 RMK SLP234

CYQF;2012-02-12 00:00;CYQF 120000Z 15010G15KT 15SM SKC M05/M12 A3001 RMK SLP229

CYQF;2012-02-12 01:00;CYQF 120100Z 19010G15KT 15SM SKC M06/M12 A2999 RMK SLP224

CYQF;2012-02-12 02:00;CYQF 120200Z 17010KT 15SM SKC M07/M13 A2997 RMK OBS TAKEN +09 SLP218

CYQF;2012-02-12 03:00;CYQF 120300Z 17012KT 15SM SKC M09/M15 A2995 RMK SLP213

CYQF;2012-02-12 04:00;CYQF 120400Z 18010G15KT 15SM SKC M09/M15 A2994 RMK SLP208

CYQF;2012-02-12 05:00;CYQF 120500Z 18008KT 15SM SKC M09/M15 A2992 RMK SLP203

CYQF;2012-02-12 06:00;CYQF 120600Z 18006KT 15SM SKC M11/M15 A2990 RMK SLP189

CYQF;2012-02-12 07:00;CYQF 120700Z 18006KT 15SM SKC M11/M15 A2988 RMK SLP183

CYQF;2012-02-12 08:00;CYQF 120800Z 20005KT 15SM FEW120 M13/M16 A2986 RMK AC2 SLP179

CYQF;2012-02-12 09:00;CYQF 120900Z 19004KT 15SM SCT120 M13/M15 A2985 RMK AC4 SLP168

CYQF;2012-02-12 10:00;CYQF 121000Z 00000KT 15SM FEW120 M13/M15 A2984 RMK AC1 SLP165

CYQF;2012-02-12 11:00;CYQF 121100Z 21003KT 15SM BKN100 M13/M15 A2982 RMK AC6 SLP159

CYQF;2012-02-12 12:00;CYQF 121200Z 18003KT 15SM BKN080 M12/M14 A2981 RMK AC6 SLP153

CYQF;2012-02-12 13:00;CYQF 121300Z 20004KT 15SM BKN060 M12/M14 A2978 RMK SC7 SLP145

CYQF;2012-02-12 14:00;CYQF 121400Z 00000KT 15SM BKN060 M11/M13 A2977 RMK SC7 SLP141

CYQF;2012-02-12 15:00;CYQF 121500Z 19006KT 15SM BKN080 M10/M13 A2976 RMK AC7 SLP137

CYQF;2012-02-12 16:00;CYQF 121600Z 20006KT 15SM OVC080 M09/M12 A2976 RMK AC8 SLP137

CYQF;2012-02-12 17:00;CYQF 121700Z 20005KT 15SM OVC070 M07/M10 A2976 RMK AC8 SLP137

CYQF;2012-02-12 18:00;CYQF 121800Z 20006KT 15SM OVC070 M05/M09 A2974 RMK AC8 SLP128

CYQF;2012-02-12 19:00;CYQF 121900Z 20004KT 15SM BKN070 M03/M07 A2973 RMK AC7 SLP123

CYQF;2012-02-12 20:00;CYQF 122000Z 17004KT 15SM BKN070 M01/M06 A2971 RMK AC7 SLP117

CYQF;2012-02-12 21:00;CYQF 122100Z 19006KT 15SM BKN070 01/M05 A2968 RMK AC7 SLP103

CYQF;2012-02-12 22:00;CYQF 122200Z 24006KT 15SM BKN070 01/M04 A2967 RMK AC7 SLP100

CYQF;2012-02-12 23:00;CYQF 122300Z 00000KT 15SM BKN070 02/M03 A2966 RMK AC6 SLP097

CYQF;2012-02-13 00:00;CYQF 130000Z 00000KT 15SM FEW070 02/M03 A2966 RMK AC1 SLP091

CYQF;2012-02-13 01:00;CYQF 130100Z 00000KT 15SM FEW070 M01/M05 A2966 RMK AC1 SLP091

CYQF;2012-02-13 02:00;CYQF 130200Z 00000KT 15SM FEW070 M04/M06 A2965 RMK AC1 SLP090

CYQF;2012-02-13 03:00;CYQF 130300Z 00000KT 15SM SKC M05/M07 A2965 RMK SLP096

CYQF;2012-02-13 04:00;CYQF 130400Z 21003KT 15SM SKC M06/M07 A2965 RMK SLP095

CYQF;2012-02-13 05:00;CYQF 130500Z 00000KT 15SM FEW070 M05/M07 A2965 RMK AC2 SLP095

CYQF;2012-02-13 06:00;CYQF 130600Z 21002KT 15SM SCT070 BKN150 M06/M08 A2966 RMK AC3AC2 SLP093

CYQF;2012-02-13 07:00;CYQF 130700Z 00000KT 15SM BKN070 M07/M09 A2967 RMK AC6 SLP097

CYQF;2012-02-13 08:00;CYQF 130800Z 21005KT 15SM SCT100 M06/M08 A2967 RMK AC3 SLP097

CYQF;2012-02-13 09:00;CYQF 130900Z 00000KT 15SM BKN100 M07/M08 A2968 RMK AC6 SLP095

CYQF;2012-02-13 10:00;CYQF 131000Z 00000KT 15SM BKN100 M05/M07 A2969 RMK AC7 SLP097

CYQF;2012-02-13 11:00;CYQF 131100Z 00000KT 15SM BKN080 M06/M07 A2970 RMK AC7 SLP100

CYQF;2012-02-13 12:00;CYQF 131200Z 21005KT 15SM BKN080 M05/M07 A2970 RMK AC7 SLP101

CYQF;2012-02-13 13:00;CYQF 131300Z 22003KT 15SM BKN080 M05/M07 A2971 RMK AC7 SLP104

CYQF;2012-02-13 14:00;CYQF 131400Z 00000KT 15SM BKN080 M04/M07 A2972 RMK AC7 SLP107

CYQF;2012-02-13 15:00;CYQF 131500Z 26008KT 15SM BKN080 M03/M06 A2973 RMK AC7 VIRGA SLP114

CYQF;2012-02-13 15:50;CYQF 131550Z 26004KT 15SM -SN BKN080 OVC150 RMK AC6AC2

CYQF;2012-02-13 15:52;CYQF 131552Z 26004KT 15SM -SHGS SCT050 BKN080 OVC150 RMK SC3AC2AC2

CYQF;2012-02-13 16:00;CYQF 131600Z 25003KT 15SM -SHGS SCT050 BKN080 OVC150 M01/M05 A2973 RMK SC3AC3AC2 SLP114

CYQF;2012-02-13 16:19;CYQF 131619Z 25004KT 15SM FEW050 BKN080 OVC150 RMK SC2AC4AC2

CYQF;2012-02-13 16:52;CYQF 131652Z 24008KT 15SM -SN FEW050 BKN080 OVC150 RMK SC2AC4AC2

CYQF;2012-02-13 17:00;CYQF 131700Z 25007KT 15SM -SN FEW050 BKN080 OVC150 M01/M04 A2974 RMK SC2AC4AC2 VIS SW 3 SLP117

CYQF;2012-02-13 17:28;CYQF 131728Z 33003KT 15SM BKN060 OVC150 RMK SC6AC2

CYQF;2012-02-13 18:00;CYQF 131800Z 29003KT 15SM BKN060 OVC150 00/M03 A2975 RMK SC7AC1 SLP119

CYQF;2012-02-13 19:00;CYQF 131900Z 33010G15KT 15SM FEW020 OVC060 02/M04 A2974 RMK SC2SC6 SLP117

CYQF;2012-02-13 20:00;CYQF 132000Z 35012G22KT 15SM FEW020 OVC060 01/M04 A2974 RMK SC1SC7 SLP115

CYQF;2012-02-13 21:00;CYQF 132100Z 35012G18KT 15SM FEW020 OVC060 01/M04 A2974 RMK SC1SC8 SLP114

CYQF;2012-02-13 22:00;CYQF 132200Z 34014G20KT 15SM FEW020 BKN060 OVC120 02/M08 A2974 RMK SC1SC6AC1 SLP114

CYQF;2012-02-13 23:00;CYQF 132300Z 33010G15KT 15SM FEW010 BKN060 OVC120 01/M07 A2974 RMK SF1SC5AC1 SLP116

CYQF;2012-02-14 00:00;CYQF 140000Z 34008KT 15SM BKN060 OVC120 00/M07 A2975 RMK SC6AC2 SLP119

CYQF;2012-02-14 01:00;CYQF 140100Z 30007KT 15SM SCT020 OVC060 M01/M06 A2976 RMK SC3SC5 SLP123

CYQF;2012-02-14 02:00;CYQF 140200Z 34010KT 15SM SCT020 OVC060 M01/M06 A2977 RMK SC3SC5 SLP126

CYQF;2012-02-14 03:00;CYQF 140300Z 33007KT 15SM OVC060 M02/M07 A2976 RMK SC8 SLP123

CYQF;2012-02-14 04:00;CYQF 140400Z 29008KT 15SM BKN060 M03/M08 A2978 RMK SC6 SLP127

CYQF;2012-02-14 05:00;CYQF 140500Z 30006KT 15SM BKN060 M05/M09 A2978 RMK SC6 SLP128

CYQF;2012-02-14 06:00;CYQF 140600Z 27005KT 15SM FEW060 M07/M11 A2979 RMK SC1 SLP134

CYQF;2012-02-14 07:00;CYQF 140700Z 29008KT 15SM SKC M08/M12 A2979 RMK SLP135

CYQF;2012-02-14 08:00;CYQF 140800Z 26004KT 15SM SKC M08/M13 A2980 RMK SLP137

CYQF;2012-02-14 09:00;CYQF 140900Z 29007KT 15SM SKC M09/M12 A2979 RMK SLP134

CYQF;2012-02-14 10:00;CYQF 141000Z 27008KT 15SM SKC M09/M12 A2979 RMK SLP136

CYQF;2012-02-14 11:00;CYQF 141100Z 25005KT 15SM SKC M13/M15 A2978 RMK SLP133

CYQF;2012-02-14 12:00;CYQF 141200Z 27005KT 15SM SKC M11/M14 A2978 RMK SLP137

CYQF;2012-02-14 13:00;CYQF 141300Z 18003KT 15SM SKC M15/M17 A2977 RMK FROIN SLP132

CYQF;2012-02-14 14:00;CYQF 141400Z 19004KT 15SM SKC M15/M17 A2977 RMK FROIN SLP133

CYQF;2012-02-14 15:00;CYQF 141500Z 20004KT 15SM SKC M16/M18 A2977 RMK SLP142

CYQF;2012-02-14 16:00;CYQF 141600Z 20005KT 15SM FEW230 M15/M17 A2977 RMK CI1 SLP142

CYQF;2012-02-14 17:00;CYQF 141700Z 19005KT 15SM BKN230 M12/M15 A2978 RMK CI6 SLP144

CYQF;2012-02-14 18:00;CYQF 141800Z 25006KT 15SM SCT230 M09/M14 A2978 RMK CI1 SLP143

CYQF;2012-02-14 19:00;CYQF 141900Z 26006KT 15SM FEW240 M08/M13 A2978 RMK CI1 SLP143

CYQF;2012-02-14 20:00;CYQF 142000Z 26008KT 15SM SCT240 M06/M12 A2977 RMK CI2 SLP139

CYQF;2012-02-14 21:00;CYQF 142100Z 26006KT 15SM SCT240 M04/M11 A2976 RMK CI1 SLP129

CYQF;2012-02-14 22:00;CYQF 142200Z 27010KT 15SM SCT240 M03/M11 A2975 RMK CI2 SLP127

CYQF;2012-02-14 23:00;CYQF 142300Z 25005KT 15SM FEW240 M03/M11 A2976 RMK CI1 SLP132

CYQF;2012-02-15 00:00;CYQF 150000Z 24005KT 15SM SKC M04/M11 A2976 RMK SLP135

CYQF;2012-02-15 01:00;CYQF 150100Z 27003KT 15SM SKC M06/M13 A2978 RMK SLP140

CYQF;2012-02-15 02:00;CYQF 150200Z 30005KT 15SM FEW100 M08/M14 A2981 RMK AC2 SLP149

CYQF;2012-02-15 03:00;CYQF 150300Z 31005KT 15SM BKN050 M08/M12 A2982 RMK SC6 SLP164

CYQF;2012-02-15 04:00;CYQF 150400Z 28006KT 15SM FEW050 M07/M12 A2983 RMK SC2 SLP166

CYQF;2012-02-15 05:00;CYQF 150500Z 31010G15KT 15SM SKC M06/M13 A2984 RMK SLP170

CYQF;2012-02-15 06:00;CYQF 150600Z 28006KT 15SM SCT100 M08/M13 A2985 RMK AC3 SLP167

CYQF;2012-02-15 07:00;CYQF 150700Z 27008KT 15SM BKN080 M06/M12 A2986 RMK AC7 SLP171

CYQF;2012-02-15 08:00;CYQF 150800Z 25008KT 15SM BKN050 M08/M13 A2987 RMK SC7 SLP174

CYQF;2012-02-15 09:00;CYQF 150900Z 25008KT 15SM SCT050 M08/M13 A2987 RMK SC3 SLP170

CYQF;2012-02-15 10:00;CYQF 151000Z 25010KT 15SM SKC M09/M14 A2988 RMK SLP173

CYQF;2012-02-15 11:00;CYQF 151100Z 25008KT 15SM SKC M10/M14 A2989 RMK AURBO SLP175

CYQF;2012-02-15 12:00;CYQF 151200Z 24008KT 15SM SKC M12/M15 A2989 RMK AURBO SLP181

CYQF;2012-02-15 13:00;CYQF 151300Z 22005KT 15SM SKC M12/M16 A2990 RMK AURBO SLP184

CYQF;2012-02-15 14:00;CYQF 151400Z 17004KT 15SM SKC M13/M16 A2991 RMK SLP186

CYQF;2012-02-15 15:00;CYQF 151500Z 18005KT 15SM FEW240 M14/M16 A2992 RMK CI1 SLP196

CYQF;2012-02-15 16:00;CYQF 151600Z 20005KT 15SM BKN240 M12/M15 A2994 RMK CI2 SLP201

CYQF;2012-02-15 17:00;CYQF 151700Z 22006KT 15SM BKN240 M08/M13 A2994 RMK CI2 SLP201

CYQF;2012-02-15 18:00;CYQF 151800Z 25005KT 15SM FEW240 M05/M12 A2995 RMK CI0 SLP196

CYQF;2012-02-15 19:00;CYQF 151900Z 26004KT 15SM FEW240 M03/M11 A2995 RMK CI1 SLP198

CYQF;2012-02-15 20:00;CYQF 152000Z 26007KT 15SM FEW240 M01/M09 A2996 RMK CI1 SLP200

CYQF;2012-02-15 21:00;CYQF 152100Z 29002KT 15SM FEW240 00/M09 A2995 RMK CI1 SLP189

CYQF;2012-02-15 22:00;CYQF 152200Z 25004KT 15SM FEW020 01/M08 A2994 RMK SC1 SLP188

CYQF;2012-02-15 23:00;CYQF 152300Z 26003KT 15SM FEW030 01/M08 A2993 RMK SC1 SLP184

CYQF;2012-02-16 00:00;CYQF 160000Z 00000KT 15SM SKC 01/M09 A2993 RMK SLP187

CYQF;2012-02-16 01:00;CYQF 160100Z 25006KT 15SM SKC M03/M12 A2995 RMK SLP192

CYQF;2012-02-16 02:00;CYQF 160200Z 24006KT 15SM SKC M05/M13 A2996 RMK SLP196

CYQF;2012-02-16 03:00;CYQF 160300Z 25006KT 15SM SKC M06/M13 A2997 RMK SLP213

CYQF;2012-02-16 04:00;CYQF 160400Z 32005KT 15SM SKC M07/M14 A3000 RMK SLP221

CYQF;2012-02-16 05:00;CYQF 160500Z 32004KT 15SM SKC M07/M14 A3001 RMK SLP225

CYQF;2012-02-16 06:00;CYQF 160600Z 29003KT 15SM SKC M10/M15 A3002 RMK SLP222

CYQF;2012-02-16 07:00;CYQF 160700Z 27006KT 15SM SKC M09/M15 A3002 RMK SLP223

CYQF;2012-02-16 08:00;CYQF 160800Z 20004KT 15SM SKC M12/M15 A3003 RMK SLP225

CYQF;2012-02-16 09:00;CYQF 160900Z 18003KT 15SM SKC M11/M15 A3003 RMK SLP223

CYQF;2012-02-16 10:00;CYQF 161000Z 19005KT 15SM SKC M14/M17 A3003 RMK OBS TAKEN +09 SLP221

CYQF;2012-02-16 11:00;CYQF 161100Z 19004KT 15SM SKC M14/M17 A3002 RMK SLP218

CYQF;2012-02-16 12:00;CYQF 161200Z 20003KT 15SM SKC M15/M17 A3001 RMK SLP218

CYQF;2012-02-16 13:00;CYQF 161300Z 20004KT 15SM SKC M15/M18 A3001 RMK SLP219

CYQF;2012-02-16 14:00;CYQF 161400Z 19004KT 15SM SKC M14/M17 A3001 RMK SLP219

CYQF;2012-02-16 15:00;CYQF 161500Z 19004KT 15SM SKC M15/M17 A3002 RMK SLP229

CYQF;2012-02-16 16:00;CYQF 161600Z 19005KT 15SM FEW250 M13/M16 A3001 RMK CI1 SLP228

CYQF;2012-02-16 17:00;CYQF 161700Z 20005KT 15SM FEW250 M10/M14 A3001 RMK CI1 SLP227

CYQF;2012-02-16 18:00;CYQF 161800Z 21004KT 15SM FEW250 M08/M13 A2999 RMK CI0 SLP216

CYQF;2012-02-16 19:00;CYQF 161900Z 19003KT 15SM BKN250 M05/M12 A2998 RMK CI2 SLP214

CYQF;2012-02-16 20:00;CYQF 162000Z 00000KT 15SM BKN250 M02/M10 A2997 RMK CI2 SLP209

CYQF;2012-02-16 21:00;CYQF 162100Z 00000KT 15SM BKN250 M02/M10 A2995 RMK CI2 SLP197

CYQF;2012-02-16 22:00;CYQF 162200Z 03004KT 15SM BKN250 M00/M09 A2994 RMK CI3 SLP192

CYQF;2012-02-16 23:00;CYQF 162300Z 00000KT 15SM BKN250 02/M09 A2994 RMK CI6 SLP192

CYQF;2012-02-17 00:00;CYQF 170000Z 11003KT 15SM FEW100 BKN250 01/M08 A2993 RMK AC1CI5 SLP192

CYQF;2012-02-17 01:00;CYQF 170100Z 10003KT 15SM FEW100 BKN250 M01/M09 A2994 RMK AC1CI6 SLP194

CYQF;2012-02-17 02:00;CYQF 170200Z 00000KT 15SM BKN250 M03/M10 A2995 RMK CI3 SLP196

CYQF;2012-02-17 03:00;CYQF 170300Z 00000KT 15SM BKN250 M04/M10 A2995 RMK CI5 SLP205

CYQF;2012-02-17 04:00;CYQF 170400Z 20003KT 15SM OVC250 M05/M10 A2996 RMK CI8 SLP208

CYQF;2012-02-17 05:00;CYQF 170500Z 20004KT 15SM OVC220 M04/M10 A2996 RMK CI8 SLP209

CYQF;2012-02-17 06:00;CYQF 170600Z 00000KT 15SM SCT220 M05/M10 A2998 RMK CI2 SLP207

CYQF;2012-02-17 07:00;CYQF 170700Z 00000KT 15SM FEW220 M08/M12 A2999 RMK CI1 SLP212

CYQF;2012-02-17 08:00;CYQF 170800Z 00000KT 15SM SCT220 M06/M11 A3002 RMK CI3 SLP219

CYQF;2012-02-17 09:00;CYQF 170900Z 18004KT 15SM BKN150 M07/M11 A3003 RMK AC5 SLP220

CYQF;2012-02-17 10:00;CYQF 171000Z 21004KT 15SM BKN150 M07/M10 A3004 RMK AC6 SLP224

CYQF;2012-02-17 11:00;CYQF 171100Z 27005KT 15SM BKN150 M06/M10 A3004 RMK AC5 SLP224

CYQF;2012-02-17 12:00;CYQF 171200Z 00000KT 15SM OVC150 M06/M09 A3005 RMK AC8 SLP225

CYQF;2012-02-17 13:00;CYQF 171300Z 16005KT 15SM SCT150 M06/M09 A3006 RMK AC3 SLP226

CYQF;2012-02-17 14:00;CYQF 171400Z 19004KT 15SM FEW150 FEW220 M07/M10 A3006 RMK AC1CI0 SLP227

CYQF;2012-02-17 15:00;CYQF 171500Z 19006KT 15SM FEW100 FEW250 M09/M11 A3007 RMK AC1CI1 AC TR SLP238

CYQF;2012-02-17 16:00;CYQF 171600Z 18005KT 15SM FEW100 BKN250 M09/M11 A3009 RMK AC1CI1 AC TR SLP244

CYQF;2012-02-17 17:00;CYQF 171700Z 00000KT 15SM FEW100 BKN250 M06/M09 A3008 RMK AC1CI1 AC TR SLP242

CYQF;2012-02-17 18:00;CYQF 171800Z 00000KT 15SM FEW250 M01/M06 A3008 RMK CI1 SLP235

CYQF;2012-02-17 19:00;CYQF 171900Z 00000KT 15SM FEW250 01/M06 A3006 RMK CI1 SLP230

CYQF;2012-02-17 20:00;CYQF 172000Z 00000KT 15SM FEW030 02/M05 A3004 RMK CU1 SLP221

CYQF;2012-02-17 21:00;CYQF 172100Z 00000KT 15SM FEW030 03/M05 A3001 RMK CF1 SLP209

CYQF;2012-02-17 22:00;CYQF 172200Z 00000KT 15SM FEW030 05/M05 A2999 RMK CF1 SLP201

CYQF;2012-02-17 23:00;CYQF 172300Z 17008KT 15SM SKC 04/M06 A2996 RMK SLP193

CYQF;2012-02-18 00:00;CYQF 180000Z 16008KT 15SM SKC 03/M06 A2994 RMK SLP182

CYQF;2012-02-18 01:00;CYQF 180100Z 16009KT 15SM FEW240 01/M06 A2992 RMK CI1 SLP175

CYQF;2012-02-18 02:00;CYQF 180200Z 17006KT 15SM FEW240 M01/M07 A2990 RMK CI1 SLP171

CYQF;2012-02-18 03:00;CYQF 180300Z 17008KT 15SM SKC M02/M06 A2988 RMK SLP170

CYQF;2012-02-18 04:00;CYQF 180400Z 17010G15KT 15SM SKC M02/M06 A2985 RMK SLP162

CYQF;2012-02-18 05:00;CYQF 180500Z 15010KT 15SM SKC M04/M08 A2983 RMK SLP155

CYQF;2012-02-18 06:00;CYQF 180600Z 17008KT 15SM SKC M04/M07 A2980 RMK SLP135

CYQF;2012-02-18 07:00;CYQF 180700Z 18010KT 15SM SKC M05/M08 A2976 RMK SLP124

CYQF;2012-02-18 08:00;CYQF 180800Z 13005KT 15SM SKC M05/M08 A2974 RMK SLP118

CYQF;2012-02-18 09:00;CYQF 180900Z 13008KT 15SM SKC M07/M09 A2971 RMK SLP104

CYQF;2012-02-18 10:00;CYQF 181000Z 15008KT 15SM SKC M07/M10 A2968 RMK SLP095

CYQF;2012-02-18 11:00;CYQF 181100Z 18008KT 15SM SKC M06/M10 A2966 RMK SLP087

CYQF;2012-02-18 12:00;CYQF 181200Z 14008KT 15SM FEW220 M06/M10 A2961 RMK CI1 SLP066

CYQF;2012-02-18 13:00;CYQF 181300Z 18008KT 15SM SCT220 M07/M10 A2959 RMK CI2 SLP062

CYQF;2012-02-18 14:00;CYQF 181400Z 16010KT 15SM BKN100 BKN250 M06/M10 A2957 RMK AC5CI2 SLP055

CYQF;2012-02-18 15:00;CYQF 181500Z 18007KT 15SM BKN100 BKN250 M05/M09 A2957 RMK AC6CI2 SLP059

CYQF;2012-02-18 16:00;CYQF 181600Z 15008KT 15SM BKN100 BKN250 M06/M09 A2956 RMK AC6CI2 SLP054

CYQF;2012-02-18 17:00;CYQF 181700Z 17008KT 15SM BKN100 BKN250 M04/M08 A2958 RMK AC6CI2 SLP061

CYQF;2012-02-18 18:00;CYQF 181800Z 20003KT 15SM BKN100 M03/M07 A2957 RMK AS7 SLP059

CYQF;2012-02-18 19:00;CYQF 181900Z 19002KT 15SM BKN080 M02/M06 A2956 RMK AC6 SLP056

CYQF;2012-02-18 20:00;CYQF 182000Z 24005KT 15SM BKN080 BKN250 M01/M06 A2955 RMK AC6CI1 SLP053

CYQF;2012-02-18 21:00;CYQF 182100Z 24007KT 15SM BKN070 OVC250 M01/M06 A2958 RMK AC6CI2 VIRGA ALQDS SLP062

CYQF;2012-02-18 22:00;CYQF 182200Z 29004KT 15SM FEW040 BKN070 OVC250 M00/M06 A2958 RMK SC1AC7CI1 VIRGA ALQDS SC TR SLP063

CYQF;2012-02-18 23:00;CYQF 182300Z 22002KT 15SM FEW040 OVC080 00/M06 A2960 RMK SC1AC7 SLP069

CYQF;2012-02-18 23:26;CYQF 182326Z 29008KT 6SM -SN BKN020 OVC080 RMK SC5AC3

CYQF;2012-02-19 00:00;CYQF 190000Z 34006KT 10SM -SN BKN025 BKN080 M00/M02 A2961 RMK SC5AC2 SLP072

CYQF;2012-02-19 00:19;CYQF 190019Z 05007KT 15SM BKN025 BKN080 RMK SC5AC2

CYQF;2012-02-19 01:00;CYQF 190100Z 05007KT 15SM FEW025 BKN080 M00/M02 A2960 RMK SC2AC5 SLP069

CYQF;2012-02-19 02:00;CYQF 190200Z 22004KT 15SM FEW025 BKN080 M01/M03 A2962 RMK SC2AC6 SLP074

CYQF;2012-02-19 03:00;CYQF 190300Z 18003KT 15SM BKN080 M02/M03 A2962 RMK AC7 SLP075

CYQF;2012-02-19 04:00;CYQF 190400Z 19007KT 15SM BKN080 M02/M04 A2962 RMK AC5 SLP074

CYQF;2012-02-19 05:00;CYQF 190500Z 19010KT 15SM FEW080 M03/M06 A2962 RMK AC2 SLP076

CYQF;2012-02-19 06:00;CYQF 190600Z 20004KT 15SM FEW080 M05/M07 A2962 RMK AC2 SLP076

CYQF;2012-02-19 07:00;CYQF 190700Z 00000KT 15SM FEW080 M07/M08 A2962 RMK AC1 SLP076

CYQF;2012-02-19 08:00;CYQF 190800Z 00000KT 15SM FEW080 M08/M09 A2961 RMK AC2 SLP072

CYQF;2012-02-19 09:00;CYQF 190900Z 00000KT 15SM FEW080 BKN150 M07/M09 A2961 RMK AC1AC4 SLP072

CYQF;2012-02-19 10:00;CYQF 191000Z 00000KT 15SM FEW150 M09/M10 A2961 RMK AC2 SLP072

CYQF;2012-02-19 11:00;CYQF 191100Z 00000KT 15SM FEW001 FEW210 M10/M12 A2960 RMK SF1CI1 SLP070

CYQF;2012-02-19 12:00;CYQF 191200Z 20004KT 15SM FEW210 M12/M13 A2960 RMK CI1 SLP074

CYQF;2012-02-19 13:00;CYQF 191300Z 22004KT 15SM BKN150 M11/M13 A2959 RMK AC6 SLP073

CYQF;2012-02-19 14:00;CYQF 191400Z 00000KT 15SM BKN120 M10/M11 A2960 RMK AC6 VIRGA SLP075

CYQF;2012-02-19 15:00;CYQF 191500Z 18003KT 15SM FEW020 SCT100 BKN250 M09/M11 A2961 RMK SC1AC3CI2 VIRGA E-S-SW VIS W-NW 10 SLP077

CYQF;2012-02-19 16:00;CYQF 191600Z 22004KT 15SM FEW020 BKN100 BKN250 M08/M11 A2962 RMK SC1AC5CI2 VIRGA VIS N 2 SLP079

CYQF;2012-02-19 16:27;CYQF 191627Z 22002KT 6SM -SN FEW020 OVC100 RMK SC1AS7 VIS N 1

CYQF;2012-02-19 17:00;CYQF 191700Z 22004KT 2SM -SN OVC100 M06/M08 A2963 RMK AS8 VIS N 1 SLP082

CYQF;2012-02-19 17:33;CYQF 191733Z 23002KT 1SM -SN OVC100 RMK SN6AS2

CYQF;2012-02-19 17:53;CYQF 191753Z 21006KT 1/2SM SN VV007 RMK SN8

CYQF;2012-02-19 18:00;CYQF 191800Z 21006KT 1SM -SN OVC100 M06/M07 A2963 RMK SN6AS2 /S01/ SUN DMLY VIS SLP083

CYQF;2012-02-19 18:17;CYQF 191817Z 21005KT 2SM -SN OVC020 RMK SN4SC4 VIS VRB 1-3

CYQF;2012-02-19 19:00;CYQF 191900Z 21004KT 5SM -SN FEW020 BKN100 BKN250 M03/M05 A2963 RMK SC1AC2CI3 VIS S 8 SLP082

CYQF;2012-02-19 20:00;CYQF 192000Z 25006KT 8SM -SHSN FEW020 SCT100 BKN250 M01/M04 A2961 RMK SC2AC2CI2 SLP076

CYQF;2012-02-19 21:00;CYQF 192100Z 23004KT 12SM -SHSN FEW020 BKN100 BKN250 M01/M03 A2959 RMK SC2AC3CI1 SLP068

CYQF;2012-02-19 21:22;CYQF 192122Z 25005KT 15SM FEW020 BKN100 RMK SC2AC5

CYQF;2012-02-19 21:51;CYQF 192151Z 27005KT 12SM -SN SCT020 BKN100 RMK SC4AC3

CYQF;2012-02-19 22:00;CYQF 192200Z 28002KT 12SM -SN SCT020 BKN100 M00/M04 A2960 RMK SC4AC3 SLP070

CYQF;2012-02-19 22:52;CYQF 192252Z 28005KT 2 1/2SM -SN BKN020 OVC100 RMK SC5AC3

CYQF;2012-02-19 23:00;CYQF 192300Z 27005KT 2 1/2SM -SN BKN020 OVC100 M00/M04 A2960 RMK SC5AC3 SLP070

CYQF;2012-02-19 23:08;CYQF 192308Z 28005KT 12SM -SN FEW020 BKN080 OVC200 RMK SC2AC4CI2 VIS N 6

CYQF;2012-02-20 00:00;CYQF 200000Z 36002KT 12SM -SN SCT020 BKN080 OVC200 M01/M03 A2960 RMK SC4AC3CI1 VIS N 3 SLP076

CYQF;2012-02-20 01:00;CYQF 200100Z 00000KT 8SM -SN BKN025 OVC090 M01/M03 A2962 RMK SC5AC3 SLP080

CYQF;2012-02-20 01:32;CYQF 200132Z 05004KT 1/2SM -SN FZFG OVC025 RMK SN2SC6

CYQF;2012-02-20 02:00;CYQF 200200Z 07002KT 3/4SM -SN BR OVC025 M02/M03 A2963 RMK SN2SC6 VIS VRB 1/2-1 SLP084

CYQF;2012-02-20 02:16;CYQF 200216Z 00000KT 1 1/2SM -SN BR OVC025 RMK SN2SC6 VIS VRB 1-2

CYQF;2012-02-20 03:00;CYQF 200300Z 30002KT 1SM -SN BR VV010 M02/M03 A2964 RMK SN8 VIS VRB 1/2-11/2 /S04/ SLP088

CYQF;2012-02-20 03:49;CYQF 200349Z 28003KT 3SM -SN BR OVC025 RMK SC8 /S08/

CYQF;2012-02-20 04:00;CYQF 200400Z 00000KT 3SM -SN BR OVC025 M02/M03 A2966 RMK SC8 SLP092

CYQF;2012-02-20 05:00;CYQF 200500Z 27004KT 10SM -SN FEW010 BKN025 OVC090 M02/M05 A2966 RMK SF2SC4AC2 /S09/ SLP095

CYQF;2012-02-20 05:10;CYQF 200510Z 25005KT 15SM FEW010 BKN025 OVC090 RMK SF2SC3AC3

CYQF;2012-02-20 06:00;CYQF 200600Z 25007KT 15SM SCT025 OVC090 M03/M04 A2968 RMK SC3AC5 SLP098

CYQF;2012-02-20 07:00;CYQF 200700Z 28006KT 15SM FEW025 BKN090 M05/M06 A2968 RMK SC1AC4 SLP098

CYQF;2012-02-20 08:00;CYQF 200800Z 26004KT 15SM SCT120 M06/M08 A2969 RMK AC2 SLP102

CYQF;2012-02-20 09:00;CYQF 200900Z 28006KT 15SM FEW120 M08/M09 A2970 RMK AC2 SLP105

CYQF;2012-02-20 10:00;CYQF 201000Z 30005KT 15SM FEW120 M10/M12 A2971 RMK AC1 SLP108

CYQF;2012-02-20 11:00;CYQF 201100Z 27005KT 15SM SCT120 M10/M12 A2972 RMK AC2 SLP112

CYQF;2012-02-20 12:00;CYQF 201200Z 29008KT 15SM FEW120 M11/M14 A2973 RMK AC1 SLP121

CYQF;2012-02-20 13:00;CYQF 201300Z 27010KT 15SM FEW120 M13/M16 A2974 RMK AC1 SLP124

CYQF;2012-02-20 14:00;CYQF 201400Z 27006KT 15SM SCT120 M13/M15 A2976 RMK AC3 SLP129

CYQF;2012-02-20 15:00;CYQF 201500Z 29010KT 15SM SCT100 M09/M11 A2977 RMK AC3 SLP132

CYQF;2012-02-20 16:00;CYQF 201600Z 28008KT 15SM BKN080 M07/M10 A2978 RMK AC5 SLP135

CYQF;2012-02-20 17:00;CYQF 201700Z 27008KT 15SM FEW080 M08/M10 A2978 RMK AC2 SLP136

CYQF;2012-02-20 18:00;CYQF 201800Z 28008KT 15SM FEW080 M06/M10 A2979 RMK AC2 SLP139

CYQF;2012-02-20 19:00;CYQF 201900Z 28008KT 15SM FEW030 FEW090 M06/M10 A2979 RMK CU1AC2 SLP137

CYQF;2012-02-20 20:00;CYQF 202000Z 27004KT 15SM FEW030 FEW240 M04/M09 A2978 RMK SC1CI1 SLP134

CYQF;2012-02-20 21:00;CYQF 202100Z 24005KT 15SM FEW030 M05/M09 A2977 RMK CU1 SLP134

CYQF;2012-02-20 22:00;CYQF 202200Z 25004KT 15SM FEW030 FEW240 M04/M10 A2976 RMK CU1CI1 SLP132

CYQF;2012-02-20 23:00;CYQF 202300Z 23003KT 15SM FEW240 M04/M12 A2976 RMK CI1 SLP131

CYQF;2012-02-21 00:00;CYQF 210000Z 20002KT 15SM SCT240 M07/M13 A2976 RMK CI2 SLP136

CYQF;2012-02-21 01:00;CYQF 210100Z 15004KT 15SM FEW120 BKN240 M08/M14 A2975 RMK AC1CI2 SLP133

CYQF;2012-02-21 02:00;CYQF 210200Z 17004KT 15SM BKN240 M13/M15 A2974 RMK CI2 SLP132

CYQF;2012-02-21 03:00;CYQF 210300Z 19005KT 15SM SCT240 M15/M18 A2973 RMK CI2 SLP134

CYQF;2012-02-21 04:00;CYQF 210400Z 16006KT 15SM SCT240 M15/M18 A2969 RMK CI2 SLP122

CYQF;2012-02-21 05:00;CYQF 210500Z 00000KT 15SM BKN240 M13/M15 A2967 RMK CI5 SLP114

CYQF;2012-02-21 06:00;CYQF 210600Z 00000KT 15SM BKN240 M11/M14 A2965 RMK CI3 SLP099

CYQF;2012-02-21 07:00;CYQF 210700Z 16004KT 15SM SCT240 M11/M14 A2961 RMK CI2 SLP086

CYQF;2012-02-21 08:00;CYQF 210800Z 19006KT 15SM FEW240 M13/M16 A2959 RMK CI1 SLP079

CYQF;2012-02-21 09:00;CYQF 210900Z 17004KT 15SM FEW240 M10/M13 A2955 RMK CI1 SLP060

CYQF;2012-02-21 10:00;CYQF 211000Z 17005KT 15SM SKC M11/M13 A2951 RMK SLP048

CYQF;2012-02-21 11:00;CYQF 211100Z 00000KT 15SM BKN150 M12/M14 A2949 RMK AC7 SLP041

CYQF;2012-02-21 12:00;CYQF 211200Z 18004KT 15SM OVC100 M11/M13 A2950 RMK AC8 SLP047

CYQF;2012-02-21 13:00;CYQF 211300Z 20004KT 15SM OVC100 M09/M11 A2948 RMK AC8 SLP041

CYQF;2012-02-21 14:00;CYQF 211400Z 22008KT 15SM OVC100 M09/M11 A2947 RMK AC8 SLP037

CYQF;2012-02-21 14:28;CYQF 211428Z 15004KT 10SM -SN FEW030 OVC060 RMK SC2SC6

CYQF;2012-02-21 15:00;CYQF 211500Z 19003KT 15SM VCSH SCT020 BKN040 M08/M10 A2946 RMK SC3SC4 SLP037

CYQF;2012-02-21 16:00;CYQF 211600Z 22006KT 15SM FEW020 SCT040 BKN080 M07/M09 A2945 RMK SC1SC2AC2 SLP034

CYQF;2012-02-21 17:00;CYQF 211700Z 17003KT 15SM FEW030 FEW090 M04/M08 A2944 RMK SC1AC2 SLP031

CYQF;2012-02-21 18:00;CYQF 211800Z 00000KT 15SM FEW030 FEW100 M02/M06 A2943 RMK SC1AC1 SLP018

CYQF;2012-02-21 19:00;CYQF 211900Z 00000KT 15SM FEW030 FEW100 M01/M04 A2944 RMK SC1AC1 SLP019

CYQF;2012-02-21 20:00;CYQF 212000Z 00000KT 15SM FEW020 SCT240 02/M02 A2943 RMK SC2CI0 SLP017

CYQF;2012-02-21 21:00;CYQF 212100Z 05003KT 15SM FEW030 BKN250 04/M02 A2942 RMK CU1CI2 SLP006

CYQF;2012-02-21 22:00;CYQF 212200Z 01006KT 15SM FEW030 SCT110 BKN250 04/M05 A2943 RMK SC1AC2CI1 SLP007

CYQF;2012-02-21 23:00;CYQF 212300Z 00000KT 15SM FEW030 FEW100 BKN250 05/M06 A2944 RMK SC1AC1CI2 SLP010

CYQF;2012-02-22 00:00;CYQF 220000Z 21005KT 15SM FEW030 SCT100 BKN250 00/M06 A2944 RMK SC1AC2CI1 SLP016

CYQF;2012-02-22 01:00;CYQF 220100Z 21007KT 15SM FEW040 BKN090 BKN250 M00/M06 A2944 RMK SC2AC2CI2 SLP018

CYQF;2012-02-22 02:00;CYQF 220200Z 06004KT 15SM FEW040 BKN090 BKN250 M00/M05 A2945 RMK SC2AC3CI1 SLP021

CYQF;2012-02-22 03:00;CYQF 220300Z 15003KT 15SM BKN100 M02/M06 A2945 RMK AC5 SLP020

CYQF;2012-02-22 04:00;CYQF 220400Z 18002KT 15SM FEW120 M03/M07 A2945 RMK AC2 SLP020

CYQF;2012-02-22 05:00;CYQF 220500Z 00000KT 15SM SKC M07/M10 A2943 RMK SLP013

CYQF;2012-02-22 06:00;CYQF 220600Z 33003KT 15SM FEW120 M05/M07 A2943 RMK AC1 SLP010

CYQF;2012-02-22 07:00;CYQF 220700Z 00000KT 15SM BKN080 M08/M10 A2942 RMK AC7 SLP008

CYQF;2012-02-22 08:00;CYQF 220800Z 00000KT 15SM BKN080 M09/M12 A2940 RMK AC6 SLP000

CYQF;2012-02-22 09:00;CYQF 220900Z 22006KT 15SM FEW080 M10/M12 A2940 RMK AC2 SLP000

CYQF;2012-02-22 10:00;CYQF 221000Z 00000KT 15SM FEW120 M11/M13 A2938 RMK AC1 SLP993

CYQF;2012-02-22 11:00;CYQF 221100Z 00000KT 15SM FEW120 M12/M14 A2936 RMK AC2 SLP987

CYQF;2012-02-22 12:00;CYQF 221200Z 00000KT 15SM SCT120 M13/M14 A2935 RMK AC2 SLP986

CYQF;2012-02-22 13:00;CYQF 221300Z 00000KT 15SM BKN100 M11/M13 A2935 RMK AC6 SLP987

CYQF;2012-02-22 14:00;CYQF 221400Z 00000KT 15SM FEW030 BKN100 M10/M11 A2936 RMK SC1AC6 SLP989

CYQF;2012-02-22 15:00;CYQF 221500Z 22003KT 15SM VCSH BKN050 BKN100 M09/M11 A2937 RMK SC5AC2 SLP995

CYQF;2012-02-22 16:00;CYQF 221600Z 16004KT 15SM BKN050 BKN100 M07/M09 A2938 RMK SC6AC2 SLP997

CYQF;2012-02-22 17:00;CYQF 221700Z 22004KT 15SM BKN050 BKN100 M06/M08 A2937 RMK SC6AC2 SLP994

CYQF;2012-02-22 18:00;CYQF 221800Z 25010KT 15SM SCT050 SCT100 BKN240 M03/M05 A2938 RMK SC3AC1CI0 VIRGA SLP994

CYQF;2012-02-22 19:00;CYQF 221900Z 28005KT 15SM FEW050 SCT100 BKN240 M01/M04 A2938 RMK SC2AC2CI2 VIRGA SLP995

CYQF;2012-02-22 20:00;CYQF 222000Z 30010G15KT 15SM FEW050 BKN100 BKN240 01/M06 A2941 RMK SC2AC4CI1 VIRGA SLP003

CYQF;2012-02-22 20:33;CYQF 222033Z 32030G40KT 15SM DRSN FEW050 SCT100 BKN240 RMK SC2AC2CI3

CYQF;2012-02-22 21:00;CYQF 222100Z 33020G32KT 15SM FEW050 SCT100 BKN240 01/M07 A2943 RMK SC2AC2CI2 SLP013

CYQF;2012-02-22 22:00;CYQF 222200Z 33018G28KT 15SM FEW050 BKN120 BKN240 00/M06 A2945 RMK SC2AC3CI2 SLP019

CYQF;2012-02-22 23:00;CYQF 222300Z 33015G21KT 15SM DRSN FEW050 SCT120 BKN250 00/M06 A2947 RMK SC1AC2CI1 SLP026

CYQF;2012-02-23 00:00;CYQF 230000Z 32010KT 15SM FEW050 FEW120 BKN250 M01/M07 A2952 RMK SC1AC2CI2 SLP048

CYQF;2012-02-23 01:00;CYQF 230100Z 28007KT 15SM FEW050 FEW120 BKN250 M04/M09 A2955 RMK SC1AC2CI2 SLP057

CYQF;2012-02-23 02:00;CYQF 230200Z 30008KT 15SM SCT090 M04/M10 A2958 RMK AC3 SLP067

CYQF;2012-02-23 03:00;CYQF 230300Z 30005KT 15SM BKN060 M05/M09 A2962 RMK SC5 SLP085

CYQF;2012-02-23 04:00;CYQF 230400Z 28005KT 15SM SCT060 M06/M10 A2965 RMK SC3 SLP094

CYQF;2012-02-23 05:00;CYQF 230500Z 31010KT 15SM BKN040 M03/M07 A2968 RMK SC7 SLP104

CYQF;2012-02-23 05:26;CYQF 230526Z 29005KT 3SM -SN OVC030 RMK SN2SC6

CYQF;2012-02-23 06:00;CYQF 230600Z 29012KT 8SM -SN OVC030 M02/M05 A2971 RMK SC8 SLP105

CYQF;2012-02-23 06:41;CYQF 230641Z 29008KT 15SM SCT030 BKN220 RMK SC3CI1

CYQF;2012-02-23 07:00;CYQF 230700Z 30006KT 15SM FEW030 SCT220 M04/M06 A2972 RMK SC2CI1 SLP107

CYQF;2012-02-23 08:00;CYQF 230800Z 29007KT 15SM FEW030 SCT220 M04/M06 A2975 RMK SC2CI1 SLP116

CYQF;2012-02-23 09:00;CYQF 230900Z 28008KT 15SM FEW030 SCT220 M04/M07 A2977 RMK SC2CI1 SLP124

CYQF;2012-02-23 10:00;CYQF 231000Z 29008KT 15SM FEW030 BKN220 M04/M06 A2980 RMK SC2CI2 SLP132

CYQF;2012-02-23 11:00;CYQF 231100Z 30008KT 15SM BKN060 BKN220 M03/M06 A2982 RMK SC5CI2 SLP139

CYQF;2012-02-23 12:00;CYQF 231200Z 29008KT 15SM FEW060 SCT220 M04/M06 A2984 RMK SC2CI1 SLP149

CYQF;2012-02-23 13:00;CYQF 231300Z 29010KT 15SM FEW060 SCT220 M05/M07 A2985 RMK SC2CI1 SLP152

CYQF;2012-02-23 14:00;CYQF 231400Z 29006KT 15SM SCT080 BKN220 M05/M08 A2986 RMK AC4CI2 SLP156

CYQF;2012-02-23 15:00;CYQF 231500Z 30008KT 15SM SCT080 BKN220 M04/M07 A2987 RMK AC4CI3 SLP165

CYQF;2012-02-23 16:00;CYQF 231600Z 29007KT 15SM BKN080 BKN220 M04/M07 A2989 RMK AC6CI2 SLP171

CYQF;2012-02-23 17:00;CYQF 231700Z 27008KT 15SM SCT080 BKN220 M03/M07 A2990 RMK AC4CI2 SLP174

CYQF;2012-02-23 18:00;CYQF 231800Z 29008KT 15SM FEW080 SCT220 M02/M07 A2990 RMK AC2CI0 SLP171

CYQF;2012-02-23 19:00;CYQF 231900Z 28009KT 15SM FEW025 SCT080 BKN220 M01/M06 A2991 RMK CU2AC2CI1 VIRGA SLP172

CYQF;2012-02-23 20:00;CYQF 232000Z 31010KT 15SM FEW025TCU FEW080 BKN250 00/M06 A2990 RMK TCU2AC1CI2 VIRGA/SHWRS ALQDS SLP171

CYQF;2012-02-23 21:00;CYQF 232100Z 31015G20KT 15SM FEW030TCU FEW080 SCT250 00/M07 A2990 RMK TCU2AC1CI2 VIRGA SLP170

CYQF;2012-02-23 22:00;CYQF 232200Z 33015G20KT 15SM FEW030TCU FEW080 FEW250 01/M07 A2991 RMK TCU1AC1CI1 VIRGA SLP172

CYQF;2012-02-23 23:00;CYQF 232300Z 36016G22KT 5SM -SHSN FEW030TCU BKN080 OVC250 M02/M05 A2993 RMK TCU2AC3CI2 SLP179

CYQF;2012-02-23 23:13;CYQF 232313Z 32006KT 15SM VCSH FEW030 BKN080 RMK CU2AC4 VIS S 5

CYQF;2012-02-24 00:00;CYQF 240000Z 33012KT 15SM VCSH FEW030 BKN070 BKN250 M02/M06 A2994 RMK CU2AC3CI0 SLP184

CYQF;2012-02-24 01:00;CYQF 240100Z 31005KT 15SM FEW030 BKN070 BKN250 M02/M06 A2995 RMK CU2AC2CI1 VIRGA SLP186

CYQF;2012-02-24 02:00;CYQF 240200Z 32002KT 15SM FEW030 FEW070 BKN250 M05/M09 A2996 RMK SC1AC2CI2 SLP192

CYQF;2012-02-24 03:00;CYQF 240300Z 27003KT 15SM FEW070 SCT250 M07/M10 A2998 RMK AC2CI1 SLP205

CYQF;2012-02-24 04:00;CYQF 240400Z 28005KT 15SM FEW050 BKN120 M07/M09 A3000 RMK SC1AC6 SLP212

CYQF;2012-02-24 05:00;CYQF 240500Z 30007KT 15SM FEW050 BKN120 M05/M09 A3001 RMK SC1AC2 SLP215

CYQF;2012-02-24 06:00;CYQF 240600Z 30008KT 15SM FEW050 FEW120 M06/M09 A3003 RMK SC1AC2 SLP218

CYQF;2012-02-24 07:00;CYQF 240700Z 27007KT 15SM SCT120 M08/M11 A3004 RMK AC2 SLP223

CYQF;2012-02-24 08:00;CYQF 240800Z 25006KT 15SM SCT120 M10/M13 A3005 RMK AC2 SLP226

CYQF;2012-02-24 09:00;CYQF 240900Z 29004KT 15SM FEW100 M09/M11 A3005 RMK AC2 SLP229

CYQF;2012-02-24 10:00;CYQF 241000Z 26006KT 15SM SKC M13/M15 A3005 RMK SLP229

CYQF;2012-02-24 11:00;CYQF 241100Z 27006KT 15SM SKC M12/M16 A3006 RMK SLP230

CYQF;2012-02-24 12:00;CYQF 241200Z 27006KT 15SM SKC M11/M17 A3007 RMK SLP240

CYQF;2012-02-24 13:00;CYQF 241300Z 28006KT 15SM SKC M11/M17 A3007 RMK SLP241

CYQF;2012-02-24 14:00;CYQF 241400Z 20004KT 15SM FEW100 FEW250 M14/M18 A3008 RMK AC1CI0 SLP242

CYQF;2012-02-24 15:00;CYQF 241500Z 20005KT 15SM FEW050 FEW100 BKN250 M16/M19 A3007 RMK SC1AC1CI0 SLP252

CYQF;2012-02-24 16:00;CYQF 241600Z 19002KT 15SM BKN025 BKN100 BKN250 M13/M17 A3007 RMK SC3AC2CS2 HALO SLP250

CYQF;2012-02-24 17:00;CYQF 241700Z 21006KT 15SM BKN025 OVC250 M10/M15 A3006 RMK SC3CS3 HALO SLP248

CYQF;2012-02-24 18:00;CYQF 241800Z 13002KT 15SM SCT025 OVC260 M07/M13 A3004 RMK SC3CS3 SLP227

CYQF;2012-02-24 19:00;CYQF 241900Z 00000KT 15SM FEW025 OVC250 M05/M12 A3001 RMK SC1CS6 HALO SLP220

CYQF;2012-02-24 20:00;CYQF 242000Z 07008KT 15SM FEW025 OVC250 M03/M09 A2998 RMK SC1CS6 HALO SLP211

CYQF;2012-02-24 21:00;CYQF 242100Z 12010KT 15SM FEW025 SCT120 OVC250 M03/M09 A2995 RMK SC1AS2CS3 HALO SLP198

CYQF;2012-02-24 22:00;CYQF 242200Z 12010KT 15SM FEW025 OVC090 M03/M09 A2993 RMK SC1AS8 VIRGA SLP191

CYQF;2012-02-24 23:00;CYQF 242300Z 12008KT 15SM OVC080 M03/M09 A2991 RMK AS8 VIRGA SLP184

CYQF;2012-02-25 00:00;CYQF 250000Z 16015G20KT 8SM OVC025 M03/M10 A2986 RMK ST8 SLP168

CYQF;2012-02-25 00:14;CYQF 250014Z 15015G20KT 8SM -SN OVC025 RMK ST8

CYQF;2012-02-25 01:00;CYQF 250100Z 15010G15KT 15SM OVC025 M05/M07 A2982 RMK ST8 SLP154

CYQF;2012-02-25 02:00;CYQF 250200Z 13010G15KT 1SM -SN OVC020 M05/M06 A2977 RMK SN4ST4 SLP139

CYQF;2012-02-25 02:43;CYQF 250243Z 13010G15KT 3SM -SN OVC020 RMK ST8

CYQF;2012-02-25 03:00;CYQF 250300Z 12015G20KT 10SM -SN OVC020 M04/M07 A2973 RMK SC8 SLP129

CYQF;2012-02-25 04:00;CYQF 250400Z 13015G20KT 15SM -SN SCT008 OVC020 M04/M06 A2969 RMK SF3SC5 SLP116

CYQF;2012-02-25 04:28;CYQF 250428Z 12015G20KT 15SM -SN BKN008 OVC020 RMK ST6SC2

CYQF;2012-02-25 05:00;CYQF 250500Z 12015G20KT 15SM -SN OVC008 M04/M06 A2965 RMK ST8 SLP103

CYQF;2012-02-25 06:00;CYQF 250600Z 11015KT 15SM -SN OVC007 M04/M06 A2961 RMK ST8 SLP076

CYQF;2012-02-25 07:00;CYQF 250700Z 12014KT 10SM -SN OVC007 M04/M06 A2958 RMK ST8 SLP068

CYQF;2012-02-25 08:00;CYQF 250800Z 10015KT 10SM -SN OVC007 M04/M06 A2954 RMK ST8 SLP054

CYQF;2012-02-25 09:00;CYQF 250900Z 11015G22KT 10SM -SN OVC007 M04/M06 A2951 RMK ST8 SLP038

CYQF;2012-02-25 10:00;CYQF 251000Z 09008KT 10SM -SN OVC007 M05/M06 A2950 RMK ST8 SLP035

CYQF;2012-02-25 11:00;CYQF 251100Z 10006KT 10SM -SN OVC007 M05/M06 A2949 RMK ST8 SLP032

CYQF;2012-02-25 12:00;CYQF 251200Z 07012KT 5SM -SN OVC006 M06/M07 A2948 RMK ST8 SLP029

CYQF;2012-02-25 13:00;CYQF 251300Z 05008KT 3SM -SN VV006 M06/M08 A2950 RMK SN8 SLP035

CYQF;2012-02-25 13:23;CYQF 251323Z 06008KT 2SM -SN VV006 RMK SN8

CYQF;2012-02-25 14:00;CYQF 251400Z 05010KT 1 1/2SM -SN VV006 M07/M09 A2951 RMK SN8 SLP040

CYQF;2012-02-25 15:00;CYQF 251500Z 03014KT 1 1/2SM -SN VV006 M08/M10 A2952 RMK SN8 VIS VRB 1-2 SLP048

CYQF;2012-02-25 16:00;CYQF 251600Z 02012KT 2SM -SN SCT006 OVC050 M09/M11 A2958 RMK SN2SC2SC4 VIS VRB 1-3 SLP065

CYQF;2012-02-25 17:00;CYQF 251700Z CCA 01010G15KT 1SM -SN DRSN OVC015 M09/M12 A2961 RMK SN3SC5 VIS VRB 3/4-11/2 /S02/ SLP075

CYQF;2012-02-25 18:00;CYQF 251800Z 36015KT 1SM -SN DRSN OVC015 M10/M12 A2965 RMK SN3SC5 VIS VRB 3/4-11/2 /S03/ SLP093

CYQF;2012-02-25 19:00;CYQF 251900Z 35010G15KT 1SM -SN DRSN OVC015 M10/M13 A2970 RMK SN4SC4 VIS VRB 3/4-11/2 SLP108

CYQF;2012-02-25 20:00;CYQF 252000Z 34015G20KT 1SM -SN BLSN OVC015 M11/M13 A2973 RMK SN4SC4 VIS VRB 3/4-11/2 SLP119

CYQF;2012-02-25 21:00;CYQF 252100Z 34015G20KT 1SM -SN BLSN OVC015 M11/M13 A2976 RMK SN4SC4 VIS VRB 3/4-11/2 SLP135

CYQF;2012-02-25 22:00;CYQF 252200Z 01012G18KT 1SM -SN BLSN OVC015 M11/M14 A2981 RMK SN4SC4 VIS VRB 3/4-11/2 SLP148

CYQF;2012-02-25 23:00;CYQF 252300Z 34015G20KT 1SM -SN BLSN OVC015 M12/M14 A2985 RMK SN4SC4 SLP162

CYQF;2012-02-26 00:00;CYQF 260000Z 34015G20KT 1SM -SN BLSN OVC015 M12/M15 A2988 RMK SN4SC4 SLP180

CYQF;2012-02-26 01:00;CYQF 260100Z 34015G20KT 1SM -SN BLSN OVC015 M12/M15 A2991 RMK SN4SC4 SLP189

CYQF;2012-02-26 02:00;CYQF 260200Z 34013G18KT 1SM -SN BLSN OVC015 M12/M15 A2995 RMK SN4SC4 SLP199

CYQF;2012-02-26 03:00;CYQF 260300Z 35010G15KT 3SM -SN OVC015 M12/M15 A2997 RMK SN3SC5 SLP213

CYQF;2012-02-26 03:30;CYQF 260330Z 34010KT 2SM -SN OVC015 RMK SN4SC4

CYQF;2012-02-26 04:00;CYQF 260400Z 35010KT 2SM -SN OVC015 M12/M15 A2998 RMK SN4SC4 SLP217

CYQF;2012-02-26 05:00;CYQF 260500Z 35008KT 2SM -SN OVC050 M13/M15 A3000 RMK SN4SC4 SLP222

CYQF;2012-02-26 05:50;CYQF 260550Z 36004KT 5SM -SN OVC070 RMK AC8

CYQF;2012-02-26 06:00;CYQF 260600Z 35005KT 10SM -SN OVC070 M13/M15 A3001 RMK AC8 SLP228

CYQF;2012-02-26 07:00;CYQF 260700Z 35004KT 3SM -SN OVC070 M13/M15 A3002 RMK AC8 SLP231

CYQF;2012-02-26 08:00;CYQF 260800Z 33004KT 5SM -SN OVC060 M13/M15 A3002 RMK SC8 SLP233

CYQF;2012-02-26 09:00;CYQF 260900Z 36002KT 6SM -SN OVC060 M13/M15 A3004 RMK SC8 SLP241

CYQF;2012-02-26 10:00;CYQF 261000Z 35004KT 4SM -SN OVC060 M13/M15 A3005 RMK SC8 SLP243

CYQF;2012-02-26 11:00;CYQF 261100Z 34004KT 4SM -SN OVC060 M13/M15 A3005 RMK SC8 SLP245

CYQF;2012-02-26 12:00;CYQF 261200Z 36005KT 6SM -SN OVC060 M14/M16 A3006 RMK SC8 /S01/ SLP251

CYQF;2012-02-26 13:00;CYQF 261300Z 36004KT 6SM -SN OVC060 M14/M16 A3008 RMK SC8 SLP255

CYQF;2012-02-26 14:00;CYQF 261400Z 36003KT 6SM -SN OVC060 M14/M16 A3009 RMK SC8 SLP260

CYQF;2012-02-26 15:00;CYQF 261500Z 34004KT 1SM -SN OVC030 M14/M16 A3011 RMK SN3SC5 VIS VRB 3/4-11/2 SLP268

CYQF;2012-02-26 16:00;CYQF 261600Z 36005KT 2SM -SN OVC030 M14/M16 A3013 RMK SN2SC6 VIS VRB 1-3 SLP273

CYQF;2012-02-26 17:00;CYQF 261700Z 36003KT 2SM -SN SCT030 OVC250 M14/M16 A3014 RMK SN2SC2CI4 SLP276

CYQF;2012-02-26 17:17;CYQF 261717Z 34003KT 3SM -SN FEW030 BKN090 OVC250 RMK SC2AC3CI2

CYQF;2012-02-26 18:00;CYQF 261800Z 34003KT 3SM -SN SCT090 OVC250 M14/M17 A3015 RMK AC3CI4 SLP281

CYQF;2012-02-26 19:00;CYQF 261900Z 01005KT 2SM -SN SCT090 OVC250 M14/M17 A3015 RMK AC3CI4 VIS VRB 1-3 SLP284

CYQF;2012-02-26 20:00;CYQF 262000Z 35006KT 2SM -SN BKN090 OVC250 M13/M16 A3016 RMK AC5CI2 VIS VRB 1-3 SLP286

CYQF;2012-02-26 20:53;CYQF 262053Z 01005KT 3SM -SN FEW030 SCT090 OVC250 RMK SC1AC2CI3 VIS S 6

CYQF;2012-02-26 21:00;CYQF 262100Z 01005KT 3SM -SN FEW030 SCT090 OVC250 M13/M16 A3015 RMK SC1AC2CI3 VIS S 6 SLP284

CYQF;2012-02-26 22:00;CYQF 262200Z 01004KT 3SM -SN FEW030 SCT090 BKN250 M13/M16 A3016 RMK SC2AC2CI2 SLP285

CYQF;2012-02-26 22:39;CYQF 262239Z 02003KT 10SM FEW030 BKN250 RMK SC2CI2

CYQF;2012-02-26 23:00;CYQF 262300Z 36005KT 10SM FEW030 BKN250 M13/M17 A3016 RMK SC2CI2 SLP286

CYQF;2012-02-27 00:00;CYQF 270000Z 04004KT 15SM FEW050 BKN250 M15/M18 A3017 RMK SC2CI2 SLP291

CYQF;2012-02-27 01:00;CYQF 270100Z 15003KT 15SM BKN250 M17/M19 A3016 RMK CI3 SLP290

CYQF;2012-02-27 02:00;CYQF 270200Z 00000KT 15SM FEW250 M18/M19 A3016 RMK CI1 SLP288

CYQF;2012-02-27 03:00;CYQF 270300Z 18004KT 15SM FEW250 M22/M23 A3015 RMK CI1 SLP295

CYQF;2012-02-27 04:00;CYQF 270400Z 21004KT 15SM SKC M25/M27 A3014 RMK SLP291

CYQF;2012-02-27 05:00;CYQF 270500Z 20003KT 15SM SKC M24/M28 A3014 RMK SLP289

CYQF;2012-02-27 06:00;CYQF 270600Z 18005KT 15SM SKC M26/M30 A3012 RMK SLP286

CYQF;2012-02-27 07:00;CYQF 270700Z 19005KT 15SM SKC M25/M30 A3009 RMK SLP278

CYQF;2012-02-27 08:00;CYQF 270800Z 18003KT 15SM SKC M24/M28 A3007 RMK SLP272

CYQF;2012-02-27 09:00;CYQF 270900Z 18005KT 15SM SKC M25/M29 A3005 RMK SLP260

CYQF;2012-02-27 10:00;CYQF 271000Z 18005KT 15SM SKC M24/M28 A3001 RMK SLP250

CYQF;2012-02-27 11:00;CYQF 271100Z 20003KT 15SM SKC M26/M30 A2999 RMK SLP243

CYQF;2012-02-27 12:00;CYQF 271200Z 21003KT 15SM SKC M27/M31 A2997 RMK SLP239

CYQF;2012-02-27 13:00;CYQF 271300Z 18005KT 15SM SKC M26/M30 A2995 RMK SLP233

CYQF;2012-02-27 14:00;CYQF 271400Z 20002KT 15SM SKC M27/M31 A2994 RMK SLP229

CYQF;2012-02-27 15:00;CYQF 271500Z 20002KT 15SM FEW240 M25/M30 A2992 RMK CI1 SLP228

CYQF;2012-02-27 16:00;CYQF 271600Z 18004KT 15SM FEW240 M23/M27 A2991 RMK CI1 SLP225

CYQF;2012-02-27 17:00;CYQF 271700Z 20004KT 15SM FEW250 M21/M25 A2990 RMK CI1 SLP220

CYQF;2012-02-27 18:00;CYQF 271800Z 19004KT 15SM BKN250 M18/M20 A2988 RMK CI2 SLP208

CYQF;2012-02-27 19:00;CYQF 271900Z 17004KT 15SM BKN250 M15/M18 A2985 RMK CI5 SLP201

CYQF;2012-02-27 20:00;CYQF 272000Z 00000KT 15SM BKN250 M12/M16 A2983 RMK CI5 SLP193

CYQF;2012-02-27 21:00;CYQF 272100Z 00000KT 15SM OVC250 M09/M15 A2981 RMK CI5 SLP173

CYQF;2012-02-27 22:00;CYQF 272200Z 00000KT 15SM BKN250 M09/M14 A2980 RMK CI2 SLP169

CYQF;2012-02-27 23:00;CYQF 272300Z 00000KT 15SM BKN250 M08/M15 A2979 RMK CI3 SLP166

CYQF;2012-02-28 00:00;CYQF 280000Z 13002KT 15SM SCT120 BKN250 M09/M14 A2977 RMK AS3CI2 SLP162

CYQF;2012-02-28 01:00;CYQF 280100Z 00000KT 15SM SCT120 BKN250 M10/M14 A2977 RMK AS3CI2 SLP160

CYQF;2012-02-28 02:00;CYQF 280200Z 00000KT 15SM FEW120 BKN250 M10/M15 A2978 RMK AC2CI2 SLP163

CYQF;2012-02-28 03:00;CYQF 280300Z 00000KT 15SM FEW100 FEW250 M14/M16 A2978 RMK AC1CI1 SLP170

CYQF;2012-02-28 04:00;CYQF 280400Z 00000KT 15SM SKC M16/M17 A2978 RMK SLP170

CYQF;2012-02-28 05:00;CYQF 280500Z 18003KT 15SM SKC M17/M18 A2978 RMK SLP170

CYQF;2012-02-28 06:00;CYQF 280600Z 17003KT 15SM SKC M18/M20 A2979 RMK SLP167

CYQF;2012-02-28 07:00;CYQF 280700Z 18004KT 15SM SKC M19/M21 A2977 RMK SLP163

CYQF;2012-02-28 08:00;CYQF 280800Z 21003KT 15SM SKC M21/M23 A2976 RMK SLP160

CYQF;2012-02-28 09:00;CYQF 280900Z 22004KT 15SM SKC M22/M24 A2976 RMK SLP151

CYQF;2012-02-28 10:00;CYQF 281000Z 19003KT 15SM SKC M22/M24 A2975 RMK SLP149

CYQF;2012-02-28 11:00;CYQF 281100Z 00000KT 15SM SKC M23/M25 A2974 RMK SLP144

CYQF;2012-02-28 12:00;CYQF 281200Z 00000KT 15SM SKC M21/M24 A2972 RMK SLP137

CYQF;2012-02-28 13:00;CYQF 281300Z 00000KT 15SM SKC M23/M25 A2971 RMK SLP134

CYQF;2012-02-28 14:00;CYQF 281400Z 00000KT 10SM SKC M23/M26 A2971 RMK SLP133

CYQF;2012-02-28 15:00;CYQF 281500Z CCA 20003KT 10SM SCT250 M24/M28 A2970 RMK CI2 SLP140

CYQF;2012-02-28 16:00;CYQF 281600Z 20003KT 10SM BKN250 M20/M23 A2970 RMK CI2 SLP139

CYQF;2012-02-28 17:00;CYQF 281700Z 00000KT 15SM BKN250 M16/M19 A2969 RMK CI3 SLP137

CYQF;2012-02-28 18:00;CYQF 281800Z 00000KT 15SM BKN250 M13/M16 A2968 RMK CI3 SLP124

CYQF;2012-02-28 19:00;CYQF 281900Z 14008KT 15SM BKN250 M07/M14 A2966 RMK CI3 SLP119

CYQF;2012-02-28 20:00;CYQF 282000Z 14005KT 15SM BKN250 M06/M13 A2965 RMK CI2 SLP115

CYQF;2012-02-28 21:00;CYQF 282100Z 16004KT 15SM BKN250 M03/M13 A2964 RMK CI2 SLP103

CYQF;2012-02-28 22:00;CYQF 282200Z 12004KT 15SM BKN250 M03/M12 A2963 RMK CI4 SLP101

CYQF;2012-02-28 23:00;CYQF 282300Z CCA 14007KT 15SM OVC250 M04/M11 A2963 RMK CS5 HALO SLP100

CYQF;2012-02-29 00:00;CYQF 290000Z 12004KT 15SM OVC250 M05/M11 A2962 RMK CI5 SLP098

CYQF;2012-02-29 01:00;CYQF 290100Z 13007KT 15SM OVC250 M05/M11 A2961 RMK CI3 SLP096

CYQF;2012-02-29 02:00;CYQF 290200Z 13003KT 15SM BKN250 M07/M11 A2961 RMK CI2 SLP095

CYQF;2012-02-29 03:00;CYQF 290300Z 13002KT 15SM OVC250 M10/M13 A2960 RMK CI2 SLP100

CYQF;2012-02-29 04:00;CYQF 290400Z 00000KT 15SM OVC250 M11/M13 A2959 RMK CI4 SLP096

CYQF;2012-02-29 05:00;CYQF 290500Z 18004KT 15SM BKN250 M13/M14 A2958 RMK CI2 SLP093

CYQF;2012-02-29 06:00;CYQF 290600Z 18002KT 10SM SKC M14/M15 A2957 RMK SLP081

CYQF;2012-02-29 06:47;CYQF 290647Z 18004KT 1/2SM FZFG SKC RMK FG2 VIS W 1

CYQF;2012-02-29 07:00;CYQF 290700Z 18003KT 1/2SM FZFG SKC M17/M18 A2956 RMK FG2 VIS S 1/2 VIS W 1 SLP079

CYQF;2012-02-29 07:13;CYQF 290713Z 17003KT 4SM BR SKC RMK FG1

CYQF;2012-02-29 07:25;CYQF 290725Z 25002KT 1SM BR SKC RMK FG2 VIS W-NW 3

CYQF;2012-02-29 08:00;CYQF 290800Z 00000KT 2SM BR SKC M18/M20 A2955 RMK FG2 VIS W-NW 3 SLP075

CYQF;2012-02-29 08:17;CYQF 290817Z 20002KT 3/4SM BR SKC RMK FG3

CYQF;2012-02-29 08:35;CYQF 290835Z 20002KT 1/2SM FZFG SKC RMK FG6 FROIN

CYQF;2012-02-29 09:00;CYQF 290900Z 00000KT 1/2SM FZFG SKC M19/M20 A2954 RMK FG6 SLP065

CYQF;2012-02-29 10:00;CYQF 291000Z 00000KT 1SM BR SKC 20/M21 A2953 RMK FG6 FROIN SLP062

CYQF;2012-02-29 10:24;CYQF 291024Z 22003KT 3SM BR SCT002 RMK FG2SF2 FROIN

CYQF;2012-02-29 11:00;CYQF 291100Z 00000KT 3SM BR SCT002 M19/M20 A2952 RMK FG2SF2 FROIN SLP059

CYQF;2012-02-29 12:00;CYQF 291200Z 18004KT 5SM BR FEW004 M20/M21 A2952 RMK SF2 FROIN SLP061

CYQF;2012-02-29 13:00;CYQF 291300Z 20002KT 10SM SKC M20/M21 A2951 RMK FROIN SLP059

CYQF;2012-02-29 14:00;CYQF 291400Z 00000KT 10SM BKN250 M21/M22 A2951 RMK CI3 SLP057

CYQF;2012-02-29 15:00;CYQF 291500Z 21003KT 10SM FEW120 BKN250 M21/M22 A2950 RMK AC2CI4 SLP060

CYQF;2012-02-29 16:00;CYQF 291600Z 00000KT 10SM BKN120 OVC250 M18/M19 A2949 RMK AC5CI2 SLP059

CYQF;2012-02-29 17:00;CYQF 291700Z 00000KT 10SM BKN120 OVC250 M16/M16 A2949 RMK AS5CI2 SLP057

CYQF;2012-02-29 18:00;CYQF 291800Z 00000KT 10SM BKN120 OVC250 M13/M14 A2948 RMK AS5CI2 SLP051

CYQF;2012-02-29 19:00;CYQF 291900Z 00000KT 10SM BKN120 OVC250 M10/M12 A2948 RMK AS6CI2 SLP049

CYQF;2012-02-29 20:00;CYQF 292000Z 18002KT 12SM BKN120 OVC250 M09/M13 A2948 RMK AS6CI2 SLP049

CYQF;2012-02-29 21:00;CYQF 292100Z 00000KT 12SM OVC120 M07/M12 A2946 RMK AS7 SLP042

CYQF;2012-02-29 22:00;CYQF 292200Z 36006KT 12SM BKN120 BKN250 M07/M12 A2946 RMK AS6CI1 SLP041

CYQF;2012-02-29 23:00;CYQF 292300Z 00000KT 12SM BKN100 OVC250 M06/M12 A2946 RMK AS6CI2 SLP043

CYQF;2012-03-01 00:00;CYQF 010000Z 33003KT 12SM BKN100 OVC250 M07/M12 A2948 RMK AS5CI2 SLP050

CYQF;2012-03-01 01:00;CYQF 010100Z 36006KT 10SM BKN100 OVC250 M08/M12 A2950 RMK AS5CI3 SLP057

CYQF;2012-03-01 02:00;CYQF 010200Z 02010KT 8SM OVC100 M08/M11 A2952 RMK AS8 HZ SLP062

CYQF;2012-03-01 03:00;CYQF 010300Z 36006KT 6SM BR OVC100 M09/M11 A2954 RMK AS8 SLP074

CYQF;2012-03-01 03:39;CYQF 010339Z 34003KT 5SM -SN BR SCT014 OVC100 RMK SC4AS4 VRY LGT SN

CYQF;2012-03-01 04:00;CYQF 010400Z 36003KT 5SM -SN BR SCT014 OVC100 M09/M11 A2955 RMK SC4AC4 VRY LGT SN SLP077

CYQF;2012-03-01 04:45;CYQF 010445Z 01003KT 10SM BKN250 RMK CI2 VIS SE-SW 5BR

CYQF;2012-03-01 05:00;CYQF 010500Z 35002KT 10SM BKN250 M10/M12 A2955 RMK CI2 VIS SE-SW 6BR SLP076

CYQF;2012-03-01 06:00;CYQF 010600Z 31003KT 8SM OVC250 M14/M15 A2957 RMK CI2 SLP081

CYQF;2012-03-01 07:00;CYQF 010700Z 00000KT 15SM SKC M13/M15 A2959 RMK SLP088

CYQF;2012-03-01 08:00;CYQF 010800Z 29008KT 10SM SCT050 M11/M13 A2961 RMK SC4 SLP092

CYQF;2012-03-01 09:00;CYQF 010900Z 31010KT 15SM SCT050 M11/M13 A2961 RMK SC3 SLP086

CYQF;2012-03-01 10:00;CYQF 011000Z 30006KT 15SM SCT050 M12/M14 A2963 RMK SC3 SLP090

CYQF;2012-03-01 11:00;CYQF 011100Z 31006KT 15SM FEW050 BKN220 M12/M14 A2962 RMK SC2CI1 SLP089

CYQF;2012-03-01 12:00;CYQF 011200Z 31006KT 15SM FEW050 BKN220 M12/M14 A2964 RMK SC2CI1 SLP096

CYQF;2012-03-01 13:00;CYQF 011300Z 33008KT 15SM FEW050 BKN220 M11/M13 A2966 RMK SC2CI2 SLP103

CYQF;2012-03-01 14:00;CYQF 011400Z 32008KT 10SM -SN BKN060 BKN220 M11/M13 A2968 RMK SC5CI2 SLP110

CYQF;2012-03-01 15:00;CYQF 011500Z 33010KT 2 1/2SM -SN OVC060 M11/M13 A2971 RMK SC8 SLP120

CYQF;2012-03-01 16:00;CYQF 011600Z 34010KT 2SM -SN DRSN OVC060 M11/M13 A2973 RMK SC8 SLP127

CYQF;2012-03-01 16:48;CYQF 011648Z 33010KT 3SM -SN DRSN OVC060 RMK SC8

CYQF;2012-03-01 17:00;CYQF 011700Z 33008KT 3SM -SN OVC060 M11/M13 A2974 RMK SC8 SLP131

CYQF;2012-03-01 18:00;CYQF 011800Z 34008KT 5SM -SN OVC060 M10/M12 A2976 RMK SC8 SLP145

CYQF;2012-03-01 18:35;CYQF 011835Z 31010KT 8SM BKN060 OVC210 RMK SC5CI2

CYQF;2012-03-01 19:00;CYQF 011900Z 33008KT 12SM SCT040 OVC240 M09/M12 A2978 RMK SC3CI2 SLP149

CYQF;2012-03-01 20:00;CYQF 012000Z 34010G15KT 15SM FEW040 OVC250 M08/M12 A2979 RMK SC1CI3 SLP152

CYQF;2012-03-01 21:00;CYQF 012100Z 33010G15KT 15SM DRSN FEW040 OVC250 M08/M11 A2980 RMK SC1CI5 SLP152

CYQF;2012-03-01 22:00;CYQF 012200Z 33010G15KT 15SM DRSN FEW100 OVC250 M08/M12 A2982 RMK AC1CI6 SLP159

CYQF;2012-03-02 00:00;CYQF 020000Z 34008KT 15SM BKN250 M08/M12 A2987 RMK CI3 SLP177

CYQF;2012-03-02 01:00;CYQF 020100Z 34006KT 15SM BKN250 M09/M13 A2989 RMK CI2 SLP182

CYQF;2012-03-02 02:00;CYQF 020200Z 33005KT 15SM FEW100 SCT250 M09/M13 A2991 RMK AC1CI1 SLP188

CYQF;2012-03-02 03:00;CYQF 020300Z 33006KT 15SM SKC M13/M15 A2992 RMK SLP199

CYQF;2012-03-02 04:00;CYQF 020400Z 00000KT 15SM SKC M15/M16 A2993 RMK SLP203

CYQF;2012-03-02 05:00;CYQF 020500Z 26006KT 15SM SKC M17/M18 A2996 RMK SLP211

CYQF;2012-03-02 06:00;CYQF 020600Z 23002KT 15SM FEW100 M17/M18 A2997 RMK AC1 SLP221

CYQF;2012-03-02 07:00;CYQF 020700Z 00000KT 15SM BKN100 M19/M20 A2997 RMK AC5 SLP221

CYQF;2012-03-02 08:00;CYQF 020800Z 00000KT 15SM FEW100 M19/M20 A2997 RMK AC2 SLP221

CYQF;2012-03-02 09:00;CYQF 020900Z 18003KT 15SM FEW100 M19/M20 A2997 RMK AC2 SLP220

CYQF;2012-03-02 10:00;CYQF 021000Z 22003KT 15SM BKN100 M19/M20 A2997 RMK AC5 SLP220

CYQF;2012-03-02 11:00;CYQF 021100Z 00000KT 15SM BKN100 M17/M19 A2997 RMK AC6 SLP219

CYQF;2012-03-02 12:00;CYQF 021200Z 19003KT 15SM BKN100 M16/M17 A2996 RMK AC7 SLP214

CYQF;2012-03-02 13:00;CYQF 021300Z 19003KT 15SM BKN100 M14/M15 A2996 RMK AC7 SLP213

CYQF;2012-03-02 14:00;CYQF 021400Z 20004KT 15SM FEW100 SCT210 M16/M17 A2995 RMK AC2CI0 SLP210

CYQF;2012-03-02 15:00;CYQF 021500Z 19005KT 15SM FEW100 FEW220 M17/M18 A2994 RMK AC1CI1 SLP214

CYQF;2012-03-02 16:00;CYQF 021600Z 19006KT 15SM FEW100 FEW220 M15/M16 A2992 RMK AC1CI1 SLP207

CYQF;2012-03-02 17:00;CYQF 021700Z 19005KT 15SM BKN100 BKN220 M13/M14 A2990 RMK AC6CI1 SLP200

CYQF;2012-03-02 18:00;CYQF 021800Z 15003KT 15SM BKN100 BKN220 M09/M13 A2986 RMK AC6CI1 SLP182

CYQF;2012-03-02 19:00;CYQF 021900Z 00000KT 15SM BKN100 M05/M11 A2985 RMK AC7 SLP179

CYQF;2012-03-02 20:00;CYQF 022000Z 16004KT 15SM FEW100 BKN220 M03/M09 A2983 RMK AC2CI2 SLP172

CYQF;2012-03-02 21:00;CYQF 022100Z 16005KT 15SM FEW100 BKN220 M02/M09 A2982 RMK AC2CI3 SLP160

CYQF;2012-03-02 22:00;CYQF 022200Z 17005KT 15SM BKN100 OVC220 M02/M08 A2981 RMK AS5CS2 SLP158

CYQF;2012-03-02 23:00;CYQF 022300Z 17005KT 15SM BKN100 OVC220 M02/M07 A2980 RMK AS5CS2 SLP154

CYQF;2012-03-03 00:00;CYQF 030000Z 18005KT 15SM BKN080 OVC220 M02/M07 A2979 RMK AC6CI2 VIRGA ALQDS SLP148

CYQF;2012-03-03 01:00;CYQF 030100Z 19006KT 15SM BKN080 OVC220 M02/M07 A2978 RMK AC6CI2 SLP145

CYQF;2012-03-03 02:00;CYQF 030200Z 20006KT 15SM FEW030 BKN080 BKN220 M04/M07 A2979 RMK SC2AC2CI1 SLP148

CYQF;2012-03-03 03:00;CYQF 030300Z 20006KT 15SM FEW030 BKN080 BKN220 M05/M08 A2981 RMK SC2AC2CI1 SLP157

CYQF;2012-03-03 04:00;CYQF 030400Z 20007KT 15SM FEW030 SCT080 BKN220 M03/M07 A2981 RMK SC2AC2CI1 SLP157

CYQF;2012-03-03 05:00;CYQF 030500Z 24006KT 15SM FEW080 BKN220 M03/M08 A2981 RMK AC2CI2 SLP158

CYQF;2012-03-03 06:00;CYQF 030600Z 01010KT 15SM FEW080 BKN220 M01/M07 A2984 RMK AC2CI2 SLP155

CYQF;2012-03-03 07:00;CYQF 030700Z 00000KT 15SM OVC210 M04/M06 A2983 RMK CI6 SLP153

CYQF;2012-03-03 08:00;CYQF 030800Z 23005KT 15SM BKN150 M04/M06 A2982 RMK AC7 SLP149

CYQF;2012-03-03 09:00;CYQF 030900Z 00000KT 15SM BKN150 OVC210 M04/M07 A2980 RMK AC5CI2 SLP139

CYQF;2012-03-03 10:00;CYQF 031000Z 23006KT 15SM OVC150 M05/M07 A2979 RMK AC8 SLP134

CYQF;2012-03-03 11:00;CYQF 031100Z 22005KT 15SM OVC150 M06/M07 A2976 RMK AC8 SLP125

CYQF;2012-03-03 12:00;CYQF 031200Z 18006KT 15SM OVC150 M06/M08 A2974 RMK AC8 SLP119

CYQF;2012-03-03 13:00;CYQF 031300Z 20005KT 15SM OVC120 M05/M07 A2972 RMK AC8 SLP113

CYQF;2012-03-03 14:00;CYQF 031400Z 15005KT 15SM OVC090 M04/M07 A2968 RMK AC8 SLP101

CYQF;2012-03-03 15:00;CYQF 031500Z 17008KT 15SM BKN090 M03/M06 A2965 RMK AC7 SLP085

CYQF;2012-03-03 16:00;CYQF 031600Z 18009KT 15SM BKN090 M02/M06 A2961 RMK AC7 SLP075

CYQF;2012-03-03 17:00;CYQF 031700Z 18010KT 15SM BKN100 BKN250 M01/M06 A2958 RMK AS7CI1 SUBSIDENCE BREAK SW SLP064

CYQF;2012-03-03 18:00;CYQF 031800Z 19008KT 15SM BKN100 BKN250 M01/M05 A2956 RMK AS6CI1 SLP048

CYQF;2012-03-03 19:00;CYQF 031900Z 00000KT 15SM FEW050 BKN100 BKN250 M00/M05 A2955 RMK SC1AS6CI1 SLP047

CYQF;2012-03-03 20:00;CYQF 032000Z 20003KT 15SM FEW050 BKN100 BKN250 00/M05 A2954 RMK SC1AS7CI1 SLP043

CYQF;2012-03-03 21:00;CYQF 032100Z 01003KT 15SM FEW050 BKN100 BKN250 01/M05 A2956 RMK SC1AS6CI1 SLP051

CYQF;2012-03-03 22:00;CYQF 032200Z 36012KT 15SM FEW050 BKN100 BKN250 03/M05 A2959 RMK SC1AS5CI1 SLP059

CYQF;2012-03-03 23:00;CYQF 032300Z 36013G23KT 15SM FEW050 BKN100 BKN250 02/M03 A2961 RMK SC2AS3CI2 SLP066

CYQF;2012-03-04 00:00;CYQF 040000Z 34010G15KT 15SM SCT030 BKN100 OVC250 01/M02 A2967 RMK SC3AC3CI1 SLP090

CYQF;2012-03-04 01:00;CYQF 040100Z 35012G18KT 8SM -SHSN BKN050 OVC100 00/M02 A2971 RMK SC5AC3 SLP104

CYQF;2012-03-04 01:11;CYQF 040111Z 35010G15KT 2SM -SHSN OVC040 RMK SN2SC6 VIS VRB 1-3

CYQF;2012-03-04 02:00;CYQF 040200Z 35010G15KT 3SM -SHSN OVC050 M01/M03 A2976 RMK SC8 VIS VRB 2-4 SLP120

CYQF;2012-03-04 03:00;CYQF 040300Z 31007KT 2SM -SHSN OVC050 M01/M02 A2980 RMK SN2SC6 VIS VRB 1-3 SLP134

CYQF;2012-03-04 04:00;CYQF 040400Z 30007KT 2SM -SHSN OVC050 M01/M02 A2983 RMK SN2SC6 VIS VRB 1-3 /S01/ SLP145

CYQF;2012-03-04 05:00;CYQF 040500Z 26008KT 6SM -SHSN OVC050 M01/M02 A2986 RMK SC8 SLP153

CYQF;2012-03-04 05:27;CYQF 040527Z 26007KT 15SM OVC050 RMK SC8

CYQF;2012-03-04 06:00;CYQF 040600Z 26008KT 15SM OVC050 M01/M03 A2986 RMK SC8 SLP155

CYQF;2012-03-04 07:00;CYQF 040700Z 26008KT 15SM OVC050 M01/M04 A2989 RMK SC8 SLP162

CYQF;2012-03-04 08:00;CYQF 040800Z 32012KT 15SM OVC050 00/M05 A2990 RMK SC8 SLP166

CYQF;2012-03-04 09:00;CYQF 040900Z 27010KT 15SM OVC050 M01/M05 A2992 RMK SC8 SLP171

CYQF;2012-03-04 09:34;CYQF 040934Z 27012KT 10SM -SN OVC050 RMK SC8

CYQF;2012-03-04 10:00;CYQF 041000Z 24008KT 6SM -SN OVC050 M02/M03 A2994 RMK SC8 SLP178

CYQF;2012-03-04 10:42;CYQF 041042Z 27008KT 2SM -SN OVC050 RMK SN3SC5

CYQF;2012-03-04 11:00;CYQF 041100Z 27008KT 2SM -SN OVC050 M02/M03 A2995 RMK SN3SC5 SLP181

CYQF;2012-03-04 12:00;CYQF 041200Z 27005KT 2SM -SN OVC040 M02/M03 A2996 RMK SN3SC5 SLP187

CYQF;2012-03-04 13:00;CYQF 041300Z 25004KT 2 1/2SM -SN OVC040 M03/M04 A2996 RMK SN3SC5 SLP188

CYQF;2012-03-04 14:00;CYQF 041400Z 18004KT 2 1/2SM -SN OVC040 M03/M04 A2995 RMK SN3SC5 SLP184

CYQF;2012-03-04 14:48;CYQF 041448Z 19003KT 3SM -SN OVC040 RMK SN3SC5

CYQF;2012-03-04 15:00;CYQF 041500Z 16004KT 4SM -SN OVC040 M03/M04 A2993 RMK SC8 SLP181

CYQF;2012-03-04 16:00;CYQF 041600Z 16004KT 3SM -SN OVC040 M03/M04 A2992 RMK SN2SC6 VIS VRB 2-4 SLP176

CYQF;2012-03-04 17:00;CYQF 041700Z 17006KT 15SM -SN FEW015 OVC040 M02/M04 A2989 RMK SF1SC8 SLP169

CYQF;2012-03-04 18:00;CYQF 041800Z 16006KT 15SM -SN FEW015 OVC040 M01/M04 A2987 RMK SF1SC7 /S01/ SLP156

CYQF;2012-03-04 19:00;CYQF 041900Z 14009KT 15SM FEW015 BKN050 M00/M04 A2984 RMK SF1SC6 SLP146

CYQF;2012-03-04 20:00;CYQF 042000Z 14010KT 15SM FEW015 FEW050 BKN100 BKN250 00/M04 A2979 RMK SF1SC1AC2CI1 SF TR SLP131

CYQF;2012-03-04 21:00;CYQF 042100Z 13007KT 15SM SCT015 SCT050 BKN250 00/M04 A2975 RMK SC3SC1CI1 SLP114

CYQF;2012-03-04 22:00;CYQF 042200Z 13008KT 15SM BKN015 OVC050 00/M04 A2972 RMK SC6SC1 SLP103

CYQF;2012-03-04 23:00;CYQF 042300Z 11008KT 15SM FEW015 BKN250 00/M04 A2969 RMK SC2CI2 SLP094

CYQF;2012-03-05 00:00;CYQF 050000Z 10003KT 15SM FEW015 BKN250 M01/M05 A2966 RMK SC1CI2 SLP085

CYQF;2012-03-05 01:00;CYQF 050100Z 08003KT 15SM FEW080 BKN250 M01/M05 A2964 RMK AC1CI2 SLP080

CYQF;2012-03-05 02:00;CYQF 050200Z 07003KT 15SM FEW250 M04/M06 A2962 RMK CI1 SLP074

CYQF;2012-03-05 03:00;CYQF 050300Z 04003KT 15SM OVC020 M03/M05 A2962 RMK SC8 SLP073

CYQF;2012-03-05 04:00;CYQF 050400Z 01008KT 15SM OVC020 M02/M05 A2963 RMK SC8 SLP077

CYQF;2012-03-05 05:00;CYQF 050500Z 01011KT 15SM OVC020 M02/M04 A2964 RMK SC8 SLP080

CYQF;2012-03-05 06:00;CYQF 050600Z 03012KT 15SM DRSN OVC020 M02/M06 A2966 RMK SC8 SLP087

CYQF;2012-03-05 06:19;CYQF 050619Z 04012G17KT 15SM -SN DRSN OVC020 RMK SC8

CYQF;2012-03-05 07:00;CYQF 050700Z 04010G15KT 12SM -SN DRSN OVC015 M03/M05 A2968 RMK SC8 SLP091

CYQF;2012-03-05 07:34;CYQF 050734Z 04006KT 2SM -SN VV008 RMK SN8

CYQF;2012-03-05 08:00;CYQF 050800Z 05006KT 2SM -SN VV008 M03/M04 A2968 RMK SN8 SLP091

CYQF;2012-03-05 09:00;CYQF 050900Z 04003KT 2SM -SN VV008 M03/M04 A2968 RMK SN8 /S01/ SLP092

CYQF;2012-03-05 10:00;CYQF 051000Z 05005KT 2SM -SN VV008 M03/M04 A2967 RMK SN8 SLP088

CYQF;2012-03-05 10:39;CYQF 051039Z 05004KT 3SM -SN OVC015 RMK SC8

CYQF;2012-03-05 11:00;CYQF 051100Z 08003KT 2 1/2SM -SN OVC015 M04/M05 A2966 RMK SC8 VIS VRB 2-3 /S02/ SLP085

CYQF;2012-03-05 12:00;CYQF 051200Z 04003KT 2 1/2SM -SN OVC015 M04/M05 A2965 RMK SC8 VIS VRB 2-3 /S03/ SLP084

CYQF;2012-03-05 13:00;CYQF 051300Z 08004KT 2 1/2SM -SN OVC015 M04/M05 A2964 RMK SC8 VIS VRB 2-3 SLP080

CYQF;2012-03-05 14:00;CYQF 051400Z 07002KT 1 1/2SM -SN VV006 M04/M05 A2963 RMK SN8 VIS VRB 1-2 /S01/ SLP078

CYQF;2012-03-05 15:00;CYQF 051500Z 11002KT 1 1/2SM -SN OVC011 M03/M05 A2963 RMK SN4SC4 VIS VRB 1-2 /S03/ SLP077

CYQF;2012-03-05 16:00;CYQF 051600Z 09003KT 2SM -SN OVC034 M03/M05 A2961 RMK SN4SC4 VIS VRB 1-3 SLP072

CYQF;2012-03-05 17:00;CYQF 051700Z 09006KT 2SM -SN OVC035 M03/M04 A2958 RMK SN4SC4 VIS VRB 1-3 /S04/ SLP063

CYQF;2012-03-05 17:44;CYQF 051744Z 07008KT 3/4SM -SN VV010 RMK SN8 VIS VRB 1/2-1 /S04/

CYQF;2012-03-05 18:00;CYQF 051800Z 07010KT 3/4SM -SN VV010 M03/M04 A2956 RMK SN8 VIS VRB 1/2-1 /S04/ SLP053

CYQF;2012-03-05 19:00;CYQF 051900Z 07008KT 3/4SM -SN VV015 M02/M04 A2955 RMK SN8 VIS VRB 1/2-1 /S01/ SLP048

CYQF;2012-03-05 19:12;CYQF 051912Z 08006KT 2SM -SN OVC025 RMK SN4SC4 VIS VRB 1-3 /S01/

CYQF;2012-03-05 19:31;CYQF 051931Z 07006KT 5SM -SN OVC020 RMK SN2SC6 VIS S 10 VIS N 3 /S01/

CYQF;2012-03-05 19:51;CYQF 051951Z 07012KT 2SM -SN OVC030 RMK SN4SC4 /S01/

CYQF;2012-03-05 20:00;CYQF 052000Z 08010KT 1 1/2SM -SN OVC030 M02/M04 A2951 RMK SN5SC3 VIS VRB 1-2 SLP037

CYQF;2012-03-05 21:00;CYQF 052100Z 06011KT 1 1/2SM -SN OVC030 M03/M04 A2949 RMK SN5SC3 VIS VRB 1-2 SLP028

CYQF;2012-03-05 22:00;CYQF 052200Z 05010G15KT 2SM -SN OVC030 M03/M04 A2947 RMK SN4SC4 VIS VRB 1-3 SLP023

CYQF;2012-03-05 23:00;CYQF 052300Z 05012KT 1 1/2SM -SN OVC030 M03/M04 A2946 RMK SN4SC4 VIS VRB 1-2 SLP019

CYQF;2012-03-05 23:31;CYQF 052331Z 04008KT 3/4SM -SN VV008 RMK SN8 VIS VRB 1/2-1

CYQF;2012-03-06 00:00;CYQF 060000Z 03010KT 3/4SM -SN VV008 M03/M04 A2947 RMK SN8 VIS VRB 1/2-1 /S03/ SLP025

CYQF;2012-03-06 01:00;CYQF 060100Z 05013G18KT 1/2SM -SN BLSN VV007 M04/M05 A2948 RMK SN8 VIS VRB 1/4-3/4 SLP027

CYQF;2012-03-06 01:48;CYQF 060148Z 05014KT 3/4SM -SN BLSN VV008 RMK SN8 VIS VRB 1/2-1

CYQF;2012-03-06 02:00;CYQF 060200Z 04012G18KT 3/4SM -SN BLSN VV008 M04/M05 A2951 RMK SN8 VIS VRB 1/2-1 /S01/ SLP035

CYQF;2012-03-06 03:00;CYQF 060300Z 03015KT 3/4SM -SN VV008 M05/M06 A2951 RMK SN8 VIS VRB 1/2-1 OCNL BLSN SLP038

CYQF;2012-03-06 04:00;CYQF 060400Z 03014KT 3/4SM -SN DRSN VV008 M05/M06 A2951 RMK SN8 VIS VRB 1/2-1 OCNL BLSN /S02/ SLP040

CYQF;2012-03-06 05:00;CYQF 060500Z 02012KT 1SM -SN DRSN OVC015 M05/M06 A2952 RMK SN5SC3 SLP043

CYQF;2012-03-06 06:00;CYQF 060600Z 02010KT 1 1/2SM -SN DRSN OVC015 M05/M06 A2955 RMK SN4SC4 /S07/ VIS VRB 1-2 SLP051

CYQF;2012-03-06 07:00;CYQF 060700Z 36012KT 1 1/2SM -SN DRSN OVC015 M06/M07 A2956 RMK SN4SC4 VIS VRB 1-2 SLP055

CYQF;2012-03-06 08:00;CYQF 060800Z 01013KT 1 1/2SM -SN DRSN OVC015 M06/M07 A2958 RMK SN4SC4 VIS VRB 1-2 /S01/ SLP062

CYQF;2012-03-06 09:00;CYQF 060900Z 36012KT 1 1/2SM -SN DRSN OVC015 M06/M08 A2961 RMK SN3SC5 SLP074

CYQF;2012-03-06 10:00;CYQF 061000Z 36013KT 1SM -SN DRSN OVC015 M07/M08 A2962 RMK SN6SC2 VIS VRB 3/4-11/4 SLP079

CYQF;2012-03-06 11:00;CYQF 061100Z 35011KT 1 1/2SM -SN DRSN OVC015 M07/M08 A2964 RMK SN4SC4 VIS VRB 1-2 SLP085

CYQF;2012-03-06 12:00;CYQF 061200Z 34012KT 1 1/2SM -SN DRSN OVC015 M07/M08 A2968 RMK SN4SC4 VIS VRB 1-2 SLP101

CYQF;2012-03-06 13:00;CYQF 061300Z 34015KT 1 1/2SM -SN DRSN OVC015 M07/M08 A2971 RMK SN4SC4 VIS VRB 1-2 SLP111

CYQF;2012-03-06 14:00;CYQF 061400Z 32012G19KT 2SM -SN DRSN OVC015 M09/M11 A2976 RMK SN2SC6 VIS VRB 1-3 SLP126

CYQF;2012-03-06 14:07;CYQF 061407Z 32010G15KT 4SM -SN DRSN OVC015 RMK SC8

CYQF;2012-03-06 15:00;CYQF 061500Z 33012G18KT 3SM -SN BLSN OVC100 M10/M13 A2979 RMK AC8 VIS VRB 2-4 SLP144

CYQF;2012-03-06 16:00;CYQF 061600Z 32013G19KT 3SM -SN BLSN OVC100 M10/M13 A2981 RMK AC8 VIS VRB 2-4 SLP151

CYQF;2012-03-06 17:00;CYQF 061700Z 32012G17KT 3SM -SN BLSN OVC100 M10/M13 A2984 RMK AS8 VIS VRB 2-4 SLP160

CYQF;2012-03-06 18:00;CYQF 061800Z 31010G15KT 3SM -SN BLSN FEW010 OVC100 M10/M13 A2986 RMK SC1AS6 VIS VRB 2-4 /S02/ SLP168

CYQF;2012-03-06 18:27;CYQF 061827Z 32010KT 7SM DRSN FEW010 BKN100 RMK SC1AC4

CYQF;2012-03-06 19:00;CYQF 061900Z 31010KT 5SM IC FEW012 BKN220 M10/M13 A2988 RMK SC2CI2 SLP174

CYQF;2012-03-06 19:46;CYQF 061946Z 29006KT 15SM FEW016 FEW220 RMK SC1CI1

CYQF;2012-03-06 20:00;CYQF 062000Z 29006KT 15SM FEW015 FEW220 M09/M13 A2988 RMK CF1CI2 SLP174

CYQF;2012-03-06 21:00;CYQF 062100Z 29002KT 15SM FEW100 BKN250 M09/M13 A2986 RMK AC1CI4 SLP170

CYQF;2012-03-06 22:00;CYQF 062200Z 26002KT 15SM FEW100 BKN250 M06/M11 A2985 RMK AC1CI3 SLP166

CYQF;2012-03-06 23:00;CYQF 062300Z 16005KT 15SM FEW100 BKN250 M09/M13 A2985 RMK AC2CI2 SLP164

CYQF;2012-03-07 00:00;CYQF 070000Z 15005KT 15SM SCT100 BKN250 M09/M14 A2985 RMK AC3CI0 SLP166

CYQF;2012-03-07 01:00;CYQF 070100Z 18005KT 15SM FEW100 BKN250 M12/M15 A2985 RMK AC2CI2 SLP168

CYQF;2012-03-07 02:00;CYQF 070200Z 20006KT 15SM SCT250 M14/M16 A2986 RMK CI2 SLP170

CYQF;2012-03-07 03:00;CYQF 070300Z 19008KT 15SM SCT250 M14/M17 A2985 RMK CI2 SLP174

CYQF;2012-03-07 04:00;CYQF 070400Z 20005KT 15SM FEW120 FEW250 M14/M15 A2984 RMK AC1CI0 SLP173

CYQF;2012-03-07 05:00;CYQF 070500Z 20005KT 15SM FEW120 FEW250 M15/M16 A2982 RMK AC1CI0 SLP167

CYQF;2012-03-07 06:00;CYQF 070600Z 19004KT 15SM FEW120 BKN250 M15/M17 A2982 RMK AC1CI1 SLP166

CYQF;2012-03-07 07:00;CYQF 070700Z 19004KT 15SM FEW250 M15/M16 A2979 RMK CI1 AURBO SLP157

CYQF;2012-03-07 08:00;CYQF 070800Z 00000KT 15SM SCT120 M16/M17 A2979 RMK AC2 SLP158

CYQF;2012-03-07 09:00;CYQF 070900Z 19005KT 15SM BKN120 M18/M19 A2979 RMK AC5 SLP157

CYQF;2012-03-07 10:00;CYQF 071000Z 19003KT 15SM FEW120 BKN250 M17/M18 A2978 RMK AC2CI2 SLP155

CYQF;2012-03-07 11:00;CYQF 071100Z 17004KT 15SM FEW120 BKN250 M16/M18 A2978 RMK AC2CI2 SLP154

CYQF;2012-03-07 12:00;CYQF 071200Z 20004KT 15SM FEW120 BKN250 M14/M16 A2980 RMK AC2CI2 SLP159

CYQF;2012-03-07 13:00;CYQF 071300Z 18003KT 15SM -SN SCT040 BKN100 BKN250 M13/M15 A2982 RMK SC4AC2CI1 SLP165

CYQF;2012-03-07 13:32;CYQF 071332Z 19004KT 2SM -SN OVC030 RMK SC8

CYQF;2012-03-07 14:00;CYQF 071400Z 21005KT 1 1/2SM -SN OVC030 M12/M14 A2983 RMK SN2SC6 VIS VRB 1-2 SLP168

CYQF;2012-03-07 14:47;CYQF 071447Z 20007KT 3SM -SN OVC030 RMK SC8

CYQF;2012-03-07 15:00;CYQF 071500Z 20006KT 3SM -SN OVC030 M11/M13 A2984 RMK SC8 SLP173

CYQF;2012-03-07 16:00;CYQF 071600Z 19006KT 10SM -SN OVC040 M09/M11 A2984 RMK SC8 SLP174

CYQF;2012-03-07 17:00;CYQF 071700Z 23009KT 15SM -SN BKN040 OVC090 M06/M09 A2985 RMK SC6AC2 SLP176

CYQF;2012-03-07 17:37;CYQF 071737Z 22008KT 15SM OVC070 RMK AC8

CYQF;2012-03-07 18:00;CYQF 071800Z 23007KT 15SM OVC070 M05/M08 A2987 RMK AC8 SLP177

CYQF;2012-03-07 19:00;CYQF 071900Z 26009KT 15SM BKN070 M02/M07 A2988 RMK AC7 SLP180

CYQF;2012-03-07 20:00;CYQF 072000Z 29008KT 15SM BKN050 BKN250 M00/M07 A2988 RMK SC6CI0 SLP182

CYQF;2012-03-07 21:00;CYQF 072100Z 26005KT 15SM BKN050 01/M06 A2989 RMK SC7 SLP181

CYQF;2012-03-07 22:00;CYQF 072200Z 22005KT 15SM BKN050 BKN250 02/M07 A2989 RMK SC5CI1 SLP181

CYQF;2012-03-07 23:00;CYQF 072300Z 25005KT 15SM FEW030 BKN250 02/M05 A2990 RMK SC2CI1 SLP184

CYQF;2012-03-08 00:00;CYQF 080000Z 22006KT 15SM FEW030 SCT250 00/M06 A2991 RMK SC1CI1 SLP183

CYQF;2012-03-08 01:00;CYQF 080100Z 22006KT 15SM FEW030 FEW250 M02/M08 A2992 RMK SC1CI1 SLP188

CYQF;2012-03-08 02:00;CYQF 080200Z 00000KT 15SM FEW030 FEW250 M05/M10 A2994 RMK SC1CI1 SLP194

CYQF;2012-03-08 03:00;CYQF 080300Z 22008KT 15SM FEW250 M07/M11 A2995 RMK CI0 SLP205

CYQF;2012-03-08 04:00;CYQF 080400Z 16003KT 15SM FEW050 M06/M11 A2998 RMK SC1 SLP212

CYQF;2012-03-08 05:00;CYQF 080500Z 22006KT 15SM FEW050 M08/M13 A3000 RMK SC1 SLP220

CYQF;2012-03-08 06:00;CYQF 080600Z 24006KT 15SM FEW050 SCT250 M09/M13 A3002 RMK SC1CI1 SLP222

CYQF;2012-03-08 07:00;CYQF 080700Z 24008KT 15SM FEW250 M06/M11 A3003 RMK CI1 SLP226

CYQF;2012-03-08 08:00;CYQF 080800Z 24009KT 15SM BKN070 M04/M09 A3004 RMK AC3 SLP229

CYQF;2012-03-08 09:00;CYQF 080900Z 22008KT 15SM BKN090 M08/M12 A3005 RMK AC2 SLP224

CYQF;2012-03-08 10:00;CYQF 081000Z 19002KT 15SM BKN090 M08/M12 A3005 RMK AC5 SLP226

CYQF;2012-03-08 11:00;CYQF 081100Z 20006KT 15SM BKN090 M08/M12 A3005 RMK AC5 SLP224

CYQF;2012-03-08 12:00;CYQF 081200Z 18005KT 15SM FEW090 BKN220 M09/M12 A3006 RMK AC2CI1 SLP230

CYQF;2012-03-08 13:00;CYQF 081300Z 00000KT 15SM SCT220 M08/M11 A3007 RMK CI2 SLP234

CYQF;2012-03-08 14:00;CYQF 081400Z 20003KT 15SM FEW090 BKN220 M11/M13 A3006 RMK AC1CI3 SLP231

CYQF;2012-03-08 15:00;CYQF 081500Z 00000KT 15SM FEW090 BKN220 M09/M12 A3008 RMK AC2CI2 SLP245

CYQF;2012-03-08 16:00;CYQF 081600Z 00000KT 15SM FEW090 BKN220 M08/M12 A3009 RMK AC1CI5 SLP249

CYQF;2012-03-08 17:00;CYQF 081700Z 17002KT 15SM SCT090 BKN250 M05/M10 A3009 RMK AC4CC3 SLP248

CYQF;2012-03-08 18:00;CYQF 081800Z 00000KT 15SM SCT100 BKN250 M03/M08 A3008 RMK AC3CI2 SLP243

CYQF;2012-03-08 19:00;CYQF 081900Z 22002KT 15SM FEW100 BKN250 00/M07 A3008 RMK AC1CI4 SLP243

CYQF;2012-03-08 20:00;CYQF 082000Z 00000KT 15SM FEW100 BKN250 01/M07 A3008 RMK AC2CI2 SLP242

CYQF;2012-03-08 21:00;CYQF 082100Z 09003KT 15SM FEW100 BKN250 02/M07 A3007 RMK AC1CI2 SLP231

CYQF;2012-03-08 22:00;CYQF 082200Z 08005KT 15SM FEW035 FEW100 BKN250 03/M05 A3005 RMK CU1AC1CI4 SLP224

CYQF;2012-03-08 23:00;CYQF 082300Z 14004KT 15SM FEW100 BKN250 02/M06 A3004 RMK AC2CI2 SLP220

CYQF;2012-03-09 00:00;CYQF 090000Z 14008KT 15SM FEW100 BKN250 01/M07 A3003 RMK AC2CI2 SLP219

CYQF;2012-03-09 01:00;CYQF 090100Z 16004KT 15SM FEW120 OVC250 M01/M06 A3001 RMK AC2CI5 SLP214

CYQF;2012-03-09 02:00;CYQF 090200Z 00000KT 15SM BKN210 M03/M06 A2999 RMK CI6 SLP206

CYQF;2012-03-09 03:00;CYQF 090300Z 00000KT 15SM OVC210 M04/M07 A2997 RMK CI8 SLP205

CYQF;2012-03-09 04:00;CYQF 090400Z 00000KT 15SM OVC150 M03/M06 A2996 RMK AC8 SLP202

CYQF;2012-03-09 05:00;CYQF 090500Z 00000KT 15SM OVC150 M03/M06 A2994 RMK AC8 SLP193

CYQF;2012-03-09 06:00;CYQF 090600Z 18005KT 15SM OVC150 M02/M05 A2991 RMK AC8 SLP173

CYQF;2012-03-09 07:00;CYQF 090700Z 20004KT 15SM OVC120 M00/M03 A2988 RMK AC8 SLP164

CYQF;2012-03-09 08:00;CYQF 090800Z 18008KT 15SM OVC120 04/M03 A2985 RMK AC8 SLP155

CYQF;2012-03-09 09:00;CYQF 090900Z 18005KT 15SM OVC120 04/M02 A2983 RMK AC8 SLP135

CYQF;2012-03-09 10:00;CYQF 091000Z 19004KT 15SM OVC100 04/M02 A2980 RMK AC8 SLP126

CYQF;2012-03-09 11:00;CYQF 091100Z 19010KT 15SM OVC100 04/M03 A2976 RMK AC8 SLP112

CYQF;2012-03-09 12:00;CYQF 091200Z 22012KT 15SM BKN100 OVC250 05/M04 A2975 RMK AC6CI2 SLP105

CYQF;2012-03-09 13:00;CYQF 091300Z 22011KT 15SM BKN100 BKN250 04/M05 A2973 RMK AC5CI1 SLP100

CYQF;2012-03-09 14:00;CYQF 091400Z 24013KT 15SM BKN100 BKN250 01/M05 A2971 RMK AC5CI2 SLP093

CYQF;2012-03-09 15:00;CYQF 091500Z 18010KT 15SM SCT100 BKN250 01/M06 A2971 RMK AC3CI3 SLP101

CYQF;2012-03-09 16:00;CYQF 091600Z 20010KT 15SM FEW100 BKN250 01/M07 A2969 RMK AC2CI2 SLP095

CYQF;2012-03-09 17:00;CYQF 091700Z 22007KT 15SM FEW100 BKN250 05/M06 A2968 RMK AC2CI4 SLP094

CYQF;2012-03-09 18:00;CYQF 091800Z 22004KT 15SM FEW100 BKN250 05/M03 A2967 RMK AC2CI3 SLP081

CYQF;2012-03-09 19:00;CYQF 091900Z 18006KT 15SM FEW100 BKN250 06/M03 A2965 RMK AC1CI6 SLP076

CYQF;2012-03-09 20:00;CYQF 092000Z 20006KT 15SM BKN250 06/M03 A2963 RMK CI6 SLP069

CYQF;2012-03-09 21:00;CYQF 092100Z 21005KT 15SM BKN250 07/M02 A2964 RMK CI6 SLP062

CYQF;2012-03-09 22:00;CYQF 092200Z 23008KT 15SM BKN250 08/M02 A2963 RMK CC6 SLP059

CYQF;2012-03-09 23:00;CYQF 092300Z 22005KT 15SM FEW250 10/M03 A2962 RMK CI2 SLP056

CYQF;2012-03-10 00:00;CYQF 100000Z 23012KT 15SM FEW250 09/M03 A2959 RMK CI2 SLP042

CYQF;2012-03-10 01:00;CYQF 100100Z 23010G15KT 15SM BKN250 09/M03 A2961 RMK CI2 SLP049

CYQF;2012-03-10 02:00;CYQF 100200Z 23015G22KT 15SM FEW120 BKN250 08/M03 A2961 RMK AC2CI1 SLP048

CYQF;2012-03-10 03:00;CYQF 100300Z 22010G15KT 15SM FEW250 05/M02 A2962 RMK CI2 SLP062

CYQF;2012-03-10 04:00;CYQF 100400Z 20006KT 15SM FEW250 05/M03 A2963 RMK CI1 SLP063

CYQF;2012-03-10 05:00;CYQF 100500Z 20010KT 15SM FEW250 03/M03 A2962 RMK CI1 SLP061

CYQF;2012-03-10 06:00;CYQF 100600Z 23007KT 15SM FEW250 00/M04 A2963 RMK CI1 SLP064

CYQF;2012-03-10 07:00;CYQF 100700Z 28004KT 15SM SCT250 M02/M05 A2963 RMK CI2 SLP066

CYQF;2012-03-10 08:00;CYQF 100800Z 21008KT 15SM BKN250 M03/M07 A2964 RMK CI4 SLP067

CYQF;2012-03-10 09:00;CYQF 100900Z 17006KT 15SM OVC250 M01/M06 A2965 RMK CS6 SLP071

CYQF;2012-03-10 10:00;CYQF 101000Z 03004KT 15SM BKN250 M03/M06 A2965 RMK CS5 SLP071

CYQF;2012-03-10 11:00;CYQF 101100Z 34003KT 15SM BKN250 M03/M06 A2964 RMK CI4 SLP069

CYQF;2012-03-10 12:00;CYQF 101200Z 02008KT 15SM BKN250 M03/M06 A2963 RMK CI3 SLP063

CYQF;2012-03-10 13:00;CYQF 101300Z 36008KT 15SM FEW120 SCT250 M04/M07 A2963 RMK AC2CI1 SLP064

CYQF;2012-03-10 14:00;CYQF 101400Z 03008KT 15SM FEW080 BKN120 BKN250 M01/M06 A2962 RMK AC2AC3CI1 SLP062

CYQF;2012-03-10 15:00;CYQF 101500Z 06010KT 15SM SCT100 BKN250 01/M06 A2963 RMK AC3CI4 SLP064

CYQF;2012-03-10 16:00;CYQF 101600Z 05007KT 15SM FEW025 SCT100 BKN250 01/M05 A2963 RMK CU2AC2CI2 BLLN INDICATES STG E FLO 300FT AGL SLP065

CYQF;2012-03-10 17:00;CYQF 101700Z 06005KT 15SM FEW032 SCT100 03/M05 A2963 RMK SC2AC2 CU SLP064

CYQF;2012-03-10 18:00;CYQF 101800Z 09006KT 15SM FEW030 BKN100 03/M05 A2964 RMK SC2AC2 SLP070

CYQF;2012-03-10 19:00;CYQF 101900Z 10010G15KT 15SM FEW030 FEW100 04/M06 A2962 RMK SC1AC1 SLP066

CYQF;2012-03-10 20:00;CYQF 102000Z 09010KT 15SM FEW030 FEW080 FEW250 04/M06 A2960 RMK SC1AC2CI1 SLP060

CYQF;2012-03-10 21:00;CYQF 102100Z 08010G15KT 15SM FEW040 BKN080 04/M06 A2959 RMK SC1AC5 SLP054

CYQF;2012-03-10 22:00;CYQF 102200Z 09012KT 15SM FEW040 FEW080 SCT250 04/M06 A2956 RMK SC1AC1CI1 SC TR SLP046

CYQF;2012-03-10 23:00;CYQF 102300Z 10012KT 15SM FEW040 BKN250 04/M05 A2955 RMK SC1CI2 SLP043

CYQF;2012-03-11 00:00;CYQF 110000Z 12010KT 15SM FEW040 SCT100 BKN250 04/M05 A2954 RMK SC1AC2CI3 SLP038

CYQF;2012-03-11 01:00;CYQF 110100Z 09003KT 15SM FEW040 FEW100 BKN250 02/M05 A2953 RMK SC1AC1CI2 SLP034

CYQF;2012-03-11 02:00;CYQF 110200Z 10004KT 15SM FEW040 BKN250 01/M05 A2951 RMK SC1CI2 SLP030

CYQF;2012-03-11 03:00;CYQF 110300Z 00000KT 15SM SKC M01/M05 A2951 RMK SLP029

CYQF;2012-03-11 04:00;CYQF 110400Z 18004KT 15SM SKC M02/M06 A2950 RMK SLP026

CYQF;2012-03-11 05:00;CYQF 110500Z 00000KT 15SM SKC M02/M06 A2949 RMK SLP023

CYQF;2012-03-11 06:00;CYQF 110600Z 22003KT 15SM SKC M04/M08 A2948 RMK SLP022

CYQF;2012-03-11 07:00;CYQF 110700Z 20004KT 15SM SKC M06/M08 A2948 RMK SLP020

CYQF;2012-03-11 08:00;CYQF 110800Z 17004KT 15SM FEW250 M06/M08 A2947 RMK CI1 SLP019

CYQF;2012-03-11 09:00;CYQF 110900Z 00000KT 15SM FEW250 M08/M09 A2947 RMK CI1 SLP022

CYQF;2012-03-11 10:00;CYQF 111000Z 21002KT 15SM FEW250 M07/M09 A2947 RMK CI1 SLP020

CYQF;2012-03-11 11:00;CYQF 111100Z 00000KT 15SM SCT250 M08/M09 A2946 RMK CI1 SLP016

CYQF;2012-03-11 12:00;CYQF 111200Z 00000KT 15SM SCT250 M09/M09 A2945 RMK CI2 SLP014

CYQF;2012-03-11 13:00;CYQF 111300Z 06004KT 15SM BKN250 M08/M09 A2943 RMK CI2 SLP009

CYQF;2012-03-11 14:00;CYQF 111400Z 00000KT 15SM SCT100 BKN250 M08/M09 A2940 RMK AC0CI1 BR OVR RVR W-NW SLP999

CYQF;2012-03-11 15:00;CYQF 111500Z 16002KT 15SM FEW100 SCT250 M08/M10 A2939 RMK AC1CI2 SLP997

CYQF;2012-03-11 16:00;CYQF 111600Z 12003KT 15SM BKN250 M06/M08 A2936 RMK CI5 CC SLP990

CYQF;2012-03-11 17:00;CYQF 111700Z 11003KT 15SM BKN250 00/M06 A2935 RMK CI2 SLP985

CYQF;2012-03-11 18:00;CYQF 111800Z 16008KT 15SM FEW100 BKN250 03/M04 A2932 RMK AC1CI2 CC SLP964

CYQF;2012-03-11 19:00;CYQF 111900Z 14005KT 15SM FEW100 BKN250 04/M02 A2928 RMK AC2CI5 SLP953

CYQF;2012-03-11 20:00;CYQF 112000Z 15010KT 15SM FEW100 BKN250 06/M01 A2926 RMK AC2CI5 SLP945

CYQF;2012-03-11 21:00;CYQF 112100Z 17010KT 15SM FEW030 FEW100 BKN250 07/M01 A2923 RMK CU1AC2CI6 SLP933

CYQF;2012-03-11 22:00;CYQF 112200Z 17007KT 15SM FEW030 BKN100 BKN250 06/M01 A2920 RMK CU1AC4CI2 SLP923

CYQF;2012-03-11 23:00;CYQF 112300Z 16010KT 15SM FEW032 BKN250 07/M01 A2918 RMK CU1CI6 SLP917

CYQF;2012-03-12 00:00;CYQF 120000Z 16006KT 15SM FEW030 BKN250 07/M00 A2916 RMK SC2CI3 SLP912

CYQF;2012-03-12 01:00;CYQF 120100Z 15006KT 15SM FEW030 FEW100 BKN250 06/M00 A2915 RMK SC1AC2CI1 SLP908

CYQF;2012-03-12 02:00;CYQF 120200Z 21005KT 15SM SCT080 BKN250 03/M01 A2914 RMK AC3CI1 SLP906

CYQF;2012-03-12 03:00;CYQF 120300Z 26006KT 15SM FEW080 BKN250 02/M02 A2916 RMK AC2CI2 SLP917

CYQF;2012-03-12 04:00;CYQF 120400Z 32015G20KT 15SM OVC150 03/M02 A2922 RMK AC8 SLP933

CYQF;2012-03-12 05:00;CYQF 120500Z 30015G22KT 15SM FEW010 OVC140 02/M00 A2925 RMK SF1AC8 SLP943

CYQF;2012-03-12 06:00;CYQF 120600Z 32014G20KT 15SM FEW010 OVC120 03/M03 A2928 RMK SF1AC8 SLP942

CYQF;2012-03-12 07:00;CYQF 120700Z 25005KT 15SM OVC120 02/M02 A2930 RMK AC8 SLP948

CYQF;2012-03-12 08:00;CYQF 120800Z 25008KT 15SM OVC120 01/M02 A2933 RMK AC8 SLP959

CYQF;2012-03-12 09:00;CYQF 120900Z 27007KT 15SM SCT120 M00/M03 A2936 RMK AC4 SLP972

CYQF;2012-03-12 10:00;CYQF 121000Z 27008KT 15SM SCT120 M01/M05 A2939 RMK AC3 SLP980

CYQF;2012-03-12 11:00;CYQF 121100Z 23007KT 15SM FEW120 M03/M08 A2941 RMK AC2 SLP986

CYQF;2012-03-12 12:00;CYQF 121200Z 25006KT 15SM FEW120 M05/M12 A2945 RMK AC2 SLP006

CYQF;2012-03-12 13:00;CYQF 121300Z 23008KT 15SM FEW120 SCT250 M05/M14 A2946 RMK AC2CI1 SLP011

CYQF;2012-03-12 14:00;CYQF 121400Z 21007KT 15SM FEW120 M07/M14 A2948 RMK AC1 SLP016

CYQF;2012-03-12 15:00;CYQF 121500Z 23012KT 15SM SKC M04/M15 A2951 RMK SLP032

CYQF;2012-03-12 16:00;CYQF 121600Z 22008KT 15SM FEW240 M04/M13 A2951 RMK CI1 SLP031

CYQF;2012-03-12 17:00;CYQF 121700Z 18010KT 15SM FEW250 M00/M11 A2951 RMK CI1 SLP032

CYQF;2012-03-12 18:00;CYQF 121800Z 19009KT 15SM FEW250 02/M09 A2949 RMK CI1 SLP019

CYQF;2012-03-12 19:00;CYQF 121900Z 18020G25KT 15SM BKN250 03/M08 A2946 RMK CI2 SLP009

CYQF;2012-03-12 20:00;CYQF 122000Z 18015G20KT 15SM BKN250 04/M07 A2943 RMK CI2 SLP000

CYQF;2012-03-12 21:00;CYQF 122100Z 17015G20KT 15SM BKN250 04/M07 A2939 RMK CI4 SLP985

CYQF;2012-03-12 22:00;CYQF 122200Z 18015G22KT 15SM BKN250 04/M06 A2937 RMK CI5 SLP977

CYQF;2012-03-12 23:00;CYQF 122300Z 16015G20KT 15SM BKN250 05/M06 A2933 RMK CI6 SLP964

CYQF;2012-03-13 00:00;CYQF 130000Z 18015G20KT 15SM BKN250 04/M05 A2930 RMK CI6 SLP959

CYQF;2012-03-13 01:00;CYQF 130100Z 18010KT 15SM BKN250 02/M05 A2929 RMK CI6 SLP955

CYQF;2012-03-13 02:00;CYQF 130200Z 20015G20KT 15SM BKN250 03/M07 A2929 RMK CI6 SLP954

CYQF;2012-03-13 03:00;CYQF 130300Z 21014G22KT 15SM BKN250 03/M07 A2927 RMK CI6 SLP949

CYQF;2012-03-13 04:00;CYQF 130400Z 18015G20KT 15SM OVC250 02/M07 A2927 RMK CI8 SLP948

CYQF;2012-03-13 05:00;CYQF 130500Z 19016KT 15SM SCT250 01/M07 A2925 RMK CI2 SLP941

CYQF;2012-03-13 06:00;CYQF 130600Z 16012KT 15SM BKN250 M00/M07 A2923 RMK CI3 SLP932

CYQF;2012-03-13 07:00;CYQF 130700Z 17008KT 15SM SKC M01/M07 A2920 RMK SLP922

CYQF;2012-03-13 08:00;CYQF 130800Z 16008KT 15SM BKN250 M01/M07 A2919 RMK CI2 SLP918

CYQF;2012-03-13 09:00;CYQF 130900Z 16008KT 15SM BKN250 M01/M06 A2916 RMK CI3 SLP906

CYQF;2012-03-13 10:00;CYQF 131000Z 18006KT 15SM BKN250 M01/M06 A2914 RMK CI2 SLP900

CYQF;2012-03-13 11:00;CYQF 131100Z 17012KT 15SM BKN250 00/M05 A2909 RMK CI3 SLP885

CYQF;2012-03-13 12:00;CYQF 131200Z 18012KT 15SM BKN250 01/M04 A2906 RMK CI3 SLP868

CYQF;2012-03-13 13:00;CYQF 131300Z 16014KT 15SM SCT120 BKN250 01/M04 A2903 RMK AC3CI2 SLP857

CYQF;2012-03-13 14:00;CYQF 131400Z 17015G20KT 15SM SCT120 BKN250 01/M03 A2900 RMK AC3CI2 SLP849

CYQF;2012-03-13 15:00;CYQF 131500Z 17018G25KT 15SM SCT100 BKN250 02/M03 A2897 RMK AC4CI2 SLP838

CYQF;2012-03-13 16:00;CYQF 131600Z 17018G28KT 15SM FEW100 BKN250 02/M02 A2896 RMK AC2CI2 SLP833

CYQF;2012-03-13 17:00;CYQF 131700Z 17015G20KT 15SM FEW100 SCT250 05/M01 A2894 RMK AC2CI1 SLP829

CYQF;2012-03-13 18:00;CYQF 131800Z 21010G15KT 15SM FEW040 BKN090 BKN250 04/M01 A2895 RMK SC1AC3CI2 SLP830

CYQF;2012-03-13 19:00;CYQF 131900Z 22010G15KT 15SM FEW025 BKN060 BKN250 05/M01 A2895 RMK SC1SC5CI1 SLP829

CYQF;2012-03-13 20:00;CYQF 132000Z 33013G20KT 15SM FEW025 BKN060 BKN250 04/M03 A2903 RMK SC1SC5CI2 SLP854

CYQF;2012-03-13 21:00;CYQF 132100Z 31016G22KT 15SM VCSH FEW025 BKN060 03/M02 A2906 RMK SC2SC5 SLP873

CYQF;2012-03-13 22:00;CYQF 132200Z 30010KT 3SM -SHGS BKN025 OVC060 02/M01 A2908 RMK SC6SC2 VIS E-SE 5 VIS NW-N 2 SLP877

CYQF;2012-03-13 22:03;CYQF 132203Z 33008KT 1 1/2SM -SHGS OVC025 RMK SN3SC5

CYQF;2012-03-13 22:18;CYQF 132218Z 00000KT 3SM -SHGS OVC025 RMK SN2SC6

CYQF;2012-03-13 22:28;CYQF 132228Z 29004KT 3/4SM -SHSN VV010 RMK SN8

CYQF;2012-03-13 22:52;CYQF 132252Z 09003KT 6SM -SHSN FEW015 BKN025 RMK SF1SC6 VIS SE-SW 2 CU ASOCTD

CYQF;2012-03-13 23:00;CYQF 132300Z 11007KT 6SM -SHSN FEW015 BKN025 01/M01 A2910 RMK SF1SC6 VIS E-SW 2 CU ASOCTD /S01/ SLP885

CYQF;2012-03-13 23:12;CYQF 132312Z 17004KT 15SM VCSH FEW015 BKN025 RMK SF1SC6 CU ASOCTD

CYQF;2012-03-14 00:00;CYQF 140000Z 18008KT 15SM FEW015 BKN025 01/M01 A2917 RMK SF1SC6 SLP911

CYQF;2012-03-14 00:08;CYQF 140008Z 21010KT 3SM -SHSN FEW015 OVC025 RMK SF1SC7 VIS W-NW 2 VIS SE 10

CYQF;2012-03-14 00:13;CYQF 140013Z 22010KT 1/2SM SHGS VV010 RMK SN8

CYQF;2012-03-14 00:16;CYQF 140016Z CCA 24010KT 1/2SM SHSN VV010 RMK SN8 REGS

CYQF;2012-03-14 00:21;CYQF 140021Z 34010G15KT 1/8SM +SHSN VV007 RMK SN8 WND SHFT

CYQF;2012-03-14 00:25;CYQF 140025Z 31010KT 1/4SM +SHSN VV011 RMK SN8 /S01/

CYQF;2012-03-14 00:30;CYQF 140030Z 35010G15KT 3/4SM -SHSN VV010 RMK SN8 RESN

CYQF;2012-03-14 00:32;CYQF 140032Z 01015G20KT 1 1/2SM -SHSN OVC025 RMK SN5SC3

CYQF;2012-03-14 00:39;CYQF 140039Z 33007KT 3SM -SHSN FEW015 BKN025 RMK SF2SC6 CU ASOCTD RESN VIS W 15

CYQF;2012-03-14 00:49;CYQF 140049Z 33006KT 15SM FEW008 BKN025 BKN060 RMK SF1SC6SC1 SF TR CU ASOCTD RESN VIS SE-S 5 PRESRR

CYQF;2012-03-14 01:00;CYQF 140100Z 33008KT 15SM FEW008 BKN025 M01/M02 A2924 RMK SF2SC6 CB ASOCTD RESN PRESRR SLP931

CYQF;2012-03-14 01:49;CYQF 140149Z 26020G25KT 15SM FEW015 FEW025 BKN060 RMK SF1SC2SC5 WND SHFT

CYQF;2012-03-14 02:00;CYQF 140200Z 27020G27KT 15SM DRSN FEW015 FEW025 BKN060 M00/M05 A2928 RMK SF1SC2SC5 SLP944

CYQF;2012-03-14 03:00;CYQF 140300Z 26010G18KT 15SM BKN060 M01/M08 A2934 RMK SC7 SLP969

CYQF;2012-03-14 04:00;CYQF 140400Z 26010G15KT 15SM BKN060 M02/M10 A2940 RMK SC4 PRESRR SLP990

CYQF;2012-03-14 05:00;CYQF 140500Z 24008KT 15SM FEW060 M03/M12 A2944 RMK SC1 SLP002

CYQF;2012-03-14 06:00;CYQF 140600Z 26006KT 15SM SKC M04/M14 A2947 RMK SLP017

CYQF;2012-03-14 07:00;CYQF 140700Z 22008KT 15SM SKC M06/M13 A2949 RMK SLP022

CYQF;2012-03-14 08:00;CYQF 140800Z 23010KT 15SM SKC M07/M13 A2951 RMK SLP029

CYQF;2012-03-14 09:00;CYQF 140900Z 22012KT 15SM SKC M05/M14 A2953 RMK SLP039

CYQF;2012-03-14 10:00;CYQF 141000Z 23010KT 15SM SKC M07/M15 A2956 RMK SLP048

CYQF;2012-03-14 11:00;CYQF 141100Z 22012KT 15SM SKC M08/M15 A2956 RMK SLP049

CYQF;2012-03-14 12:00;CYQF 141200Z 24007KT 15SM SKC M08/M15 A2959 RMK SLP066

CYQF;2012-03-14 13:00;CYQF 141300Z 23010KT 15SM FEW250 M09/M16 A2961 RMK CI1 SLP072

CYQF;2012-03-14 14:00;CYQF 141400Z 22010KT 15SM BKN250 M08/M15 A2962 RMK CI2 SLP075

CYQF;2012-03-14 15:00;CYQF 141500Z 18003KT 15SM FEW050 BKN250 M07/M14 A2963 RMK SC1CI5 SLP082

CYQF;2012-03-14 16:00;CYQF 141600Z 24007KT 15SM FEW050 SCT120 BKN250 M07/M13 A2966 RMK SC1AC3CI3 SLP089

CYQF;2012-03-14 17:00;CYQF 141700Z 20005KT 15SM FEW050 SCT120 BKN250 M06/M11 A2967 RMK SC1AC3CI3 SLP094

CYQF;2012-03-14 18:00;CYQF 141800Z 21007KT 15SM FEW050 FEW120 BKN250 M02/M10 A2968 RMK SC1AC2CI3 SLP095

CYQF;2012-03-14 19:00;CYQF 141900Z 21008KT 15SM FEW060 FEW250 01/M11 A2967 RMK SC1CI1 SLP092

CYQF;2012-03-14 20:00;CYQF 142000Z 21012KT 15SM FEW060 02/M11 A2966 RMK SC1 SLP090

CYQF;2012-03-14 21:00;CYQF 142100Z 19011KT 15SM FEW050 FEW250 02/M11 A2966 RMK CU1CI1 TR CU SLP083

CYQF;2012-03-14 22:00;CYQF 142200Z 16010KT 15SM FEW050 FEW250 03/M09 A2964 RMK CU1CI1 TR CU SLP079

CYQF;2012-03-14 23:00;CYQF 142300Z 17010G15KT 15SM FEW050 SCT250 03/M08 A2963 RMK CU1CI1 SLP075

CYQF;2012-03-15 00:00;CYQF 150000Z 16010KT 15SM BKN250 02/M08 A2961 RMK CI2 SLP072

CYQF;2012-03-15 01:00;CYQF 150100Z 16008KT 15SM FEW120 BKN250 02/M09 A2960 RMK AC1CI2 SLP067

CYQF;2012-03-15 02:00;CYQF 150200Z 16011KT 15SM FEW120 BKN250 00/M09 A2957 RMK AC2CI2 OBS TAKEN +12 SLP060

CYQF;2012-03-15 03:00;CYQF 150300Z 18010G15KT 15SM FEW120 BKN250 01/M09 A2957 RMK AC2CI2 SLP057

CYQF;2012-03-15 04:00;CYQF 150400Z 19008KT 15SM SCT250 M02/M09 A2957 RMK CI2 SLP059

CYQF;2012-03-15 05:00;CYQF 150500Z 19008KT 15SM SCT250 M05/M10 A2957 RMK CI2 SLP058

CYQF;2012-03-15 06:00;CYQF 150600Z 00000KT 15SM SCT250 M04/M10 A2956 RMK CI2 SLP055

CYQF;2012-03-15 07:00;CYQF 150700Z 22006KT 15SM FEW250 M05/M11 A2957 RMK CI1 SLP058

CYQF;2012-03-15 08:00;CYQF 150800Z 19004KT 15SM FEW250 M05/M11 A2959 RMK CI1 SLP064

CYQF;2012-03-15 09:00;CYQF 150900Z 23006KT 15SM SKC M08/M12 A2961 RMK SLP071

CYQF;2012-03-15 10:00;CYQF 151000Z 19006KT 15SM SKC M09/M13 A2961 RMK SLP071

CYQF;2012-03-15 11:00;CYQF 151100Z 18007KT 15SM SKC M09/M13 A2962 RMK SLP074

CYQF;2012-03-15 12:00;CYQF 151200Z 18006KT 15SM SKC M10/M13 A2961 RMK SLP072

CYQF;2012-03-15 13:00;CYQF 151300Z 04002KT 15SM SCT250 M08/M12 A2959 RMK CI2 SLP067

CYQF;2012-03-15 14:00;CYQF 151400Z 16003KT 15SM FEW120 BKN250 M08/M12 A2960 RMK AC2CI2 SLP069

CYQF;2012-03-15 15:00;CYQF 151500Z 00000KT 15SM SCT120 BKN250 M06/M10 A2958 RMK AC3CI2 SLP061

CYQF;2012-03-15 16:00;CYQF 151600Z 16010G15KT 15SM BKN090 BKN250 M01/M08 A2956 RMK AC5CI2 SLP055

CYQF;2012-03-15 17:00;CYQF 151700Z 15010G15KT 15SM BKN090 BKN250 M00/M07 A2955 RMK AC5CI2 SLP049

CYQF;2012-03-15 18:00;CYQF 151800Z 16010KT 15SM FEW090 BKN250 02/M05 A2952 RMK AC2CI2 SLP035

CYQF;2012-03-15 19:00;CYQF 151900Z 15010KT 15SM FEW090 BKN250 05/M03 A2946 RMK AC2CI2 SLP018

CYQF;2012-03-15 20:00;CYQF 152000Z 15011KT 15SM FEW090 BKN250 07/M01 A2942 RMK AC2CI3 SLP004

CYQF;2012-03-15 21:00;CYQF 152100Z 14010G15KT 15SM BKN120 BKN250 08/M01 A2939 RMK AS6CI2 SLP987

CYQF;2012-03-15 22:00;CYQF 152200Z 14010G15KT 15SM BKN120 BKN250 08/M01 A2933 RMK AS6CI2 SLP969

CYQF;2012-03-15 23:00;CYQF 152300Z 17010G15KT 15SM SCT120 BKN250 09/M01 A2931 RMK AC3CI2 SLP962

CYQF;2012-03-16 00:00;CYQF 160000Z 18010G15KT 15SM FEW120 BKN250 08/M01 A2931 RMK AC1CI3 SLP961

CYQF;2012-03-16 01:00;CYQF 160100Z 18010KT 15SM FEW120 BKN250 07/M01 A2930 RMK AC1CI3 SLP959

CYQF;2012-03-16 02:00;CYQF 160200Z 15010KT 15SM FEW060 FEW120 BKN250 07/M02 A2930 RMK SC1AC1CI2 SLP959

CYQF;2012-03-16 03:00;CYQF 160300Z 18003KT 15SM FEW120 BKN250 05/M01 A2927 RMK AC1CI2 SLP949

CYQF;2012-03-16 04:00;CYQF 160400Z 22015G25KT 15SM BKN100 07/M01 A2927 RMK AC6 SLP948

CYQF;2012-03-16 05:00;CYQF 160500Z 24010G15KT 15SM FEW100 05/M01 A2930 RMK AC2 SLP958

CYQF;2012-03-16 06:00;CYQF 160600Z 26010G15KT 15SM SKC 05/M01 A2933 RMK SLP959

CYQF;2012-03-16 07:00;CYQF 160700Z 25005KT 15SM SKC 04/M01 A2933 RMK SLP959

CYQF;2012-03-16 08:00;CYQF 160800Z 25005KT 15SM FEW150 02/M02 A2933 RMK AC1 SLP959

CYQF;2012-03-16 09:00;CYQF 160900Z 20006KT 15SM FEW150 00/M03 A2932 RMK AC1 SLP956

CYQF;2012-03-16 10:00;CYQF 161000Z 18008KT 15SM SKC 00/M03 A2933 RMK SLP957

CYQF;2012-03-16 11:00;CYQF 161100Z 19008KT 15SM SKC M01/M04 A2934 RMK SLP960

CYQF;2012-03-16 12:00;CYQF 161200Z 16005KT 15SM FEW150 M01/M04 A2934 RMK AC1 SLP962

CYQF;2012-03-16 13:00;CYQF 161300Z CCA 23005KT 15SM FEW150 SCT250 M02/M05 A2935 RMK AC1CI1 SLP966

CYQF;2012-03-16 14:00;CYQF 161400Z CCA 22008KT 15SM FEW080 FEW120 BKN250 M02/M05 A2937 RMK ACC1AC2CI2 SLP971

CYQF;2012-03-16 15:00;CYQF 161500Z 24006KT 15SM FEW080 FEW120 SCT250 M01/M05 A2934 RMK ACC1AC1CI1 SLP967

CYQF;2012-03-16 16:00;CYQF 161600Z 21006KT 15SM FEW080 FEW250 01/M05 A2935 RMK ACC1CI1 SLP969

CYQF;2012-03-16 17:00;CYQF 161700Z 21010G15KT 15SM FEW080 FEW250 03/M03 A2935 RMK ACC1CI1 SLP970

CYQF;2012-03-16 18:00;CYQF 161800Z 36007KT 15SM FEW040 FEW250 05/M03 A2938 RMK CU1CI1 TR CU SLP975

CYQF;2012-03-16 19:00;CYQF 161900Z 05003KT 15SM FEW040 FEW250 06/M05 A2937 RMK CU1CI1 SLP972

CYQF;2012-03-16 20:00;CYQF 162000Z 04004KT 15SM FEW040 FEW250 07/M04 A2937 RMK CU1CI1 SLP971

CYQF;2012-03-16 21:00;CYQF 162100Z 09004KT 15SM FEW040 SCT250 07/M03 A2936 RMK CU1CI2 SLP971

CYQF;2012-03-16 22:00;CYQF 162200Z 09005KT 15SM FEW045 SCT100 BKN250 06/M05 A2936 RMK CU1AC2CI3 SLP970

CYQF;2012-03-16 23:00;CYQF 162300Z 07005KT 15SM FEW040 SCT100 BKN250 06/M04 A2937 RMK CU1AC3CI3 VIRGA SLP973

CYQF;2012-03-17 00:00;CYQF 170000Z 05010G18KT 15SM FEW030 BKN100 BKN250 05/M03 A2936 RMK CU1AC4CI2 VIRGA SLP974

CYQF;2012-03-17 01:00;CYQF 170100Z 05015G20KT 15SM FEW030 BKN050 BKN100 04/M03 A2938 RMK CU1SC5AC2 VIRGA SLP980

CYQF;2012-03-17 02:00;CYQF 170200Z 12009KT 15SM SCT050 BKN100 04/M04 A2938 RMK SC3AC4 VIRGA SLP980

CYQF;2012-03-17 03:00;CYQF 170300Z 15010G15KT 15SM SCT050 BKN100 02/M01 A2940 RMK SC3AC4 SLP991

CYQF;2012-03-17 04:00;CYQF 170400Z 28002KT 15SM FEW100 SCT250 01/M02 A2944 RMK AC1CI2 SLP004

CYQF;2012-03-17 05:00;CYQF 170500Z 00000KT 15SM SKC M01/M03 A2946 RMK SLP009

CYQF;2012-03-17 06:00;CYQF 170600Z 15003KT 15SM SKC M03/M04 A2947 RMK SLP012

CYQF;2012-03-17 07:00;CYQF 170700Z 20003KT 15SM SKC M02/M04 A2950 RMK SLP023

CYQF;2012-03-17 08:00;CYQF 170800Z 22004KT 15SM SKC M04/M05 A2951 RMK SLP025

CYQF;2012-03-17 09:00;CYQF 170900Z 18005KT 15SM SKC M05/M06 A2953 RMK SLP034

CYQF;2012-03-17 10:00;CYQF 171000Z 00000KT 15SM MIFG SKC M06/M08 A2950 RMK SLP026

CYQF;2012-03-17 10:08;CYQF 171008Z 00000KT 2SM BR SKC

CYQF;2012-03-17 11:00;CYQF 171100Z 00000KT 2SM BR SKC M07/M08 A2950 RMK FROIN SLP025

CYQF;2012-03-17 11:39;CYQF 171139Z 17003KT 3SM BR SKC RMK FROIN

CYQF;2012-03-17 12:00;CYQF 171200Z 00000KT 10SM MIFG SKC M06/M07 A2951 RMK FROIN SLP030

CYQF;2012-03-17 13:00;CYQF 171300Z 25003KT 12SM BKN220 M07/M08 A2952 RMK CI6 SLP034

CYQF;2012-03-17 14:00;CYQF 171400Z 15002KT 10SM BKN220 M05/M06 A2953 RMK CI7 SLP036

CYQF;2012-03-17 15:00;CYQF 171500Z 00000KT 10SM FEW004 BKN090 OVC220 M04/M05 A2953 RMK ST1AS4CS3 FROIN SLP037

CYQF;2012-03-17 16:00;CYQF 171600Z 00000KT 8SM OVC090 M03/M04 A2952 RMK AS8 SLP034

CYQF;2012-03-17 17:00;CYQF 171700Z 14004KT 8SM OVC070 M01/M03 A2954 RMK AS8 SLP041

CYQF;2012-03-17 18:00;CYQF 171800Z 10005KT 10SM OVC070 00/M03 A2950 RMK AS8 SLP028

CYQF;2012-03-17 19:00;CYQF 171900Z 13010KT 12SM OVC070 02/M04 A2949 RMK AS8 SLP025

CYQF;2012-03-17 20:00;CYQF 172000Z 11007KT 15SM FEW020 OVC070 02/M03 A2946 RMK CU1AS7 SLP016

CYQF;2012-03-17 21:00;CYQF 172100Z 11010KT 15SM FEW020 OVC070 03/M03 A2945 RMK SC2AS6 SLP010

CYQF;2012-03-17 22:00;CYQF 172200Z 10010G15KT 15SM FEW020 OVC070 02/M01 A2942 RMK SC1AS7 SLP003

CYQF;2012-03-17 23:00;CYQF 172300Z 11011G16KT 10SM VCSH SCT020 OVC070 02/M02 A2941 RMK SC4AS4 SLP999

CYQF;2012-03-17 23:13;CYQF 172313Z 13010G15KT 6SM -SHSN SCT020 OVC070 RMK SC4AC4

CYQF;2012-03-17 23:31;CYQF 172331Z 13008KT 2SM -SHSN FEW010 OVC020 RMK SF1SC7

CYQF;2012-03-18 00:00;CYQF 180000Z 13010KT 2SM -SHSN FEW010 OVC020 01/M01 A2941 RMK SF2SC6 SLP002

CYQF;2012-03-18 00:20;CYQF 180020Z 12006KT 3SM -SHSN SCT010 OVC020 RMK SF3SC5

CYQF;2012-03-18 01:00;CYQF 180100Z 13005KT 2SM -SN OVC020 00/M01 A2942 RMK SN3SC5 VIS VRB 1-3 SLP004

CYQF;2012-03-18 02:00;CYQF 180200Z 13004KT 2SM -SN OVC014 00/M01 A2941 RMK SN2ST6 SLP000

CYQF;2012-03-18 02:21;CYQF 180221Z 12003KT 5SM -SN OVC015 RMK ST8

CYQF;2012-03-18 03:00;CYQF 180300Z 09004KT 5SM -SN OVC015 M00/M01 A2938 RMK ST8 SLP991

CYQF;2012-03-18 04:00;CYQF 180400Z 14003KT 10SM -SN SCT020 OVC060 M00/M01 A2938 RMK ST3SC5 SLP991

CYQF;2012-03-18 04:23;CYQF 180423Z 14003KT 15SM FEW005 SCT020 OVC060 RMK SF1ST3SC5

CYQF;2012-03-18 05:00;CYQF 180500Z 15004KT 15SM FEW020 SCT060 BKN250 M00/M01 A2937 RMK SC2SC2CI2 SLP987

CYQF;2012-03-18 06:00;CYQF 180600Z 17005KT 15SM FEW060 SCT250 M02/M04 A2937 RMK SC1CI1 /S01/ SLP983

CYQF;2012-03-18 06:31;CYQF 180631Z 18007KT 10SM BKN008 RMK SF5

CYQF;2012-03-18 07:00;CYQF 180700Z 16008KT 6SM BR OVC008 M02/M03 A2935 RMK ST8 SLP978

CYQF;2012-03-18 08:00;CYQF 180800Z 17008KT 3SM BR OVC008 M03/M03 A2936 RMK ST8 SLP979

CYQF;2012-03-18 09:00;CYQF 180900Z 18008KT 3SM BR OVC008 M03/M04 A2936 RMK ST8 SLP980

CYQF;2012-03-18 09:24;CYQF 180924Z 18004KT 1 1/2SM BR VV006 RMK FG8

CYQF;2012-03-18 09:43;CYQF 180943Z 20006KT 3/4SM BR VV005 RMK FG8

CYQF;2012-03-18 10:00;CYQF 181000Z 20005KT 1/2SM FZFG VV004 M04/M04 A2937 RMK FG8 SLP981

CYQF;2012-03-18 11:00;CYQF 181100Z 19004KT 1/2SM FZFG VV004 M04/M05 A2938 RMK FG8 SLP984

CYQF;2012-03-18 11:20;CYQF 181120Z 00000KT 1/4SM FZFG VV004 RMK FG8

CYQF;2012-03-18 12:00;CYQF 181200Z 25006KT 1/4SM FZFG VV004 M04/M05 A2939 RMK FG8 SLP993

CYQF;2012-03-18 13:00;CYQF 181300Z 25004KT 1/4SM FZFG VV004 M04/M05 A2942 RMK FG8 SLP000

CYQF;2012-03-18 14:00;CYQF 181400Z 28003KT 1/2SM FZFG VV004 M05/M06 A2944 RMK FG8 SLP008

CYQF;2012-03-18 14:20;CYQF 181420Z 00000KT 3/4SM BR VV004 RMK FG8

CYQF;2012-03-18 15:00;CYQF 181500Z 00000KT 3/4SM BR VV004 M04/M05 A2946 RMK FG8 SLP018

CYQF;2012-03-18 15:49;CYQF 181549Z 27004KT 5/8SM BR VV002 RMK FG8

CYQF;2012-03-18 16:00;CYQF 181600Z 27004KT 5/8SM BR VV003 M04/M04 A2949 RMK FG8 SLP028

CYQF;2012-03-18 16:14;CYQF 181614Z 31003KT 3/4SM BR VV003 RMK FG8

CYQF;2012-03-18 17:00;CYQF 181700Z 28006KT 1SM BR VV004 M03/M03 A2950 RMK FG8 SLP029

CYQF;2012-03-18 17:37;CYQF 181737Z 29005KT 1 1/2SM BR OVC003 RMK SF7 VIS VRB 1-2

CYQF;2012-03-18 18:00;CYQF 181800Z 28004KT 1 1/2SM BR OVC003 M02/M03 A2950 RMK SF7 VIS VRB 1-2 SLP032

CYQF;2012-03-18 19:00;CYQF 181900Z 28004KT 2 1/2SM BR BKN005 M02/M02 A2951 RMK SF7 SLP036

CYQF;2012-03-18 19:19;CYQF 181919Z 27004KT 3SM BR SCT005 BKN250 RMK SF3CI4

CYQF;2012-03-18 20:00;CYQF 182000Z 27005KT 5SM BR FEW005 BKN250 M01/M01 A2951 RMK SF1CI6 SLP036

CYQF;2012-03-18 21:00;CYQF 182100Z 31004KT 6SM BR FEW010 BKN250 01/M01 A2950 RMK CF1CI6 SLP027

CYQF;2012-03-18 22:00;CYQF 182200Z 36010KT 10SM FEW010 OVC250 03/M02 A2950 RMK CF1CI6 SLP029

CYQF;2012-03-18 23:00;CYQF 182300Z 01010KT 12SM BKN100 OVC250 03/M04 A2952 RMK AS3CI4 SLP033

CYQF;2012-03-19 00:00;CYQF 190000Z 02010G15KT 15SM FEW040 BKN100 OVC250 03/M06 A2953 RMK SC1AS4CI2 SLP037

CYQF;2012-03-19 01:00;CYQF 190100Z 02008KT 15SM FEW040 SCT100 OVC250 02/M04 A2953 RMK SC1AS2CI6 SLP039

CYQF;2012-03-19 02:00;CYQF 190200Z CCA 05010KT 15SM BKN100 OVC250 01/M03 A2960 RMK AS7CI1 VIRGA N-E-S PRESRR SLP059

CYQF;2012-03-19 03:00;CYQF 190300Z 05006KT 15SM OVC080 01/M03 A2960 RMK AC8 VIRGA SLP064

CYQF;2012-03-19 04:00;CYQF 190400Z 28003KT 15SM OVC080 M00/M03 A2962 RMK AC8 SLP071

CYQF;2012-03-19 05:00;CYQF 190500Z 32006KT 15SM FEW008 BKN020 M00/M03 A2962 RMK SF1SC6 SLP071

CYQF;2012-03-19 06:00;CYQF 190600Z 29005KT 15SM FEW008 BKN020 M02/M05 A2963 RMK SF2SC5 SLP077

CYQF;2012-03-19 07:00;CYQF 190700Z 32005KT 15SM FEW008 BKN020 M02/M05 A2962 RMK SF1SC6 SLP074

CYQF;2012-03-19 08:00;CYQF 190800Z 32005KT 15SM FEW008 BKN020 M03/M05 A2963 RMK SF1SC5 SLP075

CYQF;2012-03-19 09:00;CYQF 190900Z 35006KT 15SM FEW008 BKN020 M03/M05 A2963 RMK SF1SC5 SLP072

CYQF;2012-03-19 10:00;CYQF 191000Z 33010KT 15SM SCT020 BKN090 M03/M05 A2963 RMK SC3AC2 SLP072

CYQF;2012-03-19 11:00;CYQF 191100Z 35008KT 15SM SCT020 BKN080 M03/M05 A2963 RMK SC3AC2 SLP073

CYQF;2012-03-19 12:00;CYQF 191200Z 36008KT 15SM SCT020 BKN080 M04/M07 A2962 RMK SC3AC2 SLP070

CYQF;2012-03-19 13:00;CYQF 191300Z 34008KT 15SM FEW020 BKN080 BKN250 M05/M08 A2963 RMK SC2AC3CI1 SLP071

CYQF;2012-03-19 14:00;CYQF 191400Z 35008KT 15SM FEW020 SCT080 BKN250 M06/M07 A2963 RMK SC1AC2CI2 SLP072

CYQF;2012-03-19 15:00;CYQF 191500Z 36012KT 15SM FEW100 SCT250 M05/M08 A2962 RMK AC1CI2 SLP073

CYQF;2012-03-19 16:00;CYQF 191600Z 34004KT 15SM FEW100 BKN250 M05/M08 A2962 RMK AC1CI2 SLP074

CYQF;2012-03-19 17:00;CYQF 191700Z 33010KT 15SM FEW150 SCT250 M03/M07 A2962 RMK AC1CI1 SLP073

CYQF;2012-03-19 18:00;CYQF 191800Z 33007KT 15SM BKN250 M03/M07 A2960 RMK CI2 SLP067

CYQF;2012-03-19 19:00;CYQF 191900Z 01012KT 15SM BKN250 M02/M07 A2957 RMK CI2 SLP058

CYQF;2012-03-19 20:00;CYQF 192000Z 35010KT 15SM FEW050 BKN250 M01/M06 A2955 RMK SC1CI2 SLP052

CYQF;2012-03-19 21:00;CYQF 192100Z 33010G15KT 15SM FEW050 BKN250 00/M06 A2953 RMK SC1CI2 SLP041

CYQF;2012-03-19 22:00;CYQF 192200Z 01010KT 15SM FEW050 BKN250 00/M07 A2953 RMK SC1CI6 SLP040

CYQF;2012-03-19 23:00;CYQF 192300Z 01010G15KT 15SM FEW050 BKN250 01/M07 A2951 RMK SC1CI6 SLP033

CYQF;2012-03-20 00:00;CYQF 200000Z 36010KT 15SM FEW050 BKN250 M00/M07 A2949 RMK SC1CI3 SLP028

CYQF;2012-03-20 01:00;CYQF 200100Z 34005KT 15SM FEW050 FEW100 BKN250 M01/M07 A2950 RMK SC1AC2CI4 SLP029

CYQF;2012-03-20 02:00;CYQF 200200Z 29003KT 15SM FEW050 SCT100 BKN250 M03/M08 A2951 RMK SC2AC2CI3 SLP033

CYQF;2012-03-20 03:00;CYQF 200300Z 32002KT 15SM FEW050 SCT100 BKN250 M03/M08 A2951 RMK SC2AC2CI3 OBS TAKEN +8 SLP039

CYQF;2012-03-20 04:00;CYQF 200400Z 34004KT 15SM FEW100 SCT250 M05/M09 A2952 RMK AC1CI2 SLP041

CYQF;2012-03-20 05:00;CYQF 200500Z 28004KT 15SM FEW100 BKN250 M04/M08 A2951 RMK AC2CI1 SLP040

CYQF;2012-03-20 06:00;CYQF 200600Z 33004KT 15SM FEW100 SCT250 M06/M09 A2951 RMK AC2CI1 SLP040

CYQF;2012-03-20 07:00;CYQF 200700Z 31003KT 15SM FEW100 FEW250 M08/M11 A2951 RMK AC1CI0 SLP041

CYQF;2012-03-20 08:00;CYQF 200800Z 27006KT 15SM SKC M09/M12 A2950 RMK SLP038

CYQF;2012-03-20 09:00;CYQF 200900Z 17004KT 15SM SKC M10/M12 A2949 RMK SLP034

CYQF;2012-03-20 10:00;CYQF 201000Z 25008KT 15SM SKC M11/M13 A2948 RMK SLP032

CYQF;2012-03-20 11:00;CYQF 201100Z 15007KT 15SM SKC M10/M11 A2946 RMK SLP024

CYQF;2012-03-20 12:00;CYQF 201200Z 17004KT 15SM SKC M11/M12 A2944 RMK SLP016

CYQF;2012-03-20 13:00;CYQF 201300Z 16004KT 15SM SKC M11/M13 A2939 RMK SLP002

CYQF;2012-03-20 14:00;CYQF 201400Z 15002KT 15SM BKN240 M11/M13 A2936 RMK CI2 FROIN SLP993

CYQF;2012-03-20 15:00;CYQF 201500Z 16004KT 15SM FEW120 BKN240 M07/M10 A2934 RMK AC1CI2 SLP982

CYQF;2012-03-20 16:00;CYQF 201600Z 15009KT 12SM BKN090 BKN240 M04/M08 A2931 RMK AS7CI1 SLP971

CYQF;2012-03-20 17:00;CYQF 201700Z 15008KT 15SM FEW050 BKN090 BKN240 M03/M08 A2926 RMK SC1AS6CI1 SLP955

CYQF;2012-03-20 18:00;CYQF 201800Z 15010G15KT 15SM FEW050 BKN100 BKN250 M02/M07 A2923 RMK SC1AS5CI2 SLP940

CYQF;2012-03-20 19:00;CYQF 201900Z 15010G15KT 15SM FEW024 BKN250 01/M06 A2921 RMK SC1CI5 CU CC SLP934

CYQF;2012-03-20 20:00;CYQF 202000Z 16009KT 15SM FEW030 SCT250 03/M05 A2920 RMK CU1CI1 SLP932

CYQF;2012-03-20 21:00;CYQF 202100Z 16008KT 15SM FEW030 SCT250 05/M05 A2919 RMK CU1CI1 SLP925

CYQF;2012-03-20 22:00;CYQF 202200Z 15003KT 15SM FEW040 SCT250 06/M04 A2918 RMK CU2CI2 SLP923

CYQF;2012-03-20 22:33;CYQF 202233Z 25010KT 15SM FEW040TCU FEW250 RMK TCU1CI1 WIND SHIFT SW-NE LINE CU/TCU DIST W

CYQF;2012-03-20 23:00;CYQF 202300Z 26010G15KT 15SM FEW050 05/M08 A2921 RMK SC1 TCU SLP932

CYQF;2012-03-21 00:00;CYQF 210000Z 28010G15KT 15SM SCT050 BKN250 06/M07 A2926 RMK SC3CI2 TCU SLP947

CYQF;2012-03-21 01:00;CYQF 210100Z 30012G20KT 15SM FEW050 04/M09 A2929 RMK SC2 TCU ASOCTD SLP959

CYQF;2012-03-21 02:00;CYQF 210200Z 30006KT 15SM FEW050 SCT250 01/M07 A2934 RMK SC2CI1 SLP974

CYQF;2012-03-21 03:00;CYQF 210300Z 24007KT 15SM FEW050 00/M09 A2937 RMK SC2 SLP988

CYQF;2012-03-21 04:00;CYQF 210400Z 24007KT 15SM SKC M02/M10 A2941 RMK SLP000

CYQF;2012-03-21 05:00;CYQF 210500Z 31007KT 15SM SKC M02/M10 A2945 RMK SLP013

CYQF;2012-03-21 06:00;CYQF 210600Z 32004KT 15SM SKC M05/M11 A2947 RMK SLP025

CYQF;2012-03-21 07:00;CYQF 210700Z 24005KT 15SM SKC M05/M10 A2949 RMK SLP030

CYQF;2012-03-21 08:00;CYQF 210800Z 16003KT 15SM SKC M05/M10 A2950 RMK SLP033

CYQF;2012-03-21 09:00;CYQF 210900Z 10003KT 15SM SKC M07/M11 A2952 RMK SLP036

CYQF;2012-03-21 10:00;CYQF 211000Z 24006KT 15SM SKC M08/M11 A2953 RMK SLP040

CYQF;2012-03-21 11:00;CYQF 211100Z 22008KT 15SM SKC M10/M13 A2956 RMK SLP047

CYQF;2012-03-21 12:00;CYQF 211200Z 21007KT 15SM SKC M06/M13 A2958 RMK SLP054

CYQF;2012-03-21 13:00;CYQF 211300Z 21008KT 15SM FEW250 M07/M13 A2960 RMK CI1 SLP060

CYQF;2012-03-21 14:00;CYQF 211400Z 18005KT 15SM FEW100 FEW250 M08/M13 A2962 RMK AC1CI1 SLP067

CYQF;2012-03-21 15:00;CYQF 211500Z 22006KT 15SM SCT090 SCT250 M07/M13 A2964 RMK AC2CI1 SLP083

CYQF;2012-03-21 16:00;CYQF 211600Z 23007KT 15SM FEW100 BKN250 M05/M11 A2966 RMK AC2CI1 VIRGA SE SLP088

CYQF;2012-03-21 17:00;CYQF 211700Z 23005KT 15SM FEW100 BKN250 M01/M10 A2967 RMK AC2CI2 SLP092

CYQF;2012-03-21 18:00;CYQF 211800Z 23005KT 15SM BKN100 00/M09 A2969 RMK AS7 VIRGA ALQDS SLP096

CYQF;2012-03-21 19:00;CYQF 211900Z 24006KT 15SM FEW050 BKN100 BKN250 02/M11 A2970 RMK SC1AS5CI2 VIRGA SLP100

CYQF;2012-03-21 20:00;CYQF 212000Z 21002KT 15SM FEW050 SCT100 BKN250 03/M12 A2971 RMK CU2AC2CI2 VIRGA SLP104

CYQF;2012-03-21 21:00;CYQF 212100Z 06006KT 15SM FEW050 SCT100 BKN250 03/M11 A2971 RMK CU2AC2CI1 SLP104

CYQF;2012-03-21 22:00;CYQF 212200Z 09005KT 15SM FEW050 SCT100 BKN250 04/M10 A2972 RMK CU1AC2CI1 VIRGA SLP106

CYQF;2012-03-21 23:00;CYQF 212300Z 06003KT 15SM FEW060 SCT100 BKN250 04/M10 A2973 RMK CU1AC3CI1 CU TR VIRGA SLP110

CYQF;2012-03-22 00:00;CYQF 220000Z 16004KT 15SM FEW060 FEW100 SCT250 04/M10 A2975 RMK CU1AC1CI0 SLP114

CYQF;2012-03-22 01:00;CYQF 220100Z 13002KT 15SM FEW060 FEW100 04/M15 A2976 RMK CU2AC1 SLP117

CYQF;2012-03-22 02:00;CYQF 220200Z 25007KT 15SM FEW060 FEW100 M00/M11 A2978 RMK SC2AC1 SLP125

CYQF;2012-03-22 03:00;CYQF 220300Z 23006KT 15SM FEW060 SCT250 M02/M13 A2980 RMK SC1CI0 SLP142

CYQF;2012-03-22 04:00;CYQF 220400Z 25004KT 15SM FEW250 M03/M13 A2983 RMK CI1 SLP149

CYQF;2012-03-22 05:00;CYQF 220500Z 30007KT 15SM SKC M03/M14 A2983 RMK SLP150

CYQF;2012-03-22 06:00;CYQF 220600Z 27005KT 15SM SKC M03/M15 A2984 RMK SLP147

CYQF;2012-03-22 07:00;CYQF 220700Z 24006KT 15SM SKC M04/M14 A2985 RMK SLP149

CYQF;2012-03-22 08:00;CYQF 220800Z 33006KT 15SM SKC M05/M14 A2984 RMK SLP147

CYQF;2012-03-22 09:00;CYQF 220900Z 33008KT 15SM SKC M05/M13 A2983 RMK SLP141

CYQF;2012-03-22 10:00;CYQF 221000Z 20004KT 15SM SCT080 M04/M11 A2985 RMK AC3 SLP147

CYQF;2012-03-22 11:00;CYQF 221100Z 18004KT 15SM BKN080 M04/M10 A2984 RMK AC6 SLP145

CYQF;2012-03-22 12:00;CYQF 221200Z 18003KT 15SM BKN080 M05/M10 A2983 RMK AC6 SLP143

CYQF;2012-03-22 13:00;CYQF 221300Z 13002KT 15SM OVC080 M04/M09 A2982 RMK AC8 SLP138

CYQF;2012-03-22 14:00;CYQF 221400Z 00000KT 15SM BKN025 OVC050 M05/M08 A2981 RMK ST5SC3 VIRGA ALQDS SLP135

CYQF;2012-03-22 15:00;CYQF 221500Z 13002KT 15SM SCT015 OVC030 M04/M09 A2981 RMK SF2ST6 VIRGA ALQDS SLP141

CYQF;2012-03-22 15:44;CYQF 221544Z 31004KT 12SM -SN SCT015 OVC030 RMK SF2ST6 VIS N6

CYQF;2012-03-22 16:00;CYQF 221600Z 29005KT 12SM -SN SCT015 OVC030 M03/M09 A2982 RMK SF3ST5 VIS N 6 SLP144

CYQF;2012-03-22 16:12;CYQF 221612Z 33006KT 2 1/2SM -SN OVC020 RMK ST8 VIS SE 5

CYQF;2012-03-22 16:35;CYQF 221635Z 36006KT 1SM -SN OVC014 RMK SN5ST3

CYQF;2012-03-22 17:00;CYQF 221700Z 35005KT 1 1/2SM -SN OVC014 M03/M05 A2982 RMK SN3ST5 VIS VRB 1-2 SLP143

CYQF;2012-03-22 17:43;CYQF 221743Z 36007KT 1SM -SN VV009 RMK SN8

CYQF;2012-03-22 18:00;CYQF 221800Z 36006KT 1SM -SN VV009 M03/M04 A2980 RMK SN8 /S01/ SLP136

CYQF;2012-03-22 18:06;CYQF 221806Z 01008KT 3SM -SN FEW008 OVC020 RMK SF1ST8

CYQF;2012-03-22 19:00;CYQF 221900Z 01007KT 3SM -SN FEW008 OVC025 M02/M03 A2978 RMK SF1ST7 SLP132

CYQF;2012-03-22 20:00;CYQF 222000Z 02010KT 5SM -SN FEW008 OVC025 M01/M03 A2976 RMK SF1SC7 SLP124

CYQF;2012-03-22 20:24;CYQF 222024Z 34004KT 6SM -SN BKN006 OVC025 RMK SF5SC3

CYQF;2012-03-22 21:00;CYQF 222100Z 31007KT 3SM -SHGS BKN006 OVC025 M01/M03 A2979 RMK ST5SC3 TCU ASOCTD SLP133

CYQF;2012-03-22 21:18;CYQF 222118Z 31010KT 1SM -SN OVC006 RMK SN6ST2

CYQF;2012-03-22 21:35;CYQF 222135Z 32008KT 3/4SM -SN VV006 RMK SN8

CYQF;2012-03-22 21:45;CYQF 222145Z 32008KT 1/2SM SN OVC006 RMK SN6ST2 /S01/

CYQF;2012-03-22 22:00;CYQF 222200Z 34010G15KT 3/4SM -SN BKN006 OVC090 M02/M03 A2981 RESN RMK SN5SF2AS1 VIS VRB 1/2-1 SLP141

CYQF;2012-03-22 22:22;CYQF 222222Z 33010KT 1SM -SN BKN006 OVC090 RMK SN5SF2AS1 VIS VRB 1/2-11/2

CYQF;2012-03-22 22:49;CYQF 222249Z 33008KT 4SM -SN BKN008 OVC090 RMK SF6AS2

CYQF;2012-03-22 23:00;CYQF 222300Z 34007KT 6SM -SN FEW008 BKN040 OVC090 M02/M03 A2984 RMK SF2SC4AS2 SLP149

CYQF;2012-03-23 00:00;CYQF 230000Z 32010G15KT 6SM -SN BKN008 BKN040 M01/M03 A2987 RMK SF4SC3 /S03/ SLP162

CYQF;2012-03-23 00:28;CYQF 230028Z 33010G15KT 8SM BKN008 BKN040 RMK SF6SC2

CYQF;2012-03-23 01:00;CYQF 230100Z 33010KT 8SM BKN012 BKN040 M01/M03 A2990 RMK SC5SC2 SLP171

CYQF;2012-03-23 02:00;CYQF 230200Z 32008KT 10SM BKN020 BKN250 M02/M04 A2994 RMK SC6CI1 SLP183

CYQF;2012-03-23 03:00;CYQF 230300Z 32008KT 15SM BKN020 M04/M05 A2994 RMK SC7 SLP188

CYQF;2012-03-23 04:00;CYQF 230400Z 34006KT 15SM BKN020 M03/M05 A2997 RMK SC6 SLP198

CYQF;2012-03-23 04:19;CYQF 230419Z 34008KT 12SM OVC006 RMK SF8

CYQF;2012-03-23 05:00;CYQF 230500Z 30002KT 12SM OVC006 M03/M05 A3001 RMK SF8 SLP210

CYQF;2012-03-23 06:00;CYQF 230600Z 00000KT 8SM BKN008 M04/M05 A3003 RMK ST7 SLP218

CYQF;2012-03-23 06:41;CYQF 230641Z 02004KT 10SM BKN010 RMK ST6

CYQF;2012-03-23 07:00;CYQF 230700Z 36002KT 8SM BKN010 M04/M05 A3005 RMK ST6 SLP223

CYQF;2012-03-23 08:00;CYQF 230800Z 36006KT 10SM OVC010 M04/M06 A3003 RMK ST8 SLP216

CYQF;2012-03-23 09:00;CYQF 230900Z 34010KT 12SM OVC010 M04/M07 A3003 RMK SC8 SLP216

CYQF;2012-03-23 10:00;CYQF 231000Z 34007KT 12SM OVC010 M04/M07 A3007 RMK SC8 SLP229

CYQF;2012-03-23 10:39;CYQF 231039Z 35008KT 12SM -SN OVC008 RMK ST8

CYQF;2012-03-23 11:00;CYQF 231100Z 35010KT 10SM -SN OVC008 M05/M07 A3006 RMK ST8 SLP226

CYQF;2012-03-23 12:00;CYQF 231200Z 34005KT 12SM -SN OVC008 M05/M07 A3009 RMK ST8 SLP238

CYQF;2012-03-23 13:00;CYQF 231300Z 36005KT 10SM -SN OVC007 M05/M07 A3010 RMK ST8 SLP241

CYQF;2012-03-23 14:00;CYQF 231400Z 03006KT 8SM -SN OVC008 M05/M07 A3010 RMK ST8 SLP242

CYQF;2012-03-23 14:46;CYQF 231446Z 04004KT 10SM -SG OVC008 RMK ST8

CYQF;2012-03-23 15:00;CYQF 231500Z 06004KT 10SM -SG OVC008 M05/M07 A3011 RMK ST8 SLP247

CYQF;2012-03-23 15:49;CYQF 231549Z 04006KT 10SM -SN OVC006 RMK ST8

CYQF;2012-03-23 16:00;CYQF 231600Z 04003KT 10SM -SN OVC006 M05/M07 A3011 RMK ST8 SLP249

CYQF;2012-03-23 17:00;CYQF 231700Z 03005KT 8SM -SN OVC008 M05/M07 A3011 RMK ST8 SLP248

CYQF;2012-03-23 18:00;CYQF 231800Z 01006KT 8SM -SN OVC005 M05/M06 A3011 RMK ST8 SLP247

CYQF;2012-03-23 19:00;CYQF 231900Z 02007KT 8SM -SN OVC006 M05/M07 A3010 RMK ST8 SLP246

CYQF;2012-03-23 20:00;CYQF 232000Z 04006KT 6SM -SN OVC006 M05/M07 A3010 RMK ST8 SLP245

CYQF;2012-03-23 20:49;CYQF 232049Z 07003KT 2SM -SN OVC006 RMK SN2ST6

CYQF;2012-03-23 21:00;CYQF 232100Z 08006KT 2SM -SN OVC006 M05/M07 A3010 RMK SN2ST6 SLP244

CYQF;2012-03-23 22:00;CYQF 232200Z 04002KT 2SM -SN OVC006 M05/M07 A3010 RMK ST8 SLP245

CYQF;2012-03-23 22:36;CYQF 232236Z 07004KT 3SM -SN OVC006 RMK ST8 VIS VRB 2-4

CYQF;2012-03-23 23:00;CYQF 232300Z 07003KT 3SM -SN OVC011 M05/M07 A3009 RMK ST8 VIS VRB 2-4 SLP242

CYQF;2012-03-24 00:00;CYQF 240000Z 08002KT 5SM -SN FEW007 OVC012 M05/M08 A3012 RMK SF1SC7 SLP252

CYQF;2012-03-24 01:00;CYQF 240100Z 00000KT 10SM -SN FEW007 OVC012 M05/M07 A3013 RMK SF1SC6 SLP254

CYQF;2012-03-24 01:23;CYQF 240123Z 36004KT 15SM FEW007 OVC012 RMK SF1SC7

CYQF;2012-03-24 02:00;CYQF 240200Z 02006KT 15SM OVC015 M05/M07 A3014 RMK SC8 SLP258

CYQF;2012-03-24 03:00;CYQF 240300Z 02005KT 15SM OVC015 M05/M07 A3015 RMK SC7 SLP266

CYQF;2012-03-24 04:00;CYQF 240400Z 00000KT 15SM OVC015 M06/M08 A3017 RMK SC8 SLP271

CYQF;2012-03-24 05:00;CYQF 240500Z 00000KT 15SM OVC015 M06/M08 A3017 RMK SC8 SLP270

CYQF;2012-03-24 06:00;CYQF 240600Z 00000KT 15SM OVC020 M07/M09 A3017 RMK SC8 SLP272

CYQF;2012-03-24 07:00;CYQF 240700Z 23004KT 10SM BKN020 M11/M12 A3017 RMK SC5 SLP272

CYQF;2012-03-24 07:42;CYQF 240742Z 27003KT 2SM BR FEW020 RMK FG2SC1

CYQF;2012-03-24 08:00;CYQF 240800Z 19002KT 1 1/2SM BR SKC M14/M15 A3017 RMK FG2 SLP272

CYQF;2012-03-24 08:22;CYQF 240822Z 17003KT 1SM BR SKC RMK FG6

CYQF;2012-03-24 08:42;CYQF 240842Z 18004KT 1/2SM FZFG VV004 RMK FG8

CYQF;2012-03-24 09:00;CYQF 240900Z 20004KT 1/4SM FZFG VV004 M13/M14 A3018 RMK FG8 SLP281

CYQF;2012-03-24 10:00;CYQF 241000Z 23002KT 1/4SM FZFG VV004 M13/M14 A3018 RMK FG8 SLP281

CYQF;2012-03-24 11:00;CYQF 241100Z 36003KT 1/4SM FZFG VV004 M14/M15 A3018 RMK FG8 SLP283

CYQF;2012-03-24 12:00;CYQF 241200Z 36002KT 1/4SM FZFG VV004 M14/M16 A3019 RMK FG8 SLP287

CYQF;2012-03-24 12:50;CYQF 241250Z 00000KT 1/4SM FZFG SKC RMK FG5

CYQF;2012-03-24 13:00;CYQF 241300Z 00000KT 1/4SM FZFG SKC M15/M17 A3018 RMK FG4 SLP284

CYQF;2012-03-24 14:00;CYQF 241400Z 00000KT 1/4SM FZFG SKC M15/M17 A3017 RMK FG6 SLP281

CYQF;2012-03-24 15:00;CYQF 241500Z 00000KT 1SM BR SKC M15/M17 A3018 RMK FG2 SLP286

CYQF;2012-03-24 15:13;CYQF 241513Z 00000KT 3SM BR SKC

CYQF;2012-03-24 16:00;CYQF 241600Z 00000KT 4SM BR SKC M12/M14 A3017 RMK SLP283

CYQF;2012-03-24 17:00;CYQF 241700Z 18003KT 5SM BR SKC M11/M12 A3018 RMK SLP285

CYQF;2012-03-24 18:00;CYQF 241800Z 00000KT 8SM FEW250 M09/M09 A3016 RMK CI0 SLP275

CYQF;2012-03-24 19:00;CYQF 241900Z 16005KT 8SM FEW250 M05/M06 A3015 RMK CI0 SLP271

CYQF;2012-03-24 20:00;CYQF 242000Z 17005KT 10SM BKN250 M01/M06 A3013 RMK CI2 SLP265

CYQF;2012-03-24 21:00;CYQF 242100Z 15006KT 10SM BKN250 02/M04 A3011 RMK CI2 SLP251

CYQF;2012-03-24 22:00;CYQF 242200Z 14010KT 10SM BKN250 03/M04 A3009 RMK CI3 SLP245

CYQF;2012-03-24 23:00;CYQF 242300Z 15010KT 10SM BKN250 03/M04 A3007 RMK CI5 SLP239

CYQF;2012-03-25 00:00;CYQF 250000Z 15010G15KT 12SM BKN250 02/M05 A3006 RMK CI6 SLP235

CYQF;2012-03-25 01:00;CYQF 250100Z 15012G17KT 12SM BKN250 01/M05 A3005 RMK CI7 SLP232

CYQF;2012-03-25 02:00;CYQF 250200Z 16015KT 12SM BKN250 00/M05 A3004 RMK CI6 SLP228

CYQF;2012-03-25 03:00;CYQF 250300Z 17015G20KT 12SM SCT250 M01/M05 A3003 RMK CI2 SLP229

CYQF;2012-03-25 04:00;CYQF 250400Z 17013G18KT 15SM SKC M02/M05 A3003 RMK SLP228

CYQF;2012-03-25 05:00;CYQF 250500Z 16010KT 15SM SCT060 M03/M06 A3003 RMK SC3 SLP230

CYQF;2012-03-25 06:00;CYQF 250600Z 17015KT 15SM BKN040 M03/M05 A3002 RMK SC5 SLP220

CYQF;2012-03-25 07:00;CYQF 250700Z 18015G20KT 15SM OVC020 M03/M05 A3001 RMK SC8 SLP216

CYQF;2012-03-25 08:00;CYQF 250800Z 18014G20KT 15SM OVC020 M03/M05 A3001 RMK SC8 SLP216

CYQF;2012-03-25 09:00;CYQF 250900Z 18016KT 15SM OVC008 M03/M05 A3000 RMK ST8 SLP202

CYQF;2012-03-25 10:00;CYQF 251000Z 17010KT 15SM OVC008 M03/M05 A2999 RMK ST8 SLP199

CYQF;2012-03-25 11:00;CYQF 251100Z 18010KT 15SM OVC008 M03/M05 A2999 RMK ST8 SLP197

CYQF;2012-03-25 12:00;CYQF 251200Z 18012KT 15SM OVC008 M03/M05 A2998 RMK ST8 SLP194

CYQF;2012-03-25 13:00;CYQF 251300Z 18013KT 10SM OVC008 M03/M05 A2998 RMK ST8 SLP193

CYQF;2012-03-25 14:00;CYQF 251400Z 17010KT 10SM OVC009 M03/M05 A2997 RMK ST8 SLP192

CYQF;2012-03-25 15:00;CYQF 251500Z 17008KT 8SM OVC008 M03/M05 A2996 RMK ST8 SLP192

CYQF;2012-03-25 16:00;CYQF 251600Z 15014KT 8SM OVC008 M02/M05 A2995 RMK ST8 TOPS 044 ASL SLP188

CYQF;2012-03-25 17:00;CYQF 251700Z 16015KT 8SM OVC008 M02/M04 A2994 RMK ST8 SLP183

CYQF;2012-03-25 18:00;CYQF 251800Z 14014KT 8SM OVC008 M01/M04 A2992 RMK ST8 SLP176

CYQF;2012-03-25 19:00;CYQF 251900Z 16014G23KT 8SM OVC006 M01/M03 A2989 RMK ST8 SLP167

CYQF;2012-03-25 20:00;CYQF 252000Z 14015G21KT 10SM OVC009 00/M03 A2986 RMK ST8 SLP157

CYQF;2012-03-25 21:00;CYQF 252100Z 15015G25KT 10SM OVC007 01/M02 A2982 RMK ST8 TOPS 051 SLP137

CYQF;2012-03-25 22:00;CYQF 252200Z 15017G22KT 12SM BKN008 BKN050 02/M01 A2979 RMK ST6SC2 SLP129

CYQF;2012-03-25 22:22;CYQF 252222Z 16015G25KT 15SM BKN008 BKN050 BKN250 RMK SF4SC2CI2

CYQF;2012-03-25 23:00;CYQF 252300Z 16015G25KT 15SM FEW015 SCT080 BKN250 03/M01 A2976 RMK SC2AC2CI4 SLP121

CYQF;2012-03-26 00:00;CYQF 260000Z 15016G23KT 15SM FEW015 BKN080 BKN250 03/M00 A2973 RMK SC1AC6CI2 SLP106

CYQF;2012-03-26 01:00;CYQF 260100Z 15015G25KT 15SM BKN080 BKN250 03/M00 A2972 RMK AC6CI2 SLP101

CYQF;2012-03-26 02:00;CYQF 260200Z 16020G30KT 15SM FEW015 BKN080 BKN250 02/M00 A2971 RMK SC1AC5CI2 SLP098

CYQF;2012-03-26 03:00;CYQF 260300Z 16015G25KT 15SM FEW015 SCT080 BKN250 02/M00 A2971 RMK SC1AC3CI2 SLP099

CYQF;2012-03-26 04:00;CYQF 260400Z 17015G25KT 15SM FEW015 SCT080 BKN250 02/M00 A2972 RMK SC1AC2CI2 SLP103

CYQF;2012-03-26 05:00;CYQF 260500Z 17014KT 15SM FEW015 SCT080 BKN250 03/00 A2970 RMK SC1AC2CI2 SLP097

CYQF;2012-03-26 06:00;CYQF 260600Z 20008KT 15SM FEW015 SCT080 BKN250 02/00 A2969 RMK SC1AC3CI2 SLP092

CYQF;2012-03-26 07:00;CYQF 260700Z 20006KT 15SM FEW015 SCT080 BKN250 02/M00 A2969 RMK SF2AC2CI2 SLP092

CYQF;2012-03-26 08:00;CYQF 260800Z 10003KT 15SM FEW015 SCT080 BKN250 00/M01 A2968 RMK SF2AC2CI2 SLP087

CYQF;2012-03-26 09:00;CYQF 260900Z 03005KT 15SM FEW080 SCT250 M01/M01 A2966 RMK AC2CI2 SLP083

CYQF;2012-03-26 10:00;CYQF 261000Z 36006KT 10SM SCT015 BKN250 M01/M02 A2968 RMK SC3CI1 SLP087

CYQF;2012-03-26 10:26;CYQF 261026Z 34004KT 10SM BKN008 RMK ST6

CYQF;2012-03-26 11:00;CYQF 261100Z 32005KT 10SM OVC008 M00/M01 A2968 RMK ST8 SLP087

CYQF;2012-03-26 12:00;CYQF 261200Z 30007KT 10SM OVC009 M00/M01 A2970 RMK ST8 SLP092

CYQF;2012-03-26 13:00;CYQF 261300Z 33005KT 6SM BR OVC009 M01/M02 A2972 RMK ST8 SLP098

CYQF;2012-03-26 13:33;CYQF 261333Z 35008KT 3SM BR OVC003 RMK ST8 BLN VIS 600FT

CYQF;2012-03-26 14:00;CYQF 261400Z 33006KT 2 1/2SM BR OVC004 M01/M01 A2970 RMK ST8 CIG RAG BLN VIS 600FT SLP092

CYQF;2012-03-26 15:00;CYQF 261500Z 33005KT 2 1/2SM BR OVC003 M01/M02 A2973 RMK ST8 CIG RAG BLN VIS 600FT SLP103

CYQF;2012-03-26 16:00;CYQF 261600Z 34008KT 2SM BR OVC003 M00/M01 A2973 RMK FG2ST6 CIG RAG SLP103

CYQF;2012-03-26 17:00;CYQF 261700Z 34010KT 1 1/2SM BR OVC004 M00/M01 A2971 RMK FG2ST6 CIG RAG VIS VRB 1-2 SLP099

CYQF;2012-03-26 17:39;CYQF 261739Z 33008KT 1 1/2SM -DZ BR OVC004 RMK FG2ST6 TEMP +0.2

CYQF;2012-03-26 17:42;CYQF 261742Z CCA 33008KT 1 1/2SM -DZ BR OVC004 RMK FG2ST6 TEMP +0.2 CIG RAG VIS VRB 1-2

CYQF;2012-03-26 18:00;CYQF 261800Z 34008KT 1 1/2SM -DZ BR OVC004 00/M00 A2970 RMK FG2ST6 SLP094

CYQF;2012-03-26 18:45;CYQF 261845Z 34005KT 1 1/2SM -DZ BR OVC002 RMK FG2ST6 BLN VIS 400FT VIS VRB 1-2

CYQF;2012-03-26 19:00;CYQF 261900Z 35005KT 1 1/2SM -DZ BR OVC002 00/M00 A2971 RMK FG2ST6 VIS VRB 1-2 SLP096

CYQF;2012-03-26 20:00;CYQF 262000Z 34007KT 1SM -DZ BR OVC002 00/00 A2972 RMK FG4ST4 VIS VRB 3/4-11/4 SLP098

CYQF;2012-03-26 20:18;CYQF 262018Z 35006KT 1SM -SN BR OVC002 RMK FG4ST4 VIS VRB 3/4-11/4

CYQF;2012-03-26 21:00;CYQF 262100Z 34007KT 1SM -SN BR OVC003 00/00 A2971 RMK FG4ST4 VIS VRB 3/4-11/4 CIG RAG SLP099

CYQF;2012-03-26 22:00;CYQF 262200Z 35006KT 1SM -SN BR OVC004 01/00 A2971 RMK SN3ST5 VIS VRB 3/4-11/4 CIG RAG SLP098

CYQF;2012-03-26 23:00;CYQF 262300Z 34008KT 1SM -SN OVC003 00/M00 A2971 RMK SN5ST3 VIS VRB 1/2-11/2 SLP099

CYQF;2012-03-26 23:37;CYQF 262337Z 35005KT 1 1/2SM -SN OVC004 RMK SN3ST5 VIS VRB 1-2

CYQF;2012-03-27 00:00;CYQF 270000Z 35004KT 1 1/2SM -SN OVC004 01/00 A2972 RMK SN3ST5 VIS VRB 1-2 /S02/ SLP102

CYQF;2012-03-27 01:00;CYQF 270100Z 35004KT 1 1/2SM -SN OVC004 00/M00 A2973 RMK SN3ST5 VIS VRB 1-2 SLP105

CYQF;2012-03-27 02:00;CYQF 270200Z 36004KT 1 1/2SM BR OVC004 00/M00 A2973 RMK ST8 SLP105

CYQF;2012-03-27 02:39;CYQF 270239Z 35007KT 1 1/2SM -SN BR OVC004 RMK ST8

CYQF;2012-03-27 03:00;CYQF 270300Z 36010KT 1 1/2SM -SN BR OVC004 00/M01 A2974 RMK ST8 SLP108

CYQF;2012-03-27 03:34;CYQF 270334Z 36007KT 3SM -SN BR OVC004 RMK ST8

CYQF;2012-03-27 04:00;CYQF 270400Z 02009KT 3SM -SHGS BR OVC004 00/M01 A2972 RMK ST8 SLP104

CYQF;2012-03-27 04:14;CYQF 270414Z 02006KT 10SM -SN OVC004 RMK ST8

CYQF;2012-03-27 05:00;CYQF 270500Z 26003KT 15SM -SN OVC004 00/M01 A2973 RMK ST8 SLP107

CYQF;2012-03-27 06:00;CYQF 270600Z 30004KT 6SM -SN OVC004 00/M01 A2974 RMK ST8 SLP110

CYQF;2012-03-27 07:00;CYQF 270700Z 29004KT 3SM -SN OVC004 M00/M01 A2974 RMK SN3ST5 SLP108

CYQF;2012-03-27 08:00;CYQF 270800Z 36005KT 3SM -SN OVC004 00/M01 A2973 RMK SN3ST5 SLP107

CYQF;2012-03-27 09:00;CYQF 270900Z 03004KT 3SM -SN OVC004 00/M01 A2974 RMK SN3ST5 SLP109

CYQF;2012-03-27 09:39;CYQF 270939Z 01003KT 1 1/2SM -SN VV004 RMK SN8

CYQF;2012-03-27 10:00;CYQF 271000Z 01004KT 1 1/2SM -SN VV004 M00/M01 A2974 RMK SN8 SLP109

CYQF;2012-03-27 11:00;CYQF 271100Z 03004KT 1 1/2SM -SN VV004 M00/M01 A2974 RMK SN8 SLP110

CYQF;2012-03-27 12:00;CYQF 271200Z 06006KT 1 1/2SM -SN VV004 M00/M01 A2975 RMK SN8 /S01/ SLP112

CYQF;2012-03-27 12:25;CYQF 271225Z 06005KT 1SM -SN VV008 RMK SN8

CYQF;2012-03-27 12:40;CYQF 271240Z 08005KT 3SM -SN OVC060 RMK SN2SC6

CYQF;2012-03-27 12:52;CYQF 271252Z 07005KT 2SM -SN OVC060 RMK SN4SC4

CYQF;2012-03-27 13:00;CYQF 271300Z 07004KT 2SM -SN OVC060 M00/M01 A2975 RMK SN4SC4 SLP113

CYQF;2012-03-27 14:00;CYQF 271400Z 08002KT 2 1/2SM -SN VV030 M00/M01 A2977 RMK SN8 SLP119

CYQF;2012-03-27 14:19;CYQF 271419Z 08002KT 3SM -SN VV030 RMK SN8

CYQF;2012-03-27 14:48;CYQF 271448Z 06002KT 2 1/2SM -SN VV030 RMK SN8

CYQF;2012-03-27 15:00;CYQF 271500Z 00000KT 2SM -SN VV030 00/M01 A2977 RMK SN8 SLP118

CYQF;2012-03-27 16:00;CYQF 271600Z 00000KT 2 1/2SM -SN BR FEW006 BKN060 01/M01 A2977 RMK SF1SC6 SLP119

CYQF;2012-03-27 16:19;CYQF 271619Z 09003KT 3SM -SN BR BKN007 OVC060 RMK SF7SC1

CYQF;2012-03-27 17:00;CYQF 271700Z 10007KT 3SM -SN BR OVC008 02/M01 A2978 RMK SF8 SLP122

CYQF;2012-03-27 18:00;CYQF 271800Z 13010KT 6SM -SN BR OVC011 02/M01 A2978 RMK SC8 CIG RAG SLP122

CYQF;2012-03-27 18:47;CYQF 271847Z 14008KT 6SM BR OVC010 RMK SC8

CYQF;2012-03-27 19:00;CYQF 271900Z 13008KT 6SM BR OVC012 02/M01 A2979 RMK SC8 SLP125

CYQF;2012-03-27 20:00;CYQF 272000Z 13010KT 8SM OVC015 03/M01 A2979 RMK SC8 SLP125

CYQF;2012-03-27 21:00;CYQF 272100Z 13010KT 8SM OVC015 03/M01 A2979 RMK SC8 SLP124

CYQF;2012-03-27 22:00;CYQF 272200Z 12007KT 10SM OVC015 02/M01 A2979 RMK SC8 SLP125

CYQF;2012-03-27 23:00;CYQF 272300Z 13006KT 10SM OVC012 03/M01 A2979 RMK SC8 SLP123

CYQF;2012-03-28 00:00;CYQF 280000Z 14006KT 10SM OVC012 03/M01 A2979 RMK SC8 SLP125

CYQF;2012-03-28 01:00;CYQF 280100Z 13005KT 10SM OVC012 02/M01 A2979 RMK SC8 SLP123

CYQF;2012-03-28 02:00;CYQF 280200Z 12005KT 10SM OVC012 02/M01 A2979 RMK SC8 SLP123

CYQF;2012-03-28 03:00;CYQF 280300Z 11005KT 15SM OVC015 02/M00 A2979 RMK SC8 SLP124

CYQF;2012-03-28 04:00;CYQF 280400Z 13006KT 15SM OVC015 02/M01 A2978 RMK SC8 SLP122

CYQF;2012-03-28 05:00;CYQF 280500Z 12007KT 15SM BKN015 01/M01 A2977 RMK SC5 SLP120

CYQF;2012-03-28 06:00;CYQF 280600Z 15008KT 15SM SCT015 01/M01 A2976 RMK SC3 SLP115

CYQF;2012-03-28 07:00;CYQF 280700Z 14012KT 10SM BKN015 00/M01 A2974 RMK SC5 SLP107

CYQF;2012-03-28 07:19;CYQF 280719Z 16006KT 8SM BKN008 RMK SC6 BR

CYQF;2012-03-28 08:00;CYQF 280800Z 14008KT 8SM OVC008 00/M01 A2974 RMK ST8 BR SLP106

CYQF;2012-03-28 09:00;CYQF 280900Z 15008KT 6SM BR OVC008 00/M01 A2972 RMK ST8 SLP100

CYQF;2012-03-28 10:00;CYQF 281000Z 15012KT 6SM BR OVC008 00/M01 A2971 RMK ST8 SLP096

CYQF;2012-03-28 11:00;CYQF 281100Z 15010KT 3SM BR OVC008 00/M01 A2968 RMK ST8 SLP088

CYQF;2012-03-28 12:00;CYQF 281200Z 15010KT 3SM BR OVC008 M00/M01 A2966 RMK ST8 SLP080

CYQF;2012-03-28 12:44;CYQF 281244Z 13008KT 2SM BR OVC008 RMK ST8

CYQF;2012-03-28 13:00;CYQF 281300Z 13012KT 2SM BR OVC008 M00/M01 A2964 RMK ST8 SLP074

CYQF;2012-03-28 13:15;CYQF 281315Z 13010G15KT 1 1/2SM BR OVC002 RMK ST8 BLN VIS 400FT

CYQF;2012-03-28 14:00;CYQF 281400Z 14006KT 1SM BR VV003 M00/M01 A2962 RMK FG8 SLP066

CYQF;2012-03-28 14:15;CYQF 281415Z 15008KT 1 1/2SM BR OVC002 RMK FG3ST5 BLN VIS 400FT

CYQF;2012-03-28 14:42;CYQF 281442Z 15010KT 3SM BR OVC003 RMK FG3ST5 CIG RAG BLN VIS 500FT

CYQF;2012-03-28 15:00;CYQF 281500Z 14007KT 3SM BR BKN004 BKN050 OVC250 M00/M01 A2961 RMK SF6SC1CI1 SLP063

CYQF;2012-03-28 15:18;CYQF 281518Z 14010KT 3SM BR FEW005 SCT050 BKN250 RMK SF2SC2CI3

CYQF;2012-03-28 16:00;CYQF 281600Z 14010KT 3SM BR SCT005 SCT050 BKN250 01/M01 A2959 RMK SF2SC2CI3 CC SLP056

CYQF;2012-03-28 17:00;CYQF 281700Z 14012KT 5SM BR SCT050 SCT100 BKN250 01/M01 A2957 RMK SC2AC2CI3 SLP051

CYQF;2012-03-28 18:00;CYQF 281800Z 16012KT 5SM BR SCT015 BKN100 BKN250 03/M00 A2955 RMK ST2AC2CI2 SLP039

CYQF;2012-03-28 19:00;CYQF 281900Z 13006KT 8SM OVC040 03/00 A2954 RMK SC8 SLP036

CYQF;2012-03-28 20:00;CYQF 282000Z 13010KT 10SM SCT040 BKN250 06/02 A2952 RMK SC4CI2 SLP029

CYQF;2012-03-28 21:00;CYQF 282100Z 11007KT 10SM FEW040 BKN250 06/02 A2950 RMK SC2CI4 SLP018

CYQF;2012-03-28 22:00;CYQF 282200Z 13008KT 15SM FEW040 BKN250 07/02 A2948 RMK SC2CI4 SLP012

CYQF;2012-03-28 23:00;CYQF 282300Z 13008KT 15SM FEW040 BKN250 07/02 A2946 RMK SC2CI3 SLP007

CYQF;2012-03-29 00:00;CYQF 290000Z 15006KT 15SM FEW040 BKN250 08/03 A2944 RMK SC2CI2 SLP997

CYQF;2012-03-29 01:00;CYQF 290100Z 14008KT 15SM FEW040 BKN250 08/02 A2942 RMK SC2CI2 SLP990

CYQF;2012-03-29 02:00;CYQF 290200Z 13008KT 15SM FEW040 BKN250 07/02 A2941 RMK SC2CI2 SLP987

CYQF;2012-03-29 03:00;CYQF 290300Z 23006KT 15SM FEW040 BKN250 04/01 A2941 RMK SC2CI2 SLP991

CYQF;2012-03-29 04:00;CYQF 290400Z 26012KT 15SM BKN150 07/M02 A2945 RMK AC6 SLP002

CYQF;2012-03-29 05:00;CYQF 290500Z 27008KT 15SM OVC120 04/M02 A2947 RMK AC8 SLP009

CYQF;2012-03-29 06:00;CYQF 290600Z 30010KT 15SM OVC120 05/M04 A2948 RMK AC8 SLP011

CYQF;2012-03-29 07:00;CYQF 290700Z 30010KT 15SM BKN120 05/M05 A2949 RMK AC6 SLP015

CYQF;2012-03-29 08:00;CYQF 290800Z 24004KT 15SM FEW120 03/M05 A2951 RMK AC2 SLP021

CYQF;2012-03-29 09:00;CYQF 290900Z 27003KT 15SM SKC M01/M05 A2953 RMK SLP029

CYQF;2012-03-29 10:00;CYQF 291000Z 24005KT 15SM SKC M02/M05 A2954 RMK SLP032

CYQF;2012-03-29 11:00;CYQF 291100Z 21005KT 15SM FEW120 M02/M06 A2954 RMK AC1 SLP034

CYQF;2012-03-29 12:00;CYQF 291200Z 24007KT 15SM FEW120 M01/M08 A2954 RMK AC1 SLP032

CYQF;2012-03-29 13:00;CYQF 291300Z 20006KT 15SM FEW120 M02/M07 A2954 RMK AC2 SLP030

CYQF;2012-03-29 14:00;CYQF 291400Z 19007KT 15SM FEW010 BKN120 M02/M06 A2954 RMK SC1AC6 SLP030

CYQF;2012-03-29 15:00;CYQF 291500Z 14003KT 15SM FEW010 BKN120 02/M04 A2952 RMK SC1AC6 SLP026

CYQF;2012-03-29 16:00;CYQF 291600Z 19007KT 15SM FEW024 BKN120 03/M03 A2950 RMK CU1AC7 SLP019

CYQF;2012-03-29 17:00;CYQF 291700Z 18008KT 15SM FEW030 BKN120 04/M03 A2949 RMK CU1AC7 SLP016

CYQF;2012-03-29 18:00;CYQF 291800Z 18008KT 15SM FEW032 BKN120 05/M03 A2949 RMK CU1AC7 SLP011

CYQF;2012-03-29 19:00;CYQF 291900Z 18010G15KT 15SM FEW032 BKN120 05/M02 A2946 RMK CU1AC7 SLP003

CYQF;2012-03-29 20:00;CYQF 292000Z 18012G18KT 15SM FEW040 FEW120 SCT250 09/M01 A2943 RMK CU1AC1CI2 TR CU SLP992

CYQF;2012-03-29 21:00;CYQF 292100Z 18008KT 15SM FEW040 FEW120 SCT250 09/M02 A2940 RMK CU1AC1CI2 SLP982

CYQF;2012-03-29 22:00;CYQF 292200Z 19010G15KT 15SM FEW120 BKN250 11/M03 A2938 RMK AC1CI5 SLP975

CYQF;2012-03-29 23:00;CYQF 292300Z 20006KT 15SM FEW120 BKN250 12/M02 A2937 RMK AC1CI5 SLP973

CYQF;2012-03-30 00:00;CYQF 300000Z 22008KT 15SM FEW120 BKN250 09/M02 A2936 RMK AC1CI6 SLP971

CYQF;2012-03-30 01:00;CYQF 300100Z 15003KT 15SM FEW120 BKN250 10/M04 A2936 RMK AC1CI6 SLP968

CYQF;2012-03-30 02:00;CYQF 300200Z 14004KT 15SM BKN250 08/M02 A2935 RMK CI6 SLP965

CYQF;2012-03-30 03:00;CYQF 300300Z 18006KT 15SM BKN210 05/M02 A2932 RMK CI6 SLP956

CYQF;2012-03-30 04:00;CYQF 300400Z 17006KT 15SM BKN210 04/M02 A2932 RMK CI3 SLP954

CYQF;2012-03-30 05:00;CYQF 300500Z 19012KT 15SM BKN210 04/M02 A2929 RMK CI2 SLP947

CYQF;2012-03-30 06:00;CYQF 300600Z 19012KT 15SM BKN210 03/M02 A2927 RMK CI2 SLP938

CYQF;2012-03-30 07:00;CYQF 300700Z 17011KT 15SM SCT210 03/M02 A2924 RMK CI2 SLP929

CYQF;2012-03-30 08:00;CYQF 300800Z 18010KT 15SM SCT210 02/M02 A2923 RMK CI2 SLP926

CYQF;2012-03-30 09:00;CYQF 300900Z 17010KT 15SM BKN210 02/M02 A2920 RMK CI2 SLP911

CYQF;2012-03-30 10:00;CYQF 301000Z 17006KT 15SM FEW210 02/M02 A2919 RMK CI1 SLP908

CYQF;2012-03-30 11:00;CYQF 301100Z 18010KT 15SM SKC 01/M02 A2918 RMK SLP904

CYQF;2012-03-30 12:00;CYQF 301200Z 18005KT 15SM FEW120 01/M02 A2918 RMK AC1 SLP904

CYQF;2012-03-30 13:00;CYQF 301300Z 25004KT 15SM FEW120 M01/M04 A2919 RMK AC2 SLP908

CYQF;2012-03-30 14:00;CYQF 301400Z 00000KT 15SM FEW020 FEW100 M00/M03 A2919 RMK SC1AC2 SLP907

CYQF;2012-03-30 15:00;CYQF 301500Z 18006KT 15SM FEW020 FEW100 02/M02 A2918 RMK CU1AC2 SLP907

CYQF;2012-03-30 16:00;CYQF 301600Z 23008KT 15SM FEW020 FEW100 SCT250 04/M02 A2921 RMK CU1AC2CI0 SLP917

CYQF;2012-03-30 17:00;CYQF 301700Z 28007KT 15SM FEW020 FEW100 SCT250 05/M02 A2922 RMK CU1AC2CI0 SLP918

CYQF;2012-03-30 18:00;CYQF 301800Z 26007KT 15SM FEW020 BKN100 BKN250 06/M02 A2924 RMK CU1AC4CI2 SLP925

CYQF;2012-03-30 19:00;CYQF 301900Z 30003KT 15SM SCT080 BKN250 06/M02 A2923 RMK AC4CI2 VIRGA SLP922

CYQF;2012-03-30 20:00;CYQF 302000Z 28004KT 15SM BKN080 BKN250 06/M03 A2924 RMK AC5CI2 VIRGA SLP926

CYQF;2012-03-30 21:00;CYQF 302100Z 00000KT 15SM FEW035 BKN080 BKN250 07/M02 A2925 RMK CU2AC3CI2 VIRGA SLP931

CYQF;2012-03-30 22:00;CYQF 302200Z 36007KT 15SM FEW035 SCT080 BKN250 08/M01 A2927 RMK CU1AC2CI2 VIRGA SLP936

CYQF;2012-03-30 23:00;CYQF 302300Z 36008KT 15SM FEW040TCU FEW080 BKN250 08/M02 A2929 RMK TCU2AC1CI1 SLP942

CYQF;2012-03-30 23:47;CYQF 302347Z 31020G25KT 15SM FEW040TCU BKN080 BKN250 RMK TCU2AC2CI0 WND SHFT SHWRS DIST ALQDS

CYQF;2012-03-31 00:00;CYQF 310000Z 33015G20KT 15SM FEW030TCU SCT080 BKN250 05/M01 A2934 RMK TCU2AC1CI2 SHWRS DIST SE AND NW-N SLP962

CYQF;2012-03-31 01:00;CYQF 310100Z 36004KT 15SM FEW030 FEW080 BKN250 04/M00 A2935 RMK CU1AC1CI3 SLP966

CYQF;2012-03-31 02:00;CYQF 310200Z 34003KT 15SM FEW030 FEW080 BKN250 03/M01 A2937 RMK CU1AC1CI2 SLP974

CYQF;2012-03-31 03:00;CYQF 310300Z 00000KT 15SM FEW080 BKN250 02/M01 A2940 RMK AC1CI2 SLP988

CYQF;2012-03-31 04:00;CYQF 310400Z 27006KT 15SM SCT100 OVC250 01/M01 A2944 RMK AC3CI5 VIRGA N SLP000

CYQF;2012-03-31 04:24;CYQF 310424Z 22015G20KT 15SM VCSH OVC080 RMK AC8 WND SHFT

CYQF;2012-03-31 05:00;CYQF 310500Z 18010G15KT 15SM BKN060 BKN250 03/M02 A2947 RMK CU5CI2 VIRGA/SHWRS NW-NE SLP009

CYQF;2012-03-31 06:00;CYQF 310600Z 29012KT 15SM BKN060 OVC100 01/M00 A2951 RMK SC6AC2 SLP021

CYQF;2012-03-31 07:00;CYQF 310700Z 28004KT 15SM FEW060 SCT100 00/M02 A2951 RMK SC2AC1 SLP022

CYQF;2012-03-31 08:00;CYQF 310800Z 26004KT 15SM FEW060 M01/M02 A2951 RMK SC2 SLP022

CYQF;2012-03-31 09:00;CYQF 310900Z 23005KT 15SM FEW060 M02/M03 A2952 RMK SC2 SLP027

CYQF;2012-03-31 10:00;CYQF 311000Z 20007KT 15SM FEW100 M02/M03 A2953 RMK AC2 SLP030

CYQF;2012-03-31 11:00;CYQF 311100Z 20007KT 15SM FEW100 M02/M03 A2953 RMK AC2 SLP029

CYQF;2012-03-31 12:00;CYQF 311200Z 00000KT 15SM FEW100 M03/M05 A2952 RMK AC2 SLP030

CYQF;2012-03-31 13:00;CYQF 311300Z 00000KT 15SM BCFG FEW100 M04/M05 A2952 RMK AC2 SLP030

CYQF;2012-03-31 14:00;CYQF 311400Z 00000KT 15SM BCFG FEW100 M03/M04 A2951 RMK AC2 SLP029

CYQF;2012-03-31 15:00;CYQF 311500Z 00000KT 15SM SCT100 M01/M02 A2953 RMK AC3 SLP035

CYQF;2012-03-31 16:00;CYQF 311600Z 15006KT 15SM FEW100 03/M01 A2951 RMK AC2 SLP030

CYQF;2012-03-31 17:00;CYQF 311700Z 16003KT 15SM FEW100 05/M01 A2949 RMK AC1 SLP025

CYQF;2012-03-31 18:00;CYQF 311800Z 00000KT 15SM FEW032 SCT210 06/M00 A2948 RMK CU1CI1 SLP011

CYQF;2012-03-31 19:00;CYQF 311900Z 12010KT 15SM FEW032 FEW210 06/M02 A2947 RMK CU1CI0 SLP007

CYQF;2012-03-31 20:00;CYQF 312000Z 11007KT 15SM FEW040 SCT210 08/M02 A2944 RMK CU1CI2 SLP998

CYQF;2012-03-31 21:00;CYQF 312100Z 08005KT 15SM FEW040 BKN210 08/M02 A2942 RMK CU1CI2 SLP992

CYQF;2012-03-31 22:00;CYQF 312200Z 06006KT 15SM FEW045 BKN250 09/M02 A2941 RMK CU1CI2 SLP988

CYQF;2012-03-31 23:00;CYQF 312300Z 06006KT 15SM FEW050 FEW100 BKN250 09/M03 A2941 RMK CU1AC2CI4 SLP987

CYQF;2012-04-01 00:00;CYQF 010000Z 06006KT 15SM FEW050 SCT100 OVC250 09/M02 A2941 RMK SC1AC3CI4 SLP988

CYQF;2012-04-01 01:00;CYQF 010100Z 05007KT 15SM FEW100 BKN250 09/M02 A2940 RMK AC2CI4 SLP985

CYQF;2012-04-01 02:00;CYQF 010200Z 04006KT 15SM SCT100 BKN250 07/M03 A2939 RMK AC3CI2 SLP981

CYQF;2012-04-01 03:00;CYQF 010300Z CCA 36005KT 15SM BKN070 BKN250 04/M03 A2938 RMK AC5CI2 VIRGA SLP982

CYQF;2012-04-01 04:00;CYQF 010400Z 02008KT 15SM BKN070 BKN250 05/M03 A2936 RMK AC6CI1 VIRGA SLP976

CYQF;2012-04-01 05:00;CYQF 010500Z 01008KT 15SM BKN080 OVC250 05/M02 A2936 RMK AC6CI2 SLP975

CYQF;2012-04-01 06:00;CYQF 010600Z 01008KT 15SM BKN080 OVC250 04/M01 A2933 RMK AC6CI2 SLP956

CYQF;2012-04-01 07:00;CYQF 010700Z 35006KT 15SM SCT040 OVC080 03/M01 A2932 RMK SC3AC5 SLP952

CYQF;2012-04-01 07:41;CYQF 010741Z 03005KT 15SM -RA OVC060 RMK SC8

CYQF;2012-04-01 08:00;CYQF 010800Z 32004KT 15SM -RA OVC060 03/00 A2931 RMK SC8 SLP949

CYQF;2012-04-01 09:00;CYQF 010900Z 32004KT 15SM -RA OVC060 02/M01 A2927 RMK SC8 SLP937

CYQF;2012-04-01 09:40;CYQF 010940Z 27007KT 15SM OVC060 RMK SC8

CYQF;2012-04-01 10:00;CYQF 011000Z 28007KT 15SM OVC050 01/M01 A2930 RMK SC8 SLP945

CYQF;2012-04-01 11:00;CYQF 011100Z 25013KT 15SM OVC050 01/M01 A2922 RMK SC8 PRESFR SLP920

CYQF;2012-04-01 12:00;CYQF 011200Z 30012KT 15SM OVC050 01/M01 A2927 RMK SC8 SLP935

CYQF;2012-04-01 12:42;CYQF 011242Z 29012G18KT 15SM SCT008 OVC040 RMK SF4SC4

CYQF;2012-04-01 13:00;CYQF 011300Z 31008KT 15SM SCT008 OVC040 01/M01 A2931 RMK SF3SC5 SLP949

CYQF;2012-04-01 13:49;CYQF 011349Z 29010KT 10SM BKN008 OVC040 RMK SF6SC2

CYQF;2012-04-01 14:00;CYQF 011400Z 30010G15KT 10SM BKN008 OVC040 00/M01 A2935 RMK SF6SC2 SLP961

CYQF;2012-04-01 15:00;CYQF 011500Z 31013G21KT 15SM BKN013 BKN040 01/M02 A2937 RMK SF6SC2 CIG RAG SLP977

CYQF;2012-04-01 16:00;CYQF 011600Z 30015G25KT 15SM BKN014 01/M02 A2940 RMK SC7 SLP985

CYQF;2012-04-01 17:00;CYQF 011700Z 30015G28KT 15SM OVC015 02/M02 A2943 RMK SC8 SLP995

CYQF;2012-04-01 18:00;CYQF 011800Z 30015G25KT 15SM OVC015 02/M03 A2947 RMK SC8 SLP012

CYQF;2012-04-01 19:00;CYQF 011900Z 33015G25KT 15SM BKN020 03/M02 A2951 RMK CU7 SLP024

CYQF;2012-04-01 20:00;CYQF 012000Z 33015G25KT 15SM SCT025 BKN250 04/M03 A2954 RMK CU4CI0 SLP033

CYQF;2012-04-01 21:00;CYQF 012100Z 33012G20KT 15SM FEW025 BKN250 04/M02 A2956 RMK CU2CI1 SLP042

CYQF;2012-04-01 22:00;CYQF 012200Z 34015G20KT 15SM FEW025 BKN250 04/M03 A2958 RMK CU2CI1 SLP048

CYQF;2012-04-01 23:00;CYQF 012300Z 36010G15KT 15SM FEW025 BKN250 04/M03 A2962 RMK CU2CI1 SLP060

CYQF;2012-04-02 00:00;CYQF 020000Z 35010G15KT 15SM FEW032 BKN250 04/M04 A2965 RMK CU1CI2 SLP072

CYQF;2012-04-02 01:00;CYQF 020100Z 35010KT 15SM FEW030 BKN250 03/M04 A2967 RMK SC2CI1 SLP080

CYQF;2012-04-02 02:00;CYQF 020200Z 01005KT 15SM FEW030 SCT250 02/M04 A2970 RMK SC2CI0 SLP089

CYQF;2012-04-02 03:00;CYQF 020300Z 00000KT 15SM FEW030 SCT250 M01/M04 A2975 RMK SC2CI0 SLP111

CYQF;2012-04-02 04:00;CYQF 020400Z 14003KT 15SM SCT060 BKN250 01/M03 A2978 RMK SC3CI2 SLP123

CYQF;2012-04-02 05:00;CYQF 020500Z 12003KT 15SM BKN060 01/M03 A2980 RMK SC6 SLP127

CYQF;2012-04-02 06:00;CYQF 020600Z 20004KT 15SM BKN060 00/M02 A2982 RMK SC7 SLP134

CYQF;2012-04-02 07:00;CYQF 020700Z 20002KT 15SM OVC050 00/M02 A2985 RMK SC8 SLP143

CYQF;2012-04-02 07:20;CYQF 020720Z 00000KT 15SM -SN OVC050 RMK SC8

CYQF;2012-04-02 08:00;CYQF 020800Z 36004KT 15SM -SN OVC050 00/M03 A2990 RMK SC8 SLP159

CYQF;2012-04-02 09:00;CYQF 020900Z 33012KT 15SM -SN OVC050 00/M01 A2993 RMK SC8 SLP169

CYQF;2012-04-02 10:00;CYQF 021000Z 02006KT 15SM -SN BKN050 M01/M02 A2994 RMK SC6 SLP172

CYQF;2012-04-02 10:43;CYQF 021043Z 19003KT 15SM SCT050 RMK SC3

CYQF;2012-04-02 11:00;CYQF 021100Z 19002KT 15SM BKN040 M02/M03 A2996 RMK SC5 SLP180

CYQF;2012-04-02 12:00;CYQF 021200Z 21008KT 15SM FEW040 M01/M03 A2999 RMK SC2 SLP193

CYQF;2012-04-02 13:00;CYQF 021300Z 25008KT 15SM FEW040 M02/M03 A3003 RMK SC2 SLP204

CYQF;2012-04-02 14:00;CYQF 021400Z 21005KT 15SM FEW070 M01/M02 A3004 RMK ACC2 SLP209

CYQF;2012-04-02 15:00;CYQF 021500Z 20005KT 15SM FEW070 FEW250 01/M02 A3005 RMK ACC1CI1 SLP219

CYQF;2012-04-02 16:00;CYQF 021600Z 22005KT 15SM FEW070 FEW250 02/M01 A3006 RMK ACC1CI1 SLP222

CYQF;2012-04-02 17:00;CYQF 021700Z 18004KT 15SM SCT250 04/M01 A3006 RMK CI2 SLP221

CYQF;2012-04-02 18:00;CYQF 021800Z 16005KT 15SM BKN250 06/M01 A3005 RMK CI6 SLP210

CYQF;2012-04-02 19:00;CYQF 021900Z 16008KT 15SM FEW040 BKN250 07/M02 A3005 RMK CF1CI6 SLP208

CYQF;2012-04-02 20:00;CYQF 022000Z 18008KT 15SM FEW056 BKN250 09/M06 A3004 RMK CF1CI5 SLP205

CYQF;2012-04-02 21:00;CYQF 022100Z 17007KT 15SM FEW055 BKN250 10/M05 A3003 RMK CF1CI2 SLP197

CYQF;2012-04-02 22:00;CYQF 022200Z 16010KT 15SM BKN250 11/M06 A3000 RMK CI2 SLP188

CYQF;2012-04-02 23:00;CYQF 022300Z 16010KT 15SM FEW210 11/M06 A2998 RMK CI1 SLP183

CYQF;2012-04-03 00:00;CYQF 030000Z 17010KT 15SM FEW210 11/M06 A2996 RMK CI2 SLP175

CYQF;2012-04-03 01:00;CYQF 030100Z 22006KT 15SM FEW210 10/M03 A2995 RMK CI1 SLP173

CYQF;2012-04-03 02:00;CYQF 030200Z 19004KT 15SM FEW060 FEW210 08/M03 A2995 RMK SC1CI1 SLP172

CYQF;2012-04-03 03:00;CYQF 030300Z 19006KT 15SM FEW060 FEW210 05/M04 A2996 RMK SC1CI1 SLP179

CYQF;2012-04-03 04:00;CYQF 030400Z 22006KT 15SM SCT210 04/M04 A2995 RMK CI2 SLP176

CYQF;2012-04-03 05:00;CYQF 030500Z 19010KT 15SM SCT210 03/M05 A2994 RMK CI2 SLP174

CYQF;2012-04-03 06:00;CYQF 030600Z 18005KT 15SM FEW210 03/M05 A2993 RMK CI2 SLP165

CYQF;2012-04-03 07:00;CYQF 030700Z 21008KT 15SM FEW210 04/M05 A2992 RMK CI1 SLP161

CYQF;2012-04-03 08:00;CYQF 030800Z 19005KT 15SM SCT250 03/M05 A2991 RMK CI2 SLP160

CYQF;2012-04-03 09:00;CYQF 030900Z 17006KT 15SM BKN210 03/M04 A2990 RMK CI3 SLP151

CYQF;2012-04-03 10:00;CYQF 031000Z 15003KT 15SM BKN210 03/M04 A2988 RMK CI3 SLP145

CYQF;2012-04-03 11:00;CYQF 031100Z 18007KT 15SM SCT100 BKN210 03/M04 A2986 RMK AC3CI2 SLP140

CYQF;2012-04-03 12:00;CYQF 031200Z 20006KT 15SM BKN100 BKN210 02/M04 A2985 RMK AC5CI1 SLP133

CYQF;2012-04-03 13:00;CYQF 031300Z 21008KT 15SM SCT090 BKN210 03/M05 A2983 RMK AC4CI2 SLP128

CYQF;2012-04-03 14:00;CYQF 031400Z 20010KT 15SM SCT100 BKN210 04/M04 A2982 RMK AC4CI2 SLP125

CYQF;2012-04-03 15:00;CYQF 031500Z 18010KT 15SM SCT100 BKN210 05/M04 A2982 RMK AC3CI3 CC SLP125

CYQF;2012-04-03 16:00;CYQF 031600Z 15010G15KT 15SM FEW100 BKN210 07/M05 A2981 RMK AC2CI3 CC SLP122

CYQF;2012-04-03 17:00;CYQF 031700Z 20011KT 15SM FEW100 BKN210 11/M03 A2978 RMK AC2CI3 SLP115

CYQF;2012-04-03 18:00;CYQF 031800Z 16010G15KT 15SM SCT100 BKN210 12/M02 A2977 RMK AC4CI3 SLP102

CYQF;2012-04-03 19:00;CYQF 031900Z 15012G18KT 15SM FEW100 BKN210 14/M03 A2975 RMK AC2CI4 SLP096

CYQF;2012-04-03 20:00;CYQF 032000Z 17015G25KT 15SM FEW100 BKN210 15/M02 A2973 RMK AC2CI4 SLP089

CYQF;2012-04-03 21:00;CYQF 032100Z 15013G22KT 15SM FEW060 BKN100 BKN250 15/M03 A2969 RMK CU1AC6CI1 SLP071

CYQF;2012-04-03 22:00;CYQF 032200Z 17010G15KT 15SM FEW060 SCT100 BKN250 15/M04 A2967 RMK CU1AC4CI3 SLP065

CYQF;2012-04-03 23:00;CYQF 032300Z 15010G15KT 15SM FEW060 SCT100 BKN250 15/M03 A2964 RMK CU1AC3CI4 SLP057

CYQF;2012-04-04 00:00;CYQF 040000Z 15012KT 15SM FEW060 SCT100 BKN250 14/M03 A2961 RMK CU1AC3CI4 SLP046

CYQF;2012-04-04 01:00;CYQF 040100Z 15010G15KT 15SM FEW100 BKN250 13/M02 A2959 RMK AC2CI4 SLP042

CYQF;2012-04-04 02:00;CYQF 040200Z 17010G15KT 15SM FEW100 BKN250 12/M04 A2959 RMK AC2CI2 SLP040

CYQF;2012-04-04 03:00;CYQF 040300Z 17011KT 15SM FEW100 SCT250 10/M04 A2959 RMK AC1CI1 SLP041

CYQF;2012-04-04 04:00;CYQF 040400Z 17008KT 15SM SKC 07/M04 A2959 RMK SLP042

CYQF;2012-04-04 05:00;CYQF 040500Z 14007KT 15SM SKC 06/M04 A2961 RMK SLP047

CYQF;2012-04-04 06:00;CYQF 040600Z 22008KT 15SM SKC 02/M04 A2962 RMK SLP052

CYQF;2012-04-04 07:00;CYQF 040700Z 22010KT 15SM SKC 02/M04 A2962 RMK SLP053

CYQF;2012-04-04 08:00;CYQF 040800Z 19008KT 15SM FEW210 03/M04 A2965 RMK CI1 SLP060

CYQF;2012-04-04 09:00;CYQF 040900Z 16004KT 15SM FEW100 BKN210 02/M04 A2966 RMK AC2CI2 SLP061

CYQF;2012-04-04 10:00;CYQF 041000Z 23004KT 15SM FEW100 BKN210 02/M05 A2966 RMK AC2CI2 SLP063

CYQF;2012-04-04 11:00;CYQF 041100Z 20006KT 15SM SCT100 BKN210 M00/M04 A2966 RMK AC3CI2 SLP062

CYQF;2012-04-04 12:00;CYQF 041200Z 23007KT 15SM SCT100 BKN210 00/M04 A2967 RMK AC3CI2 SLP069

CYQF;2012-04-04 13:00;CYQF 041300Z 35010KT 15SM SCT100 BKN210 04/M04 A2972 RMK AC3CI3 SLP084

CYQF;2012-04-04 14:00;CYQF 041400Z 36010KT 15SM SCT100 OVC210 04/M04 A2973 RMK AC3CI5 SLP088

CYQF;2012-04-04 15:00;CYQF 041500Z 03008KT 15SM FEW060 BKN100 OVC210 04/M05 A2976 RMK SC2AC3CI2 SLP099

CYQF;2012-04-04 16:00;CYQF 041600Z 01012G17KT 15SM FEW060 BKN100 BKN210 05/M06 A2977 RMK SC2AS3CS2 SLP103

CYQF;2012-04-04 17:00;CYQF 041700Z 01012G18KT 15SM BKN100 BKN210 05/M05 A2976 RMK AS6CS2 SLP099

CYQF;2012-04-04 18:00;CYQF 041800Z 34015G20KT 15SM BKN100 BKN210 05/M06 A2976 RMK AS6CS2 SLP106

CYQF;2012-04-04 19:00;CYQF 041900Z 34015G20KT 15SM BKN080 BKN210 06/M06 A2974 RMK AC5CI2 SLP102

CYQF;2012-04-04 20:00;CYQF 042000Z 34015G20KT 15SM BKN080 BKN210 06/M07 A2973 RMK AC5CI2 SLP098

CYQF;2012-04-04 21:00;CYQF 042100Z 33013G18KT 15SM BKN080 BKN210 07/M06 A2974 RMK AC6CS2 SLP097

CYQF;2012-04-04 22:00;CYQF 042200Z 35010G15KT 15SM BKN070 OVC200 07/M06 A2973 RMK AC6CI2 SLP095

CYQF;2012-04-04 23:00;CYQF 042300Z 34013G20KT 15SM OVC030 06/M06 A2974 RMK SC8 VIRGA SLP099

CYQF;2012-04-04 23:37;CYQF 042337Z 34010G15KT 12SM -SN OVC025 RMK SC8 CIG RAG

CYQF;2012-04-05 00:00;CYQF 050000Z 35010G15KT 3SM -SN FEW010 OVC025 04/M03 A2977 RMK SC2SC6 CIG RAG VIS S 8 SLP115

CYQF;2012-04-05 00:24;CYQF 050024Z 34010G15KT 3SM -SN SCT005 OVC010 RMK SC3SC5 CIG RAG

CYQF;2012-04-05 01:00;CYQF 050100Z 32010G15KT 2SM -SN BR SCT005 OVC010 02/M02 A2980 RMK SC3SC5 SLP124

CYQF;2012-04-05 02:00;CYQF 050200Z 33012G18KT 2SM -SN BR BKN010 OVC030 00/M02 A2980 RMK SC5SC3 SLP126

CYQF;2012-04-05 02:45;CYQF 050245Z 32014G23KT 8SM -SN FEW010 OVC030 RMK SC2SC6

CYQF;2012-04-05 03:00;CYQF 050300Z 31010G15KT 5SM -SN BR FEW010 OVC030 00/M02 A2981 RMK SC2SC6 SLP129

CYQF;2012-04-05 03:19;CYQF 050319Z 31020G26KT 2SM -SN OVC010 RMK SC8 VIS VRB 1-3 CIG RAG

CYQF;2012-04-05 04:00;CYQF 050400Z 31012G17KT 2SM -SN BR SCT010 OVC020 M00/M01 A2984 RMK SC3SC5 VIS VRB 1-3 CIG RAG SLP137

CYQF;2012-04-05 05:00;CYQF 050500Z 33010G16KT 1 1/2SM -SN OVC020 M01/M01 A2983 RMK SN3SC5 CIG RAG SLP134

CYQF;2012-04-05 06:00;CYQF 050600Z 33010G15KT 1 1/2SM -SN OVC015 M01/M01 A2982 RMK SN3SC5 CIG RAG /S03/ SLP131

CYQF;2012-04-05 07:00;CYQF 050700Z 32012G18KT 1 1/2SM -SN OVC015 M01/M02 A2979 RMK SN3SC5 /S01/ SLP122

CYQF;2012-04-05 07:35;CYQF 050735Z 30010KT 1SM -SN VV008 RMK SN8

CYQF;2012-04-05 08:00;CYQF 050800Z 30010KT 1SM -SN VV008 M01/M02 A2978 RMK SN8 /S02/ SLP120

CYQF;2012-04-05 08:25;CYQF 050825Z 31012KT 1 1/2SM -SN OVC015 RMK SN3SC5

CYQF;2012-04-05 09:00;CYQF 050900Z 30015KT 1 1/2SM -SN OVC015 M01/M02 A2977 RMK SN3SC5 /S03/ SLP112

CYQF;2012-04-05 09:37;CYQF 050937Z 30013KT 3SM -SN OVC015 RMK SC8

CYQF;2012-04-05 10:00;CYQF 051000Z 29015KT 3SM -SN OVC015 M01/M02 A2979 RMK SC8 SLP118

CYQF;2012-04-05 10:41;CYQF 051041Z 29015KT 1 1/2SM -SN OVC015 RMK SN3SC5

CYQF;2012-04-05 11:00;CYQF 051100Z 29016KT 1 1/2SM -SN OVC015 M01/M02 A2980 RMK SN3SC5 /S04/ SLP121

CYQF;2012-04-05 12:00;CYQF 051200Z 30015KT 2SM -SN OVC015 M01/M02 A2981 RMK SN2SC6 /S05/ SLP131

CYQF;2012-04-05 13:00;CYQF 051300Z 28010KT 1 1/2SM -SN OVC015 M01/M02 A2982 RMK SN3SC5 SLP133

CYQF;2012-04-05 13:40;CYQF 051340Z 28012KT 1SM -SN OVC012 RMK SN3SC5

CYQF;2012-04-05 14:00;CYQF 051400Z 28013KT 1 1/2SM -SN OVC012 M01/M03 A2982 RMK SN2SC6 VIS VRB 1-2 SLP135

CYQF;2012-04-05 14:17;CYQF 051417Z 29012KT 4SM -SN BKN015 BKN080 RMK SC5AC2

CYQF;2012-04-05 14:53;CYQF 051453Z 28013KT 15SM FEW015 BKN210 RMK SC2CI2

CYQF;2012-04-05 15:00;CYQF 051500Z 28013KT 15SM FEW015 BKN210 M01/M03 A2984 RMK SC2CI2 SLP145

CYQF;2012-04-05 16:00;CYQF 051600Z 29010KT 15SM FEW015 FEW130 BKN210 M01/M03 A2985 RMK SC2AC1CI3 CC SLP150

CYQF;2012-04-05 17:00;CYQF 051700Z 28010G15KT 15SM SCT010 BKN210 00/M02 A2987 RMK SC3CI3 CC SLP156

CYQF;2012-04-05 17:25;CYQF 051725Z 27010G15KT 15SM BKN012 BKN210 RMK SC5CI2 CU

CYQF;2012-04-05 18:00;CYQF 051800Z 28010G15KT 15SM BKN012 OVC210 01/M02 A2988 RMK SC6CI1 CU SLP159

CYQF;2012-04-05 18:27;CYQF 051827Z 28010G15KT 15SM SCT012 BKN070 BKN210 RMK CU3AC2CI1

CYQF;2012-04-05 18:39;CYQF 051839Z 29010G15KT 10SM -SN SCT012 BKN070 BKN210 RMK CU4AC2CI1

CYQF;2012-04-05 19:00;CYQF 051900Z 29012G17KT 15SM BKN016 BKN210 02/M02 A2989 RMK CU6CI1 OCNL -SHSN SLP161

CYQF;2012-04-05 20:00;CYQF 052000Z 31014G20KT 15SM VCSH BKN018 02/M02 A2990 RMK CU6 SLP163

CYQF;2012-04-05 21:00;CYQF 052100Z 31010G15KT 15SM SCT020 SCT220 02/M03 A2990 RMK CU3CI1 SLP165

CYQF;2012-04-05 22:00;CYQF 052200Z 30002KT 15SM FEW020 SCT220 03/M03 A2990 RMK CU2CI1 SLP165

CYQF;2012-04-05 23:00;CYQF 052300Z 28002KT 15SM SCT030 03/M04 A2991 RMK CU3 SLP167

CYQF;2012-04-06 00:00;CYQF 060000Z 28002KT 15SM SCT025 SCT250 03/M04 A2992 RMK CU3CI1 SLP171

CYQF;2012-04-06 01:00;CYQF 060100Z 26004KT 15SM FEW020 FEW250 02/M03 A2993 RMK CU2CI1 SLP174

CYQF;2012-04-06 02:00;CYQF 060200Z 23003KT 15SM FEW020 FEW250 01/M03 A2995 RMK CU1CI2 SLP178

CYQF;2012-04-06 03:00;CYQF 060300Z 21002KT 15SM FEW020 FEW250 M01/M03 A2996 RMK CU1CI2 SLP187

CYQF;2012-04-06 04:00;CYQF 060400Z 17003KT 15SM FEW250 M01/M03 A2998 RMK CI2 SLP193

CYQF;2012-04-06 05:00;CYQF 060500Z 00000KT 15SM FEW120 M02/M04 A2998 RMK AC2 SLP195

CYQF;2012-04-06 06:00;CYQF 060600Z 20002KT 15SM SCT100 M02/M04 A2999 RMK AC3 SLP197

CYQF;2012-04-06 07:00;CYQF 060700Z 27003KT 15SM FEW100 M03/M04 A2999 RMK AC2 SLP198

CYQF;2012-04-06 08:00;CYQF 060800Z 00000KT 15SM FEW100 M03/M05 A2999 RMK AC2 SLP197

CYQF;2012-04-06 09:00;CYQF 060900Z 00000KT 15SM FEW100 M04/M06 A2998 RMK AC2 SLP195

CYQF;2012-04-06 10:00;CYQF 061000Z 15006KT 15SM FEW100 M04/M05 A3000 RMK AC2 SLP202

CYQF;2012-04-06 11:00;CYQF 061100Z 21004KT 15SM BKN100 M05/M06 A3002 RMK AC3 SLP207

CYQF;2012-04-06 12:00;CYQF 061200Z 24003KT 15SM BKN100 M04/M05 A3003 RMK AC3 SLP210

CYQF;2012-04-06 13:00;CYQF 061300Z 31002KT 15SM BKN100 M04/M06 A3004 RMK AC4 SLP213

CYQF;2012-04-06 14:00;CYQF 061400Z 32003KT 15SM FEW100 M03/M05 A3004 RMK AC2 SLP215

CYQF;2012-04-06 15:00;CYQF 061500Z 32005KT 15SM FEW100 FEW250 M01/M04 A3005 RMK AC1CI1 SLP220

CYQF;2012-04-06 16:00;CYQF 061600Z 32005KT 15SM FEW100 FEW250 01/M05 A3007 RMK AC1CI1 SLP226

CYQF;2012-04-06 17:00;CYQF 061700Z 35006KT 15SM FEW100 FEW250 01/M06 A3007 RMK AC1CI1 SLP226

CYQF;2012-04-06 18:00;CYQF 061800Z 32008KT 15SM FEW040 FEW250 02/M06 A3007 RMK CU1CI1 SLP223

CYQF;2012-04-06 19:00;CYQF 061900Z 32012KT 15SM FEW040 SCT250 03/M06 A3006 RMK CU1CI0 SLP220

CYQF;2012-04-06 20:00;CYQF 062000Z 31004KT 15SM FEW040 BKN250 04/M06 A3005 RMK CU1CI2 SLP218

CYQF;2012-04-06 21:00;CYQF 062100Z 33005KT 15SM FEW050 BKN250 05/M07 A3004 RMK CU2CI1 SLP213

CYQF;2012-04-06 22:00;CYQF 062200Z 01002KT 15SM FEW050 BKN250 05/M07 A3004 RMK CU2CI2 SLP211

CYQF;2012-04-06 23:00;CYQF 062300Z 01007KT 15SM FEW050 BKN250 05/M08 A3004 RMK CU1CI2 SLP212

CYQF;2012-04-07 00:00;CYQF 070000Z 36007KT 15SM FEW050 SCT250 05/M08 A3004 RMK CU2CI1 SLP212

CYQF;2012-04-07 01:00;CYQF 070100Z 33005KT 15SM FEW050 SCT250 05/M08 A3005 RMK CU2CI1 SLP213

CYQF;2012-04-07 02:00;CYQF 070200Z 33002KT 15SM FEW050 SCT250 02/M06 A3006 RMK CU2CI1 SLP219

CYQF;2012-04-07 03:00;CYQF 070300Z 00000KT 15SM FEW060 FEW250 00/M05 A3007 RMK CU1CI1 SLP227

CYQF;2012-04-07 04:00;CYQF 070400Z 25004KT 15SM FEW080 FEW250 M02/M06 A3009 RMK AC1CI0 SLP231

CYQF;2012-04-07 05:00;CYQF 070500Z 27005KT 15SM FEW250 M02/M07 A3010 RMK CI0 SLP236

CYQF;2012-04-07 06:00;CYQF 070600Z 33004KT 15SM FEW250 M02/M06 A3011 RMK CI0 SLP237

CYQF;2012-04-07 07:00;CYQF 070700Z 29003KT 15SM SKC M03/M06 A3011 RMK SLP238

CYQF;2012-04-07 08:00;CYQF 070800Z 00000KT 15SM SKC M04/M06 A3011 RMK SLP239

CYQF;2012-04-07 09:00;CYQF 070900Z 25007KT 15SM FEW250 M04/M06 A3011 RMK CI0 SLP237

CYQF;2012-04-07 10:00;CYQF 071000Z 25006KT 15SM SCT250 M04/M08 A3011 RMK CI1 SLP237

CYQF;2012-04-07 11:00;CYQF 071100Z 25006KT 15SM FEW250 M04/M07 A3011 RMK CI0 SLP238

CYQF;2012-04-07 12:00;CYQF 071200Z 25006KT 15SM FEW250 M04/M07 A3012 RMK CI0 SLP240

CYQF;2012-04-07 13:00;CYQF 071300Z 23005KT 15SM FEW250 M04/M07 A3012 RMK CI1 SLP240

CYQF;2012-04-07 14:00;CYQF 071400Z 22003KT 15SM SCT250 M03/M06 A3012 RMK CI2 SLP241

CYQF;2012-04-07 15:00;CYQF 071500Z 28005KT 15SM FEW100 BKN250 M01/M05 A3014 RMK AC1CI3 SLP247

CYQF;2012-04-07 16:00;CYQF 071600Z 28010KT 15SM BKN250 01/M06 A3014 RMK CI4 SLP247

CYQF;2012-04-07 17:00;CYQF 071700Z 30013G20KT 15SM FEW030 BKN250 03/M04 A3013 RMK CU1CI4 SLP246

CYQF;2012-04-07 18:00;CYQF 071800Z 29015G20KT 15SM FEW036 BKN250 05/M05 A3013 RMK CU1CI2 SLP242

CYQF;2012-04-07 19:00;CYQF 071900Z 29015G20KT 15SM SCT040 BKN250 06/M06 A3013 RMK CU3CI2 SLP241

CYQF;2012-04-07 20:00;CYQF 072000Z 29011G18KT 15SM VCSH BKN040 BKN250 06/M07 A3012 RMK CU5CI2 TCU ASOCTD SLP238

CYQF;2012-04-07 21:00;CYQF 072100Z 35010G15KT 15SM VCSH BKN040 BKN250 05/M05 A3011 RMK CU6CI1 TCU ASOCTD SLP236

CYQF;2012-04-07 22:00;CYQF 072200Z 30010G15KT 15SM SCT040 BKN250 06/M06 A3010 RMK CU3CI1 SLP234

CYQF;2012-04-07 23:00;CYQF 072300Z 29012G19KT 15SM SCT040 BKN250 07/M06 A3010 RMK CU3CI1 TCU ASOCTD SLP233

CYQF;2012-04-08 00:00;CYQF 080000Z 27010G15KT 15SM SCT040 BKN250 06/M06 A3010 RMK CU3CI1 SLP232

CYQF;2012-04-08 01:00;CYQF 080100Z 32010G15KT 15SM SCT040 BKN250 06/M07 A3011 RMK CU3CI1 SLP235

CYQF;2012-04-08 02:00;CYQF 080200Z 29007KT 15SM FEW080 BKN250 04/M06 A3011 RMK AC2CI2 SLP236

CYQF;2012-04-08 03:00;CYQF 080300Z 35004KT 15SM BKN080 BKN250 03/M05 A3014 RMK AC5CI1 SLP246

CYQF;2012-04-08 04:00;CYQF 080400Z 28005KT 15SM SCT080 BKN250 03/M05 A3016 RMK AC4CI2 SLP251

CYQF;2012-04-08 05:00;CYQF 080500Z 28005KT 15SM FEW080 BKN250 01/M06 A3018 RMK AC2CI2 SLP257

CYQF;2012-04-08 06:00;CYQF 080600Z 32006KT 15SM FEW080 BKN250 03/M07 A3019 RMK AC2CI1 SLP257

CYQF;2012-04-08 07:00;CYQF 080700Z 33008KT 15SM FEW080 SCT250 01/M07 A3021 RMK AC2CI1 SLP262

CYQF;2012-04-08 08:00;CYQF 080800Z 33008KT 15SM FEW080 00/M06 A3023 RMK AC2 SLP269

CYQF;2012-04-08 09:00;CYQF 080900Z 32008KT 15SM SCT090 01/M05 A3025 RMK AC3 SLP279

CYQF;2012-04-08 10:00;CYQF 081000Z 32008KT 15SM BKN090 01/M04 A3026 RMK AC6 SLP284

CYQF;2012-04-08 11:00;CYQF 081100Z 32007KT 15SM SCT090 BKN250 01/M03 A3027 RMK AC3CI0 SLP287

CYQF;2012-04-08 12:00;CYQF 081200Z 27005KT 15SM FEW090 SCT250 M01/M04 A3028 RMK AC2CI0 SLP292

CYQF;2012-04-08 13:00;CYQF 081300Z 26008KT 15SM FEW090 SCT250 M03/M05 A3029 RMK AC2CI0 SLP294

CYQF;2012-04-08 14:00;CYQF 081400Z 29005KT 15SM FEW090 SCT250 M00/M04 A3030 RMK AC2CI0 SLP296

CYQF;2012-04-08 15:00;CYQF 081500Z 31006KT 15SM FEW090 FEW250 02/M04 A3030 RMK AC1CI1 SLP299

CYQF;2012-04-08 16:00;CYQF 081600Z 33013KT 15SM FEW030 FEW250 04/M04 A3033 RMK CU1CI1 SLP306

CYQF;2012-04-08 17:00;CYQF 081700Z 35015G25KT 15SM FEW040 FEW250 04/M06 A3034 RMK CU1CI1 SLP312

CYQF;2012-04-08 18:00;CYQF 081800Z 33012G18KT 15SM FEW040 03/M06 A3036 RMK CU2 SLP318

CYQF;2012-04-08 19:00;CYQF 081900Z 34010G15KT 15SM SCT040 05/M07 A3038 RMK CU3 SLP323

CYQF;2012-04-08 20:00;CYQF 082000Z 34015G20KT 15SM FEW040 05/M07 A3037 RMK CU2 SLP322

CYQF;2012-04-08 21:00;CYQF 082100Z 35014G20KT 15SM FEW040 06/M07 A3037 RMK CU2 SLP319

CYQF;2012-04-08 22:00;CYQF 082200Z 34010G15KT 15SM FEW050 06/M07 A3036 RMK CU1 SLP317

CYQF;2012-04-08 23:00;CYQF 082300Z 35010G15KT 15SM FEW050 06/M07 A3035 RMK CU1 SLP313

CYQF;2012-04-09 00:00;CYQF 090000Z 36010G15KT 15SM FEW050 06/M07 A3035 RMK CU1 SLP315

CYQF;2012-04-09 01:00;CYQF 090100Z 04008KT 15SM FEW050 05/M07 A3034 RMK CU1 SLP314

CYQF;2012-04-09 02:00;CYQF 090200Z 06007KT 15SM FEW100 04/M07 A3034 RMK AC1 SLP312

CYQF;2012-04-09 03:00;CYQF 090300Z 00000KT 15SM FEW100 02/M06 A3035 RMK AC1 SLP319

CYQF;2012-04-09 04:00;CYQF 090400Z 08004KT 15SM SKC 01/M06 A3036 RMK SLP321

CYQF;2012-04-09 05:00;CYQF 090500Z 12004KT 15SM SKC M00/M08 A3037 RMK SLP324

CYQF;2012-04-09 06:00;CYQF 090600Z 15006KT 15SM SKC M01/M08 A3037 RMK SLP327

CYQF;2012-04-09 07:00;CYQF 090700Z 20004KT 15SM SKC M03/M07 A3037 RMK SLP327

CYQF;2012-04-09 08:00;CYQF 090800Z 17006KT 15SM SKC M03/M06 A3037 RMK SLP327

CYQF;2012-04-09 09:00;CYQF 090900Z 15004KT 15SM SKC M03/M07 A3036 RMK SLP323

CYQF;2012-04-09 10:00;CYQF 091000Z 00000KT 15SM SKC M04/M08 A3035 RMK SLP319

CYQF;2012-04-09 11:00;CYQF 091100Z 17004KT 15SM SKC M04/M07 A3034 RMK SLP316

CYQF;2012-04-09 12:00;CYQF 091200Z 13004KT 15SM SKC M04/M08 A3033 RMK SLP313

CYQF;2012-04-09 13:00;CYQF 091300Z 00000KT 15SM SKC M05/M09 A3033 RMK SLP311

CYQF;2012-04-09 14:00;CYQF 091400Z 15002KT 15SM FEW140 M02/M08 A3032 RMK AC1 SLP309

CYQF;2012-04-09 15:00;CYQF 091500Z 14006KT 15SM FEW140 FEW240 00/M07 A3031 RMK AC1CI0 SLP306

CYQF;2012-04-09 16:00;CYQF 091600Z 14010G15KT 15SM SCT240 02/M08 A3030 RMK CI0 SLP303

CYQF;2012-04-09 17:00;CYQF 091700Z 14010G15KT 15SM SCT240 03/M07 A3030 RMK CI2 SLP301

CYQF;2012-04-09 18:00;CYQF 091800Z 15010G15KT 15SM SCT240 05/M07 A3028 RMK CI2 SLP293

CYQF;2012-04-09 19:00;CYQF 091900Z 17012G17KT 15SM FEW240 07/M07 A3026 RMK CI2 SLP287

CYQF;2012-04-09 20:00;CYQF 092000Z 14010G15KT 15SM FEW240 07/M07 A3024 RMK CI1 SLP279

CYQF;2012-04-09 21:00;CYQF 092100Z 17010G15KT 15SM FEW240 08/M06 A3022 RMK CI2 SLP269

CYQF;2012-04-09 22:00;CYQF 092200Z 16010G15KT 15SM FEW240 09/M06 A3020 RMK CI2 SLP265

CYQF;2012-04-09 23:00;CYQF 092300Z 15010KT 15SM FEW240 09/M08 A3019 RMK CI2 SLP260

CYQF;2012-04-10 00:00;CYQF 100000Z 13010KT 15SM FEW240 10/M07 A3017 RMK CI1 SLP253

CYQF;2012-04-10 01:00;CYQF 100100Z 12010G15KT 15SM FEW240 09/M07 A3016 RMK CI0 SLP249

CYQF;2012-04-10 02:00;CYQF 100200Z 12009KT 15SM FEW240 06/M06 A3015 RMK CI0 SLP247

CYQF;2012-04-10 03:00;CYQF 100300Z 11007KT 15SM FEW240 04/M06 A3016 RMK CI0 SLP250

CYQF;2012-04-10 04:00;CYQF 100400Z 11007KT 15SM SKC 03/M07 A3016 RMK SLP252

CYQF;2012-04-10 05:00;CYQF 100500Z 10007KT 15SM SKC 02/M07 A3016 RMK SLP252

CYQF;2012-04-10 06:00;CYQF 100600Z 12008KT 15SM SKC 02/M07 A3015 RMK SLP246

CYQF;2012-04-10 07:00;CYQF 100700Z 13012KT 15SM SKC 00/M07 A3015 RMK SLP246

CYQF;2012-04-10 08:00;CYQF 100800Z 13012KT 15SM SKC 00/M07 A3016 RMK SLP247

CYQF;2012-04-10 09:00;CYQF 100900Z 14006KT 15SM FEW240 M01/M08 A3015 RMK CI0 SLP242

CYQF;2012-04-10 10:00;CYQF 101000Z 13008KT 15SM FEW250 M02/M09 A3014 RMK CI0 SLP240

CYQF;2012-04-10 11:00;CYQF 101100Z 13012KT 15SM FEW240 M03/M09 A3013 RMK CI0 SLP238

CYQF;2012-04-10 12:00;CYQF 101200Z 13010KT 15SM SCT240 M03/M09 A3012 RMK CI1 SLP233

CYQF;2012-04-10 13:00;CYQF 101300Z 12010KT 15SM BKN240 M02/M09 A3011 RMK CI3 SLP229

CYQF;2012-04-10 14:00;CYQF 101400Z 15013KT 15SM BKN120 BKN240 M02/M09 A3011 RMK AC5CI2 SLP231

CYQF;2012-04-10 15:00;CYQF 101500Z 15012G19KT 15SM BKN120 OVC240 M01/M08 A3011 RMK AC5CI2 SLP236

CYQF;2012-04-10 16:00;CYQF 101600Z 14013G22KT 15SM FEW120 BKN250 02/M07 A3010 RMK AC1CI4 SLP231

CYQF;2012-04-10 17:00;CYQF 101700Z 14018G25KT 15SM FEW120 BKN250 05/M06 A3009 RMK AC1CI2 SLP228

CYQF;2012-04-10 18:00;CYQF 101800Z 15018G27KT 15SM FEW120 SCT250 08/M05 A3007 RMK AC1CI1 SLP212

CYQF;2012-04-10 19:00;CYQF 101900Z 15025G30KT 15SM FEW120 BKN250 10/M04 A3005 RMK AC1CI2 SLP205

CYQF;2012-04-10 20:00;CYQF 102000Z 16020G28KT 15SM BKN250 11/M04 A3003 RMK CI2 SLP199

CYQF;2012-04-10 21:00;CYQF 102100Z 15020G30KT 15SM BKN250 11/M04 A3001 RMK CI2 SLP192

CYQF;2012-04-10 22:00;CYQF 102200Z 15020G26KT 15SM FEW120 OVC250 11/M04 A3000 RMK AC1CI6 SLP188

CYQF;2012-04-10 23:00;CYQF 102300Z 17020G28KT 15SM FEW150 OVC250 11/M04 A2999 RMK AC2CI5 SLP186

CYQF;2012-04-11 00:00;CYQF 110000Z 15017G24KT 15SM FEW150 OVC250 11/M05 A2998 RMK AC2CI4 SLP184

CYQF;2012-04-11 01:00;CYQF 110100Z 14015G23KT 15SM SCT150 OVC250 11/M05 A2997 RMK AC3CI3 SLP180

CYQF;2012-04-11 02:00;CYQF 110200Z 12010G16KT 15SM FEW150 OVC250 09/M05 A2995 RMK AC2CI3 SLP176

CYQF;2012-04-11 03:00;CYQF 110300Z 13012KT 15SM FEW150 BKN250 07/M05 A2996 RMK AC2CI3 SLP179

CYQF;2012-04-11 04:00;CYQF 110400Z 12011KT 15SM SCT250 06/M06 A2996 RMK CI2 SLP178

CYQF;2012-04-11 05:00;CYQF 110500Z 15012KT 15SM FEW120 BKN250 05/M06 A2994 RMK AC2CI1 SLP172

CYQF;2012-04-11 06:00;CYQF 110600Z 14015KT 15SM FEW120 BKN250 05/M06 A2992 RMK AC2CI1 SLP156

CYQF;2012-04-11 07:00;CYQF 110700Z 15015G22KT 15SM FEW120 BKN250 04/M06 A2990 RMK AC2CI2 SLP150

CYQF;2012-04-11 08:00;CYQF 110800Z 14012KT 15SM SCT120 BKN250 04/M05 A2989 RMK AC3CI2 SLP148

CYQF;2012-04-11 09:00;CYQF 110900Z 15016KT 15SM FEW120 BKN250 05/M04 A2987 RMK AC2CI2 SLP136

CYQF;2012-04-11 10:00;CYQF 111000Z 17015KT 15SM FEW120 BKN250 04/M04 A2985 RMK AC2CI2 SLP130

CYQF;2012-04-11 11:00;CYQF 111100Z 16014KT 15SM FEW120 BKN250 03/M04 A2985 RMK AC2CI2 SLP129

CYQF;2012-04-11 12:00;CYQF 111200Z 18008KT 15SM FEW120 BKN250 03/M04 A2983 RMK AC2CI2 SLP126

CYQF;2012-04-11 13:00;CYQF 111300Z 17012KT 15SM FEW120 BKN250 02/M05 A2984 RMK AC2CI2 SLP129

CYQF;2012-04-11 14:00;CYQF 111400Z 14008KT 15SM FEW120 BKN250 02/M05 A2984 RMK AC2CI2 SLP128

CYQF;2012-04-11 15:00;CYQF 111500Z 15012G18KT 15SM FEW120 BKN250 03/M04 A2982 RMK AC2CI2 SLP126

CYQF;2012-04-11 16:00;CYQF 111600Z 15010G15KT 15SM FEW120 BKN250 05/M04 A2982 RMK AC2CI3 SLP127

CYQF;2012-04-11 17:00;CYQF 111700Z 15010G15KT 15SM FEW120 OVC250 07/M03 A2980 RMK AC2CI4 SLP121

CYQF;2012-04-11 18:00;CYQF 111800Z 15007KT 15SM FEW120 OVC250 10/M02 A2977 RMK AC2CI4 SLP103

CYQF;2012-04-11 19:00;CYQF 111900Z 14010G15KT 15SM BKN250 12/M02 A2975 RMK CI5 SLP096

CYQF;2012-04-11 20:00;CYQF 112000Z 13011G16KT 15SM FEW120 BKN250 13/M03 A2974 RMK AC1CS4 SLP093

CYQF;2012-04-11 21:00;CYQF 112100Z 13010G15KT 15SM OVC250 14/M03 A2971 RMK CS3 SLP077

CYQF;2012-04-11 22:00;CYQF 112200Z 13010G15KT 15SM OVC250 15/M03 A2968 RMK CS3 SLP068

CYQF;2012-04-11 23:00;CYQF 112300Z 12010G15KT 15SM OVC210 14/M03 A2967 RMK CI6 SLP065

CYQF;2012-04-12 00:00;CYQF 120000Z 13010G15KT 15SM OVC210 15/M03 A2966 RMK CI5 SLP061

CYQF;2012-04-12 01:00;CYQF 120100Z 14004KT 15SM FEW150 OVC210 14/M02 A2963 RMK AC2CI3 OBS TAKEN +27 SLP053

CYQF;2012-04-12 02:00;CYQF 120200Z 12003KT 15SM FEW150 BKN250 13/M01 A2963 RMK AC1CI2 SLP052

CYQF;2012-04-12 03:00;CYQF 120300Z 06005KT 15SM BKN250 09/M01 A2963 RMK CI2 SLP056

CYQF;2012-04-12 04:00;CYQF 120400Z 07003KT 15SM BKN250 07/M02 A2962 RMK CI2 SLP055

CYQF;2012-04-12 05:00;CYQF 120500Z 03004KT 15SM SCT250 07/M02 A2961 RMK CI1 SLP050

CYQF;2012-04-12 06:00;CYQF 120600Z 06004KT 15SM SCT250 06/M02 A2960 RMK CI1 SLP042

CYQF;2012-04-12 07:00;CYQF 120700Z 36003KT 15SM FEW240 05/M01 A2958 RMK CI2 SLP037

CYQF;2012-04-12 08:00;CYQF 120800Z 02004KT 15SM FEW240 05/M01 A2957 RMK CI2 SLP033

CYQF;2012-04-12 09:00;CYQF 120900Z 02006KT 15SM FEW240 04/M01 A2955 RMK CI2 SLP024

CYQF;2012-04-12 10:00;CYQF 121000Z 03005KT 15SM SCT240 03/M02 A2955 RMK CI2 SLP022

CYQF;2012-04-12 11:00;CYQF 121100Z 36004KT 15SM SCT240 01/M03 A2954 RMK CI2 SLP021

CYQF;2012-04-12 12:00;CYQF 121200Z 31004KT 15SM BKN240 01/M02 A2955 RMK CI3 SLP027

CYQF;2012-04-12 13:00;CYQF 121300Z 36005KT 15SM FEW140 OVC240 02/M02 A2955 RMK AC2CI5 SLP025

CYQF;2012-04-12 14:00;CYQF 121400Z 01005KT 15SM SCT140 OVC240 02/M02 A2954 RMK AC3CI3 SLP023

CYQF;2012-04-12 15:00;CYQF 121500Z 03004KT 15SM SCT100 OVC240 03/M01 A2955 RMK AC4CI3 SLP031

CYQF;2012-04-12 16:00;CYQF 121600Z 35002KT 15SM SCT100 OVC250 04/M01 A2955 RMK AC3CI5 SLP029

CYQF;2012-04-12 17:00;CYQF 121700Z 34008KT 15SM SCT100 OVC250 04/M01 A2953 RMK AC3CI5 SLP024

CYQF;2012-04-12 18:00;CYQF 121800Z 33005KT 15SM SCT100 OVC250 05/M01 A2953 RMK AC3CI5 SLP025

CYQF;2012-04-12 19:00;CYQF 121900Z 35010G15KT 15SM SCT040 BKN100 OVC250 05/M02 A2955 RMK SC3AC2CI2 VIRGA SLP031

CYQF;2012-04-12 20:00;CYQF 122000Z 36010G15KT 15SM BKN080 OVC250 05/M01 A2954 RMK AC5CI3 VIRGA SLP028

CYQF;2012-04-12 21:00;CYQF 122100Z 35010G15KT 10SM -SHRA OVC060 06/M01 A2954 RMK SC8 SLP029

CYQF;2012-04-12 21:42;CYQF 122142Z 34010KT 12SM FEW060 BKN100 OVC250 RMK SC2AC2CI3

CYQF;2012-04-12 22:00;CYQF 122200Z 35010KT 12SM SCT050 OVC100 05/01 A2954 RMK SC4AC4 SLP030

CYQF;2012-04-12 23:00;CYQF 122300Z 34010KT 10SM SCT040 OVC080 05/00 A2954 RMK SC4AC4 CU SLP030

CYQF;2012-04-12 23:52;CYQF 122352Z 30012KT 8SM -RA BKN040 OVC080 RMK SC6AC2

CYQF;2012-04-13 00:00;CYQF 130000Z 31010KT 5SM -RA OVC030 04/01 A2955 RMK SC8 SLP038

CYQF;2012-04-13 01:00;CYQF 130100Z 29010G15KT 3SM -RA OVC015 01/00 A2954 RMK SC8 SLP036

CYQF;2012-04-13 01:46;CYQF 130146Z 28010G15KT 2SM -RASN OVC020 RMK SC8

CYQF;2012-04-13 02:00;CYQF 130200Z 29010G15KT 2SM -RASN OVC020 01/M00 A2955 RMK SC8 SLP039

CYQF;2012-04-13 03:00;CYQF 130300Z 29010G15KT 3SM -RASN OVC020 01/00 A2956 RMK SC8 SLP041

CYQF;2012-04-13 04:00;CYQF 130400Z 31010G15KT 4SM -RASN OVC020 01/00 A2954 RMK SC8 SLP037

CYQF;2012-04-13 05:00;CYQF 130500Z 31015G20KT 5SM -RASN OVC020 01/00 A2954 RMK SC8 SLP035

CYQF;2012-04-13 06:00;CYQF 130600Z 30008KT 8SM OVC010 01/00 A2954 RMK SC8 INTMT -RA-SN SLP034

CYQF;2012-04-13 06:32;CYQF 130632Z 31012G18KT 10SM OVC010 RMK SC8

CYQF;2012-04-13 07:00;CYQF 130700Z 30008KT 10SM OVC010 02/01 A2955 RMK SC8 SLP035

CYQF;2012-04-13 07:08;CYQF 130708Z 30010G15KT 8SM -RASN OVC010 RMK SC8

CYQF;2012-04-13 07:19;CYQF 130719Z 30010G15KT 5SM -SN OVC010 RMK SC8

CYQF;2012-04-13 08:00;CYQF 130800Z 30010KT 5SM -SN OVC010 01/00 A2954 RMK SC8 SLP032

CYQF;2012-04-13 09:00;CYQF 130900Z 30008KT 4SM -SN OVC010 01/M00 A2953 RMK SC8 SLP030

CYQF;2012-04-13 09:28;CYQF 130928Z 29010KT 2SM -SN OVC010 RMK SC8

CYQF;2012-04-13 10:00;CYQF 131000Z 28010G15KT 2SM -SN OVC010 00/M00 A2954 RMK SC8 SLP033

CYQF;2012-04-13 11:00;CYQF 131100Z 29011G16KT 2SM -SN OVC010 00/M00 A2954 RMK SC8 SLP032

CYQF;2012-04-13 11:15;CYQF 131115Z 30010G15KT 1SM -SN VV008 RMK SN8

CYQF;2012-04-13 11:30;CYQF 131130Z 30010G15KT 2SM -SN OVC010 RMK SC8

CYQF;2012-04-13 11:52;CYQF 131152Z 29010KT 3SM -SN OVC010 RMK SC8

CYQF;2012-04-13 12:00;CYQF 131200Z 30010G15KT 3SM -SN OVC010 01/M00 A2954 RMK SC8 SLP036

CYQF;2012-04-13 13:00;CYQF 131300Z 29010G15KT 2SM -SN OVC006 01/M00 A2955 RMK SF8 SLP037

CYQF;2012-04-13 14:00;CYQF 131400Z 29011KT 1 1/2SM -SN OVC005 01/M00 A2955 RMK SC8 VIS VRB 1-2 SLP038

CYQF;2012-04-13 15:00;CYQF 131500Z 28010G15KT 1 1/2SM -SN OVC010 01/M00 A2955 RMK SN4SC4 VIS VRB 1-2 SLP041

CYQF;2012-04-13 16:00;CYQF 131600Z 27010G15KT 1 1/2SM -SN OVC006 01/M00 A2955 RMK SN2SC6 /S02/ VIS VRB 1-2 CIG RAG SLP041

CYQF;2012-04-13 17:00;CYQF 131700Z 30010G15KT 2SM -SN OVC025 01/00 A2955 RMK SN5SC3 VIS VRB 1-3 SLP042

CYQF;2012-04-13 18:00;CYQF 131800Z 30010G15KT 10SM -RA SCT010 OVC025 02/01 A2956 RMK SC3SC5 /S05/ SLP043

CYQF;2012-04-13 18:45;CYQF 131845Z 29012KT 15SM BKN007 OVC025 RMK SC6SC2 CIG RAG

CYQF;2012-04-13 19:00;CYQF 131900Z 29012G18KT 15SM FEW007 BKN025 03/02 A2956 RMK SC2SC4 CU ASOCTD SLP045

CYQF;2012-04-13 20:00;CYQF 132000Z 32012G18KT 15SM BKN007 OVC025 04/02 A2958 RMK SC6SC2 CIG RAG SLP049

CYQF;2012-04-13 21:00;CYQF 132100Z 31013G20KT 15SM BKN007 OVC025 04/01 A2959 RMK SC6SC2 CIG RAG SLP051

CYQF;2012-04-13 22:00;CYQF 132200Z 30015G20KT 15SM BKN015 OVC030 04/01 A2959 RMK SC6SC2 SLP053

CYQF;2012-04-13 23:00;CYQF 132300Z 30015G20KT 15SM OVC015 04/01 A2960 RMK SC8 SLP055

CYQF;2012-04-14 00:00;CYQF 140000Z 31010G15KT 15SM FEW010 OVC020 04/00 A2961 RMK SF1SC8 SLP058

CYQF;2012-04-14 01:00;CYQF 140100Z 29010G15KT 15SM VCSH FEW010 BKN020 OVC040 03/01 A2962 RMK SF1SC6SC2 SLP061

CYQF;2012-04-14 02:00;CYQF 140200Z 31005KT 15SM VCSH FEW010 OVC020 03/01 A2963 RMK SF2SC6 SLP065

CYQF;2012-04-14 02:44;CYQF 140244Z 33008KT 10SM -RA OVC015 RMK SC8

CYQF;2012-04-14 03:00;CYQF 140300Z 31007KT 8SM -RASN OVC015 02/M00 A2965 RMK SC8 SLP074

CYQF;2012-04-14 04:00;CYQF 140400Z 31007KT 10SM -RASN OVC015 01/M00 A2966 RMK SC8 SLP079

CYQF;2012-04-14 04:21;CYQF 140421Z 31005KT 10SM -SN OVC015 RMK SC8

CYQF;2012-04-14 05:00;CYQF 140500Z 29004KT 8SM -SN OVC015 01/M00 A2966 RMK SC8 SLP080

CYQF;2012-04-14 06:00;CYQF 140600Z 31007KT 8SM -SN OVC015 01/M01 A2967 RMK SC8 SLP084

CYQF;2012-04-14 07:00;CYQF 140700Z 29010G15KT 12SM -SN FEW008 OVC015 01/M01 A2968 RMK SF1SC7 SLP086

CYQF;2012-04-14 08:00;CYQF 140800Z 30008KT 8SM -SN FEW008 OVC015 00/M02 A2969 RMK SF1SC7 SLP088

CYQF;2012-04-14 09:00;CYQF 140900Z 27005KT 10SM -SN BKN015 00/M01 A2969 RMK SC7 SLP088

CYQF;2012-04-14 10:00;CYQF 141000Z 29010KT 12SM -SN BKN010 00/M02 A2969 RMK SC5 SLP089

CYQF;2012-04-14 11:00;CYQF 141100Z 29010KT 15SM BKN010 M00/M02 A2970 RMK SC6 SLP090

CYQF;2012-04-14 11:25;CYQF 141125Z 29012G17KT 12SM -SN OVC010 RMK ST8

CYQF;2012-04-14 12:00;CYQF 141200Z 30010KT 8SM -SN OVC010 M00/M03 A2971 RMK ST8 SLP096

CYQF;2012-04-14 12:23;CYQF 141223Z 29007KT 2SM -SN OVC010 RMK ST8

CYQF;2012-04-14 12:43;CYQF 141243Z 29008KT 3SM -SN OVC010 RMK ST8

CYQF;2012-04-14 13:00;CYQF 141300Z 30010G15KT 3SM -SN OVC011 M01/M02 A2972 RMK ST8 SLP098

CYQF;2012-04-14 13:41;CYQF 141341Z 30010G15KT 8SM OVC010 RMK ST8

CYQF;2012-04-14 14:00;CYQF 141400Z 30010G15KT 15SM FEW005 BKN010 OVC040 M01/M03 A2973 RMK SF2ST5SC2 SLP102

CYQF;2012-04-14 15:00;CYQF 141500Z 30010G15KT 15SM BKN010 OVC040 M00/M04 A2974 RMK ST6SC2 SLP109

CYQF;2012-04-14 15:09;CYQF 141509Z 31010G15KT 5SM -SN BKN010 OVC040 RMK SC6SC2

CYQF;2012-04-14 15:20;CYQF 141520Z 30010G15KT 2SM -SN OVC010 RMK ST8 VIS VRB 1-3

CYQF;2012-04-14 15:48;CYQF 141548Z 29010G15KT 3SM -SN FEW007 OVC012 RMK SF2ST6

CYQF;2012-04-14 16:00;CYQF 141600Z 30010G15KT 6SM -SN FEW007 OVC012 M00/M03 A2976 RMK SF2ST6 SLP113

CYQF;2012-04-14 17:00;CYQF 141700Z 30018G25KT 4SM -SN FEW007 OVC012 M00/M03 A2976 RMK SF2SC6 SLP116

CYQF;2012-04-14 18:00;CYQF 141800Z 30018G28KT 4SM -SHSN BKN015 OVC030 M00/M04 A2978 RMK SC6SC2 SLP122

CYQF;2012-04-14 19:00;CYQF 141900Z 32016G26KT 4SM -SHSN BKN015 OVC030 M00/M04 A2979 RMK SC6SC2 SLP126

CYQF;2012-04-14 19:46;CYQF 141946Z 30015G25KT 2SM -SHSN BKN015 OVC030 RMK SC6SC2

CYQF;2012-04-14 20:00;CYQF 142000Z 31015G20KT 2SM -SHSN BKN015 OVC030 M00/M03 A2980 RMK SC6SC2 SLP130

CYQF;2012-04-14 21:00;CYQF 142100Z 31019G28KT 2SM -SN BKN015 OVC030 01/M03 A2982 RMK SC6SC2 SLP136

CYQF;2012-04-14 21:29;CYQF 142129Z 32018G27KT 3SM -SN BKN015 OVC030 RMK SC6SC2 VIS VRB 2-4

CYQF;2012-04-14 22:00;CYQF 142200Z 33015G25KT 3SM -SN BKN015 BKN030 OVC090 01/M03 A2984 RMK SC5SC2AC1 SLP143

CYQF;2012-04-14 22:29;CYQF 142229Z 32015G20KT 2 1/2SM -SN BKN015 OVC030 RMK SC6SC2 VIS VRB 2-4

CYQF;2012-04-14 23:00;CYQF 142300Z 33015G25KT 3SM -SN BKN015 OVC030 00/M04 A2987 RMK SC6SC2 VIS VRB 2-4 SLP152

CYQF;2012-04-15 00:00;CYQF 150000Z 32020G30KT 3SM -SN BKN015 OVC030 M00/M04 A2991 RMK SC6SC2 VIS VRB 2-4 SLP168

CYQF;2012-04-15 01:00;CYQF 150100Z 34015G25KT 3SM -SN BKN015 OVC030 M01/M04 A2994 RMK SC6SC2 VIS VRB 2-4 SLP177

CYQF;2012-04-15 02:00;CYQF 150200Z 31020G25KT 3SM -SN BKN015 OVC030 M01/M04 A2996 RMK SC6SC2 VIS VRB 2-4 SLP184

CYQF;2012-04-15 03:00;CYQF 150300Z 32015G25KT 15SM BKN015 OVC030 M01/M04 A2999 RMK SC6SC2 VIS VRB 2-4 SLP197

CYQF;2012-04-15 04:00;CYQF 150400Z 33010G20KT 3SM -SN BKN015 OVC030 M02/M04 A3001 RMK SC6SC2 SLP205

CYQF;2012-04-15 05:00;CYQF 150500Z 32013G18KT 3SM -SN DRSN BKN015 OVC030 M02/M05 A3003 RMK SC6SC2 SLP210

CYQF;2012-04-15 06:00;CYQF 150600Z 31015G25KT 3SM -SN DRSN BKN015 OVC030 M03/M05 A3004 RMK SC6SC2 SLP216

CYQF;2012-04-15 07:00;CYQF 150700Z 33015G25KT 10SM -SN DRSN BKN015 OVC030 M03/M06 A3005 RMK SC6SC2 SLP218

CYQF;2012-04-15 08:00;CYQF 150800Z 33012G18KT 12SM -SN DRSN OVC015 M03/M06 A3006 RMK SC8 SLP222

CYQF;2012-04-15 09:00;CYQF 150900Z 33012G17KT 12SM -SN DRSN OVC015 M03/M06 A3006 RMK SC8 SLP225

CYQF;2012-04-15 10:00;CYQF 151000Z 33015G23KT 10SM -SN DRSN OVC015 M03/M06 A3008 RMK SC8 SLP229

CYQF;2012-04-15 11:00;CYQF 151100Z 34010G15KT 12SM -SN DRSN OVC015 M04/M07 A3009 RMK SC8 SLP233

CYQF;2012-04-15 12:00;CYQF 151200Z 32010G15KT 10SM -SN DRSN OVC015 M04/M06 A3010 RMK SC8 SLP239

CYQF;2012-04-15 13:00;CYQF 151300Z 34012G17KT 8SM -SN DRSN OVC015 M04/M06 A3011 RMK SC8 SLP243

CYQF;2012-04-15 14:00;CYQF 151400Z 35010G15KT 8SM -SN DRSN OVC015 M04/M06 A3012 RMK SC8 SLP246

CYQF;2012-04-15 15:00;CYQF 151500Z 36010KT 6SM -SN DRSN BKN015 OVC040 M04/M07 A3014 RMK SC6SC2 SLP253

CYQF;2012-04-15 15:47;CYQF 151547Z 35010KT 15SM VCSH BKN013 BKN100 RMK SC6AC1 CU ASOCTD

CYQF;2012-04-15 16:00;CYQF 151600Z 36010KT 15SM VCSH BKN013 BKN100 M04/M07 A3014 RMK SC6AC1 CU ASOCTD SLP255

CYQF;2012-04-15 17:00;CYQF 151700Z 02010G15KT 15SM BKN015 M03/M08 A3015 RMK SC7 CU ASOCDT SLP256

CYQF;2012-04-15 18:00;CYQF 151800Z 01006KT 15SM OVC020 M03/M07 A3014 RMK SC8 SLP255

CYQF;2012-04-15 19:00;CYQF 151900Z 02005KT 15SM OVC020 M03/M07 A3014 RMK SC8 SLP254

CYQF;2012-04-15 20:00;CYQF 152000Z 01003KT 15SM OVC020 M02/M07 A3012 RMK SC8 SLP250

CYQF;2012-04-15 21:00;CYQF 152100Z 06004KT 15SM OVC020 M02/M07 A3011 RMK SC8 SLP245

CYQF;2012-04-15 22:00;CYQF 152200Z 00000KT 15SM OVC020 M02/M07 A3010 RMK SC8 SLP242

CYQF;2012-04-15 23:00;CYQF 152300Z 15005KT 15SM OVC020 M02/M07 A3010 RMK SC8 SLP240

CYQF;2012-04-16 00:00;CYQF 160000Z 12004KT 15SM BKN020 M01/M07 A3008 RMK SC7 SLP234

CYQF;2012-04-16 01:00;CYQF 160100Z 14005KT 15SM BKN020 M01/M06 A3007 RMK SC7 SLP231

CYQF;2012-04-16 02:00;CYQF 160200Z 12003KT 15SM BKN020 M01/M06 A3006 RMK SC6 SLP228

CYQF;2012-04-16 03:00;CYQF 160300Z 11005KT 15SM FEW020 FEW120 BKN210 M03/M06 A3006 RMK SC1AC2CI0 SLP229

CYQF;2012-04-16 04:00;CYQF 160400Z 14005KT 15SM FEW120 M03/M06 A3006 RMK AC2 SLP230

CYQF;2012-04-16 05:00;CYQF 160500Z 15008KT 15SM FEW120 M03/M06 A3005 RMK AC2 SLP224

CYQF;2012-04-16 06:00;CYQF 160600Z 19007KT 15SM SKC M03/M06 A3003 RMK SLP217

CYQF;2012-04-16 07:00;CYQF 160700Z 18005KT 15SM FEW100 SCT210 M03/M06 A3002 RMK AC2CI1 SLP214

CYQF;2012-04-16 08:00;CYQF 160800Z 18008KT 15SM SCT100 BKN210 M02/M06 A3000 RMK AC3CI2 SLP208

CYQF;2012-04-16 09:00;CYQF 160900Z 17006KT 15SM BKN100 BKN210 M02/M05 A2999 RMK AC5CI1 SLP200

CYQF;2012-04-16 10:00;CYQF 161000Z 21003KT 15SM OVC090 M02/M05 A2998 RMK AC8 SLP199

CYQF;2012-04-16 11:00;CYQF 161100Z 18006KT 15SM OVC100 M02/M05 A2996 RMK AC8 SLP193

CYQF;2012-04-16 12:00;CYQF 161200Z 21003KT 15SM BKN100 BKN210 M02/M05 A2996 RMK AC6CI1 SLP191

CYQF;2012-04-16 13:00;CYQF 161300Z 18005KT 15SM SCT100 BKN210 M03/M04 A2995 RMK AC4CI1 SLP187

CYQF;2012-04-16 14:00;CYQF 161400Z 18005KT 8SM BKN120 BKN210 M02/M05 A2995 RMK AC4CI1 HZ SLP187

CYQF;2012-04-16 15:00;CYQF 161500Z CCA 19005KT 10SM FEW120 SCT210 M01/M04 A2994 RMK AC2CI0 HZ SLP182

CYQF;2012-04-16 16:00;CYQF 161600Z 18005KT 10SM FEW120 FEW210 01/M03 A2994 RMK AC1CI1 HZ SLP181

CYQF;2012-04-16 17:00;CYQF 161700Z 18004KT 15SM FEW120 FEW220 04/M02 A2992 RMK AC1CI1 SLP175

CYQF;2012-04-16 18:00;CYQF 161800Z 17008KT 15SM FEW030 SCT220 05/M02 A2991 RMK CU1CI2 SLP165

CYQF;2012-04-16 19:00;CYQF 161900Z 17008KT 15SM FEW035 SCT220 07/M02 A2988 RMK CU1CI2 SLP157

CYQF;2012-04-16 20:00;CYQF 162000Z 16007KT 15SM SCT040 BKN220 08/M01 A2985 RMK CU3CI0 SLP149

CYQF;2012-04-16 21:00;CYQF 162100Z 17004KT 15SM BKN050 BKN220 09/M03 A2983 RMK CU5CI2 SLP134

CYQF;2012-04-16 22:00;CYQF 162200Z 15005KT 15SM SCT045 BKN220 09/M01 A2982 RMK CU4CI2 SLP131

CYQF;2012-04-16 23:00;CYQF 162300Z 17008KT 15SM FEW045 BKN220 10/M02 A2981 RMK CU2CI2 SLP126

CYQF;2012-04-17 00:00;CYQF 170000Z 16010KT 15SM FEW045 BKN220 10/M02 A2980 RMK CU2CI2 SLP121

CYQF;2012-04-17 01:00;CYQF 170100Z 15010KT 15SM SCT070 BKN220 09/M02 A2979 RMK AC3CI2 SLP120

CYQF;2012-04-17 02:00;CYQF 170200Z 16005KT 15SM SCT070 BKN220 08/M01 A2979 RMK AC3CI3 SLP118

CYQF;2012-04-17 03:00;CYQF 170300Z 12004KT 15SM SCT080 BKN220 07/M01 A2979 RMK AC3CI3 SLP122

CYQF;2012-04-17 04:00;CYQF 170400Z 15003KT 15SM SCT080 OVC220 05/M01 A2980 RMK AC3CI3 SLP124

CYQF;2012-04-17 05:00;CYQF 170500Z 19004KT 15SM BKN080 OVC220 05/M00 A2981 RMK AC5CI2 SLP128

CYQF;2012-04-17 06:00;CYQF 170600Z 18003KT 15SM BKN080 OVC220 05/M01 A2982 RMK AC6CI2 SLP125

CYQF;2012-04-17 07:00;CYQF 170700Z 36010KT 15SM OVC080 05/M00 A2985 RMK AC8 SLP134

CYQF;2012-04-17 07:29;CYQF 170729Z 02016KT 15SM -RA OVC080 RMK AC8

CYQF;2012-04-17 08:00;CYQF 170800Z 03014KT 15SM -RA OVC080 02/00 A2988 RMK AC8 SLP144

CYQF;2012-04-17 09:00;CYQF 170900Z 01010KT 10SM -SN OVC060 01/M01 A2991 RMK SC8 SLP157

CYQF;2012-04-17 10:00;CYQF 171000Z 03010KT 5SM -SN OVC060 M00/M02 A2994 RMK SC8 SLP166

CYQF;2012-04-17 11:00;CYQF 171100Z 03012KT 8SM -SN OVC040 M00/M02 A2996 RMK SC8 SLP174

CYQF;2012-04-17 12:00;CYQF 171200Z 35008KT 4SM -SN BKN024 OVC049 M01/M02 A2999 RMK SC5SC3 SLP186

CYQF;2012-04-17 13:00;CYQF 171300Z 34008KT 8SM -SN BKN020 OVC050 M02/M04 A3002 RMK SC5SC3 SLP195

CYQF;2012-04-17 14:00;CYQF 171400Z 01011KT 8SM -SN BKN015 OVC050 M02/M05 A3004 RMK SC5SC3 SLP200

CYQF;2012-04-17 15:00;CYQF 171500Z 35008KT 10SM -SN BKN012 OVC050 M02/M06 A3005 RMK SC6SC2 SLP214

CYQF;2012-04-17 16:00;CYQF 171600Z 36008KT 10SM -SN BKN015 BKN050 M01/M05 A3006 RMK SC5SC2 SLP217

CYQF;2012-04-17 16:27;CYQF 171627Z 01008KT 15SM SCT015 BKN050 RMK SC4SC2

CYQF;2012-04-17 17:00;CYQF 171700Z 02007KT 15SM SCT015 BKN050 M01/M05 A3009 RMK SC4SC1 SLP224

CYQF;2012-04-17 18:00;CYQF 171800Z 34006KT 15SM BKN020 BKN100 M00/M05 A3009 RMK CU5AC2 /S01/ SLP224

CYQF;2012-04-17 19:00;CYQF 171900Z 03005KT 15SM BKN020 BKN100 01/M04 A3008 RMK SC6AC2 CU ASOCTD SLP222

CYQF;2012-04-17 20:00;CYQF 172000Z 34004KT 15SM BKN022 BKN090 02/M03 A3007 RMK SC6AC1 CU ASOCTD SLP219

CYQF;2012-04-17 21:00;CYQF 172100Z 03003KT 15SM BKN025 03/M03 A3006 RMK SC7 CU ASOCTD SLP217

CYQF;2012-04-17 22:00;CYQF 172200Z 04002KT 15SM BKN028 04/M04 A3005 RMK SC7 CU ASOCTD SLP215

CYQF;2012-04-17 23:00;CYQF 172300Z 05004KT 15SM OVC030 03/M03 A3005 RMK SC8 SLP213

CYQF;2012-04-18 00:00;CYQF 180000Z 09004KT 15SM OVC030 03/M04 A3005 RMK SC8 SLP213

CYQF;2012-04-18 01:00;CYQF 180100Z 09004KT 15SM OVC030 03/M03 A3004 RMK SC8 SLP210

CYQF;2012-04-18 02:00;CYQF 180200Z 08008KT 15SM OVC030 03/M03 A3003 RMK SC8 SLP208

CYQF;2012-04-18 03:00;CYQF 180300Z 08004KT 15SM OVC030 02/M03 A3002 RMK SC8 SLP207

CYQF;2012-04-18 04:00;CYQF 180400Z 08006KT 15SM OVC030 02/M03 A3002 RMK SC8 SLP207

CYQF;2012-04-18 05:00;CYQF 180500Z 09003KT 15SM OVC030 02/M03 A3002 RMK SC8 SLP206

CYQF;2012-04-18 06:00;CYQF 180600Z 15007KT 15SM OVC025 02/M03 A3001 RMK SC8 SLP202

CYQF;2012-04-18 06:17;CYQF 180617Z 14007KT 15SM -SN OVC030 RMK SC8

CYQF;2012-04-18 07:00;CYQF 180700Z 14005KT 10SM -SN OVC025 02/M03 A3000 RMK SC8 SLP199

CYQF;2012-04-18 08:00;CYQF 180800Z 14005KT 15SM -SN OVC025 02/M04 A2998 RMK SC8 SN VRY LGT SLP192

CYQF;2012-04-18 08:27;CYQF 180827Z 12008KT 15SM OVC025 RMK SC8

CYQF;2012-04-18 09:00;CYQF 180900Z 12007KT 15SM OVC025 02/M04 A2995 RMK SC8 SLP179

CYQF;2012-04-18 10:00;CYQF 181000Z 10004KT 15SM OVC020 02/M04 A2994 RMK SC8 SLP174

CYQF;2012-04-18 11:00;CYQF 181100Z 13005KT 15SM OVC020 01/M04 A2994 RMK SC8 SLP174

CYQF;2012-04-18 12:00;CYQF 181200Z 12005KT 15SM OVC020 01/M04 A2993 RMK SC8 SLP171

CYQF;2012-04-18 13:00;CYQF 181300Z 13010KT 15SM BKN017 OVC030 01/M05 A2992 RMK SC6SC2 SLP168

CYQF;2012-04-18 13:19;CYQF 181319Z 12010KT 8SM -SN OVC017 RMK SC8

CYQF;2012-04-18 14:00;CYQF 181400Z 12005KT 3SM -SN OVC012 00/M02 A2993 RMK SC8 VIS VRB 2-4 SLP169

CYQF;2012-04-18 14:33;CYQF 181433Z 11006KT 1 1/2SM -SN VV009 RMK SN8 VIS VRB 1-2

CYQF;2012-04-18 15:00;CYQF 181500Z 12004KT 1 1/2SM -SN OVC012 M00/M02 A2992 RMK SN2SC6 VIS VRB 1-2 SLP169

CYQF;2012-04-18 16:00;CYQF 181600Z 12014KT 1 1/2SM -SN OVC010 01/M01 A2991 RMK SN3SC5 VIS VRB 1-2 CIG RAG SLP167

CYQF;2012-04-18 16:46;CYQF 181646Z 13012G18KT 3SM -SN FEW005 OVC012 RMK SF2SC6

CYQF;2012-04-18 17:00;CYQF 181700Z 13011G18KT 3SM -SN BKN008 OVC015 01/M00 A2991 RMK SF6SC2 CIG RAG SLP167

CYQF;2012-04-18 18:00;CYQF 181800Z 14014G20KT 3SM -SN BKN006 OVC015 02/00 A2992 RMK SF6SC2 CIG RAG SLP167

CYQF;2012-04-18 19:00;CYQF 181900Z 14011G18KT 3SM -SN BKN006 OVC015 02/00 A2992 RMK SF6SC2 CIG RAG VIS S 6 SLP169

CYQF;2012-04-18 20:00;CYQF 182000Z 14010G15KT 8SM -SN BKN006 OVC015 03/01 A2992 RMK SF6SC2 CIG RAG SLP168

CYQF;2012-04-18 20:40;CYQF 182040Z 13010G17KT 10SM OVC012 RMK SC8

CYQF;2012-04-18 21:00;CYQF 182100Z 13010G15KT 15SM OVC012 03/00 A2991 RMK SC8 SLP164

CYQF;2012-04-18 22:00;CYQF 182200Z 15012G17KT 15SM BKN013 04/00 A2991 RMK SC7 SLP164

CYQF;2012-04-18 23:00;CYQF 182300Z 14010G15KT 15SM OVC013 04/00 A2991 RMK SC8 CIG RAG SLP164

CYQF;2012-04-19 00:00;CYQF 190000Z 13010G15KT 15SM OVC017 04/00 A2991 RMK SC8 CIG RAG SLP163

CYQF;2012-04-19 01:00;CYQF 190100Z 15008KT 15SM OVC015 04/01 A2991 RMK SC8 SLP163

CYQF;2012-04-19 02:00;CYQF 190200Z 18009KT 15SM FEW010 OVC020 04/00 A2992 RMK SF1SC8 CIG RAG SLP164

CYQF;2012-04-19 03:00;CYQF 190300Z 14008KT 15SM FEW010 OVC020 03/00 A2992 RMK SF2SC6 CIG RAG SLP169

CYQF;2012-04-19 04:00;CYQF 190400Z 15005KT 15SM OVC020 03/01 A2994 RMK SC8 SLP174

CYQF;2012-04-19 05:00;CYQF 190500Z 14004KT 15SM OVC020 03/00 A2994 RMK SC8 SLP173

CYQF;2012-04-19 06:00;CYQF 190600Z 14007KT 15SM OVC020 02/M00 A2994 RMK SC8 SLP173

CYQF;2012-04-19 07:00;CYQF 190700Z 15004KT 15SM OVC015 02/M00 A2994 RMK SC8 SLP173

CYQF;2012-04-19 08:00;CYQF 190800Z 16005KT 15SM OVC015 02/M00 A2994 RMK SC8 SLP173

CYQF;2012-04-19 09:00;CYQF 190900Z 16005KT 15SM OVC015 02/00 A2993 RMK SC8 SLP171

CYQF;2012-04-19 10:00;CYQF 191000Z 18005KT 15SM BKN015 BKN210 01/M00 A2993 RMK SC6CI0 SLP171

CYQF;2012-04-19 11:00;CYQF 191100Z 18003KT 10SM OVC015 01/M00 A2994 RMK SC8 SLP174

CYQF;2012-04-19 12:00;CYQF 191200Z 13003KT 10SM BKN025 BKN210 01/M01 A2994 RMK SC6CI0 SLP173

CYQF;2012-04-19 13:00;CYQF 191300Z 13002KT 6SM BR BKN025 BKN210 01/M00 A2995 RMK SC5CI2 SLP178

CYQF;2012-04-19 14:00;CYQF 191400Z 00000KT 6SM BR OVC007 02/00 A2997 RMK SF7 SLP182

CYQF;2012-04-19 15:00;CYQF 191500Z 19003KT 6SM BR BKN008 OVC030 02/01 A2998 RMK SF6SC2 SLP187

CYQF;2012-04-19 16:00;CYQF 191600Z 18003KT 6SM BR OVC008 04/01 A2999 RMK SF8 SLP190

CYQF;2012-04-19 16:52;CYQF 191652Z 17003KT 8SM BKN016 RMK CF6

CYQF;2012-04-19 17:00;CYQF 191700Z 19005KT 8SM BKN016 05/00 A3000 RMK CF6 SLP193

CYQF;2012-04-19 18:00;CYQF 191800Z 18006KT 10SM BKN022 06/01 A3000 RMK SC7 CU SLP190

CYQF;2012-04-19 19:00;CYQF 191900Z 20005KT 10SM BKN028 08/01 A3000 RMK SC6 CU SLP189

CYQF;2012-04-19 20:00;CYQF 192000Z 26003KT 15SM BKN032 10/01 A2999 RMK CU6 SLP186

CYQF;2012-04-19 21:00;CYQF 192100Z 13005KT 15SM SCT036 10/M01 A2997 RMK CU4 SLP178

CYQF;2012-04-19 22:00;CYQF 192200Z 08006KT 15SM SCT035 11/02 A2996 RMK CU4 SLP173

CYQF;2012-04-19 23:00;CYQF 192300Z 14006KT 15SM SCT040 11/01 A2995 RMK CU4 SLP171

CYQF;2012-04-20 00:00;CYQF 200000Z 15008KT 15SM FEW040 12/02 A2993 RMK CU2 SLP163

CYQF;2012-04-20 01:00;CYQF 200100Z 14012KT 15SM FEW045 SCT250 11/00 A2992 RMK CU2CI0 SLP159

CYQF;2012-04-20 02:00;CYQF 200200Z 14011KT 15SM FEW100 BKN250 09/01 A2991 RMK AC1CI3 SLP156

CYQF;2012-04-20 03:00;CYQF 200300Z 14010KT 15SM BKN250 08/01 A2989 RMK CI5 SLP150

CYQF;2012-04-20 04:00;CYQF 200400Z 14010G15KT 15SM BKN250 06/01 A2988 RMK CI5 SLP146

CYQF;2012-04-20 05:00;CYQF 200500Z 14015G21KT 15SM BKN240 05/01 A2986 RMK CI4 SLP140

CYQF;2012-04-20 06:00;CYQF 200600Z 14014G24KT 15SM BKN240 04/01 A2984 RMK CI6 SLP131

CYQF;2012-04-20 07:00;CYQF 200700Z 15015G23KT 15SM OVC240 03/01 A2981 RMK CI8 SLP123

CYQF;2012-04-20 08:00;CYQF 200800Z 15015G21KT 15SM FEW090 OVC240 03/01 A2978 RMK AC2CI6 SLP114

CYQF;2012-04-20 09:00;CYQF 200900Z 15015G20KT 15SM SCT090 OVC240 03/01 A2975 RMK AC4CI4 SLP097

CYQF;2012-04-20 10:00;CYQF 201000Z 16010G15KT 15SM SCT090 OVC240 03/01 A2973 RMK AC3CI5 SLP091

CYQF;2012-04-20 11:00;CYQF 201100Z 17010G15KT 15SM BKN100 OVC240 03/01 A2972 RMK AC5CI3 SLP088

CYQF;2012-04-20 11:33;CYQF 201133Z 13010G15KT 15SM -RA BKN080 OVC240 RMK AC6CI2

CYQF;2012-04-20 12:00;CYQF 201200Z 16010G15KT 12SM -RA BKN080 OVC240 02/02 A2968 RMK AC5CI3 SLP073

CYQF;2012-04-20 12:10;CYQF 201210Z 16011G16KT 15SM VCSH BKN080 BKN240 RMK AC6CI2

CYQF;2012-04-20 13:00;CYQF 201300Z 17005KT 15SM SCT080 BKN240 02/01 A2967 RMK AC2CI2 VIRGA SLP069

CYQF;2012-04-20 14:00;CYQF 201400Z 18010KT 15SM FEW080 FEW240 03/02 A2966 RMK AC1CI1 SLP068

CYQF;2012-04-20 15:00;CYQF 201500Z 25004KT 15SM FEW080 05/02 A2967 RMK AC1 SLP072

CYQF;2012-04-20 16:00;CYQF 201600Z 29010G15KT 15SM FEW040 08/02 A2969 RMK CU1 SLP077

CYQF;2012-04-20 17:00;CYQF 201700Z 31012G22KT 15SM FEW044 FEW080 12/01 A2970 RMK CU1AC1 SLP080

CYQF;2012-04-20 18:00;CYQF 201800Z 31020G30KT 15SM FEW060 FEW100 13/M02 A2972 RMK CU1AC2 SLP083

CYQF;2012-04-20 19:00;CYQF 201900Z 33016G26KT 15SM SCT060 SCT100 13/M02 A2974 RMK CU3AC1 VIRGA SLP090

CYQF;2012-04-20 20:00;CYQF 202000Z 31015G20KT 15SM BKN065 13/M04 A2976 RMK CU6 VIRGA SLP094

CYQF;2012-04-20 21:00;CYQF 202100Z 34012G18KT 15SM VCSH BKN060TCU BKN250 12/M01 A2979 RMK TCU5CI2 SLP109

CYQF;2012-04-20 22:00;CYQF 202200Z 33010G16KT 15SM SCT060TCU BKN100 BKN250 14/M00 A2980 RMK TCU3AC2CI1 VIRGA SLP113

CYQF;2012-04-20 23:00;CYQF 202300Z 33013G22KT 15SM SCT060TCU BKN100 BKN250 14/M01 A2982 RMK TCU3AC2CI1 VIRGA SLP119

CYQF;2012-04-21 00:00;CYQF 210000Z 36013G23KT 15SM FEW040TCU BKN250 12/02 A2985 RMK TCU2CI1 VIRGA SLP131

CYQF;2012-04-21 01:00;CYQF 210100Z 34010G15KT 15SM SCT050TCU 12/M01 A2986 RMK TCU3 VIRGA SLP134

CYQF;2012-04-21 02:00;CYQF 210200Z 01011G18KT 15SM BKN040TCU 07/02 A2990 RMK TCU5 VIRGA SLP148

CYQF;2012-04-21 03:00;CYQF 210300Z 04008KT 15SM BKN040TCU 06/03 A2995 RMK TCU6 SLP168

CYQF;2012-04-21 03:10;CYQF 210310Z 06005KT 15SM -SHRA BKN040TCU RMK TCU6

CYQF;2012-04-21 03:34;CYQF 210334Z 00000KT 15SM SCT040 RMK SC4 TCU ASOCTD

CYQF;2012-04-21 04:00;CYQF 210400Z 00000KT 15SM FEW040 05/04 A2998 RMK SC2 SLP178

CYQF;2012-04-21 05:00;CYQF 210500Z 23005KT 15SM FEW040 02/01 A2999 RMK SC2 SLP183

CYQF;2012-04-21 06:00;CYQF 210600Z 26008KT 15SM FEW080 01/01 A3002 RMK AC2 SLP189

CYQF;2012-04-21 07:00;CYQF 210700Z 25004KT 15SM FEW080 00/M00 A3005 RMK AC2 SLP199

CYQF;2012-04-21 08:00;CYQF 210800Z 24007KT 15SM SKC 00/M01 A3006 RMK SLP204

CYQF;2012-04-21 09:00;CYQF 210900Z 00000KT 15SM SKC 00/M00 A3007 RMK SLP211

CYQF;2012-04-21 10:00;CYQF 211000Z 20006KT 15SM SKC M02/M02 A3008 RMK SLP214

CYQF;2012-04-21 11:00;CYQF 211100Z 22008KT 15SM SKC M02/M02 A3010 RMK SLP218

CYQF;2012-04-21 12:00;CYQF 211200Z 25008KT 15SM SKC M02/M02 A3011 RMK SLP225

CYQF;2012-04-21 13:00;CYQF 211300Z 20005KT 15SM FEW250 M02/M02 A3012 RMK CI1 SLP229

CYQF;2012-04-21 14:00;CYQF 211400Z 22005KT 15SM SCT250 M00/M01 A3014 RMK CI0 SLP234

CYQF;2012-04-21 15:00;CYQF 211500Z 22004KT 15SM BKN250 04/01 A3015 RMK CI1 SLP239

CYQF;2012-04-21 16:00;CYQF 211600Z 21005KT 15SM BKN250 07/M01 A3015 RMK CI2 SLP240

CYQF;2012-04-21 17:00;CYQF 211700Z 20005KT 15SM BKN250 09/M04 A3014 RMK CI2 SLP238

CYQF;2012-04-21 18:00;CYQF 211800Z 16007KT 15SM FEW040 BKN250 09/M05 A3013 RMK CU1CI2 SLP231

CYQF;2012-04-21 19:00;CYQF 211900Z 16010KT 15SM FEW060 BKN250 12/M02 A3011 RMK CU2CI1 SLP227

CYQF;2012-04-21 20:00;CYQF 212000Z 21005KT 15SM FEW060 SCT250 13/M03 A3009 RMK CU2CI0 SLP221

CYQF;2012-04-21 21:00;CYQF 212100Z 28005KT 15SM FEW072 SCT250 14/M05 A3009 RMK CU2CI0 SLP214

CYQF;2012-04-21 22:00;CYQF 212200Z 19012KT 15SM FEW045 BKN250 15/M04 A3007 RMK CU1CI1 SLP209

CYQF;2012-04-21 23:00;CYQF 212300Z 20005KT 15SM FEW045 BKN250 14/M05 A3006 RMK CF1CI5 SLP205

CYQF;2012-04-22 00:00;CYQF 220000Z 09004KT 15SM BKN250 15/M05 A3005 RMK CI2 SLP201

CYQF;2012-04-22 01:00;CYQF 220100Z 13007KT 15SM SCT250 15/M06 A3004 RMK CI2 SLP199

CYQF;2012-04-22 02:00;CYQF 220200Z 11007KT 15SM FEW250 13/M04 A3003 RMK CI2 SLP195

CYQF;2012-04-22 03:00;CYQF 220300Z 10005KT 15SM FEW250 09/M03 A3004 RMK CI1 SLP198

CYQF;2012-04-22 04:00;CYQF 220400Z 09004KT 15SM FEW250 07/M05 A3004 RMK CI1 SLP199

CYQF;2012-04-22 05:00;CYQF 220500Z 15006KT 15SM SKC 07/M05 A3005 RMK SLP204

CYQF;2012-04-22 06:00;CYQF 220600Z 13004KT 15SM SKC 05/M05 A3005 RMK SLP201

CYQF;2012-04-22 07:00;CYQF 220700Z 17006KT 15SM SKC 04/M05 A3005 RMK SLP199

CYQF;2012-04-22 08:00;CYQF 220800Z 22008KT 15SM SKC 02/M04 A3004 RMK SLP197

CYQF;2012-04-22 09:00;CYQF 220900Z CCA 20004KT 15SM SKC 01/M04 A3003 RMK SLP194

CYQF;2012-04-22 10:00;CYQF 221000Z 16004KT 15SM SKC 01/M04 A3003 RMK SLP193

CYQF;2012-04-22 11:00;CYQF 221100Z 30002KT 15SM FEW090 M01/M04 A3003 RMK AC1 SLP194

CYQF;2012-04-22 12:00;CYQF 221200Z 18004KT 15SM FEW090 SCT250 M02/M04 A3003 RMK AC2CI0 SLP195

CYQF;2012-04-22 13:00;CYQF 221300Z 23005KT 15SM FEW100 BKN250 M02/M04 A3004 RMK AC1CI2 SLP198

CYQF;2012-04-22 14:00;CYQF 221400Z 18005KT 15SM BKN250 02/M02 A3002 RMK CI1 SLP193

CYQF;2012-04-22 15:00;CYQF 221500Z 18002KT 15SM FEW100 BKN250 05/M01 A3002 RMK AC1CI1 SLP189

CYQF;2012-04-22 16:00;CYQF 221600Z 14002KT 15SM FEW100 BKN250 10/M01 A3000 RMK AC1CI1 AC TR SLP185

CYQF;2012-04-22 17:00;CYQF 221700Z 15003KT 15SM FEW100 BKN250 14/M03 A2999 RMK AC1CI0 SLP182

CYQF;2012-04-22 18:00;CYQF 221800Z 00000KT 15SM FEW060 BKN250 15/M02 A2997 RMK CU1CI3 SLP166

CYQF;2012-04-22 19:00;CYQF 221900Z 14007KT 15SM FEW060 BKN250 18/M02 A2995 RMK CU1CI2 SLP158

CYQF;2012-04-22 20:00;CYQF 222000Z 14008KT 15SM FEW060 BKN250 19/M02 A2992 RMK CU1CI2 SLP150

CYQF;2012-04-22 21:00;CYQF 222100Z 17006KT 15SM FEW080 BKN250 20/00 A2989 RMK CU2CI2 SLP139

CYQF;2012-04-22 22:00;CYQF 222200Z 05004KT 15SM FEW080 BKN250 21/M01 A2986 RMK AC2CI2 SLP129

CYQF;2012-04-22 23:00;CYQF 222300Z 35005KT 15SM FEW080 BKN250 23/01 A2984 RMK AC2CI2 SLP122

CYQF;2012-04-23 00:00;CYQF 230000Z 24005KT 15SM FEW080 BKN250 22/M00 A2984 RMK AC1CI3 SLP121

CYQF;2012-04-23 01:00;CYQF 230100Z 32007KT 15SM FEW050 FEW090 BKN250 21/02 A2984 RMK CU1AC2CI2 SLP122

CYQF;2012-04-23 02:00;CYQF 230200Z 32006KT 15SM FEW050 FEW090 BKN250 18/03 A2985 RMK CU1AC2CI2 SLP126

CYQF;2012-04-23 03:00;CYQF 230300Z 31004KT 15SM FEW080 BKN240 15/02 A2987 RMK AC2CI2 SLP133

CYQF;2012-04-23 04:00;CYQF 230400Z 30004KT 15SM FEW080 BKN240 12/02 A2988 RMK AC1CI2 SLP136

CYQF;2012-04-23 05:00;CYQF 230500Z 35003KT 15SM FEW080 SCT240 11/02 A2989 RMK AC1CI0 SLP139

CYQF;2012-04-23 06:00;CYQF 230600Z 01008KT 15SM FEW080 FEW240 10/01 A2991 RMK AC1CI0 SLP140

CYQF;2012-04-23 07:00;CYQF 230700Z 36007KT 15SM SKC 09/M00 A2992 RMK SLP142

CYQF;2012-04-23 08:00;CYQF 230800Z 36006KT 15SM SKC 07/M00 A2992 RMK SLP142

CYQF;2012-04-23 09:00;CYQF 230900Z 34004KT 15SM SKC 04/M01 A2991 RMK SLP142

CYQF;2012-04-23 10:00;CYQF 231000Z 32006KT 15SM SKC 03/M02 A2991 RMK SLP140

CYQF;2012-04-23 11:00;CYQF 231100Z 27003KT 15SM FEW090 FEW250 03/M01 A2991 RMK AC1CI0 SLP141

CYQF;2012-04-23 12:00;CYQF 231200Z 00000KT 15SM FEW090 SCT250 01/M02 A2990 RMK AC1CI0 SLP139

CYQF;2012-04-23 13:00;CYQF 231300Z 19003KT 15SM FEW090 BKN250 01/M01 A2988 RMK AC2CI2 SLP134

CYQF;2012-04-23 14:00;CYQF 231400Z 00000KT 15SM FEW090 BKN250 04/00 A2988 RMK AC1CI2 SLP135

CYQF;2012-04-23 15:00;CYQF 231500Z 36004KT 15SM FEW090 BKN250 08/00 A2989 RMK AC1CI2 SLP135

CYQF;2012-04-23 16:00;CYQF 231600Z 36005KT 15SM FEW090 BKN250 10/M00 A2988 RMK AC1CI2 SLP133

CYQF;2012-04-23 17:00;CYQF 231700Z 06010KT 15SM FEW090 BKN250 14/M00 A2986 RMK AC1CI2 SLP128

CYQF;2012-04-23 18:00;CYQF 231800Z 09004KT 15SM FEW090 BKN250 18/01 A2984 RMK AC1CI2 SLP113

CYQF;2012-04-23 19:00;CYQF 231900Z 13007KT 15SM FEW090 BKN250 19/01 A2981 RMK AC1CI1 SLP105

CYQF;2012-04-23 20:00;CYQF 232000Z 08004KT 15SM FEW070 BKN250 21/03 A2979 RMK CU1CI2 SLP097

CYQF;2012-04-23 21:00;CYQF 232100Z 13006KT 15SM FEW070 BKN250 23/03 A2976 RMK CU1CI2 SLP086

CYQF;2012-04-23 22:00;CYQF 232200Z 28005KT 15SM FEW080 BKN250 25/03 A2973 RMK CU2CI2 SLP078

CYQF;2012-04-23 23:00;CYQF 232300Z 29004KT 15SM FEW080 BKN250 25/02 A2970 RMK CU2CI1 SLP069

CYQF;2012-04-24 00:00;CYQF 240000Z 33006KT 15SM FEW090 BKN250 25/03 A2968 RMK CU2CI2 SLP062

CYQF;2012-04-24 01:00;CYQF 240100Z 01005KT 15SM FEW080 BKN250 24/03 A2967 RMK CU2CI1 SLP059

CYQF;2012-04-24 02:00;CYQF 240200Z 34005KT 15SM FEW060 BKN250 21/05 A2968 RMK CU2CI1 SLP061

CYQF;2012-04-24 03:00;CYQF 240300Z 02004KT 15SM FEW050 BKN250 17/04 A2967 RMK CU2CI2 SLP057

CYQF;2012-04-24 04:00;CYQF 240400Z 00000KT 15SM SCT060 15/04 A2968 RMK SC3 SLP059

CYQF;2012-04-24 05:00;CYQF 240500Z 00000KT 15SM SCT060 12/04 A2968 RMK SC3 SLP060

CYQF;2012-04-24 06:00;CYQF 240600Z 33004KT 15SM FEW060 12/03 A2968 RMK SC2 SLP056

CYQF;2012-04-24 07:00;CYQF 240700Z 27004KT 15SM FEW060 08/03 A2968 RMK SC2 SLP057

CYQF;2012-04-24 08:00;CYQF 240800Z 33012KT 15SM FEW060 09/03 A2970 RMK SC2 SLP061

CYQF;2012-04-24 09:00;CYQF 240900Z 26002KT 15SM FEW060 06/02 A2971 RMK SC2 SLP066

CYQF;2012-04-24 10:00;CYQF 241000Z 30010KT 15SM BKN060 07/02 A2972 RMK SC5 SLP070

CYQF;2012-04-24 11:00;CYQF 241100Z 33010KT 15SM SCT060 BKN100 06/02 A2972 RMK SC4AC2 SLP070

CYQF;2012-04-24 12:00;CYQF 241200Z 32008KT 15SM FEW060 BKN100 BKN250 05/02 A2972 RMK SC2AC3CI1 SLP069

CYQF;2012-04-24 13:00;CYQF 241300Z 31008KT 15SM FEW060 BKN100 BKN250 05/02 A2973 RMK SC2AC3CI1 SLP072

CYQF;2012-04-24 14:00;CYQF 241400Z 33010KT 15SM FEW060 BKN100 BKN250 05/02 A2973 RMK SC2AC3CI2 SLP072

CYQF;2012-04-24 15:00;CYQF 241500Z 33008KT 15SM FEW060 BKN100 BKN250 06/02 A2974 RMK SC2AC3CI1 SLP082

CYQF;2012-04-24 16:00;CYQF 241600Z 32006KT 15SM SCT060 BKN100 BKN250 07/03 A2974 RMK SC3AC2CI1 SLP083

CYQF;2012-04-24 17:00;CYQF 241700Z 36010KT 15SM SCT070 BKN250 09/03 A2974 RMK AC4CI2 SLP082

CYQF;2012-04-24 18:00;CYQF 241800Z 01010KT 15SM FEW030 FEW070 BKN250 11/04 A2974 RMK CU1AC2CI2 SLP082

CYQF;2012-04-24 19:00;CYQF 241900Z 03015G20KT 15SM FEW030 SCT080 BKN250 12/04 A2974 RMK CU2AC2CI2 SLP082

CYQF;2012-04-24 20:00;CYQF 242000Z 01010G15KT 15SM BKN030 BKN250 12/04 A2972 RMK CU6CI2 SLP078

CYQF;2012-04-24 21:00;CYQF 242100Z 01015G20KT 15SM OVC030 11/05 A2975 RMK CU8 SLP092

CYQF;2012-04-24 21:47;CYQF 242147Z 01013G18KT 15SM -SHRA BKN030 BKN100 RMK CU5ACC2

CYQF;2012-04-24 22:00;CYQF 242200Z 36014G19KT 15SM FEW020 BKN080 10/05 A2976 RMK SC2ACC5 OCNL -SHRA SLP097

CYQF;2012-04-24 23:00;CYQF 242300Z 03010G15KT 15SM -SHRA FEW020 BKN080 BKN250 10/05 A2974 RMK SC1ACC5CI2 SLP089

CYQF;2012-04-24 23:28;CYQF 242328Z 02010G15KT 15SM FEW020 BKN080 BKN250 RMK CU1ACC5CI2

CYQF;2012-04-25 00:00;CYQF 250000Z 01010G15KT 15SM FEW020 BKN080 BKN250 10/05 A2975 RMK CU1AC5CI2 SLP096

CYQF;2012-04-25 01:00;CYQF 250100Z 02010G15KT 15SM SCT020 BKN080 BKN250 09/05 A2976 RMK SC3AC3CI1 SLP099

CYQF;2012-04-25 02:00;CYQF 250200Z 03007KT 15SM FEW020 BKN080 BKN250 09/05 A2975 RMK SC2AC2CI3 SLP097

CYQF;2012-04-25 03:00;CYQF 250300Z 05006KT 15SM SCT060 BKN120 BKN250 08/04 A2976 RMK SC3AC3CI1 SLP101

CYQF;2012-04-25 04:00;CYQF 250400Z 06005KT 15SM FEW060 BKN120 BKN250 08/04 A2977 RMK SC2AC2CI2 SLP105

CYQF;2012-04-25 05:00;CYQF 250500Z 09003KT 15SM FEW060 BKN120 BKN250 07/05 A2978 RMK SC2AC2CI2 SLP108

CYQF;2012-04-25 06:00;CYQF 250600Z 00000KT 15SM SCT060 BKN100 OVC250 07/05 A2979 RMK SC3AC3CI1 SLP108

CYQF;2012-04-25 07:00;CYQF 250700Z 12003KT 15SM SCT060 BKN100 07/05 A2980 RMK SC3AC4 SLP109

CYQF;2012-04-25 08:00;CYQF 250800Z 09005KT 15SM SCT030 OVC080 07/05 A2980 RMK SC3AC5 SLP111

CYQF;2012-04-25 09:00;CYQF 250900Z 10006KT 15SM SCT030 OVC080 06/05 A2979 RMK SC3AC5 SLP107

CYQF;2012-04-25 10:00;CYQF 251000Z 09004KT 15SM BKN015 OVC030 06/05 A2980 RMK SC6SC2 SLP109

CYQF;2012-04-25 11:00;CYQF 251100Z 12005KT 15SM OVC010 06/05 A2979 RMK SC8 SLP108

CYQF;2012-04-25 11:42;CYQF 251142Z 12007KT 15SM SCT006 OVC010 RMK SF4SC4

CYQF;2012-04-25 11:51;CYQF 251151Z 12007KT 15SM OVC005 RMK SF8

CYQF;2012-04-25 12:00;CYQF 251200Z 13008KT 15SM OVC005 06/04 A2980 RMK SF8 SLP113

CYQF;2012-04-25 12:11;CYQF 251211Z 11006KT 15SM OVC010 RMK SC8

CYQF;2012-04-25 13:00;CYQF 251300Z 12008KT 15SM OVC006 06/04 A2981 RMK SC8 SLP115

CYQF;2012-04-25 14:00;CYQF 251400Z 12010G16KT 10SM OVC005 06/05 A2981 RMK SC8 SLP116

CYQF;2012-04-25 15:00;CYQF 251500Z 11008KT 8SM OVC005 06/05 A2980 RMK ST8 SLP115

CYQF;2012-04-25 16:00;CYQF 251600Z 12010KT 8SM OVC005 07/05 A2981 RMK SC8 SLP117

CYQF;2012-04-25 17:00;CYQF 251700Z 12013KT 8SM OVC007 07/05 A2982 RMK SC8 SLP119

CYQF;2012-04-25 18:00;CYQF 251800Z 12010KT 5SM BR OVC007 08/05 A2982 RMK ST8 SLP122

CYQF;2012-04-25 19:00;CYQF 251900Z 12010KT 8SM BKN013 OVC040 08/05 A2982 RMK ST7SC1 SLP122

CYQF;2012-04-25 19:22;CYQF 251922Z 13010KT 8SM BKN009 OVC013 RMK ST6SC2

CYQF;2012-04-25 20:00;CYQF 252000Z 10013KT 8SM BKN009 OVC013 08/05 A2982 RMK ST6SC2 SLP121

CYQF;2012-04-25 21:00;CYQF 252100Z 12011KT 8SM OVC010 10/06 A2982 RMK SC8 CIG RAG SLP119

CYQF;2012-04-25 22:00;CYQF 252200Z 11012KT 8SM BKN012 BKN250 11/06 A2982 RMK SC6CI1 SLP118

CYQF;2012-04-25 23:00;CYQF 252300Z 09010G18KT 10SM BKN012 OVC250 12/07 A2981 RMK SC5CS3 SLP117

CYQF;2012-04-26 00:00;CYQF 260000Z 08010KT 12SM FEW020 SCT100 BKN250 12/06 A2981 RMK SC2AC2CI2 SLP115

CYQF;2012-04-26 01:00;CYQF 260100Z 09012G20KT 12SM FEW020 SCT100 BKN250 11/06 A2982 RMK SC1AC2CI2 SLP118

CYQF;2012-04-26 02:00;CYQF 260200Z 08012KT 15SM FEW100 OVC250 10/06 A2982 RMK AC1CI4 SLP118

CYQF;2012-04-26 03:00;CYQF 260300Z 09006KT 15SM OVC250 09/05 A2984 RMK CI8 SLP126

CYQF;2012-04-26 04:00;CYQF 260400Z 06009KT 15SM OVC250 08/04 A2985 RMK CI7 SLP130

CYQF;2012-04-26 05:00;CYQF 260500Z 09010KT 15SM SCT250 06/03 A2984 RMK CI2 SLP128

CYQF;2012-04-26 06:00;CYQF 260600Z 11012KT 15SM SCT250 06/03 A2985 RMK CI2 SLP134

CYQF;2012-04-26 07:00;CYQF 260700Z 10008KT 15SM FEW100 SCT250 05/03 A2984 RMK AC1CI1 SLP130

CYQF;2012-04-26 08:00;CYQF 260800Z 09004KT 15SM FEW040 SCT250 04/02 A2985 RMK SC2CI1 SLP132

CYQF;2012-04-26 09:00;CYQF 260900Z 09008KT 15SM BKN030 BKN080 04/03 A2984 RMK SC5AC2 SLP127

CYQF;2012-04-26 10:00;CYQF 261000Z 09008KT 15SM BKN030 BKN080 04/03 A2981 RMK SC6AC1 SLP120

CYQF;2012-04-26 11:00;CYQF 261100Z 11010KT 15SM OVC020 04/03 A2981 RMK SC8 SLP120

CYQF;2012-04-26 12:00;CYQF 261200Z 13012KT 15SM OVC015 04/03 A2979 RMK SC8 SLP108

CYQF;2012-04-26 12:27;CYQF 261227Z 11006KT 10SM OVC006 RMK ST8

CYQF;2012-04-26 13:00;CYQF 261300Z 12008KT 10SM OVC006 04/03 A2977 RMK ST8 SLP103

CYQF;2012-04-26 14:00;CYQF 261400Z 10010KT 8SM OVC006 03/02 A2976 RMK ST8 SLP098

CYQF;2012-04-26 14:53;CYQF 261453Z 11010KT 6SM BR OVC004 RMK ST8

CYQF;2012-04-26 15:00;CYQF 261500Z 10011KT 6SM BR OVC004 03/02 A2974 RMK ST8 SLP097

CYQF;2012-04-26 16:00;CYQF 261600Z CCA 12012KT 8SM OVC004 04/02 A2974 RMK ST8 SLP095

CYQF;2012-04-26 17:00;CYQF 261700Z 10012KT 10SM OVC006 05/03 A2972 RMK ST8 SLP089

CYQF;2012-04-26 17:46;CYQF 261746Z 08010KT 10SM OVC010 RMK SC8

CYQF;2012-04-26 18:00;CYQF 261800Z 10010KT 10SM VCSH OVC010 05/03 A2969 RMK SC8 SLP078

CYQF;2012-04-26 19:00;CYQF 261900Z 08012KT 12SM OVC014 06/03 A2967 RMK SC8 SLP072

CYQF;2012-04-26 20:00;CYQF 262000Z 10010G15KT 12SM OVC015 06/02 A2967 RMK SC8 SLP073

CYQF;2012-04-26 20:43;CYQF 262043Z 11010G15KT 10SM -RA OVC015 RMK SC8

CYQF;2012-04-26 21:00;CYQF 262100Z 11012G17KT 8SM -RA OVC015 05/03 A2966 RMK SC8 SLP070

CYQF;2012-04-26 22:00;CYQF 262200Z 10012KT 6SM -RA OVC008 05/04 A2964 RMK SC8 SLP063

CYQF;2012-04-26 23:00;CYQF 262300Z 09008KT 3SM -RA OVC007 05/04 A2963 RMK SC8 CIG RAG SLP062

CYQF;2012-04-27 00:00;CYQF 270000Z 08010KT 8SM -RA BKN008 OVC015 05/04 A2961 RMK SC7SC1 CIG RAG SLP056

CYQF;2012-04-27 01:00;CYQF 270100Z CCA 07010KT 8SM -RA BKN008 OVC015 05/04 A2959 RMK SC7SC1 CIG RAG SLP050

CYQF;2012-04-27 02:00;CYQF 270200Z 09008KT 8SM -RA BKN008 OVC015 04/03 A2961 RMK SC6SC2 CIG RAG SLP054

CYQF;2012-04-27 02:54;CYQF 270254Z 08010KT 10SM BKN009 OVC015 RMK SC6SC2

CYQF;2012-04-27 03:00;CYQF 270300Z 09010KT 10SM BKN009 OVC015 04/02 A2958 RMK SC6SC2 SLP047

CYQF;2012-04-27 04:00;CYQF 270400Z 09008KT 15SM OVC009 03/02 A2959 RMK SC8 SLP050

CYQF;2012-04-27 05:00;CYQF 270500Z 00000KT 15SM OVC009 03/02 A2959 RMK SC8 SLP050

CYQF;2012-04-27 05:31;CYQF 270531Z 10010KT 10SM -RA OVC010 RMK SC8 CIG RAG

CYQF;2012-04-27 06:00;CYQF 270600Z 11010KT 8SM -RA OVC010 03/02 A2958 RMK SC8 SLP044

CYQF;2012-04-27 07:00;CYQF 270700Z 12010KT 10SM -RA OVC012 03/01 A2958 RMK SC8 SLP045

CYQF;2012-04-27 08:00;CYQF 270800Z 07006KT 10SM -RA OVC012 02/01 A2957 RMK SC8 SLP043

CYQF;2012-04-27 09:00;CYQF 270900Z 07006KT 8SM -RA OVC010 02/01 A2957 RMK SC8 SLP042

CYQF;2012-04-27 10:00;CYQF 271000Z 00000KT 8SM -RA OVC010 02/01 A2959 RMK SC8 CIG RAG SLP049

CYQF;2012-04-27 11:00;CYQF 271100Z 03004KT 6SM -RA BR OVC009 02/01 A2960 RMK SC8 CIG RAG SLP053

CYQF;2012-04-27 12:00;CYQF 271200Z 34003KT 4SM -RA BR OVC009 02/01 A2964 RMK SC8 CIG RAG SLP068

CYQF;2012-04-27 12:16;CYQF 271216Z 32005KT 2SM -RA BR FEW008 OVC015 RMK SF2SC6

CYQF;2012-04-27 13:00;CYQF 271300Z 34006KT 3SM -RA BR FEW006 OVC015 02/01 A2967 RMK SF2SC6 SLP076

CYQF;2012-04-27 14:00;CYQF 271400Z 31003KT 8SM -RA SCT008 BKN020 OVC100 02/01 A2970 RMK SF3SC4AC1 SLP085

CYQF;2012-04-27 15:00;CYQF 271500Z 31010KT 8SM -RA SCT006 OVC060 03/02 A2974 RMK SF4SC4 SLP101

CYQF;2012-04-27 16:00;CYQF 271600Z 34010KT 15SM -RA FEW006 BKN060 OVC250 04/03 A2975 RMK SF2SC6CI1 SLP104

CYQF;2012-04-27 17:00;CYQF 271700Z 35020G25KT 15SM FEW006 BKN060 OVC250 06/03 A2978 RMK SF1SC6CI1 SLP115

CYQF;2012-04-27 18:00;CYQF 271800Z 35020G30KT 15SM FEW010 OVC060 06/03 A2982 RMK CF1SC7 SLP127

CYQF;2012-04-27 19:00;CYQF 271900Z 35013G23KT 15SM FEW015 OVC060 06/02 A2986 RMK CF2SC6 SLP141

CYQF;2012-04-27 20:00;CYQF 272000Z 35010G18KT 15SM FEW015 BKN060 OVC250 06/02 A2987 RMK CF1SC7CI1 SLP144

CYQF;2012-04-27 21:00;CYQF 272100Z 35015G22KT 15SM FEW020 BKN060 BKN250 06/01 A2987 RMK SF1SC7CI1 SLP147

CYQF;2012-04-27 22:00;CYQF 272200Z 34015G22KT 15SM FEW020 FEW060 OVC110 07/00 A2989 RMK CF1SC1AS6 SLP152

CYQF;2012-04-27 23:00;CYQF 272300Z 02012G18KT 15SM FEW020 FEW060 OVC110 06/M00 A2991 RMK CF1SC1AS6 SLP157

CYQF;2012-04-28 00:00;CYQF 280000Z 03010G17KT 15SM FEW060 OVC110 06/01 A2993 RMK SC1AS7 SLP165

CYQF;2012-04-28 01:00;CYQF 280100Z 02008KT 15SM FEW060 OVC150 06/01 A2994 RMK SC2AS6 SLP168

CYQF;2012-04-28 02:00;CYQF 280200Z 36004KT 15SM FEW060 OVC150 05/01 A2995 RMK SC2AS6 SLP174

CYQF;2012-04-28 03:00;CYQF 280300Z 36003KT 15SM SCT060 BKN150 04/01 A2997 RMK SC4AC2 SLP183

CYQF;2012-04-28 04:00;CYQF 280400Z 00000KT 15SM FEW060 BKN150 04/01 A2999 RMK SC2AC5 SLP188

CYQF;2012-04-28 05:00;CYQF 280500Z 30002KT 15SM BKN120 03/01 A3001 RMK AC6 SLP194

CYQF;2012-04-28 06:00;CYQF 280600Z 00000KT 15SM BKN120 03/01 A3002 RMK AC6 SLP197

CYQF;2012-04-28 07:00;CYQF 280700Z 06004KT 15SM BKN120 03/01 A3002 RMK AC6 SLP196

CYQF;2012-04-28 08:00;CYQF 280800Z 00000KT 15SM BKN120 02/00 A3001 RMK AC6 SLP195

CYQF;2012-04-28 09:00;CYQF 280900Z 00000KT 15SM BKN120 00/M01 A3002 RMK AC3 SLP198

CYQF;2012-04-28 10:00;CYQF 281000Z 00000KT 15SM BKN120 01/00 A3002 RMK AC3 SLP199

CYQF;2012-04-28 11:00;CYQF 281100Z 00000KT 6SM BR SCT120 M01/M02 A3004 RMK AC3 SLP204

CYQF;2012-04-28 11:52;CYQF 281152Z 19002KT 2SM BR FEW120 BKN250 RMK AC2CI2

CYQF;2012-04-28 12:00;CYQF 281200Z 18003KT 1SM BR FEW120 BKN250 M01/M01 A3004 RMK FG2AC1CI2 SLP208

CYQF;2012-04-28 13:00;CYQF 281300Z 20003KT 3SM BR FEW120 BKN250 M02/M02 A3005 RMK AC1CI4 VIS N 1 BR SLP211

CYQF;2012-04-28 14:00;CYQF 281400Z 20002KT 5SM BR FEW250 01/M00 A3006 RMK CI1 VIS N 3 SLP215

CYQF;2012-04-28 14:48;CYQF 281448Z 20004KT 8SM FEW006 BKN250 RMK CF1CI3

CYQF;2012-04-28 15:00;CYQF 281500Z 21003KT 10SM FEW006 BKN250 02/02 A3007 RMK CF1CI3 SLP217

CYQF;2012-04-28 16:00;CYQF 281600Z 30004KT 15SM FEW015 BKN250 06/02 A3006 RMK CF1CI4 SLP214

CYQF;2012-04-28 17:00;CYQF 281700Z 24002KT 15SM FEW035 BKN250 09/02 A3005 RMK CF1CI2 CC ASOCTD SLP212

CYQF;2012-04-28 18:00;CYQF 281800Z 25006KT 15SM FEW060 BKN250 10/M04 A3005 RMK CU2CI1 SLP202

CYQF;2012-04-28 19:00;CYQF 281900Z 06005KT 15SM FEW060 BKN250 11/M04 A3004 RMK CU2CI2 CC SLP199

CYQF;2012-04-28 20:00;CYQF 282000Z 00000KT 15SM FEW068 BKN250 11/M05 A3003 RMK CU2CI1 SLP195

CYQF;2012-04-28 21:00;CYQF 282100Z 17003KT 15SM FEW068 BKN250 12/M04 A3001 RMK CU2CI1 SLP190

CYQF;2012-04-28 22:00;CYQF 282200Z 00000KT 15SM FEW070 BKN250 13/M05 A3000 RMK CU1CI0 SLP185

CYQF;2012-04-28 23:00;CYQF 282300Z 00000KT 15SM FEW070 BKN250 14/M03 A2997 RMK CU1CI1 SLP178

CYQF;2012-04-29 00:00;CYQF 290000Z 15005KT 15SM FEW080 BKN250 14/M04 A2996 RMK AC1CI1 SLP172

CYQF;2012-04-29 01:00;CYQF 290100Z 15007KT 15SM FEW080 BKN250 14/M04 A2996 RMK AC1CI1 SLP170

CYQF;2012-04-29 02:00;CYQF 290200Z 12009KT 15SM FEW080 BKN250 13/M03 A2994 RMK AC1CI2 SLP165

CYQF;2012-04-29 03:00;CYQF 290300Z 14006KT 15SM FEW080 SCT250 10/M02 A2994 RMK AC1CI1 SLP165

CYQF;2012-04-29 04:00;CYQF 290400Z 14007KT 15SM FEW090 08/M02 A2995 RMK AC1 SLP168

CYQF;2012-04-29 05:00;CYQF 290500Z 14008KT 15SM SKC 06/M02 A2995 RMK SLP166

CYQF;2012-04-29 06:00;CYQF 290600Z 17012G18KT 15SM SKC 06/01 A2995 RMK SLP162

CYQF;2012-04-29 07:00;CYQF 290700Z 17010G15KT 15SM FEW100 BKN230 05/02 A2994 RMK AC1CI3 SLP159

CYQF;2012-04-29 08:00;CYQF 290800Z 18010G15KT 15SM BKN230 05/02 A2993 RMK CI5 SLP158

CYQF;2012-04-29 09:00;CYQF 290900Z 20005KT 15SM FEW100 BKN230 04/02 A2994 RMK AC2CI4 SLP160

CYQF;2012-04-29 10:00;CYQF 291000Z 00000KT 15SM BKN120 OVC230 04/02 A2994 RMK AC5CI2 SLP160

CYQF;2012-04-29 11:00;CYQF 291100Z 00000KT 15SM BKN120 OVC230 04/02 A2995 RMK AC6CI2 SLP162

CYQF;2012-04-29 12:00;CYQF 291200Z 00000KT 15SM BKN100 OVC230 04/02 A2993 RMK AC6CI1 SLP156

CYQF;2012-04-29 13:00;CYQF 291300Z 00000KT 15SM BKN100 BKN230 04/02 A2994 RMK AC5CI1 SLP157

CYQF;2012-04-29 14:00;CYQF 291400Z 00000KT 15SM FEW100 SCT250 06/02 A2994 RMK AC2CI1 SLP159

CYQF;2012-04-29 15:00;CYQF 291500Z 01005KT 15SM FEW080 SCT120 BKN250 09/03 A2994 RMK ACC2AC2CI3 CC SLP158

CYQF;2012-04-29 16:00;CYQF 291600Z 36006KT 15SM FEW028 SCT080 BKN250 10/03 A2994 RMK CF1ACC3CI3 SLP156

CYQF;2012-04-29 17:00;CYQF 291700Z 30005KT 15SM FEW032 BKN080 BKN250 11/03 A2992 RMK CU2ACC3CI2 SLP150

CYQF;2012-04-29 18:00;CYQF 291800Z 11004KT 15SM FEW032TCU BKN100 12/02 A2989 RMK TCU2AC3 SLP140

CYQF;2012-04-29 19:00;CYQF 291900Z 34020G30KT 15SM BKN045CB 12/01 A2986 RMK CB7 WND SHFT SLP133

CYQF;2012-04-29 19:13;CYQF 291913Z 33015G26KT 15SM -SHRA BKN045CB RMK CB7 VIS N 5

CYQF;2012-04-29 19:35;CYQF 291935Z 36015G20KT 15SM BKN035CB BKN100 BKN250 RMK CB5AC1CI1 HVY SHWR NE

CYQF;2012-04-29 20:00;CYQF 292000Z 36013G18KT 15SM FEW025CB FEW100 SCT250 10/04 A2986 RMK CB2AC1CI0 CB SW AND NE SLP131

CYQF;2012-04-29 21:00;CYQF 292100Z 36010G15KT 15SM BKN022TCU BKN100 OVC250 10/04 A2985 RMK TCU6AC1CI1 CB ASOCTD SW SLP133

CYQF;2012-04-29 21:08;CYQF 292108Z 36010G15KT 15SM -SHRA BKN022TCU BKN100 OVC250 RMK TCU6AC1CI1

CYQF;2012-04-29 22:00;CYQF 292200Z 20002KT 15SM SCT020TCU BKN100 BKN250 10/05 A2984 RMK TCU3AC2CI2 SLP129

CYQF;2012-04-29 23:00;CYQF 292300Z 18004KT 15SM SCT030TCU BKN100 12/04 A2982 RMK TCU3AC3 SLP121

CYQF;2012-04-30 00:00;CYQF 300000Z 27007KT 15SM FEW025TCU BKN100 BKN250 11/04 A2979 RMK TCU2AC3CI1 SLP111

CYQF;2012-04-30 01:00;CYQF 300100Z 23003KT 15SM FEW030TCU FEW100 SCT250 11/03 A2979 RMK TCU2AC1CI1 SLP110

CYQF;2012-04-30 02:00;CYQF 300200Z 21003KT 15SM FEW030TCU FEW100 SCT250 11/04 A2978 RMK TCU2AC1CI0 SLP106

CYQF;2012-04-30 03:00;CYQF 300300Z 21002KT 15SM FEW030TCU SCT100 09/04 A2977 RMK TCU2AC2 SLP102

CYQF;2012-04-30 04:00;CYQF 300400Z 00000KT 15SM FEW030TCU BKN100 06/03 A2977 RMK TCU2AC4 SLP101

CYQF;2012-04-30 04:53;CYQF 300453Z 24010G15KT 10SM -SHRA SCT030TCU BKN100 RMK TCU3AC4

CYQF;2012-04-30 05:00;CYQF 300500Z 23012KT 10SM -SHRA SCT030TCU BKN090 06/02 A2978 RMK TCU3AC4 SLP103

CYQF;2012-04-30 06:00;CYQF 300600Z 19008KT 15SM SCT030 BKN090 06/04 A2975 RMK SC3AC4 TCU ASOCTD SLP093

CYQF;2012-04-30 06:40;CYQF 300640Z 18006KT 15SM SCT030 BKN090 RMK SC3AC3 TCU ASOCTD

CYQF;2012-04-30 07:00;CYQF 300700Z 19005KT 15SM FEW030 BKN090 05/04 A2973 RMK SC2AC4 SLP087

CYQF;2012-04-30 08:00;CYQF 300800Z 20006KT 15SM BKN090 05/04 A2972 RMK AC6 SLP082

CYQF;2012-04-30 09:00;CYQF 300900Z 23008KT 15SM BKN090 06/03 A2971 RMK AC7 SLP080

CYQF;2012-04-30 09:22;CYQF 300922Z 24012KT 15SM -RA OVC090 RMK AC8

CYQF;2012-04-30 09:49;CYQF 300949Z 12006KT 15SM OVC090 RMK AC8

CYQF;2012-04-30 10:00;CYQF 301000Z 16006KT 15SM OVC090 06/03 A2968 RMK AC8 SLP071

CYQF;2012-04-30 11:00;CYQF 301100Z 19004KT 15SM SCT080 05/03 A2966 RMK AC4 SLP066

CYQF;2012-04-30 12:00;CYQF 301200Z 20006KT 15SM FEW080 SCT250 02/01 A2964 RMK AC2CI1 SLP059

CYQF;2012-04-30 13:00;CYQF 301300Z 04004KT 15SM FEW080 BKN250 04/02 A2962 RMK AC1CI2 SLP052

CYQF;2012-04-30 14:00;CYQF 301400Z 05002KT 15SM FEW080 FEW250 06/03 A2961 RMK ACC2CI0 SLP050

CYQF;2012-04-30 15:00;CYQF 301500Z 11005KT 15SM FEW080 FEW250 08/02 A2959 RMK AC2CI1 SLP039

CYQF;2012-04-30 16:00;CYQF 301600Z 11006KT 15SM FEW026 SCT080 BKN250 11/04 A2957 RMK CU1AC3CI2 SLP034

CYQF;2012-04-30 17:00;CYQF 301700Z 14011G16KT 15SM SCT032 BKN080 BKN250 11/03 A2955 RMK CU3AC2CI2 SLP026

CYQF;2012-04-30 18:00;CYQF 301800Z 14010KT 15SM BKN035 BKN250 12/03 A2953 RMK CU5CI2 SLP018

CYQF;2012-04-30 19:00;CYQF 301900Z 13013G20KT 15SM BKN035 OVC250 12/03 A2951 RMK CU6CI2 SLP011

CYQF;2012-04-30 20:00;CYQF 302000Z 15012G18KT 15SM BKN035 OVC250 12/03 A2949 RMK CU5CI2 TCU ASOCTD SLP006

CYQF;2012-04-30 21:00;CYQF 302100Z 14010G15KT 15SM VCSH BKN040 OVC250 13/03 A2948 RMK CU5CS3 TCU SLP999

CYQF;2012-04-30 21:24;CYQF 302124Z 17012G17KT 15SM -SHRA BKN030 OVC250 RMK CU5CS3

CYQF;2012-04-30 22:00;CYQF 302200Z 18008KT 15SM -SHRA BKN036TCU OVC200 12/03 A2947 RMK TCU5CS3 SLP996

CYQF;2012-04-30 22:06;CYQF 302206Z 15008KT 15SM BKN036TCU OVC200 RMK TCU5CS3

CYQF;2012-04-30 23:00;CYQF 302300Z 15005KT 15SM BKN040TCU BKN100 OVC200 12/02 A2947 RMK TCU5AC2CS2 SLP994

CYQF;2012-05-01 00:00;CYQF 010000Z 08010G15KT 15SM BKN032TCU BKN100 OVC200 12/04 A2946 RMK TCU5AC1CS2 SLP998

CYQF;2012-05-01 00:15;CYQF 010015Z 12010G15KT 15SM -SHRA BKN032TCU BKN100 OVC200 RMK TCU6AC1CS1

CYQF;2012-05-01 01:00;CYQF 010100Z 12006KT 15SM BKN020TCU BKN100 OVC200 10/05 A2946 RMK TCU5AC2CS1 SLP999

CYQF;2012-05-01 02:00;CYQF 010200Z 12010G15KT 15SM FEW020 SCT100 BKN250 10/03 A2946 RMK CU2AC2CI2 TCU ASOCTD SLP999

CYQF;2012-05-01 03:00;CYQF 010300Z 12007KT 15SM BKN090 OVC250 09/05 A2947 RMK AC5CI2 SLP996

CYQF;2012-05-01 04:00;CYQF 010400Z 08008KT 15SM BKN090 OVC250 09/05 A2948 RMK AC6CI2 SLP001

CYQF;2012-05-01 05:00;CYQF 010500Z 06005KT 15SM BKN090 OVC250 08/05 A2949 RMK AC6CI2 SLP002

CYQF;2012-05-01 06:00;CYQF 010600Z 07005KT 15SM BKN050 OVC090 08/05 A2948 RMK SC5AC3 SLP998

CYQF;2012-05-01 06:27;CYQF 010627Z 10004KT 15SM -RA BKN050 OVC090 RMK SC5AC3

CYQF;2012-05-01 07:00;CYQF 010700Z 15003KT 15SM -RA BKN040 OVC080 07/06 A2949 RMK SC6AC2 SLP000

CYQF;2012-05-01 08:00;CYQF 010800Z 00000KT 15SM -RA BKN040 OVC080 07/06 A2949 RMK SC6AC2 SLP001

CYQF;2012-05-01 09:00;CYQF 010900Z 00000KT 15SM -RA BKN040 OVC080 07/06 A2949 RMK SC6AC2 SLP001

CYQF;2012-05-01 10:00;CYQF 011000Z 29002KT 15SM -RA BKN040 OVC080 06/06 A2949 RMK SC6AC2 SLP002

CYQF;2012-05-01 11:00;CYQF 011100Z 32004KT 10SM -RA BKN040 OVC080 06/06 A2950 RMK SC5AC3 MIFG SLP003

CYQF;2012-05-01 11:43;CYQF 011143Z 10004KT 6SM BR FEW004 BKN021 OVC040 RMK SF2SC4SC2 LOW CLD ON APRCH RWY 34

CYQF;2012-05-01 12:00;CYQF 011200Z 09004KT 4SM BR SCT004 BKN020 OVC040 06/05 A2950 RMK SF3SC4SC1 SLP008

CYQF;2012-05-01 12:11;CYQF 011211Z 00000KT 4SM -RA BR SCT004 BKN020 OVC040 RMK SF3SC4SC1

CYQF;2012-05-01 12:15;CYQF 011215Z 00000KT 4SM -RA BR BKN007 OVC030 RMK SF6SC2

CYQF;2012-05-01 13:00;CYQF 011300Z 00000KT 3SM -RA BR BKN006 OVC030 06/05 A2951 RMK SF6SC2 SLP009

CYQF;2012-05-01 14:00;CYQF 011400Z 09002KT 6SM -RA BR FEW006 SCT015 BKN040 OVC100 06/05 A2952 RMK SF2SC2SC3AC2 SLP013

CYQF;2012-05-01 14:41;CYQF 011441Z 07005KT 5SM -RA BR BKN005 OVC025 RMK SF6SC2 CIG RAG

CYQF;2012-05-01 15:00;CYQF 011500Z 07006KT 3SM -RA BR BKN005 OVC025 06/05 A2954 RMK SF6SC2 SLP023

CYQF;2012-05-01 16:00;CYQF 011600Z 09008KT 10SM -RA SCT005 OVC009 06/05 A2955 RMK SF3SC5 CIG RAG SLP026

CYQF;2012-05-01 16:46;CYQF 011646Z 00000KT 12SM BKN010 OVC040 RMK CU6SC2

CYQF;2012-05-01 17:00;CYQF 011700Z 10002KT 10SM BKN010 OVC040 07/05 A2956 RMK CU6SC2 SLP029

CYQF;2012-05-01 17:18;CYQF 011718Z 00000KT 10SM BKN007 OVC040 RMK CU6SC2

CYQF;2012-05-01 18:00;CYQF 011800Z 00000KT 12SM BKN007 OVC040 08/06 A2957 RMK CU6SC2 SLP033

CYQF;2012-05-01 18:44;CYQF 011844Z 04007KT 12SM VCSH BKN015 OVC040 RMK CU5SC3

CYQF;2012-05-01 19:00;CYQF 011900Z 04005KT 15SM FEW015 BKN025 OVC065 09/05 A2958 RMK CF2CU3SC3 SLP036

CYQF;2012-05-01 20:00;CYQF 012000Z 06006KT 15SM BKN025 OVC060 10/05 A2958 RMK CU6SC2 TCU ASOCTD SLP035

CYQF;2012-05-01 21:00;CYQF 012100Z 06007KT 15SM BKN035 OVC060 11/02 A2958 RMK CU6SC2 TCU ASOCTD SLP035

CYQF;2012-05-01 22:00;CYQF 012200Z 07007KT 15SM SCT044 BKN060 OVC100 12/01 A2959 RMK CU3SC3AC2 SLP038

CYQF;2012-05-01 22:29;CYQF 012229Z 07010KT 15SM -SHPL SCT030TCU BKN060 OVC100 RMK TCU3SC3AC2

CYQF;2012-05-01 22:39;CYQF 012239Z 09010KT 15SM -SHRA BKN030TCU BKN060 OVC100 RMK TCU5SC2AC2

CYQF;2012-05-01 23:00;CYQF 012300Z 14006KT 15SM -SHRA BKN030TCU BKN060 OVC090 09/04 A2960 RMK TCU5SC2AC1 SLP041

CYQF;2012-05-01 23:18;CYQF 012318Z 24010KT 15SM VCSH BKN030TCU OVC060 RMK TCU5SC3

CYQF;2012-05-02 00:00;CYQF 020000Z 27008KT 15SM VCSH BKN030TCU OVC060 10/06 A2961 RMK TCU5SC3 SLP047

CYQF;2012-05-02 01:00;CYQF 020100Z 25010KT 15SM OVC030 09/06 A2962 RMK SC8 SLP051

CYQF;2012-05-02 02:00;CYQF 020200Z 31007KT 15SM BKN030 08/04 A2964 RMK SC7 SLP055

CYQF;2012-05-02 03:00;CYQF 020300Z 04003KT 15SM BKN030 BKN250 09/01 A2965 RMK SC6CI1 SLP061

CYQF;2012-05-02 04:00;CYQF 020400Z 04002KT 15SM BKN030 BKN250 07/M01 A2967 RMK SC5CI2 SLP067

CYQF;2012-05-02 05:00;CYQF 020500Z 05005KT 15SM BKN030 BKN250 07/00 A2968 RMK SC5CI2 SLP071

CYQF;2012-05-02 06:00;CYQF 020600Z 06004KT 15SM FEW030 BKN250 06/00 A2968 RMK SC2CI1 SLP074

CYQF;2012-05-02 07:00;CYQF 020700Z 09003KT 15SM FEW030 BKN080 BKN250 05/01 A2969 RMK SC1AC4CI0 SLP076

CYQF;2012-05-02 08:00;CYQF 020800Z 15003KT 15SM BKN080 04/01 A2969 RMK AC6 SLP076

CYQF;2012-05-02 09:00;CYQF 020900Z 02003KT 15SM BKN080 03/01 A2969 RMK AC6 SLP076

CYQF;2012-05-02 10:00;CYQF 021000Z 00000KT 15SM BKN020 BKN080 03/01 A2969 RMK SC5AC2 SLP077

CYQF;2012-05-02 11:00;CYQF 021100Z 03004KT 15SM BKN020 04/02 A2970 RMK SC7 SLP080

CYQF;2012-05-02 12:00;CYQF 021200Z 04004KT 15SM BKN020 OVC080 04/03 A2971 RMK SC6AC2 SLP085

CYQF;2012-05-02 12:26;CYQF 021226Z 31003KT 15SM -RA BKN020 OVC080 RMK SC6AC2

CYQF;2012-05-02 13:00;CYQF 021300Z 08004KT 15SM BKN020 BKN080 BKN250 04/03 A2972 RMK SC5AC2CI0 SLP088

CYQF;2012-05-02 14:00;CYQF 021400Z 13004KT 15SM VCSH BKN020 BKN080 BKN250 06/04 A2974 RMK SC5AC2CI0 CU SLP092

CYQF;2012-05-02 14:26;CYQF 021426Z 10004KT 15SM VCSH BKN008 BKN020 BKN080 RMK SC5SC1AC2 CU

CYQF;2012-05-02 15:00;CYQF 021500Z 11006KT 15SM BKN008 BKN080 BKN250 07/04 A2975 RMK SC5AC2CI1 CU SLP095

CYQF;2012-05-02 15:41;CYQF 021541Z 14008KT 15SM BKN012 BKN080 RMK SC6AC2 CU

CYQF;2012-05-02 16:00;CYQF 021600Z 14006KT 15SM BKN012 BKN080 07/03 A2976 RMK SC6AC2 CU SLP097

CYQF;2012-05-02 17:00;CYQF 021700Z 15003KT 15SM BKN020 BKN060 BKN240 08/03 A2976 RMK CU6SC2CI1 SLP098

CYQF;2012-05-02 18:00;CYQF 021800Z 13005KT 15SM BKN030 BKN240 08/03 A2977 RMK CU6CI1 TCU ASOCTD SLP103

CYQF;2012-05-02 18:46;CYQF 021846Z 09010G16KT 15SM -SHRA BKN025 BKN070 RMK CU6AC1 TCU ASOCTD

CYQF;2012-05-02 19:00;CYQF 021900Z 09010G17KT 10SM -SHRA BKN025TCU BKN070 05/03 A2979 RMK TCU6AC1 SLP109

CYQF;2012-05-02 20:00;CYQF 022000Z 08010G15KT 15SM -SHRA SCT025TCU BKN070 BKN240 06/04 A2978 RMK TCU3AC2CI2 SLP108

CYQF;2012-05-02 21:00;CYQF 022100Z 06008KT 15SM -SHRA SCT025TCU BKN070 BKN240 07/04 A2980 RMK TCU3AC2CI2 SLP117

CYQF;2012-05-02 21:48;CYQF 022148Z 08006KT 15SM VCSH SCT030TCU BKN070 BKN240 RMK TCU3AC2CI1

CYQF;2012-05-02 22:00;CYQF 022200Z 20004KT 15SM SCT025TCU BKN070 BKN240 08/04 A2980 RMK TCU3AC2CI1 SLP119

CYQF;2012-05-02 23:00;CYQF 022300Z 19007KT 15SM BKN025TCU BKN070 BKN240 09/03 A2980 RMK TCU5AC2CI1 SLP119

CYQF;2012-05-02 23:14;CYQF 022314Z 14007KT 12SM -SHRA BKN025TCU BKN070 BKN240 RMK TCU5AC2CI1

CYQF;2012-05-03 00:00;CYQF 030000Z 15008KT 12SM -SHRA BKN025TCU BKN070 BKN240 07/03 A2981 RMK TCU5AC2CI1 SLP123

CYQF;2012-05-03 01:00;CYQF 030100Z 13006KT 15SM -SHRA BKN020TCU BKN070 BKN240 07/03 A2982 RMK TCU5AC2CI1 SLP125

CYQF;2012-05-03 02:00;CYQF 030200Z 16005KT 15SM SCT016 BKN070 BKN250 07/03 A2983 RMK SC3AC2CI2 CU ASOCTD SLP127

CYQF;2012-05-03 03:00;CYQF 030300Z 11004KT 15SM FEW016 BKN070 BKN250 06/02 A2984 RMK SC2AC3CI1 SLP130

CYQF;2012-05-03 04:00;CYQF 030400Z 10008KT 15SM FEW015 SCT070 BKN250 05/02 A2986 RMK SC2AC2CI0 SLP136

CYQF;2012-05-03 05:00;CYQF 030500Z 08004KT 15SM FEW015 FEW070 04/02 A2986 RMK SF1AC2 SLP136

CYQF;2012-05-03 06:00;CYQF 030600Z 09003KT 15SM FEW100 03/01 A2986 RMK AC2 SLP139

CYQF;2012-05-03 07:00;CYQF 030700Z 12004KT 15SM BKN080 02/00 A2986 RMK AC6 SLP139

CYQF;2012-05-03 08:00;CYQF 030800Z 00000KT 15SM BKN080 02/01 A2986 RMK AC6 SLP139

CYQF;2012-05-03 09:00;CYQF 030900Z 00000KT 15SM BKN100 02/01 A2985 RMK AC7 SLP138

CYQF;2012-05-03 10:00;CYQF 031000Z 08004KT 15SM BCFG BKN100 02/01 A2985 RMK AC7 SLP136

CYQF;2012-05-03 11:00;CYQF 031100Z 10003KT 10SM BCFG SCT005 OVC060 02/01 A2984 RMK SF3SC5 SLP134

CYQF;2012-05-03 12:00;CYQF 031200Z 13004KT 6SM BR SCT005 OVC060 03/02 A2985 RMK SF4SC4 SLP135

CYQF;2012-05-03 12:33;CYQF 031233Z 12004KT 6SM BR OVC005 RMK ST8

CYQF;2012-05-03 13:00;CYQF 031300Z 11006KT 6SM BR OVC005 03/02 A2984 RMK ST8 SLP133

CYQF;2012-05-03 13:38;CYQF 031338Z 11005KT 6SM BR OVC004 RMK ST8

CYQF;2012-05-03 14:00;CYQF 031400Z 12006KT 6SM BR OVC005 03/02 A2984 RMK ST8 CIG RAG SLP133

CYQF;2012-05-03 15:00;CYQF 031500Z 12008KT 8SM OVC005 04/02 A2983 RMK ST8 CIG RAG SLP131

CYQF;2012-05-03 16:00;CYQF 031600Z 12008KT 10SM BKN008 OVC080 05/02 A2982 RMK SC7AC1 SLP128

CYQF;2012-05-03 17:00;CYQF 031700Z 14010G15KT 10SM BKN015 OVC050 07/03 A2982 RMK SC7SC1 CIG RAG SLP126

CYQF;2012-05-03 18:00;CYQF 031800Z 15011G16KT 12SM BKN015 OVC050 07/03 A2982 RMK CU6SC2 SLP125

CYQF;2012-05-03 19:00;CYQF 031900Z 15010G16KT 15SM BKN024 BKN050 09/03 A2979 RMK CU5SC2 SLP117

CYQF;2012-05-03 20:00;CYQF 032000Z 14010G20KT 15SM BKN028 BKN250 10/03 A2977 RMK CU6CI1 SLP110

CYQF;2012-05-03 21:00;CYQF 032100Z 15013G20KT 15SM BKN040 OVC250 11/01 A2976 RMK CU6CI2 SLP100

CYQF;2012-05-03 22:00;CYQF 032200Z 12014G22KT 15SM BKN040 OVC250 11/01 A2975 RMK CU6CI2 SLP097

CYQF;2012-05-03 23:00;CYQF 032300Z 12015G20KT 15SM VCSH BKN047 OVC080 11/01 A2973 RMK CU6AS2 SLP091

CYQF;2012-05-03 23:14;CYQF 032314Z 13020G26KT 12SM -SHRA BKN045TCU OVC080 RMK TCU6AS2

CYQF;2012-05-04 00:00;CYQF 040000Z 13030G35KT 10SM -SHRA BKN040TCU OVC080 07/01 A2973 RERA RMK TCU7AS1 SLP094

CYQF;2012-05-04 00:50;CYQF 040050Z 15010KT 15SM VCSH SCT040TCU OVC080 RERA RMK TCU3AS5

CYQF;2012-05-04 01:00;CYQF 040100Z 15012KT 15SM VCSH SCT040TCU OVC080 10/02 A2972 RERA RMK TCU3AS5 SLP090

CYQF;2012-05-04 01:28;CYQF 040128Z 17015G20KT 15SM -SHRA BKN035TCU OVC080 RMK TCU6AS2

CYQF;2012-05-04 02:00;CYQF 040200Z 16020G26KT 15SM -SHRA BKN035TCU OVC080 08/01 A2973 RMK TCU5AS3 SLP095

CYQF;2012-05-04 03:00;CYQF 040300Z 17010G15KT 15SM SCT040 BKN080 08/01 A2972 RMK SC4AC3 SLP090

CYQF;2012-05-04 04:00;CYQF 040400Z 14008KT 15SM FEW040 OVC080 07/01 A2971 RMK SC2AC6 SLP087

CYQF;2012-05-04 05:00;CYQF 040500Z 13006KT 15SM OVC080 07/01 A2970 RMK AC6 SLP083

CYQF;2012-05-04 06:00;CYQF 040600Z 13006KT 15SM OVC080 06/01 A2969 RMK AC6 SLP079

CYQF;2012-05-04 07:00;CYQF 040700Z 14006KT 15SM OVC150 05/01 A2969 RMK AC4 SLP078

CYQF;2012-05-04 08:00;CYQF 040800Z 14006KT 15SM FEW020 SCT150 04/01 A2968 RMK SC1AC1 SLP076

CYQF;2012-05-04 09:00;CYQF 040900Z 13005KT 15SM FEW150 04/01 A2968 RMK AC1 SLP073

CYQF;2012-05-04 10:00;CYQF 041000Z 17006KT 15SM FEW150 03/01 A2968 RMK AC2 SLP072

CYQF;2012-05-04 11:00;CYQF 041100Z 19006KT 15SM FEW150 02/M00 A2968 RMK AC1 SLP072

CYQF;2012-05-04 12:00;CYQF 041200Z 19006KT 15SM FEW150 01/M00 A2969 RMK AC1 SLP082

CYQF;2012-05-04 13:00;CYQF 041300Z 21005KT 15SM FEW100 SCT250 01/M00 A2970 RMK AC2CI2 SLP085

CYQF;2012-05-04 14:00;CYQF 041400Z 20006KT 15SM SCT100 BKN250 03/01 A2972 RMK AC4CI2 SLP091

CYQF;2012-05-04 15:00;CYQF 041500Z 25005KT 15SM FEW100 BKN250 05/01 A2973 RMK AC2CI5 SLP093

CYQF;2012-05-04 16:00;CYQF 041600Z 27005KT 15SM FEW020 SCT250 09/03 A2974 RMK CF1CI4 SLP095

CYQF;2012-05-04 17:00;CYQF 041700Z 18002KT 15SM FEW040 SCT250 12/01 A2975 RMK CU1CI1 SLP098

CYQF;2012-05-04 18:00;CYQF 041800Z 31006KT 15SM SCT050 BKN250 14/M01 A2976 RMK CU3CI0 SLP093

CYQF;2012-05-04 19:00;CYQF 041900Z 24007KT 15SM SCT060 BKN250 15/M01 A2976 RMK CU3CI1 SLP095

CYQF;2012-05-04 20:00;CYQF 042000Z 31006KT 15SM BKN064 BKN250 16/M02 A2976 RMK CU6CI1 TCU VIRGA SLP095

CYQF;2012-05-04 21:00;CYQF 042100Z 24008KT 15SM BKN064 BKN250 14/M01 A2977 RMK CU6CI1 TCU VIRGA SLP099

CYQF;2012-05-04 22:00;CYQF 042200Z 30007KT 15SM FEW065 SCT100 BKN250 16/M03 A2976 RMK CU2AC1CI1 TCU VIRGA SLP098

CYQF;2012-05-04 23:00;CYQF 042300Z 33005KT 15SM SCT070 BKN260 16/M03 A2977 RMK CU3CI1 TCU VIRGA SLP099

CYQF;2012-05-05 00:00;CYQF 050000Z 18005KT 15SM SCT070TCU SCT120 BKN260 17/M03 A2978 RMK TCU3AC1CI0 VIRGA SLP103

CYQF;2012-05-05 01:00;CYQF 050100Z 12003KT 15SM BKN070TCU BKN120 BKN260 16/M02 A2978 RMK TCU5AC1CI0 VIRGA SLP105

CYQF;2012-05-05 02:00;CYQF 050200Z 36010KT 15SM SCT070 SCT120 BKN260 13/M00 A2981 RMK ACC3AC1CI1 VIRGA SLP112

CYQF;2012-05-05 03:00;CYQF 050300Z 01008KT 15SM BKN060 BKN120 12/00 A2983 RMK SC5AC1 VIRGA SLP121

CYQF;2012-05-05 04:00;CYQF 050400Z 01009KT 15SM SCT060 BKN120 12/00 A2986 RMK SC3AC3 VIRGA SLP132

CYQF;2012-05-05 04:07;CYQF 050407Z 36010G15KT 15SM -SHRA BKN060 BKN120 RMK SC5AC2

CYQF;2012-05-05 04:27;CYQF 050427Z 34009KT 15SM SCT060 BKN120 RMK SC4AC3

CYQF;2012-05-05 04:41;CYQF 050441Z 35008KT 15SM -SHRA SCT060 BKN120 RMK SC4AC3

CYQF;2012-05-05 05:00;CYQF 050500Z 35007KT 15SM -SHRA FEW060 BKN120 09/03 A2990 RMK SC2AC4 SLP142

CYQF;2012-05-05 06:00;CYQF 050600Z 01006KT 15SM SCT060 BKN120 08/04 A2992 RMK SC3AC3 SLP147

CYQF;2012-05-05 07:00;CYQF 050700Z 01005KT 15SM BKN060 08/03 A2993 RMK SC7 SLP151

CYQF;2012-05-05 07:48;CYQF 050748Z 33010KT 15SM -SHRA OVC030 RMK SC8

CYQF;2012-05-05 08:00;CYQF 050800Z 33010KT 15SM -SHRA OVC030 07/04 A2995 RMK SC8 SLP156

CYQF;2012-05-05 09:00;CYQF 050900Z 33010KT 10SM -SHRA OVC030 06/05 A2995 RMK SC8 SLP161

CYQF;2012-05-05 10:00;CYQF 051000Z 34010G15KT 10SM -SHRA OVC030 05/04 A2996 RMK SC8 SLP163

CYQF;2012-05-05 11:00;CYQF 051100Z 36010G15KT 10SM -SHRA OVC030 04/03 A2996 RMK SC8 SLP164

CYQF;2012-05-05 12:00;CYQF 051200Z 36010G15KT 6SM -SHRA BR OVC030 04/03 A2999 RMK SC8 SLP172

CYQF;2012-05-05 13:00;CYQF 051300Z 01013G18KT 3SM -SHRA BR OVC030 04/03 A3000 RMK SC8 SLP176

CYQF;2012-05-05 14:00;CYQF 051400Z 01011G16KT 6SM -SHRA BR FEW008 OVC030 04/03 A3001 RMK SF1SC7 SLP180

CYQF;2012-05-05 15:00;CYQF 051500Z 35014G24KT 6SM -SHRA BR FEW006 OVC020 04/02 A3002 RMK SF2SC6 SLP188

CYQF;2012-05-05 16:00;CYQF 051600Z 36012G22KT 6SM -SHRA BR SCT006 OVC020 04/03 A3004 RMK SF3SC5 SLP194

CYQF;2012-05-05 17:00;CYQF 051700Z 36013G18KT 6SM -SHRA BR BKN008 OVC020 04/03 A3005 RMK SF6SC2 SLP199

CYQF;2012-05-05 18:00;CYQF 051800Z 01013G18KT 6SM -SHRA BR BKN008 OVC020 03/02 A3007 RMK SF5SC3 /R14/ SLP213

CYQF;2012-05-05 19:00;CYQF 051900Z 36010G15KT 6SM -SHRA BR BKN008 OVC020 04/03 A3008 RMK SF5SC3 SLP215

CYQF;2012-05-05 20:00;CYQF 052000Z 35012G18KT 15SM BKN012 OVC030 05/03 A3008 RMK SC5SC3 SLP215

CYQF;2012-05-05 21:00;CYQF 052100Z 02012G17KT 15SM SCT015 BKN090 06/02 A3009 RMK CU3AS4 SLP217

CYQF;2012-05-05 22:00;CYQF 052200Z 03010G15KT 15SM SCT017 BKN090 07/02 A3010 RMK CU3AS4 SLP220

CYQF;2012-05-05 23:00;CYQF 052300Z 04010G15KT 15SM FEW024 BKN100 07/01 A3009 RMK CU2AS6 SLP218

CYQF;2012-05-06 00:00;CYQF 060000Z 04010KT 15SM FEW028 FEW100 BKN250 08/01 A3010 RMK CF1AC1CI6 CF TR SLP219

CYQF;2012-05-06 01:00;CYQF 060100Z 05010KT 15SM FEW033TCU FEW100 BKN250 08/M00 A3010 RMK TCU1AC1CI6 AC TR TCU TOPS DIST SW-NW SLP220

CYQF;2012-05-06 02:00;CYQF 060200Z 04005KT 15SM FEW060 FEW100 OVC250 08/00 A3012 RMK SC1AC1CI3 SLP226

CYQF;2012-05-06 03:00;CYQF 060300Z 00000KT 15SM BKN060 BKN100 BKN250 07/01 A3014 RMK SC5AC1CI2 VIRGA W-N SLP234

CYQF;2012-05-06 04:00;CYQF 060400Z 36004KT 15SM BKN060 BKN250 06/01 A3015 RMK SC6CI0 SLP239

CYQF;2012-05-06 05:00;CYQF 060500Z 28004KT 15SM BKN060 05/01 A3017 RMK SC6 SLP244

CYQF;2012-05-06 06:00;CYQF 060600Z 30008KT 15SM FEW060 OVC150 05/01 A3016 RMK SC2AC2 SLP245

CYQF;2012-05-06 07:00;CYQF 060700Z 30010KT 15SM SCT060 BKN150 05/01 A3017 RMK SC3AC2 SLP249

CYQF;2012-05-06 08:00;CYQF 060800Z 31010G15KT 15SM FEW210 05/M01 A3018 RMK CI1 SLP253

CYQF;2012-05-06 09:00;CYQF 060900Z 33010G15KT 15SM FEW210 04/M04 A3020 RMK CI0 SLP259

CYQF;2012-05-06 10:00;CYQF 061000Z 33010G15KT 15SM SKC 04/M05 A3022 RMK SLP264

CYQF;2012-05-06 11:00;CYQF 061100Z 30010G15KT 15SM FEW210 03/M04 A3024 RMK CI0 SLP269

CYQF;2012-05-06 12:00;CYQF 061200Z 29010G15KT 15SM FEW210 03/M05 A3025 RMK CI1 SLP275

CYQF;2012-05-06 13:00;CYQF 061300Z 30008KT 15SM FEW210 03/M04 A3026 RMK CI1 SLP279

CYQF;2012-05-06 14:00;CYQF 061400Z 30008KT 15SM FEW210 04/M03 A3028 RMK CI1 SLP284

CYQF;2012-05-06 15:00;CYQF 061500Z 31010KT 15SM FEW210 07/M04 A3029 RMK CI0 SLP284

CYQF;2012-05-06 16:00;CYQF 061600Z 34010G15KT 15SM FEW040 08/M03 A3029 RMK CF1 SLP285

CYQF;2012-05-06 17:00;CYQF 061700Z 32015G20KT 15SM FEW048 09/M03 A3028 RMK CU2 SLP282

CYQF;2012-05-06 18:00;CYQF 061800Z 31014G21KT 15SM SCT055 10/M03 A3028 RMK CU3 SLP280

CYQF;2012-05-06 19:00;CYQF 061900Z 31015G20KT 15SM SCT056 11/M03 A3027 RMK CU3 SLP276

CYQF;2012-05-06 20:00;CYQF 062000Z 31012G17KT 15SM SCT060 11/M03 A3025 RMK CU3 SLP270

CYQF;2012-05-06 21:00;CYQF 062100Z 32015G20KT 15SM SCT064 12/M04 A3024 RMK CU3 SLP265

CYQF;2012-05-06 22:00;CYQF 062200Z 32015G20KT 15SM SCT069 13/M04 A3023 RMK CU3 SLP262

CYQF;2012-05-06 23:00;CYQF 062300Z 33015G22KT 15SM FEW069 14/M03 A3022 RMK CU2 SLP259

CYQF;2012-05-07 00:00;CYQF 070000Z 33010G15KT 15SM FEW070 14/M03 A3022 RMK CU1 SLP255

CYQF;2012-05-07 01:00;CYQF 070100Z 34005KT 15SM FEW070 14/M04 A3021 RMK CU1 SLP254

CYQF;2012-05-07 02:00;CYQF 070200Z 03007KT 15SM FEW070 14/M03 A3022 RMK AC1 SLP255

CYQF;2012-05-07 03:00;CYQF 070300Z 04006KT 15SM FEW070 FEW250 12/M02 A3022 RMK AC1CI1 SLP256

CYQF;2012-05-07 04:00;CYQF 070400Z 16003KT 15SM FEW070 FEW250 08/00 A3024 RMK AC1CI1 SLP262

CYQF;2012-05-07 05:00;CYQF 070500Z 18004KT 15SM SKC 06/M01 A3025 RMK SLP265

CYQF;2012-05-07 06:00;CYQF 070600Z 21003KT 15SM SKC 04/M00 A3026 RMK SLP273

CYQF;2012-05-07 07:00;CYQF 070700Z 23005KT 15SM SKC 03/M01 A3026 RMK SLP274

CYQF;2012-05-07 08:00;CYQF 070800Z 18004KT 15SM SKC 01/M01 A3025 RMK SLP272

CYQF;2012-05-07 09:00;CYQF 070900Z 18003KT 15SM SKC 01/M02 A3025 RMK SLP271

CYQF;2012-05-07 10:00;CYQF 071000Z 23004KT 15SM SKC M00/M02 A3025 RMK SLP270

CYQF;2012-05-07 11:00;CYQF 071100Z 21004KT 15SM SKC 00/M02 A3025 RMK SLP271

CYQF;2012-05-07 12:00;CYQF 071200Z 21004KT 15SM SCT250 01/M02 A3025 RMK CI1 SLP271

CYQF;2012-05-07 13:00;CYQF 071300Z 22004KT 15SM SCT250 01/M01 A3026 RMK CI1 SLP273

CYQF;2012-05-07 14:00;CYQF 071400Z 16003KT 15SM SCT250 04/M00 A3026 RMK CI1 SLP274

CYQF;2012-05-07 15:00;CYQF 071500Z 24003KT 15SM SCT250 08/M00 A3025 RMK CI1 SLP264

CYQF;2012-05-07 16:00;CYQF 071600Z 28005KT 15SM SCT250 11/M00 A3024 RMK CI1 SLP261

CYQF;2012-05-07 17:00;CYQF 071700Z 21002KT 15SM SCT260 14/M00 A3023 RMK CI1 SLP258

CYQF;2012-05-07 18:00;CYQF 071800Z 18002KT 15SM SCT260 15/M02 A3022 RMK CI2 SLP253

CYQF;2012-05-07 19:00;CYQF 071900Z 27004KT 15SM BKN250 16/M02 A3020 RMK CI2 SLP248

CYQF;2012-05-07 20:00;CYQF 072000Z 24003KT 15SM BKN250 17/M00 A3018 RMK CI2 SLP242

CYQF;2012-05-07 21:00;CYQF 072100Z 24002KT 15SM BKN250 17/M03 A3016 RMK CI1 SLP235

CYQF;2012-05-07 22:00;CYQF 072200Z 20003KT 15SM BKN250 18/M03 A3015 RMK CI5 SLP230

CYQF;2012-05-07 23:00;CYQF 072300Z 17004KT 15SM OVC250 19/M02 A3012 RMK CI3 SLP223

CYQF;2012-05-08 00:00;CYQF 080000Z 19005KT 15SM FEW100 OVC250 18/M01 A3011 RMK AC1CI4 SLP216

CYQF;2012-05-08 01:00;CYQF 080100Z 14007KT 15SM OVC250 18/M01 A3009 RMK CI7 SLP211

CYQF;2012-05-08 02:00;CYQF 080200Z 14006KT 15SM OVC250 18/M01 A3008 RMK CI8 SLP207

CYQF;2012-05-08 03:00;CYQF 080300Z 13005KT 15SM BKN250 16/01 A3008 RMK CI6 SLP199

CYQF;2012-05-08 04:00;CYQF 080400Z 14006KT 15SM SCT250 13/00 A3007 RMK CI4 SLP197

CYQF;2012-05-08 05:00;CYQF 080500Z 15009KT 15SM BKN250 12/M00 A3005 RMK CI5 SLP191

CYQF;2012-05-08 06:00;CYQF 080600Z 16008KT 15SM BKN250 11/00 A3004 RMK CI3 SLP183

CYQF;2012-05-08 07:00;CYQF 080700Z 17008KT 15SM SCT250 11/01 A3003 RMK CI2 SLP181

CYQF;2012-05-08 08:00;CYQF 080800Z 17008KT 15SM BKN250 09/01 A3002 RMK CI2 SLP179

CYQF;2012-05-08 09:00;CYQF 080900Z 19007KT 15SM FEW120 BKN250 07/01 A3002 RMK AC2CI2 SLP178

CYQF;2012-05-08 10:00;CYQF 081000Z 17004KT 15SM SCT120 BKN250 06/01 A3001 RMK AC3CI2 SLP175

CYQF;2012-05-08 11:00;CYQF 081100Z 20003KT 15SM SCT120 BKN250 05/00 A2999 RMK AC3CI2 SLP170

CYQF;2012-05-08 12:00;CYQF 081200Z 18005KT 15SM SCT120 BKN250 04/01 A2998 RMK AC3CI2 SLP167

CYQF;2012-05-08 13:00;CYQF 081300Z 16005KT 15SM SCT120 BKN250 05/02 A2997 RMK AC3CI2 SLP163

CYQF;2012-05-08 14:00;CYQF 081400Z 17004KT 15SM SCT100 BKN250 06/03 A2996 RMK AC3CI2 SLP160

CYQF;2012-05-08 15:00;CYQF 081500Z 18003KT 15SM FEW100 BKN250 09/02 A2995 RMK AC1CI2 SLP152

CYQF;2012-05-08 16:00;CYQF 081600Z 17004KT 15SM FEW100 BKN270 13/03 A2993 RMK AC1CI2 SLP146

CYQF;2012-05-08 17:00;CYQF 081700Z 19005KT 15SM FEW120 BKN270 18/04 A2990 RMK AC1CI2 SLP137

CYQF;2012-05-08 18:00;CYQF 081800Z 17010G15KT 15SM FEW120 BKN270 20/04 A2986 RMK AC1CI3 SLP118

CYQF;2012-05-08 19:00;CYQF 081900Z 18010KT 15SM SCT120 BKN270 22/02 A2984 RMK AC3CI2 SLP111

CYQF;2012-05-08 20:00;CYQF 082000Z 24010G15KT 15SM BKN100 OVC250 21/03 A2982 RMK AC3CI5 SLP104

CYQF;2012-05-08 21:00;CYQF 082100Z 24010G15KT 15SM BKN100 BKN250 20/03 A2981 RMK AS6CI2 SLP104

CYQF;2012-05-08 22:00;CYQF 082200Z 22010G15KT 15SM BKN100 BKN250 20/04 A2980 RMK AS6CI1 SLP099

CYQF;2012-05-08 23:00;CYQF 082300Z 22008KT 15SM FEW060 BKN100 BKN250 19/03 A2978 RMK CU1AS6CI1 SLP094

CYQF;2012-05-09 00:00;CYQF 090000Z 22008KT 15SM FEW060 BKN100 BKN250 19/04 A2976 RMK CU1AS6CI2 SLP091

CYQF;2012-05-09 01:00;CYQF 090100Z 19005KT 15SM FEW060 BKN100 BKN250 19/05 A2974 RMK CU1AS6CI2 SLP085

CYQF;2012-05-09 02:00;CYQF 090200Z 20005KT 15SM FEW060 BKN100 BKN250 18/06 A2973 RMK CU1AS4CI2 SLP081

CYQF;2012-05-09 03:00;CYQF 090300Z 20003KT 15SM BKN100 BKN250 17/03 A2972 RMK AC5CI2 SLP074

CYQF;2012-05-09 04:00;CYQF 090400Z 18003KT 15SM BKN100 BKN250 15/04 A2973 RMK AC5CI2 SLP076

CYQF;2012-05-09 05:00;CYQF 090500Z 25007KT 15SM BKN100 BKN250 14/02 A2972 RMK AC5CI2 SLP074

CYQF;2012-05-09 06:00;CYQF 090600Z 25013KT 15SM SCT100 BKN250 14/M00 A2972 RMK AC3CI2 SLP064

CYQF;2012-05-09 07:00;CYQF 090700Z 26010G15KT 15SM SCT100 BKN250 15/M02 A2971 RMK AC3CI2 SLP061

CYQF;2012-05-09 08:00;CYQF 090800Z 27010KT 15SM SCT100 OVC250 14/M02 A2971 RMK AC4CI2 SLP061

CYQF;2012-05-09 09:00;CYQF 090900Z 24005KT 15SM FEW100 BKN250 12/M01 A2971 RMK AC2CI1 SLP062

CYQF;2012-05-09 10:00;CYQF 091000Z 01004KT 15SM SCT090 BKN250 12/M02 A2971 RMK AC3CI2 SLP062

CYQF;2012-05-09 11:00;CYQF 091100Z 02002KT 15SM FEW090 SCT250 11/M00 A2971 RMK AC1CI1 SLP064

CYQF;2012-05-09 12:00;CYQF 091200Z 32004KT 15SM FEW080 SCT250 08/M00 A2973 RMK AC2CI1 SLP077

CYQF;2012-05-09 13:00;CYQF 091300Z 33005KT 15SM SCT090 BKN250 09/01 A2974 RMK AC3CI1 SLP080

CYQF;2012-05-09 14:00;CYQF 091400Z CCA 33010G20KT 15SM SCT090 SCT250 09/M00 A2977 RMK AC3CI1 SLP088

CYQF;2012-05-09 15:00;CYQF 091500Z 33010G15KT 15SM BKN070 09/M01 A2978 RMK AC6 VIRGA ACC ASOCTD SLP095

CYQF;2012-05-09 16:00;CYQF 091600Z 34010G15KT 15SM VCSH BKN070 08/M01 A2977 RMK AC7 ACC SLP092

CYQF;2012-05-09 17:00;CYQF 091700Z 34015G20KT 15SM VCSH SCT070 BKN250 10/01 A2975 RMK AC3CI1 CU SLP086

CYQF;2012-05-09 18:00;CYQF 091800Z 35010G15KT 15SM VCSH SCT080 BKN250 11/01 A2976 RMK ACC4CI3 SLP087

CYQF;2012-05-09 19:00;CYQF 091900Z 34012G18KT 15SM FEW042 SCT080 BKN250 11/00 A2974 RMK CU1AC3CI1 ACC ASOCTD SLP081

CYQF;2012-05-09 19:43;CYQF 091943Z 01010G15KT 12SM -SHRA FEW040 OVC080 RMK CU1AC7

CYQF;2012-05-09 20:00;CYQF 092000Z 36010G15KT 12SM -SHRA FEW040 OVC080 10/01 A2974 RMK CU1ACC7 SLP081

CYQF;2012-05-09 20:49;CYQF 092049Z 35015G20KT 15SM VCSH FEW040 OVC080 RMK CU2ACC6

CYQF;2012-05-09 21:00;CYQF 092100Z 34015G22KT 15SM VCSH FEW020 BKN030 OVC080 09/01 A2975 RMK CU2SC5AC2 SLP089

CYQF;2012-05-09 22:00;CYQF 092200Z 36012G18KT 15SM VCSH BKN030 OVC080 08/01 A2976 RMK SC6AC2 SLP094

CYQF;2012-05-09 23:00;CYQF 092300Z 36010G15KT 15SM VCSH BKN035 OVC080 07/00 A2978 RMK SC6AC2 SLP098

CYQF;2012-05-10 00:00;CYQF 100000Z 34015G25KT 15SM OVC035 06/M02 A2979 RMK SC8 SLP112

CYQF;2012-05-10 01:00;CYQF 100100Z 34015G23KT 15SM FEW006 BKN035 OVC080 05/M01 A2982 RMK SF1SC6AC2 SLP121

CYQF;2012-05-10 02:00;CYQF 100200Z 35010G15KT 15SM BKN035 BKN080 05/M01 A2983 RMK SC5AC2 SLP124

CYQF;2012-05-10 02:23;CYQF 100223Z 33012KT 15SM -SHRA BKN030 OVC080 RMK SC6AC2

CYQF;2012-05-10 02:48;CYQF 100248Z 34014G22KT 15SM BKN030 BKN080 RMK SC5AC2

CYQF;2012-05-10 03:00;CYQF 100300Z 33013G20KT 15SM SCT030 BKN080 05/M03 A2985 RMK SC4AC2 SLP133

CYQF;2012-05-10 04:00;CYQF 100400Z 28003KT 15SM FEW030 BKN090 04/M03 A2985 RMK SC2AC2 SLP134

CYQF;2012-05-10 05:00;CYQF 100500Z 27004KT 15SM FEW030 BKN090 02/M02 A2987 RMK SC2AC2 SLP138

CYQF;2012-05-10 06:00;CYQF 100600Z 27012KT 15SM BKN075 01/M02 A2987 RMK AC5 SLP140

CYQF;2012-05-10 07:00;CYQF 100700Z 26004KT 15SM BKN080 01/M02 A2988 RMK AC6 SLP143

CYQF;2012-05-10 08:00;CYQF 100800Z 27014KT 15SM BKN080 02/M03 A2990 RMK AC6 SLP149

CYQF;2012-05-10 09:00;CYQF 100900Z 30008KT 15SM BKN080 02/M03 A2990 RMK AC6 SLP154

CYQF;2012-05-10 10:00;CYQF 101000Z 30008KT 15SM BKN080 02/M03 A2992 RMK AC7 SLP158

CYQF;2012-05-10 11:00;CYQF 101100Z 27006KT 15SM OVC080 01/M03 A2993 RMK AC8 SLP161

CYQF;2012-05-10 12:00;CYQF 101200Z 28006KT 15SM BKN080 01/M04 A2993 RMK AC7 SLP167

CYQF;2012-05-10 13:00;CYQF 101300Z 26014KT 15SM BKN080 02/M04 A2995 RMK AC7 VIRGA ALQDS SLP172

CYQF;2012-05-10 14:00;CYQF 101400Z 24010KT 15SM FEW040 BKN080 BKN250 03/M05 A2995 RMK SC2AC3CI1 VIRGA SLP171

CYQF;2012-05-10 15:00;CYQF 101500Z 26010G15KT 15SM FEW080 BKN250 05/M02 A2994 RMK ACC1CI5 VIRGA SLP169

CYQF;2012-05-10 16:00;CYQF 101600Z 28011G16KT 15SM FEW040 SCT260 06/M07 A2993 RMK CU1CI1 SLP165

CYQF;2012-05-10 17:00;CYQF 101700Z 30013G23KT 15SM BKN060TCU BKN200 07/M12 A2991 RMK TCU6CI2 SLP160

CYQF;2012-05-10 18:00;CYQF 101800Z 28015G25KT 15SM VCSH BKN060TCU BKN200 06/M11 A2991 RMK TCU6CI2 SLP161

CYQF;2012-05-10 19:00;CYQF 101900Z 28015G25KT 15SM VCSH BKN060TCU BKN090 OVC220 05/M11 A2992 RMK TCU5AC2CI1 SLP163

CYQF;2012-05-10 20:00;CYQF 102000Z 28012G22KT 15SM VCSH BKN060TCU BKN090 BKN220 08/M12 A2991 RMK TCU5AC2CI1 SLP160

CYQF;2012-05-10 21:00;CYQF 102100Z 27018G30KT 15SM VCSH SCT060TCU BKN090 BKN220 08/M13 A2991 RMK TCU3AC2CI2 SLP157

CYQF;2012-05-10 22:00;CYQF 102200Z 30020G30KT 15SM BKN060TCU BKN220 08/M11 A2993 RMK TCU5CI2 VIRGA SLP163

CYQF;2012-05-10 23:00;CYQF 102300Z 27015G20KT 15SM BKN060TCU BKN220 08/M11 A2993 RMK TCU5CI2 VIRGA SLP162

CYQF;2012-05-11 00:00;CYQF 110000Z 27013G19KT 15SM BKN060TCU BKN220 07/M11 A2994 RMK TCU5CI2 VIRGA SLP168

CYQF;2012-05-11 01:00;CYQF 110100Z 28015G22KT 15SM SCT060 BKN220 09/M10 A2994 RMK CU4CI1 TCU VIRGA SLP168

CYQF;2012-05-11 02:00;CYQF 110200Z 30010G15KT 15SM FEW060 BKN220 07/M10 A2995 RMK CU2CI1 VIRGA SLP170

CYQF;2012-05-11 03:00;CYQF 110300Z 28007KT 15SM FEW070 BKN220 05/M10 A2996 RMK AC2CI2 SLP174

CYQF;2012-05-11 04:00;CYQF 110400Z 28005KT 15SM BKN070 04/M09 A2998 RMK AC5 SLP181

CYQF;2012-05-11 05:00;CYQF 110500Z 27007KT 15SM BKN070 03/M09 A2999 RMK AC3 SLP185

CYQF;2012-05-11 06:00;CYQF 110600Z 27008KT 15SM SCT070 02/M09 A3001 RMK AC3 SLP195

CYQF;2012-05-11 07:00;CYQF 110700Z 27008KT 15SM FEW070 01/M10 A3003 RMK AC2 SLP201

CYQF;2012-05-11 08:00;CYQF 110800Z 26005KT 15SM FEW070 M01/M10 A3005 RMK AC2 SLP206

CYQF;2012-05-11 09:00;CYQF 110900Z 23004KT 15SM SKC M01/M10 A3006 RMK SLP211

CYQF;2012-05-11 10:00;CYQF 111000Z 23004KT 15SM SKC M02/M09 A3006 RMK SLP213

CYQF;2012-05-11 11:00;CYQF 111100Z 24006KT 15SM SKC M03/M09 A3007 RMK SLP215

CYQF;2012-05-11 12:00;CYQF 111200Z 23008KT 15SM SKC M03/M09 A3008 RMK SLP221

CYQF;2012-05-11 13:00;CYQF 111300Z 23006KT 15SM SKC M01/M08 A3008 RMK SLP223

CYQF;2012-05-11 14:00;CYQF 111400Z 24005KT 15SM SKC 03/M08 A3010 RMK SLP227

CYQF;2012-05-11 15:00;CYQF 111500Z 27008KT 15SM FEW240 06/M07 A3010 RMK CI1 SLP222

CYQF;2012-05-11 16:00;CYQF 111600Z 27010G15KT 15SM FEW240 09/M07 A3009 RMK CI1 SLP219

CYQF;2012-05-11 17:00;CYQF 111700Z 28010G15KT 15SM FEW240 11/M12 A3008 RMK CI1 SLP215

CYQF;2012-05-11 18:00;CYQF 111800Z 27010G15KT 15SM SCT240 11/M11 A3006 RMK CI2 SLP206

CYQF;2012-05-11 19:00;CYQF 111900Z 27010G15KT 15SM FEW250 13/M09 A3005 RMK CI2 SLP204

CYQF;2012-05-11 20:00;CYQF 112000Z 24010G15KT 15SM FEW250 14/M09 A3005 RMK CI2 SLP201

CYQF;2012-05-11 21:00;CYQF 112100Z 25010G15KT 15SM FEW250 15/M08 A3004 RMK CI2 SLP197

CYQF;2012-05-11 22:00;CYQF 112200Z 30015G20KT 15SM BKN260 15/M09 A3003 RMK CI2 SLP195

CYQF;2012-05-11 23:00;CYQF 112300Z 28010G15KT 15SM BKN250 16/M09 A3002 RMK CI2 SLP192

CYQF;2012-05-12 00:00;CYQF 120000Z 31012G18KT 15SM BKN250 16/M08 A3002 RMK CI3 SLP190

CYQF;2012-05-12 01:00;CYQF 120100Z 29010G15KT 15SM BKN250 16/M08 A3001 RMK CI2 SLP188

CYQF;2012-05-12 02:00;CYQF 120200Z 29007KT 15SM BKN250 15/M07 A3001 RMK CI1 SLP187

CYQF;2012-05-12 03:00;CYQF 120300Z 28004KT 15SM SCT250 12/M06 A3003 RMK CI1 SLP188

CYQF;2012-05-12 04:00;CYQF 120400Z 27005KT 15SM FEW250 09/M07 A3005 RMK CI0 SLP196

CYQF;2012-05-12 05:00;CYQF 120500Z 28006KT 15SM FEW250 09/M06 A3007 RMK CI0 SLP201

CYQF;2012-05-12 06:00;CYQF 120600Z 29007KT 15SM SKC 08/M06 A3009 RMK SLP209

CYQF;2012-05-12 07:00;CYQF 120700Z 29007KT 15SM SKC 07/M06 A3011 RMK SLP216

CYQF;2012-05-12 08:00;CYQF 120800Z 21005KT 15SM SKC 03/M05 A3013 RMK SLP221

CYQF;2012-05-12 09:00;CYQF 120900Z 25005KT 15SM SKC 01/M05 A3014 RMK SLP231

CYQF;2012-05-12 10:00;CYQF 121000Z 00000KT 15SM SKC 01/M05 A3017 RMK SLP239

CYQF;2012-05-12 11:00;CYQF 121100Z 23005KT 15SM SKC M01/M06 A3018 RMK SLP244

CYQF;2012-05-12 12:00;CYQF 121200Z 20005KT 15SM SKC M01/M05 A3019 RMK SLP249

CYQF;2012-05-12 13:00;CYQF 121300Z 19004KT 15SM SKC 02/M05 A3020 RMK SLP252

CYQF;2012-05-12 14:00;CYQF 121400Z 24006KT 15SM SKC 06/M04 A3022 RMK SLP256

CYQF;2012-05-12 15:00;CYQF 121500Z 22006KT 15SM FEW250 10/M05 A3022 RMK CI0 SLP251

CYQF;2012-05-12 16:00;CYQF 121600Z 22002KT 15SM FEW250 12/M04 A3021 RMK CI1 SLP247

CYQF;2012-05-12 17:00;CYQF 121700Z 18005KT 15SM SCT250 14/M05 A3019 RMK CI2 SLP242

CYQF;2012-05-12 18:00;CYQF 121800Z 16005KT 15SM BKN250 15/M05 A3017 RMK CI4 SLP234

CYQF;2012-05-12 19:00;CYQF 121900Z 18010G15KT 15SM BKN250 17/M05 A3014 RMK CI6 SLP223

CYQF;2012-05-12 20:00;CYQF 122000Z 18010G15KT 15SM BKN250 18/M04 A3012 RMK CI6 SLP216

CYQF;2012-05-12 21:00;CYQF 122100Z 18010KT 15SM BKN250 20/M02 A3009 RMK CI6 SLP208

CYQF;2012-05-12 22:00;CYQF 122200Z 23005KT 15SM FEW100 BKN250 21/M02 A3007 RMK AC1CI5 SLP200

CYQF;2012-05-12 23:00;CYQF 122300Z 00000KT 15SM FEW100 BKN250 21/M04 A3005 RMK AC1CI2 SLP193

CYQF;2012-05-13 00:00;CYQF 130000Z 28003KT 15SM FEW100 BKN250 21/M03 A3004 RMK AC1CI4 SLP189

CYQF;2012-05-13 01:00;CYQF 130100Z 00000KT 15SM FEW100 BKN250 21/M03 A3002 RMK AC1CI4 SLP184

CYQF;2012-05-13 02:00;CYQF 130200Z 00000KT 15SM FEW100 BKN250 22/M04 A3002 RMK AC1CI2 SLP183

CYQF;2012-05-13 03:00;CYQF 130300Z 00000KT 15SM FEW100 BKN250 19/M03 A3002 RMK AC1CI2 SLP173

CYQF;2012-05-13 04:00;CYQF 130400Z 28008KT 15SM FEW250 17/M03 A3004 RMK CI1 SLP179

CYQF;2012-05-13 05:00;CYQF 130500Z 29012KT 15SM FEW250 13/M02 A3005 RMK CI1 SLP184

CYQF;2012-05-13 06:00;CYQF 130600Z 29008KT 15SM SKC 14/M03 A3007 RMK SLP192

CYQF;2012-05-13 07:00;CYQF 130700Z 30008KT 15SM SKC 11/M03 A3008 RMK SLP196

CYQF;2012-05-13 08:00;CYQF 130800Z 26005KT 15SM SKC 07/M04 A3010 RMK SLP202

CYQF;2012-05-13 09:00;CYQF 130900Z 01002KT 15SM SKC 07/M02 A3011 RMK SLP206

CYQF;2012-05-13 10:00;CYQF 131000Z 20006KT 15SM SKC 04/M03 A3012 RMK SLP210

CYQF;2012-05-13 11:00;CYQF 131100Z 19006KT 15SM SKC 02/M04 A3013 RMK SLP213

CYQF;2012-05-13 12:00;CYQF 131200Z 18004KT 15SM FEW250 02/M03 A3014 RMK CI0 SLP221

CYQF;2012-05-13 13:00;CYQF 131300Z 20005KT 15SM FEW250 05/M02 A3014 RMK CI0 SLP223

CYQF;2012-05-13 14:00;CYQF 131400Z 21008KT 15SM FEW250 09/M02 A3015 RMK CI0 SLP224

CYQF;2012-05-13 15:00;CYQF 131500Z 19005KT 15SM FEW250 13/M01 A3014 RMK CI0 SLP213

CYQF;2012-05-13 16:00;CYQF 131600Z 17007KT 15SM FEW100 FEW250 18/M03 A3013 RMK AC1CI0 SLP210

CYQF;2012-05-13 17:00;CYQF 131700Z 20008KT 15SM FEW260 20/M02 A3012 RMK CI0 SLP205

CYQF;2012-05-13 18:00;CYQF 131800Z 18015G20KT 15SM SCT260 21/M03 A3009 RMK CI0 SLP192

CYQF;2012-05-13 19:00;CYQF 131900Z 18015G20KT 15SM SCT260 23/M03 A3007 RMK CI0 SLP185

CYQF;2012-05-13 20:00;CYQF 132000Z 22015G20KT 15SM FEW260 24/M03 A3004 RMK CI2 SLP177

CYQF;2012-05-13 21:00;CYQF 132100Z 21013KT 15SM SCT260 25/M03 A3001 RMK CI2 SLP169

CYQF;2012-05-13 22:00;CYQF 132200Z 20010KT 15SM FEW080 BKN260 25/M01 A2998 RMK CU1CI2 SLP160

CYQF;2012-05-13 23:00;CYQF 132300Z 00000KT 15SM FEW100 BKN250 25/00 A2996 RMK CU1CI4 SLP153

CYQF;2012-05-14 00:00;CYQF 140000Z 23005KT 15SM FEW100 BKN250 25/M01 A2995 RMK CU1CI2 SLP151

CYQF;2012-05-14 01:00;CYQF 140100Z 28010G15KT 15SM FEW100 SCT250 25/M04 A2994 RMK AC1CI1 SLP149

CYQF;2012-05-14 02:00;CYQF 140200Z 27008KT 15SM FEW100 FEW250 23/M03 A2994 RMK AC1CI1 SLP149

CYQF;2012-05-14 03:00;CYQF 140300Z 28010G15KT 15SM FEW100 FEW250 20/M04 A2997 RMK AC1CI1 SLP151

CYQF;2012-05-14 04:00;CYQF 140400Z 30010G15KT 15SM FEW100 SCT250 18/M04 A3001 RMK AC1CI1 SLP164

CYQF;2012-05-14 05:00;CYQF 140500Z 30010KT 15SM FEW100 FEW250 16/M04 A3003 RMK AC1CI0 SLP170

CYQF;2012-05-14 06:00;CYQF 140600Z 29008KT 15SM SKC 14/M04 A3005 RMK SLP177

CYQF;2012-05-14 07:00;CYQF 140700Z 30010KT 15SM SKC 13/04 A3007 RMK SLP183

CYQF;2012-05-14 08:00;CYQF 140800Z 30008KT 15SM SKC 11/M04 A3010 RMK SLP192

CYQF;2012-05-14 09:00;CYQF 140900Z 30007KT 15SM SKC 10/M04 A3012 RMK SLP202

CYQF;2012-05-14 10:00;CYQF 141000Z 15004KT 15SM SKC 07/M02 A3014 RMK SLP208

CYQF;2012-05-14 11:00;CYQF 141100Z 00000KT 15SM FEW250 04/M02 A3016 RMK CI1 SLP214

CYQF;2012-05-14 12:00;CYQF 141200Z 32003KT 15SM SCT250 05/M03 A3018 RMK CI2 SLP229

CYQF;2012-05-14 13:00;CYQF 141300Z 32006KT 15SM SCT250 10/M02 A3021 RMK CI2 SLP238

CYQF;2012-05-14 14:00;CYQF 141400Z 32006KT 15SM SCT250 12/M02 A3024 RMK CI0 SLP247

CYQF;2012-05-14 15:00;CYQF 141500Z 31010KT 15SM SCT250 14/M04 A3025 RMK CI1 SLP248

CYQF;2012-05-14 16:00;CYQF 141600Z 33010KT 15SM FEW250 14/M03 A3025 RMK CI0 SLP250

CYQF;2012-05-14 17:00;CYQF 141700Z 32010KT 15SM BKN250 15/M03 A3025 RMK CI2 SLP247

CYQF;2012-05-14 18:00;CYQF 141800Z 35010KT 15SM OVC250 15/M02 A3023 RMK CS6 HALO SLP246

CYQF;2012-05-14 19:00;CYQF 141900Z 34008KT 15SM BKN250 16/M04 A3021 RMK CI6 SLP241

CYQF;2012-05-14 20:00;CYQF 142000Z 05005KT 15SM OVC250 17/M01 A3020 RMK CS6 HALO SLP236

CYQF;2012-05-14 21:00;CYQF 142100Z 00000KT 15SM OVC250 17/M02 A3018 RMK CS8 HALO SLP232

CYQF;2012-05-14 22:00;CYQF 142200Z 33005KT 15SM OVC250 18/M01 A3017 RMK CS8 SLP227

CYQF;2012-05-14 23:00;CYQF 142300Z 00000KT 15SM FEW150 OVC250 19/M01 A3016 RMK AC2CS6 SLP224

CYQF;2012-05-15 00:00;CYQF 150000Z 07003KT 15SM BKN250 19/M01 A3015 RMK CI6 SLP223

CYQF;2012-05-15 01:00;CYQF 150100Z 07010KT 15SM BKN250 19/M01 A3013 RMK CI6 SLP219

CYQF;2012-05-15 02:00;CYQF 150200Z 08010KT 15SM BKN250 17/M01 A3012 RMK CI5 SLP215

CYQF;2012-05-15 03:00;CYQF 150300Z 09010KT 15SM BKN250 15/M01 A3011 RMK CI4 SLP205

CYQF;2012-05-15 04:00;CYQF 150400Z 10005KT 15SM BKN250 13/M01 A3011 RMK CI2 SLP206

CYQF;2012-05-15 05:00;CYQF 150500Z 14005KT 15SM BKN250 13/M01 A3012 RMK CI2 SLP207

CYQF;2012-05-15 06:00;CYQF 150600Z 14005KT 15SM FEW250 12/M02 A3011 RMK CI1 SLP206

CYQF;2012-05-15 07:00;CYQF 150700Z 18004KT 15SM FEW250 08/M02 A3010 RMK CI1 SLP204

CYQF;2012-05-15 08:00;CYQF 150800Z 16007KT 15SM FEW250 08/M02 A3010 RMK CI1 SLP203

CYQF;2012-05-15 09:00;CYQF 150900Z 16004KT 15SM FEW250 08/M02 A3007 RMK CI1 SLP197

CYQF;2012-05-15 10:00;CYQF 151000Z 16003KT 15SM FEW250 07/M02 A3006 RMK CI1 SLP192

CYQF;2012-05-15 11:00;CYQF 151100Z 16006KT 15SM SCT250 07/M03 A3003 RMK CI2 SLP182

CYQF;2012-05-15 12:00;CYQF 151200Z 00000KT 15SM FEW120 BKN250 07/M03 A3001 RMK AC2CI2 SLP173

CYQF;2012-05-15 13:00;CYQF 151300Z 16008KT 15SM FEW120 BKN250 09/M02 A2999 RMK AC2CI2 SLP167

CYQF;2012-05-15 14:00;CYQF 151400Z 16010G15KT 15SM BKN250 12/M01 A2997 RMK CI7 SLP163

CYQF;2012-05-15 15:00;CYQF 151500Z 18010G15KT 15SM BKN250 14/01 A2996 RMK CI6 SLP155

CYQF;2012-05-15 16:00;CYQF 151600Z 18010G15KT 15SM BKN250 17/02 A2994 RMK CI6 SLP148

CYQF;2012-05-15 17:00;CYQF 151700Z 16010KT 15SM SCT150 BKN250 18/03 A2992 RMK AS4CI2 SLP141

CYQF;2012-05-15 18:00;CYQF 151800Z 18008KT 15SM SCT150 BKN250 19/04 A2991 RMK AC4CI2 SLP136

CYQF;2012-05-15 19:00;CYQF 151900Z 17006KT 15SM BKN150 BKN250 19/03 A2989 RMK AC5CI2 SLP130

CYQF;2012-05-15 20:00;CYQF 152000Z 18007KT 15SM SCT150 BKN250 21/04 A2987 RMK AC3CI4 SLP123

CYQF;2012-05-15 21:00;CYQF 152100Z 18005KT 15SM SCT150 BKN250 23/04 A2985 RMK AC3CI3 SLP115

CYQF;2012-05-15 22:00;CYQF 152200Z 12007KT 15SM FEW150 BKN260 25/04 A2983 RMK AC2CI2 SLP106

CYQF;2012-05-15 23:00;CYQF 152300Z 00000KT 15SM FEW120 BKN250 26/M03 A2980 RMK AC1CI4 SLP099

CYQF;2012-05-16 00:00;CYQF 160000Z 17004KT 15SM FEW090 FEW140 BKN260 26/01 A2978 RMK AC1AC2CI2 SLP089

CYQF;2012-05-16 01:00;CYQF 160100Z 14002KT 15SM FEW090 FEW140 BKN260 25/M02 A2976 RMK AC1AC2CI2 SLP083

CYQF;2012-05-16 02:00;CYQF 160200Z 00000KT 15SM FEW090 FEW140 BKN250 24/03 A2977 RMK AC1AC1CI2 SLP084

CYQF;2012-05-16 03:00;CYQF 160300Z 29005KT 15SM FEW140 BKN250 21/00 A2977 RMK AC2CI2 SLP083

CYQF;2012-05-16 04:00;CYQF 160400Z 27006KT 15SM FEW140 SCT250 17/M02 A2977 RMK AC1CI1 SLP083

CYQF;2012-05-16 05:00;CYQF 160500Z 32010KT 15SM FEW140 BKN250 15/02 A2977 RMK AC2CI2 SLP083

CYQF;2012-05-16 06:00;CYQF 160600Z 00000KT 15SM SKC 13/03 A2979 RMK SLP090

CYQF;2012-05-16 07:00;CYQF 160700Z 27007KT 15SM SKC 10/04 A2980 RMK SLP094

CYQF;2012-05-16 08:00;CYQF 160800Z 35008KT 15SM SKC 12/03 A2981 RMK SLP097

CYQF;2012-05-16 09:00;CYQF 160900Z 01006KT 15SM SKC 12/02 A2982 RMK SLP099

CYQF;2012-05-16 10:00;CYQF 161000Z 05004KT 15SM SKC 11/02 A2982 RMK SLP099

CYQF;2012-05-16 11:00;CYQF 161100Z 36006KT 15SM FEW250 09/01 A2981 RMK CI1 SLP095

CYQF;2012-05-16 12:00;CYQF 161200Z 27007KT 15SM FEW250 07/01 A2981 RMK CI1 SLP099

CYQF;2012-05-16 13:00;CYQF 161300Z 27008KT 15SM SCT250 09/03 A2983 RMK CI1 SLP104

CYQF;2012-05-16 14:00;CYQF 161400Z 30006KT 15SM FEW250 12/03 A2983 RMK CI1 SLP104

CYQF;2012-05-16 15:00;CYQF 161500Z 34010KT 15SM FEW250 14/03 A2981 RMK CI1 SLP096

CYQF;2012-05-16 16:00;CYQF 161600Z 34010KT 15SM FEW250 15/03 A2981 RMK CI0 SLP096

CYQF;2012-05-16 17:00;CYQF 161700Z 01010KT 15SM SCT250 17/04 A2980 RMK CI2 SLP091

CYQF;2012-05-16 18:00;CYQF 161800Z 00000KT 15SM BKN260 17/04 A2978 RMK CI3 SLP088

CYQF;2012-05-16 19:00;CYQF 161900Z 04010G15KT 15SM BKN260 19/04 A2975 RMK CI2 SLP078

CYQF;2012-05-16 20:00;CYQF 162000Z 11010KT 15SM BKN260 20/06 A2972 RMK CI6 SLP069

CYQF;2012-05-16 21:00;CYQF 162100Z 07010KT 15SM FEW064 SCT120 BKN260 20/04 A2970 RMK CU1AC2CI4 SLP061

CYQF;2012-05-16 22:00;CYQF 162200Z 05010KT 15SM SCT064 BKN120 BKN260 20/05 A2969 RMK CU3AC2CI1 SLP058

CYQF;2012-05-16 23:00;CYQF 162300Z 16007KT 10SM BKN065TCU BKN250 20/04 A2969 RMK TCU6CI2 HZ SLP059

CYQF;2012-05-16 23:16;CYQF 162316Z 31015G20KT 10SM VCSH BKN060TCU OVC250 RMK TCU6CI2 HZ

CYQF;2012-05-16 23:32;CYQF 162332Z 33025G40KT 10SM -SHRA BKN040CB BKN250 RMK CB6CI1

CYQF;2012-05-17 00:00;CYQF 170000Z 33020G30KT 15SM -SHRA BKN030CB BKN250 13/05 A2976 RMK CB6CI1 SLP095

CYQF;2012-05-17 01:00;CYQF 170100Z 34015G25KT 15SM BKN025CB BKN250 11/05 A2978 RMK CB5CI1 SLP101

CYQF;2012-05-17 01:22;CYQF 170122Z 03020G30KT 15SM -SHRA SCT025TCU BKN120 BKN250 RMK TCU3AC2CI1

CYQF;2012-05-17 02:00;CYQF 170200Z 35010G15KT 15SM FEW020 SCT040 BKN120 10/06 A2977 RMK SC1SC3AC1 TCU EMBD SLP098

CYQF;2012-05-17 03:00;CYQF 170300Z 35010G15KT 15SM FEW020 SCT040 BKN120 09/06 A2982 RMK SC2SC2AC2 SLP109

CYQF;2012-05-17 04:00;CYQF 170400Z 33015G20KT 15SM OVC040 07/04 A2986 RMK SC8 SLP122

CYQF;2012-05-17 05:00;CYQF 170500Z 33010G15KT 15SM BKN050 07/03 A2986 RMK SC4 SLP123

CYQF;2012-05-17 06:00;CYQF 170600Z 30010G15KT 15SM SCT050 06/02 A2987 RMK SC3 SLP128

CYQF;2012-05-17 07:00;CYQF 170700Z 30007KT 15SM BKN050 05/02 A2989 RMK SC6 SLP136

CYQF;2012-05-17 08:00;CYQF 170800Z 29008KT 15SM BKN060 06/02 A2990 RMK SC7 SLP137

CYQF;2012-05-17 09:00;CYQF 170900Z 29008KT 15SM OVC045 06/02 A2991 RMK SC8 SLP138

CYQF;2012-05-17 10:00;CYQF 171000Z 33011KT 15SM OVC050 06/01 A2991 RMK SC8 SLP140

CYQF;2012-05-17 11:00;CYQF 171100Z 33012KT 15SM OVC050 05/01 A2992 RMK SC8 SLP143

CYQF;2012-05-17 12:00;CYQF 171200Z 30007KT 15SM BKN040 OVC070 05/M03 A2994 RMK SC6AC2 SLP160

CYQF;2012-05-17 13:00;CYQF 171300Z 31007KT 15SM BKN080 OVC240 05/M05 A2995 RMK AS7CI1 SLP164

CYQF;2012-05-17 14:00;CYQF 171400Z 31006KT 15SM BKN080 OVC240 05/M07 A2995 RMK AS6CI2 SLP163

CYQF;2012-05-17 15:00;CYQF 171500Z 30007KT 15SM FEW050 BKN080 OVC240 05/M07 A2994 RMK SC2AS5CI2 SLP162

CYQF;2012-05-17 16:00;CYQF 171600Z 36005KT 15SM BKN050 BKN080 OVC240 05/M07 A2993 RMK SC5AS2CI1 VIRGA SLP158

CYQF;2012-05-17 17:00;CYQF 171700Z 02004KT 15SM BKN050 BKN080 OVC240 06/M07 A2991 RMK SC5AS2CI1 VIRGA SLP153

CYQF;2012-05-17 18:00;CYQF 171800Z 36005KT 15SM BKN060 BKN090 BKN240 07/M08 A2989 RMK SC5AS1CI2 VIRGA SLP149

CYQF;2012-05-17 19:00;CYQF 171900Z 36003KT 15SM SCT052 BKN090 BKN240 10/M05 A2988 RMK CU3AS2CI1 SLP144

CYQF;2012-05-17 20:00;CYQF 172000Z 16004KT 15SM FEW060 BKN090 BKN240 11/M06 A2985 RMK CU2AC2CI2 SLP135

CYQF;2012-05-17 21:00;CYQF 172100Z 18010G15KT 15SM BKN060 BKN250 12/M04 A2983 RMK CU6CI1 SLP121

CYQF;2012-05-17 22:00;CYQF 172200Z 16010G15KT 15SM BKN040 BKN250 12/M03 A2982 RMK CU6CI1 SLP117

CYQF;2012-05-17 23:00;CYQF 172300Z 14010G15KT 15SM SCT040 12/M03 A2980 RMK CU4 SLP110

CYQF;2012-05-18 00:00;CYQF 180000Z 16010G15KT 15SM BKN040 BKN250 12/M02 A2980 RMK CU6CI1 SLP110

CYQF;2012-05-18 01:00;CYQF 180100Z 13010KT 15SM BKN050 BKN250 11/M01 A2979 RMK CU5CI1 TCU/SHWR SW SLP109

CYQF;2012-05-18 02:00;CYQF 180200Z 13010KT 15SM BKN046 BKN250 11/M01 A2979 RMK SC6CI1 TCU/SHWRS DIS SW-W SLP109

CYQF;2012-05-18 03:00;CYQF 180300Z 30020G25KT 15SM FEW020 BKN040 OVC100 09/02 A2982 RMK SC2SC4AC2 WND SHFT SHWRS SW-W-NW SLP120

CYQF;2012-05-18 03:23;CYQF 180323Z 31010G18KT 6SM -SHRA SCT020 BKN040 OVC100 RMK SC3SC4AC1

CYQF;2012-05-18 03:43;CYQF 180343Z 32010G21KT 5SM -SHRA FEW005 OVC020 RMK SF2SC6

CYQF;2012-05-18 04:00;CYQF 180400Z 31015G25KT 6SM -SHRA FEW005 OVC020 05/04 A2986 RMK SF2SC6 SLP133

CYQF;2012-05-18 04:46;CYQF 180446Z 36010KT 6SM -SHRA BKN005 OVC018 RMK SF5SC3

CYQF;2012-05-18 05:00;CYQF 180500Z 34010KT 6SM -SHRA SCT005 BKN018 OVC025 02/01 A2988 RMK SF3SC2SC2 VIS W-NW 3 SLP139

CYQF;2012-05-18 06:00;CYQF 180600Z 33010KT 10SM -RA FEW006 OVC030 02/01 A2989 RMK SF2SC6 SLP153

CYQF;2012-05-18 06:35;CYQF 180635Z 33007KT 15SM FEW006 OVC020 RMK SF2SC6

CYQF;2012-05-18 07:00;CYQF 180700Z 33007KT 15SM FEW006 OVC020 03/02 A2989 RMK SF2SC6 SLP152

CYQF;2012-05-18 08:00;CYQF 180800Z 34010KT 15SM SCT007 OVC020 03/02 A2989 RMK SF3SC5 SLP152

CYQF;2012-05-18 09:00;CYQF 180900Z 34007KT 15SM SCT007 OVC020 03/01 A2990 RMK SF4SC4 SLP149

CYQF;2012-05-18 09:23;CYQF 180923Z 33009KT 15SM BKN006 OVC020 RMK ST6SC2

CYQF;2012-05-18 10:00;CYQF 181000Z 33008KT 15SM OVC007 03/01 A2990 RMK ST8 SLP147

CYQF;2012-05-18 11:00;CYQF 181100Z 33007KT 15SM OVC007 03/02 A2989 RMK ST8 SLP145

CYQF;2012-05-18 12:00;CYQF 181200Z 33007KT 10SM BKN007 OVC015 03/01 A2990 RMK ST5SC3 CIG RAG SLP149

CYQF;2012-05-18 12:38;CYQF 181238Z 33008KT 12SM SCT007 OVC015 RMK SF4SC4

CYQF;2012-05-18 13:00;CYQF 181300Z 32005KT 12SM SCT007 OVC015 03/01 A2991 RMK SF3SC5 SLP152

CYQF;2012-05-18 14:00;CYQF 181400Z 33008KT 15SM SCT007 OVC023 04/01 A2992 RMK SF3SC5 SLP153

CYQF;2012-05-18 15:00;CYQF 181500Z 34007KT 15SM OVC020 03/01 A2992 RMK SC8 SLP158

CYQF;2012-05-18 15:12;CYQF 181512Z 32008KT 12SM BKN008 BKN020 RMK SC6SC2

CYQF;2012-05-18 16:00;CYQF 181600Z 34006KT 12SM OVC011 04/01 A2992 RMK SC8 CIG RAG SLP159

CYQF;2012-05-18 17:00;CYQF 181700Z 33007KT 12SM BKN015 05/01 A2993 RMK SC7 SLP162

CYQF;2012-05-18 18:00;CYQF 181800Z 35007KT 15SM SCT024 BKN240 06/01 A2992 RMK CU4CI1 SLP161

CYQF;2012-05-18 19:00;CYQF 181900Z 04008KT 15SM SCT036 BKN240 09/M00 A2991 RMK CU4CI1 SLP158

CYQF;2012-05-18 20:00;CYQF 182000Z 33005KT 15SM SCT052 BKN240 10/M03 A2990 RMK CU4CI1 SLP156

CYQF;2012-05-18 21:00;CYQF 182100Z 00000KT 15SM SCT052 SCT240 10/M03 A2990 RMK CU3CI1 SLP151

CYQF;2012-05-18 22:00;CYQF 182200Z 06003KT 15SM VCSH SCT064 SCT240 11/M05 A2990 RMK CU3CI1 TCU NW SLP150

CYQF;2012-05-18 23:00;CYQF 182300Z 32006KT 15SM VCSH BKN060TCU 10/M05 A2991 RMK TCU7 SLP154

CYQF;2012-05-19 00:00;CYQF 190000Z 18005KT 15SM VCSH FEW060TCU FEW240 09/M01 A2993 RMK TCU2CI1 SLP162

CYQF;2012-05-19 01:00;CYQF 190100Z 34005KT 15SM VCSH BKN050TCU BKN240 10/M02 A2995 RMK TCU5CI1 SLP166

CYQF;2012-05-19 02:00;CYQF 190200Z 33010G15KT 15SM VCSH BKN040TCU BKN240 07/01 A2997 RMK TCU6CI1 SLP174

CYQF;2012-05-19 03:00;CYQF 190300Z 34006KT 15SM FEW025 BKN080 BKN250 06/00 A2999 RMK CU2AC2CI1 SLP184

CYQF;2012-05-19 04:00;CYQF 190400Z 00000KT 15SM FEW025 BKN080 BKN250 06/00 A3000 RMK CU2AC3CI1 SLP187

CYQF;2012-05-19 05:00;CYQF 190500Z 26003KT 15SM FEW025 SCT080 BKN250 04/M01 A3001 RMK SC2AC2CI1 SLP190

CYQF;2012-05-19 06:00;CYQF 190600Z 24004KT 15SM FEW080 SCT250 03/M01 A3002 RMK AC2CI0 SLP195

CYQF;2012-05-19 07:00;CYQF 190700Z 26007KT 15SM FEW080 SCT250 03/00 A3002 RMK AC2CI0 SLP197

CYQF;2012-05-19 08:00;CYQF 190800Z 27006KT 15SM SCT080 03/M00 A3003 RMK AC3 SLP198

CYQF;2012-05-19 09:00;CYQF 190900Z 32006KT 15SM SCT080 03/M01 A3004 RMK AC3 SLP198

CYQF;2012-05-19 10:00;CYQF 191000Z 32008KT 15SM BKN070 03/M00 A3005 RMK AC6 SLP203

CYQF;2012-05-19 11:00;CYQF 191100Z 30006KT 15SM FEW015 BKN070 03/00 A3007 RMK SC2AC4 SLP208

CYQF;2012-05-19 12:00;CYQF 191200Z 35008KT 15SM FEW015 BKN070 02/00 A3008 RMK SC2AC4 SLP214

CYQF;2012-05-19 13:00;CYQF 191300Z 33008KT 15SM SCT015 BKN070 03/M00 A3010 RMK SC4AC2 SLP220

CYQF;2012-05-19 14:00;CYQF 191400Z 32010G15KT 15SM FEW007 FEW015 BKN070 04/M02 A3011 RMK SF1SC2AC4 SLP224

CYQF;2012-05-19 15:00;CYQF 191500Z 34010G15KT 15SM FEW015 BKN090 04/M03 A3012 RMK SC2AC4 SLP230

CYQF;2012-05-19 16:00;CYQF 191600Z 30010G15KT 15SM SCT030 BKN090 06/M03 A3012 RMK CU3AC3 SLP230

CYQF;2012-05-19 17:00;CYQF 191700Z 34010G15KT 15SM FEW040 SCT090 BKN240 07/M03 A3012 RMK CU2AC2CI2 SLP228

CYQF;2012-05-19 18:00;CYQF 191800Z 31008KT 15SM FEW040 BKN240 09/M04 A3011 RMK CU1CI1 SLP224

CYQF;2012-05-19 19:00;CYQF 191900Z 35005KT 15SM FEW040 BKN240 09/M05 A3009 RMK CU1CI1 SLP219

CYQF;2012-05-19 20:00;CYQF 192000Z 31015G20KT 15SM FEW055 SCT240 10/M04 A3008 RMK CU2CI1 SLP215

CYQF;2012-05-19 21:00;CYQF 192100Z 35010KT 15SM SCT060 BKN240 13/M02 A3007 RMK CU3CI0 SLP207

CYQF;2012-05-19 22:00;CYQF 192200Z 33010KT 15SM SCT060 12/M04 A3007 RMK CU3 SLP205

CYQF;2012-05-19 23:00;CYQF 192300Z 32006KT 15SM SCT060 12/M05 A3006 RMK CU3 SLP202

CYQF;2012-05-20 00:00;CYQF 200000Z 34004KT 15SM SCT060 12/M05 A3006 RMK CU3 SLP203

CYQF;2012-05-20 01:00;CYQF 200100Z 02005KT 15SM SCT060 12/M05 A3006 RMK SC3 SLP203

CYQF;2012-05-20 02:00;CYQF 200200Z 00000KT 15SM FEW080 13/M05 A3005 RMK AC2 SLP202

CYQF;2012-05-20 03:00;CYQF 200300Z 00000KT 15SM FEW080 FEW250 12/M03 A3005 RMK AC2CI0 SLP200

CYQF;2012-05-20 04:00;CYQF 200400Z 10004KT 15SM FEW080 FEW250 10/M03 A3006 RMK AC2CI0 SLP203

CYQF;2012-05-20 05:00;CYQF 200500Z 09007KT 15SM FEW080 SCT250 07/M03 A3007 RMK AC2CI0 SLP205

CYQF;2012-05-20 06:00;CYQF 200600Z 00000KT 15SM FEW080 SCT250 06/M03 A3007 RMK AC2CI0 SLP209

CYQF;2012-05-20 07:00;CYQF 200700Z 00000KT 15SM SKC 05/M04 A3007 RMK SLP209

CYQF;2012-05-20 08:00;CYQF 200800Z 16004KT 15SM FEW080 04/M03 A3007 RMK AC1 SLP208

CYQF;2012-05-20 09:00;CYQF 200900Z 00000KT 15SM SKC 04/M03 A3006 RMK SLP203

CYQF;2012-05-20 10:00;CYQF 201000Z 16002KT 15SM FEW080 FEW250 04/M02 A3006 RMK AC1CI1 SLP201

CYQF;2012-05-20 11:00;CYQF 201100Z 00000KT 15SM FEW080 SCT250 01/M04 A3005 RMK AC1CI2 SLP199

CYQF;2012-05-20 12:00;CYQF 201200Z 00000KT 15SM FEW120 BKN250 02/M03 A3005 RMK AC1CI2 SLP201

CYQF;2012-05-20 13:00;CYQF 201300Z 17003KT 15SM FEW120 BKN250 04/M01 A3005 RMK AC1CI2 SLP201

CYQF;2012-05-20 14:00;CYQF 201400Z 23003KT 15SM BKN250 06/M00 A3005 RMK CI2 SLP203

CYQF;2012-05-20 15:00;CYQF 201500Z 33003KT 15SM FEW250 09/00 A3005 RMK CI0 SLP193

CYQF;2012-05-20 16:00;CYQF 201600Z 36003KT 15SM FEW040 FEW250 11/01 A3005 RMK CU1CI0 SLP193

CYQF;2012-05-20 17:00;CYQF 201700Z 36003KT 15SM FEW040 14/02 A3004 RMK CU1 SLP190

CYQF;2012-05-20 18:00;CYQF 201800Z 00000KT 15SM FEW060 15/M02 A3003 RMK CU1 SLP187

CYQF;2012-05-20 19:00;CYQF 201900Z 36007KT 15SM FEW060 16/M03 A3002 RMK CU2 SLP183

CYQF;2012-05-20 20:00;CYQF 202000Z 02002KT 15SM FEW060 SCT240 17/M04 A3000 RMK CU2CI0 SLP178

CYQF;2012-05-20 21:00;CYQF 202100Z 29007KT 15SM FEW080 BKN270 18/M02 A2999 RMK CU2CI1 SLP170

CYQF;2012-05-20 22:00;CYQF 202200Z 33002KT 15SM FEW085 BKN270 18/M03 A2997 RMK CU2CI2 SLP164

CYQF;2012-05-20 23:00;CYQF 202300Z 05004KT 15SM FEW080 BKN270 19/M02 A2995 RMK CU2CI2 SLP159

CYQF;2012-05-21 00:00;CYQF 210000Z 07008KT 15SM FEW090 BKN270 19/M04 A2994 RMK CU2CI2 SLP157

CYQF;2012-05-21 01:00;CYQF 210100Z 20004KT 15SM FEW080 BKN270 18/M03 A2993 RMK AC2CI3 SLP154

CYQF;2012-05-21 02:00;CYQF 210200Z 08005KT 15SM FEW080 BKN270 16/M01 A2993 RMK AC2CI4 SLP152

CYQF;2012-05-21 03:00;CYQF 210300Z 08007KT 15SM FEW080 BKN270 15/M02 A2992 RMK AC2CI4 SLP147

CYQF;2012-05-21 04:00;CYQF 210400Z 09005KT 15SM FEW080 BKN270 12/M02 A2993 RMK AC1CI2 SLP149

CYQF;2012-05-21 05:00;CYQF 210500Z 09004KT 15SM FEW080 SCT270 11/M03 A2993 RMK AC1CI2 SLP148

CYQF;2012-05-21 06:00;CYQF 210600Z 18002KT 15SM SCT270 09/M03 A2992 RMK CI2 SLP145

CYQF;2012-05-21 07:00;CYQF 210700Z 16008KT 15SM FEW250 10/M02 A2991 RMK CI1 SLP142

CYQF;2012-05-21 08:00;CYQF 210800Z 17007KT 15SM SCT250 09/M01 A2990 RMK CI2 SLP139

CYQF;2012-05-21 09:00;CYQF 210900Z 18004KT 15SM SCT100 BKN250 08/00 A2990 RMK AC4CI2 SLP134

CYQF;2012-05-21 10:00;CYQF 211000Z 00000KT 15SM SCT100 BKN250 09/00 A2990 RMK AC4CI2 SLP134

CYQF;2012-05-21 11:00;CYQF 211100Z 20005KT 15SM FEW100 BKN250 07/00 A2988 RMK AC2CI2 SLP130

CYQF;2012-05-21 12:00;CYQF 211200Z 00000KT 15SM FEW100 SCT250 05/M01 A2988 RMK AC2CI1 SLP132

CYQF;2012-05-21 13:00;CYQF 211300Z 00000KT 15SM FEW100 BKN250 08/M02 A2988 RMK AC1CI2 SLP132

CYQF;2012-05-21 14:00;CYQF 211400Z 00000KT 15SM FEW100 SCT250 10/02 A2988 RMK AC2CC2 SLP133

CYQF;2012-05-21 15:00;CYQF 211500Z 15003KT 15SM FEW100 SCT250 14/03 A2987 RMK AC2CC2 SLP122

CYQF;2012-05-21 16:00;CYQF 211600Z 00000KT 15SM SCT100 BKN250 17/02 A2986 RMK AC3CI1 SLP119

CYQF;2012-05-21 17:00;CYQF 211700Z 09005KT 15SM BKN100 BKN250 18/02 A2984 RMK AC5CI2 SLP113

CYQF;2012-05-21 18:00;CYQF 211800Z 15012KT 15SM FEW100 OVC250 19/01 A2983 RMK AC2CS4 SLP109

CYQF;2012-05-21 19:00;CYQF 211900Z 12008KT 15SM FEW070 OVC250 20/02 A2981 RMK CU2CI4 SLP103

CYQF;2012-05-21 20:00;CYQF 212000Z 16004KT 15SM FEW070 BKN120 OVC250 20/03 A2979 RMK CU2AC3CI2 SLP096

CYQF;2012-05-21 21:00;CYQF 212100Z 12004KT 15SM BKN070 BKN120 BKN250 21/03 A2976 RMK CU5AC2CI1 SLP086

CYQF;2012-05-21 22:00;CYQF 212200Z 14007KT 15SM BKN070 BKN120 BKN250 20/02 A2974 RMK CU6AC1CI1 SLP079

CYQF;2012-05-21 23:00;CYQF 212300Z 18011KT 15SM BKN065 OVC120 20/03 A2973 RMK CU6AC2 SLP076

CYQF;2012-05-22 00:00;CYQF 220000Z 14007KT 15SM BKN065 BKN120 19/03 A2971 RMK CU5AC2 SLP073

CYQF;2012-05-22 01:00;CYQF 220100Z 17007KT 15SM SCT065 BKN100 BKN250 20/03 A2969 RMK CU3AC2CI1 SLP065

CYQF;2012-05-22 02:00;CYQF 220200Z 17006KT 15SM FEW060 BKN100 BKN250 20/03 A2967 RMK SC1AC5CI1 SLP060

CYQF;2012-05-22 03:00;CYQF 220300Z 12003KT 15SM FEW060 BKN100 18/04 A2966 RMK SC2AC3 SLP046

CYQF;2012-05-22 04:00;CYQF 220400Z 09008KT 15SM BKN090 BKN250 16/04 A2964 RMK AC6CI1 SLP041

CYQF;2012-05-22 05:00;CYQF 220500Z 09007KT 15SM BKN060 BKN250 16/05 A2963 RMK SC6CI1 SLP036

CYQF;2012-05-22 06:00;CYQF 220600Z 12012KT 15SM BKN060 BKN250 16/05 A2960 RMK SC5CI1 SLP022

CYQF;2012-05-22 07:00;CYQF 220700Z 13008KT 15SM SCT060 SCT250 14/05 A2957 RMK SC3CI0 SLP014

CYQF;2012-05-22 08:00;CYQF 220800Z 16002KT 15SM FEW060 BKN250 13/05 A2956 RMK SC2CI1 SLP010

CYQF;2012-05-22 09:00;CYQF 220900Z 15008KT 15SM SCT100 BKN250 13/06 A2954 RMK AC3CI1 SLP004

CYQF;2012-05-22 10:00;CYQF 221000Z 06003KT 15SM BKN100 BKN250 12/06 A2953 RMK AC6CI1 SLP000

CYQF;2012-05-22 11:00;CYQF 221100Z 05004KT 15SM BKN090 OVC120 11/06 A2950 RMK AC6AC2 SLP991

CYQF;2012-05-22 12:00;CYQF 221200Z 05006KT 15SM BKN080 OVC120 10/06 A2948 RMK AC5AC3 SLP988

CYQF;2012-05-22 13:00;CYQF 221300Z 00000KT 15SM BKN080 OVC240 11/07 A2948 RMK AC5CI3 SLP986

CYQF;2012-05-22 14:00;CYQF 221400Z 03003KT 15SM BKN080 OVC240 11/07 A2947 RMK AC6CI2 SLP985

CYQF;2012-05-22 14:32;CYQF 221432Z 00000KT 15SM -RA BKN080 OVC120 RMK AC6AC2

CYQF;2012-05-22 15:00;CYQF 221500Z 28005KT 12SM -RA FEW030 OVC080 11/08 A2949 RMK SC1AC7 SLP990

CYQF;2012-05-22 15:38;CYQF 221538Z 28005KT 12SM -RA BKN013 OVC080 RMK SC5AC3

CYQF;2012-05-22 16:00;CYQF 221600Z 28006KT 15SM -RA BKN013 OVC080 11/09 A2950 RMK SC6AC2 SLP993

CYQF;2012-05-22 17:00;CYQF 221700Z 29009KT 8SM -RA BKN012 OVC080 11/09 A2951 RMK SC6AC2 SLP996

CYQF;2012-05-22 18:00;CYQF 221800Z 30009KT 8SM -RA BKN012 OVC080 12/09 A2950 RMK SC6AC2 SLP996

CYQF;2012-05-22 18:47;CYQF 221847Z 32014G23KT 15SM SCT016 BKN100 BKN250 RMK CU3AC2CI1

CYQF;2012-05-22 19:00;CYQF 221900Z 33015G25KT 15SM SCT020 BKN080 BKN250 13/08 A2949 RMK CU3AC2CI2 SLP992

CYQF;2012-05-22 20:00;CYQF 222000Z 32015G25KT 15SM SCT032TCU BKN120 BKN250 16/08 A2949 RMK TCU3AC3CI1 SLP994

CYQF;2012-05-22 21:00;CYQF 222100Z 32015G22KT 15SM BKN035TCU BKN120 16/07 A2949 RMK TCU6AC2 SLP993

CYQF;2012-05-22 22:00;CYQF 222200Z 34015G25KT 15SM SCT035TCU BKN250 16/07 A2949 RMK TCU4CI2 SLP992

CYQF;2012-05-22 23:00;CYQF 222300Z 34014G24KT 15SM SCT040TCU BKN250 16/06 A2949 RMK TCU4CI2 SLP992

CYQF;2012-05-23 00:00;CYQF 230000Z 34015G25KT 15SM FEW040 BKN250 15/05 A2949 RMK CU2CI2 SLP995

CYQF;2012-05-23 01:00;CYQF 230100Z 33015G25KT 15SM FEW040 BKN250 14/04 A2951 RMK CU2CI2 SLP000

CYQF;2012-05-23 02:00;CYQF 230200Z 33018G28KT 15SM SCT040 BKN250 13/04 A2952 RMK SC3CI2 SLP005

CYQF;2012-05-23 03:00;CYQF 230300Z 33013G18KT 15SM FEW040 SCT100 BKN250 12/04 A2953 RMK SC2AC2CI2 SLP012

CYQF;2012-05-23 04:00;CYQF 230400Z 33010G15KT 15SM FEW040 SCT100 BKN250 11/03 A2954 RMK SC1AC2CI2 SLP015

CYQF;2012-05-23 05:00;CYQF 230500Z 31008KT 15SM FEW040 SCT100 BKN250 10/04 A2955 RMK SC2AC2CI2 SLP017

CYQF;2012-05-23 06:00;CYQF 230600Z 32010KT 15SM FEW040 SCT100 BKN250 10/04 A2956 RMK SC2AC2CI2 SLP022

CYQF;2012-05-23 07:00;CYQF 230700Z 31012KT 15SM SCT040 BKN100 09/04 A2955 RMK SC3AC4 SLP020

CYQF;2012-05-23 08:00;CYQF 230800Z 29008KT 15SM SCT090 08/05 A2955 RMK AC3 SLP020

CYQF;2012-05-23 09:00;CYQF 230900Z CCA 27012KT 15SM SCT090 07/05 A2954 RMK AC3 SLP016

CYQF;2012-05-23 10:00;CYQF 231000Z 29010KT 15SM FEW090 SCT250 07/05 A2954 RMK AC2CI0 SLP016

CYQF;2012-05-23 11:00;CYQF 231100Z 30008KT 15SM FEW015 SCT090 BKN250 07/05 A2954 RMK SC2AC1CI1 SLP016

CYQF;2012-05-23 12:00;CYQF 231200Z 30012KT 15SM FEW015 BKN090 BKN250 08/05 A2954 RMK SC2AC3CI1 SLP016

CYQF;2012-05-23 13:00;CYQF 231300Z 32015G20KT 15SM SCT015 BKN090 OVC250 08/04 A2955 RMK SC3AC3CI1 SLP018

CYQF;2012-05-23 13:03;CYQF 231303Z 31012G20KT 15SM -RA SCT015 BKN090 OVC250 RMK SC3AC3CI2

CYQF;2012-05-23 13:30;CYQF 231330Z 32015G25KT 15SM -RA BKN011 OVC090 RMK SC6AC2

CYQF;2012-05-23 14:00;CYQF 231400Z 34015G25KT 15SM -RA BKN012 OVC090 07/05 A2956 RMK SC6AC2 SLP022

CYQF;2012-05-23 15:00;CYQF 231500Z 31015G25KT 15SM -RA BKN009 OVC090 08/05 A2956 RMK SC7AC1 SLP026

CYQF;2012-05-23 16:00;CYQF 231600Z 35015G20KT 10SM -RA OVC014 06/05 A2957 RMK SC8 CIG RAG SLP028

CYQF;2012-05-23 16:41;CYQF 231641Z 34015G25KT 8SM -RA BKN006 OVC020 RMK SF6SC2 VIS N 4

CYQF;2012-05-23 17:00;CYQF 231700Z 34013G23KT 8SM -RA BKN006 OVC020 06/04 A2958 RMK SF6SC2 CIG RAG SLP033

CYQF;2012-05-23 18:00;CYQF 231800Z 33015G22KT 8SM -RA BKN006 OVC020 06/04 A2960 RMK SF6SC2 SLP043

CYQF;2012-05-23 18:48;CYQF 231848Z 34012G22KT 8SM -RA BKN011 OVC020 RMK SF6SC2 CIG RAG

CYQF;2012-05-23 19:00;CYQF 231900Z 35013G23KT 8SM -RA BKN011 OVC020 06/04 A2962 RMK SF6SC2 SLP048

CYQF;2012-05-23 20:00;CYQF 232000Z 33015G22KT 8SM -RA BKN012 OVC020 05/04 A2964 RMK SF6SC2 CIG RAG SLP055

CYQF;2012-05-23 21:00;CYQF 232100Z 33015G25KT 8SM -RA OVC010 05/03 A2966 RMK SF8 CIG RAG SLP069

CYQF;2012-05-23 22:00;CYQF 232200Z 35012G18KT 8SM -RA OVC010 05/03 A2968 RMK SF8 SLP074

CYQF;2012-05-23 23:00;CYQF 232300Z 33010G15KT 8SM -RA BKN010 OVC020 06/04 A2969 RMK SF6SC2 SLP079

CYQF;2012-05-24 00:00;CYQF 240000Z 33010G15KT 8SM -RA BKN011 OVC020 06/04 A2971 RMK SF6SC2 CIG RAG SLP084

CYQF;2012-05-24 01:00;CYQF 240100Z 36010G15KT 6SM -RA BKN012 OVC020 05/03 A2973 RMK SF6SC2 CIG RAG SLP090

CYQF;2012-05-24 02:00;CYQF 240200Z 36010G15KT 8SM -RA SCT012 OVC020 05/03 A2974 RMK SF4SC4 SLP094

CYQF;2012-05-24 03:00;CYQF 240300Z 36007KT 10SM -RA SCT007 OVC015 05/03 A2976 RMK SF4SC4 SLP102

CYQF;2012-05-24 04:00;CYQF 240400Z 36007KT 10SM -RA BKN007 OVC015 04/02 A2978 RMK SF5SC3 CIG RAG SLP110

CYQF;2012-05-24 05:00;CYQF 240500Z 03013KT 10SM -RA BKN007 OVC022 04/02 A2980 RMK SF5SC3 CIG RAG SLP115

CYQF;2012-05-24 06:00;CYQF 240600Z 36003KT 10SM -RA SCT007 OVC022 04/02 A2981 RMK SF3SC5 SLP121

CYQF;2012-05-24 07:00;CYQF 240700Z 33004KT 10SM -RA FEW007 OVC020 04/02 A2982 RMK SF2SC6 CIG RAG SLP124

CYQF;2012-05-24 08:00;CYQF 240800Z 33004KT 10SM -RA FEW007 OVC020 04/02 A2982 RMK SF2SC6 SLP126

CYQF;2012-05-24 09:00;CYQF 240900Z 35005KT 15SM -RA FEW006 OVC020 04/02 A2982 RMK SF2SC6 SLP128

CYQF;2012-05-24 10:00;CYQF 241000Z 36008KT 15SM -RA FEW006 OVC020 03/02 A2983 RMK SF2SC6 SLP130

CYQF;2012-05-24 11:00;CYQF 241100Z 34004KT 10SM -RA FEW006 OVC020 03/02 A2984 RMK SF2SC6 SLP132

CYQF;2012-05-24 12:00;CYQF 241200Z 02008KT 10SM -RA FEW006 OVC020 03/02 A2985 RMK SF2SC6 SLP137

CYQF;2012-05-24 13:00;CYQF 241300Z 08003KT 8SM -RA FEW006 OVC020 03/01 A2986 RMK SF2SC6 SLP141

CYQF;2012-05-24 14:00;CYQF 241400Z 18005KT 12SM FEW008 OVC100 03/02 A2987 RMK SF2AS6 SLP144

CYQF;2012-05-24 15:00;CYQF 241500Z 25008KT 12SM FEW008 SCT040 OVC100 04/03 A2987 RMK SF2SC2AS5 SLP146

CYQF;2012-05-24 15:31;CYQF 241531Z 28006KT 15SM BKN008 OVC040 RMK SF6SC2

CYQF;2012-05-24 16:00;CYQF 241600Z 28010KT 15SM BKN008 OVC040 05/03 A2989 RMK SC6SC2 SLP152

CYQF;2012-05-24 16:31;CYQF 241631Z 30010KT 15SM BKN011 OVC040 RMK SC6SC2

CYQF;2012-05-24 17:00;CYQF 241700Z 30010KT 15SM BKN011 OVC040 06/03 A2990 RMK SC6SC2 SLP155

CYQF;2012-05-24 18:00;CYQF 241800Z 35006KT 15SM BKN015 OVC040 08/03 A2991 RMK SC6SC2 SLP155

CYQF;2012-05-24 19:00;CYQF 241900Z 32010KT 15SM BKN024 OVC050 09/03 A2991 RMK CU6SC2 SLP154

CYQF;2012-05-24 20:00;CYQF 242000Z 33008KT 15SM VCSH BKN028 OVC050 09/02 A2991 RMK CU6SC2 SLP155

CYQF;2012-05-24 21:00;CYQF 242100Z 32007KT 15SM BKN036 OVC230 10/01 A2991 RMK CU5CS2 HALO SLP154

CYQF;2012-05-24 21:43;CYQF 242143Z CCA 04013KT 15SM -SHRA BKN030 OVC230 RMK CU6CS2 TCU ASOCTD

CYQF;2012-05-24 21:44;CYQF 242144Z 04013KT 15SM -SHRA BKN030 OVC230 RMK CU6CS2

CYQF;2012-05-24 22:00;CYQF 242200Z 05012KT 15SM -SHRA BKN030 OVC230 08/03 A2992 RMK CU5CS3 TCU ASOCTD SLP157

CYQF;2012-05-24 22:10;CYQF 242210Z 05005KT 15SM VCSH BKN030 BKN230 RMK CU5CS2 TCU ASOCTD

CYQF;2012-05-24 23:00;CYQF 242300Z 02008KT 15SM BKN040 BKN230 11/01 A2992 RMK CU5CI2 TCU ASOCTD VIRGA SLP157

CYQF;2012-05-25 00:00;CYQF 250000Z 36006KT 15SM BKN040 OVC230 11/00 A2994 RMK CU5CI2 SLP162

CYQF;2012-05-25 01:00;CYQF 250100Z 03008KT 15SM VCSH BKN040 OVC230 11/00 A2994 RMK CU5CI2 SLP164

CYQF;2012-05-25 02:00;CYQF 250200Z 03007KT 15SM FEW040 OVC230 11/00 A2996 RMK CU2CI2 SLP169

CYQF;2012-05-25 03:00;CYQF 250300Z 04006KT 15SM FEW040 BKN230 09/M01 A2998 RMK SC2CI2 SLP176

CYQF;2012-05-25 04:00;CYQF 250400Z 01003KT 15SM FEW040 FEW230 08/00 A3000 RMK SC1CI1 SLP182

CYQF;2012-05-25 05:00;CYQF 250500Z 00000KT 15SM FEW040 FEW250 06/01 A3002 RMK SC1CI1 SLP188

CYQF;2012-05-25 06:00;CYQF 250600Z 33003KT 15SM BKN250 05/00 A3003 RMK CI1 SLP196

CYQF;2012-05-25 07:00;CYQF 250700Z 00000KT 15SM FEW250 03/00 A3004 RMK CI1 SLP199

CYQF;2012-05-25 08:00;CYQF 250800Z 00000KT 15SM BKN250 02/00 A3005 RMK CI2 SLP203

CYQF;2012-05-25 09:00;CYQF 250900Z 00000KT 15SM OVC250 01/M00 A3007 RMK CI5 SLP210

CYQF;2012-05-25 10:00;CYQF 251000Z 00000KT 15SM FEW080 BKN250 01/M00 A3007 RMK AC2CI1 SLP212

CYQF;2012-05-25 11:00;CYQF 251100Z 21004KT 15SM SCT075 BKN250 01/M01 A3008 RMK AC4CI0 ACC ASOCTD SLP214

CYQF;2012-05-25 12:00;CYQF 251200Z 19002KT 15SM BKN075 BKN250 01/M00 A3009 RMK AC5CI1 ACC ASOCTD VIRGA SLP219

CYQF;2012-05-25 13:00;CYQF 251300Z 21002KT 15SM BKN080 BKN250 02/01 A3010 RMK AC6CI1 ACC ASOCTD VIRGA SLP222

CYQF;2012-05-25 14:00;CYQF 251400Z 00000KT 15SM BKN070 BKN250 04/02 A3011 RMK AC6CI1 VIRGA SLP223

CYQF;2012-05-25 15:00;CYQF 251500Z 33003KT 15SM FEW070 FEW250 08/03 A3011 RMK AC2CI1 ACC SLP219

CYQF;2012-05-25 16:00;CYQF 251600Z 35012KT 15SM FEW050 FEW250 11/00 A3011 RMK CU1CI1 SLP219

CYQF;2012-05-25 17:00;CYQF 251700Z 02008KT 15SM FEW050 SCT100 BKN250 12/01 A3011 RMK CU2AC2CI2 SLP219

CYQF;2012-05-25 18:00;CYQF 251800Z 06010KT 15SM VCSH BKN060 13/M03 A3010 RMK CU7 TCU ASOCTD SLP215

CYQF;2012-05-25 19:00;CYQF 251900Z 03004KT 15SM VCSH OVC065TCU 13/M04 A3011 RMK TCU8 SLP216

CYQF;2012-05-25 20:00;CYQF 252000Z 02010G15KT 15SM VCSH BKN065TCU BKN120 BKN250 14/M03 A3010 RMK TCU6AC1CI1 SLP215

CYQF;2012-05-25 21:00;CYQF 252100Z 03004KT 15SM VCSH BKN065TCU BKN250 14/M01 A3010 RMK TCU6CI1 SLP216

CYQF;2012-05-25 22:00;CYQF 252200Z 35007KT 15SM VCSH BKN060TCU BKN250 15/M01 A3008 RMK TCU5CI2 SLP212

CYQF;2012-05-25 23:00;CYQF 252300Z 03005KT 15SM VCSH BKN060TCU BKN250 14/M01 A3008 RMK TCU5CI2 SLP212

CYQF;2012-05-25 23:26;CYQF 252326Z 05007KT 15SM -SHRA BKN060TCU RMK TCU6

CYQF;2012-05-26 00:00;CYQF 260000Z 00000KT 15SM VCSH BKN050TCU 13/01 A3008 RMK TCU6 SLP212

CYQF;2012-05-26 01:00;CYQF 260100Z 10006KT 15SM SCT044TCU 12/01 A3008 RMK TCU3 VIRGA SLP212

CYQF;2012-05-26 02:00;CYQF 260200Z 15005KT 15SM SCT060 14/M01 A3008 RMK CU3 VIRGA SLP212

CYQF;2012-05-26 03:00;CYQF 260300Z 12005KT 15SM FEW060 12/M01 A3009 RMK SC2 SLP207

CYQF;2012-05-26 04:00;CYQF 260400Z 17003KT 15SM FEW100 09/M00 A3009 RMK AC1 SLP208

CYQF;2012-05-26 05:00;CYQF 260500Z 00000KT 15SM FEW100 07/01 A3010 RMK AC1 SLP210

CYQF;2012-05-26 06:00;CYQF 260600Z 00000KT 15SM SKC 06/00 A3010 RMK SLP212

CYQF;2012-05-26 07:00;CYQF 260700Z 23003KT 15SM SKC 02/M01 A3010 RMK SLP212

CYQF;2012-05-26 08:00;CYQF 260800Z 18006KT 15SM FEW100 02/M00 A3010 RMK AC2 SLP212

CYQF;2012-05-26 09:00;CYQF 260900Z 17008KT 15SM SCT250 01/M01 A3009 RMK CI0 SLP215

CYQF;2012-05-26 10:00;CYQF 261000Z 00000KT 15SM SKC 01/M01 A3009 RMK FROIN SLP214

CYQF;2012-05-26 11:00;CYQF 261100Z 20004KT 15SM SKC M01/M03 A3009 RMK FROIN SLP214

CYQF;2012-05-26 12:00;CYQF 261200Z 21004KT 15SM FEW250 00/M01 A3009 RMK CI1 FROIN SLP216

CYQF;2012-05-26 13:00;CYQF 261300Z 21003KT 15SM FEW250 02/00 A3010 RMK CI1 SLP219

CYQF;2012-05-26 14:00;CYQF 261400Z 19003KT 15SM SKC 05/02 A3010 RMK SLP218

CYQF;2012-05-26 15:00;CYQF 261500Z 22002KT 15SM FEW250 08/03 A3009 RMK CI1 SLP210

CYQF;2012-05-26 16:00;CYQF 261600Z 17005KT 15SM FEW036 11/03 A3009 RMK CU1 SLP208

CYQF;2012-05-26 17:00;CYQF 261700Z 19005KT 15SM FEW048 13/01 A3007 RMK CU2 SLP204

CYQF;2012-05-26 18:00;CYQF 261800Z 00000KT 15SM BKN060 15/00 A3006 RMK CU6 SLP197

CYQF;2012-05-26 19:00;CYQF 261900Z 15008KT 15SM BKN068 14/M02 A3005 RMK CU6 SLP195

CYQF;2012-05-26 20:00;CYQF 262000Z 16004KT 15SM BKN070 16/M02 A3004 RMK CU6 SLP189

CYQF;2012-05-26 21:00;CYQF 262100Z 15008KT 15SM BKN070 16/M02 A3003 RMK CU6 SLP189

CYQF;2012-05-26 22:00;CYQF 262200Z 14013KT 15SM BKN070 15/M03 A3002 RMK CU6 SLP186

CYQF;2012-05-26 23:00;CYQF 262300Z 16010G15KT 15SM BKN070 16/M02 A3001 RMK CU6 SLP183

CYQF;2012-05-27 00:00;CYQF 270000Z 13010G15KT 15SM BKN070 16/M02 A2999 RMK CU5 SLP179

CYQF;2012-05-27 01:00;CYQF 270100Z 14010G15KT 15SM SCT070 15/M03 A2999 RMK CU3 SLP178

CYQF;2012-05-27 02:00;CYQF 270200Z 14013G20KT 15SM FEW070 15/M03 A3000 RMK CU2 SLP181

CYQF;2012-05-27 03:00;CYQF 270300Z 12010KT 15SM FEW070 13/M02 A3000 RMK AC1 SLP175

CYQF;2012-05-27 04:00;CYQF 270400Z 13007KT 15SM SKC 11/M02 A3000 RMK SLP176

CYQF;2012-05-27 05:00;CYQF 270500Z 14005KT 15SM SKC 08/M02 A2999 RMK SLP174

CYQF;2012-05-27 06:00;CYQF 270600Z 15004KT 15SM SKC 06/M02 A2999 RMK SLP172

CYQF;2012-05-27 07:00;CYQF 270700Z 19002KT 15SM SKC 04/M03 A2997 RMK SLP167

CYQF;2012-05-27 08:00;CYQF 270800Z 16002KT 15SM SKC 04/M03 A2997 RMK SLP166

CYQF;2012-05-27 09:00;CYQF 270900Z 18003KT 15SM SKC 03/M03 A2995 RMK SLP163

CYQF;2012-05-27 10:00;CYQF 271000Z 17002KT 15SM SKC 03/M03 A2996 RMK SLP166

CYQF;2012-05-27 11:00;CYQF 271100Z 17005KT 15SM FEW250 03/M03 A2997 RMK CI1 SLP167

CYQF;2012-05-27 12:00;CYQF 271200Z 00000KT 15SM FEW100 BKN250 02/M02 A2996 RMK AC1CI2 SLP167

CYQF;2012-05-27 13:00;CYQF 271300Z 15003KT 15SM FEW100 BKN250 02/M01 A2997 RMK AC1CI2 SLP168

CYQF;2012-05-27 14:00;CYQF 271400Z 18002KT 15SM BKN250 05/01 A2996 RMK CI4 SLP166

CYQF;2012-05-27 15:00;CYQF 271500Z 16007KT 15SM BKN250 08/03 A2996 RMK CI6 SLP162

CYQF;2012-05-27 16:00;CYQF 271600Z 15008KT 15SM FEW040 BKN250 10/02 A2996 RMK CU1CI5 SLP161

CYQF;2012-05-27 17:00;CYQF 271700Z 14007KT 15SM FEW044 SCT250 11/00 A2995 RMK CU1CI2 SLP160

CYQF;2012-05-27 18:00;CYQF 271800Z 13008KT 15SM FEW050 FEW250 12/M01 A2995 RMK CU1CI1 SLP162

CYQF;2012-05-27 19:00;CYQF 271900Z 12002KT 15SM FEW052 FEW250 13/M00 A2995 RMK CU1CI1 SLP161

CYQF;2012-05-27 20:00;CYQF 272000Z 10008KT 15SM FEW056 BKN250 14/M01 A2994 RMK CU1CI2 SLP159

CYQF;2012-05-27 21:00;CYQF 272100Z 10008KT 15SM FEW058 BKN250 14/M00 A2993 RMK CU1CI2 SLP157

CYQF;2012-05-27 22:00;CYQF 272200Z 07005KT 15SM FEW060 BKN250 14/M01 A2992 RMK CU2CI2 SLP154

CYQF;2012-05-27 23:00;CYQF 272300Z 07010KT 15SM FEW060 BKN250 15/00 A2992 RMK CU1CI2 SLP153

CYQF;2012-05-28 00:00;CYQF 280000Z 09008KT 15SM FEW060 BKN250 15/M02 A2992 RMK CU1CI2 SLP151

CYQF;2012-05-28 01:00;CYQF 280100Z 08008KT 15SM FEW060 BKN250 15/M02 A2992 RMK CU2CI2 SLP151

CYQF;2012-05-28 02:00;CYQF 280200Z 12006KT 15SM FEW060 BKN250 15/M02 A2992 RMK SC1CI2 SLP153

CYQF;2012-05-28 03:00;CYQF 280300Z 14005KT 15SM FEW060 BKN250 14/M02 A2993 RMK SC1CI1 SLP149

CYQF;2012-05-28 04:00;CYQF 280400Z 13004KT 15SM SCT250 11/M01 A2993 RMK CI1 SLP149

CYQF;2012-05-28 05:00;CYQF 280500Z 15006KT 15SM FEW250 09/M03 A2993 RMK CI1 SLP151

CYQF;2012-05-28 06:00;CYQF 280600Z 18005KT 15SM FEW250 07/M03 A2993 RMK CI1 SLP155

CYQF;2012-05-28 07:00;CYQF 280700Z 13005KT 15SM FEW250 06/M00 A2993 RMK CI0 SLP155

CYQF;2012-05-28 08:00;CYQF 280800Z 16008KT 15SM SCT250 05/01 A2994 RMK CI1 SLP156

CYQF;2012-05-28 09:00;CYQF 280900Z 17008KT 15SM SCT250 05/02 A2994 RMK CI2 SLP157

CYQF;2012-05-28 10:00;CYQF 281000Z 16012KT 15SM SCT250 04/01 A2995 RMK CI2 SLP159

CYQF;2012-05-28 11:00;CYQF 281100Z 18010KT 15SM BKN250 04/02 A2995 RMK CI2 SLP161

CYQF;2012-05-28 12:00;CYQF 281200Z 20005KT 15SM FEW120 BKN250 04/01 A2996 RMK AC2CI2 SLP163

CYQF;2012-05-28 13:00;CYQF 281300Z 19005KT 15SM FEW120 BKN250 05/01 A2996 RMK AC2CI2 SLP165

CYQF;2012-05-28 14:00;CYQF 281400Z 19007KT 15SM BKN250 06/01 A2996 RMK CI4 SLP164

CYQF;2012-05-28 15:00;CYQF 281500Z 19008KT 15SM FEW100 BKN250 08/02 A2997 RMK AC1CI4 SLP165

CYQF;2012-05-28 16:00;CYQF 281600Z 18010G15KT 15SM BKN250 11/02 A2997 RMK CI4 SLP166

CYQF;2012-05-28 17:00;CYQF 281700Z 18010G15KT 15SM BKN250 14/M00 A2997 RMK CI4 SLP164

CYQF;2012-05-28 18:00;CYQF 281800Z 17010G15KT 15SM FEW060 BKN260 14/M01 A2997 RMK CU2CI1 SLP165

CYQF;2012-05-28 19:00;CYQF 281900Z 19012G17KT 15SM SCT060 BKN260 15/M00 A2996 RMK CU3CI2 SLP164

CYQF;2012-05-28 20:00;CYQF 282000Z 15008KT 15SM FEW060 BKN260 15/M01 A2996 RMK CU2CI1 SLP163

CYQF;2012-05-28 21:00;CYQF 282100Z 16010KT 15SM SCT060 BKN260 15/M01 A2996 RMK CU3CI1 SLP163

CYQF;2012-05-28 22:00;CYQF 282200Z 15010G15KT 15SM SCT060 BKN260 17/M00 A2995 RMK CU3CI1 SLP161

CYQF;2012-05-28 23:00;CYQF 282300Z 13012G22KT 15SM FEW060 BKN260 17/00 A2995 RMK CU2CI2 SLP160

CYQF;2012-05-29 00:00;CYQF 290000Z 14010G15KT 15SM FEW060 SCT260 17/01 A2995 RMK CU1CI1 SLP158

CYQF;2012-05-29 01:00;CYQF 290100Z 12012KT 15SM FEW060 BKN260 16/M01 A2995 RMK CU1CI2 SLP157

CYQF;2012-05-29 02:00;CYQF 290200Z 14010KT 15SM FEW060 BKN250 15/M00 A2995 RMK SC1CI2 SLP159

CYQF;2012-05-29 03:00;CYQF 290300Z 14010KT 15SM FEW060 SCT250 14/M00 A2995 RMK SC1CI1 SLP156

CYQF;2012-05-29 04:00;CYQF 290400Z 14008KT 15SM FEW060 FEW250 12/M01 A2995 RMK SC1CI1 SLP156

CYQF;2012-05-29 05:00;CYQF 290500Z 15008KT 15SM FEW060 FEW250 10/M00 A2994 RMK SC1CI1 SLP154

CYQF;2012-05-29 06:00;CYQF 290600Z 16010KT 15SM FEW250 10/01 A2993 RMK CI0 SLP149

CYQF;2012-05-29 07:00;CYQF 290700Z 17007KT 15SM SKC 08/01 A2993 RMK SLP148

CYQF;2012-05-29 08:00;CYQF 290800Z 17008KT 15SM SKC 08/02 A2992 RMK SLP144

CYQF;2012-05-29 09:00;CYQF 290900Z 16008KT 15SM SKC 07/02 A2991 RMK SLP143

CYQF;2012-05-29 10:00;CYQF 291000Z 15012KT 15SM FEW100 FEW250 07/02 A2990 RMK AC1CI0 SLP139

CYQF;2012-05-29 11:00;CYQF 291100Z 13010KT 15SM FEW100 FEW250 06/02 A2988 RMK AC1CI0 SLP135

CYQF;2012-05-29 12:00;CYQF 291200Z 14007KT 15SM FEW120 FEW250 06/02 A2988 RMK AC1CI0 SLP133

CYQF;2012-05-29 13:00;CYQF 291300Z 14012KT 15SM FEW120 SCT250 07/03 A2987 RMK AC1CI1 SLP131

CYQF;2012-05-29 14:00;CYQF 291400Z 15015G20KT 15SM FEW120 BKN250 10/04 A2987 RMK AC2CI2 SLP130

CYQF;2012-05-29 15:00;CYQF 291500Z 17014G24KT 15SM SCT120 BKN250 12/05 A2985 RMK AC2CI2 SLP120

CYQF;2012-05-29 16:00;CYQF 291600Z 15015G25KT 15SM FEW120 BKN250 14/05 A2984 RMK AC2CI2 SLP115

CYQF;2012-05-29 17:00;CYQF 291700Z 16020G28KT 15SM FEW044TCU FEW120 BKN260 16/05 A2983 RMK TCU1AC2CI2 ACC SLP113

CYQF;2012-05-29 18:00;CYQF 291800Z 16015G20KT 15SM FEW044CB SCT120 BKN260 17/05 A2982 RMK CB2AC2CI1 SLP106

CYQF;2012-05-29 19:00;CYQF 291900Z 13015G20KT 15SM FEW052CB FEW120 BKN260 18/05 A2980 RMK CB2AC1CI1 SLP102

CYQF;2012-05-29 20:00;CYQF 292000Z 14015G22KT 15SM FEW055CB FEW120 BKN260 19/05 A2979 RMK CB2AC1CI2 SLP099

CYQF;2012-05-29 21:00;CYQF 292100Z 13020G25KT 15SM FEW055CB SCT120 BKN260 19/05 A2978 RMK CB2AC1CI1 SLP094

CYQF;2012-05-29 22:00;CYQF 292200Z 14013G20KT 15SM BKN060CB BKN260 19/04 A2978 RMK CB5CI1 SLP093

CYQF;2012-05-29 23:00;CYQF 292300Z 32008KT 15SM VCSH BKN040CB BKN260 15/06 A2978 RMK CB6CI1 SLP095

CYQF;2012-05-29 23:36;CYQF 292336Z 31007KT 15SM -SHRA BKN030CB RMK CB7

CYQF;2012-05-30 00:00;CYQF 300000Z 25007KT 15SM -SHRA BKN030CB OVC250 13/09 A2980 RMK CB6CI2 SLP111

CYQF;2012-05-30 00:12;CYQF 300012Z 29012KT 10SM -TSRA BKN030CB OVC250 RMK CB6CI2 LTGCG S

CYQF;2012-05-30 01:00;CYQF 300100Z 18005KT 8SM TSRA BKN030CB OVC120 11/08 A2985 RMK CB6AC2 LTGCG S+E SLP125

CYQF;2012-05-30 01:22;CYQF 300122Z 22004KT 3SM SHRA FEW010 OVC030CB RETS RMK CF1CB7

CYQF;2012-05-30 01:31;CYQF 300131Z 23004KT 1 1/2SM SHRA BR FEW010 OVC030 RETS RMK FG2CF1SC6

CYQF;2012-05-30 02:00;CYQF 300200Z 25007KT 1 1/2SM SHRA BR FEW010 OVC030 10/09 A2988 RETS RMK FG2CF1SC6 SLP135

CYQF;2012-05-30 02:24;CYQF 300224Z 27010KT 3SM -SHRA BR FEW010 OVC030 RMK FG1CF1SC6

CYQF;2012-05-30 03:00;CYQF 300300Z 28010KT 15SM -SHRA FEW010 BKN040 OVC250 10/08 A2986 RMK CF1SC6CI1 SLP127

CYQF;2012-05-30 04:00;CYQF 300400Z 30008KT 15SM -SHRA FEW010 BKN040 OVC250 10/08 A2989 RMK SF2SC5CI1 SLP135

CYQF;2012-05-30 04:41;CYQF 300441Z 31010G15KT 15SM FEW005 BKN012 RMK SF1SC6

CYQF;2012-05-30 05:00;CYQF 300500Z 32010KT 15SM FEW008 BKN020 09/07 A2991 RMK SF2SC5 SLP142

CYQF;2012-05-30 06:00;CYQF 300600Z 32005KT 15SM BKN040 09/07 A2990 RMK SC7 SLP138

CYQF;2012-05-30 07:00;CYQF 300700Z 24004KT 15SM BKN040 08/06 A2991 RMK SC7 SLP140

CYQF;2012-05-30 08:00;CYQF 300800Z 24008KT 15SM BKN040 08/07 A2992 RMK SC7 SLP142

CYQF;2012-05-30 09:00;CYQF 300900Z 27006KT 15SM BKN050 08/07 A2992 RMK SC7 SLP142

CYQF;2012-05-30 10:00;CYQF 301000Z 30005KT 15SM BKN050 08/06 A2992 RMK SC7 SLP141

CYQF;2012-05-30 11:00;CYQF 301100Z 28005KT 15SM BKN050 08/06 A2993 RMK SC7 SLP145

CYQF;2012-05-30 12:00;CYQF 301200Z 28007KT 15SM SCT050 BKN100 07/06 A2995 RMK SC4AC3 SLP160

CYQF;2012-05-30 13:00;CYQF 301300Z 29004KT 15SM FEW050 BKN090 08/06 A2996 RMK SC2AC5 SLP164

CYQF;2012-05-30 14:00;CYQF 301400Z 29007KT 15SM FEW012 FEW050 BKN090 BKN240 09/06 A2996 RMK SF1SC2AC4CI1 SLP164

CYQF;2012-05-30 15:00;CYQF 301500Z 28008KT 15SM FEW015 FEW090 BKN240 10/07 A2996 RMK CF1AC1CI3 SLP165

CYQF;2012-05-30 16:00;CYQF 301600Z 30010KT 15SM SCT016 SCT090 BKN240 11/07 A2997 RMK CU3AC1CI1 SLP167

CYQF;2012-05-30 17:00;CYQF 301700Z 30010G15KT 15SM FEW024 SCT090 BKN240 12/06 A2997 RMK CU2AC1CI1 SLP168

CYQF;2012-05-30 18:00;CYQF 301800Z 33010G15KT 15SM FEW036 BKN240 14/05 A2997 RMK CU2CI1 SLP165

CYQF;2012-05-30 19:00;CYQF 301900Z 32011G16KT 15SM SCT040 BKN250 16/06 A2997 RMK CU4CI1 SLP165

CYQF;2012-05-30 20:00;CYQF 302000Z 33008KT 15SM SCT050 BKN250 16/03 A2997 RMK CU4CI2 SLP165

CYQF;2012-05-30 21:00;CYQF 302100Z 33010G15KT 15SM SCT052 BKN260 16/03 A2997 RMK CU3CI2 SLP162

CYQF;2012-05-30 22:00;CYQF 302200Z 33010G15KT 15SM SCT056 BKN260 17/03 A2997 RMK CU3CI1 VIRGA TCU SLP161

CYQF;2012-05-30 23:00;CYQF 302300Z 34010KT 15SM SCT058 SCT120 BKN250 17/02 A2996 RMK CU3AC1CI1 TCU VIRGA SLP160

CYQF;2012-05-31 00:00;CYQF 310000Z 30007KT 15SM SCT060 SCT120 BKN250 17/02 A2997 RMK CU3AC1CI2 SLP161

CYQF;2012-05-31 01:00;CYQF 310100Z 33005KT 15SM FEW060 SCT120 17/02 A2996 RMK CU2AC2 VIRGA SLP160

CYQF;2012-05-31 02:00;CYQF 310200Z 19007KT 15SM FEW060 FEW120 17/04 A2996 RMK CU1AC2 SLP159

CYQF;2012-05-31 03:00;CYQF 310300Z 19003KT 15SM FEW090 FEW250 15/05 A2997 RMK AC2CI0 SLP161

CYQF;2012-05-31 04:00;CYQF 310400Z 20004KT 15SM FEW090 12/06 A2998 RMK AC2 SLP166

CYQF;2012-05-31 05:00;CYQF 310500Z 00000KT 15SM SCT090 11/05 A2999 RMK AC2 SLP168

CYQF;2012-05-31 06:00;CYQF 310600Z 18005KT 15SM BKN090 11/07 A2999 RMK AC6 SLP168

CYQF;2012-05-31 07:00;CYQF 310700Z 20005KT 15SM BKN100 11/06 A2998 RMK AC7 SLP166

CYQF;2012-05-31 08:00;CYQF 310800Z 21007KT 15SM SCT100 BKN250 10/04 A2998 RMK AC3CI2 SLP165

CYQF;2012-05-31 09:00;CYQF 310900Z 22007KT 15SM FEW100 SCT250 09/03 A2998 RMK AC1CI1 SLP166

CYQF;2012-05-31 10:00;CYQF 311000Z 20006KT 15SM FEW100 BKN250 07/02 A2997 RMK AC2CI2 SLP161

CYQF;2012-05-31 11:00;CYQF 311100Z 22002KT 15SM FEW100 BKN250 07/02 A2996 RMK AC1CI3 SLP160

CYQF;2012-05-31 12:00;CYQF 311200Z 18003KT 15SM FEW100 BKN250 06/01 A2996 RMK AC1CI3 SLP159

CYQF;2012-05-31 13:00;CYQF 311300Z 20002KT 15SM SCT100 BKN250 08/03 A2996 RMK AC2CI2 SLP160

CYQF;2012-05-31 14:00;CYQF 311400Z 24005KT 15SM FEW100 OVC250 10/03 A2995 RMK AC2CS4 HALO SLP158

CYQF;2012-05-31 15:00;CYQF 311500Z 18002KT 15SM BKN100 OVC250 11/03 A2994 RMK AC5CI2 SLP150

CYQF;2012-05-31 16:00;CYQF 311600Z 23004KT 15SM FEW090 BKN130 BKN250 13/03 A2993 RMK AC2AS3CS2 ACC SLP147

CYQF;2012-05-31 17:00;CYQF 311700Z 20003KT 15SM FEW040 FEW100 BKN130 BKN250 14/04 A2992 RMK CU1ACC2AS2CI1 CU TR SLP142

CYQF;2012-05-31 18:00;CYQF 311800Z 18004KT 15SM FEW050 FEW100 BKN150 BKN250 17/03 A2990 RMK CU1AC1AS3CC2 SLP136

CYQF;2012-05-31 19:00;CYQF 311900Z 00000KT 15SM FEW068 BKN100 BKN250 18/01 A2988 RMK CU1AC4CI1 SLP130

CYQF;2012-05-31 20:00;CYQF 312000Z 22002KT 15SM FEW065 BKN100 BKN250 18/02 A2986 RMK CU2AC2CI1 SLP123

CYQF;2012-05-31 21:00;CYQF 312100Z 24003KT 15SM SCT068 BKN100 BKN250 19/02 A2985 RMK CU4AC2CI1 TCU SLP116

CYQF;2012-05-31 22:00;CYQF 312200Z 18004KT 15SM SCT068 BKN090 BKN250 19/02 A2983 RMK CU3AC2CI1 CU EMBDD CB DIST W-NW SLP111

CYQF;2012-05-31 23:00;CYQF 312300Z 00000KT 15SM BKN070CB BKN250 19/02 A2982 RMK CB5CI1 VIRGA SLP107

CYQF;2012-05-31 23:48;CYQF 312348Z 30030G40KT 15SM VCSH BKN040CB RMK CB6 LTGCG

CYQF;2012-06-01 00:00;CYQF 010000Z 31025G35KT 15SM VCSH BKN040CB 14/05 A2985 RMK CB7 LTGCG SLP124

CYQF;2012-06-01 00:04;CYQF 010004Z 31025G35KT 15SM -SHRA BKN040CB RMK CB7 LTGCG

CYQF;2012-06-01 01:00;CYQF 010100Z 05010G15KT 15SM VCSH SCT030CB BKN080 BKN250 14/07 A2986 RMK CB3AC2CI1 SLP127

CYQF;2012-06-01 02:00;CYQF 010200Z 06005KT 15SM FEW030CB SCT080 BKN250 14/07 A2985 RMK CB2AC1CI1 SLP126

CYQF;2012-06-01 03:00;CYQF 010300Z 00000KT 15SM FEW030 FEW080 SCT250 14/07 A2986 RMK CU2AC1CI0 SLP124

CYQF;2012-06-01 04:00;CYQF 010400Z 07003KT 15SM FEW040 12/06 A2987 RMK SC2 SLP126

CYQF;2012-06-01 05:00;CYQF 010500Z 21002KT 15SM SCT040 09/06 A2987 RMK SC4 TCU SLP128

CYQF;2012-06-01 06:00;CYQF 010600Z 24006KT 15SM SCT040 09/06 A2989 RMK SC3 SLP133

CYQF;2012-06-01 07:00;CYQF 010700Z 21003KT 15SM BKN040 10/07 A2988 RMK SC6 SLP130

CYQF;2012-06-01 08:00;CYQF 010800Z 22004KT 15SM FEW040 08/05 A2987 RMK SC1 SLP128

CYQF;2012-06-01 09:00;CYQF 010900Z 02008KT 15SM FEW040 09/06 A2990 RMK SC1 SLP133

CYQF;2012-06-01 10:00;CYQF 011000Z 19007KT 15SM FEW040 05/03 A2989 RMK SC1 SLP131

CYQF;2012-06-01 11:00;CYQF 011100Z 23005KT 15SM FEW040 FEW250 06/04 A2988 RMK SC1CI1 SLP127

CYQF;2012-06-01 12:00;CYQF 011200Z 22006KT 15SM FEW100 BKN250 06/04 A2988 RMK AC1CI5 SLP136

CYQF;2012-06-01 13:00;CYQF 011300Z 21008KT 15SM FEW100 BKN250 08/04 A2988 RMK AC2CI5 SLP135

CYQF;2012-06-01 14:00;CYQF 011400Z 24005KT 15SM FEW100 BKN250 10/05 A2987 RMK AC2CI2 SLP133

CYQF;2012-06-01 15:00;CYQF 011500Z 21003KT 15SM FEW100 FEW250 12/06 A2987 RMK AC1CI1 AC TR SLP125

CYQF;2012-06-01 16:00;CYQF 011600Z 20003KT 15SM FEW100 BKN250 16/05 A2984 RMK AC1CI2 SLP117

CYQF;2012-06-01 17:00;CYQF 011700Z 20005KT 15SM FEW065 BKN250 18/02 A2982 RMK CU1CI2 TR CU SLP111

CYQF;2012-06-01 18:00;CYQF 011800Z 24010KT 15SM FEW070 BKN250 19/01 A2980 RMK CU1CI2 SLP099

CYQF;2012-06-01 19:00;CYQF 011900Z 18010KT 15SM FEW070 BKN250 21/00 A2977 RMK CU1CI2 SLP089

CYQF;2012-06-01 20:00;CYQF 012000Z 20010KT 15SM FEW086 BKN100 BKN250 21/M00 A2975 RMK CU1AC5CI2 SLP082

CYQF;2012-06-01 21:00;CYQF 012100Z 22013G20KT 15SM SCT084 BKN250 22/01 A2971 RMK CU3CI3 SLP066

CYQF;2012-06-01 22:00;CYQF 012200Z 18008G18KT 15SM SCT082 OVC120 22/02 A2969 RMK CU3AS5 SLP060

CYQF;2012-06-01 23:00;CYQF 012300Z 21006KT 15SM SCT080 OVC120 22/02 A2968 RMK CU3AS5 SLP057

CYQF;2012-06-02 00:00;CYQF 020000Z 20003KT 15SM BKN080 OVC120 21/04 A2966 RMK AC6AS2 SLP052

CYQF;2012-06-02 01:00;CYQF 020100Z 30010KT 15SM SCT080 BKN120 OVC250 23/05 A2966 RMK AC3AC2CI0 SLP051

CYQF;2012-06-02 02:00;CYQF 020200Z 28008KT 15SM FEW080 BKN250 21/03 A2966 RMK AC2CI2 SLP051

CYQF;2012-06-02 03:00;CYQF 020300Z 29003KT 15SM FEW080 BKN250 18/04 A2966 RMK AC1CI2 SLP047

CYQF;2012-06-02 04:00;CYQF 020400Z 25006KT 15SM FEW080 BKN250 15/03 A2966 RMK AC1CI2 SLP048

CYQF;2012-06-02 05:00;CYQF 020500Z 23003KT 15SM FEW080 BKN250 15/03 A2966 RMK AC1CI2 SLP049

CYQF;2012-06-02 06:00;CYQF 020600Z 26006KT 15SM FEW080 BKN250 14/03 A2966 RMK AC1CI2 SLP047

CYQF;2012-06-02 07:00;CYQF 020700Z 22005KT 15SM FEW080 BKN250 12/03 A2966 RMK AC1CI2 SLP044

CYQF;2012-06-02 08:00;CYQF 020800Z 22007KT 15SM BKN250 11/04 A2966 RMK CI2 SLP044

CYQF;2012-06-02 09:00;CYQF 020900Z 22006KT 15SM BKN250 11/04 A2964 RMK CI2 SLP039

CYQF;2012-06-02 10:00;CYQF 021000Z 22002KT 15SM FEW100 BKN250 11/04 A2964 RMK AC2CI2 SLP037

CYQF;2012-06-02 11:00;CYQF 021100Z 20004KT 15SM FEW120 BKN250 09/04 A2963 RMK AC2CI2 SLP035

CYQF;2012-06-02 12:00;CYQF 021200Z 21004KT 15SM SCT120 BKN250 10/05 A2962 RMK AC3CI2 SLP032

CYQF;2012-06-02 13:00;CYQF 021300Z 20002KT 15SM BKN120 BKN250 12/05 A2961 RMK AC5CI2 SLP030

CYQF;2012-06-02 14:00;CYQF 021400Z 27003KT 15SM BKN120 BKN250 13/05 A2960 RMK AC5CI2 SLP027

CYQF;2012-06-02 15:00;CYQF 021500Z 24003KT 15SM FEW060 BKN100 BKN250 15/07 A2960 RMK SC2AC4CS1 SLP025

CYQF;2012-06-02 16:00;CYQF 021600Z 00000KT 15SM FEW060 BKN100 BKN250 18/05 A2958 RMK SC2AC4CI1 SLP019

CYQF;2012-06-02 17:00;CYQF 021700Z 29010KT 15SM FEW060 BKN100 OVC250 18/03 A2958 RMK SC2AC4CI1 SLP020

CYQF;2012-06-02 18:00;CYQF 021800Z 31007KT 15SM FEW050 BKN100 BKN250 17/04 A2959 RMK CU1AC6CI2 SLP024

CYQF;2012-06-02 19:00;CYQF 021900Z 31009KT 15SM FEW050 BKN100 OVC250 17/04 A2958 RMK CU1AC7CI1 CU TR SLP021

CYQF;2012-06-02 20:00;CYQF 022000Z 36008KT 15SM FEW040 BKN100 BKN250 17/08 A2957 RMK CU2AC3CI1 SLP018

CYQF;2012-06-02 21:00;CYQF 022100Z 34008KT 15SM BKN050 BKN100 19/07 A2956 RMK CU5AC2 SLP012

CYQF;2012-06-02 22:00;CYQF 022200Z 00000KT 15SM BKN050 18/06 A2955 RMK CU7 SLP011

CYQF;2012-06-02 23:00;CYQF 022300Z 00000KT 15SM VCSH BKN050 19/05 A2955 RMK CU7 TCU ASOCTD SLP009

CYQF;2012-06-02 23:22;CYQF 022322Z 32025G35KT 15SM VCSH BKN040CB RMK CB7

CYQF;2012-06-02 23:28;CYQF 022328Z 32030G37KT 15SM -SHRA BKN040CB 14/07 RMK CB7

CYQF;2012-06-03 00:00;CYQF 030000Z 31030G40KT 15SM -SHRA OVC030CB 10/07 A2961 RMK CB8 PRESRR SLP042

CYQF;2012-06-03 00:48;CYQF 030048Z 36015G25KT 15SM BKN030CB BKN100 RMK CB7AC1 WND SHFT

CYQF;2012-06-03 01:00;CYQF 030100Z 35015G20KT 15SM -SHRA BKN030CB BKN100 09/07 A2962 RMK CB7AC1 SLP045

CYQF;2012-06-03 01:05;CYQF 030105Z 36010G15KT 15SM BKN030CB BKN100 RMK CB6AC1

CYQF;2012-06-03 02:00;CYQF 030200Z 30008KT 15SM SCT030CB BKN100 BKN250 11/07 A2965 RMK CB3AC2CI1 SLP053

CYQF;2012-06-03 03:00;CYQF 030300Z 30008KT 15SM FEW030 SCT120 12/07 A2966 RMK CU2AC2 SLP053

CYQF;2012-06-03 04:00;CYQF 030400Z 27004KT 15SM FEW030 FEW120 09/06 A2968 RMK SC1AC1 SLP059

CYQF;2012-06-03 05:00;CYQF 030500Z 26005KT 15SM FEW030 FEW120 08/06 A2970 RMK SC1AC1 CB TOP W SLP066

CYQF;2012-06-03 06:00;CYQF 030600Z 27012KT 15SM FEW030 FEW120 09/06 A2974 RMK SC1AC1 SLP079

CYQF;2012-06-03 06:43;CYQF 030643Z 33015G22KT 15SM -SHRA SCT030 BKN120 RMK SC3AC2

CYQF;2012-06-03 07:00;CYQF 030700Z 32016KT 15SM SCT030 BKN100 11/04 A2973 RMK SC3AC2 TCU ASOCTD SLP076

CYQF;2012-06-03 07:35;CYQF 030735Z 25006KT 15SM FEW030 SCT100 RMK SC2AC1

CYQF;2012-06-03 08:00;CYQF 030800Z 23008KT 15SM FEW030 08/03 A2974 RMK SC2 SLP080

CYQF;2012-06-03 09:00;CYQF 030900Z 22007KT 15SM FEW040 06/03 A2975 RMK SC2 SLP087

CYQF;2012-06-03 10:00;CYQF 031000Z 23006KT 15SM FEW040 05/03 A2976 RMK SC1 SLP089

CYQF;2012-06-03 11:00;CYQF 031100Z 22003KT 15SM FEW080 04/02 A2978 RMK AC1 SLP095

CYQF;2012-06-03 12:00;CYQF 031200Z 24004KT 15SM FEW080 05/03 A2979 RMK AC1 SLP111

CYQF;2012-06-03 13:00;CYQF 031300Z 25007KT 15SM FEW080 FEW250 07/04 A2981 RMK AC1CI1 SLP116

CYQF;2012-06-03 14:00;CYQF 031400Z 29003KT 15SM FEW100 FEW250 09/05 A2981 RMK AC1CI1 SLP117

CYQF;2012-06-03 15:00;CYQF 031500Z 30005KT 15SM FEW100 SCT250 12/03 A2983 RMK AC1CI1 AC TR SLP115

CYQF;2012-06-03 16:00;CYQF 031600Z 34006KT 15SM FEW040 SCT250 14/04 A2983 RMK CU1CI1 TR CU SLP114

CYQF;2012-06-03 17:00;CYQF 031700Z 33005KT 15SM FEW049 SCT250 14/01 A2984 RMK CU1CI1 TR CU SLP116

CYQF;2012-06-03 18:00;CYQF 031800Z 35007KT 15SM FEW055 SCT250 15/02 A2984 RMK CU1CI1 SLP118

CYQF;2012-06-03 19:00;CYQF 031900Z 36005KT 15SM FEW055 BKN250 16/02 A2983 RMK CU1CI3 SLP115

CYQF;2012-06-03 20:00;CYQF 032000Z 01003KT 15SM FEW060 BKN250 16/01 A2983 RMK CU1CI2 SLP114

CYQF;2012-06-03 21:00;CYQF 032100Z 35005KT 15SM FEW060 BKN250 18/02 A2983 RMK CU2CI2 SLP113

CYQF;2012-06-03 22:00;CYQF 032200Z 36004KT 15SM SCT060 BKN250 18/01 A2983 RMK CU3CI1 SLP113

CYQF;2012-06-03 23:00;CYQF 032300Z 33005KT 15SM SCT060 BKN120 BKN250 18/00 A2983 RMK CU3AC2CI1 SLP113

CYQF;2012-06-04 00:00;CYQF 040000Z 36006KT 15SM VCSH SCT060 BKN120 BKN250 18/01 A2983 RMK CU3AC2CI1 TCU ASOCTD SLP116

CYQF;2012-06-04 01:00;CYQF 040100Z 32006KT 15SM SCT060 BKN120 BKN250 17/01 A2985 RMK CU3AC2CI1 VIRGA SLP122

CYQF;2012-06-04 02:00;CYQF 040200Z 02003KT 15SM BKN060 BKN250 17/02 A2985 RMK CU6CI1 VIRGA SLP123

CYQF;2012-06-04 03:00;CYQF 040300Z 35003KT 15SM BKN060 BKN250 16/02 A2986 RMK CU6CI1 VIRGA SLP119

CYQF;2012-06-04 04:00;CYQF 040400Z 00000KT 15SM BKN060 BKN250 15/03 A2987 RMK SC6CI1 SLP124

CYQF;2012-06-04 05:00;CYQF 040500Z 00000KT 15SM SCT060 BKN100 BKN250 12/04 A2988 RMK SC3AC2CI0 SLP127

CYQF;2012-06-04 06:00;CYQF 040600Z 00000KT 15SM SCT060 BKN100 BKN250 12/05 A2990 RMK SC3AC2CI0 SLP133

CYQF;2012-06-04 07:00;CYQF 040700Z 30003KT 15SM SCT060 BKN100 BKN250 11/05 A2990 RMK SC3AC2CI0 SLP134

CYQF;2012-06-04 08:00;CYQF 040800Z 25004KT 15SM SCT060 BKN100 11/06 A2991 RMK SC3AC3 SLP137

CYQF;2012-06-04 09:00;CYQF 040900Z 20002KT 15SM FEW060 SCT100 BKN250 10/05 A2991 RMK SC2AC2CI1 SLP139

CYQF;2012-06-04 10:00;CYQF 041000Z 21002KT 15SM FEW060 BKN090 09/06 A2993 RMK SC2AC5 SLP144

CYQF;2012-06-04 11:00;CYQF 041100Z 00000KT 15SM FEW060 BKN090 09/06 A2993 RMK SC2AC5 SLP145

CYQF;2012-06-04 12:00;CYQF 041200Z 00000KT 15SM FEW060 BKN090 BKN250 09/06 A2994 RMK SC2AC4CI1 SLP150

CYQF;2012-06-04 13:00;CYQF 041300Z 20002KT 15SM FEW060 BKN090 BKN250 10/06 A2995 RMK SC2AC4CI1 SLP153

CYQF;2012-06-04 14:00;CYQF 041400Z 00000KT 15SM BKN120 12/07 A2995 RMK AC4 SLP154

CYQF;2012-06-04 15:00;CYQF 041500Z 08004KT 15SM FEW120 SCT250 16/03 A2996 RMK AC2CI2 SLP149

CYQF;2012-06-04 16:00;CYQF 041600Z 12007KT 15SM FEW120 FEW250 18/02 A2995 RMK AC1CI1 TR AC SLP148

CYQF;2012-06-04 17:00;CYQF 041700Z 09010G15KT 15SM BKN150 BKN280 19/02 A2995 RMK AC5CI2 SLP147

CYQF;2012-06-04 18:00;CYQF 041800Z 09011G16KT 15SM FEW050 FEW150 BKN280 20/03 A2994 RMK CU1AC1CI1 SLP144

CYQF;2012-06-04 19:00;CYQF 041900Z 12009KT 15SM FEW070 SCT150 BKN280 20/03 A2993 RMK CU2AC2CI2 SLP141

CYQF;2012-06-04 20:00;CYQF 042000Z 10010G16KT 15SM SCT070 OVC150 20/04 A2992 RMK CU4AC4 SLP138

CYQF;2012-06-04 21:00;CYQF 042100Z 10013G20KT 15SM SCT070 BKN150 20/05 A2991 RMK CU3AC4 SLP135

CYQF;2012-06-04 22:00;CYQF 042200Z 09014G24KT 15SM SCT070 BKN150 20/04 A2989 RMK CU3AC4 SLP130

CYQF;2012-06-04 23:00;CYQF 042300Z 11015G20KT 15SM SCT070 BKN150 21/06 A2988 RMK AC3AC4 SLP126

CYQF;2012-06-05 00:00;CYQF 050000Z 08010G15KT 15SM SCT070 BKN150 20/06 A2987 RMK AC4AC3 SLP122

CYQF;2012-06-05 01:00;CYQF 050100Z 08010G15KT 15SM SCT100 BKN250 20/07 A2985 RMK AC3CI2 SLP116

CYQF;2012-06-05 02:00;CYQF 050200Z 08015G20KT 15SM BKN100 OVC250 20/07 A2986 RMK AC5CI2 SLP118

CYQF;2012-06-05 03:00;CYQF 050300Z 09009KT 15SM BKN100 BKN250 19/07 A2986 RMK AC5CI2 SLP113

CYQF;2012-06-05 04:00;CYQF 050400Z 08006KT 15SM BKN100 BKN250 18/08 A2987 RMK AC6CI2 SLP115

CYQF;2012-06-05 05:00;CYQF 050500Z 08010KT 15SM BKN100 BKN250 17/08 A2986 RMK AC6CI2 SLP112

CYQF;2012-06-05 06:00;CYQF 050600Z 09008G16KT 15SM BKN130 BKN250 17/06 A2985 RMK AC6CI2 SLP108

CYQF;2012-06-05 07:00;CYQF 050700Z 08015KT 15SM BKN130 BKN250 17/05 A2983 RMK AC6CI2 SLP099

CYQF;2012-06-05 08:00;CYQF 050800Z 08018G24KT 15SM BKN120 16/05 A2982 RMK AC7 SLP097

CYQF;2012-06-05 09:00;CYQF 050900Z 09015KT 15SM BKN120 16/05 A2979 RMK AC7 SLP087

CYQF;2012-06-05 10:00;CYQF 051000Z 08013G20KT 15SM BKN120 OVC250 16/05 A2978 RMK AC6CI1 SLP084

CYQF;2012-06-05 11:00;CYQF 051100Z 08008KT 15SM SCT080 BKN120 OVC250 15/06 A2978 RMK AC3AC4CI1 SLP083

CYQF;2012-06-05 11:52;CYQF 051152Z 13006KT 10SM -RA SCT080 BKN120 OVC250 RMK AC4AC3CI1

CYQF;2012-06-05 12:00;CYQF 051200Z 09006KT 10SM -RA BKN050 OVC080 13/09 A2981 RMK SC5AC3 SLP098

CYQF;2012-06-05 13:00;CYQF 051300Z 09008KT 10SM -RA FEW010 BKN050 OVC080 11/10 A2979 RMK SF1SC4AC3 RERA SLP090

CYQF;2012-06-05 14:00;CYQF 051400Z 29002KT 12SM -RA FEW010 BKN050 OVC080 13/11 A2981 RMK SF1SC5AC2 SLP097

CYQF;2012-06-05 15:00;CYQF 051500Z 04008KT 15SM -RA FEW005 FEW020 BKN055 14/12 A2980 RMK SF1SC1SC6 RERA SLP093

CYQF;2012-06-05 16:00;CYQF 051600Z 08010KT 15SM BKN012 OVC040 14/12 A2979 RMK SC5SC3 CIG RAG SLP091

CYQF;2012-06-05 17:00;CYQF 051700Z 08012G19KT 10SM BKN010 BKN040 15/12 A2978 RMK SC6SC1 SLP089

CYQF;2012-06-05 18:00;CYQF 051800Z 06010G15KT 10SM BKN012 OVC040 15/12 A2978 RMK SC6SC2 SLP087

CYQF;2012-06-05 19:00;CYQF 051900Z 04010G16KT 10SM BKN015 OVC040 16/12 A2978 RMK SC5SC3 SLP087

CYQF;2012-06-05 20:00;CYQF 052000Z 01010G15KT 10SM OVC015 16/12 A2977 RMK SC8 SLP084

CYQF;2012-06-05 20:18;CYQF 052018Z 01010G15KT 12SM OVC036 RMK SC8 UA/TOPS 090 MSL

CYQF;2012-06-05 21:00;CYQF 052100Z 36010G15KT 12SM OVC035 16/12 A2976 RMK SC8 SLP083

CYQF;2012-06-05 22:00;CYQF 052200Z 36008KT 12SM OVC035 16/12 A2975 RMK SC8 SLP079

CYQF;2012-06-05 23:00;CYQF 052300Z 36008KT 12SM OVC035 17/13 A2975 RMK SC8 SLP079

CYQF;2012-06-06 00:00;CYQF 060000Z 36006KT 12SM OVC040 17/13 A2974 RMK SC8 CIG RAG SLP076

CYQF;2012-06-06 01:00;CYQF 060100Z 36006KT 12SM SCT040 18/14 A2975 RMK SC4 SLP077

CYQF;2012-06-06 02:00;CYQF 060200Z 02006KT 12SM BKN040 BKN250 19/13 A2974 RMK SC6CI2 SLP075

CYQF;2012-06-06 03:00;CYQF 060300Z 06010KT 15SM FEW040 BKN080 BKN250 18/13 A2975 RMK SC2AC2CI2 SLP077

CYQF;2012-06-06 04:00;CYQF 060400Z 04012G20KT 12SM BKN017 BKN080 BKN250 17/13 A2972 RMK CU6AC1CI1 SLP069

CYQF;2012-06-06 05:00;CYQF 060500Z 04015G20KT 15SM FEW020 BKN040 OVC080 16/12 A2970 RMK CU1SC6AC2 SLP061

CYQF;2012-06-06 05:43;CYQF 060543Z 05014G20KT 15SM -SHRA BKN040 BKN080 OVC250 RMK SC5AC2CI1 LTGCG DIST S

CYQF;2012-06-06 06:00;CYQF 060600Z 04014G22KT 15SM -SHRA BKN020 BKN080 OVC250 15/12 A2968 RMK SC6AC2CI1 LTCG DIST S TCU ASOCTD SLP055

CYQF;2012-06-06 06:53;CYQF 060653Z 05015G23KT 15SM -TSRA BKN020CB OVC080 RMK CB6AC2 LTGCG NW

CYQF;2012-06-06 07:00;CYQF 060700Z 09014G20KT 10SM -TSRA OVC020CB 14/12 A2968 RMK CB8 LTGCG SW+NW LTGCC OVRHD SLP057

CYQF;2012-06-06 08:00;CYQF 060800Z 06014G20KT 15SM -TSRA OVC020CB 13/12 A2963 RMK CB8 RERA LTGCG OVRHD LTGCG SW SLP039

CYQF;2012-06-06 09:00;CYQF 060900Z 05015KT 15SM -SHRA BKN020CB OVC080 13/12 A2959 RMK CB6AC2 RERA RETS SLP026

CYQF;2012-06-06 10:00;CYQF 061000Z 04015G22KT 15SM -SHRA BKN013 OVC060 14/12 A2955 RMK SC6SC2 TCU ASOCTD SLP012

CYQF;2012-06-06 10:47;CYQF 061047Z 07013KT 15SM OVC013 RMK SC8

CYQF;2012-06-06 11:00;CYQF 061100Z 06013KT 15SM OVC013 14/12 A2956 RMK SC8 SLP015

CYQF;2012-06-06 12:00;CYQF 061200Z 11012KT 15SM OVC013 14/12 A2959 RMK SC8 /R10/ SLP023

CYQF;2012-06-06 12:25;CYQF 061225Z 09014KT 15SM OVC008 RMK SC8

CYQF;2012-06-06 13:00;CYQF 061300Z 09005KT 15SM OVC011 15/13 A2959 RMK SC8 SLP023

CYQF;2012-06-06 14:00;CYQF 061400Z 06007KT 15SM OVC011 15/13 A2958 RMK SC8 SLP021

CYQF;2012-06-06 15:00;CYQF 061500Z 09014KT 8SM -RA OVC010 15/13 A2959 RMK SC8 SLP021

CYQF;2012-06-06 15:50;CYQF 061550Z 08014G20KT 10SM OVC009 RMK SC8

CYQF;2012-06-06 16:00;CYQF 061600Z 08015G23KT 10SM OVC009 15/12 A2957 RMK SC8 SLP016

CYQF;2012-06-06 17:00;CYQF 061700Z 07012KT 10SM OVC011 15/12 A2956 RMK SC8 SLP011

CYQF;2012-06-06 18:00;CYQF 061800Z 09012G22KT 12SM OVC012 16/13 A2955 RMK SC8 SLP008

CYQF;2012-06-06 18:32;CYQF 061832Z 10015G25KT 6SM -SHRA BR OVC013 RMK SC8

CYQF;2012-06-06 18:40;CYQF 061840Z 09012G22KT 2 1/2SM -SHRA BR OVC013 RMK SC8

CYQF;2012-06-06 18:51;CYQF 061851Z 09013G23KT 2 1/2SM -SHRA BR BKN006 OVC013 RMK SF3SC5

CYQF;2012-06-06 19:00;CYQF 061900Z 09013G20KT 3SM -SHRA BR SCT006 OVC013 16/14 A2954 RMK SF3SC5 SLP007

CYQF;2012-06-06 20:00;CYQF 062000Z 13015G25KT 15SM BKN007 OVC015 16/13 A2956 RMK SF7SC1 SLP013

CYQF;2012-06-06 20:15;CYQF 062015Z 14014G23KT 15SM SCT007 BKN020 BKN080 RMK SF3SC2AC2

CYQF;2012-06-06 21:00;CYQF 062100Z 14015G25KT 15SM BKN025 BKN250 18/11 A2957 RMK CU5CI1 SLP016

CYQF;2012-06-06 22:00;CYQF 062200Z 14020G30KT 15SM BKN036 19/10 A2957 RMK CU5 SLP018

CYQF;2012-06-06 23:00;CYQF 062300Z 15020G35KT 15SM BKN037 17/07 A2960 RMK CU6 SLP026

CYQF;2012-06-07 00:00;CYQF 070000Z 16020G30KT 15SM FEW048 15/03 A2961 RMK CU1 SLP033

CYQF;2012-06-07 01:00;CYQF 070100Z 12015G35KT 15SM FEW045 14/02 A2962 RMK SC1 SLP035

CYQF;2012-06-07 02:00;CYQF 070200Z 13020G30KT 15SM FEW045 13/03 A2962 RMK SC1 TCU DIST N SLP035

CYQF;2012-06-07 03:00;CYQF 070300Z 13015G25KT 15SM FEW045 11/02 A2964 RMK SC1 SLP045

CYQF;2012-06-07 04:00;CYQF 070400Z 12015G20KT 15SM FEW070 10/02 A2964 RMK AC1 SLP045

CYQF;2012-06-07 05:00;CYQF 070500Z 14015G25KT 15SM FEW070 09/01 A2963 RMK AC1 SLP041

CYQF;2012-06-07 06:00;CYQF 070600Z 15014KT 15SM SKC 07/01 A2963 RMK SLP047

CYQF;2012-06-07 07:00;CYQF 070700Z 15008KT 15SM SKC 06/01 A2965 RMK SLP052

CYQF;2012-06-07 08:00;CYQF 070800Z 15008KT 15SM FEW120 07/00 A2966 RMK AC1 SLP056

CYQF;2012-06-07 09:00;CYQF 070900Z 18007KT 15SM FEW120 07/M05 A2968 RMK AC1 SLP060

CYQF;2012-06-07 10:00;CYQF 071000Z 18008KT 15SM FEW120 06/M00 A2970 RMK AC1 SLP066

CYQF;2012-06-07 11:00;CYQF 071100Z 19008KT 15SM FEW120 06/M01 A2972 RMK AC1 SLP074

CYQF;2012-06-07 12:00;CYQF 071200Z 18008KT 15SM FEW250 06/00 A2974 RMK CI0 SLP087

CYQF;2012-06-07 13:00;CYQF 071300Z 18008KT 15SM FEW100 06/00 A2976 RMK AC1 SLP092

CYQF;2012-06-07 14:00;CYQF 071400Z 19012KT 15SM FEW100 FEW250 10/01 A2978 RMK AC1CI1 TR AC SLP100

CYQF;2012-06-07 15:00;CYQF 071500Z 18010G15KT 15SM FEW100 FEW250 12/02 A2980 RMK AC1CI1 SLP105

CYQF;2012-06-07 16:00;CYQF 071600Z 22010G15KT 15SM FEW100 BKN260 15/01 A2981 RMK AC1CI1 SLP107

CYQF;2012-06-07 17:00;CYQF 071700Z 23012G20KT 15SM FEW060 BKN260 15/00 A2983 RMK CU1CI6 SLP112

CYQF;2012-06-07 18:00;CYQF 071800Z 19010G15KT 15SM FEW064 BKN260 16/M00 A2983 RMK CU1CI5 SLP114

CYQF;2012-06-07 19:00;CYQF 071900Z 20011G16KT 15SM FEW060 BKN260 17/00 A2984 RMK CU1CI4 SLP116

CYQF;2012-06-07 20:00;CYQF 072000Z 18010G15KT 15SM FEW070 BKN260 18/00 A2984 RMK CU1CI2 SLP117

CYQF;2012-06-07 21:00;CYQF 072100Z 22005KT 15SM FEW070 FEW260 19/01 A2984 RMK CU1CI2 SLP115

CYQF;2012-06-07 22:00;CYQF 072200Z 23010G15KT 15SM FEW084 20/M01 A2984 RMK CU1 SLP115

CYQF;2012-06-07 23:00;CYQF 072300Z 22012KT 15SM FEW080 FEW250 20/M02 A2984 RMK CU1CI1 SLP115

CYQF;2012-06-08 00:00;CYQF 080000Z 17010KT 15SM FEW085 FEW250 20/M01 A2983 RMK CU1CI1 SLP112

CYQF;2012-06-08 01:00;CYQF 080100Z 19010G17KT 15SM FEW085 FEW250 21/M01 A2982 RMK CU1CI0 SLP109

CYQF;2012-06-08 02:00;CYQF 080200Z 17010G15KT 15SM FEW085 FEW250 20/M00 A2982 RMK AC1CI1 SLP107

CYQF;2012-06-08 03:00;CYQF 080300Z 19007KT 15SM FEW090 SCT250 18/02 A2981 RMK AC1CI1 SLP101

CYQF;2012-06-08 04:00;CYQF 080400Z 19005KT 15SM FEW100 BKN250 15/03 A2981 RMK AC2CI1 SLP100

CYQF;2012-06-08 05:00;CYQF 080500Z 21004KT 15SM FEW100 BKN250 14/02 A2982 RMK AC2CI2 SLP103

CYQF;2012-06-08 06:00;CYQF 080600Z 21003KT 15SM BKN120 BKN250 12/02 A2982 RMK AC5CI2 SLP104

CYQF;2012-06-08 07:00;CYQF 080700Z 20004KT 15SM SCT120 BKN240 12/02 A2982 RMK AC4CI2 SLP105

CYQF;2012-06-08 08:00;CYQF 080800Z 19007KT 15SM SCT120 OVC240 11/03 A2981 RMK AC4CI4 SLP102

CYQF;2012-06-08 09:00;CYQF 080900Z 16005KT 15SM SCT120 BKN240 10/03 A2981 RMK AC2CI2 SLP100

CYQF;2012-06-08 10:00;CYQF 081000Z 00000KT 15SM SCT120 BKN240 10/02 A2979 RMK AC2CI2 SLP095

CYQF;2012-06-08 11:00;CYQF 081100Z 16004KT 15SM FEW120 SCT240 08/02 A2978 RMK AC1CI1 SLP093

CYQF;2012-06-08 12:00;CYQF 081200Z 00000KT 15SM FEW120 BKN240 07/03 A2977 RMK AC1CI2 SLP090

CYQF;2012-06-08 13:00;CYQF 081300Z 22004KT 15SM FEW040 SCT100 BKN250 09/04 A2977 RMK SC1AC2CI2 SLP090

CYQF;2012-06-08 14:00;CYQF 081400Z 15005KT 15SM SCT100 BKN250 10/03 A2978 RMK AC3CI2 SLP093

CYQF;2012-06-08 15:00;CYQF 081500Z 15010KT 15SM BKN050 BKN100 BKN250 11/04 A2977 RMK CU5AC1CI1 SLP087

CYQF;2012-06-08 16:00;CYQF 081600Z 17007KT 15SM BKN050 BKN250 12/05 A2977 RMK CU6CI1 VIRGA SLP087

CYQF;2012-06-08 16:15;CYQF 081615Z 17005KT 12SM -SHRA BKN040 BKN250 RMK CU6CI1

CYQF;2012-06-08 17:00;CYQF 081700Z 12004KT 8SM -RA OVC035 10/08 A2980 RMK SC8 CIG RAG SLP096

CYQF;2012-06-08 18:00;CYQF 081800Z 00000KT 5SM -RA OVC025 10/09 A2980 RMK SC8 CIG RAG SLP105

CYQF;2012-06-08 19:00;CYQF 081900Z 00000KT 8SM -RA OVC025 11/08 A2977 RMK SC8 SLP097

CYQF;2012-06-08 20:00;CYQF 082000Z 16004KT 8SM -RA FEW010 OVC030 11/07 A2976 RMK CU2SC6 SLP092

CYQF;2012-06-08 20:47;CYQF 082047Z 12003KT 15SM FEW010 BKN030 OVC150 RMK CF1SC6AC1

CYQF;2012-06-08 21:00;CYQF 082100Z 00000KT 15SM FEW010 BKN030 OVC150 11/08 A2974 RMK CF1SC6AC1 SLP084

CYQF;2012-06-08 21:10;CYQF 082110Z 08004KT 15SM -SHRA FEW012 BKN030 OVC100 RMK CU1SC6AC1 CU TR

CYQF;2012-06-08 22:00;CYQF 082200Z 07007KT 15SM -SHRA FEW012 BKN030 OVC100 11/08 A2972 RMK CU2SC4AC2 SLP080

CYQF;2012-06-08 22:49;CYQF 082249Z 05006KT 15SM FEW015 BKN030 BKN250 RMK CU2SC4CI1

CYQF;2012-06-08 23:00;CYQF 082300Z 05008KT 15SM FEW016 BKN030 11/07 A2971 RMK CU2SC5 CB DIST SE SLP077

CYQF;2012-06-09 00:00;CYQF 090000Z 36005KT 15SM BKN016 BKN030 12/08 A2970 RMK CU5SC2 TCU/CB ASOCTD SLP076

CYQF;2012-06-09 01:00;CYQF 090100Z 04010KT 15SM BKN012TCU OVC030 11/08 A2970 RMK TCU5SC2 SLP074

CYQF;2012-06-09 01:53;CYQF 090153Z 02007KT 12SM -SHRA BKN012TCU OVC030 RMK TCU6SC2

CYQF;2012-06-09 02:00;CYQF 090200Z 02007KT 10SM -SHRA BKN012TCU OVC030 10/08 A2970 RMK TCU6SC2 SLP074

CYQF;2012-06-09 03:00;CYQF 090300Z 03005KT 10SM -SHRA BKN015TCU OVC030 10/08 A2970 RMK TCU5SC3 SLP071

CYQF;2012-06-09 04:00;CYQF 090400Z 01004KT 10SM -SHRA BKN020 OVC080 10/09 A2969 RMK SC6AC2 TCU ASOCTD SLP068

CYQF;2012-06-09 05:00;CYQF 090500Z 36003KT 10SM -SHRA FEW020 OVC040 10/08 A2968 RMK SC2SC6 SLP066

CYQF;2012-06-09 06:00;CYQF 090600Z 33002KT 10SM -SHRA FEW020 OVC040 09/08 A2967 RMK SC2SC6 SLP063

CYQF;2012-06-09 06:43;CYQF 090643Z 32003KT 15SM FEW020 OVC040 RMK SC2SC6

CYQF;2012-06-09 07:00;CYQF 090700Z 34002KT 15SM FEW020 OVC035 09/08 A2966 RMK SC2SC6 SLP061

CYQF;2012-06-09 08:00;CYQF 090800Z 29004KT 15SM FEW015 OVC035 09/08 A2963 RMK SC2SC6 SLP051

CYQF;2012-06-09 09:00;CYQF 090900Z 32006KT 10SM FEW015 SCT035 08/08 A2962 RMK SC1SC3 SLP048

CYQF;2012-06-09 10:00;CYQF 091000Z 02007KT 10SM SCT006 OVC030 09/08 A2963 RMK SF3SC5 MIFG SLP049

CYQF;2012-06-09 10:40;CYQF 091040Z 03008KT 6SM -RA BR BKN006 OVC025 RMK SF6SC2

CYQF;2012-06-09 11:00;CYQF 091100Z 01004KT 6SM -RA BR BKN006 OVC025 09/08 A2962 RMK SF6SC2 SLP046

CYQF;2012-06-09 12:00;CYQF 091200Z 03005KT 4SM -RA BR OVC006 09/08 A2963 RMK ST8 SLP047

CYQF;2012-06-09 12:32;CYQF 091232Z 03007KT 4SM BR OVC006 RMK SF8 CIG RAG

CYQF;2012-06-09 13:00;CYQF 091300Z 02008KT 6SM BR OVC007 09/08 A2963 RMK SF8 CIG RAG SLP047

CYQF;2012-06-09 14:00;CYQF 091400Z 03007KT 5SM BR OVC007 10/08 A2962 RMK SF8 CIG RAG SLP045

CYQF;2012-06-09 15:00;CYQF 091500Z 03007KT 8SM FEW005 OVC016 10/08 A2963 RMK SF2SC6 SLP048

CYQF;2012-06-09 16:00;CYQF 091600Z 01008KT 10SM SCT010 BKN016 11/08 A2962 RMK SF3SC4 SLP047

CYQF;2012-06-09 17:00;CYQF 091700Z 02008KT 12SM SCT020 BKN040 BKN090 12/08 A2962 RMK CU3SC2AC1 TCU SLP046

CYQF;2012-06-09 18:00;CYQF 091800Z 02010KT 15SM BKN020 BKN040 13/07 A2961 RMK CU6SC2 TCU ASOCTD SLP041

CYQF;2012-06-09 19:00;CYQF 091900Z 02012KT 15SM BKN020 BKN040 14/09 A2960 RMK CU6SC2 TCU ASOCTD SLP038

CYQF;2012-06-09 20:00;CYQF 092000Z 36006KT 15SM BKN025TCU BKN250 14/08 A2961 RMK TCU5CI0 SLP041

CYQF;2012-06-09 21:00;CYQF 092100Z 29005KT 15SM BKN030TCU BKN250 16/08 A2960 RMK TCU5CI2 CB ASOCTD SLP034

CYQF;2012-06-09 22:00;CYQF 092200Z 02010KT 15SM BKN029TCU OVC150 16/08 A2961 RMK TCU6AS2 CB ASOCTD MAMMATUS NW SLP036

CYQF;2012-06-09 22:08;CYQF 092208Z 02010KT 15SM TS BKN029CB OVC150 RMK CB6AS2

CYQF;2012-06-09 22:18;CYQF 092218Z 02011KT 15SM -TSRA BKN030CB OVC150 RMK CB6AS2

CYQF;2012-06-09 22:44;CYQF 092244Z 01008KT 15SM -SHRA BKN030CB OVC120 RMK CB5AC3 RETS

CYQF;2012-06-09 23:00;CYQF 092300Z 05012G18KT 15SM BKN030CB OVC100 14/05 A2963 RMK CB6AS2 RETS SLP043

CYQF;2012-06-09 23:07;CYQF 092307Z 05012G18KT 15SM TS BKN030CB OVC100 RMK CB6AS2

CYQF;2012-06-09 23:50;CYQF 092350Z 04005KT 15SM SCT025CB OVC100 RMK CB4AS3 RETS

CYQF;2012-06-10 00:00;CYQF 100000Z 04005KT 15SM SCT025CB OVC100 13/07 A2966 RMK CB4AS3 RETS SLP057

CYQF;2012-06-10 01:00;CYQF 100100Z 29010G15KT 15SM BKN020CB OVC100 12/08 A2966 RMK CB5AS3 OCNL LTGCG W-NW SLP058

CYQF;2012-06-10 01:38;CYQF 100138Z 32010G15KT 12SM -SHRA BKN020CB OVC100 RMK CB5AC3

CYQF;2012-06-10 02:00;CYQF 100200Z 29015G25KT 10SM -SHRA BKN020CB OVC100 10/08 A2965 RMK CB5AC3 SLP054

CYQF;2012-06-10 02:34;CYQF 100234Z 28015G20KT 15SM BKN020CB OVC100 RMK CB5AC3

CYQF;2012-06-10 03:00;CYQF 100300Z 29015G25KT 15SM BKN025CB OVC100 09/08 A2966 RMK CB5AC3 SLP060

CYQF;2012-06-10 04:00;CYQF 100400Z 30015G20KT 15SM SCT030CB OVC100 09/07 A2967 RMK CB3AC5 SLP063

CYQF;2012-06-10 04:24;CYQF 100424Z 31015G20KT 10SM -SHRA SCT030CB OVC100 RMK CB3AC5

CYQF;2012-06-10 05:00;CYQF 100500Z 30012KT 10SM -SHRA BKN025CB OVC080 09/07 A2969 RMK CB5AC3 SLP069

CYQF;2012-06-10 06:00;CYQF 100600Z 31010G16KT 15SM -SHRA SCT025 OVC050 09/08 A2967 RMK SC3SC5 TCU ASOCTD SLP062

CYQF;2012-06-10 07:00;CYQF 100700Z 31014G20KT 10SM SHRA SCT025 OVC050 10/08 A2968 RMK SC3SC5 TCU ASOCTD SLP064

CYQF;2012-06-10 08:00;CYQF 100800Z 31010G16KT 10SM +SHRA OVC035 09/08 A2968 RMK SC8 TCU ASOCTD SLP064

CYQF;2012-06-10 08:40;CYQF 100840Z 32014G20KT 10SM +SHRA FEW006 OVC035 RMK SF2SC6 TCU ASOCTD

CYQF;2012-06-10 09:00;CYQF 100900Z 33014G20KT 10SM SHRA FEW006 OVC035 10/08 A2968 RMK SF2SC6 TCU ASOCTD SLP059

CYQF;2012-06-10 10:00;CYQF 101000Z 32012G20KT 10SM SHRA FEW006 OVC032 10/08 A2970 RMK SF2SC6 TCU ASOCTD SLP065

CYQF;2012-06-10 11:00;CYQF 101100Z 32012G18KT 10SM -SHRA SCT005 OVC030 10/09 A2970 RMK SC3SC5 SLP066

CYQF;2012-06-10 12:00;CYQF 101200Z 32016G22KT 10SM -RA SCT005 OVC030 10/08 A2970 RMK SF3SC5 SLP069

CYQF;2012-06-10 13:00;CYQF 101300Z 32015G25KT 15SM -RA SCT005 OVC030 10/08 A2971 RMK SF4SC4 SLP073

CYQF;2012-06-10 13:24;CYQF 101324Z 31014G23KT 15SM SCT005 OVC030 RMK SF4SC4

CYQF;2012-06-10 14:00;CYQF 101400Z 32015G25KT 15SM BKN007 OVC100 11/08 A2972 RMK SF6AS2 SLP077

CYQF;2012-06-10 15:00;CYQF 101500Z 32015G26KT 15SM OVC010 11/09 A2974 RMK SC8 SLP086

CYQF;2012-06-10 15:45;CYQF 101545Z 32015G20KT 15SM FEW010 OVC019 RMK SF2SC6 CIG RAG

CYQF;2012-06-10 16:00;CYQF 101600Z 32015G25KT 15SM FEW010 OVC020 11/08 A2975 RMK SF1SC8 CIG RAG SLP090

CYQF;2012-06-10 17:00;CYQF 101700Z 33017G29KT 15SM FEW010 OVC020 12/09 A2977 RMK SF2SC6 SLP095

CYQF;2012-06-10 18:00;CYQF 101800Z 33018G28KT 15SM FEW010 OVC020 13/09 A2979 RMK SF2SC6 CIG RAG SLP102

CYQF;2012-06-10 18:30;CYQF 101830Z 32020G30KT 15SM OVC020 RMK SC8 CIG RAG

CYQF;2012-06-10 19:00;CYQF 101900Z 31020G30KT 15SM BKN020 BKN050 13/09 A2980 RMK SC6SC1 SLP107

CYQF;2012-06-10 20:00;CYQF 102000Z 30020G25KT 15SM BKN020 BKN050 14/09 A2982 RMK SC6SC1 SLP112

CYQF;2012-06-10 21:00;CYQF 102100Z 31015G25KT 15SM BKN025 BKN050 15/09 A2984 RMK SC6SC2 SLP115

CYQF;2012-06-10 22:00;CYQF 102200Z 32015G25KT 15SM BKN025 OVC050 15/09 A2986 RMK SC6SC2 SLP122

CYQF;2012-06-10 23:00;CYQF 102300Z 33015G22KT 15SM BKN020 BKN040 14/10 A2988 RMK SC5SC2 SLP129

CYQF;2012-06-11 00:00;CYQF 110000Z 33015G20KT 15SM BKN020 OVC040 14/10 A2991 RMK SC5SC3 SLP141

CYQF;2012-06-11 00:13;CYQF 110013Z 32015G20KT 5SM -SHRA BKN020 OVC040 RMK SC6SC2

CYQF;2012-06-11 01:00;CYQF 110100Z 34010G15KT 15SM -SHRA BKN023 BKN040 12/10 A2994 RMK SC6SC2 SLP150

CYQF;2012-06-11 01:40;CYQF 110140Z 36009KT 15SM BKN025 BKN040 RMK SC6SC2

CYQF;2012-06-11 02:00;CYQF 110200Z 35005KT 15SM -SHRA BKN025 OVC040 12/10 A2996 RMK SC6SC2 SLP159

CYQF;2012-06-11 03:00;CYQF 110300Z 31004KT 15SM BKN025 BKN040 BKN250 12/10 A2998 RMK SC5SC2CI1 SLP166

CYQF;2012-06-11 04:00;CYQF 110400Z 29004KT 15SM SCT025 BKN250 11/10 A3000 RMK SC4CI1 SLP173

CYQF;2012-06-11 05:00;CYQF 110500Z 27003KT 15SM FEW025 BKN250 09/08 A3002 RMK SC2CI1 SLP178

CYQF;2012-06-11 06:00;CYQF 110600Z 25006KT 15SM FEW030 SCT250 09/08 A3002 RMK SC2CI0 SLP182

CYQF;2012-06-11 07:00;CYQF 110700Z 27005KT 15SM FEW030 FEW250 09/08 A3003 RMK SC1CI0 SLP184

CYQF;2012-06-11 08:00;CYQF 110800Z 26006KT 15SM FEW080 SCT250 10/09 A3003 RMK AC2CI0 SLP184

CYQF;2012-06-11 09:00;CYQF 110900Z 22004KT 15SM SCT080 BKN250 09/08 A3002 RMK AC3CI1 SLP179

CYQF;2012-06-11 10:00;CYQF 111000Z CCA 24008KT 15SM BKN080 10/09 A3002 RMK AC6 SLP178

CYQF;2012-06-11 11:00;CYQF 111100Z 21004KT 15SM SCT080 BKN250 09/08 A3001 RMK AC4CI2 SLP176

CYQF;2012-06-11 12:00;CYQF 111200Z 24006KT 15SM SCT080 SCT120 BKN250 09/09 A3001 RMK AC3AC1CI2 SLP177

CYQF;2012-06-11 13:00;CYQF 111300Z 24004KT 15SM FEW080 SCT120 BKN250 10/09 A3001 RMK AC2AC2CI2 SLP178

CYQF;2012-06-11 14:00;CYQF 111400Z 23004KT 15SM BKN080 BKN120 BKN250 12/09 A3001 RMK AC5AC1CI1 SLP176

CYQF;2012-06-11 15:00;CYQF 111500Z 22005KT 15SM BKN080 BKN120 BKN250 13/10 A3000 RMK AC6AC1CI1 SLP173

CYQF;2012-06-11 16:00;CYQF 111600Z 24005KT 15SM FEW080 FEW250 16/10 A3000 RMK AC1CI1 CI TR SLP171

CYQF;2012-06-11 17:00;CYQF 111700Z 30008KT 15SM BKN080 BKN250 17/10 A3000 RMK AC3CI0 SLP173

CYQF;2012-06-11 18:00;CYQF 111800Z 31008KT 15SM FEW045 FEW250 20/09 A2999 RMK CU2CI0 SLP165

CYQF;2012-06-11 19:00;CYQF 111900Z 03003KT 15SM SCT050 20/07 A2999 RMK CU3 SLP163

CYQF;2012-06-11 20:00;CYQF 112000Z 00000KT 15SM SCT050 SCT100 SCT260 20/07 A2998 RMK CU3AC1CI1 SLP161

CYQF;2012-06-11 21:00;CYQF 112100Z 31003KT 15SM FEW065 FEW250 21/04 A2997 RMK CU2CI1 SLP156

CYQF;2012-06-11 22:00;CYQF 112200Z 32004KT 15SM FEW065 FEW250 22/05 A2997 RMK CU2CI1 SLP155

CYQF;2012-06-11 23:00;CYQF 112300Z 24005KT 15SM FEW070 SCT250 22/05 A2996 RMK CU2CI0 SLP152

CYQF;2012-06-12 00:00;CYQF 120000Z 28003KT 15SM SCT070 SCT120 22/05 A2995 RMK CU3AC1 SLP147

CYQF;2012-06-12 01:00;CYQF 120100Z 23004KT 15SM FEW065 SCT120 23/06 A2995 RMK CU2AC2 SLP146

CYQF;2012-06-12 02:00;CYQF 120200Z 23004KT 15SM FEW055 SCT120 22/07 A2994 RMK CU1AC2 SLP144

CYQF;2012-06-12 03:00;CYQF 120300Z 19003KT 15SM FEW045 SCT120 21/10 A2994 RMK CU1AC2 SLP140

CYQF;2012-06-12 04:00;CYQF 120400Z 16002KT 15SM SCT120 18/10 A2994 RMK AC2 SLP140

CYQF;2012-06-12 05:00;CYQF 120500Z 20003KT 15SM FEW090 14/10 A2994 RMK AC2 SLP141

CYQF;2012-06-12 06:00;CYQF 120600Z 20004KT 15SM FEW090 14/09 A2993 RMK AC2 SLP138

CYQF;2012-06-12 07:00;CYQF 120700Z 23006KT 15SM FEW090 12/09 A2992 RMK AC2 SLP136

CYQF;2012-06-12 08:00;CYQF 120800Z 24006KT 15SM FEW080 12/07 A2992 RMK AC2 SLP134

CYQF;2012-06-12 09:00;CYQF 120900Z 21004KT 15SM FEW080 11/06 A2992 RMK AC2 SLP138

CYQF;2012-06-12 10:00;CYQF 121000Z 20002KT 15SM FEW080 09/05 A2992 RMK AC1 SLP138

CYQF;2012-06-12 11:00;CYQF 121100Z 20004KT 15SM FEW090 08/05 A2992 RMK AC1 SLP136

CYQF;2012-06-12 12:00;CYQF 121200Z 19004KT 15SM FEW090 FEW250 08/05 A2991 RMK AC1CI0 SLP134

CYQF;2012-06-12 13:00;CYQF 121300Z 20004KT 15SM FEW100 SCT250 10/05 A2991 RMK AC1CI0 SLP133

CYQF;2012-06-12 14:00;CYQF 121400Z 21004KT 15SM FEW100 SCT250 13/06 A2990 RMK AC1CI0 SLP131

CYQF;2012-06-12 15:00;CYQF 121500Z 25003KT 15SM FEW250 16/07 A2989 RMK CI0 SLP122

CYQF;2012-06-12 16:00;CYQF 121600Z 25005KT 15SM FEW250 18/07 A2988 RMK CI1 SLP117

CYQF;2012-06-12 17:00;CYQF 121700Z 00000KT 15SM FEW051 FEW250 20/07 A2987 RMK CU1CI1 SLP114

CYQF;2012-06-12 18:00;CYQF 121800Z 24005KT 15SM FEW064 FEW260 21/05 A2985 RMK CU2CI1 SLP109

CYQF;2012-06-12 19:00;CYQF 121900Z 21003KT 15SM FEW075 SCT260 22/03 A2983 RMK CU2CI1 SLP103

CYQF;2012-06-12 20:00;CYQF 122000Z 25005KT 15SM FEW084 FEW100 22/01 A2982 RMK CU2AC1 SLP098

CYQF;2012-06-12 21:00;CYQF 122100Z 34005KT 15SM SCT081 SCT200 24/04 A2981 RMK CU3CI1 SLP094

CYQF;2012-06-12 22:00;CYQF 122200Z 31006KT 15SM SCT075 SCT100 23/04 A2979 RMK CU3AC1 CB TOP NW+NE SLP089

CYQF;2012-06-12 23:00;CYQF 122300Z 22002KT 15SM FEW075 SCT100 24/04 A2977 RMK CU2AC2 SLP082

CYQF;2012-06-13 00:00;CYQF 130000Z 00000KT 15SM FEW080 FEW150 24/04 A2975 RMK CU2AC1 SLP078

CYQF;2012-06-13 01:00;CYQF 130100Z 00000KT 15SM FEW080 FEW150 24/03 A2974 RMK CU1AC1 SLP075

CYQF;2012-06-13 02:00;CYQF 130200Z 12002KT 15SM FEW070 SCT120 22/05 A2973 RMK CU1AC2 SLP070

CYQF;2012-06-13 03:00;CYQF 130300Z 00000KT 15SM BKN070 21/07 A2971 RMK AC6 OBS TAKEN +10 SLP060

CYQF;2012-06-13 04:00;CYQF 130400Z 10004KT 15SM BKN070 19/07 A2971 RMK AC5 ACC VIRGA SLP059

CYQF;2012-06-13 05:00;CYQF 130500Z 06006KT 15SM BKN060 17/10 A2972 RMK SC6 TCU ASOCTD SLP061

CYQF;2012-06-13 06:00;CYQF 130600Z 02010G16KT 15SM BKN060 16/10 A2973 RMK SC6 SLP064

CYQF;2012-06-13 07:00;CYQF 130700Z 03014G20KT 15SM BKN060 14/10 A2972 RMK SC6 TCU ASOCTD SLP061

CYQF;2012-06-13 08:00;CYQF 130800Z 32010KT 15SM SCT060 BKN090 14/09 A2975 RMK SC4AC3 SLP072

CYQF;2012-06-13 09:00;CYQF 130900Z 36010KT 15SM SCT060 BKN090 13/09 A2974 RMK SC3AC4 SLP068

CYQF;2012-06-13 10:00;CYQF 131000Z 03008KT 15SM FEW060 BKN090 12/09 A2973 RMK SC2AC2 SLP065

CYQF;2012-06-13 11:00;CYQF 131100Z 03012KT 15SM FEW060 SCT090 BKN250 13/09 A2971 RMK SC2AC1CI2 TCU ASOCTD SLP059

CYQF;2012-06-13 12:00;CYQF 131200Z 24007KT 15SM SCT060 SCT100 BKN250 13/09 A2971 RMK SC3AC1CI1 TCU ASOCTD SLP059

CYQF;2012-06-13 13:00;CYQF 131300Z 34006KT 15SM FEW060 SCT090 BKN250 12/10 A2970 RMK SC2AC2CI2 SLP056

CYQF;2012-06-13 14:00;CYQF 131400Z 01006KT 15SM FEW050TCU BKN090 BKN250 14/10 A2970 RMK TCU2AC2CI1 ACC SLP055

CYQF;2012-06-13 15:00;CYQF 131500Z 32004KT 15SM FEW024 SCT100 SCT250 16/10 A2969 RMK CU1AC2CI0 ACC ASOCTD CB DIST W SLP053

CYQF;2012-06-13 16:00;CYQF 131600Z 33010KT 15SM FEW023 BKN100 BKN250 16/10 A2969 RMK CU1AC5CI1 ACC ASOCTD SLP052

CYQF;2012-06-13 17:00;CYQF 131700Z 36010KT 15SM FEW030 SCT100 BKN250 17/10 A2969 RMK CU2AC2CI1 ACC ASOCTD CB DIST W SLP053

CYQF;2012-06-13 18:00;CYQF 131800Z 01012KT 15SM SCT032TCU BKN250 18/10 A2968 RMK TCU4CI1 CB TOP DIST W SLP052

CYQF;2012-06-13 19:00;CYQF 131900Z 36010KT 15SM BKN037TCU BKN250 19/10 A2967 RMK TCU5CI1 CB TOPS SW-W SLP047

CYQF;2012-06-13 20:00;CYQF 132000Z 36010KT 15SM SCT041TCU BKN250 20/09 A2966 RMK TCU4CI1 CB ASOCTD ALQDS SLP046

CYQF;2012-06-13 21:00;CYQF 132100Z 36010G15KT 15SM BKN033CB BKN250 18/10 A2966 RMK CB6CI0 OCNL LTNG W SLP049

CYQF;2012-06-13 21:22;CYQF 132122Z 34010KT 15SM -TSRA BKN032CB BKN250 RMK CB6CI1 OCNL LTNG SE-S-W

CYQF;2012-06-13 21:31;CYQF 132131Z 33009KT 15SM TS BKN032CB BKN250 RMK CB6CI1 OCNL LTNG SE-S-W

CYQF;2012-06-13 21:48;CYQF 132148Z 27015G20KT 15SM TS BKN030CB BKN250 RMK CB6CI1 OCNL LTNG WND SHFT

CYQF;2012-06-13 22:00;CYQF 132200Z 29015G20KT 15SM TS VCSH FEW010 BKN025CB OVC100 13/08 A2970 RMK CF1CB6AC1 LTGCG SLP060

CYQF;2012-06-13 22:47;CYQF 132247Z 29015G20KT 15SM -SHRA FEW010 BKN020CB OVC100 RETS RMK CF1CB5AC2

CYQF;2012-06-13 23:00;CYQF 132300Z 29015G20KT 15SM -SHRA FEW010 BKN020CB OVC100 12/10 A2973 RETS RMK CF1CB5AC2 SLP069

CYQF;2012-06-13 23:29;CYQF 132329Z 30015G23KT 6SM -TSRA FEW010 SCT020CB OVC100 RMK CF1CB2AC5

CYQF;2012-06-14 00:00;CYQF 140000Z 27010KT 10SM -SHRA SCT020 OVC080 12/10 A2975 RETS RMK SC3AC5 TCU EMBD SLP084

CYQF;2012-06-14 01:00;CYQF 140100Z 25007KT 15SM -SHRA SCT025 OVC080 12/10 A2973 RMK SC3AC4 SLP080

CYQF;2012-06-14 01:08;CYQF 140108Z 26005KT 15SM SCT025 BKN080 OVC250 RMK SC3AC3CI1

CYQF;2012-06-14 02:00;CYQF 140200Z 29010KT 15SM FEW025 BKN100 OVC250 13/11 A2975 RMK SC2AC3CI2 SLP085

CYQF;2012-06-14 03:00;CYQF 140300Z 28005KT 15SM SCT030 BKN100 OVC250 13/11 A2976 RMK SC4AC2CI2 SLP085

CYQF;2012-06-14 04:00;CYQF 140400Z 30008KT 15SM FEW030 SCT100 BKN250 13/10 A2977 RMK SC2AC1CI2 SLP087

CYQF;2012-06-14 05:00;CYQF 140500Z 32007KT 15SM FEW015 BKN060 13/09 A2980 RMK CU1SC5 SLP096

CYQF;2012-06-14 06:00;CYQF 140600Z 31010G15KT 15SM BKN100 12/08 A2981 RMK AC6 SLP101

CYQF;2012-06-14 07:00;CYQF 140700Z 30008KT 15SM SCT100 12/08 A2981 RMK AC3 SLP100

CYQF;2012-06-14 08:00;CYQF 140800Z 28007KT 15SM BKN100 11/08 A2982 RMK AC6 SLP102

CYQF;2012-06-14 09:00;CYQF 140900Z 29010G15KT 15SM BKN100 11/07 A2982 RMK AC6 SLP105

CYQF;2012-06-14 10:00;CYQF 141000Z 30010G15KT 15SM BKN100 11/07 A2983 RMK AC6 SLP108

CYQF;2012-06-14 11:00;CYQF 141100Z 30010KT 15SM FEW070 BKN120 10/06 A2985 RMK AC2AC2 SLP113

CYQF;2012-06-14 12:00;CYQF 141200Z 30006KT 15SM FEW070 BKN120 BKN250 09/06 A2985 RMK AC1AC4CI1 SLP125

CYQF;2012-06-14 13:00;CYQF 141300Z 29008KT 15SM BKN120 10/06 A2986 RMK AC2 SLP128

CYQF;2012-06-14 14:00;CYQF 141400Z 30011KT 15SM FEW120 12/06 A2987 RMK AC2 SLP129

CYQF;2012-06-14 15:00;CYQF 141500Z 32008KT 15SM SCT120 SCT240 14/05 A2988 RMK AC3CI1 SLP128

CYQF;2012-06-14 16:00;CYQF 141600Z 33007KT 15SM FEW040 SCT100 BKN250 15/05 A2988 RMK CU1AC2CI1 SLP127

CYQF;2012-06-14 17:00;CYQF 141700Z 29005KT 15SM FEW048 FEW100 FEW250 16/04 A2987 RMK CU1AC1CI1 SLP124

CYQF;2012-06-14 18:00;CYQF 141800Z 30005KT 15SM FEW050 FEW100 SCT250 16/05 A2986 RMK CU2AC1CI1 SLP120

CYQF;2012-06-14 19:00;CYQF 141900Z 00000KT 15SM FEW055 SCT250 17/04 A2985 RMK CU2CI1 SLP117

CYQF;2012-06-14 20:00;CYQF 142000Z 34002KT 15SM FEW055 FEW090 BKN260 18/05 A2984 RMK CU2AC1CI1 SLP112

CYQF;2012-06-14 21:00;CYQF 142100Z 21003KT 15SM BKN057 BKN250 18/04 A2983 RMK CU5CI1 CB TOPS DIST SW-W SLP108

CYQF;2012-06-14 22:00;CYQF 142200Z 00000KT 15SM FEW055 BKN150 18/05 A2982 RMK CU2AS5 SHWRS DIST SW-W SLP105

CYQF;2012-06-14 23:00;CYQF 142300Z 19007KT 15SM VCSH BKN050CB OVC120 16/04 A2982 RMK CB6AC2 SLP106

CYQF;2012-06-14 23:23;CYQF 142323Z 33010G15KT 15SM TS VCSH BKN050CB OVC120 RMK CB6AC2

CYQF;2012-06-14 23:36;CYQF 142336Z 26015G20KT 15SM -TSRA BKN020CB OVC120 RMK CB6AC2 WND SHFT VIS SE-SW 2

CYQF;2012-06-14 23:55;CYQF 142355Z 26010G15KT 2SM -TSRA OVC020CB RMK CB8

CYQF;2012-06-15 00:00;CYQF 150000Z 26006KT 2 1/2SM -TSRA BR OVC020CB 10/09 A2988 RMK CB8 SLP136

CYQF;2012-06-15 00:10;CYQF 150010Z 32010KT 5SM -SHRA BR OVC020CB RMK CB8 WIND SHIFT

CYQF;2012-06-15 01:00;CYQF 150100Z 33008KT 8SM -SHRA FEW005 OVC020 11/09 A2986 RMK SF1SC8 SLP131

CYQF;2012-06-15 02:00;CYQF 150200Z 02010KT 15SM -SHRA FEW005 SCT020 OVC050 11/09 A2985 RMK SF1SC2SC5 SLP128

CYQF;2012-06-15 03:00;CYQF 150300Z 03010KT 15SM -SHRA FEW005 SCT020 OVC050 10/08 A2986 RMK SF1SC2SC5 SLP125

CYQF;2012-06-15 04:00;CYQF 150400Z 01005KT 15SM -SHRA FEW020 OVC050 10/08 A2987 RMK SC2SC6 SLP127

CYQF;2012-06-15 05:00;CYQF 150500Z 02010KT 15SM -SHRA BKN012 OVC050 09/08 A2986 RMK SC5SC3 SLP124

CYQF;2012-06-15 06:00;CYQF 150600Z 35006KT 15SM -RA FEW012 OVC050 09/08 A2988 RMK SC2SC6 SLP130

CYQF;2012-06-15 06:52;CYQF 150652Z 34005KT 10SM -RA SCT004 OVC050 RMK SF3SC5

CYQF;2012-06-15 07:00;CYQF 150700Z 33004KT 10SM -RA SCT004 OVC050 09/08 A2989 RMK SF3SC5 SLP133

CYQF;2012-06-15 07:43;CYQF 150743Z 35003KT 8SM -RA BKN007 OVC050 RMK SF6SC2 CIG RAG

CYQF;2012-06-15 08:00;CYQF 150800Z 35007KT 8SM -RA BKN007 OVC040 09/08 A2990 RMK SF6SC2 CIG RAG SLP137

CYQF;2012-06-15 09:00;CYQF 150900Z 01010KT 10SM -RA SCT007 OVC040 08/06 A2992 RMK SF3SC5 SLP143

CYQF;2012-06-15 10:00;CYQF 151000Z 33006KT 10SM -RA OVC040 08/06 A2993 RMK SC8 SLP146

CYQF;2012-06-15 11:00;CYQF 151100Z 34010KT 10SM -RA OVC040 08/06 A2994 RMK SC8 SLP149

CYQF;2012-06-15 12:00;CYQF 151200Z 33014G22KT 8SM -RA FEW006 OVC040 08/06 A2996 RMK SF2SC6 /R11/ SLP166

CYQF;2012-06-15 13:00;CYQF 151300Z 34010KT 8SM -RA FEW008 OVC040 07/06 A2998 RMK SF2SC6 SLP173

CYQF;2012-06-15 14:00;CYQF 151400Z 30009KT 8SM -RA FEW007 OVC040 08/07 A3000 RMK SF2SC6 SLP177

CYQF;2012-06-15 15:00;CYQF 151500Z 29012KT 15SM -RA FEW007 BKN040 09/07 A3001 RMK SF2SC6 SLP182

CYQF;2012-06-15 16:00;CYQF 151600Z 31010G15KT 15SM FEW012 BKN040 BKN100 10/07 A3002 RMK CF1SC4AC1 SLP185

CYQF;2012-06-15 17:00;CYQF 151700Z 32010G15KT 15SM BKN020 BKN250 12/08 A3004 RMK CU6CI1 SLP190

CYQF;2012-06-15 18:00;CYQF 151800Z 35015G20KT 15SM BKN028 13/06 A3004 RMK CU6 SLP188

CYQF;2012-06-15 19:00;CYQF 151900Z 34010G15KT 15SM BKN032 14/06 A3005 RMK CU6 SLP190

CYQF;2012-06-15 20:00;CYQF 152000Z 34008KT 15SM SCT032 BKN080 15/07 A3006 RMK CU4AC2 TCU ASOCTD N-NE SLP194

CYQF;2012-06-15 21:00;CYQF 152100Z 30008KT 15SM SCT045 BKN080 16/05 A3005 RMK CU4AC2 SLP192

CYQF;2012-06-15 22:00;CYQF 152200Z 32010KT 15SM SCT048 BKN090 16/04 A3006 RMK CU4AC2 FEW TCU SLP194

CYQF;2012-06-15 23:00;CYQF 152300Z 33010KT 15SM FEW040 SCT090 17/04 A3006 RMK CU2AC1 SLP195

CYQF;2012-06-16 00:00;CYQF 160000Z 00000KT 15SM FEW040 FEW250 17/06 A3005 RMK CU2CI1 SLP191

CYQF;2012-06-16 01:00;CYQF 160100Z 00000KT 15SM FEW045 FEW250 16/05 A3005 RMK CU1CI1 SLP191

CYQF;2012-06-16 02:00;CYQF 160200Z 12004KT 15SM FEW040 FEW250 16/06 A3006 RMK CU1CI1 OB TAKEN +10 SLP193

CYQF;2012-06-16 03:00;CYQF 160300Z 14003KT 15SM FEW040 FEW250 16/05 A3007 RMK CU1CI0 SLP196

CYQF;2012-06-16 04:00;CYQF 160400Z 14003KT 15SM FEW040 FEW250 13/06 A3007 RMK SC1CI0 SLP196

CYQF;2012-06-16 05:00;CYQF 160500Z 15006KT 15SM FEW060 FEW250 12/07 A3006 RMK SC1CI1 SLP195

CYQF;2012-06-16 06:00;CYQF 160600Z 16005KT 15SM FEW040 10/07 A3006 RMK SC2 SLP195

CYQF;2012-06-16 07:00;CYQF 160700Z 18004KT 15SM FEW040 09/06 A3005 RMK SC1 SLP193

CYQF;2012-06-16 08:00;CYQF 160800Z 19002KT 15SM SKC 09/05 A3004 RMK SLP189

CYQF;2012-06-16 09:00;CYQF 160900Z 00000KT 15SM SKC 09/05 A3002 RMK SLP177

CYQF;2012-06-16 10:00;CYQF 161000Z 17005KT 15SM SCT250 09/05 A2998 RMK CI2 SLP167

CYQF;2012-06-16 11:00;CYQF 161100Z 17007KT 15SM FEW100 SCT250 08/06 A2995 RMK AC1CI1 SLP157

CYQF;2012-06-16 12:00;CYQF 161200Z 17010KT 15SM BKN250 09/06 A2992 RMK CI3 SLP144

CYQF;2012-06-16 13:00;CYQF 161300Z 15007KT 15SM BKN100 BKN250 09/06 A2990 RMK AS5CI2 SLP138

CYQF;2012-06-16 14:00;CYQF 161400Z 18005KT 15SM OVC100 10/06 A2988 RMK AS8 SLP132

CYQF;2012-06-16 15:00;CYQF 161500Z 22005KT 12SM FEW030 OVC060 11/07 A2988 RMK SC2SC6 VIRGA SLP129

CYQF;2012-06-16 15:12;CYQF 161512Z 22005KT 10SM -RA FEW030 OVC060 RMK SC2SC6

CYQF;2012-06-16 16:00;CYQF 161600Z 00000KT 10SM -RA FEW030 OVC060 11/08 A2987 RMK SC2SC6 SLP125

CYQF;2012-06-16 17:00;CYQF 161700Z 10004KT 15SM FEW030 BKN060 OVC250 13/09 A2984 RMK SC2SC5CI2 SLP116

CYQF;2012-06-16 18:00;CYQF 161800Z 12005KT 15SM FEW030 SCT070 BKN250 17/09 A2982 RMK CU1AC4CI2 SLP107

CYQF;2012-06-16 19:00;CYQF 161900Z 16008KT 15SM FEW040 BKN120 BKN250 18/08 A2979 RMK CU1AC5CI1 SLP098

CYQF;2012-06-16 20:00;CYQF 162000Z 19011KT 15SM FEW040 SCT120 BKN250 19/09 A2977 RMK CU1AC4CI2 SLP092

CYQF;2012-06-16 21:00;CYQF 162100Z 17010KT 15SM FEW120 FEW250 20/11 A2973 RMK AC1CI1 SLP073

CYQF;2012-06-16 22:00;CYQF 162200Z 13010KT 15SM FEW120 BKN250 22/09 A2971 RMK AC1CI2 SLP067

CYQF;2012-06-16 23:00;CYQF 162300Z 15008KT 15SM FEW050 SCT120 BKN250 22/10 A2970 RMK CU1AC2CI1 SLP065

CYQF;2012-06-17 00:00;CYQF 170000Z 14005KT 15SM FEW050 SCT120 BKN250 23/10 A2968 RMK CU1AC2CI2 SLP056

CYQF;2012-06-17 01:00;CYQF 170100Z 15008KT 15SM FEW050 BKN120 BKN250 22/11 A2964 RMK CU1AC4CI1 SLP041

CYQF;2012-06-17 02:00;CYQF 170200Z 15008KT 15SM FEW050 BKN100 BKN250 21/12 A2964 RMK CU1AC5CI2 SLP041

CYQF;2012-06-17 03:00;CYQF 170300Z 16005KT 15SM FEW050 SCT100 BKN250 20/12 A2962 RMK CU1AC3CI2 SLP033

CYQF;2012-06-17 04:00;CYQF 170400Z 18005KT 15SM BKN090 BKN250 17/12 A2960 RMK AC6CI2 SLP027

CYQF;2012-06-17 05:00;CYQF 170500Z 18002KT 15SM BKN100 BKN250 17/12 A2960 RMK AC6CI2 SLP028

CYQF;2012-06-17 06:00;CYQF 170600Z 00000KT 15SM BKN100 16/12 A2958 RMK AC7 SLP018

CYQF;2012-06-17 07:00;CYQF 170700Z 00000KT 15SM BKN100 14/12 A2956 RMK AC7 SLP012

CYQF;2012-06-17 08:00;CYQF 170800Z 24004KT 15SM OVC100 15/11 A2955 RMK AC8 SLP007

CYQF;2012-06-17 09:00;CYQF 170900Z 28006KT 15SM BKN100 15/09 A2954 RMK AC6 SLP002

CYQF;2012-06-17 10:00;CYQF 171000Z 00000KT 15SM BKN090 15/07 A2953 RMK AC5 SLP997

CYQF;2012-06-17 11:00;CYQF 171100Z 27005KT 15SM BKN090 BKN250 13/08 A2953 RMK AC6CI1 SLP998

CYQF;2012-06-17 12:00;CYQF 171200Z 01006KT 15SM FEW090 BKN250 13/07 A2955 RMK AC2CI2 SLP003

CYQF;2012-06-17 13:00;CYQF 171300Z 36004KT 15SM FEW100 BKN250 14/08 A2954 RMK AC2CI2 SLP002

CYQF;2012-06-17 14:00;CYQF 171400Z 33005KT 15SM FEW030 BKN070 BKN250 15/08 A2954 RMK CU1AC6CI1 VIRGA SLP001

CYQF;2012-06-17 15:00;CYQF 171500Z 33004KT 15SM FEW030 BKN070 BKN250 14/08 A2955 RMK CU1AC6CI1 VIRGA SLP006

CYQF;2012-06-17 16:00;CYQF 171600Z 33005KT 15SM FEW030 SCT070 BKN250 16/09 A2955 RMK CU1AC3CI2 SLP006

CYQF;2012-06-17 17:00;CYQF 171700Z 34010G15KT 15SM FEW035 SCT080 BKN260 17/08 A2954 RMK CU2AC2CI2 SLP002

CYQF;2012-06-17 18:00;CYQF 171800Z 36008KT 15SM FEW040 BKN080 BKN260 18/08 A2954 RMK CU2AC3CI2 SLP001

CYQF;2012-06-17 19:00;CYQF 171900Z 32006KT 15SM VCSH SCT040TCU BKN060 BKN120 17/07 A2954 RMK TCU3SC2AC2 SLP002

CYQF;2012-06-17 19:40;CYQF 171940Z 28018G25KT 15SM -SHRA BKN030TCU BKN080 RMK TCU6AC2

CYQF;2012-06-17 20:00;CYQF 172000Z 24010KT 15SM -SHRA BKN030TCU BKN080 14/09 A2955 RMK TCU6AC2 SLP006

CYQF;2012-06-17 21:00;CYQF 172100Z 28005KT 15SM -SHRA BKN030TCU BKN080 BKN240 14/07 A2956 RMK TCU5AC2CI1 SLP016

CYQF;2012-06-17 21:17;CYQF 172117Z 20004KT 15SM SCT030TCU BKN080 BKN240 RMK TCU3AC2CI1

CYQF;2012-06-17 22:00;CYQF 172200Z 00000KT 15SM FEW030TCU SCT080 BKN250 17/09 A2953 RMK TCU2AC2CI2 SLP005

CYQF;2012-06-17 23:00;CYQF 172300Z 18003KT 15SM FEW030 SCT080 BKN250 17/09 A2951 RMK CU2AC2CI2 SLP001

CYQF;2012-06-18 00:00;CYQF 180000Z 20005KT 15SM FEW040CB FEW080 BKN250 18/07 A2950 RMK CB2AC1CI2 SLP991

CYQF;2012-06-18 01:00;CYQF 180100Z 26002KT 15SM FEW040CB BKN250 18/07 A2950 RMK CB2CI2 SLP991

CYQF;2012-06-18 02:00;CYQF 180200Z 30005KT 15SM VCSH FEW020 SCT040CB BKN250 17/08 A2951 RMK CF1CB2CI2 SLP994

CYQF;2012-06-18 02:41;CYQF 180241Z 18010KT 15SM -TSRA FEW020 BKN040CB BKN250 RMK CF1CB4CI2

CYQF;2012-06-18 03:00;CYQF 180300Z 21005KT 15SM FEW020 SCT040CB BKN250 16/07 A2951 RETS RMK CF1CB3CI2 CB S SLP996

CYQF;2012-06-18 04:00;CYQF 180400Z 00000KT 15SM VCSH FEW020 BKN050 BKN250 13/09 A2951 RMK CF1CU4CI1 SLP997

CYQF;2012-06-18 05:00;CYQF 180500Z 24004KT 15SM FEW050 BKN090 BKN250 12/09 A2954 RMK CU2AC2CI2 SLP004

CYQF;2012-06-18 06:00;CYQF 180600Z 00000KT 15SM FEW050 BKN090 BKN250 12/09 A2954 RMK CU2AC2CI1 SLP008

CYQF;2012-06-18 07:00;CYQF 180700Z 28004KT 15SM FEW050 BKN090 BKN250 12/08 A2954 RMK CU2AC2CI2 SLP008

CYQF;2012-06-18 08:00;CYQF 180800Z 32013KT 15SM FEW050 BKN100 12/08 A2956 RMK SC2AC4 SLP013

CYQF;2012-06-18 09:00;CYQF 180900Z 02007KT 15SM FEW050 BKN100 12/07 A2956 RMK SC2AC5 SLP018

CYQF;2012-06-18 10:00;CYQF 181000Z 30004KT 15SM FEW050 BKN100 11/08 A2957 RMK SC2AC6 SLP021

CYQF;2012-06-18 10:29;CYQF 181029Z 32010KT 15SM -RA SCT050 BKN100 RMK SC3AC4

CYQF;2012-06-18 11:00;CYQF 181100Z 31008KT 10SM -RA BKN050 OVC100 10/08 A2959 RMK SC5AC3 SLP029

CYQF;2012-06-18 12:00;CYQF 181200Z 34006KT 10SM -RA BKN055 OVC100 10/08 A2960 RMK SC6AC2 SLP029

CYQF;2012-06-18 13:00;CYQF 181300Z 00000KT 10SM -RA BKN055 OVC100 10/08 A2959 RMK SC5AC2 RERA SLP028

CYQF;2012-06-18 14:00;CYQF 181400Z 31003KT 15SM SCT055 BKN100 BKN250 10/09 A2960 RMK SC3AC2CI1 SLP029

CYQF;2012-06-18 15:00;CYQF 181500Z 31005KT 15SM FEW055 SCT100 BKN250 12/08 A2959 RMK SC2AC2CI2 SLP028

CYQF;2012-06-18 16:00;CYQF 181600Z 33005KT 15SM FEW021TCU FEW055 SCT100 BKN250 13/08 A2960 RMK TCU1SC2AC2CI1 CB DIST W SLP029

CYQF;2012-06-18 17:00;CYQF 181700Z 32007KT 15SM BKN028TCU BKN250 14/08 A2960 RMK TCU5CI1 VIRGA SLP029

CYQF;2012-06-18 18:00;CYQF 181800Z 03006KT 15SM BKN030TCU BKN250 15/07 A2960 RMK TCU5CI1 SLP030

CYQF;2012-06-18 19:00;CYQF 181900Z 35003KT 15SM BKN036TCU BKN250 16/07 A2960 RMK TCU5CI1 CB ASOCTD OCNL LTNG DIST N SLP030

CYQF;2012-06-18 19:43;CYQF 181943Z 30010KT 15SM TS BKN033CB BKN250 RMK CB6CI2 WND SHFT

CYQF;2012-06-18 20:00;CYQF 182000Z 33010KT 15SM TS VCSH OVC027CB 14/08 A2961 RMK CB8 SHWRS ALQDS SLP035

CYQF;2012-06-18 20:20;CYQF 182020Z 30013KT 15SM -TSRA OVC025CB RMK CB8

CYQF;2012-06-18 21:00;CYQF 182100Z 27008KT 15SM BKN025CB 13/08 A2961 RETS RMK CB7 SLP035

CYQF;2012-06-18 22:00;CYQF 182200Z 22006KT 15SM FEW030CB BKN210 15/08 A2961 RMK CB2CI3 SLP036

CYQF;2012-06-18 23:00;CYQF 182300Z 23008KT 15SM FEW030CB BKN210 17/09 A2963 RMK CB2CI2 SLP042

CYQF;2012-06-19 00:00;CYQF 190000Z 27010KT 15SM FEW035CB FEW120 BKN250 16/07 A2963 RMK CB2AC1CI2 SLP044

CYQF;2012-06-19 01:00;CYQF 190100Z 00000KT 15SM FEW040 FEW120 BKN250 17/05 A2964 RMK CU2AC1CI1 SLP045

CYQF;2012-06-19 02:00;CYQF 190200Z 31005KT 15SM FEW040 SCT120 BKN250 16/07 A2965 RMK CU2AC2CI2 SLP049

CYQF;2012-06-19 03:00;CYQF 190300Z 35008KT 15SM FEW030 FEW120 BKN250 15/07 A2967 RMK CU1AC2CI2 SLP054

CYQF;2012-06-19 04:00;CYQF 190400Z 29005KT 15SM FEW020 FEW100 BKN250 13/08 A2968 RMK SC1AC1CI2 SLP059

CYQF;2012-06-19 05:00;CYQF 190500Z 27007KT 15SM FEW030 BKN250 11/07 A2969 RMK SC2CI1 TCU ASOCTD N SLP061

CYQF;2012-06-19 06:00;CYQF 190600Z 31006KT 15SM FEW030 BKN250 10/07 A2970 RMK SC2CI1 SLP067

CYQF;2012-06-19 07:00;CYQF 190700Z 30002KT 15SM FEW030 SCT250 09/07 A2971 RMK SC2CI0 SLP070

CYQF;2012-06-19 08:00;CYQF 190800Z 27004KT 15SM FEW040 SCT250 09/07 A2971 RMK SC2CI0 SLP072

CYQF;2012-06-19 09:00;CYQF 190900Z 31007KT 15SM FEW040 SCT250 10/07 A2972 RMK SC2CI0 SLP076

CYQF;2012-06-19 10:00;CYQF 191000Z 28008KT 15SM FEW040 SCT250 10/07 A2972 RMK SC2CI0 SLP075

CYQF;2012-06-19 11:00;CYQF 191100Z 30004KT 15SM FEW040 SCT250 09/07 A2974 RMK SC2CI0 SLP081

CYQF;2012-06-19 12:00;CYQF 191200Z 30004KT 15SM FEW040 BKN250 09/07 A2975 RMK SC2CI1 SLP083

CYQF;2012-06-19 13:00;CYQF 191300Z 33005KT 15SM FEW040 BKN250 11/07 A2976 RMK SC2CI1 SLP088

CYQF;2012-06-19 14:00;CYQF 191400Z 33008KT 15SM FEW015 FEW040 BKN250 12/08 A2977 RMK CU2SC1CI0 SLP091

CYQF;2012-06-19 15:00;CYQF 191500Z 34010KT 15SM BKN017 BKN250 12/08 A2978 RMK CU6CI2 SLP093

CYQF;2012-06-19 16:00;CYQF 191600Z 31010G15KT 15SM BKN018 13/08 A2979 RMK CU7 SLP095

CYQF;2012-06-19 17:00;CYQF 191700Z 33014KT 15SM FEW010 BKN019 OVC220 13/08 A2979 RMK CF1CU6CI1 TCU EMBD SLP095

CYQF;2012-06-19 18:00;CYQF 191800Z 32010G15KT 15SM BKN026 OVC050 15/08 A2980 RMK CU6SC2 TCU EMBDD SLP101

CYQF;2012-06-19 19:00;CYQF 191900Z 32010G15KT 15SM BKN022 OVC050 14/09 A2981 RMK CU6SC2 TCU EMBDD SLP104

CYQF;2012-06-19 20:00;CYQF 192000Z 32010G15KT 12SM -SHRA BKN015 BKN050 14/10 A2981 RMK CU6SC2 SLP104

CYQF;2012-06-19 20:13;CYQF 192013Z 33010G15KT 15SM VCSH BKN015TCU BKN050 RMK TCU5SC1

CYQF;2012-06-19 21:00;CYQF 192100Z 32017G22KT 15SM -SHRA BKN015TCU BKN050 15/09 A2982 RMK TCU7SC1 SLP109

CYQF;2012-06-19 22:00;CYQF 192200Z 34015G20KT 15SM -SHRA BKN015TCU BKN050 14/11 A2984 RMK TCU6SC2 SLP115

CYQF;2012-06-19 22:23;CYQF 192223Z 33015G20KT 15SM VCSH BKN015TCU BKN050 RMK TCU5SC2

CYQF;2012-06-19 23:00;CYQF 192300Z 34010G15KT 15SM SCT015 BKN070 15/10 A2985 RMK CU4AC2 SLP120

CYQF;2012-06-20 00:00;CYQF 200000Z 01010KT 15SM -SHRA BKN015 BKN210 13/09 A2987 RMK CU6CI1 SLP131

CYQF;2012-06-20 00:35;CYQF 200035Z 33015G20KT 15SM BKN015 BKN210 RMK CU6CI1

CYQF;2012-06-20 01:00;CYQF 200100Z 32015G20KT 15SM BKN015 BKN210 15/09 A2988 RMK CU5CI2 SLP133

CYQF;2012-06-20 02:00;CYQF 200200Z 33010G15KT 15SM FEW015CB BKN210 15/08 A2991 RMK CB2CI1 SLP143

CYQF;2012-06-20 03:00;CYQF 200300Z 33010G15KT 15SM FEW015CB SCT210 13/08 A2994 RMK CB2CI0 SLP149

CYQF;2012-06-20 04:00;CYQF 200400Z 31010KT 15SM FEW015 BKN080 BKN210 12/08 A2996 RMK CU2AC3CI0 SLP157

CYQF;2012-06-20 05:00;CYQF 200500Z 30010KT 15SM FEW015 BKN080 BKN210 12/09 A2997 RMK CU2AC3CI1 CB DIST N SLP161

CYQF;2012-06-20 06:00;CYQF 200600Z 28006KT 15SM FEW015 SCT080 BKN210 12/09 A2999 RMK SC2AC2CI1 CB TOP N SLP166

CYQF;2012-06-20 07:00;CYQF 200700Z 30008KT 15SM FEW080 SCT210 10/08 A3000 RMK AC2CI1 SLP170

CYQF;2012-06-20 08:00;CYQF 200800Z 31007KT 15SM FEW080 SCT210 10/07 A3001 RMK AC2CI1 SLP173

CYQF;2012-06-20 09:00;CYQF 200900Z 29008KT 15SM FEW080 FEW210 10/07 A3001 RMK AC2CI0 SLP176

CYQF;2012-06-20 10:00;CYQF 201000Z 30010KT 15SM FEW070 SCT210 09/06 A3002 RMK AC2CI0 SLP178

CYQF;2012-06-20 11:00;CYQF 201100Z 29008KT 15SM FEW070 SCT210 09/06 A3003 RMK AC2CI1 SLP182

CYQF;2012-06-20 12:00;CYQF 201200Z 30008KT 15SM FEW070 SCT210 09/07 A3005 RMK AC2CI0 SLP194

CYQF;2012-06-20 13:00;CYQF 201300Z 30008KT 15SM FEW070 SCT210 10/07 A3008 RMK AC2CI0 SLP201

CYQF;2012-06-20 14:00;CYQF 201400Z 31010KT 15SM SCT070 BKN220 12/08 A3008 RMK AC2CI1 SLP202

CYQF;2012-06-20 15:00;CYQF 201500Z 33010KT 15SM FEW020 SCT080 SCT240 12/07 A3010 RMK CF1AC1CI1 SLP205

CYQF;2012-06-20 16:00;CYQF 201600Z 33005KT 15SM FEW024 FEW090 FEW250 15/09 A3010 RMK CU1AC1CI1 SLP206

CYQF;2012-06-20 17:00;CYQF 201700Z 30010KT 15SM SCT032 16/08 A3009 RMK CU3 SLP204

CYQF;2012-06-20 18:00;CYQF 201800Z 33010KT 15SM BKN036TCU 17/08 A3009 RMK TCU5 SLP199

CYQF;2012-06-20 19:00;CYQF 201900Z 33008KT 15SM BKN040TCU 17/07 A3009 RMK TCU6 SLP199

CYQF;2012-06-20 20:00;CYQF 202000Z 34006KT 15SM BKN040TCU 17/07 A3008 RMK TCU5 SLP195

CYQF;2012-06-20 21:00;CYQF 202100Z 28007KT 15SM SCT040TCU 18/06 A3007 RMK TCU3 CB/SH DIST NW SLP194

CYQF;2012-06-20 22:00;CYQF 202200Z 28010KT 15SM FEW047 SCT250 18/07 A3006 RMK CU2CI1 SHWR W SLP191

CYQF;2012-06-20 23:00;CYQF 202300Z 29006KT 15SM SCT048 BKN250 19/07 A3006 RMK CU4CI2 SHWR W AND NW SLP191

CYQF;2012-06-21 00:00;CYQF 210000Z 33006KT 15SM FEW036 SCT100 BKN250 17/08 A3006 RMK CU2AC2CI1 SLP193

CYQF;2012-06-21 01:00;CYQF 210100Z 29002KT 15SM FEW045CB SCT100 18/07 A3006 RMK CB1AC1 SLP192

CYQF;2012-06-21 02:00;CYQF 210200Z 00000KT 15SM FEW053CB FEW100 19/05 A3006 RMK CB1AC1 AC TR SLP192

CYQF;2012-06-21 03:00;CYQF 210300Z 00000KT 15SM FEW043CB FEW100 FEW250 18/07 A3006 RMK CB1AC1CI1 SLP187

CYQF;2012-06-21 04:00;CYQF 210400Z 00000KT 15SM FEW045 FEW100 FEW250 16/08 A3006 RMK SC1AC1CI1 SLP188

CYQF;2012-06-21 05:00;CYQF 210500Z 20004KT 15SM FEW045 FEW250 13/08 A3007 RMK SC1CI0 SLP191

CYQF;2012-06-21 06:00;CYQF 210600Z 00000KT 15SM FEW045 12/08 A3008 RMK SC1 SLP194

CYQF;2012-06-21 07:00;CYQF 210700Z 23002KT 15SM FEW250 11/08 A3007 RMK CI0 SLP193

CYQF;2012-06-21 08:00;CYQF 210800Z 20003KT 15SM SKC 10/08 A3008 RMK SLP194

CYQF;2012-06-21 09:00;CYQF 210900Z 22004KT 15SM SKC 08/06 A3008 RMK SLP198

CYQF;2012-06-21 10:00;CYQF 211000Z 00000KT 15SM SKC 08/06 A3007 RMK SLP196

CYQF;2012-06-21 11:00;CYQF 211100Z 26002KT 15SM FEW250 07/06 A3008 RMK CI0 MIFG SLP197

CYQF;2012-06-21 12:00;CYQF 211200Z 00000KT 15SM FEW250 07/06 A3007 RMK CI0 SLP198

CYQF;2012-06-21 13:00;CYQF 211300Z 00000KT 15SM FEW250 07/06 A3009 RMK CI1 SLP202

CYQF;2012-06-21 14:00;CYQF 211400Z 00000KT 15SM FEW250 12/09 A3008 RMK CI1 SLP201

CYQF;2012-06-21 15:00;CYQF 211500Z 13002KT 15SM FEW250 16/10 A3008 RMK CI1 OBS TAKEN +18 SLP190

CYQF;2012-06-21 16:00;CYQF 211600Z 14002KT 15SM FEW250 18/11 A3008 RMK CI1 SLP189

CYQF;2012-06-21 17:00;CYQF 211700Z 15003KT 15SM FEW040 FEW250 19/09 A3008 RMK CU1CI1 SLP189

CYQF;2012-06-21 18:00;CYQF 211800Z 12006KT 15SM SCT052 SCT260 20/08 A3007 RMK CU3CI1 SLP190

CYQF;2012-06-21 19:00;CYQF 211900Z 12008KT 15SM BKN051 20/07 A3007 RMK CU5 SLP190

CYQF;2012-06-21 20:00;CYQF 212000Z 14010KT 15SM BKN057 22/07 A3007 RMK CU6 TCU ASOCTD SLP189

CYQF;2012-06-21 21:00;CYQF 212100Z 13003KT 15SM BKN052 22/09 A3005 RMK CU5 TCU ASOCTD SLP185

CYQF;2012-06-21 22:00;CYQF 212200Z 12006KT 15SM BKN056 21/07 A3005 RMK CU5 TCU ASOCTD SLP182

CYQF;2012-06-21 23:00;CYQF 212300Z 12010KT 15SM SCT064 23/08 A3004 RMK CU4 SLP179

CYQF;2012-06-22 00:00;CYQF 220000Z 16002KT 15SM FEW063 BKN250 22/06 A3003 RMK CU2CI1 SLP177

CYQF;2012-06-22 01:00;CYQF 220100Z 12007KT 15SM FEW060 SCT250 22/07 A3002 RMK CU2CI1 SLP174

CYQF;2012-06-22 02:00;CYQF 220200Z 12007KT 15SM FEW060 FEW100 BKN260 21/08 A3001 RMK CU1AC1CI2 SLP172

CYQF;2012-06-22 03:00;CYQF 220300Z 10007KT 15SM FEW100 BKN260 19/10 A3001 RMK AC2CI2 SLP164

CYQF;2012-06-22 04:00;CYQF 220400Z 13005KT 15SM FEW100 BKN250 17/09 A3001 RMK AC2CI2 SLP164

CYQF;2012-06-22 05:00;CYQF 220500Z 13005KT 15SM FEW100 BKN250 16/09 A3001 RMK AC1CI6 SLP165

CYQF;2012-06-22 06:00;CYQF 220600Z 12005KT 15SM OVC250 16/08 A3001 RMK CI8 SLP164

CYQF;2012-06-22 07:00;CYQF 220700Z 14006KT 15SM BKN250 16/08 A3000 RMK CI6 SLP160

CYQF;2012-06-22 08:00;CYQF 220800Z 14002KT 15SM OVC250 14/09 A3000 RMK CI6 SLP159

CYQF;2012-06-22 09:00;CYQF 220900Z 14005KT 15SM FEW100 BKN250 14/09 A2999 RMK AC2CI4 SLP158

CYQF;2012-06-22 10:00;CYQF 221000Z 00000KT 15SM FEW100 BKN250 13/09 A2999 RMK AC1CI3 SLP156

CYQF;2012-06-22 11:00;CYQF 221100Z 17003KT 15SM FEW100 BKN250 13/09 A2998 RMK AC2CI1 SLP153

CYQF;2012-06-22 12:00;CYQF 221200Z 15006KT 15SM SCT080 BKN250 13/09 A2998 RMK AC4CI1 ACC ASOCTD SLP153

CYQF;2012-06-22 13:00;CYQF 221300Z 16003KT 15SM SCT060 BKN080 BKN250 14/10 A2998 RMK SC3ACC2CI2 SLP154

CYQF;2012-06-22 14:00;CYQF 221400Z 12003KT 15SM SCT060 BKN080 BKN250 15/10 A2998 RMK SC3ACC2CI2 VIRGA SLP153

CYQF;2012-06-22 15:00;CYQF 221500Z 10004KT 15SM FEW060 BKN080 BKN250 16/10 A2997 RMK SC1ACC5CI2 VIRGA SLP151

CYQF;2012-06-22 16:00;CYQF 221600Z 13008KT 15SM BKN080 BKN250 17/10 A2997 RMK ACC6CI1 SLP150

CYQF;2012-06-22 17:00;CYQF 221700Z 12007KT 15SM BKN080 BKN250 19/10 A2996 RMK ACC6CI1 SLP148

CYQF;2012-06-22 18:00;CYQF 221800Z 11011KT 15SM SCT080 BKN260 21/11 A2995 RMK ACC4CI1 SLP141

CYQF;2012-06-22 19:00;CYQF 221900Z 14013KT 15SM FEW045 BKN090 BKN260 22/10 A2995 RMK CU1AC5CI1 ACC ASOCTD SLP140

CYQF;2012-06-22 20:00;CYQF 222000Z 16010G15KT 15SM FEW050 BKN090 BKN260 22/09 A2995 RMK CU1AC5CI1 SLP140

CYQF;2012-06-22 21:00;CYQF 222100Z 14010G15KT 15SM FEW050 BKN090 BKN260 22/09 A2994 RMK CU2AC2CI1 SLP139

CYQF;2012-06-22 22:00;CYQF 222200Z 15010G15KT 15SM FEW050 BKN090 BKN260 23/08 A2993 RMK CU2AC2CI2 SLP136

CYQF;2012-06-22 23:00;CYQF 222300Z 13010G15KT 15SM SCT053 BKN100 BKN250 23/10 A2992 RMK CU3AC2CI2 SLP132

CYQF;2012-06-23 00:00;CYQF 230000Z 13008KT 15SM BKN052TCU BKN250 22/09 A2991 RMK TCU5CI2 SLP129

CYQF;2012-06-23 01:00;CYQF 230100Z 14007KT 15SM BKN048TCU OVC250 22/10 A2991 RMK TCU5CI2 SLP128

CYQF;2012-06-23 02:00;CYQF 230200Z 08010G15KT 15SM BKN030TCU OVC250 20/12 A2991 RMK TCU5CI2 SLP129

CYQF;2012-06-23 03:00;CYQF 230300Z 08008KT 15SM FEW030TCU BKN100 OVC250 18/12 A2991 RMK TCU2AC2CI2 SLP131

CYQF;2012-06-23 04:00;CYQF 230400Z 12004KT 15SM BKN090 OVC250 18/12 A2994 RMK AC6CI2 ACC ASOCTD SLP138

CYQF;2012-06-23 05:00;CYQF 230500Z 07004KT 15SM BKN090 OVC250 17/12 A2994 RMK AC5CI2 SLP139

CYQF;2012-06-23 06:00;CYQF 230600Z 21008KT 15SM FEW030 OVC100 16/12 A2994 RMK SC2AC6 SLP136

CYQF;2012-06-23 07:00;CYQF 230700Z 10003KT 15SM FEW030 OVC100 17/11 A2994 RMK SC2AC6 SLP136

CYQF;2012-06-23 08:00;CYQF 230800Z 20002KT 15SM FEW030 OVC090 15/12 A2994 RMK SC2AC6 SLP138

CYQF;2012-06-23 09:00;CYQF 230900Z 00000KT 15SM FEW030 OVC090 15/12 A2995 RMK SC1AC7 SLP140

CYQF;2012-06-23 10:00;CYQF 231000Z 01002KT 15SM FEW030 OVC090 15/12 A2993 RMK SC1AC7 SLP136

CYQF;2012-06-23 11:00;CYQF 231100Z 02003KT 15SM FEW030 OVC090 14/12 A2993 RMK SC1AC7 SLP135

CYQF;2012-06-23 12:00;CYQF 231200Z 02003KT 15SM OVC090 14/12 A2994 RMK AC8 SLP137

CYQF;2012-06-23 13:00;CYQF 231300Z 02004KT 15SM OVC090 15/12 A2995 RMK AC8 SLP140

CYQF;2012-06-23 14:00;CYQF 231400Z 07006KT 15SM OVC090 16/12 A2995 RMK AC8 SLP142

CYQF;2012-06-23 15:00;CYQF 231500Z 06003KT 15SM FEW060 OVC090 16/13 A2997 RMK SC2AC6 SLP151

CYQF;2012-06-23 16:00;CYQF 231600Z 09008KT 15SM FEW024 SCT060 OVC090 18/12 A2998 RMK CU1SC3AC5 SLP153

CYQF;2012-06-23 17:00;CYQF 231700Z 16009KT 15SM FEW036 SCT060 OVC090 19/11 A2999 RMK CU2SC2AC3 SLP157

CYQF;2012-06-23 18:00;CYQF 231800Z 18005KT 15SM FEW036 SCT060 BKN250 19/11 A3000 RMK CU2SC2CI2 SLP159

CYQF;2012-06-23 19:00;CYQF 231900Z 24006KT 15SM SCT036 BKN070 BKN250 20/11 A3000 RMK CU3AC2CI2 SLP159

CYQF;2012-06-23 20:00;CYQF 232000Z 16007KT 15SM VCSH SCT030 BKN070 OVC250 19/12 A2999 RMK CU3AC2CI2 SLP157

CYQF;2012-06-23 21:00;CYQF 232100Z 00000KT 15SM FEW030 BKN070 BKN250 19/12 A2998 RMK CU2AC4CI1 SLP155

CYQF;2012-06-23 22:00;CYQF 232200Z 05005KT 15SM FEW030 BKN070 BKN250 20/13 A2998 RMK CU2AC4CI1 SLP154

CYQF;2012-06-23 23:00;CYQF 232300Z 08005KT 15SM FEW030 BKN080 BKN250 21/12 A2996 RMK CU2AC4CI2 SLP148

CYQF;2012-06-24 00:00;CYQF 240000Z 10008KT 15SM FEW050 BKN080 BKN250 21/11 A2996 RMK SC2AC4CI1 SLP145

CYQF;2012-06-24 01:00;CYQF 240100Z 11007KT 15SM FEW030 BKN080 OVC250 20/11 A2997 RMK SC1AC5CI2 SLP148

CYQF;2012-06-24 02:00;CYQF 240200Z 12005KT 15SM FEW030TCU FEW070 OVC100 19/11 A2998 RMK TCU1AC2AS6 TCU EMBDD W SLP152

CYQF;2012-06-24 03:00;CYQF 240300Z 26005KT 15SM FEW070 BKN100 OVC250 17/13 A2998 RMK AC1AS6CI2 SLP156

CYQF;2012-06-24 04:00;CYQF 240400Z CCA 24003KT 15SM -RA SCT070 BKN100 OVC250 16/13 A3001 RMK AC3AS4CI1 VERY LGT RAIN SLP164

CYQF;2012-06-24 05:00;CYQF 240500Z 28004KT 15SM -RA SCT070 OVC100 15/13 A3002 RMK AC3AS5 SLP167

CYQF;2012-06-24 06:00;CYQF 240600Z 29002KT 15SM -RA OVC100 15/13 A3002 RMK AC8 SLP169

CYQF;2012-06-24 07:00;CYQF 240700Z 00000KT 15SM -RA OVC100 15/13 A3003 RMK AC8 SLP172

CYQF;2012-06-24 08:00;CYQF 240800Z 00000KT 10SM -RA OVC100 15/13 A3006 RMK AC8 SLP181

CYQF;2012-06-24 09:00;CYQF 240900Z 00000KT 10SM -RA OVC100 14/13 A3007 RMK AC8 SLP189

CYQF;2012-06-24 10:00;CYQF 241000Z 02002KT 10SM -RA BKN100 13/12 A3004 RMK AC7 SLP177

CYQF;2012-06-24 10:22;CYQF 241022Z 04005KT 10SM BKN100 RMK AC7

CYQF;2012-06-24 11:00;CYQF 241100Z 06002KT 8SM BKN100 13/12 A3003 RMK AC7 BR SLP174

CYQF;2012-06-24 12:00;CYQF 241200Z 00000KT 15SM BKN100 13/11 A3002 RMK AC6 SLP167

CYQF;2012-06-24 13:00;CYQF 241300Z 10006KT 15SM BKN090 14/11 A3000 RMK AC6 SLP163

CYQF;2012-06-24 14:00;CYQF 241400Z 13010KT 15SM BKN090 15/11 A3000 RMK AC6 SLP162

CYQF;2012-06-24 15:00;CYQF 241500Z 14014KT 15SM BKN090 16/12 A3000 RMK AC6 SLP163

CYQF;2012-06-24 16:00;CYQF 241600Z 14013KT 15SM FEW020 BKN040 17/12 A3001 RMK CU1SC6 SLP164

CYQF;2012-06-24 17:00;CYQF 241700Z 13010KT 15SM FEW024 BKN040 BKN090 18/13 A2998 RMK CU1SC5AC2 SLP157

CYQF;2012-06-24 18:00;CYQF 241800Z 11007KT 15SM FEW024 BKN040 BKN090 19/12 A2993 RMK CU2SC4AC1 SLP139

CYQF;2012-06-24 19:00;CYQF 241900Z 16010KT 15SM SCT025 BKN090 19/13 A2995 RMK SC4AC3 CB EMBDD LTGCG S SLP144

CYQF;2012-06-24 19:08;CYQF 241908Z 17010KT 10SM -TSRA BKN025CB OVC090 RMK CB6AC2 LTGCG

CYQF;2012-06-24 19:33;CYQF 241933Z 00000KT 15SM BKN020 OVC090 RETSRA RMK SC6AC2 VIS N 6

CYQF;2012-06-24 20:00;CYQF 242000Z 00000KT 15SM BKN020 OVC090 18/14 A2993 RETSRA RMK SC6AC2 SLP137

CYQF;2012-06-24 21:00;CYQF 242100Z 00000KT 15SM BKN025 OVC090 17/15 A2994 RMK SC6AC2 SLP144

CYQF;2012-06-24 21:22;CYQF 242122Z 14003KT 15SM -SHRA BKN025 OVC090 RMK SC7AC1

CYQF;2012-06-24 22:00;CYQF 242200Z 00000KT 12SM BKN018TCU OVC090 17/14 A2992 RMK TCU6AC2 SLP139

CYQF;2012-06-24 22:08;CYQF 242208Z 00000KT 12SM BKN018TCU OVC090 RMK TCU6AC2

CYQF;2012-06-24 23:00;CYQF 242300Z 14003KT 12SM BKN016TCU OVC090 17/15 A2994 RMK TCU6AC2 SLP144

CYQF;2012-06-25 00:00;CYQF 250000Z 14003KT 15SM BKN025 17/14 A2992 RMK SC7 CLEARING FROM WEST SLP137

CYQF;2012-06-25 00:10;CYQF 250010Z 14008KT 15SM FEW025 FEW090 FEW250 RMK CU1AC1CI1 CU/CI TR

CYQF;2012-06-25 01:00;CYQF 250100Z 14008KT 15SM BKN016 19/14 A2990 RMK CU7 SLP133

CYQF;2012-06-25 02:00;CYQF 250200Z 19007KT 15SM BKN020 18/14 A2991 RMK SC7 SLP135

CYQF;2012-06-25 03:00;CYQF 250300Z 14006KT 15SM FEW013 FEW020 18/14 A2990 RMK CF1SC1 SLP127

CYQF;2012-06-25 04:00;CYQF 250400Z 14005KT 15SM FEW015 FEW040 16/14 A2990 RMK CU1SC1 SLP128

CYQF;2012-06-25 05:00;CYQF 250500Z 14007KT 15SM SKC 15/13 A2992 RMK SLP132

CYQF;2012-06-25 06:00;CYQF 250600Z 00000KT 15SM SKC 15/13 A2993 RMK SLP137

CYQF;2012-06-25 07:00;CYQF 250700Z 14006KT 15SM SKC 14/12 A2992 RMK SLP135

CYQF;2012-06-25 08:00;CYQF 250800Z 14004KT 15SM SKC 13/12 A2992 RMK SLP134

CYQF;2012-06-25 09:00;CYQF 250900Z 14005KT 15SM SKC 13/12 A2992 RMK SLP137

CYQF;2012-06-25 10:00;CYQF 251000Z 00000KT 6SM BR SKC 11/10 A2992 RMK BCFG SLP137

CYQF;2012-06-25 10:26;CYQF 251026Z 14002KT 2SM BR SKC RMK FG2

CYQF;2012-06-25 10:43;CYQF 251043Z 00000KT 1/2SM FG SKC RMK FG6

CYQF;2012-06-25 11:00;CYQF 251100Z 00000KT 1/2SM FG SKC 10/10 A2992 RMK FG6 SLP139

CYQF;2012-06-25 11:27;CYQF 251127Z 00000KT 1/4SM FG VV004 RMK FG8

CYQF;2012-06-25 12:00;CYQF 251200Z 14002KT 1/4SM FG VV003 10/09 A2993 RMK FG8 SLP144

CYQF;2012-06-25 13:00;CYQF 251300Z 14004KT 1/8SM FG VV002 10/10 A2993 RMK FG8 SLP144

CYQF;2012-06-25 14:00;CYQF 251400Z 14002KT 1/8SM FG VV002 11/11 A2993 RMK FG8 SLP145

CYQF;2012-06-25 14:47;CYQF 251447Z 00000KT 1/2SM FG OVC030 RMK FG1SC7

CYQF;2012-06-25 15:00;CYQF 251500Z 00000KT 5/8SM BR OVC030 13/12 A2993 RMK FG7SC1 SLP143

CYQF;2012-06-25 15:24;CYQF 251524Z 00000KT 3/4SM BR VV004 RMK FG8

CYQF;2012-06-25 15:41;CYQF 251541Z 00000KT 1 1/2SM BR VV004 RMK FG8

CYQF;2012-06-25 16:00;CYQF 251600Z 00000KT 2 1/2SM BR OVC004 14/13 A2991 RMK SF8 SLP137

CYQF;2012-06-25 16:31;CYQF 251631Z 00000KT 3SM BR OVC005 RMK SF8

CYQF;2012-06-25 17:00;CYQF 251700Z 00000KT 3SM BR BKN005 OVC030 15/14 A2990 RMK SF6SC2 SLP134

CYQF;2012-06-25 17:19;CYQF 251719Z 14003KT 6SM BR BKN005 BKN060 BKN250 RMK SF5SC2CI1

CYQF;2012-06-25 18:00;CYQF 251800Z 14002KT 8SM FEW005 BKN060 BKN250 16/14 A2987 RMK SF2SC3CI2 HZ SLP121

CYQF;2012-06-25 19:00;CYQF 251900Z 00000KT 8SM FEW005 BKN035 17/15 A2986 RMK SF2SC6 SLP118

CYQF;2012-06-25 19:16;CYQF 251916Z 00000KT 8SM -SHRA FEW005 OVC035 RMK SF2SC6

CYQF;2012-06-25 19:43;CYQF 251943Z 14002KT 8SM FEW005 BKN080 RMK SF2AC6

CYQF;2012-06-25 20:00;CYQF 252000Z 00000KT 10SM FEW012 BKN080 18/14 A2985 RMK CF1AC6 SLP116

CYQF;2012-06-25 21:00;CYQF 252100Z 14005KT 15SM FEW025 SCT080 BKN250 21/15 A2981 RMK CU1AC3CI2 SLP098

CYQF;2012-06-25 22:00;CYQF 252200Z 14004KT 15SM BKN032 BKN080 BKN250 21/13 A2981 RMK CU5AC1CI1 SLP097

CYQF;2012-06-25 23:00;CYQF 252300Z 00000KT 15SM BKN036TCU OVC080 21/12 A2985 RMK TCU6AC2 VIRGA ALQDS SLP111

CYQF;2012-06-26 00:00;CYQF 260000Z 14006KT 15SM FEW030 BKN100 BKN250 20/12 A2987 RMK CU2AC3CI2 TCU ASOCTD SLP122

CYQF;2012-06-26 00:06;CYQF 260006Z 24020G28KT 15SM FEW030 BKN100 BKN250 RMK CU2AC3CI2 WIND DIR EST TCU ASOCTD WIND SHIFT

CYQF;2012-06-26 00:28;CYQF 260028Z 12006KT 15SM -SHRA FEW030 BKN100 BKN250 RMK CU1AS7CI1 WND DIR EST

CYQF;2012-06-26 00:33;CYQF 260033Z CCA 12006KT 15SM -SHRA FEW030 BKN100 BKN250 RMK CU1AS7CI1 WND DIR EST PRESFR

CYQF;2012-06-26 01:00;CYQF 260100Z 24007KT 15SM FEW030 BKN090 BKN250 17/11 A2982 RMK CU2AC3CI1 WND DIR EST SLP107

CYQF;2012-06-26 02:00;CYQF 260200Z 25006KT 15SM FEW030 FEW100 17/11 A2981 RMK CU1AC1 WND DIR EST SLP104

CYQF;2012-06-26 03:00;CYQF 260300Z 26003KT 15SM FEW250 17/11 A2979 RMK CI0 SLP093

CYQF;2012-06-26 04:00;CYQF 260400Z 00000KT 15SM FEW250 15/11 A2977 RMK CI1 SLP089

CYQF;2012-06-26 05:00;CYQF 260500Z 00000KT 15SM SKC 12/10 A2978 RMK SLP091

CYQF;2012-06-26 06:00;CYQF 260600Z 00000KT 15SM SKC 11/09 A2978 RMK SLP094

CYQF;2012-06-26 07:00;CYQF 260700Z 14003KT 15SM SKC 10/09 A2977 RMK SLP091

CYQF;2012-06-26 08:00;CYQF 260800Z 00000KT 15SM SKC 09/07 A2976 RMK SLP089

CYQF;2012-06-26 09:00;CYQF 260900Z 00000KT 15SM SKC 09/08 A2975 RMK SLP081

CYQF;2012-06-26 10:00;CYQF 261000Z 00000KT 15SM SKC 08/07 A2976 RMK SLP083

CYQF;2012-06-26 11:00;CYQF 261100Z 00000KT 15SM FEW090 07/05 A2974 RMK AC1 SLP078

CYQF;2012-06-26 12:00;CYQF 261200Z 26004KT 15SM FEW100 07/05 A2974 RMK AC2 WND DCTN ESTD D SLP079

CYQF;2012-06-26 13:00;CYQF 261300Z 32006KT 15SM FEW120 SCT250 09/08 A2974 RMK AC1CI1 WND DCTN ESTD SLP078

CYQF;2012-06-26 14:00;CYQF 261400Z 00000KT 15SM BKN250 12/10 A2972 RMK CI2 SLP073

CYQF;2012-06-26 15:00;CYQF 261500Z 00000KT 15SM FEW100 BKN250 14/11 A2972 RMK AC1CI6 SLP068

CYQF;2012-06-26 16:00;CYQF 261600Z 27002KT 15SM FEW100 BKN250 15/11 A2971 RMK AC1CS6 WND DCTN ESTD SLP066

CYQF;2012-06-26 17:00;CYQF 261700Z 27006KT 15SM BKN100 OVC250 16/10 A2967 RMK AS6CS2 VIRGA WND DIR EST SLP054

CYQF;2012-06-26 18:00;CYQF 261800Z 27003KT 15SM BKN080 OVC250 16/09 A2968 RMK AC6CI2 VIRGA WND DCTN ESTD SLP059

CYQF;2012-06-26 19:00;CYQF 261900Z 00000KT 15SM BKN080 OVC250 16/11 A2966 RMK AC6CI2 SLP052

CYQF;2012-06-26 20:00;CYQF 262000Z 27005KT 15SM BKN080 OVC250 17/12 A2964 RMK AC6CI2 VIRGA SLP047

CYQF;2012-06-26 21:00;CYQF 262100Z 27005KT 15SM FEW027 BKN110 OVC250 17/11 A2965 RMK CU1AC5CI3 VIRGA WND DCTN ESTD SLP048

CYQF;2012-06-26 22:00;CYQF 262200Z 27008KT 15SM FEW026 OVC090 18/11 A2962 RMK CU1AC7 VIRGA WND DCTN ESTD SLP040

CYQF;2012-06-26 23:00;CYQF 262300Z 00000KT 15SM SCT026 OVC060 18/11 A2962 RMK CU3SC5 SLP041

CYQF;2012-06-26 23:10;CYQF 262310Z 00000KT 10SM -RA BKN020 OVC060 RMK CU5SC3

CYQF;2012-06-27 00:00;CYQF 270000Z 36007KT 3SM -RA BR OVC020 14/09 A2964 RMK SC8 WND DCTN ESTD SLP051

CYQF;2012-06-27 01:00;CYQF 270100Z 27007KT 8SM -RA BKN020 OVC050 12/10 A2962 RMK SC5SC3 WND DCTN ESTD SLP045

CYQF;2012-06-27 02:00;CYQF 270200Z 27005KT 8SM -RA BKN020 OVC050 12/10 A2961 RMK SC5SC3 WND DCTN ESTD SLP044

CYQF;2012-06-27 03:00;CYQF 270300Z 27010KT 8SM -RA BKN020 OVC050 11/10 A2961 RMK SC5SC3 WND DCTN ESTD SLP035

CYQF;2012-06-27 04:00;CYQF 270400Z 27010KT 10SM -RA BKN020 OVC050 11/10 A2959 RMK SC5SC3 WND DCTN ESTD SLP029

CYQF;2012-06-27 05:00;CYQF 270500Z 26010KT 10SM -RA BKN020 OVC050 11/09 A2957 RMK SC5SC3 WND DCTN ESTD SLP023

CYQF;2012-06-27 06:00;CYQF 270600Z 26004KT 10SM -RA BKN020 OVC050 11/09 A2954 RMK SC5SC3 SLP010

CYQF;2012-06-27 07:00;CYQF 270700Z 26004KT 15SM -RA SCT020 OVC060 11/09 A2953 RMK SC3SC5 WND DCTN ESTD SLP007

CYQF;2012-06-27 08:00;CYQF 270800Z 31008KT 15SM -RA SCT020 OVC060 11/10 A2951 RMK SC3SC5 WND DCTN ESTD SLP001

CYQF;2012-06-27 09:00;CYQF 270900Z CCA 31012KT 15SM -RA SCT020 OVC070 12/09 A2951 RMK SC3AC5 WND DCTN ESTD SLP998

CYQF;2012-06-27 10:00;CYQF 271000Z 31012KT 15SM -RA SCT030 OVC070 12/09 A2953 RMK SC3AC5 WND DCTN ESTD SLP003

CYQF;2012-06-27 10:40;CYQF 271040Z 31010G15KT 15SM FEW030 BKN070 OVC250 RMK SC2AC4CI1

CYQF;2012-06-27 11:00;CYQF 271100Z CCA 31012KT 15SM FEW040 BKN070 OVC250 11/08 A2955 RMK SC2AC4CI2 WND DCTN ESTD SLP010

CYQF;2012-06-27 12:00;CYQF 271200Z 30007KT 15SM FEW040 SCT080 BKN250 10/07 A2957 RMK SC2AC2CI2 WND DCTN ESTD SLP026

CYQF;2012-06-27 13:00;CYQF 271300Z 26006KT 15SM FEW040 SCT080 BKN250 10/07 A2962 RMK SC1AC2CI2 WND DCTN ESTD SLP039

CYQF;2012-06-27 14:00;CYQF 271400Z 27010KT 15SM FEW040 SCT080 BKN250 11/07 A2964 RMK SC1AC2CI2 SLP046

CYQF;2012-06-27 15:00;CYQF 271500Z 27012G18KT 15SM FEW040 SCT080 BKN250 14/07 A2965 RMK SC1AC4CI2 WND DCTN ESTD SLP051

CYQF;2012-06-27 16:00;CYQF 271600Z 27012G22KT 15SM FEW100 BKN250 15/06 A2967 RMK AC2CI2 WND DCTN ESTD SLP056

CYQF;2012-06-27 17:00;CYQF 271700Z 27018G26KT 15SM FEW037 BKN100 BKN250 17/08 A2969 RMK CU1AC5CI1 WND DCTN ESTD SLP063

CYQF;2012-06-27 18:00;CYQF 271800Z 27020KT 15SM FEW044 BKN100 17/06 A2971 RMK CU1AC6 WND DCTN ESTD SLP067

CYQF;2012-06-27 19:00;CYQF 271900Z 27015G20KT 15SM FEW040 BKN100 16/06 A2972 RMK CU1AC6 WND ESTD SLP070

CYQF;2012-06-27 20:00;CYQF 272000Z 29008KT 15SM FEW039 BKN100 18/08 A2973 RMK CU2AC6 SLP073

CYQF;2012-06-27 21:00;CYQF 272100Z 28010KT 15SM FEW040 BKN100 18/09 A2974 RMK CU2AC6 SLP075

CYQF;2012-06-27 22:00;CYQF 272200Z 29010G15KT 15SM FEW050 BKN100 BKN250 20/07 A2974 RMK CU2AC2CI1 SLP077

CYQF;2012-06-27 23:00;CYQF 272300Z 27010KT 15SM SCT050 BKN250 20/08 A2976 RMK CU3CI1 SLP081

CYQF;2012-06-28 00:00;CYQF 280000Z 28006KT 15SM BKN050 BKN250 21/07 A2976 RMK CU5CI1 SLP082

CYQF;2012-06-28 01:00;CYQF 280100Z 28006KT 15SM SCT050 BKN250 21/07 A2977 RMK CU3CI1 SLP085

CYQF;2012-06-28 02:00;CYQF 280200Z 28008KT 15SM SCT060 BKN250 19/06 A2978 RMK SC3CI1 SLP089

CYQF;2012-06-28 03:00;CYQF 280300Z 28010KT 15SM SCT090 18/05 A2979 RMK AC3 SLP091

CYQF;2012-06-28 04:00;CYQF 280400Z 29011KT 15SM FEW100 16/03 A2982 RMK AC2 SLP100

CYQF;2012-06-28 05:00;CYQF 280500Z 27008KT 15SM FEW100 14/03 A2985 RMK AC2 SLP108

CYQF;2012-06-28 06:00;CYQF 280600Z 27008KT 15SM FEW100 12/03 A2987 RMK AC1 SLP121

CYQF;2012-06-28 07:00;CYQF 280700Z 27004KT 15SM SKC 10/03 A2988 RMK SLP125

CYQF;2012-06-28 08:00;CYQF 280800Z 28003KT 15SM SKC 09/04 A2990 RMK SLP130

CYQF;2012-06-28 09:00;CYQF 280900Z 19003KT 15SM SKC 07/04 A2991 RMK SLP140

CYQF;2012-06-28 10:00;CYQF 281000Z 24004KT 15SM SKC 06/03 A2992 RMK SLP143

CYQF;2012-06-28 11:00;CYQF 281100Z 20006KT 15SM FEW250 06/03 A2994 RMK CI1 SLP148

CYQF;2012-06-28 12:00;CYQF 281200Z 22006KT 15SM FEW250 06/03 A2996 RMK CI1 SLP156

CYQF;2012-06-28 13:00;CYQF 281300Z 21006KT 15SM FEW250 08/05 A2996 RMK CI1 SLP157

CYQF;2012-06-28 14:00;CYQF 281400Z 26003KT 15SM SCT250 11/06 A2997 RMK CI1 SLP159

CYQF;2012-06-28 15:00;CYQF 281500Z 00000KT 15SM BKN250 14/05 A2998 RMK CI1 SLP156

CYQF;2012-06-28 16:00;CYQF 281600Z 00000KT 15SM SCT250 16/04 A2998 RMK CI1 SLP157

CYQF;2012-06-28 17:00;CYQF 281700Z 00000KT 15SM BKN250 17/05 A2998 RMK CI2 SLP156

CYQF;2012-06-28 18:00;CYQF 281800Z 15003KT 15SM SCT250 18/05 A2997 RMK CI2 SLP157

CYQF;2012-06-28 19:00;CYQF 281900Z 13003KT 15SM FEW050 BKN250 19/07 A2996 RMK CU1CI2 SLP152

CYQF;2012-06-28 20:00;CYQF 282000Z 15005KT 15SM FEW050 BKN250 20/07 A2994 RMK CU1CI2 SLP147

CYQF;2012-06-28 21:00;CYQF 282100Z 15010KT 15SM FEW050 FEW100 SCT250 21/08 A2992 RMK CU1AC1CI2 SLP141

CYQF;2012-06-28 22:00;CYQF 282200Z 16010KT 15SM FEW050 FEW100 BKN250 22/10 A2990 RMK CU1AC2CI2 SLP135

CYQF;2012-06-28 23:00;CYQF 282300Z 15008KT 15SM FEW100 BKN250 21/10 A2989 RMK AC2CI2 SLP131

CYQF;2012-06-29 00:00;CYQF 290000Z 16010KT 15SM FEW100 BKN250 21/09 A2987 RMK AC2CI3 SLP125

CYQF;2012-06-29 01:00;CYQF 290100Z 15011KT 15SM FEW100 BKN250 20/10 A2987 RMK AC2CI4 SLP124

CYQF;2012-06-29 02:00;CYQF 290200Z 15010KT 15SM SCT100 BKN250 19/10 A2986 RMK AC3CI2 SLP121

CYQF;2012-06-29 03:00;CYQF 290300Z 16005KT 15SM FEW100 BKN250 17/11 A2985 RMK AC1CI2 SLP114

CYQF;2012-06-29 04:00;CYQF 290400Z 18006KT 15SM FEW100 BKN250 15/11 A2985 RMK AC2CI2 SLP114

CYQF;2012-06-29 05:00;CYQF 290500Z 00000KT 15SM FEW100 SCT250 14/10 A2987 RMK AC1CI2 SLP118

CYQF;2012-06-29 06:00;CYQF 290600Z 00000KT 15SM FEW100 SCT250 14/11 A2987 RMK AC1CI2 SLP120

CYQF;2012-06-29 07:00;CYQF 290700Z 00000KT 15SM FEW090 SCT250 11/10 A2987 RMK AC2CI1 SLP121

CYQF;2012-06-29 08:00;CYQF 290800Z 00000KT 15SM FEW090 SCT250 10/09 A2987 RMK AC2CI1 SLP119

CYQF;2012-06-29 09:00;CYQF 290900Z 00000KT 15SM FEW090 SCT250 10/09 A2986 RMK AC2CI1 SLP116

CYQF;2012-06-29 10:00;CYQF 291000Z 19003KT 15SM SCT090 BKN250 10/09 A2986 RMK AC4CI2 SLP115

CYQF;2012-06-29 11:00;CYQF 291100Z 00000KT 15SM BKN090 BKN250 11/10 A2985 RMK AC5CI2 SLP114

CYQF;2012-06-29 12:00;CYQF 291200Z 00000KT 15SM BKN090 BKN250 11/10 A2985 RMK AC5CI2 SLP113

CYQF;2012-06-29 13:00;CYQF 291300Z 18005KT 15SM BKN090 BKN250 12/10 A2986 RMK AC5CI2 SLP116

CYQF;2012-06-29 14:00;CYQF 291400Z 00000KT 15SM BKN080 BKN250 14/11 A2986 RMK AC5CI2 SLP115

CYQF;2012-06-29 15:00;CYQF 291500Z 00000KT 15SM BKN080 BKN250 16/12 A2987 RMK AC4CI2 SLP116

CYQF;2012-06-29 16:00;CYQF 291600Z 29003KT 15SM BKN080 BKN250 18/12 A2987 RMK AC6CI2 SLP116

CYQF;2012-06-29 17:00;CYQF 291700Z 02008KT 15SM BKN080 BKN250 18/13 A2987 RMK AC6CI1 SLP117

CYQF;2012-06-29 18:00;CYQF 291800Z 36007KT 15SM BKN080 BKN250 20/11 A2988 RMK AC6CI1 SLP121

CYQF;2012-06-29 19:00;CYQF 291900Z 03007KT 15SM BKN080 BKN250 20/10 A2989 RMK AC6CI1 SLP124

CYQF;2012-06-29 20:00;CYQF 292000Z 01008KT 15SM FEW050TCU SCT090 BKN250 21/09 A2989 RMK TCU1AC2CI1 SLP123

CYQF;2012-06-29 21:00;CYQF 292100Z 03008KT 15SM FEW050TCU SCT090 BKN250 21/08 A2989 RMK TCU1AC2CI2 SLP126

CYQF;2012-06-29 22:00;CYQF 292200Z 03005KT 15SM FEW050CB BKN080 BKN250 21/09 A2988 RMK CB2AC2CI2 SLP125

CYQF;2012-06-29 23:00;CYQF 292300Z 01005KT 15SM FEW045CB BKN250 22/11 A2988 RMK CB2CI2 SLP125

CYQF;2012-06-30 00:00;CYQF 300000Z 00000KT 15SM FEW044 FEW100 SCT250 22/11 A2988 RMK CU1AC1CI1 SLP121

CYQF;2012-06-30 01:00;CYQF 300100Z 00000KT 15SM FEW045 FEW100 SCT250 22/11 A2988 RMK CU1AC2CI1 SLP122

CYQF;2012-06-30 02:00;CYQF 300200Z 13004KT 15SM FEW045 SCT100 SCT250 22/11 A2988 RMK CU1AC2CI0 SLP122

CYQF;2012-06-30 03:00;CYQF 300300Z 00000KT 15SM VCSH BKN045 BKN100 20/12 A2990 RMK CU5AC2 SLP124

CYQF;2012-06-30 04:00;CYQF 300400Z 08003KT 15SM VCSH SCT030 BKN100 19/12 A2991 RMK CU3AC2 SLP129

CYQF;2012-06-30 04:50;CYQF 300450Z 00000KT 15SM -SHRA BKN030 BKN100 RMK CU5AC2

CYQF;2012-06-30 05:00;CYQF 300500Z 33004KT 15SM BKN030 BKN100 18/13 A2992 RMK CU5AC2 SLP132

CYQF;2012-06-30 06:00;CYQF 300600Z 31002KT 15SM SCT030 15/12 A2994 RMK CU3 SLP141

CYQF;2012-06-30 07:00;CYQF 300700Z 33004KT 15SM SCT030 13/11 A2995 RMK SC3 CU ASOCTD SLP142

CYQF;2012-06-30 08:00;CYQF 300800Z 19004KT 15SM FEW030 11/10 A2994 RMK SC2 SLP141

CYQF;2012-06-30 09:00;CYQF 300900Z 22005KT 15SM FEW030 11/09 A2994 RMK SC2 SLP142

CYQF;2012-06-30 10:00;CYQF 301000Z 22002KT 15SM FEW040 11/09 A2994 RMK SC2 SLP143

CYQF;2012-06-30 11:00;CYQF 301100Z 20002KT 15SM FEW040 SCT250 10/08 A2995 RMK SC2CI1 SLP144

CYQF;2012-06-30 12:00;CYQF 301200Z 21002KT 15SM FEW040 FEW120 BKN250 10/09 A2995 RMK SC1AC2CI2 SLP146

CYQF;2012-06-30 13:00;CYQF 301300Z 19003KT 15SM FEW040 FEW120 BKN250 11/10 A2995 RMK SC1AC1CI1 SLP147

CYQF;2012-06-30 14:00;CYQF 301400Z 20004KT 15SM FEW050 FEW250 13/11 A2995 RMK CU1CI1 SLP147

CYQF;2012-06-30 15:00;CYQF 301500Z 22003KT 15SM FEW020 FEW250 16/11 A2995 RMK CU1CI1 SLP142

CYQF;2012-06-30 16:00;CYQF 301600Z 20004KT 15SM FEW030 FEW250 18/11 A2993 RMK CU1CI1 SLP137

CYQF;2012-06-30 17:00;CYQF 301700Z 16005KT 15SM FEW048 FEW250 21/09 A2991 RMK CU1CI1 TR CU SLP130

CYQF;2012-06-30 18:00;CYQF 301800Z 16010KT 15SM FEW050 BKN250 23/09 A2989 RMK CU1CI2 SLP120

CYQF;2012-06-30 19:00;CYQF 301900Z 18006KT 15SM FEW060 SCT250 23/08 A2988 RMK CU1CI2 SLP118

CYQF;2012-06-30 20:00;CYQF 302000Z 16010KT 15SM FEW060 SCT250 24/07 A2987 RMK CU1CI1 SLP114

CYQF;2012-06-30 21:00;CYQF 302100Z 14010KT 15SM FEW060 SCT250 25/08 A2985 RMK CU1CI1 SLP109

CYQF;2012-06-30 22:00;CYQF 302200Z 14012G20KT 15SM FEW060 FEW100 SCT280 25/10 A2984 RMK CU1AC1CI2 SLP104

CYQF;2012-06-30 23:00;CYQF 302300Z 15012G17KT 15SM FEW060 FEW100 FEW280 25/10 A2982 RMK CU1AC1CI2 SLP099

CYQF;2012-07-01 00:00;CYQF 010000Z 15010G15KT 15SM FEW060 BKN100 BKN280 23/12 A2980 RMK CU1AC5CI2 SLP093

CYQF;2012-07-01 01:00;CYQF 010100Z 15010G15KT 15SM FEW060 BKN100 BKN280 23/13 A2979 RMK CU1AC6CI1 SLP090

CYQF;2012-07-01 02:00;CYQF 010200Z 14012G18KT 15SM FEW060 SCT100 BKN280 23/13 A2977 RMK CU1AC4CI2 SLP085

CYQF;2012-07-01 03:00;CYQF 010300Z 16010KT 15SM FEW060 FEW100 BKN280 21/13 A2977 RMK CU1AC2CI3 SLP079

CYQF;2012-07-01 04:00;CYQF 010400Z 15007KT 15SM FEW060 FEW100 SCT280 18/13 A2977 RMK CU1AC1CI2 SLP078

CYQF;2012-07-01 05:00;CYQF 010500Z 17004KT 15SM FEW100 SCT280 16/12 A2976 RMK AC2CI2 SLP076

CYQF;2012-07-01 06:00;CYQF 010600Z 16004KT 15SM FEW100 BKN250 15/11 A2976 RMK AC2CI2 SLP075

CYQF;2012-07-01 07:00;CYQF 010700Z 23004KT 15SM FEW100 BKN250 14/10 A2976 RMK AC2CI1 SLP074

CYQF;2012-07-01 08:00;CYQF 010800Z 19004KT 15SM FEW100 BKN250 14/10 A2976 RMK AC2CI2 SLP073

CYQF;2012-07-01 09:00;CYQF 010900Z 26005KT 15SM FEW100 BKN250 13/09 A2974 RMK AC2CI2 SLP066

CYQF;2012-07-01 10:00;CYQF 011000Z 26005KT 15SM FEW100 BKN250 11/09 A2973 RMK AC2CI2 SLP065

CYQF;2012-07-01 11:00;CYQF 011100Z 21004KT 15SM SCT100 BKN250 11/08 A2973 RMK AC3CI1 SLP065

CYQF;2012-07-01 12:00;CYQF 011200Z 20004KT 15SM FEW040 BKN100 BKN250 12/09 A2975 RMK SC1AC4CI1 SLP075

CYQF;2012-07-01 13:00;CYQF 011300Z 27006KT 15SM FEW040 BKN100 BKN250 14/10 A2976 RMK SC1AC4CI2 SLP076

CYQF;2012-07-01 14:00;CYQF 011400Z 31015G20KT 15SM SCT040 BKN090 16/10 A2976 RMK SC3AC4 SLP079

CYQF;2012-07-01 15:00;CYQF 011500Z 31010G15KT 15SM FEW040 BKN090 16/11 A2978 RMK SC2AC3 SLP082

CYQF;2012-07-01 16:00;CYQF 011600Z 34010G15KT 15SM FEW040 BKN090 18/11 A2978 RMK SC2AC3 SLP083

CYQF;2012-07-01 17:00;CYQF 011700Z 30008KT 15SM FEW034 BKN090 BKN250 18/10 A2980 RMK CU1AC4CI0 SLP087

CYQF;2012-07-01 18:00;CYQF 011800Z 31004KT 15SM FEW040 FEW090 SCT250 20/12 A2980 RMK CU1AC2CI1 SLP090

CYQF;2012-07-01 19:00;CYQF 011900Z 33010KT 15SM FEW032 FEW250 20/12 A2980 RMK CU2CI1 CB TOPS W SLP092

CYQF;2012-07-01 20:00;CYQF 012000Z 34010KT 15SM BKN035 20/12 A2979 RMK CU5 CB TOPS W SLP089

CYQF;2012-07-01 21:00;CYQF 012100Z 35004KT 15SM BKN035 BKN250 21/12 A2980 RMK CU5CI1 CB TOPS W SLP094

CYQF;2012-07-01 21:41;CYQF 012141Z 02006KT 15SM -SHRA BKN035 BKN250 RMK CU5CI2 LTNG S CB

CYQF;2012-07-01 22:00;CYQF 012200Z 02010KT 15SM -SHRA BKN030 BKN250 20/12 A2980 RMK CU6CI1 CB S SLP094

CYQF;2012-07-01 22:42;CYQF 012242Z 02008KT 15SM VCSH BKN035 BKN250 RMK CU6CI1 CB ASOCTD

CYQF;2012-07-01 23:00;CYQF 012300Z 36006KT 15SM BKN040 BKN250 21/10 A2981 RMK CU6CI1 CB ASOCTD SLP096

CYQF;2012-07-01 23:33;CYQF 012333Z 04006KT 15SM -SHRA BKN040TCU RMK TCU7 CB

CYQF;2012-07-02 00:00;CYQF 020000Z 01011G16KT 15SM -SHRA BKN040TCU 19/13 A2981 RMK TCU7 CB SLP101

CYQF;2012-07-02 00:25;CYQF 020025Z 03010G20KT 10SM +TSRA BKN030CB RMK CB7 VIS S 3

CYQF;2012-07-02 01:00;CYQF 020100Z 01010G15KT 10SM -TSRA BKN030CB 17/14 A2981 RERA RMK CB7 SLP101

CYQF;2012-07-02 01:42;CYQF 020142Z 04006KT 15SM -SHRA BKN030TCU BKN100 BKN250 RETS RMK TCU5AC2CI1 CB

CYQF;2012-07-02 02:00;CYQF 020200Z 02005KT 15SM SCT030TCU BKN100 BKN250 16/12 A2984 RETS RMK TCU4AC2CI1 OCNL -SHRA CB SLP108

CYQF;2012-07-02 03:00;CYQF 020300Z 36003KT 15SM SCT030TCU BKN100 BKN250 16/13 A2983 RMK TCU3AC2CI2 SLP105

CYQF;2012-07-02 03:19;CYQF 020319Z 35004KT 15SM -SHRA BKN030TCU BKN100 BKN250 RMK TCU5AC2CI1

CYQF;2012-07-02 04:00;CYQF 020400Z 03003KT 15SM -SHRA BKN100 BKN250 15/12 A2984 RMK AC5CI2 TCU EMBD SLP107

CYQF;2012-07-02 04:34;CYQF 020434Z 30005KT 15SM BKN030 BKN100 RMK SC5AC2 LTNG S

CYQF;2012-07-02 05:00;CYQF 020500Z 32005KT 15SM BKN030 BKN100 BKN250 14/12 A2985 RMK SC5AC1CI0 CB ASOCTD LTNG SE SLP113

CYQF;2012-07-02 06:00;CYQF 020600Z 24004KT 15SM SCT030 BKN100 BKN250 13/11 A2986 RMK SC4AC2CI1 /R15/ LTNGCG SE SLP115

CYQF;2012-07-02 07:00;CYQF 020700Z CCA 00000KT 15SM SCT030 BKN090 BKN250 13/11 A2988 RMK SC4AC2CI1 TCU ASOCTD LTNG DIST N SLP122

CYQF;2012-07-02 08:00;CYQF 020800Z 00000KT 15SM FEW030 BKN090 12/11 A2990 RMK SC2AC4 SLP126

CYQF;2012-07-02 09:00;CYQF 020900Z 00000KT 15SM FEW030 BKN090 12/11 A2990 RMK SC2AC3 SLP127

CYQF;2012-07-02 10:00;CYQF 021000Z 27002KT 15SM FEW040 FEW090 11/10 A2990 RMK SC1AC2 SLP127

CYQF;2012-07-02 11:00;CYQF 021100Z 17004KT 15SM FEW040 SCT250 10/09 A2989 RMK SC2CI1 SLP126

CYQF;2012-07-02 12:00;CYQF 021200Z 24003KT 15SM FEW040 BKN250 10/09 A2990 RMK SC1CI1 MIFG SLP131

CYQF;2012-07-02 13:00;CYQF 021300Z 22005KT 15SM FEW120 BKN250 12/10 A2990 RMK AC2CI1 SLP132

CYQF;2012-07-02 14:00;CYQF 021400Z 19005KT 15SM FEW120 BKN250 14/11 A2991 RMK AC1CI2 SLP134

CYQF;2012-07-02 15:00;CYQF 021500Z 17005KT 15SM FEW120 BKN250 16/12 A2991 RMK AC1CI5 SLP133

CYQF;2012-07-02 16:00;CYQF 021600Z 19005KT 15SM FEW020 BKN250 18/13 A2991 RMK CF1CI4 SLP132

CYQF;2012-07-02 17:00;CYQF 021700Z 18007KT 15SM FEW029 BKN250 19/12 A2988 RMK CF1CI3 SLP124

CYQF;2012-07-02 18:00;CYQF 021800Z 17009KT 15SM FEW032 BKN250 20/12 A2988 RMK CU1CI6 SLP120

CYQF;2012-07-02 19:00;CYQF 021900Z 18010KT 15SM FEW035 BKN250 21/12 A2986 RMK CU2CI2 SLP116

CYQF;2012-07-02 20:00;CYQF 022000Z 17008KT 15SM FEW050 BKN250 22/09 A2985 RMK CU2CI3 SLP110

CYQF;2012-07-02 21:00;CYQF 022100Z 17008KT 15SM FEW056 BKN250 23/09 A2984 RMK CU2CI5 SLP105

CYQF;2012-07-02 22:00;CYQF 022200Z 19012KT 15SM SCT055 BKN250 23/12 A2983 RMK CU3CI2 SLP101

CYQF;2012-07-02 23:00;CYQF 022300Z 14011G16KT 15SM FEW052CB FEW120 SCT260 23/09 A2980 RMK CB1AC1CI2 SLP094

CYQF;2012-07-03 00:00;CYQF 030000Z 14010KT 15SM FEW052TCU SCT120 BKN260 22/09 A2979 RMK TCU1AC3CC3 SLP090

CYQF;2012-07-03 01:00;CYQF 030100Z 14012G19KT 15SM FEW052TCU SCT120 BKN260 22/11 A2977 RMK TCU1AC2CC2 SLP085

CYQF;2012-07-03 02:00;CYQF 030200Z 14010KT 15SM FEW050 FEW120 SCT260 21/11 A2976 RMK SC1AC1CI2 SLP082

CYQF;2012-07-03 03:00;CYQF 030300Z 15010KT 15SM FEW050CB FEW120 BKN260 19/12 A2975 RMK CB1AC1CI1 SLP072

CYQF;2012-07-03 04:00;CYQF 030400Z 15009KT 15SM FEW050CB FEW120 FEW260 18/12 A2974 RMK CB1AC1CI1 SLP069

CYQF;2012-07-03 05:00;CYQF 030500Z 16007KT 15SM FEW050 FEW120 FEW260 17/13 A2973 RMK SC1AC1CI0 SLP066

CYQF;2012-07-03 06:00;CYQF 030600Z 16008KT 15SM FEW050 SCT260 15/12 A2972 RMK SC1CI0 SLP062

CYQF;2012-07-03 07:00;CYQF 030700Z 18007KT 15SM FEW050 SCT260 15/12 A2970 RMK SC1CI0 SLP058

CYQF;2012-07-03 08:00;CYQF 030800Z 27006KT 15SM FEW050 SCT100 BKN260 13/11 A2970 RMK SC1AC2CI1 SLP057

CYQF;2012-07-03 09:00;CYQF 030900Z 00000KT 15SM SCT100 BKN260 13/11 A2968 RMK AC4CI2 SLP051

CYQF;2012-07-03 10:00;CYQF 031000Z 14003KT 15SM BKN100 BKN250 12/11 A2967 RMK AC5CI2 SLP048

CYQF;2012-07-03 11:00;CYQF 031100Z 26002KT 15SM BKN100 BKN250 11/10 A2966 RMK AC5CI2 SLP045

CYQF;2012-07-03 11:35;CYQF 031135Z 31004KT 10SM SCT006 BKN100 RMK SF3AC4

CYQF;2012-07-03 12:00;CYQF 031200Z 31004KT 1SM BR BKN080 11/10 A2964 RMK FG4AC3 SLP038

CYQF;2012-07-03 12:22;CYQF 031222Z 00000KT 1/2SM FG BKN080 RMK FG5AC2

CYQF;2012-07-03 13:00;CYQF 031300Z 09003KT 1/2SM FG BKN080 11/10 A2961 RMK FG5AC2 SLP029

CYQF;2012-07-03 13:18;CYQF 031318Z 19002KT 1/4SM FG VV007 RMK FG8

CYQF;2012-07-03 13:42;CYQF 031342Z 00000KT 1/4SM FG VV004 RMK FG8

CYQF;2012-07-03 14:00;CYQF 031400Z 00000KT 1/4SM FG VV004 12/11 A2962 RMK FG8 SLP031

CYQF;2012-07-03 15:00;CYQF 031500Z 16003KT 1/4SM FG VV004 12/12 A2959 RMK FG8 SLP021

CYQF;2012-07-03 15:10;CYQF 031510Z 17006KT 3/4SM BR VV004 RMK FG8

CYQF;2012-07-03 15:25;CYQF 031525Z 14010G15KT 1 1/2SM BR OVC002 RMK SF8

CYQF;2012-07-03 15:38;CYQF 031538Z 14010G15KT 6SM BR FEW002 BKN030 OVC250 RMK SF2SC3CI2

CYQF;2012-07-03 16:00;CYQF 031600Z 19010KT 10SM FEW006 BKN100 OVC250 13/11 A2958 RMK SF2AC5CI2 SLP018

CYQF;2012-07-03 17:00;CYQF 031700Z 16007KT 15SM VCSH FEW006 FEW040 BKN090 BKN250 15/11 A2957 RMK SF1CU2ACC3CI2 SLP016

CYQF;2012-07-03 18:00;CYQF 031800Z 13012KT 15SM FEW006 FEW020 BKN090 BKN250 15/11 A2955 RMK SF1CU1AC5CI1 SLP009

CYQF;2012-07-03 19:00;CYQF 031900Z 13013G20KT 15SM FEW024 BKN090 BKN250 17/11 A2951 RMK CF2AC3CI2 SLP998

CYQF;2012-07-03 20:00;CYQF 032000Z 16015G20KT 15SM VCSH BKN024TCU BKN090 17/11 A2951 RMK TCU6AC1 HVY SH SW SLP996

CYQF;2012-07-03 20:12;CYQF 032012Z 16010KT 15SM -SHRA BKN024CB BKN090 RMK CB6AC1 LTNGCG SW HVY SH SW

CYQF;2012-07-03 20:16;CYQF 032016Z 16008KT 12SM -TSRA BKN024CB BKN090 RMK CB6AC1 HVY SH SW

CYQF;2012-07-03 20:43;CYQF 032043Z 22006KT 5SM TSRA BR FEW009 BKN015CB BKN090 RERA RMK SF1CB6AC1 LTGCC OVRHD

CYQF;2012-07-03 20:53;CYQF 032053Z 21020G30KT 2SM +TSRAGS BR FEW007 BKN015CB BKN080 RMK SF2CB6AC1 LTGIC HAIL DIAM 3 MM

CYQF;2012-07-03 21:00;CYQF 032100Z 24025G35KT 2SM +TSRAGR BR OVC012CB 11/09 A2951 RMK CB8 LTGCC HAIL DIAM 5 MM SLP003

CYQF;2012-07-03 21:15;CYQF 032115Z 24010KT 10SM -TSRA BKN015CB BKN080 RERAGR RMK CB6AC1 LTGCG NE

CYQF;2012-07-03 21:35;CYQF 032135Z 01004KT 15SM TS VCSH BKN020CB BKN090 RERAGR RMK CB6AC1 LTGCC NE

CYQF;2012-07-03 22:00;CYQF 032200Z 27008KT 15SM SCT020CB BKN090 BKN250 12/09 A2947 RETSGRRA RMK CB4AC2CI2 /R10/ SLP990

CYQF;2012-07-03 23:00;CYQF 032300Z 29015G20KT 15SM SCT020 BKN070 BKN250 14/09 A2951 RMK CU3AC3CI1 CB ASOCTD SLP004

CYQF;2012-07-03 23:19;CYQF 032319Z 28013G21KT 15SM -SHRA SCT020TCU BKN070 BKN250 RMK TCU4AC2CI1

CYQF;2012-07-04 00:00;CYQF 040000Z 29010G15KT 15SM -SHRA BKN020TCU BKN070 BKN250 13/09 A2952 RMK TCU5AC2CI1 SLP007

CYQF;2012-07-04 01:00;CYQF 040100Z 32006KT 15SM -SHRA FEW020 BKN050 BKN250 12/09 A2952 RMK CU2SC5CI1 SLP005

CYQF;2012-07-04 02:00;CYQF 040200Z 33004KT 15SM -SHRA FEW012 BKN040 BKN250 12/09 A2952 RMK CU1SC6CI1 SLP005

CYQF;2012-07-04 03:00;CYQF 040300Z 26010KT 15SM -SHRA FEW012 BKN050 OVC250 12/09 A2954 RMK CU1SC6CI1 SLP014

CYQF;2012-07-04 04:00;CYQF 040400Z 29005KT 15SM -SHRA FEW012 OVC050 11/08 A2955 RMK CU1SC7 SLP016

CYQF;2012-07-04 05:00;CYQF 040500Z 27008KT 15SM -SHRA FEW012 OVC050 10/07 A2957 RMK CU1SC7 SLP022

CYQF;2012-07-04 06:00;CYQF 040600Z 30015G20KT 15SM -SHRA FEW012 OVC050 10/07 A2957 RMK CU2SC6 SLP022

CYQF;2012-07-04 07:00;CYQF 040700Z 29015G22KT 15SM -SHRA BKN050 OVC100 10/07 A2958 RMK SC5AC3 SLP027

CYQF;2012-07-04 08:00;CYQF 040800Z 28013KT 15SM -RA BKN050 OVC100 10/07 A2960 RMK SC5AC3 SLP033

CYQF;2012-07-04 09:00;CYQF 040900Z 28012G17KT 15SM -RA BKN050 OVC100 10/07 A2961 RMK SC5AC3 SLP041

CYQF;2012-07-04 10:00;CYQF 041000Z 29008KT 15SM -RA SCT050 OVC090 10/07 A2962 RMK SC4AC4 SLP043

CYQF;2012-07-04 10:40;CYQF 041040Z 30010G16KT 15SM SCT050 OVC090 RMK SC4AC4

CYQF;2012-07-04 11:00;CYQF 041100Z 28014KT 15SM FEW050 OVC090 11/06 A2964 RMK SC2AC6 SLP050

CYQF;2012-07-04 12:00;CYQF 041200Z 30012KT 15SM BKN050 OVC100 11/06 A2966 RMK SC5AC3 SLP053

CYQF;2012-07-04 12:35;CYQF 041235Z 28014G22KT 15SM -RA BKN050 OVC100 RMK SC5AC3

CYQF;2012-07-04 12:53;CYQF 041253Z 28015G22KT 15SM BKN050 OVC100 RMK SC5AC3

CYQF;2012-07-04 13:00;CYQF 041300Z 27014G22KT 15SM BKN050 OVC100 11/07 A2968 RMK SC5AC3 SLP060

CYQF;2012-07-04 14:00;CYQF 041400Z 28020G32KT 15SM -RA BKN050 OVC100 12/06 A2968 RMK SC5AC3 SLP062

CYQF;2012-07-04 15:00;CYQF 041500Z 29020G30KT 15SM -RA BKN050 OVC100 12/06 A2971 RMK SC5AC3 SLP072

CYQF;2012-07-04 16:00;CYQF 041600Z 30030G38KT 15SM -RA BKN050 OVC100 14/06 A2974 RMK SC5AC3 SLP080

CYQF;2012-07-04 17:00;CYQF 041700Z 29035G45KT 15SM FEW032 BKN050 BKN100 BKN250 14/06 A2976 RMK CU1SC4AC2CI0 SLP088

CYQF;2012-07-04 18:00;CYQF 041800Z 29020G40KT 15SM FEW028 BKN050 BKN100 14/07 A2980 RMK CU1SC5AC2 SLP102

CYQF;2012-07-04 18:12;CYQF 041812Z 29023G40KT 15SM -RA FEW028 BKN050 BKN100 RMK CU1SC6AC1

CYQF;2012-07-04 19:00;CYQF 041900Z 31019G33KT 15SM -RA FEW025 BKN050 OVC100 13/08 A2983 RMK CU1SC5AC2 SLP113

CYQF;2012-07-04 20:00;CYQF 042000Z 31020G35KT 15SM -RA FEW025 BKN050 OVC100 14/08 A2987 RMK CU2SC4AC2 SLP126

CYQF;2012-07-04 21:00;CYQF 042100Z 30018G28KT 15SM FEW025 BKN050 BKN100 15/08 A2989 RMK CU2SC4AC2 INTMT -RA SLP133

CYQF;2012-07-04 22:00;CYQF 042200Z 31017G27KT 15SM -RA FEW028 BKN100 BKN250 15/08 A2990 RMK CU1AC5CI2 SLP137

CYQF;2012-07-04 23:00;CYQF 042300Z 31010G15KT 15SM FEW030 BKN100 BKN250 16/08 A2991 RMK CU1AC5CI2 SLP140

CYQF;2012-07-05 00:00;CYQF 050000Z 31010G15KT 15SM FEW030 BKN100 BKN250 16/07 A2991 RMK SC1AC4CI1 SLP140

CYQF;2012-07-05 01:00;CYQF 050100Z 33010G15KT 15SM FEW030 BKN080 BKN250 16/07 A2991 RMK CU1AC5CI1 SLP138

CYQF;2012-07-05 02:00;CYQF 050200Z 29006KT 15SM FEW030 BKN100 BKN250 15/08 A2992 RMK SC2AC3CI1 SLP142

CYQF;2012-07-05 03:00;CYQF 050300Z 00000KT 15SM FEW030 SCT100 13/09 A2994 RMK SC2AC2 SLP148

CYQF;2012-07-05 04:00;CYQF 050400Z 23005KT 15SM FEW030 FEW100 11/07 A2995 RMK SC1AC2 SLP153

CYQF;2012-07-05 05:00;CYQF 050500Z 23006KT 15SM FEW100 FEW250 10/07 A2996 RMK AC2CI0 SLP155

CYQF;2012-07-05 06:00;CYQF 050600Z 24006KT 15SM SCT100 10/07 A2998 RMK AC4 SLP165

CYQF;2012-07-05 07:00;CYQF 050700Z 24006KT 15SM SCT100 10/07 A2998 RMK AC4 SLP167

CYQF;2012-07-05 08:00;CYQF 050800Z 24005KT 15SM SCT100 09/07 A2999 RMK AC3 SLP170

CYQF;2012-07-05 09:00;CYQF 050900Z 20006KT 15SM FEW100 07/05 A3000 RMK AC2 SLP175

CYQF;2012-07-05 10:00;CYQF 051000Z 26005KT 15SM FEW090 07/05 A3000 RMK AC1 SLP174

CYQF;2012-07-05 11:00;CYQF 051100Z 00000KT 15SM FEW050 FEW080 06/04 A3001 RMK SC1AC1 SLP177

CYQF;2012-07-05 12:00;CYQF 051200Z 00000KT 15SM FEW050 05/04 A3002 RMK SC1 TCU S SLP184

CYQF;2012-07-05 13:00;CYQF 051300Z 00000KT 15SM FEW050 SCT100 08/06 A3003 RMK SC2AC1 SLP186

CYQF;2012-07-05 14:00;CYQF 051400Z 00000KT 15SM FEW050 FEW100 FEW250 11/08 A3003 RMK SC1AC1CI1 SLP187

CYQF;2012-07-05 15:00;CYQF 051500Z 00000KT 15SM FEW050 FEW100 FEW250 13/09 A3004 RMK SC1AC1CI1 SLP182

CYQF;2012-07-05 16:00;CYQF 051600Z 19003KT 15SM FEW020 FEW100 FEW250 15/10 A3004 RMK CU1AC1CI1 TR CU SLP182

CYQF;2012-07-05 17:00;CYQF 051700Z 17004KT 15SM FEW030 FEW250 17/09 A3003 RMK CU1CI1 SLP181

CYQF;2012-07-05 18:00;CYQF 051800Z 08003KT 15SM SCT030 BKN250 18/10 A3002 RMK CU3CC0 SLP174

CYQF;2012-07-05 19:00;CYQF 051900Z 16009KT 15SM SCT040 BKN250 19/10 A3001 RMK CU3CC1 SLP173

CYQF;2012-07-05 20:00;CYQF 052000Z 16010KT 15SM BKN044 20/09 A3001 RMK CU5 SLP171

CYQF;2012-07-05 21:00;CYQF 052100Z 14005KT 15SM BKN045 21/09 A3000 RMK CU6 TCU ASOCTD SLP168

CYQF;2012-07-05 22:00;CYQF 052200Z 14004KT 15SM SCT050 BKN250 21/08 A3000 RMK CU4CI1 SLP167

CYQF;2012-07-05 23:00;CYQF 052300Z 15005KT 15SM VCSH BKN040CB BKN090 BKN250 20/09 A2999 RMK CB5AC1CI1 HVY SH SW LTNGIC SW SLP166

CYQF;2012-07-05 23:37;CYQF 052337Z 13002KT 15SM TS VCSH BKN040CB BKN090 RMK CB6AC1 LTNGIC W

CYQF;2012-07-05 23:45;CYQF 052345Z 25015G25KT 15SM -TSRA BKN035CB BKN090 RMK CB6AC1 LTNGIC W

CYQF;2012-07-06 00:00;CYQF 060000Z 28016G26KT 10SM -TSRA BKN035CB 15/08 A3002 RMK CB7 LTNGIC W SLP183

CYQF;2012-07-06 01:00;CYQF 060100Z 10010KT 12SM -TSRA BKN040CB BKN090 BKN250 14/10 A3000 RERA RMK CB6AC1CI1 LTNGCG SE SLP177

CYQF;2012-07-06 01:20;CYQF 060120Z 06008KT 15SM -SHRA SCT040CB BKN090 BKN250 RETS RMK CB4AC2CI1 HVY SH E

CYQF;2012-07-06 02:00;CYQF 060200Z 06002KT 15SM VCSH SCT040CB BKN090 BKN250 14/09 A3002 RETS RMK CB3AC3CI1 SLP184

CYQF;2012-07-06 03:00;CYQF 060300Z 07007KT 15SM VCSH SCT040CB BKN100 BKN250 15/10 A3004 RMK CB3AC2CI1 SLP180

CYQF;2012-07-06 04:00;CYQF 060400Z 00000KT 15SM FEW050CB SCT100 13/10 A3004 RMK CB2AC2 SLP182

CYQF;2012-07-06 05:00;CYQF 060500Z 31002KT 15SM FEW050 SCT250 11/09 A3006 RMK CU2CI1 SLP189

CYQF;2012-07-06 06:00;CYQF 060600Z 00000KT 15SM FEW060 FEW250 10/08 A3007 RMK SC1CI1 SLP192

CYQF;2012-07-06 07:00;CYQF 060700Z 30002KT 15SM FEW060 08/07 A3007 RMK SC1 SLP194

CYQF;2012-07-06 08:00;CYQF 060800Z 00000KT 15SM SKC 08/07 A3008 RMK SLP197

CYQF;2012-07-06 09:00;CYQF 060900Z 00000KT 6SM BR SKC 07/06 A3010 RMK VIS S 1 SLP202

CYQF;2012-07-06 09:26;CYQF 060926Z 20003KT 3/4SM BR SKC

CYQF;2012-07-06 10:00;CYQF 061000Z 21003KT 3/4SM BR SKC 06/06 A3010 RMK SLP204

CYQF;2012-07-06 10:15;CYQF 061015Z 00000KT 3SM BR SKC RMK VIS S 1

CYQF;2012-07-06 10:49;CYQF 061049Z 00000KT 3/4SM BR SKC RMK VIS N 2

CYQF;2012-07-06 11:00;CYQF 061100Z 00000KT 3SM BR SKC 06/05 A3011 RMK VIS S 1/2 SLP206

CYQF;2012-07-06 11:16;CYQF 061116Z 20005KT 1/2SM FG SKC

CYQF;2012-07-06 11:33;CYQF 061133Z 00000KT 10SM PRFG FEW070 RMK AC1

CYQF;2012-07-06 12:00;CYQF 061200Z 20003KT 10SM BCFG FEW070 FEW250 06/05 A3013 RMK ACC1CI1 SLP220

CYQF;2012-07-06 13:00;CYQF 061300Z 00000KT 15SM FEW070 07/07 A3014 RMK ACC1 SLP224

CYQF;2012-07-06 14:00;CYQF 061400Z 20004KT 15SM FEW070 11/09 A3016 RMK AC1 SLP229

CYQF;2012-07-06 15:00;CYQF 061500Z 19003KT 15SM FEW020 13/10 A3016 RMK CU1 SLP223

CYQF;2012-07-06 16:00;CYQF 061600Z 00000KT 15SM FEW020 16/12 A3015 RMK CU1 SLP222

CYQF;2012-07-06 17:00;CYQF 061700Z 00000KT 15SM FEW025 18/10 A3015 RMK CU1 SLP222

CYQF;2012-07-06 18:00;CYQF 061800Z 16004KT 15SM FEW040 FEW100 21/09 A3015 RMK CU1AC1 SLP218

CYQF;2012-07-06 19:00;CYQF 061900Z 11003KT 15SM FEW040CB FEW250 22/09 A3015 RMK CB1CI1 SLP217

CYQF;2012-07-06 20:00;CYQF 062000Z 00000KT 15SM FEW040TCU SCT250 22/09 A3014 RMK TCU1CI1 SLP215

CYQF;2012-07-06 21:00;CYQF 062100Z 17003KT 15SM FEW045CB SCT250 22/11 A3014 RMK CB2CC1 SLP213

CYQF;2012-07-06 22:00;CYQF 062200Z 14005KT 15SM FEW045CB SCT090 BKN250 23/10 A3013 RMK CB2AC1CI0 SLP211

CYQF;2012-07-06 23:00;CYQF 062300Z 13010KT 15SM FEW052CB 23/10 A3013 RMK CB2 SLP210

CYQF;2012-07-07 00:00;CYQF 070000Z 16008KT 15SM FEW052CB FEW100 FEW250 23/12 A3013 RMK CB1AC1CI1 SLP211

CYQF;2012-07-07 01:00;CYQF 070100Z 16004KT 15SM FEW050TCU FEW100 23/12 A3013 RMK TCU1AC2 SLP213

CYQF;2012-07-07 02:00;CYQF 070200Z 18005KT 15SM FEW050TCU FEW100 21/12 A3014 RMK TCU1AC1 SLP214

CYQF;2012-07-07 03:00;CYQF 070300Z 18004KT 15SM FEW110 20/12 A3015 RMK AC1 SLP214

CYQF;2012-07-07 04:00;CYQF 070400Z 10003KT 15SM FEW110 18/12 A3016 RMK AC1 SLP219

CYQF;2012-07-07 05:00;CYQF 070500Z 15002KT 15SM FEW100 16/12 A3017 RMK AC1 SLP221

CYQF;2012-07-07 06:00;CYQF 070600Z 18002KT 15SM SKC 14/10 A3018 RMK SLP223

CYQF;2012-07-07 07:00;CYQF 070700Z 21003KT 15SM SKC 13/10 A3018 RMK SLP224

CYQF;2012-07-07 08:00;CYQF 070800Z 00000KT 15SM SKC 12/10 A3018 RMK SLP225

CYQF;2012-07-07 09:00;CYQF 070900Z 00000KT 15SM SKC 12/10 A3019 RMK SLP226

CYQF;2012-07-07 10:00;CYQF 071000Z 17003KT 15SM FEW050 12/10 A3019 RMK SC1 SLP226

CYQF;2012-07-07 11:00;CYQF 071100Z 20003KT 15SM FEW070 10/08 A3019 RMK ACC1 SLP227

CYQF;2012-07-07 12:00;CYQF 071200Z 20003KT 15SM FEW070 FEW250 12/10 A3020 RMK AC1CI0 SLP231

CYQF;2012-07-07 13:00;CYQF 071300Z 18004KT 15SM FEW250 13/11 A3021 RMK CI0 SLP233

CYQF;2012-07-07 14:00;CYQF 071400Z 20003KT 15SM FEW250 16/13 A3021 RMK CI0 SLP234

CYQF;2012-07-07 15:00;CYQF 071500Z 20005KT 15SM FEW250 17/14 A3022 RMK CI0 SLP233

CYQF;2012-07-07 16:00;CYQF 071600Z 20006KT 15SM FEW250 20/14 A3022 RMK CI0 SLP233

CYQF;2012-07-07 17:00;CYQF 071700Z 18006KT 15SM SCT250 21/14 A3021 RMK CI2 SLP232

CYQF;2012-07-07 18:00;CYQF 071800Z 19007KT 15SM FEW035 FEW250 23/15 A3021 RMK CU1CI1 TR CU SLP230

CYQF;2012-07-07 19:00;CYQF 071900Z 19008KT 15SM FEW040 FEW250 25/13 A3020 RMK CU1CI0 SLP229

CYQF;2012-07-07 20:00;CYQF 072000Z 19008KT 15SM FEW040 SCT250 26/13 A3019 RMK CU1CI1 SLP226

CYQF;2012-07-07 21:00;CYQF 072100Z 19004KT 15SM FEW060 SCT250 26/11 A3019 RMK CU1CI1 SLP222

CYQF;2012-07-07 22:00;CYQF 072200Z 17006KT 15SM FEW060 BKN250 26/11 A3018 RMK CU1CI2 TR CU SLP219

CYQF;2012-07-07 23:00;CYQF 072300Z 18008KT 15SM FEW060 SCT280 26/12 A3017 RMK CU1CI2 SLP216

CYQF;2012-07-08 00:00;CYQF 080000Z 17010KT 15SM FEW060 FEW280 26/14 A3017 RMK CU1CI1 SLP215

CYQF;2012-07-08 01:00;CYQF 080100Z 16008KT 15SM FEW040 FEW280 26/16 A3016 RMK CU1CI1 SLP212

CYQF;2012-07-08 02:00;CYQF 080200Z 13007KT 15SM SKC 25/16 A3015 RMK SLP211

CYQF;2012-07-08 03:00;CYQF 080300Z 13005KT 15SM SKC 23/15 A3016 RMK SLP209

CYQF;2012-07-08 04:00;CYQF 080400Z 08005KT 15SM SKC 21/15 A3017 RMK SLP212

CYQF;2012-07-08 05:00;CYQF 080500Z CCA 00000KT 15SM FEW250 19/15 A3017 RMK CI0 SLP213

CYQF;2012-07-08 06:00;CYQF 080600Z 00000KT 15SM SKC 17/13 A3017 RMK SLP215

CYQF;2012-07-08 07:00;CYQF 080700Z 16004KT 15SM SKC 17/13 A3017 RMK SLP215

CYQF;2012-07-08 08:00;CYQF 080800Z 00000KT 15SM SKC 17/13 A3018 RMK SLP216

CYQF;2012-07-08 09:00;CYQF 080900Z 14003KT 15SM SKC 17/13 A3017 RMK SLP212

CYQF;2012-07-08 10:00;CYQF 081000Z 15005KT 15SM SKC 17/12 A3017 RMK SLP212

CYQF;2012-07-08 11:00;CYQF 081100Z 14004KT 15SM FEW250 14/11 A3017 RMK CI0 SLP212

CYQF;2012-07-08 12:00;CYQF 081200Z 00000KT 15SM FEW250 14/11 A3017 RMK CI0 SLP214

CYQF;2012-07-08 13:00;CYQF 081300Z 00000KT 15SM FEW100 15/13 A3018 RMK AC1 SLP216

CYQF;2012-07-08 14:00;CYQF 081400Z 17003KT 15SM FEW100 17/13 A3019 RMK AC1 SLP219

CYQF;2012-07-08 15:00;CYQF 081500Z 17004KT 15SM FEW100 19/14 A3019 RMK ACC1 SLP217

CYQF;2012-07-08 16:00;CYQF 081600Z 18002KT 15SM FEW100 21/15 A3018 RMK ACC1 SLP216

CYQF;2012-07-08 17:00;CYQF 081700Z 00000KT 15SM FEW100 23/16 A3018 RMK ACC1 SLP214

CYQF;2012-07-08 18:00;CYQF 081800Z 00000KT 15SM SKC 24/18 A3017 RMK SLP214

CYQF;2012-07-08 19:00;CYQF 081900Z 00000KT 15SM SKC 26/17 A3017 RMK SLP213

CYQF;2012-07-08 20:00;CYQF 082000Z 00000KT 15SM FEW040 27/18 A3016 RMK CU1 SLP210

CYQF;2012-07-08 21:00;CYQF 082100Z 00000KT 15SM FEW060 29/13 A3015 RMK CU1 SLP201

CYQF;2012-07-08 22:00;CYQF 082200Z 15005KT 15SM FEW060 29/17 A3014 RMK CU2 SLP198

CYQF;2012-07-08 23:00;CYQF 082300Z 15008KT 15SM FEW060 28/16 A3013 RMK CU1 SLP195

CYQF;2012-07-09 00:00;CYQF 090000Z 17010KT 15SM FEW040 FEW250 28/17 A3013 RMK CU1CI1 SLP197

CYQF;2012-07-09 01:00;CYQF 090100Z 13005KT 15SM FEW040 FEW250 27/18 A3012 RMK CU1CI2 SLP195

CYQF;2012-07-09 02:00;CYQF 090200Z 15006KT 15SM FEW250 26/18 A3012 RMK CI2 SLP194

CYQF;2012-07-09 03:00;CYQF 090300Z 13005KT 15SM FEW250 25/19 A3012 RMK CI2 SLP191

CYQF;2012-07-09 04:00;CYQF 090400Z 00000KT 15SM FEW250 23/18 A3012 RMK CI1 SLP191

CYQF;2012-07-09 05:00;CYQF 090500Z 00000KT 15SM FEW250 21/18 A3012 RMK CI1 SLP192

CYQF;2012-07-09 06:00;CYQF 090600Z 15003KT 15SM FEW250 20/18 A3012 RMK CI1 SLP192

CYQF;2012-07-09 07:00;CYQF 090700Z 00000KT 15SM FEW250 19/17 A3012 RMK CI0 SLP191

CYQF;2012-07-09 08:00;CYQF 090800Z 00000KT 15SM FEW080 FEW250 18/16 A3011 RMK AC1CI0 SLP190

CYQF;2012-07-09 09:00;CYQF 090900Z CCA 00000KT 15SM FEW080 FEW250 18/15 A3012 RMK AC1CI0 SLP190

CYQF;2012-07-09 10:00;CYQF 091000Z 00000KT 15SM FEW090 FEW250 16/14 A3012 RMK AC1CI0 SLP189

CYQF;2012-07-09 11:00;CYQF 091100Z 18002KT 15SM FEW090 SCT250 15/14 A3012 RMK AC1CI1 SLP189

CYQF;2012-07-09 12:00;CYQF 091200Z 00000KT 3SM BR FEW090 SCT250 15/14 A3011 RMK FG1AC1CI0 SLP190

CYQF;2012-07-09 12:19;CYQF 091219Z 00000KT 1SM BR FEW090 RMK FG2AC1

CYQF;2012-07-09 12:52;CYQF 091252Z 21006KT 2SM BR FEW080 RMK FG1AC1

CYQF;2012-07-09 13:00;CYQF 091300Z 21003KT 2SM BR FEW004 SCT090 16/14 A3012 RMK FG1SF2AC1 SLP192

CYQF;2012-07-09 13:14;CYQF 091314Z 21004KT 1/8SM FG SKC RMK FG7

CYQF;2012-07-09 13:27;CYQF 091327Z 21003KT 2SM BR FEW002 SCT090 RMK SF2AC2

CYQF;2012-07-09 13:31;CYQF 091331Z 22003KT 6SM BR FEW002 FEW090 RMK SF1AC2 VIS N 3

CYQF;2012-07-09 14:00;CYQF 091400Z 19003KT 10SM FEW090 17/16 A3013 RMK AC1 SLP195

CYQF;2012-07-09 15:00;CYQF 091500Z 21002KT 12SM FEW090 FEW280 19/16 A3013 RMK AC1CI1 SLP196

CYQF;2012-07-09 16:00;CYQF 091600Z 00000KT 12SM FEW280 22/17 A3012 RMK CI1 SLP194

CYQF;2012-07-09 17:00;CYQF 091700Z 00000KT 12SM FEW280 24/18 A3011 RMK CI1 SLP191

CYQF;2012-07-09 18:00;CYQF 091800Z 16005KT 12SM FEW280 26/18 A3011 RMK CI2 SLP187

CYQF;2012-07-09 19:00;CYQF 091900Z 19004KT 15SM FEW280 28/16 A3010 RMK CI1 SLP184

CYQF;2012-07-09 20:00;CYQF 092000Z 20006KT 15SM FEW280 30/15 A3010 RMK CI1 SLP183

CYQF;2012-07-09 21:00;CYQF 092100Z 19007KT 15SM FEW065 BKN280 30/14 A3008 RMK CU1CI1 SLP175

CYQF;2012-07-09 22:00;CYQF 092200Z 17006KT 15SM FEW065TCU BKN280 31/15 A3007 RMK TCU1CI2 SLP173

CYQF;2012-07-09 23:00;CYQF 092300Z 18008KT 15SM FEW060TCU BKN280 31/16 A3006 RMK TCU1CI2 SLP169

CYQF;2012-07-10 00:00;CYQF 100000Z 17007KT 15SM FEW060 BKN280 30/15 A3005 RMK CU1CI2 SLP165

CYQF;2012-07-10 01:00;CYQF 100100Z 15005KT 15SM FEW060 BKN280 30/14 A3004 RMK CU1CI2 SLP163

CYQF;2012-07-10 02:00;CYQF 100200Z 15005KT 15SM FEW060TCU BKN280 28/16 A3003 RMK TCU1CI2 SLP160

CYQF;2012-07-10 03:00;CYQF 100300Z 14004KT 15SM FEW060TCU FEW120 BKN280 26/16 A3002 RMK TCU1AC1CI2 SLP158

CYQF;2012-07-10 04:00;CYQF 100400Z 15004KT 15SM FEW100 BKN280 23/15 A3002 RMK AC2CI2 SLP158

CYQF;2012-07-10 05:00;CYQF 100500Z 17003KT 15SM FEW100 BKN280 22/15 A3001 RMK AC2CI2 SLP155

CYQF;2012-07-10 06:00;CYQF 100600Z 15005KT 15SM FEW100 BKN280 20/13 A3000 RMK AC2CI2 SLP149

CYQF;2012-07-10 07:00;CYQF 100700Z 22006KT 15SM SCT100 BKN280 18/13 A3001 RMK AC3CI2 SLP151

CYQF;2012-07-10 08:00;CYQF 100800Z 20006KT 15SM SCT100 BKN280 19/13 A3001 RMK AC3CI2 SLP152

CYQF;2012-07-10 09:00;CYQF 100900Z 21005KT 15SM FEW100 SCT280 17/12 A3000 RMK AC2CI2 SLP149

CYQF;2012-07-10 10:00;CYQF 101000Z 21008KT 15SM FEW100 FEW280 16/11 A2999 RMK AC2CI0 SLP146

CYQF;2012-07-10 11:00;CYQF 101100Z 22005KT 15SM FEW100 FEW250 14/10 A3000 RMK AC1CI0 SLP149

CYQF;2012-07-10 12:00;CYQF 101200Z 22004KT 15SM FEW090 14/10 A2999 RMK AC1 SLP147

CYQF;2012-07-10 13:00;CYQF 101300Z 21007KT 15SM FEW090 16/11 A3000 RMK AC1 SLP150

CYQF;2012-07-10 14:00;CYQF 101400Z 24006KT 15SM FEW090 FEW250 18/12 A3000 RMK AC1CI1 SLP149

CYQF;2012-07-10 15:00;CYQF 101500Z 21006KT 15SM FEW090 FEW250 21/14 A3000 RMK AC1CI1 SLP148

CYQF;2012-07-10 16:00;CYQF 101600Z 27006KT 15SM FEW090 FEW280 24/14 A3000 RMK ACC1CI1 SLP147

CYQF;2012-07-10 17:00;CYQF 101700Z 27005KT 15SM FEW100 FEW290 26/13 A3000 RMK AC1CI2 SLP148

CYQF;2012-07-10 18:00;CYQF 101800Z 29006KT 15SM FEW100 SCT290 27/15 A3000 RMK AC1CI3 SLP148

CYQF;2012-07-10 19:00;CYQF 101900Z 30005KT 15SM FEW060 BKN290 28/13 A2999 RMK CU1CI3 SLP145

CYQF;2012-07-10 20:00;CYQF 102000Z 32009KT 15SM FEW060TCU BKN290 28/11 A2998 RMK TCU1CI4 TCU DIST W SLP142

CYQF;2012-07-10 21:00;CYQF 102100Z 35004KT 15SM FEW064TCU SCT290 29/11 A2997 RMK TCU1CI2 SLP138

CYQF;2012-07-10 22:00;CYQF 102200Z 35003KT 15SM FEW072TCU FEW300 29/12 A2996 RMK TCU1CI2 SLP136

CYQF;2012-07-10 23:00;CYQF 102300Z 04003KT 15SM FEW073CB FEW300 29/11 A2995 RMK CB1CI1 CB DIST W SLP131

CYQF;2012-07-11 00:00;CYQF 110000Z 00000KT 15SM FEW075CB FEW300 29/10 A2994 RMK CB1CI1 CB DIST W SLP130

CYQF;2012-07-11 01:00;CYQF 110100Z 00000KT 15SM FEW075TCU FEW270 29/10 A2993 RMK TCU1CI1 SLP127

CYQF;2012-07-11 02:00;CYQF 110200Z 00000KT 15SM FEW075TCU FEW270 28/10 A2993 RMK TCU1CI1 SLP126

CYQF;2012-07-11 03:00;CYQF 110300Z 00000KT 15SM FEW100 FEW270 27/13 A2993 RMK AC1CI1 SLP124

CYQF;2012-07-11 04:00;CYQF 110400Z 00000KT 12SM FEW270 22/16 A2995 RMK CI1 HZ SLP129

CYQF;2012-07-11 05:00;CYQF 110500Z 00000KT 15SM FEW100 FEW270 21/15 A2995 RMK AC1CI0 SLP131

CYQF;2012-07-11 06:00;CYQF 110600Z 18002KT 15SM FEW100 FEW270 19/16 A2997 RMK AC1CI0 SLP138

CYQF;2012-07-11 07:00;CYQF 110700Z 00000KT 15SM FEW090 FEW270 18/15 A2998 RMK AC2CI0 SLP142

CYQF;2012-07-11 07:27;CYQF 110727Z 00000KT 15SM TS FEW090CB SCT270 RMK CB2CI1 LTGCGNE

CYQF;2012-07-11 08:00;CYQF 110800Z 21003KT 15SM TS BKN090 BKN270 18/15 A2999 RMK AC5CI1 LTGCG N CB ASOCTD SLP144

CYQF;2012-07-11 08:35;CYQF 110835Z 32004KT 15SM BKN090 BKN270 RETS RMK AC5CI1 LTNG DIST N CB ASOCTD

CYQF;2012-07-11 09:00;CYQF 110900Z 01005KT 15SM SCT090 BKN270 19/14 A3000 RETS RMK AC4CI1 CB ASOCTD SLP148

CYQF;2012-07-11 10:00;CYQF 111000Z 00000KT 15SM FEW090 BKN270 16/14 A3001 RMK AC2CI2 SLP150

CYQF;2012-07-11 11:00;CYQF 111100Z 02008KT 15SM FEW090 BKN270 18/14 A3003 RMK AC2CI2 SLP157

CYQF;2012-07-11 12:00;CYQF 111200Z 35004KT 15SM FEW080 FEW110 BKN270 15/13 A3005 RMK ACC1AC1CI2 TR ACC SLP168

CYQF;2012-07-11 13:00;CYQF 111300Z 35004KT 15SM FEW080 FEW270 17/13 A3006 RMK ACC1CI1 SLP170

CYQF;2012-07-11 14:00;CYQF 111400Z 29005KT 10SM FEW080 FEW270 19/13 A3007 RMK ACC2CI1 SLP175

CYQF;2012-07-11 15:00;CYQF 111500Z 29004KT 10SM FEW300 20/14 A3007 RMK CI1 SLP173

CYQF;2012-07-11 16:00;CYQF 111600Z 33004KT 15SM FEW300 22/12 A3007 RMK CI1 SLP173

CYQF;2012-07-11 17:00;CYQF 111700Z 33002KT 15SM FEW300 23/13 A3008 RMK CI1 SLP174

CYQF;2012-07-11 18:00;CYQF 111800Z 00000KT 10SM FEW300 24/14 A3007 RMK CI1 SLP177

CYQF;2012-07-11 19:00;CYQF 111900Z 18004KT 10SM FEW300 25/14 A3006 RMK CI1 HZ SLP173

CYQF;2012-07-11 20:00;CYQF 112000Z 13003KT 12SM FEW300 26/14 A3005 RMK CI1 SLP169

CYQF;2012-07-11 21:00;CYQF 112100Z 18007KT 12SM FEW300 27/14 A3003 RMK CI1 SLP161

CYQF;2012-07-11 22:00;CYQF 112200Z 15007KT 12SM FEW300 27/14 A3001 RMK CI1 SLP155

CYQF;2012-07-11 23:00;CYQF 112300Z 15009KT 12SM FEW300 27/15 A3000 RMK CI1 SLP152

CYQF;2012-07-12 00:00;CYQF 120000Z 16009KT 12SM FEW300 27/14 A3000 RMK CI1 SLP152

CYQF;2012-07-12 01:00;CYQF 120100Z 15007KT 15SM FEW300 26/15 A2999 RMK CI1 SLP149

CYQF;2012-07-12 02:00;CYQF 120200Z 14005KT 15SM FEW300 26/16 A2999 RMK CI1 SLP150

CYQF;2012-07-12 03:00;CYQF 120300Z 12003KT 12SM FEW300 24/17 A2999 RMK CI1 SLP146

CYQF;2012-07-12 04:00;CYQF 120400Z 08003KT 12SM FEW300 22/17 A2999 RMK CI1 SLP147

CYQF;2012-07-12 05:00;CYQF 120500Z 07003KT 12SM FEW300 21/16 A3000 RMK CI1 SLP149

CYQF;2012-07-12 06:00;CYQF 120600Z CCA 00000KT 15SM FEW280 19/15 A2999 RMK CI1 SLP147

CYQF;2012-07-12 07:00;CYQF 120700Z 15004KT 15SM SKC 19/15 A2998 RMK SLP144

CYQF;2012-07-12 08:00;CYQF 120800Z 18005KT 15SM SKC 18/14 A2997 RMK SLP142

CYQF;2012-07-12 09:00;CYQF 120900Z 18004KT 15SM FEW280 17/14 A2996 RMK CI1 SLP137

CYQF;2012-07-12 10:00;CYQF 121000Z 18006KT 15SM FEW280 16/13 A2995 RMK CI1 SLP134

CYQF;2012-07-12 11:00;CYQF 121100Z 12003KT 15SM FEW120 SCT280 17/13 A2995 RMK AC1CI1 SLP135

CYQF;2012-07-12 12:00;CYQF 121200Z 00000KT 15SM FEW120 SCT280 16/13 A2996 RMK AC2CI1 SLP138

CYQF;2012-07-12 13:00;CYQF 121300Z 00000KT 15SM FEW120 SCT280 17/14 A2996 RMK AC2CI1 ACC SLP140

CYQF;2012-07-12 14:00;CYQF 121400Z 03005KT 15SM FEW120 SCT280 19/15 A2998 RMK ACC2CI1 SLP144

CYQF;2012-07-12 15:00;CYQF 121500Z 06006KT 12SM FEW120 FEW280 20/15 A2999 RMK ACC2CI1 SLP147

CYQF;2012-07-12 16:00;CYQF 121600Z 00000KT 12SM SCT120 SCT290 22/16 A2999 RMK ACC3CI1 SLP148

CYQF;2012-07-12 17:00;CYQF 121700Z 31004KT 10SM SCT100 SCT290 22/16 A2999 RMK ACC2CI0 HZ SLP148

CYQF;2012-07-12 18:00;CYQF 121800Z 31003KT 15SM FEW100 FEW290 24/17 A2999 RMK ACC2CI1 HZ SLP149

CYQF;2012-07-12 19:00;CYQF 121900Z 34007KT 12SM FEW050TCU FEW300 24/17 A2999 RMK TCU1CI1 HZ SLP149

CYQF;2012-07-12 20:00;CYQF 122000Z 36008KT 12SM FEW050CB FEW300 26/17 A2999 RMK CB2CI1 HZ SLP148

CYQF;2012-07-12 21:00;CYQF 122100Z 34004KT 10SM FEW050CB BKN300 27/17 A2999 RMK CB2CI2 HZ SLP148

CYQF;2012-07-12 22:00;CYQF 122200Z 02007KT 10SM FEW050CB BKN300 27/17 A2999 RMK CB2CI5 SLP147

CYQF;2012-07-12 23:00;CYQF 122300Z 04007KT 12SM FEW050CB BKN100 BKN300 26/16 A2999 RMK CB2AS3CI2 SLP147

CYQF;2012-07-13 00:00;CYQF 130000Z 36005KT 12SM FEW050CB BKN100 BKN300 24/18 A2999 RMK CB2AS3CI2 SLP151

CYQF;2012-07-13 01:00;CYQF 130100Z 02005KT 12SM VCSH BKN050CB BKN300 24/17 A2998 RMK CB5CI2 SLP150

CYQF;2012-07-13 02:00;CYQF 130200Z 05007KT 12SM VCSH SCT050CB BKN100 BKN300 24/17 A3000 RMK CB3ACC2CI2 SLP154

CYQF;2012-07-13 03:00;CYQF 130300Z 03010KT 10SM BKN080 BKN300 23/17 A3001 RMK AC5CI2 TCU EMBDD SLP155

CYQF;2012-07-13 04:00;CYQF 130400Z 05002KT 10SM BKN050 BKN300 22/16 A3002 RMK SC5CI2 CB EMBDD SLP159

CYQF;2012-07-13 05:00;CYQF 130500Z 07003KT 10SM BKN050 BKN300 21/16 A3005 RMK SC5CI2 CB EMBDD LTGCG N+S SLP168

CYQF;2012-07-13 06:00;CYQF 130600Z CCA 00000KT 10SM BKN050 BKN300 19/16 A3006 RMK SC5CI2 CB EMBDD LTGCGCC S SLP175

CYQF;2012-07-13 07:00;CYQF 130700Z 32006KT 10SM BKN050 BKN300 19/15 A3010 RMK SC5CI2 CB EMBDD LTNG DIST S SLP186

CYQF;2012-07-13 08:00;CYQF 130800Z 35005KT 10SM SCT050 BKN280 17/15 A3011 RMK SC3CI1 SLP189

CYQF;2012-07-13 09:00;CYQF 130900Z 01006KT 15SM FEW050 SCT280 18/14 A3011 RMK SC2CI1 SLP188

CYQF;2012-07-13 10:00;CYQF 131000Z 34006KT 15SM FEW050 SCT280 15/12 A3011 RMK SC2CI1 SLP187

CYQF;2012-07-13 11:00;CYQF 131100Z 02004KT 15SM FEW050 FEW280 17/13 A3013 RMK SC1CI1 SLP195

CYQF;2012-07-13 12:00;CYQF 131200Z 35007KT 10SM FEW050 SCT280 14/11 A3014 RMK SC1CI2 SLP205

CYQF;2012-07-13 14:00;CYQF 131400Z 02006KT 15SM FEW050 BKN280 16/09 A3015 RMK SC1CI4 SLP210

CYQF;2012-07-13 15:00;CYQF 131500Z 35004KT 15SM FEW050 BKN280 18/09 A3016 RMK SC1CI2 SLP209

CYQF;2012-07-13 16:00;CYQF 131600Z 08004KT 15SM FEW080 BKN280 20/10 A3017 RMK AC1CI4 SLP212

CYQF;2012-07-13 17:00;CYQF 131700Z 05007KT 15SM BKN280 22/10 A3015 RMK CI5 SLP207

CYQF;2012-07-13 18:00;CYQF 131800Z 06008KT 15SM SCT280 23/11 A3014 RMK CI2 SLP202

CYQF;2012-07-13 19:00;CYQF 131900Z 07008KT 15SM SCT280 24/13 A3014 RMK CI3 SLP201

CYQF;2012-07-13 20:00;CYQF 132000Z 08008KT 15SM FEW100 BKN280 16/14 A3014 RMK AC2CI2 SLP200

CYQF;2012-07-13 21:00;CYQF 132100Z 09010KT 12SM FEW040 SCT280 26/15 A3012 RMK CF1CI2 SLP191

CYQF;2012-07-13 22:00;CYQF 132200Z 08010KT 12SM FEW045 SCT280 27/15 A3011 RMK CU1CI2 SLP189

CYQF;2012-07-13 23:00;CYQF 132300Z 08007KT 12SM FEW040 BKN280 26/16 A3010 RMK CU1CI2 SLP185

CYQF;2012-07-14 00:00;CYQF 140000Z 15005KT 12SM FEW045 BKN280 27/16 A3010 RMK CU1CI3 SLP188

CYQF;2012-07-14 01:00;CYQF 140100Z 15005KT 12SM FEW040 BKN280 25/17 A3009 RMK CU1CI4 SLP185

CYQF;2012-07-14 02:00;CYQF 140200Z 17003KT 12SM FEW030 BKN280 25/17 A3009 RMK CU2CI4 SLP186

CYQF;2012-07-14 03:00;CYQF 140300Z 16006KT 12SM FEW030 BKN280 24/17 A3009 RMK CU1CI2 SLP186

CYQF;2012-07-14 04:00;CYQF 140400Z 15004KT 12SM SCT120 BKN280 22/17 A3010 RMK AC3CI2 SLP189

CYQF;2012-07-14 05:00;CYQF 140500Z 15004KT 15SM SCT120 BKN280 21/16 A3011 RMK AC3CI2 SLP190

CYQF;2012-07-14 06:00;CYQF 140600Z 15005KT 15SM SCT120 BKN280 20/16 A3010 RMK AC3CI2 SLP186

CYQF;2012-07-14 07:00;CYQF 140700Z 15006KT 15SM BKN100 BKN280 19/15 A3009 RMK AC5CI2 SLP183

CYQF;2012-07-14 08:00;CYQF 140800Z 13004KT 15SM SCT100 BKN280 19/15 A3008 RMK AC3CI2 SLP181

CYQF;2012-07-14 09:00;CYQF 140900Z 15003KT 15SM FEW100 BKN280 18/14 A3007 RMK AC2CI2 SLP177

CYQF;2012-07-14 10:00;CYQF 141000Z 17004KT 15SM FEW100 SCT280 16/13 A3006 RMK AC2CI1 SLP173

CYQF;2012-07-14 11:00;CYQF 141100Z 00000KT 15SM FEW100 BKN280 16/13 A3006 RMK AC2CI2 SLP174

CYQF;2012-07-14 12:00;CYQF 141200Z 00000KT 10SM FEW100 BKN280 15/13 A3007 RMK AC2CI2 SLP178

CYQF;2012-07-14 13:00;CYQF 141300Z CCA 00000KT 10SM FEW100 BKN280 17/14 A3006 RMK AC2CS4 SLP175

CYQF;2012-07-14 14:00;CYQF 141400Z 00000KT 8SM FEW100 BKN280 19/15 A3006 RMK AC2CI4 SLP176

CYQF;2012-07-14 15:00;CYQF 141500Z 14003KT 10SM FEW100 BKN280 20/14 A3005 RMK AC2CI4 SLP169

CYQF;2012-07-14 16:00;CYQF 141600Z 17005KT 10SM BKN280 21/15 A3004 RMK CI6 SLP166

CYQF;2012-07-14 17:00;CYQF 141700Z CCA 14005KT 10SM BKN280 21/14 A3003 RMK CI6 SLP162

CYQF;2012-07-14 18:00;CYQF 141800Z 14006KT 10SM BKN280 23/15 A3000 RMK CI6 SLP153

CYQF;2012-07-14 19:00;CYQF 141900Z 13008KT 12SM FEW032 BKN140 BKN280 23/15 A3000 RMK CF1AC5CI2 SLP151

CYQF;2012-07-14 20:00;CYQF 142000Z 08009KT 10SM FEW032 BKN140 BKN280 23/15 A2998 RMK CF1AC6CI2 SLP145

CYQF;2012-07-14 21:00;CYQF 142100Z 13007KT 10SM FEW033 SCT140 BKN280 24/15 A2996 RMK CF1AC3CI2 SLP142

CYQF;2012-07-14 22:00;CYQF 142200Z 14005KT 10SM FEW030 SCT140 BKN280 23/16 A2995 RMK CF1AC3CI3 SLP139

CYQF;2012-07-14 23:00;CYQF 142300Z 12006KT 8SM BKN032 BKN140 OVC280 23/16 A2994 RMK SC5AC2CI1 SLP135

CYQF;2012-07-15 00:00;CYQF 150000Z 08004KT 10SM BKN030 BKN140 23/17 A2993 RMK SC5AC2 SLP132

CYQF;2012-07-15 01:00;CYQF 150100Z 15005KT 10SM BKN030 OVC140 22/17 A2991 RMK SC5AC2 SLP128

CYQF;2012-07-15 02:00;CYQF 150200Z 17003KT 10SM BKN030 OVC120 22/16 A2991 RMK SC5AC2 TCU ASOCTD SLP127

CYQF;2012-07-15 03:00;CYQF 150300Z 00000KT 8SM BKN030 OVC120 21/17 A2990 RMK SC6AC2 SLP120

CYQF;2012-07-15 03:12;CYQF 150312Z 00000KT 8SM -SHRA BKN030 OVC120 RMK SC6AC2

CYQF;2012-07-15 03:40;CYQF 150340Z 00000KT 8SM VCSH BKN030 OVC120 RMK SC5AC2

CYQF;2012-07-15 04:00;CYQF 150400Z 00000KT 8SM BKN030 OVC120 20/17 A2988 RMK SC5AC2 SLP115

CYQF;2012-07-15 05:00;CYQF 150500Z 12005KT 15SM BKN033 OVC120 20/16 A2988 RMK SC6AC2 SLP115

CYQF;2012-07-15 06:00;CYQF 150600Z 13004KT 10SM BKN033 BKN120 OVC280 18/16 A2986 RMK SC5AC2CI2 SLP107

CYQF;2012-07-15 07:00;CYQF 150700Z 16004KT 10SM FEW008 BKN033 OVC120 18/16 A2985 RMK SF2SC4AC2 SLP101

CYQF;2012-07-15 08:00;CYQF 150800Z 12004KT 10SM SCT008 OVC030 18/16 A2984 RMK SF3SC5 SLP098

CYQF;2012-07-15 08:35;CYQF 150835Z 15005KT 10SM -RA BKN008 OVC030 RMK SF5SC3

CYQF;2012-07-15 09:00;CYQF 150900Z 00000KT 10SM -RA OVC008 18/16 A2982 RMK ST8 SLP091

CYQF;2012-07-15 10:00;CYQF 151000Z 00000KT 10SM -RA OVC007 18/16 A2981 RMK ST8 SLP088

CYQF;2012-07-15 11:00;CYQF 151100Z CCA 27006KT 5SM -RA BR OVC007 17/16 A2981 RMK ST8 SLP087

CYQF;2012-07-15 12:00;CYQF 151200Z 00000KT 6SM -RA BR BKN007 OVC080 17/15 A2981 RMK SC6AC2 SLP089

CYQF;2012-07-15 12:35;CYQF 151235Z 28004KT 10SM SCT007 BKN050 OVC080 RMK SC3SC2AC2

CYQF;2012-07-15 13:00;CYQF 151300Z 27006KT 10SM FEW008 BKN050 OVC080 16/14 A2981 RMK SC2SC3AC2 SLP089

CYQF;2012-07-15 14:00;CYQF 151400Z 31008KT 10SM BKN009 BKN050 17/15 A2981 RMK SC6SC2 SLP088

CYQF;2012-07-15 15:00;CYQF 151500Z 30006KT 8SM BKN008 OVC050 17/15 A2981 RMK SC6SC2 SLP092

CYQF;2012-07-15 16:00;CYQF 151600Z 32010G15KT 10SM BKN008 OVC050 17/15 A2982 RMK SC7SC1 SLP094

CYQF;2012-07-15 17:00;CYQF 151700Z 32008KT 10SM OVC010 18/15 A2983 RMK SC8 SLP097

CYQF;2012-07-15 18:00;CYQF 151800Z 32008KT 12SM OVC010 19/15 A2982 RMK SC8 SLP097

CYQF;2012-07-15 19:00;CYQF 151900Z 33010KT 12SM OVC019 19/15 A2983 RMK SC8 SLP098

CYQF;2012-07-15 19:49;CYQF 151949Z 34007KT 12SM -SHRA SCT016 OVC040 RMK CU4SC4

CYQF;2012-07-15 20:00;CYQF 152000Z 35008KT 12SM -SHRA BKN016 OVC040 19/13 A2984 RMK CU5SC3 SLP101

CYQF;2012-07-15 21:00;CYQF 152100Z 36005KT 6SM -SHRA BR BKN016 OVC040 17/16 A2984 RMK SC6SC2 SLP105

CYQF;2012-07-15 22:00;CYQF 152200Z 33004KT 6SM -SHRA BR BKN020 OVC060 18/16 A2984 RMK SC5SC3 SLP106

CYQF;2012-07-15 23:00;CYQF 152300Z 33008KT 8SM -SHRA SCT020 OVC060 18/16 A2985 RMK SC4SC4 SLP109

CYQF;2012-07-16 00:00;CYQF 160000Z 33004KT 8SM -SHRA SCT020 OVC060 18/16 A2986 RMK SC4SC4 SLP113

CYQF;2012-07-16 01:00;CYQF 160100Z 32003KT 6SM -SHRA BKN020 OVC060 18/16 A2987 RMK SC5SC3 SLP115

CYQF;2012-07-16 02:00;CYQF 160200Z 35003KT 6SM -SHRA BKN020 OVC060 17/15 A2987 RMK SC5SC3 SLP115

CYQF;2012-07-16 03:00;CYQF 160300Z 33008KT 6SM -SHRA BKN020 OVC060 17/15 A2987 RMK SC6SC2 SLP118

CYQF;2012-07-16 04:00;CYQF 160400Z 36006KT 6SM -SHRA BKN015 OVC040 17/16 A2989 RMK SC5SC3 SLP124

CYQF;2012-07-16 04:39;CYQF 160439Z 35003KT 8SM -SHRA BKN006 OVC020 RMK SF5SC3

CYQF;2012-07-16 05:00;CYQF 160500Z CCA 01006KT 8SM -SHRA BKN006 OVC020 17/16 A2991 RMK SF6SC2 SLP128

CYQF;2012-07-16 06:00;CYQF 160600Z 34004KT 8SM -SHRA BKN006 OVC020 17/16 A2991 RMK SF6SC2 SLP130

CYQF;2012-07-16 07:00;CYQF 160700Z 01005KT 8SM -SHRA BKN007 OVC015 17/16 A2992 RMK SF6SC2 SLP133

CYQF;2012-07-16 08:00;CYQF 160800Z 02006KT 10SM -RA BKN006 OVC015 17/16 A2994 RMK SF6SC2 SLP137

CYQF;2012-07-16 09:00;CYQF 160900Z 36006KT 10SM -RA BKN006 OVC012 17/15 A2994 RMK SF5SC3 SLP142

CYQF;2012-07-16 10:00;CYQF 161000Z 36010KT 10SM -RA BKN006 OVC012 16/15 A2995 RMK SF5SC3 SLP143

CYQF;2012-07-16 11:00;CYQF 161100Z 34003KT 10SM -RA BKN006 OVC012 16/15 A2996 RMK SF6SC2 SLP148

CYQF;2012-07-16 12:00;CYQF 161200Z 35008KT 10SM -RA OVC005 16/15 A2997 RMK SF8 SLP152

CYQF;2012-07-16 13:00;CYQF 161300Z 01006KT 8SM -RA OVC005 15/14 A2999 RMK SC8 SLP158

CYQF;2012-07-16 13:42;CYQF 161342Z 35005KT 1 1/2SM -RA BR OVC005 RMK SC8

CYQF;2012-07-16 14:00;CYQF 161400Z 35006KT 1 1/2SM -RA BR OVC005 16/15 A3001 RMK SC8 SLP164

CYQF;2012-07-16 14:20;CYQF 161420Z 36005KT 3/4SM -RA BR OVC005 RMK FG2SC6

CYQF;2012-07-16 15:00;CYQF 161500Z 36005KT 1 1/2SM -DZ BR OVC002 16/15 A3002 RMK SF8 CIG RAG SLP171

CYQF;2012-07-16 16:00;CYQF 161600Z 01006KT 1SM -DZ BR OVC003 16/15 A3004 RMK SF8 CIG RAG SLP175

CYQF;2012-07-16 16:36;CYQF 161636Z 05005KT 3SM BR BKN003 OVC015 RMK SF7SC1 CIG RAG

CYQF;2012-07-16 17:00;CYQF 161700Z 03006KT 6SM BR BKN004 OVC015 16/14 A3004 RMK SF6SC2 CIG RAG SLP175

CYQF;2012-07-16 17:11;CYQF 161711Z 01010KT 6SM BR BKN008 OVC020 RMK SF6ST2

CYQF;2012-07-16 18:00;CYQF 161800Z 03008KT 6SM BR BKN009 OVC020 16/14 A3004 RMK SF6SC2 SLP177

CYQF;2012-07-16 19:00;CYQF 161900Z 36003KT 10SM BKN009 OVC020 17/14 A3005 RMK SF6SC2 SLP178

CYQF;2012-07-16 20:00;CYQF 162000Z 36003KT 8SM SCT008 OVC030 17/15 A3004 RMK CF4SC4 SLP176

CYQF;2012-07-16 21:00;CYQF 162100Z 36002KT 3SM BR SCT008 OVC030 17/15 A3004 RMK SF4SC4 SLP177

CYQF;2012-07-16 21:35;CYQF 162135Z 34004KT 3SM -SHRA BR BKN008 OVC020 RMK CF5SC3

CYQF;2012-07-16 22:00;CYQF 162200Z 34002KT 3SM -SHRA BR SCT007 OVC015 17/15 A3004 RMK CF4ST4 SLP175

CYQF;2012-07-16 22:43;CYQF 162243Z 00000KT 10SM FEW007 BKN030 BKN090 RMK SF2SC2AC2

CYQF;2012-07-16 23:00;CYQF 162300Z 00000KT 10SM FEW007 BKN030 BKN090 18/16 A3003 RMK SF2SC4AC2 SLP172

CYQF;2012-07-17 00:00;CYQF 170000Z 26002KT 10SM FEW015 FEW030 BKN090 19/16 A3001 RMK CU1SC2AC3 SLP166

CYQF;2012-07-17 01:00;CYQF 170100Z 00000KT 15SM FEW015 SCT090 BKN250 19/15 A3000 RMK CU1AC2CI0 SLP162

CYQF;2012-07-17 02:00;CYQF 170200Z 00000KT 15SM FEW015 SCT090 BKN250 20/16 A2999 RMK CU1AC2CI0 SLP158

CYQF;2012-07-17 03:00;CYQF 170300Z 00000KT 15SM FEW015 FEW090 19/16 A2998 RMK CU1AC1 SLP153

CYQF;2012-07-17 04:00;CYQF 170400Z 00000KT 15SM FEW090 17/15 A2997 RMK AC2 SLP152

CYQF;2012-07-17 05:00;CYQF 170500Z 16003KT 15SM FEW090 16/14 A2998 RMK AC2 SLP153

CYQF;2012-07-17 06:00;CYQF 170600Z 14003KT 15SM FEW090 16/14 A2996 RMK AC1 SLP152

CYQF;2012-07-17 07:00;CYQF 170700Z 17003KT 15SM FEW090 15/14 A2995 RMK AC1 SLP148

CYQF;2012-07-17 08:00;CYQF 170800Z 15007KT 6SM BR SKC 15/14 A2994 RMK SLP143

CYQF;2012-07-17 09:00;CYQF 170900Z 16010KT 4SM BR SKC 16/15 A2991 RMK FG3 SLP131

CYQF;2012-07-17 09:25;CYQF 170925Z 16008KT 2SM BR SKC RMK FG6

CYQF;2012-07-17 10:00;CYQF 171000Z 17012KT 1 1/2SM BR SKC 16/15 A2990 RMK FG6 SLP129

CYQF;2012-07-17 10:20;CYQF 171020Z 17012KT 1 1/2SM BR VV004 RMK FG8

CYQF;2012-07-17 10:34;CYQF 171034Z 17008KT 4SM BR SCT007 OVC012 RMK SF4SC4

CYQF;2012-07-17 11:00;CYQF 171100Z 16008KT 15SM BKN006 16/14 A2990 RMK SF7 SLP128

CYQF;2012-07-17 12:00;CYQF 171200Z 17012KT 6SM BR BKN006 15/14 A2990 RMK SF7 SLP126

CYQF;2012-07-17 13:00;CYQF 171300Z 17010KT 6SM BR BKN007 BKN015 15/13 A2989 RMK SC6SC2 SLP123

CYQF;2012-07-17 14:00;CYQF 171400Z 18010G15KT 5SM BR OVC007 16/14 A2988 RMK SC8 SLP122

CYQF;2012-07-17 15:00;CYQF 171500Z 17010KT 8SM BKN006 17/15 A2987 RMK SC7 SLP115

CYQF;2012-07-17 16:00;CYQF 171600Z 16010G16KT 8SM BKN006 BKN240 19/15 A2986 RMK CF4CI1 SLP113

CYQF;2012-07-17 16:27;CYQF 171627Z 17010G15KT 8SM FEW008 BKN012 BKN240 RMK CF2SC3CI1

CYQF;2012-07-17 17:00;CYQF 171700Z 18012KT 10SM FEW008 BKN015 19/16 A2986 RMK CF2SC6 SLP112

CYQF;2012-07-17 17:28;CYQF 171728Z 16010G15KT 10SM OVC011 RMK SC8 CU EMBD

CYQF;2012-07-17 18:00;CYQF 171800Z 16010G15KT 10SM OVC011 19/15 A2986 RMK SC8 SLP112

CYQF;2012-07-17 19:00;CYQF 171900Z 16010G15KT 10SM OVC014 19/15 A2985 RMK SC8 SLP110

CYQF;2012-07-17 20:00;CYQF 172000Z 17010G15KT 12SM OVC015 20/16 A2985 RMK SC8 SLP108

CYQF;2012-07-17 21:00;CYQF 172100Z 18011KT 12SM FEW010 BKN016 21/16 A2982 RMK CF2SC5 SLP097

CYQF;2012-07-17 22:00;CYQF 172200Z 15010KT 15SM FEW020 BKN090 BKN250 22/17 A2980 RMK CU2AC2CI2 SLP091

CYQF;2012-07-17 23:00;CYQF 172300Z 15008KT 15SM SCT023 BKN250 24/18 A2978 RMK CU4CI3 SLP084

CYQF;2012-07-18 00:00;CYQF 180000Z 17010KT 15SM FEW024 BKN250 24/18 A2977 RMK CU2CI3 SLP079

CYQF;2012-07-18 01:00;CYQF 180100Z 15006KT 15SM FEW025 BKN250 23/18 A2976 RMK CU2CI4 SLP074

CYQF;2012-07-18 02:00;CYQF 180200Z 14003KT 15SM FEW025 SCT100 BKN250 22/18 A2975 RMK CU1AC2CI2 SLP072

CYQF;2012-07-18 03:00;CYQF 180300Z 14005KT 15SM FEW120 BKN250 21/18 A2973 RMK AC2CI3 SLP063

CYQF;2012-07-18 04:00;CYQF 180400Z 15004KT 15SM FEW040 FEW120 BKN250 20/17 A2974 RMK CU1AC2CI2 CB TOP W SLP067

CYQF;2012-07-18 05:00;CYQF 180500Z 15008KT 15SM FEW040 SCT120 BKN250 19/17 A2974 RMK CU2AC2CI2 LTGCG W SLP066

CYQF;2012-07-18 06:00;CYQF 180600Z 13007KT 15SM FEW040 SCT120 BKN250 19/17 A2975 RMK CU2AC2CI2 SLP069

CYQF;2012-07-18 07:00;CYQF 180700Z CCA 00000KT 15SM FEW120 BKN250 18/16 A2973 RMK AC2CI2 SLP063

CYQF;2012-07-18 08:00;CYQF 180800Z 00000KT 15SM FEW100 BKN250 17/15 A2973 RMK AC2CI2 SLP063

CYQF;2012-07-18 09:00;CYQF 180900Z 00000KT 15SM FEW100 SCT250 18/16 A2974 RMK AC2CI1 SLP067

CYQF;2012-07-18 10:00;CYQF 181000Z 36006KT 15SM BKN025 BKN100 18/15 A2975 RMK SC5AC2 SLP070

CYQF;2012-07-18 11:00;CYQF 181100Z 33004KT 15SM BKN025 BKN090 BKN250 16/14 A2974 RMK SC5AC1CI1 SLP068

CYQF;2012-07-18 12:00;CYQF 181200Z 27004KT 15SM BKN025 BKN090 BKN250 15/14 A2975 RMK SC5AC1CI1 SLP070

CYQF;2012-07-18 13:00;CYQF 181300Z 31007KT 15SM BKN030 BKN090 BKN250 16/14 A2978 RMK SC5AC1CI1 SLP079

CYQF;2012-07-18 14:00;CYQF 181400Z 29003KT 15SM SCT025 BKN090 BKN250 17/14 A2978 RMK SC3AC2CI2 TCU ASOCTD SLP078

CYQF;2012-07-18 15:00;CYQF 181500Z 23003KT 15SM FEW025TCU BKN090 BKN250 18/14 A2976 RMK TCU1AC4CI2 SLP074

CYQF;2012-07-18 16:00;CYQF 181600Z 24006KT 15SM FEW025TCU BKN090 BKN250 19/14 A2976 RMK TCU1AC4CI2 SLP075

CYQF;2012-07-18 17:00;CYQF 181700Z 22003KT 15SM FEW030TCU BKN100 BKN250 20/15 A2976 RMK TCU1AC4CI1 SLP072

CYQF;2012-07-18 18:00;CYQF 181800Z 27003KT 15SM FEW031TCU BKN100 BKN250 22/15 A2977 RMK TCU1AC5CI2 TCU DIST SW SLP075

CYQF;2012-07-18 19:00;CYQF 181900Z 16005KT 15SM FEW040CB FEW100 SCT250 24/14 A2976 RMK CB1AC1CI2 SLP071

CYQF;2012-07-18 20:00;CYQF 182000Z 20005KT 15SM FEW040CB SCT250 25/15 A2974 RMK CB2CI2 SLP066

CYQF;2012-07-18 21:00;CYQF 182100Z 18010KT 15SM FEW042CB SCT250 27/16 A2972 RMK CB2CI2 SLP054

CYQF;2012-07-18 22:00;CYQF 182200Z 16010KT 15SM SCT043CB SCT120 28/17 A2972 RMK CB3AC1 CB N+NE SLP054

CYQF;2012-07-18 23:00;CYQF 182300Z 36010G15KT 15SM SCT035CB BKN120 25/17 A2973 RMK CB3AC2 CB NW-NE SLP058

CYQF;2012-07-19 00:00;CYQF 190000Z 02005KT 15SM FEW026CB BKN080 BKN250 22/16 A2975 RMK CB2AC6CI1 CB DIST NW-NE SLP072

CYQF;2012-07-19 01:00;CYQF 190100Z 02014KT 15SM FEW030CB SCT090 BKN250 22/15 A2977 RMK CB1AC2CI1 CB NE-E SLP077

CYQF;2012-07-19 02:00;CYQF 190200Z 02008KT 15SM FEW030CB SCT090 BKN250 21/15 A2979 RMK CB1AC2CI1 CB ENE SLP085

CYQF;2012-07-19 03:00;CYQF 190300Z 02010KT 15SM FEW030CB SCT090 BKN250 18/13 A2982 RMK CB1AC2CI1 CB DIST E SLP096

CYQF;2012-07-19 04:00;CYQF 190400Z 00000KT 15SM FEW040 SCT090 BKN250 17/13 A2984 RMK CU1AC3CI1 SLP103

CYQF;2012-07-19 04:50;CYQF 190450Z 35005KT 15SM -SHRA FEW040 BKN090 RMK SC1AC6

CYQF;2012-07-19 05:00;CYQF 190500Z 35004KT 15SM -SHRA FEW040 BKN090 17/14 A2987 RMK SC1AC6 SLP113

CYQF;2012-07-19 06:00;CYQF 190600Z 00000KT 15SM -SHRA OVC070 17/14 A2990 RMK AC8 SLP122

CYQF;2012-07-19 07:00;CYQF 190700Z 00000KT 15SM BKN070 16/14 A2988 RMK AC6 SLP117

CYQF;2012-07-19 07:35;CYQF 190735Z 28004KT 15SM SCT070 RMK AC4

CYQF;2012-07-19 08:00;CYQF 190800Z 30004KT 15SM BKN070 16/14 A2991 RMK AC6 SLP125

CYQF;2012-07-19 09:00;CYQF 190900Z 00000KT 15SM BKN070 15/14 A2993 RMK AC7 SLP130

CYQF;2012-07-19 10:00;CYQF 191000Z 33004KT 15SM BKN070 15/13 A2991 RMK AC6 SLP124

CYQF;2012-07-19 11:00;CYQF 191100Z 29002KT 15SM BKN070 BKN250 14/13 A2994 RMK AC6CI1 SLP133

CYQF;2012-07-19 12:00;CYQF 191200Z 33004KT 15SM BKN070 BKN250 15/13 A2997 RMK AC6CI1 SLP148

CYQF;2012-07-19 13:00;CYQF 191300Z 04004KT 15SM BKN070 BKN250 15/13 A3000 RMK AC6CI1 SLP158

CYQF;2012-07-19 14:00;CYQF 191400Z 08006KT 15SM BKN070 BKN260 15/11 A3002 RMK AC3CI1 SLP163

CYQF;2012-07-19 15:00;CYQF 191500Z 04010KT 15SM FEW010 FEW080 SCT260 16/10 A3004 RMK SC1AC2CI0 TR SC ACC ASOCTD SLP176

CYQF;2012-07-19 16:00;CYQF 191600Z 06007KT 15SM FEW028 FEW080 BKN270 17/10 A3005 RMK CU1AC1CI1 SLP180

CYQF;2012-07-19 17:00;CYQF 191700Z 08004KT 15SM FEW036 FEW090 BKN280 19/10 A3006 RMK CU1ACC1CI0 SLP182

CYQF;2012-07-19 18:00;CYQF 191800Z 10003KT 15SM FEW035 FEW250 19/11 A3007 RMK CU1CI1 CU TR SLP185

CYQF;2012-07-19 19:00;CYQF 191900Z 03002KT 15SM FEW040 BKN260 20/11 A3007 RMK CU2CI1 SLP185

CYQF;2012-07-19 20:00;CYQF 192000Z 08002KT 15SM FEW036 BKN250 21/12 A3007 RMK CU2CI2 SLP185

CYQF;2012-07-19 21:00;CYQF 192100Z 17003KT 15SM BKN032 22/14 A3008 RMK CU5 SLP185

CYQF;2012-07-19 22:00;CYQF 192200Z 00000KT 15SM BKN036 22/13 A3008 RMK CU6 SLP186

CYQF;2012-07-19 23:00;CYQF 192300Z 00000KT 15SM BKN040 23/12 A3008 RMK CU5 SLP187

CYQF;2012-07-20 00:00;CYQF 200000Z 00000KT 15SM BKN040 22/12 A3009 RMK CU5 SLP189

CYQF;2012-07-20 01:00;CYQF 200100Z 06005KT 15SM SCT040 SCT100 22/13 A3009 RMK CU3AC1 SLP190

CYQF;2012-07-20 02:00;CYQF 200200Z 07004KT 15SM SCT040 BKN100 21/14 A3011 RMK SC3AC2 SLP195

CYQF;2012-07-20 03:00;CYQF 200300Z 07005KT 15SM BKN040 BKN100 20/15 A3011 RMK SC5AC1 SLP198

CYQF;2012-07-20 04:00;CYQF 200400Z 00000KT 15SM BKN040 BKN100 19/14 A3014 RMK SC5AC1 SLP205

CYQF;2012-07-20 05:00;CYQF 200500Z 09002KT 15SM BKN040 18/14 A3015 RMK SC6 SLP208

CYQF;2012-07-20 06:00;CYQF 200600Z 07003KT 15SM BKN075 18/13 A3015 RMK AC6 SLP208

CYQF;2012-07-20 07:00;CYQF 200700Z 00000KT 15SM SCT260 18/13 A3016 RMK CI3 SLP213

CYQF;2012-07-20 08:00;CYQF 200800Z 07002KT 15SM BKN070 18/13 A3017 RMK AC7 SLP215

CYQF;2012-07-20 09:00;CYQF 200900Z 00000KT 15SM OVC070 17/13 A3017 RMK AC8 SLP214

CYQF;2012-07-20 10:00;CYQF 201000Z 13005KT 15SM OVC070 17/13 A3016 RMK AC8 SLP213

CYQF;2012-07-20 11:00;CYQF 201100Z 14005KT 15SM -SHRA OVC070 16/13 A3017 RMK AC8 SLP214

CYQF;2012-07-20 11:18;CYQF 201118Z 15003KT 15SM OVC070 RMK AC8

CYQF;2012-07-20 12:00;CYQF 201200Z 14004KT 15SM OVC070 16/13 A3017 RMK AC8 SLP215

CYQF;2012-07-20 13:00;CYQF 201300Z 12005KT 15SM BKN070 17/13 A3017 RMK AC7 SLP216

CYQF;2012-07-20 14:00;CYQF 201400Z 16006KT 15SM BKN070 17/13 A3019 RMK AC7 SLP221

CYQF;2012-07-20 15:00;CYQF 201500Z 14005KT 15SM BKN070 BKN250 18/13 A3018 RMK AC5CI2 SLP221

CYQF;2012-07-20 16:00;CYQF 201600Z 16010G15KT 15SM FEW032 BKN080 BKN250 20/13 A3018 RMK CU1AC4CI0 SLP220

CYQF;2012-07-20 17:00;CYQF 201700Z 16010G15KT 15SM FEW030 BKN090 BKN250 21/13 A3016 RMK CU1AC5CI1 SLP215

CYQF;2012-07-20 18:00;CYQF 201800Z 15010G15KT 15SM FEW036 BKN090 BKN250 21/13 A3016 RMK CU1AC6CI1 SLP211

CYQF;2012-07-20 19:00;CYQF 201900Z 13011G16KT 15SM FEW032 BKN090 BKN250 20/13 A3014 RMK CU1AC6CI1 SLP206

CYQF;2012-07-20 20:00;CYQF 202000Z 15010G15KT 15SM BKN030 BKN090 BKN250 21/14 A3014 RMK CU5AC2CI1 SLP204

CYQF;2012-07-20 21:00;CYQF 202100Z 13010KT 15SM SCT030 BKN090 BKN250 22/15 A3010 RMK CU4AC2CI1 SLP192

CYQF;2012-07-20 22:00;CYQF 202200Z 13010G15KT 15SM SCT030 BKN090 BKN250 22/14 A3008 RMK CU4AC2CI1 SLP186

CYQF;2012-07-20 23:00;CYQF 202300Z 13008KT 15SM SCT030 BKN090 OVC250 22/15 A3008 RMK CU4AC3CI1 SLP185

CYQF;2012-07-21 00:00;CYQF 210000Z 12010KT 15SM FEW030 SCT090 BKN250 22/15 A3002 RMK CU1AC2CI4 SLP165

CYQF;2012-07-21 01:00;CYQF 210100Z 13004KT 15SM FEW030 BKN250 23/15 A3001 RMK CU1CI2 SLP162

CYQF;2012-07-21 02:00;CYQF 210200Z 12006KT 15SM FEW030 BKN250 22/15 A2999 RMK SC2CI2 SLP155

CYQF;2012-07-21 03:00;CYQF 210300Z 09005KT 15SM FEW030 BKN250 20/15 A2998 RMK SC2CI1 SLP151

CYQF;2012-07-21 04:00;CYQF 210400Z 10005KT 15SM FEW030 BKN250 19/15 A2997 RMK SC2CI1 SLP148

CYQF;2012-07-21 05:00;CYQF 210500Z 10006KT 15SM FEW030 BKN250 19/15 A2995 RMK SC2CI2 FRQ LTNG SE SLP140

CYQF;2012-07-21 05:48;CYQF 210548Z 13007KT 15SM TS SCT030CB BKN070 RMK CB3AC3

CYQF;2012-07-21 06:00;CYQF 210600Z 15015G25KT 15SM TS VCSH BKN040CB OVC070 19/15 A2994 RMK CB6AC2 VSBY S 5 SLP135

CYQF;2012-07-21 06:07;CYQF 210607Z 19015G25KT 10SM -TSRA BKN040CB OVC070 RMK CB6AC2 LTGCCIC

CYQF;2012-07-21 06:43;CYQF 210643Z 18008KT 10SM -SHRA OVC040 RETS RMK SC8

CYQF;2012-07-21 07:00;CYQF 210700Z 20002KT 15SM -SHRA BKN040 OVC075 17/15 A2990 RETS RMK SC6AC2 SLP123

CYQF;2012-07-21 07:41;CYQF 210741Z 19004KT 15SM FEW040 SCT075 RMK SC2AC2

CYQF;2012-07-21 08:00;CYQF 210800Z 19015G20KT 15SM FEW075 15/14 A2986 RMK AC2 SLP110

CYQF;2012-07-21 09:00;CYQF 210900Z 18010G15KT 15SM SKC 14/11 A2983 RMK SLP102

CYQF;2012-07-21 10:00;CYQF 211000Z 17010G16KT 15SM SKC 14/11 A2981 RMK SLP096

CYQF;2012-07-21 11:00;CYQF 211100Z 18007KT 15SM FEW080 FEW250 13/10 A2981 RMK ACC1CI1 SLP096

CYQF;2012-07-21 12:00;CYQF 211200Z 22005KT 15SM BKN040 12/09 A2982 RMK SC5 TCU W CB S SLP099

CYQF;2012-07-21 13:00;CYQF 211300Z 25008KT 15SM VCSH FEW020 BKN040 15/11 A2984 RMK CU2SC5 SLP107

CYQF;2012-07-21 14:00;CYQF 211400Z 26010G15KT 15SM VCSH FEW020TCU BKN032 BKN080 15/11 A2984 RMK TCU2SC5AC1 SLP107

CYQF;2012-07-21 14:25;CYQF 211425Z 24015G20KT 10SM -SHRA SCT020TCU BKN032 BKN080 RMK TCU3SC3AC1 HVY SH SW

CYQF;2012-07-21 15:00;CYQF 211500Z 24008KT 15SM FEW020TCU BKN030 BKN080 14/12 A2985 RMK TCU1SC4AC2 SLP108

CYQF;2012-07-21 15:19;CYQF 211519Z 27020KT 6SM -SHRA SCT020 BKN030 BKN080 RMK SC3SC3AC1 TCU EMBDD

CYQF;2012-07-21 16:00;CYQF 211600Z 24010G15KT 12SM -SHRA SCT020 BKN030 OVC080 14/12 A2987 RMK SC3SC4AC1 SLP115

CYQF;2012-07-21 17:00;CYQF 211700Z 27010KT 12SM -SHRA SCT009 BKN030 OVC080 15/13 A2989 RMK SC3SC4AC1 SLP122

CYQF;2012-07-21 18:00;CYQF 211800Z 27010KT 15SM FEW010 BKN030 BKN090 17/14 A2991 RMK SF1SC4AC2 SLP127

CYQF;2012-07-21 19:00;CYQF 211900Z 30010G15KT 15SM FEW012 BKN050 BKN090 18/14 A2993 RMK SF1SC5AC2 SLP135

CYQF;2012-07-21 20:00;CYQF 212000Z 31011G16KT 15SM FEW020 SCT050 BKN090 BKN250 21/15 A2993 RMK CU1SC2AC2CI1 SLP135

CYQF;2012-07-21 21:00;CYQF 212100Z 31015G20KT 15SM FEW028 FEW050 BKN100 BKN250 22/15 A2994 RMK CU1SC1AC3CI1 SLP139

CYQF;2012-07-21 22:00;CYQF 212200Z 33015G22KT 15SM FEW033 FEW050 SCT100 BKN250 23/14 A2994 RMK CU1SC1AC2CI1 CU TR SLP139

CYQF;2012-07-21 23:00;CYQF 212300Z 32010G15KT 15SM FEW030 BKN100 BKN250 23/15 A2995 RMK CU2AC2CI1 SLP142

CYQF;2012-07-22 00:00;CYQF 220000Z 30010KT 15SM FEW030 BKN100 BKN250 21/14 A2996 RMK CU1AC5CI2 SLP150

CYQF;2012-07-22 01:00;CYQF 220100Z 32008KT 15SM FEW030 FEW250 21/14 A2996 RMK CU1CI1 SLP151

CYQF;2012-07-22 02:00;CYQF 220200Z 35003KT 15SM FEW030 FEW100 SCT250 21/15 A2998 RMK CU1AC2CI0 SLP156

CYQF;2012-07-22 03:00;CYQF 220300Z 33003KT 15SM FEW030 FEW250 19/14 A2999 RMK CU1CI0 SLP160

CYQF;2012-07-22 04:00;CYQF 220400Z 00000KT 15SM FEW020 17/14 A3001 RMK CU2 SLP165

CYQF;2012-07-22 05:00;CYQF 220500Z 26003KT 15SM FEW020 15/13 A3002 RMK CU1 SLP168

CYQF;2012-07-22 06:00;CYQF 220600Z 29004KT 15SM SKC 15/12 A3003 RMK SLP173

CYQF;2012-07-22 07:00;CYQF 220700Z 17005KT 15SM SKC 14/12 A3004 RMK SLP177

CYQF;2012-07-22 08:00;CYQF 220800Z 28004KT 15SM SKC 14/12 A3004 RMK SLP177

CYQF;2012-07-22 09:00;CYQF 220900Z 27005KT 15SM SKC 13/11 A3004 RMK SLP175

CYQF;2012-07-22 10:00;CYQF 221000Z 00000KT 15SM SKC 12/10 A3005 RMK SLP177

CYQF;2012-07-22 11:00;CYQF 221100Z 19005KT 5SM BR FEW250 11/10 A3006 RMK CI0 SLP180

CYQF;2012-07-22 11:20;CYQF 221120Z 17003KT 2SM BR SKC RMK FG2

CYQF;2012-07-22 11:48;CYQF 221148Z 21004KT 3/4SM BR SKC RMK FG4

CYQF;2012-07-22 12:00;CYQF 221200Z 21004KT 1/2SM FG SKC 11/10 A3006 RMK FG4 SLP186

CYQF;2012-07-22 12:30;CYQF 221230Z 20003KT 1SM BR SKC RMK FG2

CYQF;2012-07-22 12:39;CYQF 221239Z 20004KT 2SM BR SKC RMK FG1

CYQF;2012-07-22 12:50;CYQF 221250Z 23004KT 3SM BR SKC

CYQF;2012-07-22 13:00;CYQF 221300Z 21003KT 5SM BR SKC 11/11 A3008 RMK SLP192

CYQF;2012-07-22 14:00;CYQF 221400Z 24003KT 15SM SKC 14/13 A3008 RMK SLP192

CYQF;2012-07-22 15:00;CYQF 221500Z 21005KT 12SM SKC 16/13 A3008 RMK SLP189

CYQF;2012-07-22 16:00;CYQF 221600Z 22005KT 15SM SKC 18/13 A3008 RMK SLP188

CYQF;2012-07-22 17:00;CYQF 221700Z 22004KT 15SM FEW024 21/14 A3007 RMK CU1 SLP186

CYQF;2012-07-22 18:00;CYQF 221800Z 00000KT 15SM FEW030 22/14 A3007 RMK CU1 SLP183

CYQF;2012-07-22 19:00;CYQF 221900Z 05002KT 15SM SCT040 23/14 A3006 RMK CU3 SLP179

CYQF;2012-07-22 20:00;CYQF 222000Z 18007KT 15SM FEW049 SCT270 24/12 A3005 RMK CU2CI0 SLP178

CYQF;2012-07-22 21:00;CYQF 222100Z 17005KT 15SM FEW060 SCT270 24/10 A3005 RMK CU2CI1 SLP176

CYQF;2012-07-22 22:00;CYQF 222200Z 15003KT 15SM FEW056 SCT270 25/11 A3004 RMK CU2CI0 SLP171

CYQF;2012-07-22 23:00;CYQF 222300Z 14004KT 15SM FEW055 SCT270 25/12 A3003 RMK CU2CI0 SLP168

CYQF;2012-07-23 00:00;CYQF 230000Z 13010KT 15SM FEW055 FEW270 25/12 A3002 RMK CU1CI1 SLP166

CYQF;2012-07-23 01:00;CYQF 230100Z 15008KT 15SM FEW050 FEW250 24/12 A3000 RMK CU1CI1 SLP162

CYQF;2012-07-23 02:00;CYQF 230200Z 13005KT 15SM FEW050 FEW250 23/14 A3000 RMK CU1CI1 SLP161

CYQF;2012-07-23 03:00;CYQF 230300Z 10004KT 15SM FEW050 FEW250 21/14 A3000 RMK SC1CI1 SLP157

CYQF;2012-07-23 04:00;CYQF 230400Z 08004KT 15SM FEW050 FEW250 19/14 A2999 RMK CU1CI1 SLP156

CYQF;2012-07-23 05:00;CYQF 230500Z 12002KT 15SM FEW050 FEW250 18/12 A2999 RMK SC1CI0 SLP156

CYQF;2012-07-23 06:00;CYQF 230600Z 09006KT 15SM FEW250 17/12 A2998 RMK CI0 SLP150

CYQF;2012-07-23 07:00;CYQF 230700Z 09004KT 15SM FEW080 FEW250 17/12 A2998 RMK AC2CI0 SLP150

CYQF;2012-07-23 08:00;CYQF 230800Z 06006KT 15SM FEW080 16/13 A2996 RMK AC2 SLP145

CYQF;2012-07-23 09:00;CYQF 230900Z 10007KT 15SM FEW080 16/12 A2996 RMK AC2 SLP142

CYQF;2012-07-23 10:00;CYQF 231000Z 09006KT 15SM SCT080 BKN250 17/13 A2996 RMK AC3CI2 SLP140

CYQF;2012-07-23 11:00;CYQF 231100Z 12010G16KT 15SM FEW050 BKN080 BKN250 18/13 A2995 RMK SC2AC3CI1 SLP138

CYQF;2012-07-23 12:00;CYQF 231200Z 20004KT 15SM BKN050 OVC080 16/14 A2997 RMK SC6AC2 SLP144

CYQF;2012-07-23 12:19;CYQF 231219Z 17005KT 10SM -RA BKN050 OVC080 RMK SC6AC2

CYQF;2012-07-23 13:00;CYQF 231300Z 11010KT 15SM -RA BKN050 BKN100 16/14 A2993 RMK SC6AC2 SLP130

CYQF;2012-07-23 13:32;CYQF 231332Z 09010KT 15SM VCSH BKN050 BKN100 RMK SC6AC1

CYQF;2012-07-23 13:50;CYQF 231350Z 07005KT 15SM -SHRA BKN050 BKN100 RMK SC6AC2

CYQF;2012-07-23 14:00;CYQF 231400Z 09008KT 15SM -SHRA BKN050 BKN100 16/14 A2991 RMK SC6AC2 SLP126

CYQF;2012-07-23 15:00;CYQF 231500Z 09010KT 15SM VCSH BKN050 BKN100 19/13 A2990 RMK SC6AC2 SLP121

CYQF;2012-07-23 15:31;CYQF 231531Z 13006KT 15SM VCSH FEW008 FEW020 BKN050 BKN100 RMK SF1SC1SC5AC2

CYQF;2012-07-23 16:00;CYQF 231600Z 17008KT 15SM VCSH FEW008 BKN050 BKN100 19/14 A2992 RMK CF2SC5AC1 CB EMBD LTNG NW SLP126

CYQF;2012-07-23 16:13;CYQF 231613Z 14005KT 12SM -SHRA FEW008 BKN040 OVC100 RMK CF2SC5AC1 CB EMBD LTNG SW+NW

CYQF;2012-07-23 16:19;CYQF 231619Z 14009KT 10SM -TSRA FEW008 BKN040CB OVC100 RMK CF2CB5AC1 LTGIC

CYQF;2012-07-23 16:52;CYQF 231652Z 13005KT 12SM -SHRA FEW010 BKN040 BKN100 RETS RMK CF2SC4ACC2

CYQF;2012-07-23 17:00;CYQF 231700Z 13005KT 15SM FEW010 BKN040 BKN100 18/14 A2989 RETS RMK CF2SC4ACC2 OCNL -SHRA TCU CB EMBDD SLP117

CYQF;2012-07-23 17:12;CYQF 231712Z 12004KT 15SM FEW010 SCT040 BKN100 RMK CF1SC3ACC3 TCU CB EMBDD

CYQF;2012-07-23 18:00;CYQF 231800Z 13005KT 15SM FEW010 BKN040 BKN100 20/14 A2985 RMK SC1SC5AC2 SLP108

CYQF;2012-07-23 19:00;CYQF 231900Z 13010KT 15SM FEW010 BKN027 BKN100 21/14 A2983 RMK SC1CU5AC2 SLP100

CYQF;2012-07-23 19:31;CYQF 231931Z 12015KT 15SM TS FEW010 BKN026CB RMK SF1CB7 LGTCG SW

CYQF;2012-07-23 20:00;CYQF 232000Z 22006KT 15SM TS FEW010 BKN026CB 19/15 A2979 RMK SF1CB7 LTGCG SLP088

CYQF;2012-07-23 20:05;CYQF 232005Z 00000KT 10SM -TSRA FEW010 BKN026CB RMK SF1CB7 LTGCG

CYQF;2012-07-23 20:14;CYQF 232014Z 00000KT 3SM +TSRA BR SCT010 OVC026CB RMK SF3CB5

CYQF;2012-07-23 20:25;CYQF 232025Z 00000KT 1 1/2SM +TSRA BR OVC010CB RMK CB8

CYQF;2012-07-23 20:42;CYQF 232042Z 21010KT 6SM TSRA BR BKN010CB RERA RMK CB7 VIS W 15

CYQF;2012-07-23 21:00;CYQF 232100Z 06003KT 15SM -TSRA FEW010 BKN020CB 18/16 A2974 RERA RMK SF1CB5 VIS NW-NE 3 SLP072

CYQF;2012-07-23 21:03;CYQF 232103Z 00000KT 15SM TS VCSH FEW010 SCT020CB RMK SF1CB4 VIS NW-NE 5

CYQF;2012-07-23 21:20;CYQF 232120Z 18003KT 15SM FEW021CB RMK CB2 RETS

CYQF;2012-07-23 21:46;CYQF 232146Z 17007KT 15SM -SHRA SCT020CB RMK CB4 HVY SHWR SE

CYQF;2012-07-23 21:49;CYQF 232149Z 15005KT 15SM -TSRA BKN020CB RMK CB6 HVY SHWR SE

CYQF;2012-07-23 21:55;CYQF 232155Z 15010KT 6SM TSRAGR BKN020CB RMK CB7 HAIL DIAM 10MM

CYQF;2012-07-23 22:00;CYQF 232200Z 24010G15KT 6SM TSRAGR BKN020CB 17/13 A2971 RMK CB7 HAIL DIAM 6MM SLP063

CYQF;2012-07-23 22:07;CYQF 232207Z 24005KT 15SM TS BKN020CB RERAGR RMK CB7 HVY SHWR W

CYQF;2012-07-23 23:00;CYQF 232300Z 17011G16KT 15SM FEW040CB FEW090 22/09 A2972 RETSRAGR RMK CB2ACC1 SLP065

CYQF;2012-07-24 00:00;CYQF 240000Z 26020G30KT 15SM FEW040CB FEW090 18/09 A2976 RMK CB2ACC1 /R10/ SLP078

CYQF;2012-07-24 01:00;CYQF 240100Z 25015G30KT 15SM SCT020 BKN090 15/08 A2979 RMK SC4AC2 CB ASOCTD SLP089

CYQF;2012-07-24 02:00;CYQF 240200Z 27015G20KT 15SM VCSH FEW025TCU BKN090 13/06 A2982 RMK TCU2AC2 SLP098

CYQF;2012-07-24 03:00;CYQF 240300Z 24010G15KT 15SM VCSH BKN030TCU BKN090 12/06 A2982 RMK TCU5AC1 ACC SLP104

CYQF;2012-07-24 03:27;CYQF 240327Z 24015G20KT 12SM -SHRA BKN030TCU BKN090 RMK TCU5AC2

CYQF;2012-07-24 04:00;CYQF 240400Z 23010G16KT 12SM -SHRA BKN030 BKN090 10/08 A2983 RMK SC6AC2 SLP107

CYQF;2012-07-24 05:00;CYQF 240500Z 22011G17KT 10SM -SHRA BKN030 BKN080 10/08 A2981 RMK SC6AC2 SLP101

CYQF;2012-07-24 06:00;CYQF 240600Z 24007KT 12SM VCSH SCT030 OVC090 10/08 A2980 RMK SC4AC4 SLP097

CYQF;2012-07-24 07:00;CYQF 240700Z 27006KT 12SM VCSH SCT030 OVC090 11/08 A2979 RMK SC3AC5 SLP093

CYQF;2012-07-24 08:00;CYQF 240800Z 18004KT 15SM FEW030 OVC090 11/08 A2978 RMK SC2AC6 SLP092

CYQF;2012-07-24 09:00;CYQF 240900Z 21006KT 15SM FEW030 OVC090 11/08 A2979 RMK SC2AC6 SLP093

CYQF;2012-07-24 09:36;CYQF 240936Z 22006KT 10SM -RA SCT030 OVC090 RMK SC3AC5

CYQF;2012-07-24 10:00;CYQF 241000Z 21008KT 10SM -RA BKN040 OVC090 11/09 A2978 RMK SC5AC3 SLP092

CYQF;2012-07-24 11:00;CYQF 241100Z 19007KT 10SM -RA BKN040 OVC090 10/08 A2976 RMK SC6AC2 SLP085

CYQF;2012-07-24 12:00;CYQF 241200Z 20008KT 6SM -RA SCT020 OVC050 10/09 A2975 RMK SC4SC4 SLP081

CYQF;2012-07-24 12:48;CYQF 241248Z 24008KT 15SM BKN025 OVC060 RMK SC6SC2

CYQF;2012-07-24 13:00;CYQF 241300Z 23010KT 15SM BKN025 OVC060 11/08 A2974 RMK SC6SC2 SLP077

CYQF;2012-07-24 13:16;CYQF 241316Z 24010KT 15SM -SHRA BKN025 OVC060 RMK SC6SC2

CYQF;2012-07-24 14:00;CYQF 241400Z 23010KT 15SM -SHRA FEW025 BKN100 11/09 A2973 RMK SC2AC5 VIS S CB ASOCTD SLP074

CYQF;2012-07-24 14:24;CYQF 241424Z 24010G15KT 15SM VCSH FEW008 SCT020 BKN080 RMK CF1CU2AC3 CB ASOTD

CYQF;2012-07-24 15:00;CYQF 241500Z 26010KT 15SM -SHRA FEW008 BKN015 OVC080 12/10 A2973 RMK CF2CU5AC2 CB EMBD VIS S 5 SLP080

CYQF;2012-07-24 15:21;CYQF 241521Z 25010KT 15SM VCSH FEW008 BKN020 BKN080 RMK CF2CU3AC2 CB ASOCTD

CYQF;2012-07-24 16:00;CYQF 241600Z 27015G25KT 15SM VCSH FEW008 BKN017 BKN080 15/12 A2972 RMK CF2CU4AC2 CB ASOCTD SLP076

CYQF;2012-07-24 16:43;CYQF 241643Z 27015G25KT 6SM -SHRA FEW008 BKN015CB RMK CF2CB5 LTNG E

CYQF;2012-07-24 16:55;CYQF 241655Z 34010G15KT 1SM +SHRA FEW007 OVC011CB RMK CF2CB6 LTNG E

CYQF;2012-07-24 17:00;CYQF 241700Z 31015KT 5SM SHRA FEW007 BKN012CB 12/10 A2976 RMK CF2CB6 SLP089

CYQF;2012-07-24 17:13;CYQF 241713Z 31010KT 15SM -SHRA FEW008 BKN020CB BKN250 RMK CF1CB5CI1 RERA CIG RAG

CYQF;2012-07-24 17:39;CYQF 241739Z 33010G15KT 15SM VCSH FEW008 BKN020CB BKN250 RMK CF1CB5CC2 /R12/ RERA CIG RAG

CYQF;2012-07-24 18:00;CYQF 241800Z 35010G15KT 15SM VCSH BKN020CB BKN250 15/12 A2977 RERA RMK CB6CI1 /R12/ SLP092

CYQF;2012-07-24 19:00;CYQF 241900Z 35005KT 15SM BKN020CB BKN250 15/10 A2978 RMK CB6CI1 SLP096

CYQF;2012-07-24 20:00;CYQF 242000Z 33010KT 15SM BKN025CB BKN100 BKN250 16/10 A2980 RMK CB5AC2CI1 SLP101

CYQF;2012-07-24 20:40;CYQF 242040Z 32010KT 15SM -SHRA BKN025CB BKN100 RMK CB6AC2 VIS W-NW 1

CYQF;2012-07-24 21:00;CYQF 242100Z 31010KT 12SM -SHRA BKN025CB BKN080 14/12 A2983 RMK CB6AC2 SLP113

CYQF;2012-07-24 21:33;CYQF 242133Z 31010KT 15SM VCSH BKN020CB BKN250 RMK CB5CI1

CYQF;2012-07-24 22:00;CYQF 242200Z 35010G15KT 15SM BKN020TCU BKN080 BKN250 17/12 A2984 RMK TCU6AC1CI1 SLP115

CYQF;2012-07-24 23:00;CYQF 242300Z 35008KT 15SM VCSH FEW028TCU BKN250 18/10 A2986 RMK TCU2CI2 SLP121

CYQF;2012-07-25 00:00;CYQF 250000Z 30007KT 15SM BKN032TCU BKN250 19/11 A2986 RMK TCU5CI2 SLP118

CYQF;2012-07-25 01:00;CYQF 250100Z 30006KT 15SM BKN030TCU BKN250 17/11 A2987 RMK TCU5CI1 SLP122

CYQF;2012-07-25 02:00;CYQF 250200Z 31007KT 15SM FEW030TCU SCT250 18/13 A2988 RMK TCU2CI1 SLP126

CYQF;2012-07-25 03:00;CYQF 250300Z 30005KT 15SM BKN030 BKN100 BKN250 16/13 A2990 RMK SC5AC1CI1 TCU SLP132

CYQF;2012-07-25 04:00;CYQF 250400Z 28005KT 15SM BKN030 16/12 A2991 RMK SC7 TCU EMBDD SLP137

CYQF;2012-07-25 04:42;CYQF 250442Z 27005KT 12SM -SHRA OVC030 RMK SC8

CYQF;2012-07-25 05:00;CYQF 250500Z 29005KT 15SM BKN050 15/13 A2992 RMK SC7 SLP138

CYQF;2012-07-25 06:00;CYQF 250600Z 28005KT 15SM BKN050 15/13 A2992 RMK SC7 SLP138

CYQF;2012-07-25 07:00;CYQF 250700Z 29008KT 15SM BKN050 15/13 A2992 RMK SC6 SLP138

CYQF;2012-07-25 08:00;CYQF 250800Z 28006KT 15SM SCT040 14/12 A2993 RMK SC3 SLP140

CYQF;2012-07-25 09:00;CYQF 250900Z 30006KT 15SM BKN050 14/12 A2994 RMK SC6 SLP147

CYQF;2012-07-25 10:00;CYQF 251000Z 30007KT 15SM BKN030 14/13 A2994 RMK SC6 SLP147

CYQF;2012-07-25 11:00;CYQF 251100Z 30006KT 15SM BKN030 14/13 A2995 RMK SC6 SLP149

CYQF;2012-07-25 12:00;CYQF 251200Z 31008KT 15SM BKN030 BKN080 15/13 A2996 RMK SC6AC1 SLP150

CYQF;2012-07-25 13:00;CYQF 251300Z 33008KT 15SM FEW030 FEW080 15/13 A2998 RMK SC2AC1 SLP156

CYQF;2012-07-25 14:00;CYQF 251400Z 29010KT 12SM FEW010 FEW080 15/13 A3000 RMK CF1AC2 SLP160

CYQF;2012-07-25 15:00;CYQF 251500Z 30009KT 12SM FEW010 SCT080 17/14 A3000 RMK CF2AC2 SLP162

CYQF;2012-07-25 16:00;CYQF 251600Z 31010KT 10SM SCT016 BKN080 18/14 A3001 RMK CU3AC2 ACC SLP164

CYQF;2012-07-25 17:00;CYQF 251700Z 30008KT 12SM FEW016TCU BKN080 19/14 A3001 RMK TCU2AC4 SLP165

CYQF;2012-07-25 18:00;CYQF 251800Z 33010KT 15SM BKN024TCU 20/14 A3001 RMK TCU7 SLP165

CYQF;2012-07-25 19:00;CYQF 251900Z 33010KT 15SM BKN025CB 21/14 A3001 RMK CB6 SLP165

CYQF;2012-07-25 20:00;CYQF 252000Z 33008KT 15SM SCT028TCU BKN080 BKN250 20/14 A3003 RMK TCU4AC2CI1 CB SLP170

CYQF;2012-07-25 20:21;CYQF 252021Z 35010G15KT 15SM -SHRA SCT028TCU BKN080 BKN250 RMK TCU4AC2CI1 CB

CYQF;2012-07-25 21:00;CYQF 252100Z 31006KT 15SM BKN025CB BKN250 21/15 A3003 RMK CB5CI1 SLP169

CYQF;2012-07-25 21:23;CYQF 252123Z 35006KT 10SM -SHRA BKN025CB BKN250 RMK CB6CI1

CYQF;2012-07-25 22:00;CYQF 252200Z 33007KT 15SM -SHRA BKN025CB BKN080 BKN250 21/14 A3003 RMK CB5AC1CI0 SLP171

CYQF;2012-07-25 22:38;CYQF 252238Z 33005KT 15SM VCSH BKN025CB BKN080 BKN250 RMK CB5AC1CI0

CYQF;2012-07-25 23:00;CYQF 252300Z 01005KT 15SM SCT030CB BKN250 22/14 A3002 RMK CB4CI0 LTNG W SLP168

CYQF;2012-07-26 00:00;CYQF 260000Z 33008KT 15SM TS VCSH BKN030CB BKN250 21/14 A3004 RMK CB6CI2 LTGCG WNW SLP172

CYQF;2012-07-26 00:08;CYQF 260008Z 29015G25KT 10SM -TSRA BKN030CB BKN250 RMK CB6CI1 VSBY S-W 2

CYQF;2012-07-26 01:00;CYQF 260100Z 30010KT 10SM -TSRA BKN025CB BKN100 OVC250 16/14 A3008 RMK CB6AC2CI1 SLP185

CYQF;2012-07-26 01:13;CYQF 260113Z 32005KT 15SM FEW020 BKN040CB BKN100 RETS RMK CF2CB4AC1

CYQF;2012-07-26 02:00;CYQF 260200Z 34002KT 15SM BKN040CB BKN100 BKN250 16/14 A3007 RETS RMK CB5AC2CI0 SLP183

CYQF;2012-07-26 03:00;CYQF 260300Z 00000KT 15SM FEW040 BKN100 BKN250 16/14 A3007 RMK CU2AC4CI2 SLP188

CYQF;2012-07-26 04:00;CYQF 260400Z 00000KT 15SM FEW040 SCT100 OVC250 15/13 A3009 RMK CU1AC2CI3 SLP192

CYQF;2012-07-26 05:00;CYQF 260500Z 00000KT 15SM SCT100 BKN250 15/13 A3010 RMK AC3CI3 SLP197

CYQF;2012-07-26 06:00;CYQF 260600Z 00000KT 15SM OVC070 14/13 A3011 RMK AC8 SLP200

CYQF;2012-07-26 07:00;CYQF 260700Z 30004KT 15SM OVC070 14/13 A3011 RMK AC8 SLP200

CYQF;2012-07-26 08:00;CYQF 260800Z 00000KT 15SM BKN070 14/12 A3011 RMK AC6 SLP200

CYQF;2012-07-26 09:00;CYQF 260900Z 00000KT 10SM SCT070 13/11 A3011 RMK AC3 SLP200

CYQF;2012-07-26 09:38;CYQF 260938Z 00000KT 2SM BR SKC RMK FG2

CYQF;2012-07-26 10:00;CYQF 261000Z 00000KT 2SM BR SKC 12/11 A3011 RMK FG2 SLP200

CYQF;2012-07-26 10:23;CYQF 261023Z 22003KT 1SM BR SKC RMK FG2

CYQF;2012-07-26 10:42;CYQF 261042Z 00000KT 2SM BR SKC RMK FG2

CYQF;2012-07-26 11:00;CYQF 261100Z 00000KT 2SM BR SKC 11/10 A3011 RMK FG2 SLP199

CYQF;2012-07-26 11:15;CYQF 261115Z 19002KT 1SM BR SKC RMK FG2

CYQF;2012-07-26 12:00;CYQF 261200Z 00000KT 1/2SM FG SCT250 10/10 A3011 RMK FG2CI1 SLP202

CYQF;2012-07-26 12:44;CYQF 261244Z 00000KT 1/4SM FG SKC RMK FG3

CYQF;2012-07-26 13:00;CYQF 261300Z 21002KT 1/4SM FG SKC 11/10 A3012 RMK FG4 SLP207

CYQF;2012-07-26 13:18;CYQF 261318Z 23002KT 1/8SM FG SKC RMK FG6

CYQF;2012-07-26 14:00;CYQF 261400Z 00000KT 1/4SM FG BKN100 12/11 A3012 RMK FG5AC2 SLP206

CYQF;2012-07-26 14:04;CYQF 261404Z 00000KT 1/2SM FG BKN100 RMK FG5AC2

CYQF;2012-07-26 14:06;CYQF 261406Z 00000KT 3/4SM BR BKN100 RMK FG5AC2

CYQF;2012-07-26 14:44;CYQF 261444Z 00000KT 1/4SM FG BKN100 RMK FG6AC1

CYQF;2012-07-26 15:00;CYQF 261500Z 00000KT 1/2SM FG BKN100 13/13 A3012 RMK FG6AC1 VIS VRB 1/4-3/4 SLP209

CYQF;2012-07-26 15:08;CYQF 261508Z 18002KT 2SM BR BKN002 BKN090 RMK SF6AC2

CYQF;2012-07-26 15:15;CYQF 261515Z 19002KT 6SM BR BKN002 BKN090 RMK SF6AC2

CYQF;2012-07-26 15:35;CYQF 261535Z 00000KT 6SM BR SCT004 BKN090 RMK CF3AC1

CYQF;2012-07-26 16:00;CYQF 261600Z 00000KT 8SM SCT005 BKN090 17/15 A3013 RMK CF2AC2 SLP210

CYQF;2012-07-26 17:00;CYQF 261700Z 21002KT 10SM SCT008 SCT090 18/15 A3012 RMK CU3AC1 SLP209

CYQF;2012-07-26 17:16;CYQF 261716Z 00000KT 10SM BKN012TCU RMK TCU5 CB TOP DIST N

CYQF;2012-07-26 17:46;CYQF 261746Z 00000KT 8SM SCT020TCU RMK TCU4 CB TOP DIST NE

CYQF;2012-07-26 18:00;CYQF 261800Z 17004KT 8SM SCT024TCU 20/14 A3011 RMK TCU4 CB TOPS NE SLP200

CYQF;2012-07-26 19:00;CYQF 261900Z 17004KT 10SM BKN028TCU 21/14 A3009 RMK TCU6 CB SLP194

CYQF;2012-07-26 20:00;CYQF 262000Z 14003KT 12SM BKN028TCU 21/15 A3007 RMK TCU5 CB SLP188

CYQF;2012-07-26 21:00;CYQF 262100Z 06005KT 12SM SCT028CB BKN080 22/14 A3005 RMK CB4AC1 SLP180

CYQF;2012-07-26 22:00;CYQF 262200Z 08004KT 8SM BKN032TCU 22/14 A3005 RMK TCU6 CB ASOCTD HZ SLP177

CYQF;2012-07-26 23:00;CYQF 262300Z 14008KT 10SM SCT035TCU BKN250 22/14 A3003 RMK TCU3CI2 SLP171

CYQF;2012-07-27 00:00;CYQF 270000Z 13008KT 10SM FEW034TCU BKN250 22/14 A3001 RMK TCU1CI2 TCU DIST N-E-SE SLP166

CYQF;2012-07-27 01:00;CYQF 270100Z 16004KT 12SM FEW030 OVC250 22/15 A3001 RMK CU1CI2 TCU ASOCTD HZ SLP165

CYQF;2012-07-27 02:00;CYQF 270200Z 14004KT 12SM FEW022TCU OVC250 21/16 A3000 RMK TCU1CS2 HZ SLP162

CYQF;2012-07-27 03:00;CYQF 270300Z 00000KT 15SM FEW020 BKN250 19/15 A2998 RMK SC1CI2 SLP157

CYQF;2012-07-27 04:00;CYQF 270400Z 00000KT 15SM FEW090 SCT250 17/14 A2999 RMK AC1CI1 SLP160

CYQF;2012-07-27 05:00;CYQF 270500Z 00000KT 15SM FEW090 SCT250 17/14 A2999 RMK AC1CI1 SLP160

CYQF;2012-07-27 06:00;CYQF 270600Z 26004KT 15SM FEW090 FEW250 14/13 A2999 RMK AC1CI0 SLP157

CYQF;2012-07-27 07:00;CYQF 270700Z 00000KT 15SM SKC 14/12 A2998 RMK SLP156

CYQF;2012-07-27 08:00;CYQF 270800Z 00000KT 15SM SKC 14/12 A2997 RMK SLP151

CYQF;2012-07-27 09:00;CYQF 270900Z 00000KT 15SM SKC 14/12 A2996 RMK SLP147

CYQF;2012-07-27 10:00;CYQF 271000Z 15003KT 15SM SKC 12/11 A2995 RMK SLP142

CYQF;2012-07-27 11:00;CYQF 271100Z 00000KT 15SM SKC 10/09 A2994 RMK BCFG SLP139

CYQF;2012-07-27 12:00;CYQF 271200Z 00000KT 10SM SKC 11/09 A2994 RMK BCFG SLP143

CYQF;2012-07-27 13:00;CYQF 271300Z 00000KT 15SM FEW080 11/10 A2995 RMK AC1 BCFG SLP145

CYQF;2012-07-27 14:00;CYQF 271400Z 00000KT 15SM FEW080 13/11 A2995 RMK AC1 SLP145

CYQF;2012-07-27 15:00;CYQF 271500Z 21005KT 15SM FEW030 FEW270 15/13 A2995 RMK CU1CI1 SLP142

CYQF;2012-07-27 16:00;CYQF 271600Z 00000KT 15SM FEW100 FEW270 18/14 A2994 RMK AC1CI1 SLP140

CYQF;2012-07-27 17:00;CYQF 271700Z 24003KT 15SM FEW100 FEW270 20/15 A2994 RMK AC1CI1 SLP140

CYQF;2012-07-27 18:00;CYQF 271800Z 24003KT 15SM FEW030TCU FEW120 FEW270 22/14 A2994 RMK TCU1AC1CI1 SLP138

CYQF;2012-07-27 19:00;CYQF 271900Z 25002KT 15SM FEW035CB FEW120 FEW270 23/15 A2993 RMK CB1AC1CI1 SLP135

CYQF;2012-07-27 20:00;CYQF 272000Z 00000KT 15SM FEW040CB FEW120 FEW280 25/15 A2992 RMK CB1AC1CI1 SLP133

CYQF;2012-07-27 21:00;CYQF 272100Z 00000KT 15SM FEW044CB FEW150 SCT250 25/14 A2993 RMK CB2AC1CI1 CB SW-W SLP132

CYQF;2012-07-27 22:00;CYQF 272200Z 00000KT 15SM FEW050CB FEW250 25/13 A2991 RMK CB1CI2 SLP126

CYQF;2012-07-27 23:00;CYQF 272300Z 00000KT 15SM FEW050CB FEW250 26/12 A2990 RMK CB1CI1 SLP123

CYQF;2012-07-28 00:00;CYQF 280000Z 00000KT 15SM FEW057CB FEW250 26/11 A2989 RMK CB1CI1 SLP121

CYQF;2012-07-28 01:00;CYQF 280100Z 00000KT 15SM FEW040CB BKN250 24/14 A2991 RMK CB2CI4 SLP126

CYQF;2012-07-28 02:00;CYQF 280200Z 00000KT 15SM FEW046CB BKN250 25/13 A2989 RMK CB2CI4 SLP120

CYQF;2012-07-28 03:00;CYQF 280300Z 00000KT 15SM FEW050 BKN250 23/15 A2989 RMK SC2CI1 SLP119

CYQF;2012-07-28 04:00;CYQF 280400Z 00000KT 15SM FEW050 FEW250 19/15 A2990 RMK SC1CI1 SLP122

CYQF;2012-07-28 05:00;CYQF 280500Z 00000KT 15SM FEW080 SCT250 19/15 A2992 RMK AC2CI1 SLP127

CYQF;2012-07-28 06:00;CYQF 280600Z 00000KT 15SM FEW080 18/14 A2993 RMK AC2 SLP130

CYQF;2012-07-28 07:00;CYQF 280700Z CCA 02004KT 15SM FEW080 17/13 A2993 RMK AC2 LTNG DIST NW SLP131

CYQF;2012-07-28 08:00;CYQF 280800Z 20002KT 15SM FEW080 16/13 A2993 RMK AC1 SLP130

CYQF;2012-07-28 09:00;CYQF 280900Z 02004KT 15SM SKC 15/12 A2992 RMK SLP126

CYQF;2012-07-28 10:00;CYQF 281000Z 29004KT 15SM SKC 14/12 A2993 RMK SLP131

CYQF;2012-07-28 11:00;CYQF 281100Z 01006KT 15SM FEW080 15/13 A2992 RMK AC2 LTNG DIST W SLP128

CYQF;2012-07-28 12:00;CYQF 281200Z 02003KT 15SM FEW080 15/12 A2994 RMK AC2 SLP133

CYQF;2012-07-28 13:00;CYQF 281300Z 27004KT 15SM FEW080 FEW250 14/12 A2996 RMK ACC2CI0 SLP141

CYQF;2012-07-28 14:00;CYQF 281400Z 02002KT 15SM SCT080 SCT250 15/12 A2995 RMK ACC4CI1 SLP139

CYQF;2012-07-28 15:00;CYQF 281500Z 00000KT 15SM BKN080 18/13 A2995 RMK AC6 SLP137

CYQF;2012-07-28 16:00;CYQF 281600Z 30004KT 15SM BKN080 19/14 A2996 RMK ACC4 CB N SLP141

CYQF;2012-07-28 17:00;CYQF 281700Z 33006KT 15SM FEW040 FEW100 SCT250 19/14 A2997 RMK CU1AC1CI0 SLP143

CYQF;2012-07-28 18:00;CYQF 281800Z 02010KT 15SM SCT025 BKN100 BKN250 21/15 A2997 RMK CU4AC1CI1 SLP147

CYQF;2012-07-28 19:00;CYQF 281900Z 36010KT 15SM SCT030 BKN100 BKN250 21/13 A2998 RMK CU4AC2CI1 SLP149

CYQF;2012-07-28 20:00;CYQF 282000Z 36008KT 15SM SCT030 BKN100 BKN250 21/14 A3000 RMK CU3AS2CI1 CB W SLP155

CYQF;2012-07-28 21:00;CYQF 282100Z 36003KT 15SM SCT030CB BKN100 BKN250 20/13 A3001 RMK CB3AC2CI2 SLP164

CYQF;2012-07-28 22:00;CYQF 282200Z 29005KT 15SM FEW020 SCT030CB BKN100 BKN250 21/14 A3001 RMK SF1CB3AC2CI2 SHWRS DIST W-NW SLP163

CYQF;2012-07-28 22:02;CYQF 282202Z 31026KT 15SM FEW020 SCT030CB BKN100 BKN250 RMK SF1CB3AC2CI2

CYQF;2012-07-28 23:00;CYQF 282300Z 00000KT 15SM FEW040CB BKN100 20/09 A2998 RMK CB2AC5 SLP156

CYQF;2012-07-29 00:00;CYQF 290000Z 00000KT 15SM FEW030TCU BKN100 19/10 A3000 RMK TCU2AC5 SLP161

CYQF;2012-07-29 01:00;CYQF 290100Z 30004KT 15SM FEW045TCU FEW100 FEW250 21/10 A3000 RMK TCU1AC1CI0 SLP162

CYQF;2012-07-29 02:00;CYQF 290200Z 30005KT 15SM FEW100 FEW250 20/11 A3001 RMK AC1CI1 SLP165

CYQF;2012-07-29 03:00;CYQF 290300Z 30003KT 15SM FEW100 FEW250 18/11 A3002 RMK AC1CI1 SLP167

CYQF;2012-07-29 04:00;CYQF 290400Z 00000KT 15SM FEW100 FEW250 16/11 A3003 RMK AC1CI1 TR AC SLP171

CYQF;2012-07-29 05:00;CYQF 290500Z 24002KT 15SM FEW100 FEW250 13/11 A3005 RMK AC1CI1 TR AC SLP175

CYQF;2012-07-29 06:00;CYQF 290600Z 26006KT 15SM SKC 13/10 A3005 RMK SLP181

CYQF;2012-07-29 07:00;CYQF 290700Z 00000KT 15SM SKC 13/10 A3006 RMK SLP183

CYQF;2012-07-29 08:00;CYQF 290800Z 00000KT 15SM SKC 12/10 A3006 RMK SLP184

CYQF;2012-07-29 09:00;CYQF 290900Z 00000KT 15SM SKC 11/09 A3006 RMK SLP187

CYQF;2012-07-29 10:00;CYQF 291000Z 20006KT 15SM SKC 10/09 A3006 RMK SLP187

CYQF;2012-07-29 11:00;CYQF 291100Z 19003KT 15SM SKC 10/08 A3007 RMK SLP188

CYQF;2012-07-29 12:00;CYQF 291200Z 00000KT 15SM SKC 10/08 A3008 RMK SLP194

CYQF;2012-07-29 13:00;CYQF 291300Z 20002KT 15SM SKC 11/09 A3009 RMK SLP198

CYQF;2012-07-29 14:00;CYQF 291400Z 21005KT 15SM SKC 13/11 A3010 RMK SLP201

CYQF;2012-07-29 15:00;CYQF 291500Z 24005KT 15SM SKC 15/12 A3010 RMK SLP199

CYQF;2012-07-29 16:00;CYQF 291600Z 24002KT 15SM SKC 18/13 A3010 RMK SLP199

CYQF;2012-07-29 17:00;CYQF 291700Z 00000KT 15SM SKC 20/14 A3010 RMK SLP198

CYQF;2012-07-29 18:00;CYQF 291800Z 00000KT 15SM FEW030 21/14 A3010 RMK CU1 SLP195

CYQF;2012-07-29 19:00;CYQF 291900Z 26002KT 15SM FEW036 22/14 A3009 RMK CU1 SLP193

CYQF;2012-07-29 20:00;CYQF 292000Z 24005KT 15SM FEW038 23/14 A3009 RMK CU1 SLP192

CYQF;2012-07-29 21:00;CYQF 292100Z 00000KT 15SM SCT050 24/11 A3008 RMK CU3 SLP187

CYQF;2012-07-29 22:00;CYQF 292200Z 29004KT 15SM SCT052 25/12 A3007 RMK CU3 SLP184

CYQF;2012-07-29 23:00;CYQF 292300Z 00000KT 15SM FEW055 25/12 A3005 RMK CU1 SLP180

CYQF;2012-07-30 00:00;CYQF 300000Z 19004KT 15SM FEW050 25/11 A3005 RMK CU1 SLP177

CYQF;2012-07-30 01:00;CYQF 300100Z 15003KT 15SM SKC 25/12 A3004 RMK SLP174

CYQF;2012-07-30 02:00;CYQF 300200Z 16002KT 15SM SKC 24/14 A3003 RMK SLP172

CYQF;2012-07-30 03:00;CYQF 300300Z 12002KT 15SM FEW100 21/15 A3003 RMK AC1 SLP170

CYQF;2012-07-30 04:00;CYQF 300400Z 00000KT 15SM FEW100 20/13 A3004 RMK AC1 SLP172

CYQF;2012-07-30 05:00;CYQF 300500Z 07002KT 15SM FEW100 18/13 A3004 RMK AC1 SLP171

CYQF;2012-07-30 06:00;CYQF 300600Z 00000KT 15SM SKC 16/12 A3003 RMK SLP168

CYQF;2012-07-30 07:00;CYQF 300700Z 19003KT 15SM SKC 15/12 A3003 RMK SLP169

CYQF;2012-07-30 08:00;CYQF 300800Z 19003KT 15SM SKC 15/11 A3003 RMK SLP168

CYQF;2012-07-30 09:00;CYQF 300900Z 21003KT 15SM SKC 14/11 A3003 RMK SLP167

CYQF;2012-07-30 10:00;CYQF 301000Z 00000KT 15SM SKC 14/11 A3002 RMK SLP164

CYQF;2012-07-30 11:00;CYQF 301100Z 18003KT 15SM FEW080 FEW250 13/10 A3001 RMK AC1CI0 SLP162

CYQF;2012-07-30 12:00;CYQF 301200Z 18004KT 15SM FEW080 FEW250 13/10 A3001 RMK AC1CI1 SLP159

CYQF;2012-07-30 13:00;CYQF 301300Z 19004KT 15SM FEW080 FEW250 13/11 A3000 RMK AC1CI1 SLP158

CYQF;2012-07-30 14:00;CYQF 301400Z 23002KT 15SM FEW090 FEW250 15/12 A3000 RMK AC1CI2 SLP157

CYQF;2012-07-30 15:00;CYQF 301500Z 19004KT 15SM FEW250 17/13 A3000 RMK CI1 SLP156

CYQF;2012-07-30 16:00;CYQF 301600Z 19003KT 12SM FEW100 FEW250 19/13 A2999 RMK ACC1CI1 HZ CI TR SLP155

CYQF;2012-07-30 17:00;CYQF 301700Z 18002KT 15SM FEW100 FEW260 21/14 A2998 RMK ACC1CI1 HZ SLP152

CYQF;2012-07-30 18:00;CYQF 301800Z 00000KT 15SM FEW100 SCT260 23/14 A2997 RMK ACC2CI2 HZ SLP146

CYQF;2012-07-30 19:00;CYQF 301900Z 00000KT 15SM FEW040CB FEW100 SCT250 24/14 A2995 RMK CB1AC1CI2 HZ CB DIST SW SLP141

CYQF;2012-07-30 20:00;CYQF 302000Z 03002KT 12SM FEW040CB FEW100 BKN260 26/16 A2992 RMK CB1AC1CI2 HZ SLP131

CYQF;2012-07-30 21:00;CYQF 302100Z 08004KT 12SM FEW040CB FEW100 SCT270 27/16 A2989 RMK CB1AC1CI0 HZ SLP116

CYQF;2012-07-30 22:00;CYQF 302200Z 12005KT 15SM FEW044CB BKN270 26/16 A2985 RMK CB1CI4 SLP104

CYQF;2012-07-30 22:34;CYQF 302234Z 10002KT 15SM VCSH BKN040CB BKN270 RMK CB5CI1 CB W MVG E LTNG W

CYQF;2012-07-30 23:00;CYQF 302300Z 26010G20KT 8SM -TSRA BKN030CB BKN270 22/09 A2988 RMK CB6CI1 LTGCG SLP112

CYQF;2012-07-31 00:00;CYQF 310000Z 31015G25KT 12SM -TSRA BKN030CB BKN090 15/11 A2991 RERA RMK CB6AC1 PK GUST PAST HR 42 LTGCG W SLP136

CYQF;2012-07-31 00:34;CYQF 310034Z 00000KT 15SM SCT030CB BKN090 RMK CB3AC3

CYQF;2012-07-31 01:00;CYQF 310100Z 27003KT 15SM FEW030CB BKN090 17/12 A2995 RETSRA RMK CB2AC3 SLP151

CYQF;2012-07-31 02:00;CYQF 310200Z 35006KT 15SM FEW030CB FEW090 SCT270 16/11 A2995 RMK CB1AC1CI2 VIRGA SLP150

CYQF;2012-07-31 03:00;CYQF 310300Z 00000KT 15SM FEW030 FEW090 FEW270 15/11 A2995 RMK CU1AC1CI1 SLP146

CYQF;2012-07-31 04:00;CYQF 310400Z 19004KT 15SM FEW090 FEW250 13/10 A2995 RMK AC1CI1 SLP147

CYQF;2012-07-31 05:00;CYQF 310500Z 33006KT 15SM FEW250 12/10 A2994 RMK CI1 SLP142

CYQF;2012-07-31 06:00;CYQF 310600Z 35007KT 15SM SKC 13/11 A2996 RMK SLP147

CYQF;2012-07-31 07:00;CYQF 310700Z 34006KT 15SM SKC 13/10 A2997 RMK SLP150

CYQF;2012-07-31 08:00;CYQF 310800Z 00000KT 15SM SKC 12/10 A2998 RMK SLP153

CYQF;2012-07-31 09:00;CYQF 310900Z 27005KT 15SM SKC 12/10 A2999 RMK SLP153

CYQF;2012-07-31 10:00;CYQF 311000Z 25003KT 15SM FEW060 12/10 A3000 RMK SC2 SLP156

CYQF;2012-07-31 11:00;CYQF 311100Z 25007KT 15SM SCT050 BKN240 12/10 A3001 RMK SC3CI0 SLP159

CYQF;2012-07-31 12:00;CYQF 311200Z 21004KT 15SM FEW080 FEW250 11/10 A3002 RMK AC2CI0 SLP177

CYQF;2012-07-31 13:00;CYQF 311300Z 27003KT 15SM FEW080 FEW250 12/10 A3003 RMK AC1CI1 CI TR SLP180

CYQF;2012-07-31 14:00;CYQF 311400Z 30005KT 15SM FEW080 FEW250 14/10 A3003 RMK AC2CI1 SLP181

CYQF;2012-07-31 15:00;CYQF 311500Z 27003KT 15SM FEW080 FEW260 16/11 A3005 RMK AC1CI1 SLP181

CYQF;2012-07-31 16:00;CYQF 311600Z 31004KT 15SM FEW080 FEW250 18/11 A3004 RMK AC1CI1 AC TR SLP180

CYQF;2012-07-31 17:00;CYQF 311700Z 03003KT 15SM BKN080 BKN260 19/11 A3004 RMK AC2CI2 SLP180

CYQF;2012-07-31 18:00;CYQF 311800Z 36002KT 15SM SCT080 BKN270 20/12 A3004 RMK ACC3CI0 SLP178

CYQF;2012-07-31 19:00;CYQF 311900Z 00000KT 15SM FEW035CB FEW080 BKN270 21/12 A3004 RMK CB1AC2CI2 CBS DIST SW SLP177

CYQF;2012-07-31 20:00;CYQF 312000Z 04002KT 15SM FEW040CB SCT090 BKN280 21/12 A3003 RMK CB2AC2CI0 CB SH DIST W SLP173

CYQF;2012-07-31 21:00;CYQF 312100Z 02003KT 15SM VCSH SCT040CB BKN090 BKN280 22/12 A3002 RMK CB4ACC1CI0 HVY SH SW SLP169

CYQF;2012-07-31 21:32;CYQF 312132Z 32005KT 15SM -TSRA FEW025 BKN040CB BKN100 RMK CF2CB4AC2 VIS S-SW 5 LTNG SW

CYQF;2012-07-31 22:00;CYQF 312200Z 33005KT 10SM -TSRA FEW020 BKN040CB OVC100 18/13 A3004 RMK CF2CB5AC2 SLP175

CYQF;2012-07-31 22:29;CYQF 312229Z 13004KT 15SM -SHRA FEW020 BKN050CB BKN100 RETS RMK CF1CB4AC2

CYQF;2012-07-31 23:00;CYQF 312300Z 15004KT 15SM BKN040 BKN100 19/13 A3000 RETS RMK CU6AC2 CB ASOCTD SLP164

CYQF;2012-07-31 23:31;CYQF 312331Z 00000KT 15SM -TSRA FEW020 BKN040CB BKN250 RMK CU2CB5CI1

CYQF;2012-08-01 00:00;CYQF 010000Z 28006KT 10SM -TSRA FEW020 BKN040CB BKN250 16/14 A3005 RMK CF2CB5CI1 SLP185

CYQF;2012-08-01 00:46;CYQF 010046Z 00000KT 15SM FEW020 BKN040CB BKN250 RETS RMK CF2CB3CI2

CYQF;2012-08-01 01:00;CYQF 010100Z 34006KT 15SM FEW020 BKN040CB BKN250 17/13 A3004 RETS RMK CF2CB3CI2 SLP183

CYQF;2012-08-01 02:00;CYQF 010200Z 00000KT 15SM FEW020 BKN040CB BKN250 16/12 A3004 RMK CF1CB4CI2 SLP182

CYQF;2012-08-01 03:00;CYQF 010300Z 17003KT 15SM SCT040CB BKN100 BKN250 16/13 A3002 RMK CB3AC2CI1 SLP171

CYQF;2012-08-01 04:00;CYQF 010400Z 28005KT 15SM FEW040CB BKN100 BKN250 13/12 A3006 RMK CB2AC2CI1 SLP184

CYQF;2012-08-01 05:00;CYQF 010500Z 26002KT 15SM FEW040CB BKN100 BKN250 14/12 A3007 RMK CB2AC3CI1 SLP187

CYQF;2012-08-01 06:00;CYQF 010600Z 26004KT 15SM FEW040 BKN100 BKN250 14/12 A3006 RMK SC2AC3CI0 SLP183

CYQF;2012-08-01 07:00;CYQF 010700Z 18005KT 15SM FEW040 BKN100 BKN250 13/11 A3006 RMK SC2AC3CI0 SLP182

CYQF;2012-08-01 08:00;CYQF 010800Z 00000KT 15SM FEW090 SCT250 13/11 A3006 RMK AC2CI1 SLP184

CYQF;2012-08-01 09:00;CYQF 010900Z 00000KT 15SM FEW090 SCT250 11/10 A3006 RMK AC2CI1 SLP185

CYQF;2012-08-01 09:27;CYQF 010927Z 19003KT 2SM BR FEW090 RMK FG2AC1

CYQF;2012-08-01 09:41;CYQF 010941Z 20002KT 1SM BR SCT090 RMK FG2AC1

CYQF;2012-08-01 10:00;CYQF 011000Z 21002KT 1SM BR SCT090 10/09 A3006 RMK FG2AC1 SLP184

CYQF;2012-08-01 11:00;CYQF 011100Z 00000KT 2SM BR FEW090 10/09 A3006 RMK FG2AC1 SLP184

CYQF;2012-08-01 12:00;CYQF 011200Z 20003KT 2SM BR FEW080 09/08 A3006 RMK FG2AC1 SLP192

CYQF;2012-08-01 12:26;CYQF 011226Z 00000KT 10SM FEW080 RMK AC2 BCFG

CYQF;2012-08-01 12:27;CYQF 011227Z 00000KT 10SM FEW080 RMK AC2 BCFG

CYQF;2012-08-01 13:00;CYQF 011300Z 00000KT 10SM FEW080 10/09 A3006 RMK AC2 BCFG SLP191

CYQF;2012-08-01 14:00;CYQF 011400Z 23003KT 12SM FEW080 12/11 A3006 RMK ACC2 SLP193

CYQF;2012-08-01 15:00;CYQF 011500Z 24002KT 15SM FEW080 15/12 A3006 RMK ACC2 SLP188

CYQF;2012-08-01 16:00;CYQF 011600Z 24002KT 15SM SCT080 17/13 A3006 RMK ACC3 SLP188

CYQF;2012-08-01 17:00;CYQF 011700Z 00000KT 15SM SCT080 BKN250 18/13 A3006 RMK ACC3CI1 SLP187

CYQF;2012-08-01 18:00;CYQF 011800Z 21002KT 15SM FEW024 SCT080 BKN260 19/13 A3005 RMK CU1ACC3CI0 SLP181

CYQF;2012-08-01 19:00;CYQF 011900Z 22006KT 15SM FEW036 FEW090 BKN270 22/14 A3004 RMK CU1ACC1CI2 SLP178

CYQF;2012-08-01 20:00;CYQF 012000Z 27003KT 15SM FEW037 FEW100 BKN250 22/12 A3003 RMK CU2AC1CI1 SLP175

CYQF;2012-08-01 21:00;CYQF 012100Z 25004KT 15SM FEW052 FEW100 BKN260 22/08 A3002 RMK CU2AC1CI2 SLP171

CYQF;2012-08-01 22:00;CYQF 012200Z 30002KT 15SM FEW056 SCT100 BKN260 23/09 A3001 RMK CU2AC2CI2 SLP167

CYQF;2012-08-01 23:00;CYQF 012300Z 00000KT 15SM FEW050 SCT120 BKN260 23/11 A3000 RMK CU1AC2CI2 CC ASOCTD SLP163

CYQF;2012-08-02 00:00;CYQF 020000Z 00000KT 15SM FEW050 FEW120 BKN260 23/10 A2998 RMK CU1AC1CI1 SLP158

CYQF;2012-08-02 01:00;CYQF 020100Z 00000KT 15SM FEW050 FEW120 BKN260 23/10 A2996 RMK CU1AC1CI2 SLP152

CYQF;2012-08-02 02:00;CYQF 020200Z 00000KT 15SM FEW050 FEW120 BKN260 21/12 A2995 RMK CU1AC1CI2 OB TAKEN +08 SLP148

CYQF;2012-08-02 03:00;CYQF 020300Z 00000KT 15SM SCT120 BKN260 19/10 A2995 RMK AC3CI2 SLP143

CYQF;2012-08-02 04:00;CYQF 020400Z 00000KT 15SM SCT120 BKN260 18/10 A2994 RMK AC3CI2 SLP142

CYQF;2012-08-02 05:00;CYQF 020500Z 00000KT 15SM FEW120 BKN260 17/11 A2993 RMK AC2CI2 SLP138

CYQF;2012-08-02 06:00;CYQF 020600Z 00000KT 15SM BKN080 OVC260 16/12 A2992 RMK AC6CI2 SLP134

CYQF;2012-08-02 06:37;CYQF 020637Z 34010G16KT 15SM -SHRA BKN060 RMK SC7 TCU ASOCTD

CYQF;2012-08-02 07:00;CYQF 020700Z 35008KT 15SM -SHRA OVC055 14/13 A2998 RMK SC8 CB ASOCTD LTGCG N SLP152

CYQF;2012-08-02 08:00;CYQF 020800Z 33008KT 15SM -RA OVC055 12/10 A3000 RMK SC8 SLP157

CYQF;2012-08-02 09:00;CYQF 020900Z 01008KT 15SM -RA OVC055 12/10 A2999 RMK SC8 SLP160

CYQF;2012-08-02 10:00;CYQF 021000Z 36008KT 15SM -RA OVC050 11/10 A2999 RMK SC8 SLP160

CYQF;2012-08-02 12:00;CYQF 021200Z 00000KT 10SM -RA FEW015 OVC050 11/10 A2998 RMK SC1SC7 SLP154

CYQF;2012-08-02 12:22;CYQF 021222Z 33003KT 6SM -RA SCT006 OVC040 RMK SF4SC4

CYQF;2012-08-02 13:00;CYQF 021300Z 32004KT 10SM -RA SCT005 BKN040 11/10 A2999 RMK SF4SC3 SLP157

CYQF;2012-08-02 13:10;CYQF 021310Z 30003KT 10SM -RA BKN005 BKN040 RMK SF5SC2

CYQF;2012-08-02 14:00;CYQF 021400Z 30003KT 10SM -RA SCT006 BKN060 11/10 A3000 RMK SF4SC3 SLP160

CYQF;2012-08-02 15:00;CYQF 021500Z 31003KT 15SM -RA FEW006 SCT030 BKN060 12/10 A3000 RMK CF2SC2SC3 RA INTMT SLP166

CYQF;2012-08-02 16:00;CYQF 021600Z 30009KT 10SM -SHRA SCT008 OVC030 12/10 A3001 RMK CF4SC4 SLP168

CYQF;2012-08-02 16:31;CYQF 021631Z 32010G15KT 8SM -SHRA BKN008 OVC030 RMK CF6SC2

CYQF;2012-08-02 17:00;CYQF 021700Z 31010G15KT 12SM -SHRA SCT010 BKN040 12/10 A3001 RMK CF3SC4 OCNL SH SLP169

CYQF;2012-08-02 17:45;CYQF 021745Z 32010KT 15SM VCSH FEW016 BKN035 BKN090 RMK CU2SC3AC2

CYQF;2012-08-02 18:00;CYQF 021800Z 31010G15KT 15SM VCSH FEW020 BKN040 BKN080 15/09 A3001 RMK CU2SC3AC2 SLP168

CYQF;2012-08-02 20:00;CYQF 022000Z 33010G15KT 15SM SCT040 BKN220 16/07 A3000 RMK CU3CI2 SLP166

CYQF;2012-08-02 21:00;CYQF 022100Z 31010G15KT 15SM SCT040 SCT070 BKN240 17/08 A3000 RMK CU3AC1CI2 TCU ASOCTD SH S SLP166

CYQF;2012-08-02 22:00;CYQF 022200Z 29007KT 15SM FEW040CB SCT070 BKN240 16/07 A3000 RMK CB2AC2CI2 SH DIST N SLP168

CYQF;2012-08-02 23:00;CYQF 022300Z 30004KT 15SM VCSH BKN035CB BKN070 BKN240 16/07 A3000 RMK CB5AC2CI1 SLP167

CYQF;2012-08-03 00:00;CYQF 030000Z 30005KT 15SM SCT035CB BKN070 BKN240 15/07 A3001 RMK CB3AC2CI1 SLP174

CYQF;2012-08-03 01:00;CYQF 030100Z 31007KT 15SM FEW030CB SCT080 BKN240 15/08 A3002 RMK CB2AC2CI2 SLP177

CYQF;2012-08-03 02:00;CYQF 030200Z 29003KT 15SM FEW030CB SCT240 15/09 A3002 RMK CB2CI2 SLP176

CYQF;2012-08-03 03:00;CYQF 030300Z 01003KT 15SM VCSH BKN030CB BKN240 12/07 A3003 RMK CB5CI1 SLP184

CYQF;2012-08-03 04:00;CYQF 030400Z 28003KT 15SM VCSH BKN030 BKN240 11/08 A3004 RMK CU5CI0 CB ASOCTD SLP186

CYQF;2012-08-03 05:00;CYQF 030500Z 31012KT 15SM BKN030 BKN240 12/07 A3005 RMK CU5CI1 CB ASOCTD SLP188

CYQF;2012-08-03 06:00;CYQF 030600Z 28006KT 15SM BKN030 11/08 A3004 RMK SC6 SLP185

CYQF;2012-08-03 07:00;CYQF 030700Z 29006KT 15SM FEW030 09/07 A3004 RMK SC2 SLP184

CYQF;2012-08-03 08:00;CYQF 030800Z 29008KT 15SM FEW030 09/06 A3003 RMK SC2 SLP183

CYQF;2012-08-03 09:00;CYQF 030900Z 28004KT 15SM FEW030 09/06 A3003 RMK SC2 SLP181

CYQF;2012-08-03 10:00;CYQF 031000Z 29007KT 15SM FEW080 10/08 A3003 RMK AC1 SLP180

CYQF;2012-08-03 11:00;CYQF 031100Z 30006KT 15SM FEW030 BKN080 11/08 A3003 RMK SC2AC3 SLP182

CYQF;2012-08-03 12:00;CYQF 031200Z 31004KT 15SM SCT030 OVC080 11/09 A3004 RMK SC3AC5 SLP186

CYQF;2012-08-03 12:44;CYQF 031244Z 31004KT 15SM FEW008 SCT030 OVC080 RMK SF1SC3AC5

CYQF;2012-08-03 13:00;CYQF 031300Z 32004KT 15SM FEW008 SCT030 OVC080 11/09 A3005 RMK SF1SC3AC5 SLP188

CYQF;2012-08-03 14:00;CYQF 031400Z 32004KT 15SM FEW010 BKN040 OVC080 12/10 A3006 RMK SF2SC6AC1 SLP193

CYQF;2012-08-03 15:00;CYQF 031500Z 33008KT 15SM FEW010 BKN040 BKN080 13/10 A3007 RMK SF2SC3AC2 SLP197

CYQF;2012-08-03 16:00;CYQF 031600Z 33007KT 15SM FEW016 SCT040 SCT080 14/10 A3008 RMK CU2SC1AC1 SLP199

CYQF;2012-08-03 17:00;CYQF 031700Z 33007KT 15SM BKN022 BKN100 16/10 A3007 RMK CU5AC1 SLP197

CYQF;2012-08-03 18:00;CYQF 031800Z 34008KT 15SM SCT028 17/10 A3007 RMK CU3 SLP194

CYQF;2012-08-03 19:00;CYQF 031900Z 30008KT 15SM BKN030 18/11 A3007 RMK CU5 TCU ASOCTD SLP192

CYQF;2012-08-03 20:00;CYQF 032000Z 36007KT 15SM SCT036 19/11 A3007 RMK CU4 TCU ASOCTD SLP192

CYQF;2012-08-03 21:00;CYQF 032100Z 31010G15KT 15SM SCT040 BKN240 21/10 A3006 RMK CU4CI1 SLP189

CYQF;2012-08-03 22:00;CYQF 032200Z 36006KT 15SM SCT040 SCT240 20/11 A3006 RMK CU3CI1 SLP189

CYQF;2012-08-03 23:00;CYQF 032300Z 03008KT 15SM FEW040 BKN250 21/11 A3006 RMK CU2CI1 SLP188

CYQF;2012-08-04 00:00;CYQF 040000Z 03003KT 15SM FEW040 SCT250 21/11 A3005 RMK CU2CI1 SLP183

CYQF;2012-08-04 01:00;CYQF 040100Z 04003KT 15SM FEW040 SCT250 21/11 A3005 RMK CU1CI1 SLP183

CYQF;2012-08-04 02:00;CYQF 040200Z 10003KT 15SM BKN120 BKN250 20/12 A3005 RMK AC5CI1 SLP182

CYQF;2012-08-04 03:00;CYQF 040300Z 00000KT 15SM BKN120 BKN250 18/12 A3005 RMK AC6CI1 SLP184

CYQF;2012-08-04 04:00;CYQF 040400Z 00000KT 15SM BKN100 17/13 A3006 RMK AC7 SLP187

CYQF;2012-08-04 05:00;CYQF 040500Z 19003KT 15SM BKN100 16/13 A3007 RMK AC7 SLP189

CYQF;2012-08-04 06:00;CYQF 040600Z 00000KT 15SM BKN100 16/12 A3007 RMK AC7 SLP187

CYQF;2012-08-04 07:00;CYQF 040700Z 00000KT 15SM BKN080 16/12 A3008 RMK AC7 SLP189

CYQF;2012-08-04 08:00;CYQF 040800Z 16003KT 15SM BKN080 16/12 A3007 RMK AC7 SLP188

CYQF;2012-08-04 09:00;CYQF 040900Z 20003KT 15SM BKN080 15/12 A3007 RMK AC7 SLP183

CYQF;2012-08-04 10:00;CYQF 041000Z 19004KT 15SM BKN080 15/12 A3006 RMK AC6 SLP181

CYQF;2012-08-04 11:00;CYQF 041100Z 19003KT 15SM SCT090 14/11 A3006 RMK AC2 SLP181

CYQF;2012-08-04 12:00;CYQF 041200Z 23002KT 15SM BKN100 13/11 A3006 RMK AC5 SLP183

CYQF;2012-08-04 13:00;CYQF 041300Z 20003KT 15SM SCT100 13/11 A3006 RMK AC2 SLP184

CYQF;2012-08-04 14:00;CYQF 041400Z 20003KT 15SM FEW100 14/11 A3006 RMK AC1 SLP184

CYQF;2012-08-04 15:00;CYQF 041500Z 21002KT 15SM FEW100 18/13 A3007 RMK AC1 SLP183

CYQF;2012-08-04 16:00;CYQF 041600Z 27002KT 15SM FEW100 20/14 A3006 RMK AC1 SLP182

CYQF;2012-08-04 17:00;CYQF 041700Z 25005KT 15SM SKC 22/13 A3006 RMK SLP180

CYQF;2012-08-04 18:00;CYQF 041800Z 24005KT 15SM SKC 23/13 A3006 RMK SLP176

CYQF;2012-08-04 19:00;CYQF 041900Z 23002KT 15SM FEW047 24/12 A3005 RMK CU1 SLP172

CYQF;2012-08-04 20:00;CYQF 042000Z 26004KT 15SM FEW048 24/12 A3004 RMK CU1 SLP171

CYQF;2012-08-04 21:00;CYQF 042100Z 26005KT 15SM FEW052 FEW240 26/13 A3003 RMK CU1CI1 SLP165

CYQF;2012-08-04 22:00;CYQF 042200Z 24004KT 15SM FEW052TCU FEW240 26/12 A3002 RMK TCU1CI1 SLP162

CYQF;2012-08-04 23:00;CYQF 042300Z 18005KT 15SM FEW052TCU 26/13 A3000 RMK TCU1 SLP157

CYQF;2012-08-05 00:00;CYQF 050000Z 17006KT 15SM FEW050CB FEW150 27/14 A2999 RMK CB1AC1 SLP152

CYQF;2012-08-05 01:00;CYQF 050100Z 13004KT 15SM FEW045CB FEW100 SCT250 26/15 A2998 RMK CB1AC2CI2 SLP149

CYQF;2012-08-05 02:00;CYQF 050200Z 16005KT 15SM FEW040CB FEW100 FEW250 25/16 A2996 RMK CB1AC1CI1 SLP142

CYQF;2012-08-05 03:00;CYQF 050300Z 00000KT 15SM FEW100 FEW250 22/16 A2995 RMK AC2CI1 SLP137

CYQF;2012-08-05 03:48;CYQF 050348Z 09003KT 15SM TS FEW030CB SCT100 RMK CB2AC2 LTGCG+CC NW+N

CYQF;2012-08-05 04:00;CYQF 050400Z 13003KT 15SM FEW030CB BKN100 20/15 A2995 RMK CB2AC2 LTGCG+CC NW-NE SHRA NW SLP139

CYQF;2012-08-05 05:00;CYQF 050500Z 32005KT 15SM TS BKN030CB 22/14 A3000 RMK CB6 FQT LTGCGCC SLP153

CYQF;2012-08-05 06:00;CYQF 050600Z 00000KT 15SM TS BKN030CB 19/14 A2998 RMK CB5 LTGIC SLP146

CYQF;2012-08-05 06:26;CYQF 050626Z 00000KT 15SM FEW030CB BKN080 RETS RMK CB2AC3 OCNL LTGIC N+E

CYQF;2012-08-05 07:00;CYQF 050700Z 35005KT 15SM FEW030CB FEW080 17/13 A2998 RETS RMK CB2AC1 LTGIC NW-NE SLP145

CYQF;2012-08-05 08:00;CYQF 050800Z 36003KT 15SM FEW030CB FEW080 17/14 A3000 RMK CB1AC1 LTG DIST N SLP152

CYQF;2012-08-05 09:00;CYQF 050900Z 01003KT 15SM FEW080 17/13 A3002 RMK AC1 SLP159

CYQF;2012-08-05 10:00;CYQF 051000Z 27002KT 15SM SKC 14/12 A3002 RMK SLP160

CYQF;2012-08-05 11:00;CYQF 051100Z 27004KT 15SM FEW080 14/11 A3004 RMK AC1 SLP164

CYQF;2012-08-05 12:00;CYQF 051200Z 19002KT 15SM FEW090 12/10 A3005 RMK AC1 SLP174

CYQF;2012-08-05 13:00;CYQF 051300Z 00000KT 15SM FEW090 FEW250 13/11 A3006 RMK AC1CI1 SLP178

CYQF;2012-08-05 14:00;CYQF 051400Z 20003KT 15SM FEW080 FEW250 15/13 A3007 RMK ACC1CI1 SLP180

CYQF;2012-08-05 15:00;CYQF 051500Z 24002KT 15SM FEW080 FEW250 18/15 A3007 RMK AC1CI1 SLP181

CYQF;2012-08-05 16:00;CYQF 051600Z 21004KT 15SM FEW030 FEW260 20/16 A3006 RMK CU1CI1 SLP178

CYQF;2012-08-05 17:00;CYQF 051700Z 16002KT 15SM FEW030 FEW250 23/15 A3005 RMK CU1CI1 SLP176

CYQF;2012-08-05 18:00;CYQF 051800Z 21004KT 15SM FEW032 FEW100 FEW250 24/16 A3005 RMK CU1AC1CI1 SLP169

CYQF;2012-08-05 19:00;CYQF 051900Z 19004KT 15SM FEW042CB FEW100 FEW250 25/15 A3004 RMK CB1AC1CI1 CB DIST W SLP165

CYQF;2012-08-05 20:00;CYQF 052000Z 18008KT 15SM FEW045CB FEW100 26/15 A3002 RMK CB1AC1 SLP161

CYQF;2012-08-05 21:00;CYQF 052100Z 18007KT 15SM FEW045CB FEW100 FEW250 27/15 A3001 RMK CB1AC1CI1 SLP154

CYQF;2012-08-05 22:00;CYQF 052200Z 19008KT 15SM FEW048CB FEW100 FEW270 28/16 A2999 RMK CB1AC1CI1 SLP147

CYQF;2012-08-05 23:00;CYQF 052300Z 16008KT 15SM FEW050CB FEW270 28/15 A2998 RMK CB1CI2 SLP144

CYQF;2012-08-06 00:00;CYQF 060000Z 17005KT 15SM SCT040CB BKN250 26/16 A2997 RMK CB3CI2 SLP147

CYQF;2012-08-06 00:46;CYQF 060046Z 00000KT 15SM TS SCT040CB BKN250 RMK CB3CI2 SHRA NW

CYQF;2012-08-06 01:00;CYQF 060100Z 36005KT 15SM TS VCSH BKN040CB BKN250 24/17 A2999 RMK CB6CI1 SLP154

CYQF;2012-08-06 02:00;CYQF 060200Z 19004KT 15SM TS VCSH SCT040CB BKN250 24/17 A2995 RMK CB4CI2 SLP142

CYQF;2012-08-06 02:33;CYQF 060233Z 00000KT 15SM FEW040CB SCT250 RMK CB2CI2

CYQF;2012-08-06 03:00;CYQF 060300Z 12002KT 15SM FEW040CB SCT250 24/17 A2996 RETS RMK CB2CI2 SLP142

CYQF;2012-08-06 04:00;CYQF 060400Z 00000KT 15SM FEW040CB FEW100 21/15 A2998 RMK CB1AC1 SLP148

CYQF;2012-08-06 05:00;CYQF 060500Z 00000KT 15SM FEW040CB 20/14 A2999 RMK CB1 SLP149

CYQF;2012-08-06 06:00;CYQF 060600Z 00000KT 15SM FEW040CB 20/14 A2998 RMK CB1 SLP146

CYQF;2012-08-06 07:00;CYQF 060700Z 17004KT 15SM FEW040CB 17/13 A2998 RMK CB1 SLP146

CYQF;2012-08-06 08:00;CYQF 060800Z 21003KT 15SM SKC 16/13 A2998 RMK LTG DIST N SLP145

CYQF;2012-08-06 09:00;CYQF 060900Z 21003KT 15SM SKC 15/13 A2998 RMK LTG DIST NE SLP146

CYQF;2012-08-06 10:00;CYQF 061000Z 22004KT 15SM SKC 14/12 A2999 RMK SLP150

CYQF;2012-08-06 11:00;CYQF 061100Z 00000KT 15SM FEW040CB 14/12 A3001 RMK CB1 SLP154

CYQF;2012-08-06 12:00;CYQF 061200Z 24002KT 15SM FEW250 13/11 A3003 RMK CI1 SLP167

CYQF;2012-08-06 13:00;CYQF 061300Z 27003KT 15SM FEW090 FEW250 14/12 A3006 RMK AC1CI0 SLP175

CYQF;2012-08-06 14:00;CYQF 061400Z 31003KT 15SM FEW001 FEW250 17/15 A3007 RMK ST1CI1 FOG BNK W VIS 3 SLP178

CYQF;2012-08-06 14:19;CYQF 061419Z 33003KT 10SM BKN003 RMK ST6 VIS NW-N 2

CYQF;2012-08-06 14:36;CYQF 061436Z 32004KT 2SM BR BKN002 RMK ST6 VIS N 1 VIS SE 10

CYQF;2012-08-06 14:42;CYQF 061442Z 36003KT 5SM BR FEW002 RMK ST2 VIS NW 1 SE-SW 10

CYQF;2012-08-06 15:00;CYQF 061500Z 34003KT 12SM BCFG FEW002 17/16 A3008 RMK ST1 VIS N 3/4 FOG BANK NW-SE SLP181

CYQF;2012-08-06 16:00;CYQF 061600Z 35002KT 15SM FEW013 20/17 A3009 RMK CF1 SLP184

CYQF;2012-08-06 17:00;CYQF 061700Z 33004KT 15SM FEW017 22/18 A3009 RMK CF1 SLP185

CYQF;2012-08-06 18:00;CYQF 061800Z 29003KT 15SM FEW020 24/19 A3010 RMK CF1 SLP186

CYQF;2012-08-06 19:00;CYQF 061900Z 00000KT 15SM FEW026TCU 25/19 A3009 RMK TCU1 TCU DIST W SLP184

CYQF;2012-08-06 20:00;CYQF 062000Z 00000KT 15SM FEW030TCU 27/19 A3009 RMK TCU1 SLP182

CYQF;2012-08-06 21:00;CYQF 062100Z 00000KT 15SM FEW040TCU FEW260 28/17 A3008 RMK TCU1CI1 SLP180

CYQF;2012-08-06 22:00;CYQF 062200Z 11004KT 15SM FEW052CB BKN270 28/16 A3007 RMK CB2CI1 SLP177

CYQF;2012-08-06 23:00;CYQF 062300Z 09004KT 15SM FEW050CB BKN280 27/16 A3006 RMK CB2CI2 SH DIST SW SLP175

CYQF;2012-08-07 00:00;CYQF 070000Z 13003KT 15SM FEW050CB BKN280 27/18 A3005 RMK CB2CI2 VIRGA SLP171

CYQF;2012-08-07 01:00;CYQF 070100Z 13004KT 15SM FEW050CB SCT100 BKN280 26/17 A3004 RMK CB2AC2CI2 SLP170

CYQF;2012-08-07 02:00;CYQF 070200Z 10004KT 15SM FEW050CB SCT100 BKN280 25/17 A3004 RMK CB2AC2CI2 VIRGA SLP169

CYQF;2012-08-07 03:00;CYQF 070300Z 12003KT 15SM FEW050CB SCT100 BKN280 22/17 A3002 RMK CB2AC2CI1 OCNL LTNG NW SLP163

CYQF;2012-08-07 04:00;CYQF 070400Z 36004KT 15SM FEW040CB SCT100 BKN280 21/16 A3005 RMK CB2AC2CI2 FQT LTNGCG N QUAD SLP171

CYQF;2012-08-07 04:40;CYQF 070440Z 03015G20KT 15SM TS VCSH SCT040CB BKN090 BKN280 RMK CB4AC2CI1 LTNGCG W-N

CYQF;2012-08-07 05:00;CYQF 070500Z 33010G15KT 12SM TS VCSH OVC040CB 22/13 A3009 RMK CB8 LTNG ALQDS SLP183

CYQF;2012-08-07 05:05;CYQF 070505Z 35008KT 10SM -TSRA BKN040CB OVC075 RMK CB6AC2 LTNG ALQDS

CYQF;2012-08-07 05:06;CYQF 070506Z CCA 35008KT 10SM -TSRA BKN040CB OVC075 RMK CB6AC2 LTNG ALQDS

CYQF;2012-08-07 06:00;CYQF 070600Z 31008KT 10SM -TSRA BKN040CB OVC075 18/15 A3013 RERA RMK CB6AC2 LTNG ALQDS SLP197

CYQF;2012-08-07 07:00;CYQF 070700Z 03010KT 10SM -TSRA BKN040CB OVC075 18/13 A3008 RMK CB6AC2 LTNG ALQDS RERA SLP182

CYQF;2012-08-07 08:00;CYQF 070800Z 00000KT 10SM TSRA BKN040CB OVC100 18/13 A3009 RMK CB6AC2 LTGIC OVRHD LTGCG W+SE SLP187

CYQF;2012-08-07 08:41;CYQF 070841Z 13008KT 15SM BKN040TCU OVC100 RMK TCU5AC3 CB ASOCTD LTGCG SE RETS RERA

CYQF;2012-08-07 09:00;CYQF 070900Z 12004KT 15SM BKN040TCU OVC100 18/13 A3005 RMK TCU5AC3 LTGCG SE-S SLP165

CYQF;2012-08-07 10:00;CYQF 071000Z 24006KT 15SM FEW040 BKN100 BKN250 16/12 A3004 RMK SC2AC2CI0 CB ASOCTD LTGCG E SLP163

CYQF;2012-08-07 11:00;CYQF 071100Z 36006KT 15SM SCT040 BKN100 BKN250 15/12 A3005 RMK SC3AC2CI0 SLP168

CYQF;2012-08-07 12:00;CYQF 071200Z 26002KT 15SM SCT040 BKN100 BKN250 15/13 A3007 RMK SC4AC1CI1 TCU N SLP176

CYQF;2012-08-07 13:00;CYQF 071300Z 18004KT 15SM SCT040 BKN100 BKN250 15/13 A3006 RMK SC4AC1CI1 SLP174

CYQF;2012-08-07 14:00;CYQF 071400Z 00000KT 15SM FEW040 BKN100 BKN250 16/13 A3006 RMK SC1AC4CI1 SLP175

CYQF;2012-08-07 15:00;CYQF 071500Z 00000KT 15SM FEW040 BKN100 19/14 A3008 RMK CU1AC6 ACC ASOCTD SLP183

CYQF;2012-08-07 16:00;CYQF 071600Z 15004KT 15SM FEW030 BKN100 20/15 A3008 RMK SC2AC5 ACC ASOCTD SLP182

CYQF;2012-08-07 17:00;CYQF 071700Z 18005KT 15SM FEW030 BKN100 21/16 A3009 RMK CU2AC5 ACC ASOCTD SLP184

CYQF;2012-08-07 18:00;CYQF 071800Z 19008KT 15SM FEW030 BKN100 BKN250 23/16 A3009 RMK CU1AC4CI1 ACC ASOCTD SLP186

CYQF;2012-08-07 19:00;CYQF 071900Z 20006KT 15SM FEW029CB BKN100 BKN250 22/15 A3010 RMK CB1AC4CI1 ACC ASOCTD CB DIST SW-W SLP188

CYQF;2012-08-07 20:00;CYQF 072000Z 19004KT 15SM FEW030CB BKN100 22/15 A3009 RMK CB2AC6 SLP187

CYQF;2012-08-07 21:00;CYQF 072100Z 28003KT 15SM FEW030TCU BKN100 24/16 A3009 RMK TCU1AC6 ACC ASOCTD SLP186

CYQF;2012-08-07 22:00;CYQF 072200Z 32004KT 15SM FEW030CB BKN090 23/15 A3011 RMK CB1ACC7 SLP190

CYQF;2012-08-07 23:00;CYQF 072300Z 31007KT 15SM FEW032CB BKN090 23/15 A3009 RMK CB1AC6 SLP186

CYQF;2012-08-08 00:00;CYQF 080000Z 30005KT 15SM FEW035TCU FEW090 BKN250 24/15 A3009 RMK TCU1AC2CI2 SLP189

CYQF;2012-08-08 01:00;CYQF 080100Z 33005KT 15SM FEW035CB SCT090 BKN250 24/16 A3010 RMK CB2AC2CI2 SLP191

CYQF;2012-08-08 02:00;CYQF 080200Z 00000KT 15SM FEW031CB FEW090 SCT250 23/16 A3011 RMK CB1AC1CI2 AC TR SLP195

CYQF;2012-08-08 03:00;CYQF 080300Z 00000KT 15SM FEW090 BKN250 20/16 A3010 RMK AC2CI2 SLP192

CYQF;2012-08-08 04:00;CYQF 080400Z 00000KT 15SM FEW090 SCT250 18/15 A3011 RMK AC2CI0 SLP193

CYQF;2012-08-08 05:00;CYQF 080500Z 21003KT 15SM FEW090 17/15 A3011 RMK AC1 SLP194

CYQF;2012-08-08 06:00;CYQF 080600Z 20006KT 15SM FEW090 16/14 A3012 RMK AC1 SLP197

CYQF;2012-08-08 07:00;CYQF 080700Z 00000KT 15SM SKC 15/13 A3011 RMK SLP195

CYQF;2012-08-08 08:00;CYQF 080800Z 20003KT 15SM SKC 14/12 A3011 RMK SLP195

CYQF;2012-08-08 09:00;CYQF 080900Z 21003KT 15SM FEW250 14/12 A3010 RMK CI0 SLP191

CYQF;2012-08-08 10:00;CYQF 081000Z 20004KT 15SM FEW250 13/11 A3010 RMK CI1 SLP192

CYQF;2012-08-08 11:00;CYQF 081100Z 20003KT 15SM FEW080 FEW250 13/11 A3010 RMK AC1CI0 SLP192

CYQF;2012-08-08 12:00;CYQF 081200Z 00000KT 15SM FEW080 FEW250 13/10 A3009 RMK AC1CI0 SLP191

CYQF;2012-08-08 13:00;CYQF 081300Z 00000KT 15SM FEW080 FEW250 14/12 A3009 RMK AC1CI0 SLP189

CYQF;2012-08-08 14:00;CYQF 081400Z 00000KT 15SM FEW080 SCT260 16/13 A3009 RMK AC1CI1 SLP189

CYQF;2012-08-08 15:00;CYQF 081500Z 15003KT 15SM BKN260 19/15 A3008 RMK CI2 SLP184

CYQF;2012-08-08 16:00;CYQF 081600Z 18006KT 15SM BKN260 21/16 A3007 RMK CI4 SLP182

CYQF;2012-08-08 17:00;CYQF 081700Z 16008KT 15SM FEW150 BKN260 23/16 A3006 RMK AS2CS4 SLP179

CYQF;2012-08-08 18:00;CYQF 081800Z 15005KT 15SM BKN120 BKN260 23/16 A3005 RMK AS5CI2 VIRGA SLP174

CYQF;2012-08-08 19:00;CYQF 081900Z 10004KT 15SM FEW090 BKN120 BKN260 22/18 A3002 RMK ACC2AS3CI1 VIRGA SLP165

CYQF;2012-08-08 20:00;CYQF 082000Z 26004KT 15SM BKN080 BKN120 BKN260 22/17 A3002 RMK ACC5AS1CI1 VIRGA SLP165

CYQF;2012-08-08 20:25;CYQF 082025Z 24002KT 15SM VCSH FEW040CB BKN080 BKN260 RMK CB2ACC3CI2 HVY SH SW

CYQF;2012-08-08 20:35;CYQF 082035Z 27008KT 15SM TS VCSH BKN040CB BKN090 BKN260 RMK CB5ACC2CI1

CYQF;2012-08-08 20:45;CYQF 082045Z 30005KT 10SM -TSRA BKN040CB BKN090 BKN260 RMK CB5ACC1CI1

CYQF;2012-08-08 21:00;CYQF 082100Z 30004KT 12SM -TSRA SCT040CB BKN090 BKN260 22/19 A3001 RMK CB3ACC2CI1 SLP164

CYQF;2012-08-08 21:05;CYQF 082105Z 09005KT 15SM VCSH FEW040CB SCT090 SCT260 RETS RMK CB2ACC1CI1

CYQF;2012-08-08 22:00;CYQF 082200Z 15007KT 15SM FEW035 FEW090 SCT260 27/18 A2997 RETS RMK CU1AC1CI0 SLP152

CYQF;2012-08-08 23:00;CYQF 082300Z 15010KT 15SM FEW040 FEW100 28/17 A2995 RMK CU2AC1 SLP144

CYQF;2012-08-09 00:00;CYQF 090000Z 14007KT 15SM FEW040 FEW100 BKN260 28/17 A2991 RMK CU2AC1CI2 CB ASOCTD W SLP124

CYQF;2012-08-09 01:00;CYQF 090100Z 14003KT 15SM SCT032CB BKN070 BKN250 25/17 A2991 RMK CB4AC2CI2 MAMMATUS OVRHD OCNL LTNG SW-W SLP122

CYQF;2012-08-09 01:17;CYQF 090117Z 00000KT 15SM TS BKN025CB BKN070 BKN250 RMK CB5AC2CI1

CYQF;2012-08-09 01:38;CYQF 090138Z 33003KT 15SM BKN025CB BKN070 BKN250 RMK CB6AC1CI1 LTNG SE-SW-NW

CYQF;2012-08-09 01:52;CYQF 090152Z 27020G25KT 10SM -TSRA OVC025CB RMK CB8 WND SHFT

CYQF;2012-08-09 02:00;CYQF 090200Z 28010KT 3SM -TSRA BKN025CB BKN250 22/16 A2994 RMK CB6CI1 RERA HVY SHWRS N-E-SE CLRG FM SW SLP133

CYQF;2012-08-09 02:13;CYQF 090213Z 00000KT 15SM TS FEW025CB BKN250 RMK CB2CI3

CYQF;2012-08-09 02:35;CYQF 090235Z 36007KT 15SM FEW025CB SCT070 BKN250 RMK CB2AC1CI2 RETS LTNG DIST N

CYQF;2012-08-09 03:00;CYQF 090300Z 35010KT 15SM FEW025CB BKN250 19/14 A2993 RMK CB1CI3 RETS SLP133

CYQF;2012-08-09 04:00;CYQF 090400Z 05002KT 15SM FEW025 BKN250 17/13 A2995 RMK SC2CI6 CB ASOCTD SLP141

CYQF;2012-08-09 05:00;CYQF 090500Z 00000KT 15SM FEW025 BKN100 OVC250 17/14 A2997 RMK SC2AC3CI3 CB ASOCTD OCNL LTNG DIST E AND W SLP147

CYQF;2012-08-09 06:00;CYQF 090600Z 04004KT 15SM FEW025 SCT100 18/13 A3003 RMK SC1AC3 FEW CB LTGCG NE SLP166

CYQF;2012-08-09 07:00;CYQF 090700Z 00000KT 15SM SCT100 15/12 A3004 RMK AC3 SLP169

CYQF;2012-08-09 08:00;CYQF 090800Z 29002KT 15SM FEW080 13/10 A3006 RMK AC2 SLP176

CYQF;2012-08-09 09:00;CYQF 090900Z 22004KT 15SM FEW100 12/10 A3007 RMK AC2 SLP186

CYQF;2012-08-09 10:00;CYQF 091000Z 26004KT 15SM SKC 11/09 A3007 RMK SLP186

CYQF;2012-08-09 11:00;CYQF 091100Z 22004KT 15SM FEW250 10/09 A3008 RMK CI1 SLP188

CYQF;2012-08-09 12:00;CYQF 091200Z 00000KT 15SM SCT250 10/09 A3009 RMK CI1 SLP188

CYQF;2012-08-09 13:00;CYQF 091300Z 00000KT 15SM FEW250 10/09 A3011 RMK CI1 SLP193

CYQF;2012-08-09 14:00;CYQF 091400Z 27003KT 15SM FEW250 12/10 A3013 RMK CI1 SLP199

CYQF;2012-08-09 15:00;CYQF 091500Z 23003KT 15SM SKC 15/11 A3014 RMK SLP209

CYQF;2012-08-09 16:00;CYQF 091600Z 21005KT 15SM SKC 17/12 A3015 RMK SLP211

CYQF;2012-08-09 17:00;CYQF 091700Z 18005KT 15SM SKC 20/09 A3015 RMK SLP212

CYQF;2012-08-09 18:00;CYQF 091800Z 11002KT 15SM SKC 22/09 A3015 RMK SLP207

CYQF;2012-08-09 19:00;CYQF 091900Z 12003KT 15SM SKC 22/11 A3014 RMK SLP205

CYQF;2012-08-09 20:00;CYQF 092000Z 15002KT 15SM FEW052 23/10 A3013 RMK CF1 SLP202

CYQF;2012-08-09 21:00;CYQF 092100Z 11005KT 15SM FEW052 24/11 A3012 RMK CF1 SLP200

CYQF;2012-08-09 22:00;CYQF 092200Z 13011KT 15SM FEW055 FEW250 24/10 A3010 RMK CU1CI2 SLP196

CYQF;2012-08-09 23:00;CYQF 092300Z 17008KT 15SM FEW050 FEW250 24/12 A3009 RMK CU1CI2 SLP192

CYQF;2012-08-10 00:00;CYQF 100000Z 15007KT 15SM FEW050 FEW250 24/11 A3008 RMK CU1CI2 SLP188

CYQF;2012-08-10 01:00;CYQF 100100Z 10008KT 15SM FEW050 BKN250 23/13 A3006 RMK CU1CI6 SLP183

CYQF;2012-08-10 02:00;CYQF 100200Z 11006KT 15SM FEW050 BKN250 22/13 A3005 RMK CU1CI6 SLP180

CYQF;2012-08-10 03:00;CYQF 100300Z 08004KT 15SM FEW050 BKN250 20/14 A3005 RMK CU1CI6 SLP176

CYQF;2012-08-10 04:00;CYQF 100400Z 08002KT 15SM FEW050 SCT250 19/12 A3005 RMK CU1CI3 SLP177

CYQF;2012-08-10 05:00;CYQF 100500Z 04003KT 15SM FEW050CB BKN250 17/12 A3005 RMK CB1CI5 LTNG DIST N SLP176

CYQF;2012-08-10 06:00;CYQF 100600Z 02004KT 15SM FEW050CB BKN250 17/12 A3005 RMK CB2CI5 LTNG DIST N SLP174

CYQF;2012-08-10 07:00;CYQF 100700Z 34003KT 15SM FEW050 SCT100 OVC250 15/12 A3006 RMK SC1AC3CI4 SLP179

CYQF;2012-08-10 08:00;CYQF 100800Z 34003KT 15SM SCT100 OVC250 15/12 A3006 RMK AC3CI5 SLP179

CYQF;2012-08-10 09:00;CYQF 100900Z 03005KT 15SM FEW100 BKN250 15/12 A3005 RMK AC2CI4 SLP174

CYQF;2012-08-10 10:00;CYQF 101000Z 06005KT 15SM FEW100 SCT250 15/12 A3004 RMK AC1CI1 SLP170

CYQF;2012-08-10 11:00;CYQF 101100Z 03002KT 15SM FEW100 SCT250 14/11 A3004 RMK AC1CI1 SLP169

CYQF;2012-08-10 12:00;CYQF 101200Z 01004KT 15SM FEW100 FEW250 12/10 A3004 RMK ACC1CI0 SLP174

CYQF;2012-08-10 13:00;CYQF 101300Z 28005KT 15SM FEW100 FEW250 12/10 A3005 RMK ACC2CI1 SLP176

CYQF;2012-08-10 14:00;CYQF 101400Z 35004KT 15SM SCT100 14/11 A3005 RMK AC2 SLP178

CYQF;2012-08-10 15:00;CYQF 101500Z 33002KT 15SM FEW016 SCT100 16/12 A3006 RMK CF1AC3 SLP182

CYQF;2012-08-10 16:00;CYQF 101600Z 01006KT 15SM FEW024 SCT100 18/12 A3006 RMK CF1AC4 SLP181

CYQF;2012-08-10 17:00;CYQF 101700Z 34006KT 15SM FEW023 FEW100 19/13 A3006 RMK CU1AC1 SLP180

CYQF;2012-08-10 18:00;CYQF 101800Z 33007KT 15SM FEW025 FEW250 20/14 A3005 RMK CU1CI1 SLP176

CYQF;2012-08-10 19:00;CYQF 101900Z 32004KT 15SM FEW029 FEW250 21/14 A3004 RMK CU2CI1 SLP173

CYQF;2012-08-10 20:00;CYQF 102000Z 36003KT 15SM FEW034 BKN250 22/14 A3003 RMK CU2CI2 SLP169

CYQF;2012-08-10 21:00;CYQF 102100Z 02008KT 15SM FEW032 SCT250 22/14 A3001 RMK CU1CI2 CB DIST E SLP161

CYQF;2012-08-10 22:00;CYQF 102200Z 01002KT 15SM FEW038TCU BKN250 24/14 A3000 RMK TCU1CI2 SLP158

CYQF;2012-08-10 23:00;CYQF 102300Z 00000KT 15SM FEW040 BKN250 24/14 A2998 RMK CU1CI2 CB N SLP153

CYQF;2012-08-11 00:00;CYQF 110000Z 00000KT 15SM FEW038CB FEW250 24/15 A2998 RMK CB1CI1 CB DIST S AND N SLP152

CYQF;2012-08-11 01:00;CYQF 110100Z 35007KT 15SM FEW035 BKN250 23/17 A2997 RMK CU1CI1 SLP150

CYQF;2012-08-11 02:00;CYQF 110200Z 36006KT 15SM FEW030 FEW250 22/16 A2997 RMK SC1CI1 SC TR SLP150

CYQF;2012-08-11 03:00;CYQF 110300Z 35006KT 15SM FEW090 FEW250 19/16 A2998 RMK AC1CI1 SLP153

CYQF;2012-08-11 04:00;CYQF 110400Z 35007KT 15SM SCT250 18/15 A2999 RMK CI1 SLP156

CYQF;2012-08-11 05:00;CYQF 110500Z 34004KT 15SM FEW100 17/15 A2999 RMK AC1 SLP156

CYQF;2012-08-11 06:00;CYQF 110600Z 36006KT 15SM SKC 17/14 A2998 RMK SLP154

CYQF;2012-08-11 07:00;CYQF 110700Z 36006KT 15SM SKC 15/13 A3000 RMK SLP158

CYQF;2012-08-11 08:00;CYQF 110800Z 01008KT 15SM FEW060 16/14 A3002 RMK SC2 SLP166

CYQF;2012-08-11 09:00;CYQF 110900Z 02008KT 15SM SCT060 16/11 A3003 RMK SC3 SLP168

CYQF;2012-08-11 09:25;CYQF 110925Z 36012KT 15SM TS BKN060CB RMK CB5 LTGCG SE+SW

CYQF;2012-08-11 09:31;CYQF 110931Z 35012KT 15SM -TSRA BKN060CB RMK CB5 LTGCG SE+SW

CYQF;2012-08-11 09:52;CYQF 110952Z 36006KT 15SM -SHRA BKN060 RMK SC6 RE TS

CYQF;2012-08-11 10:00;CYQF 111000Z 02006KT 15SM -SHRA BKN060 15/12 A3005 RMK SC6 CB ASOCTD RETS SLP174

CYQF;2012-08-11 10:44;CYQF 111044Z 31004KT 15SM FEW060 SCT100 RMK SC2AC2

CYQF;2012-08-11 11:00;CYQF 111100Z 31004KT 15SM FEW060 SCT100 14/11 A3005 RMK SC2AC2 SLP175

CYQF;2012-08-11 12:00;CYQF 111200Z 30005KT 15SM SCT060 BKN250 14/11 A3008 RMK SC4CI2 SLP184

CYQF;2012-08-11 13:00;CYQF 111300Z 33004KT 15SM SCT070 13/10 A3010 RMK ACC4 SLP192

CYQF;2012-08-11 14:00;CYQF 111400Z 33010KT 15SM SCT070 15/11 A3011 RMK ACC4 SLP195

CYQF;2012-08-11 15:00;CYQF 111500Z 36007KT 15SM FEW090 BKN250 15/10 A3014 RMK AC2CI1 SLP208

CYQF;2012-08-11 16:00;CYQF 111600Z 36010KT 15SM FEW090 SCT250 17/10 A3014 RMK AC2CC2 SLP210

CYQF;2012-08-11 17:00;CYQF 111700Z 34010KT 15SM FEW028 BKN090 BKN250 17/10 A3015 RMK CU1AC2CI1 SLP213

CYQF;2012-08-11 18:00;CYQF 111800Z 34003KT 15SM FEW032 FEW090 BKN250 18/10 A3016 RMK CU1AC2CI3 SLP216

CYQF;2012-08-11 19:00;CYQF 111900Z 03004KT 15SM FEW040 FEW090 BKN250 18/08 A3015 RMK CU1AC1CI6 SLP213

CYQF;2012-08-11 20:00;CYQF 112000Z 33005KT 15SM FEW044 BKN250 19/08 A3015 RMK CU2CI5 SLP212

CYQF;2012-08-11 21:00;CYQF 112100Z 02005KT 15SM FEW044 BKN250 20/09 A3014 RMK CU2CI4 SLP209

CYQF;2012-08-11 22:00;CYQF 112200Z 34004KT 15SM FEW044 OVC250 20/09 A3015 RMK CU2CI5 SLP210

CYQF;2012-08-11 23:00;CYQF 112300Z 34004KT 15SM FEW045 BKN250 20/09 A3015 RMK CU2CI2 SLP210

CYQF;2012-08-12 00:00;CYQF 120000Z 03005KT 15SM FEW040 BKN220 20/10 A3015 RMK CU2CI2 SLP213

CYQF;2012-08-12 01:00;CYQF 120100Z 34002KT 15SM FEW040 FEW100 20/10 A3015 RMK CU1AC1 SLP213

CYQF;2012-08-12 02:00;CYQF 120200Z 00000KT 15SM FEW100 FEW250 19/10 A3015 RMK AC1CI1 CI TR SLP213

CYQF;2012-08-12 03:00;CYQF 120300Z 00000KT 15SM FEW100 FEW250 18/11 A3016 RMK AC1CI1 SLP220

CYQF;2012-08-12 04:00;CYQF 120400Z 00000KT 15SM FEW100 16/11 A3017 RMK AC1 SLP222

CYQF;2012-08-12 05:00;CYQF 120500Z 00000KT 15SM SKC 14/10 A3018 RMK SLP224

CYQF;2012-08-12 06:00;CYQF 120600Z 00000KT 15SM SCT060 14/10 A3018 RMK SC3 SLP226

CYQF;2012-08-12 06:53;CYQF 120653Z 23004KT 15SM TS BKN060CB RMK CB6

CYQF;2012-08-12 07:00;CYQF 120700Z CCA 24003KT 15SM TS BKN060CB 14/10 A3019 RMK CB6 LTGIC SE SLP229

CYQF;2012-08-12 07:49;CYQF 120749Z 00000KT 15SM -SHRA OVC055 RMK SC8 RETS

CYQF;2012-08-12 08:00;CYQF 120800Z 11003KT 15SM -SHRA OVC055 14/11 A3020 RMK SC8 RETS CB ASOCTD SLP231

CYQF;2012-08-12 09:00;CYQF 120900Z 19002KT 15SM -SHRA OVC055 14/11 A3020 RMK SC8 RERA TCU ASOCTD SLP232

CYQF;2012-08-12 09:20;CYQF 120920Z 30004KT 15SM +TSRA OVC050CB RMK CB8 LTNG N

CYQF;2012-08-12 09:48;CYQF 120948Z 22003KT 15SM -SHRA OVC050CB RMK CB8 RERA RETS

CYQF;2012-08-12 10:00;CYQF 121000Z 26006KT 10SM +SHRA OVC050CB 13/12 A3022 RMK CB8 RETS SLP238

CYQF;2012-08-12 11:00;CYQF 121100Z 16004KT 15SM -SHRA OVC055CB 13/12 A3022 RMK CB8 RERA SLP237

CYQF;2012-08-12 11:40;CYQF 121140Z 02005KT 15SM OVC055 RMK SC8

CYQF;2012-08-12 12:00;CYQF 121200Z 00000KT 15SM OVC055 13/12 A3023 RMK SC8 CB ASOCTD /R12/ SLP240

CYQF;2012-08-12 13:00;CYQF 121300Z 18005KT 15SM VCSH OVC055 14/12 A3022 RMK SC8 SLP238

CYQF;2012-08-12 14:00;CYQF 121400Z 05003KT 15SM BKN055 14/12 A3023 RMK SC7 SLP240

CYQF;2012-08-12 15:00;CYQF 121500Z 00000KT 15SM BKN055 15/12 A3023 RMK SC7 SLP244

CYQF;2012-08-12 16:00;CYQF 121600Z 16003KT 15SM BKN055 16/12 A3023 RMK SC7 SLP244

CYQF;2012-08-12 17:00;CYQF 121700Z 17007KT 15SM BKN040 17/11 A3022 RMK SC5 CU ASOCTD SLP240

CYQF;2012-08-12 18:00;CYQF 121800Z 18010KT 15SM FEW025 BKN045 19/12 A3021 RMK CF1SC6 SLP236

CYQF;2012-08-12 19:00;CYQF 121900Z 15005KT 15SM FEW032 BKN050 20/11 A3020 RMK CU1SC6 SLP231

CYQF;2012-08-12 20:00;CYQF 122000Z 19007KT 15SM FEW040 BKN060 21/10 A3019 RMK CU1SC6 SLP229

CYQF;2012-08-12 21:00;CYQF 122100Z 16010KT 15SM SCT040 BKN250 21/11 A3017 RMK CU3CI2 SLP220

CYQF;2012-08-12 22:00;CYQF 122200Z 14010KT 15SM BKN039 BKN250 21/11 A3015 RMK CU5CI0 SLP214

CYQF;2012-08-12 23:00;CYQF 122300Z 15006KT 15SM SCT040 BKN250 21/11 A3014 RMK CU4CI1 SLP210

CYQF;2012-08-13 00:00;CYQF 130000Z 13008KT 15SM FEW035CB BKN250 21/12 A3013 RMK CB2CI4 CB DIST SW SLP205

CYQF;2012-08-13 01:00;CYQF 130100Z 12005KT 15SM FEW035CB BKN250 20/13 A3011 RMK CB1CI4 CB S SLP200

CYQF;2012-08-13 02:00;CYQF 130200Z 12006KT 15SM FEW030CB FEW100 BKN250 20/13 A3011 RMK CB1AC1CI3 CB TOPS SW SLP199

CYQF;2012-08-13 03:00;CYQF 130300Z 11005KT 15SM FEW030CB FEW100 BKN250 18/12 A3010 RMK CB1AC1CI2 AC TR CB SE-SW SLP198

CYQF;2012-08-13 04:00;CYQF 130400Z 06003KT 15SM FEW030CB FEW100 SCT250 16/12 A3010 RMK CB1AC1CI2 CB DIST S-SE SLP199

CYQF;2012-08-13 05:00;CYQF 130500Z CCA 06004KT 15SM FEW030CB FEW250 16/11 A3010 RMK CB1CI1 LTGCG S SLP198

CYQF;2012-08-13 06:00;CYQF 130600Z 20002KT 15SM FEW030CB FEW250 14/10 A3009 RMK CB1CI1 LTGCG S SLP194

CYQF;2012-08-13 07:00;CYQF 130700Z 08002KT 15SM SKC 13/10 A3009 RMK SLP195

CYQF;2012-08-13 08:00;CYQF 130800Z 18002KT 15SM FEW040 13/10 A3008 RMK SC1 SLP192

CYQF;2012-08-13 09:00;CYQF 130900Z 25005KT 15SM FEW040 11/09 A3008 RMK SC1 SLP190

CYQF;2012-08-13 10:00;CYQF 131000Z 20005KT 15SM SKC 12/09 A3006 RMK SLP185

CYQF;2012-08-13 11:00;CYQF 131100Z 21002KT 15SM FEW050 12/09 A3006 RMK SC1 SLP185

CYQF;2012-08-13 12:00;CYQF 131200Z 20004KT 15SM FEW050 FEW090 12/09 A3005 RMK SC1AC1 SLP180

CYQF;2012-08-13 13:00;CYQF 131300Z 20005KT 15SM FEW250 11/09 A3003 RMK CI1 SLP174

CYQF;2012-08-13 14:00;CYQF 131400Z 17006KT 15SM SCT260 13/10 A3002 RMK CI2 SLP172

CYQF;2012-08-13 15:00;CYQF 131500Z 18008KT 15SM FEW260 16/10 A3000 RMK CI1 SLP163

CYQF;2012-08-13 16:00;CYQF 131600Z 17011G16KT 15SM FEW260 19/11 A2998 RMK CI1 SLP157

CYQF;2012-08-13 17:00;CYQF 131700Z 19010G15KT 15SM BKN260 20/12 A2996 RMK CI3 SLP150

CYQF;2012-08-13 18:00;CYQF 131800Z 18015G20KT 15SM BKN270 22/12 A2995 RMK CI3 SLP141

CYQF;2012-08-13 19:00;CYQF 131900Z 18010G15KT 15SM FEW040 BKN270 24/14 A2992 RMK CU1CI4 SLP134

CYQF;2012-08-13 20:00;CYQF 132000Z 18011G16KT 15SM VCSH FEW040TCU FEW100 BKN270 25/14 A2991 RMK TCU2AC1CI3 SLP129

CYQF;2012-08-13 21:00;CYQF 132100Z 22008KT 15SM VCSH SCT040TCU BKN100 BKN270 24/15 A2990 RMK TCU3AC2CI2 SLP126

CYQF;2012-08-13 22:00;CYQF 132200Z 19010KT 15SM FEW040CB SCT100 OVC270 25/15 A2990 RMK CB2AC2CS4 SLP124

CYQF;2012-08-13 23:00;CYQF 132300Z 19006KT 15SM FEW040TCU SCT100 OVC270 26/12 A2989 RMK TCU1AC2CS5 SLP121

CYQF;2012-08-14 00:00;CYQF 140000Z 18002KT 15SM FEW040 FEW100 OVC250 26/12 A2988 RMK SC1AC1CS6 SLP116

CYQF;2012-08-14 01:00;CYQF 140100Z 03003KT 15SM FEW100 OVC270 25/12 A2987 RMK AC2CI6 SLP113

CYQF;2012-08-14 02:00;CYQF 140200Z 01004KT 15SM SCT100 BKN270 23/15 A2986 RMK AC3CI4 CC SLP112

CYQF;2012-08-14 03:00;CYQF 140300Z 01006KT 15SM BKN100 BKN270 21/16 A2986 RMK AC6CI2 SLP110

CYQF;2012-08-14 04:00;CYQF 140400Z 03005KT 15SM BKN100 20/15 A2986 RMK AC7 SLP110

CYQF;2012-08-14 05:00;CYQF 140500Z 03004KT 15SM BKN100 BKN270 19/15 A2985 RMK AC5CI2 SLP106

CYQF;2012-08-14 06:00;CYQF 140600Z 03004KT 15SM BKN100 BKN270 18/14 A2983 RMK AC5CI2 SLP097

CYQF;2012-08-14 07:00;CYQF 140700Z 01005KT 15SM BKN090 BKN270 18/14 A2982 RMK AC5CI2 SLP094

CYQF;2012-08-14 08:00;CYQF 140800Z 03007KT 15SM BKN090 BKN270 17/14 A2982 RMK AC5CI2 SLP094

CYQF;2012-08-14 09:00;CYQF 140900Z 05007KT 15SM BKN090 18/14 A2981 RMK AC6 SLP087

CYQF;2012-08-14 10:00;CYQF 141000Z 35005KT 15SM BKN090 BKN270 16/13 A2981 RMK AC5CI2 SLP087

CYQF;2012-08-14 11:00;CYQF 141100Z 33005KT 15SM BKN090 OVC270 16/13 A2981 RMK AC5CI2 SLP086

CYQF;2012-08-14 12:00;CYQF 141200Z 31006KT 15SM SCT055 OVC100 16/14 A2981 RMK SC3AC5 SLP087

CYQF;2012-08-14 13:00;CYQF 141300Z 33006KT 6SM BR BKN055 OVC100 16/14 A2983 RMK SC5AC3 SLP093

CYQF;2012-08-14 13:24;CYQF 141324Z 34006KT 6SM BR BKN013 OVC050 RMK SC7SC1 CU ASOCTD

CYQF;2012-08-14 14:00;CYQF 141400Z 35007KT 6SM BR BKN013 OVC050 16/14 A2985 RMK SC6SC2 CU ASOCTD SLP099

CYQF;2012-08-14 15:00;CYQF 141500Z 05008KT 8SM BKN016 BKN120 17/13 A2985 RMK CU6AC1 SLP105

CYQF;2012-08-14 16:00;CYQF 141600Z 05013KT 12SM BKN021 17/12 A2985 RMK CU6 SLP104

CYQF;2012-08-14 17:00;CYQF 141700Z 09012KT 15SM BKN026 BKN250 19/12 A2985 RMK CU6CI1 SLP104

CYQF;2012-08-14 17:52;CYQF 141752Z 06005KT 12SM -SHRA OVC022 RMK CU8 VIS W-NW 6

CYQF;2012-08-14 18:00;CYQF 141800Z 08005KT 12SM -SHRA OVC022 18/13 A2987 RMK CU8 SLP114

CYQF;2012-08-14 19:00;CYQF 141900Z 06010KT 15SM FEW021 BKN070 17/12 A2985 RMK CU2AC6 OCNL -SHRA SLP108

CYQF;2012-08-14 20:00;CYQF 142000Z 03008KT 10SM -TSRA BKN020CB OVC070 16/12 A2987 RMK CB6AC2 SLP114

CYQF;2012-08-14 20:18;CYQF 142018Z 36020G30KT 2SM +TSRA OVC020CB RMK CB8 OCNL LTNG

CYQF;2012-08-14 20:26;CYQF 142026Z 36025G32KT 2SM +TSRA BKN003 OVC020CB RMK SC5CB3 OCNL LTNG

CYQF;2012-08-14 20:32;CYQF 142032Z CCA 36015G20KT 3SM TSRA FEW003 OVC020CB RERA RMK SC2CB6 OCNL LTNG

CYQF;2012-08-14 21:00;CYQF 142100Z 34010G15KT 6SM TSRA BR BKN003 OVC020CB 11/10 A2997 RERA RMK SF6CB2 LTGIC SLP158

CYQF;2012-08-14 21:18;CYQF 142118Z 36010KT 3SM +TSRA BR FEW003 SCT020CB OVC100 RMK SF1CB3AS5

CYQF;2012-08-14 21:29;CYQF 142129Z 35010KT 6SM -SHRA BR FEW003 FEW020CB OVC100 RETSRA RMK SF2CB1AS6

CYQF;2012-08-14 22:00;CYQF 142200Z 34010G15KT 10SM -SHRA SCT004 OVC020 12/11 A3000 RMK SF3SC5 /R15/ RETS RERA SLP165

CYQF;2012-08-14 22:41;CYQF 142241Z 35012G17KT 12SM SCT011 BKN100 BKN250 RMK SC3AC2CI2

CYQF;2012-08-14 23:00;CYQF 142300Z 34010G15KT 15SM BKN011 BKN100 BKN250 12/11 A3001 RMK SC5AC2CI1 SLP168

CYQF;2012-08-15 00:00;CYQF 150000Z 32010KT 15SM -SHRA BKN011 OVC040 13/11 A3004 RMK SC6SC2 SLP181

CYQF;2012-08-15 01:00;CYQF 150100Z 35010G15KT 10SM -SHRA BKN011 OVC040 12/10 A3007 RMK SC6SC2 CIG RAG SLP191

CYQF;2012-08-15 01:29;CYQF 150129Z 34012G18KT 15SM BKN011 BKN040 RMK SC5SC2 CIG RAG

CYQF;2012-08-15 02:00;CYQF 150200Z 36010G15KT 15SM SCT011 BKN040 11/09 A3011 RMK SC3SC4 SLP202

CYQF;2012-08-15 03:00;CYQF 150300Z 35012G19KT 10SM -SHRA BKN013 OVC040 12/09 A3013 RMK SC5SC3 CIG RAG TCU ASOCTD SLP213

CYQF;2012-08-15 04:00;CYQF 150400Z 34010G15KT 8SM -SHRA FEW007 OVC015 11/09 A3017 RMK SF2SC6 SLP225

CYQF;2012-08-15 05:00;CYQF 150500Z 36006KT 15SM FEW007 SCT015 OVC075 10/09 A3019 RMK SF1SC2AC5 SLP230

CYQF;2012-08-15 06:00;CYQF 150600Z 32005KT 15SM FEW007 SCT015 OVC075 11/09 A3022 RMK SF2SC2AC4 SLP242

CYQF;2012-08-15 07:00;CYQF 150700Z 33005KT 15SM FEW020 OVC080 10/08 A3024 RMK SC2AC6 SLP249

CYQF;2012-08-15 08:00;CYQF 150800Z 35006KT 15SM FEW020 OVC080 10/08 A3024 RMK SC2AC6 SLP250

CYQF;2012-08-15 09:00;CYQF 150900Z CCA 33008KT 15SM FEW020 OVC080 10/08 A3025 RMK SC1AC7 SLP261

CYQF;2012-08-15 10:00;CYQF 151000Z 33004KT 15SM FEW020 OVC080 10/08 A3026 RMK SC1AC7 SLP264

CYQF;2012-08-15 11:00;CYQF 151100Z 32007KT 15SM FEW020 BKN080 10/08 A3026 RMK SC1AC6 SLP266

CYQF;2012-08-15 12:00;CYQF 151200Z 34007KT 15SM FEW020 SCT080 BKN250 09/07 A3027 RMK SC2AC2CI0 SLP269

CYQF;2012-08-15 13:00;CYQF 151300Z 31004KT 15SM FEW015 FEW080 08/06 A3027 RMK SC1AC1 SLP268

CYQF;2012-08-15 14:00;CYQF 151400Z 32004KT 15SM FEW015 FEW080 09/07 A3028 RMK SC1AC1 SLP270

CYQF;2012-08-15 15:00;CYQF 151500Z 31004KT 15SM FEW015 FEW090 11/07 A3029 RMK CF1AC1 SLP273

CYQF;2012-08-15 16:00;CYQF 151600Z 33008KT 15SM FEW010 FEW025 SCT100 12/05 A3029 RMK SC1CU2AC2 SC TR SLP274

CYQF;2012-08-15 17:00;CYQF 151700Z 35005KT 15SM BKN030 13/05 A3029 RMK CU6 SLP273

CYQF;2012-08-15 18:00;CYQF 151800Z 32007KT 15SM BKN032 14/05 A3028 RMK SC6 CU SLP269

CYQF;2012-08-15 19:00;CYQF 151900Z 35006KT 15SM BKN038 14/05 A3027 RMK CU6 SLP265

CYQF;2012-08-15 20:00;CYQF 152000Z 36004KT 15SM SCT040 14/05 A3026 RMK CU4 SLP264

CYQF;2012-08-15 21:00;CYQF 152100Z 35007KT 15SM SCT044 15/05 A3025 RMK CU3 SLP258

CYQF;2012-08-15 22:00;CYQF 152200Z 31002KT 15SM FEW039 16/06 A3024 RMK CF1 SLP253

CYQF;2012-08-15 23:00;CYQF 152300Z 20003KT 15SM SKC 17/06 A3021 RMK SLP246

CYQF;2012-08-16 00:00;CYQF 160000Z 16003KT 15SM SKC 17/06 A3020 RMK SLP238

CYQF;2012-08-16 01:00;CYQF 160100Z 15003KT 15SM SKC 17/06 A3018 RMK SLP234

CYQF;2012-08-16 02:00;CYQF 160200Z 18002KT 15SM SKC 16/07 A3018 RMK SLP232

CYQF;2012-08-16 03:00;CYQF 160300Z 15003KT 15SM FEW250 14/06 A3017 RMK CI1 SLP232

CYQF;2012-08-16 04:00;CYQF 160400Z 17002KT 15SM FEW250 11/07 A3017 RMK CI1 SLP232

CYQF;2012-08-16 05:00;CYQF 160500Z 20005KT 15SM SKC 09/05 A3016 RMK SLP229

CYQF;2012-08-16 06:00;CYQF 160600Z 18004KT 15SM SKC 08/06 A3017 RMK SLP233

CYQF;2012-08-16 07:00;CYQF 160700Z 20004KT 15SM SKC 07/04 A3016 RMK SLP230

CYQF;2012-08-16 08:00;CYQF 160800Z 22006KT 15SM SKC 06/04 A3015 RMK SLP226

CYQF;2012-08-16 09:00;CYQF 160900Z 19003KT 15SM SKC 07/05 A3013 RMK SLP221

CYQF;2012-08-16 10:00;CYQF 161000Z 22003KT 15SM SKC 06/04 A3012 RMK SLP217

CYQF;2012-08-16 11:00;CYQF 161100Z 19005KT 15SM SKC 06/03 A3011 RMK SLP213

CYQF;2012-08-16 12:00;CYQF 161200Z 00000KT 15SM SKC 05/04 A3011 RMK SLP213

CYQF;2012-08-16 13:00;CYQF 161300Z 00000KT 15SM MIFG FEW250 05/04 A3011 RMK CI1 SLP213

CYQF;2012-08-16 14:00;CYQF 161400Z 00000KT 15SM FEW250 06/05 A3011 RMK CI1 SLP213

CYQF;2012-08-16 15:00;CYQF 161500Z 21005KT 15SM FEW250 09/08 A3011 RMK CI1 SLP211

CYQF;2012-08-16 16:00;CYQF 161600Z 24004KT 15SM FEW260 13/11 A3010 RMK CI1 SLP208

CYQF;2012-08-16 17:00;CYQF 161700Z 00000KT 15SM FEW260 16/11 A3010 RMK CI2 SLP207

CYQF;2012-08-16 18:00;CYQF 161800Z 00000KT 15SM FEW260 18/11 A3009 RMK CI2 SLP202

CYQF;2012-08-16 19:00;CYQF 161900Z 00000KT 15SM FEW040 FEW260 21/10 A3008 RMK CF1CI2 SLP198

CYQF;2012-08-16 20:00;CYQF 162000Z 00000KT 15SM FEW060 FEW260 22/06 A3008 RMK CF1CI2 SLP198

CYQF;2012-08-16 21:00;CYQF 162100Z 13003KT 15SM FEW060 FEW270 23/09 A3008 RMK CF1CI2 SLP194

CYQF;2012-08-16 22:00;CYQF 162200Z 36003KT 15SM FEW060 SCT270 23/09 A3006 RMK CU1CI0 SLP190

CYQF;2012-08-16 23:00;CYQF 162300Z 00000KT 15SM FEW060 FEW270 23/07 A3006 RMK CU1CI0 SLP188

CYQF;2012-08-17 00:00;CYQF 170000Z 00000KT 15SM FEW070 FEW270 23/06 A3005 RMK CU1CI0 SLP185

CYQF;2012-08-17 01:00;CYQF 170100Z 00000KT 15SM FEW100 FEW270 23/05 A3004 RMK AC1CI1 SLP182

CYQF;2012-08-17 02:00;CYQF 170200Z 10002KT 15SM FEW100 21/09 A3004 RMK AC1 SLP182

CYQF;2012-08-17 03:00;CYQF 170300Z 00000KT 15SM FEW120 19/10 A3005 RMK AC1 SLP186

CYQF;2012-08-17 04:00;CYQF 170400Z 00000KT 15SM SKC 15/10 A3006 RMK SLP189

CYQF;2012-08-17 05:00;CYQF 170500Z 00000KT 15SM SKC 13/09 A3007 RMK SLP192

CYQF;2012-08-17 06:00;CYQF 170600Z 00000KT 15SM SKC 12/09 A3007 RMK SLP190

CYQF;2012-08-17 07:00;CYQF 170700Z 22003KT 15SM SKC 11/08 A3007 RMK SLP191

CYQF;2012-08-17 08:00;CYQF 170800Z 24007KT 15SM SKC 10/07 A3007 RMK SLP190

CYQF;2012-08-17 09:00;CYQF 170900Z 00000KT 15SM SKC 10/07 A3008 RMK SLP192

CYQF;2012-08-17 10:00;CYQF 171000Z 00000KT 15SM SKC 09/07 A3008 RMK SLP192

CYQF;2012-08-17 11:00;CYQF 171100Z 00000KT 15SM SKC 08/06 A3009 RMK SLP193

CYQF;2012-08-17 12:00;CYQF 171200Z 00000KT 15SM FEW250 08/06 A3009 RMK CI1 SLP196

CYQF;2012-08-17 13:00;CYQF 171300Z 23003KT 12SM SKC 07/05 A3009 RMK SLP197

CYQF;2012-08-17 14:00;CYQF 171400Z 18003KT 15SM SKC 09/07 A3010 RMK SLP201

CYQF;2012-08-17 15:00;CYQF 171500Z 22005KT 15SM FEW250 11/09 A3011 RMK CI1 SLP204

CYQF;2012-08-17 16:00;CYQF 171600Z 27002KT 15SM FEW260 15/11 A3011 RMK CI1 SLP205

CYQF;2012-08-17 17:00;CYQF 171700Z 20002KT 15SM FEW260 19/13 A3012 RMK CI1 SLP206

CYQF;2012-08-17 18:00;CYQF 171800Z 00000KT 15SM FEW260 22/12 A3012 RMK CI1 SLP202

CYQF;2012-08-17 19:00;CYQF 171900Z 03005KT 15SM FEW056 FEW260 23/09 A3011 RMK CU1CI2 SLP201

CYQF;2012-08-17 20:00;CYQF 172000Z 36007KT 15SM FEW060 FEW270 24/09 A3012 RMK CU1CI2 SLP202

CYQF;2012-08-17 21:00;CYQF 172100Z 35005KT 15SM FEW060 FEW270 24/09 A3012 RMK CU1CI2 SLP202

CYQF;2012-08-17 22:00;CYQF 172200Z 03007KT 15SM FEW060 FEW270 25/09 A3012 RMK CU1CI1 SLP202

CYQF;2012-08-17 23:00;CYQF 172300Z 36004KT 15SM FEW060 FEW270 25/09 A3012 RMK CU1CI1 SLP202

CYQF;2012-08-18 00:00;CYQF 180000Z 03004KT 15SM FEW270 25/09 A3012 RMK CI1 SLP204

CYQF;2012-08-18 01:00;CYQF 180100Z 02004KT 15SM FEW270 24/09 A3011 RMK CI1 SLP202

CYQF;2012-08-18 02:00;CYQF 180200Z 34003KT 15SM FEW270 22/10 A3012 RMK CI1 SLP203

CYQF;2012-08-18 03:00;CYQF 180300Z 00000KT 15SM FEW270 20/11 A3013 RMK CI1 SLP208

CYQF;2012-08-18 04:00;CYQF 180400Z 00000KT 15SM SKC 17/11 A3014 RMK SLP212

CYQF;2012-08-18 05:00;CYQF 180500Z 00000KT 15SM SKC 15/11 A3014 RMK SLP213

CYQF;2012-08-18 06:00;CYQF 180600Z 00000KT 15SM SKC 13/10 A3014 RMK SLP210

CYQF;2012-08-18 07:00;CYQF 180700Z 18003KT 15SM SKC 12/09 A3015 RMK SLP211

CYQF;2012-08-18 08:00;CYQF 180800Z 22003KT 15SM SKC 11/08 A3015 RMK SLP213

CYQF;2012-08-18 09:00;CYQF 180900Z 22003KT 15SM SKC 11/09 A3015 RMK SLP212

CYQF;2012-08-18 10:00;CYQF 181000Z 00000KT 15SM SKC 10/09 A3015 RMK SLP211

CYQF;2012-08-18 11:00;CYQF 181100Z 18002KT 15SM SKC 10/08 A3015 RMK SLP211

CYQF;2012-08-18 12:00;CYQF 181200Z 17003KT 15SM SKC 09/07 A3014 RMK SLP209

CYQF;2012-08-18 13:00;CYQF 181300Z 00000KT 15SM SKC 09/07 A3014 RMK BCFG SLP209

CYQF;2012-08-18 14:00;CYQF 181400Z 00000KT 15SM SKC 11/08 A3014 RMK SLP210

CYQF;2012-08-18 15:00;CYQF 181500Z 19002KT 15SM SKC 16/11 A3014 RMK SLP208

CYQF;2012-08-18 16:00;CYQF 181600Z 16007KT 15SM FEW250 20/10 A3014 RMK CI1 SLP206

CYQF;2012-08-18 17:00;CYQF 181700Z 16010KT 15SM FEW250 22/10 A3013 RMK CI1 SLP205

CYQF;2012-08-18 18:00;CYQF 181800Z 15010G15KT 15SM FEW250 23/10 A3013 RMK CI1 SLP204

CYQF;2012-08-18 19:00;CYQF 181900Z 16010G15KT 15SM FEW250 24/10 A3011 RMK CI1 SLP200

CYQF;2012-08-18 20:00;CYQF 182000Z 17013KT 15SM FEW250 25/10 A3010 RMK CI1 SLP196

CYQF;2012-08-18 21:00;CYQF 182100Z 15010KT 15SM FEW250 26/10 A3008 RMK CI1 SLP187

CYQF;2012-08-18 22:00;CYQF 182200Z 18007KT 15SM FEW250 27/10 A3007 RMK CI1 CI TR SLP182

CYQF;2012-08-18 23:00;CYQF 182300Z 16007KT 15SM FEW250 27/10 A3005 RMK CI1 SLP178

CYQF;2012-08-19 00:00;CYQF 190000Z 16010KT 15SM FEW250 27/10 A3004 RMK CI1 SLP173

CYQF;2012-08-19 01:00;CYQF 190100Z 14007KT 15SM FEW250 26/13 A3003 RMK CI1 SLP171

CYQF;2012-08-19 02:00;CYQF 190200Z 13005KT 15SM FEW250 24/13 A3003 RMK CI1 SLP170

CYQF;2012-08-19 03:00;CYQF 190300Z 00000KT 15SM FEW250 20/12 A3003 RMK CI1 SLP169

CYQF;2012-08-19 04:00;CYQF 190400Z 15005KT 15SM SKC 18/11 A3003 RMK SLP169

CYQF;2012-08-19 05:00;CYQF 190500Z 16005KT 15SM SKC 17/10 A3003 RMK SLP169

CYQF;2012-08-19 06:00;CYQF 190600Z 18004KT 15SM SKC 16/09 A3003 RMK SLP166

CYQF;2012-08-19 07:00;CYQF 190700Z 19003KT 15SM SKC 15/09 A3003 RMK SLP167

CYQF;2012-08-19 08:00;CYQF 190800Z 19003KT 15SM SKC 12/08 A3002 RMK SLP165

CYQF;2012-08-19 09:00;CYQF 190900Z 19002KT 15SM SKC 12/08 A3002 RMK SLP163

CYQF;2012-08-19 10:00;CYQF 191000Z 16004KT 15SM SKC 12/08 A3001 RMK SLP162

CYQF;2012-08-19 11:00;CYQF 191100Z 15004KT 15SM SKC 12/08 A3001 RMK SLP160

CYQF;2012-08-19 12:00;CYQF 191200Z 00000KT 15SM SKC 11/07 A2999 RMK SLP155

CYQF;2012-08-19 13:00;CYQF 191300Z 10002KT 15SM SKC 10/06 A2998 RMK SLP152

CYQF;2012-08-19 14:00;CYQF 191400Z 00000KT 15SM FEW250 13/07 A2999 RMK CI1 SLP154

CYQF;2012-08-19 15:00;CYQF 191500Z 00000KT 15SM FEW250 15/09 A2999 RMK CI1 SLP158

CYQF;2012-08-19 16:00;CYQF 191600Z 00000KT 15SM BKN250 18/10 A2999 RMK CI2 SLP157

CYQF;2012-08-19 17:00;CYQF 191700Z 00000KT 15SM BKN250 20/11 A3000 RMK CI5 SLP160

CYQF;2012-08-19 18:00;CYQF 191800Z 11002KT 15SM BKN260 21/11 A3000 RMK CI5 SLP158

CYQF;2012-08-19 19:00;CYQF 191900Z 11006KT 15SM BKN260 23/12 A2999 RMK CI6 SLP155

CYQF;2012-08-19 20:00;CYQF 192000Z 09003KT 15SM BKN260 24/11 A2998 RMK CI6 SLP152

CYQF;2012-08-19 21:00;CYQF 192100Z 12007KT 15SM BKN260 25/11 A2997 RMK CI2 SLP150

CYQF;2012-08-19 22:00;CYQF 192200Z 12002KT 15SM BKN260 26/11 A2996 RMK CI2 SLP147

CYQF;2012-08-19 23:00;CYQF 192300Z 06002KT 15SM FEW180 BKN270 26/11 A2995 RMK AC1CI3 SLP143

CYQF;2012-08-20 00:00;CYQF 200000Z 06004KT 15SM FEW180 BKN270 26/12 A2994 RMK AC1CI2 SLP138

CYQF;2012-08-20 01:00;CYQF 200100Z 00000KT 15SM SCT270 26/12 A2994 RMK CI3 SLP138

CYQF;2012-08-20 02:00;CYQF 200200Z 28005KT 15SM FEW100 BKN270 21/14 A2995 RMK ACC1CC6 SLP140

CYQF;2012-08-20 03:00;CYQF 200300Z 27005KT 15SM FEW100 BKN270 19/13 A2998 RMK AC2CI6 SLP153

CYQF;2012-08-20 04:00;CYQF 200400Z 00000KT 15SM BKN270 19/13 A2998 RMK CI7 SLP154

CYQF;2012-08-20 05:00;CYQF 200500Z 09003KT 15SM BKN270 17/13 A2996 RMK CI7 SLP149

CYQF;2012-08-20 06:00;CYQF 200600Z 26005KT 15SM FEW270 14/11 A2997 RMK CI0 SLP149

CYQF;2012-08-20 07:00;CYQF 200700Z 20004KT 15SM SKC 13/10 A2996 RMK SLP147

CYQF;2012-08-20 08:00;CYQF 200800Z 22002KT 15SM SKC 13/11 A2996 RMK SLP146

CYQF;2012-08-20 09:00;CYQF 200900Z 25003KT 15SM SKC 11/09 A2996 RMK SLP146

CYQF;2012-08-20 10:00;CYQF 201000Z 00000KT 15SM SKC 12/11 A2996 RMK SLP146

CYQF;2012-08-20 11:00;CYQF 201100Z 27004KT 15SM FEW080 11/09 A2997 RMK AC1 SLP150

CYQF;2012-08-20 12:00;CYQF 201200Z 23006KT 15SM FEW090 FEW250 09/08 A2998 RMK AC1CI1 SLP152

CYQF;2012-08-20 13:00;CYQF 201300Z 00000KT 15SM FEW090 FEW250 10/09 A2998 RMK AC1CI1 SLP152

CYQF;2012-08-20 14:00;CYQF 201400Z 19002KT 15SM FEW100 FEW250 12/10 A2998 RMK AC1CI1 SLP152

CYQF;2012-08-20 15:00;CYQF 201500Z 00000KT 15SM FEW250 15/13 A2998 RMK CI1 SLP154

CYQF;2012-08-20 16:00;CYQF 201600Z 00000KT 15SM SCT250 19/15 A2998 RMK CI2 SLP153

CYQF;2012-08-20 17:00;CYQF 201700Z 12002KT 15SM SCT250 22/15 A2997 RMK CI1 SLP151

CYQF;2012-08-20 18:00;CYQF 201800Z 00000KT 15SM SCT250 23/15 A2996 RMK CI1 SLP146

CYQF;2012-08-20 19:00;CYQF 201900Z 17002KT 15SM FEW050 SCT250 26/13 A2995 RMK CU1CI1 SLP142

CYQF;2012-08-20 20:00;CYQF 202000Z 00000KT 15SM FEW056CB FEW250 27/13 A2994 RMK CB1CI0 CB DIST S-W SLP139

CYQF;2012-08-20 21:00;CYQF 202100Z 00000KT 15SM FEW060CB FEW250 28/13 A2993 RMK CB1CI2 CB DIST W SLP132

CYQF;2012-08-20 22:00;CYQF 202200Z 00000KT 15SM FEW066CB BKN250 28/11 A2991 RMK CB1CI0 CB DIST S-W SLP127

CYQF;2012-08-20 23:00;CYQF 202300Z 22004KT 15SM FEW070CB BKN250 28/11 A2992 RMK CB1CI4 SLP128

CYQF;2012-08-21 00:00;CYQF 210000Z 23004KT 15SM BKN070 BKN250 26/14 A2991 RMK AC5CI2 CB SLP130

CYQF;2012-08-21 01:00;CYQF 210100Z 28004KT 15SM FEW040CB BKN070 BKN250 24/16 A2991 RMK CB2AC3CI2 SH DIST SW SLP130

CYQF;2012-08-21 02:00;CYQF 210200Z 00000KT 15SM FEW050TCU BKN080 BKN260 25/15 A2991 RMK TCU1ACC4CI1 VIRGA SLP130

CYQF;2012-08-21 03:00;CYQF 210300Z 00000KT 15SM FEW050CB BKN090 BKN260 22/15 A2992 RMK CB2AC3CI1 SLP129

CYQF;2012-08-21 04:00;CYQF 210400Z 00000KT 15SM SCT090 BKN260 21/14 A2992 RMK AC3CI1 SLP131

CYQF;2012-08-21 05:00;CYQF 210500Z 32003KT 12SM FEW040CB SCT090 BKN260 16/13 A2993 RMK CB2AC2CI1 LTNG SW SLP134

CYQF;2012-08-21 06:00;CYQF 210600Z 27012KT 15SM SCT090 BKN260 17/11 A2996 RMK AC3CI1 SLP141

CYQF;2012-08-21 07:00;CYQF 210700Z 29006KT 15SM FEW090 BKN260 17/10 A2995 RMK AC2CI2 SLP138

CYQF;2012-08-21 08:00;CYQF 210800Z 34004KT 15SM SCT090 BKN250 16/11 A2992 RMK AC3CI2 SLP130

CYQF;2012-08-21 09:00;CYQF 210900Z 36004KT 15SM FEW090 BKN260 15/11 A2992 RMK AC2CI2 SLP123

CYQF;2012-08-21 10:00;CYQF 211000Z 21004KT 15SM FEW090 FEW260 13/10 A2992 RMK AC1CI1 SLP124

CYQF;2012-08-21 11:00;CYQF 211100Z 00000KT 15SM FEW090 SCT260 13/10 A2992 RMK AC1CI1 SLP124

CYQF;2012-08-21 12:00;CYQF 211200Z 26004KT 15SM SCT090 BKN260 13/10 A2992 RMK AC3CI2 SLP128

CYQF;2012-08-21 13:00;CYQF 211300Z 22005KT 15SM SCT090 BKN260 12/10 A2992 RMK AC3CI2 SLP128

CYQF;2012-08-21 14:00;CYQF 211400Z 29002KT 15SM FEW090 FEW260 14/11 A2992 RMK ACC1CI2 CC SLP128

CYQF;2012-08-21 15:00;CYQF 211500Z 00000KT 15SM FEW100 FEW250 17/12 A2990 RMK AC1CI1 SLP122

CYQF;2012-08-21 16:00;CYQF 211600Z 16003KT 12SM FEW250 20/14 A2988 RMK CI1 HZ SLP117

CYQF;2012-08-21 17:00;CYQF 211700Z 18004KT 15SM BKN250 23/14 A2989 RMK CI4 SLP118

CYQF;2012-08-21 18:00;CYQF 211800Z 19004KT 15SM OVC250 25/14 A2988 RMK CI2 SLP113

CYQF;2012-08-21 19:00;CYQF 211900Z 00000KT 12SM OVC250 26/13 A2986 RMK CI6 HZ SLP107

CYQF;2012-08-21 20:00;CYQF 212000Z 18002KT 12SM OVC250 27/13 A2985 RMK CI7 SLP104

CYQF;2012-08-21 21:00;CYQF 212100Z 20003KT 12SM OVC250 27/13 A2983 RMK CI6 SLP095

CYQF;2012-08-21 22:00;CYQF 212200Z 19004KT 12SM FEW056TCU OVC250 27/13 A2982 RMK TCU1CI6 SLP090

CYQF;2012-08-21 23:00;CYQF 212300Z 19003KT 12SM FEW050 OVC250 27/14 A2981 RMK CU1CI6 SLP087

CYQF;2012-08-22 00:00;CYQF 220000Z 00000KT 10SM FEW120 OVC250 25/16 A2979 RMK AS2CI5 SLP084

CYQF;2012-08-22 01:00;CYQF 220100Z 08002KT 10SM SCT120 BKN250 25/15 A2977 RMK AS4CI3 SLP080

CYQF;2012-08-22 02:00;CYQF 220200Z 00000KT 10SM SCT120 OVC250 23/16 A2976 RMK AC3CI4 SLP077

CYQF;2012-08-22 03:00;CYQF 220300Z 00000KT 10SM SCT120 OVC250 21/16 A2976 RMK AC3CI3 SLP075

CYQF;2012-08-22 04:00;CYQF 220400Z 00000KT 10SM BKN120 OVC250 19/16 A2977 RMK AC5CI3 SLP078

CYQF;2012-08-22 05:00;CYQF 220500Z 35005KT 15SM BKN120 OVC250 18/12 A2978 RMK AC6CI2 SLP082

CYQF;2012-08-22 06:00;CYQF 220600Z 30008KT 15SM FEW025CB BKN120 17/10 A2980 RMK CB2AC4 LTGCG SLP084

CYQF;2012-08-22 07:00;CYQF 220700Z 30012KT 15SM FEW025CB BKN120 16/09 A2979 RMK CB2AC4 LTGCG SE+SW+NW SLP081

CYQF;2012-08-22 07:44;CYQF 220744Z 32010KT 15SM -SHRA SCT030CB OVC100 RMK CB3AC5 LTGCG SE-S

CYQF;2012-08-22 08:00;CYQF 220800Z 30008KT 15SM +SHRA BKN030CB OVC100 14/12 A2979 RMK CB5AC3 LTGCG N+SE SLP083

CYQF;2012-08-22 08:25;CYQF 220825Z 32006KT 15SM -TSRA BKN030CB OVC100 RMK CB5AC3 LTGCG S RERA

CYQF;2012-08-22 09:00;CYQF 220900Z 01008KT 15SM -SHRA SCT030CB OVC100 14/11 A2976 RMK CB4AC4 RERA LGTCGCC S SLP071

CYQF;2012-08-22 09:43;CYQF 220943Z 25012KT 15SM -SHRA SCT030 OVC100 RMK SC3AC5 RETS

CYQF;2012-08-22 10:00;CYQF 221000Z CCA 32005KT 15SM -SHRA SCT030 OVC100 14/12 A2981 RMK SC3AC5 RETS SLP086

CYQF;2012-08-22 10:50;CYQF 221050Z 31006KT 15SM SCT030 OVC100 RMK SC3AC5

CYQF;2012-08-22 11:00;CYQF 221100Z 33003KT 15SM SCT030 OVC100 14/11 A2981 RMK SC3AC5 SLP086

CYQF;2012-08-22 12:00;CYQF 221200Z 25006KT 15SM FEW030 BKN100 OVC250 13/11 A2982 RMK SC2AC2CI2 SLP094

CYQF;2012-08-22 13:00;CYQF 221300Z 26007KT 15SM FEW050 SCT100 BKN250 13/11 A2983 RMK SC2AC2CI2 SLP096

CYQF;2012-08-22 14:00;CYQF 221400Z 29005KT 15SM BKN080 BKN250 14/11 A2985 RMK AC5CI2 SLP103

CYQF;2012-08-22 15:00;CYQF 221500Z 31008KT 15SM SCT080 BKN250 15/11 A2985 RMK AC3CI4 SLP106

CYQF;2012-08-22 16:00;CYQF 221600Z 31005KT 15SM SCT100 BKN250 16/12 A2985 RMK AC2CI2 SLP108

CYQF;2012-08-22 17:00;CYQF 221700Z 31008KT 15SM FEW028 FEW100 SCT250 18/12 A2985 RMK CF1AC1CI2 SLP109

CYQF;2012-08-22 18:00;CYQF 221800Z 34009KT 15SM FEW030 FEW100 FEW250 20/12 A2985 RMK CU1AC1CI1 TR CU+AC SLP107

CYQF;2012-08-22 19:00;CYQF 221900Z 33012KT 15SM FEW034 FEW250 21/12 A2985 RMK CU1CI1 CU TR TCU DIST W SLP108

CYQF;2012-08-22 20:00;CYQF 222000Z 34007KT 15SM FEW042 FEW250 22/11 A2985 RMK CU1CI1 CI TR CB DIST W AND NW SLP108

CYQF;2012-08-22 21:00;CYQF 222100Z 34007KT 15SM FEW049 FEW100 22/10 A2985 RMK CU2AC1 SLP108

CYQF;2012-08-22 22:00;CYQF 222200Z 00000KT 15SM FEW050 FEW100 23/10 A2985 RMK CU2AC1 SLP106

CYQF;2012-08-22 23:00;CYQF 222300Z 33006KT 15SM FEW050 SCT100 23/10 A2985 RMK CU2AC2 SLP107

CYQF;2012-08-23 00:00;CYQF 230000Z 31004KT 15SM FEW045 BKN100 22/11 A2985 RMK CU2AC3 SLP109

CYQF;2012-08-23 01:00;CYQF 230100Z 00000KT 15SM FEW035CB BKN100 21/13 A2985 RMK CB2AC3 SHRA W SLP110

CYQF;2012-08-23 01:35;CYQF 230135Z 05005KT 15SM -SHRA FEW035CB BKN100 RMK CB2AC3

CYQF;2012-08-23 02:00;CYQF 230200Z 00000KT 15SM FEW035TCU BKN100 21/13 A2985 RMK TCU2AC3 SLP108

CYQF;2012-08-23 03:00;CYQF 230300Z 00000KT 15SM BKN030 BKN250 18/14 A2986 RMK CU5CI0 SLP115

CYQF;2012-08-23 04:00;CYQF 230400Z 22004KT 15SM FEW030 BKN100 15/13 A2987 RMK SC2AC3 SLP117

CYQF;2012-08-23 05:00;CYQF 230500Z 00000KT 15SM -SHRA FEW030 OVC075 16/13 A2987 RMK SC2AC5 SLP118

CYQF;2012-08-23 05:05;CYQF 230505Z 33005KT 15SM -TSRA FEW030CB OVC075 RMK CB2AC5

CYQF;2012-08-23 05:31;CYQF 230531Z 00000KT 15SM FEW030CB BKN075 RETS RMK CB1AC5

CYQF;2012-08-23 06:00;CYQF 230600Z 00000KT 15SM FEW030 BKN075 16/13 A2988 RETS RMK SC1AC6 SLP120

CYQF;2012-08-23 07:00;CYQF 230700Z 20004KT 15SM FEW030 BKN075 15/13 A2987 RMK SC1AC6 SLP115

CYQF;2012-08-23 08:00;CYQF 230800Z 00000KT 15SM SCT080 14/12 A2986 RMK AC4 SLP114

CYQF;2012-08-23 09:00;CYQF 230900Z 02004KT 15SM FEW080 14/12 A2986 RMK AC2 SLP111

CYQF;2012-08-23 10:00;CYQF 231000Z 00000KT 15SM FEW080 12/11 A2985 RMK AC2 SLP109

CYQF;2012-08-23 11:00;CYQF 231100Z 19004KT 15SM FEW080 11/09 A2985 RMK AC2 SLP106

CYQF;2012-08-23 12:00;CYQF 231200Z 00000KT 15SM FEW080 SCT250 10/09 A2984 RMK AC2CI0 MIFG SLP106

CYQF;2012-08-23 13:00;CYQF 231300Z 00000KT 15SM FEW080 SCT250 10/08 A2984 RMK AC2CI0 MIFG SLP106

CYQF;2012-08-23 14:00;CYQF 231400Z 20003KT 15SM FEW080 FEW250 11/09 A2983 RMK AC1CI1 SLP105

CYQF;2012-08-23 15:00;CYQF 231500Z 00000KT 15SM BKN100 BKN250 13/11 A2982 RMK AC6CI1 SLP104

CYQF;2012-08-23 16:00;CYQF 231600Z 19002KT 15SM BKN100 BKN250 16/13 A2981 RMK AC6CI1 SLP099

CYQF;2012-08-23 17:00;CYQF 231700Z 00000KT 15SM BKN100 BKN250 18/14 A2978 RMK AC6CI1 SLP092

CYQF;2012-08-23 18:00;CYQF 231800Z 15003KT 15SM FEW040 BKN100 BKN250 21/12 A2976 RMK CU2AC3CI0 SLP077

CYQF;2012-08-23 19:00;CYQF 231900Z 14007KT 15SM FEW040TCU BKN100 BKN250 22/12 A2975 RMK TCU2ACC3CI1 CB TOPS DIST W SLP073

CYQF;2012-08-23 20:00;CYQF 232000Z 00000KT 15SM SCT040CB BKN100 BKN250 22/12 A2974 RMK CB4AC2CI0 SLP068

CYQF;2012-08-23 21:00;CYQF 232100Z 00000KT 15SM BKN045CB BKN250 23/11 A2972 RMK CB5CI0 SLP062

CYQF;2012-08-23 22:00;CYQF 232200Z 30007KT 15SM BKN042CB BKN250 23/12 A2971 RMK CB6CI1 SLP059

CYQF;2012-08-23 22:38;CYQF 232238Z 33025G35KT 15SM BKN040CB BKN250 RMK CB6CI1

CYQF;2012-08-23 23:00;CYQF 232300Z 33023G30KT 15SM FEW040CB FEW250 17/10 A2974 RMK CB2CI1 SLP066

CYQF;2012-08-24 00:00;CYQF 240000Z 02010G20KT 15SM FEW040CB FEW250 16/10 A2974 RMK CB2CI1 SLP081

CYQF;2012-08-24 01:00;CYQF 240100Z 01007KT 15SM SCT015 BKN080 14/10 A2976 RMK SC2AC3 SLP088

CYQF;2012-08-24 02:00;CYQF 240200Z 34008KT 15SM BKN015 BKN080 14/10 A2979 RMK SC6AC1 SLP095

CYQF;2012-08-24 03:00;CYQF 240300Z 33005KT 15SM BKN015 BKN080 13/10 A2978 RMK SC6AC1 SLP094

CYQF;2012-08-24 03:23;CYQF 240323Z 02008KT 15SM TS BKN015 BKN080 RMK SC6AC1 CB ASOCTD

CYQF;2012-08-24 03:48;CYQF 240348Z 01006KT 15SM BKN015 BKN080 RMK SC6AC1 CB ASOCTD

CYQF;2012-08-24 04:00;CYQF 240400Z 01005KT 15SM SCT015 OVC080 13/10 A2976 RMK SC3AC5 SLP089

CYQF;2012-08-24 04:20;CYQF 240420Z 30008KT 10SM -SHRA BKN015 OVC080 RMK SC6AC2

CYQF;2012-08-24 05:00;CYQF 240500Z 26008KT 10SM SHRA BKN015 OVC080 12/10 A2984 RMK SC6AC2 SLP111

CYQF;2012-08-24 06:00;CYQF 240600Z 29008KT 10SM -SHRA OVC015 12/08 A2985 RERA RMK SC8 TCU EMBD SLP109

CYQF;2012-08-24 07:00;CYQF 240700Z 02006KT 15SM SCT015 SCT080 11/08 A2980 RMK SC3AC1 SLP094

CYQF;2012-08-24 08:00;CYQF 240800Z 30004KT 15SM FEW020 FEW080 10/08 A2981 RMK SC2AC1 SLP099

CYQF;2012-08-24 09:00;CYQF 240900Z 29008KT 15SM SCT090 10/08 A2982 RMK AC4 SLP099

CYQF;2012-08-24 10:00;CYQF 241000Z 31004KT 15SM BKN090 11/08 A2981 RMK AC5 SLP096

CYQF;2012-08-24 10:52;CYQF 241052Z 32004KT 15SM -SHRA BKN080 RMK AC6

CYQF;2012-08-24 11:00;CYQF 241100Z 30006KT 15SM -SHRA BKN080 10/08 A2981 RMK AC6 SLP096

CYQF;2012-08-24 12:00;CYQF 241200Z 30008KT 10SM -SHRA SCT040 OVC080 10/08 A2981 RMK SC3AC5 SLP104

CYQF;2012-08-24 13:00;CYQF 241300Z 29008KT 12SM -SHRA BKN040 OVC080 09/07 A2982 RMK SC5AC3 SLP108

CYQF;2012-08-24 14:00;CYQF 241400Z 30012KT 12SM -SHRA BKN030 OVC080 09/07 A2983 RMK SC6AC2 SLP111

CYQF;2012-08-24 15:00;CYQF 241500Z 30010KT 10SM -SHRA OVC040 09/06 A2984 RMK SC8 SLP119

CYQF;2012-08-24 16:00;CYQF 241600Z 29010G15KT 15SM -SHRA BKN040 OVC080 09/07 A2984 RMK SC7AC1 SLP120

CYQF;2012-08-24 17:00;CYQF 241700Z 28008KT 10SM -SHRA BKN033 OVC080 09/07 A2985 RMK SC6AC2 SLP124

CYQF;2012-08-24 18:00;CYQF 241800Z 29005KT 15SM -SHRA FEW012 BKN035 BKN250 10/08 A2987 RMK CU1SC6CI1 SLP130

CYQF;2012-08-24 18:46;CYQF 241846Z 29008KT 15SM FEW016 SCT035 BKN080 BKN250 RMK CU1SC2AC3CI1

CYQF;2012-08-24 19:00;CYQF 241900Z 29010KT 15SM FEW018 BKN080 BKN250 12/07 A2987 RMK CU1AC6CI1 SLP130

CYQF;2012-08-24 20:00;CYQF 242000Z 31010G15KT 15SM FEW035 BKN100 BKN250 14/05 A2987 RMK CU2AC3CI2 SLP131

CYQF;2012-08-24 21:00;CYQF 242100Z 32010G15KT 15SM FEW044 SCT100 BKN250 15/04 A2987 RMK CU2AC2CI2 SLP128

CYQF;2012-08-24 22:00;CYQF 242200Z 33010G15KT 15SM FEW045 BKN250 16/04 A2987 RMK CU2CI2 SLP128

CYQF;2012-08-24 23:00;CYQF 242300Z 32010G16KT 15SM FEW056 SCT250 17/03 A2987 RMK CU1CI2 SLP126

CYQF;2012-08-25 00:00;CYQF 250000Z 32010G15KT 15SM FEW056 FEW250 17/04 A2987 RMK CU1CI1 SLP125

CYQF;2012-08-25 01:00;CYQF 250100Z 32006KT 15SM FEW054 FEW250 17/03 A2987 RMK CU1CI1 CU TR SLP126

CYQF;2012-08-25 02:00;CYQF 250200Z 31006KT 15SM FEW050 FEW250 15/04 A2988 RMK SC1CI1 SLP127

CYQF;2012-08-25 03:00;CYQF 250300Z 28005KT 15SM FEW050 FEW250 10/04 A2988 RMK SC1CI1 SLP136

CYQF;2012-08-25 04:00;CYQF 250400Z 27008KT 15SM SKC 09/04 A2990 RMK SLP141

CYQF;2012-08-25 05:00;CYQF 250500Z 30008KT 15SM SCT100 08/04 A2992 RMK AC3 SLP147

CYQF;2012-08-25 06:00;CYQF 250600Z 31006KT 15SM BKN100 11/04 A2993 RMK AC5 SLP153

CYQF;2012-08-25 07:00;CYQF 250700Z 33007KT 15SM OVC090 11/04 A2994 RMK AC8 SLP156

CYQF;2012-08-25 08:00;CYQF 250800Z 29005KT 15SM OVC090 10/04 A2993 RMK AC8 SLP153

CYQF;2012-08-25 09:00;CYQF 250900Z 27007KT 15SM SCT090 08/03 A2995 RMK AC4 SLP156

CYQF;2012-08-25 10:00;CYQF 251000Z 26004KT 15SM SCT090 08/04 A2995 RMK AC3 SLP156

CYQF;2012-08-25 11:00;CYQF 251100Z 26007KT 15SM FEW090 07/04 A2994 RMK AC2 SLP153

CYQF;2012-08-25 12:00;CYQF 251200Z 34004KT 15SM FEW020 FEW080 07/03 A2993 RMK SF1AC1 TR SF SLP148

CYQF;2012-08-25 13:00;CYQF 251300Z 18003KT 15SM FEW080 FEW250 07/04 A2992 RMK AC1CI1 SLP146

CYQF;2012-08-25 14:00;CYQF 251400Z 27006KT 15SM FEW100 FEW250 08/05 A2992 RMK AC1CI1 SLP145

CYQF;2012-08-25 15:00;CYQF 251500Z 30010KT 15SM FEW100 SCT250 12/06 A2993 RMK AC2CI0 SLP151

CYQF;2012-08-25 16:00;CYQF 251600Z 30012KT 15SM FEW030 BKN100 13/06 A2993 RMK CU1AC3 SLP150

CYQF;2012-08-25 17:00;CYQF 251700Z 31015G25KT 15SM SCT036 BKN100 16/07 A2993 RMK CU4AC1 SLP150

CYQF;2012-08-25 18:00;CYQF 251800Z 33010G25KT 15SM BKN035 16/07 A2992 RMK CU6 SLP143

CYQF;2012-08-25 19:00;CYQF 251900Z 31013G20KT 15SM BKN038 BKN100 17/07 A2993 RMK CU6AC1 SLP144

CYQF;2012-08-25 20:00;CYQF 252000Z 30010KT 15SM BKN040 17/07 A2992 RMK CU6 SLP143

CYQF;2012-08-25 21:00;CYQF 252100Z 32010G15KT 15SM BKN040 19/08 A2993 RMK SC6 SLP144

CYQF;2012-08-25 22:00;CYQF 252200Z 33010G15KT 15SM BKN040 19/07 A2992 RMK CU6 SLP143

CYQF;2012-08-25 23:00;CYQF 252300Z 33012G18KT 15SM BKN050 19/06 A2993 RMK CU5 SLP145

CYQF;2012-08-26 00:00;CYQF 260000Z 32010G15KT 15SM FEW035 SCT100 18/09 A2994 RMK CU1AC1 CU TR SLP151

CYQF;2012-08-26 01:00;CYQF 260100Z 36010KT 15SM FEW036 FEW100 17/08 A2994 RMK CU1AC1 SLP152

CYQF;2012-08-26 02:00;CYQF 260200Z 01005KT 15SM FEW100 FEW250 16/08 A2994 RMK AC1CI1 SLP152

CYQF;2012-08-26 03:00;CYQF 260300Z 28003KT 15SM FEW250 12/08 A2996 RMK CI1 SLP160

CYQF;2012-08-26 04:00;CYQF 260400Z 26004KT 15SM SKC 10/07 A2998 RMK SLP166

CYQF;2012-08-26 05:00;CYQF 260500Z 25003KT 15SM SKC 10/07 A3000 RMK SLP171

CYQF;2012-08-26 06:00;CYQF 260600Z 18003KT 15SM SKC 09/06 A3000 RMK SLP172

CYQF;2012-08-26 07:00;CYQF 260700Z 21003KT 15SM SKC 08/06 A3000 RMK SLP173

CYQF;2012-08-26 08:00;CYQF 260800Z 21004KT 15SM SKC 06/04 A3001 RMK SLP175

CYQF;2012-08-26 09:00;CYQF 260900Z 19002KT 15SM SKC 07/05 A3002 RMK SLP176

CYQF;2012-08-26 10:00;CYQF 261000Z 21003KT 15SM SKC 06/04 A3002 RMK SLP178

CYQF;2012-08-26 11:00;CYQF 261100Z 18003KT 15SM SKC 06/04 A3002 RMK SLP178

CYQF;2012-08-26 12:00;CYQF 261200Z 00000KT 15SM SKC 05/03 A3003 RMK SLP184

CYQF;2012-08-26 13:00;CYQF 261300Z 00000KT 15SM SKC 05/04 A3003 RMK SLP185

CYQF;2012-08-26 14:00;CYQF 261400Z 00000KT 15SM SKC 07/06 A3004 RMK SLP187

CYQF;2012-08-26 15:00;CYQF 261500Z 15002KT 15SM SKC 11/08 A3005 RMK SLP189

CYQF;2012-08-26 16:00;CYQF 261600Z 16005KT 15SM FEW250 16/10 A3004 RMK CI1 SLP188

CYQF;2012-08-26 17:00;CYQF 261700Z 17010G15KT 15SM FEW250 18/08 A3003 RMK CI1 SLP185

CYQF;2012-08-26 18:00;CYQF 261800Z 18010G15KT 15SM FEW043 FEW250 19/09 A3002 RMK CU1CI1 CU TR SLP174

CYQF;2012-08-26 19:00;CYQF 261900Z 18010G18KT 15SM FEW045 SCT250 20/08 A3001 RMK CU1CI1 SLP172

CYQF;2012-08-26 20:00;CYQF 262000Z 16010G20KT 15SM FEW057 BKN250 22/07 A2999 RMK CF1CI1 CF TR SLP166

CYQF;2012-08-26 21:00;CYQF 262100Z 17010G18KT 15SM BKN250 22/08 A2998 RMK CI2 SLP162

CYQF;2012-08-26 22:00;CYQF 262200Z 17010G15KT 15SM BKN250 22/07 A2997 RMK CI2 SLP159

CYQF;2012-08-26 23:00;CYQF 262300Z 16010G15KT 15SM BKN250 23/07 A2996 RMK CI2 SLP156

CYQF;2012-08-27 00:00;CYQF 270000Z 15010G15KT 15SM SCT250 23/06 A2995 RMK CI1 SLP152

CYQF;2012-08-27 01:00;CYQF 270100Z 13008KT 15SM BKN250 22/07 A2995 RMK CI2 SLP150

CYQF;2012-08-27 02:00;CYQF 270200Z 15006KT 15SM BKN250 19/07 A2994 RMK CI2 SLP149

CYQF;2012-08-27 03:00;CYQF 270300Z 12004KT 15SM BKN250 17/08 A2995 RMK CI2 SLP150

CYQF;2012-08-27 04:00;CYQF 270400Z 00000KT 15SM BKN250 16/07 A2996 RMK CI2 SLP153

CYQF;2012-08-27 05:00;CYQF 270500Z 16004KT 15SM BKN250 15/07 A2995 RMK CI2 SLP152

CYQF;2012-08-27 06:00;CYQF 270600Z 15008KT 15SM BKN250 15/07 A2995 RMK CI2 SLP145

CYQF;2012-08-27 07:00;CYQF 270700Z 16005KT 15SM BKN250 13/07 A2995 RMK CI2 SLP144

CYQF;2012-08-27 08:00;CYQF 270800Z 15005KT 15SM SCT250 13/01 A2994 RMK CI2 SLP141

CYQF;2012-08-27 09:00;CYQF 270900Z 14004KT 15SM SCT250 12/07 A2993 RMK CI2 SLP139

CYQF;2012-08-27 10:00;CYQF 271000Z 19005KT 15SM FEW250 11/06 A2993 RMK CI1 SLP137

CYQF;2012-08-27 11:00;CYQF 271100Z 19005KT 15SM FEW250 11/07 A2992 RMK CI1 SLP136

CYQF;2012-08-27 12:00;CYQF 271200Z 00000KT 15SM SCT250 10/06 A2992 RMK CI2 SLP135

CYQF;2012-08-27 13:00;CYQF 271300Z 00000KT 10SM BKN250 10/06 A2992 RMK CI3 SLP134

CYQF;2012-08-27 14:00;CYQF 271400Z 00000KT 12SM FEW100 BKN260 09/06 A2994 RMK AC1CI2 SLP141

CYQF;2012-08-27 15:00;CYQF 271500Z 20004KT 12SM SCT080 SCT260 13/08 A2994 RMK AC3CI1 SLP144

CYQF;2012-08-27 16:00;CYQF 271600Z 22003KT 15SM SCT080 BKN250 14/08 A2994 RMK AC3CI2 ACC ASOCTD SLP145

CYQF;2012-08-27 17:00;CYQF 271700Z 00000KT 15SM BKN080 BKN250 17/10 A2994 RMK AC6CI1 ACC ASOCTD SLP144

CYQF;2012-08-27 18:00;CYQF 271800Z 00000KT 15SM BKN080 BKN250 18/10 A2994 RMK AC6CI1 ACC ASOCTD SLP141

CYQF;2012-08-27 19:00;CYQF 271900Z 14003KT 15SM FEW080 BKN250 21/12 A2994 RMK AC2CI3 SLP140

CYQF;2012-08-27 20:00;CYQF 272000Z 16005KT 12SM FEW080 BKN250 23/12 A2992 RMK AC2CI2 HZ SLP136

CYQF;2012-08-27 21:00;CYQF 272100Z 15007KT 15SM FEW080 BKN250 25/12 A2991 RMK AC2CI2 HZ SLP128

CYQF;2012-08-27 22:00;CYQF 272200Z 14007KT 10SM SCT250 26/12 A2990 RMK CI2 HZ SLP123

CYQF;2012-08-27 23:00;CYQF 272300Z 18004KT 10SM BKN250 27/10 A2988 RMK CI6 SLP118

CYQF;2012-08-28 00:00;CYQF 280000Z 13003KT 10SM BKN250 27/11 A2986 RMK CI3 HZ SLP111

CYQF;2012-08-28 01:00;CYQF 280100Z 08006KT 12SM BKN250 26/11 A2985 RMK CI4 SLP108

CYQF;2012-08-28 02:00;CYQF 280200Z 08004KT 12SM BKN250 23/13 A2984 RMK CI6 SLP104

CYQF;2012-08-28 03:00;CYQF 280300Z 11003KT 10SM BKN250 20/12 A2985 RMK CI6 SLP109

CYQF;2012-08-28 04:00;CYQF 280400Z 36003KT 12SM BKN250 16/11 A2985 RMK CI3 SLP111

CYQF;2012-08-28 05:00;CYQF 280500Z 00000KT 15SM SKC 15/10 A2985 RMK SLP111

CYQF;2012-08-28 06:00;CYQF 280600Z 27005KT 15SM SKC 13/10 A2985 RMK SLP114

CYQF;2012-08-28 07:00;CYQF 280700Z 20005KT 15SM SCT250 11/09 A2986 RMK CI0 SLP116

CYQF;2012-08-28 08:00;CYQF 280800Z 22004KT 15SM SCT250 12/10 A2987 RMK CI2 SLP118

CYQF;2012-08-28 09:00;CYQF 280900Z 24008KT 15SM FEW250 12/10 A2987 RMK CI0 SLP114

CYQF;2012-08-28 10:00;CYQF 281000Z 18003KT 15SM SKC 12/10 A2987 RMK SLP115

CYQF;2012-08-28 11:00;CYQF 281100Z 18002KT 15SM SCT250 11/09 A2988 RMK CI1 SLP116

CYQF;2012-08-28 12:00;CYQF 281200Z 21004KT 15SM SKC 10/08 A2988 RMK SLP117

CYQF;2012-08-28 13:00;CYQF 281300Z 19002KT 15SM SKC 09/07 A2989 RMK HZ SLP120

CYQF;2012-08-28 14:00;CYQF 281400Z 25008KT 12SM SKC 10/08 A2990 RMK HZ SLP124

CYQF;2012-08-28 15:00;CYQF 281500Z 19004KT 12SM SKC 14/09 A2990 RMK SLP129

CYQF;2012-08-28 16:00;CYQF 281600Z 20004KT 12SM FEW240 17/10 A2991 RMK CI2 SLP130

CYQF;2012-08-28 17:00;CYQF 281700Z 24003KT 12SM SCT240 20/11 A2989 RMK CI2 SLP126

CYQF;2012-08-28 18:00;CYQF 281800Z 21004KT 10SM FEW240 22/11 A2988 RMK CI1 SLP120

CYQF;2012-08-28 19:00;CYQF 281900Z 19004KT 12SM SKC 25/09 A2986 RMK SLP113

CYQF;2012-08-28 20:00;CYQF 282000Z 19005KT 15SM SKC 26/06 A2984 RMK SLP105

CYQF;2012-08-28 21:00;CYQF 282100Z 15008KT 15SM FEW060 27/03 A2981 RMK CU1 SLP090

CYQF;2012-08-28 22:00;CYQF 282200Z 18005KT 15SM FEW080 28/07 A2978 RMK CU1 SLP082

CYQF;2012-08-28 23:00;CYQF 282300Z 17010KT 15SM FEW080 28/05 A2976 RMK AC1 SLP074

CYQF;2012-08-29 00:00;CYQF 290000Z 16006KT 15SM FEW080 28/08 A2972 RMK CU1 SLP062

CYQF;2012-08-29 01:00;CYQF 290100Z 15006KT 15SM FEW080 26/09 A2970 RMK CU2 SLP055

CYQF;2012-08-29 02:00;CYQF 290200Z 00000KT 15SM FEW080 23/10 A2968 RMK AC2 SLP050

CYQF;2012-08-29 03:00;CYQF 290300Z 34010G15KT 15SM FEW080 18/09 A2969 RMK AC2 SLP058

CYQF;2012-08-29 04:00;CYQF 290400Z 02008KT 15SM FEW080 17/07 A2973 RMK AC2 SLP069

CYQF;2012-08-29 05:00;CYQF 290500Z 02006KT 15SM FEW080 17/06 A2974 RMK AC2 SLP071

CYQF;2012-08-29 06:00;CYQF 290600Z 33005KT 15SM SCT080 13/07 A2974 RMK AC3 SLP071

CYQF;2012-08-29 07:00;CYQF 290700Z 34005KT 15SM BKN080 12/07 A2975 RMK AC5 SLP074

CYQF;2012-08-29 08:00;CYQF 290800Z 36004KT 15SM FEW080 12/07 A2976 RMK AC2 SLP077

CYQF;2012-08-29 09:00;CYQF 290900Z 32004KT 15SM SCT080 12/06 A2978 RMK AC4 SLP080

CYQF;2012-08-29 10:00;CYQF 291000Z 34010KT 15SM FEW080 12/06 A2976 RMK AC2 SLP074

CYQF;2012-08-29 11:00;CYQF 291100Z 28008KT 15SM FEW080 12/07 A2977 RMK AC2 SLP078

CYQF;2012-08-29 12:00;CYQF 291200Z 28004KT 15SM FEW050 BKN080 BKN250 12/07 A2979 RMK SC2AC2CI1 SLP085

CYQF;2012-08-29 13:00;CYQF 291300Z CCA 26008KT 15SM -RA FEW050 OVC080 10/08 A2981 RMK SC2AC6 SLP089

CYQF;2012-08-29 14:00;CYQF 291400Z 22008KT 15SM -SHRA FEW050 BKN080 10/08 A2982 RMK SC2ACC6 SLP092

CYQF;2012-08-29 14:16;CYQF 291416Z 22007KT 15SM FEW050 BKN080 RMK SC2ACC5

CYQF;2012-08-29 15:00;CYQF 291500Z 24006KT 15SM SCT050 BKN080 11/08 A2983 RMK SC4ACC3 SLP107

CYQF;2012-08-29 15:23;CYQF 291523Z 27005KT 15SM -SHRA SCT050 BKN080 RMK SC4ACC3

CYQF;2012-08-29 16:00;CYQF 291600Z 25005KT 15SM -SHRA BKN050 BKN080 11/08 A2985 RMK SC5AC2 SLP114

CYQF;2012-08-29 16:27;CYQF 291627Z 31006KT 15SM SCT050 BKN080 RMK SC4AC3

CYQF;2012-08-29 17:00;CYQF 291700Z 31008KT 15SM FEW015 FEW050 BKN080 13/10 A2987 RMK CU1SC2AC2 SLP121

CYQF;2012-08-29 18:00;CYQF 291800Z 33007KT 15SM FEW020 FEW050 BKN080 14/08 A2988 RMK CU1SC1AC2 SLP128

CYQF;2012-08-29 19:00;CYQF 291900Z 29005KT 15SM FEW025 FEW250 16/08 A2987 RMK CU2CI1 SLP126

CYQF;2012-08-29 20:00;CYQF 292000Z 31010KT 15SM FEW040 FEW250 18/06 A2986 RMK CU2CI1 SLP122

CYQF;2012-08-29 21:00;CYQF 292100Z 30008KT 15SM FEW045 19/06 A2986 RMK CU2 SLP118

CYQF;2012-08-29 22:00;CYQF 292200Z 23004KT 15SM FEW052 20/07 A2986 RMK CU2 SLP117

CYQF;2012-08-29 23:00;CYQF 292300Z 30002KT 15SM FEW064 SCT090 20/07 A2986 RMK CU2AC2 SLP117

CYQF;2012-08-30 00:00;CYQF 300000Z 34002KT 15SM FEW060 BKN080 19/07 A2987 RMK CU1AC4 SLP119

CYQF;2012-08-30 01:00;CYQF 300100Z 00000KT 15SM FEW055 SCT080 20/07 A2987 RMK CU1AC3 SLP120

CYQF;2012-08-30 02:00;CYQF 300200Z 00000KT 15SM FEW080 18/07 A2987 RMK AC2 SLP120

CYQF;2012-08-30 03:00;CYQF 300300Z 00000KT 15SM SCT080 14/08 A2989 RMK AC3 SLP134

CYQF;2012-08-30 04:00;CYQF 300400Z 00000KT 15SM BKN080 13/08 A2991 RMK AC6 SLP139

CYQF;2012-08-30 05:00;CYQF 300500Z 21003KT 15SM SCT080 12/08 A2992 RMK AC3 SLP142

CYQF;2012-08-30 06:00;CYQF 300600Z 29004KT 15SM FEW080 10/07 A2993 RMK AC2 SLP146

CYQF;2012-08-30 07:00;CYQF 300700Z 22002KT 15SM FEW080 09/05 A2993 RMK AC1 SLP146

CYQF;2012-08-30 08:00;CYQF 300800Z 29004KT 15SM SKC 07/04 A2993 RMK SLP146

CYQF;2012-08-30 09:00;CYQF 300900Z 23005KT 15SM SKC 06/03 A2993 RMK SLP148

CYQF;2012-08-30 10:00;CYQF 301000Z 19003KT 15SM SKC 06/03 A2994 RMK SLP151

CYQF;2012-08-30 11:00;CYQF 301100Z 22005KT 15SM FEW100 05/03 A2995 RMK AC1 SLP153

CYQF;2012-08-30 12:00;CYQF 301200Z 00000KT 15SM FEW100 05/02 A2995 RMK AC2 SLP157

CYQF;2012-08-30 13:00;CYQF 301300Z 00000KT 15SM FEW100 04/01 A2997 RMK AC1 SLP161

CYQF;2012-08-30 14:00;CYQF 301400Z 00000KT 15SM FEW100 05/02 A2997 RMK AC1 SLP162

CYQF;2012-08-30 15:00;CYQF 301500Z 18004KT 15SM FEW100 09/05 A2997 RMK AC1 SLP163

CYQF;2012-08-30 16:00;CYQF 301600Z 00000KT 15SM FEW100 12/06 A2997 RMK AC1 SLP164

CYQF;2012-08-30 17:00;CYQF 301700Z 00000KT 15SM FEW040 15/05 A2996 RMK SC1 SLP160

CYQF;2012-08-30 18:00;CYQF 301800Z 00000KT 15SM FEW050 17/05 A2995 RMK SC1 SLP153

CYQF;2012-08-30 19:00;CYQF 301900Z 21003KT 15SM FEW060 FEW100 19/04 A2995 RMK CF1AC1 SLP150

CYQF;2012-08-30 20:00;CYQF 302000Z 20008KT 15SM FEW060 FEW100 20/03 A2994 RMK CU1AC1 SLP148

CYQF;2012-08-30 21:00;CYQF 302100Z 00000KT 15SM FEW070 FEW100 21/03 A2993 RMK CU1AC1 SLP145

CYQF;2012-08-30 22:00;CYQF 302200Z 00000KT 15SM FEW080 SCT100 22/02 A2992 RMK CU2AC2 SLP143

CYQF;2012-08-30 23:00;CYQF 302300Z 06004KT 15SM FEW080 SCT100 21/01 A2992 RMK CU2AC2 SLP142

CYQF;2012-08-31 00:00;CYQF 310000Z 09005KT 15SM FEW080 FEW100 20/02 A2992 RMK CU1AC2 SLP142

CYQF;2012-08-31 01:00;CYQF 310100Z 08008KT 15SM FEW100 20/03 A2991 RMK AC1 SLP140

CYQF;2012-08-31 02:00;CYQF 310200Z 07005KT 15SM FEW100 18/05 A2992 RMK AC1 SLP142

CYQF;2012-08-31 03:00;CYQF 310300Z 08005KT 15SM FEW100 15/05 A2992 RMK AC1 SLP146

CYQF;2012-08-31 04:00;CYQF 310400Z 07005KT 15SM FEW100 FEW250 13/04 A2993 RMK AC2CI1 SLP148

CYQF;2012-08-31 05:00;CYQF 310500Z CCA 06002KT 15SM FEW100 13/04 A2993 RMK AC1 SLP148

CYQF;2012-08-31 06:00;CYQF 310600Z 06004KT 15SM FEW100 12/04 A2992 RMK AC2 SLP138

CYQF;2012-08-31 07:00;CYQF 310700Z 00000KT 15SM BKN100 11/04 A2992 RMK AC5 SLP139

CYQF;2012-08-31 08:00;CYQF 310800Z 27002KT 15SM SCT100 09/04 A2993 RMK AC2 SLP140

CYQF;2012-08-31 09:00;CYQF 310900Z 29003KT 15SM FEW100 08/03 A2993 RMK AC2 SLP143

CYQF;2012-08-31 10:00;CYQF 311000Z 35006KT 15SM SKC 09/04 A2994 RMK SLP145

CYQF;2012-08-31 11:00;CYQF 311100Z 26003KT 15SM SKC 05/03 A2995 RMK SLP149

CYQF;2012-08-31 12:00;CYQF 311200Z 30005KT 15SM FEW100 FEW250 07/04 A2996 RMK AC1CI1 SLP155

CYQF;2012-08-31 13:00;CYQF 311300Z 30004KT 10SM FEW007 FEW100 SCT250 06/04 A2996 RMK SF1AC1CI1 SLP156

CYQF;2012-08-31 13:51;CYQF 311351Z 30007KT 12SM BKN007 RMK SF6

CYQF;2012-08-31 14:00;CYQF 311400Z 29005KT 12SM OVC007 08/06 A2997 RMK SF7 SLP160

CYQF;2012-08-31 15:00;CYQF 311500Z 33005KT 12SM OVC007 08/07 A2997 RMK ST8 SLP163

CYQF;2012-08-31 16:00;CYQF 311600Z 30006KT 12SM OVC007 09/07 A2997 RMK ST8 SLP162

CYQF;2012-08-31 17:00;CYQF 311700Z 30007KT 12SM OVC007 10/07 A2996 RMK ST8 SLP161

CYQF;2012-08-31 18:00;CYQF 311800Z 30003KT 12SM FEW007 BKN250 11/07 A2995 RMK ST2CI4 SLP158

CYQF;2012-08-31 19:00;CYQF 311900Z 34005KT 12SM FEW015 BKN250 12/08 A2994 RMK CF1CI6 SLP154

CYQF;2012-08-31 20:00;CYQF 312000Z 35006KT 12SM BKN260 13/08 A2993 RMK CI6 SLP150

CYQF;2012-08-31 21:00;CYQF 312100Z 36004KT 15SM BKN260 15/08 A2992 RMK CI6 SLP146

CYQF;2012-08-31 22:00;CYQF 312200Z 36005KT 15SM BKN260 16/08 A2989 RMK CI5 SLP139

CYQF;2012-08-31 23:00;CYQF 312300Z 00000KT 15SM SCT260 17/08 A2988 RMK CI2 SLP135

CYQF;2012-09-01 00:00;CYQF 010000Z 34003KT 15SM SCT260 18/08 A2988 RMK CI2 SLP130

CYQF;2012-09-01 01:00;CYQF 010100Z 33007KT 15SM SCT250 16/10 A2987 RMK CI2 SLP127

CYQF;2012-09-01 02:00;CYQF 010200Z 34003KT 15SM SCT250 13/09 A2987 RMK CI1 SLP127

CYQF;2012-09-01 03:00;CYQF 010300Z 34003KT 15SM FEW250 12/08 A2987 RMK CI1 SLP131

CYQF;2012-09-01 04:00;CYQF 010400Z 34005KT 15SM BKN250 11/08 A2986 RMK CI2 SLP129

CYQF;2012-09-01 05:00;CYQF 010500Z 36004KT 15SM BKN250 11/08 A2985 RMK CI3 SLP125

CYQF;2012-09-01 06:00;CYQF 010600Z 33006KT 15SM FEW120 BKN250 12/09 A2984 RMK AC2CI1 SLP120

CYQF;2012-09-01 07:00;CYQF 010700Z 32012KT 15SM FEW120 11/08 A2983 RMK AC2 SLP117

CYQF;2012-09-01 08:00;CYQF 010800Z 34008KT 15SM FEW120 11/08 A2982 RMK AC1 SLP113

CYQF;2012-09-01 09:00;CYQF 010900Z 34008KT 15SM SCT250 10/07 A2982 RMK CI0 SLP108

CYQF;2012-09-01 10:00;CYQF 011000Z 30006KT 15SM FEW250 10/07 A2982 RMK CI2 SLP108

CYQF;2012-09-01 11:00;CYQF 011100Z 29006KT 15SM SCT250 09/07 A2980 RMK CI3 SLP103

CYQF;2012-09-01 12:00;CYQF 011200Z 27005KT 15SM SCT250 08/06 A2980 RMK CI4 SLP100

CYQF;2012-09-01 13:00;CYQF 011300Z 28006KT 15SM FEW120 BKN250 08/06 A2980 RMK AC2CI2 SLP102

CYQF;2012-09-01 14:00;CYQF 011400Z 28008KT 15SM SCT120 BKN250 09/07 A2979 RMK AC4CI2 SLP099

CYQF;2012-09-01 15:00;CYQF 011500Z 30002KT 15SM FEW120 SCT250 09/07 A2979 RMK AC2CI2 SLP103

CYQF;2012-09-01 16:00;CYQF 011600Z 31010G15KT 15SM FEW120 FEW250 12/08 A2979 RMK AC2CI1 SLP104

CYQF;2012-09-01 17:00;CYQF 011700Z 31008G15KT 15SM FEW030 BKN100 14/07 A2980 RMK CU2AC3 SLP105

CYQF;2012-09-01 18:00;CYQF 011800Z 33010G15KT 15SM FEW030 BKN080 15/07 A2980 RMK CU2AC4 SLP100

CYQF;2012-09-01 19:00;CYQF 011900Z 30020G30KT 15SM FEW030 BKN080 14/05 A2982 RMK CU1AC5 SLP106

CYQF;2012-09-01 20:00;CYQF 012000Z 28015G20KT 15SM SCT030 BKN080 15/06 A2981 RMK CU3AC3 SLP105

CYQF;2012-09-01 21:00;CYQF 012100Z 27010G15KT 15SM SCT030 BKN080 14/06 A2981 RMK CU3AC3 SLP105

CYQF;2012-09-01 22:00;CYQF 012200Z 31010G15KT 15SM FEW030TCU BKN080 15/04 A2980 RMK TCU2AC3 SLP103

CYQF;2012-09-01 23:00;CYQF 012300Z 31010G15KT 15SM FEW048TCU FEW090 BKN250 16/04 A2978 RMK TCU2AC1CI1 SLP096

CYQF;2012-09-01 23:37;CYQF 012337Z 28014G21KT 15SM -SHRA BKN040TCU BKN090 OVC250 RMK TCU5AC1CI1 CB ASOCTD

CYQF;2012-09-02 00:00;CYQF 020000Z 34008KT 15SM -SHRA BKN030TCU BKN090 BKN250 12/06 A2979 RMK TCU6AC1CI1 SLP106

CYQF;2012-09-02 00:10;CYQF 020010Z 35007KT 15SM BKN030TCU BKN090 BKN250 RMK TCU5AC1CI1

CYQF;2012-09-02 01:00;CYQF 020100Z 34010G15KT 15SM BKN040TCU BKN250 14/04 A2981 RMK TCU5CI1 SLP110

CYQF;2012-09-02 02:00;CYQF 020200Z 31010G15KT 15SM BKN035TCU BKN250 12/03 A2982 RMK TCU5CI2 SLP113

CYQF;2012-09-02 03:00;CYQF 020300Z 21004KT 15SM BKN035 BKN250 10/04 A2982 RMK SC5CI2 SLP114

CYQF;2012-09-02 04:00;CYQF 020400Z 28003KT 15SM SCT100 BKN250 09/04 A2982 RMK AC3CI2 SLP116

CYQF;2012-09-02 05:00;CYQF 020500Z 24005KT 15SM FEW100 BKN250 07/04 A2980 RMK AC2CI2 SLP108

CYQF;2012-09-02 06:00;CYQF 020600Z 24005KT 15SM FEW100 BKN250 07/03 A2979 RMK AC1CI2 SLP103

CYQF;2012-09-02 07:00;CYQF 020700Z 24007KT 15SM FEW100 BKN250 05/03 A2979 RMK AC1CI1 SLP102

CYQF;2012-09-02 08:00;CYQF 020800Z 25006KT 15SM FEW100 FEW250 06/03 A2979 RMK AC1CI2 SLP104

CYQF;2012-09-02 09:00;CYQF 020900Z 22005KT 15SM FEW100 FEW250 05/03 A2979 RMK AC1CI2 SLP104

CYQF;2012-09-02 10:00;CYQF 021000Z 21006KT 15SM FEW100 FEW250 04/01 A2978 RMK AC1CI1 SLP101

CYQF;2012-09-02 11:00;CYQF 021100Z 22006KT 15SM FEW100 04/01 A2977 RMK AC1 SLP098

CYQF;2012-09-02 12:00;CYQF 021200Z 24008KT 15SM FEW100 BKN250 04/01 A2977 RMK AC2CI1 SLP103

CYQF;2012-09-02 13:00;CYQF 021300Z 23008KT 15SM FEW030 BKN090 BKN250 05/01 A2977 RMK SC2AC2CI2 SLP102

CYQF;2012-09-02 14:00;CYQF 021400Z 25007KT 15SM SCT030 BKN090 08/02 A2979 RMK SC4AC3 SLP109

CYQF;2012-09-02 15:00;CYQF 021500Z 26008KT 15SM SCT030 BKN090 10/02 A2979 RMK SC4AC3 SLP103

CYQF;2012-09-02 16:00;CYQF 021600Z 24008KT 15SM BKN040 BKN100 12/04 A2979 RMK SC5AC2 SLP103

CYQF;2012-09-02 17:00;CYQF 021700Z 25008KT 15SM BKN100 BKN250 14/06 A2980 RMK AC6CI1 SLP108

CYQF;2012-09-02 18:00;CYQF 021800Z 30004KT 15SM BKN100 BKN250 15/06 A2981 RMK AC6CI2 SLP108

CYQF;2012-09-02 19:00;CYQF 021900Z 30010KT 15SM FEW040 BKN100 16/06 A2981 RMK CU1AC6 SLP108

CYQF;2012-09-02 20:00;CYQF 022000Z 33010G15KT 15SM FEW055 BKN100 18/05 A2980 RMK CU1AC6 SLP106

CYQF;2012-09-02 21:00;CYQF 022100Z 33012G18KT 15SM FEW055 BKN100 19/05 A2980 RMK CU1AC5 SLP103

CYQF;2012-09-02 22:00;CYQF 022200Z 33011G18KT 15SM FEW055 BKN100 20/06 A2980 RMK CU2AC3 SLP105

CYQF;2012-09-02 23:00;CYQF 022300Z 33010G15KT 15SM FEW055 BKN100 18/04 A2981 RMK CU1AC5 SLP107

CYQF;2012-09-03 00:00;CYQF 030000Z 34010KT 15SM FEW050 BKN100 18/05 A2983 RMK CU1AC5 SLP115

CYQF;2012-09-03 01:00;CYQF 030100Z 33003KT 15SM FEW050 BKN100 18/06 A2983 RMK CU1AC5 SLP115

CYQF;2012-09-03 02:00;CYQF 030200Z 00000KT 15SM FEW100 17/07 A2983 RMK AC2 SLP117

CYQF;2012-09-03 03:00;CYQF 030300Z 00000KT 15SM FEW100 13/07 A2985 RMK AC2 SLP123

CYQF;2012-09-03 04:00;CYQF 030400Z 00000KT 15SM BKN100 10/06 A2988 RMK AC3 SLP130

CYQF;2012-09-03 05:00;CYQF 030500Z 29005KT 15SM FEW100 12/04 A2989 RMK AC1 SLP135

CYQF;2012-09-03 06:00;CYQF 030600Z 25004KT 15SM FEW100 FEW250 10/03 A2991 RMK AC1CI0 SLP140

CYQF;2012-09-03 07:00;CYQF 030700Z 19005KT 15SM FEW250 06/02 A2992 RMK CI0 SLP144

CYQF;2012-09-03 08:00;CYQF 030800Z 00000KT 15SM FEW250 06/02 A2993 RMK CI1 SLP148

CYQF;2012-09-03 09:00;CYQF 030900Z 20006KT 15SM FEW250 04/02 A2993 RMK CI1 SLP148

CYQF;2012-09-03 10:00;CYQF 031000Z 21004KT 15SM FEW250 04/01 A2993 RMK CI1 SLP149

CYQF;2012-09-03 11:00;CYQF 031100Z 21004KT 15SM FEW100 SCT250 04/01 A2994 RMK AC2CI1 SLP151

CYQF;2012-09-03 12:00;CYQF 031200Z 22004KT 15SM FEW100 SCT250 05/02 A2995 RMK AC2CI1 SLP155

CYQF;2012-09-03 13:00;CYQF 031300Z 20005KT 15SM SCT100 BKN250 05/02 A2995 RMK AC3CI1 SLP156

CYQF;2012-09-03 14:00;CYQF 031400Z 21004KT 15SM BKN090 BKN250 06/03 A2996 RMK AC6CI2 SLP159

CYQF;2012-09-03 15:00;CYQF 031500Z 21003KT 15SM BKN090 BKN250 08/04 A2996 RMK AC6CI2 SLP162

CYQF;2012-09-03 16:00;CYQF 031600Z 20002KT 15SM BKN080 OVC250 10/06 A2997 RMK AC7CI1 VIRGA SLP165

CYQF;2012-09-03 17:00;CYQF 031700Z 25005KT 15SM BKN070 BKN250 12/07 A2997 RMK AC6CI1 VIRGA SLP167

CYQF;2012-09-03 18:00;CYQF 031800Z 32005KT 15SM BKN070 BKN250 13/04 A2997 RMK AC6CI1 SLP164

CYQF;2012-09-03 19:00;CYQF 031900Z 33003KT 15SM FEW070 SCT250 15/04 A2996 RMK AC2CI1 SLP160

CYQF;2012-09-03 20:00;CYQF 032000Z 00000KT 15SM FEW048 BKN070 BKN250 16/04 A2995 RMK CU2AC3CI1 SLP157

CYQF;2012-09-03 21:00;CYQF 032100Z 35005KT 15SM FEW048 BKN070 BKN250 16/05 A2994 RMK CU2AC3CI2 SLP156

CYQF;2012-09-03 22:00;CYQF 032200Z 33003KT 15SM FEW048 BKN070 BKN250 16/05 A2994 RMK CU2AC4CI2 SLP155

CYQF;2012-09-03 23:00;CYQF 032300Z 00000KT 15SM FEW040 BKN070 16/06 A2995 RMK CU2AC6 SLP157

CYQF;2012-09-04 00:00;CYQF 040000Z 00000KT 15SM FEW040 BKN070 16/07 A2995 RMK CU2AC6 SLP157

CYQF;2012-09-04 01:00;CYQF 040100Z 00000KT 15SM FEW030 BKN070 14/08 A2994 RMK CU2AC6 SLP155

CYQF;2012-09-04 02:00;CYQF 040200Z 00000KT 15SM FEW030 BKN070 14/07 A2995 RMK CU1AC6 SLP160

CYQF;2012-09-04 03:00;CYQF 040300Z 00000KT 15SM BKN070 13/07 A2997 RMK AC7 SLP168

CYQF;2012-09-04 04:00;CYQF 040400Z 31006KT 15SM BKN070 14/05 A2999 RMK AC7 SLP173

CYQF;2012-09-04 05:00;CYQF 040500Z 31006KT 15SM BKN070 13/03 A3001 RMK AC7 SLP179

CYQF;2012-09-04 06:00;CYQF 040600Z 30008KT 15SM BKN070 11/03 A3002 RMK AC7 SLP178

CYQF;2012-09-04 07:00;CYQF 040700Z 26006KT 15SM FEW070 08/02 A3002 RMK AC2 SLP180

CYQF;2012-09-04 08:00;CYQF 040800Z 30007KT 15SM FEW070 09/02 A3003 RMK AC2 SLP183

CYQF;2012-09-04 09:00;CYQF 040900Z 27010KT 15SM FEW070 08/03 A3004 RMK AC2 SLP186

CYQF;2012-09-04 10:00;CYQF 041000Z 26012KT 15SM FEW070 08/03 A3005 RMK AC2 SLP188

CYQF;2012-09-04 11:00;CYQF 041100Z 27008KT 15SM FEW070 BKN250 09/03 A3005 RMK AC2CS2 SLP191

CYQF;2012-09-04 12:00;CYQF 041200Z 27008KT 15SM FEW070 BKN250 09/03 A3007 RMK AC2CS2 SLP195

CYQF;2012-09-04 13:00;CYQF 041300Z 27012KT 15SM BKN080 09/03 A3006 RMK AC6 SLP192

CYQF;2012-09-04 14:00;CYQF 041400Z 29008KT 15SM BKN080 BKN250 09/04 A3008 RMK AC5CI2 SLP198

CYQF;2012-09-04 15:00;CYQF 041500Z 32008KT 15SM BKN080 BKN250 12/05 A3008 RMK AC5CI2 SLP201

CYQF;2012-09-04 16:00;CYQF 041600Z 32011G16KT 15SM BKN080 BKN250 12/04 A3009 RMK AC6CI1 SLP202

CYQF;2012-09-04 17:00;CYQF 041700Z 31012G18KT 15SM BKN100 13/04 A3009 RMK AC6 SLP203

CYQF;2012-09-04 18:00;CYQF 041800Z 32010G15KT 15SM FEW120 15/05 A3009 RMK AC2 SLP200

CYQF;2012-09-04 19:00;CYQF 041900Z 31013G22KT 15SM FEW050 FEW120 16/02 A3008 RMK CU1AC1 SLP198

CYQF;2012-09-04 20:00;CYQF 042000Z 33012G18KT 15SM FEW055 18/04 A3007 RMK CU1 SLP194

CYQF;2012-09-04 21:00;CYQF 042100Z 34010KT 15SM FEW060 18/03 A3006 RMK CU2 SLP192

CYQF;2012-09-04 22:00;CYQF 042200Z 34010KT 15SM FEW060 18/04 A3005 RMK CU2 SLP190

CYQF;2012-09-04 23:00;CYQF 042300Z 34010KT 15SM FEW060 FEW250 18/03 A3005 RMK CU2CI0 SLP187

CYQF;2012-09-05 00:00;CYQF 050000Z 32010KT 15SM FEW060 SCT250 18/03 A3004 RMK CU1CI0 SLP181

CYQF;2012-09-05 01:00;CYQF 050100Z 00000KT 15SM FEW060 SCT250 17/04 A3004 RMK CU1CI2 SLP182

CYQF;2012-09-05 02:00;CYQF 050200Z 36004KT 15SM FEW080 BKN250 16/03 A3004 RMK AC2CI2 SLP181

CYQF;2012-09-05 03:00;CYQF 050300Z 00000KT 15SM FEW080 BKN250 11/05 A3004 RMK AC2CI2 SLP188

CYQF;2012-09-05 04:00;CYQF 050400Z 21003KT 15SM FEW250 09/04 A3004 RMK CI0 SLP186

CYQF;2012-09-05 05:00;CYQF 050500Z 00000KT 15SM SCT250 07/04 A3004 RMK CI2 SLP186

CYQF;2012-09-05 06:00;CYQF 050600Z 00000KT 15SM FEW080 SCT250 08/04 A3003 RMK AC1CI1 SLP185

CYQF;2012-09-05 07:00;CYQF 050700Z 24003KT 15SM FEW080 BKN250 07/03 A3003 RMK AC2CI2 SLP184

CYQF;2012-09-05 08:00;CYQF 050800Z 24006KT 15SM FEW080 BKN250 07/04 A3002 RMK AC2CI2 SLP182

CYQF;2012-09-05 09:00;CYQF 050900Z 20004KT 15SM SCT080 OVC250 08/04 A3001 RMK AC4CI2 SLP175

CYQF;2012-09-05 10:00;CYQF 051000Z 20003KT 15SM SCT100 OVC250 08/05 A3000 RMK AC3CI2 SLP170

CYQF;2012-09-05 11:00;CYQF 051100Z 22004KT 15SM SCT100 OVC250 08/05 A2999 RMK AC3CI2 SLP167

CYQF;2012-09-05 12:00;CYQF 051200Z 00000KT 15SM BKN090 OVC250 09/05 A2998 RMK AC5CI2 SLP164

CYQF;2012-09-05 13:00;CYQF 051300Z 00000KT 15SM BKN090 08/05 A2999 RMK AC7 SLP165

CYQF;2012-09-05 14:00;CYQF 051400Z 35003KT 15SM OVC080 10/07 A2999 RMK AC8 SLP167

CYQF;2012-09-05 14:07;CYQF 051407Z 28003KT 15SM -RA OVC080 RMK AC8

CYQF;2012-09-05 15:00;CYQF 051500Z 33010G15KT 12SM -RA FEW030 OVC070 11/08 A3000 RMK SC2AC6 SLP175

CYQF;2012-09-05 16:00;CYQF 051600Z 29004KT 12SM -RA FEW015 BKN030 OVC070 10/09 A3001 RMK SF2SC3AC3 SLP179

CYQF;2012-09-05 17:00;CYQF 051700Z 28004KT 15SM -RA BKN050 BKN100 11/09 A3000 RMK SC5AC2 SLP175

CYQF;2012-09-05 17:26;CYQF 051726Z 28007KT 15SM VCSH FEW015 SCT050 BKN100 RMK CU1SC2AC2

CYQF;2012-09-05 18:00;CYQF 051800Z 27006KT 15SM FEW015 SCT050 BKN100 13/09 A3000 RMK CU1SC2AC5 SLP178

CYQF;2012-09-05 19:00;CYQF 051900Z 27010G15KT 15SM VCSH FEW020TCU SCT050 BKN100 BKN250 13/08 A3000 RMK TCU2SC2AC2CI1 SLP177

CYQF;2012-09-05 20:00;CYQF 052000Z 27010G15KT 15SM FEW021TCU SCT050 BKN100 BKN250 14/08 A3000 RMK TCU2SC2AC2CI1 SLP176

CYQF;2012-09-05 20:26;CYQF 052026Z 31011G16KT 15SM -SHRA FEW020CB BKN050 BKN100 BKN250 RMK CB2SC3AC1CI1

CYQF;2012-09-05 21:00;CYQF 052100Z 30010G16KT 15SM -SHRA SCT020TCU BKN090 BKN250 13/09 A3001 RMK TCU3AC2CI1 SLP180

CYQF;2012-09-05 21:39;CYQF 052139Z 34010G20KT 3SM -SHRA BKN014TCU BKN090 RMK TCU6AC2

CYQF;2012-09-05 22:00;CYQF 052200Z 33010KT 10SM -SHRA BKN016TCU BKN090 12/09 A3003 RMK TCU6AC2 HVY SH S SLP184

CYQF;2012-09-05 22:16;CYQF 052216Z 33010KT 15SM VCSH BKN016TCU BKN090 RMK TCU6AC2

CYQF;2012-09-05 23:00;CYQF 052300Z 34010KT 15SM VCSH BKN015 BKN080 13/09 A3004 RMK CU5AC2 TCU ASOCTD SLP188

CYQF;2012-09-06 00:00;CYQF 060000Z 33010KT 15SM VCSH SCT015 BKN090 14/09 A3005 RMK CU4AC3 TCU ASOCTD SLP194

CYQF;2012-09-06 01:00;CYQF 060100Z 33010KT 15SM FEW015CB BKN090 14/09 A3006 RMK CB2AC4 CB ALQDS SLP197

CYQF;2012-09-06 02:00;CYQF 060200Z 32007KT 15SM FEW016TCU BKN090 12/08 A3009 RMK TCU2AC3 CB ASOCTD SHWR NW SLP205

CYQF;2012-09-06 02:14;CYQF 060214Z 35015G20KT 15SM -SHRA BKN016TCU BKN090 RMK TCU6AC2 VIS WEST 2

CYQF;2012-09-06 02:46;CYQF 060246Z 33008KT 15SM VCSH BKN017TCU BKN100 RMK TCU5AC2 VIS S 8

CYQF;2012-09-06 03:00;CYQF 060300Z 33005KT 15SM VCSH BKN017TCU BKN100 10/08 A3011 RMK TCU5AC2 SLP216

CYQF;2012-09-06 04:00;CYQF 060400Z 32003KT 15SM FEW090 09/07 A3012 RMK AC2 SLP217

CYQF;2012-09-06 05:00;CYQF 060500Z 28003KT 15SM SKC 08/06 A3013 RMK SLP220

CYQF;2012-09-06 06:00;CYQF 060600Z 29002KT 15SM SKC 08/06 A3013 RMK SLP221

CYQF;2012-09-06 07:00;CYQF 060700Z 30005KT 15SM FEW100 08/06 A3014 RMK AC1 SLP224

CYQF;2012-09-06 08:00;CYQF 060800Z 30005KT 15SM SKC 06/05 A3014 RMK SLP225

CYQF;2012-09-06 09:00;CYQF 060900Z 16004KT 15SM SKC 06/04 A3015 RMK SLP229

CYQF;2012-09-06 10:00;CYQF 061000Z 18003KT 15SM SKC 05/04 A3015 RMK SLP230

CYQF;2012-09-06 10:14;CYQF 061014Z 20003KT 1SM BR SKC RMK FG1

CYQF;2012-09-06 10:22;CYQF 061022Z 21002KT 1/2SM FG SKC RMK FG2

CYQF;2012-09-06 11:00;CYQF 061100Z 20004KT 1/4SM FG SKC 03/03 A3015 RMK FG2 SLP229

CYQF;2012-09-06 12:00;CYQF 061200Z 21003KT 1/4SM FG SKC 03/02 A3015 RMK FG2 SLP234

CYQF;2012-09-06 13:00;CYQF 061300Z 20003KT 1/8SM FG SKC 03/02 A3016 RMK FG2 SLP237

CYQF;2012-09-06 13:11;CYQF 061311Z 20003KT 3/4SM BR SKC RMK FG2 VIS VRB 1/2-1

CYQF;2012-09-06 14:00;CYQF 061400Z 20004KT 3SM BR VCFG SKC 04/03 A3017 RMK FG1 SLP239

CYQF;2012-09-06 14:04;CYQF 061404Z 20003KT 12SM SKC

CYQF;2012-09-06 15:00;CYQF 061500Z 21003KT 15SM SKC 08/07 A3017 RMK SLP238

CYQF;2012-09-06 16:00;CYQF 061600Z 29002KT 15SM FEW240 10/08 A3017 RMK CI1 SLP238

CYQF;2012-09-06 17:00;CYQF 061700Z 00000KT 15SM FEW056 FEW240 13/09 A3016 RMK CU1CI1 SLP237

CYQF;2012-09-06 18:00;CYQF 061800Z 34002KT 15SM FEW032 FEW240 15/08 A3016 RMK CU1CI1 SLP228

CYQF;2012-09-06 19:00;CYQF 061900Z 20006KT 15SM SCT038 SCT240 17/07 A3015 RMK CU3CI1 SLP225

CYQF;2012-09-06 20:00;CYQF 062000Z 21003KT 15SM FEW048 18/06 A3013 RMK CU2 SLP219

CYQF;2012-09-06 21:00;CYQF 062100Z 18006KT 15SM FEW048 FEW240 19/06 A3012 RMK CU1CI1 SLP215

CYQF;2012-09-06 22:00;CYQF 062200Z 19008KT 15SM FEW050 20/06 A3011 RMK CU1 SLP210

CYQF;2012-09-06 23:00;CYQF 062300Z 19006KT 15SM SKC 20/05 A3010 RMK SLP207

CYQF;2012-09-07 00:00;CYQF 070000Z 21005KT 15SM SKC 20/05 A3009 RMK SLP206

CYQF;2012-09-07 01:00;CYQF 070100Z 18004KT 15SM SKC 19/06 A3009 RMK SLP204

CYQF;2012-09-07 02:00;CYQF 070200Z 00000KT 15SM SKC 17/06 A3008 RMK SLP203

CYQF;2012-09-07 03:00;CYQF 070300Z 00000KT 15SM SKC 12/06 A3009 RMK SLP210

CYQF;2012-09-07 04:00;CYQF 070400Z 18003KT 15SM SKC 10/06 A3010 RMK SLP211

CYQF;2012-09-07 05:00;CYQF 070500Z 19004KT 15SM SKC 09/05 A3010 RMK SLP212

CYQF;2012-09-07 06:00;CYQF 070600Z 19005KT 15SM SKC 07/03 A3011 RMK SLP211

CYQF;2012-09-07 07:00;CYQF 070700Z 19004KT 15SM SKC 08/04 A3011 RMK SLP211

CYQF;2012-09-07 08:00;CYQF 070800Z 21005KT 15SM SKC 07/03 A3010 RMK SLP210

CYQF;2012-09-07 09:00;CYQF 070900Z 00000KT 15SM SKC 05/02 A3010 RMK SLP207

CYQF;2012-09-07 10:00;CYQF 071000Z 20002KT 15SM SKC 05/02 A3010 RMK SLP208

CYQF;2012-09-07 11:00;CYQF 071100Z 20002KT 15SM SKC 04/02 A3011 RMK SLP211

CYQF;2012-09-07 12:00;CYQF 071200Z 20004KT 15SM SKC 03/01 A3012 RMK SLP215

CYQF;2012-09-07 13:00;CYQF 071300Z 21004KT 15SM SKC 04/02 A3013 RMK SLP217

CYQF;2012-09-07 14:00;CYQF 071400Z 21004KT 15SM SKC 05/03 A3014 RMK SLP221

CYQF;2012-09-07 15:00;CYQF 071500Z 22003KT 15SM FEW240 09/06 A3015 RMK CI1 SLP228

CYQF;2012-09-07 16:00;CYQF 071600Z 26003KT 15SM FEW240 13/08 A3016 RMK CI1 SLP232

CYQF;2012-09-07 17:00;CYQF 071700Z 24003KT 15SM FEW240 18/09 A3017 RMK CI1 SLP235

CYQF;2012-09-07 18:00;CYQF 071800Z 24004KT 15SM FEW240 21/10 A3018 RMK CI1 SLP230

CYQF;2012-09-07 19:00;CYQF 071900Z 28010G15KT 15SM FEW240 23/10 A3017 RMK CI1 SLP229

CYQF;2012-09-07 20:00;CYQF 072000Z 34011KT 15SM FEW240 23/07 A3019 RMK CI1 SLP234

CYQF;2012-09-07 21:00;CYQF 072100Z 03010KT 15SM FEW250 24/09 A3020 RMK CI1 SLP236

CYQF;2012-09-07 22:00;CYQF 072200Z 33007KT 15SM FEW250 24/08 A3020 RMK CI0 SLP235

CYQF;2012-09-07 23:00;CYQF 072300Z 01010KT 15SM FEW250 23/09 A3021 RMK CI1 SLP238

CYQF;2012-09-08 00:00;CYQF 080000Z 02010G15KT 15SM FEW250 22/08 A3022 RMK CI1 SLP246

CYQF;2012-09-08 01:00;CYQF 080100Z 35005KT 15SM SCT250 21/07 A3022 RMK CI1 SLP248

CYQF;2012-09-08 02:00;CYQF 080200Z 04008KT 15SM FEW250 19/06 A3024 RMK CI1 SLP252

CYQF;2012-09-08 03:00;CYQF 080300Z 05004KT 15SM FEW250 16/07 A3026 RMK CI1 SLP261

CYQF;2012-09-08 04:00;CYQF 080400Z 04003KT 15SM SKC 14/07 A3027 RMK SLP265

CYQF;2012-09-08 05:00;CYQF 080500Z 00000KT 15SM SKC 13/07 A3027 RMK SLP266

CYQF;2012-09-08 06:00;CYQF 080600Z 00000KT 15SM SKC 11/07 A3027 RMK SLP258

CYQF;2012-09-08 07:00;CYQF 080700Z 22003KT 15SM SKC 09/05 A3027 RMK SLP256

CYQF;2012-09-08 08:00;CYQF 080800Z 00000KT 15SM SKC 09/06 A3026 RMK SLP255

CYQF;2012-09-08 09:00;CYQF 080900Z 00000KT 15SM SKC 08/06 A3025 RMK SLP251

CYQF;2012-09-08 10:00;CYQF 081000Z 15003KT 15SM SKC 08/06 A3024 RMK SLP246

CYQF;2012-09-08 11:00;CYQF 081100Z 00000KT 15SM SKC 07/05 A3022 RMK SLP242

CYQF;2012-09-08 12:00;CYQF 081200Z 17010KT 15SM SKC 10/07 A3020 RMK SLP234

CYQF;2012-09-08 13:00;CYQF 081300Z 16008KT 15SM SKC 09/07 A3018 RMK SLP228

CYQF;2012-09-08 14:00;CYQF 081400Z 17008KT 15SM SKC 10/08 A3016 RMK SLP222

CYQF;2012-09-08 15:00;CYQF 081500Z 18010G15KT 15SM SKC 12/09 A3015 RMK SLP220

CYQF;2012-09-08 16:00;CYQF 081600Z 18015G20KT 15SM SKC 15/09 A3013 RMK SLP214

CYQF;2012-09-08 17:00;CYQF 081700Z 19010G15KT 15SM SKC 16/09 A3011 RMK SLP207

CYQF;2012-09-08 18:00;CYQF 081800Z 19010G15KT 15SM FEW250 18/09 A3009 RMK CI1 SLP196

CYQF;2012-09-08 19:00;CYQF 081900Z 18006KT 15SM FEW250 21/10 A3006 RMK CI0 SLP188

CYQF;2012-09-08 20:00;CYQF 082000Z 18010KT 15SM FEW250 23/10 A3004 RMK CI0 SLP180

CYQF;2012-09-08 21:00;CYQF 082100Z 16010KT 15SM FEW250 25/09 A3000 RMK CI0 SLP164

CYQF;2012-09-08 22:00;CYQF 082200Z 18004KT 15SM SCT250 26/08 A2997 RMK CI0 SLP154

CYQF;2012-09-08 23:00;CYQF 082300Z 22002KT 15SM FEW250 27/08 A2995 RMK CI1 SLP146

CYQF;2012-09-09 00:00;CYQF 090000Z 00000KT 15SM FEW250 27/06 A2992 RMK CI1 SLP132

CYQF;2012-09-09 01:00;CYQF 090100Z 13004KT 15SM FEW250 25/09 A2990 RMK CI1 SLP125

CYQF;2012-09-09 02:00;CYQF 090200Z 00000KT 15SM FEW120 SCT250 19/10 A2989 RMK AC2CI1 SLP122

CYQF;2012-09-09 03:00;CYQF 090300Z 00000KT 15SM FEW120 BKN250 18/09 A2988 RMK AC2CI1 SLP125

CYQF;2012-09-09 04:00;CYQF 090400Z 00000KT 15SM FEW120 BKN250 16/09 A2986 RMK AC2CI1 SLP119

CYQF;2012-09-09 05:00;CYQF 090500Z 00000KT 15SM SCT250 15/09 A2985 RMK CI2 SLP114

CYQF;2012-09-09 06:00;CYQF 090600Z 00000KT 15SM FEW250 12/08 A2984 RMK CI1 SLP109

CYQF;2012-09-09 07:00;CYQF 090700Z 00000KT 15SM BKN250 11/08 A2984 RMK CI2 SLP110

CYQF;2012-09-09 08:00;CYQF 090800Z 00000KT 15SM BKN250 10/07 A2984 RMK CI2 SLP109

CYQF;2012-09-09 09:00;CYQF 090900Z 20003KT 15SM BKN250 10/07 A2983 RMK CI3 SLP102

CYQF;2012-09-09 10:00;CYQF 091000Z 20005KT 15SM BKN250 09/07 A2982 RMK CI2 SLP100

CYQF;2012-09-09 11:00;CYQF 091100Z 00000KT 15SM BKN250 09/07 A2982 RMK CI2 SLP100

CYQF;2012-09-09 12:00;CYQF 091200Z 23003KT 15SM BKN250 09/06 A2982 RMK CI2 SLP099

CYQF;2012-09-09 13:00;CYQF 091300Z 21005KT 15SM SCT100 BKN250 08/05 A2981 RMK AC3CI2 SLP096

CYQF;2012-09-09 14:00;CYQF 091400Z 20004KT 15SM SCT100 BKN250 09/05 A2980 RMK AC3CI2 SLP093

CYQF;2012-09-09 15:00;CYQF 091500Z 21005KT 15SM SCT100 BKN250 13/07 A2979 RMK AC3CI2 SLP093

CYQF;2012-09-09 16:00;CYQF 091600Z 00000KT 15SM FEW100 BKN250 14/09 A2978 RMK AC2CI3 SLP089

CYQF;2012-09-09 17:00;CYQF 091700Z 21005KT 15SM FEW100 BKN250 18/08 A2976 RMK AC2CI3 SLP084

CYQF;2012-09-09 18:00;CYQF 091800Z 21005KT 15SM FEW100 FEW250 22/08 A2973 RMK AC1CI2 SLP068

CYQF;2012-09-09 19:00;CYQF 091900Z 21004KT 15SM FEW073 BKN250 26/06 A2969 RMK CU2CI2 SLP055

CYQF;2012-09-09 20:00;CYQF 092000Z 17010G15KT 15SM FEW090 BKN250 27/04 A2966 RMK CU2CI2 SLP047

CYQF;2012-09-09 21:00;CYQF 092100Z 17012KT 15SM FEW090 BKN250 27/03 A2962 RMK CU2CI2 SLP027

CYQF;2012-09-09 22:00;CYQF 092200Z 17006KT 15SM VCSH BKN080 BKN250 26/06 A2958 RMK CU6CI1 SLP015

CYQF;2012-09-09 22:28;CYQF 092228Z 28020G30KT 15SM -SHRA BKN080 BKN250 RMK CU6CI1

CYQF;2012-09-09 23:00;CYQF 092300Z 29010KT 15SM BKN080 BKN250 23/10 A2957 RMK CU6CI1 SLP011

CYQF;2012-09-09 23:48;CYQF 092348Z 26010KT 15SM TS VCSH BKN080CB BKN250 RMK CB6CI1

CYQF;2012-09-09 23:54;CYQF 092354Z 22006KT 15SM -TSRA BKN080CB BKN250 RMK CB6CI1

CYQF;2012-09-10 00:00;CYQF 100000Z 22010KT 15SM -TSRA BKN080CB BKN250 19/10 A2964 RMK CB6CI1 SLP044

CYQF;2012-09-10 01:00;CYQF 100100Z 00000KT 15SM -TSRA BKN060CB BKN250 15/10 A2963 RMK CB6CI1 SLP041

CYQF;2012-09-10 01:22;CYQF 100122Z 00000KT 15SM -SHRA BKN060CB BKN250 RETS RMK CB6CI2

CYQF;2012-09-10 02:00;CYQF 100200Z 13005KT 15SM FEW060CB SCT100 BKN250 14/11 A2959 RETS RMK CB2AC2CI2 SLP029

CYQF;2012-09-10 03:00;CYQF 100300Z 21006KT 15SM FEW040 SCT100 BKN250 12/10 A2958 RMK CU1AC2CI2 SLP027

CYQF;2012-09-10 04:00;CYQF 100400Z 24006KT 15SM FEW100 11/09 A2957 RMK AC1 SLP025

CYQF;2012-09-10 05:00;CYQF 100500Z 22008KT 15SM FEW100 10/08 A2956 RMK AC1 SLP022

CYQF;2012-09-10 06:00;CYQF 100600Z 19004KT 15SM SKC 09/06 A2956 RMK SLP013

CYQF;2012-09-10 07:00;CYQF 100700Z 23007KT 15SM SKC 08/05 A2956 RMK SLP011

CYQF;2012-09-10 08:00;CYQF 100800Z 21004KT 15SM SKC 08/04 A2956 RMK SLP011

CYQF;2012-09-10 09:00;CYQF 100900Z 24006KT 15SM SKC 06/03 A2955 RMK SLP008

CYQF;2012-09-10 10:00;CYQF 101000Z 22006KT 15SM SKC 07/03 A2955 RMK SLP007

CYQF;2012-09-10 11:00;CYQF 101100Z 20006KT 15SM SKC 07/03 A2954 RMK SLP005

CYQF;2012-09-10 12:00;CYQF 101200Z 21004KT 15SM FEW080 FEW250 07/03 A2954 RMK AC1CI0 SLP010

CYQF;2012-09-10 13:00;CYQF 101300Z 00000KT 15SM FEW050 BKN100 07/04 A2954 RMK CU1AC5 SLP012

CYQF;2012-09-10 14:00;CYQF 101400Z 20005KT 15SM FEW060 SCT100 BKN250 07/05 A2954 RMK CU1AC2CI2 SLP012

CYQF;2012-09-10 15:00;CYQF 101500Z 00000KT 15SM FEW050 SCT100 11/06 A2953 RMK CU1AC2 SLP013

CYQF;2012-09-10 16:00;CYQF 101600Z 23004KT 15SM FEW060 FEW100 14/08 A2954 RMK CU1AC1 SLP014

CYQF;2012-09-10 17:00;CYQF 101700Z 36010KT 15SM FEW060 FEW100 15/09 A2952 RMK CU1AC2 SLP010

CYQF;2012-09-10 18:00;CYQF 101800Z 35007KT 15SM FEW060 FEW100 17/09 A2953 RMK CU1AC2 SLP008

CYQF;2012-09-10 19:00;CYQF 101900Z 36010G15KT 15SM BKN030 16/09 A2953 RMK CU6 LTNG W SLP009

CYQF;2012-09-10 20:00;CYQF 102000Z 30025G43KT 8SM SHGRRA OVC020CB 07/03 A2960 RMK CB8 HAIL DIAM 8MM PRESRR SLP029

CYQF;2012-09-10 20:03;CYQF 102003Z 33030G40KT 3SM TSRAGR OVC020CB RMK CB8 HAIL DIAM 8 MM PRESRR

CYQF;2012-09-10 20:17;CYQF 102017Z 30014G24KT 4SM -TSRA OVC020CB RMK CB8 REGR

CYQF;2012-09-10 20:47;CYQF 102047Z 29010G15KT 6SM -SHRA BR OVC020CB RMK CB8

CYQF;2012-09-10 21:00;CYQF 102100Z 31017G28KT 5SM -SHRA BR FEW007 OVC016CB 05/05 A2970 RMK SF2CB6 RETS REGR PRESRR SLP085

CYQF;2012-09-10 22:00;CYQF 102200Z 33010G15KT 15SM FEW007 BKN020CB 06/06 A2968 RMK SF1CB6 SLP077

CYQF;2012-09-10 23:00;CYQF 102300Z 30009KT 15SM FEW007 SCT020CB BKN100 08/07 A2970 RMK SF1CB2AC4 SLP083

CYQF;2012-09-11 00:00;CYQF 110000Z 30008KT 15SM FEW020CB BKN100 BKN250 08/06 A2971 RMK CB2AC3CI2 SLP084

CYQF;2012-09-11 01:00;CYQF 110100Z 27010G15KT 15SM FEW020CB BKN100 BKN250 07/04 A2975 RMK CB2AC3CI2 SLP094

CYQF;2012-09-11 02:00;CYQF 110200Z 27003KT 15SM SCT100 BKN250 07/04 A2974 RMK AC4CI2 VIRGA SLP093

CYQF;2012-09-11 03:00;CYQF 110300Z 24005KT 15SM FEW100 SCT250 05/02 A2977 RMK AC2CI1 SLP102

CYQF;2012-09-11 04:00;CYQF 110400Z 23008KT 15SM FEW100 SCT250 05/02 A2978 RMK AC2CI1 SLP107

CYQF;2012-09-11 05:00;CYQF 110500Z 23007KT 15SM FEW090 04/01 A2979 RMK AC1 SLP110

CYQF;2012-09-11 06:00;CYQF 110600Z 24006KT 15SM SKC 03/00 A2980 RMK SLP110

CYQF;2012-09-11 07:00;CYQF 110700Z 25007KT 15SM SKC 03/M01 A2980 RMK SLP109

CYQF;2012-09-11 08:00;CYQF 110800Z 31003KT 15SM SKC 02/M02 A2982 RMK SLP114

CYQF;2012-09-11 09:00;CYQF 110900Z 30004KT 15SM SKC 01/M03 A2982 RMK SLP132

CYQF;2012-09-11 10:00;CYQF 111000Z 26008KT 15SM SKC 01/M03 A2983 RMK SLP134

CYQF;2012-09-11 11:00;CYQF 111100Z 26006KT 15SM SKC 01/M03 A2985 RMK SLP139

CYQF;2012-09-11 12:00;CYQF 111200Z 25004KT 15SM SKC M01/M04 A2986 RMK SLP144

CYQF;2012-09-11 13:00;CYQF 111300Z 27007KT 15SM SCT100 01/M04 A2988 RMK AC2 SLP150

CYQF;2012-09-11 14:00;CYQF 111400Z 26004KT 15SM SCT100 01/M04 A2990 RMK AC2 SLP155

CYQF;2012-09-11 15:00;CYQF 111500Z 28007KT 15SM FEW100 SCT250 05/M01 A2992 RMK AC2CI0 SLP161

CYQF;2012-09-11 16:00;CYQF 111600Z 30008KT 15SM FEW100 BKN250 08/M01 A2994 RMK AC1CI1 SLP167

CYQF;2012-09-11 17:00;CYQF 111700Z 32005KT 15SM FEW040 FEW100 SCT250 11/M01 A2994 RMK CU1AC1CI0 SLP168

CYQF;2012-09-11 17:05;CYQF 111705Z 32015G25KT 15SM FEW040 FEW100 SCT250 RMK CU1AC1CI0

CYQF;2012-09-11 18:00;CYQF 111800Z 30015G25KT 15SM FEW050 SCT100 BKN250 11/M03 A2995 RMK CU2AC1CI0 SLP169

CYQF;2012-09-11 19:00;CYQF 111900Z 30012G18KT 15SM FEW050 SCT250 12/M02 A2995 RMK CU2CI0 SLP169

CYQF;2012-09-11 20:00;CYQF 112000Z 31020G30KT 15SM VCSH SCT060 BKN250 13/M03 A2995 RMK CU4CI0 SLP167

CYQF;2012-09-11 21:00;CYQF 112100Z 30015G25KT 15SM BKN060 BKN250 14/M03 A2995 RMK CU5CI0 SLP167

CYQF;2012-09-11 22:00;CYQF 112200Z 29015G25KT 15SM SCT070 BKN250 15/M04 A2995 RMK CU4CI0 SLP166

CYQF;2012-09-11 23:00;CYQF 112300Z 27015G22KT 15SM SCT073 14/M04 A2996 RMK CU4 VIRGA ALQDS SLP170

CYQF;2012-09-12 00:00;CYQF 120000Z 31010G18KT 15SM FEW066 13/M03 A2998 RMK CU2 VIRGA SLP180

CYQF;2012-09-12 01:00;CYQF 120100Z 32010KT 15SM FEW065 12/M04 A3001 RMK SC2 CU ASOCTD VIRGA SLP187

CYQF;2012-09-12 02:00;CYQF 120200Z 35005KT 15SM FEW065 SCT250 08/M02 A3003 RMK SC2CI0 VIRGA SLP195

CYQF;2012-09-12 03:00;CYQF 120300Z 29005KT 15SM FEW065 06/M01 A3006 RMK SC1 SLP209

CYQF;2012-09-12 04:00;CYQF 120400Z 30005KT 15SM FEW060 06/M03 A3010 RMK SC1 SLP221

CYQF;2012-09-12 05:00;CYQF 120500Z 28005KT 15SM SKC 06/M03 A3012 RMK SLP227

CYQF;2012-09-12 06:00;CYQF 120600Z 28006KT 15SM SKC 04/M04 A3014 RMK SLP232

CYQF;2012-09-12 07:00;CYQF 120700Z 29006KT 15SM SKC 04/M04 A3016 RMK SLP237

CYQF;2012-09-12 08:00;CYQF 120800Z 27004KT 15SM SKC 03/M04 A3017 RMK SLP242

CYQF;2012-09-12 09:00;CYQF 120900Z 30004KT 15SM SCT060 05/M03 A3019 RMK SC3 SLP243

CYQF;2012-09-12 10:00;CYQF 121000Z 26004KT 15SM FEW060 02/M02 A3019 RMK SC2 SLP245

CYQF;2012-09-12 11:00;CYQF 121100Z 23006KT 15SM FEW060 01/M03 A3021 RMK SC2 SLP250

CYQF;2012-09-12 12:00;CYQF 121200Z 25006KT 15SM SCT060 02/M03 A3022 RMK SC3 SLP258

CYQF;2012-09-12 13:00;CYQF 121300Z 25006KT 15SM BKN090 01/M02 A3024 RMK AC6 SLP264

CYQF;2012-09-12 14:00;CYQF 121400Z 22003KT 15SM BKN090 03/M01 A3025 RMK AC6 SLP268

CYQF;2012-09-12 15:00;CYQF 121500Z 21003KT 15SM BKN100 05/M01 A3025 RMK AC5 SLP276

CYQF;2012-09-12 16:00;CYQF 121600Z 25006KT 15SM FEW250 08/M00 A3026 RMK CI1 SLP278

CYQF;2012-09-12 17:00;CYQF 121700Z 24003KT 15SM BKN250 11/M00 A3025 RMK CI2 SLP276

CYQF;2012-09-12 18:00;CYQF 121800Z 24004KT 15SM BKN250 13/M01 A3024 RMK CI2 SLP262

CYQF;2012-09-12 19:00;CYQF 121900Z 20006KT 15SM BKN250 14/M03 A3023 RMK CI2 CONTRAILS SLP259

CYQF;2012-09-12 20:00;CYQF 122000Z 23013KT 15SM BKN250 15/M03 A3021 RMK CI3 SLP253

CYQF;2012-09-12 21:00;CYQF 122100Z 23006KT 15SM BKN250 16/M02 A3018 RMK CI2 SLP240

CYQF;2012-09-12 22:00;CYQF 122200Z 00000KT 15SM FEW077 BKN250 17/M03 A3016 RMK CF1CI1 CF TR SLP232

CYQF;2012-09-12 23:00;CYQF 122300Z 22005KT 15SM FEW080 BKN250 17/M01 A3013 RMK AC1CI2 SLP224

CYQF;2012-09-13 00:00;CYQF 130000Z 21006KT 15SM BKN080 17/M01 A3012 RMK AC5 SLP219

CYQF;2012-09-13 01:00;CYQF 130100Z 18005KT 15SM BKN080 BKN250 16/00 A3011 RMK AC6CI0 SLP216

CYQF;2012-09-13 02:00;CYQF 130200Z 29008KT 15SM OVC075 14/02 A3012 RMK AC8 SLP219

CYQF;2012-09-13 03:00;CYQF 130300Z 28005KT 15SM OVC075 15/02 A3014 RMK AC8 SLP225

CYQF;2012-09-13 04:00;CYQF 130400Z 31007KT 15SM BKN075 13/04 A3015 RMK AC7 SLP229

CYQF;2012-09-13 05:00;CYQF 130500Z 29004KT 15SM OVC075 11/03 A3015 RMK AC8 SLP231

CYQF;2012-09-13 06:00;CYQF 130600Z 25005KT 15SM SCT075 09/03 A3016 RMK AC3 SLP231

CYQF;2012-09-13 07:00;CYQF 130700Z 00000KT 15SM SKC 07/02 A3017 RMK SLP235

CYQF;2012-09-13 08:00;CYQF 130800Z 19004KT 15SM SKC 05/02 A3019 RMK SLP241

CYQF;2012-09-13 09:00;CYQF 130900Z 19002KT 15SM SKC 05/02 A3021 RMK SLP249

CYQF;2012-09-13 10:00;CYQF 131000Z 19004KT 15SM SKC 04/02 A3022 RMK SLP253

CYQF;2012-09-13 11:00;CYQF 131100Z 20006KT 15SM FEW080 03/01 A3023 RMK AC1 SLP255

CYQF;2012-09-13 12:00;CYQF 131200Z 20006KT 15SM FEW080 03/00 A3024 RMK AC2 SLP259

CYQF;2012-09-13 13:00;CYQF 131300Z 20003KT 15SM FEW080 SCT250 04/01 A3026 RMK AC2CI2 SLP266

CYQF;2012-09-13 14:00;CYQF 131400Z 19004KT 15SM FEW080 BKN250 05/02 A3026 RMK AC2CI4 SLP267

CYQF;2012-09-13 15:00;CYQF 131500Z 24004KT 15SM SCT080 BKN250 07/04 A3028 RMK AC3CI2 SLP273

CYQF;2012-09-13 16:00;CYQF 131600Z 19004KT 15SM FEW080 FEW250 13/04 A3029 RMK AC1CI0 SLP274

CYQF;2012-09-13 17:00;CYQF 131700Z 00000KT 15SM FEW250 17/06 A3029 RMK CI0 SLP275

CYQF;2012-09-13 18:00;CYQF 131800Z 00000KT 15SM FEW250 19/05 A3028 RMK CI1 SLP267

CYQF;2012-09-13 19:00;CYQF 131900Z 07003KT 15SM FEW250 21/06 A3027 RMK CI1 SLP263

CYQF;2012-09-13 20:00;CYQF 132000Z 00000KT 15SM FEW065 21/04 A3025 RMK CU1 SLP258

CYQF;2012-09-13 21:00;CYQF 132100Z 21006KT 15SM FEW075 23/04 A3024 RMK CU1 SLP250

CYQF;2012-09-13 22:00;CYQF 132200Z 20007KT 15SM FEW075 23/05 A3022 RMK CU1 SLP244

CYQF;2012-09-13 23:00;CYQF 132300Z 16006KT 15SM FEW080 24/04 A3019 RMK AC1 SLP237

CYQF;2012-09-14 00:00;CYQF 140000Z 17007KT 15SM FEW080 24/04 A3017 RMK AC1 SLP228

CYQF;2012-09-14 01:00;CYQF 140100Z 15006KT 15SM FEW080 22/06 A3015 RMK AC1 SLP224

CYQF;2012-09-14 02:00;CYQF 140200Z 12005KT 15SM SKC 18/06 A3014 RMK SLP220

CYQF;2012-09-14 03:00;CYQF 140300Z 14005KT 15SM SKC 16/04 A3014 RMK SLP221

CYQF;2012-09-14 04:00;CYQF 140400Z 17004KT 15SM SKC 14/04 A3013 RMK SLP218

CYQF;2012-09-14 05:00;CYQF 140500Z 19007KT 15SM SKC 12/04 A3012 RMK SLP215

CYQF;2012-09-14 06:00;CYQF 140600Z 22002KT 15SM SKC 10/04 A3011 RMK SLP207

CYQF;2012-09-14 07:00;CYQF 140700Z 20006KT 15SM SKC 08/03 A3009 RMK SLP201

CYQF;2012-09-14 08:00;CYQF 140800Z 20004KT 15SM SKC 08/03 A3008 RMK SLP197

CYQF;2012-09-14 09:00;CYQF 140900Z 21003KT 15SM SKC 06/02 A3006 RMK SLP189

CYQF;2012-09-14 10:00;CYQF 141000Z 20004KT 15SM SKC 06/02 A3005 RMK SLP186

CYQF;2012-09-14 11:00;CYQF 141100Z 19004KT 15SM SKC 04/01 A3003 RMK SLP179

CYQF;2012-09-14 12:00;CYQF 141200Z 20004KT 15SM SKC 03/00 A3002 RMK SLP178

CYQF;2012-09-14 13:00;CYQF 141300Z 00000KT 15SM FEW080 05/01 A3001 RMK AC2 SLP174

CYQF;2012-09-14 14:00;CYQF 141400Z 22003KT 15SM FEW090 BKN250 04/02 A3000 RMK AC1CI2 SLP171

CYQF;2012-09-14 15:00;CYQF 141500Z 23002KT 15SM FEW090 FEW250 09/04 A2999 RMK AC1CI2 SLP168

CYQF;2012-09-14 16:00;CYQF 141600Z 21003KT 15SM FEW090 FEW250 13/05 A2999 RMK AC1CI1 SLP166

CYQF;2012-09-14 17:00;CYQF 141700Z 20005KT 15SM FEW090 SCT250 18/06 A2997 RMK AC2CI2 SLP161

CYQF;2012-09-14 18:00;CYQF 141800Z 24004KT 15SM BKN250 19/06 A2996 RMK CI6 SLP154

CYQF;2012-09-14 19:00;CYQF 141900Z 28006KT 15SM BKN250 22/07 A2995 RMK CI6 SLP149

CYQF;2012-09-14 20:00;CYQF 142000Z 30007KT 15SM SCT250 24/06 A2993 RMK CI2 SLP145

CYQF;2012-09-14 21:00;CYQF 142100Z 29009KT 15SM BKN250 25/05 A2992 RMK CI6 SLP138

CYQF;2012-09-14 22:00;CYQF 142200Z 34006KT 15SM BKN250 25/04 A2991 RMK CI7 SLP133

CYQF;2012-09-14 23:00;CYQF 142300Z 36005KT 15SM BKN250 24/06 A2990 RMK CI7 SLP132

CYQF;2012-09-15 00:00;CYQF 150000Z 02006KT 15SM FEW120 BKN250 23/04 A2990 RMK AC2CI4 SLP137

CYQF;2012-09-15 01:00;CYQF 150100Z 03002KT 15SM FEW120 BKN250 22/05 A2991 RMK AC2CI3 SLP138

CYQF;2012-09-15 02:00;CYQF 150200Z 00000KT 15SM FEW120 BKN250 17/07 A2992 RMK AC2CI3 SLP141

CYQF;2012-09-15 03:00;CYQF 150300Z 00000KT 15SM BKN250 13/07 A2995 RMK CI3 SLP155

CYQF;2012-09-15 04:00;CYQF 150400Z 28005KT 15SM SCT250 11/05 A2996 RMK CI2 SLP161

CYQF;2012-09-15 05:00;CYQF 150500Z 34004KT 15SM FEW250 11/05 A3001 RMK CI1 SLP174

CYQF;2012-09-15 06:00;CYQF 150600Z 00000KT 15SM SKC 10/05 A3004 RMK SLP181

CYQF;2012-09-15 07:00;CYQF 150700Z 36002KT 15SM SKC 08/03 A3007 RMK SLP191

CYQF;2012-09-15 08:00;CYQF 150800Z 02004KT 15SM SKC 09/02 A3009 RMK SLP198

CYQF;2012-09-15 09:00;CYQF 150900Z 34004KT 15SM SKC 08/01 A3011 RMK SLP202

CYQF;2012-09-15 10:00;CYQF 151000Z 29005KT 15SM SKC 05/01 A3013 RMK SLP207

CYQF;2012-09-15 11:00;CYQF 151100Z 28004KT 15SM SKC 04/01 A3015 RMK SLP212

CYQF;2012-09-15 12:00;CYQF 151200Z 28002KT 15SM FEW080 03/01 A3016 RMK AC1 SLP227

CYQF;2012-09-15 13:00;CYQF 151300Z 20003KT 15SM FEW080 FEW250 03/M00 A3018 RMK AC1CI0 SLP231

CYQF;2012-09-15 14:00;CYQF 151400Z 21003KT 15SM FEW080 BKN250 03/00 A3019 RMK AC1CI2 SLP235

CYQF;2012-09-15 15:00;CYQF 151500Z 19003KT 15SM FEW080 BKN250 07/02 A3019 RMK AC1CI2 SLP243

CYQF;2012-09-15 16:00;CYQF 151600Z 00000KT 15SM FEW080 BKN250 10/04 A3020 RMK AC1CI4 SLP245

CYQF;2012-09-15 17:00;CYQF 151700Z 00000KT 15SM FEW080 BKN250 14/04 A3019 RMK AC1CI5 SLP243

CYQF;2012-09-15 18:00;CYQF 151800Z 19006KT 15SM FEW080 BKN250 15/00 A3019 RMK AC1CS3 HALO SLP236

CYQF;2012-09-15 19:00;CYQF 151900Z 17006KT 15SM FEW150 BKN250 17/01 A3017 RMK AC2CI2 SLP232

CYQF;2012-09-15 20:00;CYQF 152000Z 15004KT 15SM FEW059 FEW150 FEW250 17/M00 A3015 RMK CU1AC1CI1 CU TR SLP226

CYQF;2012-09-15 21:00;CYQF 152100Z 14010KT 15SM FEW077 FEW150 FEW250 19/M01 A3014 RMK CU1AC1CI2 SLP217

CYQF;2012-09-15 22:00;CYQF 152200Z 15011KT 15SM FEW075 FEW150 BKN250 19/M01 A3013 RMK CU1AC1CI1 SLP214

CYQF;2012-09-15 23:00;CYQF 152300Z 00000KT 15SM BKN090 BKN250 19/M01 A3012 RMK AC5CI1 VIRGA SLP213

CYQF;2012-09-16 00:00;CYQF 160000Z 07008KT 15SM SCT090 BKN250 18/01 A3013 RMK AC4CI1 SLP220

CYQF;2012-09-16 01:00;CYQF 160100Z 06008KT 15SM SCT100 BKN250 16/01 A3013 RMK AC4CI1 SLP222

CYQF;2012-09-16 02:00;CYQF 160200Z 06006KT 15SM BKN100 14/01 A3016 RMK AC6 SLP232

CYQF;2012-09-16 03:00;CYQF 160300Z 05010G15KT 15SM BKN100 13/00 A3019 RMK AC7 SLP244

CYQF;2012-09-16 04:00;CYQF 160400Z 05008KT 15SM OVC100 13/00 A3023 RMK AC8 SLP255

CYQF;2012-09-16 04:13;CYQF 160413Z 05009KT 12SM -SHRA OVC080 RMK AC8

CYQF;2012-09-16 05:00;CYQF 160500Z 06006KT 15SM BKN100 OVC200 12/02 A3025 RMK AC6CI2 OCNL -SHRA SLP261

CYQF;2012-09-16 06:00;CYQF 160600Z 24003KT 15SM -SHRA BKN075 11/05 A3025 RMK AC7 SLP259

CYQF;2012-09-16 06:36;CYQF 160636Z 36009KT 15SM OVC075 RMK AC8

CYQF;2012-09-16 07:00;CYQF 160700Z 36005KT 15SM OVC075 10/05 A3026 RMK AC8 SLP260

CYQF;2012-09-16 08:00;CYQF 160800Z 27007KT 15SM OVC075 10/05 A3028 RMK AC8 SLP266

CYQF;2012-09-16 09:00;CYQF 160900Z 29006KT 15SM OVC075 09/05 A3029 RMK AC8 SLP270

CYQF;2012-09-16 10:00;CYQF 161000Z 30004KT 15SM OVC075 08/04 A3030 RMK AC8 SLP272

CYQF;2012-09-16 11:00;CYQF 161100Z 29002KT 15SM BKN075 07/04 A3030 RMK AC6 SLP273

CYQF;2012-09-16 12:00;CYQF 161200Z 34002KT 15SM BKN075 06/03 A3032 RMK AC6 SLP283

CYQF;2012-09-16 13:00;CYQF 161300Z 00000KT 15SM BKN080 05/03 A3032 RMK AC6 SLP282

CYQF;2012-09-16 14:00;CYQF 161400Z 00000KT 15SM BKN080 BKN250 05/02 A3033 RMK AC5CI1 SLP285

CYQF;2012-09-16 15:00;CYQF 161500Z 00000KT 15SM SCT080 BKN250 08/04 A3033 RMK AC4CI1 SLP290

CYQF;2012-09-16 16:00;CYQF 161600Z 00000KT 15SM SCT080 OVC250 10/04 A3034 RMK AC3CI0 SLP292

CYQF;2012-09-16 17:00;CYQF 161700Z 00000KT 15SM SCT080 BKN250 12/03 A3033 RMK AC2CI2 SLP290

CYQF;2012-09-16 18:00;CYQF 161800Z 08002KT 15SM BKN090 BKN250 13/03 A3032 RMK AC5CI2 SLP285

CYQF;2012-09-16 19:00;CYQF 161900Z 12003KT 15SM FEW090 BKN250 14/03 A3031 RMK AC2CI3 SLP281

CYQF;2012-09-16 20:00;CYQF 162000Z 00000KT 15SM FEW050 FEW090 BKN250 16/03 A3030 RMK CU1AC1CI2 SLP277

CYQF;2012-09-16 21:00;CYQF 162100Z 00000KT 15SM FEW060 BKN250 16/01 A3027 RMK CU2CI2 SLP266

CYQF;2012-09-16 22:00;CYQF 162200Z 05002KT 15SM FEW055 BKN250 15/01 A3026 RMK CU2CI2 SLP261

CYQF;2012-09-16 23:00;CYQF 162300Z 09002KT 15SM FEW055 BKN250 16/02 A3024 RMK CU2CI2 SLP255

CYQF;2012-09-17 00:00;CYQF 170000Z 19002KT 15SM FEW050 SCT250 16/03 A3023 RMK CU1CI1 SLP254

CYQF;2012-09-17 01:00;CYQF 170100Z 09006KT 15SM FEW250 14/03 A3022 RMK CI2 SLP251

CYQF;2012-09-17 02:00;CYQF 170200Z 08004KT 15SM BKN250 12/03 A3022 RMK CI5 SLP250

CYQF;2012-09-17 03:00;CYQF 170300Z 13004KT 15SM BKN250 11/03 A3022 RMK CI7 SLP253

CYQF;2012-09-17 04:00;CYQF 170400Z 15004KT 15SM SCT100 OVC250 11/03 A3020 RMK AC3CI5 SLP249

CYQF;2012-09-17 05:00;CYQF 170500Z 17005KT 15SM SCT100 OVC250 10/03 A3021 RMK AC3CI5 SLP250

CYQF;2012-09-17 06:00;CYQF 170600Z 15004KT 15SM FEW100 SCT250 09/02 A3019 RMK AC2CI2 SLP242

CYQF;2012-09-17 07:00;CYQF 170700Z 17003KT 15SM FEW100 07/01 A3018 RMK AC2 SLP238

CYQF;2012-09-17 08:00;CYQF 170800Z 18004KT 15SM FEW100 06/01 A3017 RMK AC2 SLP234

CYQF;2012-09-17 09:00;CYQF 170900Z 19005KT 15SM FEW100 05/00 A3016 RMK AC1 SLP230

CYQF;2012-09-17 10:00;CYQF 171000Z 17004KT 15SM BKN100 06/01 A3014 RMK AC5 SLP225

CYQF;2012-09-17 11:00;CYQF 171100Z 21002KT 15SM OVC100 06/03 A3013 RMK AC8 SLP222

CYQF;2012-09-17 12:00;CYQF 171200Z 21004KT 15SM BKN100 06/03 A3012 RMK AC5 SLP217

CYQF;2012-09-17 13:00;CYQF 171300Z 20003KT 15SM FEW100 BKN250 05/02 A3011 RMK AC2CI1 SLP213

CYQF;2012-09-17 14:00;CYQF 171400Z 20003KT 15SM FEW100 BKN250 05/02 A3011 RMK AC1CI2 SLP212

CYQF;2012-09-17 15:00;CYQF 171500Z 24002KT 15SM FEW100 BKN250 08/03 A3010 RMK AC1CI2 SLP214

CYQF;2012-09-17 16:00;CYQF 171600Z 26004KT 15SM SCT250 12/05 A3010 RMK CI1 SLP212

CYQF;2012-09-17 17:00;CYQF 171700Z 28010KT 15SM FEW250 15/05 A3009 RMK CI1 SLP210

CYQF;2012-09-17 18:00;CYQF 171800Z 29010KT 15SM FEW250 18/04 A3007 RMK CI1 SLP195

CYQF;2012-09-17 19:00;CYQF 171900Z 33010KT 15SM FEW250 19/01 A3005 RMK CI1 SLP189

CYQF;2012-09-17 20:00;CYQF 172000Z 32010G15KT 15SM FEW250 21/01 A3004 RMK CI0 SLP183

CYQF;2012-09-17 21:00;CYQF 172100Z 31010G15KT 15SM FEW250 22/02 A3002 RMK CI1 SLP175

CYQF;2012-09-17 22:00;CYQF 172200Z 30010G15KT 15SM FEW250 23/03 A3000 RMK CI1 SLP169

CYQF;2012-09-17 23:00;CYQF 172300Z 30010G15KT 15SM FEW250 23/03 A2999 RMK CI1 SLP166

CYQF;2012-09-18 00:00;CYQF 180000Z 31010KT 15SM SKC 23/02 A2998 RMK SLP162

CYQF;2012-09-18 01:00;CYQF 180100Z 30007KT 15SM SKC 20/04 A2998 RMK SLP160

CYQF;2012-09-18 02:00;CYQF 180200Z 25005KT 15SM SKC 15/04 A2997 RMK SLP157

CYQF;2012-09-18 03:00;CYQF 180300Z 24005KT 15SM SKC 12/03 A2996 RMK SLP164

CYQF;2012-09-18 04:00;CYQF 180400Z 24008KT 15SM SKC 10/03 A2996 RMK SLP165

CYQF;2012-09-18 05:00;CYQF 180500Z 18004KT 15SM SKC 10/03 A2996 RMK SLP163

CYQF;2012-09-18 06:00;CYQF 180600Z 20005KT 15SM SKC 08/02 A2995 RMK SLP154

CYQF;2012-09-18 07:00;CYQF 180700Z 22005KT 15SM SKC 07/02 A2995 RMK SLP152

CYQF;2012-09-18 08:00;CYQF 180800Z 00000KT 15SM SKC 07/02 A2995 RMK SLP154

CYQF;2012-09-18 09:00;CYQF 180900Z 20005KT 15SM SKC 06/02 A2995 RMK SLP150

CYQF;2012-09-18 10:00;CYQF 181000Z 20004KT 15SM SKC 04/01 A2994 RMK SLP149

CYQF;2012-09-18 11:00;CYQF 181100Z 20005KT 15SM SKC 04/00 A2993 RMK SLP146

CYQF;2012-09-18 12:00;CYQF 181200Z 21006KT 15SM FEW250 04/01 A2993 RMK CI1 SLP145

CYQF;2012-09-18 13:00;CYQF 181300Z 20004KT 15SM SCT050 BKN250 05/01 A2992 RMK SC3CI1 SLP143

CYQF;2012-09-18 14:00;CYQF 181400Z 20008KT 15SM SCT080 BKN250 05/02 A2990 RMK AC4CI2 SLP136

CYQF;2012-09-18 15:00;CYQF 181500Z 00000KT 15SM BKN080 OVC250 09/03 A2989 RMK AC6CI2 SLP139

CYQF;2012-09-18 16:00;CYQF 181600Z 22003KT 10SM BKN080 OVC250 12/04 A2990 RMK AC6CI1 FU SLP140

CYQF;2012-09-18 17:00;CYQF 181700Z 36003KT 10SM BKN080 OVC250 15/05 A2992 RMK AC6CI1 FU SLP147

CYQF;2012-09-18 18:00;CYQF 181800Z 35005KT 10SM FEW100 OVC250 18/05 A2993 RMK AC2CI4 SLP147

CYQF;2012-09-18 19:00;CYQF 181900Z 35015G20KT 8SM FEW100 OVC250 20/05 A2995 RMK AC2CI4 SLP152

CYQF;2012-09-18 20:00;CYQF 182000Z 34015G20KT 10SM FEW100 BKN250 19/04 A2995 RMK AC1CI4 SLP154

CYQF;2012-09-18 21:00;CYQF 182100Z 34010G17KT 10SM BKN250 20/05 A2995 RMK CI6 SLP155

CYQF;2012-09-18 22:00;CYQF 182200Z 36010G20KT 12SM FEW064 BKN250 20/05 A2996 RMK CF1CI6 SLP158

CYQF;2012-09-18 23:00;CYQF 182300Z 36015G20KT 12SM BKN250 20/05 A2998 RMK CI5 SLP162

CYQF;2012-09-19 00:00;CYQF 190000Z 36008G15KT 15SM BKN250 19/04 A3001 RMK CI5 SLP176

CYQF;2012-09-19 01:00;CYQF 190100Z 33010G15KT 15SM BKN250 17/04 A3003 RMK CI4 SLP182

CYQF;2012-09-19 02:00;CYQF 190200Z 33008KT 15SM FEW250 13/04 A3005 RMK CI1 SLP190

CYQF;2012-09-19 03:00;CYQF 190300Z 35005KT 15SM FEW250 11/03 A3009 RMK CI1 SLP207

CYQF;2012-09-19 04:00;CYQF 190400Z 36007KT 15SM SKC 13/03 A3011 RMK SLP213

CYQF;2012-09-19 05:00;CYQF 190500Z 36008KT 15SM SKC 12/03 A3012 RMK SLP216

CYQF;2012-09-19 06:00;CYQF 190600Z 28005KT 15SM SKC 08/02 A3014 RMK SLP220

CYQF;2012-09-19 07:00;CYQF 190700Z 27005KT 15SM SKC 07/02 A3016 RMK SLP226

CYQF;2012-09-19 08:00;CYQF 190800Z 23004KT 15SM SKC 05/01 A3017 RMK SLP229

CYQF;2012-09-19 09:00;CYQF 190900Z 00000KT 15SM SKC 06/02 A3017 RMK SLP229

CYQF;2012-09-19 10:00;CYQF 191000Z 20003KT 15SM SKC 04/02 A3016 RMK SLP227

CYQF;2012-09-19 11:00;CYQF 191100Z 19003KT 15SM SKC 03/01 A3015 RMK SLP222

CYQF;2012-09-19 12:00;CYQF 191200Z 21004KT 15SM SKC 03/00 A3014 RMK SLP223

CYQF;2012-09-19 13:00;CYQF 191300Z 20004KT 15SM FEW250 03/01 A3013 RMK CI1 SLP220

CYQF;2012-09-19 14:00;CYQF 191400Z 00000KT 15SM FEW250 02/M00 A3013 RMK CI1 SLP219

CYQF;2012-09-19 15:00;CYQF 191500Z 22005KT 15SM FEW250 05/03 A3012 RMK CI1 SLP222

CYQF;2012-09-19 16:00;CYQF 191600Z 22004KT 15SM FEW250 10/05 A3011 RMK CI0 SLP218

CYQF;2012-09-19 17:00;CYQF 191700Z 20007KT 15SM FEW250 15/05 A3011 RMK CI1 SLP218

CYQF;2012-09-19 18:00;CYQF 191800Z 21008KT 15SM SCT260 17/05 A3009 RMK CI2 SLP204

CYQF;2012-09-19 19:00;CYQF 191900Z 24010KT 12SM BKN260 19/06 A3007 RMK CI3 SLP198

CYQF;2012-09-19 20:00;CYQF 192000Z 31007KT 12SM BKN260 20/05 A3006 RMK CI3 SLP194

CYQF;2012-09-19 21:00;CYQF 192100Z 34005KT 15SM BKN260 21/04 A3005 RMK CI2 SLP188

CYQF;2012-09-19 22:00;CYQF 192200Z 30010G15KT 15SM BKN260 21/03 A3005 RMK CI6 SLP186

CYQF;2012-09-19 23:00;CYQF 192300Z 33010G15KT 15SM BKN260 22/02 A3004 RMK CI6 SLP184

CYQF;2012-09-20 00:00;CYQF 200000Z 33010G15KT 15SM BKN260 21/04 A3005 RMK CI3 SLP189

CYQF;2012-09-20 01:00;CYQF 200100Z 33004KT 15SM BKN260 18/05 A3006 RMK CI4 SLP193

CYQF;2012-09-20 02:00;CYQF 200200Z 30002KT 15SM BKN260 14/04 A3007 RMK CI6 SLP198

CYQF;2012-09-20 03:00;CYQF 200300Z 29005KT 15SM BKN260 13/03 A3009 RMK CI4 SLP210

CYQF;2012-09-20 04:00;CYQF 200400Z 26005KT 15SM BKN260 12/03 A3010 RMK CI6 SLP214

CYQF;2012-09-20 05:00;CYQF 200500Z 29005KT 15SM BKN260 11/03 A3013 RMK CI3 SLP221

CYQF;2012-09-20 06:00;CYQF 200600Z 29005KT 15SM FEW260 11/02 A3014 RMK CI0 SLP216

CYQF;2012-09-20 07:00;CYQF 200700Z 30006KT 15SM FEW260 09/03 A3015 RMK CI0 SLP219

CYQF;2012-09-20 08:00;CYQF 200800Z 31003KT 15SM SKC 10/03 A3015 RMK SLP220

CYQF;2012-09-20 09:00;CYQF 200900Z 00000KT 15SM SKC 07/03 A3015 RMK SLP221

CYQF;2012-09-20 10:00;CYQF 201000Z 21003KT 15SM SKC 05/02 A3015 RMK SLP221

CYQF;2012-09-20 11:00;CYQF 201100Z 00000KT 15SM SKC 05/02 A3015 RMK SLP220

CYQF;2012-09-20 12:00;CYQF 201200Z 22003KT 15SM SKC 04/02 A3014 RMK SLP220

CYQF;2012-09-20 13:00;CYQF 201300Z 00000KT 15SM BKN230 05/02 A3014 RMK CI2 SLP220

CYQF;2012-09-20 14:00;CYQF 201400Z 20002KT 15SM BKN250 05/03 A3014 RMK CI2 SLP220

CYQF;2012-09-20 15:00;CYQF 201500Z 20002KT 15SM OVC250 08/05 A3014 RMK CI2 SLP223

CYQF;2012-09-20 16:00;CYQF 201600Z 21004KT 15SM BKN250 11/06 A3014 RMK CI2 SLP223

CYQF;2012-09-20 17:00;CYQF 201700Z 26005KT 15SM SCT250 15/06 A3013 RMK CI2 SLP221

CYQF;2012-09-20 18:00;CYQF 201800Z 20005KT 15SM BKN250 18/07 A3012 RMK CI4 SLP209

CYQF;2012-09-20 19:00;CYQF 201900Z 27003KT 15SM SCT250 21/07 A3010 RMK CI2 SLP202

CYQF;2012-09-20 20:00;CYQF 202000Z 32010KT 15SM FEW250 22/07 A3009 RMK CI2 SLP198

CYQF;2012-09-20 21:00;CYQF 202100Z 33010KT 15SM FEW250 23/07 A3007 RMK CI2 SLP192

CYQF;2012-09-20 22:00;CYQF 202200Z 34006KT 15SM FEW250 23/07 A3007 RMK CI0 SLP190

CYQF;2012-09-20 23:00;CYQF 202300Z 34006KT 15SM FEW250 23/07 A3006 RMK CI0 SLP187

CYQF;2012-09-21 00:00;CYQF 210000Z 34006KT 15SM FEW250 23/07 A3005 RMK CI0 SLP186

CYQF;2012-09-21 01:00;CYQF 210100Z 36004KT 15SM SKC 22/07 A3005 RMK SLP187

CYQF;2012-09-21 02:00;CYQF 210200Z 01004KT 15SM FEW250 18/07 A3006 RMK CI0 SLP191

CYQF;2012-09-21 03:00;CYQF 210300Z 00000KT 15SM SKC 12/07 A3008 RMK SLP207

CYQF;2012-09-21 04:00;CYQF 210400Z 18005KT 15SM SKC 11/07 A3009 RMK SLP209

CYQF;2012-09-21 05:00;CYQF 210500Z 21003KT 15SM SKC 09/07 A3010 RMK SLP212

CYQF;2012-09-21 06:00;CYQF 210600Z 22003KT 15SM SKC 08/06 A3011 RMK SLP208

CYQF;2012-09-21 07:00;CYQF 210700Z 08003KT 15SM SKC 08/06 A3012 RMK SLP212

CYQF;2012-09-21 08:00;CYQF 210800Z 23004KT 15SM SKC 07/05 A3013 RMK SLP215

CYQF;2012-09-21 09:00;CYQF 210900Z 18004KT 15SM SKC 06/05 A3015 RMK SLP217

CYQF;2012-09-21 10:00;CYQF 211000Z 00000KT 15SM SKC 05/05 A3015 RMK SLP218

CYQF;2012-09-21 11:00;CYQF 211100Z 22004KT 15SM SKC 04/04 A3015 RMK SLP219

CYQF;2012-09-21 12:00;CYQF 211200Z 21002KT 15SM SKC 05/04 A3015 RMK SLP221

CYQF;2012-09-21 13:00;CYQF 211300Z 20004KT 10SM SKC 05/04 A3016 RMK MIFG S SLP225

CYQF;2012-09-21 14:00;CYQF 211400Z 20003KT 12SM SKC 04/03 A3017 RMK SLP227

CYQF;2012-09-21 15:00;CYQF 211500Z 00000KT 15SM SKC 07/06 A3018 RMK SLP240

CYQF;2012-09-21 16:00;CYQF 211600Z 00000KT 15SM SKC 11/08 A3018 RMK SLP242

CYQF;2012-09-21 17:00;CYQF 211700Z 15002KT 15SM SKC 16/09 A3018 RMK SLP240

CYQF;2012-09-21 18:00;CYQF 211800Z 18002KT 15SM SKC 19/08 A3017 RMK SLP228

CYQF;2012-09-21 19:00;CYQF 211900Z 12008KT 15SM SKC 22/07 A3015 RMK SLP223

CYQF;2012-09-21 20:00;CYQF 212000Z 14002KT 15SM SKC 24/07 A3014 RMK SLP219

CYQF;2012-09-21 21:00;CYQF 212100Z 19006KT 15SM SKC 24/06 A3013 RMK SLP210

CYQF;2012-09-21 22:00;CYQF 212200Z 16008KT 15SM SKC 25/05 A3011 RMK SLP206

CYQF;2012-09-21 23:00;CYQF 212300Z 16008KT 15SM SKC 25/04 A3010 RMK SLP203

CYQF;2012-09-22 00:00;CYQF 220000Z 15008KT 15SM SKC 24/04 A3010 RMK SLP202

CYQF;2012-09-22 01:00;CYQF 220100Z 14005KT 15SM SKC 22/05 A3009 RMK SLP200

CYQF;2012-09-22 02:00;CYQF 220200Z 13003KT 15SM SKC 18/05 A3009 RMK SLP199

CYQF;2012-09-22 03:00;CYQF 220300Z 00000KT 15SM SKC 14/05 A3009 RMK SLP208

CYQF;2012-09-22 04:00;CYQF 220400Z 00000KT 15SM SKC 11/05 A3009 RMK SLP208

CYQF;2012-09-22 05:00;CYQF 220500Z 15008KT 15SM SKC 14/05 A3010 RMK SLP210

CYQF;2012-09-22 06:00;CYQF 220600Z 18004KT 15SM SKC 12/05 A3011 RMK SLP202

CYQF;2012-09-22 07:00;CYQF 220700Z 17005KT 15SM SKC 13/05 A3011 RMK SLP202

CYQF;2012-09-22 08:00;CYQF 220800Z 19004KT 15SM SKC 11/05 A3011 RMK SLP201

CYQF;2012-09-22 09:00;CYQF 220900Z 17004KT 15SM SKC 10/05 A3010 RMK SLP197

CYQF;2012-09-22 10:00;CYQF 221000Z 18006KT 15SM SKC 08/05 A3009 RMK SLP194

CYQF;2012-09-22 11:00;CYQF 221100Z 18003KT 15SM SKC 07/04 A3008 RMK SLP192

CYQF;2012-09-22 12:00;CYQF 221200Z 18004KT 15SM SKC 09/04 A3008 RMK SLP190

CYQF;2012-09-22 13:00;CYQF 221300Z 19003KT 15SM FEW240 07/04 A3008 RMK CI1 SLP190

CYQF;2012-09-22 14:00;CYQF 221400Z 00000KT 15SM BKN250 07/04 A3008 RMK CI2 SLP190

CYQF;2012-09-22 15:00;CYQF 221500Z 00000KT 15SM BKN250 10/05 A3009 RMK CI2 SLP203

CYQF;2012-09-22 16:00;CYQF 221600Z 16007KT 15SM BKN250 12/05 A3009 RMK CI4 SLP203

CYQF;2012-09-22 17:00;CYQF 221700Z 19005KT 15SM BKN250 14/06 A3008 RMK CI3 SLP200

CYQF;2012-09-22 18:00;CYQF 221800Z 20005KT 15SM BKN250 17/07 A3008 RMK CI2 SLP195

CYQF;2012-09-22 19:00;CYQF 221900Z 11002KT 15SM BKN250 19/08 A3008 RMK CI1 SLP194

CYQF;2012-09-22 20:00;CYQF 222000Z 00000KT 15SM BKN250 21/10 A3006 RMK CI2 SLP189

CYQF;2012-09-22 21:00;CYQF 222100Z 00000KT 15SM BKN250 22/08 A3006 RMK CI4 SLP184

CYQF;2012-09-22 22:00;CYQF 222200Z 00000KT 15SM BKN250 23/08 A3005 RMK CI2 SLP183

CYQF;2012-09-22 23:00;CYQF 222300Z 00000KT 15SM BKN250 24/08 A3005 RMK CI2 SLP181

CYQF;2012-09-23 00:00;CYQF 230000Z 00000KT 15SM OVC250 23/08 A3005 RMK CI2 SLP180

CYQF;2012-09-23 01:00;CYQF 230100Z 00000KT 12SM OVC250 21/09 A3005 RMK CI2 SLP180

CYQF;2012-09-23 02:00;CYQF 230200Z 35004KT 15SM BKN250 17/09 A3005 RMK CI2 SLP183

CYQF;2012-09-23 03:00;CYQF 230300Z 32003KT 15SM BKN250 14/08 A3007 RMK CI2 SLP197

CYQF;2012-09-23 04:00;CYQF 230400Z 32003KT 15SM BKN250 13/08 A3007 RMK CI2 SLP198

CYQF;2012-09-23 05:00;CYQF 230500Z 19003KT 15SM SCT250 10/07 A3008 RMK CI2 SLP200

CYQF;2012-09-23 06:00;CYQF 230600Z 23002KT 15SM SKC 09/07 A3009 RMK SLP201

CYQF;2012-09-23 07:00;CYQF 230700Z 20002KT 15SM SKC 08/06 A3009 RMK SLP203

CYQF;2012-09-23 08:00;CYQF 230800Z 21003KT 15SM SKC 07/05 A3010 RMK SLP206

CYQF;2012-09-23 09:00;CYQF 230900Z 22003KT 15SM SKC 06/05 A3010 RMK SLP201

CYQF;2012-09-23 10:00;CYQF 231000Z 18004KT 15SM SKC 06/05 A3010 RMK SLP201

CYQF;2012-09-23 11:00;CYQF 231100Z 17004KT 10SM SKC 05/04 A3010 RMK BCFG SLP202

CYQF;2012-09-23 11:28;CYQF 231128Z 20004KT 2SM BR SKC RMK FG2

CYQF;2012-09-23 12:00;CYQF 231200Z 23005KT 2SM BR SKC 04/03 A3011 RMK FG2 SLP208

CYQF;2012-09-23 13:00;CYQF 231300Z 23003KT 2 1/2SM BR FEW250 05/04 A3011 RMK CI0 SLP209

CYQF;2012-09-23 13:26;CYQF 231326Z 23005KT 3SM BR FEW250 05/04 RMK CI1 VIS SE S

CYQF;2012-09-23 13:30;CYQF 231330Z CCA 23005KT 3SM BR FEW250 05/04 RMK CI1 VIS SE 2

CYQF;2012-09-23 14:00;CYQF 231400Z 20002KT 15SM BKN250 05/05 A3012 RMK CI1 SLP210

CYQF;2012-09-23 15:00;CYQF 231500Z 23004KT 8SM FEW250 08/07 A3013 RMK CI1 SLP220

CYQF;2012-09-23 16:00;CYQF 231600Z 23003KT 10SM FEW250 11/09 A3013 RMK CI1 SLP220

CYQF;2012-09-23 17:00;CYQF 231700Z 00000KT 10SM SCT250 15/10 A3013 RMK CI1 HZ SLP221

CYQF;2012-09-23 18:00;CYQF 231800Z 00000KT 10SM SCT250 19/11 A3013 RMK CI2 SLP214

CYQF;2012-09-23 19:00;CYQF 231900Z 20002KT 15SM SCT250 21/10 A3011 RMK CI2 SLP209

CYQF;2012-09-23 20:00;CYQF 232000Z 00000KT 12SM BKN250 22/09 A3010 RMK CI2 SLP206

CYQF;2012-09-23 21:00;CYQF 232100Z 00000KT 12SM BKN250 23/08 A3008 RMK CI2 SLP195

CYQF;2012-09-23 22:00;CYQF 232200Z 18004KT 12SM BKN250 24/08 A3007 RMK CI2 SLP192

CYQF;2012-09-23 23:00;CYQF 232300Z 00000KT 12SM BKN250 24/09 A3006 RMK CI2 SLP189

CYQF;2012-09-24 00:00;CYQF 240000Z 00000KT 12SM BKN250 23/09 A3005 RMK CI2 SLP189

CYQF;2012-09-24 01:00;CYQF 240100Z 00000KT 10SM BKN250 20/10 A3005 RMK CI3 FU SLP187

CYQF;2012-09-24 02:00;CYQF 240200Z 00000KT 10SM BKN250 17/10 A3005 RMK CI2 FU SLP186

CYQF;2012-09-24 03:00;CYQF 240300Z 00000KT 10SM BKN250 13/08 A3005 RMK CI2 FU SLP193

CYQF;2012-09-24 04:00;CYQF 240400Z 00000KT 15SM SCT250 13/09 A3005 RMK CI2 SLP193

CYQF;2012-09-24 05:00;CYQF 240500Z 00000KT 15SM BKN250 11/08 A3004 RMK CI2 SLP191

CYQF;2012-09-24 06:00;CYQF 240600Z 00000KT 15SM SCT250 09/08 A3004 RMK CI2 SLP181

CYQF;2012-09-24 07:00;CYQF 240700Z 00000KT 15SM SCT250 09/08 A3003 RMK CI2 SLP179

CYQF;2012-09-24 08:00;CYQF 240800Z 19003KT 15SM FEW250 07/07 A3003 RMK CI1 SLP178

CYQF;2012-09-24 09:00;CYQF 240900Z 21004KT 15SM FEW250 06/06 A3002 RMK CI1 SLP172

CYQF;2012-09-24 10:00;CYQF 241000Z 26004KT 15SM FEW250 06/06 A3002 RMK CI1 SLP172

CYQF;2012-09-24 11:00;CYQF 241100Z 26004KT 15SM FEW250 06/05 A3001 RMK CI1 SLP170

CYQF;2012-09-24 11:24;CYQF 241124Z 24003KT 2SM BR SCT250 RMK FG2CI1

CYQF;2012-09-24 11:36;CYQF 241136Z 00000KT 3/4SM BR SKC RMK FG3

CYQF;2012-09-24 12:00;CYQF 241200Z 21002KT 3/4SM BR SKC 05/04 A3001 RMK FG3 SLP171

CYQF;2012-09-24 12:26;CYQF 241226Z 00000KT 1 1/2SM BR SCT250 RMK FG2CI0

CYQF;2012-09-24 12:42;CYQF 241242Z 00000KT 2SM BR FEW250 RMK FG1CI0

CYQF;2012-09-24 13:00;CYQF 241300Z 19003KT 1SM BR SCT250 05/04 A3000 RMK FG2CI1 SLP169

CYQF;2012-09-24 13:18;CYQF 241318Z 21002KT 3/4SM BR FEW250 RMK CI1 VIS VRB 1/2-1

CYQF;2012-09-24 14:00;CYQF 241400Z 21002KT 3/4SM BR BKN250 05/04 A3001 RMK FG1CI1 VIS VRB 1/2-1 SLP171

CYQF;2012-09-24 14:18;CYQF 241418Z 20002KT 3SM BR BKN250 RMK FG1CI1 VIS S 1

CYQF;2012-09-24 15:00;CYQF 241500Z 19002KT 5SM BR BKN250 07/07 A3001 RMK CI2 SLP181

CYQF;2012-09-24 16:00;CYQF 241600Z 22003KT 8SM SCT250 11/09 A3001 RMK CI1 HZ SLP179

CYQF;2012-09-24 17:00;CYQF 241700Z 00000KT 8SM FEW250 16/11 A3000 RMK CI1 HZ SLP177

CYQF;2012-09-24 18:00;CYQF 241800Z 00000KT 8SM SCT250 20/12 A2999 RMK CI1 HZ SLP163

CYQF;2012-09-24 19:00;CYQF 241900Z 00000KT 8SM SCT250 22/12 A2997 RMK CI1 HZ SLP159

CYQF;2012-09-24 20:00;CYQF 242000Z 24002KT 8SM FEW250 23/10 A2995 RMK CI1 HZ SLP152

CYQF;2012-09-24 21:00;CYQF 242100Z 33003KT 10SM BKN250 24/10 A2994 RMK CI1 HZ CC ASOCTD SLP146

CYQF;2012-09-24 22:00;CYQF 242200Z 00000KT 10SM SCT250 25/10 A2993 RMK CI1 HZ SLP142

CYQF;2012-09-24 23:00;CYQF 242300Z 31004KT 15SM FEW250 25/07 A2993 RMK CI2 SLP141

CYQF;2012-09-25 00:00;CYQF 250000Z 00000KT 12SM FEW250 25/06 A2992 RMK CI1 SLP140

CYQF;2012-09-25 01:00;CYQF 250100Z 00000KT 15SM SKC 22/08 A2992 RMK SLP138

CYQF;2012-09-25 02:00;CYQF 250200Z 00000KT 12SM SKC 18/08 A2991 RMK SLP137

CYQF;2012-09-25 03:00;CYQF 250300Z 00000KT 15SM SKC 13/07 A2992 RMK SLP148

CYQF;2012-09-25 04:00;CYQF 250400Z 00000KT 15SM SKC 12/07 A2992 RMK SLP150

CYQF;2012-09-25 05:00;CYQF 250500Z 00000KT 15SM SKC 10/06 A2992 RMK SLP150

CYQF;2012-09-25 06:00;CYQF 250600Z 19004KT 15SM SKC 08/06 A2992 RMK SLP142

CYQF;2012-09-25 07:00;CYQF 250700Z 00000KT 15SM SKC 08/06 A2992 RMK SLP142

CYQF;2012-09-25 08:00;CYQF 250800Z 00000KT 15SM SKC 07/05 A2992 RMK SLP141

CYQF;2012-09-25 09:00;CYQF 250900Z 20002KT 15SM SKC 07/05 A2992 RMK SLP136

CYQF;2012-09-25 10:00;CYQF 251000Z 23004KT 15SM SKC 05/03 A2991 RMK SLP133

CYQF;2012-09-25 11:00;CYQF 251100Z 00000KT 15SM SKC 05/04 A2990 RMK SLP131

CYQF;2012-09-25 12:00;CYQF 251200Z 00000KT 15SM SKC 04/03 A2990 RMK SLP133

CYQF;2012-09-25 13:00;CYQF 251300Z 00000KT 10SM FEW250 04/04 A2991 RMK CI1 MIFG SLP135

CYQF;2012-09-25 14:00;CYQF 251400Z 00000KT 10SM FEW150 SCT250 03/03 A2992 RMK AC1CI0 SLP140

CYQF;2012-09-25 15:00;CYQF 251500Z 00000KT 8SM FEW100 BKN250 08/06 A2994 RMK AC1CI2 SLP156

CYQF;2012-09-25 16:00;CYQF 251600Z 31010KT 8SM FEW100 FEW250 12/08 A2996 RMK AC1CI1 HZ SLP162

CYQF;2012-09-25 17:00;CYQF 251700Z 33015G20KT 8SM FEW100 SCT250 13/08 A2997 RMK AC1CI1 SLP165

CYQF;2012-09-25 18:00;CYQF 251800Z 32015G20KT 10SM SCT100 BKN260 15/08 A2998 RMK AC2CI2 SLP168

CYQF;2012-09-25 19:00;CYQF 251900Z 35010KT 10SM SCT100 BKN260 16/09 A2999 RMK AC3CI2 SLP171

CYQF;2012-09-25 20:00;CYQF 252000Z 33015G20KT 10SM SCT100 BKN260 16/09 A3000 RMK ACC3CI2 SLP173

CYQF;2012-09-25 21:00;CYQF 252100Z 34015G20KT 12SM BKN100 OVC250 16/09 A3001 RMK ACC5CI2 SLP176

CYQF;2012-09-25 22:00;CYQF 252200Z 33010G15KT 12SM BKN090 BKN250 16/08 A3002 RMK ACC5CS2 SLP180

CYQF;2012-09-25 23:00;CYQF 252300Z 31010G15KT 12SM BKN030 BKN090 BKN250 16/09 A3004 RMK SC6ACC1CS1 SLP186

CYQF;2012-09-26 00:00;CYQF 260000Z 31010G15KT 12SM SCT030 BKN090 BKN250 14/08 A3005 RMK SC4AC2CI1 SLP198

CYQF;2012-09-26 01:00;CYQF 260100Z 31010G15KT 8SM FEW030 BKN090 BKN250 12/08 A3007 RMK SC2ACC3CI1 FU SLP203

CYQF;2012-09-26 02:00;CYQF 260200Z 32010G15KT 8SM SCT030 BKN090 12/08 A3008 RMK SC3AC4 FU SLP206

CYQF;2012-09-26 03:00;CYQF 260300Z 31010G15KT 10SM OVC035 12/09 A3009 RMK SC8 SLP207

CYQF;2012-09-26 04:00;CYQF 260400Z 32010G15KT 12SM OVC035 12/09 A3009 RMK SC8 SLP209

CYQF;2012-09-26 05:00;CYQF 260500Z 33008KT 15SM OVC035 12/08 A3011 RMK SC8 SLP213

CYQF;2012-09-26 06:00;CYQF 260600Z 34007KT 15SM OVC035 11/08 A3011 RMK SC8 SLP209

CYQF;2012-09-26 07:00;CYQF 260700Z 32006KT 15SM OVC035 11/08 A3011 RMK SC8 SLP210

CYQF;2012-09-26 08:00;CYQF 260800Z 33004KT 15SM OVC035 11/08 A3012 RMK SC8 SLP212

CYQF;2012-09-26 09:00;CYQF 260900Z 32004KT 15SM OVC035 11/08 A3011 RMK SC8 SLP209

CYQF;2012-09-26 10:00;CYQF 261000Z 32006KT 15SM OVC035 11/08 A3012 RMK SC8 SLP210

CYQF;2012-09-26 11:00;CYQF 261100Z 30004KT 15SM BKN040 09/07 A3012 RMK SC6 SLP210

CYQF;2012-09-26 12:00;CYQF 261200Z 33008KT 15SM SCT040 BKN080 09/07 A3011 RMK SC3AC2 SLP212

CYQF;2012-09-26 13:00;CYQF 261300Z 33005KT 15SM FEW040 BKN080 08/07 A3012 RMK SC2AC3 SLP215

CYQF;2012-09-26 14:00;CYQF 261400Z 30002KT 10SM VCFG FEW040 SCT080 06/05 A3012 RMK SC2AC2 SLP215

CYQF;2012-09-26 14:32;CYQF 261432Z 30004KT 2SM BR VCFG FEW040 SCT080 RMK FG1SC2AC1

CYQF;2012-09-26 14:37;CYQF 261437Z 30004KT 1/2SM FG SCT080 RMK FG3AC1

CYQF;2012-09-26 14:45;CYQF 261445Z 30004KT 1/8SM FG SKC RMK FG5

CYQF;2012-09-26 15:00;CYQF 261500Z 31004KT 1/8SM FG SKC 06/06 A3013 RMK FG6 SLP223

CYQF;2012-09-26 16:00;CYQF 261600Z 00000KT 1/2SM FG SKC 07/07 A3014 RMK FG7 SLP228

CYQF;2012-09-26 16:35;CYQF 261635Z 07002KT 1SM BR SKC RMK FG7

CYQF;2012-09-26 17:00;CYQF 261700Z 00000KT 1 1/2SM BR VV004 07/07 A3015 RMK FG8 SLP230

CYQF;2012-09-26 17:12;CYQF 261712Z 00000KT 3SM BR OVC004 RMK ST8

CYQF;2012-09-26 17:44;CYQF 261744Z 00000KT 5SM BR BKN006 RMK ST7

CYQF;2012-09-26 18:00;CYQF 261800Z 00000KT 8SM FEW006 SCT250 09/07 A3014 RMK ST2CI0 SLP224

CYQF;2012-09-26 19:00;CYQF 261900Z 36002KT 8SM BKN250 13/07 A3013 RMK CI2 SLP222

CYQF;2012-09-26 20:00;CYQF 262000Z 00000KT 10SM BKN250 14/06 A3011 RMK CI3 SLP215

CYQF;2012-09-26 21:00;CYQF 262100Z 00000KT 12SM BKN250 15/06 A3011 RMK CI5 SLP208

CYQF;2012-09-26 22:00;CYQF 262200Z 00000KT 12SM BKN250 16/06 A3010 RMK CI3 SLP206

CYQF;2012-09-26 23:00;CYQF 262300Z 00000KT 12SM SCT250 17/06 A3010 RMK CI2 SLP205

CYQF;2012-09-27 00:00;CYQF 270000Z 00000KT 12SM SCT250 17/04 A3010 RMK CI2 SLP205

CYQF;2012-09-27 01:00;CYQF 270100Z 00000KT 15SM SCT250 15/05 A3009 RMK CI2 SLP202

CYQF;2012-09-27 02:00;CYQF 270200Z 09003KT 12SM BKN250 12/06 A3009 RMK CI2 SLP203

CYQF;2012-09-27 03:00;CYQF 270300Z 00000KT 12SM BKN250 09/04 A3010 RMK CI2 SLP217

CYQF;2012-09-27 04:00;CYQF 270400Z 00000KT 10SM BKN250 08/05 A3011 RMK CS1 HZ HALO SLP220

CYQF;2012-09-27 05:00;CYQF 270500Z 00000KT 15SM BKN250 07/04 A3012 RMK CS0 SLP222

CYQF;2012-09-27 06:00;CYQF 270600Z 20004KT 15SM BKN250 05/02 A3012 RMK CS2 SLP225

CYQF;2012-09-27 07:00;CYQF 270700Z 00000KT 15SM BKN250 06/04 A3012 RMK CI2 SLP226

CYQF;2012-09-27 08:00;CYQF 270800Z 00000KT 15SM SCT250 06/04 A3013 RMK CI1 SLP227

CYQF;2012-09-27 09:00;CYQF 270900Z 00000KT 15SM SCT250 04/03 A3012 RMK CI1 SLP219

CYQF;2012-09-27 10:00;CYQF 271000Z 20002KT 15SM FEW250 04/03 A3011 RMK CI0 SLP217

CYQF;2012-09-27 11:00;CYQF 271100Z 00000KT 15SM FEW250 04/02 A3010 RMK CI0 SLP214

CYQF;2012-09-27 11:21;CYQF 271121Z 19003KT 2SM BR SKC RMK FG2

CYQF;2012-09-27 12:00;CYQF 271200Z 21004KT 1 1/2SM BR SKC 02/02 A3010 RMK FG2 SLP212

CYQF;2012-09-27 12:19;CYQF 271219Z 19003KT 1SM BR SKC RMK FG2

CYQF;2012-09-27 13:00;CYQF 271300Z 19003KT 1SM BR SKC 02/00 A3009 RMK FG2 SLP210

CYQF;2012-09-27 13:10;CYQF 271310Z 19004KT 1/4SM FG SKC

CYQF;2012-09-27 13:13;CYQF 271313Z 18004KT 1/2SM FG SKC

CYQF;2012-09-27 13:38;CYQF 271338Z 00000KT 1SM BR SKC RMK VIS N 1/2

CYQF;2012-09-27 13:53;CYQF 271353Z 00000KT 3SM BR SKC RMK VIS NW-N 3/4

CYQF;2012-09-27 14:00;CYQF 271400Z 18002KT 3SM BR SKC 04/03 A3007 RMK VIS NW-N 1 SLP204

CYQF;2012-09-27 15:00;CYQF 271500Z 00000KT 8SM FEW250 06/05 A3007 RMK CI1 SLP206

CYQF;2012-09-27 16:00;CYQF 271600Z 17004KT 8SM SKC 10/07 A3007 RMK SLP206

CYQF;2012-09-27 17:00;CYQF 271700Z 16010KT 10SM SKC 15/08 A3006 RMK SLP204

CYQF;2012-09-27 18:00;CYQF 271800Z 18010KT 10SM SKC 16/08 A3006 RMK SLP196

CYQF;2012-09-27 19:00;CYQF 271900Z 16012G18KT 10SM SKC 18/08 A3005 RMK SLP192

CYQF;2012-09-27 20:00;CYQF 272000Z 17015G20KT 10SM SKC 20/08 A3003 RMK SLP188

CYQF;2012-09-27 21:00;CYQF 272100Z 16011G18KT 10SM SKC 21/08 A3002 RMK SLP178

CYQF;2012-09-27 22:00;CYQF 272200Z 18010G16KT 10SM SKC 21/08 A3001 RMK SLP176

CYQF;2012-09-27 23:00;CYQF 272300Z 17010G15KT 12SM SKC 22/07 A3000 RMK SLP173

CYQF;2012-09-28 00:00;CYQF 280000Z 17010G15KT 12SM SKC 21/07 A2998 RMK SLP167

CYQF;2012-09-28 01:00;CYQF 280100Z 16010KT 12SM FEW240 19/07 A2997 RMK CI1 SLP164

CYQF;2012-09-28 02:00;CYQF 280200Z 16006KT 15SM FEW240 15/07 A2997 RMK CI1 SLP164

CYQF;2012-09-28 03:00;CYQF 280300Z 17005KT 15SM SKC 13/07 A2997 RMK SLP168

CYQF;2012-09-28 04:00;CYQF 280400Z 18006KT 15SM SKC 13/06 A2997 RMK SLP167

CYQF;2012-09-28 05:00;CYQF 280500Z 16005KT 15SM SKC 12/06 A2996 RMK SLP164

CYQF;2012-09-28 06:00;CYQF 280600Z 17007KT 15SM SKC 11/06 A2995 RMK SLP154

CYQF;2012-09-28 07:00;CYQF 280700Z 19005KT 15SM SKC 09/05 A2995 RMK SLP151

CYQF;2012-09-28 08:00;CYQF 280800Z 18007KT 15SM SKC 09/05 A2994 RMK SLP148

CYQF;2012-09-28 09:00;CYQF 280900Z 20005KT 15SM SKC 08/04 A2993 RMK SLP142

CYQF;2012-09-28 10:00;CYQF 281000Z 20003KT 15SM SKC 06/03 A2993 RMK SLP142

CYQF;2012-09-28 11:00;CYQF 281100Z 18003KT 15SM SKC 06/04 A2992 RMK SLP140

CYQF;2012-09-28 12:00;CYQF 281200Z 20004KT 15SM SKC 03/02 A2991 RMK SLP142

CYQF;2012-09-28 13:00;CYQF 281300Z 00000KT 12SM SKC 03/02 A2991 RMK SLP140

CYQF;2012-09-28 14:00;CYQF 281400Z 20003KT 12SM FEW250 02/01 A2990 RMK CI0 SLP139

CYQF;2012-09-28 15:00;CYQF 281500Z 17002KT 12SM FEW250 06/04 A2990 RMK CI1 SLP145

CYQF;2012-09-28 16:00;CYQF 281600Z 17003KT 12SM FEW250 10/05 A2990 RMK CI1 SLP144

CYQF;2012-09-28 17:00;CYQF 281700Z 13003KT 12SM FEW250 14/06 A2989 RMK CI1 SLP140

CYQF;2012-09-28 18:00;CYQF 281800Z 16002KT 12SM FEW250 18/05 A2986 RMK CI1 SLP120

CYQF;2012-09-28 19:00;CYQF 281900Z 19008KT 15SM FEW250 22/04 A2985 RMK CI2 SLP114

CYQF;2012-09-28 20:00;CYQF 282000Z 14005KT 15SM BKN250 23/03 A2982 RMK CI2 SLP107

CYQF;2012-09-28 21:00;CYQF 282100Z 15005KT 15SM FEW250 25/05 A2980 RMK CI1 SLP093

CYQF;2012-09-28 22:00;CYQF 282200Z 16008KT 15SM FEW250 26/04 A2977 RMK CI1 SLP086

CYQF;2012-09-28 23:00;CYQF 282300Z 12005KT 15SM FEW250 25/06 A2976 RMK CI1 SLP083

CYQF;2012-09-29 00:00;CYQF 290000Z 11008KT 15SM SCT250 25/06 A2975 RMK CI1 SLP082

CYQF;2012-09-29 01:00;CYQF 290100Z 15009KT 15SM SCT250 22/05 A2974 RMK CI1 SLP079

CYQF;2012-09-29 02:00;CYQF 290200Z 15010KT 15SM FEW250 19/05 A2975 RMK CI1 SLP080

CYQF;2012-09-29 03:00;CYQF 290300Z 18005KT 15SM FEW250 16/05 A2975 RMK CI1 SLP088

CYQF;2012-09-29 04:00;CYQF 290400Z 23003KT 15SM FEW250 12/04 A2976 RMK CI1 SLP091

CYQF;2012-09-29 05:00;CYQF 290500Z 00000KT 15SM SKC 10/04 A2978 RMK SLP097

CYQF;2012-09-29 06:00;CYQF 290600Z 21006KT 15SM SKC 09/04 A2978 RMK SLP094

CYQF;2012-09-29 07:00;CYQF 290700Z 33012G18KT 15SM SKC 16/04 A2981 RMK SLP103

CYQF;2012-09-29 08:00;CYQF 290800Z 34010KT 15SM SKC 13/04 A2983 RMK SLP109

CYQF;2012-09-29 09:00;CYQF 290900Z 33010KT 15SM FEW250 13/05 A2984 RMK CI1 SLP103

CYQF;2012-09-29 10:00;CYQF 291000Z 33008KT 15SM FEW250 12/05 A2986 RMK CI1 SLP110

CYQF;2012-09-29 11:00;CYQF 291100Z 33003KT 15SM FEW120 BKN250 10/05 A2989 RMK AC1CI2 SLP119

CYQF;2012-09-29 12:00;CYQF 291200Z 34005KT 15SM BKN120 BKN250 12/06 A2991 RMK AC5CI2 SLP128

CYQF;2012-09-29 13:00;CYQF 291300Z 32004KT 15SM BKN120 12/06 A2993 RMK AC7 SLP134

CYQF;2012-09-29 14:00;CYQF 291400Z 35002KT 15SM BKN120 12/07 A2994 RMK AC7 SLP136

CYQF;2012-09-29 15:00;CYQF 291500Z 31003KT 15SM BKN120 BKN250 12/07 A2996 RMK AC6CI2 SLP156

CYQF;2012-09-29 16:00;CYQF 291600Z 31003KT 15SM FEW120 BKN250 13/07 A2997 RMK AC2CI2 SLP157

CYQF;2012-09-29 17:00;CYQF 291700Z 30006KT 15SM BKN120 BKN250 15/07 A2998 RMK AC5CI1 SLP160

CYQF;2012-09-29 18:00;CYQF 291800Z 00000KT 15SM FEW120 BKN260 17/07 A2997 RMK AC2CI1 SLP160

CYQF;2012-09-29 19:00;CYQF 291900Z 02003KT 15SM BKN090 17/06 A2996 RMK AC6 SLP157

CYQF;2012-09-29 20:00;CYQF 292000Z 33004KT 15SM FEW090 FEW250 18/07 A2994 RMK ACC1CI1 SLP152

CYQF;2012-09-29 21:00;CYQF 292100Z 00000KT 15SM FEW090 FEW250 19/05 A2994 RMK AC1CI1 SLP142

CYQF;2012-09-29 22:00;CYQF 292200Z 00000KT 15SM FEW090 SCT250 20/05 A2994 RMK AC1CI1 SLP142

CYQF;2012-09-29 23:00;CYQF 292300Z 11003KT 15SM VCSH FEW090 BKN250 19/05 A2993 RMK ACC2CI1 SLP141

CYQF;2012-09-30 00:00;CYQF 300000Z 08004KT 15SM SCT060 BKN090 BKN250 19/06 A2995 RMK CU3AC2CI1 SLP146

CYQF;2012-09-30 01:00;CYQF 300100Z 02005KT 15SM TS SCT052CB BKN090 BKN250 17/04 A2997 RMK CB3AC2CS2 VIRGA LTNG SW SLP153

CYQF;2012-09-30 01:25;CYQF 300125Z 03010G15KT 15SM BKN050CB BKN090 OVC250 RMK CB5AC1CS2 SHWR SW-W

CYQF;2012-09-30 01:53;CYQF 300153Z 04010G20KT 10SM -SHRA BKN050CB OVC250 RMK CB6CI2

CYQF;2012-09-30 02:00;CYQF 300200Z 01010G16KT 15SM -SHRA BKN036CB OVC250 13/04 A3001 RMK CB6CI2 VIS NW 10 PRESRR SLP167

CYQF;2012-09-30 02:19;CYQF 300219Z 02010KT 15SM SCT035 BKN090 OVC250 RMK CU3AC2CI2

CYQF;2012-09-30 02:28;CYQF 300228Z 02010KT 15SM TS SCT035CB BKN090 OVC250 RMK CB3AC2CI2 OCNL LTNG SW-W

CYQF;2012-09-30 02:45;CYQF 300245Z 35010G15KT 6SM -TSRA BKN030CB OVC090 RMK CB6AC2

CYQF;2012-09-30 03:00;CYQF 300300Z 02010G15KT 6SM -SHRA BKN008 OVC020CB 10/05 A3005 RMK ST5CB3 SLP193

CYQF;2012-09-30 03:10;CYQF 300310Z 01010KT 15SM FEW020CB BKN090 OVC250 RMK CB2AC4CI2 VIRGA N

CYQF;2012-09-30 04:00;CYQF 300400Z 35007KT 15SM SCT090 OVC250 11/05 A3007 RMK AC3CI2 SLP199

CYQF;2012-09-30 05:00;CYQF 300500Z 00000KT 15SM BKN090 BKN250 10/06 A3009 RMK AC6CI1 SLP206

CYQF;2012-09-30 06:00;CYQF 300600Z 00000KT 15SM BKN090 OVC250 09/07 A3011 RMK AC6CI2 SLP210

CYQF;2012-09-30 07:00;CYQF 300700Z 29004KT 15SM OVC090 09/07 A3013 RMK AC8 SLP214

CYQF;2012-09-30 08:00;CYQF 300800Z 30003KT 15SM OVC050 09/07 A3013 RMK SC8 SLP216

CYQF;2012-09-30 09:00;CYQF 300900Z 29004KT 15SM OVC040 09/06 A3015 RMK SC8 SLP220

CYQF;2012-09-30 09:10;CYQF 300910Z 29004KT 12SM -RA OVC040 RMK SC8

CYQF;2012-09-30 10:00;CYQF 301000Z 26002KT 10SM -RA FEW007 OVC035 09/06 A3018 RMK SF1SC8 SLP230

CYQF;2012-09-30 10:49;CYQF 301049Z 00000KT 15SM OVC040 RMK SC8

CYQF;2012-09-30 11:00;CYQF 301100Z 00000KT 15SM BKN040 09/05 A3019 RMK SC7 SLP232

CYQF;2012-09-30 12:00;CYQF 301200Z 00000KT 15SM SCT040 BKN090 06/05 A3018 RMK SC3AC3 SLP235

CYQF;2012-09-30 13:00;CYQF 301300Z 23005KT 15SM BKN050 BKN100 07/05 A3019 RMK SC6AC2 SLP236

CYQF;2012-09-30 14:00;CYQF 301400Z 21004KT 15SM FEW050 BKN090 06/05 A3020 RMK SC2AC5 SLP240

CYQF;2012-09-30 15:00;CYQF 301500Z 21004KT 15SM FEW050 BKN090 07/05 A3022 RMK SC2ACC6 SLP255

CYQF;2012-09-30 16:00;CYQF 301600Z 22007KT 15SM SCT090 SCT250 08/05 A3023 RMK AC2CI1 SLP258

CYQF;2012-09-30 17:00;CYQF 301700Z 23005KT 15SM FEW090 SCT250 11/06 A3024 RMK AC2CI1 SLP262

CYQF;2012-09-30 18:00;CYQF 301800Z 23008KT 15SM FEW090 SCT250 13/04 A3024 RMK ACC2CI2 SLP257

CYQF;2012-09-30 19:00;CYQF 301900Z 22007KT 15SM FEW030 FEW090 BKN250 14/02 A3022 RMK CU1AC1CI3 SLP253

CYQF;2012-09-30 20:00;CYQF 302000Z 20008KT 15SM FEW035 BKN250 15/03 A3021 RMK CU1CI2 SLP249

CYQF;2012-09-30 21:00;CYQF 302100Z 20007KT 15SM FEW056 BKN250 16/03 A3020 RMK CU1CI5 SLP242

CYQF;2012-09-30 22:00;CYQF 302200Z 00000KT 15SM FEW061 SCT250 16/01 A3020 RMK CU1CI2 SLP241

CYQF;2012-09-30 23:00;CYQF 302300Z 24006KT 15SM FEW056 FEW250 16/02 A3020 RMK CU1CI2 SLP240

CYQF;2012-10-01 00:00;CYQF 010000Z 24005KT 15SM FEW056 SCT250 16/03 A3020 RMK CU1CI3 SLP243

CYQF;2012-10-01 01:00;CYQF 010100Z 21005KT 15SM FEW050 BKN250 12/03 A3020 RMK SC1CI1 SC TR SLP244

CYQF;2012-10-01 02:00;CYQF 010200Z 21003KT 15SM FEW050 FEW250 10/03 A3021 RMK SC1CI0 SLP246

CYQF;2012-10-01 03:00;CYQF 010300Z 18003KT 15SM SKC 08/03 A3021 RMK SLP254

CYQF;2012-10-01 04:00;CYQF 010400Z 19004KT 15SM FEW100 06/02 A3021 RMK AC1 SLP255

CYQF;2012-10-01 05:00;CYQF 010500Z 19004KT 15SM SCT100 05/01 A3020 RMK AC2 SLP251

CYQF;2012-10-01 06:00;CYQF 010600Z 00000KT 15SM FEW100 06/02 A3017 RMK AC2 SLP239

CYQF;2012-10-01 07:00;CYQF 010700Z 00000KT 15SM FEW100 05/01 A3014 RMK AC2 SLP229

CYQF;2012-10-01 08:00;CYQF 010800Z 17005KT 15SM BKN100 07/03 A3011 RMK AC6 SLP218

CYQF;2012-10-01 09:00;CYQF 010900Z 00000KT 15SM BKN100 08/04 A3010 RMK AC7 SLP207

CYQF;2012-10-01 10:00;CYQF 011000Z 16003KT 15SM BKN100 07/04 A3008 RMK AC6 SLP200

CYQF;2012-10-01 11:00;CYQF 011100Z 00000KT 15SM FEW100 04/02 A3005 RMK AC2 SLP191

CYQF;2012-10-01 12:00;CYQF 011200Z 21003KT 15SM FEW100 03/01 A3002 RMK AC1 SLP185

CYQF;2012-10-01 13:00;CYQF 011300Z 21002KT 15SM FEW100 02/01 A2999 RMK AC2 SLP176

CYQF;2012-10-01 14:00;CYQF 011400Z 17002KT 15SM FEW100 BKN250 02/01 A2997 RMK AC1CI1 SLP170

CYQF;2012-10-01 15:00;CYQF 011500Z 22004KT 15SM FEW100 BKN250 06/03 A2994 RMK AC1CI3 SLP163

CYQF;2012-10-01 16:00;CYQF 011600Z 21004KT 15SM BKN100 BKN250 09/05 A2990 RMK AC6CI2 SLP151

CYQF;2012-10-01 17:00;CYQF 011700Z 20006KT 15SM BKN100 BKN250 12/05 A2985 RMK AC6CI1 SLP137

CYQF;2012-10-01 18:00;CYQF 011800Z 20004KT 15SM BKN100 BKN250 17/07 A2979 RMK AC6CI1 SLP102

CYQF;2012-10-01 19:00;CYQF 011900Z 20010G17KT 15SM BKN100 BKN250 21/06 A2974 RMK AC5CI2 SLP086

CYQF;2012-10-01 20:00;CYQF 012000Z 20010G15KT 15SM FEW100 BKN250 20/05 A2969 RMK AC2CI3 SLP069

CYQF;2012-10-01 21:00;CYQF 012100Z 21010G15KT 15SM FEW100 BKN250 23/05 A2965 RMK AC2CI3 SLP044

CYQF;2012-10-01 22:00;CYQF 012200Z 19010G20KT 15SM FEW100 BKN250 24/04 A2962 RMK AC2CI2 SLP034

CYQF;2012-10-01 23:00;CYQF 012300Z 21007KT 15SM SCT075 BKN100 BKN250 24/06 A2959 RMK CU4AC1CI2 SHWRS DIST NW-N SLP027

CYQF;2012-10-01 23:08;CYQF 012308Z 36020G28KT 15SM BKN070 BKN100 BKN250 RMK CU6AC1CI1 WND SHIFT VIS NW-N 5

CYQF;2012-10-02 00:00;CYQF 020000Z 01015G25KT 15SM FEW070 BKN100 BKN250 14/05 A2968 RMK CU2AC2CI2 SLP071

CYQF;2012-10-02 01:00;CYQF 020100Z 02017G27KT 15SM BKN070 BKN100 13/06 A2970 RMK AC5AC2 SLP075

CYQF;2012-10-02 02:00;CYQF 020200Z 01010G15KT 15SM BKN070 12/06 A2973 RMK AC7 SLP084

CYQF;2012-10-02 03:00;CYQF 020300Z 03009KT 15SM -SHRA OVC100 11/07 A2971 RMK AC8 SLP081

CYQF;2012-10-02 03:26;CYQF 020326Z 36004KT 8SM -SHRA BKN020 OVC100 RMK SC5AC3

CYQF;2012-10-02 04:00;CYQF 020400Z 21005KT 8SM -SHRA OVC016 09/08 A2970 RMK SC8 SLP078

CYQF;2012-10-02 05:00;CYQF 020500Z 20004KT 6SM -SHRA OVC020 09/09 A2969 RMK SC8 SLP073

CYQF;2012-10-02 06:00;CYQF 020600Z 24007KT 6SM -SHRA OVC020 09/08 A2971 RMK SC8 SLP070

CYQF;2012-10-02 07:00;CYQF 020700Z 22005KT 15SM -SHRA OVC020 09/08 A2972 RMK SC8 SLP073

CYQF;2012-10-02 08:00;CYQF 020800Z 21003KT 15SM SCT020 08/07 A2972 RMK SC3 SLP074

CYQF;2012-10-02 09:00;CYQF 020900Z 25004KT 15SM BKN020 08/07 A2975 RMK SC6 SLP078

CYQF;2012-10-02 10:00;CYQF 021000Z 32005KT 15SM BKN020 08/07 A2976 RMK SC7 SLP083

CYQF;2012-10-02 11:00;CYQF 021100Z 30005KT 15SM BKN020 08/06 A2978 RMK SC7 SLP089

CYQF;2012-10-02 11:46;CYQF 021146Z 30005KT 15SM -SHRA FEW020 OVC070 RMK SC2AC6

CYQF;2012-10-02 12:00;CYQF 021200Z 29008KT 15SM -SHRA FEW020 OVC070 08/05 A2979 RMK SC2AC6 SLP103

CYQF;2012-10-02 12:39;CYQF 021239Z 30008KT 15SM FEW020 BKN070 RMK SC2AC5

CYQF;2012-10-02 13:00;CYQF 021300Z 29015KT 15SM SCT020 BKN050 07/05 A2982 RMK SC3SC4 SLP111

CYQF;2012-10-02 13:22;CYQF 021322Z 29010G15KT 12SM -RA FEW008 BKN012 RMK SF2SC5

CYQF;2012-10-02 13:41;CYQF 021341Z 29010KT 15SM FEW008 BKN012 BKN050 RMK SF2SC3SC2

CYQF;2012-10-02 14:00;CYQF 021400Z 29010KT 15SM VCSH FEW007 BKN012 BKN050 07/04 A2983 RMK SF1SC4SC2 SLP114

CYQF;2012-10-02 14:08;CYQF 021408Z 31010G15KT 15SM -SHRA FEW007 BKN018 BKN050 RMK SF1SC5SC2

CYQF;2012-10-02 15:00;CYQF 021500Z 33013G25KT 15SM -SHRA FEW007 BKN030 07/04 A2985 RMK SF2SC6 SLP127

CYQF;2012-10-02 16:00;CYQF 021600Z 33010G18KT 15SM -SHRA FEW007 BKN018 BKN035 07/04 A2988 RMK SF1SC6SC1 SLP136

CYQF;2012-10-02 17:00;CYQF 021700Z 33010G15KT 15SM VCSH BKN015 BKN090 07/04 A2988 RMK CU6AC2 SLP138

CYQF;2012-10-02 18:00;CYQF 021800Z 33015G20KT 15SM OVC015 07/04 A2992 RMK CU8 SLP153

CYQF;2012-10-02 19:00;CYQF 021900Z 33014G20KT 15SM VCSH BKN017 OVC040 07/03 A2994 RMK SC6SC2 CU UA TOPS 090 SLP161

CYQF;2012-10-02 19:03;CYQF 021903Z 36015G20KT 10SM -SHRA BKN017 OVC040 RMK CU7SC1

CYQF;2012-10-02 20:00;CYQF 022000Z 35010G15KT 8SM -SHRA OVC017 05/03 A2997 RMK SC8 CU SLP170

CYQF;2012-10-02 21:00;CYQF 022100Z 01010G15KT 8SM -SHRA OVC015 05/02 A3001 RMK CU8 SLP188

CYQF;2012-10-02 22:00;CYQF 022200Z 35010G15KT 8SM -SHRA OVC012 04/02 A3004 RMK SC8 SLP198

CYQF;2012-10-02 23:00;CYQF 022300Z 36010G15KT 8SM -SHRA FEW007 OVC012 04/02 A3008 RMK SF2SC6 SLP211

CYQF;2012-10-03 00:00;CYQF 030000Z 35012G17KT 8SM -SHRA OVC010 04/02 A3011 RMK SC8 CIG RAG SLP226

CYQF;2012-10-03 01:00;CYQF 030100Z 34012G18KT 10SM -SHRA BKN012 OVC050 04/02 A3015 RMK SC6SC2 SLP238

CYQF;2012-10-03 02:00;CYQF 030200Z 33013G20KT 15SM -RA SCT015 OVC080 03/00 A3019 RMK SC3AC5 SLP249

CYQF;2012-10-03 02:51;CYQF 030251Z 34012G17KT 15SM FEW015 BKN045 OVC090 RMK SC2SC4AC2

CYQF;2012-10-03 03:00;CYQF 030300Z 34010G15KT 15SM FEW015 BKN045 OVC090 03/01 A3023 RMK SC2SC4AC2 SLP268

CYQF;2012-10-03 03:16;CYQF 030316Z 35010G15KT 10SM -RA FEW008 OVC015 RMK SF2SC6

CYQF;2012-10-03 04:00;CYQF 030400Z 34012G18KT 15SM -RA FEW008 OVC015 02/01 A3026 RMK SF2SC6 SLP278

CYQF;2012-10-03 04:40;CYQF 030440Z 36010G15KT 15SM OVC009 RMK ST8

CYQF;2012-10-03 05:00;CYQF 030500Z 35010G15KT 15SM BKN009 OVC015 02/01 A3028 RMK ST5SC3 SLP284

CYQF;2012-10-03 06:00;CYQF 030600Z 36010KT 15SM OVC012 03/01 A3031 RMK ST8 SLP296

CYQF;2012-10-03 07:00;CYQF 030700Z 34010KT 15SM OVC012 02/01 A3033 RMK ST8 SLP302

CYQF;2012-10-03 07:49;CYQF 030749Z 36010G15KT 3SM -SN OVC009 RMK SF8

CYQF;2012-10-03 08:00;CYQF 030800Z 36011G17KT 2SM -SN OVC007 01/M00 A3034 RMK SF8 SLP307

CYQF;2012-10-03 08:09;CYQF 030809Z 36010KT 10SM VCSH SCT007 OVC014 RMK SF4SC4

CYQF;2012-10-03 08:44;CYQF 030844Z 33009KT 6SM -SHSN OVC008 RMK SF8

CYQF;2012-10-03 09:00;CYQF 030900Z 34008KT 6SM -SHSN OVC007 01/00 A3038 RMK SF8 SLP323

CYQF;2012-10-03 09:34;CYQF 030934Z 34009KT 10SM VCSH SCT008 OVC025 RMK SF3SC5

CYQF;2012-10-03 10:00;CYQF 031000Z 33010KT 10SM SCT008 OVC030 02/00 A3040 RMK SF3SC5 SLP330

CYQF;2012-10-03 11:00;CYQF 031100Z 33008KT 10SM -SHSN SCT008 OVC025 01/M00 A3042 RMK SF3SC5 SLP336

CYQF;2012-10-03 11:39;CYQF 031139Z 03009KT 2SM -SHSN OVC015 RMK SC8

CYQF;2012-10-03 12:00;CYQF 031200Z 30010KT 1SM -SHSN OVC015 00/M00 A3044 RMK SC8 SLP348

CYQF;2012-10-03 12:12;CYQF 031212Z 34006KT 6SM -SHSN FEW010 OVC020 RMK SF2SC6

CYQF;2012-10-03 13:00;CYQF 031300Z 33008KT 10SM -SHSN FEW010 OVC025 01/M00 A3046 RMK SF2SC6 SLP353

CYQF;2012-10-03 13:39;CYQF 031339Z 33008KT 3/4SM -SHSN OVC015 RMK SN3SC5

CYQF;2012-10-03 14:00;CYQF 031400Z 36005KT 6SM -SHSN BKN015 OVC025 00/M00 A3047 RMK SN1SC5SC2 VIS SE 3/4 SLP357

CYQF;2012-10-03 14:21;CYQF 031421Z 34004KT 10SM SCT004 BKN020 OVC060 RMK SC4SC2SC2

CYQF;2012-10-03 15:00;CYQF 031500Z 34012KT 15SM SCT005 BKN020 OVC060 01/M00 A3048 RMK SC3SC2SC2 SLP362

CYQF;2012-10-03 16:00;CYQF 031600Z 34006KT 15SM FEW005 BKN017 OVC060 02/00 A3049 RMK SC2SC6SC1 SLP365

CYQF;2012-10-03 17:00;CYQF 031700Z 34008KT 15SM SCT015 BKN060 03/00 A3050 RMK SC3SC3 SLP367

CYQF;2012-10-03 17:19;CYQF 031719Z 33012KT 15SM BKN011 BKN090 RMK CU6AC1

CYQF;2012-10-03 18:00;CYQF 031800Z 31010KT 15SM BKN012 BKN090 04/01 A3050 RMK CU5AC2 SLP365

CYQF;2012-10-03 19:00;CYQF 031900Z 33010KT 15SM BKN015 BKN250 04/00 A3050 RMK CU5CI1 SLP365

CYQF;2012-10-03 20:00;CYQF 032000Z 34007KT 15SM BKN024 05/M01 A3049 RMK CU6 SLP362

CYQF;2012-10-03 21:00;CYQF 032100Z 34004KT 15SM BKN025 05/M01 A3049 RMK CU6 SLP361

CYQF;2012-10-03 22:00;CYQF 032200Z 34007KT 15SM BKN030 06/M02 A3048 RMK CU6 SLP360

CYQF;2012-10-03 23:00;CYQF 032300Z 03004KT 15SM BKN025 BKN090 05/M01 A3049 RMK CU5AC1 SLP361

CYQF;2012-10-04 00:00;CYQF 040000Z 27003KT 15SM SCT020 BKN090 03/M00 A3049 RMK CU3AC2 SLP367

CYQF;2012-10-04 01:00;CYQF 040100Z 00000KT 15SM FEW020 SCT090 02/00 A3049 RMK CU2AC2 SLP366

CYQF;2012-10-04 02:00;CYQF 040200Z 00000KT 15SM FEW090 01/M00 A3049 RMK AC2 SLP366

CYQF;2012-10-04 03:00;CYQF 040300Z 00000KT 15SM SKC M01/M03 A3048 RMK SLP366

CYQF;2012-10-04 04:00;CYQF 040400Z 00000KT 15SM SKC M01/M02 A3047 RMK FROIN SLP363

CYQF;2012-10-04 05:00;CYQF 040500Z 23003KT 10SM VCFG SKC M02/M03 A3046 RMK FROIN SLP360

CYQF;2012-10-04 05:51;CYQF 040551Z 00000KT 2SM BR SKC RMK FG2

CYQF;2012-10-04 06:00;CYQF 040600Z 00000KT 3/4SM BR SKC M02/M03 A3045 RMK FG2 SLP356

CYQF;2012-10-04 06:15;CYQF 040615Z 16004KT 1/4SM FZFG SKC RMK FG2

CYQF;2012-10-04 06:38;CYQF 040638Z 00000KT 1/8SM FZFG SKC RMK FG3

CYQF;2012-10-04 07:00;CYQF 040700Z 00000KT 1/8SM FZFG SKC M03/M04 A3044 RMK FG5 SLP353

CYQF;2012-10-04 07:49;CYQF 040749Z 00000KT 1/4SM FZFG SKC RMK FG3

CYQF;2012-10-04 08:00;CYQF 040800Z 00000KT 1/2SM FZFG SKC M03/M04 A3044 RMK FG3 SLP351

CYQF;2012-10-04 09:00;CYQF 040900Z 00000KT 3/4SM BR SKC M04/M05 A3044 RMK FG2 SLP349

CYQF;2012-10-04 09:18;CYQF 040918Z 00000KT 3SM BR SKC RMK FG2

CYQF;2012-10-04 10:00;CYQF 041000Z 17002KT 6SM BR SKC M05/M06 A3042 RMK FG2 SLP345

CYQF;2012-10-04 11:00;CYQF 041100Z 00000KT 10SM SKC M04/M05 A3042 RMK SLP343

CYQF;2012-10-04 12:00;CYQF 041200Z 00000KT 12SM SKC M05/M06 A3042 RMK SLP346

CYQF;2012-10-04 13:00;CYQF 041300Z 00000KT 15SM FEW240 M05/M06 A3041 RMK CI1 SLP344

CYQF;2012-10-04 14:00;CYQF 041400Z 00000KT 15SM FEW250 M05/M06 A3041 RMK CI1 SLP344

CYQF;2012-10-04 15:00;CYQF 041500Z 00000KT 10SM FEW250 M03/M05 A3041 RMK CI0 SLP348

CYQF;2012-10-04 16:00;CYQF 041600Z 00000KT 10SM VCFG FEW250 M01/M03 A3041 RMK CI0 SLP348

CYQF;2012-10-04 17:00;CYQF 041700Z 19004KT 10SM FEW250 00/M01 A3041 RMK CI1 SLP348

CYQF;2012-10-04 18:00;CYQF 041800Z 20005KT 10SM FEW250 04/M00 A3041 RMK CI1 SLP339

CYQF;2012-10-04 19:00;CYQF 041900Z 20007KT 12SM FEW025 06/M01 A3040 RMK CU1 SLP337

CYQF;2012-10-04 20:00;CYQF 042000Z 21008KT 15SM FEW030 07/M01 A3039 RMK CU1 SLP333

CYQF;2012-10-04 21:00;CYQF 042100Z 00000KT 15SM FEW030 07/M01 A3037 RMK CU2 SLP326

CYQF;2012-10-04 22:00;CYQF 042200Z 33002KT 15SM FEW036 SCT060 07/M02 A3036 RMK CU2SC2 SLP323

CYQF;2012-10-04 23:00;CYQF 042300Z 31002KT 15SM FEW015 SCT035 BKN060 07/M04 A3036 RMK CF1CU2SC4 SLP323

CYQF;2012-10-05 00:00;CYQF 050000Z 01007KT 15SM FEW040 BKN070 06/M04 A3037 RMK CU2AC4 SLP327

CYQF;2012-10-05 01:00;CYQF 050100Z 31002KT 15SM FEW040 BKN070 06/M02 A3036 RMK CU1AC6 SLP324

CYQF;2012-10-05 02:00;CYQF 050200Z 00000KT 15SM BKN070 04/M02 A3037 RMK AC7 SLP325

CYQF;2012-10-05 03:00;CYQF 050300Z 36004KT 15SM OVC075 05/M03 A3037 RMK AC8 SLP326

CYQF;2012-10-05 04:00;CYQF 050400Z 36004KT 15SM BKN070 04/M02 A3037 RMK AC7 SLP327

CYQF;2012-10-05 05:00;CYQF 050500Z 00000KT 15SM BKN070 04/M02 A3038 RMK AC7 SLP328

CYQF;2012-10-05 06:00;CYQF 050600Z 33002KT 15SM BKN075 03/M01 A3038 RMK AC7 SLP324

CYQF;2012-10-05 07:00;CYQF 050700Z 33002KT 15SM BKN075 02/M01 A3038 RMK AC7 SLP325

CYQF;2012-10-05 08:00;CYQF 050800Z 32003KT 15SM BKN075 01/M02 A3039 RMK AC6 SLP326

CYQF;2012-10-05 09:00;CYQF 050900Z 31004KT 15SM FEW075 M00/M03 A3039 RMK AC2 SLP327

CYQF;2012-10-05 10:00;CYQF 051000Z 00000KT 15SM BKN075 M00/M03 A3038 RMK AC6 SLP326

CYQF;2012-10-05 11:00;CYQF 051100Z 00000KT 15SM SCT075 M02/M04 A3039 RMK AC4 SLP328

CYQF;2012-10-05 12:00;CYQF 051200Z 00000KT 15SM FEW075 M03/M05 A3040 RMK AC2 SLP335

CYQF;2012-10-05 13:00;CYQF 051300Z 21002KT 15SM FEW075 M04/M05 A3041 RMK AC2 SLP337

CYQF;2012-10-05 14:00;CYQF 051400Z 00000KT 8SM VCFG FEW080 FEW240 M04/M05 A3042 RMK AC1CI1 SLP341

CYQF;2012-10-05 15:00;CYQF 051500Z 22002KT 12SM FEW080 M03/M04 A3043 RMK AC1 SLP345

CYQF;2012-10-05 16:00;CYQF 051600Z 00000KT 12SM FEW010 01/M02 A3044 RMK ST1 SLP349

CYQF;2012-10-05 17:00;CYQF 051700Z 20004KT 12SM FEW250 03/M01 A3044 RMK CI1 SLP348

CYQF;2012-10-05 18:00;CYQF 051800Z 21005KT 15SM FEW030 FEW250 05/M02 A3043 RMK CU1CI0 SLP338

CYQF;2012-10-05 19:00;CYQF 051900Z 16004KT 15SM FEW036 SCT260 06/M03 A3042 RMK CU2CI1 SLP336

CYQF;2012-10-05 20:00;CYQF 052000Z 00000KT 15SM FEW040 FEW260 08/M04 A3040 RMK CU2CI1 SLP330

CYQF;2012-10-05 21:00;CYQF 052100Z 16005KT 15SM FEW040 FEW260 08/M05 A3038 RMK CU2CI1 SLP323

CYQF;2012-10-05 22:00;CYQF 052200Z 17006KT 15SM FEW050 BKN250 08/M05 A3036 RMK CU1CI2 SLP318

CYQF;2012-10-05 23:00;CYQF 052300Z 18007KT 15SM SCT220 BKN270 08/M06 A3035 RMK CI2CC2 SLP313

CYQF;2012-10-06 00:00;CYQF 060000Z 17006KT 15SM SCT220 BKN270 07/M05 A3033 RMK CC2CI2 SLP309

CYQF;2012-10-06 01:00;CYQF 060100Z 17006KT 15SM BKN160 BKN250 05/M04 A3032 RMK AC5CI1 SLP305

CYQF;2012-10-06 02:00;CYQF 060200Z 18005KT 15SM BKN150 BKN250 04/M04 A3030 RMK AC6CI1 SLP301

CYQF;2012-10-06 03:00;CYQF 060300Z 18006KT 15SM BKN200 04/M04 A3029 RMK CI6 OBS TAKEN +24 SLP298

CYQF;2012-10-06 04:00;CYQF 060400Z 18005KT 15SM BKN200 04/M04 A3028 RMK CI6 SLP295

CYQF;2012-10-06 05:00;CYQF 060500Z 19008KT 15SM BKN250 03/M04 A3026 RMK CI6 SLP289

CYQF;2012-10-06 06:00;CYQF 060600Z 19007KT 15SM BKN250 04/M03 A3025 RMK CI6 SLP276

CYQF;2012-10-06 07:00;CYQF 060700Z 20006KT 15SM FEW120 OVC250 03/M03 A3024 RMK AC2CI3 SLP272

CYQF;2012-10-06 08:00;CYQF 060800Z 21004KT 15SM BKN120 OVC250 03/M03 A3023 RMK AC5CI2 SLP271

CYQF;2012-10-06 09:00;CYQF 060900Z 26004KT 15SM BKN120 OVC250 03/M02 A3023 RMK AC6CI2 SLP265

CYQF;2012-10-06 10:00;CYQF 061000Z 30006KT 15SM BKN120 OVC250 04/M01 A3022 RMK AC6CI2 SLP263

CYQF;2012-10-06 11:00;CYQF 061100Z 30008KT 15SM OVC120 06/M01 A3021 RMK AC8 SLP260

CYQF;2012-10-06 12:00;CYQF 061200Z 29010KT 15SM OVC100 06/00 A3020 RMK AC8 SLP255

CYQF;2012-10-06 13:00;CYQF 061300Z 30012KT 15SM BKN100 07/01 A3021 RMK AC7 SLP256

CYQF;2012-10-06 14:00;CYQF 061400Z 31010KT 15SM BKN100 07/02 A3021 RMK AC7 SLP258

CYQF;2012-10-06 15:00;CYQF 061500Z 32008KT 15SM BKN100 08/03 A3022 RMK AC6 SLP263

CYQF;2012-10-06 16:00;CYQF 061600Z 33010G15KT 15SM SCT100 09/03 A3022 RMK AC3 SLP263

CYQF;2012-10-06 17:00;CYQF 061700Z 34015G20KT 15SM FEW100 10/03 A3023 RMK AC2 SLP266

CYQF;2012-10-06 18:00;CYQF 061800Z 33015G22KT 15SM FEW100 11/02 A3023 RMK AC1 SLP261

CYQF;2012-10-06 19:00;CYQF 061900Z 34015G20KT 15SM FEW100 12/01 A3022 RMK AC1 SLP259

CYQF;2012-10-06 20:00;CYQF 062000Z 33015G20KT 15SM FEW050 FEW100 13/02 A3021 RMK CU1AC1 SLP256

CYQF;2012-10-06 21:00;CYQF 062100Z 34011G16KT 15SM FEW050 FEW100 14/02 A3020 RMK CU1AC1 SLP248

CYQF;2012-10-06 22:00;CYQF 062200Z 34010KT 15SM FEW050 FEW250 14/02 A3018 RMK CU1CI2 SLP243

CYQF;2012-10-06 23:00;CYQF 062300Z 34010KT 15SM FEW050 BKN250 14/01 A3016 RMK CU1CI1 SLP238

CYQF;2012-10-07 00:00;CYQF 070000Z 34006KT 15SM BKN250 13/02 A3014 RMK CI3 SLP227

CYQF;2012-10-07 01:00;CYQF 070100Z 01003KT 15SM SCT250 10/02 A3012 RMK CI2 SLP221

CYQF;2012-10-07 02:00;CYQF 070200Z 19003KT 15SM FEW250 06/01 A3011 RMK CI2 SLP216

CYQF;2012-10-07 03:00;CYQF 070300Z 20004KT 15SM SKC 05/01 A3009 RMK SLP217

CYQF;2012-10-07 04:00;CYQF 070400Z 21004KT 15SM SKC 03/00 A3007 RMK SLP211

CYQF;2012-10-07 05:00;CYQF 070500Z 21005KT 15SM SKC 02/M01 A3005 RMK SLP205

CYQF;2012-10-07 06:00;CYQF 070600Z 20005KT 15SM SKC 03/00 A3003 RMK SLP194

CYQF;2012-10-07 07:00;CYQF 070700Z 21003KT 15SM SKC 02/M00 A3001 RMK SLP187

CYQF;2012-10-07 08:00;CYQF 070800Z 20004KT 15SM SKC 02/M00 A2998 RMK SLP178

CYQF;2012-10-07 09:00;CYQF 070900Z 22004KT 15SM SKC 01/M01 A2995 RMK SLP166

CYQF;2012-10-07 10:00;CYQF 071000Z 22004KT 15SM FEW250 02/M00 A2994 RMK CI0 SLP160

CYQF;2012-10-07 11:00;CYQF 071100Z 23006KT 15SM SCT250 02/M01 A2993 RMK CI2 SLP159

CYQF;2012-10-07 12:00;CYQF 071200Z 21005KT 15SM BKN250 02/M00 A2993 RMK CI2 SLP157

CYQF;2012-10-07 13:00;CYQF 071300Z 23005KT 15SM BKN250 03/00 A2991 RMK CI2 SLP153

CYQF;2012-10-07 14:00;CYQF 071400Z 30008KT 15SM BKN250 06/01 A2991 RMK CI3 SLP151

CYQF;2012-10-07 15:00;CYQF 071500Z 29010KT 15SM FEW160 BKN260 07/01 A2991 RMK AC2CI2 SLP154

CYQF;2012-10-07 16:00;CYQF 071600Z 28010G15KT 15SM FEW160 BKN260 10/02 A2990 RMK AC2CI2 SLP152

CYQF;2012-10-07 17:00;CYQF 071700Z 30015G20KT 15SM FEW160 BKN260 13/03 A2989 RMK AC2CI2 SLP150

CYQF;2012-10-07 18:00;CYQF 071800Z 32020G30KT 15SM FEW160 FEW260 16/03 A2988 RMK AC1CI1 SLP136

CYQF;2012-10-07 19:00;CYQF 071900Z 33020G30KT 15SM FEW050 FEW260 17/04 A2988 RMK CU1CI1 SLP137

CYQF;2012-10-07 20:00;CYQF 072000Z 32018G28KT 15SM FEW052 SCT260 17/04 A2987 RMK CU2CI2 SLP135

CYQF;2012-10-07 21:00;CYQF 072100Z 33020G30KT 15SM FEW052 BKN260 17/04 A2987 RMK CU1CI6 SLP134

CYQF;2012-10-07 22:00;CYQF 072200Z 34013G25KT 15SM FEW060 FEW100 BKN260 18/03 A2988 RMK CU1AC2CI2 SLP136

CYQF;2012-10-07 23:00;CYQF 072300Z 33015G25KT 15SM FEW060TCU BKN100 BKN260 17/03 A2989 RMK TCU2AC2CI2 SLP140

CYQF;2012-10-08 00:00;CYQF 080000Z 33012G19KT 15SM FEW050TCU BKN100 OVC260 15/03 A2990 RMK TCU2AC4CI1 VIRGA SLP145

CYQF;2012-10-08 01:00;CYQF 080100Z 30008KT 15SM BKN100 BKN250 14/04 A2989 RMK AC5CI1 SLP141

CYQF;2012-10-08 02:00;CYQF 080200Z 32010KT 15SM BKN100 13/03 A2991 RMK AC6 SLP147

CYQF;2012-10-08 03:00;CYQF 080300Z 33010G16KT 15SM BKN100 13/04 A2991 RMK AC6 SLP147

CYQF;2012-10-08 04:00;CYQF 080400Z 32012G18KT 15SM BKN100 13/04 A2992 RMK AC6 SLP150

CYQF;2012-10-08 05:00;CYQF 080500Z 35012G20KT 15SM OVC080 12/03 A2994 RMK AC8 SLP154

CYQF;2012-10-08 05:24;CYQF 080524Z 34012KT 15SM -RA OVC075 RMK AC8

CYQF;2012-10-08 06:00;CYQF 080600Z 33010KT 10SM -RA OVC040 08/05 A2998 RMK SC8 SLP166

CYQF;2012-10-08 06:40;CYQF 080640Z 29006KT 15SM OVC040 RMK SC8

CYQF;2012-10-08 07:00;CYQF 080700Z 32008KT 15SM BKN040 OVC070 08/06 A2998 RMK SC6AC2 SLP165

CYQF;2012-10-08 07:45;CYQF 080745Z 33007KT 15SM -RA SCT040 OVC070 RMK SC4AC4

CYQF;2012-10-08 08:00;CYQF 080800Z 33010KT 15SM -RA SCT040 OVC070 08/06 A2999 RMK SC3AC5 SLP168

CYQF;2012-10-08 09:00;CYQF 080900Z 34006KT 15SM -RA SCT040 OVC080 07/05 A3000 RMK SC3AC5 SLP171

CYQF;2012-10-08 10:00;CYQF 081000Z 35004KT 15SM -RA SCT040 OVC090 06/03 A2999 RMK SC3AC5 SLP170

CYQF;2012-10-08 10:25;CYQF 081025Z 35006KT 15SM SCT040 OVC090 RMK SC3AC5

CYQF;2012-10-08 11:00;CYQF 081100Z 01006KT 15SM SCT030 BKN090 05/02 A3000 RMK SC3AC4 SLP172

CYQF;2012-10-08 12:00;CYQF 081200Z 32004KT 15SM SCT030 BKN090 05/03 A3000 RMK SC3AC4 SLP178

CYQF;2012-10-08 13:00;CYQF 081300Z 32003KT 15SM FEW030 BKN090 04/02 A3000 RMK SC2AC5 SLP177

CYQF;2012-10-08 14:00;CYQF 081400Z 32008KT 15SM FEW030 BKN090 04/01 A3001 RMK SC2AC5 SLP181

CYQF;2012-10-08 15:00;CYQF 081500Z 33008KT 15SM FEW015 BKN030 BKN090 BKN250 04/01 A3003 RMK SC2SC3AC2CI1 VIRGA SLP191

CYQF;2012-10-08 16:00;CYQF 081600Z 33015G20KT 15SM FEW020 SCT090 BKN250 04/M01 A3004 RMK CU1AC2CI1 SLP193

CYQF;2012-10-08 17:00;CYQF 081700Z 34011G16KT 15SM FEW025 BKN090 BKN250 05/M01 A3004 RMK CU1AC2CI1 SLP193

CYQF;2012-10-08 18:00;CYQF 081800Z 35010G20KT 15SM FEW027 FEW030 BKN100 BKN250 06/M01 A3004 RMK CU1SC1AC5CI1 SLP196

CYQF;2012-10-08 19:00;CYQF 081900Z 32010G15KT 15SM FEW028 BKN100 BKN250 07/M00 A3002 RMK CU1AC6CI1 SLP192

CYQF;2012-10-08 20:00;CYQF 082000Z 31011G16KT 15SM FEW028 SCT050 BKN100 BKN250 07/M01 A3002 RMK CU2SC2AC2CI1 SLP192

CYQF;2012-10-08 21:00;CYQF 082100Z 31012G17KT 15SM SCT036 BKN100 08/M01 A3001 RMK CU4AC2 SLP185

CYQF;2012-10-08 22:00;CYQF 082200Z 34015G20KT 15SM BKN040 BKN100 08/M02 A3001 RMK CU6AC1 SLP186

CYQF;2012-10-08 23:00;CYQF 082300Z 33012G17KT 15SM SCT040 BKN100 08/M01 A3001 RMK CU3AC4 SLP186

CYQF;2012-10-09 00:00;CYQF 090000Z 32010G15KT 15SM FEW040 OVC100 07/M01 A3002 RMK CU1AC7 SLP194

CYQF;2012-10-09 01:00;CYQF 090100Z 34010KT 15SM BKN050 OVC100 06/M01 A3004 RMK SC6AC2 SLP199

CYQF;2012-10-09 02:00;CYQF 090200Z 31004KT 15SM SCT050 OVC100 06/00 A3004 RMK SC3AC5 SLP199

CYQF;2012-10-09 03:00;CYQF 090300Z 32008KT 15SM FEW050 OVC100 05/M01 A3005 RMK SC2AC6 SLP206

CYQF;2012-10-09 04:00;CYQF 090400Z 32005KT 15SM BKN100 05/M01 A3006 RMK AC7 SLP209

CYQF;2012-10-09 05:00;CYQF 090500Z 33004KT 15SM SCT100 BKN250 04/M01 A3007 RMK AC3CI2 SLP212

CYQF;2012-10-09 06:00;CYQF 090600Z 34003KT 15SM SCT100 BKN250 04/M00 A3008 RMK AC3CI2 SLP215

CYQF;2012-10-09 07:00;CYQF 090700Z 34004KT 15SM SCT100 BKN250 03/M01 A3007 RMK AC3CI2 SLP213

CYQF;2012-10-09 08:00;CYQF 090800Z 30004KT 15SM SCT100 BKN250 04/M01 A3007 RMK AC3CI2 SLP212

CYQF;2012-10-09 09:00;CYQF 090900Z 26004KT 15SM FEW100 BKN250 03/M01 A3006 RMK AC2CI2 SLP210

CYQF;2012-10-09 10:00;CYQF 091000Z 27004KT 15SM SCT100 OVC250 03/01 A3005 RMK AC4CI2 SLP207

CYQF;2012-10-09 11:00;CYQF 091100Z 24003KT 15SM SCT100 OVC250 03/01 A3005 RMK AC4CI2 SLP205

CYQF;2012-10-09 13:00;CYQF 091300Z 00000KT 15SM -RA BKN030 OVC060 03/01 A3004 RMK SC6SC2 SLP202

CYQF;2012-10-09 13:17;CYQF 091317Z 22002KT 15SM BKN030 OVC060 RMK SC6SC2

CYQF;2012-10-09 13:43;CYQF 091343Z 00000KT 12SM -SHRA SCT030 OVC080 RMK SC3AS5

CYQF;2012-10-09 14:00;CYQF 091400Z 00000KT 10SM -SHRA FEW010 SCT022 OVC057 03/01 A3004 RMK SF1SC3SC5 SLP203

CYQF;2012-10-09 14:30;CYQF 091430Z 00000KT 15SM FEW010 SCT025 OVC060 RMK SF1SC3SC5

CYQF;2012-10-09 15:00;CYQF 091500Z 00000KT 15SM SCT025 OVC060 03/02 A3004 RMK SC4SC4 SLP202

CYQF;2012-10-09 16:00;CYQF 091600Z 20004KT 15SM SCT025 OVC060 04/02 A3003 RMK SC4SC4 SLP200

CYQF;2012-10-09 16:36;CYQF 091636Z 00000KT 8SM -SHRA BKN025 OVC060 RMK SC6SC2

CYQF;2012-10-09 17:00;CYQF 091700Z 20003KT 10SM -SHRA FEW010 BKN025 OVC060 04/03 A3002 RMK SF1SC5SC3 SLP197

CYQF;2012-10-09 18:00;CYQF 091800Z 24006KT 15SM -SHRA FEW010 BKN030 OVC060 06/04 A3001 RMK SF1SC4SC3 SLP191

CYQF;2012-10-09 18:31;CYQF 091831Z 19006KT 15SM FEW010 SCT030 BKN060 RMK SF1SC2SC4

CYQF;2012-10-09 19:00;CYQF 091900Z 20005KT 15SM FEW012 BKN030 07/04 A3000 RMK CU1SC6 SLP187

CYQF;2012-10-09 20:00;CYQF 092000Z 00000KT 15SM FEW030 BKN080 08/03 A2997 RMK SC1AC6 SLP180

CYQF;2012-10-09 21:00;CYQF 092100Z 00000KT 15SM FEW030 BKN080 09/03 A2996 RMK CU1AC6 SLP173

CYQF;2012-10-09 22:00;CYQF 092200Z 14002KT 15SM FEW030 SCT080 BKN250 10/03 A2994 RMK SC1AC4CI3 SLP167

CYQF;2012-10-09 23:00;CYQF 092300Z 08002KT 15SM SCT080 BKN250 10/04 A2993 RMK AC3CI2 SLP163

CYQF;2012-10-10 00:00;CYQF 100000Z 00000KT 15SM SCT080 BKN250 09/03 A2990 RMK AC3CI2 SLP151

CYQF;2012-10-10 01:00;CYQF 100100Z 09004KT 15SM BKN100 BKN250 08/03 A2989 RMK AC5CI2 SLP147

CYQF;2012-10-10 02:00;CYQF 100200Z 00000KT 15SM BKN080 07/03 A2987 RMK AC7 SLP142

CYQF;2012-10-10 03:00;CYQF 100300Z 12003KT 15SM BKN070 08/03 A2985 RMK AC7 OBS TAKEN +24 SLP133

CYQF;2012-10-10 03:42;CYQF 100342Z 03003KT 15SM -RA BKN070 RMK AC7

CYQF;2012-10-10 04:00;CYQF 100400Z 06004KT 15SM OVC070 08/03 A2984 RMK AC8 SLP132

CYQF;2012-10-10 05:00;CYQF 100500Z 05003KT 15SM SCT070 BKN250 07/03 A2983 RMK AC3CI2 SLP129

CYQF;2012-10-10 06:00;CYQF 100600Z 00000KT 15SM SCT070 04/02 A2982 RMK AC3 SLP124

CYQF;2012-10-10 07:00;CYQF 100700Z 32003KT 15SM BKN070 04/02 A2983 RMK AC6 SLP128

CYQF;2012-10-10 08:00;CYQF 100800Z 32006KT 15SM BKN080 06/03 A2986 RMK AC7 SLP139

CYQF;2012-10-10 09:00;CYQF 100900Z 36010KT 15SM OVC080 06/04 A2989 RMK AC8 SLP146

CYQF;2012-10-10 10:00;CYQF 101000Z 36010G16KT 15SM SCT015 OVC060 06/03 A2991 RMK SC4SC4 SLP152

CYQF;2012-10-10 11:00;CYQF 101100Z 35010KT 15SM OVC015 05/03 A2995 RMK SC8 SLP162

CYQF;2012-10-10 12:00;CYQF 101200Z 35010KT 15SM OVC015 05/03 A2996 RMK SC8 SLP169

CYQF;2012-10-10 13:00;CYQF 101300Z 33012KT 15SM BKN015 OVC033 05/03 A2997 RMK SC5SC3 SLP172

CYQF;2012-10-10 13:44;CYQF 101344Z 34013KT 12SM -SHRA BKN012 OVC030 RMK SC6SC2

CYQF;2012-10-10 14:00;CYQF 101400Z 35013G20KT 8SM -SHRA OVC012 04/02 A3000 RMK SC8 SLP183

CYQF;2012-10-10 15:00;CYQF 101500Z 01015G22KT 15SM -SHRA BKN010 OVC030 02/00 A3005 RMK SC6SC2 SLP205

CYQF;2012-10-10 15:07;CYQF 101507Z 36015G20KT 15SM -SHSN BKN010 OVC030 RMK SC6SC2

CYQF;2012-10-10 16:00;CYQF 101600Z 36012G18KT 10SM -SHSN BKN010 OVC030 01/M01 A3009 RMK SC6SC2 SLP218

CYQF;2012-10-10 16:45;CYQF 101645Z 35010G15KT 2SM -SHSN OVC011 RMK SC8

CYQF;2012-10-10 17:00;CYQF 101700Z 35010G15KT 1 1/2SM -SHSN OVC011 00/M01 A3012 RMK SC8 SLP227

CYQF;2012-10-10 18:00;CYQF 101800Z 02010G15KT 2SM -SHSN OVC011 00/M02 A3014 RMK SC8 VIS VRB 1-3 SLP244

CYQF;2012-10-10 19:00;CYQF 101900Z 03008KT 3SM -SHSN OVC010 00/M02 A3016 RMK SC8 VIS VRB 2-4 SLP249

CYQF;2012-10-10 20:00;CYQF 102000Z 01010KT 3SM -SHSN OVC011 M00/M02 A3017 RMK SC8 VIS VRB 2-4 SLP252

CYQF;2012-10-10 21:00;CYQF 102100Z 03009KT 2SM -SHSN OVC010 M00/M02 A3018 RMK SC8 VIS VRB 1-3 SLP257

CYQF;2012-10-10 22:00;CYQF 102200Z 01010KT 2SM -SHSN OVC010 M01/M03 A3020 RMK SN4SC4 VIS VRB 1-3 SLP263

CYQF;2012-10-10 23:00;CYQF 102300Z 03006KT 3SM -SHSN OVC010 M01/M03 A3022 RMK SC8 CIG RAG SLP267

CYQF;2012-10-11 00:00;CYQF 110000Z 01004KT 2SM -SN OVC010 M01/M03 A3023 RMK SN4SC4 VIS VRB 1-3 SLP274

CYQF;2012-10-11 01:00;CYQF 110100Z 02005KT 2SM -SN OVC010 M01/M03 A3025 RMK SN4SC4 VIS VRB 1-3 SLP280

CYQF;2012-10-11 02:00;CYQF 110200Z 00000KT 2SM -SN OVC010 M02/M03 A3026 RMK SN4SC4 SLP284

CYQF;2012-10-11 03:00;CYQF 110300Z 00000KT 2SM -SN OVC010 M01/M03 A3027 RMK SN4SC4 SLP294

CYQF;2012-10-11 04:00;CYQF 110400Z 00000KT 3SM -SN OVC015 M02/M04 A3028 RMK SC8 SLP296

CYQF;2012-10-11 05:00;CYQF 110500Z 07008KT 15SM OVC026 M02/M05 A3029 RMK SC8 SLP298

CYQF;2012-10-11 06:00;CYQF 110600Z 08006KT 10SM -SN OVC038 M02/M05 A3029 RMK SC8 SLP303

CYQF;2012-10-11 07:00;CYQF 110700Z 08007KT 10SM -SN OVC038 M03/M05 A3029 RMK SC8 SLP302

CYQF;2012-10-11 08:00;CYQF 110800Z 12007KT 10SM -SN OVC040 M03/M05 A3029 RMK SC8 SLP302

CYQF;2012-10-11 09:00;CYQF 110900Z 13006KT 10SM -SN OVC040 M04/M06 A3028 RMK SC8 SLP301

CYQF;2012-10-11 10:00;CYQF 111000Z 14008KT 10SM -SN OVC030 M04/M06 A3027 RMK SC8 SLP298

CYQF;2012-10-11 11:00;CYQF 111100Z 13008KT 10SM -SN OVC030 M04/M07 A3026 RMK SC8 SLP295

CYQF;2012-10-11 12:00;CYQF 111200Z 13008KT 10SM -SN OVC030 M04/M07 A3025 RMK SC8 SLP290

CYQF;2012-10-11 13:00;CYQF 111300Z 13010KT 10SM -SN OVC030 M04/M07 A3021 RMK SC8 SLP280

CYQF;2012-10-11 14:00;CYQF 111400Z 13010G15KT 15SM -SN OVC030 M04/M07 A3019 RMK SC8 SLP273

CYQF;2012-10-11 15:00;CYQF 111500Z 15010G15KT 15SM -SN BKN030 OVC100 M04/M06 A3016 RMK SC5AC3 SLP263

CYQF;2012-10-11 15:40;CYQF 111540Z 14013G20KT 15SM -SN DRSN BKN013 OVC100 RMK SC6AC2

CYQF;2012-10-11 16:00;CYQF 111600Z 14012G18KT 12SM -SN DRSN BKN013 OVC100 M03/M06 A3015 RMK SC6AC2 SLP257

CYQF;2012-10-11 17:00;CYQF 111700Z 14014G22KT 12SM -SN DRSN OVC011 M03/M05 A3011 RMK SC8 SLP246

CYQF;2012-10-11 18:00;CYQF 111800Z 15015G20KT 10SM -SN DRSN OVC010 M02/M04 A3008 RMK SC8 SLP233

CYQF;2012-10-11 19:00;CYQF 111900Z 16014G21KT 8SM -SN DRSN OVC011 M01/M03 A3005 RMK SC8 SLP223

CYQF;2012-10-11 20:00;CYQF 112000Z 16013G18KT 10SM -SN DRSN OVC011 M00/M02 A3000 RMK SC8 SLP209

CYQF;2012-10-11 21:00;CYQF 112100Z 16015G20KT 10SM -SN OVC012 00/M02 A2996 RMK SC8 PRESFR SLP191

CYQF;2012-10-11 22:00;CYQF 112200Z 16013G20KT 15SM -SN OVC012 01/M02 A2995 RMK SC8 SLP187

CYQF;2012-10-11 23:00;CYQF 112300Z 15010KT 15SM -SN OVC012 01/M01 A2992 RMK SC8 SLP178

CYQF;2012-10-12 00:00;CYQF 120000Z 16012KT 15SM -SN OVC012 02/M00 A2990 RMK SC8 VRY LGT SNW SLP166

CYQF;2012-10-12 00:23;CYQF 120023Z 15010KT 15SM OVC012 RMK SC8

CYQF;2012-10-12 01:00;CYQF 120100Z 15008KT 15SM OVC012 02/M00 A2987 RMK SC8 SLP158

CYQF;2012-10-12 01:20;CYQF 120120Z 15010KT 15SM BKN015 RMK SC7

CYQF;2012-10-12 02:00;CYQF 120200Z 15008KT 15SM OVC016 02/M00 A2984 RMK SC8 SLP148

CYQF;2012-10-12 03:00;CYQF 120300Z 15010KT 15SM OVC250 02/00 A2982 RMK CI8 SLP139

CYQF;2012-10-12 04:00;CYQF 120400Z 16008KT 15SM FEW100 OVC250 01/M00 A2979 RMK AC1CI5 SLP131

CYQF;2012-10-12 05:00;CYQF 120500Z 18005KT 15SM BKN250 01/M00 A2978 RMK CI4 SLP126

CYQF;2012-10-12 06:00;CYQF 120600Z 19002KT 15SM BKN250 01/M01 A2976 RMK CI4 SLP117

CYQF;2012-10-12 07:00;CYQF 120700Z 00000KT 15SM BKN200 M00/M01 A2974 RMK CI6 SLP112

CYQF;2012-10-12 08:00;CYQF 120800Z 00000KT 15SM BKN200 M00/M01 A2972 RMK CI7 SLP105

CYQF;2012-10-12 09:00;CYQF 120900Z 00000KT 10SM OVC150 M01/M02 A2971 RMK AS7 SLP098

CYQF;2012-10-12 10:00;CYQF 121000Z 00000KT 10SM OVC150 M00/M01 A2970 RMK AS8 SLP097

CYQF;2012-10-12 11:00;CYQF 121100Z 36005KT 10SM FEW007 OVC150 00/M01 A2968 RMK ST2AS6 SLP091

CYQF;2012-10-12 11:30;CYQF 121130Z 04002KT 10SM BKN003 OVC150 RMK ST6AS2

CYQF;2012-10-12 12:00;CYQF 121200Z 04003KT 4SM BR OVC003 00/M00 A2968 RMK ST8 SLP087

CYQF;2012-10-12 12:09;CYQF 121209Z 04004KT 1/2SM FG VV002 RMK FG8

CYQF;2012-10-12 12:17;CYQF 121217Z 06003KT 1/4SM FG VV001 RMK FG8

CYQF;2012-10-12 13:00;CYQF 121300Z 03004KT 1/2SM FG VV002 00/00 A2966 RMK FG8 SLP080

CYQF;2012-10-12 13:27;CYQF 121327Z 00000KT 3SM BR OVC005 RMK ST8

CYQF;2012-10-12 14:00;CYQF 121400Z 00000KT 2SM BR OVC002 01/00 A2965 RMK ST8 SLP078

CYQF;2012-10-12 15:00;CYQF 121500Z 00000KT 2SM BR OVC003 01/00 A2965 RMK ST8 SLP076

CYQF;2012-10-12 16:00;CYQF 121600Z 00000KT 3SM BR SCT004 BKN030 OVC080 01/00 A2963 RMK ST3SC4AC1 SLP068

CYQF;2012-10-12 17:00;CYQF 121700Z 00000KT 3SM BR BKN006 OVC030 01/00 A2961 RMK ST6SC2 SLP064

CYQF;2012-10-12 18:00;CYQF 121800Z 01003KT 5SM BR OVC008 02/00 A2961 RMK ST8 SLP060

CYQF;2012-10-12 19:00;CYQF 121900Z 02006KT 5SM BR OVC006 02/01 A2960 RMK ST8 SLP057

CYQF;2012-10-12 20:00;CYQF 122000Z 02006KT 5SM BR OVC005 03/01 A2960 RMK ST8 SLP057

CYQF;2012-10-12 21:00;CYQF 122100Z 08002KT 5SM BR BKN007 04/02 A2959 RMK ST7 SLP055

CYQF;2012-10-12 22:00;CYQF 122200Z 26002KT 6SM BR OVC008 04/02 A2960 RMK ST8 SLP057

CYQF;2012-10-12 23:00;CYQF 122300Z 00000KT 5SM BR OVC008 04/02 A2962 RMK ST8 SLP063

CYQF;2012-10-13 00:00;CYQF 130000Z 00000KT 5SM BR OVC008 04/02 A2964 RMK ST8 SLP069

CYQF;2012-10-13 01:00;CYQF 130100Z 00000KT 5SM BR OVC007 04/02 A2965 RMK ST8 SLP072

CYQF;2012-10-13 02:00;CYQF 130200Z 27003KT 3SM BR OVC006 04/02 A2967 RMK ST8 SLP081

CYQF;2012-10-13 02:36;CYQF 130236Z 00000KT 3SM BR OVC004 RMK ST8

CYQF;2012-10-13 03:00;CYQF 130300Z 21006KT 3SM BR OVC004 03/02 A2968 RMK ST8 CIG RAG SLP085

CYQF;2012-10-13 03:30;CYQF 130330Z 23003KT 2SM BR OVC002 RMK ST8

CYQF;2012-10-13 04:00;CYQF 130400Z 24004KT 2SM BR OVC002 02/01 A2969 RMK ST8 SLP089

CYQF;2012-10-13 04:13;CYQF 130413Z 20003KT 1SM BR VV004 RMK FG8

CYQF;2012-10-13 04:45;CYQF 130445Z 21003KT 1/2SM FG VV002 RMK FG8

CYQF;2012-10-13 05:00;CYQF 130500Z 21003KT 1/2SM FG VV002 02/01 A2971 RMK FG8 SLP093

CYQF;2012-10-13 06:00;CYQF 130600Z 24004KT 1/2SM FG VV002 01/01 A2971 RMK FG8 SLP095

CYQF;2012-10-13 06:44;CYQF 130644Z 18005KT 1/4SM FG VV002 RMK FG8

CYQF;2012-10-13 07:00;CYQF 130700Z 22005KT 1/4SM FG VV002 00/M00 A2971 RMK FG8 SLP096

CYQF;2012-10-13 08:00;CYQF 130800Z 15003KT 1/4SM FZFG VV002 M01/M01 A2971 RMK FG8 SLP096

CYQF;2012-10-13 09:00;CYQF 130900Z 00000KT 1/4SM FZFG VV002 M01/M02 A2972 RMK FG8 SLP099

CYQF;2012-10-13 09:23;CYQF 130923Z 30004KT 1 1/2SM BR VV004 RMK FG8

CYQF;2012-10-13 09:49;CYQF 130949Z 26004KT 3SM BR SKC RMK FG2

CYQF;2012-10-13 11:00;CYQF 131100Z 26004KT 15SM SCT100 M01/M02 A2972 RMK AC3 SLP100

CYQF;2012-10-13 12:00;CYQF 131200Z 00000KT 15SM SCT100 M00/M01 A2973 RMK AC4 SLP100

CYQF;2012-10-13 13:00;CYQF 131300Z 32004KT 15SM BKN090 00/M01 A2974 RMK AC7 SLP104

CYQF;2012-10-13 14:00;CYQF 131400Z 26002KT 15SM BKN090 01/M00 A2974 RMK AC6 SLP105

CYQF;2012-10-13 15:00;CYQF 131500Z 16003KT 15SM SCT090 BKN250 02/01 A2975 RMK AC3CI2 SLP106

CYQF;2012-10-13 16:00;CYQF 131600Z 22002KT 15SM SCT090 BKN250 04/03 A2976 RMK AC3CI2 SLP111

CYQF;2012-10-13 17:00;CYQF 131700Z 22004KT 15SM SCT090 BKN150 06/03 A2977 RMK AC3AC3 SLP114

CYQF;2012-10-13 18:00;CYQF 131800Z 31003KT 15SM SCT090 BKN150 09/05 A2977 RMK AC3AC2 SLP108

CYQF;2012-10-13 19:00;CYQF 131900Z 27002KT 15SM FEW090 FEW250 13/04 A2978 RMK AC1CI2 SLP111

CYQF;2012-10-13 20:00;CYQF 132000Z 30005KT 15SM FEW040 FEW090 SCT250 15/06 A2977 RMK CU1AC1CI1 SLP110

CYQF;2012-10-13 21:00;CYQF 132100Z 31004KT 15SM FEW050 SCT250 17/04 A2978 RMK CU2CI1 SLP106

CYQF;2012-10-13 22:00;CYQF 132200Z 35010KT 15SM FEW060 SCT250 18/02 A2978 RMK CU2CI1 SLP107

CYQF;2012-10-13 23:00;CYQF 132300Z 01005KT 15SM SCT003CB BKN250 16/03 A2980 RMK CB4CI1 OCNL LTNG W SLP111

CYQF;2012-10-13 23:40;CYQF 132340Z 34020G32KT 15SM -TSRA BKN028CB BKN250 RMK CB6CI1 HVY SHWR N MVG E

CYQF;2012-10-14 00:00;CYQF 140000Z 03010G15KT 15SM -TSRA BKN030CB BKN250 11/04 A2984 RMK CB6CI0 PRESRR WND SHFT SLP133

CYQF;2012-10-14 00:07;CYQF 140007Z 01007KT 15SM TS SCT035CB SCT100 BKN250 RMK CB4AC1CI0

CYQF;2012-10-14 00:13;CYQF 140013Z 04004KT 15SM SCT035CB SCT250 RMK CB3CI0

CYQF;2012-10-14 01:00;CYQF 140100Z 18003KT 15SM FEW020CB FEW100 SCT250 08/04 A2985 RETS RMK CB2AC1CI0 SLP135

CYQF;2012-10-14 02:00;CYQF 140200Z 19005KT 15SM FEW100 04/02 A2985 RMK AC2 SLP137

CYQF;2012-10-14 03:00;CYQF 140300Z 26006KT 15SM FEW100 06/03 A2988 RMK AC1 SLP150

CYQF;2012-10-14 04:00;CYQF 140400Z 17003KT 15SM FEW100 04/01 A2990 RMK AC1 OBS TAKEN +20 SLP157

CYQF;2012-10-14 05:00;CYQF 140500Z 00000KT 15SM SKC 03/01 A2991 RMK SLP160

CYQF;2012-10-14 06:00;CYQF 140600Z 20003KT 15SM SKC 01/M00 A2992 RMK SLP159

CYQF;2012-10-14 07:00;CYQF 140700Z 00000KT 15SM SKC 01/00 A2993 RMK SLP162

CYQF;2012-10-14 08:00;CYQF 140800Z 21005KT 15SM SKC 00/M01 A2993 RMK SLP162

CYQF;2012-10-14 09:00;CYQF 140900Z 20004KT 15SM SKC M01/M03 A2994 RMK SLP159

CYQF;2012-10-14 10:00;CYQF 141000Z 16002KT 15SM SCT240 M00/M02 A2993 RMK CI2 SLP157

CYQF;2012-10-14 11:00;CYQF 141100Z 16004KT 15SM SCT240 01/M02 A2991 RMK CI2 SLP150

CYQF;2012-10-14 12:00;CYQF 141200Z 19004KT 15SM FEW100 BKN240 01/M01 A2988 RMK AC2CI3 SLP145

CYQF;2012-10-14 13:00;CYQF 141300Z 19003KT 15SM SCT100 BKN240 02/M01 A2986 RMK AC3CI2 SLP139

CYQF;2012-10-14 14:00;CYQF 141400Z 15005KT 15SM BKN100 BKN240 02/M00 A2983 RMK AC5CI2 SLP128

CYQF;2012-10-14 15:00;CYQF 141500Z 15003KT 15SM BKN100 OVC240 04/00 A2979 RMK AC6CI2 SLP118

CYQF;2012-10-14 16:00;CYQF 141600Z 17010KT 15SM BKN100 OVC240 07/02 A2976 RMK AC7CI1 SLP108

CYQF;2012-10-14 17:00;CYQF 141700Z 17010KT 15SM BKN100 BKN240 09/04 A2972 RMK AS6CI1 SLP096

CYQF;2012-10-14 18:00;CYQF 141800Z 18010KT 15SM BKN100 OVC240 10/05 A2968 RMK AS6CI2 SLP075

CYQF;2012-10-14 19:00;CYQF 141900Z 19012G19KT 15SM BKN100 OVC240 14/06 A2964 RMK AS6CI2 SLP064

CYQF;2012-10-14 20:00;CYQF 142000Z 18010G15KT 15SM BKN100 BKN240 14/06 A2960 RMK AS6CI1 SLP050

CYQF;2012-10-14 21:00;CYQF 142100Z 19010G15KT 15SM FEW040 BKN100 BKN240 16/06 A2957 RMK SC1AC5CI2 SLP035

CYQF;2012-10-14 22:00;CYQF 142200Z 19006KT 15SM FEW040 BKN100 BKN240 14/06 A2956 RMK SC1AC5CI2 SLP031

CYQF;2012-10-14 23:00;CYQF 142300Z 19006KT 15SM FEW040 BKN100 BKN250 14/07 A2955 RMK SC1AC2CI4 SLP027

CYQF;2012-10-15 00:00;CYQF 150000Z 18004KT 15SM FEW040 SCT100 BKN250 14/07 A2954 RMK SC1AC2CI2 SLP022

CYQF;2012-10-15 01:00;CYQF 150100Z 18008KT 15SM SCT100 BKN250 11/06 A2952 RMK AC2CI2 SLP016

CYQF;2012-10-15 02:00;CYQF 150200Z 00000KT 15SM SCT100 BKN250 10/05 A2953 RMK AC3CI3 SLP019

CYQF;2012-10-15 03:00;CYQF 150300Z 23010KT 15SM OVC200 10/03 A2953 RMK CI8 OBS TAKEN +30 SLP021

CYQF;2012-10-15 04:00;CYQF 150400Z 22004KT 15SM BKN200 10/03 A2954 RMK CI6 SLP023

CYQF;2012-10-15 05:00;CYQF 150500Z 00000KT 15SM BKN200 08/03 A2954 RMK CI6 SLP025

CYQF;2012-10-15 06:00;CYQF 150600Z 36005KT 15SM BKN200 09/03 A2955 RMK CI6 SLP022

CYQF;2012-10-15 07:00;CYQF 150700Z 17003KT 15SM FEW100 BKN200 07/02 A2956 RMK AC2CI4 SLP026

CYQF;2012-10-15 08:00;CYQF 150800Z 22006KT 15SM FEW100 BKN200 06/02 A2958 RMK AC2CI4 SLP031

CYQF;2012-10-15 09:00;CYQF 150900Z 27003KT 15SM FEW100 BKN200 06/01 A2959 RMK AC2CI3 SLP035

CYQF;2012-10-15 10:00;CYQF 151000Z 00000KT 15SM FEW100 BKN200 04/01 A2961 RMK AC2CI2 SLP039

CYQF;2012-10-15 11:00;CYQF 151100Z 00000KT 15SM SCT100 BKN200 04/01 A2962 RMK AC3CI2 SLP042

CYQF;2012-10-15 12:00;CYQF 151200Z 23002KT 15SM SCT100 BKN200 04/01 A2962 RMK AC3CI2 SLP048

CYQF;2012-10-15 13:00;CYQF 151300Z 00000KT 15SM SCT100 BKN200 03/01 A2965 RMK AC3CI2 SLP056

CYQF;2012-10-15 14:00;CYQF 151400Z 00000KT 15SM FEW100 BKN200 02/00 A2965 RMK AC2CI5 SLP057

CYQF;2012-10-15 15:00;CYQF 151500Z 00000KT 15SM FEW060 BKN100 BKN240 04/01 A2967 RMK SC1AC6CI1 SLP072

CYQF;2012-10-15 16:00;CYQF 151600Z 19004KT 15SM FEW060 BKN100 07/04 A2969 RMK SC1AC6 SLP076

CYQF;2012-10-15 17:00;CYQF 151700Z 00000KT 15SM FEW060 FEW100 FEW240 11/05 A2969 RMK SC1AC1CI1 SLP077

CYQF;2012-10-15 18:00;CYQF 151800Z 18004KT 15SM FEW060 FEW100 FEW250 14/05 A2967 RMK SC1AC1CI1 SLP061

CYQF;2012-10-15 19:00;CYQF 151900Z 06004KT 15SM FEW055 FEW250 16/02 A2967 RMK CU1CI0 SLP059

CYQF;2012-10-15 20:00;CYQF 152000Z 12006KT 15SM FEW055 FEW250 17/01 A2964 RMK CU1CI0 SLP049

CYQF;2012-10-15 21:00;CYQF 152100Z 15010KT 15SM FEW056 FEW250 17/03 A2963 RMK CU1CI1 SLP044

CYQF;2012-10-15 22:00;CYQF 152200Z 18010KT 15SM FEW061 FEW250 18/02 A2961 RMK CU1CI2 SLP038

CYQF;2012-10-15 23:00;CYQF 152300Z 15010KT 15SM FEW060 SCT250 17/02 A2958 RMK CU1CI2 TR CU SLP031

CYQF;2012-10-16 00:00;CYQF 160000Z 14006KT 15SM FEW100 SCT250 16/03 A2956 RMK AC1CI1 SLP025

CYQF;2012-10-16 01:00;CYQF 160100Z 14007KT 15SM FEW100 SCT250 12/03 A2952 RMK AC1CI1 SLP012

CYQF;2012-10-16 02:00;CYQF 160200Z 16006KT 15SM BKN080 11/02 A2946 RMK AC5 OBS TAKEN +28 SLP994

CYQF;2012-10-16 03:00;CYQF 160300Z 15007KT 15SM BKN100 10/01 A2943 RMK AC6 OBS TAKEN +17 SLP988

CYQF;2012-10-16 04:00;CYQF 160400Z 17007KT 15SM BKN100 10/01 A2940 RMK AC6 SLP979

CYQF;2012-10-16 05:00;CYQF 160500Z 18006KT 15SM BKN100 09/02 A2937 RMK AC6 SLP969

CYQF;2012-10-16 06:00;CYQF 160600Z 18006KT 15SM BKN100 09/02 A2932 RMK AC6 SLP938

CYQF;2012-10-16 07:00;CYQF 160700Z 18007KT 15SM BKN100 09/01 A2928 RMK AC6 SLP926

CYQF;2012-10-16 08:00;CYQF 160800Z 16006KT 15SM BKN100 08/01 A2924 RMK AC7 SLP913

CYQF;2012-10-16 09:00;CYQF 160900Z 18008KT 15SM BKN100 08/01 A2921 RMK AC7 SLP899

CYQF;2012-10-16 10:00;CYQF 161000Z 19004KT 15SM SCT100 BKN250 07/01 A2918 RMK AC3CI1 SLP888

CYQF;2012-10-16 11:00;CYQF 161100Z 20008KT 15SM FEW100 SCT250 06/01 A2916 RMK AC2CI1 SLP883

CYQF;2012-10-16 12:00;CYQF 161200Z 21004KT 15SM SCT100 BKN250 05/01 A2914 RMK AC3CI2 SLP879

CYQF;2012-10-16 13:00;CYQF 161300Z 30004KT 15SM SCT100 OVC250 04/01 A2912 RMK AC3CI4 SLP874

CYQF;2012-10-16 14:00;CYQF 161400Z 00000KT 15SM BKN070 BKN250 06/01 A2912 RMK AC5CI1 ACC VIRGA SLP874

CYQF;2012-10-16 15:00;CYQF 161500Z 30003KT 15SM FEW070 BKN250 07/00 A2914 RMK AC2CI4 SLP882

CYQF;2012-10-16 16:00;CYQF 161600Z 33008KT 15SM FEW040 SCT070 BKN250 08/02 A2916 RMK SC1AC3CI2 VIRGA SLP889

CYQF;2012-10-16 17:00;CYQF 161700Z 32006KT 15SM FEW040 BKN080 BKN250 11/03 A2918 RMK SC1AC4CI2 VIRGA SLP896

CYQF;2012-10-16 18:00;CYQF 161800Z 33011G16KT 15SM FEW040 BKN080 BKN250 12/03 A2920 RMK SC1AC5CI2 VIRGA SLP900

CYQF;2012-10-16 19:00;CYQF 161900Z 33015G24KT 15SM FEW040 BKN080 BKN250 11/02 A2925 RMK SC2AC5CI1 VIRGA SLP914

CYQF;2012-10-16 20:00;CYQF 162000Z 31015G25KT 15SM FEW040 BKN080 BKN250 08/01 A2930 RMK SC1AC5CI1 SLP929

CYQF;2012-10-16 21:00;CYQF 162100Z 29015KT 15SM VCSH BKN040 BKN080 OVC250 08/00 A2934 RMK SC5AC2CI1 SLP954

CYQF;2012-10-16 22:00;CYQF 162200Z 27013G18KT 15SM BKN040 OVC100 09/M00 A2937 RMK SC6AC2 VIRGA SLP964

CYQF;2012-10-16 23:00;CYQF 162300Z 28010G15KT 15SM BKN040 OVC100 08/02 A2942 RMK SC5AC2 VIRGA SLP978

CYQF;2012-10-17 00:00;CYQF 170000Z 31013G20KT 15SM FEW040 BKN090 08/00 A2946 RMK SC2AC5 VIRGA SLP996

CYQF;2012-10-17 01:00;CYQF 170100Z 30014G20KT 15SM FEW040 SCT090 BKN250 07/M04 A2950 RMK SC1AC2CI3 SLP009

CYQF;2012-10-17 02:00;CYQF 170200Z 28010KT 15SM FEW100 FEW250 05/M02 A2954 RMK AC1CI1 SLP022

CYQF;2012-10-17 03:00;CYQF 170300Z 27010KT 15SM SKC 03/M02 A2957 RMK SLP038

CYQF;2012-10-17 04:00;CYQF 170400Z 28011KT 15SM FEW150 04/M04 A2960 RMK AC2 SLP047

CYQF;2012-10-17 05:00;CYQF 170500Z 28010KT 15SM SKC 03/M04 A2962 RMK SLP054

CYQF;2012-10-17 06:00;CYQF 170600Z 29008KT 15SM SKC 02/M05 A2964 RMK SLP057

CYQF;2012-10-17 07:00;CYQF 170700Z 30010KT 15SM SKC 02/M05 A2967 RMK SLP067

CYQF;2012-10-17 08:00;CYQF 170800Z 28006KT 15SM SKC 01/M05 A2970 RMK SLP077

CYQF;2012-10-17 09:00;CYQF 170900Z 28008KT 15SM FEW060 01/M05 A2972 RMK SC2 SLP092

CYQF;2012-10-17 10:00;CYQF 171000Z 29012KT 15SM SCT060 02/M06 A2974 RMK SC3 SLP098

CYQF;2012-10-17 11:00;CYQF 171100Z 28008KT 15SM SCT060 01/M06 A2975 RMK SC3 SLP102

CYQF;2012-10-17 12:00;CYQF 171200Z 31008KT 15SM FEW060 M00/M06 A2977 RMK SC2 SLP112

CYQF;2012-10-17 13:00;CYQF 171300Z 28010KT 15SM FEW060 BKN240 M00/M06 A2980 RMK SC2CI2 SLP120

CYQF;2012-10-17 14:00;CYQF 171400Z 30010KT 15SM FEW060 BKN250 01/M06 A2982 RMK SC2CI2 SLP126

CYQF;2012-10-17 15:00;CYQF 171500Z 31010G17KT 15SM BKN100 BKN250 03/M07 A2986 RMK AC5CI2 SLP144

CYQF;2012-10-17 16:00;CYQF 171600Z 31015G22KT 15SM BKN100 BKN250 04/M07 A2988 RMK AC6CI1 SLP150

CYQF;2012-10-17 17:00;CYQF 171700Z 32012G20KT 15SM FEW100 SCT250 05/M08 A2989 RMK AC1CI1 SLP155

CYQF;2012-10-17 18:00;CYQF 171800Z 32020G30KT 15SM FEW040 07/M08 A2991 RMK CU1 SLP159

CYQF;2012-10-17 19:00;CYQF 171900Z 30022G32KT 15SM FEW060 07/M08 A2993 RMK CU1 SLP163

CYQF;2012-10-17 20:00;CYQF 172000Z 32020G30KT 15SM FEW100 08/M10 A2994 RMK AC1 SLP166

CYQF;2012-10-17 21:00;CYQF 172100Z 33018G26KT 15SM FEW060 08/M09 A2996 RMK SC1 SLP174

CYQF;2012-10-17 22:00;CYQF 172200Z 33021G29KT 15SM FEW060 09/M09 A2998 RMK SC1 SLP180

CYQF;2012-10-17 23:00;CYQF 172300Z 32015G23KT 15SM FEW060 FEW220 08/M10 A3000 RMK SC1CI1 SLP188

CYQF;2012-10-18 00:00;CYQF 180000Z 33010KT 15SM FEW250 07/M10 A3003 RMK CI1 SLP202

CYQF;2012-10-18 01:00;CYQF 180100Z 33006KT 15SM FEW250 02/M10 A3005 RMK CI1 SLP210

CYQF;2012-10-18 02:00;CYQF 180200Z 33002KT 15SM FEW250 00/M10 A3007 RMK CI1 OBS TAKEN +12 SLP215

CYQF;2012-10-18 03:00;CYQF 180300Z 30004KT 15SM FEW250 M02/M10 A3009 RMK CI1 SLP229

CYQF;2012-10-18 04:00;CYQF 180400Z 28003KT 15SM SKC M02/M09 A3010 RMK SLP233

CYQF;2012-10-18 05:00;CYQF 180500Z 18005KT 15SM SKC M04/M09 A3012 RMK SLP239

CYQF;2012-10-18 06:00;CYQF 180600Z 20004KT 15SM SKC M06/M10 A3012 RMK SLP240

CYQF;2012-10-18 07:00;CYQF 180700Z 18004KT 15SM SKC M05/M09 A3010 RMK SLP235

CYQF;2012-10-18 08:00;CYQF 180800Z 18004KT 15SM SKC M05/M10 A3011 RMK SLP238

CYQF;2012-10-18 09:00;CYQF 180900Z 19004KT 15SM SKC M06/M10 A3009 RMK SLP228

CYQF;2012-10-18 10:00;CYQF 181000Z 00000KT 15SM SKC M05/M10 A3005 RMK SLP217

CYQF;2012-10-18 11:00;CYQF 181100Z 00000KT 15SM SKC M03/M10 A3004 RMK SLP213

CYQF;2012-10-18 13:00;CYQF 181300Z 18008KT 15SM FEW100 BKN250 M02/M08 A3001 RMK AC2CI3 SLP198

CYQF;2012-10-18 14:00;CYQF 181400Z 18007KT 15SM FEW100 BKN250 M01/M08 A3000 RMK AC2CI2 SLP194

CYQF;2012-10-18 15:00;CYQF 181500Z 18006KT 15SM SCT100 BKN250 M02/M07 A2999 RMK AC3CI2 SLP200

CYQF;2012-10-18 16:00;CYQF 181600Z 17010KT 15SM SCT100 BKN250 01/M07 A2998 RMK AC4CI2 SLP198

CYQF;2012-10-18 17:00;CYQF 181700Z 18010KT 15SM FEW100 BKN250 04/M06 A2997 RMK AC1CI2 SLP195

CYQF;2012-10-18 18:00;CYQF 181800Z 17010KT 15SM FEW100 FEW250 06/M06 A2996 RMK AC1CI2 SLP187

CYQF;2012-10-18 19:00;CYQF 181900Z 17006KT 15SM FEW100 FEW250 09/M04 A2996 RMK AC1CI2 SLP185

CYQF;2012-10-18 20:00;CYQF 182000Z 16008KT 15SM FEW100 SCT250 11/M04 A2993 RMK AC1CI2 SLP176

CYQF;2012-10-18 21:00;CYQF 182100Z 16007KT 15SM FEW100 SCT260 13/M04 A2991 RMK AC1CI2 SLP162

CYQF;2012-10-18 22:00;CYQF 182200Z 15010KT 15SM SCT100 BKN260 14/M04 A2989 RMK AC3CI2 SLP155

CYQF;2012-10-18 23:00;CYQF 182300Z 14010KT 15SM BKN100 BKN260 13/M03 A2986 RMK AC6CI2 SLP145

CYQF;2012-10-19 00:00;CYQF 190000Z 14011KT 15SM BKN100 BKN260 12/M04 A2984 RMK AC5CI2 SLP132

CYQF;2012-10-19 01:00;CYQF 190100Z 14012KT 15SM BKN100 BKN260 11/M04 A2980 RMK AC5CI2 SLP122

CYQF;2012-10-19 02:00;CYQF 190200Z 16010KT 15SM BKN100 OVC260 09/M03 A2977 RMK AC5CI2 SLP113

CYQF;2012-10-19 03:00;CYQF 190300Z 16008KT 15SM SCT100 BKN260 07/M03 A2975 RMK AC3CI2 SLP107

CYQF;2012-10-19 04:00;CYQF 190400Z 18010KT 15SM FEW100 BKN260 07/M03 A2971 RMK AC2CI2 SLP094

CYQF;2012-10-19 05:00;CYQF 190500Z 18008KT 15SM FEW100 BKN260 06/M03 A2967 RMK AC2CI2 SLP082

CYQF;2012-10-19 06:00;CYQF 190600Z 17008KT 15SM BKN120 06/M02 A2963 RMK AC6 SLP057

CYQF;2012-10-19 07:00;CYQF 190700Z 16008KT 15SM BKN120 06/M02 A2959 RMK AC7 SLP045

CYQF;2012-10-19 08:00;CYQF 190800Z 17010KT 15SM BKN120 06/M01 A2955 RMK AC7 SLP033

CYQF;2012-10-19 09:00;CYQF 190900Z 16006KT 15SM OVC120 06/M00 A2952 RMK AC8 SLP012

CYQF;2012-10-19 10:00;CYQF 191000Z 15004KT 15SM OVC120 06/M00 A2949 RMK AC8 SLP002

CYQF;2012-10-19 11:00;CYQF 191100Z 18006KT 15SM OVC120 05/M00 A2945 RMK AC8 SLP989

CYQF;2012-10-19 12:00;CYQF 191200Z 20004KT 15SM OVC120 04/00 A2943 RMK AC8 SLP984

CYQF;2012-10-19 13:00;CYQF 191300Z 20004KT 15SM OVC120 04/00 A2942 RMK AC8 SLP980

CYQF;2012-10-19 14:00;CYQF 191400Z 00000KT 15SM BKN100 BKN250 05/01 A2939 RMK AC6CI1 SLP973

CYQF;2012-10-19 15:00;CYQF 191500Z 00000KT 15SM BKN100 BKN250 04/01 A2938 RMK AC5CI1 SLP972

CYQF;2012-10-19 17:00;CYQF 191700Z 22004KT 15SM FEW030 FEW100 SCT250 10/04 A2936 RMK CU1AC2CI2 SLP967

CYQF;2012-10-19 18:00;CYQF 191800Z 22011KT 15SM FEW040 SCT100 BKN250 15/03 A2935 RMK CU1AC3CI2 SLP951

CYQF;2012-10-19 19:00;CYQF 191900Z 23010G15KT 15SM FEW040 FEW100 FEW250 18/01 A2934 RMK CU1AC1CI1 CU TR SLP947

CYQF;2012-10-19 20:00;CYQF 192000Z 26010G15KT 15SM FEW060 FEW100 FEW250 19/00 A2933 RMK CU1AC1CI1 SLP945

CYQF;2012-10-19 21:00;CYQF 192100Z 29015G20KT 15SM FEW060 SCT250 19/M01 A2933 RMK CU1CI2 SLP940

CYQF;2012-10-19 22:00;CYQF 192200Z 32010G16KT 15SM SCT060 BKN250 18/M00 A2934 RMK CU3CI2 SLP943

CYQF;2012-10-19 23:00;CYQF 192300Z 34010KT 15SM SCT060 BKN250 16/01 A2936 RMK CU3CI1 SLP949

CYQF;2012-10-20 00:00;CYQF 200000Z 36010KT 15SM SCT040 BKN250 12/02 A2940 RMK CU3CI1 SLP972

CYQF;2012-10-20 01:00;CYQF 200100Z 07005KT 15SM SCT032 BKN250 09/01 A2941 RMK CU3CI1 SLP975

CYQF;2012-10-20 02:00;CYQF 200200Z 07002KT 15SM BKN120 08/01 A2940 RMK AC3 SLP972

CYQF;2012-10-20 03:00;CYQF 200300Z 03007KT 15SM FEW040 BKN120 06/00 A2940 RMK SC1AC6 SLP980

CYQF;2012-10-20 04:00;CYQF 200400Z 03007KT 15SM BKN120 05/M00 A2940 RMK AC6 SLP980

CYQF;2012-10-20 05:00;CYQF 200500Z 01010KT 15SM OVC120 04/M01 A2940 RMK AC8 SLP981

CYQF;2012-10-20 06:00;CYQF 200600Z 03008KT 15SM OVC120 03/M01 A2939 RMK AC8 SLP968

CYQF;2012-10-20 07:00;CYQF 200700Z 00000KT 15SM OVC100 03/M01 A2940 RMK AC8 SLP970

CYQF;2012-10-20 08:00;CYQF 200800Z 26004KT 15SM OVC100 02/M01 A2943 RMK AC8 SLP981

CYQF;2012-10-20 09:00;CYQF 200900Z 27004KT 15SM SCT040 OVC090 03/M01 A2944 RMK SC3AC5 SLP979

CYQF;2012-10-20 09:14;CYQF 200914Z 33006KT 15SM -RA SCT040 OVC090 RMK SC4AC4

CYQF;2012-10-20 10:00;CYQF 201000Z 30004KT 15SM -RA BKN035 OVC090 02/M01 A2944 RMK SC6AC2 SLP979

CYQF;2012-10-20 10:22;CYQF 201022Z 33004KT 8SM -SN OVC035 RMK SC8

CYQF;2012-10-20 10:43;CYQF 201043Z 09020G25KT 2 1/2SM -SN SCT010 OVC030 RMK SC3SC5

CYQF;2012-10-20 10:53;CYQF 201053Z 03006KT 10SM -SN SCT010 OVC030 RMK SC3SC5 WND SHFT 1043

CYQF;2012-10-20 11:00;CYQF 201100Z 01006KT 10SM -SN FEW004 OVC030 01/M00 A2938 RMK SF2SC6 SLP962

CYQF;2012-10-20 12:00;CYQF 201200Z 01008KT 10SM -SN BKN005 OVC020 01/M00 A2941 RMK SF5SC3 SLP981

CYQF;2012-10-20 12:35;CYQF 201235Z 36006KT 15SM OVC005 RMK ST8

CYQF;2012-10-20 12:52;CYQF 201252Z 34004KT 15SM -SN OVC005 RMK ST8

CYQF;2012-10-20 13:00;CYQF 201300Z 32006KT 15SM -SN OVC005 01/M00 A2943 RMK ST8 SLP987

CYQF;2012-10-20 13:29;CYQF 201329Z 35004KT 2SM -SN OVC005 RMK ST8

CYQF;2012-10-20 14:00;CYQF 201400Z 34010G16KT 3SM -SN BKN005 OVC012 00/M01 A2946 RMK ST6SC2 SLP996

CYQF;2012-10-20 14:12;CYQF 201412Z 36010G15KT 5SM -SN SCT005 OVC025 RMK SC4SC4

CYQF;2012-10-20 15:00;CYQF 201500Z 35010KT 8SM -SN SCT005 OVC025 M00/M02 A2949 RMK SC3SC5 SLP015

CYQF;2012-10-20 15:42;CYQF 201542Z 35008KT 5SM -SN BKN012 OVC025 RMK SC6SC2 CIG RAG

CYQF;2012-10-20 16:00;CYQF 201600Z CCA 36010KT 5SM -SN BKN012 OVC025 M01/M03 A2952 RMK SC5SC3 CIG RAG SLP024

CYQF;2012-10-20 16:31;CYQF 201631Z 36012KT 5SM -SN FEW012 SCT020 BKN100 RMK SC2SC2AC2

CYQF;2012-10-20 17:00;CYQF 201700Z 35010KT 2SM -SN FEW012 FEW025 OVC100 M01/M03 A2953 RMK SC1SC2AC3 SLP029

CYQF;2012-10-20 18:00;CYQF 201800Z 36007KT 15SM -SN OVC012 M00/M02 A2955 RMK SC8 VIS S-SW 3 SLP040

CYQF;2012-10-20 18:34;CYQF 201834Z 34015KT 15SM OVC012 RMK SC8

CYQF;2012-10-20 19:00;CYQF 201900Z 33013KT 15SM OVC018 M00/M04 A2956 RMK SC8 SLP045

CYQF;2012-10-20 20:00;CYQF 202000Z 30008KT 15SM OVC015 M00/M04 A2957 RMK SC8 SLP047

CYQF;2012-10-20 21:00;CYQF 202100Z 33010KT 15SM BKN018 OVC090 00/M05 A2959 RMK SC7AC1 SLP053

CYQF;2012-10-20 22:00;CYQF 202200Z 31010KT 15SM OVC018 00/M04 A2961 RMK SC8 SLP060

CYQF;2012-10-20 23:00;CYQF 202300Z 30010KT 15SM FEW015 OVC025 M00/M05 A2963 RMK SC2SC6 SLP065

CYQF;2012-10-21 00:00;CYQF 210000Z 30010KT 15SM FEW015 BKN025 BKN250 M00/M05 A2965 RMK SC2SC4CI1 SLP076

CYQF;2012-10-21 01:00;CYQF 210100Z 28011KT 15SM BKN020 M01/M05 A2967 RMK SC7 SLP083

CYQF;2012-10-21 02:00;CYQF 210200Z 30008KT 15SM FEW015 BKN040 M01/M05 A2969 RMK SC2SC5 SLP089

CYQF;2012-10-21 03:00;CYQF 210300Z 34006KT 15SM BKN030 M01/M05 A2971 RMK SC6 SLP101

CYQF;2012-10-21 04:00;CYQF 210400Z 34012G18KT 15SM SCT030 BKN220 M02/M07 A2973 RMK SC3CI2 SLP107

CYQF;2012-10-21 05:00;CYQF 210500Z 33006KT 15SM SCT030 BKN220 M03/M07 A2975 RMK SC3CI2 SLP112

CYQF;2012-10-21 06:00;CYQF 210600Z 33010KT 15SM FEW030 BKN220 M03/M08 A2976 RMK SC2CI2 SLP121

CYQF;2012-10-21 07:00;CYQF 210700Z 34010KT 15SM BKN030 M03/M08 A2978 RMK SC6 SLP128

CYQF;2012-10-21 08:00;CYQF 210800Z 31007KT 15SM OVC030 M03/M08 A2980 RMK SC8 SLP134

CYQF;2012-10-21 09:00;CYQF 210900Z 28006KT 15SM OVC030 M04/M07 A2982 RMK SC8 SLP140

CYQF;2012-10-21 10:00;CYQF 211000Z 30012KT 15SM OVC026 M04/M08 A2983 RMK SC8 SLP143

CYQF;2012-10-21 11:00;CYQF 211100Z 33012KT 15SM OVC026 M04/M09 A2984 RMK SC8 SLP147

CYQF;2012-10-21 12:00;CYQF 211200Z 33005KT 15SM OVC026 M05/M09 A2985 RMK SC8 SLP153

CYQF;2012-10-21 13:00;CYQF 211300Z 30006KT 15SM OVC026 M05/M08 A2986 RMK SC8 SLP157

CYQF;2012-10-21 14:00;CYQF 211400Z 31008KT 15SM OVC030 M05/M09 A2987 RMK SC8 SLP161

CYQF;2012-10-21 15:00;CYQF 211500Z 31010KT 15SM BKN030 M05/M09 A2989 RMK SC7 SLP169

CYQF;2012-10-21 16:00;CYQF 211600Z 31010G15KT 15SM BKN030 M05/M10 A2991 RMK SC6 SLP175

CYQF;2012-10-21 17:00;CYQF 211700Z 33010G15KT 15SM BKN015 BKN030 M05/M10 A2991 RMK SC5SC2 SLP176

CYQF;2012-10-21 18:00;CYQF 211800Z 31010G15KT 15SM FEW015 SCT030 SCT250 M03/M09 A2992 RMK SC2SC2CI0 SLP180

CYQF;2012-10-21 19:00;CYQF 211900Z 30010G15KT 15SM FEW015 SCT250 M03/M09 A2992 RMK SC2CI0 SLP179

CYQF;2012-10-21 20:00;CYQF 212000Z 33010G15KT 15SM FEW020 SCT250 M03/M09 A2992 RMK SC2CI0 SLP179

CYQF;2012-10-21 21:00;CYQF 212100Z 30008KT 15SM SCT020 SCT250 M03/M08 A2992 RMK SC3CI0 SLP180

CYQF;2012-10-21 22:00;CYQF 212200Z 29008KT 15SM FEW030 SCT250 M02/M08 A2992 RMK SC2CI1 SLP179

CYQF;2012-10-21 23:00;CYQF 212300Z 27007KT 15SM FEW030 SCT250 M02/M08 A2992 RMK SC2CI1 SLP179

CYQF;2012-10-22 00:00;CYQF 220000Z 29005KT 15SM FEW030 FEW250 M03/M08 A2993 RMK SC1CI1 SLP182

CYQF;2012-10-22 01:00;CYQF 220100Z 29003KT 15SM FEW030 FEW250 M05/M09 A2994 RMK SC1CI1 SLP185

CYQF;2012-10-22 02:00;CYQF 220200Z 28002KT 15SM FEW030 M05/M09 A2994 RMK SC1 SLP187

CYQF;2012-10-22 03:00;CYQF 220300Z 00000KT 15SM FEW250 M06/M09 A2996 RMK CI1 SLP199

CYQF;2012-10-22 04:00;CYQF 220400Z 00000KT 15SM SCT250 M07/M09 A2996 RMK CI1 SLP199

CYQF;2012-10-22 05:00;CYQF 220500Z 26003KT 15SM SCT250 08/M10 A2997 RMK CI2 SLP203

CYQF;2012-10-22 06:00;CYQF 220600Z 32004KT 15SM SCT250 M08/M11 A2997 RMK CI2 SLP203

CYQF;2012-10-22 07:00;CYQF 220700Z 24004KT 15SM FEW080 SCT250 M09/M11 A2997 RMK AC1CI2 SLP202

CYQF;2012-10-22 08:00;CYQF 220800Z 25002KT 15SM FEW250 M10/M12 A2997 RMK CI1 SLP204

CYQF;2012-10-22 09:00;CYQF 220900Z 25003KT 15SM SKC M10/M12 A2998 RMK SLP207

CYQF;2012-10-22 10:00;CYQF 221000Z 30003KT 15SM SKC M10/M12 A2998 RMK SLP208

CYQF;2012-10-22 11:00;CYQF 221100Z 00000KT 15SM FEW100 M09/M11 A2998 RMK AC2 SLP208

CYQF;2012-10-22 12:00;CYQF 221200Z 32004KT 15SM FEW100 BKN250 M08/M10 A2999 RMK AC2CI1 SLP208

CYQF;2012-10-22 13:00;CYQF 221300Z 33004KT 15SM SCT100 BKN250 M07/M10 A2998 RMK AC3CI2 SLP206

CYQF;2012-10-22 14:00;CYQF 221400Z 34002KT 15SM FEW030 BKN090 M07/M10 A2999 RMK SC2AC5 SLP208

CYQF;2012-10-22 15:00;CYQF 221500Z 00000KT 15SM FEW030 BKN080 M07/M10 A2999 RMK SC2AC6 SLP212

CYQF;2012-10-22 16:00;CYQF 221600Z 00000KT 15SM FEW030 OVC080 M07/M10 A2999 RMK SC2AC6 SLP210

CYQF;2012-10-22 17:00;CYQF 221700Z 00000KT 15SM FEW030 OVC040 M06/M10 A2999 RMK SC1SC7 SLP211

CYQF;2012-10-22 18:00;CYQF 221800Z 02003KT 15SM FEW020 OVC035 M06/M09 A2998 RMK SC1SC7 SLP209

CYQF;2012-10-22 19:00;CYQF 221900Z 01003KT 15SM FEW020 BKN030 M04/M09 A2996 RMK SC1SC6 SLP204

CYQF;2012-10-22 20:00;CYQF 222000Z 00000KT 15SM FEW020 OVC030 M03/M09 A2995 RMK SC1SC6 SLP198

CYQF;2012-10-22 21:00;CYQF 222100Z 00000KT 15SM FEW020 BKN030 M03/M09 A2994 RMK SC1SC6 SLP192

CYQF;2012-10-22 22:00;CYQF 222200Z 00000KT 15SM BKN040 M03/M09 A2993 RMK SC6 SLP189

CYQF;2012-10-22 23:00;CYQF 222300Z 00000KT 15SM BKN035 M02/M09 A2993 RMK SC7 SLP191

CYQF;2012-10-23 00:00;CYQF 230000Z 00000KT 15SM BKN035 M03/M08 A2994 RMK SC7 SLP190

CYQF;2012-10-23 01:00;CYQF 230100Z 01003KT 15SM OVC030 M03/M09 A2992 RMK SC8 SLP184

CYQF;2012-10-23 02:00;CYQF 230200Z 36004KT 15SM OVC030 M03/M08 A2992 RMK SC8 SLP184

CYQF;2012-10-23 03:00;CYQF 230300Z 00000KT 15SM OVC030 M03/M08 A2993 RMK SC8 SLP188

CYQF;2012-10-23 04:00;CYQF 230400Z 03003KT 15SM OVC030 M03/M08 A2994 RMK SC8 SLP191

CYQF;2012-10-23 05:00;CYQF 230500Z 03005KT 15SM OVC030 M03/M08 A2993 RMK SC8 SLP188

CYQF;2012-10-23 06:00;CYQF 230600Z 02008KT 15SM OVC030 M04/M08 A2993 RMK SC8 SLP187

CYQF;2012-10-23 07:00;CYQF 230700Z 02012KT 15SM OVC035 M04/M08 A2992 RMK SC8 SLP184

CYQF;2012-10-23 08:00;CYQF 230800Z 34007KT 15SM OVC035 M05/M09 A2991 RMK SC8 SLP180

CYQF;2012-10-23 08:26;CYQF 230826Z 33006KT 10SM -SN OVC035 RMK SC8

CYQF;2012-10-23 09:00;CYQF 230900Z 33008KT 4SM -SN OVC035 M05/M08 A2991 RMK SN2SC6 SLP177

CYQF;2012-10-23 10:00;CYQF 231000Z 35008KT 2SM -SN OVC030 M06/M07 A2991 RMK SN3SC5 SLP178

CYQF;2012-10-23 10:43;CYQF 231043Z 34008KT 1 1/2SM -SN VV006 RMK SN8

CYQF;2012-10-23 11:00;CYQF 231100Z 34008KT 1 1/2SM -SN VV007 M06/M08 A2992 RMK SN8 SLP180

CYQF;2012-10-23 12:00;CYQF 231200Z 36005KT 1 1/2SM -SN VV008 M06/M08 A2992 RMK SN8 /S01/ SLP183

CYQF;2012-10-23 13:00;CYQF 231300Z 34008KT 1 1/2SM -SN VV008 M06/M08 A2993 RMK SN8 SLP185

CYQF;2012-10-23 14:00;CYQF 231400Z 34008KT 1 1/2SM -SN VV008 M06/M08 A2993 RMK SN8 SLP185

CYQF;2012-10-23 14:36;CYQF 231436Z 35008KT 2SM -SN VV010 RMK SN8

CYQF;2012-10-23 15:00;CYQF 231500Z 35008KT 2SM -SN VV010 M07/M09 A2994 RMK SN8 SLP190

CYQF;2012-10-23 16:00;CYQF 231600Z 36009KT 3/4SM -SN VV008 M06/M08 A2995 RMK SN8 SLP194

CYQF;2012-10-23 17:00;CYQF 231700Z 35010KT 3/4SM -SN DRSN VV008 M06/M08 A2995 RMK SN8 /S01/ SLP195

CYQF;2012-10-23 18:00;CYQF 231800Z 34009KT 3/4SM -SN DRSN VV008 M06/M08 A2995 RMK SN8 /S02/ SLP195

CYQF;2012-10-23 19:00;CYQF 231900Z 33010KT 3/4SM -SN VV007 M06/M08 A2995 RMK SN8 SLP193

CYQF;2012-10-23 20:00;CYQF 232000Z 33010G15KT 1SM -SN DRSN VV008 M06/M08 A2995 RMK SN8 SLP192

CYQF;2012-10-23 21:00;CYQF 232100Z 33010KT 1SM -SN VV008 M05/M08 A2994 RMK SN8 SLP192

CYQF;2012-10-23 22:00;CYQF 232200Z 34012KT 2 1/2SM -SN VV010 M05/M08 A2995 RMK SN8 SLP193

CYQF;2012-10-23 23:00;CYQF 232300Z 33010KT 2 1/2SM -SN BR VV010 M05/M08 A2995 RMK SN8 SLP196

CYQF;2012-10-24 00:00;CYQF 240000Z 33010KT 3SM -SN BR VV010 M05/M07 A2997 RMK SN8 SLP202

CYQF;2012-10-24 01:00;CYQF 240100Z 33008KT 3SM -SN BR VV010 M05/M07 A2998 RMK SN8 SLP205

CYQF;2012-10-24 02:00;CYQF 240200Z 33011KT 3SM -SN BR OVC030 M05/M07 A2999 RMK SN3SC5 SLP208

CYQF;2012-10-24 03:00;CYQF 240300Z 32011KT 3SM -SN BR OVC030 M05/M07 A2999 RMK SN3SC5 SLP211

CYQF;2012-10-24 04:00;CYQF 240400Z 33009KT 3SM -SN BR OVC025 M05/M07 A3000 RMK SN4SC4 SLP213

CYQF;2012-10-24 05:00;CYQF 240500Z 34008KT 8SM -SN OVC025 M05/M07 A3001 RMK SC8 SLP215

CYQF;2012-10-24 06:00;CYQF 240600Z 34008KT 10SM -SN OVC025 M05/M07 A3001 RMK SC8 SLP217

CYQF;2012-10-24 07:00;CYQF 240700Z 32006KT 6SM -SN OVC025 M05/M07 A3002 RMK SC8 SLP219

CYQF;2012-10-24 08:00;CYQF 240800Z 32010KT 10SM -SN OVC025 M05/M07 A3002 RMK SC8 SLP220

CYQF;2012-10-24 09:00;CYQF 240900Z 33008KT 10SM -SN OVC025 M05/M07 A3003 RMK SC8 SLP223

CYQF;2012-10-24 10:00;CYQF 241000Z 33008KT 10SM -SN OVC023 M05/M07 A3004 RMK SC8 SLP224

CYQF;2012-10-24 11:00;CYQF 241100Z 33010KT 10SM -SN OVC023 M04/M07 A3005 RMK SC8 SLP227

CYQF;2012-10-24 12:00;CYQF 241200Z 32008KT 10SM -SN OVC023 M04/M07 A3005 RMK SC8 SLP230

CYQF;2012-10-24 13:00;CYQF 241300Z 32012KT 15SM -SN OVC023 M04/M07 A3007 RMK SC8 SLP235

CYQF;2012-10-24 14:00;CYQF 241400Z 34010KT 10SM -SN SCT013 OVC020 M04/M07 A3007 RMK SC3SC5 SLP236

CYQF;2012-10-24 15:00;CYQF 241500Z 28010KT 8SM -SN OVC018 M05/M07 A3009 RMK SC8 SLP244

CYQF;2012-10-24 16:00;CYQF 241600Z 31010KT 10SM -SN OVC018 M05/M07 A3010 RMK SC8 SLP246

CYQF;2012-10-24 16:49;CYQF 241649Z 33008KT 15SM OVC011 RMK SC8

CYQF;2012-10-24 17:00;CYQF 241700Z 33008KT 15SM OVC011 M04/M06 A3011 RMK SC8 SLP249

CYQF;2012-10-24 18:00;CYQF 241800Z 33008KT 15SM OVC010 M04/M07 A3012 RMK SC8 SLP252

CYQF;2012-10-24 19:00;CYQF 241900Z 34010KT 15SM OVC013 M04/M07 A3012 RMK SC8 SLP253

CYQF;2012-10-24 20:00;CYQF 242000Z 33010KT 15SM OVC012 M04/M07 A3013 RMK SC8 SLP255

CYQF;2012-10-24 21:00;CYQF 242100Z 33010KT 15SM OVC015 M03/M08 A3014 RMK SC8 SLP257

CYQF;2012-10-24 22:00;CYQF 242200Z 34008KT 15SM OVC020 M03/M07 A3015 RMK SC8 SLP262

CYQF;2012-10-24 23:00;CYQF 242300Z 33011KT 15SM OVC018 M02/M07 A3018 RMK SC8 SLP270

CYQF;2012-10-25 00:00;CYQF 250000Z 33008KT 15SM OVC020 M04/M07 A3020 RMK SC8 SLP278

CYQF;2012-10-25 01:00;CYQF 250100Z 33007KT 15SM OVC020 M04/M07 A3022 RMK SC8 SLP283

CYQF;2012-10-25 02:00;CYQF 250200Z 32010KT 15SM OVC019 M04/M07 A3023 RMK SC8 SLP288

CYQF;2012-10-25 03:00;CYQF 250300Z 32011KT 15SM OVC024 M04/M08 A3024 RMK SC8 SLP294

CYQF;2012-10-25 04:00;CYQF 250400Z 33010KT 15SM OVC025 M04/M08 A3026 RMK SC8 SLP300

CYQF;2012-10-25 04:23;CYQF 250423Z 33007KT 15SM -SN OVC023 RMK SC8

CYQF;2012-10-25 05:00;CYQF 250500Z 33008KT 15SM -SN OVC025 M04/M09 A3027 RMK SC8 SLP303

CYQF;2012-10-25 06:00;CYQF 250600Z 35006KT 15SM -SN OVC025 M04/M08 A3028 RMK SC8 SLP306

CYQF;2012-10-25 07:00;CYQF 250700Z 34004KT 15SM -SN OVC025 M04/M09 A3028 RMK SC8 SLP308

CYQF;2012-10-25 08:00;CYQF 250800Z 00000KT 15SM -SN OVC035 M04/M09 A3029 RMK SC8 SLP310

CYQF;2012-10-25 09:00;CYQF 250900Z 31002KT 15SM -SN OVC040 M05/M08 A3030 RMK SC8 SLP314

CYQF;2012-10-25 10:00;CYQF 251000Z 31004KT 15SM -SN OVC040 M05/M08 A3031 RMK SC8 SLP315

CYQF;2012-10-25 12:00;CYQF 251200Z 30005KT 15SM -SN OVC038 M05/M07 A3033 RMK SC8 SLP323

CYQF;2012-10-25 13:00;CYQF 251300Z 31006KT 15SM -SN OVC040 M05/M07 A3034 RMK SC8 SLP327

CYQF;2012-10-25 14:00;CYQF 251400Z 32008KT 15SM OVC040 M05/M08 A3035 RMK SC8 SLP332

CYQF;2012-10-25 15:00;CYQF 251500Z 35007KT 15SM FEW015 FEW040 BKN090 M06/M08 A3037 RMK SC1SC2AC2 SLP340

CYQF;2012-10-25 16:00;CYQF 251600Z 33004KT 15SM -SN FEW040 BKN100 M05/M08 A3038 RMK SC2AC3 SLP342

CYQF;2012-10-25 16:53;CYQF 251653Z 33010KT 15SM FEW015 FEW040 BKN100 RMK CU1SC2AC3

CYQF;2012-10-25 17:00;CYQF 251700Z 34007KT 15SM FEW015 FEW040 BKN100 M04/M08 A3039 RMK CU1SC2AC3 SLP344

CYQF;2012-10-25 18:00;CYQF 251800Z 34010KT 15SM FEW015 BKN040 BKN100 M04/M08 A3039 RMK CU1SC4AC2 SLP343

CYQF;2012-10-25 19:00;CYQF 251900Z 33010KT 15SM BKN020 OVC050 M03/M09 A3039 RMK SC5SC3 CU EMBD SLP343

CYQF;2012-10-25 20:00;CYQF 252000Z 36008KT 15SM BKN020 OVC050 M03/M10 A3038 RMK SC5SC3 SLP341

CYQF;2012-10-25 21:00;CYQF 252100Z 35010KT 15SM BKN020 OVC050 M04/M10 A3038 RMK SC6SC2 SLP341

CYQF;2012-10-25 22:00;CYQF 252200Z 34006KT 15SM BKN020 OVC050 M03/M10 A3039 RMK SC6SC2 SLP343

CYQF;2012-10-25 23:00;CYQF 252300Z 33006KT 15SM OVC030 M04/M09 A3039 RMK SC8 SLP344

CYQF;2012-10-26 00:00;CYQF 260000Z 36005KT 15SM OVC030 M04/M10 A3040 RMK SC8 SLP348

CYQF;2012-10-26 01:00;CYQF 260100Z 03004KT 15SM OVC030 M04/M10 A3040 RMK SC8 SLP348

CYQF;2012-10-26 02:00;CYQF 260200Z 35002KT 15SM OVC035 M04/M10 A3040 RMK SC8 SLP349

CYQF;2012-10-26 03:00;CYQF 260300Z 00000KT 15SM OVC035 M05/M09 A3039 RMK SC8 SLP348

CYQF;2012-10-26 04:00;CYQF 260400Z 00000KT 15SM OVC040 M05/M09 A3039 RMK SC8 SLP346

CYQF;2012-10-26 05:00;CYQF 260500Z 00000KT 15SM OVC040 M05/M09 A3039 RMK SC8 SLP346

CYQF;2012-10-26 06:00;CYQF 260600Z 00000KT 15SM OVC040 M05/M08 A3037 RMK SC8 SLP340

CYQF;2012-10-26 07:00;CYQF 260700Z 00000KT 15SM OVC040 M06/M08 A3037 RMK SC8 SLP338

CYQF;2012-10-26 07:40;CYQF 260740Z 00000KT 10SM -SN OVC060 RMK SC8

CYQF;2012-10-26 08:00;CYQF 260800Z 00000KT 6SM -SN OVC060 M06/M08 A3036 RMK SC8 SLP336

CYQF;2012-10-26 09:00;CYQF 260900Z 00000KT 5SM -SN OVC040 M06/M08 A3035 RMK SC8 SLP334

CYQF;2012-10-26 10:00;CYQF 261000Z 00000KT 5SM -SN SCT040 OVC060 M07/M08 A3034 RMK SC4SC4 SLP330

CYQF;2012-10-26 11:00;CYQF 261100Z 00000KT 6SM -SN OVC050 M07/M09 A3033 RMK SC8 SLP326

CYQF;2012-10-26 12:00;CYQF 261200Z 00000KT 10SM -SN BKN050 M08/M10 A3032 RMK SC6 SLP326

CYQF;2012-10-26 13:00;CYQF 261300Z 00000KT 10SM -SN OVC038 M08/M09 A3032 RMK SC8 SLP324

CYQF;2012-10-26 14:00;CYQF 261400Z 00000KT 8SM -SN OVC031 M07/M09 A3031 RMK SC8 CIG RAG SLP323

CYQF;2012-10-26 15:00;CYQF 261500Z 00000KT 8SM -SN OVC030 M07/M08 A3031 RMK SC8 SLP319

CYQF;2012-10-26 16:00;CYQF 261600Z 12002KT 8SM -SN OVC030 M06/M08 A3030 RMK SC8 SLP318

CYQF;2012-10-26 17:00;CYQF 261700Z 13006KT 3SM -SN OVC030 M06/M08 A3029 RMK SC8 SLP315

CYQF;2012-10-26 18:00;CYQF 261800Z 15007KT 3SM -SN OVC080 M05/M08 A3028 RMK AC8 SLP309

CYQF;2012-10-26 19:00;CYQF 261900Z 18007KT 6SM -SN FEW030 OVC080 M05/M08 A3026 RMK SC2AC6 SLP304

CYQF;2012-10-26 20:00;CYQF 262000Z 16007KT 6SM -SN FEW030 OVC080 M04/M08 A3025 RMK SC2AC6 SLP298

CYQF;2012-10-26 21:00;CYQF 262100Z 17006KT 8SM -SN SCT018 BKN040 M04/M08 A3023 RMK SC3SC4 SLP292

CYQF;2012-10-26 22:00;CYQF 262200Z 17007KT 5SM -SN BKN020 OVC040 M04/M08 A3021 RMK SC5SC3 SLP286

CYQF;2012-10-26 22:11;CYQF 262211Z 17008KT 1 1/2SM -SN OVC020 RMK SN3SC5

CYQF;2012-10-26 22:37;CYQF 262237Z 15008KT 5SM -SN BKN020 OVC040 RMK SC6SC2

CYQF;2012-10-26 23:00;CYQF 262300Z 14009KT 8SM -SN SCT020 BKN040 OVC080 M05/M07 A3020 RMK SC3SC3AC2 SLP281

CYQF;2012-10-27 00:00;CYQF 270000Z 15006KT 10SM -SN SCT020 OVC040 M05/M08 A3019 RMK SC3SC5 SLP281

CYQF;2012-10-27 01:00;CYQF 270100Z 15006KT 10SM -SN BKN040 OVC080 M06/M08 A3018 RMK SC5AC2 SLP278

CYQF;2012-10-27 01:41;CYQF 270141Z 15005KT 15SM FEW040 FEW080 BKN250 RMK SC1AC2CI2

CYQF;2012-10-27 02:00;CYQF 270200Z 14005KT 15SM FEW040 FEW080 BKN250 M08/M10 A3018 RMK SC1AC2CI2 SLP277

CYQF;2012-10-27 03:00;CYQF 270300Z 15006KT 15SM BKN090 M09/M10 A3017 RMK AC5 SLP278

CYQF;2012-10-27 04:00;CYQF 270400Z 16006KT 15SM FEW040 SCT090 BKN250 M09/M11 A3016 RMK SC2AC2CI1 SLP273

CYQF;2012-10-27 05:00;CYQF 270500Z 15006KT 15SM FEW040 BKN250 M09/M11 A3015 RMK SC2CI1 SLP269

CYQF;2012-10-27 06:00;CYQF 270600Z 16008KT 15SM SCT250 M10/M11 A3013 RMK CI2 SLP263

CYQF;2012-10-27 07:00;CYQF 270700Z 16006KT 12SM FEW250 M10/M12 A3013 RMK CI2 SLP261

CYQF;2012-10-27 08:00;CYQF 270800Z 14004KT 12SM BKN025 M10/M12 A3011 RMK SC5 SLP256

CYQF;2012-10-27 09:00;CYQF 270900Z 13010G15KT 10SM OVC025 M09/M10 A3010 RMK SC8 SLP249

CYQF;2012-10-27 10:00;CYQF 271000Z 14010G15KT 10SM OVC025 M08/M10 A3009 RMK SC8 SLP247

CYQF;2012-10-27 10:29;CYQF 271029Z 13011KT 10SM SCT009 OVC020 RMK SF3SC5

CYQF;2012-10-27 10:51;CYQF 271051Z 12010KT 15SM -SN FEW009 OVC018 RMK ST2SC6

CYQF;2012-10-27 11:00;CYQF 271100Z 13011KT 15SM -SN FEW009 OVC018 M08/M10 A3008 RMK ST2SC6 SLP244

CYQF;2012-10-27 12:00;CYQF 271200Z 13009KT 12SM -SN FEW009 OVC020 M08/M10 A3008 RMK ST2SC6 SLP243

CYQF;2012-10-27 13:00;CYQF 271300Z 15012KT 10SM -SN OVC025 M08/M10 A3008 RMK SC8 SLP243

CYQF;2012-10-27 14:00;CYQF 271400Z 15010KT 3SM -SN OVC025 M07/M10 A3008 RMK SC8 SLP242

CYQF;2012-10-27 15:00;CYQF 271500Z 16010KT 3SM -SN BKN025 OVC090 M08/M10 A3008 RMK SC6AC2 SLP247

CYQF;2012-10-27 15:49;CYQF 271549Z 15010G15KT 2SM -SN DRSN BKN025 OVC090 RMK SC6AC2

CYQF;2012-10-27 16:00;CYQF 271600Z 14010G15KT 1 1/2SM -SN DRSN BKN020 OVC090 M08/M10 A3008 RMK SC7AC1 SLP246

CYQF;2012-10-27 17:00;CYQF 271700Z 15010G15KT 3SM -SN DRSN OVC090 M07/M10 A3007 RMK AC7 SLP243

CYQF;2012-10-27 17:43;CYQF 271743Z 14012KT 10SM DRSN FEW020 BKN100 RMK SC2AC2

CYQF;2012-10-27 18:00;CYQF 271800Z 14010G15KT 10SM DRSN FEW020 BKN100 M07/M10 A3007 RMK SC2AC2 SLP244

CYQF;2012-10-27 19:00;CYQF 271900Z 14010KT 15SM DRSN BKN020 OVC100 M06/M09 A3005 RMK SC6AC2 SLP238

CYQF;2012-10-27 20:00;CYQF 272000Z 15012G18KT 15SM DRSN BKN020 OVC060 M07/M10 A3005 RMK SC6SC2 SLP236

CYQF;2012-10-27 21:00;CYQF 272100Z 14011G16KT 15SM DRSN BKN020 OVC060 M07/M10 A3004 RMK SC6SC2 SLP231

CYQF;2012-10-27 21:34;CYQF 272134Z 14010G15KT 15SM DRSN BKN013 OVC060 RMK SC7SC1 CIG RAG

CYQF;2012-10-27 22:00;CYQF 272200Z 14010G15KT 15SM DRSN OVC012 M07/M09 A3003 RMK SC8 CIG RAG SLP227

CYQF;2012-10-27 23:00;CYQF 272300Z 14010G15KT 15SM DRSN OVC010 M07/M09 A3001 RMK SC8 SLP222

CYQF;2012-10-27 23:26;CYQF 272326Z 15015G20KT 10SM DRSN OVC006 RMK ST8 VIS SE-S 6

CYQF;2012-10-28 00:00;CYQF 280000Z 15012G18KT 8SM DRSN OVC006 M07/M09 A3000 RMK ST8 CIG RAG SLP216

CYQF;2012-10-28 01:00;CYQF 280100Z 15010G15KT 8SM -SN OVC006 M07/M09 A2998 RMK ST8 SLP211

CYQF;2012-10-28 02:00;CYQF 280200Z 15011KT 8SM -SN OVC006 M07/M08 A2998 RMK ST8 SLP210

CYQF;2012-10-28 03:00;CYQF 280300Z 16012KT 8SM -SN OVC006 M07/M08 A2995 RMK ST8 SLP200

CYQF;2012-10-28 04:00;CYQF 280400Z 14013KT 6SM -SN OVC006 M07/M08 A2992 RMK ST8 SLP191

CYQF;2012-10-28 05:00;CYQF 280500Z 15012KT 6SM -SN OVC006 M07/M08 A2990 RMK ST8 SLP185

CYQF;2012-10-28 06:00;CYQF 280600Z 14011KT 8SM -SN OVC004 M07/M08 A2988 RMK ST8 SLP173

CYQF;2012-10-28 06:35;CYQF 280635Z 14013KT 10SM -SN OVC005 RMK ST8

CYQF;2012-10-28 07:00;CYQF 280700Z 13010G15KT 6SM -SN OVC005 M07/M08 A2984 RMK ST8 SLP161

CYQF;2012-10-28 08:00;CYQF 280800Z 15011G16KT 3SM -SN BR OVC005 M06/M07 A2982 RMK ST8 SLP156

CYQF;2012-10-28 08:36;CYQF 280836Z 14011KT 2SM -SN BR VV007 RMK SN8

CYQF;2012-10-28 09:00;CYQF 280900Z 15013KT 2SM -SN BR VV006 M06/M07 A2979 RMK SN8 SLP140

CYQF;2012-10-28 09:18;CYQF 280918Z 15010G15KT 4SM -SN BR OVC006 RMK ST8

CYQF;2012-10-28 10:00;CYQF 281000Z 14011G16KT 10SM -SN OVC006 M05/M07 A2976 RMK ST8 SLP131

CYQF;2012-10-28 11:00;CYQF 281100Z 14010G15KT 8SM -SN OVC006 M05/M06 A2975 RMK ST8 SLP128

CYQF;2012-10-28 12:00;CYQF 281200Z 14010G15KT 10SM -SN OVC005 M04/M05 A2974 RMK ST8 /S01/ SLP121

CYQF;2012-10-28 12:31;CYQF 281231Z 14010G15KT 2SM -SN BR VV006 RMK SN8

CYQF;2012-10-28 13:00;CYQF 281300Z 13011G16KT 2 1/2SM -SN BR VV006 M04/M05 A2972 RMK SN8 SLP117

CYQF;2012-10-28 14:00;CYQF 281400Z 14010G15KT 2SM -SN BR VV005 M04/M05 A2972 RMK SN8 SLP115

CYQF;2012-10-28 14:29;CYQF 281429Z 15010KT 1SM -SN BR VV005 RMK SN8

CYQF;2012-10-28 15:00;CYQF 281500Z 14012KT 1 1/2SM -SN BR VV005 M04/M05 A2971 RMK SN8 VIS VRB 1-2 SLP110

CYQF;2012-10-28 16:00;CYQF 281600Z 15010KT 1 1/2SM -SN BR VV005 M04/M05 A2970 RMK SN8 VIS VRB 1-2 SLP107

CYQF;2012-10-28 16:09;CYQF 281609Z 15010KT 3/4SM BR VV002 RMK FG8

CYQF;2012-10-28 17:00;CYQF 281700Z 15010KT 3/4SM BR VV002 M04/M04 A2969 RMK FG8 SLP104

CYQF;2012-10-28 17:30;CYQF 281730Z 15008KT 1SM BR VV004 RMK FG8

CYQF;2012-10-28 18:00;CYQF 281800Z 16010KT 2SM BR OVC005 M03/M04 A2968 RMK ST8 SLP101

CYQF;2012-10-28 19:00;CYQF 281900Z 18008KT 3SM BR OVC005 M03/M04 A2967 RMK ST8 SLP099

CYQF;2012-10-28 19:43;CYQF 281943Z 18007KT 3SM BR OVC003 RMK ST8 UA/ C525 033OVC046 LGT MXD ICGIC

CYQF;2012-10-28 20:00;CYQF 282000Z 17010KT 3SM BR OVC003 M03/M03 A2967 RMK ST8 CIG RAG SLP098

CYQF;2012-10-28 21:00;CYQF 282100Z 16007KT 4SM BR OVC004 M02/M03 A2968 RMK ST8 SLP097

CYQF;2012-10-28 22:00;CYQF 282200Z 00000KT 3SM BR OVC004 M02/M03 A2971 RMK ST8 CIG RAG SLP106

CYQF;2012-10-28 23:00;CYQF 282300Z 33006KT 6SM BR OVC003 M02/M03 A2975 RMK ST8 BLLN VIS 600FT CIG RAG SLP119

CYQF;2012-10-29 00:00;CYQF 290000Z 35010KT 5SM BR OVC003 M02/M03 A2979 RMK ST8 CIG RAG SLP134

CYQF;2012-10-29 00:15;CYQF 290015Z 33010KT 5SM BR OVC005 RMK ST8 BLN VIS 700FT CIG RAG

CYQF;2012-10-29 01:00;CYQF 290100Z 34015G20KT 5SM BR OVC007 M02/M04 A2983 RMK ST8 VIS SE-S 10 SLP146

CYQF;2012-10-29 02:00;CYQF 290200Z 34010G16KT 6SM BR OVC007 M03/M05 A2986 RMK SC8 SLP155

CYQF;2012-10-29 02:25;CYQF 290225Z 35010G15KT 10SM OVC016 RMK SC8

CYQF;2012-10-29 03:00;CYQF 290300Z 31006KT 10SM OVC015 M04/M07 A2988 RMK SC8 SLP167

CYQF;2012-10-29 04:00;CYQF 290400Z 00000KT 15SM OVC016 M04/M07 A2987 RMK SC8 VIS NW 9 SLP164

CYQF;2012-10-29 05:00;CYQF 290500Z 33004KT 15SM OVC013 M04/M07 A2989 RMK SC8 VIS NW 9 SLP171

CYQF;2012-10-29 06:00;CYQF 290600Z 33004KT 15SM OVC014 M04/M07 A2989 RMK SC8 SLP169

CYQF;2012-10-29 07:00;CYQF 290700Z 01004KT 15SM OVC014 M04/M07 A2989 RMK SC8 SLP169

CYQF;2012-10-29 08:00;CYQF 290800Z 02002KT 15SM OVC014 M05/M07 A2987 RMK SC8 SLP164

CYQF;2012-10-29 09:00;CYQF 290900Z 04006KT 15SM OVC014 M05/M07 A2987 RMK SC8 SLP162

CYQF;2012-10-29 10:00;CYQF 291000Z 13007KT 15SM OVC011 M05/M06 A2985 RMK SC8 SLP158

CYQF;2012-10-29 10:25;CYQF 291025Z 14008KT 15SM OVC009 RMK SC8

CYQF;2012-10-29 11:00;CYQF 291100Z 13008KT 15SM OVC009 M05/M07 A2986 RMK SC8 SLP160

CYQF;2012-10-29 12:00;CYQF 291200Z 11006KT 15SM OVC006 M05/M07 A2985 RMK ST8 SLP155

CYQF;2012-10-29 12:52;CYQF 291252Z 09006KT 2SM BR VV005 RMK FG8

CYQF;2012-10-29 13:00;CYQF 291300Z CCA 09005KT 1 1/2SM BR VV003 M05/M06 A2984 RMK FG8 FROIN SLP153

CYQF;2012-10-29 13:38;CYQF 291338Z 09005KT 1 1/2SM -FZDZ BR VV003 RMK FG8

CYQF;2012-10-29 14:00;CYQF 291400Z 09005KT 1SM -FZDZ BR VV003 M05/M06 A2983 RMK FG8 SLP150

CYQF;2012-10-29 15:00;CYQF 291500Z 09008KT 1/2SM -FZDZ FZFG VV003 M05/M06 A2982 RMK FG8 SLP146

CYQF;2012-10-29 16:00;CYQF 291600Z 09008KT 1/2SM -FZDZ FZFG VV003 M05/M05 A2982 RMK FG8 SLP146

CYQF;2012-10-29 16:13;CYQF 291613Z 09007KT 1/2SM FZFG VV003 REFZDZ RMK FG8

CYQF;2012-10-29 17:00;CYQF 291700Z 09010KT 1/2SM FZFG VV003 M04/M05 A2981 REFZDZ RMK FG8 SLP143

CYQF;2012-10-29 17:25;CYQF 291725Z 09007KT 1/2SM FZFG VV002 RMK FG8

CYQF;2012-10-29 18:00;CYQF 291800Z 09008KT 1/2SM FZFG VV002 M05/M06 A2981 RMK FG8 SLP144

CYQF;2012-10-29 19:00;CYQF 291900Z 08007KT 1/2SM -FZDZ FZFG VV003 M05/M05 A2979 RMK FG8 SLP139

CYQF;2012-10-29 20:00;CYQF 292000Z 12007KT 1/2SM -FZDZ FZFG VV003 M04/M04 A2976 RMK FG8 SLP131

CYQF;2012-10-29 20:23;CYQF 292023Z 13006KT 3/4SM -FZDZ BR VV003 RMK FG8

CYQF;2012-10-29 20:45;CYQF 292045Z 13005KT 1SM BR VV004 RMK FG8

CYQF;2012-10-29 21:00;CYQF 292100Z 14007KT 1SM BR VV004 M03/M03 A2975 RMK FG8 SLP123

CYQF;2012-10-29 22:00;CYQF 292200Z 09004KT 1SM BR VV003 M03/M03 A2976 RMK FG8 SLP126

CYQF;2012-10-29 23:00;CYQF 292300Z 09005KT 1 1/2SM BR OVC004 M03/M03 A2977 RMK FG4ST4 SLP130

CYQF;2012-10-30 00:00;CYQF 300000Z 05005KT 3/4SM BR VV002 M03/M03 A2978 RMK FG8 SLP135

CYQF;2012-10-30 00:16;CYQF 300016Z 06004KT 3/4SM -FZDZ BR VV003 RMK FG8

CYQF;2012-10-30 01:00;CYQF 300100Z 07004KT 3/4SM -FZDZ BR VV003 M03/M04 A2980 RMK FG8 SLP141

CYQF;2012-10-30 02:00;CYQF 300200Z 08002KT 1SM -FZDZ BR VV003 M03/M04 A2982 RMK FG8 VIS VRB 3/4-11/4 SLP145

CYQF;2012-10-30 03:00;CYQF 300300Z 07005KT 1 1/2SM -FZDZ BR OVC009 M03/M04 A2982 RMK FG5SC3 VIS VRB 1-2 SLP146

CYQF;2012-10-30 04:00;CYQF 300400Z 08003KT 3SM -FZDZ BR OVC009 M03/M04 A2983 RMK FG5SC3 SLP149

CYQF;2012-10-30 05:00;CYQF 300500Z 07003KT 10SM OVC009 M03/M04 A2982 RMK ST8 BR SLP147

CYQF;2012-10-30 06:00;CYQF 300600Z 06003KT 10SM OVC009 M03/M04 A2982 RMK ST8 BR SLP148

CYQF;2012-10-30 07:00;CYQF 300700Z 15006KT 10SM OVC007 M03/M04 A2982 RMK ST8 BR SLP146

CYQF;2012-10-30 08:00;CYQF 300800Z 16008KT 10SM OVC007 M03/M04 A2980 RMK ST8 BR SLP141

CYQF;2012-10-30 09:00;CYQF 300900Z 15010KT 8SM OVC007 M03/M04 A2977 RMK ST8 BR SLP128

CYQF;2012-10-30 09:46;CYQF 300946Z 16010KT 2SM BR VV004 RMK FG8

CYQF;2012-10-30 10:00;CYQF 301000Z 17008KT 2SM BR VV004 M03/M04 A2976 RMK FG8 SLP125

CYQF;2012-10-30 11:00;CYQF 301100Z 16012KT 2SM BR VV003 M03/M04 A2974 RMK FG8 SLP116

CYQF;2012-10-30 12:00;CYQF 301200Z 18007KT 2SM BR VV003 M03/M04 A2973 RMK FG8 SLP112

CYQF;2012-10-30 13:00;CYQF 301300Z 00000KT 2SM BR VV003 M03/M04 A2972 RMK FG8 SLP111

CYQF;2012-10-30 13:48;CYQF 301348Z 36007KT 1SM BR VV003 RMK FG8

CYQF;2012-10-30 14:00;CYQF 301400Z 01008KT 3/4SM BR VV003 M03/M04 A2978 RMK FG8 SLP129

CYQF;2012-10-30 14:36;CYQF 301436Z 36005KT 1SM BR VV003 RMK FG8

CYQF;2012-10-30 15:00;CYQF 301500Z 35008KT 3/4SM -SN DRSN BR VV003 M03/M03 A2982 RMK FG8 SLP145

CYQF;2012-10-30 15:38;CYQF 301538Z 36010KT 1SM BR OVC005 RMK ST8

CYQF;2012-10-30 16:00;CYQF 301600Z 36010KT 1 1/2SM -SHSN BR OVC005 M03/M04 A2984 RMK ST8 SLP149

CYQF;2012-10-30 16:21;CYQF 301621Z 01010KT 5SM -SHSN BR BKN005 OVC010 RMK SF5ST3

CYQF;2012-10-30 16:38;CYQF 301638Z 36010KT 6SM BR BKN005 OVC010 RMK SF5ST3

CYQF;2012-10-30 17:00;CYQF 301700Z 36010KT 8SM SCT005 OVC017 M04/M04 A2985 RMK SF4SC4 SLP154

CYQF;2012-10-30 17:37;CYQF 301737Z 01012KT 8SM BKN008 OVC015 RMK SF6SC2

CYQF;2012-10-30 18:00;CYQF 301800Z 01012KT 8SM BKN008 OVC015 M04/M06 A2990 RMK SF6SC2 SLP172

CYQF;2012-10-30 18:42;CYQF 301842Z 02011KT 8SM SCT008 OVC012 RMK SF4SC4

CYQF;2012-10-30 19:00;CYQF 301900Z 01010KT 10SM OVC012 M04/M05 A2990 RMK SC8 SLP173

CYQF;2012-10-30 20:00;CYQF 302000Z 36009KT 8SM OVC011 M04/M05 A2991 RMK ST8 SLP177

CYQF;2012-10-30 21:00;CYQF 302100Z 30005KT 8SM BKN007 OVC012 M04/M05 A2995 RMK ST6SC2 SLP189

CYQF;2012-10-30 22:00;CYQF 302200Z 34006KT 8SM SCT007 OVC013 M04/M06 A2996 RMK ST4SC4 SLP193

CYQF;2012-10-30 23:00;CYQF 302300Z 36007KT 8SM OVC007 M04/M06 A2998 RMK ST8 SLP200

CYQF;2012-10-31 00:00;CYQF 310000Z 35004KT 8SM OVC007 M04/M06 A3000 RMK ST8 SLP207

CYQF;2012-10-31 01:00;CYQF 310100Z 01008KT 8SM OVC009 M05/M06 A3001 RMK ST8 SLP212

CYQF;2012-10-31 02:00;CYQF 310200Z 03003KT 10SM OVC005 M05/M06 A3002 RMK ST8 VIS W-NW 5 SLP215

CYQF;2012-10-31 02:45;CYQF 310245Z 03005KT 8SM BKN011 BKN080 RMK ST6AC2 VIS W-NW 5

CYQF;2012-10-31 03:00;CYQF 310300Z 04002KT 8SM BKN045 BKN080 M05/M07 A3004 RMK SC6AC2 VIS W-NW 5 SLP221

CYQF;2012-10-31 04:00;CYQF 310400Z 05002KT 15SM OVC080 M06/M07 A3006 RMK AC8 VIS NW 9 SLP228

CYQF;2012-10-31 05:00;CYQF 310500Z 06005KT 15SM OVC080 M06/M07 A3008 RMK AC8 SLP234

CYQF;2012-10-31 06:00;CYQF 310600Z 05004KT 15SM FEW015 OVC080 M06/M08 A3009 RMK SC2AC6 SLP243

CYQF;2012-10-31 07:00;CYQF 310700Z 12004KT 15SM FEW015 OVC080 M06/M07 A3010 RMK SC2AC6 SLP246

CYQF;2012-10-31 08:00;CYQF 310800Z 09005KT 15SM FEW015 OVC060 M07/M07 A3011 RMK SC2SC6 SLP249

CYQF;2012-10-31 09:00;CYQF 310900Z 12006KT 15SM FEW015 OVC060 M06/M07 A3012 RMK SC2SC6 SLP253

CYQF;2012-10-31 10:00;CYQF 311000Z 12005KT 15SM FEW015 BKN060 M07/M08 A3011 RMK SC2SC5 SLP250

CYQF;2012-10-31 11:00;CYQF 311100Z 08004KT 15SM SCT015 BKN060 M07/M09 A3011 RMK SC3SC3 SLP250

CYQF;2012-10-31 11:33;CYQF 311133Z 00000KT 15SM SCT007 BKN060 RMK SF2SC4

CYQF;2012-10-31 12:00;CYQF 311200Z 11005KT 15SM SCT008 BKN050 M07/M10 A3012 RMK SF2SC4 SLP254

CYQF;2012-10-31 13:00;CYQF 311300Z 13005KT 15SM FEW010 SCT050 BKN250 M09/M10 A3012 RMK SF2SC2CI2 SLP255

CYQF;2012-10-31 13:42;CYQF 311342Z 14007KT 15SM BKN009 OVC050 RMK SF5SC3

CYQF;2012-10-31 14:00;CYQF 311400Z 14006KT 10SM OVC009 M09/M10 A3012 RMK SF8 SLP254

CYQF;2012-10-31 15:00;CYQF 311500Z 13007KT 8SM OVC005 M09/M10 A3012 RMK ST8 SLP256

CYQF;2012-10-31 15:50;CYQF 311550Z 14010KT 6SM BR SCT006 BKN050 OVC250 RMK ST3SC2CI2

CYQF;2012-10-31 16:00;CYQF 311600Z 14010KT 6SM BR SCT006 BKN050 OVC250 M09/M10 A3012 RMK ST2SC2CI2 SLP256

CYQF;2012-10-31 17:00;CYQF 311700Z 14008KT 6SM BR BKN005 OVC050 M08/M09 A3010 RMK ST5SC3 SLP251

CYQF;2012-10-31 18:00;CYQF 311800Z 13013KT 6SM BR OVC007 M08/M09 A3010 RMK ST8 SLP249

CYQF;2012-10-31 18:09;CYQF 311809Z 13010G16KT 6SM -SN DRSN BR OVC007 RMK ST8

CYQF;2012-10-31 18:36;CYQF 311836Z 14010G16KT 2SM -SN DRSN BR OVC007 RMK ST8

CYQF;2012-10-31 19:00;CYQF 311900Z 14012G19KT 1 1/2SM -SN DRSN VV006 M07/M09 A3008 RMK SN8 VIS VRB 1-2 SLP244

CYQF;2012-10-31 20:00;CYQF 312000Z 13010G15KT 1 1/2SM -SN DRSN VV006 M07/M09 A3005 RMK SN8 VIS VRB 1-2 SLP233

CYQF;2012-10-31 20:34;CYQF 312034Z 13011G17KT 8SM -SN DRSN OVC030 RMK SC8

CYQF;2012-10-31 21:00;CYQF 312100Z 13010KT 8SM -PL OVC030 M07/M09 A3002 RMK SC8 SLP221

CYQF;2012-10-31 21:05;CYQF 312105Z 13012KT 8SM -PL -FZRA OVC030 RMK SC8

CYQF;2012-10-31 22:00;CYQF 312200Z 13011KT 8SM -FZRA OVC011 M07/M08 A3001 RMK SC8 SLP217

CYQF;2012-10-31 22:22;CYQF 312222Z 14010G15KT 8SM OVC011 RMK SC8 REFZRA

CYQF;2012-10-31 23:00;CYQF 312300Z 13011G16KT 10SM OVC011 M08/M09 A3000 REFZRA RMK SC8 SLP214

CYQF;2012-11-01 00:00;CYQF 010000Z 13010KT 10SM OVC011 M07/M09 A2998 RMK ST8 /S01/ SLP210

CYQF;2012-11-01 01:00;CYQF 010100Z 12010G16KT 8SM OVC006 M07/M08 A2996 RMK ST8 CIG RAG SLP205

CYQF;2012-11-01 01:19;CYQF 010119Z 13010G20KT 6SM BR OVC005 RMK ST8 CIG RAG

CYQF;2012-11-01 02:00;CYQF 010200Z 13010G15KT 3SM BR OVC003 M07/M08 A2995 RMK ST8 CIG RAG SLP200

CYQF;2012-11-01 02:29;CYQF 010229Z 13010G15KT 1 1/2SM BR OVC002 RMK ST8 RIME ON INDICATOR VIS W 21/2

CYQF;2012-11-01 03:00;CYQF 010300Z 14010G15KT 1 1/2SM BR OVC002 M07/M07 A2993 RMK ST8 RIME ON INDICATOR SLP193

CYQF;2012-11-01 03:14;CYQF 010314Z 14010G16KT 1SM -FZDZ BR VV005 RMK FG8

CYQF;2012-11-01 04:00;CYQF 010400Z 14010G15KT 3/4SM -SG BR VV004 M06/M07 A2991 RMK FG8 VIS VRB 1/2-1 SLP188

CYQF;2012-11-01 04:14;CYQF 010414Z 13010G15KT 1/2SM -FZDZ FZFG VV003 RMK FG8 VIS VRB 1/4-3/4

CYQF;2012-11-01 05:00;CYQF 010500Z 13010G18KT 3/4SM -FZDZ BR VV005 M06/M06 A2989 RMK FG8 VIS VRB 1/2-1 SLP181

CYQF;2012-11-01 06:00;CYQF 010600Z 14015G20KT 1SM -FZDZ BR VV005 M05/M06 A2986 RMK FG8 SLP168

CYQF;2012-11-01 07:00;CYQF 010700Z 15013KT 1SM -FZDZ BR VV004 M05/M05 A2985 RMK FG8 VIS VRB 1/2-11/2 SLP162

CYQF;2012-11-01 08:00;CYQF 010800Z 14012KT 1SM -FZDZ BR VV004 M05/M05 A2983 RMK FG8 VIS VRB 1/2-11/2 SLP156

CYQF;2012-11-01 08:22;CYQF 010822Z 14011KT 1SM BR VV004 REFZDZ RMK FG8 VIS VRB 1/2-11/2

CYQF;2012-11-01 09:00;CYQF 010900Z 13010KT 3/4SM BR VV004 M04/M05 A2981 REFZDZ RMK FG8 SLP146

CYQF;2012-11-01 10:00;CYQF 011000Z 14010KT 1/2SM FZFG VV002 M04/M04 A2980 RMK FG8 SLP143

CYQF;2012-11-01 11:00;CYQF 011100Z 14010KT 1/2SM FZFG VV002 M04/M04 A2978 RMK FG8 SLP137

CYQF;2012-11-01 12:00;CYQF 011200Z 13008KT 1/2SM FZFG VV002 M03/M03 A2976 RMK FG8 SLP130

CYQF;2012-11-01 12:21;CYQF 011221Z 13008KT 3/4SM BR VV003 RMK FG8

CYQF;2012-11-01 12:50;CYQF 011250Z 13008KT 3/4SM -FZDZ BR VV003 RMK FG8

CYQF;2012-11-01 13:00;CYQF 011300Z 14008KT 3/4SM -FZDZ BR VV003 M03/M03 A2976 RMK FG8 SLP128

CYQF;2012-11-01 13:40;CYQF 011340Z 13006KT 3/4SM BR VV003 REFZDZ RMK FG8

CYQF;2012-11-01 14:00;CYQF 011400Z 12003KT 1/2SM FZFG VV003 M03/M03 A2976 RMK FG8 RIME ON INDICATOR SLP128

CYQF;2012-11-01 15:00;CYQF 011500Z 15006KT 1/2SM FZFG VV003 M03/M03 A2977 RMK FG8 RIME ON INDICATOR SLP130

CYQF;2012-11-01 16:00;CYQF 011600Z 15003KT 1/2SM FZFG VV003 M02/M02 A2977 RMK FG8 SLP132

CYQF;2012-11-01 17:00;CYQF 011700Z 00000KT 1/2SM FZFG VV002 M02/M02 A2978 RMK FG8 SLP134

CYQF;2012-11-01 18:00;CYQF 011800Z 00000KT 1/2SM FZFG VV002 M02/M02 A2979 RMK FG8 SLP134

CYQF;2012-11-01 18:17;CYQF 011817Z 00000KT 3/4SM BR VV003 RMK FG8

CYQF;2012-11-01 19:00;CYQF 011900Z 00000KT 1/2SM FZFG VV002 M02/M02 A2979 RMK FG8 SLP135

CYQF;2012-11-01 20:00;CYQF 012000Z 00000KT 3/4SM BR VV007 M01/M01 A2979 RMK FG8 SLP134

CYQF;2012-11-01 20:47;CYQF 012047Z 00000KT 1SM BR OVC007 RMK ST8

CYQF;2012-11-01 20:51;CYQF 012051Z 00000KT 2SM BR OVC007 RMK ST8

CYQF;2012-11-01 21:00;CYQF 012100Z 00000KT 2SM BR OVC007 M02/M02 A2980 RMK ST8 VIS VRB 1-3 SLP138

CYQF;2012-11-01 21:44;CYQF 012144Z 00000KT 3SM BR OVC006 RMK ST8

CYQF;2012-11-01 22:00;CYQF 012200Z 00000KT 3SM BR OVC006 M01/M01 A2982 RMK ST8 VIS VRB 2-4 SLP143

CYQF;2012-11-01 23:00;CYQF 012300Z 00000KT 4SM BR OVC006 M02/M02 A2984 RMK ST8 SLP148

CYQF;2012-11-02 00:00;CYQF 020000Z 00000KT 4SM BR OVC006 M02/M02 A2985 RMK ST8 SLP155

CYQF;2012-11-02 01:00;CYQF 020100Z 00000KT 5SM BR OVC006 M02/M02 A2987 RMK ST8 SLP160

CYQF;2012-11-02 02:00;CYQF 020200Z 00000KT 8SM OVC006 M01/M02 A2989 RMK ST8 SLP165

CYQF;2012-11-02 03:00;CYQF 020300Z 00000KT 8SM OVC006 M01/M02 A2990 RMK ST8 SLP171

CYQF;2012-11-02 04:00;CYQF 020400Z 00000KT 8SM OVC003 M02/M02 A2991 RMK ST8 SLP174

CYQF;2012-11-02 04:17;CYQF 020417Z 00000KT 2SM BR OVC003 RMK FG3ST5

CYQF;2012-11-02 05:00;CYQF 020500Z 00000KT 2SM BR OVC003 M02/M02 A2993 RMK ST8 SLP180

CYQF;2012-11-02 05:33;CYQF 020533Z 00000KT 3SM BR OVC006 RMK SC8

CYQF;2012-11-02 06:00;CYQF 020600Z 00000KT 5SM BR OVC006 M02/M02 A2994 RMK SC8 SLP183

CYQF;2012-11-02 07:00;CYQF 020700Z 00000KT 6SM BR OVC006 M02/M02 A2995 RMK SC8 SLP187

CYQF;2012-11-02 08:00;CYQF 020800Z 00000KT 8SM OVC009 M02/M03 A2997 RMK SC8 BR SLP192

CYQF;2012-11-02 09:00;CYQF 020900Z 00000KT 12SM SCT010 OVC100 M02/M03 A2998 RMK SC3AC5 SLP197

CYQF;2012-11-02 10:00;CYQF 021000Z 00000KT 10SM OVC080 M02/M03 A2999 RMK AC8 SLP199

CYQF;2012-11-02 11:00;CYQF 021100Z 00000KT 12SM OVC050 M03/M03 A3000 RMK SC8 SLP203

CYQF;2012-11-02 11:06;CYQF 021106Z 00000KT 12SM -SN OVC050 RMK SC8

CYQF;2012-11-02 12:00;CYQF 021200Z 00000KT 10SM -SN OVC050 M02/M03 A3002 RMK SC8 SLP211

CYQF;2012-11-02 13:00;CYQF 021300Z 00000KT 10SM -SN SCT010 OVC050 M02/M03 A3004 RMK SC3SC5 SLP216

CYQF;2012-11-02 13:12;CYQF 021312Z 00000KT 8SM -SN SCT006 OVC050 RMK SC4SC4

CYQF;2012-11-02 13:28;CYQF 021328Z 00000KT 8SM -SN OVC006 RMK ST8

CYQF;2012-11-02 14:00;CYQF 021400Z 00000KT 8SM -SN OVC006 M03/M04 A3005 RMK ST8 SLP221

CYQF;2012-11-02 14:48;CYQF 021448Z 00000KT 6SM BR OVC006 RMK ST8

CYQF;2012-11-02 15:00;CYQF 021500Z 00000KT 6SM BR OVC006 M03/M04 A3007 RMK ST8 SLP228

CYQF;2012-11-02 15:43;CYQF 021543Z 00000KT 6SM BR OVC020 RMK ST8

CYQF;2012-11-02 16:00;CYQF 021600Z 00000KT 8SM OVC020 M03/M04 A3008 RMK ST8 SLP232

CYQF;2012-11-02 16:46;CYQF 021646Z 00000KT 8SM SCT005 OVC022 RMK SF3ST5

CYQF;2012-11-02 17:00;CYQF 021700Z 00000KT 8SM SCT005 OVC022 M02/M04 A3009 RMK SF3ST5 SLP235

CYQF;2012-11-02 18:00;CYQF 021800Z 00000KT 8SM SCT005 OVC020 M02/M04 A3010 RMK SF4SC4 SLP240

CYQF;2012-11-02 19:00;CYQF 021900Z 00000KT 8SM SCT009 OVC018 M01/M04 A3010 RMK SF3SC5 SLP239

CYQF;2012-11-02 20:00;CYQF 022000Z 00000KT 8SM OVC022 M01/M04 A3010 RMK SC8 SLP240

CYQF;2012-11-02 21:00;CYQF 022100Z 00000KT 8SM OVC020 M01/M03 A3009 RMK SC8 SLP235

CYQF;2012-11-02 22:00;CYQF 022200Z 12003KT 8SM OVC020 M01/M03 A3009 RMK SC8 SLP234

CYQF;2012-11-02 23:00;CYQF 022300Z 10002KT 8SM OVC020 M01/M03 A3009 RMK SC8 SLP233

CYQF;2012-11-03 00:00;CYQF 030000Z 11004KT 8SM OVC020 M01/M03 A3009 RMK SC8 SLP234

CYQF;2012-11-03 01:00;CYQF 030100Z 13004KT 6SM BR SCT020 M02/M04 A3009 RMK SC3 SLP234

CYQF;2012-11-03 01:51;CYQF 030151Z 13008KT 6SM BR BKN005 OVC020 RMK ST5SC3

CYQF;2012-11-03 02:00;CYQF 030200Z 14008KT 6SM BR BKN005 OVC020 M03/M04 A3009 RMK ST5SC3 SLP234

CYQF;2012-11-03 02:51;CYQF 030251Z 16008KT 2SM BR OVC003 RMK ST8

CYQF;2012-11-03 03:00;CYQF 030300Z 15008KT 2SM BR OVC003 M02/M03 A3008 RMK ST8 SLP233

CYQF;2012-11-03 03:44;CYQF 030344Z 13010KT 3SM BR OVC005 RMK ST8

CYQF;2012-11-03 04:00;CYQF 030400Z 14010KT 5SM BR OVC005 M03/M03 A3006 RMK ST8 SLP229

CYQF;2012-11-03 05:00;CYQF 030500Z 14010KT 2SM BR OVC004 M03/M03 A3005 RMK ST8 SLP226

CYQF;2012-11-03 06:00;CYQF 030600Z 15010KT 2SM BR OVC004 M02/M03 A3005 RMK ST8 SLP220

CYQF;2012-11-03 07:00;CYQF 030700Z 15010KT 2SM BR OVC004 M02/M03 A3004 RMK ST8 SLP217

CYQF;2012-11-03 08:00;CYQF 030800Z 15010KT 1 1/2SM BR OVC004 M02/M02 A3003 RMK ST8 SLP214

CYQF;2012-11-03 09:00;CYQF 030900Z 15008KT 1 1/2SM BR OVC004 M02/M03 A3001 RMK ST8 SLP207

CYQF;2012-11-03 10:00;CYQF 031000Z 15009KT 1 1/2SM BR OVC004 M02/M03 A3000 RMK ST8 SLP202

CYQF;2012-11-03 11:00;CYQF 031100Z 15009KT 1 1/2SM BR OVC004 M02/M03 A2997 RMK ST8 SLP194

CYQF;2012-11-03 11:36;CYQF 031136Z 16010G15KT 1/2SM FZFG VV003 RMK FG8

CYQF;2012-11-03 12:00;CYQF 031200Z 16010G15KT 1/2SM FZFG VV003 M02/M02 A2996 RMK FG8 SLP188

CYQF;2012-11-03 13:00;CYQF 031300Z 17012G17KT 1/2SM FZFG VV002 M02/M02 A2995 RMK FG8 SLP185

CYQF;2012-11-03 13:21;CYQF 031321Z 17012G18KT 3/4SM BR VV003 RMK FG8

CYQF;2012-11-03 14:00;CYQF 031400Z 17011G19KT 3/4SM BR VV003 M02/M02 A2994 RMK FG8 SLP181

CYQF;2012-11-03 15:00;CYQF 031500Z 16010G15KT 3/4SM BR VV002 M02/M02 A2993 RMK FG8 SLP180

CYQF;2012-11-03 16:00;CYQF 031600Z 16010G15KT 3/4SM BR VV003 M02/M02 A2991 RMK FG8 VIS VRB 1/2-1 SLP175

CYQF;2012-11-03 16:30;CYQF 031630Z 17010G15KT 1SM BR VV003 RMK FG8 VIS VRB 3/4-11/2

CYQF;2012-11-03 17:00;CYQF 031700Z 16010G15KT 1 1/2SM BR VV003 M01/M02 A2988 RMK FG8 VIS VRB 1-2 SLP166

CYQF;2012-11-03 18:00;CYQF 031800Z 15010G15KT 1SM BR VV002 M01/M02 A2987 RMK FG8 SLP158

CYQF;2012-11-03 19:00;CYQF 031900Z 17010G15KT 1 1/2SM BR VV002 M01/M01 A2985 RMK FG8 VIS VRB 1-2 SLP154

CYQF;2012-11-03 19:28;CYQF 031928Z 16010G15KT 2 1/2SM BR VV003 RMK FG8

CYQF;2012-11-03 20:00;CYQF 032000Z 15010KT 2 1/2SM BR OVC003 M01/M01 A2984 RMK ST8 SLP150

CYQF;2012-11-03 21:00;CYQF 032100Z 15011KT 1 1/2SM BR OVC004 M01/M01 A2982 RMK FG4ST4 VIS VRB 1-2 SLP142

CYQF;2012-11-03 22:00;CYQF 032200Z 14010KT 2 1/2SM BR OVC004 M01/M02 A2982 RMK FG3ST5 SLP141

CYQF;2012-11-03 23:00;CYQF 032300Z 14005KT 4SM BR OVC005 M01/M02 A2982 RMK ST8 SLP141

CYQF;2012-11-04 00:00;CYQF 040000Z 13006KT 4SM BR OVC004 M01/M02 A2981 RMK ST8 SLP135

CYQF;2012-11-04 01:00;CYQF 040100Z 17003KT 3SM BR OVC004 M01/M01 A2981 RMK ST8 SLP137

CYQF;2012-11-04 01:36;CYQF 040136Z 00000KT 2SM BR OVC004 RMK ST8

CYQF;2012-11-04 02:00;CYQF 040200Z 00000KT 1 1/2SM BR VV003 M01/M02 A2983 RMK FG8 VIS VRB 1-2 SLP143

CYQF;2012-11-04 03:00;CYQF 040300Z 31003KT 1 1/2SM BR VV003 M01/M01 A2985 RMK FG8 VIS VRB 1-2 SLP152

CYQF;2012-11-04 04:00;CYQF 040400Z 00000KT 1SM BR VV002 M01/M01 A2988 RMK FG8 SLP161

CYQF;2012-11-04 05:00;CYQF 040500Z 00000KT 2SM BR VV003 M01/M01 A2990 RMK FG8 SLP167

CYQF;2012-11-04 05:42;CYQF 040542Z 28005KT 1/2SM FZFG VV002 RMK FG8

CYQF;2012-11-04 07:00;CYQF 040600Z 30010KT 1/2SM FZFG VV002 M01/M01 A2994 RMK FG8 SLP179

CYQF;2012-11-04 07:40;CYQF 040740Z 23004KT 1/4SM FZFG VV001 RMK FG8 RIME ICG ON INDICATOR

CYQF;2012-11-04 08:00;CYQF 040800Z 25007KT 1/4SM FZFG VV001 M02/M02 A2998 RMK FG8 RIME ICE ON INDICATOR SLP192

CYQF;2012-11-04 09:00;CYQF 040900Z 21004KT 1/2SM FZFG VV003 M04/M04 A3001 RMK FG8 SLP207

CYQF;2012-11-04 09:30;CYQF 040930Z 00000KT 2SM BR SKC RMK FG3 RIME ICE ON INDICATOR

CYQF;2012-11-04 10:00;CYQF 041000Z 19004KT 2SM BR SKC M05/M06 A3004 RMK FG2 FROIN SLP216

CYQF;2012-11-04 10:17;CYQF 041017Z 21003KT 1/2SM FZFG SKC RMK FG6 RIME ICE ON INDICATOR

CYQF;2012-11-04 11:00;CYQF 041100Z 18004KT 1/2SM FZFG SKC M06/M07 A3006 RMK FG3 RIME ICE ON INDICATOR SLP224

CYQF;2012-11-04 11:42;CYQF 041142Z 20003KT 4SM BR SKC RMK RIME ICE ON INDICATOR

CYQF;2012-11-04 12:00;CYQF 041200Z 19004KT 10SM SKC M06/M07 A3008 RMK RIME ICE ON INDICATOR SLP234

CYQF;2012-11-04 13:00;CYQF 041300Z 20004KT 15SM SKC M07/M07 A3010 RMK FROIN SLP242

CYQF;2012-11-04 14:00;CYQF 041400Z 00000KT 10SM FEW100 FEW250 M05/M06 A3012 RMK AC1CI1 VIS NW 3 SLP246

CYQF;2012-11-04 15:00;CYQF 041500Z CCA 19003KT 15SM FEW100 BKN250 M06/M06 A3013 RMK AC1CI2 SLP253

CYQF;2012-11-04 16:00;CYQF 041600Z 00000KT 15SM FEW100 SCT250 M04/M05 A3012 RMK AC1CI1 SLP251

CYQF;2012-11-04 17:00;CYQF 041700Z 00000KT 15SM FEW100 SCT250 M01/M02 A3012 RMK AC1CI2 AC TR SLP251

CYQF;2012-11-04 18:00;CYQF 041800Z 00000KT 15SM FEW100 BKN250 02/01 A3011 RMK AC1CI2 SLP237

CYQF;2012-11-04 19:00;CYQF 041900Z 18010KT 15SM FEW100 SCT250 04/01 A3009 RMK AC1CI2 SLP229

CYQF;2012-11-04 20:00;CYQF 042000Z 15010KT 15SM FEW100 BKN250 05/01 A3006 RMK AC1CI4 SLP222

CYQF;2012-11-04 21:00;CYQF 042100Z 18010KT 15SM FEW100 BKN250 05/01 A3003 RMK AC1CI4 SLP209

CYQF;2012-11-04 22:00;CYQF 042200Z 16010KT 15SM BKN100 BKN250 05/01 A3001 RMK AC2CI4 VIRGA DIST SW SLP203

CYQF;2012-11-04 23:00;CYQF 042300Z 17010G15KT 15SM BKN100 OVC250 04/01 A3000 RMK AC5CI2 SLP199

CYQF;2012-11-05 00:00;CYQF 050000Z 17010G15KT 15SM BKN100 OVC250 03/01 A2999 RMK AC7CI1 SLP198

CYQF;2012-11-05 01:00;CYQF 050100Z 16010KT 15SM BKN100 03/01 A2995 RMK AC7 SLP188

CYQF;2012-11-05 02:00;CYQF 050200Z 16010G15KT 15SM BKN100 03/01 A2992 RMK AC7 SLP177

CYQF;2012-11-05 03:00;CYQF 050300Z 17010KT 15SM OVC100 03/01 A2989 RMK AC8 SLP164

CYQF;2012-11-05 04:00;CYQF 050400Z 16008KT 15SM SCT100 OVC220 03/01 A2983 RMK AC3CI5 PRESFR SLP147

CYQF;2012-11-05 05:00;CYQF 050500Z 21003KT 15SM FEW100 BKN220 03/01 A2980 RMK AC2CI5 SLP138

CYQF;2012-11-05 06:00;CYQF 050600Z 17005KT 15SM SCT100 BKN220 04/01 A2976 RMK AC3CI3 SLP112

CYQF;2012-11-05 07:00;CYQF 050700Z 18008KT 15SM SCT090 BKN220 05/02 A2972 RMK AC3CI3 SLP099

CYQF;2012-11-05 08:00;CYQF 050800Z 18007KT 15SM SCT090 BKN220 06/02 A2973 RMK AC3CI3 SLP102

CYQF;2012-11-05 09:00;CYQF 050900Z 24004KT 15SM SCT090 BKN220 05/02 A2971 RMK AC3CI3 SLP089

CYQF;2012-11-05 10:00;CYQF 051000Z 00000KT 15SM SCT090 BKN220 04/01 A2972 RMK AC3CI2 SLP091

CYQF;2012-11-05 11:00;CYQF 051100Z 21006KT 15SM FEW090 BKN220 01/00 A2972 RMK AC2CI2 SLP090

CYQF;2012-11-05 12:00;CYQF 051200Z 21007KT 15SM SCT220 01/M01 A2973 RMK CI2 SLP100

CYQF;2012-11-05 13:00;CYQF 051300Z 33008KT 15SM SCT220 03/M00 A2977 RMK CI2 SLP112

CYQF;2012-11-05 14:00;CYQF 051400Z 02008KT 15SM SCT070 BKN100 07/01 A2985 RMK AC3AC1 ACC ASOCTD SLP137

CYQF;2012-11-05 15:00;CYQF 051500Z 36005KT 15SM FEW070 FEW100 05/01 A2987 RMK AC2AC1 ACC ASOCTD VIRGA DIST NW-N SLP146

CYQF;2012-11-05 16:00;CYQF 051600Z 25005KT 15SM VCSH BKN070 BKN100 03/01 A2988 RMK AC6AC1 VIRGA ALQDS ACC SLP149

CYQF;2012-11-05 17:00;CYQF 051700Z 25003KT 15SM FEW030 FEW070 FEW100 03/01 A2989 RMK SC1AC2AC1 ACC VIRGA SLP153

CYQF;2012-11-05 18:00;CYQF 051800Z 21003KT 15SM FEW030 SCT070 SCT250 07/03 A2994 RMK CU2AC2CI0 VIRGA SLP168

CYQF;2012-11-05 19:00;CYQF 051900Z 22005KT 15SM FEW030 FEW250 07/04 A2996 RMK CU1CI1 SLP175

CYQF;2012-11-05 20:00;CYQF 052000Z 28005KT 15SM FEW030 SCT250 08/04 A2996 RMK CU1CI2 SLP174

CYQF;2012-11-05 21:00;CYQF 052100Z 30004KT 15SM FEW030 BKN250 09/01 A2997 RMK CF1CI2 SLP174

CYQF;2012-11-05 22:00;CYQF 052200Z 22005KT 15SM FEW250 09/02 A2999 RMK CI1 SLP179

CYQF;2012-11-05 23:00;CYQF 052300Z 23005KT 15SM FEW250 09/02 A3000 RMK CI1 SLP184

CYQF;2012-11-06 00:00;CYQF 060000Z 25005KT 15SM FEW060 FEW250 04/00 A3004 RMK SC1CI1 SLP206

CYQF;2012-11-06 01:00;CYQF 060100Z 29004KT 15SM FEW060 FEW250 03/M01 A3005 RMK SC1CI1 SLP211

CYQF;2012-11-06 02:00;CYQF 060200Z 29002KT 15SM SKC 01/M02 A3007 RMK SLP218

CYQF;2012-11-06 03:00;CYQF 060300Z 00000KT 15SM SKC 00/M01 A3009 RMK SLP223

CYQF;2012-11-06 04:00;CYQF 060400Z 00000KT 15SM SKC M01/M02 A3013 RMK SLP236

CYQF;2012-11-06 05:00;CYQF 060500Z 00000KT 15SM SKC M02/M03 A3013 RMK SLP236

CYQF;2012-11-06 06:00;CYQF 060600Z 00000KT 15SM SKC M02/M04 A3014 RMK SLP244

CYQF;2012-11-06 07:00;CYQF 060700Z 27003KT 15SM SKC M04/M05 A3015 RMK SLP247

CYQF;2012-11-06 08:00;CYQF 060800Z 00000KT 15SM SKC M04/M05 A3016 RMK SLP251

CYQF;2012-11-06 09:00;CYQF 060900Z 27006KT 15SM SKC M04/M05 A3017 RMK SLP253

CYQF;2012-11-06 10:00;CYQF 061000Z 21004KT 15SM FEW220 M04/M05 A3017 RMK CI1 SLP253

CYQF;2012-11-06 11:00;CYQF 061100Z 21005KT 15SM BKN220 M05/M06 A3015 RMK CS2 SLP248

CYQF;2012-11-06 12:00;CYQF 061200Z 20005KT 15SM BKN220 M05/M06 A3015 RMK CS3 SLP253

CYQF;2012-11-06 13:00;CYQF 061300Z 21004KT 15SM BKN220 M05/M06 A3015 RMK CS3 SLP253

CYQF;2012-11-06 14:00;CYQF 061400Z 23003KT 15SM FEW080 BKN220 M06/M07 A3013 RMK AC2CI2 FROIN SLP245

CYQF;2012-11-06 15:00;CYQF 061500Z 18003KT 15SM OVC150 M04/M05 A3013 RMK AC8 FROIN SLP248

CYQF;2012-11-06 16:00;CYQF 061600Z 19003KT 15SM BKN100 M02/M04 A3011 RMK AC7 SLP241

CYQF;2012-11-06 17:00;CYQF 061700Z 00000KT 15SM BKN100 OVC250 00/M02 A3009 RMK AS6CI1 SLP235

CYQF;2012-11-06 18:00;CYQF 061800Z 00000KT 15SM FEW100 BKN250 03/M02 A3006 RMK AC2CI2 SLP222

CYQF;2012-11-06 19:00;CYQF 061900Z 16005KT 15SM FEW100 BKN250 03/M03 A3003 RMK AC2CI2 SLP211

CYQF;2012-11-06 20:00;CYQF 062000Z 18012KT 15SM FEW100 BKN250 05/M04 A2999 RMK AC1CI3 SLP200

CYQF;2012-11-06 21:00;CYQF 062100Z 16010KT 15SM FEW100 BKN250 04/M04 A2996 RMK AC2CI2 SLP184

CYQF;2012-11-06 22:00;CYQF 062200Z 15010KT 15SM FEW070 BKN120 BKN250 04/M04 A2992 RMK AC1AC5CI2 SLP173

CYQF;2012-11-06 23:00;CYQF 062300Z 12005KT 15SM FEW070 BKN120 BKN250 03/M03 A2990 RMK AC1AC4CI2 SLP167

CYQF;2012-11-07 00:00;CYQF 070000Z 13007KT 15SM BKN100 BKN250 02/M03 A2988 RMK AC6CI1 SLP160

CYQF;2012-11-07 01:00;CYQF 070100Z 13012KT 15SM OVC080 02/M03 A2983 RMK AC8 SLP146

CYQF;2012-11-07 02:00;CYQF 070200Z 14007KT 15SM OVC080 02/M03 A2982 RMK AS8 SLP141

CYQF;2012-11-07 03:00;CYQF 070300Z 15009KT 15SM OVC080 02/M03 A2978 RMK AS8 SLP127

CYQF;2012-11-07 04:00;CYQF 070400Z 18006KT 15SM OVC080 02/M03 A2974 RMK AS8 SLP113

CYQF;2012-11-07 05:00;CYQF 070500Z 11005KT 15SM OVC080 01/M03 A2972 RMK AS8 SLP108

CYQF;2012-11-07 06:00;CYQF 070600Z 09007KT 15SM FEW080 BKN250 01/M03 A2969 RMK AS2CI2 SLP088

CYQF;2012-11-07 07:00;CYQF 070700Z 06006KT 15SM FEW080 BKN250 M00/M02 A2968 RMK AC2CI2 SLP087

CYQF;2012-11-07 08:00;CYQF 070800Z 08005KT 15SM FEW080 SCT250 M01/M03 A2967 RMK AC2CI2 SLP084

CYQF;2012-11-07 09:00;CYQF 070900Z 04003KT 15SM FEW080 SCT250 M01/M03 A2967 RMK AC2CI2 SLP081

CYQF;2012-11-07 10:00;CYQF 071000Z 34004KT 15SM FEW080 SCT250 M04/M05 A2967 RMK AC1CI1 SLP081

CYQF;2012-11-07 11:00;CYQF 071100Z 35003KT 15SM FEW080 FEW250 M03/M05 A2965 RMK AC1CI0 FROIN SLP075

CYQF;2012-11-07 12:00;CYQF 071200Z CCA 33004KT 15SM SCT080 BKN250 M03/M04 A2966 RMK AC4CI1 FROIN SLP081

CYQF;2012-11-07 13:00;CYQF 071300Z 35007KT 15SM BKN080 M02/M04 A2964 RMK AC6 SLP076

CYQF;2012-11-07 14:00;CYQF 071400Z 34006KT 15SM SCT080 M04/M05 A2967 RMK AC3 FROIN SLP086

CYQF;2012-11-07 15:00;CYQF 071500Z 32006KT 15SM FEW080 M04/M05 A2968 RMK AC2 SLP092

CYQF;2012-11-07 16:00;CYQF 071600Z 31008KT 15SM BKN080 M04/M05 A2972 RMK AC3 SLP102

CYQF;2012-11-07 17:00;CYQF 071700Z 32010KT 15SM OVC060 M02/M04 A2973 RMK SC8 SLP105

CYQF;2012-11-07 17:34;CYQF 071734Z 31010KT 2SM -SN OVC020 RMK SN2SC6

CYQF;2012-11-07 18:00;CYQF 071800Z 32010KT 5SM -SN FEW010 BKN020 OVC060 M01/M03 A2976 RMK SF2SC3SC3 SLP115

CYQF;2012-11-07 18:46;CYQF 071846Z 33010KT 10SM SCT010 BKN060 RMK SC3SC3

CYQF;2012-11-07 19:00;CYQF 071900Z 33010G15KT 12SM BKN012 BKN060 M01/M02 A2976 RMK SC5SC2 SLP115

CYQF;2012-11-07 20:00;CYQF 072000Z 32012G18KT 12SM BKN015 OVC060 M00/M03 A2978 RMK SC6SC2 SLP123

CYQF;2012-11-07 21:00;CYQF 072100Z 34012G20KT 12SM OVC015 M00/M03 A2981 RMK SC8 SLP136

CYQF;2012-11-07 22:00;CYQF 072200Z 33012G20KT 2SM -SN OVC012 M00/M02 A2986 RMK SN2SC6 SLP151

CYQF;2012-11-07 22:16;CYQF 072216Z 36012G20KT 3/4SM -SN DRSN VV008 RMK SN8

CYQF;2012-11-07 23:00;CYQF 072300Z 36012G20KT 3/4SM -SN DRSN VV008 M02/M03 A2991 RMK SN8 SLP165

CYQF;2012-11-08 00:00;CYQF 080000Z 36010G17KT 1SM -SN DRSN VV010 M03/M05 A2995 RMK SN8 /S01/ SLP190

CYQF;2012-11-08 01:00;CYQF 080100Z 35010G15KT 1SM -SN DRSN OVC014 M03/M05 A3000 RMK SN5SC3 VIS VRB 3/4-11/2 SLP203

CYQF;2012-11-08 02:00;CYQF 080200Z 36010G17KT 1 1/2SM -SN DRSN OVC015 M04/M06 A3002 RMK SN4SC4 VIS VRB 1-2 SLP211

CYQF;2012-11-08 03:00;CYQF 080300Z 35010KT 4SM -SN DRSN OVC011 M04/M06 A3005 RMK SC8 SLP225

CYQF;2012-11-08 04:00;CYQF 080400Z 36010KT 6SM -SN DRSN BKN012 OVC030 M05/M07 A3007 RMK SC6SC2 SLP232

CYQF;2012-11-08 05:00;CYQF 080500Z 35008KT 10SM -SN FEW012 OVC030 M05/M06 A3010 RMK SC2SC6 SLP242

CYQF;2012-11-08 06:00;CYQF 080600Z 36007KT 10SM -SN FEW015 OVC030 M05/M07 A3012 RMK SC2SC6 SLP247

CYQF;2012-11-08 07:00;CYQF 080700Z 36008KT 10SM -SN FEW015 OVC030 M05/M07 A3013 RMK SC2SC6 SLP250

CYQF;2012-11-08 08:00;CYQF 080800Z 02006KT 10SM -SN FEW015 OVC030 M05/M07 A3015 RMK SC2SC6 SLP257

CYQF;2012-11-08 09:00;CYQF 080900Z 03007KT 6SM -SN FEW015 OVC030 M06/M07 A3016 RMK SC2SC6 SLP262

CYQF;2012-11-08 10:00;CYQF 081000Z 04008KT 6SM -SN FEW015 OVC030 M06/M08 A3017 RMK SC2SC6 SLP265

CYQF;2012-11-08 11:00;CYQF 081100Z 02006KT 6SM -SN OVC016 M06/M08 A3018 RMK SC8 SLP268

CYQF;2012-11-08 12:00;CYQF 081200Z 02007KT 5SM -SN OVC011 M06/M08 A3018 RMK SC8 /S01/ SLP273

CYQF;2012-11-08 13:00;CYQF 081300Z 03006KT 5SM -SN OVC011 M07/M08 A3019 RMK SC8 SLP276

CYQF;2012-11-08 14:00;CYQF 081400Z 03008KT 5SM -SN OVC011 M07/M08 A3021 RMK SC8 SLP281

CYQF;2012-11-08 14:44;CYQF 081444Z 05005KT 2SM -SN OVC010 RMK SN4SC4 VIS VRB 1-3

CYQF;2012-11-08 15:00;CYQF 081500Z 05008KT 2SM -SN OVC010 M08/M09 A3022 RMK SN5SC3 VIS VRB 1-3 SLP290

CYQF;2012-11-08 16:00;CYQF 081600Z 03005KT 2 1/2SM -SN BKN010 OVC100 M08/M09 A3022 RMK SN2SC2AC2 SLP289

CYQF;2012-11-08 17:00;CYQF 081700Z 08008KT 3SM -SN SCT010 OVC100 M08/M10 A3023 RMK SC4AC4 VIS VRB 2-4 SLP292

CYQF;2012-11-08 18:00;CYQF 081800Z 06008KT 2SM -SN BKN012 OVC100 M08/M10 A3023 RMK SN2SC4AC2 /S03/ SLP295

CYQF;2012-11-08 19:00;CYQF 081900Z 06006KT 3SM -SN BKN012 OVC100 M08/M10 A3022 RMK SC5AC3 VIS VRB 2-4 SLP290

CYQF;2012-11-08 20:00;CYQF 082000Z 06006KT 2SM -SN BKN012 OVC030 M08/M10 A3021 RMK SN2SC5SC2 VIS VRB 1-3 SLP288

CYQF;2012-11-08 21:00;CYQF 082100Z 06008KT 2SM -SN BKN012 OVC030 M08/M10 A3020 RMK SN2SC3SC3 VIS VRB 1-3 /S01/ SLP285

CYQF;2012-11-08 22:00;CYQF 082200Z 06007KT 2SM -SN OVC025 M09/M11 A3020 RMK SN3SC5 VIS VRB 1-3 SLP286

CYQF;2012-11-08 23:00;CYQF 082300Z 06008KT 1SM -SN VV006 M09/M11 A3021 RMK SN8 VIS VRB 1/2-11/2 SLP289

CYQF;2012-11-09 00:00;CYQF 090000Z 05008KT 1SM -SN VV006 M10/M12 A3022 RMK SN8 VIS VRB 1/2-2 /S02/ SLP295

CYQF;2012-11-09 01:00;CYQF 090100Z 06011KT 1 1/2SM -SN OVC040 M10/M12 A3022 RMK SC8 SLP296

CYQF;2012-11-09 02:00;CYQF 090200Z 04005KT 1SM -SN OVC040 M11/M13 A3021 RMK SC8 VIS VRB 1/2-2 SLP293

CYQF;2012-11-09 03:00;CYQF 090300Z 05005KT 1SM -SN OVC040 M11/M12 A3022 RMK SC8 SLP298

CYQF;2012-11-09 04:00;CYQF 090400Z 06004KT 1SM -SN OVC020 M10/M12 A3022 RMK SN4SC4 SLP298

CYQF;2012-11-09 05:00;CYQF 090500Z 06005KT 3/4SM -SN VV010 M11/M12 A3023 RMK SN8 /S04/ SLP299

CYQF;2012-11-09 06:00;CYQF 090600Z 04005KT 1SM -SN VV006 M10/M12 A3021 RMK SN8 SLP295

CYQF;2012-11-09 07:00;CYQF 090700Z 03006KT 1SM -SN VV006 M10/M12 A3020 RMK SN8 SLP292

CYQF;2012-11-09 08:00;CYQF 090800Z 05005KT 3SM -SN VV008 M11/M12 A3020 RMK SN8 SLP290

CYQF;2012-11-09 08:47;CYQF 090847Z 04006KT 2SM -SN VV008 RMK SN8

CYQF;2012-11-09 09:00;CYQF 090900Z 05007KT 2SM -SN VV008 M11/M12 A3019 RMK SN8 /S01/ SLP286

CYQF;2012-11-09 10:00;CYQF 091000Z 04004KT 2SM -SN VV008 M11/M12 A3019 RMK SN8 SLP288

CYQF;2012-11-09 11:00;CYQF 091100Z 03006KT 2SM -SN VV008 M11/M13 A3018 RMK SN8 SLP283

CYQF;2012-11-09 12:00;CYQF 091200Z 03006KT 2SM -SN VV008 M11/M13 A3017 RMK SN8 /S02/ SLP283

CYQF;2012-11-09 13:00;CYQF 091300Z 03006KT 2SM -SN VV009 M11/M13 A3017 RMK SN8 SLP282

CYQF;2012-11-09 14:00;CYQF 091400Z 07008KT 2SM -SN VV009 M11/M13 A3016 RMK SN8 SLP281

CYQF;2012-11-09 15:00;CYQF 091500Z 05009KT 1 1/2SM -SN VV008 M12/M13 A3017 RMK SN8 VIS VRB 1-2 SLP286

CYQF;2012-11-09 16:00;CYQF 091600Z 05008KT 3/4SM -SN VV006 M12/M14 A3017 RMK SN8 /S01/ SLP285

CYQF;2012-11-09 17:00;CYQF 091700Z 05007KT 1SM -SN VV007 M12/M13 A3018 RMK SN8 VIS VRB 3/4-11/4 SLP287

CYQF;2012-11-09 18:00;CYQF 091800Z 05007KT 1SM -SN VV008 M11/M13 A3017 RMK SN8 VIS VRB 3/4-11/4 SLP283

CYQF;2012-11-09 18:42;CYQF 091842Z 06008KT 1 1/2SM -SN OVC090 RMK SN3AS5 VIS VRB 1-2

CYQF;2012-11-09 19:00;CYQF 091900Z 05010KT 1 1/2SM -SN BKN015 OVC090 M11/M13 A3015 RMK SN3SC3AC2 VIS VRB 1-2 SLP279

CYQF;2012-11-09 20:00;CYQF 092000Z 06008KT 2 1/2SM -SN BKN020 OVC090 M11/M13 A3015 RMK SC5AS3 VIS VRB 2-3 SLP278

CYQF;2012-11-09 21:00;CYQF 092100Z 04008KT 2SM -SN BKN020 OVC090 M11/M13 A3013 RMK SN2SC4AS2 VIS VRB 11/2-21/2 SLP271

CYQF;2012-11-09 22:00;CYQF 092200Z 06007KT 1 1/2SM -SN BKN020 OVC090 M12/M14 A3014 RMK SN2SC3AS2 VIS VRB 1-2 /S01/ SLP273

CYQF;2012-11-09 23:00;CYQF 092300Z 04007KT 3/4SM -SN VV010 M12/M14 A3013 RMK SN8 VIS VRB 1/2-1 SLP270

CYQF;2012-11-10 00:00;CYQF 100000Z 05008KT 3/4SM -SN VV010 M12/M14 A3014 RMK SN8 VIS VRB 1/2-1 /S02/ SLP276

CYQF;2012-11-10 01:00;CYQF 100100Z 06008KT 1SM -SN VV010 M13/M15 A3015 RMK SN8 VIS VRB 1/2-11/2 SLP277

CYQF;2012-11-10 02:00;CYQF 100200Z 06004KT 1 1/2SM -SN VV011 M13/M15 A3014 RMK SN8 VIS VRB 1-2 /S01/ SLP275

CYQF;2012-11-10 03:00;CYQF 100300Z 05006KT 2SM -SN OVC020 M13/M15 A3013 RMK SN3SC5 SLP275

CYQF;2012-11-10 04:00;CYQF 100400Z 03003KT 3SM -SN OVC020 M14/M16 A3013 RMK SN2SC6 SLP275

CYQF;2012-11-10 05:00;CYQF 100500Z 06003KT 3SM -SN OVC020 M14/M16 A3013 RMK SN2SC6 SLP275

CYQF;2012-11-10 06:00;CYQF 100600Z 00000KT 4SM -SN OVC025 M15/M16 A3013 RMK SC8 SLP275

CYQF;2012-11-10 07:00;CYQF 100700Z 04006KT 10SM -SN OVC025 M15/M17 A3012 RMK SC8 SLP273

CYQF;2012-11-10 08:00;CYQF 100800Z 32004KT 10SM -SN BKN025 M17/M18 A3012 RMK SC6 SLP273

CYQF;2012-11-10 09:00;CYQF 100900Z 32004KT 10SM SCT025 M18/M19 A3012 RMK SC3 IC SLP276

CYQF;2012-11-10 10:00;CYQF 101000Z 33004KT 10SM FEW040 M19/M20 A3012 RMK SC2 IC SLP275

CYQF;2012-11-10 11:00;CYQF 101100Z 33004KT 15SM FEW040 SCT250 M20/M21 A3011 RMK SC2CI1 IC SLP271

CYQF;2012-11-10 12:00;CYQF 101200Z 33004KT 15SM SCT050 BKN250 M17/M18 A3010 RMK SC3CI1 IC SLP269

CYQF;2012-11-10 12:42;CYQF 101242Z 34004KT 15SM -SN BKN050 OVC250 RMK SC6CI2

CYQF;2012-11-10 13:00;CYQF 101300Z 33005KT 15SM -SN BKN050 OVC250 M17/M18 A3010 RMK SC6CI2 SLP269

CYQF;2012-11-10 14:00;CYQF 101400Z 33004KT 15SM FEW050 SCT080 BKN250 M19/M21 A3010 RMK SC2AC2CI0 IC SLP267

CYQF;2012-11-10 15:00;CYQF 101500Z 34003KT 15SM FEW050 SCT080 M20/M21 A3010 RMK SC1AC2 SLP272

CYQF;2012-11-10 16:00;CYQF 101600Z 33003KT 15SM FEW050 SCT080 M20/M21 A3010 RMK SC2AC2 SLP273

CYQF;2012-11-10 17:00;CYQF 101700Z 36002KT 12SM FEW050 BKN080 M17/M18 A3009 RMK SC1AC2 SLP271

CYQF;2012-11-10 18:00;CYQF 101800Z 00000KT 10SM FEW012 BKN240 M16/M17 A3010 RMK SC2CI3 SLP269

CYQF;2012-11-10 19:00;CYQF 101900Z 00000KT 10SM FEW012 BKN240 M16/M17 A3008 RMK SC2CI1 SLP265

CYQF;2012-11-10 20:00;CYQF 102000Z 00000KT 12SM FEW012 M15/M17 A3007 RMK SC2 CU SLP261

CYQF;2012-11-10 21:00;CYQF 102100Z 00000KT 12SM FEW012 M14/M17 A3006 RMK SC1 SLP256

CYQF;2012-11-10 22:00;CYQF 102200Z 00000KT 15SM FEW012 M14/M17 A3005 RMK SC1 SLP254

CYQF;2012-11-10 23:00;CYQF 102300Z 00000KT 15SM FEW020 M15/M18 A3005 RMK SC1 SLP255

CYQF;2012-11-11 00:00;CYQF 110000Z 00000KT 15SM SKC M17/M20 A3006 RMK SLP259

CYQF;2012-11-11 01:00;CYQF 110100Z 00000KT 15SM SKC M20/M23 A3005 RMK SLP256

CYQF;2012-11-11 02:00;CYQF 110200Z 00000KT 15SM SKC M22/M25 A3004 RMK SLP254

CYQF;2012-11-11 03:00;CYQF 110300Z 23003KT 15SM SKC M23/M27 A3002 RMK SLP257

CYQF;2012-11-11 04:00;CYQF 110400Z 00000KT 15SM SKC M22/M26 A3000 RMK SLP252

CYQF;2012-11-11 05:00;CYQF 110500Z 00000KT 15SM SKC M23/M27 A3000 RMK SLP251

CYQF;2012-11-11 06:00;CYQF 110600Z 00000KT 15SM SKC M23/M26 A2998 RMK SLP238

CYQF;2012-11-11 07:00;CYQF 110700Z 19003KT 15SM SKC M23/M27 A2997 RMK SLP235

CYQF;2012-11-11 08:00;CYQF 110800Z 21004KT 15SM SKC M26/M30 A2996 RMK FROIN SLP232

CYQF;2012-11-11 09:00;CYQF 110900Z CCA 18004KT 15SM SKC M24/M28 A2995 RMK FROIN SLP228

CYQF;2012-11-11 10:00;CYQF 111000Z CCA 23002KT 15SM SKC M25/M29 A2994 RMK FROIN SLP223

CYQF;2012-11-11 11:00;CYQF 111100Z 18004KT 15SM SKC M25/M29 A2994 RMK FROIN SLP222

CYQF;2012-11-11 12:00;CYQF 111200Z 20003KT 15SM SKC M25/M29 A2993 RMK FROIN SLP226

CYQF;2012-11-11 13:00;CYQF 111300Z 21002KT 15SM SKC M26/M30 A2994 RMK FROIN SLP228

CYQF;2012-11-11 14:00;CYQF 111400Z 20004KT 15SM SKC M26/M29 A2994 RMK FROIN SLP228

CYQF;2012-11-11 15:00;CYQF 111500Z 20002KT 15SM SKC M27/M31 A2995 RMK SLP240

CYQF;2012-11-11 16:00;CYQF 111600Z 21002KT 15SM FEW110 FEW230 M26/M30 A2993 RMK AC1CI1 SLP235

CYQF;2012-11-11 17:00;CYQF 111700Z 21003KT 15SM SCT110 M21/M25 A2992 RMK AC3 SLP233

CYQF;2012-11-11 18:00;CYQF 111800Z 19002KT 15SM BKN110 M19/M22 A2993 RMK AC5 SLP222

CYQF;2012-11-11 19:00;CYQF 111900Z 19002KT 15SM BKN090 M16/M19 A2990 RMK AC7 SLP215

CYQF;2012-11-11 20:00;CYQF 112000Z 00000KT 15SM BKN090 M13/M15 A2990 RMK AC6 SLP213

CYQF;2012-11-11 21:00;CYQF 112100Z 15002KT 15SM SCT090 BKN240 M12/M14 A2990 RMK AC3CI3 SLP206

CYQF;2012-11-11 22:00;CYQF 112200Z 00000KT 15SM FEW090 BKN240 M11/M13 A2990 RMK AC2CI3 SLP206

CYQF;2012-11-11 23:00;CYQF 112300Z 00000KT 15SM FEW090 BKN240 M11/M14 A2991 RMK AC2CI2 SLP209

CYQF;2012-11-12 00:00;CYQF 120000Z 20002KT 15SM FEW090 BKN240 M15/M17 A2991 RMK AC1CI6 SLP215

CYQF;2012-11-12 01:00;CYQF 120100Z 00000KT 15SM FEW090 BKN240 M15/M17 A2992 RMK AC1CI3 SLP217

CYQF;2012-11-12 02:00;CYQF 120200Z 00000KT 15SM FEW090 BKN200 M15/M17 A2992 RMK AC1CI4 SLP217

CYQF;2012-11-12 03:00;CYQF 120300Z 21002KT 15SM BKN200 M15/M16 A2991 RMK CI4 SLP218

CYQF;2012-11-12 04:00;CYQF 120400Z 20002KT 15SM BKN200 M13/M15 A2991 RMK CI6 SLP217

CYQF;2012-11-12 05:00;CYQF 120500Z 21004KT 15SM OVC200 M12/M14 A2991 RMK CI8 SLP218

CYQF;2012-11-12 06:00;CYQF 120600Z 20005KT 15SM BKN200 M12/M14 A2991 RMK CI6 SLP203

CYQF;2012-11-12 07:00;CYQF 120700Z 22004KT 15SM BKN200 M11/M13 A2991 RMK CI5 SLP204

CYQF;2012-11-12 08:00;CYQF 120800Z 20004KT 15SM SCT200 M12/M13 A2991 RMK CI2 FROIN SLP204

CYQF;2012-11-12 09:00;CYQF 120900Z 00000KT 15SM SKC M12/M13 A2991 RMK FROIN SLP195

CYQF;2012-11-12 10:00;CYQF 121000Z 00000KT 15SM SKC M16/M17 A2990 RMK FROIN SLP194

CYQF;2012-11-12 11:00;CYQF 121100Z 20004KT 15SM SCT220 M13/M15 A2991 RMK CI1 FROIN SLP197

CYQF;2012-11-12 12:00;CYQF 121200Z 19002KT 15SM BKN220 M14/M15 A2991 RMK CI2 FROIN SLP203

CYQF;2012-11-12 13:00;CYQF 121300Z 21005KT 15SM BKN220 M15/M17 A2992 RMK CI2 FROIN SLP206

CYQF;2012-11-12 14:00;CYQF 121400Z 20004KT 15SM FEW100 SCT220 M13/M15 A2992 RMK AC2CI1 SLP204

CYQF;2012-11-12 15:00;CYQF 121500Z 20005KT 15SM SCT100 BKN220 M15/M17 A2993 RMK AC3CI2 SLP210

CYQF;2012-11-12 16:00;CYQF 121600Z 20005KT 15SM FEW100 BKN220 M14/M16 A2992 RMK AC2CI2 SLP207

CYQF;2012-11-12 17:00;CYQF 121700Z 00000KT 15SM FEW100 BKN220 M10/M11 A2993 RMK AC2CI2 SLP209

CYQF;2012-11-12 18:00;CYQF 121800Z 22005KT 15SM SCT100 BKN220 M11/M13 A2992 RMK AC3CI3 SLP199

CYQF;2012-11-12 19:00;CYQF 121900Z 00000KT 15SM FEW100 BKN220 M08/M11 A2993 RMK AC1CI2 SLP200

CYQF;2012-11-12 20:00;CYQF 122000Z 00000KT 15SM FEW100 BKN220 M06/M09 A2992 RMK AC1CI4 SLP197

CYQF;2012-11-12 21:00;CYQF 122100Z 00000KT 15SM FEW100 BKN220 M03/M08 A2991 RMK AC1CI4 SLP184

CYQF;2012-11-12 22:00;CYQF 122200Z 00000KT 15SM FEW100 BKN220 M03/M08 A2990 RMK AC1CI2 SLP183

CYQF;2012-11-12 23:00;CYQF 122300Z 00000KT 15SM FEW100 BKN250 M05/M09 A2991 RMK AC1CI2 SLP185

CYQF;2012-11-13 00:00;CYQF 130000Z 00000KT 15SM BKN100 BKN250 M07/M09 A2992 RMK AC5CI1 SLP194

CYQF;2012-11-13 01:00;CYQF 130100Z 00000KT 15SM BKN100 OVC250 M07/M10 A2992 RMK AC6CI2 SLP194

CYQF;2012-11-13 02:00;CYQF 130200Z 20003KT 15SM OVC100 M07/M09 A2992 RMK AC8 SLP194

CYQF;2012-11-13 03:00;CYQF 130300Z 00000KT 15SM BKN100 OVC250 M07/M09 A2992 RMK AC7CI1 SLP197

CYQF;2012-11-13 04:00;CYQF 130400Z 22005KT 15SM BKN100 OVC250 M07/M09 A2992 RMK AC6CI2 SLP198

CYQF;2012-11-13 05:00;CYQF 130500Z 20004KT 15SM SCT100 BKN250 M07/M09 A2993 RMK AC4CI2 SLP199

CYQF;2012-11-13 06:00;CYQF 130600Z 00000KT 15SM FEW100 BKN250 M07/M09 A2993 RMK AC2CI1 SLP195

CYQF;2012-11-13 07:00;CYQF 130700Z 22005KT 15SM FEW100 SCT250 M12/M14 A2995 RMK AC1CI1 SLP201

CYQF;2012-11-13 08:00;CYQF 130800Z 22004KT 15SM FEW100 FEW250 M11/M12 A2995 RMK AC1CI0 FROIN SLP201

CYQF;2012-11-13 09:00;CYQF 130900Z 21003KT 15SM FEW090 SCT250 M11/M12 A2995 RMK AC1CI2 FROIN SLP196

CYQF;2012-11-13 10:00;CYQF 131000Z 21004KT 15SM FEW090 BKN250 M09/M11 A2995 RMK AC2CI1 FROIN SLP198

CYQF;2012-11-13 11:00;CYQF 131100Z 25004KT 15SM FEW090 BKN250 M12/M14 A2996 RMK AC2CI1 FROIN SLP200

CYQF;2012-11-13 12:00;CYQF 131200Z CCA 20005KT 15SM FEW090 BKN250 M12/M14 A2996 RMK AC2CI1 FROIN SLP207

CYQF;2012-11-13 13:00;CYQF 131300Z 21005KT 15SM FEW090 BKN250 M14/M16 A2997 RMK AC2CI1 FROIN SLP210

CYQF;2012-11-13 14:00;CYQF 131400Z 23006KT 15SM FEW090 BKN250 M14/M16 A2996 RMK AC1CI2 FROIN SLP209

CYQF;2012-11-13 15:00;CYQF 131500Z 20004KT 15SM FEW100 BKN250 M13/M14 A2996 RMK AC1CI3 SLP208

CYQF;2012-11-13 16:00;CYQF 131600Z 20005KT 15SM FEW100 BKN250 M11/M13 A2995 RMK AC1CI3 SLP206

CYQF;2012-11-13 17:00;CYQF 131700Z 00000KT 15SM FEW100 BKN250 M09/M11 A2995 RMK AC1CI2 SLP205

CYQF;2012-11-13 18:00;CYQF 131800Z 00000KT 15SM FEW100 BKN250 M06/M10 A2995 RMK AC1CI2 SLP200

CYQF;2012-11-13 19:00;CYQF 131900Z 20003KT 15SM FEW100 SCT250 M03/M09 A2994 RMK AC1CI2 SLP195

CYQF;2012-11-13 20:00;CYQF 132000Z 22002KT 15SM FEW100 SCT250 M04/M08 A2992 RMK AC1CI2 SLP189

CYQF;2012-11-13 21:00;CYQF 132100Z 17002KT 15SM FEW100 FEW250 M03/M08 A2992 RMK AC1CI2 SLP187

CYQF;2012-11-13 22:00;CYQF 132200Z 22003KT 15SM FEW100 BKN250 M04/M08 A2991 RMK AC2CI2 SLP186

CYQF;2012-11-13 23:00;CYQF 132300Z 00000KT 15SM FEW100 SCT250 M03/M08 A2991 RMK AC1CI2 SLP185

CYQF;2012-11-14 00:00;CYQF 140000Z 18002KT 15SM FEW100 FEW250 M08/M10 A2991 RMK AC1CI1 AC TR SLP190

CYQF;2012-11-14 01:00;CYQF 140100Z 18002KT 15SM FEW250 M07/M10 A2990 RMK CI1 SLP187

CYQF;2012-11-14 02:00;CYQF 140200Z 20003KT 15SM SKC M11/M13 A2989 RMK SLP184

CYQF;2012-11-14 03:00;CYQF 140300Z 23004KT 15SM FEW100 BKN250 M10/M12 A2988 RMK AC1CI2 SLP184

CYQF;2012-11-14 04:00;CYQF 140400Z 22003KT 15SM FEW100 BKN250 M09/M11 A2987 RMK AC2CI2 SLP182

CYQF;2012-11-14 05:00;CYQF 140500Z 21006KT 15SM BKN100 OVC250 M10/M12 A2987 RMK AC5CI2 SLP181

CYQF;2012-11-14 06:00;CYQF 140600Z 20008KT 15SM BKN100 BKN250 M08/M11 A2985 RMK AC5CI2 SLP163

CYQF;2012-11-14 07:00;CYQF 140700Z 21005KT 15SM BKN120 M08/M11 A2984 RMK AC7 SLP160

CYQF;2012-11-14 08:00;CYQF 140800Z 19004KT 15SM OVC120 M06/M09 A2983 RMK AC8 SLP158

CYQF;2012-11-14 09:00;CYQF 140900Z 23010KT 15SM OVC120 M04/M07 A2982 RMK AC8 SLP146

CYQF;2012-11-14 10:00;CYQF 141000Z 24008KT 15SM OVC120 M03/M07 A2981 RMK AC8 SLP143

CYQF;2012-11-14 11:00;CYQF 141100Z 25008KT 15SM OVC120 M03/M07 A2980 RMK AC8 SLP139

CYQF;2012-11-14 12:00;CYQF 141200Z 20004KT 15SM BKN120 OVC220 M02/M06 A2979 RMK AC6CI2 SLP139

CYQF;2012-11-14 13:00;CYQF 141300Z 24008KT 15SM BKN120 OVC220 M00/M06 A2980 RMK AC5CI2 SLP140

CYQF;2012-11-14 14:00;CYQF 141400Z 23004KT 15SM BKN120 OVC220 M01/M06 A2982 RMK AC6CI2 SLP147

CYQF;2012-11-14 15:00;CYQF 141500Z 27005KT 15SM BKN100 BKN220 M01/M06 A2985 RMK AC5CI1 VIRGA SLP160

CYQF;2012-11-14 16:00;CYQF 141600Z 18003KT 15SM BKN080 M02/M06 A2988 RMK AC6 VIRGA SLP169

CYQF;2012-11-14 17:00;CYQF 141700Z 36005KT 15SM BKN080 01/M06 A2993 RMK AC6 SLP186

CYQF;2012-11-14 18:00;CYQF 141800Z 00000KT 15SM BKN080 02/M02 A2995 RMK AC5 SLP189

CYQF;2012-11-14 19:00;CYQF 141900Z 18004KT 15SM SCT080 02/M01 A2995 RMK AC4 SLP191

CYQF;2012-11-14 20:00;CYQF 142000Z 20002KT 15SM FEW030 FEW080 03/M02 A2995 RMK SC1AC1 SLP191

CYQF;2012-11-14 21:00;CYQF 142100Z 24003KT 15SM FEW030 FEW080 02/M03 A2997 RMK SC1AC1 SLP191

CYQF;2012-11-14 22:00;CYQF 142200Z 00000KT 15SM FEW030 SCT080 03/M03 A2997 RMK SC1AC2 SLP193

CYQF;2012-11-14 23:00;CYQF 142300Z 23004KT 15SM FEW070 SCT250 M00/M04 A2999 RMK AC2CI1 SLP199

CYQF;2012-11-15 00:00;CYQF 150000Z 17003KT 15SM FEW070 BKN250 M02/M06 A3000 RMK AC2CI2 SLP205

CYQF;2012-11-15 01:00;CYQF 150100Z 19006KT 15SM FEW070 SCT250 M05/M08 A3001 RMK AC1CI2 SLP207

CYQF;2012-11-15 02:00;CYQF 150200Z 20008KT 15SM SKC M05/M08 A3001 RMK SLP207

CYQF;2012-11-15 03:00;CYQF 150300Z 21010KT 15SM SKC M08/M10 A3001 RMK SLP213

CYQF;2012-11-15 04:00;CYQF 150400Z 20008KT 15SM FEW100 M06/M08 A3001 RMK AC2 SLP214

CYQF;2012-11-15 05:00;CYQF 150500Z 19007KT 15SM SKC M07/M10 A3002 RMK SLP217

CYQF;2012-11-15 06:00;CYQF 150600Z 19005KT 15SM SKC M10/M13 A3001 RMK SLP214

CYQF;2012-11-15 07:00;CYQF 150700Z 19006KT 15SM SKC M10/M13 A3001 RMK SLP213

CYQF;2012-11-15 08:00;CYQF 150800Z 18003KT 15SM SKC M08/M12 A3001 RMK SLP214

CYQF;2012-11-15 09:00;CYQF 150900Z 20003KT 15SM SKC M09/M12 A3000 RMK SLP209

CYQF;2012-11-15 10:00;CYQF 151000Z 18005KT 15SM SKC M10/M13 A3001 RMK SLP210

CYQF;2012-11-15 11:00;CYQF 151100Z 19005KT 15SM SKC M10/M13 A3001 RMK SLP210

CYQF;2012-11-15 12:00;CYQF 151200Z 19006KT 15SM SKC M11/M14 A3000 RMK SLP214

CYQF;2012-11-15 13:00;CYQF 151300Z 20005KT 15SM SKC M10/M13 A2999 RMK SLP212

CYQF;2012-11-15 14:00;CYQF 151400Z 19005KT 15SM FEW250 M10/M13 A2999 RMK CI1 SLP212

CYQF;2012-11-15 15:00;CYQF 151500Z 19005KT 15SM FEW100 FEW250 M10/M12 A2999 RMK AC1CI0 SLP215

CYQF;2012-11-15 16:00;CYQF 151600Z 19006KT 15SM FEW120 SCT250 M11/M14 A2998 RMK AC1CI1 SLP214

CYQF;2012-11-15 17:00;CYQF 151700Z 19003KT 15SM FEW120 BKN250 M06/M11 A2998 RMK AC1CI1 SLP214

CYQF;2012-11-15 18:00;CYQF 151800Z 19004KT 15SM FEW120 SCT250 M03/M09 A2997 RMK AC1CI1 SLP205

CYQF;2012-11-15 19:00;CYQF 151900Z 00000KT 15SM BKN250 01/M08 A2995 RMK CI2 SLP200

CYQF;2012-11-15 20:00;CYQF 152000Z 16002KT 15SM FEW120 BKN250 02/M06 A2993 RMK AC1CI2 SLP193

CYQF;2012-11-15 21:00;CYQF 152100Z 00000KT 15SM SCT100 BKN250 00/M07 A2992 RMK AC3CI1 SLP183

CYQF;2012-11-15 22:00;CYQF 152200Z 00000KT 15SM SCT100 BKN250 M00/M07 A2992 RMK AC3CI2 SLP182

CYQF;2012-11-15 23:00;CYQF 152300Z 30002KT 15SM BKN100 BKN250 M03/M07 A2992 RMK AC5CI2 SLP181

CYQF;2012-11-16 00:00;CYQF 160000Z 00000KT 15SM BKN100 BKN250 M03/M07 A2990 RMK AC6CI1 SLP181

CYQF;2012-11-16 01:00;CYQF 160100Z 00000KT 15SM BKN100 OVC250 M03/M07 A2989 RMK AC6CI2 SLP176

CYQF;2012-11-16 02:00;CYQF 160200Z 00000KT 15SM BKN100 M04/M07 A2986 RMK AC7 OBS TAKEN +18 SLP169

CYQF;2012-11-16 03:00;CYQF 160300Z 00000KT 15SM OVC100 M03/M06 A2985 RMK AC8 SLP162

CYQF;2012-11-16 04:00;CYQF 160400Z 00000KT 15SM OVC100 M04/M07 A2983 RMK AC8 SLP157

CYQF;2012-11-16 05:00;CYQF 160500Z 00000KT 15SM OVC100 M05/M07 A2981 RMK AC8 SLP151

CYQF;2012-11-16 06:00;CYQF 160600Z 31002KT 15SM SCT100 M06/M08 A2980 RMK AC4 SLP140

CYQF;2012-11-16 07:00;CYQF 160700Z 00000KT 15SM SCT100 M07/M09 A2978 RMK AC4 SLP134

CYQF;2012-11-16 08:00;CYQF 160800Z 00000KT 15SM BKN100 M08/M09 A2976 RMK AC6 SLP130

CYQF;2012-11-16 09:00;CYQF 160900Z 26005KT 15SM SCT100 M09/M11 A2976 RMK AC3 SLP127

CYQF;2012-11-16 10:00;CYQF 161000Z 20003KT 15SM FEW100 M10/M12 A2976 RMK AC2 SLP125

CYQF;2012-11-16 11:00;CYQF 161100Z 28005KT 15SM SCT100 M08/M10 A2977 RMK AC3 SLP130

CYQF;2012-11-16 12:00;CYQF 161200Z 36006KT 15SM FEW100 M07/M10 A2974 RMK AC2 SLP120

CYQF;2012-11-16 13:00;CYQF 161300Z 19004KT 15SM FEW100 M08/M11 A2976 RMK AC2 SLP126

CYQF;2012-11-16 14:00;CYQF 161400Z 28005KT 15SM FEW100 SCT250 M09/M12 A2976 RMK AC2CI1 SLP125

CYQF;2012-11-16 15:00;CYQF 161500Z 27007KT 15SM FEW100 SCT250 M10/M13 A2977 RMK AC2CI1 SLP136

CYQF;2012-11-16 16:00;CYQF 161600Z 18003KT 15SM FEW100 SCT250 M09/M11 A2978 RMK AC1CI1 SLP138

CYQF;2012-11-16 17:00;CYQF 161700Z 26007KT 15SM FEW250 M07/M11 A2979 RMK CI1 SLP142

CYQF;2012-11-16 18:00;CYQF 161800Z 00000KT 15SM SKC M03/M08 A2980 RMK SLP142

CYQF;2012-11-16 19:00;CYQF 161900Z 28003KT 15SM FEW250 M03/M08 A2979 RMK CI0 SLP139

CYQF;2012-11-16 20:00;CYQF 162000Z 00000KT 15SM SCT250 M00/M08 A2978 RMK CI1 OBS TAKEN +7 SLP136

CYQF;2012-11-16 21:00;CYQF 162100Z 16002KT 15SM BKN250 M00/M08 A2978 RMK CI2 SLP134

CYQF;2012-11-16 22:00;CYQF 162200Z 00000KT 15SM BKN250 M02/M08 A2978 RMK CI3 SLP134

CYQF;2012-11-16 23:00;CYQF 162300Z 00000KT 15SM BKN250 M04/M09 A2977 RMK CI3 SLP131

CYQF;2012-11-17 00:00;CYQF 170000Z 20003KT 15SM BKN250 M07/M10 A2979 RMK CI3 SLP142

CYQF;2012-11-17 01:00;CYQF 170100Z 00000KT 15SM BKN250 M08/M11 A2977 RMK CI3 SLP138

CYQF;2012-11-17 02:00;CYQF 170200Z 00000KT 15SM BKN250 M09/M12 A2977 RMK CI3 SLP138

CYQF;2012-11-17 03:00;CYQF 170300Z 11003KT 15SM BKN250 M09/M11 A2976 RMK CI2 SLP140

CYQF;2012-11-17 04:00;CYQF 170400Z 15002KT 15SM SCT250 M08/M11 A2976 RMK CI2 SLP137

CYQF;2012-11-17 05:00;CYQF 170500Z 00000KT 15SM SCT250 M10/M13 A2975 RMK CI2 SLP136

CYQF;2012-11-17 06:00;CYQF 170600Z 18005KT 15SM SCT250 M10/M13 A2975 RMK CI2 SLP129

CYQF;2012-11-17 07:00;CYQF 170700Z 00000KT 15SM BKN220 M09/M11 A2974 RMK CI7 SLP125

CYQF;2012-11-17 08:00;CYQF 170800Z 00000KT 15SM BKN220 M09/M12 A2974 RMK CI7 SLP125

CYQF;2012-11-17 09:00;CYQF 170900Z 00000KT 15SM BKN220 M07/M10 A2974 RMK CI6 SLP117

CYQF;2012-11-17 10:00;CYQF 171000Z 00000KT 15SM BKN220 M09/M11 A2974 RMK CI6 SLP117

CYQF;2012-11-17 11:00;CYQF 171100Z 15004KT 15SM BKN220 M08/M10 A2974 RMK CI6 SLP118

CYQF;2012-11-17 12:00;CYQF 171200Z 19005KT 15SM SCT220 M12/M15 A2972 RMK CI2 SLP126

CYQF;2012-11-17 13:00;CYQF 171300Z 00000KT 15SM FEW220 M12/M16 A2971 RMK CI1 SLP122

CYQF;2012-11-17 14:00;CYQF 171400Z 21006KT 15SM SCT220 M10/M12 A2972 RMK CI2 SLP124

CYQF;2012-11-17 15:00;CYQF 171500Z 20003KT 15SM BKN220 M10/M13 A2972 RMK CI6 SLP122

CYQF;2012-11-17 16:00;CYQF 171600Z 00000KT 15SM BKN220 M10/M12 A2970 RMK CI6 SLP117

CYQF;2012-11-17 17:00;CYQF 171700Z 00000KT 15SM BKN220 M04/M09 A2969 RMK CI6 SLP113

CYQF;2012-11-17 18:00;CYQF 171800Z 15008KT 15SM BKN220 01/M05 A2967 RMK CI7 SLP097

CYQF;2012-11-17 19:00;CYQF 171900Z 15006KT 15SM BKN220 05/M02 A2965 RMK CI6 SLP089

CYQF;2012-11-17 20:00;CYQF 172000Z 20006KT 15SM BKN220 05/M02 A2962 RMK CI7 SLP081

CYQF;2012-11-17 21:00;CYQF 172100Z 11005KT 15SM BKN220 04/M02 A2960 RMK CI7 SLP065

CYQF;2012-11-17 22:00;CYQF 172200Z 17006KT 15SM BKN220 03/M03 A2957 RMK CI6 SLP055

CYQF;2012-11-17 23:00;CYQF 172300Z 16008KT 15SM FEW100 BKN250 00/M04 A2956 RMK AC1CI5 SLP051

CYQF;2012-11-18 00:00;CYQF 180000Z 15010KT 15SM FEW100 BKN250 M01/M05 A2954 RMK AC1CI3 SLP056

CYQF;2012-11-18 01:00;CYQF 180100Z 16005KT 15SM BKN250 M01/M04 A2951 RMK CI2 SLP047

CYQF;2012-11-18 02:00;CYQF 180200Z 16008KT 15SM BKN250 M01/M04 A2948 RMK CI2 SLP038

CYQF;2012-11-18 03:00;CYQF 180300Z 09004KT 15SM BKN250 00/M03 A2946 RMK CI3 SLP024

CYQF;2012-11-18 04:00;CYQF 180400Z 18006KT 15SM BKN100 OVC250 00/M03 A2945 RMK AC5CI2 SLP019

CYQF;2012-11-18 05:00;CYQF 180500Z 16007KT 15SM FEW100 OVC250 02/M02 A2942 RMK AC2CI6 SLP011

CYQF;2012-11-18 06:00;CYQF 180600Z 17010KT 15SM BKN100 OVC250 03/M01 A2939 RMK AC6CI2 SLP982

CYQF;2012-11-18 07:00;CYQF 180700Z 19007KT 15SM BKN100 03/M01 A2937 RMK AC7 SLP977

CYQF;2012-11-18 08:00;CYQF 180800Z 19009KT 15SM BKN100 02/M01 A2935 RMK AC6 SLP969

CYQF;2012-11-18 09:00;CYQF 180900Z 18002KT 15SM BKN100 00/M02 A2933 RMK AC6 SLP962

CYQF;2012-11-18 10:00;CYQF 181000Z 18010KT 15SM BKN100 04/M01 A2930 RMK AC6 SLP954

CYQF;2012-11-18 11:00;CYQF 181100Z 19008KT 15SM OVC100 04/M00 A2929 RMK AC8 SLP949

CYQF;2012-11-18 12:00;CYQF 181200Z 20010KT 15SM BKN100 02/M01 A2927 RMK AC7 SLP947

CYQF;2012-11-18 13:00;CYQF 181300Z 21006KT 15SM BKN100 BKN250 02/M01 A2929 RMK AC6CI2 SLP951

CYQF;2012-11-18 14:00;CYQF 181400Z 32008KT 15SM FEW030 BKN100 BKN250 03/M01 A2935 RMK SC2AC4CI2 SLP969

CYQF;2012-11-18 15:00;CYQF 181500Z 32013G23KT 10SM SCT030 BKN100 BKN250 M04/M06 A2939 RMK SC3AC3CI1 SLP993

CYQF;2012-11-18 16:00;CYQF 181600Z 30010KT 8SM BKN030 BKN100 M03/M07 A2945 RMK SC6AC2 SLP010

CYQF;2012-11-18 17:00;CYQF 181700Z 32010G15KT 8SM SCT030 BKN100 M02/M06 A2949 RMK SC4AC3 SLP022

CYQF;2012-11-18 18:00;CYQF 181800Z 30008KT 10SM FEW030 BKN100 M02/M04 A2955 RMK SC2AC5 SLP040

CYQF;2012-11-18 19:00;CYQF 181900Z 27003KT 10SM SCT020 BKN100 00/M03 A2957 RMK SC4AC3 SLP049

CYQF;2012-11-18 20:00;CYQF 182000Z 28005KT 12SM SCT020 BKN100 01/M02 A2959 RMK SC4AC2 SLP054

CYQF;2012-11-18 21:00;CYQF 182100Z 17002KT 15SM FEW020 BKN250 01/M02 A2962 RMK SC1CI3 SLP065

CYQF;2012-11-18 22:00;CYQF 182200Z 19003KT 15SM FEW020 BKN250 M01/M03 A2964 RMK SC1CI5 SLP072

CYQF;2012-11-18 23:00;CYQF 182300Z 18008KT 15SM FEW020 BKN250 01/M02 A2966 RMK SC1CI5 SLP080

CYQF;2012-11-19 00:00;CYQF 190000Z 19004KT 15SM FEW020 SCT250 M01/M03 A2967 RMK SC1CI2 SLP085

CYQF;2012-11-19 01:00;CYQF 190100Z 16007KT 15SM BKN250 M01/M04 A2966 RMK CI2 SLP083

CYQF;2012-11-19 02:00;CYQF 190200Z 21010KT 15SM BKN250 M02/M05 A2967 RMK CI3 SLP085

CYQF;2012-11-19 03:00;CYQF 190300Z 21005KT 15SM OVC250 M03/M07 A2967 RMK CI2 SLP094

CYQF;2012-11-19 04:00;CYQF 190400Z 18003KT 15SM FEW250 M02/M07 A2967 RMK CI2 SLP093

CYQF;2012-11-19 05:00;CYQF 190500Z 20008KT 15SM BKN250 M03/M08 A2966 RMK CI2 SLP091

CYQF;2012-11-19 06:00;CYQF 190600Z 19010KT 15SM BKN250 M04/M09 A2966 RMK CI2 SLP087

CYQF;2012-11-19 07:00;CYQF 190700Z 20009KT 15SM BKN250 M05/M09 A2966 RMK CI3 SLP087

CYQF;2012-11-19 08:00;CYQF 190800Z 18011KT 15SM BKN250 M03/M08 A2965 RMK CI3 SLP085

CYQF;2012-11-19 09:00;CYQF 190900Z 20007KT 15SM FEW120 BKN250 M03/M07 A2962 RMK AC2CI3 SLP070

CYQF;2012-11-19 10:00;CYQF 191000Z 19005KT 15SM SCT120 BKN250 M00/M06 A2961 RMK AC3CI2 SLP066

CYQF;2012-11-19 11:00;CYQF 191100Z 19010KT 15SM FEW120 BKN250 01/M05 A2958 RMK AC2CI2 SLP059

CYQF;2012-11-19 12:00;CYQF 191200Z 18007KT 15SM SCT250 00/M05 A2959 RMK CI2 SLP058

CYQF;2012-11-19 13:00;CYQF 191300Z 19008KT 15SM BKN250 M00/M05 A2959 RMK CI3 SLP058

CYQF;2012-11-19 14:00;CYQF 191400Z 20006KT 15SM BKN250 01/M05 A2958 RMK CI3 SLP056

CYQF;2012-11-19 15:00;CYQF 191500Z 18010KT 15SM FEW100 BKN250 M00/M05 A2957 RMK AC2CI2 SLP055

CYQF;2012-11-19 16:00;CYQF 191600Z 18012KT 15SM FEW100 BKN250 01/M05 A2956 RMK AC1CI2 SLP050

CYQF;2012-11-19 17:00;CYQF 191700Z 18010G15KT 15SM FEW100 BKN250 03/M04 A2957 RMK AC1CI3 SLP054

CYQF;2012-11-19 18:00;CYQF 191800Z 17010G15KT 15SM FEW100 BKN250 02/M04 A2956 RMK AC1CI4 SLP048

CYQF;2012-11-19 19:00;CYQF 191900Z 18010KT 15SM BKN120 OVC250 02/M03 A2956 RMK AC5CI2 SLP047

CYQF;2012-11-19 20:00;CYQF 192000Z 17008KT 15SM BKN100 OVC250 03/M03 A2954 RMK AS6CI2 SLP042

CYQF;2012-11-19 21:00;CYQF 192100Z 18010KT 15SM BKN120 OVC250 04/M02 A2952 RMK AS6CI2 SLP031

CYQF;2012-11-19 22:00;CYQF 192200Z 16010G15KT 15SM FEW120 BKN250 03/M02 A2948 RMK AC2CI4 SLP021

CYQF;2012-11-19 23:00;CYQF 192300Z 15007KT 15SM SCT120 OVC250 03/M02 A2947 RMK AC3CI5 SLP018

CYQF;2012-11-20 00:00;CYQF 200000Z 17011G16KT 15SM BKN120 OVC250 03/M02 A2945 RMK AC5CI3 SLP003

CYQF;2012-11-20 01:00;CYQF 200100Z 18006KT 15SM BKN120 OVC250 04/M01 A2944 RMK AC5CI3 SLP001

CYQF;2012-11-20 02:00;CYQF 200200Z 36010G15KT 15SM OVC100 M04/M07 A2945 RMK AC8 SLP005

CYQF;2012-11-20 03:00;CYQF 200300Z 01010G15KT 15SM OVC100 M06/M08 A2945 RMK AC8 SLP016

CYQF;2012-11-20 04:00;CYQF 200400Z 03008KT 12SM FEW100 SCT250 M07/M09 A2940 RMK AC2CI1 SLP000

CYQF;2012-11-20 05:00;CYQF 200500Z 36005KT 8SM SCT100 M08/M10 A2940 RMK AC4 SLP000

CYQF;2012-11-20 06:00;CYQF 200600Z 33008KT 3SM BR BKN100 M08/M10 A2944 RMK FG2AC5 SLP013

CYQF;2012-11-20 06:15;CYQF 200615Z 34004KT 2SM BR VV004 RMK FG8

CYQF;2012-11-20 07:00;CYQF 200700Z 33008KT 2SM BR VV004 M07/M09 A2945 RMK FG8 SLP016

CYQF;2012-11-20 08:00;CYQF 200800Z 34012KT 2SM BR VV004 M07/M08 A2948 RMK FG8 SLP024

CYQF;2012-11-20 09:00;CYQF 200900Z 33008KT 2SM BR VV006 M08/M09 A2950 RMK FG8 SLP032

CYQF;2012-11-20 10:00;CYQF 201000Z 36010KT 3SM BR OVC006 M09/M10 A2956 RMK ST8 FROIN SLP050

CYQF;2012-11-20 11:00;CYQF 201100Z 36010G15KT 5SM BR OVC008 M10/M12 A2960 RMK ST8 FROIN SLP063

CYQF;2012-11-20 12:00;CYQF 201200Z 34010G15KT 15SM OVC009 M10/M13 A2962 RMK ST8 SLP074

CYQF;2012-11-20 12:45;CYQF 201245Z 33010G15KT 15SM -SN OVC011 RMK ST8

CYQF;2012-11-20 13:00;CYQF 201300Z 34010G15KT 15SM -SN OVC011 M11/M14 A2968 RMK ST8 SLP093

CYQF;2012-11-20 14:00;CYQF 201400Z 01010KT 15SM -SN OVC010 M11/M13 A2970 RMK ST8 SLP101

CYQF;2012-11-20 15:00;CYQF 201500Z 35010KT 10SM -SN OVC013 M11/M13 A2976 RMK ST8 TOPS FL053 SLP136

CYQF;2012-11-20 16:00;CYQF 201600Z 34010KT 8SM -SN OVC009 M11/M13 A2979 RMK ST8 SLP145

CYQF;2012-11-20 17:00;CYQF 201700Z 33010KT 3SM -SN OVC009 M11/M14 A2980 RMK ST8 SLP148

CYQF;2012-11-20 18:00;CYQF 201800Z 31006KT 6SM -SN OVC009 M11/M13 A2983 RMK ST8 SLP164

CYQF;2012-11-20 18:48;CYQF 201848Z 33008KT 6SM -SN BKN014 RMK SC7 VIS N 3

CYQF;2012-11-20 19:00;CYQF 201900Z 32008KT 8SM -SN BKN014 M12/M14 A2980 RMK SC7 SLP153

CYQF;2012-11-20 19:39;CYQF 201939Z 35006KT 10SM SCT014 SCT100 BKN250 RMK SC2AC1CI4 CLRG FM W

CYQF;2012-11-20 20:00;CYQF 202000Z 32003KT 15SM FEW014 FEW090 BKN250 M12/M16 A2981 RMK SC2AC1CI2 VIS SE-S 10 SLP158

CYQF;2012-11-20 21:00;CYQF 202100Z 02006KT 15SM FEW014 FEW090 BKN250 M12/M16 A2980 RMK SC1AC2CI4 SLP154

CYQF;2012-11-20 22:00;CYQF 202200Z 03004KT 15SM FEW090 BKN250 M12/M16 A2982 RMK AC2CI4 SLP160

CYQF;2012-11-20 23:00;CYQF 202300Z 06003KT 15SM BKN120 OVC250 M13/M17 A2985 RMK AC5CI2 SLP168

CYQF;2012-11-21 00:00;CYQF 210000Z 02004KT 15SM BKN025 BKN120 M13/M16 A2985 RMK SC5AC2 SLP173

CYQF;2012-11-21 00:23;CYQF 210023Z 02008KT 12SM -SN OVC025 RMK SC8

CYQF;2012-11-21 01:00;CYQF 210100Z 04007KT 15SM -SN OVC025 M13/M16 A2984 RMK SC7 SLP169

CYQF;2012-11-21 01:20;CYQF 210120Z 03008KT 15SM OVC025 RMK SC8

CYQF;2012-11-21 02:00;CYQF 210200Z 03006KT 15SM OVC025 M13/M17 A2984 RMK SC8 SLP170

CYQF;2012-11-21 03:00;CYQF 210300Z 03005KT 15SM OVC025 M13/M17 A2984 RMK SC8 SLP172

CYQF;2012-11-21 03:22;CYQF 210322Z 04010KT 15SM -SN OVC025 RMK SC8

CYQF;2012-11-21 04:00;CYQF 210400Z 02007KT 6SM -SN FEW010 OVC025 M13/M16 A2985 RMK SC2SC6 SLP174

CYQF;2012-11-21 05:00;CYQF 210500Z 03005KT 8SM -SN SCT012 OVC025 M14/M16 A2984 RMK SC3SC5 SLP172

CYQF;2012-11-21 05:38;CYQF 210538Z 06008KT 8SM -SN OVC011 RMK SC8

CYQF;2012-11-21 06:00;CYQF 210600Z 04008KT 8SM -SN OVC011 M14/M16 A2982 RMK SC8 SLP166

CYQF;2012-11-21 07:00;CYQF 210700Z 08006KT 10SM -SN OVC010 M14/M16 A2982 RMK SC8 SLP167

CYQF;2012-11-21 08:00;CYQF 210800Z 05003KT 10SM -SN OVC010 M14/M17 A2980 RMK SC8 SLP161

CYQF;2012-11-21 09:00;CYQF 210900Z 07006KT 5SM -SN OVC010 M14/M16 A2981 RMK SC8 SLP163

CYQF;2012-11-21 10:00;CYQF 211000Z 01004KT 5SM -SN OVC010 M14/M17 A2982 RMK SC8 SLP167

CYQF;2012-11-21 11:00;CYQF 211100Z 00000KT 8SM -SN OVC007 M14/M16 A2981 RMK SC8 SLP163

CYQF;2012-11-21 12:00;CYQF 211200Z 03003KT 10SM -SN OVC007 M14/M16 A2977 RMK SC8 SLP152

CYQF;2012-11-21 13:00;CYQF 211300Z 02003KT 10SM -SN OVC007 M14/M16 A2976 RMK SC8 SLP147

CYQF;2012-11-21 14:00;CYQF 211400Z 03005KT 10SM -SN OVC009 M14/M16 A2976 RMK SC8 SLP147

CYQF;2012-11-21 15:00;CYQF 211500Z 09003KT 6SM -SN OVC009 M14/M16 A2978 RMK SC8 SLP155

CYQF;2012-11-21 15:40;CYQF 211540Z 04002KT 6SM -SN OVC011 RMK ST8

CYQF;2012-11-21 16:00;CYQF 211600Z 36003KT 4SM -SN BR OVC011 M14/M16 A2980 RMK ST8 SLP159

CYQF;2012-11-21 17:00;CYQF 211700Z 36005KT 4SM -SN BR OVC010 M14/M16 A2980 RMK ST8 SLP159

CYQF;2012-11-21 17:35;CYQF 211735Z 36005KT 2 1/2SM -SN BR OVC009 RMK ST8

CYQF;2012-11-21 18:00;CYQF 211800Z 01008KT 3SM -SN BR OVC014 M14/M16 A2980 RMK SC8 SLP162

CYQF;2012-11-21 19:00;CYQF 211900Z 36006KT 5SM -SN BR OVC011 M14/M16 A2982 RMK SC8 SLP167

CYQF;2012-11-21 20:00;CYQF 212000Z 33006KT 3SM -SN BR OVC013 M14/M16 A2982 RMK SC8 CIG RAG VIS SE 5 SLP169

CYQF;2012-11-21 20:10;CYQF 212010Z 32005KT 1SM -SN BR OVC008 RMK SC8

CYQF;2012-11-21 20:23;CYQF 212023Z 33005KT 2SM -SN BR OVC010 RMK SC8 VIS VAR 1-3

CYQF;2012-11-21 21:00;CYQF 212100Z 36008KT 2SM -SN BR OVC011 M13/M15 A2983 RMK SC8 CIG RAG VIS VRB 1-3 SLP171

CYQF;2012-11-21 22:00;CYQF 212200Z 36010KT 3SM -SN BR OVC012 M13/M15 A2983 RMK SC8 CIG RAG SLP171

CYQF;2012-11-21 23:00;CYQF 212300Z 36007KT 6SM -SN BR OVC012 M13/M16 A2985 RMK SC8 SLP180

CYQF;2012-11-22 00:00;CYQF 220000Z 01006KT 6SM -SN BR OVC012 M13/M16 A2987 RMK SC8 SLP188

CYQF;2012-11-22 01:00;CYQF 220100Z 01008KT 8SM -SN OVC012 M13/M16 A2989 RMK SC8 CIG RAG SLP193

CYQF;2012-11-22 02:00;CYQF 220200Z 36007KT 5SM -SN SCT012 OVC020 M13/M16 A2993 RMK SC3SC5 SLP204

CYQF;2012-11-22 03:00;CYQF 220300Z 01007KT 1 1/2SM -SN VV010 M13/M16 A2995 RMK SN8 VIS VRB 1-2 SLP212

CYQF;2012-11-22 04:00;CYQF 220400Z 36009KT 3SM -SN OVC020 M13/M16 A2996 RMK SC8 /S01/ SLP217

CYQF;2012-11-22 05:00;CYQF 220500Z 35009KT 3SM -SN OVC020 M14/M16 A2999 RMK SC8 SLP227

CYQF;2012-11-22 06:00;CYQF 220600Z 35006KT 10SM -SN SCT013 OVC075 M14/M16 A3002 RMK SC3AC5 SLP239

CYQF;2012-11-22 06:48;CYQF 220648Z 34007KT 2SM -SN VV010 RMK SN8

CYQF;2012-11-22 07:00;CYQF 220700Z 35007KT 1 1/2SM -SN VV010 M14/M16 A3005 RMK SN8 VIS VRB 1-2 SLP248

CYQF;2012-11-22 07:49;CYQF 220749Z 35008KT 5SM -SN OVC020 RMK SC8

CYQF;2012-11-22 08:00;CYQF 220800Z 35010KT 8SM -SN OVC020 M14/M16 A3008 RMK SC8 SLP256

CYQF;2012-11-22 09:00;CYQF 220900Z 35007KT 5SM -SN OVC020 M14/M16 A3011 RMK SC8 SLP269

CYQF;2012-11-22 09:18;CYQF 220918Z 34008KT 2SM -SN OVC020 RMK SN5SC3 VIS VRB 1-3

CYQF;2012-11-22 10:00;CYQF 221000Z 33012KT 2SM -SN DRSN OVC020 M14/M16 A3015 RMK SN5SC3 VIS VRB 1-3 /SO1/ SLP282

CYQF;2012-11-22 11:00;CYQF 221100Z 33011KT 2SM -SN DRSN OVC020 M14/M16 A3018 RMK SN5SC3 VIS VRB 1-3 SLP290

CYQF;2012-11-22 11:44;CYQF 221144Z 33008KT 5SM -SN FEW020 BKN100 RMK SC2AC3

CYQF;2012-11-22 12:00;CYQF 221200Z 33007KT 10SM -SN BKN015 OVC100 M14/M17 A3021 RMK SC5AC3 SLP305

CYQF;2012-11-22 13:00;CYQF 221300Z 32006KT 12SM -SN OVC015 M14/M17 A3024 RMK SC8 SLP313

CYQF;2012-11-22 14:00;CYQF 221400Z 33003KT 15SM -SN OVC015 M13/M17 A3026 RMK SC8 SLP320

CYQF;2012-11-22 15:00;CYQF 221500Z 00000KT 15SM -SN OVC015 M14/M17 A3029 RMK SC8 SLP332

CYQF;2012-11-22 15:34;CYQF 221534Z 00000KT 15SM BKN023 BKN250 RMK SC6CI2

CYQF;2012-11-22 16:00;CYQF 221600Z 00000KT 15SM BKN025 BKN250 M14/M17 A3031 RMK SC4CI2 SLP339

CYQF;2012-11-22 17:00;CYQF 221700Z 24002KT 15SM FEW025 BKN100 M14/M16 A3034 RMK SC1AC5 SLP348

CYQF;2012-11-22 18:00;CYQF 221800Z 00000KT 15SM SCT100 M13/M16 A3035 RMK AC2 SLP352

CYQF;2012-11-22 19:00;CYQF 221900Z 00000KT 15SM FEW100 M12/M16 A3035 RMK AC1 SLP354

CYQF;2012-11-22 20:00;CYQF 222000Z 18002KT 15SM FEW100 M11/M16 A3036 RMK AC1 SLP355

CYQF;2012-11-22 21:00;CYQF 222100Z 17003KT 15SM FEW250 M11/M16 A3035 RMK CI1 SLP352

CYQF;2012-11-22 22:00;CYQF 222200Z 16004KT 15SM FEW250 M12/M16 A3035 RMK CI1 SLP351

CYQF;2012-11-22 23:00;CYQF 222300Z 15004KT 15SM FEW250 M13/M17 A3036 RMK CI1 SLP354

CYQF;2012-11-23 00:00;CYQF 230000Z 16005KT 15SM FEW250 M14/M18 A3036 RMK CI1 SLP357

CYQF;2012-11-23 01:00;CYQF 230100Z 17003KT 15SM SCT250 M15/M18 A3034 RMK CI2 SLP351

CYQF;2012-11-23 02:00;CYQF 230200Z 18005KT 15SM SCT250 M16/M17 A3033 RMK CI2 SLP348

CYQF;2012-11-23 03:00;CYQF 230300Z 15006KT 15SM BKN250 M14/M17 A3030 RMK CI5 SLP337

CYQF;2012-11-23 04:00;CYQF 230400Z 17005KT 15SM OVC250 M14/M16 A3028 RMK CI6 SLP331

CYQF;2012-11-23 05:00;CYQF 230500Z 15007KT 15SM OVC250 M13/M16 A3027 RMK CI6 SLP327

CYQF;2012-11-23 06:00;CYQF 230600Z 15009KT 15SM OVC250 M14/M16 A3024 RMK CI6 OBS TAKEN +8 SLP312

CYQF;2012-11-23 07:00;CYQF 230700Z 15012KT 15SM BKN250 M13/M16 A3022 RMK CI4 SLP306

CYQF;2012-11-23 08:00;CYQF 230800Z 15010G15KT 15SM FEW250 M13/M16 A3019 RMK CI1 SLP298

CYQF;2012-11-23 09:00;CYQF 230900Z 17010KT 15SM SCT100 BKN250 M12/M15 A3015 RMK AC3CI2 SLP280

CYQF;2012-11-23 10:00;CYQF 231000Z 16007KT 15SM FEW250 M13/M15 A3013 RMK CI2 SLP272

CYQF;2012-11-23 11:00;CYQF 231100Z 16010KT 15SM BKN250 M12/M15 A3010 RMK CI6 SLP262

CYQF;2012-11-23 12:00;CYQF 231200Z 16007KT 15SM BKN250 M12/M15 A3006 RMK CI5 SLP253

CYQF;2012-11-23 13:00;CYQF 231300Z 15010G15KT 15SM BKN250 M12/M15 A3002 RMK CI6 SLP238

CYQF;2012-11-23 16:00;CYQF 231600Z 15010KT 12SM BKN080 OVC250 M10/M12 A2993 RMK AS6CI2 SLP205

CYQF;2012-11-23 17:00;CYQF 231700Z 18010KT 12SM BKN080 OVC250 M09/M12 A2992 RMK AS6CI2 SLP202

CYQF;2012-11-23 18:00;CYQF 231800Z 15008KT 12SM BKN150 OVC250 M09/M11 A2987 RMK AS7CI1 SLP180

CYQF;2012-11-23 18:54;CYQF 231854Z 20007KT 12SM -FZRA BKN100 OVC250 RMK AC6CI2

CYQF;2012-11-23 19:00;CYQF 231900Z 18008KT 12SM -FZRA BKN100 OVC250 M07/M09 A2985 RMK AC6CI2 SLP174

CYQF;2012-11-23 19:26;CYQF 231926Z 22004KT 15SM BKN080 OVC250 REFZRA RMK AC6CI2

CYQF;2012-11-23 20:00;CYQF 232000Z 14004KT 15SM BKN080 BKN250 M06/M08 A2981 REFZRA RMK AC6CI1 SLP162

CYQF;2012-11-23 21:00;CYQF 232100Z 00000KT 15SM SCT100 BKN250 M06/M08 A2979 RMK AC3CI2 SLP148

CYQF;2012-11-23 22:00;CYQF 232200Z 33002KT 15SM FEW100 BKN250 M06/M08 A2980 RMK AC1CI2 SLP150

CYQF;2012-11-23 23:00;CYQF 232300Z 20003KT 15SM FEW100 BKN250 M06/M09 A2977 RMK AC1CI2 SLP143

CYQF;2012-11-24 00:00;CYQF 240000Z 22007KT 15SM FEW090 SCT250 M08/M10 A2976 RMK AC1CI2 SLP139

CYQF;2012-11-24 01:00;CYQF 240100Z 21007KT 15SM FEW250 M08/M10 A2974 RMK CI1 SLP132

CYQF;2012-11-24 02:00;CYQF 240200Z 22007KT 15SM FEW250 M11/M12 A2975 RMK CI1 SLP135

CYQF;2012-11-24 03:00;CYQF 240300Z 22003KT 15SM FEW150 M07/M08 A2974 RMK AC1 SLP129

CYQF;2012-11-24 03:38;CYQF 240338Z 36015G20KT 15SM SCT120 RMK AC3 WND SHFT

CYQF;2012-11-24 04:00;CYQF 240400Z 34011KT 15SM SCT090 M02/M07 A2979 RMK AC3 SLP146

CYQF;2012-11-24 05:00;CYQF 240500Z 36005KT 15SM FEW090 M04/M07 A2980 RMK AC1 SLP150

CYQF;2012-11-24 06:00;CYQF 240600Z 24005KT 15SM BKN040 M08/M09 A2983 RMK SC6 SLP160

CYQF;2012-11-24 07:00;CYQF 240700Z 24009KT 15SM BKN050 M03/M04 A2983 RMK SC6 SLP161

CYQF;2012-11-24 08:00;CYQF 240800Z 24005KT 15SM BKN050 M03/M05 A2985 RMK SC7 SLP166

CYQF;2012-11-24 09:00;CYQF 240900Z 30010KT 15SM BKN050 M01/M03 A2985 RMK SC6 SLP154

CYQF;2012-11-24 10:00;CYQF 241000Z 31007KT 15SM BKN050 BKN100 M01/M03 A2986 RMK SC5AC2 SLP160

CYQF;2012-11-24 11:00;CYQF 241100Z 30009KT 15SM SCT050 BKN100 M01/M03 A2987 RMK SC4AC2 SLP162

CYQF;2012-11-24 12:00;CYQF 241200Z 25005KT 15SM SCT050 BKN100 M03/M05 A2988 RMK SC3AC3 SLP172

CYQF;2012-11-24 13:00;CYQF 241300Z 00000KT 15SM FEW100 M06/M07 A2990 RMK AC2 SLP176

CYQF;2012-11-24 13:36;CYQF 241336Z 18004KT 1 1/2SM BR SKC RMK FG2

CYQF;2012-11-24 14:00;CYQF 241400Z 22004KT 8SM FEW100 M10/M11 A2991 RMK AC2 BR SLP181

CYQF;2012-11-24 15:00;CYQF 241500Z 00000KT 6SM BR FEW100 M08/M09 A2992 RMK AC2 SLP190

CYQF;2012-11-24 15:05;CYQF 241505Z 00000KT 1SM BR SCT100 RMK FG2AC2

CYQF;2012-11-24 15:31;CYQF 241531Z 00000KT 3/4SM BR FEW100 RMK AC2 VIS VRB 1/2-1

CYQF;2012-11-24 16:00;CYQF 241600Z 21003KT 3/4SM BR FEW100 M12/M13 A2994 RMK FG1AC1 VIS VRB 1/2-1 SLP194

CYQF;2012-11-24 17:00;CYQF 241700Z 21003KT 3/4SM BR FEW090 M09/M10 A2994 RMK AC2 VIS VRB 1/2-1 SLP196

CYQF;2012-11-24 17:12;CYQF 241712Z 21005KT 10SM FEW090 RMK AC2 VIS N 3/4

CYQF;2012-11-24 18:00;CYQF 241800Z 22003KT 15SM FEW090 M05/M06 A2994 RMK AC2 SLP194

CYQF;2012-11-24 19:00;CYQF 241900Z 21002KT 15SM BKN080 M05/M07 A2994 RMK AC5 SLP193

CYQF;2012-11-24 20:00;CYQF 242000Z 25004KT 15SM BKN070 M03/M04 A2994 RMK AC6 SLP193

CYQF;2012-11-24 21:00;CYQF 242100Z 27002KT 15SM SCT090 M01/M04 A2995 RMK AC2 SLP184

CYQF;2012-11-24 22:00;CYQF 242200Z 16002KT 15SM FEW040 FEW090 BKN250 M03/M06 A2996 RMK SC1AC1CI2 SLP189

CYQF;2012-11-24 23:00;CYQF 242300Z 00000KT 15SM SCT090 BKN250 M07/M09 A2998 RMK AC3CI2 SLP194

CYQF;2012-11-25 00:00;CYQF 250000Z 33002KT 15SM SCT040 BKN250 M08/M09 A2999 RMK SC4CI2 SLP207

CYQF;2012-11-25 01:00;CYQF 250100Z 00000KT 15SM BKN035 BKN250 M06/M08 A3001 RMK SC5CI2 SLP213

CYQF;2012-11-25 02:00;CYQF 250200Z 00000KT 15SM BKN035 BKN250 M08/M09 A3001 RMK SC6CI1 SLP214

CYQF;2012-11-25 03:00;CYQF 250300Z 27002KT 15SM BKN035 M08/M09 A3001 RMK SC7 SLP220

CYQF;2012-11-25 04:00;CYQF 250400Z 28004KT 15SM BKN035 M09/M10 A3002 RMK SC6 SLP224

CYQF;2012-11-25 05:00;CYQF 250500Z 02003KT 15SM BKN035 M07/M09 A3003 RMK SC7 SLP227

CYQF;2012-11-25 06:00;CYQF 250600Z 07005KT 15SM BKN035 M08/M10 A3004 RMK SC7 SLP228

CYQF;2012-11-25 07:00;CYQF 250700Z 05004KT 15SM OVC035 M08/M10 A3003 RMK SC8 SLP226

CYQF;2012-11-25 08:00;CYQF 250800Z 05004KT 15SM OVC035 M09/M11 A3003 RMK SC8 SLP226

CYQF;2012-11-25 09:00;CYQF 250900Z 09002KT 8SM OVC035 M09/M11 A3002 RMK SC8 SLP218

CYQF;2012-11-25 10:00;CYQF 251000Z 00000KT 8SM OVC100 M09/M11 A3003 RMK AC8 SLP220

CYQF;2012-11-25 11:00;CYQF 251100Z 15004KT 8SM OVC080 M09/M11 A3002 RMK AC8 SLP219

CYQF;2012-11-25 12:00;CYQF 251200Z 13004KT 6SM BR OVC100 M09/M11 A3003 RMK AC8 SLP228

CYQF;2012-11-25 13:00;CYQF 251300Z 18005KT 6SM BR OVC100 M09/M11 A3002 RMK AC8 SLP226

CYQF;2012-11-25 14:00;CYQF 251400Z 17008KT 15SM BKN050 BKN080 M09/M10 A3001 RMK SC5AC2 FROIN SLP224

CYQF;2012-11-25 15:00;CYQF 251500Z 19005KT 4SM BR BKN050 BKN220 M09/M10 A3001 RMK SC6CI1 FROIN SLP222

CYQF;2012-11-25 16:00;CYQF 251600Z 16002KT 5SM BR BKN030 M08/M10 A3002 RMK SC7 SLP225

CYQF;2012-11-25 17:00;CYQF 251700Z 18006KT 5SM BR FEW030 OVC070 M08/M09 A3002 RMK SC2AC6 SLP226

CYQF;2012-11-25 18:00;CYQF 251800Z 20007KT 6SM BR FEW030 OVC070 M07/M09 A3003 RMK SC2AC6 SLP227

CYQF;2012-11-25 19:00;CYQF 251900Z 19004KT 8SM FEW030 BKN090 BKN220 M06/M08 A3003 RMK SC1AC4CI1 SLP226

CYQF;2012-11-25 20:00;CYQF 252000Z 00000KT 8SM FEW090 SCT220 M04/M08 A3003 RMK AC2CI0 SLP228

CYQF;2012-11-25 21:00;CYQF 252100Z 18004KT 8SM BKN100 BKN220 M05/M09 A3003 RMK AC5CI1 SLP225

CYQF;2012-11-25 22:00;CYQF 252200Z 18003KT 10SM BKN100 BKN220 M04/M07 A3003 RMK AC5CI2 SLP227

CYQF;2012-11-25 23:00;CYQF 252300Z 00000KT 8SM BKN100 BKN220 M05/M08 A3006 RMK AC6CI2 SLP236

CYQF;2012-11-26 00:00;CYQF 260000Z 19003KT 10SM BKN100 M05/M08 A3006 RMK AC7 SLP236

CYQF;2012-11-26 01:00;CYQF 260100Z 19004KT 10SM BKN100 M06/M08 A3006 RMK AC7 SLP237

CYQF;2012-11-26 02:00;CYQF 260200Z 00000KT 12SM OVC078 M05/M08 A3008 RMK AC8 SLP243

CYQF;2012-11-26 03:00;CYQF 260300Z 00000KT 12SM OVC090 M05/M08 A3009 RMK AC8 SLP248

CYQF;2012-11-26 04:00;CYQF 260400Z 18003KT 12SM OVC080 M05/M08 A3010 RMK AC8 SLP250

CYQF;2012-11-26 05:00;CYQF 260500Z 20005KT 12SM OVC080 M05/M08 A3009 RMK AC8 SLP249

CYQF;2012-11-26 06:00;CYQF 260600Z 00000KT 12SM BKN080 M05/M08 A3009 RMK AC7 SLP245

CYQF;2012-11-26 07:00;CYQF 260700Z 23005KT 15SM BKN080 M05/M08 A3010 RMK AC7 SLP246

CYQF;2012-11-26 08:00;CYQF 260800Z 24005KT 15SM BKN080 M05/M09 A3010 RMK AC7 SLP247

CYQF;2012-11-26 09:00;CYQF 260900Z 00000KT 15SM BKN080 M06/M09 A3011 RMK AC7 SLP250

CYQF;2012-11-26 10:00;CYQF 261000Z 00000KT 15SM SCT080 BKN250 M07/M10 A3012 RMK AC4CI2 SLP254

CYQF;2012-11-26 11:00;CYQF 261100Z 00000KT 15SM BKN080 BKN250 M08/M10 A3012 RMK AC6CI2 SLP254

CYQF;2012-11-26 12:00;CYQF 261200Z 24005KT 15SM BKN080 M08/M10 A3012 RMK AC7 SLP255

CYQF;2012-11-26 13:00;CYQF 261300Z 00000KT 15SM BKN080 M07/M10 A3012 RMK AC7 SLP257

CYQF;2012-11-26 14:00;CYQF 261400Z 00000KT 15SM BKN090 BKN250 M07/M10 A3013 RMK AC6CI2 SLP260

CYQF;2012-11-26 15:00;CYQF 261500Z 19005KT 15SM BKN090 BKN250 M07/M10 A3012 RMK AC6CI2 SLP256

CYQF;2012-11-26 16:00;CYQF 261600Z 21003KT 15SM BKN090 BKN250 M07/M10 A3012 RMK AC3CI1 SLP257

CYQF;2012-11-26 17:00;CYQF 261700Z 22006KT 15SM FEW090 FEW250 M08/M12 A3012 RMK AC1CI1 SLP257

CYQF;2012-11-26 18:00;CYQF 261800Z 20003KT 15SM FEW250 M07/M12 A3011 RMK CI1 SLP251

CYQF;2012-11-26 19:00;CYQF 261900Z 21006KT 15SM SCT250 M05/M11 A3009 RMK CI1 SLP244

CYQF;2012-11-26 20:00;CYQF 262000Z 20003KT 15SM FEW100 FEW250 M04/M10 A3007 RMK AC1CI1 SLP239

CYQF;2012-11-26 21:00;CYQF 262100Z 00000KT 15SM FEW100 SCT250 M02/M09 A3006 RMK AC1CI1 SLP230

CYQF;2012-11-26 22:00;CYQF 262200Z 21005KT 15SM FEW100 SCT250 M03/M10 A3004 RMK AC1CI1 SLP224

CYQF;2012-11-26 23:00;CYQF 262300Z 00000KT 15SM FEW100 BKN250 M04/M10 A3004 RMK AC1CI2 SLP225

CYQF;2012-11-27 00:00;CYQF 270000Z 00000KT 15SM FEW100 SCT250 M09/M13 A3004 RMK AC1CI1 SLP234

CYQF;2012-11-27 01:00;CYQF 270100Z 20004KT 15SM BKN100 BKN250 M09/M12 A3004 RMK AC6CI2 SLP232

CYQF;2012-11-27 02:00;CYQF 270200Z 20003KT 15SM BKN080 BKN250 M09/M12 A3004 RMK AC6CI1 OBS TAKEN +10 SLP232

CYQF;2012-11-27 03:00;CYQF 270300Z 20004KT 15SM BKN080 M09/M13 A3002 RMK AC6 SLP224

CYQF;2012-11-27 04:00;CYQF 270400Z 20003KT 15SM BKN090 M10/M13 A3002 RMK AC6 SLP225

CYQF;2012-11-27 05:00;CYQF 270500Z 00000KT 15SM BKN090 M10/M13 A3003 RMK AC6 SLP228

CYQF;2012-11-27 06:00;CYQF 270600Z 15004KT 15SM BKN250 M10/M13 A3003 RMK CI2 SLP228

CYQF;2012-11-27 07:00;CYQF 270700Z 25002KT 15SM SCT250 M13/M15 A3003 RMK CI2 SLP230

CYQF;2012-11-27 08:00;CYQF 270800Z 21002KT 15SM BKN250 M15/M17 A3004 RMK CI2 SLP232

CYQF;2012-11-27 09:00;CYQF 270900Z 00000KT 15SM BKN250 M14/M16 A3004 RMK CI3 SLP232

CYQF;2012-11-27 10:00;CYQF 271000Z 00000KT 15SM SCT100 BKN250 M14/M16 A3004 RMK AC3CI2 SLP231

CYQF;2012-11-27 11:00;CYQF 271100Z 21002KT 15SM FEW100 BKN250 M15/M16 A3004 RMK AC2CI2 SLP233

CYQF;2012-11-27 12:00;CYQF 271200Z 00000KT 15SM FEW100 BKN250 M15/M17 A3005 RMK AC1CI2 SLP245

CYQF;2012-11-27 13:00;CYQF 271300Z 21005KT 15SM FEW250 M16/M18 A3006 RMK CI1 SLP248

CYQF;2012-11-27 14:00;CYQF 271400Z 20004KT 15SM FEW250 M15/M17 A3006 RMK CI1 SLP249

CYQF;2012-11-27 15:00;CYQF 271500Z 21005KT 15SM FEW100 SCT250 M17/M19 A3006 RMK AC1CI1 SLP250

CYQF;2012-11-27 16:00;CYQF 271600Z 20004KT 15SM FEW100 SCT250 M16/M18 A3007 RMK AC1CI1 SLP253

CYQF;2012-11-27 17:00;CYQF 271700Z 21002KT 15SM SCT250 M15/M16 A3007 RMK CI1 SLP255

CYQF;2012-11-27 18:00;CYQF 271800Z 00000KT 15SM BKN250 M11/M15 A3007 RMK CI1 SLP248

CYQF;2012-11-27 19:00;CYQF 271900Z 00000KT 15SM BKN250 M08/M13 A3004 RMK CI3 SLP240

CYQF;2012-11-27 20:00;CYQF 272000Z 00000KT 15SM SCT250 M07/M12 A3002 RMK CI2 SLP234

CYQF;2012-11-27 21:00;CYQF 272100Z 00000KT 15SM SCT250 M05/M10 A2999 RMK CI2 SLP218

CYQF;2012-11-27 22:00;CYQF 272200Z 17007KT 15SM SCT250 M05/M09 A2997 RMK CI2 SLP212

CYQF;2012-11-27 23:00;CYQF 272300Z 14006KT 15SM SCT150 BKN250 M07/M10 A2995 RMK AC3CI1 SLP207

CYQF;2012-11-28 00:00;CYQF 280000Z 00000KT 15SM BKN150 BKN250 M09/M11 A2995 RMK AC6CI1 SLP210

CYQF;2012-11-28 01:00;CYQF 280100Z 16002KT 15SM BKN150 BKN250 M08/M10 A2994 RMK AC6CI1 SLP205

CYQF;2012-11-28 02:00;CYQF 280200Z 00000KT 15SM BKN150 M08/M10 A2993 RMK AC7 SLP203

CYQF;2012-11-28 03:00;CYQF 280300Z 00000KT 15SM BKN120 M07/M10 A2992 RMK AC7 SLP201

CYQF;2012-11-28 04:00;CYQF 280400Z 00000KT 15SM OVC120 M07/M09 A2993 RMK AC7 SLP202

CYQF;2012-11-28 05:00;CYQF 280500Z 00000KT 15SM BKN120 M07/M09 A2993 RMK AC7 SLP204

CYQF;2012-11-28 06:00;CYQF 280600Z 00000KT 15SM BKN100 M07/M09 A2994 RMK AC6 SLP199

CYQF;2012-11-28 07:00;CYQF 280700Z 00000KT 15SM SCT100 BKN250 M09/M11 A2995 RMK AC3CI2 SLP205

CYQF;2012-11-28 08:00;CYQF 280800Z 00000KT 15SM FEW100 BKN250 M10/M12 A2997 RMK AC2CI1 SLP209

CYQF;2012-11-28 09:00;CYQF 280900Z 27003KT 15SM FEW100 BKN250 M11/M12 A3000 RMK AC1CI1 SLP218

CYQF;2012-11-28 10:00;CYQF 281000Z 00000KT 15SM BKN100 BKN250 M10/M11 A3001 RMK AC5CI1 SLP222

CYQF;2012-11-28 11:00;CYQF 281100Z 03007KT 15SM BKN100 M07/M09 A3003 RMK AC6 SLP226

CYQF;2012-11-28 12:00;CYQF 281200Z 02010KT 15SM FEW015 BKN100 M07/M09 A3004 RMK SC1AC6 SLP231

CYQF;2012-11-28 12:09;CYQF 281209Z 03009KT 15SM BKN012 BKN100 RMK SC5AC2

CYQF;2012-11-28 13:00;CYQF 281300Z 35005KT 15SM FEW012 BKN100 M08/M10 A3006 RMK SC2AC2 SLP239

CYQF;2012-11-28 14:00;CYQF 281400Z 01006KT 15SM BKN018 OVC100 M09/M12 A3008 RMK SC6AC2 SLP243

CYQF;2012-11-28 14:42;CYQF 281442Z 03007KT 15SM -SN OVC018 RMK SC8

CYQF;2012-11-28 15:00;CYQF 281500Z 04005KT 15SM -SN OVC015 M09/M12 A3008 RMK SC8 SLP247

CYQF;2012-11-28 15:28;CYQF 281528Z 07005KT 15SM -SN OVC012 RMK SC8

CYQF;2012-11-28 16:00;CYQF 281600Z 09006KT 15SM -SN BKN012 OVC100 M10/M13 A3010 RMK SC5AC3 SLP254

CYQF;2012-11-28 17:00;CYQF 281700Z 07009KT 15SM BKN012 OVC100 M10/M14 A3011 RMK SC6AC2 SLP256

CYQF;2012-11-28 17:24;CYQF 281724Z 08008KT 15SM BKN073 OVC250 RMK AC6CI2

CYQF;2012-11-28 18:00;CYQF 281800Z 07008KT 15SM BKN070 OVC150 M11/M15 A3009 RMK AC5AC3 SLP252

CYQF;2012-11-28 19:00;CYQF 281900Z 10007KT 15SM SCT070 BKN150 BKN250 M11/M15 A3007 RMK AC3AC3CI1 SLP246

CYQF;2012-11-28 20:00;CYQF 282000Z 09008KT 15SM FEW070 BKN150 BKN250 M11/M15 A3004 RMK AC1AC2CI3 SLP236

CYQF;2012-11-28 21:00;CYQF 282100Z 12008KT 15SM BKN070 BKN250 M11/M15 A3001 RMK AC6CI2 SLP228

CYQF;2012-11-28 22:00;CYQF 282200Z 11010KT 15SM FEW070 BKN120 BKN250 M11/M15 A2997 RMK AC2AC2CI1 SLP215

CYQF;2012-11-28 23:00;CYQF 282300Z 13009KT 15SM SCT100 BKN250 M11/M15 A2995 RMK AC4CI2 SLP210

CYQF;2012-11-29 00:00;CYQF 290000Z 14009KT 15SM BKN100 BKN250 M12/M15 A2995 RMK AC5CI2 SLP205

CYQF;2012-11-29 01:00;CYQF 290100Z 12008KT 15SM BKN100 BKN250 M12/M15 A2996 RMK AC5CI2 SLP206

CYQF;2012-11-29 02:00;CYQF 290200Z 13010G15KT 15SM BKN100 OVC250 M13/M15 A2994 RMK AC5CI3 SLP199

CYQF;2012-11-29 03:00;CYQF 290300Z 12015G20KT 12SM BKN025 OVC100 M13/M15 A2994 RMK SC5AC3 SLP203

CYQF;2012-11-29 04:00;CYQF 290400Z 12010KT 10SM BKN010 OVC025 M13/M15 A2993 RMK SC5SC3 IC SLP201

CYQF;2012-11-29 04:37;CYQF 290437Z 15010KT 1 1/2SM IC VV010 RMK IC8 VIS VRB 1-2

CYQF;2012-11-29 05:00;CYQF 290500Z 14010G15KT 3/4SM -SN VV008 M14/M15 A2993 RMK SN8 VIS VRB 1/2-1 SLP200

CYQF;2012-11-29 06:00;CYQF 290600Z 11010KT 5SM -SN OVC008 M14/M15 A2991 RMK ST8 SLP198

CYQF;2012-11-29 06:27;CYQF 290627Z 12008KT 1 1/2SM -SN VV007 RMK SN8 VIS VRB 1-2

CYQF;2012-11-29 07:00;CYQF 290700Z 11007KT 1 1/2SM -SN VV008 M14/M15 A2989 RMK SN8 VIS VRB 1-2 SLP191

CYQF;2012-11-29 08:00;CYQF 290800Z 09010KT 1 1/2SM -SN VV008 M14/M16 A2988 RMK SN8 VIS VRB 1-2 /S01/ SLP187

CYQF;2012-11-29 09:00;CYQF 290900Z 08008KT 1 1/2SM -SN VV007 M15/M16 A2987 RMK SN8 VIS VRB 1-2 /S02/ SLP185

CYQF;2012-11-29 10:00;CYQF 291000Z 09009KT 1 1/2SM -SN VV008 M15/M16 A2987 RMK SN8 VIS VRB 1-2 /S03/ SLP185

CYQF;2012-11-29 10:51;CYQF 291051Z 08006KT 3SM -SN OVC020 RMK SC8

CYQF;2012-11-29 11:00;CYQF 291100Z 08007KT 5SM -SN OVC020 M15/M16 A2986 RMK SC8 SLP180

CYQF;2012-11-29 12:00;CYQF 291200Z 11006KT 15SM -SN SCT020 OVC100 M15/M17 A2986 RMK SC4AS2 SLP182

CYQF;2012-11-29 12:15;CYQF 291215Z 10005KT 15SM FEW020 BKN040 OVC100 RMK SC2SC3AS2

CYQF;2012-11-29 13:00;CYQF 291300Z 11004KT 15SM FEW020 BKN040 OVC100 M15/M17 A2985 RMK SC2SC5AC2 SLP177

CYQF;2012-11-29 13:47;CYQF 291347Z 12008KT 15SM -SN FEW020 OVC040 RMK SC2SC6

CYQF;2012-11-29 14:00;CYQF 291400Z 12005KT 15SM FEW020 OVC040 M15/M17 A2985 RMK SC2SC6 SLP178

CYQF;2012-11-29 15:00;CYQF 291500Z 12005KT 15SM -SN FEW020 OVC040 M15/M17 A2984 RMK SC1SC7 SLP175

CYQF;2012-11-29 16:00;CYQF 291600Z 12008KT 15SM -SN OVC025 M15/M17 A2982 RMK SC8 SLP171

CYQF;2012-11-29 17:00;CYQF 291700Z 13010KT 5SM -SN OVC025 M15/M17 A2984 RMK SC8 SLP175

CYQF;2012-11-29 18:00;CYQF 291800Z 13010KT 3SM -SN OVC025 M15/M17 A2983 RMK SC8 SLP173

CYQF;2012-11-29 18:18;CYQF 291818Z 14010KT 3SM -SN OVC012 RMK SC8

CYQF;2012-11-29 19:00;CYQF 291900Z 14010KT 3SM -SN OVC012 M14/M16 A2982 RMK SC8 SLP170

CYQF;2012-11-29 20:00;CYQF 292000Z 15011KT 6SM -SN OVC010 M14/M16 A2980 RMK SC8 UA TOPS 049 MSL SLP163

CYQF;2012-11-29 21:00;CYQF 292100Z 15009KT 6SM -SN OVC010 M14/M16 A2979 RMK SC8 SLP161

CYQF;2012-11-29 22:00;CYQF 292200Z 14010KT 6SM -SN OVC010 M14/M16 A2977 RMK SC8 SLP155

CYQF;2012-11-29 23:00;CYQF 292300Z 12010KT 6SM -SN OVC009 M14/M16 A2974 RMK ST8 CIG RAG SLP144

CYQF;2012-11-30 00:00;CYQF 300000Z 14007KT 5SM -SN OVC011 M14/M15 A2972 RMK SC8 SLP135

CYQF;2012-11-30 00:23;CYQF 300023Z 14010KT 5SM IC OVC010 RMK ST8 IC CIG RAG

CYQF;2012-11-30 01:00;CYQF 300100Z 12010KT 1 1/2SM -SN OVC009 M13/M15 A2972 RMK ST8 SLP137

CYQF;2012-11-30 01:18;CYQF 300118Z 12008KT 3SM IC OVC008 RMK ST8 CIG RAG

CYQF;2012-11-30 02:00;CYQF 300200Z 13009KT 5SM IC OVC009 M13/M15 A2971 RMK ST8 SLP134

CYQF;2012-11-30 03:00;CYQF 300300Z 12010KT 15SM BKN008 OVC014 M13/M14 A2970 RMK ST6SC2 CIG RAG VIS NW 6 SLP126

CYQF;2012-11-30 04:00;CYQF 300400Z 13008KT 6SM IC OVC006 M13/M14 A2967 RMK ST8 CIG RAG SLP119

CYQF;2012-11-30 05:00;CYQF 300500Z CCA 14008KT 10SM BKN010 BKN022 M12/M14 A2966 RMK ST4SC2 IC SLP115

CYQF;2012-11-30 05:45;CYQF 300545Z 14010KT 6SM -SN OVC011 RMK ST8 MOON DMLY VIS

CYQF;2012-11-30 06:00;CYQF 300600Z 15008KT 6SM -SN OVC010 M12/M14 A2964 RMK ST8 SLP104

CYQF;2012-11-30 06:42;CYQF 300642Z 15007KT 6SM -SN OVC008 RMK ST8

CYQF;2012-11-30 07:00;CYQF 300700Z 15007KT 8SM -SN OVC008 M12/M13 A2963 RMK ST8 SLP101

CYQF;2012-11-30 08:00;CYQF 300800Z 14004KT 10SM -SN OVC006 M12/M13 A2961 RMK ST8 SLP095

CYQF;2012-11-30 08:35;CYQF 300835Z 15007KT 10SM -SN OVC004 RMK ST8

CYQF;2012-11-30 09:00;CYQF 300900Z 16005KT 10SM -SN OVC004 M11/M12 A2960 RMK ST8 SLP088

CYQF;2012-11-30 10:00;CYQF 301000Z 08002KT 8SM -SN OVC004 M11/M12 A2961 RMK ST8 SLP091

CYQF;2012-11-30 11:00;CYQF 301100Z 00000KT 5SM -SN BR OVC005 M11/M12 A2961 RMK ST8 SLP091

CYQF;2012-11-30 12:00;CYQF 301200Z 36007KT 8SM -SN OVC005 M11/M12 A2962 RMK ST8 SLP096

CYQF;2012-11-30 13:00;CYQF 301300Z 35007KT 8SM -SN OVC006 M12/M13 A2964 RMK ST8 SLP101

CYQF;2012-11-30 13:40;CYQF 301340Z 33010KT 8SM -SN OVC010 RMK SC8

CYQF;2012-11-30 14:00;CYQF 301400Z 34010KT 6SM -SN OVC010 M12/M13 A2963 RMK SC8 SLP099

CYQF;2012-11-30 15:00;CYQF 301500Z 35010KT 3SM -SN OVC010 M12/M14 A2964 RMK SC8 SLP103

CYQF;2012-11-30 16:00;CYQF 301600Z 34007KT 3SM -SN BR OVC010 M13/M14 A2966 RMK SC8 SLP109

CYQF;2012-11-30 17:00;CYQF 301700Z 34010KT 3SM -SN BR OVC010 M13/M15 A2967 RMK SC8 SLP114

CYQF;2012-11-30 18:00;CYQF 301800Z 34010KT 3SM -SN BR OVC011 M13/M15 A2967 RMK SC8 SLP115

CYQF;2012-11-30 19:00;CYQF 301900Z 34008KT 3SM -SN BR OVC011 M13/M15 A2966 RMK SC8 SLP111

CYQF;2012-11-30 20:00;CYQF 302000Z 33007KT 8SM -SN OVC015 M13/M16 A2966 RMK SC8 SLP113

CYQF;2012-11-30 21:00;CYQF 302100Z 34008KT 10SM -SN OVC015 M14/M16 A2965 RMK SC8 SLP106

CYQF;2012-11-30 22:00;CYQF 302200Z 35007KT 10SM -SN BKN016 OVC090 M14/M16 A2966 RMK SC6AC2 SLP111

CYQF;2012-11-30 22:42;CYQF 302242Z 36006KT 10SM BKN018 OVC090 RMK SC5AC3

CYQF;2012-11-30 23:00;CYQF 302300Z 36004KT 12SM BKN020 OVC090 M14/M16 A2967 RMK SC5AC3 SLP113

CYQF;2012-12-01 00:00;CYQF 010000Z 34002KT 12SM OVC020 M14/M16 A2969 RMK SC8 SLP122

CYQF;2012-12-01 01:00;CYQF 010100Z 36002KT 12SM OVC015 M14/M16 A2970 RMK SC8 SLP124

CYQF;2012-12-01 02:00;CYQF 010200Z 02002KT 10SM OVC016 M14/M16 A2971 RMK SC8 SLP128

CYQF;2012-12-01 03:00;CYQF 010300Z 03004KT 10SM -SN OVC015 M14/M16 A2972 RMK SC8 VRY LGT SN SLP132

CYQF;2012-12-01 04:00;CYQF 010400Z 00000KT 12SM OVC012 M14/M16 A2971 RMK ST8 SLP129

CYQF;2012-12-01 05:00;CYQF 010500Z 00000KT 12SM -SN OVC008 M14/M16 A2970 RMK ST8 SLP126

CYQF;2012-12-01 06:00;CYQF 010600Z 00000KT 12SM -SN OVC008 M14/M16 A2968 RMK ST8 SLP121

CYQF;2012-12-01 07:00;CYQF 010700Z 09002KT 10SM -SN OVC008 M14/M15 A2968 RMK ST8 SLP120

CYQF;2012-12-01 08:00;CYQF 010800Z 12002KT 10SM -SN OVC006 M14/M15 A2968 RMK ST8 SLP120

CYQF;2012-12-01 09:00;CYQF 010900Z 13004KT 10SM -SN OVC008 M14/M15 A2967 RMK ST8 SLP118

CYQF;2012-12-01 10:00;CYQF 011000Z 12005KT 10SM -SN OVC006 M14/M15 A2966 RMK ST8 SLP113

CYQF;2012-12-01 11:00;CYQF 011100Z 12007KT 6SM -SN BR OVC006 M14/M15 A2965 RMK ST8 SLP111

CYQF;2012-12-01 12:00;CYQF 011200Z 13007KT 3SM -SN BR OVC006 M14/M15 A2963 RMK ST8 SLP103

CYQF;2012-12-01 13:00;CYQF 011300Z 13006KT 5SM -SN BR OVC006 M14/M15 A2963 RMK ST8 SLP104

CYQF;2012-12-01 14:00;CYQF 011400Z 12008KT 6SM -SN BR OVC007 M14/M15 A2961 RMK ST8 SLP096

CYQF;2012-12-01 15:00;CYQF 011500Z 13006KT 6SM -SN BR OVC006 M14/M15 A2960 RMK ST8 SLP094

CYQF;2012-12-01 16:00;CYQF 011600Z 14008KT 3SM -SN BR OVC007 M14/M15 A2959 RMK ST8 SLP091

CYQF;2012-12-01 16:16;CYQF 011616Z 13007KT 2SM -SN BR OVC007 RMK ST8 VIS VRB 1-3

CYQF;2012-12-01 17:00;CYQF 011700Z 13006KT 2SM -SN BR OVC008 M13/M14 A2957 RMK ST8 VIS VRB 1-3 SLP084

CYQF;2012-12-01 18:00;CYQF 011800Z 14006KT 2SM -SN BR OVC010 M13/M14 A2956 RMK ST8 VIS VRB 1-3 SLP077

CYQF;2012-12-01 18:17;CYQF 011817Z 13007KT 3SM -SN BR OVC010 RMK ST8

CYQF;2012-12-01 19:00;CYQF 011900Z 13006KT 3SM -SN BR OVC010 M12/M14 A2953 RMK ST8 SLP068

CYQF;2012-12-01 20:00;CYQF 012000Z 14010KT 6SM -SN BR OVC010 M12/M14 A2951 RMK ST8 SLP061

CYQF;2012-12-01 20:41;CYQF 012041Z 14008KT 6SM -SN BR OVC008 RMK ST8

CYQF;2012-12-01 21:00;CYQF 012100Z 14006KT 6SM -SN BR OVC007 M12/M14 A2949 RMK ST8 SLP051

CYQF;2012-12-01 22:00;CYQF 012200Z 13007KT 6SM -SN BR OVC009 M12/M14 A2948 RMK ST8 CIG RAG BLN VIS TO 1100FT SLP048

CYQF;2012-12-01 23:00;CYQF 012300Z 12003KT 6SM -SN BR OVC011 M12/M14 A2948 RMK ST8 SLP050

CYQF;2012-12-02 00:00;CYQF 020000Z 14003KT 6SM -SN BR OVC008 M12/M14 A2949 RMK ST8 CIG RAG SLP052

CYQF;2012-12-02 01:00;CYQF 020100Z 00000KT 10SM -SN OVC008 M12/M13 A2949 RMK ST8 SLP052

CYQF;2012-12-02 02:00;CYQF 020200Z 00000KT 10SM -SN OVC009 M12/M13 A2950 RMK ST8 SLP056

CYQF;2012-12-02 03:00;CYQF 020300Z 00000KT 10SM -SN OVC009 M12/M13 A2951 RMK ST8 SLP058

CYQF;2012-12-02 04:00;CYQF 020400Z 10003KT 6SM -SN OVC009 M12/M13 A2950 RMK ST8 SLP057

CYQF;2012-12-02 05:00;CYQF 020500Z 04003KT 6SM -SN OVC009 M12/M14 A2950 RMK ST8 SLP056

CYQF;2012-12-02 06:00;CYQF 020600Z 00000KT 6SM -SN OVC008 M12/M14 A2950 RMK SC8 SLP056

CYQF;2012-12-02 07:00;CYQF 020700Z 13002KT 6SM -SN OVC008 M12/M14 A2950 RMK SC8 SLP055

CYQF;2012-12-02 08:00;CYQF 020800Z 00000KT 6SM -SN OVC008 M12/M14 A2949 RMK SC8 SLP053

CYQF;2012-12-02 09:00;CYQF 020900Z 12003KT 8SM -SN OVC008 M12/M14 A2949 RMK SC8 SLP050

CYQF;2012-12-02 10:00;CYQF 021000Z 12005KT 8SM -SN OVC008 M13/M14 A2946 RMK SC7 SLP041

CYQF;2012-12-02 11:00;CYQF 021100Z 09002KT 6SM -SN OVC008 M13/M14 A2945 RMK SC8 SLP037

CYQF;2012-12-02 12:00;CYQF 021200Z 15007KT 6SM -SN OVC008 M13/M14 A2943 RMK SC8 SLP029

CYQF;2012-12-02 13:00;CYQF 021300Z 16006KT 8SM -SN OVC008 M13/M14 A2939 RMK SC8 SLP019

CYQF;2012-12-02 14:00;CYQF 021400Z 13007KT 6SM -SN OVC008 M13/M14 A2940 RMK SC8 SLP021

CYQF;2012-12-02 15:00;CYQF 021500Z 13003KT 3SM -SN BR OVC008 M13/M14 A2938 RMK SC8 SLP012

CYQF;2012-12-02 15:25;CYQF 021525Z 10005KT 1 1/2SM -SN BR OVC008 RMK SN2SC6 VIS VRB 1-2

CYQF;2012-12-02 16:00;CYQF 021600Z 08005KT 1 1/2SM -SN BR OVC010 M13/M14 A2936 RMK SN3SC5 VIS VRB 1-2 SLP005

CYQF;2012-12-02 17:00;CYQF 021700Z 08003KT 1 1/2SM -SN BR OVC010 M13/M14 A2934 RMK SN4SC4 VIS VRB 1-2 SLP999

CYQF;2012-12-02 18:00;CYQF 021800Z 06006KT 3SM -SN BR OVC014 M13/M14 A2935 RMK ST8 /S01/ SLP003

CYQF;2012-12-02 19:00;CYQF 021900Z 06006KT 4SM -SN BR OVC014 M13/M14 A2932 RMK SC8 SLP994

CYQF;2012-12-02 19:33;CYQF 021933Z 07006KT 1 1/2SM -SN BR OVC014 RMK SN3SC5 VIS VRB 1-2

CYQF;2012-12-02 20:00;CYQF 022000Z 08006KT 1 1/2SM -SN BR OVC015 M13/M14 A2932 RMK SN3SC5 VIS VRB 1-2 SLP995

CYQF;2012-12-02 21:00;CYQF 022100Z 04006KT 1/2SM SN VV008 M13/M14 A2930 RMK SN8 SLP984

CYQF;2012-12-02 22:00;CYQF 022200Z 05005KT 3/4SM -SN VV008 M13/M14 A2931 RMK SN8 VIS VRB 1/2-1 SLP988

CYQF;2012-12-02 23:00;CYQF 022300Z 03005KT 3/4SM -SN VV008 M13/M14 A2932 RMK SN8 /S02/ VIS VRB 1/2-1 SLP991

CYQF;2012-12-03 00:00;CYQF 030000Z 04003KT 3/4SM -SN OVC018 M13/M14 A2935 RMK SN6SC2 /S03/ VIS VRB 1/2-1 SLP002

CYQF;2012-12-03 01:00;CYQF 030100Z 35002KT 3/4SM -SN VV007 M13/M15 A2937 RMK SN8 VIS VRB 1/2-1 /S01/ SLP010

CYQF;2012-12-03 02:00;CYQF 030200Z 02007KT 3/4SM -SN VV005 M14/M15 A2938 RMK SN8 VIS VRB 1/2-1 /S02/ SLP013

CYQF;2012-12-03 02:38;CYQF 030238Z 01008KT 1SM -SN VV010 RMK SN8 VIS VRB 1/2-11/2

CYQF;2012-12-03 03:00;CYQF 030300Z 01006KT 1SM -SN VV010 M14/M16 A2941 RMK SN8 VIS VRB 1/2-11/2 SLP024

CYQF;2012-12-03 04:00;CYQF 030400Z 03005KT 3/4SM -SN VV005 M14/M15 A2944 RMK SN8 VIS VRB 1/2-1 /S04/ SLP033

CYQF;2012-12-03 05:00;CYQF 030500Z 01002KT 3SM -SN VV009 M14/M16 A2947 RMK SN8 /S06/ SLP044

CYQF;2012-12-03 05:19;CYQF 030519Z 01003KT 8SM -SN OVC015 RMK SN2SC6

CYQF;2012-12-03 06:00;CYQF 030600Z 00000KT 12SM -SN FEW015 BKN040 OVC220 M14/M16 A2950 RMK SC2SC3CI2 SLP059

CYQF;2012-12-03 07:00;CYQF 030700Z 30005KT 15SM OVC019 M14/M16 A2954 RMK SC8 SLP070

CYQF;2012-12-03 08:00;CYQF 030800Z 33002KT 15SM BKN018 M15/M17 A2956 RMK SC6 SLP078

CYQF;2012-12-03 09:00;CYQF 030900Z 00000KT 15SM BKN018 M16/M18 A2958 RMK SC6 SLP086

CYQF;2012-12-03 10:00;CYQF 031000Z 00000KT 15SM BKN018 M16/M17 A2961 RMK SC6 SLP097

CYQF;2012-12-03 11:00;CYQF 031100Z 00000KT 15SM OVC018 M16/M18 A2962 RMK SC7 SLP100

CYQF;2012-12-03 12:00;CYQF 031200Z 20004KT 15SM OVC012 M17/M19 A2965 RMK SC7 SLP111

CYQF;2012-12-03 13:00;CYQF 031300Z 18002KT 15SM FEW012 M19/M19 A2966 RMK SC2 SLP114

CYQF;2012-12-03 14:00;CYQF 031400Z 22004KT 12SM FEW012 M21/M23 A2968 RMK SC2 SLP122

CYQF;2012-12-03 15:00;CYQF 031500Z 00000KT 10SM SCT012 BKN100 M18/M20 A2968 RMK SC3AC2 SLP127

CYQF;2012-12-03 16:00;CYQF 031600Z 00000KT 10SM FEW015 BKN100 M18/M20 A2969 RMK SC2AC3 SLP130

CYQF;2012-12-03 17:00;CYQF 031700Z 00000KT 10SM BKN100 BKN250 M17/M18 A2970 RMK AC5CI1 SLP131

CYQF;2012-12-03 18:00;CYQF 031800Z 00000KT 10SM BKN100 BKN250 M14/M16 A2971 RMK AC2CI2 SLP130

CYQF;2012-12-03 19:00;CYQF 031900Z 00000KT 12SM FEW100 BKN250 M13/M16 A2970 RMK AC2CI2 SLP128

CYQF;2012-12-03 20:00;CYQF 032000Z 12003KT 15SM BKN100 BKN250 M13/M16 A2970 RMK AC5CI1 SLP129

CYQF;2012-12-03 21:00;CYQF 032100Z 00000KT 12SM FEW100 BKN250 M13/M16 A2972 RMK AC2CI2 SLP135

CYQF;2012-12-03 22:00;CYQF 032200Z 07004KT 12SM FEW100 BKN250 M14/M16 A2975 RMK AC2CI2 SLP143

CYQF;2012-12-03 23:00;CYQF 032300Z 00000KT 12SM BKN100 BKN250 M14/M16 A2978 RMK AC5CI1 SLP154

CYQF;2012-12-04 00:00;CYQF 040000Z 08003KT 10SM FEW100 SCT250 M15/M17 A2981 RMK AC1CI1 SLP172

CYQF;2012-12-04 01:00;CYQF 040100Z 00000KT 10SM SKC M18/M20 A2985 RMK SLP183

CYQF;2012-12-04 02:00;CYQF 040200Z 00000KT 10SM FEW100 M18/M19 A2987 RMK AC1 SLP191

CYQF;2012-12-04 03:00;CYQF 040300Z 00000KT 10SM SKC M21/M23 A2990 RMK SLP210

CYQF;2012-12-04 04:00;CYQF 040400Z 00000KT 10SM SKC M21/M24 A2991 RMK SLP214

CYQF;2012-12-04 05:00;CYQF 040500Z 00000KT 10SM SKC M21/M24 A2992 RMK SLP216

CYQF;2012-12-04 06:00;CYQF 040600Z 17002KT 12SM FEW100 OVC250 M20/M24 A2993 RMK AC2CI4 SLP213

CYQF;2012-12-04 07:00;CYQF 040700Z 20003KT 15SM FEW100 BKN250 M19/M22 A2995 RMK AC2CI4 SLP219

CYQF;2012-12-04 08:00;CYQF 040800Z 14002KT 15SM FEW100 OVC250 M17/M21 A2991 RMK AC2CI5 SLP209

CYQF;2012-12-04 09:00;CYQF 040900Z 00000KT 15SM OVC250 M17/M20 A2988 RMK CI7 SLP193

CYQF;2012-12-04 10:00;CYQF 041000Z 00000KT 15SM BKN250 M17/M20 A2986 RMK CI3 SLP187

CYQF;2012-12-04 11:00;CYQF 041100Z 15005KT 15SM SCT250 M16/M19 A2983 RMK CI2 SLP176

CYQF;2012-12-04 12:00;CYQF 041200Z 17010KT 15SM FEW250 M16/M19 A2979 RMK CI1 SLP163

CYQF;2012-12-04 13:00;CYQF 041300Z 17010KT 15SM BKN250 M15/M18 A2977 RMK CI3 SLP157

CYQF;2012-12-04 14:00;CYQF 041400Z 15005KT 15SM OVC004 M14/M16 A2975 RMK SF8 SLP150

CYQF;2012-12-04 14:34;CYQF 041434Z 16010KT 15SM SCT005 BKN100 OVC250 RMK ST3AC3CI1

CYQF;2012-12-04 15:00;CYQF 041500Z 15008KT 12SM SCT005 BKN100 OVC250 M14/M16 A2971 RMK ST2AC4CI2 SLP138

CYQF;2012-12-04 16:00;CYQF 041600Z 16010KT 12SM FEW005 BKN100 OVC250 M13/M15 A2968 RMK ST2AC5CI2 SLP129

CYQF;2012-12-04 17:00;CYQF 041700Z 16005KT 12SM FEW100 BKN250 M12/M14 A2963 RMK AC2CI2 SLP115

CYQF;2012-12-04 18:00;CYQF 041800Z 16012G18KT 10SM FEW100 SCT250 M11/M13 A2956 RMK AC1CI1 SLP082

CYQF;2012-12-04 19:00;CYQF 041900Z 15010G15KT 12SM FEW100 SCT250 M08/M09 A2950 RMK AC1CI1 SLP064

CYQF;2012-12-04 20:00;CYQF 042000Z 17014G23KT 12SM DRSN FEW100 BKN250 M05/M06 A2946 RMK AC1CI2 SLP053

CYQF;2012-12-04 21:00;CYQF 042100Z 17012G18KT 15SM DRSN FEW070 BKN250 M03/M05 A2945 RMK AC1CI2 SLP030

CYQF;2012-12-04 22:00;CYQF 042200Z 17012G18KT 15SM DRSN FEW070 BKN250 M02/M05 A2943 RMK AC1CI2 SLP026

CYQF;2012-12-04 23:00;CYQF 042300Z 18010G15KT 15SM DRSN FEW070 BKN250 M02/M05 A2943 RMK AC1CI2 SLP026

CYQF;2012-12-05 00:00;CYQF 050000Z 15006KT 15SM FEW070 BKN250 M03/M05 A2944 RMK AC1CI2 SLP026

CYQF;2012-12-05 01:00;CYQF 050100Z 00000KT 15SM SKC M04/M06 A2943 RMK SLP023

CYQF;2012-12-05 02:00;CYQF 050200Z 23003KT 15SM SKC M05/M08 A2942 RMK SLP020

CYQF;2012-12-05 03:00;CYQF 050300Z 19003KT 15SM SKC M02/M06 A2942 RMK SLP017

CYQF;2012-12-05 04:00;CYQF 050400Z 16004KT 15SM SKC M05/M08 A2942 RMK SLP017

CYQF;2012-12-05 05:00;CYQF 050500Z 12002KT 15SM FEW100 M07/M10 A2944 RMK AC1 SLP021

CYQF;2012-12-05 06:00;CYQF 050600Z 36008KT 15SM FEW090 M06/M09 A2945 RMK AC2 SLP027

CYQF;2012-12-05 07:00;CYQF 050700Z 02006KT 15SM FEW090 M08/M10 A2947 RMK AC2 SLP035

CYQF;2012-12-05 08:00;CYQF 050800Z 03008KT 15SM FEW090 M10/M12 A2948 RMK AC2 SLP038

CYQF;2012-12-05 09:00;CYQF 050900Z 00000KT 15SM FEW090 SCT250 M12/M13 A2950 RMK AC2CI0 SLP042

CYQF;2012-12-05 10:00;CYQF 051000Z 02004KT 15SM FEW090 FEW250 M10/M11 A2950 RMK AC2CI0 SLP042

CYQF;2012-12-05 11:00;CYQF 051100Z 00000KT 15SM SCT090 BKN250 M13/M14 A2949 RMK AC3CI0 SLP041

CYQF;2012-12-05 12:00;CYQF 051200Z 30004KT 15SM BKN090 BKN250 M11/M13 A2950 RMK AC5CI0 SLP041

CYQF;2012-12-05 13:00;CYQF 051300Z 21003KT 15SM BKN080 M10/M12 A2950 RMK AC6 SLP041

CYQF;2012-12-05 14:00;CYQF 051400Z 20005KT 15SM FEW030 BKN100 M10/M11 A2948 RMK SC2AC5 SLP036

CYQF;2012-12-05 15:00;CYQF 051500Z 24005KT 8SM SCT030 BKN100 M07/M08 A2949 RMK SC3AC4 SLP035

CYQF;2012-12-05 16:00;CYQF 051600Z 00000KT 8SM SCT030 BKN070 M07/M09 A2951 RMK SC3AC4 SLP039

CYQF;2012-12-05 17:00;CYQF 051700Z 23004KT 6SM BR SCT010 BKN030 OVC070 M07/M08 A2955 RMK ST3SC2AC2 SLP052

CYQF;2012-12-05 17:20;CYQF 051720Z 11005KT 3SM -SN SCT010 BKN030 OVC070 RMK ST3SC2AC2

CYQF;2012-12-05 17:44;CYQF 051744Z 13004KT 6SM BR SCT030 BKN070 RMK SC3AC3

CYQF;2012-12-05 18:00;CYQF 051800Z 18003KT 8SM SCT030 BKN070 M04/M05 A2953 RMK SC3AC3 BR SLP049

CYQF;2012-12-05 19:00;CYQF 051900Z 00000KT 8SM VCSH FEW030 BKN070 M04/M05 A2956 RMK SC2AC4 SLP056

CYQF;2012-12-05 19:23;CYQF 051923Z 22003KT 2SM -SHSN BKN030 OVC070 RMK SN2SC3AC3

CYQF;2012-12-05 19:41;CYQF 051941Z 29012G20KT 1SM -SHSN DRSN OVC030 RMK SN4SC4 WND SHFT

CYQF;2012-12-05 20:00;CYQF 052000Z 29014G22KT 6SM -SHSN DRSN OVC030 M01/M01 A2961 RMK SC8 VIS S 3 SLP074

CYQF;2012-12-05 20:06;CYQF 052006Z 28014G22KT 6SM -SHSN DRSN FEW008 BKN030 RMK SF1SC6

CYQF;2012-12-05 20:42;CYQF 052042Z 30013G20KT 15SM DRSN FEW012 BKN030 BKN250 RMK CU1SC4CI2

CYQF;2012-12-05 21:00;CYQF 052100Z 30010KT 15SM FEW012 BKN030 BKN080 BKN250 M00/M03 A2964 RMK CF1SC4AC1CI1 SLP088

CYQF;2012-12-05 22:00;CYQF 052200Z 33005KT 15SM FEW012 FEW030 BKN250 M02/M04 A2969 RMK CU1SC2CI3 SLP103

CYQF;2012-12-05 23:00;CYQF 052300Z 06002KT 12SM FEW030 BKN250 M05/M07 A2972 RMK SC1CI2 SLP114

CYQF;2012-12-06 00:00;CYQF 060000Z 00000KT 10SM MIFG FEW030 FEW090 M08/M09 A2976 RMK SC1AC1 SLP140

CYQF;2012-12-06 00:31;CYQF 060031Z 00000KT 1SM BR FEW090 RMK FG1AC1

CYQF;2012-12-06 00:40;CYQF 060040Z 00000KT 1/4SM FZFG SCT090 RMK FG3AC1

CYQF;2012-12-06 01:00;CYQF 060100Z 00000KT 1/4SM FZFG SKC M13/M14 A2980 RMK FG6 SLP152

CYQF;2012-12-06 02:00;CYQF 060200Z 00000KT 1/8SM FZFG SKC M14/M15 A2983 RMK FG7 SLP161

CYQF;2012-12-06 03:00;CYQF 060300Z 00000KT 1/8SM FZFG SKC M14/M15 A2985 RMK FG7 SLP172

CYQF;2012-12-06 04:00;CYQF 060400Z 00000KT 1/8SM FZFG SKC M16/M17 A2985 RMK FG7 SLP173

CYQF;2012-12-06 05:00;CYQF 060500Z 00000KT 1/8SM FZFG SKC M15/M17 A2986 RMK FG6 FROIN SLP176

CYQF;2012-12-06 06:00;CYQF 060600Z 00000KT 1/8SM FZFG SKC M17/M19 A2987 RMK FG6 SLP178

CYQF;2012-12-06 06:42;CYQF 060642Z 23004KT 1/4SM FZFG SKC RMK FG6

CYQF;2012-12-06 07:00;CYQF 060700Z 00000KT 1/4SM FZFG SKC M16/M17 A2988 RMK FG3 FROIN SLP182

CYQF;2012-12-06 08:00;CYQF 060800Z 20003KT 1/8SM FZFG SKC M16/M18 A2988 RMK FG5 FROIN SLP181

CYQF;2012-12-06 09:00;CYQF 060900Z 00000KT 1/8SM FZFG SKC M16/M18 A2987 RMK FG7 FROIN SLP173

CYQF;2012-12-06 09:39;CYQF 060939Z 00000KT 3/4SM BR SKC RMK FG2 FROIN VIS S 6

CYQF;2012-12-06 09:46;CYQF 060946Z 00000KT 10SM SKC

CYQF;2012-12-06 10:00;CYQF 061000Z 00000KT 15SM FEW002 M17/M19 A2988 RMK ST1 SLP176

CYQF;2012-12-06 11:00;CYQF 061100Z 23002KT 15SM SCT100 M19/M21 A2987 RMK AC3 SLP174

CYQF;2012-12-06 12:00;CYQF 061200Z 24003KT 15SM FEW100 FEW250 M20/M23 A2987 RMK AC1CI0 SLP189

CYQF;2012-12-06 13:00;CYQF 061300Z 00000KT 15SM SKC M20/M24 A2987 RMK SLP188

CYQF;2012-12-06 14:00;CYQF 061400Z 25002KT 15SM SKC M21/M25 A2986 RMK SLP186

CYQF;2012-12-06 15:00;CYQF 061500Z 00000KT 15SM SCT220 M22/M25 A2986 RMK CI2 SLP193

CYQF;2012-12-06 16:00;CYQF 061600Z 00000KT 15SM SCT220 M21/M25 A2985 RMK CI3 SLP191

CYQF;2012-12-06 17:00;CYQF 061700Z 21005KT 15SM FEW120 SCT220 M18/M22 A2985 RMK AC1CI2 SLP189

CYQF;2012-12-06 18:00;CYQF 061800Z 23003KT 15SM FEW120 BKN220 M17/M21 A2985 RMK AC1CI2 SLP189

CYQF;2012-12-06 19:00;CYQF 061900Z 21003KT 15SM FEW120 BKN220 M16/M19 A2985 RMK AC1CI2 SLP186

CYQF;2012-12-06 20:00;CYQF 062000Z 00000KT 15SM FEW120 BKN220 M14/M16 A2984 RMK AC1CI3 SLP184

CYQF;2012-12-06 21:00;CYQF 062100Z 00000KT 15SM FEW120 BKN220 M15/M17 A2983 RMK AC1CI3 SLP175

CYQF;2012-12-06 22:00;CYQF 062200Z 32004KT 15SM FEW120 BKN220 M16/M19 A2982 RMK AC1CI3 SLP173

CYQF;2012-12-06 23:00;CYQF 062300Z 01008KT 10SM FEW120 BKN220 M14/M17 A2983 RMK AC1CI2 SLP175

CYQF;2012-12-07 00:00;CYQF 070000Z 03003KT 10SM FEW120 SCT220 M17/M20 A2983 RMK AC1CI1 SLP182

CYQF;2012-12-07 01:00;CYQF 070100Z 36005KT 15SM FEW120 SCT220 M18/M22 A2984 RMK AC1CI2 SLP186

CYQF;2012-12-07 02:00;CYQF 070200Z 36005KT 15SM FEW120 SCT220 M19/M22 A2984 RMK AC1CI2 SLP187

CYQF;2012-12-07 03:00;CYQF 070300Z 02003KT 15SM FEW120 SCT220 M19/M22 A2984 RMK AC2CI1 SLP192

CYQF;2012-12-07 04:00;CYQF 070400Z 34006KT 15SM SCT100 BKN220 M19/M22 A2986 RMK AC3CI1 SLP198

CYQF;2012-12-07 05:00;CYQF 070500Z 04003KT 15SM SCT220 M19/M22 A2985 RMK CI1 SLP196

CYQF;2012-12-07 06:00;CYQF 070600Z 00000KT 10SM FEW100 M21/M25 A2985 RMK AC1 SLP193

CYQF;2012-12-07 07:00;CYQF 070700Z 00000KT 10SM SCT100 M21/M25 A2985 RMK AC3 SLP193

CYQF;2012-12-07 08:00;CYQF 070800Z 00000KT 10SM FEW100 M21/M25 A2985 RMK AC2 SLP191

CYQF;2012-12-07 09:00;CYQF 070900Z 00000KT 10SM FEW100 M23/M27 A2984 RMK AC1 SLP187

CYQF;2012-12-07 10:00;CYQF 071000Z 00000KT 10SM SKC M23/M27 A2985 RMK SLP189

CYQF;2012-12-07 11:00;CYQF 071100Z 00000KT 10SM SKC M24/M28 A2983 RMK SLP183

CYQF;2012-12-07 12:00;CYQF 071200Z 19004KT 10SM SKC M26/M30 A2981 RMK SLP184

CYQF;2012-12-07 13:00;CYQF 071300Z 00000KT 10SM SKC M25/M29 A2981 RMK SLP182

CYQF;2012-12-07 14:00;CYQF 071400Z 00000KT 10SM SKC M25/M30 A2981 RMK SLP182

CYQF;2012-12-07 15:00;CYQF 071500Z 00000KT 10SM FEW250 M25/M30 A2980 RMK CI0 SLP181

CYQF;2012-12-07 16:00;CYQF 071600Z 00000KT 10SM SCT250 M24/M29 A2979 RMK CI1 SLP177

CYQF;2012-12-07 17:00;CYQF 071700Z 00000KT 10SM SCT250 M23/M27 A2977 RMK CI1 SLP172

CYQF;2012-12-07 18:00;CYQF 071800Z 00000KT 10SM SCT250 M21/M26 A2978 RMK CI1 SLP172

CYQF;2012-12-07 19:00;CYQF 071900Z 00000KT 8SM FEW090 SCT250 M19/M23 A2975 RMK AC1CI1 SLP162

CYQF;2012-12-07 20:00;CYQF 072000Z 00000KT 8SM SCT250 M18/M22 A2973 RMK CI2 HZ SLP157

CYQF;2012-12-07 21:00;CYQF 072100Z 00000KT 10SM SCT090 BKN250 M19/M22 A2972 RMK AC2CI2 SLP149

CYQF;2012-12-07 21:12;CYQF 072112Z 00000KT 8SM BKN005 BKN100 BKN250 RMK ST3AC2CI2 ST TOPS FL036

CYQF;2012-12-07 21:40;CYQF 072140Z 00000KT 8SM SCT005 BKN100 BKN250 RMK ST2AC3CI1

CYQF;2012-12-07 22:00;CYQF 072200Z 00000KT 8SM FEW005 BKN100 BKN250 M18/M22 A2969 RMK ST1AC4CI1 HZ ACC ASOCTD SLP142

CYQF;2012-12-07 23:00;CYQF 072300Z 06002KT 8SM FEW100 BKN250 M18/M21 A2970 RMK AC2CI2 SLP144

CYQF;2012-12-08 00:00;CYQF 080000Z 00000KT 8SM FEW100 SCT250 M19/M23 A2971 RMK AC1CI2 SLP150

CYQF;2012-12-08 01:00;CYQF 080100Z 00000KT 10SM SKC M21/M25 A2971 RMK SLP151

CYQF;2012-12-08 02:00;CYQF 080200Z 03002KT 10SM SKC M21/M25 A2971 RMK SLP152

CYQF;2012-12-08 03:00;CYQF 080300Z 30002KT 12SM FEW100 M23/M28 A2973 RMK AC1 SLP162

CYQF;2012-12-08 04:00;CYQF 080400Z 33003KT 12SM SKC M23/M27 A2976 RMK SLP171

CYQF;2012-12-08 05:00;CYQF 080500Z 35003KT 15SM FEW100 M21/M25 A2978 RMK AC2 SLP178

CYQF;2012-12-08 05:49;CYQF 080549Z 34003KT 15SM OVC012 RMK ST7

CYQF;2012-12-08 06:00;CYQF 080600Z 36002KT 15SM OVC012 M20/M24 A2981 RMK ST7 SLP182

CYQF;2012-12-08 07:00;CYQF 080700Z 33002KT 15SM OVC012 M20/M23 A2985 RMK ST7 SLP196

CYQF;2012-12-08 08:00;CYQF 080800Z 33006KT 15SM OVC010 M18/M23 A2988 RMK ST8 SLP204

CYQF;2012-12-08 08:26;CYQF 080826Z 33007KT 10SM -SN OVC010 RMK ST8

CYQF;2012-12-08 09:00;CYQF 080900Z 33008KT 6SM -SN OVC009 M17/M20 A2991 RMK ST8 SLP210

CYQF;2012-12-08 09:40;CYQF 080940Z 34013KT 2SM -SN OVC008 RMK SN6ST2

CYQF;2012-12-08 10:00;CYQF 081000Z 33010KT 2SM -SN OVC009 M16/M19 A2993 RMK SN6ST2 SLP217

CYQF;2012-12-08 11:00;CYQF 081100Z 34012KT 2SM -SN OVC009 M15/M18 A2995 RMK SN6ST2 SLP224

CYQF;2012-12-08 11:52;CYQF 081152Z 33012KT 3SM -SN OVC009 RMK SN3ST5

CYQF;2012-12-08 12:00;CYQF 081200Z 33012KT 3SM -SN OVC009 M15/M18 A2998 RMK SN3ST5 SLP233

CYQF;2012-12-08 13:00;CYQF 081300Z 34012KT 10SM -SN OVC010 M15/M18 A3001 RMK ST8 SLP243

CYQF;2012-12-08 14:00;CYQF 081400Z 35004KT 10SM -SN OVC010 M16/M18 A3005 RMK ST8 SLP253

CYQF;2012-12-08 15:00;CYQF 081500Z 33006KT 10SM -SN OVC010 M15/M18 A3007 RMK SC8 SLP269

CYQF;2012-12-08 16:00;CYQF 081600Z 35008KT 10SM -SN OVC010 M15/M18 A3009 RMK SC8 SLP277

CYQF;2012-12-08 17:00;CYQF 081700Z 35008KT 8SM -SN OVC010 M16/M19 A3012 RMK SC8 SLP286

CYQF;2012-12-08 18:00;CYQF 081800Z 34009KT 10SM -SN BKN015 BKN080 BKN220 M17/M21 A3015 RMK SC6AC1CI1 SLP294

CYQF;2012-12-08 18:18;CYQF 081818Z 34008KT 12SM BKN015 BKN080 BKN220 RMK SC5AC2CI1

CYQF;2012-12-08 19:00;CYQF 081900Z 36003KT 12SM BKN080 BKN220 M18/M21 A3014 RMK AC5CI1 SLP293

CYQF;2012-12-08 19:48;CYQF 081948Z 36005KT 12SM FEW080 BKN220 RMK AC2CI2

CYQF;2012-12-08 20:00;CYQF 082000Z 01004KT 12SM FEW080 BKN220 M17/M21 A3015 RMK AC2CI2 SLP297

CYQF;2012-12-08 21:00;CYQF 082100Z 00000KT 15SM FEW080 BKN220 M17/M21 A3015 RMK AC2CI2 SLP292

CYQF;2012-12-08 22:00;CYQF 082200Z 01003KT 15SM FEW220 M18/M22 A3016 RMK CI2 SLP295

CYQF;2012-12-08 23:00;CYQF 082300Z 33002KT 15SM FEW080 FEW220 M19/M23 A3018 RMK AC1CI2 SLP301

CYQF;2012-12-09 00:00;CYQF 090000Z 00000KT 15SM FEW080 SCT220 M21/M25 A3018 RMK AC1CI2 SLP306

CYQF;2012-12-09 01:00;CYQF 090100Z 00000KT 15SM SKC M25/M29 A3019 RMK SLP308

CYQF;2012-12-09 02:00;CYQF 090200Z 18002KT 15SM SKC M24/M28 A3020 RMK SLP311

CYQF;2012-12-09 03:00;CYQF 090300Z 19004KT 15SM SKC M27/M31 A3020 RMK SLP318

CYQF;2012-12-09 04:00;CYQF 090400Z 00000KT 15SM SKC M25/M29 A3021 RMK SLP320

CYQF;2012-12-09 05:00;CYQF 090500Z 19002KT 15SM SKC M27/M31 A3020 RMK SLP319

CYQF;2012-12-09 06:00;CYQF 090600Z 18002KT 15SM SKC M25/M29 A3019 RMK SLP317

CYQF;2012-12-09 07:00;CYQF 090700Z 19002KT 15SM SKC M25/M30 A3020 RMK SLP318

CYQF;2012-12-09 08:00;CYQF 090800Z 21003KT 15SM SKC M26/M30 A3019 RMK SLP316

CYQF;2012-12-09 09:00;CYQF 090900Z 20006KT 15SM SKC M26/M30 A3018 RMK SLP312

CYQF;2012-12-09 10:00;CYQF 091000Z 20004KT 10SM SKC M25/M29 A3016 RMK PRFG SLP308

CYQF;2012-12-09 11:00;CYQF 091100Z 19004KT 15SM SKC M23/M27 A3015 RMK SLP303

CYQF;2012-12-09 12:00;CYQF 091200Z 19004KT 15SM SKC M24/M28 A3013 RMK SLP297

CYQF;2012-12-09 13:00;CYQF 091300Z 20004KT 15SM SKC M25/M28 A3011 RMK SLP293

CYQF;2012-12-09 14:00;CYQF 091400Z 20003KT 15SM SKC M26/M31 A3009 RMK SLP285

CYQF;2012-12-09 15:00;CYQF 091500Z 20005KT 15SM FEW220 M27/M31 A3003 RMK CI2 PRESFR SLP274

CYQF;2012-12-09 16:00;CYQF 091600Z 19003KT 15SM SCT080 BKN220 M24/M28 A3001 RMK AC4CI2 SLP268

CYQF;2012-12-09 17:00;CYQF 091700Z 18003KT 15SM SCT080 BKN220 M22/M26 A2997 RMK AC4CI2 SLP255

CYQF;2012-12-09 18:00;CYQF 091800Z 19003KT 12SM BKN100 OVC220 M20/M24 A2992 RMK AC6CI2 SLP226

CYQF;2012-12-09 19:00;CYQF 091900Z 00000KT 12SM BKN100 OVC220 M18/M21 A2987 RMK AC6CI2 SLP210

CYQF;2012-12-09 20:00;CYQF 092000Z 15003KT 15SM BKN100 OVC220 M16/M19 A2982 RMK AC6CI2 PRESFR SLP194

CYQF;2012-12-09 21:00;CYQF 092100Z 00000KT 12SM BKN100 BKN220 M15/M18 A2978 RMK AC6CI2 PRESFR SLP171

CYQF;2012-12-09 22:00;CYQF 092200Z 00000KT 15SM SCT100 BKN220 M14/M16 A2974 RMK AC4CI3 FRESFR SLP159

CYQF;2012-12-09 23:00;CYQF 092300Z 00000KT 15SM BKN090 BKN220 M13/M16 A2972 RMK AC6CI2 SLP151

CYQF;2012-12-10 00:00;CYQF 100000Z 00000KT 15SM BKN070 M13/M15 A2969 RMK AC7 SLP136

CYQF;2012-12-10 01:00;CYQF 100100Z 26002KT 15SM OVC045 M12/M15 A2968 RMK SC8 SLP131

CYQF;2012-12-10 02:00;CYQF 100200Z 19003KT 15SM OVC050 M11/M14 A2966 RMK SC8 SLP126

CYQF;2012-12-10 03:00;CYQF 100300Z 21003KT 15SM OVC050 M10/M13 A2966 RMK SC8 SLP124

CYQF;2012-12-10 04:00;CYQF 100400Z 24005KT 15SM OVC050 M09/M12 A2966 RMK SC8 SLP125

CYQF;2012-12-10 05:00;CYQF 100500Z 00000KT 15SM OVC050 M08/M11 A2967 RMK SC8 SLP128

CYQF;2012-12-10 06:00;CYQF 100600Z 00000KT 15SM OVC050 M08/M10 A2968 RMK SC8 SLP121

CYQF;2012-12-10 07:00;CYQF 100700Z 30010G16KT 10SM -SN OVC050 M03/M05 A2971 RMK SC8 SLP131

CYQF;2012-12-10 07:19;CYQF 100719Z 31015G22KT 2SM -SN OVC050 RMK SN4SC4

CYQF;2012-12-10 07:33;CYQF 100733Z 31012G18KT 3SM -SN OVC050 RMK SN2SC6

CYQF;2012-12-10 08:00;CYQF 100800Z 31024G30KT 3SM -SN BLSN OVC050 M02/M05 A2973 RMK SN3SC5 SLP136

CYQF;2012-12-10 08:14;CYQF 100814Z 31020G26KT 1 1/2SM -SN BLSN VV012 RMK SN8

CYQF;2012-12-10 08:29;CYQF 100829Z 33016G24KT 10SM -SN DRSN BKN050 BKN250 RMK SC5CI0

CYQF;2012-12-10 09:00;CYQF 100900Z 32012G18KT 15SM -SN DRSN BKN050 BKN250 M02/M07 A2973 RMK SC5CI0 SLP124

CYQF;2012-12-10 09:40;CYQF 100940Z 33010G16KT 15SM SCT050 BKN250 RMK SC3CI0

CYQF;2012-12-10 10:00;CYQF 101000Z 30012KT 15SM FEW050 BKN250 M03/M08 A2974 RMK SC2CI1 SLP128

CYQF;2012-12-10 11:00;CYQF 101100Z 30004KT 15SM FEW050 SCT250 M06/M10 A2975 RMK SC2CI0 SLP130

CYQF;2012-12-10 12:00;CYQF 101200Z 29006KT 15SM FEW050 SCT250 M05/M10 A2974 RMK SC2CI0 SLP130

CYQF;2012-12-10 13:00;CYQF 101300Z 27008KT 15SM BKN050 M05/M09 A2975 RMK SC6 SLP131

CYQF;2012-12-10 14:00;CYQF 101400Z 29005KT 15SM -SN OVC050 M02/M08 A2976 RMK SC8 SLP135

CYQF;2012-12-10 15:00;CYQF 101500Z 30006KT 15SM -SN OVC050 M02/M07 A2978 RMK SC8 SLP136

CYQF;2012-12-10 15:25;CYQF 101525Z 27005KT 15SM VCSH BKN040 BKN090 RMK SC5AC2

CYQF;2012-12-10 15:47;CYQF 101547Z 32015G23KT 1 1/2SM -SN DRSN OVC040 RMK SN2SC6 WND SHIFT OCNL BLSN

CYQF;2012-12-10 16:00;CYQF 101600Z 32012G20KT 2SM -SN DRSN OVC040 M02/M04 A2978 RMK SN2SC6 SLP138

CYQF;2012-12-10 16:11;CYQF 101611Z 33010G15KT 15SM DRSN VCSH BKN040 BKN090 RMK SC5AC2

CYQF;2012-12-10 16:40;CYQF 101640Z 31007KT 3SM -SHSN OVC040 RMK SN2SC6 VIS VRB 2-6

CYQF;2012-12-10 17:00;CYQF 101700Z 33010KT 15SM VCSH FEW015 SCT040 BKN090 M02/M04 A2979 RMK SF2SC2AC2 SLP141

CYQF;2012-12-10 18:00;CYQF 101800Z 29005KT 15SM FEW040 BKN090 M01/M04 A2980 RMK SC2AC5 SLP139

CYQF;2012-12-10 19:00;CYQF 101900Z 32010G15KT 15SM VCSH FEW040 BKN090 BKN240 M01/M05 A2979 RMK SC2AC4CI1 SLP138

CYQF;2012-12-10 20:00;CYQF 102000Z 32008KT 15SM VCSH BKN040 OVC100 M01/M04 A2979 RMK SC5AC3 SLP138

CYQF;2012-12-10 21:00;CYQF 102100Z 27008KT 10SM VCSH BKN040 OVC100 M01/M03 A2979 RMK SC6AC2 SLP132

CYQF;2012-12-10 22:00;CYQF 102200Z 25005KT 12SM VCSH BKN040 BKN100 M02/M04 A2977 RMK SC6AC2 SLP125

CYQF;2012-12-10 23:00;CYQF 102300Z 26004KT 15SM FEW040 FEW100 SCT250 M03/M06 A2978 RMK SC2AC1CI0 SLP127

CYQF;2012-12-11 00:00;CYQF 110000Z 23008KT 15SM SCT100 M08/M10 A2977 RMK AC3 SLP135

CYQF;2012-12-11 01:00;CYQF 110100Z 24008KT 15SM BKN110 M06/M08 A2977 RMK AC7 SLP136

CYQF;2012-12-11 02:00;CYQF 110200Z 19004KT 15SM BKN110 M05/M07 A2975 RMK AC7 SLP128

CYQF;2012-12-11 03:00;CYQF 110300Z 20005KT 15SM BKN090 M05/M08 A2973 RMK AC7 SLP112

CYQF;2012-12-11 04:00;CYQF 110400Z 19004KT 15SM OVC090 M05/M07 A2970 RMK AC8 SLP103

CYQF;2012-12-11 05:00;CYQF 110500Z 20008KT 15SM BKN090 OVC220 M05/M08 A2967 RMK AC6CI2 SLP094

CYQF;2012-12-11 06:00;CYQF 110600Z 19002KT 15SM OVC090 M05/M08 A2963 RMK AS8 SLP078

CYQF;2012-12-11 07:00;CYQF 110700Z 18006KT 15SM OVC090 M04/M07 A2959 RMK AC8 SLP067

CYQF;2012-12-11 08:00;CYQF 110800Z 17006KT 15SM OVC090 M04/M07 A2955 RMK AC8 SLP053

CYQF;2012-12-11 09:00;CYQF 110900Z 16006KT 15SM OVC090 M05/M08 A2951 RMK AC8 SLP036

CYQF;2012-12-11 10:00;CYQF 111000Z 22008KT 15SM OVC090 M04/M08 A2948 RMK AC8 SLP027

CYQF;2012-12-11 11:00;CYQF 111100Z CCA 15004KT 15SM OVC080 M04/M08 A2942 RMK AC8 PRESFR SLP007

CYQF;2012-12-11 12:00;CYQF 111200Z 13005KT 15SM OVC080 M05/M08 A2938 RMK AC8 SLP999

CYQF;2012-12-11 13:00;CYQF 111300Z 19006KT 15SM OVC080 M05/M08 A2937 RMK AC8 SLP996

CYQF;2012-12-11 14:00;CYQF 111400Z 09005KT 15SM OVC080 M04/M07 A2934 RMK AC8 SLP987

CYQF;2012-12-11 15:00;CYQF 111500Z 23004KT 15SM SCT050 OVC080 M05/M08 A2933 RMK SC4AC3 SLP977

CYQF;2012-12-11 16:00;CYQF 111600Z 21003KT 15SM FEW040 BKN090 M04/M07 A2933 RMK SC2AC5 VIRGA SLP978

CYQF;2012-12-11 17:00;CYQF 111700Z 20006KT 15SM FEW040 BKN090 M03/M07 A2934 RMK SC2AC4 SLP982

CYQF;2012-12-11 18:00;CYQF 111800Z 20005KT 15SM FEW040 SCT090 M03/M07 A2934 RMK SC1AC3 SLP978

CYQF;2012-12-11 19:00;CYQF 111900Z 21004KT 15SM FEW040 BKN080 M03/M07 A2933 RMK SC1AC6 SLP977

CYQF;2012-12-11 20:00;CYQF 112000Z 00000KT 15SM BKN080 M02/M06 A2932 RMK AC6 SLP972

CYQF;2012-12-11 21:00;CYQF 112100Z 00000KT 15SM FEW080 SCT250 01/M06 A2932 RMK AC2CI1 SLP967

CYQF;2012-12-11 22:00;CYQF 112200Z 00000KT 15SM FEW080 BKN250 M01/M06 A2933 RMK AC2CI1 SLP970

CYQF;2012-12-11 23:00;CYQF 112300Z 00000KT 15SM BKN080 BKN250 M03/M07 A2934 RMK AC5CI1 SLP975

CYQF;2012-12-12 00:00;CYQF 120000Z 00000KT 15SM FEW030 BKN080 M04/M07 A2936 RMK SC1AC6 SLP987

CYQF;2012-12-12 01:00;CYQF 120100Z 00000KT 15SM BKN080 M04/M07 A2938 RMK AC7 SLP993

CYQF;2012-12-12 02:00;CYQF 120200Z 23003KT 15SM BKN080 M05/M08 A2940 RMK AC7 SLP000

CYQF;2012-12-12 03:00;CYQF 120300Z 26005KT 15SM OVC080 M04/M07 A2941 RMK AC8 SLP007

CYQF;2012-12-12 04:00;CYQF 120400Z 00000KT 15SM BKN080 M04/M08 A2943 RMK AC7 SLP013

CYQF;2012-12-12 05:00;CYQF 120500Z 00000KT 15SM BKN080 BKN240 M06/M08 A2945 RMK AC6CI1 SLP018

CYQF;2012-12-12 06:00;CYQF 120600Z 33006KT 15SM BKN080 BKN240 M05/M07 A2947 RMK AC6CI1 SLP024

CYQF;2012-12-12 07:00;CYQF 120700Z 01005KT 15SM BKN080 BKN240 M02/M05 A2949 RMK AC6CI1 SLP031

CYQF;2012-12-12 08:00;CYQF 120800Z 03012KT 15SM OVC080 M07/M09 A2953 RMK AC8 SLP043

CYQF;2012-12-12 09:00;CYQF 120900Z 03012KT 15SM SCT009 OVC060 M09/M12 A2956 RMK SC4SC4 SLP056

CYQF;2012-12-12 09:48;CYQF 120948Z 03012KT 10SM OVC009 RMK SC8

CYQF;2012-12-12 10:00;CYQF 121000Z 03010KT 10SM OVC009 M10/M12 A2959 RMK SC8 SLP065

CYQF;2012-12-12 11:00;CYQF 121100Z 03008KT 10SM OVC008 M12/M14 A2961 RMK ST8 SLP073

CYQF;2012-12-12 12:00;CYQF 121200Z 01010KT 10SM OVC008 M13/M16 A2964 RMK ST8 SLP096

CYQF;2012-12-12 13:00;CYQF 121300Z 36006KT 10SM OVC008 M14/M16 A2967 RMK ST8 SLP105

CYQF;2012-12-12 13:32;CYQF 121332Z 02007KT 10SM -SN OVC008 RMK ST8

CYQF;2012-12-12 14:00;CYQF 121400Z 36006KT 10SM -SN OVC008 M14/M16 A2969 RMK ST8 SLP112

CYQF;2012-12-12 15:00;CYQF 121500Z 35007KT 10SM -SN OVC012 M14/M16 A2971 RMK SC8 SLP121

CYQF;2012-12-12 15:15;CYQF 121515Z 34002KT 6SM -SN BR OVC009 RMK SC8

CYQF;2012-12-12 16:00;CYQF 121600Z 01004KT 6SM -SN BR OVC009 M14/M16 A2972 RMK ST8 SLP124

CYQF;2012-12-12 17:00;CYQF 121700Z 02003KT 6SM -SN BR SCT009 OVC020 M13/M16 A2974 RMK ST3SC5 SLP130

CYQF;2012-12-12 18:00;CYQF 121800Z 00000KT 8SM -SN BKN010 OVC030 M13/M16 A2975 RMK ST6SC2 SLP134

CYQF;2012-12-12 19:00;CYQF 121900Z 00000KT 8SM -SN BKN010 OVC030 M12/M15 A2976 RMK ST6SC2 SN VRY LGT SLP136

CYQF;2012-12-12 20:00;CYQF 122000Z 15004KT 8SM -SN OVC025 M12/M16 A2975 RMK SC8 PCPN VRY LGT SLP133

CYQF;2012-12-12 21:00;CYQF 122100Z 00000KT 10SM OVC025 M12/M15 A2975 RMK SC8 SLP138

CYQF;2012-12-12 22:00;CYQF 122200Z 15004KT 10SM FEW012 BKN020 OVC050 M12/M15 A2976 RMK ST2SC5SC1 SLP140

CYQF;2012-12-12 23:00;CYQF 122300Z 15002KT 10SM FEW012 OVC020 M12/M15 A2977 RMK ST2SC6 SLP144

CYQF;2012-12-13 00:00;CYQF 130000Z 17006KT 10SM SCT020 BKN050 M12/M15 A2977 RMK SC3SC3 SLP149

CYQF;2012-12-13 01:00;CYQF 130100Z 18008KT 15SM FEW040 SCT100 BKN250 M15/M18 A2976 RMK SC2AC2CI2 SLP148

CYQF;2012-12-13 02:00;CYQF 130200Z 19007KT 15SM SCT100 BKN250 M15/M18 A2975 RMK AC4CI2 SLP144

CYQF;2012-12-13 03:00;CYQF 130300Z 17005KT 15SM BKN009 BKN100 M15/M17 A2975 RMK ST5AC2 SLP146

CYQF;2012-12-13 04:00;CYQF 130400Z 18008KT 10SM FEW007 OVC009 M15/M17 A2975 RMK ST2ST6 SLP144

CYQF;2012-12-13 05:00;CYQF 130500Z 15005KT 10SM OVC005 M15/M17 A2974 RMK ST8 CIG RAG SLP143

CYQF;2012-12-13 05:36;CYQF 130536Z 15006KT 5SM BR OVC003 M16/M18 RMK ST7 CIG RAG

CYQF;2012-12-13 06:00;CYQF 130600Z 15006KT 3SM BR OVC002 M16/M17 A2973 RMK ST8 SLP139

CYQF;2012-12-13 06:13;CYQF 130613Z 16008KT 1SM BR VV004 RMK FG8 VIS W 11/2

CYQF;2012-12-13 06:29;CYQF 130629Z 18006KT 1/4SM FZFG VV001 RMK FG8

CYQF;2012-12-13 06:44;CYQF 130644Z 18007KT 6SM BR BKN002 RMK SF7

CYQF;2012-12-13 07:00;CYQF 130700Z 18007KT 10SM BKN002 M17/M18 A2972 RMK SF6 SLP137

CYQF;2012-12-13 08:00;CYQF 130800Z 18005KT 15SM SKC M19/M21 A2971 RMK SLP133

CYQF;2012-12-13 09:00;CYQF 130900Z 19004KT 15SM SKC M19/M21 A2968 RMK OBS TAKEN +08 SLP126

CYQF;2012-12-13 10:00;CYQF 131000Z 18003KT 15SM SKC M20/M21 A2967 RMK SLP122

CYQF;2012-12-13 11:00;CYQF 131100Z 19004KT 15SM SKC M21/M22 A2964 RMK SLP112

CYQF;2012-12-13 12:00;CYQF 131200Z 20003KT 15SM SKC M20/M22 A2963 RMK SLP107

CYQF;2012-12-13 13:00;CYQF 131300Z 22003KT 15SM SKC M21/M22 A2961 RMK SLP103

CYQF;2012-12-13 14:00;CYQF 131400Z 23004KT 15SM SKC M22/M24 A2960 RMK SLP099

CYQF;2012-12-13 15:00;CYQF 131500Z 25003KT 15SM SKC M22/M24 A2957 RMK SLP094

CYQF;2012-12-13 16:00;CYQF 131600Z 19004KT 12SM SCT250 M21/M23 A2957 RMK CI1 SLP093

CYQF;2012-12-13 17:00;CYQF 131700Z 20004KT 12SM FEW100 BKN230 M18/M20 A2955 RMK AC1CI3 SLP086

CYQF;2012-12-13 18:00;CYQF 131800Z 20003KT 15SM FEW100 BKN230 M16/M18 A2953 RMK AC1CI1 SLP073

CYQF;2012-12-13 19:00;CYQF 131900Z 21003KT 15SM FEW100 BKN250 M13/M15 A2951 RMK AC1CI3 SLP067

CYQF;2012-12-13 20:00;CYQF 132000Z 19004KT 15SM FEW100 BKN250 M10/M14 A2948 RMK AC2CI2 SLP057

CYQF;2012-12-13 21:00;CYQF 132100Z 20003KT 15SM SCT100 BKN250 M08/M13 A2947 RMK AC3CI2 SLP048

CYQF;2012-12-13 22:00;CYQF 132200Z 00000KT 15SM SCT100 BKN250 M07/M13 A2946 RMK AC3CI2 SLP045

CYQF;2012-12-13 23:00;CYQF 132300Z 00000KT 15SM SCT100 BKN250 M09/M13 A2947 RMK AC3CI2 SLP047

CYQF;2012-12-14 00:00;CYQF 140000Z 00000KT 15SM FEW100 BKN250 M10/M13 A2947 RMK AC2CI1 SLP049

CYQF;2012-12-14 01:00;CYQF 140100Z 00000KT 15SM FEW100 M12/M14 A2946 RMK AC2 SLP048

CYQF;2012-12-14 02:00;CYQF 140200Z 23003KT 15SM FEW100 M13/M15 A2947 RMK AC2 SLP050

CYQF;2012-12-14 03:00;CYQF 140300Z 00000KT 15SM BKN100 M14/M17 A2947 RMK AC3 SLP057

CYQF;2012-12-14 04:00;CYQF 140400Z 22002KT 15SM BKN090 M11/M14 A2947 RMK AC6 SLP056

CYQF;2012-12-14 05:00;CYQF 140500Z 24002KT 15SM BKN090 M11/M13 A2947 RMK AC6 SLP057

CYQF;2012-12-14 06:00;CYQF 140600Z 27002KT 15SM SCT090 OVC220 M10/M13 A2947 RMK AC4CI3 SLP045

CYQF;2012-12-14 07:00;CYQF 140700Z 21004KT 15SM BKN070 OVC220 M08/M12 A2947 RMK AC6CI2 SLP046

CYQF;2012-12-14 08:00;CYQF 140800Z 19005KT 15SM BKN040 OVC070 M07/M10 A2948 RMK SC5AS3 SLP049

CYQF;2012-12-14 09:00;CYQF 140900Z 22003KT 15SM BKN040 OVC070 M06/M09 A2948 RMK SC5AS3 SLP035

CYQF;2012-12-14 10:00;CYQF 141000Z 21003KT 15SM FEW040 BKN070 OVC220 M06/M09 A2947 RMK SC2AS3CI3 OBS TAKEN +10 SLP034

CYQF;2012-12-14 11:00;CYQF 141100Z 00000KT 15SM FEW070 OVC220 M06/M09 A2947 RMK AC2CI6 SLP033

CYQF;2012-12-14 12:00;CYQF 141200Z 19005KT 15SM FEW070 OVC220 M07/M10 A2947 RMK AC1CI7 SLP035

CYQF;2012-12-14 13:00;CYQF 141300Z 21005KT 15SM OVC220 M07/M10 A2947 RMK CI8 SLP036

CYQF;2012-12-14 14:00;CYQF 141400Z 19003KT 15SM BKN220 M08/M11 A2948 RMK CI7 SLP038

CYQF;2012-12-14 15:00;CYQF 141500Z 21002KT 15SM BKN220 M09/M11 A2949 RMK CI7 SLP049

CYQF;2012-12-14 16:00;CYQF 141600Z 19003KT 15SM BKN100 BKN250 M10/M12 A2950 RMK AC3CI2 SLP052

CYQF;2012-12-14 17:00;CYQF 141700Z 21003KT 15SM BKN100 BKN250 M10/M13 A2953 RMK AC5CI2 SLP061

CYQF;2012-12-14 18:00;CYQF 141800Z 18003KT 15SM SCT100 BKN250 M08/M11 A2955 RMK AC2CI3 SLP064

CYQF;2012-12-14 19:00;CYQF 141900Z 19004KT 15SM SCT100 BKN250 M08/M11 A2956 RMK AC2CI3 SLP065

CYQF;2012-12-14 20:00;CYQF 142000Z 20003KT 15SM SCT100 BKN250 M07/M11 A2956 RMK AC4CI2 SLP066

CYQF;2012-12-14 21:00;CYQF 142100Z 00000KT 15SM BKN100 BKN250 M05/M09 A2958 RMK AC5CI2 SLP066

CYQF;2012-12-14 22:00;CYQF 142200Z 00000KT 15SM BKN100 BKN250 M05/M10 A2959 RMK AS6CI1 VIRGA SLP071

CYQF;2012-12-14 23:00;CYQF 142300Z 00000KT 15SM BKN100 BKN250 M05/M10 A2962 RMK AC2CI2 SLP078

CYQF;2012-12-15 00:00;CYQF 150000Z 35013G20KT 15SM BKN060 BKN100 M04/M08 A2966 RMK SC6AC2 SLP094

CYQF;2012-12-15 00:11;CYQF 150011Z 36010G15KT 2SM -SHSN OVC060 RMK SN3SC5

CYQF;2012-12-15 00:42;CYQF 150042Z 01008KT 5SM -SHSN OVC060 RMK SN2SC6

CYQF;2012-12-15 01:00;CYQF 150100Z 36010G15KT 10SM -SHSN BKN060 OVC100 M04/M06 A2968 RMK SC6AC2 SLP101

CYQF;2012-12-15 01:34;CYQF 150134Z 28005KT 15SM VCSH SCT060 BKN100 RMK SC3AC3

CYQF;2012-12-15 02:00;CYQF 150200Z 30006KT 15SM SCT060 BKN100 M05/M08 A2970 RMK SC3AC2 SLP105

CYQF;2012-12-15 03:00;CYQF 150300Z 30006KT 15SM BKN060 M05/M08 A2971 RMK SC6 SLP113

CYQF;2012-12-15 04:00;CYQF 150400Z 24005KT 15SM SCT060 M07/M10 A2970 RMK SC4 SLP110

CYQF;2012-12-15 05:00;CYQF 150500Z 25008KT 15SM FEW060 SCT100 M09/M10 A2970 RMK SC2AC2 SLP111

CYQF;2012-12-15 06:00;CYQF 150600Z 22007KT 15SM FEW100 M11/M12 A2971 RMK AC2 SLP120

CYQF;2012-12-15 07:00;CYQF 150700Z 21006KT 3SM BR FEW100 M12/M13 A2971 RMK AC2 SLP121

CYQF;2012-12-15 07:14;CYQF 150714Z 20006KT 1 1/2SM BR SCT100 RMK FG2AC2

CYQF;2012-12-15 07:49;CYQF 150749Z 21006KT 3SM BR FEW100 RMK AC2 VIS SE-SW 10

CYQF;2012-12-15 08:00;CYQF 150800Z 21005KT 10SM FEW100 M14/M15 A2971 RMK AC2 BCFG SLP121

CYQF;2012-12-15 09:00;CYQF 150900Z 20005KT 10SM FEW100 M15/M16 A2971 RMK AC2 BCFG SLP122

CYQF;2012-12-15 10:00;CYQF 151000Z 19006KT 15SM SKC M17/M18 A2970 RMK BCFG SLP120

CYQF;2012-12-15 11:00;CYQF 151100Z 18005KT 15SM SKC M13/M15 A2968 RMK SLP114

CYQF;2012-12-15 12:00;CYQF 151200Z 18005KT 15SM SKC M13/M15 A2967 RMK SLP104

CYQF;2012-12-15 13:00;CYQF 151300Z 18006KT 15SM SKC M16/M17 A2965 RMK SLP098

CYQF;2012-12-15 14:00;CYQF 151400Z 20006KT 15SM SKC M16/M18 A2964 RMK SLP095

CYQF;2012-12-15 15:00;CYQF 151500Z 19005KT 15SM FEW220 M14/M16 A2961 RMK CI1 SLP086

CYQF;2012-12-15 16:00;CYQF 151600Z 18005KT 15SM FEW220 M15/M17 A2960 RMK CI2 SLP084

CYQF;2012-12-15 17:00;CYQF 151700Z 16005KT 15SM FEW220 M14/M16 A2958 RMK CI2 SLP078

CYQF;2012-12-15 18:00;CYQF 151800Z 20005KT 15SM SCT220 M14/M16 A2957 RMK CI1 SLP078

CYQF;2012-12-15 19:00;CYQF 151900Z 16006KT 15SM SCT220 M12/M13 A2954 RMK CI2 SLP069

CYQF;2012-12-15 20:00;CYQF 152000Z 15002KT 15SM BKN220 M12/M13 A2951 RMK CI3 SLP060

CYQF;2012-12-15 21:00;CYQF 152100Z 15008KT 15SM FEW120 BKN220 M11/M14 A2948 RMK AC2CI5 SLP049

CYQF;2012-12-15 22:00;CYQF 152200Z 18003KT 15SM FEW120 BKN220 M09/M14 A2946 RMK AC2CI4 SLP043

CYQF;2012-12-15 23:00;CYQF 152300Z 16004KT 15SM FEW120 BKN220 M11/M15 A2944 RMK AC2CI2 SLP037

CYQF;2012-12-16 00:00;CYQF 160000Z 00000KT 15SM FEW120 BKN220 M13/M16 A2943 RMK AC2CI3 SLP030

CYQF;2012-12-16 01:00;CYQF 160100Z 16008KT 15SM BKN100 BKN220 M12/M15 A2940 RMK AC5CI1 SLP021

CYQF;2012-12-16 02:00;CYQF 160200Z 16005KT 15SM BKN120 BKN220 M11/M15 A2937 RMK AC5CI2 SLP014

CYQF;2012-12-16 03:00;CYQF 160300Z 15007KT 15SM BKN120 BKN220 M12/M15 A2935 RMK AC5CI2 SLP003

CYQF;2012-12-16 04:00;CYQF 160400Z 18003KT 15SM SCT120 BKN220 M12/M15 A2933 RMK AC4CI2 SLP997

CYQF;2012-12-16 05:00;CYQF 160500Z 19003KT 15SM SCT120 OVC220 M11/M15 A2931 RMK AC4CI4 SLP990

CYQF;2012-12-16 06:00;CYQF 160600Z 00000KT 15SM BKN100 OVC220 M09/M13 A2930 RMK AC6CI2 SLP982

CYQF;2012-12-16 07:00;CYQF 160700Z 20004KT 15SM SCT100 OVC220 M12/M15 A2928 RMK AC3CI5 SLP978

CYQF;2012-12-16 08:00;CYQF 160800Z 18004KT 15SM SCT100 OVC220 M09/M13 A2928 RMK AC3CI5 SLP976

CYQF;2012-12-16 09:00;CYQF 160900Z 19003KT 15SM SCT100 OVC220 M10/M13 A2927 RMK AC3CI5 SLP970

CYQF;2012-12-16 10:00;CYQF 161000Z 19004KT 15SM SCT100 OVC220 M09/M13 A2928 RMK AC3CI5 SLP973

CYQF;2012-12-16 11:00;CYQF 161100Z 21006KT 15SM SCT100 OVC220 M11/M14 A2929 RMK AC3CI5 SLP976

CYQF;2012-12-16 12:00;CYQF 161200Z 00000KT 15SM SCT100 OVC220 M12/M15 A2929 RMK AC3CI5 SLP981

CYQF;2012-12-16 13:00;CYQF 161300Z 22007KT 15SM SCT100 OVC220 M13/M15 A2930 RMK AC3CI5 SLP985

CYQF;2012-12-16 14:00;CYQF 161400Z 24007KT 15SM SCT100 OVC220 M12/M16 A2932 RMK AC3CI4 SLP990

CYQF;2012-12-16 15:00;CYQF 161500Z 00000KT 15SM SCT100 OVC220 M13/M16 A2934 RMK AC3CI4 SLP999

CYQF;2012-12-16 16:00;CYQF 161600Z 17003KT 15SM SCT100 BKN220 M14/M16 A2936 RMK AC3CI3 SLP003

CYQF;2012-12-16 17:00;CYQF 161700Z 17005KT 15SM SCT100 BKN220 M12/M15 A2937 RMK AC3CI4 SLP009

CYQF;2012-12-16 18:00;CYQF 161800Z 21005KT 15SM BKN120 BKN220 M12/M15 A2938 RMK AS5CI2 SLP010

CYQF;2012-12-16 19:00;CYQF 161900Z 21006KT 15SM FEW120 BKN220 M09/M14 A2938 RMK AC2CI5 SLP010

CYQF;2012-12-16 20:00;CYQF 162000Z 20002KT 15SM FEW120 BKN220 M07/M14 A2939 RMK AC1CI3 SLP011

CYQF;2012-12-16 21:00;CYQF 162100Z 18005KT 15SM FEW100 SCT220 M06/M13 A2939 RMK AC1CI2 SLP007

CYQF;2012-12-16 22:00;CYQF 162200Z 22003KT 15SM FEW100 M06/M13 A2939 RMK AC1 SLP007

CYQF;2012-12-16 23:00;CYQF 162300Z 17003KT 15SM FEW100 M11/M18 A2940 RMK AC1 SLP010

CYQF;2012-12-17 00:00;CYQF 170000Z 22003KT 15SM FEW100 M12/M15 A2941 RMK AC1 SLP023

CYQF;2012-12-17 01:00;CYQF 170100Z 21002KT 15SM SKC M13/M16 A2942 RMK SLP024

CYQF;2012-12-17 02:00;CYQF 170200Z 00000KT 15SM SKC M15/M18 A2942 RMK SLP026

CYQF;2012-12-17 03:00;CYQF 170300Z 00000KT 15SM SKC M17/M19 A2941 RMK SLP029

CYQF;2012-12-17 04:00;CYQF 170400Z 00000KT 15SM SKC M17/M20 A2939 RMK SLP023

CYQF;2012-12-17 05:00;CYQF 170500Z 21003KT 15SM SKC M19/M20 A2938 RMK SLP020

CYQF;2012-12-17 06:00;CYQF 170600Z 00000KT 15SM SKC M18/M21 A2935 RMK SLP007

CYQF;2012-12-17 07:00;CYQF 170700Z 19002KT 15SM SKC M19/M22 A2933 RMK SLP003

CYQF;2012-12-17 08:00;CYQF 170800Z 21002KT 15SM SKC M17/M19 A2931 RMK SLP997

CYQF;2012-12-17 09:00;CYQF 170900Z 00000KT 15SM SKC M18/M20 A2931 RMK SLP986

CYQF;2012-12-17 10:00;CYQF 171000Z 20002KT 15SM SKC M19/M22 A2929 RMK SLP981

CYQF;2012-12-17 11:00;CYQF 171100Z 00000KT 15SM SKC M17/M19 A2924 RMK SLP966

CYQF;2012-12-17 12:00;CYQF 171200Z 00000KT 15SM SKC M17/M19 A2922 RMK SLP962

CYQF;2012-12-17 13:00;CYQF 171300Z 17006KT 15SM SKC M16/M19 A2923 RMK SLP964

CYQF;2012-12-17 14:00;CYQF 171400Z 14005KT 15SM BKN240 M12/M15 A2923 RMK CI6 SLP963

CYQF;2012-12-17 14:40;CYQF 171440Z 00000KT 10SM -SN BKN075 OVC240 RMK AC5CI3

CYQF;2012-12-17 15:00;CYQF 171500Z 12003KT 8SM -SN OVC070 M11/M14 A2922 RMK AC8 SLP960

CYQF;2012-12-17 16:00;CYQF 171600Z 11003KT 8SM -SN OVC070 M09/M12 A2920 RMK AC8 SLP955

CYQF;2012-12-17 17:00;CYQF 171700Z 00000KT 8SM -SN OVC070 M08/M10 A2920 RMK AS7 SLP955

CYQF;2012-12-17 18:00;CYQF 171800Z 35002KT 4SM -SN OVC070 M07/M08 A2921 RMK AS8 SLP953

CYQF;2012-12-17 19:00;CYQF 171900Z 09008KT 1 1/2SM -SN OVC070 M07/M08 A2920 RMK SN2AS6 SLP950

CYQF;2012-12-17 19:23;CYQF 171923Z 09006KT 6SM -SN FEW030 OVC070 RMK SC1AS7

CYQF;2012-12-17 20:00;CYQF 172000Z 07005KT 12SM -SN FEW030 BKN070 OVC220 M06/M08 A2920 RMK SC1AC4CI2 SLP950

CYQF;2012-12-17 20:31;CYQF 172031Z 09010KT 15SM FEW030 BKN060 BKN220 RMK SC1SC5CI2

CYQF;2012-12-17 21:00;CYQF 172100Z 09008KT 15SM FEW030 BKN060 BKN220 M06/M08 A2920 RMK SC1SC5CI1 SLP948

CYQF;2012-12-17 22:00;CYQF 172200Z 04002KT 15SM FEW030 BKN060 BKN220 M07/M09 A2921 RMK SC1SC5CI1 SLP953

CYQF;2012-12-17 23:00;CYQF 172300Z 35005KT 15SM BKN060 OVC220 M07/M09 A2924 RMK SC5CI3 SLP961

CYQF;2012-12-18 00:00;CYQF 180000Z 03004KT 15SM SCT100 BKN220 M07/M09 A2925 RMK AC3CI3 SLP967

CYQF;2012-12-18 01:00;CYQF 180100Z 36003KT 15SM SCT013 OVC040 M08/M10 A2928 RMK SC3SC4 SLP975

CYQF;2012-12-18 01:20;CYQF 180120Z 01002KT 10SM -SN FEW013 BKN040 RMK SC2SC2

CYQF;2012-12-18 02:00;CYQF 180200Z 35004KT 10SM -SN SCT015 OVC040 M09/M10 A2931 RMK SC4SC3 SLP985

CYQF;2012-12-18 03:00;CYQF 180300Z 02006KT 6SM -SN SCT015 BKN040 OVC100 M09/M10 A2933 RMK SC3SC3AC1 SLP990

CYQF;2012-12-18 04:00;CYQF 180400Z 36008KT 6SM -SN FEW015 BKN040 OVC100 M09/M11 A2936 RMK SC2SC3AC2 SLP999

CYQF;2012-12-18 05:00;CYQF 180500Z 36006KT 3SM -SN BKN040 OVC100 M10/M12 A2939 RMK SC5AC2 SLP008

CYQF;2012-12-18 06:00;CYQF 180600Z 35004KT 6SM -SN SCT030 BKN100 M10/M12 A2942 RMK SC3AC2 SLP019

CYQF;2012-12-18 07:00;CYQF 180700Z 35003KT 10SM -SN SCT030 BKN100 M09/M11 A2945 RMK SC4AC2 SLP027

CYQF;2012-12-18 08:00;CYQF 180800Z 34008KT 6SM -SN SCT030 OVC100 M09/M11 A2947 RMK SC4AC3 SLP034

CYQF;2012-12-18 09:00;CYQF 180900Z 33005KT 10SM -SN BKN022 OVC100 M10/M13 A2950 RMK SC6AC2 SLP043

CYQF;2012-12-18 10:00;CYQF 181000Z 34007KT 6SM -SN BKN022 OVC100 M11/M14 A2953 RMK SC6AC1 SLP052

CYQF;2012-12-18 11:00;CYQF 181100Z 34003KT 10SM -SN OVC020 M12/M14 A2955 RMK SC7 SLP060

CYQF;2012-12-18 12:00;CYQF 181200Z 32008KT 10SM -SN OVC020 M11/M14 A2957 RMK SC8 SLP072

CYQF;2012-12-18 13:00;CYQF 181300Z 33010G15KT 10SM -SN OVC020 M11/M14 A2959 RMK SC8 SLP079

CYQF;2012-12-18 14:00;CYQF 181400Z 31005KT 12SM -SN BKN020 M13/M16 A2962 RMK SC7 SLP087

CYQF;2012-12-18 15:00;CYQF 181500Z 33004KT 12SM FEW020 SCT090 BKN220 M15/M17 A2964 RMK SC2AC2CI2 SLP100

CYQF;2012-12-18 16:00;CYQF 181600Z 33003KT 10SM SCT100 BKN220 M15/M17 A2965 RMK AC3CI2 SLP105

CYQF;2012-12-18 17:00;CYQF 181700Z 32003KT 12SM FEW030 SCT100 BKN220 M14/M17 A2967 RMK SC1AS3CI2 SLP110

CYQF;2012-12-18 18:00;CYQF 181800Z 33003KT 15SM BKN100 BKN220 M13/M16 A2968 RMK AS5CI2 SLP116

CYQF;2012-12-18 19:00;CYQF 181900Z 33006KT 15SM FEW100 BKN220 M13/M16 A2968 RMK AC2CI1 SLP116

CYQF;2012-12-18 20:00;CYQF 182000Z 28004KT 15SM FEW100 BKN220 M12/M16 A2968 RMK AC2CI2 SLP116

CYQF;2012-12-18 21:00;CYQF 182100Z 27002KT 15SM SCT100 BKN230 M11/M15 A2968 RMK AC2CI2 SLP113

CYQF;2012-12-18 22:00;CYQF 182200Z 27002KT 15SM FEW030 BKN230 M12/M16 A2970 RMK SC1CI3 SLP118

CYQF;2012-12-18 23:00;CYQF 182300Z 00000KT 15SM FEW030 BKN220 M13/M17 A2971 RMK SC1CI3 SLP121

CYQF;2012-12-19 00:00;CYQF 190000Z 00000KT 15SM FEW030 SCT220 M17/M20 A2972 RMK SC1CI2 SLP136

CYQF;2012-12-19 01:00;CYQF 190100Z 20003KT 15SM FEW030 FEW220 M19/M21 A2973 RMK SC1CI2 SLP139

CYQF;2012-12-19 02:00;CYQF 190200Z 20005KT 15SM SKC M21/M25 A2974 RMK SLP142

CYQF;2012-12-19 03:00;CYQF 190300Z 20004KT 15SM SKC M20/M23 A2975 RMK SLP151

CYQF;2012-12-19 04:00;CYQF 190400Z 20004KT 15SM SKC M22/M25 A2974 RMK SLP150

CYQF;2012-12-19 05:00;CYQF 190500Z 19003KT 15SM SKC M21/M23 A2974 RMK SLP149

CYQF;2012-12-19 06:00;CYQF 190600Z 20003KT 15SM SKC M22/M26 A2975 RMK SLP152

CYQF;2012-12-19 07:00;CYQF 190700Z 00000KT 15SM SKC M22/M25 A2975 RMK SLP152

CYQF;2012-12-19 08:00;CYQF 190800Z 26004KT 15SM SKC M22/M25 A2975 RMK SLP152

CYQF;2012-12-19 09:00;CYQF 190900Z 00000KT 15SM SKC M25/M28 A2975 RMK SLP152

CYQF;2012-12-19 10:00;CYQF 191000Z 00000KT 15SM SKC M24/M28 A2974 RMK SLP150

CYQF;2012-12-19 11:00;CYQF 191100Z 20003KT 15SM SKC M24/M27 A2973 RMK SLP147

CYQF;2012-12-19 12:00;CYQF 191200Z 00000KT 15SM SKC M22/M25 A2973 RMK SLP151

CYQF;2012-12-19 13:00;CYQF 191300Z 00000KT 15SM SKC M23/M27 A2972 RMK SLP149

CYQF;2012-12-19 14:00;CYQF 191400Z 23002KT 15SM SKC M23/M27 A2973 RMK SLP152

CYQF;2012-12-19 15:00;CYQF 191500Z 19004KT 15SM FEW090 M23/M26 A2973 RMK AC1 SLP156

CYQF;2012-12-19 16:00;CYQF 191600Z 20003KT 15SM FEW090 FEW250 M24/M27 A2974 RMK AC1CI0 SLP159

CYQF;2012-12-19 17:00;CYQF 191700Z 00000KT 15SM FEW090 FEW250 M23/M26 A2974 RMK AC1CI0 SLP158

CYQF;2012-12-19 18:00;CYQF 191800Z 00000KT 15SM FEW090 FEW250 M20/M23 A2973 RMK AC1CI1 SLP154

CYQF;2012-12-19 19:00;CYQF 191900Z 00000KT 15SM FEW090 SCT250 M18/M19 A2972 RMK AC1CI1 SLP151

CYQF;2012-12-19 20:00;CYQF 192000Z 00000KT 15SM FEW090 SCT250 M15/M18 A2970 RMK AC1CI2 SLP147

CYQF;2012-12-19 21:00;CYQF 192100Z 00000KT 15SM FEW090 SCT250 M14/M17 A2970 RMK AC1CI2 SLP139

CYQF;2012-12-19 22:00;CYQF 192200Z 15003KT 15SM FEW090 SCT250 M14/M17 A2969 RMK AC1CI2 SLP137

CYQF;2012-12-19 23:00;CYQF 192300Z 16004KT 15SM FEW090 SCT250 M13/M19 A2969 RMK AC1CI1 SLP136

CYQF;2012-12-20 00:00;CYQF 200000Z 15005KT 15SM FEW090 SCT250 M14/M21 A2968 RMK AC1CI1 SLP131

CYQF;2012-12-20 01:00;CYQF 200100Z 16005KT 15SM SCT250 M14/M20 A2967 RMK CI1 SLP128

CYQF;2012-12-20 02:00;CYQF 200200Z 16008KT 15SM SCT250 M15/M21 A2967 RMK CI1 SLP128

CYQF;2012-12-20 03:00;CYQF 200300Z 15007KT 15SM SCT250 M14/M19 A2966 RMK CI2 SLP125

CYQF;2012-12-20 04:00;CYQF 200400Z 14008KT 15SM BKN250 M14/M19 A2965 RMK CI6 SLP119

CYQF;2012-12-20 05:00;CYQF 200500Z 15012KT 15SM SCT100 OVC250 M14/M18 A2965 RMK AC3CI4 SLP119

CYQF;2012-12-20 06:00;CYQF 200600Z 15005KT 15SM SCT100 OVC250 M13/M18 A2963 RMK AC3CI4 SLP111

CYQF;2012-12-20 07:00;CYQF 200700Z 17009KT 15SM BKN100 M14/M18 A2964 RMK AC7 SLP112

CYQF;2012-12-20 08:00;CYQF 200800Z 16008KT 15SM BKN100 M12/M17 A2962 RMK AC6 SLP108

CYQF;2012-12-20 09:00;CYQF 200900Z 13010KT 15SM BKN100 M13/M17 A2961 RMK AC7 SLP096

CYQF;2012-12-20 10:00;CYQF 201000Z 11006KT 15SM BKN100 M13/M18 A2962 RMK AC6 SLP097

CYQF;2012-12-20 11:00;CYQF 201100Z 14005KT 15SM BKN100 M12/M17 A2961 RMK AC7 SLP094

CYQF;2012-12-20 12:00;CYQF 201200Z 03006KT 15SM OVC100 M14/M18 A2962 RMK AC8 SLP099

CYQF;2012-12-20 13:00;CYQF 201300Z 00000KT 15SM FEW100 M16/M19 A2963 RMK AC2 SLP103

CYQF;2012-12-20 14:00;CYQF 201400Z 00000KT 15SM SCT100 M15/M19 A2966 RMK AC3 SLP111

CYQF;2012-12-20 15:00;CYQF 201500Z 32004KT 15SM BKN100 M15/M18 A2966 RMK AC6 SLP113

CYQF;2012-12-20 16:00;CYQF 201600Z 00000KT 15SM BKN100 BKN230 M15/M18 A2964 RMK AC5CI2 SLP109

CYQF;2012-12-20 17:00;CYQF 201700Z 19003KT 15SM BKN100 OVC250 M15/M18 A2964 RMK AC5CI2 SLP109

CYQF;2012-12-20 18:00;CYQF 201800Z 00000KT 15SM BKN100 OVC250 M13/M17 A2963 RMK AC5CI2 SLP103

CYQF;2012-12-20 19:00;CYQF 201900Z 00000KT 15SM BKN100 BKN250 M12/M17 A2961 RMK AC5CI2 SLP095

CYQF;2012-12-20 20:00;CYQF 202000Z 02005KT 15SM BKN100 OVC250 M12/M16 A2961 RMK AC6CI2 VIRGA SLP096

CYQF;2012-12-20 21:00;CYQF 202100Z 36004KT 12SM SCT100 BKN250 M11/M15 A2958 RMK AC3CI4 VIRGA SLP082

CYQF;2012-12-20 22:00;CYQF 202200Z 01007KT 12SM BKN100 OVC250 M10/M15 A2957 RMK AC5CI2 SLP079

CYQF;2012-12-20 23:00;CYQF 202300Z 01008KT 12SM BKN090 BKN250 M12/M16 A2959 RMK AC5CI2 SLP085

CYQF;2012-12-21 00:00;CYQF 210000Z 02010G15KT 15SM BKN090 BKN250 M14/M18 A2960 RMK AC5CI2 SLP094

CYQF;2012-12-21 01:00;CYQF 210100Z 01010G15KT 15SM BKN090 BKN250 M15/M19 A2966 RMK AC5CI2 SLP112

CYQF;2012-12-21 02:00;CYQF 210200Z 34010G16KT 15SM BKN080 BKN250 M16/M20 A2969 RMK AC5CI2 SLP121

CYQF;2012-12-21 03:00;CYQF 210300Z 33010G15KT 15SM BKN080 M17/M21 A2971 RMK AC6 SLP134

CYQF;2012-12-21 04:00;CYQF 210400Z 32011KT 15SM FEW080 M17/M21 A2971 RMK AC2 SLP136

CYQF;2012-12-21 05:00;CYQF 210500Z 30008KT 15SM FEW080 M18/M22 A2973 RMK AC1 SLP142

CYQF;2012-12-21 06:00;CYQF 210600Z 32008KT 15SM SKC M18/M22 A2975 RMK SLP148

CYQF;2012-12-21 07:00;CYQF 210700Z 31008KT 15SM FEW020 M18/M22 A2976 RMK SC2 SLP154

CYQF;2012-12-21 08:00;CYQF 210800Z 31008KT 12SM -SN OVC013 M17/M21 A2977 RMK ST8 SLP156

CYQF;2012-12-21 09:00;CYQF 210900Z 33010KT 12SM -SN OVC013 M16/M20 A2980 RMK ST8 SLP160

CYQF;2012-12-21 10:00;CYQF 211000Z 34010KT 12SM -SN OVC013 M16/M20 A2982 RMK ST8 SLP166

CYQF;2012-12-21 11:00;CYQF 211100Z 33007KT 12SM -SN OVC013 M16/M19 A2984 RMK ST8 SLP173

CYQF;2012-12-21 12:00;CYQF 211200Z 31008KT 15SM OVC014 M16/M20 A2986 RMK ST8 SLP186

CYQF;2012-12-21 13:00;CYQF 211300Z 31010KT 15SM FEW014 M17/M22 A2988 RMK ST2 SLP193

CYQF;2012-12-21 14:00;CYQF 211400Z 32010G15KT 15SM SCT014 BKN220 M18/M22 A2992 RMK ST3CI3 SLP204

CYQF;2012-12-21 15:00;CYQF 211500Z 32008KT 15SM FEW015 SCT200 M18/M23 A2995 RMK SF1CI2 SLP223

CYQF;2012-12-21 16:00;CYQF 211600Z 31008KT 15SM FEW010 FEW030 SCT120 BKN200 M19/M24 A2998 RMK SC1SC1AC2CI1 CU EMBD SLP233

CYQF;2012-12-21 17:00;CYQF 211700Z 32010KT 15SM FEW010 FEW025 SCT120 BKN200 M19/M24 A3000 RMK SC1SC1AC2CI1 SLP239

CYQF;2012-12-21 18:00;CYQF 211800Z 33010KT 15SM FEW020 BKN200 M18/M23 A3002 RMK SC2CI2 SLP249

CYQF;2012-12-21 19:00;CYQF 211900Z 32010G15KT 15SM BKN020 M18/M23 A3004 RMK SC3 SLP255

CYQF;2012-12-21 20:00;CYQF 212000Z 33006KT 15SM FEW020 M18/M23 A3005 RMK SC1 SLP257

CYQF;2012-12-21 21:00;CYQF 212100Z 33010KT 15SM FEW020 FEW200 M18/M24 A3006 RMK SC1CI1 SLP261

CYQF;2012-12-21 22:00;CYQF 212200Z 34006KT 15SM FEW200 M18/M24 A3009 RMK CI1 SLP268

CYQF;2012-12-21 23:00;CYQF 212300Z 36006KT 15SM FEW200 M19/M25 A3009 RMK CI0 SLP268

CYQF;2012-12-22 00:00;CYQF 220000Z 36004KT 15SM FEW100 FEW220 M19/M26 A3012 RMK AC1CI0 SLP281

CYQF;2012-12-22 01:00;CYQF 220100Z 32003KT 15SM SCT100 M21/M27 A3015 RMK AC2 SLP291

CYQF;2012-12-22 02:00;CYQF 220200Z 00000KT 15SM BKN100 M21/M26 A3016 RMK AC3 SLP295

CYQF;2012-12-22 03:00;CYQF 220300Z 00000KT 15SM SCT100 M22/M27 A3016 RMK AC2 SLP301

CYQF;2012-12-22 04:00;CYQF 220400Z 27004KT 15SM SCT100 M25/M30 A3018 RMK AC2 SLP308

CYQF;2012-12-22 05:00;CYQF 220500Z 36005KT 15SM BKN090 M21/M27 A3016 RMK AC5 SLP303

CYQF;2012-12-22 06:00;CYQF 220600Z 35004KT 15SM SCT090 BKN220 M23/M28 A3017 RMK AC3CI2 SLP307

CYQF;2012-12-22 07:00;CYQF 220700Z 01004KT 15SM SCT090 BKN220 M22/M27 A3016 RMK AC3CI3 SLP305

CYQF;2012-12-22 08:00;CYQF 220800Z 36003KT 15SM BKN090 OVC220 M22/M27 A3017 RMK AC5CI2 SLP308

CYQF;2012-12-22 09:00;CYQF 220900Z 00000KT 12SM -SN OVC090 M21/M27 A3018 RMK AC8 SLP307

CYQF;2012-12-22 10:00;CYQF 221000Z 00000KT 12SM -SN OVC080 M21/M26 A3017 RMK AC8 SLP305

CYQF;2012-12-22 11:00;CYQF 221100Z 00000KT 10SM -SN OVC080 M21/M26 A3016 RMK AC8 SLP303

CYQF;2012-12-22 12:00;CYQF 221200Z 00000KT 5SM -SN OVC080 M21/M26 A3016 RMK SN2AC6 SLP304

CYQF;2012-12-22 12:44;CYQF 221244Z 00000KT 2SM -SN OVC080 RMK SN4AC4

CYQF;2012-12-22 13:00;CYQF 221300Z 00000KT 1 1/2SM -SN VV015 M21/M25 A3016 RMK SN8 SLP302

CYQF;2012-12-22 14:00;CYQF 221400Z 05002KT 1 1/2SM -SN VV015 M21/M25 A3014 RMK SN8 SLP297

CYQF;2012-12-22 15:00;CYQF 221500Z 04002KT 1 1/2SM -SN VV010 M21/M25 A3014 RMK SN8 /S02/ VIS VRB 1-2 SLP298

CYQF;2012-12-22 16:00;CYQF 221600Z 06003KT 1 1/2SM -SN VV012 M20/M25 A3013 RMK SN8 VIS VRB 1-2 SLP294

CYQF;2012-12-22 17:00;CYQF 221700Z 09003KT 1 1/2SM -SN BKN030 OVC090 M20/M24 A3013 RMK SN5SC1AS1 VIS VRB 1-2 SLP295

CYQF;2012-12-22 17:14;CYQF 221714Z 10004KT 4SM -SN BKN030 BKN090 OVC230 RMK SC5AS1CI1

CYQF;2012-12-22 18:00;CYQF 221800Z 08003KT 15SM FEW090 SCT250 M19/M24 A3012 RMK AC1CI2 IC SLP290

CYQF;2012-12-22 19:00;CYQF 221900Z 09006KT 10SM -SN BKN030 OVC090 M19/M24 A3011 RMK SC6AC2 VIS S 5 SLP287

CYQF;2012-12-22 20:00;CYQF 222000Z 11005KT 8SM -SN BKN030 OVC090 M19/M24 A3008 RMK SC6AC2 SLP278

CYQF;2012-12-22 21:00;CYQF 222100Z 10005KT 6SM -SN OVC030 M19/M23 A3008 RMK SC8 SLP275

CYQF;2012-12-22 22:00;CYQF 222200Z 09006KT 8SM -SN OVC025 M19/M23 A3006 RMK SC8 SLP270

CYQF;2012-12-22 23:00;CYQF 222300Z 08006KT 8SM -SN OVC025 M19/M23 A3007 RMK SC8 SLP272

CYQF;2012-12-23 00:00;CYQF 230000Z 06005KT 10SM -SN OVC030 M19/M23 A3007 RMK SC8 SLP270

CYQF;2012-12-23 01:00;CYQF 230100Z 09005KT 12SM -SN OVC020 M19/M23 A3007 RMK SC8 SLP270

CYQF;2012-12-23 02:00;CYQF 230200Z 06007KT 5SM -SN OVC020 M19/M23 A3005 RMK SC8 SLP266

CYQF;2012-12-23 03:00;CYQF 230300Z 07006KT 2SM -SN VV010 M19/M22 A3004 RMK SN8 VIS VRB 1-3 SLP259

CYQF;2012-12-23 04:00;CYQF 230400Z 09004KT 1 1/2SM -SN VV010 M18/M22 A3004 RMK SN8 VIS VRB 1-2 SLP259

CYQF;2012-12-23 05:00;CYQF 230500Z 08003KT 1 1/2SM -SN VV007 M18/M21 A3004 RMK SN8 VIS VRB 1-2 /S01/ SLP259

CYQF;2012-12-23 06:00;CYQF 230600Z 09007KT 1 1/2SM -SN VV007 M18/M21 A3003 RMK SN8 VIS VRB 1-2 /S02/ SLP251

CYQF;2012-12-23 07:00;CYQF 230700Z 10007KT 1 1/2SM -SN VV009 M18/M21 A3002 RMK SN8 VIS VRB 1-2 SLP248

CYQF;2012-12-23 07:43;CYQF 230743Z 11005KT 3SM -SN OVC020 RMK SN4SC4

CYQF;2012-12-23 08:00;CYQF 230800Z 09005KT 3SM -SN OVC025 M18/M22 A3002 RMK SN3SC5 /S01/ SLP248

CYQF;2012-12-23 09:00;CYQF 230900Z 09006KT 10SM -SN SCT030 OVC080 M18/M22 A3001 RMK SC3AC5 SLP247

CYQF;2012-12-23 10:00;CYQF 231000Z 10007KT 1SM -SN VV010 M18/M22 A3001 RMK SN8 SLP247

CYQF;2012-12-23 10:34;CYQF 231034Z 09007KT 10SM -SN FEW030 OVC090 RMK SC2AC6

CYQF;2012-12-23 11:00;CYQF 231100Z 07005KT 12SM -SN FEW030 OVC090 M18/M22 A3002 RMK SC2AC6 /S02/ SLP248

CYQF;2012-12-23 12:00;CYQF 231200Z 07005KT 15SM -SN BKN050 M19/M23 A3003 RMK SC6 SLP253

CYQF;2012-12-23 13:00;CYQF 231300Z 08004KT 15SM -SN SCT050 BKN150 M19/M23 A3003 RMK SC3AC3 SLP253

CYQF;2012-12-23 14:00;CYQF 231400Z 06005KT 15SM -SN FEW050 BKN120 M19/M23 A3003 RMK SC2AC4 SLP254

CYQF;2012-12-23 15:00;CYQF 231500Z 04003KT 15SM -SN SCT050 BKN120 M19/M23 A3004 RMK SC3AC2 SLP258

CYQF;2012-12-23 16:00;CYQF 231600Z 08006KT 15SM -SN BKN040 OVC120 M19/M23 A3005 RMK SC5AC2 SLP262

CYQF;2012-12-23 17:00;CYQF 231700Z 07003KT 10SM -SN OVC030 M19/M23 A3007 RMK SC7 VIS N 2 SLP267

CYQF;2012-12-23 17:43;CYQF 231743Z 08003KT 1 1/2SM -SN VV013 RMK SN8 VIS VRB 1-2

CYQF;2012-12-23 18:00;CYQF 231800Z 06003KT 5SM -SN BKN030 OVC100 M18/M23 A3007 RMK SC5AS2 VIS N 2 SLP267

CYQF;2012-12-23 19:00;CYQF 231900Z 06003KT 12SM -SN FEW030 BKN100 M18/M23 A3007 RMK SC2AS4 VIS 3 N SLP267

CYQF;2012-12-23 20:00;CYQF 232000Z 07004KT 15SM FEW015 FEW100 BKN230 M18/M23 A3007 RMK CU1AC2CI2 IC SLP265

CYQF;2012-12-23 21:00;CYQF 232100Z 08002KT 15SM FEW020 FEW100 SCT230 M18/M23 A3006 RMK SC1AC1CI2 SLP263

CYQF;2012-12-23 22:00;CYQF 232200Z 09003KT 15SM FEW016 FEW100 M19/M24 A3006 RMK SC1AC1 IC AC TR SLP264

CYQF;2012-12-23 23:00;CYQF 232300Z 07005KT 15SM FEW016 SCT100 M20/M25 A3007 RMK SC1AC2 IC SLP265

CYQF;2012-12-24 00:00;CYQF 240000Z 08003KT 15SM SCT100 M21/M25 A3009 RMK AC3 IC SLP278

CYQF;2012-12-24 01:00;CYQF 240100Z 07003KT 15SM BKN100 M21/M25 A3010 RMK AC6 IC SLP280

CYQF;2012-12-24 02:00;CYQF 240200Z 07006KT 15SM BKN100 M21/M25 A3009 RMK AC7 IC SLP278

CYQF;2012-12-24 03:00;CYQF 240300Z 07007KT 15SM BKN100 M21/M25 A3010 RMK AC7 IC SLP281

CYQF;2012-12-24 04:00;CYQF 240400Z 06003KT 15SM BKN100 M21/M25 A3010 RMK AC6 IC SLP283

CYQF;2012-12-24 05:00;CYQF 240500Z 00000KT 15SM BKN100 BKN220 M22/M26 A3012 RMK AC6CI2 IC SLP287

CYQF;2012-12-24 06:00;CYQF 240600Z 00000KT 15SM BKN100 BKN220 M22/M26 A3014 RMK AC6CI2 SLP294

CYQF;2012-12-24 07:00;CYQF 240700Z 01004KT 15SM SCT090 BKN250 M24/M28 A3014 RMK AC4CI1 IC SLP295

CYQF;2012-12-24 08:00;CYQF 240800Z 00000KT 15SM -SN BKN080 M24/M28 A3014 RMK AC6 SLP295

CYQF;2012-12-24 09:00;CYQF 240900Z 01004KT 15SM BKN080 M23/M27 A3015 RMK AC6 IC SLP298

CYQF;2012-12-24 10:00;CYQF 241000Z 04004KT 15SM BKN080 M23/M27 A3016 RMK AC6 IC SLP302

CYQF;2012-12-24 11:00;CYQF 241100Z 02003KT 15SM BKN080 M22/M27 A3017 RMK AC6 IC SLP307

CYQF;2012-12-24 12:00;CYQF 241200Z 36004KT 15SM BKN080 M22/M27 A3018 RMK AC6 IC SLP314

CYQF;2012-12-24 13:00;CYQF 241300Z 03002KT 15SM -SN BKN080 M22/M26 A3021 RMK AC6 SLP323

CYQF;2012-12-24 14:00;CYQF 241400Z 00000KT 15SM -SN BKN080 M22/M27 A3023 RMK AC7 SLP328

CYQF;2012-12-24 15:00;CYQF 241500Z 00000KT 8SM -SN SCT020 OVC080 M23/M27 A3024 RMK SC3AC5 SLP334

CYQF;2012-12-24 16:00;CYQF 241600Z 00000KT 5SM BR OVC035 M22/M26 A3026 RMK SC6 VIS NW-N 3 SLP341

CYQF;2012-12-24 17:00;CYQF 241700Z 00000KT 8SM -SN OVC035 M22/M25 A3028 RMK SC8 SLP347

CYQF;2012-12-24 18:00;CYQF 241800Z 04002KT 3SM -SN OVC035 M21/M25 A3029 RMK SC8 SLP352

CYQF;2012-12-24 19:00;CYQF 241900Z 00000KT 5SM -SN OVC035 M21/M25 A3030 RMK SC7 SLP354

CYQF;2012-12-24 20:00;CYQF 242000Z 00000KT 6SM -SN OVC035 M20/M24 A3030 RMK SC7 SLP355

CYQF;2012-12-24 21:00;CYQF 242100Z 00000KT 8SM -SN OVC035 M20/M24 A3031 RMK SC7 SLP357

CYQF;2012-12-24 22:00;CYQF 242200Z 08003KT 10SM -SN OVC035 M20/M25 A3031 RMK SC8 SLP358

CYQF;2012-12-24 23:00;CYQF 242300Z 08003KT 12SM -SN OVC035 M20/M25 A3032 RMK SC7 SLP361

CYQF;2012-12-24 23:38;CYQF 242338Z 09003KT 15SM BKN035 OVC090 RMK SC6AC1

CYQF;2012-12-25 00:00;CYQF 250000Z 09003KT 15SM BKN035 OVC090 M21/M25 A3034 RMK SC6AC2 SLP367

CYQF;2012-12-25 01:00;CYQF 250100Z 09003KT 15SM BKN040 OVC100 M21/M26 A3034 RMK SC6AC2 SLP368

CYQF;2012-12-25 02:00;CYQF 250200Z 00000KT 15SM SCT040 OVC100 M22/M26 A3035 RMK SC4AC2 SLP372

CYQF;2012-12-25 03:00;CYQF 250300Z 00000KT 15SM SCT040 OVC100 M23/M27 A3035 RMK SC3AC3 SLP377

CYQF;2012-12-25 04:00;CYQF 250400Z 00000KT 15SM SCT040 OVC100 M22/M26 A3034 RMK SC3AC3 SLP373

CYQF;2012-12-25 05:00;CYQF 250500Z 00000KT 15SM SCT040 OVC100 M23/M28 A3034 RMK SC4AC2 SLP373

CYQF;2012-12-25 06:00;CYQF 250600Z 00000KT 15SM FEW040 SCT120 M25/M30 A3034 RMK SC1AC2 SLP373

CYQF;2012-12-25 07:00;CYQF 250700Z 00000KT 15SM FEW120 M26/M30 A3033 RMK AC2 SLP369

CYQF;2012-12-25 08:00;CYQF 250800Z 06003KT 15SM FEW120 M26/M30 A3032 RMK AC2 SLP365

CYQF;2012-12-25 09:00;CYQF 250900Z 00000KT 15SM FEW120 M26/M30 A3031 RMK AC2 SLP363

CYQF;2012-12-25 10:00;CYQF 251000Z 00000KT 15SM BKN120 M25/M30 A3031 RMK AC5 SLP363

CYQF;2012-12-25 11:00;CYQF 251100Z 05004KT 15SM BKN120 M24/M29 A3030 RMK AC6 SLP360

CYQF;2012-12-25 12:00;CYQF 251200Z 00000KT 15SM BKN120 M24/M28 A3029 RMK AC6 SLP352

CYQF;2012-12-25 13:00;CYQF 251300Z 15005KT 15SM OVC120 M22/M26 A3027 RMK AC8 SLP348

CYQF;2012-12-25 13:50;CYQF 251350Z 00000KT 15SM -SN OVC120 RMK AC8

CYQF;2012-12-25 14:00;CYQF 251400Z 00000KT 15SM -SN OVC120 M22/M26 A3027 RMK AC8 SLP347

CYQF;2012-12-25 14:26;CYQF 251426Z 12005KT 15SM BKN030 OVC120 RMK SC5AC3 IC

CYQF;2012-12-25 15:00;CYQF 251500Z 12005KT 15SM OVC030 M22/M26 A3025 RMK SC8 IC SLP337

CYQF;2012-12-25 16:00;CYQF 251600Z 14005KT 15SM OVC030 M21/M25 A3024 RMK SC8 IC SLP334

CYQF;2012-12-25 17:00;CYQF 251700Z 12005KT 6SM IC OVC030 M21/M25 A3024 RMK SC8 SLP334

CYQF;2012-12-25 17:24;CYQF 251724Z 12005KT 4SM -SN OVC030 RMK SC8

CYQF;2012-12-25 18:00;CYQF 251800Z 14007KT 10SM -SN BKN030 OVC120 M20/M24 A3023 RMK SC6AC2 SLP334

CYQF;2012-12-25 18:19;CYQF 251819Z 13006KT 15SM SCT030 BKN120 RMK SC3AC2 IC

CYQF;2012-12-25 19:00;CYQF 251900Z 14005KT 15SM FEW030 SCT120 BKN250 M21/M25 A3018 RMK SC2AC2CI1 IC SLP318

CYQF;2012-12-25 20:00;CYQF 252000Z 15006KT 15SM FEW100 BKN220 M21/M26 A3015 RMK AC1CI2 IC SLP310

CYQF;2012-12-25 21:00;CYQF 252100Z 14007KT 15SM BKN200 M21/M26 A3014 RMK CI4 IC SLP304

CYQF;2012-12-25 22:00;CYQF 252200Z 14005KT 15SM OVC200 M22/M26 A3012 RMK CI6 IC SLP298

CYQF;2012-12-25 23:00;CYQF 252300Z 15008KT 15SM OVC200 M22/M27 A3011 RMK CI6 IC SLP294

CYQF;2012-12-26 00:00;CYQF 260000Z 14005KT 15SM BKN200 M23/M27 A3010 RMK CI5 IC SLP289

CYQF;2012-12-26 01:00;CYQF 260100Z 14008KT 15SM OVC200 M24/M28 A3009 RMK CI5 SLP288

CYQF;2012-12-26 02:00;CYQF 260200Z 14006KT 15SM BKN200 M24/M29 A3008 RMK CI3 SLP284

CYQF;2012-12-26 03:00;CYQF 260300Z 12003KT 15SM SCT200 M24/M29 A3006 RMK CI1 SLP275

CYQF;2012-12-26 04:00;CYQF 260400Z 14007KT 15SM FEW200 M25/M29 A3005 RMK CI1 SLP270

CYQF;2012-12-26 05:00;CYQF 260500Z 14009KT 12SM FEW010 BKN200 M25/M29 A3003 RMK SF1CI3 SLP265

CYQF;2012-12-26 06:00;CYQF 260600Z 15006KT 12SM BKN200 M25/M30 A3001 RMK CI2 SLP258

CYQF;2012-12-26 07:00;CYQF 260700Z 13003KT 10SM FEW015 BKN200 M25/M29 A3000 RMK ST1CS3 SLP255

CYQF;2012-12-26 08:00;CYQF 260800Z 14004KT 12SM FEW015 BKN200 M25/M29 A2998 RMK ST1CS3 SLP249

CYQF;2012-12-26 09:00;CYQF 260900Z 13005KT 15SM OVC030 M24/M29 A2997 RMK SC5 SLP241

CYQF;2012-12-26 10:00;CYQF 261000Z 14004KT 15SM OVC028 M24/M28 A2995 RMK SC6 SLP236

CYQF;2012-12-26 11:00;CYQF 261100Z 14006KT 15SM BKN025 M24/M28 A2994 RMK SC3 SLP233

CYQF;2012-12-26 12:00;CYQF 261200Z 14005KT 15SM BKN025 M24/M28 A2993 RMK SC4 SLP228

CYQF;2012-12-26 13:00;CYQF 261300Z 14007KT 15SM FEW025 BKN240 M23/M28 A2992 RMK SC2CS2 SLP227

CYQF;2012-12-26 13:24;CYQF 261324Z 11005KT 6SM -SN BKN025 OVC240 RMK SC5CS2

CYQF;2012-12-26 14:00;CYQF 261400Z 13004KT 5SM -SN SCT025 OVC060 M24/M28 A2993 RMK SC3SC5 SLP228

CYQF;2012-12-26 15:00;CYQF 261500Z 10004KT 5SM -SN SCT025 OVC060 M23/M27 A2991 RMK SC3SC5 SLP223

CYQF;2012-12-26 16:00;CYQF 261600Z 14005KT 10SM SCT060 BKN100 M22/M26 A2992 RMK SC3AC3 SLP226

CYQF;2012-12-26 17:00;CYQF 261700Z 17003KT 15SM -SN FEW060 BKN150 M23/M27 A2992 RMK SC2AC3 SLP228

CYQF;2012-12-26 18:00;CYQF 261800Z 14003KT 12SM BKN200 M22/M26 A2992 RMK CI5 IC SLP227

CYQF;2012-12-26 19:00;CYQF 261900Z 15006KT 12SM BKN200 M21/M26 A2991 RMK CI6 IC SLP225

CYQF;2012-12-26 20:00;CYQF 262000Z 13003KT 15SM BKN200 M20/M24 A2989 RMK CI5 SLP218

CYQF;2012-12-26 21:00;CYQF 262100Z 15004KT 15SM BKN200 M20/M24 A2988 RMK CI4 SLP211

CYQF;2012-12-26 22:00;CYQF 262200Z 15002KT 15SM BKN200 M20/M25 A2988 RMK CI2 SLP209

CYQF;2012-12-26 23:00;CYQF 262300Z 15002KT 15SM FEW100 BKN200 M21/M26 A2989 RMK AC2CI2 SLP213

CYQF;2012-12-27 00:00;CYQF 270000Z 00000KT 15SM BKN100 BKN200 M22/M26 A2989 RMK AC5CI2 SLP214

CYQF;2012-12-27 01:00;CYQF 270100Z 20002KT 15SM BKN100 OVC200 M21/M26 A2988 RMK AC6CI2 SLP212

CYQF;2012-12-27 02:00;CYQF 270200Z 18004KT 15SM BKN100 OVC200 M21/M25 A2988 RMK AC6CI2 SLP213

CYQF;2012-12-27 03:00;CYQF 270300Z 22002KT 15SM BKN100 OVC200 M21/M25 A2988 RMK AC6CI1 SLP208

CYQF;2012-12-27 04:00;CYQF 270400Z 22002KT 15SM BKN100 M21/M25 A2987 RMK AC7 SLP207

CYQF;2012-12-27 05:00;CYQF 270500Z 00000KT 15SM BKN100 M21/M25 A2988 RMK AC7 SLP208

CYQF;2012-12-27 06:00;CYQF 270600Z 18004KT 15SM BKN100 M20/M25 A2987 RMK AC7 SLP205

CYQF;2012-12-27 07:00;CYQF 270700Z 00000KT 15SM BKN100 M20/M24 A2986 RMK AC7 SLP202

CYQF;2012-12-27 08:00;CYQF 270800Z 00000KT 15SM BKN100 M20/M25 A2987 RMK AC7 SLP203

CYQF;2012-12-27 09:00;CYQF 270900Z 00000KT 15SM OVC100 M20/M24 A2986 RMK AC8 SLP199

CYQF;2012-12-27 09:10;CYQF 270910Z 00000KT 15SM -SN OVC100 RMK AC8

CYQF;2012-12-27 10:00;CYQF 271000Z 00000KT 15SM -SN BKN100 M19/M24 A2986 RMK AC7 SLP198

CYQF;2012-12-27 11:00;CYQF 271100Z 00000KT 15SM -SN OVC100 M19/M24 A2986 RMK AC8 SLP197

CYQF;2012-12-27 12:00;CYQF 271200Z 00000KT 15SM -SN OVC100 M19/M24 A2985 RMK AC8 SLP195

CYQF;2012-12-27 13:00;CYQF 271300Z 00000KT 15SM -SN OVC100 M19/M24 A2985 RMK AC8 SLP196

CYQF;2012-12-27 14:00;CYQF 271400Z 00000KT 15SM -SN FEW040 OVC110 M19/M23 A2986 RMK SC2AC6 SLP199

CYQF;2012-12-27 15:00;CYQF 271500Z 32003KT 15SM -SN OVC100 M18/M22 A2987 RMK AC8 SLP199

CYQF;2012-12-27 16:00;CYQF 271600Z 34004KT 12SM -SN BKN100 M18/M23 A2988 RMK AC7 SLP202

CYQF;2012-12-27 17:00;CYQF 271700Z 33004KT 12SM -SN OVC100 M17/M22 A2989 RMK AC8 SLP206

CYQF;2012-12-27 18:00;CYQF 271800Z 34003KT 12SM -SN OVC100 M17/M22 A2989 RMK AC8 SLP205

CYQF;2012-12-27 19:00;CYQF 271900Z 00000KT 15SM -SN BKN100 M16/M22 A2987 RMK AC7 SLP200

CYQF;2012-12-27 20:00;CYQF 272000Z 00000KT 15SM -SN BKN075 M16/M21 A2986 RMK AC7 SLP195

CYQF;2012-12-27 20:19;CYQF 272019Z 00000KT 15SM BKN075 RMK AC7

CYQF;2012-12-27 21:00;CYQF 272100Z 00000KT 15SM BKN075 M15/M21 A2985 RMK AC6 SLP188

CYQF;2012-12-27 22:00;CYQF 272200Z 14002KT 15SM FEW075 M15/M21 A2985 RMK AC2 SLP186

CYQF;2012-12-27 23:00;CYQF 272300Z 21002KT 15SM BKN075 M17/M22 A2986 RMK AC3 SLP191

CYQF;2012-12-28 00:00;CYQF 280000Z 00000KT 15SM FEW075 FEW250 M19/M23 A2987 RMK AC1CI1 SLP199

CYQF;2012-12-28 01:00;CYQF 280100Z 00000KT 15SM SKC M20/M24 A2987 RMK SLP199

CYQF;2012-12-28 02:00;CYQF 280200Z 18006KT 15SM SKC M23/M28 A2987 RMK SLP198

CYQF;2012-12-28 03:00;CYQF 280300Z 00000KT 15SM SKC M23/M27 A2987 RMK SLP201

CYQF;2012-12-28 04:00;CYQF 280400Z 21003KT 15SM SKC M25/M30 A2986 RMK SLP198

CYQF;2012-12-28 05:00;CYQF 280500Z 19004KT 15SM SKC M24/M28 A2985 RMK SLP196

CYQF;2012-12-28 06:00;CYQF 280600Z 20005KT 15SM SKC M26/M30 A2984 RMK SLP193

CYQF;2012-12-28 07:00;CYQF 280700Z 20004KT 15SM SKC M24/M28 A2983 RMK SLP190

CYQF;2012-12-28 08:00;CYQF 280800Z 22003KT 15SM SKC M26/M31 A2983 RMK SLP191

CYQF;2012-12-28 09:00;CYQF 280900Z 21004KT 15SM SKC M24/M29 A2983 RMK SLP187

CYQF;2012-12-28 10:00;CYQF 281000Z 20006KT 15SM SKC M23/M27 A2984 RMK SLP188

CYQF;2012-12-28 11:00;CYQF 281100Z 20003KT 15SM FEW250 M23/M27 A2983 RMK CI2 SLP187

CYQF;2012-12-28 12:00;CYQF 281200Z 00000KT 15SM FEW250 M25/M29 A2983 RMK CI2 SLP190

CYQF;2012-12-28 13:00;CYQF 281300Z 35004KT 15SM FEW250 M25/M30 A2983 RMK CI2 SLP191

CYQF;2012-12-28 14:00;CYQF 281400Z 00000KT 15SM FEW080 FEW250 M25/M29 A2984 RMK AC2CI1 SLP194

CYQF;2012-12-28 15:00;CYQF 281500Z 23005KT 15SM BKN060 M20/M24 A2983 RMK SC7 VIRGA SLP192

CYQF;2012-12-28 15:23;CYQF 281523Z 20003KT 15SM BKN060 RMK SC7 CIG BLN INDICATES ABRUPT CHG TO STG W FLO AT 400FT AGL

CYQF;2012-12-28 16:00;CYQF 281600Z 20005KT 15SM BKN060 M17/M20 A2984 RMK SC7 SLP194

CYQF;2012-12-28 17:00;CYQF 281700Z 23005KT 15SM BKN060 M14/M17 A2985 RMK SC7 SLP199

CYQF;2012-12-28 18:00;CYQF 281800Z 21006KT 15SM BKN060 M13/M16 A2985 RMK SC7 SLP193

CYQF;2012-12-28 19:00;CYQF 281900Z 21003KT 15SM BKN050 BKN220 M11/M15 A2984 RMK SC6CI2 SLP191

CYQF;2012-12-28 20:00;CYQF 282000Z 00000KT 15SM FEW050 FEW100 BKN250 M09/M14 A2982 RMK SC1AC1CI2 SLP184

CYQF;2012-12-28 21:00;CYQF 282100Z 00000KT 15SM BKN050 BKN100 BKN250 M08/M12 A2982 RMK SC5AC1CI1 SLP175

CYQF;2012-12-28 22:00;CYQF 282200Z 00000KT 15SM BKN050 BKN100 BKN250 M07/M11 A2983 RMK SC5AC2CI1 SLP176

CYQF;2012-12-28 23:00;CYQF 282300Z 00000KT 15SM BKN050 BKN250 M07/M10 A2983 RMK SC6CI2 SLP178

CYQF;2012-12-29 00:00;CYQF 290000Z 00000KT 15SM BKN050 BKN250 M07/M10 A2984 RMK SC6CI1 SLP179

CYQF;2012-12-29 01:00;CYQF 290100Z 00000KT 15SM BKN050 M06/M10 A2984 RMK SC7 SLP180

CYQF;2012-12-29 02:00;CYQF 290200Z 23003KT 15SM BKN050 M07/M10 A2984 RMK SC7 SLP179

CYQF;2012-12-29 03:00;CYQF 290300Z 21004KT 15SM BKN050 M07/M11 A2984 RMK SC5 SLP175

CYQF;2012-12-29 04:00;CYQF 290400Z 23006KT 15SM SCT050 BKN210 M07/M11 A2983 RMK SC3CI1 SLP172

CYQF;2012-12-29 05:00;CYQF 290500Z 19003KT 15SM BKN050 BKN210 M05/M09 A2983 RMK SC5CI1 SLP173

CYQF;2012-12-29 06:00;CYQF 290600Z 21008KT 15SM BKN050 BKN210 M05/M09 A2983 RMK SC5CI1 SLP163

CYQF;2012-12-29 07:00;CYQF 290700Z 21007KT 15SM SCT060 SCT210 M08/M11 A2983 RMK SC3CI0 SLP163

CYQF;2012-12-29 08:00;CYQF 290800Z 21006KT 15SM FEW060 SCT210 M10/M13 A2983 RMK SC2CI0 SLP161

CYQF;2012-12-29 09:00;CYQF 290900Z 20006KT 15SM FEW060 BKN210 M10/M14 A2983 RMK SC2CI1 SLP160

CYQF;2012-12-29 10:00;CYQF 291000Z 21006KT 15SM SCT060 BKN210 M12/M15 A2983 RMK SC3CI1 SLP161

CYQF;2012-12-29 11:00;CYQF 291100Z 21006KT 15SM SCT060 BKN210 M12/M15 A2983 RMK SC3CI1 SLP162

CYQF;2012-12-29 12:00;CYQF 291200Z 20003KT 15SM BKN060 BKN210 M11/M14 A2983 RMK SC5CI0 SLP162

CYQF;2012-12-29 13:00;CYQF 291300Z 22004KT 15SM BKN060 BKN210 M10/M13 A2984 RMK SC6CI0 SLP163

CYQF;2012-12-29 14:00;CYQF 291400Z 21002KT 15SM OVC060 M09/M12 A2985 RMK SC8 MOON DMLY VIS SLP166

CYQF;2012-12-29 15:00;CYQF 291500Z 20005KT 15SM SCT060 BKN100 BKN250 M09/M13 A2985 RMK SC2AC3CI1 SLP167

CYQF;2012-12-29 16:00;CYQF 291600Z 26004KT 15SM FEW060 SCT100 BKN250 M10/M14 A2987 RMK SC1AS2CS2 SLP172

CYQF;2012-12-29 17:00;CYQF 291700Z 22002KT 15SM SCT100 BKN250 M09/M13 A2990 RMK AS4CS3 SLP182

CYQF;2012-12-29 18:00;CYQF 291800Z 00000KT 15SM BKN100 BKN250 M07/M11 A2992 RMK AS6CS1 SLP186

CYQF;2012-12-29 19:00;CYQF 291900Z 22004KT 15SM BKN035 BKN100 M06/M10 A2992 RMK SC6AC1 SLP186

CYQF;2012-12-29 20:00;CYQF 292000Z 26004KT 15SM SCT035 BKN100 M05/M09 A2992 RMK SC3AC2 SLP186

CYQF;2012-12-29 21:00;CYQF 292100Z 27004KT 15SM BKN035 BKN100 M04/M07 A2992 RMK SC5AC2 SLP189

CYQF;2012-12-29 22:00;CYQF 292200Z 23005KT 15SM FEW035 BKN100 M06/M09 A2993 RMK SC2AC2 SLP191

CYQF;2012-12-29 23:00;CYQF 292300Z 24006KT 15SM FEW040 SCT100 M09/M11 A2993 RMK SC1AC2 SLP190

CYQF;2012-12-30 00:00;CYQF 300000Z 24003KT 15SM FEW040 BKN100 M08/M10 A2994 RMK SC1AC6 SLP200

CYQF;2012-12-30 01:00;CYQF 300100Z 26003KT 15SM OVC070 M06/M08 A2994 RMK AC8 SLP200

CYQF;2012-12-30 02:00;CYQF 300200Z 27004KT 15SM OVC070 M06/M08 A2993 RMK AC8 SLP198

CYQF;2012-12-30 03:00;CYQF 300300Z 29005KT 15SM OVC070 M05/M08 A2994 RMK AC8 SLP195

CYQF;2012-12-30 04:00;CYQF 300400Z 27007KT 15SM OVC070 M05/M08 A2995 RMK AC8 SLP197

CYQF;2012-12-30 05:00;CYQF 300500Z 28007KT 15SM OVC070 M05/M08 A2996 RMK AC7 SLP201

CYQF;2012-12-30 06:00;CYQF 300600Z 29010KT 15SM OVC070 M04/M08 A2997 RMK AC8 SLP202

CYQF;2012-12-30 07:00;CYQF 300700Z 28007KT 15SM OVC070 M04/M08 A2996 RMK AC8 SLP201

CYQF;2012-12-30 08:00;CYQF 300800Z 25006KT 15SM OVC070 M05/M08 A2997 RMK AC8 SLP202

CYQF;2012-12-30 09:00;CYQF 300900Z 24005KT 15SM BKN070 M06/M08 A2997 RMK AC7 SLP199

CYQF;2012-12-30 10:00;CYQF 301000Z 27005KT 15SM BKN070 M07/M10 A2997 RMK AC7 SLP201

CYQF;2012-12-30 11:00;CYQF 301100Z 25006KT 15SM SCT070 M09/M12 A2998 RMK AC3 SLP203

CYQF;2012-12-30 12:00;CYQF 301200Z 00000KT 15SM FEW070 M11/M14 A2999 RMK AC2 SLP217

CYQF;2012-12-30 13:00;CYQF 301300Z 21004KT 15SM FEW070 M13/M15 A2999 RMK AC2 SLP217

CYQF;2012-12-30 14:00;CYQF 301400Z 20006KT 15SM FEW070 FEW250 M15/M17 A2999 RMK AC2CI0 SLP217

CYQF;2012-12-30 15:00;CYQF 301500Z 20005KT 15SM FEW100 M16/M18 A2999 RMK AC1 SLP221

CYQF;2012-12-30 16:00;CYQF 301600Z 19005KT 15SM FEW100 FEW250 M16/M17 A2998 RMK AC1CI1 SLP218

CYQF;2012-12-30 17:00;CYQF 301700Z 21003KT 15SM FEW100 FEW250 M16/M18 A2998 RMK AC1CI1 SLP217

CYQF;2012-12-30 18:00;CYQF 301800Z 22004KT 15SM FEW100 BKN250 M14/M16 A2999 RMK AC1CI2 CC ASOCTD SLP217

CYQF;2012-12-30 19:00;CYQF 301900Z 22006KT 15SM BKN100 BKN250 M12/M14 A2998 RMK AC6CI1 SLP213

CYQF;2012-12-30 20:00;CYQF 302000Z 22004KT 15SM BKN100 BKN250 M10/M15 A2995 RMK AC6CI1 SLP206

CYQF;2012-12-30 21:00;CYQF 302100Z 19003KT 15SM BKN100 BKN250 M10/M14 A2995 RMK AC6CI2 SLP201

CYQF;2012-12-30 22:00;CYQF 302200Z 20002KT 15SM BKN100 BKN250 M09/M13 A2995 RMK AC6CI2 SLP200

CYQF;2012-12-30 23:00;CYQF 302300Z 21002KT 15SM BKN100 M09/M12 A2994 RMK AC6 SLP198

CYQF;2012-12-31 00:00;CYQF 310000Z 24005KT 15SM BKN120 M11/M14 A2994 RMK AC6 SLP203

CYQF;2012-12-31 01:00;CYQF 310100Z 21002KT 15SM FEW120 BKN250 M12/M15 A2993 RMK AC2CI2 SLP201

CYQF;2012-12-31 02:00;CYQF 310200Z 20002KT 15SM BKN150 M12/M16 A2993 RMK AC3 SLP200

CYQF;2012-12-31 03:00;CYQF 310300Z 21002KT 15SM FEW120 M15/M18 A2993 RMK AC1 SLP212

CYQF;2012-12-31 04:00;CYQF 310400Z 00000KT 15SM SKC M14/M16 A2992 RMK SLP210

CYQF;2012-12-31 05:00;CYQF 310500Z 25007KT 15SM SKC M17/M20 A2991 RMK SLP207

CYQF;2012-12-31 06:00;CYQF 310600Z 20003KT 15SM FEW250 M15/M18 A2992 RMK CI0 SLP207

CYQF;2012-12-31 07:00;CYQF 310700Z 00000KT 15SM FEW250 M14/M17 A2992 RMK CI0 SLP207

CYQF;2012-12-31 08:00;CYQF 310800Z 20004KT 15SM FEW250 M15/M18 A2992 RMK CI0 SLP205

CYQF;2012-12-31 09:00;CYQF 310900Z 20004KT 15SM FEW080 SCT250 M14/M17 A2991 RMK AC2CI0 SLP196

CYQF;2012-12-31 10:00;CYQF 311000Z 20002KT 15SM BKN080 M09/M13 A2992 RMK AC6 SLP199

CYQF;2012-12-31 11:00;CYQF 311100Z 15003KT 15SM OVC080 M08/M12 A2992 RMK AC8 SLP199

CYQF;2012-12-31 12:00;CYQF 311200Z 20004KT 15SM OVC080 M08/M11 A2992 RMK AC8 SLP192

CYQF;2012-12-31 13:00;CYQF 311300Z 19004KT 15SM BKN080 BKN250 M08/M11 A2991 RMK AC5CI2 SLP191

CYQF;2012-12-31 14:00;CYQF 311400Z 20005KT 15SM FEW080 SCT250 M09/M12 A2993 RMK AC2CI1 SLP195

CYQF;2012-12-31 15:00;CYQF 311500Z 21004KT 15SM FEW080 FEW250 M13/M16 A2993 RMK AC1CI1 SLP207

CYQF;2012-12-31 16:00;CYQF 311600Z 25003KT 15SM FEW080 BKN250 M14/M17 A2994 RMK AC1CC4 SLP210

CYQF;2012-12-31 17:00;CYQF 311700Z 29008KT 15SM BKN080 BKN250 M12/M15 A2995 RMK AC6CC1 SLP216

CYQF;2012-12-31 18:00;CYQF 311800Z 28007KT 15SM BKN080 M08/M11 A2995 RMK AC7 SLP209

CYQF;2012-12-31 19:00;CYQF 311900Z 27003KT 15SM BKN080 M03/M08 A2995 RMK AC7 SLP209

CYQF;2012-12-31 20:00;CYQF 312000Z 27006KT 15SM BKN080 BKN240 M03/M08 A2994 RMK AC3CI1 SLP206

CYQF;2012-12-31 21:00;CYQF 312100Z 29005KT 15SM BKN090 BKN200 M02/M07 A2994 RMK AC5CI2 SLP196

CYQF;2012-12-31 22:00;CYQF 312200Z 29005KT 15SM BKN090 M01/M06 A2995 RMK AC7 SLP198

CYQF;2012-12-31 23:00;CYQF 312300Z 29005KT 15SM BKN060 BKN100 M01/M06 A2996 RMK SC5AC2 SLP202

