CYQF;2005-01-01 00:00;METAR CYQF 010000Z 36005KT 12SM -SN SCT050 OVC090 M23/M28 A3022 RMK SC3AC4 SLP329=

CYQF;2005-01-01 01:00;METAR CYQF 010100Z 36005KT 6SM -SN SCT040 OVC075 M23/M27 A3022 RMK SC3AC5 SLP328=

CYQF;2005-01-01 02:00;METAR CYQF 010200Z 36005KT 10SM -SN FEW040 OVC075 M23/M27 A3024 RMK SC2AC6 SLP334=

CYQF;2005-01-01 03:00;METAR CYQF 010300Z 36005KT 4SM -SN FEW040 OVC070 M23/M27 A3024 RMK SC2AC6 SLP336=

CYQF;2005-01-01 04:00;METAR CYQF 010400Z 36005KT 10SM -SN OVC075 M23/M28 A3022 RMK AC8 SLP332=

CYQF;2005-01-01 06:00;METAR CYQF 010600Z 36005KT 6SM -SN OVC075 M23/M28 A3023 RMK AC8 SLP334=

CYQF;2005-01-01 07:00;METAR CYQF 010700Z 36005KT 10SM -SN OVC075 M23/M27 A3023 RMK AC8 SLP335=

CYQF;2005-01-01 08:00;METAR CYQF 010800Z 00000KT 10SM -SN BKN075 M25/M29 A3022 RMK AC6 SLP332=

CYQF;2005-01-01 09:00;METAR CYQF 010900Z 36004KT 10SM -SN OVC075 M23/M27 A3021 RMK AC7 SLP327=

CYQF;2005-01-01 10:00;METAR CYQF 011000Z 00000KT 6SM -SN SCT040 OVC075 M23/M27 A3022 RMK SC4AC4 SLP329=

CYQF;2005-01-01 11:00;METAR CYQF 011100Z 00000KT 3SM -SN VV030 M23/M27 A3021 RMK SN8 SLP326=

CYQF;2005-01-01 12:00;METAR CYQF 011200Z 00000KT 6SM -SN SCT040 OVC075 M22/M27 A3020 RMK SC4AC4 SLP324=

CYQF;2005-01-01 13:00;METAR CYQF 011300Z 00000KT 6SM -SN SCT040 OVC075 M22/M27 A3020 RMK SC4AC4 SLP323=

CYQF;2005-01-01 14:00;METAR CYQF 011400Z 00000KT 3SM -SN BKN040 OVC080 M22/M26 A3020 RMK SC5AC3 SLP323=

CYQF;2005-01-01 15:00;METAR CYQF 011500Z 00000KT 2SM -SN BKN050 OVC090 M22/M26 A3020 RMK SC6AC2 SLP323=

CYQF;2005-01-01 16:00;METAR CYQF 011600Z 36005KT 2SM -SN BKN020 OVC050 M21/M25 A3020 RMK SC6SC2 SLP323=

CYQF;2005-01-01 17:00;METAR CYQF 011700Z 36005KT 1 1/2SM -SN BKN020 OVC050 M21/M25 A3021 RMK SC6SC2 SLP326=

CYQF;2005-01-01 18:00;METAR CYQF 011800Z 00000KT 2SM -SN BKN020 OVC050 M20/M25 A3022 RMK SC5SC2 SLP326=

CYQF;2005-01-01 18:53;SPECI CYQF 011853Z 00000KT 8SM -SN SCT020 BKN050 RMK SC4SC3=

CYQF;2005-01-01 19:00;METAR CYQF 011900Z 00000KT 8SM -SN BKN020 OVC050 M20/M24 A3019 RMK SC6SC2 SLP319=

CYQF;2005-01-01 19:41;SPECI CYQF 011941Z 00000KT 2 1/2SM -SN BKN020 OVC050 RMK SC6SC2=

CYQF;2005-01-01 20:00;METAR CYQF 012000Z 00000KT 2 1/2SM -SN BKN020 OVC050 M19/M24 A3018 RMK SC6SC2 SLP315=

CYQF;2005-01-01 21:00;METAR CYQF 012100Z 00000KT 2 1/2SM -SN BKN020 OVC050 M19/M23 A3017 RMK SC6SC2 SLP307=

CYQF;2005-01-01 22:00;METAR CYQF 012200Z 36005KT 3SM -SN BKN020 OVC050 M19/M24 A3017 RMK SC6SC2 SLP307=

CYQF;2005-01-01 23:00;METAR CYQF 012300Z 36005KT 3SM -SN BKN020 OVC050 M19/M23 A3017 RMK SC6SC2 SLP308=

CYQF;2005-01-02 00:00;METAR CYQF 020000Z 00000KT 10SM -SN SCT020 BKN050 OVC090 M20/M24 A3017 RMK SC3SC3AC2 SLP310=

CYQF;2005-01-02 01:00;METAR CYQF 020100Z 00000KT 10SM -SN FEW020 SCT050 BKN090 BKN250 M22/M27 A3017 RMK SC1SC2AC2CI2 SLP309=

CYQF;2005-01-02 02:00;METAR CYQF 020200Z 00000KT 15SM -SN FEW050 SCT090 BKN250 M22/M26 A3016 RMK SC2AC2CI1 SLP307=

CYQF;2005-01-02 03:00;METAR CYQF 020300Z 00000KT 15SM -SN FEW050 SCT090 OVC250 M23/M27 A3017 RMK SC2AC2CI2 SLP312=

CYQF;2005-01-02 04:00;METAR CYQF 020400Z 00000KT 15SM FEW050 SCT090 OVC250 M22/M26 A3017 RMK SC2AC2CI3 SLP313=

CYQF;2005-01-02 05:00;METAR CYQF 020500Z 00000KT 15SM SCT090 OVC250 M21/M25 A3017 RMK AC3CI3 SLP312=

CYQF;2005-01-02 06:00;METAR CYQF 020600Z 00000KT 15SM SCT090 OVC250 M22/M26 A3017 RMK AC4CI3 SLP308=

CYQF;2005-01-02 08:00;METAR CYQF 020800Z 00000KT 15SM FEW030 BKN080 OVC250 M22/M26 A3016 RMK SC2AC3CI2 SLP306=

CYQF;2005-01-02 09:00;METAR CYQF 020900Z 00000KT 15SM SCT080 BKN250 M22/M26 A3015 RMK AC3CI2 SLP300=

CYQF;2005-01-02 12:00;METAR CYQF 021200Z 00000KT 15SM SCT250 M25/M29 A3015 RMK CI1 SLP304=

CYQF;2005-01-02 13:00;METAR CYQF 021300Z 00000KT 15SM SCT250 M26/M30 A3015 RMK CI1 SLP304=

CYQF;2005-01-02 14:00;METAR CYQF 021400Z 00000KT 15SM SCT250 M28/M33 A3015 RMK CI1 SLP303=

CYQF;2005-01-02 15:00;METAR CYQF 021500Z 00000KT 15SM SCT250 M28/M33 A3014 RMK CI2 SLP307=

CYQF;2005-01-02 16:00;METAR CYQF 021600Z 00000KT 15SM FEW100 FEW250 M28/M33 A3015 RMK AC1CI1 TR AC SLP313=

CYQF;2005-01-02 17:00;METAR CYQF 021700Z 00000KT 15SM FEW030 FEW250 M28/M32 A3016 RMK SC1CI1 TR CLD SLP314=

CYQF;2005-01-02 18:00;METAR CYQF 021800Z 00000KT 15SM FEW050 FEW250 M26/M30 A3014 RMK SC1CI1 TR CLD SLP305=

CYQF;2005-01-02 19:00;METAR CYQF 021900Z 00000KT 15SM FEW250 M24/M28 A3014 RMK CI0 SLP303=

CYQF;2005-01-02 20:00;METAR CYQF 022000Z 00000KT 15SM FEW250 M22/M26 A3012 RMK CI0 SLP297=

CYQF;2005-01-02 21:00;METAR CYQF 022100Z 00000KT 15SM BKN250 M20/M26 A3010 RMK CI1 SLP284=

CYQF;2005-01-02 22:00;METAR CYQF 022200Z 00000KT 15SM FEW250 M19/M27 A3009 RMK CI0 SLP282=

CYQF;2005-01-02 23:00;METAR CYQF 022300Z 00000KT 15SM SCT250 M23/M27 A3011 RMK CI2 SLP294=

CYQF;2005-01-03 00:00;METAR CYQF 030000Z 00000KT 15SM FEW100 BKN250 M21/M27 A3012 RMK AC2CI3 SLP294=

CYQF;2005-01-03 01:00;METAR CYQF 030100Z 00000KT 15SM SCT100 BKN250 M23/M28 A3013 RMK AC3CI2 SLP297=

CYQF;2005-01-03 02:00;METAR CYQF 030200Z 00000KT 15SM FEW100 BKN250 M22/M26 A3014 RMK AC2CI2 SLP300=

CYQF;2005-01-03 03:00;METAR CYQF 030300Z 00000KT 15SM FEW100 SCT250 M23/M28 A3014 RMK AC2CI1 SLP308=

CYQF;2005-01-03 04:00;METAR CYQF 030400Z 00000KT 15SM FEW100 BKN250 M23/M28 A3014 RMK AC2CI2 SLP307=

CYQF;2005-01-03 05:00;METAR CYQF 030500Z 00000KT 15SM FEW100 BKN250 M24/M28 A3014 RMK AC2CI2 SLP309=

CYQF;2005-01-03 06:00;METAR CYQF 030600Z 00000KT 15SM FEW100 SCT250 M23/M27 A3015 RMK AC1CI1 SLP310=

CYQF;2005-01-03 07:00;METAR CYQF 030700Z 00000KT 15SM BKN080 BKN250 M24/M29 A3015 RMK AC5CI1 SLP310=

CYQF;2005-01-03 08:00;METAR CYQF 030800Z 00000KT 15SM SCT080 M22/M26 A3015 RMK AC4 SLP309=

CYQF;2005-01-03 09:00;METAR CYQF 030900Z 00000KT 15SM BKN080 M21/M25 A3015 RMK AC4 SLP302=

CYQF;2005-01-03 10:00;METAR CYQF 031000Z 18005KT 15SM BKN100 M21/M25 A3017 RMK AC6 SLP306=

CYQF;2005-01-03 11:00;METAR CYQF 031100Z 18005KT 15SM BKN100 M19/M24 A3018 RMK AC7 SLP310=

CYQF;2005-01-03 12:00;METAR CYQF 031200Z 00000KT 15SM BKN100 M19/M23 A3020 RMK AC7 SLP315=

CYQF;2005-01-03 13:00;METAR CYQF 031300Z 23003KT 15SM BKN100 M19/M23 A3021 RMK AC6 SLP319=

CYQF;2005-01-03 14:00;METAR CYQF 031400Z 00000KT 15SM BKN100 M20/M24 A3023 RMK AC6 SLP326=

CYQF;2005-01-03 15:00;METAR CYQF 031500Z 18002KT 15SM BKN100 M20/M24 A3025 RMK AC6 SLP338=

CYQF;2005-01-03 16:00;METAR CYQF 031600Z 00000KT 15SM BKN100 M22/M25 A3028 RMK AC2 SLP348=

CYQF;2005-01-03 17:00;METAR CYQF 031700Z 00000KT 15SM FEW050 SCT100 M23/M28 A3030 RMK SC1AC2 SLP352=

CYQF;2005-01-03 18:00;METAR CYQF 031800Z 00000KT 15SM FEW050 FEW100 M20/M25 A3032 RMK SC1AC1 SLP361=

CYQF;2005-01-03 19:00;METAR CYQF 031900Z 00000KT 15SM SCT100 M19/M25 A3033 RMK AC2 SLP365=

CYQF;2005-01-03 20:00;METAR CYQF 032000Z 00000KT 15SM SCT100 M17/M24 A3033 RMK AC2 SLP366=

CYQF;2005-01-03 21:00;METAR CYQF 032100Z 00000KT 15SM FEW100 M17/M23 A3033 RMK AC1 TR CLD SLP359=

CYQF;2005-01-03 22:00;METAR CYQF 032200Z 00000KT 15SM SKC M16/M23 A3034 RMK SLP360=

CYQF;2005-01-03 23:00;METAR CYQF 032300Z 00000KT 15SM SKC M18/M24 A3035 RMK SLP366=

CYQF;2005-01-04 00:00;METAR CYQF 040000Z 00000KT 15SM SKC M21/M25 A3038 RMK SLP378=

CYQF;2005-01-04 01:00;METAR CYQF 040100Z 00000KT 15SM SKC M24/M28 A3039 RMK SLP380=

CYQF;2005-01-04 02:00;METAR CYQF 040200Z 00000KT 15SM SKC M25/M29 A3038 RMK SLP379=

CYQF;2005-01-04 03:00;METAR CYQF 040300Z 00000KT 15SM SKC M26/M31 A3040 RMK SLP393=

CYQF;2005-01-04 04:00;METAR CYQF 040400Z 00000KT 15SM SKC M26/M31 A3041 RMK SLP396=

CYQF;2005-01-04 05:00;METAR CYQF 040500Z 00000KT 15SM SKC M27/M32 A3042 RMK SLP401=

CYQF;2005-01-04 06:00;METAR CYQF 040600Z 00000KT 15SM SKC M28/M32 A3042 RMK SLP403=

CYQF;2005-01-04 07:00;METAR CYQF 040700Z 18005KT 15SM SKC M29/M34 A3041 RMK SLP399=

CYQF;2005-01-04 08:00;METAR CYQF 040800Z 18003KT 15SM SKC M30/M35 A3041 RMK SLP398=

CYQF;2005-01-04 09:00;METAR CYQF 040900Z 00000KT 15SM SKC M29/M34 A3040 RMK SLP391=

CYQF;2005-01-04 10:00;METAR CYQF 041000Z 00000KT 15SM SKC M29/M33 A3039 RMK SLP390=

CYQF;2005-01-04 11:00;METAR CYQF 041100Z 00000KT 15SM SKC M27/M31 A3038 RMK SLP387=

CYQF;2005-01-04 12:00;METAR CYQF 041200Z 00000KT 15SM SKC M26/M31 A3038 RMK SLP387=

CYQF;2005-01-04 13:00;METAR CYQF 041300Z 00000KT 15SM SKC M27/M32 A3038 RMK SLP386=

CYQF;2005-01-04 13:47;SPECI CYQF 041347Z 00000KT 10SM VCFG SKC=

CYQF;2005-01-04 15:00;METAR CYQF 041500Z 00000KT 10SM SKC M27/M31 A3038 RMK BR FROIN SLP396=

CYQF;2005-01-04 16:00;METAR CYQF 041600Z 00000KT 12SM SKC M28/M32 A3038 RMK FROIN SLP394=

CYQF;2005-01-04 17:00;METAR CYQF 041700Z 18005KT 15SM SKC M23/M27 A3038 RMK SLP394=

CYQF;2005-01-04 18:00;METAR CYQF 041800Z 14005KT 10SM SKC M22/M26 A3038 RMK BR SLP390=

CYQF;2005-01-04 20:00;METAR CYQF 042000Z 17009KT 12SM SKC M20/M23 A3032 RMK SLP372=

CYQF;2005-01-04 21:00;METAR CYQF 042100Z 15006KT 15SM SKC M19/M23 A3032 RMK SLP366=

CYQF;2005-01-04 22:00;METAR CYQF 042200Z 18009KT 12SM SKC M17/M21 A3028 RMK SLP355=

CYQF;2005-01-04 23:00;METAR CYQF 042300Z 18011KT 12SM SKC M17/M21 A3027 RMK SLP351=

CYQF;2005-01-05 00:00;METAR CYQF 050000Z 18015KT 12SM FEW250 M18/M22 A3023 RMK CI0 SLP330=

CYQF;2005-01-05 01:00;METAR CYQF 050100Z 17014KT 15SM FEW250 M18/M23 A3024 RMK CI1 SLP334=

CYQF;2005-01-05 02:00;METAR CYQF 050200Z 18015KT 15SM SKC M18/M22 A3023 RMK SLP331=

CYQF;2005-01-05 03:00;METAR CYQF 050300Z 17017G25KT 15SM SKC M17/M22 A3022 RMK SLP326=

CYQF;2005-01-05 04:00;METAR CYQF 050400Z 17016G23KT 15SM SKC M17/M22 A3020 RMK SLP321=

CYQF;2005-01-05 05:00;METAR CYQF 050500Z 17015KT 15SM SKC M18/M22 A3019 RMK SLP318=

CYQF;2005-01-05 06:00;METAR CYQF 050600Z 17012KT 15SM SKC M18/M22 A3017 RMK SLP307=

CYQF;2005-01-05 07:00;METAR CYQF 050700Z 17010KT 15SM SKC M20/M24 A3015 RMK SLP300=

CYQF;2005-01-05 08:00;METAR CYQF 050800Z 18007KT 15SM SKC M20/M24 A3012 RMK SLP289=

CYQF;2005-01-05 09:00;METAR CYQF 050900Z 00000KT 15SM SKC M19/M23 A3010 RMK SLP277=

CYQF;2005-01-05 10:00;METAR CYQF 051000Z 19004KT 15SM SKC M19/M23 A3007 RMK SLP268=

CYQF;2005-01-05 11:00;METAR CYQF 051100Z 18011KT 15SM SKC M19/M24 A3005 RMK SLP262=

CYQF;2005-01-05 12:00;METAR CYQF 051200Z 16003KT 15SM SKC M20/M24 A3004 RMK SLP255=

CYQF;2005-01-05 14:00;METAR CYQF 051400Z 18005KT 15SM SKC M21/M25 A3000 RMK SLP244=

CYQF;2005-01-05 15:00;METAR CYQF 051500Z 19004KT 15SM SKC M23/M27 A2998 RMK SLP238=

CYQF;2005-01-05 16:00;METAR CYQF 051600Z 18006KT 15SM FEW250 M22/M26 A2995 RMK CI0 SLP229=

CYQF;2005-01-05 17:00;METAR CYQF 051700Z 18003KT 15SM FEW250 M19/M25 A2994 RMK CI0 SLP227=

CYQF;2005-01-05 18:00;METAR CYQF 051800Z 18005KT 15SM FEW250 M17/M24 A2992 RMK CI0 SLP212=

CYQF;2005-01-05 19:00;METAR CYQF 051900Z 17004KT 15SM FEW250 M16/M22 A2987 RMK CI0 SLP197=

CYQF;2005-01-05 20:00;METAR CYQF 052000Z 16006KT 15SM FEW250 M14/M21 A2981 RMK CI0 SLP178=

CYQF;2005-01-05 21:00;METAR CYQF 052100Z 17004KT 15SM FEW250 M13/M20 A2977 RMK CI1 SLP156=

CYQF;2005-01-05 22:00;METAR CYQF 052200Z 18006KT 15SM FEW250 M12/M19 A2971 RMK CI1 SLP137=

CYQF;2005-01-05 23:00;METAR CYQF 052300Z 18004KT 15SM FEW140 SCT250 M11/M18 A2967 RMK AC1CI1 SLP127=

CYQF;2005-01-06 00:00;METAR CYQF 060000Z 17003KT 15SM FEW140 BKN250 M12/M18 A2964 RMK AC1CI2 SLP112=

CYQF;2005-01-06 01:00;METAR CYQF 060100Z 00000KT 15SM BKN250 M12/M17 A2965 RMK CI2 SLP114=

CYQF;2005-01-06 02:00;METAR CYQF 060200Z 23005KT 15SM SCT250 M14/M19 A2963 RMK CI2 SLP107=

CYQF;2005-01-06 03:00;METAR CYQF 060300Z 18004KT 15SM FEW250 M15/M19 A2960 RMK CI1 SLP105=

CYQF;2005-01-06 04:00;METAR CYQF 060400Z 20007KT 15SM FEW250 M16/M20 A2958 RMK CI1 SLP098=

CYQF;2005-01-06 05:00;METAR CYQF 060500Z 18006KT 15SM SKC M15/M19 A2955 RMK SLP088=

CYQF;2005-01-06 06:00;METAR CYQF 060600Z 19006KT 15SM SKC M16/M21 A2952 RMK SLP070=

CYQF;2005-01-06 07:00;METAR CYQF 060700Z 21004KT 15SM SKC M15/M20 A2949 RMK SLP061=

CYQF;2005-01-06 08:00;METAR CYQF 060800Z 23003KT 15SM SKC M13/M17 A2946 RMK SLP051=

CYQF;2005-01-06 09:00;METAR CYQF 060900Z 19007KT 15SM SKC M14/M18 A2943 RMK SLP031=

CYQF;2005-01-06 10:00;METAR CYQF 061000Z 21004KT 15SM SCT100 BKN250 M12/M16 A2941 RMK AC3CI3 SLP025=

CYQF;2005-01-06 11:00;METAR CYQF 061100Z 21003KT 15SM SCT100 OVC250 M10/M13 A2940 RMK AC3CI5 SLP023=

CYQF;2005-01-06 12:00;METAR CYQF 061200Z 22004KT 15SM BKN100 OVC250 M08/M12 A2940 RMK AC5CI3 SLP015=

CYQF;2005-01-06 14:00;METAR CYQF 061400Z 36010KT 15SM BKN100 BKN250 M02/M07 A2942 RMK AC5CI2 SLP019=

CYQF;2005-01-06 15:00;METAR CYQF 061500Z 32003KT 15SM BKN100 BKN250 M03/M07 A2943 RMK AC5CI2 SLP022=

CYQF;2005-01-06 15:33;SPECI CYQF 061533Z 33009KT 8SM -SHSN SCT040 OVC100 RMK SC3AC5 A40 SCT=

CYQF;2005-01-06 16:00;METAR CYQF 061600Z 32011KT 10SM -SHSN SCT040 OVC090 M02/M06 A2945 RMK SC4AC4 SLP028=

CYQF;2005-01-06 16:54;SPECI CYQF 061654Z 36016KT 2 1/2SM -SHSN BKN040 OVC090 RMK SN2SC5AC2=

CYQF;2005-01-06 17:11;SPECI CYQF 061711Z 01015G20KT 1SM -SHSN OVC040 RMK SN5SC3 DRFTG SNW=

CYQF;2005-01-06 19:00;METAR CYQF 061900Z 36018G25KT 1SM -SN BLSN OVC030 M07/M09 A2962 RMK SN6SC2 SLP092=

CYQF;2005-01-06 20:00;METAR CYQF 062000Z 01020G27KT 1SM -SN BLSN OVC030 M10/M13 A2968 RMK SN6SC2 VSBY VRBL 3/4-11/2 SLP109=

CYQF;2005-01-06 21:00;METAR CYQF 062100Z 36017G25KT 1SM -SN BLSN OVC030 M11/M14 A2973 RMK SN6SC2 VSBY VRBL 3/4-11/2 SLP136=

CYQF;2005-01-06 22:00;METAR CYQF 062200Z 34016G25KT 1SM -SN BLSN OVC030 M11/M14 A2978 RMK SN6SC2 VSBY VRBL 3/4-11/2 SLP151=

CYQF;2005-01-06 23:00;METAR CYQF 062300Z 33015G22KT 1 1/2SM -SN BLSN OVC030 M11/M14 A2982 RMK SN5SC3 SLP164=

CYQF;2005-01-07 00:00;METAR CYQF 070000Z 33014G20KT 1SM -SN OVC030 M11/M13 A2987 RMK SN6SC2 /S01/ DRFTG SNW VSBY VRBL 3/4-11/2 SLP176=

CYQF;2005-01-07 01:00;METAR CYQF 070100Z 35013G22KT 3/4SM -SN VV011 M11/M13 A2988 RMK SN8 SLP179=

CYQF;2005-01-07 02:00;METAR CYQF 070200Z 36013G20KT 3/4SM -SN VV014 M11/M14 A2991 RMK SN8 SLP188=

CYQF;2005-01-07 03:00;METAR CYQF 070300Z 36015G20KT 3/4SM -SN VV011 M12/M14 A2993 RMK SN8 SLP191=

CYQF;2005-01-07 04:44;SPECI CYQF 070444Z 01015KT 2SM -SN VV018 RMK SN8=

CYQF;2005-01-07 05:00;METAR CYQF 070500Z 01013G20KT 2 1/2SM -SN VV020 M12/M15 A2997 RMK SN8 SLP205=

CYQF;2005-01-07 06:00;METAR CYQF 070600Z 01012KT 3SM -SN OVC050 M13/M15 A2999 RMK SN2SC6 /S02/ SLP218=

CYQF;2005-01-07 07:00;METAR CYQF 070700Z 36010KT 3SM -SN OVC050 M13/M16 A3000 RMK SN2SC6 SLP222=

CYQF;2005-01-07 08:00;METAR CYQF 070800Z 34004KT 12SM -SN BKN050 M15/M17 A3002 RMK SC6 SLP226=

CYQF;2005-01-07 09:00;METAR CYQF 070900Z 33006KT 12SM -SN BKN050 M17/M19 A3002 RMK SC5 SLP241=

CYQF;2005-01-07 10:00;METAR CYQF 071000Z 32004KT 12SM -SN BKN050 M19/M21 A3002 RMK SC5 SLP241=

CYQF;2005-01-07 10:42;SPECI CYQF 071042Z 33006KT 15SM FEW050 SCT100 RMK SC2AC2=

CYQF;2005-01-07 11:00;METAR CYQF 071100Z 31003KT 15SM FEW050 SCT100 M20/M24 A3003 RMK SC2AC2 SLP244=

CYQF;2005-01-07 12:00;METAR CYQF 071200Z 32003KT 15SM SCT040 BKN090 M18/M22 A3003 RMK SC4AC2 SLP244=

CYQF;2005-01-07 14:00;METAR CYQF 071400Z 27002KT 15SM -SN SCT020 BKN090 M19/M23 A3002 RMK SC3AC2 SLP240=

CYQF;2005-01-07 15:00;METAR CYQF 071500Z 28004KT 15SM -SN SCT015 BKN090 M21/M24 A3001 RMK SC3AC2 SLP242=

CYQF;2005-01-07 16:00;METAR CYQF 071600Z 00000KT 15SM SCT020 OVC090 M21/M25 A3002 RMK SC3AC3 SLP244=

CYQF;2005-01-07 17:00;METAR CYQF 071700Z 00000KT 10SM -SN SCT020 OVC090 M19/M23 A3001 RMK SC3AC4 SLP241=

CYQF;2005-01-07 18:00;METAR CYQF 071800Z 00000KT 4SM -SN SCT025 OVC090 M18/M21 A3000 RMK SC4AC4 SLP235=

CYQF;2005-01-07 19:00;METAR CYQF 071900Z 00000KT 6SM -SN FEW025 BKN100 OVC250 M17/M20 A2997 RMK SC2AC3CI1 SLP226=

CYQF;2005-01-07 20:00;METAR CYQF 072000Z 00000KT 10SM -SN FEW025 BKN100 OVC250 M16/M19 A2993 RMK SC2AC3CI1 SLP214=

CYQF;2005-01-07 21:00;METAR CYQF 072100Z 00000KT 15SM -SN FEW025 BKN100 BKN250 M16/M19 A2991 RMK SC1AC3CI1 SLP206=

CYQF;2005-01-07 22:00;METAR CYQF 072200Z 00000KT 5SM -SN SCT025 BKN090 OVC250 M16/M19 A2990 RMK SC3AC4CI1 SLP203=

CYQF;2005-01-07 23:00;METAR CYQF 072300Z 17004KT 12SM -SN SCT025 BKN090 OVC250 M16/M19 A2989 RMK SC3AC4CI1 SLP200=

CYQF;2005-01-08 00:00;METAR CYQF 080000Z 16004KT 6SM -SN SCT025 OVC090 M15/M19 A2987 RMK SC3AC5 SLP194=

CYQF;2005-01-08 00:27;SPECI CYQF 080027Z 15004KT 1 1/2SM -SN BKN025 OVC080 RMK SN2SC6AC1=

CYQF;2005-01-08 01:00;METAR CYQF 080100Z 14002KT 1SM -SN VV014 M16/M19 A2985 RMK SN8 SLP189=

CYQF;2005-01-08 02:00;METAR CYQF 080200Z 13002KT 1SM -SN VV015 M16/M19 A2984 RMK SN8 SLP185=

CYQF;2005-01-08 02:24;SPECI CYQF 080224Z 13002KT 2SM -SN OVC030 RMK SN3SC5=

CYQF;2005-01-08 03:00;METAR CYQF 080300Z 10002KT 1 1/2SM -SN OVC030 M16/M19 A2984 RMK SN6SC2 /S01/ SLP187=

CYQF;2005-01-08 04:00;METAR CYQF 080400Z 08002KT 2SM -SN OVC030 M16/M19 A2983 RMK SN5SC3 SLP184=

CYQF;2005-01-08 05:00;METAR CYQF 080500Z 08003KT 2SM -SN OVC030 M16/M19 A2983 RMK SN5SC3 SLP182=

CYQF;2005-01-08 06:00;METAR CYQF 080600Z 00000KT 1 1/2SM -SN OVC030 M16/M19 A2983 RMK SN6SC2 SLP179=

CYQF;2005-01-08 07:00;METAR CYQF 080700Z 00000KT 1SM -SN VV016 M16/M19 A2982 RMK SN8 SLP178=

CYQF;2005-01-08 08:00;METAR CYQF 080800Z 02002KT 1SM -SN VV015 M16/M19 A2981 RMK SN8 SLP173=

CYQF;2005-01-08 09:00;METAR CYQF 080900Z 00000KT 1 1/2SM -SN VV016 M16/M19 A2980 RMK SN8 /S01/ SLP169=

CYQF;2005-01-08 10:00;METAR CYQF 081000Z 00000KT 1SM -SN VV015 M16/M19 A2980 RMK SN8 SLP169=

CYQF;2005-01-08 11:00;METAR CYQF 081100Z 02003KT 1 1/2SM -SN VV015 M17/M20 A2979 RMK SN8 SLP166=

CYQF;2005-01-08 13:00;METAR CYQF 081300Z 01006KT 2SM -SN VV017 M17/M20 A2979 RMK SN8 SLP165=

CYQF;2005-01-08 14:00;METAR CYQF 081400Z 01006KT 1SM -SN VV012 M17/M20 A2979 RMK SN8 SLP165=

CYQF;2005-01-08 15:00;METAR CYQF 081500Z 01005KT 1SM -SN VV012 M17/M21 A2980 RMK SN8 SLP167=

CYQF;2005-01-08 16:00;METAR CYQF 081600Z 36005KT 2SM -SN OVC012 M17/M21 A2982 RMK SC8 SLP175=

CYQF;2005-01-08 17:00;METAR CYQF 081700Z 36005KT 2SM -SN OVC012 M17/M21 A2984 RMK SC8 SLP180=

CYQF;2005-01-08 18:00;METAR CYQF 081800Z 35006KT 2SM -SN OVC012 M17/M20 A2985 RMK SC8 SLP186=

CYQF;2005-01-08 19:00;METAR CYQF 081900Z 35005KT 2SM -SN OVC012 M17/M21 A2984 RMK SC8 SLP183=

CYQF;2005-01-08 20:00;METAR CYQF 082000Z 35008KT 2SM -SN OVC012 M17/M20 A2985 RMK SC8 SLP187=

CYQF;2005-01-08 21:00;METAR CYQF 082100Z 35008KT 2SM -SN OVC012 M16/M20 A2987 RMK SC8 SLP193=

CYQF;2005-01-08 22:00;METAR CYQF 082200Z 35008KT 1 1/2SM -SN OVC012 M16/M20 A2989 RMK SC8 SLP199=

CYQF;2005-01-08 23:00;METAR CYQF 082300Z 35009KT 2SM -SN OVC012 M16/M20 A2992 RMK SC8 SLP208=

CYQF;2005-01-09 00:00;METAR CYQF 090000Z 35007KT 2 1/2SM -SN OVC012 M17/M21 A2995 RMK SC8 SLP222=

CYQF;2005-01-09 01:00;METAR CYQF 090100Z 35006KT 2 1/2SM -SN VV020 M17/M21 A2998 RMK SN8 SLP230=

CYQF;2005-01-09 01:42;SPECI CYQF 090142Z 35006KT 6SM -SN OVC040 RMK SN1SC7 VSBY LWR SW-NW=

CYQF;2005-01-09 02:38;SPECI CYQF 090238Z 36005KT 2 1/2SM -SN OVC040 RMK SN4SC4=

CYQF;2005-01-09 03:00;METAR CYQF 090300Z 36006KT 2 1/2SM -SN OVC040 M18/M22 A3002 RMK SN4SC4 SLP248=

CYQF;2005-01-09 04:00;METAR CYQF 090400Z 33006KT 12SM -SN SCT040 OVC250 M20/M23 A3003 RMK SC4CI2 SLP250=

CYQF;2005-01-09 05:00;METAR CYQF 090500Z 34005KT 12SM FEW013 SCT040 BKN250 M21/M25 A3004 RMK SF2SC2CI1 SLP252=

CYQF;2005-01-09 06:00;METAR CYQF 090600Z 33006KT 12SM -SN SCT013 BKN040 BKN250 M21/M25 A3005 RMK SF3SC2CI0 SLP262=

CYQF;2005-01-09 07:00;METAR CYQF 090700Z 33005KT 15SM -SN SCT015 BKN040 OVC250 M21/M25 A3007 RMK SF3SC2CI1 SLP268=

CYQF;2005-01-09 08:00;METAR CYQF 090800Z 34005KT 10SM -SN FEW015 BKN040 OVC250 M21/M24 A3007 RMK SF2SC3CI2 SLP268=

CYQF;2005-01-09 09:00;METAR CYQF 090900Z 36003KT 6SM -SN BKN040 OVC250 M20/M24 A3008 RMK SC6CI1 SLP270=

CYQF;2005-01-09 10:00;METAR CYQF 091000Z 19003KT 4SM -SN BKN040 OVC250 M21/M25 A3011 RMK SC6CI1 SLP278=

CYQF;2005-01-09 11:00;METAR CYQF 091100Z 00000KT 10SM -SN SCT040 BKN250 M22/M26 A3010 RMK SC3CI2 SLP275=

CYQF;2005-01-09 12:00;METAR CYQF 091200Z 00000KT 15SM -SN FEW040 BKN250 M24/M28 A3010 RMK SC2CI2 SLP283=

CYQF;2005-01-09 13:00;METAR CYQF 091300Z 00000KT 15SM -SN FEW040 BKN250 M24/M28 A3009 RMK SC2CI2 SLP280=

CYQF;2005-01-09 14:00;METAR CYQF 091400Z 20002KT 12SM -SN BKN075 OVC250 M24/M28 A3009 RMK AC6CI1 SLP278=

CYQF;2005-01-09 15:00;METAR CYQF 091500Z 00000KT 12SM -SN BKN080 BKN250 M24/M28 A3009 RMK AC6CI1 SLP280=

CYQF;2005-01-09 15:35;SPECI CYQF 091535Z 18003KT 15SM FEW080 SCT250 RMK AC1CI1=

CYQF;2005-01-09 16:00;METAR CYQF 091600Z 18002KT 15SM FEW250 M25/M29 A3009 RMK CI1 SLP279=

CYQF;2005-01-09 17:00;METAR CYQF 091700Z 20002KT 15SM FEW250 M25/M29 A3009 RMK CI1 SLP281=

CYQF;2005-01-09 18:00;METAR CYQF 091800Z 16002KT 15SM FEW250 M22/M27 A3008 RMK CI1 SLP278=

CYQF;2005-01-09 19:00;METAR CYQF 091900Z 00000KT 15SM FEW250 M22/M26 A3005 RMK CI1 SLP270=

CYQF;2005-01-09 20:00;METAR CYQF 092000Z 16004KT 15SM SKC M21/M25 A3000 RMK SLP254=

CYQF;2005-01-09 21:00;METAR CYQF 092100Z 16004KT 15SM FEW250 M21/M25 A2998 RMK CI1 SLP239=

CYQF;2005-01-09 22:00;METAR CYQF 092200Z 15006KT 15SM FEW250 M21/M25 A2997 RMK CI0 SLP236=

CYQF;2005-01-09 23:00;METAR CYQF 092300Z 16005KT 15SM FEW250 M23/M28 A2996 RMK CI0 SLP234=

CYQF;2005-01-09 23:24;SPECI CYQF 092324Z 16006KT 10SM SCT006 RMK SF2=

CYQF;2005-01-10 00:00;METAR CYQF 100000Z 17007KT 8SM BKN006 M25/M29 A2995 RMK SF2 SLP239=

CYQF;2005-01-10 01:00;METAR CYQF 100100Z 19004KT 10SM FEW006 M26/M30 A2994 RMK SF2 BR SLP236=

CYQF;2005-01-10 02:00;METAR CYQF 100200Z 20006KT 8SM BKN005 M26/M31 A2992 RMK SF4 M5 -BKN BR SLP231=

CYQF;2005-01-10 03:00;METAR CYQF 100300Z 20006KT 6SM IC SCT005 M27/M31 A2990 RMK SF2 BR SLP225=

CYQF;2005-01-10 04:00;METAR CYQF 100400Z 21009KT 4SM IC SCT005 M27/M32 A2987 RMK SF2 BR SLP214=

CYQF;2005-01-10 05:00;METAR CYQF 100500Z 21006KT 2 1/2SM IC SCT005 M27/M32 A2985 RMK SF2 BR SLP210=

CYQF;2005-01-10 06:00;METAR CYQF 100600Z 20008KT 6SM IC FEW005 M28/M33 A2985 RMK SF2 BR SLP205=

CYQF;2005-01-10 07:00;METAR CYQF 100700Z 20006KT 15SM FEW005 M28/M33 A2983 RMK SF1 SLP200=

CYQF;2005-01-10 08:00;METAR CYQF 100800Z 20005KT 15SM SKC M29/M33 A2982 RMK SLP196=

CYQF;2005-01-10 09:00;METAR CYQF 100900Z 22006KT 15SM SKC M29/M36 A2981 RMK SLP193=

CYQF;2005-01-10 10:00;METAR CYQF 101000Z 21004KT 15SM SKC M29/M32 A2983 RMK SLP198=

CYQF;2005-01-10 11:00;METAR CYQF 101100Z 21003KT 15SM SKC M30/M35 A2983 RMK SLP199=

CYQF;2005-01-10 12:00;METAR CYQF 101200Z 20006KT 15SM SKC M30/M35 A2983 RMK SLP206=

CYQF;2005-01-10 13:00;METAR CYQF 101300Z 20005KT 15SM SKC M30/M34 A2984 RMK SLP208=

CYQF;2005-01-10 14:00;METAR CYQF 101400Z 20007KT 15SM FEW030 M27/M32 A2985 RMK SC2 SLP210=

CYQF;2005-01-10 15:00;METAR CYQF 101500Z 20005KT 15SM SCT050 BKN080 M24/M28 A2985 RMK SC3AC4 SLP208=

CYQF;2005-01-10 16:00;METAR CYQF 101600Z 20007KT 15SM FEW080 BKN250 M23/M27 A2987 RMK AC2CI0 SLP214=

CYQF;2005-01-10 17:00;METAR CYQF 101700Z 18003KT 15SM FEW080 SCT250 M23/M28 A2989 RMK AC2CI0 SLP218=

CYQF;2005-01-10 18:00;METAR CYQF 101800Z 22004KT 15SM FEW100 BKN250 M21/M25 A2988 RMK AC2CI2 SLP217=

CYQF;2005-01-10 19:00;METAR CYQF 101900Z 22005KT 15SM BKN100 M17/M21 A2986 RMK AC6 SLP211=

CYQF;2005-01-10 20:00;METAR CYQF 102000Z 22006KT 15SM FEW100 BKN250 M13/M18 A2985 RMK AC1CI2 SLP206=

CYQF;2005-01-10 21:00;METAR CYQF 102100Z 18005KT 15SM FEW250 M13/M18 A2982 RMK CI1 SLP186=

CYQF;2005-01-10 22:00;METAR CYQF 102200Z 00000KT 15SM FEW250 M12/M17 A2980 RMK CI1 SLP180=

CYQF;2005-01-10 23:00;METAR CYQF 102300Z 18006KT 15SM FEW120 M14/M19 A2979 RMK AC1 SLP176=

CYQF;2005-01-11 00:00;METAR CYQF 110000Z 14004KT 15SM FEW120 M16/M21 A2976 RMK AC1 SLP171=

CYQF;2005-01-11 02:00;METAR CYQF 110200Z 18013KT 15SM SKC M18/M22 A2967 RMK SLP144=

CYQF;2005-01-11 03:00;METAR CYQF 110300Z 18012KT 15SM SKC M16/M21 A2965 RMK SLP123=

CYQF;2005-01-11 04:00;METAR CYQF 110400Z 16003KT 15SM SKC M18/M23 A2963 RMK SLP117=

CYQF;2005-01-11 05:00;METAR CYQF 110500Z 19004KT 15SM FEW250 M20/M25 A2963 RMK CI1 SLP116=

CYQF;2005-01-11 06:00;METAR CYQF 110600Z 20004KT 15SM FEW250 M22/M27 A2962 RMK CI1 SLP118=

CYQF;2005-01-11 07:00;METAR CYQF 110700Z 25003KT 15SM SKC M24/M28 A2962 RMK SLP119=

CYQF;2005-01-11 08:00;METAR CYQF 110800Z 21006KT 15SM SKC M25/M29 A2960 RMK SLP112=

CYQF;2005-01-11 09:00;METAR CYQF 110900Z 21004KT 15SM SKC M25/M30 A2959 RMK SLP102=

CYQF;2005-01-11 10:00;METAR CYQF 111000Z 21006KT 15SM SKC M26/M30 A2959 RMK SLP102=

CYQF;2005-01-11 11:00;METAR CYQF 111100Z 19004KT 15SM SKC M24/M28 A2958 RMK SLP098=

CYQF;2005-01-11 12:00;METAR CYQF 111200Z 21004KT 15SM FEW100 SCT250 M24/M29 A2958 RMK AC2CI1 SLP100=

CYQF;2005-01-11 13:00;METAR CYQF 111300Z 18003KT 15SM FEW100 SCT250 M24/M28 A2956 RMK AC2CI1 SLP096=

CYQF;2005-01-11 14:00;METAR CYQF 111400Z 22004KT 15SM FEW100 SCT250 M24/M28 A2956 RMK AC2CI1 SLP095=

CYQF;2005-01-11 15:00;METAR CYQF 111500Z 19005KT 15SM FEW100 BKN250 M24/M28 A2955 RMK AC2CI2 SLP090=

CYQF;2005-01-11 16:00;METAR CYQF 111600Z 26002KT 15SM SCT100 BKN250 M23/M27 A2956 RMK AC4CI2 SLP091=

CYQF;2005-01-11 17:00;METAR CYQF 111700Z 14002KT 15SM SCT100 BKN250 M21/M25 A2955 RMK AC4CI3 SLP090=

CYQF;2005-01-11 18:00;METAR CYQF 111800Z 19005KT 15SM SCT100 BKN250 M17/M21 A2952 RMK AC3CI2 SLP079=

CYQF;2005-01-11 19:00;METAR CYQF 111900Z 13002KT 15SM SCT100 BKN250 M15/M19 A2948 RMK AC3CI2 SLP066=

CYQF;2005-01-11 20:00;METAR CYQF 112000Z 00000KT 15SM SCT100 BKN250 M12/M16 A2944 RMK AC3CI2 SLP052=

CYQF;2005-01-11 21:00;METAR CYQF 112100Z 36004KT 15SM SCT100 BKN250 M15/M19 A2941 RMK AC3CI2 SLP039=

CYQF;2005-01-11 22:00;METAR CYQF 112200Z 17003KT 15SM SCT090 BKN250 M12/M17 A2937 RMK AC3CI2 SLP028=

CYQF;2005-01-11 23:00;METAR CYQF 112300Z 17011KT 15SM SCT090 BKN250 M09/M16 A2934 RMK AC3CI2 SLP019=

CYQF;2005-01-12 00:00;METAR CYQF 120000Z 16011KT 15SM SCT080 BKN250 M12/M17 A2931 RMK AC4CI2 SLP003=

CYQF;2005-01-12 01:00;METAR CYQF 120100Z 18008KT 15SM SCT040 BKN080 BKN250 M12/M17 A2927 RMK SC3AC2CI1 SLP991=

CYQF;2005-01-12 02:00;METAR CYQF 120200Z 18010KT 15SM SCT040 BKN080 OVC250 M10/M16 A2925 RMK SC3AC4CI1 SLP984=

CYQF;2005-01-12 03:00;METAR CYQF 120300Z 18009KT 15SM BKN080 OVC250 M11/M16 A2924 RMK AC6CI2 SLP974=

CYQF;2005-01-12 04:00;METAR CYQF 120400Z 19008KT 15SM SCT080 BKN250 M12/M17 A2923 RMK AC4CI2 SLP971=

CYQF;2005-01-12 05:00;METAR CYQF 120500Z 34028G33KT 2SM -SN BLSN FEW020 OVC080 M15/M18 A2934 RMK SC2AC6 PRESRR SLP007=

CYQF;2005-01-12 07:00;METAR CYQF 120700Z 34018G24KT 6SM -SN DRSN OVC021 M20/M23 A2950 RMK SC7 SLP064=

CYQF;2005-01-12 08:00;METAR CYQF 120800Z 34021G28KT 6SM -SN DRSN BKN025 M20/M24 A2954 RMK SC6 SLP076=

CYQF;2005-01-12 09:00;METAR CYQF 120900Z 34020G29KT 3SM -SN DRSN OVC025 M21/M24 A2959 RMK SC8 OCNL BS SLP099=

CYQF;2005-01-12 09:05;SPECI CYQF 120905Z 34020G30KT 1SM -SN BLSN VV015 RMK SN8=

CYQF;2005-01-12 10:00;METAR CYQF 121000Z 34016G26KT 3SM -SN BLSN OVC025 M22/M28 A2966 RMK SC8 SLP119=

CYQF;2005-01-12 11:00;METAR CYQF 121100Z 34022G32KT 6SM -SN BLSN OVC025 M22/M28 A2969 RMK SC8 SLP128=

CYQF;2005-01-12 12:00;METAR CYQF 121200Z 34024G34KT 6SM -SN BLSN OVC025 M23/M29 A2975 RMK SC8 SLP153=

CYQF;2005-01-12 13:00;METAR CYQF 121300Z 33025G32KT 6SM -SN BLSN OVC025 M24/M30 A2980 RMK SC8 SLP168=

CYQF;2005-01-12 14:00;METAR CYQF 121400Z 34018G27KT 6SM -SN BLSN OVC025 M24/M30 A2986 RMK SC8 SLP188=

CYQF;2005-01-12 15:00;METAR CYQF 121500Z 33018G26KT 3SM -SN BLSN SCT025 BKN100 M25/M30 A2989 RMK SC4AC2 SLP202=

CYQF;2005-01-12 16:00;METAR CYQF 121600Z 33016G24KT 8SM -SN DRSN FEW025 BKN100 M25/M32 A2996 RMK SC2AC4 OCNL BLSN PRESRR SLP224=

CYQF;2005-01-12 17:00;METAR CYQF 121700Z 33015KT 15SM DRSN FEW030 SCT100 M25/M32 A2998 RMK SC2AC2 SLP231=

CYQF;2005-01-12 19:00;METAR CYQF 121900Z 34011G16KT 15SM DRSN FEW025 FEW080 M25/M31 A3004 RMK SC1AC2 SLP263=

CYQF;2005-01-12 20:00;METAR CYQF 122000Z 30010KT 15SM FEW025 FEW080 M25/M31 A3003 RMK SC1AC2 SLP262=

CYQF;2005-01-12 21:00;METAR CYQF 122100Z 33010KT 15SM FEW025 FEW080 M25/M31 A3003 RMK SC1AC2 SLP263=

CYQF;2005-01-12 22:00;METAR CYQF 122200Z 34008KT 15SM FEW080 FEW250 M25/M32 A3005 RMK AC1CI2 SLP269=

CYQF;2005-01-12 23:00;METAR CYQF 122300Z 36003KT 15SM FEW080 FEW250 M25/M32 A3008 RMK AC1CI2 SLP278=

CYQF;2005-01-13 00:00;METAR CYQF 130000Z 36005KT 15SM FEW100 FEW250 M27/M33 A3010 RMK AC1CI1 SLP294=

CYQF;2005-01-13 02:00;METAR CYQF 130200Z 02003KT 15SM FEW100 M28/M34 A3013 RMK AC1 SLP303=

CYQF;2005-01-13 03:00;METAR CYQF 130300Z 06002KT 15SM FEW100 M29/M33 A3014 RMK AC1 SLP311=

CYQF;2005-01-13 04:00;METAR CYQF 130400Z 00000KT 15SM SKC M31/M36 A3015 RMK SLP315=

CYQF;2005-01-13 05:00;METAR CYQF 130500Z 23002KT 15SM SKC M34/M39 A3017 RMK SLP322=

CYQF;2005-01-13 07:00;METAR CYQF 130700Z 19004KT 15SM SKC M36/M41 A3019 RMK SLP337=

CYQF;2005-01-13 08:00;METAR CYQF 130800Z 19004KT 15SM SKC M36/M41 A3019 RMK SLP337=

CYQF;2005-01-13 09:00;METAR CYQF 130900Z 18003KT 15SM SKC M37/M41 A3019 RMK SLP340=

CYQF;2005-01-13 10:00;METAR CYQF 131000Z 00000KT 15SM SKC M36/M40 A3020 RMK SLP343=

CYQF;2005-01-13 11:00;METAR CYQF 131100Z 00000KT 15SM SKC M37/M41 A3020 RMK SLP343=

CYQF;2005-01-13 12:00;METAR CYQF 131200Z 21003KT 15SM SKC M37/M42 A3021 RMK SLP348=

CYQF;2005-01-13 13:00;METAR CYQF 131300Z 23005KT 15SM SKC M37/M40 A3021 RMK SLP349=

CYQF;2005-01-13 14:00;METAR CYQF 131400Z 23006KT 15SM SKC M36/M41 A3022 RMK SLP352=

CYQF;2005-01-13 15:00;METAR CYQF 131500Z 23005KT 15SM SKC M36/M41 A3024 RMK SLP360=

CYQF;2005-01-13 16:00;METAR CYQF 131600Z 18005KT 15SM SKC M37/M41 A3025 RMK SLP366=

CYQF;2005-01-13 17:00;METAR CYQF 131700Z 18004KT 15SM SKC M36/M40 A3027 RMK SLP372=

CYQF;2005-01-13 18:00;METAR CYQF 131800Z 21004KT 15SM SKC M33/M38 A3028 RMK SLP378=

CYQF;2005-01-13 19:00;METAR CYQF 131900Z 19003KT 15SM SKC M31/M36 A3026 RMK SLP373=

CYQF;2005-01-13 20:00;METAR CYQF 132000Z 30006KT 15SM SKC M27/M32 A3024 RMK SLP365=

CYQF;2005-01-13 21:00;METAR CYQF 132100Z 29006KT 15SM SKC M26/M32 A3023 RMK SLP355=

CYQF;2005-01-13 22:00;METAR CYQF 132200Z 31006KT 15SM SKC M25/M33 A3023 RMK SLP355=

CYQF;2005-01-13 23:00;METAR CYQF 132300Z 32006KT 15SM SKC M24/M33 A3026 RMK SLP363=

CYQF;2005-01-14 00:00;METAR CYQF 140000Z 28003KT 15SM FEW120 M26/M34 A3027 RMK AC1 SLP369=

CYQF;2005-01-14 01:00;METAR CYQF 140100Z 28003KT 15SM FEW120 M26/M34 A3028 RMK AC1 SLP373=

CYQF;2005-01-14 02:00;METAR CYQF 140200Z 27005KT 15SM FEW120 M28/M35 A3029 RMK AC1 SLP376=

CYQF;2005-01-14 03:00;METAR CYQF 140300Z 27006KT 15SM FEW250 M29/M36 A3031 RMK CI2 SLP385=

CYQF;2005-01-14 04:00;METAR CYQF 140400Z 26007KT 15SM FEW250 M30/M36 A3031 RMK CI2 SLP386=

CYQF;2005-01-14 07:00;METAR CYQF 140700Z 27004KT 15SM SKC M32/M36 A3037 RMK SLP406=

CYQF;2005-01-14 08:00;METAR CYQF 140800Z 27006KT 15SM SKC M31/M36 A3037 RMK SLP406=

CYQF;2005-01-14 09:00;METAR CYQF 140900Z 29005KT 15SM SKC M30/M35 A3038 RMK SLP398=

CYQF;2005-01-14 11:00;METAR CYQF 141100Z 28004KT 15SM SKC M33/M38 A3041 RMK SLP408=

CYQF;2005-01-14 12:00;METAR CYQF 141200Z 24004KT 15SM SKC M34/M39 A3042 RMK SLP418=

CYQF;2005-01-14 13:00;METAR CYQF 141300Z 23004KT 15SM SKC M36/M39 A3041 RMK SLP415=

CYQF;2005-01-14 14:00;METAR CYQF 141400Z 19002KT 15SM SKC M34/M38 A3041 RMK SLP416=

CYQF;2005-01-14 15:00;METAR CYQF 141500Z 25010KT 15SM SKC M34/M39 A3042 RMK SLP420=

CYQF;2005-01-14 16:00;METAR CYQF 141600Z 25010KT 15SM SKC M32/M37 A3042 RMK SLP420=

CYQF;2005-01-14 17:00;METAR CYQF 141700Z 21003KT 15SM SKC M31/M36 A3043 RMK SLP424=

CYQF;2005-01-14 18:00;METAR CYQF 141800Z 22007KT 15SM SKC M30/M36 A3043 RMK SLP423=

CYQF;2005-01-14 19:00;METAR CYQF 141900Z 23008KT 15SM SKC M28/M35 A3042 RMK SLP419=

CYQF;2005-01-14 20:00;METAR CYQF 142000Z 23004KT 15SM SKC M25/M33 A3040 RMK SLP413=

CYQF;2005-01-14 21:00;METAR CYQF 142100Z 23006KT 15SM SKC M24/M32 A3036 RMK SLP390=

CYQF;2005-01-14 22:00;METAR CYQF 142200Z 21005KT 15SM SKC M23/M31 A3035 RMK SLP386=

CYQF;2005-01-14 23:00;METAR CYQF 142300Z 23006KT 15SM SKC M22/M31 A3035 RMK SLP386=

CYQF;2005-01-15 00:00;METAR CYQF 150000Z 22005KT 15SM SKC M27/M35 A3035 RMK SLP394=

CYQF;2005-01-15 01:00;METAR CYQF 150100Z 21005KT 15SM FEW250 M27/M34 A3035 RMK CI1 SLP394=

CYQF;2005-01-15 02:00;METAR CYQF 150200Z 18004KT 15SM SKC M28/M35 A3034 RMK SLP391=

CYQF;2005-01-15 03:00;METAR CYQF 150300Z 20006KT 15SM SKC M31/M37 A3034 RMK SLP398=

CYQF;2005-01-15 04:00;METAR CYQF 150400Z 22008KT 15SM SKC M30/M36 A3034 RMK SLP396=

CYQF;2005-01-15 05:00;METAR CYQF 150500Z 23006KT 15SM SKC M30/M36 A3034 RMK SLP395=

CYQF;2005-01-15 06:00;METAR CYQF 150600Z 23005KT 15SM SKC M29/M36 A3033 RMK SLP386=

CYQF;2005-01-15 07:00;METAR CYQF 150700Z 23005KT 15SM SKC M31/M37 A3032 RMK SLP383=

CYQF;2005-01-15 08:00;METAR CYQF 150800Z 22004KT 15SM SKC M30/M35 A3031 RMK SLP380=

CYQF;2005-01-15 09:00;METAR CYQF 150900Z 22005KT 15SM SKC M31/M37 A3031 RMK SLP373=

CYQF;2005-01-15 10:00;METAR CYQF 151000Z 24003KT 15SM FEW250 M32/M36 A3033 RMK CI0 SLP377=

CYQF;2005-01-15 11:00;METAR CYQF 151100Z 22004KT 15SM FEW250 M33/M38 A3034 RMK CI0 SLP382=

CYQF;2005-01-15 12:00;METAR CYQF 151200Z 21006KT 15SM FEW250 M33/M38 A3036 RMK CI0 SLP396=

CYQF;2005-01-15 13:00;METAR CYQF 151300Z 20006KT 15SM FEW250 M34/M39 A3037 RMK CI1 SLP400=

CYQF;2005-01-15 14:00;METAR CYQF 151400Z 20005KT 15SM FEW250 M33/M38 A3038 RMK CI1 SLP404=

CYQF;2005-01-15 15:00;METAR CYQF 151500Z 18005KT 15SM FEW250 M32/M37 A3039 RMK CI0 SLP412=

CYQF;2005-01-15 16:00;METAR CYQF 151600Z 20005KT 15SM FEW120 M32/M37 A3042 RMK AC1 SLP420=

CYQF;2005-01-15 17:00;METAR CYQF 151700Z 21004KT 10SM FEW120 M31/M36 A3044 RMK AC1 HZ SLP428=

CYQF;2005-01-15 18:00;METAR CYQF 151800Z 20003KT 10SM FEW120 M28/M35 A3046 RMK AC1 HZ SLP428=

CYQF;2005-01-15 19:00;METAR CYQF 151900Z 00000KT 12SM SKC M24/M31 A3046 RMK HZ SLP428=

CYQF;2005-01-15 20:00;METAR CYQF 152000Z 00000KT 12SM SKC M23/M30 A3046 RMK SLP427=

CYQF;2005-01-15 21:00;METAR CYQF 152100Z 21005KT 15SM SKC M21/M30 A3044 RMK SLP417=

CYQF;2005-01-15 22:00;METAR CYQF 152200Z 18003KT 15SM FEW250 M20/M29 A3044 RMK CI1 SLP415=

CYQF;2005-01-15 23:00;METAR CYQF 152300Z 19002KT 15SM FEW250 M20/M29 A3044 RMK CI1 SLP416=

CYQF;2005-01-16 00:00;METAR CYQF 160000Z 18002KT 15SM FEW250 M23/M30 A3044 RMK CI1 SLP420=

CYQF;2005-01-16 01:00;METAR CYQF 160100Z 20003KT 15SM FEW250 M26/M33 A3043 RMK CI1 SLP417=

CYQF;2005-01-16 02:00;METAR CYQF 160200Z 21004KT 15SM SKC M25/M31 A3043 RMK SLP415=

CYQF;2005-01-16 04:00;METAR CYQF 160400Z 19003KT 15SM FEW250 M27/M32 A3037 RMK CI2 SLP397=

CYQF;2005-01-16 06:00;METAR CYQF 160600Z 17004KT 15SM FEW250 M25/M32 A3032 RMK CI2 SLP374=

CYQF;2005-01-16 07:00;METAR CYQF 160700Z 16003KT 15SM FEW250 M23/M30 A3030 RMK CI2 SLP368=

CYQF;2005-01-16 08:00;METAR CYQF 160800Z 16007KT 15SM SCT250 M22/M29 A3026 RMK CI2 SLP355=

CYQF;2005-01-16 09:00;METAR CYQF 160900Z 12003KT 15SM SCT250 M22/M29 A3024 RMK CI2 SLP333=

CYQF;2005-01-16 10:00;METAR CYQF 161000Z 16008KT 15SM SCT250 M22/M30 A3022 RMK CI2 SLP327=

CYQF;2005-01-16 11:00;METAR CYQF 161100Z 17004KT 15SM BKN250 M23/M30 A3020 RMK CI6 SLP322=

CYQF;2005-01-16 12:00;METAR CYQF 161200Z 00000KT 15SM BKN250 M23/M30 A3019 RMK CI3 SLP319=

CYQF;2005-01-16 13:00;METAR CYQF 161300Z 14003KT 15SM BKN250 M22/M29 A3017 RMK CI3 SLP314=

CYQF;2005-01-16 14:00;METAR CYQF 161400Z 15004KT 15SM SCT250 M22/M30 A3017 RMK CI2 SLP314=

CYQF;2005-01-16 15:00;METAR CYQF 161500Z 13003KT 15SM BKN250 M22/M29 A3017 RMK CI4 SLP315=

CYQF;2005-01-16 16:00;METAR CYQF 161600Z 13005KT 15SM SCT120 OVC250 M21/M29 A3016 RMK AC3CI2 SLP312=

CYQF;2005-01-16 17:00;METAR CYQF 161700Z 14010KT 15SM FEW120 OVC250 M21/M29 A3016 RMK AC2CI2 SLP312=

CYQF;2005-01-16 18:00;METAR CYQF 161800Z 15007KT 15SM FEW120 OVC250 M21/M28 A3016 RMK AC2CI2 SLP310=

CYQF;2005-01-16 19:00;METAR CYQF 161900Z 14006KT 15SM FEW090 BKN120 OVC250 M19/M26 A3014 RMK AC2AS3CI2 SLP302=

CYQF;2005-01-16 20:00;METAR CYQF 162000Z 15006KT 15SM BKN120 OVC250 M18/M25 A3010 RMK AC5CI1 SLP291=

CYQF;2005-01-16 21:00;METAR CYQF 162100Z 13007KT 15SM SCT120 BKN250 M16/M24 A3008 RMK AC3CI1 SLP272=

CYQF;2005-01-16 22:00;METAR CYQF 162200Z 15006KT 15SM BKN120 OVC250 M17/M24 A3007 RMK AC5CI1 SLP270=

CYQF;2005-01-16 23:00;METAR CYQF 162300Z 14007KT 15SM BKN120 OVC250 M17/M23 A3007 RMK AC5CI2 SLP270=

CYQF;2005-01-17 00:00;METAR CYQF 170000Z 14006KT 15SM BKN100 OVC250 M17/M23 A3007 RMK AC6CI2 SLP270=

CYQF;2005-01-17 01:00;METAR CYQF 170100Z 14004KT 15SM BKN100 BKN250 M16/M22 A3007 RMK AC5CI2 SLP271=

CYQF;2005-01-17 02:00;METAR CYQF 170200Z 00000KT 15SM BKN100 BKN250 M16/M22 A3007 RMK AC6CI1 SLP269=

CYQF;2005-01-17 03:00;METAR CYQF 170300Z 15003KT 15SM FEW050 BKN100 M16/M21 A3007 RMK SC2AC6 SLP267=

CYQF;2005-01-17 04:00;METAR CYQF 170400Z 20005KT 15SM FEW050 BKN100 M16/M21 A3007 RMK SC2AC5 SLP268=

CYQF;2005-01-17 05:00;METAR CYQF 170500Z 20004KT 15SM BKN100 BKN250 M16/M21 A3008 RMK AC5CI2 SLP270=

CYQF;2005-01-17 06:00;METAR CYQF 170600Z 18006KT 15SM FEW100 SCT250 M17/M22 A3006 RMK AC2CI0 SLP265=

CYQF;2005-01-17 07:00;METAR CYQF 170700Z 17006KT 15SM BKN100 M17/M22 A3005 RMK AC5 SLP263=

CYQF;2005-01-17 08:00;METAR CYQF 170800Z 18004KT 15SM FEW100 SCT250 M17/M22 A3004 RMK AC1CI1 SLP258=

CYQF;2005-01-17 09:00;METAR CYQF 170900Z 18004KT 15SM FEW100 FEW250 M18/M23 A3003 RMK AC1CI1 SLP250=

CYQF;2005-01-17 10:00;METAR CYQF 171000Z 18003KT 15SM FEW100 M18/M23 A3003 RMK AC2 SLP251=

CYQF;2005-01-17 11:00;METAR CYQF 171100Z 20003KT 15SM FEW100 SCT250 M18/M23 A2999 RMK AC2CI1 SLP239=

CYQF;2005-01-17 12:00;METAR CYQF 171200Z 21004KT 15SM FEW100 BKN250 M18/M22 A2998 RMK AC2CI1 SLP234=

CYQF;2005-01-17 13:00;METAR CYQF 171300Z 13002KT 15SM SCT100 OVC250 M17/M22 A2994 RMK AC4CI2 SLP221=

CYQF;2005-01-17 14:00;METAR CYQF 171400Z 19005KT 15SM SCT100 BKN250 M15/M19 A2992 RMK AC3CI2 SLP215=

CYQF;2005-01-17 15:00;METAR CYQF 171500Z 18005KT 15SM BKN100 OVC250 M14/M17 A2988 RMK AC6CI2 SLP191=

CYQF;2005-01-17 16:00;METAR CYQF 171600Z 16007KT 15SM FEW050 BKN100 OVC250 M09/M12 A2984 RMK SC2AC4CI2 SLP178=

CYQF;2005-01-17 17:00;METAR CYQF 171700Z 16007KT 15SM FEW050 BKN090 OVC250 M04/M09 A2977 RMK SC2AC4CI2 PRESFR VIRGA W SLP158=

CYQF;2005-01-17 18:00;METAR CYQF 171800Z 17008KT 15SM FEW050 BKN090 OVC250 00/M07 A2974 RMK SC2AC4CI2 VIRGA W SLP127=

CYQF;2005-01-17 19:00;METAR CYQF 171900Z 21014KT 15SM FEW050 BKN090 OVC250 04/M04 A2969 RMK SC2AC4CI1 VIRGA W SLP113=

CYQF;2005-01-17 20:00;METAR CYQF 172000Z 22012KT 15SM FEW050 BKN090 OVC250 05/M03 A2964 RMK SC2AC4CI2 VIRGA SLP097=

CYQF;2005-01-17 21:00;METAR CYQF 172100Z 22016KT 15SM FEW050 SCT090 BKN250 06/M03 A2959 RMK SC1AC2CI2 SLP070=

CYQF;2005-01-17 22:00;METAR CYQF 172200Z 22008KT 15SM FEW050 BKN100 OVC250 04/M02 A2958 RMK SC2AC4CI2 SLP067=

CYQF;2005-01-17 23:00;METAR CYQF 172300Z 22007KT 15SM FEW050 BKN100 BKN250 03/M02 A2955 RMK SC2AC4CI2 VIRGA SLP059=

CYQF;2005-01-18 00:00;METAR CYQF 180000Z 20002KT 15SM FEW050 BKN090 OVC250 03/M02 A2956 RMK SC2AC4CI2 VIRGA SLP065=

CYQF;2005-01-18 01:00;METAR CYQF 180100Z 21004KT 15SM FEW050 BKN090 OVC250 03/M02 A2954 RMK SC2AC4CI2 SLP059=

CYQF;2005-01-18 02:00;METAR CYQF 180200Z 21003KT 15SM SCT050 BKN100 OVC250 02/M02 A2953 RMK SC3AC3CI2 SLP055=

CYQF;2005-01-18 03:00;METAR CYQF 180300Z 18004KT 15SM SCT050 BKN120 OVC250 03/M02 A2951 RMK SC3AC3CI2 SLP041=

CYQF;2005-01-18 04:00;METAR CYQF 180400Z 34004KT 15SM FEW050 OVC100 02/M02 A2953 RMK SC2AC6 SLP049=

CYQF;2005-01-18 04:48;SPECI CYQF 180448Z 36003KT 15SM -SHRA FEW050 OVC100 RMK SC2AC6=

CYQF;2005-01-18 05:00;METAR CYQF 180500Z 02002KT 15SM -SHRA OVC100 03/M02 A2956 RMK AC8 SLP058=

CYQF;2005-01-18 06:00;METAR CYQF 180600Z 31009KT 15SM -SHRA BKN050 OVC100 04/01 A2955 RMK SC5AC3 SLP038=

CYQF;2005-01-18 08:00;METAR CYQF 180800Z 33005KT 15SM -SHRA BKN035 OVC090 04/01 A2961 RMK SC6AC2 SLP056=

CYQF;2005-01-18 09:00;METAR CYQF 180900Z 31010KT 15SM -SHRA SCT035 OVC075 04/01 A2963 RMK SC3AC5 SLP062=

CYQF;2005-01-18 10:00;METAR CYQF 181000Z 30010KT 15SM -SHRA BKN040 OVC075 04/01 A2968 RMK SC6AC2 SLP077=

CYQF;2005-01-18 11:00;METAR CYQF 181100Z 27004KT 15SM FEW040 BKN075 BKN250 03/00 A2968 RMK SC2AC3CI1 SLP078=

CYQF;2005-01-18 12:00;METAR CYQF 181200Z 22002KT 15SM FEW040 BKN080 02/M00 A2972 RMK SC2AC6 SLP097=

CYQF;2005-01-18 13:00;METAR CYQF 181300Z 25010KT 15SM FEW040 SCT080 BKN250 03/M00 A2974 RMK SC1AC2CI2 SLP104=

CYQF;2005-01-18 14:00;METAR CYQF 181400Z 06003KT 15SM SCT080 BKN250 01/M01 A2979 RMK AC3CI2 SLP118=

CYQF;2005-01-18 15:30;SPECI CYQF 181530Z 01005KT 1/8SM FZFG SKC RMK FG7=

CYQF;2005-01-18 15:41;SPECI CYQF 181541Z 02007KT 0SM FZFG VV002 RMK FG8=

CYQF;2005-01-18 16:00;METAR CYQF 181600Z 02005KT 0SM FZFG VV002 M01/M03 A2985 RMK FG8 SLP142=

CYQF;2005-01-18 17:00;METAR CYQF 181700Z 01003KT 0SM FZFG VV002 M01/M02 A2987 RMK FG8 SLP149=

CYQF;2005-01-18 18:00;METAR CYQF 181800Z 04006KT 1/4SM FZFG VV002 M02/M03 A2989 RMK FG8 SLP159=

CYQF;2005-01-18 19:00;METAR CYQF 181900Z 05005KT 1/4SM FZFG VV002 M01/M02 A2992 RMK FG8 SLP169=

CYQF;2005-01-18 20:00;METAR CYQF 182000Z 08009KT 1/4SM FZFG VV002 M01/M02 A2991 RMK FG8 SLP166=

CYQF;2005-01-18 21:00;METAR CYQF 182100Z 05008KT 1/4SM FZFG VV002 M02/M03 A2993 RMK FG8 SLP174=

CYQF;2005-01-18 22:00;METAR CYQF 182200Z 08009KT 1/2SM FZFG VV002 M02/M03 A2993 RMK FG8 SLP173=

CYQF;2005-01-18 23:00;METAR CYQF 182300Z 11006KT 1/2SM FZFG VV002 M03/M04 A2994 RMK FG8 SLP175=

CYQF;2005-01-19 00:00;METAR CYQF 190000Z 09008KT 1/2SM FZFG VV002 M03/M04 A2994 RMK FG8 SLP178=

CYQF;2005-01-19 00:40;SPECI CYQF 190040Z 08007KT 1SM BR VV004 RMK FG8=

CYQF;2005-01-19 01:00;METAR CYQF 190100Z 09008KT 1 1/2SM BR VV005 M04/M05 A2991 RMK FG8 SLP171=

CYQF;2005-01-19 01:13;SPECI CYQF 190113Z 11008KT 5SM BR OVC007 RMK ST8=

CYQF;2005-01-19 02:00;METAR CYQF 190200Z 12006KT 8SM BKN008 OVC030 M04/M06 A2988 RMK SF5SC3 BR SLP162=

CYQF;2005-01-19 03:00;METAR CYQF 190300Z 10005KT 10SM BKN008 OVC030 M04/M06 A2987 RMK SF6SC2 SLP161=

CYQF;2005-01-19 04:00;METAR CYQF 190400Z 14010KT 6SM BR OVC006 M05/M06 A2985 RMK ST8 SLP153=

CYQF;2005-01-19 05:00;METAR CYQF 190500Z 14013KT 10SM OVC006 M04/M06 A2981 RMK SC8 SLP142=

CYQF;2005-01-19 06:00;METAR CYQF 190600Z 12010KT 10SM OVC006 M04/M06 A2977 RMK ST8 SLP126=

CYQF;2005-01-19 08:00;METAR CYQF 190800Z 12005KT 3SM BR OVC004 M04/M06 A2974 RMK ST8 SLP118=

CYQF;2005-01-19 09:00;METAR CYQF 190900Z 10003KT 2SM BR OVC003 M04/M05 A2975 RMK ST8 SLP120=

CYQF;2005-01-19 10:00;METAR CYQF 191000Z 14003KT 0SM FZFG VV000 M04/M05 A2975 RMK FG8 SLP120=

CYQF;2005-01-19 12:00;METAR CYQF 191200Z 24002KT 1/8SM FZFG VV001 M04/M06 A2976 RMK FG8 SLP124=

CYQF;2005-01-19 13:00;METAR CYQF 191300Z 00000KT 1/8SM FZFG VV001 M04/M05 A2976 RMK FG8 SLP126=

CYQF;2005-01-19 14:00;METAR CYQF 191400Z 18003KT 1/8SM FZFG VV000 M05/M06 A2978 RMK FG8 SLP132=

CYQF;2005-01-19 15:00;METAR CYQF 191500Z 35002KT 1/8SM FZFG OVC080 M06/M07 A2979 RMK FG7AC1 SLP138=

CYQF;2005-01-19 16:00;METAR CYQF 191600Z 05002KT 1/8SM FZFG OVC250 M06/M07 A2982 RMK FG7CI0 SLP147=

CYQF;2005-01-19 16:31;SPECI CYQF 191631Z 01003KT 1/2SM FZFG OVC100 RMK FG7AC1=

CYQF;2005-01-19 16:48;SPECI CYQF 191648Z 36003KT 1 1/2SM BR BKN090 OVC250 RMK FG4AC3CI0=

CYQF;2005-01-19 17:00;METAR CYQF 191700Z 00000KT 1 1/2SM BR BKN090 OVC250 M05/M06 A2984 RMK FG4AC3CI1 SLP152=

CYQF;2005-01-19 18:00;METAR CYQF 191800Z 21004KT 3SM BR BKN090 BKN250 M04/M05 A2984 RMK FG2AC4CI1 SLP153=

CYQF;2005-01-19 19:00;METAR CYQF 191900Z 23004KT 5SM BR BKN090 OVC250 M03/M04 A2982 RMK AC6CI2 SLP147=

CYQF;2005-01-19 20:00;METAR CYQF 192000Z 24004KT 10SM SCT050 OVC090 M02/M03 A2980 RMK SC3AC5 BR VIS N 5 SLP143=

CYQF;2005-01-19 21:00;METAR CYQF 192100Z 00000KT 10SM BKN050 OVC090 M02/M03 A2980 RMK SC5AC3 BR SLP136=

CYQF;2005-01-19 21:21;SPECI CYQF 192121Z 00000KT 10SM -FZRA BKN050 OVC090 RMK SC6AC2 BR=

CYQF;2005-01-19 22:00;METAR CYQF 192200Z 00000KT 10SM BKN050 OVC090 M01/M03 A2978 RMK SC6AC2 BR REFZRA SLP132=

CYQF;2005-01-19 23:00;METAR CYQF 192300Z 00000KT 10SM BKN050 OVC090 M01/M03 A2978 RMK SC6AC2 BR SLP130=

CYQF;2005-01-20 00:00;METAR CYQF 200000Z 34004KT 10SM BKN050 BKN090 OVC250 M01/M03 A2977 RMK SC6AC2CI1 BR SLP127=

CYQF;2005-01-20 01:00;METAR CYQF 200100Z 33005KT 10SM BKN050 OVC090 M01/M03 A2976 RMK SC6AC2 BR SLP121=

CYQF;2005-01-20 02:00;METAR CYQF 200200Z 06007KT 10SM BKN050 OVC090 M01/M02 A2973 RMK SC5AC3 SLP114=

CYQF;2005-01-20 03:00;METAR CYQF 200300Z 01005KT 6SM BR BKN050 OVC090 M00/M02 A2975 RMK SC6AC2 SLP118=

CYQF;2005-01-20 04:00;METAR CYQF 200400Z 04002KT 5SM BR OVC050 M00/M02 A2975 RMK SC8 SLP120=

CYQF;2005-01-20 05:00;METAR CYQF 200500Z 02003KT 5SM BR FEW050 SCT090 OVC250 M01/M03 A2975 RMK SC2AC2CI2 SLP120=

CYQF;2005-01-20 06:00;METAR CYQF 200600Z 02003KT 3SM BR FEW090 M03/M04 A2976 RMK AC2 SLP125=

CYQF;2005-01-20 06:43;SPECI CYQF 200643Z 02003KT 2SM BR FEW090 RMK AC2=

CYQF;2005-01-20 06:51;SPECI CYQF 200651Z 01005KT 1/2SM FZFG SKC RMK FG5=

CYQF;2005-01-20 07:00;METAR CYQF 200700Z 36004KT 1/8SM FZFG SKC M04/M05 A2979 RMK FG6 SLP134=

CYQF;2005-01-20 08:00;METAR CYQF 200800Z 01003KT 1SM BR VV002 M03/M05 A2981 RMK FG8 SLP141=

CYQF;2005-01-20 08:42;SPECI CYQF 200842Z 34004KT 0SM FZFG VV000 RMK FG8=

CYQF;2005-01-20 09:00;METAR CYQF 200900Z 32004KT 0SM FZFG VV000 M04/M06 A2984 RMK FG8 FROIN SLP152=

CYQF;2005-01-20 11:00;METAR CYQF 201100Z 00000KT 1/8SM FZFG VV002 M02/M03 A2990 RMK FG8 FROIN SLP170=

CYQF;2005-01-20 12:00;METAR CYQF 201200Z 00000KT 1/8SM -FZDZ FZFG VV001 M03/M04 A2991 RMK FG8 SLP174=

CYQF;2005-01-20 13:00;METAR CYQF 201300Z 23002KT 1/4SM -FZRA FZFG VV002 M03/M03 A2993 RMK FG8 SLP178=

CYQF;2005-01-20 13:33;SPECI CYQF 201333Z 27003KT 1/2SM -FZDZ FZFG VV012 RMK FG8=

CYQF;2005-01-20 14:00;METAR CYQF 201400Z 00000KT 1SM BR VV009 M02/M03 A2992 RMK FG8 SLP176=

CYQF;2005-01-20 15:00;METAR CYQF 201500Z 18002KT 1SM BR VV009 M03/M04 A2992 RMK FG8 SLP176=

CYQF;2005-01-20 15:12;SPECI CYQF 201512Z 00000KT 1/4SM FZFG VV004 RMK FG8=

CYQF;2005-01-20 16:00;METAR CYQF 201600Z 00000KT 1/8SM FZFG VV004 M02/M03 A2992 RMK FG8 SLP175=

CYQF;2005-01-20 17:00;METAR CYQF 201700Z 18004KT 1/8SM FZFG VV002 M02/M03 A2992 RMK FG8 SLP175=

CYQF;2005-01-20 18:00;METAR CYQF 201800Z 18003KT 1/8SM FZFG VV002 M01/M02 A2992 RMK FG8 SLP177=

CYQF;2005-01-20 19:00;METAR CYQF 201900Z 15003KT 1/8SM FZFG VV003 M01/M02 A2990 RMK FG8 SLP169=

CYQF;2005-01-20 20:00;METAR CYQF 202000Z 11002KT 1/8SM FZFG VV003 M01/M02 A2986 RMK FG8 SLP157=

CYQF;2005-01-20 20:49;SPECI CYQF 202049Z 10002KT 1 1/2SM BR OVC009 RMK FG5SC3=

CYQF;2005-01-20 21:00;METAR CYQF 202100Z 09003KT 1 1/2SM BR OVC009 M01/M02 A2983 RMK FG5SC3 SLP148=

CYQF;2005-01-20 21:06;SPECI CYQF 202106Z 09002KT 3/4SM -FZRA BR OVC008 RMK FG6SC2=

CYQF;2005-01-20 21:21;SPECI CYQF 202121Z 07004KT 1/2SM -FZRA FZFG VV003 RMK FG8=

CYQF;2005-01-20 21:37;SPECI CYQF 202137Z 07005KT 1SM -FZRA BR OVC007 RMK FG6SF2=

CYQF;2005-01-20 22:00;METAR CYQF 202200Z 08005KT 1 1/2SM -FZRA BR OVC005 M01/M01 A2980 RMK FG4SF4 SLP139=

CYQF;2005-01-20 22:28;SPECI CYQF 202228Z 09003KT 1SM BR OVC002 RMK FG6SF2=

CYQF;2005-01-20 23:00;METAR CYQF 202300Z 08006KT 1SM BR OVC002 M01/M01 A2979 RMK FG6SF2 SLP135=

CYQF;2005-01-21 00:00;METAR CYQF 210000Z 08008KT 1 1/2SM BR OVC005 M01/M02 A2978 RMK FG4ST4 SLP129=

CYQF;2005-01-21 01:00;METAR CYQF 210100Z 05004KT 3SM -SN BR OVC003 M02/M03 A2978 RMK FG2ST6 SLP130=

CYQF;2005-01-21 02:00;METAR CYQF 210200Z 05005KT 3SM -SN BR OVC003 M02/M03 A2978 RMK FG2ST6 SLP130=

CYQF;2005-01-21 03:00;METAR CYQF 210300Z 03007KT 3SM -SN BR OVC003 M02/M03 A2981 RMK FG2ST6 SLP138=

CYQF;2005-01-21 04:00;METAR CYQF 210400Z 02015KT 2SM -SN BR OVC015 M04/M06 A2984 RMK FG2SC6 SLP148=

CYQF;2005-01-21 05:00;METAR CYQF 210500Z 01018G24KT 3SM -SN DRSN BR FEW006 BKN015 OVC030 M07/M08 A2989 RMK SF2SC2SC3 SLP164=

CYQF;2005-01-21 05:24;SPECI CYQF 210524Z 36020KT 3/4SM -SN DRSN VV010 RMK SN8=

CYQF;2005-01-21 06:46;SPECI CYQF 210646Z 36013G18KT 2SM -SN DRSN BKN012 OVC025 RMK SN4SC2SC2=

CYQF;2005-01-21 07:00;METAR CYQF 210700Z 36015G20KT 2SM -SN DRSN VV015 M10/M13 A3003 RMK SN8 SLP218=

CYQF;2005-01-21 08:00;METAR CYQF 210800Z 35018KT 2SM -SN DRSN VV011 M12/M14 A3009 RMK SN8 PRESRR SLP238=

CYQF;2005-01-21 09:00;METAR CYQF 210900Z 36007KT 2SM -SN VV020 M12/M15 A3013 RMK SN8 SLP261=

CYQF;2005-01-21 10:00;METAR CYQF 211000Z 36011G16KT 2SM -SN DRSN VV020 M13/M16 A3015 RMK SN8 SLP268=

CYQF;2005-01-21 10:12;SPECI CYQF 211012Z 35010G16KT 3SM -SN DRSN OVC075 RMK SN6AC2=

CYQF;2005-01-21 11:00;METAR CYQF 211100Z 35011KT 2 1/2SM -SN VV025 M13/M16 A3019 RMK SN8 SLP280=

CYQF;2005-01-21 12:00;METAR CYQF 211200Z 01013KT 6SM -SN OVC080 M14/M17 A3023 RMK AC8 SLP299=

CYQF;2005-01-21 13:00;METAR CYQF 211300Z 01009KT 15SM -SN OVC080 M15/M18 A3026 RMK AC8 SLP308=

CYQF;2005-01-21 14:00;METAR CYQF 211400Z 01010KT 15SM -SN OVC080 M16/M19 A3029 RMK AC8 SLP317=

CYQF;2005-01-21 15:00;METAR CYQF 211500Z 04006KT 10SM -SN OVC080 M16/M19 A3031 RMK AC8 SLP330=

CYQF;2005-01-21 15:38;SPECI CYQF 211538Z 03008KT 12SM BKN080 OVC250 RMK AC6CI2=

CYQF;2005-01-21 16:00;METAR CYQF 211600Z 05007KT 12SM BKN080 OVC250 M17/M19 A3033 RMK AC6CI1 SLP336=

CYQF;2005-01-21 17:00;METAR CYQF 211700Z 10004KT 12SM SCT050 BKN080 OVC250 M17/M20 A3037 RMK SC4AC2CI1 SLP349=

CYQF;2005-01-21 19:00;METAR CYQF 211900Z 14007KT 12SM FEW080 SCT250 M16/M19 A3036 RMK AC2CI0 SLP354=

CYQF;2005-01-21 20:00;METAR CYQF 212000Z 13009KT 15SM FEW080 BKN250 M15/M18 A3035 RMK AC2CI2 SLP353=

CYQF;2005-01-21 21:00;METAR CYQF 212100Z 13011KT 15SM FEW080 BKN250 M16/M19 A3034 RMK AC2CI3 SLP350=

CYQF;2005-01-21 22:00;METAR CYQF 212200Z 15011KT 12SM FEW080 BKN250 M17/M19 A3033 RMK AC1CI3 SLP347=

CYQF;2005-01-21 23:00;METAR CYQF 212300Z 14013KT 12SM FEW080 OVC250 M17/M19 A3032 RMK AC2CI3 SLP344=

CYQF;2005-01-22 00:00;METAR CYQF 220000Z 15012KT 12SM FEW030 SCT080 OVC250 M17/M20 A3031 RMK SC2AC2CI2 SLP344=

CYQF;2005-01-22 01:00;METAR CYQF 220100Z 14011KT 15SM FEW030 SCT080 OVC250 M17/M20 A3031 RMK SC2AC2CI3 SLP344=

CYQF;2005-01-22 02:00;METAR CYQF 220200Z 15015KT 5SM IC SCT080 BKN250 M17/M19 A3027 RMK AC3CI3 SLP332=

CYQF;2005-01-22 03:00;METAR CYQF 220300Z 16017KT 4SM IC FEW080 BKN250 M16/M19 A3024 RMK AC2CI3 SLP321=

CYQF;2005-01-22 04:00;METAR CYQF 220400Z 16015KT 3SM IC BKN008 OVC250 M17/M19 A3021 RMK SC6CI1 SLP312=

CYQF;2005-01-22 04:32;SPECI CYQF 220432Z 16015G20KT 2SM IC BKN007 OVC250 RMK SF6CI1=

CYQF;2005-01-22 05:00;METAR CYQF 220500Z 16015G20KT 1 1/2SM IC BKN007 OVC250 M16/M19 A3017 RMK SF6CI1 SLP299=

CYQF;2005-01-22 06:00;METAR CYQF 220600Z 16019G25KT 1SM IC BR BKN007 OVC250 M16/M18 A3013 RMK SF6CI1 SLP283=

CYQF;2005-01-22 06:42;SPECI CYQF 220642Z 16014KT 3SM IC SCT007 OVC250 RMK SF2CI3=

CYQF;2005-01-22 07:00;METAR CYQF 220700Z 16017KT 2SM IC SCT007 OVC250 M15/M17 A3010 RMK SF3CI3 SLP273=

CYQF;2005-01-22 08:00;METAR CYQF 220800Z 17015KT 2SM IC DRSN SCT007 OVC250 M14/M16 A3007 RMK SF3CI3 SLP263=

CYQF;2005-01-22 09:00;METAR CYQF 220900Z 18015G20KT 2 1/2SM -SN DRSN BKN009 OVC250 M13/M15 A3003 RMK SF6CI2 OCNL BLSN SLP245=

CYQF;2005-01-22 10:00;METAR CYQF 221000Z 17017KT 2SM -SN DRSN OVC009 M13/M16 A3000 RMK SF7 OCNL BLSN SLP236=

CYQF;2005-01-22 11:00;METAR CYQF 221100Z 17013KT 3SM -SN DRSN OVC009 M12/M15 A2997 RMK SF7 OCNL BLSN SLP225=

CYQF;2005-01-22 12:00;METAR CYQF 221200Z 17010KT 8SM SCT010 BKN250 M12/M15 A2994 RMK SC3CI2 SLP214=

CYQF;2005-01-22 13:00;METAR CYQF 221300Z 18005KT 10SM FEW030 SCT080 BKN250 M12/M15 A2992 RMK SC1AC3CI2 SLP208=

CYQF;2005-01-22 14:00;METAR CYQF 221400Z 19006KT 15SM SCT080 BKN250 M13/M15 A2991 RMK AC3CI3 SLP204=

CYQF;2005-01-22 15:00;METAR CYQF 221500Z 19002KT 15SM SCT080 BKN250 M13/M15 A2989 RMK AC3CI2 SLP194=

CYQF;2005-01-22 16:00;METAR CYQF 221600Z 22003KT 15SM FEW100 OVC250 M13/M15 A2987 RMK AC2CI4 SLP189=

CYQF;2005-01-22 17:00;METAR CYQF 221700Z 22003KT 15SM FEW100 BKN250 M11/M13 A2986 RMK AC2CI4 SLP187=

CYQF;2005-01-22 18:00;METAR CYQF 221800Z 22004KT 15SM SCT100 BKN250 M10/M13 A2985 RMK AC3CI3 SLP179=

CYQF;2005-01-22 19:00;METAR CYQF 221900Z 21005KT 15SM FEW100 BKN250 M10/M12 A2983 RMK AC2CI2 SLP172=

CYQF;2005-01-22 20:00;METAR CYQF 222000Z 20004KT 15SM FEW100 BKN250 M08/M11 A2980 RMK AC2CI2 SLP161=

CYQF;2005-01-22 21:00;METAR CYQF 222100Z 21003KT 15SM FEW100 BKN250 M07/M11 A2978 RMK AC2CI2 SLP146=

CYQF;2005-01-22 22:00;METAR CYQF 222200Z 00000KT 15SM SCT100 BKN250 M06/M10 A2976 RMK AC3CI3 SLP139=

CYQF;2005-01-22 23:00;METAR CYQF 222300Z 00000KT 15SM FEW050 SCT100 OVC220 M06/M09 A2976 RMK SC1AC3CI3 SLP142=

CYQF;2005-01-23 00:00;METAR CYQF 230000Z 00000KT 15SM FEW050 SCT100 BKN220 M06/M09 A2977 RMK SC1AC3CI2 SLP140=

CYQF;2005-01-23 01:00;METAR CYQF 230100Z 00000KT 15SM SCT100 BKN250 M07/M09 A2976 RMK AC2CI2 SLP138=

CYQF;2005-01-23 02:00;METAR CYQF 230200Z 00000KT 15SM SCT100 BKN250 M08/M10 A2976 RMK AC2CI2 SLP137=

CYQF;2005-01-23 03:00;METAR CYQF 230300Z 23003KT 15SM SCT100 BKN250 M08/M11 A2976 RMK AC2CI2 SLP141=

CYQF;2005-01-23 04:00;METAR CYQF 230400Z 00000KT 15SM FEW100 BKN250 M08/M10 A2975 RMK AC1CI2 SLP136=

CYQF;2005-01-23 05:00;METAR CYQF 230500Z 19005KT 15SM FEW100 SCT250 M09/M11 A2976 RMK AC1CI1 SLP139=

CYQF;2005-01-23 06:00;METAR CYQF 230600Z 20004KT 15SM FEW100 BKN250 M09/M12 A2975 RMK AC1CI2 SLP136=

CYQF;2005-01-23 07:00;METAR CYQF 230700Z 23005KT 15SM SCT100 BKN250 M09/M11 A2976 RMK AC2CI2 SLP137=

CYQF;2005-01-23 08:00;METAR CYQF 230800Z 20004KT 15SM FEW100 BKN250 M06/M09 A2975 RMK AC2CI2 SLP135=

CYQF;2005-01-23 09:00;METAR CYQF 230900Z 21005KT 15SM FEW100 BKN250 M06/M08 A2976 RMK AC2CI2 SLP131=

CYQF;2005-01-23 10:00;METAR CYQF 231000Z 18003KT 15SM SCT100 BKN250 M04/M07 A2976 RMK AC3CI2 SLP133=

CYQF;2005-01-23 11:00;METAR CYQF 231100Z 19005KT 15SM SCT100 BKN250 M05/M08 A2975 RMK AC3CI1 SLP129=

CYQF;2005-01-23 12:00;METAR CYQF 231200Z 19006KT 15SM FEW050 BKN100 BKN250 M06/M08 A2974 RMK SC1AC5CI2 SLP123=

CYQF;2005-01-23 13:00;METAR CYQF 231300Z 27002KT 15SM FEW050 BKN100 BKN250 M04/M06 A2975 RMK SC1AC5CI2 SLP126=

CYQF;2005-01-23 14:00;METAR CYQF 231400Z 00000KT 15SM FEW050 BKN100 BKN250 M03/M06 A2976 RMK SC1AC5CI2 SLP129=

CYQF;2005-01-23 15:00;METAR CYQF 231500Z 21003KT 15SM SCT090 BKN250 M04/M06 A2977 RMK AC4CI2 SLP133=

CYQF;2005-01-23 16:00;METAR CYQF 231600Z 18004KT 15SM SCT090 BKN250 M04/M06 A2976 RMK AC3CI1 SLP130=

CYQF;2005-01-23 17:00;METAR CYQF 231700Z 24007KT 15SM SCT090 BKN250 M02/M05 A2980 RMK AC3CI1 SLP144=

CYQF;2005-01-23 18:00;METAR CYQF 231800Z 00000KT 15SM SCT090 BKN250 01/M03 A2982 RMK AC4CI2 SLP147=

CYQF;2005-01-23 19:00;METAR CYQF 231900Z 21004KT 15SM SCT090 BKN250 01/M03 A2982 RMK AC4CI2 SLP148=

CYQF;2005-01-23 20:00;METAR CYQF 232000Z 00000KT 15SM SCT090 BKN250 03/M02 A2981 RMK AC3CI2 SLP143=

CYQF;2005-01-23 21:00;METAR CYQF 232100Z 00000KT 15SM SCT090 OVC250 03/M01 A2980 RMK AC3CI2 SLP132=

CYQF;2005-01-23 22:00;METAR CYQF 232200Z 11003KT 15SM FEW090 BKN250 04/M01 A2979 RMK AC2CI2 SLP129=

CYQF;2005-01-23 23:00;METAR CYQF 232300Z 00000KT 15SM FEW090 BKN250 03/M01 A2980 RMK AC2CI2 SLP132=

CYQF;2005-01-24 00:00;METAR CYQF 240000Z 00000KT 15SM FEW090 BKN250 01/M02 A2980 RMK AC2CI2 SLP134=

CYQF;2005-01-24 01:00;METAR CYQF 240100Z 00000KT 15SM SCT100 BKN250 M01/M03 A2980 RMK AC2CI2 SLP134=

CYQF;2005-01-24 02:00;METAR CYQF 240200Z 00000KT 15SM SCT100 BKN250 01/M02 A2979 RMK AC2CI2 SLP133=

CYQF;2005-01-24 03:00;METAR CYQF 240300Z 00000KT 15SM SCT100 OVC250 01/M02 A2979 RMK AC4CI3 SLP130=

CYQF;2005-01-24 04:00;METAR CYQF 240400Z 00000KT 15SM SCT100 OVC250 00/M02 A2977 RMK AC4CI3 SLP125=

CYQF;2005-01-24 05:00;METAR CYQF 240500Z 19006KT 15SM SCT100 BKN250 02/M01 A2977 RMK AC2CI2 SLP123=

CYQF;2005-01-24 06:00;METAR CYQF 240600Z 20004KT 15SM FEW100 BKN250 M01/M03 A2976 RMK AC2CI2 SLP117=

CYQF;2005-01-24 07:00;METAR CYQF 240700Z 21005KT 15SM SCT100 BKN250 M02/M05 A2975 RMK AC2CI2 SLP114=

CYQF;2005-01-24 08:00;METAR CYQF 240800Z 21004KT 15SM FEW100 BKN250 M02/M04 A2974 RMK AC2CI2 SLP111=

CYQF;2005-01-24 10:00;METAR CYQF 241000Z 19003KT 15SM BKN090 OVC250 M02/M04 A2972 RMK AC5CI2 SLP103=

CYQF;2005-01-24 11:00;METAR CYQF 241100Z 22006KT 15SM BKN090 OVC250 M02/M05 A2971 RMK AC6CI2 SLP100=

CYQF;2005-01-24 12:00;METAR CYQF 241200Z 21006KT 15SM BKN090 OVC250 M03/M05 A2970 RMK AC5CI3 SLP096=

CYQF;2005-01-24 13:00;METAR CYQF 241300Z 25008KT 15SM FEW090 BKN250 05/M01 A2968 RMK AC2CI2 SLP092=

CYQF;2005-01-24 14:00;METAR CYQF 241400Z 25005KT 15SM FEW090 BKN250 02/M02 A2967 RMK AC2CI2 SLP087=

CYQF;2005-01-24 15:00;METAR CYQF 241500Z 22009KT 15SM FEW100 BKN250 03/M02 A2965 RMK AC2CI2 SLP075=

CYQF;2005-01-24 16:00;METAR CYQF 241600Z 22007KT 15SM FEW100 BKN250 03/M02 A2964 RMK AC2CI3 SLP071=

CYQF;2005-01-24 17:00;METAR CYQF 241700Z 23011KT 15SM SCT100 BKN250 06/M00 A2963 RMK AC2CI3 SLP067=

CYQF;2005-01-24 18:00;METAR CYQF 241800Z 23013KT 15SM FEW040 SCT100 BKN250 05/M00 A2962 RMK SC1AC2CI3 SLP064=

CYQF;2005-01-24 19:00;METAR CYQF 241900Z 33003KT 15SM FEW040 SCT100 BKN250 06/M00 A2962 RMK SC1AC2CI2 SLP064=

CYQF;2005-01-24 20:00;METAR CYQF 242000Z 24010KT 15SM FEW040 FEW100 BKN250 06/M01 A2962 RMK SC1AC2CI2 TR SC SLP063=

CYQF;2005-01-24 21:00;METAR CYQF 242100Z 25003KT 15SM FEW040 FEW100 BKN250 06/M01 A2962 RMK SC1AC2CI1 SLP064=

CYQF;2005-01-24 22:00;METAR CYQF 242200Z 24008KT 15SM FEW090 BKN250 09/M00 A2963 RMK AC2CI2 SLP067=

CYQF;2005-01-24 23:00;METAR CYQF 242300Z 02003KT 15SM FEW090 SCT250 07/M01 A2967 RMK AC2CI1 SLP081=

CYQF;2005-01-25 00:00;METAR CYQF 250000Z 34005KT 15SM FEW090 SCT250 08/M01 A2972 RMK AC2CI1 SLP096=

CYQF;2005-01-25 01:00;METAR CYQF 250100Z 00000KT 15SM FEW090 SCT250 04/M02 A2975 RMK AC1CI1 SLP105=

CYQF;2005-01-25 02:00;METAR CYQF 250200Z 32007KT 15SM FEW090 05/M01 A2978 RMK AC2 SLP116=

CYQF;2005-01-25 04:00;METAR CYQF 250400Z 11003KT 15SM SKC 01/M03 A2983 RMK SLP133=

CYQF;2005-01-25 05:00;METAR CYQF 250500Z 31004KT 15SM SKC M02/M06 A2985 RMK SLP140=

CYQF;2005-01-25 06:00;METAR CYQF 250600Z 00000KT 15SM SKC M04/M06 A2988 RMK SLP158=

CYQF;2005-01-25 07:00;METAR CYQF 250700Z 00000KT 15SM SKC M05/M08 A2991 RMK SLP165=

CYQF;2005-01-25 08:00;METAR CYQF 250800Z 26004KT 15SM SKC M04/M07 A2993 RMK SLP173=

CYQF;2005-01-25 10:00;METAR CYQF 251000Z 30003KT 15SM BKN250 M04/M08 A2997 RMK CI2 SLP189=

CYQF;2005-01-25 11:00;METAR CYQF 251100Z 25008KT 15SM BKN250 M05/M08 A3000 RMK CI3 SLP198=

CYQF;2005-01-25 12:00;METAR CYQF 251200Z 25007KT 15SM BKN250 M06/M09 A3001 RMK CI3 SLP202=

CYQF;2005-01-25 13:00;METAR CYQF 251300Z 25010KT 15SM FEW110 BKN250 M04/M08 A3004 RMK AC1CI3 SLP210=

CYQF;2005-01-25 14:00;METAR CYQF 251400Z 15002KT 15SM FEW110 OVC250 M05/M09 A3005 RMK AC2CI3 SLP213=

CYQF;2005-01-25 15:00;METAR CYQF 251500Z 26003KT 15SM FEW110 BKN250 M05/M09 A3005 RMK AC2CI2 SLP223=

CYQF;2005-01-25 16:00;METAR CYQF 251600Z 25005KT 15SM FEW100 BKN250 M06/M10 A3006 RMK AC2CI1 SLP225=

CYQF;2005-01-25 17:00;METAR CYQF 251700Z 21004KT 15SM FEW100 BKN250 M07/M10 A3006 RMK AC1CI0 SLP226=

CYQF;2005-01-25 18:00;METAR CYQF 251800Z 21003KT 15SM FEW100 BKN250 M03/M08 A3007 RMK AC2CI1 SLP231=

CYQF;2005-01-25 19:00;METAR CYQF 251900Z 27003KT 15SM BKN100 BKN250 M02/M06 A3006 RMK AC6CI0 SLP229=

CYQF;2005-01-25 20:00;METAR CYQF 252000Z 00000KT 15SM BKN100 BKN250 M01/M06 A3005 RMK AC6CI1 SLP224=

CYQF;2005-01-25 21:00;METAR CYQF 252100Z 17002KT 15SM SCT100 BKN250 00/M06 A3003 RMK AC4CI2 SLP218=

CYQF;2005-01-25 22:00;METAR CYQF 252200Z 06003KT 15SM FEW100 BKN250 01/M05 A3003 RMK AC1CI1 SLP217=

CYQF;2005-01-25 23:00;METAR CYQF 252300Z 00000KT 15SM BKN100 M01/M05 A3004 RMK AC7 SLP220=

CYQF;2005-01-26 00:00;METAR CYQF 260000Z 36004KT 15SM BKN100 M01/M05 A3005 RMK AC7 SLP224=

CYQF;2005-01-26 01:00;METAR CYQF 260100Z 02004KT 15SM BKN100 M01/M05 A3005 RMK AC7 SLP226=

CYQF;2005-01-26 02:00;METAR CYQF 260200Z 07002KT 15SM OVC100 M01/M05 A3005 RMK AC8 SLP226=

CYQF;2005-01-26 03:00;METAR CYQF 260300Z 00000KT 15SM BKN090 M01/M04 A3007 RMK AC7 SLP231=

CYQF;2005-01-26 04:00;METAR CYQF 260400Z 00000KT 15SM BKN090 M02/M05 A3006 RMK AC6 SLP229=

CYQF;2005-01-26 05:00;METAR CYQF 260500Z 00000KT 15SM BKN090 M03/M05 A3006 RMK AC6 SLP230=

CYQF;2005-01-26 06:00;METAR CYQF 260600Z 06004KT 15SM BKN090 M02/M04 A3006 RMK AC6 SLP227=

CYQF;2005-01-26 07:00;METAR CYQF 260700Z 07003KT 15SM BKN090 M03/M05 A3005 RMK AC6 SLP225=

CYQF;2005-01-26 08:00;METAR CYQF 260800Z 08004KT 15SM BKN090 M03/M06 A3005 RMK AC7 SLP222=

CYQF;2005-01-26 09:00;METAR CYQF 260900Z 05004KT 15SM OVC090 M03/M06 A3004 RMK AC8 SLP216=

CYQF;2005-01-26 10:00;METAR CYQF 261000Z 14004KT 15SM OVC090 M02/M04 A3003 RMK AC8 SLP214=

CYQF;2005-01-26 11:00;METAR CYQF 261100Z 16005KT 15SM FEW050 OVC080 M02/M04 A3001 RMK SC2AC6 SLP208=

CYQF;2005-01-26 12:00;METAR CYQF 261200Z 16008KT 15SM FEW050 OVC080 M02/M04 A3000 RMK SC2AC6 SLP201=

CYQF;2005-01-26 13:00;METAR CYQF 261300Z 16007KT 15SM FEW050 BKN080 BKN250 M02/M04 A2998 RMK SC2AC3CI0 SLP196=

CYQF;2005-01-26 14:00;METAR CYQF 261400Z 11003KT 15SM FEW080 SCT250 M03/M05 A2997 RMK AC2CI0 SLP193=

CYQF;2005-01-26 15:00;METAR CYQF 261500Z 13005KT 15SM FEW080 BKN250 M04/M05 A2996 RMK AC2CI4 SLP193=

CYQF;2005-01-26 17:36;SPECI CYQF 261736Z 16012KT 3SM BR OVC004 RMK ST6=

CYQF;2005-01-26 18:00;METAR CYQF 261800Z 16010KT 2SM BR VV002 M04/M05 A2994 RMK FG8 SLP185=

CYQF;2005-01-26 19:00;METAR CYQF 261900Z 16011KT 1 1/2SM BR VV003 M03/M05 A2993 RMK FG8 SLP182=

CYQF;2005-01-26 20:00;METAR CYQF 262000Z 18009G16KT 1 1/2SM BR VV002 M03/M04 A2990 RMK FG8 SLP172=

CYQF;2005-01-26 20:48;SPECI CYQF 262048Z 17011KT 2 1/2SM BR VV004 RMK FG8=

CYQF;2005-01-26 21:00;METAR CYQF 262100Z 16009KT 3SM BR OVC002 M03/M04 A2987 RMK ST8 SLP161=

CYQF;2005-01-26 22:00;METAR CYQF 262200Z 16010KT 2 1/2SM BR OVC002 M02/M04 A2985 RMK ST8 SLP155=

CYQF;2005-01-26 23:00;METAR CYQF 262300Z 17011KT 2SM BR OVC002 M02/M03 A2984 RMK ST8 SLP152=

CYQF;2005-01-26 23:33;SPECI CYQF 262333Z 18012KT 1SM BR OVC002 RMK ST8=

CYQF;2005-01-27 00:00;METAR CYQF 270000Z 17011KT 1 1/2SM BR OVC002 M02/M03 A2983 RMK ST8 SLP144=

CYQF;2005-01-27 01:00;METAR CYQF 270100Z 17013KT 1SM BR OVC002 M02/M04 A2982 RMK ST8 SLP142=

CYQF;2005-01-27 02:00;METAR CYQF 270200Z 16012KT 1SM BR VV002 M02/M03 A2980 RMK FG8 SLP135=

CYQF;2005-01-27 03:00;METAR CYQF 270300Z 18009KT 1SM BR VV002 M02/M03 A2979 RMK FG8 SLP132=

CYQF;2005-01-27 04:00;METAR CYQF 270400Z 18007KT 1SM BR VV002 M02/M03 A2977 RMK FG8 SLP127=

CYQF;2005-01-27 05:00;METAR CYQF 270500Z 18009KT 1SM BR VV002 M02/M03 A2975 RMK FG8 SLP121=

CYQF;2005-01-27 06:00;METAR CYQF 270600Z 18011KT 1SM BR VV002 M02/M03 A2974 RMK FG8 SLP114=

CYQF;2005-01-27 06:40;SPECI CYQF 270640Z 18008KT 3/4SM BR VV002 RMK FG8=

CYQF;2005-01-27 07:00;METAR CYQF 270700Z 18008KT 3/4SM BR VV002 M02/M04 A2972 RMK FG8 SLP110=

CYQF;2005-01-27 08:00;METAR CYQF 270800Z 18007KT 1/2SM FZFG VV002 M03/M04 A2970 RMK FG8 RIME ON INDICATOR SLP104=

CYQF;2005-01-27 09:00;METAR CYQF 270900Z 19005KT 1/2SM FZFG VV002 M03/M04 A2969 RMK FG8 RIME ON INDICATOR SLP098=

CYQF;2005-01-27 09:46;SPECI CYQF 270946Z 20006KT 2SM BR BKN250 RMK FG2CI2=

CYQF;2005-01-27 10:00;METAR CYQF 271000Z 21004KT 3SM BR BKN250 M05/M06 A2967 RMK FG1CI2 SLP094=

CYQF;2005-01-27 11:00;METAR CYQF 271100Z 19005KT 5SM BR FEW120 BKN250 M06/M07 A2966 RMK AC2CI1 SLP089=

CYQF;2005-01-27 12:00;METAR CYQF 271200Z 20002KT 6SM BR SCT250 M06/M08 A2965 RMK CI2 SLP087=

CYQF;2005-01-27 13:00;METAR CYQF 271300Z 20004KT 6SM BR FEW120 SCT250 M07/M09 A2964 RMK AC1CI1 SLP085=

CYQF;2005-01-27 15:00;METAR CYQF 271500Z 20004KT 10SM SCT100 BKN250 M07/M09 A2962 RMK AC3CI2 FG SLP079=

CYQF;2005-01-27 16:00;METAR CYQF 271600Z 20004KT 10SM BKN035 BKN100 OVC250 M07/M08 A2963 RMK SC5AC2CI0 SLP080=

CYQF;2005-01-27 17:00;METAR CYQF 271700Z 07002KT 15SM FEW050 FEW100 BKN250 M06/M07 A2963 RMK SC2AC1CI2 SLP081=

CYQF;2005-01-27 18:00;METAR CYQF 271800Z 21002KT 10SM SCT100 BKN250 M03/M05 A2964 RMK AC3CI3 SLP081=

CYQF;2005-01-27 19:00;METAR CYQF 271900Z 00000KT 15SM FEW100 OVC250 M02/M04 A2964 RMK AC2CI4 SLP081=

CYQF;2005-01-27 20:00;METAR CYQF 272000Z 00000KT 15SM SCT100 OVC250 M00/M03 A2964 RMK AC3CI4 VIRGA SLP082=

CYQF;2005-01-27 21:00;METAR CYQF 272100Z 21006KT 15SM BKN100 OVC250 00/M02 A2964 RMK AC7CI1 VIRGA SLP077=

CYQF;2005-01-27 23:00;METAR CYQF 272300Z 22002KT 15SM BKN100 BKN250 01/M02 A2967 RMK AC6CI1 SLP087=

CYQF;2005-01-28 00:00;METAR CYQF 280000Z 00000KT 15SM SCT080 BKN250 01/M02 A2970 RMK AC4CI1 SLP100=

CYQF;2005-01-28 01:00;METAR CYQF 280100Z 22002KT 15SM FEW080 SCT250 M02/M04 A2971 RMK AC2CI0 SLP104=

CYQF;2005-01-28 02:00;METAR CYQF 280200Z 26006KT 15SM FEW100 FEW250 M03/M06 A2974 RMK AC1CI1 SLP113=

CYQF;2005-01-28 04:00;METAR CYQF 280400Z 22003KT 15SM FEW090 M06/M07 A2976 RMK AC1 SLP132=

CYQF;2005-01-28 05:00;METAR CYQF 280500Z 22003KT 15SM FEW090 M07/M08 A2977 RMK AC1 TR CLD SLP135=

CYQF;2005-01-28 07:00;METAR CYQF 280700Z 20004KT 15SM FEW250 M08/M10 A2980 RMK CI1 SLP144=

CYQF;2005-01-28 08:00;METAR CYQF 280800Z 00000KT 15SM FEW250 M08/M09 A2981 RMK CI1 SLP147=

CYQF;2005-01-28 09:00;METAR CYQF 280900Z 00000KT 15SM SKC M08/M10 A2983 RMK SLP150=

CYQF;2005-01-28 10:00;METAR CYQF 281000Z 00000KT 10SM SKC M10/M12 A2985 RMK FG SLP157=

CYQF;2005-01-28 10:32;SPECI CYQF 281032Z 36003KT 2SM BR SKC RMK FG2 VSBY S 6=

CYQF;2005-01-28 11:00;METAR CYQF 281100Z 36004KT 1SM BR SKC M10/M11 A2986 RMK FG2 SLP159=

CYQF;2005-01-28 11:28;SPECI CYQF 281128Z 36008KT 1/2SM FZFG SKC RMK FG7=

CYQF;2005-01-28 12:00;METAR CYQF 281200Z 01008KT 0SM FZFG VV000 M08/M10 A2988 RMK FG8 RIME ON INDICATOR SLP168=

CYQF;2005-01-28 13:00;METAR CYQF 281300Z 01006KT 1/8SM FZFG VV000 M07/M08 A2989 RMK FG8 RIME ON INDICATOR SLP170=

CYQF;2005-01-28 14:00;METAR CYQF 281400Z 03005KT 1/4SM FZFG VV001 M06/M08 A2991 RMK FG8 RIME ON INDICATOR SLP176=

CYQF;2005-01-28 14:51;SPECI CYQF 281451Z 09004KT 1/2SM FZFG VV002 RMK FG8=

CYQF;2005-01-28 15:00;METAR CYQF 281500Z 10004KT 1/2SM FZFG VV002 M06/M07 A2991 RMK FG8 RIME ON INDICATOR SLP183=

CYQF;2005-01-28 15:18;SPECI CYQF 281518Z 08005KT 1/4SM FZFG VV003 RMK FG8=

CYQF;2005-01-28 16:00;METAR CYQF 281600Z 07005KT 1/4SM FZFG VV003 M07/M08 A2993 RMK FG8 SLP189=

CYQF;2005-01-28 18:00;METAR CYQF 281800Z 15003KT 1/4SM FZFG VV003 M06/M07 A2995 RMK FG8 SLP197=

CYQF;2005-01-28 19:00;METAR CYQF 281900Z 11004KT 1/4SM FZFG VV003 M06/M06 A2995 RMK FG8 SLP196=

CYQF;2005-01-28 20:00;METAR CYQF 282000Z 13003KT 1/8SM FZFG VV003 M05/M05 A2993 RMK FG8 SLP191=

CYQF;2005-01-28 20:52;SPECI CYQF 282052Z 14004KT 1/2SM FZFG VV003 RMK FG8=

CYQF;2005-01-28 21:00;METAR CYQF 282100Z 14005KT 1/2SM FZFG VV003 M04/M05 A2992 RMK FG8 SLP186=

CYQF;2005-01-28 22:00;METAR CYQF 282200Z 13005KT 1/2SM FZFG VV003 M04/M05 A2992 RMK FG8 SLP187=

CYQF;2005-01-28 22:24;SPECI CYQF 282224Z 13005KT 1SM BR VV004 RMK FG8=

CYQF;2005-01-28 23:00;METAR CYQF 282300Z 11004KT 3/4SM BR VV003 M04/M05 A2993 RMK FG8 SLP190=

CYQF;2005-01-28 23:39;SPECI CYQF 282339Z 10005KT 1/4SM FZFG VV003 RMK FG8=

CYQF;2005-01-29 01:00;METAR CYQF 290100Z 08003KT 3/4SM BR VV003 M04/M05 A2995 RMK FG8 SLP195=

CYQF;2005-01-29 01:24;SPECI CYQF 290124Z 12004KT 1/4SM FZFG VV003 RMK FG8=

CYQF;2005-01-29 03:00;METAR CYQF 290300Z 13004KT 1/4SM FZFG VV003 M04/M05 A2995 RMK FG8 FROIN SLP196=

CYQF;2005-01-29 03:37;SPECI CYQF 290337Z 14004KT 3/4SM BR VV003 RMK FG8 FROIN=

CYQF;2005-01-29 04:00;METAR CYQF 290400Z 14005KT 1SM BR VV005 M04/M05 A2995 RMK FG8 FROIN SLP193=

CYQF;2005-01-29 04:38;SPECI CYQF 290438Z 13002KT 2SM BR VV006 RMK FG8 FROIN=

CYQF;2005-01-29 05:00;METAR CYQF 290500Z 15003KT 1SM BR VV004 M04/M05 A2994 RMK FG8 SLP192=

CYQF;2005-01-29 06:00;METAR CYQF 290600Z 18004KT 1SM BR VV004 M04/M04 A2993 RMK FG8 RIME ON INDICATOR SLP187=

CYQF;2005-01-29 07:00;METAR CYQF 290700Z 17003KT 1SM BR VV004 M04/M05 A2993 RMK FG8 FROIN SLP187=

CYQF;2005-01-29 08:00;METAR CYQF 290800Z 18003KT 3/4SM BR VV003 M04/M04 A2993 RMK FG8 SLP185=

CYQF;2005-01-29 09:00;METAR CYQF 290900Z 18002KT 1/2SM FZFG VV002 M03/M04 A2993 RMK FG8 SLP183=

CYQF;2005-01-29 10:00;METAR CYQF 291000Z 26002KT 1/2SM FZFG VV002 M03/M04 A2993 RMK FG8 SLP184=

CYQF;2005-01-29 11:00;METAR CYQF 291100Z 22002KT 1/2SM FZFG VV002 M03/M04 A2992 RMK FG8 SLP181=

CYQF;2005-01-29 12:00;METAR CYQF 291200Z 00000KT 1/2SM FZFG VV002 M04/M04 A2992 RMK FG8 SLP180=

CYQF;2005-01-29 12:48;SPECI CYQF 291248Z 00000KT 1/4SM FZFG VV002 RMK FG8=

CYQF;2005-01-29 13:00;METAR CYQF 291300Z 00000KT 1/8SM FZFG VV002 M04/M05 A2991 RMK FG8 SLP178=

CYQF;2005-01-29 14:00;METAR CYQF 291400Z 24003KT 1/8SM FZFG VV002 M04/M05 A2992 RMK FG8 SLP180=

CYQF;2005-01-29 15:00;METAR CYQF 291500Z 19005KT 1/8SM FZFG VV002 M05/M06 A2992 RMK FG8 SLP182=

CYQF;2005-01-29 16:00;METAR CYQF 291600Z 22004KT 1/4SM FZFG VV002 M05/M06 A2993 RMK FG8 SLP184=

CYQF;2005-01-29 17:00;METAR CYQF 291700Z 23002KT 1/4SM FZFG VV002 M06/M07 A2992 RMK FG8 SLP183=

CYQF;2005-01-29 17:49;SPECI CYQF 291749Z 19002KT 1/2SM FZFG SKC RMK FG5=

CYQF;2005-01-29 18:00;METAR CYQF 291800Z 00000KT 1SM BR SCT090 M06/M07 A2991 RMK FG2AC1 SLP178=

CYQF;2005-01-29 18:10;SPECI CYQF 291810Z 18002KT 4SM BR FEW100 RMK AC1=

CYQF;2005-01-29 19:00;METAR CYQF 291900Z 00000KT 8SM FEW100 M04/M05 A2989 RMK AC1 FG SLP174=

CYQF;2005-01-29 20:00;METAR CYQF 292000Z 19002KT 10SM FEW100 M03/M03 A2988 RMK AC1 FG SLP171=

CYQF;2005-01-29 21:00;METAR CYQF 292100Z 23002KT 12SM FEW100 M02/M03 A2986 RMK AC1 SLP159=

CYQF;2005-01-29 22:00;METAR CYQF 292200Z 00000KT 12SM FEW100 M01/M01 A2985 RMK AC1 FG SLP155=

CYQF;2005-01-29 23:00;METAR CYQF 292300Z 00000KT 15SM FEW015 SCT250 00/M02 A2986 RMK SC1CI1 SLP157=

CYQF;2005-01-30 00:00;METAR CYQF 300000Z 00000KT 15SM FEW090 BKN250 M01/M03 A2986 RMK AC1CI2 SLP158=

CYQF;2005-01-30 01:00;METAR CYQF 300100Z 18002KT 15SM MIFG BKN250 M04/M06 A2986 RMK CI1 SLP158=

CYQF;2005-01-30 02:00;METAR CYQF 300200Z 00000KT 15SM MIFG SKC M06/M08 A2987 RMK SLP159=

CYQF;2005-01-30 03:00;METAR CYQF 300300Z 22003KT 15SM MIFG SKC M08/M10 A2987 RMK FROIN SLP169=

CYQF;2005-01-30 04:00;METAR CYQF 300400Z 19003KT 10SM BCFG BKN250 M09/M10 A2987 RMK CI2 FROIN SLP169=

CYQF;2005-01-30 05:00;METAR CYQF 300500Z 19005KT 15SM BKN250 M07/M08 A2985 RMK CI5 FROIN SLP164=

CYQF;2005-01-30 06:00;METAR CYQF 300600Z 21004KT 15SM BKN100 OVC250 M07/M08 A2984 RMK AC5CI2 FROIN SLP159=

CYQF;2005-01-30 07:00;METAR CYQF 300700Z 22004KT 15SM BKN100 OVC250 M06/M08 A2985 RMK AC7CI1 SLP163=

CYQF;2005-01-30 08:00;METAR CYQF 300800Z 21006KT 15SM BKN100 M05/M08 A2985 RMK AC6 SLP164=

CYQF;2005-01-30 09:00;METAR CYQF 300900Z 21004KT 15SM BKN100 M05/M08 A2985 RMK AC7 SLP155=

CYQF;2005-01-30 10:00;METAR CYQF 301000Z 21006KT 15SM OVC100 M04/M07 A2987 RMK AC8 SLP161=

CYQF;2005-01-30 11:00;METAR CYQF 301100Z 02013KT 15SM OVC100 01/M01 A2993 RMK AC7 SLP180=

CYQF;2005-01-30 12:00;METAR CYQF 301200Z 34018KT 15SM FEW040 OVC100 02/M01 A2998 RMK SC2AC6 SLP193=

CYQF;2005-01-30 12:34;SPECI CYQF 301234Z 31010KT 15SM -SHRA BKN040 OVC100 RMK SC6AC2=

CYQF;2005-01-30 13:00;METAR CYQF 301300Z 28006KT 15SM VCSH SCT040 OVC075 01/M01 A2999 RMK SC4AC3 SLP195=

CYQF;2005-01-30 14:00;METAR CYQF 301400Z 24005KT 15SM FEW040 FEW075 M03/M05 A3000 RMK SC1AC1 SLP199=

CYQF;2005-01-30 15:00;METAR CYQF 301500Z 25009KT 15SM FEW010 FEW040 FEW090 M02/M03 A3003 RMK SF1SC1AC1 TR SF SLP221=

CYQF;2005-01-30 16:00;METAR CYQF 301600Z 25009KT 15SM FEW010 FEW040 BKN250 M02/M04 A3005 RMK SF1SC1CI1 F BNK OVR CITY SLP227=

CYQF;2005-01-30 17:00;METAR CYQF 301700Z 25008KT 15SM FEW040 BKN250 M02/M04 A3006 RMK SC1CI1 SLP231=

CYQF;2005-01-30 18:00;METAR CYQF 301800Z 24009KT 15SM FEW040 BKN250 M00/M03 A3007 RMK SC1CI1 SLP233=

CYQF;2005-01-30 19:00;METAR CYQF 301900Z 20006KT 15SM SCT250 01/M03 A3007 RMK CI1 SLP234=

CYQF;2005-01-30 20:00;METAR CYQF 302000Z 18004KT 15SM SCT250 02/M02 A3007 RMK CI1 SLP234=

CYQF;2005-01-30 21:00;METAR CYQF 302100Z 18006KT 15SM FEW100 SCT250 04/M02 A3006 RMK AC1CI1 SLP224=

CYQF;2005-01-30 22:00;METAR CYQF 302200Z 18005KT 15SM FEW100 SCT250 04/M02 A3005 RMK AC1CI1 SLP219=

CYQF;2005-01-30 23:00;METAR CYQF 302300Z 18005KT 15SM FEW100 FEW250 03/M02 A3005 RMK AC1CI0 SLP218=

CYQF;2005-01-31 00:00;METAR CYQF 310000Z 18008KT 15SM FEW100 FEW250 02/M03 A3004 RMK AC1CI0 SLP209=

CYQF;2005-01-31 01:00;METAR CYQF 310100Z 16006KT 15SM FEW100 FEW250 01/M03 A3004 RMK AC1CI0 SLP208=

CYQF;2005-01-31 02:00;METAR CYQF 310200Z 16003KT 15SM FEW250 00/M04 A3002 RMK CI0 SLP202=

CYQF;2005-01-31 03:00;METAR CYQF 310300Z 17009KT 15SM SKC M00/M04 A3000 RMK SLP203=

CYQF;2005-01-31 04:00;METAR CYQF 310400Z 18010KT 15SM FEW250 M00/M04 A2998 RMK CI0 SLP195=

CYQF;2005-01-31 05:00;METAR CYQF 310500Z 18007KT 15SM FEW250 M01/M04 A2995 RMK CI0 SLP188=

CYQF;2005-01-31 06:00;METAR CYQF 310600Z 18007KT 15SM FEW250 M03/M06 A2993 RMK CI0 SLP180=

CYQF;2005-01-31 07:00;METAR CYQF 310700Z 19006KT 15SM FEW250 M05/M07 A2991 RMK CI0 SLP173=

CYQF;2005-01-31 08:00;METAR CYQF 310800Z 18004KT 15SM FEW120 BKN250 M04/M07 A2987 RMK AC2CI3 SLP162=

CYQF;2005-01-31 09:00;METAR CYQF 310900Z 18008KT 15SM SCT120 BKN250 M04/M07 A2984 RMK AC3CI3 SLP145=

CYQF;2005-01-31 10:00;METAR CYQF 311000Z 18005KT 15SM SCT120 BKN250 M02/M06 A2981 RMK AC3CI3 SLP136=

CYQF;2005-01-31 11:00;METAR CYQF 311100Z 21007KT 15SM FEW120 BKN250 M03/M07 A2979 RMK AC2CI3 SLP129=

CYQF;2005-01-31 12:00;METAR CYQF 311200Z 17002KT 15SM FEW100 BKN250 M00/M05 A2977 RMK AC2CI4 SLP117=

CYQF;2005-01-31 13:00;METAR CYQF 311300Z 20006KT 15SM SCT100 BKN250 M00/M05 A2974 RMK AC3CI3 SLP109=

CYQF;2005-01-31 14:00;METAR CYQF 311400Z 20005KT 15SM SCT100 BKN250 03/M05 A2972 RMK AC3CI3 SLP101=

CYQF;2005-01-31 15:00;METAR CYQF 311500Z 23007KT 15SM SCT100 BKN250 02/M04 A2972 RMK AC3CI3 VIRGA SLP100=

CYQF;2005-01-31 16:00;METAR CYQF 311600Z 21007KT 15SM FEW030 BKN100 BKN250 03/M04 A2971 RMK SC1AC6CI1 SLP098=

CYQF;2005-01-31 17:00;METAR CYQF 311700Z 22008KT 15SM FEW030 BKN100 03/M03 A2971 RMK SC1AC6 SLP097=

CYQF;2005-01-31 18:00;METAR CYQF 311800Z 19004KT 15SM FEW025 BKN100 BKN250 04/M03 A2972 RMK SC1AC6CI1 SLP100=

CYQF;2005-01-31 19:00;METAR CYQF 311900Z 18008KT 15SM FEW025 BKN100 BKN250 04/M02 A2973 RMK SC1AC4CI1 SLP104=

CYQF;2005-01-31 20:00;METAR CYQF 312000Z 23009KT 15SM FEW025 SCT100 BKN250 05/M03 A2973 RMK CF1AC2CI1 SLP103=

CYQF;2005-01-31 21:00;METAR CYQF 312100Z 25006KT 15SM FEW030 FEW120 SCT250 07/M03 A2972 RMK CF1AC1CI1 SLP097=

CYQF;2005-01-31 22:00;METAR CYQF 312200Z 29008KT 15SM FEW040 FEW120 SCT250 08/M04 A2974 RMK CF1AC1CI1 SLP103=

CYQF;2005-01-31 23:00;METAR CYQF 312300Z 27010KT 15SM FEW040 FEW120 SCT250 08/M05 A2977 RMK CF1AC1CI1 SLP115=

CYQF;2005-02-01 00:00;METAR CYQF 010000Z 26010KT 15SM FEW040 SCT250 05/M04 A2980 RMK SC2CI1 SLP126=

CYQF;2005-02-01 01:00;METAR CYQF 010100Z 30010KT 15SM BKN080 BKN250 06/M04 A2985 RMK AC6CI1 VIRGA SLP140=

CYQF;2005-02-01 02:00;METAR CYQF 010200Z 31007KT 15SM SCT080 BKN250 04/M03 A2988 RMK AC4CI2 SLP151=

CYQF;2005-02-01 03:00;METAR CYQF 010300Z 32006KT 15SM SCT250 04/M05 A2990 RMK CI2 SLP159=

CYQF;2005-02-01 04:00;METAR CYQF 010400Z 30007KT 15SM SKC 02/M05 A2993 RMK SLP166=

CYQF;2005-02-01 05:00;METAR CYQF 010500Z 00000KT 15SM SKC M01/M06 A2993 RMK SLP167=

CYQF;2005-02-01 06:00;METAR CYQF 010600Z 20006KT 15SM SKC M02/M07 A2995 RMK SLP178=

CYQF;2005-02-01 08:00;METAR CYQF 010800Z 24008KT 15SM SKC M04/M09 A2993 RMK SLP174=

CYQF;2005-02-01 09:00;METAR CYQF 010900Z 19005KT 15SM FEW100 BKN250 M03/M09 A2992 RMK AC2CI2 SLP167=

CYQF;2005-02-01 10:00;METAR CYQF 011000Z 19005KT 15SM SCT100 BKN250 M01/M08 A2992 RMK AC3CI3 SLP167=

CYQF;2005-02-01 11:00;METAR CYQF 011100Z 20008KT 15SM FEW100 BKN250 01/M07 A2989 RMK AC2CI5 SLP159=

CYQF;2005-02-01 12:00;METAR CYQF 011200Z 22005KT 15SM FEW100 BKN250 00/M07 A2990 RMK AC2CI5 SLP158=

CYQF;2005-02-01 13:00;METAR CYQF 011300Z 22007KT 15SM FEW100 BKN250 01/M06 A2989 RMK AC2CI4 SLP156=

CYQF;2005-02-01 14:00;METAR CYQF 011400Z 22007KT 15SM FEW100 BKN250 M00/M07 A2991 RMK AC2CI3 SLP163=

CYQF;2005-02-01 15:00;METAR CYQF 011500Z 24009KT 15SM FEW100 BKN250 M02/M07 A2993 RMK AC2CI3 SLP173=

CYQF;2005-02-01 16:00;METAR CYQF 011600Z 24009KT 15SM FEW030 FEW100 SCT250 M01/M08 A2996 RMK SC1AC1CI1 SLP182=

CYQF;2005-02-01 17:00;METAR CYQF 011700Z 23007KT 15SM FEW040 FEW100 SCT250 00/M07 A2999 RMK SC1AC1CI1 SLP190=

CYQF;2005-02-01 18:00;METAR CYQF 011800Z 22006KT 15SM SCT250 02/M07 A3001 RMK CI2 SLP201=

CYQF;2005-02-01 19:00;METAR CYQF 011900Z 22006KT 15SM BKN250 05/M05 A3001 RMK CI3 SLP203=

CYQF;2005-02-01 20:00;METAR CYQF 012000Z 22008KT 15SM BKN250 06/M04 A2999 RMK CI4 SLP197=

CYQF;2005-02-01 21:00;METAR CYQF 012100Z 22007KT 15SM FEW100 BKN250 06/M03 A2998 RMK AC2CI2 SLP189=

CYQF;2005-02-01 22:00;METAR CYQF 012200Z 22008KT 15SM FEW120 BKN250 06/M03 A2996 RMK AC2CI2 SLP182=

CYQF;2005-02-01 23:00;METAR CYQF 012300Z 21010KT 15SM SCT100 BKN250 06/M04 A2994 RMK AC3CI2 SLP177=

CYQF;2005-02-02 00:00;METAR CYQF 020000Z 19007KT 15SM BKN100 BKN250 04/M03 A2992 RMK AC5CI2 SLP167=

CYQF;2005-02-02 01:00;METAR CYQF 020100Z 18011KT 15SM BKN100 BKN250 04/M03 A2987 RMK AC6CI2 SLP153=

CYQF;2005-02-02 02:00;METAR CYQF 020200Z 18012KT 15SM BKN100 OVC250 04/M03 A2984 RMK AC6CI1 SLP142=

CYQF;2005-02-02 03:00;METAR CYQF 020300Z 21013G20KT 15SM -SHRA OVC080 05/M03 A2981 RMK AC8 SLP130=

CYQF;2005-02-02 04:00;METAR CYQF 020400Z 18009KT 15SM -SHRA BKN080 OVC250 04/M03 A2978 RMK AC7CI1 ACC ASOCTD SLP122=

CYQF;2005-02-02 04:31;SPECI CYQF 020431Z 18008KT 15SM OVC090 RMK AC8 ACC ASOCTD VIRGA=

CYQF;2005-02-02 05:00;METAR CYQF 020500Z 20013KT 15SM OVC090 05/M03 A2975 RMK AC8 VIRGA SLP112=

CYQF;2005-02-02 06:00;METAR CYQF 020600Z 20015KT 15SM OVC090 05/M03 A2972 RMK AC8 VIRGA SLP094=

CYQF;2005-02-02 07:00;METAR CYQF 020700Z 21009KT 15SM BKN090 BKN250 04/M02 A2970 RMK AC5CI1 SLP089=

CYQF;2005-02-02 08:00;METAR CYQF 020800Z 22015KT 15SM FEW090 BKN250 06/M03 A2970 RMK AC2CI2 SLP088=

CYQF;2005-02-02 09:00;METAR CYQF 020900Z 22011G17KT 15SM FEW090 SCT250 06/M03 A2969 RMK AC2CI2 SLP079=

CYQF;2005-02-02 10:00;METAR CYQF 021000Z 21009KT 15SM FEW090 BKN250 05/M02 A2969 RMK AC2CI2 SLP078=

CYQF;2005-02-02 11:00;METAR CYQF 021100Z 20010KT 15SM FEW090 BKN250 05/M02 A2968 RMK AC2CI4 SLP075=

CYQF;2005-02-02 12:00;METAR CYQF 021200Z 19009KT 15SM FEW090 BKN250 04/M02 A2968 RMK AC2CI3 SLP081=

CYQF;2005-02-02 13:00;METAR CYQF 021300Z 19007KT 15SM FEW090 BKN250 04/M02 A2971 RMK AC2CI4 SLP089=

CYQF;2005-02-02 14:00;METAR CYQF 021400Z 19009KT 15SM FEW090 BKN250 03/M02 A2974 RMK AC2CI4 SLP097=

CYQF;2005-02-02 15:00;METAR CYQF 021500Z 23010KT 15SM FEW030 FEW100 BKN250 02/M03 A2975 RMK SC1AC2CI4 SLP104=

CYQF;2005-02-02 16:00;METAR CYQF 021600Z 27003KT 15SM FEW030 SCT120 BKN250 01/M03 A2980 RMK SC1AC2CI2 SLP120=

CYQF;2005-02-02 17:00;METAR CYQF 021700Z 36002KT 15SM FEW030 SCT120 BKN250 01/M02 A2983 RMK SC1AC2CI2 SLP129=

CYQF;2005-02-02 18:00;METAR CYQF 021800Z 18005KT 15SM FEW030 SCT120 BKN250 05/M03 A2987 RMK SC1AC3CI2 SLP144=

CYQF;2005-02-02 19:00;METAR CYQF 021900Z 00000KT 15SM FEW030 SCT120 BKN250 06/M02 A2989 RMK SC1AC2CI2 SLP150=

CYQF;2005-02-02 20:00;METAR CYQF 022000Z 00000KT 15SM FEW030 FEW120 BKN250 06/M02 A2988 RMK SC1AC2CI2 SLP147=

CYQF;2005-02-02 21:00;METAR CYQF 022100Z 00000KT 15SM FEW030 FEW120 BKN250 05/M01 A2991 RMK SC1AC1CI4 SLP155=

CYQF;2005-02-02 22:00;METAR CYQF 022200Z 00000KT 15SM FEW030 FEW100 BKN250 07/M01 A2993 RMK SC1AC1CI2 SLP163=

CYQF;2005-02-02 23:00;METAR CYQF 022300Z 00000KT 15SM FEW030 FEW100 BKN250 06/M01 A2996 RMK SC1AC1CI2 SLP171=

CYQF;2005-02-03 00:00;METAR CYQF 030000Z 06005KT 15SM FEW040 FEW100 BKN250 06/M02 A2997 RMK SC1AC1CI2 SLP178=

CYQF;2005-02-03 01:00;METAR CYQF 030100Z 00000KT 15SM FEW040 SCT100 BKN250 03/M03 A3001 RMK SC2AC2CI1 SLP190=

CYQF;2005-02-03 02:00;METAR CYQF 030200Z 00000KT 15SM FEW040 FEW100 BKN250 02/M03 A3001 RMK SC1AC2CI2 SLP190=

CYQF;2005-02-03 03:00;METAR CYQF 030300Z 32007KT 15SM FEW100 SCT250 01/M04 A3002 RMK AC2CI1 SLP203=

CYQF;2005-02-03 04:00;METAR CYQF 030400Z 00000KT 15SM FEW100 SCT250 M02/M05 A3000 RMK AC1CI1 SLP197=

CYQF;2005-02-03 05:00;METAR CYQF 030500Z 13005KT 15SM SCT100 OVC250 02/M02 A2997 RMK AC4CI2 SLP188=

CYQF;2005-02-03 06:00;METAR CYQF 030600Z 17010KT 15SM BKN100 OVC250 03/M02 A2995 RMK AC6CI1 SLP173=

CYQF;2005-02-03 07:00;METAR CYQF 030700Z 17008KT 15SM SCT100 BKN250 03/M02 A2991 RMK AC3CI2 SLP161=

CYQF;2005-02-03 08:00;METAR CYQF 030800Z 19007KT 15SM FEW100 SCT250 02/M03 A2989 RMK AC2CI2 SLP154=

CYQF;2005-02-03 09:00;METAR CYQF 030900Z 19002KT 15SM SCT100 BKN250 M00/M04 A2986 RMK AC3CI4 SLP147=

CYQF;2005-02-03 10:00;METAR CYQF 031000Z 19007KT 15SM SCT100 BKN250 M01/M04 A2984 RMK AC3CI4 SLP140=

CYQF;2005-02-03 11:00;METAR CYQF 031100Z 21007KT 15SM FEW100 BKN250 M00/M05 A2983 RMK AC2CI5 SLP137=

CYQF;2005-02-03 12:00;METAR CYQF 031200Z 18006KT 15SM SCT100 BKN250 02/M04 A2982 RMK AC3CI4 SLP128=

CYQF;2005-02-03 13:00;METAR CYQF 031300Z 20005KT 15SM SCT100 BKN250 02/M05 A2981 RMK AC3CI3 SLP127=

CYQF;2005-02-03 14:00;METAR CYQF 031400Z 18005KT 15SM SCT100 BKN250 02/M05 A2980 RMK AC3CI4 SLP124=

CYQF;2005-02-03 15:00;METAR CYQF 031500Z 20007KT 15SM SCT100 BKN250 00/M06 A2979 RMK AC3CI3 SLP126=

CYQF;2005-02-03 16:00;METAR CYQF 031600Z 19003KT 15SM SCT100 BKN250 02/M06 A2979 RMK AC3CI3 SLP127=

CYQF;2005-02-03 17:00;METAR CYQF 031700Z 21007KT 15SM FEW100 BKN250 03/M05 A2980 RMK AC2CI2 SLP129=

CYQF;2005-02-03 18:00;METAR CYQF 031800Z 23011KT 15SM FEW100 BKN250 06/M03 A2979 RMK AC2CI2 SLP117=

CYQF;2005-02-03 19:00;METAR CYQF 031900Z 00000KT 15SM FEW100 BKN250 08/M03 A2978 RMK AC2CI2 SLP114=

CYQF;2005-02-03 20:00;METAR CYQF 032000Z 06004KT 15SM FEW100 BKN250 08/M02 A2977 RMK AC2CI2 SLP111=

CYQF;2005-02-03 21:00;METAR CYQF 032100Z 00000KT 15SM FEW030 FEW100 BKN250 07/M02 A2978 RMK CU1AC1CI2 SLP115=

CYQF;2005-02-03 22:00;METAR CYQF 032200Z 00000KT 15SM FEW030 FEW100 BKN250 05/M01 A2979 RMK CU1AC1CI2 SLP119=

CYQF;2005-02-03 23:00;METAR CYQF 032300Z 21003KT 15SM FEW020 FEW040 BKN100 OVC250 05/M02 A2981 RMK SF1SC1AC3CI1 SLP124=

CYQF;2005-02-04 00:00;METAR CYQF 040000Z 00000KT 15SM FEW040 BKN100 OVC250 04/M02 A2982 RMK SC1AC4CI1 SLP132=

CYQF;2005-02-04 01:00;METAR CYQF 040100Z 02012G20KT 15SM FEW040 BKN090 OVC250 05/M03 A2988 RMK SC2AC3CI1 SLP151=

CYQF;2005-02-04 02:00;METAR CYQF 040200Z 02015G23KT 15SM FEW040 BKN090 OVC250 04/M01 A2993 RMK SC2AC3CI2 SLP164=

CYQF;2005-02-04 02:35;SPECI CYQF 040235Z 03015G23KT 15SM VCSH BKN015 OVC040 RMK SC6SC2=

CYQF;2005-02-04 04:00;METAR CYQF 040400Z 03012KT 10SM -SHSN FEW006 OVC010 01/M02 A2998 RMK SF2SC6 SLP190=

CYQF;2005-02-04 04:34;SPECI CYQF 040434Z 02005KT 2SM -SN OVC007 RMK SN2SF6=

CYQF;2005-02-04 05:00;METAR CYQF 040500Z 36005KT 1 1/2SM -SN OVC007 00/M01 A2999 RMK SN3SF5 SLP194=

CYQF;2005-02-04 05:28;SPECI CYQF 040528Z 33003KT 2SM -SN SCT007 OVC030 RMK SN2SF2SC4=

CYQF;2005-02-04 07:00;METAR CYQF 040700Z 01015KT 2SM -SN OVC007 M02/M04 A3002 RMK SN2SF6 SLP199=

CYQF;2005-02-04 08:00;METAR CYQF 040800Z 02007KT 3SM -SN OVC014 M05/M07 A3002 RMK SN3SF5 SLP200=

CYQF;2005-02-04 08:50;SPECI CYQF 040850Z 02005KT 15SM -SN OVC017 RMK SC8=

CYQF;2005-02-04 09:00;METAR CYQF 040900Z 02008KT 15SM -SN FEW007 OVC018 M06/M08 A3001 RMK SF2SC6 SLP202=

CYQF;2005-02-04 10:00;METAR CYQF 041000Z 03009KT 10SM -SN BKN007 OVC018 M06/M08 A3002 RMK SF6SC2 SLP204=

CYQF;2005-02-04 11:00;METAR CYQF 041100Z 05010KT 12SM -SN FEW007 OVC012 M07/M09 A3000 RMK SF2SC6 SLP200=

CYQF;2005-02-04 12:18;SPECI CYQF 041218Z 07007KT 3SM -SN SCT009 OVC015 RMK SF3SC5=

CYQF;2005-02-04 13:00;METAR CYQF 041300Z 07011KT 1 1/2SM -SN OVC015 M08/M11 A2998 RMK SN6SC2 /S01/ SLP198=

CYQF;2005-02-04 14:00;METAR CYQF 041400Z 05008KT 1SM -SN VV012 M10/M12 A2997 RMK SN8 /S02/ SLP193=

CYQF;2005-02-04 15:00;METAR CYQF 041500Z 08010KT 1SM -SN VV007 M10/M13 A2995 RMK SN8 SLP194=

CYQF;2005-02-04 16:00;METAR CYQF 041600Z 10007KT 1SM -SN VV010 M11/M13 A2995 RMK SN8 /S05/ SLP192=

CYQF;2005-02-04 17:00;METAR CYQF 041700Z 06006KT 3/4SM -SN VV009 M11/M14 A2993 RMK SN8 /S07/ SLP186=

CYQF;2005-02-04 18:00;METAR CYQF 041800Z 07006KT 3/4SM -SN VV010 M12/M14 A2992 RMK SN8 SLP185=

CYQF;2005-02-04 19:00;METAR CYQF 041900Z 05009KT 3/4SM -SN VV010 M12/M14 A2989 RMK SN8 /S02/ SLP176=

CYQF;2005-02-04 20:00;METAR CYQF 042000Z 05008KT 1SM -SN VV012 M12/M14 A2987 RMK SN8 /S04/ SLP169=

CYQF;2005-02-04 21:00;METAR CYQF 042100Z 05010KT 1SM -SN VV012 M12/M14 A2983 RMK SN8 SLP161=

CYQF;2005-02-04 22:00;METAR CYQF 042200Z 06010KT 1 1/2SM -SN OVC017 M12/M15 A2981 RMK SN4SC4 /S08/ SLP154=

CYQF;2005-02-04 22:05;SPECI CYQF 042205Z 05012KT 3SM -SN OVC016 RMK SC8 VIS N LWR=

CYQF;2005-02-04 23:00;METAR CYQF 042300Z 06006KT 3SM -SN VV015 M12/M15 A2979 RMK SN8 SLP149=

CYQF;2005-02-05 00:00;METAR CYQF 050000Z 06012KT 2SM -SN VV015 M13/M15 A2977 RMK SN8 SLP144=

CYQF;2005-02-05 00:10;SPECI CYQF 050010Z 05013KT 1SM -SN VV010 RMK SN8=

CYQF;2005-02-05 01:00;METAR CYQF 050100Z 04010KT 1 1/2SM -SN VV012 M14/M16 A2978 RMK SN8 SLP147=

CYQF;2005-02-05 01:23;SPECI CYQF 050123Z 04010KT 3/4SM -SN VV006 RMK SN8=

CYQF;2005-02-05 02:00;METAR CYQF 050200Z 03010KT 1/2SM SN VV005 M15/M17 A2980 RMK SN8 /S02/ SLP151=

CYQF;2005-02-05 03:00;METAR CYQF 050300Z 03010KT 1/2SM SN VV005 M15/M18 A2981 RMK SN8 /S05/ SLP163=

CYQF;2005-02-05 04:00;METAR CYQF 050400Z 02008KT 1SM -SN VV008 M16/M18 A2983 RMK SN8 /S08/ SLP169=

CYQF;2005-02-05 06:00;METAR CYQF 050600Z 35006KT 1 1/2SM -SN VV015 M16/M18 A2986 RMK SN8 /S11/ SLP183=

CYQF;2005-02-05 06:47;SPECI CYQF 050647Z 35005KT 3SM -SN OVC050 RMK SN6SC2=

CYQF;2005-02-05 07:00;METAR CYQF 050700Z 34005KT 3SM -SN OVC050 M16/M19 A2987 RMK SN6SC2 SLP187=

CYQF;2005-02-05 09:00;METAR CYQF 050900Z 35009KT 6SM -SN VV025 M17/M19 A2989 RMK SN8 SLP194=

CYQF;2005-02-05 10:00;METAR CYQF 051000Z 35005KT 3SM -SN OVC075 M17/M20 A2990 RMK SN6AC2 SLP197=

CYQF;2005-02-05 11:00;METAR CYQF 051100Z 35004KT 10SM -SN OVC080 M18/M21 A2991 RMK AC7 /S01/ SLP201=

CYQF;2005-02-05 12:00;METAR CYQF 051200Z 33004KT 15SM -SN BKN080 M20/M23 A2993 RMK AC5 SLP214=

CYQF;2005-02-05 13:00;METAR CYQF 051300Z 29002KT 10SM -SN BKN080 M19/M22 A2994 RMK AC5 SLP216=

CYQF;2005-02-05 14:00;METAR CYQF 051400Z 30002KT 15SM -SN BKN080 M22/M24 A2995 RMK AC3 SLP220=

CYQF;2005-02-05 14:35;SPECI CYQF 051435Z 00000KT 15SM FEW080 BKN250 RMK AC2CI1=

CYQF;2005-02-05 16:00;METAR CYQF 051600Z 30004KT 15SM FEW080 BKN250 M19/M23 A2997 RMK AC2CI2 SLP237=

CYQF;2005-02-05 17:00;METAR CYQF 051700Z 31005KT 15SM FEW080 BKN250 M18/M22 A2998 RMK AC2CI2 SLP240=

CYQF;2005-02-05 17:21;SPECI CYQF 051721Z 32006KT 5SM -SN SCT020 BKN080 OVC250 RMK SC3AC2CI1=

CYQF;2005-02-05 18:00;METAR CYQF 051800Z 33005KT 10SM -SN FEW020 SCT080 BKN250 M17/M20 A3000 RMK SC2AC2CI1 SLP237=

CYQF;2005-02-05 19:00;METAR CYQF 051900Z 33005KT 12SM FEW020 BKN080 OVC250 M16/M19 A3001 RMK SC2AC3CI2 PCPN N SLP240=

CYQF;2005-02-05 20:00;METAR CYQF 052000Z 34007KT 12SM FEW020 BKN080 OVC250 M16/M20 A3000 RMK SC2AC4CI2 SLP239=

CYQF;2005-02-05 21:00;METAR CYQF 052100Z 35005KT 15SM FEW020 BKN080 OVC250 M15/M20 A3000 RMK SC2AC5CI1 SLP238=

CYQF;2005-02-05 21:52;SPECI CYQF 052152Z 35004KT 10SM -SN FEW020 SCT050 BKN080 OVC250 RMK SC2SC2AC4CI1=

CYQF;2005-02-05 22:00;METAR CYQF 052200Z 36006KT 8SM -SN FEW020 BKN050 OVC080 M15/M19 A3001 RMK SC2SC4AC2 SLP241=

CYQF;2005-02-05 23:00;METAR CYQF 052300Z 01007KT 12SM -SN FEW020 BKN050 OVC080 M15/M19 A3002 RMK SC2SC3AC3 SLP244=

CYQF;2005-02-06 00:00;METAR CYQF 060000Z 34003KT 12SM -SN FEW020 SCT050 OVC080 M16/M19 A3004 RMK SC2SC2AC4 SLP253=

CYQF;2005-02-06 01:00;METAR CYQF 060100Z 01004KT 3SM -SN SCT020 OVC050 M16/M19 A3005 RMK SN2SC2SC4 SLP257=

CYQF;2005-02-06 02:00;METAR CYQF 060200Z 02005KT 5SM -SN SCT020 OVC050 M16/M19 A3005 RMK SC3SC5 SLP259=

CYQF;2005-02-06 03:00;METAR CYQF 060300Z 05004KT 6SM -SN FEW020 SCT050 BKN080 M16/M20 A3007 RMK SC2SC2AC3 SLP272=

CYQF;2005-02-06 04:00;METAR CYQF 060400Z 00000KT 6SM -SN FEW050 BKN080 M17/M21 A3009 RMK SC2AC2 SLP277=

CYQF;2005-02-06 05:00;METAR CYQF 060500Z 00000KT 6SM -SN FEW050 BKN080 M17/M21 A3009 RMK SC2AC2 SLP277=

CYQF;2005-02-06 06:00;METAR CYQF 060600Z 00000KT 8SM -SN SCT080 M18/M21 A3009 RMK AC4 /S01/ SLP273=

CYQF;2005-02-06 07:00;METAR CYQF 060700Z 12002KT 10SM -SN SCT080 M18/M21 A3009 RMK AC4 SLP272=

CYQF;2005-02-06 08:00;METAR CYQF 060800Z 00000KT 6SM -SN BKN080 M20/M23 A3009 RMK AC6 SLP273=

CYQF;2005-02-06 09:00;METAR CYQF 060900Z 00000KT 8SM -SN BKN080 M20/M23 A3011 RMK AC3 SLP278=

CYQF;2005-02-06 10:00;METAR CYQF 061000Z 00000KT 15SM -SN OVC080 M20/M23 A3010 RMK AC8 SLP277=

CYQF;2005-02-06 11:00;METAR CYQF 061100Z 33002KT 15SM -SN OVC080 M20/M24 A3012 RMK AC8 SLP282=

CYQF;2005-02-06 12:00;METAR CYQF 061200Z 00000KT 15SM -SN OVC080 M19/M23 A3013 RMK AC8 SLP286=

CYQF;2005-02-06 13:00;METAR CYQF 061300Z 00000KT 15SM -SN BKN080 OVC250 M19/M23 A3015 RMK AC7CI1 SLP291=

CYQF;2005-02-06 14:00;METAR CYQF 061400Z 00000KT 3SM -SN OVC080 M19/M23 A3016 RMK AC8 SLP294=

CYQF;2005-02-06 15:00;METAR CYQF 061500Z 00000KT 3SM -SN OVC080 M19/M23 A3017 RMK AC8 SLP300=

CYQF;2005-02-06 16:00;METAR CYQF 061600Z 16004KT 6SM -SN OVC080 M18/M22 A3017 RMK AC8 SLP302=

CYQF;2005-02-06 17:00;METAR CYQF 061700Z 16007KT 12SM -SN FEW040 BKN080 OVC250 M18/M22 A3018 RMK SC2AC5CI1 SLP303=

CYQF;2005-02-06 17:40;SPECI CYQF 061740Z 15006KT 12SM FEW040 BKN080 OVC250 RMK SC1AC6CI1 PCPN DIST N=

CYQF;2005-02-06 18:00;METAR CYQF 061800Z 15005KT 15SM FEW040 BKN080 OVC250 M17/M21 A3019 RMK SC1AC6CI1 SLP305=

CYQF;2005-02-06 19:00;METAR CYQF 061900Z 15006KT 15SM FEW040 BKN080 OVC250 M16/M21 A3019 RMK SC1AC5CI2 SLP305=

CYQF;2005-02-06 20:00;METAR CYQF 062000Z 15005KT 12SM FEW040 BKN080 OVC250 M16/M21 A3018 RMK SC2AC5CI1 SLP302=

CYQF;2005-02-06 21:00;METAR CYQF 062100Z 13003KT 12SM SCT040 OVC080 M16/M20 A3017 RMK SC3AC5 SLP301=

CYQF;2005-02-06 21:47;SPECI CYQF 062147Z 13008KT 8SM -SN BKN040 OVC080 RMK SC6AC2=

CYQF;2005-02-06 22:00;METAR CYQF 062200Z 14007KT 6SM -SN BKN040 OVC080 M16/M20 A3017 RMK SC6AC2 SLP301=

CYQF;2005-02-06 23:00;METAR CYQF 062300Z 12004KT 12SM BKN040 OVC080 M16/M20 A3018 RMK SC5AC3 SLP304=

CYQF;2005-02-07 00:00;METAR CYQF 070000Z 14006KT 15SM SCT040 OVC080 M16/M20 A3018 RMK SC4AC4 SLP304=

CYQF;2005-02-07 01:00;METAR CYQF 070100Z 14005KT 15SM SCT040 OVC080 M17/M21 A3019 RMK SC3AC5 SLP307=

CYQF;2005-02-07 03:00;METAR CYQF 070300Z 00000KT 15SM SCT040 BKN080 M17/M21 A3019 RMK SC3AC2 SLP310=

CYQF;2005-02-07 04:00;METAR CYQF 070400Z 00000KT 15SM FEW040 BKN090 M19/M22 A3020 RMK SC2AC2 SLP311=

CYQF;2005-02-07 05:00;METAR CYQF 070500Z 00000KT 15SM FEW040 BKN090 M19/M22 A3019 RMK SC2AC3 SLP309=

CYQF;2005-02-07 06:00;METAR CYQF 070600Z 17005KT 15SM FEW080 M20/M24 A3017 RMK AC1 SLP302=

CYQF;2005-02-07 07:00;METAR CYQF 070700Z 20003KT 15SM FEW080 M23/M27 A3017 RMK AC1 SLP302=

CYQF;2005-02-07 08:00;METAR CYQF 070800Z 19004KT 15SM SKC M24/M28 A3015 RMK SLP297=

CYQF;2005-02-07 09:00;METAR CYQF 070900Z 18004KT 15SM SKC M24/M27 A3014 RMK SLP295=

CYQF;2005-02-07 10:00;METAR CYQF 071000Z 18005KT 15SM SKC M24/M28 A3013 RMK SLP292=

CYQF;2005-02-07 11:00;METAR CYQF 071100Z 20003KT 15SM SKC M25/M28 A3013 RMK SLP290=

CYQF;2005-02-07 12:00;METAR CYQF 071200Z 19005KT 15SM SKC M27/M32 A3011 RMK SLP289=

CYQF;2005-02-07 13:00;METAR CYQF 071300Z 19003KT 15SM SKC M26/M30 A3010 RMK SLP285=

CYQF;2005-02-07 14:00;METAR CYQF 071400Z 00000KT 15SM SKC M27/M31 A3009 RMK SLP283=

CYQF;2005-02-07 15:00;METAR CYQF 071500Z 19004KT 8SM SKC M25/M29 A3009 RMK BR SLP281=

CYQF;2005-02-07 17:00;METAR CYQF 071700Z 20003KT 12SM SKC M23/M26 A3008 RMK BR SLP277=

CYQF;2005-02-07 18:00;METAR CYQF 071800Z 20002KT 12SM SKC M20/M24 A3007 RMK BR SLP272=

CYQF;2005-02-07 19:00;METAR CYQF 071900Z 17002KT 12SM SKC M18/M21 A3005 RMK SLP265=

CYQF;2005-02-07 20:00;METAR CYQF 072000Z 16003KT 15SM SKC M17/M20 A3001 RMK SLP253=

CYQF;2005-02-07 21:00;METAR CYQF 072100Z 15007KT 15SM FEW250 M16/M19 A2999 RMK CI0 SLP242=

CYQF;2005-02-07 22:00;METAR CYQF 072200Z 16006KT 15SM FEW250 M14/M17 A2997 RMK CI0 SLP235=

CYQF;2005-02-07 23:00;METAR CYQF 072300Z 15003KT 15SM FEW150 BKN250 M13/M16 A2996 RMK AC2CI4 SLP233=

CYQF;2005-02-08 00:00;METAR CYQF 080000Z 16004KT 15SM FEW150 BKN250 M13/M16 A2995 RMK AC1CI4 SLP227=

CYQF;2005-02-08 01:00;METAR CYQF 080100Z 18010KT 15SM FEW150 OVC250 M16/M18 A2995 RMK AC1CI4 SLP228=

CYQF;2005-02-08 02:00;METAR CYQF 080200Z 17010KT 15SM BKN250 M12/M15 A2994 RMK CI4 SLP226=

CYQF;2005-02-08 03:00;METAR CYQF 080300Z 19007KT 15SM BKN250 M13/M16 A2994 RMK CI3 SLP223=

CYQF;2005-02-08 04:00;METAR CYQF 080400Z 18005KT 15SM FEW100 BKN250 M13/M15 A2994 RMK AC2CI4 SLP224=

CYQF;2005-02-08 05:00;METAR CYQF 080500Z 21004KT 15SM SCT100 OVC250 M13/M16 A2994 RMK AC3CI3 SLP223=

CYQF;2005-02-08 07:00;METAR CYQF 080700Z 18003KT 15SM SCT120 BKN250 M15/M17 A2993 RMK AC3CI2 SLP213=

CYQF;2005-02-08 08:00;METAR CYQF 080800Z 20005KT 15SM BKN090 OVC250 M14/M16 A2992 RMK AC6CI2 SLP211=

CYQF;2005-02-08 09:00;METAR CYQF 080900Z 19005KT 15SM FEW090 SCT250 M15/M18 A2991 RMK AC1CI2 SLP203=

CYQF;2005-02-08 10:00;METAR CYQF 081000Z 19005KT 15SM FEW090 FEW250 M17/M19 A2992 RMK AC1CI0 SLP206=

CYQF;2005-02-08 11:00;METAR CYQF 081100Z 20004KT 15SM FEW050 BKN090 M17/M20 A2993 RMK SC1AC4 SLP209=

CYQF;2005-02-08 12:00;METAR CYQF 081200Z 19005KT 15SM SCT050 OVC090 M16/M19 A2994 RMK SC3AC4 SLP213=

CYQF;2005-02-08 13:00;METAR CYQF 081300Z 20006KT 15SM BKN050 OVC090 M15/M17 A2994 RMK SC6AC2 SLP214=

CYQF;2005-02-08 14:00;METAR CYQF 081400Z 20006KT 15SM FEW050 SCT090 BKN250 M14/M16 A2994 RMK SC2AC1CI1 SLP214=

CYQF;2005-02-08 15:00;METAR CYQF 081500Z 22008KT 15SM FEW050 BKN090 OVC250 M13/M15 A2995 RMK SC2AC3CI2 SLP211=

CYQF;2005-02-08 16:00;METAR CYQF 081600Z 15005KT 15SM FEW050 SCT100 BKN250 M13/M16 A2995 RMK SC2AC2CI1 SLP213=

CYQF;2005-02-08 17:00;METAR CYQF 081700Z 24006KT 15SM FEW050 SCT100 BKN250 M12/M17 A2996 RMK SC1AC2CI0 SLP217=

CYQF;2005-02-08 18:00;METAR CYQF 081800Z 24006KT 15SM BKN090 BKN250 M09/M13 A2997 RMK AC5CI2 SLP217=

CYQF;2005-02-08 19:00;METAR CYQF 081900Z 23007KT 15SM BKN090 BKN250 M05/M09 A2996 RMK AC5CI2 SLP214=

CYQF;2005-02-08 20:00;METAR CYQF 082000Z 26007KT 15SM SCT090 BKN250 M04/M08 A2996 RMK AC3CI1 SLP212=

CYQF;2005-02-08 21:00;METAR CYQF 082100Z 26007KT 15SM SCT090 SCT250 M02/M06 A2996 RMK AC3CI0 SLP205=

CYQF;2005-02-08 22:00;METAR CYQF 082200Z 27005KT 15SM FEW250 M02/M07 A2996 RMK CI1 SLP206=

CYQF;2005-02-08 23:00;METAR CYQF 082300Z 23005KT 15SM SKC M03/M08 A2997 RMK SLP210=

CYQF;2005-02-09 00:00;METAR CYQF 090000Z 24005KT 15SM SKC M04/M09 A2998 RMK SLP217=

CYQF;2005-02-09 01:00;METAR CYQF 090100Z 23007KT 15SM FEW090 FEW250 M10/M13 A2998 RMK AC1CI0 SLP218=

CYQF;2005-02-09 02:00;METAR CYQF 090200Z 20006KT 15SM FEW090 SCT250 M10/M13 A3000 RMK AC2CI1 SLP223=

CYQF;2005-02-09 03:00;METAR CYQF 090300Z 21007KT 15SM BKN080 OVC250 M08/M11 A2999 RMK AC6CI1 SLP221=

CYQF;2005-02-09 05:00;METAR CYQF 090500Z 21005KT 15SM FEW080 SCT250 M07/M10 A2997 RMK AC2CI1 SLP214=

CYQF;2005-02-09 06:00;METAR CYQF 090600Z 21006KT 15SM FEW080 SCT250 M11/M14 A2996 RMK AC2CI0 SLP210=

CYQF;2005-02-09 07:00;METAR CYQF 090700Z 20004KT 15SM FEW080 FEW250 M10/M12 A2995 RMK AC1CI1 SLP207=

CYQF;2005-02-09 08:00;METAR CYQF 090800Z 20004KT 15SM FEW250 M12/M15 A2995 RMK CI0 SLP204=

CYQF;2005-02-09 09:00;METAR CYQF 090900Z 00000KT 15SM FEW250 M12/M14 A2994 RMK CI0 SLP196=

CYQF;2005-02-09 10:00;METAR CYQF 091000Z 19005KT 15SM SKC M14/M16 A2994 RMK SLP194=

CYQF;2005-02-09 11:00;METAR CYQF 091100Z 20005KT 15SM SKC M14/M16 A2993 RMK SLP191=

CYQF;2005-02-09 12:00;METAR CYQF 091200Z 19005KT 15SM SKC M14/M16 A2991 RMK SLP191=

CYQF;2005-02-09 13:00;METAR CYQF 091300Z 18003KT 15SM SCT250 M15/M17 A2990 RMK CI1 SLP188=

CYQF;2005-02-09 14:00;METAR CYQF 091400Z 00000KT 15SM SCT250 M14/M16 A2989 RMK CI1 SLP185=

CYQF;2005-02-09 15:00;METAR CYQF 091500Z 00000KT 15SM BKN250 M16/M18 A2988 RMK CI2 SLP185=

CYQF;2005-02-09 16:00;METAR CYQF 091600Z 00000KT 15SM FEW100 OVC250 M14/M16 A2986 RMK AC2CI2 SLP181=

CYQF;2005-02-09 17:00;METAR CYQF 091700Z 19003KT 15SM FEW100 BKN250 M12/M15 A2986 RMK AC2CI2 SLP180=

CYQF;2005-02-09 19:00;METAR CYQF 091900Z 21007KT 15SM SCT100 OVC250 M06/M10 A2986 RMK AC3CI3 SLP173=

CYQF;2005-02-09 20:00;METAR CYQF 092000Z 23007KT 15SM SCT100 OVC250 M06/M10 A2985 RMK AC4CI3 SLP169=

CYQF;2005-02-09 21:00;METAR CYQF 092100Z 29006KT 15SM SCT100 OVC250 M03/M09 A2986 RMK AC4CI3 SLP169=

CYQF;2005-02-09 22:00;METAR CYQF 092200Z 09003KT 15SM SCT100 OVC250 M02/M08 A2987 RMK AC4CI3 SLP171=

CYQF;2005-02-09 23:00;METAR CYQF 092300Z 20003KT 15SM BKN100 OVC250 M03/M07 A2987 RMK AC6CI2 VIRGA W SLP173=

CYQF;2005-02-10 00:00;METAR CYQF 100000Z 24004KT 15SM FEW040 SCT100 BKN250 M03/M07 A2990 RMK SC1AC3CI2 SLP184=

CYQF;2005-02-10 01:00;METAR CYQF 100100Z 25010KT 15SM FEW040 FEW100 SCT250 M05/M09 A2989 RMK SC1AC1CI0 SLP182=

CYQF;2005-02-10 02:00;METAR CYQF 100200Z 24006KT 15SM FEW040 SCT250 M06/M10 A2992 RMK SC2CI0 SLP190=

CYQF;2005-02-10 03:00;METAR CYQF 100300Z 23005KT 15SM FEW040 FEW250 M10/M13 A2992 RMK SC1CI0 SLP203=

CYQF;2005-02-10 04:00;METAR CYQF 100400Z 23004KT 15SM FEW250 M11/M14 A2994 RMK CI1 SLP208=

CYQF;2005-02-10 05:00;METAR CYQF 100500Z 23007KT 15SM FEW250 M14/M17 A2995 RMK CI1 SLP212=

CYQF;2005-02-10 06:00;METAR CYQF 100600Z 24007KT 15SM SCT250 M07/M13 A2996 RMK CI2 SLP204=

CYQF;2005-02-10 07:00;METAR CYQF 100700Z 26002KT 15SM BKN250 M07/M13 A2997 RMK CI2 SLP206=

CYQF;2005-02-10 08:00;METAR CYQF 100800Z 22006KT 15SM SCT250 M10/M15 A2997 RMK CI2 SLP208=

CYQF;2005-02-10 10:00;METAR CYQF 101000Z 23008KT 15SM SKC M12/M17 A2998 RMK SLP213=

CYQF;2005-02-10 11:00;METAR CYQF 101100Z 23008KT 15SM SKC M11/M16 A2998 RMK SLP213=

CYQF;2005-02-10 12:00;METAR CYQF 101200Z 22006KT 15SM SKC M12/M17 A3000 RMK SLP216=

CYQF;2005-02-10 13:00;METAR CYQF 101300Z 23007KT 15SM FEW100 M12/M17 A3000 RMK AC1 SLP216=

CYQF;2005-02-10 14:00;METAR CYQF 101400Z 16004KT 15SM FEW100 SCT250 M11/M16 A3000 RMK AC1CI1 SLP216=

CYQF;2005-02-10 15:00;METAR CYQF 101500Z 20007KT 15SM FEW100 BKN250 M13/M17 A2999 RMK AC2CI2 SLP222=

CYQF;2005-02-10 16:00;METAR CYQF 101600Z 19008KT 15SM SCT080 BKN250 M11/M15 A2998 RMK AC3CI0 SLP219=

CYQF;2005-02-10 17:00;METAR CYQF 101700Z 19007KT 15SM FEW080 SCT250 M08/M13 A2996 RMK AC2CI0 SLP215=

CYQF;2005-02-10 18:00;METAR CYQF 101800Z 20004KT 15SM SCT080 BKN250 M04/M10 A2995 RMK AC3CI1 SLP197=

CYQF;2005-02-10 20:00;METAR CYQF 102000Z 21007KT 15SM BKN080 BKN250 00/M07 A2991 RMK AC5CI2 SLP182=

CYQF;2005-02-10 21:00;METAR CYQF 102100Z 19006KT 15SM BKN080 OVC250 01/M06 A2988 RMK AC5CI2 SLP173=

CYQF;2005-02-10 22:00;METAR CYQF 102200Z 19006KT 15SM FEW080 BKN250 02/M06 A2987 RMK AC1CI2 SLP170=

CYQF;2005-02-10 23:00;METAR CYQF 102300Z 19006KT 15SM FEW080 BKN250 02/M06 A2985 RMK AC1CI2 SLP165=

CYQF;2005-02-11 00:00;METAR CYQF 110000Z 18009KT 15SM FEW080 BKN250 M02/M07 A2985 RMK AC2CI2 SLP165=

CYQF;2005-02-11 01:00;METAR CYQF 110100Z 19008KT 15SM SCT080 OVC250 M04/M09 A2985 RMK AC3CI2 SLP163=

CYQF;2005-02-11 02:00;METAR CYQF 110200Z 20008KT 15SM SCT080 BKN250 M04/M10 A2983 RMK AC3CI2 SLP158=

CYQF;2005-02-11 03:00;METAR CYQF 110300Z 22007KT 15SM BKN090 OVC250 M02/M08 A2982 RMK AC6CI2 SLP156=

CYQF;2005-02-11 04:00;METAR CYQF 110400Z 20007KT 15SM FEW090 BKN250 M01/M08 A2981 RMK AC2CI1 SLP152=

CYQF;2005-02-11 05:00;METAR CYQF 110500Z 21003KT 15SM FEW090 BKN250 M02/M09 A2980 RMK AC2CI2 SLP150=

CYQF;2005-02-11 06:00;METAR CYQF 110600Z 20005KT 15SM BKN090 OVC250 M07/M11 A2980 RMK AC5CI2 SLP144=

CYQF;2005-02-11 07:00;METAR CYQF 110700Z 20006KT 15SM BKN090 OVC250 M04/M09 A2979 RMK AC5CI2 SLP140=

CYQF;2005-02-11 08:00;METAR CYQF 110800Z 19007KT 15SM FEW090 SCT250 M04/M10 A2980 RMK AC2CI2 SLP142=

CYQF;2005-02-11 09:00;METAR CYQF 110900Z 20004KT 15SM FEW090 BKN250 M03/M10 A2979 RMK AC2CI3 SLP128=

CYQF;2005-02-11 10:00;METAR CYQF 111000Z 00000KT 15SM FEW090 BKN250 M04/M10 A2979 RMK AC2CI4 SLP128=

CYQF;2005-02-11 11:00;METAR CYQF 111100Z 19005KT 15SM SCT090 BKN250 M01/M09 A2978 RMK AC3CI3 SLP127=

CYQF;2005-02-11 12:00;METAR CYQF 111200Z 16003KT 15SM SCT090 BKN250 M04/M10 A2979 RMK AC3CI2 SLP132=

CYQF;2005-02-11 13:00;METAR CYQF 111300Z 19006KT 15SM SCT090 BKN250 M06/M12 A2979 RMK AC3CI3 SLP132=

CYQF;2005-02-11 14:00;METAR CYQF 111400Z 19007KT 15SM FEW090 BKN250 M06/M11 A2979 RMK AC2CI2 SLP132=

CYQF;2005-02-11 15:00;METAR CYQF 111500Z 19008KT 15SM SCT090 BKN250 M04/M11 A2978 RMK AC3CI2 SLP131=

CYQF;2005-02-11 16:00;METAR CYQF 111600Z 20006KT 15SM FEW090 BKN250 M06/M12 A2979 RMK AC2CI1 SLP133=

CYQF;2005-02-11 17:00;METAR CYQF 111700Z 19008KT 15SM FEW100 BKN250 M01/M10 A2977 RMK AC2CI2 SLP128=

CYQF;2005-02-11 18:00;METAR CYQF 111800Z 19005KT 15SM FEW100 BKN250 03/M08 A2978 RMK AC2CI2 SLP127=

CYQF;2005-02-11 19:00;METAR CYQF 111900Z 00000KT 15SM SCT100 BKN250 03/M06 A2977 RMK AC3CI2 SLP125=

CYQF;2005-02-11 20:00;METAR CYQF 112000Z 15003KT 15SM BKN100 BKN250 04/M08 A2973 RMK AC5CI1 SLP112=

CYQF;2005-02-11 21:00;METAR CYQF 112100Z 13002KT 15SM BKN090 BKN250 03/M08 A2971 RMK AC6CI0 SLP097=

CYQF;2005-02-11 22:00;METAR CYQF 112200Z 18004KT 15SM BKN090 BKN250 04/M08 A2969 RMK AC7CI1 SLP092=

CYQF;2005-02-11 23:00;METAR CYQF 112300Z 00000KT 15SM BKN090 02/M08 A2967 RMK AC7 SLP087=

CYQF;2005-02-12 00:00;METAR CYQF 120000Z 18010KT 15SM BKN090 BKN250 04/M06 A2969 RMK AC5CI1 SLP092=

CYQF;2005-02-12 01:00;METAR CYQF 120100Z 16004KT 15SM FEW090 SCT250 03/M07 A2969 RMK AC1CI0 SLP092=

CYQF;2005-02-12 02:00;METAR CYQF 120200Z 15004KT 15SM FEW100 SCT250 02/M08 A2967 RMK AC1CI1 SLP087=

CYQF;2005-02-12 03:00;METAR CYQF 120300Z 20007KT 15SM FEW100 SCT250 01/M09 A2966 RMK AC1CI1 SLP083=

CYQF;2005-02-12 04:00;METAR CYQF 120400Z 16003KT 15SM FEW250 M05/M12 A2963 RMK CI1 SLP074=

CYQF;2005-02-12 05:00;METAR CYQF 120500Z 15004KT 15SM FEW250 M01/M08 A2959 RMK CI1 SLP062=

CYQF;2005-02-12 06:00;METAR CYQF 120600Z 22003KT 15SM FEW250 M09/M13 A2955 RMK CI1 SLP051=

CYQF;2005-02-12 07:00;METAR CYQF 120700Z 20003KT 15SM BKN250 M10/M14 A2953 RMK CI2 SLP043=

CYQF;2005-02-12 08:00;METAR CYQF 120800Z 00000KT 15SM BKN250 M09/M13 A2951 RMK CI5 SLP037=

CYQF;2005-02-12 09:00;METAR CYQF 120900Z 21006KT 15SM SCT120 OVC250 M07/M12 A2948 RMK AC3CI3 SLP024=

CYQF;2005-02-12 10:00;METAR CYQF 121000Z 19005KT 15SM SCT120 OVC250 M05/M12 A2946 RMK AC3CI4 SLP018=

CYQF;2005-02-12 11:00;METAR CYQF 121100Z 25010KT 15SM FEW120 OVC250 01/M10 A2945 RMK AC2CI5 SLP013=

CYQF;2005-02-12 12:00;METAR CYQF 121200Z 19006KT 15SM BKN140 OVC250 M01/M10 A2944 RMK AC5CI3 SLP003=

CYQF;2005-02-12 13:00;METAR CYQF 121300Z 18003KT 15SM SCT140 OVC250 M02/M10 A2945 RMK AC3CI5 SLP004=

CYQF;2005-02-12 14:00;METAR CYQF 121400Z 20006KT 15SM BKN140 OVC250 M04/M11 A2945 RMK AC5CI3 SLP004=

CYQF;2005-02-12 15:00;METAR CYQF 121500Z 27006KT 15SM BKN140 OVC250 M03/M10 A2945 RMK AC6CI2 SLP012=

CYQF;2005-02-12 16:00;METAR CYQF 121600Z 00000KT 15SM BKN120 OVC250 M02/M10 A2947 RMK AC6CI2 SLP017=

CYQF;2005-02-12 17:00;METAR CYQF 121700Z 00000KT 15SM FEW050 BKN120 BKN250 M01/M09 A2947 RMK SC2AC3CI2 VIRGA W SLP018=

CYQF;2005-02-12 18:00;METAR CYQF 121800Z 00000KT 15SM FEW080 BKN120 BKN250 02/M07 A2947 RMK AC2AC3CI2 VIRGA W SLP023=

CYQF;2005-02-12 19:00;METAR CYQF 121900Z 00000KT 15SM FEW080 BKN120 BKN250 03/M06 A2948 RMK AC2AC3CI1 VIRGA W SLP026=

CYQF;2005-02-12 20:00;METAR CYQF 122000Z 00000KT 15SM FEW080 SCT120 BKN250 03/M05 A2948 RMK AC2AC2CI2 VIRGA W SLP025=

CYQF;2005-02-12 21:00;METAR CYQF 122100Z 21002KT 15SM SCT100 BKN250 04/M09 A2947 RMK AC4CI2 VIRGA W SLP020=

CYQF;2005-02-12 22:00;METAR CYQF 122200Z 00000KT 15SM FEW050 SCT100 BKN250 05/M09 A2948 RMK CU1AC4CI2 SLP021=

CYQF;2005-02-12 23:00;METAR CYQF 122300Z 21004KT 15SM FEW050 BKN100 BKN250 02/M08 A2948 RMK CU1AC4CI1 SLP021=

CYQF;2005-02-13 00:00;METAR CYQF 130000Z 00000KT 15SM FEW050 BKN100 BKN250 01/M08 A2949 RMK CU2AC3CI1 SLP021=

CYQF;2005-02-13 01:00;METAR CYQF 130100Z 21004KT 15SM FEW050 BKN100 BKN250 M02/M08 A2950 RMK SC1AC5CI1 SLP025=

CYQF;2005-02-13 02:00;METAR CYQF 130200Z 19003KT 15SM FEW100 SCT250 M03/M08 A2949 RMK AC1CI2 SLP023=

CYQF;2005-02-13 03:00;METAR CYQF 130300Z 00000KT 15SM FEW100 SCT250 M04/M09 A2950 RMK AC1CI1 SLP035=

CYQF;2005-02-13 04:00;METAR CYQF 130400Z 20004KT 15SM FEW100 BKN250 M05/M11 A2949 RMK AC1CI2 SLP031=

CYQF;2005-02-13 05:00;METAR CYQF 130500Z 16003KT 15SM FEW100 SCT250 M05/M11 A2949 RMK AC1CI2 SLP032=

CYQF;2005-02-13 06:00;METAR CYQF 130600Z 17006KT 15SM FEW100 BKN250 M07/M12 A2948 RMK AC1CI2 SLP025=

CYQF;2005-02-13 07:00;METAR CYQF 130700Z 24006KT 15SM BKN250 M08/M13 A2948 RMK CI2 SLP026=

CYQF;2005-02-13 08:00;METAR CYQF 130800Z 00000KT 15SM BKN250 M05/M10 A2949 RMK CI4 SLP028=

CYQF;2005-02-13 09:00;METAR CYQF 130900Z 10005KT 15SM FEW100 OVC250 M07/M11 A2951 RMK AC2CI5 SLP031=

CYQF;2005-02-13 10:00;METAR CYQF 131000Z 34003KT 15SM BKN100 OVC250 M04/M10 A2953 RMK AC5CI3 SLP037=

CYQF;2005-02-13 11:00;METAR CYQF 131100Z 34010KT 15SM FEW070 BKN120 OVC250 M03/M09 A2953 RMK AC2AC4CI2 SLP039=

CYQF;2005-02-13 12:00;METAR CYQF 131200Z 34008KT 15SM FEW070 BKN120 OVC250 M02/M08 A2956 RMK AC2AC5CI2 SLP047=

CYQF;2005-02-13 13:00;METAR CYQF 131300Z 34008KT 15SM FEW060 OVC100 M00/M07 A2958 RMK SC2AC6 SLP055=

CYQF;2005-02-13 14:00;METAR CYQF 131400Z 34005KT 15SM FEW060 OVC100 M01/M07 A2959 RMK SC2AC6 SLP057=

CYQF;2005-02-13 15:00;METAR CYQF 131500Z 31004KT 15SM SCT060 OVC100 M03/M07 A2961 RMK SC3AC5 VIRGA SLP070=

CYQF;2005-02-13 16:00;METAR CYQF 131600Z 00000KT 15SM BKN050 OVC100 M02/M08 A2965 RMK SC6AC2 SHSN S-SW-W SLP083=

CYQF;2005-02-13 17:00;METAR CYQF 131700Z 25004KT 15SM BKN050 BKN100 M02/M07 A2968 RMK SC6AC2 SHSN S+W QUADS SLP093=

CYQF;2005-02-13 17:27;SPECI CYQF 131727Z 27004KT 10SM -SHSN BKN045 BKN100 RMK SC6AC2 VIS S 4=

CYQF;2005-02-13 18:00;METAR CYQF 131800Z 00000KT 15SM BKN045 BKN100 M00/M06 A2969 RMK SC5AC2 SHSN SE-W SLP100=

CYQF;2005-02-13 19:00;METAR CYQF 131900Z 34007KT 15SM BKN045 BKN100 M01/M08 A2970 RMK SC5AC2 SHSN SE-SW DIST SLP104=

CYQF;2005-02-13 20:00;METAR CYQF 132000Z 35006KT 15SM BKN045 BKN100 M01/M09 A2972 RMK SC5AC2 SHS DIST SE-SW SLP108=

CYQF;2005-02-13 21:00;METAR CYQF 132100Z 35010KT 15SM BKN045 BKN090 BKN250 M01/M10 A2972 RMK SC5AC1CI1 SHS DIST SE-SW SLP112=

CYQF;2005-02-13 22:00;METAR CYQF 132200Z 36008KT 15SM SCT045 BKN090 BKN250 M02/M11 A2972 RMK SC3AC2CI1 VIRGA S-SW SLP113=

CYQF;2005-02-13 23:00;METAR CYQF 132300Z 36005KT 15SM SCT045 BKN090 BKN250 M02/M10 A2973 RMK SC3AC2CI1 VIRGA S-SW SLP116=

CYQF;2005-02-14 00:00;METAR CYQF 140000Z 36003KT 15SM FEW045 BKN090 BKN250 M02/M10 A2975 RMK SC2AC4CI2 VIRGA S-SW SLP117=

CYQF;2005-02-14 01:00;METAR CYQF 140100Z 04004KT 15SM FEW045 BKN090 OVC250 M03/M10 A2976 RMK SC2AC6CI1 VIRGA DIST S-SW SLP122=

CYQF;2005-02-14 02:00;METAR CYQF 140200Z 06002KT 15SM FEW040 OVC090 M04/M09 A2978 RMK SC2AC6 SLP128=

CYQF;2005-02-14 03:00;METAR CYQF 140300Z 08004KT 15SM SCT040 OVC080 M05/M11 A2980 RMK SC3AC5 VIRGA N+S SLP137=

CYQF;2005-02-14 04:00;METAR CYQF 140400Z 00000KT 15SM SCT040 OVC080 M05/M10 A2980 RMK SC3AC5 SLP139=

CYQF;2005-02-14 05:00;METAR CYQF 140500Z 00000KT 10SM -SN BKN040 OVC080 M05/M09 A2982 RMK SC5AC3 SLP144=

CYQF;2005-02-14 06:00;METAR CYQF 140600Z 00000KT 12SM -SN BKN040 OVC080 M06/M09 A2982 RMK SC5AC3 SLP146=

CYQF;2005-02-14 06:43;SPECI CYQF 140643Z 00000KT 2SM -SN VV015 RMK SN8=

CYQF;2005-02-14 07:00;METAR CYQF 140700Z 00000KT 1 1/2SM -SN VV015 M06/M09 A2983 RMK SN8 SLP149=

CYQF;2005-02-14 08:00;METAR CYQF 140800Z 25003KT 6SM -SN OVC055 M07/M09 A2985 RMK SC8 SLP153=

CYQF;2005-02-14 08:32;SPECI CYQF 140832Z 26004KT 1 1/2SM -SN VV015 RMK SN8=

CYQF;2005-02-14 09:34;SPECI CYQF 140934Z 23004KT 5SM -SN OVC055 RMK SC8=

CYQF;2005-02-14 10:00;METAR CYQF 141000Z 21006KT 15SM OVC055 M06/M08 A2985 RMK SC8 /S01/ SLP156=

CYQF;2005-02-14 11:00;METAR CYQF 141100Z 21008KT 15SM OVC055 M06/M08 A2985 RMK SC8 SLP156=

CYQF;2005-02-14 12:00;METAR CYQF 141200Z 23009KT 15SM OVC060 M06/M09 A2984 RMK SC8 SLP154=

CYQF;2005-02-14 13:00;METAR CYQF 141300Z 23007KT 15SM FEW060 SCT250 M08/M11 A2985 RMK SC1CI1 SLP156=

CYQF;2005-02-14 15:00;METAR CYQF 141500Z 21005KT 15SM FEW060 FEW250 M13/M15 A2985 RMK SC1CI0 SLP169=

CYQF;2005-02-14 16:00;METAR CYQF 141600Z 20005KT 15SM FEW030 SCT250 M14/M16 A2985 RMK SC2CI1 SLP169=

CYQF;2005-02-14 18:00;METAR CYQF 141800Z 26007KT 15SM SCT030 BKN250 M08/M11 A2987 RMK SC4CI2 SHS DIST NW SLP170=

CYQF;2005-02-14 19:00;METAR CYQF 141900Z 27008KT 15SM FEW030 SCT080 BKN250 M08/M11 A2987 RMK SC2AC2CI1 SHS/VIRGA DIST W SLP171=

CYQF;2005-02-14 21:00;METAR CYQF 142100Z 00000KT 15SM FEW030 FEW090 SCT250 M04/M10 A2986 RMK CU1AC1CI1 SLP164=

CYQF;2005-02-14 22:00;METAR CYQF 142200Z 34007KT 15SM FEW030 SCT090 BKN250 M05/M10 A2987 RMK CU2AC2CI1 SLP165=

CYQF;2005-02-14 23:00;METAR CYQF 142300Z 36005KT 15SM FEW030 BKN090 BKN250 M05/M12 A2988 RMK CU2AC3CI1 VIRGA/SHS DIST SW-NW SLP168=

CYQF;2005-02-14 23:53;SPECI CYQF 142353Z 35008KT 4SM -SN BKN050 OVC090 RMK SN2SC5AC1=

CYQF;2005-02-15 00:00;METAR CYQF 150000Z 34010G15KT 3SM -SN OVC050 M07/M10 A2990 RMK SN4SC4 SLP179=

CYQF;2005-02-15 01:00;METAR CYQF 150100Z 33010G15KT 1 1/2SM -SN OVC040 M07/M10 A2993 RMK SN5SC3 SLP188=

CYQF;2005-02-15 01:43;SPECI CYQF 150143Z 32020G30KT 10SM -SN SCT030 BKN100 OVC250 RMK SC3AC4CI1 BLSN=

CYQF;2005-02-15 02:00;METAR CYQF 150200Z 31018G25KT 10SM -SN SCT030 BKN090 OVC250 M07/M12 A2995 RMK SC3AC3CI2 DRSN SLP196=

CYQF;2005-02-15 03:00;METAR CYQF 150300Z 31015G24KT 3SM -SN DRSN SCT030 OVC090 M08/M12 A2998 RMK SC4AC4 SLP216=

CYQF;2005-02-15 04:00;METAR CYQF 150400Z 32012KT 10SM -SN FEW030 BKN055 OVC100 M08/M12 A2999 RMK SC2SC3AC2 SLP220=

CYQF;2005-02-15 04:30;SPECI CYQF 150430Z 32013KT 15SM FEW030 BKN055 OVC100 RMK SC2SC3AC2=

CYQF;2005-02-15 05:00;METAR CYQF 150500Z 32010KT 15SM FEW030 BKN055 BKN100 M08/M14 A3000 RMK SC2SC4AC1 SLP222=

CYQF;2005-02-15 06:00;METAR CYQF 150600Z 28008KT 15SM BKN060 BKN100 M09/M14 A3001 RMK SC5AC2 SLP221=

CYQF;2005-02-15 07:00;METAR CYQF 150700Z 28010KT 15SM BKN060 M09/M14 A3000 RMK SC6 SLP220=

CYQF;2005-02-15 08:00;METAR CYQF 150800Z 28011KT 15SM BKN080 M09/M14 A3002 RMK AC6 SLP224=

CYQF;2005-02-15 09:00;METAR CYQF 150900Z 26008KT 15SM OVC080 M09/M14 A3003 RMK AC8 SLP224=

CYQF;2005-02-15 10:00;METAR CYQF 151000Z 27010KT 15SM BKN080 M10/M15 A3004 RMK AC5 SLP228=

CYQF;2005-02-15 11:00;METAR CYQF 151100Z 28006KT 15SM BKN080 M12/M16 A3006 RMK AC3 SLP234=

CYQF;2005-02-15 12:00;METAR CYQF 151200Z 28007KT 15SM SKC M13/M17 A3008 RMK SLP252=

CYQF;2005-02-15 13:00;METAR CYQF 151300Z 27008KT 15SM SKC M13/M17 A3010 RMK SLP257=

CYQF;2005-02-15 14:00;METAR CYQF 151400Z 26007KT 15SM FEW080 M14/M18 A3010 RMK AC1 SLP258=

CYQF;2005-02-15 15:00;METAR CYQF 151500Z 25005KT 15SM FEW250 M15/M18 A3012 RMK CI0 SLP267=

CYQF;2005-02-15 16:00;METAR CYQF 151600Z 24005KT 15SM FEW100 FEW250 M15/M18 A3013 RMK AC1CI0 SLP270=

CYQF;2005-02-15 17:00;METAR CYQF 151700Z 24005KT 15SM FEW100 FEW250 M12/M15 A3013 RMK AC1CI0 SLP271=

CYQF;2005-02-15 18:00;METAR CYQF 151800Z 30008KT 15SM FEW250 M08/M14 A3014 RMK CI1 SLP267=

CYQF;2005-02-15 19:00;METAR CYQF 151900Z 30009KT 15SM BKN250 M06/M13 A3015 RMK CI3 SLP272=

CYQF;2005-02-15 20:00;METAR CYQF 152000Z 29006KT 15SM SCT250 M06/M13 A3015 RMK CI2 SLP270=

CYQF;2005-02-15 21:00;METAR CYQF 152100Z 30010KT 15SM FEW250 M04/M12 A3014 RMK CI1 SLP263=

CYQF;2005-02-15 22:00;METAR CYQF 152200Z 35010KT 15SM FEW250 M04/M13 A3015 RMK CI0 SLP265=

CYQF;2005-02-15 23:00;METAR CYQF 152300Z 00000KT 15SM FEW250 M05/M13 A3015 RMK CI0 SLP267=

CYQF;2005-02-16 00:00;METAR CYQF 160000Z 00000KT 15SM FEW250 M05/M14 A3015 RMK CI0 SLP272=

CYQF;2005-02-16 01:00;METAR CYQF 160100Z 00000KT 15SM FEW250 M09/M15 A3015 RMK CI0 SLP274=

CYQF;2005-02-16 02:00;METAR CYQF 160200Z 00000KT 15SM SKC M12/M18 A3017 RMK SLP279=

CYQF;2005-02-16 04:00;METAR CYQF 160400Z 00000KT 15SM SKC M16/M19 A3018 RMK SLP296=

CYQF;2005-02-16 05:00;METAR CYQF 160500Z 22006KT 15SM SKC M17/M21 A3019 RMK SLP298=

CYQF;2005-02-16 06:00;METAR CYQF 160600Z 24008KT 15SM SKC M17/M20 A3019 RMK SLP295=

CYQF;2005-02-16 07:00;METAR CYQF 160700Z 21004KT 15SM SKC M17/M20 A3018 RMK SLP292=

CYQF;2005-02-16 08:00;METAR CYQF 160800Z 21004KT 15SM SKC M16/M20 A3017 RMK SLP290=

CYQF;2005-02-16 09:00;METAR CYQF 160900Z 00000KT 15SM FEW250 M17/M20 A3016 RMK CI0 SLP280=

CYQF;2005-02-16 10:00;METAR CYQF 161000Z 21007KT 15SM FEW250 M17/M20 A3015 RMK CI0 SLP276=

CYQF;2005-02-16 11:00;METAR CYQF 161100Z 19003KT 15SM FEW250 M18/M21 A3014 RMK CI1 SLP273=

CYQF;2005-02-16 12:00;METAR CYQF 161200Z 19005KT 15SM SKC M17/M20 A3013 RMK SLP270=

CYQF;2005-02-16 13:00;METAR CYQF 161300Z 19004KT 15SM SKC M17/M21 A3013 RMK SLP270=

CYQF;2005-02-16 14:00;METAR CYQF 161400Z 20004KT 15SM SKC M19/M23 A3012 RMK SLP266=

CYQF;2005-02-16 15:00;METAR CYQF 161500Z 21007KT 15SM FEW250 M18/M21 A3011 RMK CI1 SLP276=

CYQF;2005-02-16 16:00;METAR CYQF 161600Z 25012KT 15SM FEW250 M15/M20 A3011 RMK CI1 SLP276=

CYQF;2005-02-16 17:00;METAR CYQF 161700Z 20003KT 15SM FEW250 M14/M20 A3010 RMK CI1 SLP273=

CYQF;2005-02-16 18:00;METAR CYQF 161800Z 18003KT 15SM BKN250 M11/M18 A3010 RMK CI3 SLP268=

CYQF;2005-02-16 19:00;METAR CYQF 161900Z 20005KT 15SM BKN250 M10/M17 A3009 RMK CI2 SLP263=

CYQF;2005-02-16 20:00;METAR CYQF 162000Z 21006KT 15SM FEW120 SCT250 M08/M15 A3004 RMK AC1CI1 SLP248=

CYQF;2005-02-16 21:00;METAR CYQF 162100Z 00000KT 15SM FEW120 FEW250 M05/M14 A3003 RMK AC1CI0 SLP236=

CYQF;2005-02-16 22:00;METAR CYQF 162200Z 18003KT 15SM FEW250 M03/M14 A3001 RMK CI1 SLP229=

CYQF;2005-02-16 23:00;METAR CYQF 162300Z 00000KT 15SM FEW120 BKN250 M04/M13 A3001 RMK AC2CI2 SLP228=

CYQF;2005-02-17 00:00;METAR CYQF 170000Z 21003KT 15SM BKN120 BKN250 M05/M12 A3001 RMK AC5CI1 SLP229=

CYQF;2005-02-17 01:00;METAR CYQF 170100Z 25003KT 15SM FEW120 SCT250 M06/M13 A3002 RMK AC2CI0 SLP232=

CYQF;2005-02-17 02:00;METAR CYQF 170200Z 00000KT 15SM SCT120 SCT250 M11/M16 A3006 RMK AC3CI0 SLP244=

CYQF;2005-02-17 03:00;METAR CYQF 170300Z 29005KT 15SM SCT120 BKN250 M08/M14 A3008 RMK AC4CI1 SLP259=

CYQF;2005-02-17 04:00;METAR CYQF 170400Z 00000KT 15SM BKN100 BKN250 M09/M14 A3010 RMK AC6CI1 SLP265=

CYQF;2005-02-17 05:00;METAR CYQF 170500Z 00000KT 15SM SCT100 SCT250 M11/M16 A3010 RMK AC3CI0 SLP265=

CYQF;2005-02-17 06:00;METAR CYQF 170600Z 28008KT 15SM SCT100 M07/M14 A3011 RMK AC4 SLP259=

CYQF;2005-02-17 07:00;METAR CYQF 170700Z 29007KT 15SM OVC090 M07/M14 A3011 RMK AC7 SLP259=

CYQF;2005-02-17 08:00;METAR CYQF 170800Z 27006KT 15SM FEW040 OVC090 M07/M13 A3013 RMK SC2AC6 SLP264=

CYQF;2005-02-17 09:00;METAR CYQF 170900Z 23004KT 15SM FEW040 OVC090 M08/M13 A3014 RMK SC2AC6 SLP262=

CYQF;2005-02-17 10:00;METAR CYQF 171000Z 32010KT 15SM OVC090 M03/M11 A3015 RMK AC8 SLP267=

CYQF;2005-02-17 11:00;METAR CYQF 171100Z 28006KT 15SM OVC090 M05/M11 A3017 RMK AC8 SLP271=

CYQF;2005-02-17 12:00;METAR CYQF 171200Z 29008KT 15SM OVC090 M04/M11 A3019 RMK AC8 SLP276=

CYQF;2005-02-17 13:00;METAR CYQF 171300Z 30009KT 15SM BKN090 OVC250 M04/M11 A3020 RMK AC7CI1 SLP281=

CYQF;2005-02-17 14:00;METAR CYQF 171400Z 28006KT 15SM BKN090 OVC250 M04/M08 A3020 RMK AC7CI1 SLP279=

CYQF;2005-02-17 15:00;METAR CYQF 171500Z 28009KT 15SM BKN090 OVC250 M04/M09 A3021 RMK AC6CI2 SLP288=

CYQF;2005-02-17 16:00;METAR CYQF 171600Z 30012KT 15SM SCT090 M05/M11 A3022 RMK AC3 SLP291=

CYQF;2005-02-17 17:00;METAR CYQF 171700Z 29012KT 15SM FEW100 M04/M11 A3024 RMK AC2 SLP295=

CYQF;2005-02-17 18:00;METAR CYQF 171800Z 28008KT 15SM FEW100 M03/M10 A3024 RMK AC1 SLP295=

CYQF;2005-02-17 19:00;METAR CYQF 171900Z 30012KT 15SM FEW100 M02/M09 A3024 RMK AC1 TR CLD SLP293=

CYQF;2005-02-17 20:00;METAR CYQF 172000Z 30012KT 15SM FEW030 M01/M09 A3022 RMK CU1 TR CLD SLP288=

CYQF;2005-02-17 21:00;METAR CYQF 172100Z 31010KT 15SM FEW030 M00/M09 A3022 RMK CU1 TR CLD SLP286=

CYQF;2005-02-17 22:00;METAR CYQF 172200Z 31008KT 15SM FEW030 M00/M09 A3022 RMK CU1 SLP285=

CYQF;2005-02-17 23:00;METAR CYQF 172300Z 35006KT 15SM FEW030 M02/M09 A3022 RMK SC1 TR CLD SLP286=

CYQF;2005-02-18 00:00;METAR CYQF 180000Z 36005KT 15SM FEW040 M02/M11 A3022 RMK SC1 TR CLD SLP284=

CYQF;2005-02-18 01:00;METAR CYQF 180100Z 31002KT 15SM FEW080 M05/M12 A3022 RMK AC1 SLP285=

CYQF;2005-02-18 03:00;METAR CYQF 180300Z 04006KT 15SM SKC M08/M13 A3021 RMK SLP287=

CYQF;2005-02-18 04:00;METAR CYQF 180400Z 22004KT 15SM SKC M14/M17 A3021 RMK SLP286=

CYQF;2005-02-18 05:00;METAR CYQF 180500Z 23002KT 15SM SKC M14/M18 A3021 RMK SLP288=

CYQF;2005-02-18 06:00;METAR CYQF 180600Z 21005KT 15SM SKC M16/M19 A3021 RMK SLP295=

CYQF;2005-02-18 07:00;METAR CYQF 180700Z 18003KT 15SM SKC M14/M18 A3020 RMK SLP291=

CYQF;2005-02-18 08:00;METAR CYQF 180800Z 00000KT 15SM SKC M17/M20 A3017 RMK SLP282=

CYQF;2005-02-18 10:00;METAR CYQF 181000Z 00000KT 15SM SKC M16/M19 A3013 RMK SLP266=

CYQF;2005-02-18 11:00;METAR CYQF 181100Z 19003KT 15SM SKC M19/M22 A3010 RMK SLP256=

CYQF;2005-02-18 12:00;METAR CYQF 181200Z 00000KT 15SM SKC M18/M21 A3007 RMK SLP249=

CYQF;2005-02-18 13:00;METAR CYQF 181300Z 15005KT 15SM SKC M14/M17 A3005 RMK SLP242=

CYQF;2005-02-18 14:00;METAR CYQF 181400Z 15004KT 15SM FEW250 M14/M17 A3001 RMK CI0 SLP229=

CYQF;2005-02-18 15:00;METAR CYQF 181500Z 18005KT 15SM SCT250 M13/M17 A2999 RMK CI1 SLP220=

CYQF;2005-02-18 16:00;METAR CYQF 181600Z 16008KT 15SM SCT250 M14/M17 A2996 RMK CI2 SLP212=

CYQF;2005-02-18 17:00;METAR CYQF 181700Z 15010KT 15SM FEW180 BKN250 M10/M14 A2993 RMK AC2CI2 SLP203=

CYQF;2005-02-18 18:00;METAR CYQF 181800Z 14010G15KT 15SM FEW180 BKN250 M09/M13 A2991 RMK AC2CI2 SLP196=

CYQF;2005-02-18 19:00;METAR CYQF 181900Z 13008KT 15SM BKN160 OVC250 M09/M12 A2988 RMK AC5CI1 SLP188=

CYQF;2005-02-18 20:00;METAR CYQF 182000Z 15010G15KT 15SM OVC140 M08/M12 A2985 RMK AC7 SLP180=

CYQF;2005-02-18 21:00;METAR CYQF 182100Z 13010G15KT 15SM OVC140 M06/M11 A2982 RMK AS7 SLP165=

CYQF;2005-02-18 22:00;METAR CYQF 182200Z 13010G15KT 15SM SCT140 BKN250 M06/M10 A2981 RMK AC4CI2 SLP160=

CYQF;2005-02-18 23:00;METAR CYQF 182300Z 12010G15KT 15SM FEW015 FEW120 BKN250 M06/M10 A2981 RMK CF1AC2CI1 SLP161=

CYQF;2005-02-19 00:00;METAR CYQF 190000Z 13010KT 15SM BKN015 OVC120 M06/M10 A2982 RMK SC5AC2 SLP164=

CYQF;2005-02-19 01:00;METAR CYQF 190100Z 11008KT 15SM BKN015 BKN120 OVC250 M06/M10 A2981 RMK SC2AC5CI1 SLP162=

CYQF;2005-02-19 02:00;METAR CYQF 190200Z 07008KT 15SM BKN040 OVC120 M08/M12 A2982 RMK SC6AC2 SLP166=

CYQF;2005-02-19 03:00;METAR CYQF 190300Z 09007KT 15SM OVC040 M09/M12 A2983 RMK SC8 SLP166=

CYQF;2005-02-19 04:00;METAR CYQF 190400Z 06008KT 15SM OVC045 M10/M13 A2983 RMK SC8 SLP167=

CYQF;2005-02-19 05:00;METAR CYQF 190500Z 08007KT 15SM OVC045 M11/M14 A2983 RMK SC8 SLP166=

CYQF;2005-02-19 06:00;METAR CYQF 190600Z 07006KT 15SM OVC050 M11/M14 A2984 RMK SC8 SLP166=

CYQF;2005-02-19 07:00;METAR CYQF 190700Z 01007KT 15SM -SN OVC075 M12/M15 A2984 RMK AC8 SLP167=

CYQF;2005-02-19 08:00;METAR CYQF 190800Z 05005KT 10SM -SN OVC050 M13/M15 A2984 RMK SC8 SLP167=

CYQF;2005-02-19 09:00;METAR CYQF 190900Z 04004KT 10SM -SN BKN050 M12/M15 A2984 RMK SC6 SLP164=

CYQF;2005-02-19 10:00;METAR CYQF 191000Z 36003KT 10SM -SN BKN012 OVC050 M13/M15 A2984 RMK SC5SC3 SLP164=

CYQF;2005-02-19 11:00;METAR CYQF 191100Z 35004KT 10SM -SN BKN015 OVC050 M13/M16 A2984 RMK SC5SC3 SLP165=

CYQF;2005-02-19 12:00;METAR CYQF 191200Z 01003KT 10SM -SN OVC010 M13/M15 A2984 RMK SC8 SLP166=

CYQF;2005-02-19 13:00;METAR CYQF 191300Z 36007KT 10SM -SN SCT010 OVC050 M13/M15 A2984 RMK SC4SC4 SLP165=

CYQF;2005-02-19 14:00;METAR CYQF 191400Z 35006KT 10SM -SN BKN008 OVC050 M13/M16 A2984 RMK SC6SC2 SLP166=

CYQF;2005-02-19 15:00;METAR CYQF 191500Z 36008KT 2SM -SN OVC010 M13/M16 A2985 RMK SC8 SLP172=

CYQF;2005-02-19 16:00;METAR CYQF 191600Z 36006KT 2SM -SN OVC011 M13/M16 A2986 RMK SN3SC5 SLP176=

CYQF;2005-02-19 17:00;METAR CYQF 191700Z 36010KT 4SM -SN BKN011 OVC050 M13/M16 A2987 RMK SN2SC5SC2 SLP179=

CYQF;2005-02-19 18:00;METAR CYQF 191800Z 35011KT 10SM -SN SCT012 OVC050 M12/M16 A2987 RMK SC3SC4 SLP182=

CYQF;2005-02-19 19:00;METAR CYQF 191900Z 36012KT 12SM -SN SCT014 OVC050 M12/M15 A2988 RMK SC3SC5 SLP184=

CYQF;2005-02-19 20:00;METAR CYQF 192000Z 36010KT 12SM -SN SCT014 OVC040 M11/M15 A2987 RMK SC4SC4 SLP182=

CYQF;2005-02-19 21:00;METAR CYQF 192100Z 35010KT 12SM -SN BKN018 OVC040 M10/M14 A2987 RMK SC5SC3 SLP181=

CYQF;2005-02-19 21:48;SPECI CYQF 192148Z 36008KT 15SM SCT020 OVC050 RMK SC3SC4=

CYQF;2005-02-19 22:00;METAR CYQF 192200Z 35010KT 15SM SCT020 OVC050 M10/M14 A2987 RMK SC3SC4 SLP180=

CYQF;2005-02-19 23:00;METAR CYQF 192300Z 35008KT 15SM FEW050 SCT100 OVC250 M10/M14 A2987 RMK SC2AC2CI2 SLP181=

CYQF;2005-02-20 00:00;METAR CYQF 200000Z 35004KT 15SM FEW050 SCT100 OVC250 M11/M15 A2988 RMK SC1AC2CI2 SLP186=

CYQF;2005-02-20 01:00;METAR CYQF 200100Z 33005KT 15SM FEW050 BKN100 OVC250 M11/M15 A2990 RMK SC2AC6CI1 SLP192=

CYQF;2005-02-20 02:00;METAR CYQF 200200Z 29003KT 15SM SCT016 BKN050 BKN100 OVC250 M10/M14 A2991 RMK SC3SC2AC2CI0 SLP196=

CYQF;2005-02-20 02:20;SPECI CYQF 200220Z 32003KT 15SM -SN SCT016 BKN050 BKN100 OVC250 RMK SC4SC2AC2CI0=

CYQF;2005-02-20 03:00;METAR CYQF 200300Z 33004KT 12SM -SN SCT016 BKN050 BKN100 OVC250 M11/M14 A2992 RMK SC3SC2AC2CI0 SLP201=

CYQF;2005-02-20 04:00;METAR CYQF 200400Z 34004KT 15SM -SN FEW015 SCT050 BKN100 BKN250 M13/M15 A2992 RMK SC2SC2AC2CI0 SLP201=

CYQF;2005-02-20 05:00;METAR CYQF 200500Z 22003KT 15SM FEW050 SCT100 BKN250 M16/M19 A2993 RMK SC2AC1CI1 SLP202=

CYQF;2005-02-20 06:00;METAR CYQF 200600Z 25003KT 15SM FEW100 SCT250 M16/M19 A2993 RMK AC1CI1 SLP207=

CYQF;2005-02-20 07:00;METAR CYQF 200700Z 26007KT 15SM FEW100 SCT250 M15/M17 A2992 RMK AC1CI1 SLP204=

CYQF;2005-02-20 08:00;METAR CYQF 200800Z 21004KT 10SM FEW250 M19/M21 A2990 RMK CI1 SLP200=

CYQF;2005-02-20 09:00;METAR CYQF 200900Z 00000KT 2SM BR SKC M18/M20 A2989 RMK FG3 SLP194=

CYQF;2005-02-20 10:00;METAR CYQF 201000Z 00000KT 1SM BR SKC M18/M20 A2989 RMK FG3 SLP194=

CYQF;2005-02-20 11:00;METAR CYQF 201100Z 00000KT 1SM BR SKC M20/M22 A2987 RMK FG4 SLP188=

CYQF;2005-02-20 11:20;SPECI CYQF 201120Z 20004KT 10SM SKC RMK F PTCHS=

CYQF;2005-02-20 12:00;METAR CYQF 201200Z 00000KT 15SM SKC M21/M22 A2987 RMK SLP192=

CYQF;2005-02-20 13:00;METAR CYQF 201300Z 20005KT 15SM SKC M22/M24 A2986 RMK SLP189=

CYQF;2005-02-20 14:00;METAR CYQF 201400Z 22005KT 15SM SKC M23/M25 A2985 RMK SLP185=

CYQF;2005-02-20 15:00;METAR CYQF 201500Z 21004KT 15SM SKC M21/M22 A2984 RMK SLP182=

CYQF;2005-02-20 16:00;METAR CYQF 201600Z 00000KT 15SM SKC M21/M22 A2985 RMK SLP183=

CYQF;2005-02-20 17:00;METAR CYQF 201700Z 00000KT 15SM SKC M17/M18 A2983 RMK SLP178=

CYQF;2005-02-20 18:00;METAR CYQF 201800Z 22003KT 15SM SKC M15/M17 A2983 RMK SLP176=

CYQF;2005-02-20 19:00;METAR CYQF 201900Z 21004KT 15SM FEW250 M13/M15 A2982 RMK CI0 SLP174=

CYQF;2005-02-20 20:00;METAR CYQF 202000Z 21003KT 15SM BKN250 M12/M14 A2980 RMK CI1 SLP169=

CYQF;2005-02-20 21:00;METAR CYQF 202100Z 17003KT 15SM BKN250 M09/M16 A2980 RMK CI2 SLP161=

CYQF;2005-02-20 22:00;METAR CYQF 202200Z 19003KT 15SM OVC250 M09/M15 A2979 RMK CS5 SLP159=

CYQF;2005-02-20 23:00;METAR CYQF 202300Z 00000KT 15SM OVC250 M09/M15 A2979 RMK CI6 SLP160=

CYQF;2005-02-21 00:00;METAR CYQF 210000Z 00000KT 15SM SCT100 OVC250 M09/M15 A2980 RMK AS2CI5 SLP164=

CYQF;2005-02-21 01:00;METAR CYQF 210100Z 20002KT 15SM FEW100 OVC250 M11/M16 A2982 RMK AC2CI6 SLP169=

CYQF;2005-02-21 02:00;METAR CYQF 210200Z 00000KT 15SM FEW100 OVC250 M10/M16 A2983 RMK AC2CI6 SLP173=

CYQF;2005-02-21 03:00;METAR CYQF 210300Z 30003KT 15SM OVC250 M10/M16 A2985 RMK CI6 SLP183=

CYQF;2005-02-21 04:00;METAR CYQF 210400Z 29004KT 15SM SCT100 OVC250 M10/M14 A2987 RMK AC3CI5 SLP189=

CYQF;2005-02-21 05:00;METAR CYQF 210500Z 29003KT 15SM BKN100 OVC250 M08/M13 A2989 RMK AC6CI2 SLP196=

CYQF;2005-02-21 06:00;METAR CYQF 210600Z 26004KT 15SM BKN100 BKN250 M09/M14 A2991 RMK AC6CI0 SLP195=

CYQF;2005-02-21 07:00;METAR CYQF 210700Z 27003KT 15SM BKN100 BKN250 M11/M16 A2991 RMK AC6CI0 SLP196=

CYQF;2005-02-21 08:00;METAR CYQF 210800Z 20003KT 15SM BKN120 OVC250 M12/M16 A2991 RMK AC5CI2 SLP197=

CYQF;2005-02-21 09:00;METAR CYQF 210900Z 23006KT 15SM BKN120 M12/M16 A2992 RMK AC5 SLP195=

CYQF;2005-02-21 10:00;METAR CYQF 211000Z 21004KT 15SM SCT120 M14/M17 A2992 RMK AC3 SLP197=

CYQF;2005-02-21 11:00;METAR CYQF 211100Z 18005KT 15SM BKN110 M14/M17 A2993 RMK AC6 SLP200=

CYQF;2005-02-21 12:00;METAR CYQF 211200Z 18003KT 15SM BKN110 M12/M16 A2994 RMK AC6 SLP204=

CYQF;2005-02-21 13:00;METAR CYQF 211300Z 18003KT 15SM BKN110 M13/M17 A2996 RMK AC6 SLP211=

CYQF;2005-02-21 14:00;METAR CYQF 211400Z 20005KT 15SM FEW025 OVC100 M12/M16 A2997 RMK SC2AC6 SLP213=

CYQF;2005-02-21 15:00;METAR CYQF 211500Z 21003KT 15SM FEW025 OVC100 M12/M16 A2998 RMK SC2AC5 SLP219=

CYQF;2005-02-21 16:00;METAR CYQF 211600Z 00000KT 10SM -SN SCT025 OVC100 M10/M14 A3001 RMK SC3AC5 SLP226=

CYQF;2005-02-21 17:00;METAR CYQF 211700Z 24006KT 6SM -SN FEW025 BKN090 M08/M12 A3002 RMK SC2AC3 SLP230=

CYQF;2005-02-21 17:48;SPECI CYQF 211748Z 21005KT 15SM FEW025 FEW090 SCT250 RMK SC1AC1CI1=

CYQF;2005-02-21 18:00;METAR CYQF 211800Z 20005KT 15SM FEW025 FEW090 SCT250 M07/M11 A3003 RMK SC1AC1CI1 SLP229=

CYQF;2005-02-21 19:00;METAR CYQF 211900Z 28006KT 15SM FEW100 FEW250 M05/M09 A3004 RMK AC1CI0 SLP231=

CYQF;2005-02-23 00:00;METAR CYQF 230000Z 19005KT 15SM OVC250 M04/M11 A3012 RMK CI6 SLP259=

CYQF;2005-02-23 01:00;METAR CYQF 230100Z 20005KT 15SM OVC250 M05/M12 A3013 RMK CI4 SLP263=

CYQF;2005-02-23 02:00;METAR CYQF 230200Z 20005KT 15SM BKN250 M09/M15 A3014 RMK CI4 SLP265=

CYQF;2005-02-23 03:00;METAR CYQF 230300Z 20004KT 15SM BKN250 M07/M13 A3014 RMK CI3 SLP272=

CYQF;2005-02-23 04:00;METAR CYQF 230400Z 21005KT 15SM SCT100 BKN250 M08/M14 A3014 RMK AC2CI2 SLP271=

CYQF;2005-02-23 05:00;METAR CYQF 230500Z 19005KT 15SM BKN100 OVC250 M07/M12 A3015 RMK AC5CI2 SLP273=

CYQF;2005-02-23 06:00;METAR CYQF 230600Z 19005KT 15SM BKN100 BKN250 M05/M12 A3013 RMK AC6CI1 SLP257=

CYQF;2005-02-23 07:00;METAR CYQF 230700Z 18005KT 15SM SCT100 BKN250 M07/M12 A3012 RMK AC2CI1 SLP254=

CYQF;2005-02-23 08:00;METAR CYQF 230800Z 20005KT 15SM SCT250 M07/M13 A3011 RMK CI2 SLP250=

CYQF;2005-02-23 09:00;METAR CYQF 230900Z 18003KT 15SM SKC M09/M15 A3012 RMK SLP253=

CYQF;2005-02-23 10:00;METAR CYQF 231000Z 19003KT 15SM SKC M11/M16 A3011 RMK SLP251=

CYQF;2005-02-23 11:00;METAR CYQF 231100Z 20005KT 15SM SKC M11/M16 A3011 RMK SLP249=

CYQF;2005-02-23 12:00;METAR CYQF 231200Z 19005KT 15SM SKC M13/M18 A3011 RMK SLP257=

CYQF;2005-02-23 13:00;METAR CYQF 231300Z 19006KT 15SM FEW250 M12/M16 A3012 RMK CI1 SLP261=

CYQF;2005-02-23 14:00;METAR CYQF 231400Z 19005KT 15SM FEW100 FEW250 M14/M18 A3013 RMK AC1CI0 SLP263=

CYQF;2005-02-23 15:00;METAR CYQF 231500Z 19005KT 15SM FEW100 SCT250 M12/M17 A3012 RMK AC1CI1 SLP265=

CYQF;2005-02-23 16:00;METAR CYQF 231600Z 20007KT 15SM BKN100 BKN250 M09/M14 A3013 RMK AC5CI1 SLP266=

CYQF;2005-02-23 17:00;METAR CYQF 231700Z 21005KT 15SM BKN100 OVC250 M05/M12 A3012 RMK AC6CI1 SLP264=

CYQF;2005-02-23 18:00;METAR CYQF 231800Z 22005KT 15SM BKN100 OVC250 M03/M10 A3011 RMK AC6CI1 SLP247=

CYQF;2005-02-23 19:00;METAR CYQF 231900Z 22003KT 15SM SCT100 OVC250 M01/M09 A3011 RMK AC3CI2 SLP246=

CYQF;2005-02-23 20:00;METAR CYQF 232000Z 20004KT 15SM FEW100 BKN250 01/M08 A3009 RMK AC2CI2 SLP241=

CYQF;2005-02-23 21:00;METAR CYQF 232100Z 19003KT 15SM FEW120 OVC250 03/M07 A3007 RMK AC2CI3 SLP233=

CYQF;2005-02-23 22:00;METAR CYQF 232200Z 21004KT 15SM FEW120 OVC250 02/M07 A3006 RMK AC2CI2 SLP228=

CYQF;2005-02-23 23:00;METAR CYQF 232300Z 20003KT 15SM FEW120 BKN250 02/M07 A3005 RMK AC1CI3 SLP224=

CYQF;2005-02-24 00:00;METAR CYQF 240000Z 18003KT 15SM BKN250 02/M07 A3004 RMK CI3 SLP225=

CYQF;2005-02-24 01:00;METAR CYQF 240100Z 18004KT 15SM SCT250 M02/M09 A3003 RMK CI1 SLP221=

CYQF;2005-02-24 02:00;METAR CYQF 240200Z 19005KT 15SM SCT250 M06/M12 A3003 RMK CI1 SLP221=

CYQF;2005-02-24 03:00;METAR CYQF 240300Z 21006KT 15SM BKN250 M06/M12 A3002 RMK CI2 SLP228=

CYQF;2005-02-24 04:00;METAR CYQF 240400Z 21007KT 15SM BKN250 M05/M12 A3002 RMK CI2 SLP228=

CYQF;2005-02-24 05:00;METAR CYQF 240500Z 23004KT 15SM BKN250 M06/M13 A3003 RMK CI2 SLP229=

CYQF;2005-02-24 06:00;METAR CYQF 240600Z 22005KT 15SM SCT250 M07/M14 A3003 RMK CI2 SLP221=

CYQF;2005-02-24 07:00;METAR CYQF 240700Z 18007KT 15SM SCT250 M08/M16 A3003 RMK CI1 SLP221=

CYQF;2005-02-24 08:00;METAR CYQF 240800Z 18007KT 15SM FEW250 M11/M17 A3002 RMK CI1 SLP218=

CYQF;2005-02-24 09:00;METAR CYQF 240900Z 19005KT 15SM FEW250 M12/M18 A3002 RMK CI1 SLP218=

CYQF;2005-02-24 10:00;METAR CYQF 241000Z 20005KT 15SM FEW250 M13/M19 A3002 RMK CI1 SLP216=

CYQF;2005-02-24 11:00;METAR CYQF 241100Z 19006KT 15SM FEW250 M11/M18 A3002 RMK CI1 SLP216=

CYQF;2005-02-24 12:00;METAR CYQF 241200Z 20004KT 15SM FEW250 M13/M19 A3002 RMK CI1 SLP217=

CYQF;2005-02-24 13:00;METAR CYQF 241300Z 19007KT 15SM FEW250 M12/M19 A3002 RMK CI1 SLP217=

CYQF;2005-02-24 14:00;METAR CYQF 241400Z 19005KT 15SM FEW250 M14/M20 A3002 RMK CI1 SLP217=

CYQF;2005-02-24 15:00;METAR CYQF 241500Z 20005KT 15SM SCT250 M14/M20 A3000 RMK CI2 SLP223=

CYQF;2005-02-24 16:00;METAR CYQF 241600Z 21005KT 15SM BKN250 M13/M19 A3001 RMK CI2 SLP225=

CYQF;2005-02-24 17:00;METAR CYQF 241700Z 21005KT 15SM BKN250 M08/M17 A3002 RMK CI2 SLP228=

CYQF;2005-02-24 18:00;METAR CYQF 241800Z 19005KT 15SM SCT250 M06/M15 A3002 RMK CI1 SLP220=

CYQF;2005-02-24 19:00;METAR CYQF 241900Z 18005KT 15SM FEW250 M02/M13 A3001 RMK CI1 SLP219=

CYQF;2005-02-24 20:00;METAR CYQF 242000Z 19004KT 15SM FEW250 M00/M11 A3000 RMK CI0 SLP214=

CYQF;2005-02-24 21:00;METAR CYQF 242100Z 20002KT 15SM FEW250 02/M11 A2998 RMK CI0 SLP204=

CYQF;2005-02-24 22:00;METAR CYQF 242200Z 00000KT 15SM FEW250 04/M12 A2997 RMK CI1 SLP201=

CYQF;2005-02-25 00:00;METAR CYQF 250000Z 00000KT 15SM FEW250 01/M11 A2995 RMK CI1 SLP194=

CYQF;2005-02-25 01:00;METAR CYQF 250100Z 00000KT 15SM FEW250 M01/M12 A2994 RMK CI1 TR CLD SLP192=

CYQF;2005-02-25 02:00;METAR CYQF 250200Z 00000KT 15SM FEW250 M06/M14 A2994 RMK CI1 TR CLD SLP193=

CYQF;2005-02-25 03:00;METAR CYQF 250300Z 00000KT 15SM SKC M07/M14 A2994 RMK SLP204=

CYQF;2005-02-25 04:00;METAR CYQF 250400Z 00000KT 15SM SKC M09/M14 A2994 RMK SLP204=

CYQF;2005-02-25 05:00;METAR CYQF 250500Z 00000KT 15SM SKC M09/M14 A2995 RMK SLP206=

CYQF;2005-02-25 06:00;METAR CYQF 250600Z 00000KT 15SM SKC M11/M16 A2995 RMK SLP200=

CYQF;2005-02-25 07:00;METAR CYQF 250700Z 00000KT 15SM FEW250 M13/M17 A2994 RMK CI1 SLP199=

CYQF;2005-02-25 08:00;METAR CYQF 250800Z 00000KT 15SM SCT250 M13/M17 A2994 RMK CI2 SLP198=

CYQF;2005-02-25 09:00;METAR CYQF 250900Z 18004KT 15SM FEW250 M15/M19 A2994 RMK CI2 SLP194=

CYQF;2005-02-25 10:00;METAR CYQF 251000Z 21004KT 15SM FEW250 M14/M18 A2994 RMK CI2 SLP194=

CYQF;2005-02-25 11:00;METAR CYQF 251100Z 20007KT 15SM FEW250 M16/M19 A2994 RMK CI1 SLP193=

CYQF;2005-02-25 12:00;METAR CYQF 251200Z 19005KT 15SM FEW250 M16/M19 A2993 RMK CI1 SLP193=

CYQF;2005-02-25 13:00;METAR CYQF 251300Z 20005KT 15SM SKC M15/M18 A2994 RMK SLP195=

CYQF;2005-02-25 14:00;METAR CYQF 251400Z 20007KT 15SM FEW250 M16/M19 A2993 RMK CI2 SLP191=

CYQF;2005-02-25 15:00;METAR CYQF 251500Z 19006KT 15SM FEW100 SCT270 M15/M19 A2993 RMK AC2CI0 SLP200=

CYQF;2005-02-25 16:00;METAR CYQF 251600Z 19006KT 15SM FEW140 SCT270 M11/M17 A2993 RMK AC2CI1 SLP200=

CYQF;2005-02-25 17:00;METAR CYQF 251700Z 20005KT 15SM FEW140 SCT270 M08/M15 A2992 RMK AC2CI1 SLP198=

CYQF;2005-02-25 18:00;METAR CYQF 251800Z 20004KT 15SM FEW140 SCT270 M05/M13 A2991 RMK AC2CI1 SLP187=

CYQF;2005-02-25 19:00;METAR CYQF 251900Z 23003KT 15SM BKN250 M01/M11 A2990 RMK CI2 SLP184=

CYQF;2005-02-25 20:00;METAR CYQF 252000Z 00000KT 15SM BKN250 02/M10 A2988 RMK CI3 SLP178=

CYQF;2005-02-25 21:00;METAR CYQF 252100Z 17003KT 15SM BKN250 03/M10 A2986 RMK CI2 SLP167=

CYQF;2005-02-25 22:00;METAR CYQF 252200Z 00000KT 15SM BKN250 03/M09 A2985 RMK CI3 SLP164=

CYQF;2005-02-25 23:00;METAR CYQF 252300Z 00000KT 15SM FEW080 BKN250 04/M08 A2985 RMK AC1CI3 SLP164=

CYQF;2005-02-26 00:00;METAR CYQF 260000Z 00000KT 15SM FEW080 BKN250 03/M10 A2986 RMK AC2CI2 SLP165=

CYQF;2005-02-26 01:00;METAR CYQF 260100Z 00000KT 15SM FEW080 BKN250 00/M08 A2985 RMK AC2CI4 SLP163=

CYQF;2005-02-26 02:00;METAR CYQF 260200Z 22003KT 15SM FEW080 BKN250 M04/M10 A2986 RMK AC2CI3 SLP165=

CYQF;2005-02-26 03:00;METAR CYQF 260300Z 26005KT 15SM FEW080 BKN250 M04/M11 A2987 RMK AC2CI2 SLP176=

CYQF;2005-02-26 04:00;METAR CYQF 260400Z 26003KT 15SM SCT080 OVC250 M04/M10 A2987 RMK AC3CI2 SLP178=

CYQF;2005-02-26 05:00;METAR CYQF 260500Z 13002KT 15SM BKN080 OVC250 M04/M10 A2989 RMK AC5CI2 SLP182=

CYQF;2005-02-26 06:00;METAR CYQF 260600Z 00000KT 15SM FEW040 BKN080 OVC250 M04/M09 A2991 RMK SC2AC4CI1 SLP179=

CYQF;2005-02-26 07:00;METAR CYQF 260700Z 36011KT 15SM FEW040 BKN080 OVC250 01/M06 A2993 RMK SC2AC4CI1 SLP185=

CYQF;2005-02-26 08:00;METAR CYQF 260800Z 31003KT 15SM -FZRA SCT040 BKN080 OVC250 M02/M07 A2995 RMK SC3AC3CI1 SLP190=

CYQF;2005-02-26 08:14;SPECI CYQF 260814Z 00000KT 15SM FEW040 BKN080 BKN250 REFZRA RMK SC2AC3CI1=

CYQF;2005-02-26 09:00;METAR CYQF 260900Z 35004KT 15SM FEW040 BKN080 00/M05 A2996 REFZRA RMK SC1AC5 SLP183=

CYQF;2005-02-26 10:00;METAR CYQF 261000Z 33007KT 15SM BKN080 M02/M07 A2998 RMK AC6 SLP189=

CYQF;2005-02-26 11:00;METAR CYQF 261100Z 32003KT 15SM BKN080 M02/M06 A2998 RMK AC7 SLP189=

CYQF;2005-02-26 12:00;METAR CYQF 261200Z 27006KT 15SM BKN080 M01/M05 A3000 RMK AC6 SLP198=

CYQF;2005-02-26 13:00;METAR CYQF 261300Z 28006KT 15SM BKN080 M01/M05 A3001 RMK AC6 SLP202=

CYQF;2005-02-26 14:00;METAR CYQF 261400Z 29006KT 15SM BKN080 M02/M06 A3003 RMK AC5 SLP206=

CYQF;2005-02-26 15:00;METAR CYQF 261500Z 30005KT 15SM FEW080 SCT250 M03/M07 A3003 RMK AC2CI1 SLP219=

CYQF;2005-02-26 16:00;METAR CYQF 261600Z 28006KT 15SM FEW080 BKN250 M01/M07 A3005 RMK AC1CI1 SLP225=

CYQF;2005-02-26 17:00;METAR CYQF 261700Z 29007KT 15SM FEW080 BKN250 00/M07 A3006 RMK AC2CI1 SLP228=

CYQF;2005-02-26 19:00;METAR CYQF 261900Z 27007KT 15SM BKN250 01/M05 A3007 RMK CI2 SLP229=

CYQF;2005-02-26 20:00;METAR CYQF 262000Z 27007KT 15SM BKN250 03/M05 A3007 RMK CI2 SLP228=

CYQF;2005-02-26 21:00;METAR CYQF 262100Z 27006KT 15SM BKN250 04/M05 A3007 RMK CI2 SLP219=

CYQF;2005-02-26 22:00;METAR CYQF 262200Z 27004KT 15SM BKN250 04/M05 A3007 RMK CI1 SLP219=

CYQF;2005-02-26 23:00;METAR CYQF 262300Z 33002KT 15SM SCT250 04/M07 A3007 RMK CI1 SLP219=

CYQF;2005-02-27 00:00;METAR CYQF 270000Z 00000KT 15SM BKN250 02/M07 A3007 RMK CI1 SLP223=

CYQF;2005-02-27 01:00;METAR CYQF 270100Z 00000KT 15SM BKN250 M01/M08 A3007 RMK CI0 SLP224=

CYQF;2005-02-27 02:00;METAR CYQF 270200Z 19003KT 15SM SCT250 M03/M09 A3008 RMK CI1 SLP227=

CYQF;2005-02-27 03:00;METAR CYQF 270300Z 20005KT 15SM FEW250 M07/M12 A3009 RMK CI0 SLP242=

CYQF;2005-02-27 04:00;METAR CYQF 270400Z 19003KT 15SM FEW250 M08/M12 A3010 RMK CI0 SLP245=

CYQF;2005-02-27 05:00;METAR CYQF 270500Z 19004KT 15SM FEW250 M09/M12 A3010 RMK CI0 SLP246=

CYQF;2005-02-27 06:00;METAR CYQF 270600Z 20004KT 15SM SKC M10/M14 A3011 RMK SLP248=

CYQF;2005-02-27 07:00;METAR CYQF 270700Z 21003KT 15SM SKC M11/M15 A3010 RMK -11.2 SLP247=

CYQF;2005-02-27 08:00;METAR CYQF 270800Z 18003KT 15SM SKC M11/M15 A3009 RMK SLP244=

CYQF;2005-02-27 09:00;METAR CYQF 270900Z 00000KT 15SM SKC M11/M15 A3009 RMK SLP240=

CYQF;2005-02-27 10:00;METAR CYQF 271000Z 00000KT 15SM FEW250 M11/M14 A3008 RMK CI0 SLP238=

CYQF;2005-02-27 11:00;METAR CYQF 271100Z 00000KT 15SM FEW250 M11/M14 A3008 RMK CI1 SLP236=

CYQF;2005-02-27 12:00;METAR CYQF 271200Z 00000KT 15SM FEW250 M10/M13 A3008 RMK CI1 SLP235=

CYQF;2005-02-27 13:00;METAR CYQF 271300Z 00000KT 15SM FEW250 M11/M13 A3008 RMK CI1 SLP235=

CYQF;2005-02-27 14:00;METAR CYQF 271400Z 00000KT 15SM BCFG SCT250 M11/M14 A3008 RMK CI1 SLP237=

CYQF;2005-02-27 15:00;METAR CYQF 271500Z 20003KT 15SM BCFG FEW120 BKN250 M13/M16 A3009 RMK AC1CI2 TR AC SLP253=

CYQF;2005-02-27 16:00;METAR CYQF 271600Z 18004KT 15SM BKN250 M09/M13 A3009 RMK CI1 SLP254=

CYQF;2005-02-27 17:00;METAR CYQF 271700Z 21003KT 15SM BKN250 M06/M10 A3009 RMK CI3 SLP253=

CYQF;2005-02-27 18:00;METAR CYQF 271800Z 00000KT 15SM BKN250 M04/M09 A3009 RMK CI2 SLP248=

CYQF;2005-02-27 19:00;METAR CYQF 271900Z 00000KT 15SM SCT250 00/M07 A3008 RMK CI0 SLP245=

CYQF;2005-02-27 20:00;METAR CYQF 272000Z 15004KT 15SM BKN250 01/M06 A3007 RMK CI0 SLP241=

CYQF;2005-02-27 21:00;METAR CYQF 272100Z 15004KT 15SM BKN250 02/M05 A3005 RMK CI0 SLP229=

CYQF;2005-02-27 22:00;METAR CYQF 272200Z 15008KT 15SM BKN250 02/M04 A3004 RMK CI0 SLP225=

CYQF;2005-02-27 23:00;METAR CYQF 272300Z 17009KT 15SM BKN250 03/M04 A3004 RMK CI0 SLP223=

CYQF;2005-02-28 00:00;METAR CYQF 280000Z 14007KT 15SM BKN250 02/M04 A3004 RMK CI0 SLP223=

CYQF;2005-02-28 01:00;METAR CYQF 280100Z 15006KT 15SM BKN250 00/M05 A3003 RMK CI1 SLP221=

CYQF;2005-02-28 02:00;METAR CYQF 280200Z 18004KT 15SM SCT250 M01/M06 A3003 RMK CI0 SLP220=

CYQF;2005-02-28 03:00;METAR CYQF 280300Z 16003KT 15SM FEW250 M01/M06 A3003 RMK CI0 SLP225=

CYQF;2005-02-28 04:00;METAR CYQF 280400Z 18008KT 15SM FEW250 M04/M08 A3002 RMK CI1 SLP224=

CYQF;2005-02-28 05:00;METAR CYQF 280500Z 16007KT 15SM FEW250 M03/M07 A3002 RMK CI0 SLP224=

CYQF;2005-02-28 06:00;METAR CYQF 280600Z 18004KT 15SM SCT250 M05/M08 A3002 RMK CI1 SLP216=

CYQF;2005-02-28 07:00;METAR CYQF 280700Z 17008KT 15SM SKC M04/M07 A3001 RMK SLP213=

CYQF;2005-02-28 08:00;METAR CYQF 280800Z 17004KT 15SM SKC M05/M09 A3000 RMK SLP211=

CYQF;2005-02-28 09:00;METAR CYQF 280900Z 16005KT 15SM SKC M04/M09 A2999 RMK SLP199=

CYQF;2005-02-28 10:00;METAR CYQF 281000Z 18004KT 15SM SKC M09/M12 A2998 RMK SLP195=

CYQF;2005-02-28 11:00;METAR CYQF 281100Z 20004KT 15SM SKC M11/M15 A2997 RMK SLP192=

CYQF;2005-02-28 12:00;METAR CYQF 281200Z 00000KT 15SM SKC M10/M14 A2996 RMK SLP196=

CYQF;2005-02-28 13:00;METAR CYQF 281300Z 23004KT 10SM BCFG SKC M11/M14 A2995 RMK SLP193=

CYQF;2005-02-28 13:35;SPECI CYQF 281335Z 19002KT 1/2SM FZFG SKC RMK FG6=

CYQF;2005-02-28 14:00;METAR CYQF 281400Z 22005KT 1/4SM FZFG SKC M13/M16 A2995 RMK FG6 SLP191=

CYQF;2005-02-28 14:30;SPECI CYQF 281430Z 20004KT 1/2SM FZFG SKC RMK FG6=

CYQF;2005-02-28 15:00;METAR CYQF 281500Z 22004KT 1/2SM FZFG SKC M14/M17 A2994 RMK FG6 SLP196=

CYQF;2005-02-28 15:12;SPECI CYQF 281512Z 00000KT 1 1/2SM BR SKC RMK FG1=

CYQF;2005-02-28 15:37;SPECI CYQF 281537Z 22003KT 3SM BR FEW250 RMK CI1 VIS LWR N-SE=

CYQF;2005-02-28 16:00;METAR CYQF 281600Z 19004KT 3SM BR SKC M13/M16 A2994 RMK VIS LWR N-SE VIS S 8 SLP195=

CYQF;2005-02-28 17:00;METAR CYQF 281700Z 18003KT 10SM SKC M11/M14 A2994 RMK VIS LWR NE SLP195=

CYQF;2005-02-28 18:00;METAR CYQF 281800Z 17003KT 15SM SKC M08/M11 A2992 RMK SLP187=

CYQF;2005-02-28 19:00;METAR CYQF 281900Z 19004KT 15SM SKC M06/M11 A2991 RMK SLP183=

CYQF;2005-02-28 20:00;METAR CYQF 282000Z 17002KT 15SM SKC M03/M10 A2989 RMK SLP177=

CYQF;2005-02-28 21:00;METAR CYQF 282100Z 00000KT 15SM SKC M01/M08 A2987 RMK SLP160=

CYQF;2005-02-28 22:00;METAR CYQF 282200Z 00000KT 15SM SKC 02/M07 A2985 RMK SLP156=

CYQF;2005-02-28 23:00;METAR CYQF 282300Z 00000KT 15SM SKC 01/M08 A2985 RMK SLP154=

CYQF;2005-03-01 00:00;METAR CYQF 010000Z 00000KT 15SM SKC 00/M07 A2984 RMK SLP156=

CYQF;2005-03-01 01:00;METAR CYQF 010100Z 00000KT 15SM SKC M02/M09 A2984 RMK SLP154=

CYQF;2005-03-01 02:00;METAR CYQF 010200Z 00000KT 15SM SKC M05/M11 A2982 RMK SLP150=

CYQF;2005-03-01 03:00;METAR CYQF 010300Z 27003KT 15SM SKC M09/M14 A2982 RMK SLP164=

CYQF;2005-03-01 04:00;METAR CYQF 010400Z 22003KT 15SM SKC M10/M15 A2982 RMK SLP163=

CYQF;2005-03-01 05:00;METAR CYQF 010500Z 18003KT 15SM SKC M09/M13 A2982 RMK SLP163=

CYQF;2005-03-01 06:00;METAR CYQF 010600Z 18004KT 15SM FEW250 M10/M13 A2981 RMK CI0 SLP154=

CYQF;2005-03-01 07:00;METAR CYQF 010700Z 22004KT 15SM FEW250 M12/M16 A2980 RMK CI0 SLP153=

CYQF;2005-03-01 08:00;METAR CYQF 010800Z 22003KT 15SM FEW250 M13/M16 A2980 RMK CI1 SLP151=

CYQF;2005-03-01 09:00;METAR CYQF 010900Z 23004KT 15SM SCT250 M14/M18 A2980 RMK CI1 SLP147=

CYQF;2005-03-01 10:00;METAR CYQF 011000Z 22003KT 15SM SCT250 M14/M17 A2980 RMK CI2 SLP147=

CYQF;2005-03-01 11:00;METAR CYQF 011100Z 19007KT 15SM SCT250 M13/M16 A2979 RMK CI2 SLP144=

CYQF;2005-03-01 12:00;METAR CYQF 011200Z 21007KT 15SM SCT250 M14/M16 A2979 RMK CI2 SLP143=

CYQF;2005-03-01 13:00;METAR CYQF 011300Z 19004KT 15SM FEW250 M14/M17 A2979 RMK CI1 SLP143=

CYQF;2005-03-01 14:00;METAR CYQF 011400Z 21007KT 15SM FEW250 M15/M18 A2980 RMK CI1 SLP144=

CYQF;2005-03-01 15:00;METAR CYQF 011500Z 19004KT 15SM SCT250 M13/M16 A2980 RMK CI1 SLP157=

CYQF;2005-03-01 16:00;METAR CYQF 011600Z 21003KT 15SM BKN250 M11/M15 A2981 RMK CI1 SLP159=

CYQF;2005-03-01 17:00;METAR CYQF 011700Z 20003KT 15SM FEW120 SCT250 M07/M12 A2982 RMK AC1CI2 SLP162=

CYQF;2005-03-01 18:00;METAR CYQF 011800Z 21004KT 15SM SCT250 M04/M10 A2982 RMK CI2 SLP153=

CYQF;2005-03-01 19:00;METAR CYQF 011900Z 18002KT 15SM FEW120 SCT250 M01/M08 A2982 RMK AC1CI1 SLP154=

CYQF;2005-03-01 20:00;METAR CYQF 012000Z 16005KT 15SM SCT120 SCT250 02/M08 A2981 RMK AC3CI0 SLP151=

CYQF;2005-03-01 21:00;METAR CYQF 012100Z 18003KT 15SM FEW050 FEW120 SCT250 04/M07 A2980 RMK CU1AC2CI0 SLP142=

CYQF;2005-03-02 00:00;METAR CYQF 020000Z 00000KT 15SM FEW120 SCT250 04/M06 A2979 RMK AC2CI2 SLP139=

CYQF;2005-03-02 01:00;METAR CYQF 020100Z 00000KT 15SM FEW120 SCT250 02/M07 A2979 RMK AC2CI2 SLP138=

CYQF;2005-03-02 02:00;METAR CYQF 020200Z 19004KT 15SM BKN250 M02/M08 A2980 RMK CI2 SLP142=

CYQF;2005-03-02 03:00;METAR CYQF 020300Z 00000KT 15SM BKN250 M02/M07 A2981 RMK CI2 SLP151=

CYQF;2005-03-02 04:00;METAR CYQF 020400Z 19004KT 15SM FEW250 M06/M10 A2982 RMK CI0 SLP153=

CYQF;2005-03-02 05:00;METAR CYQF 020500Z 19003KT 15SM SKC M05/M10 A2982 RMK SLP153=

CYQF;2005-03-02 06:00;METAR CYQF 020600Z 00000KT 15SM SKC M05/M09 A2981 RMK SLP144=

CYQF;2005-03-02 07:00;METAR CYQF 020700Z 00000KT 15SM SKC M07/M10 A2981 RMK SLP144=

CYQF;2005-03-02 08:00;METAR CYQF 020800Z 19003KT 15SM SKC M09/M13 A2981 RMK SLP144=

CYQF;2005-03-02 09:00;METAR CYQF 020900Z 18003KT 15SM SKC M10/M13 A2981 RMK SLP141=

CYQF;2005-03-02 10:00;METAR CYQF 021000Z 19004KT 15SM SKC M11/M14 A2981 RMK SLP140=

CYQF;2005-03-02 11:00;METAR CYQF 021100Z 20005KT 15SM SKC M11/M14 A2981 RMK SLP139=

CYQF;2005-03-02 12:00;METAR CYQF 021200Z 20005KT 15SM SKC M11/M14 A2981 RMK SLP143=

CYQF;2005-03-02 13:00;METAR CYQF 021300Z 20004KT 15SM FEW250 M12/M15 A2982 RMK CI1 SLP145=

CYQF;2005-03-02 14:00;METAR CYQF 021400Z 19005KT 15SM FEW250 M12/M15 A2982 RMK CI1 SLP145=

CYQF;2005-03-02 15:00;METAR CYQF 021500Z 20005KT 15SM SCT250 M12/M15 A2982 RMK CI1 SLP153=

CYQF;2005-03-02 16:00;METAR CYQF 021600Z 20004KT 15SM BKN250 M08/M12 A2983 RMK CI2 SLP155=

CYQF;2005-03-02 17:00;METAR CYQF 021700Z 19004KT 15SM SCT250 M05/M10 A2983 RMK CI1 SLP156=

CYQF;2005-03-02 18:00;METAR CYQF 021800Z 18004KT 15SM SCT250 M02/M08 A2983 RMK CI2 SLP150=

CYQF;2005-03-02 19:00;METAR CYQF 021900Z 18004KT 15SM SCT250 01/M07 A2984 RMK CI2 SLP151=

CYQF;2005-03-02 21:00;METAR CYQF 022100Z 16002KT 15SM BKN250 04/M06 A2983 RMK CI2 SLP145=

CYQF;2005-03-02 22:00;METAR CYQF 022200Z 18004KT 15SM SCT250 05/M05 A2982 RMK CI2 SLP143=

CYQF;2005-03-02 23:00;METAR CYQF 022300Z 19003KT 15SM BKN250 05/M05 A2982 RMK CI2 SLP144=

CYQF;2005-03-03 00:00;METAR CYQF 030000Z 18004KT 15SM FEW080 SCT250 04/M05 A2983 RMK AC1CI2 SLP147=

CYQF;2005-03-03 01:00;METAR CYQF 030100Z 20003KT 15SM FEW090 BKN250 03/M05 A2984 RMK AC1CI2 SLP150=

CYQF;2005-03-03 02:00;METAR CYQF 030200Z 20005KT 15SM FEW100 BKN250 M00/M07 A2985 RMK AC1CI2 SLP155=

CYQF;2005-03-03 03:00;METAR CYQF 030300Z 21004KT 15SM SCT250 M03/M08 A2986 RMK CI0 SLP169=

CYQF;2005-03-03 05:00;METAR CYQF 030500Z 00000KT 15SM SKC M03/M08 A2988 RMK SLP176=

CYQF;2005-03-03 06:00;METAR CYQF 030600Z 25004KT 15SM FEW250 M03/M09 A2990 RMK CI0 SLP171=

CYQF;2005-03-03 07:00;METAR CYQF 030700Z 17002KT 15SM BKN250 M04/M10 A2992 RMK CI2 SLP177=

CYQF;2005-03-03 08:00;METAR CYQF 030800Z 00000KT 15SM SCT250 M04/M10 A2994 RMK CI2 SLP182=

CYQF;2005-03-03 09:00;METAR CYQF 030900Z 20005KT 15SM SCT250 M05/M11 A2994 RMK CI2 SLP180=

CYQF;2005-03-03 10:00;METAR CYQF 031000Z 20004KT 15SM BKN100 M05/M10 A2995 RMK AC5 SLP183=

CYQF;2005-03-03 11:00;METAR CYQF 031100Z 19006KT 15SM BKN100 BKN250 M04/M09 A2996 RMK AC5CI1 SLP185=

CYQF;2005-03-03 12:00;METAR CYQF 031200Z 18005KT 15SM BKN100 BKN250 M03/M09 A2997 RMK AC5CI1 SLP188=

CYQF;2005-03-03 13:00;METAR CYQF 031300Z 19005KT 15SM FEW100 SCT250 M05/M10 A2997 RMK AC1CI1 SLP189=

CYQF;2005-03-03 14:00;METAR CYQF 031400Z 19005KT 15SM FEW100 BKN250 M06/M11 A2998 RMK AC1CI2 SLP191=

CYQF;2005-03-03 15:00;METAR CYQF 031500Z 19005KT 15SM FEW100 BKN250 M06/M11 A2999 RMK AC1CI2 SLP206=

CYQF;2005-03-03 16:00;METAR CYQF 031600Z 20005KT 15SM FEW100 BKN250 M05/M10 A2999 RMK AC1CI3 SLP207=

CYQF;2005-03-03 17:00;METAR CYQF 031700Z 19002KT 15SM FEW100 BKN250 M00/M08 A3000 RMK AC2CI3 SLP210=

CYQF;2005-03-03 18:00;METAR CYQF 031800Z 21004KT 15SM FEW100 BKN250 01/M08 A3000 RMK AC2CI2 SLP201=

CYQF;2005-03-03 19:00;METAR CYQF 031900Z 21004KT 15SM FEW100 BKN250 03/M06 A3000 RMK AC2CI2 SLP201=

CYQF;2005-03-03 20:00;METAR CYQF 032000Z 22006KT 15SM FEW100 BKN250 04/M05 A2999 RMK AC2CI2 SLP199=

CYQF;2005-03-03 21:00;METAR CYQF 032100Z 16003KT 15SM FEW100 SCT250 06/M06 A2998 RMK AC1CI2 SLP190=

CYQF;2005-03-03 22:00;METAR CYQF 032200Z 18003KT 15SM SCT250 07/M06 A2997 RMK CI2 SLP188=

CYQF;2005-03-03 23:00;METAR CYQF 032300Z 00000KT 15SM BKN250 07/M06 A2997 RMK CI5 SLP187=

CYQF;2005-03-04 00:00;METAR CYQF 040000Z 00000KT 15SM FEW120 BKN250 06/M04 A2995 RMK AC2CI3 SLP180=

CYQF;2005-03-04 01:00;METAR CYQF 040100Z 13002KT 15SM FEW120 BKN250 04/M04 A2995 RMK AC2CI2 SLP179=

CYQF;2005-03-04 02:00;METAR CYQF 040200Z 00000KT 15SM BKN250 03/M06 A2995 RMK CI3 SLP181=

CYQF;2005-03-04 03:00;METAR CYQF 040300Z 00000KT 15SM BKN250 01/M06 A2995 RMK CI2 SLP188=

CYQF;2005-03-04 04:00;METAR CYQF 040400Z 00000KT 15SM FEW250 M00/M06 A2995 RMK CI0 SLP188=

CYQF;2005-03-04 05:00;METAR CYQF 040500Z 16003KT 15SM FEW250 M02/M07 A2995 RMK CI1 SLP188=

CYQF;2005-03-04 06:00;METAR CYQF 040600Z 21003KT 15SM FEW250 M02/M07 A2995 RMK CI1 SLP182=

CYQF;2005-03-04 07:00;METAR CYQF 040700Z 18004KT 15SM SKC M02/M07 A2994 RMK SLP181=

CYQF;2005-03-04 08:00;METAR CYQF 040800Z 17003KT 15SM SKC M04/M08 A2994 RMK SLP181=

CYQF;2005-03-04 09:00;METAR CYQF 040900Z 18004KT 15SM SKC M05/M09 A2994 RMK SLP176=

CYQF;2005-03-04 10:00;METAR CYQF 041000Z 19004KT 15SM SKC M05/M09 A2993 RMK SLP175=

CYQF;2005-03-04 11:00;METAR CYQF 041100Z 19006KT 15SM SKC M07/M10 A2992 RMK SLP172=

CYQF;2005-03-04 12:00;METAR CYQF 041200Z 18004KT 15SM SKC M08/M11 A2992 RMK SLP173=

CYQF;2005-03-04 13:00;METAR CYQF 041300Z 20003KT 15SM FEW250 M08/M11 A2991 RMK CI0 SLP170=

CYQF;2005-03-04 14:00;METAR CYQF 041400Z 21004KT 15SM SCT250 M09/M13 A2990 RMK CI0 SLP169=

CYQF;2005-03-04 15:00;METAR CYQF 041500Z 21003KT 15SM BCFG SCT250 M09/M12 A2990 RMK CI0 SLP175=

CYQF;2005-03-04 16:00;METAR CYQF 041600Z 23004KT 15SM FEW100 FEW250 M06/M10 A2990 RMK AC1CI0 SLP173=

CYQF;2005-03-04 17:00;METAR CYQF 041700Z 16003KT 15SM FEW250 M04/M09 A2989 RMK CI0 SLP172=

CYQF;2005-03-04 18:00;METAR CYQF 041800Z 21003KT 15SM FEW250 M01/M08 A2989 RMK CI1 SLP166=

CYQF;2005-03-04 19:00;METAR CYQF 041900Z 19004KT 15SM FEW250 01/M07 A2989 RMK CI1 SLP165=

CYQF;2005-03-04 20:00;METAR CYQF 042000Z 17005KT 15SM FEW250 02/M07 A2989 RMK CI1 SLP165=

CYQF;2005-03-04 21:00;METAR CYQF 042100Z 17004KT 15SM FEW250 04/M06 A2988 RMK CI0 SLP161=

CYQF;2005-03-04 22:00;METAR CYQF 042200Z 00000KT 15SM FEW250 06/M06 A2988 RMK CI0 SLP161=

CYQF;2005-03-04 23:00;METAR CYQF 042300Z 21004KT 15SM FEW250 05/M04 A2988 RMK CI1 SLP160=

CYQF;2005-03-05 00:00;METAR CYQF 050000Z 20004KT 15SM FEW250 04/M04 A2988 RMK CI1 SLP163=

CYQF;2005-03-05 01:00;METAR CYQF 050100Z 00000KT 15SM FEW250 04/M05 A2988 RMK CI0 SLP162=

CYQF;2005-03-05 02:00;METAR CYQF 050200Z 20004KT 15SM FEW250 00/M06 A2989 RMK CI1 SLP166=

CYQF;2005-03-05 03:00;METAR CYQF 050300Z 00000KT 15SM SKC M02/M08 A2990 RMK SLP177=

CYQF;2005-03-05 04:00;METAR CYQF 050400Z 20007KT 15SM SKC M03/M08 A2991 RMK SLP181=

CYQF;2005-03-05 05:00;METAR CYQF 050500Z 22010KT 15SM SKC M05/M10 A2991 RMK SLP181=

CYQF;2005-03-05 06:00;METAR CYQF 050600Z 24007KT 15SM SKC M03/M10 A2992 RMK SLP177=

CYQF;2005-03-05 07:00;METAR CYQF 050700Z 00000KT 15SM SKC M02/M10 A2994 RMK SLP181=

CYQF;2005-03-05 08:00;METAR CYQF 050800Z 19004KT 15SM SKC M06/M11 A2993 RMK SLP180=

CYQF;2005-03-05 09:00;METAR CYQF 050900Z 00000KT 15SM FEW250 M04/M11 A2995 RMK CI1 SLP181=

CYQF;2005-03-05 10:00;METAR CYQF 051000Z 23002KT 15SM FEW250 M07/M12 A2995 RMK CI0 SLP184=

CYQF;2005-03-05 11:00;METAR CYQF 051100Z 18004KT 15SM FEW250 M06/M11 A2995 RMK CI0 SLP182=

CYQF;2005-03-05 12:00;METAR CYQF 051200Z 20004KT 15SM FEW250 M08/M12 A2995 RMK CI1 SLP184=

CYQF;2005-03-05 13:00;METAR CYQF 051300Z 20007KT 15SM SCT250 M08/M13 A2993 RMK CI2 SLP179=

CYQF;2005-03-05 14:00;METAR CYQF 051400Z 20003KT 15SM FEW250 M07/M12 A2992 RMK CI1 SLP177=

CYQF;2005-03-05 15:00;METAR CYQF 051500Z 18004KT 15SM FEW250 M05/M10 A2991 RMK CI0 SLP176=

CYQF;2005-03-05 16:00;METAR CYQF 051600Z 00000KT 15SM FEW250 M04/M09 A2990 RMK CI1 SLP174=

CYQF;2005-03-05 17:00;METAR CYQF 051700Z 00000KT 15SM FEW250 00/M08 A2988 RMK CI1 SLP167=

CYQF;2005-03-05 18:00;METAR CYQF 051800Z 00000KT 15SM SCT250 05/M06 A2986 RMK CI1 SLP151=

CYQF;2005-03-05 19:00;METAR CYQF 051900Z 00000KT 15SM FEW100 BKN250 05/M04 A2985 RMK AC1CI1 TR AC SLP145=

CYQF;2005-03-05 20:00;METAR CYQF 052000Z 19003KT 15SM FEW100 BKN250 07/M02 A2983 RMK AC1CI1 SLP141=

CYQF;2005-03-05 21:00;METAR CYQF 052100Z 00000KT 15SM SCT100 BKN250 07/M02 A2982 RMK AC2CI2 SLP134=

CYQF;2005-03-05 22:00;METAR CYQF 052200Z 19004KT 15SM BKN100 OVC250 07/M02 A2979 RMK AC5CI2 SLP124=

CYQF;2005-03-05 23:00;METAR CYQF 052300Z 11002KT 15SM BKN100 OVC250 06/M02 A2977 RMK AC6CI2 SLP118=

CYQF;2005-03-06 00:00;METAR CYQF 060000Z 13002KT 15SM BKN100 OVC250 05/M02 A2973 RMK AC6CI2 SLP110=

CYQF;2005-03-06 01:00;METAR CYQF 060100Z 00000KT 15SM FEW100 BKN250 04/M02 A2971 RMK AC2CI2 SLP104=

CYQF;2005-03-06 02:00;METAR CYQF 060200Z 00000KT 15SM FEW050 FEW100 BKN250 03/M02 A2971 RMK SC1AC2CI4 SLP103=

CYQF;2005-03-06 03:00;METAR CYQF 060300Z 21005KT 15SM BKN250 03/M03 A2969 RMK CI3 SLP096=

CYQF;2005-03-06 05:00;METAR CYQF 060500Z 26014KT 15SM FEW250 06/M04 A2967 RMK CI1 SLP089=

CYQF;2005-03-06 06:00;METAR CYQF 060600Z 26008KT 15SM FEW250 05/M04 A2966 RMK CI0 SLP073=

CYQF;2005-03-06 07:00;METAR CYQF 060700Z 25008KT 15SM FEW250 04/M05 A2966 RMK CI0 SLP071=

CYQF;2005-03-06 08:00;METAR CYQF 060800Z 27008KT 15SM SCT250 03/M05 A2967 RMK CI1 SLP076=

CYQF;2005-03-06 09:00;METAR CYQF 060900Z 05010KT 15SM FEW080 BKN250 03/M06 A2971 RMK AC2CI2 SLP087=

CYQF;2005-03-06 10:00;METAR CYQF 061000Z 27004KT 15SM BKN090 OVC250 03/M04 A2972 RMK AC6CI2 SLP090=

CYQF;2005-03-06 11:00;METAR CYQF 061100Z 07005KT 15SM BKN090 OVC250 02/M04 A2975 RMK AC7CI1 SLP099=

CYQF;2005-03-06 12:00;METAR CYQF 061200Z 31005KT 15SM FEW040 OVC090 02/M04 A2978 RMK SC2AC6 SLP115=

CYQF;2005-03-06 13:00;METAR CYQF 061300Z 32008KT 15SM FEW040 BKN090 OVC250 04/M04 A2982 RMK SC2AC5CI1 SLP126=

CYQF;2005-03-06 14:00;METAR CYQF 061400Z 31010G15KT 15SM FEW040 BKN090 OVC250 05/M04 A2983 RMK SC2AC4CI2 SLP129=

CYQF;2005-03-06 15:00;METAR CYQF 061500Z 28006KT 15SM FEW040 SCT090 BKN250 03/M03 A2985 RMK SC2AC2CI1 SLP143=

CYQF;2005-03-06 16:00;METAR CYQF 061600Z 28010KT 15SM FEW040 BKN090 03/M03 A2989 RMK SC2AC6 VIRGA SLP154=

CYQF;2005-03-06 17:00;METAR CYQF 061700Z 31017KT 15SM FEW040 SCT090 04/M03 A2993 RMK SC2AC2 SLP165=

CYQF;2005-03-06 18:00;METAR CYQF 061800Z 31025G35KT 15SM FEW030 SCT090 06/M05 A2996 RMK CU1AC2 SLP173=

CYQF;2005-03-06 19:00;METAR CYQF 061900Z 34018G27KT 15SM FEW030 FEW090 04/M02 A3003 RMK CU1AC1 PRESRR SLP196=

CYQF;2005-03-06 20:00;METAR CYQF 062000Z 32012G20KT 15SM FEW025 FEW090 SCT250 04/M03 A3005 RMK CU1AC1CI1 SLP203=

CYQF;2005-03-06 21:00;METAR CYQF 062100Z 33015KT 15SM FEW030 FEW090 SCT250 05/M03 A3006 RMK CU1AC1CI1 SLP211=

CYQF;2005-03-06 22:00;METAR CYQF 062200Z 01012KT 15SM FEW040 FEW090 FEW250 05/M04 A3005 RMK SC1AC1CI0 SLP208=

CYQF;2005-03-06 23:00;METAR CYQF 062300Z 34008KT 15SM FEW040 FEW090 SCT250 04/M03 A3005 RMK SC1AC1CI0 SLP210=

CYQF;2005-03-07 00:00;METAR CYQF 070000Z 35005KT 15SM FEW040 FEW090 FEW250 04/M04 A3006 RMK SC1AC1CI0 SLP213=

CYQF;2005-03-07 01:00;METAR CYQF 070100Z 00000KT 15SM FEW100 SCT250 02/M04 A3006 RMK AC2CI1 SLP215=

CYQF;2005-03-07 02:00;METAR CYQF 070200Z 00000KT 15SM FEW100 SCT250 M00/M06 A3007 RMK AC2CI1 SLP217=

CYQF;2005-03-07 03:00;METAR CYQF 070300Z 23006KT 15SM FEW100 FEW250 M01/M06 A3008 RMK AC2CI0 SLP226=

CYQF;2005-03-07 04:00;METAR CYQF 070400Z 21004KT 15SM FEW100 M02/M07 A3009 RMK AC2 SLP228=

CYQF;2005-03-07 05:00;METAR CYQF 070500Z 22004KT 15SM FEW100 M02/M07 A3010 RMK AC2 SLP231=

CYQF;2005-03-07 06:00;METAR CYQF 070600Z 19003KT 15SM SKC M03/M07 A3010 RMK SLP231=

CYQF;2005-03-07 07:00;METAR CYQF 070700Z 00000KT 15SM FEW120 M04/M07 A3009 RMK AC2 SLP227=

CYQF;2005-03-07 08:00;METAR CYQF 070800Z 00000KT 15SM FEW250 M04/M07 A3007 RMK CI1 SLP223=

CYQF;2005-03-07 09:00;METAR CYQF 070900Z 00000KT 15SM FEW250 M04/M08 A3005 RMK CI1 SLP217=

CYQF;2005-03-07 10:00;METAR CYQF 071000Z 00000KT 15SM FEW100 SCT250 M05/M08 A3002 RMK AC1CI1 SLP208=

CYQF;2005-03-07 11:00;METAR CYQF 071100Z 00000KT 15SM FEW100 SCT250 M05/M08 A2999 RMK AC1CI1 SLP199=

CYQF;2005-03-07 12:00;METAR CYQF 071200Z 00000KT 15SM FEW100 SCT250 M05/M08 A2997 RMK AC1CI1 SLP191=

CYQF;2005-03-07 13:00;METAR CYQF 071300Z 00000KT 15SM FEW100 SCT250 M04/M08 A2995 RMK AC2CI1 SLP184=

CYQF;2005-03-07 14:00;METAR CYQF 071400Z 00000KT 15SM FEW100 BKN250 M05/M09 A2992 RMK AC2CI2 SLP174=

CYQF;2005-03-07 15:00;METAR CYQF 071500Z 17005KT 15SM FEW100 BKN250 M02/M07 A2988 RMK AC2CI2 SLP161=

CYQF;2005-03-07 16:00;METAR CYQF 071600Z 17005KT 15SM BKN090 OVC250 M01/M06 A2985 RMK AC5CI1 VIRGA W SLP151=

CYQF;2005-03-07 16:48;SPECI CYQF 071648Z 19005KT 12SM -SHPL BKN080 OVC250 RMK AC6CI1=

CYQF;2005-03-07 17:00;METAR CYQF 071700Z 17006KT 8SM -SHPLSN BKN080 OVC250 00/M04 A2985 RMK AC6CI2 SLP152=

CYQF;2005-03-07 17:10;SPECI CYQF 071710Z 15005KT 8SM -SHRA FEW025 BKN080 OVC250 RMK SC1AC6CI2=

CYQF;2005-03-07 17:49;SPECI CYQF 071749Z 13010KT 15SM FEW025 BKN080 OVC250 RMK SC1AC6CI1=

CYQF;2005-03-07 18:00;METAR CYQF 071800Z 13008KT 15SM FEW025 BKN080 BKN250 01/M03 A2979 RMK SC1AC5CI1 VIRGA REPL SLP130=

CYQF;2005-03-07 19:00;METAR CYQF 071900Z 18005KT 15SM FEW025 BKN080 BKN250 01/M03 A2978 RMK SC1AC4CI1 VIRGA SLP127=

CYQF;2005-03-07 20:00;METAR CYQF 072000Z 14006KT 15SM FEW025 BKN090 BKN250 02/M03 A2977 RMK CU1AC4CI1 SLP124=

CYQF;2005-03-07 21:00;METAR CYQF 072100Z 11005KT 15SM FEW030 SCT090 BKN250 03/M03 A2976 RMK CU1AC3CI1 SLP117=

CYQF;2005-03-07 22:00;METAR CYQF 072200Z 17005KT 15SM BKN030 BKN090 BKN250 03/M02 A2977 RMK SC5AC1CI1 VIRGA/SHWRS W SLP121=

CYQF;2005-03-07 23:00;METAR CYQF 072300Z 23006KT 15SM SCT030 BKN090 03/M02 A2982 RMK SC3AC4 VIRGA SLP136=

CYQF;2005-03-08 00:00;METAR CYQF 080000Z 35004KT 15SM BKN030TCU BKN090 04/M02 A2980 RMK TCU5AC2 VIRGA SLP131=

CYQF;2005-03-08 02:00;METAR CYQF 080200Z 31010G15KT 15SM SCT040 BKN090 BKN250 05/M04 A2987 RMK SC4AC2CI0 TCU EMBDD SHS E QUAD VIRGA S-SW+NW SLP154=

CYQF;2005-03-08 03:00;METAR CYQF 080300Z 32012KT 15SM SCT040 BKN090 BKN250 05/M05 A2992 RMK SC4AC2CI1 SLP167=

CYQF;2005-03-08 04:00;METAR CYQF 080400Z 34009KT 15SM FEW040 BKN090 04/M04 A2995 RMK SC2AC2 SLP179=

CYQF;2005-03-08 05:00;METAR CYQF 080500Z 33005KT 15SM BKN100 BKN250 03/M04 A2998 RMK AC5CI1 SLP186=

CYQF;2005-03-08 06:00;METAR CYQF 080600Z 29003KT 15SM BKN100 02/M04 A3000 RMK AC6 SLP196=

CYQF;2005-03-08 07:00;METAR CYQF 080700Z 30003KT 15SM BKN120 03/M05 A2999 RMK AC6 SLP194=

CYQF;2005-03-08 08:00;METAR CYQF 080800Z 27008KT 15SM SCT100 M00/M06 A3001 RMK AC3 SLP200=

CYQF;2005-03-08 09:00;METAR CYQF 080900Z 27005KT 15SM FEW100 M02/M07 A3002 RMK AC1 SLP206=

CYQF;2005-03-08 10:00;METAR CYQF 081000Z 26008KT 15SM SKC M01/M08 A3003 RMK SLP208=

CYQF;2005-03-08 11:00;METAR CYQF 081100Z 26007KT 15SM SKC M01/M09 A3005 RMK SLP215=

CYQF;2005-03-08 12:00;METAR CYQF 081200Z 27007KT 15SM SKC M01/M09 A3005 RMK SLP215=

CYQF;2005-03-08 13:00;METAR CYQF 081300Z 21003KT 15SM FEW250 M03/M11 A3006 RMK CI1 SLP217=

CYQF;2005-03-08 14:00;METAR CYQF 081400Z 25008KT 15SM SCT250 M04/M11 A3007 RMK CI1 SLP221=

CYQF;2005-03-08 15:00;METAR CYQF 081500Z 25010KT 15SM FEW250 M03/M10 A3008 RMK CI1 SLP224=

CYQF;2005-03-08 16:00;METAR CYQF 081600Z 21005KT 15SM FEW250 M02/M09 A3007 RMK CI1 SLP221=

CYQF;2005-03-08 17:00;METAR CYQF 081700Z 21005KT 15SM BKN250 02/M07 A3007 RMK CI2 SLP222=

CYQF;2005-03-08 18:00;METAR CYQF 081800Z 19004KT 15SM BKN250 03/M06 A3006 RMK CI2 SLP214=

CYQF;2005-03-08 19:00;METAR CYQF 081900Z 19003KT 15SM BKN250 05/M06 A3004 RMK CI2 SLP209=

CYQF;2005-03-08 20:00;METAR CYQF 082000Z 00000KT 15SM FEW100 OVC250 07/M05 A3003 RMK AC1CI5 SLP204=

CYQF;2005-03-08 21:00;METAR CYQF 082100Z 15005KT 15SM FEW100 BKN250 07/M05 A3000 RMK AC2CI4 SLP195=

CYQF;2005-03-08 22:00;METAR CYQF 082200Z 14006KT 15SM SCT100 BKN250 07/M05 A2998 RMK AC2CI3 SLP189=

CYQF;2005-03-08 23:00;METAR CYQF 082300Z 15005KT 15SM FEW100 BKN250 08/M04 A2996 RMK AC1CI2 SLP182=

CYQF;2005-03-09 00:00;METAR CYQF 090000Z 15005KT 15SM FEW100 BKN250 07/M04 A2994 RMK AC2CI2 SLP171=

CYQF;2005-03-09 01:00;METAR CYQF 090100Z 14006KT 15SM SCT100 BKN250 04/M03 A2991 RMK AC3CI1 SLP162=

CYQF;2005-03-09 02:00;METAR CYQF 090200Z 16004KT 15SM FEW100 BKN250 04/M03 A2988 RMK AC2CI1 SLP155=

CYQF;2005-03-09 03:00;METAR CYQF 090300Z 15004KT 15SM FEW100 BKN250 04/M03 A2985 RMK AC2CI1 SLP149=

CYQF;2005-03-09 04:00;METAR CYQF 090400Z 15008KT 15SM FEW100 04/M04 A2982 RMK AC2 SLP139=

CYQF;2005-03-09 05:00;METAR CYQF 090500Z 20008KT 15SM BKN100 04/M04 A2979 RMK AC6 SLP130=

CYQF;2005-03-09 06:00;METAR CYQF 090600Z 20007KT 15SM SCT100 OVC250 03/M04 A2980 RMK AC4CI2 SLP122=

CYQF;2005-03-09 07:00;METAR CYQF 090700Z 20007KT 15SM FEW100 SCT250 02/M04 A2978 RMK AC2CI1 SLP118=

CYQF;2005-03-09 08:00;METAR CYQF 090800Z 20003KT 15SM FEW100 BKN250 02/M04 A2979 RMK AC2CI5 SLP119=

CYQF;2005-03-09 09:00;METAR CYQF 090900Z 00000KT 15SM FEW100 SCT250 00/M04 A2980 RMK AC2CI2 SLP121=

CYQF;2005-03-09 10:00;METAR CYQF 091000Z 19003KT 15SM FEW100 SCT250 00/M04 A2980 RMK AC2CI2 SLP123=

CYQF;2005-03-09 11:00;METAR CYQF 091100Z 00000KT 15SM FEW100 SCT250 01/M04 A2982 RMK AC2CI2 SLP128=

CYQF;2005-03-09 12:00;METAR CYQF 091200Z 24005KT 15SM -SHRA BKN100 01/M03 A2983 RMK AC7 SLP130=

CYQF;2005-03-09 12:23;SPECI CYQF 091223Z 20007KT 15SM BKN100 RMK AC7=

CYQF;2005-03-09 13:00;METAR CYQF 091300Z 22008KT 15SM FEW080 OVC100 02/M03 A2982 RMK AC2AC6 SLP128=

CYQF;2005-03-09 14:00;METAR CYQF 091400Z 00000KT 15SM FEW035 BKN090 BKN250 03/M03 A2983 RMK SC2AC4CI1 SLP132=

CYQF;2005-03-09 15:00;METAR CYQF 091500Z 00000KT 15SM FEW040 BKN090 BKN250 02/M02 A2986 RMK SC2AC3CI1 SLP145=

CYQF;2005-03-09 16:00;METAR CYQF 091600Z 33003KT 15SM FEW040 BKN100 BKN250 04/M02 A2990 RMK SC1AC4CI1 SLP158=

CYQF;2005-03-09 17:00;METAR CYQF 091700Z 32012KT 15SM FEW040 FEW090 BKN250 07/M02 A2992 RMK SC1AC1CI1 SLP162=

CYQF;2005-03-09 18:00;METAR CYQF 091800Z 31010KT 15SM FEW040 SCT090 BKN250 07/M02 A2994 RMK SC2AC1CI1 SLP168=

CYQF;2005-03-09 19:00;METAR CYQF 091900Z 28012KT 15SM FEW040 SCT250 08/M03 A2995 RMK CU1CI1 SLP171=

CYQF;2005-03-09 20:00;METAR CYQF 092000Z 32017G25KT 15SM FEW060 FEW250 09/M07 A2996 RMK CU1CI1 TR CU SLP173=

CYQF;2005-03-09 21:00;METAR CYQF 092100Z 33015G23KT 15SM FEW060 FEW250 09/M07 A2997 RMK CU1CI1 TR CU SLP180=

CYQF;2005-03-09 22:00;METAR CYQF 092200Z 32015KT 15SM FEW050 FEW250 09/M07 A2998 RMK CF1CI1 TR CLD SLP182=

CYQF;2005-03-09 23:00;METAR CYQF 092300Z 33013KT 15SM FEW050 FEW250 09/M06 A3001 RMK CU1CI1 TR CLD SLP190=

CYQF;2005-03-10 00:00;METAR CYQF 100000Z 33010KT 15SM SKC 08/M06 A3002 RMK SLP195=

CYQF;2005-03-10 01:00;METAR CYQF 100100Z 33008KT 15SM SKC 06/M06 A3003 RMK SLP200=

CYQF;2005-03-10 02:00;METAR CYQF 100200Z 32010KT 15SM SKC 04/M07 A3007 RMK SLP212=

CYQF;2005-03-10 03:00;METAR CYQF 100300Z 32011KT 15SM SKC 05/M08 A3011 RMK SLP229=

CYQF;2005-03-10 04:00;METAR CYQF 100400Z 31010KT 15SM SKC 03/M08 A3015 RMK SLP241=

CYQF;2005-03-10 05:00;METAR CYQF 100500Z 31007KT 15SM SKC 01/M08 A3017 RMK SLP249=

CYQF;2005-03-10 06:00;METAR CYQF 100600Z 33010G15KT 15SM SKC 05/M09 A3017 RMK SLP246=

CYQF;2005-03-10 08:00;METAR CYQF 100800Z 28010KT 15SM FEW250 01/M09 A3020 RMK CI0 SLP254=

CYQF;2005-03-10 09:00;METAR CYQF 100900Z 28008KT 15SM FEW250 M00/M09 A3022 RMK CI0 SLP264=

CYQF;2005-03-10 10:00;METAR CYQF 101000Z 28008KT 15SM SKC 01/M10 A3022 RMK SLP266=

CYQF;2005-03-10 11:00;METAR CYQF 101100Z 28010KT 15SM SKC 00/M10 A3025 RMK SLP273=

CYQF;2005-03-10 12:00;METAR CYQF 101200Z 27006KT 15SM SKC M02/M10 A3026 RMK SLP284=

CYQF;2005-03-10 13:00;METAR CYQF 101300Z 27007KT 15SM FEW250 M02/M10 A3027 RMK CI1 SLP287=

CYQF;2005-03-10 14:00;METAR CYQF 101400Z 26007KT 15SM FEW250 M03/M11 A3027 RMK CI1 SLP287=

CYQF;2005-03-10 15:00;METAR CYQF 101500Z 26005KT 15SM FEW250 M01/M10 A3027 RMK CI1 SLP289=

CYQF;2005-03-10 16:00;METAR CYQF 101600Z 24007KT 15SM FEW250 02/M08 A3026 RMK CI0 SLP288=

CYQF;2005-03-10 17:00;METAR CYQF 101700Z 27008KT 15SM FEW250 03/M07 A3026 RMK CI0 SLP286=

CYQF;2005-03-10 18:00;METAR CYQF 101800Z 23006KT 15SM FEW250 05/M07 A3025 RMK CI1 SLP275=

CYQF;2005-03-10 19:00;METAR CYQF 101900Z 22004KT 15SM FEW100 BKN240 08/M05 A3023 RMK AC1CI3 SLP269=

CYQF;2005-03-10 20:00;METAR CYQF 102000Z 21010KT 15SM SCT100 BKN250 08/M05 A3020 RMK AC2CI1 SLP259=

CYQF;2005-03-10 21:00;METAR CYQF 102100Z 19006KT 15SM FEW120 SCT250 08/M04 A3015 RMK AC1CI1 SLP241=

CYQF;2005-03-10 22:00;METAR CYQF 102200Z 19006KT 15SM SCT250 10/M04 A3012 RMK CI1 SLP234=

CYQF;2005-03-10 23:00;METAR CYQF 102300Z 21007KT 15SM FEW120 FEW250 11/M04 A3011 RMK AC1CI1 TR AC SLP229=

CYQF;2005-03-11 00:00;METAR CYQF 110000Z 21005KT 15SM BKN120 BKN250 08/M04 A3009 RMK AC2CI0 SLP225=

CYQF;2005-03-11 01:00;METAR CYQF 110100Z 19006KT 15SM FEW120 07/M04 A3005 RMK AC2 SLP213=

CYQF;2005-03-11 02:00;METAR CYQF 110200Z 20004KT 15SM FEW080 SCT120 BKN250 04/M05 A3004 RMK AC1AC2CI1 SLP207=

CYQF;2005-03-11 03:00;METAR CYQF 110300Z 21005KT 15SM FEW080 BKN120 04/M05 A3002 RMK AC2AC4 SLP203=

CYQF;2005-03-11 04:00;METAR CYQF 110400Z 21005KT 15SM BKN100 04/M05 A3000 RMK AC6 SLP198=

CYQF;2005-03-11 05:00;METAR CYQF 110500Z 20005KT 15SM SCT100 04/M05 A2999 RMK AC4 SLP195=

CYQF;2005-03-11 06:00;METAR CYQF 110600Z 23008KT 15SM BKN100 04/M05 A2998 RMK AC6 SLP182=

CYQF;2005-03-11 07:00;METAR CYQF 110700Z 18004KT 15SM SCT100 03/M06 A2993 RMK AC4 SLP167=

CYQF;2005-03-11 08:00;METAR CYQF 110800Z 18005KT 15SM BKN075 02/M05 A2989 RMK AC6 SLP155=

CYQF;2005-03-11 10:00;METAR CYQF 111000Z 21005KT 15SM BKN075 02/M05 A2986 RMK AC5 SLP138=

CYQF;2005-03-11 11:00;METAR CYQF 111100Z 23008KT 15SM SCT075 02/M05 A2984 RMK AC3 SLP133=

CYQF;2005-03-11 12:00;METAR CYQF 111200Z 21004KT 15SM BKN075 03/M05 A2983 RMK AC6 SLP127=

CYQF;2005-03-11 13:00;METAR CYQF 111300Z 23007KT 15SM BKN075 M00/M06 A2980 RMK AC6 SLP119=

CYQF;2005-03-11 15:00;METAR CYQF 111500Z 25002KT 15SM SCT075 BKN100 05/M04 A2976 RMK AC3AC2 SLP106=

CYQF;2005-03-11 16:00;METAR CYQF 111600Z 17005KT 15SM SCT080 BKN200 07/M03 A2975 RMK AC4CI1 SLP104=

CYQF;2005-03-11 17:00;METAR CYQF 111700Z 00000KT 15SM FEW080 SCT200 09/M03 A2976 RMK AC2CI0 SLP105=

CYQF;2005-03-11 18:00;METAR CYQF 111800Z 00000KT 15SM SCT080 SCT200 13/M02 A2976 RMK AC3CI0 SLP096=

CYQF;2005-03-11 19:00;METAR CYQF 111900Z 01002KT 15SM BKN080 BKN200 13/M02 A2973 RMK AC5CI1 SLP088=

CYQF;2005-03-11 20:00;METAR CYQF 112000Z 04007KT 15SM FEW050 BKN080 OVC200 12/M01 A2971 RMK SC2AC6CI0 VIRGA DIST NW-NE SLP081=

CYQF;2005-03-11 21:00;METAR CYQF 112100Z 32006KT 15SM FEW050 BKN080 OVC200 10/M01 A2973 RMK SC2AC5CI1 VIRGA ALQDS SLP090=

CYQF;2005-03-11 21:08;SPECI CYQF 112108Z 31007KT 15SM -RA SCT050 BKN080 OVC200 RMK SC4AC3CI1 CIG+ VIS LWR N=

CYQF;2005-03-11 22:00;METAR CYQF 112200Z 32008KT 15SM -RA SCT050 BKN080 OVC200 07/01 A2975 RMK SC4AC3CI1 SLP096=

CYQF;2005-03-11 23:00;METAR CYQF 112300Z 33018G28KT 15SM VCSH BKN050 BKN080 BKN250 06/M02 A2979 RMK SC5AC2CI0 SLP110=

CYQF;2005-03-12 01:00;METAR CYQF 120100Z 28005KT 15SM FEW050 BKN090 BKN250 05/M03 A2981 RMK SC2AC3CI2 VIRGA S SLP121=

CYQF;2005-03-12 02:00;METAR CYQF 120200Z 32007KT 15SM FEW050 BKN090 BKN250 04/M05 A2982 RMK SC2AC3CI1 SLP125=

CYQF;2005-03-12 03:00;METAR CYQF 120300Z 34005KT 15SM FEW050 SCT090 SCT250 04/M06 A2985 RMK SC1AC2CI0 SLP139=

CYQF;2005-03-12 04:00;METAR CYQF 120400Z 35008KT 15SM FEW090 FEW250 02/M05 A2988 RMK AC1CI0 SLP148=

CYQF;2005-03-12 05:00;METAR CYQF 120500Z 34017G27KT 15SM SKC 02/M04 A2992 RMK SLP160=

CYQF;2005-03-12 06:00;METAR CYQF 120600Z 32010KT 15SM SKC 01/M05 A2994 RMK SLP164=

CYQF;2005-03-12 07:00;METAR CYQF 120700Z 33010KT 15SM FEW250 02/M06 A2994 RMK CI0 SLP163=

CYQF;2005-03-12 08:00;METAR CYQF 120800Z 31013KT 15SM FEW100 02/M08 A2995 RMK AC2 SLP168=

CYQF;2005-03-12 09:00;METAR CYQF 120900Z 31015KT 15SM FEW120 02/M08 A2996 RMK AC1 SLP174=

CYQF;2005-03-12 10:00;METAR CYQF 121000Z 32014G20KT 15SM FEW110 02/M08 A2997 RMK AC2 SLP175=

CYQF;2005-03-12 11:00;METAR CYQF 121100Z 32015G22KT 15SM SCT110 02/M08 A2997 RMK AC2 SLP176=

CYQF;2005-03-12 12:00;METAR CYQF 121200Z 31010G18KT 15SM FEW100 02/M08 A3000 RMK AC1 SLP189=

CYQF;2005-03-12 13:00;METAR CYQF 121300Z 32012G22KT 15SM FEW100 SCT250 01/M08 A3001 RMK AC2CI0 SLP194=

CYQF;2005-03-12 14:00;METAR CYQF 121400Z 31018G29KT 15SM FEW030 BKN100 BKN250 01/M07 A3003 RMK SC2AC3CI1 SLP198=

CYQF;2005-03-12 14:48;SPECI CYQF 121448Z 31016G25KT 10SM -SN BKN030 OVC100 RMK SC6AC2=

CYQF;2005-03-12 15:00;METAR CYQF 121500Z 31016G25KT 8SM -SN BKN030 OVC100 01/M06 A3004 RMK SC7AC1 SLP209=

CYQF;2005-03-12 16:00;METAR CYQF 121600Z 32016G27KT 1SM -SHSN OVC030 M01/M04 A3005 RMK SN6SC2 SLP213=

CYQF;2005-03-12 17:00;METAR CYQF 121700Z 31018G27KT 10SM BKN010 OVC030 M00/M04 A3007 RMK SC6SC2 SLP217=

CYQF;2005-03-12 18:00;METAR CYQF 121800Z 31016G28KT 15SM BKN015 BKN080 01/M06 A3010 RMK SC6AC1 SLP231=

CYQF;2005-03-12 19:00;METAR CYQF 121900Z 32018G28KT 15SM BKN015 02/M05 A3011 RMK SC7 SLP236=

CYQF;2005-03-12 20:00;METAR CYQF 122000Z 33022G37KT 15SM FEW020 BKN040 BKN250 03/M06 A3014 RMK SF2SC5CI0 TCU ASCTD SLP243=

CYQF;2005-03-12 21:00;METAR CYQF 122100Z 33020G34KT 15SM SCT040 BKN080 03/M06 A3015 RMK SC3AC4 SLP244=

CYQF;2005-03-12 22:00;METAR CYQF 122200Z 32018G30KT 15SM FEW025 BKN045 BKN090 03/M06 A3015 RMK SC2SC4AC1 SLP245=

CYQF;2005-03-12 23:00;METAR CYQF 122300Z 32015G25KT 15SM FEW030 BKN050 04/M06 A3015 RMK SC2SC5 SLP244=

CYQF;2005-03-13 00:00;METAR CYQF 130000Z 33015G23KT 15SM BKN050 03/M06 A3013 RMK SC6 SLP240=

CYQF;2005-03-13 01:00;METAR CYQF 130100Z 33017G25KT 15SM BKN060 04/M08 A3013 RMK SC5 SLP239=

CYQF;2005-03-13 02:00;METAR CYQF 130200Z 34016G24KT 15SM BKN060 BKN250 03/M08 A3015 RMK SC6CI1 SLP245=

CYQF;2005-03-13 03:00;METAR CYQF 130300Z 33010KT 15SM BKN060 01/M08 A3015 RMK SC6 SLP248=

CYQF;2005-03-13 04:00;METAR CYQF 130400Z 32008KT 15SM SCT060 00/M07 A3015 RMK SC4 SLP248=

CYQF;2005-03-13 05:00;METAR CYQF 130500Z 33007KT 15SM BKN060 M01/M07 A3015 RMK SC6 SLP248=

CYQF;2005-03-13 06:00;METAR CYQF 130600Z 29009KT 15SM BKN060 00/M08 A3016 RMK SC6 SLP253=

CYQF;2005-03-13 07:00;METAR CYQF 130700Z 30010KT 15SM BKN060 01/M08 A3015 RMK SC7 SLP252=

CYQF;2005-03-13 08:00;METAR CYQF 130800Z 32014G19KT 15SM SCT016 OVC080 01/M06 A3017 RMK SC2AC6 SLP256=

CYQF;2005-03-13 09:00;METAR CYQF 130900Z 31013KT 15SM BKN080 00/M05 A3017 RMK AC6 SLP254=

CYQF;2005-03-13 10:00;METAR CYQF 131000Z 31013KT 15SM FEW080 M00/M05 A3017 RMK AC2 SLP256=

CYQF;2005-03-13 12:00;METAR CYQF 131200Z 32015KT 15SM FEW080 M01/M06 A3021 RMK AC1 SLP269=

CYQF;2005-03-13 13:00;METAR CYQF 131300Z 32013KT 15SM SCT250 M01/M06 A3023 RMK CI0 SLP276=

CYQF;2005-03-13 14:00;METAR CYQF 131400Z 33017KT 15SM FEW015 BKN250 M01/M06 A3025 RMK CF1CI1 SLP282=

CYQF;2005-03-13 15:00;METAR CYQF 131500Z 32014G19KT 15SM FEW015 BKN250 M01/M06 A3027 RMK CF1CI2 SLP292=

CYQF;2005-03-13 16:00;METAR CYQF 131600Z 32015G27KT 15SM FEW015 BKN250 M00/M06 A3027 RMK CF1CI2 SLP294=

CYQF;2005-03-13 17:00;METAR CYQF 131700Z 32016G28KT 15SM FEW015 FEW080 BKN250 01/M06 A3028 RMK CF1AC2CI1 SLP296=

CYQF;2005-03-13 18:00;METAR CYQF 131800Z 31016G27KT 15SM FEW020 FEW080 BKN250 02/M05 A3028 RMK CF2AC1CI1 SLP295=

CYQF;2005-03-13 19:00;METAR CYQF 131900Z 32015G24KT 15SM FEW025 BKN250 03/M07 A3028 RMK CU2CI2 SLP294=

CYQF;2005-03-13 20:00;METAR CYQF 132000Z 32015G25KT 15SM SCT035 BKN250 04/M07 A3027 RMK CU3CI1 SLP291=

CYQF;2005-03-13 21:00;METAR CYQF 132100Z 32015G25KT 15SM SCT035 BKN250 04/M07 A3026 RMK CU3CI1 SHRWS W SLP287=

CYQF;2005-03-13 22:00;METAR CYQF 132200Z 33014G24KT 15SM SCT040 BKN250 04/M07 A3026 RMK SC4CI0 SHWRS NW S SLP285=

CYQF;2005-03-13 22:41;SPECI CYQF 132241Z 34016G28KT 3SM -SHSN BKN040 RMK SC6 TCU ASOTD=

CYQF;2005-03-13 23:00;METAR CYQF 132300Z 33015G25KT 15SM SCT040 BKN250 04/M07 A3025 RMK SC3CI1 SHWRS ALQDS TCU ASCTD SLP282=

CYQF;2005-03-14 00:00;METAR CYQF 140000Z 35017G26KT 15SM BKN040 03/M08 A3025 RMK SC6 VIRGA/SHS ALQDS SLP282=

CYQF;2005-03-14 01:00;METAR CYQF 140100Z 35012KT 15SM BKN040 02/M07 A3025 RMK SC6 SLP282=

CYQF;2005-03-14 02:00;METAR CYQF 140200Z 31005KT 15SM SCT040 BKN250 01/M07 A3024 RMK SC3CI1 SLP280=

CYQF;2005-03-14 03:00;METAR CYQF 140300Z 04006KT 15SM SCT040 BKN250 00/M07 A3025 RMK SC2CI1 SLP285=

CYQF;2005-03-14 04:00;METAR CYQF 140400Z 00000KT 15SM BKN070 BKN250 M01/M06 A3025 RMK AC5CI1 SLP286=

CYQF;2005-03-14 05:00;METAR CYQF 140500Z 30004KT 15SM BKN070 BKN250 M02/M07 A3025 RMK AC5CI2 SLP287=

CYQF;2005-03-14 07:00;METAR CYQF 140700Z 29010KT 15SM OVC075 M00/M07 A3024 RMK AC8 SLP282=

CYQF;2005-03-14 08:00;METAR CYQF 140800Z 30007KT 15SM OVC040 M00/M08 A3024 RMK SC8 SLP282=

CYQF;2005-03-14 09:00;METAR CYQF 140900Z 31006KT 15SM OVC075 M00/M08 A3024 RMK AC8 SLP279=

CYQF;2005-03-14 10:00;METAR CYQF 141000Z 30010KT 15SM -SN OVC075 M01/M06 A3024 RMK AC8 SLP277=

CYQF;2005-03-14 10:40;SPECI CYQF 141040Z 30004KT 15SM OVC080 RMK AC8=

CYQF;2005-03-14 11:00;METAR CYQF 141100Z 30006KT 15SM OVC080 M01/M06 A3022 RMK AC8 SLP272=

CYQF;2005-03-14 13:00;METAR CYQF 141300Z 29005KT 15SM BKN080 M03/M07 A3021 RMK AC6 SLP271=

CYQF;2005-03-14 14:00;METAR CYQF 141400Z 28008KT 15SM BKN080 M02/M06 A3020 RMK AC5 SLP267=

CYQF;2005-03-14 15:00;METAR CYQF 141500Z 27006KT 15SM BKN080 BKN250 M02/M06 A3018 RMK AC4CI0 SLP265=

CYQF;2005-03-14 16:00;METAR CYQF 141600Z 30008KT 15SM BKN030 OVC080 M01/M06 A3017 RMK SC6AC1 SLP260=

CYQF;2005-03-14 17:00;METAR CYQF 141700Z 31009KT 15SM FEW020 BKN080 00/M05 A3015 RMK SC2AC3 SLP254=

CYQF;2005-03-14 18:00;METAR CYQF 141800Z 32012KT 15SM FEW025 SCT080 BKN250 02/M06 A3013 RMK SC2AC1CI0 SLP242=

CYQF;2005-03-14 18:40;SPECI CYQF 141840Z 32012KT 15SM -SHGS SCT030 SCT080 BKN250 RMK SC3AC1CI0 TCU ASOTD=

CYQF;2005-03-14 19:00;METAR CYQF 141900Z 32010KT 15SM SCT030 SCT080 BKN250 02/M06 A3010 RMK SC3AC1CI0 REGS SLP235=

CYQF;2005-03-14 20:00;METAR CYQF 142000Z 34010KT 15SM FEW030 SCT080 02/M06 A3008 RMK CU2AC1 TCU/SHWRS NW SLP228=

CYQF;2005-03-14 20:43;SPECI CYQF 142043Z 34014KT 15SM -SHSN BKN030 BKN080 RMK SC6AC1 TCU ASOCT=

CYQF;2005-03-14 21:00;METAR CYQF 142100Z 34013G25KT 15SM BKN030 BKN100 02/M05 A3007 RMK SC6AC1 RESN TCU ASOCT SLP221=

CYQF;2005-03-14 22:00;METAR CYQF 142200Z 34015G25KT 1 1/2SM -SHSN BKN030 BKN100 01/M05 A3005 RMK SC6AC1 VIS S 12 SLP217=

CYQF;2005-03-14 22:13;SPECI CYQF 142213Z 33015KT 1/4SM +SHSN VV005 RMK SN8=

CYQF;2005-03-14 22:19;SPECI CYQF 142219Z 33015KT 1 1/2SM -SHSN OVC030 RMK SN5SC3=

CYQF;2005-03-14 22:32;SPECI CYQF 142232Z 33012KT 15SM SCT030 BKN250 RMK SC3CI0 RESN=

CYQF;2005-03-14 23:00;METAR CYQF 142300Z 34014G23KT 15SM FEW030 SCT250 01/M04 A3004 RMK SC2CI0 RESN SLP212=

CYQF;2005-03-15 00:00;METAR CYQF 150000Z 34013G24KT 15SM FEW030 SCT250 02/M06 A3003 RMK SC2CI0 SLP209=

CYQF;2005-03-15 01:00;METAR CYQF 150100Z 34010KT 15SM FEW030 SCT250 01/M08 A3002 RMK SC1CI1 SLP207=

CYQF;2005-03-15 02:00;METAR CYQF 150200Z 32005KT 15SM FEW040 BKN250 M01/M09 A3003 RMK SC1CI1 SLP208=

CYQF;2005-03-15 03:00;METAR CYQF 150300Z 36005KT 15SM FEW040 SCT250 M01/M09 A3003 RMK SC1CI1 SLP213=

CYQF;2005-03-15 04:00;METAR CYQF 150400Z 02004KT 15SM FEW040 BKN250 M02/M10 A3003 RMK SC1CI1 SLP214=

CYQF;2005-03-15 05:00;METAR CYQF 150500Z 03003KT 15SM BKN250 M03/M10 A3003 RMK CI1 SLP214=

CYQF;2005-03-15 06:00;METAR CYQF 150600Z 00000KT 15SM SCT250 M04/M11 A3003 RMK CI1 SLP212=

CYQF;2005-03-15 07:00;METAR CYQF 150700Z 00000KT 15SM FEW250 M05/M10 A3002 RMK CI1 SLP209=

CYQF;2005-03-15 08:00;METAR CYQF 150800Z 30002KT 15SM FEW250 M06/M11 A3000 RMK CI2 SLP203=

CYQF;2005-03-15 09:00;METAR CYQF 150900Z 00000KT 15SM FEW100 M06/M10 A2998 RMK AC2 SLP200=

CYQF;2005-03-15 10:00;METAR CYQF 151000Z 00000KT 15SM FEW100 SCT250 M07/M10 A2996 RMK AC2CI0 SLP193=

CYQF;2005-03-15 11:00;METAR CYQF 151100Z 00000KT 15SM FEW100 BKN250 M07/M10 A2995 RMK AC2CI2 SLP189=

CYQF;2005-03-15 12:00;METAR CYQF 151200Z 00000KT 15SM FEW100 SCT250 M06/M10 A2993 RMK AC2CI1 SLP180=

CYQF;2005-03-15 13:00;METAR CYQF 151300Z 00000KT 15SM FEW100 BKN250 M07/M10 A2992 RMK AC2CI2 SLP178=

CYQF;2005-03-15 14:00;METAR CYQF 151400Z 00000KT 15SM FEW100 BKN250 M06/M10 A2992 RMK AC2CI2 SLP177=

CYQF;2005-03-15 15:00;METAR CYQF 151500Z 18002KT 15SM FEW100 BKN250 M05/M10 A2991 RMK AC2CI3 SLP175=

CYQF;2005-03-15 16:00;METAR CYQF 151600Z 00000KT 15SM FEW100 BKN250 M03/M10 A2990 RMK AC1CI4 SLP173=

CYQF;2005-03-15 17:00;METAR CYQF 151700Z 14010KT 15SM FEW100 BKN250 M02/M10 A2988 RMK AC1CI6 SLP167=

CYQF;2005-03-15 18:00;METAR CYQF 151800Z 15010KT 15SM FEW100 BKN250 M01/M09 A2987 RMK AC1CI6 SLP160=

CYQF;2005-03-15 19:00;METAR CYQF 151900Z 12010KT 15SM FEW100 BKN250 00/M09 A2985 RMK AC1CI2 SLP153=

CYQF;2005-03-15 20:00;METAR CYQF 152000Z 14012KT 15SM SCT100 BKN250 01/M08 A2983 RMK AC3CI2 SLP147=

CYQF;2005-03-15 21:00;METAR CYQF 152100Z 15011KT 15SM FEW100 BKN250 01/M09 A2981 RMK AC2CI4 SLP138=

CYQF;2005-03-15 22:00;METAR CYQF 152200Z 14010KT 15SM FEW100 BKN250 02/M08 A2978 RMK AC2CI3 SLP131=

CYQF;2005-03-15 23:00;METAR CYQF 152300Z 12013KT 15SM FEW030 SCT100 OVC250 02/M08 A2977 RMK SC1AC2CI4 SLP126=

CYQF;2005-03-16 00:00;METAR CYQF 160000Z 12012KT 15SM SCT030 BKN100 OVC250 02/M07 A2975 RMK SC3AC2CI3 SLP118=

CYQF;2005-03-16 02:00;METAR CYQF 160200Z 11006KT 15SM BKN026 OVC100 01/M08 A2975 RMK SC6AC2 SLP117=

CYQF;2005-03-16 02:40;SPECI CYQF 160240Z 12009KT 10SM -SN OVC025 RMK SC8=

CYQF;2005-03-16 03:00;METAR CYQF 160300Z 12013KT 10SM -SN OVC025 M01/M08 A2974 RMK SC8 VIS LWR S-SW SLP117=

CYQF;2005-03-16 04:00;METAR CYQF 160400Z 12008KT 2SM -SN OVC016 M02/M08 A2974 RMK SN5SC3 SLP117=

CYQF;2005-03-16 04:10;SPECI CYQF 160410Z 14010KT 3/4SM -SN VV010 RMK SN8=

CYQF;2005-03-16 05:00;METAR CYQF 160500Z 12012KT 1/2SM SN VV010 M04/M07 A2974 RMK SN8 /S02/ SLP115=

CYQF;2005-03-16 05:30;SPECI CYQF 160530Z 12010KT 1SM -SN OVC020 RMK SN6SC2=

CYQF;2005-03-16 06:00;METAR CYQF 160600Z 12010KT 3/4SM -SN VV010 M05/M08 A2975 RMK SN8 /S05/ SLP118=

CYQF;2005-03-16 06:10;SPECI CYQF 160610Z 12010KT 1/2SM SN VV008 RMK SN8=

CYQF;2005-03-16 06:30;SPECI CYQF 160630Z 12008KT 1 1/2SM -SN OVC025 RMK SN5SC3=

CYQF;2005-03-16 07:00;METAR CYQF 160700Z 11010KT 3/4SM -SN VV010 M05/M08 A2975 RMK SN8 /S02/ SLP118=

CYQF;2005-03-16 07:38;SPECI CYQF 160738Z 12008KT 1SM -SN OVC025 RMK SN6SC2=

CYQF;2005-03-16 08:00;METAR CYQF 160800Z 11005KT 2SM -SN OVC025 M05/M09 A2976 RMK SN3SC5 /S03/ SLP123=

CYQF;2005-03-16 08:06;SPECI CYQF 160806Z 11009KT 10SM -SN OVC025 RMK SC8=

CYQF;2005-03-16 09:00;METAR CYQF 160900Z 07004KT 10SM -SN OVC024 M06/M09 A2976 RMK SC8 SLP122=

CYQF;2005-03-16 10:00;METAR CYQF 161000Z 09006KT 15SM FEW014 OVC025 M06/M10 A2976 RMK SC2SC6 SLP122=

CYQF;2005-03-16 11:00;METAR CYQF 161100Z 07010KT 15SM BKN012 OVC025 M07/M11 A2976 RMK SC6SC2 SLP123=

CYQF;2005-03-16 12:00;METAR CYQF 161200Z 08008KT 15SM BKN009 OVC012 M07/M11 A2977 RMK SF6SC2 /S05/ SLP127=

CYQF;2005-03-16 12:38;SPECI CYQF 161238Z 08007KT 15SM -SN OVC010 RMK SF8 CIG RAG=

CYQF;2005-03-16 13:00;METAR CYQF 161300Z 06007KT 15SM -SN OVC009 M08/M12 A2977 RMK SF8 CIG RAG SLP127=

CYQF;2005-03-16 14:00;METAR CYQF 161400Z 07008KT 15SM BKN009 OVC012 M08/M12 A2976 RMK SF6SC2 CIG RAG SLP122=

CYQF;2005-03-16 15:00;METAR CYQF 161500Z 08007KT 10SM BKN008 OVC012 M09/M12 A2976 RMK SF6SC2 SLP127=

CYQF;2005-03-16 16:00;METAR CYQF 161600Z 09006KT 8SM -SN BKN007 OVC012 M09/M13 A2976 RMK SF7SC1 SLP126=

CYQF;2005-03-16 17:00;METAR CYQF 161700Z 06006KT 8SM -SN OVC007 M08/M13 A2975 RMK SC8 SLP125=

CYQF;2005-03-16 18:00;METAR CYQF 161800Z 07010KT 8SM -SN OVC010 M08/M12 A2975 RMK SC8 SLP128=

CYQF;2005-03-16 19:00;METAR CYQF 161900Z 07012KT 1 1/2SM -SHSN VV007 M09/M13 A2974 RMK SN8 SLP124=

CYQF;2005-03-16 19:18;SPECI CYQF 161918Z 06012KT 1/2SM SHSN VV006 RMK SN8=

CYQF;2005-03-16 19:31;SPECI CYQF 161931Z 06012KT 1SM -SHSN VV007 RMK SN8=

CYQF;2005-03-16 20:00;METAR CYQF 162000Z 06009KT 1/2SM SHSN VV007 M09/M13 A2973 RMK SN8 SLP122=

CYQF;2005-03-16 20:48;SPECI CYQF 162048Z 06009KT 1SM -SHSN VV007 RMK SN8=

CYQF;2005-03-16 21:00;METAR CYQF 162100Z 07009KT 1 1/2SM -SHSN VV008 M09/M13 A2971 RMK SN8 /S01/ SLP116=

CYQF;2005-03-16 22:00;METAR CYQF 162200Z 06012KT 2SM -SHSN VV012 M08/M13 A2971 RMK SN8 SLP115=

CYQF;2005-03-16 22:27;SPECI CYQF 162227Z 05010KT 1SM -SHSN VV010 RMK SN8 VSBY VRBL 3/4-11/2=

CYQF;2005-03-16 23:00;METAR CYQF 162300Z 06012KT 1SM -SHSN VV011 M09/M13 A2971 RMK SN8 VSBY=

CYQF;2005-03-17 00:00;METAR CYQF 170000Z 07009KT 1SM -SHSN VV012 M08/M12 A2971 RMK SN8 VSBY=

CYQF;2005-03-17 01:00;METAR CYQF 170100Z 06007KT 1SM -SN VV011 M08/M12 A2971 RMK SN8 SLP117=

CYQF;2005-03-17 02:00;METAR CYQF 170200Z 06010KT 1 1/4SM -SN VV015 M09/M12 A2971 RMK SN8 SLP117=

CYQF;2005-03-17 03:00;METAR CYQF 170300Z 05010KT 1 1/2SM -SN VV015 M09/M13 A2971 RMK SN8 SLP121=

CYQF;2005-03-17 04:00;METAR CYQF 170400Z 06007KT 6SM -SN SCT030 BKN100 BKN250 M10/M14 A2972 RMK SC3AC2CI1 SLP123=

CYQF;2005-03-17 05:00;METAR CYQF 170500Z 05007KT 10SM -SN SCT030 BKN100 M11/M15 A2973 RMK SC3AC2 SLP125=

CYQF;2005-03-17 06:00;METAR CYQF 170600Z 03005KT 10SM -SN SCT030 BKN055 OVC100 M12/M15 A2973 RMK SC3SC2AC2 SLP130=

CYQF;2005-03-17 07:00;METAR CYQF 170700Z 01004KT 10SM -SN FEW030 OVC055 M11/M15 A2973 RMK SC2SC6 SLP130=

CYQF;2005-03-17 08:00;METAR CYQF 170800Z 05004KT 10SM -SN FEW030 OVC060 M11/M15 A2974 RMK SC2SC6 SLP132=

CYQF;2005-03-17 09:00;METAR CYQF 170900Z 01004KT 10SM -SN OVC050 M11/M15 A2975 RMK SC8 SLP136=

CYQF;2005-03-17 10:00;METAR CYQF 171000Z 35005KT 3SM -SN SCT030 OVC050 M11/M15 A2976 RMK SN2SC2SC4 SLP140=

CYQF;2005-03-17 11:00;METAR CYQF 171100Z 34004KT 5SM -SN FEW030 OVC050 M12/M16 A2978 RMK SC2SC5 SLP145=

CYQF;2005-03-17 12:00;METAR CYQF 171200Z 33005KT 3SM -SN FEW020 OVC060 M12/M15 A2980 RMK SN1SC2SC6 /S01/ SLP152=

CYQF;2005-03-17 13:00;METAR CYQF 171300Z 34005KT 2 1/2SM -SN SCT020 OVC060 M12/M16 A2982 RMK SN2SC2SC4 SLP158=

CYQF;2005-03-17 13:25;SPECI CYQF 171325Z 34005KT 5SM -SN FEW025 SCT080 BKN250 RMK SC2AC2CI2=

CYQF;2005-03-17 14:00;METAR CYQF 171400Z 34005KT 8SM -SN FEW100 BKN250 M13/M17 A2984 RMK AC2CI2 SLP165=

CYQF;2005-03-17 15:00;METAR CYQF 171500Z 31004KT 5SM -SN SCT100 BKN250 M13/M16 A2986 RMK AC3CI2 SLP176=

CYQF;2005-03-17 15:16;SPECI CYQF 171516Z 32005KT 2 1/2SM -SN SCT100 BKN250 RMK AC4CI2=

CYQF;2005-03-17 16:00;METAR CYQF 171600Z 34003KT 8SM -SN BKN100 BKN250 M12/M16 A2987 RMK AC3CI2 SLP180=

CYQF;2005-03-17 17:00;METAR CYQF 171700Z 00000KT 5SM -SN SCT100 BKN250 M11/M15 A2988 RMK AC2CI2 SLP182=

CYQF;2005-03-17 18:00;METAR CYQF 171800Z 34003KT 10SM FEW100 SCT250 M10/M14 A2988 RMK AC1CI2 SLP183=

CYQF;2005-03-17 19:00;METAR CYQF 171900Z 34005KT 10SM FEW025 FEW100 SCT250 M09/M14 A2989 RMK CF1AC1CI2 SLP185=

CYQF;2005-03-17 20:00;METAR CYQF 172000Z 05003KT 15SM FEW025 FEW100 SCT250 M09/M14 A2988 RMK CF1AC0CI0 SLP184=

CYQF;2005-03-17 21:00;METAR CYQF 172100Z 00000KT 15SM FEW025 BKN270 M08/M14 A2988 RMK CF1CI1 SLP180=

CYQF;2005-03-17 22:00;METAR CYQF 172200Z 07002KT 15SM BKN270 M08/M13 A2988 RMK CI2 SLP179=

CYQF;2005-03-17 23:00;METAR CYQF 172300Z 12003KT 15SM SCT270 M08/M13 A2988 RMK CI1 SLP179=

CYQF;2005-03-18 00:00;METAR CYQF 180000Z 12004KT 15SM FEW250 M08/M14 A2987 RMK CI1 SLP178=

CYQF;2005-03-18 01:00;METAR CYQF 180100Z 11004KT 15SM FEW250 M09/M14 A2987 RMK CI1 SLP178=

CYQF;2005-03-18 02:00;METAR CYQF 180200Z 00000KT 15SM FEW100 FEW250 M10/M15 A2988 RMK AC1CI0 SLP181=

CYQF;2005-03-18 03:00;METAR CYQF 180300Z 00000KT 15SM FEW100 FEW250 M12/M16 A2989 RMK AC1CI0 SLP190=

CYQF;2005-03-18 04:00;METAR CYQF 180400Z 00000KT 15SM FEW100 FEW250 M14/M17 A2989 RMK AC1CI0 SLP191=

CYQF;2005-03-18 05:00;METAR CYQF 180500Z 00000KT 15SM FEW100 FEW250 M15/M18 A2989 RMK AC1CI0 SLP191=

CYQF;2005-03-18 06:00;METAR CYQF 180600Z 00000KT 15SM FEW100 SCT250 M17/M20 A2988 RMK AC1CI1 SLP189=

CYQF;2005-03-18 07:00;METAR CYQF 180700Z 00000KT 15SM FEW020 BKN070 M15/M18 A2989 RMK SC2AC3 SLP191=

CYQF;2005-03-18 08:00;METAR CYQF 180800Z 03002KT 15SM FEW020 BKN070 M15/M17 A2988 RMK SC2AC5 SLP189=

CYQF;2005-03-18 09:00;METAR CYQF 180900Z 00000KT 15SM FEW020 BKN070 M15/M17 A2988 RMK SC2AC5 SLP184=

CYQF;2005-03-18 10:00;METAR CYQF 181000Z 00000KT 15SM BKN070 M15/M18 A2989 RMK AC6 SLP186=

CYQF;2005-03-18 11:00;METAR CYQF 181100Z 35002KT 15SM BKN045 OVC070 M15/M17 A2989 RMK SC5AC2 SLP187=

CYQF;2005-03-18 12:00;METAR CYQF 181200Z 03003KT 15SM BKN050 M14/M17 A2989 RMK SC7 SLP187=

CYQF;2005-03-18 13:00;METAR CYQF 181300Z 36002KT 6SM BR SCT050 M16/M19 A2990 RMK SC3 SLP191=

CYQF;2005-03-18 14:00;METAR CYQF 181400Z 00000KT 3SM BR FEW050 SCT250 M18/M22 A2992 RMK SC2CI1 SLP196=

CYQF;2005-03-18 15:00;METAR CYQF 181500Z 00000KT 3SM BR FEW050 SCT250 M16/M19 A2993 RMK SC1CI1 SLP209=

CYQF;2005-03-18 16:17;SPECI CYQF 181617Z 33003KT 1 1/2SM -SN OVC025 RMK SN3SC4=

CYQF;2005-03-18 17:00;METAR CYQF 181700Z 34004KT 3SM -SN FEW025 BKN090 BKN250 M12/M14 A2995 RMK SC2AC2CI2 SLP214=

CYQF;2005-03-18 18:00;METAR CYQF 181800Z 35005KT 4SM -SN SCT025 BKN090 OVC250 M11/M14 A2996 RMK SC4AC2CI1 SLP217=

CYQF;2005-03-18 20:00;METAR CYQF 182000Z 02008KT 15SM SCT030 BKN250 M09/M14 A2996 RMK SC4CI2 SLP218=

CYQF;2005-03-18 21:00;METAR CYQF 182100Z 01008KT 10SM -SN SCT030 BKN080 BKN250 M08/M14 A2996 RMK SC4AC1CI1 SLP214=

CYQF;2005-03-18 22:00;METAR CYQF 182200Z 36008KT 15SM FEW025 SCT080 BKN250 M08/M14 A2996 RMK SC2AC2CI2 SLP214=

CYQF;2005-03-18 23:00;METAR CYQF 182300Z 01009KT 15SM SCT025 BKN250 M08/M14 A2996 RMK SC3CI1 SLP213=

CYQF;2005-03-19 00:00;METAR CYQF 190000Z 35009KT 15SM FEW025 BKN080 BKN250 M08/M14 A2998 RMK SC2AC4CI1 SHS DIS N-NE SLP217=

CYQF;2005-03-19 00:44;SPECI CYQF 190044Z 01008KT 5SM -SHSN BKN080 BKN250 RMK SN4AC2CI1=

CYQF;2005-03-19 02:00;METAR CYQF 190200Z 35003KT 8SM FEW020 SCT080 SCT250 M10/M14 A2998 RMK SC1AC2CI1 SLP219=

CYQF;2005-03-19 03:00;METAR CYQF 190300Z 34005KT 10SM SCT080 SCT250 M13/M17 A3000 RMK AC3CI0 SLP233=

CYQF;2005-03-19 04:00;METAR CYQF 190400Z 33003KT 15SM FEW080 SCT250 M14/M17 A3001 RMK AC2CI0 SLP237=

CYQF;2005-03-19 05:00;METAR CYQF 190500Z 32004KT 10SM -SHSN SCT080 BKN250 M14/M17 A3001 RMK AC4CI0 SLP236=

CYQF;2005-03-19 06:00;METAR CYQF 190600Z 32005KT 8SM FEW080 M15/M18 A3000 RMK AC2 VIS LWR N SLP231=

CYQF;2005-03-19 07:00;METAR CYQF 190700Z 00000KT 3SM BR OVC005 M16/M19 A3000 RMK ST8 SLP231=

CYQF;2005-03-19 08:00;METAR CYQF 190800Z 31003KT 5SM BR BKN006 BKN080 M16/M19 A2999 RMK ST6AC2 SLP228=

CYQF;2005-03-19 08:49;SPECI CYQF 190849Z 31003KT 3/4SM BR BKN080 RMK FG4AC2=

CYQF;2005-03-19 09:00;METAR CYQF 190900Z 30004KT 1/2SM FZFG BKN080 M13/M16 A2999 RMK FG5AC2 SLP221=

CYQF;2005-03-19 09:16;SPECI CYQF 190916Z 30003KT 1 1/2SM BR SKC RMK FG4=

CYQF;2005-03-19 10:00;METAR CYQF 191000Z 33003KT 3SM -SN OVC030 M14/M17 A2999 RMK SC8 SLP221=

CYQF;2005-03-19 11:00;METAR CYQF 191100Z 33003KT 3SM -SN BKN025 M14/M17 A2998 RMK SC6 SLP218=

CYQF;2005-03-19 12:00;METAR CYQF 191200Z 00000KT 5SM -SN FEW025 M15/M18 A2998 RMK SC2 SLP220=

CYQF;2005-03-19 13:00;METAR CYQF 191300Z 32003KT 5SM -SN BKN020 M16/M19 A2999 RMK SC7 SLP222=

CYQF;2005-03-19 14:00;METAR CYQF 191400Z 00000KT 3SM -SN BKN020 BKN080 M16/M18 A2999 RMK SC6AC1 SLP222=

CYQF;2005-03-19 14:49;SPECI CYQF 191449Z 00000KT 2SM -SN BR SCT020 BKN100 RMK SC3AC3=

CYQF;2005-03-19 15:00;METAR CYQF 191500Z 00000KT 2SM -SN BR FEW020 BKN100 M15/M18 A2999 RMK SC2AC4 SLP229=

CYQF;2005-03-19 15:52;SPECI CYQF 191552Z 00000KT 3SM IC FEW020 SCT100 RMK SC2AC2=

CYQF;2005-03-19 16:00;METAR CYQF 191600Z 00000KT 5SM IC FEW100 SCT270 M14/M17 A2999 RMK AC2CI0 SLP228=

CYQF;2005-03-19 16:31;SPECI CYQF 191631Z 00000KT 8SM FEW100 FEW270 RMK AC1CI0=

CYQF;2005-03-19 17:00;METAR CYQF 191700Z 00000KT 8SM FEW100 FEW270 M12/M14 A2998 RMK AC1CI0 SLP226=

CYQF;2005-03-19 18:00;METAR CYQF 191800Z 00000KT 12SM FEW020 FEW270 M10/M14 A2997 RMK SF1CI1 SLP218=

CYQF;2005-03-19 19:00;METAR CYQF 191900Z 33003KT 12SM FEW016 SCT270 M10/M14 A2996 RMK SF2CI0 SLP215=

CYQF;2005-03-19 20:00;METAR CYQF 192000Z 00000KT 10SM FEW018 SCT270 M08/M14 A2996 RMK SF2CI0 SLP215=

CYQF;2005-03-19 21:00;METAR CYQF 192100Z 00000KT 12SM FEW018 SCT270 M08/M14 A2994 RMK SF2CI0 SLP204=

CYQF;2005-03-19 22:00;METAR CYQF 192200Z 12003KT 5SM -SN SCT020 BKN270 M08/M14 A2993 RMK SC4CI1 SLP201=

CYQF;2005-03-19 22:49;SPECI CYQF 192249Z 06006KT 12SM FEW020 BKN270 RMK SC2CI1=

CYQF;2005-03-19 23:00;METAR CYQF 192300Z 07006KT 12SM FEW020 BKN270 M08/M14 A2992 RMK SC2CI1 SLP197=

CYQF;2005-03-19 23:29;SPECI CYQF 192329Z 08005KT 4SM -SN OVC020 RMK SC7=

CYQF;2005-03-20 00:00;METAR CYQF 200000Z 07008KT 6SM -SN OVC020 M08/M13 A2992 RMK SC8 SLP197=

CYQF;2005-03-20 01:00;METAR CYQF 200100Z 09005KT 8SM -SHSN SCT020 BKN100 BKN270 M08/M14 A2990 RMK SC3AC2CI1 SLP192=

CYQF;2005-03-20 01:23;SPECI CYQF 200123Z 09006KT 8SM FEW020 BKN100 OVC270 RMK SC2AC5CI0=

CYQF;2005-03-20 02:00;METAR CYQF 200200Z 08005KT 8SM -SHSN FEW020 BKN100 OVC270 M09/M13 A2989 RMK SC2AC5CI1 SLP189=

CYQF;2005-03-20 03:00;METAR CYQF 200300Z 08005KT 10SM -SHSN BKN035 OVC100 M09/M13 A2989 RMK SC6AC1 SLP189=

CYQF;2005-03-20 04:00;METAR CYQF 200400Z 09004KT 10SM -SHSN BKN035 OVC100 M10/M14 A2988 RMK SC6AC2 SLP185=

CYQF;2005-03-20 05:00;METAR CYQF 200500Z 09006KT 15SM -SHSN SCT035 OVC100 M09/M13 A2985 RMK SC4AC4 SLP177=

CYQF;2005-03-20 06:00;METAR CYQF 200600Z 11009KT 2SM -SHSN OVC100 M09/M12 A2984 RMK SN7AC1 SLP165=

CYQF;2005-03-20 07:00;METAR CYQF 200700Z 11009KT 2SM -SHSN VV025 M08/M12 A2981 RMK SN8 SLP157=

CYQF;2005-03-20 08:00;METAR CYQF 200800Z 10008KT 1 1/2SM -SN VV020 M08/M11 A2978 RMK SN8 SLP148=

CYQF;2005-03-20 08:28;SPECI CYQF 200828Z 11010KT 1SM -SN VV015 RMK SN8=

CYQF;2005-03-20 09:00;METAR CYQF 200900Z 10008KT 1SM -SN VV015 M08/M11 A2976 RMK SN8 /S01/ SLP136=

CYQF;2005-03-20 09:37;SPECI CYQF 200937Z 10008KT 5/8SM -SN VV010 RMK SN8=

CYQF;2005-03-20 10:00;METAR CYQF 201000Z 10008KT 5/8SM -SN VV010 M08/M11 A2974 RMK SN8 /S02/ SLP128=

CYQF;2005-03-20 10:47;SPECI CYQF 201047Z 10010KT 1SM -SN VV015 RMK SN8=

CYQF;2005-03-20 11:00;METAR CYQF 201100Z 11010KT 1 1/2SM -SN VV020 M08/M12 A2972 RMK SN8 /S03/ SLP122=

CYQF;2005-03-20 11:44;SPECI CYQF 201144Z 11012KT 3SM -SN OVC030 RMK SN4SC4=

CYQF;2005-03-20 12:00;METAR CYQF 201200Z 10012KT 2SM -SN VV025 M08/M12 A2971 RMK SN8 /S04/ SLP117=

CYQF;2005-03-20 12:51;SPECI CYQF 201251Z 12012KT 5SM -SN BKN030 OVC070 RMK SN2SC2AC3=

CYQF;2005-03-20 13:00;METAR CYQF 201300Z 11010G15KT 5SM -SN DRSN BKN030 OVC070 M08/M12 A2969 RMK SN2SC2AC3 SLP111=

CYQF;2005-03-20 14:00;METAR CYQF 201400Z 12010G15KT 10SM -SN DRSN SCT012 OVC030 M08/M12 A2968 RMK SC3SC5 SLP108=

CYQF;2005-03-20 15:00;METAR CYQF 201500Z 12010G15KT 8SM -SN DRSN SCT012 OVC030 M08/M12 A2967 RMK SC3SC5 SLP104=

CYQF;2005-03-20 16:00;METAR CYQF 201600Z 13012G19KT 8SM -SN SCT012 OVC030 M07/M11 A2966 RMK SC3SC5 DRSN SLP103=

CYQF;2005-03-20 17:00;METAR CYQF 201700Z 14014G22KT 3SM -SN OVC030 M07/M10 A2966 RMK SC8 SLP101=

CYQF;2005-03-20 18:00;METAR CYQF 201800Z 14014G25KT 10SM -SN BKN030 M06/M10 A2965 RMK SC7 SLP094=

CYQF;2005-03-20 19:00;METAR CYQF 201900Z 15014KT 15SM SCT030 BKN100 BKN250 M05/M11 A2964 RMK SC3AC2CI1 SLP092=

CYQF;2005-03-20 20:00;METAR CYQF 202000Z 15015KT 15SM SCT015 BKN100 BKN250 M04/M10 A2964 RMK SC4AC2CI1 SLP091=

CYQF;2005-03-20 21:00;METAR CYQF 202100Z 15015G26KT 15SM SCT015 BKN100 BKN250 M04/M10 A2964 RMK SC4AC2CI0 SLP089=

CYQF;2005-03-20 22:00;METAR CYQF 202200Z 15014G24KT 15SM SCT020 BKN100 BKN250 M04/M10 A2964 RMK SC3AC2CI0 SLP089=

CYQF;2005-03-20 23:00;METAR CYQF 202300Z 16014G23KT 10SM BKN015 BKN250 M04/M10 A2965 RMK SC5CI1 SLP093=

CYQF;2005-03-21 00:00;METAR CYQF 210000Z 15014KT 10SM BKN015 BKN250 M04/M10 A2966 RMK SC6CI0 SLP097=

CYQF;2005-03-21 01:00;METAR CYQF 210100Z 14012KT 10SM OVC018 M04/M09 A2968 RMK SC8 SLP103=

CYQF;2005-03-21 02:00;METAR CYQF 210200Z 16011KT 8SM OVC018 M04/M09 A2970 RMK SC8 SLP109=

CYQF;2005-03-21 03:00;METAR CYQF 210300Z 15007KT 10SM OVC016 M04/M09 A2972 RMK SC8 SLP115=

CYQF;2005-03-21 04:00;METAR CYQF 210400Z 16010KT 10SM OVC014 M04/M09 A2972 RMK SC8 SLP117=

CYQF;2005-03-21 05:00;METAR CYQF 210500Z 14012KT 15SM OVC011 M04/M08 A2972 RMK SC8 SLP117=

CYQF;2005-03-21 06:00;METAR CYQF 210600Z 13010KT 10SM OVC007 M04/M07 A2973 RMK SC8 SLP117=

CYQF;2005-03-21 06:17;SPECI CYQF 210617Z 15011KT 5SM -SN OVC008 RMK SC8=

CYQF;2005-03-21 07:00;METAR CYQF 210700Z 15010KT 5SM -SN OVC008 M04/M08 A2973 RMK SC8 SLP117=

CYQF;2005-03-21 08:00;METAR CYQF 210800Z 16005KT 10SM OVC008 M04/M07 A2974 RMK SC8 PCPN N SLP121=

CYQF;2005-03-21 09:00;METAR CYQF 210900Z 11005KT 12SM OVC008 M03/M07 A2975 RMK SC8 SLP120=

CYQF;2005-03-21 10:00;METAR CYQF 211000Z 10004KT 12SM OVC006 M03/M06 A2975 RMK SC8 SLP120=

CYQF;2005-03-21 10:49;SPECI CYQF 211049Z 12006KT 4SM -SN OVC004 RMK SC8 VSBY RDCD DUE LOW CLD=

CYQF;2005-03-21 12:00;METAR CYQF 211200Z 13008KT 3SM -SN BR OVC003 M03/M06 A2975 RMK FG2SC6 SLP121=

CYQF;2005-03-21 14:00;METAR CYQF 211400Z 13009KT 3SM -SN BR OVC005 M03/M06 A2976 RMK FG2SC6 SLP125=

CYQF;2005-03-21 15:00;METAR CYQF 211500Z 12010KT 3SM -FZDZ BR OVC004 M03/M06 A2976 RMK FG2SC6 SLP122=

CYQF;2005-03-21 16:00;METAR CYQF 211600Z 14008KT 2 1/2SM -FZDZ BR OVC004 M03/M06 A2976 RMK FG2SC6 SLP125=

CYQF;2005-03-21 16:49;SPECI CYQF 211649Z 11009KT 3SM -FZDZ BR OVC003 RMK FG2SC6=

CYQF;2005-03-21 17:00;METAR CYQF 211700Z 12010KT 3SM -FZDZ BR OVC004 M03/M05 A2977 RMK FG2SC6 SLP127=

CYQF;2005-03-21 18:00;METAR CYQF 211800Z 12008KT 3SM BR OVC004 M02/M05 A2977 RMK FG2SC6 REFZDZ SLP127=

CYQF;2005-03-21 19:00;METAR CYQF 211900Z 10008KT 5SM BR OVC004 M02/M05 A2977 RMK SC8 SLP127=

CYQF;2005-03-21 20:00;METAR CYQF 212000Z 12009KT 8SM OVC006 M02/M05 A2977 RMK SC8 SLP128=

CYQF;2005-03-21 21:00;METAR CYQF 212100Z 11003KT 10SM OVC007 M01/M05 A2978 RMK SC8 SLP129=

CYQF;2005-03-21 22:00;METAR CYQF 212200Z 00000KT 10SM OVC007 M01/M04 A2981 RMK SC8 SLP137=

CYQF;2005-03-21 23:00;METAR CYQF 212300Z 36007KT 10SM OVC007 M01/M04 A2983 RMK SC8 SLP145=

CYQF;2005-03-21 23:35;SPECI CYQF 212335Z 36011KT 2 1/2SM BR OVC004 RMK SC8=

CYQF;2005-03-21 23:48;SPECI CYQF 212348Z 36011KT 1 1/4SM -SG BR OVC002 RMK FG3SC5=

CYQF;2005-03-22 00:00;METAR CYQF 220000Z 36012KT 1 1/4SM -SG BR OVC002 M02/M04 A2985 RMK FG3SC5 SLP155=

CYQF;2005-03-22 00:16;SPECI CYQF 220016Z 35010KT 1 1/4SM -FZDZ BR OVC004 RMK FG3ST5=

CYQF;2005-03-22 01:00;METAR CYQF 220100Z 36012KT 1 1/4SM -FZDZ BR OVC004 M03/M05 A2988 RMK FG3ST5 SLP162=

CYQF;2005-03-22 01:34;SPECI CYQF 220134Z 36012KT 5SM BR OVC004 RMK ST8=

CYQF;2005-03-22 02:00;METAR CYQF 220200Z 36009KT 5SM -SG BR OVC005 M03/M06 A2992 RMK ST8 SLP174=

CYQF;2005-03-22 02:28;SPECI CYQF 220228Z 36010KT 3/4SM -SHSN VV005 RMK SN8=

CYQF;2005-03-22 03:00;METAR CYQF 220300Z 34013KT 1SM -SHSN VV007 M04/M06 A2992 RMK SN8 SLP179=

CYQF;2005-03-22 04:41;SPECI CYQF 220441Z 33011KT 2SM -SN VV012 RMK SN8=

CYQF;2005-03-22 05:00;METAR CYQF 220500Z 34014KT 2SM -SN OVC010 M04/M07 A2995 RMK SC8 SLP188=

CYQF;2005-03-22 06:00;METAR CYQF 220600Z 33012KT 1 1/2SM -SN VV009 M04/M07 A2995 RMK SN8 SLP190=

CYQF;2005-03-22 07:00;METAR CYQF 220700Z 33009KT 1 1/2SM -SN OVC100 M04/M07 A2996 RMK SN7AC1 SLP193=

CYQF;2005-03-22 07:47;SPECI CYQF 220747Z 34013KT 1SM -SN DRSN OVC020 RMK SN5SC2=

CYQF;2005-03-22 08:00;METAR CYQF 220800Z 32013KT 1SM -SN DRSN OVC020 M05/M08 A2996 RMK SN5SC2 SLP194=

CYQF;2005-03-22 08:30;SPECI CYQF 220830Z 32013KT 1 1/2SM -SN DRSN VV016 RMK SN8=

CYQF;2005-03-22 09:00;METAR CYQF 220900Z 33010G15KT 1 1/2SM -SN DRSN VV014 M06/M09 A2998 RMK SN8 SLP201=

CYQF;2005-03-22 10:00;METAR CYQF 221000Z 32013KT 3SM -SN DRSN OVC030 M06/M09 A2998 RMK SN5SC3 SLP201=

CYQF;2005-03-22 10:28;SPECI CYQF 221028Z 32010G16KT 1SM -SN DRSN VV012 RMK SN8=

CYQF;2005-03-22 11:00;METAR CYQF 221100Z 32013KT 2SM -SN DRSN OVC020 M06/M09 A2998 RMK SN5SC3 SLP200=

CYQF;2005-03-22 11:37;SPECI CYQF 221137Z 32013KT 3SM -SN DRSN BKN025 OVC075 RMK SC6AC2=

CYQF;2005-03-22 12:00;METAR CYQF 221200Z 32010KT 8SM -SN DRSN BKN025 OVC075 M06/M10 A2998 RMK SC5AC3 /S02/ SLP201=

CYQF;2005-03-22 13:00;METAR CYQF 221300Z 32010KT 10SM -SN DRSN BKN025 OVC070 M06/M10 A2999 RMK SC5AC2 SLP204=

CYQF;2005-03-22 14:00;METAR CYQF 221400Z 33012KT 5SM -SN DRSN BKN020 OVC070 M07/M10 A3001 RMK SC5AC2 VIS LWR N SLP210=

CYQF;2005-03-22 14:37;SPECI CYQF 221437Z 33012KT 1 1/2SM -SN DRSN FEW010 BKN020 OVC070 RMK SC2SC3AC2=

CYQF;2005-03-22 15:00;METAR CYQF 221500Z 32009KT 1SM -SN DRSN FEW010 BKN020 OVC080 M06/M10 A3001 RMK SC2SC4AC1 SLP215=

CYQF;2005-03-22 16:00;METAR CYQF 221600Z 32012G20KT 1SM -SN BLSN OVC015 M06/M10 A3001 RMK SN4SC3 /S01/ VSBY VRBL 3/4-11/4 SLP216=

CYQF;2005-03-22 17:00;METAR CYQF 221700Z 32012G20KT 1SM -SN BLSN BKN015 OVC080 M06/M09 A3002 RMK SN2SC2AC2 VSBY VRBL 3/4-11/4 SLP217=

CYQF;2005-03-22 18:00;METAR CYQF 221800Z 32015G20KT 1SM -SN BLSN OVC015 M06/M09 A3002 RMK BLSN3SC5 VSBY VRBL 3/4-11/4 /S02/ SLP218=

CYQF;2005-03-22 19:00;METAR CYQF 221900Z 32012G20KT 1SM -SN BLSN SCT015 BKN090 M06/M09 A3002 RMK BLSN2SC2AC2 VSBY VRBL 3/4-11/4 SLP218=

CYQF;2005-03-22 20:00;METAR CYQF 222000Z 31015G20KT 1SM -SN BLSN BKN015 OVC090 M05/M09 A3002 RMK BLSN2SC3AC2 VSBY VRBL 3/4-11/4 SLP219=

CYQF;2005-03-22 20:49;SPECI CYQF 222049Z 33015G20KT 2SM -SN DRSN SCT015 BKN090 RMK SN1SC2AC2 OCNL BLSN=

CYQF;2005-03-22 21:00;METAR CYQF 222100Z 33017G24KT 2SM -SN DRSN SCT015 BKN090 M06/M10 A3003 RMK SN1SC2AC2 OCNL BLSN /S01/ SLP222=

CYQF;2005-03-22 21:39;SPECI CYQF 222139Z 33012G20KT 3SM -SN DRSN SCT015 BKN090 RMK SC3AC2 OCNL BLSN=

CYQF;2005-03-22 22:00;METAR CYQF 222200Z 33015KT 3SM -SN DRSN SCT015 BKN090 M05/M10 A3002 RMK CU3AC2 OCNL BLSN SLP221=

CYQF;2005-03-22 23:00;METAR CYQF 222300Z 33010G15KT 6SM -SN DRSN SCT015 M05/M09 A3004 RMK CF3 OCNL BLSN SLP225=

CYQF;2005-03-22 23:47;SPECI CYQF 222347Z 33012G20KT 10SM DRSN FEW015 SCT250 RMK CF2CI1 OCNL BLSN=

CYQF;2005-03-23 01:00;METAR CYQF 230100Z 32012G19KT 12SM DRSN FEW015 BKN250 M07/M12 A3005 RMK CF2CI4 SLP229=

CYQF;2005-03-23 02:00;METAR CYQF 230200Z 33011KT 12SM FEW015 FEW080 OVC250 M08/M12 A3005 RMK CF1AC2CI3 SLP232=

CYQF;2005-03-23 03:00;METAR CYQF 230300Z 32012KT 12SM -SN DRSN FEW015 BKN080 OVC250 M08/M11 A3007 RMK CF2AC4CI2 SLP242=

CYQF;2005-03-23 04:00;METAR CYQF 230400Z 33012G18KT 12SM -SN DRSN FEW015 BKN080 OVC250 M08/M12 A3009 RMK CF2AC3CI1 SLP246=

CYQF;2005-03-23 05:00;METAR CYQF 230500Z 32012G20KT 12SM -SN DRSN FEW015 BKN080 OVC250 M08/M12 A3009 RMK CF2AC4CI2 SLP246=

CYQF;2005-03-23 06:00;METAR CYQF 230600Z 32013G21KT 12SM -SN DRSN FEW015 BKN080 OVC250 M08/M12 A3009 RMK CF2AC3CI2 SLP249=

CYQF;2005-03-23 07:00;METAR CYQF 230700Z 32014G24KT 6SM -SN DRSN FEW015 BKN080 OVC250 M09/M12 A3010 RMK CF2AC4CI1 VSBY LWR N SLP250=

CYQF;2005-03-23 08:00;METAR CYQF 230800Z 31012KT 10SM -SN DRSN SCT040 BKN080 BKN250 M03/M13 A3009 RMK SC3AC2CI2 SLP249=

CYQF;2005-03-23 09:00;METAR CYQF 230900Z 32011KT 6SM -SN DRSN BKN027 OVC080 M09/M13 A3009 RMK SC5AC2 SLP248=

CYQF;2005-03-23 09:37;SPECI CYQF 230937Z 32013KT 1 1/2SM -SN DRSN OVC027 RMK SN2SC5=

CYQF;2005-03-23 10:00;METAR CYQF 231000Z 32011KT 3SM -SN DRSN BKN027 OVC040 M09/M13 A3009 RMK SC5SC2 SLP249=

CYQF;2005-03-23 11:00;METAR CYQF 231100Z 32013KT 1SM -SN DRSN OVC025 M09/M13 A3010 RMK SN5SC3 SLP251=

CYQF;2005-03-23 12:00;METAR CYQF 231200Z 31011KT 2SM -SN DRSN BKN025 OVC040 M09/M13 A3010 RMK SN3SC3SC2 VSBY VRBL 1-3 SLP253=

CYQF;2005-03-23 13:00;METAR CYQF 231300Z 32010KT 1 1/2SM -SN DRSN OVC025 M10/M13 A3012 RMK SN5SC3 SLP258=

CYQF;2005-03-23 14:00;METAR CYQF 231400Z 32008KT 1 1/2SM -SN DRSN BKN025 OVC080 M10/M13 A3013 RMK SN2SC3AC2 SLP261=

CYQF;2005-03-23 15:00;METAR CYQF 231500Z 34010KT 1 1/2SM -SN BKN025 OVC080 M10/M13 A3014 RMK SN3SC3AC1 SLP266=

CYQF;2005-03-23 15:47;SPECI CYQF 231547Z 33010KT 3SM -SN FEW025 SCT080 BKN220 RMK SC2AC2CI2=

CYQF;2005-03-23 16:00;METAR CYQF 231600Z 33010KT 3SM -SN DRSN FEW025 SCT080 BKN220 M09/M13 A3014 RMK SC2AC2CI2 SLP267=

CYQF;2005-03-23 17:00;METAR CYQF 231700Z 33010KT 2SM -SN DRSN FEW080 BKN220 M08/M12 A3015 RMK SN2AC1CI2 SLP269=

CYQF;2005-03-23 17:26;SPECI CYQF 231726Z 33010KT 5SM -SN FEW025 SCT080 BKN220 RMK SC2AC2CI2=

CYQF;2005-03-23 18:00;METAR CYQF 231800Z 34012KT 6SM -SN FEW025 SCT220 M08/M12 A3015 RMK SC1CI2 /S01/ SLP271=

CYQF;2005-03-23 19:00;METAR CYQF 231900Z 34010KT 3SM -SN BKN015 M07/M11 A3015 RMK SC5 SLP271=

CYQF;2005-03-23 20:00;METAR CYQF 232000Z 01008KT 3SM -SN OVC015 M07/M11 A3015 RMK SC7 SLP272=

CYQF;2005-03-23 21:00;METAR CYQF 232100Z 02008KT 5SM -SN OVC015 M07/M12 A3016 RMK SC8 SLP273=

CYQF;2005-03-23 22:00;METAR CYQF 232200Z 01007KT 10SM -SN SCT020 M07/M12 A3016 RMK SC4 SLP275=

CYQF;2005-03-23 22:44;SPECI CYQF 232244Z 35007KT 15SM FEW020 SCT090 RMK SC2AC2=

CYQF;2005-03-23 23:00;METAR CYQF 232300Z 36007KT 15SM FEW020 SCT090 M07/M12 A3017 RMK SC2AC2 SLP276=

CYQF;2005-03-24 00:00;METAR CYQF 240000Z 03007KT 15SM FEW020 BKN090 M08/M13 A3017 RMK SC2AC2 SLP278=

CYQF;2005-03-24 01:00;METAR CYQF 240100Z 04006KT 15SM FEW090 M09/M14 A3018 RMK AC2 SLP281=

CYQF;2005-03-24 02:00;METAR CYQF 240200Z 04009KT 15SM FEW090 M11/M16 A3019 RMK AC2 SLP286=

CYQF;2005-03-24 03:00;METAR CYQF 240300Z 04004KT 15SM FEW090 M12/M17 A3021 RMK AC2 SLP299=

CYQF;2005-03-24 04:00;METAR CYQF 240400Z 00000KT 15SM FEW090 FEW270 M15/M18 A3022 RMK AC1CI0 SLP300=

CYQF;2005-03-24 05:00;METAR CYQF 240500Z 25004KT 15SM FEW270 M17/M20 A3023 RMK CI0 SLP305=

CYQF;2005-03-24 06:00;METAR CYQF 240600Z 00000KT 15SM FEW270 M18/M21 A3024 RMK CI0 SLP313=

CYQF;2005-03-24 07:00;METAR CYQF 240700Z 20003KT 15SM FEW270 M21/M23 A3024 RMK CI0 SLP313=

CYQF;2005-03-24 08:00;METAR CYQF 240800Z 19003KT 15SM SKC M21/M23 A3024 RMK SLP313=

CYQF;2005-03-24 09:00;METAR CYQF 240900Z 00000KT 15SM SKC M21/M24 A3025 RMK SLP319=

CYQF;2005-03-24 10:00;METAR CYQF 241000Z 00000KT 10SM MIFG SKC M21/M24 A3024 RMK SLP315=

CYQF;2005-03-24 11:00;METAR CYQF 241100Z 00000KT 1SM BR SKC M20/M24 A3022 RMK FG6 SLP310=

CYQF;2005-03-24 11:40;SPECI CYQF 241140Z 00000KT 1/2SM FZFG VV003 RMK FG8=

CYQF;2005-03-24 12:00;METAR CYQF 241200Z 00000KT 1/2SM FZFG SKC M22/M25 A3023 RMK FG7 SLP312=

CYQF;2005-03-24 12:40;SPECI CYQF 241240Z 00000KT 1SM BR SKC RMK FG3 VIS E 3=

CYQF;2005-03-24 13:00;METAR CYQF 241300Z 20004KT 3SM BR SKC M24/M27 A3022 RMK FG2 SLP310=

CYQF;2005-03-24 14:00;METAR CYQF 241400Z 21004KT 15SM FEW250 M23/M26 A3021 RMK CI0 SLP308=

CYQF;2005-03-24 14:10;SPECI CYQF 241410Z 21006KT 10SM BKN005 RMK SC6 BCFG=

CYQF;2005-03-24 14:18;SPECI CYQF 241418Z 21006KT 3SM BR OVC003 RMK FG2ST6 VIS SW - NW 1F=

CYQF;2005-03-24 15:00;METAR CYQF 241500Z 16005KT 3SM BR OVC004 M17/M19 A3021 RMK ST7 VSBY NW-N 1 SLP305=

CYQF;2005-03-24 15:23;SPECI CYQF 241523Z 15004KT 5SM BR SCT004 RMK ST3=

CYQF;2005-03-24 16:00;METAR CYQF 241600Z 13005KT 5SM BR FEW250 M14/M16 A3020 RMK CI1 SLP303=

CYQF;2005-03-24 17:00;METAR CYQF 241700Z 14010KT 5SM BR FEW250 M13/M15 A3020 RMK CI1 SLP303=

CYQF;2005-03-24 18:00;METAR CYQF 241800Z 15008KT 6SM BR FEW250 M11/M13 A3018 RMK CI1 SLP295=

CYQF;2005-03-24 19:00;METAR CYQF 241900Z 16014KT 10SM FEW250 M08/M13 A3016 RMK CI1 HZ SLP290=

CYQF;2005-03-24 20:00;METAR CYQF 242000Z 15015KT 10SM FEW250 M07/M12 A3015 RMK CI1 HZ SLP286=

CYQF;2005-03-24 21:00;METAR CYQF 242100Z 16017KT 15SM FEW250 M06/M12 A3013 RMK CI1 SLP275=

CYQF;2005-03-24 22:00;METAR CYQF 242200Z 15010G15KT 15SM FEW250 M05/M11 A3010 RMK CI1 SLP267=

CYQF;2005-03-24 23:00;METAR CYQF 242300Z 16010G15KT 15SM FEW250 M05/M11 A3008 RMK CI1 SLP260=

CYQF;2005-03-25 00:00;METAR CYQF 250000Z 17010G15KT 15SM FEW250 M05/M11 A3006 RMK CI1 SLP252=

CYQF;2005-03-25 01:00;METAR CYQF 250100Z 17013KT 15SM FEW250 M06/M11 A3004 RMK CI1 SLP245=

CYQF;2005-03-25 02:00;METAR CYQF 250200Z 16014KT 15SM FEW250 M07/M12 A3002 RMK CI1 SLP238=

CYQF;2005-03-25 03:00;METAR CYQF 250300Z 17010G16KT 15SM FEW250 M07/M12 A3000 RMK CI1 SLP227=

CYQF;2005-03-25 04:00;METAR CYQF 250400Z 17012KT 15SM FEW250 M08/M12 A2999 RMK CI1 SLP224=

CYQF;2005-03-25 05:00;METAR CYQF 250500Z 17012KT 15SM FEW250 M08/M12 A2997 RMK CI2 OBS TAKEN HR+16 SLP219=

CYQF;2005-03-25 06:00;METAR CYQF 250600Z 18011KT 15SM FEW250 M08/M13 A2996 RMK CI2 SLP208=

CYQF;2005-03-25 07:00;METAR CYQF 250700Z 18010KT 15SM FEW250 M09/M13 A2995 RMK CI2 SLP206=

CYQF;2005-03-25 09:00;METAR CYQF 250900Z 18008KT 15SM FEW250 M12/M16 A2993 RMK CI1 SLP196=

CYQF;2005-03-25 10:00;METAR CYQF 251000Z 20006KT 15SM SCT250 M12/M16 A2992 RMK CI2 SLP192=

CYQF;2005-03-25 11:00;METAR CYQF 251100Z 20004KT 15SM SCT250 M14/M17 A2991 RMK CI2 SLP190=

CYQF;2005-03-25 12:00;METAR CYQF 251200Z 20004KT 15SM BKN250 M14/M17 A2991 RMK CI3 SLP189=

CYQF;2005-03-25 13:00;METAR CYQF 251300Z 24003KT 15SM SCT250 M15/M18 A2990 RMK CI2 SLP187=

CYQF;2005-03-25 14:00;METAR CYQF 251400Z 00000KT 15SM FEW250 M16/M18 A2990 RMK CI1 SLP187=

CYQF;2005-03-25 15:00;METAR CYQF 251500Z 00000KT 15SM FEW250 M14/M17 A2990 RMK CI1 SLP190=

CYQF;2005-03-25 16:00;METAR CYQF 251600Z 00000KT 15SM FEW250 M11/M15 A2990 RMK CI0 SLP191=

CYQF;2005-03-25 17:00;METAR CYQF 251700Z 18004KT 15SM FEW250 M09/M13 A2991 RMK CI1 SLP192=

CYQF;2005-03-25 18:00;METAR CYQF 251800Z 18004KT 15SM FEW250 M06/M12 A2991 RMK CI1 SLP184=

CYQF;2005-03-25 19:00;METAR CYQF 251900Z 18003KT 15SM FEW250 M03/M12 A2991 RMK CI1 SLP184=

CYQF;2005-03-25 20:00;METAR CYQF 252000Z 21002KT 15SM FEW250 00/M11 A2991 RMK CI1 SLP184=

CYQF;2005-03-25 21:00;METAR CYQF 252100Z 16005KT 15SM FEW250 01/M05 A2989 RMK CI0 SLP175=

CYQF;2005-03-25 22:00;METAR CYQF 252200Z 18004KT 15SM FEW250 02/M05 A2989 RMK CI0 SLP175=

CYQF;2005-03-25 23:00;METAR CYQF 252300Z 16005KT 15SM FEW250 03/M05 A2989 RMK CI0 SLP174=

CYQF;2005-03-26 00:00;METAR CYQF 260000Z 16005KT 15SM FEW250 02/M06 A2988 RMK CI0 SLP173=

CYQF;2005-03-26 01:00;METAR CYQF 260100Z 18004KT 15SM FEW250 01/M07 A2988 RMK CI0 SLP171=

CYQF;2005-03-26 02:00;METAR CYQF 260200Z 17003KT 15SM FEW250 M01/M07 A2988 RMK CI1 SLP173=

CYQF;2005-03-26 03:00;METAR CYQF 260300Z 18003KT 15SM FEW250 M04/M07 A2989 RMK CI1 SLP181=

CYQF;2005-03-26 04:00;METAR CYQF 260400Z 00000KT 15SM SKC M04/M08 A2989 RMK SLP183=

CYQF;2005-03-26 05:00;METAR CYQF 260500Z 15005KT 15SM SCT250 M06/M09 A2989 RMK CI2 SLP183=

CYQF;2005-03-26 06:00;METAR CYQF 260600Z 00000KT 15SM SKC M06/M10 A2990 RMK SLP180=

CYQF;2005-03-26 07:00;METAR CYQF 260700Z 00000KT 15SM SKC M07/M11 A2989 RMK SLP176=

CYQF;2005-03-26 08:00;METAR CYQF 260800Z 00000KT 15SM FEW250 M08/M10 A2985 RMK CI2 SLP165=

CYQF;2005-03-26 09:00;METAR CYQF 260900Z 00000KT 15SM FEW250 M08/M11 A2986 RMK CI1 SLP159=

CYQF;2005-03-26 10:00;METAR CYQF 261000Z 00000KT 15SM FEW250 M11/M13 A2985 RMK CI1 SLP157=

CYQF;2005-03-26 11:00;METAR CYQF 261100Z 21005KT 15SM FEW250 M12/M15 A2983 RMK CI1 SLP151=

CYQF;2005-03-26 12:00;METAR CYQF 261200Z 21005KT 15SM FEW250 M10/M12 A2982 RMK CI1 SLP146=

CYQF;2005-03-26 14:00;METAR CYQF 261400Z 17003KT 15SM BKN250 M12/M14 A2978 RMK CI3 SLP134=

CYQF;2005-03-26 15:00;METAR CYQF 261500Z 00000KT 15SM BKN250 M09/M12 A2974 RMK CI6 SLP125=

CYQF;2005-03-26 16:00;METAR CYQF 261600Z 00000KT 15SM SCT100 OVC250 M06/M09 A2971 RMK AC3CI4 SLP116=

CYQF;2005-03-26 17:00;METAR CYQF 261700Z 16006KT 15SM SCT120 OVC250 M02/M04 A2967 RMK AC4CI4 SLP102=

CYQF;2005-03-26 18:00;METAR CYQF 261800Z 18008KT 15SM BKN120 OVC250 01/M03 A2963 RMK AC5CI3 SLP076=

CYQF;2005-03-26 19:00;METAR CYQF 261900Z 15012KT 15SM BKN120 OVC250 03/01 A2956 RMK AC6CI2 SLP055=

CYQF;2005-03-26 20:00;METAR CYQF 262000Z 17010KT 15SM BKN120 OVC250 03/00 A2952 RMK AC6CI2 SLP044=

CYQF;2005-03-26 21:00;METAR CYQF 262100Z 17011KT 15SM FEW040 OVC100 03/00 A2947 RMK SC1AC7 SLP021=

CYQF;2005-03-26 22:00;METAR CYQF 262200Z 17010KT 15SM FEW040 OVC100 04/00 A2945 RMK SC1AC7 SLP015=

CYQF;2005-03-26 23:00;METAR CYQF 262300Z 18008KT 15SM FEW040 BKN100 OVC250 04/01 A2942 RMK SC1AC5CI2 SLP007=

CYQF;2005-03-27 00:00;METAR CYQF 270000Z 20008KT 15SM SCT100 BKN250 05/02 A2941 RMK AC3CI2 SLP000=

CYQF;2005-03-27 01:00;METAR CYQF 270100Z 23008KT 15SM SCT100 BKN250 05/02 A2940 RMK AC3CI2 SLP999=

CYQF;2005-03-27 02:00;METAR CYQF 270200Z 20004KT 15SM FEW100 BKN250 04/00 A2940 RMK AC2CI2 SLP997=

CYQF;2005-03-27 03:00;METAR CYQF 270300Z 26004KT 15SM FEW100 BKN250 01/M04 A2941 RMK AC2CI2 SLP004=

CYQF;2005-03-27 04:00;METAR CYQF 270400Z 23008KT 15SM FEW100 BKN250 01/M04 A2941 RMK AC2CI2 SLP005=

CYQF;2005-03-27 05:00;METAR CYQF 270500Z 27010KT 15SM SCT250 02/M03 A2941 RMK CI2 SLP005=

CYQF;2005-03-27 06:00;METAR CYQF 270600Z 24005KT 15SM SCT250 01/M03 A2944 RMK CI2 SLP002=

CYQF;2005-03-27 07:00;METAR CYQF 270700Z 00000KT 15SM FEW250 M00/M04 A2945 RMK CI1 SLP005=

CYQF;2005-03-27 08:00;METAR CYQF 270800Z 24010KT 15SM FEW250 01/M06 A2945 RMK CI1 SLP007=

CYQF;2005-03-27 09:00;METAR CYQF 270900Z 24010KT 15SM FEW250 M00/M07 A2945 RMK CI2 SLP006=

CYQF;2005-03-27 10:00;METAR CYQF 271000Z 24009KT 15SM BKN250 M02/M08 A2946 RMK CI3 SLP007=

CYQF;2005-03-27 11:00;METAR CYQF 271100Z 23006KT 15SM BKN250 M05/M10 A2946 RMK CI4 SLP009=

CYQF;2005-03-27 12:00;METAR CYQF 271200Z 20004KT 15SM SCT250 M05/M09 A2945 RMK CI2 SLP009=

CYQF;2005-03-27 13:00;METAR CYQF 271300Z 21006KT 15SM BKN250 M07/M09 A2944 RMK CI3 SLP006=

CYQF;2005-03-27 14:00;METAR CYQF 271400Z 22009KT 15SM BKN250 M08/M10 A2946 RMK CI5 SLP010=

CYQF;2005-03-27 15:00;METAR CYQF 271500Z 20005KT 15SM FEW100 BKN250 M04/M08 A2945 RMK AC2CI3 SLP012=

CYQF;2005-03-27 16:00;METAR CYQF 271600Z 20005KT 15SM FEW100 OVC250 M02/M04 A2944 RMK AC2CI5 SLP009=

CYQF;2005-03-27 17:00;METAR CYQF 271700Z 22004KT 15SM FEW100 OVC250 01/M03 A2945 RMK AC2CI4 SLP011=

CYQF;2005-03-27 19:00;METAR CYQF 271900Z 15003KT 15SM SCT090 BKN250 07/04 A2942 RMK AC3CI2 SLP994=

CYQF;2005-03-27 20:00;METAR CYQF 272000Z 16004KT 15SM FEW090 BKN250 08/04 A2940 RMK AC2CI3 SLP988=

CYQF;2005-03-27 21:00;METAR CYQF 272100Z 18003KT 15SM FEW090 BKN250 08/04 A2938 RMK AC2CI3 SLP976=

CYQF;2005-03-27 22:00;METAR CYQF 272200Z 16004KT 15SM FEW090 BKN250 08/05 A2936 RMK AC1CI3 SLP969=

CYQF;2005-03-27 23:00;METAR CYQF 272300Z 19006KT 15SM FEW090 SCT250 08/05 A2934 RMK AC1CI2 SLP964=

CYQF;2005-03-28 00:00;METAR CYQF 280000Z 18005KT 15SM FEW090 SCT250 07/04 A2932 RMK AC1CI2 SLP961=

CYQF;2005-03-28 01:00;METAR CYQF 280100Z 00000KT 15SM FEW090 BKN250 08/04 A2932 RMK AC2CI1 SLP961=

CYQF;2005-03-28 02:00;METAR CYQF 280200Z 00000KT 15SM FEW090 BKN250 06/00 A2930 RMK AC2CI1 SLP956=

CYQF;2005-03-28 03:00;METAR CYQF 280300Z 07003KT 15SM FEW090 BKN250 03/M01 A2930 RMK AC1CI1 SLP959=

CYQF;2005-03-28 04:00;METAR CYQF 280400Z 00000KT 15SM FEW090 BKN250 01/M03 A2930 RMK AC1CI1 SLP958=

CYQF;2005-03-28 06:00;METAR CYQF 280600Z 21004KT 15SM BKN250 00/M02 A2930 RMK CI2 SLP951=

CYQF;2005-03-28 07:00;METAR CYQF 280700Z 23002KT 15SM BKN250 01/M02 A2928 RMK CI2 SLP945=

CYQF;2005-03-28 08:00;METAR CYQF 280800Z 00000KT 15SM BKN250 M01/M04 A2926 RMK CI2 SLP938=

CYQF;2005-03-28 09:00;METAR CYQF 280900Z 19003KT 15SM BKN250 M02/M05 A2926 RMK CI2 SLP937=

CYQF;2005-03-28 10:00;METAR CYQF 281000Z 00000KT 15SM BKN250 M03/M05 A2924 RMK CI2 SLP929=

CYQF;2005-03-28 11:00;METAR CYQF 281100Z 26006KT 15SM FEW100 SCT250 M04/M06 A2924 RMK AC1CI2 SLP929=

CYQF;2005-03-28 13:00;METAR CYQF 281300Z 00000KT 15SM BKN100 BKN250 M03/M06 A2922 RMK AC6CI1 SLP926=

CYQF;2005-03-28 14:00;METAR CYQF 281400Z 00000KT 15SM BKN100 BKN250 M02/M04 A2922 RMK AC6CI1 SLP927=

CYQF;2005-03-28 15:00;METAR CYQF 281500Z 19007KT 15SM BKN090 OVC250 M01/M03 A2922 RMK AC6CI1 VIRGA SLP927=

CYQF;2005-03-28 15:52;SPECI CYQF 281552Z 29007KT 15SM -SHRA SCT050 BKN090 OVC250 RMK SC3AC4CI1=

CYQF;2005-03-28 16:00;METAR CYQF 281600Z 30006KT 15SM -SHRA SCT050 BKN090 OVC250 04/03 A2922 RMK SC4AC3CI1 SLP928=

CYQF;2005-03-28 17:00;METAR CYQF 281700Z 24007KT 15SM -SHRA BKN050 OVC090 04/03 A2923 RMK SC6AC2 SLP931=

CYQF;2005-03-28 18:00;METAR CYQF 281800Z 30008KT 15SM -SHRA BKN050 BKN090 OVC250 04/03 A2922 RMK SC5AC2CI0 SLP925=

CYQF;2005-03-28 18:27;SPECI CYQF 281827Z 01005KT 15SM SCT050 BKN090 BKN250 RMK SC4AC2CI0 SHWRS NE=

CYQF;2005-03-28 19:00;METAR CYQF 281900Z 35002KT 15SM FEW050 SCT090 BKN250 05/03 A2919 RMK CU2AC2CI2 SLP917=

CYQF;2005-03-28 20:00;METAR CYQF 282000Z 06002KT 15SM FEW050TCU FEW090 BKN250 08/05 A2919 RMK TCU1AC2CI2 SLP916=

CYQF;2005-03-28 21:00;METAR CYQF 282100Z 11004KT 15SM FEW050TCU FEW090 BKN250 06/04 A2919 RMK TCU1AC2CI2 SLP913=

CYQF;2005-03-28 22:00;METAR CYQF 282200Z 12003KT 15SM FEW050TCU FEW090 BKN250 07/04 A2918 RMK TCU1AC1CI2 SLP911=

CYQF;2005-03-28 23:00;METAR CYQF 282300Z 09004KT 15SM FEW050TCU FEW090 BKN250 07/04 A2918 RMK TCU1AC1CI2 VIRGA DIST SW+NW SLP911=

CYQF;2005-03-29 00:00;METAR CYQF 290000Z 13004KT 15SM FEW050TCU SCT090 BKN250 08/04 A2918 RMK TCU2AC2CI1 VIRGA DIST NW-W+SE SLP910=

CYQF;2005-03-29 01:00;METAR CYQF 290100Z 03007KT 15SM FEW040TCU BKN250 06/02 A2918 RMK TCU2CI2 VIRGA SLP910=

CYQF;2005-03-29 02:00;METAR CYQF 290200Z 03010KT 15SM SCT040CB BKN250 05/03 A2920 RMK CB4CI1 VIRGA SLP916=

CYQF;2005-03-29 03:00;METAR CYQF 290300Z 05010KT 15SM FEW030 BKN050CB 04/00 A2922 RMK SC2CB3 LTGIC W SLP926=

CYQF;2005-03-29 03:50;SPECI CYQF 290350Z 32007KT 10SM -SHGS FEW030 OVC050TCU RMK SC2TCU6=

CYQF;2005-03-29 04:00;METAR CYQF 290400Z 32005KT 10SM -SHGS FEW030 OVC050TCU 03/01 A2927 RMK SC2TCU6 SLP942=

CYQF;2005-03-29 04:32;SPECI CYQF 290432Z 31010G15KT 10SM -SHRASN FEW030 OVC050 RMK SC2SC6 TCU EMBD=

CYQF;2005-03-29 05:00;METAR CYQF 290500Z 32010KT 10SM -SHRASN BKN020 OVC050 01/00 A2929 RMK SC6SC2 SLP948=

CYQF;2005-03-29 05:42;SPECI CYQF 290542Z 35012KT 15SM -SHRA SCT020 BKN050 RMK SC3SC3=

CYQF;2005-03-29 06:00;METAR CYQF 290600Z 02010KT 15SM FEW020 SCT050 BKN090 02/01 A2928 RMK SC2SC2AC2 SLP944=

CYQF;2005-03-29 07:00;METAR CYQF 290700Z 00000KT 15SM FEW020 SCT090 01/00 A2926 RMK SC2AC2 SLP939=

CYQF;2005-03-29 08:00;METAR CYQF 290800Z 25010KT 15SM FEW030 BKN250 00/M01 A2928 RMK SC1CI1 SLP945=

CYQF;2005-03-29 09:00;METAR CYQF 290900Z 24008KT 15SM FEW030 SCT250 M01/M02 A2929 RMK SC1CI1 SLP948=

CYQF;2005-03-29 10:00;METAR CYQF 291000Z 24004KT 15SM FEW030 FEW250 M02/M02 A2929 RMK SC1CI1 SLP947=

CYQF;2005-03-29 11:00;METAR CYQF 291100Z 26005KT 15SM FEW030 M02/M03 A2929 RMK SC1 SLP947=

CYQF;2005-03-29 12:00;METAR CYQF 291200Z 26005KT 15SM FEW030 M02/M03 A2930 RMK SC1 SLP950=

CYQF;2005-03-29 13:00;METAR CYQF 291300Z 00000KT 15SM FEW040 FEW250 M04/M04 A2931 RMK SC1CI1 TR SC SLP953=

CYQF;2005-03-29 14:00;METAR CYQF 291400Z 20004KT 15SM SCT250 M04/M04 A2932 RMK CI2 SLP956=

CYQF;2005-03-29 15:00;METAR CYQF 291500Z 20003KT 15SM BKN250 M02/M03 A2933 RMK CI2 SLP966=

CYQF;2005-03-29 16:00;METAR CYQF 291600Z 00000KT 15SM FEW060 SCT250 01/M03 A2934 RMK SC1CI2 SLP969=

CYQF;2005-03-29 18:00;METAR CYQF 291800Z 00000KT 15SM FEW050 FEW100 BKN250 04/M01 A2936 RMK CU2AC1CI1 SLP972=

CYQF;2005-03-29 19:00;METAR CYQF 291900Z 24003KT 15SM FEW050 FEW100 BKN250 04/M01 A2937 RMK CU2AC1CI2 TCU ASOCTD SLP975=

CYQF;2005-03-29 20:00;METAR CYQF 292000Z 30003KT 15SM FEW040 BKN250 04/M01 A2938 RMK CU2CI2 TCU ASOCTD SLP979=

CYQF;2005-03-29 21:00;METAR CYQF 292100Z 00000KT 15SM FEW040 BKN250 05/M00 A2939 RMK CU2CI1 SLP982=

CYQF;2005-03-29 22:00;METAR CYQF 292200Z 35002KT 15SM FEW040TCU SCT250 07/M00 A2940 RMK TCU2CI1 SLP985=

CYQF;2005-03-29 23:00;METAR CYQF 292300Z 00000KT 15SM FEW050TCU FEW250 07/M04 A2941 RMK TCU1CI1 SLP989=

CYQF;2005-03-30 00:00;METAR CYQF 300000Z 12004KT 15SM FEW040TCU FEW250 07/M03 A2943 RMK TCU1CI1 SLP996=

CYQF;2005-03-30 01:00;METAR CYQF 300100Z 00000KT 15SM FEW040TCU FEW250 07/M02 A2944 RMK TCU1CI1 SLP000=

CYQF;2005-03-30 02:00;METAR CYQF 300200Z 00000KT 15SM FEW040 SCT250 04/M02 A2946 RMK CU1CI2 SLP006=

CYQF;2005-03-30 03:00;METAR CYQF 300300Z 36004KT 15SM FEW040 SCT250 02/M03 A2948 RMK SC1CI1 SLP020=

CYQF;2005-03-30 04:00;METAR CYQF 300400Z 01003KT 15SM FEW040 SCT250 01/M02 A2949 RMK SC1CI1 SLP023=

CYQF;2005-03-30 05:00;METAR CYQF 300500Z 35003KT 15SM FEW040 SCT090 BKN250 M00/M03 A2951 RMK SC2AC2CI1 SLP027=

CYQF;2005-03-30 07:00;METAR CYQF 300700Z 00000KT 15SM FEW050 SCT090 BKN250 M02/M03 A2954 RMK SC2AC2CI1 SLP037=

CYQF;2005-03-30 08:00;METAR CYQF 300800Z 30003KT 15SM FEW050 FEW090 SCT250 M02/M04 A2955 RMK SC1AC1CI0 SLP041=

CYQF;2005-03-30 09:00;METAR CYQF 300900Z 34005KT 15SM SCT080 BKN250 M04/M04 A2956 RMK AC3CI1 SLP047=

CYQF;2005-03-30 10:00;METAR CYQF 301000Z 18004KT 15SM SCT080 BKN250 M03/M04 A2957 RMK AC3CI2 SLP049=

CYQF;2005-03-30 11:00;METAR CYQF 301100Z 26007KT 15SM SCT080 BKN250 M03/M04 A2960 RMK AC2CI2 SLP057=

CYQF;2005-03-30 12:00;METAR CYQF 301200Z 00000KT 15SM SCT080 BKN250 M02/M09 A2963 RMK AC2CI2 SLP065=

CYQF;2005-03-30 13:00;METAR CYQF 301300Z 00000KT 15SM FEW050 BKN080 BKN250 M03/M04 A2965 RMK SC2AC3CI1 VIRGA SLP072=

CYQF;2005-03-30 14:00;METAR CYQF 301400Z 27008KT 15SM FEW050 SCT090 BKN250 M03/M04 A2968 RMK SC1AC2CI1 VIRGA SLP081=

CYQF;2005-03-30 15:00;METAR CYQF 301500Z 31006KT 15SM FEW050 FEW090 BKN250 M01/M03 A2971 RMK SC1AC2CI1 VIRGA SLP097=

CYQF;2005-03-30 16:00;METAR CYQF 301600Z 30005KT 15SM FEW050 BKN090 BKN250 01/M02 A2974 RMK SC2AC2CI1 VIRGA SLP107=

CYQF;2005-03-30 17:00;METAR CYQF 301700Z 32010KT 15SM FEW050 BKN080 BKN250 03/M04 A2977 RMK SC2AC4CI1 SLP117=

CYQF;2005-03-30 18:00;METAR CYQF 301800Z 34010G15KT 15SM FEW040 FEW090 SCT250 04/M04 A2980 RMK CU1AC1CI1 SLP127=

CYQF;2005-03-30 19:00;METAR CYQF 301900Z 32012G20KT 15SM FEW045 SCT250 05/M07 A2982 RMK CU1CI2 SLP132=

CYQF;2005-03-30 20:00;METAR CYQF 302000Z 30011KT 15SM FEW045 BKN220 05/M05 A2984 RMK CU1CI2 SLP138=

CYQF;2005-03-30 21:00;METAR CYQF 302100Z 28010G15KT 15SM FEW040 SCT090 BKN220 05/M04 A2985 RMK CU2AC2CI1 TCU SW SLP147=

CYQF;2005-03-30 22:00;METAR CYQF 302200Z 28010KT 15SM FEW040 FEW090 SCT220 05/M03 A2988 RMK CU2AC1CI1 TCU SW SLP156=

CYQF;2005-03-30 23:00;METAR CYQF 302300Z 27010KT 15SM FEW030 FEW090 05/M02 A2989 RMK CU1AC1 SLP160=

CYQF;2005-03-31 00:00;METAR CYQF 310000Z 36006KT 15SM FEW030 SCT250 06/M07 A2992 RMK CU2CI1 SLP167=

CYQF;2005-03-31 02:00;METAR CYQF 310200Z 30007KT 15SM FEW030TCU FEW250 03/M08 A2998 RMK TCU1CI0 VIRGA DIST S SLP185=

CYQF;2005-03-31 03:00;METAR CYQF 310300Z 30006KT 15SM FEW030 01/M08 A3002 RMK SC1 SLP205=

CYQF;2005-03-31 04:00;METAR CYQF 310400Z 30011KT 15SM SKC 02/M09 A3005 RMK SLP214=

CYQF;2005-03-31 05:00;METAR CYQF 310500Z 27007KT 15SM SKC M01/M08 A3008 RMK SLP224=

CYQF;2005-03-31 06:00;METAR CYQF 310600Z 27006KT 15SM SKC M02/M08 A3011 RMK SLP236=

CYQF;2005-03-31 07:00;METAR CYQF 310700Z 27007KT 15SM SKC M03/M08 A3014 RMK SLP244=

CYQF;2005-03-31 08:00;METAR CYQF 310800Z 29004KT 15SM SKC M04/M09 A3015 RMK SLP249=

CYQF;2005-03-31 09:00;METAR CYQF 310900Z 22004KT 15SM SKC M05/M09 A3017 RMK SLP260=

CYQF;2005-03-31 10:00;METAR CYQF 311000Z 24008KT 15SM SKC M04/M10 A3018 RMK SLP263=

CYQF;2005-03-31 11:00;METAR CYQF 311100Z 23004KT 15SM SKC M06/M09 A3019 RMK SLP265=

CYQF;2005-03-31 12:00;METAR CYQF 311200Z 22005KT 15SM SKC M05/M09 A3021 RMK SLP273=

CYQF;2005-03-31 13:00;METAR CYQF 311300Z 22006KT 15SM FEW120 SCT250 M05/M09 A3023 RMK AC1CI1 SLP278=

CYQF;2005-03-31 14:00;METAR CYQF 311400Z 18005KT 15SM FEW120 BKN250 M04/M08 A3021 RMK AC2CI2 SLP272=

CYQF;2005-03-31 15:00;METAR CYQF 311500Z 19006KT 15SM FEW120 SCT250 M02/M06 A3018 RMK AC2CI2 SLP264=

CYQF;2005-03-31 16:00;METAR CYQF 311600Z 18005KT 15SM FEW250 02/M06 A3016 RMK CI2 SLP258=

CYQF;2005-03-31 17:00;METAR CYQF 311700Z 19006KT 15SM FEW250 04/M04 A3015 RMK CI1 SLP253=

CYQF;2005-03-31 18:00;METAR CYQF 311800Z 20010KT 15SM FEW250 06/M06 A3012 RMK CI1 SLP236=

CYQF;2005-03-31 19:00;METAR CYQF 311900Z 19010KT 15SM FEW250 07/M06 A3009 RMK CI2 SLP228=

CYQF;2005-03-31 20:00;METAR CYQF 312000Z 20008KT 15SM SCT250 08/M05 A3006 RMK CI2 SLP219=

CYQF;2005-03-31 21:00;METAR CYQF 312100Z 18005KT 15SM FEW250 10/M05 A3004 RMK CI1 SLP206=

CYQF;2005-03-31 22:00;METAR CYQF 312200Z 18005KT 15SM FEW250 10/M04 A3002 RMK CI1 SLP201=

CYQF;2005-03-31 23:00;METAR CYQF 312300Z 18005KT 15SM FEW250 10/M07 A3000 RMK CI1 SLP196=

CYQF;2005-04-01 00:00;METAR CYQF 010000Z 17004KT 15SM SCT250 11/M05 A2998 RMK CI2 SLP187=

CYQF;2005-04-01 01:00;METAR CYQF 010100Z 14005KT 15SM BKN250 09/M04 A2997 RMK CI3 SLP183=

CYQF;2005-04-01 02:00;METAR CYQF 010200Z 15005KT 15SM BKN250 07/M03 A2995 RMK CI4 SLP178=

CYQF;2005-04-01 03:00;METAR CYQF 010300Z 17007KT 15SM BKN250 03/M02 A2994 RMK CI5 SLP177=

CYQF;2005-04-01 04:00;METAR CYQF 010400Z 19008KT 15SM SCT250 03/M03 A2992 RMK CI2 SLP172=

CYQF;2005-04-01 05:00;METAR CYQF 010500Z 20006KT 15SM FEW100 SCT250 02/M02 A2990 RMK AC1CI2 SLP166=

CYQF;2005-04-01 06:00;METAR CYQF 010600Z 18008KT 15SM FEW100 BKN250 02/M03 A2989 RMK AC1CI2 SLP151=

CYQF;2005-04-01 07:00;METAR CYQF 010700Z 19009KT 15SM FEW100 BKN250 02/M03 A2986 RMK AC1CI2 SLP143=

CYQF;2005-04-01 08:00;METAR CYQF 010800Z 18006KT 15SM FEW100 BKN250 01/M03 A2982 RMK AC2CI4 SLP129=

CYQF;2005-04-01 09:00;METAR CYQF 010900Z 19008KT 15SM FEW100 BKN250 02/M02 A2980 RMK AC2CI4 SLP118=

CYQF;2005-04-01 10:00;METAR CYQF 011000Z 19007KT 15SM FEW100 BKN250 03/M02 A2976 RMK AC2CI2 SLP105=

CYQF;2005-04-01 11:00;METAR CYQF 011100Z 18008KT 15SM FEW100 BKN250 03/M02 A2973 RMK AC2CI2 SLP096=

CYQF;2005-04-01 12:00;METAR CYQF 011200Z 17007KT 15SM FEW100 BKN250 02/M03 A2971 RMK AC2CI2 SLP084=

CYQF;2005-04-01 13:00;METAR CYQF 011300Z 16007KT 15SM FEW100 BKN250 02/M02 A2967 RMK AC2CI2 SLP073=

CYQF;2005-04-01 14:00;METAR CYQF 011400Z 21010KT 15SM SCT100 BKN250 04/M02 A2965 RMK AC3CI3 SLP067=

CYQF;2005-04-01 15:00;METAR CYQF 011500Z 24006KT 15SM FEW100 BKN250 04/M02 A2961 RMK AC2CI4 SLP056=

CYQF;2005-04-01 16:00;METAR CYQF 011600Z 22012G20KT 15SM FEW100 BKN250 07/M02 A2960 RMK AC2CI4 SLP052=

CYQF;2005-04-01 17:00;METAR CYQF 011700Z 22010G15KT 15SM FEW100 BKN250 10/M00 A2958 RMK AC2CI4 SLP047=

CYQF;2005-04-01 18:00;METAR CYQF 011800Z 21012KT 15SM BKN250 12/02 A2956 RMK CI4 SLP032=

CYQF;2005-04-01 19:00;METAR CYQF 011900Z 16010G15KT 15SM FEW090 BKN250 13/00 A2953 RMK AC1CI3 SLP021=

CYQF;2005-04-01 20:00;METAR CYQF 012000Z 22015G22KT 15SM FEW050 BKN250 15/02 A2951 RMK CF1CI2 SLP014=

CYQF;2005-04-01 21:00;METAR CYQF 012100Z 23010G15KT 15SM FEW050 BKN250 14/M01 A2950 RMK CU1CI2 SLP008=

CYQF;2005-04-01 22:00;METAR CYQF 012200Z 25010G18KT 15SM FEW040 SCT250 14/00 A2948 RMK CU1CI2 SLP001=

CYQF;2005-04-01 23:00;METAR CYQF 012300Z 25012KT 15SM FEW040 FEW250 14/M01 A2946 RMK CU1CI1 TCU W SLP997=

CYQF;2005-04-02 00:00;METAR CYQF 020000Z 26010KT 15SM FEW050 FEW250 12/M01 A2947 RMK CU1CI1 TR CU SLP999=

CYQF;2005-04-02 01:00;METAR CYQF 020100Z 26012KT 15SM FEW050 FEW250 10/M02 A2948 RMK CU1CI1 TR CI SLP003=

CYQF;2005-04-02 02:00;METAR CYQF 020200Z 26015KT 15SM FEW050 FEW250 07/M02 A2949 RMK CU1CI1 TR CU SLP006=

CYQF;2005-04-02 03:00;METAR CYQF 020300Z 22014KT 15SM FEW050 FEW250 05/M00 A2951 RMK SC1CI1 SLP020=

CYQF;2005-04-02 04:00;METAR CYQF 020400Z 31008KT 15SM FEW050 SCT250 03/M03 A2957 RMK SC1CI1 SLP037=

CYQF;2005-04-02 05:00;METAR CYQF 020500Z 02008KT 15SM BKN100 OVC250 04/M01 A2961 RMK AC5CI2 SLP051=

CYQF;2005-04-02 07:00;METAR CYQF 020700Z 02010KT 15SM FEW030 BKN100 OVC250 01/M00 A2968 RMK SC1AC5CI2 SLP072=

CYQF;2005-04-02 08:00;METAR CYQF 020800Z 07003KT 15SM FEW030 OVC100 00/M00 A2970 RMK SC2AC6 SLP077=

CYQF;2005-04-02 09:00;METAR CYQF 020900Z 19007KT 15SM BKN100 OVC250 M01/M01 A2971 RMK AC6CI2 SLP085=

CYQF;2005-04-02 10:00;METAR CYQF 021000Z 23008KT 15SM FEW100 M02/M02 A2973 RMK AC2 SLP090=

CYQF;2005-04-02 11:00;METAR CYQF 021100Z 23008KT 15SM SKC M03/M03 A2976 RMK SLP098=

CYQF;2005-04-02 12:00;METAR CYQF 021200Z 24007KT 15SM SKC M02/M03 A2978 RMK SLP112=

CYQF;2005-04-02 13:00;METAR CYQF 021300Z 17002KT 15SM FEW050 M02/M02 A2978 RMK SC2 CU EMBD SLP112=

CYQF;2005-04-02 14:00;METAR CYQF 021400Z 20002KT 15SM FEW050TCU FEW100 M02/M03 A2979 RMK TCU1AC1 SLP115=

CYQF;2005-04-02 15:00;METAR CYQF 021500Z 00000KT 15SM FEW050TCU FEW100 01/M02 A2980 RMK TCU2AC1 SLP123=

CYQF;2005-04-02 16:00;METAR CYQF 021600Z 23006KT 15SM FEW050 FEW250 03/M00 A2980 RMK CU1CI0 SLP123=

CYQF;2005-04-02 17:00;METAR CYQF 021700Z 28004KT 15SM FEW050 FEW250 05/M03 A2980 RMK CU1CI1 SLP124=

CYQF;2005-04-02 18:00;METAR CYQF 021800Z 30005KT 15SM FEW050 FEW250 05/M04 A2979 RMK CU1CI1 TCU NW SLP119=

CYQF;2005-04-02 19:00;METAR CYQF 021900Z 34006KT 15SM FEW050 BKN250 06/M05 A2978 RMK CU1CI2 SLP115=

CYQF;2005-04-02 20:00;METAR CYQF 022000Z 35006KT 15SM FEW050 BKN250 06/M08 A2977 RMK CU1CI2 SLP111=

CYQF;2005-04-02 21:00;METAR CYQF 022100Z 12003KT 15SM FEW050 BKN250 07/M08 A2975 RMK CU1CI1 SLP104=

CYQF;2005-04-02 22:00;METAR CYQF 022200Z 25006KT 15SM FEW050 BKN250 08/M09 A2973 RMK CU1CI0 SLP100=

CYQF;2005-04-02 23:00;METAR CYQF 022300Z 30007KT 15SM FEW050 FEW100 BKN250 08/M10 A2973 RMK CU1AC1CI0 SLP099=

CYQF;2005-04-03 00:00;METAR CYQF 030000Z 00000KT 15SM FEW050 FEW100 SCT250 08/M12 A2972 RMK CU1AC1CI0 SLP095=

CYQF;2005-04-03 01:00;METAR CYQF 030100Z 19002KT 15SM FEW050 FEW100 SCT250 08/M11 A2972 RMK CU1AC1CI0 SLP096=

CYQF;2005-04-03 02:00;METAR CYQF 030200Z 00000KT 15SM FEW050 FEW100 SCT250 05/M08 A2971 RMK CU1AC1CI1 TR CU SLP094=

CYQF;2005-04-03 03:00;METAR CYQF 030300Z 21005KT 15SM FEW100 FEW250 01/M07 A2972 RMK AC1CI0 SLP100=

CYQF;2005-04-03 04:00;METAR CYQF 030400Z 27006KT 15SM FEW250 01/M07 A2973 RMK CI1 SLP103=

CYQF;2005-04-03 05:00;METAR CYQF 030500Z 29006KT 15SM SCT250 00/M09 A2974 RMK CI1 SLP105=

CYQF;2005-04-03 06:00;METAR CYQF 030600Z 27003KT 15SM SCT250 M01/M08 A2974 RMK CI2 SLP105=

CYQF;2005-04-03 07:00;METAR CYQF 030700Z 24005KT 15SM SCT250 M03/M06 A2974 RMK CI2 SLP106=

CYQF;2005-04-03 08:00;METAR CYQF 030800Z 00000KT 15SM SCT250 M02/M06 A2973 RMK CI2 SLP103=

CYQF;2005-04-03 09:00;METAR CYQF 030900Z 19003KT 15SM SKC M03/M06 A2972 RMK SLP098=

CYQF;2005-04-03 10:00;METAR CYQF 031000Z 18004KT 15SM FEW250 M03/M06 A2971 RMK CI1 SLP096=

CYQF;2005-04-03 11:00;METAR CYQF 031100Z 22004KT 15SM SKC M06/M07 A2971 RMK SLP094=

CYQF;2005-04-03 12:00;METAR CYQF 031200Z 24004KT 15SM SKC M05/M07 A2970 RMK SLP093=

CYQF;2005-04-03 13:00;METAR CYQF 031300Z 18003KT 15SM FEW250 M04/M06 A2969 RMK CI1 SLP090=

CYQF;2005-04-03 14:00;METAR CYQF 031400Z 00000KT 15SM FEW250 M04/M06 A2969 RMK CI1 SLP088=

CYQF;2005-04-03 15:00;METAR CYQF 031500Z 20002KT 15SM BKN250 M01/M05 A2968 RMK CI0 SLP089=

CYQF;2005-04-03 16:00;METAR CYQF 031600Z 15002KT 15SM BKN250 02/M04 A2967 RMK CI0 SLP085=

CYQF;2005-04-03 17:00;METAR CYQF 031700Z 18005KT 15SM FEW250 05/M06 A2966 RMK CI0 SLP081=

CYQF;2005-04-03 18:00;METAR CYQF 031800Z 14009KT 15SM FEW250 07/M09 A2964 RMK CI1 SLP068=

CYQF;2005-04-03 19:00;METAR CYQF 031900Z 15009KT 15SM BKN250 08/M08 A2962 RMK CI2 SLP063=

CYQF;2005-04-03 20:00;METAR CYQF 032000Z 14013KT 15SM BKN250 09/M08 A2960 RMK CI1 SLP057=

CYQF;2005-04-03 21:00;METAR CYQF 032100Z 15012KT 15SM BKN250 09/M09 A2958 RMK CI2 SLP048=

CYQF;2005-04-03 22:00;METAR CYQF 032200Z 15013KT 15SM BKN250 09/M08 A2957 RMK CI4 SLP044=

CYQF;2005-04-03 23:00;METAR CYQF 032300Z 15009KT 15SM FEW110 BKN250 10/M08 A2955 RMK AC2CI2 SLP039=

CYQF;2005-04-04 00:00;METAR CYQF 040000Z 15009KT 15SM FEW110 BKN250 09/M06 A2955 RMK AC2CI3 SLP037=

CYQF;2005-04-04 01:00;METAR CYQF 040100Z 14006KT 15SM FEW110 BKN250 08/M05 A2953 RMK AC2CI2 SLP033=

CYQF;2005-04-04 02:00;METAR CYQF 040200Z 13005KT 15SM FEW110 BKN250 07/M04 A2952 RMK AC2CI2 SLP029=

CYQF;2005-04-04 03:00;METAR CYQF 040300Z 13004KT 15SM FEW110 BKN250 05/M04 A2952 RMK AC1CI2 SLP028=

CYQF;2005-04-04 04:00;METAR CYQF 040400Z 16003KT 15SM FEW110 SCT250 04/M03 A2951 RMK AC1CI1 SLP027=

CYQF;2005-04-04 05:00;METAR CYQF 040500Z 17003KT 15SM FEW100 BKN250 03/M02 A2951 RMK AC2CI1 SLP026=

CYQF;2005-04-04 06:00;METAR CYQF 040600Z 16006KT 15SM FEW100 SCT250 03/M02 A2951 RMK AC2CI0 SLP017=

CYQF;2005-04-04 07:00;METAR CYQF 040700Z 16006KT 15SM FEW250 03/M02 A2950 RMK CI1 SLP014=

CYQF;2005-04-04 08:00;METAR CYQF 040800Z 21004KT 15SM FEW250 M01/M03 A2950 RMK CI1 SLP016=

CYQF;2005-04-04 09:00;METAR CYQF 040900Z 21003KT 15SM FEW250 M01/M02 A2951 RMK CI0 SLP020=

CYQF;2005-04-04 10:00;METAR CYQF 041000Z 00000KT 15SM FEW250 M02/M03 A2952 RMK CI0 SLP022=

CYQF;2005-04-04 11:00;METAR CYQF 041100Z 00000KT 15SM FEW250 M03/M03 A2952 RMK CI0 SLP024=

CYQF;2005-04-04 12:00;METAR CYQF 041200Z 23004KT 15SM SCT250 M04/M04 A2954 RMK CI0 SLP034=

CYQF;2005-04-04 13:00;METAR CYQF 041300Z 00000KT 15SM SCT250 M03/M04 A2956 RMK CI0 FROIN SLP040=

CYQF;2005-04-04 14:00;METAR CYQF 041400Z 00000KT 15SM BKN250 M02/M03 A2957 RMK CI1 SLP045=

CYQF;2005-04-04 15:00;METAR CYQF 041500Z 25003KT 15SM BKN250 01/M02 A2960 RMK CI2 SLP053=

CYQF;2005-04-04 16:00;METAR CYQF 041600Z 30006KT 15SM FEW100 BKN250 04/M02 A2961 RMK AC1CI2 SLP057=

CYQF;2005-04-04 17:00;METAR CYQF 041700Z 32008KT 15SM FEW100 BKN250 06/M03 A2963 RMK AC1CI2 SLP062=

CYQF;2005-04-04 18:00;METAR CYQF 041800Z 34007KT 15SM FEW100 BKN250 07/M03 A2965 RMK AC2CI2 SLP066=

CYQF;2005-04-04 19:00;METAR CYQF 041900Z 32011KT 15SM FEW100 BKN250 08/M03 A2966 RMK AC2CI2 SLP069=

CYQF;2005-04-04 20:00;METAR CYQF 042000Z 35012G20KT 15SM FEW100 BKN250 10/M03 A2966 RMK AC2CI2 SLP071=

CYQF;2005-04-04 21:00;METAR CYQF 042100Z 36014KT 15SM FEW100 BKN250 09/M03 A2968 RMK AC1CI3 SLP080=

CYQF;2005-04-04 22:00;METAR CYQF 042200Z 35012KT 15SM FEW100 BKN250 09/M02 A2970 RMK AC1CI3 SLP086=

CYQF;2005-04-04 23:00;METAR CYQF 042300Z 02012KT 15SM FEW100 OVC250 09/M02 A2973 RMK AC1CI4 SLP093=

CYQF;2005-04-05 00:00;METAR CYQF 050000Z 03008KT 15SM FEW100 BKN250 08/M02 A2975 RMK AC2CI4 SLP106=

CYQF;2005-04-05 01:00;METAR CYQF 050100Z 03005KT 15SM FEW100 OVC250 08/M00 A2977 RMK AC2CI2 SLP115=

CYQF;2005-04-05 02:00;METAR CYQF 050200Z 03004KT 15SM FEW100 OVC250 06/M00 A2979 RMK AC2CI2 6.0 SLP121=

CYQF;2005-04-05 03:00;METAR CYQF 050300Z 00000KT 15SM FEW100 BKN250 04/00 A2982 RMK AC2CI3 SLP132=

CYQF;2005-04-05 04:00;METAR CYQF 050400Z 27003KT 15SM FEW100 BKN250 02/M00 A2986 RMK AC1CI2 SLP144=

CYQF;2005-04-05 05:00;METAR CYQF 050500Z 28005KT 15SM SCT250 01/M01 A2988 RMK CI2 SLP149=

CYQF;2005-04-05 06:00;METAR CYQF 050600Z 28005KT 15SM BKN080 OVC250 02/M00 A2990 RMK AC5CI2 SLP156=

CYQF;2005-04-05 07:00;METAR CYQF 050700Z 30013KT 15SM BKN250 03/M00 A2993 RMK CI5 SLP164=

CYQF;2005-04-05 08:00;METAR CYQF 050800Z 30011KT 15SM BKN250 03/01 A2995 RMK CI6 SLP171=

CYQF;2005-04-05 09:00;METAR CYQF 050900Z 31007KT 15SM SCT080 OVC250 02/01 A2999 RMK AC4CI3 SLP184=

CYQF;2005-04-05 10:00;METAR CYQF 051000Z 30012KT 15SM -SN BKN017 OVC080 02/02 A3002 RMK SC5AC3 SLP192=

CYQF;2005-04-05 11:00;METAR CYQF 051100Z 32006KT 15SM -SN BKN011 OVC080 02/01 A3003 RMK SC6AC2 SLP194=

CYQF;2005-04-05 11:45;SPECI CYQF 051145Z 28007KT 15SM FEW011 BKN080 RMK SC2AC5=

CYQF;2005-04-05 12:00;METAR CYQF 051200Z 31005KT 15SM FEW011 BKN080 01/M01 A3005 RMK SC2AC5 SLP207=

CYQF;2005-04-05 13:00;METAR CYQF 051300Z 25005KT 15SM FEW011 SCT080 M00/M00 A3007 RMK SC2AC2 SLP212=

CYQF;2005-04-05 13:09;SPECI CYQF 051309Z 27004KT 10SM BKN005 RMK ST7=

CYQF;2005-04-05 14:00;METAR CYQF 051400Z 24002KT 15SM BKN004 01/01 A3008 RMK ST7 SLP215=

CYQF;2005-04-05 14:36;SPECI CYQF 051436Z 25004KT 3SM BR OVC002 RMK ST8=

CYQF;2005-04-05 15:00;METAR CYQF 051500Z 26004KT 3SM BR OVC003 01/01 A3009 RMK ST8 SLP226=

CYQF;2005-04-05 15:19;SPECI CYQF 051519Z 23005KT 1SM BR BKN003 RMK FG6ST1=

CYQF;2005-04-05 16:00;METAR CYQF 051600Z 22003KT 1 1/2SM BR OVC003 01/01 A3010 RMK FG6ST2 SLP228=

CYQF;2005-04-05 16:08;SPECI CYQF 051608Z 00000KT 3SM BR BKN005 RMK FG2SC4 VIS SW 1=

CYQF;2005-04-05 16:47;SPECI CYQF 051647Z 17003KT 10SM FEW006 BKN280 RMK SF2CI1=

CYQF;2005-04-05 17:00;METAR CYQF 051700Z 00000KT 15SM FEW008 SCT280 04/02 A3010 RMK CF2CI1 SLP229=

CYQF;2005-04-05 18:00;METAR CYQF 051800Z 16002KT 15SM FEW015 BKN250 07/03 A3011 RMK CU1CI1 SLP226=

CYQF;2005-04-05 19:00;METAR CYQF 051900Z 21003KT 15SM FEW030 BKN250 08/M01 A3010 RMK CU1CI2 SLP225=

CYQF;2005-04-05 20:00;METAR CYQF 052000Z 16003KT 15SM FEW045 OVC250 09/M03 A3009 RMK CU1CI3 SLP222=

CYQF;2005-04-05 21:00;METAR CYQF 052100Z 18002KT 15SM FEW050 OVC250 10/M05 A3008 RMK CU1CI3 SLP213=

CYQF;2005-04-05 22:00;METAR CYQF 052200Z 21006KT 15SM FEW055 BKN250 11/M05 A3005 RMK CU1CI2 SLP205=

CYQF;2005-04-05 23:00;METAR CYQF 052300Z 15010KT 15SM FEW100 BKN250 11/M08 A3006 RMK AC1CI2 TR AC SLP207=

CYQF;2005-04-06 00:00;METAR CYQF 060000Z 20005KT 15SM BKN250 11/M08 A3005 RMK CI2 SLP205=

CYQF;2005-04-06 01:00;METAR CYQF 060100Z 21005KT 15SM FEW100 BKN250 11/M05 A3005 RMK AC1CI2 SLP204=

CYQF;2005-04-06 02:00;METAR CYQF 060200Z 00000KT 15SM FEW100 SCT250 09/M02 A3005 RMK AC1CI2 SLP203=

CYQF;2005-04-06 03:00;METAR CYQF 060300Z 15002KT 15SM FEW100 FEW250 06/M02 A3006 RMK AC1CI1 SLP214=

CYQF;2005-04-06 04:00;METAR CYQF 060400Z 16004KT 15SM FEW100 FEW250 04/M02 A3006 RMK AC1CI1 SLP214=

CYQF;2005-04-06 05:00;METAR CYQF 060500Z 16008KT 15SM FEW250 04/M03 A3006 RMK CI1 SLP213=

CYQF;2005-04-06 06:00;METAR CYQF 060600Z 20007KT 15SM FEW250 02/M03 A3006 RMK CI2 SLP210=

CYQF;2005-04-06 07:00;METAR CYQF 060700Z 21005KT 15SM FEW250 00/M03 A3005 RMK CI1 SLP207=

CYQF;2005-04-06 09:00;METAR CYQF 060900Z 15006KT 15SM FEW250 01/M04 A3005 RMK CI1 SLP207=

CYQF;2005-04-06 10:00;METAR CYQF 061000Z 19005KT 15SM FEW250 M02/M05 A3005 RMK CI0 SLP204=

CYQF;2005-04-06 11:00;METAR CYQF 061100Z 18006KT 15SM SCT250 M01/M04 A3004 RMK CI1 SLP203=

CYQF;2005-04-06 12:00;METAR CYQF 061200Z 00000KT 15SM BKN100 BKN250 M01/M04 A3005 RMK AC5CI2 SLP204=

CYQF;2005-04-06 13:00;METAR CYQF 061300Z 00000KT 15SM SCT100 BKN250 M01/M03 A3003 RMK AC3CI2 SLP199=

CYQF;2005-04-06 14:00;METAR CYQF 061400Z 00000KT 15SM BKN100 OVC250 M01/M03 A3004 RMK AC5CI2 SLP202=

CYQF;2005-04-06 15:00;METAR CYQF 061500Z 00000KT 15SM FEW070 BKN100 OVC250 01/M02 A3004 RMK AC2AC4CI2 SLP205=

CYQF;2005-04-06 16:00;METAR CYQF 061600Z 15003KT 15SM FEW070 SCT100 BKN250 03/M02 A3004 RMK AC1AC2CI2 SLP204=

CYQF;2005-04-06 17:00;METAR CYQF 061700Z 00000KT 15SM FEW070 SCT100 BKN250 07/M00 A3003 RMK AC1AC2CI1 SLP201=

CYQF;2005-04-06 18:00;METAR CYQF 061800Z 29002KT 15SM FEW070 FEW100 BKN250 10/M03 A3001 RMK AC1AC1CI1 SLP191=

CYQF;2005-04-06 19:00;METAR CYQF 061900Z 21003KT 15SM FEW080 BKN250 12/M02 A3000 RMK AC1CI2 SLP187=

CYQF;2005-04-06 20:00;METAR CYQF 062000Z 23003KT 15SM FEW090 BKN250 14/M02 A2999 RMK AC1CI2 SLP184=

CYQF;2005-04-06 21:00;METAR CYQF 062100Z 19003KT 15SM FEW090 BKN250 16/M02 A2996 RMK AC1CI2 SLP169=

CYQF;2005-04-06 22:00;METAR CYQF 062200Z 19002KT 15SM FEW090 BKN250 16/M01 A2995 RMK AC1CI2 SLP165=

CYQF;2005-04-06 23:00;METAR CYQF 062300Z 19008KT 15SM FEW090 BKN250 17/M01 A2994 RMK AC2CI2 SLP161=

CYQF;2005-04-07 00:00;METAR CYQF 070000Z 19002KT 15SM FEW090 BKN250 17/M00 A2993 RMK AC1CI3 SLP158=

CYQF;2005-04-07 02:00;METAR CYQF 070200Z 12007KT 15SM FEW090 BKN250 15/M00 A2989 RMK AC2CI2 SLP146=

CYQF;2005-04-07 03:00;METAR CYQF 070300Z 15009KT 15SM SCT090 BKN250 12/02 A2987 RMK AC3CI2 SLP141=

CYQF;2005-04-07 04:00;METAR CYQF 070400Z 17010G15KT 15SM FEW090 BKN250 13/01 A2986 RMK AC2CI2 SLP138=

CYQF;2005-04-07 05:00;METAR CYQF 070500Z 18006KT 15SM FEW090 BKN250 10/02 A2985 RMK AC2CI5 SLP133=

CYQF;2005-04-07 06:00;METAR CYQF 070600Z 19008KT 15SM FEW090 OVC250 08/01 A2983 RMK AC2CI6 SLP121=

CYQF;2005-04-07 07:00;METAR CYQF 070700Z 17006KT 15SM SCT090 OVC250 08/01 A2982 RMK AC3CI5 SLP116=

CYQF;2005-04-07 08:00;METAR CYQF 070800Z 17007KT 15SM BKN090 OVC230 07/01 A2980 RMK AC5CI3 SLP110=

CYQF;2005-04-07 09:00;METAR CYQF 070900Z 00000KT 15SM BKN090 OVC250 06/01 A2978 RMK AC5CI3 SLP099=

CYQF;2005-04-07 10:00;METAR CYQF 071000Z 21004KT 15SM BKN100 OVC230 06/02 A2977 RMK AC6CI2 SLP095=

CYQF;2005-04-07 11:00;METAR CYQF 071100Z 19004KT 15SM BKN100 OVC250 05/01 A2975 RMK AC6CI2 SLP088=

CYQF;2005-04-07 12:00;METAR CYQF 071200Z 22003KT 15SM BKN100 OVC250 03/01 A2974 RMK AC7CI1 SLP086=

CYQF;2005-04-07 13:00;METAR CYQF 071300Z 18002KT 15SM BKN100 OVC250 03/00 A2972 RMK AC6CI1 SLP081=

CYQF;2005-04-07 14:00;METAR CYQF 071400Z 19006KT 15SM BKN120 OVC230 03/01 A2971 RMK AC6CI1 SLP076=

CYQF;2005-04-07 15:00;METAR CYQF 071500Z 00000KT 15SM BKN100 BKN230 05/02 A2968 RMK AC6CI1 VIRGA SLP071=

CYQF;2005-04-07 16:00;METAR CYQF 071600Z 00000KT 15SM BKN100 BKN230 07/02 A2965 RMK AC6CI1 VIRGA SLP061=

CYQF;2005-04-07 17:00;METAR CYQF 071700Z 16007KT 15SM BKN100 OVC230 11/04 A2963 RMK AC7CI1 SLP055=

CYQF;2005-04-07 18:00;METAR CYQF 071800Z 15003KT 15SM BKN100 OVC230 11/04 A2960 RMK AC6CI2 VIRGA SLP039=

CYQF;2005-04-07 19:00;METAR CYQF 071900Z 13005KT 15SM BKN100 OVC230 15/04 A2956 RMK AC6CI2 VIRGA SLP027=

CYQF;2005-04-07 20:00;METAR CYQF 072000Z 14008KT 15SM BKN090 OVC230 18/03 A2952 RMK AC6CI2 VIRGA SLP015=

CYQF;2005-04-07 21:00;METAR CYQF 072100Z 10012KT 15SM BKN090 BKN230 19/04 A2948 RMK AC5CI1 SLP991=

CYQF;2005-04-07 22:00;METAR CYQF 072200Z 14010KT 15SM SCT090 BKN230 19/04 A2945 RMK AC3CI2 SLP981=

CYQF;2005-04-07 23:00;METAR CYQF 072300Z 15013KT 15SM SCT090 BKN250 20/04 A2940 RMK AC3CI2 SLP968=

CYQF;2005-04-08 00:00;METAR CYQF 080000Z 15008KT 15SM FEW050 BKN090 BKN250 18/05 A2940 RMK CU2AC2CI2 SHS SW-NW SLP966=

CYQF;2005-04-08 07:00;METAR CYQF 080700Z 26002KT 15SM FEW100 SCT250 03/02 A2933 RMK AC2CI1 SLP949=

CYQF;2005-04-08 08:00;METAR CYQF 080800Z 23006KT 15SM FEW100 BKN250 03/02 A2933 RMK AC2CI2 SLP948=

CYQF;2005-04-08 10:00;METAR CYQF 081000Z 20003KT 15SM SCT100 BKN250 02/01 A2930 RMK AC4CI2 SLP932=

CYQF;2005-04-08 11:00;METAR CYQF 081100Z 19008KT 15SM FEW025 BKN100 OVC250 03/02 A2929 RMK SC2AC5CI2 SLP931=

CYQF;2005-04-08 12:00;METAR CYQF 081200Z 20006KT 15SM FEW025 BKN100 OVC250 01/01 A2928 RMK SC2AC5CI1 SLP930=

CYQF;2005-04-08 13:00;METAR CYQF 081300Z 19003KT 15SM FEW025 BKN100 OVC250 02/01 A2929 RMK SC1AC5CI2 SLP932=

CYQF;2005-04-08 14:00;METAR CYQF 081400Z 20005KT 15SM FEW025 BKN100 OVC250 03/02 A2929 RMK SC2AC5CI1 VIRGA SLP933=

CYQF;2005-04-08 15:00;METAR CYQF 081500Z 28003KT 15SM BKN040TCU OVC100 05/02 A2931 RMK TCU6AC2 VIRGA SLP942=

CYQF;2005-04-08 16:00;METAR CYQF 081600Z 31010KT 15SM BKN040TCU OVC100 08/02 A2932 RMK TCU6AC2 VIRGA/SHWRS SE SLP947=

CYQF;2005-04-08 16:47;SPECI CYQF 081647Z 30008KT 15SM -SHRA FEW025 BKN040TCU OVC100 RMK SF2TCU4AC2=

CYQF;2005-04-08 17:00;METAR CYQF 081700Z 32007KT 15SM -SHRA FEW025 BKN040TCU OVC100 07/03 A2939 RMK SF2TCU4AC2 PRESRR HVYR SHWRS SE SLP967=

CYQF;2005-04-08 18:00;METAR CYQF 081800Z 32008KT 15SM -RA FEW025 BKN040 OVC100 07/05 A2938 RMK SF2SC5AC2 SLP973=

CYQF;2005-04-08 18:44;SPECI CYQF 081844Z 31006KT 15SM FEW020 BKN050 OVC100 RMK CF2SC4AC2=

CYQF;2005-04-08 19:00;METAR CYQF 081900Z 32007KT 15SM FEW020 BKN050 OVC100 07/05 A2939 RMK CF2SC3AC2 SLP976=

CYQF;2005-04-08 19:41;SPECI CYQF 081941Z 31010G15KT 15SM -RA BKN025 OVC050 RMK SC5SC3=

CYQF;2005-04-08 20:00;METAR CYQF 082000Z 33012G20KT 12SM -RA SCT025 BKN050 OVC080 07/04 A2942 RMK SC3SC3AC2 SLP983=

CYQF;2005-04-08 21:31;SPECI CYQF 082131Z 34015G22KT 15SM SCT025 BKN050 BKN100 RMK CF3SC2AC2=

CYQF;2005-04-08 22:00;METAR CYQF 082200Z 35012G20KT 15SM FEW025 BKN050 BKN100 08/03 A2942 RMK CF2SC3AC2 SLP987=

CYQF;2005-04-08 23:00;METAR CYQF 082300Z 01010G15KT 15SM FEW025 BKN050 BKN100 09/02 A2943 RMK CF1SC4AC2 SLP990=

CYQF;2005-04-09 00:00;METAR CYQF 090000Z 33012G20KT 15SM FEW025 SCT050 BKN100 BKN250 10/01 A2945 RMK CF1SC2AC2CI1 SLP997=

CYQF;2005-04-09 01:00;METAR CYQF 090100Z 25005KT 15SM FEW025 FEW050 SCT100 BKN250 08/02 A2947 RMK CF1SC2AC2CI0 SLP002=

CYQF;2005-04-09 02:00;METAR CYQF 090200Z 28002KT 15SM FEW040 FEW100 BKN280 07/03 A2947 RMK SC1AC1CI1 SLP004=

CYQF;2005-04-09 03:00;METAR CYQF 090300Z 03007KT 15SM FEW040 FEW100 BKN280 05/02 A2951 RMK SC1AC1CI1 SLP017=

CYQF;2005-04-09 04:00;METAR CYQF 090400Z 00000KT 15SM FEW040 FEW100 BKN280 04/02 A2954 RMK SC1AC2CI1 SLP027=

CYQF;2005-04-09 05:00;METAR CYQF 090500Z 28005KT 15SM FEW040 BKN100 BKN280 04/01 A2956 RMK SC1AC4CI1 SLP035=

CYQF;2005-04-09 06:00;METAR CYQF 090600Z 28008KT 15SM FEW040 BKN100 BKN280 05/02 A2958 RMK SC1AC5CI1 SLP040=

CYQF;2005-04-09 07:00;METAR CYQF 090700Z 30016G24KT 15SM FEW040 SCT100 BKN250 04/02 A2959 RMK SC1AC3CI1 SLP043=

CYQF;2005-04-09 08:00;METAR CYQF 090800Z 23011KT 15SM FEW100 SCT250 03/01 A2960 RMK AC2CI1 SLP048=

CYQF;2005-04-09 09:00;METAR CYQF 090900Z 29010KT 15SM FEW100 SCT250 03/00 A2962 RMK AC2CI0 SLP055=

CYQF;2005-04-09 10:00;METAR CYQF 091000Z 31010KT 15SM FEW100 SCT250 02/M00 A2964 RMK AC2CI1 SLP061=

CYQF;2005-04-09 11:00;METAR CYQF 091100Z 30010KT 15SM FEW100 SCT250 02/M01 A2965 RMK AC2CI0 SLP066=

CYQF;2005-04-09 12:00;METAR CYQF 091200Z 32009KT 15SM FEW100 BKN250 02/M01 A2967 RMK AC2CI1 SLP072=

CYQF;2005-04-09 13:00;METAR CYQF 091300Z 28009KT 15SM FEW100 SCT250 01/M02 A2968 RMK AC2CI1 SLP074=

CYQF;2005-04-09 14:00;METAR CYQF 091400Z 31006KT 15SM SCT100 BKN250 02/M02 A2970 RMK AC4CI2 SLP081=

CYQF;2005-04-09 15:00;METAR CYQF 091500Z 33008KT 15SM FEW100 SCT250 03/M02 A2973 RMK AC1CI2 SLP097=

CYQF;2005-04-09 17:00;METAR CYQF 091700Z 35013KT 15SM FEW050 FEW100 BKN250 07/M05 A2976 RMK CU1AC1CI2 SLP104=

CYQF;2005-04-09 18:00;METAR CYQF 091800Z 33015G23KT 15SM FEW050 BKN250 08/M05 A2975 RMK CU1CI2 SLP099=

CYQF;2005-04-09 19:00;METAR CYQF 091900Z 31017G25KT 15SM FEW055 BKN250 08/M06 A2976 RMK CU1CI3 SLP103=

CYQF;2005-04-09 20:00;METAR CYQF 092000Z 34015G20KT 15SM FEW055 BKN250 09/M06 A2976 RMK CU1CI4 SLP101=

CYQF;2005-04-09 21:00;METAR CYQF 092100Z 33015KT 15SM FEW060 BKN250 10/M06 A2976 RMK CU1CI5 SLP100=

CYQF;2005-04-09 22:00;METAR CYQF 092200Z 34015G24KT 15SM FEW060 BKN250 10/M06 A2976 RMK CU1CI4 SLP101=

CYQF;2005-04-09 23:00;METAR CYQF 092300Z 35015KT 15SM FEW060 BKN250 10/M05 A2977 RMK CU1CI4 SLP104=

CYQF;2005-04-10 00:00;METAR CYQF 100000Z 36015G23KT 15SM FEW050 BKN220 10/M06 A2978 RMK CF1CI5 SLP110=

CYQF;2005-04-10 01:00;METAR CYQF 100100Z 01011G20KT 15SM FEW050 BKN220 09/M07 A2980 RMK CF1CI3 SLP115=

CYQF;2005-04-10 02:00;METAR CYQF 100200Z 36006KT 15SM FEW050 BKN220 08/M06 A2982 RMK SC1CI2 SLP123=

CYQF;2005-04-10 03:00;METAR CYQF 100300Z 36004KT 15SM BKN220 05/M04 A2985 RMK CI2 SLP140=

CYQF;2005-04-10 04:00;METAR CYQF 100400Z 34005KT 15SM SCT220 03/M04 A2987 RMK CI2 SLP146=

CYQF;2005-04-10 05:00;METAR CYQF 100500Z 33005KT 15SM FEW220 02/M04 A2989 RMK CI1 SLP151=

CYQF;2005-04-10 06:00;METAR CYQF 100600Z 30003KT 15SM FEW220 01/M06 A2990 RMK CI1 SLP155=

CYQF;2005-04-10 07:00;METAR CYQF 100700Z 30010KT 15SM FEW220 02/M06 A2992 RMK CI0 SLP162=

CYQF;2005-04-10 08:00;METAR CYQF 100800Z 31008KT 15SM FEW220 00/M07 A2994 RMK CI0 SLP167=

CYQF;2005-04-10 09:00;METAR CYQF 100900Z 31009KT 15SM FEW220 M01/M07 A2995 RMK CI1 SLP173=

CYQF;2005-04-10 10:00;METAR CYQF 101000Z 30007KT 15SM FEW220 00/M08 A2997 RMK CI1 SLP178=

CYQF;2005-04-10 11:00;METAR CYQF 101100Z 31008KT 15SM SCT220 M01/M07 A2998 RMK CI2 SLP182=

CYQF;2005-04-10 12:00;METAR CYQF 101200Z 31004KT 15SM FEW220 M02/M07 A3000 RMK CI1 SLP190=

CYQF;2005-04-10 13:00;METAR CYQF 101300Z 29002KT 15SM FEW220 M03/M07 A3001 RMK CI1 SLP195=

CYQF;2005-04-10 14:00;METAR CYQF 101400Z 00000KT 15SM FEW250 M01/M07 A3002 RMK CI0 SLP198=

CYQF;2005-04-10 15:00;METAR CYQF 101500Z 00000KT 15SM FEW250 03/M05 A3003 RMK CI1 TR CLD SLP201=

CYQF;2005-04-10 16:00;METAR CYQF 101600Z 30010KT 15SM FEW250 06/M06 A3004 RMK CI1 TR CLD SLP202=

CYQF;2005-04-10 17:00;METAR CYQF 101700Z 32010KT 15SM SKC 07/M07 A3004 RMK SLP202=

CYQF;2005-04-10 18:00;METAR CYQF 101800Z 34010KT 15SM FEW050 08/M08 A3003 RMK CU1 TR CLD SLP200=

CYQF;2005-04-10 19:00;METAR CYQF 101900Z 32010KT 15SM FEW060 09/M08 A3002 RMK CU1 SLP196=

CYQF;2005-04-10 20:00;METAR CYQF 102000Z 30008KT 15SM FEW060 09/M08 A3000 RMK CU1 SLP191=

CYQF;2005-04-10 21:00;METAR CYQF 102100Z 31005KT 15SM FEW060 10/M08 A2999 RMK CU1 SLP185=

CYQF;2005-04-10 22:00;METAR CYQF 102200Z 00000KT 15SM FEW060 11/M07 A2997 RMK CU1 SLP179=

CYQF;2005-04-10 23:00;METAR CYQF 102300Z 20004KT 15SM FEW060 FEW250 11/M07 A2995 RMK CU1CI1 TR CLD SLP175=

CYQF;2005-04-11 00:00;METAR CYQF 110000Z 02002KT 15SM FEW250 11/M08 A2994 RMK CI1 SLP169=

CYQF;2005-04-11 01:00;METAR CYQF 110100Z 11002KT 15SM FEW250 11/M07 A2993 RMK CI1 SLP166=

CYQF;2005-04-11 02:00;METAR CYQF 110200Z 11004KT 15SM FEW250 08/M05 A2992 RMK CI1 SLP162=

CYQF;2005-04-11 03:00;METAR CYQF 110300Z 12005KT 15SM FEW250 06/M05 A2992 RMK CI0 SLP161=

CYQF;2005-04-11 04:00;METAR CYQF 110400Z 12005KT 15SM FEW250 05/M06 A2991 RMK CI0 SLP157=

CYQF;2005-04-11 05:00;METAR CYQF 110500Z 13004KT 15SM SKC 04/M06 A2990 RMK SLP156=

CYQF;2005-04-11 06:00;METAR CYQF 110600Z 12003KT 15SM SKC 02/M06 A2990 RMK SLP153=

CYQF;2005-04-11 07:00;METAR CYQF 110700Z 14008KT 15SM SKC 02/M06 A2989 RMK SLP152=

CYQF;2005-04-11 08:00;METAR CYQF 110800Z 16007KT 15SM SKC 02/M05 A2987 RMK SLP146=

CYQF;2005-04-11 09:00;METAR CYQF 110900Z 15010KT 15SM SKC 01/M06 A2985 RMK SLP134=

CYQF;2005-04-11 10:00;METAR CYQF 111000Z 15010G15KT 15SM SKC 01/M06 A2983 RMK SLP127=

CYQF;2005-04-11 11:00;METAR CYQF 111100Z 16010G15KT 15SM SKC 01/M06 A2981 RMK SLP123=

CYQF;2005-04-11 12:00;METAR CYQF 111200Z 15010G15KT 15SM SKC M00/M06 A2979 RMK SLP113=

CYQF;2005-04-11 13:00;METAR CYQF 111300Z 16007KT 15SM FEW120 FEW250 M00/M06 A2977 RMK AC1CI1 SLP108=

CYQF;2005-04-11 14:00;METAR CYQF 111400Z 17007KT 15SM FEW120 BKN250 00/M06 A2976 RMK AC1CI2 SLP104=

CYQF;2005-04-11 16:00;METAR CYQF 111600Z 13013KT 15SM BKN250 04/M05 A2975 RMK CI3 SLP104=

CYQF;2005-04-11 17:00;METAR CYQF 111700Z 14012KT 15SM FEW100 OVC250 07/M04 A2973 RMK AC2CI3 SLP098=

CYQF;2005-04-11 18:00;METAR CYQF 111800Z 14015KT 15SM FEW100 OVC250 09/M04 A2972 RMK AC2CI3 SLP090=

CYQF;2005-04-11 19:00;METAR CYQF 111900Z 17015G25KT 15SM FEW100 OVC250 12/M05 A2970 RMK AC2CI4 SLP085=

CYQF;2005-04-11 20:00;METAR CYQF 112000Z 17015G24KT 15SM FEW100 OVC250 13/M07 A2969 RMK AC2CI4 SLP082=

CYQF;2005-04-11 21:00;METAR CYQF 112100Z 18017G26KT 15SM FEW100 OVC250 13/M07 A2969 RMK AC2CI5 SLP076=

CYQF;2005-04-11 22:00;METAR CYQF 112200Z 18016G25KT 15SM SCT100 OVC250 13/M03 A2968 RMK AC3CI4 SLP072=

CYQF;2005-04-11 23:00;METAR CYQF 112300Z 17015G22KT 15SM FEW050 BKN100 OVC250 12/M01 A2967 RMK CU1AC4CI3 SLP071=

CYQF;2005-04-12 00:00;METAR CYQF 120000Z 17013KT 15SM FEW050 BKN100 OVC250 13/M02 A2967 RMK CU1AC6CI2 SLP072=

CYQF;2005-04-12 01:00;METAR CYQF 120100Z 17009KT 15SM FEW050 BKN100 OVC250 12/M03 A2966 RMK CU1AC6CI2 SLP068=

CYQF;2005-04-12 02:00;METAR CYQF 120200Z 15012KT 15SM SCT100 BKN250 11/M02 A2966 RMK AC3CI2 VIRGA S-W SLP069=

CYQF;2005-04-12 03:00;METAR CYQF 120300Z 14010KT 15SM FEW050 SCT100 BKN250 10/M02 A2966 RMK CU2AC2CI1 VIRGA S-W SLP069=

CYQF;2005-04-12 04:00;METAR CYQF 120400Z 14008KT 15SM FEW050 FEW100 SCT250 08/M02 A2967 RMK CU1AC2CI0 SLP072=

CYQF;2005-04-12 06:00;METAR CYQF 120600Z 19005KT 15SM FEW250 03/M03 A2969 RMK CI1 SLP078=

CYQF;2005-04-12 07:00;METAR CYQF 120700Z 22006KT 15SM SKC 01/M03 A2972 RMK SLP088=

CYQF;2005-04-12 09:00;METAR CYQF 120900Z 20007KT 15SM SKC M02/M05 A2976 RMK SLP104=

CYQF;2005-04-12 10:00;METAR CYQF 121000Z 18005KT 15SM SKC M02/M04 A2977 RMK SLP108=

CYQF;2005-04-12 11:00;METAR CYQF 121100Z 25006KT 15SM SCT240 M04/M06 A2978 RMK CI2 SLP112=

CYQF;2005-04-12 12:00;METAR CYQF 121200Z 00000KT 15SM BKN240 M02/M04 A2980 RMK CI4 SLP119=

CYQF;2005-04-12 13:00;METAR CYQF 121300Z 26003KT 15SM FEW120 BKN240 M02/M05 A2982 RMK AC2CI2 SLP125=

CYQF;2005-04-12 14:00;METAR CYQF 121400Z 20004KT 15SM FEW120 BKN240 M01/M03 A2984 RMK AC1CI2 SLP129=

CYQF;2005-04-12 15:00;METAR CYQF 121500Z 35004KT 15SM SCT240 04/M01 A2984 RMK CI1 SLP130=

CYQF;2005-04-12 16:00;METAR CYQF 121600Z 34006KT 15SM SCT240 06/00 A2984 RMK CI1 SLP130=

CYQF;2005-04-12 17:00;METAR CYQF 121700Z 31006KT 15SM FEW030 SCT240 08/M02 A2984 RMK CU1CI1 SLP130=

CYQF;2005-04-12 18:00;METAR CYQF 121800Z 35008KT 15SM FEW030 SCT240 09/M03 A2983 RMK CU1CI1 SLP128=

CYQF;2005-04-12 19:00;METAR CYQF 121900Z 02004KT 15SM FEW030 SCT240 09/M03 A2983 RMK CU1CI2 SLP126=

CYQF;2005-04-12 20:00;METAR CYQF 122000Z 04005KT 15SM FEW040 BKN100 OVC240 09/M04 A2982 RMK CU2AC5CI1 SLP125=

CYQF;2005-04-12 21:00;METAR CYQF 122100Z 03006KT 15SM FEW040 BKN080 OVC240 09/M04 A2981 RMK SC2AC5CI1 VIRGA SLP126=

CYQF;2005-04-12 22:00;METAR CYQF 122200Z 18008KT 15SM BKN030 OVC080 09/M02 A2980 RMK SC6AC2 VIRGA ALQDS SLP124=

CYQF;2005-04-13 00:00;METAR CYQF 130000Z 13012KT 15SM BKN025 OVC240 09/M03 A2980 RMK CU6CI1 VIRGA/SHS ALQDS SLP123=

CYQF;2005-04-13 01:00;METAR CYQF 130100Z 15013KT 15SM FEW030 BKN050 BKN100 OVC250 08/M02 A2980 RMK SC1SC4AC1CI2 VIRGA SLP122=

CYQF;2005-04-13 02:00;METAR CYQF 130200Z 13008KT 15SM BKN050 BKN090 OVC250 07/M01 A2977 RMK SC5AC1CI2 VIRGA SLP112=

CYQF;2005-04-13 03:00;METAR CYQF 130300Z 22007KT 15SM BKN050 BKN090 OVC250 05/M01 A2981 RMK SC6AC1CI1 VIRGA SLP122=

CYQF;2005-04-13 05:00;METAR CYQF 130500Z 16005KT 15SM SCT050 SCT090 04/01 A2982 RMK SC2AC1 SLP126=

CYQF;2005-04-13 06:00;METAR CYQF 130600Z 15005KT 15SM BKN035 04/01 A2983 RMK SC6 SLP126=

CYQF;2005-04-13 07:00;METAR CYQF 130700Z 00000KT 15SM FEW035 BKN090 04/01 A2985 RMK SC2AC2 SLP130=

CYQF;2005-04-13 08:00;METAR CYQF 130800Z 32005KT 15SM FEW040 BKN090 01/00 A2986 RMK SC2AC3 SLP135=

CYQF;2005-04-13 09:00;METAR CYQF 130900Z 35003KT 15SM SCT090 BKN250 01/00 A2985 RMK AC3CI1 SLP135=

CYQF;2005-04-13 10:00;METAR CYQF 131000Z 26004KT 15SM SCT250 M02/M02 A2984 RMK CI2 SLP132=

CYQF;2005-04-13 11:00;METAR CYQF 131100Z 27004KT 15SM FEW100 OVC250 M02/M02 A2987 RMK AC2CI3 SLP141=

CYQF;2005-04-13 11:46;SPECI CYQF 131146Z 30005KT 1/2SM FZFG OVC100 RMK FG6AC2=

CYQF;2005-04-13 12:00;METAR CYQF 131200Z 30005KT 1/2SM FZFG VV004 M00/M00 A2986 RMK FG8 SLP143=

CYQF;2005-04-13 13:00;METAR CYQF 131300Z 31005KT 1/4SM FZFG VV003 00/00 A2989 RMK FG8 SLP150=

CYQF;2005-04-13 13:35;SPECI CYQF 131335Z 33003KT 1/2SM FZFG VV004 RMK FG8=

CYQF;2005-04-13 14:00;METAR CYQF 131400Z 00000KT 3/8SM FG VV003 00/00 A2989 RMK FG8 SLP152=

CYQF;2005-04-13 15:00;METAR CYQF 131500Z 26004KT 3/8SM FG VV003 00/00 A2989 RMK FG8 SLP156=

CYQF;2005-04-13 16:00;METAR CYQF 131600Z 29004KT 3/8SM FG VV003 00/00 A2991 RMK FG8 SLP161=

CYQF;2005-04-13 16:43;SPECI CYQF 131643Z 00000KT 1 1/2SM BR VV004 RMK FG8=

CYQF;2005-04-13 17:00;METAR CYQF 131700Z 31002KT 1 1/2SM BR VV004 01/01 A2991 RMK FG8 SLP160=

CYQF;2005-04-13 17:41;SPECI CYQF 131741Z 14002KT 4SM BR OVC008 RMK SF8=

CYQF;2005-04-13 18:00;METAR CYQF 131800Z 00000KT 8SM OVC008 03/02 A2990 RMK CF8 BR VIS HIER S SLP157=

CYQF;2005-04-13 18:34;SPECI CYQF 131834Z 00000KT 15SM SCT008 SCT020 SCT250 RMK CF3CU1CI0 TR CU=

CYQF;2005-04-13 19:00;METAR CYQF 131900Z 00000KT 15SM FEW008 FEW030 SCT250 06/02 A2989 RMK CF1CU1CI1 SLP154=

CYQF;2005-04-13 20:00;METAR CYQF 132000Z 00000KT 15SM FEW030 BKN250 08/M01 A2987 RMK CU2CI2 SLP149=

CYQF;2005-04-13 21:00;METAR CYQF 132100Z 08004KT 15SM FEW030 BKN250 11/M03 A2987 RMK CU2CI1 SLP141=

CYQF;2005-04-13 22:00;METAR CYQF 132200Z 33006KT 15SM FEW030 BKN250 11/M04 A2988 RMK CU2CI2 SLP144=

CYQF;2005-04-13 23:00;METAR CYQF 132300Z 06005KT 15SM FEW030 BKN070 OVC250 11/M06 A2988 RMK CU2AC2CI2 VIRGA SLP145=

CYQF;2005-04-14 00:00;METAR CYQF 140000Z 15003KT 15SM BKN040 BKN080 OVC250 11/M05 A2988 RMK CU6AC1CI1 VIRGA SLP147=

CYQF;2005-04-14 01:00;METAR CYQF 140100Z 07010KT 15SM SCT040 BKN090 OVC250 10/M02 A2989 RMK SC4AC2CI2 VIRGA SLP149=

CYQF;2005-04-14 02:00;METAR CYQF 140200Z 08007KT 15SM FEW040 BKN090 OVC250 08/00 A2991 RMK SC2AC2CI2 VIRGA SLP154=

CYQF;2005-04-14 03:00;METAR CYQF 140300Z 06004KT 15SM SCT040 BKN090 OVC250 07/00 A2991 RMK SC3AC2CI2 VIRGA SLP159=

CYQF;2005-04-14 04:00;METAR CYQF 140400Z 09002KT 15SM FEW040 BKN100 OVC250 06/M01 A2988 RMK SC2AC3CI2 SLP151=

CYQF;2005-04-14 05:00;METAR CYQF 140500Z 35004KT 15SM FEW040 BKN090 OVC250 04/M00 A2987 RMK SC2AC4CI2 SLP148=

CYQF;2005-04-14 06:00;METAR CYQF 140600Z 30005KT 15SM FEW040 BKN070 OVC250 04/M00 A2989 RMK SC2AC5CI2 SLP152=

CYQF;2005-04-14 07:00;METAR CYQF 140700Z 33008KT 15SM BKN080 OVC250 04/01 A2986 RMK AC5CI3 SLP145=

CYQF;2005-04-14 08:00;METAR CYQF 140800Z 36007KT 15SM SCT080 OVC250 05/02 A2986 RMK AC4CI4 SLP144=

CYQF;2005-04-14 09:00;METAR CYQF 140900Z 34008KT 15SM SCT010 OVC080 04/02 A2985 RMK SC4AC4 SLP133=

CYQF;2005-04-14 10:00;METAR CYQF 141000Z 36006KT 15SM BKN010 OVC025 04/03 A2986 RMK SC6SC2 SLP135=

CYQF;2005-04-14 10:05;SPECI CYQF 141005Z 35005KT 12SM -SHRA BKN010 OVC015 RMK SF6SC2=

CYQF;2005-04-14 10:41;SPECI CYQF 141041Z 34010KT 10SM OVC009 RMK SF8 CIG RAG=

CYQF;2005-04-14 11:00;METAR CYQF 141100Z 33010KT 8SM OVC009 04/03 A2984 RMK SF8 CIG RAG SLP127=

CYQF;2005-04-14 12:00;METAR CYQF 141200Z 35008KT 12SM BKN011 OVC025 03/02 A2985 RMK SC5SC3 SHS NE+SE SLP134=

CYQF;2005-04-14 12:32;SPECI CYQF 141232Z 34008KT 3SM BR BKN011 OVC025 RMK SC6SC2=

CYQF;2005-04-14 12:44;SPECI CYQF 141244Z 34010KT 1 1/2SM -SHRA BR OVC010 RMK SC8=

CYQF;2005-04-14 13:00;METAR CYQF 141300Z 33011KT 2SM -SHRA BR BKN010 OVC025 03/02 A2984 RMK SC5SC3 CIG RAG SLP130=

CYQF;2005-04-14 13:28;SPECI CYQF 141328Z 32013KT 5SM BR BKN010 OVC025 RMK SC6SC2 CIG RAG=

CYQF;2005-04-14 14:00;METAR CYQF 141400Z 32013KT 8SM -RA FEW008 BKN010 OVC025 03/01 A2984 RMK SF2SC4SC2 CIG RAG SLP129=

CYQF;2005-04-14 15:00;METAR CYQF 141500Z 32012G18KT 12SM -RA SCT010 OVC017 02/00 A2984 RMK CF3SC5 SLP132=

CYQF;2005-04-14 15:24;SPECI CYQF 141524Z 31012G18KT 12SM -RASG SCT010 OVC020 RMK CF3SC5 CIG+VIS LWR NW-E-S=

CYQF;2005-04-14 17:00;METAR CYQF 141700Z 32012G18KT 12SM -SHRASN BKN012 BKN025 OVC050 02/M00 A2984 RMK SF5SC2SC2 CIG+VIS LWR N-SE SLP132=

CYQF;2005-04-14 17:24;SPECI CYQF 141724Z 32012G21KT 15SM VCSH SCT012 BKN030 OVC060 RMK SF3SC3SC2 SHWRS N-SE=

CYQF;2005-04-14 18:00;METAR CYQF 141800Z 32014G21KT 15SM FEW012 BKN030 OVC060 03/M00 A2985 RMK SF2SC5SC2 SHS DIST N-SE SLP138=

CYQF;2005-04-14 19:00;METAR CYQF 141900Z 34014G22KT 15SM BKN025 OVC060 03/M00 A2985 RMK SC5SC3 SHS DIST E-SE SLP138=

CYQF;2005-04-14 20:00;METAR CYQF 142000Z 34014G23KT 15SM FEW025 BKN060 OVC100 04/00 A2983 RMK SC2SC4AC2 SLP134=

CYQF;2005-04-14 21:00;METAR CYQF 142100Z 32015G25KT 15SM BKN030 BKN060 OVC100 05/M01 A2985 RMK SC6SC2AC1 SLP135=

CYQF;2005-04-14 22:00;METAR CYQF 142200Z 33015G23KT 15SM SCT030 BKN060 OVC100 06/M02 A2985 RMK SC3SC3AC2 SLP136=

CYQF;2005-04-14 23:00;METAR CYQF 142300Z 31016G26KT 15SM SCT030 BKN070 OVC100 07/M04 A2981 RMK SC3AC3AC2 SLP125=

CYQF;2005-04-15 00:00;METAR CYQF 150000Z 31020G30KT 15SM FEW030 BKN090 OVC250 07/M06 A2983 RMK SC2AC4CI2 SLP130=

CYQF;2005-04-15 01:00;METAR CYQF 150100Z 33017G26KT 15SM FEW030 BKN100 OVC250 07/M06 A2983 RMK SC1AC4CI2 SLP130=

CYQF;2005-04-15 02:00;METAR CYQF 150200Z 34015KT 15SM FEW040 SCT100 OVC250 05/M06 A2984 RMK SC1AC2CI2 SLP132=

CYQF;2005-04-15 04:00;METAR CYQF 150400Z 29010KT 15SM FEW100 SCT250 03/M05 A2985 RMK AC1CI2 SLP141=

CYQF;2005-04-15 05:00;METAR CYQF 150500Z 29015KT 15SM FEW100 SCT250 03/M05 A2986 RMK AC1CI1 SLP144=

CYQF;2005-04-15 06:00;METAR CYQF 150600Z 30013KT 15SM FEW100 FEW250 02/M05 A2987 RMK AC1CI0 SLP149=

CYQF;2005-04-15 07:00;METAR CYQF 150700Z 27008KT 15SM FEW100 SCT250 00/M05 A2987 RMK AC2CI2 SLP150=

CYQF;2005-04-15 08:00;METAR CYQF 150800Z 27013KT 15SM FEW250 01/M05 A2988 RMK CI2 SLP153=

CYQF;2005-04-15 09:00;METAR CYQF 150900Z 27009KT 15SM FEW250 M00/M06 A2989 RMK CI1 SLP156=

CYQF;2005-04-15 10:00;METAR CYQF 151000Z 28012KT 15SM SKC M00/M06 A2991 RMK SLP161=

CYQF;2005-04-15 11:00;METAR CYQF 151100Z 24006KT 15SM SKC M04/M07 A2993 RMK SLP167=

CYQF;2005-04-15 12:00;METAR CYQF 151200Z 25002KT 15SM SKC M03/M08 A2994 RMK SLP175=

CYQF;2005-04-15 13:00;METAR CYQF 151300Z 20004KT 15SM FEW250 M05/M08 A2995 RMK CI0 SLP176=

CYQF;2005-04-15 14:00;METAR CYQF 151400Z 21005KT 15SM FEW250 M02/M06 A2995 RMK CI1 SLP176=

CYQF;2005-04-15 15:00;METAR CYQF 151500Z 25006KT 15SM FEW250 03/M06 A2995 RMK CI1 SLP175=

CYQF;2005-04-15 16:00;METAR CYQF 151600Z 27009KT 15SM FEW250 06/M07 A2995 RMK CI1 SLP174=

CYQF;2005-04-15 17:00;METAR CYQF 151700Z 28011KT 15SM SCT250 08/M10 A2994 RMK CI0 SLP171=

CYQF;2005-04-15 18:00;METAR CYQF 151800Z 31008KT 15SM FEW060 BKN250 09/M08 A2993 RMK CU1CI0 SLP163=

CYQF;2005-04-15 19:00;METAR CYQF 151900Z 29013KT 15SM SCT250 10/M10 A2992 RMK CI0 SLP159=

CYQF;2005-04-15 20:00;METAR CYQF 152000Z 25006KT 15SM FEW060 FEW250 11/M08 A2991 RMK CU1CI1 SLP156=

CYQF;2005-04-15 21:00;METAR CYQF 152100Z 24004KT 15SM FEW060 FEW250 12/M08 A2989 RMK CU1CI0 SLP149=

CYQF;2005-04-15 22:00;METAR CYQF 152200Z 27006KT 15SM FEW060 BKN250 13/M10 A2988 RMK CU1CI1 SLP144=

CYQF;2005-04-15 23:00;METAR CYQF 152300Z 33005KT 15SM FEW060 SCT250 13/M10 A2987 RMK CU1CI1 SLP141=

CYQF;2005-04-16 00:00;METAR CYQF 160000Z 32003KT 15SM FEW060 FEW250 13/M10 A2986 RMK CU1CI0 SLP142=

CYQF;2005-04-16 01:00;METAR CYQF 160100Z 00000KT 15SM FEW070 SCT250 13/M10 A2986 RMK CU1CI1 SLP141=

CYQF;2005-04-16 02:00;METAR CYQF 160200Z 11003KT 15SM FEW060 FEW180 BKN250 11/M07 A2985 RMK CU1AC2CI1 SLP139=

CYQF;2005-04-16 03:00;METAR CYQF 160300Z 10004KT 15SM FEW180 SCT250 08/M07 A2986 RMK AC1CI1 SLP139=

CYQF;2005-04-16 04:00;METAR CYQF 160400Z 32006KT 15SM FEW180 FEW250 03/M05 A2988 RMK AC1CI0 SLP145=

CYQF;2005-04-16 05:00;METAR CYQF 160500Z 36003KT 15SM FEW150 FEW250 04/M06 A2989 RMK AC1CI0 SLP147=

CYQF;2005-04-16 06:00;METAR CYQF 160600Z 36002KT 15SM FEW150 FEW250 01/M06 A2989 RMK AC1CI0 SLP149=

CYQF;2005-04-16 07:00;METAR CYQF 160700Z 00000KT 15SM FEW250 00/M04 A2988 RMK CI0 SLP147=

CYQF;2005-04-16 08:00;METAR CYQF 160800Z 00000KT 15SM FEW250 M00/M03 A2987 RMK CI0 SLP145=

CYQF;2005-04-16 10:00;METAR CYQF 161000Z 18004KT 15SM FEW100 BKN250 M01/M04 A2986 RMK AC2CI3 SLP138=

CYQF;2005-04-16 11:00;METAR CYQF 161100Z 17004KT 15SM FEW100 BKN250 M01/M05 A2985 RMK AC2CI3 SLP135=

CYQF;2005-04-16 12:00;METAR CYQF 161200Z 16009KT 15SM FEW100 BKN250 00/M04 A2983 RMK AC2CI3 SLP125=

CYQF;2005-04-16 13:00;METAR CYQF 161300Z 00000KT 15SM FEW100 BKN250 M00/M04 A2981 RMK AC2CI2 SLP121=

CYQF;2005-04-16 14:00;METAR CYQF 161400Z 15003KT 15SM SCT120 BKN250 02/M02 A2980 RMK AC3CI3 SLP116=

CYQF;2005-04-16 15:00;METAR CYQF 161500Z 16003KT 15SM BKN120 OVC250 04/M01 A2977 RMK AC6CI2 SLP108=

CYQF;2005-04-16 16:00;METAR CYQF 161600Z 14008KT 15SM BKN120 BKN250 06/M01 A2976 RMK AC7CI1 SLP102=

CYQF;2005-04-16 17:00;METAR CYQF 161700Z 17009KT 15SM BKN120 BKN250 08/M01 A2974 RMK AC7CI1 SLP097=

CYQF;2005-04-16 18:00;METAR CYQF 161800Z 17011KT 15SM BKN120 BKN250 09/M01 A2973 RMK AC7CI1 SLP094=

CYQF;2005-04-16 19:00;METAR CYQF 161900Z 17017KT 15SM BKN120 BKN250 09/00 A2970 RMK AC7CI1 VIRGA SLP086=

CYQF;2005-04-16 20:00;METAR CYQF 162000Z 17018G23KT 15SM FEW040 BKN120 BKN250 10/01 A2967 RMK CU1AC7CI1 SLP078=

CYQF;2005-04-16 21:00;METAR CYQF 162100Z 18018G24KT 15SM FEW040 BKN120 BKN250 11/01 A2965 RMK SC1AC7CI1 VIRGA SLP066=

CYQF;2005-04-16 22:00;METAR CYQF 162200Z 17016G21KT 15SM FEW040 BKN120 OVC250 12/02 A2963 RMK SC1AC7CI1 VIRGA SLP059=

CYQF;2005-04-16 23:00;METAR CYQF 162300Z 17021G27KT 15SM FEW040 BKN120 BKN250 13/02 A2959 RMK SC1AC6CI0 SLP049=

CYQF;2005-04-17 00:00;METAR CYQF 170000Z 16021G27KT 15SM FEW040 BKN120 BKN250 14/03 A2956 RMK SC1AC6CI1 SLP032=

CYQF;2005-04-17 01:00;METAR CYQF 170100Z 18020G28KT 15SM FEW040 BKN120 BKN250 16/03 A2954 RMK SC2AC4CI1 SLP024=

CYQF;2005-04-17 02:00;METAR CYQF 170200Z 19017G25KT 15SM FEW040 SCT100 BKN250 15/02 A2952 RMK SC1AC3CI2 SLP018=

CYQF;2005-04-17 03:00;METAR CYQF 170300Z 20010KT 15SM FEW040 SCT100 BKN250 12/00 A2954 RMK SC1AC2CI2 SLP021=

CYQF;2005-04-17 04:00;METAR CYQF 170400Z 21012G20KT 15SM FEW100 BKN250 13/M01 A2955 RMK AC2CI2 SLP025=

CYQF;2005-04-17 05:00;METAR CYQF 170500Z 23013KT 15SM FEW100 BKN250 10/M01 A2957 RMK AC1CI2 SLP031=

CYQF;2005-04-17 06:00;METAR CYQF 170600Z 22010KT 15SM FEW100 SCT250 07/M00 A2959 RMK AC1CI1 SLP041=

CYQF;2005-04-17 07:00;METAR CYQF 170700Z 24010G15KT 15SM FEW100 08/M01 A2961 RMK AC1 SLP046=

CYQF;2005-04-17 08:00;METAR CYQF 170800Z 21003KT 15SM SKC 04/M01 A2964 RMK SLP056=

CYQF;2005-04-17 09:00;METAR CYQF 170900Z 30010KT 15SM SKC 05/M02 A2965 RMK SLP061=

CYQF;2005-04-17 10:00;METAR CYQF 171000Z 07005KT 15SM FEW100 SCT250 04/M02 A2969 RMK AC1CI2 SLP074=

CYQF;2005-04-17 11:00;METAR CYQF 171100Z 06005KT 15SM FEW100 BKN250 04/M02 A2971 RMK AC2CI2 SLP081=

CYQF;2005-04-17 12:00;METAR CYQF 171200Z 33005KT 15SM BKN100 BKN250 03/M02 A2973 RMK AC5CI1 SLP088=

CYQF;2005-04-17 13:00;METAR CYQF 171300Z 34003KT 15SM SCT060 BKN100 BKN250 03/M02 A2974 RMK SC3AC2CI1 SLP091=

CYQF;2005-04-17 14:00;METAR CYQF 171400Z 00000KT 15SM BKN060 04/M03 A2976 RMK SC6 SLP097=

CYQF;2005-04-17 15:00;METAR CYQF 171500Z 01003KT 15SM SCT060 BKN100 06/M03 A2977 RMK SC3AC4 SLP100=

CYQF;2005-04-17 17:00;METAR CYQF 171700Z 02005KT 15SM SCT060 BKN100 07/M05 A2978 RMK SC4AC3 VIRGA SLP104=

CYQF;2005-04-17 18:00;METAR CYQF 171800Z 03003KT 15SM FEW060 BKN100 BKN250 08/M06 A2978 RMK SC2AC4CI0 SLP105=

CYQF;2005-04-17 19:00;METAR CYQF 171900Z 00000KT 15SM SCT060 BKN100 BKN250 09/M06 A2977 RMK SC3AC4CI1 VIRGA SLP103=

CYQF;2005-04-17 20:00;METAR CYQF 172000Z 00000KT 15SM SCT060 BKN100 10/M06 A2977 RMK SC3AC4 VIRGA SLP104=

CYQF;2005-04-17 21:00;METAR CYQF 172100Z 24009KT 15SM SCT060 BKN100 BKN250 11/M05 A2978 RMK CU3AC2CI1 SLP105=

CYQF;2005-04-17 22:00;METAR CYQF 172200Z 26013KT 15SM FEW060 SCT100 BKN250 10/M03 A2978 RMK CU1AC3CI0 VIRGA SLP106=

CYQF;2005-04-17 23:00;METAR CYQF 172300Z 22010KT 15SM FEW060 FEW100 BKN250 11/M06 A2977 RMK CU1AC1CI1 SLP103=

CYQF;2005-04-18 00:00;METAR CYQF 180000Z 23009KT 15SM FEW060 FEW250 11/M03 A2977 RMK CU1CI1 SLP104=

CYQF;2005-04-18 01:00;METAR CYQF 180100Z 22012KT 15SM FEW060 SCT250 10/M03 A2976 RMK CU1CI1 SLP103=

CYQF;2005-04-18 02:00;METAR CYQF 180200Z 21010KT 15SM FEW060 SCT100 BKN250 08/M01 A2977 RMK CU2AC2CI2 SLP104=

CYQF;2005-04-18 03:00;METAR CYQF 180300Z 24007KT 15SM FEW060 BKN100 OVC250 06/M02 A2979 RMK CU2AC2CI2 SLP113=

CYQF;2005-04-18 04:00;METAR CYQF 180400Z 19006KT 15SM FEW100 BKN250 04/M02 A2982 RMK AC2CI2 SLP123=

CYQF;2005-04-18 05:00;METAR CYQF 180500Z 22006KT 15SM FEW100 BKN250 02/M02 A2983 RMK AC2CI2 SLP127=

CYQF;2005-04-18 06:00;METAR CYQF 180600Z 27004KT 15SM FEW100 BKN250 01/M02 A2984 RMK AC2CI1 SLP134=

CYQF;2005-04-18 07:00;METAR CYQF 180700Z 32004KT 15SM SCT080 BKN250 01/M02 A2987 RMK AC3CI2 SLP144=

CYQF;2005-04-18 08:00;METAR CYQF 180800Z 33014KT 15SM SCT080 BKN250 06/M03 A2988 RMK AC3CI2 SLP146=

CYQF;2005-04-18 09:00;METAR CYQF 180900Z 35013KT 15SM SCT080 BKN250 06/M05 A2989 RMK AC3CI1 SLP143=

CYQF;2005-04-18 10:00;METAR CYQF 181000Z 36010KT 15SM SCT080 BKN250 04/M04 A2992 RMK AC3CI1 SLP151=

CYQF;2005-04-18 11:00;METAR CYQF 181100Z 35005KT 15SM FEW080 BKN250 01/M04 A2995 RMK AC2CI2 SLP160=

CYQF;2005-04-18 12:00;METAR CYQF 181200Z 35005KT 15SM FEW080 BKN250 01/M04 A2998 RMK AC2CI2 SLP179=

CYQF;2005-04-18 13:00;METAR CYQF 181300Z 00000KT 15SM FEW080 BKN250 01/M03 A3002 RMK AC2CI2 SLP191=

CYQF;2005-04-18 14:00;METAR CYQF 181400Z 20003KT 15SM FEW080 BKN250 02/M02 A3004 RMK AC2CI1 SLP196=

CYQF;2005-04-18 15:00;METAR CYQF 181500Z 27002KT 15SM FEW080 SCT250 05/M03 A3006 RMK AC1CI0 SLP208=

CYQF;2005-04-18 16:00;METAR CYQF 181600Z 32006KT 15SM FEW035 FEW100 FEW250 07/M04 A3007 RMK CU1AC1CI0 SLP210=

CYQF;2005-04-18 17:00;METAR CYQF 181700Z 34011KT 15SM FEW050 SCT250 09/M03 A3008 RMK CU2CI1 SLP214=

CYQF;2005-04-18 18:00;METAR CYQF 181800Z 34008KT 15SM BKN050 BKN250 09/M04 A3009 RMK CU6CI1 SLP220=

CYQF;2005-04-18 19:00;METAR CYQF 181900Z 33012G17KT 15SM BKN050 10/M06 A3009 RMK CU6 SLP221=

CYQF;2005-04-18 20:00;METAR CYQF 182000Z 33010KT 15SM BKN060 11/M06 A3008 RMK CU6 SLP218=

CYQF;2005-04-18 21:00;METAR CYQF 182100Z 28009KT 15SM BKN060 12/M06 A3009 RMK CU5 SLP210=

CYQF;2005-04-18 22:00;METAR CYQF 182200Z 32012KT 15SM BKN060 13/M06 A3009 RMK CU5 SLP210=

CYQF;2005-04-18 23:00;METAR CYQF 182300Z 31006KT 15SM SCT060 12/M06 A3009 RMK CU3 SLP211=

CYQF;2005-04-19 00:00;METAR CYQF 190000Z 36005KT 15SM FEW060 12/M07 A3009 RMK CU2 SLP216=

CYQF;2005-04-19 01:00;METAR CYQF 190100Z 07003KT 15SM FEW060 12/M06 A3009 RMK CU2 SLP217=

CYQF;2005-04-19 02:00;METAR CYQF 190200Z 05004KT 15SM FEW060 11/M07 A3010 RMK SC1 SLP219=

CYQF;2005-04-19 03:00;METAR CYQF 190300Z 08006KT 15SM FEW060 08/M05 A3013 RMK SC1 SLP229=

CYQF;2005-04-19 04:00;METAR CYQF 190400Z 08005KT 15SM SKC 06/M05 A3015 RMK SLP235=

CYQF;2005-04-19 05:00;METAR CYQF 190500Z 00000KT 15SM SKC 03/M05 A3016 RMK SLP240=

CYQF;2005-04-19 06:00;METAR CYQF 190600Z 00000KT 15SM SKC 01/M05 A3016 RMK SLP245=

CYQF;2005-04-19 07:00;METAR CYQF 190700Z 20004KT 15SM SKC M01/M05 A3017 RMK SLP247=

CYQF;2005-04-19 08:00;METAR CYQF 190800Z 00000KT 15SM SKC M01/M04 A3018 RMK SLP249=

CYQF;2005-04-19 09:00;METAR CYQF 190900Z 00000KT 15SM SKC M02/M04 A3018 RMK SLP252=

CYQF;2005-04-19 10:00;METAR CYQF 191000Z 00000KT 15SM SKC M02/M05 A3019 RMK SLP255=

CYQF;2005-04-19 11:00;METAR CYQF 191100Z 20005KT 15SM SKC M03/M05 A3019 RMK SLP256=

CYQF;2005-04-19 12:00;METAR CYQF 191200Z 22004KT 15SM SKC M03/M05 A3020 RMK SLP259=

CYQF;2005-04-19 13:00;METAR CYQF 191300Z 21006KT 15SM SKC M03/M06 A3020 RMK SLP259=

CYQF;2005-04-19 14:00;METAR CYQF 191400Z 22004KT 15SM SKC M01/M04 A3020 RMK SLP260=

CYQF;2005-04-19 15:00;METAR CYQF 191500Z 18003KT 15SM SKC 03/M03 A3021 RMK SLP259=

CYQF;2005-04-19 16:00;METAR CYQF 191600Z 18005KT 15SM SKC 07/M03 A3021 RMK SLP259=

CYQF;2005-04-19 17:00;METAR CYQF 191700Z 18007KT 15SM SKC 10/M04 A3020 RMK SLP256=

CYQF;2005-04-19 18:00;METAR CYQF 191800Z 18003KT 15SM SKC 13/M05 A3019 RMK SLP251=

CYQF;2005-04-19 19:00;METAR CYQF 191900Z 23010KT 15SM FEW100 15/M06 A3017 RMK AC1 SLP244=

CYQF;2005-04-19 21:00;METAR CYQF 192100Z 18010G15KT 15SM FEW250 16/M07 A3014 RMK CI1 SLP234=

CYQF;2005-04-19 22:00;METAR CYQF 192200Z 18010G15KT 15SM FEW250 16/M07 A3013 RMK CI1 SLP230=

CYQF;2005-04-19 23:00;METAR CYQF 192300Z 17010G15KT 15SM SCT250 17/M07 A3012 RMK CI1 SLP226=

CYQF;2005-04-20 00:00;METAR CYQF 200000Z 17005KT 15SM FEW250 16/M07 A3011 RMK CI1 SLP222=

CYQF;2005-04-20 01:00;METAR CYQF 200100Z 18010KT 15SM FEW250 16/M07 A3010 RMK CI1 SLP219=

CYQF;2005-04-20 02:00;METAR CYQF 200200Z 17008KT 15SM SCT250 14/M06 A3009 RMK CI2 SLP218=

CYQF;2005-04-20 03:00;METAR CYQF 200300Z 16008KT 15SM FEW250 10/M04 A3010 RMK CI1 SLP220=

CYQF;2005-04-20 04:00;METAR CYQF 200400Z 18007KT 15SM FEW250 06/M03 A3012 RMK CI1 SLP226=

CYQF;2005-04-20 05:00;METAR CYQF 200500Z 19006KT 15SM FEW250 05/M03 A3013 RMK CI0 SLP228=

CYQF;2005-04-20 06:00;METAR CYQF 200600Z 18005KT 15SM SKC 05/M04 A3013 RMK SLP224=

CYQF;2005-04-20 07:00;METAR CYQF 200700Z 20006KT 15SM SKC 03/M04 A3012 RMK SLP221=

CYQF;2005-04-20 08:00;METAR CYQF 200800Z 19008KT 15SM SKC 03/M04 A3012 RMK SLP221=

CYQF;2005-04-20 09:00;METAR CYQF 200900Z 19005KT 15SM SKC 02/M03 A3011 RMK SLP218=

CYQF;2005-04-20 10:00;METAR CYQF 201000Z 18006KT 15SM SKC M01/M05 A3011 RMK SLP219=

CYQF;2005-04-20 11:00;METAR CYQF 201100Z 18007KT 15SM FEW250 M00/M05 A3012 RMK CI1 SLP221=

CYQF;2005-04-20 12:00;METAR CYQF 201200Z 00000KT 15SM FEW250 00/M05 A3014 RMK CI1 SLP228=

CYQF;2005-04-20 13:00;METAR CYQF 201300Z 21004KT 15SM SCT250 M02/M04 A3014 RMK CI1 SLP230=

CYQF;2005-04-20 15:00;METAR CYQF 201500Z 28002KT 15SM FEW250 09/M01 A3015 RMK CI0 SLP231=

CYQF;2005-04-20 16:00;METAR CYQF 201600Z 35005KT 15SM FEW250 13/02 A3015 RMK CI0 SLP230=

CYQF;2005-04-20 17:00;METAR CYQF 201700Z 02010KT 15SM FEW250 15/02 A3014 RMK CI0 SLP227=

CYQF;2005-04-20 18:00;METAR CYQF 201800Z 02010KT 15SM FEW250 17/02 A3013 RMK CI0 SLP221=

CYQF;2005-04-20 19:00;METAR CYQF 201900Z 03010KT 15SM FEW050 BKN250 18/03 A3012 RMK CU1CI0 TR CU SLP217=

CYQF;2005-04-20 20:00;METAR CYQF 202000Z 01010KT 15SM FEW060 SCT250 18/03 A3011 RMK CU1CI0 SLP215=

CYQF;2005-04-20 21:00;METAR CYQF 202100Z 06008KT 15SM FEW060 BKN250 19/02 A3011 RMK CU1CI1 SLP216=

CYQF;2005-04-20 22:00;METAR CYQF 202200Z 02007KT 15SM FEW060 BKN250 19/02 A3010 RMK CU2CI1 SLP213=

CYQF;2005-04-20 23:00;METAR CYQF 202300Z 03010KT 15SM FEW060 BKN250 19/03 A3010 RMK CU2CI1 SLP212=

CYQF;2005-04-21 00:00;METAR CYQF 210000Z 01003KT 15SM FEW060 BKN250 19/02 A3010 RMK CU2CI1 SLP212=

CYQF;2005-04-21 01:00;METAR CYQF 210100Z 02007KT 15SM FEW060 BKN250 19/03 A3011 RMK CU1CI1 SLP214=

CYQF;2005-04-21 02:00;METAR CYQF 210200Z 03004KT 15SM FEW100 BKN250 18/03 A3011 RMK AC1CI0 SLP215=

CYQF;2005-04-21 03:00;METAR CYQF 210300Z 03004KT 15SM BKN250 15/03 A3013 RMK CI1 SLP217=

CYQF;2005-04-21 04:00;METAR CYQF 210400Z 04002KT 15SM SCT250 12/03 A3015 RMK CI0 SLP224=

CYQF;2005-04-21 05:00;METAR CYQF 210500Z 36003KT 15SM BKN250 11/02 A3016 RMK CI1 SLP228=

CYQF;2005-04-21 06:00;METAR CYQF 210600Z 35004KT 15SM FEW250 07/02 A3017 RMK CI0 SLP232=

CYQF;2005-04-21 07:00;METAR CYQF 210700Z 00000KT 15SM FEW250 06/02 A3018 RMK CI0 SLP236=

CYQF;2005-04-21 08:00;METAR CYQF 210800Z 03004KT 15SM FEW250 06/02 A3020 RMK CI1 SLP241=

CYQF;2005-04-21 09:00;METAR CYQF 210900Z 36005KT 15SM FEW250 06/01 A3020 RMK CI0 SLP243=

CYQF;2005-04-21 10:00;METAR CYQF 211000Z 36005KT 15SM FEW250 06/00 A3022 RMK CI0 SLP247=

CYQF;2005-04-21 11:00;METAR CYQF 211100Z 36006KT 15SM FEW250 06/M00 A3024 RMK CI0 SLP253=

CYQF;2005-04-21 12:00;METAR CYQF 211200Z 01006KT 15SM FEW250 06/M01 A3025 RMK CI0 SLP260=

CYQF;2005-04-21 13:00;METAR CYQF 211300Z 00000KT 15SM FEW100 FEW250 01/M02 A3028 RMK AC1CI0 TR AC SLP268=

CYQF;2005-04-21 14:00;METAR CYQF 211400Z 01005KT 15SM FEW100 FEW250 07/01 A3030 RMK AC1CI0 TR AC SLP273=

CYQF;2005-04-21 15:00;METAR CYQF 211500Z 01005KT 15SM FEW100 FEW250 10/01 A3030 RMK AC1CI0 SLP276=

CYQF;2005-04-21 16:00;METAR CYQF 211600Z 08010KT 15SM FEW100 FEW250 13/M01 A3032 RMK AC1CI0 SLP281=

CYQF;2005-04-21 17:00;METAR CYQF 211700Z 09009KT 15SM FEW100 SCT250 16/M02 A3033 RMK AC1CI0 SLP286=

CYQF;2005-04-21 18:00;METAR CYQF 211800Z 09007KT 15SM BKN250 17/M02 A3034 RMK CI1 SLP293=

CYQF;2005-04-21 19:00;METAR CYQF 211900Z 07010KT 15SM BKN250 19/M01 A3035 RMK CI1 SLP294=

CYQF;2005-04-21 20:00;METAR CYQF 212000Z 07010KT 15SM SCT250 19/M01 A3034 RMK CI1 SLP293=

CYQF;2005-04-21 21:00;METAR CYQF 212100Z 08008KT 15SM BKN250 19/M03 A3034 RMK CI1 SLP292=

CYQF;2005-04-21 22:00;METAR CYQF 212200Z 04004KT 15SM BKN250 19/M03 A3034 RMK CI1 SLP289=

CYQF;2005-04-21 23:00;METAR CYQF 212300Z 09006KT 15SM BKN250 19/M04 A3034 RMK CI2 SLP289=

CYQF;2005-04-22 00:00;METAR CYQF 220000Z 10005KT 15SM BKN250 19/M02 A3034 RMK CI1 SLP288=

CYQF;2005-04-22 01:00;METAR CYQF 220100Z 09008KT 15SM BKN250 18/M02 A3033 RMK CI2 SLP287=

CYQF;2005-04-22 02:00;METAR CYQF 220200Z 09011KT 15SM BKN250 16/M02 A3033 RMK CI1 SLP287=

CYQF;2005-04-22 03:00;METAR CYQF 220300Z 12008KT 15SM BKN250 13/M02 A3034 RMK CI0 SLP293=

CYQF;2005-04-22 04:00;METAR CYQF 220400Z 12007KT 15SM BKN250 12/M02 A3035 RMK CI0 SLP295=

CYQF;2005-04-22 05:00;METAR CYQF 220500Z 15006KT 15SM SCT250 10/M02 A3034 RMK CI0 SLP294=

CYQF;2005-04-22 06:00;METAR CYQF 220600Z 15008KT 15SM SCT250 09/M02 A3034 RMK CI0 SLP288=

CYQF;2005-04-22 07:00;METAR CYQF 220700Z 17008KT 15SM SCT250 08/M02 A3034 RMK CI0 SLP289=

CYQF;2005-04-22 09:00;METAR CYQF 220900Z 18008KT 15SM SCT250 05/M02 A3033 RMK CI0 SLP286=

CYQF;2005-04-22 10:00;METAR CYQF 221000Z 16010KT 15SM FEW250 05/M02 A3030 RMK CI0 SLP277=

CYQF;2005-04-22 11:00;METAR CYQF 221100Z 18011KT 15SM FEW250 05/M02 A3028 RMK CI0 SLP271=

CYQF;2005-04-22 12:00;METAR CYQF 221200Z 19010KT 15SM FEW250 05/M02 A3026 RMK CI0 SLP263=

CYQF;2005-04-22 13:00;METAR CYQF 221300Z 18008KT 15SM FEW250 05/M02 A3025 RMK CI0 SLP259=

CYQF;2005-04-22 14:00;METAR CYQF 221400Z 15010KT 15SM FEW250 06/M01 A3024 RMK CI0 SLP256=

CYQF;2005-04-22 15:00;METAR CYQF 221500Z 16012KT 15SM FEW250 10/M00 A3023 RMK CI0 SLP254=

CYQF;2005-04-22 16:00;METAR CYQF 221600Z 17014G21KT 15SM FEW250 13/00 A3020 RMK CI1 SLP243=

CYQF;2005-04-22 17:00;METAR CYQF 221700Z 18014G19KT 15SM FEW250 17/01 A3018 RMK CI0 SLP237=

CYQF;2005-04-22 18:00;METAR CYQF 221800Z 17017G22KT 15SM FEW250 19/M01 A3015 RMK CI0 SLP222=

CYQF;2005-04-22 19:00;METAR CYQF 221900Z 18019G24KT 15SM SCT250 21/M03 A3013 RMK CI0 SLP213=

CYQF;2005-04-22 20:00;METAR CYQF 222000Z 18017G24KT 15SM BKN250 22/M03 A3009 RMK CI0 SLP203=

CYQF;2005-04-22 21:00;METAR CYQF 222100Z 18016G25KT 15SM BKN250 23/M04 A3006 RMK CI0 SLP190=

CYQF;2005-04-22 22:00;METAR CYQF 222200Z 16016G29KT 15SM SCT250 23/M03 A3004 RMK CI1 SLP182=

CYQF;2005-04-22 23:00;METAR CYQF 222300Z 16018G25KT 15SM SCT250 22/M03 A3002 RMK CI1 SLP176=

CYQF;2005-04-23 00:00;METAR CYQF 230000Z 15015G25KT 15SM SCT250 22/M03 A3000 RMK CI2 SLP171=

CYQF;2005-04-23 01:00;METAR CYQF 230100Z 14017G27KT 15SM SCT250 21/M03 A2999 RMK CI2 SLP168=

CYQF;2005-04-23 02:00;METAR CYQF 230200Z 15014G21KT 15SM SCT250 19/M04 A2999 RMK CI2 SLP166=

CYQF;2005-04-23 03:00;METAR CYQF 230300Z 14010KT 15SM FEW080 SCT250 16/M01 A3000 RMK AC1CI2 SLP171=

CYQF;2005-04-23 04:00;METAR CYQF 230400Z 15013KT 15SM FEW080 SCT250 15/M01 A3001 RMK AC1CI1 SLP174=

CYQF;2005-04-23 05:00;METAR CYQF 230500Z 16012KT 15SM SCT250 13/M01 A3002 RMK CI2 SLP177=

CYQF;2005-04-23 06:00;METAR CYQF 230600Z 18010KT 15SM SCT250 11/M00 A3004 RMK CI1 SLP181=

CYQF;2005-04-23 07:00;METAR CYQF 230700Z 15007KT 15SM SCT250 09/00 A3007 RMK CI2 SLP189=

CYQF;2005-04-23 09:00;METAR CYQF 230900Z 24004KT 15SM FEW250 02/M01 A3007 RMK CI1 SLP196=

CYQF;2005-04-23 10:00;METAR CYQF 231000Z 30007KT 15SM SCT250 05/01 A3009 RMK CI2 SLP201=

CYQF;2005-04-23 11:00;METAR CYQF 231100Z 30003KT 15SM FEW250 03/02 A3011 RMK CI1 SLP208=

CYQF;2005-04-23 12:00;METAR CYQF 231200Z 32007KT 15SM FEW250 05/04 A3013 RMK CI1 SLP213=

CYQF;2005-04-23 13:00;METAR CYQF 231300Z 30005KT 15SM FEW030 SCT250 05/04 A3014 RMK CF1CI1 SLP217=

CYQF;2005-04-23 14:00;METAR CYQF 231400Z 28006KT 15SM FEW030 SCT250 07/05 A3015 RMK CF1CI1 SLP219=

CYQF;2005-04-23 15:00;METAR CYQF 231500Z 32010KT 15SM FEW015 SCT250 09/05 A3015 RMK CF2CI0 SLP223=

CYQF;2005-04-23 16:00;METAR CYQF 231600Z 32010G15KT 15SM FEW020 FEW250 11/05 A3015 RMK CF1CI0 SLP223=

CYQF;2005-04-23 17:00;METAR CYQF 231700Z 32012KT 15SM FEW020 12/05 A3015 RMK CF1 SLP224=

CYQF;2005-04-23 18:00;METAR CYQF 231800Z 32008KT 15SM FEW030 14/05 A3015 RMK CF1 SLP223=

CYQF;2005-04-23 19:00;METAR CYQF 231900Z 34005KT 15SM SKC 15/05 A3014 RMK SLP219=

CYQF;2005-04-23 20:00;METAR CYQF 232000Z 30005KT 15SM FEW050 17/05 A3012 RMK CU1 SLP214=

CYQF;2005-04-23 21:00;METAR CYQF 232100Z 16004KT 15SM FEW060 18/02 A3011 RMK CU2 SLP214=

CYQF;2005-04-23 22:00;METAR CYQF 232200Z 01010G15KT 15SM FEW060 19/04 A3009 RMK CU2 SLP209=

CYQF;2005-04-23 23:00;METAR CYQF 232300Z 36004KT 15SM FEW060 19/03 A3008 RMK CU2 SLP206=

CYQF;2005-04-24 00:00;METAR CYQF 240000Z 06007KT 15SM FEW060 19/03 A3007 RMK CU2 SLP198=

CYQF;2005-04-24 01:00;METAR CYQF 240100Z 05008KT 15SM FEW060 19/02 A3008 RMK CU1 SLP199=

CYQF;2005-04-24 02:00;METAR CYQF 240200Z 03006KT 15SM FEW060 18/01 A3007 RMK CU1 SLP198=

CYQF;2005-04-24 03:00;METAR CYQF 240300Z 36004KT 15SM FEW050 14/01 A3009 RMK SC1 TR CLD SLP203=

CYQF;2005-04-24 04:00;METAR CYQF 240400Z 36004KT 15SM FEW100 13/01 A3011 RMK AC1 SLP209=

CYQF;2005-04-24 05:00;METAR CYQF 240500Z 02005KT 15SM FEW100 10/01 A3012 RMK AC1 TR CLD SLP212=

CYQF;2005-04-24 06:00;METAR CYQF 240600Z 36006KT 15SM SKC 10/02 A3013 RMK SLP217=

CYQF;2005-04-24 07:00;METAR CYQF 240700Z 01008KT 15SM SKC 09/03 A3014 RMK SLP220=

CYQF;2005-04-24 08:00;METAR CYQF 240800Z 35005KT 15SM SKC 07/03 A3014 RMK SLP221=

CYQF;2005-04-24 09:00;METAR CYQF 240900Z 36005KT 15SM SKC 07/03 A3014 RMK SLP219=

CYQF;2005-04-24 10:00;METAR CYQF 241000Z 33004KT 15SM SKC 05/03 A3013 RMK SLP218=

CYQF;2005-04-24 11:00;METAR CYQF 241100Z 24003KT 15SM SKC 01/01 A3013 RMK SLP217=

CYQF;2005-04-24 12:00;METAR CYQF 241200Z 30005KT 15SM FEW250 03/01 A3014 RMK CI0 SLP222=

CYQF;2005-04-24 13:00;METAR CYQF 241300Z 18002KT 15SM FEW250 02/01 A3014 RMK CI1 SLP223=

CYQF;2005-04-24 14:00;METAR CYQF 241400Z 00000KT 15SM FEW250 04/03 A3015 RMK CI1 SLP227=

CYQF;2005-04-24 15:00;METAR CYQF 241500Z 00000KT 15SM SCT080 08/04 A3015 RMK AC3 SLP228=

CYQF;2005-04-24 16:00;METAR CYQF 241600Z 34006KT 15SM FEW080 12/05 A3016 RMK AC2 SLP229=

CYQF;2005-04-24 17:00;METAR CYQF 241700Z 01010KT 15SM FEW040 FEW080 15/03 A3015 RMK CU2AC1 SLP228=

CYQF;2005-04-24 18:00;METAR CYQF 241800Z 01018KT 15SM SCT050 16/03 A3015 RMK CU3 SLP224=

CYQF;2005-04-24 19:00;METAR CYQF 241900Z 33005KT 15SM FEW050 16/02 A3014 RMK CU2 SLP219=

CYQF;2005-04-24 20:00;METAR CYQF 242000Z 03012KT 15SM FEW060 17/01 A3012 RMK CU2 SLP214=

CYQF;2005-04-24 21:00;METAR CYQF 242100Z 34010G15KT 15SM FEW060 FEW250 18/01 A3011 RMK CU1CI0 SLP212=

CYQF;2005-04-24 22:00;METAR CYQF 242200Z 35008KT 15SM FEW060 FEW250 17/M00 A3010 RMK CU1CI0 SLP209=

CYQF;2005-04-24 23:00;METAR CYQF 242300Z 33010KT 15SM FEW060 SCT250 18/M01 A3008 RMK CU1CI1 SLP203=

CYQF;2005-04-25 00:00;METAR CYQF 250000Z 36008KT 15SM BKN250 18/M01 A3008 RMK CI2 SLP203=

CYQF;2005-04-25 01:00;METAR CYQF 250100Z 36010KT 15SM SCT250 17/M01 A3007 RMK CI1 SLP200=

CYQF;2005-04-25 02:00;METAR CYQF 250200Z 04008KT 15SM BKN250 16/M01 A3007 RMK CI2 SLP200=

CYQF;2005-04-25 03:00;METAR CYQF 250300Z 04007KT 15SM FEW250 14/M01 A3007 RMK CI1 SLP201=

CYQF;2005-04-25 04:00;METAR CYQF 250400Z 07003KT 15SM FEW250 10/M02 A3009 RMK CI1 SLP205=

CYQF;2005-04-25 05:00;METAR CYQF 250500Z 00000KT 15SM FEW250 07/M03 A3010 RMK CI1 SLP210=

CYQF;2005-04-25 06:00;METAR CYQF 250600Z 00000KT 15SM FEW250 08/M02 A3011 RMK CI1 SLP212=

CYQF;2005-04-25 07:00;METAR CYQF 250700Z 31003KT 15SM SKC 03/M03 A3012 RMK SLP215=

CYQF;2005-04-25 08:00;METAR CYQF 250800Z 00000KT 15SM SKC 03/00 A3012 RMK SLP215=

CYQF;2005-04-25 09:00;METAR CYQF 250900Z 00000KT 15SM SKC 01/M01 A3012 RMK SLP220=

CYQF;2005-04-25 10:00;METAR CYQF 251000Z 19004KT 15SM SKC 01/M02 A3012 RMK SLP220=

CYQF;2005-04-25 11:00;METAR CYQF 251100Z 19003KT 15SM SKC 00/M01 A3011 RMK SLP217=

CYQF;2005-04-25 12:00;METAR CYQF 251200Z 20003KT 15SM SKC M00/M02 A3011 RMK SLP216=

CYQF;2005-04-25 13:00;METAR CYQF 251300Z 21003KT 15SM SKC M01/M02 A3011 RMK SLP216=

CYQF;2005-04-25 14:00;METAR CYQF 251400Z 22005KT 15SM SKC 03/01 A3011 RMK SLP218=

CYQF;2005-04-25 15:00;METAR CYQF 251500Z 20003KT 15SM SKC 08/02 A3011 RMK SLP215=

CYQF;2005-04-25 16:00;METAR CYQF 251600Z 28002KT 15SM SKC 12/02 A3010 RMK SLP212=

CYQF;2005-04-25 17:00;METAR CYQF 251700Z 21003KT 15SM SKC 16/02 A3010 RMK SLP210=

CYQF;2005-04-25 18:00;METAR CYQF 251800Z 35008KT 15SM SKC 18/02 A3008 RMK SLP199=

CYQF;2005-04-25 20:00;METAR CYQF 252000Z 32006KT 15SM SKC 19/M01 A3006=

CYQF;2005-04-25 21:00;METAR CYQF 252100Z 33010G15KT 15SM SKC 22/01 A3001=

CYQF;2005-04-25 22:00;METAR CYQF 252200Z 34010G15KT 15SM FEW080 22/02 A3000 RMK CU1 SLP174=

CYQF;2005-04-25 23:00;METAR CYQF 252300Z 34012G20KT 15SM FEW080 22/02 A2998 RMK CU2 SLP167=

CYQF;2005-04-26 00:00;METAR CYQF 260000Z 34015G25KT 15SM FEW080 22/M01 A2997 RMK CU1 SLP165=

CYQF;2005-04-26 01:00;METAR CYQF 260100Z 01012G20KT 15SM FEW080 21/M01 A2998 RMK CI1 SLP167=

CYQF;2005-04-26 02:00;METAR CYQF 260200Z 02010KT 15SM FEW080 19/00 A2998 RMK CU1 SLP167=

CYQF;2005-04-26 03:00;METAR CYQF 260300Z 33005KT 15SM FEW050 13/01 A2999 RMK CF1 SLP173=

CYQF;2005-04-26 04:00;METAR CYQF 260400Z 31009KT 15SM FEW080 10/01 A3001 RMK AC1 SLP179=

CYQF;2005-04-26 05:00;METAR CYQF 260500Z 36010G15KT 15SM SKC 15/M01 A3005 RMK SLP190=

CYQF;2005-04-26 06:00;METAR CYQF 260600Z 36015G25KT 15SM SKC 12/M02 A3007 RMK SLP192=

CYQF;2005-04-26 07:00;METAR CYQF 260700Z 36015G25KT 15SM SKC 11/M01 A3010 RMK SLP200=

CYQF;2005-04-26 10:00;METAR CYQF 261000Z 35008KT 15SM FEW100 BKN250 06/M04 A3020 RMK AC2CI1 SLP238=

CYQF;2005-04-26 11:00;METAR CYQF 261100Z 36008KT 15SM BKN080 BKN250 06/M04 A3021 RMK AC6CI1 SLP240=

CYQF;2005-04-26 12:00;METAR CYQF 261200Z 33004KT 15SM OVC080 06/M03 A3022 RMK AC8 SLP245=

CYQF;2005-04-26 13:00;METAR CYQF 261300Z 33005KT 15SM OVC080 05/M03 A3023 RMK AC8 SLP249=

CYQF;2005-04-26 14:00;METAR CYQF 261400Z 35005KT 15SM BKN080 06/M02 A3024 RMK AC7 SLP251=

CYQF;2005-04-26 16:00;METAR CYQF 261600Z 35006KT 15SM BKN080 OVC250 07/M01 A3024 RMK AC7CI1 SLP260=

CYQF;2005-04-26 17:00;METAR CYQF 261700Z 35010KT 15SM BKN080 OVC250 08/M03 A3023 RMK AC7CI1 SLP258=

CYQF;2005-04-26 18:00;METAR CYQF 261800Z 01008KT 15SM OVC070 08/M02 A3022 RMK AC8 SLP254=

CYQF;2005-04-26 19:00;METAR CYQF 261900Z 36010KT 15SM BKN050 OVC080 08/M02 A3021 RMK SC6AC2 VIRGA SLP250=

CYQF;2005-04-26 20:00;METAR CYQF 262000Z 32013KT 15SM BKN050 OVC080 10/M01 A3019 RMK SC6AC2 VIRGA SLP244=

CYQF;2005-04-26 21:00;METAR CYQF 262100Z 34016G23KT 15SM BKN040 OVC070 09/M01 A3018 RMK SC6AC2 VIRGA/SHS ALQDS SLP247=

CYQF;2005-04-26 22:00;METAR CYQF 262200Z 35017G25KT 15SM VCSH BKN040 OVC080 07/00 A3019 RMK SC6AC2 SLP248=

CYQF;2005-04-26 23:00;METAR CYQF 262300Z 35018G30KT 15SM VCSH BKN045 08/02 A3019 RMK SC7 SLP250=

CYQF;2005-04-26 23:39;SPECI CYQF 262339Z 36020G30KT 12SM -SHRA BKN030 RMK SC7=

CYQF;2005-04-26 23:44;SPECI CYQF 262344Z 36020G35KT 2SM -SHRASN BKN010 OVC030 RMK SN2SF4SC2=

CYQF;2005-04-27 00:00;METAR CYQF 270000Z 02020G30KT 1SM -SHSN VV010 01/00 A3024 RMK SN8 SLP276=

CYQF;2005-04-27 00:16;SPECI CYQF 270016Z 02017G25KT 6SM -SN SCT008 BKN030 BKN080 RMK SF4SC2AC1=

CYQF;2005-04-27 00:40;SPECI CYQF 270040Z 36010G15KT 15SM FEW008 BKN025 OVC080 RMK SF2SC5AC1=

CYQF;2005-04-27 01:00;METAR CYQF 270100Z 35011G18KT 15SM FEW008 BKN025 02/01 A3025 RMK SF2SC6 SLP280=

CYQF;2005-04-27 01:46;SPECI CYQF 270146Z 35012G20KT 10SM -RA SCT008 OVC020 RMK SF4SC4=

CYQF;2005-04-27 01:50;SPECI CYQF 270150Z 36015G25KT 1SM -SHRASNPL OVC008 RMK SN4SF4=

CYQF;2005-04-27 02:00;METAR CYQF 270200Z 35012G20KT 3SM -SHSN SCT008 OVC020 01/00 A3028 RMK SF4SC4 SLP289=

CYQF;2005-04-27 02:25;SPECI CYQF 270225Z 35010G15KT 15SM FEW008 OVC020 RMK SF2SC6=

CYQF;2005-04-27 03:00;METAR CYQF 270300Z 35012KT 15SM FEW008 SCT020 BKN090 OVC250 01/00 A3030 RMK SF1SC3AC2CI2 SLP293=

CYQF;2005-04-27 04:00;METAR CYQF 270400Z 35012G20KT 15SM SCT020 BKN080 01/M01 A3032 RMK SC3AC3 SLP300=

CYQF;2005-04-27 05:00;METAR CYQF 270500Z 36015KT 15SM SCT015 BKN030 01/M01 A3034 RMK SF3SC3 SLP307=

CYQF;2005-04-27 06:00;METAR CYQF 270600Z 02012G20KT 15SM FEW015 BKN025 BKN060 M00/M04 A3036 RMK SF2SC3SC1 SLP315=

CYQF;2005-04-27 07:00;METAR CYQF 270700Z 36014KT 15SM FEW015 SCT025 OVC050 M01/M06 A3037 RMK SF2SC2SC4 SLP320=

CYQF;2005-04-27 08:00;METAR CYQF 270800Z 36013KT 15SM FEW015 BKN025 OVC050 M02/M07 A3038 RMK SF2SC3SC3 SLP321=

CYQF;2005-04-27 09:00;METAR CYQF 270900Z 35012KT 15SM FEW015 SCT025 OVC050 M02/M07 A3038 RMK SF2SC2SC5 SLP323=

CYQF;2005-04-27 10:00;METAR CYQF 271000Z 35014KT 15SM FEW015 SCT025 OVC050 M02/M07 A3037 RMK SF2SC2SC5 SLP322=

CYQF;2005-04-27 11:00;METAR CYQF 271100Z 36014KT 15SM FEW015 SCT025 OVC050 M03/M09 A3037 RMK SF2SC2SC5 SLP320=

CYQF;2005-04-27 12:00;METAR CYQF 271200Z 34012KT 15SM BKN040 M03/M08 A3036 RMK SC7 SLP327=

CYQF;2005-04-27 13:00;METAR CYQF 271300Z 33010KT 15SM BKN040 M03/M07 A3036 RMK SC7 SLP326=

CYQF;2005-04-27 14:00;METAR CYQF 271400Z 34012KT 15SM BKN040 M03/M07 A3035 RMK SC7 SLP324=

CYQF;2005-04-27 14:18;SPECI CYQF 271418Z 34015KT 6SM -SHSN BKN040 RMK SC7=

CYQF;2005-04-27 16:00;METAR CYQF 271600Z 34015G22KT 15SM VCSH OVC030 M02/M08 A3033 RMK SC8 SLP315=

CYQF;2005-04-27 17:00;METAR CYQF 271700Z 35015G23KT 15SM OVC035 M01/M08 A3031 RMK SC8 SLP310=

CYQF;2005-04-27 18:00;METAR CYQF 271800Z 35015G21KT 15SM OVC035 M00/M07 A3029 RMK SC8 SLP302=

CYQF;2005-04-27 19:00;METAR CYQF 271900Z 34014G20KT 15SM BKN035 01/M07 A3027 RMK SC7 SLP295=

CYQF;2005-04-27 20:00;METAR CYQF 272000Z 34015G20KT 15SM BKN035 02/M07 A3025 RMK SC7 SLP287=

CYQF;2005-04-27 21:00;METAR CYQF 272100Z 35015G22KT 15SM BKN035 04/M07 A3022 RMK SC6 SLP275=

CYQF;2005-04-27 22:00;METAR CYQF 272200Z 34015G20KT 15SM BKN040 03/M07 A3020 RMK SC6 SLP269=

CYQF;2005-04-27 23:00;METAR CYQF 272300Z 35012G20KT 15SM BKN040 03/M08 A3018 RMK SC6 SLP263=

CYQF;2005-04-28 00:00;METAR CYQF 280000Z 34012G20KT 15SM BKN040 05/M08 A3016 RMK SC6 CU EMBD SLP255=

CYQF;2005-04-28 01:00;METAR CYQF 280100Z 34010G15KT 15SM SCT040 05/M09 A3015 RMK CU3 SLP249=

CYQF;2005-04-28 02:49;SPECI CYQF 280249Z 02010G15KT 10SM -SHSN FEW020 BKN040 RMK SF2SC5=

CYQF;2005-04-28 03:00;METAR CYQF 280300Z 36018G25KT 3SM -SHSN BKN020 BKN040 01/M04 A3015 RMK SF5SC2 SLP255=

CYQF;2005-04-28 04:00;METAR CYQF 280400Z 02010KT 10SM -SHSN SCT020 BKN040 M01/M03 A3018 RMK SF3SC3 SLP264=

CYQF;2005-04-28 05:00;METAR CYQF 280500Z 02012G18KT 2SM -SHSN OVC020 M02/M04 A3020 RMK SN3SC5 SLP269=

CYQF;2005-04-28 05:28;SPECI CYQF 280528Z 01010G15KT 6SM -SHSN SCT020 OVC040 RMK SF3SC5=

CYQF;2005-04-28 06:00;METAR CYQF 280600Z 36010KT 5SM -SHSN BKN040 OVC080 M03/M04 A3021 RMK SC5AC3 SLP276=

CYQF;2005-04-28 07:00;METAR CYQF 280700Z 36011KT 15SM BKN038 M04/M08 A3023 RMK SC7 SLP281=

CYQF;2005-04-28 08:00;METAR CYQF 280800Z 35012KT 15SM FEW040 M05/M09 A3023 RMK SC2 SLP283=

CYQF;2005-04-28 09:00;METAR CYQF 280900Z 33010KT 15SM SCT038 BKN080 M06/M09 A3023 RMK SC3AC4 SLP282=

CYQF;2005-04-28 10:00;METAR CYQF 281000Z 33012KT 15SM OVC060 M05/M08 A3022 RMK SC8 SLP279=

CYQF;2005-04-28 11:00;METAR CYQF 281100Z 33009KT 15SM -SHSN OVC060 M04/M08 A3022 RMK SC8 SLP278=

CYQF;2005-04-28 11:34;SPECI CYQF 281134Z 32008KT 2SM -SHSN FEW020 OVC060 RMK CF2SC6=

CYQF;2005-04-28 12:00;METAR CYQF 281200Z 31008KT 2 1/2SM -SHSN SCT010 OVC030 M05/M06 A3021 RMK SF4SC4 SLP273=

CYQF;2005-04-28 13:00;METAR CYQF 281300Z 33011KT 8SM FEW010 BKN040 OVC080 M05/M07 A3021 RMK SF2SC4AC2 SLP273=

CYQF;2005-04-28 13:34;SPECI CYQF 281334Z 33007KT 8SM -SHSN FEW010 BKN040 OVC080 RMK SF1SC4AC2=

CYQF;2005-04-28 14:00;METAR CYQF 281400Z 33008KT 10SM -SHSN BKN040 OVC080 M05/M07 A3021 RMK SC5AC2 SLP274=

CYQF;2005-04-28 15:00;METAR CYQF 281500Z 34014KT 3SM -SHSN FEW010 BKN040 M04/M06 A3021 RMK SF2SC5 SLP275=

CYQF;2005-04-28 16:00;METAR CYQF 281600Z 35018G30KT 15SM VCSH BKN012 BKN040 M02/M07 A3019 RMK SC5SC2 SLP270=

CYQF;2005-04-28 17:00;METAR CYQF 281700Z 34017G28KT 15SM VCSH FEW012 BKN030 BKN250 M02/M08 A3018 RMK SC2SC3CI0 SLP267=

CYQF;2005-04-28 18:00;METAR CYQF 281800Z 35018G28KT 15SM VCSH FEW012 BKN030 BKN250 00/M10 A3017 RMK SC2SC5CI0 SLP262=

CYQF;2005-04-28 19:00;METAR CYQF 281900Z 32018G25KT 15SM VCSH FEW015 BKN030 M01/M09 A3016 RMK SC2SC6 SLP260=

CYQF;2005-04-28 20:00;METAR CYQF 282000Z 32016G23KT 15SM VCSH FEW015 BKN030 00/M10 A3015 RMK SC2SC5 SLP255=

CYQF;2005-04-28 21:00;METAR CYQF 282100Z 34017G25KT 15SM VCSH BKN020 01/M11 A3015 RMK SC7 SLP255=

CYQF;2005-04-28 22:00;METAR CYQF 282200Z 36020G30KT 15SM BKN035 BKN070 02/M12 A3013 RMK SC6AC2 VIRGA/SHS ALQDS SLP249=

CYQF;2005-04-28 23:00;METAR CYQF 282300Z 36015G26KT 15SM BKN040 BKN250 02/M12 A3012 RMK CU5CI1 VIRGA/SHS ALQDS SLP248=

CYQF;2005-04-29 00:00;METAR CYQF 290000Z 35015G22KT 15SM SCT040 BKN250 02/M11 A3012 RMK CU4CI2 VIRGA/SHS ALQDS SLP245=

CYQF;2005-04-29 01:00;METAR CYQF 290100Z 36012G20KT 15SM SCT040 BKN250 02/M12 A3013 RMK CU4CI2 SLP247=

CYQF;2005-04-29 02:00;METAR CYQF 290200Z 36012G20KT 15SM FEW040 BKN250 01/M12 A3013 RMK SC2CI2 SLP248=

CYQF;2005-04-29 03:00;METAR CYQF 290300Z 36010KT 15SM FEW050 SCT250 00/M13 A3015 RMK SC1CI2 SLP255=

CYQF;2005-04-29 04:00;METAR CYQF 290400Z 36006KT 15SM FEW250 M03/M12 A3015 RMK CI1 SLP258=

CYQF;2005-04-29 05:00;METAR CYQF 290500Z 34005KT 15SM SKC M06/M12 A3016 RMK SLP260=

CYQF;2005-04-29 06:00;METAR CYQF 290600Z 35006KT 15SM SKC M04/M12 A3016 RMK SLP260=

CYQF;2005-04-29 07:00;METAR CYQF 290700Z 33006KT 15SM FEW250 M06/M12 A3017 RMK CI0 SLP262=

CYQF;2005-04-29 08:00;METAR CYQF 290800Z 31006KT 15SM FEW250 M06/M12 A3017 RMK CI0 SLP262=

CYQF;2005-04-29 09:00;METAR CYQF 290900Z 30007KT 15SM SKC M07/M12 A3016 RMK SLP263=

CYQF;2005-04-29 10:00;METAR CYQF 291000Z 29008KT 15SM FEW250 M06/M12 A3016 RMK CI1 SLP262=

CYQF;2005-04-29 11:00;METAR CYQF 291100Z 30009KT 15SM FEW250 M07/M12 A3017 RMK CI0 SLP264=

CYQF;2005-04-29 12:00;METAR CYQF 291200Z 30007KT 15SM FEW250 M07/M12 A3017 RMK CI0 SLP263=

CYQF;2005-04-29 13:00;METAR CYQF 291300Z 30009KT 15SM FEW250 M06/M12 A3017 RMK CI0 SLP263=

CYQF;2005-04-29 14:00;METAR CYQF 291400Z 31010KT 15SM FEW250 M03/M13 A3017 RMK CI0 SLP263=

CYQF;2005-04-29 15:00;METAR CYQF 291500Z 33020G29KT 15SM FEW100 FEW250 M01/M14 A3015 RMK AC1CI0 SLP254=

CYQF;2005-04-29 16:00;METAR CYQF 291600Z 32020G32KT 15SM FEW100 BKN250 00/M15 A3014 RMK AC2CI2 SLP250=

CYQF;2005-04-29 17:00;METAR CYQF 291700Z 32022G34KT 15SM SCT100 OVC250 01/M14 A3013 RMK AC3CI2 SLP247=

CYQF;2005-04-29 18:00;METAR CYQF 291800Z 32015G25KT 15SM FEW040 BKN100 OVC250 01/M12 A3013 RMK SC2AC4CI2 VIRGA DIST NW SLP247=

CYQF;2005-04-29 19:00;METAR CYQF 291900Z 31018G28KT 15SM SCT040 BKN100 OVC250 02/M11 A3013 RMK SC3AC2CI2 SLP248=

CYQF;2005-04-29 20:00;METAR CYQF 292000Z 33018G27KT 15SM SCT050 BKN100 OVC250 02/M10 A3013 RMK SC4AC2CI1 SLP247=

CYQF;2005-04-29 21:00;METAR CYQF 292100Z 33020G30KT 15SM BKN036 BKN100 OVC250 02/M08 A3013 RMK SC5AC2CI1 SLP251=

CYQF;2005-04-29 22:00;METAR CYQF 292200Z 35018G26KT 15SM BKN040 BKN100 OVC250 02/M07 A3014 RMK SC5AC2CI1 SLP253=

CYQF;2005-04-29 23:00;METAR CYQF 292300Z 33015G25KT 15SM VCSH BKN025 OVC100 02/M09 A3015 RMK SC6AC2 SLP256=

CYQF;2005-04-30 01:00;METAR CYQF 300100Z 33017G26KT 15SM BKN030 OVC090 01/M08 A3017 RMK SC6AC2 VIRGA/SHS ALQDS SLP266=

CYQF;2005-04-30 02:00;METAR CYQF 300200Z 01015G20KT 15SM VCSH FEW010 BKN030 BKN090 M01/M05 A3019 RMK SF1SC5AC1 SLP272=

CYQF;2005-04-30 02:31;SPECI CYQF 300231Z 36013G20KT 3SM -SHSN FEW010 OVC030 RMK SF2SC6=

CYQF;2005-04-30 03:00;METAR CYQF 300300Z 01015KT 3SM -SHSN SCT010 OVC030 M02/M03 A3022 RMK SF3SC5 SLP279=

CYQF;2005-04-30 03:20;SPECI CYQF 300320Z 36015G20KT 10SM VCSH OVC020 RMK SC8=

CYQF;2005-04-30 04:00;METAR CYQF 300400Z 36015KT 15SM VCSH BKN015 OVC030 M03/M06 A3025 RMK SC5SC3 SLP288=

CYQF;2005-04-30 04:42;SPECI CYQF 300442Z 36016KT 15SM -SHSN BKN015 RMK SC7=

CYQF;2005-04-30 05:00;METAR CYQF 300500Z 36013KT 15SM -SHSN OVC014 M03/M05 A3025 RMK SC8 SLP289=

CYQF;2005-04-30 06:00;METAR CYQF 300600Z 34012KT 10SM -SHSN SCT014 OVC035 M03/M05 A3026 RMK SC3SC5 SLP292=

CYQF;2005-04-30 07:00;METAR CYQF 300700Z 34011KT 5SM -SHSN BKN017 M04/M06 A3028 RMK SC6 SLP298=

CYQF;2005-04-30 08:00;METAR CYQF 300800Z 33012KT 8SM -SHSN BKN020 OVC045 M04/M06 A3029 RMK SC6SC2 SLP302=

CYQF;2005-04-30 09:00;METAR CYQF 300900Z 34012G17KT 10SM -SN SCT020 OVC040 M04/M06 A3030 RMK SC4SC4 SLP304=

CYQF;2005-04-30 10:00;METAR CYQF 301000Z 35008KT 10SM -SN BKN014 OVC040 M04/M06 A3030 RMK SC6SC2 SLP306=

CYQF;2005-04-30 11:00;METAR CYQF 301100Z 01008KT 3SM -SN OVC012 M04/M06 A3031 RMK SC8 SLP309=

CYQF;2005-04-30 12:00;METAR CYQF 301200Z 34012KT 8SM -SN BKN012 OVC040 M05/M07 A3032 RMK SC7SC1 SLP314=

CYQF;2005-04-30 13:00;METAR CYQF 301300Z 36007KT 15SM BKN030 BKN100 M05/M08 A3034 RMK SC6AC1 SLP319=

CYQF;2005-04-30 13:14;SPECI CYQF 301314Z 36006KT 10SM -SHSN BKN030 OVC100 RMK SC7AC1=

CYQF;2005-04-30 14:00;METAR CYQF 301400Z 01007KT 10SM -SHSN BKN020 BKN100 OVC250 M05/M07 A3035 RMK SC6AC1CI0 SLP323=

CYQF;2005-04-30 15:00;METAR CYQF 301500Z 35007KT 10SM -SHSN OVC014 M04/M06 A3035 RMK SC8 SLP329=

CYQF;2005-04-30 16:00;METAR CYQF 301600Z 36014G22KT 15SM BKN015 BKN100 M02/M07 A3035 RMK SC6AC1 SLP329=

CYQF;2005-04-30 16:35;SPECI CYQF 301635Z 36012KT 10SM -SHSN OVC015 RMK SC8=

CYQF;2005-04-30 17:00;METAR CYQF 301700Z 33012G24KT 6SM -SHSN OVC015 M02/M06 A3036 RMK SC8 SLP332=

CYQF;2005-04-30 18:00;METAR CYQF 301800Z 34014G23KT 10SM -SHSN BKN015 M01/M06 A3036 RMK SC7 SLP329=

CYQF;2005-04-30 19:00;METAR CYQF 301900Z 35013G22KT 15SM BKN020 01/M06 A3036 RMK SC6 SLP329=

CYQF;2005-04-30 20:00;METAR CYQF 302000Z 34010KT 15SM BKN025 02/M07 A3036 RMK SC6 SLP329=

CYQF;2005-04-30 21:00;METAR CYQF 302100Z 01012KT 15SM BKN025 02/M07 A3036 RMK SC6 SLP327=

CYQF;2005-04-30 22:00;METAR CYQF 302200Z 02012KT 15SM BKN030 01/M07 A3036 RMK SC7 SLP328=

CYQF;2005-04-30 23:00;METAR CYQF 302300Z 03012KT 15SM BKN035 02/M07 A3037 RMK SC6 SLP329=

CYQF;2005-05-01 00:00;METAR CYQF 010000Z 04013KT 15SM BKN035 02/M07 A3038 RMK SC5 SLP334=

CYQF;2005-05-01 01:00;METAR CYQF 010100Z 05012KT 15SM FEW035 02/M08 A3038 RMK SC2 SLP335=

CYQF;2005-05-01 02:00;METAR CYQF 010200Z 04010KT 15SM FEW035 FEW100 FEW250 01/M08 A3038 RMK SC1AC1CI0 TR SC + AC SLP336=

CYQF;2005-05-01 03:00;METAR CYQF 010300Z 08005KT 15SM FEW100 FEW250 M02/M08 A3040 RMK AC1CI0 TR AC SLP345=

CYQF;2005-05-01 04:00;METAR CYQF 010400Z 00000KT 15SM FEW100 FEW250 M03/M08 A3042 RMK AC1CI1 TR CLD SLP351=

CYQF;2005-05-01 05:00;METAR CYQF 010500Z 00000KT 15SM SKC M05/M08 A3043 RMK SLP354=

CYQF;2005-05-01 06:00;METAR CYQF 010600Z 08005KT 15SM SKC M05/M09 A3043 RMK SLP356=

CYQF;2005-05-01 07:00;METAR CYQF 010700Z 00000KT 15SM SKC M07/M09 A3044 RMK SLP358=

CYQF;2005-05-01 08:00;METAR CYQF 010800Z 00000KT 15SM SKC M08/M09 A3044 RMK SLP358=

CYQF;2005-05-01 09:00;METAR CYQF 010900Z 09003KT 15SM SKC M07/M08 A3044 RMK SLP357=

CYQF;2005-05-01 10:00;METAR CYQF 011000Z 00000KT 15SM SKC M07/M08 A3043 RMK SLP356=

CYQF;2005-05-01 11:00;METAR CYQF 011100Z 00000KT 15SM FEW100 M09/M10 A3044 RMK AC1 SLP357=

CYQF;2005-05-01 12:00;METAR CYQF 011200Z 00000KT 8SM PRFG FEW100 FEW250 M09/M09 A3044 RMK AC1CI0 F BANK N VSBY 11/2 SLP359=

CYQF;2005-05-01 12:26;SPECI CYQF 011226Z 00000KT 1/2SM FZFG SCT100 SCT250 RMK FG2AC1CI0=

CYQF;2005-05-01 12:37;SPECI CYQF 011237Z 00000KT 1 1/2SM BR FEW100 FEW250 RMK FG1AC1CI0=

CYQF;2005-05-01 13:00;METAR CYQF 011300Z 00000KT 6SM BR FEW100 FEW250 M08/M09 A3044 RMK AC1CI0 SLP360=

CYQF;2005-05-01 14:00;METAR CYQF 011400Z 00000KT 8SM SKC M05/M07 A3045 RMK BR SLP364=

CYQF;2005-05-01 15:00;METAR CYQF 011500Z 00000KT 15SM FEW025 M01/M06 A3045 RMK SC1 SLP360=

CYQF;2005-05-01 16:00;METAR CYQF 011600Z 08005KT 15SM SCT025 01/M07 A3045 RMK SC3 SLP358=

CYQF;2005-05-01 17:00;METAR CYQF 011700Z 14003KT 15SM SCT025 01/M07 A3045 RMK SC4 SLP358=

CYQF;2005-05-01 18:00;METAR CYQF 011800Z 35006KT 15SM SCT025 02/M07 A3044 RMK SC3 SLP354=

CYQF;2005-05-01 19:00;METAR CYQF 011900Z 34004KT 15SM SCT040 03/M07 A3043 RMK SC4 SLP352=

CYQF;2005-05-01 20:00;METAR CYQF 012000Z 07005KT 15SM SCT040 04/M07 A3042 RMK CU4 SLP349=

CYQF;2005-05-01 21:00;METAR CYQF 012100Z 06005KT 15SM SCT045 05/M08 A3041 RMK CU3 SLP345=

CYQF;2005-05-01 22:00;METAR CYQF 012200Z 21002KT 15SM SCT045 05/M08 A3040 RMK CU3 SLP343=

CYQF;2005-05-02 00:00;METAR CYQF 020000Z 36003KT 15SM FEW050 06/M08 A3037 RMK CU2 SLP333=

CYQF;2005-05-02 01:00;METAR CYQF 020100Z 09003KT 15SM FEW050 06/M08 A3036 RMK CU1 TR CLD SLP330=

CYQF;2005-05-02 02:00;METAR CYQF 020200Z 06003KT 15SM SKC 05/M08 A3035 RMK SLP326=

CYQF;2005-05-02 03:00;METAR CYQF 020300Z 07008KT 15SM SKC 02/M07 A3035 RMK SLP320=

CYQF;2005-05-02 04:00;METAR CYQF 020400Z 09005KT 15SM SKC M01/M08 A3037 RMK SLP325=

CYQF;2005-05-02 05:00;METAR CYQF 020500Z 09003KT 15SM SKC M02/M08 A3036 RMK SLP324=

CYQF;2005-05-02 06:00;METAR CYQF 020600Z 15002KT 15SM SKC M02/M08 A3036 RMK SLP327=

CYQF;2005-05-02 07:00;METAR CYQF 020700Z 14004KT 15SM FEW100 M02/M08 A3036 RMK AC2 SLP327=

CYQF;2005-05-02 08:00;METAR CYQF 020800Z 00000KT 15SM FEW100 FEW250 M04/M08 A3036 RMK AC1CI0 SLP325=

CYQF;2005-05-02 09:00;METAR CYQF 020900Z 00000KT 15SM FEW100 FEW250 M06/M09 A3035 RMK AC1CI1 SLP322=

CYQF;2005-05-02 10:00;METAR CYQF 021000Z 00000KT 15SM FEW100 FEW250 M05/M08 A3035 RMK AC1CI1 SLP322=

CYQF;2005-05-02 11:00;METAR CYQF 021100Z 17003KT 15SM FEW250 M07/M09 A3034 RMK CI0 SLP319=

CYQF;2005-05-02 12:00;METAR CYQF 021200Z 17002KT 15SM FEW250 M08/M09 A3033 RMK CI0 SLP316=

CYQF;2005-05-02 13:00;METAR CYQF 021300Z 00000KT 15SM SKC M06/M09 A3032 RMK SLP313=

CYQF;2005-05-02 14:00;METAR CYQF 021400Z 15002KT 15SM SKC M02/M07 A3032 RMK SLP312=

CYQF;2005-05-02 15:00;METAR CYQF 021500Z 14008KT 15SM SKC 01/M07 A3030 RMK SLP302=

CYQF;2005-05-02 16:00;METAR CYQF 021600Z 15008KT 15SM SKC 03/M06 A3029 RMK SLP298=

CYQF;2005-05-02 17:00;METAR CYQF 021700Z 16010KT 15SM SKC 05/M06 A3027 RMK SLP292=

CYQF;2005-05-02 18:00;METAR CYQF 021800Z 15007KT 15SM SKC 07/M06 A3025 RMK SLP283=

CYQF;2005-05-02 19:00;METAR CYQF 021900Z 17010KT 15SM SKC 09/M05 A3024 RMK SLP277=

CYQF;2005-05-02 20:00;METAR CYQF 022000Z 15010KT 15SM SKC 09/M05 A3021 RMK SLP269=

CYQF;2005-05-02 21:00;METAR CYQF 022100Z 13008KT 15SM SKC 11/M06 A3019 RMK SLP259=

CYQF;2005-05-02 22:00;METAR CYQF 022200Z 15008KT 15SM SKC 11/M06 A3016 RMK SLP250=

CYQF;2005-05-02 23:00;METAR CYQF 022300Z 18007KT 15SM SKC 12/M06 A3013 RMK SLP241=

CYQF;2005-05-03 00:00;METAR CYQF 030000Z 15007KT 15SM SKC 12/M06 A3011 RMK SLP231=

CYQF;2005-05-03 01:00;METAR CYQF 030100Z 15006KT 15SM SKC 12/M07 A3008 RMK SLP224=

CYQF;2005-05-03 02:00;METAR CYQF 030200Z 15010KT 15SM SKC 11/M07 A3006 RMK SLP218=

CYQF;2005-05-03 04:00;METAR CYQF 030400Z 15005KT 15SM SKC 06/M07 A3006 RMK SLP210=

CYQF;2005-05-03 05:00;METAR CYQF 030500Z 16009KT 15SM SKC 04/M06 A3005 RMK SLP207=

CYQF;2005-05-03 06:00;METAR CYQF 030600Z 17013KT 15SM SKC 04/M06 A3003 RMK SLP199=

CYQF;2005-05-03 07:00;METAR CYQF 030700Z 17012KT 15SM SKC 03/M06 A3002 RMK SLP195=

CYQF;2005-05-03 08:00;METAR CYQF 030800Z 16010KT 15SM SKC 02/M06 A3001 RMK SLP191=

CYQF;2005-05-03 10:00;METAR CYQF 031000Z 16008KT 15SM SKC M01/M07 A2997 RMK SLP178=

CYQF;2005-05-03 11:00;METAR CYQF 031100Z 17005KT 15SM FEW250 M02/M07 A2995 RMK CI1 SLP170=

CYQF;2005-05-03 13:00;METAR CYQF 031300Z 17008KT 15SM FEW080 FEW120 BKN250 01/M06 A2992 RMK AC1AC1CI1 SLP159=

CYQF;2005-05-03 14:00;METAR CYQF 031400Z 19008KT 15SM FEW080 SCT120 BKN250 03/M06 A2991 RMK AC2AC2CI1 SLP156=

CYQF;2005-05-03 16:00;METAR CYQF 031600Z 18004KT 15SM BKN090 OVC250 07/M04 A2988 RMK AC7CI0 SLP145=

CYQF;2005-05-03 17:00;METAR CYQF 031700Z 21002KT 15SM SCT090 BKN250 08/M03 A2988 RMK AC3CI2 SLP145=

CYQF;2005-05-03 18:00;METAR CYQF 031800Z 00000KT 15SM FEW090 BKN250 10/M03 A2987 RMK AC1CI1 SLP140=

CYQF;2005-05-03 19:00;METAR CYQF 031900Z 02004KT 15SM FEW100 FEW250 13/M01 A2986 RMK AC1CI1 SLP137=

CYQF;2005-05-03 20:00;METAR CYQF 032000Z 25007KT 15SM FEW060 FEW100 FEW250 15/M00 A2985 RMK CU1AC1CI1 SLP132=

CYQF;2005-05-03 21:00;METAR CYQF 032100Z 30014KT 15SM FEW060 BKN100 BKN250 15/M02 A2985 RMK CU1AC5CI1 SLP130=

CYQF;2005-05-03 22:00;METAR CYQF 032200Z 35007KT 15SM FEW060 BKN100 BKN250 16/M01 A2985 RMK CU2AC4CI0 SLP128=

CYQF;2005-05-03 23:00;METAR CYQF 032300Z 33013KT 15SM BKN100 15/M01 A2984 RMK AC7 VIRGA SLP126=

CYQF;2005-05-04 00:00;METAR CYQF 040000Z 31007KT 15SM BKN100 14/M01 A2984 RMK AC6 SLP129=

CYQF;2005-05-04 01:00;METAR CYQF 040100Z 33015G29KT 10SM -SHRA SCT060TCU BKN100 13/00 A2984 RMK TCU4AC2 SLP129=

CYQF;2005-05-04 01:45;SPECI CYQF 040145Z 32012KT 15SM SCT060TCU BKN100 RMK TCU3AC3 SHS SE - SW=

CYQF;2005-05-04 02:00;METAR CYQF 040200Z 33012KT 15SM SCT060TCU BKN100 12/03 A2985 RMK TCU3AC3 SHS SE-SW SLP133=

CYQF;2005-05-04 03:00;METAR CYQF 040300Z 32007KT 15SM SCT050TCU BKN100 10/03 A2986 RMK TCU3AC2 SLP136=

CYQF;2005-05-04 04:00;METAR CYQF 040400Z 33010KT 15SM SCT050TCU BKN100 10/04 A2988 RMK TCU3AC3 SLP141=

CYQF;2005-05-04 04:45;SPECI CYQF 040445Z 32006KT 15SM -SHRA BKN050TCU BKN100 RMK TCU5AC2=

CYQF;2005-05-04 05:00;METAR CYQF 040500Z 32005KT 15SM -SHRA BKN050 BKN100 09/04 A2990 RMK SC5AC2 TCU ASOCT SLP147=

CYQF;2005-05-04 05:30;SPECI CYQF 040530Z 31005KT 15SM SCT050 BKN100 RMK SC4AC2=

CYQF;2005-05-04 06:00;METAR CYQF 040600Z 32008KT 15SM SCT050 BKN100 08/04 A2990 RMK SC3AC2 SLP145=

CYQF;2005-05-04 07:00;METAR CYQF 040700Z 32010G17KT 15SM SCT050 BKN100 07/04 A2991 RMK SC3AC3 SLP149=

CYQF;2005-05-04 07:22;SPECI CYQF 040722Z 32010KT 15SM -SHRA BKN050 OVC100 RMK SC6AC2=

CYQF;2005-05-04 07:46;SPECI CYQF 040746Z 30005KT 15SM FEW050 BKN100 RMK SC2AC2=

CYQF;2005-05-04 08:00;METAR CYQF 040800Z 22002KT 15SM SCT100 05/03 A2990 RMK AC3 SLP145=

CYQF;2005-05-04 09:00;METAR CYQF 040900Z 26010KT 15SM SCT100 03/03 A2991 RMK AC4 SLP147=

CYQF;2005-05-04 10:00;METAR CYQF 041000Z 31007KT 15SM SCT100 BKN250 05/03 A2993 RMK AC3CI2 SLP152=

CYQF;2005-05-04 11:00;METAR CYQF 041100Z 31002KT 15SM SCT090 BKN250 04/03 A2994 RMK AC3CI2 SLP156=

CYQF;2005-05-04 12:00;METAR CYQF 041200Z 30003KT 15SM SCT090 BKN250 03/02 A2995 RMK AC4CI1 VIRGA SLP162=

CYQF;2005-05-04 13:00;METAR CYQF 041300Z 31004KT 15SM FEW050 BKN090 04/03 A2995 RMK SC2AC2 VIRGA SW+SE SLP163=

CYQF;2005-05-04 14:00;METAR CYQF 041400Z 33005KT 15SM FEW090 FEW250 06/04 A2997 RMK AC1CI1 SLP169=

CYQF;2005-05-04 15:00;METAR CYQF 041500Z 36004KT 15SM FEW090 FEW250 08/02 A2998 RMK AC1CI1 SLP171=

CYQF;2005-05-04 16:00;METAR CYQF 041600Z 05003KT 15SM FEW100 FEW250 10/02 A2999 RMK AC1CI1 SLP174=

CYQF;2005-05-04 17:00;METAR CYQF 041700Z 00000KT 15SM FEW045 FEW250 11/M00 A2999 RMK CU1CI1 SLP174=

CYQF;2005-05-04 18:00;METAR CYQF 041800Z 30002KT 15SM FEW050 13/00 A2999 RMK CU2 SLP172=

CYQF;2005-05-04 19:00;METAR CYQF 041900Z 22008KT 15SM BKN050 13/M01 A2997 RMK CU6 SLP168=

CYQF;2005-05-04 20:00;METAR CYQF 042000Z 03003KT 15SM BKN060 14/M01 A2996 RMK CU6 SLP165=

CYQF;2005-05-04 21:00;METAR CYQF 042100Z 33006KT 15SM SCT060 SCT100 14/M02 A2996 RMK CU3AC1 SLP166=

CYQF;2005-05-04 22:00;METAR CYQF 042200Z 06004KT 15SM SCT060 SCT100 15/M02 A2995 RMK CU3AC1 SLP162=

CYQF;2005-05-05 00:00;METAR CYQF 050000Z 11004KT 15SM FEW060 SCT090 SCT250 15/M03 A2993 RMK CU2AC2CI0 SLP155=

CYQF;2005-05-05 01:00;METAR CYQF 050100Z 12008KT 15SM FEW060 SCT100 SCT250 16/M02 A2993 RMK CU2AC2CI0 SLP153=

CYQF;2005-05-05 02:00;METAR CYQF 050200Z 10003KT 15SM FEW060 FEW100 SCT250 15/M02 A2993 RMK CU2AC1CI0 SLP153=

CYQF;2005-05-05 03:00;METAR CYQF 050300Z 14004KT 15SM FEW060 SCT250 13/M03 A2993 RMK SC2CI1 SLP152=

CYQF;2005-05-05 04:00;METAR CYQF 050400Z 14005KT 15SM FEW060 FEW250 11/M03 A2995 RMK SC1CI1 SLP156=

CYQF;2005-05-05 05:00;METAR CYQF 050500Z 14007KT 15SM FEW060 FEW250 09/M04 A2995 RMK SC1CI1 SLP157=

CYQF;2005-05-05 06:00;METAR CYQF 050600Z 15008KT 15SM SKC 09/M04 A2995 RMK SLP157=

CYQF;2005-05-05 07:00;METAR CYQF 050700Z 15010KT 15SM SKC 07/M03 A2995 RMK SLP157=

CYQF;2005-05-05 08:00;METAR CYQF 050800Z 17003KT 15SM SKC 05/M03 A2994 RMK SLP155=

CYQF;2005-05-05 09:00;METAR CYQF 050900Z 18004KT 15SM SKC 04/M02 A2994 RMK SLP156=

CYQF;2005-05-05 10:00;METAR CYQF 051000Z 18010KT 15SM SKC 05/M02 A2993 RMK SLP155=

CYQF;2005-05-05 11:00;METAR CYQF 051100Z 18006KT 15SM SKC 05/M01 A2993 RMK SLP154=

CYQF;2005-05-05 12:00;METAR CYQF 051200Z 16005KT 15SM SKC 03/M02 A2992 RMK SLP150=

CYQF;2005-05-05 13:00;METAR CYQF 051300Z 16005KT 15SM FEW100 SCT250 05/M01 A2991 RMK AC1CI1 SLP147=

CYQF;2005-05-05 14:00;METAR CYQF 051400Z 16007KT 15SM FEW100 BKN250 06/M01 A2990 RMK AC1CI2 SLP146=

CYQF;2005-05-05 15:00;METAR CYQF 051500Z 17013KT 15SM FEW100 BKN250 10/02 A2988 RMK AC1CI1 SLP133=

CYQF;2005-05-05 16:00;METAR CYQF 051600Z 16011KT 15SM FEW100 BKN250 13/03 A2987 RMK AC1CI1 SLP129=

CYQF;2005-05-05 17:00;METAR CYQF 051700Z 16012KT 15SM FEW050 BKN100 16/03 A2986 RMK CU1CI1 SLP126=

CYQF;2005-05-05 18:00;METAR CYQF 051800Z 15011KT 15SM FEW050 BKN250 18/03 A2984 RMK CU1CI0 SLP115=

CYQF;2005-05-05 19:00;METAR CYQF 051900Z 17006KT 15SM SCT050 BKN250 18/02 A2982 RMK CU4CI0 SLP107=

CYQF;2005-05-05 20:00;METAR CYQF 052000Z 16013KT 15SM BKN060 BKN250 20/02 A2979 RMK CU6CI0 SLP100=

CYQF;2005-05-05 21:00;METAR CYQF 052100Z 22006KT 15SM SCT065 BKN250 21/01 A2977 RMK CU3CI1 SLP093=

CYQF;2005-05-05 22:00;METAR CYQF 052200Z 18008KT 15SM SCT065 BKN100 BKN250 21/01 A2976 RMK CU4AC1CI1 SLP087=

CYQF;2005-05-05 23:00;METAR CYQF 052300Z 18010KT 15SM SCT065TCU BKN100 BKN250 20/00 A2974 RMK TCU4AC2CI0 VIRGA W SLP083=

CYQF;2005-05-06 00:00;METAR CYQF 060000Z 23005KT 15SM SCT065TCU SCT100 BKN250 21/01 A2972 RMK TCU3AC1CI0 SLP076=

CYQF;2005-05-06 01:00;METAR CYQF 060100Z 19009KT 15SM FEW065TCU SCT100 BKN250 21/00 A2971 RMK TCU2AC1CI1 SLP071=

CYQF;2005-05-06 02:00;METAR CYQF 060200Z 15010KT 15SM FEW060TCU SCT100 BKN250 19/01 A2970 RMK TCU2AC1CI1 SHS S SLP069=

CYQF;2005-05-06 03:00;METAR CYQF 060300Z 17010KT 15SM FEW060TCU SCT100 BKN250 17/02 A2970 RMK TCU2AC2CI0 SLP065=

CYQF;2005-05-06 03:15;SPECI CYQF 060315Z 15014KT 15SM TS BKN060CB BKN100 BKN250 RMK CB5AC1CI0 SHS SE - SW=

CYQF;2005-05-06 03:30;SPECI CYQF 060330Z 17015G28KT 15SM -TSRA BKN060CB BKN100 OVC250 RMK CB5AC2CI0 LTGIC/CG HVR SHS SE=

CYQF;2005-05-06 04:00;METAR CYQF 060400Z 21005KT 15SM -SHRA BKN060CB BKN100 OVC250 15/08 A2971 RMK CB5AC2CI0 SLP069=

CYQF;2005-05-06 05:00;METAR CYQF 060500Z 03006KT 15SM SCT050TCU SCT100 BKN250 14/07 A2969 RMK TCU3AC1CI0 SLP061=

CYQF;2005-05-06 06:00;METAR CYQF 060600Z 29010KT 15SM FEW040 BKN080 BKN250 11/08 A2970 RMK SC2AC3CI0 SLP063=

CYQF;2005-05-06 07:00;METAR CYQF 060700Z 36005KT 15SM SCT090 BKN250 12/05 A2969 RMK AC3CI1 SLP060=

CYQF;2005-05-06 08:00;METAR CYQF 060800Z 36005KT 15SM FEW090 SCT250 08/05 A2969 RMK AC2CI1 SLP061=

CYQF;2005-05-06 09:00;METAR CYQF 060900Z 34005KT 15SM BKN100 BKN250 08/05 A2967 RMK AC5CI1 SLP055=

CYQF;2005-05-06 10:00;METAR CYQF 061000Z 33006KT 15SM BKN100 OVC250 07/04 A2967 RMK AC5CI2 SLP053=

CYQF;2005-05-06 11:00;METAR CYQF 061100Z 33006KT 15SM BKN100 OVC250 07/05 A2966 RMK AC5CI2 SLP051=

CYQF;2005-05-06 12:00;METAR CYQF 061200Z 31005KT 15SM SCT100 BKN210 06/04 A2967 RMK AC3CI2 SLP054=

CYQF;2005-05-06 13:00;METAR CYQF 061300Z 33007KT 15SM FEW100 BKN250 08/05 A2967 RMK AC2CI2 SLP055=

CYQF;2005-05-06 15:00;METAR CYQF 061500Z 02008KT 15SM FEW120 BKN250 12/07 A2966 RMK AC1CI2 SLP051=

CYQF;2005-05-06 16:00;METAR CYQF 061600Z 02008KT 15SM BKN250 14/05 A2965 RMK CI2 SLP047=

CYQF;2005-05-06 17:00;METAR CYQF 061700Z 01006KT 15SM FEW030 FEW120 BKN250 15/05 A2965 RMK CU1AC1CI2 SLP045=

CYQF;2005-05-06 18:00;METAR CYQF 061800Z 02010G15KT 15SM FEW040 FEW120 SCT250 17/05 A2964 RMK CU1AC1CI1 SLP044=

CYQF;2005-05-06 19:00;METAR CYQF 061900Z 03013G18KT 15SM FEW045 FEW100 BKN250 18/06 A2964 RMK CU2AC1CI1 SLP043=

CYQF;2005-05-06 20:00;METAR CYQF 062000Z 05013G23KT 15SM SCT045 BKN250 18/05 A2964 RMK CU3CI0 SLP042=

CYQF;2005-05-06 21:00;METAR CYQF 062100Z 03013KT 15SM SCT045 BKN250 18/06 A2963 RMK CU4CI0 SLP042=

CYQF;2005-05-06 22:00;METAR CYQF 062200Z 05015KT 15SM SCT040 BKN100 BKN250 18/06 A2962 RMK CU4AC1CI1 SLP040=

CYQF;2005-05-06 23:00;METAR CYQF 062300Z 07010G15KT 15SM BKN040 BKN100 BKN250 17/06 A2963 RMK CU5AC2CI1 SLP043=

CYQF;2005-05-07 00:00;METAR CYQF 070000Z 06015G20KT 15SM SCT040TCU BKN100 BKN250 17/05 A2962 RMK TCU4AC2CI1 DIST SHS S-NW SLP042=

CYQF;2005-05-07 01:00;METAR CYQF 070100Z 09014G20KT 15SM BKN040TCU BKN100 OVC250 15/08 A2964 RMK TCU5AC2CI1 SHRA W SLP049=

CYQF;2005-05-07 01:31;SPECI CYQF 070131Z 17007KT 12SM -SHRA BKN040CB OVC100 RMK CB6AC2 LTGIC SE-SW=

CYQF;2005-05-07 01:41;SPECI CYQF 070141Z 15004KT 6SM -TSRA SCT007 OVC030CB RMK SF4CB4 LTGIC=

CYQF;2005-05-07 02:00;METAR CYQF 070200Z 16012KT 2 1/2SM -SHRA BR BKN005 OVC030CB 12/09 A2969 RETS RMK SF6CB2 LTGIC SLP064=

CYQF;2005-05-07 03:00;METAR CYQF 070300Z 08016G22KT 8SM -SHRA FEW007 BKN020TCU BKN080 11/10 A2968 RERA RMK SF2TCU4AC1 VIS LWR NW-SE SLP065=

CYQF;2005-05-07 03:36;SPECI CYQF 070336Z 01007KT 15SM FEW007 BKN030TCU BKN080 RERA RMK CF2TCU4AC2 VIS LWR N-NE=

CYQF;2005-05-07 04:00;METAR CYQF 070400Z 01005KT 15SM FEW007 BKN030TCU OVC080 11/10 A2973 RMK CF2TCU5AC2 SLP078=

CYQF;2005-05-07 05:00;METAR CYQF 070500Z 02006KT 15SM FEW007 SCT030 BKN080 10/09 A2974 RMK CF1SC3AC3 SLP081=

CYQF;2005-05-07 06:00;METAR CYQF 070600Z 05007KT 15SM FEW030 OVC080 10/09 A2974 RMK SC2AC6 SLP079=

CYQF;2005-05-07 07:00;METAR CYQF 070700Z 06005KT 15SM FEW020 OVC050 09/07 A2975 RMK SC1SC7 SLP082=

CYQF;2005-05-07 08:00;METAR CYQF 070800Z 06010KT 15SM FEW020 BKN050 09/07 A2975 RMK SC1SC6 SLP083=

CYQF;2005-05-07 09:00;METAR CYQF 070900Z 07010KT 15SM BKN012 OVC050 08/07 A2976 RMK SC5SC3 SLP087=

CYQF;2005-05-07 10:00;METAR CYQF 071000Z 04010KT 15SM OVC010 08/06 A2977 RMK SC8 SLP092=

CYQF;2005-05-07 11:00;METAR CYQF 071100Z 36007KT 15SM OVC009 07/06 A2980 RMK SC8 SLP100=

CYQF;2005-05-07 11:36;SPECI CYQF 071136Z 36008KT 10SM -RA OVC009 RMK SC8=

CYQF;2005-05-07 12:00;METAR CYQF 071200Z 03010G16KT 6SM -RA BR BKN011 OVC020 07/06 A2981 RMK SC7SC1 SLP108=

CYQF;2005-05-07 13:00;METAR CYQF 071300Z 01008KT 10SM -RA BKN007 OVC020 07/06 A2983 RMK SF6SC2 BR SLP115=

CYQF;2005-05-07 14:00;METAR CYQF 071400Z 02005KT 10SM -RA BKN010 OVC020 07/06 A2985 RMK SF6SC2 BR CIG RAG SLP121=

CYQF;2005-05-07 15:00;METAR CYQF 071500Z 01005KT 10SM BKN006 OVC010 07/06 A2986 RMK SF6SC2 BR CIG RAG SLP132=

CYQF;2005-05-07 17:00;METAR CYQF 071700Z 03008KT 12SM FEW008 BKN011 OVC030 08/06 A2988 RMK SF2SC4SC2 SLP137=

CYQF;2005-05-07 18:00;METAR CYQF 071800Z 36006KT 12SM BKN014 OVC030 08/06 A2989 RMK SC7SC1 SLP141=

CYQF;2005-05-07 19:00;METAR CYQF 071900Z 02006KT 15SM OVC015 09/06 A2990 RMK SC8 SLP144=

CYQF;2005-05-07 20:00;METAR CYQF 072000Z 01008KT 15SM FEW010 SCT015 BKN030 BKN100 10/06 A2990 RMK CF1CU4SC3AC1 SLP145=

CYQF;2005-05-07 21:00;METAR CYQF 072100Z 01009KT 15SM SCT015 OVC030 10/06 A2991 RMK CU3SC5 SLP150=

CYQF;2005-05-07 23:00;METAR CYQF 072300Z 03010KT 15SM FEW020TCU BKN080 11/05 A2993 RMK TCU2AC2 SLP154=

CYQF;2005-05-08 00:00;METAR CYQF 080000Z 04010KT 15SM SCT020 BKN080 11/05 A2994 RMK CU4AC3 SLP157=

CYQF;2005-05-08 01:00;METAR CYQF 080100Z 03009KT 15SM FEW020 OVC080 10/05 A2995 RMK SC2AC6 SLP161=

CYQF;2005-05-08 02:00;METAR CYQF 080200Z 36007KT 15SM SCT020 OVC080 09/06 A2997 RMK SC4AC4 SLP167=

CYQF;2005-05-08 03:00;METAR CYQF 080300Z 35007KT 15SM SCT020 OVC080 09/06 A2998 RMK SC4AC4 SLP175=

CYQF;2005-05-08 04:00;METAR CYQF 080400Z 01007KT 15SM SCT020 BKN080 08/05 A3000 RMK SC3AC4 SLP181=

CYQF;2005-05-08 05:00;METAR CYQF 080500Z 35007KT 15SM FEW020 BKN080 BKN250 07/04 A3001 RMK SC1AC6CI0 SLP185=

CYQF;2005-05-08 06:00;METAR CYQF 080600Z 32006KT 15SM BKN075 OVC250 06/03 A3003 RMK AC7CI0 SLP195=

CYQF;2005-05-08 07:00;METAR CYQF 080700Z 35005KT 15SM BKN050 OVC075 05/04 A3004 RMK SC6AC2 SLP196=

CYQF;2005-05-08 08:00;METAR CYQF 080800Z 00000KT 15SM BKN050 02/01 A3004 RMK SC6 SLP197=

CYQF;2005-05-08 09:00;METAR CYQF 080900Z 00000KT 15SM BKN050 05/03 A3003 RMK SC7 SLP194=

CYQF;2005-05-08 10:00;METAR CYQF 081000Z 30004KT 15SM BKN050 03/03 A3003 RMK SC6 SLP195=

CYQF;2005-05-08 11:00;METAR CYQF 081100Z 30003KT 15SM SCT050 SCT090 BKN250 03/02 A3003 RMK SC2AC1CI0 SLP194=

CYQF;2005-05-08 12:00;METAR CYQF 081200Z 00000KT 6SM BR FEW050 SCT100 BKN250 03/02 A3004 RMK SC2AC2CI0 SLP197=

CYQF;2005-05-08 13:00;METAR CYQF 081300Z 00000KT 6SM BR BKN050 BKN100 BKN250 04/03 A3005 RMK SC4AC1CI1 SLP199=

CYQF;2005-05-08 15:00;METAR CYQF 081500Z 16005KT 8SM SCT050 OVC100 08/05 A3006 RMK SC3AC4 BR SLP201=

CYQF;2005-05-08 16:00;METAR CYQF 081600Z 17008KT 12SM SCT030 OVC090 09/05 A3006 RMK SC3AC5 TCU ASOCTD SLP202=

CYQF;2005-05-08 17:00;METAR CYQF 081700Z 16010KT 15SM SCT035 BKN090 BKN270 11/05 A3005 RMK CU3AC2CI1 TCU ASOCTD SLP199=

CYQF;2005-05-08 18:00;METAR CYQF 081800Z 15010KT 15SM SCT035 BKN090 BKN270 12/03 A3004 RMK CU4AC1CI1 TCU ASOCTD SLP194=

CYQF;2005-05-08 19:00;METAR CYQF 081900Z 12006KT 15SM SCT038 BKN090 BKN270 12/03 A3002 RMK CU3AC2CI1 TCU ASOCTD SLP189=

CYQF;2005-05-08 20:00;METAR CYQF 082000Z 15007KT 15SM SCT040 BKN270 13/03 A3001 RMK CU3CI2 SLP186=

CYQF;2005-05-08 21:00;METAR CYQF 082100Z 13005KT 15SM SCT040 BKN090 BKN270 14/03 A3000 RMK CU3AC2CI1 SLP180=

CYQF;2005-05-08 22:00;METAR CYQF 082200Z 14006KT 15SM SCT045 BKN090 BKN270 14/03 A2999 RMK SC4AC2CI1 CU ASOCTD SLP176=

CYQF;2005-05-08 23:00;METAR CYQF 082300Z 18006KT 15SM SCT045 BKN090 BKN270 15/04 A2998 RMK SC3AC2CI1 CU ASOCTD SLP173=

CYQF;2005-05-09 00:00;METAR CYQF 090000Z 13008KT 15SM SCT050 BKN090 14/03 A2996 RMK SC4AC2 SLP168=

CYQF;2005-05-09 01:00;METAR CYQF 090100Z 13010KT 15SM FEW050 BKN090 14/02 A2995 RMK SC2AC6 SLP165=

CYQF;2005-05-09 02:00;METAR CYQF 090200Z 11006KT 15SM BKN090 14/04 A2995 RMK AC7 SLP164=

CYQF;2005-05-09 03:00;METAR CYQF 090300Z 11008KT 15SM BKN090 12/04 A2995 RMK AC7 SLP160=

CYQF;2005-05-09 04:00;METAR CYQF 090400Z 13007KT 15SM BKN090 12/03 A2995 RMK AC7 SLP161=

CYQF;2005-05-09 05:00;METAR CYQF 090500Z 14006KT 15SM OVC100 11/04 A2995 RMK AC8 SLP160=

CYQF;2005-05-09 06:00;METAR CYQF 090600Z 15005KT 15SM OVC100 11/04 A2995 RMK AC8 SLP157=

CYQF;2005-05-09 07:00;METAR CYQF 090700Z 16004KT 15SM BKN100 10/04 A2995 RMK AC7 SLP157=

CYQF;2005-05-09 08:00;METAR CYQF 090800Z 16004KT 15SM BKN100 10/04 A2994 RMK AC7 SLP153=

CYQF;2005-05-09 09:00;METAR CYQF 090900Z 15002KT 15SM BKN100 BKN250 10/05 A2993 RMK AC6CI2 SLP148=

CYQF;2005-05-09 10:00;METAR CYQF 091000Z 00000KT 15SM SCT100 BKN250 09/04 A2993 RMK AC4CI3 SLP147=

CYQF;2005-05-09 11:00;METAR CYQF 091100Z 14002KT 15SM FEW100 BKN250 08/04 A2992 RMK AC2CI3 SLP144=

CYQF;2005-05-09 12:00;METAR CYQF 091200Z 00000KT 15SM FEW050 BKN100 BKN250 07/04 A2992 RMK SC2AC3CI2 SLP148=

CYQF;2005-05-09 13:00;METAR CYQF 091300Z 00000KT 15SM BKN080 OVC250 08/04 A2993 RMK AC5CI3 SLP149=

CYQF;2005-05-09 14:00;METAR CYQF 091400Z 15003KT 15SM BKN080 OVC250 09/05 A2993 RMK AC6CI2 SLP151=

CYQF;2005-05-09 15:00;METAR CYQF 091500Z 22004KT 15SM FEW050 BKN080 BKN250 10/05 A2994 RMK CU1AC5CI1 SLP153=

CYQF;2005-05-09 16:00;METAR CYQF 091600Z 25004KT 15SM FEW040 SCT090 BKN250 12/05 A2994 RMK CU2AC2CI2 SLP153=

CYQF;2005-05-09 18:00;METAR CYQF 091800Z 32008KT 15SM BKN030 BKN060 13/04 A2994 RMK CU5SC2 SLP151=

CYQF;2005-05-09 19:00;METAR CYQF 091900Z 30010KT 15SM BKN030 OVC060 13/05 A2994 RMK CU5SC2 SLP151=

CYQF;2005-05-09 19:15;SPECI CYQF 091915Z 28005KT 15SM -SHRA BKN030 OVC060 RMK CU5SC2 TCU ASOCTD=

CYQF;2005-05-09 20:00;METAR CYQF 092000Z 27005KT 10SM -SHRA BKN030 OVC060 11/07 A2994 RMK CU6SC2 TCU ASOCT SLP151=

CYQF;2005-05-09 21:00;METAR CYQF 092100Z 35010G15KT 12SM -SHRA FEW025 BKN045 OVC090 12/05 A2995 RMK CU2SC4AC2 TCU EMBD SLP159=

CYQF;2005-05-09 21:27;SPECI CYQF 092127Z 01010G15KT 15SM FEW030 BKN050 OVC090 RMK CU2SC5AC2=

CYQF;2005-05-09 22:00;METAR CYQF 092200Z 36012G20KT 15SM VCSH BKN050 OVC080 12/04 A2996 RMK SC6AC2 SLP161=

CYQF;2005-05-09 23:00;METAR CYQF 092300Z 36010G15KT 15SM VCSH BKN040 OVC080 11/03 A2996 RMK SC6AC2 SLP162=

CYQF;2005-05-10 00:00;METAR CYQF 100000Z 36013KT 15SM BKN040 OVC080 12/04 A2997 RMK SC6AC2 SLP168=

CYQF;2005-05-10 01:00;METAR CYQF 100100Z 01011KT 15SM SCT040 OVC080 11/03 A2998 RMK SC4AC4 SLP170=

CYQF;2005-05-10 03:00;METAR CYQF 100300Z 36007KT 15SM BKN035 OVC090 09/05 A3001 RMK SC5AC3 SLP183=

CYQF;2005-05-10 04:00;METAR CYQF 100400Z 33004KT 15SM BKN035 OVC090 08/06 A3003 RMK SC5AC3 SLP188=

CYQF;2005-05-10 05:00;METAR CYQF 100500Z 33004KT 15SM FEW035 OVC090 08/05 A3004 RMK SC2AC6 SLP191=

CYQF;2005-05-10 06:00;METAR CYQF 100600Z 35004KT 15SM -SHRA SCT055 OVC090 08/06 A3005 RMK SC4AC4 SLP192=

CYQF;2005-05-10 06:19;SPECI CYQF 100619Z 33005KT 15SM SCT050 OVC090 RMK SC4AC4=

CYQF;2005-05-10 07:00;METAR CYQF 100700Z 36010KT 15SM -RA SCT050 OVC090 07/06 A3005 RMK SC4AC4 SLP194=

CYQF;2005-05-10 08:00;METAR CYQF 100800Z 04011KT 15SM FEW050 BKN090 08/04 A3006 RMK SC2AC3 SLP197=

CYQF;2005-05-10 09:00;METAR CYQF 100900Z 04013KT 15SM FEW050 BKN100 07/02 A3008 RMK SC2AC5 SLP208=

CYQF;2005-05-10 10:00;METAR CYQF 101000Z 04013KT 15SM FEW050 BKN100 04/00 A3011 RMK SC2AC5 SLP216=

CYQF;2005-05-10 11:00;METAR CYQF 101100Z 03010G16KT 15SM SCT050 BKN100 04/M00 A3014 RMK SC4AC2 SLP225=

CYQF;2005-05-10 12:00;METAR CYQF 101200Z 07012G18KT 15SM FEW012 SCT050 BKN090 02/M02 A3016 RMK SF2SC2AC3 SLP241=

CYQF;2005-05-10 13:00;METAR CYQF 101300Z 06011KT 15SM FEW012 BKN050 BKN090 02/M03 A3019 RMK SF1SC5AC2 SLP248=

CYQF;2005-05-10 14:00;METAR CYQF 101400Z 06010G17KT 15SM FEW012 BKN050 BKN090 01/M03 A3021 RMK SF1SC5AC2 SLP255=

CYQF;2005-05-10 15:00;METAR CYQF 101500Z 08012KT 15SM FEW015 SCT050 OVC090 02/M03 A3024 RMK SF1SC2AC4 SLP269=

CYQF;2005-05-10 16:00;METAR CYQF 101600Z 06010KT 15SM FEW020 BKN060 BKN090 03/M02 A3025 RMK CF1SC4AC2 SLP275=

CYQF;2005-05-10 17:00;METAR CYQF 101700Z 05004KT 15SM FEW020 BKN060 BKN100 03/M03 A3027 RMK CF1SC4AC2 SLP279=

CYQF;2005-05-10 18:00;METAR CYQF 101800Z 08002KT 15SM FEW025 BKN070 BKN100 05/M04 A3027 RMK CF1AC5AC1 SLP279=

CYQF;2005-05-10 19:00;METAR CYQF 101900Z 08008KT 15SM FEW030 SCT070 BKN100 06/M05 A3027 RMK CF1AC3AC2 SLP279=

CYQF;2005-05-10 20:00;METAR CYQF 102000Z 14005KT 15SM FEW030 FEW070 BKN100 07/M04 A3028 RMK CU1AC2AC4 SLP281=

CYQF;2005-05-10 21:00;METAR CYQF 102100Z 04005KT 15SM FEW035 FEW070 BKN100 07/M04 A3028 RMK CU1AC2AC3 SLP280=

CYQF;2005-05-10 22:00;METAR CYQF 102200Z 08002KT 15SM FEW070 BKN100 08/M03 A3027 RMK AC2AC2 SLP278=

CYQF;2005-05-10 23:00;METAR CYQF 102300Z 17008KT 15SM FEW100 09/M03 A3026 RMK AC2 SLP275=

CYQF;2005-05-11 00:00;METAR CYQF 110000Z 00000KT 15SM FEW100 10/M02 A3026 RMK AC2 SLP275=

CYQF;2005-05-11 01:00;METAR CYQF 110100Z 24006KT 15SM FEW120 09/M01 A3025 RMK AC1 SLP273=

CYQF;2005-05-11 02:00;METAR CYQF 110200Z 19005KT 15SM FEW120 09/M02 A3025 RMK AC1 SLP271=

CYQF;2005-05-11 03:00;METAR CYQF 110300Z 13007KT 15SM FEW120 08/M04 A3024 RMK AC1 SLP272=

CYQF;2005-05-11 04:00;METAR CYQF 110400Z 13007KT 15SM SKC 07/M05 A3025 RMK SLP273=

CYQF;2005-05-11 05:00;METAR CYQF 110500Z 15011KT 15SM SKC 05/M06 A3024 RMK SLP271=

CYQF;2005-05-11 06:00;METAR CYQF 110600Z 17007KT 15SM SKC 04/M06 A3024 RMK SLP272=

CYQF;2005-05-11 07:00;METAR CYQF 110700Z 16012KT 15SM SKC 04/M06 A3023 RMK SLP269=

CYQF;2005-05-11 08:00;METAR CYQF 110800Z 16013KT 15SM SKC 04/M06 A3021 RMK SLP265=

CYQF;2005-05-11 09:00;METAR CYQF 110900Z 16012G17KT 15SM SKC 03/M07 A3020 RMK SLP256=

CYQF;2005-05-11 10:00;METAR CYQF 111000Z 16012G21KT 15SM SKC 03/M07 A3019 RMK SLP253=

CYQF;2005-05-11 11:00;METAR CYQF 111100Z 18013KT 15SM SKC 03/M08 A3018 RMK SLP252=

CYQF;2005-05-11 12:00;METAR CYQF 111200Z 18013KT 15SM FEW090 02/M08 A3017 RMK AC1 SLP246=

CYQF;2005-05-11 13:00;METAR CYQF 111300Z 18012G20KT 15SM FEW090 02/M08 A3017 RMK AC1 SLP245=

CYQF;2005-05-11 14:00;METAR CYQF 111400Z 17015G24KT 15SM FEW090 03/M08 A3017 RMK AC1 SLP246=

CYQF;2005-05-11 15:00;METAR CYQF 111500Z 16015G22KT 15SM SKC 06/M07 A3016 RMK SLP239=

CYQF;2005-05-11 16:00;METAR CYQF 111600Z 17015G25KT 15SM SKC 09/M05 A3016 RMK SLP238=

CYQF;2005-05-11 17:00;METAR CYQF 111700Z 17020G30KT 15SM SKC 11/M04 A3015 RMK SLP236=

CYQF;2005-05-11 18:00;METAR CYQF 111800Z 17020G30KT 15SM SKC 14/M03 A3014 RMK SLP229=

CYQF;2005-05-11 19:00;METAR CYQF 111900Z 17018G28KT 15SM FEW050 FEW250 16/M02 A3012 RMK CU1CI0 SLP223=

CYQF;2005-05-11 20:00;METAR CYQF 112000Z 17017G26KT 15SM FEW050 FEW250 18/M01 A3011 RMK CU1CI1 SLP218=

CYQF;2005-05-11 21:00;METAR CYQF 112100Z 18014G20KT 15SM FEW060 FEW250 18/M01 A3009 RMK CU1CI1 SLP207=

CYQF;2005-05-11 22:00;METAR CYQF 112200Z 17012G20KT 15SM FEW060 SCT250 19/M01 A3008 RMK CU1CI1 SLP204=

CYQF;2005-05-11 23:00;METAR CYQF 112300Z 17012G20KT 15SM FEW060 FEW250 18/M02 A3007 RMK CU1CI0 SLP200=

CYQF;2005-05-12 00:00;METAR CYQF 120000Z 18014G20KT 15SM FEW250 18/M01 A3005 RMK CI0 SLP195=

CYQF;2005-05-12 01:00;METAR CYQF 120100Z 17015G22KT 15SM FEW250 18/M02 A3004 RMK CI0 SLP191=

CYQF;2005-05-12 02:00;METAR CYQF 120200Z 16013G20KT 15SM FEW250 17/M02 A3003 RMK CI0 SLP189=

CYQF;2005-05-12 03:00;METAR CYQF 120300Z 16013G19KT 15SM FEW250 14/M03 A3004 RMK CI0 SLP191=

CYQF;2005-05-12 04:00;METAR CYQF 120400Z 16012KT 15SM FEW250 11/M03 A3005 RMK CI0 SLP192=

CYQF;2005-05-12 05:00;METAR CYQF 120500Z 16015KT 15SM FEW250 11/M03 A3005 RMK CI1 TR CLD SLP192=

CYQF;2005-05-12 06:00;METAR CYQF 120600Z 17010KT 15SM SKC 08/M02 A3004 RMK SLP187=

CYQF;2005-05-12 07:00;METAR CYQF 120700Z 17010KT 15SM SKC 08/M01 A3002 RMK SLP183=

CYQF;2005-05-12 08:00;METAR CYQF 120800Z 18008KT 15SM SKC 08/00 A3001 RMK SLP179=

CYQF;2005-05-12 09:00;METAR CYQF 120900Z 17005KT 15SM SKC 06/00 A3001 RMK SLP174=

CYQF;2005-05-12 10:00;METAR CYQF 121000Z 18004KT 15SM SKC 05/00 A3001 RMK SLP175=

CYQF;2005-05-12 11:00;METAR CYQF 121100Z 18008KT 15SM FEW100 FEW250 05/01 A3001 RMK AC1CI0 SLP175=

CYQF;2005-05-12 12:00;METAR CYQF 121200Z 17007KT 15SM FEW100 FEW250 03/00 A3000 RMK AC1CI0 SLP176=

CYQF;2005-05-12 13:00;METAR CYQF 121300Z 16006KT 15SM FEW060 FEW250 05/01 A3001 RMK SC1CI0 SLP178=

CYQF;2005-05-12 14:00;METAR CYQF 121400Z 18004KT 15SM FEW060 FEW250 06/01 A3001 RMK SC1CI0 SLP177=

CYQF;2005-05-12 15:00;METAR CYQF 121500Z 20002KT 15SM FEW060 FEW250 08/03 A3002 RMK SC1CI0 CU EMBD SLP180=

CYQF;2005-05-12 16:00;METAR CYQF 121600Z 00000KT 15SM FEW070 11/04 A3000 RMK AC1 SLP176=

CYQF;2005-05-12 17:00;METAR CYQF 121700Z 33003KT 15SM FEW040 FEW090 14/03 A2999 RMK CU1AC1 SLP173=

CYQF;2005-05-12 18:00;METAR CYQF 121800Z 03008KT 15SM FEW050 FEW090 18/05 A2998 RMK CU1AC1 SLP163=

CYQF;2005-05-12 19:00;METAR CYQF 121900Z 01012G20KT 15SM FEW055 FEW090 18/04 A2997 RMK CU2AC1 SLP160=

CYQF;2005-05-12 20:00;METAR CYQF 122000Z 04008KT 15SM SCT060 18/03 A2995 RMK CU3 SLP156=

CYQF;2005-05-12 21:00;METAR CYQF 122100Z 04007KT 15SM SCT060 SCT100 19/02 A2995 RMK CU3AC1 SLP152=

CYQF;2005-05-12 22:00;METAR CYQF 122200Z 01010KT 15SM SCT060 BKN100 20/03 A2994 RMK CU3AC2 SLP149=

CYQF;2005-05-12 23:00;METAR CYQF 122300Z 33008KT 15SM SCT065 SCT100 21/03 A2993 RMK CU3AC1 SLP146=

CYQF;2005-05-13 00:00;METAR CYQF 130000Z 29007KT 15SM SCT065 SCT100 20/02 A2992 RMK CU3AC1 SLP145=

CYQF;2005-05-13 01:00;METAR CYQF 130100Z 31008KT 15SM FEW065 SCT100 20/02 A2991 RMK CU2AC1 SLP142=

CYQF;2005-05-13 02:00;METAR CYQF 130200Z 35007KT 15SM FEW065 SCT100 19/01 A2991 RMK CU2AC1 SLP143=

CYQF;2005-05-13 03:00;METAR CYQF 130300Z 35002KT 15SM FEW065 SCT100 16/02 A2992 RMK SC2AC1 SLP145=

CYQF;2005-05-13 04:00;METAR CYQF 130400Z 35003KT 15SM FEW060 SCT100 14/02 A2993 RMK SC2AC2 SLP148=

CYQF;2005-05-13 05:00;METAR CYQF 130500Z 32003KT 15SM FEW080 SCT100 11/02 A2993 RMK AC2AC2 SLP148=

CYQF;2005-05-13 06:00;METAR CYQF 130600Z 19004KT 15SM FEW100 07/03 A2993 RMK AC2 SLP147=

CYQF;2005-05-13 07:00;METAR CYQF 130700Z 17003KT 15SM FEW100 08/02 A2994 RMK AC2 SLP150=

CYQF;2005-05-13 08:00;METAR CYQF 130800Z 21004KT 15SM FEW100 05/02 A2994 RMK AC2 SLP151=

CYQF;2005-05-13 09:00;METAR CYQF 130900Z 06004KT 15SM FEW100 07/03 A2996 RMK AC1 SLP159=

CYQF;2005-05-13 10:00;METAR CYQF 131000Z 01008KT 15SM FEW100 08/02 A2998 RMK AC1 SLP164=

CYQF;2005-05-13 11:00;METAR CYQF 131100Z 02010KT 15SM FEW100 07/03 A3001 RMK AC2 SLP173=

CYQF;2005-05-13 12:00;METAR CYQF 131200Z 01010KT 15SM BKN011 07/04 A3004 RMK SC6 SLP184=

CYQF;2005-05-13 13:00;METAR CYQF 131300Z 03012KT 15SM SCT010 BKN100 07/04 A3008 RMK SC4AC2 SLP195=

CYQF;2005-05-13 14:00;METAR CYQF 131400Z 01012KT 15SM BKN015 07/04 A3011 RMK SC6 SLP204=

CYQF;2005-05-13 15:00;METAR CYQF 131500Z 36010KT 15SM OVC015 06/03 A3014 RMK SC8 SLP224=

CYQF;2005-05-13 16:00;METAR CYQF 131600Z 02010KT 15SM OVC015 06/02 A3016 RMK SC8 SLP229=

CYQF;2005-05-13 17:00;METAR CYQF 131700Z 02010KT 15SM OVC015 06/02 A3017 RMK SC8 SLP233=

CYQF;2005-05-13 18:00;METAR CYQF 131800Z 03005KT 15SM SCT015 07/01 A3017 RMK SC2 SLP243=

CYQF;2005-05-13 19:00;METAR CYQF 131900Z 01003KT 15SM FEW015 09/01 A3017 RMK SC1 TR CLD SLP242=

CYQF;2005-05-13 20:00;METAR CYQF 132000Z 36005KT 15SM FEW020 FEW250 11/M00 A3017 RMK SC1CI1 TR CLD SLP241=

CYQF;2005-05-13 21:00;METAR CYQF 132100Z 06006KT 15SM SKC 12/M00 A3015 RMK SLP233=

CYQF;2005-05-13 22:00;METAR CYQF 132200Z 00000KT 15SM FEW250 13/M01 A3014 RMK CI0 SLP229=

CYQF;2005-05-13 23:00;METAR CYQF 132300Z 11007KT 15SM FEW250 13/M02 A3013 RMK CI0 SLP225=

CYQF;2005-05-14 00:00;METAR CYQF 140000Z 13006KT 15SM FEW250 14/M01 A3012 RMK CI0 SLP218=

CYQF;2005-05-14 01:00;METAR CYQF 140100Z 12006KT 15SM FEW250 14/M02 A3011 RMK CI0 SLP216=

CYQF;2005-05-14 02:00;METAR CYQF 140200Z 12008KT 15SM SCT250 13/M05 A3011 RMK CI1 SLP216=

CYQF;2005-05-14 03:00;METAR CYQF 140300Z 10008KT 15SM SCT250 10/M04 A3011 RMK CI1 SLP219=

CYQF;2005-05-14 04:00;METAR CYQF 140400Z 11009KT 15SM BKN250 09/M05 A3011 RMK CI2 SLP220=

CYQF;2005-05-14 05:00;METAR CYQF 140500Z 12011KT 15SM BKN250 09/M06 A3010 RMK CI2 SLP218=

CYQF;2005-05-14 06:00;METAR CYQF 140600Z 14012KT 15SM FEW250 07/M06 A3010 RMK CI1 SLP219=

CYQF;2005-05-14 07:00;METAR CYQF 140700Z 14009KT 15SM FEW250 06/M06 A3009 RMK CI0 SLP216=

CYQF;2005-05-14 08:00;METAR CYQF 140800Z 17014KT 15SM FEW250 06/M06 A3009 RMK CI0 SLP214=

CYQF;2005-05-14 09:00;METAR CYQF 140900Z 17015KT 15SM FEW250 05/M06 A3007 RMK CI0 SLP205=

CYQF;2005-05-14 10:00;METAR CYQF 141000Z 17015KT 15SM FEW250 05/M06 A3006 RMK CI0 SLP201=

CYQF;2005-05-14 11:00;METAR CYQF 141100Z 17014KT 15SM SCT250 04/M06 A3004 RMK CI0 SLP194=

CYQF;2005-05-14 12:00;METAR CYQF 141200Z 16013KT 15SM FEW250 04/M06 A3002 RMK CI0 SLP185=

CYQF;2005-05-14 13:00;METAR CYQF 141300Z 15013KT 15SM FEW250 05/M06 A3000 RMK CI0 SLP181=

CYQF;2005-05-14 14:00;METAR CYQF 141400Z 16015KT 15SM FEW250 06/M05 A2998 RMK CI0 SLP175=

CYQF;2005-05-14 15:00;METAR CYQF 141500Z 17015G22KT 15SM FEW250 09/M04 A2998 RMK CI1 SLP170=

CYQF;2005-05-14 16:00;METAR CYQF 141600Z 16014G20KT 15SM FEW250 11/M02 A2996 RMK CI0 SLP166=

CYQF;2005-05-14 17:00;METAR CYQF 141700Z 16015G23KT 15SM FEW060 FEW250 14/M01 A2995 RMK CU1CI1 TR CU SLP161=

CYQF;2005-05-14 18:00;METAR CYQF 141800Z 15015G22KT 15SM FEW060 SCT250 17/01 A2994 RMK CU1CI1 SLP151=

CYQF;2005-05-14 19:00;METAR CYQF 141900Z 16014G21KT 15SM FEW060 SCT250 19/02 A2991 RMK CU1CI1 SLP144=

CYQF;2005-05-14 20:00;METAR CYQF 142000Z 15013KT 15SM FEW060 FEW100 BKN250 21/03 A2988 RMK CU1AC1CI1 SLP135=

CYQF;2005-05-14 21:00;METAR CYQF 142100Z 15012KT 15SM FEW060 SCT100 OVC250 22/03 A2986 RMK CU1AC2CI2 SLP121=

CYQF;2005-05-14 22:00;METAR CYQF 142200Z 15010KT 15SM FEW060 SCT100 OVC250 22/03 A2985 RMK CU2AC2CI2 SLP117=

CYQF;2005-05-14 23:00;METAR CYQF 142300Z 17008KT 15SM FEW060 BKN100 OVC250 22/03 A2983 RMK CU2AC2CI2 VIRGA SLP110=

CYQF;2005-05-15 00:00;METAR CYQF 150000Z 10003KT 15SM SCT060TCU BKN100 BKN250 22/04 A2981 RMK TCU3AC2CI1 SLP106=

CYQF;2005-05-15 01:00;METAR CYQF 150100Z 14006KT 15SM SCT060TCU BKN100 BKN250 22/04 A2979 RMK TCU3AC2CI1 SLP100=

CYQF;2005-05-15 02:00;METAR CYQF 150200Z 12008KT 15SM SCT060TCU BKN100 BKN250 20/05 A2980 RMK TCU3AC2CI1 SLP101=

CYQF;2005-05-15 03:00;METAR CYQF 150300Z 13003KT 15SM FEW060 SCT100 BKN250 18/06 A2980 RMK SC2AC2CI1 SLP100=

CYQF;2005-05-15 04:00;METAR CYQF 150400Z 12004KT 15SM FEW060 SCT100 BKN250 16/05 A2980 RMK SC2AC1CI1 SLP100=

CYQF;2005-05-15 05:00;METAR CYQF 150500Z 34005KT 15SM SCT060 BKN100 BKN250 13/05 A2981 RMK SC4AC2CI0 SLP102=

CYQF;2005-05-15 06:00;METAR CYQF 150600Z 33003KT 15SM SCT060 BKN100 BKN250 14/05 A2981 RMK SC3AC2CI0 SLP099=

CYQF;2005-05-15 07:00;METAR CYQF 150700Z 00000KT 15SM BKN100 BKN250 11/06 A2980 RMK AC5CI1 SLP097=

CYQF;2005-05-15 08:00;METAR CYQF 150800Z 26003KT 15SM SCT100 08/05 A2980 RMK AC4 SLP098=

CYQF;2005-05-15 09:00;METAR CYQF 150900Z 30004KT 15SM FEW100 09/05 A2980 RMK AC2 SLP097=

CYQF;2005-05-15 10:00;METAR CYQF 151000Z 00000KT 15SM FEW100 07/05 A2981 RMK AC1 SLP099=

CYQF;2005-05-15 11:00;METAR CYQF 151100Z 31003KT 15SM FEW100 07/05 A2981 RMK AC1 SLP100=

CYQF;2005-05-15 12:00;METAR CYQF 151200Z 00000KT 15SM FEW100 FEW250 05/04 A2981 RMK AC1CI0 SLP104=

CYQF;2005-05-15 13:00;METAR CYQF 151300Z 22003KT 15SM FEW100 BKN250 08/07 A2981 RMK AC1CI0 SLP104=

CYQF;2005-05-15 14:00;METAR CYQF 151400Z 21005KT 15SM FEW100 BKN250 11/08 A2980 RMK AC1CI2 SLP101=

CYQF;2005-05-15 15:00;METAR CYQF 151500Z 23003KT 15SM FEW100 BKN250 14/08 A2979 RMK AC2CI2 SLP091=

CYQF;2005-05-15 16:00;METAR CYQF 151600Z 32004KT 15SM FEW090 OVC250 18/07 A2977 RMK AC2CI2 SLP086=

CYQF;2005-05-15 17:00;METAR CYQF 151700Z 33003KT 15SM FEW060 SCT090 BKN250 19/07 A2976 RMK CU2AC2CI1 SLP081=

CYQF;2005-05-15 18:00;METAR CYQF 151800Z 02003KT 15SM SCT070 OVC250 20/05 A2975 RMK CU3CI3 SLP076=

CYQF;2005-05-15 19:00;METAR CYQF 151900Z 02002KT 15SM SCT070 OVC250 20/05 A2972 RMK CU4CI3 SLP068=

CYQF;2005-05-15 20:00;METAR CYQF 152000Z 04006KT 15SM SCT060 OVC250 22/05 A2970 RMK CU3CI3 SLP061=

CYQF;2005-05-15 21:00;METAR CYQF 152100Z 00000KT 15SM SCT060 OVC250 23/07 A2968 RMK CU3CI2 SLP053=

CYQF;2005-05-15 22:00;METAR CYQF 152200Z 17007KT 15SM SCT060 BKN250 22/04 A2966 RMK CU3CI1 SLP048=

CYQF;2005-05-15 23:00;METAR CYQF 152300Z 15004KT 15SM FEW060TCU SCT250 23/04 A2964 RMK TCU2CI0 SLP041=

CYQF;2005-05-16 01:00;METAR CYQF 160100Z 20007KT 15SM FEW060TCU SCT250 23/04 A2960 RMK TCU2CI2 SLP032=

CYQF;2005-05-16 02:00;METAR CYQF 160200Z 16004KT 15SM FEW060 FEW090 BKN250 22/04 A2957 RMK CU1AC1CI2 SLP024=

CYQF;2005-05-16 03:00;METAR CYQF 160300Z 14002KT 15SM FEW060 SCT250 20/04 A2956 RMK CU1CI2 SLP012=

CYQF;2005-05-16 04:00;METAR CYQF 160400Z 09004KT 15SM FEW060 SCT250 16/04 A2956 RMK CU1CI2 SLP009=

CYQF;2005-05-16 05:00;METAR CYQF 160500Z 16007KT 15SM FEW060 FEW090 SCT250 15/05 A2955 RMK SC1AC1CI2 SLP008=

CYQF;2005-05-16 06:00;METAR CYQF 160600Z 16008KT 15SM FEW060 SCT250 14/05 A2954 RMK SC1CI2 SLP001=

CYQF;2005-05-16 08:00;METAR CYQF 160800Z 15015KT 15SM FEW100 BKN250 14/06 A2949 RMK AC1CI2 SLP987=

CYQF;2005-05-16 09:00;METAR CYQF 160900Z 16015KT 15SM FEW100 BKN250 13/06 A2947 RMK AC1CI2 SLP976=

CYQF;2005-05-16 10:00;METAR CYQF 161000Z 15010KT 15SM FEW100 BKN250 12/05 A2946 RMK AC1CI2 SLP972=

CYQF;2005-05-16 11:00;METAR CYQF 161100Z 19004KT 15SM FEW100 BKN250 11/05 A2945 RMK AC2CI2 SLP969=

CYQF;2005-05-16 12:00;METAR CYQF 161200Z 18003KT 15SM SCT100 BKN250 10/05 A2944 RMK AC2CI3 SLP968=

CYQF;2005-05-16 13:00;METAR CYQF 161300Z 15010KT 15SM BKN100 OVC250 11/05 A2943 RMK AC5CI2 SLP965=

CYQF;2005-05-16 14:00;METAR CYQF 161400Z 18005KT 15SM BKN100 OVC250 11/05 A2943 RMK AC6CI1 VIRGA SLP965=

CYQF;2005-05-16 15:00;METAR CYQF 161500Z 16005KT 15SM BKN100 BKN250 12/06 A2943 RMK AC6CI1 VIRGA SLP966=

CYQF;2005-05-16 16:00;METAR CYQF 161600Z 13006KT 15SM SCT100 BKN250 14/06 A2939 RMK AC4CI2 SLP956=

CYQF;2005-05-16 17:00;METAR CYQF 161700Z 17009KT 15SM FEW100 BKN250 18/08 A2939 RMK AC2CI2 SLP956=

CYQF;2005-05-16 18:00;METAR CYQF 161800Z 11004KT 15SM FEW060 FEW120 BKN250 21/09 A2936 RMK CU1AC2CI1 SLP941=

CYQF;2005-05-16 19:00;METAR CYQF 161900Z 22005KT 15SM FEW060 FEW120 BKN250 23/07 A2935 RMK CU2AC1CI2 SLP935=

CYQF;2005-05-16 20:00;METAR CYQF 162000Z 24005KT 15SM FEW060 BKN250 23/06 A2934 RMK CU2CI1 SLP934=

CYQF;2005-05-16 21:00;METAR CYQF 162100Z 14004KT 15SM SCT060TCU BKN250 24/07 A2933 RMK TCU3CI1 SLP927=

CYQF;2005-05-16 22:00;METAR CYQF 162200Z 00000KT 15SM SCT060TCU BKN200 24/05 A2934 RMK TCU3CI2 SLP929=

CYQF;2005-05-16 23:00;METAR CYQF 162300Z 03005KT 15SM SCT060TCU BKN200 23/05 A2933 RMK TCU3CI3 SLP926=

CYQF;2005-05-17 00:00;METAR CYQF 170000Z 29020G30KT 15SM BKN060TCU BKN120 OVC240 22/06 A2933 RMK TCU5AC2CI1 SLP933=

CYQF;2005-05-17 01:00;METAR CYQF 170100Z 31015G25KT 15SM SCT060TCU BKN120 OVC240 18/09 A2934 RMK TCU3AC2CI1 SLP935=

CYQF;2005-05-17 02:00;METAR CYQF 170200Z 32015G25KT 15SM SCT060TCU BKN120 OVC240 16/09 A2937 RMK TCU3AC2CI1 SHWRS W SLP945=

CYQF;2005-05-17 03:00;METAR CYQF 170300Z 33012G20KT 15SM BKN060 BKN120 OVC240 15/10 A2936 RMK SC5AC2CI1 TCU EMBD SLP949=

CYQF;2005-05-17 04:00;METAR CYQF 170400Z 32010G15KT 15SM BKN060 BKN120 OVC240 14/10 A2939 RMK SC6AC1CI1 SLP957=

CYQF;2005-05-17 05:00;METAR CYQF 170500Z 34010KT 15SM FEW070 SCT120 BKN240 13/09 A2937 RMK AC2AC2CI2 SLP951=

CYQF;2005-05-17 06:00;METAR CYQF 170600Z 33010KT 15SM BKN120 OVC240 13/09 A2935 RMK AC5CI2 SLP938=

CYQF;2005-05-17 07:00;METAR CYQF 170700Z 31010KT 15SM BKN090 OVC250 12/10 A2935 RMK AC7CI1 SLP937=

CYQF;2005-05-17 08:00;METAR CYQF 170800Z 32008KT 15SM BKN018 OVC090 12/10 A2934 RMK SC6AC2 SLP935=

CYQF;2005-05-17 08:40;SPECI CYQF 170840Z 30012KT 15SM -RA OVC010 RMK SC8=

CYQF;2005-05-17 10:00;METAR CYQF 171000Z 31004KT 6SM -RA BR OVC007 12/11 A2936 RMK SF8 SLP939=

CYQF;2005-05-17 11:00;METAR CYQF 171100Z 31012KT 6SM -RA BR OVC007 11/11 A2933 RMK SF8 SLP930=

CYQF;2005-05-17 12:00;METAR CYQF 171200Z 30012KT 10SM -RA OVC007 10/09 A2933 RMK SC8 SLP933=

CYQF;2005-05-17 13:00;METAR CYQF 171300Z 29013KT 15SM -RA BKN007 OVC020 09/09 A2932 RMK SF6SC2 SLP929=

CYQF;2005-05-17 14:00;METAR CYQF 171400Z 29015G20KT 10SM -RA OVC008 09/08 A2933 RMK SF8 BR SLP932=

CYQF;2005-05-17 15:00;METAR CYQF 171500Z 30015G24KT 10SM -SHRA OVC010 09/08 A2933 RMK SF8 CIG RGD SLP942=

CYQF;2005-05-17 16:00;METAR CYQF 171600Z 30018G32KT 10SM -SHRA OVC010 08/07 A2935 RMK SC8 SLP946=

CYQF;2005-05-17 17:00;METAR CYQF 171700Z 29014G26KT 10SM -SHRA BKN010 OVC025 09/07 A2936 RMK SC6SC2 SLP952=

CYQF;2005-05-17 18:00;METAR CYQF 171800Z 29016G30KT 15SM OVC010 09/07 A2939 RMK SC8 SLP964=

CYQF;2005-05-17 19:00;METAR CYQF 171900Z 31014G24KT 15SM OVC015 09/06 A2941 RMK SC8 SLP972=

CYQF;2005-05-17 20:00;METAR CYQF 172000Z 31012G20KT 15SM OVC015 10/06 A2944 RMK SC8 OBS TKN +14 SLP980=

CYQF;2005-05-17 21:00;METAR CYQF 172100Z 31014G26KT 15SM OVC015 10/06 A2945 RMK SC8 SLP985=

CYQF;2005-05-17 22:00;METAR CYQF 172200Z 31015G27KT 15SM BKN020 11/06 A2945 RMK SC7 SLP985=

CYQF;2005-05-17 23:00;METAR CYQF 172300Z 32014G25KT 15SM BKN020 11/06 A2946 RMK SC7 SLP988=

CYQF;2005-05-18 00:00;METAR CYQF 180000Z 32014G24KT 15SM BKN020 11/06 A2947 RMK SC7 SLP994=

CYQF;2005-05-18 01:00;METAR CYQF 180100Z 32012G20KT 15SM BKN020 BKN140 11/06 A2948 RMK SC6AC1 SLP997=

CYQF;2005-05-18 02:00;METAR CYQF 180200Z 32010G19KT 15SM SCT020 BKN140 BKN250 12/06 A2949 RMK SC3AC1CI2 SLP999=

CYQF;2005-05-18 04:00;METAR CYQF 180400Z 00000KT 15SM FEW080 SCT140 BKN250 07/05 A2951 RMK AC2AC1CI1 SLP009=

CYQF;2005-05-18 06:00;METAR CYQF 180600Z 25005KT 15SM FEW080 FEW250 06/04 A2952 RMK AC1CI1 SLP016=

CYQF;2005-05-18 07:00;METAR CYQF 180700Z 22003KT 15SM SCT100 05/04 A2954 RMK AC2 SLP022=

CYQF;2005-05-18 08:00;METAR CYQF 180800Z 25002KT 15SM SCT100 05/05 A2953 RMK AC3 SLP020=

CYQF;2005-05-18 09:00;METAR CYQF 180900Z 23004KT 15SM SCT050 BKN100 05/04 A2955 RMK SC3AC2 SLP027=

CYQF;2005-05-18 10:00;METAR CYQF 181000Z 00000KT 15SM BKN050 BKN100 06/05 A2956 RMK SC6AC2 SLP030=

CYQF;2005-05-18 11:00;METAR CYQF 181100Z 00000KT 15SM FEW020 BKN050 BKN100 06/05 A2956 RMK SC1SC6AC1 SLP032=

CYQF;2005-05-18 12:00;METAR CYQF 181200Z 00000KT 15SM SCT050 BKN100 BKN250 06/05 A2955 RMK SC2AC2CI1 SLP024=

CYQF;2005-05-18 13:00;METAR CYQF 181300Z 19004KT 15SM FEW050 BKN100 BKN250 06/06 A2955 RMK SC1AC2CI1 SLP025=

CYQF;2005-05-18 14:00;METAR CYQF 181400Z 00000KT 15SM FEW050 SCT100 BKN250 08/07 A2954 RMK SC1AC1CI1 SLP021=

CYQF;2005-05-18 15:00;METAR CYQF 181500Z 23004KT 15SM FEW050 SCT100 BKN250 12/08 A2955 RMK SC1AC2CI1 SLP018=

CYQF;2005-05-18 16:00;METAR CYQF 181600Z 00000KT 15SM FEW050 SCT100 BKN250 12/07 A2955 RMK CU2AC2CI1 SLP018=

CYQF;2005-05-18 17:00;METAR CYQF 181700Z 00000KT 15SM FEW040TCU SCT090 BKN250 13/06 A2954 RMK TCU2AC2CI1 SLP016=

CYQF;2005-05-18 18:00;METAR CYQF 181800Z 18005KT 15SM FEW040TCU SCT090 BKN250 15/05 A2953 RMK TCU2AC2CI1 SLP014=

CYQF;2005-05-18 19:00;METAR CYQF 181900Z 18004KT 15SM SCT040TCU SCT090 BKN250 16/06 A2952 RMK TCU3AC1CI1 CB SHS W SLP011=

CYQF;2005-05-18 20:00;METAR CYQF 182000Z 27005KT 15SM FEW040TCU SCT090 BKN250 16/06 A2951 RMK TCU2AC1CI1 SLP008=

CYQF;2005-05-18 21:00;METAR CYQF 182100Z 18005KT 15SM FEW040TCU SCT090 BKN250 16/05 A2951 RMK TCU2AC1CI0 SLP005=

CYQF;2005-05-18 22:00;METAR CYQF 182200Z 14003KT 15SM FEW040TCU SCT090 BKN250 18/03 A2950 RMK TCU2AC2CI0 SLP003=

CYQF;2005-05-18 23:00;METAR CYQF 182300Z 17004KT 15SM FEW040TCU FEW090 BKN250 19/04 A2949 RMK TCU2AC1CI1 SLP000=

CYQF;2005-05-19 00:00;METAR CYQF 190000Z 15005KT 15SM FEW040 FEW090 BKN250 18/03 A2948 RMK CU2AC1CI1 SLP992=

CYQF;2005-05-19 01:00;METAR CYQF 190100Z 17010KT 15SM SCT040 BKN090 BKN250 18/04 A2948 RMK CU4AC2CI0 SLP993=

CYQF;2005-05-19 02:00;METAR CYQF 190200Z 14008KT 15SM FEW040 BKN080 BKN250 18/03 A2947 RMK CU2AC3CI1 SLP990=

CYQF;2005-05-19 03:00;METAR CYQF 190300Z 12008KT 15SM FEW080 BKN250 16/03 A2946 RMK AC2CI2 SLP983=

CYQF;2005-05-19 04:00;METAR CYQF 190400Z 14008KT 15SM FEW040 FEW080 BKN250 14/04 A2948 RMK SC1AC2CI3 SLP987=

CYQF;2005-05-19 05:00;METAR CYQF 190500Z 17004KT 15SM FEW080 BKN250 12/04 A2948 RMK AC2CI2 SLP988=

CYQF;2005-05-19 06:00;METAR CYQF 190600Z 19004KT 15SM FEW080 BKN250 09/04 A2948 RMK AC2CI2 SLP994=

CYQF;2005-05-19 07:00;METAR CYQF 190700Z 19007KT 15SM FEW080 OVC250 09/04 A2949 RMK AC2CI5 SLP995=

CYQF;2005-05-19 08:00;METAR CYQF 190800Z 23005KT 15SM FEW090 SCT250 08/04 A2948 RMK AC1CI2 SLP993=

CYQF;2005-05-19 09:00;METAR CYQF 190900Z 20006KT 15SM FEW090 FEW250 08/03 A2949 RMK AC1CI1 SLP996=

CYQF;2005-05-19 10:00;METAR CYQF 191000Z 21002KT 15SM SCT090 SCT250 08/02 A2949 RMK AC3CI1 SLP997=

CYQF;2005-05-19 11:00;METAR CYQF 191100Z 20005KT 15SM FEW090 FEW250 06/02 A2950 RMK AC2CI1 SLP999=

CYQF;2005-05-19 12:00;METAR CYQF 191200Z 22007KT 15SM FEW090 FEW250 05/01 A2950 RMK AC2CI1 SLP001=

CYQF;2005-05-19 13:00;METAR CYQF 191300Z 23008KT 15SM FEW090 06/03 A2951 RMK AC2 SLP005=

CYQF;2005-05-19 14:00;METAR CYQF 191400Z 22005KT 15SM FEW090 FEW250 10/04 A2954 RMK AC1CI1 SLP012=

CYQF;2005-05-19 15:00;METAR CYQF 191500Z 29012KT 15SM FEW090 FEW250 14/03 A2954 RMK AC1CI1 SLP007=

CYQF;2005-05-19 16:00;METAR CYQF 191600Z 30012KT 15SM FEW040 FEW090 SCT200 16/03 A2955 RMK CU1AC1CI1 SLP011=

CYQF;2005-05-19 17:00;METAR CYQF 191700Z 29010KT 15SM FEW040TCU SCT210 17/04 A2956 RMK TCU2CI1 SLP013=

CYQF;2005-05-19 18:00;METAR CYQF 191800Z 34012KT 15SM FEW040TCU SCT210 17/03 A2956 RMK TCU2CI0 SLP018=

CYQF;2005-05-19 19:00;METAR CYQF 191900Z 28008KT 15SM FEW040TCU SCT210 17/03 A2956 RMK TCU2CI0 SLP018=

CYQF;2005-05-19 20:00;METAR CYQF 192000Z 30009KT 15SM SCT050 SCT210 19/03 A2956 RMK CU4CI1 TCU SLP019=

CYQF;2005-05-19 21:00;METAR CYQF 192100Z 30005KT 15SM BKN050TCU 19/02 A2958 RMK TCU6 LINE SHS S TO NW SLP024=

CYQF;2005-05-19 21:20;SPECI CYQF 192120Z 25015G24KT 15SM -SHRA BKN040TCU RMK TCU6=

CYQF;2005-05-19 22:00;METAR CYQF 192200Z 24014G23KT 15SM -SHRA BKN040TCU 14/04 A2962 RMK TCU7 CB NW LTGCG SLP038=

CYQF;2005-05-19 22:30;SPECI CYQF 192230Z 35010KT 15SM SCT040TCU BKN090 BKN250 RMK TCU4AC2CI1 CB N LTGCG=

CYQF;2005-05-19 23:00;METAR CYQF 192300Z 35012KT 15SM FEW040TCU SCT090 BKN250 16/05 A2964 RMK TCU2AC1CI1 CB W AND NE SHS W AND NE TO SE SLP042=

CYQF;2005-05-20 00:00;METAR CYQF 200000Z 03010KT 15SM FEW040TCU SCT090 BKN250 16/03 A2964 RMK TCU2AC2CI1 SHS SW SLP052=

CYQF;2005-05-20 01:00;METAR CYQF 200100Z 05006KT 15SM SCT040TCU SCT090 BKN250 15/02 A2964 RMK TCU3AC1CI1 SHS SE+S SLP052=

CYQF;2005-05-20 03:00;METAR CYQF 200300Z 00000KT 15SM FEW040TCU FEW090 BKN250 14/04 A2968 RMK TCU2AC1CI2 SLP058=

CYQF;2005-05-20 05:00;METAR CYQF 200500Z 29009KT 15SM FEW040TCU FEW090 SCT250 11/02 A2974 RMK TCU1AC1CI1 SLP077=

CYQF;2005-05-20 06:00;METAR CYQF 200600Z 29006KT 15SM FEW040 FEW090 FEW250 09/01 A2976 RMK CU1AC1CI0 SLP088=

CYQF;2005-05-20 07:00;METAR CYQF 200700Z 21005KT 15SM FEW090 FEW250 07/00 A2979 RMK AC1CI1 SLP096=

CYQF;2005-05-20 08:00;METAR CYQF 200800Z 22006KT 15SM FEW090 05/M01 A2980 RMK AC1 SLP099=

CYQF;2005-05-20 09:00;METAR CYQF 200900Z 23007KT 15SM FEW090 04/M02 A2981 RMK AC1 SLP107=

CYQF;2005-05-20 10:00;METAR CYQF 201000Z 23008KT 15SM FEW090 04/M02 A2982 RMK AC1 SLP111=

CYQF;2005-05-20 11:00;METAR CYQF 201100Z 16005KT 15SM FEW090 02/M01 A2983 RMK AC2 SLP114=

CYQF;2005-05-20 12:00;METAR CYQF 201200Z 18005KT 15SM FEW070 02/M02 A2984 RMK AC2 SLP124=

CYQF;2005-05-20 13:00;METAR CYQF 201300Z 22007KT 15SM FEW070 SCT120 04/M00 A2984 RMK AC1AC2 SLP124=

CYQF;2005-05-20 14:00;METAR CYQF 201400Z 23003KT 15SM SCT090 BKN120 08/01 A2985 RMK AC3AC2 SLP127=

CYQF;2005-05-20 15:00;METAR CYQF 201500Z 20004KT 15SM FEW120 BKN250 09/01 A2987 RMK AC2CI2 SLP127=

CYQF;2005-05-20 16:00;METAR CYQF 201600Z 27005KT 15SM BKN250 13/M00 A2985 RMK CI2 SLP123=

CYQF;2005-05-20 17:00;METAR CYQF 201700Z 24004KT 15SM FEW060 FEW120 BKN250 15/M02 A2985 RMK CU1AC1CI1 SLP121=

CYQF;2005-05-20 18:00;METAR CYQF 201800Z 00000KT 15SM FEW060 BKN250 16/04 A2984 RMK CU1CI4 SLP115=

CYQF;2005-05-20 19:00;METAR CYQF 201900Z 00000KT 15SM FEW060 BKN250 17/M02 A2982 RMK CU1CI2 SLP109=

CYQF;2005-05-20 20:00;METAR CYQF 202000Z 19005KT 15SM FEW060 BKN250 18/M02 A2979 RMK CU2CI1 SLP101=

CYQF;2005-05-20 21:00;METAR CYQF 202100Z 18003KT 15SM SCT060 OVC250 18/M03 A2976 RMK CU4CI1 SLP094=

CYQF;2005-05-20 22:00;METAR CYQF 202200Z 23011KT 15SM SCT060 OVC250 18/M02 A2975 RMK CU4CI2 VIRGA SLP089=

CYQF;2005-05-21 00:00;METAR CYQF 210000Z 17012KT 15SM BKN060 OVC250 18/M03 A2974 RMK CU6CS2 VIRGA SLP086=

CYQF;2005-05-21 01:00;METAR CYQF 210100Z 05008KT 15SM BKN060 BKN120 OVC250 17/M03 A2973 RMK SC6AS2CI1 VIRGA TCU ASCTD SLP085=

CYQF;2005-05-21 02:00;METAR CYQF 210200Z 36004KT 15SM BKN060 BKN120 BKN250 16/M00 A2973 RMK SC5AC1CI1 SLP085=

CYQF;2005-05-21 03:00;METAR CYQF 210300Z 00000KT 15SM BKN060 OVC250 15/M01 A2974 RMK SC6CI2 SLP081=

CYQF;2005-05-21 04:17;SPECI CYQF 210417Z 35015KT 15SM -SHRA OVC050 RMK SC8 TCU ASOTD=

CYQF;2005-05-21 05:00;METAR CYQF 210500Z 33015KT 15SM BKN050 OVC250 12/01 A2979 RMK SC5CI2 SLP097=

CYQF;2005-05-21 06:00;METAR CYQF 210600Z 32012KT 15SM BKN060 OVC250 12/00 A2980 RMK SC6CI1 SLP098=

CYQF;2005-05-21 06:52;SPECI CYQF 210652Z 29012KT 15SM -SHRA BKN050 OVC090 RMK SC5AC3=

CYQF;2005-05-21 07:45;SPECI CYQF 210745Z 02008KT 15SM BKN060 OVC090 RMK SC5AC3=

CYQF;2005-05-21 09:00;METAR CYQF 210900Z 33005KT 15SM FEW060 BKN090 09/05 A2980 RMK SC2AC3 SLP102=

CYQF;2005-05-21 15:00;METAR CYQF 211500Z 30013G19KT 15SM SCT070 BKN250 13/02 A2988 RMK AC4CI1 VIRGA W SLP127=

CYQF;2005-05-21 16:00;METAR CYQF 211600Z 30015G23KT 15SM FEW050 SCT070 BKN250 14/01 A2989 RMK CU2AC2CI0 VIRGA W SLP130=

CYQF;2005-05-21 17:00;METAR CYQF 211700Z 30011G18KT 15SM FEW050 SCT070 BKN250 14/01 A2991 RMK CU2AC2CI0 TCU/VIRGA W SLP135=

CYQF;2005-05-21 18:00;METAR CYQF 211800Z 29011G18KT 15SM SCT045 SCT250 15/01 A2990 RMK CU3CI0 TCU W SLP136=

CYQF;2005-05-21 19:00;METAR CYQF 211900Z 29012KT 15SM BKN050 17/01 A2990 RMK CU5 TCU ASCTD SHWRS DIST NW SLP136=

CYQF;2005-05-21 20:00;METAR CYQF 212000Z 29012G19KT 15SM BKN060 BKN250 17/01 A2990 RMK CU5CI1 TCU ASCTD CB TPS/SHWRS SW+NW SLP136=

CYQF;2005-05-21 21:00;METAR CYQF 212100Z 35013G21KT 15SM BKN060TCU BKN090 BKN250 16/M00 A2991 RMK TCU5AC1CI0 CB TP NW SHS ALQDS SLP141=

CYQF;2005-05-21 22:00;METAR CYQF 212200Z 34007KT 15SM SCT060TCU BKN090 BKN250 17/M03 A2992 RMK TCU4AC2CI0 CB TP NE SHS NW-NE SLP143=

CYQF;2005-05-21 23:00;METAR CYQF 212300Z 33011KT 15SM SCT060 BKN250 18/M02 A2991 RMK CU3CI1 FEW TCU CB TP NW SHS ALQDS SLP142=

CYQF;2005-05-22 00:00;METAR CYQF 220000Z 36008KT 15SM FEW060TCU SCT250 18/M04 A2991 RMK TCU2CI1 SLP145=

CYQF;2005-05-22 01:00;METAR CYQF 220100Z 34004KT 15SM FEW060TCU SCT250 17/M03 A2992 RMK TCU2CI1 SLP146=

CYQF;2005-05-22 02:00;METAR CYQF 220200Z 00000KT 15SM FEW060 FEW250 17/M03 A2992 RMK CU1CI1 SLP146=

CYQF;2005-05-22 03:00;METAR CYQF 220300Z 00000KT 15SM FEW060 FEW250 17/M03 A2992 RMK CU1CI1 SLP139=

CYQF;2005-05-22 04:00;METAR CYQF 220400Z 00000KT 15SM FEW060 SCT250 13/00 A2993 RMK CU1CI2 SLP141=

CYQF;2005-05-22 05:00;METAR CYQF 220500Z 17003KT 15SM BKN250 09/M01 A2993 RMK CS2 SLP141=

CYQF;2005-05-22 06:00;METAR CYQF 220600Z 17004KT 15SM BKN250 09/M00 A2991 RMK CS3 SLP142=

CYQF;2005-05-22 07:00;METAR CYQF 220700Z 00000KT 15SM BKN250 08/M00 A2990 RMK CS2 SLP138=

CYQF;2005-05-22 08:00;METAR CYQF 220800Z 00000KT 15SM SCT250 06/00 A2989 RMK CI2 SLP134=

CYQF;2005-05-22 09:00;METAR CYQF 220900Z 17003KT 15SM FEW250 04/00 A2987 RMK CI1 SLP133=

CYQF;2005-05-22 10:00;METAR CYQF 221000Z 00000KT 15SM BKN250 04/M01 A2985 RMK CI3 SLP126=

CYQF;2005-05-22 11:00;METAR CYQF 221100Z 00000KT 15SM SCT160 BKN250 04/M00 A2983 RMK AC4CI2 SLP119=

CYQF;2005-05-22 12:00;METAR CYQF 221200Z 13005KT 15SM BKN080 OVC250 05/00 A2983 RMK AC5CI2 SLP114=

CYQF;2005-05-22 13:00;METAR CYQF 221300Z 00000KT 15SM FEW030 BKN080 06/01 A2981 RMK SC1AC6 SLP108=

CYQF;2005-05-22 14:00;METAR CYQF 221400Z 16002KT 15SM SCT040 BKN090 07/02 A2980 RMK SC3AC3 VIRGA N SLP107=

CYQF;2005-05-22 15:00;METAR CYQF 221500Z 00000KT 15SM FEW040 BKN100 12/01 A2977 RMK SC2AC3 SLP089=

CYQF;2005-05-22 16:00;METAR CYQF 221600Z 22003KT 15SM FEW040 SCT100 14/02 A2976 RMK SC2AC2 SLP087=

CYQF;2005-05-22 17:00;METAR CYQF 221700Z 30006KT 15SM FEW040 FEW100 16/00 A2974 RMK CU2AC1 SLP080=

CYQF;2005-05-22 18:00;METAR CYQF 221800Z 32010KT 15SM FEW045 SCT100 17/M00 A2973 RMK CU2AC1 SLP076=

CYQF;2005-05-22 20:00;METAR CYQF 222000Z 31012G18KT 15SM BKN060 BKN090 18/M01 A2972 RMK CU5AC1 VIRGA/SHS SW-NW FEW TCU SLP073=

CYQF;2005-05-22 21:00;METAR CYQF 222100Z 27013KT 15SM BKN060TCU BKN100 17/M02 A2972 RMK TCU5AC2 SLP077=

CYQF;2005-05-22 22:00;METAR CYQF 222200Z 31015G23KT 15SM SCT060TCU BKN100 19/M01 A2971 RMK TCU4AC2 SHS DIST N VIRGA SW SLP076=

CYQF;2005-05-22 23:00;METAR CYQF 222300Z 31013KT 15SM FEW060TCU SCT100 18/M00 A2972 RMK TCU2AC2 SLP077=

CYQF;2005-05-23 00:00;METAR CYQF 230000Z 02012KT 15SM SCT060TCU BKN100 BKN250 15/M00 A2972 RMK TCU3AC2CI0 SLP079=

CYQF;2005-05-23 02:00;METAR CYQF 230200Z 01010KT 15SM FEW060TCU SCT100 SCT250 15/02 A2973 RMK TCU2AC1CI0 CB TPS N SE SLP084=

CYQF;2005-05-23 03:00;METAR CYQF 230300Z 26008KT 15SM FEW060TCU SCT100 SCT250 12/02 A2975 RMK TCU2AC2CI0 SLP087=

CYQF;2005-05-23 04:00;METAR CYQF 230400Z 32005KT 15SM FEW060TCU SCT100 BKN250 09/02 A2978 RMK TCU2AC2CI0 CB SE SHS SLP095=

CYQF;2005-05-23 05:00;METAR CYQF 230500Z 33005KT 15SM FEW060TCU SCT100 BKN250 08/01 A2980 RMK TCU2AC2CI1 SLP103=

CYQF;2005-05-23 06:00;METAR CYQF 230600Z 26004KT 15SM FEW060 SCT100 BKN250 06/01 A2981 RMK SC2AC2CI1 SLP109=

CYQF;2005-05-23 07:00;METAR CYQF 230700Z 28005KT 15SM FEW060 SCT100 07/01 A2983 RMK SC2AC2 SLP115=

CYQF;2005-05-23 08:00;METAR CYQF 230800Z 33013KT 15SM FEW100 08/02 A2984 RMK AC2 SLP116=

CYQF;2005-05-23 09:00;METAR CYQF 230900Z 30006KT 15SM FEW100 FEW250 06/02 A2985 RMK AC1CI0 SLP123=

CYQF;2005-05-23 10:00;METAR CYQF 231000Z 29005KT 15SM FEW100 FEW250 04/01 A2986 RMK AC1CI0 SLP126=

CYQF;2005-05-23 11:00;METAR CYQF 231100Z 24003KT 15SM FEW100 BKN250 02/M00 A2986 RMK AC2CI0 SLP126=

CYQF;2005-05-23 12:00;METAR CYQF 231200Z 23009KT 15SM FEW100 SCT250 03/01 A2987 RMK AC1CI0 SLP134=

CYQF;2005-05-23 13:00;METAR CYQF 231300Z 24008KT 15SM SCT100 BKN250 06/01 A2987 RMK AC3CI1 SLP135=

CYQF;2005-05-23 14:00;METAR CYQF 231400Z 28007KT 15SM SCT100 BKN250 07/01 A2988 RMK AC4CI0 SLP138=

CYQF;2005-05-23 15:00;METAR CYQF 231500Z 31013G22KT 15SM FEW100 BKN250 11/02 A2989 RMK AC2CI2 SLP135=

CYQF;2005-05-23 16:00;METAR CYQF 231600Z 32012G20KT 15SM FEW020 BKN100 BKN250 12/02 A2989 RMK CU2AC3CI1 SLP134=

CYQF;2005-05-23 17:00;METAR CYQF 231700Z 30012G20KT 15SM FEW030 BKN100 BKN250 13/02 A2988 RMK CU2AC4CI2 SLP131=

CYQF;2005-05-23 18:00;METAR CYQF 231800Z 30018G30KT 15SM SCT030 BKN100 BKN250 14/M01 A2986 RMK CU4AC2CI2 CB TP DIST SW VIRGA/SHS ALQDS SLP128=

CYQF;2005-05-23 19:00;METAR CYQF 231900Z 34020G30KT 15SM SCT030 BKN100 14/00 A2986 RMK CU4AC3 TCU EMBD VIRGA/SHS ALQDS SLP128=

CYQF;2005-05-23 20:00;METAR CYQF 232000Z 33022G32KT 15SM SCT030 OVC100 14/M00 A2987 RMK CU3AC5 TCU EMBD SHS SE-SW SLP131=

CYQF;2005-05-23 21:00;METAR CYQF 232100Z 33020G30KT 15SM SCT030 OVC090 13/01 A2989 RMK CU3AC5 TCU EMBD SHW/VIRGA ALQDS SLP140=

CYQF;2005-05-23 22:00;METAR CYQF 232200Z 32017G27KT 15SM FEW015 SCT030 OVC090 12/01 A2992 RMK SC1CU3AC4 TCU EMBD SHS/VIRGA SLP149=

CYQF;2005-05-24 00:00;METAR CYQF 240000Z 34022G33KT 15SM FEW015 OVC040 10/03 A2995 RMK SC2SC6 SHS/VIRGA ALQDS SLP167=

CYQF;2005-05-24 01:00;METAR CYQF 240100Z 34017G28KT 15SM VCSH SCT015 OVC040 09/04 A2997 RMK SC3SC5 SLP173=

CYQF;2005-05-24 01:40;SPECI CYQF 240140Z 34020G30KT 15SM -SHRA SCT015 OVC040 RMK SC4SC4 VIS LWR N=

CYQF;2005-05-24 02:00;METAR CYQF 240200Z 33018G28KT 10SM -SHRA BKN010 OVC040 07/05 A2998 RMK SC6SC2 SLP178=

CYQF;2005-05-24 03:00;METAR CYQF 240300Z 33012KT 10SM -SHRA BKN010 OVC040 07/06 A2999 RMK SC6SC2 SLP175=

CYQF;2005-05-24 04:00;METAR CYQF 240400Z 32010KT 10SM -RA OVC010 08/05 A3001 RMK SC8 SLP181=

CYQF;2005-05-24 05:00;METAR CYQF 240500Z 32012G24KT 10SM -RA BKN010 OVC070 07/05 A3003 RMK SC6AC2 SLP186=

CYQF;2005-05-24 06:00;METAR CYQF 240600Z 30012KT 10SM -RA SCT010 OVC065 07/05 A3003 RMK SC4SC4 SLP185=

CYQF;2005-05-24 08:00;METAR CYQF 240800Z 30009KT 15SM -RA OVC035 07/05 A3004 RMK SC8 SLP188=

CYQF;2005-05-24 09:00;METAR CYQF 240900Z 29009KT 15SM -RA OVC035 07/05 A3004 RMK SC8 SLP191=

CYQF;2005-05-24 10:00;METAR CYQF 241000Z 31008KT 15SM BKN035 OVC100 07/05 A3005 RMK SC6AC2 SLP193=

CYQF;2005-05-24 10:45;SPECI CYQF 241045Z 30009KT 15SM -RA SCT035 OVC100 RMK SC4AC4=

CYQF;2005-05-24 11:00;METAR CYQF 241100Z 31008KT 15SM -RA BKN035 OVC100 07/05 A3005 RMK SC6AC2 SLP195=

CYQF;2005-05-24 12:00;METAR CYQF 241200Z 31007KT 15SM BKN035 OVC100 07/04 A3006 RMK SC6AC2 SLP203=

CYQF;2005-05-24 13:00;METAR CYQF 241300Z 30011KT 15SM FEW020 BKN035 OVC100 07/05 A3007 RMK SC2SC4AC2 SLP205=

CYQF;2005-05-24 14:00;METAR CYQF 241400Z 30011G17KT 15SM BKN020 OVC100 08/05 A3008 RMK SC6AC2 SLP208=

CYQF;2005-05-24 15:00;METAR CYQF 241500Z 32010G15KT 15SM BKN015 BKN050 BKN100 09/05 A3009 RMK SC6SC1AC1 TR AC SLP212=

CYQF;2005-05-24 16:00;METAR CYQF 241600Z 33010G15KT 15SM BKN015 BKN060 BKN250 10/05 A3009 RMK CU5SC1CI2 TR SC SLP212=

CYQF;2005-05-24 17:00;METAR CYQF 241700Z 32015G20KT 15SM SCT015 BKN060 BKN250 11/04 A3008 RMK CU4SC1CI2 TCU ASOCTD SLP211=

CYQF;2005-05-24 18:00;METAR CYQF 241800Z 31012G20KT 15SM BKN020TCU BKN060 BKN250 12/04 A3009 RMK TCU5SC2CI1 SHWRS NW-W-SW SLP208=

CYQF;2005-05-24 18:20;SPECI CYQF 241820Z 31012G20KT 10SM -SHRA BKN020TCU BKN060 BKN250 RMK TCU6SC1CI1=

CYQF;2005-05-24 19:00;METAR CYQF 241900Z 32010G15KT 10SM -SHRA BKN020TCU OVC250 11/05 A3009 RMK TCU6CI1 SLP208=

CYQF;2005-05-24 19:40;SPECI CYQF 241940Z 02008KT 15SM -SHRA BKN020TCU BKN250 RMK TCU6CI1=

CYQF;2005-05-24 20:00;METAR CYQF 242000Z 36011KT 15SM -SHRA BKN020TCU BKN250 10/05 A3010 RMK TCU6CI1 SLP211=

CYQF;2005-05-24 20:30;SPECI CYQF 242030Z 31007KT 12SM VCSH BKN020TCU BKN100 BKN250 RMK TCU5AC1CI1 SHWRS SE NW-N=

CYQF;2005-05-24 21:00;METAR CYQF 242100Z 31010G15KT 15SM VCSH SCT025TCU SCT100 BKN250 12/05 A3010 RMK TCU3AC1CI1 SHWRS ALQDS SLP213=

CYQF;2005-05-24 21:17;SPECI CYQF 242117Z 33018G25KT 15SM -SHRA BKN025TCU BKN250 RMK TCU5CI2=

CYQF;2005-05-24 21:33;SPECI CYQF 242133Z 32012G20KT 15SM VCSH BKN025TCU BKN060 BKN250 RMK TCU5CU1CI1 SHWRS ALQDS=

CYQF;2005-05-24 22:00;METAR CYQF 242200Z 32015G25KT 15SM SCT025TCU SCT060 BKN250 13/04 A3010 RMK TCU3CU1CI1 SHWRS ALQDS SLP213=

CYQF;2005-05-24 23:00;METAR CYQF 242300Z 31010G15KT 15SM VCSH BKN030TCU BKN250 12/04 A3011 RMK TCU5CI1 SHS S-SW SLP216=

CYQF;2005-05-25 00:00;METAR CYQF 250000Z 30012G18KT 10SM -SHRA BKN030TCU BKN250 12/05 A3012 RMK TCU6CI1 SLP220=

CYQF;2005-05-25 00:33;SPECI CYQF 250033Z 32010KT 15SM SCT040TCU BKN090 BKN250 RMK TCU3AC2CI1 SHS S-SE=

CYQF;2005-05-25 01:00;METAR CYQF 250100Z 28015KT 15SM SCT040TCU BKN090 BKN250 09/05 A3014 RMK TCU3AC1CI1 SHS ALQDS SLP225=

CYQF;2005-05-25 02:00;METAR CYQF 250200Z 31015KT 15SM FEW040TCU BKN090 BKN250 11/05 A3014 RMK TCU2AC2CI2 SHS DIST SE+SW VIRGA NW SLP227=

CYQF;2005-05-25 03:00;METAR CYQF 250300Z 30010KT 15SM SCT040 BKN100 BKN250 11/05 A3015 RMK CU3AC2CI0 SHS DIST W+NW TCU EMBD SLP232=

CYQF;2005-05-25 04:00;METAR CYQF 250400Z 33012KT 15SM FEW035 BKN090 09/03 A3018 RMK CU2AC3 SHS=

CYQF;2005-05-25 05:00;METAR CYQF 250500Z 28007KT 15SM FEW090 SCT250 07/03 A3019 RMK AC2CI1 SLP244=

CYQF;2005-05-25 06:00;METAR CYQF 250600Z 29007KT 15SM FEW090 FEW250 06/04 A3020 RMK AC2CI1 SLP247=

CYQF;2005-05-25 07:00;METAR CYQF 250700Z 27009KT 15SM FEW100 06/04 A3021 RMK AC1 SLP252=

CYQF;2005-05-25 08:00;METAR CYQF 250800Z 29007KT 15SM FEW100 06/03 A3022 RMK AC2 SLP255=

CYQF;2005-05-25 09:00;METAR CYQF 250900Z 27009KT 15SM FEW100 05/03 A3023 RMK AC1 SLP260=

CYQF;2005-05-25 10:00;METAR CYQF 251000Z 29006KT 15SM FEW100 04/03 A3024 RMK AC1 SLP263=

CYQF;2005-05-25 11:00;METAR CYQF 251100Z 29012KT 15SM FEW100 05/03 A3025 RMK AC1 SLP266=

CYQF;2005-05-25 12:00;METAR CYQF 251200Z 29009G15KT 15SM BKN100 05/03 A3026 RMK AC3 SLP269=

CYQF;2005-05-25 13:00;METAR CYQF 251300Z 31008KT 15SM FEW100 SCT250 07/03 A3027 RMK AC1CI1 SLP274=

CYQF;2005-05-25 14:00;METAR CYQF 251400Z 31012KT 15SM FEW100 FEW250 08/04 A3028 RMK AC1CI0 SLP277=

CYQF;2005-05-25 15:00;METAR CYQF 251500Z 32012G22KT 15SM SCT020 SCT250 09/04 A3028 RMK CU3CI1 SLP275=

CYQF;2005-05-25 16:00;METAR CYQF 251600Z 33012G20KT 15SM SCT025 SCT250 11/04 A3028 RMK CU4CI1 SLP275=

CYQF;2005-05-25 17:00;METAR CYQF 251700Z 32015G25KT 15SM SCT030 12/04 A3028 RMK CU4 SLP274=

CYQF;2005-05-25 18:00;METAR CYQF 251800Z 32015G25KT 15SM SCT030 14/03 A3027 RMK CU4 SLP270=

CYQF;2005-05-25 19:00;METAR CYQF 251900Z 31015G25KT 15SM BKN045 14/01 A3026 RMK CU5 SLP266=

CYQF;2005-05-25 20:00;METAR CYQF 252000Z 31015G25KT 15SM BKN060 16/01 A3025 RMK CU5 SLP264=

CYQF;2005-05-25 21:00;METAR CYQF 252100Z 33015G25KT 15SM BKN060 16/00 A3025 RMK CU5 SLP262=

CYQF;2005-05-25 22:00;METAR CYQF 252200Z 35015G25KT 15SM SCT060 17/01 A3024 RMK CU4 SLP260=

CYQF;2005-05-25 23:00;METAR CYQF 252300Z 35015G25KT 15SM SCT060 17/M00 A3025 RMK CU4 SLP261=

CYQF;2005-05-26 00:00;METAR CYQF 260000Z 34012G22KT 15SM SCT060 17/M01 A3024 RMK CU3 SLP259=

CYQF;2005-05-26 01:00;METAR CYQF 260100Z 34013G21KT 15SM SCT060 SCT100 17/M01 A3024 RMK CU3AC1 SHS DIST NE SLP258=

CYQF;2005-05-26 02:00;METAR CYQF 260200Z 01015G25KT 15SM SCT060 BKN100 14/01 A3025 RMK CU4AC1 VIRGA/SHS N+NE SLP263=

CYQF;2005-05-26 03:00;METAR CYQF 260300Z 35013KT 15SM FEW060 BKN100 BKN250 14/M00 A3026 RMK CU2AC2CI1 TCU EMBD SHS E SLP264=

CYQF;2005-05-26 04:00;METAR CYQF 260400Z 35008KT 15SM FEW060 SCT100 BKN250 11/01 A3028 RMK CU2AC2CI1 SHS DIST SE SLP269=

CYQF;2005-05-26 05:00;METAR CYQF 260500Z 30005KT 15SM FEW060 SCT100 SCT250 09/01 A3029 RMK CU2AC2CI1 SLP273=

CYQF;2005-05-26 06:00;METAR CYQF 260600Z 32008KT 15SM FEW100 SCT250 09/01 A3030 RMK AC2CI1 SLP277=

CYQF;2005-05-26 07:00;METAR CYQF 260700Z 36007KT 15SM FEW100 FEW250 08/01 A3032 RMK AC1CI0 SLP283=

CYQF;2005-05-26 08:00;METAR CYQF 260800Z 35005KT 15SM FEW100 FEW250 06/01 A3032 RMK AC1CI0 SLP283=

CYQF;2005-05-26 09:00;METAR CYQF 260900Z 29006KT 15SM FEW100 SCT250 03/00 A3033 RMK AC1CI1 SLP292=

CYQF;2005-05-26 10:00;METAR CYQF 261000Z 28005KT 15SM FEW100 FEW250 04/01 A3034 RMK AC1CI0 SLP294=

CYQF;2005-05-26 11:00;METAR CYQF 261100Z 00000KT 15SM FEW120 03/00 A3034 RMK AC1 SLP295=

CYQF;2005-05-26 12:00;METAR CYQF 261200Z 00000KT 15SM FEW100 01/M00 A3034 RMK AC1 SLP299=

CYQF;2005-05-26 13:00;METAR CYQF 261300Z 00000KT 15SM FEW100 04/02 A3035 RMK AC1 SLP301=

CYQF;2005-05-26 14:00;METAR CYQF 261400Z 00000KT 15SM FEW120 07/02 A3035 RMK AC1 SLP302=

CYQF;2005-05-26 15:00;METAR CYQF 261500Z 00000KT 15SM FEW120 09/03 A3036 RMK AC1 SLP297=

CYQF;2005-05-26 16:00;METAR CYQF 261600Z 35010KT 15SM FEW035 12/03 A3035 RMK CF1 SLP294=

CYQF;2005-05-26 17:00;METAR CYQF 261700Z 33010G20KT 15SM FEW045 14/01 A3033 RMK CU1 SLP289=

CYQF;2005-05-26 18:00;METAR CYQF 261800Z 34010G15KT 15SM FEW055 15/00 A3032 RMK CU1 SLP283=

CYQF;2005-05-26 19:00;METAR CYQF 261900Z 32010G18KT 15SM FEW060 16/M03 A3030 RMK CU1 SLP278=

CYQF;2005-05-26 20:00;METAR CYQF 262000Z 32010G18KT 15SM SKC 17/M01 A3029 RMK SLP275=

CYQF;2005-05-26 21:00;METAR CYQF 262100Z 33010G15KT 15SM SKC 17/M03 A3028 RMK SLP275=

CYQF;2005-05-26 22:00;METAR CYQF 262200Z 33010G15KT 15SM SKC 18/M03 A3027 RMK SLP272=

CYQF;2005-05-26 23:00;METAR CYQF 262300Z 36010G15KT 15SM SKC 19/M03 A3026 RMK SLP269=

CYQF;2005-05-27 00:00;METAR CYQF 270000Z 35010G15KT 15SM SKC 18/M03 A3025 RMK SLP264=

CYQF;2005-05-27 01:00;METAR CYQF 270100Z 03010KT 15SM SKC 18/M03 A3025 RMK SLP263=

CYQF;2005-05-27 02:00;METAR CYQF 270200Z 02013KT 15SM SKC 17/M04 A3024 RMK SLP260=

CYQF;2005-05-27 03:00;METAR CYQF 270300Z 02010KT 15SM SKC 16/M03 A3023 RMK SLP252=

CYQF;2005-05-27 04:00;METAR CYQF 270400Z 33002KT 15SM FEW250 09/M03 A3024 RMK CI1 SLP254=

CYQF;2005-05-27 05:00;METAR CYQF 270500Z 30004KT 15SM SKC 08/M03 A3024 RMK SLP255=

CYQF;2005-05-27 06:00;METAR CYQF 270600Z 00000KT 15SM SKC 06/M01 A3025 RMK SLP261=

CYQF;2005-05-27 07:00;METAR CYQF 270700Z 20003KT 15SM SKC 04/M02 A3025 RMK SLP261=

CYQF;2005-05-27 08:00;METAR CYQF 270800Z 19004KT 15SM SKC 02/M02 A3024 RMK SLP258=

CYQF;2005-05-27 09:00;METAR CYQF 270900Z 00000KT 15SM SKC 03/M01 A3023 RMK SLP257=

CYQF;2005-05-27 10:00;METAR CYQF 271000Z 00000KT 15SM SKC M00/M03 A3022 RMK SLP254=

CYQF;2005-05-27 11:00;METAR CYQF 271100Z 00000KT 15SM SKC 01/M02 A3022 RMK SLP253=

CYQF;2005-05-27 12:00;METAR CYQF 271200Z 00000KT 15SM SKC M01/M03 A3021 RMK SLP252=

CYQF;2005-05-27 13:00;METAR CYQF 271300Z 00000KT 15SM SKC 03/M01 A3021 RMK SLP252=

CYQF;2005-05-27 14:00;METAR CYQF 271400Z 00000KT 15SM SKC 08/01 A3020 RMK SLP251=

CYQF;2005-05-27 15:00;METAR CYQF 271500Z 00000KT 15SM SKC 12/01 A3019 RMK SLP235=

CYQF;2005-05-27 16:00;METAR CYQF 271600Z 29004KT 15SM SKC 15/M02 A3018 RMK SLP231=

CYQF;2005-05-27 17:00;METAR CYQF 271700Z 33006KT 15SM SKC 16/M01 A3016 RMK SLP224=

CYQF;2005-05-27 18:00;METAR CYQF 271800Z 36007KT 15SM SKC 18/01 A3015 RMK SLP223=

CYQF;2005-05-27 19:00;METAR CYQF 271900Z 32002KT 15SM FEW250 18/M01 A3013 RMK CI1 SLP219=

CYQF;2005-05-27 20:00;METAR CYQF 272000Z 02005KT 15SM FEW250 19/M01 A3012 RMK CI1 SLP214=

CYQF;2005-05-27 21:00;METAR CYQF 272100Z 32005KT 15SM FEW250 19/M01 A3010 RMK CI1 SLP211=

CYQF;2005-05-27 22:00;METAR CYQF 272200Z 04007KT 15SM BKN250 20/M01 A3009 RMK CI2 SLP208=

CYQF;2005-05-27 23:00;METAR CYQF 272300Z 03010KT 15SM SCT250 20/M02 A3007 RMK CI2 SLP202=

CYQF;2005-05-28 00:00;METAR CYQF 280000Z 03010G15KT 15SM BKN250 19/M01 A3006 RMK CI2 SLP201=

CYQF;2005-05-28 01:00;METAR CYQF 280100Z 02010KT 15SM BKN250 20/M01 A3005 RMK CI3 SLP197=

CYQF;2005-05-28 02:00;METAR CYQF 280200Z 03010KT 15SM BKN250 19/M01 A3005 RMK CI3 SLP196=

CYQF;2005-05-28 03:00;METAR CYQF 280300Z 02006KT 15SM FEW250 16/M00 A3005 RMK CI2 SLP185=

CYQF;2005-05-28 04:00;METAR CYQF 280400Z 05002KT 15SM FEW250 14/M01 A3006 RMK CI1 SLP188=

CYQF;2005-05-28 05:00;METAR CYQF 280500Z 00000KT 15SM FEW250 12/M01 A3006 RMK CI1 SLP188=

CYQF;2005-05-28 06:00;METAR CYQF 280600Z 03003KT 15SM FEW150 FEW250 11/M00 A3005 RMK AC1CI1 SLP187=

CYQF;2005-05-28 07:00;METAR CYQF 280700Z 04003KT 15SM FEW250 09/M00 A3005 RMK CI0 SLP187=

CYQF;2005-05-28 08:00;METAR CYQF 280800Z 23006KT 15SM FEW250 05/M01 A3005 RMK CI1 SLP187=

CYQF;2005-05-28 09:00;METAR CYQF 280900Z 00000KT 15SM SCT250 04/M00 A3005 RMK CI1 SLP190=

CYQF;2005-05-28 10:00;METAR CYQF 281000Z 00000KT 15SM FEW250 04/M01 A3005 RMK CI1 SLP190=

CYQF;2005-05-28 11:00;METAR CYQF 281100Z 00000KT 15SM FEW250 03/00 A3005 RMK CI1 SLP190=

CYQF;2005-05-28 12:00;METAR CYQF 281200Z 00000KT 15SM FEW250 01/M02 A3005 RMK CI1 SLP196=

CYQF;2005-05-28 13:00;METAR CYQF 281300Z 00000KT 15SM FEW250 05/00 A3006 RMK CI0 SLP198=

CYQF;2005-05-28 14:00;METAR CYQF 281400Z 00000KT 15SM FEW250 08/02 A3007 RMK CI0 SLP201=

CYQF;2005-05-28 15:00;METAR CYQF 281500Z 00000KT 15SM FEW250 13/01 A3007 RMK CI0 SLP192=

CYQF;2005-05-28 16:00;METAR CYQF 281600Z 00000KT 15SM FEW250 15/M01 A3006 RMK CI0 SLP190=

CYQF;2005-05-28 17:00;METAR CYQF 281700Z 06008KT 15SM FEW250 16/M02 A3006 RMK CI0 SLP190=

CYQF;2005-05-28 18:00;METAR CYQF 281800Z 33003KT 15SM FEW250 16/M01 A3006 RMK CI0 SLP190=

CYQF;2005-05-28 19:00;METAR CYQF 281900Z 03005KT 15SM FEW250 18/M02 A3005 RMK CI0 SLP188=

CYQF;2005-05-28 20:00;METAR CYQF 282000Z 03009KT 15SM FEW250 19/M02 A3005 RMK CI0 SLP186=

CYQF;2005-05-28 21:00;METAR CYQF 282100Z 03010KT 15SM FEW250 19/M02 A3004 RMK CI0 SLP188=

CYQF;2005-05-28 22:00;METAR CYQF 282200Z 02012KT 15SM FEW250 19/M05 A3004 RMK CI1 SLP188=

CYQF;2005-05-28 23:00;METAR CYQF 282300Z 04011KT 15SM FEW250 20/M03 A3004 RMK CI0 SLP186=

CYQF;2005-05-29 00:00;METAR CYQF 290000Z 08010KT 15SM FEW250 19/M01 A3003 RMK CI0 SLP188=

CYQF;2005-05-29 02:00;METAR CYQF 290200Z 07008KT 15SM FEW250 18/03 A3004 RMK CI1 SLP191=

CYQF;2005-05-29 03:00;METAR CYQF 290300Z 08006KT 15SM FEW250 15/04 A3005 RMK CI1 SLP186=

CYQF;2005-05-29 04:00;METAR CYQF 290400Z 09006KT 15SM FEW250 13/05 A3007 RMK CI0 SLP192=

CYQF;2005-05-29 05:00;METAR CYQF 290500Z 10005KT 15SM FEW250 11/05 A3009 RMK CI0 SLP199=

CYQF;2005-05-29 06:00;METAR CYQF 290600Z 11006KT 15SM FEW250 10/05 A3010 RMK CI0 SLP204=

CYQF;2005-05-29 07:00;METAR CYQF 290700Z 14007KT 15SM SKC 09/04 A3012 RMK SLP210=

CYQF;2005-05-29 08:00;METAR CYQF 290800Z 16007KT 15SM SKC 08/04 A3012 RMK SLP211=

CYQF;2005-05-29 09:00;METAR CYQF 290900Z 17005KT 15SM SKC 06/03 A3013 RMK SLP216=

CYQF;2005-05-29 10:00;METAR CYQF 291000Z 15010KT 15SM SKC 06/03 A3013 RMK SLP215=

CYQF;2005-05-29 11:00;METAR CYQF 291100Z 17007KT 15SM FEW250 05/02 A3012 RMK CI2 SLP214=

CYQF;2005-05-29 12:00;METAR CYQF 291200Z 19005KT 15SM FEW250 06/03 A3014 RMK CI2 SLP218=

CYQF;2005-05-29 14:00;METAR CYQF 291400Z 18013KT 15SM FEW250 09/04 A3015 RMK CI1 SLP221=

CYQF;2005-05-29 15:00;METAR CYQF 291500Z 18015KT 15SM FEW250 11/04 A3015 RMK CI0 SLP222=

CYQF;2005-05-29 16:00;METAR CYQF 291600Z 17015KT 15SM FEW250 13/04 A3015 RMK CI0 SLP222=

CYQF;2005-05-29 17:00;METAR CYQF 291700Z 16015KT 15SM FEW250 15/05 A3014 RMK CI0 SLP219=

CYQF;2005-05-29 18:00;METAR CYQF 291800Z 16014G20KT 15SM FEW250 16/04 A3013 RMK CI0 SLP213=

CYQF;2005-05-29 19:00;METAR CYQF 291900Z 16015G22KT 15SM FEW250 18/02 A3011 RMK CI0 SLP209=

CYQF;2005-05-29 20:00;METAR CYQF 292000Z 17016G23KT 15SM FEW250 19/02 A3011 RMK CI0 SLP208=

CYQF;2005-05-29 21:00;METAR CYQF 292100Z 16016G22KT 15SM FEW250 20/01 A3009 RMK CI0 SLP203=

CYQF;2005-05-29 22:00;METAR CYQF 292200Z 16017G28KT 15SM FEW250 20/M00 A3008 RMK CI1 TR CLD SLP200=

CYQF;2005-05-29 23:00;METAR CYQF 292300Z 18015G22KT 15SM FEW250 20/01 A3007 RMK CI1 TR CLD SLP196=

CYQF;2005-05-30 00:00;METAR CYQF 300000Z 17012G20KT 15SM FEW250 20/M00 A3006 RMK CI1 SLP192=

CYQF;2005-05-30 01:00;METAR CYQF 300100Z 15015G25KT 15SM FEW250 20/M01 A3005 RMK CI1 SLP190=

CYQF;2005-05-30 02:00;METAR CYQF 300200Z 17010G15KT 15SM FEW250 19/M00 A3005 RMK CI1 SLP187=

CYQF;2005-05-30 03:00;METAR CYQF 300300Z 16010G15KT 15SM SKC 17/00 A3004 RMK SLP181=

CYQF;2005-05-30 04:00;METAR CYQF 300400Z 16009KT 15SM SKC 14/M00 A3004 RMK SLP182=

CYQF;2005-05-30 05:00;METAR CYQF 300500Z 15007KT 15SM SKC 12/M00 A3004 RMK SLP182=

CYQF;2005-05-30 06:00;METAR CYQF 300600Z 15008KT 15SM SKC 11/M00 A3004 RMK SLP183=

CYQF;2005-05-30 07:00;METAR CYQF 300700Z 15010KT 15SM SKC 12/00 A3003 RMK SLP180=

CYQF;2005-05-30 08:00;METAR CYQF 300800Z 17010G15KT 15SM SKC 11/00 A3003 RMK SLP179=

CYQF;2005-05-30 09:00;METAR CYQF 300900Z 17012KT 15SM SKC 10/00 A3003 RMK SLP177=

CYQF;2005-05-30 10:00;METAR CYQF 301000Z 16008KT 15SM SKC 09/00 A3003 RMK SLP175=

CYQF;2005-05-30 11:00;METAR CYQF 301100Z 14005KT 15SM SKC 07/00 A3003 RMK SLP175=

CYQF;2005-05-30 13:00;METAR CYQF 301300Z 17010G15KT 15SM SKC 10/01 A3001 RMK SLP173=

CYQF;2005-05-30 14:00;METAR CYQF 301400Z 18012KT 15SM SKC 12/03 A3001 RMK SLP172=

CYQF;2005-05-30 15:00;METAR CYQF 301500Z 17016G23KT 15SM SKC 15/03 A3001 RMK SLP165=

CYQF;2005-05-30 16:00;METAR CYQF 301600Z 18017G25KT 15SM SKC 17/02 A3000 RMK SLP162=

CYQF;2005-05-30 17:00;METAR CYQF 301700Z 17018G27KT 15SM SKC 19/01 A2999 RMK SLP161=

CYQF;2005-05-30 18:00;METAR CYQF 301800Z 17017G27KT 15SM SKC 20/02 A2998 RMK SLP160=

CYQF;2005-05-30 19:00;METAR CYQF 301900Z 17018G25KT 15SM SKC 20/01 A2997 RMK SLP157=

CYQF;2005-05-30 20:00;METAR CYQF 302000Z 16015G23KT 15SM SKC 21/01 A2996 RMK SLP154=

CYQF;2005-05-30 21:00;METAR CYQF 302100Z 16015G22KT 15SM SKC 22/00 A2995 RMK SLP145=

CYQF;2005-05-30 22:00;METAR CYQF 302200Z 17016G23KT 15SM SKC 23/01 A2993 RMK SLP138=

CYQF;2005-05-30 23:00;METAR CYQF 302300Z 16015G25KT 15SM SKC 24/01 A2991 RMK SLP132=

CYQF;2005-05-31 00:00;METAR CYQF 310000Z 16016G24KT 15SM SKC 24/M00 A2989 RMK SLP127=

CYQF;2005-05-31 01:00;METAR CYQF 310100Z 16012G22KT 15SM SKC 23/M01 A2988 RMK SLP123=

CYQF;2005-05-31 02:00;METAR CYQF 310200Z 16016G24KT 15SM SKC 22/M02 A2987 RMK SLP122=

CYQF;2005-05-31 03:00;METAR CYQF 310300Z 16012G18KT 15SM SKC 20/M03 A2988 RMK SLP118=

CYQF;2005-05-31 04:00;METAR CYQF 310400Z 15012KT 15SM FEW090 FEW250 17/M02 A2989 RMK AC1CI1 SLP121=

CYQF;2005-05-31 06:00;METAR CYQF 310600Z 16010G15KT 15SM FEW090 15/M02 A2988 RMK AC1 SLP120=

CYQF;2005-05-31 07:00;METAR CYQF 310700Z 18006KT 15SM SKC 12/M01 A2988 RMK SLP120=

CYQF;2005-05-31 08:00;METAR CYQF 310800Z 17012KT 15SM SKC 11/M00 A2986 RMK SLP115=

CYQF;2005-05-31 09:00;METAR CYQF 310900Z 18007KT 15SM SKC 09/M00 A2986 RMK SLP115=

CYQF;2005-05-31 10:00;METAR CYQF 311000Z 19006KT 15SM SKC 08/00 A2986 RMK SLP115=

CYQF;2005-05-31 11:00;METAR CYQF 311100Z 17007KT 15SM SKC 08/00 A2986 RMK SLP115=

CYQF;2005-05-31 12:00;METAR CYQF 311200Z 16007KT 15SM SKC 07/M14 A2986 RMK SLP117=

CYQF;2005-05-31 13:00;METAR CYQF 311300Z 16010KT 15SM SKC 09/01 A2985 RMK SLP115=

CYQF;2005-05-31 14:00;METAR CYQF 311400Z 15010G15KT 15SM SKC 12/02 A2985 RMK SLP114=

CYQF;2005-05-31 15:00;METAR CYQF 311500Z 17012G18KT 15SM SKC 14/03 A2984 RMK SLP106=

CYQF;2005-05-31 16:00;METAR CYQF 311600Z 16014G22KT 15SM SKC 18/02 A2983 RMK SLP102=

CYQF;2005-05-31 17:00;METAR CYQF 311700Z 17013G20KT 15SM SKC 19/02 A2981 RMK SLP096=

CYQF;2005-05-31 18:00;METAR CYQF 311800Z 18015G24KT 15SM FEW070TCU 20/01 A2980 RMK TCU1 SLP092=

CYQF;2005-05-31 19:00;METAR CYQF 311900Z 16013G21KT 15SM FEW070TCU 21/01 A2978 RMK TCU1 SLP086=

CYQF;2005-05-31 20:00;METAR CYQF 312000Z 15016G25KT 15SM FEW080TCU 22/M00 A2976 RMK TCU1 SLP079=

CYQF;2005-05-31 21:00;METAR CYQF 312100Z 15018G26KT 15SM FEW080TCU FEW250 23/M00 A2974 RMK TCU1CI0 SLP075=

CYQF;2005-05-31 22:00;METAR CYQF 312200Z 16017G25KT 15SM FEW080TCU FEW250 23/M01 A2973 RMK TCU1CI0 SLP070=

CYQF;2005-05-31 23:00;METAR CYQF 312300Z 15016G25KT 15SM FEW080TCU FEW250 24/M00 A2972 RMK TCU1CI0 SLP068=

CYQF;2005-06-01 00:00;METAR CYQF 010000Z 15017G25KT 15SM FEW080TCU FEW250 23/M00 A2971 RMK TCU1CI1 TR TCU SLP066=

CYQF;2005-06-01 01:00;METAR CYQF 010100Z 14020G32KT 15SM SCT250 21/03 A2971 RMK CI2 SLP065=

CYQF;2005-06-01 02:00;METAR CYQF 010200Z 15018G28KT 15SM BKN250 20/02 A2971 RMK CI2 SLP065=

CYQF;2005-06-01 03:00;METAR CYQF 010300Z 15010G15KT 15SM SCT250 19/03 A2970 RMK CI1 SLP060=

CYQF;2005-06-01 04:00;METAR CYQF 010400Z 15013KT 15SM FEW100 SCT250 16/04 A2971 RMK AC1CI1 TR AC SLP063=

CYQF;2005-06-01 05:00;METAR CYQF 010500Z 14007KT 15SM SCT250 15/05 A2973 RMK CI1 SLP067=

CYQF;2005-06-01 06:00;METAR CYQF 010600Z 13010KT 15SM SCT250 14/05 A2973 RMK CI1 SLP068=

CYQF;2005-06-01 07:00;METAR CYQF 010700Z 16008KT 15SM FEW070 SCT250 14/05 A2973 RMK AC2CI1 SLP068=

CYQF;2005-06-01 08:00;METAR CYQF 010800Z 00000KT 15SM FEW070 BKN250 12/05 A2972 RMK AC2CI1 SLP065=

CYQF;2005-06-01 09:00;METAR CYQF 010900Z 12005KT 15SM FEW070 BKN120 12/05 A2971 RMK AC2AC5 SLP061=

CYQF;2005-06-01 10:00;METAR CYQF 011000Z 09004KT 15SM FEW070 BKN120 11/05 A2971 RMK AC2AC5 SLP060=

CYQF;2005-06-01 11:00;METAR CYQF 011100Z 09007KT 15SM FEW030 OVC100 10/05 A2971 RMK SC2AC6 SLP061=

CYQF;2005-06-01 12:00;METAR CYQF 011200Z 11008KT 15SM FEW030 OVC100 11/05 A2972 RMK SC2AC5 VIRGA SLP064=

CYQF;2005-06-01 13:00;METAR CYQF 011300Z 11007KT 15SM FEW030 BKN090 OVC250 12/05 A2973 RMK SC1AC6CI1 VIRGA SLP069=

CYQF;2005-06-01 14:00;METAR CYQF 011400Z 12008KT 15SM FEW040 BKN080 OVC250 12/06 A2975 RMK SC1AC6CI1 VIRGA SLP073=

CYQF;2005-06-01 15:00;METAR CYQF 011500Z 11006KT 15SM FEW040 BKN080 OVC250 14/07 A2976 RMK SC2AC5CI1 SHS DIST SE-S SLP080=

CYQF;2005-06-01 16:00;METAR CYQF 011600Z 17012KT 15SM VCSH SCT040 BKN080 OVC250 14/07 A2977 RMK SC3AC4CI1 SLP083=

CYQF;2005-06-01 16:14;SPECI CYQF 011614Z 14012KT 15SM -SHRA SCT040 BKN080 OVC250 RMK SC4AC3CI1=

CYQF;2005-06-01 17:00;METAR CYQF 011700Z 17008KT 15SM -SHRA SCT040 BKN080 OVC250 14/08 A2978 RMK SC4AC3CI1 SLP087=

CYQF;2005-06-01 18:00;METAR CYQF 011800Z 05005KT 15SM -SHRA BKN040 BKN080 OVC250 14/09 A2979 RMK SC6AC2CI1 TCU ASOCTD + EMBDD SLP096=

CYQF;2005-06-01 19:00;METAR CYQF 011900Z 35002KT 15SM -SHRA BKN025TCU BKN080 OVC250 16/10 A2980 RMK TCU6AC2CI1 SLP097=

CYQF;2005-06-01 19:23;SPECI CYQF 011923Z 09002KT 15SM BKN025TCU BKN080 OVC250 RMK TCU5AC2CI2=

CYQF;2005-06-01 20:00;METAR CYQF 012000Z 00000KT 15SM -SHRA BKN025TCU OVC080 15/09 A2980 RMK TCU6AC2 SLP098=

CYQF;2005-06-01 21:00;METAR CYQF 012100Z 09004KT 12SM -SHRA BKN025TCU OVC080 13/11 A2982 RMK TCU7AC1 SLP107=

CYQF;2005-06-01 22:00;METAR CYQF 012200Z 29006KT 15SM VCSH SCT025 BKN080 OVC250 15/11 A2980 RMK CU3AC3CI2 TCU ASOCTD SLP102=

CYQF;2005-06-01 23:00;METAR CYQF 012300Z 29005KT 15SM FEW025 SCT080 OVC250 16/10 A2980 RMK CU2AC2CI3 SLP102=

CYQF;2005-06-02 00:00;METAR CYQF 020000Z 34008KT 15SM FEW025 SCT090 OVC250 16/10 A2980 RMK CU2AC2CI3 SLP101=

CYQF;2005-06-02 01:00;METAR CYQF 020100Z 03016G28KT 15SM VCSH SCT025TCU BKN090 OVC250 16/09 A2983 RMK TCU3AC2CI2 SLP108=

CYQF;2005-06-02 01:14;SPECI CYQF 020114Z 08015KT 15SM -SHRA BKN025TCU OVC090 RMK TCU7AC1=

CYQF;2005-06-02 02:00;METAR CYQF 020200Z 05005KT 10SM -SHRA BKN020TCU OVC090 12/10 A2985 RMK TCU7AC1 SLP114=

CYQF;2005-06-02 03:00;METAR CYQF 020300Z 29003KT 15SM -SHRA BKN025TCU BKN090 OVC250 11/10 A2982 RMK TCU6AC2CI1 SLP109=

CYQF;2005-06-02 03:21;SPECI CYQF 020321Z 32007KT 15SM VCSH FEW025TCU BKN050 OVC090 RMK TCU2SC3AC2=

CYQF;2005-06-02 04:00;METAR CYQF 020400Z 33008KT 15SM FEW030 BKN050 OVC090 12/10 A2982 RMK SC2SC6AC1 SLP108=

CYQF;2005-06-02 05:00;METAR CYQF 020500Z 32008KT 15SM SCT050 BKN090 OVC250 12/10 A2982 RMK SC3AC2CI2 SLP108=

CYQF;2005-06-02 06:00;METAR CYQF 020600Z 31010KT 15SM BKN060 OVC090 11/10 A2981 RMK SC6AC2 SLP105=

CYQF;2005-06-02 07:00;METAR CYQF 020700Z 31009KT 15SM SCT050 OVC100 12/10 A2981 RMK SC4AC4 SLP104=

CYQF;2005-06-02 08:00;METAR CYQF 020800Z 32009KT 15SM SCT050 BKN100 OVC250 12/10 A2980 RMK SC3AC3CI2 SLP102=

CYQF;2005-06-02 09:00;METAR CYQF 020900Z 31005KT 15SM FEW050 BKN100 OVC250 11/09 A2980 RMK SC2AC3CI3 SLP103=

CYQF;2005-06-02 10:00;METAR CYQF 021000Z 33007KT 15SM FEW050 BKN090 12/09 A2979 RMK SC2AC6 SLP101=

CYQF;2005-06-02 11:00;METAR CYQF 021100Z 33013KT 15SM FEW030 BKN090 12/09 A2979 RMK SC2AC4 FEW CU SLP099=

CYQF;2005-06-02 12:00;METAR CYQF 021200Z 32012KT 15SM SCT030 BKN090 12/09 A2978 RMK CU4AC2 FEW TCU EMBD SLP092=

CYQF;2005-06-02 13:00;METAR CYQF 021300Z 33011G18KT 15SM SCT030 BKN090 12/09 A2977 RMK CU4AC2 TCU EMBD E SLP089=

CYQF;2005-06-02 14:00;METAR CYQF 021400Z 34009KT 15SM FEW030 SCT090 BKN250 14/09 A2977 RMK CU2AC1CI1 TCU ASCTD SLP088=

CYQF;2005-06-02 15:00;METAR CYQF 021500Z 33012G21KT 15SM FEW030TCU SCT090 SCT250 16/10 A2975 RMK TCU2AC1CI0 SHS DIST E SLP083=

CYQF;2005-06-02 15:46;SPECI CYQF 021546Z 02015G24KT 15SM -SHRA BKN030TCU BKN090 OVC250 RMK TCU6AC1CI1=

CYQF;2005-06-02 16:00;METAR CYQF 021600Z 02012KT 15SM -SHRA BKN030TCU BKN090 OVC250 14/10 A2977 RMK TCU6AC1CI1 SLP089=

CYQF;2005-06-02 17:00;METAR CYQF 021700Z 33013G22KT 15SM VCSH BKN030TCU BKN090 BKN250 16/11 A2975 RMK TCU5AC1CI1 SHS SW-NW SLP082=

CYQF;2005-06-02 18:00;METAR CYQF 021800Z 32015G25KT 15SM SCT040TCU BKN090 BKN250 17/10 A2974 RMK TCU4AC2CI1 SHS DIST SW+NW SLP077=

CYQF;2005-06-02 19:00;METAR CYQF 021900Z 34012G22KT 15SM FEW040TCU BKN090 BKN250 18/10 A2973 RMK TCU2AC2CI2 SLP074=

CYQF;2005-06-02 20:00;METAR CYQF 022000Z 34013G24KT 15SM SCT040TCU BKN090 OVC250 19/10 A2970 RMK TCU3AC2CI1 SLP065=

CYQF;2005-06-02 20:36;SPECI CYQF 022036Z 35016G28KT 15SM -SHRA BKN040TCU BKN090 OVC250 RMK TCU5AC2CI1=

CYQF;2005-06-02 21:26;SPECI CYQF 022126Z 35010G16KT 15SM -SHRA BKN040TCU BKN090 OVC250 RMK TCU5AC2CI1=

CYQF;2005-06-02 22:00;METAR CYQF 022200Z 03010KT 15SM VCSH BKN040TCU BKN090 OVC250 16/12 A2969 RMK TCU5AC2CI1 SLP061=

CYQF;2005-06-02 23:00;METAR CYQF 022300Z 36013G21KT 15SM VCSH BKN050TCU BKN090 OVC250 17/10 A2972 RMK TCU6AC2CI1 SLP068=

CYQF;2005-06-02 23:29;SPECI CYQF 022329Z 03010KT 15SM -SHRA BKN050TCU BKN090 OVC250 RMK TCU6AC1CI1=

CYQF;2005-06-03 00:00;METAR CYQF 030000Z 04006KT 15SM VCSH SCT050TCU BKN090 OVC250 15/11 A2974 RMK TCU3AC2CI2 SHS SW SLP079=

CYQF;2005-06-03 01:00;METAR CYQF 030100Z 05012KT 15SM SCT050TCU BKN090 OVC250 16/10 A2973 RMK TCU3AC2CI2 SHS N-W-S SLP076=

CYQF;2005-06-03 02:00;METAR CYQF 030200Z 04003KT 15SM SCT050 BKN090 OVC250 16/10 A2975 RMK SC3AC2CI2 TCU EMBD SH N SLP081=

CYQF;2005-06-03 03:00;METAR CYQF 030300Z 31003KT 15SM BKN050TCU BKN090 OVC250 14/11 A2974 RMK TCU5AC2CI1 SHS ALQDS SLP077=

CYQF;2005-06-03 03:25;SPECI CYQF 030325Z 30004KT 5SM -SHRA BKN040TCU OVC090 RMK TCU7AC1=

CYQF;2005-06-03 04:00;METAR CYQF 030400Z 33003KT 15SM -SHRA FEW020TCU BKN040 BKN090 OVC250 13/12 A2975 RMK TCU2SC2AC2CI2 VIS S-SW 3 SLP079=

CYQF;2005-06-03 04:14;SPECI CYQF 030414Z 32004KT 15SM FEW020TCU BKN040 OVC090 RMK TCU1SC5AC2=

CYQF;2005-06-03 05:00;METAR CYQF 030500Z 33008KT 15SM BKN035 OVC090 13/11 A2976 RMK SC6AC2 SLP081=

CYQF;2005-06-03 06:00;METAR CYQF 030600Z 35008KT 15SM BKN040 OVC090 12/10 A2976 RMK SC6AC2 SLP082=

CYQF;2005-06-03 07:00;METAR CYQF 030700Z 01008KT 15SM -SHRA BKN050 OVC090 12/10 A2976 RMK SC6AC2 SLP083=

CYQF;2005-06-03 07:19;SPECI CYQF 030719Z 36006KT 15SM BKN050 OVC090 RMK SC6AC2=

CYQF;2005-06-03 08:00;METAR CYQF 030800Z 35004KT 15SM SCT050 OVC100 12/10 A2976 RMK SC3AC5 SLP083=

CYQF;2005-06-03 08:12;SPECI CYQF 030812Z 36006KT 15SM -SHRA SCT050 OVC100 RMK SC3AC5=

CYQF;2005-06-03 09:00;METAR CYQF 030900Z 33004KT 10SM -RA SCT025 OVC040 11/11 A2976 RMK SC4SC4 SLP086=

CYQF;2005-06-03 10:00;METAR CYQF 031000Z 36005KT 10SM -RA FEW010 OVC025 11/11 A2977 RMK SC2SC6 SLP088=

CYQF;2005-06-03 11:00;METAR CYQF 031100Z 34009KT 12SM FEW010 BKN025 OVC050 11/10 A2977 RMK SF2SC5SC2 SHS S+W SLP089=

CYQF;2005-06-03 11:54;SPECI CYQF 031154Z 35008KT 12SM -RA FEW010 SCT025 BKN050 OVC090 RMK SF1SC3SC2AC2=

CYQF;2005-06-03 12:00;METAR CYQF 031200Z 33005KT 12SM -RA FEW010 SCT025 BKN050 OVC090 11/10 A2977 RMK SF1SC3SC2AC2 SLP091=

CYQF;2005-06-03 12:31;SPECI CYQF 031231Z 34007KT 15SM FEW007 BKN025 BKN050 OVC090 RMK SF1SC5SC2AC2=

CYQF;2005-06-03 13:00;METAR CYQF 031300Z 33009KT 15SM FEW008 BKN030 OVC090 11/10 A2978 RMK SF2SC4AC2 SLP093=

CYQF;2005-06-03 13:30;SPECI CYQF 031330Z 36010KT 15SM -SHRA BKN012 BKN030 OVC090 RMK SC5SC2AC1=

CYQF;2005-06-03 14:00;METAR CYQF 031400Z 36010KT 15SM -RA BKN010 OVC030 12/10 A2978 RMK SC6SC2 SLP094=

CYQF;2005-06-03 15:00;METAR CYQF 031500Z 35009KT 15SM BKN010 OVC030 12/10 A2978 RMK SC5SC3 SLP095=

CYQF;2005-06-03 16:00;METAR CYQF 031600Z 34007KT 15SM BKN011 OVC030 12/11 A2978 RMK SC7SC1 SLP094=

CYQF;2005-06-03 16:32;SPECI CYQF 031632Z 34008KT 15SM BKN009 OVC030 RMK SC6SC2=

CYQF;2005-06-03 17:00;METAR CYQF 031700Z 35008KT 15SM SCT009 OVC014 13/11 A2977 RMK SC4CU4 SLP090=

CYQF;2005-06-03 18:00;METAR CYQF 031800Z 35011KT 15SM FEW009 BKN015 BKN100 14/10 A2976 RMK CF1CU6AC1 TCU SLP087=

CYQF;2005-06-03 18:38;SPECI CYQF 031838Z 35009KT 15SM -SHRA FEW009 BKN012 OVC100 RMK CF1CU6AC1 TCU=

CYQF;2005-06-03 19:00;METAR CYQF 031900Z 36010G15KT 15SM BKN012TCU OVC100 14/11 A2976 RMK TCU6AC2 SHS S SLP088=

CYQF;2005-06-03 20:00;METAR CYQF 032000Z 03010G15KT 15SM SCT012TCU BKN100 14/10 A2977 RMK TCU4AC3 CIG RAG SLP089=

CYQF;2005-06-03 21:00;METAR CYQF 032100Z 04009KT 15SM -SHRA BKN020TCU OVC100 15/10 A2977 RMK TCU6AC2 SLP090=

CYQF;2005-06-03 22:00;METAR CYQF 032200Z 06008KT 15SM BKN020TCU BKN100 15/10 A2976 RMK TCU6AC2 SLP089=

CYQF;2005-06-03 23:00;METAR CYQF 032300Z 08008KT 15SM BKN025TCU BKN100 16/10 A2976 RMK TCU6AC1 SLP089=

CYQF;2005-06-04 00:00;METAR CYQF 040000Z 07006KT 15SM BKN025TCU BKN100 15/10 A2977 RMK TCU6AC2 SHS DIST SW SLP090=

CYQF;2005-06-04 01:00;METAR CYQF 040100Z 09004KT 15SM SCT025TCU BKN080 15/10 A2977 RMK TCU4AC3 SLP090=

CYQF;2005-06-04 02:00;METAR CYQF 040200Z 00000KT 15SM BKN025TCU BKN080 15/09 A2977 RMK TCU6AC2 SHS DIST NNW SLP092=

CYQF;2005-06-04 04:00;METAR CYQF 040400Z 11003KT 15SM FEW025TCU SCT090 12/09 A2978 RMK TCU2AC1 SLP095=

CYQF;2005-06-04 05:00;METAR CYQF 040500Z 00000KT 15SM FEW025TCU SCT090 11/09 A2979 RMK TCU2AC2 SLP098=

CYQF;2005-06-04 06:00;METAR CYQF 040600Z 00000KT 15SM FEW025 SCT090 BKN250 10/09 A2979 RMK CU2AC2CI2 SLP099=

CYQF;2005-06-04 07:00;METAR CYQF 040700Z 19003KT 15SM FEW025 SCT080 BKN250 10/09 A2979 RMK CU1AC3CI2 SLP098=

CYQF;2005-06-04 08:00;METAR CYQF 040800Z 21003KT 15SM BKN080 BKN250 10/09 A2978 RMK AC5CI2 SLP096=

CYQF;2005-06-04 09:00;METAR CYQF 040900Z 00000KT 15SM FEW020 BKN080 OVC250 10/09 A2978 RMK SC2AC5CI2 SLP095=

CYQF;2005-06-04 10:00;METAR CYQF 041000Z 00000KT 15SM BKN006 OVC020 10/09 A2978 RMK SF5SC3 SLP096=

CYQF;2005-06-04 10:23;SPECI CYQF 041023Z 00000KT 15SM FEW006 OVC020 RMK SF2SC6=

CYQF;2005-06-04 11:00;METAR CYQF 041100Z 00000KT 8SM FEW006 BKN020 OVC080 10/10 A2978 RMK SF2SC5AC1 BR SLP097=

CYQF;2005-06-04 12:00;METAR CYQF 041200Z 00000KT 8SM OVC020 10/10 A2979 RMK SC8 BR SLP099=

CYQF;2005-06-04 13:00;METAR CYQF 041300Z 00000KT 8SM BKN011 OVC020 11/10 A2980 RMK SF6SC2 BR SLP103=

CYQF;2005-06-04 14:00;METAR CYQF 041400Z 17003KT 8SM FEW006 BKN015 OVC080 12/10 A2981 RMK SF2SC4AC2 SLP105=

CYQF;2005-06-04 15:00;METAR CYQF 041500Z 00000KT 8SM BKN015 OVC080 13/11 A2982 RMK SC6AC2 CU EMBDD SLP106=

CYQF;2005-06-04 16:00;METAR CYQF 041600Z 22004KT 8SM BKN011 14/11 A2981 RMK CU6 TCU SLP105=

CYQF;2005-06-04 17:00;METAR CYQF 041700Z 30006KT 15SM SHRA BKN011TCU OVC080 13/12 A2982 RMK TCU7AC1 VIS NW 4 SLP106=

CYQF;2005-06-04 17:18;SPECI CYQF 041718Z 22004KT 4SM +TSRA BKN011CB OVC080 RMK CB7AC1 LTGCG=

CYQF;2005-06-04 18:00;METAR CYQF 041800Z 00000KT 8SM TS FEW007 OVC015CB 13/12 A2982 RERA RMK SF1CB7 SLP111=

CYQF;2005-06-04 18:10;SPECI CYQF 041810Z 33003KT 10SM -TSRA FEW007 BKN015CB OVC250 RERA RMK SF1CB6CI1=

CYQF;2005-06-04 19:00;METAR CYQF 041900Z 30004KT 10SM -SHRA FEW007 BKN020CB OVC250 12/11 A2982 RETS RMK SF1CB6CI1 SLP111=

CYQF;2005-06-04 19:16;SPECI CYQF 041916Z 28004KT 10SM VCSH FEW007 BKN020CB BKN100 RMK CF1CB6AC1 RETS=

CYQF;2005-06-04 20:00;METAR CYQF 042000Z 00000KT 15SM FEW007 BKN020CB BKN100 BKN250 15/11 A2981 RMK CF1CB4AC2CI0 SLP108=

CYQF;2005-06-04 21:00;METAR CYQF 042100Z 35004KT 15SM BKN030CB BKN100 BKN250 17/10 A2979 RMK CB5AC2CI0 SLP098=

CYQF;2005-06-04 22:00;METAR CYQF 042200Z 00000KT 15SM BKN030TCU BKN100 OVC250 17/10 A2980 RMK TCU6AC2CI1 CB SLP100=

CYQF;2005-06-04 23:00;METAR CYQF 042300Z 06006KT 15SM FC SCT030TCU BKN100 16/10 A2980 RMK TCU4AC3 FUNNEL CLOUD W CB SLP101=

CYQF;2005-06-04 23:13;SPECI CYQF 042313Z 08009KT 15SM SCT030TCU OVC100 REFC RMK TCU4AC4 CB=

CYQF;2005-06-05 00:00;METAR CYQF 050000Z 06008KT 15SM BKN030TCU OVC100 17/11 A2980 REFC RMK TCU6AC2 CB SLP100=

CYQF;2005-06-05 01:00;METAR CYQF 050100Z 08005KT 15SM BKN030TCU BKN100 16/10 A2980 RMK TCU6AC2 SLP100=

CYQF;2005-06-05 02:00;METAR CYQF 050200Z 06007KT 15SM BKN030TCU BKN100 BKN250 14/12 A2980 RMK TCU5AC2CI0 SHS DIST SSE SLP099=

CYQF;2005-06-05 03:00;METAR CYQF 050300Z 08006KT 15SM SCT030TCU BKN090 OVC250 14/10 A2980 RMK TCU4AC2CI1 SLP102=

CYQF;2005-06-05 04:00;METAR CYQF 050400Z 06006KT 15SM BKN030TCU BKN090 OVC250 13/11 A2981 RMK TCU6AC2CI1 SHS DIST E+S SLP103=

CYQF;2005-06-05 05:00;METAR CYQF 050500Z 15004KT 15SM BKN030 BKN090 OVC250 13/10 A2981 RMK SC5AC2CI1 SLP105=

CYQF;2005-06-05 06:00;METAR CYQF 050600Z 10004KT 15SM SCT030 BKN075 OVC250 12/10 A2981 RMK SC3AC4CI1 SLP106=

CYQF;2005-06-05 07:00;METAR CYQF 050700Z 00000KT 15SM FEW030 BKN075 12/11 A2981 RMK SC2AC3 SLP106=

CYQF;2005-06-05 08:00;METAR CYQF 050800Z 00000KT 15SM SCT025 OVC075 12/10 A2981 RMK SC3AC5 SLP106=

CYQF;2005-06-05 09:00;METAR CYQF 050900Z 09005KT 15SM -RA SCT025 OVC075 12/11 A2981 RMK SC3AC5 SLP101=

CYQF;2005-06-05 10:00;METAR CYQF 051000Z 09006KT 15SM SCT012 BKN060 11/11 A2981 RMK SF4AC3 SLP100=

CYQF;2005-06-05 11:25;SPECI CYQF 051125Z 05004KT 8SM BKN007 OVC012 RMK SF7SC1 BR=

CYQF;2005-06-05 14:00;METAR CYQF 051400Z 10005KT 10SM BKN008 OVC012 12/11 A2982 RMK SF7SC1 BR SLP104=

CYQF;2005-06-05 15:00;METAR CYQF 051500Z 08013KT 10SM OVC010 12/10 A2982 RMK SC8 CU EMBD SLP108=

CYQF;2005-06-05 16:00;METAR CYQF 051600Z 10007KT 15SM FEW012 BKN090 BKN250 14/11 A2981 RMK CU2AC3CI0 SLP106=

CYQF;2005-06-05 17:00;METAR CYQF 051700Z 08008KT 15SM BKN020 BKN090 15/10 A2981 RMK CU6AC1 SLP105=

CYQF;2005-06-05 18:00;METAR CYQF 051800Z 11006KT 15SM BKN025 OVC090 15/09 A2981 RMK CU6AC2 SLP102=

CYQF;2005-06-05 19:00;METAR CYQF 051900Z 08012KT 15SM BKN020 OVC090 15/09 A2981 RMK CU7AC1 SLP102=

CYQF;2005-06-05 20:00;METAR CYQF 052000Z 10010KT 15SM SCT020 BKN040 OVC090 15/09 A2981 RMK CU3SC3AC2 SLP102=

CYQF;2005-06-05 21:00;METAR CYQF 052100Z 09009KT 15SM SCT025 BKN040 BKN090 17/09 A2981 RMK CU3SC3AC1 TCU SLP101=

CYQF;2005-06-05 22:00;METAR CYQF 052200Z 08009KT 15SM FEW025 SCT040 BKN090 16/09 A2979 RMK CU2SC2AC2 TCU SLP097=

CYQF;2005-06-05 23:00;METAR CYQF 052300Z 07014KT 15SM BKN025 BKN090 16/09 A2979 RMK CU5AC2 TCU SLP096=

CYQF;2005-06-06 00:00;METAR CYQF 060000Z 06009KT 15SM SCT025 BKN090 17/08 A2978 RMK CU3AC2 SLP092=

CYQF;2005-06-06 01:00;METAR CYQF 060100Z 07010KT 15SM FEW025TCU BKN090 17/06 A2977 RMK TCU2AC2 SLP089=

CYQF;2005-06-06 02:00;METAR CYQF 060200Z 06010G16KT 15SM FEW025 FEW090 16/05 A2977 RMK CU1AC1 SLP088=

CYQF;2005-06-06 03:00;METAR CYQF 060300Z 08008KT 15SM FEW025 FEW090 FEW250 15/05 A2980 RMK CU1AC2CI0 TR CU SLP101=

CYQF;2005-06-06 04:00;METAR CYQF 060400Z 07005KT 15SM FEW030 FEW090 SCT250 13/05 A2981 RMK CU1AC2CI0 SLP104=

CYQF;2005-06-06 05:00;METAR CYQF 060500Z 04005KT 15SM FEW090 SCT250 11/05 A2979 RMK AC2CI0 SLP099=

CYQF;2005-06-06 06:00;METAR CYQF 060600Z 00000KT 15SM FEW090 SCT250 08/04 A2980 RMK AC1CI1 SLP104=

CYQF;2005-06-06 07:00;METAR CYQF 060700Z 00000KT 15SM BKN250 07/04 A2982 RMK CI2 SLP109=

CYQF;2005-06-06 08:00;METAR CYQF 060800Z 31004KT 15SM FEW080 BKN250 08/05 A2980 RMK AC2CI2 SLP103=

CYQF;2005-06-06 09:00;METAR CYQF 060900Z 00000KT 15SM FEW080 BKN250 07/05 A2979 RMK AC2CI3 SLP099=

CYQF;2005-06-06 10:00;METAR CYQF 061000Z 00000KT 15SM FEW090 BKN250 06/05 A2980 RMK AC2CI2 SLP102=

CYQF;2005-06-06 11:00;METAR CYQF 061100Z 00000KT 15SM BKN090 BKN250 07/05 A2979 RMK AC5CI0 SLP101=

CYQF;2005-06-06 12:00;METAR CYQF 061200Z 00000KT 15SM BKN080 05/04 A2979 RMK AC6 SLP101=

CYQF;2005-06-06 13:00;METAR CYQF 061300Z 21003KT 15SM FEW080 BKN250 07/06 A2980 RMK AC2CI2 SLP106=

CYQF;2005-06-06 14:00;METAR CYQF 061400Z 24003KT 15SM BKN070 OVC250 08/07 A2980 RMK AC6CI1 SLP106=

CYQF;2005-06-06 15:00;METAR CYQF 061500Z 28002KT 15SM BKN090 BKN250 11/08 A2979 RMK AC6CI1 SLP100=

CYQF;2005-06-06 16:00;METAR CYQF 061600Z 00000KT 15SM BKN090 12/08 A2980 RMK AC7 SLP102=

CYQF;2005-06-06 17:00;METAR CYQF 061700Z 36005KT 15SM FEW030 FEW090 OVC250 14/07 A2979 RMK CU1AC2CI3 SLP098=

CYQF;2005-06-06 18:00;METAR CYQF 061800Z 04008KT 15SM SCT050 BKN100 OVC250 16/05 A2978 RMK CU3AC2CI1 SLP096=

CYQF;2005-06-06 19:00;METAR CYQF 061900Z 04005KT 15SM BKN050 BKN100 OVC250 16/05 A2977 RMK CU6AC1CI1 SLP093=

CYQF;2005-06-06 20:00;METAR CYQF 062000Z 02013KT 15SM BKN050 OVC100 16/06 A2977 RMK CU7AC1 SLP094=

CYQF;2005-06-06 21:00;METAR CYQF 062100Z 07014KT 15SM OVC030 15/07 A2979 RMK CU8 TCU SLP101=

CYQF;2005-06-06 22:00;METAR CYQF 062200Z 05009KT 15SM BKN030 OVC050 15/08 A2979 RMK CU5SC3 SLP102=

CYQF;2005-06-06 23:00;METAR CYQF 062300Z 07011KT 15SM SCT025 OVC040 14/07 A2981 RMK CU3SC5 SLP108=

CYQF;2005-06-07 00:00;METAR CYQF 070000Z 07012KT 15SM SCT025 BKN040 OVC080 13/08 A2982 RMK CU3SC3AC2 SLP118=

CYQF;2005-06-07 00:06;SPECI CYQF 070006Z 09008KT 15SM -SHRA SCT025 BKN040 OVC080 RMK CU4SC2AC2=

CYQF;2005-06-07 01:00;METAR CYQF 070100Z 04002KT 15SM FEW020 BKN035 OVC080 13/09 A2984 RMK SC2CU5AC2 SHS N-NE SLP122=

CYQF;2005-06-07 03:00;METAR CYQF 070300Z 06012KT 15SM FEW015 BKN032 OVC090 12/07 A2985 RMK SC2SC5AC2 SHS DIST NW SLP120=

CYQF;2005-06-07 04:00;METAR CYQF 070400Z 04008KT 15SM FEW015 BKN030 OVC090 12/08 A2986 RMK SC2SC5AC2 SHS DIST NW SLP126=

CYQF;2005-06-07 05:00;METAR CYQF 070500Z 03005KT 15SM SCT030 BKN070 11/07 A2986 RMK SC4AC3 SLP126=

CYQF;2005-06-07 06:00;METAR CYQF 070600Z 01008KT 15SM SCT025 BKN070 11/07 A2984 RMK SC4AC3 SLP114=

CYQF;2005-06-07 07:00;METAR CYQF 070700Z 06008KT 15SM SCT025 OVC070 11/08 A2985 RMK SC3AC4 SLP118=

CYQF;2005-06-07 07:31;SPECI CYQF 070731Z 04007KT 15SM -RA SCT025 OVC070 RMK SC3AC5=

CYQF;2005-06-07 08:00;METAR CYQF 070800Z 04005KT 15SM -RA BKN015 OVC070 10/08 A2985 RMK SC5AC3 SLP118=

CYQF;2005-06-07 09:00;METAR CYQF 070900Z 02006KT 10SM -RA OVC010 09/08 A2984 RMK SC8 SLP116=

CYQF;2005-06-07 10:00;METAR CYQF 071000Z 02005KT 10SM -RA OVC010 09/08 A2982 RMK SF8 SLP111=

CYQF;2005-06-07 10:49;SPECI CYQF 071049Z 36007KT 6SM -RA BR BKN008 OVC015 RMK SF5SC3=

CYQF;2005-06-07 11:00;METAR CYQF 071100Z 01007KT 6SM -RA BR BKN008 OVC015 09/08 A2981 RMK SF6SC2 SLP108=

CYQF;2005-06-07 11:43;SPECI CYQF 071143Z 36010KT 3SM -RA BR BKN005 OVC012 RMK SF6SC2=

CYQF;2005-06-07 12:00;METAR CYQF 071200Z 01010KT 3SM -RA BR BKN005 OVC012 09/09 A2981 RMK SF6SC2 SLP110=

CYQF;2005-06-07 12:27;SPECI CYQF 071227Z 02010KT 2SM -RA BR BKN005 OVC012 RMK SF6SC2=

CYQF;2005-06-07 13:00;METAR CYQF 071300Z 04010G15KT 3SM -RA BR BKN005 OVC012 09/09 A2982 RMK SF6SC2 SLP112=

CYQF;2005-06-07 13:48;SPECI CYQF 071348Z 03010KT 1 1/2SM -RA BR OVC005 RMK SF8=

CYQF;2005-06-07 14:00;METAR CYQF 071400Z 02010KT 1 1/2SM -RA BR OVC005 09/09 A2982 RMK SF8 SLP111=

CYQF;2005-06-07 15:00;METAR CYQF 071500Z 03010KT 12SM -RA OVC006 09/09 A2981 RMK SF8 SLP110=

CYQF;2005-06-07 15:51;SPECI CYQF 071551Z 03012KT 15SM BKN006 OVC015 RMK SF6SC2 CIG RAG=

CYQF;2005-06-07 16:00;METAR CYQF 071600Z 03012KT 15SM BKN006 OVC015 10/08 A2981 RMK SF6SC2 CIG RAG SHS DIST W SLP108=

CYQF;2005-06-07 16:15;SPECI CYQF 071615Z 03011KT 8SM -DZ BKN006 OVC015 RMK SF6SC2 CIG RAG=

CYQF;2005-06-07 17:00;METAR CYQF 071700Z 02010KT 15SM SCT006 OVC015 10/08 A2979 RMK SF3SC5 SLP104=

CYQF;2005-06-07 17:39;SPECI CYQF 071739Z 05014KT 15SM VCSH SCT004 OVC012 RMK SF3SC5 SHS N VIS 4=

CYQF;2005-06-07 18:18;SPECI CYQF 071818Z 03012KT 15SM BKN007 OVC011 RMK SF6SC2 SHS DIST SW=

CYQF;2005-06-07 18:48;SPECI CYQF 071848Z 04012G20KT 10SM -SHRA BKN007 OVC011 RMK SF6SC2 CIG RAG=

CYQF;2005-06-07 19:00;METAR CYQF 071900Z 05011G20KT 10SM -SHRA BKN007 OVC040 10/08 A2981 RMK SF6SC2 CIG RAG SLP109=

CYQF;2005-06-07 19:34;SPECI CYQF 071934Z 04013KT 4SM -RA BR FEW005 OVC008 RMK SF2SF6 VIS N 11/2=

CYQF;2005-06-07 20:00;METAR CYQF 072000Z 03012KT 3SM -RA BR OVC006 09/08 A2982 RMK SF8 CIG RAG SLP112=

CYQF;2005-06-07 21:00;METAR CYQF 072100Z 07013KT 6SM -RA BR OVC007 09/08 A2983 RMK SF8 CIG RAG SLP120=

CYQF;2005-06-07 22:00;METAR CYQF 072200Z 06010G15KT 6SM -RA BR OVC007 09/08 A2983 RMK SF8 CIG RAG SLP120=

CYQF;2005-06-07 23:00;METAR CYQF 072300Z 05010G17KT 10SM -RA SCT004 OVC009 09/08 A2984 RMK SF3SF5 CIG RAG SLP122=

CYQF;2005-06-08 00:00;METAR CYQF 080000Z 03010KT 15SM -RA FEW004 SCT012 OVC030 09/08 A2983 RMK SF2SC2SC4 SLP121=

CYQF;2005-06-08 00:28;SPECI CYQF 080028Z 04009KT 12SM -RA BKN008 OVC021 RMK SF6SC2=

CYQF;2005-06-08 01:00;METAR CYQF 080100Z 01009KT 15SM -RA FEW008 OVC021 09/08 A2983 RMK SF2SC6 SLP121=

CYQF;2005-06-08 02:00;METAR CYQF 080200Z 03013KT 2 1/2SM -RA BR BKN008 OVC021 09/08 A2984 RMK SF6SC2 SLP122=

CYQF;2005-06-08 02:33;SPECI CYQF 080233Z 04013KT 1 1/2SM -RA BR BKN005 OVC020 RMK SF7SC1=

CYQF;2005-06-08 03:00;METAR CYQF 080300Z 07009KT 4SM -RA BR SCT005 OVC010 07/07 A2984 RMK SF2SC6 SLP126=

CYQF;2005-06-08 04:00;METAR CYQF 080400Z 06005KT 4SM -RA BR BKN007 OVC015 07/07 A2985 RMK SF3SC5 SLP129=

CYQF;2005-06-08 04:35;SPECI CYQF 080435Z 06007KT 2 1/2SM -DZ BR OVC006 RMK ST8=

CYQF;2005-06-08 05:00;METAR CYQF 080500Z 08006KT 2 1/2SM -DZ BR OVC006 07/07 A2986 RMK ST8 SLP131=

CYQF;2005-06-08 06:00;METAR CYQF 080600Z 06004KT 4SM -DZ BR OVC006 07/07 A2986 RMK ST8 VIS S 15 SLP133=

CYQF;2005-06-08 07:00;METAR CYQF 080700Z 00000KT 10SM -DZ FEW006 OVC010 07/06 A2987 RMK SF2ST6 SLP135=

CYQF;2005-06-08 08:00;METAR CYQF 080800Z 04004KT 15SM -DZ BKN006 OVC010 07/06 A2987 RMK SF5ST3 SLP135=

CYQF;2005-06-08 09:00;METAR CYQF 080900Z 04003KT 15SM OVC006 07/07 A2986 RMK SF8 VIS LWR N SLP134=

CYQF;2005-06-08 10:00;METAR CYQF 081000Z 06004KT 15SM -DZ OVC006 07/06 A2985 RMK SF8 SLP131=

CYQF;2005-06-08 11:00;METAR CYQF 081100Z 01003KT 8SM -DZ OVC006 07/07 A2984 RMK SF8 BR SLP127=

CYQF;2005-06-08 12:00;METAR CYQF 081200Z 00000KT 3SM -DZ BR OVC006 07/06 A2985 RMK SF8 SLP129=

CYQF;2005-06-08 12:20;SPECI CYQF 081220Z 00000KT 4SM BR SCT007 OVC012 RMK SF3ST5=

CYQF;2005-06-08 14:00;METAR CYQF 081400Z 36005KT 6SM BR SCT007 OVC011 08/07 A2985 RMK SF4SC4 SLP128=

CYQF;2005-06-08 15:00;METAR CYQF 081500Z 03005KT 10SM FEW006 OVC011 08/07 A2985 RMK SF2SC6 CIG RAG VIS N 4 SLP130=

CYQF;2005-06-08 16:00;METAR CYQF 081600Z 04004KT 12SM FEW006 OVC011 09/07 A2986 RMK SF2SC6 CIG RAG SLP133=

CYQF;2005-06-08 17:00;METAR CYQF 081700Z 03002KT 15SM FEW006 OVC011 07/07 A2986 RMK SF2SC6 CIG RAG SLP132=

CYQF;2005-06-08 18:00;METAR CYQF 081800Z 09004KT 12SM FEW006 OVC011 09/07 A2985 RMK SF2SC6 CIG RAG SLP130=

CYQF;2005-06-08 19:00;METAR CYQF 081900Z 00000KT 12SM FEW006 BKN011 OVC020 10/07 A2985 RMK SF2SC5SC2 SHS DIST W CIG RAG SLP131=

CYQF;2005-06-08 20:00;METAR CYQF 082000Z 09003KT 12SM FEW006 BKN012 OVC020 11/08 A2985 RMK SF1SC6SC2 SLP129=

CYQF;2005-06-08 21:00;METAR CYQF 082100Z 29002KT 15SM FEW012 BKN020 OVC050 12/08 A2985 RMK SC2CU6SC1 SLP125=

CYQF;2005-06-08 22:00;METAR CYQF 082200Z 33006KT 15SM BKN020 BKN080 13/08 A2984 RMK CU6AC1 SLP122=

CYQF;2005-06-08 23:00;METAR CYQF 082300Z 07003KT 15SM BKN030 BKN080 13/08 A2983 RMK CU5AC2 TCU EMBD SHS DIST E-NE SLP121=

CYQF;2005-06-09 00:00;METAR CYQF 090000Z 09002KT 15SM BKN030 BKN090 13/08 A2983 RMK CU5AC2 SHS=

CYQF;2005-06-09 01:00;METAR CYQF 090100Z 00000KT 15SM FEW025 SCT090 OVC250 14/08 A2981 RMK CU2AC2CI3 SLP113=

CYQF;2005-06-09 02:00;METAR CYQF 090200Z 06003KT 15SM FEW025 FEW090 OVC250 13/08 A2981 RMK CU1AC2CI3 SLP113=

CYQF;2005-06-09 03:00;METAR CYQF 090300Z 10002KT 15SM FEW100 OVC250 12/08 A2982 RMK AC1CI3 SLP114=

CYQF;2005-06-09 04:00;METAR CYQF 090400Z 00000KT 15SM OVC250 11/09 A2982 RMK CI4 SLP114=

CYQF;2005-06-09 05:00;METAR CYQF 090500Z 00000KT 15SM BKN250 10/08 A2982 RMK CI2 SLP115=

CYQF;2005-06-09 06:00;METAR CYQF 090600Z 00000KT 15SM BKN250 08/07 A2981 RMK CI3 SLP115=

CYQF;2005-06-09 07:00;METAR CYQF 090700Z 00000KT 15SM BKN250 08/08 A2981 RMK CI3 SLP114=

CYQF;2005-06-09 08:00;METAR CYQF 090800Z 00000KT 15SM BKN100 BKN250 07/06 A2980 RMK AC5CI2 SLP112=

CYQF;2005-06-09 09:00;METAR CYQF 090900Z 00000KT 15SM BKN100 OVC250 07/07 A2979 RMK AC6CI2 SLP107=

CYQF;2005-06-09 10:00;METAR CYQF 091000Z 00000KT 15SM OVC100 08/07 A2980 RMK AC8 SLP110=

CYQF;2005-06-09 11:00;METAR CYQF 091100Z 00000KT 5SM BR OVC100 08/07 A2980 RMK AC8 SLP109=

CYQF;2005-06-09 12:00;METAR CYQF 091200Z 00000KT 4SM BR OVC100 07/07 A2981 RMK AC8 SLP110=

CYQF;2005-06-09 13:00;METAR CYQF 091300Z 00000KT 4SM BR OVC090 08/08 A2982 RMK AC8 SLP113=

CYQF;2005-06-09 14:00;METAR CYQF 091400Z 00000KT 4SM BR OVC090 09/09 A2982 RMK AC8 SLP114=

CYQF;2005-06-09 15:00;METAR CYQF 091500Z 00000KT 5SM BR BKN090 11/10 A2983 RMK AC7 SLP113=

CYQF;2005-06-09 16:00;METAR CYQF 091600Z 00000KT 10SM FEW013 BKN090 OVC250 12/09 A2983 RMK SC2AC4CI1 SLP114=

CYQF;2005-06-09 18:00;METAR CYQF 091800Z 02006KT 15SM SCT024 SCT090 BKN250 15/08 A2983 RMK CU3AC1CI2 SLP115=

CYQF;2005-06-09 19:00;METAR CYQF 091900Z 34003KT 15SM BKN032 BKN250 16/08 A2983 RMK CU5CI1 SLP114=

CYQF;2005-06-09 20:00;METAR CYQF 092000Z 34006KT 15SM BKN040 BKN250 17/06 A2982 RMK CU5CI1 FEW TCU SLP112=

CYQF;2005-06-09 21:00;METAR CYQF 092100Z 13002KT 15SM SCT040 BKN090 BKN250 17/07 A2980 RMK CU3AC2CI1 FEW TCU SLP104=

CYQF;2005-06-09 22:00;METAR CYQF 092200Z 12002KT 15SM SCT040 BKN090 BKN250 18/07 A2979 RMK CU3AC2CI0 TCU ASOCTD SHS DIST NE SLP101=

CYQF;2005-06-09 23:00;METAR CYQF 092300Z 00000KT 15SM FEW040 BKN080 BKN250 17/07 A2979 RMK CU2AC3CI2 TCU SHS E SLP100=

CYQF;2005-06-10 00:00;METAR CYQF 100000Z 13006KT 15SM SCT040 BKN090 BKN250 16/08 A2978 RMK CU3AC2CI1 TCU SHS SW SLP099=

CYQF;2005-06-10 01:00;METAR CYQF 100100Z 19004KT 15SM FEW040 SCT090 BKN250 17/09 A2977 RMK CU1AC4CI2 SLP095=

CYQF;2005-06-10 02:00;METAR CYQF 100200Z 19004KT 15SM FEW040TCU SCT090 BKN250 17/09 A2977 RMK TCU1AC3CI1 SLP094=

CYQF;2005-06-10 03:00;METAR CYQF 100300Z 22002KT 15SM SCT030CB BKN090 BKN250 15/10 A2976 RMK CB3AC2CI1 SLP088=

CYQF;2005-06-10 03:25;SPECI CYQF 100325Z 03014G19KT 15SM BKN030CB BKN090 OVC250 RMK CB6AC2CI1 SH NW-E=

CYQF;2005-06-10 04:00;METAR CYQF 100400Z 08005KT 15SM BKN030CB BKN090 OVC250 14/08 A2977 RMK CB5AC2CI1 SH E SLP091=

CYQF;2005-06-10 05:00;METAR CYQF 100500Z 02013KT 15SM SCT050 BKN090 OVC250 14/07 A2978 RMK CU3AC4CI1 SLP094=

CYQF;2005-06-10 05:45;SPECI CYQF 100545Z 04010KT 15SM -RA FEW006 BKN050 OVC090 RMK SF1SC6AC1=

CYQF;2005-06-10 06:00;METAR CYQF 100600Z 04011KT 15SM -RA FEW006 BKN050 OVC090 12/10 A2978 RMK SF1SC6AC1 VIS LWR N SLP093=

CYQF;2005-06-10 07:00;METAR CYQF 100700Z 19004KT 15SM -RA OVC060 11/10 A2975 RMK SC8 SLP084=

CYQF;2005-06-10 08:00;METAR CYQF 100800Z 25005KT 15SM SCT060 OVC100 11/10 A2973 RMK SC4AC4 SLP078=

CYQF;2005-06-10 09:00;METAR CYQF 100900Z 00000KT 15SM FEW060 BKN100 11/09 A2974 RMK SC2AC2 SLP078=

CYQF;2005-06-10 10:00;METAR CYQF 101000Z 00000KT 15SM FEW060 SCT100 BKN250 09/08 A2973 RMK SC1AC2CI1 SLP075=

CYQF;2005-06-10 11:00;METAR CYQF 101100Z 00000KT 15SM FEW060 BKN100 10/09 A2973 RMK SC1AC5 SLP075=

CYQF;2005-06-10 12:00;METAR CYQF 101200Z 00000KT 15SM BKN100 09/09 A2974 RMK AC6 SLP080=

CYQF;2005-06-10 13:00;METAR CYQF 101300Z 00000KT 15SM BKN100 10/09 A2973 RMK AC7 SLP079=

CYQF;2005-06-10 14:00;METAR CYQF 101400Z 00000KT 10SM BKN100 BKN250 13/10 A2974 RMK AC6CI1 BR SLP080=

CYQF;2005-06-10 15:00;METAR CYQF 101500Z 31002KT 10SM FEW100 SCT250 14/10 A2974 RMK AC2CI1 BR SLP076=

CYQF;2005-06-10 16:00;METAR CYQF 101600Z 00000KT 10SM FEW020 SCT250 16/11 A2974 RMK CF1CC2 HZ SLP076=

CYQF;2005-06-10 17:00;METAR CYQF 101700Z 01003KT 10SM FEW025 SCT100 BKN250 17/12 A2973 RMK CU1AC3CC2 HZ SLP074=

CYQF;2005-06-10 18:00;METAR CYQF 101800Z 33003KT 15SM FEW035 SCT100 BKN250 18/10 A2972 RMK CU1AC3CI2 HZ SLP070=

CYQF;2005-06-10 19:00;METAR CYQF 101900Z 36005KT 15SM FEW040 FEW100 BKN250 19/08 A2971 RMK CU1AC2CI1 TCU ASOCT HZ SLP065=

CYQF;2005-06-10 20:00;METAR CYQF 102000Z 11004KT 15SM SCT045 BKN250 19/09 A2969 RMK CU3CI2 TCU ASOCT SLP061=

CYQF;2005-06-10 21:00;METAR CYQF 102100Z 21005KT 15SM BKN050TCU BKN250 21/09 A2969 RMK TCU5CI0 SHS DIST W-NW SLP056=

CYQF;2005-06-10 21:28;SPECI CYQF 102128Z 29015G25KT 15SM BKN050TCU RMK TCU6 WND SHFT 2125Z SHS S-N=

CYQF;2005-06-10 22:00;METAR CYQF 102200Z 28015G25KT 15SM BKN050TCU BKN250 18/09 A2970 RMK TCU6CI1 SHS ALQDS SLP059=

CYQF;2005-06-10 23:00;METAR CYQF 102300Z 33010G15KT 15SM BKN050TCU BKN100 BKN250 17/08 A2970 RMK TCU6AC1CI1 SHS DIST NW-SE SLP061=

CYQF;2005-06-11 00:00;METAR CYQF 110000Z 03005KT 15SM SCT050TCU BKN100 BKN250 18/09 A2970 RMK TCU4AC1CI1 SHS DIST N-E SLP066=

CYQF;2005-06-11 01:00;METAR CYQF 110100Z 30004KT 15SM FEW050TCU SCT100 BKN250 18/09 A2970 RMK TCU2AC2CI2 SHS DIST N-E SLP066=

CYQF;2005-06-11 02:00;METAR CYQF 110200Z 04014KT 15SM FEW040 SCT100 BKN250 16/09 A2973 RMK CU2AC2CI2 SHS DIST E-SE SLP076=

CYQF;2005-06-11 03:00;METAR CYQF 110300Z 07010KT 15SM FEW040 SCT100 BKN250 14/09 A2975 RMK CU2AC2CI2 SLP081=

CYQF;2005-06-11 04:00;METAR CYQF 110400Z 09004KT 15SM FEW050 BKN080 BKN100 BKN250 13/09 A2975 RMK SC2AC3AC2CI1 SLP081=

CYQF;2005-06-11 05:00;METAR CYQF 110500Z 00000KT 15SM SCT100 BKN250 12/09 A2975 RMK AC3CI2 SLP083=

CYQF;2005-06-11 06:00;METAR CYQF 110600Z 00000KT 15SM SCT100 BKN250 10/09 A2975 RMK AC3CI2 SLP081=

CYQF;2005-06-11 07:00;METAR CYQF 110700Z 25003KT 15SM BKN100 BKN250 10/09 A2974 RMK AC5CI2 SLP079=

CYQF;2005-06-11 08:00;METAR CYQF 110800Z 27005KT 15SM BKN090 BKN250 10/09 A2974 RMK AC5CI2 SLP077=

CYQF;2005-06-11 09:00;METAR CYQF 110900Z 27004KT 15SM BKN090 BKN250 11/09 A2974 RMK AC5CI1 SLP073=

CYQF;2005-06-11 10:00;METAR CYQF 111000Z 27003KT 15SM FEW090 BKN250 10/08 A2973 RMK AC2CI2 SLP072=

CYQF;2005-06-11 11:00;METAR CYQF 111100Z 28004KT 15SM SCT100 BKN250 08/07 A2973 RMK AC3CI2 SLP071=

CYQF;2005-06-11 12:00;METAR CYQF 111200Z 29002KT 15SM BKN100 BKN250 09/08 A2973 RMK AC6CI0 SLP074=

CYQF;2005-06-11 13:00;METAR CYQF 111300Z 00000KT 15SM BKN100 BKN250 11/10 A2973 RMK AC6CI0 SLP076=

CYQF;2005-06-11 14:00;METAR CYQF 111400Z 00000KT 15SM BKN090 OVC250 12/10 A2974 RMK AC6CI1 SLP077=

CYQF;2005-06-11 14:26;SPECI CYQF 111426Z 00000KT 15SM -SHRA FEW010 BKN090 OVC250 RMK SF2AC5CI1=

CYQF;2005-06-11 15:00;METAR CYQF 111500Z 00000KT 15SM FEW010 BKN090 OVC250 12/10 A2973 RMK CF2AC4CI1 SLP078=

CYQF;2005-06-11 16:00;METAR CYQF 111600Z 00000KT 15SM FEW015 BKN090 BKN250 13/10 A2973 RMK CF2AC2CI1 SLP078=

CYQF;2005-06-11 17:00;METAR CYQF 111700Z 20002KT 15SM FEW015 BKN090 BKN250 14/10 A2973 RMK CU2AC2CI1 SLP077=

CYQF;2005-06-11 18:00;METAR CYQF 111800Z 00000KT 15SM VCSH SCT020 BKN100 OVC250 15/11 A2973 RMK CU3AC2CI1 TCU NW SLP076=

CYQF;2005-06-11 19:00;METAR CYQF 111900Z 13003KT 15SM SCT025 BKN100 BKN250 17/10 A2971 RMK CU4AC2CI0 TCU EMBD SLP071=

CYQF;2005-06-11 20:00;METAR CYQF 112000Z 15007KT 15SM VCSH BKN030TCU OVC100 17/10 A2970 RMK TCU5AC2 SLP067=

CYQF;2005-06-11 21:00;METAR CYQF 112100Z 16010KT 15SM SCT030TCU BKN100 OVC250 18/10 A2969 RMK TCU4AC2CI0 SLP060=

CYQF;2005-06-11 22:00;METAR CYQF 112200Z 21005KT 15SM BKN035TCU BKN100 OVC250 18/08 A2968 RMK TCU5AC1CI0 SLP059=

CYQF;2005-06-11 23:00;METAR CYQF 112300Z 22012G20KT 15SM VCSH BKN040CB BKN100 OVC250 18/08 A2968 RMK CB5AC1CI0 SLP057=

CYQF;2005-06-12 00:00;METAR CYQF 120000Z 29007KT 15SM SCT040TCU SCT100 OVC250 15/10 A2967 RMK TCU3AC1CI2 SLP059=

CYQF;2005-06-12 01:00;METAR CYQF 120100Z 34005KT 15SM SCT040TCU SCT100 BKN250 15/09 A2968 RMK TCU3AC1CI2 SHS DIST NW+N SLP062=

CYQF;2005-06-12 02:00;METAR CYQF 120200Z 01007KT 15SM SCT040TCU SCT100 BKN250 14/09 A2969 RMK TCU3AC1CI2 SHS DIST N QUAD SLP064=

CYQF;2005-06-12 03:00;METAR CYQF 120300Z 00000KT 15SM SCT040TCU SCT100 BKN250 13/10 A2970 RMK TCU3AC1CI2 SHS DIST N SLP067=

CYQF;2005-06-12 04:00;METAR CYQF 120400Z 35003KT 15SM SCT050 BKN100 OVC250 12/10 A2972 RMK CU4AC2CI2 FEW TCU SHS DIST W+N SLP072=

CYQF;2005-06-12 05:00;METAR CYQF 120500Z 33006KT 15SM FEW040 BKN080 OVC250 12/10 A2973 RMK CU2AC4CI2 SLP077=

CYQF;2005-06-12 06:00;METAR CYQF 120600Z 35004KT 15SM FEW012 BKN070 OVC250 12/10 A2974 RMK SC2AC6CI1 SLP079=

CYQF;2005-06-12 07:00;METAR CYQF 120700Z 31004KT 15SM FEW012 BKN070 BKN250 11/09 A2974 RMK SC2AC4CI1 SLP078=

CYQF;2005-06-12 08:00;METAR CYQF 120800Z 32003KT 15SM FEW012 BKN075 OVC250 10/09 A2974 RMK SC2AC6CI0 SLP078=

CYQF;2005-06-12 09:00;METAR CYQF 120900Z 30003KT 15SM SCT014 BKN075 OVC250 10/09 A2974 RMK SC4AC3CI0 SLP078=

CYQF;2005-06-12 10:00;METAR CYQF 121000Z 33005KT 15SM BKN016 OVC075 11/09 A2974 RMK SC6AC2 SLP079=

CYQF;2005-06-12 11:00;METAR CYQF 121100Z 34005KT 15SM OVC016 10/09 A2975 RMK SC8 SLP082=

CYQF;2005-06-12 12:00;METAR CYQF 121200Z 33003KT 15SM BKN016 OVC075 10/09 A2976 RMK SC7AC1 SLP089=

CYQF;2005-06-12 13:00;METAR CYQF 121300Z 34003KT 12SM SCT008 BKN014 OVC070 11/09 A2978 RMK CF3SC4AC1 M8 SCT BR SLP094=

CYQF;2005-06-12 14:00;METAR CYQF 121400Z 35006KT 15SM BKN007 OVC014 11/09 A2980 RMK CF6SC2 SLP100=

CYQF;2005-06-12 14:34;SPECI CYQF 121434Z 35008KT 12SM SCT007 BKN020 OVC070 RMK CF4SC2AC1 SHWRS N=

CYQF;2005-06-12 15:00;METAR CYQF 121500Z 36008KT 12SM SCT007 BKN020 BKN070 12/09 A2982 RMK CF4SC2AC1 SLP108=

CYQF;2005-06-12 15:28;SPECI CYQF 121528Z 36010G15KT 12SM BKN008 BKN025 OVC070 RMK SF6SC1AC1=

CYQF;2005-06-12 16:00;METAR CYQF 121600Z 33012KT 15SM BKN009 BKN025 13/10 A2983 RMK SF6SC2 SLP112=

CYQF;2005-06-12 16:41;SPECI CYQF 121641Z 35010G15KT 15SM OVC010 RMK SF8=

CYQF;2005-06-12 17:00;METAR CYQF 121700Z 34010KT 15SM OVC012 11/08 A2985 RMK SC8 SLP119=

CYQF;2005-06-12 18:00;METAR CYQF 121800Z 33005KT 15SM OVC013 11/08 A2987 RMK SC8 SLP130=

CYQF;2005-06-12 19:00;METAR CYQF 121900Z 34010KT 15SM OVC015 11/08 A2988 RMK SC8 SLP133=

CYQF;2005-06-12 20:00;METAR CYQF 122000Z 33010KT 15SM OVC017 11/08 A2989 RMK SC8 SLP135=

CYQF;2005-06-12 21:00;METAR CYQF 122100Z 35008KT 15SM OVC020 12/08 A2990 RMK SC8 SLP141=

CYQF;2005-06-12 22:00;METAR CYQF 122200Z 33010KT 15SM BKN015 OVC030 12/08 A2991 RMK SC5SC3 SLP144=

CYQF;2005-06-12 23:00;METAR CYQF 122300Z 33010KT 15SM OVC020 12/08 A2992 RMK SC8 SLP146=

CYQF;2005-06-13 00:00;METAR CYQF 130000Z 35008KT 15SM OVC020 12/08 A2993 RMK SC8 SLP150=

CYQF;2005-06-13 01:00;METAR CYQF 130100Z 35011KT 15SM BKN020 OVC090 11/07 A2994 RMK SC7AC1 SLP154=

CYQF;2005-06-13 02:00;METAR CYQF 130200Z 36010KT 15SM BKN020 OVC090 11/07 A2996 RMK SC7AC1 SLP161=

CYQF;2005-06-13 03:00;METAR CYQF 130300Z 36005KT 15SM BKN020 OVC090 11/07 A2998 RMK SC7AC1 SLP167=

CYQF;2005-06-13 04:00;METAR CYQF 130400Z 01005KT 15SM OVC020 10/07 A2997 RMK SC8 SLP164=

CYQF;2005-06-13 05:00;METAR CYQF 130500Z 34002KT 15SM OVC020 10/07 A2996 RMK SC8 SLP161=

CYQF;2005-06-13 06:00;METAR CYQF 130600Z 36004KT 15SM OVC020 10/07 A2996 RMK SC8 SLP162=

CYQF;2005-06-13 07:00;METAR CYQF 130700Z 01002KT 15SM OVC020 10/07 A2996 RMK SC8 SLP164=

CYQF;2005-06-13 07:47;SPECI CYQF 130747Z 00000KT 15SM -SHRA OVC020 RMK SC8=

CYQF;2005-06-13 08:00;METAR CYQF 130800Z 00000KT 15SM -SHRA SCT006 OVC020 10/08 A2996 RMK SF3SC5 SLP163=

CYQF;2005-06-13 09:00;METAR CYQF 130900Z 02003KT 5SM -RA FEW005 OVC016 09/08 A2996 RMK SF2SC6 SLP162=

CYQF;2005-06-13 10:00;METAR CYQF 131000Z 00000KT 5SM -RA FEW006 OVC025 09/08 A2995 RMK SF2SC6 SLP160=

CYQF;2005-06-13 11:00;METAR CYQF 131100Z 00000KT 3SM -RA FEW006 OVC020 09/08 A2995 RMK SF2SC6 SLP158=

CYQF;2005-06-13 12:00;METAR CYQF 131200Z 00000KT 3SM -RA FEW006 OVC020 08/08 A2994 RMK SF1SC7 SLP157=

CYQF;2005-06-13 13:00;METAR CYQF 131300Z 00000KT 6SM -RA FEW006 OVC010 09/08 A2994 RMK SF2SC6 BR CIG RAG SLP156=

CYQF;2005-06-13 14:00;METAR CYQF 131400Z 17002KT 8SM -RA SCT004 OVC011 09/08 A2993 RMK SF3SC5 BR CIG RAG SLP154=

CYQF;2005-06-13 15:00;METAR CYQF 131500Z 00000KT 10SM -RA FEW005 OVC010 09/08 A2992 RMK SF2SC6 BR CIG RAG SLP148=

CYQF;2005-06-13 15:44;SPECI CYQF 131544Z 27005KT 10SM -RA BKN008 OVC015 RMK SF6SC2=

CYQF;2005-06-13 16:00;METAR CYQF 131600Z 27003KT 12SM -RA FEW005 BKN008 OVC015 10/08 A2991 RMK SF2SF4SC1 SLP147=

CYQF;2005-06-13 16:12;SPECI CYQF 131612Z 25003KT 15SM BKN007 BKN100 RMK SF5AC2=

CYQF;2005-06-13 16:47;SPECI CYQF 131647Z 21005KT 15SM BKN010 BKN100 RMK SF6AC2=

CYQF;2005-06-13 17:00;METAR CYQF 131700Z 19005KT 15SM FEW007 BKN011 BKN100 12/09 A2990 RMK SF2SC5AC1 SLP144=

CYQF;2005-06-13 17:37;SPECI CYQF 131737Z 16003KT 15SM BKN015 BKN120 BKN250 RMK CF6AC1CI0=

CYQF;2005-06-13 18:00;METAR CYQF 131800Z 16005KT 15SM BKN016 BKN120 13/09 A2989 RMK CF6AC1 SLP135=

CYQF;2005-06-13 19:00;METAR CYQF 131900Z 17005KT 15SM BKN020 14/08 A2987 RMK CU7 SLP131=

CYQF;2005-06-13 20:00;METAR CYQF 132000Z 15003KT 15SM BKN025 16/09 A2985 RMK CU5 SLP123=

CYQF;2005-06-13 21:00;METAR CYQF 132100Z 20002KT 15SM BKN035TCU 18/08 A2984 RMK TCU6 SHWRS=

CYQF;2005-06-13 21:41;SPECI CYQF 132141Z 24010G15KT 15SM -SHRA BKN035CB RMK CB7 HVYR SHWRS SE + NW=

CYQF;2005-06-13 22:00;METAR CYQF 132200Z 21010KT 15SM -SHRA BKN035CB BKN100 12/09 A2985 RMK CB6AC2 HVYR SHWRS SE + NW SLP119=

CYQF;2005-06-13 22:16;SPECI CYQF 132216Z 14005KT 15SM SCT040CB BKN080 RMK CB4AC2 SHWRS N-SE=

CYQF;2005-06-13 23:00;METAR CYQF 132300Z 14005KT 15SM FEW020 SCT050CB BKN080 14/09 A2984 RMK SF2CB2AC2 SHWRS NE SLP113=

CYQF;2005-06-14 00:00;METAR CYQF 140000Z 05003KT 15SM FEW040TCU SCT090 BKN250 15/08 A2984 RMK TCU2AC2CI2 SHWRS W SLP118=

CYQF;2005-06-14 00:32;SPECI CYQF 140032Z 29015G25KT 15SM BKN035CB BKN090 BKN250 RMK CB5AC2CI1 HVY SHS SW-NW WND SHFT 0032=

CYQF;2005-06-14 01:00;METAR CYQF 140100Z 27013KT 15SM -SHRA BKN035TCU BKN090 11/06 A2987 RMK TCU6AC2 HVYR SHS DIST N+W SLP126=

CYQF;2005-06-14 02:00;METAR CYQF 140200Z 23012KT 15SM -SHRA FEW025 BKN040TCU BKN090 10/07 A2987 RMK SC1TCU6AC2 HVYR SHS SE SLP128=

CYQF;2005-06-14 02:50;SPECI CYQF 140250Z 13005KT 15SM BKN040TCU BKN090 RMK TCU6AC1 SHS S-E=

CYQF;2005-06-14 03:00;METAR CYQF 140300Z 06006KT 15SM -SHRA BKN040TCU BKN090 10/07 A2985 RMK TCU5AC2 HVYR SHS SE-E SLP127=

CYQF;2005-06-14 03:38;SPECI CYQF 140338Z 26006KT 15SM BKN040TCU BKN090 RMK TCU5AC2 SHS DIST=

CYQF;2005-06-14 04:00;METAR CYQF 140400Z 27002KT 15SM FEW025 BKN040TCU BKN090 10/08 A2987 RMK SC1TCU5AC2 SHS DIST E SLP133=

CYQF;2005-06-14 05:00;METAR CYQF 140500Z 00000KT 15SM SCT040 BKN090 10/01 A2986 RMK SC3AC3 SHS=

CYQF;2005-06-14 06:00;METAR CYQF 140600Z 29006KT 15SM FEW040 BKN090 BKN250 09/08 A2988 RMK SC2AC3CI2 SLP133=

CYQF;2005-06-14 07:00;METAR CYQF 140700Z 31004KT 15SM BKN100 09/08 A2989 RMK AC6 SLP136=

CYQF;2005-06-14 08:00;METAR CYQF 140800Z 31004KT 15SM SCT100 09/08 A2989 RMK AC3 SLP137=

CYQF;2005-06-14 09:00;METAR CYQF 140900Z 20006KT 15SM SCT100 07/07 A2989 RMK AC4 SLP135=

CYQF;2005-06-14 10:00;METAR CYQF 141000Z 00000KT 15SM FEW040 SCT100 07/06 A2989 RMK SC2AC2 SLP135=

CYQF;2005-06-14 11:00;METAR CYQF 141100Z 25003KT 15SM FEW090 06/06 A2991 RMK AC2 SLP139=

CYQF;2005-06-14 12:00;METAR CYQF 141200Z 23004KT 15SM SCT090 06/06 A2991 RMK AC3 SLP144=

CYQF;2005-06-14 14:00;METAR CYQF 141400Z 23003KT 15SM FEW090 10/08 A2991 RMK AC2 SLP145=

CYQF;2005-06-14 15:00;METAR CYQF 141500Z 00000KT 15SM FEW100 13/08 A2991 RMK AC1 SLP143=

CYQF;2005-06-14 16:00;METAR CYQF 141600Z 00000KT 15SM FEW025 14/08 A2991 RMK CU1 SLP143=

CYQF;2005-06-14 17:00;METAR CYQF 141700Z 13005KT 15SM FEW030 SCT250 15/06 A2990 RMK CU1CI0 SLP140=

CYQF;2005-06-14 18:00;METAR CYQF 141800Z 00000KT 15SM SCT040 BKN250 16/06 A2989 RMK CU3CI0 SLP132=

CYQF;2005-06-14 19:00;METAR CYQF 141900Z 16007KT 15SM SCT040 BKN250 17/06 A2986 RMK CU3CI1 SLP125=

CYQF;2005-06-14 20:00;METAR CYQF 142000Z 14010KT 15SM SCT045 BKN250 17/06 A2985 RMK CU4CI1 FEW TCU SLP122=

CYQF;2005-06-14 21:00;METAR CYQF 142100Z 20006KT 15SM SCT045 BKN250 18/06 A2984 RMK CU4CI2 TCU ASOCTD SLP115=

CYQF;2005-06-14 22:00;METAR CYQF 142200Z 19008KT 15SM FEW050 OVC250 18/05 A2982 RMK CU2CI4 SLP109=

CYQF;2005-06-14 23:00;METAR CYQF 142300Z 18010KT 15SM FEW045 OVC250 17/05 A2980 RMK CU1CI6 SLP105=

CYQF;2005-06-15 00:00;METAR CYQF 150000Z 17008KT 15SM FEW045TCU BKN100 OVC250 17/04 A2979 RMK TCU1AC5CI2 SLP102=

CYQF;2005-06-15 01:00;METAR CYQF 150100Z 15007KT 15SM FEW045TCU BKN100 OVC250 17/05 A2979 RMK TCU2AC5CI1 SLP100=

CYQF;2005-06-15 02:00;METAR CYQF 150200Z 12003KT 15SM FEW040 BKN100 BKN250 16/04 A2976 RMK CU2AC4CI1 SLP093=

CYQF;2005-06-15 03:00;METAR CYQF 150300Z 11008KT 15SM FEW040 BKN090 15/06 A2975 RMK SC2AC5 SLP081=

CYQF;2005-06-15 04:00;METAR CYQF 150400Z 13004KT 15SM FEW040 OVC080 14/06 A2974 RMK SC2AC6 SLP078=

CYQF;2005-06-15 05:00;METAR CYQF 150500Z 16005KT 15SM OVC070 13/07 A2973 RMK AC7 SLP075=

CYQF;2005-06-15 06:00;METAR CYQF 150600Z 17007KT 15SM BKN070 12/07 A2972 RMK AC6 SLP071=

CYQF;2005-06-15 07:00;METAR CYQF 150700Z 16006KT 15SM BKN070 11/08 A2971 RMK AC6 SLP067=

CYQF;2005-06-15 07:47;SPECI CYQF 150747Z 16006KT 15SM -SHRA SCT070 BKN200 RMK AC3CI2=

CYQF;2005-06-15 08:00;METAR CYQF 150800Z 16006KT 15SM SCT070 BKN200 10/08 A2969 RMK AC3CI2 SLP063=

CYQF;2005-06-15 09:00;METAR CYQF 150900Z 24005KT 15SM FEW070 08/06 A2970 RMK AC2 SLP067=

CYQF;2005-06-15 10:00;METAR CYQF 151000Z 27004KT 15SM FEW070 06/05 A2971 RMK AC2 SLP071=

CYQF;2005-06-15 11:00;METAR CYQF 151100Z 27004KT 15SM FEW070 FEW200 07/06 A2972 RMK AC1CI1 SLP072=

CYQF;2005-06-15 12:00;METAR CYQF 151200Z 29007KT 15SM FEW070 SCT250 07/06 A2973 RMK AC1CC1 SLP079=

CYQF;2005-06-15 13:00;METAR CYQF 151300Z 25003KT 15SM FEW040 FEW080 FEW250 07/06 A2975 RMK SC1AC1CI1 TR SC SLP086=

CYQF;2005-06-15 14:00;METAR CYQF 151400Z 25005KT 15SM FEW040 FEW080 FEW250 09/07 A2976 RMK SC1AC1CI1 TR CI SLP089=

CYQF;2005-06-15 15:00;METAR CYQF 151500Z 29005KT 15SM FEW017 BKN250 11/07 A2977 RMK SC1CI1 SLP092=

CYQF;2005-06-15 16:00;METAR CYQF 151600Z 28005KT 15SM FEW017 FEW100 SCT250 13/07 A2977 RMK SC1AC1CI1 TR SC + AC SLP091=

CYQF;2005-06-15 17:00;METAR CYQF 151700Z 32005KT 15SM FEW020TCU FEW250 14/06 A2976 RMK TCU1CI1 SLP089=

CYQF;2005-06-15 18:00;METAR CYQF 151800Z 27006KT 15SM FEW035TCU FEW250 15/06 A2976 RMK TCU1CI1 SLP086=

CYQF;2005-06-15 19:00;METAR CYQF 151900Z 22007KT 15SM FEW045TCU SCT250 16/04 A2976 RMK TCU2CI0 SHS W SLP084=

CYQF;2005-06-15 20:00;METAR CYQF 152000Z 31014G23KT 15SM TS VCSH BKN040TCU 13/02 A2976 RMK TCU6 CB EMBDD LTGCG W SLP084=

CYQF;2005-06-15 20:23;SPECI CYQF 152023Z 31015KT 15SM -TSRA BKN040TCU RMK TCU7 CB EMBD LTGCGCC W-N=

CYQF;2005-06-15 21:00;METAR CYQF 152100Z 33015G22KT 15SM TS VCSH BKN040TCU 12/06 A2979 RMK TCU7 CB EMBD LTGCG W-NE SLP103=

CYQF;2005-06-15 21:35;SPECI CYQF 152135Z 31016G26KT 15SM -TSRA BKN040CB RMK CB7 LTGCG W-N=

CYQF;2005-06-15 22:00;METAR CYQF 152200Z 33018KT 15SM VCSH BKN040TCU 11/06 A2984 RMK TCU7 RETS CB EMBD SLP120=

CYQF;2005-06-15 23:00;METAR CYQF 152300Z 32007KT 15SM VCSH BKN040TCU 10/05 A2985 RMK TCU7 SLP122=

CYQF;2005-06-16 00:00;METAR CYQF 160000Z 34015G23KT 15SM FEW040TCU SCT250 12/05 A2985 RMK TCU1CI2 SLP128=

CYQF;2005-06-16 01:00;METAR CYQF 160100Z 33008KT 15SM FEW040 FEW100 SCT250 13/05 A2986 RMK CU1AC1CI1 SLP131=

CYQF;2005-06-16 02:00;METAR CYQF 160200Z 32010G15KT 15SM FEW040 FEW100 13/06 A2989 RMK SC1AC1 SLP140=

CYQF;2005-06-16 03:00;METAR CYQF 160300Z 34004KT 15SM FEW100 12/06 A2991 RMK AC1 SLP143=

CYQF;2005-06-16 04:00;METAR CYQF 160400Z 21003KT 15SM FEW100 09/06 A2992 RMK AC1 SLP146=

CYQF;2005-06-16 05:00;METAR CYQF 160500Z 19004KT 15SM SKC 06/04 A2994 RMK SLP152=

CYQF;2005-06-16 06:00;METAR CYQF 160600Z 19003KT 15SM SKC 06/04 A2995 RMK SLP157=

CYQF;2005-06-16 07:00;METAR CYQF 160700Z 20004KT 15SM FEW250 04/02 A2995 RMK CI0 SLP157=

CYQF;2005-06-16 08:00;METAR CYQF 160800Z 00000KT 15SM FEW250 04/03 A2995 RMK CI1 SLP160=

CYQF;2005-06-16 09:00;METAR CYQF 160900Z 21004KT 15SM FEW250 03/02 A2996 RMK CI0 SLP169=

CYQF;2005-06-16 10:00;METAR CYQF 161000Z 00000KT 15SM FEW250 04/03 A2996 RMK CI0 SLP169=

CYQF;2005-06-16 11:00;METAR CYQF 161100Z 00000KT 15SM FEW250 03/02 A2997 RMK CI0 SLP171=

CYQF;2005-06-16 12:00;METAR CYQF 161200Z 18003KT 15SM FEW250 03/02 A2997 RMK CI0 SLP172=

CYQF;2005-06-16 13:00;METAR CYQF 161300Z 18003KT 15SM FEW250 06/04 A2998 RMK CI0 SLP175=

CYQF;2005-06-16 14:00;METAR CYQF 161400Z 00000KT 15SM FEW250 10/06 A2998 RMK CI0 SLP176=

CYQF;2005-06-16 15:00;METAR CYQF 161500Z 18006KT 15SM BKN250 14/07 A2997 RMK CI1 SLP161=

CYQF;2005-06-16 16:00;METAR CYQF 161600Z 18010KT 15SM BKN250 15/05 A2997 RMK CI1 SLP159=

CYQF;2005-06-16 17:00;METAR CYQF 161700Z 16012KT 15SM BKN250 16/05 A2995 RMK CI2 SLP153=

CYQF;2005-06-16 18:00;METAR CYQF 161800Z 16015KT 15SM FEW045 BKN250 17/04 A2994 RMK CU1CI3 TR CU SLP153=

CYQF;2005-06-16 19:00;METAR CYQF 161900Z 16015KT 15SM FEW050 FEW100 OVC250 18/04 A2993 RMK CU1AC1CI2 SLP149=

CYQF;2005-06-16 20:00;METAR CYQF 162000Z 16015KT 15SM FEW050 SCT100 OVC250 18/04 A2990 RMK CU2AC2CI2 SLP142=

CYQF;2005-06-16 23:00;METAR CYQF 162300Z 17013KT 15SM FEW050 BKN090 OVC250 18/05 A2987 RMK CU1AC4CI2 SLP132=

CYQF;2005-06-17 00:00;METAR CYQF 170000Z 15010G15KT 15SM FEW050 SCT100 OVC220 18/05 A2986 RMK CU1AC2CI4 SLP128=

CYQF;2005-06-17 01:00;METAR CYQF 170100Z 13008KT 15SM FEW060 FEW100 BKN240 18/06 A2986 RMK SC1AC2CI2 SLP127=

CYQF;2005-06-17 02:00;METAR CYQF 170200Z 13008KT 15SM FEW060 FEW100 BKN240 19/06 A2985 RMK SC1AC1CI2 SLP125=

CYQF;2005-06-17 03:00;METAR CYQF 170300Z 12006KT 15SM SCT060 BKN240 17/06 A2985 RMK SC3CI1 SLP113=

CYQF;2005-06-17 04:00;METAR CYQF 170400Z 07005KT 15SM FEW060 SCT100 BKN240 15/07 A2985 RMK SC2AC2CI1 SLP111=

CYQF;2005-06-17 05:00;METAR CYQF 170500Z 08005KT 15SM FEW050 BKN100 14/07 A2985 RMK SC2AC4 SLP111=

CYQF;2005-06-17 06:00;METAR CYQF 170600Z 07005KT 15SM FEW050 BKN100 13/07 A2984 RMK SC2AC4 SLP112=

CYQF;2005-06-17 07:00;METAR CYQF 170700Z 00000KT 15SM BKN100 13/08 A2984 RMK AC5 SLP112=

CYQF;2005-06-17 09:00;METAR CYQF 170900Z 09005KT 15SM BKN100 12/08 A2983 RMK AC7 SLP106=

CYQF;2005-06-17 10:00;METAR CYQF 171000Z 07003KT 15SM -RA BKN100 13/09 A2983 RMK AC7 SLP108=

CYQF;2005-06-17 11:00;METAR CYQF 171100Z 06004KT 15SM -RA SCT050 OVC100 11/10 A2983 RMK SC4AC4 SLP108=

CYQF;2005-06-17 12:00;METAR CYQF 171200Z 06007KT 15SM -RA SCT050 OVC100 11/10 A2983 RMK SC3AC5 SLP108=

CYQF;2005-06-17 13:00;METAR CYQF 171300Z 06004KT 15SM -RA SCT050 OVC100 11/10 A2982 RMK SC4AC4 SLP106=

CYQF;2005-06-17 14:00;METAR CYQF 171400Z 06006KT 10SM -RA BKN050 OVC100 11/10 A2981 RMK SC6AC2 SLP102=

CYQF;2005-06-17 15:00;METAR CYQF 171500Z 07007KT 15SM -RA BKN050 OVC100 12/10 A2980 RMK SC6AC2 SLP098=

CYQF;2005-06-17 16:00;METAR CYQF 171600Z 05007KT 15SM -RA BKN050 OVC090 12/10 A2980 RMK SC7AC1 VIS LWR NW SLP097=

CYQF;2005-06-17 16:28;SPECI CYQF 171628Z 08011KT 4SM -RA BR BKN008 OVC050 RMK CF6SC2=

CYQF;2005-06-17 17:00;METAR CYQF 171700Z 05010KT 6SM -RA BR BKN008 OVC040 12/11 A2978 RMK CF6SC2 SLP091=

CYQF;2005-06-17 17:35;SPECI CYQF 171735Z 05011KT 15SM BKN009 OVC040 RMK CF7SC1=

CYQF;2005-06-17 18:00;METAR CYQF 171800Z 04009KT 15SM BKN009 OVC040 13/11 A2978 RMK CF7SC1 SLP095=

CYQF;2005-06-17 19:00;METAR CYQF 171900Z 06012KT 15SM OVC012 14/10 A2977 RMK SC8 SLP091=

CYQF;2005-06-17 20:00;METAR CYQF 172000Z 05015G21KT 15SM BKN014 OVC020 14/09 A2975 RMK SC6SC2 PCPN DIST S SLP086=

CYQF;2005-06-17 20:28;SPECI CYQF 172028Z 06014G20KT 4SM -RA OVC012 RMK SC8=

CYQF;2005-06-17 21:00;METAR CYQF 172100Z 05012G19KT 8SM -RA FEW008 BKN018 OVC045 13/10 A2974 RMK CF2SC4SC2 BR SLP081=

CYQF;2005-06-17 22:00;METAR CYQF 172200Z 04011G20KT 12SM -SHRA FEW009 BKN014 OVC040 13/11 A2973 RMK CF2SC6SC1 SLP077=

CYQF;2005-06-17 23:00;METAR CYQF 172300Z 07015G22KT 5SM -SHRA BR BKN012 OVC040 12/10 A2971 RMK SC6SC2 SLP071=

CYQF;2005-06-18 00:00;METAR CYQF 180000Z 03015G25KT 5SM -RA BKN012 OVC040 12/10 A2970 RMK SC5SC3 SLP070=

CYQF;2005-06-18 01:00;METAR CYQF 180100Z 03017G25KT 8SM -RA SCT012 OVC030 11/09 A2969 RMK SC2SC6 SLP067=

CYQF;2005-06-18 02:00;METAR CYQF 180200Z 03013G20KT 6SM -RA FEW008 BKN020 OVC050 11/09 A2969 RMK SF1SC6SC2 SLP068=

CYQF;2005-06-18 03:00;METAR CYQF 180300Z 03013G20KT 3SM -RA BR OVC014 11/10 A2969 RMK SF8 SLP067=

CYQF;2005-06-18 04:00;METAR CYQF 180400Z 03015KT 3SM -RA BR OVC011 11/10 A2969 RMK SF8 SLP066=

CYQF;2005-06-18 05:00;METAR CYQF 180500Z 02016G28KT 10SM -RA BKN007 OVC020 11/10 A2964 RMK SF6SC2 SLP051=

CYQF;2005-06-18 06:00;METAR CYQF 180600Z 04017G27KT 15SM -RA OVC014 12/10 A2965 RMK SC8 SLP049=

CYQF;2005-06-18 07:00;METAR CYQF 180700Z 05011G19KT 15SM -RA FEW014 OVC017 12/10 A2965 RMK SC2SC6 SLP049=

CYQF;2005-06-18 08:00;METAR CYQF 180800Z 06015G22KT 15SM -RA FEW012 OVC018 11/10 A2965 RMK SC2SC6 SLP051=

CYQF;2005-06-18 09:00;METAR CYQF 180900Z 06013KT 6SM -RA BR FEW006 BKN012 OVC030 11/10 A2966 RMK SF2SC5SC2 SLP054=

CYQF;2005-06-18 09:45;SPECI CYQF 180945Z 04012G19KT 3SM RA BR BKN009 OVC012 RMK SF7SC1=

CYQF;2005-06-18 10:15;SPECI CYQF 181015Z 05014KT 3SM RA BR BKN009 OVC012 RMK SF6SC2=

CYQF;2005-06-18 10:50;SPECI CYQF 181050Z 05013KT 1 1/2SM -RA BR BKN009 OVC012 RERA RMK SF6SC2=

CYQF;2005-06-18 11:00;METAR CYQF 181100Z 04012G20KT 1 1/2SM -RA BR BKN008 OVC012 11/10 A2965 RERA RMK SF6SC2 SLP052=

CYQF;2005-06-18 12:00;METAR CYQF 181200Z 04012G20KT 1 1/2SM -RA BR BKN006 OVC010 11/10 A2964 RMK SF6SC2 SLP049=

CYQF;2005-06-18 13:00;METAR CYQF 181300Z 03012KT 1 1/2SM -RA BR OVC006 10/09 A2964 RMK SF8 CIG RAG SLP049=

CYQF;2005-06-18 13:11;SPECI CYQF 181311Z 03015G20KT 1SM RA BR OVC006 RMK SF8 CIG RAG=

CYQF;2005-06-18 13:30;SPECI CYQF 181330Z 03010G20KT 3/4SM +RA BR OVC005 RMK SF8 CIG RAG=

CYQF;2005-06-18 13:49;SPECI CYQF 181349Z 03012G20KT 2SM -RA BR BKN006 OVC012 RMK SF6SC2 CIG RAG=

CYQF;2005-06-18 14:00;METAR CYQF 181400Z 04012G21KT 5SM -RA BR BKN006 OVC012 10/09 A2964 RMK SF6SC2 CIG RAG SLP050=

CYQF;2005-06-18 14:26;SPECI CYQF 181426Z 06012G20KT 2 1/2SM RA BR BKN006 OVC012 RMK SF7SC1=

CYQF;2005-06-18 15:00;METAR CYQF 181500Z 04013G22KT 5SM -RA BR BKN008 OVC012 10/09 A2963 RMK CF7SC1 CIG RAG SLP049=

CYQF;2005-06-18 16:00;METAR CYQF 181600Z 03014G20KT 12SM OVC007 10/09 A2964 RMK SF8 CIG RAG SLP051=

CYQF;2005-06-18 16:30;SPECI CYQF 181630Z 03018G24KT 2 1/2SM -SHRA OVC006 RMK SF8 CIG RAG=

CYQF;2005-06-18 18:00;METAR CYQF 181800Z 02012G18KT 2SM -RA BR OVC005 09/09 A2966 RMK SF8 CIG RAG SLP057=

CYQF;2005-06-18 19:00;METAR CYQF 181900Z 02013G19KT 2SM -RA BR OVC007 10/09 A2967 RMK SF8 CIG RAG SLP060=

CYQF;2005-06-18 20:00;METAR CYQF 182000Z 02014G19KT 2SM -DZ BR OVC004 10/09 A2967 RMK ST8 SLP062=

CYQF;2005-06-18 21:00;METAR CYQF 182100Z 01016G21KT 2SM -DZ BR OVC005 10/09 A2968 RMK ST8 SLP067=

CYQF;2005-06-18 22:00;METAR CYQF 182200Z 01017G24KT 2SM -DZ BR OVC005 10/09 A2969 RMK ST8 SLP070=

CYQF;2005-06-18 23:00;METAR CYQF 182300Z 36011G17KT 2SM -DZ BR OVC004 09/09 A2972 RMK ST8 SLP078=

CYQF;2005-06-19 00:00;METAR CYQF 190000Z 36016G23KT 3SM -DZ BR OVC006 09/08 A2975 RMK SF8 SLP089=

CYQF;2005-06-19 01:00;METAR CYQF 190100Z 35015G24KT 3SM -DZ BR OVC006 09/08 A2976 RMK SF8 SLP094=

CYQF;2005-06-19 02:00;METAR CYQF 190200Z 34013G20KT 3SM -RA BR OVC005 09/08 A2979 RMK SF8 SLP102=

CYQF;2005-06-19 03:00;METAR CYQF 190300Z 33012G18KT 5SM -RA BR OVC008 09/08 A2981 RMK SF8 SLP113=

CYQF;2005-06-19 04:00;METAR CYQF 190400Z 32010G18KT 6SM -RA BR OVC009 08/08 A2982 RMK SF8 SLP115=

CYQF;2005-06-19 05:00;METAR CYQF 190500Z 32010KT 15SM OVC009 09/08 A2983 RMK SC8 SLP120=

CYQF;2005-06-19 06:00;METAR CYQF 190600Z 31007KT 15SM -RA FEW006 OVC010 08/08 A2984 RMK SF2SC6 SLP124=

CYQF;2005-06-19 07:00;METAR CYQF 190700Z 30007KT 15SM FEW010 OVC070 08/07 A2984 RMK SC2AC6 SLP124=

CYQF;2005-06-19 08:00;METAR CYQF 190800Z 00000KT 15SM FEW010 BKN040 OVC070 08/07 A2984 RMK SC1SC5AC2 SLP123=

CYQF;2005-06-19 09:00;METAR CYQF 190900Z 24005KT 15SM SCT035 BKN080 07/07 A2983 RMK SC3AC2 SLP121=

CYQF;2005-06-19 10:00;METAR CYQF 191000Z 23004KT 15SM FEW035 SCT080 BKN250 06/05 A2983 RMK SC2AC2CI0 SLP122=

CYQF;2005-06-19 11:00;METAR CYQF 191100Z 25004KT 15SM SCT035 SCT080 BKN250 06/05 A2984 RMK SC3AC1CI1 SLP125=

CYQF;2005-06-19 12:00;METAR CYQF 191200Z 28009KT 15SM FEW040 BKN080 BKN250 08/06 A2985 RMK SC2AC3CI2 SHS DIST SW-W-NW SLP129=

CYQF;2005-06-19 12:09;SPECI CYQF 191209Z 27006KT 15SM -RA FEW040 BKN080 BKN250 RMK SC2AC3CI2=

CYQF;2005-06-19 13:00;METAR CYQF 191300Z 18003KT 15SM FEW040 BKN080 BKN250 09/07 A2985 RMK SC1AC5CI1 VIRGA SLP127=

CYQF;2005-06-19 14:00;METAR CYQF 191400Z 24007KT 15SM BKN080 BKN250 10/08 A2986 RMK AC6CI2 VIRGA SLP131=

CYQF;2005-06-19 15:00;METAR CYQF 191500Z 23006KT 15SM FEW040 BKN090 BKN250 11/09 A2986 RMK SC1AC4CI2 VIRGA SLP131=

CYQF;2005-06-19 16:00;METAR CYQF 191600Z 21010KT 15SM FEW040 BKN090 BKN250 12/08 A2988 RMK SC1AC5CI1 VIRGA SLP135=

CYQF;2005-06-19 17:00;METAR CYQF 191700Z 22009KT 15SM BKN090 BKN250 13/08 A2988 RMK AC5CI1 SLP135=

CYQF;2005-06-19 18:00;METAR CYQF 191800Z 20008KT 15SM FEW030 FEW090 SCT250 15/10 A2988 RMK CU1AC1CI1 TCU ASOCTD SLP130=

CYQF;2005-06-19 19:00;METAR CYQF 191900Z 23006KT 15SM FEW035 FEW250 17/08 A2988 RMK CU1CI1 TCU ASOCTD SLP130=

CYQF;2005-06-19 20:00;METAR CYQF 192000Z 29009KT 15SM FEW045 FEW250 19/08 A2988 RMK CU1CI1 SLP132=

CYQF;2005-06-19 21:00;METAR CYQF 192100Z 26007KT 15SM FEW045 FEW250 20/08 A2989 RMK CU1CI1 SLP130=

CYQF;2005-06-19 22:00;METAR CYQF 192200Z 30007KT 15SM FEW050 FEW250 21/06 A2990 RMK CU1CI1 SLP133=

CYQF;2005-06-19 23:00;METAR CYQF 192300Z 25008KT 15SM FEW050 SCT250 21/06 A2990 RMK CU1CI1 SLP135=

CYQF;2005-06-20 00:00;METAR CYQF 200000Z 24006KT 15SM FEW050 BKN250 21/05 A2991 RMK CU1CI2 SLP137=

CYQF;2005-06-20 01:00;METAR CYQF 200100Z 21005KT 15SM FEW050 BKN250 22/08 A2992 RMK SC1CI2 SLP138=

CYQF;2005-06-20 02:00;METAR CYQF 200200Z 19004KT 15SM FEW050 SCT250 21/09 A2993 RMK SC1CI1 SLP143=

CYQF;2005-06-20 03:00;METAR CYQF 200300Z 36008KT 15SM FEW050 SCT090 BKN250 19/10 A2996 RMK SC2AC1CI0 SLP153=

CYQF;2005-06-20 04:00;METAR CYQF 200400Z 05003KT 15SM FEW090 15/09 A2998 RMK AC1 SLP158=

CYQF;2005-06-20 05:00;METAR CYQF 200500Z 36005KT 15SM FEW090 14/09 A2999 RMK AC1 SLP161=

CYQF;2005-06-20 06:00;METAR CYQF 200600Z 01008KT 15SM FEW090 12/09 A3002 RMK AC1 SLP175=

CYQF;2005-06-20 07:00;METAR CYQF 200700Z 36006KT 15SM FEW090 11/10 A3004 RMK AC1 SLP181=

CYQF;2005-06-20 08:00;METAR CYQF 200800Z 03003KT 15SM FEW090 10/09 A3003 RMK AC1 SLP179=

CYQF;2005-06-20 09:00;METAR CYQF 200900Z 01003KT 15SM FEW090 08/08 A3003 RMK AC1 SLP178=

CYQF;2005-06-20 09:17;SPECI CYQF 200917Z 00000KT 10SM PRFG FEW090 RMK AC1 FG BNK N=

CYQF;2005-06-20 10:00;METAR CYQF 201000Z 35003KT 15SM FEW090 07/07 A3005 RMK AC2 SLP185=

CYQF;2005-06-20 11:00;METAR CYQF 201100Z 01003KT 10SM MIFG FEW030 FEW090 08/07 A3007 RMK SC1AC1 BR SLP191=

CYQF;2005-06-20 12:00;METAR CYQF 201200Z 00000KT 8SM MIFG FEW030 FEW090 FEW250 07/07 A3008 RMK SC1AC1CC1 BR VIS LWR SW SLP197=

CYQF;2005-06-20 12:21;SPECI CYQF 201221Z 00000KT 8SM BCFG FEW030 FEW090 FEW250 RMK SC1AC1CI1 BR=

CYQF;2005-06-20 13:00;METAR CYQF 201300Z 01003KT 10SM FEW090 FEW250 08/07 A3010 RMK AC1CI1 SLP202=

CYQF;2005-06-20 14:00;METAR CYQF 201400Z 06005KT 15SM FEW090 FEW250 11/06 A3011 RMK AC1CI1 SLP206=

CYQF;2005-06-20 15:00;METAR CYQF 201500Z 36005KT 15SM FEW090 SCT250 13/07 A3013 RMK AC1CI1 SLP209=

CYQF;2005-06-20 16:00;METAR CYQF 201600Z 06008KT 15SM FEW090 SCT250 14/08 A3014 RMK AC1CI1 SLP211=

CYQF;2005-06-20 17:00;METAR CYQF 201700Z 08006KT 15SM FEW040 FEW090 SCT250 16/10 A3014 RMK CU1AC1CI1 SLP212=

CYQF;2005-06-20 18:00;METAR CYQF 201800Z 12004KT 15SM FEW040 SCT120 BKN250 16/08 A3014 RMK CU1AC2CI0 SLP215=

CYQF;2005-06-20 19:00;METAR CYQF 201900Z 12005KT 15SM FEW040 FEW120 SCT250 17/08 A3014 RMK CU1AC1CI1 SLP215=

CYQF;2005-06-20 20:00;METAR CYQF 202000Z 13008KT 15SM FEW040 SCT250 18/10 A3013 RMK CU1CI1 SLP212=

CYQF;2005-06-20 21:00;METAR CYQF 202100Z 14008KT 15SM FEW040 FEW250 19/09 A3011 RMK CU1CI1 SLP206=

CYQF;2005-06-20 22:00;METAR CYQF 202200Z 15009KT 15SM FEW040 SCT250 20/10 A3009 RMK CU1CI1 SLP201=

CYQF;2005-06-20 23:00;METAR CYQF 202300Z 13008KT 15SM FEW040 SCT250 21/10 A3009 RMK CU1CI2 SLP200=

CYQF;2005-06-21 00:00;METAR CYQF 210000Z 14009KT 15SM FEW040 BKN250 21/10 A3008 RMK CU1CI2 SLP196=

CYQF;2005-06-21 01:00;METAR CYQF 210100Z 06005KT 15SM FEW040 FEW100 BKN250 20/11 A3008 RMK CU1AC1CI2 TR CU SLP196=

CYQF;2005-06-21 02:00;METAR CYQF 210200Z 15005KT 15SM FEW100 BKN250 20/11 A3008 RMK AC1CI2 SLP196=

CYQF;2005-06-21 03:00;METAR CYQF 210300Z 14004KT 15SM FEW100 BKN250 18/12 A3008 RMK AC1CI2 SLP192=

CYQF;2005-06-21 04:00;METAR CYQF 210400Z 13003KT 15SM FEW100 BKN250 16/11 A3008 RMK AC1CI1 SLP194=

CYQF;2005-06-21 05:00;METAR CYQF 210500Z 12003KT 15SM FEW100 BKN250 15/10 A3009 RMK AC1CI1 SLP196=

CYQF;2005-06-21 06:00;METAR CYQF 210600Z 14003KT 15SM FEW100 SCT250 15/10 A3009 RMK AC1CI1 SLP195=

CYQF;2005-06-21 07:00;METAR CYQF 210700Z 16003KT 15SM FEW100 FEW250 13/09 A3008 RMK AC1CI1 SLP193=

CYQF;2005-06-21 08:00;METAR CYQF 210800Z 16005KT 15SM FEW100 FEW250 12/09 A3007 RMK AC1CI1 SLP189=

CYQF;2005-06-21 09:00;METAR CYQF 210900Z 18004KT 15SM FEW100 09/07 A3006 RMK AC1 SLP188=

CYQF;2005-06-21 10:00;METAR CYQF 211000Z 18003KT 15SM FEW100 09/08 A3005 RMK AC1 SLP186=

CYQF;2005-06-21 11:00;METAR CYQF 211100Z 18003KT 15SM FEW100 09/07 A3005 RMK AC1 SLP184=

CYQF;2005-06-21 12:00;METAR CYQF 211200Z 17004KT 15SM FEW100 09/07 A3004 RMK AC1 SLP180=

CYQF;2005-06-21 13:00;METAR CYQF 211300Z 20003KT 15SM FEW100 11/07 A3004 RMK AC1 SLP180=

CYQF;2005-06-21 14:00;METAR CYQF 211400Z 19005KT 15SM FEW100 14/10 A3004 RMK AC1 SLP180=

CYQF;2005-06-21 15:00;METAR CYQF 211500Z 22005KT 15SM SKC 17/11 A3003 RMK SLP171=

CYQF;2005-06-21 16:00;METAR CYQF 211600Z 20005KT 15SM SKC 20/12 A3003 RMK SLP169=

CYQF;2005-06-21 17:00;METAR CYQF 211700Z 16003KT 15SM FEW240 23/13 A3000 RMK CI1 SLP161=

CYQF;2005-06-21 18:00;METAR CYQF 211800Z 19006KT 15SM FEW240 24/12 A2999 RMK CI1 SLP152=

CYQF;2005-06-21 19:00;METAR CYQF 211900Z 19007KT 15SM FEW240 26/08 A2997 RMK CI1 SLP146=

CYQF;2005-06-21 20:00;METAR CYQF 212000Z 17008KT 15SM BKN240 27/08 A2995 RMK CI2 SLP139=

CYQF;2005-06-21 21:00;METAR CYQF 212100Z 16010KT 15SM BKN240 27/11 A2992 RMK CI2 SLP133=

CYQF;2005-06-21 22:00;METAR CYQF 212200Z 13008KT 15SM BKN240 27/12 A2989 RMK CI2 SLP123=

CYQF;2005-06-21 23:00;METAR CYQF 212300Z 16007KT 15SM FEW240 27/11 A2986 RMK CI1 SLP115=

CYQF;2005-06-22 00:00;METAR CYQF 220000Z 15010KT 15SM FEW240 27/13 A2984 RMK CI1 SLP105=

CYQF;2005-06-22 01:00;METAR CYQF 220100Z 14008KT 15SM FEW240 26/12 A2980 RMK CI1 SLP094=

CYQF;2005-06-22 02:00;METAR CYQF 220200Z 15006KT 15SM FEW240 25/13 A2979 RMK CI2 SLP089=

CYQF;2005-06-22 03:00;METAR CYQF 220300Z 00000KT 15SM SCT240 23/14 A2977 RMK CI2 SLP077=

CYQF;2005-06-22 04:00;METAR CYQF 220400Z 13004KT 15SM FEW100 SCT240 22/12 A2976 RMK AC1CI2 SLP071=

CYQF;2005-06-22 05:00;METAR CYQF 220500Z 00000KT 15SM FEW040TCU SCT100 BKN240 19/14 A2973 RMK TCU2AC2CI1 LTGIC SW-SE SLP064=

CYQF;2005-06-22 06:00;METAR CYQF 220600Z 00000KT 15SM FEW040TCU SCT100 BKN240 19/15 A2972 RMK TCU2AC2CI1 SLP055=

CYQF;2005-06-22 07:00;METAR CYQF 220700Z 00000KT 15SM FEW040TCU BKN100 16/14 A2969 RMK TCU2AC2 LTGCG W SLP046=

CYQF;2005-06-22 08:00;METAR CYQF 220800Z 14005KT 15SM SCT040TCU BKN100 17/15 A2966 RMK TCU4AC2 CB W LTGIC W SLP036=

CYQF;2005-06-22 08:04;SPECI CYQF 220804Z 14010G15KT 15SM -SHRA SCT040TCU BKN100 RMK TCU4AC2 CB W LTGIC W=

CYQF;2005-06-22 08:23;SPECI CYQF 220823Z 15005KT 15SM BKN040TCU RMK TCU6 CB W-NW LTGIC W-NW=

CYQF;2005-06-22 09:16;SPECI CYQF 220916Z 30005KT 3SM TS OVC040CB RMK CB8 LTGCG PRESRR=

CYQF;2005-06-22 09:30;SPECI CYQF 220930Z 06002KT 10SM TS BKN040CB RMK CB6 LTGCG NW-NE PRESFR=

CYQF;2005-06-22 10:00;METAR CYQF 221000Z 15005KT 15SM BKN040TCU 14/12 A2968 RETS RMK TCU5 CB ASOCT SLP039=

CYQF;2005-06-22 11:00;METAR CYQF 221100Z 19002KT 15SM FEW040TCU 12/11 A2968 RMK TCU2 SLP040=

CYQF;2005-06-22 12:00;METAR CYQF 221200Z 21005KT 15SM FEW010 FEW040 11/10 A2968 RMK CF1SC1 SLP046=

CYQF;2005-06-22 13:00;METAR CYQF 221300Z 00000KT 15SM FEW010 FEW040 13/11 A2968 RMK CF1SC1 SLP048=

CYQF;2005-06-22 14:00;METAR CYQF 221400Z 24007KT 15SM FEW040 15/13 A2969 RMK CU1 SLP049=

CYQF;2005-06-22 15:00;METAR CYQF 221500Z 27006KT 15SM FEW040 19/14 A2969 RMK CF1 TCU DIST NW SLP045=

CYQF;2005-06-22 16:00;METAR CYQF 221600Z 33008KT 15SM FEW040 21/12 A2969 RMK CU1 SLP045=

CYQF;2005-06-22 17:00;METAR CYQF 221700Z 32004KT 15SM FEW040 21/12 A2968 RMK CU1 SLP043=

CYQF;2005-06-22 19:00;METAR CYQF 221900Z 34007KT 15SM FEW045 22/11 A2967 RMK CU2 SLP041=

CYQF;2005-06-22 20:00;METAR CYQF 222000Z 36005KT 15SM FEW045 23/10 A2966 RMK CU2 SLP039=

CYQF;2005-06-22 21:00;METAR CYQF 222100Z 35010G20KT 15SM SCT045 21/14 A2968 RMK CU3 SLP044=

CYQF;2005-06-22 22:00;METAR CYQF 222200Z 02011G20KT 15SM FEW045 21/13 A2968 RMK CU2 SLP044=

CYQF;2005-06-22 23:00;METAR CYQF 222300Z 34013KT 15SM FEW045 FEW250 21/12 A2967 RMK CU2CI1 SLP043=

CYQF;2005-06-23 00:00;METAR CYQF 230000Z 02012KT 15SM FEW045 SCT250 21/11 A2966 RMK CU2CI1 SLP048=

CYQF;2005-06-23 01:00;METAR CYQF 230100Z 35008KT 15SM SCT045TCU BKN250 19/12 A2970 RMK TCU4CI2 SLP059=

CYQF;2005-06-23 02:00;METAR CYQF 230200Z 34014G21KT 15SM SCT045TCU BKN100 BKN250 18/11 A2970 RMK TCU4AC2CI1 CB NW-NE LTGCG N SLP060=

CYQF;2005-06-23 02:20;SPECI CYQF 230220Z 30020G34KT 15SM -SHRA BKN045CB BKN100 OVC250 RMK CB6AC2CI0=

CYQF;2005-06-23 03:00;METAR CYQF 230300Z 35014G25KT 15SM -SHRA FEW010 BKN045 BKN100 OVC250 12/09 A2977 RMK SF1SC5AC2CI0 TCU ASCTD SLP087=

CYQF;2005-06-23 04:00;METAR CYQF 230400Z 36010KT 15SM FEW010 BKN050 OVC100 12/09 A2979 RMK SF2SC5AC2 SLP091=

CYQF;2005-06-23 04:10;SPECI CYQF 230410Z 35010KT 15SM -SHRA FEW010 BKN050 OVC100 RMK SF2SC5AC2=

CYQF;2005-06-23 05:00;METAR CYQF 230500Z 35006KT 15SM -SHRA FEW010 BKN050 OVC100 11/10 A2981 RMK SF2SC4AC2 SLP099=

CYQF;2005-06-23 06:00;METAR CYQF 230600Z 33006KT 15SM -SHRA FEW010 BKN025 OVC100 11/10 A2982 RMK SF2SC4AC2 SLP099=

CYQF;2005-06-23 06:49;SPECI CYQF 230649Z 32010G15KT 15SM OVC020 RMK SC8=

CYQF;2005-06-23 07:00;METAR CYQF 230700Z 31010G15KT 15SM SCT010 OVC022 10/09 A2982 RMK SC3SC5 SLP100=

CYQF;2005-06-23 07:19;SPECI CYQF 230719Z 31010KT 10SM -RA SCT010 OVC022 RMK SC4SC4=

CYQF;2005-06-23 08:00;METAR CYQF 230800Z 31006KT 10SM -RA SCT010 OVC020 09/08 A2983 RMK SC4SC4 SLP103=

CYQF;2005-06-23 09:00;METAR CYQF 230900Z 31008KT 10SM -RA SCT010 OVC020 09/07 A2984 RMK SC3SC5 SLP109=

CYQF;2005-06-23 10:00;METAR CYQF 231000Z 29012KT 12SM -RA FEW010 OVC020 08/06 A2985 RMK SC2SC6 SLP115=

CYQF;2005-06-23 11:00;METAR CYQF 231100Z 30010KT 15SM SCT010 BKN025 OVC080 08/06 A2985 RMK SF4SC3AC1 SLP113=

CYQF;2005-06-23 12:00;METAR CYQF 231200Z 29010KT 15SM FEW010 SCT025 OVC090 08/05 A2988 RMK SF2SC2AC4 SLP125=

CYQF;2005-06-23 13:00;METAR CYQF 231300Z 29010G15KT 15SM VCSH FEW010 BKN023 OVC090 08/06 A2989 RMK SF2SC3AC3 SLP129=

CYQF;2005-06-23 14:00;METAR CYQF 231400Z 28012KT 15SM BKN020 BKN090 09/06 A2991 RMK SC6AC1 SLP135=

CYQF;2005-06-23 15:00;METAR CYQF 231500Z 33017G27KT 15SM BKN020 BKN090 BKN250 10/05 A2991 RMK SC5AC1CI0 SLP142=

CYQF;2005-06-23 16:00;METAR CYQF 231600Z 32018G30KT 15SM FEW025 FEW100 SCT250 12/04 A2990 RMK SC2AC1CI0 SLP140=

CYQF;2005-06-23 17:00;METAR CYQF 231700Z 30017G28KT 15SM BKN030 BKN250 13/05 A2990 RMK CU6CI0 SLP141=

CYQF;2005-06-23 18:00;METAR CYQF 231800Z 30017G30KT 15SM BKN030 BKN250 14/05 A2991 RMK CU5CI1 SLP139=

CYQF;2005-06-23 19:00;METAR CYQF 231900Z 30020G33KT 15SM BKN040 BKN250 15/04 A2991 RMK CU5CI2 TCU/CB EMBD W-SW SLP140=

CYQF;2005-06-23 20:00;METAR CYQF 232000Z 29018G28KT 15SM SCT045TCU BKN250 16/05 A2991 RMK TCU3CI1 CB EMBD S SLP141=

CYQF;2005-06-23 21:00;METAR CYQF 232100Z 30016G25KT 15SM -SHRA BKN040TCU BKN250 14/04 A2992 RMK TCU5CI2 SHS ALQDS CB EMBD SLP147=

CYQF;2005-06-23 21:16;SPECI CYQF 232116Z 30012G20KT 15SM VCSH BKN040TCU BKN250 RMK TCU5CI2 CB EMBD=

CYQF;2005-06-23 21:25;SPECI CYQF 232125Z 31012G28KT 15SM TS VCSH BKN040TCU BKN250 RMK TCU5CI2 CB EMBD=

CYQF;2005-06-23 22:00;METAR CYQF 232200Z 32010G16KT 15SM SCT035CB SCT090 BKN250 13/04 A2992 RMK CB3AC1CI1 SHS ALQDS RETS SLP147=

CYQF;2005-06-23 23:00;METAR CYQF 232300Z 33013G20KT 15SM FEW035CB SCT090 BKN250 16/03 A2992 RMK CB1AC2CI2 CB/SHS N-NE SLP146=

CYQF;2005-06-24 00:00;METAR CYQF 240000Z 01012KT 15SM FEW040TCU FEW090 SCT250 16/06 A2992 RMK TCU2AC1CI1 SLP146=

CYQF;2005-06-24 01:00;METAR CYQF 240100Z 33013KT 15SM FEW040TCU FEW090 SCT250 17/04 A2992 RMK TCU2AC1CI1 SLP146=

CYQF;2005-06-24 02:00;METAR CYQF 240200Z 35014G20KT 15SM FEW040TCU SCT250 13/06 A2996 RMK TCU2CI1 SLP158=

CYQF;2005-06-24 04:00;METAR CYQF 240400Z 27005KT 15SM FEW040 SCT250 09/06 A3001 RMK SC2CI1 SLP175=

CYQF;2005-06-24 05:00;METAR CYQF 240500Z 00000KT 15SM FEW040 SCT250 10/06 A3001 RMK SC2CI1 SLP176=

CYQF;2005-06-24 06:00;METAR CYQF 240600Z 00000KT 15SM FEW040 FEW250 06/05 A3002 RMK SC2CI0 SLP183=

CYQF;2005-06-24 07:00;METAR CYQF 240700Z 23005KT 15SM FEW040 FEW250 07/05 A3002 RMK SC1CI1 SLP183=

CYQF;2005-06-24 08:00;METAR CYQF 240800Z 00000KT 15SM FEW040 06/05 A3003 RMK SC1 SLP185=

CYQF;2005-06-24 09:00;METAR CYQF 240900Z 00000KT 15SM FEW040 05/04 A3003 RMK SC1 SLP188=

CYQF;2005-06-24 10:00;METAR CYQF 241000Z 00000KT 15SM FEW040 FEW250 05/04 A3003 RMK SC1CI0 SLP189=

CYQF;2005-06-24 11:00;METAR CYQF 241100Z 17003KT 10SM BCFG FEW040 FEW250 04/03 A3004 RMK SC1CI1 VIS LWR SW SLP191=

CYQF;2005-06-24 12:00;METAR CYQF 241200Z 19004KT 5SM BR PRFG FEW040 03/03 A3005 RMK SC1 FG BANK S-NW SLP195=

CYQF;2005-06-24 14:00;METAR CYQF 241400Z 00000KT 15SM FEW120 10/06 A3004 RMK AC2 SLP193=

CYQF;2005-06-24 15:00;METAR CYQF 241500Z 16006KT 15SM SCT250 12/06 A3005 RMK CI2 SLP189=

CYQF;2005-06-24 16:00;METAR CYQF 241600Z 12007KT 15SM FEW028 BKN250 14/07 A3004 RMK SC1CI2 SLP185=

CYQF;2005-06-24 17:00;METAR CYQF 241700Z 17005KT 15SM FEW032 BKN250 15/07 A3002 RMK CU1CI2 SLP179=

CYQF;2005-06-24 18:00;METAR CYQF 241800Z 15009KT 15SM SCT035 BKN250 17/08 A3000 RMK CU3CI1 FEW TCU SLP174=

CYQF;2005-06-24 19:00;METAR CYQF 241900Z 15010G17KT 15SM BKN035 BKN250 17/08 A2999 RMK CU5CI1 FEW TCU SLP170=

CYQF;2005-06-24 20:00;METAR CYQF 242000Z 16011KT 15SM SCT040 BKN250 17/08 A2997 RMK CU4CI2 FEW TCU SLP165=

CYQF;2005-06-24 21:00;METAR CYQF 242100Z 15012G18KT 15SM SCT040 BKN120 OVC250 17/07 A2995 RMK CU3AC2CI2 FEW TCU SLP159=

CYQF;2005-06-24 22:00;METAR CYQF 242200Z 16011G20KT 15SM FEW040 BKN120 OVC250 17/07 A2995 RMK CU2AC4CI2 VIRGA SLP156=

CYQF;2005-06-24 23:00;METAR CYQF 242300Z 17008KT 15SM FEW040 BKN120 OVC250 17/08 A2994 RMK CU2AC4CI1 VIRGA SLP153=

CYQF;2005-06-25 00:00;METAR CYQF 250000Z 15014KT 15SM FEW040 BKN100 BKN250 17/09 A2992 RMK CU2AC4CI2 VIRGA SLP149=

CYQF;2005-06-25 01:00;METAR CYQF 250100Z 15014KT 15SM FEW040TCU BKN100 BKN250 17/09 A2990 RMK TCU2AC2CI1 VIRGA SW - NW SLP144=

CYQF;2005-06-25 02:00;METAR CYQF 250200Z 15013KT 15SM SCT040TCU BKN100 BKN250 16/09 A2990 RMK TCU3AC2CI1 SHS NW SLP142=

CYQF;2005-06-25 03:00;METAR CYQF 250300Z 14010KT 15SM FEW040TCU SCT080 BKN250 15/09 A2989 RMK TCU2AC2CI1 SLP131=

CYQF;2005-06-25 04:00;METAR CYQF 250400Z 15006KT 15SM FEW040 FEW090 SCT250 13/09 A2989 RMK SC2AC1CI1 SLP131=

CYQF;2005-06-25 05:00;METAR CYQF 250500Z 17005KT 15SM FEW040 FEW250 11/08 A2988 RMK SC1CI1 SLP130=

CYQF;2005-06-25 06:00;METAR CYQF 250600Z 00000KT 15SM FEW040 FEW250 11/08 A2988 RMK SC1CI1 SLP127=

CYQF;2005-06-25 07:00;METAR CYQF 250700Z 17008KT 15SM FEW250 10/08 A2986 RMK CI1 SLP123=

CYQF;2005-06-25 08:00;METAR CYQF 250800Z 16008KT 15SM FEW250 10/07 A2986 RMK CI1 SLP122=

CYQF;2005-06-25 09:00;METAR CYQF 250900Z 16009KT 15SM FEW100 BKN250 09/07 A2985 RMK AC1CI1 SLP119=

CYQF;2005-06-25 10:00;METAR CYQF 251000Z 16007KT 15SM FEW100 BKN250 09/06 A2985 RMK AC1CI2 SLP118=

CYQF;2005-06-25 11:00;METAR CYQF 251100Z 15004KT 15SM FEW100 BKN250 09/06 A2985 RMK AC2CI2 SLP117=

CYQF;2005-06-25 12:00;METAR CYQF 251200Z 15005KT 15SM FEW100 BKN250 09/06 A2984 RMK AC1CI2 SLP116=

CYQF;2005-06-25 13:00;METAR CYQF 251300Z 17007KT 15SM FEW100 BKN250 10/07 A2984 RMK AC1CI3 SLP116=

CYQF;2005-06-25 14:00;METAR CYQF 251400Z 16002KT 15SM SCT100 BKN250 11/07 A2985 RMK AC3CI2 SLP117=

CYQF;2005-06-25 16:00;METAR CYQF 251600Z 00000KT 15SM FEW015 BKN100 BKN250 13/09 A2984 RMK SC2AC4CI1 SLP111=

CYQF;2005-06-25 16:24;SPECI CYQF 251624Z 19003KT 15SM -SHRA FEW015 BKN100 OVC250 RMK SC2AC5CI1=

CYQF;2005-06-25 17:00;METAR CYQF 251700Z 00000KT 15SM -SHRA FEW015 BKN080 OVC250 13/10 A2983 RMK SC2AC5CI1 SLP109=

CYQF;2005-06-25 17:13;SPECI CYQF 251713Z 05003KT 15SM FEW018 BKN080 OVC250 RMK SC2AC5CI1 VIRGA W-SE=

CYQF;2005-06-25 17:36;SPECI CYQF 251736Z 03005KT 12SM -SHRA FEW018 OVC080 RMK SC2AC6=

CYQF;2005-06-25 18:00;METAR CYQF 251800Z 00000KT 10SM -SHRA SCT018 OVC080 13/09 A2983 RMK SC3AC5 VIS LWR S SLP113=

CYQF;2005-06-25 19:00;METAR CYQF 251900Z 35003KT 15SM FEW010 BKN018 OVC080 13/10 A2982 RMK SF1SC4AC3 OBS TAKEN +12 SLP111=

CYQF;2005-06-25 19:32;SPECI CYQF 251932Z 36002KT 6SM SHRA SCT010 BKN020 OVC080 RMK SF3SC3AC2=

CYQF;2005-06-25 20:00;METAR CYQF 252000Z 01005KT 6SM -SHRA BKN007 OVC015 12/11 A2981 RMK SF6SC2 SLP109=

CYQF;2005-06-25 21:00;METAR CYQF 252100Z 21010KT 6SM -TSRA BKN007 OVC015 12/11 A2982 RMK SF6SC2 CB EMBD CIG RAG SLP112=

CYQF;2005-06-25 21:34;SPECI CYQF 252134Z 01005KT 6SM -SHRA BKN007 OVC015 RMK SF5SC3 CB NE CIG RAG=

CYQF;2005-06-25 22:43;SPECI CYQF 252243Z 34008KT 15SM FEW007 OVC030 RMK SF2SC6 TCU ASOCT=

CYQF;2005-06-25 23:00;METAR CYQF 252300Z 35007KT 15SM FEW007 BKN030 OVC080 12/11 A2981 RMK SF2SC5AC1 TCU ASOCT SHS NE SLP110=

CYQF;2005-06-26 00:00;METAR CYQF 260000Z 35009KT 15SM SCT007 BKN030 OVC080 13/11 A2981 RMK SF3SC4AC1 SLP111=

CYQF;2005-06-26 01:00;METAR CYQF 260100Z 01009KT 15SM SCT007 OVC018 11/10 A2982 RMK SF3SC5 VIRGA SLP112=

CYQF;2005-06-26 01:29;SPECI CYQF 260129Z 33009KT 12SM BKN006 OVC018 RMK SF6SC2 SHS DIST S=

CYQF;2005-06-26 02:00;METAR CYQF 260200Z 33011KT 12SM BKN007 OVC018 12/10 A2983 RMK SF6SC2 SHS=

CYQF;2005-06-26 03:00;METAR CYQF 260300Z 33010KT 8SM -RA BKN007 OVC018 11/10 A2984 RMK SF6SC2 SLP118=

CYQF;2005-06-26 04:00;METAR CYQF 260400Z 31012KT 6SM -RA BKN007 OVC018 10/09 A2986 RMK SF6SC2 SLP123=

CYQF;2005-06-26 05:00;METAR CYQF 260500Z 32014G22KT 8SM -RA SCT007 OVC017 11/09 A2987 RMK SF3SC5 SLP126=

CYQF;2005-06-26 06:00;METAR CYQF 260600Z 34011KT 10SM -RA FEW008 OVC020 10/09 A2988 RMK SF2SC6 SLP132=

CYQF;2005-06-26 07:00;METAR CYQF 260700Z 33006KT 15SM -RA FEW010 BKN020 OVC050 10/09 A2989 RMK SF2SC4SC2 SLP134=

CYQF;2005-06-26 07:40;SPECI CYQF 260740Z 32010KT 15SM FEW010 BKN025 BKN050 RMK SF2SC3SC2=

CYQF;2005-06-26 08:00;METAR CYQF 260800Z 32013KT 15SM FEW010 BKN025 10/09 A2990 RMK SF2SC4 SLP137=

CYQF;2005-06-26 09:00;METAR CYQF 260900Z 31012KT 15SM FEW010 OVC020 11/09 A2991 RMK SF2SC6 SLP144=

CYQF;2005-06-26 10:00;METAR CYQF 261000Z 22010KT 15SM FEW010 OVC020 10/09 A2992 RMK SF2SC6 SLP147=

CYQF;2005-06-26 11:00;METAR CYQF 261100Z 34007KT 15SM OVC020 10/09 A2992 RMK SC8 SLP147=

CYQF;2005-06-26 12:00;METAR CYQF 261200Z 33006KT 15SM SCT010 BKN025 10/09 A2993 RMK SF3SC4 SLP149=

CYQF;2005-06-26 13:00;METAR CYQF 261300Z 34005KT 10SM BKN007 OVC025 11/10 A2994 RMK SF6SC2 SLP151=

CYQF;2005-06-26 14:00;METAR CYQF 261400Z 32004KT 10SM BKN007 BKN030 11/10 A2994 RMK SC6SC1 SLP152=

CYQF;2005-06-26 15:00;METAR CYQF 261500Z 36004KT 12SM BKN010 12/10 A2995 RMK CU7 TCU EMBD CIG RAG SLP155=

CYQF;2005-06-26 16:00;METAR CYQF 261600Z 34003KT 12SM BKN011 BKN080 13/10 A2995 RMK CU6AC1 TCU EMBD CIG RAG SLP156=

CYQF;2005-06-26 17:00;METAR CYQF 261700Z 02003KT 15SM BKN012 BKN030 BKN080 13/10 A2995 RMK CU6SC1AC1 TCU EMBD CIG RAG SHS DIST NE SLP156=

CYQF;2005-06-26 18:00;METAR CYQF 261800Z 02003KT 15SM BKN016TCU BKN100 13/09 A2995 RMK TCU6AC1 CIG RAG SHS S-SW SLP158=

CYQF;2005-06-26 18:21;SPECI CYQF 261821Z 06003KT 15SM -SHRA BKN016TCU BKN100 RMK TCU6AC2 CIG RAG VIS LWR S=

CYQF;2005-06-26 19:00;METAR CYQF 261900Z 09002KT 12SM -SHRA SCT016TCU BKN100 14/11 A2995 RMK TCU4AC3 CIG RAG SLP155=

CYQF;2005-06-26 19:40;SPECI CYQF 261940Z 09004KT 15SM FEW012 BKN024TCU BKN100 RMK CF1TCU4AC2 SHS DIST E-S-SW=

CYQF;2005-06-26 20:00;METAR CYQF 262000Z 09005KT 15SM FEW012 BKN020TCU BKN100 15/10 A2994 RMK CF1TCU4AC2 CIG RAG SLP153=

CYQF;2005-06-26 21:00;METAR CYQF 262100Z 14005KT 15SM SCT025TCU BKN100 16/09 A2994 RMK TCU4AC3 SLP148=

CYQF;2005-06-26 22:00;METAR CYQF 262200Z 12010KT 15SM SCT025TCU OVC080 15/10 A2994 RMK TCU4AC4 SHS NW S SLP149=

CYQF;2005-06-26 23:00;METAR CYQF 262300Z 14005KT 15SM -SHRA FEW025 BKN040TCU BKN080 14/11 A2994 RMK CU2TCU3AC2 SLP149=

CYQF;2005-06-26 23:33;SPECI CYQF 262333Z 00000KT 15SM FEW025TCU BKN040 BKN080 RMK TCU2SC2AC2=

CYQF;2005-06-27 00:00;METAR CYQF 270000Z 00000KT 15SM FEW025TCU BKN050 BKN090 15/11 A2994 RMK TCU2SC2AC2 SLP149=

CYQF;2005-06-27 01:00;METAR CYQF 270100Z 08010KT 15SM FEW030TCU BKN090 15/10 A2993 RMK TCU2AC2 SLP148=

CYQF;2005-06-27 02:00;METAR CYQF 270200Z 09005KT 15SM FEW030 BKN090 14/10 A2993 RMK CU2AC2 SLP148=

CYQF;2005-06-27 03:00;METAR CYQF 270300Z 07005KT 15SM FEW035 SCT090 BKN250 13/10 A2994 RMK SC2AC2CI0 SLP150=

CYQF;2005-06-27 04:00;METAR CYQF 270400Z 00000KT 15SM FEW080 BKN250 12/09 A2995 RMK AC2CI1 SLP153=

CYQF;2005-06-27 05:00;METAR CYQF 270500Z 04002KT 15SM FEW040 BKN080 12/09 A2996 RMK SC2AC6 SLP157=

CYQF;2005-06-27 06:00;METAR CYQF 270600Z 05002KT 15SM BKN080 12/10 A2996 RMK AC7 SLP158=

CYQF;2005-06-27 07:00;METAR CYQF 270700Z 06002KT 15SM SCT080 BKN250 12/10 A2995 RMK AC3CI2 SLP156=

CYQF;2005-06-27 08:00;METAR CYQF 270800Z 11004KT 15SM SCT075 BKN250 12/09 A2995 RMK AC4CI2 SLP156=

CYQF;2005-06-27 09:00;METAR CYQF 270900Z 10003KT 15SM SCT075 BKN250 11/09 A2995 RMK AC4CI2 SLP154=

CYQF;2005-06-27 10:00;METAR CYQF 271000Z 11004KT 15SM SCT080 BKN250 11/09 A2996 RMK AC3CI2 SLP155=

CYQF;2005-06-27 11:00;METAR CYQF 271100Z 00000KT 15SM FEW045 SCT080 BKN250 10/09 A2996 RMK SC2AC2CI2 SLP157=

CYQF;2005-06-27 12:00;METAR CYQF 271200Z 00000KT 15SM SCT080 BKN250 09/08 A2998 RMK AC4CI2 ACC EMBDD SLP166=

CYQF;2005-06-27 13:00;METAR CYQF 271300Z 14003KT 15SM SCT080 BKN120 BKN250 11/09 A2999 RMK AC3AC2CI1 SLP168=

CYQF;2005-06-27 14:00;METAR CYQF 271400Z 14007KT 15SM FEW080 BKN120 BKN250 12/09 A2998 RMK AC2AC3CI2 SLP167=

CYQF;2005-06-27 15:00;METAR CYQF 271500Z 14009KT 15SM FEW080 BKN120 OVC250 13/10 A2999 RMK AC2AC3CI2 VIRGA W SLP166=

CYQF;2005-06-27 16:00;METAR CYQF 271600Z 16010KT 15SM FEW010 BKN080 OVC250 14/10 A2999 RMK CF1AC4CI2 SLP167=

CYQF;2005-06-27 17:00;METAR CYQF 271700Z 15010G15KT 15SM SCT020 OVC100 15/10 A2999 RMK CU4AS3 SLP167=

CYQF;2005-06-27 18:00;METAR CYQF 271800Z 16010G15KT 15SM BKN024 BKN100 16/10 A2999 RMK CU5AC2 SLP163=

CYQF;2005-06-27 19:00;METAR CYQF 271900Z 15008KT 15SM SCT028 BKN120 BKN250 18/10 A2998 RMK CU4AC1CI1 SLP161=

CYQF;2005-06-27 20:00;METAR CYQF 272000Z 14010KT 15SM BKN030 BKN120 17/10 A2998 RMK CU5AC1 TCU ASOCT SHS DIST N SLP160=

CYQF;2005-06-27 21:00;METAR CYQF 272100Z 17012KT 15SM BKN040 BKN120 19/09 A2996 RMK CU5AC2 TCU ASOCT SLP154=

CYQF;2005-06-27 22:00;METAR CYQF 272200Z 13007KT 15SM SCT040TCU BKN060 18/11 A2997 RMK TCU4SC3 SLP155=

CYQF;2005-06-27 23:00;METAR CYQF 272300Z 12009KT 15SM SCT040TCU BKN060 18/10 A2996 RMK TCU4SC3 SHS DIST NW SLP152=

CYQF;2005-06-27 23:17;SPECI CYQF 272317Z 12010KT 15SM SCT040TCU BKN060 BKN250 RMK TCU3SC2CI1 SHS NW=

CYQF;2005-06-28 00:00;METAR CYQF 280000Z 12010G15KT 15SM SCT040TCU BKN060 BKN250 18/10 A2995 RMK TCU3SC2CI1 SHS NW SLP155=

CYQF;2005-06-28 01:00;METAR CYQF 280100Z 11010KT 15SM SCT040 BKN090 BKN250 17/10 A2995 RMK SC3AC3CI1 TCU ASOCTD SLP153=

CYQF;2005-06-28 02:00;METAR CYQF 280200Z 10010KT 15SM FEW040 BKN090 BKN250 17/11 A2995 RMK SC2AC3CI2 TCU ASOCTD SLP154=

CYQF;2005-06-28 03:00;METAR CYQF 280300Z 09005KT 15SM FEW040 BKN090 BKN250 16/11 A2995 RMK SC2AC2CI2 TCU ASOCTD SLP150=

CYQF;2005-06-28 04:00;METAR CYQF 280400Z 17002KT 15SM SCT040 BKN090 BKN250 15/11 A2997 RMK SC3AC2CI2 SLP155=

CYQF;2005-06-28 05:00;METAR CYQF 280500Z 00000KT 15SM BKN035 BKN090 14/11 A2997 RMK SC5AC2 SLP157=

CYQF;2005-06-28 06:00;METAR CYQF 280600Z 07003KT 15SM FEW035 BKN090 14/12 A2998 RMK SC2AC5 SLP160=

CYQF;2005-06-28 07:00;METAR CYQF 280700Z 07003KT 15SM SCT090 BKN250 13/10 A2998 RMK AC4CI3 SLP159=

CYQF;2005-06-28 08:00;METAR CYQF 280800Z 07004KT 15SM SCT090 BKN250 13/09 A2997 RMK AC4CI2 SLP157=

CYQF;2005-06-28 09:00;METAR CYQF 280900Z 05006KT 15SM FEW090 BKN250 12/09 A2997 RMK AC2CI3 SLP154=

CYQF;2005-06-28 10:00;METAR CYQF 281000Z 06005KT 15SM FEW090 BKN250 11/08 A2996 RMK AC2CI3 SLP151=

CYQF;2005-06-28 11:00;METAR CYQF 281100Z 00000KT 15SM FEW090 SCT120 BKN250 11/08 A2995 RMK AC2AC2CI2 SLP149=

CYQF;2005-06-28 12:00;METAR CYQF 281200Z 03002KT 15SM FEW090 SCT120 BKN250 11/09 A2995 RMK AC2AC2CI2 SLP152=

CYQF;2005-06-28 13:00;METAR CYQF 281300Z 05002KT 15SM SCT090 BKN120 BKN250 11/09 A2996 RMK AC3AC2CI2 SLP153=

CYQF;2005-06-28 14:00;METAR CYQF 281400Z 05006KT 15SM FEW090 BKN120 BKN250 12/09 A2996 RMK AC2AC3CI2 SLP155=

CYQF;2005-06-28 15:00;METAR CYQF 281500Z 05008KT 15SM FEW020 FEW070 BKN120 OVC250 12/09 A2997 RMK CU1AC2AC3CI1 SLP159=

CYQF;2005-06-28 16:00;METAR CYQF 281600Z 07010KT 15SM FEW020 FEW080 SCT120 OVC250 14/09 A2998 RMK CU1AC1AC2CI2 SLP161=

CYQF;2005-06-28 17:00;METAR CYQF 281700Z 06010KT 15SM SCT020 BKN120 OVC250 14/09 A2999 RMK CU3AC3CI1 SLP163=

CYQF;2005-06-28 18:00;METAR CYQF 281800Z 09007KT 15SM BKN025 OVC100 15/08 A2998 RMK CU5AC2 SLP162=

CYQF;2005-06-28 19:00;METAR CYQF 281900Z 06005KT 15SM BKN025 OVC040 14/09 A2999 RMK CU5SC3 SLP163=

CYQF;2005-06-28 20:00;METAR CYQF 282000Z 05005KT 15SM BKN030 OVC050 14/09 A2998 RMK CU5SC3 TCU ASOCT SLP162=

CYQF;2005-06-28 21:00;METAR CYQF 282100Z 05007KT 15SM BKN030TCU OVC050 15/08 A2998 RMK TCU5SC3 SLP162=

CYQF;2005-06-28 22:00;METAR CYQF 282200Z 05010KT 15SM SCT030 OVC060 15/08 A2998 RMK CU4SC4 SLP163=

CYQF;2005-06-28 23:00;METAR CYQF 282300Z 07007KT 15SM SCT030 BKN060 OVC100 15/08 A2998 RMK CU3SC3CI1 SLP164=

CYQF;2005-06-29 00:00;METAR CYQF 290000Z 05005KT 15SM FEW030 SCT060 BKN100 16/09 A2999 RMK CU2SC2AC2 SLP166=

CYQF;2005-06-29 01:00;METAR CYQF 290100Z 07008KT 15SM FEW030 BKN060 BKN120 16/07 A2999 RMK CU2SC3AC1 SLP167=

CYQF;2005-06-29 02:00;METAR CYQF 290200Z 02004KT 15SM FEW030 SCT060 BKN100 15/08 A3000 RMK CU2SC2AC2 SLP169=

CYQF;2005-06-29 03:00;METAR CYQF 290300Z 04004KT 15SM FEW030 FEW060 SCT100 BKN250 14/08 A3000 RMK CU1SC1AC2CI1 TR CU SLP171=

CYQF;2005-06-29 04:00;METAR CYQF 290400Z 00000KT 15SM FEW060 BKN100 BKN250 13/08 A3001 RMK SC1AC3CI2 SLP172=

CYQF;2005-06-29 05:00;METAR CYQF 290500Z 00000KT 15SM FEW060 SCT100 BKN250 12/08 A3000 RMK SC1AC3CI1 SLP171=

CYQF;2005-06-29 06:00;METAR CYQF 290600Z 29002KT 15SM FEW060 SCT100 SCT250 11/08 A3001 RMK SC1AC2CI0 SLP173=

CYQF;2005-06-29 07:00;METAR CYQF 290700Z 28003KT 15SM FEW100 09/08 A3001 RMK AC1 SLP174=

CYQF;2005-06-29 08:00;METAR CYQF 290800Z 28003KT 15SM FEW100 08/07 A3001 RMK AC2 SLP174=

CYQF;2005-06-29 09:00;METAR CYQF 290900Z 28005KT 15SM FEW100 07/06 A3000 RMK AC2 SLP177=

CYQF;2005-06-29 10:00;METAR CYQF 291000Z 29003KT 15SM FEW100 07/06 A2999 RMK AC2 SLP174=

CYQF;2005-06-29 11:00;METAR CYQF 291100Z 20003KT 15SM MIFG FEW100 05/05 A3000 RMK AC2 SLP176=

CYQF;2005-06-29 12:00;METAR CYQF 291200Z 00000KT 15SM MIFG FEW100 06/05 A3001 RMK AC2 FG BNK S SLP178=

CYQF;2005-06-29 13:00;METAR CYQF 291300Z 00000KT 15SM FEW100 07/07 A3002 RMK AC1 SLP181=

CYQF;2005-06-29 14:00;METAR CYQF 291400Z 00000KT 15SM FEW100 10/09 A3002 RMK AC1 HZ SLP181=

CYQF;2005-06-29 15:00;METAR CYQF 291500Z 00000KT 15SM SKC 14/10 A3003 RMK HZ SLP177=

CYQF;2005-06-29 16:00;METAR CYQF 291600Z 08003KT 15SM FEW025 16/09 A3003 RMK CF1 SLP177=

CYQF;2005-06-29 17:00;METAR CYQF 291700Z 06003KT 15SM FEW030 17/10 A3003 RMK CF2 SLP177=

CYQF;2005-06-29 18:00;METAR CYQF 291800Z 00000KT 15SM FEW040 18/08 A3002 RMK CU2 SLP174=

CYQF;2005-06-29 19:00;METAR CYQF 291900Z 05004KT 15SM FEW040 18/08 A3002 RMK CU2 SLP174=

CYQF;2005-06-29 20:00;METAR CYQF 292000Z 06003KT 15SM SCT045 19/08 A3002 RMK CU3 SLP173=

CYQF;2005-06-29 21:00;METAR CYQF 292100Z 13003KT 15SM SCT045 19/07 A3001 RMK CU3 TCU W SLP174=

CYQF;2005-06-29 22:00;METAR CYQF 292200Z 09008KT 15SM FEW045 20/10 A3000 RMK CU2 TCU W SLP172=

CYQF;2005-06-29 23:00;METAR CYQF 292300Z 00000KT 15SM FEW045 FEW080 SCT240 20/08 A3000 RMK CU2AC1CI1 SLP171=

CYQF;2005-06-30 00:00;METAR CYQF 300000Z 21002KT 15SM FEW045 FEW080 SCT240 21/08 A2999 RMK CU1AC2CI0 TCU SW SLP167=

CYQF;2005-06-30 01:00;METAR CYQF 300100Z 16005KT 15SM FEW080 BKN240 20/08 A2998 RMK AC1CI2 SLP164=

CYQF;2005-06-30 02:00;METAR CYQF 300200Z 17005KT 15SM FEW080 SCT240 20/10 A2999 RMK AC1CI2 SLP166=

CYQF;2005-06-30 03:00;METAR CYQF 300300Z 18006KT 15SM FEW080 SCT240 18/10 A2999 RMK AC1CI2 TCU NW SLP160=

CYQF;2005-06-30 04:00;METAR CYQF 300400Z 17005KT 15SM FEW080 FEW240 16/10 A2999 RMK AC2CI1 TCU W SLP160=

CYQF;2005-06-30 05:00;METAR CYQF 300500Z 16002KT 15SM FEW080 BKN240 14/10 A3000 RMK AC2CI2 SLP164=

CYQF;2005-06-30 06:00;METAR CYQF 300600Z 20003KT 15SM FEW080 SCT240 12/10 A3000 RMK AC2CI2 TCU SW SLP168=

CYQF;2005-06-30 08:00;METAR CYQF 300800Z 16006KT 15SM SCT080 BKN250 13/11 A2997 RMK AC3CI2 SLP159=

CYQF;2005-06-30 09:00;METAR CYQF 300900Z 29006KT 15SM SCT100 BKN250 13/11 A2998 RMK AC3CI1 SLP158=

CYQF;2005-06-30 10:00;METAR CYQF 301000Z 00000KT 15SM FEW100 SCT250 12/10 A2997 RMK AC2CI1 SLP155=

CYQF;2005-06-30 11:00;METAR CYQF 301100Z 17004KT 15SM FEW100 FEW250 10/09 A2996 RMK AC2CI0 SLP152=

CYQF;2005-06-30 12:00;METAR CYQF 301200Z 00000KT 15SM FEW100 FEW250 10/09 A2996 RMK AC2CI0 SLP154=

CYQF;2005-06-30 13:00;METAR CYQF 301300Z 00000KT 15SM FEW080 SCT250 12/10 A2995 RMK AC1CI1 SLP150=

CYQF;2005-06-30 14:00;METAR CYQF 301400Z 17008KT 15SM FEW080 SCT250 14/11 A2994 RMK AC1CI1 SLP147=

CYQF;2005-06-30 15:00;METAR CYQF 301500Z 16010KT 15SM FEW080 BKN120 BKN250 16/12 A2993 RMK AC1AC4CI1 SLP139=

CYQF;2005-06-30 17:00;METAR CYQF 301700Z 15010KT 15SM FEW025 SCT120 BKN250 19/13 A2991 RMK CU1AC3CI1 SLP133=

CYQF;2005-06-30 18:00;METAR CYQF 301800Z 22007KT 15SM FEW030 FEW090 BKN250 20/13 A2991 RMK CU1AC1CI2 TCU W SLP132=

CYQF;2005-06-30 19:00;METAR CYQF 301900Z 23008KT 15SM FEW035TCU SCT250 21/12 A2989 RMK TCU2CI1 SLP128=

CYQF;2005-06-30 20:00;METAR CYQF 302000Z 15003KT 15SM FEW040TCU SCT100 BKN250 22/13 A2988 RMK TCU2AC1CI1 SLP123=

CYQF;2005-06-30 21:00;METAR CYQF 302100Z 24005KT 15SM FEW040TCU SCT100 BKN250 22/11 A2986 RMK TCU2AC1CI2 CB DSNT W SLP112=

CYQF;2005-06-30 22:00;METAR CYQF 302200Z 21003KT 15SM BKN040CB BKN100 BKN250 22/11 A2985 RMK CB5AC1CI1 SH DSNT W SLP110=

CYQF;2005-06-30 23:00;METAR CYQF 302300Z 30004KT 15SM VCSH BKN040CB BKN100 BKN250 22/12 A2984 RMK CB5AC1CI1 SLP106=

CYQF;2005-07-01 00:00;METAR CYQF 010000Z 34002KT 15SM SCT040CB BKN090 BKN250 22/11 A2982 RMK CB4AC1CI1 SH N-E-S SLP102=

CYQF;2005-07-01 02:00;METAR CYQF 010200Z 01008KT 15SM SCT040TCU BKN100 BKN250 18/12 A2982 RMK TCU3AC2CI0 SHS W-SW SLP102=

CYQF;2005-07-01 03:24;SPECI CYQF 010324Z 03005KT 15SM TS BKN040CB BKN100 RMK CB5AC2 CB W-SW LTGCG=

CYQF;2005-07-01 03:51;SPECI CYQF 010351Z 24015G20KT 10SM -TSRA SCT020CB BKN040 BKN100 RMK CB4SC2AC1 CB MVG E LTGCG=

CYQF;2005-07-01 04:00;METAR CYQF 010400Z 25020G30KT 3SM TSRA BKN020CB BKN040 BKN100 16/13 A2987 RMK CB5SC2AC1 LTGCG PRESSRR SLP114=

CYQF;2005-07-01 04:16;SPECI CYQF 010416Z 23013G20KT 3SM +TSRA BKN020CB OVC040 RMK CB7SC1 PRESRR LTGCGIG=

CYQF;2005-07-01 04:25;SPECI CYQF 010425Z 21008KT 5SM TSRA BKN020CB OVC040 RMK CB7SC1 LTGCG=

CYQF;2005-07-01 05:00;METAR CYQF 010500Z 11005KT 10SM -TSRA BKN020 BKN040CB BKN100 13/12 A2987 RMK SF6CB2AC1 CB E SLP115=

CYQF;2005-07-01 05:14;SPECI CYQF 010514Z 04008KT 12SM -SHRA BKN020 BKN040CB BKN100 RMK SF5CB2AC1 RETSRA CB E VIS LWR E=

CYQF;2005-07-01 05:40;SPECI CYQF 010540Z 00000KT 15SM SCT020 BKN040TCU BKN100 RMK SF3TCU2AC1 RETS CB E=

CYQF;2005-07-01 06:00;METAR CYQF 010600Z 00000KT 15SM FEW020 SCT040TCU BKN100 13/11 A2984 RETS RMK SF2TCU2AC1 CB E SLP108=

CYQF;2005-07-01 07:00;METAR CYQF 010700Z 27005KT 15SM FEW100 SCT250 10/10 A2984 RMK AC2CI1 SLP107=

CYQF;2005-07-01 08:00;METAR CYQF 010800Z 27006KT 15SM FEW100 SCT250 11/10 A2983 RMK AC2CI1 SLP105=

CYQF;2005-07-01 09:00;METAR CYQF 010900Z 21005KT 15SM FEW100 SCT250 10/09 A2983 RMK AC2CI1 SLP103=

CYQF;2005-07-01 10:00;METAR CYQF 011000Z 24005KT 15SM FEW100 SCT250 09/09 A2982 RMK AC2CI1 SLP102=

CYQF;2005-07-01 11:00;METAR CYQF 011100Z 21005KT 15SM FEW050 SCT100 SCT250 09/08 A2982 RMK SC2AC2CI0 SLP101=

CYQF;2005-07-01 12:00;METAR CYQF 011200Z 00000KT 15SM FEW050 FEW100 SCT250 08/08 A2982 RMK SC1AC2CI0 SLP102=

CYQF;2005-07-01 13:00;METAR CYQF 011300Z 00000KT 15SM FEW050 FEW250 10/09 A2981 RMK SC2CI0 SLP099=

CYQF;2005-07-01 14:00;METAR CYQF 011400Z 34004KT 15SM FEW050 FEW250 13/11 A2981 RMK SC2CI0 SLP099=

CYQF;2005-07-01 15:00;METAR CYQF 011500Z 00000KT 15SM FEW100 FEW250 15/12 A2980 RMK AC1CI1 TR CI SLP093=

CYQF;2005-07-01 16:00;METAR CYQF 011600Z 03002KT 15SM FEW020 FEW100 FEW250 17/12 A2980 RMK CU1AC1CI1 TR CLD SLP093=

CYQF;2005-07-01 17:00;METAR CYQF 011700Z 34003KT 15SM FEW030 FEW100 FEW250 18/10 A2980 RMK CU1AC1CI1 TR CI SLP093=

CYQF;2005-07-01 18:00;METAR CYQF 011800Z 34004KT 15SM FEW035 SCT100 19/10 A2979 RMK CU1AC2 SLP092=

CYQF;2005-07-01 19:00;METAR CYQF 011900Z 33003KT 15SM FEW040TCU SCT100 20/10 A2978 RMK TCU2AC1 SLP088=

CYQF;2005-07-01 20:00;METAR CYQF 012000Z 28003KT 15SM FEW035TCU SCT250 20/11 A2977 RMK TCU2CI0 CB EMBD SW-NW SLP085=

CYQF;2005-07-01 21:00;METAR CYQF 012100Z 33004KT 15SM SCT040TCU SCT250 21/10 A2976 RMK TCU3CI0 CB W-NW SLP080=

CYQF;2005-07-01 22:00;METAR CYQF 012200Z 26004KT 15SM BKN040TCU BKN100 BKN250 21/11 A2976 RMK TCU5AC1CI1 CB EMBD SHS W-N SLP081=

CYQF;2005-07-02 00:00;METAR CYQF 020000Z 35008KT 15SM SCT040CB 19/10 A2975 RMK CB3 SLP082=

CYQF;2005-07-02 01:00;METAR CYQF 020100Z 35005KT 15SM SCT050TCU BKN090 18/11 A2976 RMK TCU4AC2 SHWRS W SLP084=

CYQF;2005-07-02 02:00;METAR CYQF 020200Z 02005KT 15SM SCT050TCU BKN090 19/10 A2976 RMK TCU3AC3 VIRGA SLP086=

CYQF;2005-07-02 02:36;SPECI CYQF 020236Z 00000KT 15SM TS BKN050CB BKN090 RMK CB5AC2 SHRA SW=

CYQF;2005-07-02 03:00;METAR CYQF 020300Z 00000KT 15SM -TSRA BKN050CB BKN090 16/10 A2977 RMK CB5AC2 SLP084=

CYQF;2005-07-02 03:21;SPECI CYQF 020321Z 19005KT 15SM SCT050CB BKN090 RMK CB4AC2 SHRA SE=

CYQF;2005-07-02 04:00;METAR CYQF 020400Z 36003KT 15SM FEW050TCU FEW090 15/12 A2976 RMK TCU2AC1 RETS SHRA NW SLP082=

CYQF;2005-07-02 05:00;METAR CYQF 020500Z 33004KT 15SM SCT050 BKN090 13/11 A2977 RMK SC4AC2 TCU EMBD SLP084=

CYQF;2005-07-02 06:00;METAR CYQF 020600Z 28004KT 15SM FEW050 FEW090 12/10 A2977 RMK SC2AC1 SLP087=

CYQF;2005-07-02 07:00;METAR CYQF 020700Z 14003KT 15SM FEW050 FEW090 10/09 A2976 RMK SC2AC1 SLP084=

CYQF;2005-07-02 08:00;METAR CYQF 020800Z 26004KT 15SM FEW050 FEW090 09/08 A2976 RMK SC1AC1 SLP081=

CYQF;2005-07-02 09:00;METAR CYQF 020900Z 30003KT 15SM FEW090 09/08 A2975 RMK AC1 SLP078=

CYQF;2005-07-02 10:00;METAR CYQF 021000Z 20003KT 15SM FEW040 FEW090 BKN240 08/07 A2974 RMK SC1AC1CI1 SLP076=

CYQF;2005-07-02 11:00;METAR CYQF 021100Z 00000KT 15SM FEW040 FEW090 BKN240 08/07 A2974 RMK SC2AC1CI1 SLP075=

CYQF;2005-07-02 12:00;METAR CYQF 021200Z 00000KT 15SM FEW040 SCT090 BKN240 08/08 A2974 RMK SC2AC1CI1 TCU EMBD SLP078=

CYQF;2005-07-02 13:00;METAR CYQF 021300Z 00000KT 15SM FEW040 SCT090 BKN240 11/08 A2973 RMK SC2AC2CI1 TCU EMBD SLP077=

CYQF;2005-07-02 14:00;METAR CYQF 021400Z 00000KT 15SM SCT040 SCT090 BKN240 12/10 A2973 RMK SC3AC1CI1 TCU EMBD SHS DIST S SLP077=

CYQF;2005-07-02 16:00;METAR CYQF 021600Z 31007KT 15SM BKN040TCU BKN070 OVC240 14/09 A2975 RMK TCU5AC2CI1 SHS DIST SE-SW SLP082=

CYQF;2005-07-02 17:00;METAR CYQF 021700Z 30007KT 15SM SCT040TCU BKN080 OVC240 15/09 A2976 RMK TCU3AC3CI1 SHS DIST SE-SW SLP083=

CYQF;2005-07-02 18:00;METAR CYQF 021800Z 34009G18KT 15SM SCT040TCU BKN080 OVC240 15/08 A2976 RMK TCU3AC3CI1 SHS DIST SE-S SLP086=

CYQF;2005-07-02 19:00;METAR CYQF 021900Z 33010KT 15SM FEW040TCU BKN080 BKN240 15/08 A2976 RMK TCU2AC2CI2 SLP086=

CYQF;2005-07-02 20:00;METAR CYQF 022000Z 32008KT 15SM SCT040TCU BKN080 OVC240 16/08 A2976 RMK TCU3AC2CI2 SLP087=

CYQF;2005-07-02 21:00;METAR CYQF 022100Z 31006KT 15SM FEW040TCU BKN090 OVC240 16/08 A2976 RMK TCU2AC2CI2 SLP087=

CYQF;2005-07-02 22:00;METAR CYQF 022200Z 30010KT 15SM FEW040 BKN090 OVC250 17/08 A2976 RMK CU2AC2CI2 TCU ASOCTD SLP087=

CYQF;2005-07-03 00:00;METAR CYQF 030000Z 29010G15KT 15SM FEW040TCU SCT100 BKN250 19/09 A2975 RMK TCU2AC1CI1 SLP082=

CYQF;2005-07-03 01:00;METAR CYQF 030100Z 26008KT 15SM FEW040 FEW100 SCT250 17/09 A2975 RMK CU2AC1CI0 SLP081=

CYQF;2005-07-03 02:00;METAR CYQF 030200Z 28008KT 15SM FEW040 FEW100 SCT250 17/09 A2975 RMK CU1AC1CI1 SLP082=

CYQF;2005-07-03 04:00;METAR CYQF 030400Z 25003KT 15SM FEW050 SCT250 12/09 A2976 RMK SC1CI1 SLP087=

CYQF;2005-07-03 05:00;METAR CYQF 030500Z 26005KT 15SM FEW050 10/08 A2978 RMK SC1 SLP091=

CYQF;2005-07-03 06:00;METAR CYQF 030600Z 25006KT 15SM FEW050 10/07 A2978 RMK SC1 SLP097=

CYQF;2005-07-03 07:00;METAR CYQF 030700Z 26006KT 15SM FEW050 10/06 A2979 RMK SC1 SLP099=

CYQF;2005-07-03 08:00;METAR CYQF 030800Z 27007KT 15SM FEW050 09/06 A2981 RMK SC2 SLP105=

CYQF;2005-07-03 09:00;METAR CYQF 030900Z 30010G15KT 15SM FEW050 11/06 A2982 RMK SC2 SLP107=

CYQF;2005-07-03 10:00;METAR CYQF 031000Z 30010G15KT 15SM FEW050 10/05 A2983 RMK SC1 SLP110=

CYQF;2005-07-03 11:00;METAR CYQF 031100Z 30007KT 15SM FEW050 09/05 A2985 RMK SC1 SLP116=

CYQF;2005-07-03 12:00;METAR CYQF 031200Z 00000KT 15SM FEW050 07/04 A2987 RMK SC1 SLP126=

CYQF;2005-07-03 13:00;METAR CYQF 031300Z 00000KT 15SM FEW050 10/05 A2989 RMK SC1 SLP132=

CYQF;2005-07-03 14:00;METAR CYQF 031400Z 33003KT 15SM FEW050 12/06 A2990 RMK SC1 SLP136=

CYQF;2005-07-03 15:00;METAR CYQF 031500Z 33010KT 15SM FEW050 15/06 A2991 RMK SC1 SLP136=

CYQF;2005-07-03 16:00;METAR CYQF 031600Z 35011KT 15SM FEW050 15/06 A2992 RMK CU1 SLP137=

CYQF;2005-07-03 17:00;METAR CYQF 031700Z 35006KT 15SM FEW050 16/06 A2992 RMK CU1 SLP139=

CYQF;2005-07-03 18:00;METAR CYQF 031800Z 35005KT 15SM FEW050 17/06 A2992 RMK CU1 SLP141=

CYQF;2005-07-03 19:00;METAR CYQF 031900Z 00000KT 15SM FEW050 18/06 A2992 RMK CU2 SLP142=

CYQF;2005-07-03 20:00;METAR CYQF 032000Z 30002KT 15SM FEW050 FEW100 19/06 A2992 RMK CU1AC1 SLP140=

CYQF;2005-07-03 21:00;METAR CYQF 032100Z 00000KT 15SM FEW050 FEW100 19/07 A2992 RMK CU2AC0 SLP138=

CYQF;2005-07-04 00:00;METAR CYQF 040000Z 15007KT 15SM SCT055CB BKN100 20/06 A2991 RMK CB3AC2 SHRA SW+N SLP137=

CYQF;2005-07-04 01:00;METAR CYQF 040100Z 05007KT 15SM FEW055TCU SCT100 19/08 A2992 RMK TCU2AC2 CB TOPS S+NE SLP140=

CYQF;2005-07-04 02:00;METAR CYQF 040200Z 10006KT 15SM FEW055TCU FEW080 18/09 A2992 RMK TCU2AC1 SLP142=

CYQF;2005-07-04 03:00;METAR CYQF 040300Z 13004KT 15SM FEW050TCU FEW080 17/10 A2993 RMK TCU1AC2 SLP139=

CYQF;2005-07-04 04:00;METAR CYQF 040400Z 00000KT 15SM FEW050 15/09 A2993 RMK SC2 TCU E SLP141=

CYQF;2005-07-04 05:00;METAR CYQF 040500Z 18002KT 15SM SCT060 12/08 A2994 RMK SC3 SLP143=

CYQF;2005-07-04 06:00;METAR CYQF 040600Z 00000KT 15SM FEW060 BKN100 12/09 A2995 RMK SC2AC3 SLP151=

CYQF;2005-07-04 07:00;METAR CYQF 040700Z 23002KT 15SM FEW060 BKN100 12/09 A2996 RMK SC1AC4 SLP155=

CYQF;2005-07-04 08:00;METAR CYQF 040800Z 22002KT 15SM FEW100 09/07 A2996 RMK AC1 SLP154=

CYQF;2005-07-04 09:00;METAR CYQF 040900Z 18003KT 15SM FEW100 BKN250 10/07 A2996 RMK AC2CI1 SLP153=

CYQF;2005-07-04 10:00;METAR CYQF 041000Z 18004KT 15SM BKN100 09/07 A2996 RMK AC3 SLP153=

CYQF;2005-07-04 11:00;METAR CYQF 041100Z 20005KT 15SM BKN100 BKN250 08/07 A2996 RMK AC6CI1 SLP154=

CYQF;2005-07-04 12:00;METAR CYQF 041200Z 20007KT 15SM FEW100 SCT250 08/06 A2997 RMK AC2CI1 SLP157=

CYQF;2005-07-04 13:00;METAR CYQF 041300Z 21002KT 15SM FEW100 SCT250 09/08 A2997 RMK AC1CI1 SLP159=

CYQF;2005-07-04 14:00;METAR CYQF 041400Z 21002KT 15SM FEW100 BKN250 13/08 A2998 RMK AC1CI2 SLP160=

CYQF;2005-07-04 15:00;METAR CYQF 041500Z 21004KT 15SM FEW100 BKN250 15/10 A2998 RMK AC2CI3 SLP159=

CYQF;2005-07-04 16:00;METAR CYQF 041600Z 22005KT 15SM FEW100 BKN250 17/11 A2998 RMK AC1CI2 SLP159=

CYQF;2005-07-04 17:00;METAR CYQF 041700Z 24004KT 15SM FEW100 SCT250 19/08 A2998 RMK AC1CI1 SLP159=

CYQF;2005-07-04 18:00;METAR CYQF 041800Z 24007KT 15SM FEW060 FEW100 FEW250 21/10 A2998 RMK CU1AC1CI0 TR CU SLP157=

CYQF;2005-07-04 19:00;METAR CYQF 041900Z 28004KT 15SM FEW050 FEW250 22/07 A2997 RMK CU1CI1 SLP154=

CYQF;2005-07-04 20:00;METAR CYQF 042000Z 28003KT 15SM FEW050 FEW250 22/11 A2996 RMK CU1CI1 SLP152=

CYQF;2005-07-04 21:00;METAR CYQF 042100Z 28002KT 15SM FEW050 FEW250 23/10 A2996 RMK CU1CI1 SLP149=

CYQF;2005-07-04 22:00;METAR CYQF 042200Z 15005KT 15SM FEW050 SCT250 23/10 A2995 RMK CU1CI1 SLP147=

CYQF;2005-07-04 23:00;METAR CYQF 042300Z 19003KT 15SM FEW050 SCT250 25/10 A2995 RMK CU1CI1 SLP146=

CYQF;2005-07-05 00:00;METAR CYQF 050000Z 16004KT 15SM FEW050 SCT250 24/11 A2995 RMK CU1CI1 SLP145=

CYQF;2005-07-05 01:00;METAR CYQF 050100Z 16006KT 15SM FEW050 SCT250 24/11 A2994 RMK CU2CI2 SLP143=

CYQF;2005-07-05 02:00;METAR CYQF 050200Z 14005KT 15SM FEW050 SCT250 23/12 A2994 RMK SC1CI2 SLP144=

CYQF;2005-07-05 03:00;METAR CYQF 050300Z 12004KT 15SM FEW050 FEW250 22/12 A2994 RMK SC1CI0 SLP139=

CYQF;2005-07-05 04:00;METAR CYQF 050400Z 15004KT 15SM FEW050 FEW250 18/12 A2994 RMK SC1CI0 SLP139=

CYQF;2005-07-05 05:00;METAR CYQF 050500Z 19003KT 15SM FEW060 FEW250 14/11 A2995 RMK SC1CI0 SLP141=

CYQF;2005-07-05 06:00;METAR CYQF 050600Z 25005KT 15SM SKC 14/11 A2995 RMK SLP146=

CYQF;2005-07-05 07:00;METAR CYQF 050700Z 20005KT 15SM SKC 12/10 A2997 RMK SLP150=

CYQF;2005-07-05 08:00;METAR CYQF 050800Z 20005KT 15SM SKC 11/08 A2996 RMK SLP149=

CYQF;2005-07-05 09:00;METAR CYQF 050900Z 23002KT 15SM SKC 10/08 A2996 RMK SLP148=

CYQF;2005-07-05 10:00;METAR CYQF 051000Z 18002KT 15SM FEW250 10/07 A2995 RMK CI0 SLP146=

CYQF;2005-07-05 11:00;METAR CYQF 051100Z 25002KT 15SM SCT250 10/07 A2995 RMK CI0 SLP144=

CYQF;2005-07-05 12:00;METAR CYQF 051200Z 00000KT 15SM FEW100 BKN250 10/07 A2995 RMK AC1CI1 TR AC SLP145=

CYQF;2005-07-05 13:00;METAR CYQF 051300Z 19002KT 15SM FEW100 BKN250 11/08 A2995 RMK AC1CI2 TR AC SLP145=

CYQF;2005-07-05 14:00;METAR CYQF 051400Z 21004KT 15SM FEW100 BKN250 13/10 A2995 RMK AC1CI2 SLP144=

CYQF;2005-07-05 15:00;METAR CYQF 051500Z 21004KT 15SM FEW100 SCT250 17/12 A2994 RMK AC1CI2 SLP136=

CYQF;2005-07-05 16:00;METAR CYQF 051600Z 20005KT 15SM FEW100 SCT250 20/12 A2993 RMK AC1CI2 SLP131=

CYQF;2005-07-05 17:00;METAR CYQF 051700Z 17006KT 15SM FEW050 SCT250 23/10 A2991 RMK CU1CI2 SLP125=

CYQF;2005-07-05 18:00;METAR CYQF 051800Z 18007KT 15SM FEW050 SCT250 24/11 A2989 RMK CU1CI2 SLP119=

CYQF;2005-07-05 19:00;METAR CYQF 051900Z 15008KT 15SM FEW050 BKN250 25/10 A2987 RMK CU1CI2 SLP113=

CYQF;2005-07-05 20:00;METAR CYQF 052000Z 15008KT 15SM FEW050 BKN250 26/13 A2985 RMK CU1CI2 SLP106=

CYQF;2005-07-05 21:00;METAR CYQF 052100Z 17009KT 15SM FEW050 BKN250 27/11 A2983 RMK CU1CI2 SLP101=

CYQF;2005-07-05 22:00;METAR CYQF 052200Z 15011KT 15SM FEW050 BKN250 27/13 A2981 RMK CU1CI2 SLP094=

CYQF;2005-07-05 23:00;METAR CYQF 052300Z 15014KT 15SM FEW050 BKN250 26/12 A2979 RMK CU1CI2 SLP088=

CYQF;2005-07-06 00:00;METAR CYQF 060000Z 15013KT 15SM FEW050 BKN250 26/13 A2977 RMK CU1CI2 SLP079=

CYQF;2005-07-06 01:00;METAR CYQF 060100Z 17013KT 15SM FEW050 BKN250 25/14 A2975 RMK CU1CI2 SLP073=

CYQF;2005-07-06 02:00;METAR CYQF 060200Z 17010KT 15SM FEW050 FEW120 BKN250 24/15 A2974 RMK CU1AC2CI2 SLP069=

CYQF;2005-07-06 03:00;METAR CYQF 060300Z 18009KT 15SM FEW050 FEW120 BKN250 22/15 A2973 RMK CU1AC2CI1 SLP063=

CYQF;2005-07-06 04:00;METAR CYQF 060400Z 17007KT 15SM FEW120 BKN250 19/14 A2973 RMK AC2CI1 SLP063=

CYQF;2005-07-06 05:00;METAR CYQF 060500Z 16005KT 15SM SCT120 BKN250 19/14 A2973 RMK AC3CI1 SLP062=

CYQF;2005-07-06 06:00;METAR CYQF 060600Z 18004KT 15SM BKN120 BKN250 19/15 A2971 RMK AC5CI1 SLP052=

CYQF;2005-07-06 07:00;METAR CYQF 060700Z 19007KT 15SM BKN120 OVC250 18/15 A2969 RMK AC6CI2 SLP047=

CYQF;2005-07-06 08:00;METAR CYQF 060800Z 19003KT 15SM BKN120 OVC250 17/14 A2968 RMK AC6CI2 SLP042=

CYQF;2005-07-06 09:00;METAR CYQF 060900Z 19003KT 15SM BKN120 OVC250 16/14 A2967 RMK AC6CI2 SLP038=

CYQF;2005-07-06 10:00;METAR CYQF 061000Z 34003KT 15SM BKN120 OVC250 16/13 A2966 RMK AC5CI2 SLP035=

CYQF;2005-07-06 11:00;METAR CYQF 061100Z 00000KT 15SM SCT120 BKN250 15/13 A2965 RMK AC3CI2 SLP033=

CYQF;2005-07-06 12:00;METAR CYQF 061200Z 00000KT 15SM BKN120 BKN250 14/12 A2965 RMK AC3CI3 SLP033=

CYQF;2005-07-06 13:00;METAR CYQF 061300Z 00000KT 15SM FEW100 BKN140 BKN250 15/13 A2963 RMK AC2AC3CI2 SLP028=

CYQF;2005-07-06 14:00;METAR CYQF 061400Z 00000KT 15SM FEW100 BKN140 16/13 A2962 RMK AC1AC6 SLP026=

CYQF;2005-07-06 15:00;METAR CYQF 061500Z 11002KT 15SM FEW100 SCT140 20/14 A2962 RMK AC1AC2 SLP021=

CYQF;2005-07-06 16:00;METAR CYQF 061600Z 14007KT 15SM FEW100 SCT140 BKN250 23/11 A2960 RMK AC2AC2CI0 SLP015=

CYQF;2005-07-06 17:00;METAR CYQF 061700Z 19004KT 15SM FEW100 SCT140 BKN250 25/14 A2958 RMK AC2AC2CI0 SLP010=

CYQF;2005-07-06 18:00;METAR CYQF 061800Z 21012KT 15SM FEW050TCU FEW100 BKN250 26/15 A2956 RMK TCU1AC2CI1 SLP998=

CYQF;2005-07-06 19:00;METAR CYQF 061900Z 21012KT 15SM FEW050TCU FEW120 BKN210 27/14 A2956 RMK TCU1AC1CI2 SLP997=

CYQF;2005-07-06 20:00;METAR CYQF 062000Z 20013KT 15SM FEW050TCU FEW120 BKN210 28/14 A2955 RMK TCU2AC1CI1 CB NW SLP996=

CYQF;2005-07-06 21:00;METAR CYQF 062100Z 21012G18KT 15SM FEW050TCU BKN210 28/13 A2956 RMK TCU2CI2 CB NE SLP998=

CYQF;2005-07-06 22:00;METAR CYQF 062200Z 31012G19KT 15SM FEW050TCU BKN210 26/12 A2958 RMK TCU2CI1 CB NE SLP005=

CYQF;2005-07-06 23:00;METAR CYQF 062300Z 32010KT 15SM FEW050TCU SCT100 BKN210 25/13 A2958 RMK TCU2AC2CI0 SLP007=

CYQF;2005-07-07 00:00;METAR CYQF 070000Z 36007KT 15SM TS SCT050CB BKN100 BKN210 24/13 A2959 RMK CB3AC2CI1 SHS W LTG W SLP016=

CYQF;2005-07-07 00:11;SPECI CYQF 070011Z 34016G28KT 15SM -SHRA SCT050CB BKN100 BKN210 RMK CB3AC2CI1=

CYQF;2005-07-07 00:50;SPECI CYQF 070050Z 34012KT 15SM SCT050CB SCT100 BKN210 RMK CB3AC1CI1 SHS NE=

CYQF;2005-07-07 01:00;METAR CYQF 070100Z 01010KT 15SM FEW050TCU SCT100 BKN210 18/10 A2964 RMK TCU2AC2CI1 SLP030=

CYQF;2005-07-07 02:00;METAR CYQF 070200Z 02004KT 15SM SCT050TCU BKN090 BKN210 18/11 A2966 RMK TCU4AC2CI1 SLP038=

CYQF;2005-07-07 03:00;METAR CYQF 070300Z 00000KT 15SM SCT050TCU BKN090 BKN210 18/11 A2967 RMK TCU3AC2CI1 SLP045=

CYQF;2005-07-07 04:00;METAR CYQF 070400Z 00000KT 15SM SCT050TCU BKN090 BKN220 16/13 A2969 RMK TCU3AC2CI1 SLP051=

CYQF;2005-07-07 05:00;METAR CYQF 070500Z 00000KT 15SM FEW050TCU BKN090 BKN220 15/12 A2970 RMK TCU2AC3CI1 SLP053=

CYQF;2005-07-07 06:00;METAR CYQF 070600Z 00000KT 15SM SCT050TCU BKN090 BKN220 14/12 A2972 RMK TCU3AC2CI1 CB EMBD LGTIC NW SLP057=

CYQF;2005-07-07 08:00;METAR CYQF 070800Z 24004KT 15SM BKN050TCU OVC090 13/11 A2974 RMK TCU5AC3 CB EMBD LTGICCG NW-W-SE SLP063=

CYQF;2005-07-07 08:17;SPECI CYQF 070817Z 21006KT 15SM -TSRA BKN050CB OVC090 RMK CB5AC3 LTGICCG NE-W-SE=

CYQF;2005-07-07 08:31;SPECI CYQF 070831Z 22010G15KT 8SM TSRA BKN050CB OVC090 RMK CB6AC2 LTGICCG=

CYQF;2005-07-07 08:37;SPECI CYQF 070837Z 27020G30KT 3SM +TSRA OVC050CB RMK CB8=

CYQF;2005-07-07 09:00;METAR CYQF 070900Z 32012G18KT 5SM TSRA OVC050CB 11/10 A2980 RERA RMK CB8 PRESRR SLP089=

CYQF;2005-07-07 09:25;SPECI CYQF 070925Z 36010KT 10SM -SHRA BKN050TCU OVC090 RERA RMK TCU6AC2 CB NE=

CYQF;2005-07-07 10:00;METAR CYQF 071000Z 01005KT 15SM FEW020 BKN050TCU 11/09 A2980 RERA RMK SF1TCU5 SLP087=

CYQF;2005-07-07 11:00;METAR CYQF 071100Z 09002KT 15SM FEW050 SCT090 10/09 A2980 RMK SC2AC2 SLP088=

CYQF;2005-07-07 12:00;METAR CYQF 071200Z 21002KT 15SM BCFG FEW050 SCT090 08/08 A2981 RMK SC2AC1 VIS LWR S SLP099=

CYQF;2005-07-07 13:00;METAR CYQF 071300Z 25005KT 15SM SCT050 SCT090 10/09 A2985 RMK SC3AC1 SLP109=

CYQF;2005-07-07 14:00;METAR CYQF 071400Z 24006KT 15SM SCT050 SCT090 11/09 A2985 RMK SC3AC1 SLP111=

CYQF;2005-07-07 15:00;METAR CYQF 071500Z 00000KT 15SM FEW050 FEW250 14/09 A2985 RMK SC2CI0 SLP114=

CYQF;2005-07-07 16:00;METAR CYQF 071600Z 16004KT 15SM FEW040 FEW060 FEW250 16/09 A2985 RMK CU1SC1CI0 SLP114=

CYQF;2005-07-07 17:00;METAR CYQF 071700Z 16004KT 15SM FEW044 BKN250 18/07 A2985 RMK CU1CI2 SLP112=

CYQF;2005-07-07 18:00;METAR CYQF 071800Z 18004KT 15SM FEW042 BKN250 18/08 A2983 RMK CU2CI1 TCU ASOCTD SLP103=

CYQF;2005-07-07 19:00;METAR CYQF 071900Z 18006KT 15SM FEW045TCU BKN250 19/08 A2982 RMK TCU2CI1 SLP102=

CYQF;2005-07-07 20:00;METAR CYQF 072000Z 15010KT 15SM SCT045CB BKN250 20/09 A2980 RMK CB3CI2 LTGCG NW SHS W-N SLP095=

CYQF;2005-07-07 20:15;SPECI CYQF 072015Z 15008KT 15SM TS BKN045CB BKN250 RMK CB5CI1 HVY SHS W-N LTGIC/CG NW=

CYQF;2005-07-07 20:29;SPECI CYQF 072029Z 33020G35KT 10SM TSRA BKN045CB BKN250 RMK CB6CI0 HVY SHS N VIS N 1=

CYQF;2005-07-07 20:53;SPECI CYQF 072053Z 36010KT 15SM -TSRA SCT045CB BKN250 RMK CB4CI0 HVY SHS NE-SE RERA=

CYQF;2005-07-07 21:00;METAR CYQF 072100Z 02008KT 15SM -TSRA SCT045CB BKN250 13/10 A2979 RMK CB4CI0 HVY SHS NE-SE RERA SLP102=

CYQF;2005-07-07 21:15;SPECI CYQF 072115Z 06007KT 15SM SCT045CB BKN250 RMK CB3CI0=

CYQF;2005-07-07 21:25;SPECI CYQF 072125Z 07004KT 15SM -SHRA BKN045CB BKN250 RMK CB5CI0=

CYQF;2005-07-07 22:00;METAR CYQF 072200Z 08010KT 15SM SCT045TCU BKN250 16/12 A2979 RMK TCU3CI0 SLP101=

CYQF;2005-07-07 23:00;METAR CYQF 072300Z 05008KT 15SM SCT045TCU SCT250 18/10 A2979 RMK TCU3CI0 SLP102=

CYQF;2005-07-08 00:00;METAR CYQF 080000Z 04010KT 15SM FEW050 SCT250 19/10 A2979 RMK CU2CI1 SLP098=

CYQF;2005-07-08 01:00;METAR CYQF 080100Z 06008KT 15SM FEW050 BKN250 19/10 A2979 RMK CU2CI2 SLP098=

CYQF;2005-07-08 02:00;METAR CYQF 080200Z 05007KT 15SM FEW050 SCT090 BKN250 18/11 A2981 RMK CU2AC2CI2 SLP102=

CYQF;2005-07-08 03:00;METAR CYQF 080300Z 06005KT 15SM FEW050 FEW090 SCT250 16/12 A2982 RMK CU1AC1CI0 SLP102=

CYQF;2005-07-08 04:00;METAR CYQF 080400Z 03004KT 15SM FEW090 SCT250 14/10 A2982 RMK AC1CI2 SLP104=

CYQF;2005-07-08 05:00;METAR CYQF 080500Z 00000KT 15SM FEW090 BKN250 14/10 A2983 RMK AC2CI2 SLP105=

CYQF;2005-07-08 06:00;METAR CYQF 080600Z 00000KT 15SM FEW090 SCT250 11/09 A2983 RMK AC1CI1 SLP107=

CYQF;2005-07-08 07:00;METAR CYQF 080700Z 22003KT 15SM FEW090 10/08 A2983 RMK AC2 SLP107=

CYQF;2005-07-08 08:00;METAR CYQF 080800Z 00000KT 15SM FEW090 11/08 A2982 RMK AC2 SLP106=

CYQF;2005-07-08 09:00;METAR CYQF 080900Z 20002KT 15SM FEW090 11/08 A2982 RMK AC2 SLP110=

CYQF;2005-07-08 10:00;METAR CYQF 081000Z 00000KT 15SM SCT090 10/08 A2981 RMK AC3 SLP106=

CYQF;2005-07-08 11:00;METAR CYQF 081100Z 00000KT 15SM BKN090 10/09 A2979 RMK AC6 SLP102=

CYQF;2005-07-08 12:00;METAR CYQF 081200Z 00000KT 15SM BKN090 10/08 A2978 RMK AC7 SLP093=

CYQF;2005-07-08 13:00;METAR CYQF 081300Z 00000KT 15SM BKN090 BKN250 10/09 A2977 RMK AC6CI1 SLP089=

CYQF;2005-07-08 14:00;METAR CYQF 081400Z 00000KT 15SM BKN090 BKN250 11/10 A2976 RMK AC6CI1 SLP086=

CYQF;2005-07-08 15:00;METAR CYQF 081500Z 12002KT 15SM BKN090 BKN250 14/11 A2975 RMK AC6CI1 ACSL SLP078=

CYQF;2005-07-08 16:00;METAR CYQF 081600Z 00000KT 15SM BKN090 BKN250 16/14 A2973 RMK AC5CI1 ACSL SLP072=

CYQF;2005-07-08 17:00;METAR CYQF 081700Z 17006KT 15SM FEW090 BKN250 20/13 A2970 RMK AC2CI2 SLP064=

CYQF;2005-07-08 18:00;METAR CYQF 081800Z 21010KT 15SM FEW090 SCT250 23/10 A2968 RMK AC1CI1 ACSL SLP051=

CYQF;2005-07-08 19:00;METAR CYQF 081900Z 21009G15KT 15SM FEW090 FEW250 24/09 A2967 RMK AC1CI1 SLP049=

CYQF;2005-07-08 20:00;METAR CYQF 082000Z 18010G18KT 15SM FEW090 FEW250 25/10 A2966 RMK AC1CI1 SLP044=

CYQF;2005-07-08 21:00;METAR CYQF 082100Z 18011KT 15SM FEW090 FEW250 26/09 A2964 RMK AC1CI1 SLP034=

CYQF;2005-07-08 22:00;METAR CYQF 082200Z 19014G26KT 15SM FEW090 BKN250 26/10 A2962 RMK AC1CI2 SLP027=

CYQF;2005-07-08 23:00;METAR CYQF 082300Z 18014KT 15SM FEW090 BKN250 26/13 A2963 RMK AC2CI2 SLP030=

CYQF;2005-07-09 00:00;METAR CYQF 090000Z 18009KT 15SM SCT090 BKN250 26/12 A2961 RMK AC4CI2 SLP026=

CYQF;2005-07-09 01:00;METAR CYQF 090100Z 19007KT 15SM FEW090 BKN250 25/12 A2961 RMK AC2CI2 SLP025=

CYQF;2005-07-09 02:00;METAR CYQF 090200Z 25004KT 15SM FEW080 BKN250 22/14 A2960 RMK AC2CI2 SLP021=

CYQF;2005-07-09 03:00;METAR CYQF 090300Z 27003KT 15SM FEW080 BKN250 20/13 A2959 RMK AC2CI2 SLP022=

CYQF;2005-07-09 04:00;METAR CYQF 090400Z 00000KT 15SM SCT080 BKN250 19/12 A2961 RMK AC4CI0 SLP026=

CYQF;2005-07-09 05:00;METAR CYQF 090500Z 32003KT 15SM SCT070 BKN250 18/11 A2962 RMK AC4CI0 SLP029=

CYQF;2005-07-09 06:00;METAR CYQF 090600Z 31008KT 15SM SCT070 BKN250 17/08 A2962 RMK AC3CI1 SLP024=

CYQF;2005-07-09 07:00;METAR CYQF 090700Z 27008KT 15SM BKN080 17/07 A2963 RMK AC5 SLP026=

CYQF;2005-07-09 08:00;METAR CYQF 090800Z 29007KT 15SM BKN090 BKN250 16/07 A2965 RMK AC5CI2 SLP033=

CYQF;2005-07-09 09:00;METAR CYQF 090900Z 27007KT 15SM SCT080 OVC120 15/05 A2966 RMK AC3AC4 SLP035=

CYQF;2005-07-09 10:00;METAR CYQF 091000Z 27005KT 15SM FEW080 BKN120 OVC250 14/06 A2966 RMK AC2AC3CI2 SLP035=

CYQF;2005-07-09 11:24;SPECI CYQF 091124Z 29005KT 12SM -SHRA OVC070 RMK AC8=

CYQF;2005-07-09 12:00;METAR CYQF 091200Z 09005KT 15SM -SHRA BKN060 OVC100 12/08 A2971 RMK SC6AC2 SLP058=

CYQF;2005-07-09 12:29;SPECI CYQF 091229Z 06003KT 15SM FEW050 BKN070 BKN100 RMK SC2AC5AC1=

CYQF;2005-07-09 13:00;METAR CYQF 091300Z 00000KT 15SM FEW050 BKN070 BKN100 12/10 A2969 RMK SC2AC4AC2 SLP051=

CYQF;2005-07-09 14:00;METAR CYQF 091400Z 23004KT 15SM FEW050 BKN070 12/10 A2971 RMK SC2AC6 SLP057=

CYQF;2005-07-09 15:00;METAR CYQF 091500Z 00000KT 15SM SCT070 BKN220 14/08 A2973 RMK AC4CI2 SLP069=

CYQF;2005-07-09 16:00;METAR CYQF 091600Z 01009KT 15SM SCT080 BKN220 16/07 A2975 RMK AC3CI1 SLP074=

CYQF;2005-07-09 17:00;METAR CYQF 091700Z 36006KT 15SM FEW050 FEW080 FEW220 18/07 A2975 RMK CU1AC1CI0 SLP073=

CYQF;2005-07-09 18:00;METAR CYQF 091800Z 33007KT 15SM FEW050 FEW090 FEW220 19/07 A2976 RMK CU1AC1CI0 SLP075=

CYQF;2005-07-09 19:00;METAR CYQF 091900Z 31004KT 15SM FEW050 FEW090 SCT220 19/06 A2976 RMK CU1AC1CI1 SLP076=

CYQF;2005-07-09 20:00;METAR CYQF 092000Z 00000KT 15SM FEW050 FEW090 BKN220 20/06 A2974 RMK CU1AC1CI1 SLP071=

CYQF;2005-07-09 21:00;METAR CYQF 092100Z 12002KT 15SM FEW050 FEW090 BKN220 20/06 A2975 RMK CU2AC1CI1 TCU ASOCTD SLP074=

CYQF;2005-07-09 22:00;METAR CYQF 092200Z 12008KT 15SM FEW050 FEW090 BKN220 21/07 A2974 RMK CU2AC1CI2 SLP070=

CYQF;2005-07-09 23:00;METAR CYQF 092300Z 12008KT 15SM FEW050TCU BKN220 21/07 A2972 RMK TCU2CI2 SHS DIST NW-N SLP066=

CYQF;2005-07-10 00:00;METAR CYQF 100000Z 19004KT 15SM FEW050TCU BKN250 21/08 A2972 RMK TCU2CI2 SHS N - NE SLP065=

CYQF;2005-07-10 01:00;METAR CYQF 100100Z 04004KT 15SM FEW050TCU BKN250 18/08 A2972 RMK TCU2CI2 SLP066=

CYQF;2005-07-10 02:00;METAR CYQF 100200Z 04007KT 15SM SCT050TCU BKN250 16/09 A2973 RMK TCU3CI1 SHS W SLP067=

CYQF;2005-07-10 02:05;SPECI CYQF 100205Z 02010KT 15SM TS SCT050CB BKN250 RMK CB4CI1 SHS NW-N CB LINE W-NE LTGIC/CG=

CYQF;2005-07-10 03:00;METAR CYQF 100300Z 34009KT 15SM BKN060CB BKN250 16/06 A2977 RMK CB6CI0 HVY SHS NW-NE VIS N 3 LTGIC/CG SLP085=

CYQF;2005-07-10 04:00;METAR CYQF 100400Z 06008KT 15SM SCT050TCU BKN250 12/09 A2976 RMK TCU3CI1 RETS CB NE-E LTG E SLP084=

CYQF;2005-07-10 05:00;METAR CYQF 100500Z 36003KT 15SM FEW050TCU SCT250 11/08 A2978 RMK TCU2CI1 SLP090=

CYQF;2005-07-10 06:00;METAR CYQF 100600Z 34006KT 15SM FEW050 SCT250 10/08 A2980 RMK SC2CI1 SLP097=

CYQF;2005-07-10 08:00;METAR CYQF 100800Z 18003KT 15SM FEW100 08/06 A2981 RMK AC1 SLP102=

CYQF;2005-07-10 09:00;METAR CYQF 100900Z 19005KT 15SM SKC 06/05 A2982 RMK SLP107=

CYQF;2005-07-10 10:00;METAR CYQF 101000Z 22004KT 15SM SKC 05/05 A2983 RMK SLP110=

CYQF;2005-07-10 11:00;METAR CYQF 101100Z 18004KT 15SM MIFG SKC 05/05 A2985 RMK SLP117=

CYQF;2005-07-10 12:00;METAR CYQF 101200Z 20004KT 15SM MIFG FEW050 FEW100 FEW250 04/04 A2986 RMK SC1AC1CI0 SLP124=

CYQF;2005-07-10 13:00;METAR CYQF 101300Z 19003KT 15SM FEW050 SCT250 07/06 A2988 RMK SC1CI1 SLP130=

CYQF;2005-07-10 14:00;METAR CYQF 101400Z 23003KT 15SM FEW050 FEW100 BKN250 09/07 A2990 RMK SC1AC1CI2 CC ASOCT SLP136=

CYQF;2005-07-10 15:00;METAR CYQF 101500Z 26004KT 15SM SCT100 BKN250 11/08 A2991 RMK AC4CI2 SLP138=

CYQF;2005-07-10 16:00;METAR CYQF 101600Z 06005KT 15SM SCT100 BKN150 15/07 A2991 RMK AC3CI2 SLP139=

CYQF;2005-07-10 17:00;METAR CYQF 101700Z 04005KT 15SM FEW100 SCT250 16/08 A2991 RMK AC1CI1 SLP137=

CYQF;2005-07-10 18:00;METAR CYQF 101800Z 08005KT 15SM FEW050 FEW100 FEW250 18/08 A2991 RMK CU1AC1CI0 SLP136=

CYQF;2005-07-10 19:00;METAR CYQF 101900Z 23002KT 15SM FEW050 FEW100 FEW250 18/07 A2989 RMK CU1AC1CI0 SLP132=

CYQF;2005-07-10 20:00;METAR CYQF 102000Z 23002KT 15SM FEW050 FEW100 BKN250 19/06 A2989 RMK CU1AC2CI1 SLP130=

CYQF;2005-07-10 21:00;METAR CYQF 102100Z 16007KT 15SM FEW050 SCT100 BKN250 20/05 A2988 RMK CU1AC2CI1 SLP130=

CYQF;2005-07-10 22:00;METAR CYQF 102200Z 16005KT 15SM FEW050 SCT100 BKN250 20/07 A2988 RMK CU1AC3CI1 SLP130=

CYQF;2005-07-10 23:00;METAR CYQF 102300Z 15003KT 15SM FEW050 FEW100 SCT250 20/05 A2988 RMK CU1AC2CI0 SLP129=

CYQF;2005-07-11 00:00;METAR CYQF 110000Z 13008KT 15SM FEW050 SCT100 SCT250 21/04 A2987 RMK CU2AC2CI0 SLP129=

CYQF;2005-07-11 01:00;METAR CYQF 110100Z 16005KT 15SM FEW050 SCT250 21/06 A2987 RMK CU2CI2 SLP127=

CYQF;2005-07-11 02:00;METAR CYQF 110200Z 15005KT 15SM FEW050 BKN250 19/08 A2987 RMK CU2CI2 SLP127=

CYQF;2005-07-11 03:00;METAR CYQF 110300Z 08003KT 15SM FEW050 BKN250 18/08 A2987 RMK SC2CI2 SLP122=

CYQF;2005-07-11 04:00;METAR CYQF 110400Z 01010KT 15SM SCT060TCU BKN250 16/09 A2989 RMK TCU3CI2 SLP127=

CYQF;2005-07-11 05:00;METAR CYQF 110500Z 05003KT 15SM FEW050TCU BKN250 14/07 A2990 RMK TCU2CI2 CB NW LTGIC NW SLP130=

CYQF;2005-07-11 06:00;METAR CYQF 110600Z 05004KT 15SM FEW050TCU BKN250 14/07 A2990 RMK TCU2CI2 CB NW LTGIC SLP129=

CYQF;2005-07-11 07:00;METAR CYQF 110700Z 01007KT 15SM FEW050 BKN250 12/07 A2992 RMK SC2CI2 CB/LTNG N SLP136=

CYQF;2005-07-11 08:00;METAR CYQF 110800Z 03007KT 15SM FEW050 SCT100 BKN250 13/08 A2994 RMK SC1AC2CI1 SLP141=

CYQF;2005-07-11 09:00;METAR CYQF 110900Z 36003KT 15SM FEW050 FEW100 SCT250 12/07 A2995 RMK SC1AC1CI1 SLP146=

CYQF;2005-07-11 10:00;METAR CYQF 111000Z 33003KT 15SM FEW050 FEW100 08/06 A2996 RMK SC1AC1 SLP150=

CYQF;2005-07-11 11:00;METAR CYQF 111100Z 26004KT 15SM FEW050 FEW090 07/06 A2996 RMK SC1AC1 TR AC SLP151=

CYQF;2005-07-11 12:00;METAR CYQF 111200Z 00000KT 15SM FEW050 FEW100 FEW250 08/07 A2997 RMK SC1AC1CI1 SLP159=

CYQF;2005-07-11 13:00;METAR CYQF 111300Z 23003KT 15SM FEW100 FEW250 09/07 A2997 RMK AC1CI1 TR CI SLP159=

CYQF;2005-07-11 14:00;METAR CYQF 111400Z 00000KT 15SM FEW100 FEW250 11/09 A2998 RMK AC1CI1 SLP161=

CYQF;2005-07-11 15:00;METAR CYQF 111500Z 00000KT 15SM FEW100 FEW250 14/10 A2998 RMK AC2CI1 SLP158=

CYQF;2005-07-11 16:00;METAR CYQF 111600Z 20003KT 15SM FEW040 FEW100 FEW250 16/09 A2999 RMK CU1AC2CI1 SLP160=

CYQF;2005-07-11 17:00;METAR CYQF 111700Z 21006KT 15SM FEW040 SCT100 BKN250 18/10 A2999 RMK CU1AC3CI1 SLP160=

CYQF;2005-07-11 18:00;METAR CYQF 111800Z 00000KT 15SM FEW040 SCT100 BKN250 20/11 A2999 RMK CU2AC2CI1 FEW TCU SLP157=

CYQF;2005-07-11 19:00;METAR CYQF 111900Z 18003KT 15SM FEW040 SCT100 SCT250 21/11 A2998 RMK CU2AC1CI1 FEW TCU SLP154=

CYQF;2005-07-11 20:00;METAR CYQF 112000Z 19003KT 15SM FEW046 FEW100 FEW250 21/09 A2997 RMK CU2AC1CI1 FEW TCU TR AC SLP152=

CYQF;2005-07-11 21:00;METAR CYQF 112100Z 18002KT 15SM FEW050 SCT100 BKN250 22/08 A2997 RMK CU2AC2CI1 TCU ASOCTD SLP150=

CYQF;2005-07-11 22:00;METAR CYQF 112200Z 27006KT 15SM SCT050TCU BKN100 BKN250 22/09 A2997 RMK TCU3AC2CI1 SHS S-W SLP150=

CYQF;2005-07-11 22:34;SPECI CYQF 112234Z 28012G20KT 15SM -TSRA BKN050TCU BKN100 RMK TCU6AC2 CB EMBD W LTGCG=

CYQF;2005-07-11 23:00;METAR CYQF 112300Z 04010KT 15SM -TSRA BKN050TCU BKN100 17/09 A2998 RMK TCU5AC2 CB EMBD S HVYR SHS S+N SLP155=

CYQF;2005-07-11 23:22;SPECI CYQF 112322Z 00000KT 15SM BKN050TCU BKN100 RMK TCU5AC2 SHS E-SE=

CYQF;2005-07-12 00:00;METAR CYQF 120000Z 08003KT 15SM BKN050TCU BKN100 BKN250 20/09 A2998 RMK TCU5AC2CI1 SHS DIST E SLP161=

CYQF;2005-07-12 01:00;METAR CYQF 120100Z 15004KT 15SM FEW050TCU BKN250 20/11 A2997 RMK TCU2CI1 SLP158=

CYQF;2005-07-12 02:00;METAR CYQF 120200Z 12005KT 15SM FEW050TCU SCT250 20/10 A2996 RMK TCU2CI1 SLP154=

CYQF;2005-07-12 03:00;METAR CYQF 120300Z 00000KT 15SM SCT050 SCT250 20/12 A2997 RMK SC3CI0 SLP151=

CYQF;2005-07-12 04:00;METAR CYQF 120400Z 02003KT 15SM SCT050 18/11 A2998 RMK SC3 SLP154=

CYQF;2005-07-12 05:00;METAR CYQF 120500Z 35004KT 15SM FEW050 15/11 A2999 RMK SC2 SLP158=

CYQF;2005-07-12 06:00;METAR CYQF 120600Z 32003KT 15SM FEW050 14/10 A3000 RMK SC2 SLP161=

CYQF;2005-07-12 07:00;METAR CYQF 120700Z 34003KT 15SM FEW050 13/10 A3001 RMK SC1 SLP165=

CYQF;2005-07-12 08:00;METAR CYQF 120800Z 00000KT 15SM FEW050 12/09 A3001 RMK SC1 TR CLD SLP164=

CYQF;2005-07-12 09:00;METAR CYQF 120900Z 00000KT 15SM FEW090 09/08 A3002 RMK AC1 TR CLD SLP171=

CYQF;2005-07-12 10:00;METAR CYQF 121000Z 00000KT 15SM FEW090 09/08 A3003 RMK AC1 SLP173=

CYQF;2005-07-12 11:00;METAR CYQF 121100Z 18006KT 15SM FEW090 08/07 A3003 RMK AC1 SLP174=

CYQF;2005-07-12 12:00;METAR CYQF 121200Z 18003KT 15SM FEW090 08/07 A3003 RMK AC1 TR CLD SLP178=

CYQF;2005-07-12 13:00;METAR CYQF 121300Z 00000KT 15SM FEW090 10/09 A3004 RMK AC1 TR CLD SLP181=

CYQF;2005-07-12 14:00;METAR CYQF 121400Z 18002KT 15SM FEW090 13/10 A3005 RMK AC1 SLP183=

CYQF;2005-07-12 15:00;METAR CYQF 121500Z 00000KT 15SM FEW090 15/11 A3004 RMK AC1 SLP176=

CYQF;2005-07-12 16:00;METAR CYQF 121600Z 18002KT 15SM FEW090 19/12 A3004 RMK AC1 SLP175=

CYQF;2005-07-12 17:00;METAR CYQF 121700Z 16002KT 15SM FEW040 FEW090 21/11 A3002 RMK CU1AC1 SLP169=

CYQF;2005-07-12 18:00;METAR CYQF 121800Z 16005KT 15SM FEW055 23/09 A3001 RMK CU1 SLP161=

CYQF;2005-07-12 19:00;METAR CYQF 121900Z 18006KT 15SM FEW060 24/09 A3000 RMK CU1 SLP158=

CYQF;2005-07-12 20:00;METAR CYQF 122000Z 17010KT 15SM FEW060 25/10 A2998 RMK CU2 SLP154=

CYQF;2005-07-12 21:00;METAR CYQF 122100Z 19009KT 15SM FEW060 26/09 A2997 RMK CU2 TCU ASOCTD SLP151=

CYQF;2005-07-12 22:00;METAR CYQF 122200Z 17008KT 15SM FEW060 26/09 A2996 RMK CU2 TCU ASOCTD SLP147=

CYQF;2005-07-12 23:00;METAR CYQF 122300Z 16010G15KT 15SM FEW060 26/10 A2995 RMK CU2 TCU ASOCTD SLP143=

CYQF;2005-07-13 00:00;METAR CYQF 130000Z 16010G15KT 15SM FEW060 26/11 A2993 RMK CU2 TCU ASOCTD SLP137=

CYQF;2005-07-13 01:00;METAR CYQF 130100Z 14009KT 15SM FEW060 26/13 A2991 RMK CU2 TCU ASOCTD SLP132=

CYQF;2005-07-13 02:00;METAR CYQF 130200Z 13005KT 15SM FEW060TCU 25/13 A2991 RMK TCU2 SLP131=

CYQF;2005-07-13 03:00;METAR CYQF 130300Z 20002KT 15SM FEW060TCU 24/14 A2991 RMK TCU2 VIRGA N SLP125=

CYQF;2005-07-13 04:00;METAR CYQF 130400Z 36007KT 15SM FEW060TCU 18/12 A2995 RMK TCU2 SHS DIST NE SLP138=

CYQF;2005-07-13 05:00;METAR CYQF 130500Z 35007KT 15SM FEW060TCU 16/12 A2997 RMK TCU2 CB EMBD LTGCG DIST NE SLP143=

CYQF;2005-07-13 06:00;METAR CYQF 130600Z 36006KT 15SM FEW060TCU 15/11 A2998 RMK TCU2 SLP149=

CYQF;2005-07-13 07:00;METAR CYQF 130700Z 36005KT 15SM FEW070 14/11 A2998 RMK AC2 SLP150=

CYQF;2005-07-13 08:00;METAR CYQF 130800Z 33005KT 15SM SKC 13/10 A2999 RMK SLP152=

CYQF;2005-07-13 09:00;METAR CYQF 130900Z 00000KT 15SM SKC 11/09 A3000 RMK SLP158=

CYQF;2005-07-13 10:00;METAR CYQF 131000Z 31005KT 15SM FEW070 11/09 A3000 RMK AC1 SLP159=

CYQF;2005-07-13 11:00;METAR CYQF 131100Z 28004KT 15SM FEW070 10/08 A3001 RMK AC1 SLP160=

CYQF;2005-07-13 12:00;METAR CYQF 131200Z 28004KT 15SM FEW070 09/08 A3001 RMK AC2 SLP164=

CYQF;2005-07-13 13:00;METAR CYQF 131300Z 29006KT 15SM BKN060 12/10 A3001 RMK SC5 SLP165=

CYQF;2005-07-13 14:00;METAR CYQF 131400Z 31002KT 15SM SCT060 14/11 A3001 RMK SC3 SLP163=

CYQF;2005-07-13 15:00;METAR CYQF 131500Z 00000KT 15SM SCT060 16/12 A3000 RMK SC3 VIRGA W TCU ASOCTD SLP154=

CYQF;2005-07-13 16:00;METAR CYQF 131600Z 33003KT 15SM BKN050 18/11 A3000 RMK SC5 VIRGA NW SLP154=

CYQF;2005-07-13 17:00;METAR CYQF 131700Z 34005KT 15SM BKN050 19/12 A2999 RMK SC6 TCU ASOCTD SHS DIST W-NW SLP151=

CYQF;2005-07-13 18:00;METAR CYQF 131800Z 33008KT 15SM BKN050 BKN080 19/12 A2998 RMK SC6AC1 TCU ASOCTD SHS SW NW-N SLP155=

CYQF;2005-07-13 18:17;SPECI CYQF 131817Z 33008KT 15SM TS BKN050TCU BKN080 RMK TCU6AC1 CB SW LTGCG CB MOVG NE=

CYQF;2005-07-13 18:47;SPECI CYQF 131847Z 35008KT 15SM BKN050CB BKN080 RMK CB6AC1 CB SW MOVG=

CYQF;2005-07-13 19:00;METAR CYQF 131900Z 35007KT 15SM BKN050CB BKN080 19/12 A2997 RMK CB6AC1 CB SW MOVG NE SLP152=

CYQF;2005-07-13 19:12;SPECI CYQF 131912Z 35008KT 15SM -SHRA BKN050CB BKN080 RMK CB6AC1=

CYQF;2005-07-13 19:45;SPECI CYQF 131945Z 04007KT 15SM BKN050CB BKN080 RMK CB6AC2 SHS N-E=

CYQF;2005-07-13 20:00;METAR CYQF 132000Z 05007KT 15SM BKN050CB BKN080 18/10 A2994 RMK CB6AC2 SHS DIST W + NE SLP141=

CYQF;2005-07-13 20:19;SPECI CYQF 132019Z 29010G15KT 15SM -SHRA BKN050CB OVC080 RMK CB6AC2=

CYQF;2005-07-13 21:00;METAR CYQF 132100Z 34010G15KT 15SM -TSRA BKN050CB OVC080 13/10 A3000 RMK CB6AC2 LTGCG SW SLP172=

CYQF;2005-07-13 22:00;METAR CYQF 132200Z 36003KT 5SM -TSRA BKN020 OVC050CB 12/10 A3003 RMK SF7CB1 SLP180=

CYQF;2005-07-13 22:14;SPECI CYQF 132214Z 00000KT 10SM -SHRA BKN020 BKN050CB RMK SF5CB2 CB NE=

CYQF;2005-07-13 22:33;SPECI CYQF 132233Z 00000KT 15SM SCT020 BKN050 BKN100 RETS RMK SF3SC3AC1 SHS N-E-S=

CYQF;2005-07-13 23:00;METAR CYQF 132300Z 05003KT 15SM FEW020 BKN050TCU BKN100 16/12 A2997 RETS RMK SF2TCU3AC1 SHS NE-SE SLP162=

CYQF;2005-07-14 00:00;METAR CYQF 140000Z 28006KT 15SM FEW050TCU SCT100 18/11 A2998 RMK TCU2AC2 SHS DIST NW SLP161=

CYQF;2005-07-14 01:17;SPECI CYQF 140117Z 35003KT 15SM SCT040TCU BKN100 BKN250 RMK TCU4AC2CI1 CB EMBD DIST NW+E SHS ASOCTD=

CYQF;2005-07-14 02:00;METAR CYQF 140200Z 29006KT 15SM FEW040TCU BKN100 BKN250 14/10 A2999 RMK TCU2AC2CI1 CB TP DIST NW SHS DIST NW+NE SLP166=

CYQF;2005-07-14 04:00;METAR CYQF 140400Z 30008KT 15SM FEW050 SCT100 BKN250 13/08 A3003 RMK CU2AC2CI1 VIRGA W+NW FEW TCU TPS W SLP173=

CYQF;2005-07-14 05:00;METAR CYQF 140500Z 25007KT 15SM FEW100 SCT250 11/08 A3004 RMK AC2CI0 VIRGA N SLP177=

CYQF;2005-07-14 06:00;METAR CYQF 140600Z 28007KT 15SM SCT100 BKN250 11/08 A3005 RMK AC4CI1 SLP182=

CYQF;2005-07-14 07:00;METAR CYQF 140700Z 25006KT 15SM SCT100 BKN250 11/09 A3005 RMK AC3CI1 SLP182=

CYQF;2005-07-14 08:00;METAR CYQF 140800Z 00000KT 15SM FEW100 SCT250 09/08 A3006 RMK AC2CI0 SLP185=

CYQF;2005-07-14 09:00;METAR CYQF 140900Z 25004KT 15SM FEW100 09/07 A3007 RMK AC2 SLP199=

CYQF;2005-07-14 10:00;METAR CYQF 141000Z 25006KT 15SM FEW100 08/07 A3009 RMK AC1 SLP204=

CYQF;2005-07-14 11:00;METAR CYQF 141100Z 18003KT 15SM FEW100 07/06 A3011 RMK AC1 SLP210=

CYQF;2005-07-14 12:00;METAR CYQF 141200Z 20006KT 15SM FEW100 06/05 A3011 RMK AC1 SLP210=

CYQF;2005-07-14 13:00;METAR CYQF 141300Z 22003KT 15SM SKC 08/06 A3012 RMK SLP213=

CYQF;2005-07-14 14:00;METAR CYQF 141400Z 19005KT 15SM FEW100 11/08 A3013 RMK AC1 SLP215=

CYQF;2005-07-14 15:00;METAR CYQF 141500Z 21004KT 15SM FEW100 14/09 A3013 RMK AC1 SLP212=

CYQF;2005-07-14 16:00;METAR CYQF 141600Z 33004KT 15SM SCT100 17/08 A3013 RMK AC3 SLP213=

CYQF;2005-07-14 17:00;METAR CYQF 141700Z 27003KT 15SM FEW100 BKN250 18/08 A3013 RMK AC2CI2 SLP211=

CYQF;2005-07-14 18:00;METAR CYQF 141800Z 21004KT 15SM FEW040 SCT100 SCT250 19/09 A3012 RMK CU1AC2CI0 SLP207=

CYQF;2005-07-14 19:00;METAR CYQF 141900Z 23005KT 15SM FEW060 FEW200 20/06 A3011 RMK CU1CI1 SLP203=

CYQF;2005-07-14 20:00;METAR CYQF 142000Z 27005KT 15SM FEW060 FEW200 21/06 A3009 RMK CU1CI1 SLP199=

CYQF;2005-07-14 21:00;METAR CYQF 142100Z 00000KT 15SM FEW060 FEW200 21/05 A3008 RMK CU1CI1 SLP194=

CYQF;2005-07-14 22:00;METAR CYQF 142200Z 00000KT 15SM FEW060 FEW200 22/06 A3007 RMK CU1CI0 SLP192=

CYQF;2005-07-14 23:00;METAR CYQF 142300Z 00000KT 15SM FEW060 FEW250 22/06 A3005 RMK CU1CI1 SLP186=

CYQF;2005-07-15 00:00;METAR CYQF 150000Z 09002KT 15SM FEW060 SCT250 22/07 A3004 RMK CU1CI1 SLP181=

CYQF;2005-07-15 01:00;METAR CYQF 150100Z 11004KT 15SM FEW060 SCT250 23/07 A3003 RMK CU1CI1 SLP178=

CYQF;2005-07-15 02:00;METAR CYQF 150200Z 11004KT 15SM FEW100 SCT250 21/08 A3002 RMK AC1CI2 SLP174=

CYQF;2005-07-15 03:00;METAR CYQF 150300Z 12003KT 15SM FEW100 BKN250 20/09 A3002 RMK AC2CI2 SLP167=

CYQF;2005-07-15 04:00;METAR CYQF 150400Z 14002KT 15SM FEW100 SCT250 17/11 A3002 RMK AC1CI2 SLP168=

CYQF;2005-07-15 05:00;METAR CYQF 150500Z 15002KT 15SM FEW100 SCT250 16/08 A3002 RMK AC1CI2 SLP167=

CYQF;2005-07-15 06:00;METAR CYQF 150600Z 18002KT 15SM SCT250 13/08 A3001 RMK CI2 SLP168=

CYQF;2005-07-15 07:00;METAR CYQF 150700Z 20004KT 15SM FEW100 SCT250 11/08 A3000 RMK AC1CI1 SLP165=

CYQF;2005-07-15 08:00;METAR CYQF 150800Z 22005KT 15SM FEW100 SCT250 11/08 A2999 RMK AC1CI1 SLP162=

CYQF;2005-07-15 09:00;METAR CYQF 150900Z 00000KT 15SM FEW100 BKN250 10/08 A2999 RMK AC2CI2 SLP160=

CYQF;2005-07-15 10:00;METAR CYQF 151000Z 19004KT 15SM SCT100 BKN250 11/09 A2997 RMK AC3CI2 SLP155=

CYQF;2005-07-15 11:00;METAR CYQF 151100Z 21003KT 15SM SCT100 BKN250 11/09 A2997 RMK AC4CI2 SLP154=

CYQF;2005-07-15 12:00;METAR CYQF 151200Z 20003KT 15SM SCT100 BKN250 11/09 A2995 RMK AC4CI2 SLP146=

CYQF;2005-07-15 13:00;METAR CYQF 151300Z 20004KT 15SM SCT100 BKN250 12/10 A2995 RMK AC4CI2 SLP144=

CYQF;2005-07-15 14:00;METAR CYQF 151400Z 00000KT 15SM SCT100 OVC250 13/10 A2994 RMK AC3CI3 SLP143=

CYQF;2005-07-15 15:00;METAR CYQF 151500Z 17002KT 15SM FEW080 BKN100 OVC250 14/11 A2992 RMK AC2AC4CI2 SLP135=

CYQF;2005-07-15 16:00;METAR CYQF 151600Z 00000KT 15SM FEW080 OVC100 16/11 A2991 RMK AC2AC6 SLP130=

CYQF;2005-07-15 17:00;METAR CYQF 151700Z 00000KT 15SM SCT070 OVC100 18/10 A2989 RMK AC3AC4 SLP124=

CYQF;2005-07-15 18:00;METAR CYQF 151800Z 00000KT 15SM SCT070 OVC100 18/11 A2987 RMK AC4AC3 SLP121=

CYQF;2005-07-15 19:00;METAR CYQF 151900Z 04004KT 15SM VCSH BKN070 OVC100 19/12 A2985 RMK AC5AC2 SLP115=

CYQF;2005-07-15 20:00;METAR CYQF 152000Z 09005KT 15SM FEW070 BKN100 OVC250 20/13 A2983 RMK AC2AC2CI2 SLP107=

CYQF;2005-07-15 21:00;METAR CYQF 152100Z 10005KT 15SM BKN070 OVC100 21/13 A2981 RMK AC5AC2 SLP100=

CYQF;2005-07-15 22:00;METAR CYQF 152200Z 09005KT 15SM SCT040 BKN070 OVC100 20/13 A2980 RMK SC3AC2AC2 SLP097=

CYQF;2005-07-15 23:00;METAR CYQF 152300Z 08007KT 15SM FEW040 OVC070 20/14 A2978 RMK SC2AC6 VIRGA SLP090=

CYQF;2005-07-16 00:00;METAR CYQF 160000Z 06002KT 15SM FEW040 BKN070 OVC120 19/15 A2977 RMK SC2AC5AC1 SLP086=

CYQF;2005-07-16 01:00;METAR CYQF 160100Z 01005KT 15SM FEW040 BKN070 OVC120 18/15 A2976 RMK SC2AC4AC2 SLP084=

CYQF;2005-07-16 02:00;METAR CYQF 160200Z 01006KT 15SM SCT040 OVC070 18/14 A2976 RMK SC3AC5 SLP084=

CYQF;2005-07-16 02:17;SPECI CYQF 160217Z 01006KT 15SM -SHRA FEW040 OVC070 RMK SC2AC6=

CYQF;2005-07-16 02:41;SPECI CYQF 160241Z 03005KT 15SM SCT040 OVC070 RMK SC3AC5=

CYQF;2005-07-16 03:00;METAR CYQF 160300Z 36005KT 15SM FEW040 BKN070 OVC120 17/13 A2976 RMK SC2AC4AC2 SLP084=

CYQF;2005-07-16 03:14;SPECI CYQF 160314Z 01005KT 15SM -SHRA BKN070 OVC120 RMK AC6AC2=

CYQF;2005-07-16 04:00;METAR CYQF 160400Z 36007KT 15SM -SHRA FEW040 BKN070 OVC120 16/14 A2976 RMK SC1AC5AC2 SLP083=

CYQF;2005-07-16 05:00;METAR CYQF 160500Z 02005KT 15SM -RA FEW040 BKN070 BKN120 16/14 A2974 RMK SC1AC5AC2 SLP076=

CYQF;2005-07-16 05:16;SPECI CYQF 160516Z 00000KT 15SM FEW040 SCT070 BKN120 RMK SC1AC3AC2=

CYQF;2005-07-16 06:00;METAR CYQF 160600Z 32005KT 15SM FEW070 SCT120 14/12 A2975 RMK AC2AC2 SLP078=

CYQF;2005-07-16 07:00;METAR CYQF 160700Z 33005KT 15SM FEW050 SCT100 12/11 A2976 RMK SC2AC2 SLP080=

CYQF;2005-07-16 08:00;METAR CYQF 160800Z 32006KT 15SM FEW050 FEW100 12/11 A2976 RMK SC2AC1 SLP080=

CYQF;2005-07-16 09:00;METAR CYQF 160900Z 33006KT 15SM FEW050 FEW100 11/10 A2976 RMK SC2AC1 SLP082=

CYQF;2005-07-16 10:00;METAR CYQF 161000Z 35009KT 15SM BKN050 13/11 A2979 RMK SC7 SLP090=

CYQF;2005-07-16 11:00;METAR CYQF 161100Z 34004KT 15SM BKN050 12/11 A2977 RMK SC6 SLP085=

CYQF;2005-07-16 12:00;METAR CYQF 161200Z 33008KT 15SM FEW010 SCT050 12/10 A2978 RMK SC2SC2 SLP090=

CYQF;2005-07-16 13:00;METAR CYQF 161300Z 31008KT 15SM FEW010 FEW050 SCT250 12/11 A2979 RMK SC2SC1CI1 SLP092=

CYQF;2005-07-16 14:00;METAR CYQF 161400Z 31008KT 15SM SCT012 BKN025 13/11 A2980 RMK SC3SC3 SLP095=

CYQF;2005-07-16 15:00;METAR CYQF 161500Z 32010KT 15SM SCT011 BKN020 13/11 A2979 RMK SC3SC4 SLP092=

CYQF;2005-07-16 16:00;METAR CYQF 161600Z 34010G15KT 15SM VCSH BKN010 OVC015 13/11 A2980 RMK SC5SC3 SLP095=

CYQF;2005-07-16 18:00;METAR CYQF 161800Z 35014G22KT 15SM BKN020 BKN035 16/11 A2982 RMK CU6SC2 TCU EMBD SLP105=

CYQF;2005-07-16 19:00;METAR CYQF 161900Z 36013G20KT 15SM BKN020TCU BKN080 BKN250 17/11 A2984 RMK TCU5AC1CI0 SLP111=

CYQF;2005-07-16 21:00;METAR CYQF 162100Z 35010KT 15SM BKN024TCU BKN050 16/10 A2988 RMK TCU5SC2 SLP127=

CYQF;2005-07-16 22:00;METAR CYQF 162200Z 36012KT 15SM SCT025TCU BKN050 16/10 A2989 RMK TCU3SC4 SLP132=

CYQF;2005-07-16 23:00;METAR CYQF 162300Z 34012KT 15SM FEW025TCU SCT050 SCT250 17/10 A2989 RMK TCU2SC1CI1 SLP132=

CYQF;2005-07-17 00:00;METAR CYQF 170000Z 36013KT 15SM SCT030TCU BKN050 18/09 A2990 RMK TCU3SC2 SLP133=

CYQF;2005-07-17 01:00;METAR CYQF 170100Z 33010G15KT 15SM SCT030TCU BKN050 BKN250 18/09 A2991 RMK TCU3SC2CI1 SHS S-SW SLP135=

CYQF;2005-07-17 02:00;METAR CYQF 170200Z 31010G15KT 15SM FEW030TCU BKN050 BKN250 15/09 A2993 RMK TCU2SC3CI1 SHS SW SLP141=

CYQF;2005-07-17 03:00;METAR CYQF 170300Z 34010KT 15SM FEW030TCU BKN050 BKN250 15/09 A2995 RMK TCU2SC3CI1 SLP151=

CYQF;2005-07-17 04:00;METAR CYQF 170400Z 32008KT 15SM FEW030 SCT050 SCT250 14/09 A2998 RMK SC2SC2CI1 SLP159=

CYQF;2005-07-17 05:00;METAR CYQF 170500Z 31008KT 15SM FEW030 SCT050 12/09 A2999 RMK SC2SC2 SLP164=

CYQF;2005-07-17 06:00;METAR CYQF 170600Z 31010KT 15SM FEW030 SCT050 BKN100 13/09 A3001 RMK SC2SC2AC2 SLP172=

CYQF;2005-07-17 07:00;METAR CYQF 170700Z 30010KT 15SM SCT050 BKN090 13/09 A3003 RMK SC3AC4 SLP176=

CYQF;2005-07-17 08:00;METAR CYQF 170800Z 30014KT 15SM SCT050 BKN090 13/10 A3003 RMK SC3AC3 SLP178=

CYQF;2005-07-17 09:00;METAR CYQF 170900Z 30014KT 15SM SCT050 BKN090 13/09 A3005 RMK SC3AC4 SLP185=

CYQF;2005-07-17 10:00;METAR CYQF 171000Z 31013KT 15SM SCT050 OVC090 13/10 A3005 RMK SC4AC4 SLP186=

CYQF;2005-07-17 11:00;METAR CYQF 171100Z 32010KT 15SM FEW050 BKN080 12/10 A3006 RMK SC2AC5 SLP188=

CYQF;2005-07-17 12:00;METAR CYQF 171200Z 32013KT 15SM FEW050 BKN080 13/10 A3007 RMK SC2AC4 SLP190=

CYQF;2005-07-17 13:00;METAR CYQF 171300Z 31010KT 15SM FEW030 BKN080 12/10 A3009 RMK SC2AC3 SLP195=

CYQF;2005-07-17 14:00;METAR CYQF 171400Z 31010KT 15SM FEW030 SCT080 14/10 A3010 RMK SC2AC2 SLP198=

CYQF;2005-07-17 15:00;METAR CYQF 171500Z 31005KT 15SM FEW050 BKN100 14/10 A3011 RMK SC1AC3 SLP203=

CYQF;2005-07-17 16:00;METAR CYQF 171600Z 30010KT 15SM FEW020 FEW050 SCT100 17/11 A3011 RMK CU1SC1AC2 SLP204=

CYQF;2005-07-17 17:00;METAR CYQF 171700Z 32010G15KT 15SM SCT030 SCT100 18/11 A3010 RMK CU3AC1 SLP201=

CYQF;2005-07-17 18:00;METAR CYQF 171800Z 33010G15KT 15SM SCT035 20/11 A3010 RMK CU3 SLP198=

CYQF;2005-07-17 19:00;METAR CYQF 171900Z 32010G15KT 15SM SCT040 20/11 A3009 RMK CU3 SLP196=

CYQF;2005-07-17 20:00;METAR CYQF 172000Z 33010KT 15SM FEW040 21/10 A3008 RMK CU2 SLP193=

CYQF;2005-07-17 21:00;METAR CYQF 172100Z 34010KT 15SM SCT040 22/11 A3007 RMK CU3 SLP185=

CYQF;2005-07-17 22:00;METAR CYQF 172200Z 34004KT 15SM FEW045 22/11 A3005 RMK CU2 SLP181=

CYQF;2005-07-17 23:00;METAR CYQF 172300Z 35004KT 15SM FEW045 23/11 A3004 RMK CU2 SLP176=

CYQF;2005-07-18 00:00;METAR CYQF 180000Z 33004KT 15SM FEW045 SCT250 23/11 A3003 RMK CU2CI0 SLP169=

CYQF;2005-07-18 01:00;METAR CYQF 180100Z 33003KT 15SM FEW045 FEW250 23/11 A3001 RMK CU1CI1 SLP163=

CYQF;2005-07-18 02:00;METAR CYQF 180200Z 00000KT 15SM FEW250 23/10 A2999 RMK CI1 SLP158=

CYQF;2005-07-18 03:00;METAR CYQF 180300Z 00000KT 15SM FEW250 21/12 A2998 RMK CI1 SLP154=

CYQF;2005-07-18 04:00;METAR CYQF 180400Z 18003KT 15SM FEW060 17/12 A2997 RMK SC2 SLP150=

CYQF;2005-07-18 05:00;METAR CYQF 180500Z 19003KT 15SM SCT060 15/11 A2996 RMK SC3 SLP148=

CYQF;2005-07-18 06:00;METAR CYQF 180600Z 20005KT 15SM SCT060 14/11 A2995 RMK SC3 SLP146=

CYQF;2005-07-18 07:00;METAR CYQF 180700Z 23004KT 15SM FEW060 11/09 A2994 RMK SC2 SLP143=

CYQF;2005-07-18 08:00;METAR CYQF 180800Z 19003KT 15SM FEW100 12/09 A2993 RMK AC2 SLP138=

CYQF;2005-07-18 09:00;METAR CYQF 180900Z 21003KT 15SM FEW100 10/08 A2991 RMK AC2 SLP134=

CYQF;2005-07-18 10:00;METAR CYQF 181000Z 20003KT 15SM FEW100 09/08 A2989 RMK AC1 SLP127=

CYQF;2005-07-18 11:00;METAR CYQF 181100Z 23005KT 15SM FEW100 10/08 A2987 RMK AC2 SLP122=

CYQF;2005-07-18 12:00;METAR CYQF 181200Z 00000KT 15SM FEW100 09/07 A2986 RMK AC1 SLP117=

CYQF;2005-07-18 13:00;METAR CYQF 181300Z 00000KT 15SM FEW100 10/08 A2985 RMK AC1 SLP113=

CYQF;2005-07-18 14:00;METAR CYQF 181400Z 21002KT 15SM FEW100 FEW240 13/10 A2983 RMK AC1CC1 SLP107=

CYQF;2005-07-18 15:00;METAR CYQF 181500Z 17004KT 15SM FEW090 BKN240 16/10 A2980 RMK AC1CI2 SLP089=

CYQF;2005-07-18 16:00;METAR CYQF 181600Z 15005KT 15SM FEW090 BKN240 19/11 A2977 RMK AC1CI2 SLP081=

CYQF;2005-07-18 17:00;METAR CYQF 181700Z 20002KT 15SM FEW090 SCT240 22/12 A2976 RMK AC1CI1 SLP076=

CYQF;2005-07-18 18:00;METAR CYQF 181800Z 17004KT 15SM FEW050 FEW090 SCT240 24/09 A2973 RMK CU1AC1CI1 SLP063=

CYQF;2005-07-18 19:00;METAR CYQF 181900Z 20002KT 15SM FEW055 FEW090 SCT240 25/09 A2970 RMK CU2AC1CI0 TCU ASOCTD SLP056=

CYQF;2005-07-18 20:00;METAR CYQF 182000Z 32004KT 15SM VCSH BKN055TCU BKN090 BKN240 25/09 A2968 RMK TCU5AC1CI0 SLP049=

CYQF;2005-07-18 20:16;SPECI CYQF 182016Z 35020G30KT 15SM -SHRA BKN050TCU BKN090 RMK TCU6AC1 CB EMBD=

CYQF;2005-07-18 20:48;SPECI CYQF 182048Z 36018G28KT 15SM VCSH FEW050TCU SCT090 RMK TCU2AC2 CB EMBD=

CYQF;2005-07-18 21:00;METAR CYQF 182100Z 36018G30KT 15SM FEW040TCU SCT090 18/12 A2973 RMK TCU2AC2 SLP076=

CYQF;2005-07-18 23:00;METAR CYQF 182300Z 02015G25KT 15SM FEW025 BKN040 16/09 A2976 RMK SC2SC4 TCU EMBD SHS NW-N SLP084=

CYQF;2005-07-19 00:00;METAR CYQF 190000Z 36014G22KT 15SM FEW025 BKN040 BKN090 15/09 A2977 RMK SC1SC5AC1 SHS NW-N SLP093=

CYQF;2005-07-19 01:00;METAR CYQF 190100Z 34008KT 15SM BKN040 BKN090 14/10 A2977 RMK SC5AC2 SHS W SLP094=

CYQF;2005-07-19 02:00;METAR CYQF 190200Z 00000KT 15SM SCT040 BKN250 15/10 A2975 RMK SC4CI1 TCU EMBD SHS W SLP088=

CYQF;2005-07-19 02:24;SPECI CYQF 190224Z 00000KT 15SM -SHRA BKN040 BKN250 RMK SC6CI1=

CYQF;2005-07-19 02:34;SPECI CYQF 190234Z 00000KT 15SM BKN040 BKN250 RMK SC6CI1 TSU EMBD SHS NW NE=

CYQF;2005-07-19 03:00;METAR CYQF 190300Z 00000KT 15SM BKN040 BKN120 BKN250 14/11 A2976 RMK SC5AC1CI1 TCU EMBD SHS NW NE SLP082=

CYQF;2005-07-19 04:00;METAR CYQF 190400Z 24003KT 15SM SCT040 BKN120 BKN250 12/10 A2976 RMK SC4AC2CI1 TCU EMBD SHS SW-SE SLP082=

CYQF;2005-07-19 05:00;METAR CYQF 190500Z 23006KT 15SM BKN040TCU 11/10 A2977 RMK TCU7 SHS W-SE SLP085=

CYQF;2005-07-19 05:32;SPECI CYQF 190532Z 17004KT 15SM -SHRA BKN040TCU RMK TCU7=

CYQF;2005-07-19 06:00;METAR CYQF 190600Z 23002KT 15SM -SHRA OVC040TCU 12/11 A2978 RMK TCU8 SLP082=

CYQF;2005-07-19 06:47;SPECI CYQF 190647Z 20003KT 15SM SCT050 OVC100 RMK SC3AC5=

CYQF;2005-07-19 07:00;METAR CYQF 190700Z 00000KT 15SM FEW050 OVC100 12/11 A2977 RMK SC2AC6 SLP081=

CYQF;2005-07-19 08:00;METAR CYQF 190800Z 22005KT 15SM BKN090 OVC250 12/11 A2977 RMK AC6CI2 SLP079=

CYQF;2005-07-19 09:00;METAR CYQF 190900Z 22005KT 15SM -RA BKN090 OVC250 12/10 A2977 RMK AC6CI2 SLP088=

CYQF;2005-07-19 10:00;METAR CYQF 191000Z 25005KT 15SM -RA SCT050 BKN090 11/10 A2976 RMK SC3AC4 SLP085=

CYQF;2005-07-19 11:00;METAR CYQF 191100Z 24008KT 15SM -RA SCT050 BKN090 11/10 A2976 RMK SC4AC3 SLP083=

CYQF;2005-07-19 11:27;SPECI CYQF 191127Z 27004KT 15SM FEW020 SCT040 BKN090 RMK SC2SC2AC3=

CYQF;2005-07-19 12:00;METAR CYQF 191200Z 20003KT 15SM BKN010 OVC030 11/10 A2978 RMK SF5SC3 SLP093=

CYQF;2005-07-19 12:39;SPECI CYQF 191239Z 24003KT 15SM FEW010 BKN020 BKN090 RMK SF2SC4AC1=

CYQF;2005-07-19 13:00;METAR CYQF 191300Z 23002KT 15SM FEW010 BKN020 BKN090 12/11 A2978 RMK SF2SC5AC1 SLP095=

CYQF;2005-07-19 14:00;METAR CYQF 191400Z 26005KT 15SM FEW006 BKN025 BKN050 12/11 A2980 RMK SF1SC4SC2 SLP099=

CYQF;2005-07-19 15:00;METAR CYQF 191500Z 31003KT 15SM FEW008 SCT025 BKN050 13/11 A2980 RMK SF1SC2SC3 SLP101=

CYQF;2005-07-19 16:00;METAR CYQF 191600Z 00000KT 15SM FEW010 FEW025 SCT050 14/09 A2980 RMK SF1SC2SC2 SLP101=

CYQF;2005-07-19 17:00;METAR CYQF 191700Z 35005KT 15SM FEW035 SCT050 16/08 A2980 RMK CU2SC2 SLP101=

CYQF;2005-07-19 18:00;METAR CYQF 191800Z 32008KT 15SM FEW040 SCT060 17/05 A2981 RMK CU2SC2 SLP101=

CYQF;2005-07-19 19:00;METAR CYQF 191900Z 33007KT 15SM SCT045 18/05 A2980 RMK CU3 SLP100=

CYQF;2005-07-19 20:00;METAR CYQF 192000Z 29004KT 15SM SCT050 18/05 A2980 RMK CU3 SLP100=

CYQF;2005-07-19 21:00;METAR CYQF 192100Z 30004KT 15SM SCT050TCU 20/07 A2981 RMK TCU3 SLP098=

CYQF;2005-07-19 22:00;METAR CYQF 192200Z 30005KT 15SM SCT050TCU 19/06 A2983 RMK TCU4 SLP104=

CYQF;2005-07-19 23:00;METAR CYQF 192300Z 26008KT 15SM SCT050TCU 20/07 A2984 RMK TCU3 SLP107=

CYQF;2005-07-20 00:00;METAR CYQF 200000Z 35009KT 15SM SCT050TCU 18/08 A2986 RMK TCU4 SLP120=

CYQF;2005-07-20 01:00;METAR CYQF 200100Z 36010G15KT 15SM FEW050 FEW090 18/07 A2989 RMK CU2AC1 SLP127=

CYQF;2005-07-20 02:00;METAR CYQF 200200Z 34010G15KT 15SM FEW050 FEW090 17/07 A2991 RMK SC2AC1 SLP134=

CYQF;2005-07-20 03:00;METAR CYQF 200300Z 36008KT 15SM FEW050 15/07 A2993 RMK SC2 SLP144=

CYQF;2005-07-20 04:00;METAR CYQF 200400Z 36009KT 15SM FEW050 13/07 A2995 RMK SC2 SLP151=

CYQF;2005-07-20 06:00;METAR CYQF 200600Z 02007KT 15SM SCT060 12/07 A2999 RMK SC4 SLP165=

CYQF;2005-07-20 07:00;METAR CYQF 200700Z 36006KT 15SM SCT080 10/07 A3000 RMK AC3 SLP167=

CYQF;2005-07-20 08:00;METAR CYQF 200800Z 00000KT 15SM FEW080 07/06 A3000 RMK AC2 SLP168=

CYQF;2005-07-20 09:00;METAR CYQF 200900Z 23004KT 15SM BKN090 07/06 A3001 RMK AC5 SLP173=

CYQF;2005-07-20 10:00;METAR CYQF 201000Z 20003KT 15SM BKN090 09/07 A3002 RMK AC6 SLP175=

CYQF;2005-07-20 11:00;METAR CYQF 201100Z 21003KT 15SM SCT050 BKN090 09/08 A3001 RMK SC4AC3 SLP174=

CYQF;2005-07-20 12:00;METAR CYQF 201200Z 15003KT 15SM SCT050 BKN090 09/08 A3001 RMK SC3AC3 SLP172=

CYQF;2005-07-20 13:00;METAR CYQF 201300Z 00000KT 15SM BKN050 BKN090 10/08 A3001 RMK SC5AC2 VIRGA N SLP172=

CYQF;2005-07-20 14:00;METAR CYQF 201400Z 00000KT 15SM BKN050 BKN090 11/09 A3001 RMK SC5AC2 SLP173=

CYQF;2005-07-20 15:00;METAR CYQF 201500Z 15005KT 15SM BKN050 BKN090 14/09 A2999 RMK SC5AC1 TCU EMBD SLP164=

CYQF;2005-07-20 16:00;METAR CYQF 201600Z 13008KT 15SM BKN050 BKN090 14/10 A2998 RMK SC5AC1 TCU EMBD SLP161=

CYQF;2005-07-20 17:00;METAR CYQF 201700Z 15010KT 15SM FEW040 BKN090 BKN270 15/09 A2997 RMK SC2AC2CI1 TCU ASOCTD SLP156=

CYQF;2005-07-20 18:00;METAR CYQF 201800Z 14013KT 15SM FEW032 BKN090 BKN270 18/09 A2995 RMK CU2AC2CI1 TCU ASOCTD SLP150=

CYQF;2005-07-20 19:00;METAR CYQF 201900Z 14008KT 15SM BKN030 BKN090 17/10 A2995 RMK SC6AC2 SLP149=

CYQF;2005-07-20 20:00;METAR CYQF 202000Z 10009KT 15SM BKN035 BKN090 BKN270 17/11 A2994 RMK SC5AC1CI1 TCU ASOCTD SLP147=

CYQF;2005-07-20 21:00;METAR CYQF 202100Z 09008KT 15SM FEW035 BKN090 BKN270 19/13 A2993 RMK SC2AC2CI1 TCU ASOCTD SLP147=

CYQF;2005-07-20 22:00;METAR CYQF 202200Z 09009KT 15SM FEW035 BKN090 BKN270 19/12 A2993 RMK CU2AC2CI1 TCU ASOCTD SLP145=

CYQF;2005-07-20 23:00;METAR CYQF 202300Z 09008KT 15SM BKN030CB BKN090 BKN270 19/12 A2992 RMK CB5AC1CI0 SHS DIST W SLP142=

CYQF;2005-07-20 23:50;SPECI CYQF 202350Z 02014KT 15SM -TSRA BKN030CB RMK CB7 LTGIC/CG HVY SHS W=

CYQF;2005-07-21 00:00;METAR CYQF 210000Z 02015G26KT 15SM -TSRA BKN030CB 17/12 A2993 RMK CB7 LTGIC/CG HVY SHS W SLP146=

CYQF;2005-07-21 00:45;SPECI CYQF 210045Z 05015KT 15SM SCT040CB RMK CB3 SHS NE-SE=

CYQF;2005-07-21 01:00;METAR CYQF 210100Z 06010KT 15SM SCT040TCU 17/13 A2995 RMK TCU3 SLP152=

CYQF;2005-07-21 02:00;METAR CYQF 210200Z 09008KT 15SM FEW040TCU SCT100 16/11 A2995 RMK TCU2AC2 SLP150=

CYQF;2005-07-21 03:00;METAR CYQF 210300Z 05005KT 15SM SCT040TCU BKN100 16/10 A2997 RMK TCU3AC2 SLP157=

CYQF;2005-07-21 03:50;SPECI CYQF 210350Z 33015KT 15SM TS FEW010 BKN040CB RMK SF2CB5 LTGIC/CG NW-NE SHS N=

CYQF;2005-07-21 04:00;METAR CYQF 210400Z 01010KT 15SM TS FEW010 BKN040CB BKN250 16/11 A3003 RMK SF2CB5CI0 LTGIC/CG N-E SHS N-E SLP174=

CYQF;2005-07-21 05:00;METAR CYQF 210500Z 01007KT 15SM SCT040CB BKN250 12/10 A3005 RMK CB3CI1 RETS LTG W AND E SLP182=

CYQF;2005-07-21 06:00;METAR CYQF 210600Z 02005KT 15SM SCT040CB SCT100 BKN250 12/11 A3008 RMK CB3AC1CI1 LTG W SLP194=

CYQF;2005-07-21 06:44;SPECI CYQF 210644Z 36011KT 15SM -SHRA BKN040TCU BKN100 RMK TCU5AC2 CB EMBD LTG W=

CYQF;2005-07-21 07:00;METAR CYQF 210700Z 01005KT 15SM SCT040TCU BKN100 BKN250 13/11 A3013 RMK TCU3AC2CI2 SHS E SLP210=

CYQF;2005-07-21 08:00;METAR CYQF 210800Z 35002KT 15SM FEW040 BKN100 12/11 A3013 RMK SC2AC3 SLP209=

CYQF;2005-07-21 09:00;METAR CYQF 210900Z 29003KT 15SM FEW040 BKN080 BKN250 11/10 A3015 RMK SC2AC4CI1 SLP218=

CYQF;2005-07-21 10:00;METAR CYQF 211000Z 27003KT 15SM BKN080 10/09 A3016 RMK AC6 SLP221=

CYQF;2005-07-21 11:00;METAR CYQF 211100Z 31005KT 15SM SCT040 BKN080 11/10 A3017 RMK SC3AC3 SLP225=

CYQF;2005-07-21 12:00;METAR CYQF 211200Z 30005KT 15SM SCT040 BKN080 11/10 A3018 RMK SC4AC3 SLP231=

CYQF;2005-07-21 13:00;METAR CYQF 211300Z 30004KT 15SM SCT040 BKN080 11/09 A3020 RMK SC3AC2 VIRGA DIST N SLP236=

CYQF;2005-07-21 14:00;METAR CYQF 211400Z 30003KT 15SM SCT040 BKN080 12/09 A3021 RMK SC3AC2 SLP238=

CYQF;2005-07-21 15:00;METAR CYQF 211500Z 34005KT 15SM FEW040 SCT080 14/08 A3022 RMK SC1AC2 SLP242=

CYQF;2005-07-21 16:00;METAR CYQF 211600Z 36004KT 15SM BKN080 15/08 A3023 RMK AC6 SLP244=

CYQF;2005-07-21 17:00;METAR CYQF 211700Z 30005KT 25SM FEW030 BKN070 15/08 A3023 RMK CU1AC5 SLP246=

CYQF;2005-07-21 18:00;METAR CYQF 211800Z 00000KT 15SM FEW030 SCT080 17/09 A3023 RMK CU1AC3 SLP246=

CYQF;2005-07-21 19:00;METAR CYQF 211900Z 00000KT 15SM FEW030 SCT080 18/09 A3023 RMK CU2AC2 SLP245=

CYQF;2005-07-21 20:00;METAR CYQF 212000Z 00000KT 15SM SCT040 19/09 A3021 RMK CU3 SLP241=

CYQF;2005-07-21 21:00;METAR CYQF 212100Z 16002KT 15SM SCT045 20/09 A3021 RMK CU4 SLP238=

CYQF;2005-07-21 22:00;METAR CYQF 212200Z 13007KT 15SM FEW045 SCT250 21/10 A3018 RMK CU2CI1 SLP230=

CYQF;2005-07-21 23:00;METAR CYQF 212300Z 14010KT 15SM SCT050 21/09 A3017 RMK CU4 SLP225=

CYQF;2005-07-22 00:00;METAR CYQF 220000Z 19007KT 15SM SCT050 21/10 A3015 RMK CU3 SLP217=

CYQF;2005-07-22 01:00;METAR CYQF 220100Z 14012KT 15SM FEW045 21/10 A3013 RMK CU2 SLP209=

CYQF;2005-07-22 02:00;METAR CYQF 220200Z 15009KT 15SM FEW045 20/11 A3011 RMK SC2 SLP204=

CYQF;2005-07-22 03:00;METAR CYQF 220300Z 13005KT 15SM BKN080 19/11 A3011 RMK AC6 SLP200=

CYQF;2005-07-22 04:00;METAR CYQF 220400Z 13005KT 15SM BKN050 19/11 A3011 RMK SC7 SLP202=

CYQF;2005-07-22 05:00;METAR CYQF 220500Z 13008KT 15SM BKN050 18/11 A3010 RMK SC7 SLP199=

CYQF;2005-07-22 06:00;METAR CYQF 220600Z 14009KT 15SM BKN050 18/12 A3010 RMK SC7 SLP194=

CYQF;2005-07-22 07:00;METAR CYQF 220700Z 14008KT 15SM BKN070 18/12 A3008 RMK AC6 SLP190=

CYQF;2005-07-22 08:00;METAR CYQF 220800Z 14003KT 15SM SCT070 BKN250 17/12 A3007 RMK AC4CI2 SLP186=

CYQF;2005-07-22 10:00;METAR CYQF 221000Z 00000KT 15SM FEW070 SCT250 13/10 A3003 RMK AC1CI2 SLP173=

CYQF;2005-07-22 11:00;METAR CYQF 221100Z 13003KT 15SM BKN250 12/10 A3001 RMK CI2 SLP166=

CYQF;2005-07-22 12:00;METAR CYQF 221200Z 15005KT 15SM FEW120 BKN250 12/09 A2999 RMK AC2CI2 SLP160=

CYQF;2005-07-22 13:00;METAR CYQF 221300Z 15003KT 15SM SCT120 BKN250 13/10 A2997 RMK AC4CI2 SLP153=

CYQF;2005-07-22 14:00;METAR CYQF 221400Z 15006KT 15SM BKN100 BKN250 13/11 A2995 RMK AC5CI2 SLP148=

CYQF;2005-07-22 15:00;METAR CYQF 221500Z 15005KT 15SM BKN100 BKN250 14/11 A2995 RMK AC5CI2 SLP146=

CYQF;2005-07-22 16:00;METAR CYQF 221600Z 16009KT 15SM SCT100 BKN250 16/12 A2992 RMK AC3CI2 SLP137=

CYQF;2005-07-22 17:00;METAR CYQF 221700Z 15006KT 15SM FEW100 BKN250 18/13 A2992 RMK AC2CI2 SLP137=

CYQF;2005-07-22 18:00;METAR CYQF 221800Z 14007KT 15SM FEW100 BKN250 19/13 A2990 RMK AC2CI2 SLP123=

CYQF;2005-07-22 19:00;METAR CYQF 221900Z 13008KT 15SM FEW100 BKN250 21/13 A2988 RMK AC2CI2 SLP117=

CYQF;2005-07-22 20:00;METAR CYQF 222000Z 13010KT 15SM FEW100 BKN250 22/15 A2986 RMK AC2CI2 SLP112=

CYQF;2005-07-22 21:00;METAR CYQF 222100Z 13012G21KT 15SM SCT100 BKN250 20/14 A2985 RMK AC4CI2 SLP109=

CYQF;2005-07-22 22:00;METAR CYQF 222200Z 14013KT 15SM SCT100 BKN250 21/14 A2982 RMK AC4CI2 SLP099=

CYQF;2005-07-22 23:00;METAR CYQF 222300Z 14010KT 15SM BKN100 BKN250 19/14 A2980 RMK AC5CI2 SLP092=

CYQF;2005-07-23 00:00;METAR CYQF 230000Z 11006KT 15SM BKN100 BKN250 20/15 A2977 RMK AC6CI2 SLP083=

CYQF;2005-07-23 01:00;METAR CYQF 230100Z 09005KT 15SM BKN100 BKN250 19/15 A2973 RMK AC6CI2 SLP072=

CYQF;2005-07-23 02:00;METAR CYQF 230200Z 13008KT 15SM BKN100 OVC250 19/16 A2971 RMK AC6CI2 SLP065=

CYQF;2005-07-23 03:00;METAR CYQF 230300Z 13007KT 15SM FEW050 BKN090 OVC250 19/15 A2970 RMK SC2AC5CI1 SLP060=

CYQF;2005-07-23 04:00;METAR CYQF 230400Z 16013KT 15SM FEW050 OVC090 19/13 A2967 RMK SC2AC6 VIRGA SLP051=

CYQF;2005-07-23 05:00;METAR CYQF 230500Z 19006KT 15SM FEW050 OVC090 18/14 A2967 RMK SC2AC6 SLP049=

CYQF;2005-07-23 06:00;METAR CYQF 230600Z 28008KT 15SM BKN030 OVC090 17/15 A2967 RMK SC5AC3 SLP045=

CYQF;2005-07-23 07:00;METAR CYQF 230700Z 28009KT 15SM SCT030 BKN090 16/13 A2968 RMK SC3AC3 SLP049=

CYQF;2005-07-23 08:00;METAR CYQF 230800Z 30010G17KT 15SM FEW030 SCT090 15/11 A2969 RMK SC1AC2 SLP052=

CYQF;2005-07-23 09:00;METAR CYQF 230900Z 30012G17KT 15SM BKN100 15/11 A2972 RMK AC7 SLP065=

CYQF;2005-07-23 10:00;METAR CYQF 231000Z 31012G20KT 15SM FEW040 OVC100 15/12 A2975 RMK SC2AC6 SLP072=

CYQF;2005-07-23 11:00;METAR CYQF 231100Z 31010G15KT 15SM FEW010 FEW040 BKN100 15/11 A2977 RMK SF1SC2AC5 SLP079=

CYQF;2005-07-23 12:00;METAR CYQF 231200Z 29010KT 15SM FEW040 BKN100 14/11 A2979 RMK SC1AC6 SLP089=

CYQF;2005-07-23 13:00;METAR CYQF 231300Z 29010KT 15SM SCT040 BKN100 14/11 A2981 RMK SC3AC3 SLP095=

CYQF;2005-07-23 14:00;METAR CYQF 231400Z 30010G15KT 15SM FEW040 BKN080 15/11 A2983 RMK SC1AC5 SLP102=

CYQF;2005-07-23 15:00;METAR CYQF 231500Z 30012G20KT 15SM FEW040 SCT080 17/11 A2984 RMK SC1AC2 SLP106=

CYQF;2005-07-23 16:00;METAR CYQF 231600Z 30015G23KT 15SM FEW040 FEW080 18/09 A2984 RMK SC1AC1 SLP106=

CYQF;2005-07-23 17:00;METAR CYQF 231700Z 31012G20KT 15SM FEW040 19/09 A2985 RMK CU2 SLP108=

CYQF;2005-07-23 18:00;METAR CYQF 231800Z 31011KT 15SM FEW040 21/10 A2985 RMK CU2 SLP108=

CYQF;2005-07-23 19:00;METAR CYQF 231900Z 32010KT 15SM FEW040TCU 21/09 A2986 RMK TCU2 SLP109=

CYQF;2005-07-23 20:00;METAR CYQF 232000Z 33008KT 15SM SCT040 22/09 A2987 RMK CU3 FEW TCU SLP112=

CYQF;2005-07-23 21:00;METAR CYQF 232100Z 33006KT 15SM SCT040 SCT080 22/09 A2988 RMK CU3AC1 FEW TCU SLP116=

CYQF;2005-07-23 22:00;METAR CYQF 232200Z 35010KT 15SM SCT045TCU BKN080 23/09 A2989 RMK TCU4AC1 CB TP/SHS DIST SE SLP119=

CYQF;2005-07-23 23:00;METAR CYQF 232300Z 36012KT 15SM BKN050TCU BKN080 20/09 A2990 RMK TCU5AC1 CB EMBD/SHS NW SLP124=

CYQF;2005-07-23 23:10;SPECI CYQF 232310Z 36020G30KT 15SM -TSRAGR BKN050TCU BKN090 RMK TCU6AC1 CB EMBD N HAIL DIAM 3MM=

CYQF;2005-07-23 23:21;SPECI CYQF 232321Z 36010KT 15SM BKN050TCU RMK TCU5 CB EMBD/SHS NE-E RETS REGR=

CYQF;2005-07-24 00:00;METAR CYQF 240000Z 01005KT 15SM SCT050TCU 19/10 A2993 RMK TCU3 CB SHS=

CYQF;2005-07-24 01:00;METAR CYQF 240100Z 01006KT 15SM SCT050TCU BKN090 19/11 A2994 RMK TCU4AC1 CB SHS DIST NE SLP140=

CYQF;2005-07-24 02:00;METAR CYQF 240200Z 03006KT 15SM BKN050TCU BKN090 17/10 A2997 RMK TCU5AC1 SHS DIST SW SLP152=

CYQF;2005-07-24 03:00;METAR CYQF 240300Z 36005KT 15SM BKN040 15/08 A3000 RMK SC7 TCU EMBD SHS ALQDS SLP165=

CYQF;2005-07-24 03:17;SPECI CYQF 240317Z 00000KT 15SM -SHRA BKN040 RMK SC7 TCU EMBD=

CYQF;2005-07-24 03:35;SPECI CYQF 240335Z 03003KT 15SM VCSH BKN040 RMK SC7 TCU EMBD=

CYQF;2005-07-24 03:38;SPECI CYQF 240338Z 03003KT 15SM TS BKN040CB RMK CB7 LTGCG W=

CYQF;2005-07-24 03:44;SPECI CYQF 240344Z 00000KT 15SM -TSRA BKN040CB RMK CB7 LTGCG=

CYQF;2005-07-24 04:00;METAR CYQF 240400Z 01004KT 15SM -TSRA BKN040CB 15/10 A3002 RMK CB7 LTGCG SLP171=

CYQF;2005-07-24 04:38;SPECI CYQF 240438Z 36004KT 15SM BKN040 RETS RMK SC6 CB ASOCTD=

CYQF;2005-07-24 05:00;METAR CYQF 240500Z 33003KT 15SM BKN040 12/10 A3004 RMK SC6 RETS SLP175=

CYQF;2005-07-24 06:00;METAR CYQF 240600Z 36007KT 15SM SCT040 BKN080 13/09 A3005 RMK SC4AC2 SLP178=

CYQF;2005-07-24 07:00;METAR CYQF 240700Z 34006KT 15SM -SHRA FEW040 BKN080 12/09 A3005 RMK SC2AC3 SLP181=

CYQF;2005-07-24 08:00;METAR CYQF 240800Z 34003KT 15SM -SHRA FEW040 OVC080 11/10 A3005 RMK SC2AC6 SLP180=

CYQF;2005-07-24 09:00;METAR CYQF 240900Z 31005KT 15SM FEW040 OVC060 11/09 A3010 RMK SC2SC6 SLP198=

CYQF;2005-07-24 09:08;SPECI CYQF 240908Z 31010KT 10SM -SHRA FEW040 OVC060 RMK SC2SC6=

CYQF;2005-07-24 10:00;METAR CYQF 241000Z 34005KT 15SM SCT040 BKN080 10/08 A3009 RMK SC3AC4 SLP194=

CYQF;2005-07-24 11:00;METAR CYQF 241100Z 00000KT 15SM FEW015 OVC040 10/08 A3008 RMK SF1SC7 SLP193=

CYQF;2005-07-24 11:18;SPECI CYQF 241118Z 32007KT 15SM -SHRA BKN015 OVC040 RMK SF5SC3=

CYQF;2005-07-24 11:26;SPECI CYQF 241126Z 34006KT 8SM -SHRA BKN008 OVC015 RMK SF6SC2 BR=

CYQF;2005-07-24 12:00;METAR CYQF 241200Z 35003KT 8SM -SHRA SCT008 OVC016 09/08 A3008 RMK SF3SC5 BR SLP197=

CYQF;2005-07-24 13:00;METAR CYQF 241300Z 26005KT 5SM -RA BR FEW008 OVC016 09/08 A3012 RMK SF2SC6 SLP208=

CYQF;2005-07-24 14:00;METAR CYQF 241400Z 24005KT 8SM -RA SCT007 OVC015 08/08 A3013 RMK SF4SC4 BR SLP212=

CYQF;2005-07-24 15:00;METAR CYQF 241500Z 23004KT 6SM -RA BR FEW007 OVC020 09/08 A3013 RMK SF2SC6 SLP216=

CYQF;2005-07-24 16:00;METAR CYQF 241600Z 26004KT 12SM -RA SCT008 BKN025 OVC080 10/09 A3012 RMK SF4SC3AC1 SLP215=

CYQF;2005-07-24 17:00;METAR CYQF 241700Z 30010KT 15SM -RA SCT008 BKN030 OVC080 10/08 A3013 RMK SF3SC3AC2 SLP218=

CYQF;2005-07-24 18:00;METAR CYQF 241800Z 28008KT 15SM FEW012 BKN035 OVC080 10/08 A3014 RMK SF2SC3AC2 SLP222=

CYQF;2005-07-24 19:00;METAR CYQF 241900Z 27007KT 15SM SCT020 12/08 A3013 RMK CU4 SLP220=

CYQF;2005-07-24 20:00;METAR CYQF 242000Z 32005KT 15SM BKN022 13/08 A3013 RMK CU6 SLP219=

CYQF;2005-07-24 21:00;METAR CYQF 242100Z 33008KT 15SM BKN025TCU 14/07 A3012 RMK TCU6 SLP213=

CYQF;2005-07-24 22:00;METAR CYQF 242200Z 33005KT 15SM VCSH BKN025TCU BKN050 14/07 A3012 RMK TCU5SC2 SLP214=

CYQF;2005-07-24 23:00;METAR CYQF 242300Z 00000KT 15SM VCSH SCT030TCU BKN050 14/08 A3012 RMK TCU4SC2 SLP214=

CYQF;2005-07-25 00:00;METAR CYQF 250000Z 36004KT 15SM FEW025TCU BKN045 BKN250 15/07 A3013 RMK TCU2SC2CI1 SLP218=

CYQF;2005-07-25 02:00;METAR CYQF 250200Z 34005KT 15SM FEW030 BKN080 BKN250 14/08 A3015 RMK CU2AC2CI1 FEW TCU SHS S-SW SLP223=

CYQF;2005-07-25 03:00;METAR CYQF 250300Z 30003KT 15SM SCT030TCU BKN090 BKN250 13/08 A3016 RMK TCU3AC2CI1 CB TP DIST S SHS DIST S-SW+W SLP233=

CYQF;2005-07-25 04:00;METAR CYQF 250400Z 27007KT 15SM FEW030 SCT090 BKN250 10/07 A3018 RMK SC2AC2CI1 SHS DIST SW SLP239=

CYQF;2005-07-25 05:00;METAR CYQF 250500Z 27007KT 15SM FEW090 09/07 A3020 RMK AC2 SLP243=

CYQF;2005-07-25 06:00;METAR CYQF 250600Z 25003KT 15SM FEW090 07/05 A3020 RMK AC2 SLP249=

CYQF;2005-07-25 07:00;METAR CYQF 250700Z 00000KT 15SM SKC 06/05 A3020 RMK SLP250=

CYQF;2005-07-25 08:00;METAR CYQF 250800Z 00000KT 15SM SKC 06/05 A3020 RMK SLP251=

CYQF;2005-07-25 09:00;METAR CYQF 250900Z 20008KT 15SM SKC 06/04 A3020 RMK SLP246=

CYQF;2005-07-25 10:00;METAR CYQF 251000Z 25007KT 15SM SKC 05/04 A3020 RMK SLP246=

CYQF;2005-07-25 11:00;METAR CYQF 251100Z 18003KT 15SM SKC 04/03 A3020 RMK SLP247=

CYQF;2005-07-25 12:00;METAR CYQF 251200Z 19003KT 15SM SKC 03/02 A3021 RMK SLP253=

CYQF;2005-07-25 13:00;METAR CYQF 251300Z 20003KT 15SM SKC 04/03 A3022 RMK SLP255=

CYQF;2005-07-25 14:00;METAR CYQF 251400Z 20004KT 15SM SKC 07/05 A3023 RMK SLP258=

CYQF;2005-07-25 15:00;METAR CYQF 251500Z 26003KT 15SM FEW100 10/07 A3024 RMK AC1 SLP257=

CYQF;2005-07-25 16:00;METAR CYQF 251600Z 20003KT 15SM FEW100 12/08 A3023 RMK AC1 SLP255=

CYQF;2005-07-25 17:00;METAR CYQF 251700Z 29003KT 15SM FEW025 15/08 A3023 RMK CU1 SLP253=

CYQF;2005-07-25 18:00;METAR CYQF 251800Z 31004KT 15SM FEW035 16/07 A3022 RMK CU2 SLP250=

CYQF;2005-07-25 19:00;METAR CYQF 251900Z 34005KT 15SM FEW040 17/06 A3022 RMK CU2 SLP250=

CYQF;2005-07-25 20:00;METAR CYQF 252000Z 36005KT 15SM SCT045 18/06 A3022 RMK CU3 TCU ASOCTD SLP250=

CYQF;2005-07-25 21:00;METAR CYQF 252100Z 28003KT 15SM SCT045 18/07 A3021 RMK CU4 TCU ASOCTD SLP246=

CYQF;2005-07-25 22:00;METAR CYQF 252200Z 00000KT 15SM SCT045 19/07 A3019 RMK CU3 TCU ASOCTD SLP240=

CYQF;2005-07-25 23:00;METAR CYQF 252300Z 15005KT 15SM FEW050 19/06 A3018 RMK CU2 TCU ASOCTD SHS DIST W-NW SLP235=

CYQF;2005-07-26 00:00;METAR CYQF 260000Z 27002KT 15SM VCSH SCT050CB 18/07 A3017 RMK CB3 LTGCG NW SHS NW SLP237=

CYQF;2005-07-26 00:15;SPECI CYQF 260015Z 35012KT 15SM -SHRA SCT050CB RMK CB4 LTGCGN=

CYQF;2005-07-26 00:37;SPECI CYQF 260037Z 03010KT 15SM BKN050CB RMK CB5 SHS NE-E=

CYQF;2005-07-26 01:00;METAR CYQF 260100Z 04005KT 15SM BKN050TCU 15/10 A3018 RMK TCU5 CB E SLP239=

CYQF;2005-07-26 02:00;METAR CYQF 260200Z 00000KT 15SM BKN060 15/09 A3018 RMK SC6 TCU ASOCTD SLP240=

CYQF;2005-07-26 03:00;METAR CYQF 260300Z 00000KT 15SM BKN060 14/10 A3019 RMK SC6 TCU ASOCTD SLP240=

CYQF;2005-07-26 04:00;METAR CYQF 260400Z 00000KT 15SM BKN060 12/09 A3020 RMK SC6 SLP242=

CYQF;2005-07-26 05:00;METAR CYQF 260500Z 22002KT 15SM BKN060 11/09 A3021 RMK SC6 SLP245=

CYQF;2005-07-26 06:00;METAR CYQF 260600Z 22005KT 15SM SCT060 11/09 A3021 RMK SC3 CB DIST SE LTGIC SLP241=

CYQF;2005-07-26 07:00;METAR CYQF 260700Z 25004KT 15SM FEW060 10/09 A3022 RMK SC2 SLP244=

CYQF;2005-07-26 08:00;METAR CYQF 260800Z 21007KT 15SM FEW060 09/08 A3021 RMK SC2 SLP241=

CYQF;2005-07-26 09:00;METAR CYQF 260900Z 00000KT 15SM FEW060 07/05 A3021 RMK SC2 SLP245=

CYQF;2005-07-26 10:00;METAR CYQF 261000Z 00000KT 15SM SCT080 07/06 A3021 RMK AC4 SLP244=

CYQF;2005-07-26 11:00;METAR CYQF 261100Z 20006KT 15SM FEW040 BKN080 08/07 A3020 RMK SC2AC4 SLP241=

CYQF;2005-07-26 12:00;METAR CYQF 261200Z 19004KT 15SM FEW040 BKN080 08/07 A3020 RMK SC2AC4 SLP238=

CYQF;2005-07-26 13:00;METAR CYQF 261300Z 00000KT 15SM FEW040 SCT080 08/07 A3019 RMK SC2AC2 TCU ASOCTD SLP237=

CYQF;2005-07-26 14:00;METAR CYQF 261400Z 25003KT 15SM FEW040 BKN090 11/09 A3021 RMK SC2AC3 TCU/ACC ASOCTD VIRGA SW SLP241=

CYQF;2005-07-26 15:00;METAR CYQF 261500Z 00000KT 15SM FEW040 SCT090 BKN250 13/09 A3020 RMK SC1AC2CI2 SLP239=

CYQF;2005-07-26 16:00;METAR CYQF 261600Z 00000KT 15SM FEW090 BKN250 14/10 A3020 RMK AC2CI4 SLP239=

CYQF;2005-07-26 17:00;METAR CYQF 261700Z 01004KT 15SM FEW090 BKN250 16/11 A3020 RMK AC2CI4 SLP238=

CYQF;2005-07-26 18:00;METAR CYQF 261800Z 00000KT 15SM FEW030 BKN250 17/11 A3019 RMK CU2CI4 SLP234=

CYQF;2005-07-26 19:00;METAR CYQF 261900Z 27003KT 15SM FEW030 BKN250 18/10 A3018 RMK CU2CI4 SLP230=

CYQF;2005-07-26 20:00;METAR CYQF 262000Z 28002KT 15SM SCT035TCU SCT100 BKN250 20/10 A3017 RMK TCU3AC1CI2 SLP226=

CYQF;2005-07-26 21:00;METAR CYQF 262100Z 25002KT 15SM SCT035TCU BKN100 BKN250 21/09 A3015 RMK TCU4AC2CI1 CB EMBD/LTGCG DIST NW SLP220=

CYQF;2005-07-26 22:00;METAR CYQF 262200Z 02008KT 15SM -SHRA BKN035TCU BKN100 OVC250 15/09 A3016 RMK TCU5AC2CI1 SLP223=

CYQF;2005-07-26 22:20;SPECI CYQF 262220Z 36003KT 15SM BKN035TCU BKN100 OVC250 RMK TCU5AC2CI2 SHS ALQDS=

CYQF;2005-07-26 23:00;METAR CYQF 262300Z 00000KT 15SM BKN040TCU BKN100 OVC250 16/10 A3015 RMK TCU5AC2CI1 SHS SE-SW N-NE SLP220=

CYQF;2005-07-27 00:00;METAR CYQF 270000Z 00000KT 15SM SCT040TCU BKN100 BKN250 17/10 A3013 RMK TCU4AC2CI2 SHW N-NE SLP217=

CYQF;2005-07-27 01:00;METAR CYQF 270100Z 03005KT 15SM BKN050 BKN080 17/10 A3013 RMK SC5AC2 SHS NW TCU ASOCTD SLP217=

CYQF;2005-07-27 02:00;METAR CYQF 270200Z 04007KT 15SM -SHRA BKN050 BKN080 15/10 A3014 RMK SC5AC2 TCU ASOCTD SLP218=

CYQF;2005-07-27 02:15;SPECI CYQF 270215Z 04007KT 15SM BKN050 BKN080 RMK SC5AC2 TCU ASOCTD=

CYQF;2005-07-27 03:00;METAR CYQF 270300Z 06003KT 15SM FEW050 BKN080 14/10 A3013 RMK SC2AC5 SLP214=

CYQF;2005-07-27 03:42;SPECI CYQF 270342Z 12002KT 15SM -SHRA OVC050 RMK SC8=

CYQF;2005-07-27 04:00;METAR CYQF 270400Z 00000KT 15SM OVC070 13/10 A3014 RMK AC8 SLP216=

CYQF;2005-07-27 05:00;METAR CYQF 270500Z 00000KT 15SM OVC050 13/10 A3014 RMK SC8 SLP217=

CYQF;2005-07-27 06:00;METAR CYQF 270600Z 00000KT 15SM BKN050 OVC080 12/11 A3015 RMK SC5AC3 SLP217=

CYQF;2005-07-27 07:00;METAR CYQF 270700Z 28005KT 15SM -SHRA FEW030 OVC070 13/11 A3015 RMK SC2AC6 SLP219=

CYQF;2005-07-27 08:00;METAR CYQF 270800Z 27004KT 15SM FEW030 OVC070 12/11 A3015 RMK SC2AC5 SLP219=

CYQF;2005-07-27 08:10;SPECI CYQF 270810Z 25007KT 15SM -SHRA FEW030 OVC070 RMK SC2AC6=

CYQF;2005-07-27 09:00;METAR CYQF 270900Z 24006KT 15SM -SHRA FEW030 OVC070 12/10 A3013 RMK SC2AC5 SLP207=

CYQF;2005-07-27 10:00;METAR CYQF 271000Z 26006KT 15SM FEW030 BKN070 11/10 A3013 RMK SC2AC3 SLP207=

CYQF;2005-07-27 11:00;METAR CYQF 271100Z 00000KT 15SM FEW030 BKN070 11/10 A3013 RMK SC2AC4 SLP208=

CYQF;2005-07-27 12:00;METAR CYQF 271200Z 00000KT 15SM FEW040 BKN090 11/10 A3013 RMK SC1AC3 SLP213=

CYQF;2005-07-27 13:00;METAR CYQF 271300Z 00000KT 15SM SCT090 11/10 A3014 RMK AC3 SLP215=

CYQF;2005-07-27 14:00;METAR CYQF 271400Z 26004KT 15SM FEW090 13/11 A3013 RMK AC2 SLP214=

CYQF;2005-07-27 15:00;METAR CYQF 271500Z 30002KT 15SM FEW100 15/12 A3014 RMK AC2 SLP215=

CYQF;2005-07-27 16:00;METAR CYQF 271600Z 30005KT 15SM FEW025 SCT250 17/10 A3014 RMK CU2CI0 SLP214=

CYQF;2005-07-27 17:00;METAR CYQF 271700Z 31005KT 15SM SCT032 SCT100 BKN250 18/10 A3014 RMK CU3AC1CI0 SLP214=

CYQF;2005-07-27 18:00;METAR CYQF 271800Z 33010KT 15SM SCT040 BKN250 19/09 A3013 RMK CU4CI0 FEW TCU SLP211=

CYQF;2005-07-27 19:00;METAR CYQF 271900Z 30004KT 15SM SCT040 BKN090 BKN250 19/10 A3012 RMK CU4AC2CI0 FEW TCU SLP207=

CYQF;2005-07-27 20:00;METAR CYQF 272000Z 30003KT 15SM SCT040 BKN090 20/10 A3011 RMK CU4AC2 FEW TCU SLP204=

CYQF;2005-07-27 21:00;METAR CYQF 272100Z 05002KT 15SM SCT040 BKN090 20/10 A3010 RMK CU3AC2 FEW TCU SLP199=

CYQF;2005-07-27 22:00;METAR CYQF 272200Z 02002KT 15SM SCT040 BKN090 BKN250 21/11 A3009 RMK CU3AC2CI1 FEW TCU SLP196=

CYQF;2005-07-27 23:00;METAR CYQF 272300Z 01004KT 15SM FEW040 SCT090 BKN250 21/09 A3008 RMK CU2AC1CI2 SLP192=

CYQF;2005-07-28 00:00;METAR CYQF 280000Z 06003KT 15SM FEW040 SCT090 BKN250 21/09 A3007 RMK CU2AC2CI2 SLP188=

CYQF;2005-07-28 01:00;METAR CYQF 280100Z 09005KT 15SM FEW040 FEW090 BKN250 21/09 A3005 RMK CU1AC1CI2 SLP183=

CYQF;2005-07-28 02:00;METAR CYQF 280200Z 06005KT 15SM BKN090 BKN250 19/11 A3005 RMK AC5CI1 SLP182=

CYQF;2005-07-28 03:00;METAR CYQF 280300Z 10005KT 15SM FEW050 BKN090 BKN250 18/12 A3004 RMK SC2AC2CI1 SLP176=

CYQF;2005-07-28 04:00;METAR CYQF 280400Z 11004KT 15SM FEW050 BKN090 16/11 A3004 RMK SC2AC3 SLP176=

CYQF;2005-07-28 05:00;METAR CYQF 280500Z 16004KT 15SM FEW050 BKN090 14/11 A3002 RMK SC1AC4 SLP171=

CYQF;2005-07-28 06:00;METAR CYQF 280600Z 12004KT 15SM BKN100 15/10 A3002 RMK AC5 SLP169=

CYQF;2005-07-28 07:00;METAR CYQF 280700Z 13004KT 15SM SCT100 14/10 A3001 RMK AC4 SLP167=

CYQF;2005-07-28 08:00;METAR CYQF 280800Z 17005KT 15SM FEW100 SCT250 13/10 A2999 RMK AC2CI0 SLP161=

CYQF;2005-07-28 09:00;METAR CYQF 280900Z 17005KT 15SM FEW100 SCT250 12/10 A2998 RMK AC2CI0 SLP155=

CYQF;2005-07-28 10:00;METAR CYQF 281000Z 18004KT 15SM FEW100 SCT250 11/09 A2997 RMK AC2CI0 SLP152=

CYQF;2005-07-28 11:00;METAR CYQF 281100Z 17004KT 15SM FEW100 SCT250 11/09 A2995 RMK AC2CI0 SLP148=

CYQF;2005-07-28 12:00;METAR CYQF 281200Z 20004KT 15SM SCT100 BKN250 10/09 A2995 RMK AC3CI1 SLP150=

CYQF;2005-07-28 13:00;METAR CYQF 281300Z 00000KT 15SM FEW100 BKN250 11/09 A2996 RMK AC2CI2 SLP152=

CYQF;2005-07-28 14:00;METAR CYQF 281400Z 00000KT 15SM FEW100 BKN250 12/10 A2997 RMK AC2CI2 SLP156=

CYQF;2005-07-28 15:00;METAR CYQF 281500Z 30004KT 15SM BKN090 BKN250 14/11 A2998 RMK AC5CI2 SLP157=

CYQF;2005-07-28 16:00;METAR CYQF 281600Z 30002KT 15SM BKN090 BKN250 15/12 A2997 RMK AC5CI2 VIRGA SLP154=

CYQF;2005-07-28 17:00;METAR CYQF 281700Z 30005KT 15SM FEW050 BKN090 BKN250 17/13 A2997 RMK SC2AC3CI2 VIRGA SLP155=

CYQF;2005-07-28 17:45;SPECI CYQF 281745Z 06002KT 15SM -SHRA FEW050 BKN090 BKN250 RMK SC2AC2CI2=

CYQF;2005-07-28 18:00;METAR CYQF 281800Z 03004KT 15SM FEW050 BKN090 BKN250 17/13 A2996 RMK SC2AC3CI2 VIRGA E SLP149=

CYQF;2005-07-28 19:00;METAR CYQF 281900Z 00000KT 15SM FEW050 BKN090 BKN250 20/14 A2995 RMK SC2AC3CI2 SLP146=

CYQF;2005-07-28 20:00;METAR CYQF 282000Z 06003KT 15SM SCT055 BKN090 BKN250 21/14 A2994 RMK CU3AC2CI2 SLP143=

CYQF;2005-07-28 21:00;METAR CYQF 282100Z 13005KT 15SM FEW055 SCT090 BKN250 22/14 A2993 RMK CU2AC2CI2 SLP136=

CYQF;2005-07-28 22:00;METAR CYQF 282200Z 09005KT 15SM SCT055 BKN090 BKN250 22/12 A2991 RMK CU3AC2CI2 VIRGA SLP132=

CYQF;2005-07-28 22:52;SPECI CYQF 282252Z 03005KT 15SM -SHRA BKN040TCU BKN090 BKN250 RMK TCU5AC2CI1 CB EMBD/LTGCG N SHS NW-NE=

CYQF;2005-07-28 23:00;METAR CYQF 282300Z 02003KT 15SM -SHRA FEW015 BKN040TCU BKN090 BKN250 21/12 A2993 RMK CF1TCU4AC1CI2 CB EMBD N LTGCG N HVY SHS NW-NE SLP138=

CYQF;2005-07-28 23:48;SPECI CYQF 282348Z 03013G22KT 15SM FEW020 BKN040TCU BKN090 OVC250 RMK SC2TCU3AC2CI1 CB EMBD NE LTGCGIC NE SHS NW-NE+SE=

CYQF;2005-07-29 00:00;METAR CYQF 290000Z 01013G23KT 15SM FEW020 BKN040TCU BKN090 BKN250 16/12 A2996 RMK SC1TCU4AC2CI1 CB EMBD NE+E OCNL LTG NE SHS N-NE-E SLP156=

CYQF;2005-07-29 01:00;METAR CYQF 290100Z 06010G15KT 15SM TS BKN040CB BKN090 BKN250 17/10 A2988 RMK CB5AC1CI1 PRESFR LTGCG W-N SHS W-N SLP131=

CYQF;2005-07-29 01:12;SPECI CYQF 290112Z 06010G15KT 15SM -TSRA FEW020 BKN040CB BKN090 BKN250 RMK SF1CB5AC1CI1 PRESFR LTGCG W N-NE=

CYQF;2005-07-29 02:00;METAR CYQF 290200Z 02009KT 5SM TSRA FEW020 BKN040CB 15/11 A2992 RMK SF1CB6 LTGCG SLP145=

CYQF;2005-07-29 02:26;SPECI CYQF 290226Z 04008G15KT 15SM TS FEW020 SCT040CB BKN090 RERA RMK SF1CB3AC2 CB NE-E-S LTGCG=

CYQF;2005-07-29 02:41;SPECI CYQF 290241Z 06006KT 15SM FEW020 BKN040CB BKN090 RETSRA RMK SF1CB4AC2 CB E-S SHS ALQDS=

CYQF;2005-07-29 03:00;METAR CYQF 290300Z 04007KT 15SM BKN040TCU BKN090 14/12 A2988 RETSRA RMK TCU6AC1 CB E-S SHS ALQDS SLP126=

CYQF;2005-07-29 03:10;SPECI CYQF 290310Z 36005KT 10SM -TSRA BKN040CB BKN090 RMK CB6AC1 LTGCG W=

CYQF;2005-07-29 04:00;METAR CYQF 290400Z 16003KT 10SM TS BKN050CB OVC090 14/12 A2993 RERA RMK CB6AC2 LTGCG NW SW SHS NW-N-S SLP142=

CYQF;2005-07-29 04:25;SPECI CYQF 290425Z 33010G15KT 10SM -TSRA FEW020 BKN050CB OVC090 RMK SF2CB5AC1 LTGCG N=

CYQF;2005-07-29 05:00;METAR CYQF 290500Z 36005KT 15SM -TSRA FEW020 BKN050CB OVC090 14/13 A2997 RMK SF1CB5AC2 LTGIC SE NE SLP154=

CYQF;2005-07-29 06:00;METAR CYQF 290600Z 33005KT 15SM BKN075 13/12 A2995 RETS RMK AC5 SLP149=

CYQF;2005-07-29 06:40;SPECI CYQF 290640Z 27010KT 10SM -TSRA FEW020 OVC050CB RMK SF2CB6 LTGIC/CG SE-NW=

CYQF;2005-07-29 07:00;METAR CYQF 290700Z 27009KT 15SM -TSRA FEW020 BKN050CB OVC100 14/13 A2999 RMK SF2CB4AC2 LTGIC/CG SE-SW SLP160=

CYQF;2005-07-29 08:00;METAR CYQF 290800Z 11004KT 15SM FEW020 SCT050CB OVC100 14/13 A2993 RMK SF2CB2AC4 RETS SLP143=

CYQF;2005-07-29 09:00;METAR CYQF 290900Z 23005KT 15SM FEW020 FEW050 BKN100 12/11 A2992 RMK SF1SC2AC2 SLP134=

CYQF;2005-07-29 10:00;METAR CYQF 291000Z 22004KT 15SM FEW050 SCT100 12/11 A2992 RMK SC1AC2 SLP135=

CYQF;2005-07-29 11:00;METAR CYQF 291100Z 00000KT 15SM MIFG FEW040 SCT090 11/11 A2993 RMK SC2AC2 SLP138=

CYQF;2005-07-29 12:00;METAR CYQF 291200Z 00000KT 10SM MIFG FEW040 SCT090 10/09 A2994 RMK SC2AC2 SLP149=

CYQF;2005-07-29 13:00;METAR CYQF 291300Z 00000KT 15SM FEW040 FEW090 SCT250 10/09 A2995 RMK SC2AC1CI0 SLP151=

CYQF;2005-07-29 14:00;METAR CYQF 291400Z 00000KT 15SM FEW040 FEW200 13/11 A2995 RMK CF1CI1 SLP153=

CYQF;2005-07-29 15:00;METAR CYQF 291500Z 18002KT 15SM FEW200 15/13 A2995 RMK CI1 SLP149=

CYQF;2005-07-29 16:00;METAR CYQF 291600Z 18005KT 15SM FEW200 17/13 A2995 RMK CI0 SLP148=

CYQF;2005-07-29 17:00;METAR CYQF 291700Z 19005KT 15SM FEW200 19/14 A2993 RMK CI1 SLP143=

CYQF;2005-07-29 18:00;METAR CYQF 291800Z 00000KT 15SM FEW030 FEW200 21/14 A2993 RMK CF1CI1 TCU=

CYQF;2005-07-29 19:00;METAR CYQF 291900Z 16007KT 15SM FEW035 FEW200 23/12 A2991 RMK CF1CI1 TCU=

CYQF;2005-07-29 20:00;METAR CYQF 292000Z 18006KT 15SM FEW040 FEW200 24/13 A2990 RMK CU1CI2 TCU=

CYQF;2005-07-29 21:00;METAR CYQF 292100Z 14008KT 15SM FEW045 FEW150 BKN200 24/12 A2988 RMK CU1AC1CI2 TCU ASOCTD CB DIST NW SLP119=

CYQF;2005-07-29 22:00;METAR CYQF 292200Z 13010KT 15SM FEW050 FEW080 SCT200 25/13 A2988 RMK CU1AC2CI2 CB DIST NW-NE SLP118=

CYQF;2005-07-29 23:00;METAR CYQF 292300Z 13010G15KT 15SM FEW020 SCT050TCU BKN090 24/13 A2985 RMK SF1TCU3AC2 CB W-NE SHS W-NE LTGCG SLP111=

CYQF;2005-07-29 23:29;SPECI CYQF 292329Z 06007KT 15SM TS FEW030 BKN050CB BKN090 RMK SF2CB4AC1 SHS W-NE LTGCGIC=

CYQF;2005-07-29 23:50;SPECI CYQF 292350Z 03007KT 15SM -TSRA SCT025 BKN060CB RMK SF3CB4 LTGCGIC=

CYQF;2005-07-30 00:00;METAR CYQF 300000Z 03008KT 15SM -TSRA SCT025 BKN060CB 22/15 A2985 RMK SF3CB4 LTGCGIC W-N-NE SLP111=

CYQF;2005-07-30 00:40;SPECI CYQF 300040Z 09015G25KT 8SM -TSRA FEW015 BKN030CB BKN090 RMK SF1CB6AC1 LTGCG E=

CYQF;2005-07-30 01:29;SPECI CYQF 300129Z 09009KT 15SM FEW012 BKN050TCU BKN090 RMK SC1TCU6AC1 CB EMBD DIST E LGTCG E SHS DIST E+W-NW=

CYQF;2005-07-30 02:00;METAR CYQF 300200Z 00000KT 15SM -TSRA BKN050TCU BKN090 BKN250 14/12 A2992 RMK TCU6AC1CI1 CB EMBDD LGTCG O/H SLP134=

CYQF;2005-07-30 02:37;SPECI CYQF 300237Z 09006KT 15SM SCT050TCU BKN090 BKN250 RMK TCU4AC2CI1 CB EMBD/SHS NE-E-S RETS RERA=

CYQF;2005-07-30 03:00;METAR CYQF 300300Z 00000KT 15SM SCT050TCU BKN090 BKN250 15/13 A2992 RMK TCU4AC2CI0 CB EMBD S+E LGT S SHS NE-E-S RETS RERA SLP138=

CYQF;2005-07-30 04:00;METAR CYQF 300400Z 00000KT 15SM SCT050TCU BKN090 14/13 A2995 RMK TCU4AC2 CB EMBD SE OCNL LTNG SHS S-E SLP147=

CYQF;2005-07-30 05:00;METAR CYQF 300500Z 24005KT 15SM FEW050 SCT090 11/10 A2996 RMK CU2AC2 SLP151=

CYQF;2005-07-30 06:00;METAR CYQF 300600Z 27008KT 15SM FEW090 12/11 A2999 RMK AC2 SLP158=

CYQF;2005-07-30 07:00;METAR CYQF 300700Z 32010KT 15SM FEW090 14/12 A3001 RMK AC2 SLP165=

CYQF;2005-07-30 08:00;METAR CYQF 300800Z 13005KT 15SM FEW090 12/10 A3000 RMK AC1 SLP162=

CYQF;2005-07-30 09:00;METAR CYQF 300900Z 26007KT 15SM FEW090 08/08 A2999 RMK AC1 SLP162=

CYQF;2005-07-30 10:00;METAR CYQF 301000Z 26008KT 15SM FEW090 11/10 A3000 RMK AC2 SLP164=

CYQF;2005-07-30 11:00;METAR CYQF 301100Z 23003KT 15SM FEW090 10/09 A3001 RMK AC2 SLP167=

CYQF;2005-07-30 12:00;METAR CYQF 301200Z 20003KT 15SM FEW050 FEW090 SCT250 09/08 A3002 RMK SC1AC1CI1 SLP172=

CYQF;2005-07-30 13:00;METAR CYQF 301300Z 20005KT 15SM FEW050 SCT250 10/09 A3003 RMK SC2CI1 SLP176=

CYQF;2005-07-30 14:00;METAR CYQF 301400Z 18002KT 15SM FEW050 BKN250 12/11 A3004 RMK SC2CI2 SLP178=

CYQF;2005-07-30 15:00;METAR CYQF 301500Z 00000KT 15SM FEW050 BKN250 15/12 A3005 RMK SC1CI2 TCU ASOCTD SLP183=

CYQF;2005-07-30 16:00;METAR CYQF 301600Z 14002KT 15SM FEW050 FEW090 BKN250 18/14 A3004 RMK SC1AC2CI2 TCU ASOCTD SLP181=

CYQF;2005-07-30 17:00;METAR CYQF 301700Z 18010KT 15SM FEW050 FEW090 BKN250 22/14 A3003 RMK SC1AC1CI2 SLP176=

CYQF;2005-07-30 18:00;METAR CYQF 301800Z 19010KT 15SM FEW040 FEW100 BKN250 23/13 A3002 RMK CU1AC2CI2 SLP166=

CYQF;2005-07-30 19:00;METAR CYQF 301900Z 16011KT 15SM FEW040 SCT100 BKN250 23/14 A3001 RMK CU1AC2CI2 SLP163=

CYQF;2005-07-30 20:00;METAR CYQF 302000Z 16007KT 15SM FEW040 FEW100 BKN270 24/15 A3001 RMK CU1AC1CI2 SLP163=

CYQF;2005-07-30 21:00;METAR CYQF 302100Z 15006KT 15SM FEW040 BKN100 BKN270 24/16 A3000 RMK CU1AC4CI2 SLP163=

CYQF;2005-07-30 22:00;METAR CYQF 302200Z 15007KT 15SM FEW040 BKN100 BKN270 24/15 A2999 RMK CU1AC4CI2 SLP162=

CYQF;2005-07-30 23:00;METAR CYQF 302300Z 11004KT 15SM FEW040 SCT100 BKN270 25/16 A2999 RMK CU1AC3CI2 SLP160=

CYQF;2005-07-31 00:00;METAR CYQF 310000Z 11003KT 15SM FEW040 BKN100 BKN270 24/16 A2999 RMK CU1AC5CI1 SLP158=

CYQF;2005-07-31 01:00;METAR CYQF 310100Z 08003KT 15SM FEW040 BKN100 BKN270 24/17 A2998 RMK CU1AC5CI1 SLP157=

CYQF;2005-07-31 02:00;METAR CYQF 310200Z 06003KT 15SM FEW050 SCT120 BKN270 23/17 A2998 RMK CU2AC2CI2 SLP156=

CYQF;2005-07-31 03:00;METAR CYQF 310300Z 04002KT 15SM FEW050 FEW120 BKN270 22/17 A2999 RMK CU1AC2CI1 SLP155=

CYQF;2005-07-31 04:00;METAR CYQF 310400Z 00000KT 15SM FEW120 SCT270 18/16 A3000 RMK AC1CI2 SLP158=

CYQF;2005-07-31 05:00;METAR CYQF 310500Z 00000KT 15SM FEW120 SCT270 17/15 A3000 RMK AC1CI2 SLP158=

CYQF;2005-07-31 06:00;METAR CYQF 310600Z 00000KT 15SM FEW120 SCT270 16/14 A2999 RMK AC2CI2 SLP152=

CYQF;2005-07-31 07:00;METAR CYQF 310700Z 35003KT 15SM FEW120 SCT250 15/14 A2998 RMK AC2CI1 SLP149=

CYQF;2005-07-31 08:00;METAR CYQF 310800Z 00000KT 15SM FEW120 BKN250 14/13 A2996 RMK AC2CI1 SLP145=

CYQF;2005-07-31 08:40;SPECI CYQF 310840Z 19003KT 1SM BR SKC RMK FG5=

CYQF;2005-07-31 09:00;METAR CYQF 310900Z 20002KT 1SM BR SKC 12/12 A2996 RMK FG5 SLP146=

CYQF;2005-07-31 10:00;METAR CYQF 311000Z 00000KT 10SM MIFG FEW120 BKN250 11/10 A2994 RMK AC2CI2 SLP140=

CYQF;2005-07-31 11:00;METAR CYQF 311100Z 20004KT 10SM BCFG SCT090 BKN250 11/11 A2994 RMK AC4CI1 SLP138=

CYQF;2005-07-31 12:00;METAR CYQF 311200Z 22005KT 15SM FEW100 BKN250 11/10 A2994 RMK ACC2CI2 SLP138=

CYQF;2005-07-31 13:00;METAR CYQF 311300Z 22003KT 15SM FEW100 BKN250 12/11 A2993 RMK AC2CI2 SLP137=

CYQF;2005-07-31 14:00;METAR CYQF 311400Z 23005KT 15SM FEW100 BKN250 13/11 A2994 RMK AC2CI2 SLP140=

CYQF;2005-07-31 15:00;METAR CYQF 311500Z 00000KT 15SM SCT100 BKN250 15/12 A2995 RMK AC4CI2 SLP140=

CYQF;2005-07-31 16:00;METAR CYQF 311600Z 23002KT 15SM FEW100 BKN220 17/13 A2995 RMK AC2CI4 SLP142=

CYQF;2005-07-31 17:00;METAR CYQF 311700Z 24007KT 15SM FEW100 BKN220 20/13 A2995 RMK AC2CI4 SLP142=

CYQF;2005-07-31 18:00;METAR CYQF 311800Z 26004KT 15SM FEW100 BKN220 21/13 A2996 RMK AC2CI4 SLP146=

CYQF;2005-07-31 19:00;METAR CYQF 311900Z 29003KT 15SM FEW100 BKN220 23/14 A2998 RMK AC2CI4 SLP150=

CYQF;2005-07-31 20:00;METAR CYQF 312000Z 35002KT 15SM FEW035 FEW100 BKN220 23/14 A2999 RMK CU1AC2CI3 SLP153=

CYQF;2005-07-31 21:00;METAR CYQF 312100Z 03004KT 15SM FEW045 FEW100 BKN220 24/12 A2999 RMK CU1AC1CI3 SLP155=

CYQF;2005-07-31 22:00;METAR CYQF 312200Z 04007KT 15SM FEW045 FEW100 BKN220 25/11 A2998 RMK CU1AC1CI3 SLP152=

CYQF;2005-07-31 23:00;METAR CYQF 312300Z 07010KT 15SM FEW045 BKN220 24/12 A2996 RMK CU1CI3 SLP147=

CYQF;2005-08-01 00:00;METAR CYQF 010000Z 08009KT 15SM FEW040 BKN220 24/13 A2995 RMK CU1CI2 SLP144=

CYQF;2005-08-01 01:00;METAR CYQF 010100Z 06005KT 15SM FEW040 BKN270 23/13 A2994 RMK CU1CI3 SLP140=

CYQF;2005-08-01 02:00;METAR CYQF 010200Z 07003KT 15SM SCT270 22/13 A2993 RMK CI2 SLP138=

CYQF;2005-08-01 03:00;METAR CYQF 010300Z 09002KT 15SM FEW270 20/13 A2993 RMK CI2 SLP137=

CYQF;2005-08-01 04:00;METAR CYQF 010400Z 00000KT 15SM FEW270 18/12 A2994 RMK CI1 SLP139=

CYQF;2005-08-01 05:00;METAR CYQF 010500Z 08007KT 15SM FEW270 18/10 A2992 RMK CI1 SLP134=

CYQF;2005-08-01 06:00;METAR CYQF 010600Z 06006KT 15SM SKC 17/10 A2991 RMK SLP125=

CYQF;2005-08-01 07:00;METAR CYQF 010700Z 31003KT 15SM SKC 13/09 A2990 RMK SLP124=

CYQF;2005-08-01 08:00;METAR CYQF 010800Z 00000KT 15SM SKC 13/09 A2990 RMK SLP122=

CYQF;2005-08-01 09:00;METAR CYQF 010900Z 00000KT 15SM SKC 12/10 A2988 RMK SLP117=

CYQF;2005-08-01 10:00;METAR CYQF 011000Z 00000KT 15SM SKC 10/08 A2984 RMK SLP106=

CYQF;2005-08-01 11:00;METAR CYQF 011100Z 00000KT 15SM MIFG SCT250 09/07 A2983 RMK CI2 SLP102=

CYQF;2005-08-01 12:00;METAR CYQF 011200Z 18005KT 15SM SCT250 08/07 A2982 RMK CI2 SLP101=

CYQF;2005-08-01 13:00;METAR CYQF 011300Z 00000KT 15SM SCT250 10/09 A2981 RMK CI3 SLP098=

CYQF;2005-08-01 14:00;METAR CYQF 011400Z 00000KT 15SM FEW250 13/11 A2980 RMK CI1 SLP096=

CYQF;2005-08-01 15:00;METAR CYQF 011500Z 19005KT 15SM FEW250 17/13 A2980 RMK CI2 SLP089=

CYQF;2005-08-01 16:00;METAR CYQF 011600Z 19005KT 15SM FEW250 21/14 A2979 RMK CI2 SLP086=

CYQF;2005-08-01 17:00;METAR CYQF 011700Z 17006KT 15SM SCT250 25/16 A2977 RMK CI2 SLP080=

CYQF;2005-08-01 18:00;METAR CYQF 011800Z 19008KT 15SM FEW050 FEW140 SCT250 28/16 A2976 RMK CU1AC2CI1 SLP068=

CYQF;2005-08-01 19:00;METAR CYQF 011900Z 18010KT 15SM FEW050 FEW140 SCT250 30/15 A2975 RMK CU1AC2CI1 SLP065=

CYQF;2005-08-01 20:00;METAR CYQF 012000Z 19008KT 15SM FEW050 FEW140 SCT250 31/14 A2974 RMK CU1AC2CI1 SLP060=

CYQF;2005-08-01 21:00;METAR CYQF 012100Z 17008KT 15SM FEW060 SCT140 BKN250 30/11 A2973 RMK CU2AC2CI1 SLP058=

CYQF;2005-08-01 22:00;METAR CYQF 012200Z 18006KT 15SM FEW060TCU SCT140 BKN250 30/14 A2971 RMK TCU2AC2CI1 SLP053=

CYQF;2005-08-01 23:00;METAR CYQF 012300Z 19007KT 15SM FEW050TCU SCT100 BKN250 30/16 A2970 RMK TCU2AC2CI2 SLP049=

CYQF;2005-08-02 00:00;METAR CYQF 020000Z 21005KT 15SM FEW050TCU SCT100 BKN250 26/16 A2969 RMK TCU2AC2CI1 SLP055=

CYQF;2005-08-02 01:00;METAR CYQF 020100Z 34012G22KT 15SM SCT050TCU BKN100 BKN250 24/13 A2974 RMK TCU3AC2CI1 CB EMBDD NE SLP070=

CYQF;2005-08-02 02:00;METAR CYQF 020200Z 35010G20KT 15SM FEW050TCU BKN100 BKN250 22/11 A2977 RMK TCU2AC2CI2 VIRGA SLP078=

CYQF;2005-08-02 03:00;METAR CYQF 020300Z 36012G20KT 15SM FEW050TCU BKN100 BKN250 20/14 A2979 RMK TCU2AC2CI2 SLP088=

CYQF;2005-08-02 04:00;METAR CYQF 020400Z 36008KT 15SM SCT040 BKN090 BKN250 18/11 A2983 RMK SC3AC2CI2 CB EMBD DIST N OCNL LTG SLP100=

CYQF;2005-08-02 05:00;METAR CYQF 020500Z 35012KT 15SM SCT040 BKN090 OVC250 18/10 A2985 RMK SC4AC2CI2 CB EMBD DIST SW OCNL LTG SLP105=

CYQF;2005-08-02 06:00;METAR CYQF 020600Z 33007KT 15SM FEW040 BKN100 OVC250 16/10 A2986 RMK SC2AC3CI2 SLP104=

CYQF;2005-08-02 07:00;METAR CYQF 020700Z 32005KT 15SM -SHRA FEW050 OVC100 15/10 A2989 RMK SC2AC6 SLP111=

CYQF;2005-08-02 07:30;SPECI CYQF 020730Z 01005KT 15SM FEW050 BKN100 RMK SC1AC5=

CYQF;2005-08-02 08:00;METAR CYQF 020800Z 34006KT 15SM FEW050 BKN100 14/10 A2990 RMK SC1AC6 SLP115=

CYQF;2005-08-02 09:00;METAR CYQF 020900Z 00000KT 15SM FEW050 OVC100 12/10 A2991 RMK SC1AC7 SLP122=

CYQF;2005-08-02 10:00;METAR CYQF 021000Z 23004KT 15SM BKN100 10/09 A2993 RMK AC4 SLP128=

CYQF;2005-08-02 11:00;METAR CYQF 021100Z 00000KT 15SM FEW100 10/09 A2993 RMK AC2 SLP129=

CYQF;2005-08-02 12:00;METAR CYQF 021200Z 00000KT 15SM FEW100 FEW250 08/07 A2995 RMK AC2CI1 SLP143=

CYQF;2005-08-02 13:00;METAR CYQF 021300Z 31003KT 15SM FEW055 FEW100 SCT250 09/07 A2996 RMK SC1AC2CI1 SHS NW SLP147=

CYQF;2005-08-02 14:00;METAR CYQF 021400Z 18003KT 15SM FEW060 SCT100 11/09 A2996 RMK SC2AC1 SLP149=

CYQF;2005-08-02 15:00;METAR CYQF 021500Z 18006KT 15SM BKN060 BKN270 15/10 A2996 RMK SC6CI1 VIRGA SLP149=

CYQF;2005-08-02 16:00;METAR CYQF 021600Z 29004KT 15SM BKN060 BKN270 15/10 A2997 RMK SC5CI1 FU VIRGA SLP151=

CYQF;2005-08-02 17:00;METAR CYQF 021700Z 21005KT 15SM SCT060 BKN270 18/06 A2996 RMK SC2CI1 TCU ASOCTD SLP148=

CYQF;2005-08-02 18:00;METAR CYQF 021800Z 20008KT 15SM FEW060TCU SCT270 19/07 A2996 RMK TCU2CI1 SLP146=

CYQF;2005-08-02 19:00;METAR CYQF 021900Z 28010KT 15SM BKN060TCU BKN270 20/08 A2996 RMK TCU5CI0 SHS DIST SW + N VIRGA SLP146=

CYQF;2005-08-02 19:12;SPECI CYQF 021912Z 29012G20KT 15SM -SHRA BKN060TCU BKN270 RMK TCU6CI0=

CYQF;2005-08-02 19:40;SPECI CYQF 021940Z 22002KT 15SM BKN060TCU BKN270 RMK TCU5CI1 SHS/VIRGA=

CYQF;2005-08-02 20:00;METAR CYQF 022000Z 27003KT 15SM FEW060TCU SCT270 19/06 A2997 RMK TCU2CI1 VIRGA SLP149=

CYQF;2005-08-02 21:00;METAR CYQF 022100Z 33010KT 15SM FEW060TCU FEW270 20/04 A2998 RMK TCU2CI1 SLP158=

CYQF;2005-08-02 22:00;METAR CYQF 022200Z 35013G22KT 15SM FEW060 20/06 A3000 RMK CU1 SLP164=

CYQF;2005-08-02 23:00;METAR CYQF 022300Z 33012KT 15SM FEW060 20/04 A3002 RMK CU1 SLP170=

CYQF;2005-08-03 00:00;METAR CYQF 030000Z 33013KT 15SM FEW060 20/06 A3002 RMK CU1 SLP175=

CYQF;2005-08-03 01:00;METAR CYQF 030100Z 35010KT 15SM FEW060 20/06 A3002 RMK CU1 SLP174=

CYQF;2005-08-03 02:00;METAR CYQF 030200Z 36004KT 15SM FEW060 19/07 A3002 RMK CU1 SLP176=

CYQF;2005-08-03 03:00;METAR CYQF 030300Z 00000KT 15SM FEW050 17/09 A3005 RMK CU1 SLP183=

CYQF;2005-08-03 04:00;METAR CYQF 030400Z 00000KT 15SM FEW050 12/08 A3008 RMK SC2 SLP192=

CYQF;2005-08-03 05:00;METAR CYQF 030500Z 00000KT 15SM SCT050 11/07 A3011 RMK SC3 SLP199=

CYQF;2005-08-03 06:00;METAR CYQF 030600Z 35005KT 15SM SCT050 13/08 A3014 RMK SC3 SLP212=

CYQF;2005-08-03 07:00;METAR CYQF 030700Z 32003KT 15SM FEW050 13/07 A3016 RMK SC2 SLP219=

CYQF;2005-08-03 08:00;METAR CYQF 030800Z 28005KT 15SM SKC 10/05 A3018 RMK SLP224=

CYQF;2005-08-03 09:00;METAR CYQF 030900Z 29005KT 15SM SKC 10/05 A3019 RMK SLP231=

CYQF;2005-08-03 10:00;METAR CYQF 031000Z 25005KT 15SM SKC 07/04 A3020 RMK SLP234=

CYQF;2005-08-03 11:00;METAR CYQF 031100Z 25006KT 15SM FEW050 07/04 A3021 RMK SC1 SLP238=

CYQF;2005-08-03 12:00;METAR CYQF 031200Z 28005KT 15SM FEW050 08/04 A3021 RMK SC2 SLP241=

CYQF;2005-08-03 13:00;METAR CYQF 031300Z 26006KT 15SM FEW050 06/03 A3022 RMK SC2 SLP244=

CYQF;2005-08-03 14:00;METAR CYQF 031400Z 25007KT 15SM FEW050 10/06 A3023 RMK SC1 SLP247=

CYQF;2005-08-03 15:00;METAR CYQF 031500Z 28006KT 15SM FEW200 13/07 A3024 RMK CI1 SLP248=

CYQF;2005-08-03 16:00;METAR CYQF 031600Z 31007KT 15SM SKC 17/07 A3024 RMK SLP249=

CYQF;2005-08-03 17:00;METAR CYQF 031700Z 32006KT 15SM SKC 17/06 A3024 RMK SLP249=

CYQF;2005-08-03 18:00;METAR CYQF 031800Z 31007KT 15SM FEW045 19/07 A3024 RMK CU1 SLP247=

CYQF;2005-08-03 19:00;METAR CYQF 031900Z 32009KT 15SM FEW050 19/06 A3023 RMK CU2 SLP245=

CYQF;2005-08-03 20:00;METAR CYQF 032000Z 31010KT 15SM FEW050 SCT270 20/07 A3023 RMK CU2CI0 SLP244=

CYQF;2005-08-03 21:00;METAR CYQF 032100Z 29006KT 15SM FEW060 SCT270 20/06 A3023 RMK CU2CI0 SLP246=

CYQF;2005-08-03 22:00;METAR CYQF 032200Z 26006KT 15SM FEW060 FEW270 21/06 A3022 RMK CU2CI0 SLP243=

CYQF;2005-08-03 23:00;METAR CYQF 032300Z 35005KT 15SM FEW060 SCT270 21/06 A3022 RMK CU1CI0 SLP241=

CYQF;2005-08-04 00:00;METAR CYQF 040000Z 35005KT 15SM FEW060 FEW270 21/06 A3021 RMK CU1CI0 SLP240=

CYQF;2005-08-04 01:00;METAR CYQF 040100Z 34003KT 15SM FEW250 21/05 A3021 RMK CI1 SLP239=

CYQF;2005-08-04 02:00;METAR CYQF 040200Z 00000KT 15SM FEW250 20/07 A3021 RMK CI1 SLP239=

CYQF;2005-08-04 03:00;METAR CYQF 040300Z 00000KT 15SM FEW250 18/10 A3022 RMK CI1 SLP239=

CYQF;2005-08-04 04:00;METAR CYQF 040400Z 00000KT 15SM FEW250 15/09 A3023 RMK CI1 SLP243=

CYQF;2005-08-04 05:00;METAR CYQF 040500Z 00000KT 15SM SKC 11/07 A3024 RMK SLP246=

CYQF;2005-08-04 06:00;METAR CYQF 040600Z 00000KT 15SM SKC 10/07 A3024 RMK SLP250=

CYQF;2005-08-04 07:00;METAR CYQF 040700Z 20005KT 15SM SKC 09/06 A3024 RMK SLP250=

CYQF;2005-08-04 08:00;METAR CYQF 040800Z 18002KT 15SM SKC 08/05 A3024 RMK SLP250=

CYQF;2005-08-04 09:00;METAR CYQF 040900Z 18002KT 15SM SKC 08/05 A3023 RMK SLP248=

CYQF;2005-08-04 10:00;METAR CYQF 041000Z 19003KT 15SM SKC 08/05 A3023 RMK SLP248=

CYQF;2005-08-04 11:00;METAR CYQF 041100Z 00000KT 15SM SKC 07/05 A3023 RMK SLP247=

CYQF;2005-08-04 12:00;METAR CYQF 041200Z 16004KT 15SM FEW250 07/05 A3022 RMK CI0 SLP242=

CYQF;2005-08-04 13:00;METAR CYQF 041300Z 19004KT 15SM SCT250 07/04 A3021 RMK CI1 SLP240=

CYQF;2005-08-04 14:00;METAR CYQF 041400Z 16010KT 15SM SCT250 12/06 A3019 RMK CI1 SLP233=

CYQF;2005-08-04 15:00;METAR CYQF 041500Z 17011KT 15SM BKN270 16/08 A3018 RMK CI2 SLP224=

CYQF;2005-08-04 16:00;METAR CYQF 041600Z 19012KT 15SM BKN270 18/10 A3016 RMK CI3 SLP219=

CYQF;2005-08-04 17:00;METAR CYQF 041700Z 19012KT 15SM FEW120 BKN270 20/10 A3015 RMK AC1CI3 SLP216=

CYQF;2005-08-04 18:00;METAR CYQF 041800Z 20006KT 15SM FEW120 BKN270 21/11 A3015 RMK AC2CI4 SLP216=

CYQF;2005-08-04 19:00;METAR CYQF 041900Z 26003KT 15SM FEW120 BKN270 22/11 A3014 RMK AC2CI4 SLP212=

CYQF;2005-08-04 21:00;METAR CYQF 042100Z 26002KT 15SM FEW060 BKN120 BKN250 24/08 A3011 RMK CU2AC4CI2 SLP202=

CYQF;2005-08-04 22:00;METAR CYQF 042200Z 00000KT 15SM SCT120 BKN270 25/06 A3009 RMK AC4CI2 SLP197=

CYQF;2005-08-04 23:00;METAR CYQF 042300Z 00000KT 15SM FEW060 BKN120 BKN270 24/04 A3008 RMK SC2AC4CI2 SLP193=

CYQF;2005-08-05 00:00;METAR CYQF 050000Z 00000KT 15SM FEW080 BKN120 OVC270 24/07 A3007 RMK AC2AC4CI2 SLP190=

CYQF;2005-08-05 01:00;METAR CYQF 050100Z 00000KT 15SM BKN120 BKN270 23/10 A3005 RMK AC5CI2 SLP184=

CYQF;2005-08-05 02:00;METAR CYQF 050200Z 00000KT 15SM FEW120 BKN270 23/08 A3004 RMK AC2CI2 SLP180=

CYQF;2005-08-05 03:00;METAR CYQF 050300Z 00000KT 15SM SCT270 20/11 A3004 RMK CI2 SLP174=

CYQF;2005-08-05 04:00;METAR CYQF 050400Z 00000KT 15SM FEW270 16/10 A3005 RMK CI1 SLP176=

CYQF;2005-08-05 05:00;METAR CYQF 050500Z 00000KT 15SM FEW270 12/09 A3004 RMK CI1 SLP175=

CYQF;2005-08-05 06:00;METAR CYQF 050600Z 00000KT 15SM SKC 14/10 A3003 RMK SLP171=

CYQF;2005-08-05 07:00;METAR CYQF 050700Z 25003KT 15SM SKC 09/07 A3003 RMK SLP172=

CYQF;2005-08-05 08:00;METAR CYQF 050800Z 18003KT 15SM SKC 09/07 A3003 RMK SLP171=

CYQF;2005-08-05 09:00;METAR CYQF 050900Z 21005KT 15SM FEW250 08/07 A3003 RMK CI0 SLP173=

CYQF;2005-08-05 10:00;METAR CYQF 051000Z 19004KT 15SM FEW250 08/06 A3002 RMK CI0 SLP172=

CYQF;2005-08-05 11:00;METAR CYQF 051100Z 20003KT 15SM FEW100 SCT250 07/06 A3002 RMK AC2CI1 SLP172=

CYQF;2005-08-05 12:00;METAR CYQF 051200Z 19004KT 15SM BKN100 BKN250 08/06 A3003 RMK AC5CI1 SLP175=

CYQF;2005-08-05 13:00;METAR CYQF 051300Z 19003KT 15SM FEW100 BKN250 08/06 A3004 RMK AC2CI3 SLP177=

CYQF;2005-08-05 14:00;METAR CYQF 051400Z 20004KT 15SM FEW100 BKN250 10/08 A3004 RMK AC2CI3 SLP179=

CYQF;2005-08-05 15:00;METAR CYQF 051500Z 20003KT 15SM SCT250 13/10 A3004 RMK CI2 SLP177=

CYQF;2005-08-05 16:00;METAR CYQF 051600Z 21004KT 15SM FEW250 17/11 A3003 RMK CI1 SLP174=

CYQF;2005-08-05 17:00;METAR CYQF 051700Z 24004KT 15SM FEW250 22/12 A3001 RMK CI1 SLP169=

CYQF;2005-08-05 18:00;METAR CYQF 051800Z 21004KT 15SM FEW120 FEW250 25/12 A3001 RMK AC1CI1 SLP159=

CYQF;2005-08-05 19:00;METAR CYQF 051900Z 20005KT 15SM FEW120 FEW250 27/06 A3000 RMK AC1CI1 SLP156=

CYQF;2005-08-05 20:00;METAR CYQF 052000Z 16003KT 15SM FEW250 28/04 A2999 RMK CI1 SLP153=

CYQF;2005-08-05 21:00;METAR CYQF 052100Z 14005KT 15SM SCT250 29/07 A2998 RMK CI1 SLP151=

CYQF;2005-08-05 22:00;METAR CYQF 052200Z 09003KT 15SM BKN250 29/08 A2997 RMK CI1 SLP148=

CYQF;2005-08-05 23:00;METAR CYQF 052300Z 08005KT 15SM FEW120 BKN250 29/08 A2995 RMK AC1CI2 SLP143=

CYQF;2005-08-06 00:00;METAR CYQF 060000Z 08005KT 15SM FEW120 BKN250 28/07 A2995 RMK AC1CI2 SLP144=

CYQF;2005-08-06 01:00;METAR CYQF 060100Z 02010KT 15SM BKN250 25/13 A2996 RMK CI2 SLP146=

CYQF;2005-08-06 02:00;METAR CYQF 060200Z 03012KT 15SM BKN250 23/12 A2997 RMK CI2 SLP150=

CYQF;2005-08-06 03:00;METAR CYQF 060300Z 03008KT 15SM SCT250 22/11 A2998 RMK CI2 SLP155=

CYQF;2005-08-06 04:00;METAR CYQF 060400Z 03006KT 15SM SCT250 20/10 A3001 RMK CI2 SLP162=

CYQF;2005-08-06 05:00;METAR CYQF 060500Z 01006KT 15SM SCT250 17/11 A3002 RMK CI2 SLP166=

CYQF;2005-08-06 06:00;METAR CYQF 060600Z 34005KT 15SM SCT250 14/10 A3003 RMK CI1 SLP167=

CYQF;2005-08-06 07:00;METAR CYQF 060700Z 32006KT 15SM SCT250 14/10 A3005 RMK CI2 SLP174=

CYQF;2005-08-06 08:00;METAR CYQF 060800Z 00000KT 15SM SCT250 12/10 A3007 RMK CI2 SLP178=

CYQF;2005-08-06 09:00;METAR CYQF 060900Z 00000KT 15SM SCT250 11/09 A3008 RMK CI3 SLP185=

CYQF;2005-08-06 10:00;METAR CYQF 061000Z 33005KT 15SM FEW250 11/09 A3010 RMK CI1 SLP191=

CYQF;2005-08-06 11:00;METAR CYQF 061100Z 19002KT 15SM FEW250 09/08 A3011 RMK CI1 SLP192=

CYQF;2005-08-06 12:00;METAR CYQF 061200Z 21002KT 10SM MIFG FEW250 08/08 A3011 RMK CI1 BR SLP198=

CYQF;2005-08-06 13:00;METAR CYQF 061300Z 19003KT 10SM FEW250 09/08 A3011 RMK CI1 BR SLP197=

CYQF;2005-08-06 14:00;METAR CYQF 061400Z 19002KT 15SM SKC 11/10 A3011 RMK SLP198=

CYQF;2005-08-06 15:00;METAR CYQF 061500Z 18003KT 15SM SKC 16/13 A3011 RMK SLP196=

CYQF;2005-08-06 16:00;METAR CYQF 061600Z 17008KT 15SM SKC 20/12 A3009 RMK SLP191=

CYQF;2005-08-06 18:00;METAR CYQF 061800Z 16010KT 15SM FEW250 23/10 A3006 RMK CI1 SLP180=

CYQF;2005-08-06 19:00;METAR CYQF 061900Z 17012KT 15SM FEW250 24/10 A3004 RMK CI1 SLP172=

CYQF;2005-08-06 20:00;METAR CYQF 062000Z 17013KT 15SM FEW250 25/10 A3001 RMK CI1 SLP165=

CYQF;2005-08-06 21:00;METAR CYQF 062100Z 15012KT 15SM FEW250 26/10 A2999 RMK CI1 SLP155=

CYQF;2005-08-06 22:00;METAR CYQF 062200Z 14014KT 15SM FEW060 FEW250 26/10 A2996 RMK CU1CI1 SLP148=

CYQF;2005-08-06 23:00;METAR CYQF 062300Z 14013KT 15SM FEW060 FEW250 27/10 A2994 RMK CU1CI1 SLP141=

CYQF;2005-08-07 00:00;METAR CYQF 070000Z 13012KT 15SM FEW100 FEW250 27/10 A2991 RMK CU1CI1 SLP129=

CYQF;2005-08-07 01:00;METAR CYQF 070100Z 14008KT 15SM FEW060 SCT250 26/10 A2989 RMK CU1CI1 SLP122=

CYQF;2005-08-07 02:00;METAR CYQF 070200Z 11005KT 15SM FEW060 BKN250 24/11 A2987 RMK CU2CI1 SLP118=

CYQF;2005-08-07 03:00;METAR CYQF 070300Z 13005KT 15SM FEW060 BKN250 22/11 A2987 RMK SC2CI1 SLP112=

CYQF;2005-08-07 04:00;METAR CYQF 070400Z 15003KT 15SM FEW060 SCT250 19/10 A2987 RMK SC2CI0 SLP114=

CYQF;2005-08-07 05:00;METAR CYQF 070500Z 02006KT 15SM FEW060 FEW250 17/10 A2988 RMK SC1CI0 SLP116=

CYQF;2005-08-07 06:00;METAR CYQF 070600Z 05002KT 15SM FEW060 FEW250 17/09 A2989 RMK SC1CI0 SLP117=

CYQF;2005-08-07 08:00;METAR CYQF 070800Z 03010KT 15SM FEW060 16/12 A2993 RMK SC1 LTGIC DIST NW N SLP129=

CYQF;2005-08-07 09:00;METAR CYQF 070900Z 33010KT 15SM FEW060 14/11 A2997 RMK SC2 SLP146=

CYQF;2005-08-07 10:00;METAR CYQF 071000Z 35010G15KT 15SM BKN011 15/12 A2999 RMK SC7 SLP151=

CYQF;2005-08-07 11:00;METAR CYQF 071100Z 35010KT 15SM BKN011 15/12 A3000 RMK SC7 SLP155=

CYQF;2005-08-07 11:25;SPECI CYQF 071125Z 35010KT 15SM SCT011 RMK SC3=

CYQF;2005-08-07 12:00;METAR CYQF 071200Z 33006KT 15SM FEW011 FEW040 13/11 A3002 RMK SC1SC2 SLP161=

CYQF;2005-08-07 13:00;METAR CYQF 071300Z 34007KT 15SM FEW050 FEW080 13/10 A3003 RMK SC2AC1 SLP164=

CYQF;2005-08-07 14:00;METAR CYQF 071400Z 31005KT 15SM FEW050 FEW080 14/10 A3005 RMK SC1AC1 SLP170=

CYQF;2005-08-07 15:00;METAR CYQF 071500Z 35010KT 15SM FEW010 FEW040 SCT090 SCT250 15/10 A3005 RMK SF1SC1AC2CI0 SLP176=

CYQF;2005-08-07 16:00;METAR CYQF 071600Z 34010KT 15SM FEW040 BKN080 BKN250 15/09 A3005 RMK SC2AC2CI0 SLP177=

CYQF;2005-08-07 17:00;METAR CYQF 071700Z 34010KT 15SM FEW025 FEW040 FEW090 SCT250 16/09 A3006 RMK CF1SC1AC1CI0 SLP178=

CYQF;2005-08-07 18:00;METAR CYQF 071800Z 35013KT 15SM FEW025 FEW040 FEW090 SCT250 17/08 A3006 RMK CU1SC1AC1CI0 SLP183=

CYQF;2005-08-07 19:00;METAR CYQF 071900Z 34012KT 15SM FEW025 FEW040 SCT090 SCT250 19/09 A3006 RMK CU1SC2AC1CI0 SLP184=

CYQF;2005-08-07 20:00;METAR CYQF 072000Z 36008KT 15SM FEW050 SCT250 19/07 A3006 RMK CU2CI0 SLP183=

CYQF;2005-08-07 21:00;METAR CYQF 072100Z 34008KT 15SM FEW050 SCT090 19/10 A3005 RMK CU2AC1 SLP182=

CYQF;2005-08-07 22:00;METAR CYQF 072200Z 35010KT 15SM FEW050 SCT100 20/10 A3004 RMK CU2AC2 SLP178=

CYQF;2005-08-07 23:00;METAR CYQF 072300Z 34010KT 15SM FEW050 BKN100 20/10 A3004 RMK CU2AC2 SLP177=

CYQF;2005-08-08 00:00;METAR CYQF 080000Z 34009KT 15SM FEW050 BKN100 20/10 A3005 RMK CU2AC2 SLP178=

CYQF;2005-08-08 01:00;METAR CYQF 080100Z 02007KT 15SM FEW050 SCT100 BKN240 20/08 A3004 RMK CU2AC1CI1 SLP177=

CYQF;2005-08-08 02:00;METAR CYQF 080200Z 00000KT 15SM FEW050 BKN100 BKN240 19/09 A3005 RMK CU2AC4CI1 SLP180=

CYQF;2005-08-08 03:00;METAR CYQF 080300Z 00000KT 15SM FEW050 BKN090 BKN240 19/08 A3006 RMK SC1AC5CI1 SLP182=

CYQF;2005-08-08 04:00;METAR CYQF 080400Z 03004KT 15SM FEW050 BKN090 17/09 A3007 RMK SC1AC6 SLP186=

CYQF;2005-08-08 05:00;METAR CYQF 080500Z 00000KT 15SM BKN090 17/09 A3008 RMK AC7 SLP188=

CYQF;2005-08-08 06:00;METAR CYQF 080600Z 00000KT 15SM BKN090 16/07 A3009 RMK AC7 SLP193=

CYQF;2005-08-08 07:00;METAR CYQF 080700Z 17002KT 15SM BKN100 14/10 A3008 RMK AC7 SLP192=

CYQF;2005-08-08 08:00;METAR CYQF 080800Z 19004KT 15SM BKN100 14/10 A3009 RMK AC6 SLP193=

CYQF;2005-08-08 08:30;SPECI CYQF 080830Z 23003KT 15SM -SHRA OVC100 RMK AC8=

CYQF;2005-08-08 09:50;SPECI CYQF 080950Z 03002KT 15SM -SHRA BKN100 RMK AC7=

CYQF;2005-08-08 10:00;METAR CYQF 081000Z 00000KT 15SM -SHRA BKN100 13/11 A3009 RMK AC7 SLP195=

CYQF;2005-08-08 11:00;METAR CYQF 081100Z 16002KT 15SM OVC100 13/11 A3009 RMK AC8 SLP195=

CYQF;2005-08-08 11:04;SPECI CYQF 081104Z 13003KT 15SM -SHRA OVC100 RMK AC8=

CYQF;2005-08-08 12:00;METAR CYQF 081200Z 15002KT 15SM -SHRA BKN050 OVC100 13/11 A3009 RMK SC6AC2 SLP195=

CYQF;2005-08-08 12:27;SPECI CYQF 081227Z 17005KT 15SM BKN050 OVC100 RMK SC6AC2=

CYQF;2005-08-08 13:00;METAR CYQF 081300Z 00000KT 15SM FEW012 BKN060 OVC090 13/10 A3009 RMK SF1SC5AC2 SLP193=

CYQF;2005-08-08 13:04;SPECI CYQF 081304Z 07003KT 15SM -SHRA FEW012 BKN050 OVC090 RMK SF1SC6AC2=

CYQF;2005-08-08 14:00;METAR CYQF 081400Z 35007KT 15SM -SHRA FEW015 OVC050 13/11 A3011 RMK SF2SC6 SLP200=

CYQF;2005-08-08 15:00;METAR CYQF 081500Z 35008KT 10SM -SHRA FEW020 OVC050 12/11 A3012 RMK SF2SC6 SLP206=

CYQF;2005-08-08 16:00;METAR CYQF 081600Z 04005KT 15SM -SHRA FEW015 OVC060 12/10 A3012 RMK SC2SC6 SLP207=

CYQF;2005-08-08 17:00;METAR CYQF 081700Z 01008KT 15SM -SHRA FEW010 BKN050 OVC090 12/10 A3014 RMK SC2SC5AC2 SLP211=

CYQF;2005-08-08 18:00;METAR CYQF 081800Z 01010KT 15SM -SHRA FEW010 BKN050 OVC090 12/10 A3014 RMK SC2SC5AC2 SLP217=

CYQF;2005-08-08 19:00;METAR CYQF 081900Z 36010KT 15SM FEW010 BKN050 OVC090 13/09 A3014 RMK SC2SC5AC2 SLP216=

CYQF;2005-08-08 20:00;METAR CYQF 082000Z 05005KT 15SM FEW030 BKN050 BKN090 15/10 A3013 RMK CU2SC3AC2 SLP212=

CYQF;2005-08-08 21:00;METAR CYQF 082100Z 34003KT 15SM FEW030TCU SCT050 SCT090 16/08 A3013 RMK TCU2SC2AC1 LINE TCU TPS NW-NE SLP210=

CYQF;2005-08-08 22:00;METAR CYQF 082200Z 35003KT 15SM SCT040TCU SCT090 17/09 A3013 RMK TCU3AC1 SLP211=

CYQF;2005-08-08 23:00;METAR CYQF 082300Z 02012KT 15SM SCT040TCU SCT250 16/08 A3014 RMK TCU3CI0 SLP214=

CYQF;2005-08-09 00:00;METAR CYQF 090000Z 03008KT 15SM FEW040TCU SCT250 17/08 A3014 RMK TCU2CI0 SLP215=

CYQF;2005-08-09 01:00;METAR CYQF 090100Z 36004KT 15SM FEW040TCU SCT250 17/09 A3014 RMK TCU2CI1 CB TP DIST NE SLP214=

CYQF;2005-08-09 02:00;METAR CYQF 090200Z 35002KT 15SM FEW040TCU FEW090 16/08 A3015 RMK TCU2AC1 SLP217=

CYQF;2005-08-09 03:00;METAR CYQF 090300Z 00000KT 15SM FEW040 FEW090 15/08 A3015 RMK SC1AC2 SLP223=

CYQF;2005-08-09 04:00;METAR CYQF 090400Z 00000KT 15SM FEW090 12/09 A3017 RMK AC1 SLP227=

CYQF;2005-08-09 05:00;METAR CYQF 090500Z 00000KT 15SM FEW090 09/08 A3017 RMK AC1 SLP228=

CYQF;2005-08-09 06:00;METAR CYQF 090600Z 00000KT 15SM SKC 09/07 A3017 RMK SLP236=

CYQF;2005-08-09 07:00;METAR CYQF 090700Z 00000KT 15SM SKC 07/06 A3018 RMK SLP237=

CYQF;2005-08-09 08:00;METAR CYQF 090800Z 18003KT 15SM SKC 07/06 A3017 RMK SLP234=

CYQF;2005-08-09 09:00;METAR CYQF 090900Z 21004KT 15SM FEW250 06/05 A3016 RMK CI1 SLP231=

CYQF;2005-08-09 10:00;METAR CYQF 091000Z 00000KT 15SM BKN110 BKN250 06/05 A3015 RMK AC5CI1 SLP228=

CYQF;2005-08-09 11:00;METAR CYQF 091100Z 00000KT 15SM BKN100 07/06 A3015 RMK AC6 SLP226=

CYQF;2005-08-09 12:00;METAR CYQF 091200Z 00000KT 15SM BKN090 08/07 A3015 RMK AC6 SLP222=

CYQF;2005-08-09 13:00;METAR CYQF 091300Z 00000KT 10SM SCT060 BKN090 09/07 A3015 RMK SC3AC2 BR SLP223=

CYQF;2005-08-09 16:00;METAR CYQF 091600Z 00000KT 15SM BKN050 BKN090 14/11 A3015 RMK SC5AC2 SLP221=

CYQF;2005-08-09 17:00;METAR CYQF 091700Z 05003KT 15SM SCT050 BKN090 16/11 A3015 RMK SC4AC2 FEW MDT CU ASOCTD SLP219=

CYQF;2005-08-09 18:00;METAR CYQF 091800Z 01008KT 15SM FEW050 BKN090 16/12 A3015 RMK CU2AC3 SLP224=

CYQF;2005-08-09 19:00;METAR CYQF 091900Z 36008KT 15SM SCT045TCU BKN090 19/11 A3015 RMK TCU4AC2 SLP225=

CYQF;2005-08-09 20:00;METAR CYQF 092000Z 01010G17KT 15SM SCT040TCU BKN090 19/11 A3015 RMK TCU4AC2 SLP223=

CYQF;2005-08-09 22:00;METAR CYQF 092200Z 35011KT 15SM BKN040TCU BKN090 18/08 A3017 RMK TCU5AC2 SHS DIST E-SE SLP229=

CYQF;2005-08-09 23:00;METAR CYQF 092300Z 00000KT 15SM FEW030 BKN050TCU BKN090 17/10 A3017 RMK SC2TCU4AC2 SLP231=

CYQF;2005-08-10 00:00;METAR CYQF 100000Z 35012KT 15SM BKN050TCU OVC100 17/10 A3018 RMK TCU6AC2 SLP234=

CYQF;2005-08-10 01:00;METAR CYQF 100100Z 02012KT 15SM BKN050TCU OVC100 15/10 A3019 RMK TCU6AC2 SLP237=

CYQF;2005-08-10 02:00;METAR CYQF 100200Z 01011KT 15SM BKN050 OVC090 14/10 A3019 RMK SC5AC3 SLP237=

CYQF;2005-08-10 03:00;METAR CYQF 100300Z 01008KT 15SM BKN050 OVC090 13/09 A3021 RMK SC5AC3 SLP242=

CYQF;2005-08-10 04:00;METAR CYQF 100400Z 02010KT 15SM FEW030 BKN050 OVC100 13/09 A3024 RMK SC2SC4AC2 SLP251=

CYQF;2005-08-10 05:00;METAR CYQF 100500Z 03004KT 15SM FEW030 SCT050 OVC090 12/08 A3025 RMK SC2SC2AC4 SLP254=

CYQF;2005-08-10 06:00;METAR CYQF 100600Z 02005KT 15SM SCT025 BKN050 OVC090 12/08 A3025 RMK SC3SC2AC2 SLP255=

CYQF;2005-08-10 06:21;SPECI CYQF 100621Z 03006KT 15SM -SHRA SCT025 BKN050 OVC090 RMK SC3SC2AC2=

CYQF;2005-08-10 07:00;METAR CYQF 100700Z 02004KT 15SM -SHRA FEW025 BKN050 OVC090 12/08 A3025 RMK SC2SC3AC3 SLP254=

CYQF;2005-08-10 08:00;METAR CYQF 100800Z 05005KT 12SM -SHRA FEW006 SCT050 OVC090 11/09 A3024 RMK SF1SC3AC4 SLP251=

CYQF;2005-08-10 09:00;METAR CYQF 100900Z 03005KT 15SM -RA FEW006 SCT050 OVC090 10/09 A3023 RMK SF1SC2AC5 SLP247=

CYQF;2005-08-10 10:00;METAR CYQF 101000Z 09003KT 15SM BKN050 OVC090 10/08 A3024 RMK SC6AC2 SLP249=

CYQF;2005-08-10 10:13;SPECI CYQF 101013Z 05002KT 10SM -SHRA BKN050 OVC090 RMK SC6AC2=

CYQF;2005-08-10 11:00;METAR CYQF 101100Z 03006KT 10SM -SHRA FEW006 BKN050 OVC090 09/08 A3023 RMK SF1SC5AC2 SLP246=

CYQF;2005-08-10 12:00;METAR CYQF 101200Z 04005KT 10SM -RA FEW006 OVC015 09/08 A3023 RMK SF2SC6 SLP251=

CYQF;2005-08-10 13:00;METAR CYQF 101300Z 02005KT 8SM -RA FEW015 BKN030 OVC090 09/08 A3024 RMK SF2SC3AC2 BR SLP252=

CYQF;2005-08-10 14:00;METAR CYQF 101400Z 04002KT 8SM -RA FEW030 OVC050 09/07 A3025 RMK SC2SC6 BR SLP257=

CYQF;2005-08-10 15:00;METAR CYQF 101500Z 05004KT 8SM -RA FEW005 OVC050 09/07 A3026 RMK SF1SC7 SLP266=

CYQF;2005-08-10 15:54;SPECI CYQF 101554Z 03004KT 15SM FEW005 SCT030 OVC050 RMK SF1SC2SC5 SHS/VIRGA SW-NW+SE=

CYQF;2005-08-10 16:46;SPECI CYQF 101646Z 02007KT 12SM -RA FEW005 SCT020 OVC050 RMK SF2SC2SC5=

CYQF;2005-08-10 17:00;METAR CYQF 101700Z 02010KT 15SM -RA FEW010 SCT030 OVC050 09/06 A3027 RMK SC2SC2SC4 SLP269=

CYQF;2005-08-10 18:00;METAR CYQF 101800Z 05007KT 15SM -RA FEW010 SCT030 OVC050 09/06 A3027 RMK SC2SC2SC4 SLP270=

CYQF;2005-08-10 18:22;SPECI CYQF 101822Z 03006KT 15SM SCT010 OVC050 RMK SC3SC5=

CYQF;2005-08-10 19:00;METAR CYQF 101900Z 36008KT 15SM BKN015 OVC070 09/06 A3028 RMK CU5AC3 SLP273=

CYQF;2005-08-10 20:00;METAR CYQF 102000Z 02003KT 12SM -RA SCT015 BKN040 OVC070 09/05 A3028 RMK CU3SC3AC2 SLP273=

CYQF;2005-08-10 21:00;METAR CYQF 102100Z 36003KT 15SM -RA SCT015 BKN040 OVC070 10/05 A3027 RMK CU3SC2AC2 SLP272=

CYQF;2005-08-10 22:00;METAR CYQF 102200Z 36002KT 15SM -RA SCT015 BKN040 BKN070 10/07 A3027 RMK CU3SC2AC2 SLP270=

CYQF;2005-08-10 22:40;SPECI CYQF 102240Z 01002KT 15SM SCT015TCU BKN040 BKN070 RMK TCU4SC2AC2=

CYQF;2005-08-10 23:00;METAR CYQF 102300Z 32003KT 15SM SCT020TCU BKN050 BKN070 11/05 A3026 RMK TCU4SC2AC2 SLP268=

CYQF;2005-08-11 00:00;METAR CYQF 110000Z 30003KT 15SM FEW030TCU BKN050 BKN090 11/06 A3026 RMK TCU2SC2AC2 SLP266=

CYQF;2005-08-11 01:00;METAR CYQF 110100Z 24005KT 15SM FEW030 SCT050 BKN250 11/07 A3024 RMK CU2SC2CI0 SLP261=

CYQF;2005-08-11 02:00;METAR CYQF 110200Z 23004KT 15SM FEW030 SCT050 SCT250 11/07 A3024 RMK CU2SC2CI0 SLP259=

CYQF;2005-08-11 03:00;METAR CYQF 110300Z 24003KT 15SM FEW050 FEW090 08/06 A3023 RMK SC1AC2 SLP260=

CYQF;2005-08-11 04:00;METAR CYQF 110400Z 24004KT 15SM FEW090 07/05 A3023 RMK AC2 SLP260=

CYQF;2005-08-11 05:00;METAR CYQF 110500Z 23005KT 15SM SKC 06/04 A3022 RMK SLP258=

CYQF;2005-08-11 06:00;METAR CYQF 110600Z 23008KT 15SM SKC 04/03 A3021 RMK SLP256=

CYQF;2005-08-11 07:00;METAR CYQF 110700Z 20006KT 15SM SKC 05/04 A3020 RMK SLP253=

CYQF;2005-08-11 08:00;METAR CYQF 110800Z 23007KT 30SM SKC 04/03 A3018 RMK SLP249=

CYQF;2005-08-11 09:00;METAR CYQF 110900Z 23006KT 30SM SKC 03/02 A3017 RMK SLP246=

CYQF;2005-08-11 10:00;METAR CYQF 111000Z 23008KT 30SM FEW250 04/04 A3015 RMK CI1 SLP240=

CYQF;2005-08-11 11:00;METAR CYQF 111100Z 24006KT 15SM FEW100 SCT250 06/05 A3014 RMK AC2CI1 SLP234=

CYQF;2005-08-11 13:00;METAR CYQF 111300Z 26006KT 15SM FEW055 BKN080 BKN250 08/06 A3011 RMK SC2AC2CI1 SLP218=

CYQF;2005-08-11 14:00;METAR CYQF 111400Z 27008KT 15SM SCT040 BKN080 10/07 A3011 RMK SC4AC3 SLP217=

CYQF;2005-08-11 15:00;METAR CYQF 111500Z 30010G15KT 15SM SCT040 BKN080 11/07 A3010 RMK SC3AC4 SHS DIST S SLP213=

CYQF;2005-08-11 16:00;METAR CYQF 111600Z 30010G15KT 15SM FEW040 FEW080 14/08 A3010 RMK SC1AC1 SLP212=

CYQF;2005-08-11 17:00;METAR CYQF 111700Z 32015G20KT 15SM SCT035 BKN080 17/09 A3010 RMK CU3AC2 SLP212=

CYQF;2005-08-11 18:00;METAR CYQF 111800Z 31012G18KT 15SM BKN040 BKN080 17/09 A3010 RMK CU5AC2 SLP211=

CYQF;2005-08-11 19:00;METAR CYQF 111900Z 33015G25KT 15SM SCT040 BKN080 17/09 A3009 RMK CU4AC2 SLP208=

CYQF;2005-08-11 20:00;METAR CYQF 112000Z 33015G25KT 15SM BKN040 BKN080 17/09 A3009 RMK CU5AC2 TCU ASOCTD SHS E SLP207=

CYQF;2005-08-11 21:00;METAR CYQF 112100Z 32018G30KT 15SM FEW040 FEW080 SCT200 19/08 A3008 RMK CU2AC1CI1 TCU ASOCTD SHS NW N NE SLP203=

CYQF;2005-08-11 21:11;SPECI CYQF 112111Z 33020G30KT 15SM -SHRA BKN040 BKN080 BKN200 RMK CU5AC1CI1=

CYQF;2005-08-11 21:30;SPECI CYQF 112130Z 34015G25KT 15SM BKN040 BKN080 BKN200 RMK CU5AC1CI1 TCU ASOCTD SHS SE W=

CYQF;2005-08-11 22:00;METAR CYQF 112200Z 32015G25KT 15SM FEW020 SCT040 BKN080 18/09 A3010 RMK SF1CU3AC2 TCU ASOCTD SHS S-SE NE SLP208=

CYQF;2005-08-11 23:00;METAR CYQF 112300Z 33015G25KT 15SM SCT040 BKN080 BKN200 18/08 A3009 RMK CU3AC2CI1 TCU ASOCTD SHS N-NE W-S SLP206=

CYQF;2005-08-12 00:00;METAR CYQF 120000Z 35018G27KT 15SM BKN040TCU BKN080 OVC200 15/08 A3012 RMK TCU5AC2CI1 SLP218=

CYQF;2005-08-12 00:45;SPECI CYQF 120045Z 34014G24KT 15SM -SHRA BKN040TCU BKN080 BKN200 RMK TCU5AC2CI1=

CYQF;2005-08-12 01:00;METAR CYQF 120100Z 34010KT 15SM SCT040TCU BKN090 BKN200 13/09 A3013 RMK TCU4AC2CI0 SHS NE-SE SLP221=

CYQF;2005-08-12 02:00;METAR CYQF 120200Z 33008KT 15SM SCT040TCU BKN090 BKN200 12/09 A3013 RMK TCU3AC2CI1 SHS W SLP221=

CYQF;2005-08-12 03:00;METAR CYQF 120300Z 34003KT 15SM FEW040TCU FEW090 SCT200 11/08 A3015 RMK TCU2AC1CI0 SLP225=

CYQF;2005-08-12 04:00;METAR CYQF 120400Z 27005KT 15SM BKN040TCU BKN090 09/08 A3015 RMK TCU5AC2 SHS SW-NW SLP228=

CYQF;2005-08-12 04:25;SPECI CYQF 120425Z 32003KT 15SM -SHRA BKN045TCU OVC090 RMK TCU6AC2=

CYQF;2005-08-12 05:00;METAR CYQF 120500Z 32008KT 10SM -SHRA OVC045TCU 11/09 A3018 RMK TCU8 SLP236=

CYQF;2005-08-12 05:45;SPECI CYQF 120545Z 32005KT 15SM BKN045TCU BKN090 RMK TCU5AC2=

CYQF;2005-08-12 06:00;METAR CYQF 120600Z 31005KT 15SM BKN045TCU BKN090 10/09 A3018 RMK TCU5AC2 SLP233=

CYQF;2005-08-12 07:00;METAR CYQF 120700Z 32006KT 15SM BKN045 BKN090 BKN250 10/09 A3020 RMK SC5AC1CI0 TCU ASOCTD SLP239=

CYQF;2005-08-12 08:00;METAR CYQF 120800Z 36004KT 15SM BKN045 BKN090 BKN250 09/08 A3021 RMK SC5AC1CI0 SLP241=

CYQF;2005-08-12 09:00;METAR CYQF 120900Z 33004KT 15SM SCT040 BKN100 BKN250 08/07 A3020 RMK SC3AC2CI0 SLP240=

CYQF;2005-08-12 10:00;METAR CYQF 121000Z 36006KT 15SM BKN050 BKN100 09/07 A3021 RMK SC5AC2 SLP243=

CYQF;2005-08-12 10:20;SPECI CYQF 121020Z 33006KT 10SM -RA BKN045 BKN100 RMK SC6AC2=

CYQF;2005-08-12 11:00;METAR CYQF 121100Z 32008KT 30SM SCT045 BKN090 09/07 A3022 RMK SC4AC2 SLP245=

CYQF;2005-08-12 11:35;SPECI CYQF 121135Z 31006KT 15SM SCT045 BKN090 RMK SC4AC2=

CYQF;2005-08-12 12:00;METAR CYQF 121200Z 32003KT 30SM SCT045 BKN090 08/06 A3024 RMK SC4AC2 SLP258=

CYQF;2005-08-12 13:00;METAR CYQF 121300Z 33008KT 15SM FEW040 SCT090 08/05 A3026 RMK SC2AC2 TCU S SLP265=

CYQF;2005-08-12 14:00;METAR CYQF 121400Z 34007KT 15SM FEW020 FEW040 BKN090 08/06 A3028 RMK CF1SC2AC3 SLP270=

CYQF;2005-08-12 15:00;METAR CYQF 121500Z 33013KT 15SM SCT016 BKN080 10/06 A3029 RMK CU4AC2 SLP278=

CYQF;2005-08-12 16:00;METAR CYQF 121600Z 36012KT 15SM BKN016 BKN080 09/06 A3031 RMK CU6AC1 FEW TCU EMBD SHS DIST N SLP283=

CYQF;2005-08-12 17:00;METAR CYQF 121700Z 36011KT 15SM FEW010 BKN012 BKN080 10/06 A3032 RMK CF1CU6AC1 TCU EMBD SHS DIST N SLP286=

CYQF;2005-08-12 18:00;METAR CYQF 121800Z 35012KT 15SM FEW012 BKN014 BKN080 11/05 A3033 RMK SC1CU5AC2 TCU EMBD SHS DIST S SLP289=

CYQF;2005-08-12 18:29;SPECI CYQF 121829Z 34012KT 15SM -SHRA FEW014 BKN020 BKN080 RMK SC2CU5AC1 TCU EMBD=

CYQF;2005-08-12 19:00;METAR CYQF 121900Z 34007KT 15SM FEW015 BKN020 BKN080 11/06 A3033 RMK SC2CU4AC2 FEW TCU SLP289=

CYQF;2005-08-12 20:00;METAR CYQF 122000Z 33010KT 15SM FEW015 BKN030 BKN080 12/05 A3032 RMK SC2CU4AC2 TCU EMBD SLP288=

CYQF;2005-08-12 21:00;METAR CYQF 122100Z 35008KT 15SM BKN030 BKN080 13/05 A3032 RMK CU5AC2 TCU EMBD SLP286=

CYQF;2005-08-12 22:00;METAR CYQF 122200Z 35009KT 15SM SCT030TCU BKN080 13/04 A3031 RMK TCU4AC2 SLP283=

CYQF;2005-08-12 23:00;METAR CYQF 122300Z 33010KT 15SM SCT040 14/04 A3030 RMK CU4 FEW TCU SLP280=

CYQF;2005-08-13 00:00;METAR CYQF 130000Z 35011KT 15SM SCT040 SCT080 14/03 A3029 RMK CU3AC1 FEW TCU SLP276=

CYQF;2005-08-13 01:00;METAR CYQF 130100Z 35008KT 15SM FEW040 FEW080 14/04 A3029 RMK CU2AC1 SLP275=

CYQF;2005-08-13 02:00;METAR CYQF 130200Z 36004KT 15SM FEW040 FEW080 13/04 A3029 RMK CU1AC1 SLP275=

CYQF;2005-08-13 03:00;METAR CYQF 130300Z 00000KT 15SM SKC 11/05 A3029 RMK SLP278=

CYQF;2005-08-13 04:00;METAR CYQF 130400Z 00000KT 15SM SKC 07/04 A3029 RMK SLP277=

CYQF;2005-08-13 05:00;METAR CYQF 130500Z 19004KT 15SM SKC 06/04 A3028 RMK SLP275=

CYQF;2005-08-13 06:00;METAR CYQF 130600Z 19004KT 15SM SKC 04/02 A3027 RMK SLP278=

CYQF;2005-08-13 07:00;METAR CYQF 130700Z 20004KT 15SM SKC 04/02 A3026 RMK SLP275=

CYQF;2005-08-13 09:00;METAR CYQF 130900Z 21003KT 15SM FEW080 02/01 A3024 RMK AC2 SLP264=

CYQF;2005-08-13 10:00;METAR CYQF 131000Z 18003KT 15SM SKC 02/01 A3022 RMK SLP259=

CYQF;2005-08-13 11:00;METAR CYQF 131100Z 20003KT 15SM SKC 02/01 A3020 RMK SLP254=

CYQF;2005-08-13 12:00;METAR CYQF 131200Z 20003KT 15SM SKC 02/01 A3020 RMK SLP249=

CYQF;2005-08-13 13:00;METAR CYQF 131300Z 20004KT 15SM SKC 02/01 A3019 RMK SLP246=

CYQF;2005-08-13 14:00;METAR CYQF 131400Z 18004KT 15SM FEW250 04/03 A3018 RMK CI1 SLP244=

CYQF;2005-08-13 15:00;METAR CYQF 131500Z 23005KT 15SM FEW250 08/06 A3017 RMK CI1 SLP236=

CYQF;2005-08-13 16:00;METAR CYQF 131600Z 27003KT 15SM BKN250 11/07 A3015 RMK CI1 SLP232=

CYQF;2005-08-13 17:00;METAR CYQF 131700Z 33005KT 15SM BKN250 15/08 A3014 RMK CI1 SLP227=

CYQF;2005-08-13 18:00;METAR CYQF 131800Z 32005KT 15SM BKN250 16/06 A3012 RMK CI2 SLP219=

CYQF;2005-08-13 19:00;METAR CYQF 131900Z 28006KT 15SM BKN250 17/07 A3010 RMK CI2 SLP213=

CYQF;2005-08-13 20:00;METAR CYQF 132000Z 30006KT 15SM BKN250 18/08 A3008 RMK CS1 SLP206=

CYQF;2005-08-13 21:00;METAR CYQF 132100Z 28010KT 15SM BKN250 20/08 A3006 RMK CS2 SLP197=

CYQF;2005-08-13 22:00;METAR CYQF 132200Z 31008KT 15SM BKN250 21/07 A3005 RMK CI2 SLP191=

CYQF;2005-08-13 23:00;METAR CYQF 132300Z 31006KT 15SM BKN250 21/07 A3003 RMK CI2 SLP185=

CYQF;2005-08-14 00:00;METAR CYQF 140000Z 32006KT 15SM OVC250 21/08 A3002 RMK CI4 SLP180=

CYQF;2005-08-14 01:00;METAR CYQF 140100Z 35005KT 15SM BKN250 20/08 A3001 RMK CI3 SLP178=

CYQF;2005-08-14 02:00;METAR CYQF 140200Z 03004KT 15SM SCT090 BKN250 19/09 A3000 RMK AC3CI2 SLP174=

CYQF;2005-08-14 03:00;METAR CYQF 140300Z 36004KT 15SM SCT090 BKN250 16/09 A3002 RMK AC4CI2 SLP178=

CYQF;2005-08-14 04:00;METAR CYQF 140400Z 36012KT 15SM BKN050 BKN090 OVC250 14/11 A3005 RMK SC5AC2CI1 SLP190=

CYQF;2005-08-14 04:20;SPECI CYQF 140420Z 36014KT 15SM -SHRA BKN050 OVC090 RMK SC6AC2=

CYQF;2005-08-14 06:00;METAR CYQF 140600Z 31003KT 10SM -SHRA SCT050 OVC100 12/10 A3009 RMK SC4AC4 SLP201=

CYQF;2005-08-14 06:37;SPECI CYQF 140637Z 00000KT 12SM SCT045 OVC100 RMK SC4AC4=

CYQF;2005-08-14 07:00;METAR CYQF 140700Z 26003KT 10SM BKN045 OVC100 11/10 A3010 RMK SC5AC3 FU SLP202=

CYQF;2005-08-14 08:00;METAR CYQF 140800Z 00000KT 10SM OVC040 12/10 A3008 RMK SC8 FU SLP197=

CYQF;2005-08-14 09:00;METAR CYQF 140900Z 27004KT 10SM OVC040 12/10 A3008 RMK SC8 SLP192=

CYQF;2005-08-14 10:00;METAR CYQF 141000Z 00000KT 10SM BKN040 11/10 A3006 RMK SC7 FU SLP188=

CYQF;2005-08-14 11:00;METAR CYQF 141100Z 00000KT 8SM BKN050 11/10 A3006 RMK SC7 FU SLP187=

CYQF;2005-08-14 12:00;METAR CYQF 141200Z 00000KT 5SM BR FU BKN050 OVC100 11/10 A3006 RMK SC6AC2 SLP184=

CYQF;2005-08-14 13:00;METAR CYQF 141300Z 21003KT 6SM HZ BKN050 OVC100 11/10 A3006 RMK SC5AC3 SLP184=

CYQF;2005-08-14 14:00;METAR CYQF 141400Z 21002KT 6SM HZ OVC050 11/10 A3006 RMK SC8 SLP184=

CYQF;2005-08-14 15:29;SPECI CYQF 141529Z 20002KT 1 1/2SM -SHRA BR BKN015 OVC050 RMK SF6SC2=

CYQF;2005-08-14 16:00;METAR CYQF 141600Z 31002KT 2SM BR BKN015 OVC050 12/10 A3006 RMK SF5SC3 CIG RAG SLP190=

CYQF;2005-08-14 16:18;SPECI CYQF 141618Z 32003KT 2 1/2SM -SHRA BR BKN015 OVC050 RMK SF5SC3 CIG RAG=

CYQF;2005-08-14 17:00;METAR CYQF 141700Z 34008KT 3SM -SHRA BR FEW007 BKN015 OVC050 12/11 A3008 RMK SF2SC3SC3 CIG RAG SLP195=

CYQF;2005-08-14 18:00;METAR CYQF 141800Z 36007KT 4SM -SHRA BR FEW007 SCT015 OVC050 11/10 A3009 RMK SF1SC2SC5 CIG RAG SLP204=

CYQF;2005-08-14 19:00;METAR CYQF 141900Z 34002KT 5SM -RA BR FEW010 SCT015 BKN050 OVC100 11/10 A3009 RMK SF1SC2SC3AC2 SLP205=

CYQF;2005-08-14 21:00;METAR CYQF 142100Z 00000KT 8SM FEW007 BKN015 OVC050 13/10 A3009 RMK SF1CU4SC3 BR CIG RAG SLP203=

CYQF;2005-08-14 23:00;METAR CYQF 142300Z 36002KT 10SM SCT016 BKN050 BKN100 15/11 A3007 RMK CU4SC2AC2 FU SLP198=

CYQF;2005-08-15 00:00;METAR CYQF 150000Z 00000KT 10SM SCT016 BKN050 OVC100 15/11 A3008 RMK SC4SC2AC2 FU SLP197=

CYQF;2005-08-15 00:35;SPECI CYQF 150035Z 00000KT 10SM -SHRA SCT015 BKN050 OVC100 RMK SC4SC2AC2 FU=

CYQF;2005-08-15 01:00;METAR CYQF 150100Z 00000KT 10SM -SHRA BKN015 BKN050 OVC100 14/12 A3008 RMK SC5SC2AC1 SLP197=

CYQF;2005-08-15 01:35;SPECI CYQF 150135Z 28004KT 10SM SCT015 BKN050 BKN210 RMK SC3SC2CI1 FU=

CYQF;2005-08-15 02:00;METAR CYQF 150200Z 23003KT 8SM FEW015 SCT050 BKN210 14/12 A3008 RMK SC2SC2CI1 FU SLP197=

CYQF;2005-08-15 03:00;METAR CYQF 150300Z 00000KT 8SM FEW015 SCT050 BKN210 12/11 A3006 RMK SC1SC2CI1 SLP195=

CYQF;2005-08-15 04:00;METAR CYQF 150400Z 21004KT 8SM BCFG FEW015 BKN040 OVC100 10/09 A3007 RMK SC2SC4AC2 FU SLP196=

CYQF;2005-08-15 04:45;SPECI CYQF 150445Z 31005KT 8SM -SHRA FEW010 SCT030 OVC075 RMK SF2SC2AC4 FU=

CYQF;2005-08-15 05:00;METAR CYQF 150500Z 30005KT 8SM -SHRA FEW010 SCT030 OVC075 12/11 A3011 RMK SF2SC2AC4 FU SLP209=

CYQF;2005-08-15 06:00;METAR CYQF 150600Z 20003KT 6SM -SHRA FU SCT030 OVC075 12/11 A3009 RMK SC3AC5 SLP205=

CYQF;2005-08-15 07:00;METAR CYQF 150700Z 00000KT 5SM BR SCT030 BKN080 OVC250 12/11 A3010 RMK SC3AC3CI2 SLP208=

CYQF;2005-08-15 08:00;METAR CYQF 150800Z 00000KT 3SM BR SCT015 BKN080 11/10 A3011 RMK SC3AC2 SLP210=

CYQF;2005-08-15 08:07;SPECI CYQF 150807Z 00000KT 1/4SM FG BKN015 RMK FG4SC2=

CYQF;2005-08-15 09:00;METAR CYQF 150900Z 00000KT 1/2SM FG BKN008 10/10 A3010 RMK FG4SF3 SLP209=

CYQF;2005-08-15 09:28;SPECI CYQF 150928Z 02006KT 2SM BR BKN004 RMK SF7 CIG RAG VIS N 5=

CYQF;2005-08-15 10:00;METAR CYQF 151000Z 03012KT 5SM BR BKN006 OVC015 11/10 A3011 RMK SF7SC1 CIG RAG SLP211=

CYQF;2005-08-15 11:00;METAR CYQF 151100Z 02009KT 10SM OVC006 10/09 A3013 RMK SF8 CIG RAG SLP216=

CYQF;2005-08-15 12:00;METAR CYQF 151200Z 02007KT 10SM BKN006 OVC020 09/08 A3013 RMK SF5SC3 CIG RAG SLP217=

CYQF;2005-08-15 12:50;SPECI CYQF 151250Z 02004KT 15SM SCT006 BKN015 OVC050 RMK SF4SC2SC2=

CYQF;2005-08-15 13:00;METAR CYQF 151300Z 03002KT 15SM SCT006 BKN012 OVC050 09/08 A3013 RMK SF4SC3SC1 SLP217=

CYQF;2005-08-15 14:00;METAR CYQF 151400Z 03004KT 10SM BKN008 OVC017 09/08 A3015 RMK SF6SC2 BR SLP222=

CYQF;2005-08-15 14:08;SPECI CYQF 151408Z 03005KT 10SM -SHRA BKN008 OVC017 RMK SF6SC2 BR CIG RAG=

CYQF;2005-08-15 15:00;METAR CYQF 151500Z 05010KT 8SM -SHRA OVC005 09/08 A3014 RMK SF8 BR CIG RAG SLP222=

CYQF;2005-08-15 15:18;SPECI CYQF 151518Z 05009KT 12SM BKN005 OVC009 RMK SF6SC2 BR CIG RAG=

CYQF;2005-08-15 15:23;SPECI CYQF 151523Z 05008KT 10SM -SHRA BKN005 OVC009 RMK SF6SC2 BR CIG RAG=

CYQF;2005-08-15 16:00;METAR CYQF 151600Z 05009KT 12SM -SHRA SCT007 OVC010 09/08 A3014 RMK SF4SC4 BR CIG RAG SLP223=

CYQF;2005-08-15 16:35;SPECI CYQF 151635Z 04006KT 10SM -SHRA BKN007 OVC010 RMK SF6SC2 BR CIG RAG=

CYQF;2005-08-15 17:00;METAR CYQF 151700Z 06005KT 10SM -SHRA BKN006 OVC010 08/07 A3016 RMK SF7SC1 BR CI RAG SLP231=

CYQF;2005-08-15 18:00;METAR CYQF 151800Z 01010G15KT 4SM -RA BR OVC006 08/07 A3020 RMK SF8 CIG RAG SLP246=

CYQF;2005-08-15 18:35;SPECI CYQF 151835Z 08010G15KT 8SM -RA SCT006 BKN010 OVC025 RMK SF4SC3SC1 BR=

CYQF;2005-08-15 19:00;METAR CYQF 151900Z 05009KT 10SM -RA BKN006 OVC010 09/08 A3018 RMK SF7SC1 BR SLP241=

CYQF;2005-08-15 20:00;METAR CYQF 152000Z 06010KT 15SM OVC008 09/07 A3019 RMK SF8 CIG RAG SLP243=

CYQF;2005-08-15 20:22;SPECI CYQF 152022Z 05007KT 15SM OVC010 RMK SF8=

CYQF;2005-08-15 21:00;METAR CYQF 152100Z 06007KT 10SM -SHRA OVC007 08/07 A3021 RMK SF8 CIG RAG SLP252=

CYQF;2005-08-15 21:44;SPECI CYQF 152144Z 06005KT 3SM -SHRA BR OVC007 RMK SF8 CIG RAG=

CYQF;2005-08-15 23:00;METAR CYQF 152300Z 04006KT 4SM -RA BR OVC005 08/07 A3022 RMK SF8 CIG RAG SLP253=

CYQF;2005-08-16 00:00;METAR CYQF 160000Z 07006KT 8SM -RA BKN006 OVC010 08/07 A3021 RMK SF6SC2 BR CIG RAG SLP254=

CYQF;2005-08-16 01:00;METAR CYQF 160100Z 04007KT 10SM SCT004 OVC008 08/07 A3021 RMK SF3SC5 SLP253=

CYQF;2005-08-16 02:00;METAR CYQF 160200Z 06008KT 15SM SCT006 OVC009 08/07 A3021 RMK SF3SC5 SLP253=

CYQF;2005-08-16 03:00;METAR CYQF 160300Z 08005KT 3SM BR SCT005 OVC008 08/07 A3022 RMK SF4SC4 SLP255=

CYQF;2005-08-16 03:13;SPECI CYQF 160313Z 06006KT 3SM -DZ BR SCT005 OVC008 RMK SF4SC4=

CYQF;2005-08-16 04:00;METAR CYQF 160400Z 07007KT 6SM -DZ BR FEW005 BKN007 OVC020 07/06 A3022 RMK SF2SF5SC1 SLP257=

CYQF;2005-08-16 05:00;METAR CYQF 160500Z 07004KT 3SM -DZ BR OVC005 07/07 A3022 RMK SF8 SLP255=

CYQF;2005-08-16 06:00;METAR CYQF 160600Z 07004KT 5SM BR FEW003 BKN007 OVC015 07/07 A3021 RMK SF2SF4SC2 SLP254=

CYQF;2005-08-16 06:27;SPECI CYQF 160627Z 09006KT 2SM -RA BR BKN007 OVC017 RMK SF5SC3=

CYQF;2005-08-16 07:00;METAR CYQF 160700Z 00000KT 2SM -DZ BR BKN004 OVC011 07/06 A3020 RMK SF6SC2 CIG RAG SLP253=

CYQF;2005-08-16 07:55;SPECI CYQF 160755Z 00000KT 1SM -DZ BR OVC003 RMK FG2SF6=

CYQF;2005-08-16 08:00;METAR CYQF 160800Z 00000KT 1SM -DZ BR OVC003 07/06 A3020 RMK FG2SF6 CIG RAG SLP253=

CYQF;2005-08-16 08:55;SPECI CYQF 160855Z 00000KT 1SM -DZ BR SCT004 OVC008 RMK SF3SF5 CIG RAG=

CYQF;2005-08-16 09:00;METAR CYQF 160900Z 00000KT 1SM -DZ BR SCT004 OVC008 07/07 A3019 RMK SF3SF5 CIG RAG SLP248=

CYQF;2005-08-16 09:18;SPECI CYQF 160918Z 14003KT 1SM -RA BR FEW003 BKN007 OVC018 RMK SF2SF5SC2 CIG RAG=

CYQF;2005-08-16 10:00;METAR CYQF 161000Z 14013KT 5SM -RA BR FEW003 BKN007 OVC020 07/06 A3014 RMK SF2SF5SC2 SLP231=

CYQF;2005-08-16 10:24;SPECI CYQF 161024Z 14013KT 10SM -RA FEW007 OVC070 RMK SF2AC6=

CYQF;2005-08-16 11:00;METAR CYQF 161100Z 15012KT 15SM FEW007 SCT030 BKN070 07/06 A3013 RMK SF2SC2AC4 SLP230=

CYQF;2005-08-16 11:47;SPECI CYQF 161147Z 00000KT 15SM BKN008 BKN025 RMK SF6SC2=

CYQF;2005-08-16 12:00;METAR CYQF 161200Z 00000KT 15SM BKN008 OVC025 07/06 A3013 RMK SF6SC2 SLP228=

CYQF;2005-08-16 13:00;METAR CYQF 161300Z 00000KT 15SM BKN008 OVC025 07/06 A3012 RMK SF7SC1 SLP225=

CYQF;2005-08-16 13:52;SPECI CYQF 161352Z 10003KT 15SM BKN007 OVC012 RMK SF7SC1=

CYQF;2005-08-16 14:00;METAR CYQF 161400Z 12002KT 15SM OVC007 08/06 A3011 RMK SF8 SLP221=

CYQF;2005-08-16 14:34;SPECI CYQF 161434Z 15006KT 15SM OVC005 RMK SF8=

CYQF;2005-08-16 15:00;METAR CYQF 161500Z 10006KT 15SM OVC005 08/07 A3010 RMK SF8 SLP218=

CYQF;2005-08-16 16:00;METAR CYQF 161600Z 12006KT 15SM OVC005 08/07 A3009 RMK SF8 SLP214=

CYQF;2005-08-16 16:40;SPECI CYQF 161640Z 12005KT 2SM -DZ OVC006 RMK SF8=

CYQF;2005-08-16 17:00;METAR CYQF 161700Z 08004KT 2SM -DZ OVC006 08/08 A3008 RMK SF8 CIG RAG SLP212=

CYQF;2005-08-16 18:00;METAR CYQF 161800Z 10003KT 2SM -DZ OVC004 09/08 A3007 RMK SF8 CIG RAG SLP207=

CYQF;2005-08-16 19:00;METAR CYQF 161900Z 12006KT 2SM -DZ OVC004 09/08 A3006 RMK SF8 CIG RAG SLP202=

CYQF;2005-08-16 19:50;SPECI CYQF 161950Z 11004KT 6SM -DZ OVC006 RMK SF8 CIG RAG=

CYQF;2005-08-16 20:00;METAR CYQF 162000Z 23005KT 6SM -DZ OVC006 10/08 A3005 RMK SF8 SLP199=

CYQF;2005-08-16 21:00;METAR CYQF 162100Z 15002KT 6SM -DZ OVC006 10/08 A3005 RMK SF8 CIG RAG SLP196=

CYQF;2005-08-16 22:00;METAR CYQF 162200Z 06007KT 6SM -DZ BR OVC005 11/08 A3003 RMK SF8 SLP190=

CYQF;2005-08-16 23:00;METAR CYQF 162300Z 09004KT 10SM -DZ OVC007 10/08 A3003 RMK SF8 CIG RAG SLP191=

CYQF;2005-08-17 00:33;SPECI CYQF 170033Z 01004KT 3SM -SHRA BR OVC006 RMK SF8 CIG RAG=

CYQF;2005-08-17 00:44;SPECI CYQF 170044Z 01005KT 2SM -SHRA BR OVC006 RMK SF8 CIG RAG=

CYQF;2005-08-17 01:00;METAR CYQF 170100Z 02006KT 3SM -SHRA BR OVC004 09/09 A3004 RMK SF8 CIG RAG SLP194=

CYQF;2005-08-17 02:00;METAR CYQF 170200Z 07003KT 3SM -RA BR OVC005 09/09 A3003 RMK SF8 CIG RAG SLP190=

CYQF;2005-08-17 02:42;SPECI CYQF 170242Z 00000KT 2SM -RA BR BKN003 OVC010 RMK SF6SC2 CIG RAG=

CYQF;2005-08-17 03:00;METAR CYQF 170300Z 00000KT 2SM BR BKN003 OVC010 09/09 A3001 RMK SF6SC2 CIG RAG SLP185=

CYQF;2005-08-17 04:00;METAR CYQF 170400Z 00000KT 2SM BR BKN003 OVC010 09/09 A3001 RMK SF6SC2 CIG RAG SLP185=

CYQF;2005-08-17 05:00;METAR CYQF 170500Z 00000KT 2SM BR OVC004 09/09 A3000 RMK SF8 CIG RAG SLP180=

CYQF;2005-08-17 06:00;METAR CYQF 170600Z 00000KT 2SM BR BKN004 OVC010 09/09 A2998 RMK SF5SC3 CIG RAG SLP174=

CYQF;2005-08-17 06:49;SPECI CYQF 170649Z 00000KT 3/4SM BR VV003 RMK FG8=

CYQF;2005-08-17 07:00;METAR CYQF 170700Z 02002KT 3/4SM BR VV003 09/09 A2996 RMK FG8 SLP168=

CYQF;2005-08-17 07:23;SPECI CYQF 170723Z 02004KT 1/4SM FG VV001 RMK FG8=

CYQF;2005-08-17 08:00;METAR CYQF 170800Z 05003KT 1/8SM FG VV001 09/09 A2994 RMK FG8 SLP159=

CYQF;2005-08-17 08:13;SPECI CYQF 170813Z 03003KT 3/4SM BR VV003 RMK FG8=

CYQF;2005-08-17 08:42;SPECI CYQF 170842Z 05004KT 1SM -DZ BR OVC004 RMK FG6SF2=

CYQF;2005-08-17 09:00;METAR CYQF 170900Z 03003KT 1SM -DZ BR OVC004 09/09 A2993 RMK FG6SF2 SLP154=

CYQF;2005-08-17 10:00;METAR CYQF 171000Z 02003KT 1SM -DZ BR OVC004 09/08 A2992 RMK FG6SF2 SLP150=

CYQF;2005-08-17 10:50;SPECI CYQF 171050Z 02005KT 1SM -RA BR OVC006 RMK FG5SF3=

CYQF;2005-08-17 11:00;METAR CYQF 171100Z 02006KT 1 1/2SM -RA BR OVC006 09/08 A2990 RMK FG5SF3 SLP146=

CYQF;2005-08-17 12:00;METAR CYQF 171200Z 01007KT 1 1/2SM -RA BR OVC005 09/08 A2988 RMK FG3SF5 SLP137=

CYQF;2005-08-17 13:00;METAR CYQF 171300Z 35006KT 1 1/2SM -RA BR OVC004 09/08 A2988 RMK FG2SF6 CIG RAG SLP138=

CYQF;2005-08-17 14:00;METAR CYQF 171400Z 36008KT 1SM -RA BR OVC004 08/08 A2989 RMK FG3SF5 CIG RAG SLP139=

CYQF;2005-08-17 14:25;SPECI CYQF 171425Z 35010KT 2SM -RA BR OVC003 RMK FG1SF7 CIG RAG=

CYQF;2005-08-17 16:00;METAR CYQF 171600Z 34008KT 4SM -RA BKN005 OVC010 09/08 A2990 RMK SF4SC4 CIG RAG SLP145=

CYQF;2005-08-17 17:00;METAR CYQF 171700Z 35012KT 5SM -RA BKN005 OVC012 09/08 A2991 RMK SF4SC4 CIG RAG SLP147=

CYQF;2005-08-17 18:00;METAR CYQF 171800Z 35013KT 6SM -RA SCT005 OVC012 09/08 A2992 RMK SF4SC4 CIG RAG SLP150=

CYQF;2005-08-17 19:00;METAR CYQF 171900Z 34012KT 6SM -RA BKN005 OVC012 09/07 A2993 RMK SF4SC4 CIG RAG SLP154=

CYQF;2005-08-17 20:00;METAR CYQF 172000Z 33012KT 8SM -RA SCT007 OVC025 09/07 A2994 RMK SF3SC5 SLP157=

CYQF;2005-08-17 21:00;METAR CYQF 172100Z 33012KT 10SM -RA SCT007 OVC025 09/07 A2995 RMK SF3SC5 SLP160=

CYQF;2005-08-17 22:00;METAR CYQF 172200Z 34010G15KT 12SM -RA SCT010 BKN030 OVC100 10/08 A2995 RMK SF3SC2AS2 SLP160=

CYQF;2005-08-17 22:14;SPECI CYQF 172214Z 34010G15KT 15SM BKN012 BKN030 BKN100 RMK CU6SC1AC1=

CYQF;2005-08-17 23:00;METAR CYQF 172300Z 34010G15KT 15SM BKN016 BKN100 BKN250 11/07 A2994 RMK CU5AC2CI1 SHS NW SLP159=

CYQF;2005-08-18 00:00;METAR CYQF 180000Z 34010G20KT 15SM VCSH SCT016 BKN030 BKN100 11/07 A2995 RMK CU3SC2AC2 SHS E SW-W SLP162=

CYQF;2005-08-18 00:06;SPECI CYQF 180006Z 34010G15KT 15SM -SHRA SCT016 BKN030 BKN100 RMK CU3SC2AC2=

CYQF;2005-08-18 00:41;SPECI CYQF 180041Z 33010G15KT 15SM FEW016 SCT030 BKN080 RMK CU2SC2AC3=

CYQF;2005-08-18 01:00;METAR CYQF 180100Z 34009KT 15SM FEW020 SCT030 BKN080 10/06 A2996 RMK CU2SC2AC4 SHS DIST SW SLP164=

CYQF;2005-08-18 02:00;METAR CYQF 180200Z 33008KT 15SM FEW020 SCT030 BKN080 10/05 A2996 RMK CU1SC2AC2 SHS DIST S SLP164=

CYQF;2005-08-18 03:00;METAR CYQF 180300Z 28007KT 15SM FEW025 SCT080 08/05 A2998 RMK CU2AC1 SHS E SLP174=

CYQF;2005-08-18 04:00;METAR CYQF 180400Z 30006KT 15SM FEW025 06/04 A2999 RMK CU1 SLP178=

CYQF;2005-08-18 05:00;METAR CYQF 180500Z 27005KT 15SM FEW025 05/03 A3000 RMK CU1 SLP180=

CYQF;2005-08-18 06:00;METAR CYQF 180600Z 28007KT 15SM SKC 05/03 A2999 RMK SLP182=

CYQF;2005-08-18 07:00;METAR CYQF 180700Z 30005KT 15SM SKC 04/02 A2999 RMK SLP181=

CYQF;2005-08-18 08:00;METAR CYQF 180800Z 30010KT 15SM FEW025 05/03 A2998 RMK SC2 SLP177=

CYQF;2005-08-18 09:00;METAR CYQF 180900Z 00000KT 15SM FEW025 04/02 A2997 RMK SC2 SLP174=

CYQF;2005-08-18 10:00;METAR CYQF 181000Z 27007KT 15SM FEW025 03/01 A2995 RMK SC1 SLP170=

CYQF;2005-08-18 11:00;METAR CYQF 181100Z 25006KT 15SM FEW040 02/00 A2994 RMK SC1 SLP164=

CYQF;2005-08-18 12:00;METAR CYQF 181200Z 23005KT 15SM FEW040 FEW210 02/00 A2993 RMK SC1CI1 SLP160=

CYQF;2005-08-18 13:00;METAR CYQF 181300Z 30008KT 15SM FEW020 FEW040 SCT100 BKN210 03/01 A2992 RMK SC1SC2AC2CI0 SLP157=

CYQF;2005-08-18 14:00;METAR CYQF 181400Z 29008KT 15SM -RA FEW015 BKN050 BKN100 BKN210 04/03 A2992 RMK SC2SC2AC1CI0 SLP158=

CYQF;2005-08-18 15:00;METAR CYQF 181500Z 27008KT 15SM -RA FEW013 BKN030 BKN090 05/03 A2991 RMK SC2SC2AC2 SLP155=

CYQF;2005-08-18 16:00;METAR CYQF 181600Z 30012G20KT 15SM -RA FEW015 BKN029 OVC090 07/04 A2991 RMK SC2SC5AC1 SLP154=

CYQF;2005-08-18 17:00;METAR CYQF 181700Z 30015G24KT 15SM -RA BKN013 OVC030 07/05 A2991 RMK SC6SC2 SLP155=

CYQF;2005-08-18 18:00;METAR CYQF 181800Z 31016G27KT 15SM -RA BKN014 OVC025 07/05 A2991 RMK SC6SC2 SLP155=

CYQF;2005-08-18 19:00;METAR CYQF 181900Z 30015G20KT 15SM -RA BKN015 OVC030 08/06 A2991 RMK SC6SC2 SLP154=

CYQF;2005-08-18 20:00;METAR CYQF 182000Z 30015G23KT 15SM -RA BKN015 OVC030 08/06 A2991 RMK SC6SC2 SLP154=

CYQF;2005-08-18 21:00;METAR CYQF 182100Z 32015G22KT 15SM -RA BKN015 OVC030 09/07 A2991 RMK SC6SC2 SLP153=

CYQF;2005-08-18 22:00;METAR CYQF 182200Z 33015KT 15SM -RA BKN015 OVC030 10/06 A2991 RMK SC5SC3 SLP155=

CYQF;2005-08-18 23:00;METAR CYQF 182300Z 34012KT 15SM -RA SCT020 OVC040 10/07 A2991 RMK SC3SC5 SLP154=

CYQF;2005-08-19 00:46;SPECI CYQF 190046Z 33002KT 15SM FEW020 BKN040 RMK SC1SC6=

CYQF;2005-08-19 01:00;METAR CYQF 190100Z 34003KT 15SM FEW020 BKN040 10/07 A2992 RMK SC1SC6 SLP157=

CYQF;2005-08-19 02:00;METAR CYQF 190200Z 32004KT 15SM FEW020 BKN040 09/06 A2992 RMK SC1SC6 SLP157=

CYQF;2005-08-19 03:00;METAR CYQF 190300Z 32005KT 15SM FEW020 BKN060 08/06 A2993 RMK SC2SC5 SLP160=

CYQF;2005-08-19 04:00;METAR CYQF 190400Z 30005KT 15SM FEW020 BKN060 08/06 A2994 RMK SC2SC6 SLP163=

CYQF;2005-08-19 05:00;METAR CYQF 190500Z 27005KT 15SM FEW020 BKN075 08/06 A2994 RMK SC1AC6 SLP163=

CYQF;2005-08-19 06:00;METAR CYQF 190600Z 27005KT 15SM FEW020 BKN075 07/06 A2994 RMK SC1AC5 SLP162=

CYQF;2005-08-19 07:00;METAR CYQF 190700Z 27005KT 15SM SCT080 06/05 A2994 RMK AC4 SLP163=

CYQF;2005-08-19 08:00;METAR CYQF 190800Z 28003KT 15SM FEW080 05/03 A2993 RMK AC2 SLP160=

CYQF;2005-08-19 09:00;METAR CYQF 190900Z 20003KT 15SM BCFG FEW080 03/02 A2993 RMK AC1 SLP163=

CYQF;2005-08-19 10:00;METAR CYQF 191000Z 00000KT 15SM BCFG FEW080 02/02 A2993 RMK AC1 SLP163=

CYQF;2005-08-19 10:30;SPECI CYQF 191030Z 21003KT 3/4SM BR FEW080 RMK FG2AC1=

CYQF;2005-08-19 11:00;METAR CYQF 191100Z 21003KT 3/4SM BR FEW080 01/01 A2993 RMK FG2AC1 SLP162=

CYQF;2005-08-19 11:20;SPECI CYQF 191120Z 20003KT 15SM MIFG FEW080 RMK AC2=

CYQF;2005-08-19 12:00;METAR CYQF 191200Z 20004KT 10SM MIFG FEW040 01/01 A2994 RMK SC2 SLP165=

CYQF;2005-08-19 13:00;METAR CYQF 191300Z 21003KT 6SM BR FEW040 01/01 A2994 RMK SC2 VIS S-NW 1 SLP166=

CYQF;2005-08-19 14:00;METAR CYQF 191400Z 21004KT 15SM FEW010 FEW040 FEW210 03/03 A2995 RMK SF1SC1CI0 SLP169=

CYQF;2005-08-19 15:00;METAR CYQF 191500Z 22002KT 15SM FEW100 FEW250 07/07 A2995 RMK AC1CI0 SLP166=

CYQF;2005-08-19 16:00;METAR CYQF 191600Z 00000KT 15SM FEW010 FEW250 10/08 A2995 RMK CU1CI0 TR CU SLP166=

CYQF;2005-08-19 17:00;METAR CYQF 191700Z 21004KT 15SM FEW250 14/07 A2995 RMK CI1 SLP165=

CYQF;2005-08-19 18:00;METAR CYQF 191800Z 15002KT 15SM FEW100 FEW250 15/07 A2995 RMK AC1CI0 TR AC SLP156=

CYQF;2005-08-19 19:00;METAR CYQF 191900Z 00000KT 15SM FEW100 FEW250 16/08 A2994 RMK AC1CI1 TR CLD SLP154=

CYQF;2005-08-19 20:00;METAR CYQF 192000Z 00000KT 15SM FEW250 18/08 A2993 RMK CI0 SLP152=

CYQF;2005-08-19 21:00;METAR CYQF 192100Z 31003KT 15SM SCT250 18/09 A2993 RMK CI1 SLP152=

CYQF;2005-08-19 22:00;METAR CYQF 192200Z 35002KT 15SM SCT250 20/10 A2993 RMK CI2 SLP150=

CYQF;2005-08-19 23:00;METAR CYQF 192300Z 00000KT 15SM SCT250 21/10 A2992 RMK CI2 SLP149=

CYQF;2005-08-20 00:00;METAR CYQF 200000Z 00000KT 15SM SCT250 21/09 A2993 RMK CI1 SLP149=

CYQF;2005-08-20 01:00;METAR CYQF 200100Z 00000KT 15SM FEW250 21/09 A2992 RMK CI1 SLP147=

CYQF;2005-08-20 02:00;METAR CYQF 200200Z 16004KT 15SM FEW250 19/11 A2992 RMK CI0 SLP148=

CYQF;2005-08-20 04:00;METAR CYQF 200400Z 17003KT 15SM FEW250 12/09 A2994 RMK CI0 SLP153=

CYQF;2005-08-20 05:00;METAR CYQF 200500Z 15003KT 15SM SKC 11/09 A2995 RMK SLP156=

CYQF;2005-08-20 06:00;METAR CYQF 200600Z 16004KT 15SM SKC 11/08 A2995 RMK SLP156=

CYQF;2005-08-20 08:00;METAR CYQF 200800Z 00000KT 15SM SCT250 08/06 A2996 RMK CI1 SLP158=

CYQF;2005-08-20 09:00;METAR CYQF 200900Z 00000KT 15SM BCFG SCT250 08/06 A2996 RMK CI1 SLP158=

CYQF;2005-08-20 10:00;METAR CYQF 201000Z 00000KT 15SM SCT250 07/06 A2996 RMK CI1 SLP157=

CYQF;2005-08-20 11:00;METAR CYQF 201100Z 00000KT 15SM SCT250 06/05 A2996 RMK CI1 SLP156=

CYQF;2005-08-20 12:00;METAR CYQF 201200Z 19003KT 15SM SCT250 07/05 A2995 RMK CI2 SLP154=

CYQF;2005-08-20 13:00;METAR CYQF 201300Z 18004KT 15SM BKN250 07/05 A2996 RMK CI3 SLP156=

CYQF;2005-08-20 14:00;METAR CYQF 201400Z 00000KT 15SM FEW120 BKN250 09/07 A2997 RMK AC2CI2 SLP159=

CYQF;2005-08-20 15:00;METAR CYQF 201500Z 00000KT 15SM SCT120 OVC250 11/09 A2998 RMK AC4CI2 SLP162=

CYQF;2005-08-20 16:00;METAR CYQF 201600Z 21002KT 15SM BKN100 OVC250 13/10 A2999 RMK AC6CI2 SLP165=

CYQF;2005-08-20 17:00;METAR CYQF 201700Z 15002KT 15SM BKN100 OVC250 15/10 A2999 RMK AC6CI2 SLP166=

CYQF;2005-08-20 18:00;METAR CYQF 201800Z 15002KT 15SM BKN100 OVC250 18/11 A2998 RMK AC5CI2 SLP162=

CYQF;2005-08-20 19:00;METAR CYQF 201900Z 20004KT 15SM FEW100 BKN250 21/13 A2999 RMK AC2CI2 SLP163=

CYQF;2005-08-20 20:00;METAR CYQF 202000Z 18004KT 15SM FEW100 BKN250 23/12 A2998 RMK AC2CI2 SLP162=

CYQF;2005-08-20 21:00;METAR CYQF 202100Z 18004KT 15SM FEW100 BKN250 24/13 A2998 RMK AC2CI2 SLP156=

CYQF;2005-08-20 22:00;METAR CYQF 202200Z 19006KT 15SM SCT100 BKN250 25/12 A2998 RMK AC3CI2 SLP156=

CYQF;2005-08-20 23:00;METAR CYQF 202300Z 16002KT 15SM SCT100 BKN250 25/12 A2997 RMK AC4CI2 SLP155=

CYQF;2005-08-21 00:00;METAR CYQF 210000Z 00000KT 15SM FEW100 BKN250 25/10 A2997 RMK AC2CI2 SLP155=

CYQF;2005-08-21 01:00;METAR CYQF 210100Z 08004KT 15SM FEW100 BKN250 23/13 A2997 RMK AC2CI2 SLP154=

CYQF;2005-08-21 02:00;METAR CYQF 210200Z 07004KT 15SM SCT090 BKN250 21/14 A2997 RMK AC3CI2 SLP155=

CYQF;2005-08-21 03:00;METAR CYQF 210300Z 20006KT 15SM FEW090 BKN250 17/13 A2999 RMK AC2CI2 SLP164=

CYQF;2005-08-21 04:00;METAR CYQF 210400Z 16002KT 15SM FEW090 BKN250 16/12 A3000 RMK AC2CI2 SLP167=

CYQF;2005-08-21 05:00;METAR CYQF 210500Z 20002KT 15SM FEW250 14/10 A3000 RMK CI1 SLP168=

CYQF;2005-08-21 06:00;METAR CYQF 210600Z 18003KT 15SM SKC 12/10 A3000 RMK SLP166=

CYQF;2005-08-21 07:00;METAR CYQF 210700Z 20002KT 15SM FEW250 12/10 A3000 RMK CI1 SLP167=

CYQF;2005-08-21 08:00;METAR CYQF 210800Z 19003KT 15SM SKC 10/08 A3001 RMK SLP168=

CYQF;2005-08-21 09:00;METAR CYQF 210900Z 00000KT 15SM SKC 08/07 A3000 RMK SLP163=

CYQF;2005-08-21 10:00;METAR CYQF 211000Z 19002KT 15SM SKC 09/08 A3000 RMK SLP163=

CYQF;2005-08-21 11:00;METAR CYQF 211100Z 20002KT 15SM SKC 07/06 A3000 RMK SLP163=

CYQF;2005-08-21 12:00;METAR CYQF 211200Z 20003KT 15SM SKC 07/06 A3000 RMK SLP163=

CYQF;2005-08-21 13:00;METAR CYQF 211300Z 00000KT 15SM SKC 07/06 A3000 RMK SLP163=

CYQF;2005-08-21 14:00;METAR CYQF 211400Z 19004KT 15SM SKC 10/08 A3001 RMK SLP165=

CYQF;2005-08-21 15:00;METAR CYQF 211500Z 19004KT 15SM SKC 14/10 A3001 RMK SLP168=

CYQF;2005-08-21 16:00;METAR CYQF 211600Z 20007KT 15SM SKC 18/11 A3000 RMK SLP166=

CYQF;2005-08-21 17:00;METAR CYQF 211700Z 14006KT 15SM SKC 22/12 A2999 RMK SLP163=

CYQF;2005-08-21 18:00;METAR CYQF 211800Z 18006KT 15SM SKC 24/13 A2998 RMK SLP152=

CYQF;2005-08-21 19:00;METAR CYQF 211900Z 18005KT 15SM SKC 27/11 A2995 RMK SLP145=

CYQF;2005-08-21 20:00;METAR CYQF 212000Z 18007KT 15SM SKC 29/06 A2993 RMK SLP137=

CYQF;2005-08-21 21:00;METAR CYQF 212100Z 17010G15KT 15SM SKC 28/07 A2991 RMK SLP128=

CYQF;2005-08-21 22:00;METAR CYQF 212200Z 16012KT 15SM SKC 29/09 A2988 RMK SLP118=

CYQF;2005-08-21 23:00;METAR CYQF 212300Z 19008KT 15SM SKC 29/09 A2986 RMK SLP111=

CYQF;2005-08-22 00:00;METAR CYQF 220000Z 16008KT 15SM SKC 28/10 A2984 RMK SLP103=

CYQF;2005-08-22 01:00;METAR CYQF 220100Z 16008KT 15SM SKC 27/12 A2982 RMK SLP097=

CYQF;2005-08-22 02:00;METAR CYQF 220200Z 15006KT 15SM FEW120 24/12 A2980 RMK AC1 SLP092=

CYQF;2005-08-22 03:00;METAR CYQF 220300Z 17006KT 15SM FEW120 19/12 A2980 RMK AC1 SLP093=

CYQF;2005-08-22 04:00;METAR CYQF 220400Z 21004KT 15SM FEW120 16/11 A2981 RMK AC1 SLP096=

CYQF;2005-08-22 05:00;METAR CYQF 220500Z 00000KT 15SM SKC 15/11 A2982 RMK SLP099=

CYQF;2005-08-22 07:00;METAR CYQF 220700Z 32010KT 15SM FEW120 FEW250 15/10 A2995 RMK AC1CI0 SLP136=

CYQF;2005-08-22 08:00;METAR CYQF 220800Z 34006KT 15SM FEW120 FEW250 12/09 A2997 RMK AC1CI0 SLP142=

CYQF;2005-08-22 09:00;METAR CYQF 220900Z 33007KT 15SM FEW120 FEW250 11/08 A2998 RMK AC1CI0 SLP150=

CYQF;2005-08-22 10:00;METAR CYQF 221000Z 35007KT 15SM FEW120 FEW250 11/08 A3000 RMK AC1CI0 SLP155=

CYQF;2005-08-22 11:00;METAR CYQF 221100Z 36003KT 15SM FEW100 BKN250 11/07 A3001 RMK AC2CI2 SLP159=

CYQF;2005-08-22 12:00;METAR CYQF 221200Z 33003KT 15SM SCT100 BKN250 10/07 A3004 RMK AC4CI1 SLP170=

CYQF;2005-08-22 13:00;METAR CYQF 221300Z 27003KT 15SM BKN100 BKN250 11/08 A3006 RMK AC6CI1 SLP176=

CYQF;2005-08-22 14:00;METAR CYQF 221400Z 27004KT 15SM BKN080 BKN250 11/08 A3007 RMK AC6CI1 VIRGA W-SW SLP179=

CYQF;2005-08-22 15:00;METAR CYQF 221500Z 26004KT 15SM BKN080 BKN250 12/09 A3008 RMK AC6CI1 VIRGA DIST SW SLP193=

CYQF;2005-08-22 16:00;METAR CYQF 221600Z 35003KT 15SM BKN080 BKN250 14/07 A3007 RMK AC6CI1 SLP191=

CYQF;2005-08-22 17:00;METAR CYQF 221700Z 36006KT 15SM FEW040 BKN080 OVC250 14/04 A3009 RMK CU1AC6CI1 SLP197=

CYQF;2005-08-22 18:00;METAR CYQF 221800Z 02004KT 15SM FEW040 BKN090 OVC250 15/04 A3008 RMK CU1AC6CI1 SLP194=

CYQF;2005-08-22 19:00;METAR CYQF 221900Z 01005KT 15SM FEW040 BKN090 BKN250 15/05 A3007 RMK CU1AC5CI1 SLP190=

CYQF;2005-08-22 20:00;METAR CYQF 222000Z 36004KT 15SM FEW040 BKN090 BKN250 16/05 A3005 RMK CU1AC5CI1 TR CU SLP184=

CYQF;2005-08-22 21:00;METAR CYQF 222100Z 06007KT 15SM FEW040 BKN100 BKN250 17/06 A3003 RMK CU1AC4CI2 TR CU SLP177=

CYQF;2005-08-22 22:00;METAR CYQF 222200Z 05008KT 15SM FEW040 FEW100 BKN250 19/08 A3000 RMK CU1AC1CI2 SLP168=

CYQF;2005-08-22 23:00;METAR CYQF 222300Z 04007KT 15SM FEW040 FEW100 BKN250 18/07 A2998 RMK CU2AC1CI1 SLP164=

CYQF;2005-08-23 00:00;METAR CYQF 230000Z 09008KT 15SM FEW040 BKN100 BKN250 17/07 A2997 RMK CU2AC2CI1 SLP160=

CYQF;2005-08-23 01:00;METAR CYQF 230100Z 09006KT 15SM FEW040 SCT100 BKN250 16/07 A2996 RMK CU2AC2CI2 CB DIST S SLP155=

CYQF;2005-08-23 01:45;SPECI CYQF 230145Z 04006KT 15SM SHRA SCT040 BKN100 BKN250 RMK CU3AC2CI1 TCU ASOCTD=

CYQF;2005-08-23 02:00;METAR CYQF 230200Z 05007KT 15SM -SHRA FEW040 SCT100 BKN250 14/10 A2995 RMK CU2AC2CI2 TCU ASOCTD RERA SLP154=

CYQF;2005-08-23 02:30;SPECI CYQF 230230Z 09006KT 15SM FEW040 SCT100 BKN250 RMK SC2AC2CI1 TCU ASOCTD=

CYQF;2005-08-23 03:00;METAR CYQF 230300Z 06005KT 15SM FEW040TCU FEW100 13/09 A2995 RMK TCU2AC1 SH E SLP154=

CYQF;2005-08-23 04:00;METAR CYQF 230400Z 06005KT 15SM SCT040 BKN100 12/08 A2995 RMK SC4AC2 TCU ASOCTD SLP156=

CYQF;2005-08-23 05:00;METAR CYQF 230500Z 03002KT 15SM FEW040 OVC090 12/08 A2995 RMK SC2AC6=

CYQF;2005-08-23 06:00;METAR CYQF 230600Z 06002KT 15SM FEW040 OVC080 11/08 A2995 RMK SC2AC6 OCNL LTNG SE SLP151=

CYQF;2005-08-23 07:00;METAR CYQF 230700Z 00000KT 15SM BKN040 OVC090 11/08 A2993 RMK SC5AC3 SLP146=

CYQF;2005-08-23 08:00;METAR CYQF 230800Z 00000KT 15SM OVC050 10/08 A2992 RMK SC8 SLP143=

CYQF;2005-08-23 09:00;METAR CYQF 230900Z 34004KT 15SM OVC050 11/09 A2992 RMK SC8 SLP139=

CYQF;2005-08-23 10:00;METAR CYQF 231000Z 01008KT 15SM BKN050 OVC090 11/08 A2991 RMK SC6AC2 SLP136=

CYQF;2005-08-23 11:00;METAR CYQF 231100Z 00000KT 15SM OVC050 11/08 A2992 RMK SC8 SLP139=

CYQF;2005-08-23 12:00;METAR CYQF 231200Z 03005KT 15SM OVC045 10/08 A2993 RMK SC8 SLP143=

CYQF;2005-08-23 12:48;SPECI CYQF 231248Z 36007KT 15SM -RA FEW010 BKN040 OVC090 RMK SC1SC6AC2=

CYQF;2005-08-23 13:00;METAR CYQF 231300Z 36008KT 15SM -RA FEW010 BKN040 OVC090 10/09 A2994 RMK SC2SC6AC1 SLP146=

CYQF;2005-08-23 14:00;METAR CYQF 231400Z 35009KT 10SM -RA FEW010 BKN034 OVC090 10/09 A2995 RMK SF2SC6AC1 BR SLP149=

CYQF;2005-08-23 15:00;METAR CYQF 231500Z 02015KT 10SM -RA FEW010 BKN035 OVC090 10/09 A2988 RMK SF2SC5AC2 SLP133=

CYQF;2005-08-23 16:00;METAR CYQF 231600Z 36013KT 10SM -SHRA BKN005 OVC035 10/08 A2991 RMK SC7SC1 SLP143=

CYQF;2005-08-23 17:00;METAR CYQF 231700Z 02007KT 6SM -SHRA BR BKN005 OVC015 09/08 A2994 RMK SF5SC3 RERA SLP150=

CYQF;2005-08-23 18:00;METAR CYQF 231800Z 36013KT 10SM -SHRA BKN005 OVC015 09/08 A2991 RMK SF6SC2 SLP144=

CYQF;2005-08-23 18:45;SPECI CYQF 231845Z 35012KT 3SM SHRA BR OVC005 RMK SF8=

CYQF;2005-08-23 19:00;METAR CYQF 231900Z 34012KT 4SM -SHRA BR OVC005 10/09 A2991 RMK SF8 SLP146=

CYQF;2005-08-23 20:00;METAR CYQF 232000Z 35013KT 8SM -SHRA BKN006 OVC015 10/09 A2991 RMK SF6SC2 BR SLP144=

CYQF;2005-08-23 21:00;METAR CYQF 232100Z 36013KT 8SM -SHRA BKN007 OVC015 10/08 A2990 RMK SF6SC2 BR SLP143=

CYQF;2005-08-23 22:00;METAR CYQF 232200Z 34014KT 3SM SHRA BR OVC006 09/08 A2991 RMK SF8 SLP145=

CYQF;2005-08-23 23:00;METAR CYQF 232300Z 33013KT 10SM -SHRA OVC006 10/09 A2991 RMK SF8 RERA SLP146=

CYQF;2005-08-24 00:00;METAR CYQF 240000Z 35010KT 10SM -SHRA BKN007 OVC013 09/08 A2992 RMK SF6SC2 SLP150=

CYQF;2005-08-24 01:00;METAR CYQF 240100Z 33014KT 8SM -SHRA OVC007 09/08 A2991 RMK SF8 BR SLP148=

CYQF;2005-08-24 02:00;METAR CYQF 240200Z 34015KT 6SM -SHRA OVC006 09/08 A2991 RMK SF8 BR SLP146=

CYQF;2005-08-24 03:00;METAR CYQF 240300Z 35015G21KT 6SM -SHRA OVC007 09/08 A2992 RMK SF8 BR SLP150=

CYQF;2005-08-24 04:00;METAR CYQF 240400Z 35012G20KT 6SM -SHRA OVC007 09/08 A2992 RMK SF8 BR SLP152=

CYQF;2005-08-24 05:00;METAR CYQF 240500Z 34012KT 10SM -SHRA BKN009 OVC015 09/08 A2993 RMK SF6SC2 SLP153=

CYQF;2005-08-24 06:00;METAR CYQF 240600Z 34014KT 15SM -SHRA BKN008 OVC015 09/08 A2993 RMK SF6SC2 SLP154=

CYQF;2005-08-24 07:00;METAR CYQF 240700Z 34014G24KT 10SM -RA BKN006 OVC030 09/08 A2993 RMK SF5SC3 SLP154=

CYQF;2005-08-24 08:00;METAR CYQF 240800Z 35016G25KT 10SM -RA BKN006 OVC035 09/08 A2992 RMK SF5SC3 SLP152=

CYQF;2005-08-24 09:00;METAR CYQF 240900Z 34015G24KT 15SM -RA BKN006 OVC030 09/08 A2992 RMK SF5SC3 SLP151=

CYQF;2005-08-24 10:00;METAR CYQF 241000Z 35015G23KT 8SM -RA OVC005 09/08 A2992 RMK SF8 SLP150=

CYQF;2005-08-24 11:00;METAR CYQF 241100Z 36017G27KT 10SM -RA OVC008 09/08 A2992 RMK SF8 SLP150=

CYQF;2005-08-24 12:00;METAR CYQF 241200Z 36016G25KT 15SM -RA BKN008 OVC015 09/08 A2993 RMK SF5SC3 SLP155=

CYQF;2005-08-24 13:00;METAR CYQF 241300Z 35015G22KT 15SM -RA SCT008 OVC015 09/07 A2994 RMK SF4SC4 SLP158=

CYQF;2005-08-24 13:46;SPECI CYQF 241346Z 34016G27KT 10SM -RA BKN009 OVC015 RMK SF6SC2=

CYQF;2005-08-24 14:00;METAR CYQF 241400Z 34013G23KT 10SM -RA BKN009 OVC015 09/07 A2993 RMK SF6SC2 SLP156=

CYQF;2005-08-24 15:00;METAR CYQF 241500Z 34018G30KT 10SM -RA OVC009 09/08 A2993 RMK SF8 SLP156=

CYQF;2005-08-24 16:00;METAR CYQF 241600Z 35017G28KT 6SM -RA BR OVC008 09/08 A2994 RMK SF8 CIG RGD SLP158=

CYQF;2005-08-24 17:00;METAR CYQF 241700Z 34014G24KT 6SM -RA BR OVC008 09/08 A2995 RMK SF8 CIG RGD SLP160=

CYQF;2005-08-24 18:00;METAR CYQF 241800Z 34015G26KT 8SM -RA BKN009 OVC020 09/08 A2995 RMK SF6SC2 BR CIG RGD SLP161=

CYQF;2005-08-24 19:00;METAR CYQF 241900Z 34015G25KT 6SM SHRA BR BKN008 OVC020 09/08 A2995 RMK SF6SC2 CIG RGD SLP162=

CYQF;2005-08-24 19:35;SPECI CYQF 241935Z 35010G25KT 3SM +SHRA OVC008 RMK SF8 CIG RAG=

CYQF;2005-08-24 20:00;METAR CYQF 242000Z 03010G15KT 5SM -SHRA BR BKN007 OVC020 08/07 A2996 RMK SF7SC1 RERA CIG RAG SLP166=

CYQF;2005-08-24 21:00;METAR CYQF 242100Z 34014G25KT 6SM -SHRA BR SCT007 OVC011 10/08 A2996 RMK SF3SC5 /R10/ SLP165=

CYQF;2005-08-24 22:00;METAR CYQF 242200Z 34014G26KT 6SM -SHRA BR SCT007 OVC011 10/09 A2997 RMK SF4SC4 SLP167=

CYQF;2005-08-24 23:00;METAR CYQF 242300Z 33014G25KT 10SM -SHRA OVC011 11/09 A2996 RMK SC8 SLP165=

CYQF;2005-08-24 23:53;SPECI CYQF 242353Z 33012G20KT 15SM VCSH SCT011 BKN025 OVC070 RMK SC3SC3AC2 SHS SE-SW=

CYQF;2005-08-25 00:00;METAR CYQF 250000Z 34012G20KT 15SM VCSH SCT011 BKN025 OVC070 12/10 A2996 RMK SC3SC3AC2 SHS DIST NE+SE-SW SLP162=

CYQF;2005-08-25 01:00;METAR CYQF 250100Z 33014G24KT 15SM FEW011 BKN025 OVC070 12/09 A2997 RMK SC2SC4AC2 SHS DIST NE+E SLP165=

CYQF;2005-08-25 02:00;METAR CYQF 250200Z 32013KT 15SM FEW012 BKN040 OVC080 12/10 A2997 RMK SC2SC5AC2 SHS DIST NE+SE-S SLP166=

CYQF;2005-08-25 03:00;METAR CYQF 250300Z 32013G23KT 15SM FEW015 BKN040 OVC080 12/09 A2998 RMK SC1SC5AC2 SHS DIST NE-S SLP169=

CYQF;2005-08-25 04:00;METAR CYQF 250400Z 32014KT 15SM SCT040 OVC090 12/09 A2999 RMK SC3AC5 SLP171=

CYQF;2005-08-25 05:00;METAR CYQF 250500Z 31012KT 15SM SCT040 OVC090 12/09 A2998 RMK SC4AC4 SLP170=

CYQF;2005-08-25 06:00;METAR CYQF 250600Z 32011KT 15SM FEW050 BKN090 OVC250 12/09 A2998 RMK SC2AC4CI2 SLP170=

CYQF;2005-08-25 07:00;METAR CYQF 250700Z 34011KT 15SM FEW050 BKN100 OVC250 11/08 A2998 RMK SC1AC5CI2 SLP169=

CYQF;2005-08-25 08:00;METAR CYQF 250800Z 31009KT 15SM BKN100 BKN250 10/08 A2998 RMK AC5CI2 SLP168=

CYQF;2005-08-25 09:00;METAR CYQF 250900Z 30009KT 15SM SCT100 BKN250 09/07 A2997 RMK AC3CI2 SLP170=

CYQF;2005-08-25 10:00;METAR CYQF 251000Z 30010KT 15SM FEW100 FEW250 08/06 A2998 RMK AC2CI1 SLP172=

CYQF;2005-08-25 11:00;METAR CYQF 251100Z 30010KT 15SM FEW100 BKN250 08/06 A2999 RMK AC1CI2 SLP175=

CYQF;2005-08-25 12:00;METAR CYQF 251200Z 29010KT 15SM FEW100 SCT250 07/05 A2999 RMK AC1CI2 SLP176=

CYQF;2005-08-25 13:00;METAR CYQF 251300Z 29009KT 15SM FEW100 SCT250 07/05 A3000 RMK AC1CI2 SLP178=

CYQF;2005-08-25 14:00;METAR CYQF 251400Z 30007KT 15SM FEW100 BKN250 07/05 A3001 RMK AC1CI2 SLP181=

CYQF;2005-08-25 15:00;METAR CYQF 251500Z 31008KT 15SM BKN250 09/07 A3001 RMK CI2 SLP180=

CYQF;2005-08-25 16:00;METAR CYQF 251600Z 30008KT 15SM SCT250 13/08 A3001 RMK CI2 SLP180=

CYQF;2005-08-25 17:00;METAR CYQF 251700Z 31009KT 15SM FEW250 15/09 A3001 RMK CI1 SLP178=

CYQF;2005-08-25 18:00;METAR CYQF 251800Z 32010KT 15SM FEW040 SCT250 16/08 A3001 RMK CU1CI1 SLP172=

CYQF;2005-08-25 19:00;METAR CYQF 251900Z 34012KT 15SM FEW040 SCT250 18/08 A3001 RMK CU1CI1 SLP171=

CYQF;2005-08-25 20:00;METAR CYQF 252000Z 32010G15KT 15SM FEW040 SCT250 18/07 A2999 RMK CU1CI1 SLP167=

CYQF;2005-08-25 21:00;METAR CYQF 252100Z 33010G18KT 15SM FEW045 SCT250 19/07 A2999 RMK CU1CI1 SLP164=

CYQF;2005-08-25 22:00;METAR CYQF 252200Z 32010G15KT 15SM FEW045 FEW250 19/06 A2997 RMK CU1CI0 SLP160=

CYQF;2005-08-25 23:00;METAR CYQF 252300Z 33012KT 15SM FEW045 20/07 A2997 RMK CU1 SLP159=

CYQF;2005-08-26 00:00;METAR CYQF 260000Z 33010KT 15SM FEW045 20/07 A2997 RMK CU1 SLP158=

CYQF;2005-08-26 01:00;METAR CYQF 260100Z 36004KT 15SM SKC 19/09 A2996 RMK SLP156=

CYQF;2005-08-26 02:00;METAR CYQF 260200Z 00000KT 15SM SKC 19/08 A2996 RMK SLP157=

CYQF;2005-08-26 03:00;METAR CYQF 260300Z 00000KT 15SM SKC 18/09 A2997 RMK SLP158=

CYQF;2005-08-26 04:00;METAR CYQF 260400Z 20003KT 15SM SKC 09/07 A2997 RMK SLP160=

CYQF;2005-08-26 05:00;METAR CYQF 260500Z 21005KT 15SM SKC 08/07 A2997 RMK SLP160=

CYQF;2005-08-26 06:00;METAR CYQF 260600Z 17003KT 15SM SKC 08/07 A2997 RMK SLP162=

CYQF;2005-08-26 07:00;METAR CYQF 260700Z 20003KT 15SM SKC 06/05 A2997 RMK SLP161=

CYQF;2005-08-26 08:00;METAR CYQF 260800Z 20003KT 15SM SKC 05/04 A2995 RMK SLP157=

CYQF;2005-08-26 09:00;METAR CYQF 260900Z 19002KT 15SM SKC 05/04 A2993 RMK SLP149=

CYQF;2005-08-26 10:00;METAR CYQF 261000Z 20002KT 15SM FEW250 05/04 A2993 RMK CI0 SLP147=

CYQF;2005-08-26 11:00;METAR CYQF 261100Z 18003KT 15SM FEW250 05/04 A2992 RMK CI0 SLP146=

CYQF;2005-08-26 12:00;METAR CYQF 261200Z 21003KT 15SM MIFG SKC 03/02 A2992 RMK SLP147=

CYQF;2005-08-26 13:00;METAR CYQF 261300Z 21005KT 15SM VCFG SKC 04/03 A2992 RMK SLP146=

CYQF;2005-08-26 14:00;METAR CYQF 261400Z 20002KT 15SM SKC 06/05 A2993 RMK SLP148=

CYQF;2005-08-26 15:00;METAR CYQF 261500Z 19002KT 15SM FEW280 10/07 A2993 RMK CI1 SLP145=

CYQF;2005-08-26 16:00;METAR CYQF 261600Z 25004KT 15SM FEW280 14/09 A2993 RMK CI1 SLP144=

CYQF;2005-08-26 17:00;METAR CYQF 261700Z 29006KT 15SM FEW280 18/08 A2992 RMK CI1 SLP143=

CYQF;2005-08-26 18:00;METAR CYQF 261800Z 30003KT 15SM SCT280 20/10 A2991 RMK CI1 SLP138=

CYQF;2005-08-26 19:00;METAR CYQF 261900Z 31003KT 15SM BKN280 22/10 A2991 RMK CI1 SLP137=

CYQF;2005-08-26 20:00;METAR CYQF 262000Z 33007KT 15SM BKN280 23/11 A2991 RMK CI2 SLP136=

CYQF;2005-08-26 21:00;METAR CYQF 262100Z 30006KT 15SM BKN280 24/10 A2989 RMK CI2 SLP130=

CYQF;2005-08-26 22:00;METAR CYQF 262200Z 34004KT 15SM BKN280 24/11 A2989 RMK CI2 SLP129=

CYQF;2005-08-26 23:00;METAR CYQF 262300Z 03003KT 15SM FEW120 BKN280 24/11 A2988 RMK AC1CI2 SLP126=

CYQF;2005-08-27 00:00;METAR CYQF 270000Z 03003KT 15SM FEW120 BKN250 23/13 A2987 RMK AC1CI3 SLP126=

CYQF;2005-08-27 01:00;METAR CYQF 270100Z 00000KT 15SM FEW120 BKN250 22/14 A2988 RMK AC2CI2 SLP127=

CYQF;2005-08-27 02:00;METAR CYQF 270200Z 00000KT 15SM FEW120 BKN250 21/13 A2988 RMK AC2CI2 SLP127=

CYQF;2005-08-27 03:00;METAR CYQF 270300Z 00000KT 15SM FEW120 BKN250 19/13 A2988 RMK AC2CI2 SLP128=

CYQF;2005-08-27 04:00;METAR CYQF 270400Z 00000KT 15SM FEW120 BKN250 14/11 A2991 RMK AC1CI2 SLP135=

CYQF;2005-08-27 05:00;METAR CYQF 270500Z 00000KT 15SM SCT250 14/12 A2991 RMK CI2 SLP136=

CYQF;2005-08-27 06:00;METAR CYQF 270600Z 00000KT 15SM FEW250 12/10 A2992 RMK CI1 SLP135=

CYQF;2005-08-27 08:00;METAR CYQF 270800Z 21003KT 15SM SKC 10/09 A2993 RMK SLP138=

CYQF;2005-08-27 09:00;METAR CYQF 270900Z 00000KT 15SM SKC 09/08 A2993 RMK SLP137=

CYQF;2005-08-27 11:00;METAR CYQF 271100Z 14002KT 15SM SKC 08/08 A2994 RMK SLP141=

CYQF;2005-08-27 13:00;METAR CYQF 271300Z 24005KT 12SM FEW070 06/06 A2996 RMK ACC1 BCFG SLP153=

CYQF;2005-08-27 14:00;METAR CYQF 271400Z 22003KT 12SM FEW070 08/08 A2997 RMK AC1 BR SLP154=

CYQF;2005-08-27 15:00;METAR CYQF 271500Z 22002KT 15SM SKC 12/10 A2999 RMK SLP161=

CYQF;2005-08-27 16:00;METAR CYQF 271600Z 00000KT 15SM SKC 14/10 A2999 RMK SLP161=

CYQF;2005-08-27 17:00;METAR CYQF 271700Z 00000KT 15SM SKC 18/12 A2998 RMK SLP159=

CYQF;2005-08-27 18:00;METAR CYQF 271800Z 17003KT 15SM FEW120 21/13 A2997 RMK AC2 SLP153=

CYQF;2005-08-27 19:00;METAR CYQF 271900Z 14012G17KT 15SM FEW120 SCT250 23/11 A2996 RMK AC2CI1 SLP149=

CYQF;2005-08-27 20:00;METAR CYQF 272000Z 18010G15KT 15SM SCT250 24/11 A2994 RMK CI2 SLP144=

CYQF;2005-08-27 21:00;METAR CYQF 272100Z 18012KT 15SM FEW250 25/10 A2993 RMK CI1 SLP138=

CYQF;2005-08-27 22:00;METAR CYQF 272200Z 18011KT 15SM FEW250 26/08 A2992 RMK CI1 SLP133=

CYQF;2005-08-28 00:00;METAR CYQF 280000Z 16007KT 15SM SKC 25/07 A2989 RMK SLP124=

CYQF;2005-08-28 01:00;METAR CYQF 280100Z 15006KT 15SM SKC 24/09 A2988 RMK SLP122=

CYQF;2005-08-28 02:00;METAR CYQF 280200Z 14005KT 15SM SKC 21/10 A2988 RMK SLP121=

CYQF;2005-08-28 03:00;METAR CYQF 280300Z 14003KT 15SM SKC 19/10 A2988 RMK SLP124=

CYQF;2005-08-28 04:00;METAR CYQF 280400Z 00000KT 15SM SKC 16/10 A2988 RMK SLP123=

CYQF;2005-08-28 05:00;METAR CYQF 280500Z 15005KT 15SM SKC 16/10 A2987 RMK SLP120=

CYQF;2005-08-28 06:00;METAR CYQF 280600Z 00000KT 15SM SKC 15/10 A2987 RMK SLP114=

CYQF;2005-08-28 07:00;METAR CYQF 280700Z 21005KT 15SM SKC 11/09 A2987 RMK SLP115=

CYQF;2005-08-28 08:00;METAR CYQF 280800Z 16002KT 15SM SKC 12/09 A2986 RMK SLP111=

CYQF;2005-08-28 09:00;METAR CYQF 280900Z 22006KT 15SM SKC 10/08 A2985 RMK SLP110=

CYQF;2005-08-28 10:00;METAR CYQF 281000Z 19005KT 15SM SKC 10/08 A2985 RMK SLP110=

CYQF;2005-08-28 11:00;METAR CYQF 281100Z 00000KT 15SM SKC 09/08 A2985 RMK SLP110=

CYQF;2005-08-28 12:00;METAR CYQF 281200Z 00000KT 15SM SKC 08/07 A2984 RMK BCFG SLP108=

CYQF;2005-08-28 13:00;METAR CYQF 281300Z 16003KT 10SM SKC 08/07 A2983 RMK BCFG SLP104=

CYQF;2005-08-28 14:00;METAR CYQF 281400Z 22002KT 12SM SKC 08/07 A2985 RMK BR SLP109=

CYQF;2005-08-28 15:00;METAR CYQF 281500Z 20003KT 15SM FEW270 13/09 A2985 RMK CI1 SLP110=

CYQF;2005-08-28 16:00;METAR CYQF 281600Z 20003KT 15SM FEW270 16/10 A2984 RMK CI1 SLP109=

CYQF;2005-08-28 17:00;METAR CYQF 281700Z 21004KT 15SM FEW270 21/12 A2983 RMK CI1 SLP105=

CYQF;2005-08-28 18:00;METAR CYQF 281800Z 00000KT 15SM FEW270 24/12 A2983 RMK CI0 SLP096=

CYQF;2005-08-28 19:00;METAR CYQF 281900Z 17003KT 15SM FEW270 26/11 A2982 RMK CI0 SLP093=

CYQF;2005-08-28 20:00;METAR CYQF 282000Z 18005KT 15SM FEW060 FEW270 27/10 A2982 RMK CU1CI0 SLP093=

CYQF;2005-08-28 21:00;METAR CYQF 282100Z 18009KT 15SM FEW060 SCT270 27/08 A2980 RMK CU1CI1 SLP089=

CYQF;2005-08-28 22:00;METAR CYQF 282200Z 17010KT 15SM FEW060 BKN270 28/09 A2979 RMK CU1CI2 SLP086=

CYQF;2005-08-28 23:00;METAR CYQF 282300Z 17009KT 15SM FEW060 BKN270 28/08 A2978 RMK SC1CI2 SLP082=

CYQF;2005-08-29 00:00;METAR CYQF 290000Z 17006KT 15SM FEW060 BKN250 27/09 A2977 RMK SC1CI2 SLP081=

CYQF;2005-08-29 01:00;METAR CYQF 290100Z 15004KT 15SM FEW060 BKN250 24/11 A2975 RMK SC1CI2 SLP075=

CYQF;2005-08-29 02:00;METAR CYQF 290200Z 15005KT 15SM FEW060 SCT250 22/10 A2975 RMK SC1CI2 SLP074=

CYQF;2005-08-29 03:00;METAR CYQF 290300Z 16004KT 15SM SCT250 18/10 A2975 RMK CI2 SLP078=

CYQF;2005-08-29 04:00;METAR CYQF 290400Z 14003KT 15SM SCT250 18/09 A2974 RMK CI2 SLP075=

CYQF;2005-08-29 05:00;METAR CYQF 290500Z 16005KT 15SM BKN250 15/08 A2973 RMK CI2 SLP072=

CYQF;2005-08-29 06:00;METAR CYQF 290600Z 19004KT 15SM BKN250 14/09 A2972 RMK CI3 SLP060=

CYQF;2005-08-29 07:00;METAR CYQF 290700Z 18003KT 15SM FEW100 BKN250 13/08 A2971 RMK AC1CI1 SLP056=

CYQF;2005-08-29 08:00;METAR CYQF 290800Z 27004KT 15SM FEW100 SCT250 11/08 A2972 RMK AC1CI1 SLP060=

CYQF;2005-08-29 09:00;METAR CYQF 290900Z 28005KT 15SM FEW100 BKN250 09/07 A2973 RMK AC1CI2 SLP064=

CYQF;2005-08-29 10:00;METAR CYQF 291000Z 25005KT 15SM FEW100 SCT250 08/07 A2973 RMK AC1CI1 SLP065=

CYQF;2005-08-29 11:00;METAR CYQF 291100Z 29008KT 15SM SCT250 10/08 A2973 RMK CI1 SLP065=

CYQF;2005-08-29 12:00;METAR CYQF 291200Z 29010KT 15SM FEW100 FEW250 10/08 A2972 RMK AC1CI0 SLP061=

CYQF;2005-08-29 13:00;METAR CYQF 291300Z 29004KT 15SM FEW100 FEW250 09/07 A2971 RMK AC1CI0 SLP059=

CYQF;2005-08-29 14:00;METAR CYQF 291400Z 33005KT 15SM FEW100 FEW250 10/08 A2970 RMK AC1CI1 TR CLD SLP055=

CYQF;2005-08-29 15:00;METAR CYQF 291500Z 34010KT 15SM FEW250 12/09 A2968 RMK CI2 SLP055=

CYQF;2005-08-29 16:00;METAR CYQF 291600Z 34010KT 15SM SCT015 BKN250 13/09 A2968 RMK SC3CI2 SLP056=

CYQF;2005-08-29 17:00;METAR CYQF 291700Z 31011KT 15SM BKN016 OVC100 14/10 A2968 RMK SC7AC1 SLP054=

CYQF;2005-08-29 18:00;METAR CYQF 291800Z 32011KT 15SM BKN015 OVC100 14/10 A2968 RMK SC7AC1 SLP058=

CYQF;2005-08-29 19:00;METAR CYQF 291900Z 33012G20KT 15SM OVC011 13/09 A2968 RMK SC8 SLP059=

CYQF;2005-08-29 20:00;METAR CYQF 292000Z 33011G21KT 15SM OVC011 13/10 A2969 RMK SC8 SLP062=

CYQF;2005-08-29 21:00;METAR CYQF 292100Z 33012G20KT 15SM OVC012 13/10 A2971 RMK SC8 SLP076=

CYQF;2005-08-29 22:00;METAR CYQF 292200Z 33012G19KT 15SM OVC011 13/09 A2970 RMK SC8 SLP073=

CYQF;2005-08-29 22:20;SPECI CYQF 292220Z 33012G22KT 15SM FEW012 OVC018 RMK SC2SC6=

CYQF;2005-08-29 23:00;METAR CYQF 292300Z 34013G23KT 15SM FEW012 OVC018 13/09 A2975 RMK SC2SC6 SLP086=

CYQF;2005-08-30 01:00;METAR CYQF 300100Z 31012KT 15SM FEW015 BKN040 13/08 A2979 RMK CF2SC5 SHS SW-NW SLP103=

CYQF;2005-08-30 02:00;METAR CYQF 300200Z 34014KT 15SM -SHRA FEW015 BKN040 11/08 A2976 RMK CF2SC5 SLP092=

CYQF;2005-08-30 03:00;METAR CYQF 300300Z 29008KT 15SM FEW010 SCT040 10/08 A2980 RMK SC2SC2 SLP104=

CYQF;2005-08-30 04:00;METAR CYQF 300400Z 35005KT 15SM BKN016 OVC040 11/09 A2985 RMK SC6SC2 SLP119=

CYQF;2005-08-30 05:00;METAR CYQF 300500Z 33010KT 15SM OVC020 10/08 A2984 RMK SC8 SLP117=

CYQF;2005-08-30 06:00;METAR CYQF 300600Z 33012KT 15SM BKN014 BKN025 09/07 A2989 RMK SF5SC2 SLP135=

CYQF;2005-08-30 07:00;METAR CYQF 300700Z 31008KT 15SM OVC014 09/07 A2989 RMK SC8 SLP136=

CYQF;2005-08-30 08:00;METAR CYQF 300800Z 32006KT 15SM FEW014 08/06 A2989 RMK SC2 SLP135=

CYQF;2005-08-30 09:00;METAR CYQF 300900Z 30005KT 15SM FEW015 SCT050 07/06 A2991 RMK SC1SC2 SLP145=

CYQF;2005-08-30 10:00;METAR CYQF 301000Z 27003KT 15SM SCT050 07/05 A2992 RMK SC2 SLP148=

CYQF;2005-08-30 11:00;METAR CYQF 301100Z 00000KT 15SM FEW050 05/04 A2991 RMK SC1 TR CLD SLP145=

CYQF;2005-08-30 12:00;METAR CYQF 301200Z 27004KT 15SM FEW040 03/02 A2992 RMK SC1 SLP154=

CYQF;2005-08-30 13:00;METAR CYQF 301300Z 25005KT 15SM FEW050 FEW250 04/03 A2994 RMK SC1CI1 TR CI SLP160=

CYQF;2005-08-30 14:00;METAR CYQF 301400Z 23005KT 15SM FEW050 04/03 A2995 RMK SC1 SLP164=

CYQF;2005-08-30 15:00;METAR CYQF 301500Z 25004KT 15SM FEW050 08/07 A2995 RMK SC1 SLP160=

CYQF;2005-08-30 16:00;METAR CYQF 301600Z 28005KT 15SM FEW050 11/07 A2995 RMK SC1 SLP161=

CYQF;2005-08-30 17:00;METAR CYQF 301700Z 28003KT 15SM FEW050 13/07 A2994 RMK SC1 SLP159=

CYQF;2005-08-30 18:00;METAR CYQF 301800Z 27002KT 15SM FEW050 15/07 A2995 RMK SC1 SLP154=

CYQF;2005-08-30 19:00;METAR CYQF 301900Z 00000KT 15SM FEW050 FEW090 16/05 A2994 RMK SC1AC1 SLP152=

CYQF;2005-08-30 20:00;METAR CYQF 302000Z 33005KT 15SM FEW050 FEW100 17/06 A2994 RMK CU2AC1 SLP152=

CYQF;2005-08-30 22:00;METAR CYQF 302200Z 20005KT 15SM SCT050 BKN080 18/07 A2994 RMK CU3AC2 TCU ASOCTD SHS S SLP150=

CYQF;2005-08-30 23:00;METAR CYQF 302300Z 21007KT 15SM FEW050 BKN080 16/07 A2994 RMK CU2AC6 SHS=

CYQF;2005-08-31 00:00;METAR CYQF 310000Z 16005KT 15SM FEW050 BKN080 16/07 A2994 RMK CU2AC5 SHS=

CYQF;2005-08-31 01:00;METAR CYQF 310100Z 17003KT 15SM FEW050 BKN090 15/08 A2994 RMK CU2AC6 SHS=

CYQF;2005-08-31 02:00;METAR CYQF 310200Z 07002KT 15SM FEW050 BKN090 14/08 A2995 RMK CU2AC4 SHS=

CYQF;2005-08-31 03:00;METAR CYQF 310300Z 00000KT 15SM FEW050 BKN090 13/08 A2995 RMK CU2AC4 SHS=

CYQF;2005-08-31 04:00;METAR CYQF 310400Z 02002KT 15SM FEW050 BKN090 13/08 A2996 RMK SC2AC4 SLP161=

CYQF;2005-08-31 05:00;METAR CYQF 310500Z 00000KT 15SM SCT090 11/08 A2996 RMK AC4 SLP163=

CYQF;2005-08-31 06:00;METAR CYQF 310600Z 00000KT 15SM FEW090 SCT250 10/08 A2997 RMK AC2CI2 SLP161=

CYQF;2005-08-31 07:00;METAR CYQF 310700Z 27003KT 15SM FEW090 07/05 A2998 RMK AC1 SLP164=

CYQF;2005-08-31 08:00;METAR CYQF 310800Z 00000KT 15SM SKC 06/05 A2999 RMK SLP169=

CYQF;2005-08-31 09:00;METAR CYQF 310900Z 19003KT 15SM SKC 05/04 A3001 RMK SLP178=

CYQF;2005-08-31 10:00;METAR CYQF 311000Z 24004KT 15SM SKC 04/03 A3002 RMK SLP181=

CYQF;2005-08-31 11:00;METAR CYQF 311100Z 00000KT 15SM SKC 04/03 A3003 RMK SLP185=

CYQF;2005-08-31 12:00;METAR CYQF 311200Z 19005KT 10SM BCFG FEW090 03/02 A3004 RMK AC1 SLP192=

CYQF;2005-08-31 12:21;SPECI CYQF 311221Z 00000KT 1SM BR FEW090 RMK FG1AC1 VIS N-NE 15=

CYQF;2005-08-31 13:00;METAR CYQF 311300Z 21002KT 3SM BR BKN090 03/03 A3005 RMK AC4 VIS S-SE 1 SLP194=

CYQF;2005-08-31 14:00;METAR CYQF 311400Z 20002KT 15SM FEW090 05/04 A3005 RMK AC2 SLP196=

CYQF;2005-08-31 15:00;METAR CYQF 311500Z 00000KT 15SM SCT090 09/08 A3005 RMK AC3 SLP194=

CYQF;2005-08-31 16:00;METAR CYQF 311600Z 28003KT 15SM SCT090 13/10 A3006 RMK AC4 SLP195=

CYQF;2005-08-31 17:00;METAR CYQF 311700Z 34008KT 15SM SCT090 BKN250 15/05 A3005 RMK AC3CI0 SLP191=

CYQF;2005-08-31 18:00;METAR CYQF 311800Z 33006KT 15SM FEW040 FEW090 SCT250 16/08 A3003 RMK CU1AC1CI1 SLP182=

CYQF;2005-08-31 19:00;METAR CYQF 311900Z 00000KT 15SM FEW040 FEW250 17/06 A3002 RMK CU1CI1 SLP179=

CYQF;2005-08-31 20:00;METAR CYQF 312000Z 28004KT 15SM FEW045 FEW250 18/05 A3001 RMK CU1CI1 SLP175=

CYQF;2005-08-31 21:00;METAR CYQF 312100Z 05004KT 15SM FEW050 FEW100 18/05 A3001 RMK CU2AC1 SLP176=

CYQF;2005-08-31 22:00;METAR CYQF 312200Z 02002KT 15SM FEW055 FEW100 18/06 A3000 RMK CU1AC1 SLP174=

CYQF;2005-08-31 23:00;METAR CYQF 312300Z 01005KT 15SM FEW055 FEW100 SCT200 19/05 A2999 RMK CU1AC1CI1 SLP172=

CYQF;2005-09-01 00:00;METAR CYQF 010000Z 02004KT 15SM FEW060 SCT090 SCT200 19/06 A2999 RMK CU1AC2CI0 SLP171=

CYQF;2005-09-01 01:00;METAR CYQF 010100Z 05005KT 15SM SCT060 BKN250 17/07 A2999 RMK CU3CI1 SLP170=

CYQF;2005-09-01 02:00;METAR CYQF 010200Z 05004KT 15SM FEW060 SCT090 BKN250 16/07 A2999 RMK SC2AC2CI1 SLP172=

CYQF;2005-09-01 03:00;METAR CYQF 010300Z 08002KT 15SM SCT055 BKN090 15/08 A3001 RMK SC3AC2 SLP176=

CYQF;2005-09-01 04:00;METAR CYQF 010400Z 07003KT 15SM FEW055 BKN100 14/07 A3001 RMK SC2AC4 SLP177=

CYQF;2005-09-01 05:00;METAR CYQF 010500Z 04003KT 15SM -SHRA SCT050 BKN100 13/08 A3001 RMK SC4AC3 SLP178=

CYQF;2005-09-01 05:20;SPECI CYQF 010520Z 00000KT 15SM FEW050 BKN100 OVC250 RMK SC2AC3CI2=

CYQF;2005-09-01 06:00;METAR CYQF 010600Z 15002KT 15SM FEW050 SCT100 BKN250 12/08 A3002 RMK SC2AC2CI2 SLP175=

CYQF;2005-09-01 07:00;METAR CYQF 010700Z 36006KT 15SM FEW100 SCT250 12/07 A3002 RMK AC1CI1 SLP175=

CYQF;2005-09-01 08:00;METAR CYQF 010800Z 00000KT 15SM FEW100 FEW250 10/06 A3002 RMK AC1CI1 SLP176=

CYQF;2005-09-01 09:00;METAR CYQF 010900Z 32003KT 15SM FEW100 FEW250 08/05 A3004 RMK AC1CI0 SLP182=

CYQF;2005-09-01 10:00;METAR CYQF 011000Z 00000KT 15SM FEW250 07/05 A3003 RMK CI0 SLP179=

CYQF;2005-09-01 11:00;METAR CYQF 011100Z 00000KT 15SM FEW100 FEW250 05/04 A3003 RMK AC2CI0 SLP180=

CYQF;2005-09-01 12:00;METAR CYQF 011200Z 00000KT 15SM BKN100 BKN250 05/04 A3003 RMK AC5CI0 SLP181=

CYQF;2005-09-01 13:00;METAR CYQF 011300Z 00000KT 15SM FEW100 BKN250 05/04 A3003 RMK AC2CI1 SLP182=

CYQF;2005-09-01 14:00;METAR CYQF 011400Z 00000KT 15SM BKN080 BKN250 08/06 A3004 RMK AC5CI1 SLP184=

CYQF;2005-09-01 15:00;METAR CYQF 011500Z 00000KT 15SM BKN080 BKN250 10/07 A3005 RMK AC5CI0 SLP187=

CYQF;2005-09-01 16:00;METAR CYQF 011600Z 00000KT 15SM BKN080 12/06 A3005 RMK AC5 SLP187=

CYQF;2005-09-01 17:00;METAR CYQF 011700Z 09003KT 15SM SCT080 SCT250 15/08 A3004 RMK AC3CI1 SLP184=

CYQF;2005-09-01 18:00;METAR CYQF 011800Z 17007KT 15SM SCT080 SCT250 18/08 A3003 RMK AC3CI1 SLP176=

CYQF;2005-09-01 19:00;METAR CYQF 011900Z 18009KT 15SM SCT080 BKN250 19/08 A3002 RMK AC3CI1 SLP173=

CYQF;2005-09-01 20:00;METAR CYQF 012000Z 21002KT 15SM FEW080 SCT250 21/08 A3001 RMK AC2CI1 SLP170=

CYQF;2005-09-01 21:00;METAR CYQF 012100Z 18005KT 15SM FEW060 SCT100 BKN250 21/06 A2999 RMK CU1AC2CI1 SLP164=

CYQF;2005-09-01 22:00;METAR CYQF 012200Z 18003KT 15SM FEW060 SCT100 SCT250 21/05 A2998 RMK CU1AC2CI1 SLP160=

CYQF;2005-09-01 23:00;METAR CYQF 012300Z 16004KT 15SM SCT060 BKN090 BKN250 20/06 A2997 RMK CU3AC2CI1 SLP158=

CYQF;2005-09-02 00:00;METAR CYQF 020000Z 15002KT 15SM FEW060 BKN090 BKN250 21/06 A2996 RMK CU2AC2CI1 SLP158=

CYQF;2005-09-02 01:00;METAR CYQF 020100Z 12003KT 15SM FEW060 SCT090 BKN250 19/09 A2995 RMK CU2AC2CI2 SLP154=

CYQF;2005-09-02 02:00;METAR CYQF 020200Z 11004KT 15SM FEW060 SCT090 BKN250 17/08 A2994 RMK SC2AC2CI2 SLP151=

CYQF;2005-09-02 03:00;METAR CYQF 020300Z 05002KT 15SM FEW060 SCT090 BKN250 15/07 A2994 RMK SC2AC2CI2 SLP150=

CYQF;2005-09-02 04:00;METAR CYQF 020400Z 16005KT 15SM FEW090 SCT250 14/07 A2994 RMK AC2CI2 SLP150=

CYQF;2005-09-02 05:00;METAR CYQF 020500Z 21007KT 15SM SCT250 10/06 A2995 RMK CI2 SLP152=

CYQF;2005-09-02 06:00;METAR CYQF 020600Z 19008KT 15SM FEW090 SCT250 11/07 A2994 RMK AC1CI3 SLP145=

CYQF;2005-09-02 07:00;METAR CYQF 020700Z 19003KT 15SM SCT090 BKN250 12/06 A2993 RMK AC3CI1 SLP143=

CYQF;2005-09-02 08:00;METAR CYQF 020800Z 18002KT 15SM BKN090 BKN250 12/06 A2992 RMK AC5CI2 SLP139=

CYQF;2005-09-02 09:00;METAR CYQF 020900Z 19006KT 15SM BKN090 OVC250 13/07 A2991 RMK AC6CI2 SLP130=

CYQF;2005-09-02 10:00;METAR CYQF 021000Z 17008KT 15SM BKN090 OVC250 12/06 A2989 RMK AC6CI2 SLP124=

CYQF;2005-09-02 11:00;METAR CYQF 021100Z 19007KT 15SM BKN090 OVC250 12/07 A2989 RMK AC6CI2 SLP124=

CYQF;2005-09-02 12:00;METAR CYQF 021200Z 19008KT 15SM BKN090 OVC250 10/06 A2989 RMK AC6CI2 SLP126=

CYQF;2005-09-02 13:00;METAR CYQF 021300Z 00000KT 15SM BKN090 OVC250 09/06 A2989 RMK AC6CI2 SLP126=

CYQF;2005-09-02 14:00;METAR CYQF 021400Z 18003KT 15SM BKN090 OVC250 10/07 A2990 RMK AC6CI2 SLP130=

CYQF;2005-09-02 15:00;METAR CYQF 021500Z 00000KT 15SM FEW050 BKN090 OVC250 11/08 A2990 RMK SC1AC6CI1 SLP134=

CYQF;2005-09-02 16:00;METAR CYQF 021600Z 00000KT 15SM FEW060 BKN090 BKN250 12/09 A2990 RMK SC1AC5CI1 SLP134=

CYQF;2005-09-02 17:00;METAR CYQF 021700Z 00000KT 15SM FEW060 BKN090 BKN250 14/10 A2990 RMK SC2AC4CI1 SLP135=

CYQF;2005-09-02 18:00;METAR CYQF 021800Z 00000KT 15SM FEW060 BKN100 OVC250 16/10 A2989 RMK SC1AC5CI2 SLP131=

CYQF;2005-09-02 19:00;METAR CYQF 021900Z 17004KT 15SM FEW030 BKN100 OVC250 17/10 A2989 RMK CU1AC6CI1 VIRGA SLP132=

CYQF;2005-09-02 20:00;METAR CYQF 022000Z 14003KT 15SM FEW030 BKN100 BKN250 18/10 A2988 RMK CU1AC5CI2 VIRGA CB DIST SW SLP127=

CYQF;2005-09-02 23:00;METAR CYQF 022300Z 15005KT 15SM FEW040 FEW100 SCT250 23/10 A2983 RMK CU2AC1CI0 SLP104=

CYQF;2005-09-03 00:00;METAR CYQF 030000Z 14005KT 15SM FEW050TCU SCT100 BKN250 23/10 A2982 RMK TCU2AC1CI0 CB TOP W SLP100=

CYQF;2005-09-03 00:44;SPECI CYQF 030044Z 15002KT 15SM TS SCT050CB BKN100 BKN250 RMK CB4AC2CI1 LTGCG W-SW SHS W-SW=

CYQF;2005-09-03 01:00;METAR CYQF 030100Z 00000KT 15SM TS BKN050CB BKN100 BKN250 19/13 A2981 RMK CB5AC2CI1 LTGCG NW-S SHS NW-S SLP098=

CYQF;2005-09-03 01:18;SPECI CYQF 030118Z 31010KT 10SM -TSRA BKN050CB BKN100 BKN250 RMK CB6AC1CI1 LTGCGIC=

CYQF;2005-09-03 02:00;METAR CYQF 030200Z 32005KT 15SM FEW020 BKN050CB BKN100 20/09 A2981 RETS RMK SF1CB5AC2 LTGCG DIST NE-E-S SHS N-E-S SLP099=

CYQF;2005-09-03 04:00;METAR CYQF 030400Z 25008KT 12SM -TSRA BKN050CB BKN100 14/12 A2987 RMK CB6AC2 LTGCGIC E-SE SLP122=

CYQF;2005-09-03 04:29;SPECI CYQF 030429Z 19008KT 15SM -SHRA SCT050CB OVC100 RETS RMK CB3AC5 LTGCGICCC DIST E-SE=

CYQF;2005-09-03 05:00;METAR CYQF 030500Z 25010G15KT 10SM -SHRA SCT050TCU OVC100 13/11 A2990 RETS RMK TCU3AC5 SLP131=

CYQF;2005-09-03 06:00;METAR CYQF 030600Z 06007KT 15SM SCT050TCU OVC090 13/10 A2983 RERA RMK TCU4AC4 PRESFR LTGIC DIST E-SE SLP107=

CYQF;2005-09-03 07:00;METAR CYQF 030700Z 00000KT 15SM SCT050TCU BKN100 13/10 A2981 RMK TCU3AC2 SLP101=

CYQF;2005-09-03 07:31;SPECI CYQF 030731Z 22006KT 15SM -SHRA BKN050TCU BKN100 RMK TCU5AC2=

CYQF;2005-09-03 08:00;METAR CYQF 030800Z 23005KT 15SM -SHRA BKN050TCU BKN090 12/10 A2984 RMK TCU5AC2 SLP110=

CYQF;2005-09-03 08:45;SPECI CYQF 030845Z 16007KT 15SM SCT050TCU BKN090 RMK TCU4AC2=

CYQF;2005-09-03 09:00;METAR CYQF 030900Z 19007KT 15SM SCT050TCU BKN090 11/11 A2985 RMK TCU3AC4 SLP111=

CYQF;2005-09-03 10:00;METAR CYQF 031000Z 22008KT 15SM SCT050 BKN090 11/10 A2982 RMK CU3AC3 SLP104=

CYQF;2005-09-03 11:00;METAR CYQF 031100Z 26002KT 15SM FEW050 BKN090 10/09 A2983 RMK CU2AC2 SLP107=

CYQF;2005-09-03 12:00;METAR CYQF 031200Z 23005KT 15SM FEW050 SCT090 10/09 A2984 RMK CU2AC2 SLP108=

CYQF;2005-09-03 13:00;METAR CYQF 031300Z 22005KT 15SM FEW050 FEW090 SCT250 08/08 A2984 RMK CU1AC2CI1 SLP108=

CYQF;2005-09-03 14:00;METAR CYQF 031400Z 23003KT 15SM FEW050 FEW090 SCT250 09/09 A2983 RMK CU1AC1CI1 SLP106=

CYQF;2005-09-03 15:00;METAR CYQF 031500Z 35003KT 15SM FEW050TCU FEW100 SCT250 13/11 A2984 RMK TCU1AC1CI2 TR TCU + AC SLP110=

CYQF;2005-09-03 16:00;METAR CYQF 031600Z 00000KT 15SM FEW015 BKN250 14/12 A2983 RMK SC1CI2 SLP107=

CYQF;2005-09-03 17:00;METAR CYQF 031700Z 02003KT 15SM FEW020 OVC250 16/12 A2983 RMK SC1CI2 SLP107=

CYQF;2005-09-03 18:00;METAR CYQF 031800Z 03006KT 15SM FEW020 FEW100 OVC250 17/12 A2981 RMK SC1AC1CI3 SLP100=

CYQF;2005-09-03 19:00;METAR CYQF 031900Z 02005KT 15SM FEW020 FEW100 BKN250 19/12 A2980 RMK SC1AC1CI2 SLP097=

CYQF;2005-09-03 20:00;METAR CYQF 032000Z 02005KT 15SM FEW030TCU BKN250 20/12 A2979 RMK TCU1CI2 SLP093=

CYQF;2005-09-03 21:00;METAR CYQF 032100Z 04005KT 15SM FEW030TCU FEW100 BKN250 21/13 A2977 RMK TCU1AC1CI2 SLP083=

CYQF;2005-09-03 22:00;METAR CYQF 032200Z 04008KT 15SM FEW035TCU FEW100 BKN250 22/13 A2976 RMK TCU1AC1CI3 VIRGA/SHS S + W SLP079=

CYQF;2005-09-03 23:00;METAR CYQF 032300Z 36008KT 15SM SCT040TCU BKN100 BKN250 21/13 A2976 RMK TCU3AC2CI2 SHS E-S SLP082=

CYQF;2005-09-04 00:00;METAR CYQF 040000Z 36010KT 15SM SCT040TCU BKN100 BKN250 19/11 A2977 RMK TCU4AC2CI1 SHS DIST N+E SLP089=

CYQF;2005-09-04 01:00;METAR CYQF 040100Z 35007KT 15SM FEW040TCU SCT100 BKN250 18/12 A2978 RMK TCU2AC2CI2 SLP093=

CYQF;2005-09-04 02:00;METAR CYQF 040200Z 36012G18KT 15SM BKN040TCU BKN100 12/07 A2985 RMK TCU5AC2 PRESRR VIRGA SW SLP115=

CYQF;2005-09-04 02:10;SPECI CYQF 040210Z 33015G25KT 15SM -SHRA BKN040TCU BKN100 RMK TCU5AC2 PRESRR=

CYQF;2005-09-04 03:00;METAR CYQF 040300Z 34010G15KT 15SM BKN035TCU BKN100 10/07 A2992 RMK TCU5AC2 CB E LTGCGIC E SLP145=

CYQF;2005-09-04 04:00;METAR CYQF 040400Z 34008KT 15SM FEW040 FEW100 09/06 A2995 RMK SC2AC1 SLP154=

CYQF;2005-09-04 05:00;METAR CYQF 040500Z 32005KT 15SM FEW040 07/05 A2995 RMK SC2 SLP155=

CYQF;2005-09-04 06:00;METAR CYQF 040600Z 30005KT 15SM FEW040 07/06 A2995 RMK SC1 SLP153=

CYQF;2005-09-04 08:00;METAR CYQF 040800Z 28009KT 15SM SKC 07/05 A2997 RMK SLP160=

CYQF;2005-09-04 09:00;METAR CYQF 040900Z 33005KT 15SM FEW250 05/04 A2996 RMK CI2 SLP158=

CYQF;2005-09-04 10:00;METAR CYQF 041000Z 27006KT 15SM SCT250 04/03 A2999 RMK CI3 SLP166=

CYQF;2005-09-04 11:00;METAR CYQF 041100Z 27007KT 15SM FEW100 BKN250 05/04 A3000 RMK AC1CI4 SLP170=

CYQF;2005-09-04 12:00;METAR CYQF 041200Z 00000KT 15SM SCT100 BKN250 05/04 A3001 RMK AC3CI2 SLP175=

CYQF;2005-09-04 13:00;METAR CYQF 041300Z 00000KT 15SM FEW050 SCT090 BKN250 04/04 A3000 RMK SC1AC3CI2 VIRGA SW-W SLP173=

CYQF;2005-09-04 14:00;METAR CYQF 041400Z 00000KT 15SM SCT050 BKN090 BKN250 05/04 A3000 RMK SC3AC2CI1 VIRGA E + W SLP173=

CYQF;2005-09-04 15:00;METAR CYQF 041500Z 20003KT 15SM BKN050 BKN090 07/06 A2999 RMK SC5AC2 VIRGA SLP178=

CYQF;2005-09-04 16:00;METAR CYQF 041600Z 00000KT 15SM BKN040 BKN090 BKN250 09/07 A2999 RMK SC5AC2CI1 SLP177=

CYQF;2005-09-04 17:00;METAR CYQF 041700Z 00000KT 15SM BKN060 BKN250 10/07 A2999 RMK SC6CI1 SLP176=

CYQF;2005-09-04 18:00;METAR CYQF 041800Z 08003KT 15SM BKN060 BKN100 BKN250 12/08 A2997 RMK SC5AC2CI1 SLP169=

CYQF;2005-09-04 19:00;METAR CYQF 041900Z 06005KT 15SM SCT060 BKN100 BKN250 13/06 A2996 RMK SC3AC2CI2 SLP164=

CYQF;2005-09-04 20:00;METAR CYQF 042000Z 06008KT 15SM FEW030 SCT100 BKN250 15/07 A2994 RMK CU2AC2CI1 SLP158=

CYQF;2005-09-04 21:00;METAR CYQF 042100Z 09002KT 15SM SCT035 BKN090 BKN250 15/06 A2994 RMK SC4AC2CI1 SLP155=

CYQF;2005-09-04 22:00;METAR CYQF 042200Z 36007KT 15SM -SHRA BKN035 OVC090 14/08 A2995 RMK SC6AC2 CB EMBD LTGCG DIST S SLP159=

CYQF;2005-09-04 22:51;SPECI CYQF 042251Z 00000KT 10SM -TSRA FEW012 BKN035 OVC090 RMK SF1SC6AC1 CB EMBD LTGCG S=

CYQF;2005-09-04 23:00;METAR CYQF 042300Z 00000KT 12SM -TSRA FEW012 BKN035CB OVC090 12/09 A2995 RMK SF1CB6AC1 LTGCG SE SLP159=

CYQF;2005-09-04 23:30;SPECI CYQF 042330Z 09005KT 15SM -SHRA FEW012 BKN035 BKN090 RETS RMK SF1SC6AC1 CB EMBD E=

CYQF;2005-09-05 00:00;METAR CYQF 050000Z 00000KT 15SM FEW012 BKN040 BKN090 12/09 A2995 RETS RMK SF1SC6AC1 SHS N-E-S SLP164=

CYQF;2005-09-05 01:00;METAR CYQF 050100Z 34012KT 15SM FEW012 BKN040 BKN090 12/09 A2996 RMK SF1SC6AC1 TCU ASOCTD SHS NW SLP167=

CYQF;2005-09-05 02:00;METAR CYQF 050200Z 32010G15KT 10SM -SHRA FEW012 BKN040 BKN090 10/08 A3000 RMK SF1SC6AC1 TCU ASOCTD SLP178=

CYQF;2005-09-05 02:36;SPECI CYQF 050236Z 36005KT 15SM BKN040 BKN090 RMK SC6AC1 TCU ASOCTD SHS N-E=

CYQF;2005-09-05 03:00;METAR CYQF 050300Z 07008KT 15SM SCT040 BKN090 09/08 A2998 RMK SC4AC2 TCU ASOCTD SHS NE SLP175=

CYQF;2005-09-05 04:00;METAR CYQF 050400Z 36004KT 15SM SCT040 BKN080 08/07 A3000 RMK SC3AC4 SLP181=

CYQF;2005-09-05 05:00;METAR CYQF 050500Z 36003KT 15SM FEW040 BKN080 08/07 A3000 RMK SC1AC6 SLP182=

CYQF;2005-09-05 06:00;METAR CYQF 050600Z 29006KT 15SM BKN080 BKN200 08/07 A3002 RMK AC5CI1 SLP183=

CYQF;2005-09-05 07:00;METAR CYQF 050700Z 23004KT 15SM BKN090 OVC200 07/06 A3001 RMK AC7CI1 SLP182=

CYQF;2005-09-05 07:54;SPECI CYQF 050754Z 29005KT 1SM BR VV004 RMK FG8=

CYQF;2005-09-05 08:00;METAR CYQF 050800Z 30006KT 1SM BR VV004 07/06 A3003 RMK FG8 SLP186=

CYQF;2005-09-05 09:00;METAR CYQF 050900Z 29007KT 1/2SM FG VV003 07/06 A3002 RMK FG8 SLP181=

CYQF;2005-09-05 10:00;METAR CYQF 051000Z 33003KT 1/2SM FG VV003 06/06 A3003 RMK FG8 SLP185=

CYQF;2005-09-05 11:00;METAR CYQF 051100Z 00000KT 1/2SM FG VV004 06/05 A3004 RMK FG8 SLP189=

CYQF;2005-09-05 12:00;METAR CYQF 051200Z 27002KT 3/4SM BR VV004 05/05 A3005 RMK FG8 SLP199=

CYQF;2005-09-05 13:00;METAR CYQF 051300Z 28003KT 1/2SM FG VV002 05/05 A3006 RMK FG8 SLP202=

CYQF;2005-09-05 13:32;SPECI CYQF 051332Z 25007KT 3/4SM BR BKN004 OVC080 RMK FG5SF2AC1=

CYQF;2005-09-05 14:00;METAR CYQF 051400Z 28007KT 3/4SM BR SKC 04/04 A3007 RMK FG4 SLP205=

CYQF;2005-09-05 14:14;SPECI CYQF 051414Z 00000KT 10SM SCT001 SCT080 RMK FG1SF2AC1 VIS S-E 1=

CYQF;2005-09-05 14:26;SPECI CYQF 051426Z 21003KT 15SM FEW001 FEW080 SCT250 RMK SF1AC1CI1 VIS SE 3=

CYQF;2005-09-05 15:00;METAR CYQF 051500Z 29003KT 15SM FEW080 FEW250 06/05 A3009 RMK AC1CI0 CB TP DIST NW SLP213=

CYQF;2005-09-05 16:00;METAR CYQF 051600Z 31010KT 15SM FEW090 FEW250 09/05 A3009 RMK AC1CI1 CB TP DIST NW TR CI SLP215=

CYQF;2005-09-05 17:00;METAR CYQF 051700Z 30010KT 15SM FEW020TCU FEW090 FEW250 11/07 A3010 RMK TCU1AC1CI1 TR CLD SLP217=

CYQF;2005-09-05 18:00;METAR CYQF 051800Z 29010KT 15SM FEW025TCU 13/07 A3010 RMK TCU1 TR CLD SLP212=

CYQF;2005-09-05 19:00;METAR CYQF 051900Z 33014KT 15SM FEW035 15/05 A3011 RMK CU1 CB TPS DIST W + SW SLP213=

CYQF;2005-09-05 20:00;METAR CYQF 052000Z 35010KT 15SM FEW040TCU 16/05 A3011 RMK TCU2 SLP213=

CYQF;2005-09-05 22:00;METAR CYQF 052200Z 31005KT 15SM SCT045TCU 15/04 A3011 RMK TCU3 CB/SHS W SLP212=

CYQF;2005-09-05 23:00;METAR CYQF 052300Z 32008KT 15SM SCT050TCU SCT090 17/03 A3011 RMK TCU3AC1 SHS SE SLP212=

CYQF;2005-09-06 00:00;METAR CYQF 060000Z 31008KT 15SM FEW055TCU SCT150 16/02 A3013 RMK TCU2AC0 SLP219=

CYQF;2005-09-06 01:00;METAR CYQF 060100Z 35003KT 15SM FEW060 15/04 A3013 RMK SC2 TCU ASOCTD SLP221=

CYQF;2005-09-06 02:00;METAR CYQF 060200Z 00000KT 15SM FEW060 11/05 A3014 RMK SC1 SLP223=

CYQF;2005-09-06 03:00;METAR CYQF 060300Z 00000KT 15SM FEW060 09/06 A3015 RMK SC1 SLP234=

CYQF;2005-09-06 04:00;METAR CYQF 060400Z 20005KT 15SM FEW060 07/04 A3016 RMK SC1 SLP237=

CYQF;2005-09-06 05:00;METAR CYQF 060500Z 19002KT 15SM FEW060 06/03 A3016 RMK SC1 SLP237=

CYQF;2005-09-06 06:00;METAR CYQF 060600Z 20004KT 15SM FEW060 06/03 A3016 RMK SC1 SLP234=

CYQF;2005-09-06 07:00;METAR CYQF 060700Z 00000KT 15SM SKC 03/01 A3016 RMK SLP236=

CYQF;2005-09-06 08:00;METAR CYQF 060800Z 21005KT 15SM SKC 02/01 A3016 RMK SLP236=

CYQF;2005-09-06 09:00;METAR CYQF 060900Z 20004KT 15SM SKC 02/01 A3016 RMK SLP236=

CYQF;2005-09-06 10:00;METAR CYQF 061000Z 21007KT 15SM SKC 02/00 A3017 RMK SLP237=

CYQF;2005-09-06 11:00;METAR CYQF 061100Z 20003KT 15SM SKC 01/M01 A3017 RMK SLP237=

CYQF;2005-09-06 12:00;METAR CYQF 061200Z 20004KT 15SM SKC 01/00 A3018 RMK SLP242=

CYQF;2005-09-06 13:00;METAR CYQF 061300Z 26009KT 15SM SKC 01/M00 A3019 RMK SLP246=

CYQF;2005-09-06 14:00;METAR CYQF 061400Z 27005KT 15SM SKC 02/01 A3020 RMK SLP249=

CYQF;2005-09-06 15:00;METAR CYQF 061500Z 25004KT 15SM SKC 06/03 A3021 RMK SLP255=

CYQF;2005-09-06 16:00;METAR CYQF 061600Z 25002KT 15SM SKC 09/04 A3021 RMK SLP256=

CYQF;2005-09-06 17:00;METAR CYQF 061700Z 22003KT 15SM SKC 13/05 A3020 RMK SLP253=

CYQF;2005-09-06 18:00;METAR CYQF 061800Z 00000KT 15SM SKC 15/05 A3020 RMK SLP245=

CYQF;2005-09-06 19:00;METAR CYQF 061900Z 00000KT 15SM FEW050 18/06 A3019 RMK CU1 SLP241=

CYQF;2005-09-06 20:00;METAR CYQF 062000Z 00000KT 15SM FEW060 17/01 A3017 RMK CU1 SLP237=

CYQF;2005-09-06 21:00;METAR CYQF 062100Z 13003KT 15SM FEW060 19/01 A3016 RMK CU1 SLP232=

CYQF;2005-09-06 22:00;METAR CYQF 062200Z 20002KT 15SM FEW060 18/00 A3016 RMK CU1 SLP231=

CYQF;2005-09-06 23:00;METAR CYQF 062300Z 00000KT 15SM SKC 18/01 A3015 RMK SLP230=

CYQF;2005-09-07 00:00;METAR CYQF 070000Z 25002KT 15SM SKC 18/03 A3015 RMK SLP229=

CYQF;2005-09-07 01:00;METAR CYQF 070100Z 00000KT 15SM SKC 18/02 A3014 RMK SLP226=

CYQF;2005-09-07 02:00;METAR CYQF 070200Z 00000KT 15SM SKC 15/05 A3014 RMK SLP225=

CYQF;2005-09-07 03:00;METAR CYQF 070300Z 00000KT 15SM SKC 10/04 A3014 RMK SLP230=

CYQF;2005-09-07 04:00;METAR CYQF 070400Z 00000KT 15SM SKC 09/04 A3014 RMK SLP230=

CYQF;2005-09-07 05:00;METAR CYQF 070500Z 00000KT 15SM SKC 07/05 A3013 RMK SLP228=

CYQF;2005-09-07 06:00;METAR CYQF 070600Z 00000KT 15SM SKC 07/04 A3013 RMK SLP219=

CYQF;2005-09-07 07:00;METAR CYQF 070700Z 33002KT 15SM SKC 05/02 A3013 RMK SLP219=

CYQF;2005-09-07 08:00;METAR CYQF 070800Z 24005KT 15SM SKC 03/01 A3012 RMK SLP217=

CYQF;2005-09-07 09:00;METAR CYQF 070900Z 00000KT 15SM SKC 03/01 A3011 RMK SLP212=

CYQF;2005-09-07 10:00;METAR CYQF 071000Z 00000KT 15SM SKC 03/01 A3009 RMK SLP206=

CYQF;2005-09-07 11:00;METAR CYQF 071100Z 00000KT 15SM SKC 02/01 A3008 RMK SLP204=

CYQF;2005-09-07 12:00;METAR CYQF 071200Z 20003KT 15SM SKC 01/M00 A3008 RMK SLP206=

CYQF;2005-09-07 13:00;METAR CYQF 071300Z 21002KT 15SM FEW100 01/M01 A3008 RMK AC1 SLP206=

CYQF;2005-09-07 14:00;METAR CYQF 071400Z 21002KT 15SM FEW100 FEW250 02/01 A3008 RMK AC1CI0 SLP205=

CYQF;2005-09-07 15:00;METAR CYQF 071500Z 22005KT 15SM FEW100 BKN250 06/04 A3007 RMK AC2CI2 SLP208=

CYQF;2005-09-07 16:00;METAR CYQF 071600Z 26004KT 15SM SCT120 BKN250 10/04 A3006 RMK AC2CI2 SLP205=

CYQF;2005-09-07 17:00;METAR CYQF 071700Z 22003KT 15SM FEW120 BKN250 12/05 A3006 RMK AC2CI2 SLP204=

CYQF;2005-09-07 18:00;METAR CYQF 071800Z 25005KT 15SM FEW120 BKN250 15/06 A3006 RMK AC2CI2 SLP194=

CYQF;2005-09-07 19:00;METAR CYQF 071900Z 29009KT 15SM FEW120 BKN250 18/05 A3004 RMK AC2CI1 SLP189=

CYQF;2005-09-07 20:00;METAR CYQF 072000Z 30010KT 15SM FEW120 SCT250 19/04 A3002 RMK AC1CI2 SLP183=

CYQF;2005-09-07 21:00;METAR CYQF 072100Z 31008KT 15SM FEW120 SCT250 20/05 A3001 RMK AC1CI1 SLP176=

CYQF;2005-09-07 22:00;METAR CYQF 072200Z 32005KT 15SM FEW120 SCT250 20/04 A3000 RMK AC1CI1 SLP173=

CYQF;2005-09-07 23:00;METAR CYQF 072300Z 33006KT 15SM FEW120 BKN250 20/03 A2998 RMK AC2CI2 SLP168=

CYQF;2005-09-08 00:00;METAR CYQF 080000Z 02004KT 15SM FEW120 BKN250 20/04 A2998 RMK AC1CI3 SLP168=

CYQF;2005-09-08 01:00;METAR CYQF 080100Z 00000KT 15SM FEW120 BKN250 19/05 A2997 RMK AC2CI3 SLP166=

CYQF;2005-09-08 02:00;METAR CYQF 080200Z 00000KT 15SM FEW100 BKN250 17/06 A2996 RMK AC2CI3 SLP162=

CYQF;2005-09-08 03:00;METAR CYQF 080300Z 00000KT 15SM FEW100 SCT250 13/06 A2996 RMK AC1CI2 SLP166=

CYQF;2005-09-08 04:00;METAR CYQF 080400Z 18002KT 15SM FEW100 FEW250 10/05 A2996 RMK AC1CI0 SLP165=

CYQF;2005-09-08 05:00;METAR CYQF 080500Z 19003KT 15SM SKC 09/04 A2995 RMK SLP162=

CYQF;2005-09-08 06:00;METAR CYQF 080600Z 19003KT 15SM SKC 08/04 A2994 RMK SLP153=

CYQF;2005-09-08 07:00;METAR CYQF 080700Z 21005KT 15SM SKC 06/03 A2993 RMK SLP150=

CYQF;2005-09-08 08:00;METAR CYQF 080800Z 19004KT 15SM FEW250 05/03 A2992 RMK CI1 SLP147=

CYQF;2005-09-08 09:00;METAR CYQF 080900Z 18003KT 15SM FEW250 04/02 A2991 RMK CI1 SLP140=

CYQF;2005-09-08 10:00;METAR CYQF 081000Z 21002KT 15SM FEW250 03/01 A2990 RMK CI1 SLP139=

CYQF;2005-09-08 11:00;METAR CYQF 081100Z 22003KT 15SM FEW250 02/00 A2989 RMK CI2 SLP134=

CYQF;2005-09-08 12:00;METAR CYQF 081200Z 19004KT 15SM FEW080 BKN250 03/01 A2988 RMK AC2CI2 SLP131=

CYQF;2005-09-08 13:00;METAR CYQF 081300Z 00000KT 15SM FEW080 BKN250 04/02 A2987 RMK AC2CI2 SLP129=

CYQF;2005-09-08 14:00;METAR CYQF 081400Z 19002KT 15SM FEW080 BKN120 BKN250 05/03 A2986 RMK AC2AC3CI2 SLP126=

CYQF;2005-09-08 15:00;METAR CYQF 081500Z 22002KT 15SM FEW080 BKN120 07/04 A2985 RMK AC2AC6 SLP126=

CYQF;2005-09-08 16:00;METAR CYQF 081600Z 18004KT 15SM FEW080 BKN100 BKN230 10/06 A2984 RMK AC2AC4CI1 SLP121=

CYQF;2005-09-08 17:00;METAR CYQF 081700Z 21003KT 15SM FEW080 BKN100 BKN230 11/07 A2984 RMK AC2AC5CI1 SLP121=

CYQF;2005-09-08 18:00;METAR CYQF 081800Z 21005KT 15SM FEW080 BKN120 OVC230 17/09 A2982 RMK AC2AC4CI1 SLP109=

CYQF;2005-09-08 19:00;METAR CYQF 081900Z 31010KT 15SM FEW080 BKN120 OVC230 18/08 A2981 RMK AC2AC3CI1 SLP106=

CYQF;2005-09-08 20:00;METAR CYQF 082000Z 02008KT 15SM FEW080 BKN120 OVC230 18/06 A2979 RMK AC2AC3CI2 SLP100=

CYQF;2005-09-08 21:00;METAR CYQF 082100Z 01012KT 15SM FEW080 BKN120 OVC230 17/06 A2978 RMK AC2AC4CI1 SLP101=

CYQF;2005-09-08 22:00;METAR CYQF 082200Z 02007KT 15SM FEW080 BKN100 OVC230 16/07 A2978 RMK AC2AC5CI2 SLP099=

CYQF;2005-09-08 23:00;METAR CYQF 082300Z 01012KT 15SM BKN090 OVC230 16/07 A2976 RMK AC6CI2 SLP094=

CYQF;2005-09-09 00:00;METAR CYQF 090000Z 01010KT 15SM VCSH FEW060 BKN090 OVC230 14/08 A2976 RMK SC2AC6CI1 SLP097=

CYQF;2005-09-09 00:17;SPECI CYQF 090017Z 01010KT 12SM -SHRA FEW060 OVC090 RMK SC2AC6=

CYQF;2005-09-09 01:00;METAR CYQF 090100Z 03007KT 15SM VCSH BKN060 OVC090 12/09 A2975 RMK SC5AC2 SLP093=

CYQF;2005-09-09 01:25;SPECI CYQF 090125Z 03005KT 15SM -SHRA BKN060 BKN090 RMK SC5AC2=

CYQF;2005-09-09 02:00;METAR CYQF 090200Z 09003KT 15SM VCSH BKN060 BKN090 12/09 A2976 RMK SC5AC2 SLP097=

CYQF;2005-09-09 03:00;METAR CYQF 090300Z 00000KT 15SM -SHRA BKN050 OVC090 11/09 A2976 RMK SC5AC3 SLP098=

CYQF;2005-09-09 03:30;SPECI CYQF 090330Z 28003KT 15SM SCT050 OVC090 RMK SC3AC5=

CYQF;2005-09-09 04:00;METAR CYQF 090400Z 34004KT 15SM SCT050 OVC090 10/08 A2977 RMK SC3AC5 SLP101=

CYQF;2005-09-09 04:13;SPECI CYQF 090413Z 00000KT 12SM -SHRA BKN050 OVC090 RMK SC5AC3=

CYQF;2005-09-09 05:00;METAR CYQF 090500Z 01003KT 15SM -SHRA BKN070 OVC100 11/08 A2975 RMK AC5AC3 SLP094=

CYQF;2005-09-09 05:35;SPECI CYQF 090535Z 01002KT 15SM FEW070 OVC100 RMK AC2AC6=

CYQF;2005-09-09 06:00;METAR CYQF 090600Z 00000KT 15SM FEW070 OVC100 10/08 A2975 RMK AC2AC6 SLP081=

CYQF;2005-09-09 07:00;METAR CYQF 090700Z 03002KT 15SM FEW070 OVC100 10/07 A2973 RMK AC2AC6 SLP076=

CYQF;2005-09-09 08:00;METAR CYQF 090800Z 19004KT 15SM FEW070 OVC100 09/07 A2972 RMK AC2AC6 SLP073=

CYQF;2005-09-09 09:00;METAR CYQF 090900Z 11002KT 15SM FEW070 OVC100 09/07 A2972 RMK AC2AC6 SLP073=

CYQF;2005-09-09 10:00;METAR CYQF 091000Z 00000KT 15SM SCT070 OVC100 08/07 A2972 RMK AC3AC5 SLP073=

CYQF;2005-09-09 10:45;SPECI CYQF 091045Z 32003KT 12SM -SHRA SCT050 OVC080 RMK SC3AC5=

CYQF;2005-09-09 11:46;SPECI CYQF 091146Z 33004KT 5SM -RA BR BKN014 OVC040 RMK SC6SC2=

CYQF;2005-09-09 12:00;METAR CYQF 091200Z 32003KT 4SM -RA BR FEW008 BKN018 OVC040 09/07 A2972 RMK SF2SC5SC2 SLP076=

CYQF;2005-09-09 13:00;METAR CYQF 091300Z 33003KT 1 1/2SM -RA BR FEW008 BKN011 OVC040 08/07 A2972 RMK SF2SC5SC2 SLP078=

CYQF;2005-09-09 14:00;METAR CYQF 091400Z 34004KT 1 1/2SM -RA BR SCT015 OVC040 08/07 A2972 RMK SC3SC5 SLP076=

CYQF;2005-09-09 14:30;SPECI CYQF 091430Z 35005KT 6SM -RA SCT015 OVC040 RMK SC3SC5 BR=

CYQF;2005-09-09 15:00;METAR CYQF 091500Z 35005KT 3SM -RA BR SCT015 OVC040 09/07 A2973 RMK SC4SC4 SLP084=

CYQF;2005-09-09 16:00;METAR CYQF 091600Z 35005KT 3SM -RA BR BKN010 OVC040 09/07 A2974 RMK SC6SC2 SLP087=

CYQF;2005-09-09 17:00;METAR CYQF 091700Z 36008KT 3SM -RA BR SCT005 OVC010 09/07 A2974 RMK SF4SC4 SLP086=

CYQF;2005-09-09 18:00;METAR CYQF 091800Z 02009KT 6SM -RA FEW005 SCT015 OVC030 09/06 A2974 RMK SF2SC2SC4 BR SLP089=

CYQF;2005-09-09 19:00;METAR CYQF 091900Z 01010KT 10SM -RA FEW010 BKN030 OVC050 08/06 A2975 RMK SF2SC3SC2 SLP091=

CYQF;2005-09-09 20:00;METAR CYQF 092000Z 36010KT 15SM -RA FEW010 BKN030 OVC050 08/06 A2976 RMK SF2SC4SC2 SLP095=

CYQF;2005-09-09 21:00;METAR CYQF 092100Z 01009KT 15SM -RA SCT010 OVC040 09/06 A2977 RMK SF3SC5 SLP102=

CYQF;2005-09-09 22:00;METAR CYQF 092200Z 35007KT 15SM BKN010 OVC040 09/06 A2977 RMK SC6SC2 SLP102=

CYQF;2005-09-09 23:00;METAR CYQF 092300Z 34010KT 15SM BKN010 OVC040 08/06 A2980 RMK SC5SC3 SLP111=

CYQF;2005-09-10 00:00;METAR CYQF 100000Z 33009KT 15SM BKN010 OVC040 08/06 A2983 RMK SC6SC2 SLP120=

CYQF;2005-09-10 01:00;METAR CYQF 100100Z 35012KT 15SM BKN012 OVC040 09/05 A2983 RMK SC5SC3 SLP121=

CYQF;2005-09-10 02:00;METAR CYQF 100200Z 35015KT 15SM BKN010 OVC040 09/06 A2984 RMK SC6SC2 SLP125=

CYQF;2005-09-10 03:00;METAR CYQF 100300Z 33009KT 15SM OVC014 09/06 A2986 RMK SC8 SLP132=

CYQF;2005-09-10 04:00;METAR CYQF 100400Z 35013KT 15SM -RA OVC012 09/06 A2986 RMK SC8 SLP133=

CYQF;2005-09-10 05:00;METAR CYQF 100500Z 34012KT 10SM -RA FEW005 OVC012 09/07 A2987 RMK SF2SC6 SLP135=

CYQF;2005-09-10 06:00;METAR CYQF 100600Z 34010KT 15SM FEW006 OVC012 09/07 A2987 RMK SF2SC6 SLP135=

CYQF;2005-09-10 07:00;METAR CYQF 100700Z 36010G15KT 10SM -RA FEW006 OVC012 09/07 A2987 RMK SF2SC6 CIG RAG SLP134=

CYQF;2005-09-10 08:00;METAR CYQF 100800Z 36010G15KT 12SM -RA FEW009 OVC014 09/07 A2987 RMK SF2SC6 CIG RAG SLP136=

CYQF;2005-09-10 10:00;METAR CYQF 101000Z 01010G15KT 10SM -RA SCT007 OVC017 09/07 A2987 RMK SF3SC5 CIG RAG SLP135=

CYQF;2005-09-10 11:00;METAR CYQF 101100Z 01012G18KT 8SM -RA SCT004 OVC010 09/07 A2988 RMK SF4SC4 CIG RAG BR SLP137=

CYQF;2005-09-10 12:00;METAR CYQF 101200Z 01013G20KT 8SM -RA BKN006 OVC010 09/07 A2987 RMK SF6SC2 CIG RAG BR SLP134=

CYQF;2005-09-10 13:00;METAR CYQF 101300Z 36010G20KT 8SM -RA BKN006 OVC010 09/06 A2987 RMK SF7SC1 CIG RAG BR SLP135=

CYQF;2005-09-10 14:00;METAR CYQF 101400Z 02010G20KT 8SM -RA BKN005 OVC010 09/07 A2988 RMK SF7SC1 CIG RAG BR SLP137=

CYQF;2005-09-10 16:00;METAR CYQF 101600Z 03020G33KT 6SM -RA BR OVC006 09/06 A2989 RMK SF8 SLP142=

CYQF;2005-09-10 17:00;METAR CYQF 101700Z 02020G35KT 10SM -RA OVC007 09/06 A2991 RMK SF8 SLP147=

CYQF;2005-09-10 18:00;METAR CYQF 101800Z 36020G30KT 6SM -RA OVC006 09/06 A2994 RMK SF8 SLP158=

CYQF;2005-09-10 19:00;METAR CYQF 101900Z 36018G27KT 6SM -RA BR OVC006 08/06 A2995 RMK SF8 SLP162=

CYQF;2005-09-10 20:00;METAR CYQF 102000Z 36017G25KT 6SM -RA OVC006 08/06 A2996 RMK SF8 SLP166=

CYQF;2005-09-10 21:00;METAR CYQF 102100Z 36015G25KT 10SM -RA OVC009 09/06 A2997 RMK SF8 SLP168=

CYQF;2005-09-10 22:00;METAR CYQF 102200Z 36015G25KT 15SM -RA OVC010 09/06 A2997 RMK SF8 SLP169=

CYQF;2005-09-10 23:00;METAR CYQF 102300Z 35014G22KT 15SM -RA OVC010 09/06 A2997 RMK SF8 SLP168=

CYQF;2005-09-10 23:18;SPECI CYQF 102318Z 36012G22KT 15SM OVC012 RMK SF8=

CYQF;2005-09-11 00:00;METAR CYQF 110000Z 34012G23KT 15SM BKN012 OVC025 09/05 A2996 RMK SF6SC2 SLP168=

CYQF;2005-09-11 01:00;METAR CYQF 110100Z 35010G20KT 15SM BKN018 OVC030 09/05 A2997 RMK SC5SC3 SLP169=

CYQF;2005-09-11 02:00;METAR CYQF 110200Z 36012KT 15SM BKN015 OVC030 08/05 A2996 RMK SC6SC2 SLP166=

CYQF;2005-09-11 03:00;METAR CYQF 110300Z 35012G22KT 15SM SCT015 OVC035 08/04 A2997 RMK SC3SC5 SLP171=

CYQF;2005-09-11 04:00;METAR CYQF 110400Z 36013G24KT 15SM FEW015 OVC030 08/04 A2999 RMK SC2SC6 SLP176=

CYQF;2005-09-11 05:00;METAR CYQF 110500Z 36011G20KT 15SM -RA SCT008 OVC030 08/03 A3000 RMK SF4SC4 SLP179=

CYQF;2005-09-11 07:00;METAR CYQF 110700Z 34010G15KT 15SM -RA FEW006 OVC030 07/04 A2998 RMK SF2SC6 SLP176=

CYQF;2005-09-11 08:00;METAR CYQF 110800Z 35010G15KT 5SM -RA BR SCT006 OVC014 06/04 A2997 RMK SF3SC5 SLP174=

CYQF;2005-09-11 09:00;METAR CYQF 110900Z 36006KT 15SM FEW015 OVC035 06/04 A2997 RMK SC2SC6 SLP171=

CYQF;2005-09-11 10:00;METAR CYQF 111000Z 36005KT 15SM FEW006 FEW015 OVC040 06/04 A2996 RMK SF1SC2SC6 SLP168=

CYQF;2005-09-11 11:00;METAR CYQF 111100Z 34007KT 15SM FEW015 OVC035 06/04 A2995 RMK SC1SC7 SLP165=

CYQF;2005-09-11 12:00;METAR CYQF 111200Z 35010KT 15SM FEW015 OVC030 06/04 A2994 RMK SC1SC7 SLP162=

CYQF;2005-09-11 13:00;METAR CYQF 111300Z 35008KT 12SM SCT012 OVC030 06/03 A2994 RMK SF3SC5 BR SLP161=

CYQF;2005-09-11 14:00;METAR CYQF 111400Z 36008KT 10SM -DZ SCT010 OVC025 06/03 A2994 RMK SF3SC5 SLP162=

CYQF;2005-09-11 16:00;METAR CYQF 111600Z 34009KT 12SM -DZ SCT010 OVC025 06/03 A2993 RMK SF3SC5 SLP158=

CYQF;2005-09-11 16:13;SPECI CYQF 111613Z 34008KT 15SM FEW010 OVC025 RMK SF2SC6=

CYQF;2005-09-11 17:00;METAR CYQF 111700Z 34007KT 15SM FEW010 OVC025 07/03 A2991 RMK SF2SC6 SLP153=

CYQF;2005-09-11 18:00;METAR CYQF 111800Z 35008KT 15SM FEW010 OVC026 07/02 A2989 RMK SF1SC7 SLP146=

CYQF;2005-09-11 19:00;METAR CYQF 111900Z 34010KT 15SM BKN025 08/02 A2987 RMK SC7 SLP141=

CYQF;2005-09-11 20:00;METAR CYQF 112000Z 33007KT 15SM OVC030 08/02 A2986 RMK SC8 SLP136=

CYQF;2005-09-11 21:00;METAR CYQF 112100Z 34008KT 15SM BKN030 09/02 A2984 RMK SC7 SLP126=

CYQF;2005-09-11 22:00;METAR CYQF 112200Z 33011KT 15SM BKN030 10/03 A2983 RMK SC6 SLP124=

CYQF;2005-09-11 23:00;METAR CYQF 112300Z 34005KT 15SM BKN035 10/02 A2983 RMK SC5 SLP122=

CYQF;2005-09-12 00:00;METAR CYQF 120000Z 33005KT 15SM BKN035 10/02 A2983 RMK SC5 SLP122=

CYQF;2005-09-12 01:00;METAR CYQF 120100Z 03003KT 15SM FEW035 10/03 A2983 RMK SC2 SLP123=

CYQF;2005-09-12 02:00;METAR CYQF 120200Z 00000KT 15SM FEW035 FEW250 09/03 A2984 RMK SC1CI0 SLP126=

CYQF;2005-09-12 03:00;METAR CYQF 120300Z 20004KT 15SM FEW035 04/01 A2986 RMK SC1 SLP139=

CYQF;2005-09-12 04:00;METAR CYQF 120400Z 00000KT 15SM SKC 04/01 A2986 RMK SLP141=

CYQF;2005-09-12 05:00;METAR CYQF 120500Z 00000KT 15SM SKC 03/01 A2987 RMK SLP144=

CYQF;2005-09-12 06:00;METAR CYQF 120600Z 00000KT 15SM SKC 02/M01 A2987 RMK SLP144=

CYQF;2005-09-12 07:00;METAR CYQF 120700Z 21004KT 15SM SKC 01/M01 A2987 RMK SLP144=

CYQF;2005-09-12 08:00;METAR CYQF 120800Z 00000KT 15SM FEW080 02/M01 A2987 RMK AC2 SLP145=

CYQF;2005-09-12 09:00;METAR CYQF 120900Z 26007KT 15SM FEW080 SCT250 02/M00 A2989 RMK AC2CI0 SLP148=

CYQF;2005-09-12 10:00;METAR CYQF 121000Z 27005KT 15SM FEW080 BKN250 03/01 A2990 RMK AC2CI1 SLP153=

CYQF;2005-09-12 11:00;METAR CYQF 121100Z 33010KT 15SM SCT040 OVC250 07/03 A2991 RMK SC4CI2 SLP155=

CYQF;2005-09-12 11:47;SPECI CYQF 121147Z 31005KT 15SM -SHRA BKN045 OVC250 RMK SC6CI2=

CYQF;2005-09-12 12:00;METAR CYQF 121200Z 30003KT 15SM -SHRA OVC045 06/04 A2994 RMK SC8 SLP158=

CYQF;2005-09-12 13:00;METAR CYQF 121300Z 30004KT 10SM -SHRA BKN040 OVC080 07/04 A2995 RMK SC6AC2 SLP161=

CYQF;2005-09-12 14:00;METAR CYQF 121400Z 28006KT 15SM -SHRA FEW010 SCT040 OVC080 07/04 A2995 RMK SF2SC2AC4 SLP163=

CYQF;2005-09-12 15:00;METAR CYQF 121500Z 28008KT 15SM -SHRA FEW010 SCT040 OVC080 08/05 A2996 RMK SF1SC3AC4 SLP171=

CYQF;2005-09-12 15:45;SPECI CYQF 121545Z 29008KT 10SM -RA BKN008 OVC040 RMK SF6SC2=

CYQF;2005-09-12 17:00;METAR CYQF 121700Z 33010KT 15SM -RA BKN018 OVC040 09/06 A2998 RMK SF6SC2 CIG RAG SLP177=

CYQF;2005-09-12 18:00;METAR CYQF 121800Z 33012G20KT 15SM -RA SCT020 BKN040 OVC080 09/04 A2999 RMK SC3SC2AC2 SLP183=

CYQF;2005-09-12 18:27;SPECI CYQF 121827Z 33010G15KT 15SM BKN016 BKN040 RMK SC6SC2=

CYQF;2005-09-12 19:00;METAR CYQF 121900Z 34010G15KT 15SM BKN017 BKN030 09/04 A2999 RMK SC5SC2 SLP184=

CYQF;2005-09-12 20:00;METAR CYQF 122000Z 33010G15KT 15SM BKN020 OVC035 09/02 A3000 RMK SC6SC2 SLP187=

CYQF;2005-09-12 21:00;METAR CYQF 122100Z 33010G15KT 15SM BKN025 OVC040 10/02 A3001 RMK SC6SC2 SLP189=

CYQF;2005-09-12 22:00;METAR CYQF 122200Z 36010G16KT 15SM BKN030 BKN050 10/02 A3001 RMK SC6SC2 SLP189=

CYQF;2005-09-12 23:00;METAR CYQF 122300Z 32010G17KT 15SM BKN030 11/02 A3000 RMK SC6 SLP187=

CYQF;2005-09-13 00:00;METAR CYQF 130000Z 32010G16KT 15SM SCT030 12/03 A3000 RMK SC3 SLP178=

CYQF;2005-09-13 01:00;METAR CYQF 130100Z 32008KT 15SM FEW030 09/03 A3001 RMK SC2 SLP181=

CYQF;2005-09-13 02:00;METAR CYQF 130200Z 32004KT 15SM FEW030 07/02 A3001 RMK SC1 SLP181=

CYQF;2005-09-13 03:00;METAR CYQF 130300Z 30006KT 15SM SKC 06/01 A3002 RMK SLP190=

CYQF;2005-09-13 04:00;METAR CYQF 130400Z 29004KT 15SM SKC 04/00 A3002 RMK SLP190=

CYQF;2005-09-13 05:00;METAR CYQF 130500Z 27005KT 15SM SKC 03/M01 A3002 RMK SLP190=

CYQF;2005-09-13 06:00;METAR CYQF 130600Z 25007KT 15SM SKC 02/M01 A3001 RMK SLP191=

CYQF;2005-09-13 07:00;METAR CYQF 130700Z 15003KT 15SM FEW100 02/M01 A3001 RMK AC2 SLP190=

CYQF;2005-09-13 08:00;METAR CYQF 130800Z 19005KT 15SM FEW040 SCT100 01/M01 A3000 RMK SC2AC2 SLP187=

CYQF;2005-09-13 09:00;METAR CYQF 130900Z 19003KT 15SM FEW040 SCT100 01/M01 A2999 RMK SC2AC2 SLP185=

CYQF;2005-09-13 10:00;METAR CYQF 131000Z 19005KT 15SM FEW040 SCT100 01/M02 A2998 RMK SC2AC2 SLP182=

CYQF;2005-09-13 11:00;METAR CYQF 131100Z 21005KT 15SM FEW040 SCT100 01/M02 A2997 RMK SC2AC2 SLP179=

CYQF;2005-09-13 12:00;METAR CYQF 131200Z 20004KT 15SM FEW040 SCT100 00/M02 A2996 RMK SC2AC2 SLP174=

CYQF;2005-09-13 13:00;METAR CYQF 131300Z 21004KT 15SM SCT080 01/M02 A2995 RMK AC3 SLP171=

CYQF;2005-09-13 14:00;METAR CYQF 131400Z 19004KT 15SM BKN070 01/M01 A2994 RMK AC6 SLP167=

CYQF;2005-09-13 15:00;METAR CYQF 131500Z 18002KT 15SM BKN070 04/01 A2993 RMK AC7 SLP163=

CYQF;2005-09-13 16:00;METAR CYQF 131600Z 22002KT 15SM BKN080 07/04 A2991 RMK AC6 SLP158=

CYQF;2005-09-13 17:00;METAR CYQF 131700Z 23005KT 15SM BKN080 10/06 A2989 RMK AC6 SLP153=

CYQF;2005-09-13 18:00;METAR CYQF 131800Z 22004KT 15SM SCT090 SCT250 13/07 A2987 RMK AC3CI0 SLP139=

CYQF;2005-09-13 19:00;METAR CYQF 131900Z 21005KT 15SM FEW040 BKN090 BKN250 15/05 A2985 RMK SC1AC4CI1 SLP133=

CYQF;2005-09-13 20:00;METAR CYQF 132000Z 20006KT 15SM FEW050 FEW090 SCT250 17/04 A2984 RMK SC1AC2CI1 CC ASOCTD SLP127=

CYQF;2005-09-13 21:00;METAR CYQF 132100Z 22008KT 15SM FEW050 SCT090 BKN250 18/04 A2981 RMK SC1AC3CI2 SLP112=

CYQF;2005-09-13 22:00;METAR CYQF 132200Z 23008KT 15SM FEW050 BKN090 BKN250 17/03 A2979 RMK SC1AC4CI2 SLP107=

CYQF;2005-09-13 23:00;METAR CYQF 132300Z 20003KT 15SM FEW060 BKN090 OVC250 17/03 A2977 RMK SC1AC4CI2 SLP102=

CYQF;2005-09-14 00:00;METAR CYQF 140000Z 23009G15KT 15SM SCT050 OVC090 16/04 A2978 RMK SC4AC4 SLP105=

CYQF;2005-09-14 01:00;METAR CYQF 140100Z 26003KT 15SM SCT050 OVC090 14/06 A2975 RMK CU4AC4 VIRGA SLP097=

CYQF;2005-09-14 02:00;METAR CYQF 140200Z 34012G20KT 15SM SCT050 OVC090 13/05 A2978 RMK SC3AC5 VIRGA SHS DIST N-NE SLP105=

CYQF;2005-09-14 02:14;SPECI CYQF 140214Z 34011KT 15SM -RA SCT050 OVC090 RMK SC3AC5=

CYQF;2005-09-14 03:00;METAR CYQF 140300Z 03004KT 15SM -RA SCT050 BKN090 11/07 A2979 RMK SC3AC4 SLP109=

CYQF;2005-09-14 04:00;METAR CYQF 140400Z 12003KT 15SM FEW050 OVC100 10/06 A2976 RMK SC2AC6 SLP102=

CYQF;2005-09-14 06:00;METAR CYQF 140600Z 26006KT 15SM FEW050 BKN100 08/06 A2978 RMK SC2AC5 SLP100=

CYQF;2005-09-14 07:00;METAR CYQF 140700Z 24005KT 15SM SCT050 OVC100 09/06 A2978 RMK SC4AC4 SLP099=

CYQF;2005-09-14 08:00;METAR CYQF 140800Z 19004KT 15SM FEW050 BKN100 09/06 A2978 RMK SC2AC3 SLP098=

CYQF;2005-09-14 09:00;METAR CYQF 140900Z 00000KT 15SM FEW050 BKN100 08/05 A2977 RMK SC2AC3 SLP093=

CYQF;2005-09-14 10:00;METAR CYQF 141000Z 24007KT 15SM FEW050 BKN100 08/05 A2976 RMK SC2AC3 SLP090=

CYQF;2005-09-14 11:00;METAR CYQF 141100Z 21007KT 15SM FEW050 07/04 A2976 RMK SC2 SLP089=

CYQF;2005-09-14 12:00;METAR CYQF 141200Z 22007KT 15SM FEW050 05/03 A2976 RMK SC2 SLP091=

CYQF;2005-09-14 13:00;METAR CYQF 141300Z 20006KT 15SM FEW050 SCT250 05/03 A2975 RMK SC2CI1 SLP090=

CYQF;2005-09-14 14:00;METAR CYQF 141400Z 21003KT 15SM BKN050 BKN220 06/03 A2976 RMK SC6CI1 SLP092=

CYQF;2005-09-14 15:00;METAR CYQF 141500Z 36012G20KT 15SM FEW020 BKN050 BKN250 09/05 A2981 RMK SC2SC3CI2 SLP112=

CYQF;2005-09-14 16:00;METAR CYQF 141600Z 01009KT 15SM SCT050 BKN080 BKN250 10/05 A2984 RMK SC3AC2CI1 SLP120=

CYQF;2005-09-14 17:00;METAR CYQF 141700Z 36008KT 15SM -SHRA BKN045 BKN080 11/05 A2985 RMK CU6AC2 SLP123=

CYQF;2005-09-14 17:23;SPECI CYQF 141723Z 35007KT 15SM SCT045 BKN080 RMK CU4AC2 SHS SW+N+E=

CYQF;2005-09-14 18:00;METAR CYQF 141800Z 33007KT 15SM SCT045 BKN080 13/05 A2985 RMK CU3AC2 SHS N+E-SE SLP124=

CYQF;2005-09-14 19:00;METAR CYQF 141900Z 31010G20KT 15SM FEW025 SCT045 BKN080 14/05 A2986 RMK SC2CU2AC2 SHS DIST NE+SE FEW TCU SLP127=

CYQF;2005-09-14 20:00;METAR CYQF 142000Z 32011KT 15SM FEW025 SCT050 BKN080 15/05 A2985 RMK CU2CU2AC1 SLP126=

CYQF;2005-09-14 21:00;METAR CYQF 142100Z 32009KT 15SM SCT030 BKN050 BKN080 14/05 A2987 RMK CU4CU2AC1 TCU EMBD SHS SW+NW+NE SLP129=

CYQF;2005-09-14 21:22;SPECI CYQF 142122Z 35015G22KT 15SM -SHRA BKN030TCU BKN080 RMK TCU6AC2=

CYQF;2005-09-14 21:44;SPECI CYQF 142144Z 27012KT 15SM FEW030 BKN050TCU BKN080 RMK SC2TCU3AC2 CB EMBD SW SHS SW+SE RERA=

CYQF;2005-09-14 22:00;METAR CYQF 142200Z 36005KT 15SM FEW030 BKN050TCU BKN100 13/07 A2988 RMK CU2TCU3AC2 CB TPS SE+SW SHS SE-SW RERA SLP132=

CYQF;2005-09-14 22:29;SPECI CYQF 142229Z 35008KT 15SM -SHRA BKN035TCU BKN100 RMK TCU5AC2=

CYQF;2005-09-14 23:00;METAR CYQF 142300Z 35006KT 15SM SCT040TCU BKN100 12/06 A2991 RMK TCU4AC2 SHS SE SLP141=

CYQF;2005-09-15 00:00;METAR CYQF 150000Z 35012G20KT 15SM FEW040 SCT100 BKN250 13/04 A2991 RMK CU2AC2CI1 VIRGA SW SLP149=

CYQF;2005-09-15 01:00;METAR CYQF 150100Z 35010G17KT 15SM FEW040 FEW100 FEW250 11/03 A2994 RMK CU1AC1CI0 TR AC SLP156=

CYQF;2005-09-15 02:00;METAR CYQF 150200Z 32004KT 15SM FEW040 FEW250 08/03 A2996 RMK CU1CI0 SLP163=

CYQF;2005-09-15 03:00;METAR CYQF 150300Z 31004KT 15SM FEW040 FEW250 06/02 A2998 RMK CU1CI0 SLP176=

CYQF;2005-09-15 04:00;METAR CYQF 150400Z 33006KT 15SM FEW030 BKN070 06/02 A2999 RMK SC2AC4 SLP180=

CYQF;2005-09-15 05:00;METAR CYQF 150500Z 35006KT 15SM FEW030 BKN070 07/03 A3000 RMK SC2AC5 SLP181=

CYQF;2005-09-15 06:00;METAR CYQF 150600Z 34003KT 15SM FEW030 BKN080 06/03 A3001 RMK SC2AC6 SLP180=

CYQF;2005-09-15 07:00;METAR CYQF 150700Z 36003KT 15SM FEW030 OVC070 07/03 A3001 RMK SC2AC6 SLP180=

CYQF;2005-09-15 08:00;METAR CYQF 150800Z 00000KT 15SM FEW030 BKN070 06/03 A3000 RMK SC1AC6 SLP179=

CYQF;2005-09-15 09:00;METAR CYQF 150900Z 00000KT 15SM FEW030 SCT070 06/03 A2999 RMK SC1AC2 SLP175=

CYQF;2005-09-15 10:00;METAR CYQF 151000Z 00000KT 15SM FEW010 BKN070 05/02 A3000 RMK SF2AC3 SLP176=

CYQF;2005-09-15 11:00;METAR CYQF 151100Z 00000KT 15SM FEW010 OVC050 05/03 A2999 RMK SF1SC6 SLP175=

CYQF;2005-09-15 11:28;SPECI CYQF 151128Z 00000KT 15SM -RA SCT006 OVC050 RMK SF2SC6=

CYQF;2005-09-15 12:00;METAR CYQF 151200Z 00000KT 15SM FEW006 OVC050 05/03 A2998 RMK SF2SC6 SLP174=

CYQF;2005-09-15 13:00;METAR CYQF 151300Z 00000KT 15SM VCSH FEW006 BKN030 OVC050 06/03 A2999 RMK SF2SC3SC3 SLP176=

CYQF;2005-09-15 13:29;SPECI CYQF 151329Z 14003KT 6SM -RA BR SCT004 OVC040 RMK SF3SC5=

CYQF;2005-09-15 13:45;SPECI CYQF 151345Z 15004KT 4SM -RA BR BKN004 OVC040 RMK SF6SC2=

CYQF;2005-09-15 14:00;METAR CYQF 151400Z 13004KT 4SM -RA BR BKN004 OVC040 06/04 A3000 RMK SF7SC1 SLP178=

CYQF;2005-09-15 15:00;METAR CYQF 151500Z 15005KT 8SM -RA BKN005 OVC040 06/04 A2999 RMK SF6SC2 BR CIG RAG SLP182=

CYQF;2005-09-15 15:45;SPECI CYQF 151545Z 09006KT 10SM SCT011 OVC040 RMK SF4SC4=

CYQF;2005-09-15 16:00;METAR CYQF 151600Z 12006KT 10SM SCT008 OVC018 07/04 A2999 RMK SF4SC4 SLP181=

CYQF;2005-09-15 16:40;SPECI CYQF 151640Z 10006KT 7SM -RA SCT009 OVC023 RMK SF4SC4=

CYQF;2005-09-15 17:00;METAR CYQF 151700Z 09006KT 8SM -RA BKN008 OVC025 07/04 A2998 RMK SF5SC3 CIG RAG SLP178=

CYQF;2005-09-15 18:00;METAR CYQF 151800Z 13008KT 8SM -RA BKN008 OVC025 07/04 A2997 RMK SC5SC3 CIG RAG SLP175=

CYQF;2005-09-15 19:00;METAR CYQF 151900Z 12008KT 5SM -RA BR OVC005 07/04 A2996 RMK SC8 CIG RAG SLP171=

CYQF;2005-09-15 20:00;METAR CYQF 152000Z 11007KT 3SM -DZ BR OVC005 07/05 A2995 RMK SF8 CIG RAG SLP169=

CYQF;2005-09-15 21:00;METAR CYQF 152100Z 08005KT 3SM -DZ BR OVC006 08/05 A2994 RMK SF8 VIS S 8 SLP164=

CYQF;2005-09-15 22:00;METAR CYQF 152200Z 07004KT 3SM -DZ BR OVC006 08/05 A2994 RMK SF8 VIS S 8 SLP163=

CYQF;2005-09-15 22:44;SPECI CYQF 152244Z 10005KT 1 1/2SM -DZ BR BKN004 OVC007 RMK FG2SF4SF2=

CYQF;2005-09-15 23:00;METAR CYQF 152300Z 10004KT 1 1/2SM -DZ BR BKN004 OVC007 08/06 A2995 RMK FG2SF4SF2 SLP165=

CYQF;2005-09-16 00:00;METAR CYQF 160000Z 06004KT 1 1/2SM -DZ BR BKN004 OVC010 08/06 A2995 RMK FG2SF5SC2 VIS S 5 CIG RAG SLP169=

CYQF;2005-09-16 01:00;METAR CYQF 160100Z 04009KT 1 1/2SM -DZ BR BKN005 OVC010 07/05 A2997 RMK FG2SF6SC1 CIG RAG SLP173=

CYQF;2005-09-16 01:15;SPECI CYQF 160115Z 04005KT 1SM -DZ BR OVC004 RMK FG3SF5 CIG RAG=

CYQF;2005-09-16 02:00;METAR CYQF 160200Z 04005KT 1SM -DZ BR OVC004 07/04 A2999 RMK FG3SF5 CIG RAG SLP181=

CYQF;2005-09-16 03:00;METAR CYQF 160300Z 03005KT 1SM -DZ BR BKN004 OVC007 06/04 A3000 RMK FG2SF4SF2 CIG RAG SLP184=

CYQF;2005-09-16 04:00;METAR CYQF 160400Z 04007KT 3SM -DZ BR BKN007 OVC010 06/04 A3002 RMK SF6SF2 CIG RAG SLP190=

CYQF;2005-09-16 05:00;METAR CYQF 160500Z 02007KT 3SM -DZ BR FEW003 BKN007 OVC012 06/03 A3003 RMK SF2SF5SC2 CIG RAG SLP195=

CYQF;2005-09-16 06:00;METAR CYQF 160600Z 02007KT 3SM -DZ BR FEW003 OVC006 06/03 A3004 RMK SF2SF6 CIG RAG SLP199=

CYQF;2005-09-16 07:00;METAR CYQF 160700Z 36006KT 6SM -DZ BR OVC005 05/03 A3005 RMK SF8 SLP202=

CYQF;2005-09-16 08:00;METAR CYQF 160800Z 36007KT 10SM OVC004 05/03 A3005 RMK SF8 SLP203=

CYQF;2005-09-16 09:00;METAR CYQF 160900Z 36006KT 6SM BR OVC004 05/03 A3006 RMK SF8 SLP205=

CYQF;2005-09-16 09:50;SPECI CYQF 160950Z 36005KT 6SM -DZ BR BKN005 OVC009 RMK SF6SF2=

CYQF;2005-09-16 10:00;METAR CYQF 161000Z 01004KT 6SM -DZ BR OVC006 05/03 A3005 RMK SF8 SLP204=

CYQF;2005-09-16 11:00;METAR CYQF 161100Z 35004KT 6SM -DZ BR OVC004 05/03 A3006 RMK SF8 SLP205=

CYQF;2005-09-16 12:00;METAR CYQF 161200Z 00000KT 6SM -DZ BR OVC005 05/03 A3006 RMK SF8 SLP207=

CYQF;2005-09-16 13:00;METAR CYQF 161300Z 35003KT 6SM BR BKN005 OVC011 05/02 A3007 RMK SF6SC2 SLP208=

CYQF;2005-09-16 14:00;METAR CYQF 161400Z 00000KT 6SM BR BKN008 OVC032 05/02 A3007 RMK SF6SC2 SLP210=

CYQF;2005-09-16 15:00;METAR CYQF 161500Z 00000KT 8SM BKN005 BKN030 06/03 A3009 RMK SF5SC2 BR SLP218=

CYQF;2005-09-16 15:08;SPECI CYQF 161508Z 32002KT 8SM SCT005 BKN030 RMK SF4SC3 BR=

CYQF;2005-09-16 16:00;METAR CYQF 161600Z 01003KT 10SM SCT005 BKN030 06/02 A3009 RMK SF4SC3 BR SLP217=

CYQF;2005-09-16 17:00;METAR CYQF 161700Z 35003KT 12SM BKN008 OVC030 06/02 A3008 RMK CF5SC3 BR SLP215=

CYQF;2005-09-16 17:35;SPECI CYQF 161735Z 30002KT 15SM SCT008 OVC030 RMK CU4SC4=

CYQF;2005-09-16 18:00;METAR CYQF 161800Z 00000KT 15SM SCT010 OVC030 07/02 A3008 RMK CU4SC4 SLP214=

CYQF;2005-09-16 19:00;METAR CYQF 161900Z 23004KT 15SM BKN012 OVC030 07/03 A3006 RMK SC6SC2 SLP209=

CYQF;2005-09-16 21:00;METAR CYQF 162100Z 19003KT 15SM OVC020 08/05 A3005 RMK SC8 SLP200=

CYQF;2005-09-16 22:00;METAR CYQF 162200Z 22005KT 15SM BKN020 09/04 A3004 RMK SC7 SLP198=

CYQF;2005-09-16 23:00;METAR CYQF 162300Z 17002KT 15SM BKN025 09/04 A3002 RMK SC5 SLP192=

CYQF;2005-09-17 00:00;METAR CYQF 170000Z 19006KT 15SM FEW025 10/03 A3001 RMK SC2 SLP186=

CYQF;2005-09-17 01:00;METAR CYQF 170100Z 14005KT 15SM FEW030 10/04 A3000 RMK SC1 SLP183=

CYQF;2005-09-17 02:00;METAR CYQF 170200Z 14004KT 15SM FEW060 07/04 A3000 RMK SC1 SLP183=

CYQF;2005-09-17 03:00;METAR CYQF 170300Z 16004KT 15SM SKC 05/03 A3000 RMK SLP188=

CYQF;2005-09-17 04:00;METAR CYQF 170400Z 20004KT 15SM SKC 03/03 A3000 RMK SLP187=

CYQF;2005-09-17 05:00;METAR CYQF 170500Z 19004KT 15SM SKC 03/02 A3000 RMK SLP187=

CYQF;2005-09-17 06:00;METAR CYQF 170600Z 19003KT 15SM SKC 03/02 A2999 RMK SLP186=

CYQF;2005-09-17 07:00;METAR CYQF 170700Z 20003KT 15SM SKC 02/02 A2998 RMK SLP182=

CYQF;2005-09-17 08:00;METAR CYQF 170800Z 21005KT 15SM SKC 03/02 A2997 RMK SLP180=

CYQF;2005-09-17 09:00;METAR CYQF 170900Z 19004KT 15SM SKC 03/02 A2996 RMK SLP175=

CYQF;2005-09-17 10:00;METAR CYQF 171000Z 19005KT 15SM FEW250 01/01 A2995 RMK CI0 SLP172=

CYQF;2005-09-17 11:00;METAR CYQF 171100Z 21004KT 15SM FEW250 01/01 A2995 RMK CI0 SLP172=

CYQF;2005-09-17 11:40;SPECI CYQF 171140Z 23003KT 1/2SM FG SKC RMK FG2=

CYQF;2005-09-17 12:00;METAR CYQF 171200Z 21003KT 2 1/2SM BR FEW250 01/01 A2995 RMK FG1CI0 SLP172=

CYQF;2005-09-17 13:00;METAR CYQF 171300Z 22004KT 1 1/2SM BR SCT250 M00/M00 A2996 RMK FG2CI0 SLP174=

CYQF;2005-09-17 13:16;SPECI CYQF 171316Z 20004KT 1/4SM FZFG SKC RMK FG7=

CYQF;2005-09-17 13:29;SPECI CYQF 171329Z 20004KT 0SM FZFG VV002 RMK FG8=

CYQF;2005-09-17 14:00;METAR CYQF 171400Z 21004KT 1/8SM FG VV003 00/00 A2997 RMK FG8 FROIN SLP177=

CYQF;2005-09-17 14:31;SPECI CYQF 171431Z 24002KT 1/4SM FG SKC RMK FG7 FROIN=

CYQF;2005-09-17 14:37;SPECI CYQF 171437Z 23002KT 1/2SM FG SKC RMK FG6 FROIN=

CYQF;2005-09-17 15:00;METAR CYQF 171500Z 00000KT 1SM BR SCT250 01/01 A2998 RMK FG2CI1 VIS SW-NW 3 SLP185=

CYQF;2005-09-17 15:09;SPECI CYQF 171509Z 00000KT 6SM BR SCT250 RMK FG1CI1 VIS NE-SE 1=

CYQF;2005-09-17 16:00;METAR CYQF 171600Z 21002KT 15SM SCT250 05/05 A2998 RMK CI2 CC ASOCTD SLP185=

CYQF;2005-09-17 17:00;METAR CYQF 171700Z 29002KT 15SM BKN250 09/06 A2998 RMK CI2 SLP185=

CYQF;2005-09-17 18:00;METAR CYQF 171800Z 33006KT 15SM BKN250 13/07 A2998 RMK CI2 SLP176=

CYQF;2005-09-17 19:00;METAR CYQF 171900Z 33005KT 15SM BKN250 14/05 A2998 RMK CI2 SLP175=

CYQF;2005-09-17 20:00;METAR CYQF 172000Z 27006KT 15SM BKN250 15/01 A2997 RMK CI2 SLP172=

CYQF;2005-09-17 21:00;METAR CYQF 172100Z 26003KT 15SM FEW040 BKN250 16/02 A2996 RMK CU1CI2 SLP164=

CYQF;2005-09-17 22:00;METAR CYQF 172200Z 00000KT 15SM FEW040 BKN250 16/02 A2995 RMK CU1CI1 SLP161=

CYQF;2005-09-17 23:00;METAR CYQF 172300Z 00000KT 15SM BKN250 17/02 A2994 RMK CI2 SLP158=

CYQF;2005-09-18 00:00;METAR CYQF 180000Z 23003KT 15SM SCT250 16/02 A2994 RMK CI1 SLP158=

CYQF;2005-09-18 01:00;METAR CYQF 180100Z 20002KT 15SM FEW250 16/02 A2993 RMK CI1 SLP157=

CYQF;2005-09-18 02:00;METAR CYQF 180200Z 12003KT 15SM FEW250 12/03 A2993 RMK CI0 SLP156=

CYQF;2005-09-18 03:00;METAR CYQF 180300Z 16002KT 15SM FEW250 08/03 A2994 RMK CI0 SLP167=

CYQF;2005-09-18 04:00;METAR CYQF 180400Z 16003KT 30SM FEW250 06/03 A2994 RMK CI0 SLP167=

CYQF;2005-09-18 06:00;METAR CYQF 180600Z 35002KT 15SM SKC 05/03 A2993 RMK SLP155=

CYQF;2005-09-18 07:00;METAR CYQF 180700Z 18004KT 15SM SKC 04/01 A2992 RMK SLP153=

CYQF;2005-09-18 08:00;METAR CYQF 180800Z 23003KT 15SM SKC 03/01 A2992 RMK SLP153=

CYQF;2005-09-18 09:00;METAR CYQF 180900Z 00000KT 15SM SKC 03/01 A2992 RMK SLP151=

CYQF;2005-09-18 10:00;METAR CYQF 181000Z 22004KT 15SM SKC 02/01 A2992 RMK SLP152=

CYQF;2005-09-18 11:00;METAR CYQF 181100Z 22002KT 15SM SKC 02/01 A2992 RMK SLP152=

CYQF;2005-09-18 13:00;METAR CYQF 181300Z 19003KT 15SM FEW250 01/M00 A2993 RMK CI0 FROIN SLP156=

CYQF;2005-09-18 14:00;METAR CYQF 181400Z 21004KT 15SM FEW250 01/00 A2994 RMK CI1 FROIN SLP157=

CYQF;2005-09-18 15:00;METAR CYQF 181500Z 21003KT 15SM SCT250 04/02 A2994 RMK CI1 SLP165=

CYQF;2005-09-18 16:00;METAR CYQF 181600Z 25003KT 15SM FEW100 BKN250 08/04 A2994 RMK AC1CI2 SLP164=

CYQF;2005-09-18 17:00;METAR CYQF 181700Z 00000KT 15SM FEW100 BKN250 11/06 A2993 RMK AC1CI2 SLP162=

CYQF;2005-09-18 18:00;METAR CYQF 181800Z 00000KT 15SM FEW100 BKN250 15/06 A2992 RMK AC1CI2 SLP149=

CYQF;2005-09-18 19:00;METAR CYQF 181900Z 16004KT 15SM FEW100 BKN250 16/04 A2991 RMK AC2CI2 SLP146=

CYQF;2005-09-18 20:00;METAR CYQF 182000Z 27002KT 15SM FEW100 BKN250 17/02 A2989 RMK AC2CI2 SLP141=

CYQF;2005-09-18 21:00;METAR CYQF 182100Z 27002KT 15SM FEW060 FEW100 BKN250 18/01 A2987 RMK CU1AC2CI2 SLP133=

CYQF;2005-09-18 22:00;METAR CYQF 182200Z 19005KT 15SM FEW100 BKN250 18/03 A2985 RMK AC1CI2 SLP126=

CYQF;2005-09-18 23:00;METAR CYQF 182300Z 00000KT 15SM FEW100 SCT250 18/M01 A2983 RMK AC1CI1 SLP120=

CYQF;2005-09-19 00:00;METAR CYQF 190000Z 15005KT 15SM FEW100 19/M01 A2982 RMK AC1 SLP115=

CYQF;2005-09-19 01:00;METAR CYQF 190100Z 16006KT 15SM FEW100 17/02 A2980 RMK AC1 SLP109=

CYQF;2005-09-19 02:00;METAR CYQF 190200Z 00000KT 15SM FEW100 13/03 A2979 RMK AC1 SLP106=

CYQF;2005-09-19 03:00;METAR CYQF 190300Z 20004KT 15SM SKC 08/02 A2979 RMK SLP113=

CYQF;2005-09-19 04:00;METAR CYQF 190400Z 20006KT 15SM SKC 07/02 A2978 RMK SLP112=

CYQF;2005-09-19 05:00;METAR CYQF 190500Z 22008KT 15SM SKC 06/02 A2978 RMK SLP110=

CYQF;2005-09-19 06:00;METAR CYQF 190600Z 22008KT 15SM SKC 05/01 A2977 RMK SLP098=

CYQF;2005-09-19 07:00;METAR CYQF 190700Z 20007KT 15SM FEW250 04/01 A2976 RMK CI1 SLP096=

CYQF;2005-09-19 08:00;METAR CYQF 190800Z 19006KT 15SM FEW250 03/01 A2976 RMK CI1 SLP095=

CYQF;2005-09-19 09:00;METAR CYQF 190900Z 20003KT 15SM FEW250 03/01 A2975 RMK CI1 SLP090=

CYQF;2005-09-19 10:00;METAR CYQF 191000Z 00000KT 15SM FEW250 02/00 A2974 RMK CI1 SLP086=

CYQF;2005-09-19 11:00;METAR CYQF 191100Z 00000KT 15SM FEW250 02/M00 A2973 RMK CI1 SLP084=

CYQF;2005-09-19 12:00;METAR CYQF 191200Z 00000KT 15SM FEW070 FEW250 01/M01 A2973 RMK AC1CI1 SLP085=

CYQF;2005-09-19 13:00;METAR CYQF 191300Z 18003KT 15SM FEW070 FEW250 01/M00 A2974 RMK AC1CI1 FROIN SLP087=

CYQF;2005-09-19 14:00;METAR CYQF 191400Z 34006KT 15SM FEW060 SCT250 01/00 A2978 RMK SC2CI1 PRESRR WND G22 PST HR SLP101=

CYQF;2005-09-19 15:00;METAR CYQF 191500Z 36010KT 15SM FEW060 SCT250 07/04 A2981 RMK SC1CI1 SLP117=

CYQF;2005-09-19 17:00;METAR CYQF 191700Z 33015G22KT 15SM FEW025 SCT100 10/04 A2987 RMK SC2AC1 SLP136=

CYQF;2005-09-19 18:00;METAR CYQF 191800Z 33018G24KT 15SM FEW030 SCT100 10/04 A2988 RMK SC2AC1 SLP142=

CYQF;2005-09-19 19:00;METAR CYQF 191900Z 32015G22KT 15SM FEW040 BKN080 BKN250 11/02 A2988 RMK SC2AC2CI0 SLP142=

CYQF;2005-09-19 20:00;METAR CYQF 192000Z 28012KT 15SM SCT040 BKN080 11/01 A2988 RMK SC4AC2 SLP141=

CYQF;2005-09-19 21:00;METAR CYQF 192100Z 27008KT 15SM FEW045 SCT080 BKN250 13/01 A2985 RMK SC2AC2CI0 SLP130=

CYQF;2005-09-19 22:00;METAR CYQF 192200Z 29006KT 15SM SCT045 BKN080 BKN250 13/02 A2986 RMK SC3AC2CI1 CB DIST N+NE SLP134=

CYQF;2005-09-20 00:00;METAR CYQF 200000Z 26004KT 15SM FEW050 SCT080 SCT250 12/04 A2987 RMK CU2AC2CI0 SLP142=

CYQF;2005-09-20 01:00;METAR CYQF 200100Z 21003KT 15SM FEW050 BKN080 BKN250 11/05 A2989 RMK CU1AC4CI1 SLP146=

CYQF;2005-09-20 02:00;METAR CYQF 200200Z 00000KT 15SM FEW050 BKN080 BKN250 10/05 A2989 RMK CU1AC4CI1 SLP146=

CYQF;2005-09-20 03:00;METAR CYQF 200300Z 00000KT 15SM BKN080 BKN250 08/05 A2991 RMK AC5CI1 SLP150=

CYQF;2005-09-20 04:00;METAR CYQF 200400Z 00000KT 15SM SCT080 BKN250 06/04 A2992 RMK AC4CI1 SLP153=

CYQF;2005-09-20 05:00;METAR CYQF 200500Z 24004KT 15SM BKN080 BKN250 08/05 A2993 RMK AC5CI2 SLP156=

CYQF;2005-09-20 06:00;METAR CYQF 200600Z 26006KT 15SM BKN080 OVC250 09/05 A2994 RMK AC6CI2 SLP156=

CYQF;2005-09-20 07:00;METAR CYQF 200700Z 23005KT 15SM BKN080 OVC250 08/04 A2995 RMK AC5CI2 SLP160=

CYQF;2005-09-20 08:00;METAR CYQF 200800Z 26002KT 15SM BKN080 BKN250 07/03 A2996 RMK AC5CI2 SLP165=

CYQF;2005-09-20 09:00;METAR CYQF 200900Z 03003KT 15SM BKN080 OVC250 07/03 A2997 RMK AC6CI1 SLP168=

CYQF;2005-09-20 10:00;METAR CYQF 201000Z 01004KT 15SM SCT080 BKN250 07/03 A2997 RMK AC4CI2 SLP168=

CYQF;2005-09-20 11:00;METAR CYQF 201100Z 00000KT 15SM BKN080 05/03 A2998 RMK AC7 SLP171=

CYQF;2005-09-20 12:00;METAR CYQF 201200Z 00000KT 15SM BKN080 04/02 A2999 RMK AC6 SLP178=

CYQF;2005-09-20 13:00;METAR CYQF 201300Z 25002KT 15SM SCT080 04/02 A3000 RMK AC4 SLP182=

CYQF;2005-09-20 14:00;METAR CYQF 201400Z 19006KT 15SM SCT080 02/01 A3001 RMK AC3 ACC NW SLP184=

CYQF;2005-09-20 15:00;METAR CYQF 201500Z 19005KT 15SM FEW070 05/02 A3002 RMK AC2 ACC/VIRGA SLP191=

CYQF;2005-09-20 16:00;METAR CYQF 201600Z 21003KT 15SM FEW070 08/03 A3002 RMK AC2 ACC W+N SLP191=

CYQF;2005-09-20 17:00;METAR CYQF 201700Z 19003KT 15SM FEW060 12/M00 A3002 RMK SC2 TCU NE SLP191=

CYQF;2005-09-20 18:00;METAR CYQF 201800Z 16002KT 15SM FEW060 12/M00 A3001 RMK SC2 CB TOPS W SLP180=

CYQF;2005-09-20 19:00;METAR CYQF 201900Z 25004KT 15SM SCT060 14/00 A3001 RMK SC3 CB TOPS W+NW SLP179=

CYQF;2005-09-20 20:00;METAR CYQF 202000Z 35005KT 15SM FEW060 13/M00 A3000 RMK SC2 CB/VIRGA ASOCTD SLP176=

CYQF;2005-09-20 21:00;METAR CYQF 202100Z 31003KT 15SM SCT060 13/M00 A3001 RMK SC4 CB/VIRGA ASOCTD SLP179=

CYQF;2005-09-20 22:00;METAR CYQF 202200Z 04003KT 15SM FEW060 13/M00 A3001 RMK SC2 CB DIST E SLP180=

CYQF;2005-09-20 23:00;METAR CYQF 202300Z 30004KT 15SM FEW060 14/M02 A3000 RMK SC2 CB DIST E+SW SLP178=

CYQF;2005-09-21 00:00;METAR CYQF 210000Z 30003KT 15SM FEW060 13/M01 A3002 RMK SC2 SLP187=

CYQF;2005-09-21 01:00;METAR CYQF 210100Z 00000KT 15SM FEW050 FEW100 13/M02 A3003 RMK SC2AC1 SLP189=

CYQF;2005-09-21 02:00;METAR CYQF 210200Z 31007KT 15SM FEW050 FEW100 09/M01 A3004 RMK SC2AC1 SLP194=

CYQF;2005-09-21 03:00;METAR CYQF 210300Z 33005KT 15SM FEW050 07/M01 A3006 RMK SC2 SLP209=

CYQF;2005-09-21 04:00;METAR CYQF 210400Z 35005KT 15SM FEW050 06/M00 A3007 RMK SC2 SLP212=

CYQF;2005-09-21 05:00;METAR CYQF 210500Z 00000KT 15SM FEW050 05/M00 A3009 RMK SC1 SLP216=

CYQF;2005-09-21 06:00;METAR CYQF 210600Z 25005KT 15SM FEW050 02/M01 A3010 RMK SC1 SLP218=

CYQF;2005-09-21 07:00;METAR CYQF 210700Z 00000KT 15SM FEW050 02/M01 A3012 RMK SC1 SLP224=

CYQF;2005-09-21 08:00;METAR CYQF 210800Z 20006KT 15SM FEW050 00/M02 A3013 RMK SC1 SLP228=

CYQF;2005-09-21 09:00;METAR CYQF 210900Z 00000KT 15SM FEW050 00/M02 A3014 RMK SC1 SLP232=

CYQF;2005-09-21 10:00;METAR CYQF 211000Z 25003KT 15SM FEW050 M01/M02 A3014 RMK SC1 FROIN SLP232=

CYQF;2005-09-21 11:00;METAR CYQF 211100Z 20003KT 15SM SKC M01/M03 A3015 RMK FROIN SLP236=

CYQF;2005-09-21 12:00;METAR CYQF 211200Z 20003KT 15SM SKC M02/M03 A3016 RMK FROIN SLP243=

CYQF;2005-09-21 13:00;METAR CYQF 211300Z 20005KT 15SM FEW050 M02/M03 A3017 RMK SC1 FROIN SLP246=

CYQF;2005-09-21 14:00;METAR CYQF 211400Z 19004KT 15SM FEW070 M02/M04 A3018 RMK AC1 FROIN SLP248=

CYQF;2005-09-21 15:00;METAR CYQF 211500Z 23002KT 15SM FEW070 01/M01 A3019 RMK AC1 SLP256=

CYQF;2005-09-21 16:00;METAR CYQF 211600Z 22003KT 15SM FEW080 05/01 A3020 RMK AC1 SLP259=

CYQF;2005-09-21 17:00;METAR CYQF 211700Z 29004KT 15SM FEW100 09/03 A3020 RMK AC1 SLP259=

CYQF;2005-09-21 18:00;METAR CYQF 211800Z 34013KT 15SM FEW040 FEW120 11/00 A3019 RMK SC1AC1 TCU=

CYQF;2005-09-21 19:00;METAR CYQF 211900Z 25005KT 15SM FEW040 12/00 A3019 RMK CU1 TCU ASOCTD SLP250=

CYQF;2005-09-21 20:00;METAR CYQF 212000Z 26008KT 15SM FEW050 13/00 A3017 RMK CU2 TCU ASOCTD SLP244=

CYQF;2005-09-21 21:00;METAR CYQF 212100Z 27006KT 15SM FEW060 13/M02 A3015 RMK CU2 SLP237=

CYQF;2005-09-21 22:00;METAR CYQF 212200Z 29006KT 15SM FEW060 14/M02 A3014 RMK CU2 TCU ASOCTD SLP234=

CYQF;2005-09-21 23:00;METAR CYQF 212300Z 28003KT 15SM FEW060 14/M02 A3014 RMK CU2 TCU ASOCTD SLP232=

CYQF;2005-09-22 00:00;METAR CYQF 220000Z 36003KT 15SM FEW060 FEW100 12/M02 A3013 RMK CU2AC1 SLP232=

CYQF;2005-09-22 01:00;METAR CYQF 220100Z 00000KT 15SM FEW060 FEW100 11/00 A3013 RMK SC2AC1 SLP231=

CYQF;2005-09-22 02:00;METAR CYQF 220200Z 00000KT 15SM FEW060 FEW100 09/M01 A3013 RMK SC2AC1 SLP232=

CYQF;2005-09-22 03:00;METAR CYQF 220300Z 00000KT 15SM FEW060 SCT100 05/M00 A3013 RMK SC2AC2 SLP237=

CYQF;2005-09-22 04:00;METAR CYQF 220400Z 34008KT 15SM SCT050 SCT100 06/01 A3015 RMK SC3AC1 SLP243=

CYQF;2005-09-22 05:00;METAR CYQF 220500Z 02010KT 15SM -SHRA FEW015 BKN050 BKN100 07/02 A3015 RMK SF2SC3AC2 SLP242=

CYQF;2005-09-22 05:30;SPECI CYQF 220530Z 04008KT 15SM FEW015 SCT050 BKN100 RMK SF2SC2AC1=

CYQF;2005-09-22 06:00;METAR CYQF 220600Z 05005KT 15SM FEW015 SCT050 BKN100 06/02 A3015 RMK SF2SC2AC1 SLP230=

CYQF;2005-09-22 07:00;METAR CYQF 220700Z 08005KT 15SM FEW050 BKN100 05/01 A3013 RMK SC2AC5 SLP226=

CYQF;2005-09-22 08:00;METAR CYQF 220800Z 00000KT 15SM BKN060 OVC100 05/02 A3014 RMK SC6AC2 SLP228=

CYQF;2005-09-22 09:00;METAR CYQF 220900Z 02005KT 15SM -RA BKN040 OVC080 05/03 A3013 RMK SC6AC2 SLP224=

CYQF;2005-09-22 10:00;METAR CYQF 221000Z 07007KT 15SM -RA BKN040 OVC080 05/03 A3010 RMK SC6AC2 SLP216=

CYQF;2005-09-22 11:00;METAR CYQF 221100Z 03005KT 15SM -SHRA SCT040TCU BKN080 05/03 A3009 RMK TCU3AC3 SLP212=

CYQF;2005-09-22 11:25;SPECI CYQF 221125Z 04004KT 15SM SCT040TCU BKN080 RMK TCU3AC3 SHS E-SE=

CYQF;2005-09-22 12:00;METAR CYQF 221200Z 02004KT 15SM SCT040TCU BKN080 05/03 A3008 RMK TCU4AC3 SHS DIST E SLP207=

CYQF;2005-09-22 12:46;SPECI CYQF 221246Z 05002KT 15SM -SHRA BKN040 OVC080 RMK CU6AC2 TCU EMBD=

CYQF;2005-09-22 13:00;METAR CYQF 221300Z 00000KT 15SM -SHRA SCT040 OVC080 05/04 A3007 RMK CU4AC4 ACC EMBD SLP206=

CYQF;2005-09-22 13:32;SPECI CYQF 221332Z 07004KT 15SM VCSH SCT040 OVC080 RMK CU4AC4 ACC EMBD=

CYQF;2005-09-22 14:00;METAR CYQF 221400Z 09004KT 15SM VCSH SCT040 OVC080 05/04 A3008 RMK CU4AC4 ACC EMBD SLP207=

CYQF;2005-09-22 15:13;SPECI CYQF 221513Z 09012KT 15SM -RA BKN050 BKN080 OVC250 RMK SC5AC2CI1=

CYQF;2005-09-22 16:25;SPECI CYQF 221625Z 16007KT 10SM -SHRA BKN030TCU OVC080 RMK TCU6AC2 RERA CB EMBD=

CYQF;2005-09-22 17:00;METAR CYQF 221700Z 12006KT 8SM SHRA BKN017TCU OVC060 04/03 A3009 RMK TCU6SC2 CB EMBD SLP217=

CYQF;2005-09-22 18:00;METAR CYQF 221800Z 11006KT 8SM -SHRA FEW006 OVC011TCU 04/03 A3007 RMK SF2TCU6 CB EMBD SLP214=

CYQF;2005-09-22 20:00;METAR CYQF 222000Z 06004KT 12SM -SHRA FEW006 OVC021TCU 04/03 A3007 RMK CF2TCU6 SLP213=

CYQF;2005-09-22 21:00;METAR CYQF 222100Z 06004KT 15SM SCT006 BKN027 OVC100 05/03 A3006 RMK CF2CU6AC1 SLP210=

CYQF;2005-09-22 22:00;METAR CYQF 222200Z 00000KT 15SM FEW008 BKN030 OVC100 05/03 A3007 RMK SC2CU4AC2 SLP212=

CYQF;2005-09-22 23:00;METAR CYQF 222300Z 27005KT 15SM SCT007 BKN030 OVC100 05/04 A3006 RMK SC3SC4AC1 SLP210=

CYQF;2005-09-23 00:00;METAR CYQF 230000Z 24005KT 15SM SCT008 SCT030 BKN100 BKN250 06/04 A3006 RMK SF3CU1AC1CI1 SLP208=

CYQF;2005-09-23 01:00;METAR CYQF 230100Z 24004KT 15SM SCT008 SCT030 BKN100 04/03 A3007 RMK SF3CU1AC2 SLP211=

CYQF;2005-09-23 02:00;METAR CYQF 230200Z 23005KT 15SM FEW090 02/01 A3007 RMK AC2 SLP211=

CYQF;2005-09-23 03:00;METAR CYQF 230300Z 21005KT 15SM FEW090 00/M00 A3007 RMK AC1 SLP217=

CYQF;2005-09-23 04:00;METAR CYQF 230400Z 24004KT 10SM SKC 01/00 A3006 RMK BR SLP216=

CYQF;2005-09-23 04:30;SPECI CYQF 230430Z 21002KT 1SM BR SKC RMK FG2=

CYQF;2005-09-23 05:00;METAR CYQF 230500Z 19002KT 5SM BR SKC M00/M01 A3006 RMK SLP216=

CYQF;2005-09-23 06:00;METAR CYQF 230600Z 00000KT 15SM SKC M00/M01 A3007 RMK SLP220=

CYQF;2005-09-23 07:00;METAR CYQF 230700Z 00000KT 15SM SKC M00/M01 A3007 RMK SLP220=

CYQF;2005-09-23 08:00;METAR CYQF 230800Z 19002KT 15SM SKC M01/M02 A3006 RMK SLP219=

CYQF;2005-09-23 09:00;METAR CYQF 230900Z 20002KT 15SM SKC M02/M02 A3006 RMK SLP219=

CYQF;2005-09-23 10:00;METAR CYQF 231000Z 00000KT 15SM SKC M03/M03 A3006 RMK SLP217=

CYQF;2005-09-23 11:00;METAR CYQF 231100Z 18002KT 15SM SKC M03/M04 A3006 RMK SLP219=

CYQF;2005-09-23 13:00;METAR CYQF 231300Z 25003KT 15SM FEW230 M03/M04 A3007 RMK CI0 SLP224=

CYQF;2005-09-23 14:00;METAR CYQF 231400Z 24003KT 15SM FEW250 M04/M05 A3007 RMK CI0 FROIN SLP224=

CYQF;2005-09-23 15:00;METAR CYQF 231500Z 00000KT 15SM FEW100 00/M01 A3008 RMK AC1 SLP227=

CYQF;2005-09-23 16:00;METAR CYQF 231600Z 29003KT 15SM SKC 03/01 A3008 RMK SLP228=

CYQF;2005-09-23 17:00;METAR CYQF 231700Z 32006KT 15SM SKC 06/02 A3008 RMK SLP226=

CYQF;2005-09-23 18:00;METAR CYQF 231800Z 24006KT 15SM SKC 08/02 A3007 RMK SLP214=

CYQF;2005-09-23 19:00;METAR CYQF 231900Z 29003KT 15SM FEW030 09/01 A3005 RMK CU1 SLP209=

CYQF;2005-09-23 20:00;METAR CYQF 232000Z 33007KT 15SM FEW040 10/00 A3004 RMK CU2 SLP206=

CYQF;2005-09-23 21:00;METAR CYQF 232100Z 27005KT 15SM FEW050 11/M01 A3003 RMK CU2 TCU ASOCTD SLP200=

CYQF;2005-09-23 22:00;METAR CYQF 232200Z 26008KT 15SM SCT050 12/M02 A3002 RMK CU4 SLP195=

CYQF;2005-09-23 23:00;METAR CYQF 232300Z 28003KT 15SM SCT050 11/M01 A3001 RMK CU3 SLP193=

CYQF;2005-09-24 00:00;METAR CYQF 240000Z 23007KT 15SM FEW050 11/M01 A3000 RMK CU2 SLP192=

CYQF;2005-09-24 01:00;METAR CYQF 240100Z 21003KT 15SM FEW060 FEW250 10/M01 A3000 RMK SC1CI0 SLP191=

CYQF;2005-09-24 02:00;METAR CYQF 240200Z 00000KT 15SM SKC 07/M01 A3000 RMK SLP191=

CYQF;2005-09-24 03:00;METAR CYQF 240300Z 18003KT 15SM SKC 03/M01 A3000 RMK SLP197=

CYQF;2005-09-24 04:00;METAR CYQF 240400Z 18005KT 15SM SKC 02/M02 A3000 RMK SLP195=

CYQF;2005-09-24 05:00;METAR CYQF 240500Z 19004KT 15SM SKC 01/M02 A3001 RMK SLP199=

CYQF;2005-09-24 06:00;METAR CYQF 240600Z 00000KT 15SM SKC 01/M02 A3001 RMK SLP193=

CYQF;2005-09-24 07:00;METAR CYQF 240700Z 18004KT 15SM SKC 00/M02 A3001 RMK SLP193=

CYQF;2005-09-24 08:00;METAR CYQF 240800Z 20003KT 15SM SKC 00/M03 A3001 RMK SLP193=

CYQF;2005-09-24 09:00;METAR CYQF 240900Z 21003KT 15SM SKC M01/M04 A3002 RMK SLP195=

CYQF;2005-09-24 10:00;METAR CYQF 241000Z 20004KT 15SM SKC M02/M04 A3002 RMK FROIN SLP196=

CYQF;2005-09-24 11:00;METAR CYQF 241100Z 23004KT 15SM SKC M03/M05 A3004 RMK FROIN SLP200=

CYQF;2005-09-24 12:00;METAR CYQF 241200Z 23006KT 15SM FEW250 M03/M04 A3005 RMK CI0 FROIN SLP207=

CYQF;2005-09-24 13:00;METAR CYQF 241300Z 22003KT 15SM SCT250 M03/M04 A3006 RMK CI2 FROIN SLP211=

CYQF;2005-09-24 14:00;METAR CYQF 241400Z 23003KT 15SM FEW120 SCT250 M03/M04 A3007 RMK AC1CI1 FROIN SLP215=

CYQF;2005-09-24 15:00;METAR CYQF 241500Z 23003KT 15SM FEW120 SCT250 01/M01 A3008 RMK AC1CI1 SLP224=

CYQF;2005-09-24 16:00;METAR CYQF 241600Z 00000KT 15SM FEW100 04/00 A3008 RMK AC1 SLP224=

CYQF;2005-09-24 17:00;METAR CYQF 241700Z 27003KT 15SM BKN100 08/02 A3008 RMK AC6 SLP223=

CYQF;2005-09-24 18:00;METAR CYQF 241800Z 24002KT 15SM SCT100 11/02 A3007 RMK AC2 SLP210=

CYQF;2005-09-24 19:00;METAR CYQF 241900Z 27003KT 15SM FEW040 FEW100 12/01 A3006 RMK CU1AC1 TR CU SLP207=

CYQF;2005-09-24 20:00;METAR CYQF 242000Z 26010KT 15SM FEW050 FEW100 FEW250 13/M01 A3005 RMK CU1AC1CI1 TR CLD SLP203=

CYQF;2005-09-24 21:00;METAR CYQF 242100Z 27008KT 15SM FEW050 SCT250 14/M02 A3003 RMK CU1CI1 TR CU SLP195=

CYQF;2005-09-24 22:00;METAR CYQF 242200Z 23005KT 15SM FEW050 FEW250 14/M01 A3000 RMK CU1CI1 TR CU SLP188=

CYQF;2005-09-24 23:00;METAR CYQF 242300Z 19008KT 15SM BKN250 14/M01 A2998 RMK CI1 SLP182=

CYQF;2005-09-25 00:00;METAR CYQF 250000Z 18009KT 15SM BKN250 14/M02 A2996 RMK CI1 SLP176=

CYQF;2005-09-25 01:00;METAR CYQF 250100Z 18005KT 15SM FEW150 BKN250 12/M01 A2995 RMK AC1CI1 SLP172=

CYQF;2005-09-25 02:00;METAR CYQF 250200Z 18004KT 15SM FEW150 BKN250 08/M01 A2994 RMK AC2CI1 SLP168=

CYQF;2005-09-25 03:00;METAR CYQF 250300Z 18006KT 15SM SCT220 08/M01 A2994 RMK CI2 SLP167=

CYQF;2005-09-25 04:00;METAR CYQF 250400Z 18005KT 15SM SCT250 05/M01 A2993 RMK CI3 SLP166=

CYQF;2005-09-25 05:00;METAR CYQF 250500Z 20008KT 15SM BKN250 05/M08 A2991 RMK CI5 SLP160=

CYQF;2005-09-25 06:00;METAR CYQF 250600Z 18005KT 15SM OVC250 06/00 A2991 RMK CI8 SLP148=

CYQF;2005-09-25 07:00;METAR CYQF 250700Z 20006KT 15SM SCT250 05/M00 A2990 RMK CI2 SLP145=

CYQF;2005-09-25 08:00;METAR CYQF 250800Z 18005KT 15SM FEW250 03/M01 A2989 RMK CI1 SLP143=

CYQF;2005-09-25 09:00;METAR CYQF 250900Z 20005KT 15SM SKC 02/M01 A2989 RMK SLP144=

CYQF;2005-09-25 10:00;METAR CYQF 251000Z 29006KT 15SM SKC 01/M02 A2988 RMK SLP141=

CYQF;2005-09-25 11:00;METAR CYQF 251100Z 00000KT 15SM SKC 01/M01 A2989 RMK SLP144=

CYQF;2005-09-25 12:00;METAR CYQF 251200Z 18005KT 15SM SKC M00/M02 A2989 RMK SLP148=

CYQF;2005-09-25 13:00;METAR CYQF 251300Z 22005KT 15SM SKC M01/M03 A2989 RMK FROIN SLP148=

CYQF;2005-09-25 14:00;METAR CYQF 251400Z 22005KT 15SM FEW250 M00/M02 A2990 RMK CI0 FROIN SLP151=

CYQF;2005-09-25 15:00;METAR CYQF 251500Z 22005KT 15SM FEW250 03/M00 A2991 RMK CI0 SLP156=

CYQF;2005-09-25 16:00;METAR CYQF 251600Z 21005KT 15SM FEW250 06/02 A2991 RMK CI1 SLP156=

CYQF;2005-09-25 17:00;METAR CYQF 251700Z 20008KT 15SM BKN250 11/02 A2989 RMK CI1 SLP149=

CYQF;2005-09-25 18:00;METAR CYQF 251800Z 21010KT 15SM BKN250 15/03 A2987 RMK CI1 SLP131=

CYQF;2005-09-25 19:00;METAR CYQF 251900Z 21008KT 15SM BKN250 17/02 A2985 RMK CI1 SLP124=

CYQF;2005-09-25 20:00;METAR CYQF 252000Z 23010KT 15SM BKN250 19/02 A2983 RMK CI2 SLP118=

CYQF;2005-09-25 21:00;METAR CYQF 252100Z 24010KT 15SM FEW060 BKN250 19/03 A2982 RMK CU1CI1 SLP114=

CYQF;2005-09-25 22:00;METAR CYQF 252200Z 24010KT 15SM FEW060 BKN250 21/02 A2981 RMK CU2CI1 SLP110=

CYQF;2005-09-25 23:00;METAR CYQF 252300Z 28005KT 15SM SCT060 BKN250 18/03 A2981 RMK SC4CI1 SLP111=

CYQF;2005-09-26 00:00;METAR CYQF 260000Z 30005KT 15SM BKN060 BKN250 18/04 A2982 RMK SC5CI1 SLP118=

CYQF;2005-09-26 01:00;METAR CYQF 260100Z 26003KT 15SM SCT070 BKN250 15/04 A2983 RMK AC3CI1 SLP121=

CYQF;2005-09-26 02:00;METAR CYQF 260200Z 30005KT 15SM FEW070 BKN250 12/03 A2985 RMK AC2CI1 SLP128=

CYQF;2005-09-26 03:00;METAR CYQF 260300Z 30010KT 15SM FEW070 13/02 A2989 RMK AC2 SLP144=

CYQF;2005-09-26 04:00;METAR CYQF 260400Z 31008KT 15SM SKC 10/01 A2992 RMK SLP154=

CYQF;2005-09-26 05:00;METAR CYQF 260500Z 34008KT 15SM SKC 10/01 A2995 RMK SLP162=

CYQF;2005-09-26 06:00;METAR CYQF 260600Z 34007KT 15SM SKC 09/M00 A2996 RMK SLP159=

CYQF;2005-09-26 07:00;METAR CYQF 260700Z 18002KT 15SM SCT100 BKN250 06/00 A2997 RMK AC3CI2 SLP163=

CYQF;2005-09-26 08:00;METAR CYQF 260800Z 21005KT 15SM FEW100 SCT250 05/00 A2998 RMK AC2CI1 SLP165=

CYQF;2005-09-26 09:00;METAR CYQF 260900Z 22002KT 15SM FEW100 SCT250 03/M00 A2998 RMK AC1CI1 SLP169=

CYQF;2005-09-26 10:00;METAR CYQF 261000Z 00000KT 15SM FEW100 FEW250 02/M01 A2997 RMK AC1CI1 SLP166=

CYQF;2005-09-26 11:00;METAR CYQF 261100Z 19002KT 15SM FEW100 FEW250 01/M01 A2996 RMK AC1CI0 SLP161=

CYQF;2005-09-26 12:00;METAR CYQF 261200Z 19004KT 15SM BKN100 BKN250 03/00 A2994 RMK AC5CI1 SLP153=

CYQF;2005-09-26 13:00;METAR CYQF 261300Z 18003KT 15SM BKN100 OVC250 03/00 A2991 RMK AC5CI2 SLP144=

CYQF;2005-09-26 14:00;METAR CYQF 261400Z 00000KT 15SM BKN100 BKN250 04/00 A2987 RMK AC6CI1 SLP133=

CYQF;2005-09-26 15:00;METAR CYQF 261500Z 18012KT 15SM BKN120 BKN250 08/01 A2983 RMK AC5CI1 SLP116=

CYQF;2005-09-26 16:00;METAR CYQF 261600Z 17015G23KT 15SM FEW120 SCT250 10/01 A2977 RMK AC2CI1 SLP100=

CYQF;2005-09-26 17:00;METAR CYQF 261700Z 16014KT 15SM FEW120 FEW250 12/03 A2976 RMK AC1CI1 SLP095=

CYQF;2005-09-26 18:00;METAR CYQF 261800Z 20010KT 15SM FEW120 FEW250 16/05 A2973 RMK AC1CI1 SLP076=

CYQF;2005-09-26 19:00;METAR CYQF 261900Z 22010G15KT 15SM FEW050 FEW250 20/02 A2970 RMK CU1CI1 SLP068=

CYQF;2005-09-26 20:00;METAR CYQF 262000Z 24010KT 15SM FEW065 FEW250 21/02 A2968 RMK CU1CI1 SLP063=

CYQF;2005-09-26 21:00;METAR CYQF 262100Z 26008KT 15SM FEW070 FEW250 21/04 A2968 RMK CU1CI1 SLP061=

CYQF;2005-09-26 22:00;METAR CYQF 262200Z 29008KT 15SM FEW070 SCT250 21/01 A2967 RMK CU1CI1 SLP058=

CYQF;2005-09-26 23:00;METAR CYQF 262300Z 36010KT 15SM FEW060 SCT250 19/05 A2968 RMK SC2CI1 SLP062=

CYQF;2005-09-27 00:00;METAR CYQF 270000Z 36012G25KT 15SM SCT060 SCT250 17/05 A2973 RMK SC3CI0 SLP082=

CYQF;2005-09-27 01:00;METAR CYQF 270100Z 36015G25KT 15SM BKN060 11/04 A2981 RMK SC5 PRESRR TCU ASOCTD SHS DIST N SLP109=

CYQF;2005-09-27 02:00;METAR CYQF 270200Z 35010G20KT 15SM BKN016 OVC040 08/05 A2989 RMK SC5SC3 PRESRR SHS DIST N SLP132=

CYQF;2005-09-27 02:10;SPECI CYQF 270210Z 34010G20KT 15SM -SHRA BKN016 OVC040 RMK SC5SC3 PRESRR=

CYQF;2005-09-27 03:00;METAR CYQF 270300Z 36010G15KT 15SM BKN014 BKN040 OVC070 07/04 A2991 RMK SC5SC2AC2 SLP150=

CYQF;2005-09-27 03:49;SPECI CYQF 270349Z 35010G15KT 15SM -SHRA BKN012 OVC040 RMK SC6SC2=

CYQF;2005-09-27 04:00;METAR CYQF 270400Z 34015G25KT 15SM -SHRA BKN012 OVC040 06/04 A2996 RMK SC6SC2 SLP166=

CYQF;2005-09-27 05:00;METAR CYQF 270500Z 34010G15KT 15SM BKN010 OVC040 05/03 A2999 RMK SC6SC2 SLP177=

CYQF;2005-09-27 06:00;METAR CYQF 270600Z 33010G15KT 15SM OVC007 04/03 A3002 RMK SC8 SLP182=

CYQF;2005-09-27 06:15;SPECI CYQF 270615Z 33010G16KT 15SM -SHRA OVC007 RMK SC8=

CYQF;2005-09-27 06:39;SPECI CYQF 270639Z 34012G19KT 15SM BKN007 OVC030 RMK SC6SC2=

CYQF;2005-09-27 07:00;METAR CYQF 270700Z 33012KT 15SM SCT008 OVC015 04/02 A3005 RMK SC4SC4 SLP193=

CYQF;2005-09-27 08:00;METAR CYQF 270800Z 34006KT 15SM FEW008 BKN015 BKN040 03/01 A3008 RMK SC2SC2SC1 SLP202=

CYQF;2005-09-27 09:00;METAR CYQF 270900Z 31007KT 15SM FEW015 SCT040 02/00 A3011 RMK SC2SC2 SLP211=

CYQF;2005-09-27 10:00;METAR CYQF 271000Z 32005KT 15SM FEW015 FEW040 01/M00 A3012 RMK SC1SC2 SLP215=

CYQF;2005-09-27 11:00;METAR CYQF 271100Z 26002KT 15SM FEW020 SCT040 BKN070 00/M01 A3013 RMK SC1SC2AC3 SLP219=

CYQF;2005-09-27 12:00;METAR CYQF 271200Z 23003KT 15SM FEW040 FEW070 M01/M02 A3014 RMK SC1AC2 SLP230=

CYQF;2005-09-27 13:00;METAR CYQF 271300Z 27004KT 15SM FEW040 FEW070 M01/M03 A3015 RMK SC1AC2 SLP233=

CYQF;2005-09-27 14:00;METAR CYQF 271400Z 27006KT 15SM FEW040 FEW070 M01/M02 A3017 RMK SC1AC2 SLP239=

CYQF;2005-09-27 16:00;METAR CYQF 271600Z 26005KT 15SM FEW040 FEW070 04/02 A3020 RMK SC1AC2 SLP258=

CYQF;2005-09-27 17:00;METAR CYQF 271700Z 35006KT 15SM FEW020 SCT090 06/00 A3021 RMK CU1AC2 SLP260=

CYQF;2005-09-27 18:00;METAR CYQF 271800Z 34005KT 15SM FEW030 SCT090 07/00 A3022 RMK CU2AC2 SLP262=

CYQF;2005-09-27 19:00;METAR CYQF 271900Z 32010G15KT 15SM SCT030 SCT090 08/00 A3022 RMK CU4AC1 SLP263=

CYQF;2005-09-27 20:00;METAR CYQF 272000Z 35005KT 15SM BKN035 09/M01 A3023 RMK CU6 SLP265=

CYQF;2005-09-27 21:00;METAR CYQF 272100Z 28006KT 15SM BKN035 09/M01 A3023 RMK CU6 SLP268=

CYQF;2005-09-27 22:00;METAR CYQF 272200Z 28005KT 15SM BKN040 09/M01 A3024 RMK CU6 SLP269=

CYQF;2005-09-27 23:00;METAR CYQF 272300Z 27007KT 15SM SCT050 10/M01 A3024 RMK CU4 SLP270=

CYQF;2005-09-28 00:00;METAR CYQF 280000Z 34004KT 15SM FEW050 09/M02 A3024 RMK CU1 SLP273=

CYQF;2005-09-28 01:00;METAR CYQF 280100Z 22004KT 15SM FEW050 07/M02 A3024 RMK SC1 SLP272=

CYQF;2005-09-28 02:00;METAR CYQF 280200Z 20004KT 15SM FEW250 04/M02 A3024 RMK CI0 SLP273=

CYQF;2005-09-28 03:00;METAR CYQF 280300Z 18004KT 15SM FEW250 02/M02 A3024 RMK CI0 SLP278=

CYQF;2005-09-28 04:00;METAR CYQF 280400Z 18006KT 15SM SKC 00/M03 A3024 RMK SLP278=

CYQF;2005-09-28 05:00;METAR CYQF 280500Z 18006KT 15SM SKC M00/M04 A3023 RMK SLP275=

CYQF;2005-09-28 06:00;METAR CYQF 280600Z 18006KT 15SM SKC M00/M03 A3022 RMK SLP268=

CYQF;2005-09-28 07:00;METAR CYQF 280700Z 19006KT 15SM SKC M01/M04 A3021 RMK SLP266=

CYQF;2005-09-28 08:00;METAR CYQF 280800Z 17005KT 15SM SKC M01/M04 A3019 RMK SLP260=

CYQF;2005-09-28 09:00;METAR CYQF 280900Z 18005KT 15SM SKC M01/M03 A3018 RMK SLP253=

CYQF;2005-09-28 10:00;METAR CYQF 281000Z 19006KT 15SM FEW250 M01/M03 A3015 RMK CI0 SLP244=

CYQF;2005-09-28 11:00;METAR CYQF 281100Z 18006KT 15SM FEW250 M02/M04 A3013 RMK CI0 SLP238=

CYQF;2005-09-28 12:00;METAR CYQF 281200Z 18005KT 15SM FEW250 M01/M03 A3011 RMK CI1 SLP228=

CYQF;2005-09-28 13:00;METAR CYQF 281300Z 19003KT 15SM BKN250 M02/M04 A3009 RMK CI3 SLP222=

CYQF;2005-09-28 14:00;METAR CYQF 281400Z 18004KT 15SM FEW120 BKN250 M01/M03 A3007 RMK AC2CI2 SLP217=

CYQF;2005-09-28 15:00;METAR CYQF 281500Z 18003KT 15SM SCT120 BKN250 M01/M03 A3006 RMK AC3CI2 SLP218=

CYQF;2005-09-28 16:00;METAR CYQF 281600Z 18005KT 15SM BKN100 BKN250 02/M00 A3004 RMK AC5CI2 VIRGA SLP211=

CYQF;2005-09-28 17:00;METAR CYQF 281700Z 18005KT 15SM FEW050 BKN100 BKN250 04/01 A3000 RMK CU2AC4CI2 VIRGA SLP201=

CYQF;2005-09-28 18:00;METAR CYQF 281800Z 17008KT 15SM FEW050 BKN100 BKN250 06/02 A2995 RMK SC1AC6CI1 VIRGA SLP176=

CYQF;2005-09-28 19:00;METAR CYQF 281900Z 17010KT 15SM BKN100 12/03 A2990 RMK AC6 SLP159=

CYQF;2005-09-28 20:00;METAR CYQF 282000Z 15011KT 15SM BKN100 OVC250 14/03 A2984 RMK AC7CI1 SLP142=

CYQF;2005-09-28 21:00;METAR CYQF 282100Z 16010KT 15SM FEW070 BKN100 OVC250 15/04 A2979 RMK AC2AC5CI1 SLP111=

CYQF;2005-09-28 23:00;METAR CYQF 282300Z 24003KT 15SM FEW070 BKN100 BKN250 16/M01 A2973 RMK AC2AC3CI2 SLP091=

CYQF;2005-09-29 00:00;METAR CYQF 290000Z 24010KT 15SM FEW070 SCT100 BKN250 17/01 A2971 RMK AC1AC2CI2 SLP081=

CYQF;2005-09-29 01:00;METAR CYQF 290100Z 24007KT 15SM FEW070 BKN100 BKN250 14/01 A2969 RMK AC1AC4CI2 SLP075=

CYQF;2005-09-29 02:00;METAR CYQF 290200Z 30008KT 15SM BKN090 BKN250 12/01 A2970 RMK AC5CI2 SLP080=

CYQF;2005-09-29 03:00;METAR CYQF 290300Z 28010KT 15SM SCT090 BKN250 14/02 A2970 RMK AC3CI2 SLP080=

CYQF;2005-09-29 04:00;METAR CYQF 290400Z 26005KT 15SM SCT090 BKN250 11/01 A2971 RMK AC2CI2 SLP085=

CYQF;2005-09-29 05:00;METAR CYQF 290500Z 24005KT 15SM SCT090 OVC250 10/02 A2970 RMK AC3CI3 SLP082=

CYQF;2005-09-29 06:00;METAR CYQF 290600Z 24004KT 15SM BKN090 OVC250 09/02 A2970 RMK AC6CI2 SLP080=

CYQF;2005-09-29 07:00;METAR CYQF 290700Z 20007KT 15SM BKN100 OVC250 08/02 A2968 RMK AC6CI2 SLP073=

CYQF;2005-09-29 08:00;METAR CYQF 290800Z 18005KT 15SM BKN100 OVC250 08/02 A2969 RMK AC6CI2 SLP077=

CYQF;2005-09-29 09:00;METAR CYQF 290900Z 19002KT 15SM SCT100 OVC250 07/02 A2966 RMK AC4CI3 SLP058=

CYQF;2005-09-29 10:00;METAR CYQF 291000Z 00000KT 15SM SCT100 OVC250 07/02 A2967 RMK AC3CI4 SLP060=

CYQF;2005-09-29 11:00;METAR CYQF 291100Z 16003KT 15SM FEW120 OVC250 07/02 A2966 RMK AC2CI5 SLP058=

CYQF;2005-09-29 12:00;METAR CYQF 291200Z 21008KT 15SM FEW120 OVC250 07/03 A2966 RMK AC2CI5 SLP054=

CYQF;2005-09-29 13:00;METAR CYQF 291300Z 23007KT 15SM FEW060 BKN100 OVC250 09/03 A2966 RMK SC1AC6CI1 SLP056=

CYQF;2005-09-29 15:00;METAR CYQF 291500Z 05002KT 15SM FEW050 BKN090 BKN250 10/03 A2966 RMK SC2AC4CI1 VIRGA SLP055=

CYQF;2005-09-29 16:00;METAR CYQF 291600Z 00000KT 15SM SCT050 BKN090 BKN250 10/05 A2966 RMK SC3AC3CI1 SLP056=

CYQF;2005-09-29 17:00;METAR CYQF 291700Z 03004KT 15SM FEW050 BKN100 BKN250 12/04 A2965 RMK SC2AC2CI2 SLP052=

CYQF;2005-09-29 18:00;METAR CYQF 291800Z 02007KT 15SM FEW050 BKN110 BKN250 13/03 A2964 RMK SC1AC5CI2 SLP051=

CYQF;2005-09-29 19:00;METAR CYQF 291900Z 08008KT 15SM FEW050 BKN080 BKN250 14/03 A2962 RMK SC1AC5CI1 SLP044=

CYQF;2005-09-29 20:00;METAR CYQF 292000Z 08010KT 15SM BKN090 BKN250 14/04 A2960 RMK AC5CI2 SLP037=

CYQF;2005-09-29 21:00;METAR CYQF 292100Z 10006KT 15SM BKN080 BKN250 13/04 A2957 RMK AC6CI2 SLP029=

CYQF;2005-09-29 22:00;METAR CYQF 292200Z 08010KT 15SM BKN080 BKN110 BKN250 13/05 A2952 RMK AC5AC2CI1 PCPN NW-N SLP013=

CYQF;2005-09-29 23:00;METAR CYQF 292300Z 12010KT 15SM SCT080 BKN110 BKN250 14/05 A2949 RMK AC3AC2CI2 SLP003=

CYQF;2005-09-30 00:00;METAR CYQF 300000Z 09004KT 15SM FEW080 BKN110 BKN250 13/05 A2947 RMK AC2AC3CI0 SLP993=

CYQF;2005-09-30 01:00;METAR CYQF 300100Z 12002KT 15SM BKN100 BKN250 13/04 A2943 RMK AC5CI0 SLP981=

CYQF;2005-09-30 02:00;METAR CYQF 300200Z 00000KT 15SM BKN100 BKN250 10/04 A2941 RMK AC6CI0 SLP974=

CYQF;2005-09-30 03:00;METAR CYQF 300300Z 00000KT 15SM BKN100 07/03 A2939 RMK AC6 SLP970=

CYQF;2005-09-30 04:00;METAR CYQF 300400Z 20002KT 15SM BKN100 09/03 A2938 RMK AC6 SLP966=

CYQF;2005-09-30 05:00;METAR CYQF 300500Z 23009KT 15SM BKN100 07/04 A2938 RMK AC6 SLP968=

CYQF;2005-09-30 06:00;METAR CYQF 300600Z 34010G15KT 15SM BKN100 BKN250 08/05 A2944 RMK AC5CI2 SLP982=

CYQF;2005-09-30 06:19;SPECI CYQF 300619Z 35012G18KT 15SM -SHRA BKN075 OVC250 RMK AC6CI2=

CYQF;2005-09-30 07:00;METAR CYQF 300700Z 34008KT 15SM BKN090 OVC250 08/05 A2947 RMK AC6CI2 SLP990=

CYQF;2005-09-30 07:36;SPECI CYQF 300736Z 32007KT 12SM -SHRA OVC090 RMK AC8=

CYQF;2005-09-30 08:00;METAR CYQF 300800Z 30008KT 15SM -SHRA FEW015 OVC080 08/06 A2953 RMK SF2AC6 SLP008=

CYQF;2005-09-30 08:31;SPECI CYQF 300831Z 30007KT 15SM OVC080 RMK AC8=

CYQF;2005-09-30 09:00;METAR CYQF 300900Z 31007KT 15SM BKN080 OVC250 07/06 A2954 RMK AC6CI2 SLP018=

CYQF;2005-09-30 10:00;METAR CYQF 301000Z 27007KT 15SM SCT040 OVC080 07/06 A2957 RMK SC3AC5 SLP027=

CYQF;2005-09-30 11:00;METAR CYQF 301100Z 32005KT 15SM FEW040 BKN080 07/05 A2957 RMK SC2AC3 SLP027=

CYQF;2005-09-30 12:00;METAR CYQF 301200Z 24005KT 15SM FEW040 BKN080 OVC120 07/05 A2959 RMK SC2AC3AC2 SLP034=

CYQF;2005-09-30 13:00;METAR CYQF 301300Z 00000KT 15SM -RA FEW040 BKN080 OVC120 07/05 A2961 RMK SC2AC3AC3 SLP042=

CYQF;2005-09-30 13:33;SPECI CYQF 301333Z 27005KT 15SM FEW040 BKN080 BKN120 RMK SC2AC3AC2 VIRGA S=

CYQF;2005-09-30 14:00;METAR CYQF 301400Z 28004KT 15SM FEW040 BKN080 BKN120 07/05 A2963 RMK SC2AC3AC2 VIRGA S SLP047=

CYQF;2005-09-30 15:00;METAR CYQF 301500Z 00000KT 15SM VCSH FEW040 BKN080 BKN120 07/05 A2965 RMK SC1AC4AC2 SLP064=

CYQF;2005-09-30 16:00;METAR CYQF 301600Z 25003KT 15SM FEW050 BKN080 BKN250 08/05 A2969 RMK SC1AC4CI2 VIRGA SLP075=

CYQF;2005-09-30 17:00;METAR CYQF 301700Z 30003KT 15SM FEW010 BKN070 BKN250 09/05 A2970 RMK SF1AC6CI2 TR SF VIRGA SLP078=

CYQF;2005-09-30 18:00;METAR CYQF 301800Z 21003KT 15SM FEW020 BKN070 BKN250 10/05 A2970 RMK CU1AC5CI2 SLP076=

CYQF;2005-09-30 19:00;METAR CYQF 301900Z 23002KT 15SM FEW025 BKN070 BKN250 11/04 A2972 RMK CU1AC5CI2 SLP081=

CYQF;2005-09-30 20:00;METAR CYQF 302000Z 23002KT 15SM FEW040 BKN070 BKN250 12/02 A2971 RMK CU2AC3CI1 SLP078=

CYQF;2005-09-30 21:00;METAR CYQF 302100Z 22003KT 15SM FEW040 BKN070 BKN250 13/01 A2971 RMK CU2AC2CI1 SLP076=

CYQF;2005-09-30 23:00;METAR CYQF 302300Z 35007KT 15SM BKN040 BKN070 BKN250 10/03 A2970 RMK CU6AC1CI1 SLP072=

CYQF;2005-10-01 00:00;METAR CYQF 010000Z 01007KT 15SM FEW040 FEW100 BKN250 09/04 A2971 RMK CU2AC1CI2 SLP080=

CYQF;2005-10-01 01:00;METAR CYQF 010100Z 01002KT 15SM BKN045 BKN100 08/03 A2970 RMK SC6AC1 SHS NW SLP079=

CYQF;2005-10-01 02:00;METAR CYQF 010200Z 11002KT 15SM -SHRA BKN045 BKN100 08/04 A2969 RMK SC6AC1 SLP075=

CYQF;2005-10-01 03:00;METAR CYQF 010300Z 36003KT 15SM BKN050 BKN100 07/05 A2968 RMK SC5AC2 SHS E SLP074=

CYQF;2005-10-01 04:00;METAR CYQF 010400Z 07004KT 15SM BKN050 BKN100 07/05 A2967 RMK SC6AC2 SLP070=

CYQF;2005-10-01 04:21;SPECI CYQF 010421Z 09005KT 15SM -SHRA BKN050 OVC100 RMK SC7AC1=

CYQF;2005-10-01 05:00;METAR CYQF 010500Z 09006KT 15SM OVC045 07/04 A2966 RMK SC8 SLP066=

CYQF;2005-10-01 06:00;METAR CYQF 010600Z 00000KT 15SM OVC045 07/04 A2966 RMK SC8 SLP062=

CYQF;2005-10-01 07:00;METAR CYQF 010700Z 03008KT 15SM OVC045 07/05 A2965 RMK SC8 SLP058=

CYQF;2005-10-01 08:00;METAR CYQF 010800Z 06015KT 15SM FEW020 OVC045 07/05 A2963 RMK SF1SC7 SLP052=

CYQF;2005-10-01 08:20;SPECI CYQF 010820Z 06015KT 10SM -RA FEW020 OVC045 RMK SF2SC6=

CYQF;2005-10-01 09:00;METAR CYQF 010900Z 06012KT 10SM -RA FEW007 OVC040 06/04 A2961 RMK SF2SC6 SLP045=

CYQF;2005-10-01 10:00;METAR CYQF 011000Z 06010KT 10SM RA SCT007 OVC040 05/04 A2959 RMK SF3SC5 SLP037=

CYQF;2005-10-01 11:00;METAR CYQF 011100Z 08010KT 6SM RA SCT007 OVC040 05/04 A2956 RMK SF3SC5 SLP030=

CYQF;2005-10-01 12:00;METAR CYQF 011200Z 06014KT 6SM RA SCT007 OVC030 05/04 A2955 RMK SF3SC5 SLP027=

CYQF;2005-10-01 13:00;METAR CYQF 011300Z 04007KT 6SM -RA SCT008 OVC025 05/04 A2954 RMK SF3SC5 RERA SLP026=

CYQF;2005-10-01 14:00;METAR CYQF 011400Z 02013KT 6SM -RA OVC007 05/04 A2952 RMK SF8 CIG RAG SLP018=

CYQF;2005-10-01 15:00;METAR CYQF 011500Z 04012KT 4SM -RA BKN006 OVC012 04/02 A2952 RMK SF6SC2 CIG RAG SLP019=

CYQF;2005-10-01 15:37;SPECI CYQF 011537Z 03013KT 5SM -RA BKN010 OVC015 RMK SF6SC2 CIG RAG=

CYQF;2005-10-01 16:00;METAR CYQF 011600Z 01012KT 5SM -RA BKN010 OVC015 03/01 A2953 RMK SC6SC2 CIG RAG SLP024=

CYQF;2005-10-01 18:00;METAR CYQF 011800Z 36010KT 10SM -RA BKN005 OVC015 03/02 A2953 RMK SF7SC1 CIG RAG SLP025=

CYQF;2005-10-01 19:00;METAR CYQF 011900Z 33010KT 12SM -RA OVC006 03/02 A2954 RMK SF8 SLP028=

CYQF;2005-10-01 20:00;METAR CYQF 012000Z 33012KT 4SM -RA BR OVC006 04/02 A2955 RMK SF8 CIG RAG SLP031=

CYQF;2005-10-01 21:00;METAR CYQF 012100Z 33012KT 12SM BKN007 BKN015 04/02 A2955 RMK SF6SC1 CIG RAG BR SLP032=

CYQF;2005-10-01 22:00;METAR CYQF 012200Z 32010G15KT 15SM BKN007 OVC015 05/02 A2956 RMK SF7SC1 CIG RAG SLP037=

CYQF;2005-10-01 22:06;SPECI CYQF 012206Z 31010G15KT 15SM BKN010 OVC015 RMK SF6SC2=

CYQF;2005-10-01 23:00;METAR CYQF 012300Z 31010G15KT 15SM BKN011 OVC015 04/02 A2958 RMK SC7SC1 SLP041=

CYQF;2005-10-02 00:00;METAR CYQF 020000Z 33010KT 15SM BKN012 OVC025 04/02 A2960 RMK SC6SC2 SLP051=

CYQF;2005-10-02 01:00;METAR CYQF 020100Z 33013KT 15SM BKN012 OVC025 04/01 A2961 RMK SC6SC2 SLP053=

CYQF;2005-10-02 03:00;METAR CYQF 020300Z 33004KT 15SM BKN012 OVC027 03/01 A2963 RMK SC5SC3 SLP064=

CYQF;2005-10-02 04:00;METAR CYQF 020400Z 32004KT 15SM OVC008 03/01 A2964 RMK SC8 SLP067=

CYQF;2005-10-02 05:00;METAR CYQF 020500Z 31006KT 15SM OVC010 03/01 A2966 RMK SC8 SLP071=

CYQF;2005-10-02 06:00;METAR CYQF 020600Z 29007KT 15SM OVC010 03/01 A2966 RMK SC8 SLP074=

CYQF;2005-10-02 07:00;METAR CYQF 020700Z 32004KT 15SM OVC009 02/00 A2967 RMK SC8 SLP078=

CYQF;2005-10-02 08:00;METAR CYQF 020800Z 30010KT 15SM BKN009 OVC030 03/01 A2967 RMK SC6SC2 SLP079=

CYQF;2005-10-02 09:00;METAR CYQF 020900Z 33010KT 15SM BKN009 OVC030 03/00 A2969 RMK SC6SC2 SLP084=

CYQF;2005-10-02 10:00;METAR CYQF 021000Z 33012KT 15SM BKN010 OVC030 03/M00 A2970 RMK SC6SC2 SLP087=

CYQF;2005-10-02 11:00;METAR CYQF 021100Z 33010KT 15SM OVC010 02/M02 A2972 RMK SC8 SLP093=

CYQF;2005-10-02 12:00;METAR CYQF 021200Z 33008KT 15SM OVC009 02/M00 A2973 RMK SC8 SLP100=

CYQF;2005-10-02 13:00;METAR CYQF 021300Z 26006KT 15SM OVC007 01/M00 A2974 RMK SF8 SLP103=

CYQF;2005-10-02 14:00;METAR CYQF 021400Z 34004KT 15SM OVC007 02/00 A2976 RMK SF8 SLP108=

CYQF;2005-10-02 15:00;METAR CYQF 021500Z 34005KT 15SM OVC006 02/00 A2978 RMK SF8 SLP119=

CYQF;2005-10-02 16:00;METAR CYQF 021600Z 33005KT 15SM OVC007 02/00 A2980 RMK SF8 SLP124=

CYQF;2005-10-02 17:00;METAR CYQF 021700Z 29008KT 15SM OVC007 03/00 A2981 RMK SF8 SLP128=

CYQF;2005-10-02 18:00;METAR CYQF 021800Z 33005KT 15SM BKN008 OVC020 03/01 A2982 RMK SF7SC1 SLP131=

CYQF;2005-10-02 19:00;METAR CYQF 021900Z 34006KT 15SM BKN010 OVC020 04/01 A2984 RMK SF7SC1 SLP135=

CYQF;2005-10-02 19:15;SPECI CYQF 021915Z 34005KT 15SM -SHRA BKN010 OVC020 RMK SF7SC1=

CYQF;2005-10-02 20:00;METAR CYQF 022000Z 32005KT 12SM -SHRA BKN010 OVC020 04/01 A2985 RMK SF6SC2 SLP138=

CYQF;2005-10-02 21:00;METAR CYQF 022100Z 32005KT 15SM -SHRA BKN014 OVC020 05/01 A2986 RMK SF5SC3 SLP143=

CYQF;2005-10-02 21:25;SPECI CYQF 022125Z 34006KT 15SM BKN013 OVC020 RMK SF6SC2 CIG RAG=

CYQF;2005-10-02 21:40;SPECI CYQF 022140Z 34007KT 15SM -SHRA BKN013 OVC020 RMK SF6SC2 CIG RAG=

CYQF;2005-10-02 22:00;METAR CYQF 022200Z 35004KT 15SM SCT013 OVC020 05/01 A2988 RMK SF4SC4 SLP148=

CYQF;2005-10-02 23:00;METAR CYQF 022300Z 03005KT 15SM SCT015 BKN022 BKN250 05/01 A2989 RMK SF4SC2CI1 SLP153=

CYQF;2005-10-03 00:00;METAR CYQF 030000Z 03003KT 15SM FEW022 BKN250 05/00 A2991 RMK SC2CI1 SLP162=

CYQF;2005-10-03 01:00;METAR CYQF 030100Z 35002KT 15SM BKN020 OVC250 03/00 A2993 RMK SC6CI1 SLP168=

CYQF;2005-10-03 02:00;METAR CYQF 030200Z 04004KT 15SM FEW020 FEW250 03/00 A2994 RMK SC1CI1 SLP171=

CYQF;2005-10-03 03:00;METAR CYQF 030300Z 00000KT 15SM FEW020 02/M01 A2996 RMK SC1 SLP184=

CYQF;2005-10-03 04:00;METAR CYQF 030400Z 00000KT 15SM BKN040 01/M01 A2998 RMK SC6 SLP189=

CYQF;2005-10-03 05:00;METAR CYQF 030500Z 15003KT 15SM BKN040 01/M01 A3000 RMK SC7 SLP195=

CYQF;2005-10-03 06:00;METAR CYQF 030600Z 19003KT 15SM FEW040 M00/M02 A3002 RMK SC2 SLP202=

CYQF;2005-10-03 07:00;METAR CYQF 030700Z 21003KT 15SM FEW040 M01/M03 A3002 RMK SC2 SLP203=

CYQF;2005-10-03 09:00;METAR CYQF 030900Z 23002KT 15SM FEW040 SCT250 M03/M04 A3003 RMK SC1CI2 SLP209=

CYQF;2005-10-03 10:00;METAR CYQF 031000Z 00000KT 15SM FEW040 FEW090 SCT250 M01/M03 A3005 RMK SC1AC2CI2 SLP213=

CYQF;2005-10-03 11:00;METAR CYQF 031100Z 00000KT 15SM FEW040 FEW250 M02/M03 A3005 RMK SC2CI1 SLP214=

CYQF;2005-10-03 12:00;METAR CYQF 031200Z 00000KT 15SM FEW040 SCT250 M02/M04 A3007 RMK SC2CI2 SLP220=

CYQF;2005-10-03 13:00;METAR CYQF 031300Z 00000KT 15SM FEW040 SCT090 BKN250 M02/M04 A3008 RMK SC2AC2CI2 SLP225=

CYQF;2005-10-03 14:00;METAR CYQF 031400Z 00000KT 15SM BKN100 BKN250 M02/M04 A3011 RMK AC5CI1 SLP232=

CYQF;2005-10-03 15:00;METAR CYQF 031500Z 15002KT 15SM SCT110 BKN250 00/M02 A3013 RMK AC3CI2 SLP243=

CYQF;2005-10-03 16:00;METAR CYQF 031600Z 12004KT 15SM SCT110 BKN250 02/M01 A3014 RMK AC3CI2 SLP245=

CYQF;2005-10-03 17:00;METAR CYQF 031700Z 15007KT 15SM FEW110 OVC250 03/M01 A3015 RMK AC2CI4 SLP248=

CYQF;2005-10-03 18:00;METAR CYQF 031800Z 14013KT 15SM FEW030 FEW110 BKN250 06/M02 A3015 RMK CU1AC2CS3 SLP245=

CYQF;2005-10-03 19:00;METAR CYQF 031900Z 14012KT 15SM FEW030 FEW110 BKN250 06/M02 A3016 RMK CU1AC2CS3 SLP248=

CYQF;2005-10-03 20:00;METAR CYQF 032000Z 12008KT 15SM FEW030 SCT080 BKN250 06/M02 A3016 RMK CU2AC2CS3 SLP249=

CYQF;2005-10-03 21:00;METAR CYQF 032100Z 13012KT 15SM FEW030 SCT100 OVC250 06/M02 A3017 RMK SC2AC2CS3 SLP255=

CYQF;2005-10-03 22:00;METAR CYQF 032200Z 14007KT 15SM SCT030 BKN100 BKN250 06/M01 A3017 RMK SC4AC2CI2 SLP256=

CYQF;2005-10-03 23:00;METAR CYQF 032300Z 14008KT 15SM BKN030 BKN100 OVC250 06/M02 A3019 RMK SC5AC2CI1 SLP261=

CYQF;2005-10-04 00:00;METAR CYQF 040000Z 13007KT 15SM BKN030 OVC100 06/M02 A3020 RMK SC6AC2 SLP264=

CYQF;2005-10-04 01:00;METAR CYQF 040100Z 11006KT 15SM BKN030 OVC100 05/M01 A3021 RMK SC5AC3 SLP268=

CYQF;2005-10-04 02:00;METAR CYQF 040200Z 12002KT 15SM FEW030 OVC100 04/M01 A3023 RMK SC2AC6 SLP273=

CYQF;2005-10-04 03:00;METAR CYQF 040300Z 12003KT 15SM OVC100 03/M01 A3024 RMK AC8 SLP278=

CYQF;2005-10-04 04:00;METAR CYQF 040400Z 13004KT 15SM OVC100 03/M01 A3024 RMK AC8 SLP280=

CYQF;2005-10-04 05:00;METAR CYQF 040500Z 13007KT 15SM OVC100 03/M02 A3025 RMK AC8 SLP284=

CYQF;2005-10-04 06:00;METAR CYQF 040600Z 15009KT 15SM BKN100 OVC250 02/M03 A3026 RMK AC6CI2 SLP281=

CYQF;2005-10-04 07:00;METAR CYQF 040700Z 14007KT 15SM FEW100 BKN250 01/M03 A3027 RMK AC2CI4 SLP284=

CYQF;2005-10-04 08:00;METAR CYQF 040800Z 14010KT 15SM FEW100 BKN250 01/M03 A3027 RMK AC2CI4 SLP285=

CYQF;2005-10-04 10:00;METAR CYQF 041000Z 16008KT 15SM FEW100 SCT250 M01/M04 A3028 RMK AC2CI2 SLP289=

CYQF;2005-10-04 11:00;METAR CYQF 041100Z 15008KT 15SM FEW100 SCT250 M01/M04 A3029 RMK AC2CI1 SLP294=

CYQF;2005-10-04 12:00;METAR CYQF 041200Z 18006KT 15SM FEW100 M02/M04 A3031 RMK AC2 SLP302=

CYQF;2005-10-04 13:00;METAR CYQF 041300Z 15005KT 15SM SCT100 M03/M05 A3032 RMK AC4 SLP305=

CYQF;2005-10-04 14:00;METAR CYQF 041400Z 15008KT 15SM SCT100 BKN250 M02/M04 A3033 RMK AC4CI2 SLP308=

CYQF;2005-10-04 15:00;METAR CYQF 041500Z 14008KT 15SM BKN090 M01/M04 A3034 RMK AC7 SLP315=

CYQF;2005-10-04 16:00;METAR CYQF 041600Z 15010G15KT 15SM FEW005 SCT100 BKN250 00/M03 A3034 RMK SF1AC2CI2 SLP314=

CYQF;2005-10-04 17:00;METAR CYQF 041700Z 18012KT 15SM FEW010 FEW100 SCT250 02/M02 A3033 RMK SF1AC2CI1 SLP312=

CYQF;2005-10-04 18:00;METAR CYQF 041800Z 14010G15KT 15SM FEW120 04/M02 A3033 RMK AC2 SLP308=

CYQF;2005-10-04 19:00;METAR CYQF 041900Z 15010G15KT 15SM FEW120 SCT250 05/M03 A3034 RMK AC1CI1 SLP309=

CYQF;2005-10-04 20:00;METAR CYQF 042000Z 16010G18KT 15SM FEW120 FEW250 06/M03 A3032 RMK AC1CI1 SLP305=

CYQF;2005-10-04 21:00;METAR CYQF 042100Z 14010G15KT 15SM FEW120 07/M04 A3032 RMK AC1 SLP302=

CYQF;2005-10-04 22:00;METAR CYQF 042200Z 14013KT 15SM SKC 07/M03 A3031 RMK SLP301=

CYQF;2005-10-04 23:00;METAR CYQF 042300Z 15010G15KT 15SM SKC 07/M04 A3032 RMK SLP302=

CYQF;2005-10-05 00:00;METAR CYQF 050000Z 16010G15KT 15SM SKC 07/M04 A3033 RMK SLP307=

CYQF;2005-10-05 01:00;METAR CYQF 050100Z 13007KT 15SM SKC 05/M05 A3033 RMK SLP307=

CYQF;2005-10-05 02:00;METAR CYQF 050200Z 15006KT 15SM FEW050 02/M05 A3034 RMK SC1 SLP310=

CYQF;2005-10-05 03:00;METAR CYQF 050300Z 15006KT 15SM SKC 01/M04 A3034 RMK SLP320=

CYQF;2005-10-05 04:00;METAR CYQF 050400Z 16010KT 15SM SKC 01/M05 A3034 RMK SLP320=

CYQF;2005-10-05 05:00;METAR CYQF 050500Z 17010KT 15SM SKC 01/M05 A3034 RMK SLP320=

CYQF;2005-10-05 06:00;METAR CYQF 050600Z 18006KT 15SM SKC 01/M05 A3035 RMK SLP317=

CYQF;2005-10-05 08:00;METAR CYQF 050800Z 18005KT 15SM SKC M01/M05 A3034 RMK SLP312=

CYQF;2005-10-05 10:00;METAR CYQF 051000Z 17009KT 15SM SKC M01/M04 A3032 RMK SLP305=

CYQF;2005-10-05 11:00;METAR CYQF 051100Z 16013KT 15SM SKC M01/M04 A3032 RMK SLP303=

CYQF;2005-10-05 12:00;METAR CYQF 051200Z 18010KT 15SM SKC M02/M04 A3030 RMK SLP298=

CYQF;2005-10-05 13:00;METAR CYQF 051300Z 17013KT 15SM SKC M01/M04 A3029 RMK SLP295=

CYQF;2005-10-05 14:00;METAR CYQF 051400Z 16009KT 15SM FEW100 SCT250 M02/M04 A3028 RMK AC2CI1 SLP293=

CYQF;2005-10-05 15:00;METAR CYQF 051500Z 16007KT 15SM FEW250 M01/M03 A3028 RMK CI1 SLP295=

CYQF;2005-10-05 16:00;METAR CYQF 051600Z 16012G20KT 15SM FEW010 SCT250 01/M02 A3026 RMK SF1CI2 SLP291=

CYQF;2005-10-05 17:00;METAR CYQF 051700Z 16012G20KT 15SM FEW013 BKN250 02/M02 A3026 RMK SF2CI2 SLP291=

CYQF;2005-10-05 18:00;METAR CYQF 051800Z 15015G25KT 15SM FEW015 BKN250 03/M02 A3025 RMK SF2CI2 SLP283=

CYQF;2005-10-05 19:00;METAR CYQF 051900Z 16018G27KT 15SM FEW015 BKN210 05/M00 A3024 RMK SF2CI4 SLP279=

CYQF;2005-10-05 20:00;METAR CYQF 052000Z 16016G24KT 15SM FEW015 SCT120 OVC210 07/M00 A3022 RMK SF1AC2CI3 SLP274=

CYQF;2005-10-05 21:00;METAR CYQF 052100Z 17015G20KT 15SM FEW025 SCT120 BKN210 07/00 A3021 RMK CF1AC2CI3 SLP264=

CYQF;2005-10-05 22:00;METAR CYQF 052200Z 15017G24KT 15SM BKN120 OVC230 08/01 A3019 RMK AC6CI2 SLP258=

CYQF;2005-10-05 23:00;METAR CYQF 052300Z 17012G20KT 15SM SCT120 BKN230 09/01 A3017 RMK AC4CI2 SLP253=

CYQF;2005-10-06 00:00;METAR CYQF 060000Z 16012G20KT 15SM SCT120 BKN230 09/00 A3015 RMK AC4CI2 SLP244=

CYQF;2005-10-06 01:00;METAR CYQF 060100Z 15012KT 15SM FEW120 BKN230 07/01 A3013 RMK AC2CI3 SLP238=

CYQF;2005-10-06 02:00;METAR CYQF 060200Z 15012KT 15SM FEW110 SCT250 06/01 A3012 RMK AC2CI2 SLP234=

CYQF;2005-10-06 03:00;METAR CYQF 060300Z 16014KT 15SM FEW250 05/01 A3011 RMK CI1 SLP233=

CYQF;2005-10-06 04:00;METAR CYQF 060400Z 16014KT 15SM SKC 04/01 A3010 RMK SLP229=

CYQF;2005-10-06 05:00;METAR CYQF 060500Z 17012KT 15SM SKC 03/00 A3008 RMK SLP225=

CYQF;2005-10-06 06:00;METAR CYQF 060600Z 18010KT 15SM SKC 02/M00 A3006 RMK SLP217=

CYQF;2005-10-06 07:00;METAR CYQF 060700Z 18007KT 15SM SKC 00/M01 A3005 RMK SLP212=

CYQF;2005-10-06 08:00;METAR CYQF 060800Z 18005KT 15SM SKC M00/M02 A3004 RMK SLP208=

CYQF;2005-10-06 09:00;METAR CYQF 060900Z 18005KT 15SM SKC M02/M04 A3002 RMK SLP202=

CYQF;2005-10-06 10:00;METAR CYQF 061000Z 18004KT 15SM SKC M03/M05 A3000 RMK SLP194=

CYQF;2005-10-06 11:00;METAR CYQF 061100Z 19004KT 15SM SKC M04/M06 A2998 RMK SLP190=

CYQF;2005-10-06 12:00;METAR CYQF 061200Z 18005KT 15SM SKC M04/M06 A2996 RMK SLP182=

CYQF;2005-10-06 13:00;METAR CYQF 061300Z 20005KT 15SM FEW250 M05/M06 A2995 RMK CI1 SLP178=

CYQF;2005-10-06 14:00;METAR CYQF 061400Z 18005KT 15SM FEW100 BKN250 M04/M06 A2993 RMK AC1CI2 SLP171=

CYQF;2005-10-06 15:00;METAR CYQF 061500Z 19004KT 15SM FEW100 BKN250 M02/M04 A2992 RMK AC1CI3 SLP167=

CYQF;2005-10-06 16:00;METAR CYQF 061600Z 17002KT 15SM FEW050 SCT120 OVC250 00/M02 A2991 RMK SC1AC2CI2 SLP164=

CYQF;2005-10-06 17:00;METAR CYQF 061700Z 18002KT 15SM FEW080 BKN120 OVC250 03/00 A2989 RMK AC1AC5CI1 SLP159=

CYQF;2005-10-06 18:00;METAR CYQF 061800Z 19004KT 15SM FEW080 BKN120 OVC250 05/02 A2986 RMK AC2AC5CI1 SLP143=

CYQF;2005-10-06 19:00;METAR CYQF 061900Z 17004KT 15SM FEW080 BKN120 OVC250 08/02 A2984 RMK AC2AC5CI1 SLP135=

CYQF;2005-10-06 20:00;METAR CYQF 062000Z 16005KT 15SM SCT120 BKN250 12/03 A2981 RMK AC3CI1 SLP127=

CYQF;2005-10-06 21:00;METAR CYQF 062100Z 17006KT 15SM FEW050 SCT120 BKN250 13/03 A2978 RMK SC1AC2CI1 SLP113=

CYQF;2005-10-06 22:00;METAR CYQF 062200Z 15004KT 15SM FEW080 BKN250 14/04 A2976 RMK AC2CI2 SLP107=

CYQF;2005-10-06 23:00;METAR CYQF 062300Z 15003KT 15SM FEW080 BKN250 14/03 A2974 RMK AC1CI2 SLP098=

CYQF;2005-10-07 00:00;METAR CYQF 070000Z 00000KT 15SM FEW070 BKN250 13/03 A2972 RMK AC1CI2 SLP093=

CYQF;2005-10-07 01:00;METAR CYQF 070100Z 08004KT 15SM FEW070 BKN250 08/03 A2970 RMK AC1CI2 SLP085=

CYQF;2005-10-07 02:00;METAR CYQF 070200Z 08004KT 15SM FEW070 BKN250 08/03 A2968 RMK AC1CI2 SLP080=

CYQF;2005-10-07 03:00;METAR CYQF 070300Z 21003KT 15SM SCT120 BKN250 06/02 A2966 RMK AC3CI2 SLP077=

CYQF;2005-10-07 04:00;METAR CYQF 070400Z 20002KT 15SM BKN120 OVC250 06/02 A2965 RMK AC5CI2 SLP074=

CYQF;2005-10-07 05:00;METAR CYQF 070500Z 25006KT 15SM SCT120 OVC250 06/02 A2964 RMK AC4CI2 SLP071=

CYQF;2005-10-07 06:00;METAR CYQF NIL=

CYQF;2005-10-07 07:00;METAR CYQF 070700Z 20004KT 15SM FEW120 BKN250 04/01 A2960 RMK AC2CI2 SLP047=

CYQF;2005-10-07 08:00;METAR CYQF 070800Z 20003KT 15SM FEW120 BKN250 04/00 A2959 RMK AC2CI2 SLP044=

CYQF;2005-10-07 09:00;METAR CYQF 070900Z 00000KT 15SM SCT075 BKN250 02/M01 A2957 RMK AC3CI2 SLP033=

CYQF;2005-10-07 10:00;METAR CYQF 071000Z 00000KT 15SM BKN075 OVC250 03/01 A2955 RMK AC5CI2 SLP026=

CYQF;2005-10-07 11:00;METAR CYQF 071100Z 21004KT 15SM BKN075 OVC250 04/01 A2954 RMK AC6CI2 SLP024=

CYQF;2005-10-07 12:00;METAR CYQF 071200Z 30003KT 15SM BKN075 BKN250 04/01 A2953 RMK AC6CI1 SLP016=

CYQF;2005-10-07 13:00;METAR CYQF 071300Z 18003KT 15SM SCT075 BKN250 03/00 A2953 RMK AC3CI1 SLP016=

CYQF;2005-10-07 14:00;METAR CYQF 071400Z 19005KT 15SM BKN080 BKN250 04/01 A2952 RMK AC5CI1 VIRGA SLP015=

CYQF;2005-10-07 15:00;METAR CYQF 071500Z 22005KT 15SM FEW080 BKN250 04/01 A2953 RMK AC2CI1 SLP026=

CYQF;2005-10-07 16:00;METAR CYQF 071600Z 26005KT 15SM SCT080 BKN250 09/03 A2954 RMK AC2CI2 SLP027=

CYQF;2005-10-07 17:00;METAR CYQF 071700Z 26003KT 15SM SCT080 BKN250 10/04 A2955 RMK AC2CI2 SLP031=

CYQF;2005-10-07 18:00;METAR CYQF 071800Z 33005KT 15SM BKN080 BKN250 11/04 A2956 RMK AC6CI1 SLP029=

CYQF;2005-10-07 19:00;METAR CYQF 071900Z 33006KT 15SM FEW030 BKN080 BKN250 12/04 A2957 RMK CU1AC5CI1 SLP032=

CYQF;2005-10-07 20:00;METAR CYQF 072000Z 36010KT 15SM FEW030 BKN080 BKN250 11/04 A2958 RMK SC2AC4CI2 SLP035=

CYQF;2005-10-07 21:00;METAR CYQF 072100Z 02008KT 15SM FEW030 SCT090 BKN250 11/04 A2958 RMK CU1AC2CI3 SLP040=

CYQF;2005-10-07 22:00;METAR CYQF 072200Z 36010KT 15SM FEW030 BKN090 BKN250 11/04 A2960 RMK CU2AC3CI2 SLP045=

CYQF;2005-10-07 23:00;METAR CYQF 072300Z 36009KT 15SM FEW030 SCT090 BKN250 11/03 A2961 RMK CU1AC2CI2 SLP047=

CYQF;2005-10-08 00:00;METAR CYQF 080000Z 36006KT 15SM FEW030 BKN090 BKN250 10/02 A2963 RMK SC2AC2CI2 TCU ASOCTD CB+LTGCG DIST SW SLP055=

CYQF;2005-10-08 01:00;METAR CYQF 080100Z 24008KT 15SM -SHRA BKN030 BKN090 07/04 A2966 RMK SC5AC2 TCU ASOCTD SLP065=

CYQF;2005-10-08 02:35;SPECI CYQF 080235Z 27004KT 15SM BKN030 BKN100 RMK SC5AC2=

CYQF;2005-10-08 03:00;METAR CYQF 080300Z 21005KT 15SM SCT030 BKN100 BKN250 05/03 A2967 RMK SC3AC2CI0 SLP076=

CYQF;2005-10-08 04:00;METAR CYQF 080400Z 23007KT 15SM FEW030 FEW100 SCT250 04/02 A2969 RMK SC2AC1CI0 SLP081=

CYQF;2005-10-08 05:00;METAR CYQF 080500Z 22008KT 15SM FEW030 FEW250 03/01 A2970 RMK SC2CI0 SLP084=

CYQF;2005-10-08 06:00;METAR CYQF 080600Z 30006KT 15SM FEW030 FEW250 02/01 A2972 RMK SC2CI0 SLP088=

CYQF;2005-10-08 07:00;METAR CYQF 080700Z 20004KT 15SM SKC 01/M02 A2973 RMK SLP089=

CYQF;2005-10-08 08:00;METAR CYQF 080800Z 20006KT 15SM SKC 00/M01 A2973 RMK SLP089=

CYQF;2005-10-08 09:00;METAR CYQF 080900Z 19003KT 15SM SKC M00/M02 A2973 RMK SLP093=

CYQF;2005-10-08 10:00;METAR CYQF 081000Z 20004KT 15SM SKC M02/M03 A2973 RMK SLP094=

CYQF;2005-10-08 12:00;METAR CYQF 081200Z 20002KT 15SM SKC M02/M03 A2975 RMK SLP103=

CYQF;2005-10-08 13:00;METAR CYQF 081300Z 19003KT 15SM SKC M04/M05 A2974 RMK FROIN SLP102=

CYQF;2005-10-08 14:00;METAR CYQF 081400Z 19004KT 15SM SKC M04/M06 A2976 RMK FROIN SLP107=

CYQF;2005-10-08 15:00;METAR CYQF 081500Z 20004KT 15SM SKC M02/M03 A2976 RMK SLP114=

CYQF;2005-10-08 16:00;METAR CYQF 081600Z 19004KT 15SM SKC 01/M02 A2977 RMK SLP116=

CYQF;2005-10-08 17:00;METAR CYQF 081700Z 19002KT 15SM SKC 05/00 A2977 RMK SLP117=

CYQF;2005-10-08 18:00;METAR CYQF 081800Z 00000KT 15SM FEW250 08/02 A2977 RMK CI0 SLP108=

CYQF;2005-10-08 19:00;METAR CYQF 081900Z 00000KT 15SM FEW060 FEW250 11/M00 A2976 RMK CU1CI0 TR CU SLP106=

CYQF;2005-10-08 20:00;METAR CYQF 082000Z 00000KT 15SM FEW060 FEW250 12/M02 A2976 RMK CU1CI0 SLP104=

CYQF;2005-10-08 21:00;METAR CYQF 082100Z 00000KT 15SM FEW060 BKN250 13/M05 A2976 RMK CU1CI2 SLP102=

CYQF;2005-10-08 22:00;METAR CYQF 082200Z 00000KT 15SM FEW060 BKN250 12/M05 A2976 RMK CU1CI2 SLP102=

CYQF;2005-10-08 23:00;METAR CYQF 082300Z 18004KT 15SM FEW060 SCT090 BKN250 12/M04 A2976 RMK CU2AC2CI1 SLP102=

CYQF;2005-10-09 00:00;METAR CYQF 090000Z 19002KT 15SM FEW060 FEW090 BKN250 12/M04 A2977 RMK CU1AC2CI2 SLP110=

CYQF;2005-10-09 01:00;METAR CYQF 090100Z 17003KT 15SM FEW060 FEW090 BKN250 09/M05 A2978 RMK SC2AC1CI2 VIRGA DIST W SLP114=

CYQF;2005-10-09 02:00;METAR CYQF 090200Z 16003KT 15SM FEW090 SCT250 05/M04 A2980 RMK AC2CI1 SLP120=

CYQF;2005-10-09 03:00;METAR CYQF 090300Z 00000KT 15SM FEW090 FEW250 02/M04 A2982 RMK AC2CI1 SLP135=

CYQF;2005-10-09 04:00;METAR CYQF 090400Z 00000KT 15SM FEW090 BKN250 00/M04 A2983 RMK AC2CI2 SLP140=

CYQF;2005-10-09 05:00;METAR CYQF 090500Z 20004KT 15SM FEW090 BKN250 01/M04 A2984 RMK AC2CI2 SLP141=

CYQF;2005-10-09 06:00;METAR CYQF 090600Z 00000KT 15SM FEW090 SCT250 01/M04 A2985 RMK AC2CI2 SLP136=

CYQF;2005-10-09 07:00;METAR CYQF 090700Z 36002KT 15SM FEW250 01/M04 A2986 RMK CI0 SLP142=

CYQF;2005-10-09 09:00;METAR CYQF 090900Z 27005KT 15SM FEW250 M01/M05 A2989 RMK CI0 SLP148=

CYQF;2005-10-09 10:00;METAR CYQF 091000Z 27002KT 15SM FEW250 M02/M06 A2991 RMK CI0 SLP154=

CYQF;2005-10-09 11:00;METAR CYQF 091100Z 25004KT 15SM FEW250 M03/M06 A2993 RMK CI1 SLP160=

CYQF;2005-10-09 12:00;METAR CYQF 091200Z 26002KT 15SM SKC M02/M06 A2995 RMK SLP170=

CYQF;2005-10-09 13:00;METAR CYQF 091300Z 00000KT 15SM FEW100 M03/M06 A2997 RMK AC2 SLP179=

CYQF;2005-10-09 14:00;METAR CYQF 091400Z 19003KT 15SM FEW100 M03/M06 A2999 RMK AC2 SLP184=

CYQF;2005-10-09 15:00;METAR CYQF 091500Z 20004KT 15SM FEW100 M03/M06 A3001 RMK AC2 SLP205=

CYQF;2005-10-09 16:00;METAR CYQF 091600Z 00000KT 15SM FEW100 00/M03 A3004 RMK AC2 SLP213=

CYQF;2005-10-09 17:00;METAR CYQF 091700Z 24003KT 15SM FEW100 06/M01 A3005 RMK AC1 SLP218=

CYQF;2005-10-09 18:00;METAR CYQF 091800Z 23005KT 15SM FEW100 08/M01 A3007 RMK AC1 SLP213=

CYQF;2005-10-09 19:00;METAR CYQF 091900Z 00000KT 15SM SKC 10/M00 A3007 RMK SLP214=

CYQF;2005-10-09 20:00;METAR CYQF 092000Z 19003KT 15SM SKC 12/M01 A3006 RMK SLP211=

CYQF;2005-10-09 21:00;METAR CYQF 092100Z 19008KT 15SM FEW250 13/M03 A3006 RMK CI0 SLP208=

CYQF;2005-10-09 22:00;METAR CYQF 092200Z 20008KT 15SM FEW250 14/M03 A3005 RMK CI0 SLP206=

CYQF;2005-10-09 23:00;METAR CYQF 092300Z 18009KT 15SM FEW250 13/M04 A3006 RMK CI0 SLP207=

CYQF;2005-10-10 00:00;METAR CYQF 100000Z 17008KT 15SM FEW250 13/M04 A3005 RMK CI0 SLP207=

CYQF;2005-10-10 01:00;METAR CYQF 100100Z 16007KT 15SM FEW250 08/M03 A3004 RMK CI1 SLP203=

CYQF;2005-10-10 02:00;METAR CYQF 100200Z 17008KT 15SM FEW250 06/M03 A3004 RMK CI1 SLP201=

CYQF;2005-10-10 03:00;METAR CYQF 100300Z 18011KT 15SM FEW250 07/M03 A3003 RMK CI2 SLP204=

CYQF;2005-10-10 04:00;METAR CYQF 100400Z 16008KT 15SM FEW250 05/M03 A3002 RMK CI2 SLP202=

CYQF;2005-10-10 05:00;METAR CYQF 100500Z 17010G15KT 15SM SCT250 05/M03 A3000 RMK CI3 SLP197=

CYQF;2005-10-10 06:00;METAR CYQF 100600Z 16010G15KT 15SM SCT250 04/M02 A2999 RMK CI4 SLP184=

CYQF;2005-10-10 07:00;METAR CYQF 100700Z 18010KT 15SM FEW250 03/M03 A2998 RMK CI0 SLP181=

CYQF;2005-10-10 08:00;METAR CYQF 100800Z 17010KT 15SM FEW250 02/M03 A2998 RMK CI0 SLP179=

CYQF;2005-10-10 09:00;METAR CYQF 100900Z 18008KT 15SM SCT250 02/M03 A2996 RMK CI1 SLP169=

CYQF;2005-10-10 10:00;METAR CYQF 101000Z 18007KT 15SM BKN250 02/M03 A2994 RMK CI2 SLP164=

CYQF;2005-10-10 11:00;METAR CYQF 101100Z 16005KT 15SM BKN250 01/M03 A2993 RMK CI4 SLP160=

CYQF;2005-10-10 12:00;METAR CYQF 101200Z 16004KT 15SM BKN250 01/M03 A2992 RMK CI3 SLP158=

CYQF;2005-10-10 13:00;METAR CYQF 101300Z 17004KT 15SM BKN250 00/M03 A2992 RMK CI3 SLP156=

CYQF;2005-10-10 14:00;METAR CYQF 101400Z 17007KT 15SM FEW150 BKN250 01/M03 A2990 RMK AC1CI3 SLP151=

CYQF;2005-10-10 15:00;METAR CYQF 101500Z 18004KT 15SM FEW150 BKN250 03/M02 A2990 RMK AC2CI3 SLP153=

CYQF;2005-10-10 16:00;METAR CYQF 101600Z 17002KT 15SM FEW150 BKN230 07/01 A2989 RMK AC2CI4 SLP149=

CYQF;2005-10-10 17:00;METAR CYQF 101700Z 17012KT 15SM FEW120 BKN230 10/01 A2985 RMK AC2CI3 SLP138=

CYQF;2005-10-10 18:00;METAR CYQF 101800Z 17012KT 15SM SCT120 BKN230 13/03 A2983 RMK AC3CI2 SLP120=

CYQF;2005-10-10 19:00;METAR CYQF 101900Z 18012G23KT 15SM BKN130 BKN230 17/04 A2980 RMK AC5CI2 SLP113=

CYQF;2005-10-10 20:00;METAR CYQF 102000Z 20011G20KT 15SM BKN130 BKN230 18/04 A2977 RMK AC6CI1 17.8 3.8 SLP102=

CYQF;2005-10-10 21:00;METAR CYQF 102100Z 16011G18KT 15SM BKN120 BKN250 17/04 A2975 RMK AC5CI1 SLP090=

CYQF;2005-10-10 22:00;METAR CYQF 102200Z 16012G21KT 15SM BKN120 BKN250 18/04 A2972 RMK AC5CI1 SLP083=

CYQF;2005-10-10 23:00;METAR CYQF 102300Z 20010G18KT 15SM FEW050 BKN120 BKN250 18/04 A2970 RMK SC2AC3CI2 SLP076=

CYQF;2005-10-11 00:00;METAR CYQF 110000Z 19008KT 15SM FEW050 BKN120 BKN250 16/04 A2969 RMK SC2AC3CI1 SLP072=

CYQF;2005-10-11 01:00;METAR CYQF 110100Z 19007KT 15SM FEW040 BKN120 BKN250 14/04 A2968 RMK SC2AC3CI1 ACSL SW SLP071=

CYQF;2005-10-11 02:00;METAR CYQF 110200Z 20009KT 15SM FEW040 BKN100 BKN250 13/03 A2967 RMK SC1AC5CI1 SLP068=

CYQF;2005-10-11 03:00;METAR CYQF 110300Z 18007KT 15SM BKN100 BKN250 12/03 A2967 RMK AC6CI1 SLP068=

CYQF;2005-10-11 04:00;METAR CYQF 110400Z 24007KT 15SM BKN110 BKN250 12/04 A2968 RMK AC6CI1 SLP070=

CYQF;2005-10-11 05:00;METAR CYQF 110500Z 23006KT 15SM BKN110 BKN250 12/04 A2969 RMK AC6CI1 SLP075=

CYQF;2005-10-11 06:00;METAR CYQF 110600Z 24005KT 15SM BKN110 BKN250 12/04 A2972 RMK AC6CI1 SLP073=

CYQF;2005-10-11 07:00;METAR CYQF 110700Z 29006KT 15SM BKN100 OVC250 10/02 A2975 RMK AC6CI2 SLP082=

CYQF;2005-10-11 08:00;METAR CYQF 110800Z 36018G30KT 15SM BKN100 OVC250 09/02 A2980 RMK AC6CI2 SLP099=

CYQF;2005-10-11 09:00;METAR CYQF 110900Z 36007KT 15SM FEW100 SCT250 07/01 A2983 RMK AC1CI1 SLP115=

CYQF;2005-10-11 10:00;METAR CYQF 111000Z 00000KT 15SM FEW250 04/00 A2986 RMK CI0 SLP125=

CYQF;2005-10-11 11:00;METAR CYQF 111100Z 24002KT 15SM FEW250 02/M01 A2989 RMK CI0 SLP134=

CYQF;2005-10-11 12:00;METAR CYQF 111200Z 26003KT 15SM FEW250 M00/M03 A2990 RMK CI1 SLP148=

CYQF;2005-10-11 13:00;METAR CYQF 111300Z 27003KT 15SM FEW100 BKN250 02/M00 A2992 RMK AC2CI1 SLP152=

CYQF;2005-10-11 14:00;METAR CYQF 111400Z 30004KT 15SM SCT090 BKN250 02/M00 A2993 RMK AC3CI1 SLP157=

CYQF;2005-10-11 15:00;METAR CYQF 111500Z 18003KT 15SM FEW060 SCT100 BKN250 04/01 A2997 RMK SC2AC2CI1 SLP173=

CYQF;2005-10-11 15:15;SPECI CYQF 111515Z 21003KT 15SM -SHRA FEW060 SCT100 BKN250 RMK SC2AC2CI1=

CYQF;2005-10-11 16:00;METAR CYQF 111600Z 19003KT 15SM -SHRA SCT060 BKN100 BKN250 06/03 A3000 RMK SC3AC2CI1 SLP182=

CYQF;2005-10-11 17:00;METAR CYQF 111700Z 24003KT 15SM SCT050 BKN100 BKN250 07/03 A3002 RMK SC3AC2CI1 SLP187=

CYQF;2005-10-11 18:00;METAR CYQF 111800Z 00000KT 15SM FEW050 BKN100 BKN250 10/04 A3003 RMK SC2AC3CI0 SLP187=

CYQF;2005-10-11 19:00;METAR CYQF 111900Z 00000KT 15SM FEW050 SCT100 10/01 A3004 RMK CU1AC3 SLP189=

CYQF;2005-10-11 21:00;METAR CYQF 112100Z 13004KT 15SM FEW050 FEW100 11/M01 A3004 RMK CU1AC1 SLP193=

CYQF;2005-10-11 22:00;METAR CYQF 112200Z 00000KT 15SM FEW050 FEW100 13/00 A3004 RMK CU1AC1 SLP193=

CYQF;2005-10-11 23:00;METAR CYQF 112300Z 12005KT 15SM FEW050 12/00 A3004 RMK CU1 SLP193=

CYQF;2005-10-12 01:00;METAR CYQF 120100Z 09003KT 15SM FEW050 09/M00 A3006 RMK SC1 SLP208=

CYQF;2005-10-12 02:00;METAR CYQF 120200Z 15005KT 15SM SKC 07/M00 A3007 RMK SLP211=

CYQF;2005-10-12 03:00;METAR CYQF 120300Z 16007KT 15SM SKC 04/M01 A3007 RMK SLP217=

CYQF;2005-10-12 04:00;METAR CYQF 120400Z 15005KT 15SM SKC 05/M02 A3008 RMK SLP218=

CYQF;2005-10-12 05:00;METAR CYQF 120500Z 16006KT 15SM SKC 04/M02 A3006 RMK SLP214=

CYQF;2005-10-12 06:00;METAR CYQF 120600Z 16008KT 15SM SKC 03/M02 A3005 RMK SLP201=

CYQF;2005-10-12 07:00;METAR CYQF 120700Z 18010KT 15SM SKC 03/M02 A3003 RMK SLP197=

CYQF;2005-10-12 08:00;METAR CYQF 120800Z 18011KT 15SM SKC 04/M02 A3002 RMK SLP192=

CYQF;2005-10-12 09:00;METAR CYQF 120900Z 17014KT 15SM SKC 03/M02 A3000 RMK SLP185=

CYQF;2005-10-12 10:00;METAR CYQF 121000Z 18010KT 15SM SCT250 03/M02 A2999 RMK CI1 SLP180=

CYQF;2005-10-12 11:00;METAR CYQF 121100Z 18015KT 15SM FEW100 BKN250 04/M02 A2996 RMK AC1CI4 SLP173=

CYQF;2005-10-12 12:00;METAR CYQF 121200Z 17013KT 15SM SCT100 OVC250 04/M01 A2995 RMK AC3CI4 SLP163=

CYQF;2005-10-12 13:00;METAR CYQF 121300Z 18010KT 15SM SCT100 BKN250 03/M02 A2993 RMK AC3CI3 SLP158=

CYQF;2005-10-12 14:00;METAR CYQF 121400Z 17010KT 15SM FEW080 SCT100 BKN250 02/M02 A2992 RMK AC2AC2CI2 SLP155=

CYQF;2005-10-12 15:00;METAR CYQF 121500Z 17010KT 15SM FEW050 BKN120 BKN250 04/M01 A2991 RMK SC2AC3CI2 SLP161=

CYQF;2005-10-12 16:00;METAR CYQF 121600Z 18008KT 15SM FEW040 BKN120 BKN250 05/M01 A2990 RMK SC2AC3CI1 SLP156=

CYQF;2005-10-12 17:00;METAR CYQF 121700Z 17008KT 15SM FEW040 BKN120 BKN250 07/M00 A2986 RMK SC2AC3CI1 SLP145=

CYQF;2005-10-12 18:00;METAR CYQF 121800Z 17010KT 15SM FEW050 SCT120 BKN200 10/01 A2986 RMK SC2AC2CI2 SLP136=

CYQF;2005-10-12 19:00;METAR CYQF 121900Z 22015KT 15SM FEW050 SCT120 BKN200 15/M02 A2983 RMK SC1AC3CI2 SLP127=

CYQF;2005-10-12 20:00;METAR CYQF 122000Z 23012G24KT 15SM FEW120 BKN210 17/M01 A2981 RMK AC2CI2 SLP121=

CYQF;2005-10-12 21:00;METAR CYQF 122100Z 22010KT 15SM FEW120 BKN210 16/M01 A2978 RMK AC2CI2 SLP101=

CYQF;2005-10-12 22:00;METAR CYQF 122200Z 21008KT 15SM FEW120 BKN210 16/M01 A2976 RMK AC2CI2 SLP096=

CYQF;2005-10-12 23:00;METAR CYQF 122300Z 21007KT 15SM SCT120 BKN210 15/00 A2975 RMK AC4CI2 SLP092=

CYQF;2005-10-13 00:00;METAR CYQF 130000Z 24008KT 15SM SCT120 OVC220 14/01 A2975 RMK AC4CI2 SLP092=

CYQF;2005-10-13 01:00;METAR CYQF 130100Z 23007KT 15SM BKN120 OVC220 09/M01 A2973 RMK AC5CI2 SLP085=

CYQF;2005-10-13 02:00;METAR CYQF 130200Z 21005KT 15SM BKN120 OVC220 06/M00 A2972 RMK AC6CI2 SLP084=

CYQF;2005-10-13 03:00;METAR CYQF 130300Z 20005KT 15SM BKN120 OVC220 07/00 A2970 RMK AC6CI2 SLP084=

CYQF;2005-10-13 04:00;METAR CYQF 130400Z 23002KT 15SM BKN120 OVC220 05/M00 A2970 RMK AC5CI2 SLP085=

CYQF;2005-10-13 05:00;METAR CYQF 130500Z 18004KT 15SM FEW120 BKN220 04/M01 A2969 RMK AC2CI3 SLP080=

CYQF;2005-10-13 06:00;METAR CYQF 130600Z 20006KT 15SM FEW120 BKN230 03/M01 A2968 RMK AC2CI2 SLP076=

CYQF;2005-10-13 07:00;METAR CYQF 130700Z 23008KT 15SM FEW120 BKN250 02/M02 A2967 RMK AC2CI2 SLP073=

CYQF;2005-10-13 08:00;METAR CYQF 130800Z 25004KT 15SM FEW100 SCT250 03/M01 A2967 RMK AC2CI2 SLP073=

CYQF;2005-10-13 09:00;METAR CYQF 130900Z 18004KT 15SM FEW250 02/M02 A2968 RMK CI1 SLP068=

CYQF;2005-10-13 11:00;METAR CYQF 131100Z 26008KT 15SM FEW250 04/00 A2969 RMK CI1 SLP073=

CYQF;2005-10-13 12:00;METAR CYQF 131200Z 01002KT 15SM BKN080 04/01 A2969 RMK AC5 SLP072=

CYQF;2005-10-13 13:00;METAR CYQF 131300Z 23002KT 15SM FEW080 SCT250 02/M01 A2968 RMK AC2CI0 SLP069=

CYQF;2005-10-13 14:00;METAR CYQF 131400Z 26004KT 15SM FEW080 SCT250 00/M03 A2968 RMK AC2CI1 SLP068=

CYQF;2005-10-13 15:00;METAR CYQF 131500Z 28003KT 15SM FEW060 FEW100 02/M01 A2971 RMK SC1AC2 SLP088=

CYQF;2005-10-13 16:00;METAR CYQF 131600Z 03002KT 15SM FEW060 FEW100 08/01 A2972 RMK SC1AC1 SLP093=

CYQF;2005-10-13 17:00;METAR CYQF 131700Z 34005KT 15SM FEW060 SCT100 11/01 A2974 RMK SC2AC2 SLP099=

CYQF;2005-10-13 18:00;METAR CYQF 131800Z 34012KT 15SM FEW050 FEW100 11/02 A2976 RMK SC2AC1 TCU TPS NW SLP103=

CYQF;2005-10-13 19:00;METAR CYQF 131900Z 33014G23KT 15SM FEW030 SCT100 11/04 A2980 RMK SC2AC2 SLP113=

CYQF;2005-10-13 20:00;METAR CYQF 132000Z 35013G25KT 15SM FEW020 SCT080 10/02 A2982 RMK SC2AC2 SLP121=

CYQF;2005-10-13 21:00;METAR CYQF 132100Z 33014G24KT 15SM FEW020 FEW100 10/02 A2984 RMK SC1AC2 SLP129=

CYQF;2005-10-13 22:00;METAR CYQF 132200Z 33014G21KT 15SM FEW030 FEW100 FEW250 11/01 A2985 RMK SC1AC1CI0 SLP132=

CYQF;2005-10-13 23:00;METAR CYQF 132300Z 32010KT 15SM FEW030 FEW100 FEW250 11/00 A2986 RMK SC1AC1CI0 SLP137=

CYQF;2005-10-14 00:00;METAR CYQF 140000Z 29007KT 15SM FEW040 FEW100 11/01 A2988 RMK SC1AC1 SLP142=

CYQF;2005-10-14 02:00;METAR CYQF 140200Z 21006KT 15SM FEW040 FEW100 03/M00 A2991 RMK SC1AC1 SLP152=

CYQF;2005-10-14 03:00;METAR CYQF 140300Z 25002KT 15SM FEW040 FEW100 03/M01 A2994 RMK SC2AC1 SLP174=

CYQF;2005-10-14 04:00;METAR CYQF 140400Z 18003KT 15SM SCT040 SCT080 04/00 A2996 RMK SC3AC1 SLP181=

CYQF;2005-10-14 05:00;METAR CYQF 140500Z 21005KT 15SM FEW040 FEW080 02/M01 A2999 RMK SC1AC1 SLP188=

CYQF;2005-10-14 06:00;METAR CYQF 140600Z 21005KT 15SM FEW080 M00/M03 A3001 RMK AC1 SLP190=

CYQF;2005-10-14 07:00;METAR CYQF 140700Z 19004KT 15SM FEW080 01/M02 A3002 RMK AC1 SLP195=

CYQF;2005-10-14 08:00;METAR CYQF 140800Z 19006KT 15SM FEW080 M01/M04 A3004 RMK AC1 FROIN SLP199=

CYQF;2005-10-14 09:00;METAR CYQF 140900Z 19004KT 15SM SKC M01/M03 A3004 RMK FROIN SLP203=

CYQF;2005-10-14 11:00;METAR CYQF 141100Z 17004KT 15SM SKC M03/M05 A3007 RMK FROIN SLP212=

CYQF;2005-10-14 12:00;METAR CYQF 141200Z 21002KT 15SM SKC 05/M07 A3008 RMK FROIN SLP209=

CYQF;2005-10-14 13:00;METAR CYQF 141300Z 00000KT 15SM SKC M03/M06 A3009 RMK FROIN SLP212=

CYQF;2005-10-14 14:00;METAR CYQF 141400Z 22004KT 15SM FEW250 M03/M06 A3009 RMK CI1 FROIN SLP213=

CYQF;2005-10-14 15:00;METAR CYQF 141500Z 20003KT 15SM BKN250 M03/M06 A3010 RMK CI1 SLP234=

CYQF;2005-10-14 16:00;METAR CYQF 141600Z 00000KT 15SM BKN250 01/M02 A3010 RMK CI2 SLP234=

CYQF;2005-10-14 17:00;METAR CYQF 141700Z 00000KT 15SM BKN250 05/M01 A3009 RMK CI2 SLP232=

CYQF;2005-10-14 18:00;METAR CYQF 141800Z 00000KT 15SM BKN250 09/01 A3007 RMK CI2 SLP214=

CYQF;2005-10-14 19:00;METAR CYQF 141900Z 17006KT 15SM BKN250 10/M01 A3006 RMK CI2 SLP211=

CYQF;2005-10-14 20:00;METAR CYQF 142000Z 13008KT 15SM OVC250 11/M01 A3004 RMK CI8 SLP204=

CYQF;2005-10-14 21:00;METAR CYQF 142100Z 15009KT 15SM BKN100 OVC250 11/M02 A3002 RMK AC6CI2 SLP196=

CYQF;2005-10-14 22:00;METAR CYQF 142200Z 12007KT 15SM OVC100 11/M01 A3000 RMK AC8 SLP189=

CYQF;2005-10-14 23:00;METAR CYQF 142300Z 13009KT 15SM OVC100 11/M01 A2997 RMK AC8 SLP182=

CYQF;2005-10-15 00:00;METAR CYQF 150000Z 13005KT 15SM SCT100 OVC250 10/M02 A2996 RMK AC3CI5 SLP170=

CYQF;2005-10-15 01:00;METAR CYQF 150100Z 13010KT 15SM BKN100 OVC250 09/M00 A2994 RMK AC6CI2 SLP163=

CYQF;2005-10-15 02:00;METAR CYQF 150200Z 14010KT 15SM BKN100 OVC250 08/M01 A2992 RMK AC6CI2 SLP157=

CYQF;2005-10-15 03:00;METAR CYQF 150300Z 15010G15KT 15SM BKN100 OVC250 08/M01 A2990 RMK AC7CI1 SLP159=

CYQF;2005-10-15 04:00;METAR CYQF 150400Z 14012G18KT 15SM BKN100 OVC250 07/M01 A2988 RMK AC7CI1 SLP153=

CYQF;2005-10-15 05:00;METAR CYQF 150500Z 14010G15KT 15SM BKN100 OVC250 07/M01 A2986 RMK AC6CI2 SLP147=

CYQF;2005-10-15 06:00;METAR CYQF 150600Z 14006KT 15SM BKN100 OVC250 06/M01 A2985 RMK AC6CI2 SLP129=

CYQF;2005-10-15 07:00;METAR CYQF 150700Z 15007KT 15SM BKN100 OVC250 06/M01 A2981 RMK AC5CI2 SLP119=

CYQF;2005-10-15 08:00;METAR CYQF 150800Z 16006KT 15SM BKN100 OVC250 06/M00 A2978 RMK AC5CI2 SLP108=

CYQF;2005-10-15 09:00;METAR CYQF 150900Z 16008KT 15SM SCT100 OVC250 06/00 A2976 RMK AC3CI4 SLP096=

CYQF;2005-10-15 10:00;METAR CYQF 151000Z 17008KT 15SM SCT100 OVC250 06/00 A2974 RMK AC3CI4 SLP091=

CYQF;2005-10-15 11:00;METAR CYQF 151100Z 16008KT 15SM SCT100 OVC250 06/00 A2972 RMK AC4CI3 SLP086=

CYQF;2005-10-15 12:00;METAR CYQF 151200Z 19006KT 15SM BKN120 OVC250 05/00 A2970 RMK AC5CI3 SLP079=

CYQF;2005-10-15 13:00;METAR CYQF 151300Z 16005KT 15SM BKN120 OVC250 05/00 A2968 RMK AC5CI3 SLP072=

CYQF;2005-10-15 14:00;METAR CYQF 151400Z 17008KT 15SM BKN120 OVC250 05/00 A2966 RMK AC5CI2 SLP066=

CYQF;2005-10-15 15:00;METAR CYQF 151500Z 17006KT 15SM BKN120 OVC250 05/00 A2963 RMK AC5CI2 SLP057=

CYQF;2005-10-15 16:00;METAR CYQF 151600Z 16007KT 15SM BKN120 BKN250 06/01 A2962 RMK AC5CI2 SLP053=

CYQF;2005-10-15 17:00;METAR CYQF 151700Z 15009KT 15SM BKN120 BKN250 06/01 A2960 RMK AC5CI2 SLP049=

CYQF;2005-10-15 18:00;METAR CYQF 151800Z 17011KT 15SM SCT120 BKN250 08/02 A2959 RMK AC4CI3 SLP040=

CYQF;2005-10-15 19:00;METAR CYQF 151900Z 18010KT 15SM FEW080 BKN120 BKN250 11/03 A2956 RMK AC2AC4CI1 SLP031=

CYQF;2005-10-15 20:00;METAR CYQF 152000Z 18007KT 15SM FEW080 BKN120 BKN250 12/04 A2955 RMK AC2AC4CI1 SLP028=

CYQF;2005-10-15 21:00;METAR CYQF 152100Z 16013KT 15SM FEW080 BKN120 BKN250 14/05 A2953 RMK AC2AC4CI1 SLP014=

CYQF;2005-10-15 22:00;METAR CYQF 152200Z 18006KT 15SM FEW040 BKN100 BKN250 15/05 A2953 RMK CU1AC5CI1 SLP015=

CYQF;2005-10-15 23:00;METAR CYQF 152300Z 18009KT 15SM FEW040 BKN120 BKN250 14/06 A2953 RMK CU1AC5CI1 SLP014=

CYQF;2005-10-16 00:00;METAR CYQF 160000Z 17006KT 15SM BKN120 BKN250 13/06 A2953 RMK AC5CI2 SLP017=

CYQF;2005-10-16 01:00;METAR CYQF 160100Z 33012KT 15SM SCT120 BKN250 12/05 A2956 RMK AC3CI2 SLP025=

CYQF;2005-10-16 02:00;METAR CYQF 160200Z 34008KT 15SM FEW110 BKN250 07/04 A2958 RMK AC2CI1 SLP033=

CYQF;2005-10-16 03:00;METAR CYQF 160300Z 33007KT 15SM FEW110 SCT250 06/02 A2963 RMK AC2CI0 SLP059=

CYQF;2005-10-16 04:00;METAR CYQF 160400Z 26005KT 15SM FEW100 FEW250 04/01 A2965 RMK AC2CI0 SLP065=

CYQF;2005-10-16 05:00;METAR CYQF 160500Z 28006KT 15SM FEW100 04/01 A2967 RMK AC1 SLP071=

CYQF;2005-10-16 06:00;METAR CYQF 160600Z 22010KT 15SM SKC 01/M01 A2967 RMK SLP076=

CYQF;2005-10-16 07:00;METAR CYQF 160700Z 26005KT 15SM FEW250 03/01 A2967 RMK CI1 SLP074=

CYQF;2005-10-16 08:00;METAR CYQF 160800Z 21004KT 15SM FEW100 SCT250 01/M01 A2969 RMK AC2CI1 SLP080=

CYQF;2005-10-16 09:00;METAR CYQF 160900Z 00000KT 15SM SCT100 BKN250 00/M02 A2970 RMK AC3CI2 SLP081=

CYQF;2005-10-16 10:00;METAR CYQF 161000Z 05003KT 15SM BKN100 OVC250 02/M00 A2969 RMK AC5CI2 SLP077=

CYQF;2005-10-16 11:00;METAR CYQF 161100Z 36003KT 15SM BKN100 OVC250 01/M01 A2969 RMK AC5CI2 SLP077=

CYQF;2005-10-16 12:00;METAR CYQF 161200Z 01008KT 15SM SCT030 OVC100 04/01 A2973 RMK SC3AC5 SLP087=

CYQF;2005-10-16 13:00;METAR CYQF 161300Z 03008KT 15SM FEW010 BKN025 OVC080 04/02 A2976 RMK SF2SC3AC2 SLP095=

CYQF;2005-10-16 13:44;SPECI CYQF 161344Z 03012KT 15SM -RA BKN010 OVC020 RMK SF6SC2=

CYQF;2005-10-16 14:00;METAR CYQF 161400Z 03012KT 15SM -RA BKN010 OVC020 04/01 A2977 RMK SF6SC2 SLP101=

CYQF;2005-10-16 14:37;SPECI CYQF 161437Z 03009KT 15SM BKN008 OVC020 RMK SF6SC2=

CYQF;2005-10-16 15:00;METAR CYQF 161500Z 35006KT 15SM BKN008 OVC014 03/M03 A2980 RMK SF5SC3 SLP121=

CYQF;2005-10-16 15:16;SPECI CYQF 161516Z 35004KT 15SM SCT008 OVC014 RMK SF3SC5=

CYQF;2005-10-16 15:43;SPECI CYQF 161543Z 35003KT 5SM -RA BR FEW008 OVC014 RMK SF2SC6 CIG RAG=

CYQF;2005-10-16 16:00;METAR CYQF 161600Z 36004KT 5SM -RA BR BKN004 OVC015 03/01 A2982 RMK SF5SC3 CIG RAG SLP126=

CYQF;2005-10-16 17:00;METAR CYQF 161700Z 00000KT 5SM -RA BR BKN005 OVC015 02/01 A2983 RMK SF5SC3 CIG RAG SLP130=

CYQF;2005-10-16 17:25;SPECI CYQF 161725Z 00000KT 10SM -RA FEW005 OVC015 RMK SF2SC6=

CYQF;2005-10-16 18:00;METAR CYQF 161800Z 20002KT 15SM FEW006 OVC020 03/01 A2981 RMK SF2SC6 SLP129=

CYQF;2005-10-16 19:00;METAR CYQF 161900Z 20002KT 15SM BKN007 OVC020 04/01 A2982 RMK SF5SC3 CIG RAG SLP132=

CYQF;2005-10-16 19:50;SPECI CYQF 161950Z 17005KT 15SM BKN008 OVC020 RMK SF6SC2 CIG RAG=

CYQF;2005-10-16 20:00;METAR CYQF 162000Z 19005KT 15SM BKN008 OVC020 05/01 A2980 RMK SF6SC2 SLP126=

CYQF;2005-10-16 20:27;SPECI CYQF 162027Z 18008KT 15SM BKN013 OVC025 RMK SC6SC2=

CYQF;2005-10-16 21:00;METAR CYQF 162100Z 18005KT 15SM BKN013 OVC025 05/01 A2978 RMK SC6SC2 SLP117=

CYQF;2005-10-16 22:00;METAR CYQF 162200Z 18006KT 15SM BKN013 BKN025 06/01 A2976 RMK SC6SC2 SLP111=

CYQF;2005-10-16 23:00;METAR CYQF 162300Z 20007KT 15SM SCT015 BKN025 BKN100 06/01 A2976 RMK SC3SC2AC2 SLP110=

CYQF;2005-10-17 00:00;METAR CYQF 170000Z 18007KT 15SM FEW025 SCT100 BKN210 06/00 A2976 RMK SC2AC2CI1 SLP104=

CYQF;2005-10-17 01:00;METAR CYQF 170100Z 17003KT 15SM FEW030 SCT100 BKN210 03/M00 A2975 RMK SC1AC2CI1 SLP102=

CYQF;2005-10-17 02:00;METAR CYQF 170200Z 15003KT 15SM FEW100 SCT210 02/M01 A2975 RMK AC2CI1 SLP101=

CYQF;2005-10-17 03:00;METAR CYQF 170300Z 19006KT 15SM SCT100 BKN210 00/M02 A2974 RMK AC3CI1 SLP105=

CYQF;2005-10-17 04:00;METAR CYQF 170400Z 18004KT 15SM BKN100 BKN210 02/M01 A2971 RMK AC5CI1 SLP096=

CYQF;2005-10-17 05:00;METAR CYQF 170500Z 19008KT 15SM FEW100 BKN210 02/M01 A2968 RMK AC2CI2 SLP089=

CYQF;2005-10-17 06:00;METAR CYQF 170600Z 18010KT 15SM FEW100 BKN210 03/00 A2966 RMK AC2CI2 SLP075=

CYQF;2005-10-17 07:00;METAR CYQF 170700Z 18017KT 15SM OVC250 03/01 A2965 RMK CI8 SLP070=

CYQF;2005-10-17 08:00;METAR CYQF 170800Z 19005KT 15SM OVC250 03/00 A2964 RMK CI8 SLP068=

CYQF;2005-10-17 09:00;METAR CYQF 170900Z 17005KT 15SM SCT100 OVC250 03/01 A2962 RMK AC4CI4 SLP057=

CYQF;2005-10-17 10:00;METAR CYQF 171000Z 15003KT 15SM SCT100 BKN250 04/01 A2961 RMK AC4CI3 SLP056=

CYQF;2005-10-17 11:00;METAR CYQF 171100Z 20002KT 15SM SCT100 BKN250 03/01 A2962 RMK AC4CI3 SLP059=

CYQF;2005-10-17 12:00;METAR CYQF 171200Z 01007KT 15SM BKN100 BKN250 03/01 A2965 RMK AC6CI1 SLP067=

CYQF;2005-10-17 13:00;METAR CYQF 171300Z 19012KT 15SM BKN100 03/01 A2962 RMK AC7 SLP059=

CYQF;2005-10-17 14:00;METAR CYQF 171400Z 36009KT 15SM BKN100 05/01 A2963 RMK AC6 SLP061=

CYQF;2005-10-17 15:00;METAR CYQF 171500Z 28006KT 15SM SCT080 BKN120 03/01 A2966 RMK AC3AC2 SLP079=

CYQF;2005-10-17 16:00;METAR CYQF 171600Z 24005KT 15SM SCT080 BKN120 BKN250 05/02 A2967 RMK AC3AC2CI1 SLP082=

CYQF;2005-10-17 17:00;METAR CYQF 171700Z 22005KT 15SM FEW080 BKN150 09/03 A2969 RMK AC2AC4 SLP087=

CYQF;2005-10-17 18:00;METAR CYQF 171800Z 22003KT 15SM SCT080 BKN150 10/02 A2970 RMK AC3AC3 SLP081=

CYQF;2005-10-17 19:00;METAR CYQF 171900Z 22004KT 15SM SCT080 BKN150 BKN250 10/03 A2969 RMK AC4AC2CI1 SLP079=

CYQF;2005-10-17 20:00;METAR CYQF 172000Z 21002KT 15SM SCT080 BKN120 BKN250 11/03 A2969 RMK AC3AC2CI2 SLP077=

CYQF;2005-10-17 21:00;METAR CYQF 172100Z 00000KT 15SM SCT080 BKN120 BKN250 12/03 A2969 RMK AC3AC4CI1 ACC N SLP075=

CYQF;2005-10-17 22:00;METAR CYQF 172200Z 00000KT 15SM FEW050 BKN080 BKN120 11/03 A2969 RMK SC2AC4AC2 ACC N SLP076=

CYQF;2005-10-17 23:00;METAR CYQF 172300Z 20003KT 15SM FEW050 BKN080 BKN120 10/03 A2970 RMK SC2AC5AC1 SHS N SLP079=

CYQF;2005-10-18 00:00;METAR CYQF 180000Z 00000KT 15SM FEW050 BKN100 10/04 A2971 RMK SC2AC6 VIRGA SLP085=

CYQF;2005-10-18 01:00;METAR CYQF 180100Z 00000KT 15SM FEW050 BKN100 07/03 A2972 RMK SC2AC5 SLP088=

CYQF;2005-10-18 02:00;METAR CYQF 180200Z 00000KT 15SM FEW040 OVC080 07/03 A2973 RMK SC2AC6 SLP091=

CYQF;2005-10-18 03:00;METAR CYQF 180300Z 28004KT 15SM -SHRA SCT040 OVC080 11/M02 A2975 RMK SC3AC5 SLP097=

CYQF;2005-10-18 04:00;METAR CYQF 180400Z 27003KT 15SM -SHRA BKN045 OVC090 10/M00 A2977 RMK SC6AC2 SLP104=

CYQF;2005-10-18 05:00;METAR CYQF 180500Z 27005KT 15SM BKN050 OVC100 07/01 A2978 RMK SC6AC2 SLP106=

CYQF;2005-10-18 06:00;METAR CYQF 180600Z 28008KT 15SM FEW050 SCT100 BKN210 07/02 A2980 RMK SC2AC2CI1 SLP110=

CYQF;2005-10-18 07:00;METAR CYQF 180700Z 26008KT 15SM BKN250 06/01 A2982 RMK CI3 SLP117=

CYQF;2005-10-18 08:00;METAR CYQF 180800Z 28007KT 15SM FEW250 04/01 A2985 RMK CI1 SLP125=

CYQF;2005-10-18 09:00;METAR CYQF 180900Z 27005KT 15SM FEW250 02/M01 A2987 RMK CI1 SLP141=

CYQF;2005-10-18 10:00;METAR CYQF 181000Z 26007KT 15SM SKC 01/M02 A2989 RMK SLP147=

CYQF;2005-10-18 11:00;METAR CYQF 181100Z 19004KT 15SM SKC M01/M03 A2991 RMK SLP153=

CYQF;2005-10-18 13:00;METAR CYQF 181300Z 19002KT 15SM SKC M02/M04 A2994 RMK SLP170=

CYQF;2005-10-18 14:00;METAR CYQF 181400Z 20003KT 15SM MIFG FEW250 M03/M05 A2996 RMK CI1 SLP175=

CYQF;2005-10-18 15:00;METAR CYQF 181500Z 21004KT 15SM FEW250 M02/M04 A2996 RMK CI0 SLP177=

CYQF;2005-10-18 16:00;METAR CYQF 181600Z 18004KT 15SM FEW250 02/M01 A2997 RMK CI0 SLP180=

CYQF;2005-10-18 17:00;METAR CYQF 181700Z 19006KT 15SM FEW250 07/02 A2996 RMK CI0 SLP176=

CYQF;2005-10-18 18:00;METAR CYQF 181800Z 16010KT 15SM FEW250 10/00 A2995 RMK CI0 SLP161=

CYQF;2005-10-18 19:00;METAR CYQF 181900Z 19010KT 15SM FEW250 12/01 A2993 RMK CI0 SLP155=

CYQF;2005-10-18 20:00;METAR CYQF 182000Z 19015KT 15SM FEW250 13/02 A2990 RMK CI0 SLP147=

CYQF;2005-10-18 21:00;METAR CYQF 182100Z 18015G20KT 15SM SCT250 14/02 A2988 RMK CI1 SLP140=

CYQF;2005-10-18 22:00;METAR CYQF 182200Z 18012KT 15SM BKN250 14/01 A2986 RMK CI1 SLP136=

CYQF;2005-10-18 23:00;METAR CYQF 182300Z 17012KT 15SM BKN250 13/01 A2986 RMK CI2 SLP136=

CYQF;2005-10-19 00:00;METAR CYQF 190000Z 17007KT 15SM BKN250 11/01 A2985 RMK CI2 SLP139=

CYQF;2005-10-19 01:00;METAR CYQF 190100Z 15005KT 15SM BKN250 08/01 A2985 RMK CI3 SLP136=

CYQF;2005-10-19 02:00;METAR CYQF 190200Z 16006KT 15SM BKN250 06/01 A2984 RMK CI5 SLP133=

CYQF;2005-10-19 03:00;METAR CYQF 190300Z 16007KT 15SM BKN250 06/01 A2984 RMK CI6 SLP139=

CYQF;2005-10-19 04:00;METAR CYQF 190400Z 16005KT 15SM BKN250 05/01 A2983 RMK CI2 SLP138=

CYQF;2005-10-19 05:00;METAR CYQF 190500Z 14004KT 15SM BKN250 04/01 A2981 RMK CI3 SLP132=

CYQF;2005-10-19 07:00;METAR CYQF 190700Z 15006KT 15SM BKN250 02/M00 A2979 RMK CI3 SLP113=

CYQF;2005-10-19 08:00;METAR CYQF 190800Z 18005KT 15SM BKN250 00/M02 A2977 RMK CI3 SLP107=

CYQF;2005-10-19 09:00;METAR CYQF 190900Z 18003KT 15SM BKN250 M00/M02 A2976 RMK CI3 SLP100=

CYQF;2005-10-19 10:00;METAR CYQF 191000Z 16003KT 15SM BKN250 M00/M02 A2974 RMK CI2 SLP095=

CYQF;2005-10-19 11:00;METAR CYQF 191100Z 00000KT 15SM BKN250 M02/M04 A2973 RMK CI2 SLP091=

CYQF;2005-10-19 12:00;METAR CYQF 191200Z 15005KT 15SM FEW120 BKN250 M01/M03 A2970 RMK AC2CI2 SLP086=

CYQF;2005-10-19 13:00;METAR CYQF 191300Z 22004KT 15SM SCT120 BKN250 M02/M04 A2969 RMK AC3CI2 SLP083=

CYQF;2005-10-19 14:00;METAR CYQF 191400Z 00000KT 15SM SCT120 BKN250 M01/M03 A2968 RMK AC3CI2 SLP080=

CYQF;2005-10-19 15:00;METAR CYQF 191500Z 15002KT 15SM SCT120 BKN250 M00/M02 A2966 RMK AC4CI2 SLP077=

CYQF;2005-10-19 16:00;METAR CYQF 191600Z 21004KT 15SM SCT120 BKN250 01/M01 A2967 RMK AC4CI2 SLP079=

CYQF;2005-10-19 17:00;METAR CYQF 191700Z 16004KT 15SM SCT120 BKN250 03/M00 A2966 RMK AC4CI2 SLP074=

CYQF;2005-10-19 18:00;METAR CYQF 191800Z 18004KT 15SM SCT120 BKN250 06/02 A2964 RMK AC4CI2 SLP063=

CYQF;2005-10-19 19:00;METAR CYQF 191900Z 15003KT 15SM FEW090 BKN120 OVC250 08/03 A2963 RMK AC2AC3CI2 SLP061=

CYQF;2005-10-19 20:00;METAR CYQF 192000Z 15003KT 15SM FEW090 BKN120 OVC250 09/04 A2961 RMK AC2AC3CI2 SLP053=

CYQF;2005-10-19 21:00;METAR CYQF 192100Z 17002KT 15SM FEW090 BKN120 OVC250 11/03 A2960 RMK AC2AC3CI2 SLP049=

CYQF;2005-10-19 22:00;METAR CYQF 192200Z 09002KT 15SM FEW090 BKN120 OVC250 12/03 A2961 RMK AC2AC3CI2 SLP050=

CYQF;2005-10-19 23:00;METAR CYQF 192300Z 05004KT 15SM SCT080 BKN120 OVC250 12/04 A2961 RMK AC3AC2CI2 SLP051=

CYQF;2005-10-20 00:00;METAR CYQF 200000Z 35005KT 15SM SCT070 BKN120 OVC250 09/04 A2963 RMK AC4AC3CI1 VIRGA W-NW SLP062=

CYQF;2005-10-20 01:00;METAR CYQF 200100Z 35004KT 10SM OVC070 08/03 A2964 RMK AC8 BR SLP066=

CYQF;2005-10-20 02:00;METAR CYQF 200200Z 31010KT 15SM OVC070 08/01 A2969 RMK AC8 SLP080=

CYQF;2005-10-20 03:00;METAR CYQF 200300Z 34010G20KT 15SM OVC070 08/M02 A2971 RMK AC8 SLP092=

CYQF;2005-10-20 04:00;METAR CYQF 200400Z 34012G20KT 15SM BKN070 OVC100 07/M02 A2975 RMK AC6AC2 SLP103=

CYQF;2005-10-20 05:00;METAR CYQF 200500Z 34012G20KT 15SM -SHRA BKN045 OVC070 07/M01 A2978 RMK SC6AC2 SLP112=

CYQF;2005-10-20 06:00;METAR CYQF 200600Z 34010G15KT 15SM SCT045 OVC075 06/02 A2982 RMK SC4AC4 SLP123=

CYQF;2005-10-20 07:00;METAR CYQF 200700Z 33010G18KT 15SM FEW016 BKN030 OVC070 05/02 A2986 RMK SF2SC4AC2 SLP138=

CYQF;2005-10-20 08:00;METAR CYQF 200800Z 33012KT 15SM SCT030 BKN070 05/01 A2988 RMK SC3AC4 SLP144=

CYQF;2005-10-20 09:00;METAR CYQF 200900Z 30008KT 15SM FEW030 BKN070 05/02 A2991 RMK SC2AC5 SLP151=

CYQF;2005-10-20 10:00;METAR CYQF 201000Z 30008KT 15SM FEW030 OVC070 05/01 A2994 RMK SC2AC6 SLP158=

CYQF;2005-10-20 11:00;METAR CYQF 201100Z 31010G17KT 15SM FEW040 OVC080 05/M00 A2995 RMK SC2AC6 SLP164=

CYQF;2005-10-20 12:00;METAR CYQF 201200Z 32010G17KT 15SM SCT040 OVC080 05/M00 A2999 RMK SC3AC5 SLP181=

CYQF;2005-10-20 13:00;METAR CYQF 201300Z 30012KT 15SM FEW040 BKN080 04/M01 A3002 RMK SC2AC5 SLP190=

CYQF;2005-10-20 14:00;METAR CYQF 201400Z 31010KT 15SM BKN080 OVC220 03/M02 A3004 RMK AC6CI1 SLP195=

CYQF;2005-10-20 15:00;METAR CYQF 201500Z 31008KT 15SM BKN080 BKN220 03/M02 A3007 RMK AC5CI1 SLP211=

CYQF;2005-10-20 16:00;METAR CYQF 201600Z 32010KT 15SM BKN080 BKN220 03/M02 A3010 RMK AC6CI2 SLP220=

CYQF;2005-10-20 17:00;METAR CYQF 201700Z 31005KT 15SM FEW070 BKN100 BKN220 04/M02 A3012 RMK AC1AC5CI2 SLP227=

CYQF;2005-10-20 18:00;METAR CYQF 201800Z 32010KT 15SM FEW030 BKN100 BKN220 05/M03 A3014 RMK SC2AC5CI1 SLP236=

CYQF;2005-10-20 20:00;METAR CYQF 202000Z 32013KT 15SM FEW040 FEW090 07/M07 A3014 RMK SC1AC2 SLP237=

CYQF;2005-10-20 21:00;METAR CYQF 202100Z 31015KT 15SM FEW040 FEW090 07/M05 A3015 RMK SC2AC1 SLP239=

CYQF;2005-10-20 22:00;METAR CYQF 202200Z 32012KT 15SM FEW050 07/M06 A3016 RMK SC2 SLP242=

CYQF;2005-10-20 23:00;METAR CYQF 202300Z 28010KT 15SM FEW050 07/M05 A3017 RMK SC2 SLP245=

CYQF;2005-10-21 00:00;METAR CYQF 210000Z 27005KT 15SM FEW050 05/M05 A3018 RMK SC1 SLP252=

CYQF;2005-10-21 01:00;METAR CYQF 210100Z 26006KT 15SM SKC 01/M06 A3020 RMK SLP256=

CYQF;2005-10-21 02:00;METAR CYQF 210200Z 25006KT 15SM SKC M01/M06 A3022 RMK SLP262=

CYQF;2005-10-21 03:00;METAR CYQF 210300Z 26003KT 15SM SKC M02/M06 A3022 RMK SLP276=

CYQF;2005-10-21 04:00;METAR CYQF 210400Z 20003KT 15SM SKC M03/M07 A3024 RMK SLP281=

CYQF;2005-10-21 05:00;METAR CYQF 210500Z 20006KT 15SM SKC M03/M07 A3025 RMK SLP284=

CYQF;2005-10-21 06:00;METAR CYQF 210600Z 20005KT 15SM SKC M03/M06 A3025 RMK SLP286=

CYQF;2005-10-21 07:00;METAR CYQF 210700Z 20004KT 15SM SKC M04/M07 A3025 RMK SLP286=

CYQF;2005-10-21 08:00;METAR CYQF 210800Z 21004KT 15SM SKC M06/M08 A3026 RMK SLP287=

CYQF;2005-10-21 09:00;METAR CYQF 210900Z 20003KT 15SM SKC M05/M07 A3026 RMK SLP288=

CYQF;2005-10-21 10:00;METAR CYQF 211000Z 00000KT 15SM SKC M06/M08 A3026 RMK SLP288=

CYQF;2005-10-21 11:00;METAR CYQF 211100Z 20004KT 15SM SKC M07/M10 A3026 RMK SLP287=

CYQF;2005-10-21 12:00;METAR CYQF 211200Z 00000KT 15SM SKC M06/M09 A3026 RMK SLP291=

CYQF;2005-10-21 13:00;METAR CYQF 211300Z 00000KT 15SM SKC M08/M10 A3026 RMK FROIN SLP290=

CYQF;2005-10-21 14:00;METAR CYQF 211400Z 21003KT 15SM SKC M07/M10 A3025 RMK SLP289=

CYQF;2005-10-21 15:00;METAR CYQF 211500Z 19003KT 15SM SKC M07/M09 A3025 RMK SLP298=

CYQF;2005-10-21 16:00;METAR CYQF 211600Z 20005KT 15SM SKC M03/M06 A3026 RMK SLP300=

CYQF;2005-10-21 17:00;METAR CYQF 211700Z 25003KT 15SM SKC M00/M04 A3025 RMK SLP298=

CYQF;2005-10-21 18:00;METAR CYQF 211800Z 23003KT 15SM SKC 02/M03 A3025 RMK SLP288=

CYQF;2005-10-21 19:00;METAR CYQF 211900Z 22003KT 15SM FEW250 05/M03 A3024 RMK CI1 SLP283=

CYQF;2005-10-21 20:00;METAR CYQF 212000Z 00000KT 15SM FEW250 07/M03 A3022 RMK CI1 SLP279=

CYQF;2005-10-21 21:00;METAR CYQF 212100Z 00000KT 15SM FEW250 08/M02 A3020 RMK CI1 SLP266=

CYQF;2005-10-21 22:00;METAR CYQF 212200Z 00000KT 15SM FEW250 08/M04 A3020 RMK CI1 SLP265=

CYQF;2005-10-21 23:00;METAR CYQF 212300Z 00000KT 15SM FEW250 09/M05 A3019 RMK CI1 SLP263=

CYQF;2005-10-22 00:00;METAR CYQF 220000Z 00000KT 15SM FEW250 09/M05 A3019 RMK CI1 SLP263=

CYQF;2005-10-22 01:00;METAR CYQF 220100Z 00000KT 15SM FEW250 04/M06 A3019 RMK CI0 SLP262=

CYQF;2005-10-22 02:00;METAR CYQF 220200Z 09003KT 15SM SKC 01/M06 A3019 RMK SLP262=

CYQF;2005-10-22 03:00;METAR CYQF 220300Z 01003KT 15SM SKC M02/M08 A3020 RMK SLP279=

CYQF;2005-10-22 04:00;METAR CYQF 220400Z 04003KT 15SM SKC M02/M07 A3019 RMK SLP277=

CYQF;2005-10-22 05:00;METAR CYQF 220500Z 09002KT 15SM SKC M02/M08 A3017 RMK SLP272=

CYQF;2005-10-22 06:00;METAR CYQF 220600Z 17002KT 15SM SKC M03/M08 A3016 RMK SLP258=

CYQF;2005-10-22 08:00;METAR CYQF 220800Z 00000KT 15SM SKC M02/M06 A3015 RMK SLP254=

CYQF;2005-10-22 09:00;METAR CYQF 220900Z 15004KT 15SM SKC M01/M03 A3014 RMK SLP240=

CYQF;2005-10-22 10:00;METAR CYQF 221000Z 16006KT 15SM SKC M02/M04 A3013 RMK SLP237=

CYQF;2005-10-22 11:00;METAR CYQF 221100Z 16008KT 15SM SKC M01/M03 A3011 RMK SLP232=

CYQF;2005-10-22 12:00;METAR CYQF 221200Z 15010KT 15SM SKC M01/M03 A3011 RMK SLP229=

CYQF;2005-10-22 13:00;METAR CYQF 221300Z 16008KT 15SM SKC M02/M03 A3010 RMK SLP226=

CYQF;2005-10-22 14:00;METAR CYQF 221400Z 15005KT 3SM BR SKC M01/M03 A3009 RMK SLP223=

CYQF;2005-10-22 15:00;METAR CYQF 221500Z 16012KT 4SM BR BKN002 M00/M02 A3008 RMK SF2 SLP232=

CYQF;2005-10-22 15:40;SPECI CYQF 221540Z 16010KT 3SM BR BKN003 RMK SF5=

CYQF;2005-10-22 16:00;METAR CYQF 221600Z 17015KT 3SM BR BKN003 01/M00 A3010 RMK SF6 SLP236=

CYQF;2005-10-22 16:10;SPECI CYQF 221610Z 17013KT 3SM BR BKN003 RMK SF4=

CYQF;2005-10-22 17:00;METAR CYQF 221700Z 17015G23KT 4SM BR BKN003 02/M00 A3009 RMK SF6 SLP235=

CYQF;2005-10-22 17:15;SPECI CYQF 221715Z 17015KT 4SM BR BKN003 RMK SF3=

CYQF;2005-10-22 18:00;METAR CYQF 221800Z 17017G25KT 10SM SCT003 04/01 A3008 RMK SF1 BR SLP226=

CYQF;2005-10-22 19:00;METAR CYQF 221900Z 18020G27KT 15SM FEW003 06/01 A3006 RMK SF1 TR CLD SLP221=

CYQF;2005-10-22 20:00;METAR CYQF 222000Z 17015G25KT 15SM SKC 08/01 A3004 RMK SLP214=

CYQF;2005-10-22 21:00;METAR CYQF 222100Z 16017G25KT 15SM SKC 09/02 A3003 RMK SLP200=

CYQF;2005-10-22 22:00;METAR CYQF 222200Z 17016G22KT 15SM SKC 09/02 A3001 RMK SLP195=

CYQF;2005-10-22 23:00;METAR CYQF 222300Z 17017G27KT 15SM SKC 10/01 A3000 RMK SLP193=

CYQF;2005-10-23 00:00;METAR CYQF 230000Z 16012KT 15SM SKC 08/01 A3000 RMK SLP191=

CYQF;2005-10-23 01:00;METAR CYQF 230100Z 17013KT 15SM SKC 07/00 A2999 RMK SLP189=

CYQF;2005-10-23 02:00;METAR CYQF 230200Z 17012G18KT 15SM SKC 06/00 A2998 RMK SLP187=

CYQF;2005-10-23 03:00;METAR CYQF 230300Z 17014G20KT 15SM SKC 06/M00 A2997 RMK SLP183=

CYQF;2005-10-23 04:00;METAR CYQF 230400Z 17015G22KT 15SM SKC 05/M01 A2996 RMK SLP180=

CYQF;2005-10-23 05:00;METAR CYQF 230500Z 18015G22KT 15SM SKC 04/M01 A2994 RMK SLP174=

CYQF;2005-10-23 07:00;METAR CYQF 230700Z 18010KT 15SM SKC 02/M01 A2992 RMK SLP164=

CYQF;2005-10-23 08:00;METAR CYQF 230800Z 18008KT 15SM SKC 02/M01 A2991 RMK SLP159=

CYQF;2005-10-23 09:00;METAR CYQF 230900Z 18010KT 15SM SKC 01/M01 A2991 RMK SLP156=

CYQF;2005-10-23 10:00;METAR CYQF 231000Z 17004KT 15SM SKC 01/M01 A2990 RMK SLP153=

CYQF;2005-10-23 11:00;METAR CYQF 231100Z 18007KT 15SM SKC 01/M01 A2988 RMK SLP148=

CYQF;2005-10-23 12:00;METAR CYQF 231200Z 18005KT 15SM FEW210 00/M02 A2988 RMK CI1 SLP149=

CYQF;2005-10-23 13:00;METAR CYQF 231300Z 17005KT 15SM FEW110 SCT210 00/M01 A2988 RMK AC1CI1 SLP148=

CYQF;2005-10-23 14:00;METAR CYQF 231400Z 19004KT 15SM FEW110 SCT210 M00/M02 A2987 RMK AC1CI1 SLP146=

CYQF;2005-10-23 15:00;METAR CYQF 231500Z 00000KT 15SM FEW100 BKN250 00/M02 A2987 RMK AC1CI1 SLP150=

CYQF;2005-10-23 16:00;METAR CYQF 231600Z 18005KT 15SM FEW100 SCT250 02/M01 A2987 RMK AC1CI1 SLP149=

CYQF;2005-10-23 17:00;METAR CYQF 231700Z 18004KT 15SM SCT250 06/01 A2987 RMK CI1 SLP149=

CYQF;2005-10-23 18:00;METAR CYQF 231800Z 19002KT 15SM FEW100 SCT250 10/02 A2986 RMK AC1CI1 SLP136=

CYQF;2005-10-23 20:00;METAR CYQF 232000Z 16002KT 15SM FEW100 SCT250 17/04 A2985 RMK AC1CI1 SLP132=

CYQF;2005-10-23 21:00;METAR CYQF 232100Z 15003KT 15SM SCT250 18/05 A2985 RMK CI2 SLP125=

CYQF;2005-10-23 22:00;METAR CYQF 232200Z 15004KT 15SM FEW120 SCT250 18/04 A2984 RMK AC1CI2 SLP124=

CYQF;2005-10-23 23:00;METAR CYQF 232300Z 00000KT 15SM FEW120 BKN250 15/04 A2984 RMK AC1CI2 SLP123=

CYQF;2005-10-24 00:00;METAR CYQF 240000Z 10003KT 15SM FEW120 BKN250 12/04 A2984 RMK AC2CI1 SLP131=

CYQF;2005-10-24 01:00;METAR CYQF 240100Z 02003KT 15SM FEW120 BKN250 12/04 A2984 RMK AC2CI2 SLP130=

CYQF;2005-10-24 02:00;METAR CYQF 240200Z 03005KT 15SM BKN100 BKN250 10/04 A2984 RMK AC5CI2 SLP130=

CYQF;2005-10-24 03:00;METAR CYQF 240300Z 36005KT 15SM BKN090 BKN250 08/03 A2984 RMK AC5CI2 SLP135=

CYQF;2005-10-24 04:00;METAR CYQF 240400Z 36004KT 15SM BKN090 OVC250 06/02 A2983 RMK AC6CI2 SLP133=

CYQF;2005-10-24 05:00;METAR CYQF 240500Z 24003KT 15SM BKN090 OVC250 05/01 A2983 RMK AC5CI3 SLP133=

CYQF;2005-10-24 06:00;METAR CYQF 240600Z 23002KT 15SM SCT090 OVC250 04/01 A2985 RMK AC4CI4 SLP131=

CYQF;2005-10-24 07:00;METAR CYQF 240700Z 22003KT 15SM FEW090 BKN250 02/M01 A2985 RMK AC2CI3 SLP132=

CYQF;2005-10-24 08:00;METAR CYQF 240800Z 29003KT 15SM BKN230 01/M01 A2986 RMK CI6 SLP135=

CYQF;2005-10-24 09:00;METAR CYQF 240900Z 27004KT 15SM BKN230 01/M01 A2987 RMK CI4 SLP135=

CYQF;2005-10-24 10:00;METAR CYQF 241000Z 25004KT 15SM SCT230 00/M02 A2988 RMK CI2 SLP137=

CYQF;2005-10-24 11:00;METAR CYQF 241100Z 00000KT 15SM SKC M01/M02 A2989 RMK SLP140=

CYQF;2005-10-24 12:00;METAR CYQF 241200Z 18004KT 15SM SKC M01/M03 A2989 RMK SLP149=

CYQF;2005-10-24 13:00;METAR CYQF 241300Z 19006KT 15SM SKC M02/M04 A2988 RMK SLP147=

CYQF;2005-10-24 14:00;METAR CYQF 241400Z 24002KT 12SM FEW100 FEW250 M02/M04 A2989 RMK AC1CI0 BR SLP149=

CYQF;2005-10-24 15:00;METAR CYQF 241500Z 00000KT 10SM FEW100 M01/M03 A2992 RMK AC1 BR SLP163=

CYQF;2005-10-24 16:00;METAR CYQF 241600Z 00000KT 10SM FEW100 01/M01 A2994 RMK AC1 HZ SLP169=

CYQF;2005-10-24 17:00;METAR CYQF 241700Z 22003KT 12SM FEW120 06/02 A2994 RMK AC2 BR SLP170=

CYQF;2005-10-24 18:00;METAR CYQF 241800Z 23004KT 12SM FEW120 SCT270 09/04 A2996 RMK AC2CI1 SLP172=

CYQF;2005-10-24 19:00;METAR CYQF 241900Z 23003KT 15SM FEW120 12/04 A2997 RMK AC1 SLP175=

CYQF;2005-10-24 20:00;METAR CYQF 242000Z 00000KT 15SM FEW120 16/04 A2998 RMK AC1 SLP179=

CYQF;2005-10-24 21:00;METAR CYQF 242100Z 36004KT 15SM FEW250 18/03 A2998 RMK CI1 SLP172=

CYQF;2005-10-24 22:00;METAR CYQF 242200Z 08003KT 15SM FEW250 18/03 A2999 RMK CI0 SLP174=

CYQF;2005-10-24 23:00;METAR CYQF 242300Z 10004KT 15SM FEW250 16/04 A3001 RMK CI0 SLP180=

CYQF;2005-10-25 00:00;METAR CYQF 250000Z 10006KT 15SM FEW250 14/03 A3001 RMK CI0 SLP188=

CYQF;2005-10-25 01:00;METAR CYQF 250100Z 09002KT 15SM FEW250 10/02 A3002 RMK CI0 SLP190=

CYQF;2005-10-25 02:00;METAR CYQF 250200Z 12002KT 15SM SKC 06/M01 A3002 RMK SLP192=

CYQF;2005-10-25 03:00;METAR CYQF 250300Z 34002KT 15SM SKC 05/M01 A3003 RMK SLP204=

CYQF;2005-10-25 04:00;METAR CYQF 250400Z 16008KT 15SM SKC 04/M01 A3003 RMK SLP205=

CYQF;2005-10-25 05:00;METAR CYQF 250500Z 18006KT 15SM SKC 07/00 A3003 RMK SLP206=

CYQF;2005-10-25 06:00;METAR CYQF 250600Z 20006KT 15SM SKC 05/M00 A3003 RMK SLP192=

CYQF;2005-10-25 07:00;METAR CYQF 250700Z 19007KT 15SM SKC 04/M01 A3002 RMK SLP190=

CYQF;2005-10-25 08:00;METAR CYQF 250800Z 17004KT 15SM SKC 04/M01 A3001 RMK SLP188=

CYQF;2005-10-25 09:00;METAR CYQF 250900Z 18006KT 15SM SKC 06/01 A3001 RMK SLP175=

CYQF;2005-10-25 10:00;METAR CYQF 251000Z 20008KT 15SM SKC 07/01 A2999 RMK SLP169=

CYQF;2005-10-25 11:00;METAR CYQF 251100Z 19005KT 15SM SKC 04/M00 A2997 RMK SLP165=

CYQF;2005-10-25 12:00;METAR CYQF 251200Z 00000KT 15SM SKC 02/M02 A2996 RMK SLP167=

CYQF;2005-10-25 13:00;METAR CYQF 251300Z 00000KT 15SM SCT250 01/M02 A2995 RMK CI2 SLP164=

CYQF;2005-10-25 14:00;METAR CYQF 251400Z 18005KT 15SM BKN250 01/M01 A2993 RMK CI2 SLP159=

CYQF;2005-10-25 15:00;METAR CYQF 251500Z 16008KT 15SM FEW120 BKN250 02/M01 A2992 RMK AC1CI2 SLP165=

CYQF;2005-10-25 16:00;METAR CYQF 251600Z 18004KT 15SM FEW120 BKN250 05/01 A2991 RMK AC1CI2 SLP162=

CYQF;2005-10-25 17:00;METAR CYQF 251700Z 16006KT 15SM FEW120 FEW250 08/01 A2989 RMK AC1CI0 SLP155=

CYQF;2005-10-25 18:00;METAR CYQF 251800Z 17008KT 15SM FEW120 FEW250 14/03 A2986 RMK AC1CI0 SLP130=

CYQF;2005-10-25 19:00;METAR CYQF 251900Z 17010G18KT 15SM FEW120 FEW250 16/03 A2983 RMK AC1CI0 SLP121=

CYQF;2005-10-25 20:00;METAR CYQF 252000Z 18010G15KT 15SM FEW120 FEW250 18/04 A2981 RMK AC1CI0 SLP114=

CYQF;2005-10-25 21:00;METAR CYQF 252100Z 17010G16KT 15SM FEW250 18/04 A2978 RMK CI0 SLP097=

CYQF;2005-10-25 22:00;METAR CYQF 252200Z 17010G15KT 15SM FEW250 19/04 A2976 RMK CI1 TR CI SLP089=

CYQF;2005-10-25 23:00;METAR CYQF 252300Z 15012KT 15SM SKC 18/05 A2975 RMK SLP086=

CYQF;2005-10-26 00:00;METAR CYQF 260000Z 16012KT 15SM SKC 16/04 A2974 RMK SLP089=

CYQF;2005-10-26 01:00;METAR CYQF 260100Z 16014KT 15SM SKC 14/04 A2973 RMK SLP086=

CYQF;2005-10-26 02:00;METAR CYQF 260200Z 15012KT 15SM SKC 12/04 A2971 RMK SLP080=

CYQF;2005-10-26 03:00;METAR CYQF 260300Z 16013KT 15SM SKC 12/04 A2969 RMK SLP078=

CYQF;2005-10-26 04:00;METAR CYQF 260400Z 17014KT 15SM SKC 11/04 A2967 RMK SLP072=

CYQF;2005-10-26 05:00;METAR CYQF 260500Z 18009KT 15SM SKC 10/03 A2965 RMK SLP065=

CYQF;2005-10-26 06:00;METAR CYQF 260600Z 21007KT 15SM SKC 09/03 A2964 RMK SLP050=

CYQF;2005-10-26 07:00;METAR CYQF 260700Z 17008KT 15SM SKC 09/03 A2962 RMK SLP043=

CYQF;2005-10-26 08:00;METAR CYQF 260800Z 17007KT 15SM SKC 06/03 A2960 RMK SLP036=

CYQF;2005-10-26 09:00;METAR CYQF 260900Z 17010KT 15SM SKC 06/02 A2958 RMK SLP027=

CYQF;2005-10-26 10:00;METAR CYQF 261000Z 19008KT 15SM SKC 05/01 A2957 RMK SLP025=

CYQF;2005-10-26 11:00;METAR CYQF 261100Z 18008KT 15SM SKC 05/00 A2955 RMK SLP017=

CYQF;2005-10-26 12:00;METAR CYQF 261200Z 18008KT 15SM SKC 05/01 A2956 RMK SLP022=

CYQF;2005-10-26 13:00;METAR CYQF 261300Z 17008KT 15SM FEW120 BKN250 06/01 A2956 RMK AC1CI2 SLP021=

CYQF;2005-10-26 14:00;METAR CYQF 261400Z 18008KT 15SM FEW120 BKN250 07/01 A2956 RMK AC1CI2 SLP024=

CYQF;2005-10-26 15:00;METAR CYQF 261500Z 18009KT 15SM FEW120 BKN250 09/02 A2958 RMK AC2CI3 SLP032=

CYQF;2005-10-26 16:00;METAR CYQF 261600Z 18005KT 15SM SCT120 BKN250 10/02 A2961 RMK AC3CI2 SLP040=

CYQF;2005-10-26 17:00;METAR CYQF 261700Z 22005KT 15SM FEW120 BKN250 11/03 A2963 RMK AC2CI2 SLP046=

CYQF;2005-10-26 18:00;METAR CYQF 261800Z 29011KT 15SM SCT120 OVC250 15/02 A2967 RMK AC3CI3 SLP059=

CYQF;2005-10-26 19:00;METAR CYQF 261900Z 35010G16KT 15SM BKN120 OVC250 14/01 A2970 RMK AC5CI2 SLP069=

CYQF;2005-10-26 20:00;METAR CYQF 262000Z 01010KT 15SM FEW060 BKN120 OVC250 13/01 A2972 RMK SC2AC5CI2 SLP075=

CYQF;2005-10-26 21:00;METAR CYQF 262100Z 03012G20KT 15SM FEW060 BKN100 OVC250 11/01 A2975 RMK SC2AC4CI1 VIRGA W-N SLP094=

CYQF;2005-10-26 22:00;METAR CYQF 262200Z 02010G16KT 15SM SCT060 BKN100 OVC250 10/M02 A2979 RMK SC3AC4CI0 VIRGA SW-N SLP105=

CYQF;2005-10-26 23:00;METAR CYQF 262300Z 02010G18KT 15SM VCSH BKN060 BKN100 OVC250 09/M02 A2982 RMK SC5AC2CI1 VIRGA/SHS SW0N SLP115=

CYQF;2005-10-26 23:08;SPECI CYQF 262308Z 03010G16KT 15SM -SHRA BKN060 BKN100 OVC250 RMK SC6AC2CI1=

CYQF;2005-10-26 23:43;SPECI CYQF 262343Z 01010G15KT 15SM VCSH BKN060 OVC100 RMK SC6AC2=

CYQF;2005-10-27 00:00;METAR CYQF 270000Z 02010G15KT 15SM VCSH BKN060 BKN100 OVC250 06/M01 A2984 RMK SC6AC2CI1 SLP130=

CYQF;2005-10-27 01:00;METAR CYQF 270100Z 34005KT 15SM -SHRA BKN060 OVC100 05/02 A2986 RMK SC6AC2 SLP138=

CYQF;2005-10-27 02:00;METAR CYQF 270200Z 34008KT 15SM VCSH BKN040 OVC090 06/01 A2988 RMK SC6AC2 SLP143=

CYQF;2005-10-27 03:00;METAR CYQF 270300Z 00000KT 15SM VCSH OVC030 06/01 A2991 RMK SC8 SLP153=

CYQF;2005-10-27 04:00;METAR CYQF 270400Z 35007KT 15SM OVC040 06/M01 A2993 RMK SC8 SLP158=

CYQF;2005-10-27 06:00;METAR CYQF 270600Z 15008KT 15SM OVC035 05/M01 A2995 RMK SC8 SLP159=

CYQF;2005-10-27 07:00;METAR CYQF 270700Z 23005KT 15SM OVC035 04/M00 A2995 RMK SC8 SLP159=

CYQF;2005-10-27 07:23;SPECI CYQF 270723Z 22006KT 15SM -SHRA OVC035 RMK SC8=

CYQF;2005-10-27 08:00;METAR CYQF 270800Z 24005KT 15SM -SHRA OVC030 03/M00 A2997 RMK SC8 SLP165=

CYQF;2005-10-27 09:00;METAR CYQF 270900Z 25007KT 15SM OVC030 03/00 A2998 RMK SC8 SLP177=

CYQF;2005-10-27 10:00;METAR CYQF 271000Z 16005KT 15SM -SHRA BKN030 OVC075 03/00 A2998 RMK SC6AC2 SLP176=

CYQF;2005-10-27 11:00;METAR CYQF 271100Z 27005KT 10SM -SHRA FEW008 OVC030 03/00 A2999 RMK SF2SC6 SLP180=

CYQF;2005-10-27 12:00;METAR CYQF 271200Z 31005KT 15SM -RA OVC025 03/00 A2997 RMK SC8 SLP179=

CYQF;2005-10-27 12:37;SPECI CYQF 271237Z 33005KT 15SM BKN025 OVC050 RMK SC6SC2=

CYQF;2005-10-27 13:00;METAR CYQF 271300Z 32006KT 15SM BKN025 OVC050 03/M00 A2995 RMK SC5SC3 SLP174=

CYQF;2005-10-27 14:00;METAR CYQF 271400Z 29005KT 15SM SCT050 OVC100 03/M00 A2995 RMK SC3AC5 SLP174=

CYQF;2005-10-27 15:00;METAR CYQF 271500Z 21004KT 15SM SCT050 BKN100 OVC240 02/M00 A2996 RMK SC3AC4CI1 SLP178=

CYQF;2005-10-27 16:00;METAR CYQF 271600Z 00000KT 15SM BKN060 BKN100 OVC240 03/01 A2996 RMK SC6AC2CI1 SLP178=

CYQF;2005-10-27 17:00;METAR CYQF 271700Z 00000KT 15SM FEW060 BKN090 BKN240 04/01 A2995 RMK SC2AC3CI0 SLP174=

CYQF;2005-10-27 18:00;METAR CYQF 271800Z 00000KT 15SM FEW090 BKN240 07/02 A2994 RMK AC2CI2 SLP165=

CYQF;2005-10-27 19:00;METAR CYQF NIL=

CYQF;2005-10-27 20:00;METAR CYQF 272000Z 12004KT 15SM SCT090 BKN240 08/M07 A2990 RMK AC4CI2 SLP154=

CYQF;2005-10-27 21:00;METAR CYQF 272100Z 16006KT 15SM BKN090 OVC240 08/M07 A2989 RMK AC6CI1 SLP149=

CYQF;2005-10-27 22:00;METAR CYQF 272200Z 07007KT 15SM BKN090 OVC240 07/M06 A2988 RMK AC7CI1 SLP147=

CYQF;2005-10-27 23:00;METAR CYQF 272300Z 07006KT 15SM BKN090 OVC240 07/M06 A2987 RMK AC7CI1 SLP144=

CYQF;2005-10-28 00:00;METAR CYQF 280000Z 08005KT 15SM BKN090 BKN250 05/M07 A2987 RMK AC3CI0 SLP147=

CYQF;2005-10-28 01:00;METAR CYQF 280100Z 09004KT 15SM SCT090 BKN250 03/M06 A2987 RMK AC2CI0 SLP145=

CYQF;2005-10-28 02:00;METAR CYQF 280200Z 12003KT 15SM FEW090 02/M07 A2987 RMK AC2 SLP145=

CYQF;2005-10-28 03:00;METAR CYQF 280300Z 15004KT 15SM FEW090 M00/M06 A2988 RMK AC1 SLP155=

CYQF;2005-10-28 04:00;METAR CYQF 280400Z 15005KT 15SM SKC M01/M05 A2986 RMK SLP151=

CYQF;2005-10-28 05:00;METAR CYQF 280500Z 00000KT 15SM SKC M01/M03 A2985 RMK SLP146=

CYQF;2005-10-28 06:00;METAR CYQF 280600Z 18003KT 15SM SKC M04/M05 A2985 RMK SLP146=

CYQF;2005-10-28 06:14;SPECI CYQF 280614Z 20003KT 10SM BKN006 RMK SF6 BR=

CYQF;2005-10-28 06:40;SPECI CYQF 280640Z 15006KT 3SM BR OVC002 RMK SF8=

CYQF;2005-10-28 07:00;METAR CYQF 280700Z 15005KT 1 1/2SM BR VV002 M01/M02 A2984 RMK FG8 SLP141=

CYQF;2005-10-28 07:13;SPECI CYQF 280713Z 16006KT 3/4SM BR VV002 RMK FG8=

CYQF;2005-10-28 07:30;SPECI CYQF 280730Z 14009KT 1/2SM FZFG VV002 RMK FG8 FROIN=

CYQF;2005-10-28 08:00;METAR CYQF 280800Z 16008KT 1/2SM FZFG VV002 M01/M02 A2982 RMK FG8 FROIN SLP134=

CYQF;2005-10-28 09:00;METAR CYQF 280900Z 12005KT 3/4SM BR VV005 M01/M03 A2980 RMK FG8 FROIN SLP123=

CYQF;2005-10-28 10:00;METAR CYQF 281000Z 15006KT 3/4SM BR VV004 M01/M03 A2979 RMK FG8 FROIN SLP121=

CYQF;2005-10-28 11:00;METAR CYQF 281100Z 15004KT 1/2SM FZFG VV004 M01/M03 A2978 RMK FG8 RIME ON INDICATOR SLP116=

CYQF;2005-10-28 11:29;SPECI CYQF 281129Z 15005KT 1SM BR VV006 RMK FG8 RIME ON INDICATOR=

CYQF;2005-10-28 11:44;SPECI CYQF 281144Z 12004KT 1/2SM FZFG VV005 RMK FG8 RIME ON INDICATOR=

CYQF;2005-10-28 12:00;METAR CYQF 281200Z 16006KT 1/2SM FZFG VV004 M02/M03 A2977 RMK FG8 RIME ON INDICATOR SLP118=

CYQF;2005-10-28 13:00;METAR CYQF 281300Z 13006KT 1/2SM FZFG VV004 M02/M04 A2978 RMK FG8 RIME ON INDICATOR SLP119=

CYQF;2005-10-28 13:31;SPECI CYQF 281331Z 15009KT 3/4SM BR VV006 RMK FG8 RIME ON INDICATOR=

CYQF;2005-10-28 13:41;SPECI CYQF 281341Z 14009KT 1SM BR VV006 RMK FG8=

CYQF;2005-10-28 14:00;METAR CYQF 281400Z 14006KT 1SM BR VV006 M02/M04 A2977 RMK FG8 RIME ON INDICATOR SLP118=

CYQF;2005-10-28 14:25;SPECI CYQF 281425Z 18008KT 1SM BR VV003 RMK FG8=

CYQF;2005-10-28 14:31;SPECI CYQF 281431Z 15005KT 3/4SM BR VV003 RMK FG8=

CYQF;2005-10-28 15:00;METAR CYQF 281500Z 15011KT 1SM BR VV002 M02/M03 A2977 RMK FG8 SLP122=

CYQF;2005-10-28 15:33;SPECI CYQF 281533Z 17005KT 1SM BR OVC004 RMK FG6SF2=

CYQF;2005-10-28 16:00;METAR CYQF 281600Z 17007KT 1SM BR VV002 M01/M02 A2977 RMK FG8 SLP122=

CYQF;2005-10-28 17:00;METAR CYQF 281700Z 15007KT 3/4SM BR VV002 M01/M02 A2976 RMK FG8 SLP120=

CYQF;2005-10-28 17:35;SPECI CYQF 281735Z 16006KT 1SM BR VV002 RMK FG8=

CYQF;2005-10-28 18:00;METAR CYQF 281800Z 16007KT 1SM BR VV002 M01/M02 A2976 RMK FG8 SLP119=

CYQF;2005-10-28 18:38;SPECI CYQF 281838Z 15007KT 1 1/2SM BR VV003 RMK FG8=

CYQF;2005-10-28 19:00;METAR CYQF 281900Z 18008KT 2SM BR OVC006 M00/M01 A2974 RMK FG2SF6 CIG RAG SLP114=

CYQF;2005-10-28 19:40;SPECI CYQF 281940Z 14008KT 3SM BR BKN006 RMK FG1SF6 CIG RAG=

CYQF;2005-10-28 20:00;METAR CYQF 282000Z 17008KT 6SM BR BKN006 02/M01 A2972 RMK SF6 CIG RAG SLP108=

CYQF;2005-10-28 20:34;SPECI CYQF 282034Z 15004KT 8SM SCT006 BKN100 BKN250 RMK SF3AC2CI1 BR=

CYQF;2005-10-28 21:00;METAR CYQF 282100Z 18008KT 6SM BR SCT006 BKN100 BKN250 02/M01 A2970 RMK SF3AC2CI1 SLP096=

CYQF;2005-10-28 22:00;METAR CYQF 282200Z 14005KT 8SM FEW006 BKN090 BKN250 02/M01 A2969 RMK SF1AC5CI2 HZ SLP092=

CYQF;2005-10-29 00:00;METAR CYQF 290000Z 14002KT 15SM FEW090 SCT250 03/M00 A2968 RMK AC2CI1 HZ SLP088=

CYQF;2005-10-29 01:00;METAR CYQF 290100Z 00000KT 15SM FEW090 FEW250 00/M02 A2968 RMK AC1CI0 SLP089=

CYQF;2005-10-29 02:00;METAR CYQF 290200Z 00000KT 15SM FEW250 M00/M02 A2967 RMK CI0 SLP086=

CYQF;2005-10-29 03:00;METAR CYQF 290300Z 18002KT 15SM FEW090 SCT250 M02/M04 A2967 RMK AC2CI1 SLP091=

CYQF;2005-10-29 04:00;METAR CYQF 290400Z 20005KT 15SM FEW090 SCT250 M04/M06 A2968 RMK AC2CI1 SLP092=

CYQF;2005-10-29 05:00;METAR CYQF 290500Z 00000KT 15SM FEW090 BKN250 M02/M04 A2969 RMK AC2CI2 SLP096=

CYQF;2005-10-29 06:00;METAR CYQF 290600Z 00000KT 15SM FEW090 FEW250 M04/M06 A2969 RMK AC1CI0 SLP099=

CYQF;2005-10-29 07:00;METAR CYQF 290700Z 22002KT 15SM FEW250 M04/M06 A2971 RMK CI0 FROIN SLP103=

CYQF;2005-10-29 08:00;METAR CYQF 290800Z 18003KT 15SM SKC M04/M06 A2972 RMK FROIN SLP107=

CYQF;2005-10-29 09:00;METAR CYQF 290900Z 18005KT 15SM SKC M06/M08 A2975 RMK FROIN SLP117=

CYQF;2005-10-29 10:00;METAR CYQF 291000Z 22002KT 15SM SKC M04/M07 A2975 RMK FROIN SLP119=

CYQF;2005-10-29 12:00;METAR CYQF 291200Z 21004KT 15SM SKC M08/M10 A2977 RMK SLP126=

CYQF;2005-10-29 13:00;METAR CYQF 291300Z 23004KT 15SM SKC M07/M10 A2979 RMK FROIN SLP131=

CYQF;2005-10-29 14:00;METAR CYQF 291400Z 09003KT 15SM FEW250 M07/M09 A2979 RMK CI0 FROIN SLP133=

CYQF;2005-10-29 15:00;METAR CYQF 291500Z 14002KT 15SM FEW250 M07/M09 A2981 RMK CI0 SLP143=

CYQF;2005-10-29 16:00;METAR CYQF 291600Z 00000KT 15SM FEW100 BKN250 M03/M06 A2982 RMK AC1CI1 SLP147=

CYQF;2005-10-29 17:00;METAR CYQF 291700Z 14002KT 15SM BKN100 BKN250 M01/M04 A2983 RMK AC6CI1 SLP149=

CYQF;2005-10-29 18:00;METAR CYQF 291800Z 19005KT 15SM FEW100 BKN250 04/M01 A2983 RMK AC2CI2 SLP140=

CYQF;2005-10-29 19:00;METAR CYQF 291900Z 26005KT 15SM FEW100 BKN250 08/M01 A2984 RMK AC1CI2 SLP142=

CYQF;2005-10-29 20:00;METAR CYQF 292000Z 24004KT 15SM FEW100 BKN250 09/M01 A2984 RMK AC1CI2 SLP142=

CYQF;2005-10-29 21:00;METAR CYQF 292100Z 28006KT 15SM FEW100 BKN250 10/M02 A2984 RMK AC2CI1 SLP139=

CYQF;2005-10-29 22:00;METAR CYQF 292200Z 33003KT 15SM FEW050 FEW100 BKN250 09/M03 A2985 RMK CU1AC1CI1 SLP142=

CYQF;2005-10-29 23:00;METAR CYQF 292300Z 21002KT 15SM FEW050 FEW100 BKN250 07/M04 A2986 RMK CU1AC1CI1 SLP147=

CYQF;2005-10-30 00:00;METAR CYQF 300000Z 00000KT 15SM FEW100 SCT250 06/M05 A2987 RMK AC1CI1 SLP159=

CYQF;2005-10-30 01:00;METAR CYQF 300100Z 20004KT 15SM FEW100 BKN250 01/M06 A2988 RMK AC2CI2 SLP160=

CYQF;2005-10-30 02:00;METAR CYQF 300200Z 19004KT 15SM FEW100 BKN250 M01/M06 A2989 RMK AC2CI2 SLP164=

CYQF;2005-10-30 03:00;METAR CYQF 300300Z 22002KT 15SM FEW100 BKN250 M02/M06 A2990 RMK AC2CI2 SLP176=

CYQF;2005-10-30 04:00;METAR CYQF 300400Z 00000KT 15SM FEW100 BKN250 M02/M07 A2991 RMK AC2CI1 SLP178=

CYQF;2005-10-30 05:00;METAR CYQF 300500Z 18002KT 15SM BKN080 BKN250 M03/M07 A2992 RMK AC5CI1 SLP180=

CYQF;2005-10-30 06:00;METAR CYQF 300600Z 21003KT 15SM BKN080 BKN250 M03/M07 A2994 RMK AC5CI1 SLP176=

CYQF;2005-10-30 07:00;METAR CYQF 300700Z 30010KT 15SM FEW080 SCT250 M02/M06 A2995 RMK AC2CI1 SLP182=

CYQF;2005-10-30 08:00;METAR CYQF 300800Z 35007KT 15SM FEW080 SCT250 M00/M06 A2997 RMK AC2CI1 SLP188=

CYQF;2005-10-30 09:00;METAR CYQF 300900Z 30006KT 15SM FEW080 SCT250 M01/M05 A3000 RMK AC2CI1 SLP190=

CYQF;2005-10-30 10:00;METAR CYQF 301000Z 36004KT 15SM FEW080 SCT250 M02/M06 A3003 RMK AC2CI1 SLP197=

CYQF;2005-10-30 11:00;METAR CYQF 301100Z 18004KT 15SM FEW090 FEW250 M04/M07 A3005 RMK AC2CI0 SLP203=

CYQF;2005-10-30 12:00;METAR CYQF 301200Z 27005KT 15SM FEW090 FEW250 M06/M09 A3006 RMK AC2CI0 SLP222=

CYQF;2005-10-30 13:00;METAR CYQF 301300Z 22008KT 15SM FEW090 BKN250 M03/M06 A3008 RMK AC2CI2 SLP228=

CYQF;2005-10-30 14:00;METAR CYQF 301400Z 22006KT 15SM SCT050 BKN090 BKN250 M02/M06 A3009 RMK SC3AC2CI1 SLP231=

CYQF;2005-10-30 14:16;SPECI CYQF 301416Z 18002KT 15SM -SG SCT050 BKN090 BKN250 RMK SC3AC2CI1=

CYQF;2005-10-30 14:42;SPECI CYQF 301442Z 19004KT 15SM SCT050 SCT090 BKN250 RMK SC3AC1CI0=

CYQF;2005-10-30 15:00;METAR CYQF 301500Z 22002KT 15SM FEW050 SCT250 M03/M06 A3012 RMK SC2CI0 SLP246=

CYQF;2005-10-30 16:00;METAR CYQF 301600Z 24004KT 15SM FEW050 FEW250 M01/M05 A3013 RMK SC1CI0 SLP250=

CYQF;2005-10-30 17:00;METAR CYQF 301700Z 21004KT 15SM FEW050 03/M04 A3013 RMK CU1 SLP249=

CYQF;2005-10-30 18:00;METAR CYQF 301800Z 23006KT 15SM FEW120 07/M04 A3013 RMK AC1 SLP242=

CYQF;2005-10-30 19:00;METAR CYQF 301900Z 24004KT 15SM FEW060 FEW120 08/M05 A3013 RMK SC1AC1 SLP240=

CYQF;2005-10-30 20:00;METAR CYQF 302000Z 26008KT 15SM FEW060 09/M07 A3012 RMK SC1 SLP237=

CYQF;2005-10-30 21:00;METAR CYQF 302100Z 32011KT 15SM FEW060 FEW270 08/M11 A3011 RMK SC1CI1 SLP229=

CYQF;2005-10-30 22:00;METAR CYQF 302200Z 33003KT 15SM FEW060 FEW270 09/M11 A3011 RMK SC1CI1 SLP229=

CYQF;2005-10-30 23:00;METAR CYQF 302300Z 00000KT 15SM FEW060 FEW270 08/M11 A3011 RMK CU1CI2 SLP229=

CYQF;2005-10-31 00:00;METAR CYQF 310000Z 13002KT 15SM FEW270 07/M11 A3010 RMK CI2 SLP234=

CYQF;2005-10-31 01:00;METAR CYQF 310100Z 16002KT 15SM FEW270 02/M11 A3010 RMK CI1 SLP232=

CYQF;2005-10-31 02:00;METAR CYQF 310200Z 19005KT 15SM FEW270 M03/M11 A3010 RMK CI0 SLP233=

CYQF;2005-10-31 04:00;METAR CYQF 310400Z 20006KT 15SM SKC M04/M10 A3009 RMK SLP238=

CYQF;2005-10-31 05:00;METAR CYQF 310500Z 21006KT 15SM SKC M05/M11 A3009 RMK SLP239=

CYQF;2005-10-31 06:00;METAR CYQF 310600Z 19004KT 15SM SKC M05/M10 A3007 RMK SLP223=

CYQF;2005-10-31 07:00;METAR CYQF 310700Z 20004KT 15SM SKC M06/M10 A3006 RMK SLP219=

CYQF;2005-10-31 08:00;METAR CYQF 310800Z 18005KT 15SM SKC M05/M10 A3005 RMK SLP214=

CYQF;2005-10-31 09:00;METAR CYQF 310900Z 20005KT 15SM SKC M07/M11 A3002 RMK SLP205=

CYQF;2005-10-31 10:00;METAR CYQF 311000Z 18006KT 15SM SKC M06/M10 A2999 RMK SLP196=

CYQF;2005-10-31 11:00;METAR CYQF 311100Z 19006KT 15SM SKC M06/M10 A2995 RMK SLP183=

CYQF;2005-10-31 12:00;METAR CYQF 311200Z 00000KT 15SM FEW120 BKN250 M04/M08 A2989 RMK AC2CI2 SLP158=

CYQF;2005-10-31 13:00;METAR CYQF 311300Z 18004KT 15SM SCT120 OVC250 M03/M07 A2984 RMK AC3CI2 SLP143=

CYQF;2005-10-31 14:00;METAR CYQF 311400Z 17005KT 15SM BKN120 OVC250 M00/M05 A2979 RMK AC5CI2 SLP128=

CYQF;2005-10-31 15:00;METAR CYQF 311500Z 21007KT 15SM FEW060 BKN120 OVC250 01/M04 A2976 RMK SC2AC4CI2 SLP118=

CYQF;2005-10-31 16:00;METAR CYQF 311600Z 17003KT 15SM SCT025 BKN100 BKN250 04/M05 A2972 RMK SC3AC3CI1 SLP106=

CYQF;2005-10-31 17:00;METAR CYQF 311700Z 17011KT 15SM SCT100 BKN250 04/M04 A2967 RMK AC3CI3 SLP091=

CYQF;2005-10-31 18:00;METAR CYQF 311800Z 21014KT 15SM FEW100 SCT250 09/M03 A2964 RMK AC2CI1 SLP071=

CYQF;2005-10-31 19:00;METAR CYQF 311900Z 22011KT 15SM FEW050 FEW100 SCT250 11/M03 A2962 RMK CU1AC1CI1 SLP064=

CYQF;2005-10-31 20:00;METAR CYQF 312000Z 25009KT 15SM FEW050 FEW100 BKN250 12/M04 A2961 RMK CU1AC2CI3 SLP062=

CYQF;2005-10-31 21:00;METAR CYQF 312100Z 29015KT 15SM FEW050 FEW100 FEW250 13/M05 A2961 RMK CU1AC1CI1 SLP059=

CYQF;2005-10-31 22:00;METAR CYQF 312200Z 28017G24KT 15SM FEW050 BKN080 BKN250 14/M06 A2962 RMK CU1AC5CI2 VIRGA SLP062=

CYQF;2005-10-31 22:28;SPECI CYQF 312228Z 36018G26KT 15SM -SHRA BKN012 BKN080 BKN250 RMK SC6AC1CI1=

CYQF;2005-10-31 23:00;METAR CYQF 312300Z 36011KT 15SM FEW012 SCT080 BKN250 08/M03 A2970 RMK SC2AC1CI0 VIRGA WND G38 PST HR PRESRR SLP085=

CYQF;2005-11-01 00:00;METAR CYQF 010000Z 35004KT 15SM SCT025 BKN080 BKN250 07/M04 A2973 RMK SC4AC1CI1 SLP101=

CYQF;2005-11-01 01:00;METAR CYQF 010100Z 00000KT 15SM SCT070 04/M04 A2974 RMK AC3 SLP106=

CYQF;2005-11-01 02:00;METAR CYQF 010200Z 00000KT 15SM FEW070 03/M04 A2978 RMK AC2 SLP118=

CYQF;2005-11-01 03:00;METAR CYQF 010300Z 00000KT 15SM FEW070 00/M05 A2980 RMK AC2 SLP129=

CYQF;2005-11-01 04:00;METAR CYQF 010400Z 27003KT 15SM SCT100 M01/M07 A2982 RMK AC3 SLP136=

CYQF;2005-11-01 05:00;METAR CYQF 010500Z 19003KT 15SM FEW100 M05/M09 A2985 RMK AC2 SLP143=

CYQF;2005-11-01 06:00;METAR CYQF 010600Z 20004KT 15SM SCT100 M03/M07 A2987 RMK AC4 SLP148=

CYQF;2005-11-01 07:00;METAR CYQF 010700Z 30003KT 15SM FEW100 M04/M07 A2989 RMK AC2 SLP154=

CYQF;2005-11-01 08:00;METAR CYQF 010800Z 19005KT 15SM FEW100 SCT250 04/M07 A2990 RMK AC1CI1 SLP157=

CYQF;2005-11-01 09:00;METAR CYQF 010900Z 34004KT 15SM FEW100 SCT250 M04/M08 A2990 RMK AC2CI1 SLP155=

CYQF;2005-11-01 10:00;METAR CYQF 011000Z 27003KT 15SM FEW100 SCT250 M03/M06 A2990 RMK AC2CI1 SLP154=

CYQF;2005-11-01 11:00;METAR CYQF 011100Z 23004KT 15SM FEW100 SCT250 M04/M07 A2989 RMK AC1CI1 SLP152=

CYQF;2005-11-01 12:00;METAR CYQF 011200Z 19005KT 15SM FEW100 BKN250 M04/M07 A2989 RMK AC2CI2 SLP157=

CYQF;2005-11-01 13:00;METAR CYQF 011300Z 00000KT 15SM FEW100 BKN250 M04/M07 A2988 RMK AC2CI2 SLP154=

CYQF;2005-11-01 14:00;METAR CYQF 011400Z 00000KT 15SM FEW100 BKN250 M03/M06 A2986 RMK AC2CI2 SLP149=

CYQF;2005-11-01 15:00;METAR CYQF 011500Z 00000KT 15SM FEW100 BKN250 M04/M07 A2987 RMK AC2CI2 SLP159=

CYQF;2005-11-01 19:00;METAR CYQF 011900Z 14010KT 15SM FEW100 OVC250 04/M03 A2979 RMK AC2CI5 SLP127=

CYQF;2005-11-01 20:00;METAR CYQF 012000Z 13010KT 15SM BKN100 OVC250 05/M03 A2974 RMK AC6CI2 SLP111=

CYQF;2005-11-01 21:00;METAR CYQF 012100Z 15010G15KT 15SM BKN100 OVC250 05/M03 A2971 RMK AC7CI1 SLP099=

CYQF;2005-11-01 22:00;METAR CYQF 012200Z 15009KT 15SM BKN100 OVC250 05/M03 A2968 RMK AC7CI1 SLP088=

CYQF;2005-11-01 23:00;METAR CYQF 012300Z 15005KT 15SM OVC100 05/M03 A2966 RMK AC8 SLP083=

CYQF;2005-11-02 00:00;METAR CYQF 020000Z 15008KT 15SM OVC100 05/M04 A2963 RMK AC8 VIRGA SLP071=

CYQF;2005-11-02 01:00;METAR CYQF 020100Z 15010KT 15SM OVC100 04/M04 A2959 RMK AC8 SLP059=

CYQF;2005-11-02 02:00;METAR CYQF 020200Z 14007KT 15SM -SN BKN040 OVC080 04/M04 A2959 RMK SC5AC3 SLP059=

CYQF;2005-11-02 02:17;SPECI CYQF 020217Z 13003KT 12SM -RASN BKN040 OVC080 RMK SC5AC3=

CYQF;2005-11-02 02:41;SPECI CYQF 020241Z 11005KT 12SM -RA BKN020 OVC080 RMK SC5AC3=

CYQF;2005-11-02 03:00;METAR CYQF 020300Z 00000KT 15SM -RA BKN025 OVC080 03/M01 A2958 RMK SC5AC3 SLP054=

CYQF;2005-11-02 03:29;SPECI CYQF 020329Z 03003KT 8SM -SHSN OVC017 RMK SC8=

CYQF;2005-11-02 04:00;METAR CYQF 020400Z 04003KT 6SM -SHSN OVC020 01/M01 A2957 RMK SC8 SLP052=

CYQF;2005-11-02 05:00;METAR CYQF 020500Z 36003KT 5SM -SN VV009 01/M01 A2958 RMK SN8 SLP056=

CYQF;2005-11-02 05:20;SPECI CYQF 020520Z 01003KT 2 1/2SM -SN VV007 RMK SN8=

CYQF;2005-11-02 05:45;SPECI CYQF 020545Z 36003KT 1SM -SN VV006 RMK SN8=

CYQF;2005-11-02 06:00;METAR CYQF 020600Z 35003KT 3/4SM -SN VV008 00/M01 A2960 RMK SN8 SLP058=

CYQF;2005-11-02 07:00;METAR CYQF 020700Z 35003KT 1SM -SN VV007 00/M01 A2961 RMK SN8 SLP061=

CYQF;2005-11-02 08:00;METAR CYQF 020800Z 34003KT 1SM -SN VV012 00/M01 A2964 RMK SN8 SLP069=

CYQF;2005-11-02 09:00;METAR CYQF 020900Z 30003KT 1SM -SN VV010 00/M01 A2966 RMK SN8 SLP075=

CYQF;2005-11-02 10:00;METAR CYQF 021000Z 00000KT 2SM -SN VV015 00/M01 A2968 RMK SN8 SLP081=

CYQF;2005-11-02 11:00;METAR CYQF 021100Z 00000KT 3SM -SN SCT008 OVC020 00/M01 A2968 RMK SF4SC4 SLP082=

CYQF;2005-11-02 12:00;METAR CYQF 021200Z 00000KT 1SM BR VV008 00/M01 A2970 RMK FG8 SLP089=

CYQF;2005-11-02 12:14;SPECI CYQF 021214Z 00000KT 1/8SM FG VV003 RMK FG8=

CYQF;2005-11-02 13:00;METAR CYQF 021300Z 23003KT 1/4SM FZFG VV003 M00/M02 A2971 RMK FG8 SLP094=

CYQF;2005-11-02 14:00;METAR CYQF 021400Z 00000KT 1/8SM FZFG VV002 M01/M02 A2974 RMK FG8 SLP101=

CYQF;2005-11-02 15:00;METAR CYQF 021500Z 20004KT 1/8SM FZFG VV002 M03/M04 A2975 RMK FG8 SLP112=

CYQF;2005-11-02 16:00;METAR CYQF 021600Z 00000KT 1/4SM FZFG VV003 M03/M05 A2976 RMK FG8 SLP116=

CYQF;2005-11-02 16:18;SPECI CYQF 021618Z 00000KT 1/8SM FZFG OVC008 RMK FG7SF1=

CYQF;2005-11-02 17:00;METAR CYQF 021700Z 25003KT 1/4SM FZFG SKC M04/M06 A2977 RMK FG7 SLP118=

CYQF;2005-11-02 17:44;SPECI CYQF 021744Z 18002KT 4SM PRFG SKC RMK FG4 VIS W-3/4 N-1 1/2=

CYQF;2005-11-02 18:00;METAR CYQF 021800Z 18002KT 10SM BCFG FEW100 M03/M04 A2977 RMK AC1 FG BANK W-N VIS W-N 2 SLP122=

CYQF;2005-11-02 19:00;METAR CYQF 021900Z 18004KT 10SM VCFG FEW100 M01/M02 A2977 RMK AC1 BR FG BANK N VIS N 5 SLP122=

CYQF;2005-11-02 20:00;METAR CYQF 022000Z 18005KT 12SM FEW100 01/M01 A2975 RMK AC1 SLP116=

CYQF;2005-11-02 21:00;METAR CYQF 022100Z 17006KT 12SM FEW100 01/M02 A2974 RMK AC1 SLP106=

CYQF;2005-11-02 22:00;METAR CYQF 022200Z 15006KT 15SM FEW100 01/M02 A2973 RMK AC1 SLP103=

CYQF;2005-11-02 23:00;METAR CYQF 022300Z 16005KT 15SM FEW100 01/M02 A2972 RMK AC1 SLP100=

CYQF;2005-11-03 00:00;METAR CYQF 030000Z 18005KT 15SM FEW100 M01/M03 A2971 RMK AC1 SLP100=

CYQF;2005-11-03 01:00;METAR CYQF 030100Z 17008KT 15SM FEW100 M02/M04 A2970 RMK AC1 SLP098=

CYQF;2005-11-03 02:00;METAR CYQF 030200Z 00000KT 15SM FEW100 M03/M05 A2970 RMK AC1 SLP096=

CYQF;2005-11-03 03:00;METAR CYQF 030300Z 00000KT 15SM FEW100 SCT250 M03/M05 A2969 RMK AC1CI0 SLP099=

CYQF;2005-11-03 04:00;METAR CYQF 030400Z 17006KT 15SM FEW100 M04/M06 A2968 RMK AC1 SLP097=

CYQF;2005-11-03 05:00;METAR CYQF 030500Z 16004KT 15SM FEW100 SCT250 M04/M07 A2968 RMK AC1CI1 SLP095=

CYQF;2005-11-03 06:00;METAR CYQF 030600Z 16004KT 15SM FEW100 BKN250 05/M07 A2967 RMK AC1CI2 SLP082=

CYQF;2005-11-03 07:00;METAR CYQF 030700Z 19004KT 15SM FEW100 M06/M08 A2966 RMK AC1 SLP080=

CYQF;2005-11-03 08:00;METAR CYQF 030800Z 18003KT 15SM FEW100 M07/M09 A2966 RMK AC1 SLP079=

CYQF;2005-11-03 09:00;METAR CYQF 030900Z 16003KT 15SM FEW250 M07/M09 A2965 RMK CI1 SLP084=

CYQF;2005-11-03 10:00;METAR CYQF 031000Z 19004KT 15SM FEW250 M08/M11 A2964 RMK CI1 SLP082=

CYQF;2005-11-03 11:00;METAR CYQF 031100Z 18003KT 15SM FEW250 M09/M11 A2964 RMK CI1 SLP081=

CYQF;2005-11-03 12:00;METAR CYQF 031200Z 16002KT 15SM FEW250 M10/M12 A2963 RMK CI1 SLP083=

CYQF;2005-11-03 13:00;METAR CYQF 031300Z 00000KT 15SM FEW250 M11/M13 A2963 RMK CI1 SLP082=

CYQF;2005-11-03 14:00;METAR CYQF 031400Z 19003KT 15SM SCT250 M11/M13 A2963 RMK CI2 SLP082=

CYQF;2005-11-03 15:00;METAR CYQF 031500Z 24004KT 15SM FEW100 BKN250 M11/M13 A2962 RMK AC1CI2 SLP084=

CYQF;2005-11-03 16:00;METAR CYQF 031600Z 19002KT 15SM SCT120 BKN250 M08/M11 A2962 RMK AC3CI2 SLP084=

CYQF;2005-11-03 17:00;METAR CYQF 031700Z 18004KT 15SM FEW150 BKN250 M06/M10 A2961 RMK AC2CI1 SLP081=

CYQF;2005-11-03 18:00;METAR CYQF 031800Z 20004KT 15SM FEW150 SCT250 M03/M07 A2960 RMK AC1CI1 SLP058=

CYQF;2005-11-03 19:00;METAR CYQF 031900Z 16002KT 15SM SCT250 M01/M06 A2958 RMK CI2 SLP052=

CYQF;2005-11-03 20:00;METAR CYQF 032000Z 14004KT 15SM BKN250 01/M05 A2955 RMK CI2 SLP044=

CYQF;2005-11-03 21:00;METAR CYQF 032100Z 14005KT 15SM FEW100 BKN250 01/M04 A2953 RMK AC1CI2 SLP041=

CYQF;2005-11-03 22:00;METAR CYQF 032200Z 15008KT 15SM FEW100 BKN250 01/M04 A2950 RMK AC2CI1 SLP034=

CYQF;2005-11-04 00:00;METAR CYQF 040000Z 15005KT 15SM FEW100 FEW250 M01/M04 A2948 RMK AC1CI0 SLP030=

CYQF;2005-11-04 01:00;METAR CYQF 040100Z 17007KT 15SM FEW100 FEW250 M02/M06 A2947 RMK AC1CI0 SLP027=

CYQF;2005-11-04 02:00;METAR CYQF 040200Z 16009KT 15SM SKC M03/M06 A2945 RMK SLP020=

CYQF;2005-11-04 03:00;METAR CYQF 040300Z 16006KT 15SM SKC M03/M06 A2942 RMK SLP014=

CYQF;2005-11-04 04:00;METAR CYQF 040400Z 14005KT 15SM SKC M04/M07 A2940 RMK SLP009=

CYQF;2005-11-04 05:00;METAR CYQF 040500Z 17003KT 15SM SKC M05/M08 A2939 RMK SLP005=

CYQF;2005-11-04 06:00;METAR CYQF 040600Z 00000KT 15SM BKN250 M05/M08 A2937 RMK CI3 SLP992=

CYQF;2005-11-04 07:00;METAR CYQF 040700Z 00000KT 15SM BKN250 M05/M08 A2936 RMK CI6 FROIN SLP986=

CYQF;2005-11-04 08:00;METAR CYQF 040800Z 00000KT 15SM BKN250 M06/M09 A2934 RMK CI4 SLP981=

CYQF;2005-11-04 09:00;METAR CYQF 040900Z 00000KT 15SM BKN250 M05/M08 A2933 RMK CI5 SLP970=

CYQF;2005-11-04 10:00;METAR CYQF 041000Z 00000KT 15SM OVC250 M05/M08 A2932 RMK CI6 SLP967=

CYQF;2005-11-04 11:00;METAR CYQF 041100Z 00000KT 15SM OVC250 M05/M08 A2931 RMK CI7 SLP966=

CYQF;2005-11-04 12:00;METAR CYQF 041200Z 00000KT 15SM SCT100 OVC250 M05/M08 A2932 RMK AC3CI5 SLP971=

CYQF;2005-11-04 13:00;METAR CYQF 041300Z 00000KT 15SM FEW100 BKN250 M05/M07 A2933 RMK AC2CI3 SLP974=

CYQF;2005-11-04 14:00;METAR CYQF 041400Z 00000KT 15SM FEW100 BKN250 M05/M08 A2934 RMK AC2CI2 SLP977=

CYQF;2005-11-04 15:00;METAR CYQF 041500Z 00000KT 15SM FEW100 BKN250 M06/M08 A2936 RMK AC2CI2 SLP990=

CYQF;2005-11-04 16:00;METAR CYQF 041600Z 00000KT 15SM FEW100 BKN250 M05/M08 A2938 RMK AC2CI3 SLP996=

CYQF;2005-11-04 17:00;METAR CYQF 041700Z 30003KT 15SM BKN080 OVC250 M04/M07 A2941 RMK AC5CI2 SLP003=

CYQF;2005-11-04 18:00;METAR CYQF 041800Z 32003KT 15SM BKN080 OVC250 M04/M07 A2943 RMK AC6CI2 SLP012=

CYQF;2005-11-04 19:00;METAR CYQF 041900Z 33002KT 15SM BKN080 BKN250 M03/M06 A2944 RMK AC5CI2 SLP015=

CYQF;2005-11-04 20:00;METAR CYQF 042000Z 33002KT 15SM SCT090 BKN250 M02/M05 A2945 RMK AC3CI2 SLP019=

CYQF;2005-11-04 21:00;METAR CYQF 042100Z 36002KT 15SM SCT090 BKN250 M01/M04 A2947 RMK AC3CI2 SLP022=

CYQF;2005-11-04 22:00;METAR CYQF 042200Z 01002KT 15SM BKN090 BKN250 M01/M04 A2948 RMK AC5CI2 SLP026=

CYQF;2005-11-04 23:00;METAR CYQF 042300Z 06002KT 15SM FEW040 BKN080 BKN250 00/M03 A2949 RMK SC2AC4CI1 SLP030=

CYQF;2005-11-05 00:00;METAR CYQF 050000Z 22002KT 15SM FEW040 BKN080 BKN250 M01/M04 A2952 RMK SC2AC3CI1 SLP040=

CYQF;2005-11-05 01:00;METAR CYQF 050100Z 21003KT 15SM FEW040 SCT080 BKN250 M03/M05 A2952 RMK SC2AC2CI1 SLP041=

CYQF;2005-11-05 02:00;METAR CYQF 050200Z 24005KT 15SM FEW040 SCT080 M03/M06 A2954 RMK SC2AC2 SLP047=

CYQF;2005-11-05 03:00;METAR CYQF 050300Z 00000KT 15SM FEW040 BKN080 M04/M06 A2955 RMK SC1AC4 SLP055=

CYQF;2005-11-05 04:00;METAR CYQF 050400Z 00000KT 15SM FEW040 SCT080 M05/M08 A2956 RMK SC1AC2 SLP056=

CYQF;2005-11-05 05:00;METAR CYQF 050500Z 00000KT 15SM MIFG SKC M07/M09 A2956 RMK SLP057=

CYQF;2005-11-05 06:00;METAR CYQF 050600Z 22002KT 15SM MIFG SKC M08/M10 A2956 RMK SLP062=

CYQF;2005-11-05 07:00;METAR CYQF 050700Z 18004KT 15SM SKC M09/M11 A2957 RMK SLP063=

CYQF;2005-11-05 08:00;METAR CYQF 050800Z 20002KT 15SM SKC M08/M09 A2956 RMK SLP061=

CYQF;2005-11-05 09:00;METAR CYQF 050900Z 00000KT 15SM SKC M09/M12 A2956 RMK SLP057=

CYQF;2005-11-05 10:00;METAR CYQF 051000Z 00000KT 2SM BR SKC M10/M12 A2955 RMK FG2 SLP056=

CYQF;2005-11-05 11:00;METAR CYQF 051100Z 00000KT 3SM BR BKN080 M10/M12 A2955 RMK FG1AC4 SLP055=

CYQF;2005-11-05 12:00;METAR CYQF 051200Z 20003KT 10SM BKN080 M09/M12 A2956 RMK AC5 BR SLP059=

CYQF;2005-11-05 13:00;METAR CYQF 051300Z 00000KT 15SM SCT080 M09/M11 A2956 RMK AC3 FROIN SLP059=

CYQF;2005-11-05 14:00;METAR CYQF 051400Z 00000KT 15SM BKN080 BKN240 M09/M12 A2956 RMK AC6CI1 FROIN SLP059=

CYQF;2005-11-05 15:00;METAR CYQF 051500Z 00000KT 15SM SCT080 BKN240 M10/M12 A2957 RMK AC4CI2 SLP067=

CYQF;2005-11-05 16:00;METAR CYQF 051600Z 00000KT 15SM FEW030 BKN080 BKN240 M06/M09 A2958 RMK SC2AC3CI2 SLP070=

CYQF;2005-11-05 17:00;METAR CYQF 051700Z 00000KT 15SM FEW030 BKN070 BKN240 M05/M09 A2959 RMK SC2AC4CI1 SLP074=

CYQF;2005-11-05 18:00;METAR CYQF 051800Z 00000KT 15SM FEW040 BKN080 BKN240 M04/M08 A2961 RMK SC1AC4CI1 VIRGA SLP077=

CYQF;2005-11-05 19:00;METAR CYQF 051900Z 00000KT 15SM FEW030 BKN080 BKN240 M03/M07 A2962 RMK CU1AC4CI1 VIRGA SLP079=

CYQF;2005-11-05 20:00;METAR CYQF 052000Z 00000KT 15SM FEW030 SCT090 BKN240 M02/M07 A2963 RMK CU1AC2CI1 SLP083=

CYQF;2005-11-05 21:00;METAR CYQF 052100Z 00000KT 15SM FEW030 FEW090 SCT240 03/M05 A2963 RMK CU1AC2CI1 SLP080=

CYQF;2005-11-05 22:00;METAR CYQF 052200Z 19004KT 15SM FEW030 FEW090 FEW240 02/M05 A2963 RMK CU1AC1CI0 SLP080=

CYQF;2005-11-05 23:00;METAR CYQF 052300Z 18002KT 15SM FEW080 01/M05 A2964 RMK AC1 SLP081=

CYQF;2005-11-06 01:00;METAR CYQF 060100Z 21003KT 15SM FEW070 M04/M07 A2964 RMK AC2 VIRGA SLP087=

CYQF;2005-11-06 02:00;METAR CYQF 060200Z 16005KT 15SM FEW070 M05/M07 A2963 RMK AC1 SLP086=

CYQF;2005-11-06 03:00;METAR CYQF 060300Z 19005KT 15SM FEW070 M07/M10 A2962 RMK AC1 SLP087=

CYQF;2005-11-06 04:00;METAR CYQF 060400Z 18005KT 15SM FEW070 M08/M11 A2961 RMK AC1 SLP083=

CYQF;2005-11-06 05:00;METAR CYQF 060500Z 18003KT 15SM SKC M09/M11 A2960 RMK SLP080=

CYQF;2005-11-06 06:00;METAR CYQF 060600Z 18003KT 15SM SKC M09/M11 A2958 RMK SLP068=

CYQF;2005-11-06 07:00;METAR CYQF 060700Z 00000KT 15SM SKC M09/M11 A2956 RMK SLP062=

CYQF;2005-11-06 08:00;METAR CYQF 060800Z 00000KT 15SM SKC M10/M13 A2954 RMK SLP056=

CYQF;2005-11-06 09:00;METAR CYQF 060900Z 35002KT 12SM MIFG SKC M10/M12 A2952 RMK SLP042=

CYQF;2005-11-06 10:00;METAR CYQF 061000Z 01004KT 15SM FEW090 M09/M10 A2952 RMK AC2 SLP040=

CYQF;2005-11-06 11:00;METAR CYQF 061100Z 01003KT 15SM SCT090 M09/M11 A2952 RMK AC3 SLP040=

CYQF;2005-11-06 12:00;METAR CYQF 061200Z 01003KT 15SM FEW090 M09/M11 A2953 RMK AC2 FROIN SLP050=

CYQF;2005-11-06 13:00;METAR CYQF 061300Z 02002KT 12SM SCT002 BKN090 M10/M12 A2953 RMK SF4AC3 FROIN SLP051=

CYQF;2005-11-06 14:00;METAR CYQF 061400Z 02002KT 5SM BR OVC003 M09/M11 A2954 RMK SF8 SLP052=

CYQF;2005-11-06 15:00;METAR CYQF 061500Z 05003KT 5SM BR BKN004 OVC008 M09/M11 A2955 RMK SF6ST2 SLP060=

CYQF;2005-11-06 16:00;METAR CYQF 061600Z 00000KT 15SM OVC005 M08/M10 A2956 RMK ST8 SLP063=

CYQF;2005-11-06 17:00;METAR CYQF 061700Z 00000KT 3SM BR OVC004 M07/M09 A2956 RMK ST8 FROIN SLP065=

CYQF;2005-11-06 18:00;METAR CYQF 061800Z 07003KT 5SM BR BKN005 OVC015 M07/M08 A2957 RMK ST5SC3 SLP068=

CYQF;2005-11-06 18:39;SPECI CYQF 061839Z 08004KT 3SM -SN BR SCT006 OVC011 RMK SF4SC4=

CYQF;2005-11-06 19:00;METAR CYQF 061900Z 07004KT 3SM -SN BR SCT007 OVC012 M05/M07 A2956 RMK SF4SC4 SLP065=

CYQF;2005-11-06 20:00;METAR CYQF 062000Z 08005KT 5SM -SN BR SCT005 OVC015 M04/M06 A2956 RMK SF4SC4 SLP066=

CYQF;2005-11-06 21:00;METAR CYQF 062100Z 09003KT 5SM -SN BR SCT007 OVC015 M03/M06 A2957 RMK SF4SC4 SLP067=

CYQF;2005-11-06 22:00;METAR CYQF 062200Z 12003KT 6SM -SN BR FEW008 OVC013 M02/M06 A2958 RMK SF2SC6 SLP069=

CYQF;2005-11-07 00:00;METAR CYQF 070000Z 11004KT 6SM BR BKN020 OVC080 M03/M05 A2961 RMK SC5AC2 SLP079=

CYQF;2005-11-07 00:23;SPECI CYQF 070023Z 15002KT 6SM BR BKN007 OVC020 RMK SF6SC2=

CYQF;2005-11-07 01:00;METAR CYQF 070100Z 18004KT 6SM BR BKN007 OVC020 M03/M05 A2964 RMK SF7SC1 SLP087=

CYQF;2005-11-07 01:20;SPECI CYQF 070120Z 14004KT 6SM BR OVC005 RMK SF8 CIG RAG=

CYQF;2005-11-07 02:00;METAR CYQF 070200Z 14004KT 6SM BR OVC004 M03/M05 A2966 RMK SF8 CIG RAG SLP092=

CYQF;2005-11-07 03:00;METAR CYQF 070300Z 15004KT 5SM BR OVC003 M03/M05 A2967 RMK SF8 SLP100=

CYQF;2005-11-07 04:00;METAR CYQF 070400Z 16005KT 5SM BR OVC004 M03/M05 A2969 RMK SF8 SLP105=

CYQF;2005-11-07 05:00;METAR CYQF 070500Z 14005KT 5SM BR SCT004 OVC013 M03/M05 A2970 RMK SF4SC4 SLP110=

CYQF;2005-11-07 06:00;METAR CYQF 070600Z 00000KT 8SM FEW004 OVC012 M03/M05 A2972 RMK SF1SC7 BR SLP112=

CYQF;2005-11-07 07:00;METAR CYQF 070700Z 19004KT 5SM BR FEW004 OVC013 M03/M05 A2973 RMK SF1SC7 SLP116=

CYQF;2005-11-07 08:00;METAR CYQF 070800Z 19002KT 5SM BR OVC011 M03/M05 A2975 RMK ST8 SLP121=

CYQF;2005-11-07 09:20;SPECI CYQF 070920Z 23006KT 4SM BR OVC008 RMK ST8=

CYQF;2005-11-07 10:00;METAR CYQF 071000Z 32004KT 3SM BR OVC006 M04/M06 A2978 RMK ST8 SLP129=

CYQF;2005-11-07 11:00;METAR CYQF 071100Z 33003KT 3SM BR OVC006 M04/M06 A2979 RMK ST8 SLP134=

CYQF;2005-11-07 12:00;METAR CYQF 071200Z 01002KT 3SM BR OVC006 M05/M06 A2980 RMK ST8 SLP139=

CYQF;2005-11-07 12:25;SPECI CYQF 071225Z 22003KT 2SM BR VV004 RMK FG8=

CYQF;2005-11-07 13:00;METAR CYQF 071300Z 20004KT 2SM BR VV004 M05/M06 A2982 RMK FG8 SLP146=

CYQF;2005-11-07 14:00;METAR CYQF 071400Z 22002KT 2SM BR VV004 M05/M06 A2983 RMK FG8 SLP148=

CYQF;2005-11-07 15:00;METAR CYQF 071500Z 23003KT 1 1/2SM BR VV004 M05/M07 A2984 RMK FG8 SLP153=

CYQF;2005-11-07 15:17;SPECI CYQF 071517Z 18004KT 1SM BR VV003 RMK FG8=

CYQF;2005-11-07 16:00;METAR CYQF 071600Z 00000KT 5/8SM BR VV003 M05/M07 A2984 RMK FG8 SLP153=

CYQF;2005-11-07 17:00;METAR CYQF 071700Z 16006KT 3/4SM BR VV004 M05/M06 A2984 RMK FG8 SLP154=

CYQF;2005-11-07 18:00;METAR CYQF 071800Z 16003KT 3/4SM BR VV004 M05/M07 A2984 RMK FG8 SLP152=

CYQF;2005-11-07 18:51;SPECI CYQF 071851Z 13005KT 1SM BR VV005 RMK FG8=

CYQF;2005-11-07 19:00;METAR CYQF 071900Z 14005KT 1 1/2SM BR VV005 M05/M07 A2982 RMK FG8 SLP147=

CYQF;2005-11-07 19:23;SPECI CYQF 071923Z 15005KT 2SM BR BKN005 RMK SF7=

CYQF;2005-11-07 20:00;METAR CYQF 072000Z 16007KT 3SM BR BKN005 M05/M07 A2981 RMK SF7 SLP144=

CYQF;2005-11-07 20:55;SPECI CYQF 072055Z 14010KT 3SM BR SCT007 RMK SF4=

CYQF;2005-11-07 21:00;METAR CYQF 072100Z 13010KT 3SM BR SCT007 M04/M07 A2980 RMK SF4 SLP140=

CYQF;2005-11-07 22:00;METAR CYQF 072200Z 15008KT 5SM BR SCT008 SCT240 M04/M07 A2979 RMK SF3CI1 SLP135=

CYQF;2005-11-07 23:00;METAR CYQF 072300Z 15008KT 6SM BR FEW008 FEW240 M05/M08 A2978 RMK SF1CI2 SLP132=

CYQF;2005-11-07 23:27;SPECI CYQF 072327Z 13007KT 3SM BR BKN003 RMK SF5=

CYQF;2005-11-07 23:43;SPECI CYQF 072343Z 15010KT 1SM BR OVC003 RMK SF7=

CYQF;2005-11-08 00:00;METAR CYQF 080000Z 15010KT 1 1/2SM BR OVC003 M06/M08 A2977 RMK SF7 SLP133=

CYQF;2005-11-08 00:08;SPECI CYQF 080008Z 15008KT 3SM BR SCT003 BKN100 RMK SF4AC1=

CYQF;2005-11-08 01:00;METAR CYQF 080100Z 14006KT 15SM FEW005 FEW100 M07/M10 A2976 RMK SF1AC2 SLP130=

CYQF;2005-11-08 02:00;METAR CYQF 080200Z 13006KT 15SM FEW100 M08/M10 A2976 RMK AC1 SLP130=

CYQF;2005-11-08 03:00;METAR CYQF 080300Z 19006KT 10SM FEW100 M08/M10 A2975 RMK AC1 SLP127=

CYQF;2005-11-08 04:00;METAR CYQF 080400Z 20003KT 10SM FEW100 M07/M09 A2974 RMK AC1 BR SLP124=

CYQF;2005-11-08 06:00;METAR CYQF 080600Z 00000KT 10SM SCT100 BKN250 M06/M08 A2974 RMK AC3CI0 BR SLP120=

CYQF;2005-11-08 07:00;METAR CYQF 080700Z 16004KT 10SM FEW100 BKN250 M06/M08 A2973 RMK AC2CI1 SLP117=

CYQF;2005-11-08 08:00;METAR CYQF 080800Z 25003KT 10SM FEW080 BKN250 M08/M11 A2972 RMK AC2CI2 FROIN SLP116=

CYQF;2005-11-08 09:00;METAR CYQF 080900Z 25003KT 5SM BR SCT080 BKN250 M08/M11 A2973 RMK AC3CI1 FROIN SLP121=

CYQF;2005-11-08 09:17;SPECI CYQF 080917Z 23003KT 2SM BR BKN080 RMK FG3AC2=

CYQF;2005-11-08 09:36;SPECI CYQF 080936Z 28004KT 2SM BR VV006 RMK FG8 FROIN=

CYQF;2005-11-08 10:00;METAR CYQF 081000Z 30005KT 1 1/2SM BR VV005 M06/M07 A2975 RMK FG8 FROIN SLP127=

CYQF;2005-11-08 10:35;SPECI CYQF 081035Z 28006KT 2SM BR SKC RMK FG3 FROIN=

CYQF;2005-11-08 11:00;METAR CYQF 081100Z 28004KT 2SM BR SKC M08/M10 A2978 RMK FG2 FROIN SLP135=

CYQF;2005-11-08 11:30;SPECI CYQF 081130Z 30005KT 5SM BR SKC RMK FROIN=

CYQF;2005-11-08 13:00;METAR CYQF 081300Z 04004KT 4SM BR FEW006 SCT080 M08/M10 A2983 RMK SF2AC2 FROIN SLP157=

CYQF;2005-11-08 13:40;SPECI CYQF 081340Z 01002KT 3SM BR BKN005 RMK FG2SF4=

CYQF;2005-11-08 14:00;METAR CYQF 081400Z 25004KT 3SM BR OVC005 M07/M09 A2985 RMK SF7 SLP163=

CYQF;2005-11-08 15:00;METAR CYQF 081500Z 30002KT 3SM BR BKN005 OVC080 M08/M10 A2987 RMK ST6AC1 SLP172=

CYQF;2005-11-08 16:00;METAR CYQF 081600Z 26004KT 3SM BR BKN005 OVC080 M08/M10 A2989 RMK SF6AC1 SLP178=

CYQF;2005-11-08 16:30;SPECI CYQF 081630Z 23003KT 4SM BR SCT005 RMK SF3 VIS N 1=

CYQF;2005-11-08 17:00;METAR CYQF 081700Z 23003KT 4SM BR FEW005 M07/M10 A2991 RMK SF1 SLP184=

CYQF;2005-11-08 18:00;METAR CYQF 081800Z 24004KT 8SM FEW005 M05/M08 A2993 RMK SF1 SLP188=

CYQF;2005-11-08 19:00;METAR CYQF 081900Z 25005KT 15SM FEW250 M03/M07 A2994 RMK CI1 SLP191=

CYQF;2005-11-08 20:00;METAR CYQF 082000Z 22004KT 15SM FEW250 M01/M06 A2994 RMK CI1 SLP191=

CYQF;2005-11-08 21:00;METAR CYQF 082100Z 21005KT 15SM FEW250 01/M05 A2995 RMK CI1 SLP189=

CYQF;2005-11-08 22:00;METAR CYQF 082200Z 18004KT 15SM FEW250 01/M06 A2994 RMK CI1 SLP188=

CYQF;2005-11-08 23:00;METAR CYQF 082300Z 18006KT 15SM FEW250 00/M05 A2996 RMK CI1 SLP193=

CYQF;2005-11-09 00:00;METAR CYQF 090000Z 19005KT 15SM FEW100 FEW250 M02/M06 A2996 RMK AC1CI1 SLP200=

CYQF;2005-11-09 01:00;METAR CYQF 090100Z 20006KT 15SM FEW100 M05/M08 A2997 RMK AC1 SLP202=

CYQF;2005-11-09 02:00;METAR CYQF 090200Z 19008KT 15SM SKC M06/M10 A2998 RMK SLP206=

CYQF;2005-11-09 03:00;METAR CYQF 090300Z 20006KT 15SM SKC M07/M10 A2997 RMK SLP207=

CYQF;2005-11-09 04:00;METAR CYQF 090400Z 20006KT 15SM SKC M08/M12 A2997 RMK SLP206=

CYQF;2005-11-09 05:00;METAR CYQF 090500Z 21008KT 15SM SKC M09/M14 A2996 RMK SLP202=

CYQF;2005-11-09 06:00;METAR CYQF 090600Z 18005KT 15SM SKC M07/M13 A2994 RMK SLP191=

CYQF;2005-11-09 07:00;METAR CYQF 090700Z 22007KT 15SM SKC M10/M14 A2992 RMK SLP187=

CYQF;2005-11-09 08:00;METAR CYQF 090800Z 22008KT 15SM FEW250 M08/M13 A2989 RMK CI1 SLP178=

CYQF;2005-11-09 09:00;METAR CYQF 090900Z 20007KT 15SM FEW250 M07/M12 A2988 RMK CI1 SLP164=

CYQF;2005-11-09 10:00;METAR CYQF 091000Z 22005KT 15SM SKC M08/M12 A2986 RMK SLP158=

CYQF;2005-11-09 11:00;METAR CYQF 091100Z 20008KT 15SM FEW080 M07/M12 A2984 RMK AC2 SLP151=

CYQF;2005-11-09 12:00;METAR CYQF 091200Z 18007KT 15SM FEW080 SCT250 M04/M09 A2980 RMK AC2CI1 SLP137=

CYQF;2005-11-09 13:00;METAR CYQF 091300Z 18008KT 15SM SCT080 M02/M08 A2976 RMK AC4 SLP124=

CYQF;2005-11-09 14:00;METAR CYQF 091400Z 18008KT 15SM SCT080 M02/M07 A2973 RMK AC4 SLP116=

CYQF;2005-11-09 15:00;METAR CYQF 091500Z 18007KT 15SM BKN080 M00/M06 A2971 RMK AC6 SLP108=

CYQF;2005-11-09 16:00;METAR CYQF 091600Z 18008KT 15SM BKN080 OVC250 01/M04 A2966 RMK AC7CI1 SLP091=

CYQF;2005-11-09 17:00;METAR CYQF 091700Z 19010KT 15SM BKN090 OVC250 03/M03 A2965 RMK AC6CI2 SLP087=

CYQF;2005-11-09 18:00;METAR CYQF 091800Z 22010KT 15SM BKN090 OVC250 04/M02 A2965 RMK AC6CI2 SLP082=

CYQF;2005-11-09 19:00;METAR CYQF 091900Z 22010KT 15SM BKN090 OVC250 05/M02 A2966 RMK AC6CI2 SLP083=

CYQF;2005-11-09 20:00;METAR CYQF 092000Z 20005KT 15SM BKN090 OVC250 06/M01 A2963 RMK AC6CI2 SLP076=

CYQF;2005-11-09 21:00;METAR CYQF 092100Z 20006KT 15SM BKN090 OVC250 06/M01 A2963 RMK AC6CI1 SLP074=

CYQF;2005-11-09 22:00;METAR CYQF 092200Z 18005KT 15SM BKN090 OVC250 05/M02 A2964 RMK AC6CI1 SLP077=

CYQF;2005-11-09 23:00;METAR CYQF 092300Z 19005KT 15SM BKN090 OVC250 04/M01 A2965 RMK AC6CI1 SLP080=

CYQF;2005-11-10 00:00;METAR CYQF 100000Z 21007KT 15SM BKN090 OVC250 05/M02 A2965 RMK AC6CI2 SLP075=

CYQF;2005-11-10 01:00;METAR CYQF 100100Z 18006KT 15SM BKN090 BKN250 04/M02 A2965 RMK AC6CI2 SLP076=

CYQF;2005-11-10 02:00;METAR CYQF 100200Z 19006KT 15SM FEW040 BKN090 OVC250 04/M02 A2965 RMK SC2AC4CI2 SLP075=

CYQF;2005-11-10 03:00;METAR CYQF 100300Z 18006KT 15SM BKN090 OVC250 04/M02 A2964 RMK AC5CI2 SLP071=

CYQF;2005-11-10 04:00;METAR CYQF 100400Z 23005KT 15SM BKN090 OVC250 06/M01 A2964 RMK AC5CI2 SLP069=

CYQF;2005-11-10 05:00;METAR CYQF 100500Z 22010KT 15SM BKN100 OVC250 06/M01 A2962 RMK AC5CI3 SLP064=

CYQF;2005-11-10 06:00;METAR CYQF 100600Z 24012KT 15SM FEW100 BKN250 05/M01 A2962 RMK AC2CI2 SLP057=

CYQF;2005-11-10 07:00;METAR CYQF 100700Z 22008KT 15SM FEW100 BKN250 06/M01 A2961 RMK AC2CI2 SLP053=

CYQF;2005-11-10 08:00;METAR CYQF 100800Z 20009KT 15SM BKN250 05/M01 A2960 RMK CI6 SLP052=

CYQF;2005-11-10 09:00;METAR CYQF 100900Z 18007KT 15SM BKN250 06/M00 A2960 RMK CI6 SLP047=

CYQF;2005-11-10 10:00;METAR CYQF 101000Z 19008KT 15SM BKN250 04/M01 A2959 RMK CI6 SLP044=

CYQF;2005-11-10 11:00;METAR CYQF 101100Z 18011KT 15SM BKN250 06/M00 A2956 RMK CI6 SLP037=

CYQF;2005-11-10 12:00;METAR CYQF 101200Z 19014KT 15SM BKN250 06/M00 A2954 RMK CI7 SLP029=

CYQF;2005-11-10 13:00;METAR CYQF 101300Z 18012KT 15SM OVC250 07/00 A2953 RMK CI7 SLP026=

CYQF;2005-11-10 14:00;METAR CYQF 101400Z 17011KT 15SM FEW100 BKN250 07/01 A2951 RMK AC2CI6 SLP020=

CYQF;2005-11-10 15:00;METAR CYQF 101500Z 18011KT 15SM FEW100 BKN250 08/01 A2949 RMK AC1CI6 SLP011=

CYQF;2005-11-10 16:00;METAR CYQF 101600Z 19010G16KT 15SM FEW100 BKN250 09/01 A2948 RMK AC2CI5 SLP006=

CYQF;2005-11-10 17:00;METAR CYQF 101700Z 16010KT 15SM FEW100 BKN250 08/01 A2945 RMK AC2CI6 SLP997=

CYQF;2005-11-10 18:00;METAR CYQF 101800Z 21010KT 15SM SCT100 BKN250 10/02 A2942 RMK AC2CI4 SLP982=

CYQF;2005-11-10 19:00;METAR CYQF 101900Z 22015G25KT 15SM FEW100 BKN250 16/03 A2939 RMK AC2CI2 SLP974=

CYQF;2005-11-10 20:00;METAR CYQF 102000Z 21016G25KT 15SM FEW100 BKN250 17/02 A2937 RMK AC2CI2 SLP966=

CYQF;2005-11-10 21:00;METAR CYQF 102100Z 20015G23KT 15SM FEW100 BKN250 16/02 A2934 RMK AC2CI2 SLP945=

CYQF;2005-11-10 22:00;METAR CYQF 102200Z 18015G24KT 15SM FEW050 FEW100 BKN250 16/01 A2931 RMK SC1AC1CI2 TR SC SLP938=

CYQF;2005-11-10 23:00;METAR CYQF 102300Z 19011G17KT 15SM FEW050 FEW100 BKN250 14/01 A2931 RMK SC1AC2CI1 SLP938=

CYQF;2005-11-11 00:00;METAR CYQF 110000Z 17008KT 15SM FEW040 FEW100 BKN250 12/01 A2933 RMK SC1AC2CI1 SLP946=

CYQF;2005-11-11 01:00;METAR CYQF 110100Z 18007KT 15SM FEW040 FEW100 SCT250 10/M00 A2933 RMK SC1AC1CI1 SLP948=

CYQF;2005-11-11 02:00;METAR CYQF 110200Z 19005KT 15SM FEW040 FEW090 07/M01 A2934 RMK SC1AC2 SLP950=

CYQF;2005-11-11 03:00;METAR CYQF 110300Z 36012G20KT 15SM SCT080 04/M00 A2940 RMK AC4 WND G35 PST HR PRESRR SLP978=

CYQF;2005-11-11 04:00;METAR CYQF 110400Z 01010G15KT 15SM BKN080 03/M01 A2947 RMK AC5 PRESRR SLP999=

CYQF;2005-11-11 05:00;METAR CYQF 110500Z 35008KT 15SM BKN080 03/M03 A2952 RMK AC6 SLP015=

CYQF;2005-11-11 06:00;METAR CYQF 110600Z 36012G20KT 15SM SCT025 BKN070 02/M03 A2957 RMK SC3AC4 SLP037=

CYQF;2005-11-11 07:00;METAR CYQF 110700Z 01010G15KT 15SM SCT025 OVC070 01/M04 A2959 RMK SC4AC4 SLP044=

CYQF;2005-11-11 08:00;METAR CYQF 110800Z 31003KT 15SM OVC070 01/M04 A2962 RMK AC8 SLP053=

CYQF;2005-11-11 09:00;METAR CYQF 110900Z 26003KT 15SM OVC070 01/M04 A2963 RMK AC8 SLP054=

CYQF;2005-11-11 10:00;METAR CYQF 111000Z 28006KT 15SM OVC070 01/M04 A2965 RMK AC8 SLP059=

CYQF;2005-11-11 11:00;METAR CYQF 111100Z 20004KT 15SM OVC070 01/M04 A2967 RMK AC8 SLP065=

CYQF;2005-11-11 12:00;METAR CYQF 111200Z 22002KT 15SM OVC070 00/M04 A2968 RMK AC8 SLP077=

CYQF;2005-11-11 13:00;METAR CYQF 111300Z 27005KT 15SM OVC070 M00/M04 A2969 RMK AC8 SLP079=

CYQF;2005-11-11 14:00;METAR CYQF 111400Z 26003KT 15SM OVC070 M00/M05 A2970 RMK AC8 SLP081=

CYQF;2005-11-11 15:00;METAR CYQF 111500Z 24004KT 15SM SCT040 BKN070 M01/M05 A2970 RMK SC4AC3 SLP093=

CYQF;2005-11-11 16:00;METAR CYQF 111600Z 24007KT 15SM SCT040 BKN070 BKN240 M00/M04 A2971 RMK SC3AC2CI0 SLP094=

CYQF;2005-11-11 17:00;METAR CYQF 111700Z 22004KT 15SM FEW040 BKN070 BKN240 00/M04 A2971 RMK SC2AC3CI0 SLP095=

CYQF;2005-11-11 18:00;METAR CYQF 111800Z 20011KT 15SM FEW040 SCT070 02/M04 A2971 RMK SC2AC2 SLP093=

CYQF;2005-11-11 19:00;METAR CYQF 111900Z 20010G16KT 15SM FEW040 FEW070 04/M05 A2969 RMK SC2AC1 ACC ASOCTD VIRGA DIST NW-NE SLP089=

CYQF;2005-11-11 20:00;METAR CYQF 112000Z 20012G20KT 15SM FEW040 FEW070 05/M06 A2968 RMK SC1AC1 SLP086=

CYQF;2005-11-11 21:00;METAR CYQF 112100Z 19010G18KT 15SM FEW040 FEW070 05/M07 A2968 RMK SC1AC1 TR AC SLP082=

CYQF;2005-11-11 22:00;METAR CYQF 112200Z 18010G16KT 15SM FEW040 04/M06 A2967 RMK CU1 SLP081=

CYQF;2005-11-11 23:00;METAR CYQF 112300Z 17011KT 15SM FEW040 03/M06 A2967 RMK CU1 SLP081=

CYQF;2005-11-12 00:00;METAR CYQF 120000Z 16008KT 15SM FEW250 01/M06 A2967 RMK CI0 SLP084=

CYQF;2005-11-12 01:00;METAR CYQF 120100Z 15008KT 15SM FEW250 M00/M06 A2967 RMK CI1 TR CLD SLP085=

CYQF;2005-11-12 02:00;METAR CYQF 120200Z 16007KT 15SM SKC M00/M06 A2966 RMK SLP082=

CYQF;2005-11-12 03:00;METAR CYQF 120300Z 16009KT 15SM BKN250 M01/M06 A2965 RMK CI2 SLP080=

CYQF;2005-11-12 04:00;METAR CYQF 120400Z 17008KT 15SM FEW100 OVC250 M02/M06 A2964 RMK AC2CI4 SLP078=

CYQF;2005-11-12 05:00;METAR CYQF 120500Z 18011KT 15SM FEW100 OVC250 M02/M06 A2964 RMK AC2CI5 SLP078=

CYQF;2005-11-12 06:00;METAR CYQF 120600Z 19010KT 15SM SCT100 OVC250 M01/M05 A2963 RMK AC3CI4 SLP070=

CYQF;2005-11-12 07:00;METAR CYQF 120700Z 17010KT 15SM BKN100 OVC250 M01/M06 A2962 RMK AC6CI2 SLP068=

CYQF;2005-11-12 08:00;METAR CYQF 120800Z 18005KT 15SM BKN090 OVC250 M02/M06 A2960 RMK AC6CI1 SLP062=

CYQF;2005-11-12 09:00;METAR CYQF 120900Z 21006KT 15SM BKN080 OVC250 M02/M06 A2960 RMK AC7CI1 SLP060=

CYQF;2005-11-12 10:00;METAR CYQF 121000Z 29005KT 15SM OVC080 M04/M07 A2962 RMK AC8 SLP064=

CYQF;2005-11-12 11:00;METAR CYQF 121100Z 21003KT 15SM BKN080 M04/M07 A2962 RMK AC6 SLP066=

CYQF;2005-11-12 12:00;METAR CYQF 121200Z 35004KT 15SM BKN080 M04/M07 A2965 RMK AC6 SLP080=

CYQF;2005-11-12 13:00;METAR CYQF 121300Z 29006KT 15SM BKN080 OVC250 M04/M08 A2967 RMK AC6CI2 SLP088=

CYQF;2005-11-12 14:00;METAR CYQF 121400Z 31010G15KT 15SM OVC080 M02/M08 A2971 RMK AC8 SLP099=

CYQF;2005-11-12 15:00;METAR CYQF 121500Z 31012G17KT 15SM SCT040 OVC080 M02/M07 A2976 RMK SC4AC4 SLP118=

CYQF;2005-11-12 15:53;SPECI CYQF 121553Z 33014KT 10SM -SHSN BKN040 OVC100 RMK SC6AC2=

CYQF;2005-11-12 16:00;METAR CYQF 121600Z 33014KT 3SM -SHSN BKN030 OVC100 M01/M05 A2982 RMK SC6AC2 SLP137=

CYQF;2005-11-12 17:00;METAR CYQF 121700Z 35012KT 15SM -SHSN BKN040 BKN100 M01/M06 A2986 RMK SC6AC2 SLP151=

CYQF;2005-11-12 18:00;METAR CYQF 121800Z 33012KT 15SM SCT040 BKN100 M01/M06 A2990 RMK SC4AC2 SLP166=

CYQF;2005-11-12 19:00;METAR CYQF 121900Z 35013KT 15SM SCT040 BKN100 BKN250 M01/M05 A2993 RMK SC3AC2CI0 SLP177=

CYQF;2005-11-12 20:00;METAR CYQF 122000Z 01010KT 15SM FEW040 SCT100 BKN250 M01/M06 A2995 RMK SC2AC2CI0 SLP183=

CYQF;2005-11-12 21:00;METAR CYQF 122100Z 36005KT 15SM SCT025 SCT100 00/M06 A2997 RMK CU3AC1 SLP192=

CYQF;2005-11-12 22:00;METAR CYQF 122200Z 02008KT 15SM FEW025 FEW100 00/M06 A2998 RMK SC2AC1 SLP195=

CYQF;2005-11-12 23:00;METAR CYQF 122300Z 04005KT 15SM FEW025 FEW100 M01/M06 A3000 RMK SC1AC2 SLP200=

CYQF;2005-11-13 00:00;METAR CYQF 130000Z 15004KT 15SM FEW030 SCT100 M02/M06 A3002 RMK SC2AC2 SLP213=

CYQF;2005-11-13 01:00;METAR CYQF 130100Z 16003KT 15SM BKN080 M04/M08 A3003 RMK AC6 SLP217=

CYQF;2005-11-13 02:00;METAR CYQF 130200Z 15003KT 15SM BKN090 M03/M06 A3003 RMK AC7 SLP217=

CYQF;2005-11-13 03:00;METAR CYQF 130300Z 18004KT 15SM BKN090 M04/M07 A3005 RMK AC6 SLP222=

CYQF;2005-11-13 04:00;METAR CYQF 130400Z 18005KT 15SM SCT090 M05/M08 A3005 RMK AC4 SLP223=

CYQF;2005-11-13 05:00;METAR CYQF 130500Z 17008KT 15SM SKC M05/M08 A3004 RMK SLP219=

CYQF;2005-11-13 06:00;METAR CYQF 130600Z 18005KT 15SM SKC M06/M09 A3002 RMK SLP213=

CYQF;2005-11-13 07:00;METAR CYQF 130700Z 17007KT 15SM SKC M05/M08 A3001 RMK SLP210=

CYQF;2005-11-13 08:00;METAR CYQF 130800Z 18009KT 15SM SCT250 M05/M09 A2998 RMK CI2 SLP202=

CYQF;2005-11-13 09:00;METAR CYQF 130900Z 18006KT 15SM FEW100 BKN250 M06/M09 A2996 RMK AC1CI2 SLP194=

CYQF;2005-11-13 10:00;METAR CYQF 131000Z 17006KT 15SM BKN100 M06/M09 A2994 RMK AC6 SLP186=

CYQF;2005-11-13 11:00;METAR CYQF 131100Z 16004KT 15SM SCT100 BKN250 M06/M10 A2991 RMK AC3CI1 SLP178=

CYQF;2005-11-13 12:00;METAR CYQF 131200Z 19005KT 15SM FEW100 M07/M11 A2988 RMK AC1 SLP170=

CYQF;2005-11-13 13:00;METAR CYQF 131300Z 19004KT 15SM FEW100 M09/M13 A2986 RMK AC1 SLP164=

CYQF;2005-11-13 14:00;METAR CYQF 131400Z 20003KT 15SM FEW100 M10/M13 A2984 RMK AC1 SLP157=

CYQF;2005-11-13 15:00;METAR CYQF 131500Z 21005KT 15SM FEW100 M08/M12 A2983 RMK AC2 SLP153=

CYQF;2005-11-13 16:00;METAR CYQF 131600Z 19007KT 15SM FEW100 BKN210 M05/M10 A2981 RMK AC2CI1 SLP148=

CYQF;2005-11-13 17:00;METAR CYQF 131700Z 20006KT 15SM FEW100 BKN210 M04/M08 A2979 RMK AC2CI2 SLP143=

CYQF;2005-11-13 18:00;METAR CYQF 131800Z 19004KT 15SM FEW100 BKN210 M02/M07 A2977 RMK AC2CI2 SLP129=

CYQF;2005-11-13 19:00;METAR CYQF 131900Z 18004KT 15SM FEW040 BKN100 BKN210 01/M05 A2972 RMK SC2AC2CI2 VIRGA S-SW SLP114=

CYQF;2005-11-13 20:00;METAR CYQF 132000Z 15004KT 15SM FEW040 BKN100 BKN210 02/M06 A2967 RMK SC2AC2CI2 VIRGA S-W SLP098=

CYQF;2005-11-13 21:00;METAR CYQF 132100Z 21004KT 15SM SCT040 BKN100 OVC250 02/M07 A2965 RMK SC4AC2CI1 VIRGA SLP082=

CYQF;2005-11-13 22:00;METAR CYQF 132200Z 07004KT 15SM SCT040 BKN100 BKN250 02/M05 A2963 RMK SC3AC2CI1 VIRGA SLP076=

CYQF;2005-11-13 23:00;METAR CYQF 132300Z 08005KT 15SM SCT040 BKN100 BKN250 01/M05 A2962 RMK SC3AC2CI1 SLP072=

CYQF;2005-11-14 00:00;METAR CYQF 140000Z 12003KT 15SM BKN040 BKN100 00/M05 A2962 RMK SC5AC2 VIRGA SLP075=

CYQF;2005-11-14 01:00;METAR CYQF 140100Z 02005KT 15SM BKN040 OVC090 M01/M05 A2962 RMK SC5AC3 VIRGA SLP075=

CYQF;2005-11-14 02:00;METAR CYQF 140200Z 01008KT 15SM BKN050 OVC090 M01/M05 A2963 RMK SC5AC3 VIRGA SLP078=

CYQF;2005-11-14 03:00;METAR CYQF 140300Z 02007KT 15SM BKN050 OVC090 M01/M05 A2965 RMK SC5AC3 SLP087=

CYQF;2005-11-14 04:00;METAR CYQF 140400Z 35004KT 15SM FEW050 SCT090 OVC250 M03/M06 A2966 RMK SC1AC2CI3 SLP091=

CYQF;2005-11-14 05:00;METAR CYQF 140500Z 36008KT 15SM FEW050 BKN090 BKN250 M04/M07 A2967 RMK SC1AC4CI1 SLP095=

CYQF;2005-11-14 06:00;METAR CYQF 140600Z 34009KT 15SM FEW050 BKN090 BKN250 M03/M07 A2970 RMK SC1AC5CI1 SLP102=

CYQF;2005-11-14 07:00;METAR CYQF 140700Z 36010KT 15SM FEW050 SCT090 OVC250 M03/M07 A2974 RMK SC1AC3CI2 SLP113=

CYQF;2005-11-14 08:00;METAR CYQF 140800Z 35010G15KT 15SM FEW050 OVC100 M03/M07 A2977 RMK SC1AC5 SLP124=

CYQF;2005-11-14 09:00;METAR CYQF 140900Z 35010G15KT 15SM OVC010 M04/M07 A2982 RMK SC8 SLP140=

CYQF;2005-11-14 10:00;METAR CYQF 141000Z 36012G18KT 15SM BKN010 OVC050 M05/M09 A2987 RMK SC5SC2 SLP154=

CYQF;2005-11-14 11:00;METAR CYQF 141100Z 35010G15KT 15SM BKN010 OVC050 M05/M08 A2993 RMK SC6SC2 SLP172=

CYQF;2005-11-14 12:00;METAR CYQF 141200Z 35010G15KT 10SM -SHSN OVC011 M05/M08 A2998 RMK SC8 CIG RAG SLP200=

CYQF;2005-11-14 13:00;METAR CYQF 141300Z 34012G22KT 15SM -SHSN OVC010 M05/M08 A3004 RMK SC8 CIG RAG SLP216=

CYQF;2005-11-14 14:00;METAR CYQF 141400Z 35012G17KT 15SM -SN OVC009 M05/M08 A3008 RMK SF8 CIG RAG SLP231=

CYQF;2005-11-14 15:00;METAR CYQF 141500Z 34012G22KT 8SM -SN OVC007 M04/M07 A3014 RMK SF8 CIG RAG SLP253=

CYQF;2005-11-14 16:00;METAR CYQF 141600Z 35012G20KT 8SM -SN BKN010 OVC025 M04/M07 A3018 RMK SF6SC2 SLP267=

CYQF;2005-11-14 17:00;METAR CYQF 141700Z 34014G23KT 15SM BKN010 OVC025 M05/M10 A3023 RMK SC6SC2 SLP281=

CYQF;2005-11-14 18:00;METAR CYQF 141800Z 33014G24KT 15SM BKN015 M05/M11 A3027 RMK SC7 SLP302=

CYQF;2005-11-14 19:00;METAR CYQF 141900Z 34016G27KT 15SM BKN015 M05/M11 A3029 RMK SC6 SLP310=

CYQF;2005-11-14 21:00;METAR CYQF 142100Z 35012G20KT 15SM BKN025 M05/M12 A3034 RMK SC6 SLP329=

CYQF;2005-11-14 22:00;METAR CYQF 142200Z 34010G15KT 15SM FEW030 M05/M12 A3036 RMK SC2 SLP334=

CYQF;2005-11-14 23:00;METAR CYQF 142300Z 35010KT 15SM SCT030 BKN090 M05/M12 A3038 RMK SC3AC2 SLP342=

CYQF;2005-11-15 00:00;METAR CYQF 150000Z 36006KT 15SM FEW030 BKN090 M06/M12 A3041 RMK SC2AC2 SLP354=

CYQF;2005-11-15 01:00;METAR CYQF 150100Z 36007KT 15SM FEW030 BKN070 M06/M11 A3042 RMK SC2AC3 SLP359=

CYQF;2005-11-15 02:00;METAR CYQF 150200Z 34003KT 15SM BKN022 BKN070 M07/M12 A3045 RMK SC5AC2 SLP367=

CYQF;2005-11-15 03:00;METAR CYQF 150300Z 02006KT 15SM OVC021 M07/M12 A3045 RMK SC8 SLP370=

CYQF;2005-11-15 04:00;METAR CYQF 150400Z 00000KT 15SM OVC020 M07/M12 A3045 RMK SC8 SLP370=

CYQF;2005-11-15 05:00;METAR CYQF 150500Z 10003KT 10SM -SN OVC020 M07/M11 A3045 RMK SC8 SLP370=

CYQF;2005-11-15 06:00;METAR CYQF 150600Z 00000KT 15SM -SN OVC020 M07/M11 A3046 RMK SC8 SLP373=

CYQF;2005-11-15 07:00;METAR CYQF 150700Z 19002KT 10SM -SN BKN020 BKN050 M08/M11 A3046 RMK SC5SC2 SLP373=

CYQF;2005-11-15 08:00;METAR CYQF 150800Z 20002KT 10SM -SN BKN020 OVC050 M08/M11 A3046 RMK SC5SC3 SLP373=

CYQF;2005-11-15 09:00;METAR CYQF 150900Z 19002KT 15SM -SN SCT020 OVC070 M07/M11 A3044 RMK SC3AC5 SLP369=

CYQF;2005-11-15 10:00;METAR CYQF 151000Z 20008KT 15SM -SN SCT020 OVC070 M07/M10 A3043 RMK SC3AC5 SLP365=

CYQF;2005-11-15 11:00;METAR CYQF 151100Z 00000KT 15SM FEW020 OVC075 M08/M11 A3043 RMK SC2AC6 SLP363=

CYQF;2005-11-15 12:00;METAR CYQF 151200Z 00000KT 15SM OVC075 M08/M10 A3042 RMK AC8 SLP362=

CYQF;2005-11-15 12:24;SPECI CYQF 151224Z 00000KT 15SM -SN OVC075 RMK AC8=

CYQF;2005-11-15 13:00;METAR CYQF 151300Z 00000KT 15SM OVC075 M08/M10 A3041 RMK AC8 SLP358=

CYQF;2005-11-15 14:00;METAR CYQF 151400Z 00000KT 15SM OVC075 M08/M11 A3041 RMK AC8 SLP359=

CYQF;2005-11-15 15:00;METAR CYQF 151500Z 00000KT 15SM OVC075 M08/M11 A3041 RMK AC8 SLP359=

CYQF;2005-11-15 16:00;METAR CYQF 151600Z 12003KT 10SM SCT080 OVC250 M07/M11 A3041 RMK AC3CS3 SLP358=

CYQF;2005-11-15 17:00;METAR CYQF 151700Z 12004KT 10SM FEW080 OVC250 M07/M11 A3040 RMK AC2CS3 SLP356=

CYQF;2005-11-15 18:00;METAR CYQF 151800Z 10004KT 10SM FEW080 BKN250 M06/M10 A3039 RMK AC2CI2 SLP352=

CYQF;2005-11-15 19:00;METAR CYQF 151900Z 20003KT 10SM FEW020 SCT080 BKN250 M05/M09 A3037 RMK SC1AC3CI2 SLP345=

CYQF;2005-11-15 20:00;METAR CYQF 152000Z 20004KT 10SM -SN FEW015 BKN080 OVC250 M05/M10 A3036 RMK SC2AC2CI2 SLP342=

CYQF;2005-11-15 21:00;METAR CYQF 152100Z 17008KT 15SM FEW020 SCT090 BKN250 M04/M09 A3033 RMK SC2AC2CI1 SLP327=

CYQF;2005-11-15 22:00;METAR CYQF 152200Z 17006KT 15SM FEW020 SCT090 BKN250 M04/M09 A3031 RMK SC1AC2CI1 SLP322=

CYQF;2005-11-15 23:00;METAR CYQF 152300Z 18008KT 15SM FEW020 FEW090 SCT250 M05/M09 A3031 RMK SC1AC1CI1 SLP322=

CYQF;2005-11-16 00:00;METAR CYQF 160000Z 16006KT 15SM FEW020 BKN080 BKN250 M06/M10 A3031 RMK SC2AC3CI0 SLP322=

CYQF;2005-11-16 01:00;METAR CYQF 160100Z 17008KT 15SM SCT010 BKN080 OVC250 M06/M09 A3028 RMK SC4AC2CI1 SLP314=

CYQF;2005-11-16 02:00;METAR CYQF 160200Z 16009KT 15SM SCT010 OVC080 M06/M09 A3026 RMK SC3AC4 SLP308=

CYQF;2005-11-16 03:00;METAR CYQF 160300Z 17010KT 15SM FEW010 SCT080 BKN250 M06/M09 A3025 RMK SC2AC2CI0 SLP303=

CYQF;2005-11-16 04:00;METAR CYQF 160400Z 17012KT 15SM FEW010 BKN080 OVC250 M06/M09 A3023 RMK SC2AC5CI0 SLP295=

CYQF;2005-11-16 05:00;METAR CYQF 160500Z 18012KT 15SM FEW010 OVC080 M06/M10 A3021 RMK SC2AC6 SLP289=

CYQF;2005-11-16 06:00;METAR CYQF 160600Z 17014KT 15SM SCT040 OVC080 M06/M10 A3017 RMK SC3AC4 SLP274=

CYQF;2005-11-16 07:00;METAR CYQF 160700Z 17013KT 15SM SCT040 OVC080 M06/M10 A3015 RMK SC3AC5 SLP266=

CYQF;2005-11-16 08:00;METAR CYQF 160800Z 18012KT 15SM FEW040 OVC080 M06/M09 A3013 RMK SC2AC6 SLP259=

CYQF;2005-11-16 09:00;METAR CYQF 160900Z 18011KT 15SM FEW040 OVC080 M05/M09 A3010 RMK SC2AC6 SLP245=

CYQF;2005-11-16 10:00;METAR CYQF 161000Z 19009KT 15SM FEW040 BKN080 M06/M09 A3008 RMK SC2AC6 SLP238=

CYQF;2005-11-16 11:00;METAR CYQF 161100Z 19007KT 15SM FEW040 BKN080 M06/M09 A3006 RMK SC2AC5 SLP234=

CYQF;2005-11-16 12:00;METAR CYQF 161200Z 19006KT 15SM FEW040 BKN090 M06/M09 A3005 RMK SC2AC6 SLP230=

CYQF;2005-11-16 13:00;METAR CYQF 161300Z 20008KT 15SM FEW040 BKN090 M05/M09 A3003 RMK SC1AC6 SLP225=

CYQF;2005-11-16 14:00;METAR CYQF 161400Z 20007KT 15SM BKN090 M05/M08 A3000 RMK AC7 SLP216=

CYQF;2005-11-16 15:00;METAR CYQF 161500Z 21007KT 15SM BKN090 M04/M08 A2998 RMK AC7 SLP205=

CYQF;2005-11-16 16:00;METAR CYQF 161600Z 23005KT 15SM SCT030 BKN090 M03/M07 A2999 RMK SC4AC3 VIRGA SLP209=

CYQF;2005-11-16 17:00;METAR CYQF 161700Z 22003KT 15SM BKN030 OVC090 M00/M06 A3000 RMK SC6AC2 VIRGA SLP210=

CYQF;2005-11-16 17:08;SPECI CYQF 161708Z 00000KT 12SM -RA BKN030 OVC090 RMK SC7AC1=

CYQF;2005-11-16 17:12;SPECI CYQF 161712Z 00000KT 12SM -FZRA BKN030 OVC090 RMK SC7AC1=

CYQF;2005-11-16 17:53;SPECI CYQF 161753Z 00000KT 12SM BKN030 OVC090 RMK SC7AC1 VIRGA=

CYQF;2005-11-16 18:00;METAR CYQF 161800Z 00000KT 12SM BKN030 OVC090 01/M03 A3001 RMK SC7AC1 REFZRA VIRGA SLP208=

CYQF;2005-11-16 19:00;METAR CYQF 161900Z 32007KT 15SM BKN035 OVC090 05/M01 A3001 RMK SC6AC2 VIRGA SLP208=

CYQF;2005-11-16 19:21;SPECI CYQF 161921Z 31012G22KT 12SM -SHRA BKN030 OVC090 RMK SC7AC1=

CYQF;2005-11-16 19:47;SPECI CYQF 161947Z 29008KT 15SM BKN030 OVC090 RMK SC7AC1 VIRGA=

CYQF;2005-11-16 20:00;METAR CYQF 162000Z 30009KT 15SM BKN030 OVC090 04/01 A3001 RMK SC7AC1 SLP208=

CYQF;2005-11-16 21:00;METAR CYQF 162100Z 30012KT 15SM BKN025 OVC090 05/01 A3001 RMK SC7AC1 VIRGA SLP202=

CYQF;2005-11-16 22:00;METAR CYQF 162200Z 30012G20KT 15SM BKN025 BKN090 06/M00 A3002 RMK SC6AC1 VIRGA SLP207=

CYQF;2005-11-16 23:00;METAR CYQF 162300Z 32012G20KT 15SM SCT025 BKN040 BKN090 06/M01 A3004 RMK SF3SC3AC1 VIRGA SLP212=

CYQF;2005-11-17 00:00;METAR CYQF 170000Z 31011G18KT 15SM FEW025 BKN040 OVC090 05/M01 A3006 RMK SF2SC5AC2 SLP222=

CYQF;2005-11-17 01:00;METAR CYQF 170100Z 34013G20KT 15SM SCT040 OVC075 05/M02 A3009 RMK SC3AC5 SLP231=

CYQF;2005-11-17 01:35;SPECI CYQF 170135Z 34015G23KT 10SM -SHRA BKN030 OVC075 RMK SC5AC3=

CYQF;2005-11-17 02:00;METAR CYQF 170200Z 33015G25KT 15SM BKN030 OVC075 03/M01 A3012 RMK SC5AC3 SLP240=

CYQF;2005-11-17 03:00;METAR CYQF 170300Z 33010KT 15SM FEW030 BKN075 03/M01 A3015 RMK SC2AC4 SLP252=

CYQF;2005-11-17 04:00;METAR CYQF 170400Z 31010KT 15SM FEW030 OVC075 03/M01 A3017 RMK SC2AC6 SLP259=

CYQF;2005-11-17 05:00;METAR CYQF 170500Z 30008KT 15SM FEW030 OVC075 03/M02 A3018 RMK SC2AC6 SLP262=

CYQF;2005-11-17 06:00;METAR CYQF 170600Z 30008KT 15SM FEW030 SCT075 03/M02 A3019 RMK SC1AC2 SLP260=

CYQF;2005-11-17 07:00;METAR CYQF 170700Z 27006KT 15SM SCT040 00/M03 A3020 RMK SC3 SLP263=

CYQF;2005-11-17 08:00;METAR CYQF 170800Z 25008KT 15SM SKC M02/M05 A3021 RMK SLP266=

CYQF;2005-11-17 09:00;METAR CYQF 170900Z 25007KT 15SM SKC M02/M05 A3021 RMK SLP269=

CYQF;2005-11-17 10:00;METAR CYQF 171000Z 25007KT 15SM FEW250 M02/M05 A3021 RMK CI1 SLP270=

CYQF;2005-11-17 11:00;METAR CYQF 171100Z 23008KT 15SM FEW250 M03/M06 A3020 RMK CI1 SLP266=

CYQF;2005-11-17 12:00;METAR CYQF 171200Z 24009KT 15SM SKC M03/M06 A3020 RMK SLP267=

CYQF;2005-11-17 13:00;METAR CYQF 171300Z 24007KT 15SM SKC M03/M06 A3019 RMK SLP264=

CYQF;2005-11-17 14:00;METAR CYQF 171400Z 23009KT 15SM FEW250 M03/M07 A3018 RMK CI1 SLP260=

CYQF;2005-11-17 15:00;METAR CYQF 171500Z 24008KT 15SM FEW250 M04/M07 A3018 RMK CI1 SLP263=

CYQF;2005-11-17 16:00;METAR CYQF 171600Z 24006KT 15SM SCT250 M02/M06 A3018 RMK CI1 SLP263=

CYQF;2005-11-17 17:00;METAR CYQF 171700Z 21004KT 15SM FEW250 M00/M05 A3018 RMK CI1 SLP262=

CYQF;2005-11-17 18:00;METAR CYQF 171800Z 23009KT 15SM FEW250 03/M03 A3017 RMK CI0 SLP254=

CYQF;2005-11-17 19:00;METAR CYQF 171900Z 23006KT 15SM FEW250 07/M03 A3015 RMK CI1 SLP245=

CYQF;2005-11-17 20:00;METAR CYQF 172000Z 24007KT 15SM FEW250 08/M03 A3012 RMK CI1 SLP238=

CYQF;2005-11-17 21:00;METAR CYQF 172100Z 21006KT 15SM FEW250 11/M04 A3007 RMK CI0 SLP216=

CYQF;2005-11-17 22:00;METAR CYQF 172200Z 19010KT 15SM FEW250 10/M03 A3004 RMK CI1 SLP205=

CYQF;2005-11-17 23:00;METAR CYQF 172300Z 18007KT 15SM SCT080 BKN250 08/M04 A3002 RMK AC3CI0 SLP198=

CYQF;2005-11-18 00:00;METAR CYQF 180000Z 18007KT 15SM SCT080 BKN250 06/M05 A3000 RMK AC3CI0 SLP195=

CYQF;2005-11-18 01:00;METAR CYQF 180100Z 21007KT 15SM SCT080 BKN250 02/M05 A2997 RMK AC3CI1 SLP188=

CYQF;2005-11-18 02:00;METAR CYQF 180200Z 22010KT 15SM BKN080 OVC250 03/M04 A2995 RMK AC5CI2 SLP181=

CYQF;2005-11-18 03:00;METAR CYQF 180300Z 24004KT 15SM OVC080 04/M04 A2993 RMK AC8 SLP176=

CYQF;2005-11-18 04:00;METAR CYQF 180400Z 24003KT 15SM SCT100 BKN250 05/M05 A2992 RMK AC3CI2 SLP173=

CYQF;2005-11-18 05:00;METAR CYQF 180500Z 21010KT 15SM SCT100 BKN250 03/M06 A2989 RMK AC4CI2 SLP164=

CYQF;2005-11-18 06:00;METAR CYQF 180600Z 24010KT 15SM BKN100 OVC250 04/M05 A2987 RMK AC6CI2 SLP147=

CYQF;2005-11-18 07:00;METAR CYQF 180700Z 24010KT 15SM BKN100 OVC250 08/M03 A2984 RMK AC6CI2 SLP138=

CYQF;2005-11-18 08:00;METAR CYQF 180800Z 25008KT 15SM BKN100 OVC250 09/M03 A2982 RMK AC6CI2 SLP131=

CYQF;2005-11-18 09:00;METAR CYQF 180900Z 24008KT 15SM BKN100 OVC250 07/M03 A2980 RMK AC5CI2 SLP110=

CYQF;2005-11-18 10:00;METAR CYQF 181000Z 26008KT 15SM SCT100 OVC230 06/M02 A2977 RMK AC4CI2 SLP102=

CYQF;2005-11-18 11:00;METAR CYQF 181100Z 24008KT 15SM FEW050 SCT100 OVC230 06/M02 A2976 RMK SC1AC3CI2 SLP096=

CYQF;2005-11-18 12:00;METAR CYQF 181200Z 24008KT 15SM FEW050 SCT100 OVC230 06/M02 A2973 RMK SC1AC3CI2 SLP091=

CYQF;2005-11-18 13:00;METAR CYQF 181300Z 25005KT 15SM FEW050 SCT100 BKN230 04/M03 A2972 RMK SC1AC2CI1 SLP089=

CYQF;2005-11-18 14:00;METAR CYQF 181400Z 30005KT 15SM -SHRA SCT050 BKN090 06/M02 A2973 RMK SC4AC2 SLP092=

CYQF;2005-11-18 15:00;METAR CYQF 181500Z 32025G40KT 15SM -SHRA BKN040 BKN090 OVC230 10/M01 A2981 RMK SC5AC2CI1 PRESRR VIRGA SLP116=

CYQF;2005-11-18 16:00;METAR CYQF 181600Z 33020G35KT 15SM SCT040 BKN090 11/M02 A2983 RMK SC3AC2 SHS S SLP124=

CYQF;2005-11-18 17:00;METAR CYQF 181700Z 33025G40KT 15SM FEW040 SCT090 SCT250 10/M03 A2990 RMK SC2AC2CI1 PRESRR SLP145=

CYQF;2005-11-18 18:00;METAR CYQF 181800Z 33020G35KT 15SM FEW040 BKN250 10/M03 A2996 RMK SC2CI2 SLP169=

CYQF;2005-11-18 19:00;METAR CYQF 181900Z 33020G35KT 15SM FEW040 BKN250 11/M03 A2998 RMK SC1CI1 SLP177=

CYQF;2005-11-18 20:00;METAR CYQF 182000Z 33015G30KT 15SM FEW040 SCT250 11/M03 A3003 RMK SC1CI1 SLP190=

CYQF;2005-11-18 21:00;METAR CYQF 182100Z 33017G30KT 15SM FEW040 FEW250 11/M04 A3006 RMK SC1CI1 SLP199=

CYQF;2005-11-18 22:00;METAR CYQF 182200Z 33010G20KT 15SM SCT250 10/M05 A3010 RMK CI1 SLP211=

CYQF;2005-11-18 23:00;METAR CYQF 182300Z 34010G15KT 15SM BKN250 08/M04 A3012 RMK CI1 SLP217=

CYQF;2005-11-19 00:00;METAR CYQF 190000Z 33007KT 15SM FEW250 05/M05 A3013 RMK CI1 SLP231=

CYQF;2005-11-19 01:00;METAR CYQF 190100Z 00000KT 15SM FEW250 02/M06 A3015 RMK CI1 SLP238=

CYQF;2005-11-19 02:00;METAR CYQF 190200Z 27002KT 15SM FEW250 M01/M07 A3017 RMK CI1 SLP244=

CYQF;2005-11-19 03:00;METAR CYQF 190300Z 24005KT 15SM SCT250 M01/M06 A3018 RMK CI2 SLP253=

CYQF;2005-11-19 04:00;METAR CYQF 190400Z 25009KT 15SM SCT250 M02/M06 A3020 RMK CI2 SLP257=

CYQF;2005-11-19 05:00;METAR CYQF 190500Z 25008KT 15SM FEW250 M02/M06 A3021 RMK CI1 SLP261=

CYQF;2005-11-19 06:00;METAR CYQF 190600Z 22006KT 15SM SCT250 M01/M05 A3021 RMK CI3 SLP261=

CYQF;2005-11-19 07:00;METAR CYQF 190700Z 21008KT 15SM SCT250 M02/M05 A3020 RMK CI1 SLP259=

CYQF;2005-11-19 08:00;METAR CYQF 190800Z 20007KT 15SM SCT250 M00/M05 A3019 RMK CI2 SLP255=

CYQF;2005-11-19 09:00;METAR CYQF 190900Z 21010KT 15SM BKN250 M02/M06 A3017 RMK CI2 SLP249=

CYQF;2005-11-19 10:00;METAR CYQF 191000Z 19007KT 15SM BKN250 M01/M05 A3016 RMK CI3 SLP246=

CYQF;2005-11-19 11:00;METAR CYQF 191100Z 21005KT 15SM BKN250 M02/M05 A3015 RMK CI4 SLP244=

CYQF;2005-11-19 12:00;METAR CYQF 191200Z 21003KT 15SM BKN250 M03/M06 A3014 RMK CI3 SLP246=

CYQF;2005-11-19 13:00;METAR CYQF 191300Z 19005KT 15SM SCT250 M02/M06 A3013 RMK CI1 SLP242=

CYQF;2005-11-19 14:00;METAR CYQF 191400Z 20007KT 15SM SCT250 M02/M06 A3012 RMK CI1 SLP240=

CYQF;2005-11-19 15:00;METAR CYQF 191500Z 20006KT 15SM FEW100 SCT250 M02/M06 A3012 RMK AC1CI0 SLP245=

CYQF;2005-11-19 16:00;METAR CYQF 191600Z 21006KT 15SM FEW100 BKN250 M00/M04 A3010 RMK AC1CI1 SLP238=

CYQF;2005-11-19 17:00;METAR CYQF 191700Z 22007KT 15SM FEW100 BKN250 04/M01 A3009 RMK AC1CI2 SLP236=

CYQF;2005-11-19 18:00;METAR CYQF 191800Z 22002KT 15SM FEW100 BKN250 08/00 A3011 RMK AC1CI1 SLP228=

CYQF;2005-11-19 19:00;METAR CYQF 191900Z 15004KT 15SM FEW100 BKN250 11/01 A3008 RMK AC1CI1 SLP221=

CYQF;2005-11-19 20:00;METAR CYQF 192000Z 22004KT 15SM FEW100 BKN250 12/M00 A3007 RMK AC1CI2 SLP218=

CYQF;2005-11-19 21:00;METAR CYQF 192100Z 23003KT 15SM FEW100 OVC250 13/M01 A3006 RMK AC2CI2 SLP208=

CYQF;2005-11-19 22:00;METAR CYQF 192200Z 22003KT 15SM BKN100 OVC250 10/M00 A3005 RMK AC6CI1 VIRGA SLP204=

CYQF;2005-11-19 23:00;METAR CYQF 192300Z 00000KT 15SM BKN100 BKN250 08/M01 A3003 RMK AC6CI1 VIRGA SLP200=

CYQF;2005-11-20 00:00;METAR CYQF 200000Z 00000KT 15SM BKN100 BKN250 07/M01 A3002 RMK AC7CI1 TR CI VIRGA SLP200=

CYQF;2005-11-20 01:00;METAR CYQF 200100Z 33003KT 15SM SCT100 SCT250 05/M02 A3003 RMK AC3CI1 SLP203=

CYQF;2005-11-20 02:00;METAR CYQF 200200Z 00000KT 15SM FEW100 00/M05 A3001 RMK AC2 SLP198=

CYQF;2005-11-20 03:00;METAR CYQF 200300Z 33004KT 15SM FEW100 00/M04 A3002 RMK AC2 SLP208=

CYQF;2005-11-20 04:00;METAR CYQF 200400Z 22002KT 15SM FEW100 SCT250 M02/M05 A3003 RMK AC2CI2 SLP211=

CYQF;2005-11-20 05:00;METAR CYQF 200500Z 18007KT 15SM FEW100 BKN250 M01/M04 A3003 RMK AC2CI2 SLP211=

CYQF;2005-11-20 06:00;METAR CYQF 200600Z 20007KT 15SM FEW100 SCT250 M01/M04 A3004 RMK AC2CI2 SLP204=

CYQF;2005-11-20 07:00;METAR CYQF 200700Z 20005KT 15SM FEW250 M01/M05 A3004 RMK CI1 SLP204=

CYQF;2005-11-20 08:00;METAR CYQF 200800Z 00000KT 15SM FEW250 M01/M04 A3004 RMK CI1 SLP204=

CYQF;2005-11-20 09:00;METAR CYQF 200900Z 20005KT 15SM BKN250 M02/M06 A3003 RMK CI3 SLP199=

CYQF;2005-11-20 10:00;METAR CYQF 201000Z 23004KT 15SM FEW100 BKN250 M00/M04 A3003 RMK AC1CI5 SLP199=

CYQF;2005-11-20 11:00;METAR CYQF 201100Z 21006KT 15SM FEW100 OVC250 M01/M05 A3003 RMK AC2CI5 SLP197=

CYQF;2005-11-20 12:00;METAR CYQF 201200Z 23003KT 15SM SCT100 OVC250 M02/M05 A3004 RMK AC3CI4 SLP207=

CYQF;2005-11-20 13:00;METAR CYQF 201300Z 22008KT 15SM FEW100 SCT250 M01/M04 A3004 RMK AC1CI1 SLP207=

CYQF;2005-11-20 14:00;METAR CYQF 201400Z 22007KT 15SM FEW100 SCT250 M01/M05 A3004 RMK AC1CI1 SLP208=

CYQF;2005-11-20 15:00;METAR CYQF 201500Z 00000KT 15SM FEW100 SCT250 M02/M05 A3006 RMK AC1CI1 SLP223=

CYQF;2005-11-20 16:00;METAR CYQF 201600Z 20007KT 15SM FEW050 FEW100 BKN250 M01/M05 A3006 RMK SC2AC1CI1 SLP224=

CYQF;2005-11-20 17:00;METAR CYQF 201700Z 23007KT 15SM FEW050 FEW100 BKN250 02/M02 A3008 RMK SC1AC1CI1 SLP229=

CYQF;2005-11-20 18:00;METAR CYQF 201800Z 23006KT 15SM FEW050 FEW100 BKN250 06/M01 A3010 RMK SC1AC1CI2 SLP227=

CYQF;2005-11-20 19:00;METAR CYQF 201900Z 25003KT 15SM FEW050 SCT250 08/M01 A3011 RMK SC1CI1 SLP231=

CYQF;2005-11-20 20:00;METAR CYQF 202000Z 32003KT 15SM SCT060 BKN250 10/M01 A3012 RMK SC4CI1 SLP235=

CYQF;2005-11-20 21:00;METAR CYQF 202100Z 33005KT 15SM FEW060 BKN250 11/M01 A3013 RMK SC2CI2 SLP235=

CYQF;2005-11-20 22:00;METAR CYQF 202200Z 03010KT 15SM SCT060 BKN250 11/M02 A3014 RMK SC3CI1 VIRGA NW SLP239=

CYQF;2005-11-20 23:00;METAR CYQF 202300Z 05005KT 15SM FEW060 SCT250 10/M02 A3016 RMK SC2CI1 SLP246=

CYQF;2005-11-21 00:00;METAR CYQF 210000Z 11002KT 15SM FEW050 SCT250 06/M03 A3020 RMK SC2CI1 SLP265=

CYQF;2005-11-21 01:00;METAR CYQF 210100Z 07002KT 15SM FEW050 SCT250 03/M04 A3023 RMK SC1CI2 SLP273=

CYQF;2005-11-21 02:00;METAR CYQF 210200Z 00000KT 15SM FEW250 00/M05 A3024 RMK CI1 SLP277=

CYQF;2005-11-21 03:00;METAR CYQF 210300Z 19002KT 15SM SKC M01/M06 A3025 RMK SLP289=

CYQF;2005-11-21 04:00;METAR CYQF 210400Z 25002KT 15SM SKC M02/M06 A3025 RMK SLP291=

CYQF;2005-11-21 05:00;METAR CYQF 210500Z 25003KT 15SM BKN250 M04/M07 A3027 RMK CI2 SLP295=

CYQF;2005-11-21 06:00;METAR CYQF 210600Z 19004KT 15SM FEW250 M04/M07 A3026 RMK CI0 SLP289=

CYQF;2005-11-21 07:00;METAR CYQF 210700Z 19006KT 15SM SKC M04/M07 A3026 RMK SLP287=

CYQF;2005-11-21 08:00;METAR CYQF 210800Z 18003KT 15SM FEW100 M04/M07 A3024 RMK AC2 SLP282=

CYQF;2005-11-21 09:00;METAR CYQF 210900Z 00000KT 15SM FEW100 M02/M06 A3022 RMK AC1 SLP265=

CYQF;2005-11-21 10:00;METAR CYQF 211000Z 00000KT 15SM FEW250 M05/M08 A3021 RMK CI0 SLP264=

CYQF;2005-11-21 11:00;METAR CYQF 211100Z 21004KT 15SM FEW250 M05/M08 A3019 RMK CI0 SLP258=

CYQF;2005-11-21 12:00;METAR CYQF 211200Z 23002KT 15SM FEW100 SCT250 M04/M07 A3018 RMK AC1CI0 SLP261=

CYQF;2005-11-21 13:00;METAR CYQF 211300Z 19005KT 15SM FEW100 SCT250 M05/M08 A3016 RMK AC1CI0 SLP254=

CYQF;2005-11-21 14:00;METAR CYQF 211400Z 20005KT 15SM FEW100 SCT250 M03/M07 A3016 RMK AC2CI0 SLP253=

CYQF;2005-11-21 15:00;METAR CYQF 211500Z 21005KT 15SM FEW040 FEW100 SCT250 M03/M07 A3015 RMK SC1AC1CI0 SLP258=

CYQF;2005-11-21 16:00;METAR CYQF 211600Z 21005KT 15SM FEW100 BKN250 M02/M06 A3016 RMK AC2CI2 SLP259=

CYQF;2005-11-21 17:00;METAR CYQF 211700Z 24008KT 15SM BKN100 OVC250 M00/M04 A3015 RMK AC5CI2 SLP257=

CYQF;2005-11-21 18:00;METAR CYQF 211800Z 20006KT 15SM BKN080 BKN250 03/M02 A3014 RMK AC5CI2 SLP250=

CYQF;2005-11-21 19:00;METAR CYQF 211900Z 22010KT 15SM BKN080 BKN250 07/M01 A3013 RMK AC5CI1 SLP245=

CYQF;2005-11-21 20:00;METAR CYQF 212000Z 23005KT 15SM FEW080 BKN250 08/M01 A3011 RMK AC2CI2 SLP241=

CYQF;2005-11-21 21:00;METAR CYQF 212100Z 22003KT 15SM FEW080 BKN250 12/00 A3010 RMK AC2CI3 SLP224=

CYQF;2005-11-21 22:00;METAR CYQF 212200Z 22003KT 15SM FEW080 BKN250 12/00 A3009 RMK AC1CI4 SLP220=

CYQF;2005-11-21 23:00;METAR CYQF 212300Z 20003KT 15SM FEW080 BKN250 09/M01 A3009 RMK AC1CI3 SLP220=

CYQF;2005-11-22 00:00;METAR CYQF 220000Z 20006KT 15SM FEW080 BKN250 06/M02 A3007 RMK AC1CI2 SLP222=

CYQF;2005-11-22 01:00;METAR CYQF 220100Z 20006KT 15SM FEW080 BKN250 03/M03 A3006 RMK AC1CI2 SLP219=

CYQF;2005-11-22 02:00;METAR CYQF 220200Z 19007KT 15SM FEW250 03/M03 A3005 RMK CI0 SLP215=

CYQF;2005-11-22 03:00;METAR CYQF 220300Z 22009KT 15SM SCT250 00/M04 A3004 RMK CI2 SLP217=

CYQF;2005-11-22 04:00;METAR CYQF 220400Z 23012KT 15SM SKC 02/M04 A3002 RMK SLP211=

CYQF;2005-11-22 05:00;METAR CYQF 220500Z 23009KT 15SM SKC 03/M04 A3001 RMK SLP209=

CYQF;2005-11-22 06:00;METAR CYQF 220600Z 23009KT 15SM SKC 01/M05 A3000 RMK SLP194=

CYQF;2005-11-22 07:00;METAR CYQF 220700Z 24010KT 15SM FEW250 02/M05 A3000 RMK CI1 SLP194=

CYQF;2005-11-22 08:00;METAR CYQF 220800Z 23012KT 15SM FEW100 BKN250 04/M05 A2999 RMK AC1CI1 SLP190=

CYQF;2005-11-22 09:00;METAR CYQF 220900Z 23009KT 15SM SCT100 BKN250 03/M06 A2997 RMK AC2CI1 SLP173=

CYQF;2005-11-22 10:00;METAR CYQF 221000Z 18005KT 15SM BKN100 03/M06 A2997 RMK AC5 SLP172=

CYQF;2005-11-22 11:00;METAR CYQF 221100Z 24008KT 15SM BKN100 02/M06 A2996 RMK AC4 SLP168=

CYQF;2005-11-22 12:00;METAR CYQF 221200Z 24010KT 15SM BKN150 04/M06 A2995 RMK AC3 SLP169=

CYQF;2005-11-22 13:00;METAR CYQF 221300Z 22008KT 15SM FEW250 03/M07 A2993 RMK CI0 SLP163=

CYQF;2005-11-22 14:00;METAR CYQF 221400Z 23011KT 15SM FEW250 03/M07 A2991 RMK CI1 SLP158=

CYQF;2005-11-22 15:00;METAR CYQF 221500Z 23010KT 15SM SCT250 02/M07 A2991 RMK CI1 SLP164=

CYQF;2005-11-22 16:00;METAR CYQF 221600Z 23005KT 15SM FEW100 BKN250 02/M07 A2991 RMK AC1CI2 SLP166=

CYQF;2005-11-22 17:00;METAR CYQF 221700Z 25004KT 15SM FEW100 BKN250 09/M04 A2992 RMK AC1CI2 SLP169=

CYQF;2005-11-22 18:00;METAR CYQF 221800Z 24010KT 15SM FEW100 BKN250 09/M04 A2992 RMK AC1CI2 SLP160=

CYQF;2005-11-22 19:00;METAR CYQF 221900Z 23007KT 15SM FEW100 BKN250 12/M04 A2990 RMK AC2CI2 SLP153=

CYQF;2005-11-22 20:00;METAR CYQF 222000Z 24005KT 15SM FEW120 BKN250 15/M03 A2989 RMK AC2CI2 SLP150=

CYQF;2005-11-22 21:00;METAR CYQF 222100Z 26002KT 15SM FEW120 BKN250 15/M03 A2988 RMK AC2CI2 SLP138=

CYQF;2005-11-22 22:00;METAR CYQF 222200Z 28007KT 15SM FEW120 BKN250 16/M04 A2987 RMK AC2CI2 SLP136=

CYQF;2005-11-22 23:00;METAR CYQF 222300Z 22004KT 15SM FEW120 BKN250 13/M06 A2988 RMK AC2CI2 SLP137=

CYQF;2005-11-23 00:00;METAR CYQF 230000Z 27004KT 15SM FEW120 BKN250 10/M07 A2988 RMK AC2CI2 SLP142=

CYQF;2005-11-23 01:00;METAR CYQF 230100Z 19003KT 15SM FEW120 04/M06 A2989 RMK AC2 SLP145=

CYQF;2005-11-23 03:00;METAR CYQF 230300Z 25007KT 15SM SKC 03/M05 A2989 RMK SLP155=

CYQF;2005-11-23 04:00;METAR CYQF 230400Z 26007KT 15SM SKC 03/M05 A2990 RMK SLP159=

CYQF;2005-11-23 05:00;METAR CYQF 230500Z 25006KT 15SM FEW250 04/M06 A2991 RMK CI1 SLP162=

CYQF;2005-11-23 06:00;METAR CYQF 230600Z 22002KT 15SM FEW250 03/M06 A2992 RMK CI1 SLP157=

CYQF;2005-11-23 07:00;METAR CYQF 230700Z 00000KT 15SM FEW250 01/M07 A2994 RMK CI1 SLP165=

CYQF;2005-11-23 08:00;METAR CYQF 230800Z 19005KT 15SM FEW250 M01/M07 A2995 RMK CI1 SLP168=

CYQF;2005-11-23 09:00;METAR CYQF 230900Z 22004KT 15SM FEW250 M01/M07 A2996 RMK CI1 SLP172=

CYQF;2005-11-23 10:00;METAR CYQF 231000Z 21007KT 15SM FEW250 M02/M08 A2997 RMK CI1 SLP175=

CYQF;2005-11-23 11:00;METAR CYQF 231100Z 21006KT 15SM FEW250 M02/M08 A2997 RMK CI0 SLP174=

CYQF;2005-11-23 12:00;METAR CYQF 231200Z 18005KT 15SM FEW250 M03/M08 A2998 RMK CI1 SLP183=

CYQF;2005-11-23 13:00;METAR CYQF 231300Z 18004KT 15SM SKC M02/M08 A2999 RMK SLP187=

CYQF;2005-11-23 14:00;METAR CYQF 231400Z 19007KT 15SM FEW040 M02/M09 A2999 RMK SC1 SLP186=

CYQF;2005-11-23 15:00;METAR CYQF 231500Z 20004KT 15SM FEW040 M04/M09 A3000 RMK SC1 SLP201=

CYQF;2005-11-23 16:00;METAR CYQF 231600Z 22005KT 15SM FEW120 M02/M08 A3000 RMK AC1 SLP203=

CYQF;2005-11-23 17:00;METAR CYQF 231700Z 21003KT 15SM FEW120 SCT240 02/M06 A3001 RMK AC2CI1 SLP205=

CYQF;2005-11-23 18:00;METAR CYQF 231800Z 20005KT 15SM SCT120 BKN240 06/M04 A3001 RMK AC4CI0 SLP192=

CYQF;2005-11-23 19:00;METAR CYQF 231900Z 24004KT 15SM BKN120 08/M05 A3000 RMK AC5 SLP191=

CYQF;2005-11-23 20:00;METAR CYQF 232000Z 23004KT 15SM FEW120 BKN240 10/M05 A3000 RMK AC2CI2 SLP189=

CYQF;2005-11-23 21:00;METAR CYQF 232100Z 21003KT 15SM FEW120 BKN240 10/M04 A2998 RMK AC2CI2 SLP184=

CYQF;2005-11-23 22:00;METAR CYQF 232200Z 22004KT 15SM FEW120 BKN240 14/M03 A2997 RMK AC2CI2 SLP179=

CYQF;2005-11-23 23:00;METAR CYQF 232300Z 00000KT 15SM FEW120 BKN240 11/M03 A2997 RMK AC2CI2 SLP179=

CYQF;2005-11-24 00:00;METAR CYQF 240000Z 00000KT 15SM FEW120 BKN240 06/M04 A2995 RMK AC2CI2 SLP179=

CYQF;2005-11-24 01:00;METAR CYQF 240100Z 00000KT 15SM FEW120 SCT240 03/M05 A2995 RMK AC2CI1 SLP177=

CYQF;2005-11-24 02:00;METAR CYQF 240200Z 20002KT 15SM FEW100 FEW240 00/M06 A2993 RMK AC1CI0 SLP173=

CYQF;2005-11-24 03:00;METAR CYQF 240300Z 20003KT 15SM SKC 00/M06 A2994 RMK SLP183=

CYQF;2005-11-24 04:00;METAR CYQF 240400Z 21008KT 15SM SKC M02/M07 A2993 RMK SLP179=

CYQF;2005-11-24 07:00;METAR CYQF 240700Z 20003KT 15SM SKC M02/M07 A2992 RMK SLP165=

CYQF;2005-11-24 08:00;METAR CYQF 240800Z 23003KT 15SM FEW250 M04/M08 A2990 RMK CI2 SLP161=

CYQF;2005-11-24 09:00;METAR CYQF 240900Z 20006KT 15SM FEW250 M04/M09 A2988 RMK CI2 SLP153=

CYQF;2005-11-24 10:00;METAR CYQF 241000Z 23003KT 15SM FEW250 M05/M09 A2987 RMK CI2 SLP148=

CYQF;2005-11-24 11:00;METAR CYQF 241100Z 27002KT 15SM FEW250 M05/M10 A2986 RMK CI2 SLP145=

CYQF;2005-11-24 12:00;METAR CYQF 241200Z 17007KT 15SM SKC M06/M10 A2983 RMK SLP141=

CYQF;2005-11-24 13:00;METAR CYQF 241300Z 21005KT 15SM SKC M06/M10 A2982 RMK SLP137=

CYQF;2005-11-24 14:00;METAR CYQF 241400Z 20005KT 15SM SKC M06/M11 A2981 RMK SLP133=

CYQF;2005-11-24 15:00;METAR CYQF 241500Z 21005KT 15SM SKC M05/M10 A2981 RMK SLP138=

CYQF;2005-11-24 16:00;METAR CYQF 241600Z 20005KT 15SM FEW100 M05/M09 A2981 RMK AC1 SLP139=

CYQF;2005-11-24 17:00;METAR CYQF 241700Z 19004KT 15SM SKC M01/M06 A2981 RMK SLP138=

CYQF;2005-11-24 18:00;METAR CYQF 241800Z 20005KT 15SM FEW100 02/M05 A2980 RMK AC1 SLP128=

CYQF;2005-11-24 19:00;METAR CYQF 241900Z 23005KT 15SM FEW240 06/M04 A2977 RMK CI0 SLP120=

CYQF;2005-11-24 20:00;METAR CYQF 242000Z 24004KT 15SM SKC 09/M04 A2976 RMK SLP115=

CYQF;2005-11-24 21:00;METAR CYQF 242100Z 22002KT 15SM SKC 10/M03 A2975 RMK SLP104=

CYQF;2005-11-24 22:00;METAR CYQF 242200Z 18004KT 15SM SKC 10/M04 A2972 RMK SLP097=

CYQF;2005-11-24 23:00;METAR CYQF 242300Z 18003KT 15SM SKC 09/M05 A2971 RMK SLP093=

CYQF;2005-11-25 00:00;METAR CYQF 250000Z 19003KT 15SM SKC 04/M06 A2970 RMK SLP098=

CYQF;2005-11-25 01:00;METAR CYQF 250100Z 20004KT 15SM SKC M00/M08 A2969 RMK SLP094=

CYQF;2005-11-25 02:00;METAR CYQF 250200Z 19005KT 15SM SKC M02/M08 A2969 RMK SLP094=

CYQF;2005-11-25 03:00;METAR CYQF 250300Z 16004KT 15SM SKC M02/M08 A2968 RMK SLP098=

CYQF;2005-11-25 04:00;METAR CYQF 250400Z 19005KT 15SM SKC M05/M09 A2966 RMK SLP092=

CYQF;2005-11-25 05:00;METAR CYQF 250500Z 19004KT 15SM SKC M04/M09 A2965 RMK SLP088=

CYQF;2005-11-25 06:00;METAR CYQF 250600Z 20004KT 15SM SKC M06/M10 A2965 RMK SLP082=

CYQF;2005-11-25 07:00;METAR CYQF 250700Z 20003KT 15SM SKC M07/M11 A2964 RMK SLP080=

CYQF;2005-11-25 08:00;METAR CYQF 250800Z 21004KT 15SM SKC M05/M10 A2964 RMK SLP080=

CYQF;2005-11-25 09:00;METAR CYQF 250900Z 20005KT 15SM FEW090 M06/M10 A2964 RMK AC1 SLP068=

CYQF;2005-11-25 10:00;METAR CYQF 251000Z 21005KT 15SM FEW090 FEW250 M05/M10 A2964 RMK AC1CI0 SLP069=

CYQF;2005-11-25 11:00;METAR CYQF 251100Z 20006KT 15SM BKN100 OVC250 M05/M09 A2963 RMK AC5CI2 SLP066=

CYQF;2005-11-25 12:00;METAR CYQF 251200Z 21004KT 15SM SCT100 OVC250 M03/M08 A2964 RMK AC3CI3 SLP074=

CYQF;2005-11-25 13:00;METAR CYQF 251300Z 19004KT 15SM FEW100 BKN250 M03/M08 A2964 RMK AC2CI2 SLP072=

CYQF;2005-11-25 14:00;METAR CYQF 251400Z 23003KT 15SM FEW100 SCT250 M04/M09 A2964 RMK AC1CI2 SLP074=

CYQF;2005-11-25 15:00;METAR CYQF 251500Z 21005KT 15SM FEW100 BKN250 M04/M09 A2963 RMK AC2CI4 SLP077=

CYQF;2005-11-25 16:00;METAR CYQF 251600Z 00000KT 15SM FEW100 SCT250 M03/M09 A2962 RMK AC1CI1 SLP075=

CYQF;2005-11-25 17:00;METAR CYQF 251700Z 17005KT 15SM FEW100 FEW250 M00/M06 A2962 RMK AC1CI1 TR AC SLP076=

CYQF;2005-11-25 18:00;METAR CYQF 251800Z 23004KT 15SM FEW100 FEW250 05/M03 A2961 RMK AC1CI1 TR CLD SLP066=

CYQF;2005-11-25 19:00;METAR CYQF 251900Z 25004KT 15SM FEW100 FEW250 08/M03 A2961 RMK AC1CI1 TR CLD SLP064=

CYQF;2005-11-25 20:00;METAR CYQF 252000Z 36010G18KT 15SM FEW250 11/M05 A2957 RMK CI0 SLP053=

CYQF;2005-11-25 21:00;METAR CYQF 252100Z 36007KT 15SM FEW250 11/M04 A2955 RMK CI1 SLP038=

CYQF;2005-11-25 22:00;METAR CYQF 252200Z 35003KT 15SM FEW100 SCT250 09/M05 A2954 RMK AC1CI1 TR AC SLP035=

CYQF;2005-11-25 23:00;METAR CYQF 252300Z 34005KT 15SM FEW100 BKN250 03/M06 A2952 RMK AC1CI2 SLP030=

CYQF;2005-11-26 00:00;METAR CYQF 260000Z 35005KT 15SM FEW100 BKN250 02/M07 A2952 RMK AC1CI2 SLP033=

CYQF;2005-11-26 01:00;METAR CYQF 260100Z 35007KT 15SM FEW120 SCT250 03/M06 A2950 RMK AC2CI1 SLP027=

CYQF;2005-11-26 02:00;METAR CYQF 260200Z 33005KT 15SM FEW120 BKN250 02/M06 A2950 RMK AC2CI2 SLP027=

CYQF;2005-11-26 03:00;METAR CYQF 260300Z 21003KT 15SM BKN100 BKN250 M01/M07 A2950 RMK AC5CI1 SLP034=

CYQF;2005-11-26 04:00;METAR CYQF 260400Z 01005KT 15SM OVC100 01/M06 A2948 RMK AC8 SLP026=

CYQF;2005-11-26 05:00;METAR CYQF 260500Z 35002KT 15SM BKN100 OVC250 01/M06 A2949 RMK AC6CI2 SLP029=

CYQF;2005-11-26 06:00;METAR CYQF 260600Z 02004KT 15SM BKN100 OVC250 01/M06 A2947 RMK AC6CI2 SLP011=

CYQF;2005-11-26 07:00;METAR CYQF 260700Z 05003KT 15SM BKN100 OVC250 01/M06 A2947 RMK AC6CI2 SLP010=

CYQF;2005-11-26 08:00;METAR CYQF 260800Z 00000KT 15SM OVC100 M01/M06 A2948 RMK AC8 SLP012=

CYQF;2005-11-26 09:00;METAR CYQF 260900Z 00000KT 15SM BKN100 BKN250 M01/M06 A2946 RMK AC6CI2 SLP004=

CYQF;2005-11-26 10:00;METAR CYQF 261000Z 00000KT 15SM OVC100 M02/M06 A2948 RMK AC8 SLP008=

CYQF;2005-11-26 11:00;METAR CYQF 261100Z 00000KT 15SM OVC100 M01/M06 A2947 RMK AC8 SLP005=

CYQF;2005-11-26 12:00;METAR CYQF 261200Z 00000KT 15SM BKN100 OVC250 M01/M06 A2948 RMK AC7CI1 SLP020=

CYQF;2005-11-26 13:00;METAR CYQF 261300Z 27004KT 15SM BKN100 OVC250 M02/M06 A2950 RMK AC7CI1 SLP026=

CYQF;2005-11-26 14:00;METAR CYQF 261400Z 31005KT 15SM OVC100 M00/M06 A2951 RMK AC8 SLP029=

CYQF;2005-11-26 15:00;METAR CYQF 261500Z 31005KT 15SM BKN100 M00/M06 A2953 RMK AC7 SLP037=

CYQF;2005-11-26 16:00;METAR CYQF 261600Z 30007KT 15SM BKN100 M00/M06 A2955 RMK AC7 SLP043=

CYQF;2005-11-26 17:00;METAR CYQF 261700Z 33005KT 15SM BKN100 01/M05 A2956 RMK AC6 SLP049=

CYQF;2005-11-26 18:00;METAR CYQF 261800Z 34011KT 15SM FEW100 SCT250 02/M05 A2959 RMK AC2CI0 SLP055=

CYQF;2005-11-26 19:00;METAR CYQF 261900Z 34010KT 15SM FEW100 SCT250 04/M04 A2961 RMK AC2CI0 SLP061=

CYQF;2005-11-26 20:00;METAR CYQF 262000Z 34012G21KT 15SM FEW100 BKN250 04/M04 A2963 RMK AC2CI1 SLP067=

CYQF;2005-11-26 21:00;METAR CYQF 262100Z 33013G25KT 15SM FEW020 BKN100 04/M05 A2966 RMK SC1AC6 SLP079=

CYQF;2005-11-26 22:00;METAR CYQF 262200Z 33012G20KT 15SM FEW020 OVC090 04/M04 A2969 RMK SC1AC7 SLP087=

CYQF;2005-11-26 23:00;METAR CYQF 262300Z 33013G22KT 15SM FEW020 OVC090 03/M02 A2972 RMK SC2AC6 SLP097=

CYQF;2005-11-27 00:00;METAR CYQF 270000Z 31013G20KT 15SM FEW030 OVC090 02/M02 A2976 RMK SC2AC6 SLP115=

CYQF;2005-11-27 01:00;METAR CYQF 270100Z 32012G20KT 15SM SCT020 OVC090 02/M02 A2979 RMK SC3AC5 SLP124=

CYQF;2005-11-27 02:00;METAR CYQF 270200Z 32010G17KT 15SM SCT020 OVC090 02/M03 A2981 RMK SC4AC4 SLP130=

CYQF;2005-11-27 03:00;METAR CYQF 270300Z 32012G20KT 15SM SCT020 OVC090 02/M03 A2983 RMK SC4AC4 SLP139=

CYQF;2005-11-27 04:00;METAR CYQF 270400Z 33012G20KT 15SM FEW025 OVC100 01/M03 A2986 RMK SC2AC6 SLP148=

CYQF;2005-11-27 05:00;METAR CYQF 270500Z 34012G18KT 15SM SCT025 BKN100 01/M04 A2988 RMK SC4AC2 SLP155=

CYQF;2005-11-27 06:00;METAR CYQF 270600Z 34010G15KT 15SM BKN025 OVC100 01/M04 A2990 RMK SC6AC2 SLP163=

CYQF;2005-11-27 07:00;METAR CYQF 270700Z 35010G15KT 15SM SCT025 BKN100 00/M04 A2993 RMK SC3AC3 SLP171=

CYQF;2005-11-27 08:00;METAR CYQF 270800Z 33008KT 15SM FEW025 OVC100 M00/M05 A2995 RMK SC2AC5 SLP179=

CYQF;2005-11-27 09:00;METAR CYQF 270900Z 34013KT 15SM SCT025 BKN100 M01/M05 A2998 RMK SC4AC3 SLP189=

CYQF;2005-11-27 10:00;METAR CYQF 271000Z 34011KT 15SM FEW025 BKN100 M01/M05 A3000 RMK SC2AC6 SLP196=

CYQF;2005-11-27 11:00;METAR CYQF 271100Z 35014KT 15SM OVC100 M02/M06 A3002 RMK AC8 SLP202=

CYQF;2005-11-27 12:00;METAR CYQF 271200Z 33007KT 15SM BKN100 OVC250 M02/M08 A3005 RMK AC6CI2 SLP216=

CYQF;2005-11-27 13:00;METAR CYQF 271300Z 32007KT 15SM SCT100 OVC250 M02/M08 A3006 RMK AC4CI4 SLP220=

CYQF;2005-11-27 14:00;METAR CYQF 271400Z 32007KT 15SM BKN100 OVC250 M02/M08 A3008 RMK AC6CI2 SLP226=

CYQF;2005-11-27 15:00;METAR CYQF 271500Z 33011KT 15SM FEW025 BKN100 OVC250 M03/M08 A3010 RMK SC1AC6CI1 SLP235=

CYQF;2005-11-27 16:00;METAR CYQF 271600Z 33010KT 15SM BKN100 OVC250 M02/M08 A3011 RMK AC6CI2 SLP238=

CYQF;2005-11-27 17:00;METAR CYQF 271700Z 34009KT 15SM BKN090 OVC250 M02/M08 A3013 RMK AC6CI2 SLP245=

CYQF;2005-11-27 18:00;METAR CYQF 271800Z 34006KT 15SM BKN090 OVC250 M02/M09 A3015 RMK AC6CI2 SLP251=

CYQF;2005-11-27 19:00;METAR CYQF 271900Z 33011KT 15SM BKN090 OVC250 M01/M10 A3015 RMK AC6CI1 SLP251=

CYQF;2005-11-27 20:00;METAR CYQF 272000Z 35008KT 15SM BKN090 OVC250 M01/M10 A3015 RMK AC5CI2 SLP252=

CYQF;2005-11-27 21:00;METAR CYQF 272100Z 34010KT 15SM SCT090 BKN250 M00/M11 A3015 RMK AC4CI2 SLP251=

CYQF;2005-11-27 22:00;METAR CYQF 272200Z 32007KT 15SM FEW090 BKN250 M01/M10 A3016 RMK AC2CI4 SLP255=

CYQF;2005-11-27 23:00;METAR CYQF 272300Z 32003KT 15SM SCT090 OVC250 M02/M10 A3017 RMK AC3CI4 SLP259=

CYQF;2005-11-28 00:00;METAR CYQF 280000Z 33003KT 15SM SCT090 OVC250 M04/M10 A3018 RMK AC3CI4 SLP270=

CYQF;2005-11-28 01:00;METAR CYQF 280100Z 33004KT 15SM FEW090 BKN250 M05/M10 A3020 RMK AC2CI2 SLP274=

CYQF;2005-11-28 02:00;METAR CYQF 280200Z 33005KT 15SM FEW090 SCT250 M06/M11 A3021 RMK AC1CI1 SLP277=

CYQF;2005-11-28 03:00;METAR CYQF 280300Z 32006KT 15SM SKC M07/M12 A3022 RMK SLP286=

CYQF;2005-11-28 04:00;METAR CYQF 280400Z 33005KT 15SM SKC M07/M11 A3023 RMK SLP290=

CYQF;2005-11-28 05:00;METAR CYQF 280500Z 33006KT 15SM SKC M07/M12 A3024 RMK SLP292=

CYQF;2005-11-28 06:00;METAR CYQF 280600Z 33005KT 15SM SCT120 M06/M12 A3025 RMK AC3 SLP294=

CYQF;2005-11-28 07:00;METAR CYQF 280700Z 33003KT 15SM BKN100 M06/M12 A3025 RMK AC5 SLP296=

CYQF;2005-11-28 08:00;METAR CYQF 280800Z 00000KT 15SM SCT050 BKN100 M06/M12 A3026 RMK SC3AC2 SLP298=

CYQF;2005-11-28 09:00;METAR CYQF 280900Z 31005KT 15SM SCT050 BKN100 M07/M11 A3026 RMK SC2AC2 SLP297=

CYQF;2005-11-28 10:00;METAR CYQF 281000Z 31003KT 15SM SCT050 BKN100 M08/M12 A3026 RMK SC2AC2 SLP298=

CYQF;2005-11-28 11:00;METAR CYQF 281100Z 00000KT 15SM FEW100 BKN250 M09/M12 A3027 RMK AC1CI1 SLP300=

CYQF;2005-11-28 12:00;METAR CYQF 281200Z 00000KT 15SM FEW100 SCT250 M10/M14 A3027 RMK AC1CI1 SLP310=

CYQF;2005-11-28 13:00;METAR CYQF 281300Z 00000KT 15SM FEW250 M10/M13 A3027 RMK CI1 SLP311=

CYQF;2005-11-28 14:00;METAR CYQF 281400Z 00000KT 15SM FEW100 SCT250 M11/M14 A3028 RMK AC1CI1 SLP312=

CYQF;2005-11-28 15:00;METAR CYQF 281500Z 00000KT 15SM BKN100 OVC250 M10/M13 A3028 RMK AC6CI1 SLP317=

CYQF;2005-11-28 16:00;METAR CYQF 281600Z 00000KT 15SM SCT100 BKN250 M11/M14 A3027 RMK AC3CI1 SLP314=

CYQF;2005-11-28 17:00;METAR CYQF 281700Z 20002KT 15SM BKN100 BKN250 M09/M12 A3027 RMK AC3CI1 SLP315=

CYQF;2005-11-28 18:00;METAR CYQF 281800Z 00000KT 15SM SCT100 BKN250 M05/M09 A3027 RMK AC3CI1 SLP306=

CYQF;2005-11-28 19:00;METAR CYQF 281900Z 35006KT 15SM BKN100 BKN250 M04/M12 A3025 RMK AC5CI0 SLP301=

CYQF;2005-11-28 20:00;METAR CYQF 282000Z 35006KT 15SM BKN100 BKN250 M04/M11 A3022 RMK AC6CI0 SLP292=

CYQF;2005-11-28 21:00;METAR CYQF 282100Z 03005KT 15SM BKN100 M04/M12 A3020 RMK AC7 SLP282=

CYQF;2005-11-28 22:00;METAR CYQF 282200Z 02004KT 15SM BKN100 BKN250 M04/M11 A3020 RMK AC7CI1 SLP280=

CYQF;2005-11-28 23:00;METAR CYQF 282300Z 03003KT 15SM BKN090 BKN250 M04/M11 A3018 RMK AC7CI1 SLP276=

CYQF;2005-11-29 00:00;METAR CYQF 290000Z 02004KT 15SM BKN090 OVC250 M06/M12 A3018 RMK AC7CI1 SLP281=

CYQF;2005-11-29 01:00;METAR CYQF 290100Z 02004KT 15SM BKN100 OVC250 M06/M13 A3016 RMK AC6CI2 SLP276=

CYQF;2005-11-29 02:00;METAR CYQF 290200Z 00000KT 15SM OVC090 M07/M13 A3015 RMK AC8 SLP273=

CYQF;2005-11-29 03:00;METAR CYQF 290300Z 03004KT 15SM BKN090 BKN250 M07/M13 A3015 RMK AC6CI2 SLP270=

CYQF;2005-11-29 04:00;METAR CYQF 290400Z 01003KT 15SM BKN090 OVC250 M08/M13 A3014 RMK AC6CI2 SLP268=

CYQF;2005-11-29 05:00;METAR CYQF 290500Z 33002KT 15SM BKN070 OVC250 M08/M13 A3013 RMK AC6CI2 SLP266=

CYQF;2005-11-29 06:00;METAR CYQF 290600Z 03005KT 15SM BKN070 OVC250 M07/M13 A3011 RMK AC6CI2 SLP253=

CYQF;2005-11-29 07:00;METAR CYQF 290700Z 04007KT 15SM BKN070 OVC250 M08/M15 A3010 RMK AC6CI2 SLP249=

CYQF;2005-11-29 08:00;METAR CYQF 290800Z 03007KT 15SM BKN050 OVC090 M08/M14 A3008 RMK SC6AC2 SLP243=

CYQF;2005-11-29 09:00;METAR CYQF 290900Z 04008KT 15SM -SN OVC050 M09/M13 A3007 RMK SC8 SLP239=

CYQF;2005-11-29 10:00;METAR CYQF 291000Z 03008KT 15SM -SN OVC050 M11/M16 A3005 RMK SC8 SLP234=

CYQF;2005-11-29 11:00;METAR CYQF 291100Z 04007KT 15SM -SN OVC050 M11/M16 A3003 RMK SC8 SLP226=

CYQF;2005-11-29 12:00;METAR CYQF 291200Z 04007KT 15SM -SN OVC050 M12/M16 A3002 RMK SC8 SLP225=

CYQF;2005-11-29 13:00;METAR CYQF 291300Z 03006KT 15SM -SN OVC040 M12/M16 A3001 RMK SC8 SLP223=

CYQF;2005-11-29 14:00;METAR CYQF 291400Z 03005KT 12SM -SN OVC035 M12/M16 A3000 RMK SC8 SLP221=

CYQF;2005-11-29 15:00;METAR CYQF 291500Z 03005KT 6SM -SN OVC030 M12/M16 A2999 RMK SC8 SLP220=

CYQF;2005-11-29 16:00;METAR CYQF 291600Z 04005KT 6SM -SN OVC030 M12/M16 A2998 RMK SC8 SLP217=

CYQF;2005-11-29 17:00;METAR CYQF 291700Z 05008KT 4SM -SN BKN030 OVC090 M12/M16 A2998 RMK SC6AC2 SLP215=

CYQF;2005-11-29 18:00;METAR CYQF 291800Z 03005KT 6SM -SN SCT030 OVC050 M12/M16 A2996 RMK SC3SC5 SLP209=

CYQF;2005-11-29 19:00;METAR CYQF 291900Z 03010KT 6SM -SN SCT045 OVC090 M12/M16 A2994 RMK SC4AC4 SLP201=

CYQF;2005-11-29 20:00;METAR CYQF 292000Z 03005KT 6SM -SN BKN025 OVC060 M12/M16 A2993 RMK SC6SC2 SLP200=

CYQF;2005-11-29 20:50;SPECI CYQF 292050Z 02005KT 2SM -SN BKN015 OVC025 RMK SC6SC2=

CYQF;2005-11-29 21:00;METAR CYQF 292100Z 03006KT 2SM -SN BKN015 OVC025 M12/M15 A2993 RMK SC6SC2 SLP199=

CYQF;2005-11-29 21:19;SPECI CYQF 292119Z 02005KT 3SM -SN BKN015 OVC025 RMK SC6SC2=

CYQF;2005-11-29 22:00;METAR CYQF 292200Z 02010KT 3SM -SN BKN015 OVC050 M11/M15 A2993 RMK SC6SC2 SLP198=

CYQF;2005-11-29 23:00;METAR CYQF 292300Z 01007KT 3SM -SN BKN015 OVC050 M12/M16 A2993 RMK SC6SC2 SLP200=

CYQF;2005-11-29 23:37;SPECI CYQF 292337Z 02007KT 2SM -SN OVC015 RMK SC8=

CYQF;2005-11-30 00:00;METAR CYQF 300000Z 02006KT 2SM -SN OVC015 M12/M15 A2994 RMK SC8 SLP207=

CYQF;2005-11-30 01:00;METAR CYQF 300100Z 01004KT 3SM -SN SCT015 OVC030 M12/M16 A2996 RMK SC4SC4 SLP212=

CYQF;2005-11-30 02:00;METAR CYQF 300200Z 36007KT 3SM -SN FEW015 OVC030 M12/M16 A2995 RMK SC2SC6 SLP211=

CYQF;2005-11-30 03:00;METAR CYQF 300300Z 36007KT 8SM -SN FEW015 OVC027 M13/M16 A2997 RMK SC2SC6 SLP217=

CYQF;2005-11-30 04:00;METAR CYQF 300400Z 02006KT 8SM -SN OVC023 M13/M17 A2998 RMK SC8 SLP220=

CYQF;2005-11-30 04:24;SPECI CYQF 300424Z 01005KT 2SM -SN VV013 RMK SN8=

CYQF;2005-11-30 05:00;METAR CYQF 300500Z 01003KT 3SM -SN OVC025 M13/M16 A2998 RMK SC8 SLP222=

CYQF;2005-11-30 06:00;METAR CYQF 300600Z 35005KT 3SM -SN BKN025 BKN070 M13/M17 A2999 RMK SC6AC2 SLP227=

CYQF;2005-11-30 07:00;METAR CYQF 300700Z 35007KT 6SM -SN SCT020 OVC045 M13/M16 A3000 RMK SC4SC4 SLP229=

CYQF;2005-11-30 08:00;METAR CYQF 300800Z 36005KT 3SM -SN OVC045 M14/M16 A3002 RMK SC8 SLP234=

CYQF;2005-11-30 09:00;METAR CYQF 300900Z 34006KT 4SM -SN BKN025 OVC040 M13/M17 A3002 RMK SC6SC2 SLP236=

CYQF;2005-11-30 10:00;METAR CYQF 301000Z 34005KT 10SM -SN SCT025 BKN040 M14/M18 A3003 RMK SC4SC2 SLP239=

CYQF;2005-11-30 11:00;METAR CYQF 301100Z 33008KT 15SM FEW025 BKN040 M16/M19 A3004 RMK SC2SC2 SLP242=

CYQF;2005-11-30 11:40;SPECI CYQF 301140Z 30004KT 12SM -SN OVC030 RMK SC8=

CYQF;2005-11-30 12:00;METAR CYQF 301200Z 29004KT 12SM -SN OVC025 M15/M18 A3005 RMK SC8 SLP247=

CYQF;2005-11-30 13:00;METAR CYQF 301300Z 33004KT 10SM -SN OVC030 M14/M17 A3005 RMK SC8 SLP248=

CYQF;2005-11-30 14:00;METAR CYQF 301400Z 32003KT 6SM -SN OVC025 M14/M17 A3006 RMK SC8 SLP251=

CYQF;2005-11-30 15:00;METAR CYQF 301500Z 29004KT 5SM -SN OVC025 M13/M16 A3007 RMK SC8 SLP254=

CYQF;2005-11-30 16:00;METAR CYQF 301600Z 30005KT 3SM -SN OVC025 M13/M16 A3008 RMK SC8 SLP258=

CYQF;2005-11-30 17:00;METAR CYQF 301700Z 29006KT 3SM -SN OVC025 M13/M16 A3010 RMK SC8 SLP264=

CYQF;2005-11-30 18:00;METAR CYQF 301800Z 31007KT 5SM -SN BKN020 OVC040 M12/M16 A3010 RMK SC6SC2 SLP263=

CYQF;2005-11-30 18:26;SPECI CYQF 301826Z 01006KT 1SM -SN OVC020 RMK SC8=

CYQF;2005-11-30 18:52;SPECI CYQF 301852Z 03005KT 3SM -SN OVC025 RMK SC8=

CYQF;2005-11-30 19:00;METAR CYQF 301900Z 03004KT 3SM -SN OVC025 M13/M16 A3009 RMK SC8 SLP261=

CYQF;2005-11-30 20:00;METAR CYQF 302000Z 04003KT 3SM -SN BKN025 M13/M16 A3008 RMK SC7 SLP259=

CYQF;2005-11-30 21:00;METAR CYQF 302100Z 00000KT 8SM -SN SCT025 BKN080 BKN250 M13/M16 A3007 RMK SC3AC2CI1 VIS LWR W-NE SLP256=

CYQF;2005-11-30 22:00;METAR CYQF 302200Z 00000KT 10SM -SN BKN025 BKN080 BKN250 M13/M17 A3007 RMK SC5AC2CI0 SLP256=

CYQF;2005-11-30 23:00;METAR CYQF 302300Z 00000KT 10SM -SN BKN025 OVC250 M13/M16 A3008 RMK SC6CI1 SLP258=

CYQF;2005-12-01 01:00;METAR CYQF 010100Z 00000KT 10SM -SN OVC025 M13/M16 A3010 RMK SC8 SLP267=

CYQF;2005-12-01 02:00;METAR CYQF 010200Z 31003KT 12SM -SN OVC025 M13/M16 A3010 RMK SC8 SLP266=

CYQF;2005-12-01 03:00;METAR CYQF 010300Z 29003KT 15SM OVC030 M13/M17 A3010 RMK SC8 SLP266=

CYQF;2005-12-01 04:00;METAR CYQF 010400Z 30003KT 15SM OVC035 M13/M18 A3011 RMK SC8 SLP268=

CYQF;2005-12-01 05:00;METAR CYQF 010500Z 31003KT 15SM BKN035 M15/M18 A3011 RMK SC6 SLP269=

CYQF;2005-12-01 06:00;METAR CYQF 010600Z 32002KT 15SM OVC035 M14/M19 A3011 RMK SC8 SLP269=

CYQF;2005-12-01 07:00;METAR CYQF 010700Z 30003KT 15SM OVC035 M14/M18 A3012 RMK SC8 SLP270=

CYQF;2005-12-01 08:00;METAR CYQF 010800Z 32003KT 15SM OVC035 M14/M17 A3011 RMK SC8 SLP269=

CYQF;2005-12-01 09:00;METAR CYQF 010900Z 33002KT 15SM OVC035 M14/M17 A3011 RMK SC8 SLP269=

CYQF;2005-12-01 10:00;METAR CYQF 011000Z 34003KT 15SM OVC035 M14/M18 A3011 RMK SC8 SLP268=

CYQF;2005-12-01 11:00;METAR CYQF 011100Z 33002KT 15SM OVC035 M14/M19 A3011 RMK SC8 SLP267=

CYQF;2005-12-01 12:00;METAR CYQF 011200Z 04003KT 15SM OVC035 M14/M18 A3010 RMK SC8 SLP265=

CYQF;2005-12-01 12:25;SPECI CYQF 011225Z 36003KT 10SM -SN OVC035 RMK SC8=

CYQF;2005-12-01 13:00;METAR CYQF 011300Z 33003KT 10SM -SN OVC035 M14/M18 A3010 RMK SC8 SLP265=

CYQF;2005-12-01 14:00;METAR CYQF 011400Z 36003KT 10SM -SN OVC035 M15/M17 A3010 RMK SC8 SLP266=

CYQF;2005-12-01 15:00;METAR CYQF 011500Z 00000KT 10SM -SN OVC035 M15/M17 A3011 RMK SC8 SLP269=

CYQF;2005-12-01 16:00;METAR CYQF 011600Z 14005KT 15SM -SN BKN035 M15/M18 A3010 RMK SC7 SLP267=

CYQF;2005-12-01 17:00;METAR CYQF 011700Z 12005KT 15SM BKN035 M15/M18 A3010 RMK SC6 SLP266=

CYQF;2005-12-01 18:00;METAR CYQF 011800Z 13007KT 15SM BKN035 M14/M18 A3008 RMK SC6 SLP261=

CYQF;2005-12-01 19:00;METAR CYQF 011900Z 12008KT 15SM FEW015 BKN035 M14/M19 A3006 RMK SF2SC4 SLP255=

CYQF;2005-12-01 20:00;METAR CYQF 012000Z 12009KT 15SM BKN025 M14/M18 A3005 RMK SC7 SLP249=

CYQF;2005-12-01 20:16;SPECI CYQF 012016Z 11009KT 10SM -SN OVC025 RMK SC8=

CYQF;2005-12-01 21:00;METAR CYQF 012100Z 16012KT 8SM -SN OVC025 M14/M19 A3003 RMK SC8 SLP240=

CYQF;2005-12-01 22:00;METAR CYQF 012200Z 15010KT 15SM FEW015 BKN025 M14/M19 A3001 RMK SF2SC2 SLP235=

CYQF;2005-12-01 23:00;METAR CYQF 012300Z 14009KT 15SM FEW025 M15/M19 A3000 RMK SC2 SLP231=

CYQF;2005-12-02 00:00;METAR CYQF 020000Z 14010KT 15SM OVC025 M16/M20 A2997 RMK SC7 SLP223=

CYQF;2005-12-02 00:36;SPECI CYQF 020036Z 13008KT 15SM -SN OVC025 RMK SC8=

CYQF;2005-12-02 01:00;METAR CYQF 020100Z 14010KT 15SM -SN OVC025 M16/M20 A2995 RMK SC8 SLP217=

CYQF;2005-12-02 02:00;METAR CYQF 020200Z 13010KT 15SM -SN OVC023 M16/M20 A2991 RMK SC8 SLP205=

CYQF;2005-12-02 03:00;METAR CYQF 020300Z 14010KT 15SM -SN OVC023 M16/M20 A2990 RMK SC8 SLP199=

CYQF;2005-12-02 04:00;METAR CYQF 020400Z 14010G15KT 15SM -SN OVC023 M16/M19 A2988 RMK SC8 SLP194=

CYQF;2005-12-02 05:00;METAR CYQF 020500Z 13010G16KT 15SM -SN BKN025 OVC070 M16/M19 A2986 RMK SC6AC2 SLP189=

CYQF;2005-12-02 06:00;METAR CYQF 020600Z 14012G20KT 15SM -SN BKN025 BKN070 OVC250 M16/M19 A2985 RMK SC5AC2CI1 SLP184=

CYQF;2005-12-02 07:00;METAR CYQF 020700Z 12012KT 10SM -SN BKN025 OVC070 M16/M19 A2983 RMK SC6AC2 SLP177=

CYQF;2005-12-02 08:00;METAR CYQF 020800Z 13014KT 10SM -SN BKN025 OVC070 M16/M19 A2982 RMK SC5AC3 SLP172=

CYQF;2005-12-02 09:00;METAR CYQF 020900Z 13013KT 6SM -SN BKN020 OVC070 M16/M19 A2980 RMK SC5AC3 SLP165=

CYQF;2005-12-02 10:00;METAR CYQF 021000Z 15012KT 4SM -SN BKN020 OVC070 M16/M19 A2980 RMK SC5AC3 SLP163=

CYQF;2005-12-02 12:35;SPECI CYQF 021235Z 15010KT 2SM -SN SCT020 OVC070 RMK SN2SC2AC4=

CYQF;2005-12-02 13:00;METAR CYQF 021300Z 14014G20KT 2SM -SN BKN030 OVC070 M16/M19 A2976 RMK SN2SC3AC2 DRSN SLP155=

CYQF;2005-12-02 14:00;METAR CYQF 021400Z 14014G20KT 2SM -SN BKN030 OVC070 M16/M19 A2976 RMK SN2SC3AC2 DRSN SLP153=

CYQF;2005-12-02 15:00;METAR CYQF 021500Z 13012KT 3SM -SN FEW030 BKN070 OVC250 M16/M20 A2976 RMK SC2AC2CI2 SLP153=

CYQF;2005-12-02 15:30;SPECI CYQF 021530Z 14009KT 3SM BR FEW030 FEW070 BKN250 RMK SC1AC1CI1 VIS HIER S=

CYQF;2005-12-02 16:00;METAR CYQF 021600Z 12017KT 3SM BR FEW070 BKN250 M17/M20 A2976 RMK AC1CI1 VIS HIER S SLP154=

CYQF;2005-12-02 17:00;METAR CYQF 021700Z 13004KT 12SM FEW070 BKN250 M17/M20 A2977 RMK AC1CI2 SLP158=

CYQF;2005-12-02 18:00;METAR CYQF 021800Z 13008KT 15SM FEW030 FEW070 BKN250 M15/M19 A2978 RMK SC1AC2CI6 SLP158=

CYQF;2005-12-02 19:00;METAR CYQF 021900Z 13009KT 5SM VCSH SCT015 BKN070 OVC250 M15/M19 A2977 RMK SC3AC3CI2 VIS N 3 VIS S 10 SLP156=

CYQF;2005-12-02 20:00;METAR CYQF 022000Z 14007KT 8SM FEW015 FEW070 OVC250 M15/M20 A2976 RMK SC2AC1CI5 VIS N 4 VIS S 15 SLP154=

CYQF;2005-12-02 21:00;METAR CYQF 022100Z 11006KT 6SM -SN FEW015 BKN080 OVC250 M15/M19 A2977 RMK SC1AC6CI2 SLP155=

CYQF;2005-12-02 22:00;METAR CYQF 022200Z 14004KT 8SM FEW015 FEW080 OVC250 M14/M19 A2978 RMK SC1AC2CI2 SLP157=

CYQF;2005-12-02 23:00;METAR CYQF 022300Z 12003KT 10SM FEW020 FEW080 OVC250 M15/M20 A2978 RMK SC2AC1CI1 SLP159=

CYQF;2005-12-03 00:00;METAR CYQF 030000Z 13002KT 15SM FEW080 BKN250 M16/M20 A2980 RMK AC1CI2 SLP167=

CYQF;2005-12-03 01:00;METAR CYQF 030100Z 00000KT 15SM SCT030 BKN250 M17/M21 A2981 RMK SC3CI1 SLP169=

CYQF;2005-12-03 02:00;METAR CYQF 030200Z 00000KT 15SM BKN025 M17/M21 A2982 RMK SC6 SLP172=

CYQF;2005-12-03 03:00;METAR CYQF 030300Z 00000KT 15SM OVC025 M17/M21 A2982 RMK SC8 SLP176=

CYQF;2005-12-03 03:24;SPECI CYQF 030324Z 00000KT 10SM -SN OVC025 RMK SC8=

CYQF;2005-12-03 04:00;METAR CYQF 030400Z 00000KT 10SM -SN BKN025 M17/M21 A2983 RMK SC6 SLP178=

CYQF;2005-12-03 05:00;METAR CYQF 030500Z 00000KT 10SM -SN BKN025 M17/M20 A2984 RMK SC5 SLP180=

CYQF;2005-12-03 06:00;METAR CYQF 030600Z 00000KT 10SM -SN BKN025 M17/M20 A2985 RMK SC5 SLP187=

CYQF;2005-12-03 07:00;METAR CYQF 030700Z 00000KT 10SM -SN BKN025 M18/M21 A2987 RMK SC6 SLP191=

CYQF;2005-12-03 08:00;METAR CYQF 030800Z 00000KT 5SM -SN FEW025 SCT100 M18/M21 A2988 RMK SC2AC2 SLP196=

CYQF;2005-12-03 09:00;METAR CYQF 030900Z 00000KT 15SM -SN FEW025 SCT100 M19/M22 A2989 RMK SC2AC2 SLP201=

CYQF;2005-12-03 10:00;METAR CYQF 031000Z 00000KT 15SM FEW025 M20/M24 A2992 RMK SC2 SLP209=

CYQF;2005-12-03 11:00;METAR CYQF 031100Z 26003KT 15SM SKC M22/M26 A2993 RMK SLP213=

CYQF;2005-12-03 12:00;METAR CYQF 031200Z 22003KT 15SM SKC M23/M27 A2995 RMK SLP226=

CYQF;2005-12-03 13:00;METAR CYQF 031300Z 00000KT 15SM SKC M24/M28 A2996 RMK SLP230=

CYQF;2005-12-03 14:00;METAR CYQF 031400Z 18002KT 15SM SKC M24/M28 A2998 RMK SLP236=

CYQF;2005-12-03 15:00;METAR CYQF 031500Z 20004KT 15SM FEW120 M25/M29 A2999 RMK AC1 SLP244=

CYQF;2005-12-03 16:00;METAR CYQF 031600Z 22003KT 15SM FEW150 M26/M30 A3002 RMK AC1 SLP253=

CYQF;2005-12-03 17:00;METAR CYQF 031700Z 19002KT 15SM FEW150 M23/M27 A3004 RMK AC1 SLP261=

CYQF;2005-12-03 18:00;METAR CYQF 031800Z 00000KT 15SM FEW250 M20/M23 A3005 RMK CI0 SLP261=

CYQF;2005-12-03 19:00;METAR CYQF 031900Z 30002KT 15SM FEW250 M18/M22 A3006 RMK CI0 SLP263=

CYQF;2005-12-03 20:00;METAR CYQF 032000Z 28005KT 15SM FEW250 M17/M20 A3005 RMK CI1 SLP262=

CYQF;2005-12-03 21:00;METAR CYQF 032100Z 31005KT 15SM FEW250 M16/M20 A3006 RMK CI2 SLP260=

CYQF;2005-12-03 22:00;METAR CYQF 032200Z 29004KT 15SM FEW250 M16/M21 A3006 RMK CI2 SLP262=

CYQF;2005-12-03 23:00;METAR CYQF 032300Z 28003KT 15SM SCT250 M16/M22 A3008 RMK CI2 SLP267=

CYQF;2005-12-04 00:00;METAR CYQF 040000Z 00000KT 15SM FEW250 M18/M22 A3010 RMK CI2 SLP283=

CYQF;2005-12-04 01:00;METAR CYQF 040100Z 00000KT 15SM FEW050 SCT250 M19/M23 A3011 RMK SC2CI1 SLP286=

CYQF;2005-12-04 02:00;METAR CYQF 040200Z 29003KT 10SM -SN SCT040 BKN250 M16/M21 A3012 RMK SC4CI2 SLP289=

CYQF;2005-12-04 03:00;METAR CYQF 040300Z 28004KT 8SM -SN OVC045 M16/M21 A3013 RMK SC8 SLP294=

CYQF;2005-12-04 04:00;METAR CYQF 040400Z 29005KT 8SM -SN OVC050 M16/M20 A3013 RMK SC8 SLP294=

CYQF;2005-12-04 05:00;METAR CYQF 040500Z 00000KT 8SM -SN BKN050 M16/M20 A3014 RMK SC6 SLP295=

CYQF;2005-12-04 06:00;METAR CYQF 040600Z 00000KT 6SM -SN OVC050 M16/M20 A3013 RMK SC8 SLP287=

CYQF;2005-12-04 07:00;METAR CYQF 040700Z 00000KT 6SM -SN BKN050 M16/M20 A3015 RMK SC6 SLP291=

CYQF;2005-12-04 08:00;METAR CYQF 040800Z 31003KT 3SM -SN OVC050 M15/M19 A3015 RMK SN3SC5 SLP291=

CYQF;2005-12-04 09:00;METAR CYQF 040900Z 33003KT 5SM -SN BKN050 M15/M19 A3015 RMK SC7 SLP290=

CYQF;2005-12-04 10:00;METAR CYQF 041000Z 34004KT 10SM -SN SCT050 M15/M19 A3017 RMK SC3 SLP294=

CYQF;2005-12-04 11:00;METAR CYQF 041100Z 00000KT 12SM -SN FEW050 M17/M21 A3016 RMK SC2 SLP292=

CYQF;2005-12-04 11:42;SPECI CYQF 041142Z 00000KT 15SM FEW120 RMK AC2=

CYQF;2005-12-04 12:00;METAR CYQF 041200Z 00000KT 15SM FEW120 SCT250 M19/M22 A3016 RMK AC2CI1 SLP300=

CYQF;2005-12-04 13:00;METAR CYQF 041300Z 00000KT 15SM BKN070 M17/M21 A3015 RMK AC6 SLP297=

CYQF;2005-12-04 14:00;METAR CYQF 041400Z 00000KT 15SM FEW070 M19/M22 A3015 RMK AC2 SLP297=

CYQF;2005-12-04 15:00;METAR CYQF 041500Z 00000KT 15SM FEW070 M21/M25 A3015 RMK AC2 SLP296=

CYQF;2005-12-04 16:00;METAR CYQF 041600Z 00000KT 15SM FEW090 M21/M24 A3016 RMK AC2 SLP299=

CYQF;2005-12-04 18:00;METAR CYQF 041800Z 00000KT 8SM FEW090 FEW250 M17/M20 A3015 RMK AC1CI0 IC SLP292=

CYQF;2005-12-04 19:00;METAR CYQF 041900Z 00000KT 10SM BKN090 M16/M20 A3013 RMK AC6 BR SLP285=

CYQF;2005-12-04 20:00;METAR CYQF 042000Z 00000KT 15SM BKN090 M14/M18 A3011 RMK AC7 SLP279=

CYQF;2005-12-04 21:00;METAR CYQF 042100Z 14002KT 10SM -SN OVC070 M13/M17 A3010 RMK AC8 SLP268=

CYQF;2005-12-04 22:00;METAR CYQF 042200Z 11002KT 5SM -SN OVC050 M13/M17 A3010 RMK SC8 SLP267=

CYQF;2005-12-04 23:00;METAR CYQF 042300Z 13002KT 8SM -SN OVC040 M13/M17 A3011 RMK SC8 SLP269=

CYQF;2005-12-04 23:41;SPECI CYQF 042341Z 13003KT 8SM OVC040 RMK SC8 VIRGA BR=

CYQF;2005-12-05 00:00;METAR CYQF 050000Z 12002KT 8SM OVC040 M13/M17 A3011 RMK SC8 VIRGA BR SLP273=

CYQF;2005-12-05 01:00;METAR CYQF 050100Z 12005KT 10SM SCT040 BKN250 M14/M18 A3010 RMK SC4CI1 SLP270=

CYQF;2005-12-05 02:00;METAR CYQF 050200Z 14008KT 15SM SCT040 BKN250 M15/M19 A3008 RMK SC4CI1 SLP266=

CYQF;2005-12-05 03:00;METAR CYQF 050300Z 15010KT 15SM BKN040 BKN250 M16/M20 A3007 RMK SC5CI1 SLP268=

CYQF;2005-12-05 04:00;METAR CYQF 050400Z 16012KT 10SM BKN040 BKN250 M16/M20 A3006 RMK SC5CI1 SLP264=

CYQF;2005-12-05 04:20;SPECI CYQF 050420Z 18008KT 6SM -SN BKN040 OVC250 RMK SC5CI2=

CYQF;2005-12-05 05:00;METAR CYQF 050500Z 17010KT 5SM -SN BKN040 OVC080 M16/M19 A3005 RMK SC5AC3 SLP261=

CYQF;2005-12-05 06:00;METAR CYQF 050600Z 17012KT 5SM -SN BKN050 OVC080 M15/M19 A3002 RMK SC5AC3 SLP245=

CYQF;2005-12-05 07:00;METAR CYQF 050700Z 18013KT 3SM -SN OVC040 M15/M19 A3000 RMK SN2SC6 SLP238=

CYQF;2005-12-05 07:30;SPECI CYQF 050730Z 16015KT 2SM -SN DRSN VV012 RMK SN8=

CYQF;2005-12-05 08:00;METAR CYQF 050800Z 18014KT 2 1/2SM -SN VV025 M14/M18 A2996 RMK SN8 DRSN SLP227=

CYQF;2005-12-05 09:00;METAR CYQF 050900Z 17015KT 8SM SCT040 OVC100 M14/M18 A2995 RMK SC3AC5 SLP213=

CYQF;2005-12-05 10:00;METAR CYQF 051000Z 18012KT 15SM BKN100 M15/M19 A2994 RMK AC6 SLP209=

CYQF;2005-12-05 11:00;METAR CYQF 051100Z 17013KT 15SM OVC100 M14/M19 A2990 RMK AC8 SLP199=

CYQF;2005-12-05 12:00;METAR CYQF 051200Z 18008KT 15SM FEW100 BKN250 M14/M18 A2989 RMK AC2CI1 SLP192=

CYQF;2005-12-05 13:00;METAR CYQF 051300Z 10002KT 15SM SCT100 BKN250 M14/M19 A2990 RMK AC3CI3 SLP195=

CYQF;2005-12-05 14:00;METAR CYQF 051400Z 00000KT 15SM FEW100 OVC250 M15/M19 A2995 RMK AC2CI5 SLP210=

CYQF;2005-12-05 14:45;SPECI CYQF 051445Z 00000KT 8SM -SN OVC100 RMK AC8=

CYQF;2005-12-05 15:00;METAR CYQF 051500Z 00000KT 8SM -SN OVC100 M14/M18 A3001 RMK AC8 SLP236=

CYQF;2005-12-05 15:09;SPECI CYQF 051509Z 32003KT 2SM -SN OVC070 RMK AC8=

CYQF;2005-12-05 15:43;SPECI CYQF 051543Z 34015G20KT 1SM -SN BLSN VV007 RMK SN8 WND SHFT 1540=

CYQF;2005-12-05 16:00;METAR CYQF 051600Z 34015G25KT 1SM -SN BLSN VV005 M12/M15 A3007 RMK SN8 PRESRR SLP255=

CYQF;2005-12-05 17:00;METAR CYQF 051700Z 34015G20KT 1 1/2SM -SN DRSN VV006 M12/M16 A3013 RMK SN8 PRESRR SLP275=

CYQF;2005-12-05 17:20;SPECI CYQF 051720Z 35012G20KT 8SM -SN DRSN SCT012 OVC040 RMK SC3SC5 PRESRR=

CYQF;2005-12-05 18:00;METAR CYQF 051800Z 35015G20KT 5SM -SN DRSN FEW012 OVC035 M13/M17 A3017 RMK SC1SC7 SLP292=

CYQF;2005-12-05 19:00;METAR CYQF 051900Z 35015G25KT 8SM -SN DRSN FEW012 BKN040 OVC090 M14/M18 A3021 RMK SC2SC4AC2 SLP303=

CYQF;2005-12-05 20:00;METAR CYQF 052000Z 35020G30KT 12SM DRSN FEW012 SCT040 BKN100 M15/M20 A3025 RMK SC1SC3AC1 VIS LWR S SLP315=

CYQF;2005-12-05 21:00;METAR CYQF 052100Z 35012G20KT 15SM DRSN FEW040 BKN150 M16/M21 A3026 RMK SC2AC2 SLP326=

CYQF;2005-12-05 22:00;METAR CYQF 052200Z 34010G15KT 15SM FEW020 FEW040 SCT150 M16/M22 A3029 RMK SC1SC1AC2 SLP335=

CYQF;2005-12-05 23:00;METAR CYQF 052300Z 35009KT 15SM FEW040 FEW150 M17/M22 A3031 RMK SC1AC0 SLP342=

CYQF;2005-12-06 00:00;METAR CYQF 060000Z 35009KT 15SM FEW040 M18/M22 A3033 RMK SC1 SLP352=

CYQF;2005-12-06 01:00;METAR CYQF 060100Z 36003KT 15SM FEW040 M19/M23 A3034 RMK SC1 SLP357=

CYQF;2005-12-06 02:00;METAR CYQF 060200Z 33004KT 15SM SKC M21/M26 A3036 RMK SLP362=

CYQF;2005-12-06 03:00;METAR CYQF 060300Z 31005KT 15SM SKC M22/M28 A3037 RMK SLP370=

CYQF;2005-12-06 04:00;METAR CYQF 060400Z 29007KT 15SM SKC M22/M27 A3037 RMK SLP371=

CYQF;2005-12-06 05:00;METAR CYQF 060500Z 29007KT 15SM SKC M22/M27 A3037 RMK SLP372=

CYQF;2005-12-06 06:00;METAR CYQF 060600Z 27005KT 15SM SKC M23/M28 A3039 RMK SLP376=

CYQF;2005-12-06 07:00;METAR CYQF 060700Z 27006KT 15SM FEW120 M22/M27 A3039 RMK AC2 SLP377=

CYQF;2005-12-06 08:00;METAR CYQF 060800Z 26006KT 15SM FEW250 M24/M29 A3039 RMK CI1 SLP376=

CYQF;2005-12-06 09:00;METAR CYQF 060900Z 27006KT 15SM SKC M24/M28 A3039 RMK SLP381=

CYQF;2005-12-06 10:00;METAR CYQF 061000Z 27006KT 15SM SKC M23/M28 A3039 RMK SLP381=

CYQF;2005-12-06 11:00;METAR CYQF 061100Z 26004KT 15SM SKC M23/M29 A3039 RMK SLP382=

CYQF;2005-12-06 12:00;METAR CYQF 061200Z 26006KT 15SM FEW100 M24/M29 A3038 RMK AC1 SLP382=

CYQF;2005-12-06 13:00;METAR CYQF 061300Z 00000KT 15SM SKC M24/M30 A3040 RMK SLP386=

CYQF;2005-12-06 14:00;METAR CYQF 061400Z 19003KT 15SM SKC M27/M32 A3040 RMK SLP387=

CYQF;2005-12-06 15:00;METAR CYQF 061500Z 20004KT 15SM FEW250 M27/M32 A3040 RMK CI1 SLP396=

CYQF;2005-12-06 16:00;METAR CYQF 061600Z 21006KT 15SM FEW090 M28/M33 A3041 RMK AC1 SLP399=

CYQF;2005-12-06 17:00;METAR CYQF 061700Z 21005KT 15SM SKC M25/M29 A3041 RMK SLP400=

CYQF;2005-12-06 18:00;METAR CYQF 061800Z 22005KT 15SM SKC M22/M27 A3041 RMK SLP397=

CYQF;2005-12-06 19:00;METAR CYQF 061900Z 17003KT 15SM SKC M19/M24 A3040 RMK SLP393=

CYQF;2005-12-06 20:00;METAR CYQF 062000Z 21002KT 15SM SKC M18/M24 A3038 RMK SLP388=

CYQF;2005-12-06 21:00;METAR CYQF 062100Z 21002KT 15SM SKC M18/M24 A3039 RMK SLP383=

CYQF;2005-12-06 22:00;METAR CYQF 062200Z 16003KT 15SM SKC M17/M23 A3039 RMK SLP384=

CYQF;2005-12-06 23:00;METAR CYQF 062300Z 20003KT 15SM SKC M18/M24 A3038 RMK SLP382=

CYQF;2005-12-07 00:00;METAR CYQF 070000Z 16002KT 15SM SKC M20/M25 A3037 RMK SLP380=

CYQF;2005-12-07 01:00;METAR CYQF 070100Z 18005KT 15SM SKC M22/M27 A3036 RMK SLP377=

CYQF;2005-12-07 02:00;METAR CYQF 070200Z 18006KT 15SM SKC M24/M29 A3035 RMK SLP373=

CYQF;2005-12-07 03:00;METAR CYQF 070300Z 18006KT 15SM SKC M24/M29 A3034 RMK SLP376=

CYQF;2005-12-07 04:00;METAR CYQF 070400Z 19004KT 15SM SKC M25/M30 A3032 RMK SLP372=

CYQF;2005-12-07 05:00;METAR CYQF 070500Z 18003KT 15SM SKC M25/M30 A3030 RMK SLP366=

CYQF;2005-12-07 06:00;METAR CYQF 070600Z 00000KT 15SM SKC M25/M30 A3029 RMK SLP356=

CYQF;2005-12-07 07:00;METAR CYQF 070700Z 20004KT 15SM SKC M27/M32 A3028 RMK SLP353=

CYQF;2005-12-07 08:00;METAR CYQF 070800Z 20003KT 15SM SKC M26/M31 A3025 RMK SLP344=

CYQF;2005-12-07 09:00;METAR CYQF 070900Z 18004KT 15SM SKC M25/M30 A3023 RMK SLP330=

CYQF;2005-12-07 10:00;METAR CYQF 071000Z 19004KT 15SM SKC M25/M30 A3022 RMK SLP327=

CYQF;2005-12-07 11:00;METAR CYQF 071100Z 20005KT 15SM SKC M26/M31 A3018 RMK SLP314=

CYQF;2005-12-07 12:00;METAR CYQF 071200Z 20003KT 15SM SKC M26/M32 A3015 RMK SLP306=

CYQF;2005-12-07 13:00;METAR CYQF 071300Z 16005KT 15SM SKC M25/M31 A3012 RMK SLP297=

CYQF;2005-12-07 14:00;METAR CYQF 071400Z 19003KT 15SM SKC M25/M31 A3012 RMK SLP295=

CYQF;2005-12-07 15:00;METAR CYQF 071500Z 18003KT 15SM SCT250 M24/M29 A3010 RMK CI0 SLP291=

CYQF;2005-12-07 16:00;METAR CYQF 071600Z 19005KT 15SM BKN250 M24/M29 A3009 RMK CI3 SLP287=

CYQF;2005-12-07 17:00;METAR CYQF 071700Z 22003KT 15SM FEW120 BKN250 M19/M26 A3007 RMK AC2CI2 SLP283=

CYQF;2005-12-07 18:00;METAR CYQF 071800Z 20002KT 15SM FEW120 BKN250 M18/M24 A3005 RMK AC2CI3 SLP270=

CYQF;2005-12-07 19:00;METAR CYQF 071900Z 18004KT 15SM FEW120 BKN250 M16/M22 A3002 RMK AC2CI3 SLP258=

CYQF;2005-12-07 20:00;METAR CYQF 072000Z 24003KT 15SM FEW120 BKN250 M14/M21 A3000 RMK AC2CI2 SLP252=

CYQF;2005-12-07 21:00;METAR CYQF 072100Z 18004KT 15SM FEW120 BKN250 M12/M19 A2997 RMK AC1CI2 SLP233=

CYQF;2005-12-07 22:00;METAR CYQF 072200Z 18002KT 15SM FEW120 BKN250 M11/M19 A2995 RMK AC1CI2 SLP227=

CYQF;2005-12-07 23:00;METAR CYQF 072300Z 20002KT 15SM FEW120 BKN250 M11/M19 A2994 RMK AC1CI2 SLP224=

CYQF;2005-12-08 00:00;METAR CYQF 080000Z 19003KT 15SM FEW100 SCT250 M14/M20 A2994 RMK AC1CI1 SLP224=

CYQF;2005-12-08 01:00;METAR CYQF 080100Z 19003KT 15SM FEW100 FEW250 M16/M21 A2992 RMK AC1CI1 SLP220=

CYQF;2005-12-08 02:00;METAR CYQF 080200Z 19005KT 15SM SCT100 M17/M22 A2991 RMK AC3 SLP217=

CYQF;2005-12-08 03:00;METAR CYQF 080300Z 22002KT 15SM FEW100 SCT250 M16/M21 A2990 RMK AC2CI0 SLP212=

CYQF;2005-12-08 04:00;METAR CYQF 080400Z 20004KT 15SM FEW100 SCT250 M14/M20 A2989 RMK AC1CI1 SLP209=

CYQF;2005-12-08 05:00;METAR CYQF 080500Z 19006KT 15SM BKN100 M14/M19 A2987 RMK AC4 SLP201=

CYQF;2005-12-08 06:00;METAR CYQF 080600Z 21003KT 15SM SCT100 M12/M17 A2985 RMK AC2 SLP183=

CYQF;2005-12-08 07:00;METAR CYQF 080700Z 21008KT 15SM FEW100 M13/M19 A2985 RMK AC2 SLP183=

CYQF;2005-12-08 08:00;METAR CYQF 080800Z 00000KT 15SM BKN100 M12/M17 A2985 RMK AC7 SLP182=

CYQF;2005-12-08 09:00;METAR CYQF 080900Z 19002KT 15SM OVC100 M09/M14 A2984 RMK AC8 SLP169=

CYQF;2005-12-08 10:00;METAR CYQF 081000Z 19004KT 15SM OVC100 M07/M13 A2985 RMK AC8 SLP172=

CYQF;2005-12-08 11:00;METAR CYQF 081100Z 00000KT 15SM FEW040 OVC080 M06/M12 A2987 RMK SC2AC6 SLP177=

CYQF;2005-12-08 12:00;METAR CYQF 081200Z 20004KT 15SM FEW040 BKN080 OVC250 M06/M11 A2990 RMK SC2AC6CI1 SLP187=

CYQF;2005-12-08 13:00;METAR CYQF 081300Z 28003KT 15SM OVC070 M04/M09 A2990 RMK AC8 SLP189=

CYQF;2005-12-08 14:00;METAR CYQF 081400Z 30007KT 15SM OVC100 M01/M07 A2992 RMK AC8 SLP193=

CYQF;2005-12-08 15:00;METAR CYQF 081500Z 32003KT 15SM BKN100 M02/M07 A2993 RMK AC7 SLP196=

CYQF;2005-12-08 16:00;METAR CYQF 081600Z 30010KT 15SM FEW080 SCT250 M03/M08 A2994 RMK AC1CI1 SLP200=

CYQF;2005-12-08 17:00;METAR CYQF 081700Z 27006KT 15SM FEW250 M02/M08 A2995 RMK CI1 SLP202=

CYQF;2005-12-08 18:00;METAR CYQF 081800Z 26005KT 15SM FEW250 M02/M08 A2995 RMK CI1 SLP199=

CYQF;2005-12-08 19:00;METAR CYQF 081900Z 26008KT 15SM FEW250 M01/M07 A2993 RMK CI1 SLP192=

CYQF;2005-12-08 20:00;METAR CYQF 082000Z 22006KT 15SM BKN250 01/M06 A2992 RMK CI2 SLP188=

CYQF;2005-12-08 21:00;METAR CYQF 082100Z 19007KT 15SM FEW120 BKN250 02/M05 A2990 RMK AC2CI2 SLP172=

CYQF;2005-12-08 22:00;METAR CYQF 082200Z 21008KT 15SM FEW120 BKN250 01/M05 A2988 RMK AC2CI2 SLP166=

CYQF;2005-12-08 23:00;METAR CYQF 082300Z 20008KT 15SM FEW120 BKN250 M00/M06 A2987 RMK AC2CI2 SLP165=

CYQF;2005-12-09 00:00;METAR CYQF 090000Z 19007KT 15SM FEW120 BKN250 M02/M07 A2986 RMK AC2CI3 SLP160=

CYQF;2005-12-09 01:00;METAR CYQF 090100Z 19007KT 15SM FEW120 BKN250 M03/M08 A2985 RMK AC2CI4 SLP155=

CYQF;2005-12-09 02:00;METAR CYQF 090200Z 20007KT 15SM BKN090 BKN250 M04/M09 A2983 RMK AC5CI1 SLP149=

CYQF;2005-12-09 03:00;METAR CYQF 090300Z 21007KT 15SM BKN090 OVC250 M03/M09 A2980 RMK AC5CI2 SLP136=

CYQF;2005-12-09 04:00;METAR CYQF 090400Z 21005KT 15SM SCT090 OVC250 M02/M08 A2979 RMK AC4CI2 SLP134=

CYQF;2005-12-09 05:00;METAR CYQF 090500Z 00000KT 15SM BKN100 OVC250 M02/M07 A2978 RMK AC6CI2 SLP130=

CYQF;2005-12-09 06:00;METAR CYQF 090600Z 22006KT 15SM BKN100 BKN250 M01/M07 A2978 RMK AC5CI0 SLP126=

CYQF;2005-12-09 07:00;METAR CYQF 090700Z 21005KT 15SM BKN100 BKN250 M02/M08 A2976 RMK AC5CI0 SLP119=

CYQF;2005-12-09 08:00;METAR CYQF 090800Z 20005KT 15SM OVC090 M00/M06 A2972 RMK AC7 SLP108=

CYQF;2005-12-09 09:00;METAR CYQF 090900Z 21006KT 15SM BKN090 OVC250 01/M06 A2972 RMK AC6CI2 SLP099=

CYQF;2005-12-09 10:00;METAR CYQF 091000Z 21008KT 15SM BKN090 OVC250 02/M05 A2970 RMK AC6CI2 SLP092=

CYQF;2005-12-09 11:00;METAR CYQF 091100Z 25007KT 15SM FEW090 SCT250 03/M05 A2969 RMK AC2CI1 SLP090=

CYQF;2005-12-09 12:00;METAR CYQF 091200Z 28010KT 15SM FEW090 SCT250 01/M06 A2967 RMK AC2CI1 SLP087=

CYQF;2005-12-09 13:00;METAR CYQF 091300Z 28010KT 15SM FEW090 FEW250 03/M06 A2967 RMK AC1CI0 SLP087=

CYQF;2005-12-09 14:00;METAR CYQF 091400Z 27010KT 15SM FEW090 FEW250 04/M06 A2968 RMK AC1CI0 SLP090=

CYQF;2005-12-09 15:00;METAR CYQF 091500Z 25006KT 15SM FEW080 SCT250 02/M06 A2968 RMK AC2CI1 SLP089=

CYQF;2005-12-09 16:00;METAR CYQF 091600Z 27010KT 15SM BKN080 03/M08 A2969 RMK AC5 SLP092=

CYQF;2005-12-09 17:00;METAR CYQF 091700Z 28010KT 15SM BKN070 05/M07 A2973 RMK AC6 VIRGA SLP104=

CYQF;2005-12-09 18:00;METAR CYQF 091800Z 30017G24KT 15SM SCT070 07/M07 A2975 RMK AC3 SLP106=

CYQF;2005-12-09 19:00;METAR CYQF 091900Z 30015G25KT 15SM SCT080 06/M06 A2977 RMK AC3 SLP113=

CYQF;2005-12-09 20:00;METAR CYQF 092000Z 32018G28KT 15SM FEW040 BKN080 07/M06 A2981 RMK SC1AC4 SLP126=

CYQF;2005-12-09 21:00;METAR CYQF 092100Z 32018G28KT 15SM FEW030 BKN080 07/M05 A2985 RMK SC1AC5 SLP138=

CYQF;2005-12-09 22:00;METAR CYQF 092200Z 32015G20KT 15SM FEW080 SCT250 06/M05 A2989 RMK AC2CI1 SLP150=

CYQF;2005-12-09 23:00;METAR CYQF 092300Z 33010G15KT 15SM FEW080 BKN250 06/M05 A2994 RMK AC2CI2 SLP165=

CYQF;2005-12-10 00:00;METAR CYQF 100000Z 31010KT 15SM FEW080 BKN250 05/M05 A2996 RMK AC2CI2 SLP181=

CYQF;2005-12-10 01:00;METAR CYQF 100100Z 32013KT 15SM FEW080 BKN250 05/M06 A2999 RMK AC2CI2 SLP190=

CYQF;2005-12-10 02:00;METAR CYQF 100200Z 31008KT 15SM FEW080 BKN250 04/M06 A3001 RMK AC2CI1 SLP195=

CYQF;2005-12-10 03:00;METAR CYQF 100300Z 22005KT 15SM FEW250 M00/M07 A3003 RMK CI1 SLP207=

CYQF;2005-12-10 04:00;METAR CYQF 100400Z 27004KT 15SM FEW250 M03/M09 A3005 RMK CI1 SLP212=

CYQF;2005-12-10 05:00;METAR CYQF 100500Z 25005KT 15SM FEW250 M03/M09 A3006 RMK CI0 SLP216=

CYQF;2005-12-10 06:00;METAR CYQF 100600Z 27008KT 15SM FEW250 M04/M10 A3008 RMK CI0 SLP223=

CYQF;2005-12-10 07:00;METAR CYQF 100700Z 27005KT 15SM FEW080 SCT250 M01/M09 A3008 RMK AC2CI1 SLP225=

CYQF;2005-12-10 08:00;METAR CYQF 100800Z 26006KT 15SM BKN100 BKN250 M01/M07 A3011 RMK AC5CI1 SLP232=

CYQF;2005-12-10 09:00;METAR CYQF 100900Z 24007KT 15SM BKN100 00/M08 A3007 RMK AC6 SLP217=

CYQF;2005-12-10 10:00;METAR CYQF 101000Z 24007KT 15SM OVC080 00/M07 A3009 RMK AC7 SLP223=

CYQF;2005-12-10 11:00;METAR CYQF 101100Z 25005KT 15SM OVC075 00/M07 A3010 RMK AC8 SLP224=

CYQF;2005-12-10 12:00;METAR CYQF 101200Z 22006KT 15SM OVC075 00/M07 A3008 RMK AC8 SLP223=

CYQF;2005-12-10 13:00;METAR CYQF 101300Z 20007KT 15SM OVC075 01/M06 A3008 RMK AC8 SLP221=

CYQF;2005-12-10 14:00;METAR CYQF 101400Z 21007KT 15SM OVC075 01/M06 A3006 RMK AC8 SLP216=

CYQF;2005-12-10 15:00;METAR CYQF 101500Z 21006KT 15SM BKN075 OVC250 02/M05 A3005 RMK AC6CI2 SLP215=

CYQF;2005-12-10 16:00;METAR CYQF 101600Z 23008KT 15SM BKN090 OVC250 01/M04 A3003 RMK AC7CI0 SLP209=

CYQF;2005-12-10 17:00;METAR CYQF 101700Z 23007KT 15SM BKN090 OVC250 03/M04 A3002 RMK AC7CI0 SLP207=

CYQF;2005-12-10 18:00;METAR CYQF 101800Z 21008KT 15SM BKN090 OVC250 04/M04 A3000 RMK AC7CI0 SLP200=

CYQF;2005-12-10 19:00;METAR CYQF 101900Z 22007KT 15SM BKN090 BKN250 05/M03 A2998 RMK AC4CI1 SLP192=

CYQF;2005-12-10 20:00;METAR CYQF 102000Z 25008KT 15SM FEW100 BKN250 07/M03 A2996 RMK AC2CI2 SLP188=

CYQF;2005-12-10 21:00;METAR CYQF 102100Z 24007KT 15SM BKN100 OVC250 08/M02 A2994 RMK AC5CI2 SLP171=

CYQF;2005-12-10 22:00;METAR CYQF 102200Z 24005KT 15SM BKN100 OVC250 07/M02 A2993 RMK AC3CI2 SLP167=

CYQF;2005-12-10 23:00;METAR CYQF 102300Z 23007KT 15SM BKN090 BKN250 06/M02 A2991 RMK AC5CI1 SLP162=

CYQF;2005-12-11 00:00;METAR CYQF 110000Z 24010KT 15SM FEW090 BKN250 07/M03 A2990 RMK AC2CI1 SLP157=

CYQF;2005-12-11 01:00;METAR CYQF 110100Z 25006KT 15SM FEW090 BKN250 05/M04 A2990 RMK AC2CI1 SLP158=

CYQF;2005-12-11 02:00;METAR CYQF 110200Z 33006KT 15SM SCT250 02/M04 A2989 RMK CI2 SLP154=

CYQF;2005-12-11 03:00;METAR CYQF 110300Z 26008KT 15SM SCT250 01/M05 A2989 RMK CI2 SLP159=

CYQF;2005-12-11 04:00;METAR CYQF 110400Z 25005KT 15SM SCT250 M00/M06 A2990 RMK CI1 SLP160=

CYQF;2005-12-11 05:00;METAR CYQF 110500Z 23006KT 15SM FEW250 M03/M07 A2991 RMK CI0 SLP163=

CYQF;2005-12-11 06:00;METAR CYQF 110600Z 25004KT 15SM FEW250 M03/M07 A2991 RMK CI0 SLP167=

CYQF;2005-12-11 07:00;METAR CYQF 110700Z 27003KT 15SM SKC M01/M06 A2992 RMK SLP171=

CYQF;2005-12-11 08:00;METAR CYQF 110800Z 10003KT 15SM SCT250 M01/M06 A2994 RMK CI2 SLP175=

CYQF;2005-12-11 09:00;METAR CYQF 110900Z 27005KT 15SM SCT250 M02/M07 A2995 RMK CI2 SLP178=

CYQF;2005-12-11 10:00;METAR CYQF 111000Z 21003KT 15SM SCT250 M02/M07 A2997 RMK CI2 SLP184=

CYQF;2005-12-11 11:00;METAR CYQF 111100Z 24007KT 15SM SCT250 M04/M09 A2998 RMK CI2 SLP187=

CYQF;2005-12-11 12:00;METAR CYQF 111200Z 00000KT 15SM SCT250 M02/M07 A3000 RMK CI2 SLP195=

CYQF;2005-12-11 13:00;METAR CYQF 111300Z 23005KT 15SM SCT080 BKN250 M01/M06 A3000 RMK AC4CI2 SLP196=

CYQF;2005-12-11 14:00;METAR CYQF 111400Z 24004KT 15SM BKN080 BKN250 01/M04 A3001 RMK AC6CI1 SLP199=

CYQF;2005-12-11 15:00;METAR CYQF 111500Z 25006KT 15SM BKN080 02/M04 A3002 RMK AC6 SLP204=

CYQF;2005-12-11 16:00;METAR CYQF 111600Z 26003KT 15SM BKN090 BKN250 02/M04 A3004 RMK AC2CI0 SLP208=

CYQF;2005-12-11 17:00;METAR CYQF 111700Z 23007KT 15SM FEW100 SCT250 03/M04 A3005 RMK AC1CI0 SLP211=

CYQF;2005-12-11 18:00;METAR CYQF 111800Z 24005KT 15SM FEW100 SCT250 04/M03 A3005 RMK AC1CI1 SLP217=

CYQF;2005-12-11 19:00;METAR CYQF 111900Z 24007KT 15SM FEW100 BKN250 06/M03 A3005 RMK AC1CI1 SLP215=

CYQF;2005-12-11 20:00;METAR CYQF 112000Z 24004KT 15SM FEW100 BKN250 07/M02 A3003 RMK AC1CI1 SLP211=

CYQF;2005-12-11 21:00;METAR CYQF 112100Z 24002KT 15SM SCT100 BKN250 08/M01 A3002 RMK AC1CI1 SLP199=

CYQF;2005-12-11 22:00;METAR CYQF 112200Z 00000KT 15SM FEW100 BKN250 07/M02 A3000 RMK AC1CI1 SLP194=

CYQF;2005-12-11 23:00;METAR CYQF 112300Z 19003KT 15SM FEW100 BKN250 05/M03 A3000 RMK AC1CI1 SLP193=

CYQF;2005-12-12 00:00;METAR CYQF 120000Z 18005KT 15SM FEW100 BKN250 03/M03 A2998 RMK AC1CI1 SLP194=

CYQF;2005-12-12 01:00;METAR CYQF 120100Z 18005KT 15SM FEW250 M00/M05 A2996 RMK CI1 SLP188=

CYQF;2005-12-12 02:00;METAR CYQF 120200Z 18004KT 15SM SKC M02/M06 A2994 RMK SLP180=

CYQF;2005-12-12 03:00;METAR CYQF 120300Z 15003KT 15SM SKC M02/M06 A2992 RMK SLP173=

CYQF;2005-12-12 04:00;METAR CYQF 120400Z 17008KT 15SM SKC M00/M05 A2990 RMK SLP165=

CYQF;2005-12-12 05:00;METAR CYQF 120500Z 08008KT 15SM SKC 00/M05 A2987 RMK SLP157=

CYQF;2005-12-12 06:00;METAR CYQF 120600Z 20002KT 15SM FEW250 M01/M06 A2986 RMK CI0 SLP148=

CYQF;2005-12-12 07:00;METAR CYQF 120700Z 23015KT 15SM FEW250 M04/M08 A2985 RMK CI0 SLP146=

CYQF;2005-12-12 08:00;METAR CYQF 120800Z 23003KT 15SM SCT250 M05/M08 A2984 RMK CI1 SLP142=

CYQF;2005-12-12 09:00;METAR CYQF 120900Z 22003KT 15SM FEW120 BKN250 M04/M07 A2984 RMK AC2CI3 SLP138=

CYQF;2005-12-12 10:00;METAR CYQF 121000Z 19003KT 15SM FEW120 BKN250 M04/M08 A2984 RMK AC2CI2 SLP138=

CYQF;2005-12-12 11:00;METAR CYQF 121100Z 20006KT 15SM FEW120 BKN250 M05/M08 A2982 RMK AC2CI2 SLP134=

CYQF;2005-12-12 12:00;METAR CYQF 121200Z 20005KT 15SM FEW120 BKN250 M05/M08 A2981 RMK AC2CI2 SLP137=

CYQF;2005-12-12 13:00;METAR CYQF 121300Z 23004KT 15SM BKN120 OVC250 M05/M09 A2982 RMK AC5CI2 FROIN SLP139=

CYQF;2005-12-12 14:00;METAR CYQF 121400Z 24002KT 15SM SCT120 OVC220 M06/M10 A2981 RMK AC3CI3 FROIN SLP135=

CYQF;2005-12-12 15:00;METAR CYQF 121500Z 00000KT 15SM BKN120 BKN230 M05/M08 A2980 RMK AC5CI1 SLP137=

CYQF;2005-12-12 16:00;METAR CYQF 121600Z 23004KT 15SM BKN120 OVC250 M05/M09 A2979 RMK AC5CI1 SLP134=

CYQF;2005-12-12 17:00;METAR CYQF 121700Z 25005KT 15SM BKN120 OVC250 M02/M06 A2979 RMK AC5CI2 SLP135=

CYQF;2005-12-12 18:00;METAR CYQF 121800Z 00000KT 15SM BKN120 BKN250 M01/M05 A2976 RMK AC6CI2 SLP120=

CYQF;2005-12-12 19:00;METAR CYQF 121900Z 28005KT 15SM FEW120 BKN250 M00/M04 A2976 RMK AC2CI2 SLP119=

CYQF;2005-12-12 20:00;METAR CYQF 122000Z 27004KT 15SM FEW120 FEW250 04/M04 A2972 RMK AC1CI1 TR CI SLP107=

CYQF;2005-12-12 21:00;METAR CYQF 122100Z 34003KT 15SM FEW100 04/M05 A2969 RMK AC1 SLP091=

CYQF;2005-12-12 22:00;METAR CYQF 122200Z 35003KT 15SM SCT100 BKN250 03/M05 A2967 RMK AC2CI0 SLP087=

CYQF;2005-12-12 23:00;METAR CYQF 122300Z 36005KT 15SM FEW050 BKN100 03/M06 A2966 RMK SC1AC2 SLP082=

CYQF;2005-12-13 00:00;METAR CYQF 130000Z 33005KT 15SM SCT050 BKN090 M03/M08 A2968 RMK SC3AC1 SLP097=

CYQF;2005-12-13 01:00;METAR CYQF 130100Z 01003KT 15SM BKN100 01/M06 A2966 RMK AC6 SLP092=

CYQF;2005-12-13 02:00;METAR CYQF 130200Z 34004KT 15SM BKN100 M01/M07 A2966 RMK AC7 SLP092=

CYQF;2005-12-13 03:00;METAR CYQF 130300Z 33010G15KT 15SM SCT100 BKN250 01/M07 A2968 RMK AC3CI2 SLP092=

CYQF;2005-12-13 03:50;SPECI CYQF 130350Z 33012G17KT 15SM -SN FEW020 BKN080 OVC250 RMK SC2AC4CI1=

CYQF;2005-12-13 04:00;METAR CYQF 130400Z 33012G18KT 15SM -SN FEW020 BKN080 OVC250 00/M04 A2969 RMK SC2AC4CI1 SLP097=

CYQF;2005-12-13 05:00;METAR CYQF 130500Z 30010KT 15SM -SN FEW020 BKN080 M00/M05 A2969 RMK SC2AC4 SLP095=

CYQF;2005-12-13 05:35;SPECI CYQF 130535Z 30008KT 15SM BKN090 OVC250 RMK AC6CI2=

CYQF;2005-12-13 06:00;METAR CYQF 130600Z 29008KT 15SM SCT090 OVC250 M00/M05 A2969 RMK AC4CI2 SLP095=

CYQF;2005-12-13 07:00;METAR CYQF 130700Z 31010KT 15SM SCT090 OVC250 M01/M05 A2970 RMK AC3CI2 SLP098=

CYQF;2005-12-13 08:00;METAR CYQF 130800Z 32010G15KT 15SM BKN250 M01/M07 A2971 RMK CI3 SLP099=

CYQF;2005-12-13 09:00;METAR CYQF 130900Z 32012G20KT 15SM FEW180 BKN240 M01/M08 A2972 RMK AC2CI2 SLP099=

CYQF;2005-12-13 10:00;METAR CYQF 131000Z 31010G18KT 15SM FEW160 SCT240 M02/M09 A2974 RMK AC1CI1 SLP104=

CYQF;2005-12-13 12:00;METAR CYQF 131200Z 31012G20KT 15SM FEW060 BKN240 M02/M09 A2974 RMK SC2CI2 SLP116=

CYQF;2005-12-13 13:00;METAR CYQF 131300Z 29015G22KT 15SM BKN050 BKN230 M02/M08 A2976 RMK SC5CI0 SLP122=

CYQF;2005-12-13 13:20;SPECI CYQF 131320Z 32020G30KT 10SM -SHSN BKN050 OVC220 RMK SC6CI2 VSBY N 5=

CYQF;2005-12-13 14:00;METAR CYQF 131400Z 31017G25KT 5SM -SHSN FEW020 BKN050 OVC220 M01/M06 A2978 RMK SF2SC6CI1 SLP129=

CYQF;2005-12-13 15:00;METAR CYQF 131500Z 31010G18KT 10SM -SHSN FEW020 BKN050 OVC220 M01/M06 A2981 RMK SC2SC6CI1 SLP134=

CYQF;2005-12-13 15:29;SPECI CYQF 131529Z 31013KT 15SM FEW020 SCT050 OVC250 RMK SC1SC2CI4=

CYQF;2005-12-13 16:00;METAR CYQF 131600Z 30014KT 15SM SCT008 BKN250 M02/M06 A2984 RMK SF2CI2 SLP143=

CYQF;2005-12-13 17:00;METAR CYQF 131700Z 31014KT 15SM FEW050 SCT100 BKN250 M01/M06 A2986 RMK SC2AC2CI2 SLP150=

CYQF;2005-12-13 18:00;METAR CYQF 131800Z 31017G24KT 15SM BKN050 OVC100 00/M07 A2987 RMK SC5AC3 SLP156=

CYQF;2005-12-13 19:00;METAR CYQF 131900Z 30018G25KT 3SM -SHSN BKN050 OVC100 M00/M06 A2988 RMK SN2SC5AC2 VIS S 2 SLP159=

CYQF;2005-12-13 19:25;SPECI CYQF 131925Z 30014G21KT 2SM -SHSN DRSN OVC050 RMK SN6SC2=

CYQF;2005-12-13 20:00;METAR CYQF 132000Z 32012G19KT 8SM -SHSN FEW009 BKN050 BKN250 M01/M05 A2990 RMK SF2SC2CI2 SLP164=

CYQF;2005-12-13 20:21;SPECI CYQF 132021Z 30010G20KT 15SM FEW009 SCT050 BKN250 RMK SF2SC2CI2=

CYQF;2005-12-13 21:00;METAR CYQF 132100Z 30014KT 15SM SCT009 BKN050 OVC100 00/M06 A2990 RMK SF1SC2AC5 SLP166=

CYQF;2005-12-13 22:00;METAR CYQF 132200Z 31014G22KT 15SM FEW050 SCT100 BKN250 00/M07 A2991 RMK SC2AC2CI2 SLP169=

CYQF;2005-12-13 23:00;METAR CYQF 132300Z 31014KT 15SM FEW050 BKN100 OVC250 00/M07 A2993 RMK SC2AC3CI2 SLP174=

CYQF;2005-12-14 00:00;METAR CYQF 140000Z 31011G17KT 15SM SCT050 OVC100 00/M08 A2994 RMK SC4AC4 SLP179=

CYQF;2005-12-14 01:00;METAR CYQF 140100Z 32018G28KT 15SM SCT050 BKN100 BKN250 01/M09 A2994 RMK SC2AC2CI2 SLP181=

CYQF;2005-12-14 02:00;METAR CYQF 140200Z 33018G30KT 15SM SCT050 BKN100 OVC250 00/M08 A2996 RMK SC4AC2CI2 SLP186=

CYQF;2005-12-14 03:00;METAR CYQF 140300Z 33020G34KT 15SM -SN BKN040 OVC090 M00/M07 A2998 RMK SC6AC2 SLP196=

CYQF;2005-12-14 04:00;METAR CYQF 140400Z 33017G28KT 15SM -SN BKN040 BKN090 M00/M08 A2999 RMK SC5AC2 SLP199=

CYQF;2005-12-14 05:00;METAR CYQF 140500Z 32017G26KT 15SM -SN BKN040 BKN090 M01/M07 A3001 RMK SC6AC2 SLP204=

CYQF;2005-12-14 06:00;METAR CYQF 140600Z 33015G24KT 15SM SCT040 BKN090 BKN250 M01/M07 A3004 RMK SC3AC2CI1 SLP215=

CYQF;2005-12-14 07:00;METAR CYQF 140700Z 34015G22KT 15SM SCT040 OVC080 M00/M08 A3007 RMK SC3AC4 SLP223=

CYQF;2005-12-14 08:00;METAR CYQF 140800Z 33012G20KT 15SM BKN040 OVC080 M00/M08 A3008 RMK SC5AC2 SLP227=

CYQF;2005-12-14 09:00;METAR CYQF 140900Z 33012G20KT 15SM BKN040 OVC080 M00/M08 A3009 RMK SC6AC2 SLP232=

CYQF;2005-12-14 10:00;METAR CYQF 141000Z 32010G18KT 15SM BKN050 OVC090 M00/M08 A3012 RMK SC6AC2 SLP239=

CYQF;2005-12-14 11:00;METAR CYQF 141100Z 33008KT 15SM SCT050 BKN090 M01/M09 A3014 RMK SC3AC2 SLP246=

CYQF;2005-12-14 12:00;METAR CYQF 141200Z 32007KT 15SM FEW050 BKN090 M02/M09 A3015 RMK SC2AC3 SLP253=

CYQF;2005-12-14 13:00;METAR CYQF 141300Z 29006KT 15SM BKN045 BKN090 M01/M09 A3016 RMK SC6AC1 SLP257=

CYQF;2005-12-14 14:00;METAR CYQF 141400Z 31010KT 15SM BKN045 OVC090 M03/M10 A3018 RMK SC5AC2 SLP264=

CYQF;2005-12-14 15:00;METAR CYQF 141500Z 29005KT 15SM BKN045 BKN090 M02/M10 A3019 RMK SC5AC2 SLP269=

CYQF;2005-12-14 16:00;METAR CYQF 141600Z 29007KT 15SM BKN045 BKN090 M04/M10 A3021 RMK SC6AC1 SLP274=

CYQF;2005-12-14 17:00;METAR CYQF 141700Z 29009KT 15SM BKN045 M04/M11 A3022 RMK SC5 SLP278=

CYQF;2005-12-14 18:00;METAR CYQF 141800Z 30010KT 15SM FEW045 SCT090 M03/M11 A3022 RMK SC2AC2 SLP281=

CYQF;2005-12-14 19:00;METAR CYQF 141900Z 31010KT 15SM FEW045 FEW090 M02/M11 A3022 RMK SC1AC2 SLP281=

CYQF;2005-12-14 20:00;METAR CYQF 142000Z 30010KT 15SM FEW090 M01/M11 A3022 RMK AC2 SLP279=

CYQF;2005-12-14 21:00;METAR CYQF 142100Z 30006KT 15SM FEW250 M01/M11 A3021 RMK CI1 SLP274=

CYQF;2005-12-14 22:00;METAR CYQF 142200Z 30010KT 15SM FEW250 M01/M11 A3022 RMK CI1 SLP276=

CYQF;2005-12-14 23:00;METAR CYQF 142300Z 33010KT 15SM FEW250 M02/M12 A3023 RMK CI2 SLP279=

CYQF;2005-12-15 00:00;METAR CYQF 150000Z 30005KT 15SM FEW250 M06/M13 A3025 RMK CI1 SLP295=

CYQF;2005-12-15 01:00;METAR CYQF 150100Z 30009KT 15SM SKC M06/M13 A3025 RMK SLP297=

CYQF;2005-12-15 02:00;METAR CYQF 150200Z 30010KT 15SM SKC M06/M13 A3026 RMK SLP298=

CYQF;2005-12-15 03:00;METAR CYQF 150300Z 30012KT 15SM SKC M06/M13 A3027 RMK SLP302=

CYQF;2005-12-15 04:00;METAR CYQF 150400Z 30010KT 15SM SKC M06/M13 A3027 RMK SLP303=

CYQF;2005-12-15 05:00;METAR CYQF 150500Z 32010KT 15SM SKC M07/M13 A3027 RMK SLP304=

CYQF;2005-12-15 06:00;METAR CYQF 150600Z 31009KT 15SM FEW250 M07/M14 A3027 RMK CI0 SLP307=

CYQF;2005-12-15 08:00;METAR CYQF 150800Z 32005KT 15SM SCT250 M09/M15 A3027 RMK CI1 SLP307=

CYQF;2005-12-15 09:00;METAR CYQF 150900Z 35003KT 15SM SCT250 M10/M15 A3029 RMK CI2 SLP312=

CYQF;2005-12-15 10:00;METAR CYQF 151000Z 31005KT 15SM FEW250 M11/M15 A3028 RMK CI1 SLP310=

CYQF;2005-12-15 11:00;METAR CYQF 151100Z 31004KT 15SM FEW100 BKN250 M11/M16 A3029 RMK AC1CI0 SLP313=

CYQF;2005-12-15 12:00;METAR CYQF 151200Z 36005KT 15SM BKN014 OVC250 M10/M14 A3030 RMK SC7CI1 SLP323=

CYQF;2005-12-15 13:00;METAR CYQF 151300Z 35004KT 15SM -SN OVC012 M08/M13 A3030 RMK SC8 SLP322=

CYQF;2005-12-15 15:00;METAR CYQF 151500Z 00000KT 15SM -SHSN BKN011 M09/M13 A3030 RMK SC7 SLP322=

CYQF;2005-12-15 15:43;SPECI CYQF 151543Z 00000KT 15SM BKN011 RMK SC6=

CYQF;2005-12-15 16:00;METAR CYQF 151600Z 34003KT 15SM BKN018 BKN270 M11/M15 A3030 RMK SC5CI0 SLP322=

CYQF;2005-12-15 17:00;METAR CYQF 151700Z 36003KT 15SM BKN018 BKN270 M10/M14 A3031 RMK SC6CI0 SLP323=

CYQF;2005-12-15 17:37;SPECI CYQF 151737Z 00000KT 15SM BKN006 RMK SC6 PIREP TPS 3900 MSL=

CYQF;2005-12-15 18:00;METAR CYQF 151800Z 01003KT 15SM BKN007 M10/M13 A3030 RMK SC5 SLP323=

CYQF;2005-12-15 18:31;SPECI CYQF 151831Z 00000KT 15SM SCT008 SCT090 RMK SC2AC1=

CYQF;2005-12-15 19:00;METAR CYQF 151900Z 00000KT 15SM FEW008 FEW090 M09/M13 A3028 RMK SC2AC1 SLP319=

CYQF;2005-12-15 20:00;METAR CYQF 152000Z 00000KT 15SM FEW100 SCT240 M08/M13 A3026 RMK AC2CI1 SLP313=

CYQF;2005-12-15 21:00;METAR CYQF 152100Z 00000KT 15SM FEW100 FEW240 M07/M13 A3025 RMK AC2CI0 SLP306=

CYQF;2005-12-15 22:00;METAR CYQF 152200Z 00000KT 15SM FEW100 M07/M13 A3024 RMK AC2 SLP303=

CYQF;2005-12-15 23:00;METAR CYQF 152300Z 00000KT 15SM FEW100 M07/M13 A3023 RMK AC2 SLP301=

CYQF;2005-12-16 00:00;METAR CYQF 160000Z 00000KT 15SM FEW100 M09/M14 A3023 RMK AC1 TR CLD SLP300=

CYQF;2005-12-16 01:00;METAR CYQF 160100Z 00000KT 15SM SKC M12/M16 A3023 RMK SLP300=

CYQF;2005-12-16 02:00;METAR CYQF 160200Z 00000KT 15SM SKC M13/M16 A3021 RMK SLP295=

CYQF;2005-12-16 03:00;METAR CYQF 160300Z 00000KT 15SM SKC M14/M17 A3021 RMK SLP298=

CYQF;2005-12-16 04:00;METAR CYQF 160400Z 00000KT 15SM SKC M14/M18 A3020 RMK SLP295=

CYQF;2005-12-16 05:00;METAR CYQF 160500Z 00000KT 15SM SKC M13/M17 A3018 RMK SLP291=

CYQF;2005-12-16 06:00;METAR CYQF 160600Z 00000KT 15SM SKC M13/M16 A3016 RMK SLP284=

CYQF;2005-12-16 07:00;METAR CYQF 160700Z 18002KT 15SM SKC M14/M17 A3014 RMK SLP276=

CYQF;2005-12-16 08:00;METAR CYQF 160800Z 00000KT 15SM FEW250 M14/M17 A3012 RMK CI1 SLP271=

CYQF;2005-12-16 09:00;METAR CYQF 160900Z 00000KT 15SM BKN250 M15/M19 A3011 RMK CI2 SLP264=

CYQF;2005-12-16 11:00;METAR CYQF 161100Z 00000KT 15SM FEW100 SCT250 M16/M19 A3010 RMK AC1CI1 SLP262=

CYQF;2005-12-16 12:00;METAR CYQF 161200Z 04002KT 15SM FEW250 M15/M18 A3010 RMK CI2 SLP263=

CYQF;2005-12-16 14:00;METAR CYQF 161400Z 07003KT 6SM -SN BKN005 M13/M16 A3013 RMK SF6 BR SLP271=

CYQF;2005-12-16 14:33;SPECI CYQF 161433Z 02002KT 10SM -SN OVC007 RMK SF8=

CYQF;2005-12-16 15:00;METAR CYQF 161500Z 01003KT 10SM -SN BKN007 M13/M16 A3014 RMK SF7 SLP279=

CYQF;2005-12-16 15:44;SPECI CYQF 161544Z 03003KT 15SM SCT007 RMK SF2 VIS S 6=

CYQF;2005-12-16 16:00;METAR CYQF 161600Z 02003KT 15SM FEW007 M15/M18 A3016 RMK SF1 SLP286=

CYQF;2005-12-16 17:00;METAR CYQF 161700Z 01003KT 15SM FEW007 M15/M19 A3019 RMK SF1 TR CLD SLP296=

CYQF;2005-12-16 18:00;METAR CYQF 161800Z 00000KT 15SM FEW007 M14/M17 A3021 RMK SF1 TR CLD SLP303=

CYQF;2005-12-16 19:00;METAR CYQF 161900Z 00000KT 15SM FEW007 M11/M16 A3021 RMK SF1 TR CLD SLP303=

CYQF;2005-12-16 20:00;METAR CYQF 162000Z 12002KT 10SM SCT011 M12/M16 A3021 RMK SF2 SLP305=

CYQF;2005-12-16 21:00;METAR CYQF 162100Z 12003KT 10SM SCT011 M11/M15 A3021 RMK SF2 SLP302=

CYQF;2005-12-16 21:28;SPECI CYQF 162128Z 00000KT 10SM -SN SCT012 RMK SF2=

CYQF;2005-12-16 22:00;METAR CYQF 162200Z 00000KT 10SM SCT012 M10/M16 A3021 RMK SF2 SLP304=

CYQF;2005-12-16 22:32;SPECI CYQF 162232Z 00000KT 15SM FEW012 RMK SF1=

CYQF;2005-12-16 23:00;METAR CYQF 162300Z 00000KT 15SM FEW012 M11/M16 A3022 RMK SF0 SLP306=

CYQF;2005-12-17 00:00;METAR CYQF 170000Z 00000KT 15SM FEW012 M13/M16 A3022 RMK SF1 TR SF SLP309=

CYQF;2005-12-17 01:00;METAR CYQF 170100Z 00000KT 15SM SKC M14/M18 A3024 RMK SLP313=

CYQF;2005-12-17 02:00;METAR CYQF 170200Z 00000KT 15SM SKC M17/M20 A3025 RMK SLP316=

CYQF;2005-12-17 04:00;METAR CYQF 170400Z 00000KT 15SM SKC M17/M21 A3026 RMK FROIN SLP326=

CYQF;2005-12-17 05:00;METAR CYQF 170500Z 00000KT 15SM SKC M18/M21 A3026 RMK SLP326=

CYQF;2005-12-17 07:00;METAR CYQF 170700Z 00000KT 15SM SKC M18/M21 A3027 RMK SLP333=

CYQF;2005-12-17 08:00;METAR CYQF 170800Z 15003KT 15SM SKC M19/M22 A3027 RMK SLP331=

CYQF;2005-12-17 09:00;METAR CYQF 170900Z 17003KT 15SM SKC M18/M21 A3028 RMK SLP330=

CYQF;2005-12-17 10:00;METAR CYQF 171000Z 16005KT 15SM SKC M18/M20 A3029 RMK FROIN SLP334=

CYQF;2005-12-17 11:00;METAR CYQF 171100Z 17003KT 15SM SKC M17/M20 A3030 RMK FROIN SLP336=

CYQF;2005-12-17 12:00;METAR CYQF 171200Z 17004KT 15SM SKC M17/M20 A3029 RMK FROIN SLP335=

CYQF;2005-12-17 13:00;METAR CYQF 171300Z 17005KT 15SM SKC M18/M21 A3028 RMK FROIN SLP333=

CYQF;2005-12-17 15:00;METAR CYQF 171500Z 14004KT 15SM SKC M18/M21 A3031 RMK FROIN SLP347=

CYQF;2005-12-17 16:00;METAR CYQF 171600Z 18003KT 6SM BR SKC M17/M20 A3030 RMK FROIN SLP344=

CYQF;2005-12-17 17:00;METAR CYQF 171700Z 18006KT 6SM BR SKC M16/M19 A3032 RMK FROIN SLP351=

CYQF;2005-12-17 18:00;METAR CYQF 171800Z 17009KT 6SM BR SKC M14/M18 A3032 RMK SLP349=

CYQF;2005-12-17 20:00;METAR CYQF 172000Z 17014G19KT 6SM BR SKC M11/M16 A3027 RMK SLP336=

CYQF;2005-12-17 21:00;METAR CYQF 172100Z 17013G20KT 6SM BR SKC M11/M15 A3027 RMK SLP327=

CYQF;2005-12-17 22:00;METAR CYQF 172200Z 16014KT 6SM BR SKC M11/M15 A3029 RMK SLP334=

CYQF;2005-12-17 23:00;METAR CYQF 172300Z 16012KT 8SM FEW250 M12/M16 A3028 RMK CI1 SLP331=

CYQF;2005-12-18 01:00;METAR CYQF 180100Z 19010KT 10SM SKC M13/M17 A3026 RMK SLP324=

CYQF;2005-12-18 02:00;METAR CYQF 180200Z 18011G17KT 15SM SKC M14/M18 A3027 RMK SLP327=

CYQF;2005-12-18 03:00;METAR CYQF 180300Z 17010G16KT 15SM SKC M14/M18 A3029 RMK SLP337=

CYQF;2005-12-18 04:00;METAR CYQF 180400Z 17014KT 15SM SKC M14/M18 A3028 RMK SLP334=

CYQF;2005-12-18 05:00;METAR CYQF 180500Z 17012KT 15SM SKC M14/M18 A3027 RMK SLP332=

CYQF;2005-12-18 06:00;METAR CYQF 180600Z 18010KT 15SM SKC M15/M18 A3026 RMK SLP324=

CYQF;2005-12-18 07:00;METAR CYQF 180700Z 18007KT 15SM SKC M14/M19 A3025 RMK SLP320=

CYQF;2005-12-18 08:00;METAR CYQF 180800Z 18012KT 15SM SKC M14/M19 A3024 RMK SLP316=

CYQF;2005-12-18 09:00;METAR CYQF 180900Z 18013KT 15SM SKC M14/M19 A3023 RMK SLP307=

CYQF;2005-12-18 10:00;METAR CYQF 181000Z 12014KT 15SM SKC M14/M19 A3022 RMK SLP305=

CYQF;2005-12-18 11:00;METAR CYQF 181100Z 19013KT 15SM SKC M14/M18 A3020 RMK SLP299=

CYQF;2005-12-18 12:00;METAR CYQF 181200Z 18010KT 15SM SKC M14/M19 A3020 RMK SLP299=

CYQF;2005-12-18 13:00;METAR CYQF 181300Z 15010KT 15SM SKC M15/M19 A3018 RMK SLP293=

CYQF;2005-12-18 14:00;METAR CYQF 181400Z 18008KT 15SM SKC M15/M20 A3019 RMK SLP296=

CYQF;2005-12-18 15:00;METAR CYQF 181500Z 17010KT 15SM SKC M16/M20 A3017 RMK SLP295=

CYQF;2005-12-18 16:00;METAR CYQF 181600Z 18003KT 15SM SKC M16/M20 A3018 RMK SLP297=

CYQF;2005-12-18 17:00;METAR CYQF 181700Z 00000KT 15SM SKC M15/M19 A3018 RMK SLP298=

CYQF;2005-12-18 18:00;METAR CYQF 181800Z 21006KT 15SM FEW250 M13/M18 A3018 RMK CI1 SLP294=

CYQF;2005-12-18 19:00;METAR CYQF 181900Z 20007KT 15SM FEW250 M11/M17 A3016 RMK CI0 SLP289=

CYQF;2005-12-18 20:00;METAR CYQF 182000Z 18009KT 15SM SCT250 M09/M15 A3014 RMK CI1 SLP280=

CYQF;2005-12-18 21:00;METAR CYQF 182100Z 19006KT 15SM FEW250 M07/M14 A3012 RMK CI0 SLP267=

CYQF;2005-12-18 22:00;METAR CYQF 182200Z 18006KT 15SM SCT250 M07/M13 A3011 RMK CI0 SLP263=

CYQF;2005-12-18 23:00;METAR CYQF 182300Z 17003KT 15SM SCT250 M08/M14 A3011 RMK CI0 SLP264=

CYQF;2005-12-19 00:00;METAR CYQF 190000Z 16007KT 15SM FEW250 M10/M15 A3011 RMK CI0 SLP267=

CYQF;2005-12-19 01:00;METAR CYQF 190100Z 20004KT 15SM FEW250 M14/M19 A3010 RMK CI0 SLP263=

CYQF;2005-12-19 02:00;METAR CYQF 190200Z 19003KT 15SM FEW250 M13/M17 A3010 RMK CI0 SLP262=

CYQF;2005-12-19 03:00;METAR CYQF 190300Z 20004KT 15SM FEW250 M15/M19 A3009 RMK CI1 SLP267=

CYQF;2005-12-19 04:00;METAR CYQF 190400Z 20003KT 15SM FEW250 M16/M19 A3009 RMK CI1 SLP266=

CYQF;2005-12-19 05:00;METAR CYQF 190500Z 20005KT 15SM FEW250 M16/M20 A3007 RMK CI0 SLP262=

CYQF;2005-12-19 06:00;METAR CYQF 190600Z 21006KT 15SM FEW250 M17/M20 A3008 RMK CI1 SLP261=

CYQF;2005-12-19 07:00;METAR CYQF 190700Z 20006KT 15SM FEW250 M16/M19 A3008 RMK CI1 SLP261=

CYQF;2005-12-19 08:00;METAR CYQF 190800Z 20005KT 15SM SKC M17/M20 A3008 RMK SLP261=

CYQF;2005-12-19 09:00;METAR CYQF 190900Z 20006KT 15SM SKC M17/M20 A3007 RMK SLP252=

CYQF;2005-12-19 10:00;METAR CYQF 191000Z 21005KT 15SM SKC M16/M20 A3008 RMK SLP256=

CYQF;2005-12-19 11:00;METAR CYQF 191100Z 00000KT 15SM FEW250 M16/M19 A3009 RMK CI0 SLP259=

CYQF;2005-12-19 12:00;METAR CYQF 191200Z 23003KT 15SM FEW250 M16/M20 A3010 RMK CI0 SLP264=

CYQF;2005-12-19 13:00;METAR CYQF 191300Z 19004KT 15SM SKC M16/M20 A3010 RMK SLP264=

CYQF;2005-12-19 14:00;METAR CYQF 191400Z 18004KT 15SM SKC M16/M20 A3009 RMK SLP263=

CYQF;2005-12-19 15:00;METAR CYQF 191500Z 21006KT 15SM SKC M19/M23 A3011 RMK SLP276=

CYQF;2005-12-19 16:00;METAR CYQF 191600Z 20005KT 15SM SKC M17/M21 A3011 RMK SLP276=

CYQF;2005-12-19 17:00;METAR CYQF 191700Z 20006KT 15SM SKC M14/M19 A3011 RMK SLP278=

CYQF;2005-12-19 18:00;METAR CYQF 191800Z 21003KT 15SM SKC M11/M16 A3012 RMK SLP272=

CYQF;2005-12-19 19:00;METAR CYQF 191900Z 22004KT 15SM FEW250 M08/M14 A3012 RMK CI1 SLP272=

CYQF;2005-12-19 20:00;METAR CYQF 192000Z 20002KT 15SM FEW250 M05/M14 A3010 RMK CI1 SLP267=

CYQF;2005-12-19 21:00;METAR CYQF 192100Z 21002KT 15SM FEW250 M04/M13 A3009 RMK CI1 SLP255=

CYQF;2005-12-19 22:00;METAR CYQF 192200Z 06006KT 15SM FEW250 M04/M13 A3007 RMK CI1 SLP248=

CYQF;2005-12-19 23:00;METAR CYQF 192300Z 19003KT 15SM FEW250 M09/M15 A3009 RMK CI1 SLP254=

CYQF;2005-12-20 00:00;METAR CYQF 200000Z 00000KT 15SM FEW250 M09/M14 A3008 RMK CI1 SLP255=

CYQF;2005-12-20 01:00;METAR CYQF 200100Z 00000KT 15SM FEW250 M13/M18 A3008 RMK CI1 SLP256=

CYQF;2005-12-20 02:00;METAR CYQF 200200Z 00000KT 15SM FEW250 M14/M18 A3007 RMK CI1 SLP254=

CYQF;2005-12-20 03:00;METAR CYQF 200300Z 22005KT 15SM FEW250 M15/M19 A3006 RMK CI0 SLP261=

CYQF;2005-12-20 04:00;METAR CYQF 200400Z 21004KT 15SM FEW250 M17/M20 A3005 RMK CI1 SLP255=

CYQF;2005-12-20 05:00;METAR CYQF 200500Z 00000KT 15SM FEW250 M17/M21 A3004 RMK CI1 SLP254=

CYQF;2005-12-20 06:00;METAR CYQF 200600Z 17002KT 15SM FEW250 M16/M20 A3003 RMK CI0 SLP242=

CYQF;2005-12-20 07:00;METAR CYQF 200700Z 20003KT 15SM FEW250 M16/M19 A3003 RMK CI0 SLP241=

CYQF;2005-12-20 08:00;METAR CYQF 200800Z 23009KT 15SM SKC M17/M21 A3002 RMK SLP239=

CYQF;2005-12-20 09:00;METAR CYQF 200900Z 22004KT 15SM SKC M17/M20 A3001 RMK SLP227=

CYQF;2005-12-20 10:00;METAR CYQF 201000Z 20004KT 15SM SCT250 M16/M20 A3002 RMK CI1 SLP228=

CYQF;2005-12-20 11:00;METAR CYQF 201100Z 26005KT 15SM SCT250 M15/M18 A3002 RMK CI1 SLP230=

CYQF;2005-12-20 12:00;METAR CYQF 201200Z 21005KT 15SM BKN250 M15/M18 A3001 RMK CI2 SLP229=

CYQF;2005-12-20 13:00;METAR CYQF 201300Z 21005KT 15SM BKN250 M14/M18 A3000 RMK CI2 SLP228=

CYQF;2005-12-20 14:00;METAR CYQF 201400Z 20003KT 15SM SCT250 M14/M18 A2998 RMK CI2 SLP221=

CYQF;2005-12-20 15:00;METAR CYQF 201500Z 00000KT 15SM SCT250 M14/M18 A2998 RMK CI2 SLP226=

CYQF;2005-12-20 16:00;METAR CYQF 201600Z 19002KT 15SM FEW100 BKN250 M13/M17 A2998 RMK AC1CI2 SLP227=

CYQF;2005-12-20 17:00;METAR CYQF 201700Z 00000KT 15SM SCT100 OVC250 M10/M14 A2997 RMK AC4CI2 SLP224=

CYQF;2005-12-20 18:00;METAR CYQF 201800Z 00000KT 15SM SCT100 BKN250 M07/M12 A2995 RMK AC3CI2 SLP210=

CYQF;2005-12-20 19:00;METAR CYQF 201900Z 00000KT 15SM SCT100 BKN250 M03/M10 A2993 RMK AC4CI1 SLP202=

CYQF;2005-12-20 20:00;METAR CYQF 202000Z 18002KT 15SM BKN100 BKN250 M02/M09 A2990 RMK AC6CI1 SLP195=

CYQF;2005-12-20 21:00;METAR CYQF 202100Z 00000KT 15SM BKN100 BKN250 M01/M08 A2989 RMK AC5CI2 SLP181=

CYQF;2005-12-20 22:00;METAR CYQF 202200Z 00000KT 15SM SCT100 BKN250 M01/M07 A2987 RMK AC4CI2 SLP175=

CYQF;2005-12-20 23:00;METAR CYQF 202300Z 00000KT 15SM BKN100 BKN250 M00/M06 A2986 RMK AC5CI1 SLP174=

CYQF;2005-12-21 00:00;METAR CYQF 210000Z 00000KT 15SM BKN100 BKN250 M01/M06 A2984 RMK AC5CI2 SLP162=

CYQF;2005-12-21 01:00;METAR CYQF 210100Z 00000KT 15SM BKN090 BKN250 M01/M06 A2982 RMK AC6CI1 SLP157=

CYQF;2005-12-21 02:00;METAR CYQF 210200Z 00000KT 15SM BKN090 BKN250 M00/M05 A2980 RMK AC5CI1 SLP149=

CYQF;2005-12-21 03:00;METAR CYQF 210300Z 00000KT 15SM SCT090 BKN250 M04/M07 A2979 RMK AC4CI2 SLP146=

CYQF;2005-12-21 04:00;METAR CYQF 210400Z 19002KT 15SM BKN090 OVC250 M01/M05 A2977 RMK AC5CI3 SLP141=

CYQF;2005-12-21 05:00;METAR CYQF 210500Z 00000KT 15SM BKN090 OVC250 M02/M05 A2977 RMK AC6CI2 SLP141=

CYQF;2005-12-21 06:00;METAR CYQF 210600Z 18004KT 15SM BKN090 OVC250 M02/M05 A2976 RMK AC6CI2 SLP125=

CYQF;2005-12-21 07:00;METAR CYQF 210700Z 20006KT 15SM BKN090 OVC250 M01/M05 A2975 RMK AC6CI2 SLP124=

CYQF;2005-12-21 08:00;METAR CYQF 210800Z 23012KT 15SM BKN100 OVC250 05/M01 A2973 RMK AC6CI2 SLP116=

CYQF;2005-12-21 09:00;METAR CYQF 210900Z 24012KT 15SM OVC100 06/M01 A2971 RMK AC8 SLP094=

CYQF;2005-12-21 10:00;METAR CYQF 211000Z 22010KT 15SM OVC120 06/M01 A2974 RMK AC8 SLP103=

CYQF;2005-12-21 11:00;METAR CYQF 211100Z 22008KT 15SM OVC120 05/M01 A2971 RMK AC8 SLP094=

CYQF;2005-12-21 12:00;METAR CYQF 211200Z 24006KT 15SM OVC120 04/M02 A2971 RMK AC8 SLP096=

CYQF;2005-12-21 13:00;METAR CYQF 211300Z 23010KT 15SM OVC120 03/M02 A2972 RMK AC8 SLP100=

CYQF;2005-12-21 14:00;METAR CYQF 211400Z 22006KT 15SM OVC120 05/M02 A2972 RMK AC8 SLP099=

CYQF;2005-12-21 15:00;METAR CYQF 211500Z 00000KT 15SM SCT120 BKN250 02/M02 A2971 RMK AC4CI2 SLP100=

CYQF;2005-12-21 16:00;METAR CYQF 211600Z 23011KT 15SM SCT120 BKN250 00/M04 A2969 RMK AC4CI2 SLP094=

CYQF;2005-12-21 17:00;METAR CYQF 211700Z 00000KT 15SM BKN100 BKN250 02/M03 A2971 RMK AC6CI0 SLP102=

CYQF;2005-12-21 18:00;METAR CYQF 211800Z 23008KT 15SM BKN100 BKN250 05/M03 A2971 RMK AC5CI1 SLP096=

CYQF;2005-12-21 19:00;METAR CYQF 211900Z 23009KT 15SM BKN100 BKN250 06/M02 A2971 RMK AC5CI1 SLP097=

CYQF;2005-12-21 20:00;METAR CYQF 212000Z 23006KT 15SM BKN100 BKN250 07/M02 A2967 RMK AC6CI1 SLP085=

CYQF;2005-12-21 21:00;METAR CYQF 212100Z 21006KT 15SM SCT100 BKN250 08/M03 A2966 RMK AC4CI1 VIRGA SW SLP065=

CYQF;2005-12-21 22:00;METAR CYQF 212200Z 19004KT 15SM SCT100 BKN250 05/M03 A2966 RMK AC3CI1 VIRGA SW SLP065=

CYQF;2005-12-21 23:00;METAR CYQF 212300Z 18005KT 15SM SCT100 BKN250 02/M04 A2965 RMK AC3CI1 VIRGA SW SLP064=

CYQF;2005-12-22 00:00;METAR CYQF 220000Z 20008KT 15SM BKN090 BKN250 01/M05 A2965 RMK AC6CI1 SLP072=

CYQF;2005-12-22 01:00;METAR CYQF 220100Z 21007KT 15SM BKN100 01/M05 A2963 RMK AC7 SLP066=

CYQF;2005-12-22 02:00;METAR CYQF 220200Z 21004KT 15SM OVC100 03/M04 A2959 RMK AC8 SLP055=

CYQF;2005-12-22 03:00;METAR CYQF 220300Z 21004KT 15SM OVC100 01/M04 A2956 RMK AC8 SLP043=

CYQF;2005-12-22 04:00;METAR CYQF 220400Z 19006KT 15SM OVC100 02/M04 A2955 RMK AC8 SLP039=

CYQF;2005-12-22 05:00;METAR CYQF 220500Z 19005KT 15SM BKN100 02/M04 A2954 RMK AC7 SLP036=

CYQF;2005-12-22 06:00;METAR CYQF 220600Z 21005KT 15SM BKN100 OVC250 00/M04 A2951 RMK AC6CI1 SLP025=

CYQF;2005-12-22 07:00;METAR CYQF 220700Z 20004KT 15SM OVC100 03/M03 A2949 RMK AC8 SLP017=

CYQF;2005-12-22 08:00;METAR CYQF 220800Z 23007KT 15SM BKN100 OVC250 05/M03 A2946 RMK AC6CI2 SLP008=

CYQF;2005-12-22 09:00;METAR CYQF 220900Z 20005KT 15SM BKN100 OVC250 03/M03 A2943 RMK AC6CI2 SLP991=

CYQF;2005-12-22 10:00;METAR CYQF 221000Z 22005KT 15SM BKN100 OVC250 02/M03 A2942 RMK AC6CI2 SLP986=

CYQF;2005-12-22 11:00;METAR CYQF 221100Z 22005KT 15SM BKN100 OVC250 03/M03 A2941 RMK AC6CI2 SLP983=

CYQF;2005-12-22 12:00;METAR CYQF 221200Z 20004KT 15SM BKN100 OVC250 04/M03 A2939 RMK AC6CI2 SLP984=

CYQF;2005-12-22 13:00;METAR CYQF 221300Z 24005KT 15SM BKN100 BKN250 03/M03 A2939 RMK AC6CI2 SLP983=

CYQF;2005-12-22 14:00;METAR CYQF 221400Z 18004KT 15SM BKN100 BKN250 02/M04 A2938 RMK AC5CI1 SLP980=

CYQF;2005-12-22 15:00;METAR CYQF 221500Z 23004KT 15SM BKN100 BKN250 M04/M07 A2937 RMK AC5CI1 SLP985=

CYQF;2005-12-22 16:00;METAR CYQF 221600Z 20009KT 15SM BKN100 BKN250 M01/M06 A2940 RMK AC5CI1 SLP993=

CYQF;2005-12-22 17:00;METAR CYQF 221700Z 00000KT 15SM FEW040 SCT100 BKN250 M01/M06 A2941 RMK SC1AC4CI1 SLP996=

CYQF;2005-12-22 18:00;METAR CYQF 221800Z 21003KT 15SM FEW040 BKN100 BKN250 M00/M05 A2941 RMK SC1AC5CI1 SLP995=

CYQF;2005-12-22 20:00;METAR CYQF 222000Z 00000KT 15SM FEW100 BKN250 08/M03 A2938 RMK AC2CI1 SLP985=

CYQF;2005-12-22 21:00;METAR CYQF 222100Z 00000KT 15SM FEW100 BKN250 11/M03 A2938 RMK AC2CI1 SLP970=

CYQF;2005-12-22 22:00;METAR CYQF 222200Z 24003KT 15SM SCT100 SCT250 10/M03 A2938 RMK AC3CI0 SLP969=

CYQF;2005-12-22 23:00;METAR CYQF 222300Z 23005KT 15SM BKN100 BKN250 08/M05 A2938 RMK AC5CI1 SLP970=

CYQF;2005-12-23 00:00;METAR CYQF 230000Z 09003KT 15SM BKN100 OVC250 04/M05 A2937 RMK AC7CI0 SLP974=

CYQF;2005-12-23 01:00;METAR CYQF 230100Z 22004KT 15SM BKN090 04/M05 A2937 RMK AC7 SLP972=

CYQF;2005-12-23 02:00;METAR CYQF 230200Z 23007KT 15SM OVC100 03/M05 A2935 RMK AC8 SLP965=

CYQF;2005-12-23 03:00;METAR CYQF 230300Z 22005KT 15SM OVC100 02/M05 A2935 RMK AC8 SLP977=

CYQF;2005-12-23 04:00;METAR CYQF 230400Z 22008KT 15SM OVC100 04/M05 A2935 RMK AC8 SLP976=

CYQF;2005-12-23 06:00;METAR CYQF 230600Z 24007KT 15SM FEW100 03/M06 A2937 RMK AC2 SLP977=

CYQF;2005-12-23 07:00;METAR CYQF 230700Z 26007KT 15SM FEW250 M00/M07 A2938 RMK CI0 SLP982=

CYQF;2005-12-23 08:00;METAR CYQF 230800Z 00000KT 15SM FEW100 SCT250 M01/M07 A2941 RMK AC1CI1 SLP989=

CYQF;2005-12-23 09:00;METAR CYQF 230900Z 18003KT 15SM BKN100 OVC250 01/M06 A2946 RMK AC6CI2 SLP999=

CYQF;2005-12-23 10:00;METAR CYQF 231000Z 21004KT 15SM BKN100 OVC250 00/M06 A2950 RMK AC6CI2 SLP011=

CYQF;2005-12-23 11:00;METAR CYQF 231100Z 29006KT 15SM BKN100 OVC250 M01/M06 A2954 RMK AC6CI2 SLP024=

CYQF;2005-12-23 12:00;METAR CYQF 231200Z 19004KT 15SM BKN100 OVC250 M00/M06 A2958 RMK AC6CI2 SLP049=

CYQF;2005-12-23 13:00;METAR CYQF 231300Z 23005KT 15SM BKN100 OVC250 M01/M06 A2962 RMK AC6CI2 SLP063=

CYQF;2005-12-23 14:00;METAR CYQF 231400Z 28003KT 15SM BKN100 OVC250 01/M05 A2966 RMK AC6CI2 SLP075=

CYQF;2005-12-23 15:00;METAR CYQF 231500Z 32013KT 15SM BKN100 BKN250 05/M04 A2969 RMK AC5CI2 SLP086=

CYQF;2005-12-23 16:00;METAR CYQF 231600Z 33008KT 15SM FEW100 BKN250 05/M03 A2974 RMK AC2CI2 SLP099=

CYQF;2005-12-23 17:00;METAR CYQF 231700Z 28006KT 15SM SCT100 BKN250 05/M03 A2979 RMK AC3CI2 SLP115=

CYQF;2005-12-23 18:00;METAR CYQF 231800Z 26004KT 15SM SCT100 BKN250 05/M03 A2983 RMK AC3CI2 SLP130=

CYQF;2005-12-23 19:00;METAR CYQF 231900Z 23010KT 15SM FEW090 SCT250 04/M04 A2983 RMK AC2CI1 SLP132=

CYQF;2005-12-23 20:00;METAR CYQF 232000Z 23005KT 15SM FEW090 FEW250 07/M03 A2984 RMK AC1CI1 SLP135=

CYQF;2005-12-23 21:00;METAR CYQF 232100Z 23008KT 15SM FEW090 FEW250 08/M02 A2985 RMK AC1CI1 SLP139=

CYQF;2005-12-23 22:00;METAR CYQF 232200Z 21005KT 15SM FEW090 FEW250 08/M03 A2986 RMK AC1CI1 SLP142=

CYQF;2005-12-23 23:00;METAR CYQF 232300Z 20004KT 15SM FEW250 06/M04 A2988 RMK CI0 SLP147=

CYQF;2005-12-24 00:00;METAR CYQF 240000Z 20005KT 15SM FEW090 FEW250 02/M06 A2990 RMK AC1CI0 SLP164=

CYQF;2005-12-24 01:00;METAR CYQF 240100Z 18006KT 15SM FEW090 M02/M07 A2991 RMK AC1 SLP167=

CYQF;2005-12-24 02:00;METAR CYQF 240200Z 22006KT 15SM FEW100 M03/M08 A2993 RMK AC2 SLP171=

CYQF;2005-12-24 03:00;METAR CYQF 240300Z 23007KT 15SM FEW100 M02/M08 A2992 RMK AC1 SLP168=

CYQF;2005-12-24 04:00;METAR CYQF 240400Z 00000KT 15SM BKN100 M01/M08 A2991 RMK AC3 SLP164=

CYQF;2005-12-24 05:00;METAR CYQF 240500Z 19002KT 15SM BKN150 M02/M08 A2989 RMK AC6 SLP160=

CYQF;2005-12-24 06:00;METAR CYQF 240600Z 00000KT 15SM OVC150 M02/M08 A2989 RMK AC8 SLP159=

CYQF;2005-12-24 07:00;METAR CYQF 240700Z 00000KT 15SM BKN150 M03/M08 A2990 RMK AC6 SLP161=

CYQF;2005-12-24 08:00;METAR CYQF 240800Z 00000KT 15SM SCT150 BKN250 M02/M08 A2990 RMK AC2CI1 SLP160=

CYQF;2005-12-24 09:00;METAR CYQF 240900Z 20002KT 15SM FEW150 SCT250 M04/M09 A2988 RMK AC2CI1 SLP155=

CYQF;2005-12-24 10:00;METAR CYQF 241000Z 00000KT 15SM SCT120 BKN250 M06/M10 A2988 RMK AC2CI2 SLP154=

CYQF;2005-12-24 11:00;METAR CYQF 241100Z 20004KT 15SM BKN120 OVC250 M06/M09 A2985 RMK AC5CI2 SLP146=

CYQF;2005-12-24 12:00;METAR CYQF 241200Z 19005KT 15SM BKN120 OVC250 M05/M10 A2982 RMK AC6CI2 SLP140=

CYQF;2005-12-24 13:00;METAR CYQF 241300Z 19003KT 15SM BKN120 OVC250 M04/M08 A2982 RMK AC7CI1 SLP141=

CYQF;2005-12-24 14:00;METAR CYQF 241400Z 19005KT 15SM SCT120 BKN250 M05/M09 A2980 RMK AC3CI1 SLP135=

CYQF;2005-12-24 15:00;METAR CYQF 241500Z 16003KT 15SM SCT120 BKN250 M05/M09 A2977 RMK AC4CI1 SLP127=

CYQF;2005-12-24 16:00;METAR CYQF 241600Z 16004KT 15SM FEW120 BKN250 M02/M07 A2976 RMK AC2CI2 SLP126=

CYQF;2005-12-24 17:00;METAR CYQF 241700Z 18004KT 15SM FEW120 BKN250 M03/M07 A2976 RMK AC2CI2 SLP126=

CYQF;2005-12-24 18:00;METAR CYQF 241800Z 15003KT 15SM FEW060 FEW120 BKN250 01/M05 A2975 RMK SC2AC1CI1 SLP114=

CYQF;2005-12-24 19:00;METAR CYQF 241900Z 00000KT 15SM SCT060 BKN250 03/M03 A2972 RMK SC3CI1 SLP103=

CYQF;2005-12-24 20:00;METAR CYQF 242000Z 19004KT 15SM SCT060 BKN250 04/M02 A2969 RMK SC3CI1 SLP096=

CYQF;2005-12-24 21:00;METAR CYQF 242100Z 09003KT 15SM BKN070 BKN250 05/M02 A2967 RMK AC5CI2 SLP083=

CYQF;2005-12-24 22:00;METAR CYQF 242200Z 15003KT 15SM BKN070 OVC250 06/M01 A2964 RMK AC5CI2 SLP075=

CYQF;2005-12-24 23:00;METAR CYQF 242300Z 18005KT 15SM SCT070 BKN150 OVC250 06/M01 A2964 RMK AC3AC2CI2 SLP074=

CYQF;2005-12-25 00:00;METAR CYQF 250000Z 17004KT 15SM FEW070 BKN150 OVC250 03/M02 A2963 RMK AC2AC5CI1 SLP074=

CYQF;2005-12-25 01:00;METAR CYQF 250100Z 18009KT 15SM FEW070 OVC150 05/M02 A2961 RMK AC1AC7 SLP066=

CYQF;2005-12-25 02:00;METAR CYQF 250200Z 18007KT 15SM BKN150 OVC250 04/M02 A2959 RMK AC5CI3 SLP061=

CYQF;2005-12-25 03:00;METAR CYQF 250300Z 00000KT 15SM FEW120 OVC250 05/M01 A2957 RMK AC2CI6 SLP051=

CYQF;2005-12-25 04:00;METAR CYQF 250400Z 16005KT 15SM OVC250 03/M02 A2956 RMK CI8 SLP047=

CYQF;2005-12-25 05:00;METAR CYQF 250500Z 19006KT 15SM OVC250 M00/M05 A2955 RMK CI6 SLP044=

CYQF;2005-12-25 06:00;METAR CYQF 250600Z 18005KT 15SM BKN250 02/M03 A2953 RMK CI5 SLP034=

CYQF;2005-12-25 07:00;METAR CYQF 250700Z 18003KT 15SM SCT250 01/M04 A2952 RMK CI3 SLP030=

CYQF;2005-12-25 08:00;METAR CYQF 250800Z 17006KT 15SM SCT100 BKN250 03/M03 A2950 RMK AC3CI3 SLP025=

CYQF;2005-12-25 09:00;METAR CYQF 250900Z 17007KT 15SM SCT100 OVC250 05/M02 A2950 RMK AC4CI4 SLP016=

CYQF;2005-12-25 10:00;METAR CYQF 251000Z 16006KT 15SM SCT100 OVC220 06/M01 A2951 RMK AC3CI5 SLP017=

CYQF;2005-12-25 11:00;METAR CYQF 251100Z 17005KT 15SM SCT100 BKN220 06/M02 A2948 RMK AC4CI2 SLP009=

CYQF;2005-12-25 12:00;METAR CYQF 251200Z 18008KT 15SM SCT100 OVC220 06/M02 A2945 RMK AC4CI3 SLP999=

CYQF;2005-12-25 13:00;METAR CYQF 251300Z 19007KT 15SM BKN100 OVC220 05/M02 A2943 RMK AC5CI3 SLP992=

CYQF;2005-12-25 14:00;METAR CYQF 251400Z 17005KT 15SM BKN120 OVC220 05/M02 A2941 RMK AC6CI2 SLP985=

CYQF;2005-12-25 15:00;METAR CYQF 251500Z 17008KT 15SM BKN120 06/M01 A2937 RMK AC7 SLP968=

CYQF;2005-12-25 16:00;METAR CYQF 251600Z 18003KT 15SM BKN120 07/M01 A2935 RMK AC7 SLP961=

CYQF;2005-12-25 17:00;METAR CYQF 251700Z 18011KT 15SM FEW040 BKN120 08/M01 A2934 RMK SC1AC7 SLP958=

CYQF;2005-12-25 18:00;METAR CYQF 251800Z 19003KT 15SM FEW040 BKN120 06/M01 A2932 RMK SC1AC6 SLP953=

CYQF;2005-12-25 19:00;METAR CYQF 251900Z 20005KT 15SM FEW040 BKN100 07/M01 A2929 RMK SC1AC6 VIRGA SLP945=

CYQF;2005-12-25 20:00;METAR CYQF 252000Z 25004KT 15SM FEW040 BKN100 OVC250 08/M01 A2925 RMK SC1AC7CI1 SLP933=

CYQF;2005-12-25 21:00;METAR CYQF 252100Z 24006KT 15SM FEW050 BKN100 BKN250 08/M01 A2923 RMK SC1AC6CI0 SLP917=

CYQF;2005-12-25 22:00;METAR CYQF 252200Z 24007KT 15SM FEW050 BKN100 BKN250 09/M01 A2924 RMK SC1AC7CI1 SLP922=

CYQF;2005-12-25 23:00;METAR CYQF 252300Z 24007KT 15SM BKN100 BKN250 07/M02 A2927 RMK AC7CI1 SLP931=

CYQF;2005-12-26 00:00;METAR CYQF 260000Z 24005KT 15SM BKN100 06/M02 A2929 RMK AC7 SLP941=

CYQF;2005-12-26 01:00;METAR CYQF 260100Z 36003KT 15SM BKN140 07/M02 A2931 RMK AC7 SLP947=

CYQF;2005-12-26 02:00;METAR CYQF 260200Z 20006KT 15SM SCT120 04/M03 A2932 RMK AC3 SLP949=

CYQF;2005-12-26 03:00;METAR CYQF 260300Z 21005KT 15SM SCT120 02/M04 A2933 RMK AC3 SLP956=

CYQF;2005-12-26 04:00;METAR CYQF 260400Z 20004KT 15SM SCT120 01/M05 A2935 RMK AC3 SLP963=

CYQF;2005-12-26 05:00;METAR CYQF 260500Z 18005KT 15SM SCT120 00/M05 A2937 RMK AC3 SLP970=

CYQF;2005-12-26 06:00;METAR CYQF 260600Z 00000KT 15SM FEW120 M01/M06 A2939 RMK AC1 SLP982=

CYQF;2005-12-26 07:00;METAR CYQF 260700Z 19004KT 15SM FEW120 M03/M07 A2940 RMK AC1 SLP987=

CYQF;2005-12-26 08:00;METAR CYQF 260800Z 17006KT 15SM FEW120 M01/M06 A2941 RMK AC1 SLP990=

CYQF;2005-12-26 09:00;METAR CYQF 260900Z 16005KT 15SM SKC M00/M06 A2943 RMK SLP992=

CYQF;2005-12-26 10:00;METAR CYQF 261000Z 19005KT 15SM SKC M04/M08 A2946 RMK SLP002=

CYQF;2005-12-26 11:00;METAR CYQF 261100Z 19005KT 15SM SKC M03/M07 A2948 RMK SLP008=

CYQF;2005-12-26 12:00;METAR CYQF 261200Z 21006KT 15SM FEW120 M02/M07 A2948 RMK AC1 SLP016=

CYQF;2005-12-26 13:00;METAR CYQF 261300Z 20006KT 15SM FEW120 M03/M08 A2949 RMK AC1 SLP019=

CYQF;2005-12-26 14:00;METAR CYQF 261400Z 22004KT 15SM FEW120 SCT250 M03/M08 A2949 RMK AC2CI1 SLP019=

CYQF;2005-12-26 15:00;METAR CYQF 261500Z 18005KT 15SM SCT120 SCT250 M04/M08 A2949 RMK AC3CI0 SLP026=

CYQF;2005-12-26 16:00;METAR CYQF 261600Z 19004KT 15SM SCT100 BKN220 M03/M08 A2950 RMK AC4CI2 SLP028=

CYQF;2005-12-26 17:00;METAR CYQF 261700Z 20006KT 15SM SCT100 BKN220 M02/M07 A2952 RMK AC4CI2 SLP034=

CYQF;2005-12-26 18:00;METAR CYQF 261800Z 22006KT 15SM SCT100 BKN220 M01/M06 A2954 RMK AC4CI2 SLP041=

CYQF;2005-12-26 19:00;METAR CYQF 261900Z 09003KT 15SM SCT100 BKN220 01/M04 A2953 RMK AC3CI1 SLP040=

CYQF;2005-12-26 20:00;METAR CYQF 262000Z 22004KT 15SM FEW100 BKN220 04/M04 A2953 RMK AC2CI1 SLP040=

CYQF;2005-12-26 21:00;METAR CYQF 262100Z 00000KT 15SM FEW100 SCT220 06/M04 A2953 RMK AC2CI2 SLP031=

CYQF;2005-12-26 22:00;METAR CYQF 262200Z 00000KT 15SM FEW100 SCT220 06/M03 A2953 RMK AC2CI1 SLP031=

CYQF;2005-12-26 23:00;METAR CYQF 262300Z 16003KT 15SM FEW100 SCT220 05/M03 A2954 RMK AC2CI1 SLP033=

CYQF;2005-12-27 00:00;METAR CYQF 270000Z 21005KT 15SM FEW100 SCT220 M02/M07 A2956 RMK AC2CI0 SLP050=

CYQF;2005-12-27 01:00;METAR CYQF 270100Z 19005KT 15SM FEW100 M03/M08 A2956 RMK AC2 SLP052=

CYQF;2005-12-27 02:00;METAR CYQF 270200Z 19006KT 15SM SCT100 M03/M07 A2957 RMK AC2 SLP054=

CYQF;2005-12-27 03:00;METAR CYQF 270300Z 00000KT 15SM SCT100 M04/M08 A2957 RMK AC4 SLP061=

CYQF;2005-12-27 04:00;METAR CYQF 270400Z 00000KT 15SM BKN100 M05/M09 A2958 RMK AC6 SLP064=

CYQF;2005-12-27 05:00;METAR CYQF 270500Z 00000KT 15SM BKN100 M03/M07 A2959 RMK AC6 SLP066=

CYQF;2005-12-27 06:00;METAR CYQF 270600Z 00000KT 15SM BKN100 M05/M09 A2959 RMK AC4 SLP065=

CYQF;2005-12-27 07:00;METAR CYQF 270700Z 04002KT 15SM BKN100 M05/M08 A2959 RMK AC6 SLP066=

CYQF;2005-12-27 08:00;METAR CYQF 270800Z 21004KT 15SM FEW100 M06/M10 A2960 RMK AC2 SLP067=

CYQF;2005-12-27 09:00;METAR CYQF 270900Z 19006KT 15SM SCT100 M03/M07 A2961 RMK AC3 SLP060=

CYQF;2005-12-27 10:00;METAR CYQF 271000Z 18003KT 15SM BKN100 M03/M07 A2961 RMK AC5 SLP061=

CYQF;2005-12-27 11:00;METAR CYQF 271100Z 21002KT 15SM FEW100 M02/M06 A2962 RMK AC2 SLP064=

CYQF;2005-12-27 12:00;METAR CYQF 271200Z 23003KT 15SM FEW100 M05/M09 A2965 RMK AC2 SLP085=

CYQF;2005-12-27 13:00;METAR CYQF 271300Z 20008KT 15SM FEW100 M05/M09 A2966 RMK AC1 SLP089=

CYQF;2005-12-27 14:00;METAR CYQF 271400Z 21008KT 15SM FEW100 M07/M11 A2964 RMK AC1 SLP082=

CYQF;2005-12-27 15:00;METAR CYQF 271500Z 20003KT 15SM FEW100 FEW250 M06/M10 A2962 RMK AC1CI0 SLP078=

CYQF;2005-12-27 16:00;METAR CYQF 271600Z 00000KT 15SM FEW100 BKN250 M06/M10 A2963 RMK AC1CI1 SLP083=

CYQF;2005-12-27 17:00;METAR CYQF 271700Z 21005KT 15SM FEW100 BKN250 M04/M08 A2965 RMK AC1CI2 SLP088=

CYQF;2005-12-27 18:00;METAR CYQF 271800Z 18005KT 15SM FEW100 BKN250 M02/M06 A2963 RMK AC2CI3 SLP078=

CYQF;2005-12-27 19:00;METAR CYQF 271900Z 00000KT 15SM FEW100 BKN250 02/M04 A2959 RMK AC2CI3 SLP068=

CYQF;2005-12-27 20:00;METAR CYQF 272000Z 00000KT 15SM SCT100 BKN250 02/M04 A2958 RMK AC3CI3 SLP063=

CYQF;2005-12-27 21:00;METAR CYQF 272100Z 00000KT 15SM SCT100 BKN250 02/M04 A2956 RMK AC4CI3 SLP048=

CYQF;2005-12-27 22:00;METAR CYQF 272200Z 18005KT 15SM BKN100 BKN250 03/M04 A2956 RMK AC5CI2 SLP047=

CYQF;2005-12-27 23:00;METAR CYQF 272300Z 20003KT 15SM BKN100 BKN250 02/M04 A2956 RMK AC5CI2 SLP047=

CYQF;2005-12-28 00:00;METAR CYQF 280000Z 00000KT 15SM SCT100 BKN250 01/M04 A2957 RMK AC3CI2 SLP055=

CYQF;2005-12-28 01:00;METAR CYQF 280100Z 24002KT 15SM SCT100 BKN240 M01/M06 A2957 RMK AC3CI1 SLP057=

CYQF;2005-12-28 02:00;METAR CYQF 280200Z 22005KT 15SM BKN100 M00/M06 A2958 RMK AC5 SLP059=

CYQF;2005-12-28 03:00;METAR CYQF 280300Z 30007KT 15SM BKN100 03/M06 A2960 RMK AC6 SLP063=

CYQF;2005-12-28 04:00;METAR CYQF 280400Z 31005KT 15SM OVC100 02/M06 A2963 RMK AC8 SLP072=

CYQF;2005-12-28 05:00;METAR CYQF 280500Z 32007KT 15SM OVC100 02/M06 A2966 RMK AC8 SLP081=

CYQF;2005-12-28 06:00;METAR CYQF 280600Z 31003KT 15SM BKN100 BKN250 M00/M07 A2967 RMK AC5CI0 SLP087=

CYQF;2005-12-28 07:00;METAR CYQF 280700Z 28006KT 15SM SCT120 M02/M08 A2968 RMK AC4 SLP092=

CYQF;2005-12-28 08:00;METAR CYQF 280800Z 22003KT 15SM SCT120 00/M07 A2969 RMK AC3 SLP095=

CYQF;2005-12-28 09:00;METAR CYQF 280900Z 27006KT 15SM SCT120 M01/M07 A2971 RMK AC3 SLP099=

CYQF;2005-12-28 10:00;METAR CYQF 281000Z 19004KT 15SM BKN120 M01/M06 A2974 RMK AC5 SLP107=

CYQF;2005-12-28 11:00;METAR CYQF 281100Z 24004KT 15SM SCT120 M01/M07 A2974 RMK AC4 SLP108=

CYQF;2005-12-28 12:00;METAR CYQF 281200Z 19002KT 15SM FEW120 M03/M08 A2974 RMK AC2 SLP111=

CYQF;2005-12-28 13:00;METAR CYQF 281300Z 20007KT 15SM FEW120 M05/M10 A2974 RMK AC2 SLP111=

CYQF;2005-12-28 14:00;METAR CYQF 281400Z 19004KT 15SM FEW120 M06/M11 A2971 RMK AC2 SLP102=

CYQF;2005-12-28 15:00;METAR CYQF 281500Z 20006KT 15SM FEW120 FEW250 M09/M13 A2973 RMK AC1CI1 SLP111=

CYQF;2005-12-28 16:00;METAR CYQF 281600Z 19005KT 15SM SCT250 M07/M12 A2976 RMK CI1 SLP122=

CYQF;2005-12-28 18:00;METAR CYQF 281800Z 20004KT 15SM BKN250 M01/M07 A2973 RMK CI2 SLP107=

CYQF;2005-12-28 19:00;METAR CYQF 281900Z 21005KT 15SM SCT250 00/M08 A2971 RMK CI1 SLP101=

CYQF;2005-12-28 20:00;METAR CYQF 282000Z 22002KT 15SM BKN250 02/M08 A2967 RMK CI2 SLP089=

CYQF;2005-12-28 21:00;METAR CYQF 282100Z 00000KT 15SM BKN250 01/M08 A2965 RMK CI3 SLP079=

CYQF;2005-12-28 22:00;METAR CYQF 282200Z 21003KT 15SM FEW120 BKN250 M01/M08 A2964 RMK AC1CI3 SLP075=

CYQF;2005-12-28 23:00;METAR CYQF 282300Z 00000KT 15SM SCT100 OVC250 M02/M08 A2963 RMK AC2CI4 SLP073=

CYQF;2005-12-29 00:00;METAR CYQF 290000Z 00000KT 15SM SCT100 OVC250 M05/M10 A2963 RMK AC2CI4 SLP081=

CYQF;2005-12-29 01:00;METAR CYQF 290100Z 15004KT 15SM SCT100 OVC250 M04/M09 A2961 RMK AC3CI2 SLP075=

CYQF;2005-12-29 02:00;METAR CYQF 290200Z 00000KT 15SM FEW100 BKN250 M05/M09 A2958 RMK AC2CI2 SLP066=

CYQF;2005-12-29 03:00;METAR CYQF 290300Z 00000KT 15SM FEW100 SCT250 M05/M10 A2957 RMK AC2CI1 SLP066=

CYQF;2005-12-29 04:00;METAR CYQF 290400Z 00000KT 15SM FEW100 SCT250 M07/M11 A2957 RMK AC2CI1 SLP067=

CYQF;2005-12-29 05:00;METAR CYQF 290500Z 00000KT 15SM SCT100 BKN250 M07/M11 A2956 RMK AC3CI1 SLP062=

CYQF;2005-12-29 06:00;METAR CYQF 290600Z 00000KT 15SM SCT100 OVC250 M06/M10 A2955 RMK AC3CI2 SLP053=

CYQF;2005-12-29 07:00;METAR CYQF 290700Z 06002KT 15SM FEW100 OVC250 M05/M09 A2954 RMK AC2CI2 SLP049=

CYQF;2005-12-29 08:00;METAR CYQF 290800Z 34002KT 15SM OVC100 M06/M10 A2955 RMK AC8 SLP052=

CYQF;2005-12-29 09:00;METAR CYQF 290900Z 27003KT 15SM OVC100 M05/M09 A2957 RMK AC8 SLP056=

CYQF;2005-12-29 10:00;METAR CYQF 291000Z 00000KT 15SM BKN100 M05/M09 A2959 RMK AC7 SLP061=

CYQF;2005-12-29 11:00;METAR CYQF 291100Z 00000KT 15SM FEW100 SCT250 M07/M10 A2960 RMK AC1CI1 SLP065=

CYQF;2005-12-29 12:00;METAR CYQF 291200Z 32002KT 15SM SKC M08/M11 A2961 RMK SLP079=

CYQF;2005-12-29 13:00;METAR CYQF 291300Z 33002KT 15SM FEW100 OVC250 M09/M12 A2962 RMK AC2CI4 SLP083=

CYQF;2005-12-29 14:00;METAR CYQF 291400Z 00000KT 15SM FEW100 OVC250 M07/M10 A2966 RMK AC2CI6 SLP094=

CYQF;2005-12-29 15:00;METAR CYQF 291500Z 18007KT 15SM SCT120 OVC250 M07/M10 A2967 RMK AC4CI4 SLP099=

CYQF;2005-12-29 16:00;METAR CYQF 291600Z 27003KT 15SM BKN100 OVC250 M06/M09 A2971 RMK AC5CI2 SLP110=

CYQF;2005-12-29 17:00;METAR CYQF 291700Z 33003KT 15SM FEW030 BKN090 M03/M07 A2973 RMK SC1AC6 VIS N 4 SLP117=

CYQF;2005-12-29 18:00;METAR CYQF 291800Z 35004KT 15SM VCSH FEW030 BKN050 BKN090 M01/M06 A2974 RMK SC1SC4AC2 SLP116=

CYQF;2005-12-29 19:00;METAR CYQF 291900Z 23007KT 15SM BKN040 OVC090 M01/M06 A2975 RMK SC6AC2 VIRGA SLP120=

CYQF;2005-12-29 20:00;METAR CYQF 292000Z 24005KT 15SM BKN045 BKN090 M01/M06 A2975 RMK SC6AC2 VIRGA SLP121=

CYQF;2005-12-29 21:00;METAR CYQF 292100Z 29006KT 15SM BKN050 BKN090 01/M06 A2975 RMK SC6AC2 VIRGA SLP119=

CYQF;2005-12-29 22:00;METAR CYQF 292200Z 32003KT 15SM BKN050 BKN090 01/M06 A2975 RMK SC5AC2 VIRGA SLP119=

CYQF;2005-12-29 23:00;METAR CYQF 292300Z 26002KT 15SM BKN080 BKN250 M00/M06 A2976 RMK AC6CI1 SLP121=

CYQF;2005-12-30 00:00;METAR CYQF 300000Z 27006KT 15SM BKN080 BKN250 M02/M07 A2976 RMK AC5CI1 SLP128=

CYQF;2005-12-30 01:00;METAR CYQF 300100Z 25005KT 15SM BKN090 M02/M07 A2976 RMK AC6 SLP127=

CYQF;2005-12-30 02:00;METAR CYQF 300200Z 24007KT 15SM BKN090 M02/M07 A2975 RMK AC6 SLP123=

CYQF;2005-12-30 03:00;METAR CYQF 300300Z 25006KT 15SM SCT090 M03/M08 A2973 RMK AC4 SLP118=

CYQF;2005-12-30 04:00;METAR CYQF 300400Z 18004KT 15SM FEW090 M04/M08 A2972 RMK AC2 SLP114=

CYQF;2005-12-30 05:00;METAR CYQF 300500Z 19006KT 15SM SKC M07/M11 A2970 RMK SLP109=

CYQF;2005-12-30 06:00;METAR CYQF 300600Z 19005KT 15SM SKC M07/M11 A2970 RMK SLP104=

CYQF;2005-12-30 07:00;METAR CYQF 300700Z 18006KT 15SM SKC M08/M11 A2968 RMK SLP100=

CYQF;2005-12-30 08:00;METAR CYQF 300800Z 00000KT 15SM SKC M09/M12 A2965 RMK SLP090=

CYQF;2005-12-30 09:00;METAR CYQF 300900Z 17002KT 15SM SKC M08/M11 A2963 RMK SLP078=

CYQF;2005-12-30 10:00;METAR CYQF 301000Z 17005KT 15SM SKC M08/M11 A2961 RMK SLP072=

CYQF;2005-12-30 11:00;METAR CYQF 301100Z 00000KT 15SM SKC M09/M12 A2958 RMK SLP064=

CYQF;2005-12-30 12:00;METAR CYQF 301200Z 00000KT 15SM SKC M08/M11 A2955 RMK SLP055=

CYQF;2005-12-30 13:00;METAR CYQF 301300Z 15004KT 15SM BKN250 M07/M11 A2951 RMK CI1 FROIN SLP044=

CYQF;2005-12-30 14:00;METAR CYQF 301400Z 14002KT 15SM BKN250 M07/M11 A2948 RMK CI3 SLP035=

CYQF;2005-12-30 15:00;METAR CYQF 301500Z 17006KT 15SM FEW100 SCT250 M09/M12 A2948 RMK AC1CI0 SLP031=

CYQF;2005-12-30 16:00;METAR CYQF 301600Z 16006KT 15SM FEW100 SCT250 M08/M11 A2946 RMK AC1CI1 SLP024=

CYQF;2005-12-30 17:00;METAR CYQF 301700Z 16008KT 15SM BKN100 BKN250 M07/M11 A2945 RMK AC6CI0 SLP022=

CYQF;2005-12-30 18:00;METAR CYQF 301800Z 15006KT 15SM SCT100 BKN250 M05/M10 A2941 RMK AC3CI1 SLP009=

CYQF;2005-12-30 19:00;METAR CYQF 301900Z 16008KT 15SM BKN100 BKN250 M05/M09 A2936 RMK AC6CI1 SLP995=

CYQF;2005-12-30 20:00;METAR CYQF 302000Z 16010KT 15SM BKN100 BKN250 M04/M09 A2934 RMK AC6CI1 SLP987=

CYQF;2005-12-30 21:00;METAR CYQF 302100Z 14011KT 15SM BKN100 BKN250 M03/M08 A2930 RMK AC5CI1 SLP968=

CYQF;2005-12-30 22:00;METAR CYQF 302200Z 16008KT 15SM FEW100 BKN250 M03/M08 A2929 RMK AC2CI2 SLP965=

CYQF;2005-12-30 23:00;METAR CYQF 302300Z 14005KT 15SM SCT100 BKN250 M04/M08 A2928 RMK AC3CI2 SLP962=

CYQF;2005-12-31 00:00;METAR CYQF 310000Z 17007KT 15SM BKN100 BKN250 M04/M08 A2928 RMK AC6CI1 SLP965=

CYQF;2005-12-31 01:00;METAR CYQF 310100Z 15007KT 15SM BKN100 BKN250 M04/M07 A2925 RMK AC6CI1 SLP954=

CYQF;2005-12-31 02:00;METAR CYQF 310200Z 15013KT 15SM BKN100 OVC250 M04/M08 A2924 RMK AC6CI2 SLP950=

CYQF;2005-12-31 03:00;METAR CYQF 310300Z 15008KT 15SM BKN100 OVC250 M04/M07 A2924 RMK AC6CI2 SLP950=

CYQF;2005-12-31 04:00;METAR CYQF 310400Z 15007KT 15SM FEW100 BKN250 M05/M08 A2924 RMK AC2CI2 SLP949=

CYQF;2005-12-31 05:00;METAR CYQF 310500Z 16005KT 15SM FEW250 M05/M08 A2923 RMK CI0 SLP947=

CYQF;2005-12-31 06:00;METAR CYQF 310600Z 00000KT 15SM SKC M07/M10 A2922 RMK SLP943=

CYQF;2005-12-31 07:00;METAR CYQF 310700Z 14002KT 15SM SKC M07/M10 A2923 RMK SLP945=

CYQF;2005-12-31 08:00;METAR CYQF 310800Z 00000KT 15SM SKC M09/M11 A2923 RMK SLP947=

CYQF;2005-12-31 09:00;METAR CYQF 310900Z 00000KT 15SM SKC M10/M13 A2924 RMK SLP949=

CYQF;2005-12-31 10:00;METAR CYQF 311000Z 00000KT 3SM BR SKC M11/M14 A2924 RMK FROIN SLP950=

CYQF;2005-12-31 10:28;SPECI CYQF 311028Z 00000KT 1SM BR SKC RMK FG3 FROIN=

CYQF;2005-12-31 11:00;METAR CYQF 311100Z 00000KT 1/2SM FZFG VV004 M11/M14 A2925 RMK FG8 RIME ON INDICATOR SLP953=

CYQF;2005-12-31 12:00;METAR CYQF 311200Z 00000KT 3SM BR OVC004 M09/M11 A2925 RMK ST8 FROIN SLP953=

CYQF;2005-12-31 13:00;METAR CYQF 311300Z 00000KT 1/2SM FZFG VV004 M08/M10 A2924 RMK FG8 SLP952=

CYQF;2005-12-31 13:42;SPECI CYQF 311342Z 00000KT 1/4SM FZFG VV002 RMK FG8 RIME ON INDICATOR=

CYQF;2005-12-31 14:00;METAR CYQF 311400Z 00000KT 1/4SM FZFG VV002 M08/M09 A2924 RMK FG8 RIME ON INDICATOR SLP952=

CYQF;2005-12-31 15:00;METAR CYQF 311500Z 00000KT 1/4SM FZFG VV002 M08/M08 A2925 RMK FG8 RIME ON INDICATOR SLP953=

CYQF;2005-12-31 16:00;METAR CYQF 311600Z 00000KT 1/4SM FZFG VV003 M08/M08 A2926 RMK FG8 SLP956=

CYQF;2005-12-31 17:00;METAR CYQF 311700Z 00000KT 1/4SM FZFG VV003 M08/M08 A2927 RMK FG8 SLP958=

CYQF;2005-12-31 18:00;METAR CYQF 311800Z 00000KT 1/4SM FZFG VV003 M08/M09 A2926 RMK FG8 SLP962=

CYQF;2005-12-31 19:00;METAR CYQF 311900Z 00000KT 1/4SM FZFG VV003 M07/M08 A2925 RMK FG8 SLP957=

CYQF;2005-12-31 20:00;METAR CYQF 312000Z 04003KT 1/2SM FZFG VV004 M07/M08 A2924 RMK FG8 SLP953=

CYQF;2005-12-31 21:30;SPECI CYQF 312130Z 00000KT 3SM BR OVC004 RMK SF8=

CYQF;2005-12-31 22:00;METAR CYQF 312200Z 05003KT 3SM BR OVC005 M06/M07 A2923 RMK SF8 SLP951=

CYQF;2005-12-31 23:00;METAR CYQF 312300Z 14003KT 3SM BR OVC005 M06/M07 A2924 RMK SF8 SLP954=

CYQF;2005-12-31 23:50;SPECI CYQF 312350Z 15003KT 1SM BR VV003 RMK FG8=

