CYQF;2009-01-01 07:00;CYQF 010700Z 00000KT 15SM FEW120 M22/M26 A2968 RMK AC2 SLP129

CYQF;2009-01-01 08:00;CYQF 010800Z 29003KT 15SM BKN120 M22/M26 A2970 RMK AC6 SLP135

CYQF;2009-01-01 09:00;CYQF 010900Z 00000KT 15SM BKN120 M21/M26 A2971 RMK AC5 SLP141

CYQF;2009-01-01 10:00;CYQF 011000Z 00000KT 15SM BKN120 M21/M26 A2972 RMK AC5 SLP144

CYQF;2009-01-01 11:00;CYQF 011100Z 18003KT 15SM FEW120 M23/M26 A2971 RMK AC2 SLP139

CYQF;2009-01-01 12:00;CYQF 011200Z 00000KT 15SM SCT120 M24/M28 A2971 RMK AC3 SLP148

CYQF;2009-01-01 13:00;CYQF 011300Z 14003KT 15SM BKN120 M23/M27 A2968 RMK AC3 SLP138

CYQF;2009-01-01 14:00;CYQF 011400Z 00000KT 15SM FEW120 M23/M27 A2966 RMK AC2 SLP132

CYQF;2009-01-01 15:00;CYQF 011500Z 06003KT 15SM FEW120 M23/M27 A2965 RMK AC2 SLP126

CYQF;2009-01-01 16:00;CYQF 011600Z 15003KT 15SM FEW120 FEW220 M23/M28 A2963 RMK AC1CI1 SLP120

CYQF;2009-01-01 17:00;CYQF 011700Z 16006KT 15SM FEW120 SCT220 M22/M27 A2961 RMK AC2CI1 SLP116

CYQF;2009-01-01 18:00;CYQF 011800Z 15007KT 15SM BKN120 BKN220 M21/M26 A2958 RMK AC5CI0 SLP103

CYQF;2009-01-01 19:00;CYQF 011900Z 15007KT 15SM SCT120 BKN220 M20/M25 A2955 RMK AC4CI2 SLP091

CYQF;2009-01-01 20:00;CYQF 012000Z 14006KT 15SM SCT120 BKN220 M20/M25 A2951 RMK AC3CI2 SLP079

CYQF;2009-01-01 21:00;CYQF 012100Z 15005KT 15SM BKN100 M19/M24 A2948 RMK AC7 SLP064

CYQF;2009-01-01 22:00;CYQF 012200Z 02004KT 15SM FEW120 BKN200 M18/M24 A2947 RMK AC2CI6 SLP061

CYQF;2009-01-01 23:00;CYQF 012300Z 06005KT 15SM SCT120 OVC200 M19/M24 A2948 RMK AC3CI5 SLP066

CYQF;2009-01-02 00:00;CYQF 020000Z 36008KT 15SM BKN120 OVC200 M20/M24 A2948 RMK AC6CI2 SLP070

CYQF;2009-01-02 01:00;CYQF 020100Z 01013KT 15SM BKN120 OVC200 M21/M26 A2950 RMK AC6CI2 SLP075

CYQF;2009-01-02 02:00;CYQF 020200Z 35010G15KT 15SM BKN120 OVC200 M22/M26 A2951 RMK AC6CI2 SLP078

CYQF;2009-01-02 02:04;CYQF 020204Z 35010G15KT 12SM -SN BKN120 OVC200 RMK AC6CI2

CYQF;2009-01-02 03:00;CYQF 020300Z 36010G15KT 8SM -SN BKN120 OVC200 M23/M27 A2952 RMK AC6CI2 SLP087

CYQF;2009-01-02 04:00;CYQF 020400Z 36013KT 12SM -SN SCT015 OVC100 M23/M28 A2954 RMK SC4AC4 SLP092

CYQF;2009-01-02 05:00;CYQF 020500Z 36010G16KT 3SM -SN DRSN BKN015 OVC100 M23/M28 A2956 RMK SC5AC3 SLP099

CYQF;2009-01-02 05:31;CYQF 020531Z 36011G17KT 1 1/2SM -SN DRSN BKN015 OVC100 RMK SN2SC5AC2

CYQF;2009-01-02 06:00;CYQF 020600Z 36012KT 1 1/2SM -SN DRSN OVC015 M23/M28 A2960 RMK SN3SC5 SLP111

CYQF;2009-01-02 07:00;CYQF 020700Z 35010KT 2SM -SN DRSN OVC015 M23/M28 A2961 RMK SN2SC6 SLP116

CYQF;2009-01-02 07:29;CYQF 020729Z 35013KT 8SM -SN DRSN BKN015 BKN090 RMK SC5AC2

CYQF;2009-01-02 08:00;CYQF 020800Z 33014KT 10SM -SN DRSN BKN015 BKN090 M24/M29 A2963 RMK SC5AC2 SLP120

CYQF;2009-01-02 09:00;CYQF 020900Z 34012KT 10SM -SN DRSN SCT015 BKN090 M24/M29 A2962 RMK SC4AC3 SLP118

CYQF;2009-01-02 10:00;CYQF 021000Z 35008KT 10SM -SN DRSN SCT015 BKN080 M24/M29 A2964 RMK SC4AC3 SLP124

CYQF;2009-01-02 11:00;CYQF 021100Z 35008KT 10SM -SN DRSN FEW015 OVC060 M24/M29 A2961 RMK SC2SC6 SLP113

CYQF;2009-01-02 12:00;CYQF 021200Z 34008KT 15SM -SN FEW015 OVC060 M24/M29 A2962 RMK SC2SC6 SLP117

CYQF;2009-01-02 13:00;CYQF 021300Z 01008KT 15SM -SN OVC050 M24/M29 A2962 RMK SC8 SLP117

CYQF;2009-01-02 14:00;CYQF 021400Z 01008KT 15SM -SN OVC050 M25/M30 A2961 RMK SC8 SLP116

CYQF;2009-01-02 15:00;CYQF 021500Z 01008KT 15SM -SN FEW015 BKN050 OVC120 M26/M30 A2963 RMK SC2SC4AC2 SLP127

CYQF;2009-01-02 16:00;CYQF 021600Z 01010KT 15SM -SN BKN050 OVC120 M26/M31 A2964 RMK SC5AC2 SLP131

CYQF;2009-01-02 17:00;CYQF 021700Z 34004KT 15SM -SN SCT060 BKN120 M27/M32 A2968 RMK SC3AC3 SLP142

CYQF;2009-01-02 18:00;CYQF 021800Z 34006KT 15SM FEW060 SCT120 BKN250 M27/M33 A2968 RMK SC2AC1CI2 SLP148

CYQF;2009-01-02 19:00;CYQF 021900Z 33010KT 15SM FEW120 BKN250 M27/M32 A2970 RMK AC2CI2 SLP154

CYQF;2009-01-02 20:00;CYQF 022000Z 33008KT 15SM FEW100 M27/M33 A2972 RMK AC2 SLP160

CYQF;2009-01-02 21:00;CYQF 022100Z 34007KT 15SM FEW100 M27/M32 A2974 RMK AC1 SLP168

CYQF;2009-01-02 22:00;CYQF 022200Z 34010KT 15SM FEW100 SCT200 M27/M32 A2975 RMK AC1CI1 AC TR SLP172

CYQF;2009-01-02 23:00;CYQF 022300Z 34005KT 15SM BKN120 M28/M34 A2977 RMK AC3 SLP177

CYQF;2009-01-03 00:00;CYQF 030000Z 00000KT 15SM BKN120 M28/M33 A2979 RMK AC2 SLP187

CYQF;2009-01-03 01:00;CYQF 030100Z 33003KT 15SM BKN100 M27/M33 A2982 RMK AC5 SLP195

CYQF;2009-01-03 02:00;CYQF 030200Z 00000KT 15SM BKN100 M27/M32 A2984 RMK AC6 SLP203

CYQF;2009-01-03 03:00;CYQF 030300Z 00000KT 15SM FEW100 M27/M32 A2985 RMK AC2 SLP210

CYQF;2009-01-03 04:00;CYQF 030400Z 00000KT 15SM FEW100 M28/M33 A2986 RMK AC1 SLP214

CYQF;2009-01-03 05:00;CYQF 030500Z 20004KT 15SM SKC M30/M35 A2988 RMK SLP219

CYQF;2009-01-03 06:00;CYQF 030600Z 21004KT 15SM SKC M31/M36 A2989 RMK SLP231

CYQF;2009-01-03 07:00;CYQF 030700Z 00000KT 15SM SKC M31/M36 A2990 RMK SLP234

CYQF;2009-01-03 08:00;CYQF 030800Z 19002KT 15SM SKC M33/M37 A2991 RMK SLP235

CYQF;2009-01-03 09:00;CYQF 030900Z 21003KT 15SM SKC M34/M39 A2993 RMK SLP245

CYQF;2009-01-03 10:00;CYQF 031000Z 21003KT 15SM SKC M35/M39 A2994 RMK SLP249

CYQF;2009-01-03 11:00;CYQF 031100Z 19005KT 15SM SKC M34/M40 A2995 RMK SLP253

CYQF;2009-01-03 12:00;CYQF 031200Z 17005KT 15SM SKC M34/M39 A2996 RMK SLP260

CYQF;2009-01-03 13:00;CYQF 031300Z 00000KT 15SM SKC M34/M39 A2995 RMK SLP258

CYQF;2009-01-03 14:00;CYQF 031400Z 00000KT 15SM SKC M34/M39 A2996 RMK SLP261

CYQF;2009-01-03 15:00;CYQF 031500Z 00000KT 15SM SKC M35/M39 A2997 RMK SLP263

CYQF;2009-01-03 16:00;CYQF 031600Z 00000KT 15SM SKC M34/M38 A2997 RMK SLP264

CYQF;2009-01-03 17:00;CYQF 031700Z 22003KT 15SM SKC M35/M40 A2998 RMK SLP267

CYQF;2009-01-03 18:00;CYQF 031800Z 00000KT 15SM SKC M30/M35 A2998 RMK SLP266

CYQF;2009-01-03 19:00;CYQF 031900Z 00000KT 15SM SKC M28/M32 A2996 RMK SLP260

CYQF;2009-01-03 20:00;CYQF 032000Z 14003KT 15SM SKC M28/M32 A2995 RMK SLP257

CYQF;2009-01-03 21:00;CYQF 032100Z 00000KT 15SM SKC M25/M30 A2994 RMK SLP247

CYQF;2009-01-03 22:00;CYQF 032200Z 00000KT 15SM SKC M25/M31 A2994 RMK SLP248

CYQF;2009-01-03 23:00;CYQF 032300Z 00000KT 15SM SKC M25/M32 A2994 RMK SLP247

CYQF;2009-01-04 00:00;CYQF 040000Z 00000KT 15SM FEW040 M26/M31 A2994 RMK SC1 SLP251

CYQF;2009-01-04 01:00;CYQF 040100Z 00000KT 15SM FEW040 M28/M33 A2995 RMK SC1 SLP253

CYQF;2009-01-04 02:00;CYQF 040200Z 00000KT 15SM SKC M29/M34 A2994 RMK SLP251

CYQF;2009-01-04 03:00;CYQF 040300Z 00000KT 15SM SKC M30/M35 A2993 RMK SLP253

CYQF;2009-01-04 04:00;CYQF 040400Z 19003KT 15SM FEW250 M30/M34 A2993 RMK CI2 SLP252

CYQF;2009-01-04 05:00;CYQF 040500Z 00000KT 15SM SKC M29/M34 A2992 RMK SLP250

CYQF;2009-01-04 06:00;CYQF 040600Z 00000KT 15SM FEW250 M30/M35 A2993 RMK CI1 SLP246

CYQF;2009-01-04 07:00;CYQF 040700Z 19003KT 15SM SKC M30/M35 A2993 RMK SLP245

CYQF;2009-01-04 08:00;CYQF 040800Z 19004KT 15SM SKC M29/M34 A2992 RMK SLP244

CYQF;2009-01-04 09:00;CYQF 040900Z 20004KT 15SM FEW220 M29/M34 A2992 RMK CI1 SLP234

CYQF;2009-01-04 10:00;CYQF 041000Z 17004KT 15SM BKN080 M27/M32 A2993 RMK AC6 SLP237

CYQF;2009-01-04 11:00;CYQF 041100Z 24002KT 15SM BKN080 M25/M30 A2992 RMK AC6 SLP236

CYQF;2009-01-04 12:00;CYQF 041200Z 26003KT 15SM BKN100 M23/M28 A2992 RMK AC7 SLP229

CYQF;2009-01-04 13:00;CYQF 041300Z 20003KT 15SM BKN100 M23/M29 A2991 RMK AC6 SLP226

CYQF;2009-01-04 14:00;CYQF 041400Z 23004KT 15SM FEW100 M25/M30 A2991 RMK AC2 SLP225

CYQF;2009-01-04 15:00;CYQF 041500Z 20004KT 15SM FEW070 M26/M30 A2989 RMK AC1 SLP228

CYQF;2009-01-04 16:00;CYQF 041600Z 00000KT 15SM FEW080 M24/M29 A2989 RMK AC1 SLP227

CYQF;2009-01-04 17:00;CYQF 041700Z 20008KT 15SM FEW080 M25/M30 A2988 RMK AC1 SLP225

CYQF;2009-01-04 18:00;CYQF 041800Z 20003KT 15SM SKC M19/M26 A2986 RMK SLP207

CYQF;2009-01-04 19:00;CYQF 041900Z 00000KT 15SM FEW250 M15/M23 A2982 RMK CI1 SLP194

CYQF;2009-01-04 20:00;CYQF 042000Z 00000KT 15SM FEW250 M12/M20 A2976 RMK CI1 SLP178

CYQF;2009-01-04 21:00;CYQF 042100Z 18004KT 15SM FEW250 M10/M20 A2972 RMK CI1 SLP148

CYQF;2009-01-04 22:00;CYQF 042200Z 15006KT 15SM FEW100 FEW250 M10/M18 A2969 RMK AC1CI1 SLP138

CYQF;2009-01-04 23:00;CYQF 042300Z 16010KT 15SM FEW100 FEW250 M13/M19 A2965 RMK AC1CI0 SLP126

CYQF;2009-01-05 00:00;CYQF 050000Z 17008KT 15SM FEW100 FEW250 M13/M18 A2961 RMK AC1CI0 SLP106

CYQF;2009-01-05 01:00;CYQF 050100Z 15010KT 15SM FEW100 FEW250 M12/M18 A2956 RMK AC1CI0 SLP091

CYQF;2009-01-05 02:00;CYQF 050200Z 16012KT 15SM BKN250 M12/M18 A2949 RMK CI2 SLP070

CYQF;2009-01-05 03:00;CYQF 050300Z 16010G15KT 15SM BKN150 OVC250 M10/M15 A2943 RMK AC5CI2 SLP043

CYQF;2009-01-05 04:00;CYQF 050400Z 18015G20KT 15SM OVC120 M06/M13 A2936 RMK AC8 SLP022

CYQF;2009-01-05 05:00;CYQF 050500Z 17015G20KT 15SM OVC070 M06/M13 A2930 RMK AC8 SLP001

CYQF;2009-01-05 06:00;CYQF 050600Z CCA 18015G20KT 15SM OVC100 M05/M11 A2925 RMK AC8 PRESFR SLP964

CYQF;2009-01-05 07:00;CYQF 050700Z 21010G18KT 15SM BKN100 OVC250 M03/M10 A2919 RMK AC6CI2 PRESFR SLP946

CYQF;2009-01-05 08:00;CYQF 050800Z 24010G15KT 15SM SCT100 BKN250 M03/M11 A2916 RMK AC3CI2 SLP938

CYQF;2009-01-05 09:00;CYQF 050900Z 24008KT 15SM SCT100 BKN250 M04/M11 A2915 RMK AC4CI2 SLP918

CYQF;2009-01-05 10:00;CYQF 051000Z 24005KT 15SM BKN100 BKN250 M05/M12 A2915 RMK AC5CI2 SLP918

CYQF;2009-01-05 11:00;CYQF 051100Z 25006KT 15SM FEW100 BKN250 M07/M13 A2915 RMK AC2CI2 SLP919

CYQF;2009-01-05 12:00;CYQF 051200Z 24006KT 15SM FEW100 BKN250 M09/M14 A2915 RMK AC2CI2 SLP929

CYQF;2009-01-05 13:00;CYQF 051300Z 00000KT 15SM FEW100 BKN250 M08/M14 A2917 RMK AC2CI1 SLP935

CYQF;2009-01-05 14:00;CYQF 051400Z 00000KT 15SM FEW250 M12/M16 A2918 RMK CI2 SLP939

CYQF;2009-01-05 15:00;CYQF 051500Z 19003KT 15SM FEW250 M13/M16 A2921 RMK CI2 SLP950

CYQF;2009-01-05 16:00;CYQF 051600Z 19003KT 15SM SCT250 M14/M17 A2921 RMK CI2 SLP951

CYQF;2009-01-05 17:00;CYQF 051700Z 20005KT 15SM FEW120 BKN250 M14/M18 A2923 RMK AC2CI2 SLP956

CYQF;2009-01-05 18:00;CYQF 051800Z 20003KT 15SM SCT120 BKN250 M12/M16 A2925 RMK AC3CI2 SLP959

CYQF;2009-01-05 19:00;CYQF 051900Z 21005KT 15SM SCT120 BKN250 M09/M15 A2926 RMK AC4CI2 SLP960

CYQF;2009-01-05 20:00;CYQF 052000Z 22005KT 15SM SCT120 BKN250 M06/M13 A2925 RMK AC3CI2 SLP959

CYQF;2009-01-05 21:00;CYQF 052100Z 22005KT 15SM SCT120 BKN250 M05/M12 A2926 RMK AC3CI1 SLP953

CYQF;2009-01-05 22:00;CYQF 052200Z 22003KT 15SM FEW120 FEW250 M04/M13 A2927 RMK AC1CI1 SLP955

CYQF;2009-01-05 23:00;CYQF 052300Z 25005KT 15SM FEW080 SCT120 BKN250 M07/M14 A2929 RMK AC2AC1CI1 SLP963

CYQF;2009-01-06 00:00;CYQF 060000Z 19003KT 15SM FEW040 BKN080 BKN120 M05/M12 A2932 RMK SC2AC4AC1 SLP979

CYQF;2009-01-06 01:00;CYQF 060100Z 00000KT 15SM FEW040 BKN080 BKN120 M07/M12 A2934 RMK SC1AC5AC1 SLP984

CYQF;2009-01-06 02:00;CYQF 060200Z 20002KT 15SM FEW040 BKN080 BKN120 M09/M14 A2935 RMK SC2AC3AC1 SLP989

CYQF;2009-01-06 03:00;CYQF 060300Z 00000KT 15SM FEW040 BKN080 M09/M14 A2936 RMK SC1AC4 SLP003

CYQF;2009-01-06 04:00;CYQF 060400Z 19006KT 15SM FEW080 M11/M15 A2937 RMK AC2 SLP007

CYQF;2009-01-06 05:00;CYQF 060500Z 23006KT 15SM SCT090 M13/M16 A2938 RMK AC2 SLP010

CYQF;2009-01-06 06:00;CYQF 060600Z 23007KT 15SM BKN090 M14/M17 A2940 RMK AC6 SLP020

CYQF;2009-01-06 07:00;CYQF 060700Z 20005KT 15SM SCT090 M12/M16 A2941 RMK AC3 SLP023

CYQF;2009-01-06 08:00;CYQF 060800Z 20005KT 15SM SCT090 M14/M17 A2943 RMK AC4 SLP031

CYQF;2009-01-06 09:00;CYQF 060900Z 02008KT 15SM BKN080 M10/M14 A2949 RMK AC5 SLP039

CYQF;2009-01-06 10:00;CYQF 061000Z 00000KT 15SM FEW080 M14/M17 A2953 RMK AC2 SLP051

CYQF;2009-01-06 11:00;CYQF 061100Z 00000KT 15SM SCT100 M13/M15 A2955 RMK AC4 SLP057

CYQF;2009-01-06 12:00;CYQF 061200Z 26010KT 15SM SCT120 M14/M16 A2957 RMK AC4 SLP073

CYQF;2009-01-06 13:00;CYQF 061300Z 27007KT 15SM SCT050 BKN120 M09/M11 A2959 RMK SC4AC3 SLP080

CYQF;2009-01-06 14:00;CYQF 061400Z 24005KT 15SM SCT050 OVC090 M08/M19 A2961 RMK SC4AC4 SLP085

CYQF;2009-01-06 15:00;CYQF 061500Z 24008KT 15SM OVC080 M09/M11 A2962 RMK AC8 SLP088

CYQF;2009-01-06 15:16;CYQF 061516Z 24005KT 10SM -SN OVC050 RMK SC8

CYQF;2009-01-06 15:29;CYQF 061529Z 24005KT 2 1/2SM -SN OVC040 RMK SC8

CYQF;2009-01-06 15:50;CYQF 061550Z 25006KT 5SM -SN OVC040 RMK SC8

CYQF;2009-01-06 16:00;CYQF 061600Z 25006KT 10SM -SN OVC040 M08/M09 A2963 RMK SC8 SLP092

CYQF;2009-01-06 17:00;CYQF 061700Z 25004KT 15SM -SN BKN040 BKN080 M07/M09 A2964 RMK SC6AC1 SLP095

CYQF;2009-01-06 17:43;CYQF 061743Z 27005KT 15SM BKN040 RMK SC7

CYQF;2009-01-06 18:00;CYQF 061800Z CCA 26005KT 10SM -SN OVC040 M07/M09 A2966 RMK SC8 VIS LWR NW-N SLP104

CYQF;2009-01-06 19:00;CYQF 061900Z 32004KT 6SM -SN BKN040 M06/M08 A2965 RMK SC7 VIS S 12 SLP101

CYQF;2009-01-06 20:00;CYQF 062000Z 33007KT 6SM -SN OVC040 M05/M08 A2964 RMK SC8 SLP098

CYQF;2009-01-06 20:53;CYQF 062053Z 00000KT 15SM FEW015 BKN045 RMK SC2SC6

CYQF;2009-01-06 21:00;CYQF 062100Z 00000KT 15SM FEW015 BKN045 M05/M08 A2961 RMK SC2SC6 SLP082

CYQF;2009-01-06 22:00;CYQF 062200Z 00000KT 8SM -SN SCT015 OVC045 M05/M08 A2960 RMK SC3SC5 VIS S 12 SLP079

CYQF;2009-01-06 22:40;CYQF 062240Z 00000KT 15SM FEW015 OVC048 RMK SC2SC6

CYQF;2009-01-06 23:00;CYQF 062300Z 00000KT 15SM FEW015 OVC048 M05/M08 A2959 RMK SC2SC6 SLP076

CYQF;2009-01-07 00:00;CYQF 070000Z 00000KT 15SM FEW015 OVC045 M06/M08 A2957 RMK SC2SC6 SLP073

CYQF;2009-01-07 01:00;CYQF 070100Z 09005KT 15SM BKN045 OVC080 M08/M09 A2954 RMK SC6AC2 SLP065

CYQF;2009-01-07 02:00;CYQF 070200Z 06005KT 12SM SCT010 OVC050 M09/M11 A2955 RMK SC4SC4 SLP067

CYQF;2009-01-07 02:21;CYQF 070221Z 07004KT 10SM BKN008 OVC030 RMK SC6SC2

CYQF;2009-01-07 02:47;CYQF 070247Z 00000KT 8SM -SN BKN008 OVC030 RMK SC6SC2

CYQF;2009-01-07 03:00;CYQF 070300Z 00000KT 6SM -SN OVC008 M07/M08 A2953 RMK ST8 SLP054

CYQF;2009-01-07 04:00;CYQF 070400Z 14011KT 6SM -SN BKN008 OVC030 M09/M10 A2952 RMK ST6SC2 SLP051

CYQF;2009-01-07 04:45;CYQF 070445Z 14010KT 6SM -SN BKN011 OVC030 RMK ST6SC2

CYQF;2009-01-07 05:00;CYQF 070500Z 14010KT 6SM -SN BKN012 OVC030 M10/M12 A2948 RMK SC5SC2 SLP040

CYQF;2009-01-07 05:36;CYQF 070536Z 15008KT 12SM -SN FEW015 SCT100 BKN220 RMK SC2AC2CI1

CYQF;2009-01-07 06:00;CYQF 070600Z 14008KT 15SM -SN FEW020 BKN100 M12/M14 A2946 RMK SC2AC2 SLP035

CYQF;2009-01-07 07:00;CYQF 070700Z 11004KT 15SM -SN OVC007 M11/M13 A2946 RMK ST8 VRY LGT SN SLP034

CYQF;2009-01-07 08:00;CYQF 070800Z 13003KT 10SM -SN BKN007 OVC020 M12/M14 A2945 RMK ST6SC2 VRY LGT SN SLP030

CYQF;2009-01-07 08:41;CYQF 070841Z 09005KT 10SM OVC025 RMK SC8

CYQF;2009-01-07 09:00;CYQF 070900Z 09005KT 10SM OVC025 M13/M16 A2943 RMK SC8 SLP023

CYQF;2009-01-07 10:00;CYQF 071000Z 13007KT 10SM OVC025 M12/M15 A2944 RMK SC8 SLP026

CYQF;2009-01-07 10:48;CYQF 071048Z 11009KT 10SM OVC009 RMK ST8

CYQF;2009-01-07 11:00;CYQF 071100Z 12010KT 10SM OVC009 M13/M16 A2944 RMK ST8 SLP025

CYQF;2009-01-07 11:39;CYQF 071139Z CCA 13014KT 5SM -SN BR OVC006 RMK ST8 VRY LGT SNW

CYQF;2009-01-07 12:00;CYQF 071200Z 12013KT 5SM -SN BR OVC006 M13/M15 A2943 RMK ST8 VRY LGT SN SLP022

CYQF;2009-01-07 12:41;CYQF 071241Z 10007KT 3SM -SN BR OVC004 RMK ST8

CYQF;2009-01-07 13:00;CYQF 071300Z 11008KT 3SM -SN BR OVC005 M13/M14 A2945 RMK ST8 SLP029

CYQF;2009-01-07 14:00;CYQF 071400Z 12012KT 3SM -SN BR OVC006 M13/M14 A2946 RMK ST8 SLP031

CYQF;2009-01-07 15:00;CYQF 071500Z 14010KT 6SM -SN BR OVC006 M13/M14 A2947 RMK ST8 SLP038

CYQF;2009-01-07 16:00;CYQF 071600Z 14007KT 8SM -SN OVC010 M12/M14 A2948 RMK SC8 SLP042

CYQF;2009-01-07 17:00;CYQF 071700Z 13010KT 6SM BR OVC010 M12/M14 A2950 RMK SC8 SLP047

CYQF;2009-01-07 17:50;CYQF 071750Z 06006KT 5SM -SN BR OVC010 RMK SC8

CYQF;2009-01-07 18:00;CYQF 071800Z 06004KT 4SM -SN BR OVC010 M13/M15 A2951 RMK SC8 SLP058

CYQF;2009-01-07 19:00;CYQF 071900Z 00000KT 3SM -SN BR OVC008 M12/M13 A2950 RMK SF8 SLP054

CYQF;2009-01-07 20:00;CYQF 072000Z 00000KT 2SM -SN BR OVC006 M12/M13 A2948 RMK SF8 SLP050

CYQF;2009-01-07 21:00;CYQF 072100Z 00000KT 5SM -SN BR OVC007 M12/M13 A2950 RMK SF8 SLP053

CYQF;2009-01-07 22:00;CYQF 072200Z 06003KT 2SM -SN BR OVC007 M13/M15 A2950 RMK SF8 VIS S 6 SLP054

CYQF;2009-01-07 23:00;CYQF 072300Z 16007KT 5SM -SN BR OVC005 M12/M14 A2951 RMK SF8 SLP056

CYQF;2009-01-08 00:00;CYQF 080000Z 13006KT 8SM -SN SCT005 OVC012 M12/M14 A2952 RMK SF3SC5 SLP062

CYQF;2009-01-08 01:00;CYQF 080100Z 12007KT 12SM -SN SCT005 OVC012 M12/M14 A2951 RMK ST4SC4 SLP058

CYQF;2009-01-08 02:00;CYQF 080200Z 12006KT 12SM -SN SCT006 OVC011 M13/M14 A2950 RMK ST4SC4 SLP057

CYQF;2009-01-08 02:28;CYQF 080228Z 14007KT 12SM -SN OVC007 RMK ST8

CYQF;2009-01-08 02:43;CYQF 080243Z 15004KT 12SM OVC007 RMK ST8

CYQF;2009-01-08 03:00;CYQF 080300Z 14004KT 12SM OVC006 M13/M15 A2951 RMK ST8 SLP057

CYQF;2009-01-08 04:00;CYQF 080400Z 15005KT 12SM OVC005 M13/M15 A2950 RMK ST8 SLP056

CYQF;2009-01-08 04:42;CYQF 080442Z 15005KT 6SM -SN BR OVC005 RMK ST8

CYQF;2009-01-08 05:00;CYQF 080500Z 14005KT 6SM -SN BR OVC005 M13/M15 A2950 RMK ST8 SLP054

CYQF;2009-01-08 06:00;CYQF 080600Z 15005KT 5SM -SN BR OVC005 M13/M15 A2947 RMK ST8 SLP048

CYQF;2009-01-08 06:33;CYQF 080633Z 15006KT 3SM -SN BR OVC001 RMK ST8

CYQF;2009-01-08 07:00;CYQF 080700Z 14005KT 3SM -SN BR OVC002 M13/M15 A2947 RMK ST8 VRY LGT SN SLP047

CYQF;2009-01-08 08:00;CYQF 080800Z 13007KT 5SM -SN BR OVC002 M13/M14 A2945 RMK ST8 VRY LGT SN FROIN SLP040

CYQF;2009-01-08 09:00;CYQF 080900Z CCA 14005KT 5SM -SN BR OVC004 M13/M14 A2942 RMK ST8 VRY LGT SN FROIN SLP027

CYQF;2009-01-08 09:45;CYQF 080945Z 13006KT 5SM -SN BR OVC002 RMK ST8

CYQF;2009-01-08 10:00;CYQF 081000Z 12003KT 5SM -SN BR OVC002 M13/M14 A2942 RMK ST8 FROIN SLP026

CYQF;2009-01-08 10:21;CYQF 081021Z 09004KT 6SM -SN BR OVC005 RMK ST8 VRY LGT SN FROIN

CYQF;2009-01-08 11:00;CYQF 081100Z 08003KT 6SM -SN BR OVC007 M13/M15 A2942 RMK ST8 SLP027

CYQF;2009-01-08 12:00;CYQF 081200Z 06004KT 6SM -SN BR OVC009 M13/M15 A2943 RMK ST8 SLP029

CYQF;2009-01-08 12:35;CYQF 081235Z 06004KT 6SM -SN BR BKN005 OVC009 M13/M15 RMK ST6ST2 FROIN

CYQF;2009-01-08 13:00;CYQF 081300Z 02005KT 5SM -SN BR OVC003 M13/M15 A2943 RMK ST8 FROIN SLP031

CYQF;2009-01-08 13:37;CYQF 081337Z 02004KT 5SM -SN BR OVC009 RMK ST8 VRY LGT SN FROIN

CYQF;2009-01-08 14:00;CYQF 081400Z 01006KT 5SM -SN BR OVC011 M14/M15 A2945 RMK ST8 FROIN SLP036

CYQF;2009-01-08 15:00;CYQF 081500Z 35008KT 3SM -SN BR OVC010 M14/M16 A2945 RMK ST8 SLP039

CYQF;2009-01-08 15:21;CYQF 081521Z 35010KT 1 1/2SM -SN BR OVC010 RMK SN3ST5

CYQF;2009-01-08 16:00;CYQF 081600Z 35006KT 2SM -SN BR OVC010 M15/M17 A2947 RMK SN2ST6 SLP047

CYQF;2009-01-08 16:54;CYQF 081654Z 35008KT 6SM -SN OVC010 RMK ST8

CYQF;2009-01-08 17:00;CYQF 081700Z 35010KT 6SM -SN BR OVC010 M16/M18 A2952 RMK ST8 SLP060

CYQF;2009-01-08 18:00;CYQF 081800Z 34010G17KT 6SM -SN BR OVC014 M17/M19 A2955 RMK SC8 DRSN SLP076

CYQF;2009-01-08 19:00;CYQF 081900Z 34012G18KT 6SM -SN BR OVC014 M17/M19 A2956 RMK SC8 DRSN SLP082

CYQF;2009-01-08 19:17;CYQF 081917Z 34011G17KT 1SM -SN DRSN OVC008 RMK SN4SF4

CYQF;2009-01-08 20:00;CYQF 082000Z 34011G18KT 1SM -SN DRSN VV005 M17/M19 A2959 RMK SN8 SLP091

CYQF;2009-01-08 21:00;CYQF 082100Z 34011G17KT 1SM -SN DRSN VV005 M18/M20 A2964 RMK SN8 SLP109

CYQF;2009-01-08 21:51;CYQF 082151Z 34013KT 3SM -SN DRSN OVC009 RMK SN6SF2

CYQF;2009-01-08 22:00;CYQF 082200Z CCA 34012G18KT 3SM -SN DRSN OVC009 M18/M20 A2969 RMK SN6SF2 SLP126

CYQF;2009-01-08 23:00;CYQF 082300Z 34012G18KT 12SM DRSN OVC013 M18/M21 A2974 RMK SC8 SLP141

CYQF;2009-01-09 00:00;CYQF 090000Z 34012G18KT 15SM DRSN OVC024 M17/M21 A2979 RMK SC8 /S01/ SLP161

CYQF;2009-01-09 01:00;CYQF 090100Z 33010KT 15SM DRSN OVC018 M18/M21 A2985 RMK SC8 SLP181

CYQF;2009-01-09 02:00;CYQF 090200Z 33011KT 15SM DRSN OVC021 M17/M21 A2989 RMK SC8 SLP192

CYQF;2009-01-09 03:00;CYQF 090300Z 33008KT 15SM DRSN SCT025 BKN080 M18/M21 A2995 RMK SC3AC3 SLP217

CYQF;2009-01-09 04:00;CYQF 090400Z 34008KT 15SM SCT025 OVC080 M18/M21 A2998 RMK SC3AC4 SLP229

CYQF;2009-01-09 05:00;CYQF 090500Z 35005KT 15SM FEW025 OVC080 M18/M22 A3002 RMK SC2AC5 SLP240

CYQF;2009-01-09 06:00;CYQF 090600Z 34004KT 15SM FEW025 BKN080 M20/M23 A3005 RMK SC1AC3 SLP258

CYQF;2009-01-09 07:00;CYQF 090700Z 02008KT 15SM SCT080 M20/M21 A3007 RMK AC4 SLP266

CYQF;2009-01-09 08:00;CYQF 090800Z 19005KT 15SM BKN080 M21/M23 A3009 RMK AC5 OBS TAKEN +05 SLP272

CYQF;2009-01-09 09:00;CYQF 090900Z 21004KT 15SM SCT008 OVC080 M20/M22 A3011 RMK SF3AC4 SLP280

CYQF;2009-01-09 10:00;CYQF 091000Z 16004KT 15SM BKN008 OVC080 M19/M20 A3012 RMK SF5AC2 SLP285

CYQF;2009-01-09 11:00;CYQF 091100Z 15003KT 15SM FEW080 M20/M22 A3015 RMK AC2 SLP293

CYQF;2009-01-09 12:00;CYQF 091200Z 18007KT 15SM SKC M22/M26 A3015 RMK SLP298

CYQF;2009-01-09 13:00;CYQF 091300Z 21004KT 15SM SKC M23/M27 A3014 RMK SLP293

CYQF;2009-01-09 14:00;CYQF 091400Z 21002KT 15SM FEW080 M22/M26 A3013 RMK AC2 SLP291

CYQF;2009-01-09 15:00;CYQF 091500Z 19005KT 15SM FEW100 BKN220 M22/M25 A3011 RMK AC2CI2 SLP285

CYQF;2009-01-09 16:00;CYQF 091600Z 20004KT 15SM SCT100 BKN220 M19/M23 A3008 RMK AC2CI2 SLP275

CYQF;2009-01-09 17:00;CYQF 091700Z 13003KT 15SM SCT100 BKN220 M18/M21 A3006 RMK AC2CI2 SLP270

CYQF;2009-01-09 18:00;CYQF 091800Z 15002KT 15SM BKN100 BKN220 M16/M18 A3003 RMK AC5CI2 SLP251

CYQF;2009-01-09 19:00;CYQF 091900Z 19002KT 15SM BKN120 OVC220 M13/M18 A3001 RMK AC6CI2 SLP244

CYQF;2009-01-09 20:00;CYQF 092000Z 19007KT 15SM FEW050 BKN120 OVC220 M09/M14 A2997 RMK SC1AC6CI1 SLP233

CYQF;2009-01-09 21:00;CYQF 092100Z 18007KT 15SM FEW040 SCT120 BKN220 M10/M14 A2994 RMK SC1AC2CI2 SLP214

CYQF;2009-01-09 22:00;CYQF 092200Z 18005KT 15SM FEW040 SCT120 BKN220 M10/M14 A2994 RMK SC1AC2CI2 SLP212

CYQF;2009-01-09 23:00;CYQF 092300Z 00000KT 15SM FEW040 SCT120 BKN220 M12/M15 A2994 RMK SC1AC2CI2 SLP213

CYQF;2009-01-10 00:00;CYQF 100000Z 22005KT 15SM BKN100 OVC220 M11/M15 A2994 RMK AC5CI2 SLP218

CYQF;2009-01-10 01:00;CYQF 100100Z 22004KT 15SM BKN120 OVC220 M10/M14 A2994 RMK AC5CI2 SLP217

CYQF;2009-01-10 02:00;CYQF 100200Z 22004KT 15SM SCT120 OVC220 M10/M13 A2992 RMK AC3CI2 SLP211

CYQF;2009-01-10 03:00;CYQF 100300Z 23004KT 15SM SCT120 OVC220 M07/M11 A2992 RMK AC3CI3 SLP204

CYQF;2009-01-10 04:00;CYQF 100400Z 21005KT 15SM FEW080 BKN120 OVC220 M05/M10 A2991 RMK AC2AC3CI2 SLP202

CYQF;2009-01-10 05:00;CYQF 100500Z 24007KT 15SM FEW080 BKN120 OVC220 M03/M08 A2991 RMK AC2AC3CI2 SLP203

CYQF;2009-01-10 06:00;CYQF 100600Z 21008KT 15SM FEW080 OVC120 M04/M09 A2990 RMK AC2AC5 SLP186

CYQF;2009-01-10 07:00;CYQF 100700Z 23007KT 15SM FEW080 BKN120 OVC220 M05/M09 A2989 RMK AC2AC3CI2 SLP183

CYQF;2009-01-10 08:00;CYQF 100800Z 20007KT 15SM BKN120 OVC220 M02/M08 A2988 RMK AC5CI2 SLP180

CYQF;2009-01-10 09:00;CYQF 100900Z 22004KT 15SM BKN100 OVC220 M03/M08 A2989 RMK AC5CI2 SLP175

CYQF;2009-01-10 10:00;CYQF 101000Z 19003KT 15SM BKN090 BKN220 M03/M09 A2990 RMK AC5CI2 SLP179

CYQF;2009-01-10 11:00;CYQF 101100Z 21005KT 15SM BKN100 BKN220 M08/M11 A2991 RMK AC3CI1 SLP182

CYQF;2009-01-10 12:00;CYQF 101200Z 23008KT 15SM FEW100 FEW220 M06/M11 A2991 RMK AC1CI1 SLP188

CYQF;2009-01-10 13:00;CYQF 101300Z 24006KT 15SM SKC M07/M12 A2992 RMK SLP190

CYQF;2009-01-10 14:00;CYQF 101400Z 25008KT 15SM SKC M04/M12 A2992 RMK SLP192

CYQF;2009-01-10 15:00;CYQF 101500Z 26007KT 15SM FEW100 M07/M13 A2994 RMK AC1 SLP193

CYQF;2009-01-10 16:00;CYQF 101600Z 00000KT 15SM FEW100 M09/M14 A2996 RMK AC2 SLP201

CYQF;2009-01-10 17:00;CYQF 101700Z 18004KT 15SM FEW080 FEW220 M11/M15 A2999 RMK AC2CI0 SLP210

CYQF;2009-01-10 18:00;CYQF 101800Z 20005KT 15SM SCT080 M08/M13 A3001 RMK AC4 SLP216

CYQF;2009-01-10 19:00;CYQF 101900Z 08004KT 15SM SCT080 M05/M12 A3001 RMK AC3 SLP217

CYQF;2009-01-10 20:00;CYQF 102000Z 05003KT 15SM SCT100 M03/M12 A3003 RMK AC2 SLP222

CYQF;2009-01-10 21:00;CYQF 102100Z 00000KT 15SM FEW100 FEW220 M03/M10 A3004 RMK AC1CI0 SLP219

CYQF;2009-01-10 22:00;CYQF 102200Z 00000KT 15SM FEW100 SCT220 M03/M11 A3005 RMK AC1CI1 SLP223

CYQF;2009-01-10 23:00;CYQF 102300Z 00000KT 15SM FEW100 BKN250 M05/M11 A3007 RMK AC1CI0 SLP228

CYQF;2009-01-11 00:00;CYQF 110000Z 25008KT 15SM FEW100 SCT250 M07/M13 A3009 RMK AC2CI1 SLP247

CYQF;2009-01-11 01:00;CYQF 110100Z 22007KT 15SM FEW100 OVC250 M08/M13 A3010 RMK AC1CI0 SLP249

CYQF;2009-01-11 02:00;CYQF 110200Z 19006KT 15SM OVC250 M12/M15 A3011 RMK CS2 SLP253

CYQF;2009-01-11 03:00;CYQF 110300Z 21002KT 15SM FEW100 OVC250 M10/M14 A3012 RMK AC2CS1 SLP262

CYQF;2009-01-11 04:00;CYQF 110400Z 18003KT 15SM OVC100 M09/M13 A3010 RMK AC8 SLP256

CYQF;2009-01-11 05:00;CYQF 110500Z 22003KT 15SM OVC100 M10/M13 A3008 RMK AC8 SLP248

CYQF;2009-01-11 06:00;CYQF 110600Z 19004KT 15SM SCT100 OVC250 M10/M13 A3008 RMK AC3CS2 SLP247

CYQF;2009-01-11 07:00;CYQF 110700Z 19004KT 15SM SCT100 BKN250 M10/M13 A3006 RMK AC3CI1 SLP243

CYQF;2009-01-11 08:00;CYQF 110800Z 00000KT 15SM BKN100 M10/M14 A3003 RMK AC3 SLP232

CYQF;2009-01-11 09:00;CYQF 110900Z 18003KT 15SM BKN100 M09/M13 A2999 RMK AC5 SLP210

CYQF;2009-01-11 10:00;CYQF 111000Z 18008KT 15SM BKN100 M04/M10 A2995 RMK AC6 SLP199

CYQF;2009-01-11 11:00;CYQF 111100Z 18012KT 15SM BKN100 M05/M10 A2991 RMK AC6 SLP185

CYQF;2009-01-11 12:00;CYQF 111200Z 18008KT 15SM SCT100 BKN220 M06/M11 A2987 RMK AC3CI2 SLP169

CYQF;2009-01-11 13:00;CYQF 111300Z 19006KT 15SM BKN080 BKN220 M06/M10 A2982 RMK AC6CI1 SLP155

CYQF;2009-01-11 14:00;CYQF 111400Z 00000KT 15SM BKN080 BKN220 M08/M11 A2980 RMK AC5CI1 SLP148

CYQF;2009-01-11 15:00;CYQF 111500Z 00000KT 15SM FEW040 BKN080 BKN220 M09/M12 A2979 RMK SC1AC5CI1 SLP150

CYQF;2009-01-11 16:00;CYQF 111600Z 00000KT 15SM FEW030 BKN070 M09/M11 A2981 RMK SC2AC3 VIRGA SLP155

CYQF;2009-01-11 17:00;CYQF 111700Z 28010G15KT 15SM FEW030 SCT070 M02/M09 A2984 RMK SC2AC2 VIRGA SLP164

CYQF;2009-01-11 18:00;CYQF 111800Z 29010G15KT 15SM FEW040 SCT070 M01/M07 A2985 RMK CU2AC2 VIRGA SLP163

CYQF;2009-01-11 19:00;CYQF 111900Z 32010G15KT 15SM FEW040 SCT220 02/M06 A2987 RMK CU2CI1 SLP168

CYQF;2009-01-11 20:00;CYQF 112000Z 32018G28KT 15SM SCT040 03/M06 A2989 RMK CU4 SLP174

CYQF;2009-01-11 21:00;CYQF 112100Z 32020G30KT 15SM DRSN SCT030 BKN090 03/M05 A2992 RMK CU3AC2 VIRGA SLP178

CYQF;2009-01-11 22:00;CYQF 112200Z 33030G45KT 8SM DRSN BKN035 BKN090 02/M04 A2997 RMK SC5AC2 OCNL BLSN TCU EMBD VIRGA SLP194

CYQF;2009-01-11 22:07;CYQF 112207Z 33035G50KT 1/2SM -SN BLSN OVC035 RMK BLSN4SC4 TCU EMBD PRESRR

CYQF;2009-01-11 22:17;CYQF 112217Z 32019G27KT 15SM DRSN SCT030 BKN090 RMK SC3AC4 CU EMBD VIRGA

CYQF;2009-01-11 23:00;CYQF 112300Z 32015G25KT 15SM DRSN FEW035 SCT080 02/M05 A3003 RMK SC2AC2 SLP212

CYQF;2009-01-12 00:00;CYQF 120000Z 32018G28KT 15SM DRSN SCT030 BKN080 02/M05 A3007 RMK SC4AC3 SHSN NW CU EMBD SLP229

CYQF;2009-01-12 00:16;CYQF 120016Z 36012G20KT 1 1/2SM -SHSN DRSN OVC030 RMK SN2SC5

CYQF;2009-01-12 00:20;CYQF 120020Z CCA 02010G18KT 10SM -SHSN DRSN BKN030 RMK SC6 VIS 2 E-SE

CYQF;2009-01-12 00:24;CYQF 120024Z 01010G16KT 15SM SCT030 BKN080 RMK SC4AC2 DRSN VIS 5 E-SE

CYQF;2009-01-12 01:00;CYQF 120100Z 36010G15KT 15SM VCSH BKN030 BKN080 M02/M05 A3012 RMK SC5AC2 DRSN SLP245

CYQF;2009-01-12 01:16;CYQF 120116Z 35010G15KT 2SM -SHSN BKN035 OVC080 RMK SN2SC4AC2 VIS S-SW 10

CYQF;2009-01-12 01:21;CYQF 120121Z 34010G17KT 8SM -SHSN BKN035 OVC080 RMK SC5AC2 DRSN

CYQF;2009-01-12 02:00;CYQF 120200Z 01010G15KT 10SM -SN SCT035 OVC080 M02/M06 A3016 RMK SC3AC4 SLP258

CYQF;2009-01-12 02:13;CYQF 120213Z 33015G20KT 1 1/2SM -SN OVC030 RMK SN4SC4 HVY DRSN

CYQF;2009-01-12 02:23;CYQF 120223Z 34012G18KT 3SM -SN BKN030 OVC080 RMK SC5AC2 DRSN

CYQF;2009-01-12 02:36;CYQF 120236Z 34010G15KT 1 1/2SM -SN VV015 RMK SN8 VIS VRB 1-3 DRSN

CYQF;2009-01-12 03:00;CYQF 120300Z 34010G15KT 1 1/2SM -SN VV015 M04/M06 A3021 RMK SN8 VIS VRB 1-3 DRSN SLP287

CYQF;2009-01-12 04:00;CYQF 120400Z 36014KT 5SM -SN SCT030 OVC090 M04/M06 A3022 RMK SC3AC2 DRSN SLP291

CYQF;2009-01-12 04:07;CYQF 120407Z 35010G15KT 15SM FEW030 SCT080 RMK SC1AC2

CYQF;2009-01-12 04:49;CYQF 120449Z 03005KT 10SM -SN OVC080 RMK AC8

CYQF;2009-01-12 05:00;CYQF 120500Z 09006KT 12SM -SN BKN080 M08/M10 A3027 RMK AC7 SLP307

CYQF;2009-01-12 06:00;CYQF 120600Z 03005KT 15SM -SN BKN080 M10/M13 A3030 RMK AC7 SLP316

CYQF;2009-01-12 06:31;CYQF 120631Z 00000KT 15SM BKN080 RMK AC6

CYQF;2009-01-12 07:00;CYQF 120700Z 00000KT 15SM BKN080 M13/M15 A3033 RMK AC6 SLP325

CYQF;2009-01-12 08:00;CYQF 120800Z 00000KT 15SM SCT080 M14/M16 A3032 RMK AC3 SLP322

CYQF;2009-01-12 09:00;CYQF 120900Z 00000KT 15SM SCT100 M15/M17 A3033 RMK AC3 SLP329

CYQF;2009-01-12 10:00;CYQF 121000Z 00000KT 15SM SCT100 BKN220 M15/M16 A3033 RMK AC3CI2 SLP327

CYQF;2009-01-12 11:00;CYQF 121100Z 22005KT 15SM FEW100 BKN220 M17/M18 A3033 RMK AC2CI2 SLP327

CYQF;2009-01-12 12:00;CYQF 121200Z 15007KT 15SM SCT220 M15/M17 A3033 RMK CI2 SLP330

CYQF;2009-01-12 13:00;CYQF 121300Z 20004KT 12SM BKN220 M15/M16 A3032 RMK CI2 SLP326

CYQF;2009-01-12 14:00;CYQF 121400Z 18004KT 15SM OVC220 M14/M15 A3031 RMK CS3 SLP325

CYQF;2009-01-12 15:00;CYQF 121500Z 18004KT 12SM FEW100 OVC220 M12/M13 A3030 RMK AC2CS3 BR SLP323

CYQF;2009-01-12 16:00;CYQF 121600Z 20004KT 12SM OVC100 M11/M12 A3028 RMK AS5 SLP315

CYQF;2009-01-12 17:00;CYQF 121700Z 00000KT 12SM FEW120 BKN230 M11/M12 A3027 RMK AC2CI2 SLP312

CYQF;2009-01-12 18:00;CYQF 121800Z 00000KT 12SM SCT050 OVC200 M10/M11 A3026 RMK SC2CI6 SLP315

CYQF;2009-01-12 19:00;CYQF 121900Z 00000KT 12SM BKN050 OVC200 M08/M10 A3023 RMK SC5CI3 SLP305

CYQF;2009-01-12 20:00;CYQF 122000Z 00000KT 12SM OVC070 M07/M10 A3018 RMK AS8 SLP290

CYQF;2009-01-12 21:00;CYQF 122100Z 00000KT 12SM OVC080 M06/M09 A3014 RMK AS8 SLP272

CYQF;2009-01-12 22:00;CYQF 122200Z 00000KT 15SM FEW070 OVC120 M05/M09 A3010 RMK AC2AS5 SLP259

CYQF;2009-01-12 23:00;CYQF 122300Z 17002KT 15SM FEW070 OVC120 M04/M08 A3002 RMK AC2AS6 SLP235

CYQF;2009-01-13 00:00;CYQF 130000Z 16008KT 15SM FEW070 BKN120 OVC250 M04/M07 A2998 RMK AC2AS5CI1 SLP214

CYQF;2009-01-13 01:00;CYQF 130100Z 19004KT 15SM SCT090 OVC250 M04/M07 A2992 RMK AC4CI4 SLP196

CYQF;2009-01-13 02:00;CYQF 130200Z 18010KT 15SM BKN090 OVC250 M05/M08 A2988 RMK AC5CI3 SLP184

CYQF;2009-01-13 03:00;CYQF 130300Z 13002KT 15SM SCT060 OVC100 M05/M07 A2984 RMK SC3AC5 VIRGA N SLP162

CYQF;2009-01-13 04:00;CYQF 130400Z 00000KT 15SM SCT060 OVC100 M04/M07 A2983 RMK SC4AC4 VIRGA SLP159

CYQF;2009-01-13 05:00;CYQF 130500Z 18006KT 15SM SCT060 OVC100 M04/M07 A2981 RMK SC4AC4 VIRGA SLP154

CYQF;2009-01-13 06:00;CYQF 130600Z 00000KT 15SM SCT060 OVC120 M03/M06 A2978 RMK SC3AC5 VIRGA SLP138

CYQF;2009-01-13 07:00;CYQF 130700Z 21007KT 15SM FEW050 OVC100 M01/M05 A2975 RMK SC2AC6 SLP127

CYQF;2009-01-13 08:00;CYQF 130800Z 23009KT 15SM FEW050 BKN100 02/M04 A2972 RMK SC2AC6 SLP118

CYQF;2009-01-13 09:00;CYQF 130900Z 25008KT 15SM FEW050 BKN090 05/M03 A2969 RMK SC2AC5 SLP095

CYQF;2009-01-13 10:00;CYQF 131000Z 28004KT 15SM FEW050 BKN090 04/M03 A2970 RMK SC2AC3 SLP097

CYQF;2009-01-13 11:00;CYQF 131100Z 27003KT 15SM FEW050 BKN090 02/M03 A2972 RMK SC2AC4 SLP102

CYQF;2009-01-13 12:00;CYQF 131200Z 29005KT 15SM FEW050 BKN090 00/M04 A2975 RMK SC2AC5 OBS TAKEN +14 SLP116

CYQF;2009-01-13 13:00;CYQF 131300Z 30003KT 15SM SCT050 BKN100 02/M03 A2976 RMK SC3AC4 SLP122

CYQF;2009-01-13 14:00;CYQF 131400Z 30020G30KT 15SM SCT050 BKN100 07/M03 A2980 RMK SC4AC3 SLP132

CYQF;2009-01-13 15:00;CYQF 131500Z 32028G40KT 15SM SCT050 BKN100 06/M03 A2982 RMK SC3AC4 SLP136

CYQF;2009-01-13 16:00;CYQF 131600Z 33020G30KT 15SM FEW025 BKN050 OVC100 05/M03 A2987 RMK SC2SC4AC2 SLP150

CYQF;2009-01-13 17:00;CYQF 131700Z 35010G20KT 15SM FEW025 BKN060 BKN100 02/M02 A2994 RMK SC1SC2AC3 PRESRR SLP172

CYQF;2009-01-13 18:00;CYQF 131800Z 33012G20KT 15SM SCT060 BKN100 OVC250 02/M02 A2997 RMK SC2AS5CS2 SLP190

CYQF;2009-01-13 19:00;CYQF 131900Z 33012G20KT 15SM FEW030 BKN060 OVC100 02/M03 A2999 RMK SC2SC2AC2 SLP197

CYQF;2009-01-13 20:00;CYQF 132000Z 33010G15KT 15SM FEW030 BKN060 BKN100 OVC250 02/M03 A3001 RMK SC1SC2AS2CI2 SLP204

CYQF;2009-01-13 21:00;CYQF 132100Z 33013G20KT 15SM FEW020 SCT050 OVC090 02/M03 A3005 RMK SF2SC2AC3 SLP208

CYQF;2009-01-13 22:00;CYQF 132200Z 32012KT 15SM FEW020 BKN050 OVC100 01/M02 A3008 RMK SF2SC4AC2 SLP218

CYQF;2009-01-13 22:39;CYQF 132239Z 31008KT 15SM BKN011 OVC050 RMK SC5SC2

CYQF;2009-01-13 23:00;CYQF 132300Z 30012KT 15SM VCSH BKN010 BKN050 OVC100 00/M02 A3011 RMK SC5SC2AC1 SLP227

CYQF;2009-01-13 23:26;CYQF 132326Z 31011KT 10SM -SHSN BKN010 OVC050 RMK SC6SC2

CYQF;2009-01-14 00:00;CYQF 140000Z 02012KT 8SM -SHSN BKN010 OVC050 M04/M06 A3015 RMK SC6SC2 SLP254

CYQF;2009-01-14 01:00;CYQF 140100Z 03010KT 3SM -SHSN OVC020 M07/M10 A3019 RMK SC8 SLP268

CYQF;2009-01-14 02:00;CYQF 140200Z 03010KT 1SM -SHSN OVC010 M10/M12 A3022 RMK SC8 SLP278

CYQF;2009-01-14 03:00;CYQF 140300Z 04010KT 2SM -SHSN OVC020 M12/M14 A3026 RMK SC8 SLP298

CYQF;2009-01-14 04:00;CYQF 140400Z 04006KT 2SM -SN OVC020 M13/M15 A3029 RMK SC8 SLP307

CYQF;2009-01-14 05:00;CYQF 140500Z 05008KT 2SM -SN OVC020 M13/M15 A3030 RMK SC8 SLP310

CYQF;2009-01-14 06:00;CYQF 140600Z 07004KT 2SM -SN OVC020 M13/M16 A3032 RMK SC8 SLP325

CYQF;2009-01-14 07:00;CYQF 140700Z 05003KT 2SM -SN OVC020 M14/M16 A3033 RMK SN2SC6 SLP328

CYQF;2009-01-14 08:00;CYQF 140800Z 06003KT 3SM -SN OVC030 M14/M16 A3033 RMK SC8 SLP328

CYQF;2009-01-14 09:00;CYQF 140900Z 07003KT 3SM -SN OVC025 M13/M15 A3033 RMK SC8 /S01/ SLP327

CYQF;2009-01-14 10:00;CYQF 141000Z 12005KT 4SM -SN BKN025 OVC050 M13/M15 A3034 RMK SC5SC3 SLP330

CYQF;2009-01-14 11:00;CYQF 141100Z 13007KT 1 1/2SM -SN BKN025 OVC050 M13/M16 A3034 RMK SN2SC2SC3 SLP332

CYQF;2009-01-14 12:00;CYQF 141200Z 16007KT 2 1/2SM -SN SCT025 OVC050 M14/M16 A3034 RMK SN2SC2SC4 /S02/ SLP337

CYQF;2009-01-14 13:00;CYQF 141300Z 17006KT 1 1/2SM -SN SCT025 OVC050 M13/M15 A3033 RMK SN2SC2SC4 SLP333

CYQF;2009-01-14 13:35;CYQF 141335Z 15005KT 6SM -SN BKN025 OVC050 RMK SC5SC3

CYQF;2009-01-14 14:00;CYQF 141400Z 17008KT 6SM -SN SCT025 OVC050 M13/M15 A3031 RMK SC4SC4 /S01/ SLP328

CYQF;2009-01-14 15:00;CYQF 141500Z 16008KT 3SM -SN OVC070 M13/M15 A3029 RMK AC8 SLP330

CYQF;2009-01-14 15:30;CYQF 141530Z 18008KT 2SM -SN VV020 RMK SN8

CYQF;2009-01-14 15:41;CYQF 141541Z 17006KT 3SM -SN OVC070 RMK SN6AC2

CYQF;2009-01-14 16:00;CYQF 141600Z 18007KT 1 1/2SM -SN OVC030 M12/M15 A3029 RMK SN5SC3 /S02/ SLP330

CYQF;2009-01-14 16:05;CYQF 141605Z 17007KT 1SM -SN OVC030 RMK SN6SC2

CYQF;2009-01-14 16:38;CYQF 141638Z 18005KT 3/4SM -SN VV010 RMK SN8

CYQF;2009-01-14 17:00;CYQF 141700Z 15004KT 3/4SM -SN VV010 M12/M14 A3031 RMK SN8 VIS VRB 1/2-1 SLP334

CYQF;2009-01-14 18:00;CYQF 141800Z 17008KT 3/4SM -SN VV010 M12/M14 A3032 RMK SN8 VIS VRB 1/2-1 SLP340

CYQF;2009-01-14 18:19;CYQF 141819Z 18010KT 2SM -SN OVC030 RMK SN5SC3 VIS VRB 1-3

CYQF;2009-01-14 19:00;CYQF 141900Z 17007KT 2SM -SN OVC030 M12/M14 A3031 RMK SN4SC4 VIS VRB 1-3 SLP336

CYQF;2009-01-14 20:00;CYQF 142000Z 18010KT 5SM -SN OVC050 M12/M14 A3030 RMK SC8 SLP334

CYQF;2009-01-14 20:21;CYQF 142021Z 18009KT 15SM OVC050 RMK SC8

CYQF;2009-01-14 21:00;CYQF 142100Z 15005KT 15SM OVC050 M11/M14 A3031 RMK SC8 SLP335

CYQF;2009-01-14 21:37;CYQF 142137Z 14010KT 5SM -SN -FZDZ OVC050 RMK SC8

CYQF;2009-01-14 22:00;CYQF 142200Z 13006KT 3SM -SN OVC020 M12/M14 A3031 REFZDZ RMK SN3SC5 SLP336

CYQF;2009-01-14 22:33;CYQF 142233Z 13010KT 2SM -SN OVC020 RMK SN4SC4

CYQF;2009-01-14 23:00;CYQF 142300Z 16008KT 2SM -SN OVC020 M12/M15 A3031 RMK SN4SC4 SLP335

CYQF;2009-01-15 00:00;CYQF 150000Z 18010KT 2SM -SN OVC020 M12/M14 A3032 RMK SN4SC4 SLP341

CYQF;2009-01-15 01:00;CYQF 150100Z 19007KT 10SM -SN OVC020 M12/M14 A3031 RMK SC8 SLP339

CYQF;2009-01-15 02:00;CYQF 150200Z 19005KT 8SM -SN OVC013 M12/M14 A3030 RMK SC8 SLP336

CYQF;2009-01-15 03:00;CYQF 150300Z 20008KT 7SM -SN OVC011 M11/M13 A3030 RMK SC8 SLP332

CYQF;2009-01-15 04:00;CYQF 150400Z 18006KT 8SM -SN BKN008 OVC035 M11/M12 A3029 RMK SC6SC2 SLP330

CYQF;2009-01-15 05:00;CYQF 150500Z 18003KT 15SM BKN007 OVC030 M10/M12 A3029 RMK SC6SC2 SLP330

CYQF;2009-01-15 06:00;CYQF 150600Z 19004KT 15SM BKN005 OVC020 M09/M11 A3027 RMK SC6SC2 SLP318

CYQF;2009-01-15 07:00;CYQF 150700Z 00000KT 15SM SCT005 OVC075 M09/M11 A3026 RMK SC3AC5 SLP314

CYQF;2009-01-15 08:00;CYQF 150800Z 19002KT 15SM FEW005 OVC070 M08/M10 A3024 RMK ST2AC6 SLP309

CYQF;2009-01-15 09:00;CYQF 150900Z 00000KT 15SM FEW005 BKN080 M09/M11 A3022 RMK ST2AC5 SLP301

CYQF;2009-01-15 09:48;CYQF 150948Z 00000KT 6SM BR BKN004 OVC080 RMK ST5AC3

CYQF;2009-01-15 10:00;CYQF 151000Z 24003KT 3SM BR OVC003 M10/M11 A3021 RMK ST8 SLP297

CYQF;2009-01-15 10:27;CYQF 151027Z 00000KT 1/2SM FZFG VV001 RMK FG8

CYQF;2009-01-15 11:00;CYQF 151100Z 00000KT 1SM BR VV002 M10/M11 A3022 RMK FG8 SLP299

CYQF;2009-01-15 11:21;CYQF 151121Z 21002KT 0SM FZFG VV000 RMK FG8

CYQF;2009-01-15 12:00;CYQF 151200Z 00000KT 0SM FZFG VV000 M10/M11 A3021 RMK FG8 SLP297

CYQF;2009-01-15 12:26;CYQF 151226Z 20005KT 3/4SM BR SKC RMK FG6 RIME ON INDICATOR

CYQF;2009-01-15 13:00;CYQF 151300Z 21004KT 3/4SM BR SKC M12/M13 A3019 RMK FG6 RIME ON INDICATOR SLP293

CYQF;2009-01-15 13:45;CYQF 151345Z 21003KT 1 1/2SM BR SKC RMK FG4

CYQF;2009-01-15 14:00;CYQF 151400Z 18003KT 1 1/2SM BR BKN002 M11/M13 A3019 RMK ST4 SLP292

CYQF;2009-01-15 14:26;CYQF 151426Z 19003KT 2SM BR SKC RMK FG6 VIS 1 E

CYQF;2009-01-15 15:00;CYQF 151500Z 18002KT 2SM BR SCT250 M12/M13 A3017 RMK FG2CI0 SLP287

CYQF;2009-01-15 15:10;CYQF 151510Z 00000KT 5SM BR SCT065 BKN250 RMK SC2CI0 VIS 2 NE-SE

CYQF;2009-01-15 16:00;CYQF 151600Z 21003KT 6SM BR FEW065 BKN250 M12/M13 A3019 RMK SC1CI1 VIS 2 NE-SE SLP292

CYQF;2009-01-15 17:00;CYQF 151700Z 24006KT 10SM FEW250 M08/M08 A3018 RMK CI1 VIS NE-SE 5BR SLP290

CYQF;2009-01-15 18:00;CYQF 151800Z 24008KT 12SM BKN250 M06/M06 A3018 RMK CI2 HZ SLP280

CYQF;2009-01-15 19:00;CYQF 151900Z 24013KT 15SM BKN250 M05/M05 A3016 RMK CI2 SLP274

CYQF;2009-01-15 20:00;CYQF 152000Z 25006KT 15SM BKN250 M03/M05 A3015 RMK CI2 SLP269

CYQF;2009-01-15 21:00;CYQF 152100Z 22002KT 15SM FEW250 M01/M04 A3013 RMK CI1 SLP256

CYQF;2009-01-15 22:00;CYQF 152200Z 24007KT 15SM BKN250 M02/M05 A3012 RMK CI1 SLP253

CYQF;2009-01-15 23:00;CYQF 152300Z 24007KT 15SM BKN250 M02/M04 A3013 RMK CI1 SLP256

CYQF;2009-01-16 00:00;CYQF 160000Z 00000KT 15SM BKN250 M06/M08 A3013 RMK CI2 SLP263

CYQF;2009-01-16 01:00;CYQF 160100Z 23003KT 15SM FEW250 M06/M07 A3014 RMK CI1 SLP265

CYQF;2009-01-16 02:00;CYQF 160200Z 24007KT 15SM FEW250 M07/M09 A3012 RMK CI2 SLP260

CYQF;2009-01-16 03:00;CYQF 160300Z 24007KT 15SM FEW250 M06/M07 A3012 RMK CI2 SLP262

CYQF;2009-01-16 04:00;CYQF 160400Z 22010KT 15SM SCT250 M05/M07 A3010 RMK CI3 OBS TAKEN +07 SLP257

CYQF;2009-01-16 05:00;CYQF 160500Z 22006KT 15SM SKC M07/M08 A3009 RMK SLP253

CYQF;2009-01-16 06:00;CYQF 160600Z 24005KT 15SM SKC M07/M09 A3008 RMK SLP243

CYQF;2009-01-16 07:00;CYQF 160700Z 24007KT 15SM SKC M07/M09 A3007 RMK SLP240

CYQF;2009-01-16 08:00;CYQF 160800Z 19008KT 15SM SKC M09/M11 A3005 RMK SLP235

CYQF;2009-01-16 09:00;CYQF 160900Z 00000KT 15SM SKC M08/M11 A3005 RMK SLP226

CYQF;2009-01-16 10:00;CYQF 161000Z 18005KT 15SM FEW250 M12/M14 A3005 RMK CI1 SLP227

CYQF;2009-01-16 11:00;CYQF 161100Z 19007KT 15SM FEW100 BKN250 M12/M14 A3005 RMK AC2CI5 SLP226

CYQF;2009-01-16 12:00;CYQF 161200Z 20004KT 15SM FEW100 OVC250 M11/M13 A3004 RMK AC2CI4 SLP234

CYQF;2009-01-16 13:00;CYQF 161300Z 18008KT 15SM BKN150 OVC250 M10/M13 A3005 RMK AC5CI2 SLP235

CYQF;2009-01-16 14:00;CYQF 161400Z 18004KT 15SM SCT150 M07/M11 A3004 RMK AC3 SLP232

CYQF;2009-01-16 15:00;CYQF 161500Z 00000KT 15SM FEW150 SCT250 M11/M14 A3005 RMK AC2CI0 SLP238

CYQF;2009-01-16 16:00;CYQF 161600Z 17003KT 15SM FEW150 FEW250 M11/M13 A3008 RMK AC1CI1 SLP246

CYQF;2009-01-16 17:00;CYQF 161700Z 29011KT 15SM FEW120 00/M07 A3010 RMK AC1 SLP253

CYQF;2009-01-16 18:00;CYQF 161800Z 33015KT 15SM FEW120 05/M04 A3013 RMK AC1 SLP249

CYQF;2009-01-16 19:00;CYQF 161900Z 32015KT 15SM FEW250 06/M04 A3016 RMK CI1 SLP257

CYQF;2009-01-16 20:00;CYQF 162000Z 31015G20KT 15SM FEW250 06/M04 A3018 RMK CI1 SLP263

CYQF;2009-01-16 21:00;CYQF 162100Z 32011G17KT 15SM FEW250 06/M03 A3019 RMK CI1 SLP269

CYQF;2009-01-16 22:00;CYQF 162200Z 32012KT 15SM FEW250 06/M03 A3021 RMK CI1 SLP274

CYQF;2009-01-16 23:00;CYQF 162300Z 32012KT 15SM FEW250 05/M03 A3023 RMK CI1 SLP280

CYQF;2009-01-17 00:00;CYQF 170000Z 31008KT 15SM FEW250 02/M04 A3025 RMK CI1 SLP295

CYQF;2009-01-17 01:00;CYQF 170100Z 28007KT 15SM FEW250 02/M05 A3025 RMK CI0 SLP296

CYQF;2009-01-17 02:00;CYQF 170200Z 31006KT 15SM FEW250 00/M06 A3027 RMK CI0 SLP301

CYQF;2009-01-17 03:00;CYQF 170300Z 27007KT 15SM SKC M02/M07 A3027 RMK SLP308

CYQF;2009-01-17 04:00;CYQF 170400Z 28005KT 15SM SKC M02/M07 A3028 RMK SLP311

CYQF;2009-01-17 05:00;CYQF 170500Z 20003KT 15SM SKC M05/M08 A3030 RMK SLP318

CYQF;2009-01-17 06:00;CYQF 170600Z 21003KT 15SM SKC M06/M09 A3031 RMK SLP310

CYQF;2009-01-17 07:00;CYQF 170700Z 25006KT 15SM SKC M08/M11 A3031 RMK SLP310

CYQF;2009-01-17 08:00;CYQF 170800Z 15005KT 15SM SKC M05/M09 A3033 RMK SLP315

CYQF;2009-01-17 09:00;CYQF 170900Z 24005KT 15SM SKC M09/M12 A3034 RMK SLP321

CYQF;2009-01-17 10:00;CYQF 171000Z 24007KT 15SM SKC M04/M09 A3034 RMK SLP321

CYQF;2009-01-17 11:00;CYQF 171100Z 26013KT 15SM SKC M05/M09 A3033 RMK SLP319

CYQF;2009-01-17 12:00;CYQF 171200Z 26010KT 15SM SKC M05/M10 A3034 RMK SLP320

CYQF;2009-01-17 13:00;CYQF 171300Z 17004KT 15SM SKC M06/M11 A3034 RMK SLP322

CYQF;2009-01-17 14:00;CYQF 171400Z 20006KT 15SM SKC M10/M14 A3034 RMK SLP320

CYQF;2009-01-17 15:00;CYQF 171500Z 20003KT 15SM SKC M10/M14 A3034 RMK SLP332

CYQF;2009-01-17 16:00;CYQF 171600Z 20005KT 15SM SKC M12/M15 A3035 RMK SLP336

CYQF;2009-01-17 17:00;CYQF 171700Z 18007KT 15SM SKC M08/M13 A3035 RMK SLP335

CYQF;2009-01-17 18:00;CYQF 171800Z 20005KT 15SM FEW250 M04/M10 A3035 RMK CI1 SLP333

CYQF;2009-01-17 19:00;CYQF 171900Z 19003KT 15SM FEW250 M01/M08 A3033 RMK CI1 SLP327

CYQF;2009-01-17 20:00;CYQF 172000Z 00000KT 15SM FEW250 01/M07 A3032 RMK CI2 SLP322

CYQF;2009-01-17 21:00;CYQF 172100Z 21004KT 15SM FEW250 02/M06 A3030 RMK CI1 SLP314

CYQF;2009-01-17 22:00;CYQF 172200Z 00000KT 15SM FEW250 03/M06 A3029 RMK CI1 SLP309

CYQF;2009-01-17 23:00;CYQF 172300Z 25004KT 15SM FEW250 02/M06 A3028 RMK CI1 SLP308

CYQF;2009-01-18 00:00;CYQF 180000Z 16005KT 15SM FEW250 01/M07 A3028 RMK CI1 SLP303

CYQF;2009-01-18 01:00;CYQF 180100Z 29010KT 15SM FEW250 M03/M09 A3029 RMK CI1 SLP304

CYQF;2009-01-18 02:00;CYQF 180200Z 16005KT 15SM SKC M02/M08 A3030 RMK SLP309

CYQF;2009-01-18 03:00;CYQF 180300Z 20004KT 15SM SKC M06/M10 A3031 RMK SLP327

CYQF;2009-01-18 04:00;CYQF 180400Z 18005KT 15SM SKC M04/M09 A3032 RMK SLP329

CYQF;2009-01-18 05:00;CYQF 180500Z 20002KT 15SM SKC M04/M09 A3033 RMK SLP331

CYQF;2009-01-18 06:00;CYQF 180600Z 29007KT 15SM SKC M03/M09 A3033 RMK SLP320

CYQF;2009-01-18 07:00;CYQF 180700Z 21006KT 15SM SKC 00/M08 A3034 RMK SLP324

CYQF;2009-01-18 08:00;CYQF 180800Z 24005KT 15SM SKC 02/M07 A3036 RMK SLP330

CYQF;2009-01-18 09:00;CYQF 180900Z 23008KT 15SM FEW250 01/M08 A3037 RMK CI0 SLP325

CYQF;2009-01-18 10:00;CYQF 181000Z 27007KT 15SM FEW250 00/M08 A3038 RMK CI0 SLP327

CYQF;2009-01-18 11:00;CYQF 181100Z 26007KT 15SM FEW250 M01/M09 A3039 RMK CI0 SLP331

CYQF;2009-01-18 12:00;CYQF 181200Z 21003KT 15SM FEW250 M04/M10 A3039 RMK CI0 SLP340

CYQF;2009-01-18 13:00;CYQF 181300Z 21003KT 15SM FEW250 M05/M11 A3039 RMK CI1 SLP340

CYQF;2009-01-18 14:00;CYQF 181400Z 00000KT 15SM FEW250 M07/M12 A3039 RMK CI1 SLP339

CYQF;2009-01-18 15:00;CYQF 181500Z 26010KT 15SM FEW250 M02/M10 A3039 RMK CI0 SLP344

CYQF;2009-01-18 16:00;CYQF 181600Z 19005KT 15SM SCT250 M08/M13 A3041 RMK CI1 SLP350

CYQF;2009-01-18 17:00;CYQF 181700Z 18005KT 15SM SCT250 M07/M13 A3043 RMK CI1 SLP355

CYQF;2009-01-18 18:00;CYQF 181800Z 19003KT 15SM SCT250 M04/M11 A3043 RMK CI2 SLP356

CYQF;2009-01-18 19:00;CYQF 181900Z 22006KT 15SM FEW250 M01/M09 A3042 RMK CI2 SLP354

CYQF;2009-01-18 20:00;CYQF 182000Z 21005KT 15SM FEW250 01/M08 A3039 RMK CI1 SLP345

CYQF;2009-01-18 21:00;CYQF 182100Z 21005KT 15SM FEW250 02/M07 A3038 RMK CI1 SLP327

CYQF;2009-01-18 22:00;CYQF 182200Z 26004KT 15SM FEW250 04/M07 A3039 RMK CI1 SLP330

CYQF;2009-01-18 23:00;CYQF 182300Z 19004KT 15SM FEW250 02/M08 A3038 RMK CI1 SLP329

CYQF;2009-01-19 00:00;CYQF 190000Z 19006KT 15SM FEW250 M04/M10 A3040 RMK CI0 SLP347

CYQF;2009-01-19 01:00;CYQF 190100Z 21002KT 15SM SKC M04/M11 A3039 RMK SLP345

CYQF;2009-01-19 02:00;CYQF 190200Z 29005KT 15SM SKC M06/M13 A3040 RMK SLP347

CYQF;2009-01-19 03:00;CYQF 190300Z 29002KT 15SM SKC M06/M13 A3040 RMK SLP349

CYQF;2009-01-19 04:00;CYQF 190400Z 00000KT 15SM SKC M08/M14 A3040 RMK SLP348

CYQF;2009-01-19 05:00;CYQF 190500Z 19004KT 15SM SKC M07/M13 A3041 RMK SLP350

CYQF;2009-01-19 06:00;CYQF 190600Z 21004KT 15SM SKC M11/M16 A3042 RMK SLP361

CYQF;2009-01-19 07:00;CYQF 190700Z 19006KT 15SM SKC M10/M16 A3042 RMK SLP362

CYQF;2009-01-19 08:00;CYQF 190800Z 19008KT 15SM SKC M09/M15 A3042 RMK SLP362

CYQF;2009-01-19 09:00;CYQF 190900Z 20005KT 15SM SKC M11/M16 A3041 RMK SLP352

CYQF;2009-01-19 10:00;CYQF 191000Z 21008KT 15SM SKC M12/M16 A3041 RMK SLP353

CYQF;2009-01-19 11:00;CYQF 191100Z 20007KT 15SM SKC M13/M17 A3041 RMK SLP352

CYQF;2009-01-19 12:00;CYQF 191200Z 20006KT 15SM SKC M14/M18 A3040 RMK SLP361

CYQF;2009-01-19 13:00;CYQF 191300Z 21006KT 15SM SKC M14/M18 A3039 RMK SLP356

CYQF;2009-01-19 14:00;CYQF 191400Z 18004KT 15SM SKC M10/M16 A3037 RMK SLP351

CYQF;2009-01-19 15:00;CYQF 191500Z 18005KT 15SM SKC M14/M18 A3037 RMK SLP353

CYQF;2009-01-19 16:00;CYQF 191600Z 22005KT 15SM SKC M12/M16 A3036 RMK SLP350

CYQF;2009-01-19 17:00;CYQF 191700Z 22003KT 15SM SKC M14/M17 A3035 RMK SLP347

CYQF;2009-01-19 18:00;CYQF 191800Z 00000KT 15SM SKC M07/M15 A3034 RMK SLP340

CYQF;2009-01-19 19:00;CYQF 191900Z 22005KT 15SM SKC M06/M13 A3032 RMK SLP333

CYQF;2009-01-19 20:00;CYQF 192000Z 20002KT 15SM SKC M00/M10 A3032 RMK SLP333

CYQF;2009-01-19 21:00;CYQF 192100Z 21005KT 15SM SKC M03/M10 A3030 RMK SLP319

CYQF;2009-01-19 22:00;CYQF 192200Z 18006KT 15SM SKC M02/M10 A3030 RMK SLP319

CYQF;2009-01-19 23:00;CYQF 192300Z 19005KT 15SM SKC M02/M11 A3030 RMK SLP318

CYQF;2009-01-20 00:00;CYQF 200000Z 18005KT 15SM SKC M05/M13 A3030 RMK SLP325

CYQF;2009-01-20 01:00;CYQF 200100Z 19003KT 15SM SKC M07/M13 A3029 RMK SLP323

CYQF;2009-01-20 02:00;CYQF 200200Z 20005KT 15SM SKC M08/M14 A3027 RMK SLP317

CYQF;2009-01-20 03:00;CYQF 200300Z 20003KT 15SM SKC M10/M15 A3028 RMK SLP323

CYQF;2009-01-20 04:00;CYQF 200400Z 20006KT 15SM SKC M11/M16 A3028 RMK SLP325

CYQF;2009-01-20 05:00;CYQF 200500Z 21006KT 15SM SKC M11/M16 A3028 RMK SLP325

CYQF;2009-01-20 06:00;CYQF 200600Z 20007KT 15SM SKC M11/M16 A3027 RMK SLP316

CYQF;2009-01-20 07:00;CYQF 200700Z 20007KT 15SM SKC M10/M15 A3028 RMK SLP318

CYQF;2009-01-20 08:00;CYQF 200800Z CCA 20008KT 15SM SKC M10/M15 A3028 RMK SLP317

CYQF;2009-01-20 09:00;CYQF 200900Z 21006KT 15SM SKC M13/M17 A3026 RMK SLP310

CYQF;2009-01-20 10:00;CYQF 201000Z 20004KT 15SM SKC M10/M15 A3026 RMK SLP310

CYQF;2009-01-20 11:00;CYQF 201100Z 20009KT 15SM SKC M10/M14 A3025 RMK SLP305

CYQF;2009-01-20 12:00;CYQF 201200Z 20003KT 15SM SKC M11/M15 A3024 RMK SLP299

CYQF;2009-01-20 13:00;CYQF 201300Z 20006KT 15SM SKC M14/M17 A3022 RMK SLP294

CYQF;2009-01-20 14:00;CYQF 201400Z 20008KT 15SM SCT250 M12/M16 A3022 RMK CI2 SLP293

CYQF;2009-01-20 15:00;CYQF 201500Z 18003KT 15SM FEW120 BKN250 M12/M16 A3021 RMK AC2CI1 SLP297

CYQF;2009-01-20 16:00;CYQF 201600Z 19006KT 15SM FEW120 BKN250 M13/M16 A3021 RMK AC2CI2 SLP298

CYQF;2009-01-20 17:00;CYQF 201700Z 20007KT 15SM BKN250 M11/M15 A3020 RMK CI0 SLP294

CYQF;2009-01-20 18:00;CYQF 201800Z 19005KT 15SM SCT250 M09/M15 A3018 RMK CI0 SLP287

CYQF;2009-01-20 19:00;CYQF 201900Z 19007KT 15SM SCT250 M07/M13 A3017 RMK CI1 SLP283

CYQF;2009-01-20 20:00;CYQF 202000Z 20005KT 15SM BKN250 M05/M12 A3015 RMK CI1 SLP277

CYQF;2009-01-20 21:00;CYQF 202100Z 19003KT 15SM BKN250 M02/M11 A3012 RMK CI1 SLP260

CYQF;2009-01-20 22:00;CYQF 202200Z 21005KT 15SM BKN250 M01/M09 A3009 RMK CI2 SLP251

CYQF;2009-01-20 23:00;CYQF 202300Z 00000KT 15SM BKN250 M00/M10 A3009 RMK CI2 SLP250

CYQF;2009-01-21 00:00;CYQF 210000Z 20005KT 15SM BKN250 M02/M11 A3007 RMK CI2 SLP240

CYQF;2009-01-21 01:00;CYQF 210100Z 19003KT 15SM SCT250 M08/M13 A3005 RMK CI2 SLP234

CYQF;2009-01-21 02:00;CYQF 210200Z 23006KT 15SM SCT250 M11/M15 A3004 RMK CI2 SLP230

CYQF;2009-01-21 03:00;CYQF 210300Z 20004KT 15SM FEW250 M12/M16 A3003 RMK CI1 SLP238

CYQF;2009-01-21 04:00;CYQF 210400Z 19005KT 15SM FEW250 M12/M16 A3002 RMK CI1 SLP235

CYQF;2009-01-21 05:00;CYQF 210500Z 21003KT 15SM FEW250 M13/M16 A3003 RMK CI1 SLP237

CYQF;2009-01-21 06:00;CYQF 210600Z 20005KT 15SM SKC M14/M16 A3001 RMK SLP231

CYQF;2009-01-21 07:00;CYQF 210700Z 19008KT 15SM SKC M14/M17 A3001 RMK SLP230

CYQF;2009-01-21 08:00;CYQF 210800Z 19008KT 15SM SKC M12/M16 A3000 RMK SLP227

CYQF;2009-01-21 09:00;CYQF 210900Z 19007KT 15SM SKC M14/M18 A2999 RMK SLP214

CYQF;2009-01-21 10:00;CYQF 211000Z 19008KT 15SM SKC M14/M17 A2998 RMK SLP213

CYQF;2009-01-21 11:00;CYQF 211100Z 19006KT 15SM SKC M14/M17 A2998 RMK SLP211

CYQF;2009-01-21 12:00;CYQF 211200Z 22007KT 15SM SKC M16/M18 A2997 RMK SLP209

CYQF;2009-01-21 13:00;CYQF 211300Z 20005KT 15SM SKC M13/M16 A2996 RMK SLP207

CYQF;2009-01-21 14:00;CYQF 211400Z 19007KT 15SM SKC M13/M17 A2995 RMK SLP205

CYQF;2009-01-21 15:00;CYQF 211500Z 20008KT 15SM FEW250 M15/M18 A2995 RMK CI0 SLP215

CYQF;2009-01-21 16:00;CYQF 211600Z 20008KT 15SM FEW250 M16/M20 A2995 RMK CI1 SLP213

CYQF;2009-01-21 17:00;CYQF 211700Z 20002KT 15SM FEW250 M12/M16 A2995 RMK CI1 SLP213

CYQF;2009-01-21 18:00;CYQF 211800Z 20004KT 15SM FEW250 M08/M14 A2994 RMK CI1 SLP205

CYQF;2009-01-21 19:00;CYQF 211900Z 19005KT 15SM SCT250 M06/M13 A2993 RMK CI2 SLP201

CYQF;2009-01-21 20:00;CYQF 212000Z 21003KT 15SM BKN250 M04/M11 A2991 RMK CI2 SLP194

CYQF;2009-01-21 21:00;CYQF 212100Z 18004KT 15SM BKN250 M04/M11 A2989 RMK CI2 SLP182

CYQF;2009-01-21 22:00;CYQF 212200Z 00000KT 15SM BKN250 M04/M11 A2988 RMK CI2 SLP180

CYQF;2009-01-21 23:00;CYQF 212300Z 18004KT 15SM BKN250 M03/M12 A2986 RMK CI2 SLP175

CYQF;2009-01-22 00:00;CYQF 220000Z 20005KT 15SM BKN250 M09/M14 A2984 RMK CI2 SLP172

CYQF;2009-01-22 01:00;CYQF 220100Z 00000KT 15SM BKN250 M08/M13 A2983 RMK CI2 SLP168

CYQF;2009-01-22 02:00;CYQF 220200Z 20005KT 15SM SCT250 M12/M16 A2980 RMK CI1 SLP161

CYQF;2009-01-22 03:00;CYQF 220300Z 24003KT 15SM SCT250 M13/M17 A2978 RMK CI1 SLP157

CYQF;2009-01-22 04:00;CYQF 220400Z 00000KT 15SM FEW250 M13/M17 A2977 RMK CI0 SLP154

CYQF;2009-01-22 05:00;CYQF 220500Z 21003KT 15SM BKN250 M15/M18 A2976 RMK CI1 SLP151

CYQF;2009-01-22 06:00;CYQF 220600Z 00000KT 15SM BKN250 M12/M16 A2976 RMK CI2 SLP140

CYQF;2009-01-22 07:00;CYQF 220700Z 00000KT 15SM SCT250 M13/M17 A2979 RMK CI2 SLP148

CYQF;2009-01-22 08:00;CYQF 220800Z 35013KT 15SM SCT040 BKN250 M07/M12 A2985 RMK SC3CI2 PRESRR SLP169

CYQF;2009-01-22 09:00;CYQF 220900Z 36016G25KT 15SM BKN025 BKN250 M06/M10 A2991 RMK SC6CI1 SLP181

CYQF;2009-01-22 10:00;CYQF 221000Z 34020G30KT 15SM OVC014 M06/M10 A2995 RMK SC8 SLP194

CYQF;2009-01-22 10:34;CYQF 221034Z 34015G26KT 15SM -SN OVC020 RMK SC8

CYQF;2009-01-22 11:00;CYQF 221100Z 34020G33KT 15SM -SN OVC020 M07/M11 A2999 RMK SC8 SLP204

CYQF;2009-01-22 11:41;CYQF 221141Z 34017G27KT 15SM -SN DRSN FEW008 SCT020 OVC050 RMK SF2SC2SC4

CYQF;2009-01-22 12:00;CYQF 221200Z 33017G26KT 10SM -SN DRSN FEW008 SCT020 OVC050 M08/M11 A3003 RMK SF2SC2SC4 SLP230

CYQF;2009-01-22 12:04;CYQF 221204Z 35023G37KT 2SM -SN BLSN SCT020 OVC050 RMK SN2SC2SC4

CYQF;2009-01-22 13:00;CYQF 221300Z 34024G32KT 2SM -SN BLSN BKN050 OVC090 M11/M15 A3010 RMK SN2SC6AC1 VIS VRB 1-3 PRESRR SLP252

CYQF;2009-01-22 13:36;CYQF 221336Z 34020G35KT 1SM -SN BLSN VV010 RMK SN8 VIS VRB 1/2-11/2

CYQF;2009-01-22 14:00;CYQF 221400Z 34020G30KT 1SM -SN BLSN VV011 M13/M16 A3014 RMK SN8 VIS VRB 1/2-11/2 SLP264

CYQF;2009-01-22 15:00;CYQF 221500Z 34017G26KT 1SM -SN BLSN BKN011 OVC090 M15/M18 A3019 RMK SN2SC5AC1 VIS VRB 1/2-2 SLP297

CYQF;2009-01-22 15:35;CYQF 221535Z 34018G29KT 3SM -SN BLSN SCT011 BKN090 RMK SC4AC2 VIS E-SW 1

CYQF;2009-01-22 16:00;CYQF 221600Z 34018G26KT 8SM DRSN SCT015 BKN090 M16/M20 A3025 RMK SC3AC2 OCNL BLSN SLP315

CYQF;2009-01-22 17:00;CYQF 221700Z 33017G24KT 15SM DRSN FEW015 BKN090 M16/M21 A3028 RMK SC2AC2 SLP326

CYQF;2009-01-22 18:00;CYQF 221800Z 33019G29KT 15SM DRSN FEW015 SCT090 M16/M22 A3031 RMK SC2AC2 OCNL BLSN SLP340

CYQF;2009-01-22 19:00;CYQF 221900Z CCA 33010G17KT 15SM DRSN FEW015 FEW090 M16/M22 A3034 RMK SC1AC2 SLP349

CYQF;2009-01-22 20:00;CYQF 222000Z 33017G26KT 15SM DRSN SCT015 BKN070 M17/M22 A3035 RMK SC3AC2 SLP352

CYQF;2009-01-22 21:00;CYQF 222100Z 34018G28KT 15SM DRSN FEW015 BKN070 BKN250 M17/M23 A3035 RMK SC2AC2CI0 OCNL BLSN SLP349

CYQF;2009-01-22 22:00;CYQF 222200Z CCA 35014G24KT 15SM DRSN FEW015 BKN070 BKN250 M17/M23 A3038 RMK SC2AC2CI1 OCNL BLSN SLP358

CYQF;2009-01-22 23:00;CYQF 222300Z 36010KT 15SM FEW015 FEW070 FEW250 M18/M25 A3042 RMK SC1AC1CI1 SLP368

CYQF;2009-01-23 00:00;CYQF 230000Z 36013G18KT 15SM FEW015 FEW090 SCT250 M19/M26 A3045 RMK SC1AC2CI0 SLP388

CYQF;2009-01-23 01:00;CYQF 230100Z 35015G20KT 15SM FEW015 FEW090 BKN250 M20/M27 A3049 RMK SC1AC2CI0 SLP400

CYQF;2009-01-23 02:00;CYQF 230200Z 33010G15KT 15SM FEW015 BKN090 M20/M26 A3052 RMK SC2AC6 SLP410

CYQF;2009-01-23 02:05;CYQF 230205Z CCA 34010KT 10SM -SN FEW015 BKN070 RMK SC2AC6

CYQF;2009-01-23 03:00;CYQF 230300Z 36010G16KT 6SM -SN OVC070 M20/M26 A3054 RMK AC8 SLP429

CYQF;2009-01-23 04:00;CYQF 230400Z 33010KT 3SM -SN OVC100 M20/M26 A3056 RMK AC4 SLP435

CYQF;2009-01-23 05:00;CYQF 230500Z 33008KT 10SM -SN FEW015 SCT070 OVC250 M21/M26 A3058 RMK SC1AC2CI0 VIS S 6 SLP441

CYQF;2009-01-23 06:00;CYQF 230600Z 33010KT 10SM -SN FEW015 OVC150 M21/M27 A3059 RMK SC1AC1 SLP450

CYQF;2009-01-23 07:00;CYQF 230700Z 33010KT 10SM -SN FEW020 BKN150 M22/M27 A3061 RMK SC2AC2 SLP455

CYQF;2009-01-23 08:00;CYQF 230800Z 35010KT 10SM -SN FEW020 BKN120 M22/M28 A3063 RMK SC2AC2 SLP462

CYQF;2009-01-23 09:00;CYQF 230900Z 35007KT 10SM -SN SCT030 M23/M28 A3064 RMK SC4 SLP469

CYQF;2009-01-23 10:00;CYQF 231000Z 34005KT 10SM -SN SCT030 M24/M29 A3065 RMK SC4 SLP472

CYQF;2009-01-23 11:00;CYQF 231100Z 32005KT 10SM -SN SCT030 BKN120 M24/M28 A3067 RMK SC3AC2 SLP478

CYQF;2009-01-23 12:00;CYQF 231200Z 30004KT 10SM -SN FEW030 BKN120 M24/M29 A3066 RMK SC2AC2 SLP481

CYQF;2009-01-23 13:00;CYQF 231300Z 31003KT 10SM -SN FEW030 BKN100 M25/M29 A3065 RMK SC2AC2 SLP478

CYQF;2009-01-23 14:00;CYQF 231400Z 31003KT 10SM -SN FEW030 BKN100 M25/M29 A3066 RMK SC2AC4 SLP482

CYQF;2009-01-23 15:00;CYQF 231500Z 00000KT 15SM -SN FEW030 BKN100 M24/M29 A3066 RMK SC2AC5 SLP480

CYQF;2009-01-23 15:40;CYQF 231540Z 00000KT 15SM FEW030 BKN100 BKN250 RMK SC2AC4CI0

CYQF;2009-01-23 16:00;CYQF 231600Z 00000KT 15SM FEW030 BKN100 BKN250 M25/M29 A3065 RMK SC2AC4CI0 SLP477

CYQF;2009-01-23 17:00;CYQF 231700Z 00000KT 8SM SCT120 M25/M29 A3064 RMK AC3 BR SLP474

CYQF;2009-01-23 18:00;CYQF 231800Z 00000KT 12SM SCT100 BKN230 M24/M29 A3064 RMK AC3CI1 BR SLP474

CYQF;2009-01-23 19:00;CYQF 231900Z 00000KT 12SM SCT100 BKN230 M24/M29 A3063 RMK AC3CI1 SLP471

CYQF;2009-01-23 20:00;CYQF 232000Z 17003KT 12SM FEW100 BKN230 M23/M28 A3059 RMK AC2CI2 SLP460

CYQF;2009-01-23 21:00;CYQF 232100Z 00000KT 15SM FEW015 FEW100 SCT230 M22/M28 A3058 RMK SF1AC1CI1 SF TR OVR CITY SLP454

CYQF;2009-01-23 22:00;CYQF 232200Z 00000KT 15SM FEW100 BKN230 M22/M29 A3056 RMK AC2CI2 SLP450

CYQF;2009-01-23 23:00;CYQF 232300Z 00000KT 15SM FEW100 BKN230 M22/M28 A3055 RMK AC2CI5 SLP447

CYQF;2009-01-24 00:00;CYQF 240000Z 00000KT 15SM FEW120 BKN250 M23/M28 A3055 RMK AC2CI2 SLP447

CYQF;2009-01-24 01:00;CYQF 240100Z 00000KT 15SM FEW120 BKN250 M23/M28 A3055 RMK AC2CI3 SLP446

CYQF;2009-01-24 01:45;CYQF 240145Z 00000KT 10SM FEW120 SCT250 RMK AC1CI1

CYQF;2009-01-24 02:00;CYQF 240200Z 00000KT 8SM SKC M23/M28 A3054 RMK IC SLP442

CYQF;2009-01-24 03:00;CYQF 240300Z 00000KT 12SM FEW120 SCT250 M24/M29 A3053 RMK AC1CI0 IC SLP441

CYQF;2009-01-24 04:00;CYQF 240400Z 00000KT 12SM FEW120 BKN250 M24/M28 A3052 RMK AC1CI2 IC SLP438

CYQF;2009-01-24 05:00;CYQF 240500Z 00000KT 12SM FEW120 BKN250 M24/M28 A3052 RMK AC2CI2 IC SLP438

CYQF;2009-01-24 06:00;CYQF 240600Z 00000KT 12SM OVC250 M24/M28 A3050 RMK CI5 IC SLP431

CYQF;2009-01-24 07:00;CYQF 240700Z 00000KT 15SM OVC250 M24/M28 A3052 RMK CI5 IC SLP435

CYQF;2009-01-24 08:00;CYQF 240800Z 30002KT 15SM FEW100 OVC250 M24/M28 A3052 RMK AC2CI2 IC SLP435

CYQF;2009-01-24 09:00;CYQF 240900Z 00000KT 15SM FEW100 OVC250 M24/M29 A3050 RMK AC2CI3 IC SLP427

CYQF;2009-01-24 10:00;CYQF 241000Z CCA 00000KT 15SM SCT100 OVC250 M24/M28 A3049 RMK AC3CI2 IC SLP425

CYQF;2009-01-24 11:00;CYQF 241100Z 26002KT 15SM FEW100 BKN250 M24/M28 A3048 RMK AC2CI2 IC SLP423

CYQF;2009-01-24 11:35;CYQF 241135Z 00000KT 15SM FEW100 BKN250 RMK AC2CI1

CYQF;2009-01-24 12:00;CYQF 241200Z 00000KT 15SM FEW100 BKN250 M25/M29 A3048 RMK AC2CI2 SLP422

CYQF;2009-01-24 13:00;CYQF 241300Z 00000KT 15SM FEW100 BKN250 M24/M29 A3048 RMK AC2CI1 SLP422

CYQF;2009-01-24 14:00;CYQF 241400Z 30003KT 15SM FEW100 BKN250 M25/M29 A3048 RMK AC2CI1 SLP422

CYQF;2009-01-24 15:00;CYQF 241500Z 30004KT 12SM FEW100 M26/M31 A3048 RMK AC2 SLP427

CYQF;2009-01-24 16:00;CYQF 241600Z 27004KT 12SM FEW100 SCT250 M27/M32 A3048 RMK AC1CI1 SLP426

CYQF;2009-01-24 17:00;CYQF 241700Z 28005KT 15SM SCT250 M26/M30 A3047 RMK CI1 SLP425

CYQF;2009-01-24 18:00;CYQF 241800Z 27006KT 15SM FEW250 M25/M29 A3046 RMK CI1 SLP417

CYQF;2009-01-24 19:00;CYQF 241900Z 27008KT 15SM SKC M24/M28 A3045 RMK SLP414

CYQF;2009-01-24 20:00;CYQF 242000Z 28003KT 15SM SKC M22/M28 A3043 RMK SLP408

CYQF;2009-01-24 21:00;CYQF 242100Z 28006KT 15SM SKC M21/M27 A3041 RMK SLP397

CYQF;2009-01-24 22:00;CYQF 242200Z 29006KT 15SM FEW250 M21/M27 A3041 RMK CI1 SLP395

CYQF;2009-01-24 23:00;CYQF 242300Z 29005KT 15SM SKC M21/M28 A3039 RMK SLP391

CYQF;2009-01-25 00:00;CYQF 250000Z 25004KT 15SM SKC M24/M30 A3038 RMK SLP390

CYQF;2009-01-25 01:00;CYQF 250100Z 21005KT 15SM SKC M26/M31 A3037 RMK SLP386

CYQF;2009-01-25 02:00;CYQF 250200Z 24005KT 15SM SKC M27/M32 A3035 RMK SLP382

CYQF;2009-01-25 03:00;CYQF 250300Z 25008KT 15SM SKC M25/M30 A3036 RMK SLP385

CYQF;2009-01-25 04:00;CYQF 250400Z 32005KT 15SM SKC M26/M32 A3034 RMK SLP381

CYQF;2009-01-25 05:00;CYQF 250500Z 27010KT 15SM SKC M25/M30 A3033 RMK SLP377

CYQF;2009-01-25 06:00;CYQF 250600Z 26012KT 15SM SKC M24/M29 A3032 RMK SLP367

CYQF;2009-01-25 07:00;CYQF 250700Z 25005KT 15SM SKC M25/M30 A3031 RMK SLP364

CYQF;2009-01-25 08:00;CYQF 250800Z 23007KT 15SM FEW090 M23/M28 A3029 RMK AC2 SLP360

CYQF;2009-01-25 09:00;CYQF 250900Z 25006KT 15SM FEW090 M24/M29 A3028 RMK AC2 SLP350

CYQF;2009-01-25 10:00;CYQF 251000Z 29008KT 15SM SKC M21/M28 A3027 RMK SLP346

CYQF;2009-01-25 11:00;CYQF 251100Z 28010KT 15SM SKC M21/M29 A3025 RMK SLP341

CYQF;2009-01-25 12:00;CYQF 251200Z 28008KT 15SM SKC M22/M29 A3024 RMK SLP336

CYQF;2009-01-25 13:00;CYQF 251300Z 29008KT 15SM SKC M21/M30 A3021 RMK SLP327

CYQF;2009-01-25 14:00;CYQF 251400Z 36004KT 15SM SKC M20/M30 A3021 RMK SLP328

CYQF;2009-01-25 15:00;CYQF 251500Z 30010KT 15SM FEW120 M19/M29 A3021 RMK AC1 SLP324

CYQF;2009-01-25 16:00;CYQF 251600Z 20010G15KT 15SM FEW100 M18/M29 A3020 RMK AC1 SLP322

CYQF;2009-01-25 17:00;CYQF 251700Z 31010G15KT 15SM FEW100 M16/M28 A3021 RMK AC1 SLP323

CYQF;2009-01-25 18:00;CYQF 251800Z 31010G15KT 15SM SKC M14/M27 A3022 RMK SLP320

CYQF;2009-01-25 19:00;CYQF 251900Z 34010G15KT 15SM SKC M13/M26 A3022 RMK SLP320

CYQF;2009-01-25 20:00;CYQF 252000Z 34011G20KT 15SM SKC M13/M25 A3020 RMK SLP316

CYQF;2009-01-25 21:00;CYQF 252100Z 35010KT 15SM SKC M13/M25 A3020 RMK SLP310

CYQF;2009-01-25 22:00;CYQF 252200Z 36007KT 15SM SKC M13/M25 A3020 RMK SLP312

CYQF;2009-01-25 23:00;CYQF 252300Z 01007KT 15SM SKC M13/M26 A3021 RMK SLP314

CYQF;2009-01-26 00:00;CYQF 260000Z 36005KT 15SM SKC M14/M26 A3022 RMK SLP317

CYQF;2009-01-26 01:00;CYQF 260100Z 00000KT 15SM SKC M20/M28 A3022 RMK SLP319

CYQF;2009-01-26 02:00;CYQF 260200Z 00000KT 15SM SKC M21/M30 A3023 RMK SLP321

CYQF;2009-01-26 03:00;CYQF 260300Z 00000KT 15SM SKC M24/M31 A3024 RMK SLP332

CYQF;2009-01-26 04:00;CYQF 260400Z 26004KT 15SM SKC M26/M32 A3024 RMK SLP333

CYQF;2009-01-26 05:00;CYQF 260500Z 20005KT 15SM SKC M27/M33 A3025 RMK SLP335

CYQF;2009-01-26 06:00;CYQF 260600Z 21005KT 15SM SKC M29/M35 A3024 RMK SLP335

CYQF;2009-01-26 07:00;CYQF 260700Z 21007KT 15SM SKC M28/M33 A3024 RMK SLP334

CYQF;2009-01-26 08:00;CYQF 260800Z 20005KT 15SM SKC M27/M34 A3024 RMK SLP335

CYQF;2009-01-26 09:00;CYQF 260900Z 20004KT 15SM SKC M27/M33 A3024 RMK SLP328

CYQF;2009-01-26 10:00;CYQF 261000Z 20003KT 15SM SKC M28/M34 A3023 RMK SLP326

CYQF;2009-01-26 11:00;CYQF 261100Z 20005KT 15SM SKC M28/M34 A3022 RMK SLP322

CYQF;2009-01-26 12:00;CYQF 261200Z 20005KT 15SM SKC M28/M34 A3020 RMK SLP320

CYQF;2009-01-26 13:00;CYQF 261300Z 20008KT 15SM SKC M28/M34 A3017 RMK SLP311

CYQF;2009-01-26 14:00;CYQF 261400Z 21007KT 15SM SKC M28/M34 A3016 RMK SLP306

CYQF;2009-01-26 15:00;CYQF 261500Z 19006KT 15SM SKC M28/M34 A3015 RMK SLP313

CYQF;2009-01-26 16:00;CYQF 261600Z 21006KT 15SM SKC M26/M33 A3014 RMK SLP309

CYQF;2009-01-26 17:00;CYQF 261700Z 20005KT 15SM SKC M25/M32 A3013 RMK SLP308

CYQF;2009-01-26 18:00;CYQF 261800Z 19005KT 15SM SKC M23/M31 A3010 RMK SLP294

CYQF;2009-01-26 19:00;CYQF 261900Z 19004KT 15SM FEW250 M19/M28 A3006 RMK CI1 SLP283

CYQF;2009-01-26 20:00;CYQF 262000Z 18004KT 15SM FEW250 M15/M26 A3001 RMK CI1 SLP268

CYQF;2009-01-26 21:00;CYQF 262100Z 20003KT 15SM FEW250 M13/M24 A3000 RMK CI1 SLP246

CYQF;2009-01-26 22:00;CYQF 262200Z 20004KT 15SM FEW250 M12/M22 A2996 RMK CI0 SLP234

CYQF;2009-01-26 23:00;CYQF 262300Z 19004KT 15SM FEW120 BKN250 M14/M23 A2994 RMK AC1CI3 SLP229

CYQF;2009-01-27 00:00;CYQF 270000Z 17005KT 15SM BKN250 M15/M24 A2992 RMK CI2 SLP224

CYQF;2009-01-27 01:00;CYQF 270100Z 18004KT 15SM BKN250 M18/M25 A2990 RMK CI3 SLP217

CYQF;2009-01-27 02:00;CYQF 270200Z 18006KT 15SM FEW100 BKN250 M20/M25 A2985 RMK AC2CI4 OBS TAKEN +20 SLP202

CYQF;2009-01-27 03:00;CYQF 270300Z 19004KT 15SM FEW100 BKN250 M20/M26 A2983 RMK AC2CI4 SLP196

CYQF;2009-01-27 04:00;CYQF 270400Z 00000KT 15SM FEW100 SCT250 M20/M26 A2979 RMK AC2CI2 SLP185

CYQF;2009-01-27 05:00;CYQF 270500Z 00000KT 15SM FEW100 SCT250 M21/M27 A2974 RMK AC2CI2 SLP169

CYQF;2009-01-27 06:00;CYQF 270600Z 20005KT 15SM FEW100 SCT250 M22/M28 A2972 RMK AC2CI2 SLP153

CYQF;2009-01-27 07:00;CYQF 270700Z 20002KT 15SM FEW100 BKN250 M19/M26 A2969 RMK AC2CI2 SLP145

CYQF;2009-01-27 08:00;CYQF 270800Z 18005KT 15SM FEW100 BKN250 M18/M25 A2966 RMK AC2CI2 SLP136

CYQF;2009-01-27 09:00;CYQF 270900Z 20003KT 15SM FEW100 SCT250 M18/M25 A2963 RMK AC2CI1 SLP109

CYQF;2009-01-27 10:00;CYQF 271000Z 20008KT 15SM SCT100 BKN250 M15/M22 A2960 RMK AC3CI2 SLP099

CYQF;2009-01-27 11:00;CYQF 271100Z 19004KT 15SM FEW100 BKN250 M14/M20 A2956 RMK AC2CI2 SLP086

CYQF;2009-01-27 12:00;CYQF 271200Z 22003KT 15SM BKN100 OVC250 M13/M19 A2954 RMK AC6CI2 SLP074

CYQF;2009-01-27 13:00;CYQF 271300Z 19010KT 15SM OVC100 M09/M19 A2950 RMK AC8 VIRGA SLP061

CYQF;2009-01-27 14:00;CYQF 271400Z 23003KT 15SM OVC100 M09/M17 A2947 RMK AC8 SLP052

CYQF;2009-01-27 15:00;CYQF 271500Z 20004KT 15SM OVC100 M07/M13 A2947 RMK AC8 SLP045

CYQF;2009-01-27 16:00;CYQF 271600Z 23010KT 15SM BKN100 M04/M11 A2947 RMK AC6 SLP047

CYQF;2009-01-27 17:00;CYQF 271700Z 24005KT 15SM FEW070 FEW100 BKN200 M03/M11 A2947 RMK AC1AC2CI5 SLP045

CYQF;2009-01-27 18:00;CYQF 271800Z 27011KT 15SM SCT100 BKN200 M01/M09 A2947 RMK AC2CI3 SLP043

CYQF;2009-01-27 19:00;CYQF 271900Z 28005KT 15SM FEW100 BKN250 02/M08 A2946 RMK AC2CI2 SLP040

CYQF;2009-01-27 20:00;CYQF 272000Z 25005KT 15SM FEW100 BKN250 01/M09 A2946 RMK AC2CI2 SLP039

CYQF;2009-01-27 21:00;CYQF 272100Z 25008KT 15SM FEW100 BKN250 02/M10 A2945 RMK AC2CI2 SLP026

CYQF;2009-01-27 22:00;CYQF 272200Z 27012KT 15SM FEW100 SCT250 03/M10 A2944 RMK AC1CI1 SLP024

CYQF;2009-01-27 23:00;CYQF 272300Z 28013G22KT 15SM FEW100 BKN250 01/M11 A2945 RMK AC1CI2 SLP028

CYQF;2009-01-28 00:00;CYQF 280000Z 27008KT 15SM SCT100 BKN250 00/M11 A2947 RMK AC4CI1 SLP031

CYQF;2009-01-28 01:00;CYQF 280100Z 26008KT 15SM FEW100 BKN250 M03/M13 A2949 RMK AC2CI1 SLP038

CYQF;2009-01-28 02:00;CYQF 280200Z 27009KT 15SM FEW100 SCT250 M03/M13 A2952 RMK AC2CI1 SLP046

CYQF;2009-01-28 03:00;CYQF 280300Z 28006KT 15SM FEW100 M06/M14 A2953 RMK AC2 SLP052

CYQF;2009-01-28 04:00;CYQF 280400Z 27007KT 15SM FEW100 M06/M15 A2956 RMK AC2 SLP060

CYQF;2009-01-28 05:00;CYQF 280500Z 27010KT 15SM BKN100 M04/M14 A2957 RMK AC5 SLP065

CYQF;2009-01-28 06:00;CYQF 280600Z 27008KT 15SM SCT100 M05/M14 A2959 RMK AC4 SLP064

CYQF;2009-01-28 07:00;CYQF 280700Z 27010KT 15SM FEW100 SCT250 M05/M14 A2961 RMK AC2CI0 SLP069

CYQF;2009-01-28 08:00;CYQF 280800Z 26013KT 15SM BKN100 OVC250 M03/M12 A2961 RMK AC6CI0 VIRGA SLP071

CYQF;2009-01-28 09:00;CYQF 280900Z 30010G15KT 15SM BKN100 BKN250 M01/M11 A2964 RMK AC6CI0 VIRGA SLP075

CYQF;2009-01-28 10:00;CYQF 281000Z 32008KT 15SM OVC080 M02/M11 A2965 RMK AC8 VIRGA SLP078

CYQF;2009-01-28 11:00;CYQF 281100Z 28003KT 15SM SCT050 OVC080 M03/M11 A2967 RMK SC3AC5 VIRGA SLP085

CYQF;2009-01-28 12:00;CYQF 281200Z 00000KT 15SM FEW050 OVC080 M03/M11 A2970 RMK SC2AC6 VIRGA SLP098

CYQF;2009-01-28 13:00;CYQF 281300Z 27004KT 15SM FEW050 OVC080 M04/M11 A2972 RMK SC2AC6 VIRGA SLP105

CYQF;2009-01-28 14:00;CYQF 281400Z 28004KT 15SM FEW050 BKN100 M03/M11 A2974 RMK SC2AC6 SLP112

CYQF;2009-01-28 15:00;CYQF 281500Z 30007KT 15SM SCT100 BKN210 M03/M12 A2978 RMK AC3CI2 SLP133

CYQF;2009-01-28 16:00;CYQF 281600Z 32007KT 15SM SCT090 BKN220 M05/M11 A2982 RMK AC4CI1 VIRGA SLP146

CYQF;2009-01-28 17:00;CYQF 281700Z 30005KT 15SM FEW050 SCT090 BKN250 M04/M11 A2984 RMK SC2AC2CI1 VIRGA ALQDS SHS SE SLP153

CYQF;2009-01-28 18:00;CYQF 281800Z 33012G20KT 15SM SCT050 BKN090 BKN250 M00/M10 A2986 RMK SC3AC2CI1 VIRGA ALQDS SLP158

CYQF;2009-01-28 19:00;CYQF 281900Z 32013G20KT 15SM BKN050 BKN090 M00/M08 A2990 RMK SC6AC2 SLP168

CYQF;2009-01-28 20:00;CYQF 282000Z 31011G18KT 15SM BKN040 BKN090 M00/M08 A2991 RMK SC6AC2 CU EMBDD VIRGA SLP172

CYQF;2009-01-28 21:00;CYQF 282100Z 33010G15KT 15SM BKN040 BKN090 M00/M08 A2991 RMK SC5AC2 VIRGA SLP170

CYQF;2009-01-28 22:00;CYQF 282200Z 36010KT 15SM BKN040 BKN090 M02/M06 A2993 RMK SC5AC2 SLP175

CYQF;2009-01-28 22:22;CYQF 282222Z 36006KT 15SM -SHSN BKN040 OVC090 RMK SC6AC2 CU EMBD

CYQF;2009-01-28 22:33;CYQF 282233Z 33012G18KT 2SM -SN DRSN OVC035 RMK SN3SC5

CYQF;2009-01-28 22:49;CYQF 282249Z 33012G18KT 8SM -SN DRSN OVC035 RMK SC8 CU EMBD

CYQF;2009-01-28 23:00;CYQF 282300Z 32017G33KT 4SM -SN DRSN FEW015 OVC030 M01/M08 A2996 RMK CF1SC7 CU EMBD SLP186

CYQF;2009-01-28 23:42;CYQF 282342Z 35011KT 15SM FEW015 BKN030 RMK CF1SC6

CYQF;2009-01-29 00:00;CYQF 290000Z 34011KT 15SM SCT030 BKN090 BKN250 M02/M07 A2999 RMK SC3AC2CI1 SLP202

CYQF;2009-01-29 01:00;CYQF 290100Z 31006KT 15SM FEW030 FEW090 BKN250 M05/M10 A3001 RMK SC1AC2CI1 SLP208

CYQF;2009-01-29 02:00;CYQF 290200Z 00000KT 15SM FEW030 SCT090 M05/M10 A3003 RMK SC1AC2 SLP215

CYQF;2009-01-29 03:00;CYQF 290300Z 21005KT 15SM FEW030 BKN070 M09/M13 A3004 RMK SC1AC5 SLP227

CYQF;2009-01-29 04:00;CYQF 290400Z 25004KT 15SM BKN080 BKN250 M08/M11 A3004 RMK AC5CI1 SLP228

CYQF;2009-01-29 05:00;CYQF 290500Z 18004KT 15SM BKN100 M09/M11 A3005 RMK AC6 SLP229

CYQF;2009-01-29 06:00;CYQF 290600Z 19003KT 15SM SCT100 BKN250 M09/M12 A3003 RMK AC2CI1 SLP222

CYQF;2009-01-29 07:00;CYQF 290700Z 21004KT 15SM BKN120 M10/M13 A3003 RMK AC7 SLP220

CYQF;2009-01-29 08:00;CYQF 290800Z 19005KT 15SM OVC100 M10/M14 A3001 RMK AC8 SLP216

CYQF;2009-01-29 09:00;CYQF 290900Z 22005KT 15SM OVC100 M10/M14 A2999 RMK AC8 SLP208

CYQF;2009-01-29 10:00;CYQF 291000Z 20004KT 15SM OVC100 M09/M13 A2997 RMK AC8 SLP203

CYQF;2009-01-29 11:00;CYQF 291100Z 22003KT 15SM OVC080 M08/M12 A2995 RMK AC8 SLP197

CYQF;2009-01-29 12:00;CYQF 291200Z 00000KT 15SM OVC080 M09/M12 A2992 RMK AC8 SLP185

CYQF;2009-01-29 13:00;CYQF 291300Z 21005KT 15SM OVC080 M06/M12 A2991 RMK AC8 SLP180

CYQF;2009-01-29 13:32;CYQF 291332Z 21005KT 10SM -SN OVC080 RMK AC8

CYQF;2009-01-29 14:00;CYQF 291400Z 17004KT 15SM -SN OVC100 M06/M10 A2987 RMK AC8 SLP170

CYQF;2009-01-29 15:00;CYQF 291500Z 22005KT 15SM -SN OVC090 M06/M10 A2987 RMK AC8 SLP172

CYQF;2009-01-29 15:19;CYQF 291519Z 21003KT 10SM -SN BKN012 OVC090 RMK SC5AC3

CYQF;2009-01-29 15:51;CYQF 291551Z 20005KT 2 1/2SM -SN OVC014 RMK SC8

CYQF;2009-01-29 16:00;CYQF 291600Z 19004KT 2 1/2SM -SN OVC014 M06/M09 A2987 RMK SC8 SLP172

CYQF;2009-01-29 17:00;CYQF 291700Z 21007KT 1SM -SN OVC012 M05/M06 A2987 RMK SN5SC3 SLP171

CYQF;2009-01-29 18:00;CYQF 291800Z 23009KT 1SM -SN VV007 M03/M04 A2987 RMK SN8 /S02/ SLP167

CYQF;2009-01-29 19:00;CYQF 291900Z 22007KT 8SM -RASN OVC020 M01/M02 A2986 RMK SC8 SLP164

CYQF;2009-01-29 20:00;CYQF 292000Z 24009KT 15SM -RA FEW008 SCT020 BKN070 OVC250 00/M01 A2984 RMK SF1SC3AC2CI1 SLP158

CYQF;2009-01-29 21:00;CYQF 292100Z 30005KT 15SM -RA BKN030 OVC070 02/M00 A2983 RMK SC6AC2 CU EMBDD SLP150

CYQF;2009-01-29 21:29;CYQF 292129Z 00000KT 15SM BKN040 OVC070 RMK SC6AC2 CU EMBDD

CYQF;2009-01-29 22:00;CYQF 292200Z 23005KT 15SM BKN040 OVC070 02/M01 A2983 RMK SC6AC2 CU EMBDD SLP151

CYQF;2009-01-29 23:00;CYQF 292300Z 21005KT 15SM BKN040 OVC070 02/M01 A2985 RMK SC6AC2 SLP155

CYQF;2009-01-30 00:00;CYQF 300000Z 21006KT 15SM BKN040 BKN070 02/M01 A2985 RMK SC6AC2 SLP157

CYQF;2009-01-30 01:00;CYQF 300100Z 20004KT 15SM FEW040 OVC090 01/M02 A2986 RMK SC1AC5 SLP160

CYQF;2009-01-30 02:00;CYQF 300200Z 20006KT 15SM FEW040 BKN090 OVC220 00/M04 A2986 RMK SC1AC5CI2 SLP160

CYQF;2009-01-30 03:00;CYQF 300300Z 23006KT 15SM SCT090 OVC220 M01/M05 A2987 RMK AC3CI4 SLP164

CYQF;2009-01-30 04:00;CYQF 300400Z 23008KT 15SM FEW030 SCT090 OVC220 M02/M05 A2987 RMK SC1AC2CI3 SLP164

CYQF;2009-01-30 05:00;CYQF 300500Z 22005KT 15SM FEW220 M01/M06 A2988 RMK CI2 SLP165

CYQF;2009-01-30 06:00;CYQF 300600Z 24007KT 15SM FEW220 M01/M06 A2988 RMK CI1 SLP162

CYQF;2009-01-30 07:00;CYQF 300700Z 23006KT 15SM BKN210 M01/M07 A2988 RMK CI3 SLP163

CYQF;2009-01-30 08:00;CYQF 300800Z 22006KT 15SM OVC150 M02/M07 A2987 RMK AC8 SLP161

CYQF;2009-01-30 09:00;CYQF 300900Z 22008KT 15SM OVC150 M01/M07 A2988 RMK AC8 SLP157

CYQF;2009-01-30 10:00;CYQF 301000Z 23006KT 15SM OVC120 00/M07 A2989 RMK AC8 SLP161

CYQF;2009-01-30 11:00;CYQF 301100Z 24006KT 15SM OVC120 M00/M07 A2988 RMK AC8 SLP157

CYQF;2009-01-30 12:00;CYQF 301200Z 23008KT 15SM OVC120 02/M07 A2986 RMK AC8 SLP148

CYQF;2009-01-30 13:00;CYQF 301300Z 23006KT 15SM OVC120 01/M07 A2986 RMK AC8 SLP147

CYQF;2009-01-30 14:00;CYQF 301400Z 16003KT 15SM OVC120 03/M07 A2984 RMK AC8 SLP140

CYQF;2009-01-30 15:00;CYQF 301500Z 18006KT 15SM OVC120 01/M07 A2983 RMK AC8 SLP139

CYQF;2009-01-30 16:00;CYQF 301600Z 20005KT 15SM OVC120 M01/M08 A2978 RMK AC8 SLP126

CYQF;2009-01-30 17:00;CYQF 301700Z 21008KT 15SM BKN120 OVC250 02/M06 A2975 RMK AC6CI2 SLP116

CYQF;2009-01-30 18:00;CYQF 301800Z 20013KT 15SM BKN100 OVC250 03/M05 A2973 RMK AC6CI2 SLP105

CYQF;2009-01-30 19:00;CYQF 301900Z 22010KT 15SM BKN100 OVC250 06/M05 A2971 RMK AC6CI2 SLP099

CYQF;2009-01-30 20:00;CYQF 302000Z 18010KT 15SM BKN100 OVC250 05/M05 A2967 RMK AC6CI2 SLP086

CYQF;2009-01-30 21:00;CYQF 302100Z 19012KT 15SM BKN100 OVC250 06/M05 A2964 RMK AC6CI2 SLP068

CYQF;2009-01-30 22:00;CYQF 302200Z 19012G18KT 15SM BKN100 BKN250 05/M04 A2959 RMK AC6CI2 SLP054

CYQF;2009-01-30 23:00;CYQF 302300Z 20015G20KT 15SM BKN120 BKN250 04/M03 A2957 RMK AC5CI2 SLP047

CYQF;2009-01-31 00:00;CYQF 310000Z 20010G15KT 15SM FEW120 BKN250 04/M04 A2953 RMK AC1CI2 SLP030

CYQF;2009-01-31 01:00;CYQF 310100Z 21010G15KT 15SM FEW050 BKN250 04/M05 A2948 RMK SC1CI2 SLP016

CYQF;2009-01-31 02:00;CYQF 310200Z 24006KT 15SM FEW050 SCT250 01/M08 A2943 RMK SC1CI2 SLP998

CYQF;2009-01-31 03:00;CYQF 310300Z 21007KT 15SM SCT250 02/M07 A2939 RMK CI2 SLP985

CYQF;2009-01-31 04:00;CYQF 310400Z 23008KT 15SM SCT250 03/M07 A2935 RMK CI2 SLP972

CYQF;2009-01-31 05:00;CYQF 310500Z 27007KT 15SM FEW030 SCT250 02/M07 A2935 RMK SC2CI1 SLP973

CYQF;2009-01-31 05:40;CYQF 310540Z 34030G42KT 15SM FEW004 SCT030 RMK SF2SC2 DRSN WND SHFT 0525

CYQF;2009-01-31 06:00;CYQF 310600Z CCA 33038G54KT 1/2SM BLSN SCT006 BKN015 M02/M04 A2946 RMK BLSN3SF1SC2 PRESRR SLP013

CYQF;2009-01-31 06:22;CYQF 310622Z 34030G38KT 1/4SM +BLSN VV008 RMK BLSN8

CYQF;2009-01-31 07:00;CYQF 310700Z 34030G40KT 1/2SM BLSN OVC015 M03/M05 A2953 RMK BLSN5SC3 SLP033

CYQF;2009-01-31 07:08;CYQF 310708Z 35020G30KT 3SM BLSN OVC015 RMK BLSN3SC5

CYQF;2009-01-31 07:38;CYQF 310738Z 32020G25KT 10SM DRSN FEW015 OVC075 RMK SC2AC6

CYQF;2009-01-31 08:00;CYQF 310800Z 32020G30KT 15SM DRSN OVC075 M01/M10 A2954 RMK AC8 SLP037

CYQF;2009-01-31 09:00;CYQF 310900Z 32010G20KT 15SM OVC075 M01/M12 A2957 RMK AC8 SLP047

CYQF;2009-01-31 10:00;CYQF 311000Z 30010KT 15SM OVC075 M01/M11 A2960 RMK AC8 SLP054

CYQF;2009-01-31 11:00;CYQF 311100Z 30010G15KT 15SM SKC M03/M12 A2962 RMK SLP060

CYQF;2009-01-31 12:00;CYQF 311200Z 26010KT 15SM SKC M05/M13 A2963 RMK SLP071

CYQF;2009-01-31 13:00;CYQF 311300Z 27008KT 15SM SKC M05/M13 A2963 RMK SLP072

CYQF;2009-01-31 14:00;CYQF 311400Z 26010G15KT 15SM SKC M05/M14 A2964 RMK SLP075

CYQF;2009-01-31 15:00;CYQF 311500Z 24008KT 15SM SCT050 BKN100 M06/M14 A2966 RMK SC2AC3 VIRGA SLP088

CYQF;2009-01-31 16:00;CYQF 311600Z 26010KT 15SM BKN070 M05/M13 A2968 RMK AC6 VIRGA SLP092

CYQF;2009-01-31 17:00;CYQF 311700Z 30008KT 15SM BKN070 M04/M11 A2970 RMK AC5 SLP100

CYQF;2009-01-31 18:00;CYQF 311800Z 27004KT 15SM BKN070 BKN250 M04/M11 A2972 RMK AC5CI1 SLP110

CYQF;2009-01-31 19:00;CYQF 311900Z 26007KT 15SM FEW040 SCT080 BKN250 M04/M11 A2971 RMK SC2AC2CI1 SLP108

CYQF;2009-01-31 20:00;CYQF 312000Z 27010KT 15SM FEW040 SCT080 BKN250 M02/M10 A2972 RMK SC1AC3CI0 SLP109

CYQF;2009-01-31 21:00;CYQF 312100Z 28012KT 15SM FEW040 BKN080 BKN250 M02/M09 A2972 RMK SC2AC3CI0 SLP107

CYQF;2009-01-31 22:00;CYQF 312200Z 27007KT 15SM FEW040 FEW080 FEW250 M02/M11 A2973 RMK SC1AC1CI0 SLP108

CYQF;2009-01-31 23:00;CYQF 312300Z 28007KT 15SM FEW025 SCT080 BKN250 M01/M11 A2975 RMK CU2AC1CI1 VIRGA SLP114

CYQF;2009-02-01 01:00;CYQF 010100Z 30010G15KT 15SM BKN025 BKN080 M03/M15 A2980 RMK SC5AC2 VIRGA SLP135

CYQF;2009-02-01 02:00;CYQF 010200Z 31014G20KT 15SM SCT080 M04/M16 A2982 RMK AC4 SLP141

CYQF;2009-02-01 03:00;CYQF 010300Z 30010G15KT 15SM FEW080 M05/M16 A2985 RMK AC2 SLP160

CYQF;2009-02-01 04:00;CYQF 010400Z 10012KT 15SM FEW080 M06/M17 A2988 RMK AC2 SLP170

CYQF;2009-02-01 05:00;CYQF 010500Z 30012G20KT 15SM FEW090 M06/M17 A2992 RMK AC2 SLP181

CYQF;2009-02-01 06:00;CYQF 010600Z 28010KT 15SM FEW090 M08/M18 A2995 RMK AC2 SLP195

CYQF;2009-02-01 07:00;CYQF 010700Z 29006KT 15SM FEW090 M08/M17 A2997 RMK AC2 SLP202

CYQF;2009-02-01 08:00;CYQF 010800Z 30010KT 15SM SCT060 M08/M17 A2998 RMK SC4 VIRGA SLP206

CYQF;2009-02-01 09:00;CYQF 010900Z 30010KT 15SM SCT060 M08/M17 A2999 RMK SC2 SLP207

CYQF;2009-02-01 10:00;CYQF 011000Z 29008KT 15SM BKN090 M09/M17 A3003 RMK AC3 SLP218

CYQF;2009-02-01 11:00;CYQF 011100Z 28005KT 15SM BKN090 M10/M17 A3005 RMK AC2 SLP226

CYQF;2009-02-01 12:00;CYQF 011200Z 29008KT 15SM BKN090 M10/M17 A3006 RMK AC2 SLP233

CYQF;2009-02-01 13:00;CYQF 011300Z 25006KT 15SM BKN090 M12/M17 A3007 RMK AC2 SLP235

CYQF;2009-02-01 14:00;CYQF 011400Z 24005KT 15SM SCT090 M12/M18 A3007 RMK AC2 SLP235

CYQF;2009-02-01 15:00;CYQF 011500Z 19004KT 15SM FEW100 SCT250 M14/M20 A3008 RMK AC1CI0 SLP249

CYQF;2009-02-01 16:00;CYQF 011600Z 22010KT 15SM FEW100 BKN250 M13/M21 A3010 RMK AC1CI1 SLP254

CYQF;2009-02-01 17:00;CYQF 011700Z 21006KT 15SM FEW100 BKN250 M12/M20 A3010 RMK AC1CI2 SLP255

CYQF;2009-02-01 18:00;CYQF 011800Z 23004KT 15SM FEW100 BKN250 M09/M18 A3010 RMK AC1CI2 SLP255

CYQF;2009-02-01 19:00;CYQF 011900Z 24002KT 15SM BKN250 M07/M17 A3008 RMK CI3 SLP250

CYQF;2009-02-01 20:00;CYQF 012000Z 18004KT 15SM BKN250 M06/M16 A3007 RMK CI2 SLP247

CYQF;2009-02-01 21:00;CYQF 012100Z 15003KT 15SM BKN250 M05/M14 A3006 RMK CI2 SLP234

CYQF;2009-02-01 22:00;CYQF 012200Z 15004KT 15SM OVC250 M06/M14 A3004 RMK CI4 SLP228

CYQF;2009-02-01 23:00;CYQF 012300Z 17002KT 15SM FEW120 OVC250 M06/M14 A3003 RMK AC2CI3 SLP226

CYQF;2009-02-02 00:00;CYQF 020000Z 15006KT 15SM SCT100 OVC250 M06/M14 A3002 RMK AC3CI3 SLP223

CYQF;2009-02-02 01:00;CYQF 020100Z 19005KT 15SM SCT100 OVC250 M08/M14 A3001 RMK AC3CI3 SLP221

CYQF;2009-02-02 02:00;CYQF 020200Z 19005KT 15SM SCT100 OVC180 M09/M15 A3000 RMK AC3AS2 SLP218

CYQF;2009-02-02 03:00;CYQF 020300Z 17007KT 15SM FEW100 OVC180 M08/M14 A2999 RMK AC2AS4 SLP220

CYQF;2009-02-02 04:00;CYQF 020400Z 16005KT 15SM FEW100 BKN200 M08/M14 A2998 RMK AC2CI2 SLP218

CYQF;2009-02-02 05:00;CYQF 020500Z 14003KT 15SM SCT210 M08/M15 A2996 RMK CI2 SLP212

CYQF;2009-02-02 06:00;CYQF 020600Z 00000KT 15SM BKN210 M09/M15 A2996 RMK CI4 SLP207

CYQF;2009-02-02 07:00;CYQF 020700Z 00000KT 15SM OVC210 M08/M15 A2995 RMK CI5 SLP202

CYQF;2009-02-02 08:00;CYQF 020800Z 17006KT 15SM OVC150 M09/M14 A2993 RMK AC8 SLP198

CYQF;2009-02-02 09:00;CYQF 020900Z 14006KT 15SM OVC150 M09/M14 A2991 RMK AC8 SLP184

CYQF;2009-02-02 10:00;CYQF 021000Z 13003KT 15SM SCT150 M10/M15 A2990 RMK AC2 SLP181

CYQF;2009-02-02 11:00;CYQF 021100Z 15003KT 15SM FEW150 BKN210 M10/M14 A2987 RMK AC2CI0 SLP173

CYQF;2009-02-02 12:00;CYQF 021200Z 16005KT 15SM OVC150 M10/M14 A2987 RMK AC8 SLP173

CYQF;2009-02-02 13:00;CYQF 021300Z 17004KT 15SM BKN150 M10/M14 A2984 RMK AC5 SLP164

CYQF;2009-02-02 14:00;CYQF 021400Z 19003KT 15SM FEW150 BKN210 M11/M15 A2983 RMK AC2CI0 SLP160

CYQF;2009-02-02 15:00;CYQF 021500Z 00000KT 15SM FEW120 OVC220 M10/M14 A2982 RMK AC2CI4 SLP158

CYQF;2009-02-02 16:00;CYQF 021600Z 23004KT 15SM FEW120 OVC220 M09/M13 A2982 RMK AC2CI3 SLP158

CYQF;2009-02-02 17:00;CYQF 021700Z 21002KT 15SM FEW120 OVC220 M08/M12 A2981 RMK AC2CI3 SLP154

CYQF;2009-02-02 18:00;CYQF 021800Z 00000KT 15SM SCT120 OVC220 M06/M10 A2981 RMK AC3CI3 SLP150

CYQF;2009-02-02 19:00;CYQF 021900Z 18002KT 15SM SCT120 OVC220 M04/M08 A2979 RMK AC3CI2 SLP146

CYQF;2009-02-02 20:00;CYQF 022000Z 16002KT 15SM FEW120 BKN220 M03/M08 A2979 RMK AC2CI2 SLP145

CYQF;2009-02-02 21:00;CYQF 022100Z 19003KT 15SM FEW120 BKN230 M02/M08 A2980 RMK AC2CI2 SLP144

CYQF;2009-02-02 22:00;CYQF 022200Z 21004KT 15SM FEW100 BKN230 M02/M07 A2983 RMK AC2CI2 SLP151

CYQF;2009-02-02 23:00;CYQF 022300Z 21004KT 15SM FEW100 BKN250 M01/M07 A2985 RMK AC2CI2 SLP160

CYQF;2009-02-03 00:00;CYQF 030000Z 06004KT 15SM FEW100 BKN250 M02/M07 A2990 RMK AC2CI2 SLP179

CYQF;2009-02-03 01:00;CYQF 030100Z 00000KT 15SM FEW100 BKN250 M04/M08 A2993 RMK AC1CI2 SLP187

CYQF;2009-02-03 02:00;CYQF 030200Z 01007KT 15SM FEW100 BKN250 M02/M08 A2995 RMK AC1CI2 SLP195

CYQF;2009-02-03 03:00;CYQF 030300Z 00000KT 15SM SCT080 BKN250 M07/M11 A2998 RMK AC3CI1 ACC ASOCTD SLP212

CYQF;2009-02-03 04:00;CYQF 030400Z 22003KT 15SM FEW080 BKN250 M06/M10 A3001 RMK AC2CI0 SLP222

CYQF;2009-02-03 05:00;CYQF 030500Z 22008KT 15SM FEW250 M08/M11 A3003 RMK CI1 SLP229

CYQF;2009-02-03 06:00;CYQF 030600Z 17006KT 15SM BKN250 M09/M12 A3005 RMK CI0 SLP233

CYQF;2009-02-03 07:00;CYQF 030700Z 18003KT 15SM BKN250 M07/M10 A3006 RMK CI7 SLP237

CYQF;2009-02-03 08:00;CYQF 030800Z 00000KT 15SM BKN250 M07/M10 A3005 RMK CI3 SLP235

CYQF;2009-02-03 09:00;CYQF 030900Z 19007KT 15SM SCT250 M05/M09 A3005 RMK CI2 SLP224

CYQF;2009-02-03 10:00;CYQF 031000Z 18010KT 15SM BKN250 M02/M07 A3003 RMK CI5 SLP220

CYQF;2009-02-03 11:00;CYQF 031100Z 17005KT 15SM OVC150 M02/M07 A3003 RMK AC8 SLP220

CYQF;2009-02-03 12:00;CYQF 031200Z 17005KT 15SM OVC150 M03/M07 A3003 RMK AC5 SLP214

CYQF;2009-02-03 13:00;CYQF 031300Z 18014KT 15SM FEW090 BKN150 M02/M07 A3001 RMK AC1AC5 SLP209

CYQF;2009-02-03 14:00;CYQF 031400Z 18005KT 15SM FEW100 BKN220 M04/M08 A3000 RMK AC2CI2 SLP207

CYQF;2009-02-03 15:00;CYQF 031500Z 18006KT 15SM FEW100 BKN220 M05/M09 A3000 RMK AC2CI2 SLP213

CYQF;2009-02-03 16:00;CYQF 031600Z 23005KT 15SM FEW120 BKN220 M07/M09 A3000 RMK AC2CI2 SLP213

CYQF;2009-02-03 17:00;CYQF 031700Z 18004KT 15SM FEW120 OVC230 M04/M08 A3001 RMK AC2CI2 SLP216

CYQF;2009-02-03 18:00;CYQF 031800Z 19005KT 15SM BKN120 OVC230 M03/M07 A3000 RMK AC5CI2 SLP215

CYQF;2009-02-03 19:00;CYQF 031900Z 20004KT 15SM BKN120 OVC230 M01/M06 A2999 RMK AC5CI2 SLP211

CYQF;2009-02-03 20:00;CYQF 032000Z 20005KT 15SM BKN100 OVC250 M01/M05 A2998 RMK AC6CI2 SLP209

CYQF;2009-02-03 21:00;CYQF 032100Z 19008KT 15SM BKN100 OVC250 02/M04 A2997 RMK AC7CI1 SLP192

CYQF;2009-02-03 22:00;CYQF 032200Z 18008KT 15SM BKN100 OVC250 05/M04 A2994 RMK AC7CI1 SLP184

CYQF;2009-02-03 23:00;CYQF 032300Z 17006KT 15SM BKN100 OVC250 04/M04 A2992 RMK AC6CI2 SLP177

CYQF;2009-02-04 00:00;CYQF 040000Z 16005KT 15SM BKN100 OVC250 04/M05 A2989 RMK AC6CI2 SLP160

CYQF;2009-02-04 01:00;CYQF 040100Z 00000KT 15SM BKN100 BKN250 05/M07 A2987 RMK AC5CI2 SLP154

CYQF;2009-02-04 02:00;CYQF 040200Z 22010KT 15SM SCT100 BKN250 06/M07 A2984 RMK AC4CI3 SLP143

CYQF;2009-02-04 02:30;CYQF 040230Z 21023G33KT 15SM SCT100 BKN250 RMK AC4CI3

CYQF;2009-02-04 03:00;CYQF 040300Z 22018G25KT 15SM FEW100 BKN250 05/M06 A2982 RMK AC2CI2 SLP137

CYQF;2009-02-04 04:00;CYQF 040400Z 21010G18KT 15SM FEW100 BKN250 05/M07 A2979 RMK AC2CI2 SLP129

CYQF;2009-02-04 05:00;CYQF 040500Z 21010G15KT 15SM FEW100 BKN250 03/M07 A2977 RMK AC2CI2 SLP121

CYQF;2009-02-04 06:00;CYQF 040600Z 22010G15KT 15SM FEW100 BKN250 04/M08 A2975 RMK AC2CI2 SLP111

CYQF;2009-02-04 07:00;CYQF 040700Z 22008KT 15SM FEW100 BKN250 M00/M09 A2973 RMK AC2CI2 SLP105

CYQF;2009-02-04 08:00;CYQF 040800Z 22010KT 15SM SCT100 BKN250 01/M09 A2973 RMK AC3CI2 SLP106

CYQF;2009-02-04 09:00;CYQF 040900Z 23008KT 15SM SCT100 OVC250 M00/M09 A2972 RMK AC3CI3 SLP101

CYQF;2009-02-04 10:00;CYQF 041000Z 19008KT 15SM SCT100 OVC250 M01/M09 A2972 RMK AC3CI3 SLP099

CYQF;2009-02-04 11:00;CYQF 041100Z 22006KT 15SM SCT100 OVC250 M04/M10 A2970 RMK AC3CI3 SLP095

CYQF;2009-02-04 12:00;CYQF 041200Z 22005KT 15SM SCT100 OVC250 M04/M11 A2970 RMK AC4CI2 SLP095

CYQF;2009-02-04 13:00;CYQF 041300Z 00000KT 15SM SCT100 OVC250 M04/M10 A2970 RMK AC4CI2 SLP095

CYQF;2009-02-04 14:00;CYQF 041400Z 19004KT 15SM BKN100 OVC250 M06/M11 A2970 RMK AC5CI2 SLP096

CYQF;2009-02-04 15:00;CYQF 041500Z 20005KT 15SM FEW100 OVC250 M05/M11 A2970 RMK AC2CI3 SLP094

CYQF;2009-02-04 16:00;CYQF 041600Z 20007KT 15SM SCT100 OVC250 M06/M11 A2969 RMK AC2CI5 SLP093

CYQF;2009-02-04 17:00;CYQF 041700Z 00000KT 15SM FEW100 BKN250 M01/M10 A2970 RMK AC1CI4 SLP095

CYQF;2009-02-04 18:00;CYQF 041800Z 00000KT 15SM FEW100 SCT250 00/M07 A2973 RMK AC1CI1 SLP101

CYQF;2009-02-04 19:00;CYQF 041900Z 20002KT 15SM FEW100 SCT250 02/M07 A2973 RMK AC1CI2 SLP101

CYQF;2009-02-04 20:00;CYQF 042000Z 20003KT 15SM BKN250 03/M04 A2973 RMK CI2 SLP101

CYQF;2009-02-04 21:00;CYQF 042100Z 00000KT 15SM FEW100 BKN250 02/M04 A2973 RMK AC1CI4 SLP105

CYQF;2009-02-04 22:00;CYQF 042200Z 06002KT 15SM FEW100 BKN250 04/M04 A2974 RMK AC1CI4 SLP108

CYQF;2009-02-04 23:00;CYQF 042300Z 29003KT 15SM FEW100 BKN250 05/M02 A2975 RMK AC2CI3 CC ASOCTD SLP109

CYQF;2009-02-05 00:00;CYQF 050000Z 00000KT 15SM FEW100 SCT250 06/M03 A2976 RMK AC1CI2 SLP114

CYQF;2009-02-05 01:00;CYQF 050100Z 16003KT 15SM FEW100 FEW250 02/M04 A2976 RMK AC1CI1 SLP113

CYQF;2009-02-05 02:00;CYQF 050200Z 13003KT 15SM SKC 02/M05 A2974 RMK SLP109

CYQF;2009-02-05 03:00;CYQF 050300Z 29003KT 15SM SCT210 M01/M07 A2974 RMK CI0 SLP118

CYQF;2009-02-05 04:00;CYQF 050400Z 02004KT 15SM BKN210 M03/M07 A2973 RMK CI0 SLP115

CYQF;2009-02-05 05:00;CYQF 050500Z 00000KT 15SM BKN210 M04/M08 A2972 RMK CI2 SLP110

CYQF;2009-02-05 06:00;CYQF 050600Z 00000KT 15SM FEW100 BKN250 M05/M09 A2971 RMK AC2CI0 SLP103

CYQF;2009-02-05 07:00;CYQF 050700Z 00000KT 15SM SCT100 BKN250 M05/M09 A2969 RMK AC3CI2 SLP098

CYQF;2009-02-05 08:00;CYQF 050800Z 17008KT 15SM FEW100 BKN250 M05/M09 A2967 RMK AC2CI2 SLP091

CYQF;2009-02-05 09:00;CYQF 050900Z 14002KT 15SM FEW100 BKN250 M05/M08 A2966 RMK AC2CI2 SLP085

CYQF;2009-02-05 10:00;CYQF 051000Z 00000KT 15SM FEW100 BKN250 M06/M10 A2966 RMK AC2CI2 SLP084

CYQF;2009-02-05 11:00;CYQF 051100Z 20004KT 15SM FEW100 BKN250 M08/M12 A2965 RMK AC2CI2 SLP081

CYQF;2009-02-05 12:00;CYQF 051200Z 20012KT 15SM FEW100 BKN250 M08/M12 A2965 RMK AC2CI2 SLP078

CYQF;2009-02-05 13:00;CYQF 051300Z 14002KT 15SM FEW100 BKN250 M07/M11 A2965 RMK AC2CI2 SLP080

CYQF;2009-02-05 14:00;CYQF 051400Z 24004KT 15SM FEW100 BKN250 M09/M12 A2965 RMK AC2CI2 SLP079

CYQF;2009-02-05 15:00;CYQF 051500Z 17006KT 15SM FEW120 BKN250 M09/M13 A2965 RMK AC1CI2 SLP090

CYQF;2009-02-05 16:00;CYQF 051600Z 00000KT 15SM FEW100 BKN250 M08/M12 A2966 RMK AC1CI2 SLP092

CYQF;2009-02-05 17:00;CYQF 051700Z 00000KT 15SM BKN250 M06/M11 A2967 RMK CI2 SLP095

CYQF;2009-02-05 18:00;CYQF 051800Z 00000KT 15SM BKN250 M03/M10 A2967 RMK CI2 SLP094

CYQF;2009-02-05 19:00;CYQF 051900Z 00000KT 15SM FEW120 BKN250 M02/M09 A2965 RMK AC1CI3 SLP089

CYQF;2009-02-05 20:00;CYQF 052000Z 00000KT 15SM FEW120 BKN250 M01/M08 A2964 RMK AC1CI5 SLP086

CYQF;2009-02-05 21:00;CYQF 052100Z 36003KT 15SM FEW120 BKN250 M00/M07 A2963 RMK AC1CI6 SLP077

CYQF;2009-02-05 22:00;CYQF 052200Z 36006KT 15SM BKN250 01/M06 A2962 RMK CI6 SLP074

CYQF;2009-02-05 23:00;CYQF 052300Z 03008KT 15SM BKN250 01/M05 A2961 RMK CI4 SLP071

CYQF;2009-02-06 00:00;CYQF 060000Z 01006KT 15SM BKN250 M01/M06 A2960 RMK CI2 SLP070

CYQF;2009-02-06 01:00;CYQF 060100Z 04005KT 15SM BKN250 M02/M06 A2961 RMK CI2 SLP073

CYQF;2009-02-06 02:00;CYQF 060200Z 31004KT 15SM BKN250 M04/M08 A2962 RMK CI2 SLP076

CYQF;2009-02-06 03:00;CYQF 060300Z 34004KT 15SM BKN250 M05/M09 A2961 RMK CI2 SLP080

CYQF;2009-02-06 04:00;CYQF 060400Z 36005KT 15SM OVC210 M06/M09 A2961 RMK CI3 SLP079

CYQF;2009-02-06 05:00;CYQF 060500Z 35004KT 15SM OVC210 M06/M09 A2960 RMK CI4 SLP077

CYQF;2009-02-06 06:00;CYQF 060600Z 32003KT 15SM OVC150 M07/M10 A2960 RMK AC6 SLP072

CYQF;2009-02-06 07:00;CYQF 060700Z 34005KT 15SM BKN140 OVC250 M06/M09 A2960 RMK AC5CI2 SLP071

CYQF;2009-02-06 08:00;CYQF 060800Z 00000KT 15SM BKN140 OVC250 M07/M10 A2959 RMK AC5CI2 SLP069

CYQF;2009-02-06 09:00;CYQF 060900Z 00000KT 15SM BKN140 OVC250 M08/M11 A2959 RMK AC6CI2 SLP066

CYQF;2009-02-06 10:00;CYQF 061000Z 34003KT 15SM BKN120 OVC250 M09/M11 A2958 RMK AC6CI2 SLP064

CYQF;2009-02-06 11:00;CYQF 061100Z 34003KT 15SM BKN120 OVC250 M06/M09 A2958 RMK AC6CI2 SLP064

CYQF;2009-02-06 12:00;CYQF 061200Z 36002KT 15SM BKN120 OVC250 M07/M09 A2958 RMK AC6CI2 SLP063

CYQF;2009-02-06 13:00;CYQF 061300Z 33004KT 15SM SCT120 OVC250 M08/M10 A2958 RMK AC4CI2 SLP062

CYQF;2009-02-06 14:00;CYQF 061400Z 33006KT 15SM SCT120 OVC250 M07/M10 A2958 RMK AC4CI2 SLP064

CYQF;2009-02-06 15:00;CYQF 061500Z 00000KT 5SM BR SCT120 BKN250 M07/M09 A2959 RMK AC3CI3 SLP071

CYQF;2009-02-06 16:00;CYQF 061600Z 27003KT 3SM BR SCT120 BKN250 M10/M12 A2960 RMK AC3CI2 SLP075

CYQF;2009-02-06 17:00;CYQF 061700Z 34007KT 5SM BR SCT120 BKN250 M07/M09 A2963 RMK AC4CI2 SLP084

CYQF;2009-02-06 18:00;CYQF 061800Z 35010KT 6SM BR SCT120 BKN250 M05/M07 A2966 RMK AC3CI4 SLP095

CYQF;2009-02-06 19:00;CYQF 061900Z 35005KT 8SM BKN120 BKN250 M04/M07 A2969 RMK AC4CI3 SLP105

CYQF;2009-02-06 20:00;CYQF 062000Z 35012KT 10SM BKN120 BKN250 M04/M07 A2971 RMK AC3CI2 SLP111

CYQF;2009-02-06 21:00;CYQF 062100Z 35009KT 10SM BKN100 OVC250 M03/M06 A2973 RMK AC6CI2 SLP118

CYQF;2009-02-06 22:00;CYQF 062200Z 33005KT 10SM BKN100 OVC250 M03/M06 A2975 RMK AC6CI2 SLP126

CYQF;2009-02-06 23:00;CYQF 062300Z 33008KT 10SM BKN012 OVC080 M01/M04 A2979 RMK SC6AC2 BR SLP139

CYQF;2009-02-07 00:00;CYQF 070000Z 32005KT 10SM BKN012 OVC080 M02/M04 A2982 RMK SC5AC3 SLP148

CYQF;2009-02-07 01:00;CYQF 070100Z 35012KT 15SM BKN015 OVC080 M01/M05 A2985 RMK SC5AC3 CIG RAG SLP157

CYQF;2009-02-07 02:00;CYQF 070200Z 34010KT 15SM BKN015 M02/M06 A2988 RMK SC5 SLP166

CYQF;2009-02-07 03:00;CYQF 070300Z 33005KT 15SM SCT025 M05/M07 A2992 RMK SC3 SLP184

CYQF;2009-02-07 04:00;CYQF 070400Z 33003KT 15SM FEW030 M06/M08 A2992 RMK SC2 SLP186

CYQF;2009-02-07 05:00;CYQF 070500Z 25003KT 15SM FEW030 M10/M12 A2993 RMK SC1 SLP189

CYQF;2009-02-07 06:00;CYQF 070600Z 19002KT 1SM BR SKC M12/M14 A2993 RMK FG3 SLP196

CYQF;2009-02-07 06:32;CYQF 070632Z 00000KT 1/2SM FZFG SKC RMK FG6

CYQF;2009-02-07 07:00;CYQF 070700Z 18005KT 1/4SM FZFG SKC M12/M15 A2994 RMK FG6 SLP197

CYQF;2009-02-07 07:10;CYQF 070710Z 18006KT 3/4SM BR SCT007 RMK FG3SF1 VIS S 8

CYQF;2009-02-07 07:33;CYQF 070733Z 18006KT 1SM BR SCT007 RMK FG3SF1

CYQF;2009-02-07 08:00;CYQF 070800Z 20002KT 1 1/2SM BR SCT002 M13/M15 A2993 RMK FG2ST2 VIS S 3 SLP196

CYQF;2009-02-07 08:15;CYQF 070815Z 18004KT 1/4SM FZFG SKC RMK FG3

CYQF;2009-02-07 08:40;CYQF 070840Z 18004KT 3/4SM BR SKC RMK FG2

CYQF;2009-02-07 09:00;CYQF 070900Z 19005KT 1 1/2SM BR SKC M13/M15 A2993 RMK FG2 SLP195

CYQF;2009-02-07 09:15;CYQF 070915Z 18004KT 6SM BR SKC

CYQF;2009-02-07 10:00;CYQF 071000Z 18004KT 15SM SKC M14/M16 A2992 RMK SLP191

CYQF;2009-02-07 11:00;CYQF 071100Z 18005KT 15SM FEW250 M12/M13 A2990 RMK CI2 SLP184

CYQF;2009-02-07 12:00;CYQF 071200Z 18004KT 15SM SKC M14/M15 A2988 RMK SLP176

CYQF;2009-02-07 13:00;CYQF 071300Z 18005KT 15SM SKC M13/M15 A2987 RMK SLP173

CYQF;2009-02-07 14:00;CYQF 071400Z 19003KT 15SM FEW250 M13/M15 A2985 RMK CI1 SLP168

CYQF;2009-02-07 15:00;CYQF 071500Z 00000KT 15SM SCT250 M15/M17 A2987 RMK CI1 SLP176

CYQF;2009-02-07 16:00;CYQF 071600Z 00000KT 15SM FEW100 BKN250 M14/M16 A2987 RMK AC1CI3 TR AC SLP176

CYQF;2009-02-07 17:00;CYQF 071700Z 20004KT 15SM FEW100 BKN250 M11/M13 A2988 RMK AC2CI2 SLP181

CYQF;2009-02-07 18:00;CYQF 071800Z 20003KT 15SM FEW100 BKN250 M10/M11 A2988 RMK AC2CI2 SLP183

CYQF;2009-02-07 19:00;CYQF 071900Z 20007KT 15SM FEW100 SCT250 M07/M09 A2987 RMK AC1CI1 SLP179

CYQF;2009-02-07 20:00;CYQF 072000Z 18004KT 15SM FEW100 BKN250 M02/M08 A2984 RMK AC2CI1 SLP170

CYQF;2009-02-07 21:00;CYQF 072100Z 19007KT 15SM BKN100 BKN250 00/M06 A2983 RMK AC5CI2 SLP155

CYQF;2009-02-07 22:00;CYQF 072200Z 18010KT 15SM BKN080 OVC250 01/M04 A2982 RMK AC7CI1 SLP152

CYQF;2009-02-07 23:00;CYQF 072300Z 17003KT 15SM BKN080 BKN250 02/M04 A2981 RMK AC6CI1 SLP150

CYQF;2009-02-08 00:00;CYQF 080000Z 17004KT 15SM BKN080 01/M04 A2981 RMK AC6 SLP149

CYQF;2009-02-08 01:00;CYQF 080100Z 18002KT 15SM BKN080 BKN250 01/M04 A2982 RMK AC6CI1 SLP150

CYQF;2009-02-08 02:00;CYQF 080200Z 18004KT 15SM BKN080 BKN250 M01/M05 A2982 RMK AC6CI2 SLP151

CYQF;2009-02-08 03:00;CYQF 080300Z 20005KT 15SM BKN080 BKN250 M03/M06 A2981 RMK AC6CI2 SLP153

CYQF;2009-02-08 04:00;CYQF 080400Z 20005KT 15SM BKN100 BKN250 M02/M06 A2980 RMK AC5CI1 SLP151

CYQF;2009-02-08 05:00;CYQF 080500Z 21006KT 15SM BKN100 BKN250 M03/M07 A2979 RMK AC3CI1 SLP147

CYQF;2009-02-08 06:00;CYQF 080600Z 21008KT 15SM BKN100 M03/M08 A2977 RMK AC4 SLP134

CYQF;2009-02-08 07:00;CYQF 080700Z 24005KT 15SM BKN100 M04/M08 A2977 RMK AC4 SLP135

CYQF;2009-02-08 08:00;CYQF 080800Z 19003KT 15SM BKN100 M04/M09 A2976 RMK AC6 SLP131

CYQF;2009-02-08 09:00;CYQF 080900Z 20006KT 15SM BKN100 M04/M09 A2975 RMK AC6 SLP116

CYQF;2009-02-08 10:00;CYQF 081000Z 15004KT 15SM BKN100 M04/M10 A2973 RMK AC6 SLP110

CYQF;2009-02-08 11:00;CYQF 081100Z 17006KT 15SM BKN100 M05/M10 A2971 RMK AC5 SLP104

CYQF;2009-02-08 12:00;CYQF 081200Z 21006KT 15SM SCT100 BKN250 M07/M11 A2969 RMK AC4CI2 SLP099

CYQF;2009-02-08 13:00;CYQF 081300Z 18007KT 15SM FEW100 BKN250 M08/M12 A2966 RMK AC2CI2 SLP090

CYQF;2009-02-08 14:00;CYQF 081400Z 19005KT 15SM BKN250 M07/M12 A2966 RMK CI2 SLP088

CYQF;2009-02-08 15:00;CYQF 081500Z 19007KT 15SM BKN250 M08/M12 A2964 RMK CI2 SLP085

CYQF;2009-02-08 16:00;CYQF 081600Z 19006KT 15SM FEW100 BKN250 M09/M13 A2962 RMK AC1CI3 SLP079

CYQF;2009-02-08 17:00;CYQF 081700Z 18004KT 15SM FEW100 BKN250 M04/M10 A2960 RMK AC1CI2 SLP074

CYQF;2009-02-08 18:00;CYQF 081800Z 00000KT 15SM FEW100 BKN250 M02/M08 A2959 RMK AC2CI2 CONTRAILS SLP065

CYQF;2009-02-08 19:00;CYQF 081900Z 00000KT 15SM FEW100 BKN250 01/M07 A2956 RMK AC2CI4 SLP054

CYQF;2009-02-08 20:00;CYQF 082000Z 16005KT 15SM FEW100 BKN250 02/M05 A2953 RMK AC2CI5 SLP045

CYQF;2009-02-08 21:00;CYQF 082100Z 15005KT 15SM FEW100 BKN250 03/M04 A2951 RMK AC1CI4 SLP029

CYQF;2009-02-08 22:00;CYQF 082200Z 16005KT 15SM FEW100 BKN250 03/M05 A2949 RMK AC1CI2 SLP023

CYQF;2009-02-08 23:00;CYQF 082300Z 18002KT 15SM FEW100 BKN250 02/M03 A2948 RMK AC1CI2 SLP021

CYQF;2009-02-09 00:00;CYQF 090000Z 00000KT 15SM FEW100 SCT250 02/M04 A2946 RMK AC1CI2 SLP017

CYQF;2009-02-09 01:00;CYQF 090100Z 00000KT 15SM FEW100 FEW250 M00/M05 A2944 RMK AC1CI0 SLP011

CYQF;2009-02-09 02:00;CYQF 090200Z 00000KT 15SM FEW100 FEW250 M05/M07 A2942 RMK AC1CI2 SLP005

CYQF;2009-02-09 03:00;CYQF 090300Z 00000KT 15SM BKN250 M06/M09 A2940 RMK CI1 SLP008

CYQF;2009-02-09 04:00;CYQF 090400Z 00000KT 15SM BKN250 M06/M08 A2940 RMK CI1 SLP006

CYQF;2009-02-09 05:00;CYQF 090500Z 19003KT 10SM BKN250 M09/M11 A2939 RMK CI1 BR SLP003

CYQF;2009-02-09 06:00;CYQF 090600Z 00000KT 10SM BKN250 M08/M11 A2938 RMK CI1 SLP996

CYQF;2009-02-09 06:33;CYQF 090633Z 00000KT 1SM BR SCT250 RMK FG2CI1 VIS VRB 1/2-11/2

CYQF;2009-02-09 07:00;CYQF 090700Z 00000KT 1SM BR SKC M10/M12 A2937 RMK FG3 VIS VRB 1/2-11/2 SLP993

CYQF;2009-02-09 08:00;CYQF 090800Z 14002KT 3SM BR SCT001 M09/M11 A2936 RMK FG1ST3 SLP990

CYQF;2009-02-09 09:00;CYQF 090900Z 21003KT 10SM FEW001 BKN250 M08/M10 A2935 RMK ST1CI2 BR TR ST SLP981

CYQF;2009-02-09 10:00;CYQF 091000Z 24003KT 12SM SCT250 M08/M10 A2934 RMK CI0 BR SLP977

CYQF;2009-02-09 11:00;CYQF 091100Z 00000KT 12SM BKN250 M08/M10 A2933 RMK CI2 BR SLP973

CYQF;2009-02-09 12:00;CYQF 091200Z 00000KT 12SM BKN250 M08/M10 A2933 RMK CI2 BR SLP972

CYQF;2009-02-09 13:00;CYQF 091300Z 00000KT 15SM BKN250 M08/M10 A2933 RMK CI2 SLP974

CYQF;2009-02-09 14:00;CYQF 091400Z 20005KT 15SM BKN250 M08/M10 A2935 RMK CI3 SLP979

CYQF;2009-02-09 15:00;CYQF 091500Z 00000KT 15SM OVC150 M08/M10 A2936 RMK AC7 SLP993

CYQF;2009-02-09 16:00;CYQF 091600Z 22002KT 15SM BKN120 BKN250 M07/M10 A2938 RMK AC6CI1 SLP998

CYQF;2009-02-09 17:00;CYQF 091700Z 29005KT 15SM BKN100 BKN250 M04/M07 A2939 RMK AC6CI1 SLP001

CYQF;2009-02-09 18:00;CYQF 091800Z 36005KT 15SM BKN100 BKN250 M02/M07 A2939 RMK AC6CI2 SLP001

CYQF;2009-02-09 19:00;CYQF 091900Z 34006KT 15SM SCT100 BKN250 00/M06 A2939 RMK AC3CI2 SLP001

CYQF;2009-02-09 20:00;CYQF 092000Z 31006KT 15SM FEW100 BKN250 00/M06 A2939 RMK AC2CI2 SLP001

CYQF;2009-02-09 21:00;CYQF 092100Z 34010KT 15SM FEW100 BKN250 01/M05 A2940 RMK AC2CI2 SLP999

CYQF;2009-02-09 22:00;CYQF 092200Z 34010KT 15SM FEW100 SCT250 01/M05 A2942 RMK AC1CI1 SLP006

CYQF;2009-02-09 23:00;CYQF 092300Z 33006KT 15SM FEW100 SCT250 01/M05 A2944 RMK AC1CI1 SLP012

CYQF;2009-02-10 00:00;CYQF 100000Z 35004KT 15SM FEW100 BKN250 01/M06 A2945 RMK AC2CI1 SLP016

CYQF;2009-02-10 01:00;CYQF 100100Z 00000KT 15SM FEW100 SCT250 M01/M06 A2946 RMK AC1CI1 SLP020

CYQF;2009-02-10 02:00;CYQF 100200Z 26004KT 15SM FEW100 SCT250 M04/M08 A2947 RMK AC1CI1 SLP025

CYQF;2009-02-10 03:00;CYQF 100300Z 24010KT 15SM FEW100 FEW250 M04/M08 A2949 RMK AC1CI1 SLP038

CYQF;2009-02-10 04:00;CYQF 100400Z 25007KT 15SM SCT100 M04/M08 A2950 RMK AC2 SLP040

CYQF;2009-02-10 05:00;CYQF 100500Z 18003KT 15SM BKN090 M07/M10 A2951 RMK AC6 SLP043

CYQF;2009-02-10 06:00;CYQF 100600Z 23010KT 15SM BKN090 M05/M08 A2953 RMK AC7 SLP044

CYQF;2009-02-10 07:00;CYQF 100700Z 00000KT 15SM FEW090 M06/M09 A2953 RMK AC2 SLP044

CYQF;2009-02-10 08:00;CYQF 100800Z 00000KT 15SM FEW090 M07/M09 A2955 RMK AC2 SLP049

CYQF;2009-02-10 09:00;CYQF 100900Z 32006KT 15SM FEW090 M10/M12 A2957 RMK AC2 SLP061

CYQF;2009-02-10 10:00;CYQF 101000Z 34004KT 15SM BKN090 M07/M10 A2959 RMK AC6 SLP067

CYQF;2009-02-10 11:00;CYQF 101100Z 30006KT 15SM OVC060 M05/M08 A2961 RMK SC7 SLP072

CYQF;2009-02-10 12:00;CYQF 101200Z 28006KT 15SM OVC030 M05/M08 A2963 RMK SC7 SLP077

CYQF;2009-02-10 13:00;CYQF 101300Z 25012KT 15SM BKN040 M03/M08 A2965 RMK SC7 SLP083

CYQF;2009-02-10 14:00;CYQF 101400Z 32010KT 15SM OVC040 M04/M07 A2968 RMK SC8 SLP091

CYQF;2009-02-10 15:00;CYQF 101500Z 33007KT 10SM BKN040 OVC090 M04/M07 A2969 RMK SC6AC1 SLP103

CYQF;2009-02-10 16:00;CYQF 101600Z 33011KT 15SM BKN040 OVC090 M04/M10 A2971 RMK SC6AC1 SLP109

CYQF;2009-02-10 17:00;CYQF 101700Z 33008KT 15SM FEW012 BKN030 OVC090 M04/M10 A2973 RMK SF1SC6AC1 SLP115

CYQF;2009-02-10 18:00;CYQF 101800Z 32010G15KT 15SM FEW012 SCT030 BKN090 M04/M10 A2975 RMK SF1SC3AC2 SLP122

CYQF;2009-02-10 19:00;CYQF 101900Z 33012KT 15SM FEW010 SCT100 BKN250 M03/M11 A2976 RMK CF1AC1CI1 SLP126

CYQF;2009-02-10 20:00;CYQF 102000Z 32010G15KT 15SM FEW015 FEW120 SCT250 M03/M12 A2976 RMK CU1AC1CI0 SLP128

CYQF;2009-02-10 21:00;CYQF 102100Z 33012KT 15SM FEW020 FEW120 FEW250 M03/M11 A2977 RMK SC1AC1CI0 SLP133

CYQF;2009-02-10 22:00;CYQF 102200Z 34007KT 15SM FEW020 FEW120 FEW250 M03/M12 A2978 RMK SC1AC1CI0 SLP138

CYQF;2009-02-10 23:00;CYQF 102300Z 35004KT 15SM FEW030 FEW250 M03/M13 A2979 RMK CU1CI0 SLP140

CYQF;2009-02-11 00:00;CYQF 110000Z 00000KT 15SM FEW090 FEW250 M04/M13 A2980 RMK AC1CI1 SLP139

CYQF;2009-02-11 01:00;CYQF 110100Z 00000KT 15SM FEW090 M07/M14 A2980 RMK AC1 SLP141

CYQF;2009-02-11 02:00;CYQF 110200Z 00000KT 15SM SKC M08/M15 A2982 RMK SLP146

CYQF;2009-02-11 03:00;CYQF 110300Z 18004KT 15SM SKC M12/M16 A2984 RMK SLP162

CYQF;2009-02-11 04:00;CYQF 110400Z 17003KT 15SM FEW080 M13/M17 A2985 RMK AC2 SLP166

CYQF;2009-02-11 05:00;CYQF 110500Z 19003KT 15SM FEW080 M12/M16 A2986 RMK AC2 SLP168

CYQF;2009-02-11 06:00;CYQF 110600Z 18003KT 15SM FEW080 M10/M15 A2986 RMK AC2 SLP168

CYQF;2009-02-11 07:00;CYQF 110700Z 19004KT 15SM FEW080 M13/M17 A2986 RMK AC2 SLP168

CYQF;2009-02-11 08:00;CYQF 110800Z 00000KT 15SM BKN080 M12/M15 A2987 RMK AC5 SLP171

CYQF;2009-02-11 09:00;CYQF 110900Z 00000KT 15SM BKN080 M13/M16 A2988 RMK AC6 SLP176

CYQF;2009-02-11 10:00;CYQF 111000Z 00000KT 15SM SCT080 M14/M17 A2989 RMK AC4 OBS TAKEN +13 SLP179

CYQF;2009-02-11 11:00;CYQF 111100Z 00000KT 15SM BKN080 M15/M17 A2989 RMK AC4 OBS TAKEN +05 SLP180

CYQF;2009-02-11 12:00;CYQF 111200Z 20003KT 15SM BKN080 M16/M18 A2990 RMK AC5 SLP187

CYQF;2009-02-11 13:00;CYQF 111300Z 00000KT 15SM FEW040 BKN080 M16/M18 A2991 RMK SC2AC4 SLP191

CYQF;2009-02-11 14:00;CYQF 111400Z 19003KT 15SM FEW040 BKN080 M15/M18 A2992 RMK SC2AC5 SLP194

CYQF;2009-02-11 15:00;CYQF 111500Z 00000KT 15SM FEW040 BKN080 M15/M17 A2993 RMK SC2AC6 SLP207

CYQF;2009-02-11 16:00;CYQF 111600Z 20002KT 15SM FEW040 BKN080 M14/M17 A2994 RMK SC2AC3 VIRGA SLP209

CYQF;2009-02-11 17:00;CYQF 111700Z 18003KT 15SM FEW120 SCT250 M12/M16 A2994 RMK AC2CI0 SLP210

CYQF;2009-02-11 18:00;CYQF 111800Z 19003KT 15SM FEW120 FEW250 M12/M16 A2995 RMK AC1CI0 SLP207

CYQF;2009-02-11 19:00;CYQF 111900Z 00000KT 15SM FEW250 M10/M15 A2995 RMK CI0 SLP206

CYQF;2009-02-11 20:00;CYQF 112000Z 19002KT 15SM FEW250 M08/M13 A2994 RMK CI0 SLP203

CYQF;2009-02-11 21:00;CYQF 112100Z 00000KT 15SM FEW250 M07/M13 A2993 RMK CI0 SLP198

CYQF;2009-02-11 22:00;CYQF 112200Z 17004KT 15SM FEW250 M06/M12 A2993 RMK CI0 SLP198

CYQF;2009-02-11 23:00;CYQF 112300Z 20004KT 15SM FEW100 FEW250 M06/M12 A2993 RMK AC1CI0 SLP199

CYQF;2009-02-12 00:00;CYQF 120000Z 20003KT 15SM FEW090 M07/M12 A2994 RMK AC1 SLP203

CYQF;2009-02-12 01:00;CYQF 120100Z 21003KT 15SM FEW090 FEW250 M10/M15 A2995 RMK AC1CI0 SLP206

CYQF;2009-02-12 02:00;CYQF 120200Z 22005KT 15SM SKC M12/M16 A2995 RMK SLP209

CYQF;2009-02-12 03:00;CYQF 120300Z 20005KT 15SM SKC M14/M17 A2996 RMK SLP220

CYQF;2009-02-12 04:00;CYQF 120400Z 19004KT 15SM SKC M15/M18 A2997 RMK SLP223

CYQF;2009-02-12 05:00;CYQF 120500Z 20005KT 15SM SKC M16/M18 A2997 RMK SLP223

CYQF;2009-02-12 06:00;CYQF 120600Z 19004KT 15SM SKC M16/M19 A2998 RMK SLP226

CYQF;2009-02-12 07:00;CYQF 120700Z 00000KT 15SM SKC M16/M19 A2998 RMK SLP225

CYQF;2009-02-12 08:00;CYQF 120800Z 00000KT 15SM SCT090 M17/M20 A2999 RMK AC4 SLP227

CYQF;2009-02-12 09:00;CYQF 120900Z 00000KT 15SM BKN090 M16/M19 A3000 RMK AC5 OBS TAKEN +10 SLP225

CYQF;2009-02-12 10:00;CYQF 121000Z 00000KT 15SM SCT090 M17/M20 A3000 RMK AC4 SLP227

CYQF;2009-02-12 11:00;CYQF 121100Z 00000KT 15SM BKN080 M17/M20 A3001 RMK AC6 SLP230

CYQF;2009-02-12 12:00;CYQF 121200Z 22004KT 15SM BKN080 M15/M19 A3003 RMK AC7 SLP235

CYQF;2009-02-12 13:00;CYQF 121300Z 27005KT 15SM BKN080 M14/M17 A3005 RMK AC7 SLP240

CYQF;2009-02-12 14:00;CYQF 121400Z 00000KT 15SM BKN080 M13/M17 A3005 RMK AC7 SLP242

CYQF;2009-02-12 15:00;CYQF 121500Z 00000KT 15SM BKN080 M13/M17 A3007 RMK AC7 SLP254

CYQF;2009-02-12 16:00;CYQF 121600Z 00000KT 15SM BKN080 M13/M16 A3008 RMK AC7 SLP257

CYQF;2009-02-12 17:00;CYQF 121700Z 00000KT 15SM BKN080 BKN250 M11/M14 A3009 RMK AC5CI2 SLP260

CYQF;2009-02-12 18:00;CYQF 121800Z 00000KT 15SM BKN080 BKN250 M09/M13 A3010 RMK AC5CI2 SLP264

CYQF;2009-02-12 19:00;CYQF 121900Z 01003KT 15SM BKN080 BKN250 M08/M13 A3011 RMK AC5CI2 SLP266

CYQF;2009-02-12 20:00;CYQF 122000Z 36004KT 15SM BKN080 BKN250 M08/M13 A3010 RMK AC5CI2 SLP265

CYQF;2009-02-12 21:00;CYQF 122100Z 04008KT 15SM BKN080 BKN250 M08/M14 A3011 RMK AC5CI2 SLP266

CYQF;2009-02-12 22:00;CYQF 122200Z 03008KT 15SM SCT080 BKN250 M09/M14 A3012 RMK AC4CI2 SLP268

CYQF;2009-02-12 23:00;CYQF 122300Z 03007KT 12SM BKN080 OVC250 M09/M14 A3013 RMK AC6CI2 SLP273

CYQF;2009-02-13 00:00;CYQF 130000Z 03004KT 15SM BKN080 OVC250 M10/M14 A3015 RMK AC6CI2 SLP281

CYQF;2009-02-13 01:00;CYQF 130100Z 02005KT 15SM SCT100 OVC250 M10/M14 A3016 RMK AC3CI2 SLP285

CYQF;2009-02-13 02:00;CYQF 130200Z 03003KT 15SM SCT100 OVC250 M11/M15 A3018 RMK AC3CI2 SLP290

CYQF;2009-02-13 03:00;CYQF 130300Z 35002KT 15SM SCT090 OVC250 M12/M15 A3019 RMK AC3CI2 SLP295

CYQF;2009-02-13 04:00;CYQF 130400Z 35002KT 15SM FEW020 SCT090 BKN250 M12/M15 A3020 RMK SC1AC2CI1 SLP298

CYQF;2009-02-13 05:00;CYQF 130500Z 00000KT 15SM FEW090 BKN250 M13/M16 A3022 RMK AC2CI2 SLP304

CYQF;2009-02-13 06:00;CYQF 130600Z 00000KT 15SM FEW090 BKN250 M14/M16 A3023 RMK AC1CI2 SLP305

CYQF;2009-02-13 07:00;CYQF 130700Z 00000KT 10SM FEW090 SCT250 M15/M18 A3025 RMK AC1CI2 OBS TAKEN +23 SLP311

CYQF;2009-02-13 08:00;CYQF 130800Z 33002KT 10SM FEW100 BKN250 M15/M17 A3025 RMK AC2CI2 SLP312

CYQF;2009-02-13 09:00;CYQF 130900Z 00000KT 10SM BKN120 BKN250 M17/M20 A3025 RMK AC3CI1 SLP318

CYQF;2009-02-13 10:00;CYQF 131000Z 00000KT 8SM BKN120 BKN250 M17/M20 A3026 RMK AC5CI1 SLP319

CYQF;2009-02-13 11:00;CYQF 131100Z 00000KT 5SM BR BKN120 M18/M20 A3026 RMK AC6 SLP319

CYQF;2009-02-13 11:49;CYQF 131149Z 00000KT 5SM BR FEW005 BKN100 RMK ST2AC3

CYQF;2009-02-13 12:00;CYQF 131200Z 00000KT 5SM BR FEW005 BKN100 M17/M20 A3026 RMK ST2AC3 SLP323

CYQF;2009-02-13 12:24;CYQF 131224Z 00000KT 4SM BR BKN002 OVC090 RMK ST6AC2

CYQF;2009-02-13 12:46;CYQF 131246Z 00000KT 4SM BR OVC001 RMK ST8

CYQF;2009-02-13 13:00;CYQF 131300Z 00000KT 4SM BR OVC002 M17/M19 A3026 RMK ST8 SLP323

CYQF;2009-02-13 13:47;CYQF 131347Z 00000KT 2SM BR OVC002 RMK ST8

CYQF;2009-02-13 14:00;CYQF 131400Z 00000KT 2SM BR OVC002 M16/M19 A3026 RMK ST8 SLP322

CYQF;2009-02-13 14:49;CYQF 131449Z 00000KT 1/2SM FZFG VV002 RMK FG8

CYQF;2009-02-13 15:00;CYQF 131500Z 00000KT 1/4SM FZFG VV002 M16/M18 A3025 RMK FG8 SLP320

CYQF;2009-02-13 16:00;CYQF 131600Z 00000KT 1/4SM FZFG BKN090 M16/M17 A3025 RMK FG6AC1 SLP321

CYQF;2009-02-13 16:34;CYQF 131634Z 00000KT 3/4SM BR BKN100 RMK FG3AC3

CYQF;2009-02-13 17:00;CYQF 131700Z 00000KT 1 1/2SM BR BKN100 M15/M17 A3026 RMK FG2AC3 SLP322

CYQF;2009-02-13 17:49;CYQF 131749Z 00000KT 3SM BR BKN120 RMK AC6

CYQF;2009-02-13 18:00;CYQF 131800Z 00000KT 3SM BR BKN120 M15/M16 A3026 RMK AC6 SLP323

CYQF;2009-02-13 19:00;CYQF 131900Z 00000KT 5SM BR FEW010 BKN120 M14/M15 A3025 RMK SF1AC4 SLP320

CYQF;2009-02-13 20:00;CYQF 132000Z 12003KT 10SM FEW120 BKN270 M12/M13 A3022 RMK AC2CI1 SLP312

CYQF;2009-02-13 21:00;CYQF 132100Z 19002KT 10SM FEW010 SCT120 BKN250 M11/M14 A3021 RMK SF1AC2CI1 SLP306

CYQF;2009-02-13 22:00;CYQF 132200Z 14004KT 12SM FEW015 FEW100 BKN250 M10/M16 A3020 RMK SF1AC1CI2 SLP303

CYQF;2009-02-13 23:00;CYQF 132300Z 14004KT 15SM FEW020 BKN250 M10/M15 A3019 RMK SF1CI2 SLP299

CYQF;2009-02-14 00:00;CYQF 140000Z 15004KT 15SM FEW120 BKN250 M11/M16 A3018 RMK AC2CI2 SLP295

CYQF;2009-02-14 01:00;CYQF 140100Z 15003KT 15SM FEW120 FEW250 M12/M16 A3017 RMK AC1CI1 AC TR SLP294

CYQF;2009-02-14 01:54;CYQF 140154Z 16003KT 5SM IC FEW250 RMK CI1

CYQF;2009-02-14 02:00;CYQF 140200Z 16003KT 6SM IC FEW250 M13/M16 A3016 RMK CI1 BARO H+07 SLP290

CYQF;2009-02-14 03:00;CYQF 140300Z 04003KT 10SM FEW070 M14/M17 A3016 RMK AC1 IC AC DIST S SLP290

CYQF;2009-02-14 03:38;CYQF 140338Z 06003KT 10SM -SN OVC070 RMK AC8

CYQF;2009-02-14 04:00;CYQF 140400Z 00000KT 10SM -SN OVC070 M15/M17 A3015 RMK AC8 SLP289

CYQF;2009-02-14 05:00;CYQF 140500Z 00000KT 6SM -SN OVC070 M14/M17 A3015 RMK AC8 SLP289

CYQF;2009-02-14 06:00;CYQF 140600Z 03003KT 6SM -SN OVC070 M15/M17 A3015 RMK AC8 SLP287

CYQF;2009-02-14 07:00;CYQF 140700Z 00000KT 8SM -SN OVC075 M14/M17 A3015 RMK AC8 SLP286

CYQF;2009-02-14 08:00;CYQF 140800Z 00000KT 8SM -SN OVC075 M14/M17 A3014 RMK AC8 SLP282

CYQF;2009-02-14 09:00;CYQF 140900Z 00000KT 10SM -SN OVC070 M15/M17 A3013 RMK AC8 SLP274

CYQF;2009-02-14 10:00;CYQF 141000Z 35003KT 10SM -SN BKN070 M16/M18 A3013 RMK AC5 SLP273

CYQF;2009-02-14 11:00;CYQF 141100Z 36003KT 8SM -SN BKN070 M16/M18 A3011 RMK AC5 SLP267

CYQF;2009-02-14 12:00;CYQF 141200Z 36004KT 10SM -SN BKN070 M17/M19 A3011 RMK AC6 SLP270

CYQF;2009-02-14 13:00;CYQF 141300Z 35003KT 8SM -SN BKN070 M18/M20 A3010 RMK AC6 SLP268

CYQF;2009-02-14 14:00;CYQF 141400Z 35003KT 10SM -SN BKN070 M19/M21 A3009 RMK AC6 SLP265

CYQF;2009-02-14 15:00;CYQF 141500Z 36003KT 15SM BKN070 M18/M20 A3010 RMK AC6 SLP271

CYQF;2009-02-14 15:40;CYQF 141540Z 36003KT 10SM BKN080 RMK AC6

CYQF;2009-02-14 16:00;CYQF 141600Z 36003KT 10SM BKN080 M18/M20 A3010 RMK AC6 SLP273

CYQF;2009-02-14 17:00;CYQF 141700Z 00000KT 6SM BR BKN080 M17/M20 A3011 RMK AC6 SLP275

CYQF;2009-02-14 18:00;CYQF 141800Z 00000KT 8SM BKN080 M15/M18 A3011 RMK AC7 BR SLP271

CYQF;2009-02-14 19:00;CYQF 141900Z 13008KT 8SM BKN080 M13/M16 A3011 RMK AC7 BR SLP271

CYQF;2009-02-14 20:00;CYQF 142000Z 14007KT 8SM BKN080 M12/M16 A3010 RMK AC6 BR SLP268

CYQF;2009-02-14 21:00;CYQF 142100Z 14010KT 6SM -SN OVC080 M12/M16 A3008 RMK AC7 SLP259

CYQF;2009-02-14 22:00;CYQF 142200Z 13008KT 6SM -SN SCT015 OVC080 M11/M15 A3008 RMK SF1AC6 SLP258

CYQF;2009-02-14 23:00;CYQF 142300Z 15008KT 3SM -SN BKN020 OVC080 M11/M15 A3008 RMK SC5AC2 SLP258

CYQF;2009-02-14 23:35;CYQF 142335Z 15007KT 2SM -SN BKN020 OVC080 RMK SN2SC3AC2

CYQF;2009-02-15 00:00;CYQF 150000Z 15008KT 2SM -SN BKN020 OVC080 M11/M15 A3009 RMK SN2SC3AC2 SLP263

CYQF;2009-02-15 01:00;CYQF 150100Z 14006KT 2SM -SN BKN020 OVC080 M12/M14 A3009 RMK SN2SC3AC2 SLP263

CYQF;2009-02-15 02:00;CYQF 150200Z 14007KT 2SM -SN BKN020 OVC080 M12/M15 A3008 RMK SN2SC3AC2 SLP262

CYQF;2009-02-15 02:49;CYQF 150249Z 12007KT 5SM -SN SCT020 OVC090 RMK SC4AC3

CYQF;2009-02-15 03:00;CYQF 150300Z 15007KT 5SM -SN SCT020 OVC090 M12/M15 A3009 RMK SC4AC3 SLP265

CYQF;2009-02-15 04:00;CYQF 150400Z 15006KT 5SM -SN SCT020 OVC090 M12/M15 A3008 RMK SC4AC3 SLP264

CYQF;2009-02-15 05:00;CYQF 150500Z 14004KT 6SM -SN SCT020 OVC090 M12/M15 A3009 RMK SC3AC4 SLP267

CYQF;2009-02-15 06:00;CYQF 150600Z 13003KT 10SM -SN FEW020 OVC090 M13/M15 A3009 RMK SC2AC6 SLP263

CYQF;2009-02-15 07:00;CYQF 150700Z 13004KT 10SM -SN FEW020 OVC090 M13/M16 A3009 RMK SC2AC6 SLP264

CYQF;2009-02-15 08:00;CYQF 150800Z 13006KT 10SM -SN FEW020 OVC090 M13/M16 A3009 RMK SC2AC6 SLP263

CYQF;2009-02-15 09:00;CYQF 150900Z 13006KT 10SM -SN FEW020 OVC090 M13/M16 A3009 RMK SC2AC6 SLP259

CYQF;2009-02-15 10:00;CYQF 151000Z 15006KT 10SM -SN FEW020 BKN090 OVC250 M13/M16 A3008 RMK SC2AC6CI1 SLP258

CYQF;2009-02-15 11:00;CYQF 151100Z 15006KT 10SM -SN FEW020 BKN090 OVC250 M13/M16 A3008 RMK SC2AC6CI1 OBS TAKEN +4 SLP257

CYQF;2009-02-15 12:00;CYQF 151200Z 14005KT 15SM -SN FEW020 BKN090 OVC250 M14/M16 A3007 RMK SC2AC4CI2 SLP254

CYQF;2009-02-15 13:00;CYQF 151300Z 13004KT 15SM FEW020 BKN090 OVC250 M14/M16 A3007 RMK SC2AC4CI2 SLP254

CYQF;2009-02-15 14:00;CYQF 151400Z 13004KT 15SM -SN FEW020 BKN090 OVC250 M15/M17 A3006 RMK SC2AC4CI2 SLP251

CYQF;2009-02-15 15:00;CYQF 151500Z 00000KT 15SM -SN FEW025 OVC080 M16/M18 A3007 RMK SC2AC5 SLP255

CYQF;2009-02-15 16:00;CYQF 151600Z 16004KT 10SM -SN SCT025 OVC080 M15/M17 A3006 RMK SC2AC5 SLP254

CYQF;2009-02-15 16:17;CYQF 151617Z 13004KT 10SM -SN BKN007 OVC080 RMK SC6AC1

CYQF;2009-02-15 17:00;CYQF 151700Z 15002KT 10SM -SN OVC007 M14/M16 A3007 RMK ST8 SLP255

CYQF;2009-02-15 18:00;CYQF 151800Z 15004KT 10SM -SN OVC008 M14/M16 A3006 RMK ST8 SLP253

CYQF;2009-02-15 18:38;CYQF 151838Z 12002KT 6SM -SN SCT008 OVC070 RMK SF2AC5

CYQF;2009-02-15 19:00;CYQF 151900Z 13004KT 8SM -SN SCT008 OVC070 M13/M16 A3005 RMK SF2AC5 SLP248

CYQF;2009-02-15 20:00;CYQF 152000Z 15003KT 15SM -SN FEW008 BKN070 M13/M16 A3003 RMK SC2AC3 SLP242

CYQF;2009-02-15 21:00;CYQF 152100Z 00000KT 10SM FEW008 SCT070 M13/M17 A3002 RMK SF1AC2 SLP235

CYQF;2009-02-15 22:00;CYQF 152200Z 00000KT 12SM FEW015 FEW250 M12/M16 A3000 RMK SC1CI1 SLP231

CYQF;2009-02-15 23:00;CYQF 152300Z 16003KT 12SM FEW015 FEW250 M12/M16 A3000 RMK SC1CI1 SC TR SLP229

CYQF;2009-02-16 00:00;CYQF 160000Z 16004KT 12SM FEW250 M13/M17 A2999 RMK CI1 SLP226

CYQF;2009-02-16 01:00;CYQF 160100Z 16005KT 15SM FEW250 M15/M18 A2998 RMK CI1 SLP223

CYQF;2009-02-16 02:00;CYQF 160200Z 17003KT 15SM FEW250 M17/M19 A2998 RMK CI1 SLP223

CYQF;2009-02-16 03:00;CYQF 160300Z 17004KT 15SM FEW250 M19/M21 A2995 RMK CI1 SLP223

CYQF;2009-02-16 04:00;CYQF 160400Z 00000KT 15SM FEW250 M20/M23 A2994 RMK CI1 SLP219

CYQF;2009-02-16 05:00;CYQF 160500Z 00000KT 15SM FEW250 M21/M24 A2993 RMK CI1 SLP216

CYQF;2009-02-16 06:00;CYQF 160600Z 17003KT 15SM FEW250 M21/M25 A2992 RMK CI1 SLP212

CYQF;2009-02-16 07:00;CYQF 160700Z 17003KT 15SM FEW250 M21/M25 A2990 RMK CI1 SLP205

CYQF;2009-02-16 08:00;CYQF 160800Z 17005KT 15SM FEW250 M21/M24 A2987 RMK CI1 SLP198

CYQF;2009-02-16 09:00;CYQF 160900Z 19006KT 15SM SKC M23/M26 A2985 RMK SLP190

CYQF;2009-02-16 10:00;CYQF 161000Z 19005KT 15SM SKC M23/M27 A2983 RMK SLP184

CYQF;2009-02-16 11:00;CYQF 161100Z 20002KT 15SM SKC M23/M27 A2982 RMK SLP180

CYQF;2009-02-16 12:00;CYQF 161200Z 20002KT 15SM SKC M24/M28 A2981 RMK SLP176

CYQF;2009-02-16 13:00;CYQF 161300Z 19002KT 15SM SKC M23/M27 A2980 RMK SLP172

CYQF;2009-02-16 14:00;CYQF 161400Z 20003KT 15SM SKC M24/M29 A2979 RMK SLP170

CYQF;2009-02-16 15:00;CYQF 161500Z 00000KT 8SM SKC M24/M28 A2977 RMK BR SLP171

CYQF;2009-02-16 16:00;CYQF 161600Z 20005KT 8SM SKC M24/M28 A2976 RMK BR SLP168

CYQF;2009-02-16 17:00;CYQF 161700Z 00000KT 8SM FEW250 M22/M25 A2976 RMK CI1 BR SLP165

CYQF;2009-02-16 18:00;CYQF 161800Z CCA 19003KT 6SM BR FEW250 M20/M23 A2975 RMK CI1 SLP160

CYQF;2009-02-16 19:00;CYQF 161900Z 17003KT 6SM BR FEW250 M17/M21 A2974 RMK CI1 SLP158

CYQF;2009-02-16 20:00;CYQF 162000Z 18005KT 6SM BR BKN250 M16/M20 A2973 RMK CI2 SLP153

CYQF;2009-02-16 21:00;CYQF 162100Z 17003KT 10SM BKN250 M14/M19 A2971 RMK CI2 BR SLP140

CYQF;2009-02-16 22:00;CYQF 162200Z 18003KT 8SM BKN250 M12/M18 A2969 RMK CI2 BR SLP134

CYQF;2009-02-16 23:00;CYQF 162300Z 00000KT 12SM BKN250 M11/M17 A2966 RMK CI2 SLP127

CYQF;2009-02-17 00:00;CYQF 170000Z 00000KT 10SM SCT250 M11/M17 A2966 RMK CI2 SLP123

CYQF;2009-02-17 01:00;CYQF 170100Z 00000KT 10SM SCT250 M14/M18 A2967 RMK CI1 SLP126

CYQF;2009-02-17 02:00;CYQF 170200Z 00000KT 10SM SCT250 M16/M21 A2967 RMK CI1 SLP124

CYQF;2009-02-17 03:00;CYQF 170300Z 00000KT 10SM SCT250 M18/M23 A2967 RMK CI1 SLP134

CYQF;2009-02-17 04:00;CYQF 170400Z 18002KT 15SM FEW250 M19/M23 A2967 RMK CI1 SLP135

CYQF;2009-02-17 05:00;CYQF 170500Z 20002KT 15SM FEW250 M20/M24 A2967 RMK CI1 SLP133

CYQF;2009-02-17 06:00;CYQF 170600Z 20003KT 15SM FEW250 M20/M25 A2966 RMK CI1 SLP129

CYQF;2009-02-17 07:00;CYQF 170700Z 19003KT 15SM FEW250 M21/M25 A2966 RMK CI1 SLP127

CYQF;2009-02-17 08:00;CYQF 170800Z 17002KT 15SM FEW250 M21/M25 A2966 RMK CI0 SLP126

CYQF;2009-02-17 09:00;CYQF 170900Z 20003KT 15SM SKC M21/M25 A2966 RMK SLP122

CYQF;2009-02-17 10:00;CYQF 171000Z 20004KT 15SM SKC M20/M24 A2965 RMK SLP120

CYQF;2009-02-17 11:00;CYQF 171100Z 15004KT 15SM SKC M20/M24 A2966 RMK SLP121

CYQF;2009-02-17 12:00;CYQF 171200Z 20006KT 15SM SKC M21/M25 A2966 RMK SLP120

CYQF;2009-02-17 13:00;CYQF 171300Z 19005KT 15SM SKC M21/M26 A2967 RMK SLP122

CYQF;2009-02-17 14:00;CYQF 171400Z 21006KT 15SM FEW250 M22/M26 A2967 RMK CI1 SLP123

CYQF;2009-02-17 15:00;CYQF 171500Z 20002KT 15SM FEW100 FEW250 M21/M25 A2968 RMK AC1CI0 SLP135

CYQF;2009-02-17 16:00;CYQF 171600Z 21004KT 15SM FEW100 SCT250 M19/M24 A2969 RMK AC2CI1 SLP137

CYQF;2009-02-17 17:00;CYQF 171700Z 19003KT 15SM FEW100 FEW250 M16/M21 A2970 RMK AC1CI1 SLP141

CYQF;2009-02-17 18:00;CYQF 171800Z 17002KT 15SM FEW100 FEW250 M13/M19 A2972 RMK AC1CI1 SLP139

CYQF;2009-02-17 19:00;CYQF 171900Z 16003KT 15SM FEW250 M10/M17 A2972 RMK CI1 SLP141

CYQF;2009-02-17 20:00;CYQF 172000Z 18003KT 15SM FEW250 M08/M16 A2973 RMK CI1 SLP142

CYQF;2009-02-17 21:00;CYQF 172100Z 00000KT 15SM FEW250 M07/M14 A2973 RMK CI1 SLP137

CYQF;2009-02-17 22:00;CYQF 172200Z 00000KT 15SM FEW250 M06/M14 A2973 RMK CI1 SLP139

CYQF;2009-02-17 23:00;CYQF 172300Z 18003KT 15SM SCT250 M05/M14 A2974 RMK CI2 SLP142

CYQF;2009-02-18 00:00;CYQF 180000Z 00000KT 15SM FEW100 SCT250 M06/M14 A2976 RMK AC2CI0 SLP148

CYQF;2009-02-18 01:00;CYQF 180100Z 00000KT 15SM SCT100 BKN250 M08/M15 A2978 RMK AC3CI2 SLP153

CYQF;2009-02-18 02:00;CYQF 180200Z 00000KT 15SM SCT100 BKN250 M10/M15 A2980 RMK AC4CI2 SLP160

CYQF;2009-02-18 03:00;CYQF 180300Z 00000KT 15SM BKN100 BKN250 M09/M15 A2981 RMK AC5CI1 SLP169

CYQF;2009-02-18 04:00;CYQF 180400Z 00000KT 15SM SCT100 SCT250 M10/M15 A2983 RMK AC3CI0 OBS TAKEN +14 SLP175

CYQF;2009-02-18 05:00;CYQF 180500Z 00000KT 15SM FEW100 M12/M16 A2985 RMK AC2 SLP179

CYQF;2009-02-18 06:00;CYQF 180600Z 00000KT 15SM SCT100 M14/M17 A2985 RMK AC3 SLP180

CYQF;2009-02-18 07:00;CYQF 180700Z 00000KT 15SM FEW100 SCT250 M13/M17 A2987 RMK AC2CI1 SLP185

CYQF;2009-02-18 08:00;CYQF 180800Z 00000KT 15SM FEW100 M16/M19 A2989 RMK AC1 SLP190

CYQF;2009-02-18 09:00;CYQF 180900Z 21003KT 15SM FEW100 BKN250 M16/M18 A2990 RMK AC1CI2 SLP191

CYQF;2009-02-18 10:00;CYQF 181000Z 21005KT 15SM FEW100 SCT250 M16/M19 A2991 RMK AC1CI2 SLP194

CYQF;2009-02-18 11:00;CYQF 181100Z 20003KT 15SM BKN100 OVC250 M14/M17 A2992 RMK AC6CI2 SLP197

CYQF;2009-02-18 12:00;CYQF 181200Z 19004KT 15SM OVC100 M13/M16 A2993 RMK AC8 SLP198

CYQF;2009-02-18 13:00;CYQF 181300Z 00000KT 15SM FEW100 BKN250 M12/M16 A2995 RMK AC1CI2 SLP203

CYQF;2009-02-18 14:00;CYQF 181400Z 15002KT 15SM FEW100 SCT250 M13/M16 A2996 RMK AC1CI1 BARO H+07 SLP208

CYQF;2009-02-18 15:00;CYQF 181500Z 00000KT 15SM FEW100 SCT250 M15/M18 A2998 RMK AC1CI1 SLP220

CYQF;2009-02-18 16:00;CYQF 181600Z 30008KT 15SM FEW100 SCT250 M13/M17 A3000 RMK AC1CI1 SLP227

CYQF;2009-02-18 17:00;CYQF 181700Z 29012KT 15SM FEW250 M05/M12 A3002 RMK CI2 SLP232

CYQF;2009-02-18 18:00;CYQF 181800Z 29012KT 15SM FEW250 M04/M11 A3003 RMK CI1 SLP230

CYQF;2009-02-18 19:00;CYQF 181900Z 29008KT 15SM FEW250 M03/M10 A3004 RMK CI1 SLP234

CYQF;2009-02-18 20:00;CYQF 182000Z 30004KT 15SM FEW250 M01/M10 A3004 RMK CI1 SLP234

CYQF;2009-02-18 21:00;CYQF 182100Z 27003KT 15SM FEW100 SCT250 00/M10 A3004 RMK AC2CI1 SLP232

CYQF;2009-02-18 22:00;CYQF 182200Z 00000KT 15SM SCT250 02/M09 A3004 RMK CI2 SLP230

CYQF;2009-02-18 23:00;CYQF 182300Z 28005KT 15SM BKN250 02/M08 A3004 RMK CI2 SLP230

CYQF;2009-02-19 00:00;CYQF 190000Z 26003KT 15SM BKN250 M01/M08 A3005 RMK CI3 SLP232

CYQF;2009-02-19 01:00;CYQF 190100Z 18002KT 15SM BKN250 M03/M10 A3005 RMK CI2 SLP233

CYQF;2009-02-19 02:00;CYQF 190200Z 00000KT 15SM BKN250 M06/M11 A3006 RMK CI2 SLP236

CYQF;2009-02-19 03:00;CYQF 190300Z 23004KT 15SM SCT250 M07/M12 A3008 RMK CI2 SLP252

CYQF;2009-02-19 04:00;CYQF 190400Z 00000KT 15SM SCT250 M09/M13 A3009 RMK CI2 SLP255

CYQF;2009-02-19 05:00;CYQF 190500Z 18002KT 15SM SKC M10/M14 A3010 RMK SLP258

CYQF;2009-02-19 06:00;CYQF 190600Z 00000KT 15SM FEW250 M11/M15 A3010 RMK CI1 SLP253

CYQF;2009-02-19 07:00;CYQF 190700Z 00000KT 15SM OVC250 M13/M16 A3010 RMK CI7 SLP253

CYQF;2009-02-19 08:00;CYQF 190800Z 00000KT 15SM BKN250 M13/M16 A3009 RMK CI3 SLP250

CYQF;2009-02-19 09:00;CYQF 190900Z 00000KT 15SM FEW100 BKN250 M13/M16 A3010 RMK AC2CI2 SLP248

CYQF;2009-02-19 10:00;CYQF 191000Z 00000KT 15SM FEW100 BKN250 M13/M17 A3010 RMK AC1CI2 SLP248

CYQF;2009-02-19 11:00;CYQF 191100Z 00000KT 15SM BKN100 OVC250 M14/M16 A3010 RMK AC6CI2 SLP250

CYQF;2009-02-19 12:00;CYQF 191200Z 17007KT 15SM BKN100 BKN250 M12/M15 A3009 RMK AC5CI1 SLP246

CYQF;2009-02-19 13:00;CYQF 191300Z 21003KT 15SM FEW100 BKN250 M13/M16 A3009 RMK AC1CI3 SLP247

CYQF;2009-02-19 14:00;CYQF 191400Z 21004KT 15SM FEW100 SCT250 M13/M16 A3010 RMK AC1CI0 SLP249

CYQF;2009-02-19 15:00;CYQF 191500Z 18002KT 15SM FEW100 BKN250 M15/M18 A3010 RMK AC2CI1 SLP261

CYQF;2009-02-19 16:00;CYQF 191600Z 19005KT 15SM FEW100 BKN250 M12/M15 A3011 RMK AC2CI1 SLP264

CYQF;2009-02-19 17:00;CYQF 191700Z 20003KT 15SM BKN100 BKN250 M09/M13 A3012 RMK AC5CI2 SLP267

CYQF;2009-02-19 18:00;CYQF 191800Z 00000KT 12SM -SN BKN050 OVC100 M06/M10 A3012 RMK SC6AC2 VIS N 6 SLP259

CYQF;2009-02-19 19:00;CYQF 191900Z 30010G17KT 8SM -SN BKN050 OVC100 M03/M06 A3011 RMK SC6AC2 SLP258

CYQF;2009-02-19 19:51;CYQF 191951Z 30012G18KT 15SM FEW012 BKN050 OVC100 RMK SC2SC4AC2

CYQF;2009-02-19 20:00;CYQF 192000Z 30013KT 15SM FEW012 BKN050 OVC100 M02/M06 A3010 RMK SC2SC4AC2 SLP254

CYQF;2009-02-19 21:00;CYQF 192100Z CCA 32012KT 8SM FEW012 BKN050 OVC100 M03/M07 A3009 RMK SC2SC4AC2 SHS S+N SLP249

CYQF;2009-02-19 21:47;CYQF 192147Z 32012KT 6SM -SHSN FEW012 OVC050 RMK SC2SC6

CYQF;2009-02-19 22:00;CYQF 192200Z 34012KT 4SM -SHSN FEW015 OVC040 M03/M07 A3009 RMK SC2SC6 VIS N 1 SLP248

CYQF;2009-02-19 22:14;CYQF 192214Z 34006KT 15SM FEW015 BKN040 BKN090 RMK SC2SC3AC2

CYQF;2009-02-19 23:00;CYQF 192300Z 34006KT 15SM FEW020 BKN040 BKN090 M03/M07 A3009 RMK SC2SC2AC2 SLP249

CYQF;2009-02-20 00:00;CYQF 200000Z 33005KT 15SM FEW020 SCT040 BKN090 M04/M07 A3009 RMK SF2SC2AC2 SLP251

CYQF;2009-02-20 01:00;CYQF 200100Z 30003KT 15SM VCSH FEW020 BKN040 BKN090 M05/M07 A3009 RMK SF1SC4AC2 VIS S 5 SLP250

CYQF;2009-02-20 02:00;CYQF 200200Z 31002KT 15SM FEW040 BKN090 BKN250 M07/M09 A3010 RMK SC2AC2CI1 SLP252

CYQF;2009-02-20 03:00;CYQF 200300Z 30005KT 15SM FEW040 BKN080 BKN250 M07/M10 A3009 RMK SC1AC5CI1 SLP258

CYQF;2009-02-20 04:00;CYQF 200400Z 31006KT 15SM BKN080 BKN250 M07/M10 A3008 RMK AC5CI1 SLP255

CYQF;2009-02-20 05:00;CYQF 200500Z 30004KT 15SM BKN075 OVC250 M06/M10 A3009 RMK AC6CI1 SLP256

CYQF;2009-02-20 06:00;CYQF 200600Z 00000KT 15SM OVC075 M06/M10 A3008 RMK AC8 SLP243

CYQF;2009-02-20 07:00;CYQF 200700Z 00000KT 15SM OVC075 M07/M09 A3009 RMK AC8 SLP245

CYQF;2009-02-20 07:33;CYQF 200733Z 00000KT 10SM -SN FEW030 OVC070 RMK SC2AC6

CYQF;2009-02-20 08:00;CYQF 200800Z 00000KT 5SM -SN FEW030 OVC070 M06/M09 A3009 RMK SC2AC6 SLP246

CYQF;2009-02-20 09:00;CYQF 200900Z 01005KT 5SM -SN FEW030 OVC060 M07/M09 A3011 RMK SC2SC6 SLP249

CYQF;2009-02-20 10:00;CYQF 201000Z 00000KT 6SM -SN FEW030 BKN060 M08/M10 A3012 RMK SC2SC6 SLP251

CYQF;2009-02-20 11:00;CYQF 201100Z 00000KT 10SM -SN FEW030 BKN060 M09/M11 A3013 RMK SC2SC5 SLP255

CYQF;2009-02-20 12:00;CYQF 201200Z 00000KT 10SM -SN FEW030 BKN060 M10/M12 A3014 RMK SC2SC5 /S01/ SLP265

CYQF;2009-02-20 13:00;CYQF 201300Z 25003KT 10SM -SN BKN060 M11/M14 A3015 RMK SC6 SLP268

CYQF;2009-02-20 14:00;CYQF 201400Z 00000KT 12SM SCT060 BKN220 M11/M13 A3015 RMK SC4CI1 BR SLP269

CYQF;2009-02-20 15:00;CYQF 201500Z 18003KT 4SM BR FEW060 BKN250 M14/M17 A3017 RMK SC2CI2 SLP283

CYQF;2009-02-20 16:00;CYQF 201600Z 00000KT 15SM FEW060 SCT250 M11/M13 A3018 RMK SC2CI1 SLP287

CYQF;2009-02-20 17:00;CYQF 201700Z 00000KT 15SM FEW060 SCT250 M11/M13 A3019 RMK SC1CI1 SLP291

CYQF;2009-02-20 18:00;CYQF 201800Z 18003KT 15SM SCT250 M09/M13 A3018 RMK CI1 SLP281

CYQF;2009-02-20 19:00;CYQF 201900Z 17003KT 15SM SCT250 M07/M11 A3018 RMK CI1 SLP281

CYQF;2009-02-20 20:00;CYQF 202000Z 19005KT 15SM SCT250 M05/M11 A3015 RMK CI1 SLP272

CYQF;2009-02-20 21:00;CYQF 202100Z 17005KT 15SM FEW250 M03/M10 A3013 RMK CI0 SLP257

CYQF;2009-02-20 22:00;CYQF 202200Z 16003KT 15SM FEW250 M03/M10 A3013 RMK CI0 SLP257

CYQF;2009-02-20 23:00;CYQF 202300Z 15002KT 15SM BKN250 M04/M10 A3013 RMK CI0 SLP257

CYQF;2009-02-21 00:00;CYQF 210000Z 18005KT 15SM BKN250 M05/M10 A3012 RMK CI2 SLP258

CYQF;2009-02-21 01:00;CYQF 210100Z 18006KT 15SM BKN250 M07/M12 A3011 RMK CI0 SLP256

CYQF;2009-02-21 02:00;CYQF 210200Z 17003KT 15SM SCT250 M08/M12 A3011 RMK CI2 SLP254

CYQF;2009-02-21 03:00;CYQF 210300Z 00000KT 15SM SCT250 M09/M13 A3012 RMK CI2 SLP268

CYQF;2009-02-21 04:00;CYQF 210400Z 00000KT 15SM SKC M10/M14 A3011 RMK SLP266

CYQF;2009-02-21 05:00;CYQF 210500Z 00000KT 15SM SKC M12/M15 A3011 RMK SLP266

CYQF;2009-02-21 06:00;CYQF 210600Z 00000KT 15SM SKC M12/M15 A3010 RMK SLP260

CYQF;2009-02-21 07:00;CYQF 210700Z 19004KT 15SM SKC M12/M15 A3009 RMK SLP257

CYQF;2009-02-21 08:00;CYQF 210800Z 20003KT 15SM SKC M12/M15 A3009 RMK SLP255

CYQF;2009-02-21 09:00;CYQF 210900Z 19002KT 15SM SKC M12/M16 A3008 RMK SLP247

CYQF;2009-02-21 10:00;CYQF 211000Z 00000KT 15SM SKC M13/M16 A3008 RMK SLP246

CYQF;2009-02-21 11:00;CYQF 211100Z 00000KT 15SM SKC M15/M17 A3008 RMK SLP245

CYQF;2009-02-21 12:00;CYQF 211200Z 00000KT 15SM SKC M14/M16 A3007 RMK SLP247

CYQF;2009-02-21 13:00;CYQF 211300Z 21005KT 15SM SKC M14/M18 A3008 RMK SLP249

CYQF;2009-02-21 14:00;CYQF 211400Z 20005KT 15SM SKC M16/M19 A3007 RMK SLP247

CYQF;2009-02-21 15:00;CYQF 211500Z 00000KT 15SM FEW120 M15/M18 A3008 RMK AC2 SLP254

CYQF;2009-02-21 16:00;CYQF 211600Z 00000KT 15SM FEW120 M12/M15 A3008 RMK AC2 SLP255

CYQF;2009-02-21 17:00;CYQF 211700Z 00000KT 15SM FEW120 M09/M14 A3009 RMK AC2 SLP259

CYQF;2009-02-21 18:00;CYQF 211800Z 15005KT 15SM FEW120 M07/M12 A3009 RMK AC1 SLP254

CYQF;2009-02-21 19:00;CYQF 211900Z 14002KT 15SM FEW120 FEW250 M05/M11 A3008 RMK AC1CI1 SLP249

CYQF;2009-02-21 20:00;CYQF 212000Z 14007KT 15SM FEW250 M03/M10 A3006 RMK CI1 SLP244

CYQF;2009-02-21 21:00;CYQF 212100Z 13008KT 15SM FEW250 M02/M09 A3006 RMK CI1 SLP236

CYQF;2009-02-21 22:00;CYQF 212200Z 13010KT 15SM FEW250 M01/M09 A3007 RMK CI1 OBS TAKEN +42 SLP240

CYQF;2009-02-21 23:00;CYQF 212300Z 12013KT 15SM FEW250 M02/M10 A3007 RMK CI1 SLP240

CYQF;2009-02-22 00:00;CYQF 220000Z 12007KT 15SM BKN100 BKN250 M03/M09 A3008 RMK AC5CI2 SLP245

CYQF;2009-02-22 01:00;CYQF 220100Z 09006KT 15SM OVC100 M03/M09 A3008 RMK AC7 SLP246

CYQF;2009-02-22 02:00;CYQF 220200Z 13008KT 15SM OVC090 M02/M10 A3011 RMK AC7 OBS TAKEN +10 SLP255

CYQF;2009-02-22 03:00;CYQF 220300Z 13007KT 15SM OVC060 M03/M10 A3012 RMK SC8 SLP261

CYQF;2009-02-22 04:00;CYQF 220400Z 13010KT 15SM OVC060 M03/M10 A3012 RMK SC8 SLP260

CYQF;2009-02-22 05:00;CYQF 220500Z 13005KT 15SM SCT060 M05/M10 A3013 RMK SC3 SLP263

CYQF;2009-02-22 06:00;CYQF 220600Z 15002KT 15SM FEW060 M08/M11 A3013 RMK SC1 SLP262

CYQF;2009-02-22 07:00;CYQF 220700Z 13003KT 15SM SKC M07/M10 A3013 RMK SLP261

CYQF;2009-02-22 08:00;CYQF 220800Z 13004KT 15SM SCT220 M09/M11 A3013 RMK CI2 SLP262

CYQF;2009-02-22 09:00;CYQF 220900Z 14004KT 15SM SKC M09/M11 A3014 RMK SLP260

CYQF;2009-02-22 10:00;CYQF 221000Z 13004KT 6SM BR SKC M10/M12 A3012 RMK SLP256

CYQF;2009-02-22 10:47;CYQF 221047Z 00000KT 2SM BR SKC RMK FG2

CYQF;2009-02-22 11:00;CYQF 221100Z 00000KT 2SM BR SKC M12/M14 A3013 RMK FG1 SLP258

CYQF;2009-02-22 12:00;CYQF 221200Z 00000KT 2SM BR SKC M11/M13 A3012 RMK FG1 SLP257

CYQF;2009-02-22 12:39;CYQF 221239Z 14005KT 5SM BR BKN005 RMK ST6

CYQF;2009-02-22 13:00;CYQF 221300Z 13005KT 5SM BR OVC005 M11/M13 A3011 RMK ST8 SLP254

CYQF;2009-02-22 13:44;CYQF 221344Z 16008KT 1 1/2SM BR VV003 RMK FG8

CYQF;2009-02-22 14:00;CYQF 221400Z 22002KT 1 1/2SM BR VV003 M11/M12 A3011 RMK FG8 RIME ON INDICATOR SLP255

CYQF;2009-02-22 14:17;CYQF 221417Z 00000KT 1/2SM FZFG VV003 RMK FG8

CYQF;2009-02-22 15:00;CYQF 221500Z 00000KT 1/2SM FZFG VV003 M10/M12 A3012 RMK FG8 SLP257

CYQF;2009-02-22 16:00;CYQF 221600Z 15002KT 1/2SM FZFG VV003 M10/M12 A3012 RMK FG8 SLP257

CYQF;2009-02-22 17:00;CYQF 221700Z 17002KT 1/2SM FZFG VV003 M10/M12 A3012 RMK FG8 SLP257

CYQF;2009-02-22 18:00;CYQF 221800Z 00000KT 1/2SM FZFG VV003 M10/M11 A3011 RMK FG8 SLP258

CYQF;2009-02-22 19:00;CYQF 221900Z 00000KT 1/2SM FZFG VV003 M10/M11 A3010 RMK FG8 SLP254

CYQF;2009-02-22 20:00;CYQF 222000Z 00000KT 1/2SM FZFG VV003 M10/M10 A3008 RMK FG8 SLP249

CYQF;2009-02-22 20:22;CYQF 222022Z 00000KT 3/4SM BR VV003 RMK FG8

CYQF;2009-02-22 21:00;CYQF 222100Z 00000KT 1SM BR VV003 M10/M10 A3007 RMK FG8 SLP246

CYQF;2009-02-22 21:44;CYQF 222144Z 00000KT 1SM BR VV005 RMK FG8

CYQF;2009-02-22 22:00;CYQF 222200Z 00000KT 1SM BR VV005 M09/M09 A3005 RMK FG8 SLP240

CYQF;2009-02-22 23:00;CYQF 222300Z 00000KT 3SM BR OVC007 M08/M09 A3004 RMK FG2ST6 SLP235

CYQF;2009-02-22 23:48;CYQF 222348Z 00000KT 4SM BR SCT007 OVC250 RMK FG1ST2CI2

CYQF;2009-02-23 00:00;CYQF 230000Z 00000KT 4SM BR SCT007 OVC250 M09/M09 A3002 RMK ST3CI2 SLP229

CYQF;2009-02-23 01:00;CYQF 230100Z 29002KT 5SM BR SCT008 OVC250 M10/M11 A3001 RMK ST2CI3 SLP227

CYQF;2009-02-23 02:00;CYQF 230200Z 31002KT 4SM BR SCT007 OVC250 M11/M13 A2999 RMK ST2CI3 SLP221

CYQF;2009-02-23 02:35;CYQF 230235Z 00000KT 3SM BR OVC007 RMK ST8

CYQF;2009-02-23 03:00;CYQF 230300Z 31003KT 3SM BR OVC007 M10/M11 A2999 RMK ST8 SLP218

CYQF;2009-02-23 04:00;CYQF 230400Z 01003KT 3SM BR OVC006 M09/M10 A2998 RMK ST8 SLP215

CYQF;2009-02-23 05:00;CYQF 230500Z CCA 02004KT 3SM BR OVC005 M09/M10 A2997 RMK ST8 SLP212

CYQF;2009-02-23 06:00;CYQF 230600Z 34006KT 5SM BR BKN005 OVC014 M09/M10 A2996 RMK ST6SC2 SLP209

CYQF;2009-02-23 07:00;CYQF 230700Z 35004KT 4SM BR BKN005 OVC014 M09/M10 A2997 RMK SF6SC2 SLP210

CYQF;2009-02-23 08:00;CYQF 230800Z CCA 34007KT 4SM BR OVC007 M09/M10 A2997 RMK SF8 OBS TAKEN +07 SLP211

CYQF;2009-02-23 09:00;CYQF 230900Z 35006KT 4SM BR OVC006 M08/M10 A2997 RMK SF8 SLP211

CYQF;2009-02-23 10:00;CYQF 231000Z 33010KT 15SM FEW006 OVC012 M08/M10 A2998 RMK SF2SC6 SLP213

CYQF;2009-02-23 11:00;CYQF 231100Z 33009KT 15SM SCT012 OVC028 M09/M11 A2998 RMK SC3SC4 SLP212

CYQF;2009-02-23 12:00;CYQF 231200Z 32005KT 15SM OVC030 M09/M11 A2998 RMK SC8 SLP214

CYQF;2009-02-23 13:00;CYQF 231300Z 33010KT 15SM FEW015 OVC032 M09/M12 A2998 RMK SC2SC6 SLP214

CYQF;2009-02-23 14:00;CYQF 231400Z 33010KT 15SM BKN012 OVC030 M09/M12 A3000 RMK SC6SC2 SLP219

CYQF;2009-02-23 14:15;CYQF 231415Z 34006KT 10SM -SN BKN012 OVC030 RMK SC6SC2

CYQF;2009-02-23 15:00;CYQF 231500Z 33010KT 10SM -SN BKN010 OVC030 M09/M12 A2999 RMK SC6SC2 CIG RAG SLP217

CYQF;2009-02-23 16:00;CYQF 231600Z 33005KT 4SM -SN BKN010 OVC030 M09/M11 A3000 RMK SC6SC2 CIG RAG SLP220

CYQF;2009-02-23 17:00;CYQF 231700Z 34007KT 3SM -SN OVC011 M08/M11 A2999 RMK SC8 SLP217

CYQF;2009-02-23 17:29;CYQF 231729Z 34007KT 1 1/2SM -SN OVC010 RMK SN2SC6

CYQF;2009-02-23 18:00;CYQF 231800Z 35006KT 1 1/2SM -SN OVC010 M08/M11 A2998 RMK SN2SC6 SLP212

CYQF;2009-02-23 19:00;CYQF 231900Z 01005KT 2SM -SN SCT010 OVC020 M08/M11 A2998 RMK SN1SC3SC4 SLP212

CYQF;2009-02-23 19:23;CYQF 231923Z 01008KT 4SM -SN SCT010 OVC020 RMK SC3SC5

CYQF;2009-02-23 19:49;CYQF 231949Z 35004KT 5SM -SN OVC012 RMK SC8

CYQF;2009-02-23 20:00;CYQF 232000Z 36005KT 5SM -SN OVC012 M08/M11 A2996 RMK SC8 SLP207

CYQF;2009-02-23 21:00;CYQF 232100Z 35005KT 6SM -SN OVC012 M08/M11 A2995 RMK SC8 SLP202

CYQF;2009-02-23 22:00;CYQF 232200Z 02007KT 6SM -SN OVC012 M08/M11 A2994 RMK SC8 SLP199

CYQF;2009-02-23 23:00;CYQF 232300Z 36004KT 6SM -SN OVC012 M08/M12 A2995 RMK SC8 SLP200

CYQF;2009-02-23 23:44;CYQF 232344Z 36004KT 3SM -SN OVC016 RMK SC8

CYQF;2009-02-23 23:52;CYQF 232352Z 36003KT 2SM -SN OVC016 RMK SN2SC6

CYQF;2009-02-24 00:00;CYQF 240000Z 01003KT 2SM -SN OVC016 M08/M11 A2995 RMK SN2SC6 SLP201

CYQF;2009-02-24 01:00;CYQF 240100Z CCA 03006KT 1 1/2SM -SN OVC012 M09/M11 A2993 RMK SN3SC5 SLP197

CYQF;2009-02-24 02:00;CYQF 240200Z 03006KT 2 1/2SM -SN OVC015 M09/M11 A2994 RMK SN2SC6 SLP199

CYQF;2009-02-24 02:39;CYQF 240239Z 03007KT 5SM -SN OVC025 RMK SC8

CYQF;2009-02-24 03:00;CYQF 240300Z 02007KT 6SM -SN BKN012 OVC030 M09/M12 A2992 RMK SF5SC3 SLP194

CYQF;2009-02-24 03:52;CYQF 240352Z 02007KT 10SM -SN BKN015 OVC030 RMK SF5SC3

CYQF;2009-02-24 04:00;CYQF 240400Z 03005KT 10SM -SN BKN015 OVC030 M10/M13 A2992 RMK SF5SC3 SLP194

CYQF;2009-02-24 05:00;CYQF 240500Z 03003KT 10SM -SN SCT015 OVC040 M10/M13 A2992 RMK SF3SC5 SLP194

CYQF;2009-02-24 06:00;CYQF 240600Z 02006KT 5SM -SN BKN008 OVC030 M10/M13 A2990 RMK SF5SC3 SLP187

CYQF;2009-02-24 07:00;CYQF 240700Z 04007KT 6SM -SN SCT008 OVC015 M11/M14 A2990 RMK SF3SC5 SLP187

CYQF;2009-02-24 08:00;CYQF 240800Z 06008KT 8SM -SN FEW008 OVC020 M12/M14 A2988 RMK SF2SC6 SLP181

CYQF;2009-02-24 09:00;CYQF 240900Z 06007KT 10SM -SN FEW007 SCT020 OVC040 M12/M15 A2986 RMK SF1SC2SC5 SLP174

CYQF;2009-02-24 10:00;CYQF 241000Z 06007KT 10SM -SN FEW007 OVC040 M13/M15 A2985 RMK SF1SC7 /S01/ SLP172

CYQF;2009-02-24 11:00;CYQF 241100Z 05008KT 8SM -SN FEW007 OVC040 M13/M16 A2984 RMK SF1SC7 SLP167

CYQF;2009-02-24 12:00;CYQF 241200Z 03010KT 6SM -SN BKN010 OVC040 M13/M16 A2983 RMK SC5SC3 SLP166

CYQF;2009-02-24 12:18;CYQF 241218Z 04008KT 1 1/2SM -SN VV015 RMK SN8 VIS VRB 1-2

CYQF;2009-02-24 13:00;CYQF 241300Z 03007KT 1 1/2SM -SN VV009 M14/M16 A2983 RMK SN8 VIS VRB 1-2 /S01/ SLP164

CYQF;2009-02-24 14:00;CYQF 241400Z 04009KT 1 1/2SM -SN VV011 M14/M17 A2981 RMK SN8 VIS VRB 1-2 /S02/ SLP159

CYQF;2009-02-24 15:00;CYQF 241500Z 02010KT 1SM -SN VV008 M15/M18 A2982 RMK SN8 SLP164

CYQF;2009-02-24 15:42;CYQF 241542Z 01010KT 3/4SM -SN VV006 RMK SN8

CYQF;2009-02-24 16:00;CYQF 241600Z 02010KT 5/8SM -SN VV005 M15/M18 A2982 RMK SN8 VIS VRB 1/2-3/4 SLP166

CYQF;2009-02-24 17:00;CYQF 241700Z 02008KT 5/8SM -SN VV005 M15/M18 A2984 RMK SN8 VIS VRB 1/2-3/4 SLP171

CYQF;2009-02-24 18:00;CYQF 241800Z 02009KT 5/8SM -SN VV005 M15/M18 A2985 RMK SN8 /S03/ SLP179

CYQF;2009-02-24 19:00;CYQF 241900Z 01012KT 1SM -SN VV009 M15/M18 A2986 RMK SN8 SLP182

CYQF;2009-02-24 20:00;CYQF 242000Z 01010KT 1 1/2SM -SN OVC030 M15/M19 A2987 RMK SN5SC3 SLP184

CYQF;2009-02-24 21:00;CYQF 242100Z 01012KT 2 1/2SM -SN DRSN SCT030 BKN090 M15/M19 A2988 RMK SC3AC2 SLP190

CYQF;2009-02-24 21:17;CYQF 242117Z 01010KT 6SM -SN DRSN FEW020 SCT090 BKN220 RMK SF2AC2CI1

CYQF;2009-02-24 21:45;CYQF 242145Z 01010KT 15SM FEW015 BKN220 RMK SF2CI2

CYQF;2009-02-24 22:00;CYQF 242200Z 01010KT 15SM FEW015 BKN220 M15/M19 A2990 RMK SF2CI3 SLP195

CYQF;2009-02-24 23:00;CYQF 242300Z 01013KT 15SM FEW015 BKN220 M15/M20 A2992 RMK SF2CI3 SLP202

CYQF;2009-02-25 00:00;CYQF 250000Z CCA 02012KT 15SM FEW015 SCT090 BKN220 M16/M21 A2995 RMK SF2AC2CI2 /S01/ SLP217

CYQF;2009-02-25 01:00;CYQF 250100Z 01010KT 12SM BKN015 OVC090 M16/M20 A2997 RMK SC5AC3 SLP223

CYQF;2009-02-25 01:46;CYQF 250146Z 01008KT 6SM -SN BKN012 OVC090 RMK SC6AC2

CYQF;2009-02-25 02:00;CYQF 250200Z 01008KT 10SM -SN BKN012 OVC090 M17/M21 A3000 RMK SC5AC3 SLP231

CYQF;2009-02-25 03:00;CYQF 250300Z 01010KT 3SM -SN OVC012 M18/M21 A3002 RMK SC8 SLP243

CYQF;2009-02-25 04:00;CYQF 250400Z CCA 03010KT 5SM -SN FEW012 OVC040 M18/M22 A3005 RMK SF1SC7 OBS TAKEN +14 SLP253

CYQF;2009-02-25 05:00;CYQF 250500Z 02012KT 5SM -SN FEW012 OVC040 M19/M23 A3006 RMK SF1SC7 SLP258

CYQF;2009-02-25 06:00;CYQF 250600Z 02007KT 5SM -SN OVC100 M19/M24 A3008 RMK AC8 SLP268

CYQF;2009-02-25 06:22;CYQF 250622Z 03007KT 1 1/2SM -SN OVC100 RMK SN2AC6

CYQF;2009-02-25 07:00;CYQF 250700Z 02007KT 2SM -SN OVC050 M19/M23 A3009 RMK SN2SC6 SLP272

CYQF;2009-02-25 08:00;CYQF 250800Z 36008KT 1SM -SN OVC050 M19/M23 A3010 RMK SN4SC4 SLP273

CYQF;2009-02-25 08:34;CYQF 250834Z 36010KT 3SM -SN OVC070 RMK AC8

CYQF;2009-02-25 09:00;CYQF 250900Z 36008KT 5SM -SN OVC070 M19/M24 A3011 RMK AC8 SLP279

CYQF;2009-02-25 10:00;CYQF 251000Z 36007KT 1SM -SN OVC070 M19/M24 A3011 RMK SN5AC3 OBS TAKEN +8 SLP278

CYQF;2009-02-25 10:44;CYQF 251044Z 36007KT 4SM -SN OVC070 RMK AC8

CYQF;2009-02-25 11:00;CYQF 251100Z 01008KT 4SM -SN OVC070 M20/M24 A3011 RMK AC8 SLP279

CYQF;2009-02-25 12:00;CYQF 251200Z 36008KT 3SM -SN OVC070 M20/M24 A3013 RMK SN2AC6 /S01/ SLP286

CYQF;2009-02-25 12:54;CYQF 251254Z 02008KT 1SM -SN OVC060 RMK SN4SC4

CYQF;2009-02-25 13:00;CYQF 251300Z 02008KT 1 1/2SM -SN OVC060 M20/M24 A3015 RMK SN3SC5 SLP291

CYQF;2009-02-25 14:00;CYQF 251400Z 02010KT 1SM -SN VV012 M20/M25 A3016 RMK SN8 SLP295

CYQF;2009-02-25 14:25;CYQF 251425Z 02008KT 1 1/2SM -SN OVC060 RMK SN3SC5

CYQF;2009-02-25 15:00;CYQF 251500Z 04010KT 1SM -SN OVC060 M20/M25 A3017 RMK SN4SC4 SLP302

CYQF;2009-02-25 15:38;CYQF 251538Z 03010KT 1 1/2SM -SN OVC060 RMK SN3SC5

CYQF;2009-02-25 15:44;CYQF 251544Z 04010KT 3SM -SN OVC060 RMK SN2SC6

CYQF;2009-02-25 16:00;CYQF 251600Z 03009KT 8SM -SN OVC060 M20/M25 A3019 RMK SC8 SLP308

CYQF;2009-02-25 16:23;CYQF 251623Z 02010KT 2SM -SN OVC050 RMK SN4SC4

CYQF;2009-02-25 16:51;CYQF 251651Z 03006KT 1SM -SN VV020 RMK SN8

CYQF;2009-02-25 17:00;CYQF 251700Z 04007KT 1SM -SN VV020 M20/M25 A3020 RMK SN8 /S01/ SLP313

CYQF;2009-02-25 17:49;CYQF 251749Z 03008KT 3/4SM -SN BR VV015 RMK SN8

CYQF;2009-02-25 18:00;CYQF 251800Z 03008KT 3/4SM -SN BR VV015 M20/M25 A3021 RMK SN8 /S03/ SLP320

CYQF;2009-02-25 18:17;CYQF 251817Z 03007KT 1SM -SN BR VV015 RMK SN8

CYQF;2009-02-25 19:00;CYQF 251900Z 04010KT 1SM -SN BR VV015 M20/M25 A3022 RMK SN8 SLP321

CYQF;2009-02-25 20:00;CYQF 252000Z 05008KT 1SM -SN BR SCT012 VV015 M20/M26 A3021 RMK SF3SN5 SLP320

CYQF;2009-02-25 20:20;CYQF 252020Z 03007KT 3SM -SN OVC012 RMK SN2SC6

CYQF;2009-02-25 20:31;CYQF 252031Z 02009KT 1 1/2SM -SN OVC012 RMK SN3SC5

CYQF;2009-02-25 21:00;CYQF 252100Z 02007KT 2SM -SN OVC012 M20/M26 A3022 RMK SN2SC6 SLP321

CYQF;2009-02-25 21:47;CYQF 252147Z 02008KT 3SM -SN SCT012 OVC030 RMK SN2SF2SC4

CYQF;2009-02-25 22:00;CYQF 252200Z 04006KT 3SM -SN SCT012 OVC030 M20/M26 A3022 RMK SN2SF2SC4 VIS VRB 2 - 4 SLP321

CYQF;2009-02-25 23:00;CYQF 252300Z 06007KT 5SM -SN SCT012 OVC030 M21/M27 A3022 RMK SF3SC5 VIS S 3 SLP323

CYQF;2009-02-25 23:29;CYQF 252329Z 07007KT 1 1/2SM -SN SCT012 OVC030 RMK SN2SF2SC3

CYQF;2009-02-26 00:00;CYQF 260000Z 06007KT 3SM -SN FEW015 BKN030 OVC050 M21/M26 A3023 RMK SF2SC2SC2 /S02/ SLP327

CYQF;2009-02-26 01:00;CYQF 260100Z 08005KT 5SM -SN FEW015 BKN030 OVC050 M22/M27 A3023 RMK SF2SC4SC2 SLP328

CYQF;2009-02-26 02:00;CYQF 260200Z 07007KT 5SM -SN BKN050 OVC100 M22/M27 A3024 RMK SC5AC3 SLP329

CYQF;2009-02-26 02:39;CYQF 260239Z 06007KT 1SM -SN OVC050 RMK SN3SC5

CYQF;2009-02-26 03:00;CYQF 260300Z 07006KT 3SM -SN BKN050 OVC100 M22/M26 A3024 RMK SC5AC3 VIS VRB 2-4 SLP331

CYQF;2009-02-26 04:00;CYQF 260400Z 08004KT 3SM -SN BKN050 OVC100 M22/M26 A3023 RMK SC5AC3 VIS VRB 2-4 SLP329

CYQF;2009-02-26 05:00;CYQF 260500Z 09003KT 10SM -SN BKN080 M23/M28 A3023 RMK AC6 SLP328

CYQF;2009-02-26 06:00;CYQF 260600Z 08003KT 12SM -SN BKN080 M23/M28 A3022 RMK AC4 SLP327

CYQF;2009-02-26 07:00;CYQF 260700Z 09002KT 10SM FEW080 M26/M30 A3022 RMK AC1 IC SLP326

CYQF;2009-02-26 08:00;CYQF 260800Z 00000KT 10SM BKN080 M25/M29 A3020 RMK AC6 IC SLP322

CYQF;2009-02-26 09:00;CYQF 260900Z 09003KT 10SM BKN080 M24/M28 A3020 RMK AC6 IC SLP321

CYQF;2009-02-26 10:00;CYQF 261000Z 15007KT 15SM FEW080 M25/M29 A3018 RMK AC1 IC SLP315

CYQF;2009-02-26 11:00;CYQF 261100Z 15004KT 15SM SKC M26/M30 A3015 RMK IC SLP307

CYQF;2009-02-26 12:00;CYQF 261200Z 00000KT 15SM SKC M27/M32 A3014 RMK IC SLP305

CYQF;2009-02-26 13:00;CYQF 261300Z 00000KT 10SM SKC M27/M33 A3013 RMK IC SLP301

CYQF;2009-02-26 14:00;CYQF 261400Z 14005KT 10SM FEW250 M27/M31 A3012 RMK CI1 IC SLP297

CYQF;2009-02-26 15:00;CYQF 261500Z CCA 13002KT 10SM FEW250 M27/M31 A3011 RMK CI1 IC SLP295

CYQF;2009-02-26 16:00;CYQF 261600Z CCA 13002KT 5SM IC SKC M25/M29 A3009 RMK IC SLP290

CYQF;2009-02-26 17:00;CYQF 261700Z 13007KT 5SM IC SKC M25/M29 A3010 RMK SLP292

CYQF;2009-02-26 18:00;CYQF 261800Z 15010G15KT 10SM DRSN SKC M23/M27 A3008 RMK SLP282

CYQF;2009-02-26 19:00;CYQF 261900Z 16010G15KT 12SM DRSN SKC M22/M27 A3007 RMK SLP278

CYQF;2009-02-26 20:00;CYQF 262000Z 15012G17KT 12SM SKC M21/M27 A3005 RMK SLP272

CYQF;2009-02-26 21:00;CYQF 262100Z 16015G20KT 12SM SKC M19/M25 A3002 RMK SLP258

CYQF;2009-02-26 22:00;CYQF 262200Z 16012G20KT 12SM DRSN FEW250 M20/M26 A3000 RMK CI1 SLP252

CYQF;2009-02-26 23:00;CYQF 262300Z 15010G15KT 15SM DRSN FEW250 M20/M26 A2999 RMK CI1 SLP249

CYQF;2009-02-27 00:00;CYQF 270000Z 15010G15KT 15SM FEW250 M21/M26 A2998 RMK CI1 SLP248

CYQF;2009-02-27 01:00;CYQF 270100Z 16012KT 15SM FEW250 M22/M27 A2997 RMK CI1 SLP247

CYQF;2009-02-27 02:00;CYQF 270200Z 16012KT 15SM SKC M23/M27 A2996 RMK SLP242

CYQF;2009-02-27 02:20;CYQF 270220Z 17012KT 12SM SKC RMK IC

CYQF;2009-02-27 03:00;CYQF 270300Z 17012KT 10SM SKC M22/M27 A2995 RMK IC SLP238

CYQF;2009-02-27 04:00;CYQF 270400Z 18010G15KT 10SM SKC M22/M27 A2992 RMK IC SLP229

CYQF;2009-02-27 05:00;CYQF 270500Z 17008KT 15SM SKC M22/M27 A2992 RMK IC SLP229

CYQF;2009-02-27 05:40;CYQF 270540Z 17010KT 15SM SKC

CYQF;2009-02-27 06:00;CYQF 270600Z 17009KT 15SM SKC M23/M28 A2991 RMK SLP221

CYQF;2009-02-27 07:00;CYQF 270700Z 19004KT 15SM SKC M24/M29 A2992 RMK SLP224

CYQF;2009-02-27 08:00;CYQF 270800Z 18004KT 15SM SKC M24/M29 A2992 RMK SLP224

CYQF;2009-02-27 09:00;CYQF 270900Z 17004KT 15SM SKC M25/M30 A2994 RMK SLP231

CYQF;2009-02-27 10:00;CYQF 271000Z 19004KT 15SM SKC M27/M31 A2995 RMK SLP235

CYQF;2009-02-27 11:00;CYQF 271100Z 18003KT 15SM SKC M27/M32 A2998 RMK SLP243

CYQF;2009-02-27 12:00;CYQF 271200Z 20004KT 15SM SKC M27/M32 A2999 RMK SLP253

CYQF;2009-02-27 13:00;CYQF 271300Z 20007KT 15SM SKC M28/M33 A3002 RMK SLP262

CYQF;2009-02-27 14:00;CYQF 271400Z 20006KT 15SM FEW250 M27/M32 A3003 RMK CI1 SLP266

CYQF;2009-02-27 15:00;CYQF 271500Z 20006KT 12SM FEW250 M25/M30 A3005 RMK CI1 SLP275

CYQF;2009-02-27 16:00;CYQF 271600Z 18004KT 12SM FEW250 M24/M28 A3007 RMK CI1 SLP280

CYQF;2009-02-27 17:00;CYQF 271700Z 20004KT 12SM FEW250 M21/M25 A3011 RMK CI1 SLP291

CYQF;2009-02-27 18:00;CYQF 271800Z 17005KT 15SM FEW250 M17/M22 A3014 RMK CI1 SLP294

CYQF;2009-02-27 19:00;CYQF 271900Z 28003KT 15SM FEW250 M10/M16 A3016 RMK CI1 SLP302

CYQF;2009-02-27 20:00;CYQF 272000Z 30006KT 15SM FEW250 M08/M15 A3018 RMK CI1 SLP308

CYQF;2009-02-27 21:00;CYQF 272100Z 32006KT 15SM SCT250 M06/M14 A3019 RMK CI1 SLP301

CYQF;2009-02-27 22:00;CYQF 272200Z 34004KT 15SM BKN250 M06/M14 A3021 RMK CI2 SLP309

CYQF;2009-02-27 23:00;CYQF 272300Z 01005KT 15SM BKN250 M06/M15 A3023 RMK CI2 SLP315

CYQF;2009-02-28 00:00;CYQF 280000Z 35003KT 15SM BKN250 M07/M16 A3025 RMK CI2 SLP326

CYQF;2009-02-28 01:00;CYQF 280100Z 00000KT 15SM BKN250 M10/M16 A3027 RMK CI2 SLP333

CYQF;2009-02-28 02:00;CYQF 280200Z 00000KT 15SM BKN250 M14/M19 A3030 RMK CI2 SLP342

CYQF;2009-02-28 03:00;CYQF 280300Z 00000KT 15SM BKN250 M15/M19 A3032 RMK CI2 SLP359

CYQF;2009-02-28 04:00;CYQF 280400Z 18005KT 15SM FEW250 M18/M21 A3034 RMK CI1 SLP366

CYQF;2009-02-28 05:00;CYQF 280500Z 21003KT 15SM FEW250 M19/M22 A3036 RMK CI1 SLP372

CYQF;2009-02-28 06:00;CYQF 280600Z 19004KT 15SM FEW250 M20/M23 A3038 RMK CI1 SLP374

CYQF;2009-02-28 07:00;CYQF 280700Z 20003KT 15SM FEW250 M19/M23 A3039 RMK CI2 SLP378

CYQF;2009-02-28 08:00;CYQF 280800Z 00000KT 15SM FEW100 M19/M23 A3039 RMK AC2 SLP379

CYQF;2009-02-28 09:00;CYQF 280900Z 00000KT 15SM FEW250 M21/M25 A3042 RMK CI1 SLP376

CYQF;2009-02-28 10:00;CYQF 281000Z 00000KT 15SM SKC M24/M28 A3043 RMK SLP380

CYQF;2009-02-28 11:00;CYQF 281100Z 00000KT 15SM SKC M22/M25 A3044 RMK SLP384

CYQF;2009-02-28 12:00;CYQF 281200Z 00000KT 15SM SKC M25/M29 A3045 RMK SLP394

CYQF;2009-02-28 13:00;CYQF 281300Z 00000KT 15SM SKC M25/M29 A3045 RMK SLP395

CYQF;2009-02-28 14:00;CYQF 281400Z 00000KT 10SM SCT120 M24/M28 A3048 RMK AC2 SLP402

CYQF;2009-02-28 15:00;CYQF 281500Z 15002KT 12SM FEW120 M24/M28 A3047 RMK AC1 SLP409

CYQF;2009-02-28 16:00;CYQF 281600Z 24003KT 15SM FEW120 M23/M27 A3047 RMK AC1 SLP411

CYQF;2009-02-28 17:00;CYQF 281700Z 00000KT 12SM FEW120 M19/M23 A3048 RMK AC1 SLP414

CYQF;2009-02-28 18:00;CYQF 281800Z 00000KT 12SM FEW250 M18/M23 A3046 RMK CI1 SLP404

CYQF;2009-02-28 19:00;CYQF 281900Z 15003KT 12SM SCT250 M13/M19 A3043 RMK CI1 SLP395

CYQF;2009-02-28 20:00;CYQF 282000Z 17003KT 15SM BKN250 M11/M17 A3041 RMK CI2 SLP389

CYQF;2009-02-28 21:00;CYQF 282100Z 12008KT 15SM SCT250 M11/M17 A3039 RMK CI1 SLP371

CYQF;2009-02-28 22:00;CYQF 282200Z 13010KT 15SM SCT250 M11/M18 A3034 RMK CI1 SLP356

CYQF;2009-02-28 23:00;CYQF 282300Z 13014KT 15SM BKN250 M12/M18 A3033 RMK CI3 SLP352

CYQF;2009-03-01 01:00;CYQF 010100Z 14012KT 15SM FEW120 BKN250 M14/M20 A3027 RMK AC2CI2 SLP339

CYQF;2009-03-01 02:00;CYQF 010200Z 14010KT 15SM FEW120 BKN250 M15/M19 A3025 RMK AC2CI3 SLP334

CYQF;2009-03-01 03:00;CYQF 010300Z 16014G20KT 15SM FEW120 BKN250 M15/M22 A3023 RMK AC2CI3 SLP324

CYQF;2009-03-01 04:00;CYQF 010400Z 16013KT 15SM SCT100 BKN250 M15/M22 A3019 RMK AC3CI4 SLP313

CYQF;2009-03-01 05:00;CYQF 010500Z 16012KT 15SM BKN100 OVC250 M15/M21 A3015 RMK AC5CI3 SLP301

CYQF;2009-03-01 06:00;CYQF 010600Z 16011KT 15SM SCT100 OVC250 M15/M20 A3012 RMK AC3CI5 SLP279

CYQF;2009-03-01 07:00;CYQF 010700Z 17013KT 15SM FEW100 SCT250 M16/M20 A3009 RMK AC2CI2 SLP270

CYQF;2009-03-01 08:00;CYQF 010800Z 18005KT 15SM BKN150 M15/M20 A3006 RMK AC5 SLP262

CYQF;2009-03-01 09:00;CYQF 010900Z 13002KT 15SM FEW150 BKN250 M16/M20 A3004 RMK AC2CI2 SLP244

CYQF;2009-03-01 10:00;CYQF 011000Z 00000KT 15SM FEW250 M17/M21 A3002 RMK CI1 SLP238

CYQF;2009-03-01 11:00;CYQF 011100Z 00000KT 15SM SKC M18/M22 A3000 RMK SLP233

CYQF;2009-03-01 12:00;CYQF 011200Z 00000KT 15SM SKC M18/M21 A2999 RMK SLP233

CYQF;2009-03-01 13:00;CYQF 011300Z 00000KT 10SM SCT210 M20/M24 A2999 RMK CI2 BR SLP232

CYQF;2009-03-01 14:00;CYQF 011400Z 26002KT 10SM BKN210 M20/M24 A2999 RMK CI2 SLP231

CYQF;2009-03-01 15:00;CYQF 011500Z 24003KT 6SM BR FEW100 BKN250 M20/M23 A2998 RMK AC1CI3 SLP232

CYQF;2009-03-01 16:00;CYQF 011600Z 19003KT 6SM BR SCT100 OVC250 M18/M22 A2998 RMK AC3CI2 SLP233

CYQF;2009-03-01 17:00;CYQF 011700Z 00000KT 6SM BR SCT100 OVC250 M17/M21 A2997 RMK AC4CI3 SLP231

CYQF;2009-03-01 18:00;CYQF 011800Z 00000KT 8SM SCT100 OVC250 M15/M20 A2996 RMK AC4CI3 BR SLP221

CYQF;2009-03-01 19:00;CYQF 011900Z 00000KT 8SM BKN100 OVC250 M13/M18 A2995 RMK AC5CI3 SLP218

CYQF;2009-03-01 20:00;CYQF 012000Z 00000KT 10SM OVC120 M12/M17 A2993 RMK AC8 SLP211

CYQF;2009-03-01 21:00;CYQF 012100Z 00000KT 10SM BKN120 OVC250 M10/M16 A2990 RMK AC7CI1 SLP196

CYQF;2009-03-01 22:00;CYQF 012200Z 00000KT 10SM BKN120 BKN250 M09/M15 A2989 RMK AC6CI1 SLP191

CYQF;2009-03-01 23:00;CYQF 012300Z 14008KT 12SM SCT120 BKN250 M08/M13 A2988 RMK AC3CI2 SLP188

CYQF;2009-03-02 00:00;CYQF 020000Z 15003KT 12SM FEW050 SCT120 BKN250 M09/M14 A2988 RMK SC2AC2CI2 SLP188

CYQF;2009-03-02 01:00;CYQF 020100Z 15008KT 12SM FEW050 SCT120 BKN250 M10/M14 A2987 RMK SC2AC2CI2 SLP186

CYQF;2009-03-02 02:00;CYQF 020200Z 16007KT 15SM FEW050 FEW120 BKN250 M11/M15 A2987 RMK SC1AC2CI2 SLP186

CYQF;2009-03-02 03:00;CYQF 020300Z 16003KT 15SM FEW050 FEW120 BKN250 M12/M16 A2986 RMK SC1AC2CI2 SLP189

CYQF;2009-03-02 04:00;CYQF 020400Z 00000KT 15SM FEW100 M14/M17 A2985 RMK AC2 SLP184

CYQF;2009-03-02 05:00;CYQF 020500Z 00000KT 15SM FEW100 M15/M18 A2984 RMK AC2 SLP183

CYQF;2009-03-02 06:00;CYQF 020600Z 00000KT 15SM FEW100 M15/M18 A2983 RMK AC2 SLP174

CYQF;2009-03-02 07:00;CYQF 020700Z 00000KT 8SM FEW100 M15/M18 A2982 RMK AC1 BR SLP173

CYQF;2009-03-02 08:00;CYQF 020800Z 00000KT 8SM FEW100 BKN250 M16/M18 A2980 RMK AC1CI0 BR SLP167

CYQF;2009-03-02 09:00;CYQF 020900Z 00000KT 6SM BR SCT250 M16/M18 A2979 RMK CI2 SLP158

CYQF;2009-03-02 10:00;CYQF 021000Z 00000KT 6SM BR FEW100 SCT250 M16/M19 A2979 RMK AC1CI1 SLP157

CYQF;2009-03-02 11:00;CYQF 021100Z 17003KT 6SM BR SCT100 M14/M16 A2977 RMK AC3 SLP152

CYQF;2009-03-02 12:00;CYQF 021200Z 25003KT 6SM BR SCT100 M14/M17 A2976 RMK AC3 OBS TAKEN +5 SLP142

CYQF;2009-03-02 13:00;CYQF 021300Z 00000KT 6SM BR FEW100 M14/M17 A2976 RMK AC1 SLP143

CYQF;2009-03-02 14:00;CYQF 021400Z 02005KT 5SM BR FEW100 SCT250 M14/M17 A2974 RMK AC1CI0 SLP137

CYQF;2009-03-02 15:00;CYQF 021500Z 35003KT 6SM BR FEW100 FEW250 M15/M17 A2974 RMK AC1CI0 SLP139

CYQF;2009-03-02 16:00;CYQF 021600Z 00000KT 10SM FEW100 BKN250 M13/M16 A2972 RMK AC1CI1 SLP134

CYQF;2009-03-02 17:00;CYQF 021700Z 00000KT 10SM BKN250 M10/M14 A2972 RMK CI3 SLP134

CYQF;2009-03-02 18:00;CYQF 021800Z 00000KT 10SM BKN250 M06/M11 A2969 RMK CI5 SLP117

CYQF;2009-03-02 19:00;CYQF 021900Z 00000KT 10SM FEW100 BKN250 M05/M10 A2967 RMK AC1CI5 SLP111

CYQF;2009-03-02 20:00;CYQF 022000Z 00000KT 10SM FEW050 SCT100 BKN250 M02/M07 A2965 RMK SC1AC3CI2 SLP103

CYQF;2009-03-02 21:00;CYQF 022100Z 13005KT 10SM FEW050 BKN100 BKN250 01/M05 A2961 RMK SC1AC4CI2 SLP082

CYQF;2009-03-02 22:00;CYQF 022200Z 12006KT 10SM FEW050 BKN100 BKN250 M00/M06 A2960 RMK SC1AC4CI2 SLP079

CYQF;2009-03-02 23:00;CYQF 022300Z 12006KT 12SM BKN045 OVC100 01/M05 A2959 RMK SC5AC2 SLP074

CYQF;2009-03-03 00:00;CYQF 030000Z 15012KT 12SM BKN045 BKN100 M01/M06 A2958 RMK SC5AC2 SLP071

CYQF;2009-03-03 01:00;CYQF 030100Z 15003KT 12SM BKN045 BKN100 M02/M06 A2957 RMK SC5AC2 SLP069

CYQF;2009-03-03 02:00;CYQF 030200Z 00000KT 15SM BKN045 BKN100 M02/M06 A2957 RMK SC5AC2 SLP070

CYQF;2009-03-03 03:00;CYQF 030300Z 18003KT 15SM BKN050 BKN100 M02/M06 A2956 RMK SC5AC2 SLP068

CYQF;2009-03-03 04:00;CYQF 030400Z 02002KT 15SM FEW050 SCT100 BKN250 M04/M06 A2956 RMK SC1AC2CI1 SLP066

CYQF;2009-03-03 05:00;CYQF 030500Z 34005KT 15SM FEW100 BKN250 M07/M09 A2956 RMK AC2CI2 SLP066

CYQF;2009-03-03 06:00;CYQF 030600Z 34008KT 15SM FEW050 BKN100 BKN250 M04/M07 A2958 RMK SC1AC5CI1 SLP065

CYQF;2009-03-03 07:00;CYQF 030700Z 19005KT 10SM FEW050 BKN100 BKN250 M05/M08 A2962 RMK SC1AC5CI1 BR SLP077

CYQF;2009-03-03 08:00;CYQF 030800Z 00000KT 12SM FEW050 BKN100 OVC250 M05/M07 A2959 RMK SC1AC5CI2 BR SLP070

CYQF;2009-03-03 09:00;CYQF 030900Z 00000KT 8SM BKN100 OVC250 M05/M08 A2959 RMK AC5CI3 BR SLP062

CYQF;2009-03-03 10:00;CYQF 031000Z 12008KT 12SM BKN100 OVC250 M04/M08 A2958 RMK AC5CI3 BR SLP058

CYQF;2009-03-03 11:00;CYQF 031100Z 30003KT 12SM BKN100 OVC250 M05/M07 A2957 RMK AC5CI3 BR SLP057

CYQF;2009-03-03 12:00;CYQF 031200Z 24007KT 12SM BKN080 OVC250 M04/M08 A2959 RMK AC5CI3 BR SLP065

CYQF;2009-03-03 13:00;CYQF 031300Z 00000KT 15SM FEW040 OVC080 M04/M07 A2961 RMK SC2AC6 VIRGA SLP070

CYQF;2009-03-03 13:45;CYQF 031345Z 00000KT 15SM -SN FEW040 OVC080 RMK SC2AC6

CYQF;2009-03-03 14:00;CYQF 031400Z 00000KT 3SM -SN BKN018 OVC040 M03/M06 A2961 RMK SC5SC3 SLP069

CYQF;2009-03-03 14:12;CYQF 031412Z 00000KT 2SM -SNPL OVC018 RMK SC8

CYQF;2009-03-03 14:46;CYQF 031446Z 00000KT 2SM -RASN OVC018 RMK SC8

CYQF;2009-03-03 15:00;CYQF 031500Z 31004KT 2SM -RASN OVC015 M02/M04 A2959 RMK SC8 SLP064

CYQF;2009-03-03 16:00;CYQF 031600Z 32012KT 3SM -RASN OVC015 M01/M03 A2959 RMK SC8 SLP062

CYQF;2009-03-03 16:08;CYQF 031608Z 32009KT 4SM -RA BR OVC015 RMK SC8

CYQF;2009-03-03 16:35;CYQF 031635Z 33010KT 3SM -RASN OVC011 RMK SC8

CYQF;2009-03-03 17:00;CYQF 031700Z CCA 32008KT 2SM -SN OVC011 M01/M02 A2960 RMK SC8 /S01/ SLP065

CYQF;2009-03-03 18:00;CYQF 031800Z 30009KT 2SM -SN OVC011 M00/M02 A2961 RMK SC8 /S02 SLP069

CYQF;2009-03-03 19:00;CYQF 031900Z 30007KT 4SM -SN BKN012 OVC040 01/M02 A2961 RMK SC6SC1 SLP069

CYQF;2009-03-03 19:14;CYQF 031914Z 31010KT 12SM SCT012 OVC040 RMK SC4SC3

CYQF;2009-03-03 20:00;CYQF 032000Z 29007KT 15SM FEW040 BKN090 01/M02 A2961 RMK SC2AC5 CU TPS SW SHS DIS E QUAD SLP069

CYQF;2009-03-03 21:00;CYQF 032100Z 30006KT 15SM FEW040 BKN090 BKN250 02/M02 A2961 RMK SC1AC5CI1 CU ASOCTD SLP067

CYQF;2009-03-03 22:00;CYQF 032200Z 28004KT 15SM FEW040 SCT090 BKN250 04/M01 A2960 RMK CU2AC2CI2 SLP065

CYQF;2009-03-03 23:00;CYQF 032300Z 30002KT 15SM FEW040 SCT250 03/M02 A2960 RMK CU1CI0 SLP064

CYQF;2009-03-04 00:00;CYQF 040000Z 00000KT 15SM FEW040 SCT250 03/M03 A2961 RMK CU1CI0 SLP067

CYQF;2009-03-04 01:00;CYQF 040100Z 00000KT 15SM FEW040 SCT250 02/M04 A2962 RMK SC1CI1 CU ASOCTD SLP069

CYQF;2009-03-04 02:00;CYQF 040200Z 18005KT 15SM SCT040 BKN250 M03/M06 A2963 RMK SC3CI1 SLP073

CYQF;2009-03-04 03:00;CYQF 040300Z 18003KT 15SM SCT050 M04/M07 A2963 RMK SC4 SLP078

CYQF;2009-03-04 04:00;CYQF 040400Z 23007KT 15SM FEW040 SCT090 M05/M08 A2963 RMK SC2AC1 SLP079

CYQF;2009-03-04 05:00;CYQF 040500Z 24005KT 15SM FEW040 FEW090 M04/M05 A2964 RMK SC2AC1 SLP080

CYQF;2009-03-04 06:00;CYQF 040600Z 24006KT 15SM BCFG FEW040 M03/M05 A2964 RMK SC2 SLP079

CYQF;2009-03-04 07:00;CYQF 040700Z 20003KT 2SM BR FEW040 M06/M07 A2964 RMK SC1 SLP079

CYQF;2009-03-04 07:14;CYQF 040714Z 00000KT 1/2SM FZFG SKC RMK FG3

CYQF;2009-03-04 07:28;CYQF 040728Z 19005KT 1/4SM FZFG BKN040 RMK FG3SC2

CYQF;2009-03-04 08:00;CYQF 040800Z 23004KT 1/4SM FZFG FEW040 M09/M11 A2964 RMK FG2SC1 SLP078

CYQF;2009-03-04 09:00;CYQF 040900Z 19006KT 1/4SM FZFG SKC M10/M12 A2964 RMK FG4 SLP083

CYQF;2009-03-04 10:00;CYQF 041000Z 25003KT 1/4SM FZFG SKC M10/M11 A2963 RMK FG6 SLP080

CYQF;2009-03-04 11:00;CYQF 041100Z 21003KT 1/4SM FZFG BKN040 M10/M10 A2963 RMK FG6SC1 SLP080

CYQF;2009-03-04 12:00;CYQF 041200Z 22003KT 1/4SM FZFG SKC M10/M11 A2961 RMK FG6 SLP074

CYQF;2009-03-04 13:00;CYQF 041300Z 18003KT 1/4SM FZFG SKC M10/M11 A2960 RMK FG6 SLP070

CYQF;2009-03-04 14:00;CYQF 041400Z 00000KT 1/2SM FZFG BKN210 M11/M11 A2959 RMK FG2CI1 SLP066

CYQF;2009-03-04 15:00;CYQF 041500Z 21003KT 3SM BR FEW080 BKN250 M11/M12 A2958 RMK FG2AC1CI2 SLP070

CYQF;2009-03-04 15:13;CYQF 041513Z 20002KT 1SM BR SCT080 BKN250 RMK FG2AC1CI2

CYQF;2009-03-04 15:20;CYQF 041520Z 20002KT 1/4SM FZFG BKN250 RMK FG3CI2

CYQF;2009-03-04 16:00;CYQF 041600Z 00000KT 1SM BR SCT250 M09/M09 A2956 RMK FG1CI1 SLP066

CYQF;2009-03-04 16:29;CYQF 041629Z 19002KT 6SM BR SCT250 RMK CI2

CYQF;2009-03-04 17:00;CYQF 041700Z 19002KT 8SM BKN250 M07/M07 A2956 RMK CI2 SLP063

CYQF;2009-03-04 18:00;CYQF 041800Z 16003KT 12SM SCT250 M04/M04 A2953 RMK CI1 SLP046

CYQF;2009-03-04 19:00;CYQF 041900Z 17005KT 15SM FEW030 BKN250 M02/M03 A2950 RMK CU1CI1 SLP037

CYQF;2009-03-04 20:00;CYQF 042000Z 17003KT 15SM FEW030 SCT250 01/M05 A2947 RMK CU1CI1 SLP028

CYQF;2009-03-04 21:00;CYQF 042100Z 14006KT 15SM FEW030 FEW250 01/M06 A2944 RMK CU1CI1 SLP014

CYQF;2009-03-04 22:00;CYQF 042200Z 15005KT 15SM FEW030 BKN250 02/M06 A2942 RMK CU1CI1 SLP008

CYQF;2009-03-04 23:00;CYQF 042300Z 17007KT 15SM FEW030 SCT100 BKN250 00/M04 A2941 RMK CU1AC2CI2 VIRGA SLP006

CYQF;2009-03-05 00:00;CYQF 050000Z 17009KT 15SM FEW030 SCT100 BKN250 00/M04 A2939 RMK CU1AC2CI2 SLP999

CYQF;2009-03-05 01:00;CYQF 050100Z 15003KT 15SM FEW030 SCT100 BKN250 M01/M03 A2939 RMK CU1AC2CI2 SLP998

CYQF;2009-03-05 02:00;CYQF 050200Z 33002KT 15SM FEW030 BKN090 BKN250 M02/M05 A2940 RMK SC2AC2CI2 SLP002

CYQF;2009-03-05 03:00;CYQF 050300Z 08002KT 10SM FEW030 BKN090 OVC250 M02/M05 A2939 RMK SC2AC2CI2 SLP004

CYQF;2009-03-05 04:00;CYQF 050400Z 09004KT 10SM FEW030 BKN090 OVC250 M04/M06 A2938 RMK SC2AC2CI2 SLP001

CYQF;2009-03-05 05:00;CYQF 050500Z 31002KT 10SM FEW030 BKN090 OVC250 M04/M06 A2939 RMK SC2AC3CI2 SLP004

CYQF;2009-03-05 06:00;CYQF 050600Z 33007KT 10SM FEW030 OVC090 M03/M05 A2941 RMK SC2AC6 SLP004

CYQF;2009-03-05 06:27;CYQF 050627Z 30010G15KT 2SM -SN OVC030 RMK SC8

CYQF;2009-03-05 06:30;CYQF 050630Z 31020G30KT 1/2SM SN BLSN OVC030 RMK SN4SC4

CYQF;2009-03-05 07:00;CYQF 050700Z 32020G25KT 1SM -SN OVC030 M06/M08 A2951 RESN REBLSN RMK SN2SC6 SLP033

CYQF;2009-03-05 08:00;CYQF 050800Z 32020G26KT 1SM -SN OVC020 M08/M10 A2956 RMK SN3SC5 SLP050

CYQF;2009-03-05 09:00;CYQF 050900Z 32020G25KT 1SM -SN OVC020 M09/M11 A2961 RMK SN3SC5 SLP072

CYQF;2009-03-05 10:00;CYQF 051000Z 33025G34KT 1SM -SN OVC020 M10/M13 A2963 RMK SN3SC5 SLP079

CYQF;2009-03-05 11:00;CYQF 051100Z 32020G33KT 1SM -SN BLSN OVC060 M11/M14 A2966 RMK SN3SC5 SLP089

CYQF;2009-03-05 12:00;CYQF 051200Z 33025G34KT 2SM -SN BLSN OVC060 M12/M15 A2969 RMK SN3SC5 SLP104

CYQF;2009-03-05 13:00;CYQF 051300Z 33025G35KT 2SM -SN BLSN OVC060 M13/M16 A2973 RMK SN3SC5 SLP118

CYQF;2009-03-05 14:00;CYQF 051400Z 34015G24KT 5SM -SN OVC060 M13/M17 A2976 REBLSN RMK SC8 SLP128

CYQF;2009-03-05 14:25;CYQF 051425Z 33020G30KT 2SM -SN BLSN OVC060 RMK SN3SC5 VIS VRB 1-3

CYQF;2009-03-05 15:00;CYQF 051500Z 33020G30KT 2SM -SN BLSN OVC030 M14/M18 A2979 RMK SN3SC5 VIS VRB 1-3 SLP147

CYQF;2009-03-05 16:00;CYQF 051600Z 33025G35KT 1SM -SN BLSN OVC030 M15/M18 A2982 RMK SN4SC4 SLP156

CYQF;2009-03-05 17:00;CYQF 051700Z 33025G32KT 1SM -SN BLSN OVC030 M15/M18 A2986 RMK BLSN3SC3 SLP168

CYQF;2009-03-05 18:00;CYQF 051800Z 33025G30KT 1SM -SN BLSN BKN030 M15/M18 A2988 RMK BLSN3SC3 SLP179

CYQF;2009-03-05 18:53;CYQF 051853Z 34020G25KT 2SM -SN BLSN OVC030 RMK BLSN2SC6

CYQF;2009-03-05 19:00;CYQF 051900Z 34020G25KT 2SM -SN BLSN OVC030 M15/M19 A2990 RMK BLSN2SC6 SLP184

CYQF;2009-03-05 19:05;CYQF 051905Z 33015G21KT 5SM -SN DRSN BKN030 BKN080 REBLSN RMK SC5AC2 OCNL BLSN

CYQF;2009-03-05 19:49;CYQF 051949Z 33020G25KT 8SM DRSN FEW030 BKN080 BKN240 REBLSN RMK SC2AC2CI2 OCNL BLSN

CYQF;2009-03-05 20:00;CYQF 052000Z 33018G24KT 10SM DRSN FEW030 BKN080 BKN240 M15/M19 A2990 REBLSN RMK SC2AC3CI2 SLP186

CYQF;2009-03-05 21:00;CYQF 052100Z 35014G21KT 15SM DRSN FEW030 BKN080 BKN240 M14/M19 A2991 RMK SC2AC3CI1 SLP195

CYQF;2009-03-05 22:00;CYQF 052200Z 34015G20KT 15SM DRSN FEW030 BKN080 BKN240 M14/M19 A2993 RMK SC2AC3CI1 SLP200

CYQF;2009-03-05 23:00;CYQF 052300Z 33015G20KT 15SM FEW030 SCT080 BKN240 M13/M19 A2994 RMK SC2AC2CI1 SLP203

CYQF;2009-03-06 00:00;CYQF 060000Z 34012KT 15SM FEW030 FEW080 BKN240 M14/M19 A2995 RMK SC1AC1CI2 SLP210

CYQF;2009-03-06 01:00;CYQF 060100Z 34005KT 15SM FEW030 FEW080 BKN240 M14/M19 A2996 RMK SC1AC2CI2 SLP215

CYQF;2009-03-06 02:00;CYQF 060200Z 33005KT 15SM FEW080 BKN240 M15/M20 A2999 RMK AC2CI2 SLP223

CYQF;2009-03-06 03:00;CYQF 060300Z 36002KT 15SM FEW080 BKN240 M16/M20 A3001 RMK AC1CI2 SLP238

CYQF;2009-03-06 04:00;CYQF 060400Z 35003KT 15SM FEW080 BKN240 17/M21 A3003 RMK AC1CI2 SLP243

CYQF;2009-03-06 05:00;CYQF 060500Z 34003KT 15SM SCT240 M18/M22 A3003 RMK CI2 SLP245

CYQF;2009-03-06 06:00;CYQF 060600Z 32004KT 15SM FEW240 M20/M25 A3003 RMK CI1 SLP252

CYQF;2009-03-06 07:00;CYQF 060700Z 26006KT 15SM FEW250 M23/M27 A3004 RMK CI1 SLP253

CYQF;2009-03-06 08:00;CYQF 060800Z 26006KT 15SM SKC M22/M26 A3003 RMK SLP251

CYQF;2009-03-06 09:00;CYQF 060900Z 00000KT 15SM SKC M24/M28 A3003 RMK SLP253

CYQF;2009-03-06 10:00;CYQF 061000Z 17004KT 15SM SKC M26/M31 A3001 RMK SLP248

CYQF;2009-03-06 11:00;CYQF 061100Z 19004KT 15SM FEW250 M28/M32 A2999 RMK CI0 SLP243

CYQF;2009-03-06 12:00;CYQF 061200Z 00000KT 15SM SKC M27/M32 A2999 RMK SLP243

CYQF;2009-03-06 13:00;CYQF 061300Z 18003KT 15SM SKC M29/M34 A2998 RMK SLP240

CYQF;2009-03-06 14:00;CYQF 061400Z 20004KT 15SM SKC M29/M34 A2997 RMK SLP238

CYQF;2009-03-06 15:00;CYQF 061500Z 00000KT 15SM FEW250 M27/M31 A2997 RMK CI0 SLP238

CYQF;2009-03-06 16:00;CYQF 061600Z 18002KT 15SM FEW250 M25/M29 A2995 RMK CI0 SLP234

CYQF;2009-03-06 17:00;CYQF 061700Z 18002KT 15SM FEW250 M20/M24 A2994 RMK CI0 SLP229

CYQF;2009-03-06 18:00;CYQF 061800Z 18010KT 15SM FEW250 M16/M20 A2993 RMK CI0 SLP216

CYQF;2009-03-06 19:00;CYQF 061900Z 17012KT 15SM FEW250 M14/M20 A2989 RMK CI0 SLP206

CYQF;2009-03-06 20:00;CYQF 062000Z 17010KT 15SM FEW250 M12/M19 A2986 RMK CI0 SLP197

CYQF;2009-03-06 21:00;CYQF 062100Z 17010KT 15SM BKN250 M12/M18 A2982 RMK CI1 SLP179

CYQF;2009-03-06 22:00;CYQF 062200Z 17010KT 15SM BKN250 M10/M17 A2981 RMK CI2 SLP174

CYQF;2009-03-06 23:00;CYQF 062300Z 14008KT 15SM BKN250 M11/M17 A2978 RMK CI2 SLP167

CYQF;2009-03-07 00:00;CYQF 070000Z 15010KT 15SM SCT250 M11/M16 A2975 RMK CI2 SLP156

CYQF;2009-03-07 01:00;CYQF 070100Z 17012KT 15SM SCT250 M11/M16 A2971 RMK CI1 SLP145

CYQF;2009-03-07 02:00;CYQF 070200Z 16010KT 15SM FEW120 M12/M17 A2969 RMK AC1 SLP139

CYQF;2009-03-07 03:00;CYQF 070300Z 16010G15KT 15SM SKC M11/M16 A2966 RMK SLP126

CYQF;2009-03-07 04:00;CYQF 070400Z 17012KT 15SM SKC M12/M16 A2962 RMK SLP112

CYQF;2009-03-07 05:00;CYQF 070500Z 17006KT 15SM SKC M12/M17 A2959 RMK SLP103

CYQF;2009-03-07 06:00;CYQF 070600Z 16008KT 15SM SKC M13/M17 A2955 RMK SLP076

CYQF;2009-03-07 07:00;CYQF 070700Z 18003KT 15SM SCT240 M13/M17 A2953 RMK CI1 SLP068

CYQF;2009-03-07 08:00;CYQF 070800Z 13005KT 15SM BKN240 M13/M17 A2949 RMK CS2 SLP057

CYQF;2009-03-07 09:00;CYQF 070900Z 00000KT 15SM BKN240 M13/M17 A2946 RMK CS4 SLP040

CYQF;2009-03-07 10:00;CYQF 071000Z 00000KT 15SM FEW120 BKN240 M13/M17 A2943 RMK AC2CS2 SLP030

CYQF;2009-03-07 11:00;CYQF 071100Z 19002KT 15SM FEW050 SCT120 OVC240 M14/M18 A2940 RMK SC2AC2CS3 SLP022

CYQF;2009-03-07 12:00;CYQF 071200Z 18002KT 15SM FEW050 SCT120 OVC240 M14/M17 A2937 RMK SC2AC2CS4 SLP010

CYQF;2009-03-07 13:00;CYQF 071300Z 21004KT 15SM FEW050 BKN120 OVC240 M13/M17 A2936 RMK SC1AC5CS2 SLP004

CYQF;2009-03-07 14:00;CYQF 071400Z 14002KT 15SM FEW050 BKN120 OVC240 M12/M16 A2933 RMK SC1AC4CS3 SLP997

CYQF;2009-03-07 15:00;CYQF 071500Z 00000KT 15SM FEW050 BKN120 BKN240 M12/M16 A2934 RMK SC1AC4CI1 SLP996

CYQF;2009-03-07 16:00;CYQF 071600Z 22005KT 15SM FEW050 SCT120 BKN240 M12/M16 A2936 RMK SC1AC2CI1 SLP002

CYQF;2009-03-07 17:00;CYQF 071700Z 28005KT 15SM BKN040 BKN120 07/M12 A2938 RMK SC5AC1 SLP009

CYQF;2009-03-07 18:00;CYQF 071800Z 34010KT 15SM SCT030 BKN080 BKN120 M02/M07 A2941 RMK SC3AC2AC1 SLP012

CYQF;2009-03-07 19:00;CYQF 071900Z 35008KT 15SM FEW030 BKN100 M01/M06 A2942 RMK SC2AC4 SLP014

CYQF;2009-03-07 20:00;CYQF 072000Z 35010G16KT 15SM SCT100 00/M07 A2942 RMK AC3 SLP015

CYQF;2009-03-07 21:00;CYQF 072100Z 36012KT 15SM SCT100 01/M08 A2941 RMK AC3 SLP010

CYQF;2009-03-07 22:00;CYQF 072200Z 01012KT 15SM FEW040 SCT100 SCT240 01/M09 A2942 RMK SC1AC2CI0 SLP011

CYQF;2009-03-07 23:00;CYQF 072300Z 07007KT 15SM SCT040 BKN100 00/M08 A2944 RMK SC3AC3 SLP019

CYQF;2009-03-08 00:00;CYQF 080000Z 06010KT 15SM BKN040 OVC100 M01/M08 A2948 RMK SC5AC3 SLP036

CYQF;2009-03-08 00:23;CYQF 080023Z 03010G15KT 3SM -SHSN BKN030 OVC100 RMK SN2SC4AC2 VIS N 1

CYQF;2009-03-08 00:28;CYQF 080028Z 02012KT 1SM -SHSN VV008 RMK SN8 VIS N 1/2

CYQF;2009-03-08 01:00;CYQF 080100Z 02012KT 1SM -SHSN VV008 M04/M06 A2953 RMK SN8 /S01/ SLP050

CYQF;2009-03-08 01:18;CYQF 080118Z 36010G15KT 1/4SM +SHSN VV005 RMK SN8

CYQF;2009-03-08 01:24;CYQF 080124Z 34015G22KT 0SM +SN +BLSN VV003 RMK SN8

CYQF;2009-03-08 01:40;CYQF 080140Z 35010G15KT 1/2SM SN DRSN VV006 RMK SN8

CYQF;2009-03-08 01:48;CYQF 080148Z 35010G15KT 1/4SM +SN DRSN VV005 RMK SN8

CYQF;2009-03-08 02:00;CYQF 080200Z 35010G15KT 1/4SM +SN DRSN VV005 M05/M07 A2957 RMK SN8 /S03/ SLP065

CYQF;2009-03-08 02:09;CYQF 080209Z 35010KT 1/2SM SN VV007 RESN RMK SN8

CYQF;2009-03-08 02:32;CYQF 080232Z 36010KT 1/4SM +SN VV006 RMK SN8

CYQF;2009-03-08 02:40;CYQF 080240Z 36008KT 3/8SM SN VV006 RESN RMK SN8

CYQF;2009-03-08 03:00;CYQF 080300Z CCA 02013KT 1SM -SN DRSN VV012 M06/M08 A2957 RESN RMK SN8 /S06/ SLP071

CYQF;2009-03-08 03:26;CYQF 080326Z 36015KT 5SM -SN DRSN OVC080 RMK AC8

CYQF;2009-03-08 04:00;CYQF 080400Z 01015G20KT 10SM -SN DRSN OVC100 M06/M10 A2961 RMK AC8 SLP083

CYQF;2009-03-08 04:22;CYQF 080422Z 34015G22KT 15SM DRSN OVC100 RMK AC8

CYQF;2009-03-08 05:00;CYQF 080500Z 34018G25KT 5SM BLSN FEW020 OVC100 M09/M13 A2966 RMK SC1AC7 PK GUST 33KT PST HR SLP099

CYQF;2009-03-08 06:00;CYQF 080600Z 34020G26KT 5SM BLSN FEW010 OVC100 M11/M15 A2972 RMK SF1AC7 /S10/ SLP118

CYQF;2009-03-08 07:00;CYQF 080700Z 34015G22KT 5SM BLSN FEW010 OVC090 M13/M17 A2978 RMK SF2AC5 SLP135

CYQF;2009-03-08 08:00;CYQF 080800Z CCA 33014G20KT 10SM DRSN FEW010 OVC090 M14/M18 A2983 RMK SF1AC4 OCNL BLSN SLP150

CYQF;2009-03-08 09:00;CYQF 080900Z 33011KT 15SM DRSN FEW010 FEW090 BKN250 M15/M20 A2986 RMK SF1AC2CI1 SLP169

CYQF;2009-03-08 10:00;CYQF 081000Z 33012KT 15SM DRSN FEW090 BKN250 M16/M21 A2989 RMK AC2CI1 SLP176

CYQF;2009-03-08 11:00;CYQF 081100Z 32011KT 15SM DRSN FEW090 SCT250 M16/M21 A2990 RMK AC1CI1 SLP181

CYQF;2009-03-08 12:00;CYQF 081200Z 33013G23KT 15SM DRSN FEW090 SCT250 M17/M22 A2993 RMK AC1CI1 SLP194

CYQF;2009-03-08 13:00;CYQF 081300Z 32013G20KT 15SM DRSN FEW090 SCT250 M17/M22 A2995 RMK AC1CI0 SLP202

CYQF;2009-03-08 14:00;CYQF 081400Z 32010KT 15SM FEW090 BKN250 M18/M23 A2998 RMK AC1CI2 SLP210

CYQF;2009-03-08 15:00;CYQF 081500Z 33015G20KT 3SM BLSN BKN040 OVC090 M16/M21 A3000 RMK SC5AC2 VIS NW-E 1 S 4 SLP225

CYQF;2009-03-08 16:00;CYQF 081600Z 34010KT 15SM FEW040 SCT090 BKN250 M16/M22 A3003 RMK SC2AC2CI2 DRSN SLP233

CYQF;2009-03-08 17:00;CYQF 081700Z 33015G22KT 5SM BLSN FEW040 OVC090 M16/M21 A3005 RMK SC2AC4 SLP239

CYQF;2009-03-08 18:00;CYQF 081800Z 34018G25KT 2SM BLSN FEW040 BKN090 OVC250 M17/M21 A3007 RMK SC2AC3CI2 SLP256

CYQF;2009-03-08 19:00;CYQF 081900Z 34020G27KT 2SM BLSN FEW040 BKN090 OVC250 M17/M21 A3009 RMK SC2AC3CI2 SLP262

CYQF;2009-03-08 20:00;CYQF 082000Z 34014G20KT 3SM BLSN SCT090 OVC250 M17/M22 A3010 RMK AC3CI3 SLP264

CYQF;2009-03-08 21:00;CYQF 082100Z 35013KT 8SM DRSN SCT090 OVC250 M17/M23 A3010 RMK AC3CI3 SLP272

CYQF;2009-03-08 22:00;CYQF 082200Z 35012G18KT 5SM BLSN FEW010 BKN090 OVC250 M17/M23 A3012 RMK SF1AC4CI2 SLP278

CYQF;2009-03-08 23:00;CYQF 082300Z 35011G17KT 10SM DRSN FEW010 BKN250 M17/M23 A3014 RMK SF1CI3 SLP283

CYQF;2009-03-09 00:00;CYQF 090000Z 34010G15KT 10SM DRSN BKN250 M18/M24 A3016 RMK CI2 SLP296

CYQF;2009-03-09 01:00;CYQF 090100Z 36008KT 10SM OVC250 M18/M24 A3018 RMK CI6 SLP303

CYQF;2009-03-09 02:00;CYQF 090200Z 35008KT 12SM OVC250 M19/M26 A3020 RMK CI7 SLP309

CYQF;2009-03-09 03:00;CYQF 090300Z 36009KT 12SM OVC250 M19/M26 A3022 RMK CS3 SLP316

CYQF;2009-03-09 04:00;CYQF 090400Z 01006KT 15SM BKN250 M20/M27 A3023 RMK CS3 SLP320

CYQF;2009-03-09 05:00;CYQF 090500Z 36005KT 15SM BKN250 M20/M28 A3025 RMK CS3 SLP325

CYQF;2009-03-09 06:00;CYQF 090600Z 35008KT 15SM BKN250 M21/M29 A3025 RMK CS2 SLP332

CYQF;2009-03-09 07:00;CYQF 090700Z 36007KT 15SM BKN250 M22/M29 A3027 RMK CI2 SLP338

CYQF;2009-03-09 08:00;CYQF 090800Z 36007KT 15SM FEW080 BKN250 M23/M29 A3028 RMK AC2CI2 IC SLP340

CYQF;2009-03-09 09:00;CYQF 090900Z 36003KT 15SM FEW080 BKN250 M24/M29 A3029 RMK AC2CI2 SLP349

CYQF;2009-03-09 10:00;CYQF 091000Z 33003KT 15SM BKN250 M24/M29 A3029 RMK CI2 IC SLP350

CYQF;2009-03-09 11:00;CYQF 091100Z 33003KT 10SM BKN250 M25/M29 A3029 RMK CI2 IC SLP349

CYQF;2009-03-09 12:00;CYQF 091200Z 02005KT 8SM -SN BKN080 BKN250 M24/M29 A3029 RMK AC5CI2 SLP350

CYQF;2009-03-09 13:00;CYQF 091300Z 02004KT 6SM -SN FEW040 OVC080 M24/M29 A3030 RMK SC1AC7 SLP352

CYQF;2009-03-09 14:00;CYQF 091400Z CCA 36002KT 6SM -SN SCT030 OVC080 M24/M29 A3030 RMK SC3AC5 SLP354

CYQF;2009-03-09 15:00;CYQF 091500Z 03004KT 4SM -SN FEW030 OVC080 M24/M29 A3031 RMK SC2AC6 SLP360

CYQF;2009-03-09 15:26;CYQF 091526Z 04004KT 1 1/2SM -SN BR OVC030 RMK SN2SC6

CYQF;2009-03-09 16:00;CYQF 091600Z 00000KT 1 1/2SM -SN BR VV020 M24/M30 A3032 RMK SN8 SLP362

CYQF;2009-03-09 17:00;CYQF 091700Z 00000KT 1 1/2SM -SN BR VV020 M24/M29 A3032 RMK SN8 SLP363

CYQF;2009-03-09 18:00;CYQF 091800Z CCA 00000KT 1 1/2SM -SN BR VV020 M22/M28 A3032 RMK SN8 /S01/ SLP363

CYQF;2009-03-09 18:15;CYQF 091815Z 00000KT 3SM -SN BR FEW030 BKN250 RMK SC2CS2

CYQF;2009-03-09 19:00;CYQF 091900Z 00000KT 3SM -SN SCT025 OVC250 M22/M29 A3031 RMK SN2SF2CS2 SLP359

CYQF;2009-03-09 20:00;CYQF 092000Z 00000KT 5SM -SN FEW025 OVC250 M22/M29 A3030 RMK SN2SC1CS2 SLP356

CYQF;2009-03-09 20:53;CYQF 092053Z 00000KT 1 1/2SM -SN SCT015 VV025 RMK SF3SN5

CYQF;2009-03-09 21:00;CYQF 092100Z 15003KT 1 1/2SM -SN SCT015 VV025 M22/M29 A3028 RMK SF3SN5 SLP353

CYQF;2009-03-09 22:00;CYQF 092200Z 07003KT 2SM -SN SCT015 OVC250 M22/M29 A3027 RMK SN2SF2CI4 SLP350

CYQF;2009-03-09 23:00;CYQF 092300Z 08007KT 2 1/2SM -SN BR FEW020 BKN250 M22/M29 A3028 RMK SC2CI2 SLP351

CYQF;2009-03-09 23:17;CYQF 092317Z 07007KT 5SM -SN BR FEW020 BKN250 RMK SC2CI2

CYQF;2009-03-10 00:00;CYQF 100000Z 08008KT 5SM -SN BR BKN250 M23/M29 A3028 RMK CS3 SLP353

CYQF;2009-03-10 01:00;CYQF 100100Z 08005KT 5SM -SN BR OVC250 M23/M29 A3029 RMK CI5 SLP355

CYQF;2009-03-10 02:00;CYQF 100200Z 08006KT 5SM -SN BR OVC250 M24/M29 A3030 RMK CI5 SLP358

CYQF;2009-03-10 03:00;CYQF 100300Z 06003KT 6SM -SN BR OVC250 M24/M29 A3031 RMK CI3 SLP365

CYQF;2009-03-10 04:00;CYQF 100400Z 06002KT 8SM -SN BKN250 M25/M29 A3031 RMK CI3 BR SLP366

CYQF;2009-03-10 05:00;CYQF 100500Z 00000KT 8SM -SN BKN250 M25/M30 A3032 RMK CI3 BR SLP367

CYQF;2009-03-10 06:00;CYQF 100600Z 01003KT 10SM -SN BKN250 M26/M30 A3032 RMK CI3 SLP366

CYQF;2009-03-10 07:00;CYQF 100700Z 36002KT 10SM -SN BKN250 M27/M31 A3032 RMK CI3 SLP367

CYQF;2009-03-10 08:00;CYQF 100800Z 00000KT 10SM -SN BKN250 M27/M32 A3032 RMK CI3 SLP366

CYQF;2009-03-10 09:00;CYQF 100900Z CCA 35002KT 15SM BKN250 M29/M34 A3032 RMK CI3 IC SLP370

CYQF;2009-03-10 10:00;CYQF 101000Z 35003KT 15SM BKN250 M29/M34 A3031 RMK CI2 IC SLP368

CYQF;2009-03-10 11:00;CYQF 101100Z 35003KT 15SM BKN250 M31/M35 A3031 RMK CI2 IC SLP367

CYQF;2009-03-10 12:00;CYQF 101200Z CCA 02003KT 15SM BKN250 M30/M35 A3031 RMK CI2 IC SLP369

CYQF;2009-03-10 13:00;CYQF 101300Z 00000KT 12SM SCT250 M33/M38 A3032 RMK CI2 SLP373

CYQF;2009-03-10 13:45;CYQF 101345Z 00000KT 8SM BCFG FEW250 RMK CI1

CYQF;2009-03-10 14:00;CYQF 101400Z 23003KT 8SM FEW250 M36/M41 A3034 RMK CI1 BR SLP378

CYQF;2009-03-10 15:00;CYQF 101500Z 00000KT 10SM PRFG FEW250 M35/M41 A3034 RMK CI0 VIS NW 1/2 DUE A/C OPS SLP391

CYQF;2009-03-10 16:00;CYQF 101600Z 19002KT 10SM SKC M33/M38 A3034 RMK BR SLP390

CYQF;2009-03-10 17:00;CYQF 101700Z 19002KT 10SM SKC M30/M35 A3035 RMK SLP392

CYQF;2009-03-10 18:00;CYQF 101800Z 00000KT 10SM SKC M27/M31 A3034 RMK SLP382

CYQF;2009-03-10 19:00;CYQF 101900Z 16004KT 12SM SKC M25/M29 A3033 RMK SLP377

CYQF;2009-03-10 20:00;CYQF 102000Z 19003KT 12SM SKC M24/M29 A3032 RMK SLP373

CYQF;2009-03-10 21:00;CYQF 102100Z 17007KT 15SM SKC M22/M29 A3029 RMK SLP362

CYQF;2009-03-10 22:00;CYQF 102200Z 16010KT 15SM SKC M22/M30 A3028 RMK SLP359

CYQF;2009-03-10 23:00;CYQF 102300Z 16010KT 15SM SKC M22/M30 A3027 RMK SLP356

CYQF;2009-03-11 00:00;CYQF 110000Z 16008KT 15SM SKC M22/M30 A3026 RMK SLP352

CYQF;2009-03-11 01:00;CYQF 110100Z 17008KT 15SM SKC M24/M31 A3025 RMK SLP349

CYQF;2009-03-11 02:00;CYQF 110200Z 17006KT 15SM SKC M26/M32 A3024 RMK SLP346

CYQF;2009-03-11 03:00;CYQF 110300Z 18010KT 15SM SKC M27/M34 A3024 RMK SLP356

CYQF;2009-03-11 04:00;CYQF 110400Z 18005KT 15SM SKC M28/M33 A3022 RMK SLP351

CYQF;2009-03-11 05:00;CYQF 110500Z 18006KT 15SM SKC M28/M34 A3022 RMK SLP350

CYQF;2009-03-11 06:00;CYQF 110600Z 18005KT 15SM SKC M31/M36 A3021 RMK SLP339

CYQF;2009-03-11 07:00;CYQF 110700Z 18003KT 15SM SKC M31/M35 A3019 RMK SLP335

CYQF;2009-03-11 08:00;CYQF 110800Z 17003KT 15SM SKC M31/M36 A3018 RMK SLP331

CYQF;2009-03-11 09:00;CYQF 110900Z 18003KT 15SM SKC M32/M36 A3017 RMK SLP323

CYQF;2009-03-11 10:00;CYQF 111000Z 00000KT 15SM SKC M33/M38 A3018 RMK SLP325

CYQF;2009-03-11 11:00;CYQF 111100Z 20003KT 15SM SCT250 M33/M37 A3018 RMK CI1 SLP325

CYQF;2009-03-11 12:00;CYQF 111200Z 20007KT 15SM SCT250 M31/M36 A3018 RMK CI1 SLP325

CYQF;2009-03-11 13:00;CYQF 111300Z 19008KT 15SM FEW250 M32/M36 A3019 RMK CI0 OBS TAKEN -01 SLP328

CYQF;2009-03-11 14:00;CYQF 111400Z 19006KT 15SM BKN250 M31/M36 A3019 RMK CI1 OBS TAKEN +04 SLP329

CYQF;2009-03-11 15:00;CYQF 111500Z 19008KT 15SM FEW250 M31/M35 A3019 RMK CI0 SLP335

CYQF;2009-03-11 16:00;CYQF 111600Z 19005KT 15SM FEW250 M28/M33 A3020 RMK CI1 SLP337

CYQF;2009-03-11 17:00;CYQF 111700Z 19004KT 15SM SKC M25/M30 A3022 RMK OBS TAKEN +10 SLP343

CYQF;2009-03-11 18:00;CYQF 111800Z 18004KT 15SM SKC M22/M29 A3022 RMK SLP338

CYQF;2009-03-11 19:00;CYQF 111900Z 18004KT 15SM SKC M19/M27 A3022 RMK SLP337

CYQF;2009-03-11 20:00;CYQF 112000Z 18003KT 15SM SKC M17/M26 A3020 RMK SLP332

CYQF;2009-03-11 21:00;CYQF 112100Z 18004KT 15SM SKC M15/M24 A3018 RMK SLP318

CYQF;2009-03-11 22:00;CYQF 112200Z 18005KT 15SM SKC M13/M23 A3015 RMK SLP310

CYQF;2009-03-11 23:00;CYQF 112300Z 18008KT 15SM SKC M12/M23 A3014 RMK SLP306

CYQF;2009-03-12 00:00;CYQF 120000Z 19005KT 15SM FEW250 M14/M23 A3014 RMK CI1 SLP302

CYQF;2009-03-12 01:00;CYQF 120100Z 19003KT 15SM FEW250 M15/M25 A3014 RMK CI1 SLP301

CYQF;2009-03-12 02:00;CYQF 120200Z 19006KT 15SM FEW250 M19/M27 A3014 RMK CI0 SLP300

CYQF;2009-03-12 03:00;CYQF 120300Z 19003KT 15SM SKC M20/M28 A3014 RMK OB TAKEN +10 SLP306

CYQF;2009-03-12 04:00;CYQF 120400Z 00000KT 15SM FEW250 M20/M28 A3014 RMK CI0 OB TAKEN +16 SLP306

CYQF;2009-03-12 05:00;CYQF 120500Z 22005KT 15SM FEW250 M20/M28 A3013 RMK CI0 SLP305

CYQF;2009-03-12 06:00;CYQF 120600Z 20005KT 15SM FEW250 M21/M28 A3013 RMK CI0 SLP294

CYQF;2009-03-12 07:00;CYQF 120700Z 19007KT 15SM FEW250 M21/M27 A3012 RMK CI1 SLP292

CYQF;2009-03-12 08:00;CYQF 120800Z 20004KT 15SM FEW090 BKN220 M21/M26 A3012 RMK AC1CI2 SLP291

CYQF;2009-03-12 09:00;CYQF 120900Z 20003KT 15SM FEW090 BKN220 M21/M27 A3012 RMK AC1CI2 SLP284

CYQF;2009-03-12 10:00;CYQF 121000Z 20004KT 15SM FEW220 M21/M26 A3011 RMK CI1 SLP280

CYQF;2009-03-12 11:00;CYQF 121100Z 00000KT 15SM FEW220 M20/M25 A3009 RMK CI1 SLP275

CYQF;2009-03-12 12:00;CYQF 121200Z 18005KT 15SM FEW220 M21/M26 A3009 RMK CI1 SLP272

CYQF;2009-03-12 13:00;CYQF 121300Z 20004KT 15SM FEW220 M22/M28 A3009 RMK CI1 SLP271

CYQF;2009-03-12 14:00;CYQF 121400Z 20003KT 15SM BKN070 BKN250 M22/M27 A3009 RMK AC2CI1 SLP272

CYQF;2009-03-12 15:00;CYQF 121500Z 19007KT 15SM FEW070 SCT250 M19/M24 A3009 RMK AC1CI0 SLP274

CYQF;2009-03-12 16:00;CYQF 121600Z 19005KT 15SM FEW070 FEW250 M15/M22 A3009 RMK AC1CI0 TR AC SLP274

CYQF;2009-03-12 17:00;CYQF 121700Z 20003KT 15SM FEW250 M12/M20 A3009 RMK CI0 SLP274

CYQF;2009-03-12 18:00;CYQF 121800Z 20006KT 15SM SCT250 M09/M18 A3008 RMK CI1 SLP261

CYQF;2009-03-12 19:00;CYQF 121900Z 20003KT 15SM FEW035 SCT250 M04/M13 A3006 RMK CU1CI1 TR CU SLP256

CYQF;2009-03-12 20:00;CYQF 122000Z 18004KT 15SM FEW035 SCT250 M02/M10 A3005 RMK CU1CI1 SLP251

CYQF;2009-03-12 21:00;CYQF 122100Z 18005KT 15SM FEW035 FEW250 00/M08 A3002 RMK CU1CI0 SLP231

CYQF;2009-03-12 22:00;CYQF 122200Z 19010KT 15SM FEW035 FEW250 01/M07 A3000 RMK CU1CI0 SLP224

CYQF;2009-03-12 23:00;CYQF 122300Z 17006KT 15SM FEW035 FEW250 02/M08 A2999 RMK SC1CI0 SLP220

CYQF;2009-03-13 00:00;CYQF 130000Z 17004KT 15SM FEW035 FEW250 02/M07 A2997 RMK SC1CI0 SLP210

CYQF;2009-03-13 01:00;CYQF 130100Z 18006KT 15SM FEW035 FEW250 M03/M09 A2995 RMK SC2CI0 SLP203

CYQF;2009-03-13 02:00;CYQF 130200Z 18005KT 15SM FEW055 FEW250 M05/M10 A2994 RMK SC1CI0 SLP202

CYQF;2009-03-13 03:00;CYQF 130300Z 21003KT 15SM FEW055 M07/M11 A2993 RMK SC1 SLP205

CYQF;2009-03-13 04:00;CYQF 130400Z 22005KT 15SM FEW055 M08/M12 A2994 RMK SC1 SLP206

CYQF;2009-03-13 05:00;CYQF 130500Z 18004KT 15SM SCT250 M07/M11 A2993 RMK CI0 SLP205

CYQF;2009-03-13 06:00;CYQF 130600Z 21007KT 15SM FEW250 M06/M11 A2992 RMK CI1 SLP189

CYQF;2009-03-13 07:00;CYQF 130700Z 22008KT 15SM SCT250 M03/M10 A2991 RMK CI2 SLP185

CYQF;2009-03-13 08:00;CYQF 130800Z 20006KT 15SM FEW100 BKN250 M06/M11 A2990 RMK AC2CI1 SLP182

CYQF;2009-03-13 09:00;CYQF 130900Z 20006KT 15SM FEW100 SCT250 M07/M12 A2987 RMK AC2CI1 SLP163

CYQF;2009-03-13 10:00;CYQF 131000Z 20005KT 15SM SCT250 M06/M11 A2985 RMK CI2 SLP157

CYQF;2009-03-13 11:00;CYQF 131100Z 21007KT 15SM SCT250 M06/M11 A2981 RMK CI2 SLP143

CYQF;2009-03-13 12:00;CYQF 131200Z 19005KT 15SM FEW100 BKN250 M02/M08 A2979 RMK AC2CI1 SLP127

CYQF;2009-03-13 13:00;CYQF 131300Z 21005KT 15SM SCT090 BKN250 M03/M08 A2976 RMK AC4CI2 SLP120

CYQF;2009-03-13 14:00;CYQF 131400Z 22008KT 15SM SCT090 OVC250 M02/M08 A2974 RMK AC4CI3 SLP112

CYQF;2009-03-13 15:00;CYQF 131500Z 23008KT 15SM BKN120 OVC250 M02/M07 A2972 RMK AC6CI2 SLP113

CYQF;2009-03-13 16:00;CYQF 131600Z 21005KT 15SM BKN120 OVC250 00/M07 A2970 RMK AC6CI2 SLP107

CYQF;2009-03-13 17:00;CYQF 131700Z 18003KT 15SM BKN120 OVC250 01/M06 A2969 RMK AC6CI2 SLP104

CYQF;2009-03-13 18:00;CYQF 131800Z 22003KT 15SM FEW035 BKN100 OVC250 02/M05 A2967 RMK SC2AC4CI2 SLP091

CYQF;2009-03-13 19:00;CYQF 131900Z 18003KT 15SM FEW035 BKN090 OVC250 04/M03 A2966 RMK SC2AC5CI2 SLP088

CYQF;2009-03-13 20:00;CYQF 132000Z 19003KT 15SM FEW035 BKN090 OVC250 05/M03 A2965 RMK SC2AC4CI2 SLP082

CYQF;2009-03-13 21:00;CYQF 132100Z 17004KT 15SM FEW030 BKN090 BKN250 06/M03 A2962 RMK CU2AC3CI2 SLP069

CYQF;2009-03-13 22:00;CYQF 132200Z 16003KT 15SM FEW030 BKN090 BKN250 07/M03 A2960 RMK CU2AC3CI2 SLP062

CYQF;2009-03-13 23:00;CYQF 132300Z 14007KT 15SM FEW030 BKN090 BKN250 07/M03 A2959 RMK CU2AC3CI2 SLP058

CYQF;2009-03-14 00:00;CYQF 140000Z 17003KT 15SM FEW030 SCT090 BKN250 07/M03 A2956 RMK CU2AC2CI2 SLP043

CYQF;2009-03-14 01:00;CYQF 140100Z 00000KT 15SM FEW030 SCT090 BKN250 06/M03 A2955 RMK SC2AC2CI2 SLP040

CYQF;2009-03-14 02:00;CYQF 140200Z 21002KT 15SM FEW030 SCT090 BKN250 02/M03 A2954 RMK SC2AC2CI2 SLP036

CYQF;2009-03-14 03:00;CYQF 140300Z 24006KT 15SM BKN120 BKN250 04/M04 A2953 RMK AC5CI2 SLP036

CYQF;2009-03-14 04:00;CYQF 140400Z 26005KT 15SM BKN120 BKN250 04/M05 A2952 RMK AC5CI1 SLP033

CYQF;2009-03-14 05:00;CYQF 140500Z 15002KT 15SM BKN120 OVC250 02/M05 A2952 RMK AC6CI2 SLP031

CYQF;2009-03-14 06:00;CYQF 140600Z 02010KT 15SM BKN120 OVC250 01/M04 A2954 RMK AC6CI2 SLP036

CYQF;2009-03-14 07:00;CYQF 140700Z 03005KT 15SM SCT120 OVC250 M00/M04 A2953 RMK AC3CI4 SLP032

CYQF;2009-03-14 08:00;CYQF 140800Z 36007KT 15SM FEW120 BKN250 M02/M05 A2951 RMK AC2CI3 SLP028

CYQF;2009-03-14 09:00;CYQF 140900Z 01006KT 15SM FEW120 BKN250 M02/M05 A2949 RMK AC2CI3 SLP019

CYQF;2009-03-14 10:00;CYQF 141000Z 00000KT 15SM FEW120 OVC250 M04/M06 A2947 RMK AC2CI5 SLP012

CYQF;2009-03-14 11:00;CYQF 141100Z 33002KT 15SM FEW120 BKN250 M05/M06 A2946 RMK AC2CI3 SLP008

CYQF;2009-03-14 12:00;CYQF 141200Z 00000KT 15SM FEW120 BKN250 M06/M08 A2945 RMK AC2CI2 SLP007

CYQF;2009-03-14 13:00;CYQF 141300Z 00000KT 3SM BR FEW120 BKN250 M08/M10 A2942 RMK AC2CI2 VIS VRB 2-4 SLP000

CYQF;2009-03-14 13:06;CYQF 141306Z 00000KT 1SM BR FEW120 BKN250 RMK AC2CI2

CYQF;2009-03-14 13:23;CYQF 141323Z 00000KT 1/4SM FZFG FEW120 BKN250 RMK AC2CI1

CYQF;2009-03-14 14:00;CYQF 141400Z 00000KT 1/4SM FZFG FEW120 BKN250 M10/M12 A2941 RMK AC2CI2 SLP996

CYQF;2009-03-14 14:27;CYQF 141427Z 00000KT 1/8SM FZFG BKN250 RMK FG2CI1

CYQF;2009-03-14 15:00;CYQF 141500Z 19004KT 1/8SM FZFG BKN250 M10/M12 A2940 RMK FG3CI2 SLP997

CYQF;2009-03-14 16:00;CYQF 141600Z 00000KT 1/8SM FZFG SKC M09/M09 A2939 RMK FG6 SLP995

CYQF;2009-03-14 17:00;CYQF 141700Z 00000KT 1/8SM FZFG SKC M07/M07 A2940 RMK FG7 SLP997

CYQF;2009-03-14 17:47;CYQF 141747Z 00000KT 1SM BR SCT090 RMK FG2AC2

CYQF;2009-03-14 18:00;CYQF 141800Z CCA 00000KT 2SM BR FEW090 FEW250 M05/M05 A2939 RMK FG1AC1CI1 VIS S 1 BR SLP993

CYQF;2009-03-14 18:06;CYQF 141806Z 00000KT 5SM BR FEW090 FEW250 RMK AC1CI2 VIS S 1 BR

CYQF;2009-03-14 19:00;CYQF 141900Z 00000KT 12SM FEW090 SCT250 M02/M03 A2938 RMK AC1CI2 FG BNK S BR SLP991

CYQF;2009-03-14 20:00;CYQF 142000Z 00000KT 15SM FEW090 SCT250 01/M03 A2938 RMK AC2CI1 SLP989

CYQF;2009-03-14 21:00;CYQF 142100Z 00000KT 15SM FEW035 SCT250 03/M04 A2936 RMK CU1CI2 SLP979

CYQF;2009-03-14 22:00;CYQF 142200Z 00000KT 15SM FEW030 SCT250 04/M04 A2936 RMK CU1CI2 SLP977

CYQF;2009-03-14 23:00;CYQF 142300Z 00000KT 15SM FEW040 BKN250 04/M03 A2936 RMK SC1CI2 SLP979

CYQF;2009-03-15 00:00;CYQF 150000Z 06004KT 15SM FEW040 BKN250 03/M02 A2937 RMK SC2CI2 SLP984

CYQF;2009-03-15 01:00;CYQF 150100Z 03007KT 15SM FEW040 FEW120 BKN250 02/M03 A2936 RMK SC2AC1CI2 SLP981

CYQF;2009-03-15 02:00;CYQF 150200Z 04013KT 15SM FEW040 FEW120 BKN250 M01/M04 A2936 RMK SC1AC1CI2 TR SC SLP981

CYQF;2009-03-15 03:00;CYQF 150300Z 05007KT 12SM FEW120 BKN250 M02/M05 A2936 RMK AC1CI2 BR SLP989

CYQF;2009-03-15 03:33;CYQF 150333Z 05012KT 2SM BR BKN005 RMK ST6 VIS S 10

CYQF;2009-03-15 03:54;CYQF 150354Z 04013KT 1 1/2SM BR OVC003 RMK FG2ST6

CYQF;2009-03-15 04:00;CYQF 150400Z 05015KT 1 1/2SM BR OVC003 M03/M05 A2935 RMK FG2ST6 SLP987

CYQF;2009-03-15 04:43;CYQF 150443Z 04010KT 1SM BR VV002 RMK FG8

CYQF;2009-03-15 05:00;CYQF 150500Z 04007KT 3/4SM BR VV002 M03/M05 A2935 RMK FG8 SLP987

CYQF;2009-03-15 05:18;CYQF 150518Z 05012KT 1/2SM -SN FZFG VV002 RMK FG8

CYQF;2009-03-15 06:00;CYQF 150600Z 05010G15KT 1/2SM -SN FZFG VV002 M04/M05 A2935 RMK SN8 SLP982

CYQF;2009-03-15 06:49;CYQF 150649Z 06008KT 1SM -SN BR VV003 RMK FG8

CYQF;2009-03-15 07:00;CYQF 150700Z 06008KT 1SM -SN BR VV003 M04/M05 A2934 RMK FG8 VIS VRB 1/2-11/2 SLP980

CYQF;2009-03-15 08:00;CYQF 150800Z 06003KT 1SM -SN BR VV003 M04/M06 A2934 RMK FG8 VIS VRB 1/2-11/2 SLP980

CYQF;2009-03-15 09:00;CYQF 150900Z 06008KT 1/2SM -SN FZFG VV002 M05/M06 A2934 RMK FG8 SLP971

CYQF;2009-03-15 10:00;CYQF 151000Z 06005KT 1/2SM -SN FZFG VV002 M05/M07 A2932 RMK FG8 SLP966

CYQF;2009-03-15 11:00;CYQF 151100Z 08004KT 3/4SM -SN BR VV003 M05/M07 A2930 RMK FG8 VIS VRB 1/2-1 SLP961

CYQF;2009-03-15 12:00;CYQF 151200Z 10004KT 1/2SM -SN FZFG VV002 M06/M07 A2931 RMK FG8 SLP962

CYQF;2009-03-15 13:00;CYQF 151300Z 09003KT 1/2SM -SN FZFG VV003 M06/M07 A2931 RMK FG8 SLP963

CYQF;2009-03-15 13:51;CYQF 151351Z 12005KT 1SM -SN BR OVC004 RMK FG3ST5

CYQF;2009-03-15 14:00;CYQF 151400Z 00000KT 1SM -SN BR OVC004 M06/M07 A2930 RMK FG4ST4 SLP961

CYQF;2009-03-15 15:00;CYQF 151500Z 07003KT 1SM BR VV005 M06/M07 A2928 RMK FG8 SLP959

CYQF;2009-03-15 16:00;CYQF 151600Z 05003KT 1 1/2SM BR VV005 M06/M07 A2928 RMK FG8 SLP959

CYQF;2009-03-15 17:00;CYQF 151700Z 08003KT 1 1/2SM BR VV005 M06/M07 A2929 RMK FG8 SLP963

CYQF;2009-03-15 18:00;CYQF 151800Z 06004KT 1 1/2SM BR VV004 M06/M07 A2928 RMK FG8 SLP962

CYQF;2009-03-15 19:00;CYQF 151900Z 06008KT 2SM BR VV005 M06/M07 A2928 RMK FG8 SLP960

CYQF;2009-03-15 20:00;CYQF 152000Z 06007KT 2SM BR OVC006 M05/M07 A2928 RMK FG3ST5 SLP961

CYQF;2009-03-15 21:00;CYQF 152100Z 07006KT 2SM BR OVC006 M06/M07 A2929 RMK FG2ST6 SLP964

CYQF;2009-03-15 22:00;CYQF 152200Z 06009KT 3SM BR OVC006 M06/M08 A2927 RMK FG2ST6 SLP960

CYQF;2009-03-15 23:00;CYQF 152300Z 05007KT 3SM BR OVC007 M06/M08 A2927 RMK ST8 SLP958

CYQF;2009-03-16 00:00;CYQF 160000Z 06007KT 5SM BR OVC007 M06/M09 A2925 RMK ST8 SLP954

CYQF;2009-03-16 01:00;CYQF 160100Z 06005KT 5SM BR OVC008 M07/M09 A2927 RMK ST8 SLP960

CYQF;2009-03-16 02:00;CYQF 160200Z 05008KT 6SM BR OVC008 M07/M09 A2928 RMK ST8 SLP962

CYQF;2009-03-16 03:00;CYQF 160300Z 05007KT 8SM OVC008 M08/M10 A2929 RMK ST8 SLP969

CYQF;2009-03-16 04:00;CYQF 160400Z 01012KT 8SM OVC008 M08/M11 A2930 RMK ST8 SLP973

CYQF;2009-03-16 05:00;CYQF 160500Z 03010KT 8SM OVC008 M09/M11 A2933 RMK ST8 SLP980

CYQF;2009-03-16 06:00;CYQF 160600Z 03010KT 8SM OVC008 M10/M13 A2936 RMK ST8 SLP994

CYQF;2009-03-16 07:00;CYQF 160700Z 01005KT 10SM OVC009 M10/M13 A2937 RMK ST8 SLP000

CYQF;2009-03-16 08:00;CYQF 160800Z 00000KT 10SM OVC014 M10/M13 A2941 RMK ST8 SLP010

CYQF;2009-03-16 09:00;CYQF 160900Z 34003KT 15SM OVC009 M10/M13 A2946 RMK ST8 SLP028

CYQF;2009-03-16 10:00;CYQF 161000Z 00000KT 5SM BR OVC012 M10/M11 A2946 RMK ST8 SLP030

CYQF;2009-03-16 11:00;CYQF 161100Z 00000KT 5SM BR OVC006 M09/M11 A2950 RMK ST8 SLP042

CYQF;2009-03-16 12:00;CYQF 161200Z 00000KT 5SM BR OVC005 M09/M11 A2953 RMK ST8 SLP054

CYQF;2009-03-16 13:00;CYQF 161300Z 00000KT 5SM BR OVC004 M09/M11 A2956 RMK ST8 SLP063

CYQF;2009-03-16 13:46;CYQF 161346Z 15003KT 2SM BR OVC006 RMK ST8

CYQF;2009-03-16 14:00;CYQF 161400Z 00000KT 2SM BR BKN006 OVC020 M09/M11 A2958 RMK SF6SC2 SLP071

CYQF;2009-03-16 15:00;CYQF 161500Z 00000KT 2SM BR OVC007 M09/M11 A2961 RMK SF7 SLP082

CYQF;2009-03-16 16:00;CYQF 161600Z 00000KT 2 1/2SM BR OVC008 M09/M11 A2963 RMK SF6 SLP090

CYQF;2009-03-16 16:27;CYQF 161627Z 00000KT 6SM BR FEW008 BKN250 RMK SF2CI2

CYQF;2009-03-16 17:00;CYQF 161700Z 00000KT 6SM BR FEW010 SCT250 M08/M11 A2964 RMK SF2CI1 SLP091

CYQF;2009-03-16 18:00;CYQF 161800Z 00000KT 6SM BR FEW012 SCT250 M07/M11 A2965 RMK SF2CI1 SLP097

CYQF;2009-03-16 19:00;CYQF 161900Z 00000KT 6SM BR FEW012 SCT250 M07/M11 A2966 RMK SF2CI1 SLP100

CYQF;2009-03-16 20:00;CYQF 162000Z 00000KT 10SM FEW015 SCT250 M04/M10 A2967 RMK SF2CI0 BR SLP103

CYQF;2009-03-16 21:00;CYQF 162100Z 00000KT 10SM FEW020 SCT250 M04/M10 A2967 RMK SC2CI1 SLP103

CYQF;2009-03-16 22:00;CYQF 162200Z 00000KT 10SM FEW020 FEW100 BKN250 M05/M10 A2969 RMK SC1AC1CI2 SLP107

CYQF;2009-03-16 23:00;CYQF 162300Z 00000KT 10SM FEW030 SCT090 BKN250 M04/M10 A2971 RMK SC2AC1CI2 SLP115

CYQF;2009-03-17 00:00;CYQF 170000Z 00000KT 10SM FEW030 FEW090 BKN250 M04/M10 A2974 RMK SC2AC1CI1 SLP124

CYQF;2009-03-17 01:00;CYQF 170100Z 00000KT 15SM FEW080 BKN260 M05/M10 A2976 RMK AC2CI1 SLP129

CYQF;2009-03-17 02:00;CYQF 170200Z 00000KT 10SM FEW080 BKN260 M07/M11 A2978 RMK AC2CI1 SLP137

CYQF;2009-03-17 03:00;CYQF 170300Z 00000KT 10SM SCT250 M08/M11 A2980 RMK CI2 SLP151

CYQF;2009-03-17 04:00;CYQF 170400Z 00000KT 15SM FEW260 M11/M14 A2983 RMK CI1 SLP159

CYQF;2009-03-17 05:00;CYQF 170500Z 01002KT 15SM FEW260 M12/M15 A2984 RMK CI0 SLP162

CYQF;2009-03-17 06:00;CYQF 170600Z 00000KT 12SM FEW250 M12/M14 A2984 RMK CI1 SLP166

CYQF;2009-03-17 07:00;CYQF 170700Z 00000KT 10SM FEW250 M13/M16 A2985 RMK CI2 BR OBS TAKEN +05 SLP171

CYQF;2009-03-17 08:00;CYQF 170800Z 01006KT 10SM FEW250 M13/M15 A2986 RMK CI2 BR SLP174

CYQF;2009-03-17 09:00;CYQF 170900Z 36005KT 10SM FEW250 M14/M16 A2988 RMK CI2 BR SLP178

CYQF;2009-03-17 10:00;CYQF 171000Z 02003KT 8SM FEW250 M14/M16 A2988 RMK CI2 BR SLP178

CYQF;2009-03-17 11:00;CYQF 171100Z 00000KT 5SM BR SCT090 BKN250 M14/M17 A2988 RMK AC3CI2 SLP179

CYQF;2009-03-17 12:00;CYQF 171200Z 00000KT 6SM BR BKN100 OVC250 M15/M18 A2989 RMK AC5CI2 SLP183

CYQF;2009-03-17 13:00;CYQF 171300Z 00000KT 5SM BR BKN100 OVC250 M13/M15 A2992 RMK AC6CI2 SLP191

CYQF;2009-03-17 14:00;CYQF 171400Z 02007KT 5SM BR FEW020 OVC100 M13/M15 A2993 RMK SC2AC6 SLP194

CYQF;2009-03-17 15:00;CYQF 171500Z 00000KT 3SM BR OVC017 M11/M13 A2994 RMK SC8 SLP199

CYQF;2009-03-17 16:00;CYQF 171600Z 05010KT 3SM BR OVC015 M11/M14 A2996 RMK SC8 SLP207

CYQF;2009-03-17 16:22;CYQF 171622Z 07008KT 3SM BR OVC008 RMK ST8

CYQF;2009-03-17 16:49;CYQF 171649Z 06005KT 2 1/2SM -SN BR OVC008 RMK FG1SC7

CYQF;2009-03-17 17:00;CYQF 171700Z 05005KT 2 1/2SM -SN BR OVC010 M11/M13 A2998 RMK FG1SC7 SLP214

CYQF;2009-03-17 18:00;CYQF 171800Z 00000KT 2 1/2SM -SN OVC010 M10/M13 A3000 RMK SC8 SLP226

CYQF;2009-03-17 18:50;CYQF 171850Z 00000KT 6SM BR OVC015 RMK SC8

CYQF;2009-03-17 19:00;CYQF 171900Z 05004KT 7SM OVC015 M09/M12 A2999 RMK SC8 SLP223

CYQF;2009-03-17 20:00;CYQF 172000Z 05004KT 7SM BKN015 BKN250 M07/M11 A3000 RMK SC6CI1 SLP224

CYQF;2009-03-17 21:00;CYQF 172100Z 00000KT 8SM BKN015 BKN250 M06/M11 A3000 RMK SC5CI1 SLP221

CYQF;2009-03-17 22:00;CYQF 172200Z 17005KT 10SM BKN015 BKN250 M06/M10 A2999 RMK SF5CI1 HZ SLP220

CYQF;2009-03-17 22:49;CYQF 172249Z 16005KT 10SM BKN012 OVC250 RMK SF6CI2 HZ

CYQF;2009-03-17 23:00;CYQF 172300Z 17007KT 10SM BKN012 OVC250 M05/M10 A3001 RMK SF6CI2 HZ SLP226

CYQF;2009-03-18 00:00;CYQF 180000Z CCA 15008KT 10SM BKN015 OVC250 M06/M10 A3001 RMK SC6CI2 HZ SLP227

CYQF;2009-03-18 01:00;CYQF 180100Z 12004KT 10SM OVC015 M06/M10 A3004 RMK SC8 HZ SLP235

CYQF;2009-03-18 02:00;CYQF 180200Z 15003KT 10SM BKN015 OVC250 M06/M09 A3005 RMK SC6CI1 HZ SLP240

CYQF;2009-03-18 03:00;CYQF 180300Z 00000KT 12SM OVC012 M06/M09 A3007 RMK SC8 SLP243

CYQF;2009-03-18 04:00;CYQF 180400Z 10003KT 12SM OVC012 M07/M10 A3008 RMK SC8 SLP247

CYQF;2009-03-18 05:00;CYQF 180500Z 18005KT 10SM OVC010 M07/M10 A3009 RMK SC8 SLP250

CYQF;2009-03-18 05:47;CYQF 180547Z 21008KT 8SM OVC007 RMK ST8

CYQF;2009-03-18 06:00;CYQF 180600Z 20005KT 8SM OVC007 M08/M10 A3011 RMK ST8 BR SLP258

CYQF;2009-03-18 07:00;CYQF 180700Z 21002KT 5SM BR OVC005 M08/M10 A3013 RMK ST8 SLP264

CYQF;2009-03-18 08:00;CYQF 180800Z 00000KT 5SM BR OVC005 M08/M10 A3014 RMK ST8 SLP268

CYQF;2009-03-18 09:00;CYQF 180900Z 00000KT 4SM BR OVC005 M08/M10 A3016 RMK ST8 SLP272

CYQF;2009-03-18 10:00;CYQF 181000Z 00000KT 5SM BR OVC005 M08/M10 A3016 RMK ST8 SLP272

CYQF;2009-03-18 10:38;CYQF 181038Z 18004KT 2SM BR OVC004 RMK ST8

CYQF;2009-03-18 11:00;CYQF 181100Z 19005KT 2SM BR OVC004 M08/M10 A3016 RMK FG2ST6 SLP273

CYQF;2009-03-18 11:11;CYQF 181111Z 20006KT 1SM BR VV004 RMK FG8

CYQF;2009-03-18 11:42;CYQF 181142Z 20005KT 1/2SM FZFG VV004 RMK FG8

CYQF;2009-03-18 12:00;CYQF 181200Z 20008KT 1/2SM FZFG VV003 M09/M11 A3017 RMK FG8 FROIN SLP278

CYQF;2009-03-18 13:00;CYQF 181300Z 22005KT 3/4SM BR VV003 M09/M11 A3018 RMK FG8 FROIN SLP281

CYQF;2009-03-18 13:41;CYQF 181341Z 18005KT 1/2SM FZFG VV002 RMK FG8

CYQF;2009-03-18 14:00;CYQF 181400Z 19005KT 1/8SM FZFG VV001 M10/M12 A3018 RMK FG8 FROIN SLP281

CYQF;2009-03-18 14:35;CYQF 181435Z 18007KT 1/2SM FZFG VV002 RMK FG8 FROIN

CYQF;2009-03-18 15:00;CYQF 181500Z 17008KT 1/2SM FZFG VV002 M11/M12 A3018 RMK FG8 FROIN PIREP TOPS 3700 ASL SLP281

CYQF;2009-03-18 15:31;CYQF 181531Z 18008KT 3/4SM BR VV003 RMK FG8 FROIN

CYQF;2009-03-18 15:50;CYQF 181550Z 18008KT 1 1/2SM BR BKN100 RMK FG6AC1

CYQF;2009-03-18 16:00;CYQF 181600Z 19007KT 1 1/2SM BR BKN100 M10/M12 A3018 RMK FG6AC1 SLP281

CYQF;2009-03-18 16:42;CYQF 181642Z 16006KT 3SM BR SCT004 BKN250 RMK SF3CI1

CYQF;2009-03-18 17:00;CYQF 181700Z 16007KT 6SM BR FEW004 FEW080 BKN250 M09/M10 A3017 RMK SF1AC1CI2 SLP278

CYQF;2009-03-18 18:00;CYQF 181800Z 17008KT 6SM BR FEW090 SCT250 M07/M09 A3015 RMK AC1CI2 SLP267

CYQF;2009-03-18 19:00;CYQF 181900Z 16012KT 8SM FEW080 SCT250 M06/M10 A3012 RMK AC2CI1 BR SLP260

CYQF;2009-03-18 20:00;CYQF 182000Z 16013KT 8SM FEW080 SCT250 M05/M09 A3010 RMK AC2CI1 SLP253

CYQF;2009-03-18 21:00;CYQF 182100Z 15015KT 10SM FEW080 SCT250 M04/M09 A3006 RMK AC2CI1 SLP233

CYQF;2009-03-18 22:00;CYQF 182200Z 15017KT 10SM SCT090 BKN250 M03/M08 A3002 RMK AC3CI2 SLP221

CYQF;2009-03-18 23:00;CYQF 182300Z 16012G18KT 12SM FEW030 FEW120 BKN250 M01/M07 A2999 RMK SC1AC2CI1 SLP213

CYQF;2009-03-19 00:00;CYQF 190000Z 16012G20KT 15SM FEW030 FEW120 BKN250 M01/M07 A2996 RMK SC1AC1CI2 SLP198

CYQF;2009-03-19 01:00;CYQF 190100Z 18015G20KT 15SM FEW030 FEW120 BKN250 M02/M06 A2994 RMK SC1AC1CI2 SLP192

CYQF;2009-03-19 02:00;CYQF 190200Z 18012KT 15SM FEW120 BKN250 M02/M06 A2993 RMK AC2CI4 SLP187

CYQF;2009-03-19 03:00;CYQF 190300Z 19011KT 15SM FEW120 BKN250 M02/M06 A2993 RMK AC2CI4 SLP189

CYQF;2009-03-19 04:00;CYQF 190400Z 20010KT 15SM OVC250 M01/M07 A2992 RMK CI8 OBS TAKEN +19 SLP188

CYQF;2009-03-19 05:00;CYQF 190500Z 24012KT 15SM OVC250 M00/M08 A2992 RMK CI8 SLP186

CYQF;2009-03-19 06:00;CYQF 190600Z 23011G17KT 15SM OVC250 02/M07 A2991 RMK CI8 SLP175

CYQF;2009-03-19 07:00;CYQF 190700Z 22012G18KT 15SM BKN250 01/M07 A2991 RMK CI7 SLP174

CYQF;2009-03-19 08:00;CYQF 190800Z 21012KT 15SM BKN250 00/M07 A2990 RMK CI7 SLP172

CYQF;2009-03-19 09:00;CYQF 190900Z 22010G15KT 15SM OVC250 00/M07 A2990 RMK CI8 SLP168

CYQF;2009-03-19 10:00;CYQF 191000Z 21013KT 15SM OVC250 00/M07 A2988 RMK CI8 SLP164

CYQF;2009-03-19 11:00;CYQF 191100Z 20007KT 15SM OVC250 M01/M07 A2986 RMK CI7 SLP157

CYQF;2009-03-19 12:00;CYQF 191200Z 17003KT 15SM FEW130 OVC250 M00/M07 A2985 RMK AC2CI5 SLP149

CYQF;2009-03-19 13:00;CYQF 191300Z 21010KT 15SM FEW130 BKN250 00/M07 A2985 RMK AC2CI5 SLP148

CYQF;2009-03-19 14:00;CYQF 191400Z 20010KT 15SM SCT130 BKN250 01/M06 A2984 RMK AC2CI4 SLP145

CYQF;2009-03-19 15:00;CYQF 191500Z 23008KT 15SM SCT130 BKN250 01/M06 A2983 RMK AC2CI4 SLP141

CYQF;2009-03-19 16:00;CYQF 191600Z 21005KT 15SM SCT130 BKN250 01/M06 A2981 RMK AC3CI3 SLP137

CYQF;2009-03-19 17:00;CYQF 191700Z 21003KT 15SM FEW130 BKN250 03/M06 A2980 RMK AC2CI3 SLP133

CYQF;2009-03-19 18:00;CYQF 191800Z 36003KT 15SM BKN130 BKN250 03/M05 A2979 RMK AC5CI1 SLP122

CYQF;2009-03-19 19:00;CYQF 191900Z 07006KT 15SM SCT130 BKN250 04/M04 A2978 RMK AC3CI2 SLP119

CYQF;2009-03-19 20:00;CYQF 192000Z 09003KT 15SM FEW030 SCT130 BKN250 06/M04 A2978 RMK CU1AC2CI2 SLP117

CYQF;2009-03-19 21:00;CYQF 192100Z 12005KT 15SM FEW040 SCT130 BKN250 06/M04 A2976 RMK CU1AC2CI2 SLP110

CYQF;2009-03-19 22:00;CYQF 192200Z 05006KT 15SM FEW040 FEW130 BKN250 06/M02 A2975 RMK CU1AC2CI2 SLP107

CYQF;2009-03-19 23:00;CYQF 192300Z 04005KT 15SM FEW040 SCT250 06/M02 A2976 RMK CU1CI1 CU TR OBS TAKEN +08 SLP108

CYQF;2009-03-20 00:00;CYQF 200000Z 05005KT 15SM FEW040 SCT250 06/M02 A2976 RMK CU1CI1 SLP108

CYQF;2009-03-20 01:00;CYQF 200100Z 01010KT 15SM FEW100 FEW250 03/M03 A2976 RMK AC1CI1 SLP108

CYQF;2009-03-20 02:00;CYQF 200200Z 01007KT 15SM FEW100 FEW250 01/M05 A2976 RMK AC1CI1 SLP111

CYQF;2009-03-20 03:00;CYQF 200300Z 35010KT 10SM SCT100 M01/M06 A2979 RMK AC1 SLP127

CYQF;2009-03-20 04:00;CYQF 200400Z 01007KT 15SM SCT100 M02/M07 A2980 RMK AC1 SLP130

CYQF;2009-03-20 05:00;CYQF 200500Z 01005KT 15SM SKC M03/M07 A2981 RMK SLP131

CYQF;2009-03-20 06:00;CYQF 200600Z 36004KT 15SM SCT250 M04/M07 A2981 RMK CI1 SLP134

CYQF;2009-03-20 07:00;CYQF 200700Z 00000KT 15SM SKC M05/M08 A2982 RMK OBS TAKEN +8 SLP139

CYQF;2009-03-20 08:00;CYQF 200800Z 33003KT 15SM SKC M07/M10 A2984 RMK SLP143

CYQF;2009-03-20 09:00;CYQF 200900Z 00000KT 15SM SKC M07/M10 A2984 RMK SLP145

CYQF;2009-03-20 10:00;CYQF 201000Z 00000KT 10SM SKC M08/M10 A2983 RMK SLP142

CYQF;2009-03-20 11:00;CYQF 201100Z 00000KT 8SM SKC M10/M12 A2985 RMK SLP147

CYQF;2009-03-20 12:00;CYQF 201200Z 00000KT 8SM SKC M09/M11 A2985 RMK SLP151

CYQF;2009-03-20 13:00;CYQF 201300Z 00000KT 5SM BR SCT250 M10/M12 A2985 RMK CI2 SLP151

CYQF;2009-03-20 13:28;CYQF 201328Z 00000KT 2SM BR SCT250 RMK FG1CI2

CYQF;2009-03-20 14:00;CYQF 201400Z 00000KT 1 1/2SM BR FEW140 BKN250 M09/M11 A2985 RMK FG1AC1CI2 SLP149

CYQF;2009-03-20 15:00;CYQF 201500Z 00000KT 1 1/2SM BR FEW140 BKN250 M08/M10 A2983 RMK FG1AC1CI2 SLP152

CYQF;2009-03-20 16:00;CYQF 201600Z 01002KT 3SM BR FEW140 BKN250 M07/M09 A2983 RMK AC2CI2 SLP150

CYQF;2009-03-20 17:00;CYQF 201700Z 07002KT 6SM BR SCT250 M02/M06 A2982 RMK CI2 SLP148

CYQF;2009-03-20 18:00;CYQF 201800Z 15010KT 6SM BR BKN250 M00/M05 A2981 RMK CI2 SLP138

CYQF;2009-03-20 19:00;CYQF 201900Z 12008KT 6SM HZ BKN250 02/M04 A2980 RMK CI2 SLP134

CYQF;2009-03-20 20:00;CYQF 202000Z 15006KT 8SM BKN250 03/M03 A2978 RMK CI2 HZ SLP128

CYQF;2009-03-20 21:00;CYQF 202100Z 14010KT 8SM SCT250 04/M02 A2975 RMK CI1 HZ SLP117

CYQF;2009-03-20 22:00;CYQF 202200Z 14011KT 8SM SCT250 04/M03 A2974 RMK CI1 HZ SLP112

CYQF;2009-03-20 23:00;CYQF 202300Z 13008KT 8SM OVC250 04/M02 A2972 RMK CI1 HZ CC SLP107

CYQF;2009-03-21 00:00;CYQF 210000Z 14009KT 10SM FEW030 SCT250 04/M01 A2971 RMK CU1CI1 HZ CU TR SLP103

CYQF;2009-03-21 01:00;CYQF 210100Z 00000KT 10SM FEW030 FEW150 BKN250 04/M01 A2968 RMK CU1AC2CI2 HZ TR CU SLP095

CYQF;2009-03-21 02:00;CYQF 210200Z 00000KT 10SM FEW025 FEW150 BKN250 03/M01 A2965 RMK CU1AC2CI2 HZ TR CU SLP085

CYQF;2009-03-21 03:00;CYQF 210300Z 17010KT 15SM FEW150 FEW250 03/M01 A2963 RMK AC1CI1 TR AC SLP078

CYQF;2009-03-21 04:00;CYQF 210400Z 15008KT 15SM SKC 02/M01 A2963 RMK SLP076

CYQF;2009-03-21 05:00;CYQF 210500Z 16007KT 15SM SKC 02/M02 A2960 RMK SLP069

CYQF;2009-03-21 06:00;CYQF 210600Z 18006KT 15SM SKC 00/M03 A2960 RMK SLP060

CYQF;2009-03-21 07:00;CYQF 210700Z 19006KT 15SM SKC 01/M04 A2959 RMK SLP059

CYQF;2009-03-21 08:00;CYQF 210800Z 18007KT 15SM SKC 00/M04 A2959 RMK SLP059

CYQF;2009-03-21 09:00;CYQF 210900Z 18007KT 15SM SKC 01/M04 A2961 RMK SLP059

CYQF;2009-03-21 10:00;CYQF 211000Z 18010KT 15SM SKC 02/M04 A2962 RMK SLP062

CYQF;2009-03-21 11:00;CYQF 211100Z 18005KT 15SM SKC 01/M04 A2964 RMK SLP067

CYQF;2009-03-21 12:00;CYQF 211200Z 21007KT 15SM SKC M01/M04 A2966 RMK SLP076

CYQF;2009-03-21 13:00;CYQF 211300Z 00000KT 15SM FEW250 M00/M04 A2967 RMK CI1 SLP082

CYQF;2009-03-21 14:00;CYQF 211400Z 02004KT 15SM BKN250 M01/M05 A2970 RMK CI2 SLP089

CYQF;2009-03-21 15:00;CYQF 211500Z 36010G15KT 15SM BKN250 M02/M06 A2975 RMK CI2 SLP112

CYQF;2009-03-21 15:54;CYQF 211554Z 01010KT 3SM BR BKN005 BKN250 RMK FG1ST2CI1 VIS E 11/2

CYQF;2009-03-21 16:00;CYQF 211600Z 36015KT 2SM BR OVC005 M04/M07 A2979 RMK FG2ST5 VIS NW-N-E 11/2 SLP124

CYQF;2009-03-21 16:09;CYQF 211609Z 01011KT 1SM BR OVC004 RMK FG6ST2 VIS S 5

CYQF;2009-03-21 16:17;CYQF 211617Z 36010KT 1/2SM FZFG VV002 RMK FG8

CYQF;2009-03-21 16:37;CYQF 211637Z 35010KT 1/2SM -SN FZFG OVC004 RMK FG4ST4

CYQF;2009-03-21 17:00;CYQF 211700Z 36008KT 3/4SM -SN BR OVC005 M03/M04 A2982 RMK FG3SF5 SLP135

CYQF;2009-03-21 17:33;CYQF 211733Z 36010KT 1 1/2SM BR OVC006 RMK FG2SF6

CYQF;2009-03-21 17:52;CYQF 211752Z 36010G15KT 3SM BR OVC008 RMK SF8

CYQF;2009-03-21 18:00;CYQF 211800Z 36012G18KT 3SM BR OVC008 M01/M04 A2984 RMK SF8 SLP145

CYQF;2009-03-21 18:29;CYQF 211829Z 01010G15KT 5SM BR BKN011 RMK SC6

CYQF;2009-03-21 18:53;CYQF 211853Z 02012G17KT 5SM BR SCT011 RMK SC3

CYQF;2009-03-21 19:00;CYQF 211900Z 01010G16KT 6SM BR SCT011 00/M04 A2985 RMK SC3 SLP147

CYQF;2009-03-21 20:00;CYQF 212000Z 36012KT 8SM FEW012 SCT250 00/M04 A2985 RMK SF2CI1 BR SLP150

CYQF;2009-03-21 21:00;CYQF 212100Z 01016KT 10SM BKN250 01/M05 A2985 RMK CI2 HZ SLP148

CYQF;2009-03-21 22:00;CYQF 212200Z 03012KT 10SM BKN250 01/M06 A2985 RMK CI2 SLP147

CYQF;2009-03-21 23:00;CYQF 212300Z 36013KT 10SM BKN250 01/M05 A2985 RMK CI2 HZ SLP148

CYQF;2009-03-22 00:00;CYQF 220000Z 04010G15KT 12SM BKN250 01/M05 A2987 RMK CI2 HZ SLP155

CYQF;2009-03-22 01:00;CYQF 220100Z 03010KT 12SM FEW100 BKN250 M00/M06 A2986 RMK AC1CI3 HZ SLP152

CYQF;2009-03-22 02:00;CYQF 220200Z 03006KT 15SM FEW100 BKN250 M02/M06 A2986 RMK AC1CI2 OB TAKEN +27 SLP152

CYQF;2009-03-22 03:00;CYQF 220300Z 03005KT 15SM SCT016 OVC080 M02/M06 A2986 RMK SC3AC5 SLP158

CYQF;2009-03-22 04:00;CYQF 220400Z 05008KT 15SM OVC009 M03/M06 A2985 RMK SC8 SLP154

CYQF;2009-03-22 05:00;CYQF 220500Z 05005KT 10SM OVC006 M03/M05 A2984 RMK ST8 SLP151

CYQF;2009-03-22 05:22;CYQF 220522Z 04005KT 1SM BR VV002 RMK FG8

CYQF;2009-03-22 05:35;CYQF 220535Z 08005KT 1/2SM FZFG VV001 RMK FG8

CYQF;2009-03-22 06:00;CYQF 220600Z 05006KT 1/2SM FZFG VV001 M04/M05 A2984 RMK FG8 SLP149

CYQF;2009-03-22 06:17;CYQF 220617Z 06005KT 1SM BR VV002 RMK FG8

CYQF;2009-03-22 06:35;CYQF 220635Z 03005KT 3/4SM -SN BR VV002 RMK FG8

CYQF;2009-03-22 07:00;CYQF 220700Z 02004KT 3/4SM -SN VV005 M04/M05 A2982 RMK SN8 OBS TAKEN +10 SLP144

CYQF;2009-03-22 07:49;CYQF 220749Z 03002KT 1/2SM SN VV003 RMK SN8 /S02/

CYQF;2009-03-22 08:00;CYQF 220800Z 03003KT 1/2SM SN VV003 M04/M05 A2981 RMK SN8 /S02/ SLP142

CYQF;2009-03-22 09:00;CYQF 220900Z 36006KT 1/2SM SN VV002 M04/M05 A2979 RMK SN8 /S05/ SLP129

CYQF;2009-03-22 10:00;CYQF 221000Z 35007KT 1/2SM SN VV002 M04/M06 A2976 RMK SN8 /S06/ SLP120

CYQF;2009-03-22 10:21;CYQF 221021Z 34005KT 3/4SM -SN VV002 RMK SN8

CYQF;2009-03-22 11:00;CYQF 221100Z 34008KT 3/4SM -SN VV003 M04/M06 A2975 RESN RMK SN8 /S08/ SLP116

CYQF;2009-03-22 12:00;CYQF 221200Z 34008KT 3/4SM -SN VV004 M04/M06 A2976 RMK SN8 /S09/ SLP118

CYQF;2009-03-22 13:00;CYQF 221300Z 33010KT 3/4SM -SN DRSN VV004 M04/M06 A2974 RMK SN8 SLP113

CYQF;2009-03-22 13:36;CYQF 221336Z 34010KT 2 1/2SM -SN DRSN SCT006 OVC012 RMK SF3SC5

CYQF;2009-03-22 14:00;CYQF 221400Z 34010KT 3SM -SN DRSN SCT006 OVC012 M04/M06 A2973 RMK SF3SC5 SLP110

CYQF;2009-03-22 14:37;CYQF 221437Z 35010KT 3/4SM -SN DRSN VV005 RMK SN8

CYQF;2009-03-22 15:00;CYQF 221500Z 35012KT 3/4SM -SN DRSN VV007 M04/M06 A2974 RMK SN8 /S01/ SLP116

CYQF;2009-03-22 16:00;CYQF 221600Z 36013KT 3/4SM -SN DRSN VV007 M04/M06 A2976 RMK SN8 /S02/ SLP124

CYQF;2009-03-22 16:23;CYQF 221623Z 01009KT 3/8SM SN DRSN VV005 RMK SN8

CYQF;2009-03-22 17:00;CYQF 221700Z 36010KT 3/4SM -SN DRSN VV007 M04/M06 A2976 RMK SN8 /S03/ SLP122

CYQF;2009-03-22 18:00;CYQF 221800Z 35010KT 3/4SM -SN DRSN VV007 M04/M06 A2976 RMK SN8 /S05/ SLP125

CYQF;2009-03-22 18:26;CYQF 221826Z 33010KT 1SM -SN DRSN VV009 RMK SN8

CYQF;2009-03-22 19:00;CYQF 221900Z 33008KT 1 1/2SM -SN OVC011 M03/M06 A2977 RMK SN6SC2 /S01/ SLP128

CYQF;2009-03-22 19:30;CYQF 221930Z 33010G15KT 2SM -SN DRSN OVC011 RMK SN2SC6

CYQF;2009-03-22 20:00;CYQF 222000Z 33010G20KT 3SM -SN DRSN BKN011 OVC020 M03/M06 A2976 RMK SC7SC1 SLP125

CYQF;2009-03-22 21:00;CYQF 222100Z 32012G19KT 4SM -SN DRSN BKN011 OVC020 M03/M06 A2978 RMK SC6SC2 SLP133

CYQF;2009-03-22 21:28;CYQF 222128Z 33013G21KT 5SM -SN DRSN SCT020 BKN100 RMK SC3AC3

CYQF;2009-03-22 22:00;CYQF 222200Z 33015G20KT 10SM SCT020 BKN100 M03/M06 A2978 RMK SC3AC2 SLP133

CYQF;2009-03-22 23:00;CYQF 222300Z 33015G20KT 10SM OVC020 M03/M07 A2982 RMK SC8 SLP144

CYQF;2009-03-23 00:00;CYQF 230000Z 33010G15KT 10SM BKN020 OVC050 M03/M07 A2984 RMK SC6SC2 SLP153

CYQF;2009-03-23 01:00;CYQF 230100Z 33015G20KT 10SM BKN020 OVC050 M04/M07 A2986 RMK SC6SC2 SLP160

CYQF;2009-03-23 02:00;CYQF 230200Z 34015G20KT 10SM BKN020 OVC050 M04/M08 A2990 RMK SC6SC2 SLP171

CYQF;2009-03-23 03:00;CYQF 230300Z 33010G15KT 10SM -SN OVC020 M05/M08 A2992 RMK SC8 SLP180

CYQF;2009-03-23 04:00;CYQF 230400Z 34010G15KT 15SM -SN OVC040 M05/M08 A2993 RMK SC8 SLP184

CYQF;2009-03-23 05:00;CYQF 230500Z 35010KT 15SM OVC015 M05/M08 A2995 RMK SC8 SLP191

CYQF;2009-03-23 06:00;CYQF 230600Z 34015G20KT 15SM DRSN OVC015 M06/M09 A2996 RMK SC8 SLP197

CYQF;2009-03-23 07:00;CYQF 230700Z 34015G20KT 15SM DRSN OVC015 M06/M10 A2998 RMK SC8 SLP203

CYQF;2009-03-23 08:00;CYQF 230800Z 34015G22KT 15SM DRSN OVC015 M07/M10 A2998 RMK SC8 SLP202

CYQF;2009-03-23 09:00;CYQF 230900Z 33015G22KT 15SM DRSN OVC015 M06/M10 A2999 RMK SC8 SLP206

CYQF;2009-03-23 10:00;CYQF 231000Z 33012G18KT 15SM DRSN OVC015 M07/M10 A3000 RMK SC8 SLP211

CYQF;2009-03-23 11:00;CYQF 231100Z 33015G20KT 15SM DRSN OVC015 M07/M10 A3002 RMK SC8 SLP215

CYQF;2009-03-23 12:00;CYQF 231200Z 33012G18KT 15SM DRSN OVC015 M07/M10 A3005 RMK SC8 SLP229

CYQF;2009-03-23 12:48;CYQF 231248Z 32010G15KT 10SM -SN DRSN OVC015 RMK SC8

CYQF;2009-03-23 13:00;CYQF 231300Z 33010G15KT 10SM -SN DRSN OVC015 M07/M10 A3007 RMK SC8 SLP235

CYQF;2009-03-23 14:00;CYQF 231400Z 34010G15KT 10SM -SN OVC015 M07/M10 A3010 RMK SC8 SLP244

CYQF;2009-03-23 14:46;CYQF 231446Z 30010KT 12SM FEW015 FEW250 RMK SC2CI1 TR CI

CYQF;2009-03-23 15:00;CYQF 231500Z 30008KT 12SM FEW015 FEW250 M07/M10 A3011 RMK SC1CI1 SLP250

CYQF;2009-03-23 16:00;CYQF 231600Z 28008KT 12SM FEW100 SCT250 M07/M11 A3012 RMK AC1CI1 SLP254

CYQF;2009-03-23 17:00;CYQF 231700Z 30010KT 15SM FEW250 M06/M09 A3013 RMK CI0 SLP256

CYQF;2009-03-23 18:00;CYQF 231800Z 31010KT 15SM FEW020 M06/M09 A3013 RMK SC1 SLP258

CYQF;2009-03-23 19:00;CYQF 231900Z 31005KT 15SM SKC M04/M08 A3013 RMK SLP257

CYQF;2009-03-23 20:00;CYQF 232000Z 29008KT 15SM SKC M03/M08 A3012 RMK SLP255

CYQF;2009-03-23 21:00;CYQF 232100Z 35004KT 15SM SKC M03/M08 A3011 RMK SLP249

CYQF;2009-03-23 22:00;CYQF 232200Z 01005KT 15SM FEW040 M02/M08 A3011 RMK CU1 SLP247

CYQF;2009-03-23 23:00;CYQF 232300Z 36004KT 15SM FEW040 M02/M08 A3010 RMK CU1 SLP246

CYQF;2009-03-24 00:00;CYQF 240000Z 00000KT 15SM FEW080 M02/M08 A3011 RMK AC1 SLP247

CYQF;2009-03-24 01:00;CYQF 240100Z 00000KT 15SM FEW080 M03/M08 A3012 RMK AC1 SLP249

CYQF;2009-03-24 02:00;CYQF 240200Z 00000KT 15SM FEW080 FEW250 M06/M10 A3013 RMK AC1CI0 SLP253

CYQF;2009-03-24 03:00;CYQF 240300Z 00000KT 15SM SKC M08/M11 A3013 RMK SLP263

CYQF;2009-03-24 04:00;CYQF 240400Z 00000KT 15SM SKC M11/M14 A3014 RMK SLP264

CYQF;2009-03-24 05:00;CYQF 240500Z 00000KT 15SM FEW100 M11/M13 A3014 RMK AC1 SLP265

CYQF;2009-03-24 06:00;CYQF 240600Z 00000KT 15SM FEW100 M13/M15 A3014 RMK AC1 SLP269

CYQF;2009-03-24 07:00;CYQF 240700Z 00000KT 15SM SKC M13/M15 A3013 RMK SLP267

CYQF;2009-03-24 08:00;CYQF 240800Z 00000KT 15SM BKN100 M12/M14 A3012 RMK AC2 SLP264

CYQF;2009-03-24 09:00;CYQF 240900Z 13004KT 15SM BKN070 M11/M13 A3012 RMK AC5 SLP257

CYQF;2009-03-24 10:00;CYQF 241000Z 10004KT 15SM FEW070 M11/M13 A3010 RMK AC2 SLP252

CYQF;2009-03-24 11:00;CYQF 241100Z 00000KT 15SM SCT070 M11/M14 A3009 RMK AC0 SLP248

CYQF;2009-03-24 12:00;CYQF 241200Z 15007KT 15SM FEW070 M11/M14 A3008 RMK AC1 SLP241

CYQF;2009-03-24 13:00;CYQF 241300Z 17006KT 10SM FEW070 FEW250 M12/M14 A3008 RMK AC1CI0 BR SLP242

CYQF;2009-03-24 14:00;CYQF 241400Z 14010KT 10SM FEW070 SCT250 M11/M13 A3008 RMK AC2CI0 SLP242

CYQF;2009-03-24 15:00;CYQF 241500Z 15012KT 10SM BKN020 BKN070 M09/M11 A3008 RMK SC5AC2 SLP246

CYQF;2009-03-24 16:00;CYQF 241600Z 15006KT 10SM BKN022 OVC070 M08/M11 A3007 RMK SC7AC1 SLP243

CYQF;2009-03-24 17:00;CYQF 241700Z 15010KT 10SM BKN020 M06/M10 A3006 RMK SC6 SLP240

CYQF;2009-03-24 18:00;CYQF 241800Z CCA 15011KT 12SM BKN020 OVC080 M05/M09 A3005 RMK SC6AC2 SLP235

CYQF;2009-03-24 19:00;CYQF 241900Z 14012KT 15SM BKN025 OVC080 M04/M08 A3002 RMK SC5AC2 SLP228

CYQF;2009-03-24 20:00;CYQF 242000Z 13010KT 15SM BKN025 OVC080 M03/M08 A3001 RMK SC6AC1 SLP225

CYQF;2009-03-24 21:00;CYQF 242100Z 13010KT 15SM BKN025 OVC080 M03/M07 A2998 RMK SC6AC1 SLP208

CYQF;2009-03-24 22:00;CYQF 242200Z 13015G20KT 15SM OVC025 M02/M07 A2996 RMK SC7 SLP201

CYQF;2009-03-24 23:00;CYQF 242300Z 16011KT 15SM SCT025 BKN080 BKN250 M01/M06 A2994 RMK SC3AC2CI1 SLP196

CYQF;2009-03-25 00:00;CYQF 250000Z 15007KT 15SM FEW025 SCT080 BKN250 M02/M07 A2993 RMK SC2AC2CI1 SLP189

CYQF;2009-03-25 01:00;CYQF 250100Z 18004KT 15SM SCT025 BKN080 BKN250 M03/M07 A2992 RMK SC3AC2CI1 SLP187

CYQF;2009-03-25 02:00;CYQF 250200Z 17004KT 15SM SCT025 BKN080 OVC250 M04/M08 A2992 RMK SC3AC2CI2 SLP186

CYQF;2009-03-25 03:00;CYQF 250300Z 12005KT 15SM BKN020 OVC080 M04/M07 A2991 RMK SC6AC2 SLP184

CYQF;2009-03-25 04:00;CYQF 250400Z 12012KT 15SM BKN025 OVC075 M03/M08 A2990 RMK SC6AC2 SLP180

CYQF;2009-03-25 04:33;CYQF 250433Z 12012KT 10SM -SN BKN025 OVC075 RMK SC6AC2

CYQF;2009-03-25 05:00;CYQF 250500Z 12010KT 2SM -SN OVC018 M05/M07 A2989 RMK SC8 SLP178

CYQF;2009-03-25 05:35;CYQF 250535Z 12008KT 4SM -SN SCT018 OVC040 RMK SC3SC5

CYQF;2009-03-25 06:00;CYQF 250600Z 11010KT 5SM -SN SCT020 OVC050 M05/M09 A2988 RMK SC3SC5 SLP170

CYQF;2009-03-25 06:44;CYQF 250644Z 12007KT 8SM FEW020 OVC040 RMK SC2SC6

CYQF;2009-03-25 07:00;CYQF 250700Z 11010KT 8SM FEW020 OVC040 M06/M09 A2988 RMK SC2SC6 SLP169

CYQF;2009-03-25 08:00;CYQF 250800Z 11007KT 10SM -SN FEW020 OVC040 M07/M10 A2988 RMK SC2SC6 SLP168

CYQF;2009-03-25 09:00;CYQF 250900Z 11004KT 12SM -SN FEW020 OVC040 M07/M10 A2988 RMK SC2SC6 SLP168

CYQF;2009-03-25 10:00;CYQF 251000Z 08009KT 8SM -SN BKN040 OVC100 M08/M11 A2987 RMK SC6AC2 SLP167

CYQF;2009-03-25 11:00;CYQF 251100Z 09004KT 8SM -SN SCT040 OVC100 M09/M12 A2987 RMK SC4AC3 SLP166

CYQF;2009-03-25 11:39;CYQF 251139Z 00000KT 12SM FEW040 BKN100 RMK SC2AC4

CYQF;2009-03-25 12:00;CYQF 251200Z 06002KT 15SM FEW040 BKN100 M09/M13 A2988 RMK SC2AC4 SLP172

CYQF;2009-03-25 13:00;CYQF 251300Z 03002KT 15SM FEW040 BKN100 M10/M13 A2990 RMK SC2AC4 SLP177

CYQF;2009-03-25 14:00;CYQF 251400Z 02003KT 15SM FEW040 BKN100 M10/M13 A2993 RMK SC2AC4 SLP185

CYQF;2009-03-25 15:00;CYQF 251500Z 34003KT 15SM FEW040 OVC100 M10/M13 A2995 RMK SC2AC5 SLP199

CYQF;2009-03-25 16:00;CYQF 251600Z 34005KT 15SM BKN100 M10/M13 A2998 RMK AC7 SLP207

CYQF;2009-03-25 17:00;CYQF 251700Z 36007KT 15SM BKN100 M08/M12 A3002 RMK AC7 SLP219

CYQF;2009-03-25 18:00;CYQF 251800Z 34010KT 15SM BKN100 BKN240 M08/M12 A3005 RMK AC5CS1 SLP232

CYQF;2009-03-25 19:00;CYQF 251900Z 35012KT 15SM SCT100 BKN250 M07/M12 A3008 RMK AC3CI2 CS ASOCTD HALO SLP241

CYQF;2009-03-25 20:00;CYQF 252000Z 01011G17KT 15SM FEW100 BKN250 M06/M13 A3009 RMK AC1CS2 SLP245

CYQF;2009-03-25 21:00;CYQF 252100Z 36011G16KT 15SM FEW100 BKN250 M06/M13 A3011 RMK AC1CS2 SLP254

CYQF;2009-03-25 22:00;CYQF 252200Z 36010G17KT 15SM FEW100 BKN250 M05/M13 A3013 RMK AC1CI2 SLP260

CYQF;2009-03-25 23:00;CYQF 252300Z 36010KT 15SM BKN250 M05/M12 A3015 RMK CI1 SLP266

CYQF;2009-03-26 00:00;CYQF 260000Z 36010KT 15SM BKN250 M05/M13 A3017 RMK CI1 SLP275

CYQF;2009-03-26 01:00;CYQF 260100Z 36010KT 15SM BKN250 M06/M14 A3020 RMK CI1 SLP284

CYQF;2009-03-26 02:00;CYQF 260200Z 35004KT 15SM SCT250 M09/M15 A3022 RMK CI1 SLP291

CYQF;2009-03-26 03:00;CYQF 260300Z 35005KT 15SM FEW250 M08/M15 A3025 RMK CI1 SLP306

CYQF;2009-03-26 04:00;CYQF 260400Z 31004KT 15SM SKC M12/M17 A3026 RMK SLP311

CYQF;2009-03-26 05:00;CYQF 260500Z 00000KT 15SM SKC M15/M19 A3027 RMK SLP314

CYQF;2009-03-26 06:00;CYQF 260600Z 00000KT 15SM SKC M18/M21 A3028 RMK SLP328

CYQF;2009-03-26 07:00;CYQF 260700Z 27005KT 15SM SKC M19/M21 A3030 RMK SLP332

CYQF;2009-03-26 08:00;CYQF 260800Z 00000KT 15SM SKC M19/M22 A3031 RMK SLP336

CYQF;2009-03-26 09:00;CYQF 260900Z 19003KT 15SM SKC M20/M23 A3032 RMK SLP339

CYQF;2009-03-26 10:00;CYQF 261000Z 20004KT 15SM SKC M22/M25 A3031 RMK SLP338

CYQF;2009-03-26 11:00;CYQF 261100Z 21007KT 15SM SKC M22/M25 A3031 RMK SLP336

CYQF;2009-03-26 12:00;CYQF 261200Z 19005KT 15SM SKC M22/M26 A3030 RMK SLP335

CYQF;2009-03-26 13:00;CYQF 261300Z 00000KT 15SM FEW250 M22/M26 A3029 RMK CI0 SLP332

CYQF;2009-03-26 14:00;CYQF 261400Z 20004KT 15SM FEW250 M22/M27 A3028 RMK CI0 SLP330

CYQF;2009-03-26 15:00;CYQF 261500Z 22003KT 15SM FEW250 M19/M23 A3028 RMK CI1 SLP329

CYQF;2009-03-26 16:00;CYQF 261600Z 18005KT 15SM FEW250 M17/M20 A3027 RMK CI1 SLP326

CYQF;2009-03-26 17:00;CYQF 261700Z 18005KT 15SM FEW250 M11/M16 A3025 RMK CI1 SLP319

CYQF;2009-03-26 18:00;CYQF 261800Z 14012KT 15SM FEW250 M07/M14 A3022 RMK CI1 SLP306

CYQF;2009-03-26 19:00;CYQF 261900Z 15013KT 15SM SKC M05/M13 A3020 RMK SLP299

CYQF;2009-03-26 20:00;CYQF 262000Z 17010G15KT 15SM SKC M04/M12 A3017 RMK SLP291

CYQF;2009-03-26 21:00;CYQF 262100Z 16015G20KT 15SM SKC M03/M11 A3014 RMK SLP273

CYQF;2009-03-26 22:00;CYQF 262200Z 16014G21KT 15SM SKC M03/M11 A3010 RMK SLP261

CYQF;2009-03-26 23:00;CYQF 262300Z 16015G20KT 15SM FEW240 M02/M10 A3007 RMK CI1 SLP252

CYQF;2009-03-27 00:00;CYQF 270000Z 16015G20KT 15SM FEW240 M02/M09 A3002 RMK CI1 SLP235

CYQF;2009-03-27 01:00;CYQF 270100Z 16017G23KT 15SM FEW250 M02/M10 A2998 RMK CI1 SLP223

CYQF;2009-03-27 02:00;CYQF 270200Z 17015G20KT 15SM SCT250 M04/M11 A2995 RMK CI1 SLP213

CYQF;2009-03-27 03:00;CYQF 270300Z 17015G20KT 15SM FEW250 M04/M11 A2992 RMK CI1 SLP198

CYQF;2009-03-27 04:00;CYQF 270400Z 16015G20KT 15SM SKC M04/M11 A2988 RMK SLP186

CYQF;2009-03-27 05:00;CYQF 270500Z 17015KT 15SM SKC M05/M11 A2984 RMK SLP172

CYQF;2009-03-27 06:00;CYQF 270600Z 17012KT 15SM SKC M06/M11 A2981 RMK SLP148

CYQF;2009-03-27 07:00;CYQF 270700Z 16008KT 15SM BKN100 M07/M12 A2977 RMK AC6 SLP136

CYQF;2009-03-27 08:00;CYQF 270800Z 15006KT 15SM OVC100 M07/M11 A2975 RMK AC8 SLP128

CYQF;2009-03-27 09:00;CYQF 270900Z 15003KT 15SM OVC100 M06/M11 A2973 RMK AC8 SLP116

CYQF;2009-03-27 10:00;CYQF 271000Z 00000KT 15SM OVC100 M06/M11 A2973 RMK AC8 SLP116

CYQF;2009-03-27 11:00;CYQF 271100Z 19003KT 15SM BKN100 OVC250 M07/M11 A2971 RMK AC6CI2 SLP110

CYQF;2009-03-27 12:00;CYQF 271200Z 18004KT 15SM SCT100 BKN250 M07/M11 A2969 RMK AC3CI2 SLP104

CYQF;2009-03-27 13:00;CYQF 271300Z 22003KT 15SM FEW100 SCT250 M09/M13 A2969 RMK AC2CI0 SLP103

CYQF;2009-03-27 14:00;CYQF 271400Z 00000KT 15SM FEW060 BKN080 BKN250 M08/M11 A2971 RMK SC2AC4CI1 VIRGA SLP109

CYQF;2009-03-27 15:00;CYQF 271500Z 20002KT 15SM VCSH FEW060 BKN080 BKN250 M06/M10 A2974 RMK SC2AC4CI2 SLP119

CYQF;2009-03-27 15:19;CYQF 271519Z 32010KT 15SM -SHSN FEW060 BKN080 BKN250 RMK SC2AC5CI1

CYQF;2009-03-27 16:00;CYQF 271600Z 36010KT 15SM VCSH FEW060 BKN090 BKN250 M00/M08 A2978 RMK SC2AC4CI1 SLP132

CYQF;2009-03-27 17:00;CYQF 271700Z 34012KT 15SM VCSH FEW040 BKN080 BKN250 M00/M05 A2980 RMK SC2AC4CI1 ACC SLP139

CYQF;2009-03-27 18:00;CYQF 271800Z 01004KT 15SM FEW040 FEW100 01/M05 A2979 RMK SC1AC1 SLP134

CYQF;2009-03-27 19:00;CYQF 271900Z 35002KT 15SM FEW040 FEW100 02/M05 A2979 RMK SC1AC1 SLP133

CYQF;2009-03-27 20:00;CYQF 272000Z 36008KT 15SM FEW040 FEW100 03/M06 A2979 RMK SC1AC1 SLP133

CYQF;2009-03-27 21:00;CYQF 272100Z 01003KT 15SM FEW040 FEW100 03/M07 A2978 RMK CU2AC1 SLP126

CYQF;2009-03-27 22:00;CYQF 272200Z 19006KT 15SM FEW040 FEW100 SCT250 04/M05 A2977 RMK SC2AC1CI0 SLP125

CYQF;2009-03-27 23:00;CYQF 272300Z 21004KT 15SM VCSH SCT040 BKN100 BKN250 03/M05 A2978 RMK SC3AC2CI0 SLP128

CYQF;2009-03-28 00:00;CYQF 280000Z 18004KT 15SM VCSH SCT030 BKN100 BKN250 02/M05 A2978 RMK SC3AC2CI1 SLP130

CYQF;2009-03-28 01:00;CYQF 280100Z 19004KT 15SM BKN030 BKN100 02/M04 A2978 RMK SC6AC1 VIRGA SLP130

CYQF;2009-03-28 01:23;CYQF 280123Z 23002KT 10SM -SN BKN030 OVC100 RMK SC7AC1 VIS NW-NE 2

CYQF;2009-03-28 01:35;CYQF 280135Z 30002KT 2SM -SN OVC020 RMK SN2SC6

CYQF;2009-03-28 01:43;CYQF 280143Z 24002KT 5SM -SN BKN020 OVC100 RMK SC7AC1

CYQF;2009-03-28 02:00;CYQF 280200Z 31002KT 3SM -SN BKN020 OVC100 01/M03 A2979 RMK SC7AC1 SLP133

CYQF;2009-03-28 02:49;CYQF 280249Z 01006KT 10SM BKN030 OVC100 RMK SC6AC2

CYQF;2009-03-28 03:00;CYQF 280300Z 01008KT 10SM BKN030 OVC100 M00/M02 A2981 RMK SC6AC2 SLP140

CYQF;2009-03-28 04:00;CYQF 280400Z 01010KT 10SM OVC028 M01/M03 A2982 RMK SC8 SLP143

CYQF;2009-03-28 04:21;CYQF 280421Z 02008KT 10SM -SN OVC027 RMK SC8

CYQF;2009-03-28 05:00;CYQF 280500Z 02008KT 10SM -SN OVC028 M01/M02 A2983 RMK SC8 SLP146

CYQF;2009-03-28 05:20;CYQF 280520Z 36005KT 2SM -SN OVC027 RMK SC8

CYQF;2009-03-28 05:30;CYQF 280530Z 01006KT 1SM -SN OVC020 RMK SN5SC3

CYQF;2009-03-28 05:45;CYQF 280545Z 03005KT 1/2SM SN VV007 RMK SN8

CYQF;2009-03-28 06:00;CYQF 280600Z 03003KT 1SM -SN VV012 M01/M02 A2984 RESN RMK SN8 /S01 SLP143

CYQF;2009-03-28 07:00;CYQF 280700Z 02004KT 5SM -SN SCT020 BKN050 M01/M03 A2984 RMK SC3SC2 VIS S 2 SLP143

CYQF;2009-03-28 07:40;CYQF 280740Z 00000KT 1SM -SN BR BKN050 RMK SC6

CYQF;2009-03-28 08:00;CYQF 280800Z 00000KT 1/4SM FZFG BKN050 M04/M06 A2983 RMK FG2SC5 SLP142

CYQF;2009-03-28 08:31;CYQF 280831Z 21005KT 3SM BR BKN050 RMK SC7 VIS W-N 1

CYQF;2009-03-28 08:49;CYQF 280849Z 20003KT 10SM FEW005 BKN050 RMK ST2SC5

CYQF;2009-03-28 09:00;CYQF 280900Z 00000KT 10SM FEW005 BKN050 M04/M05 A2983 RMK ST2SC5 SLP141

CYQF;2009-03-28 10:00;CYQF 281000Z 25003KT 10SM FEW005 BKN050 M04/M05 A2983 RMK ST2SC5 SLP141

CYQF;2009-03-28 11:00;CYQF 281100Z 26004KT 15SM FEW005 BKN050 M03/M04 A2983 RMK ST1SC6 SLP140

CYQF;2009-03-28 12:00;CYQF 281200Z 29004KT 15SM OVC050 M03/M05 A2984 RMK SC8 SLP143

CYQF;2009-03-28 13:00;CYQF 281300Z 00000KT 15SM OVC050 M05/M07 A2984 RMK SC8 SLP143

CYQF;2009-03-28 13:39;CYQF 281339Z 23004KT 10SM -SN BKN025 OVC050 RMK SC6SC2

CYQF;2009-03-28 14:00;CYQF 281400Z 24004KT 2SM -SN OVC025 M03/M05 A2985 RMK SN2SC6 SLP146

CYQF;2009-03-28 14:33;CYQF 281433Z 21008KT 8SM OVC025 RMK SC8 VIS S 3

CYQF;2009-03-28 15:00;CYQF 281500Z 22005KT 10SM SCT025 BKN080 M03/M05 A2984 RMK SC4AC2 SLP147

CYQF;2009-03-28 16:00;CYQF 281600Z 22005KT 10SM BKN025 OVC080 M02/M04 A2983 RMK SC6AC2 SLP146

CYQF;2009-03-28 16:40;CYQF 281640Z 25005KT 10SM FEW008 OVC025 RMK SF1SC7

CYQF;2009-03-28 17:00;CYQF 281700Z 23008KT 10SM FEW008 OVC025 M01/M04 A2982 RMK SF1SC6 SLP142

CYQF;2009-03-28 18:00;CYQF 281800Z 20010KT 10SM FEW008 SCT020 OVC080 M01/M04 A2980 RMK SF1SC2AS2 CIG VIS LWR S-SW SLP132

CYQF;2009-03-28 19:00;CYQF 281900Z 21012KT 10SM FEW010 SCT030 BKN090 M00/M05 A2979 RMK CU1SC2AS1 SLP129

CYQF;2009-03-28 20:00;CYQF 282000Z 19006KT 10SM FEW020 SCT060 BKN090 BKN250 00/M05 A2976 RMK CU1SC2AC1CI1 SLP120

CYQF;2009-03-28 21:00;CYQF 282100Z 17008KT 15SM FEW020 BKN060 01/M05 A2974 RMK CU1SC6 SLP112

CYQF;2009-03-28 22:00;CYQF 282200Z 15007KT 15SM FEW025 SCT070 BKN250 01/M06 A2971 RMK CU1AC2CI1 SLP104

CYQF;2009-03-28 23:00;CYQF 282300Z 17007KT 15SM FEW025 SCT070 BKN250 01/M05 A2970 RMK CU2AC2CI1 SLP101

CYQF;2009-03-29 00:00;CYQF 290000Z 17005KT 15SM FEW025 SCT070 BKN250 01/M05 A2969 RMK CU1AC2CI1 SLP095

CYQF;2009-03-29 01:00;CYQF 290100Z 20004KT 15SM FEW025 FEW070 BKN250 M01/M05 A2969 RMK SC1AC2CI1 SLP095

CYQF;2009-03-29 02:00;CYQF 290200Z 20004KT 15SM FEW020 SCT050 BKN250 M02/M05 A2969 RMK SC2SC2CI1 SLP095

CYQF;2009-03-29 03:00;CYQF 290300Z 00000KT 15SM FEW020 BKN050 M01/M05 A2969 RMK SC2SC6 SLP097

CYQF;2009-03-29 04:00;CYQF 290400Z 04007KT 15SM FEW020 BKN050 OVC250 M01/M05 A2969 RMK SC2SC3CI2 SLP096

CYQF;2009-03-29 05:00;CYQF 290500Z 06007KT 15SM FEW050 BKN250 M02/M06 A2968 RMK SC2CI2 SLP094

CYQF;2009-03-29 06:00;CYQF 290600Z 06005KT 15SM SCT050 BKN250 M02/M06 A2968 RMK SC3CI2 SLP093

CYQF;2009-03-29 07:00;CYQF 290700Z 01005KT 15SM OVC050 M03/M06 A2969 RMK SC8 SLP096

CYQF;2009-03-29 08:00;CYQF 290800Z 33003KT 15SM OVC050 M03/M07 A2970 RMK SC8 SLP098

CYQF;2009-03-29 09:00;CYQF 290900Z 36004KT 15SM OVC050 M03/M07 A2971 RMK SC8 SLP103

CYQF;2009-03-29 10:00;CYQF 291000Z 36006KT 15SM OVC050 M04/M07 A2973 RMK SC8 SLP108

CYQF;2009-03-29 11:00;CYQF 291100Z 35005KT 15SM BKN050 M04/M08 A2974 RMK SC6 SLP112

CYQF;2009-03-29 12:00;CYQF 291200Z 34004KT 15SM SCT050 M06/M09 A2977 RMK SC3 SLP126

CYQF;2009-03-29 13:00;CYQF 291300Z 33005KT 15SM FEW050 FEW250 M07/M10 A2979 RMK SC1CI0 SLP132

CYQF;2009-03-29 14:00;CYQF 291400Z 33005KT 15SM FEW060 FEW250 M07/M10 A2981 RMK SC1CI0 FROIN SLP140

CYQF;2009-03-29 15:00;CYQF 291500Z 31003KT 15SM FEW100 BKN250 M06/M09 A2985 RMK AC1CI2 SLP156

CYQF;2009-03-29 16:00;CYQF 291600Z 30005KT 15SM BKN250 M04/M08 A2987 RMK CI2 SLP163

CYQF;2009-03-29 17:00;CYQF 291700Z 30005KT 15SM BKN250 M02/M08 A2990 RMK CI2 SLP170

CYQF;2009-03-29 18:00;CYQF 291800Z 32007KT 15SM FEW030 BKN250 M01/M09 A2992 RMK CU1CI2 SLP177

CYQF;2009-03-29 19:00;CYQF 291900Z 35007KT 15SM FEW030 BKN250 00/M08 A2994 RMK CU1CI1 SLP181

CYQF;2009-03-29 20:00;CYQF 292000Z 36008KT 15SM FEW030 SCT250 01/M08 A2995 RMK CU1CI2 SLP186

CYQF;2009-03-29 21:00;CYQF 292100Z 34007KT 15SM FEW030 SCT250 01/M08 A2996 RMK CU1CI2 SLP188

CYQF;2009-03-29 22:00;CYQF 292200Z 33008KT 15SM FEW035 SCT250 01/M09 A2997 RMK CU1CI2 SLP191

CYQF;2009-03-29 23:00;CYQF 292300Z 02003KT 15SM FEW035 SCT250 02/M09 A2998 RMK CU1CI1 SLP193

CYQF;2009-03-30 00:00;CYQF 300000Z 00000KT 15SM FEW035 SCT250 02/M10 A2999 RMK CU1CI1 SLP201

CYQF;2009-03-30 01:00;CYQF 300100Z 00000KT 15SM FEW040 SCT250 00/M09 A3000 RMK SC1CI1 SLP204

CYQF;2009-03-30 02:00;CYQF 300200Z 22003KT 15SM FEW040 FEW100 BKN250 M02/M10 A3001 RMK SC1AC1CI1 SLP207

CYQF;2009-03-30 03:00;CYQF 300300Z 18005KT 15SM FEW040 SCT250 M03/M10 A3001 RMK SC1CI1 SLP214

CYQF;2009-03-30 04:00;CYQF 300400Z 22005KT 15SM FEW250 M06/M11 A3003 RMK CI1 SLP218

CYQF;2009-03-30 05:00;CYQF 300500Z 18003KT 15SM SKC M07/M12 A3003 RMK SLP219

CYQF;2009-03-30 06:00;CYQF 300600Z 19005KT 15SM SKC M08/M13 A3001 RMK SLP215

CYQF;2009-03-30 07:00;CYQF 300700Z 19006KT 15SM FEW250 M09/M13 A3000 RMK CI2 SLP212

CYQF;2009-03-30 08:00;CYQF 300800Z 18004KT 15SM FEW250 M10/M14 A3000 RMK CI2 SLP210

CYQF;2009-03-30 09:00;CYQF 300900Z 17003KT 15SM FEW250 M10/M15 A2998 RMK CI2 SLP204

CYQF;2009-03-30 10:00;CYQF 301000Z 17004KT 15SM FEW250 M10/M15 A2997 RMK CI1 SLP199

CYQF;2009-03-30 11:00;CYQF 301100Z 17004KT 15SM FEW250 M10/M16 A2995 RMK CI1 SLP193

CYQF;2009-03-30 12:00;CYQF 301200Z 21005KT 15SM FEW250 M11/M15 A2994 RMK CI1 SLP189

CYQF;2009-03-30 13:00;CYQF 301300Z 22007KT 15SM FEW100 FEW250 M12/M16 A2993 RMK AC1CI2 SLP186

CYQF;2009-03-30 14:00;CYQF 301400Z 21005KT 15SM FEW100 FEW250 M12/M16 A2992 RMK AC1CI1 SLP182

CYQF;2009-03-30 15:00;CYQF 301500Z 19002KT 15SM BKN250 M09/M14 A2991 RMK CI3 SLP183

CYQF;2009-03-30 16:00;CYQF 301600Z 19003KT 15SM BKN250 M08/M13 A2989 RMK CI2 SLP177

CYQF;2009-03-30 17:00;CYQF 301700Z 18003KT 15SM BKN250 M06/M12 A2988 RMK CI2 SLP174

CYQF;2009-03-30 18:00;CYQF 301800Z 20003KT 15SM BKN250 M03/M10 A2986 RMK CI3 SLP164

CYQF;2009-03-30 19:00;CYQF 301900Z 18004KT 15SM BKN250 M02/M09 A2985 RMK CI2 SLP161

CYQF;2009-03-30 20:00;CYQF 302000Z 17004KT 15SM SCT250 00/M08 A2983 RMK CI1 SLP156

CYQF;2009-03-30 21:00;CYQF 302100Z 17004KT 15SM SCT250 03/M06 A2980 RMK CI1 SLP138

CYQF;2009-03-30 22:00;CYQF 302200Z 17006KT 15SM SCT250 03/M05 A2979 RMK CI1 SLP134

CYQF;2009-03-30 23:00;CYQF 302300Z 18006KT 15SM FEW080 BKN250 03/M05 A2977 RMK AC1CI2 SLP129

CYQF;2009-03-31 00:00;CYQF 310000Z 19007KT 15SM FEW080 BKN250 01/M06 A2976 RMK AC1CI4 SLP127

CYQF;2009-03-31 01:00;CYQF 310100Z 18006KT 15SM BKN100 OVC250 00/M05 A2974 RMK AC2CI6 SLP122

CYQF;2009-03-31 02:00;CYQF 310200Z 19007KT 15SM BKN100 BKN250 M00/M06 A2973 RMK AC2CI5 SLP119

CYQF;2009-03-31 03:00;CYQF 310300Z 20007KT 15SM FEW100 BKN250 M01/M06 A2973 RMK AC1CI4 SLP119

CYQF;2009-03-31 04:00;CYQF 310400Z 21006KT 15SM FEW250 M02/M07 A2974 RMK CI2 SLP120

CYQF;2009-03-31 05:00;CYQF 310500Z 18005KT 15SM BKN090 BKN250 M03/M07 A2972 RMK AC6CI1 SLP116

CYQF;2009-03-31 06:00;CYQF 310600Z 23005KT 15SM FEW090 BKN250 M02/M07 A2971 RMK AC2CI2 SLP104

CYQF;2009-03-31 07:00;CYQF 310700Z 20005KT 15SM FEW090 BKN250 M04/M09 A2969 RMK AC2CI2 SLP100

CYQF;2009-03-31 08:00;CYQF 310800Z 20005KT 15SM FEW090 SCT250 M07/M11 A2968 RMK AC1CI1 SLP096

CYQF;2009-03-31 09:00;CYQF 310900Z 20006KT 15SM FEW090 SCT250 M08/M12 A2966 RMK AC1CI1 SLP089

CYQF;2009-03-31 10:00;CYQF 311000Z 18004KT 15SM SCT250 M08/M12 A2965 RMK CI2 SLP083

CYQF;2009-03-31 11:00;CYQF 311100Z 19005KT 15SM FEW100 BKN250 M09/M13 A2962 RMK AC1CI2 SLP076

CYQF;2009-03-31 12:00;CYQF 311200Z 18005KT 15SM FEW100 SCT250 M09/M14 A2960 RMK AC2CI1 SLP070

CYQF;2009-03-31 13:00;CYQF 311300Z 21004KT 15SM BKN070 BKN250 M08/M13 A2958 RMK AC5CI1 SLP063

CYQF;2009-03-31 14:00;CYQF 311400Z 17005KT 15SM BKN070 BKN250 M07/M13 A2956 RMK AC6CI1 ACC ASOCTD VIRGA SLP057

CYQF;2009-03-31 15:00;CYQF 311500Z 21004KT 15SM BKN070 BKN250 M06/M11 A2955 RMK AC6CI1 ACC ASOCTD VIRGA SLP052

CYQF;2009-03-31 16:00;CYQF 311600Z 00000KT 15SM SCT070 BKN140 BKN250 M04/M09 A2954 RMK AC3AC2CI1 ACC/VIRGA W SLP048

CYQF;2009-03-31 17:00;CYQF 311700Z 00000KT 15SM SCT070 BKN120 00/M09 A2952 RMK AC4AC2 ACC/VIRGA ASOCTD SLP042

CYQF;2009-03-31 18:00;CYQF 311800Z 00000KT 15SM FEW070 SCT120 BKN250 02/M08 A2952 RMK AC2AC2CI2 SLP032

CYQF;2009-03-31 19:00;CYQF 311900Z 00000KT 15SM FEW070 BKN100 03/M07 A2952 RMK AC2AC3 SLP033

CYQF;2009-03-31 20:00;CYQF 312000Z 34005KT 15SM FEW040 BKN100 BKN250 03/M06 A2953 RMK CU1AC6CI2 CU EMBD DIST W SLP035

CYQF;2009-03-31 21:00;CYQF 312100Z 35005KT 15SM FEW040 BKN100 OVC250 04/M08 A2953 RMK CU1AC6CI2 SLP040

CYQF;2009-03-31 22:00;CYQF 312200Z 35007KT 15SM FEW030 OVC100 04/M06 A2953 RMK CU2AC6 SLP040

CYQF;2009-03-31 23:00;CYQF 312300Z 01010KT 15SM FEW030 OVC100 04/M05 A2955 RMK CU1AC6 SLP045

CYQF;2009-04-01 01:00;CYQF 010100Z 36010G15KT 15SM BKN080 OVC250 02/M05 A2959 RMK AC6CI2 VIRGA SLP064

CYQF;2009-04-01 02:00;CYQF 010200Z 35012KT 15SM OVC080 01/M04 A2962 RMK AC8 SLP072

CYQF;2009-04-01 03:00;CYQF 010300Z 34007KT 15SM BKN080 01/M05 A2966 RMK AC7 SLP086

CYQF;2009-04-01 04:00;CYQF 010400Z 34008KT 15SM BKN100 01/M04 A2968 RMK AC7 SLP095

CYQF;2009-04-01 05:00;CYQF 010500Z 34012KT 15SM BKN014 OVC100 00/M03 A2972 RMK SC5AC3 SLP105

CYQF;2009-04-01 05:42;CYQF 010542Z 34008KT 5SM -SN BKN014 OVC090 RMK SC6AC2

CYQF;2009-04-01 06:00;CYQF 010600Z 34005KT 2SM -SN OVC012 M00/M03 A2974 RMK SC8 SLP107

CYQF;2009-04-01 07:00;CYQF 010700Z 36012KT 2SM -SN OVC011 M01/M04 A2975 RMK SN2SC6 SLP112

CYQF;2009-04-01 08:00;CYQF 010800Z 35008KT 2 1/2SM -SN OVC014 M02/M03 A2977 RMK SN2SC6 SLP117

CYQF;2009-04-01 09:00;CYQF 010900Z 33008KT 4SM -SN OVC014 M02/M04 A2978 RMK SC8 SLP120

CYQF;2009-04-01 09:40;CYQF 010940Z 31007KT 10SM SCT015 BKN080 RMK SC4AC3

CYQF;2009-04-01 10:00;CYQF 011000Z 31005KT 10SM SCT015 BKN080 M02/M05 A2978 RMK SC3AC4 SLP122

CYQF;2009-04-01 11:00;CYQF 011100Z 30008KT 10SM SCT015 BKN080 M03/M06 A2979 RMK SC3AC3 SLP124

CYQF;2009-04-01 12:00;CYQF 011200Z 30008KT 15SM FEW020 BKN080 M05/M08 A2980 RMK SC2AC3 /S01/ SLP133

CYQF;2009-04-01 13:00;CYQF 011300Z 31008KT 15SM FEW020 SCT080 SCT250 M05/M08 A2981 RMK SC1AC2CI0 SLP137

CYQF;2009-04-01 14:00;CYQF 011400Z 32006KT 15SM FEW080 BKN250 M06/M09 A2981 RMK AC2CI2 SLP136

CYQF;2009-04-01 15:00;CYQF 011500Z 16004KT 15SM FEW080 BKN250 M05/M08 A2981 RMK AC1CI2 SLP138

CYQF;2009-04-01 16:00;CYQF 011600Z 00000KT 15SM FEW080 BKN250 M04/M08 A2981 RMK AC1CI1 SLP137

CYQF;2009-04-01 17:00;CYQF 011700Z 00000KT 15SM FEW080 BKN250 M03/M07 A2979 RMK AC1CI2 SLP132

CYQF;2009-04-01 18:00;CYQF 011800Z 00000KT 15SM SCT100 BKN250 M02/M08 A2978 RMK AC3CI1 SLP125

CYQF;2009-04-01 19:00;CYQF 011900Z 00000KT 15SM FEW100 SCT250 M01/M07 A2976 RMK AC1CI1 SLP118

CYQF;2009-04-01 20:00;CYQF 012000Z 18003KT 15SM FEW030 FEW100 SCT250 00/M09 A2974 RMK CU1AC1CI0 SLP112

CYQF;2009-04-01 21:00;CYQF 012100Z 21003KT 15SM FEW030 FEW100 BKN250 01/M09 A2972 RMK CU1AC1CI1 CU/AC TR SLP103

CYQF;2009-04-01 22:00;CYQF 012200Z 19004KT 15SM FEW040 FEW100 SCT250 01/M09 A2971 RMK CU1AC1CI0 SLP099

CYQF;2009-04-01 23:00;CYQF 012300Z 20003KT 15SM FEW040 FEW100 BKN250 02/M09 A2969 RMK CU1AC1CI2 SLP093

CYQF;2009-04-02 00:00;CYQF 020000Z 20004KT 15SM FEW030 FEW100 BKN250 01/M07 A2968 RMK CU1AC1CI2 SLP092

CYQF;2009-04-02 01:00;CYQF 020100Z 00000KT 15SM FEW030 FEW100 BKN210 M00/M08 A2966 RMK CU1AC1CI3 SLP087

CYQF;2009-04-02 02:00;CYQF 020200Z 00000KT 15SM BKN210 M01/M07 A2964 RMK CI6 SLP081

CYQF;2009-04-02 03:00;CYQF 020300Z 00000KT 15SM SCT150 BKN210 M01/M07 A2964 RMK AC3CI2 SLP082

CYQF;2009-04-02 04:00;CYQF 020400Z 00000KT 15SM FEW150 BKN210 M02/M07 A2963 RMK AC2CI1 SLP079

CYQF;2009-04-02 05:00;CYQF 020500Z 00000KT 15SM FEW250 M03/M07 A2962 RMK CI0 SLP076

CYQF;2009-04-02 06:00;CYQF 020600Z 00000KT 15SM FEW250 M05/M08 A2961 RMK CI0 SLP070

CYQF;2009-04-02 07:00;CYQF 020700Z 00000KT 15SM SKC M05/M08 A2960 RMK SLP067

CYQF;2009-04-02 08:00;CYQF 020800Z 00000KT 15SM SKC M06/M09 A2959 RMK SLP064

CYQF;2009-04-02 09:00;CYQF 020900Z 00000KT 15SM FEW080 M07/M09 A2958 RMK AC2 SLP061

CYQF;2009-04-02 10:00;CYQF 021000Z 00000KT 15SM FEW080 M07/M09 A2958 RMK AC2 SLP059

CYQF;2009-04-02 11:00;CYQF 021100Z 00000KT 10SM FEW080 M08/M10 A2957 RMK AC2 SLP058

CYQF;2009-04-02 12:00;CYQF 021200Z 00000KT 10SM FEW080 M10/M12 A2957 RMK AC2 SLP063

CYQF;2009-04-02 12:39;CYQF 021239Z 00000KT 1 1/2SM BR SCT006 BKN080 BKN250 RMK FG2SF2AC1CI0

CYQF;2009-04-02 12:47;CYQF 021247Z 00000KT 1SM BR BKN006 BKN250 RMK FG2SF2CI1

CYQF;2009-04-02 13:00;CYQF 021300Z 00000KT 1SM BR BKN006 BKN250 M11/M13 A2958 RMK FG2SF2CI2 SLP065

CYQF;2009-04-02 13:51;CYQF 021351Z 24002KT 1/8SM FZFG SKC RMK FG7

CYQF;2009-04-02 14:00;CYQF 021400Z 24003KT 1/8SM FZFG VV003 M09/M11 A2958 RMK FG8 RIME ON INDICATOR SLP065

CYQF;2009-04-02 15:00;CYQF 021500Z 25004KT 1/4SM FZFG VV003 M08/M10 A2959 RMK FG8 RIME ON INDICATOR SLP067

CYQF;2009-04-02 16:00;CYQF 021600Z 22003KT 1/4SM FZFG VV003 M08/M10 A2959 RMK FG8 RIME ON INDICATOR SLP067

CYQF;2009-04-02 17:00;CYQF 021700Z 00000KT 1/4SM FZFG VV003 M07/M08 A2958 RMK FG8 RIME ON INDICATOR SLP066

CYQF;2009-04-02 17:24;CYQF 021724Z 00000KT 1/2SM FZFG VV004 RMK FG8 RIME ON INDICATOR

CYQF;2009-04-02 18:00;CYQF 021800Z 34002KT 1/2SM FZFG VV005 M06/M06 A2958 RMK FG8 SLP066

CYQF;2009-04-02 18:33;CYQF 021833Z 09002KT 1SM BR VV005 RMK FG8

CYQF;2009-04-02 18:48;CYQF 021848Z 00000KT 3/4SM BR VV005 RMK FG8 VIS VRB 1-1/2

CYQF;2009-04-02 19:00;CYQF 021900Z CCA 00000KT 3/4SM BR VV004 M03/M04 A2958 RMK FG8 VIS VRB 1/2-1 SLP066

CYQF;2009-04-02 19:27;CYQF 021927Z 00000KT 1 1/2SM BR OVC005 RMK FG4ST4 VIS E 1

CYQF;2009-04-02 20:00;CYQF 022000Z 00000KT 3SM BR OVC006 M02/M03 A2958 RMK ST8 SLP066

CYQF;2009-04-02 21:00;CYQF 022100Z 00000KT 5SM BR FEW006 BKN014 M01/M03 A2958 RMK SF2SC6 SLP064

CYQF;2009-04-02 21:30;CYQF 022130Z 00000KT 6SM BR SCT014 BKN250 RMK SF3CI1

CYQF;2009-04-02 22:00;CYQF 022200Z 18003KT 6SM HZ BKN015 BKN250 00/M03 A2959 RMK SC6CI1 CU E SLP065

CYQF;2009-04-02 23:00;CYQF 022300Z 16005KT 10SM FEW015TCU BKN250 01/M03 A2959 RMK TCU2CI1 SLP067

CYQF;2009-04-03 00:00;CYQF 030000Z 15005KT 10SM SCT020TCU BKN250 01/M04 A2960 RMK TCU3CI2 SLP071

CYQF;2009-04-03 01:00;CYQF 030100Z 15006KT 10SM SCT020TCU BKN250 01/M04 A2961 RMK TCU3CI2 SLP074

CYQF;2009-04-03 02:00;CYQF 030200Z 10006KT 10SM SCT020 BKN050 BKN250 M00/M04 A2963 RMK SC3SC2CI0 SLP079

CYQF;2009-04-03 03:00;CYQF 030300Z 00000KT 15SM SCT050 BKN250 M02/M05 A2965 RMK SC4CI0 SLP088

CYQF;2009-04-03 04:00;CYQF 030400Z 00000KT 15SM BKN080 M03/M06 A2965 RMK AC7 SLP089

CYQF;2009-04-03 05:00;CYQF 030500Z 00000KT 15SM FEW080 M03/M05 A2966 RMK AC2 SLP092

CYQF;2009-04-03 06:00;CYQF 030600Z 00000KT 15SM BKN080 M03/M06 A2966 RMK AC6 SLP094

CYQF;2009-04-03 07:00;CYQF 030700Z 00000KT 10SM BKN025 OVC080 M03/M05 A2967 RMK SC5AC2 SLP095

CYQF;2009-04-03 08:00;CYQF 030800Z 00000KT 8SM BKN030 M03/M05 A2968 RMK SC6 SLP099

CYQF;2009-04-03 09:00;CYQF 030900Z 00000KT 6SM BR SCT010 BKN030 M03/M06 A2969 RMK ST3SC4 SLP097

CYQF;2009-04-03 10:00;CYQF 031000Z 05003KT 5SM BR FEW010 BKN030 M03/M05 A2971 RMK ST2SC5 SLP102

CYQF;2009-04-03 11:00;CYQF 031100Z 00000KT 5SM BR FEW010 OVC030 M03/M05 A2972 RMK SF2SC6 SLP106

CYQF;2009-04-03 12:00;CYQF 031200Z 00000KT 5SM BR FEW010 OVC030 M02/M05 A2974 RMK SF2SC6 SLP111

CYQF;2009-04-03 13:00;CYQF 031300Z 00000KT 3SM BR SCT010 OVC030 M02/M05 A2976 RMK SF3SC5 SLP117

CYQF;2009-04-03 14:00;CYQF 031400Z 06004KT 5SM BR FEW010 OVC030 M02/M05 A2979 RMK SF2SC6 OBS TAKEN -02 SLP125

CYQF;2009-04-03 15:00;CYQF 031500Z 08003KT 5SM BR OVC030 M02/M05 A2981 RMK SC8 SLP138

CYQF;2009-04-03 16:00;CYQF 031600Z 06006KT 6SM BR FEW015 OVC030 M01/M05 A2984 RMK SF2SC6 SLP148

CYQF;2009-04-03 17:00;CYQF 031700Z 06006KT 6SM HZ SCT015 OVC030 M01/M06 A2986 RMK SC3SC5 SLP155

CYQF;2009-04-03 18:00;CYQF 031800Z 05004KT 10SM BKN020 OVC030 M01/M06 A2988 RMK SC5SC3 SLP164

CYQF;2009-04-03 19:00;CYQF 031900Z 36005KT 10SM OVC025 00/M07 A2990 RMK SC7 SLP170

CYQF;2009-04-03 20:00;CYQF 032000Z 35002KT 10SM OVC025 00/M07 A2992 RMK SC7 SLP174

CYQF;2009-04-03 21:00;CYQF 032100Z 00000KT 10SM OVC025 01/M07 A2994 RMK SC7 SLP181

CYQF;2009-04-03 22:00;CYQF 032200Z 00000KT 10SM BKN025 01/M07 A2995 RMK SC6 CONTRAILS SLP185

CYQF;2009-04-03 23:00;CYQF 032300Z 35003KT 10SM BKN025 01/M06 A2996 RMK SC6 SLP189

CYQF;2009-04-04 00:00;CYQF 040000Z 08004KT 15SM BKN030 01/M06 A2998 RMK SC6 SLP194

CYQF;2009-04-04 01:00;CYQF 040100Z 05005KT 15SM BKN030 BKN250 01/M06 A3000 RMK SC5CI1 SLP199

CYQF;2009-04-04 02:00;CYQF 040200Z 07004KT 15SM BKN030 BKN250 01/M05 A3002 RMK SC6CI1 SLP206

CYQF;2009-04-04 03:00;CYQF 040300Z 06002KT 15SM BKN030 00/M06 A3005 RMK SC6 SLP218

CYQF;2009-04-04 04:00;CYQF 040400Z 09005KT 15SM BKN030 M00/M04 A3008 RMK SC6 SLP228

CYQF;2009-04-04 05:00;CYQF 040500Z 09006KT 15SM BKN045 M00/M04 A3010 RMK SC6 SLP234

CYQF;2009-04-04 06:00;CYQF 040600Z 00000KT 15SM OVC045 M01/M04 A3012 RMK SC8 SLP241

CYQF;2009-04-04 07:00;CYQF 040700Z 13002KT 10SM OVC045 M01/M04 A3013 RMK SC8 SLP245

CYQF;2009-04-04 08:00;CYQF 040800Z 00000KT 10SM BKN045 M01/M04 A3015 RMK SC7 SLP250

CYQF;2009-04-04 09:00;CYQF 040900Z 20002KT 10SM BKN045 M02/M05 A3016 RMK SC7 SLP257

CYQF;2009-04-04 10:00;CYQF 041000Z 23003KT 10SM SCT045 M03/M06 A3018 RMK SC4 SLP262

CYQF;2009-04-04 11:00;CYQF 041100Z 14004KT 10SM SKC M05/M08 A3019 RMK SLP267

CYQF;2009-04-04 12:00;CYQF 041200Z 00000KT 10SM SKC M07/M10 A3021 RMK SLP278

CYQF;2009-04-04 13:00;CYQF 041300Z 00000KT 2 1/2SM BR FEW040 M08/M10 A3023 RMK SC1 VIS W 3 SLP286

CYQF;2009-04-04 14:00;CYQF 041400Z 00000KT 2 1/2SM BR FEW040 FEW250 M07/M10 A3026 RMK SC1CI1 SLP294

CYQF;2009-04-04 15:00;CYQF 041500Z 19003KT 2SM BR BKN060 M07/M09 A3027 RMK SC7 SLP302

CYQF;2009-04-04 16:00;CYQF 041600Z 22003KT 3SM BR BKN040 M05/M09 A3029 RMK SC7 SLP307

CYQF;2009-04-04 17:00;CYQF 041700Z 19003KT 3SM BR BKN040 M03/M07 A3029 RMK SC7 SLP308

CYQF;2009-04-04 18:00;CYQF 041800Z 18002KT 3SM BR FEW010 BKN040 M01/M05 A3030 RMK SC2SC5 SLP306

CYQF;2009-04-04 19:00;CYQF 041900Z 18006KT 4SM BR FEW020 SCT080 BKN250 01/M04 A3030 RMK CU2AC2CI0 SLP307

CYQF;2009-04-04 20:00;CYQF 042000Z 18008KT 5SM BR FEW025 SCT080 02/M03 A3031 RMK CU2AC1 SLP310

CYQF;2009-04-04 21:00;CYQF 042100Z 15005KT 12SM FEW025 02/M05 A3031 RMK CU2 HZ SLP305

CYQF;2009-04-04 22:00;CYQF 042200Z 18005KT 10SM FEW030 03/M05 A3031 RMK CU2 SLP306

CYQF;2009-04-04 23:00;CYQF 042300Z 17008KT 12SM FEW030 03/M07 A3030 RMK CU2 SLP303

CYQF;2009-04-05 00:00;CYQF 050000Z 17005KT 12SM FEW030 FEW240 03/M06 A3030 RMK CU2CI1 SLP307

CYQF;2009-04-05 01:00;CYQF 050100Z 17005KT 15SM FEW030 FEW240 02/M05 A3030 RMK SC1CI1 SLP309

CYQF;2009-04-05 02:00;CYQF 050200Z 17005KT 15SM FEW240 01/M06 A3031 RMK CI1 SLP311

CYQF;2009-04-05 03:00;CYQF 050300Z 14002KT 15SM FEW240 M01/M06 A3032 RMK CI1 SLP320

CYQF;2009-04-05 04:00;CYQF 050400Z 00000KT 15SM SKC M02/M06 A3032 RMK SLP321

CYQF;2009-04-05 05:00;CYQF 050500Z 15004KT 15SM SKC M02/M07 A3033 RMK SLP322

CYQF;2009-04-05 06:00;CYQF 050600Z 00000KT 15SM SKC M04/M08 A3033 RMK SLP320

CYQF;2009-04-05 07:00;CYQF 050700Z 16005KT 15SM SKC M02/M07 A3032 RMK SLP318

CYQF;2009-04-05 08:00;CYQF 050800Z 16005KT 15SM SKC M03/M07 A3032 RMK SLP318

CYQF;2009-04-05 09:00;CYQF 050900Z 16005KT 15SM SKC M03/M07 A3032 RMK SLP312

CYQF;2009-04-05 10:00;CYQF 051000Z 17007KT 15SM SKC M03/M07 A3032 RMK SLP312

CYQF;2009-04-05 11:00;CYQF 051100Z 18009KT 15SM SKC M04/M07 A3032 RMK SLP311

CYQF;2009-04-05 12:00;CYQF 051200Z CCA 17005KT 15SM SKC M04/M08 A3032 RMK SLP312

CYQF;2009-04-05 13:00;CYQF 051300Z 15004KT 15SM SKC M04/M08 A3033 RMK SLP314

CYQF;2009-04-05 14:00;CYQF 051400Z 00000KT 15SM SKC M04/M07 A3033 RMK SLP316

CYQF;2009-04-05 15:00;CYQF 051500Z 18006KT 15SM SKC M02/M06 A3034 RMK SLP319

CYQF;2009-04-05 16:00;CYQF 051600Z 17010KT 15SM SKC M00/M06 A3033 RMK SLP318

CYQF;2009-04-05 17:00;CYQF 051700Z 15011G19KT 15SM SCT250 01/M05 A3033 RMK CI1 SLP317

CYQF;2009-04-05 18:00;CYQF 051800Z 17012G21KT 15SM BKN250 03/M04 A3033 RMK CI0 SLP316

CYQF;2009-04-05 19:00;CYQF 051900Z 15015G20KT 15SM BKN250 04/M03 A3032 RMK CI0 SLP312

CYQF;2009-04-05 20:00;CYQF 052000Z 15013G20KT 15SM BKN250 04/M03 A3031 RMK CI2 SLP310

CYQF;2009-04-05 21:00;CYQF 052100Z 15017G28KT 15SM BKN250 05/M02 A3029 RMK CI2 SLP298

CYQF;2009-04-05 22:00;CYQF 052200Z 15013G20KT 15SM BKN250 06/M02 A3028 RMK CI2 SLP294

CYQF;2009-04-05 23:00;CYQF 052300Z 15012G20KT 15SM BKN250 06/M02 A3025 RMK CI3 SLP285

CYQF;2009-04-06 00:00;CYQF 060000Z 16013G20KT 15SM FEW120 BKN250 07/M02 A3023 RMK AC2CI2 SLP277

CYQF;2009-04-06 01:00;CYQF 060100Z 15012G20KT 15SM FEW120 BKN250 06/M02 A3020 RMK AC2CI3 SLP268

CYQF;2009-04-06 02:00;CYQF 060200Z 15015G20KT 15SM FEW120 BKN250 05/M03 A3018 RMK AC2CI2 SLP262

CYQF;2009-04-06 03:00;CYQF 060300Z 15012G18KT 15SM FEW120 BKN250 04/M03 A3017 RMK AC2CI2 SLP257

CYQF;2009-04-06 04:00;CYQF 060400Z 15013G19KT 15SM FEW250 04/M03 A3015 RMK CI1 SLP252

CYQF;2009-04-06 05:00;CYQF 060500Z 16015G20KT 15SM BKN250 03/M04 A3014 RMK CS2 SLP246

CYQF;2009-04-06 06:00;CYQF 060600Z 16015G20KT 15SM BKN250 03/M04 A3010 RMK CI0 SLP229

CYQF;2009-04-06 07:00;CYQF 060700Z 16015KT 15SM BKN150 03/M04 A3008 RMK AC6 SLP223

CYQF;2009-04-06 08:00;CYQF 060800Z 18008KT 15SM OVC150 01/M04 A3009 RMK AC7 SLP224

CYQF;2009-04-06 09:00;CYQF 060900Z 19004KT 15SM OVC150 M00/M04 A3009 RMK AC8 SLP226

CYQF;2009-04-06 10:00;CYQF 061000Z 20004KT 15SM OVC150 M00/M04 A3008 RMK AC8 SLP224

CYQF;2009-04-06 11:00;CYQF 061100Z 20003KT 15SM OVC150 M01/M04 A3008 RMK AC8 SLP222

CYQF;2009-04-06 12:00;CYQF 061200Z 23004KT 15SM OVC120 M01/M04 A3008 RMK AC8 SLP221

CYQF;2009-04-06 13:00;CYQF 061300Z 25005KT 15SM SCT150 OVC250 00/M04 A3009 RMK AC3CI2 SLP223

CYQF;2009-04-06 14:00;CYQF 061400Z 25007KT 15SM SCT120 BKN250 01/M04 A3009 RMK AC3CI3 SLP224

CYQF;2009-04-06 15:00;CYQF 061500Z 27009KT 15SM BKN120 BKN250 02/M04 A3009 RMK AC5CI2 SLP225

CYQF;2009-04-06 16:00;CYQF 061600Z 16003KT 15SM SCT120 BKN250 03/M03 A3009 RMK AC4CI2 SLP224

CYQF;2009-04-06 17:00;CYQF 061700Z 20003KT 15SM FEW120 BKN250 04/M03 A3009 RMK AC2CI2 SLP223

CYQF;2009-04-06 18:00;CYQF 061800Z 22005KT 15SM FEW120 SCT250 06/M03 A3007 RMK AC1CI2 SLP216

CYQF;2009-04-06 19:00;CYQF 061900Z 20003KT 15SM FEW120 BKN250 09/M03 A3005 RMK AC2CI2 SLP208

CYQF;2009-04-06 20:00;CYQF 062000Z 00000KT 15SM FEW120 BKN250 10/M06 A3003 RMK AC1CI2 SLP202

CYQF;2009-04-06 21:00;CYQF 062100Z 19004KT 15SM FEW120 BKN250 12/M05 A3000 RMK AC1CI2 SLP185

CYQF;2009-04-06 22:00;CYQF 062200Z 15008KT 15SM FEW050 FEW120 BKN250 11/M04 A2996 RMK CU1AC2CI2 SLP174

CYQF;2009-04-06 23:00;CYQF 062300Z 17006KT 15SM FEW100 BKN250 11/M03 A2994 RMK AC1CI2 SLP166

CYQF;2009-04-07 00:00;CYQF 070000Z 16006KT 15SM FEW100 BKN250 10/M04 A2993 RMK AC2CI2 SLP163

CYQF;2009-04-07 01:00;CYQF 070100Z 15007KT 15SM SCT090 BKN250 08/M03 A2992 RMK AC3CI2 SLP162

CYQF;2009-04-07 02:00;CYQF 070200Z 15003KT 15SM SCT090 BKN250 07/M04 A2991 RMK AC2CI2 SLP157

CYQF;2009-04-07 03:00;CYQF 070300Z 36006KT 15SM FEW090 SCT250 05/M04 A2992 RMK AC2CI2 OBS TAKEN +14 SLP164

CYQF;2009-04-07 04:00;CYQF 070400Z 00000KT 15SM SCT100 03/M04 A2994 RMK AC2 SLP169

CYQF;2009-04-07 05:00;CYQF 070500Z 28007KT 15SM FEW090 01/M04 A2995 RMK AC2 SLP172

CYQF;2009-04-07 06:00;CYQF 070600Z 00000KT 15SM FEW100 00/M04 A2995 RMK AC1 SLP175

CYQF;2009-04-07 07:00;CYQF 070700Z 20005KT 15SM SKC M02/M06 A2995 RMK SLP174

CYQF;2009-04-07 08:00;CYQF 070800Z 22003KT 15SM FEW250 M03/M06 A2995 RMK CI1 SLP175

CYQF;2009-04-07 09:00;CYQF 070900Z 20004KT 15SM FEW120 FEW250 M03/M07 A2995 RMK AC1CI0 SLP171

CYQF;2009-04-07 10:00;CYQF 071000Z 00000KT 15SM FEW120 FEW250 M03/M07 A2996 RMK AC1CI0 SLP175

CYQF;2009-04-07 11:00;CYQF 071100Z 00000KT 15SM FEW120 SCT250 M04/M08 A2996 RMK AC2CI0 SLP177

CYQF;2009-04-07 12:00;CYQF 071200Z 00000KT 15SM FEW120 FEW250 M04/M07 A2997 RMK AC1CI0 SLP182

CYQF;2009-04-07 13:00;CYQF 071300Z 00000KT 15SM FEW120 SCT250 M05/M07 A2997 RMK AC1CI0 SLP183

CYQF;2009-04-07 14:00;CYQF 071400Z 00000KT 15SM FEW120 BKN250 M04/M07 A2998 RMK AC1CI2 SLP186

CYQF;2009-04-07 15:00;CYQF 071500Z 00000KT 15SM FEW250 M01/M06 A2999 RMK CI0 SLP191

CYQF;2009-04-07 16:00;CYQF 071600Z 00000KT 15SM FEW250 02/M04 A2999 RMK CI0 OBS TAKEN -05 SLP192

CYQF;2009-04-07 17:00;CYQF 071700Z 00000KT 12SM FEW120 BKN250 05/M02 A2999 RMK AC2CI1 SLP191

CYQF;2009-04-07 18:00;CYQF 071800Z 00000KT 12SM SCT250 06/M02 A2998 RMK CI2 SLP187

CYQF;2009-04-07 19:00;CYQF 071900Z 00000KT 15SM FEW250 07/M02 A2997 RMK CI2 SLP183

CYQF;2009-04-07 20:00;CYQF 072000Z 26002KT 15SM SCT250 09/M01 A2995 RMK CI1 SLP175

CYQF;2009-04-07 21:00;CYQF 072100Z 00000KT 15SM SCT250 11/M01 A2993 RMK CI2 SLP165

CYQF;2009-04-07 22:00;CYQF 072200Z 00000KT 15SM BKN250 12/M04 A2991 RMK CI1 SLP160

CYQF;2009-04-07 23:00;CYQF 072300Z 13005KT 15SM BKN250 12/M05 A2989 RMK CI1 SLP153

CYQF;2009-04-08 00:00;CYQF 080000Z 14005KT 15SM BKN250 12/M04 A2987 RMK CI1 SLP144

CYQF;2009-04-08 01:00;CYQF 080100Z 00000KT 15SM BKN250 12/M02 A2985 RMK CI1 SLP140

CYQF;2009-04-08 02:00;CYQF 080200Z 08005KT 15SM BKN250 08/M02 A2985 RMK CI2 SLP137

CYQF;2009-04-08 03:00;CYQF 080300Z 08012KT 15SM FEW120 BKN250 06/M08 A2985 RMK AC2CI1 SLP141

CYQF;2009-04-08 04:00;CYQF 080400Z 09007KT 15SM BKN120 BKN250 05/M02 A2985 RMK AC5CI1 SLP142

CYQF;2009-04-08 05:00;CYQF 080500Z 05003KT 15SM BKN120 BKN250 04/M03 A2985 RMK AC6CI1 SLP142

CYQF;2009-04-08 06:00;CYQF 080600Z 09007KT 15SM BKN100 BKN250 05/M03 A2985 RMK AC5CI1 SLP134

CYQF;2009-04-08 07:00;CYQF 080700Z 10007KT 15SM SCT100 04/M04 A2983 RMK AC4 OBS TAKEN +10 SLP130

CYQF;2009-04-08 08:00;CYQF 080800Z 11008KT 15SM SCT100 BKN250 03/M03 A2982 RMK AC4CI2 OBS TAKEN +27 SLP126

CYQF;2009-04-08 09:00;CYQF 080900Z 12008KT 15SM BKN100 BKN250 04/M03 A2981 RMK AC5CI2 SLP116

CYQF;2009-04-08 10:00;CYQF 081000Z 14010KT 15SM SCT100 BKN250 03/M03 A2979 RMK AC4CI2 SLP111

CYQF;2009-04-08 11:00;CYQF 081100Z 14004KT 15SM FEW100 SCT250 02/M03 A2978 RMK AC2CI0 SLP107

CYQF;2009-04-08 12:00;CYQF 081200Z 14002KT 15SM FEW100 SCT250 01/M04 A2976 RMK AC2CI0 SLP102

CYQF;2009-04-08 13:00;CYQF 081300Z 00000KT 15SM FEW100 SCT250 01/M04 A2975 RMK AC2CI1 SLP098

CYQF;2009-04-08 14:00;CYQF 081400Z 14002KT 15SM FEW100 SCT250 01/M04 A2974 RMK AC2CI1 SLP095

CYQF;2009-04-08 15:00;CYQF 081500Z 15005KT 15SM FEW100 SCT250 03/M03 A2973 RMK AC1CI1 SLP097

CYQF;2009-04-08 16:00;CYQF 081600Z 14010KT 15SM FEW100 SCT250 04/M04 A2972 RMK AC1CI1 SLP093

CYQF;2009-04-08 17:00;CYQF 081700Z 16008KT 15SM SCT250 06/M03 A2972 RMK CI1 SLP092

CYQF;2009-04-08 18:00;CYQF 081800Z 16006KT 15SM BKN250 06/M03 A2972 RMK CI2 SLP089

CYQF;2009-04-08 19:00;CYQF 081900Z 22005KT 15SM BKN250 08/M00 A2971 RMK CI2 SLP086

CYQF;2009-04-08 20:00;CYQF 082000Z 24003KT 15SM FEW110 BKN250 09/00 A2969 RMK AC1CI2 SLP081

CYQF;2009-04-08 21:00;CYQF 082100Z 30008KT 15SM FEW110 BKN250 09/00 A2967 RMK AC2CI1 SLP073

CYQF;2009-04-08 22:00;CYQF 082200Z 27006KT 15SM FEW100 BKN250 08/M00 A2966 RMK AC2CI1 SLP070

CYQF;2009-04-08 23:00;CYQF 082300Z 30005KT 15SM FEW100 BKN250 09/00 A2966 RMK AC2CI2 SLP067

CYQF;2009-04-09 00:00;CYQF 090000Z 27005KT 15SM FEW100 BKN250 08/M00 A2965 RMK AC2CI2 SLP069

CYQF;2009-04-09 01:00;CYQF 090100Z 27003KT 15SM FEW100 BKN250 07/M00 A2965 RMK AC2CI2 SLP069

CYQF;2009-04-09 02:00;CYQF 090200Z 32002KT 15SM FEW100 BKN250 05/M01 A2965 RMK AC2CI2 SLP067

CYQF;2009-04-09 03:00;CYQF 090300Z 00000KT 12SM FEW120 BKN250 05/M01 A2966 RMK AC2CI2 SLP074

CYQF;2009-04-09 04:00;CYQF 090400Z 00000KT 15SM FEW120 SCT250 03/M02 A2966 RMK AC1CI1 SLP075

CYQF;2009-04-09 05:00;CYQF 090500Z 04003KT 15SM FEW120 BKN250 03/M01 A2966 RMK AC1CI2 SLP074

CYQF;2009-04-09 06:00;CYQF 090600Z 15008KT 15SM FEW120 OVC250 06/M02 A2964 RMK AC2CI3 SLP062

CYQF;2009-04-09 07:00;CYQF 090700Z 00000KT 15SM FEW120 OVC250 05/M02 A2965 RMK AC2CI2 SLP065

CYQF;2009-04-09 08:00;CYQF 090800Z 17005KT 15SM FEW120 BKN250 03/M02 A2965 RMK AC1CI1 SLP064

CYQF;2009-04-09 09:00;CYQF 090900Z 14005KT 15SM FEW120 BKN250 03/M03 A2965 RMK AC1CI1 SLP065

CYQF;2009-04-09 10:00;CYQF 091000Z 15006KT 15SM FEW120 SCT250 02/M03 A2965 RMK AC1CI1 SLP065

CYQF;2009-04-09 11:00;CYQF 091100Z 14008KT 15SM FEW120 01/M03 A2965 RMK AC1 SLP065

CYQF;2009-04-09 12:00;CYQF 091200Z 16006KT 15SM FEW120 01/M03 A2965 RMK AC1 SLP069

CYQF;2009-04-09 13:00;CYQF 091300Z 16005KT 15SM FEW120 FEW250 00/M03 A2966 RMK AC1CI0 SLP071

CYQF;2009-04-09 14:00;CYQF 091400Z 17006KT 15SM FEW120 BKN250 01/M03 A2966 RMK AC2CI2 SLP073

CYQF;2009-04-09 15:00;CYQF 091500Z 16007KT 15SM FEW120 BKN250 03/M02 A2966 RMK AC1CI2 SLP075

CYQF;2009-04-09 16:00;CYQF 091600Z 18005KT 15SM FEW120 BKN250 04/M01 A2966 RMK AC1CI2 SLP075

CYQF;2009-04-09 17:00;CYQF 091700Z 18014KT 15SM FEW120 BKN250 07/M01 A2967 RMK AC1CI2 SLP077

CYQF;2009-04-09 18:00;CYQF 091800Z 18010KT 15SM FEW030 BKN250 08/M00 A2967 RMK CU1CI2 SLP072

CYQF;2009-04-09 19:00;CYQF 091900Z 18010KT 15SM FEW035 BKN250 09/00 A2967 RMK CU1CI2 SLP072

CYQF;2009-04-09 20:00;CYQF 092000Z 18012KT 15SM FEW035 BKN250 10/02 A2967 RMK CU1CI1 SLP070

CYQF;2009-04-09 21:00;CYQF 092100Z 17011KT 15SM FEW100 BKN250 12/03 A2966 RMK AC1CI1 SLP066

CYQF;2009-04-09 22:00;CYQF 092200Z 19008KT 15SM FEW100 BKN250 13/03 A2966 RMK AC1CI1 SLP064

CYQF;2009-04-09 23:00;CYQF 092300Z 17008KT 15SM FEW100 BKN250 14/02 A2965 RMK AC1CI2 SLP063

CYQF;2009-04-10 00:00;CYQF 100000Z 21003KT 15SM FEW040 FEW100 BKN250 14/02 A2965 RMK CU1AC1CI1 SLP061

CYQF;2009-04-10 01:00;CYQF 100100Z 34003KT 15SM FEW040 FEW100 BKN250 13/04 A2964 RMK CU1AC1CI1 SLP059

CYQF;2009-04-10 02:00;CYQF 100200Z 36003KT 15SM FEW050 SCT100 BKN250 12/04 A2964 RMK SC2AC1CI1 CU ASOCTD VIRGA SW SLP057

CYQF;2009-04-10 03:00;CYQF 100300Z 13003KT 15SM SCT050 BKN100 BKN250 10/04 A2966 RMK SC3AC2CI1 TCU EMBD VIRGA SLP066

CYQF;2009-04-10 04:00;CYQF 100400Z 17005KT 15SM FEW100 SCT250 08/01 A2966 RMK AC1CI1 SLP068

CYQF;2009-04-10 05:00;CYQF 100500Z 05002KT 15SM FEW090 SCT250 06/01 A2966 RMK AC1CI1 SLP067

CYQF;2009-04-10 06:00;CYQF 100600Z 21008KT 15SM BKN080 BKN250 08/01 A2966 RMK AC5CI1 VIRGA ACC ASOCTD SLP063

CYQF;2009-04-10 07:00;CYQF 100700Z 17005KT 15SM BKN080 BKN250 06/01 A2966 RMK AC5CI1 VIRGA ACC ASOCTD SLP064

CYQF;2009-04-10 08:00;CYQF 100800Z 14003KT 15SM BKN080 BKN250 05/00 A2966 RMK AC5CI1 VIRGA SLP063

CYQF;2009-04-10 09:00;CYQF 100900Z 16003KT 15SM BKN080 BKN250 03/M00 A2966 RMK AC5CI0 SLP065

CYQF;2009-04-10 10:00;CYQF 101000Z 15003KT 15SM BKN080 BKN250 03/M00 A2966 RMK AC5CI1 SLP065

CYQF;2009-04-10 11:00;CYQF 101100Z 20004KT 15SM BKN090 BKN250 03/M00 A2967 RMK AC5CI1 SLP068

CYQF;2009-04-10 12:00;CYQF 101200Z 21005KT 15SM FEW090 BKN250 01/M02 A2967 RMK AC2CI1 SLP069

CYQF;2009-04-10 13:00;CYQF 101300Z 18004KT 15SM FEW090 BKN250 01/M02 A2968 RMK ACC2CI1 SLP070

CYQF;2009-04-10 14:00;CYQF 101400Z 30006KT 15SM FEW090 SCT250 01/M02 A2969 RMK AC2CI1 SLP075

CYQF;2009-04-10 15:00;CYQF 101500Z 32006KT 15SM FEW090 SCT250 04/M00 A2972 RMK AC2CI1 SLP086

CYQF;2009-04-10 16:00;CYQF 101600Z 34004KT 15SM FEW080 SCT250 07/01 A2973 RMK AC1CI1 SLP090

CYQF;2009-04-10 17:00;CYQF 101700Z 35007KT 15SM BKN250 08/01 A2973 RMK CI2 SLP091

CYQF;2009-04-10 18:00;CYQF 101800Z 34006KT 15SM FEW120 BKN250 10/02 A2975 RMK AC1CI2 SLP091

CYQF;2009-04-10 19:00;CYQF 101900Z 01004KT 15SM BKN250 12/02 A2974 RMK CI2 SLP089

CYQF;2009-04-10 20:00;CYQF 102000Z 01003KT 15SM FEW040 SCT250 12/02 A2973 RMK CU1CI1 TCU DIST W SLP085

CYQF;2009-04-10 21:00;CYQF 102100Z 01003KT 15SM FEW050 SCT250 14/01 A2972 RMK CU1CI1 TCU W SLP082

CYQF;2009-04-10 22:00;CYQF 102200Z 04003KT 15SM FEW050 FEW250 14/00 A2971 RMK CU1CI2 TCU DIST W SLP079

CYQF;2009-04-10 23:00;CYQF 102300Z 07005KT 15SM FEW050 FEW250 15/M00 A2970 RMK CU1CI1 CB TOP NW SLP077

CYQF;2009-04-11 00:00;CYQF 110000Z 17003KT 15SM FEW050 SCT250 14/M00 A2970 RMK CU2CI1 FEW TCU SLP077

CYQF;2009-04-11 01:00;CYQF 110100Z 21004KT 15SM FEW050 SCT100 SCT250 15/M01 A2970 RMK CU1AC3CI1 ACC ASOCTD TCU DIST N SLP078

CYQF;2009-04-11 02:00;CYQF 110200Z 30002KT 15SM FEW050 FEW100 FEW250 10/01 A2970 RMK CU1AC1CI1 CU TR CB DIST NNE SLP078

CYQF;2009-04-11 03:00;CYQF 110300Z 26004KT 15SM FEW050 BKN100 BKN250 07/M00 A2971 RMK SC1AC5CI2 ACC ASOCTD OCNL LTNG DIST NW SLP088

CYQF;2009-04-11 04:00;CYQF 110400Z 33004KT 15SM TS BKN080 08/01 A2972 RMK AC6 CB ASOCTD SLP090

CYQF;2009-04-11 04:16;CYQF 110416Z CCA 24004KT 15SM SCT040 BKN080 RMK CU3AC4 CB ASOCTD RETS PRESRR

CYQF;2009-04-11 04:30;CYQF 110430Z 27012G26KT 10SM -TSRA BKN025CB OVC080 RMK CB6AC2 LTGCG

CYQF;2009-04-11 04:47;CYQF 110447Z 36004KT 15SM TS FEW025CB OVC080 RMK CB2AC6 LGTICCG NE

CYQF;2009-04-11 04:53;CYQF 110453Z 03007KT 15SM -TSRA BKN025TCU BKN080 RMK TCU5AC2 CB ASOCTD OCNL LTNG

CYQF;2009-04-11 05:00;CYQF 110500Z 04007KT 15SM -TSRA BKN025TCU BKN080 10/01 A2973 RMK TCU5AC2 CB ASOCTD OCNL LTNG SLP094

CYQF;2009-04-11 05:12;CYQF 110512Z 36007KT 15SM BKN025TCU BKN080 RMK TCU5AC2 RETS OCNL LTGIC E

CYQF;2009-04-11 06:00;CYQF 110600Z CCA 33007KT 15SM FEW030 BKN090 BKN250 05/02 A2974 RMK SC2AC4CI1 RETS SLP092

CYQF;2009-04-11 07:00;CYQF 110700Z 36007KT 15SM FEW030 SCT090 BKN250 04/01 A2976 RMK SC1AC2CI1 SLP099

CYQF;2009-04-11 08:00;CYQF 110800Z 36008KT 15SM BKN090 BKN250 03/01 A2976 RMK AC5CI1 SLP100

CYQF;2009-04-11 09:00;CYQF 110900Z 35003KT 15SM BKN090 BKN250 02/00 A2978 RMK AC6CI1 SLP105

CYQF;2009-04-11 10:00;CYQF 111000Z 04002KT 15SM BKN090 BKN250 03/01 A2978 RMK AC5CI2 SLP105

CYQF;2009-04-11 11:00;CYQF 111100Z 00000KT 10SM BKN090 BKN250 02/00 A2979 RMK AC5CI2 SLP108

CYQF;2009-04-11 12:00;CYQF 111200Z 00000KT 6SM BR BKN100 BKN250 01/M01 A2979 RMK AC5CI1 SLP111

CYQF;2009-04-11 12:18;CYQF 111218Z 00000KT 2SM BR BKN100 BKN250 RMK AC5CI1

CYQF;2009-04-11 13:00;CYQF 111300Z 00000KT 1/2SM FZFG FEW100 BKN250 M01/M02 A2980 RMK FG2AC1CI1 SLP113

CYQF;2009-04-11 13:30;CYQF 111330Z 24003KT 3/4SM BR SCT100 BKN250 RMK FG2AC2CI0

CYQF;2009-04-11 13:47;CYQF 111347Z 00000KT 1SM BR SCT100 RMK FG2AC2

CYQF;2009-04-11 14:00;CYQF 111400Z 00000KT 1 1/2SM BR SCT100 00/M01 A2981 RMK FG2AC2 SLP116

CYQF;2009-04-11 15:00;CYQF 111500Z 00000KT 2SM BR FEW100 02/01 A2981 RMK FG1AC2 SLP124

CYQF;2009-04-11 15:13;CYQF 111513Z 00000KT 4SM BR FEW100 RMK AC2

CYQF;2009-04-11 16:00;CYQF 111600Z 19003KT 10SM FEW100 FEW270 06/02 A2980 RMK AC1CI0 SLP121

CYQF;2009-04-11 17:00;CYQF 111700Z 00000KT 15SM FEW100 FEW270 08/03 A2980 RMK AC1CI0 SLP120

CYQF;2009-04-11 18:00;CYQF 111800Z 04003KT 15SM FEW100 FEW270 10/04 A2979 RMK AC1CI0 SLP109

CYQF;2009-04-11 19:00;CYQF 111900Z 06005KT 15SM FEW040 FEW270 12/02 A2977 RMK CU1CI1 SLP103

CYQF;2009-04-11 20:00;CYQF 112000Z 19002KT 15SM FEW045 FEW250 14/01 A2976 RMK CU1CI1 SLP098

CYQF;2009-04-11 21:00;CYQF 112100Z 22010KT 15SM FEW050 SCT100 SCT250 15/M01 A2974 RMK CU2AC1CI0 SLP089

CYQF;2009-04-11 22:00;CYQF 112200Z 15006KT 15SM FEW050 FEW250 15/M03 A2972 RMK CU1CI1 CU TR SLP083

CYQF;2009-04-11 23:00;CYQF 112300Z 17008G15KT 15SM FEW050 BKN250 16/M02 A2970 RMK CU1CI2 SLP078

CYQF;2009-04-12 00:00;CYQF 120000Z 18010KT 15SM FEW050 SCT250 16/M02 A2969 RMK CU1CI1 CU TR SLP072

CYQF;2009-04-12 01:00;CYQF 120100Z 17006KT 15SM FEW060 BKN250 15/M03 A2968 RMK CU1CI2 SLP069

CYQF;2009-04-12 02:00;CYQF 120200Z 00000KT 15SM FEW060 FEW100 BKN250 13/M02 A2967 RMK CU1AC1CI3 SLP066

CYQF;2009-04-12 03:00;CYQF 120300Z 13003KT 15SM FEW060 FEW100 BKN250 11/M03 A2967 RMK SC1AC2CI2 SLP070

CYQF;2009-04-12 04:00;CYQF 120400Z 00000KT 15SM SCT100 BKN250 09/M01 A2967 RMK AC4CI2 SLP071

CYQF;2009-04-12 05:00;CYQF 120500Z 24007KT 15SM BKN100 BKN250 08/M01 A2969 RMK AC5CI2 VIRGA SLP077

CYQF;2009-04-12 06:00;CYQF 120600Z 33002KT 15SM BKN100 BKN250 08/M01 A2971 RMK AC5CI2 VIRGA SLP079

CYQF;2009-04-12 07:00;CYQF 120700Z 35008KT 15SM BKN100 BKN250 08/01 A2976 RMK AC6CI1 SLP094

CYQF;2009-04-12 07:33;CYQF 120733Z 30005KT 15SM -SHRA BKN050 OVC100 RMK SC5AC3

CYQF;2009-04-12 08:00;CYQF 120800Z 32013KT 15SM -SHRA OVC050 06/02 A2979 RMK SC8 SLP104

CYQF;2009-04-12 08:55;CYQF 120855Z 34010KT 15SM SCT050 OVC110 RMK SC4AC4

CYQF;2009-04-12 09:00;CYQF 120900Z 34012KT 15SM SCT050 OVC110 05/02 A2980 RMK SC4AC4 SLP108

CYQF;2009-04-12 10:00;CYQF 121000Z 28005KT 15SM FEW040 SCT110 BKN250 03/00 A2983 RMK SC1AC2CI1 SLP116

CYQF;2009-04-12 11:00;CYQF 121100Z 30007KT 15SM FEW110 FEW250 02/M00 A2985 RMK AC1CI1 SLP123

CYQF;2009-04-12 12:00;CYQF 121200Z 29007KT 15SM FEW110 FEW250 01/M01 A2987 RMK AC2CI0 SLP136

CYQF;2009-04-12 13:00;CYQF 121300Z 30005KT 15SM FEW110 02/M01 A2989 RMK AC2 SLP141

CYQF;2009-04-12 14:00;CYQF 121400Z 26005KT 15SM FEW110 02/M01 A2991 RMK AC1 SLP147

CYQF;2009-04-12 15:00;CYQF 121500Z 18002KT 15SM FEW110 FEW250 04/00 A2992 RMK AC1CI1 SLP154

CYQF;2009-04-12 16:00;CYQF 121600Z 28002KT 15SM FEW110 FEW250 06/01 A2992 RMK AC1CI1 SLP154

CYQF;2009-04-12 17:00;CYQF 121700Z 28003KT 15SM FEW030 FEW250 08/00 A2992 RMK CU1CI1 SLP154

CYQF;2009-04-12 18:00;CYQF 121800Z 02002KT 15SM FEW030 FEW250 09/M02 A2991 RMK CU1CI1 SLP148

CYQF;2009-04-12 19:00;CYQF 121900Z 27005KT 15SM FEW040 10/M03 A2989 RMK CU2 SLP142

CYQF;2009-04-12 20:00;CYQF 122000Z 24012KT 15SM FEW050 11/M05 A2986 RMK CU2 SLP134

CYQF;2009-04-12 21:00;CYQF 122100Z 18003KT 15SM FEW050 FEW250 12/M04 A2984 RMK CU1CI1 SLP125

CYQF;2009-04-12 22:00;CYQF 122200Z 13005KT 15SM FEW060 FEW250 13/M07 A2983 RMK CU1CI1 CI TR SLP120

CYQF;2009-04-12 23:00;CYQF 122300Z 16010KT 15SM FEW060 FEW250 13/M05 A2980 RMK CU1CI1 SLP111

CYQF;2009-04-13 00:00;CYQF 130000Z 17009KT 15SM FEW060 BKN250 14/M04 A2978 RMK CU1CI4 SLP107

CYQF;2009-04-13 01:00;CYQF 130100Z 15011KT 15SM FEW060 BKN250 13/M05 A2975 RMK CU1CI6 SLP097

CYQF;2009-04-13 02:00;CYQF 130200Z 17010G15KT 15SM BKN250 11/M02 A2973 RMK CI5 SLP091

CYQF;2009-04-13 03:00;CYQF 130300Z 19007KT 15SM BKN250 08/M01 A2972 RMK CI3 SLP088

CYQF;2009-04-13 04:00;CYQF 130400Z 17004KT 15SM SCT250 06/M02 A2971 RMK CI2 SLP084

CYQF;2009-04-13 05:00;CYQF 130500Z 18005KT 15SM FEW250 04/M03 A2969 RMK CI1 SLP080

CYQF;2009-04-13 06:00;CYQF 130600Z 16005KT 15SM SKC 03/M04 A2968 RMK SLP074

CYQF;2009-04-13 07:00;CYQF 130700Z 15005KT 15SM SCT250 03/M04 A2965 RMK CI2 SLP065

CYQF;2009-04-13 08:00;CYQF 130800Z 20007KT 15SM SCT250 02/M04 A2964 RMK CI2 SLP061

CYQF;2009-04-13 09:00;CYQF 130900Z 20006KT 15SM FEW250 01/M04 A2961 RMK CI1 SLP050

CYQF;2009-04-13 10:00;CYQF 131000Z 21002KT 15SM FEW250 M00/M05 A2959 RMK CI1 SLP044

CYQF;2009-04-13 11:00;CYQF 131100Z 16002KT 15SM FEW250 M01/M06 A2958 RMK CI1 SLP041

CYQF;2009-04-13 12:00;CYQF 131200Z 04004KT 15SM FEW250 M01/M05 A2957 RMK CI1 SLP036

CYQF;2009-04-13 13:00;CYQF 131300Z 13003KT 15SM SCT080 M01/M05 A2955 RMK AC3 SLP030

CYQF;2009-04-13 14:00;CYQF 131400Z 00000KT 15SM BKN060 BKN250 02/M03 A2955 RMK CU5CI1 VIRGA SLP028

CYQF;2009-04-13 15:00;CYQF 131500Z 00000KT 15SM BKN060 BKN100 BKN250 03/M02 A2955 RMK CU5AC1CI1 VIRGA ALQDS SLP030

CYQF;2009-04-13 16:00;CYQF 131600Z 29016G25KT 15SM SCT060 BKN100 BKN250 05/M03 A2957 RMK CU3AC3CI1 VIRGA N-E-SE SLP038

CYQF;2009-04-13 17:00;CYQF 131700Z 30020G30KT 15SM FEW015 SCT050 BKN100 05/M01 A2959 RMK SC1SC3AC3 VIRGA SLP044

CYQF;2009-04-13 17:41;CYQF 131741Z 29020G28KT 10SM -SHRA BKN010 BKN050 OVC100 RMK SC5SC1AC2 VIS S 5

CYQF;2009-04-13 18:00;CYQF 131800Z 30020G25KT 10SM -SHRA BKN010 BKN050 OVC100 03/00 A2962 RMK SC3SC3AC2 VIS S 3 SLP060

CYQF;2009-04-13 18:13;CYQF 131813Z 30018G26KT 3SM -SHSN OVC007 RMK ST8

CYQF;2009-04-13 18:21;CYQF 131821Z 29015G22KT 2 1/2SM -SN BR OVC004 RMK ST8

CYQF;2009-04-13 19:00;CYQF 131900Z 29015G20KT 1 1/2SM -SN BR OVC004 02/M01 A2963 RMK ST8 SLP063

CYQF;2009-04-13 19:42;CYQF 131942Z 28010G15KT 3SM -SN BR SCT004 OVC007 RMK SF3SC5

CYQF;2009-04-13 20:00;CYQF 132000Z 28015G20KT 3SM -SN BR FEW004 OVC007 02/M00 A2963 RMK SF2SC6 SLP064

CYQF;2009-04-13 20:28;CYQF 132028Z 31015G20KT 10SM -SHRA FEW004 OVC008 RMK SF2SC6

CYQF;2009-04-13 21:00;CYQF 132100Z 31012G18KT 15SM -RA FEW008 BKN019 OVC100 04/M00 A2962 RMK SF2SC6AC1 SLP063

CYQF;2009-04-13 21:44;CYQF 132144Z 33015G22KT 15SM FEW025 BKN045 BKN100 RMK SC1SC6AC1

CYQF;2009-04-13 22:00;CYQF 132200Z 32013G20KT 15SM FEW025 BKN045 BKN150 06/01 A2960 RMK SC2SC4AC2 SLP058

CYQF;2009-04-13 23:00;CYQF 132300Z 32015G20KT 15SM FEW010 SCT025 BKN045 07/M01 A2960 RMK CF1CU3SC2 TCU ASOCTD SLP058

CYQF;2009-04-13 23:52;CYQF 132352Z 31016G22KT 15SM -SHRA FEW010 BKN025 OVC045 RMK CF1CU5SC2

CYQF;2009-04-14 00:00;CYQF 140000Z 30015G20KT 15SM -SHRA FEW010 BKN025 OVC045 06/00 A2963 RMK CF1CU5SC2 SLP064

CYQF;2009-04-14 01:00;CYQF 140100Z 29012G22KT 8SM -SHRA FEW010 BKN025 OVC050 04/01 A2965 RMK SF1SC4SC3 SLP071

CYQF;2009-04-14 02:00;CYQF 140200Z 30015G22KT 10SM -SHRA BKN015 OVC040 03/M00 A2966 RMK SC5SC3 SLP073

CYQF;2009-04-14 03:00;CYQF 140300Z 28013G20KT 12SM -SHRA BKN015 OVC040 02/M00 A2966 RMK SC5SC3 SLP078

CYQF;2009-04-14 04:00;CYQF 140400Z 30012G20KT 6SM -SHRA SCT015 OVC040 01/M01 A2967 RMK SC3SC5 SLP079

CYQF;2009-04-14 05:00;CYQF 140500Z 30015G23KT 8SM -SHRA SCT015 OVC040 01/M01 A2966 RMK SC3SC5 SLP077

CYQF;2009-04-14 06:00;CYQF 140600Z 29016G22KT 8SM -SHRA SCT015 OVC040 01/M01 A2966 RMK SC3SC5 SLP078

CYQF;2009-04-14 07:00;CYQF 140700Z 28015G23KT 3SM -SN SCT011 OVC025 01/M01 A2966 RMK SF3SC5 SLP076

CYQF;2009-04-14 08:00;CYQF 140800Z 29015G22KT 3SM -SN SCT010 OVC025 01/M02 A2966 RMK SF3SC5 SLP077

CYQF;2009-04-14 08:37;CYQF 140837Z 29015G22KT 1 1/2SM -SN VV012 00/M02 RMK SN8

CYQF;2009-04-14 09:00;CYQF 140900Z 29012G20KT 1 1/2SM -SN SCT010 VV015 00/M02 A2966 RMK SF3SN5 /S01/ SLP078

CYQF;2009-04-14 10:00;CYQF 141000Z 28012G20KT 1SM -SN SCT008 VV012 00/M01 A2967 RMK SF3SN5 SLP080

CYQF;2009-04-14 11:00;CYQF 141100Z 29015G23KT 1SM -SN FEW008 VV012 00/M01 A2968 RMK SF2SN6 /S02/ SLP083

CYQF;2009-04-14 12:00;CYQF 141200Z 30015G23KT 3/4SM -SN VV008 00/M01 A2970 RMK SN8 /S03/ SLP087

CYQF;2009-04-14 13:00;CYQF 141300Z 31015G22KT 1SM -SN VV008 00/M02 A2972 RMK SN8 VIS VRB 3/4-11/4 SLP093

CYQF;2009-04-14 14:00;CYQF 141400Z 31015G30KT 1SM -SN VV008 00/M02 A2974 RMK SN8 VIS VRB 3/4-11/4 SLP100

CYQF;2009-04-14 15:00;CYQF 141500Z 32015G27KT 1SM -SN VV008 M00/M03 A2977 RMK SN8 VIS VRB 3/4-11/4 SLP117

CYQF;2009-04-14 16:00;CYQF 141600Z 34020G31KT 1SM -SN BLSN VV008 M01/M03 A2979 RMK SN8 VIS VRB 3/4-11/4 SLP125

CYQF;2009-04-14 17:00;CYQF 141700Z 33011G20KT 1SM -SN BLSN VV008 M00/M03 A2983 RMK SN8 VIS VRB 3/4-11/4 SLP136

CYQF;2009-04-14 18:00;CYQF 141800Z 33012G20KT 1SM -SN BLSN VV008 M00/M02 A2985 RMK SN8 VIS VRB 3/4-11/4 /S01/ SLP149

CYQF;2009-04-14 18:35;CYQF 141835Z 35015G30KT 8SM BKN050 OVC100 RMK SC5AC2

CYQF;2009-04-14 19:00;CYQF 141900Z 34015G26KT 10SM BKN050 OVC100 00/M03 A2988 RMK SC5AC2 SLP156

CYQF;2009-04-14 19:26;CYQF 141926Z 33015G30KT 2SM -SN BR OVC012 RMK SN3ST5

CYQF;2009-04-14 20:00;CYQF 142000Z 34015G26KT 2SM -SN BR OVC012 00/M02 A2990 RMK SN4ST4 VIS VRB 1-3 SLP163

CYQF;2009-04-14 21:00;CYQF 142100Z 33016G25KT 3SM BR BKN012 BKN040 02/M02 A2992 RMK SF5SC2 VIS VRB 2-4 SLP169

CYQF;2009-04-14 22:00;CYQF 142200Z 33015G22KT 12SM BKN020 BKN100 03/M03 A2994 RMK CU5AC2 SLP176

CYQF;2009-04-14 23:00;CYQF 142300Z 30015G25KT 15SM BKN030 BKN100 04/M03 A2995 RMK CU6AC2 SLP180

CYQF;2009-04-15 00:00;CYQF 150000Z 33010G15KT 15SM BKN030 BKN100 04/M04 A2997 RMK CU6AC2 SLP185

CYQF;2009-04-15 01:00;CYQF 150100Z 32012KT 15SM SCT030 BKN100 03/M04 A2999 RMK CU4AC2 SLP191

CYQF;2009-04-15 02:00;CYQF 150200Z 31008KT 15SM SCT028 BKN100 02/M04 A3000 RMK SC3AC2 FEW CU SLP195

CYQF;2009-04-15 03:00;CYQF 150300Z 30010KT 15SM FEW028 SCT100 01/M05 A3002 RMK SC2AC2 SLP206

CYQF;2009-04-15 04:00;CYQF 150400Z 29008KT 15SM FEW030 SCT100 01/M05 A3004 RMK SC1AC2 SLP213

CYQF;2009-04-15 05:00;CYQF 150500Z 30006KT 15SM SCT100 00/M05 A3005 RMK AC3 SLP217

CYQF;2009-04-15 06:00;CYQF 150600Z 30006KT 15SM BKN100 BKN250 00/M04 A3006 RMK AC5CI2 SLP221

CYQF;2009-04-15 07:00;CYQF 150700Z 30006KT 15SM FEW100 SCT250 00/M05 A3006 RMK AC2CI1 SLP222

CYQF;2009-04-15 08:00;CYQF 150800Z 31006KT 15SM BKN250 M01/M05 A3006 RMK CI3 SLP221

CYQF;2009-04-15 09:00;CYQF 150900Z 32006KT 15SM FEW100 BKN250 M02/M06 A3007 RMK AC1CI2 SLP226

CYQF;2009-04-15 10:00;CYQF 151000Z 00000KT 15SM FEW100 BKN250 M02/M06 A3008 RMK AC1CI2 SLP229

CYQF;2009-04-15 11:00;CYQF 151100Z 30003KT 15SM BKN100 OVC250 M02/M06 A3010 RMK AC7CI0 SLP235

CYQF;2009-04-15 12:00;CYQF 151200Z 00000KT 15SM FEW100 SCT250 M02/M06 A3011 RMK AC2CI1 SLP238

CYQF;2009-04-15 13:00;CYQF 151300Z 00000KT 15SM FEW100 BKN250 M03/M06 A3012 RMK AC1CI0 SLP241

CYQF;2009-04-15 14:00;CYQF 151400Z 00000KT 15SM FEW100 SCT250 M02/M05 A3014 RMK AC1CI0 SLP245

CYQF;2009-04-15 15:00;CYQF 151500Z 00000KT 15SM FEW100 BKN250 01/M05 A3014 RMK AC1CI0 SLP247

CYQF;2009-04-15 16:00;CYQF 151600Z 02003KT 15SM BKN250 03/M05 A3014 RMK CI1 SLP247

CYQF;2009-04-15 17:00;CYQF 151700Z 00000KT 15SM FEW030 BKN250 04/M04 A3015 RMK CU1CI1 SLP251

CYQF;2009-04-15 18:00;CYQF 151800Z 00000KT 15SM FEW035 BKN250 05/M05 A3016 RMK CU1CI1 SLP249

CYQF;2009-04-15 19:00;CYQF 151900Z 03005KT 15SM SCT040 BKN250 06/M06 A3015 RMK CU3CI1 SLP247

CYQF;2009-04-15 20:00;CYQF 152000Z 34008KT 15SM BKN052 BKN250 06/M07 A3014 RMK CU5CI0 SLP244

CYQF;2009-04-15 21:00;CYQF 152100Z 36006KT 15SM SCT050 BKN250 06/M06 A3015 RMK CU4CI0 SLP245

CYQF;2009-04-15 22:00;CYQF 152200Z 02010KT 15SM SCT050 BKN250 07/M07 A3015 RMK CU4CI0 SLP246

CYQF;2009-04-15 23:00;CYQF 152300Z 34004KT 15SM SCT055 BKN250 07/M07 A3015 RMK CU4CI0 SLP248

CYQF;2009-04-16 00:00;CYQF 160000Z 35009KT 15SM SCT055 BKN250 07/M07 A3016 RMK CU3CI0 SLP249

CYQF;2009-04-16 01:00;CYQF 160100Z 35007KT 15SM FEW055 BKN250 06/M07 A3016 RMK CU2CI2 SLP250

CYQF;2009-04-16 02:00;CYQF 160200Z 34004KT 15SM SCT120 BKN250 04/M06 A3017 RMK AC2CI2 OBS TAKEN +15 SLP253

CYQF;2009-04-16 03:00;CYQF 160300Z 02005KT 15SM FEW120 BKN250 04/M07 A3018 RMK AC2CI2 SLP258

CYQF;2009-04-16 04:00;CYQF 160400Z 00000KT 15SM FEW120 BKN250 01/M06 A3020 RMK AC2CI2 SLP264

CYQF;2009-04-16 05:00;CYQF 160500Z 00000KT 15SM FEW100 BKN250 01/M06 A3021 RMK AC2CI3 SLP267

CYQF;2009-04-16 06:00;CYQF 160600Z 00000KT 15SM FEW100 BKN250 00/M06 A3021 RMK AC1CI2 SLP268

CYQF;2009-04-16 07:00;CYQF 160700Z 00000KT 15SM BKN250 00/M06 A3022 RMK CI6 SLP269

CYQF;2009-04-16 08:00;CYQF 160800Z 00000KT 15SM BKN250 M01/M06 A3022 RMK CI6 SLP271

CYQF;2009-04-16 09:00;CYQF 160900Z 00000KT 15SM BKN250 M00/M06 A3023 RMK CI3 SLP271

CYQF;2009-04-16 10:00;CYQF 161000Z 03002KT 15SM FEW100 BKN250 M00/M06 A3023 RMK AC2CI3 SLP272

CYQF;2009-04-16 11:00;CYQF 161100Z 00000KT 15SM FEW100 OVC250 M01/M06 A3024 RMK AC2CI5 SLP276

CYQF;2009-04-16 12:00;CYQF 161200Z 00000KT 15SM FEW100 OVC250 M01/M05 A3026 RMK AC2CI3 SLP282

CYQF;2009-04-16 13:00;CYQF 161300Z 00000KT 15SM BKN100 OVC250 M02/M05 A3026 RMK AC2CI2 SLP283

CYQF;2009-04-16 14:00;CYQF 161400Z 00000KT 15SM SCT100 OVC250 00/M05 A3026 RMK AC3CI2 SLP284

CYQF;2009-04-16 15:00;CYQF 161500Z 00000KT 15SM SCT100 OVC250 01/M05 A3028 RMK AC3CI2 SLP290

CYQF;2009-04-16 16:00;CYQF 161600Z 00000KT 15SM OVC250 03/M05 A3028 RMK CI6 SLP290

CYQF;2009-04-16 17:00;CYQF 161700Z 13003KT 15SM BKN250 06/M05 A3028 RMK CI2 SLP291

CYQF;2009-04-16 18:00;CYQF 161800Z 12008KT 15SM BKN250 07/M04 A3028 RMK CI2 SLP287

CYQF;2009-04-16 19:00;CYQF 161900Z 13008KT 15SM FEW055 BKN250 08/M04 A3027 RMK CU1CI2 SLP284

CYQF;2009-04-16 20:00;CYQF 162000Z 14007KT 15SM FEW055 SCT250 09/M05 A3026 RMK CU2CI1 SLP281

CYQF;2009-04-16 21:00;CYQF 162100Z 22005KT 15SM FEW055 10/M03 A3025 RMK CU2 SLP275

CYQF;2009-04-16 22:00;CYQF 162200Z 26005KT 15SM FEW060 10/M04 A3024 RMK CU2 SLP273

CYQF;2009-04-16 23:00;CYQF 162300Z 15003KT 15SM FEW060 10/M07 A3023 RMK CU2 SLP269

CYQF;2009-04-17 00:00;CYQF 170000Z 13007KT 15SM FEW060 10/M06 A3022 RMK CU1 SLP265

CYQF;2009-04-17 01:00;CYQF 170100Z 14007KT 15SM FEW120 10/M06 A3022 RMK AC1 SLP264

CYQF;2009-04-17 02:00;CYQF 170200Z 12008KT 15SM SKC 08/M05 A3022 RMK SLP264

CYQF;2009-04-17 03:00;CYQF 170300Z 12005KT 15SM FEW250 06/M06 A3022 RMK CI1 SLP268

CYQF;2009-04-17 04:00;CYQF 170400Z 08002KT 15SM FEW250 04/M05 A3024 RMK CI1 SLP272

CYQF;2009-04-17 05:00;CYQF 170500Z 14008KT 15SM SKC 04/M06 A3023 RMK SLP271

CYQF;2009-04-17 06:00;CYQF 170600Z 14007KT 15SM SKC 02/M06 A3023 RMK SLP268

CYQF;2009-04-17 07:00;CYQF 170700Z 12007KT 15SM SKC 02/M07 A3022 RMK SLP266

CYQF;2009-04-17 08:00;CYQF 170800Z 17007KT 15SM SKC 01/M07 A3021 RMK SLP262

CYQF;2009-04-17 09:00;CYQF 170900Z 17007KT 15SM SKC 01/M07 A3019 RMK SLP253

CYQF;2009-04-17 10:00;CYQF 171000Z 17008KT 15SM SKC 01/M07 A3017 RMK SLP248

CYQF;2009-04-17 11:00;CYQF 171100Z 17008KT 15SM SKC 00/M07 A3015 RMK SLP240

CYQF;2009-04-17 12:00;CYQF 171200Z 17006KT 15SM SCT250 M00/M07 A3014 RMK CI2 SLP237

CYQF;2009-04-17 13:00;CYQF 171300Z 16007KT 15SM FEW080 BKN250 M01/M07 A3013 RMK AC2CI2 SLP235

CYQF;2009-04-17 14:00;CYQF 171400Z 16010KT 15SM SCT100 BKN250 01/M06 A3013 RMK AC3CI2 SLP233

CYQF;2009-04-17 15:00;CYQF 171500Z 15012KT 15SM FEW080 SCT120 BKN250 03/M05 A3011 RMK AC2AC2CI2 SLP228

CYQF;2009-04-17 16:00;CYQF 171600Z 15010G16KT 15SM FEW080 BKN120 BKN250 05/M04 A3009 RMK AC2AC3CI2 SLP222

CYQF;2009-04-17 17:00;CYQF 171700Z 16010G15KT 15SM FEW080 BKN120 BKN250 08/M03 A3008 RMK AC1AC5CI1 SLP219

CYQF;2009-04-17 18:00;CYQF 171800Z 13015G20KT 15SM FEW080 SCT120 BKN250 10/M03 A3008 RMK AC2AC2CI2 SLP213

CYQF;2009-04-17 19:00;CYQF 171900Z 15010G15KT 15SM FEW080 BKN120 12/M02 A3006 RMK AC2AC6 SLP208

CYQF;2009-04-17 20:00;CYQF 172000Z 17015G21KT 15SM FEW080 BKN120 13/M02 A3004 RMK AC2AC6 SLP202

CYQF;2009-04-17 21:00;CYQF 172100Z 17013G19KT 15SM SCT080 BKN120 14/M02 A3001 RMK AC3AC4 VIRGA SLP186

CYQF;2009-04-17 22:00;CYQF 172200Z 16011KT 15SM BKN080 OVC120 14/M03 A2999 RMK AC7AC1 VIRGA SLP179

CYQF;2009-04-17 23:00;CYQF 172300Z 19006KT 15SM BKN080 OVC120 14/M01 A2997 RMK AC7AC1 VIRGA SLP175

CYQF;2009-04-18 00:00;CYQF 180000Z 13008KT 15SM BKN060 OVC120 14/M01 A2997 RMK SC7AC1 VIRGA SLP176

CYQF;2009-04-18 01:00;CYQF 180100Z 18005KT 15SM FEW060 BKN100 OVC250 14/M02 A2995 RMK SC2AC5CI1 SLP168

CYQF;2009-04-18 02:00;CYQF 180200Z 15007KT 15SM FEW060 BKN100 BKN250 12/M01 A2992 RMK SC1AC6CI1 SLP160

CYQF;2009-04-18 03:00;CYQF 180300Z 00000KT 15SM FEW060 BKN100 BKN250 11/M03 A2994 RMK SC2AC6CI1 SLP162

CYQF;2009-04-18 04:00;CYQF 180400Z 00000KT 15SM FEW060 BKN100 BKN250 07/M03 A2993 RMK SC1AC6CI1 SLP161

CYQF;2009-04-18 05:00;CYQF 180500Z 27007KT 15SM FEW100 FEW250 06/M03 A2993 RMK AC1CI1 SLP160

CYQF;2009-04-18 06:00;CYQF 180600Z 00000KT 15SM SKC 03/M03 A2993 RMK SLP161

CYQF;2009-04-18 07:00;CYQF 180700Z 21003KT 15SM FEW120 02/M04 A2992 RMK AC2 SLP159

CYQF;2009-04-18 08:00;CYQF 180800Z 28010KT 15SM FEW120 05/M04 A2993 RMK AC2 SLP162

CYQF;2009-04-18 09:00;CYQF 180900Z 31015G20KT 15SM BKN120 06/M04 A2996 RMK AC6 SLP164

CYQF;2009-04-18 10:00;CYQF 181000Z 32015G20KT 15SM BKN100 06/M02 A3000 RMK AC6 SLP177

CYQF;2009-04-18 11:00;CYQF 181100Z 30012KT 15SM BKN100 05/M02 A3004 RMK AC6 SLP189

CYQF;2009-04-18 12:00;CYQF 181200Z 31010G15KT 15SM BKN100 04/M03 A3007 RMK AC6 SLP203

CYQF;2009-04-18 13:00;CYQF 181300Z 30010KT 15SM BKN100 04/M03 A3009 RMK AC6 SLP209

CYQF;2009-04-18 14:00;CYQF 181400Z 31012G18KT 15SM BKN100 04/M04 A3011 RMK AC5 SLP216

CYQF;2009-04-18 15:00;CYQF 181500Z 32012G18KT 15SM SCT100 BKN250 05/M06 A3013 RMK AC3CI1 SLP228

CYQF;2009-04-18 16:00;CYQF 181600Z 32013G21KT 15SM FEW040 FEW100 SCT250 07/M06 A3015 RMK CU1AC1CI1 SLP233

CYQF;2009-04-18 17:00;CYQF 181700Z 32017G25KT 15SM FEW040 FEW100 FEW250 09/M06 A3015 RMK CU1AC1CI0 SLP235

CYQF;2009-04-18 18:00;CYQF 181800Z 32014G23KT 15SM FEW040 FEW100 10/M06 A3015 RMK CU1AC1 SLP237

CYQF;2009-04-18 19:00;CYQF 181900Z 33013KT 15SM FEW050 FEW100 11/M06 A3015 RMK CU1AC1 SLP236

CYQF;2009-04-18 20:00;CYQF 182000Z 33008KT 15SM FEW050 FEW100 11/M07 A3014 RMK CU2AC1 SLP232

CYQF;2009-04-18 21:00;CYQF 182100Z 29010KT 15SM FEW060 11/M07 A3013 RMK CU2 SLP224

CYQF;2009-04-18 22:00;CYQF 182200Z 15003KT 15SM FEW060 SCT250 12/M06 A3012 RMK CU2CI0 SLP220

CYQF;2009-04-18 23:00;CYQF 182300Z 33005KT 15SM FEW060 SCT250 13/M07 A3011 RMK CU2CI2 SLP217

CYQF;2009-04-19 00:00;CYQF 190000Z 36005KT 15SM SCT060 BKN100 BKN250 12/M07 A3011 RMK CU4AC1CI0 VIRGA SLP218

CYQF;2009-04-19 01:00;CYQF 190100Z 03007KT 15SM BKN060 BKN100 BKN250 11/M07 A3011 RMK CU6AC1CI1 VIRGA ALQDS SLP219

CYQF;2009-04-19 02:00;CYQF 190200Z 26002KT 15SM BKN080 OVC250 10/M07 A3012 RMK ACC6CI1 VIRGA ALQDS SLP222

CYQF;2009-04-19 03:00;CYQF 190300Z 29010G15KT 15SM FEW060 BKN080 OVC250 10/M06 A3015 RMK SC2ACC6CI1 VIRGA ALQDS SLP236

CYQF;2009-04-19 04:00;CYQF 190400Z 34006KT 15SM FEW080 SCT250 06/M06 A3017 RMK AC2CI1 SLP241

CYQF;2009-04-19 05:00;CYQF 190500Z 34005KT 15SM SCT080 04/M06 A3018 RMK AC4 SLP244

CYQF;2009-04-19 06:00;CYQF 190600Z 32007KT 15SM SCT080 04/M06 A3019 RMK AC3 SLP249

CYQF;2009-04-19 07:00;CYQF 190700Z 33003KT 15SM FEW080 02/M06 A3019 RMK AC2 SLP251

CYQF;2009-04-19 08:00;CYQF 190800Z 00000KT 15SM FEW100 01/M05 A3019 RMK AC1 SLP251

CYQF;2009-04-19 09:00;CYQF 190900Z 00000KT 15SM FEW100 M00/M06 A3020 RMK AC2 SLP257

CYQF;2009-04-19 10:00;CYQF 191000Z 00000KT 15SM SKC M02/M06 A3020 RMK SLP256

CYQF;2009-04-19 11:00;CYQF 191100Z 00000KT 15SM SKC M02/M06 A3021 RMK SLP260

CYQF;2009-04-19 12:00;CYQF 191200Z 00000KT 15SM FEW100 FEW250 M03/M06 A3022 RMK AC1CI0 SLP264

CYQF;2009-04-19 13:00;CYQF 191300Z 19004KT 15SM FEW100 FEW250 M03/M06 A3023 RMK AC1CI0 SLP267

CYQF;2009-04-19 14:00;CYQF 191400Z 00000KT 15SM SCT250 M01/M05 A3023 RMK CI1 SLP267

CYQF;2009-04-19 15:00;CYQF 191500Z 26002KT 15SM FEW250 03/M05 A3022 RMK CI0 SLP263

CYQF;2009-04-19 16:00;CYQF 191600Z 20005KT 15SM FEW250 06/M05 A3021 RMK CI0 SLP259

CYQF;2009-04-19 17:00;CYQF 191700Z 18008KT 15SM FEW060 FEW250 10/M05 A3019 RMK CU1CI1 SLP252

CYQF;2009-04-19 18:00;CYQF 191800Z 00000KT 15SM FEW060 FEW250 11/M07 A3017 RMK CU1CI1 SLP242

CYQF;2009-04-19 19:00;CYQF 191900Z 21013KT 15SM FEW060 FEW100 BKN250 12/M07 A3015 RMK CU2AC1CI0 SLP235

CYQF;2009-04-19 20:00;CYQF 192000Z 23003KT 15SM FEW060 SCT100 BKN250 11/M06 A3013 RMK CU2AC2CI1 SLP229

CYQF;2009-04-19 21:00;CYQF 192100Z 17004KT 15SM FEW060 SCT100 BKN250 12/M06 A3010 RMK CU2AC2CI1 SLP221

CYQF;2009-04-19 22:00;CYQF 192200Z 15005KT 15SM FEW060 SCT100 BKN250 13/M06 A3008 RMK CU2AC2CI1 SLP214

CYQF;2009-04-19 23:00;CYQF 192300Z 25006KT 15SM FEW060 SCT100 BKN250 13/M04 A3006 RMK CU2AC2CI1 SLP210

CYQF;2009-04-20 00:00;CYQF 200000Z 31002KT 15SM FEW060 SCT100 BKN250 13/M05 A3006 RMK SC2AC2CI2 SLP210

CYQF;2009-04-20 01:00;CYQF 200100Z 30004KT 15SM SCT060 BKN250 14/M05 A3006 RMK SC3CI1 SLP209

CYQF;2009-04-20 02:00;CYQF 200200Z 35004KT 15SM FEW060 BKN250 12/M03 A3006 RMK SC2CI1 SLP208

CYQF;2009-04-20 03:00;CYQF 200300Z 35005KT 15SM FEW060 SCT250 10/M05 A3006 RMK SC2CI1 SLP207

CYQF;2009-04-20 04:00;CYQF 200400Z 36002KT 15SM SCT250 07/M05 A3008 RMK CI2 SLP213

CYQF;2009-04-20 05:00;CYQF 200500Z 05002KT 15SM FEW250 05/M05 A3008 RMK CI1 SLP213

CYQF;2009-04-20 06:00;CYQF 200600Z 00000KT 15SM FEW100 03/M04 A3008 RMK AC2 SLP212

CYQF;2009-04-20 07:00;CYQF 200700Z 00000KT 15SM SCT100 BKN250 03/M05 A3006 RMK AC3CI3 SLP207

CYQF;2009-04-20 08:00;CYQF 200800Z 00000KT 15SM SCT100 BKN250 02/M05 A3005 RMK AC3CI3 SLP204

CYQF;2009-04-20 09:00;CYQF 200900Z 36003KT 15SM FEW100 BKN250 03/M05 A3005 RMK AC2CI5 SLP198

CYQF;2009-04-20 10:00;CYQF 201000Z 02003KT 15SM SCT100 BKN250 02/M05 A3003 RMK AC3CI4 SLP194

CYQF;2009-04-20 11:00;CYQF 201100Z 00000KT 15SM SCT100 BKN250 03/M05 A3002 RMK AC3CI3 SLP190

CYQF;2009-04-20 12:00;CYQF 201200Z 36004KT 15SM FEW100 BKN250 01/M05 A3001 RMK AC2CI3 SLP187

CYQF;2009-04-20 13:00;CYQF 201300Z 00000KT 15SM SCT100 BKN250 01/M05 A3000 RMK AC4CI2 SLP183

CYQF;2009-04-20 14:00;CYQF 201400Z 00000KT 15SM BKN090 BKN250 03/M03 A3001 RMK AC6CI1 SLP187

CYQF;2009-04-20 15:00;CYQF 201500Z 00000KT 15SM SCT090 BKN250 05/M02 A3003 RMK AC3CI1 SLP191

CYQF;2009-04-20 16:00;CYQF 201600Z 06004KT 15SM FEW100 FEW250 10/M03 A3002 RMK AC1CI1 SLP190

CYQF;2009-04-20 17:00;CYQF 201700Z 06002KT 15SM FEW250 13/M02 A3001 RMK CI1 SLP186

CYQF;2009-04-20 18:00;CYQF 201800Z 00000KT 15SM FEW060 FEW250 14/M02 A3001 RMK CU1CI1 TR CU SLP184

CYQF;2009-04-20 19:00;CYQF 201900Z 32002KT 15SM FEW060 BKN250 16/M00 A3000 RMK CU1CI1 SLP181

CYQF;2009-04-20 20:00;CYQF 202000Z 36006KT 15SM FEW060 FEW100 BKN250 16/M00 A2999 RMK CU1AC1CI1 SLP177

CYQF;2009-04-20 21:00;CYQF 202100Z 35010KT 15SM FEW060 SCT100 BKN250 17/M00 A2999 RMK CU1AC2CI1 SLP172

CYQF;2009-04-20 22:00;CYQF 202200Z 36010KT 15SM FEW060 SCT100 BKN250 18/01 A2999 RMK CU2AC2CI1 SLP174

CYQF;2009-04-20 23:00;CYQF 202300Z 02006KT 15SM SCT060 BKN090 BKN250 17/00 A3000 RMK SC3AC2CI1 SLP177

CYQF;2009-04-21 00:00;CYQF 210000Z 01006KT 15SM SCT060 BKN090 BKN250 17/00 A3000 RMK SC4AC2CI1 SLP179

CYQF;2009-04-21 01:00;CYQF 210100Z 03012KT 15SM BKN060 BKN090 BKN250 16/02 A3001 RMK SC6AC1CI1 CI TR SLP182

CYQF;2009-04-21 02:00;CYQF 210200Z 03007KT 15SM FEW060 SCT090 BKN250 14/02 A3002 RMK SC1AC1CI2 SLP184

CYQF;2009-04-21 03:00;CYQF 210300Z 06008KT 15SM FEW060 FEW100 BKN250 11/02 A3004 RMK SC1AC1CI6 SC TR SLP194

CYQF;2009-04-21 04:00;CYQF 210400Z 04005KT 15SM FEW100 BKN250 10/02 A3006 RMK AC1CI6 SLP200

CYQF;2009-04-21 05:00;CYQF 210500Z 09003KT 15SM FEW100 BKN250 09/02 A3006 RMK AC1CI3 SLP202

CYQF;2009-04-21 06:00;CYQF 210600Z 00000KT 15SM FEW100 BKN250 07/01 A3005 RMK AC2CI4 SLP195

CYQF;2009-04-21 07:00;CYQF 210700Z 21004KT 15SM FEW100 SCT250 04/M01 A3005 RMK AC1CI2 SLP194

CYQF;2009-04-21 08:00;CYQF 210800Z 20004KT 15SM FEW100 04/M00 A3004 RMK AC2 SLP191

CYQF;2009-04-21 09:00;CYQF 210900Z 19003KT 15SM FEW100 01/M02 A3003 RMK AC1 SLP189

CYQF;2009-04-21 10:00;CYQF 211000Z 00000KT 15SM FEW100 SCT250 02/M01 A3001 RMK AC1CI1 SLP183

CYQF;2009-04-21 11:00;CYQF 211100Z 00000KT 15SM SCT100 BKN250 01/M02 A2998 RMK AC3CI2 SLP173

CYQF;2009-04-21 12:00;CYQF 211200Z 00000KT 15SM SCT100 BKN250 00/M03 A2996 RMK AC3CI2 SLP167

CYQF;2009-04-21 13:00;CYQF 211300Z 19005KT 15SM FEW050 SCT100 BKN250 01/M02 A2995 RMK SC2AC2CI2 SLP164

CYQF;2009-04-21 14:00;CYQF 211400Z 16003KT 15SM FEW060 SCT100 BKN250 07/02 A2994 RMK SC2AC2CI2 SLP159

CYQF;2009-04-21 15:00;CYQF 211500Z 17002KT 15SM FEW060 SCT100 BKN250 08/02 A2993 RMK SC2AC2CI2 SLP152

CYQF;2009-04-21 16:00;CYQF 211600Z 15004KT 15SM FEW060 SCT100 BKN250 12/03 A2990 RMK SC1AC2CI2 SLP145

CYQF;2009-04-21 17:00;CYQF 211700Z 12003KT 15SM FEW060 SCT100 BKN250 15/03 A2988 RMK SC1AC2CI2 SLP139

CYQF;2009-04-21 18:00;CYQF 211800Z 23005KT 15SM FEW060 SCT110 BKN250 18/03 A2986 RMK SC1AC2CI1 SLP124

CYQF;2009-04-21 19:00;CYQF 211900Z 20006KT 15SM BKN110 BKN250 19/01 A2983 RMK AC5CI2 SLP114

CYQF;2009-04-21 20:00;CYQF 212000Z 23006KT 15SM BKN100 BKN250 19/M02 A2980 RMK AC5CI2 SLP105

CYQF;2009-04-21 21:00;CYQF 212100Z 24010KT 15SM BKN100 BKN250 20/M02 A2977 RMK AC5CI2 SLP097

CYQF;2009-04-21 22:00;CYQF 212200Z 26006KT 15SM BKN100 BKN250 20/M03 A2974 RMK AC5CI2 SLP086

CYQF;2009-04-21 23:00;CYQF 212300Z 17006KT 15SM SCT100 BKN250 21/M03 A2970 RMK AC3CI1 SLP076

CYQF;2009-04-22 00:00;CYQF 220000Z 21009KT 15SM FEW100 BKN250 22/M03 A2967 RMK AC1CI2 SLP061

CYQF;2009-04-22 01:00;CYQF 220100Z 27010KT 15SM FEW100 BKN250 22/M02 A2964 RMK AC2CI2 SLP052

CYQF;2009-04-22 02:00;CYQF 220200Z 30010KT 15SM FEW080 BKN250 19/M02 A2963 RMK AC2CI2 SLP049

CYQF;2009-04-22 03:00;CYQF 220300Z 25008KT 15SM FEW100 BKN250 14/M03 A2961 RMK AC1CI1 SLP040

CYQF;2009-04-22 04:00;CYQF 220400Z 26009KT 15SM FEW100 SCT250 12/M04 A2961 RMK AC1CI1 SLP040

CYQF;2009-04-22 05:00;CYQF 220500Z 27005KT 15SM SKC 10/M04 A2959 RMK SLP034

CYQF;2009-04-22 06:00;CYQF 220600Z 25007KT 15SM SKC 08/M05 A2958 RMK SLP027

CYQF;2009-04-22 07:00;CYQF 220700Z 25002KT 15SM SKC 07/M04 A2957 RMK SLP023

CYQF;2009-04-22 08:00;CYQF 220800Z 18005KT 15SM SCT250 04/M05 A2956 RMK CI2 SLP018

CYQF;2009-04-22 09:00;CYQF 220900Z 26005KT 15SM FEW250 04/M05 A2956 RMK CI1 SLP019

CYQF;2009-04-22 09:25;CYQF 220925Z 34015G22KT 15SM FEW080 SCT250 RMK AC1CI1 WSHFT 0920

CYQF;2009-04-22 10:00;CYQF 221000Z 35015G22KT 15SM FEW080 SCT250 05/M00 A2962 RMK AC1CI1 SLP039

CYQF;2009-04-22 11:00;CYQF 221100Z CCA 33016G24KT 15SM FEW080 SCT250 03/M04 A2968 RMK AC1CI1 OBS TAKEN +08 SLP057

CYQF;2009-04-22 12:00;CYQF 221200Z 33008KT 15SM FEW080 SCT250 01/M04 A2969 RMK AC1CI1 SLP065

CYQF;2009-04-22 13:00;CYQF 221300Z 33010KT 15SM FEW080 SCT250 01/M04 A2970 RMK AC2CI1 SLP068

CYQF;2009-04-22 14:00;CYQF 221400Z 34010G15KT 15SM FEW040 BKN080 BKN250 03/M04 A2971 RMK SC1AC4CI0 SLP072

CYQF;2009-04-22 15:00;CYQF 221500Z 36012G20KT 15SM FEW020 BKN050 02/M05 A2973 RMK SC2SC6 SLP086

CYQF;2009-04-22 16:00;CYQF 221600Z 34012G20KT 15SM FEW015 OVC050 02/M07 A2973 RMK SF2SC5 SLP088

CYQF;2009-04-22 17:00;CYQF 221700Z 34010G15KT 15SM SCT015 OVC050 01/M05 A2974 RMK SF3SC4 SLP089

CYQF;2009-04-22 17:38;CYQF 221738Z 34010G15KT 1SM -SN OVC015 RMK SN2SC6

CYQF;2009-04-22 18:00;CYQF 221800Z 32010G15KT 3SM -SN SCT012 OVC040 M00/M03 A2976 RMK SF4SC4 VIS S 11/2 SLP105

CYQF;2009-04-22 18:37;CYQF 221837Z 33010G15KT 2SM -SN SCT012 OVC040 RMK SN4SC1SC4 VIS VRB 1-3

CYQF;2009-04-22 19:00;CYQF 221900Z 31010G15KT 2SM -SN BKN020 OVC040 00/M04 A2976 RMK SN4SC2SC2 VIS VRB 1-3 SLP106

CYQF;2009-04-22 20:00;CYQF 222000Z 30015G22KT 2SM -SN OVC020 M00/M04 A2978 RMK SN6SC2 VIS VRB 1-3 SLP112

CYQF;2009-04-22 20:11;CYQF 222011Z 30010G15KT 10SM FEW010 OVC025 RMK SC1SC7

CYQF;2009-04-22 21:00;CYQF 222100Z 31010G18KT 15SM VCSH SCT010 OVC030 02/M09 A2975 RMK SC3SC5 SLP107

CYQF;2009-04-22 22:00;CYQF 222200Z 24012G20KT 15SM FEW010 BKN030 OVC100 02/M06 A2974 RMK SF1SC7AC1 SLP104

CYQF;2009-04-22 23:00;CYQF 222300Z 26009KT 15SM BKN030 OVC100 01/M06 A2973 RMK SC6AC2 SLP100

CYQF;2009-04-23 00:00;CYQF 230000Z 25010KT 15SM BKN030 BKN100 01/M05 A2973 RMK SC6AC1 SLP102

CYQF;2009-04-23 01:00;CYQF 230100Z 24010KT 15SM FEW030 BKN100 BKN250 01/M05 A2973 RMK CU1AC6CI1 SLP104

CYQF;2009-04-23 02:00;CYQF 230200Z 26008KT 15SM FEW030 BKN100 BKN250 02/M04 A2973 RMK CU2AC3CI2 SLP103

CYQF;2009-04-23 03:00;CYQF 230300Z 25006KT 15SM FEW030 SCT100 BKN250 M01/M05 A2973 RMK CU2AC2CI2 SLP103

CYQF;2009-04-23 03:45;CYQF 230345Z 33015G20KT 15SM -SHSN SCT030 BKN100 BKN250 RMK CU3AC2CI2

CYQF;2009-04-23 03:54;CYQF 230354Z 34010G15KT 1SM -SHSN VV010 RMK SN8

CYQF;2009-04-23 04:00;CYQF 230400Z 36010KT 1SM -SHSN VV010 M01/M03 A2977 RMK SN8 SLP117

CYQF;2009-04-23 04:27;CYQF 230427Z 36003KT 10SM FEW030 BKN050 BKN100 RMK CU2SC4AC2

CYQF;2009-04-23 05:00;CYQF 230500Z 33015G26KT 15SM BKN045 BKN100 M01/M05 A2980 RMK SC6AC2 SLP126

CYQF;2009-04-23 06:00;CYQF 230600Z 34014KT 15SM BKN050 BKN100 M02/M10 A2984 RMK SC6AC2 SLP145

CYQF;2009-04-23 07:00;CYQF 230700Z 33013KT 15SM FEW050 BKN250 M04/M13 A2986 RMK SC2CI1 SLP154

CYQF;2009-04-23 08:00;CYQF 230800Z 33012KT 15SM FEW050 SCT250 M05/M14 A2988 RMK SC2CI1 SLP160

CYQF;2009-04-23 09:00;CYQF 230900Z 34010KT 15SM FEW250 M06/M14 A2989 RMK CI0 SLP168

CYQF;2009-04-23 10:00;CYQF 231000Z 34016G22KT 15SM SKC M06/M15 A2990 RMK SLP171

CYQF;2009-04-23 11:00;CYQF 231100Z 31014KT 15SM FEW080 M07/M14 A2993 RMK AC1 SLP178

CYQF;2009-04-23 12:00;CYQF 231200Z 34016G22KT 15SM FEW040 FEW080 M07/M13 A2994 RMK SC2AC1 SLP185

CYQF;2009-04-23 13:00;CYQF 231300Z 32022G28KT 15SM FEW040 FEW080 M07/M14 A2995 RMK SC2AC1 SLP189

CYQF;2009-04-23 14:00;CYQF 231400Z 31020G25KT 15SM FEW015 M06/M14 A2997 RMK CU2 SLP195

CYQF;2009-04-23 15:00;CYQF 231500Z 33018G27KT 15SM BKN015 M05/M13 A2997 RMK CU6 SLP197

CYQF;2009-04-23 16:00;CYQF 231600Z 32015G24KT 15SM BKN020 M05/M14 A2997 RMK CU6 SLP197

CYQF;2009-04-23 17:00;CYQF 231700Z 32015G23KT 15SM BKN030 M04/M14 A2997 RMK CU6 SLP197

CYQF;2009-04-23 18:00;CYQF 231800Z 31015G25KT 15SM BKN030 M03/M13 A2997 RMK CU6 SLP197

CYQF;2009-04-23 19:00;CYQF 231900Z 30012G20KT 15SM BKN040 M03/M14 A2996 RMK SC6 CU ASOCTD SLP192

CYQF;2009-04-23 20:00;CYQF 232000Z 33010G17KT 15SM BKN040 BKN250 M01/M15 A2995 RMK SC5CI0 CU EMBD SLP191

CYQF;2009-04-23 21:00;CYQF 232100Z 30018G27KT 15SM SCT040 BKN250 00/M15 A2994 RMK SC3CI1 SLP187

CYQF;2009-04-23 22:00;CYQF 232200Z 31015G21KT 15SM SCT040 BKN250 01/M14 A2994 RMK SC4CI1 SLP185

CYQF;2009-04-23 23:00;CYQF 232300Z 32015G20KT 15SM BKN050 BKN250 01/M13 A2992 RMK SC6CI0 SLP181

CYQF;2009-04-24 00:00;CYQF 240000Z 30010G15KT 15SM BKN050 BKN250 01/M13 A2992 RMK SC6CI0 SLP179

CYQF;2009-04-24 01:00;CYQF 240100Z 01007KT 15SM BKN050 BKN250 00/M13 A2991 RMK SC6CI0 SLP177

CYQF;2009-04-24 02:00;CYQF 240200Z 00000KT 15SM FEW050 BKN250 M00/M13 A2991 RMK SC2CI2 SLP175

CYQF;2009-04-24 03:00;CYQF 240300Z 00000KT 15SM FEW100 BKN250 M02/M13 A2990 RMK AC2CI2 SLP174

CYQF;2009-04-24 04:00;CYQF 240400Z 18002KT 15SM FEW100 BKN250 M04/M13 A2990 RMK AC2CI2 SLP174

CYQF;2009-04-24 05:00;CYQF 240500Z 27002KT 15SM FEW030 OVC070 M03/M11 A2991 RMK SC2AC6 SHSN N SLP175

CYQF;2009-04-24 06:00;CYQF 240600Z 31006KT 15SM SCT030 OVC070 M02/M09 A2991 RMK SC3AC5 SLP173

CYQF;2009-04-24 06:46;CYQF 240646Z 24005KT 4SM -SN SCT030 OVC050 RMK SC3SC5

CYQF;2009-04-24 07:00;CYQF 240700Z 24008KT 3SM -SN BKN030 OVC050 M03/M06 A2991 RMK SC5SC3 SLP173

CYQF;2009-04-24 08:00;CYQF 240800Z 23006KT 5SM -SN OVC030 M04/M07 A2987 RMK SC8 SLP162

CYQF;2009-04-24 08:40;CYQF 240840Z 25006KT 15SM BKN030 OVC060 RMK SC6SC2

CYQF;2009-04-24 09:00;CYQF 240900Z 35007KT 15SM BKN030 OVC060 M04/M06 A2987 RMK SC6SC2 SLP159

CYQF;2009-04-24 09:37;CYQF 240937Z 33012KT 10SM -SN OVC030 RMK SC8

CYQF;2009-04-24 10:00;CYQF 241000Z 33010KT 10SM -SN OVC030 M04/M07 A2988 RMK SC8 SLP161

CYQF;2009-04-24 10:27;CYQF 241027Z 33006KT 15SM BKN030 BKN080 RMK SC6AC2

CYQF;2009-04-24 11:00;CYQF 241100Z 33010KT 15SM BKN030 BKN080 M04/M08 A2989 RMK SC5AC2 SLP164

CYQF;2009-04-24 12:00;CYQF 241200Z 34007KT 15SM BKN030 OVC080 M05/M08 A2988 RMK SC5AC3 SLP164

CYQF;2009-04-24 12:36;CYQF 241236Z 35005KT 10SM -SN BKN030 OVC080 RMK SC5AC3

CYQF;2009-04-24 12:48;CYQF 241248Z 34005KT 3SM -SN BKN030 OVC080 RMK SC6AC2

CYQF;2009-04-24 13:00;CYQF 241300Z 35006KT 2SM -SN BKN030 OVC080 M05/M08 A2990 RMK SC6AC2 SLP168

CYQF;2009-04-24 13:11;CYQF 241311Z 35008KT 1SM -SN BR SCT015 OVC030 RMK FG2SF2SC4

CYQF;2009-04-24 14:00;CYQF 241400Z CCA 36007KT 1 1/2SM -SN BR SCT015 OVC030 M05/M08 A2991 RMK FG2SF2SC3 SLP173

CYQF;2009-04-24 14:27;CYQF 241427Z 35008KT 3SM -SN BR BKN012 OVC030 RMK FG2SF2SC3

CYQF;2009-04-24 14:33;CYQF 241433Z 34007KT 2SM -SN BR BKN012 OVC030 RMK FG2SF2SC3 VIS VRB 1-3

CYQF;2009-04-24 14:50;CYQF 241450Z 35005KT 1SM -SN BR BKN012 RMK SN2SC6 VIS VRB 1/2 - 11/2

CYQF;2009-04-24 15:00;CYQF 241500Z 36004KT 1SM -SN BR BKN012 BKN030 M05/M08 A2993 RMK SN2SC5SC1 VIS VRB 1/2 - 11/2 /S01/ SLP182

CYQF;2009-04-24 15:13;CYQF 241513Z CCA 36003KT 3SM -SN BKN012 BKN030 RMK SC5SC2 VIS S QUAD 1 CU ASOCTD

CYQF;2009-04-24 15:48;CYQF 241548Z 32009KT 10SM VCSH BKN020 BKN240 RMK CU5CI1

CYQF;2009-04-24 16:00;CYQF 241600Z 33008KT 10SM VCSH BKN020 BKN240 M04/M10 A2992 RMK CU5CI2 SLP181

CYQF;2009-04-24 17:00;CYQF 241700Z 33005KT 15SM BKN020 M03/M10 A2992 RMK CU6 SHSN S SLP179

CYQF;2009-04-24 18:00;CYQF 241800Z 34004KT 15SM BKN030 M02/M10 A2991 RMK CU6 SLP173

CYQF;2009-04-24 19:00;CYQF 241900Z 31008KT 15SM VCSH BKN040 BKN250 M02/M10 A2989 RMK CU6CI1 VIS S 3 SLP166

CYQF;2009-04-24 20:00;CYQF 242000Z 24006KT 3SM BR VCSH BKN030 M01/M06 A2987 RMK CU6 SLP161

CYQF;2009-04-24 21:00;CYQF 242100Z 25009KT 6SM HZ BKN020 00/M07 A2985 RMK CU6 SLP152

CYQF;2009-04-24 22:00;CYQF 242200Z 30002KT 15SM BKN020 01/M07 A2983 RMK CU6 SLP145

CYQF;2009-04-24 23:00;CYQF 242300Z 27007KT 15SM BKN030 BKN250 03/M07 A2980 RMK CU6CI1 SLP137

CYQF;2009-04-25 00:00;CYQF 250000Z 25011KT 15SM FEW030 SCT100 BKN250 03/M07 A2979 RMK CU2AC1CI0 SLP129

CYQF;2009-04-25 01:00;CYQF 250100Z 22004KT 15SM FEW030 SCT100 BKN250 03/M07 A2978 RMK SC1AC2CI1 SLP125

CYQF;2009-04-25 02:00;CYQF 250200Z 00000KT 15SM FEW030 SCT100 BKN250 03/M07 A2976 RMK SC1AC2CI1 SLP119

CYQF;2009-04-25 03:00;CYQF 250300Z 00000KT 15SM BKN100 OVC250 02/M07 A2976 RMK AC5CI2 SLP118

CYQF;2009-04-25 04:00;CYQF 250400Z 13004KT 15SM BKN100 OVC250 01/M07 A2975 RMK AC5CI2 SLP117

CYQF;2009-04-25 05:00;CYQF 250500Z 14005KT 15SM FEW100 SCT250 M00/M08 A2973 RMK AC2CI0 SLP111

CYQF;2009-04-25 06:00;CYQF 250600Z 14005KT 15SM FEW100 SCT250 M01/M08 A2973 RMK AC2CI0 SLP108

CYQF;2009-04-25 07:00;CYQF 250700Z 15006KT 15SM FEW250 M02/M08 A2973 RMK CI1 SLP110

CYQF;2009-04-25 08:00;CYQF 250800Z 16006KT 15SM FEW100 SCT250 M01/M08 A2973 RMK AC2CI1 SLP110

CYQF;2009-04-25 09:00;CYQF 250900Z 18006KT 15SM SCT100 BKN250 M00/M08 A2973 RMK AC4CI2 SLP105

CYQF;2009-04-25 10:00;CYQF 251000Z 20005KT 15SM FEW100 BKN250 M01/M07 A2973 RMK AC2CI2 SLP106

CYQF;2009-04-25 11:00;CYQF 251100Z 00000KT 15SM BKN100 BKN250 M01/M07 A2974 RMK AC5CI1 SLP108

CYQF;2009-04-25 12:00;CYQF 251200Z 00000KT 15SM SCT100 OVC250 M02/M06 A2974 RMK AC4CI3 SLP108

CYQF;2009-04-25 13:00;CYQF 251300Z 17005KT 15SM BKN100 OVC250 M01/M06 A2975 RMK AC5CI2 SLP109

CYQF;2009-04-25 14:00;CYQF 251400Z 29004KT 15SM BKN020 BKN100 BKN250 01/M04 A2976 RMK ST4AC2CI1 SLP113

CYQF;2009-04-25 15:00;CYQF 251500Z 31007KT 12SM SCT020 SCT050 SCT100 BKN250 04/M04 A2978 RMK ST1SC1AC2CI0 TCU DIST W-NE SLP117

CYQF;2009-04-25 16:00;CYQF 251600Z 33011G16KT 15SM SCT020 BKN050 BKN250 03/M02 A2981 RMK SC3SC2CI1 SHRA NW SLP127

CYQF;2009-04-25 16:11;CYQF 251611Z 32011G17KT 6SM -RASN SCT020 BKN040 OVC250 RMK SC3SC4CI0

CYQF;2009-04-25 17:00;CYQF 251700Z 35007KT 10SM VCSH BKN015 OVC040 03/01 A2983 RMK SF5SC3 SLP133

CYQF;2009-04-25 18:00;CYQF 251800Z 31010G15KT 12SM BKN015 BKN040 05/00 A2984 RMK CF5SC2 SLP138

CYQF;2009-04-25 19:00;CYQF 251900Z 02006KT 12SM VCSH BKN015 BKN040 06/M00 A2985 RMK CU6SC2 SLP141

CYQF;2009-04-25 19:45;CYQF 251945Z 36010G15KT 12SM -SHRA BKN015 BKN040 RMK CU6SC2

CYQF;2009-04-25 20:00;CYQF 252000Z 36010KT 15SM BKN015 BKN040 05/02 A2985 RMK CU6SC1 SLP144

CYQF;2009-04-25 20:21;CYQF 252021Z 01015G20KT 15SM -SHRA BKN020 RMK CU6

CYQF;2009-04-25 21:00;CYQF 252100Z 35010G15KT 15SM BKN025 05/M01 A2989 RMK CU7 SLP156

CYQF;2009-04-25 22:00;CYQF 252200Z 34010G16KT 15SM BKN025 05/M02 A2992 RMK CU7 SLP165

CYQF;2009-04-25 23:00;CYQF 252300Z 01010G15KT 15SM BKN035 BKN250 05/M04 A2994 RMK CU5CI1 SLP170

CYQF;2009-04-26 00:00;CYQF 260000Z 01012G18KT 15SM BKN040 BKN250 05/M05 A2995 RMK CU5CI1 SLP180

CYQF;2009-04-26 01:00;CYQF 260100Z 36010G15KT 15SM SCT045 BKN250 06/M06 A2997 RMK CU4CI0 SLP185

CYQF;2009-04-26 01:41;CYQF 260141Z 34016G23KT 15SM -SHSN BKN030 BKN250 RMK SC6CI1 VSBY N 2 TCU ASOCTD

CYQF;2009-04-26 02:00;CYQF 260200Z 35012G19KT 3SM -SHSN OVC020 02/M02 A3001 RMK SC8 TCU ASOCTD SLP198

CYQF;2009-04-26 02:31;CYQF 260231Z 36008KT 15SM VCSH BKN020 BKN100 BKN250 RMK SC5AC1CI0 TCU ASOCTD VSBY S 3

CYQF;2009-04-26 03:00;CYQF 260300Z 34008KT 15SM FEW020 SCT100 BKN250 01/M04 A3005 RMK SC2AC2CI0 SLP210

CYQF;2009-04-26 04:00;CYQF 260400Z 34008KT 15SM BKN025 BKN100 BKN250 M00/M04 A3008 RMK SC5AC1CI1 SLP220

CYQF;2009-04-26 04:27;CYQF 260427Z 34010KT 15SM -SN BKN025 BKN100 RMK SC6AC1

CYQF;2009-04-26 05:00;CYQF 260500Z 33012KT 15SM -SN BKN030 OVC100 00/M03 A3010 RMK SC6AC2 SLP226

CYQF;2009-04-26 05:36;CYQF 260536Z 36008KT 2SM -SN OVC030 RMK SN2SC6

CYQF;2009-04-26 06:00;CYQF 260600Z 33010G15KT 6SM -SN OVC040 M00/M03 A3010 RMK SC8 SLP230

CYQF;2009-04-26 07:00;CYQF 260700Z 36002KT 6SM -SN OVC040 M01/M03 A3011 RMK SC8 SLP232

CYQF;2009-04-26 07:40;CYQF 260740Z 00000KT 10SM VCSH OVC040 RMK SC8

CYQF;2009-04-26 08:00;CYQF 260800Z 27005KT 15SM BKN050 M02/M04 A3012 RMK SC7 SLP235

CYQF;2009-04-26 09:00;CYQF 260900Z 27004KT 15SM BKN060 M03/M06 A3012 RMK SC6 SLP237

CYQF;2009-04-26 10:00;CYQF 261000Z 00000KT 15SM SCT060 BKN100 M04/M07 A3012 RMK SC3AC2 SLP238

CYQF;2009-04-26 11:00;CYQF 261100Z 32002KT 15SM FEW060 SCT100 M04/M07 A3013 RMK SC2AC2 SLP241

CYQF;2009-04-26 12:00;CYQF 261200Z 00000KT 15SM FEW060 SCT100 M06/M08 A3014 RMK SC1AC2 SLP248

CYQF;2009-04-26 13:00;CYQF 261300Z 00000KT 15SM FEW060 FEW100 BKN240 M07/M09 A3014 RMK SC1AC1CI2 SLP250

CYQF;2009-04-26 14:00;CYQF 261400Z 20002KT 15SM BKN250 M04/M07 A3016 RMK CI2 SLP255

CYQF;2009-04-26 15:00;CYQF 261500Z 27002KT 15SM BKN250 M00/M05 A3016 RMK CI2 SLP256

CYQF;2009-04-26 16:00;CYQF 261600Z 36002KT 15SM FEW030 FEW100 BKN250 02/M04 A3017 RMK CU1AC1CI2 SLP257

CYQF;2009-04-26 17:00;CYQF 261700Z 03002KT 15SM SCT035 OVC250 04/M04 A3016 RMK CU3CI2 SLP255

CYQF;2009-04-26 18:00;CYQF 261800Z 30002KT 15SM SCT040 OVC250 04/M06 A3015 RMK CU4CI2 SLP249

CYQF;2009-04-26 19:00;CYQF 261900Z 02006KT 15SM BKN040 05/M07 A3015 RMK CU6 VIRGA SLP246

CYQF;2009-04-26 20:00;CYQF 262000Z 02005KT 15SM BKN050 06/M07 A3014 RMK CU6 SLP243

CYQF;2009-04-26 21:00;CYQF 262100Z 00000KT 15SM OVC055TCU 05/M07 A3013 RMK TCU7 SHRA ALQDS SLP243

CYQF;2009-04-26 21:31;CYQF 262131Z 35015G21KT 5SM -SHSN BKN035TCU RMK TCU6

CYQF;2009-04-26 22:00;CYQF 262200Z 35015G20KT 3SM -SHSN OVC020TCU 02/M01 A3016 RMK TCU7 SLP252

CYQF;2009-04-26 23:00;CYQF 262300Z 35012G18KT 3SM -SHSN OVC017 M00/M03 A3019 RMK SC8 TCU EMBD SLP261

CYQF;2009-04-26 23:31;CYQF 262331Z 36015KT 12SM BKN015 OVC030 RMK SC6SC2 SHS DIST SE+W

CYQF;2009-04-27 00:00;CYQF 270000Z 36013KT 12SM SCT009 BKN020 OVC050 00/M04 A3022 RMK SF3SC3SC2 SHS S QUAD VIS 6 SLP281

CYQF;2009-04-27 01:00;CYQF 270100Z 01012G17KT 15SM SCT010 OVC050 00/M05 A3023 RMK SC3SC5 SLP284

CYQF;2009-04-27 02:00;CYQF 270200Z 01009KT 15SM BKN015 OVC050 00/M05 A3023 RMK SC5SC3 SLP285

CYQF;2009-04-27 03:00;CYQF 270300Z 34007KT 15SM SCT012 BKN050 OVC250 M00/M04 A3026 RMK SC3SC3CI1 TCU EMBD SLP290

CYQF;2009-04-27 04:00;CYQF 270400Z 35005KT 15SM BKN018 BKN050 BKN250 M01/M05 A3028 RMK SC5SC2CI1 SLP296

CYQF;2009-04-27 05:00;CYQF 270500Z 35005KT 15SM BKN018 OVC050 M02/M05 A3028 RMK SC5SC3 SLP296

CYQF;2009-04-27 06:00;CYQF 270600Z 35008KT 15SM FEW050 BKN250 M03/M06 A3027 RMK SC1CI3 SLP294

CYQF;2009-04-27 07:00;CYQF 270700Z 33006KT 15SM OVC100 M03/M06 A3027 RMK AC8 SLP293

CYQF;2009-04-27 08:00;CYQF 270800Z 34005KT 15SM OVC100 M04/M07 A3027 RMK AC8 SLP293

CYQF;2009-04-27 09:00;CYQF 270900Z 36004KT 15SM BKN250 M04/M07 A3026 RMK CI4 SLP289

CYQF;2009-04-27 10:00;CYQF 271000Z 34005KT 15SM BKN250 M05/M08 A3026 RMK CI2 SLP289

CYQF;2009-04-27 11:00;CYQF 271100Z 34005KT 15SM BKN250 M05/M08 A3027 RMK CI2 SLP291

CYQF;2009-04-27 12:00;CYQF 271200Z 00000KT 15SM FEW020 FEW100 FEW250 M06/M09 A3027 RMK SC1AC1CI1 SC/AC TR SE-SW SLP301

CYQF;2009-04-27 13:00;CYQF 271300Z 00000KT 15SM FEW100 FEW250 M06/M09 A3028 RMK AC1CI1 AC TR SLP303

CYQF;2009-04-27 14:00;CYQF 271400Z 00000KT 15SM FEW100 SCT250 M04/M07 A3028 RMK AC1CI1 SLP303

CYQF;2009-04-27 15:00;CYQF 271500Z 00000KT 15SM FEW100 SCT250 M02/M06 A3027 RMK AC1CI2 SLP297

CYQF;2009-04-27 16:00;CYQF 271600Z 05005KT 15SM SCT030 BKN250 00/M07 A3027 RMK CU3CI2 SLP296

CYQF;2009-04-27 17:00;CYQF 271700Z 01005KT 15SM BKN040 BKN250 01/M09 A3026 RMK CU6CI1 SH SW-NW SLP292

CYQF;2009-04-27 18:00;CYQF 271800Z 03009KT 15SM VCSH BKN045 BKN250 02/M11 A3025 RMK CU6CI1 TCU EMBD SLP290

CYQF;2009-04-27 19:00;CYQF 271900Z 05005KT 15SM VCSH BKN045 BKN250 02/M08 A3025 RMK CU6CI1 TCU EMBD SHS DIST W-NW+NE SLP289

CYQF;2009-04-27 19:45;CYQF 271945Z 09012KT 10SM -SHSN BKN020 BKN250 RMK CU6CI0 TCU EMBD

CYQF;2009-04-27 20:00;CYQF 272000Z 12008KT 10SM VCSH BKN020 BKN250 00/M04 A3025 RMK CU6CI0 SLP289

CYQF;2009-04-27 21:00;CYQF 272100Z 10008KT 15SM BKN040 BKN250 03/M07 A3024 RMK CU5CI1 TCU EMBD SHS NW-NE-E SLP283

CYQF;2009-04-27 22:00;CYQF 272200Z 03003KT 15SM VCSH BKN050 BKN250 04/M09 A3023 RMK CU6CI0 TCU ASOCTD SLP281

CYQF;2009-04-27 23:00;CYQF 272300Z 36008KT 15SM BKN045 BKN250 03/M09 A3023 RMK CU5CI1 TCU EMBD SHS ALQDS SLP280

CYQF;2009-04-28 00:00;CYQF 280000Z 35006KT 15SM BKN050 BKN250 04/M09 A3023 RMK CU5CI1 TCU EMBD SHS ALQDS SLP282

CYQF;2009-04-28 01:00;CYQF 280100Z 05012KT 15SM VCSH BKN050 BKN250 04/M10 A3024 RMK CU6CI1 TCU ASOCTD SLP286

CYQF;2009-04-28 02:00;CYQF 280200Z 01007KT 15SM BKN040 BKN250 02/M07 A3025 RMK CU5CI1 TCU ASOCTD SHS ALQDS SLP290

CYQF;2009-04-28 03:00;CYQF 280300Z 03005KT 15SM BKN040 BKN250 02/M08 A3027 RMK SC5CI1 VIRGA SLP295

CYQF;2009-04-28 04:00;CYQF 280400Z 33004KT 15SM FEW040 BKN250 M02/M07 A3030 RMK SC2CI1 SLP304

CYQF;2009-04-28 05:00;CYQF 280500Z 33004KT 15SM FEW080 M05/M08 A3031 RMK AC2 SLP305

CYQF;2009-04-28 06:00;CYQF 280600Z 36004KT 15SM FEW080 M02/M06 A3031 RMK AC2 SLP309

CYQF;2009-04-28 07:00;CYQF 280700Z 36003KT 15SM FEW080 M04/M07 A3032 RMK AC2 SLP312

CYQF;2009-04-28 08:00;CYQF 280800Z 36004KT 15SM FEW080 M03/M06 A3033 RMK AC2 SLP314

CYQF;2009-04-28 09:00;CYQF 280900Z 36005KT 15SM FEW080 M04/M06 A3033 RMK AC2 SLP314

CYQF;2009-04-28 10:00;CYQF 281000Z 01005KT 12SM -SN SCT080 M03/M06 A3033 RMK AC4 SLP315

CYQF;2009-04-28 11:00;CYQF 281100Z 01005KT 15SM -SN SCT080 M04/M06 A3034 RMK AC3 SLP317

CYQF;2009-04-28 11:12;CYQF 281112Z 01006KT 15SM SCT070 RMK AC3

CYQF;2009-04-28 12:00;CYQF 281200Z 01008KT 5SM BR FEW070 SCT250 M04/M06 A3035 RMK AC2CI0 SLP321

CYQF;2009-04-28 13:00;CYQF 281300Z 36006KT 6SM BR FEW070 SCT250 M04/M06 A3036 RMK AC2CI1 VIS S 2 SLP324

CYQF;2009-04-28 14:00;CYQF 281400Z 01008KT 10SM FEW070 FEW250 M03/M05 A3038 RMK AC1CI0 SLP329

CYQF;2009-04-28 15:00;CYQF 281500Z 03007KT 15SM FEW008 SCT100 M01/M05 A3039 RMK SC2AC1 SLP335

CYQF;2009-04-28 16:00;CYQF 281600Z 03009KT 15SM BKN020 00/M05 A3040 RMK CU5 SLP336

CYQF;2009-04-28 17:00;CYQF 281700Z 03010G15KT 15SM BKN030 BKN250 04/M07 A3040 RMK CU5CI0 SLP337

CYQF;2009-04-28 18:00;CYQF 281800Z 04008KT 15SM -SHSN BKN040 02/M09 A3041 RMK CU7 SLP341

CYQF;2009-04-28 18:52;CYQF 281852Z 01009KT 15SM BKN050 RMK CU7 VIRGA

CYQF;2009-04-28 19:00;CYQF 281900Z 02010KT 15SM BKN050 03/M09 A3041 RMK CU7 VIRGA SLP343

CYQF;2009-04-28 20:00;CYQF 282000Z 05010KT 15SM BKN050 BKN100 04/M09 A3041 RMK CU5AC2 VIRGA SLP343

CYQF;2009-04-28 21:00;CYQF 282100Z 06006KT 15SM BKN050 BKN100 04/M11 A3041 RMK CU5AC2 SLP341

CYQF;2009-04-28 22:00;CYQF 282200Z 05010KT 15SM BKN050 04/M11 A3041 RMK CU7 SLP341

CYQF;2009-04-28 23:00;CYQF 282300Z 03010KT 15SM BKN060 04/M11 A3041 RMK SC7 CU ASOCTD SLP341

CYQF;2009-04-29 00:00;CYQF 290000Z 05007KT 15SM BKN060 04/M11 A3042 RMK SC6 CU ASOCTD SLP345

CYQF;2009-04-29 01:00;CYQF 290100Z 02010KT 15SM BKN060 03/M11 A3042 RMK SC6 VIRGA SLP346

CYQF;2009-04-29 02:00;CYQF 290200Z 04011KT 15SM BKN060 BKN100 03/M11 A3043 RMK SC5AC1 VIRGA SLP349

CYQF;2009-04-29 03:00;CYQF 290300Z 06010KT 15SM FEW060 SCT100 01/M11 A3044 RMK SC2AC2 VIRGA SLP352

CYQF;2009-04-29 04:00;CYQF 290400Z 09005KT 15SM FEW090 M01/M11 A3046 RMK AC1 SLP357

CYQF;2009-04-29 05:00;CYQF 290500Z 06003KT 15SM SKC M02/M11 A3046 RMK SLP359

CYQF;2009-04-29 06:00;CYQF 290600Z 03005KT 15SM SKC M04/M11 A3046 RMK SLP361

CYQF;2009-04-29 07:00;CYQF 290700Z 01003KT 15SM SKC M05/M11 A3046 RMK SLP362

CYQF;2009-04-29 08:00;CYQF 290800Z 00000KT 15SM SKC M05/M11 A3046 RMK SLP361

CYQF;2009-04-29 09:00;CYQF 290900Z 00000KT 15SM SKC M06/M11 A3045 RMK SLP358

CYQF;2009-04-29 10:00;CYQF 291000Z 00000KT 15SM SKC M07/M12 A3045 RMK SLP358

CYQF;2009-04-29 11:00;CYQF 291100Z 00000KT 15SM SKC M08/M12 A3046 RMK SLP361

CYQF;2009-04-29 12:00;CYQF 291200Z 27003KT 15SM FEW250 M09/M12 A3046 RMK CI1 SLP365

CYQF;2009-04-29 13:00;CYQF 291300Z 00000KT 15SM FEW250 M08/M12 A3046 RMK CI2 SLP366

CYQF;2009-04-29 14:00;CYQF 291400Z 00000KT 15SM BKN250 M05/M09 A3047 RMK CI2 SLP368

CYQF;2009-04-29 15:00;CYQF 291500Z 02003KT 15SM BKN250 M02/M09 A3047 RMK CI2 SLP364

CYQF;2009-04-29 16:00;CYQF 291600Z 03005KT 15SM FEW015 BKN250 01/M10 A3047 RMK CU1CI2 TR CU SLP364

CYQF;2009-04-29 17:00;CYQF 291700Z 02004KT 15SM FEW045 BKN250 02/M12 A3046 RMK CU1CI2 SLP361

CYQF;2009-04-29 18:00;CYQF 291800Z 11002KT 15SM FEW050 SCT250 03/M11 A3044 RMK CU1CI1 SLP353

CYQF;2009-04-29 19:00;CYQF 291900Z 00000KT 15SM FEW050 FEW250 04/M12 A3041 RMK CU1CI1 SLP345

CYQF;2009-04-29 20:00;CYQF 292000Z 03005KT 15SM FEW050 FEW250 04/M12 A3040 RMK CU1CI1 SLP341

CYQF;2009-04-29 21:00;CYQF 292100Z 04003KT 15SM FEW060 FEW250 06/M12 A3039 RMK CU1CI1 SLP334

CYQF;2009-04-29 22:00;CYQF 292200Z 00000KT 15SM FEW060 FEW250 06/M11 A3037 RMK CU1CI1 SLP330

CYQF;2009-04-29 23:00;CYQF 292300Z 00000KT 15SM FEW080 07/M12 A3036 RMK CU1 SLP326

CYQF;2009-04-30 00:00;CYQF 300000Z 00000KT 15SM FEW080 06/M12 A3035 RMK AC1 SLP324

CYQF;2009-04-30 01:00;CYQF 300100Z 34006KT 15SM FEW090 06/M12 A3034 RMK AC1 SLP320

CYQF;2009-04-30 02:00;CYQF 300200Z 00000KT 15SM FEW090 FEW250 05/M11 A3033 RMK AC1CI1 TR AC SLP316

CYQF;2009-04-30 03:00;CYQF 300300Z 00000KT 15SM FEW090 SCT250 03/M12 A3032 RMK AC1CI2 SLP310

CYQF;2009-04-30 04:00;CYQF 300400Z 35002KT 15SM FEW090 FEW250 01/M12 A3033 RMK AC1CI1 SLP311

CYQF;2009-04-30 05:00;CYQF 300500Z 00000KT 15SM FEW090 SCT250 M01/M09 A3032 RMK AC1CI1 SLP310

CYQF;2009-04-30 06:00;CYQF 300600Z 00000KT 15SM SCT250 M03/M10 A3031 RMK CI0 SLP307

CYQF;2009-04-30 07:00;CYQF 300700Z 00000KT 15SM SKC M03/M12 A3030 RMK SLP304

CYQF;2009-04-30 08:00;CYQF 300800Z 00000KT 15SM SKC M05/M10 A3029 RMK SLP302

CYQF;2009-04-30 09:00;CYQF 300900Z 18004KT 15SM SKC M05/M10 A3028 RMK SLP297

CYQF;2009-04-30 10:00;CYQF 301000Z 20004KT 15SM SKC M07/M11 A3027 RMK SLP295

CYQF;2009-04-30 11:00;CYQF 301100Z 21003KT 15SM FEW100 FEW250 M06/M11 A3027 RMK AC1CI0 SLP293

CYQF;2009-04-30 12:00;CYQF 301200Z 19004KT 15SM SCT100 M07/M11 A3026 RMK AC2 SLP290

CYQF;2009-04-30 13:00;CYQF 301300Z 20004KT 15SM BKN100 M05/M10 A3025 RMK AC5 SLP287

CYQF;2009-04-30 14:00;CYQF 301400Z 19004KT 15SM FEW040 BKN080 M01/M08 A3025 RMK SC2AC3 SLP286

CYQF;2009-04-30 15:00;CYQF 301500Z 00000KT 15SM BKN100 01/M08 A3025 RMK AC3 SLP280

CYQF;2009-04-30 16:00;CYQF 301600Z 00000KT 15SM FEW050 BKN100 04/M08 A3024 RMK CU1AC2 SLP277

CYQF;2009-04-30 17:00;CYQF 301700Z 00000KT 15SM SCT050 BKN100 08/M09 A3022 RMK CU3AC1 VIRGA SLP272

CYQF;2009-04-30 18:00;CYQF 301800Z CCA 31010G20KT 15SM BKN050 BKN250 07/M12 A3022 RMK CU5CI1 VIRGA ALQDS SLP271

CYQF;2009-04-30 19:00;CYQF 301900Z 31015G28KT 15SM BKN060 BKN250 06/M08 A3023 RMK CU6CI1 VIRGA ALQDS SLP273

CYQF;2009-04-30 20:00;CYQF 302000Z 33014G21KT 15SM BKN060 BKN250 06/M06 A3023 RMK CU6CI1 VIRGA ALQDS SLP275

CYQF;2009-04-30 21:00;CYQF 302100Z 33010G15KT 15SM SCT060 BKN250 06/M04 A3024 RMK CU4CI2 VIRGA ALQDS CB TOP N SLP280

CYQF;2009-04-30 21:39;CYQF 302139Z 36012G22KT 2SM -SHRAGS BKN030TCU BKN100 RMK TCU6AC1

CYQF;2009-04-30 21:57;CYQF 302157Z 34010G15KT 2SM -SHSN BKN031TCU OVC100 RMK TCU7AC1

CYQF;2009-04-30 22:00;CYQF 302200Z 33010G15KT 2SM -SHSN BKN031TCU OVC100 02/M01 A3026 RMK TCU7AC1 SLP287

CYQF;2009-04-30 22:20;CYQF 302220Z 29004KT 8SM VCSH FEW010 BKN030TCU BKN100 RMK CF1TCU6AC1

CYQF;2009-04-30 23:00;CYQF 302300Z 29010KT 10SM VCSH FEW010 BKN030 BKN100 04/01 A3025 RMK CF1CU5AC1 TCU ASOCTD SLP283

CYQF;2009-05-01 01:00;CYQF 010100Z 19003KT 15SM VCSH FEW010 BKN030TCU 04/M01 A3025 RMK CF1TCU6 VIRGA SLP289

CYQF;2009-05-01 02:00;CYQF 010200Z 17005KT 15SM FEW010 BKN030TCU BKN090 03/M01 A3025 RMK SF1TCU4AC1 HVY SH SE SLP288

CYQF;2009-05-01 03:00;CYQF 010300Z CCA 19005KT 15SM FEW010 SCT030 BKN090 02/M01 A3025 RMK SF1SC4AC2 SLP282

CYQF;2009-05-01 04:00;CYQF 010400Z 23007KT 15SM SCT030 BKN090 BKN250 01/M01 A3026 RMK SC3AC2CI1 SLP285

CYQF;2009-05-01 05:00;CYQF 010500Z 24006KT 15SM FEW090 SCT250 M00/M03 A3025 RMK AC1CI1 SLP284

CYQF;2009-05-01 06:00;CYQF 010600Z 23003KT 15SM FEW090 M01/M04 A3025 RMK AC1 SLP280

CYQF;2009-05-01 07:00;CYQF 010700Z 25003KT 15SM SKC M01/M04 A3025 RMK SLP280

CYQF;2009-05-01 08:00;CYQF 010800Z CCA 26004KT 15SM SKC M03/M05 A3025 RMK OBS TAKEN +07 SLP279

CYQF;2009-05-01 09:00;CYQF 010900Z 24006KT 15SM SKC M02/M05 A3024 RMK SLP278

CYQF;2009-05-01 10:00;CYQF 011000Z 26007KT 15SM SKC M03/M06 A3024 RMK SLP277

CYQF;2009-05-01 11:00;CYQF 011100Z 28005KT 15SM FEW090 M03/M06 A3023 RMK AC2 OBS TAKEN +09 SLP276

CYQF;2009-05-01 12:00;CYQF 011200Z 27006KT 15SM FEW090 SCT250 M04/M07 A3023 RMK AC2CI1 SLP279

CYQF;2009-05-01 13:00;CYQF 011300Z 24003KT 15SM FEW090 FEW250 M03/M06 A3022 RMK AC1CI2 SLP277

CYQF;2009-05-01 14:00;CYQF 011400Z 28006KT 15SM FEW250 00/M03 A3021 RMK CI0 SLP274

CYQF;2009-05-01 15:00;CYQF 011500Z 23003KT 15SM FEW250 04/M02 A3019 RMK CI0 SLP259

CYQF;2009-05-01 16:00;CYQF 011600Z 27008KT 15SM SCT250 07/M01 A3018 RMK CI1 SLP256

CYQF;2009-05-01 17:00;CYQF 011700Z 24007KT 15SM FEW250 09/M06 A3017 RMK CI0 SLP251

CYQF;2009-05-01 18:00;CYQF 011800Z 24011KT 15SM FEW250 09/M04 A3015 RMK CI0 SLP244

CYQF;2009-05-01 19:00;CYQF 011900Z 29008KT 15SM SCT250 11/M07 A3013 RMK CI0 SLP235

CYQF;2009-05-01 20:00;CYQF 012000Z 30006KT 15SM SCT250 12/M08 A3010 RMK CI0 SLP228

CYQF;2009-05-01 21:00;CYQF 012100Z 33015G20KT 15SM BKN250 13/M09 A3009 RMK CI0 SLP219

CYQF;2009-05-01 22:00;CYQF 012200Z 35008G15KT 15SM FEW060 BKN250 14/M08 A3007 RMK SC1CI2 SLP212

CYQF;2009-05-01 23:00;CYQF 012300Z 34012G17KT 15SM FEW060 BKN250 15/M10 A3005 RMK SC1CI2 SLP205

CYQF;2009-05-02 00:00;CYQF 020000Z 33010KT 15SM FEW060 SCT250 14/M09 A3004 RMK SC1CI2 SLP201

CYQF;2009-05-02 01:00;CYQF 020100Z 36008KT 15SM FEW250 15/M08 A3002 RMK CI1 SLP197

CYQF;2009-05-02 02:00;CYQF 020200Z 36007KT 15SM FEW250 13/M08 A3002 RMK CI0 SLP195

CYQF;2009-05-02 03:00;CYQF 020300Z 00000KT 15SM SKC 10/M07 A3001 RMK SLP188

CYQF;2009-05-02 04:00;CYQF 020400Z 00000KT 15SM SKC 06/M08 A3002 RMK SLP190

CYQF;2009-05-02 05:00;CYQF 020500Z 20004KT 15SM SKC 03/M07 A3002 RMK SLP190

CYQF;2009-05-02 06:00;CYQF 020600Z 22004KT 15SM SKC 02/M05 A3001 RMK SLP191

CYQF;2009-05-02 07:00;CYQF 020700Z 00000KT 15SM SKC M00/M08 A3002 RMK OBS TAKEN +16 SLP192

CYQF;2009-05-02 08:00;CYQF 020800Z 00000KT 15SM SKC M00/M08 A3002 RMK OBS TAKEN +10 SLP192

CYQF;2009-05-02 09:00;CYQF 020900Z 00000KT 15SM SKC M02/M09 A3001 RMK SLP192

CYQF;2009-05-02 10:00;CYQF 021000Z 19005KT 15SM FEW250 M02/M08 A3000 RMK CI1 SLP189

CYQF;2009-05-02 11:00;CYQF 021100Z 20005KT 15SM FEW250 M04/M09 A3000 RMK CI1 SLP189

CYQF;2009-05-02 12:00;CYQF 021200Z 23006KT 15SM FEW250 M03/M09 A3001 RMK CI1 SLP192

CYQF;2009-05-02 13:00;CYQF 021300Z 00000KT 15SM SKC M02/M07 A3001 RMK SLP191

CYQF;2009-05-02 14:00;CYQF 021400Z 00000KT 15SM SKC 03/M05 A3001 RMK SLP192

CYQF;2009-05-02 15:00;CYQF 021500Z 02004KT 15SM SKC 06/M04 A3002 RMK SLP187

CYQF;2009-05-02 16:00;CYQF 021600Z 03004KT 15SM SKC 10/M03 A3001 RMK SLP186

CYQF;2009-05-02 17:00;CYQF 021700Z 02005KT 15SM SKC 12/M01 A3000 RMK SLP183

CYQF;2009-05-02 18:00;CYQF 021800Z 02003KT 15SM SKC 14/M01 A3000 RMK SLP181

CYQF;2009-05-02 19:00;CYQF 021900Z 34004KT 15SM SKC 14/M02 A2998 RMK SLP176

CYQF;2009-05-02 20:00;CYQF 022000Z 32005KT 15SM SKC 15/M01 A2997 RMK SLP172

CYQF;2009-05-02 21:00;CYQF 022100Z 03005KT 15SM SKC 15/M01 A2995 RMK SLP168

CYQF;2009-05-02 22:00;CYQF 022200Z 11003KT 15SM SKC 15/M03 A2994 RMK SLP164

CYQF;2009-05-02 23:00;CYQF 022300Z 00000KT 15SM SKC 17/M01 A2992 RMK SLP157

CYQF;2009-05-03 00:00;CYQF 030000Z 00000KT 15SM SKC 17/M02 A2990 RMK SLP151

CYQF;2009-05-03 01:00;CYQF 030100Z 15007KT 15SM SKC 17/M02 A2989 RMK SLP146

CYQF;2009-05-03 02:00;CYQF 030200Z 13007KT 15SM SKC 16/M02 A2987 RMK SLP140

CYQF;2009-05-03 03:00;CYQF 030300Z CCA 09008KT 15SM FEW250 12/M02 A2986 RMK CI1 SLP132

CYQF;2009-05-03 04:00;CYQF 030400Z 09004KT 15SM FEW250 09/M04 A2986 RMK CI1 SLP132

CYQF;2009-05-03 05:00;CYQF 030500Z 15006KT 15SM FEW250 09/M04 A2986 RMK CI1 SLP131

CYQF;2009-05-03 06:00;CYQF 030600Z 15010KT 15SM FEW250 08/M04 A2985 RMK CI1 SLP124

CYQF;2009-05-03 07:00;CYQF 030700Z 14010KT 15SM SKC 06/M04 A2985 RMK SLP122

CYQF;2009-05-03 08:00;CYQF 030800Z 14011KT 15SM FEW250 05/M05 A2983 RMK CI1 SLP117

CYQF;2009-05-03 09:00;CYQF 030900Z 14013KT 15SM FEW250 05/M05 A2981 RMK CI1 SLP110

CYQF;2009-05-03 10:00;CYQF 031000Z 16010KT 15SM FEW250 04/M05 A2980 RMK CI2 SLP107

CYQF;2009-05-03 11:00;CYQF 031100Z 17004KT 15SM FEW250 04/M05 A2979 RMK CI1 SLP104

CYQF;2009-05-03 12:00;CYQF 031200Z 15005KT 15SM SCT250 02/M05 A2978 RMK CI2 SLP102

CYQF;2009-05-03 13:00;CYQF 031300Z 16006KT 15SM BKN250 03/M04 A2976 RMK CI2 SLP096

CYQF;2009-05-03 14:00;CYQF 031400Z 18012KT 15SM BKN250 10/M03 A2974 RMK CI2 SLP090

CYQF;2009-05-03 15:00;CYQF 031500Z 18015G20KT 15SM BKN250 11/M03 A2972 RMK CI2 SLP077

CYQF;2009-05-03 16:00;CYQF 031600Z 17020G25KT 15SM BKN260 14/M04 A2969 RMK CI2 SLP069

CYQF;2009-05-03 17:00;CYQF 031700Z 16015G20KT 15SM BKN260 16/M04 A2968 RMK CI3 SLP064

CYQF;2009-05-03 18:00;CYQF 031800Z 20010G15KT 15SM BKN260 17/M02 A2965 RMK CI3 SLP051

CYQF;2009-05-03 19:00;CYQF 031900Z 16010KT 15SM FEW090 BKN260 18/M02 A2963 RMK AC2CS4 SLP045

CYQF;2009-05-03 20:00;CYQF 032000Z 15010KT 15SM FEW050 SCT090 OVC260 19/M02 A2961 RMK CU1AC2CS2 SLP039

CYQF;2009-05-03 21:00;CYQF 032100Z CCA 21005KT 15SM FEW050 SCT090 OVC250 18/M02 A2959 RMK CU1AC2CS3 OBS TAKEN +07 SLP033

CYQF;2009-05-03 22:00;CYQF 032200Z 12003KT 15SM FEW050 FEW090 BKN250 19/M02 A2958 RMK CU1AC1CS2 SLP029

CYQF;2009-05-03 23:00;CYQF 032300Z 17007KT 15SM FEW050 SCT250 19/M02 A2956 RMK CU2CI2 SLP023

CYQF;2009-05-04 00:00;CYQF 040000Z 00000KT 15SM FEW060 SCT250 19/M02 A2955 RMK CU2CI1 SLP019

CYQF;2009-05-04 01:00;CYQF 040100Z 00000KT 15SM SCT060 SCT250 19/M03 A2954 RMK CU3CI1 TCU ASOCTD VIRGA SE-S-W SLP016

CYQF;2009-05-04 02:00;CYQF 040200Z 20010KT 15SM BKN060TCU BKN250 16/M01 A2954 RMK TCU6CI1 VIRGA SLP016

CYQF;2009-05-04 02:19;CYQF 040219Z 27020G31KT 15SM BKN070TCU BKN250 RMK TCU7CI1 VIRGA MICROBURST W

CYQF;2009-05-04 02:31;CYQF 040231Z 23010G15KT 15SM BKN070TCU RMK TCU6 VIRGA

CYQF;2009-05-04 03:00;CYQF 040300Z 28010G17KT 15SM BKN070TCU 15/M01 A2955 RMK TCU5 VIRGA ALQDS SLP015

CYQF;2009-05-04 04:00;CYQF 040400Z 27010G15KT 15SM BKN100 14/M02 A2957 RMK ACC6 VIRGA ALQDS SLP022

CYQF;2009-05-04 05:00;CYQF 040500Z 28015G25KT 15SM BKN100 BKN250 13/01 A2960 RMK ACC5CI0 VIRGA W SLP029

CYQF;2009-05-04 06:00;CYQF 040600Z 31015G24KT 15SM BKN100 11/01 A2961 RMK AC7 SLP032

CYQF;2009-05-04 07:00;CYQF 040700Z 31020G28KT 15SM BKN100 10/00 A2963 RMK AC6 SLP040

CYQF;2009-05-04 08:00;CYQF 040800Z 32015G23KT 15SM BKN070 09/01 A2966 RMK AC7 SLP049

CYQF;2009-05-04 09:00;CYQF 040900Z 36012KT 15SM BKN070 08/01 A2969 RMK AC7 SLP063

CYQF;2009-05-04 10:00;CYQF 041000Z 32010KT 15SM BKN070 08/01 A2970 RMK AC7 SLP065

CYQF;2009-05-04 11:00;CYQF 041100Z 30006KT 15SM BKN070 BKN250 07/01 A2971 RMK AC6CI0 SLP070

CYQF;2009-05-04 12:00;CYQF 041200Z 30007KT 15SM FEW040 BKN070 OVC250 05/M01 A2973 RMK CU2AC5CI0 SLP078

CYQF;2009-05-04 13:00;CYQF 041300Z 28005KT 15SM BKN090 OVC250 06/M02 A2975 RMK AC5CI2 SLP085

CYQF;2009-05-04 14:00;CYQF 041400Z 28004KT 15SM SCT090 BKN250 07/M03 A2976 RMK AC3CI2 SLP089

CYQF;2009-05-04 15:00;CYQF 041500Z 29010KT 15SM FEW090 BKN250 09/M02 A2977 RMK AC2CI3 SLP094

CYQF;2009-05-04 16:00;CYQF 041600Z 28007KT 15SM FEW050 FEW100 BKN250 09/M02 A2976 RMK SC1AC1CI2 SLP092

CYQF;2009-05-04 17:00;CYQF 041700Z 30010G15KT 15SM FEW050 FEW100 BKN250 12/M04 A2975 RMK CU1AC1CI1 OBS TAKEN +08 SLP087

CYQF;2009-05-04 18:00;CYQF 041800Z 29006KT 15SM FEW080 BKN250 13/M06 A2973 RMK CU1CI2 SLP080

CYQF;2009-05-04 19:00;CYQF 041900Z 28010G15KT 15SM FEW080 BKN250 14/M07 A2971 RMK CU1CI2 SLP073

CYQF;2009-05-04 20:00;CYQF 042000Z 32010G15KT 15SM FEW080 SCT250 16/M06 A2969 RMK CU2CI1 SLP066

CYQF;2009-05-04 21:00;CYQF 042100Z 23010G15KT 15SM SCT080 15/M08 A2967 RMK CU4 VIRGA SLP059

CYQF;2009-05-04 22:00;CYQF 042200Z 32010KT 15SM SCT080 16/M08 A2964 RMK CU4 VIRGA SLP050

CYQF;2009-05-04 23:00;CYQF 042300Z 27010G15KT 15SM SCT080 18/M08 A2962 RMK CU3 VIRGA SLP043

CYQF;2009-05-05 00:00;CYQF 050000Z 18002KT 15SM FEW080 17/M10 A2959 RMK CU2 SLP034

CYQF;2009-05-05 01:00;CYQF 050100Z 28011KT 15SM FEW080 17/M10 A2958 RMK CU1 SLP029

CYQF;2009-05-05 02:00;CYQF 050200Z 29005KT 15SM FEW080 FEW250 16/M11 A2956 RMK CU1CI1 TR CU SLP023

CYQF;2009-05-05 03:00;CYQF 050300Z 00000KT 15SM FEW250 11/M11 A2954 RMK CI1 SLP019

CYQF;2009-05-05 04:00;CYQF 050400Z 00000KT 15SM FEW250 09/M10 A2954 RMK CI1 SLP017

CYQF;2009-05-05 05:00;CYQF 050500Z 19004KT 15SM FEW250 04/M09 A2952 RMK CI1 SLP013

CYQF;2009-05-05 06:00;CYQF 050600Z 20003KT 15SM FEW250 03/M09 A2951 RMK CI1 SLP013

CYQF;2009-05-05 07:00;CYQF 050700Z 19004KT 15SM FEW250 00/M08 A2949 RMK CI1 SLP007

CYQF;2009-05-05 08:00;CYQF 050800Z 21007KT 15SM FEW250 01/M09 A2948 RMK CI1 SLP004

CYQF;2009-05-05 09:00;CYQF 050900Z 19004KT 15SM SCT250 M00/M08 A2946 RMK CI2 SLP997

CYQF;2009-05-05 10:00;CYQF 051000Z 14003KT 15SM BKN250 02/M07 A2943 RMK CI2 SLP988

CYQF;2009-05-05 11:00;CYQF 051100Z 35002KT 15SM FEW080 BKN250 00/M06 A2941 RMK AC2CI2 SLP980

CYQF;2009-05-05 12:00;CYQF 051200Z 20006KT 15SM SCT080 BKN250 01/M07 A2940 RMK AC3CI2 SLP973

CYQF;2009-05-05 13:00;CYQF 051300Z 17004KT 15SM BKN080 OVC250 02/M06 A2940 RMK AC5CI2 SLP971

CYQF;2009-05-05 14:00;CYQF 051400Z 17004KT 15SM BKN080 OVC250 05/M04 A2938 RMK AC6CI1 VIRGA SLP967

CYQF;2009-05-05 15:00;CYQF 051500Z 21006KT 15SM SCT030 BKN080 OVC250 07/M04 A2937 RMK SC3AC3CI1 VIRGA SLP960

CYQF;2009-05-05 15:41;CYQF 051541Z 27018G26KT 15SM VCSH BKN030TCU BKN080 BKN250 RMK TCU5AC2CI1 WND SHFT

CYQF;2009-05-05 16:00;CYQF 051600Z 27010G16KT 15SM BKN030TCU BKN080 BKN250 11/01 A2936 RMK TCU6AC1CI1 CI TR SLP958

CYQF;2009-05-05 17:00;CYQF 051700Z 31008KT 15SM BKN030 BKN080 OVC250 11/M00 A2936 RMK SC6AC1CI1 VIRGA TCU EMBD SLP957

CYQF;2009-05-05 18:00;CYQF 051800Z 32010G15KT 15SM FEW030TCU SCT050 BKN080 BKN250 12/M00 A2936 RMK TCU2CU1AC2CI1 VIRGA NW-NE SLP959

CYQF;2009-05-05 19:00;CYQF 051900Z 34010G15KT 15SM FEW050TCU SCT100 BKN250 15/M01 A2934 RMK TCU2AC2CI2 E-W LINE TCU S CB SW SLP953

CYQF;2009-05-05 20:00;CYQF 052000Z 32010G15KT 15SM FEW050TCU SCT100 BKN250 15/M02 A2933 RMK TCU2AC2CI2 SHWRS SW SLP951

CYQF;2009-05-05 21:00;CYQF 052100Z 33009KT 15SM FEW055TCU SCT100 BKN250 15/M01 A2933 RMK TCU2AC2CI2 SLP951

CYQF;2009-05-05 22:00;CYQF 052200Z 35012KT 15SM FEW055TCU SCT100 BKN250 15/M01 A2934 RMK TCU2AC2CI2 SHRA S SLP953

CYQF;2009-05-05 23:00;CYQF 052300Z 21009KT 15SM VCSH SCT050TCU BKN100 BKN250 13/00 A2936 RMK TCU4AC2CI2 SLP959

CYQF;2009-05-05 23:11;CYQF 052311Z 31018G30KT 15SM -SHRA BKN050TCU BKN250 RMK TCU5CI2

CYQF;2009-05-05 23:42;CYQF 052342Z 20008KT 15SM SCT050TCU BKN100 BKN250 RMK TCU3AC2CI1 SHRA SE

CYQF;2009-05-06 00:00;CYQF 060000Z 20011KT 15SM SCT050TCU BKN100 BKN250 13/03 A2937 RMK TCU3AC2CI1 SLP967

CYQF;2009-05-06 00:38;CYQF 060038Z 24005KT 15SM TS VCSH BKN050CB BKN100 RMK CB5AC2 LTGCG N

CYQF;2009-05-06 01:00;CYQF 060100Z 22003KT 15SM TS VCSH BKN050CB BKN100 12/01 A2939 RMK CB5AC2 SLP974

CYQF;2009-05-06 01:30;CYQF 060130Z 26002KT 15SM VCSH SCT050CB BKN100 BKN250 RETS RMK CB4AC2CI1

CYQF;2009-05-06 02:00;CYQF 060200Z 27010KT 15SM SCT050CB BKN090 BKN250 11/01 A2942 RETS RMK CB3AC2CI1 SH W QUAD SLP981

CYQF;2009-05-06 02:20;CYQF 060220Z 29020G30KT 15SM -SHRA BKN050CB BKN090 BKN250 RMK CB6AC1CI1

CYQF;2009-05-06 02:50;CYQF 060250Z 29010G15KT 15SM VCSH BKN050CB BKN090 BKN250 RMK CB5AC2CI1

CYQF;2009-05-06 03:00;CYQF 060300Z 28008KT 15SM VCSH BKN050CB BKN090 BKN250 09/03 A2946 RMK CB5AC2CI1 SLP993

CYQF;2009-05-06 04:00;CYQF 060400Z 28008KT 15SM SCT050TCU BKN080 BKN250 08/02 A2947 RMK TCU3AC2CI1 SLP997

CYQF;2009-05-06 05:00;CYQF 060500Z 30008KT 15SM BKN050 BKN080 09/01 A2950 RMK SC6AC2 SLP005

CYQF;2009-05-06 06:00;CYQF 060600Z 30012G20KT 15SM BKN060 10/00 A2951 RMK SC7 SLP006

CYQF;2009-05-06 07:00;CYQF 060700Z 33015G26KT 15SM VCSH BKN050 10/M00 A2955 RMK SC7 SLP017

CYQF;2009-05-06 08:00;CYQF 060800Z 30012G20KT 15SM VCSH BKN050 08/01 A2958 RMK SC7 SLP026

CYQF;2009-05-06 09:00;CYQF 060900Z 29018G28KT 15SM FEW050 SCT080 08/00 A2960 RMK SC2AC2 SLP036

CYQF;2009-05-06 10:00;CYQF 061000Z 30012G20KT 15SM FEW050 BKN080 07/M00 A2962 RMK SC2AC4 SLP041

CYQF;2009-05-06 11:00;CYQF 061100Z 29010G17KT 15SM FEW040 BKN090 BKN250 07/M00 A2964 RMK SC2AC3CI1 SLP046

CYQF;2009-05-06 12:00;CYQF 061200Z 31010G15KT 15SM FEW040 SCT090 BKN250 07/00 A2966 RMK SC2AC2CI2 SLP060

CYQF;2009-05-06 13:00;CYQF 061300Z 31012G18KT 15SM FEW050 SCT090 BKN250 07/01 A2967 RMK SC2AC1CI1 VIRGA SLP063

CYQF;2009-05-06 14:00;CYQF 061400Z 30015G20KT 15SM FEW080 BKN250 08/01 A2968 RMK ACC2CI2 VIRGA SE-SW SH DIST W SLP067

CYQF;2009-05-06 15:00;CYQF 061500Z 30015G21KT 15SM FEW030TCU SCT080 BKN250 08/01 A2970 RMK TCU1ACC2CI2 VIRGA NW SLP076

CYQF;2009-05-06 16:00;CYQF 061600Z 31015G20KT 15SM FEW030 SCT080 BKN250 09/00 A2969 RMK SC1AC3CI2 SLP073

CYQF;2009-05-06 17:00;CYQF 061700Z 32013G18KT 15SM FEW040 SCT080 BKN250 10/M01 A2970 RMK CU2AC2CI3 SLP076

CYQF;2009-05-06 18:00;CYQF 061800Z 34010G15KT 15SM FEW045 BKN250 11/M01 A2969 RMK CU1CI6 CU TR SLP069

CYQF;2009-05-06 19:00;CYQF 061900Z 33010KT 15SM FEW050 SCT100 BKN250 12/M02 A2969 RMK CU1AC2CI3 SLP069

CYQF;2009-05-06 20:00;CYQF 062000Z 33012KT 15SM FEW055 FEW100 BKN250 13/M01 A2968 RMK CU2AC1CI2 TCU ASOCTD VIRGA SLP065

CYQF;2009-05-06 21:00;CYQF 062100Z 33011KT 15SM VCSH SCT055TCU BKN100 BKN250 15/00 A2966 RMK TCU3AC1CI0 SLP058

CYQF;2009-05-06 21:41;CYQF 062141Z 28020G25KT 15SM -SHRA BKN050CB BKN100 BKN250 RMK CB5AC1CI1

CYQF;2009-05-06 22:00;CYQF 062200Z 27010G15KT 15SM -SHRA BKN050CB BKN090 BKN250 09/03 A2970 RMK CB6AC1CI1 SLP068

CYQF;2009-05-06 22:35;CYQF 062235Z 32008KT 15SM VCSH SCT050CB BKN090 BKN250 RMK CB4AC2CI1

CYQF;2009-05-06 23:00;CYQF 062300Z 36005KT 15SM FEW050CB BKN090 BKN250 12/M00 A2966 RMK CB2AC2CI1 SH E QUAD SLP057

CYQF;2009-05-07 00:00;CYQF 070000Z 34010KT 15SM FEW050CB SCT090 BKN250 13/M00 A2966 RMK CB2AC2CI1 SLP058

CYQF;2009-05-07 01:00;CYQF 070100Z 36005KT 15SM FEW050TCU FEW090 BKN250 13/M00 A2966 RMK TCU1AC1CI1 SLP059

CYQF;2009-05-07 02:00;CYQF 070200Z 05006KT 15SM FEW050TCU FEW100 BKN250 12/M01 A2967 RMK TCU1ACC1CI2 SLP063

CYQF;2009-05-07 03:00;CYQF 070300Z 01010KT 15SM FEW050 SCT100 BKN250 10/00 A2970 RMK CU2AC2CI2 SLP075

CYQF;2009-05-07 04:00;CYQF 070400Z 05006KT 15SM FEW050 SCT100 BKN250 08/02 A2972 RMK CU2AC2CI2 OBS TAKEN +16 SLP083

CYQF;2009-05-07 05:00;CYQF 070500Z 17005KT 15SM FEW050 SCT100 BKN250 05/00 A2974 RMK SC1AC3CI0 SLP088

CYQF;2009-05-07 06:00;CYQF 070600Z 00000KT 15SM FEW050 SCT100 06/01 A2972 RMK CU2AC2 VIRGA NE SLP083

CYQF;2009-05-07 07:00;CYQF 070700Z 00000KT 15SM FEW050 BKN100 06/01 A2975 RMK SC2AC4 VIRGA NE SLP091

CYQF;2009-05-07 07:33;CYQF 070733Z 15002KT 15SM -SHRA BKN050 BKN100 RMK SC5AC2

CYQF;2009-05-07 08:00;CYQF 070800Z 04004KT 15SM FEW050 SCT100 06/02 A2974 RMK SC2AC2 SLP088

CYQF;2009-05-07 09:00;CYQF 070900Z 00000KT 15SM SCT050 05/01 A2973 RMK SC4 SLP084

CYQF;2009-05-07 10:00;CYQF 071000Z 33005KT 15SM FEW050 SCT100 02/M01 A2974 RMK SC2AC2 SLP086

CYQF;2009-05-07 11:00;CYQF 071100Z 34002KT 15SM FEW090 02/M01 A2975 RMK AC2 SLP090

CYQF;2009-05-07 12:00;CYQF 071200Z 01003KT 15SM FEW040 SCT090 BKN250 02/M01 A2975 RMK SC1AC2CI1 VIRGA S SLP096

CYQF;2009-05-07 13:00;CYQF 071300Z 00000KT 15SM FEW080 BKN250 01/M02 A2976 RMK AC2CI2 VIRGA S ACC ASOCTD SLP099

CYQF;2009-05-07 14:00;CYQF 071400Z 00000KT 15SM FEW080 BKN250 03/00 A2977 RMK ACC2CI1 HALO SLP103

CYQF;2009-05-07 15:00;CYQF 071500Z 33004KT 15SM FEW080 BKN250 06/02 A2979 RMK ACC2CI2 SLP109

CYQF;2009-05-07 16:00;CYQF 071600Z 35004KT 15SM FEW020 SCT080 BKN250 08/03 A2979 RMK CU2AC2CI1 SLP110

CYQF;2009-05-07 17:00;CYQF 071700Z 03007KT 15SM FEW020 BKN080 BKN250 10/03 A2980 RMK CU2AC2CI1 SLP112

CYQF;2009-05-07 18:00;CYQF 071800Z CCA 35006KT 15SM BKN045TCU BKN080 BKN250 10/02 A2981 RMK TCU5AC1CI1 VIRGA SLP114

CYQF;2009-05-07 19:00;CYQF 071900Z 01010KT 15SM BKN050TCU BKN080 BKN250 11/02 A2981 RMK TCU5AC1CI1 SH SW SLP115

CYQF;2009-05-07 20:00;CYQF 072000Z 30010KT 15SM VCSH BKN040TCU BKN250 12/01 A2981 RMK TCU6CI2 SLP115

CYQF;2009-05-07 21:00;CYQF 072100Z 36008KT 15SM SCT050TCU BKN100 BKN250 11/M02 A2983 RMK TCU3AC2CI2 SLP121

CYQF;2009-05-07 22:00;CYQF 072200Z 36006KT 15SM SCT050TCU BKN100 BKN250 12/M02 A2983 RMK TCU3AC2CI1 SH SW SLP122

CYQF;2009-05-07 23:00;CYQF 072300Z 03002KT 15SM SCT060TCU BKN100 BKN250 13/01 A2984 RMK TCU3AC2CI0 VIRGA SLP124

CYQF;2009-05-08 00:00;CYQF 080000Z CCA 17008KT 15SM SCT060TCU BKN100 BKN250 12/01 A2985 RMK TCU4AC2CI1 VIRGA SLP133

CYQF;2009-05-08 00:40;CYQF 080040Z 16003KT 15SM -SHRA BKN050TCU BKN100 BKN250 RMK TCU5AC2CI1

CYQF;2009-05-08 01:00;CYQF 080100Z 14011KT 15SM -SHRA BKN050TCU BKN100 BKN250 11/03 A2987 RMK TCU6AC1CI1 SLP139

CYQF;2009-05-08 01:32;CYQF 080132Z 15005KT 15SM VCSH SCT050TCU BKN100 BKN250 RMK TCU3AC2CI1

CYQF;2009-05-08 02:00;CYQF 080200Z 22004KT 15SM SCT050 BKN100 BKN250 11/00 A2988 RMK CU4AC2CI1 TCU EMBDD VIRGA/SH SW-W SLP142

CYQF;2009-05-08 03:00;CYQF 080300Z CCA 23012KT 15SM VCSH BKN050 BKN100 09/02 A2991 RMK CU5AC2 TCU EMBDD SHS DIST W-NW SLP150

CYQF;2009-05-08 04:00;CYQF 080400Z 00000KT 15SM SCT050 BKN100 06/00 A2993 RMK CU4AC2 TCU EMBDD SHS DIST W SLP157

CYQF;2009-05-08 05:00;CYQF 080500Z 29005KT 15SM SCT050 SCT100 07/M01 A2994 RMK CU3AC1 VIRGA SLP160

CYQF;2009-05-08 06:00;CYQF 080600Z 29011KT 15SM FEW050 BKN100 07/M01 A2996 RMK CU2AC2 VIRGA SLP167

CYQF;2009-05-08 07:00;CYQF 080700Z 30010G15KT 15SM SCT090 05/M01 A2998 RMK AC3 OBS TAKEN +18 SLP173

CYQF;2009-05-08 08:00;CYQF 080800Z 29012G18KT 15SM FEW090 04/M01 A2998 RMK AC2 SLP174

CYQF;2009-05-08 09:00;CYQF 080900Z 29010KT 15SM FEW090 03/M01 A3000 RMK AC2 SLP183

CYQF;2009-05-08 10:00;CYQF 081000Z 30008KT 15SM FEW050 SCT090 03/M02 A3001 RMK SC2AC2 SLP187

CYQF;2009-05-08 11:00;CYQF 081100Z 31008KT 15SM FEW090 02/M02 A3003 RMK AC2 SLP192

CYQF;2009-05-08 12:00;CYQF 081200Z 31007KT 15SM BKN070 02/M02 A3004 RMK AC5 ACC S SLP197

CYQF;2009-05-08 13:00;CYQF 081300Z 29012KT 15SM BKN070 04/M01 A3005 RMK AC6 ACC ASOCTD SLP201

CYQF;2009-05-08 14:00;CYQF 081400Z 30010G15KT 15SM FEW030 BKN070 05/00 A3006 RMK SC2AC4 ACC VIRGA SLP204

CYQF;2009-05-08 15:00;CYQF 081500Z 31020G25KT 15SM FEW020 BKN050 BKN080 07/01 A3007 RMK CF2SC3AC2 SLP208

CYQF;2009-05-08 16:00;CYQF 081600Z 32015G20KT 15SM SCT025 BKN050 BKN080 08/01 A3008 RMK CU3SC3AC1 SLP209

CYQF;2009-05-08 17:00;CYQF 081700Z 31016G22KT 15SM SCT030 BKN060 BKN240 09/01 A3008 RMK CU3SC2CI0 SLP209

CYQF;2009-05-08 18:00;CYQF 081800Z 32015G20KT 15SM FEW030 BKN050 09/01 A3009 RMK CU2SC5 SLP213

CYQF;2009-05-08 19:00;CYQF 081900Z 30011G16KT 15SM BKN040 10/01 A3009 RMK SC6 SLP212

CYQF;2009-05-08 20:00;CYQF 082000Z 32010KT 15SM BKN040 BKN250 11/01 A3007 RMK CU5CI1 SLP208

CYQF;2009-05-08 21:00;CYQF 082100Z 33011G16KT 15SM SCT040 BKN250 12/01 A3007 RMK CU3CI1 SLP206

CYQF;2009-05-08 22:00;CYQF 082200Z 31010G16KT 15SM BKN050 BKN250 13/M00 A3006 RMK CU6CI1 SLP204

CYQF;2009-05-08 23:00;CYQF 082300Z 33007KT 15SM BKN050 BKN250 13/M01 A3007 RMK CU6CI1 SLP206

CYQF;2009-05-09 00:00;CYQF 090000Z 03011KT 15SM BKN050 BKN250 11/01 A3007 RMK CU6CI2 TCU EMBD SHS NW+NE-E SLP210

CYQF;2009-05-09 01:00;CYQF 090100Z 01006KT 15SM FEW040 BKN080 BKN250 11/01 A3008 RMK CU2AC2CI1 TCU EMBD SHS S SLP212

CYQF;2009-05-09 02:00;CYQF 090200Z 35005KT 15SM VCSH SCT040 BKN080 BKN250 11/01 A3009 RMK CU3AC2CI1 TCU EMBD SLP215

CYQF;2009-05-09 02:20;CYQF 090220Z 30005KT 15SM -SHRA BKN040 BKN080 BKN250 RMK CU5AC2CI1 TCU EMBD

CYQF;2009-05-09 02:52;CYQF 090252Z 26007KT 15SM VCSH BKN030 BKN080 OVC250 RMK CU5AC2CI1

CYQF;2009-05-09 03:00;CYQF 090300Z 25005KT 15SM VCSH BKN030 BKN080 OVC250 08/02 A3011 RMK CU5AC2CI1 TCU ASOCTD SLP222

CYQF;2009-05-09 03:25;CYQF 090325Z 31012G19KT 15SM -SHRA BKN030 BKN080 OVC250 RMK CU6AC2CI1 TCU EMBD

CYQF;2009-05-09 04:00;CYQF 090400Z 34005KT 15SM -SHRA BKN030 OVC080 07/04 A3014 RMK SC6AC2 TCU EMBD SLP231

CYQF;2009-05-09 05:00;CYQF 090500Z 32006KT 15SM -SHRA BKN035 OVC080 06/04 A3015 RMK SC6AC2 TCU ASOCTD SLP234

CYQF;2009-05-09 05:16;CYQF 090516Z 30007KT 15SM BKN040 OVC080 RMK SC6AC1

CYQF;2009-05-09 06:00;CYQF 090600Z 30005KT 15SM BKN050 06/04 A3015 RMK SC6 SLP235

CYQF;2009-05-09 07:00;CYQF 090700Z 29005KT 15SM FEW040 BKN070 06/03 A3015 RMK SC2AC4 SLP235

CYQF;2009-05-09 08:00;CYQF 090800Z 29005KT 15SM BKN045 BKN070 06/03 A3015 RMK SC5AC2 SLP235

CYQF;2009-05-09 09:00;CYQF 090900Z 29005KT 15SM FEW040 BKN090 05/02 A3015 RMK SC2AC5 SLP231

CYQF;2009-05-09 10:00;CYQF 091000Z 28006KT 15SM BKN090 05/02 A3015 RMK AC5 SLP231

CYQF;2009-05-09 11:00;CYQF 091100Z 29008KT 15SM SCT060 BKN100 04/01 A3015 RMK SC4AC2 SLP233

CYQF;2009-05-09 12:00;CYQF 091200Z 30007KT 15SM BKN050 BKN100 04/01 A3016 RMK SC5AC1 SLP239

CYQF;2009-05-09 13:00;CYQF 091300Z 31008KT 15SM SCT060 BKN100 04/01 A3017 RMK SC3AC2 SLP242

CYQF;2009-05-09 14:00;CYQF 091400Z 31006KT 15SM FEW060 SCT100 06/02 A3018 RMK CU2AC2 SLP245

CYQF;2009-05-09 15:00;CYQF 091500Z 34012KT 15SM FEW050 SCT100 08/03 A3018 RMK SC2AC2 SLP245

CYQF;2009-05-09 16:00;CYQF 091600Z 31010KT 15SM FEW040 SCT100 09/03 A3018 RMK CU2AC2 VIRGA W SLP244

CYQF;2009-05-09 17:00;CYQF 091700Z 33007KT 15SM SCT035 BKN090 BKN250 10/02 A3018 RMK CU4AC1CI1 FEW TCU TR CI SLP243

CYQF;2009-05-09 18:00;CYQF 091800Z 35007KT 15SM BKN040TCU BKN250 12/02 A3017 RMK TCU6CI1 SHS DIST W SLP237

CYQF;2009-05-09 18:31;CYQF 091831Z 36010G18KT 15SM -SHRAGR BKN040CB RMK CB6 HAIL DIAM 3MM

CYQF;2009-05-09 18:48;CYQF 091848Z 36008KT 15SM -SHRA BKN040TCU RMK TCU6

CYQF;2009-05-09 19:00;CYQF 091900Z 00000KT 15SM BKN035TCU BKN090 11/04 A3016 RMK TCU6AC1 SHS ALQDS SLP235

CYQF;2009-05-09 19:32;CYQF 091932Z 33015G25KT 15SM -SHRA BKN035TCU BKN090 RMK TCU6AC1

CYQF;2009-05-09 20:00;CYQF 092000Z 26010KT 15SM BKN035TCU BKN090 10/03 A3017 RMK TCU6AC1 CB ASOCTD NW+SE SHS NW+SE SLP237

CYQF;2009-05-09 21:00;CYQF 092100Z 31014G22KT 15SM BKN040TCU BKN090 BKN250 12/02 A3016 RMK TCU5AC1CI1 CB ASOCTD SHS W-NW SLP235

CYQF;2009-05-09 21:35;CYQF 092135Z 32014G25KT 15SM -SHRA BKN035TCU BKN090 BKN250 RMK TCU5AC1CI1 CB ASOCTD

CYQF;2009-05-09 22:00;CYQF 092200Z 31008KT 15SM -SHRA SCT030TCU BKN090 BKN250 09/03 A3016 RMK TCU4AC2CI1 CB ASOCTD SLP236

CYQF;2009-05-09 22:22;CYQF 092222Z 34008KT 15SM SCT030TCU BKN090 BKN250 RMK TCU3AC2CI2

CYQF;2009-05-09 23:00;CYQF 092300Z 30013KT 15SM FEW030TCU BKN250 13/01 A3015 RMK TCU2CI2 SLP231

CYQF;2009-05-10 00:00;CYQF 100000Z 30010KT 15SM FEW040TCU BKN250 13/01 A3014 RMK TCU2CI2 CB TOP N SLP229

CYQF;2009-05-10 01:00;CYQF 100100Z 30005KT 15SM FEW040 SCT100 BKN250 13/00 A3014 RMK CU2AC1CI1 VIRGA CB ASOCTD SLP228

CYQF;2009-05-10 02:00;CYQF 100200Z 04009KT 15SM FEW040 SCT100 BKN250 12/01 A3014 RMK CU2AC1CI0 VIRGA SLP229

CYQF;2009-05-10 03:00;CYQF 100300Z 08005KT 15SM FEW040 FEW100 BKN250 09/02 A3015 RMK CU1AC1CI1 CB TOP SSW SLP230

CYQF;2009-05-10 04:00;CYQF 100400Z 00000KT 15SM FEW040 FEW100 05/00 A3016 RMK CU1AC1 SLP235

CYQF;2009-05-10 05:00;CYQF 100500Z 00000KT 15SM FEW100 06/01 A3017 RMK AC1 SLP237

CYQF;2009-05-10 06:00;CYQF 100600Z 00000KT 15SM SKC 02/M02 A3016 RMK SLP240

CYQF;2009-05-10 07:00;CYQF 100700Z 16003KT 15SM SKC 03/M01 A3016 RMK SLP240

CYQF;2009-05-10 08:00;CYQF 100800Z 18003KT 15SM SKC 01/M02 A3016 RMK SLP239

CYQF;2009-05-10 09:00;CYQF 100900Z 00000KT 15SM SKC 00/M02 A3015 RMK SLP240

CYQF;2009-05-10 10:00;CYQF 101000Z 24005KT 15SM SKC M01/M04 A3015 RMK SLP237

CYQF;2009-05-10 11:00;CYQF 101100Z 21002KT 15SM SKC M02/M05 A3015 RMK SLP238

CYQF;2009-05-10 12:00;CYQF 101200Z 21004KT 15SM SKC M03/M06 A3015 RMK SLP239

CYQF;2009-05-10 13:00;CYQF 101300Z 20003KT 15SM SKC M01/M03 A3015 RMK SLP239

CYQF;2009-05-10 14:00;CYQF 101400Z 23003KT 15SM SKC 03/00 A3015 RMK SLP240

CYQF;2009-05-10 15:00;CYQF 101500Z 00000KT 15SM SKC 07/01 A3014 RMK SLP231

CYQF;2009-05-10 16:00;CYQF 101600Z 00000KT 15SM FEW032 11/02 A3013 RMK CU1 SLP226

CYQF;2009-05-10 17:00;CYQF 101700Z 00000KT 15SM FEW040 14/02 A3011 RMK CU2 TCU TPS DIST SW SLP220

CYQF;2009-05-10 18:00;CYQF 101800Z CCA 19006KT 15SM SCT045 14/M01 A3009 RMK CU4 TCU ASOCTD W SLP213

CYQF;2009-05-10 19:00;CYQF 101900Z 19007KT 15SM BKN055TCU 14/M01 A3007 RMK TCU5 CB TPS DIST W SLP206

CYQF;2009-05-10 20:00;CYQF 102000Z 00000KT 15SM BKN060TCU BKN250 16/M01 A3004 RMK TCU5CI1 CB TPS DIST W SLP197

CYQF;2009-05-10 21:00;CYQF 102100Z 18008KT 15SM BKN060TCU BKN250 16/M02 A3002 RMK TCU5CI1 CB EMBD W SHS SW-W-NW SLP188

CYQF;2009-05-10 22:00;CYQF 102200Z 24010G17KT 15SM BKN060TCU BKN090 BKN250 15/M03 A3000 RMK TCU5AC1CI0 CB EMBD DIST W SHS SW+DIST W VIRGA SLP181

CYQF;2009-05-10 23:00;CYQF 102300Z 18002KT 15SM SCT060 BKN250 16/M02 A2998 RMK CU4CI1 TCU ASOCTD SLP175

CYQF;2009-05-11 00:00;CYQF 110000Z 20010KT 15SM SCT060TCU BKN250 16/M02 A2996 RMK TCU3CI2 CB DIST W SLP173

CYQF;2009-05-11 01:00;CYQF 110100Z 20010G15KT 15SM SCT060TCU BKN250 15/M01 A2995 RMK TCU4CI2 CB W+N VIRGA SLP169

CYQF;2009-05-11 02:00;CYQF 110200Z 19010KT 15SM SCT060TCU BKN250 14/M01 A2993 RMK TCU3CI2 CB ASOCTD VIRGA SLP162

CYQF;2009-05-11 03:00;CYQF 110300Z 00000KT 15SM FEW060TCU SCT120 BKN250 13/M01 A2992 RMK TCU2AC2CI2 CB SW SLP148

CYQF;2009-05-11 04:00;CYQF 110400Z 00000KT 15SM BKN060 BKN120 BKN250 11/M01 A2992 RMK CU5AC1CI1 TCU VIRGA ASOCTD SLP148

CYQF;2009-05-11 05:00;CYQF 110500Z 00000KT 15SM FEW050 SCT120 11/M02 A2991 RMK SC2AC1 SLP145

CYQF;2009-05-11 06:00;CYQF 110600Z 31003KT 15SM FEW050 SCT120 07/M02 A2990 RMK SC2AC2 SLP141

CYQF;2009-05-11 07:00;CYQF 110700Z 31006KT 15SM FEW120 06/M03 A2987 RMK AC2 SLP132

CYQF;2009-05-11 08:00;CYQF 110800Z 00000KT 15SM SKC 04/M04 A2986 RMK SLP129

CYQF;2009-05-11 09:00;CYQF 110900Z 18005KT 15SM SKC 03/M04 A2985 RMK SLP125

CYQF;2009-05-11 10:00;CYQF 111000Z 00000KT 15SM SKC 01/M04 A2984 RMK SLP122

CYQF;2009-05-11 11:00;CYQF 111100Z 00000KT 15SM SKC 01/M04 A2982 RMK SLP118

CYQF;2009-05-11 12:00;CYQF 111200Z 21005KT 15SM SKC M01/M06 A2980 RMK SLP113

CYQF;2009-05-11 13:00;CYQF 111300Z 21004KT 15SM FEW100 FEW250 M00/M04 A2979 RMK AC1CI1 SLP109

CYQF;2009-05-11 14:00;CYQF 111400Z 23006KT 15SM FEW100 SCT250 05/M02 A2978 RMK AC2CI1 SLP108

CYQF;2009-05-11 15:00;CYQF 111500Z 25006KT 15SM FEW100 SCT250 09/M00 A2977 RMK AC1CI1 SLP095

CYQF;2009-05-11 16:00;CYQF 111600Z 27003KT 15SM FEW050 BKN250 12/M00 A2975 RMK CU1CI2 SLP088

CYQF;2009-05-11 17:00;CYQF 111700Z 25003KT 15SM FEW050 BKN250 14/M01 A2973 RMK CU1CI2 SLP083

CYQF;2009-05-11 18:00;CYQF 111800Z 00000KT 15SM FEW050 BKN250 16/M02 A2971 RMK CU1CI2 SLP073

CYQF;2009-05-11 19:00;CYQF 111900Z 16007KT 15SM FEW050 BKN250 17/M04 A2968 RMK CU2CI2 SLP066

CYQF;2009-05-11 20:00;CYQF 112000Z 23006KT 15SM SCT050 BKN250 18/M02 A2966 RMK CU4CI2 SLP058

CYQF;2009-05-11 21:00;CYQF 112100Z 20008KT 15SM SCT060 BKN250 18/M04 A2964 RMK CU4CI2 VIRGA SLP051

CYQF;2009-05-11 22:00;CYQF 112200Z 26005KT 15SM SCT060 BKN250 18/M05 A2962 RMK CU3CI2 VIRGA SLP046

CYQF;2009-05-11 23:00;CYQF 112300Z 20007KT 15SM SCT060 BKN250 18/M04 A2959 RMK CU3CI2 VIRGA SLP038

CYQF;2009-05-12 00:00;CYQF 120000Z 19008KT 15SM SCT060 BKN250 18/M04 A2957 RMK CU3CI2 VIRGA SLP033

CYQF;2009-05-12 01:00;CYQF 120100Z CCA 20010KT 15SM SCT060 BKN250 17/M03 A2956 RMK CU3CI2 TCU ASOCTD SH S SLP028

CYQF;2009-05-12 02:00;CYQF 120200Z 20008KT 15SM FEW060TCU BKN250 15/M02 A2955 RMK TCU2CI2 VIRGA SLP025

CYQF;2009-05-12 03:00;CYQF 120300Z 21004KT 15SM FEW060 BKN250 13/M02 A2954 RMK SC2CI2 TCU ASOCTD VIRGA SLP016

CYQF;2009-05-12 04:00;CYQF 120400Z 16002KT 15SM FEW060 BKN250 11/M02 A2954 RMK SC2CI2 TCU ASOCTD VIRGA SLP015

CYQF;2009-05-12 05:00;CYQF 120500Z 19003KT 15SM FEW060 SCT250 08/M02 A2953 RMK SC2CI1 SLP013

CYQF;2009-05-12 06:00;CYQF 120600Z 18004KT 15SM FEW060 FEW250 07/M02 A2952 RMK SC2CI1 SLP008

CYQF;2009-05-12 07:00;CYQF 120700Z 00000KT 15SM FEW090 FEW250 06/M02 A2952 RMK AC1CI2 SLP007

CYQF;2009-05-12 08:00;CYQF 120800Z 25005KT 15SM FEW090 04/M03 A2951 RMK AC2 OBS TAKEN +06 SLP006

CYQF;2009-05-12 09:00;CYQF 120900Z 26003KT 15SM FEW090 SCT250 04/M04 A2951 RMK AC2CI0 OBS TAKEN +07 SLP005

CYQF;2009-05-12 10:00;CYQF 121000Z 29005KT 15SM FEW090 SCT250 05/M03 A2950 RMK AC2CI1 SLP002

CYQF;2009-05-12 11:00;CYQF 121100Z 29006KT 15SM FEW090 SCT250 03/M04 A2950 RMK AC2CI1 SLP003

CYQF;2009-05-12 12:00;CYQF 121200Z 33005KT 15SM FEW050 SCT090 BKN250 04/M02 A2950 RMK SC2AC2CI0 FEW CU VIRGA SLP002

CYQF;2009-05-12 13:00;CYQF 121300Z 33005KT 15SM SCT050 SCT090 BKN250 07/01 A2951 RMK SC3AC1CI0 CU ASOCTD SLP005

CYQF;2009-05-12 14:00;CYQF 121400Z 32010KT 15SM SCT050 SCT090 BKN250 07/01 A2952 RMK SC3AC1CI1 CU ASOCTD SLP007

CYQF;2009-05-12 15:00;CYQF 121500Z 33010G15KT 15SM FEW050 FEW090 BKN250 09/01 A2951 RMK CU2AC1CI1 SLP005

CYQF;2009-05-12 16:00;CYQF 121600Z 35015G23KT 15SM FEW030 SCT070 SCT250 11/01 A2949 RMK CU2AC1CI1 SLP000

CYQF;2009-05-12 17:00;CYQF 121700Z 32020G26KT 15SM BKN031 12/02 A2950 RMK CU7 SLP002

CYQF;2009-05-12 18:00;CYQF 121800Z 34015G22KT 15SM BKN030 11/01 A2951 RMK CU7 SLP010

CYQF;2009-05-12 19:00;CYQF 121900Z 34020G29KT 15SM BKN030 10/00 A2953 RMK CU7 SLP016

CYQF;2009-05-12 20:00;CYQF 122000Z 34020G31KT 15SM OVC025 08/M01 A2956 RMK CU8 SLP025

CYQF;2009-05-12 21:00;CYQF 122100Z 33020G30KT 15SM BKN020 08/M01 A2959 RMK SC7 CU EMBDD SLP044

CYQF;2009-05-12 22:00;CYQF 122200Z 34015G26KT 15SM BKN020 07/M02 A2960 RMK SC7 CU ASOCTD SLP048

CYQF;2009-05-12 23:00;CYQF 122300Z CCA 35020G28KT 15SM BKN030 07/M03 A2963 RMK SC7 CU ASOCTD SLP055

CYQF;2009-05-13 00:00;CYQF 130000Z 34022G30KT 15SM BKN030 06/M04 A2967 RMK SC7 SLP074

CYQF;2009-05-13 01:00;CYQF 130100Z 34020G28KT 15SM OVC030 04/M05 A2971 RMK SC7 SLP086

CYQF;2009-05-13 02:00;CYQF 130200Z 34018G28KT 15SM FEW012 OVC025 03/M05 A2975 RMK SF2SC6 SLP098

CYQF;2009-05-13 03:00;CYQF 130300Z 34017G25KT 15SM BKN012 OVC025 02/M05 A2978 RMK SF5SC3 SLP111

CYQF;2009-05-13 04:00;CYQF 130400Z 35015G23KT 15SM SCT020 OVC035 02/M05 A2981 RMK SF4SC4 SLP120

CYQF;2009-05-13 05:00;CYQF 130500Z 34017G25KT 15SM BKN025 OVC040 01/M05 A2984 RMK SC6SC2 SLP129

CYQF;2009-05-13 06:00;CYQF 130600Z 34015G25KT 15SM BKN025 OVC040 00/M06 A2987 RMK SC6SC2 SLP141

CYQF;2009-05-13 07:00;CYQF 130700Z 35014G22KT 15SM OVC025 00/M06 A2989 RMK SC8 SLP148

CYQF;2009-05-13 08:00;CYQF 130800Z 34013G20KT 15SM SCT025 OVC040 M00/M06 A2991 RMK SC3SC5 SLP154

CYQF;2009-05-13 09:00;CYQF 130900Z 34014G21KT 15SM SCT025 OVC040 M01/M07 A2993 RMK SC3SC5 SLP167

CYQF;2009-05-13 10:00;CYQF 131000Z 34011G17KT 15SM OVC030 M01/M07 A2995 RMK SC8 SLP172

CYQF;2009-05-13 11:00;CYQF 131100Z 34010KT 15SM OVC030 M01/M07 A2996 RMK SC8 SLP176

CYQF;2009-05-13 12:00;CYQF 131200Z 33010KT 15SM OVC030 M01/M07 A2997 RMK SC8 SLP184

CYQF;2009-05-13 13:00;CYQF 131300Z 34013KT 15SM OVC022 M01/M07 A2998 RMK SC8 SLP188

CYQF;2009-05-13 14:00;CYQF 131400Z 36010G16KT 15SM BKN023 M01/M08 A2999 RMK SC7 SLP190

CYQF;2009-05-13 15:00;CYQF 131500Z 02012KT 15SM SCT025 SCT250 00/M07 A2999 RMK SC3CI0 SLP195

CYQF;2009-05-13 16:00;CYQF 131600Z 29002KT 15SM FEW030 01/M07 A2999 RMK SC2 SLP195

CYQF;2009-05-13 17:00;CYQF 131700Z 00000KT 15SM FEW030 FEW100 02/M07 A2998 RMK SC1AC1 TR SC SLP191

CYQF;2009-05-13 18:00;CYQF 131800Z 23004KT 15SM FEW040 FEW100 04/M06 A2997 RMK SC1AC2 SLP184

CYQF;2009-05-13 19:00;CYQF 131900Z 11007KT 15SM BKN250 07/M05 A2994 RMK CI3 SLP174

CYQF;2009-05-13 20:00;CYQF 132000Z 00000KT 15SM BKN250 08/M05 A2991 RMK CI3 SLP166

CYQF;2009-05-13 21:00;CYQF 132100Z 14004KT 15SM FEW050 BKN250 09/M04 A2989 RMK SC1CI3 SLP151

CYQF;2009-05-13 22:00;CYQF 132200Z 19012KT 15SM FEW050 SCT100 BKN250 10/M05 A2986 RMK SC1AC2CI2 SLP143

CYQF;2009-05-13 23:00;CYQF 132300Z 13010KT 15SM FEW050 FEW100 BKN250 11/M05 A2983 RMK SC1AC1CI2 SLP134

CYQF;2009-05-14 00:00;CYQF 140000Z 14012G20KT 15SM SCT050 BKN100 OVC250 11/M05 A2981 RMK SC3AC2CI2 TCU ASOCTD SLP122

CYQF;2009-05-14 01:00;CYQF 140100Z 14015G20KT 15SM SCT050 SCT100 OVC250 10/M03 A2977 RMK SC3AC1CI2 CB ASOCTD LTGCG W SLP110

CYQF;2009-05-14 02:00;CYQF 140200Z 15010G15KT 15SM FEW050CB SCT100 OVC250 08/M01 A2975 RMK CB2AC2CI4 SH W-NW SLP104

CYQF;2009-05-14 02:54;CYQF 140254Z 31023G34KT 15SM VCSH BKN040CB BKN100 OVC250 RMK CB7AC1CI1 HVY SH SW-W-N WND SHFT

CYQF;2009-05-14 03:00;CYQF 140300Z 31010G28KT 15SM BKN040CB OVC250 05/M01 A2978 RMK CB7CI1 HVY SH SW-W-N VIS W 11/2 SLP117

CYQF;2009-05-14 03:05;CYQF 140305Z 31010G22KT 5SM -SHRAPL BKN040CB OVC250 RMK CB7CI1 HVY SH W

CYQF;2009-05-14 03:14;CYQF 140314Z 31006KT 3SM -SHRA OVC030CB RMK CB8

CYQF;2009-05-14 03:53;CYQF 140353Z 06010G15KT 15SM -SHRA FEW015 BKN030CB OVC250 RMK SF2CB4CI1 WIND SHFT 0348

CYQF;2009-05-14 04:00;CYQF 140400Z 07015KT 15SM -SHRA FEW015 BKN030CB OVC250 03/01 A2976 RMK SF2CB3CI2 SLP113

CYQF;2009-05-14 04:20;CYQF 140420Z 07008KT 15SM FEW015 BKN030 OVC250 RMK SF2SC5CI2

CYQF;2009-05-14 05:00;CYQF 140500Z 07006KT 15SM FEW030 BKN075 BKN250 03/01 A2974 RMK SC2AC4CI2 SLP105

CYQF;2009-05-14 06:00;CYQF 140600Z 07007KT 15SM FEW015 BKN080 BKN250 03/00 A2971 RMK SC1AC4CI1 SLP092

CYQF;2009-05-14 07:00;CYQF 140700Z 01005KT 15SM FEW010 SCT080 BKN250 03/00 A2970 RMK ST1AC2CI1 SLP089

CYQF;2009-05-14 08:00;CYQF 140800Z 02004KT 15SM FEW006 BKN075 BKN250 02/00 A2970 RMK ST2AC3CI1 SLP087

CYQF;2009-05-14 08:32;CYQF 140832Z 03002KT 10SM BKN005 BKN075 RMK ST5AC2

CYQF;2009-05-14 08:53;CYQF 140853Z 03002KT 3SM BR OVC004 RMK ST8

CYQF;2009-05-14 09:00;CYQF 140900Z 04002KT 3SM BR OVC004 02/00 A2968 RMK ST8 SLP077

CYQF;2009-05-14 10:00;CYQF 141000Z 33003KT 2SM BR OVC004 02/00 A2968 RMK FG2ST6 SLP075

CYQF;2009-05-14 11:00;CYQF 141100Z 35003KT 2SM BR OVC004 02/M00 A2966 RMK FG2ST6 SLP071

CYQF;2009-05-14 12:00;CYQF 141200Z 36002KT 1 1/2SM BR OVC004 02/00 A2967 RMK FG3ST5 SLP070

CYQF;2009-05-14 13:00;CYQF 141300Z 36004KT 2SM BR OVC005 02/M00 A2967 RMK FG2ST6 SLP070

CYQF;2009-05-14 13:50;CYQF 141350Z 36007KT 1 1/2SM BR OVC003 RMK FG2ST6

CYQF;2009-05-14 14:00;CYQF 141400Z 36007KT 1 1/2SM BR OVC003 02/00 A2967 RMK FG2ST6 SLP072

CYQF;2009-05-14 14:44;CYQF 141444Z 36004KT 3SM BR OVC005 RMK SF8

CYQF;2009-05-14 15:00;CYQF 141500Z 36007KT 5SM BR OVC005 03/01 A2969 RMK SC8 SLP082

CYQF;2009-05-14 16:00;CYQF 141600Z 35006KT 8SM OVC008 04/01 A2969 RMK SC8 BR SLP084

CYQF;2009-05-14 17:00;CYQF 141700Z 36008KT 8SM OVC008 03/01 A2970 RMK SC8 BR SLP087

CYQF;2009-05-14 18:00;CYQF 141800Z 01013KT 10SM OVC009 03/M00 A2972 RMK SC8 SLP097

CYQF;2009-05-14 18:37;CYQF 141837Z 36012KT 10SM OVC011 RMK SC8

CYQF;2009-05-14 19:00;CYQF 141900Z 35012KT 10SM OVC013 04/00 A2974 RMK SC8 SLP103

CYQF;2009-05-14 20:00;CYQF 142000Z 33010G15KT 15SM BKN015 05/M00 A2976 RMK SC7 CU EMBD SLP110

CYQF;2009-05-14 21:00;CYQF 142100Z 01015KT 15SM BKN025 05/M01 A2979 RMK SC7 CU ASOCTD SLP117

CYQF;2009-05-14 22:00;CYQF 142200Z CCA 36010KT 15SM BKN035 06/M03 A2980 RMK SC7 CU EMBD SLP121

CYQF;2009-05-14 23:00;CYQF 142300Z 36012G20KT 15SM BKN030 07/M02 A2982 RMK SC6 SLP128

CYQF;2009-05-15 00:00;CYQF 150000Z 35010G15KT 15SM BKN030 07/M03 A2985 RMK SC6 CU EMBD SLP136

CYQF;2009-05-15 01:00;CYQF 150100Z 01010G15KT 15SM FEW025 BKN040 07/M02 A2987 RMK CF2SC3 SLP144

CYQF;2009-05-15 02:00;CYQF 150200Z 03009KT 15SM FEW040 FEW080 06/M02 A2989 RMK SC1ACC1 SC TR SLP151

CYQF;2009-05-15 03:00;CYQF 150300Z 09005KT 15SM FEW040 FEW080 BKN250 04/M02 A2993 RMK SC1AC2CI1 SLP166

CYQF;2009-05-15 04:00;CYQF 150400Z 00000KT 15SM FEW040 FEW080 BKN250 02/M02 A2996 RMK SC2AC1CI0 SLP176

CYQF;2009-05-15 05:00;CYQF 150500Z 20003KT 15SM FEW080 SCT250 00/M03 A2998 RMK AC1CI0 SLP183

CYQF;2009-05-15 06:00;CYQF 150600Z 17002KT 15SM FEW080 FEW250 M00/M03 A3000 RMK AC1CI0 SLP197

CYQF;2009-05-15 07:00;CYQF 150700Z 20004KT 15SM FEW080 SCT250 M01/M04 A3002 RMK AC2CI0 SLP203

CYQF;2009-05-15 08:00;CYQF 150800Z 20008KT 15SM BKN080 BKN250 M00/M03 A3002 RMK AC5CI1 SLP203

CYQF;2009-05-15 09:00;CYQF 150900Z 20003KT 15SM FEW080 SCT250 00/M02 A3002 RMK AC2CI1 SLP201

CYQF;2009-05-15 10:00;CYQF 151000Z 24002KT 15SM FEW060 FEW250 M00/M02 A3005 RMK SC2CI0 SLP208

CYQF;2009-05-15 11:00;CYQF 151100Z 19004KT 15SM FEW080 SCT250 M02/M04 A3005 RMK AC2CI0 SLP211

CYQF;2009-05-15 12:00;CYQF 151200Z 17003KT 10SM FEW080 SCT250 M01/M03 A3008 RMK AC2CI0 BCFG SLP222

CYQF;2009-05-15 13:00;CYQF 151300Z 19004KT 10SM FEW004 SCT080 BKN250 M01/M03 A3009 RMK SF2AC2CI1 BCFG VIS SW-NW 3 SLP225

CYQF;2009-05-15 13:52;CYQF 151352Z 20002KT 10SM -SHRA SCT004 BKN080 RMK CF3AC4 CU ASOCTD

CYQF;2009-05-15 14:00;CYQF 151400Z 22004KT 6SM BR VCSH FEW008 SCT020 BKN080 02/M01 A3011 RMK CF2SC2AC3 ACC AS0CTD VIRGA SLP231

CYQF;2009-05-15 15:00;CYQF 151500Z 28003KT 12SM FEW020 BKN080 04/01 A3012 RMK SC2AC5 ACC ASOCTD VIRGA SLP233

CYQF;2009-05-15 16:00;CYQF 151600Z 29005KT 15SM VCSH FEW010 BKN070 05/M00 A3014 RMK CF2AC5 ACC ASOCTD VIRGA SLP238

CYQF;2009-05-15 17:00;CYQF 151700Z 00000KT 15SM SCT020 BKN080 07/00 A3014 RMK CU3AC2 VIRGA SLP238

CYQF;2009-05-15 18:00;CYQF 151800Z 30003KT 15SM SCT030 09/M00 A3014 RMK CU4 SLP236

CYQF;2009-05-15 19:00;CYQF 151900Z 29007KT 15SM VCSH BKN035TCU 11/M01 A3012 RMK TCU6 SLP232

CYQF;2009-05-15 20:00;CYQF 152000Z 29010KT 15SM BKN045TCU 12/M01 A3011 RMK TCU5 SLP228

CYQF;2009-05-15 21:00;CYQF 152100Z 01010KT 15SM VCSH BKN045TCU BKN090 11/M02 A3011 RMK TCU5AC2 SLP226

CYQF;2009-05-15 22:00;CYQF 152200Z 31010KT 15SM SCT050 BKN090 11/M02 A3013 RMK CU4AC2 VIRGA TCU ASOCTD SLP230

CYQF;2009-05-15 23:00;CYQF 152300Z 12005KT 15SM FEW050 FEW090 12/M03 A3010 RMK CU2AC1 SLP222

CYQF;2009-05-16 00:00;CYQF 160000Z 00000KT 15SM FEW050 FEW090 13/M04 A3009 RMK CU2AC1 VIRGA SLP219

CYQF;2009-05-16 01:00;CYQF 160100Z 23004KT 15SM FEW050 SCT090 13/M03 A3009 RMK CU2AC2 SLP217

CYQF;2009-05-16 02:00;CYQF 160200Z 00000KT 15SM FEW050 FEW090 13/M03 A3009 RMK CU1AC2 SLP218

CYQF;2009-05-16 03:00;CYQF 160300Z 14003KT 15SM FEW050 FEW100 SCT250 12/M04 A3009 RMK CU1AC2CI0 SLP213

CYQF;2009-05-16 04:00;CYQF 160400Z 14005KT 15SM FEW100 SCT250 08/M03 A3011 RMK AC2CI1 SLP218

CYQF;2009-05-16 05:00;CYQF 160500Z 14005KT 15SM FEW100 FEW250 06/M01 A3010 RMK AC1CI1 SLP216

CYQF;2009-05-16 06:00;CYQF 160600Z 17002KT 15SM FEW100 FEW250 05/M01 A3010 RMK AC1CI1 SLP217

CYQF;2009-05-16 07:00;CYQF 160700Z 10008KT 15SM SKC 04/M02 A3008 RMK SLP213

CYQF;2009-05-16 08:00;CYQF 160800Z 20006KT 15SM SKC 03/M02 A3008 RMK SLP211

CYQF;2009-05-16 09:00;CYQF 160900Z 20005KT 15SM SKC 02/M03 A3008 RMK SLP212

CYQF;2009-05-16 10:00;CYQF 161000Z 21005KT 15SM BKN080 02/M02 A3007 RMK AC5 SLP211

CYQF;2009-05-16 11:00;CYQF 161100Z 19004KT 15SM SCT080 BKN250 02/M02 A3006 RMK AC3CI2 SLP207

CYQF;2009-05-16 12:00;CYQF 161200Z 19002KT 15SM SCT080 OVC250 02/M03 A3005 RMK AC4CI2 SLP202

CYQF;2009-05-16 13:00;CYQF 161300Z 20003KT 15SM SCT080 OVC250 03/M02 A3006 RMK AC3CI3 SLP203

CYQF;2009-05-16 14:00;CYQF 161400Z 20002KT 15SM FEW100 OVC230 05/M02 A3006 RMK AC2CI4 SLP203

CYQF;2009-05-16 15:00;CYQF 161500Z 19004KT 15SM BKN250 09/M02 A3004 RMK CI2 SLP190

CYQF;2009-05-16 16:00;CYQF 161600Z 20002KT 15SM SCT250 13/M03 A3003 RMK CI1 SLP186

CYQF;2009-05-16 17:00;CYQF 161700Z 16002KT 15SM FEW120 SCT250 15/M03 A3001 RMK AC1CI1 SLP180

CYQF;2009-05-16 18:00;CYQF 161800Z 15002KT 15SM FEW120 BKN250 16/M02 A3000 RMK AC1CI2 SLP174

CYQF;2009-05-16 19:00;CYQF 161900Z 24004KT 15SM FEW060 BKN250 17/M01 A2997 RMK CU2CI2 SLP167

CYQF;2009-05-16 20:00;CYQF 162000Z 25003KT 15SM FEW070 BKN270 17/M01 A2996 RMK CU1CI2 SLP164

CYQF;2009-05-16 21:00;CYQF 162100Z 00000KT 15SM FEW070 BKN270 19/M02 A2995 RMK CU2CI2 SLP160

CYQF;2009-05-16 22:00;CYQF 162200Z 09004KT 15SM FEW070 BKN270 19/M01 A2994 RMK CU2CI2 SLP155

CYQF;2009-05-16 23:00;CYQF 162300Z 00000KT 15SM FEW070 BKN270 20/M01 A2993 RMK CU2CI2 SLP152

CYQF;2009-05-17 00:00;CYQF 170000Z 35008KT 15SM FEW070 BKN270 19/M01 A2992 RMK CU2CI3 SLP147

CYQF;2009-05-17 01:00;CYQF 170100Z 06006KT 15SM SCT070 BKN250 19/M01 A2992 RMK AC3CI3 VIRGA SLP149

CYQF;2009-05-17 02:00;CYQF 170200Z 27008KT 15SM SCT070 BKN100 OVC250 18/01 A2993 RMK AC3AC2CI2 VIRGA SLP152

CYQF;2009-05-17 03:00;CYQF 170300Z 36006KT 15SM SCT070 BKN100 OVC250 16/02 A2993 RMK AC3AC3CI1 VIRGA SLP147

CYQF;2009-05-17 04:00;CYQF 170400Z 00000KT 15SM SCT070 BKN100 OVC250 15/02 A2994 RMK AC3AC4CI1 VIRGA SLP149

CYQF;2009-05-17 05:00;CYQF 170500Z 28003KT 15SM FEW070 BKN100 OVC250 14/02 A2995 RMK AC2AC3CI3 VIRGA SLP154

CYQF;2009-05-17 06:00;CYQF 170600Z 32008KT 15SM FEW070 BKN100 OVC250 15/02 A2995 RMK AC2AC4CI2 SLP147

CYQF;2009-05-17 07:00;CYQF 170700Z 36006KT 15SM FEW070 BKN100 OVC250 12/03 A2995 RMK AC2AC3CI3 SLP147

CYQF;2009-05-17 08:00;CYQF 170800Z 34003KT 15SM FEW070 BKN100 OVC250 12/03 A2995 RMK AC2AC4CI2 SLP147

CYQF;2009-05-17 09:00;CYQF 170900Z 35002KT 15SM SCT100 BKN250 10/02 A2995 RMK AC3CI1 SLP151

CYQF;2009-05-17 10:00;CYQF 171000Z 20002KT 15SM FEW100 BKN250 08/02 A2994 RMK AC2CI2 SLP148

CYQF;2009-05-17 11:00;CYQF 171100Z 19003KT 15SM FEW100 BKN250 05/00 A2993 RMK AC2CI2 SLP145

CYQF;2009-05-17 12:00;CYQF 171200Z 19003KT 15SM FEW100 BKN250 05/00 A2992 RMK AC2CI2 SLP143

CYQF;2009-05-17 13:00;CYQF 171300Z 04002KT 15SM SCT100 BKN250 07/02 A2991 RMK AC3CI1 SLP142

CYQF;2009-05-17 14:00;CYQF 171400Z 00000KT 15SM FEW100 BKN250 10/03 A2991 RMK AC2CI2 SLP142

CYQF;2009-05-17 15:00;CYQF 171500Z 16005KT 15SM FEW100 BKN250 14/03 A2991 RMK AC2CI2 SLP133

CYQF;2009-05-17 16:00;CYQF 171600Z 17008KT 15SM SCT100 BKN250 15/03 A2989 RMK AC3CI2 SLP127

CYQF;2009-05-17 17:00;CYQF 171700Z 20007KT 15SM BKN100 BKN250 17/04 A2987 RMK AC5CI2 SLP123

CYQF;2009-05-17 18:00;CYQF 171800Z 21003KT 15SM FEW040 SCT100 BKN250 19/04 A2986 RMK CU1AC3CI2 SLP113

CYQF;2009-05-17 19:00;CYQF 171900Z 30010KT 15SM FEW040 FEW100 BKN250 21/03 A2985 RMK CU1AC2CI2 SLP110

CYQF;2009-05-17 20:00;CYQF 172000Z 25010KT 15SM FEW040 BKN250 22/03 A2984 RMK CU2CI2 SLP106

CYQF;2009-05-17 21:00;CYQF 172100Z 27010KT 15SM FEW050 BKN250 22/03 A2981 RMK CU2CI2 SLP098

CYQF;2009-05-17 22:00;CYQF 172200Z 23010G15KT 15SM FEW050 SCT100 BKN250 22/03 A2982 RMK CU2AC1CI3 VIRGA SLP100

CYQF;2009-05-17 23:00;CYQF 172300Z 02025G35KT 15SM FEW050 FEW100 BKN250 15/06 A2989 RMK CU2AC1CI3 SLP124

CYQF;2009-05-18 00:00;CYQF 180000Z 01020G32KT 15SM FEW050 SCT100 BKN250 15/05 A2993 RMK CU2AC2CI3 SLP151

CYQF;2009-05-18 01:00;CYQF 180100Z 36018G27KT 15SM FEW030 SCT090 BKN250 14/04 A2995 RMK CU2AC2CI3 SLP157

CYQF;2009-05-18 02:00;CYQF 180200Z 03016G26KT 15SM SCT020 BKN040 OVC250 12/04 A3000 RMK SC4SC2CI2 SLP174

CYQF;2009-05-18 03:00;CYQF 180300Z 02012G20KT 15SM BKN020 BKN040 OVC250 11/03 A3004 RMK SC6SC2CI1 SLP185

CYQF;2009-05-18 04:00;CYQF 180400Z 02013G20KT 15SM FEW012 BKN020 OVC040 08/03 A3007 RMK SC1SC6SC2 SLP196

CYQF;2009-05-18 05:00;CYQF 180500Z 03013G20KT 15SM FEW012 BKN025 OVC070 06/01 A3010 RMK SC2SC4AC2 SLP203

CYQF;2009-05-18 06:00;CYQF 180600Z 36010KT 15SM FEW012 BKN025 OVC070 05/00 A3013 RMK SC2SC5AC2 SLP219

CYQF;2009-05-18 06:23;CYQF 180623Z 36010KT 10SM -RA FEW010 OVC020 RMK SC2SC6

CYQF;2009-05-18 07:00;CYQF 180700Z 36012KT 10SM -RA FEW008 OVC020 02/M00 A3015 RMK SC2SC6 SLP224

CYQF;2009-05-18 08:00;CYQF 180800Z 01015KT 8SM -SN OVC020 01/M01 A3016 RMK SC8 SLP229

CYQF;2009-05-18 09:00;CYQF 180900Z 01008KT 8SM -SN OVC020 00/M02 A3019 RMK SC8 SLP239

CYQF;2009-05-18 10:00;CYQF 181000Z 01012KT 5SM -SN OVC016 M00/M03 A3019 RMK SC8 SLP241

CYQF;2009-05-18 10:41;CYQF 181041Z 03007KT 3SM -SN OVC011 RMK SN2SC6

CYQF;2009-05-18 11:00;CYQF 181100Z 03007KT 3SM -SN OVC011 M01/M03 A3020 RMK SN2SC6 SLP243

CYQF;2009-05-18 12:00;CYQF 181200Z CCA 03007KT 1 1/2SM -SN OVC010 M01/M03 A3020 RMK SN3SC5 /S01/ SLP252

CYQF;2009-05-18 12:37;CYQF 181237Z 06010KT 1SM -SN OVC007 RMK SN4SC4

CYQF;2009-05-18 13:00;CYQF 181300Z 06010KT 1SM -SN OVC007 M01/M04 A3019 RMK SN4SC4 SLP251

CYQF;2009-05-18 14:00;CYQF 181400Z 05010KT 1SM -SN BR OVC011 M02/M04 A3020 RMK SN3SC5 SLP253

CYQF;2009-05-18 15:00;CYQF 181500Z 05009KT 1SM -SN BR OVC010 M02/M04 A3019 RMK SN3SC5 SLP255

CYQF;2009-05-18 16:00;CYQF 181600Z CCA 06010KT 1SM -SN BR VV007 M02/M04 A3019 RMK SN8 /S02/ SLP254

CYQF;2009-05-18 17:00;CYQF 181700Z 06010KT 3/4SM -SN BR VV007 M01/M03 A3020 RMK SN8 /S03/ SLP257

CYQF;2009-05-18 18:00;CYQF 181800Z 06008KT 3/4SM -SN BR VV007 M01/M03 A3019 RMK SN8 /S04/ SLP261

CYQF;2009-05-18 19:00;CYQF 181900Z 08008KT 3/4SM -SN BR VV007 M00/M03 A3017 RMK SN8 /S01/ SLP256

CYQF;2009-05-18 20:00;CYQF 182000Z 10011KT 3/4SM -SN BR VV007 M00/M03 A3016 RMK SN8 SLP252

CYQF;2009-05-18 21:00;CYQF 182100Z 09012KT 3/4SM -SN BR VV007 00/M02 A3015 RMK SN8 SLP250

CYQF;2009-05-18 21:44;CYQF 182144Z 10008KT 1SM -SN BR VV007 RMK SN8

CYQF;2009-05-18 22:00;CYQF 182200Z 09010G15KT 1SM -SN BR VV007 M00/M03 A3013 RMK SN8 SLP246

CYQF;2009-05-18 23:00;CYQF 182300Z 10008KT 1SM -SN BR VV010 M00/M02 A3013 RMK SN8 SLP244

CYQF;2009-05-19 00:00;CYQF 190000Z 09010KT 1SM -SN BR VV010 M00/M02 A3012 RMK SN8 /S02/ SLP241

CYQF;2009-05-19 00:18;CYQF 190018Z 09010KT 2SM -SN BR SCT006 OVC020 RMK SN3SF1SC4

CYQF;2009-05-19 00:49;CYQF 190049Z 10007KT 8SM -SN SCT006 OVC015 RMK SF4SC4 VIS N 5

CYQF;2009-05-19 01:00;CYQF 190100Z 10007KT 8SM -SN BKN006 OVC015 M00/M03 A3009 RMK SF5SC3 VIS N 5 SLP234

CYQF;2009-05-19 02:00;CYQF 190200Z 09004KT 15SM BKN007 OVC025 M00/M03 A3009 RMK SF6SC2 SLP234

CYQF;2009-05-19 03:00;CYQF 190300Z 12005KT 15SM BKN008 OVC025 M01/M03 A3007 RMK SF6SC2 SLP226

CYQF;2009-05-19 04:00;CYQF 190400Z 11006KT 15SM BKN008 OVC040 M01/M04 A3005 RMK SF6SC2 SLP219

CYQF;2009-05-19 05:00;CYQF 190500Z CCA 10006KT 15SM OVC009 M01/M03 A3002 RMK SF8 SLP211

CYQF;2009-05-19 06:00;CYQF 190600Z 11010KT 15SM OVC007 OVC025 M01/M03 A2999 RMK SF5SC3 SLP197

CYQF;2009-05-19 07:00;CYQF 190700Z 12008KT 5SM BR OVC008 M00/M03 A2996 RMK ST8 SLP188

CYQF;2009-05-19 07:43;CYQF 190743Z 11010KT 5SM -SG BR OVC008 RMK ST8 VRY LGT SG

CYQF;2009-05-19 08:00;CYQF 190800Z 12010G15KT 5SM -SG BR SCT008 BKN014 OVC025 M00/M03 A2991 RMK SF4SC2SC2 VRY LGT SG SLP172

CYQF;2009-05-19 08:28;CYQF 190828Z 13012KT 3SM -FZDZ BR SCT008 BKN013 OVC025 RMK SF4SC3SC1 TEMP -0.4

CYQF;2009-05-19 08:50;CYQF 190850Z 12010G17KT 3SM -FZDZ OVC005 RMK ST8 TEMP -0.5

CYQF;2009-05-19 09:00;CYQF 190900Z 12013G18KT 3SM -FZDZ OVC005 M00/M03 A2986 RMK ST8 PRESFR SLP153

CYQF;2009-05-19 10:00;CYQF 191000Z CCA 12010G16KT 3SM -FZDZ OVC006 M01/M03 A2981 RMK ST8 PRESFR SLP135

CYQF;2009-05-19 11:00;CYQF 191100Z 11016KT 3SM -FZDZ OVC006 M00/M03 A2976 RMK ST8 SLP120

CYQF;2009-05-19 12:00;CYQF 191200Z 12014KT 6SM -FZDZ OVC006 M01/M03 A2971 RMK ST8 VRY LGT FZDZ SLP101

CYQF;2009-05-19 12:21;CYQF 191221Z CCA 10010G21KT 10SM BKN006 OVC025 RMK ST6SC2 REFZDZ

CYQF;2009-05-19 13:00;CYQF 191300Z 09010G15KT 10SM SCT006 BKN011 OVC025 M00/M03 A2967 RMK SF4SC2SC2 REFZDZ SLP088

CYQF;2009-05-19 14:00;CYQF 191400Z 11013KT 12SM BKN015 OVC030 M00/M04 A2962 RMK SC6SC2 SLP073

CYQF;2009-05-19 15:00;CYQF 191500Z 03003KT 12SM OVC015 00/M04 A2964 RMK ST8 SLP075

CYQF;2009-05-19 15:20;CYQF 191520Z 33006KT 3SM -DZ BR OVC015 RMK ST8

CYQF;2009-05-19 15:35;CYQF 191535Z 36007KT 2SM -FZDZ BR OVC015 RMK ST8

CYQF;2009-05-19 16:00;CYQF 191600Z 36008KT 2SM -FZDZ BR OVC015 M00/M03 A2963 RMK ST8 SLP072

CYQF;2009-05-19 16:25;CYQF 191625Z 09015G20KT 10SM BKN015 BKN030 REFZDZ RMK SF5SC2 WSHFT 1605

CYQF;2009-05-19 17:00;CYQF 191700Z 08006KT 15SM SCT015 BKN030 01/M02 A2957 REFZDZ RMK SF3SC4 SLP055

CYQF;2009-05-19 17:50;CYQF 191750Z 00000KT 10SM -SHGS BKN015 OVC030 RMK ST6SC2

CYQF;2009-05-19 18:00;CYQF 191800Z 35005KT 6SM -SHGS OVC015 01/M02 A2959 RMK ST8 SLP056

CYQF;2009-05-19 18:35;CYQF 191835Z 01005KT 12SM BKN015 BKN030 RMK SF5SC2

CYQF;2009-05-19 19:00;CYQF 191900Z 36006KT 12SM VCSH SCT015 BKN030 BKN080 01/M01 A2957 RMK SF3SC2AC1 SLP051

CYQF;2009-05-19 20:00;CYQF 192000Z 33010KT 15SM SCT009 BKN030 03/M00 A2960 RMK SC3SC3 SLP061

CYQF;2009-05-19 21:00;CYQF 192100Z 31015G20KT 15SM FEW010 BKN025 03/M01 A2962 RMK SC2SC5 SLP065

CYQF;2009-05-19 22:00;CYQF 192200Z 33015G20KT 15SM FEW010 BKN025 BKN100 03/M02 A2963 RMK SC2SC5AC1 SLP067

CYQF;2009-05-19 23:00;CYQF 192300Z 34012KT 15SM FEW010 BKN020 OVC100 04/M01 A2966 RMK SC2CU6AC1 SLP079

CYQF;2009-05-20 00:00;CYQF 200000Z 34012KT 15SM BKN020 BKN100 04/M01 A2968 RMK SC6AC2 CU ASOCTD SLP085

CYQF;2009-05-20 01:00;CYQF 200100Z 34013G22KT 15SM BKN020 03/M02 A2971 RMK SC7 SLP094

CYQF;2009-05-20 02:00;CYQF 200200Z 36012G18KT 15SM SCT020 BKN040 BKN100 03/M02 A2970 RMK SC3SC2AC2 SLP090

CYQF;2009-05-20 03:00;CYQF 200300Z 34015KT 15SM BKN030 OVC100 02/M03 A2976 RMK SC6AC2 SLP112

CYQF;2009-05-20 04:00;CYQF 200400Z 33006KT 15SM BKN030 BKN100 02/M04 A2979 RMK SC6AC2 SLP122

CYQF;2009-05-20 05:00;CYQF 200500Z 33007KT 15SM FEW030 BKN100 M00/M04 A2979 RMK SC2AC2 SLP123

CYQF;2009-05-20 06:00;CYQF 200600Z 33004KT 15SM BKN080 00/M04 A2981 RMK AC6 SLP132

CYQF;2009-05-20 07:00;CYQF 200700Z 30005KT 15SM BKN100 00/M04 A2982 RMK AC6 SLP135

CYQF;2009-05-20 08:00;CYQF 200800Z 30004KT 15SM BKN100 01/M03 A2983 RMK AC6 SLP140

CYQF;2009-05-20 09:00;CYQF 200900Z 32005KT 15SM BKN100 01/M03 A2984 RMK AC7 SLP138

CYQF;2009-05-20 10:00;CYQF 201000Z 31004KT 15SM BKN100 01/M03 A2985 RMK AC7 SLP141

CYQF;2009-05-20 11:00;CYQF 201100Z 31007KT 15SM FEW015 BKN100 01/M03 A2986 RMK SC2AC6 SLP146

CYQF;2009-05-20 12:00;CYQF 201200Z 32011KT 15SM FEW020 BKN100 01/M04 A2988 RMK SC2AC6 SLP152

CYQF;2009-05-20 13:00;CYQF 201300Z 33011G16KT 15SM BKN020 BKN100 01/M04 A2990 RMK SC5AC2 SLP160

CYQF;2009-05-20 14:00;CYQF 201400Z 35010G15KT 15SM BKN020 BKN040 BKN100 01/M05 A2993 RMK SC5SC1AC1 SLP167

CYQF;2009-05-20 15:00;CYQF 201500Z 33012G18KT 15SM BKN018 OVC040 02/M04 A2995 RMK SC6SC2 SLP176

CYQF;2009-05-20 16:00;CYQF 201600Z 33012G18KT 15SM BKN023 OVC090 01/M05 A2997 RMK SC7AC1 SLP183

CYQF;2009-05-20 17:00;CYQF 201700Z 33011G18KT 15SM BKN025 OVC090 02/M04 A2998 RMK SC7AC1 SLP188

CYQF;2009-05-20 18:00;CYQF 201800Z 33011G28KT 15SM BKN025 OVC090 02/M04 A3000 RMK CU7AC1 SLP196

CYQF;2009-05-20 19:00;CYQF 201900Z 33010G15KT 15SM BKN025 BKN240 04/M04 A3000 RMK SC5CI1 SLP198

CYQF;2009-05-20 20:00;CYQF 202000Z 32012G18KT 15SM BKN027 BKN100 BKN250 05/M04 A3002 RMK CU5AC1CI0 SLP203

CYQF;2009-05-20 21:00;CYQF 202100Z 35010G15KT 15SM SCT030 BKN250 06/M05 A3002 RMK CU3CI1 SLP200

CYQF;2009-05-20 22:00;CYQF 202200Z 35011KT 15SM SCT040 BKN250 07/M05 A3003 RMK CU3CI1 SLP202

CYQF;2009-05-20 23:00;CYQF 202300Z 27006KT 15SM FEW040 BKN250 08/M06 A3003 RMK CU2CI1 SLP201

CYQF;2009-05-21 00:00;CYQF 210000Z 31012KT 15SM FEW040 SCT100 BKN250 08/M06 A3004 RMK CU2AC1CI1 SLP202

CYQF;2009-05-21 01:00;CYQF 210100Z 33006KT 15SM FEW040 FEW100 BKN250 08/M05 A3003 RMK CU1AC1CI2 SLP201

CYQF;2009-05-21 02:00;CYQF 210200Z 30003KT 15SM FEW040 FEW100 BKN250 08/M05 A3004 RMK CU1AC2CI2 SLP202

CYQF;2009-05-21 03:00;CYQF 210300Z 24004KT 15SM FEW040 BKN100 BKN250 06/M04 A3004 RMK SC1AC3CI1 SLP204

CYQF;2009-05-21 04:00;CYQF 210400Z 23007KT 15SM FEW100 BKN250 05/M02 A3005 RMK AC2CI2 SLP209

CYQF;2009-05-21 05:00;CYQF 210500Z 21007KT 15SM FEW100 SCT250 04/M01 A3007 RMK AC1CI2 SLP213

CYQF;2009-05-21 06:00;CYQF 210600Z 23006KT 15SM FEW080 SCT250 01/M02 A3007 RMK AC1CI1 SLP219

CYQF;2009-05-21 07:00;CYQF 210700Z 23007KT 15SM FEW250 01/M02 A3007 RMK CI1 SLP220

CYQF;2009-05-21 08:00;CYQF 210800Z 23007KT 15SM FEW250 00/M03 A3007 RMK CI1 SLP221

CYQF;2009-05-21 09:00;CYQF 210900Z 24007KT 15SM SKC M01/M04 A3007 RMK SLP220

CYQF;2009-05-21 10:00;CYQF 211000Z 24009KT 15SM SKC M01/M04 A3007 RMK SLP219

CYQF;2009-05-21 11:00;CYQF 211100Z 24005KT 15SM FEW100 FEW250 M01/M04 A3007 RMK AC1CI0 SLP218

CYQF;2009-05-21 12:00;CYQF 211200Z CCA 25006KT 15SM FEW100 FEW250 M01/M04 A3007 RMK AC1CI0 FROIN SLP218

CYQF;2009-05-21 13:00;CYQF 211300Z 26005KT 15SM FEW100 FEW250 01/M02 A3008 RMK AC1CI0 SLP220

CYQF;2009-05-21 14:00;CYQF 211400Z 20005KT 15SM FEW100 FEW250 04/M01 A3008 RMK AC1CI1 SLP219

CYQF;2009-05-21 15:00;CYQF 211500Z 23009KT 15SM FEW060 FEW100 SCT250 07/M01 A3009 RMK CU1AC2CI1 SLP216

CYQF;2009-05-21 16:00;CYQF 211600Z 31010G15KT 15SM FEW060 BKN100 BKN250 09/M03 A3010 RMK CU2AC3CI1 SLP218

CYQF;2009-05-21 17:00;CYQF 211700Z 31012G18KT 15SM SCT040 BKN070 BKN250 09/M03 A3010 RMK CU4AC2CI1 VIRGA OBS TAKEN +05 SLP220

CYQF;2009-05-21 18:00;CYQF 211800Z 27013KT 15SM SCT040 BKN090 10/M01 A3009 RMK CU4AC2 SLP219

CYQF;2009-05-21 19:00;CYQF 211900Z 33010KT 15SM VCSH BKN040TCU BKN090 10/M02 A3008 RMK TCU6AC2 SLP215

CYQF;2009-05-21 19:09;CYQF 211909Z 33010KT 15SM -SHRA BKN040TCU BKN090 RMK TCU6AC2

CYQF;2009-05-21 19:30;CYQF 211930Z 33015G25KT 15SM VCSH BKN040TCU BKN090 RMK TCU5AC2

CYQF;2009-05-21 20:00;CYQF 212000Z 33012KT 15SM FEW040 BKN080 10/00 A3009 RMK CU2AC2 SHS SE-SW TCU ASOCTD SLP218

CYQF;2009-05-21 21:00;CYQF 212100Z 31014G22KT 15SM SCT040 BKN080 12/M00 A3010 RMK CU3AC2 SHS SW-N TCU ASOCTD SLP222

CYQF;2009-05-21 22:00;CYQF 212200Z 32015G23KT 15SM FEW040 BKN090 11/M01 A3010 RMK CU2AC2 TCU ASOCTD SLP223

CYQF;2009-05-21 23:00;CYQF 212300Z 33014G22KT 15SM SCT040 BKN090 10/00 A3012 RMK CU3AC2 TCU ASOCTD SHS NW SLP228

CYQF;2009-05-22 00:00;CYQF 220000Z 30015G20KT 15SM FEW040 BKN090 BKN250 09/M01 A3013 RMK CU2AC3CI0 TCU ASOCTD VIRGA SLP236

CYQF;2009-05-22 01:00;CYQF 220100Z 34010G15KT 15SM VCSH BKN045TCU BKN250 09/M00 A3015 RMK TCU5CI1 SLP240

CYQF;2009-05-22 02:00;CYQF 220200Z 32010KT 15SM FEW045 BKN090 BKN250 09/M03 A3015 RMK CU2AC2CI1 TCU ASOCTD VIRGA SLP242

CYQF;2009-05-22 03:00;CYQF 220300Z 34008KT 15SM FEW050 BKN090 BKN250 08/M02 A3017 RMK CU2AC2CI0 SLP241

CYQF;2009-05-22 04:00;CYQF 220400Z 03008KT 15SM FEW050 FEW100 06/M07 A3020 RMK CU1AC2 SLP250

CYQF;2009-05-22 05:00;CYQF 220500Z 03006KT 15SM FEW100 04/M08 A3022 RMK AC2 SLP257

CYQF;2009-05-22 06:00;CYQF 220600Z 04004KT 15SM FEW100 03/M07 A3025 RMK AC1 SLP271

CYQF;2009-05-22 07:00;CYQF 220700Z 00000KT 15SM FEW100 M00/M07 A3026 RMK AC1 SLP276

CYQF;2009-05-22 08:00;CYQF 220800Z 00000KT 15SM FEW100 M02/M08 A3027 RMK AC1 SLP277

CYQF;2009-05-22 09:00;CYQF 220900Z 00000KT 15SM SKC M03/M08 A3028 RMK SLP286

CYQF;2009-05-22 10:00;CYQF 221000Z 00000KT 15SM FEW100 M03/M07 A3028 RMK AC1 SLP286

CYQF;2009-05-22 11:00;CYQF 221100Z 17002KT 15SM SKC M04/M07 A3027 RMK FROIN SLP285

CYQF;2009-05-22 12:00;CYQF 221200Z 18003KT 15SM SKC M05/M08 A3029 RMK SLP294

CYQF;2009-05-22 13:00;CYQF 221300Z 00000KT 15SM SKC M02/M06 A3030 RMK FROIN SLP297

CYQF;2009-05-22 14:00;CYQF 221400Z 18004KT 15SM SKC 02/M05 A3029 RMK SLP296

CYQF;2009-05-22 15:00;CYQF 221500Z 18006KT 15SM SKC 06/M06 A3029 RMK SLP283

CYQF;2009-05-22 16:00;CYQF 221600Z 15010KT 15SM SKC 08/M05 A3028 RMK SLP282

CYQF;2009-05-22 17:00;CYQF 221700Z 18004KT 15SM FEW050 09/M04 A3027 RMK CU1 SLP278

CYQF;2009-05-22 18:00;CYQF 221800Z 17003KT 15SM FEW040 11/M04 A3025 RMK CU1 SLP272

CYQF;2009-05-22 19:00;CYQF 221900Z 00000KT 15SM FEW040 12/M03 A3024 RMK CU1 SLP267

CYQF;2009-05-22 20:00;CYQF 222000Z 15007KT 15SM FEW040 14/M02 A3022 RMK CU2 SLP261

CYQF;2009-05-22 21:00;CYQF 222100Z 28003KT 15SM FEW060 16/M02 A3020 RMK CU1 SLP253

CYQF;2009-05-22 22:00;CYQF 222200Z 14004KT 15SM FEW060 16/M02 A3018 RMK CU1 SLP247

CYQF;2009-05-22 23:00;CYQF 222300Z 19013KT 15SM FEW060 17/M02 A3016 RMK SC1 SLP243

CYQF;2009-05-23 00:00;CYQF 230000Z 19012KT 15SM FEW060 16/M02 A3015 RMK SC1 SLP238

CYQF;2009-05-23 01:00;CYQF 230100Z 18012KT 15SM SKC 16/M02 A3012 RMK SLP230

CYQF;2009-05-23 02:00;CYQF 230200Z 18012KT 15SM SKC 16/M02 A3011 RMK SLP227

CYQF;2009-05-23 03:00;CYQF 230300Z 16007KT 15SM SKC 14/M02 A3010 RMK SLP213

CYQF;2009-05-23 04:00;CYQF 230400Z 14007KT 15SM SKC 11/M02 A3011 RMK SLP214

CYQF;2009-05-23 05:00;CYQF 230500Z 16007KT 15SM SKC 09/M03 A3011 RMK SLP214

CYQF;2009-05-23 06:00;CYQF 230600Z 17007KT 15SM SKC 08/M03 A3011 RMK SLP214

CYQF;2009-05-23 07:00;CYQF 230700Z 18007KT 15SM SKC 08/M03 A3011 RMK SLP215

CYQF;2009-05-23 08:00;CYQF 230800Z 17008KT 15SM SKC 06/M03 A3011 RMK SLP214

CYQF;2009-05-23 09:00;CYQF 230900Z 17006KT 15SM SKC 06/M03 A3010 RMK SLP209

CYQF;2009-05-23 10:00;CYQF 231000Z 16006KT 15SM SKC 04/M03 A3009 RMK SLP206

CYQF;2009-05-23 11:00;CYQF 231100Z 17005KT 15SM SKC 04/M03 A3008 RMK SLP204

CYQF;2009-05-23 12:00;CYQF 231200Z 15004KT 15SM SKC 04/M03 A3007 RMK SLP201

CYQF;2009-05-23 13:00;CYQF 231300Z 18007KT 15SM SKC 05/M01 A3007 RMK SLP201

CYQF;2009-05-23 14:00;CYQF 231400Z 18005KT 15SM SKC 08/M01 A3007 RMK SLP201

CYQF;2009-05-23 15:00;CYQF 231500Z 18008KT 15SM SKC 10/M01 A3007 RMK SLP196

CYQF;2009-05-23 16:00;CYQF 231600Z 18005KT 15SM SKC 12/M01 A3006 RMK SLP194

CYQF;2009-05-23 17:00;CYQF 231700Z 19010KT 15SM SKC 14/01 A3006 RMK SLP193

CYQF;2009-05-23 18:00;CYQF 231800Z 15005KT 15SM SKC 16/02 A3005 RMK SLP188

CYQF;2009-05-23 19:00;CYQF 231900Z 18003KT 15SM FEW060 18/02 A3003 RMK CU1 SLP184

CYQF;2009-05-23 20:00;CYQF 232000Z 16007KT 15SM FEW060 19/02 A3002 RMK CU2 SLP179

CYQF;2009-05-23 21:00;CYQF 232100Z 17010KT 15SM SCT070 20/01 A3000 RMK CU3 SLP171

CYQF;2009-05-23 22:00;CYQF 232200Z 25007KT 15SM FEW080 21/01 A2998 RMK CU2 SLP165

CYQF;2009-05-23 23:00;CYQF 232300Z 00000KT 15SM FEW080 21/M01 A2997 RMK CU2 SLP161

CYQF;2009-05-24 00:00;CYQF 240000Z 33008KT 15SM FEW080 21/M04 A2996 RMK CU2 SLP159

CYQF;2009-05-24 01:00;CYQF 240100Z 00000KT 15SM FEW080 21/M03 A2995 RMK CU2 SLP155

CYQF;2009-05-24 02:00;CYQF 240200Z 00000KT 15SM FEW080 20/M01 A2995 RMK CU1 SLP154

CYQF;2009-05-24 03:00;CYQF 240300Z 00000KT 15SM FEW100 19/M02 A2994 RMK AC1 SLP147

CYQF;2009-05-24 04:00;CYQF 240400Z 00000KT 15SM FEW100 15/M01 A2995 RMK AC2 SLP149

CYQF;2009-05-24 05:00;CYQF 240500Z 00000KT 15SM SCT100 13/M01 A2995 RMK AC3 SLP151

CYQF;2009-05-24 06:00;CYQF 240600Z 18004KT 15SM SCT100 12/00 A2996 RMK AC3 SLP154

CYQF;2009-05-24 07:00;CYQF 240700Z 17004KT 15SM FEW100 SCT250 13/M01 A2996 RMK AC2CI0 OBS TAKEN +09 SLP155

CYQF;2009-05-24 08:00;CYQF 240800Z 24002KT 15SM FEW100 10/00 A2996 RMK AC2 SLP155

CYQF;2009-05-24 08:44;CYQF 240844Z 21013KT 15SM -SHRA FEW050 BKN100 BKN250 RMK SC2AC3CI2

CYQF;2009-05-24 09:00;CYQF 240900Z 22010KT 15SM BKN100 BKN250 14/01 A2996 RMK AC5CI2 SLP149

CYQF;2009-05-24 10:00;CYQF 241000Z 18007KT 15SM BKN100 13/M01 A2995 RMK AC4 OBS TAKEN +05 SLP144

CYQF;2009-05-24 11:00;CYQF 241100Z 22004KT 15SM FEW050 BKN100 09/00 A2994 RMK SC2AC3 VIRGA N+DIST E SLP141

CYQF;2009-05-24 12:00;CYQF 241200Z 25008KT 15SM FEW050 SCT100 09/00 A2995 RMK SC2AC2 FEW CU VIRGA NE+E SLP150

CYQF;2009-05-24 13:00;CYQF 241300Z 27007KT 15SM FEW050 FEW100 10/00 A2996 RMK SC2AC1 SLP153

CYQF;2009-05-24 14:00;CYQF 241400Z 29011KT 15SM FEW050 FEW100 SCT250 12/M01 A2996 RMK SC2AC1CI0 SLP153

CYQF;2009-05-24 15:00;CYQF 241500Z 32010KT 15SM FEW070 FEW250 13/00 A2997 RMK ACC1CI1 SLP155

CYQF;2009-05-24 16:00;CYQF 241600Z 31011KT 15SM FEW070 FEW250 14/00 A2997 RMK ACC1CI1 SLP153

CYQF;2009-05-24 17:00;CYQF 241700Z 31010KT 15SM FEW060 16/01 A2996 RMK CU1 SLP151

CYQF;2009-05-24 18:00;CYQF 241800Z 33012KT 15SM FEW060 17/02 A2995 RMK CU1 SLP151

CYQF;2009-05-24 19:00;CYQF 241900Z 33002KT 15SM FEW070 19/03 A2995 RMK CU1 SLP149

CYQF;2009-05-24 20:00;CYQF 242000Z 32010KT 15SM FEW070 20/02 A2995 RMK CU1 SLP149

CYQF;2009-05-24 21:00;CYQF 242100Z 36005KT 15SM FEW080 20/01 A2994 RMK CU2 SLP141

CYQF;2009-05-24 22:00;CYQF 242200Z 34005KT 15SM FEW080 21/01 A2993 RMK CU2 SLP139

CYQF;2009-05-24 23:00;CYQF 242300Z 32010G15KT 15SM FEW080 22/00 A2993 RMK CU2 SLP137

CYQF;2009-05-25 00:00;CYQF 250000Z 33012KT 15SM FEW080 21/M01 A2993 RMK CU2 SLP142

CYQF;2009-05-25 01:00;CYQF 250100Z 33011G16KT 15SM FEW080 21/01 A2993 RMK CU2 SLP143

CYQF;2009-05-25 02:00;CYQF 250200Z 34010G15KT 15SM FEW100 18/01 A2995 RMK AC2 SLP149

CYQF;2009-05-25 03:00;CYQF 250300Z 35004KT 15SM FEW100 17/00 A2996 RMK AC2 SLP153

CYQF;2009-05-25 04:00;CYQF 250400Z 33005KT 15SM SCT100 16/02 A2999 RMK AC3 SLP162

CYQF;2009-05-25 05:00;CYQF 250500Z 33005KT 15SM FEW100 SCT250 11/M01 A3001 RMK AC2CI0 SLP168

CYQF;2009-05-25 06:00;CYQF 250600Z 35006KT 15SM FEW100 FEW250 12/M02 A3003 RMK AC2CI1 SLP177

CYQF;2009-05-25 07:00;CYQF 250700Z 34005KT 15SM FEW100 SCT250 09/M02 A3004 RMK AC2CI1 SLP180

CYQF;2009-05-25 08:00;CYQF 250800Z 00000KT 15SM FEW100 SCT250 07/M02 A3005 RMK AC2CI1 SLP182

CYQF;2009-05-25 09:00;CYQF 250900Z 00000KT 15SM FEW100 SCT250 08/M02 A3005 RMK AC2CI1 SLP187

CYQF;2009-05-25 10:00;CYQF 251000Z 32005KT 15SM BKN100 BKN250 07/M00 A3007 RMK AC5CI1 SLP191

CYQF;2009-05-25 11:00;CYQF 251100Z 35004KT 15SM BKN090 BKN250 07/01 A3007 RMK AC5CI0 SLP193

CYQF;2009-05-25 12:00;CYQF 251200Z 32002KT 15SM BKN090 06/00 A3009 RMK AC3 SLP201

CYQF;2009-05-25 13:00;CYQF 251300Z 36004KT 15SM SCT090 BKN250 07/02 A3012 RMK AC3CI1 SLP208

CYQF;2009-05-25 14:00;CYQF 251400Z 03004KT 15SM SCT090 BKN150 09/02 A3013 RMK AC2AC4 SLP211

CYQF;2009-05-25 15:00;CYQF 251500Z 03003KT 15SM SCT090 BKN150 10/02 A3013 RMK AC2AC3 SLP215

CYQF;2009-05-25 16:00;CYQF 251600Z 05007KT 15SM SCT090 BKN150 BKN250 10/03 A3013 RMK AC2AC3CI1 SLP215

CYQF;2009-05-25 17:00;CYQF 251700Z 06004KT 15SM FEW090 BKN120 BKN250 13/04 A3012 RMK AC2AC2CI1 SLP212

CYQF;2009-05-25 18:00;CYQF 251800Z 10005KT 15SM FEW090 BKN120 BKN250 14/04 A3011 RMK AC1AC4CI1 SLP208

CYQF;2009-05-25 19:00;CYQF 251900Z 10010KT 15SM FEW060 BKN250 16/03 A3008 RMK CU1CI2 SLP200

CYQF;2009-05-25 20:00;CYQF 252000Z 07003KT 15SM FEW060 BKN250 17/03 A3007 RMK CU2CI1 SLP195

CYQF;2009-05-25 21:00;CYQF 252100Z 10008KT 15SM FEW060 BKN250 19/03 A3004 RMK CU2CI2 SLP184

CYQF;2009-05-25 22:00;CYQF 252200Z 19010G15KT 15SM SCT060 BKN250 19/03 A3002 RMK CU3CI2 SLP178

CYQF;2009-05-25 23:00;CYQF 252300Z 14006KT 15SM SCT060 BKN100 BKN250 19/02 A3000 RMK CU3AC3CI1 TCU ASOCTD SW SLP172

CYQF;2009-05-26 00:00;CYQF 260000Z 20008KT 15SM SCT060CB BKN100 BKN260 19/02 A3000 RMK CB3AC3CI1 SH S QUAD SLP171

CYQF;2009-05-26 01:00;CYQF 260100Z 24009KT 15SM FEW060CB BKN100 BKN250 16/02 A2998 RMK CB2AC3CI2 SH SW SLP167

CYQF;2009-05-26 02:00;CYQF 260200Z 14010G15KT 15SM FEW060CB BKN100 BKN250 16/03 A2998 RMK CB2AC2CI1 SLP165

CYQF;2009-05-26 03:00;CYQF 260300Z 11010KT 15SM FEW060 FEW100 FEW250 15/03 A2997 RMK SC1AC1CI0 SLP163

CYQF;2009-05-26 04:00;CYQF 260400Z 11005KT 15SM FEW100 FEW250 12/03 A2996 RMK AC1CI1 CI TR SLP159

CYQF;2009-05-26 05:00;CYQF 260500Z 14007KT 15SM FEW060 FEW250 12/03 A2996 RMK SC1CI1 SLP158

CYQF;2009-05-26 06:00;CYQF 260600Z 14002KT 15SM SKC 10/03 A2996 RMK SLP158

CYQF;2009-05-26 07:00;CYQF 260700Z 00000KT 15SM SKC 09/02 A2995 RMK SLP154

CYQF;2009-05-26 08:00;CYQF 260800Z 00000KT 15SM SKC 07/02 A2993 RMK SLP150

CYQF;2009-05-26 09:00;CYQF 260900Z 00000KT 15SM SKC 07/02 A2992 RMK SLP142

CYQF;2009-05-26 10:00;CYQF 261000Z 00000KT 15SM FEW250 06/02 A2991 RMK CI1 SLP139

CYQF;2009-05-26 11:00;CYQF 261100Z 00000KT 15SM SCT250 05/01 A2988 RMK CI2 SLP132

CYQF;2009-05-26 12:00;CYQF 261200Z 00000KT 15SM SCT120 BKN250 05/01 A2987 RMK AC2CI2 SLP129

CYQF;2009-05-26 13:00;CYQF 261300Z 16004KT 15SM SCT120 BKN250 07/02 A2987 RMK AC2CI2 SLP127

CYQF;2009-05-26 14:00;CYQF 261400Z 18007KT 15SM FEW100 BKN250 11/04 A2986 RMK AC1CI3 SLP124

CYQF;2009-05-26 15:00;CYQF 261500Z 18008KT 15SM FEW100 BKN250 15/04 A2984 RMK ACC1CI2 SLP111

CYQF;2009-05-26 16:00;CYQF 261600Z 18005KT 15SM FEW100 BKN250 17/05 A2983 RMK AC1CI3 SLP107

CYQF;2009-05-26 17:00;CYQF 261700Z 00000KT 15SM FEW070 BKN100 OVC250 19/06 A2982 RMK AC1AC4CI2 SLP103

CYQF;2009-05-26 18:00;CYQF 261800Z 00000KT 15SM FEW070 BKN100 BKN250 21/04 A2980 RMK AC1AC2CI4 SLP095

CYQF;2009-05-26 19:00;CYQF 261900Z 25007KT 15SM FEW070 BKN100 BKN250 21/03 A2978 RMK AC1AC2CI4 SLP091

CYQF;2009-05-26 20:00;CYQF 262000Z 25015G20KT 15SM FEW060 BKN100 OVC250 22/02 A2977 RMK CU2AC5CI1 SLP088

CYQF;2009-05-26 21:00;CYQF 262100Z 25010KT 15SM FEW060 BKN100 OVC250 21/02 A2976 RMK CU2AC5CI1 BARO H+09 SLP085

CYQF;2009-05-26 22:00;CYQF 262200Z 24004KT 15SM FEW070 BKN100 OVC250 20/03 A2973 RMK CU1AC5CI2 SLP076

CYQF;2009-05-26 23:00;CYQF 262300Z CCA 20010KT 15SM FEW070 BKN100 OVC250 20/02 A2972 RMK AC1AC5CI2 VIRGA SLP072

CYQF;2009-05-27 00:00;CYQF 270000Z 22010G16KT 15SM FEW065TCU BKN100 BKN250 20/01 A2972 RMK TCU2AC4CI1 VIRGA SLP072

CYQF;2009-05-27 01:00;CYQF 270100Z 26008KT 15SM FEW065TCU SCT100 BKN250 20/03 A2970 RMK TCU1AC3CI2 SLP068

CYQF;2009-05-27 02:00;CYQF 270200Z 26008KT 15SM FEW065TCU FEW100 BKN250 19/02 A2969 RMK TCU1AC2CI2 SLP065

CYQF;2009-05-27 03:00;CYQF 270300Z 26014G20KT 15SM FEW065TCU FEW100 SCT250 18/M00 A2970 RMK TCU1AC2CI1 SLP061

CYQF;2009-05-27 04:00;CYQF 270400Z 27011G16KT 15SM FEW080 15/M01 A2973 RMK AC2 SLP070

CYQF;2009-05-27 05:00;CYQF 270500Z 31010G15KT 15SM BKN100 15/M01 A2977 RMK AC6 VIRGA SLP080

CYQF;2009-05-27 05:05;CYQF 270505Z 35020G30KT 15SM -SHRA BKN100 RMK AC6

CYQF;2009-05-27 05:40;CYQF 270540Z 33015G22KT 15SM BKN100 RMK AC6

CYQF;2009-05-27 06:00;CYQF 270600Z 35014KT 15SM SCT090 11/04 A2982 RMK AC3 SLP103

CYQF;2009-05-27 07:00;CYQF 270700Z 36005KT 15SM FEW090 10/03 A2984 RMK AC2 SLP108

CYQF;2009-05-27 08:00;CYQF 270800Z 23005KT 15SM FEW080 05/01 A2986 RMK AC2 SLP113

CYQF;2009-05-27 09:00;CYQF 270900Z 23004KT 15SM FEW080 05/00 A2986 RMK AC2 SLP122

CYQF;2009-05-27 10:00;CYQF 271000Z 00000KT 15SM FEW080 05/00 A2987 RMK AC2 SLP125

CYQF;2009-05-27 11:00;CYQF 271100Z 22004KT 15SM FEW080 02/M02 A2988 RMK AC1 SLP127

CYQF;2009-05-27 12:00;CYQF 271200Z 22006KT 15SM FEW080 03/M01 A2990 RMK AC1 SLP137

CYQF;2009-05-27 13:00;CYQF 271300Z 00000KT 15SM FEW080 06/01 A2990 RMK AC1 SLP139

CYQF;2009-05-27 14:00;CYQF 271400Z 00000KT 15SM FEW100 FEW250 09/01 A2991 RMK AC1CI1 AC TR SLP142

CYQF;2009-05-27 15:00;CYQF 271500Z 34004KT 15SM FEW100 BKN250 12/00 A2991 RMK AC1CI1 SLP137

CYQF;2009-05-27 16:00;CYQF 271600Z 33004KT 15SM FEW100 SCT250 14/01 A2990 RMK AC1CI1 SLP132

CYQF;2009-05-27 17:00;CYQF 271700Z 03002KT 15SM FEW030 FEW100 SCT250 15/M01 A2989 RMK CU1AC1CI1 SLP129

CYQF;2009-05-27 18:00;CYQF 271800Z 16005KT 15SM FEW040 SCT100 BKN250 16/00 A2988 RMK CU2AC1CI1 SLP127

CYQF;2009-05-27 19:00;CYQF 271900Z 23003KT 15SM SCT055TCU BKN260 17/M01 A2985 RMK TCU4CI0 VIRGA SH DIST W SLP120

CYQF;2009-05-27 20:00;CYQF 272000Z CCA 23010G15KT 15SM BKN070TCU BKN250 19/01 A2982 RMK TCU5CI1 BARO H+04 VIRGA ALQDS SLP110

CYQF;2009-05-27 21:00;CYQF 272100Z 35010G15KT 15SM -SHRA BKN070TCU BKN250 14/03 A2985 RMK TCU6CI1 VIRGA ALQDS WND SHFT 2052 SLP126

CYQF;2009-05-27 21:19;CYQF 272119Z 03010KT 15SM VCSH BKN070TCU BKN250 RMK TCU6CI1

CYQF;2009-05-27 22:00;CYQF 272200Z 34008KT 15SM BKN060TCU BKN250 17/02 A2983 RMK TCU6CI0 SLP120

CYQF;2009-05-27 23:00;CYQF 272300Z 22005KT 15SM SCT060 18/M00 A2983 RMK CU3 SLP120

CYQF;2009-05-28 00:00;CYQF 280000Z 34007KT 15SM FEW065 SCT250 18/00 A2984 RMK CU2CI0 SLP120

CYQF;2009-05-28 01:00;CYQF 280100Z 34010KT 15SM VCSH SCT065 18/00 A2985 RMK CU3 SLP122

CYQF;2009-05-28 02:00;CYQF 280200Z 01012KT 15SM VCSH FEW060 SCT080 15/01 A2986 RMK CU2AC1 SLP128

CYQF;2009-05-28 03:00;CYQF 280300Z 01006KT 15SM VCSH FEW050 SCT080 14/01 A2989 RMK CU2AC1 SLP133

CYQF;2009-05-28 04:00;CYQF 280400Z 25005KT 15SM FEW035 08/00 A2993 RMK CU2 SLP144

CYQF;2009-05-28 05:00;CYQF 280500Z 30006KT 15SM FEW040 10/M02 A2995 RMK SC2 SLP151

CYQF;2009-05-28 06:00;CYQF 280600Z 32006KT 15SM FEW040 08/M03 A2997 RMK SC1 SLP162

CYQF;2009-05-28 07:00;CYQF 280700Z 29005KT 15SM SKC 06/M04 A2998 RMK SLP165

CYQF;2009-05-28 08:00;CYQF 280800Z 28008KT 15SM SKC 05/M04 A2998 RMK SLP165

CYQF;2009-05-28 09:00;CYQF 280900Z 27006KT 15SM SKC 04/M04 A3000 RMK SLP177

CYQF;2009-05-28 10:00;CYQF 281000Z 00000KT 15SM SKC 03/M04 A3001 RMK OBS TAKEN +5 SLP182

CYQF;2009-05-28 11:00;CYQF 281100Z 16006KT 15SM FEW080 FEW250 01/M03 A3002 RMK AC1CI0 SLP184

CYQF;2009-05-28 12:00;CYQF 281200Z 00000KT 15SM FEW080 SCT250 01/M03 A3003 RMK AC1CI1 SLP187

CYQF;2009-05-28 13:00;CYQF 281300Z 00000KT 15SM FEW080 BKN250 03/M02 A3004 RMK AC1CI2 SLP191

CYQF;2009-05-28 14:00;CYQF 281400Z 00000KT 15SM BKN250 09/M02 A3004 RMK CI2 SLP192

CYQF;2009-05-28 15:00;CYQF 281500Z 23006KT 15SM BKN250 11/M03 A3005 RMK CI2 SLP190

CYQF;2009-05-28 16:00;CYQF 281600Z 19005KT 15SM BKN250 13/M03 A3004 RMK CI2 SLP186

CYQF;2009-05-28 17:00;CYQF 281700Z 22004KT 15SM FEW030 BKN260 15/M05 A3002 RMK CU1CI2 SLP181

CYQF;2009-05-28 18:00;CYQF 281800Z 19006KT 15SM FEW070 BKN250 16/M04 A3000 RMK CU1CI2 SLP174

CYQF;2009-05-28 19:00;CYQF 281900Z 27003KT 15SM FEW075 BKN250 18/M01 A2998 RMK CU1CI1 CU TR SLP166

CYQF;2009-05-28 20:00;CYQF 282000Z 03008KT 15SM FEW075 BKN260 19/M04 A2995 RMK CU1CI2 SLP158

CYQF;2009-05-28 21:00;CYQF 282100Z 36002KT 15SM FEW070 BKN250 20/M02 A2994 RMK CU1CI2 SLP150

CYQF;2009-05-28 22:00;CYQF 282200Z 12005KT 15SM FEW070 BKN260 20/M02 A2993 RMK CU1CI2 SLP147

CYQF;2009-05-28 23:00;CYQF 282300Z 28002KT 15SM FEW090 BKN270 20/M03 A2991 RMK CU2CI1 SLP143

CYQF;2009-05-29 00:00;CYQF 290000Z 22003KT 15SM FEW090 BKN270 21/M03 A2991 RMK CU2CI1 SLP144

CYQF;2009-05-29 01:00;CYQF 290100Z 35010KT 15SM FEW090 FEW150 BKN270 21/M02 A2991 RMK CU2AC1CI1 SLP144

CYQF;2009-05-29 02:00;CYQF 290200Z 35003KT 15SM FEW090 FEW150 SCT270 20/01 A2992 RMK AC1AC1CI1 SLP148

CYQF;2009-05-29 03:00;CYQF 290300Z 33005KT 15SM FEW150 BKN250 15/02 A2994 RMK AC2CI2 SLP151

CYQF;2009-05-29 04:00;CYQF 290400Z 31004KT 15SM FEW150 BKN250 14/00 A2996 RMK AC1CI1 SLP158

CYQF;2009-05-29 05:00;CYQF 290500Z 30006KT 15SM FEW150 SCT250 12/M00 A2998 RMK AC1CI1 SLP164

CYQF;2009-05-29 06:00;CYQF 290600Z 29005KT 15SM FEW250 11/M01 A3000 RMK CI0 SLP168

CYQF;2009-05-29 07:00;CYQF 290700Z 30005KT 15SM FEW250 09/M02 A3001 RMK CI0 SLP172

CYQF;2009-05-29 08:00;CYQF 290800Z 00000KT 15SM SKC 09/M01 A3002 RMK SLP176

CYQF;2009-05-29 09:00;CYQF 290900Z 00000KT 15SM SKC 08/M02 A3003 RMK SLP180

CYQF;2009-05-29 10:00;CYQF 291000Z 36005KT 15SM FEW250 05/M02 A3005 RMK CI0 SLP186

CYQF;2009-05-29 11:00;CYQF 291100Z 36006KT 15SM BKN250 06/M02 A3006 RMK CI1 SLP189

CYQF;2009-05-29 12:00;CYQF 291200Z 35004KT 15SM FEW150 BKN250 06/M02 A3008 RMK AC1CI2 SLP198

CYQF;2009-05-29 13:00;CYQF 291300Z 00000KT 15SM SCT150 BKN250 07/M01 A3009 RMK AC2CI2 SLP201

CYQF;2009-05-29 14:00;CYQF 291400Z 00000KT 15SM SCT150 BKN250 10/M01 A3010 RMK AC3CI2 SLP203

CYQF;2009-05-29 15:00;CYQF 291500Z 13007KT 15SM FEW150 BKN250 14/M03 A3011 RMK AC2CI2 SLP204

CYQF;2009-05-29 16:00;CYQF 291600Z 15008KT 15SM BKN250 15/M03 A3010 RMK CI5 OBS TAKEN -05 SLP201

CYQF;2009-05-29 17:00;CYQF 291700Z 16008KT 15SM BKN250 17/M03 A3008 RMK CI5 SLP195

CYQF;2009-05-29 18:00;CYQF 291800Z 12003KT 15SM BKN250 20/M02 A3007 RMK CI3 SLP188

CYQF;2009-05-29 19:00;CYQF 291900Z 15014KT 15SM BKN250 22/M00 A3004 RMK CI2 SLP180

CYQF;2009-05-29 20:00;CYQF 292000Z 22005KT 15SM BKN250 22/M00 A3001 RMK CI2 SLP171

CYQF;2009-05-29 21:00;CYQF 292100Z 16006KT 15SM FEW095 FEW250 23/M01 A2999 RMK CU1CI1 SLP162

CYQF;2009-05-29 22:00;CYQF 292200Z 17007KT 15SM FEW060 FEW250 26/01 A2996 RMK CU1CI1 SLP153

CYQF;2009-05-29 23:00;CYQF 292300Z 13013KT 15SM FEW060 FEW250 26/01 A2994 RMK CU1CI2 SLP146

CYQF;2009-05-30 00:00;CYQF 300000Z 12010KT 15SM FEW060 FEW250 26/01 A2991 RMK CU1CI2 SLP133

CYQF;2009-05-30 01:00;CYQF 300100Z 12012G18KT 15SM FEW060 FEW120 SCT270 26/01 A2988 RMK CU1AC1CI2 SLP123

CYQF;2009-05-30 02:00;CYQF 300200Z 13012KT 15SM FEW060 FEW120 FEW270 26/00 A2986 RMK CU1AC1CI2 TR AC SLP117

CYQF;2009-05-30 03:00;CYQF 300300Z 15011KT 15SM FEW060 SCT270 24/00 A2985 RMK CU1CI2 SLP105

CYQF;2009-05-30 04:00;CYQF 300400Z 14012G19KT 15SM FEW055 FEW120 SCT270 21/00 A2985 RMK SC1AC2CI1 TR SC SLP104

CYQF;2009-05-30 05:00;CYQF 300500Z 17012KT 15SM FEW050 FEW120 19/00 A2985 RMK SC1AC2 SLP106

CYQF;2009-05-30 06:00;CYQF 300600Z 17013KT 15SM FEW120 19/02 A2984 RMK AC2 SLP102

CYQF;2009-05-30 07:00;CYQF 300700Z 19005KT 15SM FEW250 17/02 A2983 RMK CI2 SLP098

CYQF;2009-05-30 08:00;CYQF 300800Z 18008KT 15SM BKN250 13/02 A2981 RMK CI2 SLP093

CYQF;2009-05-30 09:00;CYQF 300900Z 18006KT 15SM BKN250 13/02 A2980 RMK CI6 SLP089

CYQF;2009-05-30 10:00;CYQF 301000Z 19006KT 15SM BKN250 12/03 A2979 RMK CI7 SLP087

CYQF;2009-05-30 11:00;CYQF 301100Z 20004KT 15SM SCT100 BKN250 11/02 A2978 RMK AC4CI3 SLP083

CYQF;2009-05-30 12:00;CYQF 301200Z 20007KT 15SM FEW050 BKN100 BKN250 13/03 A2978 RMK SC1AC5CI2 SLP081

CYQF;2009-05-30 13:00;CYQF 301300Z 25008KT 15SM FEW050 SCT100 BKN250 15/03 A2979 RMK SC1AC2CI2 ACSL SLP084

CYQF;2009-05-30 14:00;CYQF 301400Z 36015G20KT 15SM FEW100 SCT250 17/03 A2983 RMK AC2CI1 SLP097

CYQF;2009-05-30 15:00;CYQF 301500Z 01016G23KT 15SM FEW050 FEW100 FEW250 18/03 A2985 RMK SC1AC1CI1 SLP099

CYQF;2009-05-30 16:00;CYQF 301600Z 02014G21KT 15SM FEW050 FEW100 FEW250 19/03 A2985 RMK CU1AC1CI1 TR CU SLP101

CYQF;2009-05-30 17:00;CYQF 301700Z 01015G20KT 15SM FEW100 FEW250 19/03 A2986 RMK AC1CI1 SLP104

CYQF;2009-05-30 18:00;CYQF 301800Z 03015G20KT 15SM BKN120 BKN250 19/04 A2986 RMK AC5CI1 SLP111

CYQF;2009-05-30 19:00;CYQF 301900Z 02015G20KT 15SM BKN120 18/04 A2987 RMK AC6 SLP113

CYQF;2009-05-30 20:00;CYQF 302000Z 02010G15KT 15SM BKN120 18/02 A2987 RMK AC6 SLP113

CYQF;2009-05-30 21:00;CYQF 302100Z 06005KT 15SM BKN120 BKN250 18/02 A2986 RMK AC5CI0 SLP116

CYQF;2009-05-30 22:00;CYQF 302200Z 06007KT 15SM FEW040 FEW120 19/01 A2984 RMK CU1AC2 SLP109

CYQF;2009-05-30 23:00;CYQF 302300Z 05007KT 15SM FEW040 FEW120 19/01 A2982 RMK CU1AC1 SLP104

CYQF;2009-05-31 00:00;CYQF 310000Z 36008KT 15SM FEW040 FEW120 FEW250 20/01 A2981 RMK CU1AC1CI0 SLP097

CYQF;2009-05-31 01:00;CYQF 310100Z 02010KT 15SM FEW060 SCT250 19/M02 A2980 RMK CU2CI0 SLP096

CYQF;2009-05-31 02:00;CYQF 310200Z 03007KT 15SM SCT060 BKN250 18/M01 A2981 RMK CU3CI0 SLP098

CYQF;2009-05-31 03:00;CYQF 310300Z 05003KT 15SM SCT060 BKN250 17/00 A2981 RMK CU3CI0 TCU ASOCTD SLP096

CYQF;2009-05-31 04:00;CYQF 310400Z 00000KT 15SM FEW060 BKN250 13/01 A2983 RMK SC2CI1 SLP101

CYQF;2009-05-31 05:00;CYQF 310500Z 24005KT 15SM FEW080 SCT250 09/01 A2985 RMK AC2CI1 SLP106

CYQF;2009-05-31 06:00;CYQF 310600Z 34004KT 15SM FEW080 FEW250 10/01 A2988 RMK AC1CI2 SLP126

CYQF;2009-05-31 07:00;CYQF 310700Z 30003KT 15SM SCT080 05/00 A2990 RMK AC3 OBS TAKEN +05 SLP133

CYQF;2009-05-31 08:00;CYQF 310800Z 36005KT 15SM FEW080 07/M01 A2992 RMK AC2 SLP138

CYQF;2009-05-31 09:00;CYQF 310900Z 32005KT 15SM FEW080 BKN250 06/M05 A2993 RMK AC2CI1 SLP149

CYQF;2009-05-31 10:00;CYQF 311000Z 00000KT 15SM FEW080 BKN250 07/M07 A2995 RMK AC1CI1 SLP153

CYQF;2009-05-31 11:00;CYQF 311100Z 00000KT 15SM FEW080 BKN250 03/M06 A2994 RMK ACC1CI0 ACC DIST SE SLP152

CYQF;2009-05-31 12:00;CYQF 311200Z 18005KT 15SM FEW080 SCT250 02/M05 A2996 RMK AC1CI0 SLP160

CYQF;2009-05-31 13:00;CYQF 311300Z 19003KT 15SM FEW080 FEW250 04/M04 A2997 RMK AC1CI1 AC TR SLP163

CYQF;2009-05-31 14:00;CYQF 311400Z 22002KT 15SM FEW080 SCT250 09/M03 A2996 RMK AC1CI1 TR AC SLP162

CYQF;2009-05-31 15:00;CYQF 311500Z 00000KT 15SM FEW080 FEW250 12/M03 A2996 RMK AC1CI1 TR AC SLP155

CYQF;2009-05-31 16:00;CYQF 311600Z 00000KT 15SM FEW250 14/M06 A2995 RMK CI1 SLP152

CYQF;2009-05-31 17:00;CYQF 311700Z 00000KT 15SM FEW250 15/M06 A2994 RMK CI1 SLP148

CYQF;2009-05-31 18:00;CYQF 311800Z 24005KT 15SM FEW250 16/M06 A2994 RMK CI1 SLP147

CYQF;2009-05-31 19:00;CYQF 311900Z 25008KT 15SM FEW050 FEW250 17/M08 A2993 RMK CU1CI0 TR CU SLP144

CYQF;2009-05-31 20:00;CYQF 312000Z 31011KT 15SM FEW050 18/M08 A2991 RMK CU2 SLP140

CYQF;2009-05-31 21:00;CYQF 312100Z 34008KT 15SM FEW060 18/M07 A2991 RMK CU2 TCU TP SW SLP141

CYQF;2009-05-31 22:00;CYQF 312200Z 35009KT 15SM FEW060 19/M05 A2991 RMK CU2 TCU S SLP140

CYQF;2009-05-31 23:00;CYQF 312300Z 35014G20KT 15SM FEW060 SCT250 19/M05 A2992 RMK CU1CI1 SLP145

CYQF;2009-06-01 01:00;CYQF 010100Z 36018G29KT 15SM FEW060 SCT120 BKN250 15/M01 A3000 RMK CU2AC2CI1 SLP174

CYQF;2009-06-01 02:00;CYQF 010200Z 35017G25KT 15SM FEW060 SCT120 BKN250 14/M03 A3004 RMK CU2AC2CI1 VIRGA S SLP188

CYQF;2009-06-01 03:00;CYQF 010300Z 35014G21KT 15SM FEW060 BKN100 BKN250 12/M02 A3008 RMK CU1AC4CI1 SLP200

CYQF;2009-06-01 04:00;CYQF 010400Z 34012G18KT 15SM FEW060 BKN100 BKN250 11/M00 A3012 RMK CU1AC4CI1 SLP212

CYQF;2009-06-01 05:00;CYQF 010500Z 35012G19KT 15SM FEW030 BKN100 BKN250 09/00 A3016 RMK SC2AC4CI0 SLP224

CYQF;2009-06-01 06:00;CYQF 010600Z 32010G15KT 15SM BKN050 BKN100 09/01 A3019 RMK SC6AC1 SLP236

CYQF;2009-06-01 07:00;CYQF 010700Z 34012KT 15SM SCT050 BKN100 07/01 A3022 RMK SC3AC2 SLP245

CYQF;2009-06-01 08:00;CYQF 010800Z 32010KT 15SM BKN040 BKN100 07/01 A3024 RMK SC6AC2 SLP251

CYQF;2009-06-01 09:00;CYQF 010900Z 33010G15KT 15SM BKN040 07/02 A3025 RMK SC6 SLP258

CYQF;2009-06-01 10:00;CYQF 011000Z 33010G15KT 15SM BKN040 07/02 A3026 RMK SC7 SLP262

CYQF;2009-06-01 11:00;CYQF 011100Z 33012G18KT 15SM FEW020 OVC040 07/02 A3027 RMK CU1SC7 SLP264

CYQF;2009-06-01 12:00;CYQF 011200Z 32010G15KT 15SM BKN020 BKN100 06/02 A3029 RMK SC6AC2 CIG RAG SLP273

CYQF;2009-06-01 13:00;CYQF 011300Z 34012KT 15SM BKN020 BKN100 07/02 A3031 RMK SC6AC2 CIG RAG SLP279

CYQF;2009-06-01 14:00;CYQF 011400Z 34010G15KT 15SM BKN020 BKN100 07/02 A3033 RMK SC6AC2 CIG RAG SLP285

CYQF;2009-06-01 15:00;CYQF 011500Z 35013KT 15SM BKN020 BKN100 09/02 A3033 RMK CU5AC2 SLP291

CYQF;2009-06-01 16:00;CYQF 011600Z 35013KT 15SM BKN020 BKN040 08/01 A3034 RMK CU6SC1 SLP294

CYQF;2009-06-01 17:00;CYQF 011700Z 33010G15KT 15SM BKN025 09/01 A3035 RMK CU7 CIG RAG SLP297

CYQF;2009-06-01 18:00;CYQF 011800Z 33009KT 15SM OVC030 09/00 A3036 RMK CU8 SLP304

CYQF;2009-06-01 19:00;CYQF 011900Z 01008KT 15SM BKN030 OVC050 10/M00 A3037 RMK CU6SC2 SLP307

CYQF;2009-06-01 20:00;CYQF 012000Z 36010KT 15SM BKN030 BKN050 11/M00 A3036 RMK CU5SC2 SLP305

CYQF;2009-06-01 21:00;CYQF 012100Z 34009KT 15SM BKN040 BKN060 12/01 A3035 RMK CU5SC2 SLP302

CYQF;2009-06-01 22:00;CYQF 012200Z 03003KT 15SM BKN050 11/M01 A3035 RMK CU6 SLP301

CYQF;2009-06-01 23:00;CYQF 012300Z 01002KT 15SM BKN050 12/M01 A3035 RMK SC6 CU ASOCTD SLP301

CYQF;2009-06-02 00:00;CYQF 020000Z 08002KT 15SM SCT060 12/M01 A3034 RMK SC4 SLP299

CYQF;2009-06-02 01:00;CYQF 020100Z 05004KT 15SM FEW060 13/M02 A3034 RMK SC2 SLP297

CYQF;2009-06-02 02:00;CYQF 020200Z 00000KT 15SM FEW060 12/M01 A3034 RMK SC1 SLP297

CYQF;2009-06-02 03:00;CYQF 020300Z 00000KT 15SM SKC 12/M01 A3034 RMK SLP296

CYQF;2009-06-02 04:00;CYQF 020400Z 00000KT 15SM SKC 09/M02 A3035 RMK SLP299

CYQF;2009-06-02 05:00;CYQF 020500Z 00000KT 15SM SKC 05/M02 A3037 RMK SLP303

CYQF;2009-06-02 06:00;CYQF 020600Z 00000KT 15SM SKC 04/M01 A3037 RMK SLP313

CYQF;2009-06-02 07:00;CYQF 020700Z 00000KT 15SM SKC 03/M02 A3038 RMK SLP315

CYQF;2009-06-02 08:00;CYQF 020800Z 00000KT 15SM SKC 00/M04 A3038 RMK SLP316

CYQF;2009-06-02 09:00;CYQF 020900Z 00000KT 15SM SKC 01/M03 A3038 RMK SLP318

CYQF;2009-06-02 10:00;CYQF 021000Z 22003KT 15SM SKC M01/M04 A3037 RMK SLP315

CYQF;2009-06-02 11:00;CYQF 021100Z 20003KT 15SM SKC M01/M04 A3037 RMK SLP315

CYQF;2009-06-02 12:00;CYQF 021200Z 20003KT 15SM SKC M01/M03 A3037 RMK SLP317

CYQF;2009-06-02 13:00;CYQF 021300Z 00000KT 15SM SKC 02/M02 A3038 RMK SLP319

CYQF;2009-06-02 14:00;CYQF 021400Z 18003KT 15SM SKC 06/M00 A3037 RMK SLP316

CYQF;2009-06-02 15:00;CYQF 021500Z 16008KT 15SM SKC 11/00 A3036 RMK SLP297

CYQF;2009-06-02 16:00;CYQF 021600Z 17013KT 15SM SKC 13/M02 A3035 RMK SLP296

CYQF;2009-06-02 17:00;CYQF 021700Z 17010G15KT 15SM SKC 14/M02 A3034 RMK SLP291

CYQF;2009-06-02 18:00;CYQF 021800Z 18012KT 15SM FEW250 16/M02 A3032 RMK CI0 SLP288

CYQF;2009-06-02 19:00;CYQF 021900Z 15012KT 15SM FEW250 17/M02 A3031 RMK CI0 SLP284

CYQF;2009-06-02 20:00;CYQF 022000Z 16012KT 15SM FEW250 18/M04 A3029 RMK CI0 SLP277

CYQF;2009-06-02 21:00;CYQF 022100Z 18012KT 15SM FEW250 20/M03 A3027 RMK CI0 SLP270

CYQF;2009-06-02 22:00;CYQF 022200Z 18010KT 15SM FEW250 20/M05 A3025 RMK CI1 SLP264

CYQF;2009-06-02 23:00;CYQF 022300Z 20012KT 15SM FEW250 20/M05 A3023 RMK CI1 SLP257

CYQF;2009-06-03 00:00;CYQF 030000Z 16010G15KT 15SM FEW250 20/M05 A3021 RMK CI1 SLP250

CYQF;2009-06-03 01:00;CYQF 030100Z 18012KT 15SM FEW250 20/M05 A3019 RMK CI1 SLP244

CYQF;2009-06-03 02:00;CYQF 030200Z 17012KT 15SM FEW250 19/M05 A3018 RMK CI0 SLP241

CYQF;2009-06-03 03:00;CYQF 030300Z 17012KT 15SM FEW250 17/M05 A3018 RMK CI1 SLP229

CYQF;2009-06-03 04:00;CYQF 030400Z 17006KT 15SM FEW250 14/M05 A3018 RMK CI2 SLP229

CYQF;2009-06-03 05:00;CYQF 030500Z 17003KT 15SM FEW250 11/M04 A3019 RMK CI2 SLP232

CYQF;2009-06-03 06:00;CYQF 030600Z 18005KT 15SM FEW250 08/M05 A3019 RMK CI2 SLP238

CYQF;2009-06-03 07:00;CYQF 030700Z 18004KT 15SM FEW250 08/M05 A3019 RMK CI2 OBS TAKEN +07 SLP238

CYQF;2009-06-03 08:00;CYQF 030800Z 00000KT 15SM SKC 03/M04 A3019 RMK SLP238

CYQF;2009-06-03 09:00;CYQF 030900Z 00000KT 15SM SKC 05/M04 A3019 RMK SLP237

CYQF;2009-06-03 10:00;CYQF 031000Z 00000KT 15SM FEW250 03/M04 A3018 RMK CI2 SLP235

CYQF;2009-06-03 11:00;CYQF 031100Z 26005KT 15SM FEW250 01/M04 A3019 RMK CI2 SLP236

CYQF;2009-06-03 12:00;CYQF 031200Z 21004KT 15SM SCT250 02/M04 A3019 RMK CI2 SLP241

CYQF;2009-06-03 13:00;CYQF 031300Z 22003KT 15SM SCT250 05/M02 A3021 RMK CI2 SLP245

CYQF;2009-06-03 14:00;CYQF 031400Z 22003KT 15SM FEW250 08/M01 A3021 RMK CI1 SLP247

CYQF;2009-06-03 15:00;CYQF 031500Z 34003KT 15SM FEW250 13/01 A3021 RMK CI1 SLP237

CYQF;2009-06-03 16:00;CYQF 031600Z 33006KT 15SM FEW250 15/M01 A3021 RMK CI1 SLP238

CYQF;2009-06-03 17:00;CYQF 031700Z 30004KT 15SM FEW250 18/M00 A3020 RMK CI1 SLP235

CYQF;2009-06-03 18:00;CYQF 031800Z 06004KT 15SM FEW250 20/00 A3018 RMK CI1 SLP232

CYQF;2009-06-03 19:00;CYQF 031900Z 29004KT 15SM FEW250 21/M03 A3017 RMK CI1 SLP228

CYQF;2009-06-03 20:00;CYQF 032000Z 03002KT 15SM FEW250 22/M02 A3015 RMK CI1 SLP223

CYQF;2009-06-03 21:00;CYQF 032100Z 33010KT 15SM SKC 22/M02 A3014 RMK SLP218

CYQF;2009-06-03 22:00;CYQF 032200Z 28006KT 15SM SKC 22/M01 A3014 RMK SLP216

CYQF;2009-06-03 23:00;CYQF 032300Z 34012KT 15SM SKC 24/M01 A3013 RMK SLP214

CYQF;2009-06-04 00:00;CYQF 040000Z 32002KT 15SM SKC 23/M02 A3012 RMK SLP213

CYQF;2009-06-04 01:00;CYQF 040100Z 02010KT 15SM SKC 23/M02 A3011 RMK SLP210

CYQF;2009-06-04 02:00;CYQF 040200Z 04007KT 15SM SKC 22/M01 A3010 RMK SLP208

CYQF;2009-06-04 03:00;CYQF 040300Z 36004KT 15SM SKC 19/M01 A3011 RMK SLP201

CYQF;2009-06-04 04:00;CYQF 040400Z 33004KT 15SM SKC 16/M01 A3011 RMK SLP203

CYQF;2009-06-04 05:00;CYQF 040500Z 32005KT 15SM SKC 13/M01 A3012 RMK SLP206

CYQF;2009-06-04 06:00;CYQF 040600Z 00000KT 15SM SKC 11/M00 A3013 RMK SLP208

CYQF;2009-06-04 07:00;CYQF 040700Z 00000KT 15SM SKC 08/M01 A3012 RMK SLP207

CYQF;2009-06-04 08:00;CYQF 040800Z 20005KT 15SM SKC 05/M02 A3011 RMK SLP204

CYQF;2009-06-04 09:00;CYQF 040900Z 24003KT 15SM SKC 05/M01 A3012 RMK SLP209

CYQF;2009-06-04 10:00;CYQF 041000Z 00000KT 15SM FEW100 FEW250 05/M01 A3014 RMK AC2CI0 SLP216

CYQF;2009-06-04 11:00;CYQF 041100Z 00000KT 15SM FEW100 FEW250 04/M01 A3015 RMK AC2CI0 SLP218

CYQF;2009-06-04 12:00;CYQF 041200Z 36004KT 15SM FEW100 06/01 A3015 RMK AC1 SLP219

CYQF;2009-06-04 13:00;CYQF 041300Z 34004KT 15SM FEW100 08/04 A3016 RMK AC1 SLP223

CYQF;2009-06-04 14:00;CYQF 041400Z 02009KT 15SM FEW100 12/05 A3017 RMK ACC1 SLP226

CYQF;2009-06-04 15:00;CYQF 041500Z 03006KT 15SM FEW100 13/06 A3018 RMK AC1 SLP225

CYQF;2009-06-04 16:00;CYQF 041600Z 01006KT 15SM FEW120 14/06 A3019 RMK AC1 SLP228

CYQF;2009-06-04 17:00;CYQF 041700Z 36008KT 15SM FEW040 FEW120 17/06 A3018 RMK CU1AC1 TR CU SLP225

CYQF;2009-06-04 18:00;CYQF 041800Z 01010KT 15SM FEW050 SCT250 18/06 A3016 RMK CU2CI0 SLP224

CYQF;2009-06-04 19:00;CYQF 041900Z 36012KT 15SM FEW050 BKN250 18/06 A3016 RMK CU2CI1 SLP223

CYQF;2009-06-04 20:00;CYQF 042000Z 32010G15KT 15SM FEW050 BKN250 18/06 A3015 RMK CU2CI2 SLP220

CYQF;2009-06-04 21:00;CYQF 042100Z 03010G15KT 15SM FEW050 BKN250 19/05 A3014 RMK CU2CI2 SLP222

CYQF;2009-06-04 22:00;CYQF 042200Z 01010G15KT 15SM SCT060 BKN250 18/05 A3014 RMK CU3CI2 SLP222

CYQF;2009-06-04 23:00;CYQF 042300Z 02012G20KT 15SM BKN060 OVC250 15/01 A3015 RMK SC5CI1 SLP225

CYQF;2009-06-05 00:00;CYQF 050000Z 03010G17KT 15SM FEW060 SCT120 OVC250 16/02 A3014 RMK SC2AC2CI2 SLP223

CYQF;2009-06-05 01:00;CYQF 050100Z 02010G15KT 15SM SCT060 BKN120 OVC250 15/01 A3015 RMK SC3AC2CI1 SLP226

CYQF;2009-06-05 02:00;CYQF 050200Z 05008KT 15SM BKN060 OVC120 14/M00 A3014 RMK SC6AC2 SLP223

CYQF;2009-06-05 03:00;CYQF 050300Z 06008KT 15SM BKN070 OVC120 13/M03 A3014 RMK AC6AC2 SLP217

CYQF;2009-06-05 04:00;CYQF 050400Z 05006KT 15SM OVC070 12/M07 A3014 RMK AC8 SLP219

CYQF;2009-06-05 04:18;CYQF 050418Z 00000KT 15SM TS VCSH BKN060 OVC100 RMK SC6AC2 CB EMBD LTGCG S

CYQF;2009-06-05 05:00;CYQF 050500Z CCA 09005KT 15SM BKN060 OVC100 12/M06 A3015 RETS RMK SC6AC2 CB EMBD LTNG SW-S SLP221

CYQF;2009-06-05 06:00;CYQF 050600Z 13005KT 15SM BKN060 OVC120 10/M01 A3015 RMK SC6AC2 CB EMBD LTNG SW SLP219

CYQF;2009-06-05 07:00;CYQF 050700Z 11008KT 15SM BKN060 OVC120 10/M04 A3015 RMK SC6AC2 SLP222

CYQF;2009-06-05 08:00;CYQF 050800Z 17006KT 15SM BKN060 OVC120 08/01 A3016 RMK SC6AC2 SLP223

CYQF;2009-06-05 09:00;CYQF 050900Z 13005KT 15SM BKN060 OVC120 07/02 A3015 RMK SC6AC2 SLP221

CYQF;2009-06-05 10:00;CYQF 051000Z 12006KT 15SM OVC060 07/02 A3014 RMK SC8 SLP220

CYQF;2009-06-05 10:18;CYQF 051018Z 13005KT 15SM -SHRA OVC060 RMK SC8

CYQF;2009-06-05 11:00;CYQF 051100Z 15007KT 15SM -SHRA FEW030 OVC060 06/03 A3013 RMK SC2SC6 SLP217

CYQF;2009-06-05 11:20;CYQF 051120Z 13011KT 15SM FEW015 OVC060 RMK SF2SC6

CYQF;2009-06-05 12:00;CYQF 051200Z 13007KT 15SM FEW010 SCT060 OVC100 05/03 A3013 RMK SF1SC3AC4 SLP220

CYQF;2009-06-05 13:00;CYQF 051300Z 16010KT 15SM FEW015 OVC090 05/02 A3014 RMK SF2AC6 SLP223

CYQF;2009-06-05 13:43;CYQF 051343Z 15009KT 15SM -SHRA FEW012 OVC080 RMK SF2AC6

CYQF;2009-06-05 14:00;CYQF 051400Z 14010KT 15SM -SHRA FEW012 OVC080 04/02 A3014 RMK SF2AC6 SLP222

CYQF;2009-06-05 15:00;CYQF 051500Z 15008KT 15SM -SHRA SCT015 OVC080 04/02 A3013 RMK SC3AC5 SLP225

CYQF;2009-06-05 15:48;CYQF 051548Z 12010KT 15SM BKN020 OVC080 RMK SC6AC2

CYQF;2009-06-05 16:00;CYQF 051600Z 14010G16KT 15SM BKN020 OVC080 05/01 A3012 RMK SC6AC2 SLP223

CYQF;2009-06-05 17:00;CYQF 051700Z 13010KT 15SM BKN015 OVC080 06/01 A3011 RMK SC6AC2 SLP219

CYQF;2009-06-05 18:00;CYQF 051800Z 14014KT 15SM BKN013 OVC080 05/01 A3010 RMK SC6AC2 SLP218

CYQF;2009-06-05 19:00;CYQF 051900Z 13012KT 15SM OVC011 05/02 A3010 RMK SC8 SLP216

CYQF;2009-06-05 19:25;CYQF 051925Z 15012KT 15SM -RA OVC011 RMK SC8

CYQF;2009-06-05 20:00;CYQF 052000Z 12012KT 15SM -RA OVC013 05/02 A3009 RMK SC8 SLP214

CYQF;2009-06-05 21:00;CYQF 052100Z 12010KT 15SM -RA OVC011 05/02 A3009 RMK SC8 SLP216

CYQF;2009-06-05 22:00;CYQF 052200Z 11007KT 6SM -RA OVC014 04/02 A3010 RMK SC8 SLP219

CYQF;2009-06-05 23:00;CYQF 052300Z 11005KT 6SM -RA BR BKN012 OVC025 04/02 A3009 RMK SC6SC2 SLP218

CYQF;2009-06-06 00:00;CYQF 060000Z 08005KT 8SM -RA BKN012 OVC030 05/03 A3008 RMK SC5SC3 BR SLP216

CYQF;2009-06-06 01:00;CYQF 060100Z 10005KT 8SM -RA BKN012 OVC030 05/02 A3007 RMK SC6SC2 SLP214

CYQF;2009-06-06 01:41;CYQF 060141Z 09003KT 10SM SCT012 BKN030 OVC100 RMK SF3SC2AC3

CYQF;2009-06-06 02:00;CYQF 060200Z 14002KT 10SM FEW012 SCT030 OVC080 05/02 A3006 RMK SF2SC2AC4 SLP211

CYQF;2009-06-06 03:00;CYQF 060300Z 00000KT 10SM FEW012 SCT030 OVC080 04/02 A3006 RMK SF2SC2AC4 SLP212

CYQF;2009-06-06 03:12;CYQF 060312Z 00000KT 10SM -SHRA FEW012 BKN030 OVC080 RMK SF2SC2AC3

CYQF;2009-06-06 04:00;CYQF 060400Z 00000KT 6SM -SHRA BKN016 OVC080 04/02 A3007 RMK SC6AC2 SLP213

CYQF;2009-06-06 04:34;CYQF 060434Z 15004KT 8SM SCT016 BKN080 RMK SC4AC2

CYQF;2009-06-06 05:00;CYQF 060500Z 15002KT 8SM SCT016 BKN080 04/02 A3007 RMK SC4AC2 SLP214

CYQF;2009-06-06 06:00;CYQF 060600Z 17003KT 10SM FEW015 BKN040 OVC080 04/02 A3006 RMK SC2SC5AC2 SLP209

CYQF;2009-06-06 07:00;CYQF 060700Z 00000KT 10SM FEW020 OVC050 03/02 A3005 RMK SC1SC7 SLP208

CYQF;2009-06-06 08:00;CYQF 060800Z 00000KT 10SM OVC050 04/02 A3005 RMK SC8 SLP206

CYQF;2009-06-06 09:00;CYQF 060900Z 00000KT 10SM OVC050 03/02 A3004 RMK SC8 SLP205

CYQF;2009-06-06 09:23;CYQF 060923Z 00000KT 10SM -RA OVC050 RMK SC8

CYQF;2009-06-06 10:00;CYQF 061000Z 00000KT 10SM -RA OVC050 03/02 A3004 RMK SC8 SLP205

CYQF;2009-06-06 10:46;CYQF 061046Z 00000KT 10SM FEW020 OVC050 RMK SC2SC6

CYQF;2009-06-06 11:00;CYQF 061100Z 00000KT 6SM BR FEW020 OVC050 03/02 A3004 RMK CF2SC6 SLP205

CYQF;2009-06-06 12:00;CYQF 061200Z 00000KT 8SM FEW020 OVC050 03/02 A3005 RMK CF2SC6 SLP208

CYQF;2009-06-06 13:00;CYQF 061300Z 00000KT 8SM FEW020 BKN050 OVC080 04/03 A3005 RMK CF2SC5AC2 SLP210

CYQF;2009-06-06 14:00;CYQF 061400Z 00000KT 6SM BR BKN007 BKN040 04/03 A3006 RMK SF5SC2 SLP213

CYQF;2009-06-06 15:00;CYQF 061500Z 08007KT 15SM BKN011 BKN080 06/02 A3007 RMK CF6AC2 SLP211

CYQF;2009-06-06 15:39;CYQF 061539Z 08005KT 15SM BKN017 BKN080 RMK CU6AC1

CYQF;2009-06-06 16:00;CYQF 061600Z 06003KT 15SM BKN022 06/00 A3008 RMK CU7 SLP214

CYQF;2009-06-06 16:41;CYQF 061641Z CCA 10007KT 12SM -SHGSPL BKN025 OVC080 RMK CU6AC2 TCU EMBD

CYQF;2009-06-06 17:00;CYQF 061700Z 10008KT 15SM VCSH BKN025 OVC080 07/00 A3008 RMK CU6AC2 TCU EMBD SLP215

CYQF;2009-06-06 18:00;CYQF 061800Z 08008KT 15SM BKN020 BKN050 07/M01 A3008 RMK CU5SC2 SLP214

CYQF;2009-06-06 19:00;CYQF 061900Z 03008KT 15SM BKN050 BKN080 09/M04 A3007 RMK CU6AC1 SLP212

CYQF;2009-06-06 20:00;CYQF 062000Z 05010G15KT 15SM BKN050 BKN090 09/M05 A3007 RMK CU5AC2 SLP211

CYQF;2009-06-06 21:00;CYQF 062100Z 09004KT 15SM BKN050 BKN090 09/M06 A3006 RMK CU5AC2 SLP206

CYQF;2009-06-06 22:00;CYQF 062200Z 09005KT 15SM BKN050 BKN090 10/M05 A3006 RMK CU5AC2 SLP206

CYQF;2009-06-06 23:00;CYQF 062300Z 09004KT 15SM FEW060 BKN090 10/M05 A3005 RMK CU2AC4 SLP204

CYQF;2009-06-07 00:00;CYQF 070000Z 06009KT 15SM SCT060 BKN090 11/M05 A3005 RMK CU4AC3 TCU ASOCTD SLP200

CYQF;2009-06-07 01:00;CYQF 070100Z 08009KT 15SM SCT060 BKN090 11/M06 A3004 RMK CU3AC3 SLP198

CYQF;2009-06-07 02:00;CYQF 070200Z 07002KT 15SM FEW060 BKN090 BKN250 10/M06 A3005 RMK CU2AC2CI2 SLP199

CYQF;2009-06-07 03:00;CYQF 070300Z 06010KT 15SM SCT060 BKN100 09/M05 A3005 RMK SC4AC3 SLP200

CYQF;2009-06-07 04:00;CYQF 070400Z 07006KT 15SM FEW060 BKN100 BKN250 08/M03 A3006 RMK SC2AC3CI2 SLP202

CYQF;2009-06-07 05:00;CYQF 070500Z 07005KT 15SM SCT100 BKN250 06/M04 A3006 RMK AC4CI2 SLP203

CYQF;2009-06-07 06:00;CYQF 070600Z 08008KT 15SM BKN070 BKN250 06/M04 A3005 RMK AC6CI2 SLP204

CYQF;2009-06-07 07:00;CYQF 070700Z 08007KT 15SM SCT070 BKN250 06/M04 A3005 RMK AC3CI2 SLP202

CYQF;2009-06-07 08:00;CYQF 070800Z 00000KT 15SM SCT070 BKN250 04/M03 A3004 RMK AC4CI2 SLP199

CYQF;2009-06-07 09:00;CYQF 070900Z 00000KT 15SM BKN080 BKN250 03/M02 A3004 RMK AC5CI1 SLP198

CYQF;2009-06-07 10:00;CYQF 071000Z 00000KT 15SM SCT080 BKN250 02/00 A3003 RMK AC3CI2 SLP196

CYQF;2009-06-07 11:00;CYQF 071100Z 16003KT 12SM SCT070 BKN250 02/M00 A3002 RMK AC3CI1 SLP194

CYQF;2009-06-07 12:00;CYQF 071200Z 00000KT 12SM FEW030 SCT070 BKN250 01/M00 A3002 RMK SC1AC2CI2 SLP194

CYQF;2009-06-07 13:00;CYQF 071300Z CCA 00000KT 15SM FEW030 BKN080 BKN250 03/00 A3004 RMK SC2AC3CI0 VIRGA SLP198

CYQF;2009-06-07 14:00;CYQF 071400Z 09003KT 10SM FEW030 BKN080 BKN250 04/01 A3004 RMK SC2AC2CI2 SLP199

CYQF;2009-06-07 15:00;CYQF 071500Z 10004KT 12SM FEW015 BKN080 OVC250 06/01 A3004 RMK CF1AC4CI2 HZ SLP196

CYQF;2009-06-07 16:00;CYQF 071600Z 10004KT 15SM BKN025 BKN090 OVC250 07/01 A3004 RMK CU5AC2CI1 SLP196

CYQF;2009-06-07 17:00;CYQF 071700Z 07008KT 15SM -SHRA BKN025TCU OVC090 06/03 A3004 RMK TCU5AC3 SLP196

CYQF;2009-06-07 17:39;CYQF 071739Z 09010G15KT 15SM -TSRA BKN020CB OVC090 RMK CB5AC3

CYQF;2009-06-07 17:54;CYQF 071754Z 10010KT 15SM -SHRA BKN020TCU BKN090 BKN250 RMK TCU5AC2CI0 CB HVYR SHWRS SW

CYQF;2009-06-07 18:00;CYQF 071800Z 10010KT 15SM -SHRA BKN018TCU BKN090 BKN250 05/03 A3004 RMK TCU5AC2CI0 CB HVYR SHWRS SW RETS SLP202

CYQF;2009-06-07 19:00;CYQF 071900Z CCA 21007KT 8SM -SHRA BKN015 OVC090 04/02 A3006 RMK SC6AC2 TCU EMBD BR SLP209

CYQF;2009-06-07 20:00;CYQF 072000Z 18007KT 5SM -SHRA OVC019 04/03 A3007 RMK SC8 SLP211

CYQF;2009-06-07 21:00;CYQF 072100Z 14010KT 6SM -SHRA BR OVC015 04/02 A3008 RMK SC8 RERA TCU EMBD SLP218

CYQF;2009-06-07 22:00;CYQF 072200Z 12007KT 8SM -SHRA FEW008 BKN013 OVC100 05/03 A3007 RMK SF1SC6AC1 TCU EMBDD SLP217

CYQF;2009-06-07 22:31;CYQF 072231Z 13008KT 12SM FEW010 BKN015 BKN100 RMK SF1SC5AC2 VIRGA

CYQF;2009-06-07 23:00;CYQF 072300Z 00000KT 15SM SCT017 BKN100 BKN250 08/05 A3006 RMK CU3AC2CI1 SLP213

CYQF;2009-06-08 00:00;CYQF 080000Z 18006KT 15SM FEW025 BKN100 BKN250 08/03 A3005 RMK CU2AC2CI1 SLP205

CYQF;2009-06-08 01:00;CYQF 080100Z 12005KT 15SM SCT030 BKN100 BKN250 09/01 A3005 RMK CU3AC2CI1 SLP206

CYQF;2009-06-08 02:00;CYQF 080200Z 10007KT 15SM SCT025TCU BKN100 BKN250 08/02 A3005 RMK TCU3AC2CI2 SLP207

CYQF;2009-06-08 03:00;CYQF 080300Z 07005KT 15SM FEW025 BKN100 BKN250 08/02 A3006 RMK CU2AC4CI2 SLP205

CYQF;2009-06-08 04:00;CYQF 080400Z 06005KT 15SM SCT070 OVC210 07/01 A3006 RMK AC4CI4 SLP206

CYQF;2009-06-08 05:00;CYQF 080500Z 03004KT 15SM BKN070 BKN210 06/01 A3007 RMK AC6CI2 SLP207

CYQF;2009-06-08 06:00;CYQF 080600Z 00000KT 15SM SCT070 BKN210 06/01 A3008 RMK AC3CI1 SLP215

CYQF;2009-06-08 07:00;CYQF 080700Z 07002KT 15SM FEW070 BKN210 04/00 A3007 RMK AC2CI1 SLP211

CYQF;2009-06-08 08:00;CYQF 080800Z 11004KT 15SM SCT070 BKN210 04/01 A3006 RMK AC3CI1 SLP210

CYQF;2009-06-08 09:00;CYQF 080900Z 00000KT 15SM SCT070 BKN210 04/01 A3006 RMK AC4CI1 SLP213

CYQF;2009-06-08 10:00;CYQF 081000Z 16003KT 15SM FEW080 BKN210 03/01 A3006 RMK AC2CI1 SLP212

CYQF;2009-06-08 11:00;CYQF 081100Z 00000KT 15SM FEW080 SCT210 02/00 A3006 RMK AC2CI0 SLP213

CYQF;2009-06-08 12:00;CYQF 081200Z 14003KT 15SM FEW080 FEW210 02/00 A3006 RMK AC1CI0 SLP211

CYQF;2009-06-08 13:00;CYQF 081300Z 14002KT 15SM FEW080 FEW210 03/01 A3007 RMK AC1CI0 SLP212

CYQF;2009-06-08 14:00;CYQF 081400Z 14002KT 15SM FEW005 FEW250 06/03 A3007 RMK SF1CI1 OBS TAKEN +20 SLP212

CYQF;2009-06-08 15:00;CYQF 081500Z 15003KT 15SM SCT020 SCT250 08/03 A3006 RMK CU3CI1 SLP203

CYQF;2009-06-08 16:00;CYQF 081600Z 13008KT 15SM SCT025 SCT100 09/03 A3006 RMK CU3AC1 SLP203

CYQF;2009-06-08 17:00;CYQF 081700Z 15010G15KT 15SM BKN035 BKN100 09/00 A3005 RMK CU6AC1 TCU ASOCTD SLP201

CYQF;2009-06-08 18:00;CYQF 081800Z CCA 14010KT 15SM BKN040 BKN100 10/00 A3005 RMK CU6AC1 TCU ASOCTD SLP197

CYQF;2009-06-08 18:41;CYQF 081841Z 14010G15KT 15SM -SHRA BKN033TCU BKN100 RMK TCU6AC2

CYQF;2009-06-08 19:00;CYQF 081900Z 12006KT 15SM BKN030TCU BKN100 09/02 A3004 RMK TCU6AC1 SLP196

CYQF;2009-06-08 20:00;CYQF 082000Z 09010G15KT 15SM -SHRA BKN035TCU BKN100 10/01 A3003 RMK TCU6AC1 SLP191

CYQF;2009-06-08 21:00;CYQF 082100Z 03010G16KT 15SM VCSH BKN030TCU BKN100 10/04 A3002 RMK TCU6AC1 SLP192

CYQF;2009-06-08 22:00;CYQF 082200Z 06010G15KT 15SM VCSH BKN035TCU BKN100 10/01 A3002 RMK TCU6AC1 SLP190

CYQF;2009-06-08 23:00;CYQF 082300Z 09010G15KT 15SM BKN035TCU BKN100 10/02 A3002 RMK TCU6AC1 SLP190

CYQF;2009-06-09 00:00;CYQF 090000Z 10010G15KT 15SM BKN035TCU BKN100 09/02 A3001 RMK TCU5AC2 SLP191

CYQF;2009-06-09 01:00;CYQF 090100Z 09010KT 15SM SCT040 BKN100 10/00 A3000 RMK CU3AC3 VIRGA SLP188

CYQF;2009-06-09 02:00;CYQF 090200Z 13007KT 15SM FEW035 BKN100 10/00 A2999 RMK CU2AC6 SLP186

CYQF;2009-06-09 03:00;CYQF 090300Z 10010KT 15SM FEW030 SCT100 BKN250 09/02 A3000 RMK CU1AC2CI2 SLP181

CYQF;2009-06-09 04:00;CYQF 090400Z 10006KT 15SM FEW030 SCT100 BKN250 07/02 A3000 RMK CU1AC3CI2 SLP182

CYQF;2009-06-09 05:00;CYQF 090500Z 16005KT 15SM FEW030 SCT100 BKN250 07/02 A3002 RMK SC1AC3CI2 SLP186

CYQF;2009-06-09 06:00;CYQF 090600Z 15006KT 15SM BKN100 BKN250 06/02 A3001 RMK AC5CI1 SLP184

CYQF;2009-06-09 07:00;CYQF 090700Z 13007KT 15SM SCT100 BKN250 05/01 A3000 RMK AC3CI1 SLP182

CYQF;2009-06-09 08:00;CYQF 090800Z 14003KT 15SM FEW100 04/01 A3000 RMK AC2 SLP182

CYQF;2009-06-09 09:00;CYQF 090900Z 00000KT 15SM FEW080 01/M01 A3000 RMK AC2 SLP189

CYQF;2009-06-09 10:00;CYQF 091000Z 02003KT 15SM FEW080 02/01 A3000 RMK AC2 SLP189

CYQF;2009-06-09 11:00;CYQF 091100Z 00000KT 15SM FEW080 01/M00 A3001 RMK AC1 SLP190

CYQF;2009-06-09 12:00;CYQF 091200Z 01003KT 15SM FEW070 00/M01 A3001 RMK AC1 SLP192

CYQF;2009-06-09 13:00;CYQF 091300Z 00000KT 15SM SKC 02/01 A3001 RMK SLP192

CYQF;2009-06-09 14:00;CYQF 091400Z 00000KT 15SM FEW250 05/03 A3002 RMK CI1 OBS TAKEN -01 SLP195

CYQF;2009-06-09 15:00;CYQF 091500Z 12006KT 15SM SCT020 SCT250 09/04 A3003 RMK CU3CI1 FOG BNK OVR HILLS 5 E SLP189

CYQF;2009-06-09 16:00;CYQF 091600Z 15007KT 15SM SCT020 SCT250 09/04 A3003 RMK CU3CI1 FOG BNK DIST E SLP191

CYQF;2009-06-09 17:00;CYQF 091700Z 10005KT 15SM SCT030 BKN250 11/04 A3003 RMK CU4CI1 SLP190

CYQF;2009-06-09 18:00;CYQF 091800Z CCA 14010G15KT 15SM SCT040 BKN250 12/03 A3003 RMK CU4CI2 SLP189

CYQF;2009-06-09 19:00;CYQF 091900Z 10003KT 15SM BKN040 BKN250 13/03 A3002 RMK CU5CI1 SLP185

CYQF;2009-06-09 20:00;CYQF 092000Z 16005KT 15SM BKN040 14/02 A3000 RMK CU6 SLP181

CYQF;2009-06-09 21:00;CYQF 092100Z 19007KT 15SM BKN050 14/01 A2999 RMK CU6 SLP178

CYQF;2009-06-09 22:00;CYQF 092200Z 12004KT 15SM BKN060 15/M01 A2998 RMK CU6 SLP176

CYQF;2009-06-09 23:00;CYQF 092300Z 24005KT 15SM BKN065 16/M01 A2997 RMK CU6 SLP173

CYQF;2009-06-10 00:00;CYQF 100000Z 16007KT 15SM BKN070 16/M02 A2996 RMK CU5 SLP168

CYQF;2009-06-10 01:00;CYQF 100100Z 21002KT 15SM SCT070 16/M02 A2995 RMK CU3 SLP166

CYQF;2009-06-10 02:00;CYQF 100200Z 20008KT 15SM SCT060 16/M01 A2995 RMK CU3 SLP165

CYQF;2009-06-10 03:00;CYQF 100300Z 17007KT 15SM FEW060 FEW240 14/00 A2995 RMK CU1CI1 SLP157

CYQF;2009-06-10 04:00;CYQF 100400Z 16005KT 15SM FEW080 FEW240 12/01 A2995 RMK AC1CI1 SLP157

CYQF;2009-06-10 05:00;CYQF 100500Z 15003KT 15SM FEW240 09/01 A2995 RMK CI1 SLP158

CYQF;2009-06-10 06:00;CYQF 100600Z 16005KT 15SM FEW250 08/M00 A2995 RMK CI1 SLP161

CYQF;2009-06-10 07:00;CYQF 100700Z 15005KT 15SM SKC 07/00 A2996 RMK SLP162

CYQF;2009-06-10 08:00;CYQF 100800Z 17005KT 15SM FEW250 05/M01 A2996 RMK CI1 SLP162

CYQF;2009-06-10 09:00;CYQF 100900Z 13003KT 15SM SCT250 05/00 A2995 RMK CI1 SLP163

CYQF;2009-06-10 10:00;CYQF 101000Z 16003KT 15SM BKN250 03/00 A2995 RMK CI1 SLP161

CYQF;2009-06-10 11:00;CYQF 101100Z 16002KT 15SM FEW100 SCT250 03/01 A2995 RMK AC1CI0 SLP161

CYQF;2009-06-10 12:00;CYQF 101200Z CCA 00000KT 12SM MIFG FEW100 BKN250 02/00 A2995 RMK AC1CI0 SLP161

CYQF;2009-06-10 13:00;CYQF 101300Z 00000KT 15SM SCT100 BKN250 04/01 A2995 RMK AC3CI0 SLP162

CYQF;2009-06-10 14:00;CYQF 101400Z 13004KT 15SM BKN250 08/03 A2995 RMK CI2 SLP162

CYQF;2009-06-10 15:00;CYQF 101500Z 00000KT 15SM BKN250 11/04 A2995 RMK CI2 SLP155

CYQF;2009-06-10 16:00;CYQF 101600Z 18007KT 15SM FEW055 BKN250 14/00 A2995 RMK CU1CI2 TR CU SLP154

CYQF;2009-06-10 17:00;CYQF 101700Z 15003KT 15SM FEW060 BKN250 16/00 A2995 RMK CU1CI2 SLP154

CYQF;2009-06-10 18:00;CYQF 101800Z 10006KT 15SM SCT065 BKN250 16/M01 A2995 RMK CU3CI0 SLP153

CYQF;2009-06-10 19:00;CYQF 101900Z 15007KT 15SM SCT065 SCT250 17/M02 A2994 RMK CU3CI1 SLP152

CYQF;2009-06-10 20:00;CYQF 102000Z 00000KT 15SM SCT065 SCT250 17/M02 A2993 RMK CU3CI1 SLP149

CYQF;2009-06-10 21:00;CYQF 102100Z 18002KT 15SM SCT065 SCT250 19/M00 A2993 RMK CU3CI1 SLP149

CYQF;2009-06-10 22:00;CYQF 102200Z 00000KT 15SM BKN060 BKN250 19/M01 A2993 RMK CU5CI0 SLP148

CYQF;2009-06-10 23:00;CYQF 102300Z 03007KT 15SM BKN060 BKN250 19/M01 A2992 RMK CU5CI0 SLP147

CYQF;2009-06-11 00:00;CYQF 110000Z 02003KT 15SM SCT060 BKN250 19/M01 A2991 RMK CU3CI0 SLP145

CYQF;2009-06-11 01:00;CYQF 110100Z 00000KT 15SM FEW060 SCT250 19/M02 A2990 RMK CU1CI1 SLP143

CYQF;2009-06-11 02:00;CYQF 110200Z 03008KT 15SM FEW060 SCT250 19/M02 A2990 RMK CU1CI1 SLP143

CYQF;2009-06-11 03:00;CYQF 110300Z 35002KT 15SM FEW060 SCT250 17/M01 A2991 RMK SC1CI1 SLP136

CYQF;2009-06-11 04:00;CYQF 110400Z 00000KT 15SM FEW090 SCT250 15/M00 A2991 RMK AC1CI0 SLP138

CYQF;2009-06-11 05:00;CYQF 110500Z 17004KT 15SM FEW090 SCT250 11/M00 A2992 RMK AC2CI0 SLP141

CYQF;2009-06-11 06:00;CYQF 110600Z 19005KT 15SM FEW090 SCT250 08/01 A2992 RMK AC2CI0 SLP145

CYQF;2009-06-11 07:00;CYQF 110700Z 21005KT 15SM FEW100 FEW250 08/01 A2992 RMK AC1CI1 CI TR SLP144

CYQF;2009-06-11 08:00;CYQF 110800Z 21004KT 15SM SCT100 07/00 A2991 RMK AC3 SLP141

CYQF;2009-06-11 09:00;CYQF 110900Z 21002KT 15SM FEW100 07/01 A2991 RMK AC1 SLP140

CYQF;2009-06-11 10:00;CYQF 111000Z 18002KT 15SM FEW100 06/01 A2990 RMK AC1 SLP138

CYQF;2009-06-11 11:00;CYQF 111100Z 19003KT 15SM SKC 05/01 A2990 RMK SLP137

CYQF;2009-06-11 12:00;CYQF 111200Z 20003KT 15SM FEW250 04/M00 A2990 RMK CI1 SLP140

CYQF;2009-06-11 13:00;CYQF 111300Z 22003KT 15SM SKC 06/02 A2990 RMK SLP140

CYQF;2009-06-11 14:00;CYQF 111400Z 22005KT 15SM SKC 10/04 A2990 RMK SLP139

CYQF;2009-06-11 15:00;CYQF 111500Z 22003KT 15SM SKC 13/05 A2989 RMK SLP129

CYQF;2009-06-11 16:00;CYQF 111600Z 00000KT 15SM FEW250 16/05 A2988 RMK CI1 SLP126

CYQF;2009-06-11 17:00;CYQF 111700Z 21005KT 15SM FEW060 FEW250 19/04 A2987 RMK CU1CI2 TR CU SLP122

CYQF;2009-06-11 18:00;CYQF 111800Z 28006KT 15SM FEW070 SCT250 20/02 A2986 RMK CU2CI0 SLP121

CYQF;2009-06-11 19:00;CYQF 111900Z 28008KT 15SM FEW080 SCT250 21/01 A2985 RMK CU2CI0 SLP117

CYQF;2009-06-11 20:00;CYQF 112000Z 32007KT 15SM FEW080 BKN250 22/03 A2984 RMK CU1CI1 SLP113

CYQF;2009-06-11 21:00;CYQF 112100Z 33012KT 15SM FEW080 BKN250 22/00 A2983 RMK CU1CI2 SLP109

CYQF;2009-06-11 22:00;CYQF 112200Z 35012KT 15SM FEW080 BKN250 23/01 A2982 RMK AC1CI2 SLP107

CYQF;2009-06-11 23:00;CYQF 112300Z 27006KT 15SM FEW090 BKN250 22/M00 A2981 RMK AC1CI3 SLP104

CYQF;2009-06-12 00:00;CYQF 120000Z 00000KT 15SM FEW090 BKN250 23/01 A2980 RMK AC1CI3 SLP102

CYQF;2009-06-12 01:00;CYQF 120100Z 04006KT 15SM FEW090 BKN250 23/00 A2980 RMK AC1CI2 SLP101

CYQF;2009-06-12 02:00;CYQF 120200Z 06003KT 15SM SCT100 BKN250 22/M00 A2980 RMK AC2CI2 SLP102

CYQF;2009-06-12 03:00;CYQF 120300Z 00000KT 15SM SCT100 BKN250 20/01 A2981 RMK AC3CI1 SLP098

CYQF;2009-06-12 04:00;CYQF 120400Z 00000KT 15SM FEW100 BKN250 18/03 A2982 RMK AC2CI3 SLP100

CYQF;2009-06-12 05:00;CYQF 120500Z 06010KT 15SM SCT100 BKN250 17/04 A2985 RMK AC2CI2 SLP110

CYQF;2009-06-12 06:00;CYQF 120600Z 04012KT 15SM FEW100 BKN250 16/04 A2987 RMK AC2CI2 SLP115

CYQF;2009-06-12 07:00;CYQF 120700Z 05010G15KT 15SM BKN100 OVC250 16/04 A2988 RMK AC6CI2 SLP119

CYQF;2009-06-12 08:00;CYQF 120800Z 04010KT 15SM BKN100 BKN250 14/05 A2990 RMK AC6CI2 SLP124

CYQF;2009-06-12 09:00;CYQF 120900Z 07005KT 15SM FEW100 SCT250 13/06 A2991 RMK AC2CI2 SLP130

CYQF;2009-06-12 10:00;CYQF 121000Z 00000KT 15SM FEW100 BKN250 08/04 A2992 RMK AC2CI1 SLP132

CYQF;2009-06-12 11:00;CYQF 121100Z 27003KT 15SM FEW100 SCT250 08/05 A2991 RMK AC2CI1 SLP131

CYQF;2009-06-12 12:00;CYQF 121200Z 26006KT 15SM BKN100 BKN250 08/05 A2993 RMK AC5CI1 SLP139

CYQF;2009-06-12 13:00;CYQF 121300Z 00000KT 15SM BKN100 BKN250 10/06 A2994 RMK AC6CI1 SLP142

CYQF;2009-06-12 14:00;CYQF 121400Z 17003KT 15SM BKN100 BKN250 12/07 A2994 RMK AC6CI2 SLP142

CYQF;2009-06-12 15:00;CYQF 121500Z 20005KT 15SM BKN100 BKN250 14/07 A2994 RMK AC6CI1 SLP142

CYQF;2009-06-12 16:00;CYQF 121600Z 22004KT 15SM BKN100 BKN250 16/07 A2994 RMK AC6CI1 SLP142

CYQF;2009-06-12 17:00;CYQF 121700Z 00000KT 15SM BKN100 BKN250 16/07 A2994 RMK AC5CI2 SLP142

CYQF;2009-06-12 18:00;CYQF 121800Z 15005KT 15SM FEW045 FEW100 BKN250 19/07 A2994 RMK CU1AC2CI1 SLP139

CYQF;2009-06-12 19:00;CYQF 121900Z 19004KT 15SM FEW045 FEW100 BKN250 20/07 A2993 RMK CU2AC1CI1 SLP136

CYQF;2009-06-12 20:00;CYQF 122000Z 16006KT 15SM SCT050 BKN250 20/07 A2991 RMK CU4CI0 SLP132

CYQF;2009-06-12 21:00;CYQF 122100Z 15003KT 15SM SCT050 BKN250 22/07 A2990 RMK CU4CI0 SLP127

CYQF;2009-06-12 22:00;CYQF 122200Z 13006KT 15SM BKN055 BKN250 22/07 A2990 RMK CU5CI0 SLP125

CYQF;2009-06-12 23:00;CYQF 122300Z 16004KT 15SM BKN060TCU BKN250 22/07 A2989 RMK TCU5CI1 CB WEST SLP122

CYQF;2009-06-12 23:51;CYQF 122351Z 27012G18KT 15SM -TSRA BKN055CB BKN250 RMK CB6CI1 VSBY W 5

CYQF;2009-06-13 00:00;CYQF 130000Z 29013G20KT 15SM -TSRA BKN040CB BKN250 18/09 A2990 RMK CB6CI1 VSBY 4 SW-NW LTGICCG SLP136

CYQF;2009-06-13 00:50;CYQF 130050Z 01005KT 15SM -SHRA SCT040CB BKN100 BKN250 RETS RMK CB4AC2CI2

CYQF;2009-06-13 01:00;CYQF 130100Z 00000KT 15SM -SHRA SCT040CB BKN100 BKN250 16/10 A2990 RETS RMK CB3AC2CI2 SLP134

CYQF;2009-06-13 01:34;CYQF 130134Z 12003KT 15SM FEW040CB SCT100 BKN250 RMK CB2AC2CI2 VIRGA

CYQF;2009-06-13 02:00;CYQF 130200Z 15003KT 15SM FEW040CB SCT100 BKN250 16/12 A2988 RMK CB2AC2CI1 VIRGA SLP129

CYQF;2009-06-13 03:00;CYQF 130300Z 00000KT 15SM FEW040 FEW100 BKN250 17/13 A2988 RMK CU1AC1CI1 SLP125

CYQF;2009-06-13 04:00;CYQF 130400Z 00000KT 15SM FEW100 BKN250 14/12 A2988 RMK AC1CI1 SLP125

CYQF;2009-06-13 05:00;CYQF 130500Z 00000KT 15SM FEW100 12/10 A2988 RMK AC2 SLP125

CYQF;2009-06-13 06:00;CYQF 130600Z 00000KT 15SM FEW100 11/09 A2988 RMK AC1 SLP126

CYQF;2009-06-13 07:00;CYQF 130700Z 19004KT 15SM SKC 09/08 A2988 RMK SLP125

CYQF;2009-06-13 08:00;CYQF 130800Z 17005KT 15SM SKC 09/07 A2987 RMK SLP124

CYQF;2009-06-13 09:00;CYQF 130900Z 18005KT 15SM SKC 08/07 A2987 RMK SLP122

CYQF;2009-06-13 10:00;CYQF 131000Z 19005KT 15SM FEW250 09/07 A2987 RMK CI1 SLP120

CYQF;2009-06-13 11:00;CYQF 131100Z 00000KT 12SM MIFG FEW250 08/07 A2987 RMK CI1 SLP120

CYQF;2009-06-13 12:00;CYQF 131200Z 18003KT 12SM MIFG FEW250 07/06 A2986 RMK CI1 SLP124

CYQF;2009-06-13 13:00;CYQF 131300Z 17005KT 15SM FEW250 10/08 A2987 RMK CI1 OBS TAKEN -02 SLP126

CYQF;2009-06-13 14:00;CYQF 131400Z 20004KT 15SM FEW250 12/09 A2987 RMK CI1 SLP125

CYQF;2009-06-13 15:00;CYQF 131500Z 22002KT 15SM FEW250 14/09 A2986 RMK CI1 SLP119

CYQF;2009-06-13 16:00;CYQF 131600Z 22003KT 15SM FEW250 17/11 A2986 RMK CI0 SLP119

CYQF;2009-06-13 17:00;CYQF 131700Z 00000KT 15SM FEW035 FEW250 18/10 A2985 RMK CU1CI1 SLP115

CYQF;2009-06-13 18:00;CYQF 131800Z 00000KT 15SM FEW040 21/12 A2985 RMK CU1 SLP112

CYQF;2009-06-13 19:00;CYQF 131900Z 33003KT 15SM FEW050TCU FEW250 22/07 A2984 RMK TCU2CI1 SLP109

CYQF;2009-06-13 20:00;CYQF 132000Z 33002KT 15SM FEW060CB FEW250 24/08 A2982 RMK CB2CI1 SLP103

CYQF;2009-06-13 21:00;CYQF 132100Z 32002KT 15SM FEW070CB 24/05 A2980 RMK CB2 SLP093

CYQF;2009-06-13 22:00;CYQF 132200Z 12004KT 15SM FEW070CB 25/05 A2979 RMK CB2 CB W SLP092

CYQF;2009-06-13 23:00;CYQF 132300Z 32004KT 15SM FEW070CB BKN250 25/06 A2979 RMK CB2CI2 CB W SLP091

CYQF;2009-06-14 00:00;CYQF 140000Z 00000KT 15SM SCT070CB BKN150 BKN250 24/05 A2978 RMK CB3AC2CI1 SLP089

CYQF;2009-06-14 01:00;CYQF 140100Z 31004KT 15SM FEW070CB BKN150 BKN250 24/08 A2978 RMK CB2AC2CI1 SLP088

CYQF;2009-06-14 02:00;CYQF 140200Z 35004KT 15SM FEW070 SCT140 BKN250 24/09 A2977 RMK AC2AC2CI2 SLP087

CYQF;2009-06-14 03:00;CYQF 140300Z 01004KT 15SM FEW070 SCT120 BKN250 22/09 A2977 RMK AC2AC1CI1 SLP081

CYQF;2009-06-14 04:00;CYQF 140400Z 00000KT 15SM SCT070 BKN250 20/10 A2979 RMK AC3CI2 TCU ASOCTD SLP087

CYQF;2009-06-14 05:00;CYQF 140500Z 25006KT 15SM SCT070 BKN250 19/09 A2981 RMK AC4CI2 TCU ASOCTD SLP093

CYQF;2009-06-14 06:00;CYQF 140600Z 28007KT 15SM FEW070 BKN250 18/08 A2980 RMK AC2CI2 SLP088

CYQF;2009-06-14 07:00;CYQF 140700Z 08004KT 15SM SCT080 BKN250 17/08 A2979 RMK AC4CI0 SLP086

CYQF;2009-06-14 08:00;CYQF 140800Z 00000KT 15SM SCT100 14/09 A2979 RMK AC4 SLP086

CYQF;2009-06-14 09:00;CYQF 140900Z 25011KT 15SM FEW100 FEW250 11/08 A2979 RMK AC2CI1 SLP089

CYQF;2009-06-14 10:00;CYQF 141000Z 00000KT 15SM SCT100 SCT250 11/08 A2981 RMK AC3CI0 SLP095

CYQF;2009-06-14 11:00;CYQF 141100Z CCA 00000KT 15SM SCT100 BKN250 11/07 A2982 RMK AC4CI1 ACC ASOCTD SLP098

CYQF;2009-06-14 12:00;CYQF 141200Z CCA 00000KT 15SM FEW100 SCT250 10/08 A2983 RMK AC2CI1 ACC ASOCTD SLP101

CYQF;2009-06-14 13:00;CYQF 141300Z 00000KT 15SM FEW100 BKN250 11/08 A2983 RMK AC1CI1 SLP103

CYQF;2009-06-14 14:00;CYQF 141400Z 21007KT 15SM FEW050 FEW100 BKN250 16/09 A2984 RMK CU1ACC1CI0 OBS TAKEN +5 SLP106

CYQF;2009-06-14 15:00;CYQF 141500Z 23004KT 15SM FEW050 FEW100 BKN250 18/10 A2984 RMK CU1AC1CI0 TCU/ACC ASOCTD SLP100

CYQF;2009-06-14 16:00;CYQF 141600Z 30002KT 15SM FEW050TCU FEW100 SCT250 20/10 A2984 RMK TCU1AC1CI1 SLP099

CYQF;2009-06-14 17:00;CYQF 141700Z 33003KT 15SM FEW050TCU FEW100 SCT250 22/10 A2983 RMK TCU1ACC1CI1 SLP097

CYQF;2009-06-14 18:00;CYQF 141800Z 00000KT 15SM FEW060CB FEW250 24/09 A2982 RMK CB1CI0 CB TOP DIST W SLP092

CYQF;2009-06-14 19:00;CYQF 141900Z 33005KT 15SM FEW070CB FEW250 25/08 A2981 RMK CB2CI0 CB W SLP089

CYQF;2009-06-14 20:00;CYQF 142000Z 34005KT 15SM FEW070CB BKN250 25/06 A2979 RMK CB2CI0 CB W SLP083

CYQF;2009-06-14 21:00;CYQF 142100Z 30003KT 15SM SCT070CB BKN250 25/08 A2979 RMK CB3CI2 CB W SLP088

CYQF;2009-06-14 22:00;CYQF 142200Z 29006KT 15SM SCT070CB BKN250 23/10 A2979 RMK CB3CI2 CB S-SW SLP088

CYQF;2009-06-14 23:00;CYQF 142300Z 29014KT 15SM FEW070CB BKN250 23/10 A2979 RMK CB2CI2 CB SE SLP087

CYQF;2009-06-15 00:00;CYQF 150000Z 00000KT 15SM FEW070CB BKN250 25/05 A2978 RMK CB2CI2 CB SE SLP084

CYQF;2009-06-15 01:00;CYQF 150100Z 00000KT 15SM FEW070CB BKN250 25/07 A2977 RMK CB2CI2 SLP082

CYQF;2009-06-15 02:00;CYQF 150200Z 27003KT 15SM FEW070 BKN250 22/08 A2977 RMK AC2CI2 CB ASOCTD SLP082

CYQF;2009-06-15 03:00;CYQF 150300Z 36005KT 15SM FEW060 SCT090 BKN250 20/09 A2978 RMK SC2AC2CI1 TCU ASOCTD SLP083

CYQF;2009-06-15 04:00;CYQF 150400Z 10012KT 15SM SCT060 BKN250 20/08 A2981 RMK SC4CI1 SLP091

CYQF;2009-06-15 05:00;CYQF 150500Z 12005KT 15SM FEW060 SCT250 18/08 A2982 RMK SC2CI1 CU ASOCTD SLP093

CYQF;2009-06-15 06:00;CYQF 150600Z 00000KT 15SM SCT060 BKN250 16/08 A2981 RMK SC3CI1 SLP091

CYQF;2009-06-15 07:00;CYQF 150700Z 00000KT 15SM FEW060 SCT250 14/08 A2981 RMK SC2CI0 SLP091

CYQF;2009-06-15 08:00;CYQF 150800Z 25002KT 15SM BKN250 12/08 A2981 RMK CI2 SLP090

CYQF;2009-06-15 09:00;CYQF 150900Z 29002KT 15SM FEW100 BKN250 11/08 A2981 RMK AC1CI5 SLP094

CYQF;2009-06-15 10:00;CYQF 151000Z 00000KT 15SM SCT100 BKN250 13/08 A2980 RMK AC3CI2 SLP091

CYQF;2009-06-15 11:00;CYQF 151100Z 00000KT 15SM FEW100 BKN250 11/08 A2980 RMK AC1CI2 ACC ASOCTD SLP090

CYQF;2009-06-15 12:00;CYQF 151200Z 18002KT 15SM SCT100 BKN250 11/09 A2981 RMK AC3CI2 SLP092

CYQF;2009-06-15 13:00;CYQF 151300Z 00000KT 15SM FEW060 BKN100 BKN250 12/09 A2980 RMK SC2AC3CI2 SLP091

CYQF;2009-06-15 13:43;CYQF 151343Z 27005KT 15SM -SHRA SCT060 BKN100 OVC250 RMK SC3AC2CI2 TCU ASOCTD

CYQF;2009-06-15 14:00;CYQF 151400Z 00000KT 15SM -SHRA SCT060 BKN100 OVC250 14/10 A2982 RMK SC4AC2CI1 TCU ASOCTD SLP097

CYQF;2009-06-15 14:23;CYQF 151423Z 00000KT 15SM SCT060TCU BKN100 OVC250 RMK TCU3AC2CI2

CYQF;2009-06-15 15:00;CYQF 151500Z 36004KT 15SM VCSH SCT060TCU BKN100 17/11 A2982 RMK TCU3AC3 SLP097

CYQF;2009-06-15 16:00;CYQF 151600Z 33008KT 15SM SCT050 BKN120 22/12 A2982 RMK CU3AC2 TCU ASOCTD SLP096

CYQF;2009-06-15 17:00;CYQF 151700Z 36010KT 15SM FEW050 SCT130 BKN260 22/09 A2982 RMK CU2AC2CI2 TCU ACC ASOCTD VIRGA SLP096

CYQF;2009-06-15 18:00;CYQF 151800Z 35008KT 15SM FEW050 SCT130 BKN260 23/09 A2981 RMK CU2AC2CI2 ACC ASOCTD VIRGA SLP091

CYQF;2009-06-15 19:00;CYQF 151900Z 04010KT 15SM FEW050 SCT150 BKN270 23/09 A2981 RMK CU1AC2CI2 ACC ASOCTD SLP091

CYQF;2009-06-15 20:00;CYQF 152000Z 05008KT 15SM FEW060TCU FEW150 BKN270 24/09 A2980 RMK TCU1AC1CI2 SLP089

CYQF;2009-06-15 21:00;CYQF 152100Z 01010KT 15SM FEW060 SCT150 BKN270 24/09 A2979 RMK SC2AC2CI2 TCU DIST SW SLP089

CYQF;2009-06-15 22:00;CYQF 152200Z 02010KT 15SM FEW060TCU BKN270 24/09 A2978 RMK TCU2CS4 SLP084

CYQF;2009-06-15 23:00;CYQF 152300Z 33008KT 15SM VCSH SCT060CB SCT100 OVC270 24/10 A2976 RMK CB3AC1CS3 CB SH SE SLP080

CYQF;2009-06-15 23:36;CYQF 152336Z 28020G25KT 10SM TS VCSH BKN050CB BKN100 OVC270 RMK CB6AC2CS1 LTGIC S

CYQF;2009-06-15 23:48;CYQF 152348Z 15030G40KT 3SM +TSRAGR OVC040CB RMK CB8 HAIL DIAM 10MM LTGIC

CYQF;2009-06-16 00:00;CYQF 160000Z 29020KT 5SM +TSRA BKN040CB 13/07 A2982 REGS RMK CB7 LTGIC PRESRR SLP111

CYQF;2009-06-16 00:26;CYQF 160026Z 28015G20KT 10SM TSRA BKN040CB REGS RMK CB7 LTGICCG

CYQF;2009-06-16 01:00;CYQF 160100Z CCA 24010G15KT 15SM VCSH BKN040CB BKN100 14/09 A2976 RETSRA RMK CB6AC2 PRESFR SLP093

CYQF;2009-06-16 02:00;CYQF 160200Z 26005KT 15SM BKN050CB BKN100 BKN250 14/10 A2980 RMK CB5AC2CI1 CB SH N QUAD SLP104

CYQF;2009-06-16 03:00;CYQF 160300Z 00000KT 15SM BKN050CB BKN090 BKN250 13/11 A2980 RMK CB5AC1CI1 CB SH N LTGCG NE SLP096

CYQF;2009-06-16 04:00;CYQF 160400Z 17004KT 15SM VCSH BKN050TCU BKN090 BKN250 13/11 A2981 RMK TCU5AC1CI0 SLP099

CYQF;2009-06-16 05:00;CYQF 160500Z 00000KT 15SM FEW050TCU BKN090 BKN250 14/11 A2979 RMK TCU2AC2CI1 SH DIST N SLP094

CYQF;2009-06-16 06:00;CYQF 160600Z 00000KT 15SM BKN070 12/11 A2980 RMK AC7 SLP090

CYQF;2009-06-16 07:00;CYQF 160700Z 00000KT 15SM SCT070 12/10 A2979 RMK AC4 SLP088

CYQF;2009-06-16 08:00;CYQF 160800Z 25004KT 15SM FEW100 BKN250 10/09 A2979 RMK AC2CI2 SLP087

CYQF;2009-06-16 09:00;CYQF 160900Z 25005KT 15SM FEW100 BKN250 11/09 A2978 RMK AC2CI2 SLP085

CYQF;2009-06-16 10:00;CYQF 161000Z 19002KT 15SM SCT100 BKN250 10/09 A2978 RMK AC3CI2 SLP085

CYQF;2009-06-16 11:00;CYQF 161100Z 00000KT 15SM MIFG SCT100 BKN250 10/09 A2978 RMK AC3CI2 OBS TAKEN +06 SLP084

CYQF;2009-06-16 12:00;CYQF 161200Z 00000KT 15SM BKN100 BKN250 10/09 A2978 RMK AC5CI1 ACC ASOCTD SLP099

CYQF;2009-06-16 13:00;CYQF 161300Z 00000KT 15SM BKN100 BKN250 12/10 A2979 RMK AC5CI1 ACC ASOCTD SLP100

CYQF;2009-06-16 14:00;CYQF 161400Z 32010KT 15SM SCT100 BKN250 15/11 A2979 RMK AC4CI1 ACC ASOCTD SLP101

CYQF;2009-06-16 15:00;CYQF 161500Z 01006KT 15SM BKN100 BKN250 16/11 A2981 RMK AC5CI2 SLP100

CYQF;2009-06-16 16:00;CYQF 161600Z 35008KT 15SM FEW020 BKN100 BKN250 17/12 A2983 RMK CU1AC4CI2 SLP108

CYQF;2009-06-16 17:00;CYQF 161700Z 36006KT 15SM FEW030 BKN100 BKN250 18/11 A2983 RMK CU1AC4CI1 SLP108

CYQF;2009-06-16 18:00;CYQF 161800Z 36004KT 15SM FEW040 FEW120 SCT250 19/11 A2982 RMK CU1AC1CI1 SLP103

CYQF;2009-06-16 19:00;CYQF 161900Z 35012KT 15SM FEW040TCU FEW250 20/10 A2981 RMK TCU1CI0 SLP100

CYQF;2009-06-16 20:00;CYQF 162000Z 36010KT 15SM FEW050TCU FEW250 21/09 A2980 RMK TCU1CI0 SLP096

CYQF;2009-06-16 21:00;CYQF 162100Z 36008KT 15SM FEW050TCU FEW120 SCT250 22/10 A2980 RMK TCU1AC1CI1 SLP095

CYQF;2009-06-16 22:00;CYQF 162200Z 35002KT 15SM FEW050TCU FEW100 SCT250 23/10 A2979 RMK TCU1AC1CI2 SLP091

CYQF;2009-06-16 23:00;CYQF 162300Z 32004KT 15SM FEW050TCU FEW120 BKN250 22/09 A2979 RMK TCU2AC1CI2 SLP091

CYQF;2009-06-17 00:00;CYQF 170000Z 34006KT 15SM FEW050 FEW120 FEW250 23/08 A2977 RMK CU1AC1CI0 SLP086

CYQF;2009-06-17 01:00;CYQF 170100Z 33005KT 15SM FEW060TCU FEW120 SCT250 23/08 A2977 RMK TCU2AC1CI0 TCU RE-DVLPG E SLP086

CYQF;2009-06-17 02:00;CYQF 170200Z 36003KT 15SM FEW060TCU BKN100 BKN250 22/08 A2977 RMK TCU2AC3CI0 SLP085

CYQF;2009-06-17 03:00;CYQF 170300Z 09003KT 15SM FEW060 BKN100 BKN250 23/08 A2977 RMK CU1AC5CI1 SLP078

CYQF;2009-06-17 04:00;CYQF 170400Z 14007KT 15SM FEW060 FEW100 FEW250 18/10 A2977 RMK SC1AC1CI1 SC TR SLP078

CYQF;2009-06-17 05:00;CYQF 170500Z CCA 16006KT 15SM FEW100 FEW250 15/10 A2978 RMK AC1CI0 CB DIST W SLP080

CYQF;2009-06-17 06:00;CYQF 170600Z 20005KT 15SM FEW100 13/10 A2977 RMK AC2 SLP084

CYQF;2009-06-17 07:00;CYQF 170700Z 00000KT 15SM FEW100 12/09 A2977 RMK AC1 SLP085

CYQF;2009-06-17 08:00;CYQF 170800Z 00000KT 15SM SKC 11/09 A2977 RMK SLP083

CYQF;2009-06-17 09:00;CYQF 170900Z 00000KT 15SM FEW100 11/09 A2976 RMK AC1 SLP082

CYQF;2009-06-17 10:00;CYQF 171000Z 18003KT 15SM FEW100 SCT250 10/09 A2976 RMK AC2CI0 SLP079

CYQF;2009-06-17 11:00;CYQF 171100Z 00000KT 15SM FEW080 FEW250 10/08 A2976 RMK AC1CI1 SLP079

CYQF;2009-06-17 12:00;CYQF 171200Z 00000KT 15SM FEW040 FEW120 BKN250 10/08 A2976 RMK CU1AC1CI2 SLP080

CYQF;2009-06-17 13:00;CYQF 171300Z 00000KT 15SM FEW040 FEW100 BKN260 11/09 A2976 RMK CU1AC2CI2 SLP081

CYQF;2009-06-17 14:00;CYQF 171400Z 00000KT 15SM FEW040 SCT120 BKN260 12/10 A2975 RMK CU1AC2CS1 ACC SLP078

CYQF;2009-06-17 15:00;CYQF 171500Z 25002KT 15SM FEW040 FEW120 BKN260 15/11 A2975 RMK CU1AC1CS3 SLP072

CYQF;2009-06-17 16:00;CYQF 171600Z 26004KT 15SM FEW040 FEW120 OVC260 17/11 A2976 RMK CU1AC1CS2 ACC SLP073

CYQF;2009-06-17 17:00;CYQF 171700Z 18003KT 15SM FEW050TCU FEW120 BKN260 20/11 A2975 RMK TCU1ACC1CS2 SLP071

CYQF;2009-06-17 18:00;CYQF 171800Z 16003KT 15SM FEW050TCU FEW120 BKN260 23/11 A2974 RMK TCU1ACC1CS2 SLP068

CYQF;2009-06-17 19:00;CYQF 171900Z 19007KT 15SM SCT060TCU BKN120 BKN260 24/09 A2972 RMK TCU4AC1CI0 CB TPS SW SLP063

CYQF;2009-06-17 20:00;CYQF 172000Z 23011KT 15SM BKN060TCU BKN250 24/08 A2971 RMK TCU5CI1 CB DIST ALQDS SLP059

CYQF;2009-06-17 20:45;CYQF 172045Z 10003KT 15SM VCSH BKN060CB BKN250 RMK CB5CI1 LTGCG SW

CYQF;2009-06-17 21:00;CYQF 172100Z CCA 26002KT 15SM TS VCSH BKN060CB BKN100 21/07 A2972 RMK CB6AC1 LTGCG S SLP068

CYQF;2009-06-17 21:15;CYQF 172115Z 12010G15KT 15SM -TSRA BKN060CB OVC100 RMK CB6AC1 LTGCG E

CYQF;2009-06-17 22:00;CYQF 172200Z 06008KT 15SM -TSRA BKN060CB BKN100 16/10 A2973 RMK CB6AC2 LTGCG N SLP071

CYQF;2009-06-17 22:20;CYQF 172220Z 15010KT 15SM -SHRA BKN060CB BKN100 RETS RMK CB5AC2

CYQF;2009-06-17 23:00;CYQF 172300Z 06010KT 15SM -SHRA BKN060CB BKN100 17/11 A2973 RMK CB5AC1 WND SHFT 2256 SLP071

CYQF;2009-06-17 23:04;CYQF 172304Z 07010KT 15SM BKN060CB BKN100 BKN250 RMK CB5AC1CI1 CI TR

CYQF;2009-06-18 00:00;CYQF 180000Z 08013G20KT 15SM FEW060 BKN100 BKN250 19/11 A2971 RMK SC1AC4CI0 CB ASOCTD SLP067

CYQF;2009-06-18 01:00;CYQF 180100Z 10008KT 15SM FEW025TCU BKN100 BKN250 18/10 A2971 RMK TCU2AC3CI2 SLP066

CYQF;2009-06-18 02:00;CYQF 180200Z 00000KT 15SM FEW030TCU BKN100 BKN250 18/10 A2971 RMK TCU2AC4CI2 SLP066

CYQF;2009-06-18 03:00;CYQF 180300Z 32003KT 15SM FEW040 BKN100 BKN250 17/11 A2973 RMK SC1AC4CI2 SLP070

CYQF;2009-06-18 04:00;CYQF 180400Z 31011G16KT 15SM FEW040 BKN100 OVC250 16/09 A2975 RMK SC1AC4CI2 SLP077

CYQF;2009-06-18 04:21;CYQF 180421Z 30010G15KT 15SM -SHRA FEW040 BKN100 OVC250 RMK SC2AC4CI2

CYQF;2009-06-18 05:00;CYQF 180500Z CCA 31011KT 15SM -SHRA FEW040 BKN100 BKN250 14/11 A2979 RMK SC2AC4CI1 SLP090

CYQF;2009-06-18 06:00;CYQF 180600Z 30010KT 12SM -SHRA OVC070 13/10 A2980 RMK AC8 SLP091

CYQF;2009-06-18 07:00;CYQF 180700Z 30010KT 10SM -SHRA FEW010 OVC050 12/10 A2980 RMK SF1SC7 OBS TAKEN +08 SLP091

CYQF;2009-06-18 08:00;CYQF 180800Z 30008KT 10SM -RA OVC050 12/10 A2980 RMK SC8 SLP092

CYQF;2009-06-18 09:00;CYQF 180900Z 27008KT 12SM -RA OVC050 11/10 A2980 RMK SC8 SLP095

CYQF;2009-06-18 10:00;CYQF 181000Z 26010KT 15SM -RA OVC050 11/10 A2979 RMK SC8 SLP093

CYQF;2009-06-18 11:00;CYQF 181100Z 29006KT 15SM -RA BKN050 OVC090 11/10 A2980 RMK SC6AC2 SLP095

CYQF;2009-06-18 11:22;CYQF 181122Z 30007KT 15SM BKN050 OVC090 RMK SC5AC3

CYQF;2009-06-18 12:00;CYQF 181200Z 30010KT 15SM VCSH BKN040 BKN090 12/10 A2981 RMK SC5AC2 SLP099

CYQF;2009-06-18 13:00;CYQF 181300Z 30007KT 15SM SCT040 BKN090 BKN250 12/10 A2982 RMK SC3AC2CI1 SLP102

CYQF;2009-06-18 14:00;CYQF 181400Z 33008G15KT 15SM FEW040 SCT090 BKN250 14/09 A2982 RMK SC1AC2CI2 SLP104

CYQF;2009-06-18 15:00;CYQF 181500Z 33010G15KT 15SM FEW040 FEW090 BKN250 15/08 A2983 RMK CU1AC1CI2 SLP104

CYQF;2009-06-18 16:00;CYQF 181600Z 32010G15KT 15SM FEW040 BKN250 16/08 A2983 RMK CU1CI2 SLP104

CYQF;2009-06-18 17:00;CYQF 181700Z 32010G15KT 15SM FEW040 FEW100 FEW250 17/07 A2982 RMK CU1AC1CI1 SLP103

CYQF;2009-06-18 18:00;CYQF 181800Z 33010G16KT 15SM FEW040 FEW250 18/08 A2982 RMK CU2CI1 SLP102

CYQF;2009-06-18 19:00;CYQF 181900Z 33015G20KT 15SM SCT045 SCT250 19/06 A2981 RMK CU3CI1 SLP099

CYQF;2009-06-18 20:00;CYQF 182000Z 33015G20KT 15SM SCT055 20/05 A2980 RMK CU3 SLP097

CYQF;2009-06-18 21:00;CYQF 182100Z 32010G18KT 15SM SCT065 22/05 A2978 RMK CU3 OBS TAKEN +10 SLP088

CYQF;2009-06-18 22:00;CYQF 182200Z 33009KT 15SM SCT065 21/05 A2977 RMK CU4 SLP085

CYQF;2009-06-18 23:00;CYQF 182300Z 01010G15KT 15SM FEW065 FEW250 21/05 A2976 RMK CU2CI1 CB DIST S AND SW SLP079

CYQF;2009-06-19 00:00;CYQF 190000Z 34007KT 15SM FEW065 FEW250 21/04 A2975 RMK CU1CI1 CB DIST SE-SW SLP076

CYQF;2009-06-19 01:00;CYQF 190100Z 00000KT 15SM FEW065 FEW250 22/04 A2974 RMK CU1CI1 SLP073

CYQF;2009-06-19 02:00;CYQF 190200Z 00000KT 15SM FEW065 FEW100 FEW250 20/03 A2974 RMK CU1AC1CI1 SLP074

CYQF;2009-06-19 03:00;CYQF 190300Z 00000KT 15SM FEW060TCU FEW100 20/05 A2974 RMK TCU2AC1 SLP070

CYQF;2009-06-19 04:00;CYQF 190400Z 23003KT 15SM FEW050TCU FEW100 SCT250 16/09 A2975 RMK TCU1AC2CI1 SLP073

CYQF;2009-06-19 05:00;CYQF 190500Z 28005KT 15SM BKN070 BKN250 15/08 A2976 RMK AC5CI0 SLP076

CYQF;2009-06-19 06:00;CYQF 190600Z 25007KT 15SM BKN070 BKN250 15/07 A2975 RMK AC6CI2 SLP076

CYQF;2009-06-19 07:00;CYQF 190700Z 07006KT 15SM BKN070 BKN250 15/06 A2973 RMK AC5CI1 SLP069

CYQF;2009-06-19 08:00;CYQF 190800Z 22004KT 15SM BKN070 BKN250 12/07 A2972 RMK AC5CI0 SLP068

CYQF;2009-06-19 09:00;CYQF 190900Z 00000KT 15SM FEW070 SCT250 11/08 A2971 RMK AC2CI0 SLP062

CYQF;2009-06-19 10:00;CYQF 191000Z 00000KT 15SM FEW070 FEW250 08/06 A2970 RMK AC2CI0 SLP059

CYQF;2009-06-19 11:00;CYQF 191100Z 22002KT 15SM FEW060 SCT250 08/06 A2971 RMK SC2CI1 SLP061

CYQF;2009-06-19 12:00;CYQF 191200Z 24002KT 15SM FEW060 BKN250 09/06 A2971 RMK SC2CI2 SLP066

CYQF;2009-06-19 13:00;CYQF 191300Z 30002KT 15SM FEW060 BKN250 11/07 A2972 RMK SC2CI2 SLP068

CYQF;2009-06-19 14:00;CYQF 191400Z 04003KT 15SM SCT070 13/09 A2972 RMK AC3 SLP068

CYQF;2009-06-19 15:00;CYQF 191500Z 00000KT 15SM FEW100 FEW250 15/09 A2971 RMK AC2CI1 SLP062

CYQF;2009-06-19 16:00;CYQF 191600Z 07002KT 15SM FEW040 FEW100 17/08 A2970 RMK CU2AC1 SLP059

CYQF;2009-06-19 17:00;CYQF 191700Z 20006KT 15SM FEW040 FEW100 SCT250 18/09 A2970 RMK CU1ACC2CI1 SLP057

CYQF;2009-06-19 18:00;CYQF 191800Z 22007KT 15SM FEW040TCU FEW100 SCT250 19/09 A2968 RMK TCU1AC1CI1 AC TR E-W LINE CB DIST N SLP050

CYQF;2009-06-19 19:00;CYQF 191900Z 21007KT 15SM FEW045TCU FEW100 FEW250 21/10 A2966 RMK TCU1AC1CI1 AC TR CB DIST S-W SLP043

CYQF;2009-06-19 20:00;CYQF 192000Z 24003KT 15SM FEW055TCU FEW100 SCT250 22/07 A2964 RMK TCU2AC1CI1 AC TR SLP038

CYQF;2009-06-19 21:00;CYQF 192100Z 24008KT 15SM FEW060TCU FEW100 BKN250 23/08 A2962 RMK TCU2AC1CI1 SLP031

CYQF;2009-06-19 22:00;CYQF 192200Z 19004KT 15SM SCT070TCU SCT100 BKN250 23/04 A2962 RMK TCU3AC1CI1 SLP029

CYQF;2009-06-19 23:00;CYQF 192300Z 06012G20KT 15SM SCT040TCU BKN250 19/09 A2961 RMK TCU4CI2 SLP028

CYQF;2009-06-20 00:00;CYQF 200000Z 06010G15KT 15SM SCT035CB BKN250 19/10 A2962 RMK CB3CI2 SLP037

CYQF;2009-06-20 01:00;CYQF 200100Z 07010KT 15SM BKN030CB BKN250 16/09 A2962 RMK CB5CI2 SLP037

CYQF;2009-06-20 01:32;CYQF 200132Z 13006KT 10SM -SHRA BKN025CB OVC250 RMK CB6CI1

CYQF;2009-06-20 01:44;CYQF 200144Z 13004KT 10SM +TSRA BKN020CB OVC250 RMK CB6CI1

CYQF;2009-06-20 02:00;CYQF 200200Z 03006KT 15SM -TSRA BKN015CB BKN100 BKN250 14/12 A2965 RERA RMK CB5AC1CI1 SLP046

CYQF;2009-06-20 02:32;CYQF 200232Z 05010KT 15SM FEW008 SCT020CB BKN100 BKN250 RETS RMK CF1CB2AC2CI1

CYQF;2009-06-20 03:00;CYQF 200300Z 02010KT 15SM FEW008 BKN020 BKN100 14/11 A2966 RMK CF1SC5AC1 CB ASOCTD SLP050

CYQF;2009-06-20 04:00;CYQF 200400Z 02010KT 15SM FEW008 BKN020 BKN100 13/11 A2966 RMK CF1SC5AC1 SLP051

CYQF;2009-06-20 05:00;CYQF 200500Z 35005KT 15SM SCT020 BKN100 12/10 A2968 RMK SC3AC3 SLP056

CYQF;2009-06-20 06:00;CYQF 200600Z 36004KT 15SM SCT020 BKN100 11/10 A2967 RMK SC3AC2 SLP051

CYQF;2009-06-20 07:00;CYQF 200700Z 21003KT 15SM SCT100 11/10 A2966 RMK AC4 SLP048

CYQF;2009-06-20 08:00;CYQF 200800Z 26005KT 15SM SKC 10/09 A2966 RMK SLP048

CYQF;2009-06-20 09:00;CYQF 200900Z 27007KT 12SM FEW100 09/08 A2966 RMK AC2 BR SLP045

CYQF;2009-06-20 10:00;CYQF 201000Z 00000KT 12SM FEW100 10/09 A2966 RMK AC2 BR SLP045

CYQF;2009-06-20 10:49;CYQF 201049Z 00000KT 1SM BR FEW100 RMK FG1AC1

CYQF;2009-06-20 11:00;CYQF 201100Z 00000KT 1SM BR FEW100 08/08 A2966 RMK FG1AC1 SLP046

CYQF;2009-06-20 11:30;CYQF 201130Z 00000KT 1/2SM FG SKC RMK FG4

CYQF;2009-06-20 12:00;CYQF 201200Z 00000KT 1/2SM FG SKC 07/07 A2966 RMK FG5 SLP051

CYQF;2009-06-20 12:25;CYQF 201225Z 00000KT 1/4SM FG SKC RMK FG6

CYQF;2009-06-20 13:00;CYQF 201300Z 00000KT 1/4SM FG SKC 08/07 A2967 RMK FG5 SLP055

CYQF;2009-06-20 13:42;CYQF 201342Z 23002KT 1/2SM FG SKC RMK FG5

CYQF;2009-06-20 13:50;CYQF 201350Z 23002KT 1/4SM FG SKC RMK FG5

CYQF;2009-06-20 14:00;CYQF 201400Z 00000KT 1/4SM FG SKC 09/09 A2968 RMK FG5 SLP059

CYQF;2009-06-20 14:11;CYQF 201411Z 00000KT 1 1/2SM BR SKC RMK FG3 VIS SE-SW 1/4 FG

CYQF;2009-06-20 14:22;CYQF 201422Z 00000KT 3/4SM BR FEW005 BKN250 RMK FG1SC1CI0 VIS W-NE 3

CYQF;2009-06-20 14:30;CYQF 201430Z 00000KT 2SM BR FEW005 BKN250 RMK FG1SC1CI0 VIS SE 1 VIS W-NE 3

CYQF;2009-06-20 15:00;CYQF 201500Z 23002KT 5SM BR SCT005 BKN250 12/11 A2968 RMK FG1SC2CI0 SLP062

CYQF;2009-06-20 15:05;CYQF 201505Z 00000KT 5SM BR BKN005 BKN250 RMK FG1SC4CI0 CU ASOCTD

CYQF;2009-06-20 15:18;CYQF 201518Z 00000KT 6SM BR SCT005 BKN250 RMK SC4CI0 CU ASOCTD

CYQF;2009-06-20 16:00;CYQF 201600Z 00000KT 6SM BR SCT012 BKN250 14/11 A2969 RMK CU3CI0 SLP063

CYQF;2009-06-20 17:00;CYQF 201700Z 23003KT 8SM FEW016 SCT250 17/12 A2968 RMK CU1CI0 SLP062

CYQF;2009-06-20 18:00;CYQF 201800Z 23005KT 15SM FEW035 FEW250 18/10 A2969 RMK CU2CI1 SLP059

CYQF;2009-06-20 19:00;CYQF 201900Z 00000KT 15SM FEW040 SCT250 19/09 A2968 RMK CU2CI1 SLP057

CYQF;2009-06-20 20:00;CYQF 202000Z 23005KT 15SM FEW060 SCT250 21/05 A2969 RMK CU2CI1 SLP059

CYQF;2009-06-20 21:00;CYQF 202100Z 00000KT 15SM FEW055 SCT250 21/07 A2968 RMK CU2CI0 SLP055

CYQF;2009-06-20 22:00;CYQF 202200Z 23002KT 15SM FEW055 SCT250 21/07 A2968 RMK CU2CI1 SLP055

CYQF;2009-06-20 23:00;CYQF 202300Z 23003KT 15SM FEW060 SCT250 22/07 A2968 RMK CU2CI0 SLP056

CYQF;2009-06-21 00:00;CYQF 210000Z 23003KT 15SM SCT070 BKN250 22/05 A2968 RMK CU3CI0 SLP057

CYQF;2009-06-21 01:00;CYQF 210100Z 23007KT 15SM FEW070 BKN250 22/07 A2968 RMK CU2CI2 SLP058

CYQF;2009-06-21 02:00;CYQF 210200Z 23008KT 15SM FEW070 BKN250 22/07 A2969 RMK CU2CI2 SLP060

CYQF;2009-06-21 03:00;CYQF 210300Z 23004KT 15SM FEW060 BKN250 20/08 A2969 RMK SC1CI2 SLP057

CYQF;2009-06-21 04:00;CYQF 210400Z 23003KT 15SM FEW060 BKN250 18/09 A2970 RMK SC1CI2 SLP061

CYQF;2009-06-21 05:00;CYQF 210500Z 23004KT 15SM SCT060 BKN250 17/09 A2971 RMK SC3CI1 SLP064

CYQF;2009-06-21 06:00;CYQF 210600Z 24010KT 15SM BKN060 15/10 A2971 RMK SC6 SLP063

CYQF;2009-06-21 07:00;CYQF 210700Z 23010G15KT 15SM SCT060 14/10 A2973 RMK SC3 OBS TAKEN +10 SLP067

CYQF;2009-06-21 08:00;CYQF 210800Z 23010G15KT 15SM FEW070 BKN120 13/10 A2974 RMK AC2AC3 SLP072

CYQF;2009-06-21 09:00;CYQF 210900Z 23008KT 15SM FEW080 BKN120 OVC240 12/10 A2975 RMK AC2AC3CI1 SLP077

CYQF;2009-06-21 10:00;CYQF 211000Z 23006KT 15SM FEW080 BKN120 OVC240 12/10 A2975 RMK AC2AC3CI1 SLP075

CYQF;2009-06-21 11:00;CYQF 211100Z 23007KT 15SM SCT050 OVC110 13/11 A2976 RMK SC4AC3 TCU EMBD VIRGA SLP078

CYQF;2009-06-21 12:00;CYQF 211200Z 02004KT 12SM VCSH BKN040 OVC100 13/10 A2977 RMK SC6AC2 TCU EMBD SLP080

CYQF;2009-06-21 12:14;CYQF 211214Z 03005KT 12SM -SHRA BKN020 OVC050 RMK SC5SC3 TCU EMBD

CYQF;2009-06-21 13:00;CYQF 211300Z 31002KT 10SM -RA OVC020 12/11 A2977 RMK SC8 BR SLP081

CYQF;2009-06-21 14:00;CYQF 211400Z 32006KT 12SM -RA SCT009 OVC015 12/11 A2977 RMK SF2SC6 SLP082

CYQF;2009-06-21 15:00;CYQF 211500Z 32010KT 6SM -RA BR SCT009 BKN015 OVC060 12/10 A2978 RMK SF3SC3SC2 SLP088

CYQF;2009-06-21 16:00;CYQF 211600Z 33012KT 6SM -RA BR SCT005 BKN010 OVC040 12/10 A2979 RMK SF3SC3SC2 SLP090

CYQF;2009-06-21 17:00;CYQF 211700Z 32010KT 15SM -RA SCT005 BKN015 OVC040 13/11 A2977 RMK SF3SC3SC2 SLP086

CYQF;2009-06-21 17:29;CYQF 211729Z 33012KT 12SM -RA BKN008 OVC015 RMK SC6SC2

CYQF;2009-06-21 18:00;CYQF 211800Z 35010KT 12SM -RA BKN008 OVC015 13/10 A2978 RMK SC6SC2 SLP091

CYQF;2009-06-21 19:00;CYQF 211900Z 34008KT 15SM -RA BKN006 OVC015 13/11 A2977 RMK SC6SC2 SLP089

CYQF;2009-06-21 19:53;CYQF 211953Z 34010KT 15SM SCT006 BKN015 OVC250 RMK SC4SC2CI2

CYQF;2009-06-21 20:00;CYQF 212000Z 35008KT 15SM FEW006 BKN020 BKN045 15/11 A2977 RMK SC2SC3SC1 SLP088

CYQF;2009-06-21 21:00;CYQF 212100Z 33012KT 15SM FEW006 BKN020 BKN045 15/10 A2976 RMK CF1CU4SC2 SLP086

CYQF;2009-06-21 22:00;CYQF 212200Z 34013KT 15SM FEW006 SCT020 BKN045 16/11 A2975 RMK CF1CU3SC2 SLP081

CYQF;2009-06-21 23:00;CYQF 212300Z 33010KT 15SM BKN025TCU BKN050 16/11 A2974 RMK TCU5SC2 SLP079

CYQF;2009-06-22 00:00;CYQF 220000Z 34011KT 15SM VCSH BKN025TCU BKN090 BKN250 15/10 A2974 RMK TCU5AC1CI1 SLP077

CYQF;2009-06-22 01:00;CYQF 220100Z 32012KT 15SM VCSH BKN025TCU BKN090 BKN250 14/10 A2973 RMK TCU5AC1CI1 SLP076

CYQF;2009-06-22 01:28;CYQF 220128Z 31010KT 15SM -SHRA BKN025TCU BKN090 RMK TCU6AC2

CYQF;2009-06-22 01:51;CYQF 220151Z 31008KT 15SM VCSH SCT025TCU BKN090 BKN250 RMK TCU4AC2CI1

CYQF;2009-06-22 02:00;CYQF 220200Z 32008KT 15SM VCSH SCT025TCU BKN090 BKN250 14/11 A2973 RMK TCU3AC2CI1 SLP075

CYQF;2009-06-22 03:00;CYQF 220300Z 32009KT 15SM FEW025 BKN080 OVC250 14/10 A2973 RMK CU2AC5CI1 SLP078

CYQF;2009-06-22 04:00;CYQF 220400Z 31007KT 15SM FEW025 BKN080 OVC250 13/10 A2973 RMK SC1AC6CI1 SLP079

CYQF;2009-06-22 05:00;CYQF 220500Z 30008KT 15SM FEW030 BKN080 13/09 A2973 RMK SC2AC5 SLP079

CYQF;2009-06-22 06:00;CYQF 220600Z 30007KT 15SM FEW030 BKN080 12/10 A2973 RMK SC2AC6 SLP078

CYQF;2009-06-22 07:00;CYQF 220700Z 31008KT 15SM SCT080 SCT250 11/09 A2973 RMK AC3CI0 SLP077

CYQF;2009-06-22 08:00;CYQF 220800Z 30006KT 15SM BKN080 11/09 A2972 RMK AC5 SLP074

CYQF;2009-06-22 09:00;CYQF 220900Z 29004KT 15SM BKN080 10/09 A2972 RMK AC6 SLP075

CYQF;2009-06-22 10:00;CYQF 221000Z 31006KT 15SM SCT020 BKN080 11/08 A2972 RMK SC3AC2 SLP075

CYQF;2009-06-22 11:00;CYQF 221100Z 31005KT 15SM FEW020 SCT080 10/08 A2972 RMK SC2AC2 SLP073

CYQF;2009-06-22 12:00;CYQF 221200Z 29004KT 15SM FEW005 BKN018 BKN080 10/08 A2971 RMK SF1SC5AC1 CU ASOCT SF TR SLP071

CYQF;2009-06-22 13:00;CYQF 221300Z 29007KT 15SM FEW018 SCT080 BKN250 10/08 A2972 RMK SC2AC2CI1 SLP075

CYQF;2009-06-22 14:00;CYQF 221400Z 31012G20KT 15SM FEW020 SCT080 BKN250 12/08 A2971 RMK SC2AC2CI1 SLP071

CYQF;2009-06-22 15:00;CYQF 221500Z 31010G15KT 15SM FEW015 BKN080 BKN250 13/08 A2972 RMK CU1AC4CI1 SLP073

CYQF;2009-06-22 16:00;CYQF 221600Z 32010KT 15SM FEW020 BKN060 BKN250 14/09 A2972 RMK CU2SC2CI1 SLP073

CYQF;2009-06-22 17:00;CYQF 221700Z 32010G15KT 15SM FEW030 BKN100 BKN250 15/08 A2971 RMK CU2AC3CI1 SLP071

CYQF;2009-06-22 18:00;CYQF 221800Z 31010G15KT 15SM FEW030 SCT100 BKN250 15/08 A2972 RMK CU2AC2CI2 SLP072

CYQF;2009-06-22 19:00;CYQF 221900Z 32010G15KT 15SM FEW030 BKN080 BKN250 16/08 A2972 RMK CU2AC2CI1 SLP071

CYQF;2009-06-22 20:00;CYQF 222000Z 32016G22KT 15SM SCT030 BKN080 BKN250 18/09 A2971 RMK CU3AC2CI1 SLP070

CYQF;2009-06-22 21:00;CYQF 222100Z 31010G18KT 15SM BKN030 BKN080 16/08 A2972 RMK CU5AC2 SLP073

CYQF;2009-06-22 22:00;CYQF 222200Z CCA 34008KT 15SM -SHRA BKN030 BKN080 15/10 A2973 RMK CU5AC2 SLP076

CYQF;2009-06-22 22:17;CYQF 222217Z 34008KT 15SM BKN030 BKN080 RMK CU5AC2

CYQF;2009-06-22 23:00;CYQF 222300Z 31012KT 15SM SCT030 BKN080 OVC250 17/09 A2973 RMK CU3AC2CI2 SLP075

CYQF;2009-06-23 00:00;CYQF 230000Z 33012G18KT 15SM SCT030TCU BKN080 OVC250 14/08 A2974 RMK TCU4AC2CI2 CB ASOCTD SLP082

CYQF;2009-06-23 00:11;CYQF 230011Z 35006KT 15SM -SHRA BKN030TCU BKN080 OVC250 RMK TCU5AC1CI2 CB ASOCTD

CYQF;2009-06-23 01:00;CYQF 230100Z 29004KT 15SM FEW030 BKN080 OVC250 14/10 A2973 RMK SC2AC2CI2 TCU ASOCTD SLP080

CYQF;2009-06-23 02:00;CYQF 230200Z 00000KT 15SM FEW030 BKN080 BKN250 15/10 A2973 RMK SC2AC2CI2 SLP081

CYQF;2009-06-23 03:00;CYQF 230300Z 00000KT 15SM FEW030 SCT080 BKN250 14/10 A2974 RMK SC2AC2CI1 TCU SE SLP079

CYQF;2009-06-23 04:00;CYQF 230400Z 28004KT 15SM FEW080 BKN250 12/09 A2975 RMK AC2CI2 SLP083

CYQF;2009-06-23 05:00;CYQF 230500Z 25005KT 15SM FEW080 SCT250 11/08 A2977 RMK AC1CI1 SLP088

CYQF;2009-06-23 06:00;CYQF 230600Z 24005KT 15SM SCT250 11/07 A2978 RMK CI2 SLP095

CYQF;2009-06-23 07:00;CYQF 230700Z 25008KT 15SM SCT250 10/07 A2979 RMK CI2 SLP098

CYQF;2009-06-23 08:00;CYQF 230800Z 30010G16KT 15SM SCT120 BKN250 12/07 A2980 RMK AC3CI1 SLP102

CYQF;2009-06-23 09:00;CYQF 230900Z 29008KT 15SM FEW120 SCT250 11/06 A2982 RMK AC2CI1 SLP107

CYQF;2009-06-23 10:00;CYQF 231000Z 30008KT 15SM FEW120 BKN250 11/06 A2983 RMK AC2CI2 SLP111

CYQF;2009-06-23 11:00;CYQF 231100Z 30010KT 15SM BKN100 BKN250 11/06 A2984 RMK AC5CI2 SLP114

CYQF;2009-06-23 12:00;CYQF 231200Z 28008KT 15SM BKN100 BKN250 11/06 A2985 RMK AC5CI2 SLP121

CYQF;2009-06-23 13:00;CYQF 231300Z 26007KT 15SM BKN100 BKN250 12/07 A2986 RMK AC5CI2 SLP124

CYQF;2009-06-23 14:00;CYQF 231400Z 25005KT 15SM BKN100 BKN250 12/07 A2987 RMK AC6CI1 SLP127

CYQF;2009-06-23 15:00;CYQF 231500Z 28005KT 15SM FEW030 BKN100 BKN250 13/07 A2987 RMK SC1AC5CI1 SLP125

CYQF;2009-06-23 16:00;CYQF 231600Z 29010KT 15SM FEW045 FEW100 BKN250 15/04 A2987 RMK CU1AC1CI2 SLP124

CYQF;2009-06-23 17:00;CYQF 231700Z 29010KT 15SM FEW030 FEW100 SCT250 17/02 A2986 RMK CU2AC1CI1 SLP120

CYQF;2009-06-23 18:00;CYQF 231800Z 32008KT 15SM SCT035 BKN100 19/03 A2985 RMK CU3AC1 TCU TPS SW SHS ASOCTD SLP113

CYQF;2009-06-23 19:00;CYQF 231900Z 00000KT 15SM SCT035 SCT100 BKN250 18/02 A2984 RMK CU3AC1CI0 TCU EMBD SW SHS ASOCTD SLP110

CYQF;2009-06-23 20:00;CYQF 232000Z 22010G17KT 15SM BKN030TCU BKN100 BKN250 17/03 A2984 RMK TCU5AC1CI1 CB TPS DIST W+N SHS NW-N+E-SE SLP111

CYQF;2009-06-23 21:00;CYQF 232100Z 03006KT 15SM VCSH BKN055CB BKN100 BKN250 18/03 A2983 RMK CB5AC1CI0 SLP109

CYQF;2009-06-23 21:27;CYQF 232127Z CCA 29013G18KT 15SM -SHRA BKN035TCU BKN100 BKN250 RMK TCU5AC1CI1 CB TPS NE+E

CYQF;2009-06-23 21:40;CYQF 232140Z 01005KT 15SM BKN035TCU BKN100 BKN250 RMK TCU5AC1CI1 CB TPS NE+DIST W SHS ASOCTD

CYQF;2009-06-23 22:00;CYQF 232200Z 07004KT 15SM SCT035TCU BKN100 BKN250 16/07 A2984 RMK TCU4AC2CI1 CB EMBD E+S SHS ASOCTD SLP110

CYQF;2009-06-23 23:00;CYQF 232300Z 12005KT 15SM VCSH SCT040CB BKN100 BKN250 16/06 A2984 RMK CB3AC2CI1 SLP111

CYQF;2009-06-24 00:00;CYQF 240000Z 03002KT 15SM FEW050CB FEW100 SCT250 17/04 A2984 RMK CB2AC1CI0 SLP112

CYQF;2009-06-24 01:00;CYQF 240100Z 29002KT 15SM VCSH SCT050TCU BKN100 BKN250 18/04 A2983 RMK TCU3AC2CI0 SLP111

CYQF;2009-06-24 02:00;CYQF 240200Z 33010G15KT 15SM FEW050TCU SCT100 BKN250 16/04 A2984 RMK TCU2AC2CI0 VIRGA SLP114

CYQF;2009-06-24 03:00;CYQF 240300Z 32007KT 15SM VCSH FEW050TCU SCT100 BKN250 14/05 A2984 RMK TCU2AC2CI0 SLP114

CYQF;2009-06-24 04:00;CYQF 240400Z 24006KT 15SM FEW050 BKN250 12/04 A2985 RMK CU2CI0 VIRGA SLP116

CYQF;2009-06-24 05:00;CYQF 240500Z 24006KT 15SM FEW050 FEW100 10/04 A2985 RMK CU1AC1 SLP118

CYQF;2009-06-24 06:00;CYQF 240600Z 24006KT 15SM FEW050 FEW100 08/04 A2986 RMK SC1AC1 SLP121

CYQF;2009-06-24 07:00;CYQF 240700Z 19003KT 15SM FEW050 FEW100 08/05 A2986 RMK SC1AC1 SLP122

CYQF;2009-06-24 08:00;CYQF 240800Z 23005KT 15SM FEW100 07/04 A2986 RMK AC1 SLP122

CYQF;2009-06-24 09:00;CYQF 240900Z 24006KT 15SM FEW080 07/04 A2986 RMK AC1 SLP125

CYQF;2009-06-24 10:00;CYQF 241000Z 20005KT 15SM FEW080 06/03 A2986 RMK AC1 SLP124

CYQF;2009-06-24 11:00;CYQF 241100Z 20005KT 15SM FEW080 FEW250 05/03 A2986 RMK AC1CI0 SLP124

CYQF;2009-06-24 12:00;CYQF 241200Z 21004KT 15SM FEW250 05/03 A2987 RMK CI0 SLP131

CYQF;2009-06-24 13:00;CYQF 241300Z 20005KT 15SM FEW250 07/04 A2988 RMK CI0 SLP134

CYQF;2009-06-24 14:00;CYQF 241400Z 19004KT 15SM FEW250 10/05 A2989 RMK CI0 SLP136

CYQF;2009-06-24 15:00;CYQF 241500Z 21002KT 15SM BKN250 12/07 A2989 RMK CI0 SLP131

CYQF;2009-06-24 16:00;CYQF 241600Z 21004KT 15SM SCT250 15/06 A2989 RMK CI0 SLP131

CYQF;2009-06-24 17:00;CYQF 241700Z 00000KT 15SM FEW060 FEW250 18/03 A2989 RMK CU1CI1 SLP131

CYQF;2009-06-24 18:00;CYQF 241800Z 17010KT 15SM FEW065 FEW250 20/03 A2988 RMK CU1CI1 CU TR SLP127

CYQF;2009-06-24 19:00;CYQF 241900Z 15008KT 15SM FEW065 FEW250 20/03 A2987 RMK CU1CI0 SLP124

CYQF;2009-06-24 20:00;CYQF 242000Z 20010KT 15SM FEW065 FEW250 22/02 A2985 RMK CU1CI0 SLP117

CYQF;2009-06-24 21:00;CYQF 242100Z 17011KT 15SM FEW065 SCT250 22/02 A2983 RMK CU2CI0 SLP109

CYQF;2009-06-24 22:00;CYQF 242200Z 16010G15KT 15SM FEW065 BKN250 23/03 A2981 RMK CU2CI1 SLP102

CYQF;2009-06-24 23:00;CYQF 242300Z 15011G18KT 15SM FEW065 BKN250 23/03 A2979 RMK CU1CI2 SLP096

CYQF;2009-06-25 00:00;CYQF 250000Z CCA 16015G20KT 15SM FEW080 FEW150 BKN260 23/04 A2977 RMK AC1AC1CI1 ACSL W SLP088

CYQF;2009-06-25 01:00;CYQF 250100Z 15015G21KT 15SM FEW080 SCT150 BKN260 23/04 A2975 RMK AC2AC2CI2 ACSL ASOCTD SLP082

CYQF;2009-06-25 02:00;CYQF 250200Z 15010G16KT 15SM FEW080 SCT150 BKN260 23/04 A2974 RMK AC2AC2CI1 SLP078

CYQF;2009-06-25 03:00;CYQF 250300Z 15010KT 15SM FEW080 FEW150 BKN260 21/06 A2973 RMK AC1AC2CI1 SLP068

CYQF;2009-06-25 04:00;CYQF 250400Z 15010KT 15SM FEW060 FEW140 SCT260 19/06 A2973 RMK SC1AC2CI1 SLP069

CYQF;2009-06-25 05:00;CYQF 250500Z 15008KT 15SM FEW060 FEW140 SCT260 18/06 A2973 RMK SC1AC1CI1 SLP069

CYQF;2009-06-25 06:00;CYQF 250600Z 16006KT 15SM FEW140 SCT250 17/07 A2973 RMK AC2CI1 SLP066

CYQF;2009-06-25 07:00;CYQF 250700Z 19006KT 15SM FEW140 SCT250 14/08 A2972 RMK AC2CI1 SLP063

CYQF;2009-06-25 08:00;CYQF 250800Z 19004KT 15SM SKC 12/07 A2970 RMK SLP058

CYQF;2009-06-25 09:00;CYQF 250900Z 15005KT 15SM FEW140 12/07 A2969 RMK AC1 SLP053

CYQF;2009-06-25 10:00;CYQF 251000Z 00000KT 15SM FEW140 09/06 A2968 RMK AC1 SLP050

CYQF;2009-06-25 11:00;CYQF 251100Z 17005KT 15SM FEW140 FEW250 09/06 A2966 RMK AC1CI0 SLP046

CYQF;2009-06-25 12:00;CYQF 251200Z 18004KT 15SM FEW140 FEW250 09/06 A2965 RMK AC1CI1 SLP041

CYQF;2009-06-25 13:00;CYQF 251300Z 00000KT 15SM FEW250 10/07 A2964 RMK CI1 SLP038

CYQF;2009-06-25 14:00;CYQF 251400Z 27002KT 15SM FEW100 FEW250 14/08 A2964 RMK AC1CI1 SLP039

CYQF;2009-06-25 15:00;CYQF 251500Z 00000KT 15SM FEW040 FEW100 FEW250 18/09 A2963 RMK CU1AC1CI0 SLP028

CYQF;2009-06-25 16:00;CYQF 251600Z 33003KT 15SM FEW040 FEW100 FEW250 20/09 A2963 RMK CU1AC1CI0 SLP027

CYQF;2009-06-25 17:00;CYQF 251700Z 31010KT 15SM SCT050 SCT100 20/08 A2964 RMK SC3AC1 CU ASOCTD SLP031

CYQF;2009-06-25 18:00;CYQF 251800Z 32008KT 15SM BKN050 BKN100 21/08 A2965 RMK SC5AC1 TCU ASOCTD SLP035

CYQF;2009-06-25 19:00;CYQF 251900Z 34010G15KT 15SM SCT050CB BKN250 20/07 A2965 RMK CB4CI1 CB SW OCNL LTGCG SLP036

CYQF;2009-06-25 19:52;CYQF 251952Z 29006KT 10SM -TSRA BKN050CB OVC250 RMK CB6CI1

CYQF;2009-06-25 20:00;CYQF 252000Z 30011KT 10SM -TSRA BKN050CB OVC250 16/09 A2972 RMK CB6CI1 PRESRR SLP059

CYQF;2009-06-25 20:12;CYQF 252012Z 21010KT 15SM VCSH BKN050CB BKN250 RETS RMK CB5CI2

CYQF;2009-06-25 21:00;CYQF 252100Z 36003KT 15SM VCSH SCT050CB BKN250 18/09 A2971 RMK CB4CI1 RETS SLP066

CYQF;2009-06-25 22:00;CYQF 252200Z 30006KT 15SM VCSH SCT050CB 20/06 A2971 RMK CB4 SLP065

CYQF;2009-06-25 23:00;CYQF 252300Z 36015G20KT 15SM VCSH SCT050CB 16/08 A2975 RMK CB3 PEAK GUST PAST HR 42KTS CB N-NE SLP076

CYQF;2009-06-26 00:00;CYQF 260000Z 35010G15KT 15SM FEW050CB 17/06 A2975 RMK CB2 CB NNE SLP085

CYQF;2009-06-26 01:00;CYQF 260100Z 33007KT 15SM FEW050CB 18/06 A2975 RMK CB1 CB NW SLP085

CYQF;2009-06-26 02:00;CYQF 260200Z 34003KT 15SM FEW050CB 18/07 A2976 RMK CB1 CB N SLP088

CYQF;2009-06-26 03:00;CYQF 260300Z 25006KT 15SM FEW050 17/03 A2977 RMK SC1 SLP083

CYQF;2009-06-26 04:00;CYQF 260400Z 28004KT 15SM FEW050 15/02 A2979 RMK SC1 SLP088

CYQF;2009-06-26 05:00;CYQF 260500Z 26004KT 15SM FEW050 FEW240 11/02 A2981 RMK SC1CI0 SLP095

CYQF;2009-06-26 06:00;CYQF 260600Z 17005KT 15SM FEW050 FEW240 10/03 A2983 RMK SC1CI0 SLP106

CYQF;2009-06-26 07:00;CYQF 260700Z 25003KT 15SM FEW090 09/02 A2983 RMK AC2 OBS TAKEN +09 SLP106

CYQF;2009-06-26 08:00;CYQF 260800Z 19005KT 15SM FEW100 08/02 A2983 RMK AC2 SLP106

CYQF;2009-06-26 09:00;CYQF 260900Z 21004KT 15SM FEW100 SCT250 05/02 A2983 RMK AC2CI0 SLP114

CYQF;2009-06-26 10:00;CYQF 261000Z 00000KT 15SM FEW100 SCT250 06/02 A2983 RMK AC2CI1 SLP115

CYQF;2009-06-26 11:00;CYQF 261100Z 20004KT 15SM FEW100 SCT250 04/01 A2984 RMK AC2CI1 SLP116

CYQF;2009-06-26 12:00;CYQF 261200Z 21004KT 15SM FEW040 SCT100 BKN250 05/02 A2984 RMK SC2AC2CI1 SLP121

CYQF;2009-06-26 13:00;CYQF 261300Z 21003KT 15SM FEW040 FEW100 BKN250 07/04 A2984 RMK SC2AC1CI1 SLP121

CYQF;2009-06-26 14:00;CYQF 261400Z 00000KT 15SM FEW040 FEW100 SCT250 10/04 A2985 RMK SC1AC2CI1 SLP124

CYQF;2009-06-26 15:00;CYQF 261500Z 00000KT 15SM SCT120 13/05 A2985 RMK AC2 SLP115

CYQF;2009-06-26 16:00;CYQF 261600Z 00000KT 15SM SCT120 15/06 A2985 RMK AC2 SLP113

CYQF;2009-06-26 17:00;CYQF 261700Z 33004KT 15SM FEW050 FEW120 17/04 A2984 RMK CU1AC1 SLP110

CYQF;2009-06-26 18:00;CYQF 261800Z 36008KT 15SM FEW050 18/04 A2983 RMK CU2 SLP109

CYQF;2009-06-26 19:00;CYQF 261900Z 00000KT 15SM FEW050TCU 18/02 A2982 RMK TCU2 SLP106

CYQF;2009-06-26 20:00;CYQF 262000Z 30007KT 15SM SCT050TCU 19/02 A2982 RMK TCU4 SLP105

CYQF;2009-06-26 21:00;CYQF 262100Z 02005KT 15SM SCT050TCU 20/03 A2982 RMK TCU4 SLP108

CYQF;2009-06-26 22:00;CYQF 262200Z 34005KT 15SM FEW070 20/02 A2982 RMK CU2 SLP110

CYQF;2009-06-26 23:00;CYQF 262300Z 35006KT 15SM FEW080 21/M00 A2982 RMK CU2 SLP110

CYQF;2009-06-27 00:00;CYQF 270000Z 36010G15KT 15SM FEW075 21/02 A2983 RMK CU2 SLP112

CYQF;2009-06-27 01:00;CYQF 270100Z 01010G15KT 15SM FEW070 19/01 A2985 RMK CU2 SLP119

CYQF;2009-06-27 02:00;CYQF 270200Z 01010G15KT 15SM FEW070 18/03 A2988 RMK AC2 SLP128

CYQF;2009-06-27 03:00;CYQF 270300Z 36008KT 15SM BKN070 16/02 A2991 RMK AC6 SLP137

CYQF;2009-06-27 04:00;CYQF 270400Z 02010G15KT 15SM FEW070 13/03 A2995 RMK AC2 SLP149

CYQF;2009-06-27 05:00;CYQF 270500Z 01008KT 15SM FEW070 11/03 A2999 RMK AC2 SLP162

CYQF;2009-06-27 06:00;CYQF 270600Z 36005KT 15SM FEW070 10/03 A3001 RMK AC2 SLP173

CYQF;2009-06-27 07:00;CYQF 270700Z 33003KT 15SM FEW070 07/02 A3003 RMK AC2 SLP177

CYQF;2009-06-27 08:00;CYQF 270800Z 26007KT 15SM FEW070 FEW250 05/02 A3004 RMK AC1CI0 SLP181

CYQF;2009-06-27 09:00;CYQF 270900Z 26007KT 15SM FEW090 SCT250 06/04 A3004 RMK AC1CI1 SLP185

CYQF;2009-06-27 10:00;CYQF 271000Z 26007KT 15SM FEW090 FEW250 05/03 A3005 RMK AC1CI0 SLP186

CYQF;2009-06-27 11:00;CYQF 271100Z 23007KT 15SM FEW100 BKN250 05/02 A3006 RMK AC1CI1 OBS TAKEN +07 SLP190

CYQF;2009-06-27 12:00;CYQF 271200Z 22007KT 15SM SCT100 BKN250 05/02 A3007 RMK AC2CI1 SLP195

CYQF;2009-06-27 13:00;CYQF 271300Z 21004KT 15SM SCT100 06/03 A3009 RMK AC2 SLP202

CYQF;2009-06-27 14:00;CYQF 271400Z 27010KT 15SM FEW050 SCT100 09/04 A3010 RMK SC1AC2 SLP204

CYQF;2009-06-27 15:00;CYQF 271500Z 32012KT 15SM FEW100 12/02 A3010 RMK AC2 SLP202

CYQF;2009-06-27 16:00;CYQF 271600Z 32014KT 15SM FEW250 15/00 A3010 RMK CI0 SLP201

CYQF;2009-06-27 17:00;CYQF 271700Z 33007KT 15SM FEW250 16/01 A3009 RMK CI0 SLP198

CYQF;2009-06-27 18:00;CYQF 271800Z 30010KT 15SM FEW250 17/M01 A3008 RMK CI0 SLP197

CYQF;2009-06-27 19:00;CYQF 271900Z 30007KT 15SM SCT250 18/01 A3007 RMK CI1 SLP194

CYQF;2009-06-27 20:00;CYQF 272000Z 36005KT 15SM BKN250 19/02 A3005 RMK CI2 SLP189

CYQF;2009-06-27 21:00;CYQF 272100Z 34005KT 15SM BKN250 20/03 A3005 RMK CI5 SLP187

CYQF;2009-06-27 22:00;CYQF 272200Z 32002KT 15SM SCT120 BKN250 21/00 A3005 RMK AC3CI1 SLP187

CYQF;2009-06-27 23:00;CYQF 272300Z 00000KT 15SM FEW100 BKN250 20/01 A3005 RMK AC2CI5 SLP186

CYQF;2009-06-28 00:00;CYQF 280000Z 17002KT 15SM FEW100 OVC250 19/03 A3003 RMK AC1CI7 SLP184

CYQF;2009-06-28 01:00;CYQF 280100Z 14002KT 15SM FEW100 OVC250 20/02 A3002 RMK AC1CI7 SLP180

CYQF;2009-06-28 02:00;CYQF 280200Z 09003KT 15SM FEW100 BKN250 20/02 A3001 RMK AC1CI4 SLP178

CYQF;2009-06-28 03:00;CYQF 280300Z CCA 12005KT 15SM FEW055 FEW100 BKN250 18/05 A3000 RMK CU1AC2CI4 ACSL SW-W SLP166

CYQF;2009-06-28 04:00;CYQF 280400Z 10007KT 15SM FEW055 FEW100 BKN250 16/04 A2999 RMK SC1AC2CI2 ACSL SLP164

CYQF;2009-06-28 05:00;CYQF 280500Z 13004KT 15SM FEW100 FEW250 15/02 A2999 RMK AC1CI1 SLP162

CYQF;2009-06-28 06:00;CYQF 280600Z 00000KT 15SM FEW100 FEW250 13/03 A2997 RMK AC1CI0 SLP155

CYQF;2009-06-28 07:00;CYQF 280700Z 13006KT 15SM FEW100 BKN250 14/01 A2994 RMK AC2CI2 SLP145

CYQF;2009-06-28 08:00;CYQF 280800Z 16013KT 15SM BKN120 BKN250 15/01 A2991 RMK AC5CI1 SLP137

CYQF;2009-06-28 09:00;CYQF 280900Z 15010KT 15SM FEW120 SCT250 13/01 A2989 RMK AC1CI1 SLP124

CYQF;2009-06-28 10:00;CYQF 281000Z 17008KT 15SM FEW120 FEW250 11/01 A2986 RMK AC1CI0 SLP117

CYQF;2009-06-28 11:00;CYQF 281100Z 17007KT 15SM FEW100 SCT250 10/01 A2985 RMK AC1CI0 SLP112

CYQF;2009-06-28 12:00;CYQF 281200Z 18006KT 15SM FEW090 SCT250 09/02 A2983 RMK AC2CI0 SLP109

CYQF;2009-06-28 13:00;CYQF 281300Z 20004KT 15SM SCT090 09/03 A2984 RMK AC2 SLP112

CYQF;2009-06-28 14:00;CYQF 281400Z 22002KT 15SM SCT050 13/06 A2985 RMK CU4 SLP116

CYQF;2009-06-28 15:00;CYQF 281500Z 29007KT 15SM FEW050 BKN090 16/06 A2986 RMK CU2AC2 VIRGA SLP115

CYQF;2009-06-28 16:00;CYQF 281600Z 32015G21KT 15SM FEW040 FEW090 17/08 A2988 RMK CU1AC1 VIRGA SLP121

CYQF;2009-06-28 17:00;CYQF 281700Z 33015G20KT 15SM SCT055 17/05 A2989 RMK SC3 SLP124

CYQF;2009-06-28 18:00;CYQF 281800Z 36015G20KT 15SM FEW050 18/07 A2990 RMK CU2 SLP129

CYQF;2009-06-28 19:00;CYQF 281900Z 35015G20KT 15SM FEW050 19/06 A2991 RMK CU2 SLP133

CYQF;2009-06-28 20:00;CYQF 282000Z 35010G15KT 15SM FEW050 SCT250 19/06 A2992 RMK CU2CI0 SLP136

CYQF;2009-06-28 21:00;CYQF 282100Z 02011G19KT 15SM SCT055 SCT250 19/05 A2992 RMK CU3CI0 SLP136

CYQF;2009-06-28 22:00;CYQF 282200Z 33012G21KT 15SM SCT055 BKN250 19/06 A2994 RMK CU4CI1 SLP142

CYQF;2009-06-28 23:00;CYQF 282300Z 35012G18KT 15SM FEW055 BKN250 18/07 A2996 RMK CU2CI2 SLP148

CYQF;2009-06-29 00:00;CYQF 290000Z 34012G17KT 15SM SCT055 BKN100 BKN250 18/05 A2997 RMK CU4AC2CI0 SLP160

CYQF;2009-06-29 01:00;CYQF 290100Z 01011KT 15SM FEW055 SCT100 BKN250 17/03 A2998 RMK CU2ACC2CI1 VIRGA SLP163

CYQF;2009-06-29 02:00;CYQF 290200Z 01010KT 15SM FEW055 SCT100 BKN250 17/03 A2999 RMK SC1AC2CI0 SLP165

CYQF;2009-06-29 03:00;CYQF 290300Z 35008KT 15SM FEW100 SCT250 15/05 A3000 RMK AC2CI0 SLP166

CYQF;2009-06-29 04:00;CYQF 290400Z 35008KT 15SM FEW050 FEW100 SCT250 11/04 A3003 RMK SC1AC1CI0 TCU SW SLP173

CYQF;2009-06-29 05:00;CYQF 290500Z 36005KT 15SM SCT050CB BKN100 12/05 A3004 RMK CB3AC3 LTGIC W SLP178

CYQF;2009-06-29 06:00;CYQF 290600Z 36008KT 15SM BKN075 13/04 A3005 RMK AC6 CU ASOCTD SLP181

CYQF;2009-06-29 07:00;CYQF 290700Z 00000KT 15SM BKN070 11/06 A3005 RMK AC5 SLP181

CYQF;2009-06-29 08:00;CYQF 290800Z 23003KT 15SM BKN075 08/05 A3004 RMK AC6 SLP180

CYQF;2009-06-29 09:00;CYQF 290900Z 28006KT 15SM BKN080 10/05 A3005 RMK AC6 SLP184

CYQF;2009-06-29 10:00;CYQF 291000Z 21003KT 15SM BKN080 09/05 A3006 RMK AC6 SLP187

CYQF;2009-06-29 11:00;CYQF 291100Z 23005KT 15SM BKN060 09/05 A3007 RMK SC6 SLP191

CYQF;2009-06-29 12:00;CYQF 291200Z 00000KT 15SM BKN060 BKN090 09/05 A3007 RMK CU6AC2 SLP196

CYQF;2009-06-29 13:00;CYQF 291300Z 00000KT 15SM BKN060 BKN090 09/06 A3009 RMK SC5AC2 SLP201

CYQF;2009-06-29 14:00;CYQF 291400Z 02006KT 15SM BKN060 BKN090 11/05 A3010 RMK SC5AC1 SLP203

CYQF;2009-06-29 15:00;CYQF 291500Z 03008KT 15SM SCT045 BKN090 13/02 A3009 RMK SC4AC1 VIRGA SLP201

CYQF;2009-06-29 16:00;CYQF 291600Z 05009KT 15SM FEW045 BKN090 BKN250 13/03 A3008 RMK SC2AC3CI1 SLP196

CYQF;2009-06-29 17:00;CYQF 291700Z 06003KT 15SM FEW045 BKN080 BKN250 15/04 A3005 RMK CU2AC3CI0 SLP189

CYQF;2009-06-29 18:00;CYQF 291800Z 13009KT 15SM FEW045 BKN080 BKN250 15/04 A3004 RMK CU1AC6CI0 OBS TAKEN -03 SLP182

CYQF;2009-06-29 19:00;CYQF 291900Z 12010KT 15SM BKN045 BKN080 16/05 A3001 RMK CU6AC2 SLP174

CYQF;2009-06-29 20:00;CYQF 292000Z 13009KT 15SM SCT045 SCT080 18/07 A2999 RMK CU4AC1 SLP166

CYQF;2009-06-29 21:00;CYQF 292100Z 12012G19KT 15SM BKN045 BKN080 19/06 A2996 RMK CU5AC1 SLP155

CYQF;2009-06-29 23:00;CYQF 292300Z 11015G23KT 15SM BKN055CB BKN090 20/07 A2989 RMK CB5AC2 SH W-N PRESFR SLP133

CYQF;2009-06-29 23:18;CYQF 292318Z 15012G20KT 15SM TS BKN060CB BKN250 RMK CB5CI2 PRESFR SH W-NE

CYQF;2009-06-29 23:35;CYQF 292335Z 28015G20KT 15SM TS BKN060CB BKN250 RMK CB6CI1 WND SHFT LGTCCCG N HVY SH N

CYQF;2009-06-30 00:00;CYQF 300000Z 03010G20KT 15SM TS FEW040 BKN060CB BKN250 18/07 A2988 RMK SF1CB5CI1 WND SHFT 2357 SH NE SF TR SLP130

CYQF;2009-06-30 00:13;CYQF 300013Z 04006KT 15SM BKN045CB BKN100 BKN250 RMK CB5AC1CI0

CYQF;2009-06-30 01:00;CYQF 300100Z 36012KT 15SM BKN040CB BKN100 BKN250 17/09 A2988 RMK CB5AC1CI0 SLP128

CYQF;2009-06-30 01:46;CYQF 300146Z 06010KT 15SM TS BKN040CB BKN100 BKN250 RMK CB5AC2CI0 LTGCG W

CYQF;2009-06-30 02:00;CYQF 300200Z 35015G21KT 15SM -TSRA BKN040CB BKN100 BKN250 16/08 A2986 RMK CB5AC1CI1 LTGCG W+N SLP122

CYQF;2009-06-30 03:00;CYQF 300300Z 01018G26KT 15SM BKN040CB BKN100 BKN250 11/09 A2988 RETS RMK CB6AC1CI1 SHRA NW-NE SLP132

CYQF;2009-06-30 03:19;CYQF 300319Z CCA 35014G22KT 15SM -TSRA BKN040CB BKN250 RMK CB6CI1 LTGCC N PRESRR

CYQF;2009-06-30 04:00;CYQF 300400Z 05013G18KT 15SM BKN040CB BKN100 11/09 A2993 RETS RMK CB5AC2 SLP146

CYQF;2009-06-30 04:23;CYQF 300423Z 05010G15KT 15SM -TSRA BKN040CB BKN100 RMK CB6AC2

CYQF;2009-06-30 05:00;CYQF 300500Z 04006KT 15SM TS SCT040CB BKN080 10/09 A2998 RMK CB4AC3 LTGCC NE SLP162

CYQF;2009-06-30 05:40;CYQF 300540Z 05006KT 15SM SCT040CB BKN080 RMK CB3AC3 RETS

CYQF;2009-06-30 06:00;CYQF 300600Z 07008KT 15SM SCT040 BKN080 BKN250 10/09 A2996 RMK SC3AC2CI1 RE TS CB ASOCTD SLP159

CYQF;2009-06-30 07:00;CYQF 300700Z 04005KT 15SM FEW040 SCT080 BKN250 10/09 A2996 RMK SC2AC2CI1 SLP159

CYQF;2009-06-30 08:00;CYQF 300800Z 31004KT 15SM SCT020 BKN080 09/09 A2997 RMK SC4AC3 SLP162

CYQF;2009-06-30 08:44;CYQF 300844Z 30005KT 10SM BKN014 OVC060 RMK SC6SC2

CYQF;2009-06-30 09:00;CYQF 300900Z 30004KT 10SM BKN013 OVC060 10/08 A2998 RMK SC6SC2 SLP161

CYQF;2009-06-30 09:49;CYQF 300949Z 30004KT 15SM SCT015 BKN060 RMK SC3SC2

CYQF;2009-06-30 10:00;CYQF 301000Z 29003KT 15SM SCT015 BKN060 09/08 A2997 RMK SC3SC2 SLP158

CYQF;2009-06-30 11:00;CYQF 301100Z 00000KT 15SM FEW020 SCT080 BKN250 08/07 A2996 RMK SC2AC2CI0 SLP156

CYQF;2009-06-30 12:00;CYQF 301200Z 30003KT 10SM FEW015 SCT080 BKN250 06/06 A2996 RMK SC2AC2CI1 BCFG SLP160

CYQF;2009-06-30 13:00;CYQF 301300Z 32004KT 15SM FEW015 FEW080 BKN250 08/07 A2998 RMK SC1AC2CI1 SLP164

CYQF;2009-06-30 14:00;CYQF 301400Z 36008KT 15SM FEW015 FEW080 10/07 A3000 RMK SC1ACC2 SLP171

CYQF;2009-06-30 15:00;CYQF 301500Z 35008KT 15SM FEW020 FEW080 FEW250 10/06 A3000 RMK CU1ACC2CI0 SLP176

CYQF;2009-06-30 16:00;CYQF 301600Z 33015G21KT 15SM FEW020 SCT080 11/06 A3001 RMK CU1ACC2 SLP178

CYQF;2009-06-30 17:00;CYQF 301700Z 01010G15KT 15SM FEW025 SCT080 12/05 A2999 RMK CU1ACC3 SLP174

CYQF;2009-06-30 18:00;CYQF 301800Z 01008G15KT 15SM FEW025 FEW080 13/06 A2999 RMK CU1AC2 SLP170

CYQF;2009-06-30 19:00;CYQF 301900Z 01008KT 15SM FEW030 FEW080 14/06 A2998 RMK CU1AC2 CB DIST W SLP166

CYQF;2009-06-30 20:00;CYQF 302000Z 01007KT 15SM SCT040 SCT080 15/05 A2998 RMK CU3AC1 CB DIST NW SLP166

CYQF;2009-06-30 21:00;CYQF 302100Z 00000KT 15SM SCT050 SCT250 16/05 A2998 RMK CU4CI1 SLP164

CYQF;2009-06-30 22:00;CYQF 302200Z 32004KT 15SM BKN045 BKN250 16/04 A3000 RMK CU6CI1 VIRGA SLP169

CYQF;2009-06-30 22:16;CYQF 302216Z 35012KT 15SM -SHRA BKN045TCU RMK TCU7

CYQF;2009-06-30 23:00;CYQF 302300Z 36010G18KT 15SM BKN040TCU 14/04 A3002 RMK TCU6 SLP175

CYQF;2009-07-01 01:00;CYQF 010100Z 00000KT 15SM BKN045 13/02 A3004 RMK CU6 SLP192

CYQF;2009-07-01 02:00;CYQF 010200Z 03005KT 15SM BKN060 14/M01 A3005 RMK CU6 SLP195

CYQF;2009-07-01 03:00;CYQF 010300Z 35008KT 15SM BKN060 BKN250 12/05 A3006 RMK SC6CI0 SLP195

CYQF;2009-07-01 04:00;CYQF 010400Z 33004KT 15SM SCT060 SCT250 11/05 A3006 RMK SC2CI0 SLP196

CYQF;2009-07-01 05:00;CYQF 010500Z 24003KT 15SM SCT060 SCT250 08/04 A3008 RMK SC3CI0 SLP203

CYQF;2009-07-01 06:00;CYQF 010600Z 20005KT 15SM SCT060 SCT250 06/03 A3010 RMK SC3CI0 SLP212

CYQF;2009-07-01 07:00;CYQF 010700Z 24006KT 15SM FEW100 FEW250 04/02 A3011 RMK AC1CI0 OBS TAKEN +20 SLP217

CYQF;2009-07-01 08:00;CYQF 010800Z 25003KT 15SM FEW100 FEW250 04/02 A3012 RMK AC1CI0 SLP218

CYQF;2009-07-01 09:00;CYQF 010900Z 19002KT 15SM FEW100 FEW250 03/02 A3013 RMK AC1CI0 OBS TAKEN +10 SLP222

CYQF;2009-07-01 10:00;CYQF 011000Z 22005KT 15SM FEW250 02/01 A3014 RMK CI1 SLP225

CYQF;2009-07-01 11:00;CYQF 011100Z 00000KT 15SM SCT250 02/01 A3015 RMK CI1 SLP227

CYQF;2009-07-01 12:00;CYQF 011200Z 18003KT 15SM FEW250 02/01 A3016 RMK CI0 SLP238

CYQF;2009-07-01 13:00;CYQF 011300Z 22004KT 15SM FEW090 FEW250 04/03 A3016 RMK AC1CI0 SLP239

CYQF;2009-07-01 14:00;CYQF 011400Z 24005KT 15SM FEW090 07/05 A3017 RMK AC1 SLP240

CYQF;2009-07-01 15:00;CYQF 011500Z 27004KT 15SM FEW090 11/06 A3016 RMK AC1 SLP230

CYQF;2009-07-01 16:00;CYQF 011600Z 27004KT 15SM FEW100 FEW250 14/06 A3015 RMK AC1CI1 WND ESTD SLP228

CYQF;2009-07-01 17:00;CYQF 011700Z 24006KT 15SM FEW055 FEW100 FEW250 16/02 A3015 RMK CU1AC1CI0 WND ESTD SLP225

CYQF;2009-07-01 18:00;CYQF 011800Z 22005KT 15SM FEW055 FEW100 FEW250 16/02 A3014 RMK CU1AC1CI0 SLP224

CYQF;2009-07-01 19:00;CYQF 011900Z 00000KT 15SM FEW055 16/02 A3014 RMK CU2 WND ESTD SLP223

CYQF;2009-07-01 20:00;CYQF 012000Z 14006KT 15SM BKN070 18/M00 A3014 RMK CU6 SLP222

CYQF;2009-07-01 21:00;CYQF 012100Z 00000KT 15SM BKN070 18/01 A3013 RMK CU6 SLP221

CYQF;2009-07-01 22:00;CYQF 012200Z 13002KT 15SM BKN070 18/M00 A3014 RMK CU5 SLP223

CYQF;2009-07-01 23:00;CYQF 012300Z 05005KT 15SM SCT070 19/02 A3013 RMK CU4 SLP221

CYQF;2009-07-02 00:00;CYQF 020000Z 00000KT 15SM BKN070 19/01 A3014 RMK CU5 SLP223

CYQF;2009-07-02 01:00;CYQF 020100Z 00000KT 15SM BKN060 18/01 A3014 RMK SC5 SLP225

CYQF;2009-07-02 02:00;CYQF 020200Z CCA 00000KT 15SM SCT060 19/01 A3015 RMK SC3 CB DIST S SLP227

CYQF;2009-07-02 03:00;CYQF 020300Z 02002KT 15SM SCT060 18/01 A3015 RMK SC3 SLP219

CYQF;2009-07-02 04:00;CYQF 020400Z 09002KT 15SM SCT060 BKN250 16/05 A3016 RMK SC4CI0 SLP223

CYQF;2009-07-02 05:00;CYQF 020500Z 09002KT 15SM BKN060 16/04 A3018 RMK SC6 SLP227

CYQF;2009-07-02 06:00;CYQF 020600Z 23006KT 15SM BKN070 13/04 A3019 RMK AC6 SLP235

CYQF;2009-07-02 07:00;CYQF 020700Z 28006KT 15SM BKN070 12/06 A3021 RMK AC6 SLP240

CYQF;2009-07-02 08:00;CYQF 020800Z 36003KT 15SM SCT070 10/04 A3021 RMK AC3 SLP240

CYQF;2009-07-02 09:00;CYQF 020900Z 03005KT 15SM FEW070 11/04 A3020 RMK AC2 SLP237

CYQF;2009-07-02 10:00;CYQF 021000Z 36002KT 15SM FEW070 09/04 A3021 RMK AC1 SLP239

CYQF;2009-07-02 11:00;CYQF 021100Z 00000KT 15SM FEW070 FEW240 06/03 A3023 RMK AC1CI1 SLP245

CYQF;2009-07-02 12:00;CYQF 021200Z 31004KT 15SM FEW080 SCT240 06/03 A3024 RMK AC1CI1 SLP255

CYQF;2009-07-02 13:00;CYQF 021300Z 32005KT 15SM FEW100 FEW250 08/06 A3024 RMK AC1CI1 SLP254

CYQF;2009-07-02 14:00;CYQF 021400Z 36006KT 15SM SCT100 SCT250 10/06 A3023 RMK AC4CI1 ACC DIST N SLP253

CYQF;2009-07-02 15:00;CYQF 021500Z 03005KT 15SM FEW100 14/07 A3023 RMK AC2 SLP242

CYQF;2009-07-02 16:00;CYQF 021600Z 06005KT 15SM FEW100 15/07 A3022 RMK AC1 SLP240

CYQF;2009-07-02 17:00;CYQF 021700Z CCA 05006KT 15SM FEW100 FEW250 16/07 A3021 RMK AC1CI1 WND ESTD SLP237

CYQF;2009-07-02 18:00;CYQF 021800Z 05005KT 15SM FEW045 SCT100 SCT250 18/08 A3020 RMK CU1AC3CI1 ACC ASOCTD WND ESTD SLP235

CYQF;2009-07-02 19:00;CYQF 021900Z 23003KT 15SM FEW050 SCT100 SCT250 19/06 A3018 RMK CU2AC2CI1 WND ESTD SLP229

CYQF;2009-07-02 20:00;CYQF 022000Z 14003KT 15SM BKN060 BKN100 BKN250 19/04 A3016 RMK CU6AC1CI1 WND ESTD SLP224

CYQF;2009-07-02 21:00;CYQF 022100Z 14005KT 15SM BKN065 BKN100 BKN250 21/04 A3014 RMK CU6AC1CI1 WND ESTD SLP213

CYQF;2009-07-02 22:00;CYQF 022200Z 00000KT 15SM BKN070 BKN250 21/04 A3013 RMK CU6CI1 WND ESTD SLP209

CYQF;2009-07-02 23:00;CYQF 022300Z 18005KT 15SM SCT060 BKN100 20/05 A3012 RMK CU4AC2 WND ESTD CB W SLP207

CYQF;2009-07-02 23:32;CYQF 022332Z CCA 18003KT 15SM TS BKN060CB BKN100 RMK CB5AC2 OCNL LTGCG W WND ESTD

CYQF;2009-07-02 23:34;CYQF 022334Z CCA 18003KT 15SM TS BKN060CB BKN100 RMK CB5AC2 OCNL LTGCG W WND ESTD

CYQF;2009-07-03 00:00;CYQF 030000Z 27014KT 15SM TS BKN060CB OVC100 19/07 A3013 RMK CB5AC2 OCNL LTGCG SH NW WND ESTD SLP217

CYQF;2009-07-03 00:20;CYQF 030020Z 32015KT 15SM VCSH BKN060CB OVC100 RETS RMK CB5AC2 OCNL LTGCG N WND ESTD

CYQF;2009-07-03 00:32;CYQF 030032Z 36014KT 15SM -SHRA BKN060TCU OVC100 RETS RMK TCU5AC2 CB ASOCTD WND ESTD

CYQF;2009-07-03 01:00;CYQF 030100Z 32007KT 15SM -SHRA BKN060TCU BKN100 16/07 A3014 RETS RMK TCU5AC2 CB ASOCTD WND ESTD SLP220

CYQF;2009-07-03 01:26;CYQF 030126Z 36010KT 15SM FEW050TCU BKN100 RMK TCU2AC3 WND ESTD

CYQF;2009-07-03 02:00;CYQF 030200Z 36006KT 15SM FEW040TCU BKN090 16/08 A3011 RMK TCU2AC3 WND ESTD SLP211

CYQF;2009-07-03 03:00;CYQF 030300Z 00000KT 15SM FEW040 BKN090 16/09 A3013 RMK CU2AC3 ACC ASOCTD SLP210

CYQF;2009-07-03 04:00;CYQF 030400Z 36005KT 15SM BKN040 BKN090 15/08 A3013 RMK SC5AC2 TCU/ACC ASOCTD WND ESTD SLP211

CYQF;2009-07-03 05:00;CYQF 030500Z 36005KT 15SM BKN040TCU OVC090 14/07 A3014 RMK TCU5AC2 CB ASOCTD OCNL LTGCG W-NW WND ESTD SLP214

CYQF;2009-07-03 05:11;CYQF 030511Z 32015KT 15SM TS BKN040CB OVC090 RMK CB6AC2 OCNL LTNG ALQDS WND ESTD

CYQF;2009-07-03 05:17;CYQF 030517Z 32020G35KT 15SM -TSRA BKN040CB OVC090 RMK CB6AC2 OCNL LTNGICCCCG WND ESTD

CYQF;2009-07-03 05:22;CYQF 030522Z CCA 32020G35KT 15SM -TSRA BKN040CB OVC090 RMK CB6AC2 OCNL LTNGICCCCG WND ESTD GUST 35KTS

CYQF;2009-07-03 05:25;CYQF 030525Z 32020G30KT 5SM TSRA OVC040CB RMK CB8 LTNGICCCCG WND EST

CYQF;2009-07-03 05:40;CYQF 030540Z 32015G20KT 8SM -TSRA OVC040CB RMK CB8 WND ESTD RERA

CYQF;2009-07-03 06:00;CYQF 030600Z 33020G25KT 10SM -TSRA OVC060CB 10/08 A3021 RMK CB8 WND DIR ESTD RERA SLP240

CYQF;2009-07-03 06:17;CYQF 030617Z 34018G25KT 8SM -SHRA OVC060TCU RETS RMK TCU8 WND DIR ESTD

CYQF;2009-07-03 07:00;CYQF 030700Z 36010KT 6SM -SHRA BR SCT006 OVC080 09/09 A3022 RMK ST4AC4 WND DIR ESTD SLP243

CYQF;2009-07-03 07:21;CYQF 030721Z 05010KT 15SM OVC080 RMK AC8 WND DIR ESTD

CYQF;2009-07-03 08:00;CYQF 030800Z 05008KT 15SM BKN070 OVC100 10/10 A3020 RMK AC6AC2 WND DIR ESTD SLP239

CYQF;2009-07-03 09:00;CYQF 030900Z 23005KT 15SM SCT100 08/08 A3021 RMK AC3 SLP239

CYQF;2009-07-03 10:00;CYQF 031000Z 27006KT 15SM FEW100 07/07 A3021 RMK AC1 WND DIR ESTD SLP240

CYQF;2009-07-03 11:00;CYQF 031100Z 32004KT 15SM FEW100 07/06 A3021 RMK AC1 ACC ASOCTD WND DIR ESTD SLP240

CYQF;2009-07-03 12:00;CYQF 031200Z 00000KT 15SM FEW100 07/06 A3022 RMK AC1 SLP246

CYQF;2009-07-03 13:00;CYQF 031300Z 00000KT 15SM FEW100 07/06 A3022 RMK AC1 SLP246

CYQF;2009-07-03 14:00;CYQF 031400Z 00000KT 15SM FEW100 10/07 A3022 RMK AC1 SLP248

CYQF;2009-07-03 15:00;CYQF 031500Z 23002KT 15SM FEW015 12/08 A3022 RMK SC1 WND ESTD SLP245

CYQF;2009-07-03 16:00;CYQF 031600Z 27005KT 15SM FEW020 14/08 A3022 RMK CU1 WND ESTD SLP245

CYQF;2009-07-03 17:00;CYQF 031700Z 27005KT 15SM FEW025 15/08 A3021 RMK CU2 WND ESTD SLP242

CYQF;2009-07-03 18:00;CYQF 031800Z 31003KT 15SM SCT035 16/07 A3021 RMK CU3 SLP243

CYQF;2009-07-03 19:00;CYQF 031900Z 36008KT 15SM SCT035 17/07 A3021 RMK CU3 SLP242

CYQF;2009-07-03 20:00;CYQF 032000Z 35004KT 15SM SCT035 18/06 A3021 RMK CU3 SLP244

CYQF;2009-07-03 21:00;CYQF 032100Z 06004KT 15SM SCT035 18/06 A3021 RMK CU3 SLP242

CYQF;2009-07-03 22:00;CYQF 032200Z 36005KT 15SM FEW050 19/06 A3020 RMK CU2 SLP239

CYQF;2009-07-03 23:00;CYQF 032300Z 19002KT 15SM FEW050 19/06 A3019 RMK CU2 SLP237

CYQF;2009-07-04 00:00;CYQF 040000Z 00000KT 15SM FEW050 19/06 A3018 RMK CU2 SLP235

CYQF;2009-07-04 01:00;CYQF 040100Z 00000KT 15SM FEW050 19/05 A3018 RMK CU2 SLP235

CYQF;2009-07-04 02:00;CYQF 040200Z 36004KT 15SM FEW050 FEW250 19/05 A3019 RMK CU1CI0 SLP236

CYQF;2009-07-04 03:00;CYQF 040300Z 01002KT 15SM FEW070 FEW250 18/06 A3019 RMK AC1CI0 SLP231

CYQF;2009-07-04 04:00;CYQF 040400Z 00000KT 15SM FEW070 FEW250 16/07 A3020 RMK AC1CI0 SLP235

CYQF;2009-07-04 05:00;CYQF 040500Z 00000KT 15SM FEW070 FEW250 13/07 A3020 RMK AC1CI0 SLP236

CYQF;2009-07-04 06:00;CYQF 040600Z 00000KT 15SM FEW090 11/07 A3020 RMK AC2 SLP239

CYQF;2009-07-04 07:00;CYQF 040700Z 00000KT 15SM BKN090 10/07 A3020 RMK AC4 SLP239

CYQF;2009-07-04 08:00;CYQF 040800Z 00000KT 15SM BKN100 11/08 A3020 RMK AC3 SLP239

CYQF;2009-07-04 09:00;CYQF 040900Z 16005KT 15SM BKN100 12/07 A3019 RMK AC2 SLP233

CYQF;2009-07-04 10:00;CYQF 041000Z 16006KT 15SM BKN100 12/07 A3019 RMK AC6 SLP232

CYQF;2009-07-04 11:00;CYQF 041100Z 18005KT 15SM BKN100 11/07 A3018 RMK AC6 ACC VIRGA SLP230

CYQF;2009-07-04 12:00;CYQF 041200Z 20004KT 15SM BKN090 12/07 A3018 RMK AC7 SLP228

CYQF;2009-07-04 13:00;CYQF 041300Z 19003KT 15SM BKN090 12/07 A3018 RMK AC7 SLP228

CYQF;2009-07-04 14:00;CYQF 041400Z 14008KT 15SM BKN080 13/07 A3017 RMK AC6 SLP225

CYQF;2009-07-04 15:00;CYQF 041500Z 15010G15KT 15SM BKN080 14/07 A3016 RMK AC6 SLP219

CYQF;2009-07-04 16:00;CYQF 041600Z 13010KT 15SM BKN080 15/08 A3015 RMK AC7 SLP216

CYQF;2009-07-04 17:00;CYQF 041700Z 13010G15KT 15SM SCT080 BKN250 16/08 A3013 RMK AC3CI2 SLP208

CYQF;2009-07-04 18:00;CYQF 041800Z 14010G18KT 15SM FEW080 BKN250 19/09 A3011 RMK AC2CI3 SLP205

CYQF;2009-07-04 19:00;CYQF 041900Z 13010G15KT 15SM BKN045 BKN250 21/10 A3009 RMK CU5CI1 SLP198

CYQF;2009-07-04 20:00;CYQF 042000Z 18010G15KT 15SM BKN040 BKN250 22/10 A3007 RMK CU5CI1 SLP192

CYQF;2009-07-04 21:00;CYQF 042100Z 16010G15KT 15SM BKN040 BKN250 22/11 A3005 RMK CU5CI1 TCU ASOCTD SLP179

CYQF;2009-07-04 22:00;CYQF 042200Z 11005KT 15SM SCT040 BKN100 BKN250 22/12 A3003 RMK CU3AC2CI2 TCU ASOCTD SLP172

CYQF;2009-07-04 23:00;CYQF 042300Z CCA 17010KT 15SM SCT045TCU BKN100 OVC250 22/11 A3004 RMK TCU3AC3CI1 CB ASOCTD S SLP175

CYQF;2009-07-05 00:00;CYQF 050000Z 15008KT 15SM SCT040CB BKN100 BKN250 21/11 A3002 RMK CB4AC2CI1 CB SE-SW + NW-N SLP170

CYQF;2009-07-05 00:48;CYQF 050048Z 20012KT 15SM TS BKN040CB BKN110 BKN250 RMK CB5AC2CI0

CYQF;2009-07-05 01:00;CYQF 050100Z 30015G20KT 15SM TS BKN040CB BKN100 18/10 A3005 RMK CB6AC2 FUNNEL CLD REPORTED 10NNE AIRPORT BETWEEN 0047-0049Z WND SHFT 0156 SLP178

CYQF;2009-07-05 01:11;CYQF 050111Z CCA 33012KT 15SM -TSRA BKN040CB BKN100 RMK CB6AC2 REFC

CYQF;2009-07-05 01:40;CYQF 050140Z 26005KT 15SM BKN040CB BKN100 BKN250 RMK CB5AC1CI1 REFC RETS

CYQF;2009-07-05 02:00;CYQF 050200Z 36007KT 15SM BKN040TCU BKN100 BKN250 16/10 A3005 RMK TCU5AC1CI1 REFC RETS CB ASOCTD SLP180

CYQF;2009-07-05 03:00;CYQF 050300Z CCA 05008KT 15SM SCT040TCU BKN090 BKN250 15/11 A3011 RMK TCU4AC2CI1 CB ASOCTD PRESRR SLP206

CYQF;2009-07-05 04:00;CYQF 050400Z 14006KT 15SM SCT040 BKN090 BKN250 14/11 A3009 RMK SC3AC2CI1 TCU ASOCTD SLP199

CYQF;2009-07-05 05:00;CYQF 050500Z 20005KT 15SM FEW040 SCT090 BKN250 13/11 A3010 RMK SC2AC2CI2 TCU ASOCTD SLP202

CYQF;2009-07-05 06:00;CYQF 050600Z 00000KT 15SM FEW040 BKN100 BKN250 13/11 A3013 RMK SC2AC2CI2 SLP209

CYQF;2009-07-05 07:00;CYQF 050700Z 00000KT 15SM FEW040 BKN090 BKN250 12/11 A3013 RMK SC2AC3CI2 SLP209

CYQF;2009-07-05 08:00;CYQF 050800Z 00000KT 15SM VCSH FEW040 BKN090 BKN250 12/11 A3012 RMK SC2AC3CI1 SLP206

CYQF;2009-07-05 09:00;CYQF 050900Z 21003KT 15SM SCT090 BKN250 11/10 A3010 RMK AC3CI1 SLP197

CYQF;2009-07-05 10:00;CYQF 051000Z 27003KT 10SM BKN090 BKN250 11/10 A3012 RMK AC5CI1 BR SLP203

CYQF;2009-07-05 11:00;CYQF 051100Z 19005KT 3SM BR BKN090 BKN250 10/09 A3011 RMK AC5CI1 ACC ASOCTD VIRGA SLP199

CYQF;2009-07-05 11:10;CYQF 051110Z 22002KT 2SM BR BKN090 BKN250 RMK AC5CI1 ACC ASOCTD VIRGA

CYQF;2009-07-05 12:00;CYQF 051200Z 00000KT 2SM BR SCT080 BKN250 10/09 A3011 RMK ACC4CI1 SLP201

CYQF;2009-07-05 13:00;CYQF 051300Z 00000KT 2SM BR SCT080 BKN250 11/10 A3011 RMK ACC4CI1 SLP202

CYQF;2009-07-05 13:29;CYQF 051329Z 00000KT 3SM BR BKN080 BKN250 RMK AC5CI0 ACC ASOCTD

CYQF;2009-07-05 13:51;CYQF 051351Z 35004KT 3SM BR BKN006 BKN080 RMK SF5AC2

CYQF;2009-07-05 14:00;CYQF 051400Z 31003KT 2SM BR OVC005 12/10 A3011 RMK SF7 SLP202

CYQF;2009-07-05 15:00;CYQF 051500Z 36003KT 5SM BR BKN005 BKN060 13/11 A3011 RMK SF5SC2 SLP206

CYQF;2009-07-05 16:00;CYQF 051600Z 03006KT 5SM BR BKN004 OVC060 14/11 A3011 RMK SF6SC2 SLP207

CYQF;2009-07-05 17:00;CYQF 051700Z 36003KT 10SM BKN003 OVC060 15/12 A3011 RMK SF6SC2 SLP206

CYQF;2009-07-05 17:54;CYQF 051754Z 10008KT 10SM BKN012 OVC070 RMK CF6AC2 BR

CYQF;2009-07-05 18:00;CYQF 051800Z 09007KT 10SM BKN015 OVC070 17/12 A3011 RMK CU6AC2 HZ SLP203

CYQF;2009-07-05 19:00;CYQF 051900Z 07005KT 10SM BKN015 BKN070 18/12 A3010 RMK SC5AC2 HZ CU EMBD SLP200

CYQF;2009-07-05 20:00;CYQF 052000Z 06007KT 10SM BKN015 BKN070 18/12 A3008 RMK SC5AC2 CU ASOCTD SLP196

CYQF;2009-07-05 21:00;CYQF 052100Z 02004KT 10SM BKN020 OVC040 19/12 A3008 RMK SC6SC2 SLP193

CYQF;2009-07-05 22:00;CYQF 052200Z 02002KT 10SM BKN020 BKN040 OVC250 19/12 A3007 RMK SC5SC2CI1 TCU ASOCTD SLP190

CYQF;2009-07-05 23:00;CYQF 052300Z 04009KT 15SM BKN025 BKN050 OVC250 20/12 A3004 RMK SC5SC2CI1 CU ASOCTD SLP181

CYQF;2009-07-06 00:00;CYQF 060000Z 07009KT 15SM BKN030 BKN070 OVC250 20/13 A3003 RMK CU5AC2CI1 SLP177

CYQF;2009-07-06 01:00;CYQF 060100Z 06012KT 15SM SCT030 BKN070 OVC250 20/13 A3003 RMK CU4AC2CI1 SLP176

CYQF;2009-07-06 02:00;CYQF 060200Z 05008KT 15SM BKN030 BKN080 OVC250 19/12 A3003 RMK CU5AC2CI1 CB/SH SW SLP175

CYQF;2009-07-06 02:22;CYQF 060222Z 03007KT 15SM TS BKN030CB BKN080 OVC250 RMK CB5AC2CI1 HVY SH SW

CYQF;2009-07-06 02:42;CYQF 060242Z 06005KT 15SM -TSRA BKN030CB BKN080 RMK CB5AC2 HVY SH/LTGCG SW

CYQF;2009-07-06 03:00;CYQF 060300Z 10004KT 15SM -TSRA BKN030CB BKN080 17/13 A3003 RMK CB5AC2 LTGCG SW+SE SLP177

CYQF;2009-07-06 03:35;CYQF 060335Z 08006KT 15SM -SHRA BKN030CB BKN080 BKN250 RMK CB5AC2CI1

CYQF;2009-07-06 03:49;CYQF 060349Z 07005KT 15SM BKN030CB BKN080 OVC250 RMK CB5AC2CI1

CYQF;2009-07-06 04:00;CYQF 060400Z 05006KT 15SM SCT030CB BKN080 OVC250 16/14 A3001 RMK CB4AC2CI1 SLP169

CYQF;2009-07-06 05:00;CYQF 060500Z 03004KT 15SM -SHRA BKN030CB OVC080 16/14 A3003 RMK CB5AC3 SLP176

CYQF;2009-07-06 06:00;CYQF 060600Z 35008KT 15SM TSRA OVC040CB OVC070 15/14 A3006 RMK CB6AC2 LTGCC OVRHD SLP185

CYQF;2009-07-06 07:00;CYQF 060700Z 04006KT 15SM SCT040TCU OVC100 14/13 A3002 RMK TCU3AC5 SLP174

CYQF;2009-07-06 08:00;CYQF 060800Z 05005KT 15SM SCT040 OVC100 14/13 A3002 RMK SC3AC5 SLP173

CYQF;2009-07-06 09:00;CYQF 060900Z 07006KT 15SM FEW040 OVC100 14/13 A2999 RMK SC2AC6 SLP159

CYQF;2009-07-06 10:00;CYQF 061000Z 08004KT 15SM BKN020 OVC100 14/12 A3000 RMK SC6AC2 SLP162

CYQF;2009-07-06 11:00;CYQF 061100Z 08008KT 15SM BKN020 OVC100 13/12 A2998 RMK SC6AC2 SLP156

CYQF;2009-07-06 12:00;CYQF 061200Z 00000KT 15SM FEW003 BKN020 BKN100 13/12 A2997 RMK SF2SC3AC2 SLP154

CYQF;2009-07-06 13:00;CYQF 061300Z 09010KT 15SM BKN025 BKN090 13/12 A2996 RMK SC5AC2 SLP150

CYQF;2009-07-06 14:00;CYQF 061400Z 09008KT 15SM SCT035 BKN100 14/12 A2995 RMK SC3AC2 SLP145

CYQF;2009-07-06 15:00;CYQF 061500Z 12005KT 15SM FEW010 BKN050 BKN100 15/12 A2994 RMK SF1SC6AC1 SLP142

CYQF;2009-07-06 16:00;CYQF 061600Z 13010KT 15SM FEW008 BKN050 BKN100 17/12 A2993 RMK SF2SC2AC1 TCU ASOCTD SLP140

CYQF;2009-07-06 16:54;CYQF 061654Z 14010KT 15SM BKN014 OVC050 RMK SC6SC2 CU ASOCTD

CYQF;2009-07-06 17:00;CYQF 061700Z 12007KT 15SM BKN014 OVC050 17/13 A2992 RMK SC6SC2 CU ASOCTD SLP136

CYQF;2009-07-06 18:00;CYQF 061800Z 12005KT 15SM SCT015 BKN050 OVC250 18/14 A2989 RMK CU4SC2CI2 SLP125

CYQF;2009-07-06 19:00;CYQF 061900Z CCA 11010KT 15SM SCT015 BKN050 BKN250 20/14 A2986 RMK CU4SC1CI1 TCU ASOCTD SLP117

CYQF;2009-07-06 20:00;CYQF 062000Z 12010G15KT 15SM SCT015TCU BKN045 BKN250 21/13 A2984 RMK TCU3SC2CI1 SLP110

CYQF;2009-07-06 21:00;CYQF 062100Z 14012KT 15SM BKN020TCU BKN045 OVC250 19/12 A2984 RMK TCU6SC2CI1 SLP106

CYQF;2009-07-06 21:05;CYQF 062105Z 14014KT 10SM -SHRA BKN020TCU BKN045 OVC250 RMK TCU6SC2CI1

CYQF;2009-07-06 22:00;CYQF 062200Z 15005KT 5SM -TSRA FEW010 BKN020CB OVC050 17/14 A2983 RMK CF1CB6SC2 LTGCG S SLP103

CYQF;2009-07-06 22:49;CYQF 062249Z 15012KT 2SM SHRA BR FEW010 OVC015CB RMK CF2CB6 RETS

CYQF;2009-07-06 23:00;CYQF 062300Z 16012KT 2SM +TSRA BR FEW006 OVC015CB 15/14 A2984 RMK CF2CB6 SLP108

CYQF;2009-07-06 23:24;CYQF 062324Z 13010KT 6SM -SHRA BR FEW006 OVC015CB RMK CF2CB6 RETS RERA

CYQF;2009-07-07 00:00;CYQF 070000Z 12015G25KT 8SM -SHRA FEW006 BKN015TCU OVC050 14/13 A2980 RMK CF1TCU6SC2 RETS RERA CB ASOCTD /R11/ SLP101

CYQF;2009-07-07 00:47;CYQF 070047Z 06007KT 10SM FEW008 BKN015 OVC050 RMK CF1SC6SC2 CB ASOCTD RERA

CYQF;2009-07-07 00:52;CYQF 070052Z 06007KT 10SM FEW008 BKN015 OVC050 RMK CF1SC6SC2 CB ASOCTD RERA

CYQF;2009-07-07 01:00;CYQF 070100Z 08006KT 15SM FEW008 BKN020 OVC050 14/13 A2980 RMK CF1SC6SC2 CB SE RERA SLP099

CYQF;2009-07-07 02:00;CYQF 070200Z 10012KT 15SM BKN020 OVC050 14/11 A2978 RMK SC6SC2 SLP095

CYQF;2009-07-07 03:00;CYQF 070300Z 12005KT 15SM BKN015 OVC080 14/12 A2981 RMK SC6AC2 SLP101

CYQF;2009-07-07 04:00;CYQF 070400Z 12005KT 15SM BKN015 OVC080 14/12 A2982 RMK SC6AC2 SLP104

CYQF;2009-07-07 05:00;CYQF 070500Z 12006KT 15SM OVC015 13/12 A2982 RMK SC8 SLP103

CYQF;2009-07-07 05:33;CYQF 070533Z 10005KT 5SM -SHRA BR OVC015 RMK SC8

CYQF;2009-07-07 06:00;CYQF 070600Z 09005KT 5SM -SHRA BR FEW007 OVC030 13/12 A2980 RMK SF2SC6 SLP096

CYQF;2009-07-07 07:00;CYQF 070700Z 08006KT 3SM RA BR OVC009 13/12 A2979 RMK ST8 SLP094

CYQF;2009-07-07 08:00;CYQF 070800Z 03003KT 3SM RA BR OVC010 12/12 A2978 RMK SC8 SLP089

CYQF;2009-07-07 09:00;CYQF 070900Z 36005KT 5SM -RA BR SCT010 OVC040 12/11 A2975 RERA RMK SC3SC5 SLP076

CYQF;2009-07-07 10:00;CYQF 071000Z 35004KT 5SM -RA BR OVC008 12/12 A2974 RMK SC8 SLP074

CYQF;2009-07-07 11:00;CYQF 071100Z 30004KT 5SM -RA BR OVC008 12/12 A2973 RMK SC8 SLP071

CYQF;2009-07-07 12:00;CYQF 071200Z 29004KT 10SM -RA SCT008 BKN030 12/11 A2972 RMK SF3SC4 SLP073

CYQF;2009-07-07 12:35;CYQF 071235Z 27005KT 10SM FEW008 BKN030 BKN250 RMK SF2SC3CI0

CYQF;2009-07-07 13:00;CYQF 071300Z 28006KT 15SM FEW008 BKN030 BKN250 12/10 A2971 RMK SF2SC4CI0 SLP071

CYQF;2009-07-07 14:00;CYQF 071400Z 28012KT 15SM FEW005 BKN012 OVC250 13/11 A2971 RMK SF1SC6CI1 SLP071

CYQF;2009-07-07 14:25;CYQF 071425Z 28011KT 15SM BKN005 OVC017 RMK SF6SC2

CYQF;2009-07-07 15:00;CYQF 071500Z 30012KT 15SM -DZ BKN005 BKN015 OVC250 12/11 A2972 RMK SF5SC2CI1 VIS N 2 SLP075

CYQF;2009-07-07 15:29;CYQF 071529Z 30012KT 15SM BKN005 BKN020 BKN250 RMK CU5SC2CI0

CYQF;2009-07-07 15:45;CYQF 071545Z CCA 29015KT 15SM SCT005 BKN020 BKN150 RMK CU3SC2AC1

CYQF;2009-07-07 16:00;CYQF 071600Z 30012KT 15SM FEW007 SCT025 BKN150 14/10 A2972 RMK CU2SC1AC1 SLP075

CYQF;2009-07-07 16:36;CYQF 071636Z 29010G15KT 15SM BKN014 BKN250 RMK CU6CI0

CYQF;2009-07-07 17:00;CYQF 071700Z 30012G18KT 15SM BKN015 14/10 A2973 RMK CU7 SLP078

CYQF;2009-07-07 18:00;CYQF 071800Z 28010G15KT 15SM BKN020 BKN250 15/09 A2974 RMK CU5CI0 SLP078

CYQF;2009-07-07 19:00;CYQF 071900Z 29010G15KT 15SM SCT025 BKN250 17/10 A2974 RMK CU3CI0 SLP079

CYQF;2009-07-07 20:00;CYQF 072000Z 30010KT 15SM FEW030 SCT120 BKN250 17/10 A2974 RMK CU2AC1CI0 SLP079

CYQF;2009-07-07 21:00;CYQF 072100Z CCA 29010KT 15SM FEW035CB SCT120 BKN250 18/09 A2976 RMK CB2AC1CI0 CB SW SLP081

CYQF;2009-07-07 22:00;CYQF 072200Z 29010KT 15SM SCT040CB BKN250 18/09 A2976 RMK CB3CI1 CB SSE VIRGA SLP081

CYQF;2009-07-07 23:00;CYQF 072300Z 01002KT 15SM FEW040CB BKN250 19/08 A2975 RMK CB2CI1 CB+SH SE SLP078

CYQF;2009-07-08 00:00;CYQF 080000Z 06003KT 15SM FEW040CB BKN250 19/07 A2974 RMK CB2CI1 SLP076

CYQF;2009-07-08 01:00;CYQF 080100Z 02002KT 15SM VCSH BKN040CB BKN090 18/06 A2974 RMK CB5AC1 HVY SH SE SLP076

CYQF;2009-07-08 01:43;CYQF 080143Z 00000KT 15SM TS VCSH BKN040CB BKN090 RMK CB6AC1 LTGIC W

CYQF;2009-07-08 02:00;CYQF 080200Z 36007KT 15SM TS VCSH SCT040CB BKN090 BKN250 15/07 A2976 RMK CB4AC1CI1 LTGIC N SLP083

CYQF;2009-07-08 03:00;CYQF 080300Z 30015G20KT 15SM TS VCSH SCT040CB BKN090 BKN250 12/06 A2979 RMK CB3AC2CI0 OCNL LTGCG N QUAD SLP101

CYQF;2009-07-08 03:16;CYQF 080316Z 31015G21KT 15SM VCSH FEW040CB BKN090 BKN250 RETS RMK CB2AC2CI0 OCNL LTGCG N QUAD

CYQF;2009-07-08 04:00;CYQF 080400Z 32010G15KT 15SM FEW040CB BKN090 BKN250 12/07 A2979 RETS RMK CB2AC2CI0 SH DIST N SLP100

CYQF;2009-07-08 05:00;CYQF 080500Z 36003KT 15SM FEW040CB SCT090 BKN250 11/08 A2980 RMK CB2AC2CI2 SH DIST N SLP104

CYQF;2009-07-08 06:00;CYQF 080600Z 00000KT 15SM FEW040CB SCT090 BKN250 11/07 A2979 RMK CB2AC2CI2 SH DIST N LTG DIST E SLP098

CYQF;2009-07-08 07:00;CYQF 080700Z 27005KT 15SM FEW090 BKN250 09/08 A2979 RMK AC2CI2 SLP099

CYQF;2009-07-08 08:00;CYQF 080800Z 27003KT 15SM FEW090 BKN250 09/07 A2979 RMK AC2CI2 SLP098

CYQF;2009-07-08 09:00;CYQF 080900Z 26004KT 15SM BKN100 BKN250 09/07 A2979 RMK AC5CI1 SLP098

CYQF;2009-07-08 10:00;CYQF 081000Z 00000KT 15SM BKN090 BKN250 08/07 A2979 RMK AC5CI2 SLP098

CYQF;2009-07-08 11:00;CYQF 081100Z 00000KT 15SM -SHRA BKN040 BKN090 09/08 A2979 RMK SC5AC2 SLP096

CYQF;2009-07-08 11:22;CYQF 081122Z 00000KT 15SM SCT040 BKN090 RMK SC3AC3 TCU ASOCTD

CYQF;2009-07-08 12:00;CYQF 081200Z 00000KT 15SM FEW040 BKN090 08/08 A2978 RMK SC2AC3 TCU ASOCTD SLP095

CYQF;2009-07-08 13:00;CYQF 081300Z 00000KT 15SM FEW040 BKN090 08/07 A2979 RMK SC2AC2 TCU ASOCTD SLP096

CYQF;2009-07-08 14:00;CYQF 081400Z 34004KT 15SM FEW040 SCT090 BKN250 11/10 A2978 RMK SC2AC1CI0 TCU+SH N SLP095

CYQF;2009-07-08 15:00;CYQF 081500Z 30004KT 15SM FEW008 SCT080 BKN250 11/09 A2979 RMK CU1AC2CI1 SLP100

CYQF;2009-07-08 16:00;CYQF 081600Z 03004KT 15SM FEW012 FEW080 BKN250 13/09 A2979 RMK CU1AC2CI1 SLP101

CYQF;2009-07-08 17:00;CYQF 081700Z 03006KT 15SM FEW015 SCT080 BKN250 15/10 A2978 RMK CU2AC2CI1 SLP099

CYQF;2009-07-08 18:00;CYQF 081800Z 01003KT 15SM FEW020 SCT080 BKN250 15/10 A2978 RMK CU2AC2CI1 SLP093

CYQF;2009-07-08 19:00;CYQF 081900Z 34006KT 15SM SCT020CB BKN080 BKN250 15/09 A2977 RMK CB3AC2CI1 SLP090

CYQF;2009-07-08 20:00;CYQF 082000Z 24006KT 15SM VCSH BKN025CB BKN250 15/10 A2976 RMK CB5CI2 SLP089

CYQF;2009-07-08 21:00;CYQF 082100Z CCA 28008KT 15SM VCSH BKN025TCU BKN250 15/08 A2976 RMK TCU6CI2 CB ASOCTD SLP090

CYQF;2009-07-08 22:00;CYQF 082200Z 26010KT 15SM VCSH BKN025TCU BKN090 BKN250 15/09 A2977 RMK TCU5AC1CI2 CB ASOCTD SLP093

CYQF;2009-07-08 23:00;CYQF 082300Z 28011KT 15SM BKN025TCU BKN070 15/09 A2976 RMK TCU5AC2 CB ASOCTD SH DIST N SLP091

CYQF;2009-07-09 00:00;CYQF 090000Z 29010KT 15SM VCSH BKN020CB BKN070 15/10 A2976 RMK CB6AC2 HVY SH N QUAD SLP092

CYQF;2009-07-09 00:10;CYQF 090010Z 30005KT 12SM -SHRA BKN020CB BKN070 RMK CB6AC2

CYQF;2009-07-09 00:20;CYQF 090020Z 32005KT 10SM -TSRA BKN020CB OVC070 RMK CB6AC2

CYQF;2009-07-09 01:00;CYQF 090100Z 31006KT 10SM -SHRA BKN020CB OVC070 11/10 A2978 RETSRA RMK CB6AC2 SLP097

CYQF;2009-07-09 02:00;CYQF 090200Z 31003KT 10SM -SHRA SCT020CB BKN050 OVC100 11/10 A2980 RMK CB4SC2AC2 SLP102

CYQF;2009-07-09 03:00;CYQF 090300Z 30008KT 12SM -SHRA SCT020CB OVC050 12/10 A2981 RMK CB3SC5 SLP108

CYQF;2009-07-09 04:00;CYQF 090400Z 27007KT 12SM SCT020 OVC060 11/10 A2982 RMK CU3SC5 SLP110

CYQF;2009-07-09 05:00;CYQF 090500Z 28007KT 12SM SCT020 BKN050 11/10 A2981 RMK SC4SC3 SLP108

CYQF;2009-07-09 05:03;CYQF 090503Z 27006KT 10SM -SHRA BKN020 OVC050 RMK SC5SC3

CYQF;2009-07-09 05:49;CYQF 090549Z 28007KT 10SM -SHRA FEW008 BKN017 OVC050 RMK SF2SC4SC2

CYQF;2009-07-09 06:00;CYQF 090600Z 29005KT 10SM -SHRA FEW008 BKN017 OVC050 11/10 A2981 RMK SF2SC4SC2 OBS TAKEN +23 SLP104

CYQF;2009-07-09 07:00;CYQF 090700Z 33014G21KT 10SM -SHRA FEW008 OVC015 12/10 A2982 RMK SF2SC6 OBS TAKEN +10 SLP108

CYQF;2009-07-09 08:00;CYQF 090800Z 31010G15KT 10SM -SHRA FEW007 OVC014 11/10 A2984 RMK SF2SC6 OBS TAKEN +08 SLP114

CYQF;2009-07-09 09:00;CYQF 090900Z 30012G18KT 10SM -SHRA FEW007 OVC014 11/09 A2985 RMK SF2SC6 SLP118

CYQF;2009-07-09 10:00;CYQF 091000Z 30010G17KT 10SM -SHRA FEW007 OVC014 11/09 A2986 RMK SF2SC6 SLP121

CYQF;2009-07-09 11:00;CYQF 091100Z 31013G20KT 10SM -SHRA SCT007 OVC015 11/09 A2988 RMK SF3SC5 SLP127

CYQF;2009-07-09 12:00;CYQF 091200Z 31012G17KT 6SM -SHRA BR SCT007 OVC015 11/09 A2990 RMK SF3SC5 SLP136

CYQF;2009-07-09 12:12;CYQF 091212Z 32010G15KT 15SM SCT015 BKN050 BKN090 RMK SC3SC2AC1

CYQF;2009-07-09 13:00;CYQF 091300Z 31012KT 15SM FEW015 BKN050 BKN090 11/09 A2992 RMK SC2SC4AC1 SLP141

CYQF;2009-07-09 14:00;CYQF 091400Z 31013KT 15SM FEW015 SCT050 BKN090 12/09 A2993 RMK SC2SC2AC2 SLP146

CYQF;2009-07-09 15:00;CYQF 091500Z 30014KT 15SM SCT012 BKN090 12/09 A2995 RMK SC4AC2 SLP156

CYQF;2009-07-09 15:14;CYQF 091514Z 32016KT 15SM OVC012 RMK SC8

CYQF;2009-07-09 16:00;CYQF 091600Z 33012KT 15SM OVC013 12/09 A2997 RMK SC8 SLP162

CYQF;2009-07-09 17:00;CYQF 091700Z 31010KT 15SM OVC013 12/09 A2999 RMK SC8 SLP167

CYQF;2009-07-09 17:21;CYQF 091721Z 31012KT 10SM -RA OVC010 RMK SC8

CYQF;2009-07-09 18:00;CYQF 091800Z 30012KT 15SM -RA BKN012 OVC050 13/09 A3000 RMK SC6SC2 SLP173

CYQF;2009-07-09 19:00;CYQF 091900Z 31016KT 15SM -RA BKN011 OVC050 12/09 A3002 RMK SC6SC2 SLP179

CYQF;2009-07-09 20:00;CYQF 092000Z 33015G20KT 15SM -RA BKN014 OVC030 12/07 A3004 RMK SC6SC2 -RA INTMT SLP185

CYQF;2009-07-09 20:44;CYQF 092044Z 32010G15KT 15SM BKN015 BKN030 RMK SC6SC2

CYQF;2009-07-09 21:00;CYQF 092100Z 34010G15KT 15SM BKN015 BKN030 13/07 A3004 RMK SC6SC2 SLP187

CYQF;2009-07-09 22:00;CYQF 092200Z 33010G15KT 15SM BKN015 BKN030 11/07 A3006 RMK SC5SC2 SLP193

CYQF;2009-07-09 23:00;CYQF 092300Z 36010G15KT 15SM SCT015 BKN030 12/07 A3006 RMK SC3SC4 SLP194

CYQF;2009-07-10 00:00;CYQF 100000Z 33010KT 15SM SCT015 BKN024 13/08 A3007 RMK CU3SC3 SLP197

CYQF;2009-07-10 01:00;CYQF 100100Z 35009KT 15SM BKN024 BKN250 13/07 A3007 RMK CU6CI1 SLP198

CYQF;2009-07-10 02:00;CYQF 100200Z 35004KT 15SM FEW025 SCT100 BKN250 13/07 A3008 RMK CU2AC2CI2 SLP201

CYQF;2009-07-10 03:00;CYQF 100300Z 04003KT 15SM FEW025 FEW100 BKN250 12/07 A3010 RMK CU2AC1CI1 SLP206

CYQF;2009-07-10 04:00;CYQF 100400Z 00000KT 15SM FEW025 SCT100 BKN250 10/06 A3011 RMK CU1AC3CI1 SLP211

CYQF;2009-07-10 05:00;CYQF 100500Z 00000KT 15SM FEW025 SCT100 BKN250 09/07 A3013 RMK CU1AC3CI0 SLP216

CYQF;2009-07-10 06:00;CYQF 100600Z 09004KT 15SM FEW030 SCT100 BKN250 08/06 A3013 RMK SC1AC2CI0 SLP221

CYQF;2009-07-10 07:00;CYQF 100700Z 06002KT 15SM BKN100 BKN250 07/05 A3014 RMK AC5CI0 SLP223

CYQF;2009-07-10 08:00;CYQF 100800Z 09002KT 15SM BKN100 07/05 A3013 RMK AC5 SLP222

CYQF;2009-07-10 09:00;CYQF 100900Z 16002KT 15SM BKN100 07/05 A3013 RMK AC5 SLP220

CYQF;2009-07-10 10:00;CYQF 101000Z 00000KT 15SM SCT100 06/04 A3012 RMK AC2 SLP218

CYQF;2009-07-10 11:00;CYQF 101100Z 00000KT 15SM BKN100 06/04 A3012 RMK AC5 SLP219

CYQF;2009-07-10 12:00;CYQF 101200Z 17004KT 15SM FEW030 BKN100 06/05 A3012 RMK SC1AC6 SLP220

CYQF;2009-07-10 13:00;CYQF 101300Z 15004KT 15SM SCT080 SCT250 07/06 A3012 RMK AC3CI0 SLP218

CYQF;2009-07-10 14:00;CYQF 101400Z 17006KT 15SM FEW080 FEW250 10/07 A3011 RMK AC1CI0 SLP215

CYQF;2009-07-10 15:00;CYQF 101500Z 16009KT 15SM FEW015 FEW120 SCT250 12/08 A3011 RMK SF1AC1CI1 SLP210

CYQF;2009-07-10 16:00;CYQF 101600Z 18008KT 15SM FEW020 SCT250 14/09 A3010 RMK CF2CI1 SLP207

CYQF;2009-07-10 17:00;CYQF 101700Z 20008KT 15SM FEW025 SCT250 15/10 A3008 RMK CU2CI0 SLP203

CYQF;2009-07-10 18:00;CYQF 101800Z 25003KT 15SM FEW030 SCT250 17/08 A3007 RMK CU2CI0 SLP196

CYQF;2009-07-10 19:00;CYQF 101900Z 20006KT 15SM FEW040 FEW080 SCT250 18/07 A3007 RMK CU2AC1CI0 SLP197

CYQF;2009-07-10 20:00;CYQF 102000Z 23007KT 15SM FEW040 SCT080 BKN250 19/08 A3007 RMK CU2AC2CI0 SLP196

CYQF;2009-07-10 21:00;CYQF 102100Z 31007KT 15SM FEW050 SCT100 BKN250 20/06 A3006 RMK CU2AC1CI0 SLP192

CYQF;2009-07-10 22:00;CYQF 102200Z 31005KT 15SM FEW050 SCT100 BKN250 20/06 A3006 RMK CU2AC1CI1 SLP190

CYQF;2009-07-10 23:00;CYQF 102300Z 36002KT 15SM FEW050 BKN100 BKN250 21/07 A3005 RMK CU1AC2CI0 SLP189

CYQF;2009-07-11 00:00;CYQF 110000Z 00000KT 15SM FEW060 SCT100 BKN250 20/07 A3005 RMK CU1AC3CI0 SLP186

CYQF;2009-07-11 01:00;CYQF 110100Z 00000KT 15SM FEW060 BKN085 BKN250 20/08 A3005 RMK CU1AC4CI1 SLP187

CYQF;2009-07-11 02:00;CYQF 110200Z 03003KT 15SM BKN080 BKN250 19/09 A3004 RMK AC6CI1 SLP185

CYQF;2009-07-11 03:00;CYQF 110300Z 00000KT 15SM BKN080 BKN250 18/10 A3004 RMK AC5CI2 SLP180

CYQF;2009-07-11 04:00;CYQF 110400Z 00000KT 15SM BKN075 BKN250 17/11 A3005 RMK AC5CI2 SLP183

CYQF;2009-07-11 05:00;CYQF 110500Z 00000KT 15SM BKN075 BKN250 16/10 A3004 RMK AC5CI2 SLP181

CYQF;2009-07-11 06:00;CYQF 110600Z 02002KT 15SM BKN075 BKN250 15/11 A3005 RMK AC5CI2 SLP181

CYQF;2009-07-11 07:00;CYQF 110700Z 18002KT 15SM BKN060 BKN250 14/11 A3004 RMK SC5CI2 SLP177

CYQF;2009-07-11 08:00;CYQF 110800Z 18008KT 15SM SCT060 BKN250 12/09 A3003 RMK SC3CI2 SLP175

CYQF;2009-07-11 09:00;CYQF 110900Z 26004KT 15SM FEW060 BKN080 BKN250 13/10 A3004 RMK SC2AC2CI1 SLP178

CYQF;2009-07-11 10:00;CYQF 111000Z 33007KT 15SM SCT060 BKN080 BKN250 14/10 A3006 RMK SC3AC2CI1 SLP185

CYQF;2009-07-11 11:00;CYQF 111100Z 30006KT 15SM BKN060 BKN090 14/10 A3008 RMK SC5AC2 SLP189

CYQF;2009-07-11 12:00;CYQF 111200Z 30007KT 15SM SCT060 BKN090 13/10 A3009 RMK SC3AC2 SLP193

CYQF;2009-07-11 13:00;CYQF 111300Z 32006KT 15SM FEW060 SCT090 BKN250 14/11 A3010 RMK SC2AC2CI1 SLP197

CYQF;2009-07-11 14:00;CYQF 111400Z 33009KT 15SM FEW010 BKN030 OVC060 15/11 A3012 RMK SF2SC3SC2 SLP203

CYQF;2009-07-11 14:29;CYQF 111429Z 33005KT 15SM BKN014 BKN030 BKN090 RMK SF5SC2AC1

CYQF;2009-07-11 15:00;CYQF 111500Z 31010KT 15SM BKN014 BKN090 16/11 A3014 RMK CU5AC2 SLP210

CYQF;2009-07-11 16:00;CYQF 111600Z 34010KT 15SM BKN020 BKN090 16/11 A3015 RMK CU5AC2 SLP214

CYQF;2009-07-11 17:00;CYQF 111700Z 33010KT 15SM SCT025 BKN250 17/11 A3016 RMK CU4CI1 SLP216

CYQF;2009-07-11 18:00;CYQF 111800Z 35010KT 15SM BKN030 BKN250 18/11 A3016 RMK CU5CI1 SLP219

CYQF;2009-07-11 19:00;CYQF 111900Z 02013KT 15SM SCT030 BKN250 18/12 A3017 RMK CU4CI1 TCU ASOCTD SLP222

CYQF;2009-07-11 20:00;CYQF 112000Z 36010KT 15SM SCT030 BKN120 18/11 A3018 RMK CU3AC1 TCU ASOCTD SLP224

CYQF;2009-07-11 21:00;CYQF 112100Z 35010KT 15SM SCT035 BKN250 19/11 A3017 RMK CU3CI1 TCU ASOCTD SLP225

CYQF;2009-07-11 22:00;CYQF 112200Z 36006KT 15SM SCT035 19/11 A3017 RMK CU4 SLP225

CYQF;2009-07-11 23:00;CYQF 112300Z 36005KT 15SM SCT035 19/11 A3017 RMK CU4 SLP225

CYQF;2009-07-12 00:00;CYQF 120000Z 07006KT 15SM SCT035 20/12 A3017 RMK CU3 SLP222

CYQF;2009-07-12 01:00;CYQF 120100Z 12005KT 15SM FEW035 19/11 A3017 RMK CU2 SLP221

CYQF;2009-07-12 02:00;CYQF 120200Z 09008KT 15SM FEW035 18/11 A3017 RMK SC1 SLP222

CYQF;2009-07-12 03:00;CYQF 120300Z 09006KT 15SM FEW250 17/11 A3017 RMK CI0 SLP221

CYQF;2009-07-12 04:00;CYQF 120400Z 11005KT 15SM FEW250 15/11 A3017 RMK CI0 SLP222

CYQF;2009-07-12 05:00;CYQF 120500Z 15003KT 15SM FEW250 13/10 A3018 RMK CI1 SLP226

CYQF;2009-07-12 06:00;CYQF 120600Z 14005KT 15SM FEW250 13/09 A3017 RMK CI1 SLP225

CYQF;2009-07-12 07:00;CYQF 120700Z 12005KT 15SM FEW250 12/09 A3017 RMK CI1 SLP224

CYQF;2009-07-12 08:00;CYQF 120800Z 15004KT 15SM FEW250 11/09 A3016 RMK CI1 SLP222

CYQF;2009-07-12 09:00;CYQF 120900Z 15004KT 15SM FEW250 10/08 A3015 RMK CI1 SLP220

CYQF;2009-07-12 10:00;CYQF 121000Z 15005KT 15SM FEW250 10/08 A3014 RMK CI1 SLP217

CYQF;2009-07-12 11:00;CYQF 121100Z 15007KT 15SM SCT250 10/08 A3013 RMK CI2 SLP213

CYQF;2009-07-12 12:00;CYQF 121200Z 17008KT 15SM SCT250 10/08 A3011 RMK CI2 SLP206

CYQF;2009-07-12 13:00;CYQF 121300Z 15008KT 15SM FEW250 10/09 A3010 RMK CI1 SLP203

CYQF;2009-07-12 14:00;CYQF 121400Z 17010G15KT 15SM SKC 12/09 A3009 RMK SLP200

CYQF;2009-07-12 15:00;CYQF 121500Z 17011KT 15SM SKC 15/11 A3008 RMK SLP194

CYQF;2009-07-12 16:00;CYQF 121600Z 18010KT 15SM SKC 16/12 A3007 RMK SLP191

CYQF;2009-07-12 17:00;CYQF 121700Z 17012G18KT 15SM SCT250 19/13 A3006 RMK CI1 SLP186

CYQF;2009-07-12 18:00;CYQF 121800Z 18010G15KT 15SM BKN250 21/15 A3005 RMK CI2 SLP179

CYQF;2009-07-12 19:00;CYQF 121900Z 17010G15KT 15SM BKN250 22/14 A3004 RMK CI2 SLP176

CYQF;2009-07-12 20:00;CYQF 122000Z 15010G15KT 15SM BKN250 23/14 A3002 RMK CI2 SLP171

CYQF;2009-07-12 21:00;CYQF 122100Z 16011G17KT 15SM BKN250 25/14 A2999 RMK CI2 SLP158

CYQF;2009-07-12 22:00;CYQF 122200Z 15010G15KT 15SM FEW040 BKN250 25/14 A2997 RMK CU1CI4 SLP152

CYQF;2009-07-12 23:00;CYQF 122300Z 16010G15KT 15SM FEW045CB BKN250 25/14 A2997 RMK CB2CI3 SHRA DIST W SLP151

CYQF;2009-07-13 00:00;CYQF 130000Z 15010KT 15SM VCSH BKN035CB BKN250 22/13 A2997 RMK CB5CI2 SLP152

CYQF;2009-07-13 01:00;CYQF 130100Z 13005KT 15SM FEW035CB BKN060 BKN250 22/13 A2994 RMK CB2SC3CI1 SLP144

CYQF;2009-07-13 02:00;CYQF 130200Z 10006KT 15SM BKN040 BKN120 BKN250 22/12 A2995 RMK SC5AC1CI1 SLP145

CYQF;2009-07-13 03:00;CYQF 130300Z 19008KT 15SM SCT040 BKN120 BKN250 21/12 A2994 RMK SC3AC2CI1 SLP138

CYQF;2009-07-13 04:00;CYQF 130400Z 00000KT 15SM SCT120 BKN250 20/12 A2995 RMK AC3CI2 SLP143

CYQF;2009-07-13 05:00;CYQF 130500Z 12005KT 15SM FEW120 SCT250 18/12 A2995 RMK AC2CI1 SLP141

CYQF;2009-07-13 06:00;CYQF 130600Z 00000KT 15SM FEW120 SCT250 15/11 A2995 RMK AC2CI1 SLP141

CYQF;2009-07-13 07:00;CYQF 130700Z 32003KT 15SM FEW120 SCT250 15/11 A2995 RMK AC2CI1 SLP142

CYQF;2009-07-13 08:00;CYQF 130800Z 00000KT 15SM FEW120 BKN250 12/10 A2995 RMK AC2CI2 SLP140

CYQF;2009-07-13 09:00;CYQF 130900Z 20004KT 15SM FEW120 SCT250 11/10 A2993 RMK AC2CI1 SLP136

CYQF;2009-07-13 10:00;CYQF 131000Z 33004KT 15SM SCT100 BKN250 13/11 A2993 RMK AC4CI2 SLP134

CYQF;2009-07-13 11:00;CYQF 131100Z 33006KT 15SM SCT100 BKN250 14/12 A2990 RMK AC4CI2 SLP127

CYQF;2009-07-13 12:00;CYQF 131200Z 33004KT 15SM SCT100 BKN250 13/11 A2991 RMK AC3CI2 SLP127

CYQF;2009-07-13 13:00;CYQF 131300Z 25004KT 15SM SCT100 BKN250 14/12 A2991 RMK AC4CI2 SLP129

CYQF;2009-07-13 14:00;CYQF 131400Z 34006KT 15SM FEW070 SCT120 BKN250 16/11 A2993 RMK ACC2AC2CI1 SLP133

CYQF;2009-07-13 15:00;CYQF 131500Z 36008KT 15SM BKN080 OVC250 17/11 A2993 RMK AC6CI1 SLP133

CYQF;2009-07-13 16:00;CYQF 131600Z 34008KT 15SM FEW040 BKN080 OVC250 17/12 A2992 RMK SC2AC4CI1 SH DIST W SLP130

CYQF;2009-07-13 17:00;CYQF 131700Z 34010G15KT 15SM FEW070 BKN150 BKN250 18/13 A2993 RMK ACC2AC3CI1 SH DIST W SLP132

CYQF;2009-07-13 18:00;CYQF 131800Z 35008KT 15SM FEW020 BKN100 OVC250 18/13 A2992 RMK CU1ACC4CI2 SLP136

CYQF;2009-07-13 19:00;CYQF 131900Z 36008KT 15SM FEW025 BKN100 OVC250 19/13 A2991 RMK CU2AC2CI2 SLP132

CYQF;2009-07-13 20:00;CYQF 132000Z 36007KT 15SM FEW025 BKN100 OVC250 20/12 A2990 RMK CU2AC3CI2 SLP129

CYQF;2009-07-13 21:00;CYQF 132100Z 35010KT 15SM FEW030 BKN080 OVC250 19/12 A2990 RMK CU2AC3CI2 SLP132

CYQF;2009-07-13 22:00;CYQF 132200Z 36009KT 15SM FEW025 BKN080 OVC250 20/12 A2990 RMK CU2AC3CI3 SLP131

CYQF;2009-07-13 23:00;CYQF 132300Z 36010KT 15SM FEW025 BKN080 OVC250 20/12 A2991 RMK CU2AC3CI2 SLP133

CYQF;2009-07-14 00:00;CYQF 140000Z 36010KT 15SM FEW030 OVC210 19/12 A2991 RMK CU2CS6 SLP132

CYQF;2009-07-14 01:00;CYQF 140100Z CCA 34010G15KT 15SM SCT030 OVC210 18/11 A2990 RMK CU3CS5 SLP128

CYQF;2009-07-14 02:00;CYQF 140200Z 34007KT 15SM SCT030 BKN080 OVC250 18/11 A2992 RMK CU4AC2CI2 SLP134

CYQF;2009-07-14 03:00;CYQF 140300Z 34006KT 15SM BKN025 BKN080 OVC250 17/11 A2995 RMK CU5AC2CI1 SLP142

CYQF;2009-07-14 04:00;CYQF 140400Z 36007KT 15SM BKN025 BKN080 OVC250 16/11 A2996 RMK CU6AC2CI1 SLP146

CYQF;2009-07-14 05:00;CYQF 140500Z 01009KT 15SM BKN030 OVC080 16/10 A2997 RMK SC6AC2 SLP149

CYQF;2009-07-14 06:00;CYQF 140600Z 01011KT 15SM BKN039 OVC080 15/09 A2999 RMK SC6AC2 SLP160

CYQF;2009-07-14 07:00;CYQF 140700Z 01010KT 15SM BKN040 14/09 A3001 RMK SC6 SLP166

CYQF;2009-07-14 08:00;CYQF 140800Z 34008KT 15SM BKN025 BKN080 13/08 A3001 RMK SC5AC2 SLP167

CYQF;2009-07-14 09:00;CYQF 140900Z 01008KT 15SM SCT020 OVC040 13/09 A3001 RMK SC4SC4 SLP166

CYQF;2009-07-14 10:00;CYQF 141000Z 35006KT 15SM FEW020 SCT040 BKN090 11/08 A3001 RMK SC2SC2AC2 SLP167

CYQF;2009-07-14 11:00;CYQF 141100Z 32007KT 15SM BKN015 OVC040 11/08 A3002 RMK SC6SC2 SLP171

CYQF;2009-07-14 12:00;CYQF 141200Z 34010KT 15SM OVC015 11/07 A3005 RMK SC8 SLP183

CYQF;2009-07-14 13:00;CYQF 141300Z 32010KT 15SM BKN017 OVC080 11/08 A3006 RMK SC7AC1 SLP186

CYQF;2009-07-14 14:00;CYQF 141400Z 35011G17KT 15SM OVC017 10/07 A3008 RMK SC8 SLP193

CYQF;2009-07-14 15:00;CYQF 141500Z 34010G15KT 15SM FEW010 BKN022 BKN060 11/07 A3009 RMK SF2SC5SC1 SLP200

CYQF;2009-07-14 16:00;CYQF 141600Z 32015G20KT 15SM BKN017 OVC025 12/07 A3010 RMK SC6SC2 SLP202

CYQF;2009-07-14 16:10;CYQF 141610Z 34015G20KT 15SM -SHRA BKN017 OVC025 RMK SC6SC2

CYQF;2009-07-14 16:33;CYQF 141633Z 32015KT 15SM BKN012 BKN025 RMK SC6SC2 CIG RAG

CYQF;2009-07-14 17:00;CYQF 141700Z 33011G17KT 15SM BKN015 BKN025 BKN080 12/08 A3011 RMK SC5SC1AC0 CIG RAG SLP206

CYQF;2009-07-14 18:00;CYQF 141800Z 31010G15KT 15SM BKN015 BKN025 12/08 A3011 RMK SC6SC2 SLP208

CYQF;2009-07-14 19:00;CYQF 141900Z 34010KT 15SM BKN025 BKN040 13/08 A3012 RMK SC5SC2 CU ASOCTD SLP210

CYQF;2009-07-14 20:00;CYQF 142000Z 34010KT 15SM BKN025 BKN040 BKN080 14/05 A3012 RMK SC5SC2AC1 CU ASOCTD SLP209

CYQF;2009-07-14 21:00;CYQF 142100Z 34010KT 15SM BKN025 BKN080 14/06 A3011 RMK CU5AC2 SLP208

CYQF;2009-07-14 22:00;CYQF 142200Z 33010KT 15SM SCT028 SCT040 BKN080 15/07 A3010 RMK CU3SC1AC2 SLP206

CYQF;2009-07-14 23:00;CYQF 142300Z 36010G15KT 15SM SCT036 BKN080 15/07 A3010 RMK CU4AC2 SLP204

CYQF;2009-07-15 00:00;CYQF 150000Z CCA 01010KT 15SM SCT036 BKN080 BKN250 15/06 A3010 RMK CU3AC2CI0 FEW MDT CU SLP206

CYQF;2009-07-15 01:00;CYQF 150100Z 36006KT 15SM SCT030 SCT080 BKN250 15/07 A3010 RMK CU3AC1CI0 SLP206

CYQF;2009-07-15 02:00;CYQF 150200Z 01006KT 15SM FEW030 SCT080 BKN250 14/06 A3011 RMK CU2AC2CI1 SLP209

CYQF;2009-07-15 03:00;CYQF 150300Z 02005KT 15SM FEW030 FEW080 SCT250 13/07 A3012 RMK SC1AC1CI0 SLP214

CYQF;2009-07-15 04:00;CYQF 150400Z 02003KT 15SM FEW080 SCT250 11/06 A3012 RMK AC1CI1 SLP215

CYQF;2009-07-15 05:00;CYQF 150500Z 18002KT 15SM FEW080 SCT250 09/07 A3013 RMK AC1CI1 SLP218

CYQF;2009-07-15 06:00;CYQF 150600Z 20003KT 15SM FEW080 SCT250 07/05 A3013 RMK AC2CI1 SLP223

CYQF;2009-07-15 07:00;CYQF 150700Z 00000KT 15SM FEW080 SCT250 07/06 A3012 RMK AC2CI1 SLP220

CYQF;2009-07-15 08:00;CYQF 150800Z 21004KT 15SM SCT080 BKN250 05/04 A3012 RMK AC3CI1 SLP220

CYQF;2009-07-15 09:00;CYQF 150900Z 00000KT 15SM FEW040 FEW080 07/06 A3011 RMK SC1AC2 SLP216

CYQF;2009-07-15 10:00;CYQF 151000Z 18002KT 15SM FEW030 FEW080 06/05 A3011 RMK SC1AC1 OBS TAKEN +20 SLP214

CYQF;2009-07-15 11:00;CYQF 151100Z 17003KT 15SM FEW080 FEW250 05/04 A3010 RMK AC1CI0 BCFG SLP213

CYQF;2009-07-15 12:00;CYQF 151200Z 00000KT 15SM FEW080 FEW250 05/05 A3010 RMK AC1CI0 BCFG SLP210

CYQF;2009-07-15 13:00;CYQF 151300Z 21002KT 15SM FEW080 07/05 A3010 RMK AC1 SLP210

CYQF;2009-07-15 14:00;CYQF 151400Z 00000KT 15SM FEW080 10/07 A3010 RMK AC1 SLP210

CYQF;2009-07-15 15:00;CYQF 151500Z 18004KT 15SM FEW080 SCT250 14/08 A3010 RMK AC2CI2 SLP204

CYQF;2009-07-15 16:00;CYQF 151600Z 16010KT 15SM FEW080 BKN250 15/08 A3009 RMK AC1CI2 SLP202

CYQF;2009-07-15 17:00;CYQF 151700Z 21005KT 15SM FEW032 SCT250 17/09 A3009 RMK CU2CI1 SLP201

CYQF;2009-07-15 18:00;CYQF 151800Z 23004KT 15SM FEW040 SCT250 18/08 A3008 RMK CU1CI0 SLP200

CYQF;2009-07-15 19:00;CYQF 151900Z 15004KT 15SM FEW040 SCT250 19/08 A3008 RMK CU2CI0 SLP198

CYQF;2009-07-15 20:00;CYQF 152000Z 00000KT 15SM FEW040 SCT080 19/07 A3007 RMK CU2AC1 SLP197

CYQF;2009-07-15 21:00;CYQF 152100Z 35002KT 15SM FEW050 SCT090 21/06 A3007 RMK CU2AC1 SLP193

CYQF;2009-07-15 22:00;CYQF 152200Z 00000KT 15SM SCT050 SCT090 21/06 A3006 RMK CU3AC1 SLP191

CYQF;2009-07-15 23:00;CYQF 152300Z 00000KT 15SM FEW050 FEW100 FEW250 22/08 A3006 RMK CU1AC1CI0 AC TR SLP191

CYQF;2009-07-16 00:00;CYQF 160000Z 00000KT 15SM FEW050 FEW100 FEW250 22/08 A3006 RMK CU1AC1CI1 TR AC SLP192

CYQF;2009-07-16 01:00;CYQF 160100Z 00000KT 15SM FEW050 FEW100 SCT250 22/08 A3006 RMK CF1AC1CI1 CF/AC TR SLP192

CYQF;2009-07-16 02:00;CYQF 160200Z 14003KT 15SM FEW050 FEW100 SCT250 21/08 A3006 RMK CF1AC1CI1 TR CF/AC SLP192

CYQF;2009-07-16 03:00;CYQF 160300Z 15004KT 15SM BKN250 19/09 A3007 RMK CI0 SLP187

CYQF;2009-07-16 04:00;CYQF 160400Z 15003KT 15SM FEW100 SCT250 17/10 A3008 RMK AC1CI0 SLP189

CYQF;2009-07-16 05:00;CYQF 160500Z 16004KT 15SM FEW100 FEW250 14/09 A3008 RMK AC1CI0 SLP191

CYQF;2009-07-16 06:00;CYQF 160600Z 19003KT 15SM SKC 11/07 A3008 RMK SLP196

CYQF;2009-07-16 07:00;CYQF 160700Z 20004KT 15SM SKC 10/07 A3008 RMK OBS TAKEN +10 SLP196

CYQF;2009-07-16 08:00;CYQF 160800Z 18003KT 15SM SKC 10/07 A3008 RMK SLP196

CYQF;2009-07-16 09:00;CYQF 160900Z 18003KT 15SM SCT100 11/08 A3008 RMK AC3 SLP191

CYQF;2009-07-16 10:00;CYQF 161000Z 16002KT 15SM FEW100 11/08 A3007 RMK AC2 SLP190

CYQF;2009-07-16 11:00;CYQF 161100Z 17003KT 15SM FEW100 SCT250 10/08 A3007 RMK AC1CI1 SLP190

CYQF;2009-07-16 12:00;CYQF 161200Z 22004KT 15SM FEW100 BKN250 08/07 A3009 RMK AC1CI2 SLP196

CYQF;2009-07-16 13:00;CYQF 161300Z 00000KT 15SM FEW060 BKN250 10/08 A3009 RMK SC1CI2 SLP197

CYQF;2009-07-16 14:00;CYQF 161400Z 21004KT 15SM FEW060 BKN250 12/10 A3009 RMK SC1CI2 SLP198

CYQF;2009-07-16 15:00;CYQF 161500Z 19006KT 15SM FEW060 BKN250 15/11 A3010 RMK SC1CI2 SLP197

CYQF;2009-07-16 16:00;CYQF 161600Z 21002KT 15SM FEW060 BKN250 17/11 A3010 RMK SC2CI2 SLP196

CYQF;2009-07-16 17:00;CYQF 161700Z 15002KT 15SM FEW040 FEW100 SCT250 20/11 A3009 RMK CU1AC1CI1 SLP194

CYQF;2009-07-16 18:00;CYQF 161800Z 00000KT 15SM FEW040 FEW100 BKN250 23/12 A3009 RMK CU1AC1CI1 SLP194

CYQF;2009-07-16 19:00;CYQF 161900Z 21003KT 15SM FEW050TCU FEW100 BKN250 25/12 A3009 RMK TCU2AC1CI0 SLP193

CYQF;2009-07-16 20:00;CYQF 162000Z 23003KT 15SM FEW060TCU FEW100 BKN250 25/10 A3009 RMK TCU2AC1CI0 SLP192

CYQF;2009-07-16 21:00;CYQF 162100Z 24002KT 15SM FEW060CB SCT100 BKN250 25/08 A3009 RMK CB2AC1CI1 CB SW SLP189

CYQF;2009-07-16 22:00;CYQF 162200Z 18003KT 15SM FEW060CB SCT100 BKN250 26/08 A3009 RMK CB2AC1CI2 SLP191

CYQF;2009-07-16 23:00;CYQF 162300Z 21008KT 15SM FEW060TCU SCT100 BKN250 25/11 A3008 RMK TCU2AC1CI1 CB ASOCTD SLP188

CYQF;2009-07-17 00:00;CYQF 170000Z 22003KT 15SM VCSH SCT060CB BKN100 BKN250 25/12 A3009 RMK CB4AC1CI1 CB OCNL LTG N SLP196

CYQF;2009-07-17 01:00;CYQF 170100Z 34003KT 15SM FEW060 SCT100 BKN250 22/13 A3009 RMK SC2AC1CI2 SLP196

CYQF;2009-07-17 02:00;CYQF 170200Z 06003KT 15SM FEW060CB SCT100 BKN250 23/12 A3010 RMK CB2AC2CI0 OBS TAKEN -02 SLP197

CYQF;2009-07-17 03:00;CYQF 170300Z CCB 35005KT 15SM VCSH FEW010 BKN050CB BKN250 21/14 A3012 RMK SF1CB6CI0 OCNL LTNG W OBS TAKEN +12 SLP202

CYQF;2009-07-17 03:22;CYQF 170322Z 33015G28KT 15SM TS VCSH FEW010 BKN040CB BKN250 RMK SF1CB6CI0

CYQF;2009-07-17 03:32;CYQF 170332Z 33020G30KT 8SM TSRA FEW010 BKN030CB OVC250 RMK SF1CB6CI1 OCNL LTNG

CYQF;2009-07-17 03:39;CYQF 170339Z 33010KT 12SM -TSRA FEW010 BKN030CB OVC250 RMK SF1CB6CI1 RERA

CYQF;2009-07-17 04:00;CYQF 170400Z 03015G20KT 12SM -SHRA BKN030CB BKN100 BKN250 18/11 A3015 RMK CB6AC2CI1 WND SHFT RETS RERA SLP212

CYQF;2009-07-17 04:10;CYQF 170410Z 06010G15KT 15SM BKN030CB BKN100 BKN250 RMK CB5AC2CI0

CYQF;2009-07-17 05:00;CYQF 170500Z 06003KT 15SM FEW020CB FEW100 16/11 A3015 RMK CB2AC1 LTNG S AND NW SLP209

CYQF;2009-07-17 05:46;CYQF 170546Z 33008KT 15SM TS FEW020CB BKN100 RMK CB2AC4

CYQF;2009-07-17 06:00;CYQF 170600Z 33010KT 15SM TS FEW020CB BKN100 15/11 A3017 RMK CB2AC4 OCNL LTNG NW-NE SLP216

CYQF;2009-07-17 06:15;CYQF 170615Z 35004KT 15SM TSRA FEW020CB BKN100 RMK CB2AC4

CYQF;2009-07-17 06:48;CYQF 170648Z 07006KT 15SM FEW020CB BKN080 RETSRA RMK CB2AC5

CYQF;2009-07-17 07:00;CYQF 170700Z 00000KT 15SM FEW020CB BKN080 16/12 A3017 RETSRA RMK CB2AC4 SLP217

CYQF;2009-07-17 07:19;CYQF 170719Z 17005KT 15SM TS FEW010CB BKN080 RMK CB2AC3

CYQF;2009-07-17 08:00;CYQF 170800Z 26005KT 15SM SCT080 13/11 A3019 RETS RMK AC3 SLP221

CYQF;2009-07-17 09:00;CYQF 170900Z 23005KT 15SM SCT080 13/11 A3019 RMK AC3 SLP223

CYQF;2009-07-17 10:00;CYQF 171000Z 00000KT 15SM BKN080 12/11 A3020 RMK AC5 SLP226

CYQF;2009-07-17 11:00;CYQF 171100Z 00000KT 15SM SCT080 SCT250 11/10 A3020 RMK AC3CI0 SLP227

CYQF;2009-07-17 12:00;CYQF 171200Z 00000KT 15SM FEW080 BKN250 10/09 A3022 RMK AC2CI1 SLP236

CYQF;2009-07-17 13:00;CYQF 171300Z 19004KT 15SM FEW080 BKN250 10/09 A3023 RMK AC1CI1 SLP240

CYQF;2009-07-17 14:00;CYQF 171400Z 21003KT 15SM FEW090 BKN250 13/11 A3023 RMK AC1CI2 SLP241

CYQF;2009-07-17 15:00;CYQF 171500Z 00000KT 15SM FEW090 BKN260 17/14 A3024 RMK AC1CI2 SLP240

CYQF;2009-07-17 16:00;CYQF 171600Z 27004KT 15SM FEW090 BKN270 20/13 A3025 RMK AC1CI3 SLP242

CYQF;2009-07-17 17:00;CYQF 171700Z 03003KT 15SM FEW030 FEW080 BKN270 21/14 A3023 RMK CU1AC1CI3 TR CU/AC ACC ASOCTD SLP238

CYQF;2009-07-17 18:00;CYQF 171800Z 17004KT 15SM FEW040 BKN270 23/12 A3022 RMK CU1CI2 TCU SW SLP234

CYQF;2009-07-17 19:00;CYQF 171900Z 17005KT 15SM FEW040TCU SCT270 24/11 A3021 RMK TCU1CI1 SLP231

CYQF;2009-07-17 20:00;CYQF 172000Z 11005KT 15SM FEW050TCU FEW270 24/12 A3020 RMK TCU1CI0 SLP226

CYQF;2009-07-17 21:00;CYQF 172100Z 17008KT 15SM FEW050TCU 26/13 A3018 RMK TCU2 CB TP DIST W SLP219

CYQF;2009-07-17 22:00;CYQF 172200Z 18004KT 15SM FEW050CB SCT250 27/14 A3017 RMK CB1CI2 CI FM CBS DIST SW SLP215

CYQF;2009-07-17 23:00;CYQF 172300Z 16010KT 15SM FEW050CB SCT250 27/13 A3016 RMK CB1CI2 CB SW SLP212

CYQF;2009-07-18 00:00;CYQF 180000Z 17008KT 15SM FEW050CB BKN260 27/12 A3015 RMK CB2CI1 CB SW SLP210

CYQF;2009-07-18 01:00;CYQF 180100Z 11007KT 15SM FEW050CB BKN260 26/13 A3014 RMK CB2CI1 CB SW SLP206

CYQF;2009-07-18 02:00;CYQF 180200Z 13007KT 15SM BKN250 24/14 A3012 RMK CI2 SLP201

CYQF;2009-07-18 03:00;CYQF 180300Z 13005KT 15SM BKN250 22/14 A3012 RMK CI3 SLP196

CYQF;2009-07-18 04:00;CYQF 180400Z CCA 13004KT 15SM FEW070 BKN130 BKN250 21/14 A3013 RMK AC1AC5CI0 VIRGA CB DIST W-NW SLP201

CYQF;2009-07-18 05:00;CYQF 180500Z 13006KT 15SM FEW100 FEW250 19/14 A3012 RMK AC1CI1 AC TR SLP196

CYQF;2009-07-18 06:00;CYQF 180600Z 16003KT 15SM FEW100 FEW250 18/13 A3010 RMK AC1CI1 SLP191

CYQF;2009-07-18 07:00;CYQF 180700Z 17005KT 15SM SKC 17/12 A3009 RMK SLP188

CYQF;2009-07-18 08:00;CYQF 180800Z 18005KT 15SM SKC 18/12 A3008 RMK SLP183

CYQF;2009-07-18 09:00;CYQF 180900Z 17007KT 15SM FEW100 17/12 A3006 RMK AC2 SLP172

CYQF;2009-07-18 10:00;CYQF 181000Z 18007KT 15SM SCT120 BKN250 17/12 A3005 RMK AC3CI0 SLP168

CYQF;2009-07-18 11:00;CYQF 181100Z 20005KT 15SM SCT100 BKN250 16/12 A3004 RMK AC4CI1 SLP165

CYQF;2009-07-18 12:00;CYQF 181200Z 18004KT 15SM SCT100 BKN250 14/12 A3002 RMK AC4CI1 SLP162

CYQF;2009-07-18 13:00;CYQF 181300Z 18005KT 15SM FEW030 BKN100 BKN250 15/13 A3002 RMK CU1AC4CI1 SLP161

CYQF;2009-07-18 14:00;CYQF 181400Z 19003KT 15SM FEW030 BKN120 17/13 A3001 RMK CU1AC5 SLP158

CYQF;2009-07-18 15:00;CYQF 181500Z 21005KT 15SM FEW030 BKN120 19/14 A3000 RMK CU1AC4 SLP155

CYQF;2009-07-18 16:00;CYQF 181600Z 36007KT 15SM FEW040 BKN120 BKN260 20/13 A3000 RMK CU1AC5CI0 SLP155

CYQF;2009-07-18 17:00;CYQF 181700Z 00000KT 15SM FEW040 SCT120 BKN270 22/13 A2999 RMK CU1AC2CI1 SLP151

CYQF;2009-07-18 18:00;CYQF 181800Z 00000KT 15SM FEW040 FEW120 BKN270 23/14 A2998 RMK CU1AC2CI2 SLP147

CYQF;2009-07-18 19:00;CYQF 181900Z 00000KT 15SM FEW040 FEW120 BKN270 24/14 A2996 RMK CU1AC1CI4 SLP142

CYQF;2009-07-18 20:00;CYQF 182000Z 00000KT 15SM FEW040 BKN270 25/14 A2994 RMK CU1CI2 SLP135

CYQF;2009-07-18 21:00;CYQF 182100Z 03006KT 15SM FEW040TCU BKN270 26/16 A2991 RMK TCU1CI4 SLP119

CYQF;2009-07-18 22:00;CYQF 182200Z 13008KT 15SM FEW055TCU BKN250 28/15 A2987 RMK TCU1CI4 SLP108

CYQF;2009-07-18 23:00;CYQF 182300Z 15010KT 15SM FEW060TCU SCT250 29/12 A2984 RMK TCU1CI2 SLP098

CYQF;2009-07-19 00:00;CYQF 190000Z 15012G18KT 15SM FEW060TCU SCT250 29/09 A2980 RMK TCU1CI1 SLP083

CYQF;2009-07-19 01:00;CYQF 190100Z 14010G15KT 15SM FEW065CB FEW250 28/12 A2976 RMK CB1CI1 SLP071

CYQF;2009-07-19 02:00;CYQF 190200Z 15012KT 15SM FEW055 FEW250 27/13 A2974 RMK CU2CI1 SLP064

CYQF;2009-07-19 03:00;CYQF 190300Z 20004KT 15SM FEW032 SCT060 22/14 A2973 RMK CU2SC0 SLP062

CYQF;2009-07-19 04:00;CYQF 190400Z 28015G20KT 15SM BKN060TCU BKN080 25/08 A2976 RMK TCU5AC2 SLP072

CYQF;2009-07-19 05:00;CYQF 190500Z 28010G15KT 15SM SCT070CB BKN100 24/05 A2978 RMK CB3AC2 LTNG N SLP077

CYQF;2009-07-19 06:00;CYQF 190600Z 36010KT 15SM FEW070 SCT100 17/10 A2982 RMK AC2AC1 OCNL LTNG DIST N SLP092

CYQF;2009-07-19 07:00;CYQF 190700Z 00000KT 15SM FEW100 16/10 A2982 RMK AC2 SLP093

CYQF;2009-07-19 08:00;CYQF 190800Z 31008KT 15SM FEW100 14/10 A2985 RMK AC2 SLP103

CYQF;2009-07-19 09:00;CYQF 190900Z 34011KT 15SM FEW100 14/10 A2991 RMK AC2 SLP123

CYQF;2009-07-19 10:00;CYQF 191000Z 33010G15KT 15SM FEW070 SCT100 13/09 A2992 RMK AC2AC1 SLP128

CYQF;2009-07-19 11:00;CYQF 191100Z 33005KT 15SM FEW070 SCT100 12/09 A2994 RMK AC2AC1 OBS TAKEN +05 SLP132

CYQF;2009-07-19 12:00;CYQF 191200Z 30005KT 15SM FEW040 SCT070 11/08 A2994 RMK SC2AC1 SLP135

CYQF;2009-07-19 13:00;CYQF 191300Z 25004KT 15SM FEW040 11/08 A2996 RMK SC2 SLP141

CYQF;2009-07-19 14:00;CYQF 191400Z 22004KT 15SM FEW070 FEW240 13/09 A2997 RMK ACC2CI1 SLP144

CYQF;2009-07-19 15:00;CYQF 191500Z 25007KT 15SM FEW070 FEW240 15/10 A2996 RMK ACC1CI1 SLP146

CYQF;2009-07-19 16:00;CYQF 191600Z 32007KT 15SM FEW040 FEW080 SCT250 16/08 A2997 RMK CU1AC2CI1 SLP148

CYQF;2009-07-19 17:00;CYQF 191700Z 30007KT 15SM FEW040 FEW250 17/09 A2996 RMK CU1CI2 SLP146

CYQF;2009-07-19 18:00;CYQF 191800Z 33010G15KT 15SM FEW050CB FEW250 19/06 A2995 RMK CB1CI1 CB TOP WSW SLP144

CYQF;2009-07-19 19:00;CYQF 191900Z 33010KT 15SM FEW040CB SCT050 SCT250 20/06 A2995 RMK CB1CU3CI1 CB SH DIST SW SLP144

CYQF;2009-07-19 20:00;CYQF 192000Z 33010KT 15SM FEW050CB SCT250 21/06 A2995 RMK CB2CI1 CB SH S QUAD SLP144

CYQF;2009-07-19 21:00;CYQF 192100Z 32010G15KT 15SM FEW040 FEW050 SCT250 22/05 A2995 RMK CU1CU2CI1 CB SH SE SLP143

CYQF;2009-07-19 22:00;CYQF 192200Z 32010G15KT 15SM FEW070 FEW100 SCT250 22/05 A2996 RMK CU2AC1CI1 SLP145

CYQF;2009-07-19 23:00;CYQF 192300Z 33010G16KT 15SM FEW070 FEW090 BKN250 20/07 A2999 RMK CU2AC1CI2 TCU ASOCTD SLP154

CYQF;2009-07-20 00:00;CYQF 200000Z 34010G16KT 15SM FEW070 FEW090 BKN250 19/06 A2999 RMK CU1AC1CI2 SLP163

CYQF;2009-07-20 01:00;CYQF 200100Z 34015G22KT 15SM FEW055 SCT090 BKN250 20/06 A2999 RMK CU2AC2CI1 SLP162

CYQF;2009-07-20 02:00;CYQF 200200Z 35010G15KT 15SM FEW045 FEW090 BKN250 18/07 A3001 RMK CU1AC1CI2 SLP168

CYQF;2009-07-20 03:00;CYQF 200300Z 35005KT 15SM FEW040 FEW090 BKN250 17/07 A3003 RMK CU1AC1CI1 TCU ASOCTD SLP174

CYQF;2009-07-20 04:00;CYQF 200400Z 35006KT 15SM FEW040 FEW090 SCT250 15/07 A3005 RMK CU1AC1CI0 SLP180

CYQF;2009-07-20 05:00;CYQF 200500Z 33005KT 15SM FEW090 SCT250 12/07 A3006 RMK AC1CI1 SLP184

CYQF;2009-07-20 06:00;CYQF 200600Z 32005KT 15SM FEW090 SCT250 13/07 A3009 RMK AC2CI1 SLP195

CYQF;2009-07-20 07:00;CYQF 200700Z CCA 26004KT 15SM FEW090 11/07 A3010 RMK AC2 SLP198

CYQF;2009-07-20 08:00;CYQF 200800Z 27003KT 15SM FEW090 09/06 A3011 RMK AC2 SLP200

CYQF;2009-07-20 09:00;CYQF 200900Z 29004KT 15SM FEW090 SCT250 10/07 A3011 RMK AC2CI1 SLP203

CYQF;2009-07-20 10:00;CYQF 201000Z 27004KT 15SM SCT090 BKN250 10/07 A3012 RMK AC4CI1 SLP205

CYQF;2009-07-20 11:00;CYQF 201100Z 24003KT 15SM SCT090 BKN250 10/07 A3013 RMK AC4CI2 SLP208

CYQF;2009-07-20 12:00;CYQF 201200Z 28005KT 15SM SCT090 10/07 A3014 RMK AC3 SLP215

CYQF;2009-07-20 13:00;CYQF 201300Z 30005KT 15SM SCT090 12/06 A3015 RMK AC4 SLP218

CYQF;2009-07-20 14:00;CYQF 201400Z 30005KT 15SM FEW030 SCT090 14/07 A3015 RMK CU1AC4 SLP220

CYQF;2009-07-20 15:00;CYQF 201500Z 33010KT 15SM FEW030 SCT090 16/08 A3015 RMK CU1AC3 SLP217

CYQF;2009-07-20 16:00;CYQF 201600Z 33010G15KT 15SM FEW035 18/09 A3016 RMK CU1 SLP218

CYQF;2009-07-20 17:00;CYQF 201700Z 31008KT 15SM FEW040 FEW090 FEW250 18/09 A3016 RMK CU1AC1CI1 SLP218

CYQF;2009-07-20 18:00;CYQF 201800Z 33012KT 15SM FEW040 FEW090 FEW250 19/09 A3015 RMK CU1AC1CI1 SLP216

CYQF;2009-07-20 19:00;CYQF 201900Z 32011G17KT 15SM SCT045 20/04 A3015 RMK CU3 SLP214

CYQF;2009-07-20 20:00;CYQF 202000Z 30010G15KT 15SM SCT050 21/09 A3014 RMK CU3 SLP213

CYQF;2009-07-20 21:00;CYQF 202100Z 33012KT 15SM SCT050 22/06 A3014 RMK CU3 SLP214

CYQF;2009-07-20 22:00;CYQF 202200Z 33010KT 15SM FEW050 22/09 A3013 RMK CU2 SLP211

CYQF;2009-07-20 23:00;CYQF 202300Z 33010G15KT 15SM FEW050 22/08 A3012 RMK CU2 SLP207

CYQF;2009-07-21 00:00;CYQF 210000Z 35008KT 15SM FEW050 22/09 A3011 RMK CU2 SLP203

CYQF;2009-07-21 01:00;CYQF 210100Z 03006KT 15SM FEW050 22/09 A3012 RMK CU1 SLP204

CYQF;2009-07-21 02:00;CYQF 210200Z 34004KT 15SM FEW050 FEW100 21/09 A3012 RMK CU1AC1 SLP205

CYQF;2009-07-21 03:00;CYQF 210300Z 00000KT 15SM FEW100 20/09 A3013 RMK AC1 SLP203

CYQF;2009-07-21 04:00;CYQF 210400Z 00000KT 15SM FEW100 17/10 A3013 RMK AC1 SLP205

CYQF;2009-07-21 05:00;CYQF 210500Z 00000KT 15SM FEW100 14/10 A3014 RMK AC1 SLP207

CYQF;2009-07-21 06:00;CYQF 210600Z 00000KT 15SM SKC 11/08 A3014 RMK SLP213

CYQF;2009-07-21 07:00;CYQF 210700Z 00000KT 15SM SKC 11/08 A3013 RMK SLP211

CYQF;2009-07-21 08:00;CYQF 210800Z 00000KT 15SM SKC 09/07 A3013 RMK SLP209

CYQF;2009-07-21 09:00;CYQF 210900Z 20005KT 15SM SKC 08/07 A3012 RMK SLP209

CYQF;2009-07-21 10:00;CYQF 211000Z 18003KT 15SM FEW090 09/07 A3012 RMK AC1 SLP207

CYQF;2009-07-21 11:00;CYQF 211100Z 00000KT 15SM FEW090 09/07 A3011 RMK AC1 SLP204

CYQF;2009-07-21 12:00;CYQF 211200Z 00000KT 15SM FEW090 07/06 A3010 RMK AC1 SLP201

CYQF;2009-07-21 13:00;CYQF 211300Z 00000KT 15SM FEW090 FEW250 09/07 A3010 RMK AC1CI0 SLP200

CYQF;2009-07-21 14:00;CYQF 211400Z 00000KT 15SM FEW250 14/09 A3009 RMK CI1 SLP199

CYQF;2009-07-21 15:00;CYQF 211500Z 16003KT 15SM BKN250 17/10 A3009 RMK CI2 SLP188

CYQF;2009-07-21 16:00;CYQF 211600Z 19003KT 15SM BKN250 19/12 A3008 RMK CI2 SLP185

CYQF;2009-07-21 17:00;CYQF 211700Z 20008KT 15SM SCT250 22/10 A3006 RMK CI2 SLP180

CYQF;2009-07-21 18:00;CYQF 211800Z 18007KT 15SM FEW050 SCT250 23/10 A3005 RMK CU1CI1 SLP179

CYQF;2009-07-21 19:00;CYQF 211900Z 22008KT 15SM FEW050 FEW250 24/11 A3004 RMK CU1CI1 SLP176

CYQF;2009-07-21 20:00;CYQF 212000Z 16005KT 15SM FEW055 SCT250 25/10 A3003 RMK CU2CI1 SLP172

CYQF;2009-07-21 21:00;CYQF 212100Z 23005KT 15SM FEW060 SCT250 26/08 A3001 RMK CU2CI0 SLP166

CYQF;2009-07-21 22:00;CYQF 212200Z 17003KT 15SM FEW060 SCT250 26/08 A3000 RMK CU2CI1 SLP162

CYQF;2009-07-21 23:00;CYQF 212300Z 00000KT 15SM FEW060 SCT250 26/08 A2999 RMK CU1CI2 SLP160

CYQF;2009-07-22 00:00;CYQF 220000Z 00000KT 15SM FEW070 BKN250 26/08 A2998 RMK CU1CI2 SLP155

CYQF;2009-07-22 01:00;CYQF 220100Z 00000KT 15SM BKN250 26/08 A2997 RMK CI1 OBS TAKEN -03 SLP154

CYQF;2009-07-22 02:00;CYQF 220200Z 15002KT 15SM SCT250 26/08 A2997 RMK CI1 SLP153

CYQF;2009-07-22 03:00;CYQF 220300Z 00000KT 15SM FEW120 FEW260 24/10 A2997 RMK AC1CI1 SLP145

CYQF;2009-07-22 04:00;CYQF 220400Z 00000KT 15SM FEW120 SCT260 19/12 A2998 RMK AC1CI1 SLP146

CYQF;2009-07-22 05:00;CYQF 220500Z 00000KT 15SM FEW260 15/10 A2997 RMK CI1 SLP145

CYQF;2009-07-22 06:00;CYQF 220600Z 19004KT 15SM FEW260 13/10 A2998 RMK CI1 SLP153

CYQF;2009-07-22 07:00;CYQF 220700Z 09003KT 15SM FEW080 SCT260 13/09 A2998 RMK AC2CI1 SLP152

CYQF;2009-07-22 08:00;CYQF 220800Z 21003KT 15SM FEW080 SCT260 12/08 A2997 RMK AC2CI1 OBS TAKEN +10 SLP150

CYQF;2009-07-22 09:00;CYQF 220900Z 19004KT 15SM FEW080 SCT260 11/08 A2996 RMK AC2CI1 SLP145

CYQF;2009-07-22 10:00;CYQF 221000Z 20004KT 15SM FEW080 FEW260 10/07 A2995 RMK AC1CI1 OBS TAKEN +7 SLP143

CYQF;2009-07-22 11:00;CYQF 221100Z 18004KT 15SM FEW080 SCT260 11/09 A2995 RMK AC1CI1 SLP142

CYQF;2009-07-22 12:00;CYQF 221200Z 21005KT 15SM FEW260 10/08 A2995 RMK CI1 SLP141

CYQF;2009-07-22 13:00;CYQF 221300Z 20005KT 15SM FEW250 12/09 A2994 RMK CI1 SLP139

CYQF;2009-07-22 14:00;CYQF 221400Z 21005KT 15SM FEW080 FEW260 15/11 A2994 RMK AC1CI1 SLP139

CYQF;2009-07-22 15:00;CYQF 221500Z 21005KT 15SM FEW070 FEW260 18/12 A2994 RMK AC1CI1 SLP132

CYQF;2009-07-22 16:00;CYQF 221600Z 23004KT 15SM FEW070 FEW260 21/13 A2993 RMK AC1CI0 SLP130

CYQF;2009-07-22 17:00;CYQF 221700Z 00000KT 15SM FEW050 FEW260 23/12 A2993 RMK CU1CI1 TR CU SLP129

CYQF;2009-07-22 18:00;CYQF 221800Z 35003KT 15SM FEW060 FEW260 25/13 A2992 RMK CU1CI1 SLP130

CYQF;2009-07-22 19:00;CYQF 221900Z 00000KT 15SM FEW060 FEW260 27/13 A2991 RMK CU1CI1 SLP126

CYQF;2009-07-22 20:00;CYQF 222000Z 15004KT 15SM FEW060 FEW260 29/10 A2989 RMK CU1CI1 SLP122

CYQF;2009-07-22 21:00;CYQF 222100Z 00000KT 15SM FEW060 SCT270 30/08 A2988 RMK CU1CI1 SLP112

CYQF;2009-07-22 22:00;CYQF 222200Z 00000KT 15SM FEW060 SCT270 30/08 A2987 RMK CU1CI1 SLP109

CYQF;2009-07-22 23:00;CYQF 222300Z 12002KT 15SM FEW060 BKN280 30/09 A2985 RMK CU1CI1 SLP104

CYQF;2009-07-23 00:00;CYQF 230000Z 12004KT 15SM FEW080 SCT280 31/09 A2985 RMK CU2CI1 SLP101

CYQF;2009-07-23 01:00;CYQF 230100Z 12003KT 15SM FEW100 BKN280 30/09 A2984 RMK AC1CI2 SLP099

CYQF;2009-07-23 02:00;CYQF 230200Z 06003KT 15SM FEW100 BKN280 29/12 A2984 RMK AC1CI2 SLP099

CYQF;2009-07-23 03:00;CYQF 230300Z 05005KT 15SM FEW100 BKN280 25/14 A2985 RMK AC2CI1 SLP103

CYQF;2009-07-23 04:00;CYQF 230400Z 05005KT 15SM FEW100 SCT280 23/13 A2988 RMK AC2CI1 SLP110

CYQF;2009-07-23 05:00;CYQF 230500Z 02008KT 15SM FEW100 SCT250 21/11 A2989 RMK AC2CI1 SLP115

CYQF;2009-07-23 06:00;CYQF 230600Z 34010KT 15SM FEW100 SCT250 20/11 A2992 RMK AC2CI1 SLP121

CYQF;2009-07-23 07:00;CYQF 230700Z 04006KT 15SM FEW100 SCT250 21/12 A2993 RMK AC2CI1 SLP124

CYQF;2009-07-23 08:00;CYQF 230800Z 32005KT 15SM FEW100 SCT250 18/13 A2994 RMK AC2CI1 SLP128

CYQF;2009-07-23 09:00;CYQF 230900Z 33005KT 15SM FEW100 SCT250 16/13 A2996 RMK AC2CI1 SLP135

CYQF;2009-07-23 10:00;CYQF 231000Z 00000KT 15SM FEW100 SCT250 16/13 A2997 RMK AC2CI0 SLP140

CYQF;2009-07-23 11:00;CYQF 231100Z 00000KT 15SM FEW100 SCT250 15/13 A2998 RMK AC2CI0 SLP141

CYQF;2009-07-23 12:00;CYQF 231200Z 19003KT 15SM FEW090 SCT250 14/12 A2999 RMK AC2CI1 SLP148

CYQF;2009-07-23 13:00;CYQF 231300Z 00000KT 15SM FEW090 SCT250 13/11 A3000 RMK AC2CI1 SLP151

CYQF;2009-07-23 14:00;CYQF 231400Z 22003KT 15SM FEW090 SCT250 16/14 A3002 RMK AC1CI0 SLP156

CYQF;2009-07-23 15:00;CYQF 231500Z 25003KT 12SM FEW090 SCT250 19/15 A3002 RMK AC1CI0 FU SLP159

CYQF;2009-07-23 16:00;CYQF 231600Z 20003KT 15SM FEW100 SCT250 21/14 A3002 RMK AC1CI2 HZ SLP158

CYQF;2009-07-23 17:00;CYQF 231700Z 17005KT 15SM SCT250 23/15 A3002 RMK CI1 SLP157

CYQF;2009-07-23 18:00;CYQF 231800Z 14003KT 15SM FEW045 FEW250 24/13 A3001 RMK CU1CI1 SLP155

CYQF;2009-07-23 19:00;CYQF 231900Z 07003KT 15SM FEW060 26/10 A3001 RMK CU1 SLP153

CYQF;2009-07-23 20:00;CYQF 232000Z 00000KT 15SM FEW065 26/12 A2999 RMK CU1 SLP149

CYQF;2009-07-23 21:00;CYQF 232100Z 15007KT 15SM FEW065CB FEW270 27/12 A2997 RMK CB1CI1 SLP143

CYQF;2009-07-23 22:00;CYQF 232200Z 22003KT 15SM FEW060CB 27/12 A2996 RMK CB1 CB W SLP140

CYQF;2009-07-23 23:00;CYQF 232300Z 26003KT 15SM FEW060 FEW270 28/13 A2995 RMK CU1CI0 SLP136

CYQF;2009-07-24 00:00;CYQF 240000Z 34005KT 15SM FEW060 FEW120 SCT280 28/13 A2995 RMK CU1AC1CI1 CC ASOCTD SLP138

CYQF;2009-07-24 01:00;CYQF 240100Z 00000KT 15SM FEW060 FEW120 SCT280 27/13 A2995 RMK CU1AC1CI1 SLP138

CYQF;2009-07-24 02:00;CYQF 240200Z 00000KT 15SM FEW050 SCT120 BKN270 26/14 A2996 RMK CU1AC2CI1 SLP140

CYQF;2009-07-24 03:00;CYQF 240300Z 00000KT 15SM FEW120 SCT250 25/15 A2997 RMK AC2CI1 SLP141

CYQF;2009-07-24 04:00;CYQF 240400Z 00000KT 15SM FEW120 FEW250 22/15 A2997 RMK AC1CI0 SLP142

CYQF;2009-07-24 05:00;CYQF 240500Z 00000KT 15SM FEW250 19/15 A2998 RMK CI1 SLP143

CYQF;2009-07-24 06:00;CYQF 240600Z 00000KT 15SM SKC 17/13 A2998 RMK SLP149

CYQF;2009-07-24 07:00;CYQF 240700Z 20002KT 15SM FEW100 14/12 A2998 RMK AC2 SLP149

CYQF;2009-07-24 08:00;CYQF 240800Z 00000KT 15SM SCT100 15/12 A3000 RMK AC3 SLP155

CYQF;2009-07-24 09:00;CYQF 240900Z 00000KT 15SM SCT100 14/12 A3000 RMK AC3 SLP154

CYQF;2009-07-24 10:00;CYQF 241000Z 00000KT 15SM SCT100 15/12 A3000 RMK AC4 SLP153

CYQF;2009-07-24 11:00;CYQF 241100Z 00000KT 15SM FEW100 13/11 A3000 RMK AC2 SLP153

CYQF;2009-07-24 12:00;CYQF 241200Z 00000KT 15SM FEW100 13/11 A3001 RMK AC2 SLP159

CYQF;2009-07-24 13:00;CYQF 241300Z 00000KT 12SM BKN090 14/12 A3003 RMK AC6 HZ SLP163

CYQF;2009-07-24 14:00;CYQF 241400Z 18002KT 12SM BKN100 BKN250 16/14 A3004 RMK AC5CI2 HZ OBS TAKEN -02 SLP166

CYQF;2009-07-24 15:00;CYQF 241500Z 00000KT 10SM FEW270 18/14 A3004 RMK CI0 HZ SLP164

CYQF;2009-07-24 16:00;CYQF 241600Z 00000KT 15SM SKC 22/15 A3004 RMK HZ SLP165

CYQF;2009-07-24 17:00;CYQF 241700Z 02003KT 15SM SKC 23/14 A3004 RMK HZ OBS TAKEN -02 SLP165

CYQF;2009-07-24 18:00;CYQF 241800Z 35003KT 10SM SKC 26/15 A3003 RMK HZ SLP164

CYQF;2009-07-24 19:00;CYQF 241900Z 00000KT 10SM FEW060 28/14 A3003 RMK CU1 HZ SLP164

CYQF;2009-07-24 20:00;CYQF 242000Z 18005KT 10SM FEW060 FEW280 29/13 A3003 RMK CU1CI1 HZ SLP163

CYQF;2009-07-24 21:00;CYQF 242100Z 20006KT 10SM FEW080 FEW280 30/08 A3002 RMK CU1CI1 HZ SLP159

CYQF;2009-07-24 22:00;CYQF 242200Z 15005KT 10SM FEW090 FEW280 30/08 A3002 RMK AC1CI1 HZ SLP157

CYQF;2009-07-24 23:00;CYQF 242300Z 15005KT 10SM FEW090 FEW280 31/07 A3001 RMK CU1CI0 HZ SLP156

CYQF;2009-07-25 00:00;CYQF 250000Z 17007KT 15SM FEW090 FEW280 30/10 A3001 RMK CU1CI0 SLP156

CYQF;2009-07-25 01:00;CYQF 250100Z 19005KT 15SM FEW080 FEW280 29/11 A3001 RMK CU1CI0 SLP157

CYQF;2009-07-25 02:00;CYQF 250200Z 20003KT 15SM FEW280 28/14 A3001 RMK CI1 SLP157

CYQF;2009-07-25 03:00;CYQF 250300Z 20003KT 15SM FEW280 25/15 A3002 RMK CI1 SLP160

CYQF;2009-07-25 04:00;CYQF 250400Z 18003KT 15SM FEW080 FEW280 21/14 A3003 RMK AC1CI0 SLP163

CYQF;2009-07-25 05:00;CYQF 250500Z 20003KT 15SM FEW080 FEW280 19/13 A3005 RMK AC1CI0 SLP169

CYQF;2009-07-25 06:00;CYQF 250600Z 18003KT 15SM FEW080 FEW280 18/12 A3006 RMK AC1CI0 SLP172

CYQF;2009-07-25 07:00;CYQF 250700Z 03002KT 15SM FEW250 17/12 A3007 RMK CI1 SLP175

CYQF;2009-07-25 08:00;CYQF 250800Z 00000KT 15SM SKC 15/11 A3007 RMK SLP177

CYQF;2009-07-25 09:00;CYQF 250900Z 00000KT 15SM FEW100 14/11 A3008 RMK AC1 SLP178

CYQF;2009-07-25 10:00;CYQF 251000Z 21003KT 15SM FEW100 13/10 A3008 RMK AC1 SLP178

CYQF;2009-07-25 11:00;CYQF 251100Z 00000KT 15SM SCT100 14/11 A3009 RMK AC4 SLP183

CYQF;2009-07-25 12:00;CYQF 251200Z 33002KT 15SM BKN100 BKN250 12/10 A3010 RMK AC6CI1 SLP188

CYQF;2009-07-25 13:00;CYQF 251300Z 24005KT 15SM BKN100 BKN250 14/12 A3011 RMK AC6CI1 SLP191

CYQF;2009-07-25 14:00;CYQF 251400Z 21004KT 15SM SCT100 16/13 A3012 RMK AC4 SLP194

CYQF;2009-07-25 15:00;CYQF 251500Z 00000KT 15SM FEW100 FEW250 19/15 A3013 RMK AC1CI0 SLP197

CYQF;2009-07-25 16:00;CYQF 251600Z 00000KT 15SM FEW100 24/15 A3013 RMK AC1 SLP197

CYQF;2009-07-25 17:00;CYQF 251700Z 00000KT 15SM SKC 25/15 A3014 RMK SLP198

CYQF;2009-07-25 18:00;CYQF 251800Z 01003KT 15SM SKC 27/14 A3014 RMK SLP197

CYQF;2009-07-25 19:00;CYQF 251900Z 06004KT 15SM SKC 28/12 A3013 RMK SLP196

CYQF;2009-07-25 20:00;CYQF 252000Z 16006KT 15SM FEW070 29/12 A3012 RMK CU1 SLP192

CYQF;2009-07-25 21:00;CYQF 252100Z 07003KT 15SM FEW070 30/11 A3011 RMK CU1 SLP188

CYQF;2009-07-25 22:00;CYQF 252200Z 21003KT 15SM FEW070 31/12 A3010 RMK CU2 SLP185

CYQF;2009-07-25 23:00;CYQF 252300Z 20003KT 15SM FEW075 31/12 A3009 RMK CU2 SLP182

CYQF;2009-07-26 00:00;CYQF 260000Z 00000KT 15SM FEW070 30/12 A3008 RMK CU1 SLP179

CYQF;2009-07-26 01:00;CYQF 260100Z 21002KT 15SM FEW070 30/13 A3006 RMK CU1 SLP175

CYQF;2009-07-26 02:00;CYQF 260200Z 00000KT 15SM FEW070 29/14 A3006 RMK CU1 SLP173

CYQF;2009-07-26 03:00;CYQF 260300Z 00000KT 15SM FEW270 27/15 A3007 RMK CI1 SLP172

CYQF;2009-07-26 04:00;CYQF 260400Z 00000KT 15SM FEW270 23/15 A3008 RMK CI1 SLP177

CYQF;2009-07-26 05:00;CYQF 260500Z 00000KT 15SM FEW270 23/14 A3009 RMK CI0 SLP180

CYQF;2009-07-26 06:00;CYQF 260600Z 02004KT 15SM FEW270 19/14 A3009 RMK CI1 SLP180

CYQF;2009-07-26 07:00;CYQF 260700Z 03005KT 15SM FEW250 20/13 A3009 RMK CI1 SLP179

CYQF;2009-07-26 08:00;CYQF 260800Z 33003KT 15SM SCT250 18/13 A3009 RMK CI3 LTNG DIST W-NW SLP180

CYQF;2009-07-26 09:00;CYQF 260900Z 29005KT 15SM FEW060 SCT250 16/13 A3010 RMK CU2CI2 LTNG W-N-NE CB ASOCTD SLP182

CYQF;2009-07-26 09:46;CYQF 260946Z 22003KT 15SM TS SCT060 BKN100 RMK CU3AC3 LTGCGIC W-N-NE CB ASOCTD

CYQF;2009-07-26 09:51;CYQF 260951Z 31010G15KT 15SM TS SCT060 BKN100 RMK CU3AC3 LTNG W-N AND SE WND SHFT CB ASOCTD

CYQF;2009-07-26 10:00;CYQF 261000Z CCA 30008KT 15SM TS BKN080 BKN250 18/14 A3013 RMK ACC5CI2 LTNG W-N CB ASOCTD SLP191

CYQF;2009-07-26 10:15;CYQF 261015Z 32012KT 15SM BKN080 OVC250 RETS RMK AC6CI2 LTNG W-NE CB ASOCTD

CYQF;2009-07-26 10:30;CYQF 261030Z 34010G15KT 15SM -SHRA BKN080 RMK AC7 LTNG W-NE CB ASOCTD

CYQF;2009-07-26 10:45;CYQF 261045Z 35010G16KT 15SM SCT020 BKN080 RMK CU3AC4 LTNG N CB ASOCTD

CYQF;2009-07-26 11:00;CYQF 261100Z 36012G18KT 15SM FEW010 SCT020 BKN080 18/15 A3015 RMK SF1CU3AC4 LTNG NW-NE AND SE CB ASOCTD SLP199

CYQF;2009-07-26 12:00;CYQF 261200Z 35010G17KT 15SM SCT080 OVC250 18/14 A3015 RMK ACC3CI4 LTNG NW-NE CB ASOCTD SLP196

CYQF;2009-07-26 13:00;CYQF 261300Z 35008KT 15SM BKN080 OVC250 18/13 A3019 RMK AC5CI3 SLP209

CYQF;2009-07-26 14:00;CYQF 261400Z 24003KT 15SM BKN080 BKN250 17/14 A3021 RMK AC5CI2 CB ASOCTD SLP217

CYQF;2009-07-26 15:00;CYQF 261500Z 27003KT 15SM BKN080 BKN250 18/14 A3025 RMK AC6CI2 SLP235

CYQF;2009-07-26 16:00;CYQF 261600Z 32008KT 15SM FEW015 BKN080 BKN250 19/15 A3025 RMK CU1AC4CI1 SLP236

CYQF;2009-07-26 17:00;CYQF 261700Z 32010KT 15SM FEW025 BKN080 BKN250 21/15 A3025 RMK CU1AC5CI1 SLP235

CYQF;2009-07-26 18:00;CYQF 261800Z 32010KT 15SM FEW025 SCT080 BKN250 22/16 A3025 RMK CU2AC2CI2 SLP240

CYQF;2009-07-26 19:00;CYQF 261900Z 36008KT 15SM SCT030 SCT080 BKN250 23/16 A3025 RMK CU3AC1CI0 SLP241

CYQF;2009-07-26 20:00;CYQF 262000Z 35007KT 15SM SCT030 SCT080 BKN250 23/15 A3026 RMK CU3AC1CI0 SLP244

CYQF;2009-07-26 21:00;CYQF 262100Z 01007KT 15SM FEW040 SCT080 BKN250 24/14 A3026 RMK CU2AC1CI0 SLP246

CYQF;2009-07-26 22:00;CYQF 262200Z 35009KT 15SM SCT040 SCT080 BKN250 25/12 A3025 RMK CU3AC1CI0 SLP243

CYQF;2009-07-26 23:00;CYQF 262300Z 01008KT 15SM FEW040 SCT080 SCT250 24/11 A3025 RMK CU2AC1CI0 CB TP DIST SW SLP243

CYQF;2009-07-27 00:00;CYQF 270000Z 36008KT 15SM FEW040 SCT250 24/11 A3025 RMK CU2CI2 SLP241

CYQF;2009-07-27 01:00;CYQF 270100Z 01010KT 15SM FEW060 FEW250 24/10 A3025 RMK CU1CI1 TR CU SLP241

CYQF;2009-07-27 02:00;CYQF 270200Z 01005KT 15SM FEW060 23/10 A3026 RMK CU1 SLP243

CYQF;2009-07-27 03:00;CYQF 270300Z 00000KT 15SM FEW060 20/11 A3027 RMK CU1 SLP250

CYQF;2009-07-27 04:00;CYQF 270400Z 00000KT 15SM FEW100 FEW250 17/09 A3028 RMK AC1CI0 SLP253

CYQF;2009-07-27 05:00;CYQF 270500Z 00000KT 15SM FEW100 15/10 A3028 RMK AC1 SLP255

CYQF;2009-07-27 06:00;CYQF 270600Z 19005KT 15SM SKC 13/10 A3029 RMK SLP261

CYQF;2009-07-27 07:00;CYQF 270700Z 00000KT 15SM SKC 11/09 A3029 RMK SLP260

CYQF;2009-07-27 08:00;CYQF 270800Z 00000KT 15SM SKC 11/08 A3029 RMK SLP261

CYQF;2009-07-27 09:00;CYQF 270900Z 17002KT 15SM SKC 10/08 A3030 RMK SLP264

CYQF;2009-07-27 10:00;CYQF 271000Z 19002KT 15SM SKC 09/07 A3030 RMK SLP265

CYQF;2009-07-27 11:00;CYQF 271100Z 19003KT 15SM FEW100 FEW250 09/07 A3029 RMK AC1CI0 SLP263

CYQF;2009-07-27 12:00;CYQF 271200Z 18003KT 15SM FEW100 FEW250 08/06 A3029 RMK AC1CI0 SLP263

CYQF;2009-07-27 13:00;CYQF 271300Z 20002KT 15SM FEW030 FEW100 SCT250 09/07 A3029 RMK SC1AC1CI0 SLP263

CYQF;2009-07-27 14:00;CYQF 271400Z 16002KT 15SM FEW250 12/10 A3028 RMK CI1 SLP262

CYQF;2009-07-27 15:00;CYQF 271500Z 00000KT 15SM FEW030 SCT100 BKN270 16/13 A3029 RMK SC2AC1CI0 SLP258

CYQF;2009-07-27 16:00;CYQF 271600Z 00000KT 15SM FEW030 BKN270 19/12 A3027 RMK CU1CI2 SLP254

CYQF;2009-07-27 17:00;CYQF 271700Z 00000KT 15SM FEW030 BKN270 22/11 A3027 RMK CU2CI2 SLP252

CYQF;2009-07-27 18:00;CYQF 271800Z CCA 00000KT 15SM FEW032 SCT270 24/11 A3026 RMK CU2CI0 FEW MDT CU SW SLP249

CYQF;2009-07-27 19:00;CYQF 271900Z 00000KT 15SM FEW032 BKN270 23/10 A3025 RMK CU2CI2 FEW MDT CU SLP246

CYQF;2009-07-27 20:00;CYQF 272000Z 04005KT 15SM FEW040 FEW100 BKN270 25/10 A3024 RMK CU2AC1CI1 SLP241

CYQF;2009-07-27 21:00;CYQF 272100Z 01005KT 15SM FEW040 SCT100 BKN270 25/06 A3023 RMK CU2AC2CI1 SLP239

CYQF;2009-07-27 22:00;CYQF 272200Z 35006KT 15SM FEW040 SCT120 BKN270 26/07 A3022 RMK CU2AC2CI1 SLP236

CYQF;2009-07-27 23:00;CYQF 272300Z 35003KT 15SM FEW050 SCT140 BKN280 25/05 A3020 RMK CU2AC2CI1 SLP232

CYQF;2009-07-28 00:00;CYQF 280000Z 36007KT 15SM SCT140 BKN280 25/07 A3019 RMK AC2CI2 SLP228

CYQF;2009-07-28 01:00;CYQF 280100Z 02003KT 15SM FEW050CB SCT140 BKN290 25/08 A3017 RMK CB1AC2CI1 SLP222

CYQF;2009-07-28 02:00;CYQF 280200Z 06002KT 15SM FEW140 SCT280 24/09 A3016 RMK AC1CI1 CB TP DIST SW SLP221

CYQF;2009-07-28 03:00;CYQF 280300Z 00000KT 15SM FEW140 SCT280 22/10 A3016 RMK AC1CI1 CB TP DIST SW SLP214

CYQF;2009-07-28 04:00;CYQF 280400Z 00000KT 15SM FEW060 BKN120 BKN270 17/10 A3017 RMK SC2AC3CI1 SLP217

CYQF;2009-07-28 05:00;CYQF 280500Z 00000KT 15SM BKN090 BKN250 18/11 A3017 RMK AC5CI2 SLP215

CYQF;2009-07-28 06:00;CYQF 280600Z 00000KT 15SM BKN090 BKN250 16/11 A3015 RMK AC6CI2 SLP206

CYQF;2009-07-28 07:00;CYQF 280700Z 19004KT 15SM BKN090 15/11 A3014 RMK AC7 SLP203

CYQF;2009-07-28 08:00;CYQF 280800Z 17004KT 15SM BKN090 16/11 A3013 RMK AC6 SLP200

CYQF;2009-07-28 09:00;CYQF 280900Z 04010KT 15SM BKN090 15/11 A3013 RMK AC6 SLP199

CYQF;2009-07-28 10:00;CYQF 281000Z 04006KT 15SM BKN090 15/11 A3011 RMK AC7 SLP195

CYQF;2009-07-28 11:00;CYQF 281100Z 04010KT 15SM -RA BKN060 15/13 A3015 RMK SC7 SLP207

CYQF;2009-07-28 11:34;CYQF 281134Z 02010KT 15SM -SHRA FEW005 OVC050 RERA RMK SF1SC7

CYQF;2009-07-28 12:00;CYQF 281200Z 36005KT 15SM -SHRA FEW005 BKN050 BKN100 14/13 A3015 RERA RMK SF1SC4AC2 SLP209

CYQF;2009-07-28 13:00;CYQF 281300Z 27005KT 15SM -SHRA FEW005 BKN050 BKN100 14/13 A3015 RMK CF1SC6AC2 SLP210

CYQF;2009-07-28 14:00;CYQF 281400Z 32005KT 15SM FEW005 BKN020 BKN050 15/13 A3018 RMK SF1SC6SC2 SLP219

CYQF;2009-07-28 15:00;CYQF 281500Z 33007KT 15SM FEW005 BKN020 BKN050 15/13 A3018 RMK CF1SC5SC2 SLP222

CYQF;2009-07-28 15:38;CYQF 281538Z 33011KT 10SM -SHRA SCT005 BKN020 OVC050 RMK SF3SC3SC2 VIS NW 3 BR

CYQF;2009-07-28 16:00;CYQF 281600Z 34010G15KT 10SM -SHRA SCT005 BKN015 OVC050 15/13 A3019 RMK SF3SC3SC2 SLP225

CYQF;2009-07-28 16:47;CYQF 281647Z 35010KT 15SM FEW005 BKN015 BKN050 RMK SF2CU5SC1

CYQF;2009-07-28 17:00;CYQF 281700Z 36008KT 15SM VCSH FEW005 BKN015 BKN050 16/14 A3021 RMK SF2CU5SC1 CIG RAG SLP229

CYQF;2009-07-28 18:00;CYQF 281800Z CCA 36006KT 15SM BKN020 BKN080 17/13 A3021 RMK CU5AC1 TCU ASOCTD SLP234

CYQF;2009-07-28 19:00;CYQF 281900Z 04010KT 15SM VCSH BKN020TCU 18/12 A3021 RMK TCU7 SLP236

CYQF;2009-07-28 19:17;CYQF 281917Z 04007KT 15SM -SHRA BKN025TCU BKN080 RMK TCU6AC1

CYQF;2009-07-28 20:00;CYQF 282000Z 04011KT 15SM VCSH BKN028TCU BKN080 19/13 A3021 RMK TCU6AC1 SLP236

CYQF;2009-07-28 21:00;CYQF 282100Z 04008KT 15SM VCSH BKN030TCU BKN080 18/12 A3021 RMK TCU6AC1 SLP236

CYQF;2009-07-28 22:00;CYQF 282200Z 35008KT 15SM SCT036TCU BKN080 20/10 A3021 RMK TCU3AC2 SLP236

CYQF;2009-07-28 23:00;CYQF 282300Z 36005KT 15SM FEW035 SCT080 BKN250 20/12 A3021 RMK CU2AC2CI1 SLP234

CYQF;2009-07-29 00:00;CYQF 290000Z 01005KT 15SM FEW040 SCT080 BKN250 20/10 A3020 RMK CU2AC2CI1 SLP230

CYQF;2009-07-29 01:00;CYQF 290100Z 34004KT 15SM FEW040 SCT080 BKN250 19/12 A3019 RMK CU2AC2CI1 SLP229

CYQF;2009-07-29 02:00;CYQF 290200Z 04005KT 15SM FEW040 SCT080 BKN250 19/10 A3020 RMK SC2AC2CI2 SLP230

CYQF;2009-07-29 03:00;CYQF 290300Z 03002KT 15SM FEW040 SCT080 BKN250 18/10 A3020 RMK SC2AC2CI2 SLP230

CYQF;2009-07-29 03:47;CYQF 290347Z 35004KT 15SM -RA SCT040 BKN080 RMK SC3AC3

CYQF;2009-07-29 04:00;CYQF 290400Z 34004KT 15SM SCT040 BKN080 16/13 A3021 RMK SC4AC3 SLP233

CYQF;2009-07-29 04:45;CYQF 290445Z 01004KT 15SM BKN040 OVC080 RMK SC5AC3

CYQF;2009-07-29 05:00;CYQF 290500Z 34004KT 15SM SCT040 OVC090 15/13 A3020 RMK SC3AC5 SLP231

CYQF;2009-07-29 06:00;CYQF 290600Z 31004KT 15SM FEW040 OVC120 15/13 A3020 RMK SC2AC6 SLP234

CYQF;2009-07-29 07:00;CYQF 290700Z 00000KT 15SM BKN100 15/12 A3020 RMK AC6 SLP234

CYQF;2009-07-29 08:00;CYQF 290800Z 35003KT 15SM BKN100 13/11 A3021 RMK AC7 SLP235

CYQF;2009-07-29 09:00;CYQF 290900Z 00000KT 15SM BKN100 13/11 A3020 RMK AC6 SLP234

CYQF;2009-07-29 10:00;CYQF 291000Z 33004KT 15SM BKN100 11/10 A3020 RMK AC7 SLP235

CYQF;2009-07-29 11:00;CYQF 291100Z 34004KT 15SM FEW050 BKN090 12/10 A3020 RMK SC2AC4 SLP234

CYQF;2009-07-29 12:00;CYQF 291200Z 36003KT 15SM MIFG FEW040 BKN090 BKN250 11/10 A3021 RMK CU2AC3CI0 SLP236

CYQF;2009-07-29 13:00;CYQF 291300Z CCA 00000KT 15SM FEW050 SCT090 11/10 A3021 RMK CU2AC2 SLP238

CYQF;2009-07-29 14:00;CYQF 291400Z 00000KT 15SM FEW050 SCT090 BKN260 12/10 A3022 RMK CU1AC2CI0 SLP240

CYQF;2009-07-29 15:00;CYQF 291500Z 00000KT 12SM FEW050 FEW090 BKN260 15/13 A3022 RMK CU1AC2CI0 HZ SLP239

CYQF;2009-07-29 16:00;CYQF 291600Z 00000KT 12SM FEW050 SCT270 17/12 A3022 RMK CU1CI1 HZ SLP239

CYQF;2009-07-29 17:00;CYQF 291700Z 33005KT 12SM FEW050TCU FEW270 18/10 A3022 RMK TCU1CI0 HZ SLP238

CYQF;2009-07-29 18:00;CYQF 291800Z CCA 02005KT 12SM BKN050TCU 20/07 A3022 RMK TCU5 HZ SLP235

CYQF;2009-07-29 19:00;CYQF 291900Z 01005KT 10SM SCT050TCU 20/06 A3021 RMK TCU3 HZ SLP234

CYQF;2009-07-29 20:00;CYQF 292000Z 36006KT 10SM SCT050 21/05 A3020 RMK CU3 HZ SLP231

CYQF;2009-07-29 21:00;CYQF 292100Z 00000KT 12SM SCT060 21/06 A3020 RMK CU3 HZ SLP230

CYQF;2009-07-29 22:00;CYQF 292200Z 00000KT 10SM SCT060 22/07 A3018 RMK CU3 HZ SLP224

CYQF;2009-07-29 23:00;CYQF 292300Z 01005KT 12SM FEW060 22/07 A3016 RMK CU2 HZ SLP220

CYQF;2009-07-30 00:00;CYQF 300000Z CCA 07006KT 15SM FEW060 22/08 A3015 RMK SC1 HZ SLP216

CYQF;2009-07-30 01:00;CYQF 300100Z 02004KT 12SM FEW060 21/06 A3014 RMK CU1 HZ SLP212

CYQF;2009-07-30 02:00;CYQF 300200Z 00000KT 10SM SKC 21/07 A3013 RMK SLP209

CYQF;2009-07-30 03:00;CYQF 300300Z 00000KT 10SM SKC 19/09 A3012 RMK SLP203

CYQF;2009-07-30 04:00;CYQF 300400Z 13003KT 10SM SKC 16/09 A3011 RMK SLP200

CYQF;2009-07-30 05:00;CYQF 300500Z 16003KT 10SM SKC 12/08 A3010 RMK SLP196

CYQF;2009-07-30 06:00;CYQF 300600Z 00000KT 12SM SKC 12/09 A3009 RMK SLP195

CYQF;2009-07-30 07:00;CYQF 300700Z 18003KT 12SM SKC 09/07 A3008 RMK SLP193

CYQF;2009-07-30 08:00;CYQF 300800Z 00000KT 12SM SKC 09/07 A3006 RMK OBS TAKEN +16 SLP187

CYQF;2009-07-30 09:00;CYQF 300900Z 00000KT 12SM SKC 08/07 A3005 RMK OBS TAKEN +05 SLP185

CYQF;2009-07-30 10:00;CYQF 301000Z 00000KT 12SM SKC 08/06 A3003 RMK SLP178

CYQF;2009-07-30 11:00;CYQF 301100Z 00000KT 12SM MIFG SCT250 06/04 A3002 RMK CI3 SLP174

CYQF;2009-07-30 12:00;CYQF 301200Z 00000KT 6SM BR FEW120 BKN250 06/05 A3000 RMK AC2CI2 SHLW F ON ARPT SLP168

CYQF;2009-07-30 13:00;CYQF 301300Z 00000KT 8SM MIFG FEW120 SCT250 07/06 A2999 RMK AC2CI1 BR SLP164

CYQF;2009-07-30 14:00;CYQF 301400Z 26002KT 8SM FEW250 10/08 A2999 RMK CI1 BR SLP164

CYQF;2009-07-30 15:00;CYQF 301500Z 21003KT 8SM FEW250 13/10 A2999 RMK CI1 HZ SLP160

CYQF;2009-07-30 16:00;CYQF 301600Z 00000KT 10SM BKN260 16/10 A2997 RMK CI2 HZ SLP155

CYQF;2009-07-30 17:00;CYQF 301700Z 27004KT 10SM BKN260 20/12 A2995 RMK CI2 HZ SLP149

CYQF;2009-07-30 18:00;CYQF 301800Z 30005KT 10SM BKN270 22/12 A2995 RMK CI2 HZ SLP143

CYQF;2009-07-30 19:00;CYQF 301900Z 34005KT 10SM BKN270 23/07 A2994 RMK CI3 HZ SLP140

CYQF;2009-07-30 20:00;CYQF 302000Z 36007KT 10SM FEW100 BKN280 24/09 A2993 RMK AC2CI3 HZ SLP139

CYQF;2009-07-30 21:00;CYQF 302100Z 34010KT 10SM FEW050 BKN100 OVC280 24/10 A2994 RMK CU1AC4CI1 HZ SLP141

CYQF;2009-07-30 22:00;CYQF 302200Z 03007KT 12SM FEW050 BKN090 OVC280 23/10 A2993 RMK CU2AC4CI2 HZ SLP140

CYQF;2009-07-30 23:00;CYQF 302300Z 01007KT 12SM BKN090 OVC250 22/11 A2994 RMK AC6CI2 HZ SLP143

CYQF;2009-07-30 23:17;CYQF 302317Z 01010KT 12SM -SHRA SCT040TCU BKN090 OVC250 RMK TCU4AC3CI1 HZ

CYQF;2009-07-30 23:21;CYQF 302321Z 01020G35KT 12SM -SHRA BKN040TCU BKN090 OVC250 RMK TCU6AC2CI1 HZ

CYQF;2009-07-30 23:34;CYQF 302334Z 36010G15KT 5SM SHRA BR OVC040TCU RMK TCU8

CYQF;2009-07-30 23:42;CYQF 302342Z 35012KT 6SM -SHRA BR SCT040TCU OVC090 RERA RMK TCU3AC5

CYQF;2009-07-31 00:00;CYQF 310000Z 34008KT 5SM -SHRA BR SCT040TCU OVC090 16/13 A3000 RERA RMK TCU3AC5 SLP176

CYQF;2009-07-31 01:00;CYQF 310100Z 34007KT 10SM -SHRA SCT050 OVC090 16/14 A3001 RMK SC4AC4 BR SLP177

CYQF;2009-07-31 02:00;CYQF 310200Z 30010KT 8SM -SHRA SCT050 BKN090 OVC250 16/14 A3002 RMK SC3AC3CI2 BR SLP181

CYQF;2009-07-31 02:28;CYQF 310228Z 29007KT 12SM FEW050 BKN090 OVC250 RMK SC2AC4CI2 CU ASOCTD VIS SE-S 6

CYQF;2009-07-31 03:00;CYQF 310300Z 28007KT 15SM FEW050 BKN090 BKN250 15/13 A3001 RMK SC2AC3CI1 CU ASOCTD SLP173

CYQF;2009-07-31 04:00;CYQF 310400Z 31005KT 15SM SCT050 SCT090 BKN250 14/13 A3005 RMK CU4AC1CI0 SLP186

CYQF;2009-07-31 05:00;CYQF 310500Z 30005KT 15SM FEW050 FEW090 FEW250 14/13 A3006 RMK SC1AC1CI1 SLP187

CYQF;2009-07-31 06:00;CYQF 310600Z 31006KT 15SM SKC 14/12 A3006 RMK SLP181

CYQF;2009-07-31 07:00;CYQF 310700Z 29004KT 15SM FEW150 12/11 A3007 RMK AC1 SLP183

CYQF;2009-07-31 08:00;CYQF 310800Z 00000KT 15SM SCT120 13/11 A3007 RMK AC3 SLP185

CYQF;2009-07-31 09:00;CYQF 310900Z 28005KT 15SM FEW120 12/11 A3009 RMK AC2 SLP190

CYQF;2009-07-31 10:00;CYQF 311000Z 30004KT 15SM SCT120 11/10 A3009 RMK AC3 SLP190

CYQF;2009-07-31 11:00;CYQF 311100Z 28004KT 15SM FEW120 10/09 A3009 RMK AC2 SLP190

CYQF;2009-07-31 11:37;CYQF 311137Z 00000KT 2SM BR FEW120 RMK AC1

CYQF;2009-07-31 12:00;CYQF 311200Z 00000KT 5SM BR FEW120 SCT250 08/08 A3009 RMK AC2CI0 VIS S 1 SLP205

CYQF;2009-07-31 13:00;CYQF 311300Z 28005KT 2 1/2SM BR OVC060 12/11 A3010 RMK SC8 SLP207

CYQF;2009-07-31 13:10;CYQF 311310Z 27004KT 2SM BR BKN003 OVC060 RMK FG1ST5SC2

CYQF;2009-07-31 13:48;CYQF 311348Z 26002KT 1SM BR OVC006 RMK FG2ST6

CYQF;2009-07-31 14:00;CYQF 311400Z 00000KT 1SM BR OVC006 13/12 A3011 RMK FG3ST5 SLP210

CYQF;2009-07-31 14:34;CYQF 311434Z 26004KT 3/4SM BR OVC005 RMK FG5ST3

CYQF;2009-07-31 14:50;CYQF 311450Z 22002KT 1 1/2SM BR OVC005 RMK FG4ST4

CYQF;2009-07-31 15:00;CYQF 311500Z 21004KT 1 1/2SM BR OVC005 13/12 A3012 RMK FG4ST4 SLP212

CYQF;2009-07-31 16:00;CYQF 311600Z 20002KT 1 1/2SM BR OVC004 14/13 A3013 RMK FG3ST5 TOPS 4400ASL SLP214

CYQF;2009-07-31 17:00;CYQF 311700Z 00000KT 2SM BR OVC006 15/13 A3013 RMK FG2ST6 SLP213

CYQF;2009-07-31 17:45;CYQF 311745Z 00000KT 5SM BR BKN009 RMK CU7

CYQF;2009-07-31 18:00;CYQF 311800Z 21003KT 6SM BR BKN009 17/14 A3012 RMK CU5 SLP207

CYQF;2009-07-31 18:40;CYQF 311840Z 20004KT 15SM SCT010 RMK CU3

CYQF;2009-07-31 19:00;CYQF 311900Z 21004KT 10SM SCT015 19/13 A3010 RMK CU3 SLP201

CYQF;2009-07-31 20:00;CYQF 312000Z 00000KT 15SM SCT025 21/13 A3009 RMK CU3 SLP196

CYQF;2009-07-31 21:00;CYQF 312100Z 00000KT 15SM SCT035 21/12 A3008 RMK CU3 SLP190

CYQF;2009-07-31 22:00;CYQF 312200Z 00000KT 15SM SCT040 23/13 A3006 RMK CU3 SLP186

CYQF;2009-07-31 23:00;CYQF 312300Z 26009KT 15SM FEW040 23/11 A3005 RMK CU2 SLP180

CYQF;2009-08-01 01:00;CYQF 010100Z 30004KT 15SM SKC 23/09 A3002 RMK SLP171

CYQF;2009-08-01 02:00;CYQF 010200Z 00000KT 15SM SKC 23/09 A3001 RMK SLP168

CYQF;2009-08-01 03:00;CYQF 010300Z 00000KT 15SM SKC 21/11 A3001 RMK SLP164

CYQF;2009-08-01 04:00;CYQF 010400Z 00000KT 15SM FEW250 16/11 A3002 RMK CI0 SLP167

CYQF;2009-08-01 05:00;CYQF 010500Z 00000KT 15SM SKC 14/10 A3001 RMK SLP165

CYQF;2009-08-01 06:00;CYQF 010600Z 00000KT 15SM SKC 12/10 A3001 RMK SLP170

CYQF;2009-08-01 07:00;CYQF 010700Z 00000KT 15SM SKC 11/09 A2999 RMK SLP165

CYQF;2009-08-01 08:00;CYQF 010800Z 00000KT 15SM SKC 10/08 A2998 RMK SLP161

CYQF;2009-08-01 09:00;CYQF 010900Z 00000KT 15SM SKC 10/09 A2996 RMK SLP152

CYQF;2009-08-01 10:00;CYQF 011000Z 18003KT 15SM SKC 09/08 A2995 RMK SLP148

CYQF;2009-08-01 11:00;CYQF 011100Z 19002KT 10SM MIFG FEW250 08/08 A2994 RMK CI1 SLP144

CYQF;2009-08-01 12:00;CYQF 011200Z 20003KT 6SM BR MIFG FEW080 FEW250 07/06 A2993 RMK AC1CI1 SLP140

CYQF;2009-08-01 13:00;CYQF 011300Z 21004KT 6SM BR PRFG FEW080 FEW250 08/08 A2992 RMK AC1CI1 SLP138

CYQF;2009-08-01 14:00;CYQF 011400Z 22004KT 10SM FEW080 13/11 A2992 RMK AC1 BR SLP136

CYQF;2009-08-01 15:00;CYQF 011500Z 23005KT 12SM FEW250 16/13 A2990 RMK CI1 SLP125

CYQF;2009-08-01 16:00;CYQF 011600Z 23005KT 12SM FEW100 FEW270 20/13 A2989 RMK AC1CI1 SLP122

CYQF;2009-08-01 17:00;CYQF 011700Z 31006KT 12SM FEW270 24/13 A2988 RMK CI2 SLP118

CYQF;2009-08-01 18:00;CYQF 011800Z 30005KT 15SM FEW270 27/13 A2986 RMK CI2 SLP109

CYQF;2009-08-01 19:00;CYQF 011900Z 29007KT 15SM BKN250 29/12 A2985 RMK CI1 SLP105

CYQF;2009-08-01 20:00;CYQF 012000Z 30010KT 15SM SKC 30/13 A2984 RMK SLP102

CYQF;2009-08-01 21:00;CYQF 012100Z 30010G15KT 15SM FEW070TCU 30/12 A2983 RMK TCU1 SLP095

CYQF;2009-08-01 22:00;CYQF 012200Z 33012KT 15SM FEW070TCU FEW250 31/13 A2981 RMK TCU2CI1 SLP089

CYQF;2009-08-01 23:00;CYQF 012300Z 01008KT 15SM FEW070TCU SCT250 30/14 A2979 RMK TCU2CI1 SLP084

CYQF;2009-08-02 00:00;CYQF 020000Z 04006KT 15SM SCT070CB BKN250 30/13 A2978 RMK CB3CI2 SLP084

CYQF;2009-08-02 00:19;CYQF 020019Z 32035G47KT 15SM TS BKN070CB BKN250 RMK CB6CI2 FQT LTNG NW

CYQF;2009-08-02 00:23;CYQF 020023Z 32055G65KT 15SM TS BKN070CB BKN250 RMK CB6CI2 FQT LTNG NW

CYQF;2009-08-02 00:31;CYQF 020031Z 34040G50KT 1/2SM +TSRA BKN070CB OVC250 RMK CB7CI1 FQT LTNG

CYQF;2009-08-02 00:41;CYQF 020041Z 03010G15KT 1 1/2SM TSRA OVC030CB RMK CB8 WND SHFT PRESRR RERA TEMP 12.7

CYQF;2009-08-02 00:55;CYQF 020055Z 34005KT 6SM -TSRA BR OVC020CB RMK CB8 RERA FQT LTNG

CYQF;2009-08-02 01:00;CYQF 020100Z 32012G17KT 10SM -TSRA SCT020 BKN070CB OVC250 14/13 A2990 RMK SC3CB4CI1 RERA FQT LTNG BR SLP121

CYQF;2009-08-02 01:34;CYQF 020134Z 01026G38KT 6SM TSRA BR FEW020 OVC070CB RMK SC2CB6

CYQF;2009-08-02 01:43;CYQF 020143Z 35015G25KT 10SM -TSRA FEW020 BKN070CB OVC250 RMK SC2CB6CI1 RERA

CYQF;2009-08-02 02:00;CYQF 020200Z 03017G22KT 12SM -SHRA BKN045CB BKN100 16/14 A2985 RETSRA RMK CB5AC2 PRESRR SLP105

CYQF;2009-08-02 03:00;CYQF 020300Z 30005KT 15SM FEW050CB BKN100 OVC250 16/14 A2991 RMK CB2AC3CI2 SLP133

CYQF;2009-08-02 04:00;CYQF 020400Z 27012KT 15SM BKN100 BKN250 16/14 A2993 RMK AC5CI1 SLP140

CYQF;2009-08-02 05:00;CYQF 020500Z 27005KT 15SM BKN100 BKN250 16/14 A2993 RMK AC5CI2 SLP140

CYQF;2009-08-02 06:00;CYQF 020600Z 27004KT 15SM BKN080 17/14 A2992 RMK AC6 SLP124

CYQF;2009-08-02 07:00;CYQF 020700Z 06003KT 15SM FEW080 16/13 A2990 RMK AC2 SLP119

CYQF;2009-08-02 08:00;CYQF 020800Z 23003KT 15SM SKC 13/11 A2990 RMK SLP119

CYQF;2009-08-02 09:00;CYQF 020900Z 30004KT 15SM SKC 14/12 A2990 RMK SLP116

CYQF;2009-08-02 10:00;CYQF 021000Z 00000KT 15SM SKC 12/11 A2991 RMK SLP119

CYQF;2009-08-02 11:00;CYQF 021100Z 27004KT 15SM SKC 11/10 A2992 RMK SLP122

CYQF;2009-08-02 12:00;CYQF 021200Z 20004KT 15SM FEW250 11/10 A2993 RMK CI0 SLP129

CYQF;2009-08-02 13:00;CYQF 021300Z 20004KT 15SM SCT250 11/10 A2993 RMK CI1 SLP129

CYQF;2009-08-02 14:00;CYQF 021400Z 23004KT 15SM SKC 13/12 A2992 RMK SLP127

CYQF;2009-08-02 15:00;CYQF 021500Z 25004KT 15SM FEW250 15/13 A2991 RMK CI1 SLP135

CYQF;2009-08-02 16:00;CYQF 021600Z 24004KT 15SM SKC 18/14 A2991 RMK HZ SLP133

CYQF;2009-08-02 17:00;CYQF 021700Z 26007KT 15SM FEW250 20/14 A2990 RMK CI1 HZ SLP130

CYQF;2009-08-02 18:00;CYQF 021800Z 26007KT 15SM SKC 22/16 A2989 RMK HZ SLP117

CYQF;2009-08-02 19:00;CYQF 021900Z 30007KT 15SM FEW035 SCT250 24/16 A2988 RMK CF1CI1 HZ SLP115

CYQF;2009-08-02 20:00;CYQF 022000Z 30007KT 15SM FEW040 SCT250 25/16 A2987 RMK CU1CI1 SLP111

CYQF;2009-08-02 21:00;CYQF 022100Z 36005KT 15SM SCT040 BKN250 25/16 A2986 RMK CU3CI0 SLP109

CYQF;2009-08-02 22:00;CYQF 022200Z 31006KT 15SM FEW045 26/15 A2985 RMK CU2 SLP104

CYQF;2009-08-02 23:00;CYQF 022300Z 01005KT 15SM TS SCT040CB 25/16 A2984 RMK CB3 FQT LTNG S-SW SLP101

CYQF;2009-08-02 23:30;CYQF 022330Z 25010G15KT 15SM BKN040CB RMK CB5 VIS SE-SW 6 WND SHFT RETS

CYQF;2009-08-03 00:00;CYQF 030000Z 00000KT 15SM FEW040CB BKN250 23/15 A2985 RMK CB2CI3 RETS SLP110

CYQF;2009-08-03 01:00;CYQF 030100Z 21005KT 15SM TS SCT030CB BKN250 20/15 A2987 RMK CB3CI2 LTG S-W SLP115

CYQF;2009-08-03 01:37;CYQF 030137Z 00000KT 15SM FEW030CB SCT080 BKN250 RETS RMK CB2AC2CI3

CYQF;2009-08-03 02:00;CYQF 030200Z 05003KT 15SM FEW030CB BKN080 BKN250 21/15 A2985 RETS RMK CB1AC4CI2 SLP109

CYQF;2009-08-03 03:00;CYQF 030300Z 05005KT 15SM -SHRA FEW030CB BKN080 BKN250 21/16 A2985 RMK CB2AC5CI1 CB TOPS S SLP108

CYQF;2009-08-03 03:45;CYQF 030345Z 02005KT 15SM -TSRA SCT025CB BKN080 BKN250 RMK CB3AC3CI1

CYQF;2009-08-03 04:00;CYQF 030400Z 03002KT 12SM -TSRA BKN025CB BKN080 19/15 A2988 RMK CB5AC2 SLP116

CYQF;2009-08-03 05:00;CYQF 030500Z 06004KT 10SM -TSRA BKN030CB OVC080 18/16 A2990 RMK CB6AC2 SLP123

CYQF;2009-08-03 06:00;CYQF 030600Z 06010G15KT 10SM -TSRA BKN020CB OVC080 16/15 A2991 RERA RMK CB6AC2 SLP125

CYQF;2009-08-03 07:00;CYQF 030700Z CCA 36006KT 6SM +TSRA BKN006 OVC020CB 15/14 A2998 RMK SF5CB3 LTGCGCC S-SW+N SLP146

CYQF;2009-08-03 08:00;CYQF 030800Z 03015KT 6SM TSRA OVC006CB 12/11 A3001 RMK CB8 RERA SLP155

CYQF;2009-08-03 08:43;CYQF 030843Z 05007KT 15SM -SHRA FEW008 OVC026 RMK SF2SC6 RERA RETS CB ASOCTD

CYQF;2009-08-03 09:00;CYQF 030900Z 01006KT 15SM -SHRA FEW008 OVC036 12/10 A3003 RMK SF2SC6 RERA RETS CB ASOCTD SLP168

CYQF;2009-08-03 09:42;CYQF 030942Z 36004KT 15SM OVC036 RMK SC8

CYQF;2009-08-03 10:00;CYQF 031000Z 00000KT 15SM OVC036 12/10 A3004 RMK SC8 SLP171

CYQF;2009-08-03 11:00;CYQF 031100Z 31002KT 15SM FEW020 BKN035 OVC250 12/10 A3005 RMK SC2SC5CI0 SLP176

CYQF;2009-08-03 12:00;CYQF 031200Z 00000KT 15SM FEW008 OVC015 12/11 A3007 RMK SF2SC6 SLP184

CYQF;2009-08-03 13:00;CYQF 031300Z 00000KT 10SM FEW006 OVC012 12/10 A3007 RMK SF2SC6 SLP184

CYQF;2009-08-03 14:00;CYQF 031400Z 07004KT 15SM FEW006 OVC012 12/10 A3007 RMK SF2SC6 SLP185

CYQF;2009-08-03 15:00;CYQF 031500Z 11004KT 15SM FEW006 FEW010 BKN025 12/09 A3007 RMK SF1CU1SC6 SLP189

CYQF;2009-08-03 16:00;CYQF 031600Z 13005KT 15SM FEW012 BKN025 14/09 A3008 RMK SF2SC6 CU ASOCTD SLP191

CYQF;2009-08-03 17:00;CYQF 031700Z 16005KT 15SM BKN017 BKN100 14/08 A3008 RMK SC6AC2 CU ASOCTD OBS TAKEN -02 SLP191

CYQF;2009-08-03 18:00;CYQF 031800Z 11005KT 15SM BKN025 BKN100 14/07 A3007 RMK SC5AC2 SLP191

CYQF;2009-08-03 19:00;CYQF 031900Z 11002KT 15SM BKN030 BKN100 16/09 A3006 RMK CU6AC2 SLP188

CYQF;2009-08-03 20:00;CYQF 032000Z 14006KT 15SM OVC030 16/08 A3006 RMK SC8 CU EMBDD SLP187

CYQF;2009-08-03 21:00;CYQF 032100Z 12005KT 15SM OVC035 16/09 A3006 RMK SC8 CU EMBDD SLP189

CYQF;2009-08-03 22:00;CYQF 032200Z 12006KT 15SM OVC037 17/09 A3005 RMK SC8 SLP188

CYQF;2009-08-03 23:00;CYQF 032300Z 12005KT 15SM OVC040 17/09 A3006 RMK SC8 SLP189

CYQF;2009-08-04 00:00;CYQF 040000Z 11005KT 15SM OVC040 17/09 A3005 RMK SC8 SLP185

CYQF;2009-08-04 01:00;CYQF 040100Z 10004KT 15SM OVC040 16/09 A3005 RMK SC8 SLP186

CYQF;2009-08-04 02:00;CYQF 040200Z 07005KT 15SM OVC040 16/09 A3004 RMK SC8 SLP182

CYQF;2009-08-04 03:00;CYQF 040300Z 06005KT 15SM OVC040 15/09 A3005 RMK SC8 SLP187

CYQF;2009-08-04 04:00;CYQF 040400Z 12003KT 15SM OVC040 14/09 A3006 RMK SC8 SLP190

CYQF;2009-08-04 04:54;CYQF 040454Z 03004KT 15SM -RA OVC030 RMK SC8

CYQF;2009-08-04 05:00;CYQF 040500Z 02003KT 15SM -RA OVC030 13/10 A3009 RMK SC8 SLP200

CYQF;2009-08-04 06:00;CYQF 040600Z 04007KT 15SM -RA OVC030 11/10 A3009 RMK SC8 SLP201

CYQF;2009-08-04 07:00;CYQF 040700Z 05007KT 10SM -RA OVC030 11/10 A3009 RMK SC8 SLP203

CYQF;2009-08-04 08:00;CYQF 040800Z 04007KT 10SM -RA OVC040 11/09 A3012 RMK SC8 SLP212

CYQF;2009-08-04 09:00;CYQF 040900Z 02005KT 10SM -RA OVC035 11/09 A3014 RMK SC8 SLP219

CYQF;2009-08-04 10:00;CYQF 041000Z 03005KT 8SM -RA FEW006 OVC030 10/10 A3015 RMK SF2SC6 SLP221

CYQF;2009-08-04 10:21;CYQF 041021Z 03005KT 8SM -RA BKN006 OVC030 RMK SF5SC3

CYQF;2009-08-04 11:00;CYQF 041100Z 01005KT 6SM -RA BR SCT006 OVC020 10/09 A3016 RMK SF4SC4 SLP225

CYQF;2009-08-04 11:17;CYQF 041117Z 35005KT 10SM -RA SCT005 OVC014 RMK SF3SC5

CYQF;2009-08-04 11:54;CYQF 041154Z 34007KT 5SM -RA BR BKN004 OVC012 RMK SF6SC2

CYQF;2009-08-04 12:00;CYQF 041200Z 36007KT 5SM -RA BR BKN004 OVC012 10/09 A3018 RMK SF6SC2 CIG RAG SLP233

CYQF;2009-08-04 12:38;CYQF 041238Z 02006KT 10SM BKN006 OVC012 RMK SF6SC2 CIG RAG

CYQF;2009-08-04 13:00;CYQF 041300Z 02007KT 10SM BKN007 OVC015 10/09 A3018 RMK CF6SC2 CIG RAG SLP233

CYQF;2009-08-04 13:37;CYQF 041337Z 02005KT 10SM -SHRA BKN007 OVC015 RMK SF6SC2

CYQF;2009-08-04 14:00;CYQF 041400Z 03005KT 12SM BKN007 OVC015 10/09 A3019 RMK SF6SC2 SLP235

CYQF;2009-08-04 15:00;CYQF 041500Z 02005KT 12SM VCSH BKN006 OVC015 10/09 A3020 RMK SF6SC2 SLP242

CYQF;2009-08-04 15:07;CYQF 041507Z 01005KT 12SM -SHRA BKN006 OVC015 RMK SF5SC3

CYQF;2009-08-04 16:00;CYQF 041600Z 03005KT 12SM -SHRA BKN008 BKN015 OVC055 10/09 A3022 RMK SF5SC2SC2 SLP247

CYQF;2009-08-04 16:46;CYQF 041646Z 02005KT 12SM SCT009 BKN015 OVC055 RMK SF4SC2SC2

CYQF;2009-08-04 17:00;CYQF 041700Z 02005KT 12SM SCT009 BKN015 OVC055 11/09 A3022 RMK SF4SC2SC2 SLP248

CYQF;2009-08-04 18:00;CYQF 041800Z 01005KT 12SM BKN008 OVC060 12/09 A3024 RMK SC6SC2 SLP255

CYQF;2009-08-04 19:00;CYQF 041900Z 03005KT 12SM BKN010 OVC060 13/08 A3024 RMK SC6SC2 SLP257

CYQF;2009-08-04 20:00;CYQF 042000Z 03004KT 15SM SCT010 OVC060 13/07 A3025 RMK SC3SC5 SLP258

CYQF;2009-08-04 21:00;CYQF 042100Z 00000KT 15SM SCT010 OVC060 13/07 A3025 RMK SC3SC5 SLP261

CYQF;2009-08-04 22:00;CYQF 042200Z 00000KT 15SM SCT010 OVC060 13/08 A3025 RMK SC3SC5 SLP259

CYQF;2009-08-04 23:00;CYQF 042300Z 00000KT 15SM SCT010 OVC060 13/07 A3025 RMK SC3SC5 SLP259

CYQF;2009-08-05 00:00;CYQF 050000Z 00000KT 15SM FEW020 BKN060 OVC250 13/08 A3024 RMK CU2SC5CI2 SLP257

CYQF;2009-08-05 01:00;CYQF 050100Z 29004KT 15SM FEW020 BKN050 OVC100 13/08 A3024 RMK SC1SC4AC3 SLP257

CYQF;2009-08-05 02:00;CYQF 050200Z 27003KT 15SM FEW020 BKN050 OVC100 12/09 A3024 RMK SC1SC5AC3 SLP257

CYQF;2009-08-05 03:00;CYQF 050300Z 00000KT 15SM BKN050 OVC100 12/09 A3024 RMK SC6AC2 SLP258

CYQF;2009-08-05 04:00;CYQF 050400Z 00000KT 15SM BKN050 OVC100 11/09 A3025 RMK SC6AC2 SLP262

CYQF;2009-08-05 05:00;CYQF 050500Z 00000KT 15SM BKN070 OVC100 11/09 A3025 RMK AC6AC2 SLP263

CYQF;2009-08-05 06:00;CYQF 050600Z 00000KT 15SM OVC060 11/09 A3026 RMK SC8 SLP264

CYQF;2009-08-05 07:00;CYQF 050700Z 21003KT 15SM OVC060 10/09 A3027 RMK SC8 SLP267

CYQF;2009-08-05 08:00;CYQF 050800Z 00000KT 15SM OVC060 11/09 A3025 RMK SC8 SLP262

CYQF;2009-08-05 09:00;CYQF 050900Z 00000KT 15SM OVC070 10/09 A3025 RMK AC8 SLP258

CYQF;2009-08-05 10:00;CYQF 051000Z 00000KT 15SM OVC075 10/09 A3024 RMK AC8 SLP256

CYQF;2009-08-05 11:00;CYQF 051100Z 00000KT 15SM OVC070 10/09 A3023 RMK AC8 SLP254

CYQF;2009-08-05 12:00;CYQF 051200Z 00000KT 10SM SCT070 OVC120 10/09 A3024 RMK AC3AC5 BR SLP255

CYQF;2009-08-05 13:00;CYQF 051300Z 00000KT 6SM BR SCT060 OVC100 10/09 A3024 RMK SC3AC5 SLP257

CYQF;2009-08-05 13:07;CYQF 051307Z 00000KT 5SM -RA BR BKN060 OVC100 RMK SC5AC3

CYQF;2009-08-05 14:00;CYQF 051400Z 00000KT 6SM -RA BR BKN060 OVC100 10/09 A3024 RMK SC5AC3 SLP257

CYQF;2009-08-05 15:00;CYQF 051500Z 00000KT 5SM -RA BR BKN035 OVC060 11/09 A3024 RMK SC6SC2 SLP256

CYQF;2009-08-05 16:00;CYQF 051600Z 12003KT 5SM -RA BR BKN030 OVC060 11/09 A3023 RMK SC6SC2 SLP255

CYQF;2009-08-05 17:00;CYQF 051700Z 12004KT 5SM -RA BR FEW010 OVC030 11/09 A3023 RMK SF1SC7 SLP254

CYQF;2009-08-05 18:00;CYQF 051800Z 11005KT 6SM -RA BR SCT010 OVC021 11/09 A3023 RMK SF3SC5 SLP253

CYQF;2009-08-05 19:00;CYQF 051900Z 11004KT 6SM -RA BR BKN010 OVC021 11/09 A3021 RMK SC5SC3 CIG RAG SLP249

CYQF;2009-08-05 19:49;CYQF 051949Z 13007KT 6SM -RA BR SCT009 BKN019 OVC080 RMK SF3SC3AC2

CYQF;2009-08-05 20:00;CYQF 052000Z 13008KT 6SM -RA BR SCT009 BKN019 OVC080 11/09 A3020 RMK SF3SC3AC2 SLP245

CYQF;2009-08-05 21:00;CYQF 052100Z 11005KT 6SM -RA BR SCT009 BKN019 OVC080 12/10 A3019 RMK SF3SC4AC1 SLP242

CYQF;2009-08-05 22:00;CYQF 052200Z 12007KT 5SM -RA BR SCT008 OVC020 12/10 A3018 RMK SF3SC5 SLP237

CYQF;2009-08-05 23:00;CYQF 052300Z 09005KT 6SM -RA BR SCT007 OVC020 12/11 A3015 RMK SF4SC4 SLP230

CYQF;2009-08-05 23:37;CYQF 052337Z 07005KT 6SM -RA BR BKN007 OVC020 RMK SF6SC2

CYQF;2009-08-06 00:00;CYQF 060000Z 09006KT 5SM -RA BR BKN008 OVC020 12/11 A3014 RMK SF6SC2 SLP223

CYQF;2009-08-06 01:00;CYQF 060100Z 08004KT 4SM -DZ BR BKN007 OVC020 11/10 A3013 RMK SF6SC2 SLP220

CYQF;2009-08-06 02:00;CYQF 060200Z 08003KT 4SM -DZ BR BKN006 OVC020 12/11 A3011 RMK ST6SC2 CIG RAG VSBY NW-NE 2 SLP215

CYQF;2009-08-06 03:00;CYQF 060300Z 07005KT 3SM BR BKN006 OVC020 11/10 A3009 RMK ST6SC2 CIG RAG SLP207

CYQF;2009-08-06 04:00;CYQF 060400Z 07005KT 6SM BR BKN007 OVC020 11/10 A3010 RMK ST6SC2 CIG RAG SLP209

CYQF;2009-08-06 05:00;CYQF 060500Z 09003KT 4SM -DZ BR OVC005 11/11 A3009 RMK ST8 CIG RAG SLP207

CYQF;2009-08-06 06:00;CYQF 060600Z 14010KT 3SM -RA BR OVC005 12/10 A3007 RMK ST8 CIG RAG SLP200

CYQF;2009-08-06 06:41;CYQF 060641Z 11005KT 8SM SCT005 OVC012 RMK SF3SC5

CYQF;2009-08-06 07:00;CYQF 060700Z 11005KT 10SM FEW005 BKN015 OVC040 11/10 A3004 RMK SF2SC2SC3 SLP190

CYQF;2009-08-06 07:41;CYQF 060741Z 10003KT 10SM FEW005 OVC014 RMK SF2SC6

CYQF;2009-08-06 08:00;CYQF 060800Z 08003KT 10SM FEW005 OVC014 11/10 A3004 RMK SF2SC6 SLP188

CYQF;2009-08-06 09:00;CYQF 060900Z 00000KT 10SM FEW005 OVC011 11/10 A3004 RMK SF2SC6 SLP186

CYQF;2009-08-06 10:00;CYQF 061000Z 00000KT 10SM OVC012 11/10 A3002 RMK ST8 SLP180

CYQF;2009-08-06 11:00;CYQF 061100Z 00000KT 10SM OVC010 11/10 A3000 RMK ST8 SLP175

CYQF;2009-08-06 12:00;CYQF 061200Z 00000KT 8SM OVC012 11/10 A2999 RMK ST8 SLP170

CYQF;2009-08-06 13:00;CYQF 061300Z 00000KT 8SM OVC014 11/10 A2999 RMK ST8 SLP169

CYQF;2009-08-06 14:00;CYQF 061400Z 33002KT 8SM FEW005 OVC013 11/10 A2999 RMK SF2ST6 BR SLP170

CYQF;2009-08-06 15:00;CYQF 061500Z 00000KT 5SM BR SCT004 OVC012 12/11 A2999 RMK SF4SC4 SLP170

CYQF;2009-08-06 16:00;CYQF 061600Z 32003KT 3SM BR BKN005 OVC012 13/11 A2998 RMK SC6SC2 SLP168

CYQF;2009-08-06 17:00;CYQF 061700Z 32004KT 6SM BR BKN005 OVC012 14/11 A2998 RMK SC6SC2 SLP166

CYQF;2009-08-06 17:54;CYQF 061754Z 33005KT 8SM BKN012 OVC025 RMK CU6SC2

CYQF;2009-08-06 18:00;CYQF 061800Z 32006KT 8SM BKN012 OVC025 15/12 A2997 RMK CU6SC2 SLP161

CYQF;2009-08-06 19:00;CYQF 061900Z 34006KT 12SM BKN014 BKN025 16/11 A2997 RMK CU6SC1 SLP159

CYQF;2009-08-06 20:00;CYQF 062000Z 36007KT 15SM BKN015 BKN080 16/11 A2996 RMK CU6AC1 SLP156

CYQF;2009-08-06 21:00;CYQF 062100Z 36007KT 15SM BKN020 BKN080 16/11 A2996 RMK CU6AC1 SLP155

CYQF;2009-08-06 22:00;CYQF 062200Z 04005KT 15SM BKN025 BKN080 17/11 A2996 RMK CU5AC1 SLP156

CYQF;2009-08-06 23:00;CYQF 062300Z 05006KT 15SM BKN025 17/11 A2996 RMK CU5 SLP154

CYQF;2009-08-07 00:00;CYQF 070000Z 05004KT 15SM SCT025 17/10 A2995 RMK CU3 SLP151

CYQF;2009-08-07 01:00;CYQF 070100Z 03005KT 15SM FEW025 FEW100 17/10 A2995 RMK CU1AC1 TR AC SLP151

CYQF;2009-08-07 02:00;CYQF 070200Z 36003KT 15SM FEW025 FEW090 17/10 A2995 RMK CU1AC1 SLP149

CYQF;2009-08-07 03:00;CYQF 070300Z 35002KT 15SM FEW025 FEW090 14/10 A2995 RMK CU1AC1 OBS TAKEN +09 SLP154

CYQF;2009-08-07 04:00;CYQF 070400Z 33002KT 15SM FEW025 FEW090 12/09 A2996 RMK SC1AC1 SLP156

CYQF;2009-08-07 05:00;CYQF 070500Z 32002KT 15SM FEW090 11/08 A2996 RMK AC2 SLP158

CYQF;2009-08-07 06:00;CYQF 070600Z 00000KT 15SM FEW090 09/07 A2996 RMK AC1 SLP160

CYQF;2009-08-07 07:00;CYQF 070700Z 18004KT 5SM BR SKC 08/07 A2997 RMK SLP163

CYQF;2009-08-07 07:10;CYQF 070710Z 18003KT 2SM BR SKC

CYQF;2009-08-07 08:00;CYQF 070800Z 23003KT 1SM BR SKC 06/05 A2997 RMK SLP162

CYQF;2009-08-07 09:00;CYQF 070900Z 00000KT 2SM BR SKC 07/06 A2996 RMK SLP160

CYQF;2009-08-07 10:00;CYQF 071000Z 00000KT 1SM BR SKC 04/04 A2995 RMK FG1 SLP157

CYQF;2009-08-07 11:00;CYQF 071100Z 19003KT 1SM BR SKC 04/04 A2995 RMK FG1 SLP156

CYQF;2009-08-07 11:39;CYQF 071139Z 00000KT 1/2SM FG SKC RMK FG2

CYQF;2009-08-07 11:49;CYQF 071149Z 00000KT 1/4SM FG SKC RMK FG3

CYQF;2009-08-07 12:00;CYQF 071200Z 27004KT 1/8SM FG SKC 05/04 A2995 RMK FG5 SLP158

CYQF;2009-08-07 13:00;CYQF 071300Z 00000KT 1/8SM FG SKC 05/05 A2996 RMK FG6 SLP162

CYQF;2009-08-07 14:00;CYQF 071400Z 00000KT 1/8SM FG SKC 06/06 A2998 RMK FG7 SLP167

CYQF;2009-08-07 14:40;CYQF 071440Z 00000KT 0SM FG VV002 RMK FG8

CYQF;2009-08-07 15:00;CYQF 071500Z 00000KT 0SM FG VV002 08/08 A2999 RMK FG8 SLP170

CYQF;2009-08-07 15:32;CYQF 071532Z 00000KT 1/8SM FG VV002 RMK FG8

CYQF;2009-08-07 15:45;CYQF 071545Z 00000KT 1/4SM FG OVC004 RMK FG7SF1

CYQF;2009-08-07 16:00;CYQF 071600Z 00000KT 1/2SM FG OVC004 10/10 A2999 RMK FG6SF1 SLP172

CYQF;2009-08-07 16:27;CYQF 071627Z 18003KT 1SM BR OVC003 RMK FG5SF3

CYQF;2009-08-07 16:46;CYQF 071646Z 00000KT 1 1/2SM BR BKN003 RMK FG2CF5 FEW CU

CYQF;2009-08-07 17:00;CYQF 071700Z 00000KT 2SM BR BKN005 12/12 A3000 RMK FG2CF4 SLP174

CYQF;2009-08-07 17:47;CYQF 071747Z 30004KT 10SM BKN012 RMK CU6 BR

CYQF;2009-08-07 18:00;CYQF 071800Z 00000KT 12SM BKN012 15/10 A3000 RMK CU6 SLP173

CYQF;2009-08-07 19:00;CYQF 071900Z 30003KT 15SM BKN024 16/10 A3000 RMK CU5 SLP172

CYQF;2009-08-07 20:00;CYQF 072000Z 35003KT 15SM BKN032 18/10 A2999 RMK CU6 SLP170

CYQF;2009-08-07 21:00;CYQF 072100Z 30002KT 15SM SCT035 18/09 A2999 RMK CU4 SLP169

CYQF;2009-08-07 22:00;CYQF 072200Z 00000KT 15SM SCT036 BKN080 18/09 A2998 RMK CU4AC1 FEW MDT CU SLP167

CYQF;2009-08-07 23:00;CYQF 072300Z 08005KT 15SM SCT030 19/12 A2998 RMK CU4 SLP167

CYQF;2009-08-08 00:00;CYQF 080000Z 06004KT 15SM SCT030 19/11 A2998 RMK CU4 SLP165

CYQF;2009-08-08 01:00;CYQF 080100Z 11006KT 15SM FEW035 19/10 A2998 RMK CU2 SLP167

CYQF;2009-08-08 02:00;CYQF 080200Z 12005KT 15SM FEW030 18/11 A2998 RMK CU1 SLP167

CYQF;2009-08-08 03:00;CYQF 080300Z 14003KT 15SM SKC 16/11 A2999 RMK SLP169

CYQF;2009-08-08 04:00;CYQF 080400Z 00000KT 15SM SKC 13/10 A3000 RMK SLP172

CYQF;2009-08-08 05:00;CYQF 080500Z 00000KT 15SM SKC 10/09 A3000 RMK SLP171

CYQF;2009-08-08 06:00;CYQF 080600Z 00000KT 15SM SKC 09/08 A3000 RMK SLP172

CYQF;2009-08-08 07:00;CYQF 080700Z 16003KT 15SM SKC 09/08 A2999 RMK SLP171

CYQF;2009-08-08 08:00;CYQF 080800Z 00000KT 15SM SKC 09/07 A2999 RMK SLP169

CYQF;2009-08-08 09:00;CYQF 080900Z 00000KT 15SM SKC 09/07 A2998 RMK SLP162

CYQF;2009-08-08 10:00;CYQF 081000Z 00000KT 15SM SKC 09/08 A2996 RMK SLP158

CYQF;2009-08-08 11:00;CYQF 081100Z 00000KT 15SM MIFG SKC 08/07 A2996 RMK SLP157

CYQF;2009-08-08 11:39;CYQF 081139Z 00000KT 6SM BR SKC

CYQF;2009-08-08 12:00;CYQF 081200Z 00000KT 6SM BR SKC 09/08 A2996 RMK SLP154

CYQF;2009-08-08 13:00;CYQF 081300Z 00000KT 10SM MIFG SKC 08/08 A2996 RMK SLP155

CYQF;2009-08-08 14:00;CYQF 081400Z 18005KT 10SM SKC 11/09 A2997 RMK SLP157

CYQF;2009-08-08 15:00;CYQF 081500Z 17005KT 15SM SKC 14/11 A2995 RMK SLP150

CYQF;2009-08-08 16:00;CYQF 081600Z 19007KT 15SM SKC 17/11 A2995 RMK SLP148

CYQF;2009-08-08 17:00;CYQF 081700Z 17010KT 15SM SKC 19/10 A2995 RMK SLP149

CYQF;2009-08-08 18:00;CYQF 081800Z 17010KT 15SM SKC 20/10 A2995 RMK SLP149

CYQF;2009-08-08 19:00;CYQF 081900Z 15012KT 15SM SKC 21/11 A2994 RMK SLP145

CYQF;2009-08-08 20:00;CYQF 082000Z 16007KT 15SM SKC 22/11 A2993 RMK SLP143

CYQF;2009-08-08 21:00;CYQF 082100Z 15007KT 15SM SKC 23/10 A2992 RMK SLP138

CYQF;2009-08-08 22:00;CYQF 082200Z 18005KT 15SM SKC 23/10 A2991 RMK SLP134

CYQF;2009-08-08 23:00;CYQF 082300Z 16006KT 15SM SKC 24/09 A2990 RMK SLP131

CYQF;2009-08-09 00:00;CYQF 090000Z 19004KT 15SM SKC 23/10 A2990 RMK SLP128

CYQF;2009-08-09 01:00;CYQF 090100Z 17005KT 15SM SKC 23/11 A2989 RMK SLP127

CYQF;2009-08-09 02:00;CYQF 090200Z 19003KT 15SM FEW250 21/13 A2990 RMK CI1 SLP130

CYQF;2009-08-09 03:00;CYQF 090300Z 20003KT 15SM FEW100 FEW250 18/13 A2991 RMK ACC1CI1 ACC SW-NW CI TR SLP133

CYQF;2009-08-09 04:00;CYQF 090400Z 18005KT 15SM SCT100 SCT250 16/12 A2992 RMK AC3CI1 ACC ASOCTD CI TR SLP136

CYQF;2009-08-09 05:00;CYQF 090500Z 20003KT 15SM FEW250 13/10 A2992 RMK CI1 SLP136

CYQF;2009-08-09 06:00;CYQF 090600Z 16005KT 15SM FEW250 14/10 A2992 RMK CI1 SLP134

CYQF;2009-08-09 07:00;CYQF 090700Z 16003KT 15SM BKN120 14/10 A2992 RMK AC5 SLP134

CYQF;2009-08-09 08:00;CYQF 090800Z 17003KT 15SM BKN120 13/11 A2992 RMK AC7 SLP133

CYQF;2009-08-09 09:00;CYQF 090900Z 20004KT 15SM BKN120 12/11 A2991 RMK AC5 SLP129

CYQF;2009-08-09 10:00;CYQF 091000Z 00000KT 15SM BKN120 12/11 A2991 RMK AC6 SLP130

CYQF;2009-08-09 11:00;CYQF 091100Z 00000KT 15SM BKN120 12/11 A2993 RMK AC6 SLP136

CYQF;2009-08-09 12:00;CYQF 091200Z 04004KT 15SM BKN120 13/11 A2994 RMK AC6 SLP137

CYQF;2009-08-09 13:00;CYQF 091300Z 00000KT 15SM BKN080 13/11 A2993 RMK AC6 VIRGA SLP136

CYQF;2009-08-09 13:24;CYQF 091324Z 27004KT 15SM -SHRA FEW040 BKN080 OVC250 RMK SC2AC3CI2

CYQF;2009-08-09 13:50;CYQF 091350Z 27004KT 15SM FEW040 BKN080 OVC120 RMK SC2AC3AC2

CYQF;2009-08-09 14:00;CYQF 091400Z 25003KT 15SM FEW040 SCT080 OVC120 14/12 A2996 RMK SC2AC2AC2 SLP145

CYQF;2009-08-09 15:00;CYQF 091500Z 27002KT 15SM BKN100 16/13 A2997 RMK AC5 ACC ASOCTD SLP153

CYQF;2009-08-09 16:00;CYQF 091600Z 34004KT 15SM SCT120 18/13 A2997 RMK AC2 SLP153

CYQF;2009-08-09 17:00;CYQF 091700Z 33004KT 15SM BKN120 20/12 A2997 RMK AC3 SLP153

CYQF;2009-08-09 18:00;CYQF 091800Z 35004KT 15SM FEW120 BKN250 21/12 A2997 RMK AC2CI1 SLP150

CYQF;2009-08-09 19:00;CYQF 091900Z 33003KT 15SM SCT120 BKN250 21/13 A2996 RMK AC2CI1 SLP149

CYQF;2009-08-09 20:00;CYQF 092000Z 01004KT 15SM FEW040 SCT120 23/12 A2995 RMK CU2AC2 SLP145

CYQF;2009-08-09 21:00;CYQF 092100Z 00000KT 15SM FEW050 FEW120 24/13 A2995 RMK CU1AC2 SLP141

CYQF;2009-08-09 22:00;CYQF 092200Z 30004KT 15SM FEW050 FEW120 SCT270 23/12 A2994 RMK CU1AC1CI1 SLP138

CYQF;2009-08-09 23:00;CYQF 092300Z 21005KT 15SM FEW050 SCT270 24/12 A2994 RMK CU2CI2 SLP138

CYQF;2009-08-10 00:00;CYQF 100000Z 16005KT 15SM FEW050CB FEW100 BKN250 24/11 A2992 RMK CB2AC1CI1 CB SE SW SLP131

CYQF;2009-08-10 01:00;CYQF 100100Z 16006KT 15SM FEW050 FEW100 BKN250 23/10 A2992 RMK CU1AC1CI1 AC TR CB ASOCTD SLP130

CYQF;2009-08-10 02:00;CYQF 100200Z 21005KT 10SM FEW100 BKN250 20/12 A2991 RMK AC1CI1 HZ SLP128

CYQF;2009-08-10 03:00;CYQF 100300Z 00000KT 12SM FEW100 SCT250 19/10 A2990 RMK AC1CI1 HZ SLP126

CYQF;2009-08-10 04:00;CYQF 100400Z 19006KT 15SM FEW100 FEW250 14/11 A2991 RMK AC1CI0 SLP129

CYQF;2009-08-10 05:00;CYQF 100500Z 18003KT 15SM FEW250 13/10 A2990 RMK CI1 SLP126

CYQF;2009-08-10 06:00;CYQF 100600Z 00000KT 15SM FEW250 12/10 A2989 RMK CI1 SLP124

CYQF;2009-08-10 07:00;CYQF 100700Z 00000KT 15SM SCT250 12/09 A2988 RMK CI1 SLP122

CYQF;2009-08-10 08:00;CYQF 100800Z 18003KT 15SM FEW250 11/09 A2988 RMK CI1 SLP121

CYQF;2009-08-10 09:00;CYQF 100900Z 18003KT 15SM SCT250 10/08 A2987 RMK CI1 SLP118

CYQF;2009-08-10 10:00;CYQF 101000Z 19003KT 15SM SKC 09/07 A2987 RMK SLP117

CYQF;2009-08-10 11:00;CYQF 101100Z 00000KT 15SM FEW250 08/08 A2985 RMK CI1 SLP113

CYQF;2009-08-10 12:00;CYQF 101200Z 18003KT 12SM MIFG FEW100 BKN250 08/07 A2985 RMK AC1CI2 SLP114

CYQF;2009-08-10 13:00;CYQF 101300Z 18003KT 12SM MIFG FEW100 BKN250 09/08 A2985 RMK AC2CI2 SLP111

CYQF;2009-08-10 14:00;CYQF 101400Z 17004KT 12SM SCT100 BKN250 11/09 A2985 RMK AC2CI2 SLP112

CYQF;2009-08-10 15:00;CYQF 101500Z 20003KT 12SM SCT100 BKN250 14/11 A2984 RMK AC2CI2 SLP107

CYQF;2009-08-10 16:00;CYQF 101600Z 17005KT 12SM SCT100 BKN250 18/12 A2982 RMK AC2CI2 SLP102

CYQF;2009-08-10 17:00;CYQF 101700Z 18005KT 12SM SCT100 OVC250 21/13 A2981 RMK AC3CI2 SLP099

CYQF;2009-08-10 18:00;CYQF 101800Z 18004KT 12SM BKN090 OVC250 23/14 A2980 RMK AC5CI2 SLP092

CYQF;2009-08-10 19:00;CYQF 101900Z 21005KT 12SM FEW050 BKN090 BKN250 23/14 A2980 RMK CU1AC5CI2 SLP091

CYQF;2009-08-10 20:00;CYQF 102000Z 20005KT 15SM FEW050 BKN090 BKN250 22/13 A2979 RMK CU1AC5CI2 SLP090

CYQF;2009-08-10 21:00;CYQF 102100Z 20007KT 15SM FEW050 BKN090 BKN250 23/12 A2979 RMK CU1AC4CI1 SLP092

CYQF;2009-08-10 22:00;CYQF 102200Z 19008KT 15SM SCT090 BKN250 25/11 A2978 RMK AC3CI0 SLP089

CYQF;2009-08-10 23:00;CYQF 102300Z 15004KT 15SM BKN100 BKN250 24/12 A2978 RMK AC6CI0 SLP088

CYQF;2009-08-11 00:00;CYQF 110000Z 16004KT 15SM FEW050 BKN100 BKN250 25/14 A2977 RMK CU1AC6CI2 SLP085

CYQF;2009-08-11 01:00;CYQF 110100Z 18005KT 15SM BKN050 BKN100 BKN250 24/13 A2977 RMK CU6AC1CI1 TCU ASOCTD N SLP085

CYQF;2009-08-11 01:43;CYQF 110143Z 36010G15KT 15SM SCT050 BKN100 BKN250 RMK CU4AC2CI2 WND SHIFT 0143

CYQF;2009-08-11 02:00;CYQF 110200Z 35008KT 15SM SCT050 BKN100 BKN250 20/12 A2979 RMK CU3AC2CI1 SLP091

CYQF;2009-08-11 03:00;CYQF 110300Z 35004KT 15SM SCT050 SCT100 BKN250 18/13 A2980 RMK SC3AC1CI1 SLP096

CYQF;2009-08-11 04:00;CYQF 110400Z 30003KT 15SM FEW050 FEW100 BKN250 15/11 A2982 RMK SC1AC2CI0 SLP102

CYQF;2009-08-11 05:00;CYQF 110500Z 30003KT 15SM FEW100 FEW250 14/11 A2984 RMK AC1CI0 SLP107

CYQF;2009-08-11 06:00;CYQF 110600Z 19002KT 15SM FEW100 SCT250 12/10 A2984 RMK AC2CI1 OBS TAKEN +22 SLP106

CYQF;2009-08-11 07:00;CYQF 110700Z 00000KT 15SM FEW100 BKN250 12/10 A2984 RMK AC2CI1 OBS TAKEN +05 SLP107

CYQF;2009-08-11 08:00;CYQF 110800Z 27004KT 15SM FEW100 BKN250 11/10 A2985 RMK AC2CI1 SLP108

CYQF;2009-08-11 09:00;CYQF 110900Z 32002KT 15SM BKN100 BKN250 12/10 A2984 RMK AC5CI1 SLP105

CYQF;2009-08-11 10:00;CYQF 111000Z 17002KT 15SM BKN090 BKN250 12/10 A2983 RMK AC5CI1 OBS TAKEN +05 SLP103

CYQF;2009-08-11 10:53;CYQF 111053Z 19005KT 15SM -SHRA BKN090 BKN250 RMK AC6CI1

CYQF;2009-08-11 11:00;CYQF 111100Z 20003KT 15SM -SHRA BKN090 BKN250 13/11 A2985 RMK AC6CI1 SLP108

CYQF;2009-08-11 11:15;CYQF 111115Z 29003KT 15SM BKN090 RMK AC6

CYQF;2009-08-11 12:00;CYQF 111200Z 27003KT 15SM BKN080 13/11 A2985 RMK AC6 SLP105

CYQF;2009-08-11 13:00;CYQF 111300Z 00000KT 15SM BKN080 BKN250 13/11 A2987 RMK AC5CI1 SLP111

CYQF;2009-08-11 14:00;CYQF 111400Z 30004KT 15SM SCT080 BKN250 14/10 A2990 RMK AC4CI1 SLP122

CYQF;2009-08-11 15:00;CYQF 111500Z 01006KT 15SM FEW060 BKN090 BKN250 14/10 A2991 RMK SC2AC3CI2 SLP133

CYQF;2009-08-11 15:51;CYQF 111551Z 35005KT 15SM -SHRA SCT060 BKN100 BKN250 RMK SC2AC3CI2

CYQF;2009-08-11 16:00;CYQF 111600Z 35005KT 15SM -SHRA SCT060 BKN100 BKN250 14/11 A2991 RMK SC2AC3CI2 SLP134

CYQF;2009-08-11 17:00;CYQF 111700Z 00000KT 10SM -SHRA FEW030 BKN060 OVC100 13/11 A2992 RMK SF1SC5AC2 VIS S 5 SLP137

CYQF;2009-08-11 18:00;CYQF 111800Z 00000KT 15SM -SHRA FEW030 BKN060 BKN100 14/12 A2991 RMK SF2SC4AC2 SLP138

CYQF;2009-08-11 18:48;CYQF 111848Z 31002KT 15SM FEW030 SCT060 BKN090 RMK SF1SC3AC3

CYQF;2009-08-11 19:00;CYQF 111900Z 28002KT 15SM FEW030 SCT060 BKN090 15/12 A2990 RMK SF1SC3AC3 SLP136

CYQF;2009-08-11 20:00;CYQF 112000Z 00000KT 15SM FEW020 SCT060 BKN090 16/12 A2990 RMK SF1SC3AC3 SLP136

CYQF;2009-08-11 21:00;CYQF 112100Z 28003KT 15SM FEW020 FEW060 SCT090 BKN250 18/12 A2990 RMK SF1SC2AC2CI1 SLP130

CYQF;2009-08-11 22:00;CYQF 112200Z 19004KT 15SM FEW020 BKN100 BKN250 18/13 A2990 RMK CU1AC3CI4 SLP131

CYQF;2009-08-11 23:00;CYQF 112300Z 17004KT 15SM FEW020 FEW100 BKN250 19/11 A2989 RMK CU1AC1CI4 SLP127

CYQF;2009-08-12 00:00;CYQF 120000Z 18008KT 15SM FEW025 SCT250 20/12 A2987 RMK CU1CI3 CB DIST SE NW SLP118

CYQF;2009-08-12 01:00;CYQF 120100Z 17006KT 15SM FEW030CB FEW250 20/12 A2986 RMK CB1CI1 CB W-N SLP116

CYQF;2009-08-12 02:00;CYQF 120200Z 16004KT 15SM FEW030CB FEW250 19/13 A2986 RMK CB2CI1 CB NW-N TCU SW-NW SLP114

CYQF;2009-08-12 02:22;CYQF 120222Z 34015G20KT 15SM FEW030 FEW250 RMK SC2CI1 WND SHFT 0221 CB ASOCTD N

CYQF;2009-08-12 03:00;CYQF 120300Z 03010G15KT 15SM SCT030 14/09 A2989 RMK CU3 OBS TAKEN +05 WND SHFT 0256 CB ASOCTD SLP131

CYQF;2009-08-12 03:26;CYQF 120326Z 03008KT 15SM TS BKN025CB RMK CB6 LGTICCC

CYQF;2009-08-12 03:36;CYQF 120336Z 30010G18KT 15SM -TSRA BKN020CB RMK CB7 LGTICCC WND SHFT 0335

CYQF;2009-08-12 03:40;CYQF 120340Z 29025G35KT 10SM TSRA BKN020CB RMK CB7 LGTICCC HVY SHR N

CYQF;2009-08-12 03:45;CYQF 120345Z 04010G15KT 10SM TSRAGR BKN020CB RMK CB7 HAIL 7MM DIAM

CYQF;2009-08-12 03:50;CYQF 120350Z 03010KT 12SM -TSRA BKN020CB RMK CB6 LTNG HVY SHWR N

CYQF;2009-08-12 04:00;CYQF 120400Z CCA 36006KT 15SM TS SCT020CB 13/10 A2993 RERA RMK CB4 LTNG N SLP142

CYQF;2009-08-12 04:19;CYQF 120419Z 35007KT 15SM FEW020CB RETS RMK CB2 FQT LTNG NE

CYQF;2009-08-12 05:00;CYQF 120500Z 36003KT 15SM SKC 11/10 A2994 RMK RETS SLP145

CYQF;2009-08-12 06:00;CYQF 120600Z 25003KT 15SM SKC 08/08 A2995 RMK SLP159

CYQF;2009-08-12 07:00;CYQF 120700Z 28005KT 15SM FEW090 09/09 A2995 RMK AC1 SLP158

CYQF;2009-08-12 08:00;CYQF 120800Z 00000KT 15SM FEW090 10/08 A2996 RMK AC1 SLP161

CYQF;2009-08-12 09:00;CYQF 120900Z 19004KT 15SM FEW090 07/06 A2996 RMK AC1 SLP158

CYQF;2009-08-12 10:00;CYQF 121000Z 21002KT 15SM FEW090 07/07 A2995 RMK AC1 SLP156

CYQF;2009-08-12 11:00;CYQF 121100Z 00000KT 15SM FEW090 FEW250 07/06 A2996 RMK AC1CI0 SLP159

CYQF;2009-08-12 12:00;CYQF 121200Z 00000KT 15SM FEW060 FEW100 SCT250 07/06 A2997 RMK SC1AC1CI1 OBS TAKEN -05 SLP159

CYQF;2009-08-12 13:00;CYQF 121300Z 30004KT 15SM FEW060 FEW100 FEW250 07/06 A2996 RMK SC1AC1CI0 SLP158

CYQF;2009-08-12 14:00;CYQF 121400Z 00000KT 15SM FEW060 FEW100 FEW250 08/07 A2997 RMK SC1AC1CI0 SLP161

CYQF;2009-08-12 15:00;CYQF 121500Z 23003KT 15SM FEW060 FEW100 FEW260 12/09 A2997 RMK CU1AC1CI1 SLP161

CYQF;2009-08-12 16:00;CYQF 121600Z 18004KT 15SM FEW060 FEW100 SCT260 15/11 A2996 RMK CU1ACC2CI0 SLP158

CYQF;2009-08-12 17:00;CYQF 121700Z 19004KT 15SM FEW050 SCT260 18/09 A2995 RMK CU1CI2 SLP156

CYQF;2009-08-12 18:00;CYQF 121800Z 11003KT 15SM FEW050 BKN260 18/09 A2995 RMK CU1CI2 SLP153

CYQF;2009-08-12 19:00;CYQF 121900Z 07004KT 15SM FEW050 SCT090 BKN270 19/10 A2995 RMK CU2AC1CI0 SLP151

CYQF;2009-08-12 20:00;CYQF 122000Z 09003KT 15SM FEW050 FEW090 BKN270 20/09 A2993 RMK CU2AC1CI1 SLP147

CYQF;2009-08-12 21:00;CYQF 122100Z 00000KT 15SM FEW055TCU FEW090 BKN270 21/07 A2992 RMK TCU2AC1CI2 CB DIST W SLP141

CYQF;2009-08-12 22:00;CYQF 122200Z 00000KT 15SM FEW055 SCT090 BKN250 21/07 A2991 RMK CU2AC1CI0 CB ASOCTD SLP138

CYQF;2009-08-12 22:53;CYQF 122253Z 36016G31KT 15SM BKN055TCU BKN100 BKN250 RMK TCU6AC1CI1 CB ASOCTD

CYQF;2009-08-12 23:00;CYQF 122300Z 35017G25KT 15SM BKN055TCU BKN100 BKN250 17/08 A2993 RMK TCU6AC1CI1 CB ASOCTD PRESRR SLP145

CYQF;2009-08-13 00:00;CYQF 130000Z 36011G16KT 15SM FEW020 BKN050CB BKN250 16/09 A2995 RMK SC1CB4CI1 OCNL LTNG NW SLP156

CYQF;2009-08-13 01:00;CYQF 130100Z 03010KT 15SM SCT050CB BKN250 15/08 A2995 RMK CB4CI2 SLP157

CYQF;2009-08-13 02:00;CYQF 130200Z 03005KT 15SM FEW050CB SCT100 BKN250 15/08 A2995 RMK CB2AC2CI2 SLP156

CYQF;2009-08-13 03:00;CYQF 130300Z 34005KT 15SM FEW050CB BKN100 BKN250 13/09 A2996 RMK CB2AC3CI2 SLP159

CYQF;2009-08-13 03:28;CYQF 130328Z 36007KT 15SM -TSRA SCT050CB BKN100 RMK CB4AC3

CYQF;2009-08-13 04:00;CYQF 130400Z 25003KT 15SM BKN050CB BKN100 12/10 A3001 RETS RMK CB5AC2 LTG E-SE SLP175

CYQF;2009-08-13 04:09;CYQF 130409Z 31007KT 12SM -SHRA BKN050CB OVC100 RMK CB5AC3

CYQF;2009-08-13 04:49;CYQF 130449Z 32006KT 15SM FEW050CB BKN100 RMK CB2AC4

CYQF;2009-08-13 05:00;CYQF 130500Z 33005KT 15SM FEW050CB BKN100 12/10 A3001 RMK CB2AC5 SLP174

CYQF;2009-08-13 05:42;CYQF 130542Z 29005KT 15SM -SHRA FEW050 BKN100 RMK SC2AC5

CYQF;2009-08-13 06:00;CYQF 130600Z 29004KT 15SM -SHRA FEW050 BKN100 12/10 A3003 RMK SC2AC5 SLP174

CYQF;2009-08-13 07:00;CYQF 130700Z 27005KT 15SM -SHRA SCT050 BKN100 11/09 A3002 RMK SC3AC3 SLP173

CYQF;2009-08-13 08:00;CYQF 130800Z 29005KT 15SM -SHRA SCT050 BKN100 11/09 A3003 RMK SC3AC3 SLP174

CYQF;2009-08-13 08:48;CYQF 130848Z 29006KT 15SM FEW050 BKN100 RMK SC2AC5

CYQF;2009-08-13 09:00;CYQF 130900Z 30005KT 15SM FEW050 BKN100 11/08 A3002 RMK SC2AC5 SLP172

CYQF;2009-08-13 10:00;CYQF 131000Z 28005KT 15SM FEW050 BKN100 10/08 A3002 RMK SC2AC5 SLP172

CYQF;2009-08-13 11:00;CYQF 131100Z 32004KT 15SM FEW050 BKN100 10/08 A3004 RMK SC2AC4 SLP178

CYQF;2009-08-13 12:00;CYQF 131200Z 35005KT 15SM FEW040 BKN090 10/08 A3005 RMK SC2AC5 OBS TAKEN -05 SLP187

CYQF;2009-08-13 13:00;CYQF 131300Z 34004KT 15SM FEW040 BKN090 09/07 A3006 RMK SC2AC5 SLP192

CYQF;2009-08-13 14:00;CYQF 131400Z 33004KT 15SM FEW040 BKN090 10/07 A3008 RMK SC2AC6 SLP197

CYQF;2009-08-13 15:00;CYQF 131500Z 34003KT 15SM FEW010 BKN040 BKN090 11/08 A3009 RMK CF2SC3AC2 VIRGA SLP204

CYQF;2009-08-13 15:24;CYQF 131524Z 03005KT 15SM FEW008 BKN018 BKN040 RMK CF2SC3SC2 VIRGA

CYQF;2009-08-13 15:40;CYQF 131540Z 03004KT 15SM FEW007 BKN012 BKN040 RMK CF2SC4SC1 CIG RAG

CYQF;2009-08-13 16:00;CYQF 131600Z 36005KT 15SM FEW007 BKN014 BKN040 11/07 A3010 RMK CF2SC3SC2 CIG RAG SLP207

CYQF;2009-08-13 17:00;CYQF 131700Z 36004KT 15SM FEW008 BKN016 BKN050 12/07 A3010 RMK CF2SC3SC2 CIG RAG SLP207

CYQF;2009-08-13 18:00;CYQF 131800Z 33005KT 15SM FEW008 BKN016 BKN050 12/08 A3011 RMK CF1SC4SC2 CIG RAG SLP209

CYQF;2009-08-13 19:00;CYQF 131900Z 32003KT 15SM BKN018 OVC050 12/08 A3011 RMK SC6SC2 SLP210

CYQF;2009-08-13 20:00;CYQF 132000Z 05004KT 15SM BKN020 BKN050 13/09 A3010 RMK SC5SC2 SLP206

CYQF;2009-08-13 21:00;CYQF 132100Z 01004KT 15SM BKN020 BKN050 13/07 A3009 RMK SC5SC2 CU ASOCTD SLP203

CYQF;2009-08-13 22:00;CYQF 132200Z 01005KT 15SM BKN020 BKN050 BKN080 14/08 A3008 RMK CU5SC2AC1 SLP201

CYQF;2009-08-13 23:00;CYQF 132300Z 03005KT 15SM SCT020 BKN050 OVC080 13/08 A3009 RMK CU4SC3AC1 SLP202

CYQF;2009-08-14 00:00;CYQF 140000Z 03004KT 15SM FEW020 BKN050 OVC080 13/08 A3009 RMK SC2SC4AC2 CU ASOCTD SLP206

CYQF;2009-08-14 01:00;CYQF 140100Z 02004KT 15SM FEW020 BKN050 OVC080 13/08 A3008 RMK SC2SC4AC2 SLP202

CYQF;2009-08-14 02:00;CYQF 140200Z 06003KT 15SM FEW030 BKN050 BKN100 13/08 A3008 RMK SC2SC3AC2 SLP201

CYQF;2009-08-14 03:00;CYQF 140300Z 02003KT 15SM SCT025 BKN080 OVC250 12/09 A3008 RMK SC3AC3CI2 SLP202

CYQF;2009-08-14 04:00;CYQF 140400Z 00000KT 15SM SCT025 BKN070 OVC250 12/09 A3009 RMK SC3AC3CI2 SLP204

CYQF;2009-08-14 04:26;CYQF 140426Z 00000KT 15SM -SHRA SCT025 BKN070 OVC250 RMK SC4AC3CI1

CYQF;2009-08-14 05:00;CYQF 140500Z 35002KT 12SM -RA FEW030 OVC100 11/09 A3008 RMK SC2AC6 SLP202

CYQF;2009-08-14 06:00;CYQF 140600Z CCA 00000KT 12SM -RA SCT030 OVC100 11/09 A3008 RMK SC3AC5 SLP202

CYQF;2009-08-14 07:00;CYQF 140700Z 05004KT 10SM -RA BKN030 OVC080 10/09 A3008 RMK SC6AC2 SLP201

CYQF;2009-08-14 08:00;CYQF 140800Z 04004KT 10SM -RA OVC025 10/09 A3007 RMK SC8 SLP198

CYQF;2009-08-14 09:00;CYQF 140900Z 05004KT 15SM OVC025 10/09 A3006 RMK SC8 SLP194

CYQF;2009-08-14 10:00;CYQF 141000Z 04006KT 10SM -RA SCT025 OVC090 10/09 A3004 RMK SC3AC5 SLP189

CYQF;2009-08-14 11:00;CYQF 141100Z 35004KT 10SM -RA SCT030 OVC090 09/09 A3004 RMK SC3AC5 SLP188

CYQF;2009-08-14 12:00;CYQF 141200Z 01005KT 10SM -RA BKN020 OVC080 09/09 A3004 RMK SC6AC2 SLP188

CYQF;2009-08-14 12:38;CYQF 141238Z 01007KT 2SM -RA BR OVC011 RMK SC8

CYQF;2009-08-14 13:00;CYQF 141300Z 01008KT 2SM -RA BR OVC009 09/09 A3003 RMK SC8 SLP184

CYQF;2009-08-14 13:31;CYQF 141331Z 03010KT 1 1/2SM -RA BR SCT003 OVC006 RMK SF2SC6

CYQF;2009-08-14 13:46;CYQF 141346Z 04007KT 3SM -RA BR SCT003 OVC006 RMK SF2SC6

CYQF;2009-08-14 14:00;CYQF 141400Z 03008KT 3SM -RA BR BKN003 OVC006 09/09 A3003 RMK SF6SC2 SLP184

CYQF;2009-08-14 14:38;CYQF 141438Z 03010KT 3SM -RA BR OVC004 RMK SF8

CYQF;2009-08-14 15:00;CYQF 141500Z 03010KT 2SM -RA BR OVC004 10/09 A3003 RMK SF8 SLP185

CYQF;2009-08-14 15:47;CYQF 141547Z 02010KT 2 1/2SM BR BKN004 OVC006 RMK SF7SC1

CYQF;2009-08-14 16:00;CYQF 141600Z 04007KT 3SM BR BKN004 OVC006 10/09 A3003 RMK SF7SC1 SLP185

CYQF;2009-08-14 17:00;CYQF 141700Z 03012KT 5SM BR BKN004 OVC006 10/09 A3003 RMK SF7SC1 SLP187

CYQF;2009-08-14 17:15;CYQF 141715Z 03008KT 5SM BR OVC005 RMK SF8 CIG RAG

CYQF;2009-08-14 17:43;CYQF 141743Z 03011KT 6SM -DZ BR OVC008 RMK SC8

CYQF;2009-08-14 18:00;CYQF 141800Z 03010KT 6SM -DZ BR OVC008 10/09 A3003 RMK SC8 SLP186

CYQF;2009-08-14 19:00;CYQF 141900Z 03007KT 8SM OVC008 10/09 A3003 RMK SF8 BR CIG RAG SLP185

CYQF;2009-08-14 20:00;CYQF 142000Z 01008KT 8SM OVC011 10/09 A3002 RMK SC8 SLP184

CYQF;2009-08-14 20:49;CYQF 142049Z 01008KT 6SM BR OVC009 RMK SC8 CIG RAG

CYQF;2009-08-14 21:00;CYQF 142100Z 01010KT 5SM BR OVC009 10/09 A3004 RMK SC8 CIG RAG SLP191

CYQF;2009-08-14 21:15;CYQF 142115Z 36010KT 5SM -DZ BR OVC006 RMK SC8 CIG RAG

CYQF;2009-08-14 22:00;CYQF 142200Z CCA 36011KT 3SM -DZ BR OVC008 10/09 A3005 RMK SF8 CIG RAG SLP193

CYQF;2009-08-14 23:00;CYQF 142300Z 01011KT 6SM BR OVC008 10/08 A3005 RMK SF8 CIG RAG SLP193

CYQF;2009-08-15 00:00;CYQF 150000Z 36010KT 10SM OVC007 09/08 A3005 RMK SF8 CIG RAG BR SLP194

CYQF;2009-08-15 01:00;CYQF 150100Z 36010KT 10SM OVC008 10/08 A3004 RMK ST8 CIG RAG SLP192

CYQF;2009-08-15 02:00;CYQF 150200Z 35006KT 10SM OVC012 09/08 A3004 RMK ST8 CIG RAG SLP191

CYQF;2009-08-15 03:00;CYQF 150300Z 33005KT 10SM OVC007 09/08 A3005 RMK ST8 CIG RAG SLP195

CYQF;2009-08-15 04:00;CYQF 150400Z 35004KT 15SM OVC005 09/08 A3005 RMK ST8 CIG RAG SLP195

CYQF;2009-08-15 05:00;CYQF 150500Z 32005KT 10SM -DZ OVC005 09/09 A3004 RMK ST8 CIG RAG SLP191

CYQF;2009-08-15 06:00;CYQF 150600Z CCA 34007KT 8SM -DZ OVC005 09/09 A3003 RMK ST8 CIG RAG SLP187

CYQF;2009-08-15 07:00;CYQF 150700Z 33008KT 10SM -RA OVC005 09/09 A3001 RMK ST8 SLP183

CYQF;2009-08-15 08:00;CYQF 150800Z 34006KT 10SM -RA OVC006 09/09 A3000 RMK ST8 CIG RAG SLP179

CYQF;2009-08-15 09:00;CYQF 150900Z 36006KT 8SM -DZ OVC007 09/09 A2998 RMK ST8 CIG RAG SLP172

CYQF;2009-08-15 10:00;CYQF 151000Z 36006KT 15SM -DZ BKN007 OVC020 09/09 A2998 RMK SF6SC2 SLP171

CYQF;2009-08-15 11:00;CYQF 151100Z 36006KT 10SM -DZ BKN007 OVC020 09/09 A2998 RMK SF6SC2 SLP171

CYQF;2009-08-15 11:32;CYQF 151132Z 35004KT 15SM SCT008 BKN020 BKN080 RMK SF3SC2AC2

CYQF;2009-08-15 12:00;CYQF 151200Z 35004KT 15SM SCT008 BKN020 OVC080 08/08 A2998 RMK SF3SC2AC2 SLP172

CYQF;2009-08-15 13:00;CYQF 151300Z 33003KT 6SM BR BKN003 08/08 A2998 RMK ST7 VIS W 15 SLP174

CYQF;2009-08-15 13:44;CYQF 151344Z 34005KT 5SM -DZ BR OVC003 RMK ST8

CYQF;2009-08-15 14:00;CYQF 151400Z 35005KT 3SM BR OVC002 08/07 A2998 RMK ST8 VIS W 5 SLP174

CYQF;2009-08-15 15:00;CYQF 151500Z 35006KT 5SM BR OVC002 09/08 A2998 RMK ST8 SLP172

CYQF;2009-08-15 16:00;CYQF 151600Z 35005KT 8SM BKN008 09/08 A2998 RMK SC7 CIG RAG BR SLP172

CYQF;2009-08-15 17:00;CYQF 151700Z 35008KT 10SM BKN010 10/08 A2997 RMK SC6 CIG RAG CU ASOCTD SLP170

CYQF;2009-08-15 17:24;CYQF 151724Z 35006KT 10SM SCT010 BKN100 BKN250 RMK SC3AC2CI2

CYQF;2009-08-15 18:00;CYQF 151800Z 36006KT 12SM FEW010 BKN100 BKN250 11/08 A2997 RMK SF2AC3CI1 CU ASOCTD SLP166

CYQF;2009-08-15 19:00;CYQF 151900Z 01007KT 15SM FEW020 SCT100 BKN250 12/07 A2996 RMK CU2AC2CI2 SLP164

CYQF;2009-08-15 20:00;CYQF 152000Z 01009KT 15SM FEW035 SCT100 BKN250 14/05 A2996 RMK CU2AC2CI3 SLP164

CYQF;2009-08-15 21:00;CYQF 152100Z 03010G15KT 15SM FEW035 SCT100 BKN250 15/06 A2996 RMK CU2AC1CI2 SLP160

CYQF;2009-08-15 22:00;CYQF 152200Z 05006KT 15SM FEW035 BKN100 BKN250 15/07 A2996 RMK CU2AC3CI1 SLP160

CYQF;2009-08-15 23:00;CYQF 152300Z 03009KT 15SM FEW035 SCT100 BKN250 16/07 A2996 RMK CU2AC2CI2 VIRGA E SLP159

CYQF;2009-08-16 00:00;CYQF 160000Z 03006KT 15SM FEW035 SCT100 BKN250 16/08 A2996 RMK CU2AC2CI2 SLP159

CYQF;2009-08-16 01:00;CYQF 160100Z 09006KT 15SM FEW025 SCT100 BKN250 15/09 A2997 RMK CU1AC2CI1 SLP162

CYQF;2009-08-16 02:00;CYQF 160200Z 09004KT 15SM FEW030 SCT100 BKN250 14/09 A2998 RMK CU2AC2CI1 SLP166

CYQF;2009-08-16 03:00;CYQF 160300Z 14003KT 15SM FEW030 SCT080 BKN250 11/08 A3000 RMK CU2AC2CI2 SLP177

CYQF;2009-08-16 04:00;CYQF 160400Z 20004KT 15SM SCT080 BKN250 09/08 A3001 RMK AC3CI2 SLP181

CYQF;2009-08-16 05:00;CYQF 160500Z 18004KT 15SM FEW080 SCT250 08/07 A3001 RMK AC2CI2 SLP180

CYQF;2009-08-16 06:00;CYQF 160600Z 20004KT 15SM SCT080 BKN250 09/08 A3002 RMK AC4CI2 SLP183

CYQF;2009-08-16 07:00;CYQF 160700Z 27003KT 15SM FEW080 07/06 A3002 RMK AC2 SLP183

CYQF;2009-08-16 08:00;CYQF 160800Z 29003KT 15SM BKN080 07/07 A3001 RMK AC5 SLP182

CYQF;2009-08-16 09:00;CYQF 160900Z 30004KT 15SM SCT080 08/07 A3002 RMK AC3 SLP179

CYQF;2009-08-16 10:00;CYQF 161000Z 32005KT 15SM FEW080 09/08 A3002 RMK AC2 SLP181

CYQF;2009-08-16 11:00;CYQF 161100Z 31004KT 15SM FEW080 08/06 A3004 RMK AC2 SLP185

CYQF;2009-08-16 12:00;CYQF 161200Z 29005KT 15SM FEW080 07/06 A3004 RMK AC2 SLP187

CYQF;2009-08-16 13:00;CYQF 161300Z 31003KT 15SM FEW080 07/07 A3005 RMK AC2 ACC ASOCTD SLP191

CYQF;2009-08-16 14:00;CYQF 161400Z 00000KT 15SM FEW080 10/09 A3006 RMK AC1 SLP194

CYQF;2009-08-16 15:00;CYQF 161500Z 33004KT 15SM FEW015 FEW080 FEW150 12/10 A3006 RMK CF1AC1AC1 CF TR VIRGA W SLP194

CYQF;2009-08-16 16:00;CYQF 161600Z 35009KT 15SM FEW015 FEW100 14/10 A3006 RMK SC2AC1 SLP195

CYQF;2009-08-16 17:00;CYQF 161700Z 35007KT 15SM SCT020 15/10 A3006 RMK CU3 TCU ASOCTD SW SLP195

CYQF;2009-08-16 18:00;CYQF 161800Z 31004KT 15SM SCT020 16/09 A3006 RMK CU4 SLP194

CYQF;2009-08-16 19:00;CYQF 161900Z 29006KT 15SM BKN030TCU 16/09 A3006 RMK TCU6 SLP193

CYQF;2009-08-16 20:00;CYQF 162000Z 26010G15KT 15SM VCSH BKN025CB BKN120 16/11 A3006 RMK CB5AC2 SLP194

CYQF;2009-08-16 20:47;CYQF 162047Z 33010KT 10SM -SHRA BKN025CB BKN120 RMK CB6AC2

CYQF;2009-08-16 21:00;CYQF 162100Z 33010KT 10SM -SHRA BKN020CB BKN120 15/11 A3007 RMK CB6AC2 SLP197

CYQF;2009-08-16 21:24;CYQF 162124Z 36006KT 15SM VCSH SCT020CB BKN100 RMK CB4AC2

CYQF;2009-08-16 22:00;CYQF 162200Z 35006KT 15SM SCT035TCU BKN100 17/09 A3007 RMK TCU4AC2 SLP197

CYQF;2009-08-16 23:00;CYQF 162300Z 32004KT 15SM SCT035TCU BKN080 BKN250 18/08 A3006 RMK TCU3AC2CI1 SHS DIST W+SW SLP196

CYQF;2009-08-17 00:00;CYQF 170000Z 31004KT 15SM FEW035TCU SCT090 BKN250 17/08 A3007 RMK TCU2AC2CI1 VIRGA SW SLP197

CYQF;2009-08-17 01:00;CYQF 170100Z 31005KT 15SM FEW035 SCT090 18/09 A3006 RMK CU2AC2 FEW MDT CU E SLP195

CYQF;2009-08-17 02:00;CYQF 170200Z 00000KT 15SM FEW090 17/09 A3006 RMK AC2 OBS TAKEN +16 SLP195

CYQF;2009-08-17 03:00;CYQF 170300Z 00000KT 15SM FEW090 FEW250 13/10 A3008 RMK AC1CI0 SLP198

CYQF;2009-08-17 04:00;CYQF 170400Z 24004KT 15SM FEW250 10/08 A3008 RMK CI1 SLP200

CYQF;2009-08-17 05:00;CYQF 170500Z 24004KT 15SM SKC 10/08 A3008 RMK SLP199

CYQF;2009-08-17 06:00;CYQF 170600Z 21003KT 15SM SKC 08/07 A3008 RMK SLP199

CYQF;2009-08-17 07:00;CYQF 170700Z 21003KT 15SM SKC 07/06 A3008 RMK SLP200

CYQF;2009-08-17 08:00;CYQF 170800Z 21003KT 15SM SKC 08/07 A3008 RMK SLP200

CYQF;2009-08-17 09:00;CYQF 170900Z 00000KT 15SM FEW100 08/07 A3007 RMK AC1 SLP199

CYQF;2009-08-17 10:00;CYQF 171000Z 23004KT 15SM BKN100 08/07 A3007 RMK AC6 SLP198

CYQF;2009-08-17 11:00;CYQF 171100Z 18002KT 15SM BKN100 09/08 A3007 RMK AC7 SLP198

CYQF;2009-08-17 12:00;CYQF 171200Z 20003KT 15SM FEW100 SCT250 07/07 A3006 RMK AC1CI1 SLP192

CYQF;2009-08-17 13:00;CYQF 171300Z 23003KT 15SM BKN100 BKN250 06/05 A3006 RMK AC5CI1 SLP192

CYQF;2009-08-17 14:00;CYQF 171400Z 20003KT 15SM BKN100 BKN250 09/08 A3006 RMK AC5CI1 SLP192

CYQF;2009-08-17 15:00;CYQF 171500Z 20003KT 15SM FEW100 BKN250 11/09 A3005 RMK AC2CI3 SLP192

CYQF;2009-08-17 16:00;CYQF 171600Z 21003KT 15SM FEW100 BKN250 13/10 A3005 RMK AC2CI2 CONTRAILS SLP189

CYQF;2009-08-17 17:00;CYQF 171700Z 21004KT 15SM FEW100 BKN250 16/11 A3003 RMK AC2CI4 SLP185

CYQF;2009-08-17 18:00;CYQF 171800Z 19005KT 15SM FEW100 BKN250 19/12 A3002 RMK AC1CI4 SLP176

CYQF;2009-08-17 19:00;CYQF 171900Z 20005KT 15SM FEW100 BKN250 20/11 A3001 RMK AC1CI4 SLP172

CYQF;2009-08-17 20:00;CYQF 172000Z 19004KT 15SM FEW100 BKN250 21/10 A2998 RMK AC2CI3 SLP165

CYQF;2009-08-17 21:00;CYQF 172100Z 23006KT 15SM FEW100 BKN250 22/10 A2996 RMK AC2CI2 SLP154

CYQF;2009-08-17 22:00;CYQF 172200Z 31004KT 15SM FEW050 FEW100 BKN250 22/10 A2996 RMK CU1AC1CI3 SLP153

CYQF;2009-08-17 23:00;CYQF 172300Z 05004KT 15SM FEW050 BKN100 23/08 A2994 RMK CU1AC6 VIRGA W SLP145

CYQF;2009-08-18 00:00;CYQF 180000Z 00000KT 15SM FEW050 BKN100 BKN250 22/10 A2993 RMK CU2AC4CI1 SLP142

CYQF;2009-08-18 01:00;CYQF 180100Z 00000KT 15SM FEW050 BKN100 BKN250 22/10 A2992 RMK CU1AC6CI1 SLP139

CYQF;2009-08-18 02:00;CYQF 180200Z 00000KT 15SM FEW050 BKN080 BKN250 21/12 A2991 RMK CU1AC5CI2 SLP135

CYQF;2009-08-18 03:00;CYQF 180300Z 22002KT 15SM FEW050 BKN080 18/13 A2990 RMK SC2AC5 SLP134

CYQF;2009-08-18 04:00;CYQF 180400Z 00000KT 15SM FEW050 BKN090 18/13 A2991 RMK SC2AC5 SLP136

CYQF;2009-08-18 05:00;CYQF 180500Z 18003KT 15SM FEW050 BKN100 16/13 A2990 RMK SC2AC5 SLP134

CYQF;2009-08-18 06:00;CYQF 180600Z 22004KT 15SM BKN100 16/13 A2990 RMK AC6 SLP127

CYQF;2009-08-18 07:00;CYQF 180700Z 30005KT 15SM SCT250 16/11 A2989 RMK CI2 SLP125

CYQF;2009-08-18 08:00;CYQF 180800Z 30005KT 15SM SCT250 16/10 A2988 RMK CI2 SLP121

CYQF;2009-08-18 09:00;CYQF 180900Z 31003KT 15SM BKN100 16/10 A2989 RMK AC6 SLP118

CYQF;2009-08-18 10:00;CYQF 181000Z 26003KT 15SM SCT100 14/10 A2988 RMK AC3 SLP116

CYQF;2009-08-18 11:00;CYQF 181100Z 21003KT 15SM BKN100 13/10 A2987 RMK AC6 SLP113

CYQF;2009-08-18 12:00;CYQF 181200Z 26004KT 15SM BKN100 13/10 A2986 RMK AC6 SLP113

CYQF;2009-08-18 13:00;CYQF 181300Z 21004KT 15SM BKN100 13/10 A2985 RMK AC7 SLP110

CYQF;2009-08-18 14:00;CYQF 181400Z 22005KT 15SM SCT060 BKN090 BKN250 14/10 A2985 RMK SC4AC2CI1 SLP110

CYQF;2009-08-18 15:00;CYQF 181500Z 26004KT 15SM SCT060 BKN090 BKN250 16/11 A2985 RMK SC3AC2CI1 SLP108

CYQF;2009-08-18 16:00;CYQF 181600Z 24003KT 15SM FEW060 BKN090 BKN260 17/11 A2984 RMK SC2AC2CI1 SLP107

CYQF;2009-08-18 17:00;CYQF 181700Z 31004KT 15SM FEW060 BKN090 BKN260 21/11 A2984 RMK SC2AC2CI1 SLP105

CYQF;2009-08-18 18:00;CYQF 181800Z 35010KT 15SM FEW040 SCT090 BKN260 21/10 A2983 RMK CU2AC2CI2 SLP098

CYQF;2009-08-18 19:00;CYQF 181900Z 34010G15KT 15SM FEW040 BKN090 BKN260 22/12 A2981 RMK CU2AC2CI2 SLP093

CYQF;2009-08-18 20:00;CYQF 182000Z 02008KT 15SM SCT040CB BKN090 BKN260 22/11 A2981 RMK CB3AC2CI1 SLP093

CYQF;2009-08-18 20:14;CYQF 182014Z 36010G15KT 15SM TS SCT040CB BKN090 BKN260 RMK CB4AC2CI1 LTGCG/SHS W-SW

CYQF;2009-08-18 20:43;CYQF 182043Z 36008KT 15SM BKN040CB BKN090 BKN260 RMK CB5AC2CI1 SHS SE-SW+DIST W-NW

CYQF;2009-08-18 21:00;CYQF 182100Z CCA 35010KT 15SM BKN040CB BKN090 BKN260 21/12 A2983 RMK CB5AC2CI1 SHS SE-SW+DIST W-NW RETS SLP099

CYQF;2009-08-18 21:41;CYQF 182141Z 01011KT 15SM -SHRA BKN040CB BKN090 BKN260 RMK CB5AC2CI1

CYQF;2009-08-18 22:00;CYQF 182200Z 01008KT 15SM VCSH SCT040TCU BKN090 BKN260 17/14 A2985 RMK TCU4AC2CI1 SLP104

CYQF;2009-08-18 23:00;CYQF 182300Z 00000KT 15SM FEW030TCU SCT090 19/12 A2984 RMK TCU2AC2 SLP101

CYQF;2009-08-19 00:00;CYQF 190000Z 33008KT 15SM FEW030TCU FEW090 20/12 A2984 RMK TCU1AC1 AC TR CB ASOCTD SLP106

CYQF;2009-08-19 01:00;CYQF 190100Z 35004KT 15SM SCT030TCU SCT090 21/13 A2984 RMK TCU3AC1 SLP107

CYQF;2009-08-19 02:00;CYQF 190200Z 36006KT 15SM BKN030TCU BKN090 19/10 A2986 RMK TCU5AC1 CB ASOCTD SLP114

CYQF;2009-08-19 03:00;CYQF 190300Z 31002KT 15SM BKN030 16/11 A2988 RMK SC6 SLP122

CYQF;2009-08-19 04:00;CYQF 190400Z 27004KT 15SM FEW030 15/11 A2991 RMK SC2 SLP132

CYQF;2009-08-19 05:00;CYQF 190500Z 34004KT 15SM FEW250 14/10 A2992 RMK CI0 SLP135

CYQF;2009-08-19 06:00;CYQF 190600Z 27005KT 15SM FEW100 13/10 A2992 RMK AC1 SLP134

CYQF;2009-08-19 07:00;CYQF 190700Z 27005KT 15SM SCT100 13/10 A2992 RMK AC2 SLP135

CYQF;2009-08-19 08:00;CYQF 190800Z 25004KT 15SM BKN100 13/10 A2992 RMK AC3 SLP135

CYQF;2009-08-19 09:00;CYQF 190900Z 31004KT 15SM BKN100 14/10 A2994 RMK AC5 SLP140

CYQF;2009-08-19 10:00;CYQF 191000Z 30005KT 15SM SCT100 13/10 A2994 RMK AC3 SLP139

CYQF;2009-08-19 11:00;CYQF 191100Z 30005KT 15SM BKN100 14/10 A2995 RMK AC6 SLP141

CYQF;2009-08-19 12:00;CYQF 191200Z 30004KT 15SM BKN080 13/09 A2995 RMK AC6 SLP146

CYQF;2009-08-19 13:00;CYQF 191300Z 24003KT 15SM BKN080 11/09 A2996 RMK AC5 SLP149

CYQF;2009-08-19 14:00;CYQF 191400Z 00000KT 15SM SCT080 11/10 A2998 RMK AC3 ACC SLP153

CYQF;2009-08-19 15:00;CYQF 191500Z 31006KT 15SM FEW090 15/11 A2999 RMK AC2 SLP161

CYQF;2009-08-19 16:00;CYQF 191600Z 30007KT 15SM FEW030 FEW100 17/10 A2999 RMK CU1AC2 SLP161

CYQF;2009-08-19 17:00;CYQF 191700Z 33007KT 15SM FEW030 FEW100 FEW250 18/10 A2999 RMK CU1AC1CI2 TR AC SLP162

CYQF;2009-08-19 18:00;CYQF 191800Z 30006KT 15SM FEW040 FEW100 19/09 A3000 RMK CU2AC1 SLP163

CYQF;2009-08-19 19:00;CYQF 191900Z 34006KT 15SM FEW040 20/10 A3000 RMK CU2 SLP164

CYQF;2009-08-19 20:00;CYQF 192000Z 35008KT 15SM FEW042 21/08 A3001 RMK CU2 SLP166

CYQF;2009-08-19 21:00;CYQF 192100Z 36007KT 15SM FEW050 21/07 A3001 RMK CU2 SLP165

CYQF;2009-08-19 22:00;CYQF 192200Z 35007KT 15SM FEW050 22/08 A3001 RMK CU1 SLP165

CYQF;2009-08-19 23:00;CYQF 192300Z 01005KT 15SM FEW050 21/09 A3001 RMK CU1 SLP164

CYQF;2009-08-20 00:00;CYQF 200000Z 36005KT 15SM FEW050 21/09 A3001 RMK CU1 SLP164

CYQF;2009-08-20 01:00;CYQF 200100Z 35005KT 15SM FEW250 21/09 A3002 RMK CI1 SLP167

CYQF;2009-08-20 02:00;CYQF 200200Z 00000KT 15SM FEW250 19/10 A3003 RMK CI1 SLP171

CYQF;2009-08-20 03:00;CYQF 200300Z 00000KT 15SM FEW100 FEW250 16/09 A3005 RMK AC1CI1 AC TR SLP180

CYQF;2009-08-20 04:00;CYQF 200400Z 00000KT 15SM FEW100 BKN250 15/10 A3006 RMK AC1CI1 SLP185

CYQF;2009-08-20 05:00;CYQF 200500Z 00000KT 15SM BKN250 12/10 A3006 RMK CI0 SLP186

CYQF;2009-08-20 06:00;CYQF 200600Z 00000KT 15SM SCT250 12/09 A3009 RMK CI1 SLP195

CYQF;2009-08-20 07:00;CYQF 200700Z 00000KT 15SM FEW120 BKN250 12/09 A3009 RMK AC2CI0 SLP197

CYQF;2009-08-20 08:00;CYQF 200800Z 00000KT 15SM BKN120 12/09 A3009 RMK AC6 SLP196

CYQF;2009-08-20 09:00;CYQF 200900Z 00000KT 15SM BKN120 12/09 A3009 RMK AC5 SLP195

CYQF;2009-08-20 10:00;CYQF 201000Z 00000KT 15SM BKN120 12/10 A3010 RMK AC6 SLP196

CYQF;2009-08-20 11:00;CYQF 201100Z 00000KT 15SM FEW120 12/09 A3010 RMK AC2 SLP198

CYQF;2009-08-20 12:00;CYQF 201200Z 00000KT 15SM FEW120 FEW250 11/09 A3010 RMK AC1CI0 SLP199

CYQF;2009-08-20 13:00;CYQF 201300Z 00000KT 15SM FEW120 FEW250 10/08 A3011 RMK AC1CI0 SLP200

CYQF;2009-08-20 14:00;CYQF 201400Z 14003KT 15SM FEW250 12/09 A3011 RMK CI0 SLP201

CYQF;2009-08-20 15:00;CYQF 201500Z 13006KT 15SM FEW250 17/10 A3012 RMK CI1 SLP203

CYQF;2009-08-20 16:00;CYQF 201600Z 14010KT 15SM SCT250 18/10 A3011 RMK CI1 SLP202

CYQF;2009-08-20 17:00;CYQF 201700Z 14010KT 15SM BKN250 20/10 A3011 RMK CI2 SLP202

CYQF;2009-08-20 18:00;CYQF 201800Z 14012KT 15SM BKN250 21/10 A3011 RMK CI2 SLP203

CYQF;2009-08-20 19:00;CYQF 201900Z 13013KT 15SM BKN250 21/09 A3010 RMK CI2 SLP200

CYQF;2009-08-20 20:00;CYQF 202000Z 15015KT 15SM BKN250 23/10 A3009 RMK CI2 SLP196

CYQF;2009-08-20 21:00;CYQF 202100Z 13010G15KT 15SM BKN250 23/10 A3008 RMK CI2 SLP187

CYQF;2009-08-20 22:00;CYQF 202200Z 16012KT 15SM BKN250 23/10 A3007 RMK CI2 SLP185

CYQF;2009-08-20 23:00;CYQF 202300Z 15010G15KT 15SM BKN260 23/10 A3005 RMK CI2 SLP180

CYQF;2009-08-21 00:00;CYQF 210000Z 15010G15KT 15SM BKN260 23/11 A3005 RMK CI2 SLP178

CYQF;2009-08-21 01:00;CYQF 210100Z 15015G20KT 15SM BKN260 22/10 A3003 RMK CI2 SLP174

CYQF;2009-08-21 02:00;CYQF 210200Z 15010KT 15SM BKN260 20/11 A3002 RMK CI2 SLP171

CYQF;2009-08-21 03:00;CYQF 210300Z 14010KT 15SM BKN260 18/10 A3002 RMK CI2 SLP168

CYQF;2009-08-21 04:00;CYQF 210400Z 14010KT 15SM BKN260 17/10 A3002 RMK CI2 SLP167

CYQF;2009-08-21 05:00;CYQF 210500Z 15008KT 15SM BKN260 16/10 A3001 RMK CI2 SLP166

CYQF;2009-08-21 06:00;CYQF 210600Z 15007KT 15SM FEW250 15/09 A3000 RMK CI0 SLP161

CYQF;2009-08-21 07:00;CYQF 210700Z 14006KT 15SM FEW250 14/08 A3000 RMK CI0 SLP159

CYQF;2009-08-21 08:00;CYQF 210800Z 16006KT 15SM FEW250 13/08 A2997 RMK CI1 SLP152

CYQF;2009-08-21 09:00;CYQF 210900Z 00000KT 15SM FEW250 12/08 A2994 RMK CI1 SLP139

CYQF;2009-08-21 10:00;CYQF 211000Z 17007KT 15SM FEW250 12/07 A2991 RMK CI2 SLP130

CYQF;2009-08-21 11:00;CYQF 211100Z 17009KT 15SM FEW250 13/08 A2990 RMK CI2 SLP126

CYQF;2009-08-21 12:00;CYQF 211200Z 17012KT 15SM FEW100 BKN250 12/08 A2989 RMK AC2CI2 SLP124

CYQF;2009-08-21 13:00;CYQF 211300Z 16009KT 15SM FEW100 BKN250 13/09 A2988 RMK AC2CI3 SLP121

CYQF;2009-08-21 14:00;CYQF 211400Z 19004KT 15SM FEW040 SCT100 BKN250 13/10 A2993 RMK SC2AC2CI2 TCU ASOCTD VIRGA SLP136

CYQF;2009-08-21 15:00;CYQF 211500Z 17004KT 15SM FEW040TCU BKN100 BKN250 14/10 A2988 RMK TCU2AC3CI1 VIRGA SLP123

CYQF;2009-08-21 16:00;CYQF 211600Z 19002KT 15SM FEW040TCU FEW100 15/11 A2988 RMK TCU2AC1 SLP124

CYQF;2009-08-21 17:00;CYQF 211700Z 18005KT 15SM FEW040TCU FEW100 18/11 A2986 RMK TCU1AC1 SLP117

CYQF;2009-08-21 18:00;CYQF 211800Z 15005KT 15SM FEW050 22/13 A2984 RMK CU1 SLP103

CYQF;2009-08-21 19:00;CYQF 211900Z 17006KT 15SM FEW060 FEW270 23/14 A2982 RMK CU1CI0 SLP097

CYQF;2009-08-21 20:00;CYQF 212000Z 06005KT 15SM FEW045 BKN270 25/14 A2980 RMK CU1CI2 TR CU SLP092

CYQF;2009-08-21 21:00;CYQF 212100Z 12008KT 15SM FEW050 SCT120 BKN270 26/13 A2980 RMK CU1AC2CI1 SLP089

CYQF;2009-08-21 22:00;CYQF 212200Z 15003KT 15SM FEW050 BKN270 26/14 A2978 RMK CU2CI2 CB NW SLP083

CYQF;2009-08-21 23:00;CYQF 212300Z 00000KT 15SM FEW050 FEW120 BKN270 27/14 A2976 RMK CU2AC1CI1 CB NW SLP077

CYQF;2009-08-22 00:00;CYQF 220000Z 03003KT 15SM FEW050 FEW100 BKN270 27/14 A2975 RMK CU1AC2CI1 CB DSNT NW SLP070

CYQF;2009-08-22 01:00;CYQF 220100Z 06004KT 15SM FEW050 FEW100 BKN270 25/15 A2973 RMK CU1AC1CI1 TCU W SLP064

CYQF;2009-08-22 02:00;CYQF 220200Z 03005KT 15SM FEW050CB FEW100 BKN270 23/16 A2972 RMK CB2AC1CI1 SLP060

CYQF;2009-08-22 03:00;CYQF 220300Z 07005KT 15SM SCT050CB BKN100 BKN270 21/15 A2972 RMK CB3AC2CI1 LTGCG WNW SLP062

CYQF;2009-08-22 03:47;CYQF 220347Z 32012G20KT 15SM TS FEW025 BKN040CB BKN100 RMK SF2CB3AC1 LTGCG SHRA W

CYQF;2009-08-22 04:00;CYQF 220400Z 27015G25KT 5SM TSRAGR FEW025 BKN040CB OVC100 19/16 A2981 RMK SF2CB4AC2 HAIL DIAM 10 MM PRESRR SLP091

CYQF;2009-08-22 04:11;CYQF 220411Z 02010KT 10SM -TSRA FEW020 SCT040CB OVC100 RMK SF2CB2AC4

CYQF;2009-08-22 04:29;CYQF 220429Z 02007KT 15SM FEW040TCU OVC100 RMK TCU2AC6 LTNG E RETS

CYQF;2009-08-22 05:00;CYQF 220500Z 23007KT 15SM FEW040 OVC100 14/13 A2977 RMK SC2AC6 RETS FEW HAIL DIAM 25MM PAST HR RERA SLP078

CYQF;2009-08-22 06:00;CYQF 220600Z 29005KT 15SM SCT100 BKN270 16/15 A2976 RMK AC3CI1 SLP077

CYQF;2009-08-22 07:00;CYQF 220700Z 20003KT 15SM BKN100 BKN250 14/13 A2978 RMK AC5CI1 SLP082

CYQF;2009-08-22 08:00;CYQF 220800Z 34007KT 15SM BKN100 15/13 A2984 RMK AC6 SLP101

CYQF;2009-08-22 09:00;CYQF 220900Z 32006KT 15SM BKN100 14/12 A2985 RMK AC6 SLP105

CYQF;2009-08-22 10:00;CYQF 221000Z 25005KT 15SM FEW100 BKN250 12/10 A2988 RMK AC2CI1 OBS TAKEN +08 SLP112

CYQF;2009-08-22 11:00;CYQF 221100Z 24006KT 15SM SKC 11/10 A2990 RMK SLP118

CYQF;2009-08-22 12:00;CYQF 221200Z 28006KT 15SM FEW100 11/09 A2992 RMK AC1 OBS TAKEN -05 SLP129

CYQF;2009-08-22 13:00;CYQF 221300Z 29005KT 15SM FEW100 11/09 A2993 RMK AC1 SLP132

CYQF;2009-08-22 14:00;CYQF 221400Z 30005KT 15SM FEW100 FEW250 12/09 A2994 RMK AC1CI0 SLP136

CYQF;2009-08-22 15:00;CYQF 221500Z 31004KT 15SM FEW250 15/10 A2995 RMK CI0 SLP141

CYQF;2009-08-22 16:00;CYQF 221600Z 33005KT 15SM FEW250 17/10 A2994 RMK CI0 SLP140

CYQF;2009-08-22 17:00;CYQF 221700Z 36007KT 15SM FEW250 18/06 A2995 RMK CI0 SLP141

CYQF;2009-08-22 18:00;CYQF 221800Z 07005KT 15SM FEW250 18/07 A2995 RMK CI1 SLP145

CYQF;2009-08-22 19:00;CYQF 221900Z 13003KT 15SM FEW250 20/07 A2994 RMK CI1 SLP142

CYQF;2009-08-22 20:00;CYQF 222000Z 07004KT 15SM FEW250 21/08 A2993 RMK CI1 SLP137

CYQF;2009-08-22 21:00;CYQF 222100Z 08005KT 15SM SCT250 22/08 A2992 RMK CI1 SLP131

CYQF;2009-08-22 22:00;CYQF 222200Z 13008KT 15SM SCT250 21/08 A2990 RMK CI1 SLP127

CYQF;2009-08-22 23:00;CYQF 222300Z 13004KT 15SM SCT250 22/09 A2990 RMK CI1 SLP126

CYQF;2009-08-23 00:00;CYQF 230000Z 11008KT 15SM FEW250 22/10 A2988 RMK CI1 SLP123

CYQF;2009-08-23 01:00;CYQF 230100Z 11007KT 15SM FEW250 21/11 A2987 RMK CI1 SLP118

CYQF;2009-08-23 02:00;CYQF 230200Z 09004KT 15SM FEW120 SCT250 19/11 A2986 RMK AC1CI2 SLP116

CYQF;2009-08-23 03:00;CYQF 230300Z 08004KT 15SM FEW050 SCT250 16/11 A2985 RMK CU1CI1 SLP115

CYQF;2009-08-23 04:00;CYQF 230400Z 09004KT 15SM FEW050 FEW250 15/11 A2985 RMK SC1CI2 SLP113

CYQF;2009-08-23 05:00;CYQF 230500Z 18005KT 15SM SKC 16/10 A2984 RMK SLP110

CYQF;2009-08-23 06:00;CYQF 230600Z 17004KT 15SM SKC 15/10 A2984 RMK SLP107

CYQF;2009-08-23 07:00;CYQF 230700Z 18003KT 15SM SKC 13/10 A2983 RMK OBS TAKEN +10 SLP105

CYQF;2009-08-23 08:00;CYQF 230800Z 15003KT 15SM SKC 14/10 A2982 RMK SLP102

CYQF;2009-08-23 09:00;CYQF 230900Z 36002KT 15SM SKC 12/10 A2982 RMK SLP099

CYQF;2009-08-23 10:00;CYQF 231000Z 00000KT 15SM SCT250 12/10 A2979 RMK CI2 SLP092

CYQF;2009-08-23 11:00;CYQF 231100Z 34004KT 15SM BKN250 10/09 A2982 RMK CI3 SLP099

CYQF;2009-08-23 12:00;CYQF 231200Z 34003KT 10SM FEW100 BKN250 10/09 A2980 RMK AC2CI3 OBS TAKEN -05 SLP097

CYQF;2009-08-23 13:00;CYQF 231300Z 28004KT 6SM BR FEW100 OVC250 10/09 A2981 RMK AC2CI4 SLP098

CYQF;2009-08-23 14:00;CYQF 231400Z 29011KT 8SM SCT100 OVC250 10/09 A2982 RMK AC3CI3 SLP102

CYQF;2009-08-23 15:00;CYQF 231500Z 31012KT 8SM FEW010 SCT100 OVC250 12/10 A2981 RMK CF2AC2CS3 SLP103

CYQF;2009-08-23 15:21;CYQF 231521Z 30010KT 8SM BKN012 OVC250 RMK CF6CI2

CYQF;2009-08-23 16:00;CYQF 231600Z 30008KT 6SM BR BKN010 OVC025 12/10 A2981 RMK CF6SC2 SLP103

CYQF;2009-08-23 17:00;CYQF 231700Z 31008KT 8SM OVC009 13/10 A2981 RMK SC8 SLP103

CYQF;2009-08-23 17:38;CYQF 231738Z 29010KT 8SM BKN011 RMK SC7

CYQF;2009-08-23 18:00;CYQF 231800Z 30010KT 8SM BKN013 14/10 A2981 RMK SC7 SLP102

CYQF;2009-08-23 19:00;CYQF 231900Z 34010KT 8SM OVC009 14/10 A2981 RMK SC8 SLP102

CYQF;2009-08-23 20:00;CYQF 232000Z 34008KT 10SM OVC010 14/11 A2982 RMK SC8 SLP104

CYQF;2009-08-23 20:51;CYQF 232051Z 34009KT 10SM OVC015 RMK SC8

CYQF;2009-08-23 21:00;CYQF 232100Z 35010KT 10SM OVC015 14/10 A2983 RMK SC8 SLP112

CYQF;2009-08-23 22:00;CYQF 232200Z 34010G15KT 10SM BKN015 OVC100 15/10 A2986 RMK SC6AC2 CU EMBD SLP121

CYQF;2009-08-23 23:00;CYQF 232300Z 34017G25KT 15SM VCSH FEW015 SCT025 BKN080 14/07 A2988 RMK SC2CU2AC2 SLP127

CYQF;2009-08-24 00:00;CYQF 240000Z 34012G20KT 15SM FEW030 SCT080 14/06 A2991 RMK CU2AC2 SLP141

CYQF;2009-08-24 01:00;CYQF 240100Z 34005KT 15SM FEW030 BKN080 13/07 A2991 RMK CU2AC2 FEW TCU SLP141

CYQF;2009-08-24 02:00;CYQF 240200Z 34009KT 15SM SCT050TCU BKN100 13/06 A2991 RMK TCU4AC1 SLP142

CYQF;2009-08-24 03:00;CYQF 240300Z 32006KT 15SM FEW090 FEW250 10/04 A2993 RMK AC1CI0 OBS TAKEN +08 SLP150

CYQF;2009-08-24 04:00;CYQF 240400Z 34007KT 15SM FEW250 10/04 A2994 RMK CI0 SLP154

CYQF;2009-08-24 05:00;CYQF 240500Z 30004KT 15SM SKC 07/04 A2995 RMK SLP157

CYQF;2009-08-24 06:00;CYQF 240600Z 00000KT 15SM SKC 06/04 A2994 RMK SLP157

CYQF;2009-08-24 07:00;CYQF 240700Z 00000KT 15SM SKC 04/03 A2995 RMK SLP160

CYQF;2009-08-24 08:00;CYQF 240800Z 20004KT 15SM SKC 04/03 A2996 RMK SLP164

CYQF;2009-08-24 09:00;CYQF 240900Z 22005KT 15SM SKC 03/02 A2996 RMK SLP168

CYQF;2009-08-24 10:00;CYQF 241000Z 21005KT 15SM SKC 03/02 A2997 RMK SLP171

CYQF;2009-08-24 11:00;CYQF 241100Z 20005KT 15SM SKC 03/02 A2998 RMK SLP172

CYQF;2009-08-24 12:00;CYQF 241200Z 00000KT 15SM FEW250 02/01 A2999 RMK CI0 SLP178

CYQF;2009-08-24 13:00;CYQF 241300Z 00000KT 15SM FEW100 FEW250 02/01 A3000 RMK AC1CI0 SLP181

CYQF;2009-08-24 14:00;CYQF 241400Z 00000KT 15SM FEW100 05/03 A3002 RMK AC1 SLP186

CYQF;2009-08-24 15:00;CYQF 241500Z 00000KT 15SM FEW100 08/05 A3003 RMK AC1 SLP189

CYQF;2009-08-24 16:00;CYQF 241600Z 20003KT 15SM FEW100 11/06 A3003 RMK AC1 SLP189

CYQF;2009-08-24 17:00;CYQF 241700Z 19006KT 15SM FEW100 FEW260 14/07 A3002 RMK AC1CI1 SLP187

CYQF;2009-08-24 18:00;CYQF 241800Z 19008KT 15SM FEW260 18/05 A3001 RMK CI1 SLP175

CYQF;2009-08-24 19:00;CYQF 241900Z 17006KT 15SM FEW260 19/04 A2998 RMK CI1 SLP168

CYQF;2009-08-24 20:00;CYQF 242000Z 17009KT 15SM FEW050 FEW260 20/04 A2996 RMK CU1CI1 SLP162

CYQF;2009-08-24 21:00;CYQF 242100Z 16007KT 15SM SKC 21/04 A2995 RMK SLP156

CYQF;2009-08-24 22:00;CYQF 242200Z 25006KT 15SM FEW250 21/04 A2995 RMK CI1 SLP154

CYQF;2009-08-24 23:00;CYQF 242300Z 00000KT 15SM FEW250 21/03 A2993 RMK CI1 SLP150

CYQF;2009-08-25 00:00;CYQF 250000Z 00000KT 15SM FEW250 21/02 A2993 RMK CI1 SLP149

CYQF;2009-08-25 01:00;CYQF 250100Z 04003KT 15SM FEW250 21/03 A2992 RMK CI1 SLP147

CYQF;2009-08-25 02:00;CYQF 250200Z 03003KT 15SM FEW250 20/05 A2993 RMK CI1 SLP148

CYQF;2009-08-25 03:00;CYQF 250300Z 01002KT 15SM FEW250 16/06 A2994 RMK CI1 SLP151

CYQF;2009-08-25 04:00;CYQF 250400Z 05004KT 15SM FEW250 14/07 A2994 RMK CI1 SLP152

CYQF;2009-08-25 05:00;CYQF 250500Z 02004KT 15SM SKC 12/06 A2994 RMK SLP151

CYQF;2009-08-25 06:00;CYQF 250600Z 01004KT 15SM SKC 11/05 A2993 RMK SLP142

CYQF;2009-08-25 07:00;CYQF 250700Z 00000KT 15SM SKC 08/05 A2994 RMK SLP145

CYQF;2009-08-25 08:00;CYQF 250800Z 00000KT 15SM SKC 08/05 A2992 RMK SLP141

CYQF;2009-08-25 09:00;CYQF 250900Z 00000KT 15SM SKC 08/05 A2992 RMK SLP140

CYQF;2009-08-25 10:00;CYQF 251000Z 00000KT 15SM SKC 08/05 A2991 RMK SLP136

CYQF;2009-08-25 11:00;CYQF 251100Z 00000KT 15SM SKC 07/05 A2989 RMK SLP132

CYQF;2009-08-25 12:00;CYQF 251200Z 00000KT 15SM FEW250 08/05 A2989 RMK CI0 SLP128

CYQF;2009-08-25 13:00;CYQF 251300Z 00000KT 15SM FEW100 FEW250 07/04 A2988 RMK AC1CI0 SLP127

CYQF;2009-08-25 14:00;CYQF 251400Z 00000KT 15SM FEW100 FEW250 07/04 A2988 RMK AC2CI0 SLP125

CYQF;2009-08-25 15:00;CYQF 251500Z 15003KT 15SM BKN120 11/07 A2988 RMK AC4 SLP127

CYQF;2009-08-25 16:00;CYQF 251600Z 14003KT 15SM BKN120 13/09 A2986 RMK AC4 SLP121

CYQF;2009-08-25 17:00;CYQF 251700Z 12003KT 15SM FEW100 BKN250 17/09 A2985 RMK AC2CI2 ACC DIST SW-W SLP120

CYQF;2009-08-25 18:00;CYQF 251800Z 00000KT 15SM FEW100 BKN250 21/10 A2985 RMK AC2CI0 SLP111

CYQF;2009-08-25 19:00;CYQF 251900Z 18002KT 15SM BKN100 BKN250 23/08 A2984 RMK AC6CI1 SLP108

CYQF;2009-08-25 20:00;CYQF 252000Z 20005KT 15SM SCT100 BKN250 24/07 A2983 RMK AC3CI4 SLP106

CYQF;2009-08-25 21:00;CYQF 252100Z 19008KT 15SM FEW050 FEW100 BKN250 24/09 A2983 RMK CU1AC2CI6 ACSL/ARCH SW-W CU DIST W SLP105

CYQF;2009-08-25 22:00;CYQF 252200Z 00000KT 15SM FEW060 SCT100 BKN250 24/09 A2984 RMK CU1AC2CI3 SLP107

CYQF;2009-08-25 23:00;CYQF 252300Z 06004KT 15SM FEW060 SCT100 BKN250 24/08 A2983 RMK CU1AC2CI3 SLP106

CYQF;2009-08-26 00:00;CYQF 260000Z 06003KT 15SM FEW070 SCT100 BKN250 25/08 A2984 RMK CU2AC2CI2 SLP108

CYQF;2009-08-26 01:00;CYQF 260100Z 06005KT 15SM FEW060 SCT100 BKN250 22/08 A2985 RMK CU2AC2CI2 SLP110

CYQF;2009-08-26 02:00;CYQF 260200Z 03004KT 15SM SCT060 BKN100 BKN250 21/10 A2985 RMK SC4AC2CI1 SLP112

CYQF;2009-08-26 03:00;CYQF 260300Z 35005KT 15SM BKN060 BKN250 19/11 A2988 RMK SC5CI0 SLP125

CYQF;2009-08-26 04:00;CYQF 260400Z 03004KT 15SM FEW060 17/11 A2991 RMK SC2 SLP133

CYQF;2009-08-26 05:00;CYQF 260500Z 34006KT 15SM FEW060 13/10 A2994 RMK SC2 SLP142

CYQF;2009-08-26 06:00;CYQF 260600Z 33005KT 15SM FEW070 14/10 A2994 RMK AC2 SLP141

CYQF;2009-08-26 07:00;CYQF 260700Z 33005KT 15SM BKN120 13/10 A2995 RMK AC4 SLP145

CYQF;2009-08-26 08:00;CYQF 260800Z 30003KT 15SM BKN120 11/09 A2996 RMK AC3 SLP147

CYQF;2009-08-26 09:00;CYQF 260900Z 28007KT 15SM SCT120 11/09 A2997 RMK AC3 SLP151

CYQF;2009-08-26 10:00;CYQF 261000Z 28010KT 15SM SCT120 11/09 A2999 RMK AC2 SLP157

CYQF;2009-08-26 11:00;CYQF 261100Z 30006KT 15SM FEW120 11/09 A3001 RMK AC2 SLP162

CYQF;2009-08-26 12:00;CYQF 261200Z 30006KT 15SM FEW100 10/08 A3002 RMK AC2 SLP167

CYQF;2009-08-26 13:00;CYQF 261300Z 27003KT 15SM FEW120 SCT230 07/06 A3003 RMK AC2CI0 SLP171

CYQF;2009-08-26 14:00;CYQF 261400Z 29003KT 15SM FEW100 SCT250 11/09 A3005 RMK AC2CI0 SLP176

CYQF;2009-08-26 15:00;CYQF 261500Z 33003KT 15SM FEW100 BKN260 13/10 A3005 RMK AC1CI1 SLP182

CYQF;2009-08-26 16:00;CYQF 261600Z 36003KT 15SM BKN270 15/10 A3005 RMK CI2 SLP182

CYQF;2009-08-26 17:00;CYQF 261700Z 02004KT 15SM BKN250 16/11 A3005 RMK CI3 SLP183

CYQF;2009-08-26 18:00;CYQF 261800Z 05002KT 15SM BKN250 18/11 A3005 RMK CI6 SLP181

CYQF;2009-08-26 19:00;CYQF 261900Z 32003KT 15SM OVC250 19/13 A3003 RMK CC6 SLP176

CYQF;2009-08-26 20:00;CYQF 262000Z 06003KT 15SM OVC250 20/12 A3004 RMK CC6 SLP177

CYQF;2009-08-26 21:00;CYQF 262100Z 09002KT 15SM OVC250 21/12 A3004 RMK CI6 SLP178

CYQF;2009-08-26 22:00;CYQF 262200Z 04005KT 15SM FEW040 BKN100 OVC260 21/12 A3003 RMK CU1AC2CS2 SLP174

CYQF;2009-08-26 23:00;CYQF 262300Z 04003KT 15SM FEW040 SCT100 BKN250 22/13 A3004 RMK CU1AC2CI2 SLP177

CYQF;2009-08-27 00:00;CYQF 270000Z 06003KT 15SM FEW040 BKN250 22/12 A3004 RMK CU1CI2 SLP176

CYQF;2009-08-27 01:00;CYQF 270100Z 36004KT 15SM FEW040 SCT100 BKN250 21/13 A3005 RMK CU1AC2CI1 SLP181

CYQF;2009-08-27 02:00;CYQF 270200Z 34003KT 15SM FEW050 SCT100 BKN250 19/14 A3007 RMK SC2AC2CI1 SLP186

CYQF;2009-08-27 03:00;CYQF 270300Z 35005KT 15SM SCT080 16/13 A3008 RMK AC4 SHS DIST SW SLP196

CYQF;2009-08-27 04:00;CYQF 270400Z 35004KT 15SM SCT080 BKN250 15/12 A3010 RMK AC4CI2 SLP202

CYQF;2009-08-27 05:00;CYQF 270500Z 00000KT 15SM FEW080 16/12 A3012 RMK AC2 SLP207

CYQF;2009-08-27 06:00;CYQF 270600Z 00000KT 15SM FEW100 12/10 A3013 RMK AC2 SLP209

CYQF;2009-08-27 07:00;CYQF 270700Z 28004KT 15SM SKC 11/10 A3015 RMK SLP215

CYQF;2009-08-27 08:00;CYQF 270800Z 27002KT 15SM SKC 11/10 A3016 RMK SLP220

CYQF;2009-08-27 09:00;CYQF 270900Z 31005KT 15SM SKC 10/09 A3017 RMK SLP225

CYQF;2009-08-27 10:00;CYQF 271000Z 15002KT 15SM SKC 09/08 A3020 RMK SLP232

CYQF;2009-08-27 10:21;CYQF 271021Z 19004KT 2SM BR SKC RMK FG2

CYQF;2009-08-27 11:00;CYQF 271100Z 24002KT 6SM BR SKC 07/07 A3021 RMK SLP237

CYQF;2009-08-27 12:00;CYQF 271200Z 29005KT 10SM SKC 08/08 A3023 RMK BR SLP247

CYQF;2009-08-27 13:00;CYQF 271300Z 21003KT 3SM BR SKC 07/06 A3025 RMK VIS S 1 FG SLP253

CYQF;2009-08-27 14:00;CYQF 271400Z 00000KT 10SM SKC 08/07 A3027 RMK BR VIS E 5 SLP260

CYQF;2009-08-27 15:00;CYQF 271500Z 27002KT 12SM SKC 12/11 A3029 RMK BR SLP268

CYQF;2009-08-27 16:00;CYQF 271600Z 00000KT 15SM SKC 15/12 A3030 RMK SLP272

CYQF;2009-08-27 17:00;CYQF 271700Z 00000KT 15SM SKC 17/13 A3030 RMK SLP273

CYQF;2009-08-27 18:00;CYQF 271800Z 00000KT 15SM FEW024 SCT260 20/14 A3030 RMK CU1CI0 HZ SLP268

CYQF;2009-08-27 19:00;CYQF 271900Z 00000KT 15SM FEW040 SCT250 22/12 A3031 RMK CU1CI0 HZ SLP269

CYQF;2009-08-27 20:00;CYQF 272000Z 00000KT 15SM FEW040 23/12 A3030 RMK CU2 SLP267

CYQF;2009-08-27 21:00;CYQF 272100Z 21003KT 15SM FEW060 23/08 A3030 RMK CU2 SLP265

CYQF;2009-08-27 22:00;CYQF 272200Z 18005KT 15SM FEW060 FEW250 24/08 A3029 RMK CU1CI1 SLP263

CYQF;2009-08-27 23:00;CYQF 272300Z 00000KT 15SM FEW065 FEW250 24/08 A3028 RMK CU1CI0 SLP261

CYQF;2009-08-28 00:00;CYQF 280000Z 00000KT 15SM FEW250 24/08 A3028 RMK CI0 SLP262

CYQF;2009-08-28 01:00;CYQF 280100Z 00000KT 15SM FEW250 24/08 A3028 RMK CI1 SLP262

CYQF;2009-08-28 02:00;CYQF 280200Z 08004KT 15SM FEW100 SCT250 22/09 A3029 RMK AC1CI0 SLP263

CYQF;2009-08-28 03:00;CYQF 280300Z 00000KT 15SM FEW250 19/10 A3030 RMK CI1 SLP268

CYQF;2009-08-28 04:00;CYQF 280400Z 00000KT 15SM FEW250 15/10 A3031 RMK CI1 SLP272

CYQF;2009-08-28 05:00;CYQF 280500Z 00000KT 15SM SKC 14/10 A3031 RMK SLP272

CYQF;2009-08-28 06:00;CYQF 280600Z 01003KT 15SM SKC 14/10 A3031 RMK SLP268

CYQF;2009-08-28 07:00;CYQF 280700Z 00000KT 15SM SKC 11/09 A3032 RMK OBS TAKEN +16 SLP271

CYQF;2009-08-28 08:00;CYQF 280800Z 00000KT 15SM SKC 10/09 A3032 RMK SLP271

CYQF;2009-08-28 09:00;CYQF 280900Z 00000KT 15SM SKC 10/08 A3031 RMK SLP271

CYQF;2009-08-28 10:00;CYQF 281000Z 13002KT 15SM SKC 11/09 A3031 RMK SLP270

CYQF;2009-08-28 11:00;CYQF 281100Z 00000KT 15SM SKC 10/09 A3031 RMK SLP269

CYQF;2009-08-28 12:00;CYQF 281200Z 20002KT 15SM FEW250 08/07 A3030 RMK CI0 SLP268

CYQF;2009-08-28 13:00;CYQF 281300Z 21002KT 8SM PRFG FEW250 08/07 A3030 RMK CI0 SLP268

CYQF;2009-08-28 14:00;CYQF 281400Z 00000KT 8SM PRFG FEW250 10/09 A3031 RMK CI0 SLP270

CYQF;2009-08-28 15:00;CYQF 281500Z 00000KT 10SM FEW250 12/11 A3031 RMK CI0 SLP272

CYQF;2009-08-28 16:00;CYQF 281600Z 00000KT 10SM FEW250 16/12 A3031 RMK CI0 SLP271

CYQF;2009-08-28 17:00;CYQF 281700Z 16005KT 15SM BKN250 20/12 A3030 RMK CI1 SLP268

CYQF;2009-08-28 18:00;CYQF 281800Z 18007KT 15SM BKN250 23/11 A3029 RMK CI2 SLP258

CYQF;2009-08-28 19:00;CYQF 281900Z 16012KT 15SM SCT260 24/11 A3027 RMK CI1 SLP253

CYQF;2009-08-28 20:00;CYQF 282000Z 16010KT 15SM SCT250 25/11 A3025 RMK CI1 SLP248

CYQF;2009-08-28 21:00;CYQF 282100Z 17009KT 15SM SCT250 26/11 A3024 RMK CI1 SLP243

CYQF;2009-08-28 22:00;CYQF 282200Z 17008KT 15SM SCT250 27/10 A3022 RMK CI1 SLP237

CYQF;2009-08-28 23:00;CYQF 282300Z 19006KT 15SM SCT250 27/09 A3020 RMK CI1 SLP231

CYQF;2009-08-29 00:00;CYQF 290000Z 16003KT 15SM SCT250 27/11 A3018 RMK CI1 SLP224

CYQF;2009-08-29 01:00;CYQF 290100Z 15004KT 15SM BKN250 25/12 A3017 RMK CI1 FU ALF SLP221

CYQF;2009-08-29 02:00;CYQF 290200Z 13004KT 15SM BKN250 22/11 A3016 RMK CI5 FU ALF SLP217

CYQF;2009-08-29 03:00;CYQF 290300Z 15004KT 15SM BKN250 19/11 A3017 RMK CI5 FU ALF SLP222

CYQF;2009-08-29 04:00;CYQF 290400Z 18003KT 15SM BKN250 17/11 A3018 RMK CI5 SLP226

CYQF;2009-08-29 05:00;CYQF 290500Z 17003KT 15SM FEW250 15/10 A3018 RMK CI1 SLP225

CYQF;2009-08-29 06:00;CYQF 290600Z 19005KT 15SM FEW250 12/08 A3017 RMK CI1 SLP220

CYQF;2009-08-29 07:00;CYQF 290700Z 18004KT 15SM FEW250 14/10 A3016 RMK CI1 SLP218

CYQF;2009-08-29 08:00;CYQF 290800Z 00000KT 15SM FEW250 12/09 A3016 RMK CI1 SLP216

CYQF;2009-08-29 09:00;CYQF 290900Z 00000KT 15SM FEW250 11/08 A3015 RMK CI1 SLP211

CYQF;2009-08-29 10:00;CYQF 291000Z 16004KT 15SM FEW250 10/07 A3015 RMK CI1 SLP208

CYQF;2009-08-29 11:00;CYQF 291100Z 16004KT 15SM FEW250 11/08 A3014 RMK CI1 SLP207

CYQF;2009-08-29 12:00;CYQF 291200Z 16003KT 15SM FEW250 09/06 A3014 RMK CI1 SLP208

CYQF;2009-08-29 13:00;CYQF 291300Z 18004KT 15SM FEW250 09/06 A3014 RMK CI1 SLP209

CYQF;2009-08-29 14:00;CYQF 291400Z 00000KT 15SM FEW250 11/07 A3015 RMK CI1 SLP212

CYQF;2009-08-29 15:00;CYQF 291500Z 18003KT 15SM SKC 13/08 A3015 RMK SLP217

CYQF;2009-08-29 16:00;CYQF 291600Z 18007KT 15SM FEW260 18/09 A3015 RMK CI2 SLP216

CYQF;2009-08-29 17:00;CYQF 291700Z 17008KT 15SM FEW260 20/09 A3014 RMK CI2 SLP213

CYQF;2009-08-29 18:00;CYQF 291800Z 16010KT 15SM FEW260 23/09 A3014 RMK CI2 SLP209

CYQF;2009-08-29 19:00;CYQF 291900Z 18010KT 15SM SKC 25/09 A3013 RMK SLP206

CYQF;2009-08-29 20:00;CYQF 292000Z 18011G16KT 15SM SKC 27/08 A3012 RMK SLP204

CYQF;2009-08-29 21:00;CYQF 292100Z 15012G18KT 15SM SKC 27/08 A3012 RMK SLP197

CYQF;2009-08-29 22:00;CYQF 292200Z 16013KT 15SM FEW250 27/09 A3011 RMK CI0 SLP194

CYQF;2009-08-29 23:00;CYQF 292300Z 15012KT 15SM FEW250 27/07 A3011 RMK CI0 SLP195

CYQF;2009-08-30 00:00;CYQF 300000Z 16010KT 15SM FEW250 26/08 A3010 RMK CI0 SLP197

CYQF;2009-08-30 01:00;CYQF 300100Z 15008KT 15SM FEW250 24/08 A3010 RMK CI0 SLP195

CYQF;2009-08-30 02:00;CYQF 300200Z 15006KT 15SM FEW250 21/08 A3009 RMK CI0 SLP194

CYQF;2009-08-30 03:00;CYQF 300300Z 14007KT 15SM FEW250 18/07 A3010 RMK CI0 SLP200

CYQF;2009-08-30 04:00;CYQF 300400Z 18003KT 15SM SKC 15/08 A3011 RMK SLP203

CYQF;2009-08-30 05:00;CYQF 300500Z 16003KT 15SM SKC 15/07 A3012 RMK SLP204

CYQF;2009-08-30 06:00;CYQF 300600Z 00000KT 15SM SKC 12/06 A3011 RMK SLP198

CYQF;2009-08-30 07:00;CYQF 300700Z 20003KT 15SM SKC 10/05 A3010 RMK SLP197

CYQF;2009-08-30 08:00;CYQF 300800Z 00000KT 15SM SKC 10/06 A3010 RMK SLP195

CYQF;2009-08-30 09:00;CYQF 300900Z 00000KT 15SM SKC 08/04 A3008 RMK SLP188

CYQF;2009-08-30 10:00;CYQF 301000Z 00000KT 15SM SKC 08/05 A3007 RMK SLP187

CYQF;2009-08-30 11:00;CYQF 301100Z 00000KT 15SM SKC 07/04 A3008 RMK SLP188

CYQF;2009-08-30 12:00;CYQF 301200Z 00000KT 15SM FEW250 09/05 A3007 RMK CI0 SLP187

CYQF;2009-08-30 13:00;CYQF 301300Z 00000KT 15SM FEW250 08/06 A3007 RMK CI0 SLP186

CYQF;2009-08-30 14:00;CYQF 301400Z 17003KT 15SM BKN250 09/06 A3007 RMK CI0 SLP187

CYQF;2009-08-30 15:00;CYQF 301500Z 00000KT 15SM SCT250 12/08 A3008 RMK CI1 SLP192

CYQF;2009-08-30 16:00;CYQF 301600Z 19002KT 15SM SCT250 16/09 A3007 RMK CI1 SLP190

CYQF;2009-08-30 17:00;CYQF 301700Z 18008KT 15SM SCT250 20/09 A3006 RMK CI0 SLP186

CYQF;2009-08-30 18:00;CYQF 301800Z 18010KT 15SM SCT250 23/09 A3005 RMK CI1 SLP177

CYQF;2009-08-30 19:00;CYQF 301900Z 15010G17KT 15SM SCT250 24/08 A3004 RMK CI0 SLP174

CYQF;2009-08-30 20:00;CYQF 302000Z 16012KT 15SM SCT250 25/08 A3002 RMK CI0 SLP168

CYQF;2009-08-30 21:00;CYQF 302100Z 15010KT 15SM SCT250 26/08 A3000 RMK CI0 SLP163

CYQF;2009-08-30 22:00;CYQF 302200Z 16007KT 15SM BKN250 27/08 A2999 RMK CI1 SLP158

CYQF;2009-08-30 23:00;CYQF 302300Z 15007KT 15SM BKN250 26/06 A2997 RMK CI1 SLP152

CYQF;2009-08-31 00:00;CYQF 310000Z 16006KT 15SM SCT250 25/07 A2995 RMK CI1 SLP146

CYQF;2009-08-31 01:00;CYQF 310100Z 17005KT 15SM SCT250 24/08 A2994 RMK CI1 SLP142

CYQF;2009-08-31 02:00;CYQF 310200Z 14005KT 15SM FEW250 21/08 A2993 RMK CI1 SLP138

CYQF;2009-08-31 03:00;CYQF 310300Z 15004KT 15SM FEW250 18/08 A2993 RMK CI1 SLP142

CYQF;2009-08-31 04:00;CYQF 310400Z 16003KT 15SM FEW250 15/08 A2993 RMK CI1 SLP142

CYQF;2009-08-31 05:00;CYQF 310500Z 18004KT 15SM SKC 12/07 A2993 RMK SLP141

CYQF;2009-08-31 06:00;CYQF 310600Z 19004KT 15SM SKC 12/07 A2992 RMK SLP132

CYQF;2009-08-31 07:00;CYQF 310700Z 17004KT 15SM SKC 11/07 A2991 RMK SLP131

CYQF;2009-08-31 08:00;CYQF 310800Z 00000KT 15SM SKC 11/07 A2990 RMK SLP126

CYQF;2009-08-31 09:00;CYQF 310900Z 00000KT 15SM SKC 10/07 A2988 RMK SLP120

CYQF;2009-08-31 10:00;CYQF 311000Z 00000KT 15SM FEW250 09/06 A2987 RMK CI1 SLP116

CYQF;2009-08-31 11:00;CYQF 311100Z 00000KT 15SM FEW250 09/05 A2987 RMK CI1 SLP115

CYQF;2009-08-31 12:00;CYQF 311200Z 17003KT 15SM FEW250 08/05 A2985 RMK CI1 SLP111

CYQF;2009-08-31 13:00;CYQF 311300Z 00000KT 15SM FEW250 07/04 A2985 RMK CI0 SLP111

CYQF;2009-08-31 14:00;CYQF 311400Z 18002KT 15SM FEW250 08/06 A2985 RMK CI0 SLP111

CYQF;2009-08-31 15:00;CYQF 311500Z 17003KT 15SM SKC 12/08 A2985 RMK SLP115

CYQF;2009-08-31 16:00;CYQF 311600Z 19002KT 15SM SKC 14/09 A2985 RMK SLP115

CYQF;2009-08-31 17:00;CYQF 311700Z 19004KT 15SM SKC 17/10 A2985 RMK SLP116

CYQF;2009-08-31 18:00;CYQF 311800Z 18002KT 15SM SKC 20/11 A2984 RMK SLP109

CYQF;2009-08-31 19:00;CYQF 311900Z 25003KT 15SM SKC 22/11 A2984 RMK HZ SLP109

CYQF;2009-08-31 20:00;CYQF 312000Z 00000KT 10SM SKC 25/12 A2983 RMK SLP106

CYQF;2009-08-31 21:00;CYQF 312100Z 00000KT 10SM SKC 26/12 A2984 RMK HZ SLP102

CYQF;2009-08-31 22:00;CYQF 312200Z 00000KT 10SM SKC 27/11 A2983 RMK HZ SLP101

CYQF;2009-08-31 23:00;CYQF 312300Z 36002KT 10SM SKC 27/12 A2983 RMK HZ SLP101

CYQF;2009-09-01 01:00;CYQF 010100Z 02003KT 10SM SKC 26/12 A2983 RMK SLP103

CYQF;2009-09-01 02:00;CYQF 010200Z 36003KT 10SM SKC 22/14 A2984 RMK HZ SLP104

CYQF;2009-09-01 03:00;CYQF 010300Z 06002KT 10SM SCT250 18/13 A2985 RMK CI2 HZ SLP115

CYQF;2009-09-01 04:00;CYQF 010400Z 34004KT 15SM SCT250 17/12 A2987 RMK CI2 SLP122

CYQF;2009-09-01 05:00;CYQF 010500Z 15002KT 15SM SCT250 14/12 A2989 RMK CI2 SLP126

CYQF;2009-09-01 06:00;CYQF 010600Z 00000KT 15SM FEW250 13/10 A2989 RMK CI1 SLP126

CYQF;2009-09-01 07:00;CYQF 010700Z 00000KT 15SM FEW250 12/10 A2991 RMK CI1 SLP131

CYQF;2009-09-01 08:00;CYQF 010800Z 00000KT 15SM SKC 10/09 A2992 RMK SLP134

CYQF;2009-09-01 09:00;CYQF 010900Z 00000KT 15SM FEW250 10/08 A2992 RMK CI2 SLP133

CYQF;2009-09-01 10:00;CYQF 011000Z 19004KT 15SM FEW250 09/08 A2994 RMK CI2 SLP137

CYQF;2009-09-01 11:00;CYQF 011100Z 18003KT 6SM BR FEW250 08/07 A2995 RMK CI1 SLP141

CYQF;2009-09-01 12:00;CYQF 011200Z 22004KT 4SM BR FEW040 08/07 A2996 RMK FG2SC1 VIS N 2 SLP149

CYQF;2009-09-01 12:05;CYQF 011205Z 21003KT 1 1/2SM BR SCT090 RMK FG2AC1

CYQF;2009-09-01 12:41;CYQF 011241Z 20003KT 3SM BR MIFG SCT090 RMK FG2AC2

CYQF;2009-09-01 13:00;CYQF 011300Z 00000KT 6SM BR MIFG FEW090 FEW250 09/08 A2997 RMK AC2CI0 SLP152

CYQF;2009-09-01 14:00;CYQF 011400Z 19003KT 6SM BR MIFG FEW090 FEW250 10/09 A2998 RMK AC1CI0 SLP155

CYQF;2009-09-01 15:00;CYQF 011500Z 00000KT 6SM BR FEW090 13/12 A3000 RMK AC1 SLP166

CYQF;2009-09-01 16:00;CYQF 011600Z 00000KT 8SM FEW090 17/13 A3001 RMK AC1 SLP167

CYQF;2009-09-01 17:00;CYQF 011700Z 00000KT 6SM HZ FEW120 21/15 A3000 RMK AC1 SLP166

CYQF;2009-09-01 18:00;CYQF 011800Z CCA 36005KT 6SM HZ FEW120 23/14 A3000 RMK AC1 SLP161

CYQF;2009-09-01 19:00;CYQF 011900Z 00000KT 10SM FEW120 25/14 A3000 RMK AC1 SLP159

CYQF;2009-09-01 20:00;CYQF 012000Z 00000KT 10SM FEW150 26/14 A2999 RMK AC1 SLP156

CYQF;2009-09-01 21:00;CYQF 012100Z 00000KT 10SM FEW270 27/13 A2998 RMK CI1 SLP153

CYQF;2009-09-01 22:00;CYQF 012200Z 05005KT 10SM FEW270 28/12 A2997 RMK CI1 SLP149

CYQF;2009-09-01 23:00;CYQF 012300Z 08005KT 10SM SKC 28/12 A2996 RMK SLP145

CYQF;2009-09-02 00:00;CYQF 020000Z 11006KT 10SM SKC 28/13 A2995 RMK HZ SLP142

CYQF;2009-09-02 01:00;CYQF 020100Z 09005KT 15SM SKC 26/13 A2995 RMK SLP142

CYQF;2009-09-02 02:00;CYQF 020200Z 09004KT 15SM FEW100 24/13 A2996 RMK ACC2 CB TOP DIST SW SLP145

CYQF;2009-09-02 03:00;CYQF 020300Z 00000KT 15SM FEW100 20/13 A2997 RMK AC2 SLP152

CYQF;2009-09-02 04:00;CYQF 020400Z 00000KT 10SM BKN100 17/13 A2999 RMK AC5 SLP159

CYQF;2009-09-02 05:00;CYQF 020500Z 00000KT 15SM FEW100 16/12 A3000 RMK AC1 SLP160

CYQF;2009-09-02 06:00;CYQF 020600Z 13003KT 15SM SKC 16/11 A2999 RMK SLP155

CYQF;2009-09-02 07:00;CYQF 020700Z 19005KT 15SM SKC 14/10 A2998 RMK SLP152

CYQF;2009-09-02 08:00;CYQF 020800Z 20003KT 15SM FEW120 13/10 A2999 RMK AC1 SLP153

CYQF;2009-09-02 09:00;CYQF 020900Z 18002KT 15SM SCT120 12/09 A2999 RMK AC2 SLP151

CYQF;2009-09-02 10:00;CYQF 021000Z 00000KT 15SM FEW120 BKN250 14/10 A2999 RMK AC2CI2 SLP152

CYQF;2009-09-02 11:00;CYQF 021100Z 00000KT 15SM BKN120 BKN250 13/10 A2999 RMK AC5CI1 SLP152

CYQF;2009-09-02 12:00;CYQF 021200Z 20004KT 15SM SCT120 BKN250 13/10 A2999 RMK AC3CI1 SLP153

CYQF;2009-09-02 13:00;CYQF 021300Z 19003KT 15SM FEW120 SCT250 11/09 A2999 RMK AC2CI0 SLP153

CYQF;2009-09-02 14:00;CYQF 021400Z 00000KT 15SM FEW120 SCT250 12/09 A2997 RMK AC1CI1 SLP147

CYQF;2009-09-02 15:00;CYQF 021500Z 24002KT 15SM FEW120 FEW250 16/11 A2998 RMK AC1CI1 SLP154

CYQF;2009-09-02 16:00;CYQF 021600Z 18005KT 15SM FEW150 SCT270 18/11 A2999 RMK AC1CI0 SLP155

CYQF;2009-09-02 17:00;CYQF 021700Z 31002KT 15SM FEW270 22/13 A2999 RMK CI0 SLP156

CYQF;2009-09-02 18:00;CYQF 021800Z 25004KT 15SM FEW150 FEW270 24/13 A2999 RMK AC1CI1 SLP154

CYQF;2009-09-02 19:00;CYQF 021900Z 28003KT 15SM FEW050 FEW270 26/12 A2998 RMK CU1CI0 SLP151

CYQF;2009-09-02 20:00;CYQF 022000Z 30008KT 15SM FEW060 27/10 A2998 RMK CU2 SLP150

CYQF;2009-09-02 21:00;CYQF 022100Z 36005KT 15SM FEW060 27/11 A2998 RMK CU2 SLP148

CYQF;2009-09-02 22:00;CYQF 022200Z 33004KT 15SM FEW065 27/11 A2997 RMK CU1 SLP147

CYQF;2009-09-02 23:00;CYQF 022300Z 03004KT 15SM FEW065 28/11 A2996 RMK CU1 SLP144

CYQF;2009-09-03 00:00;CYQF 030000Z 03003KT 15SM FEW065 28/11 A2996 RMK CU1 SLP141

CYQF;2009-09-03 01:00;CYQF 030100Z 03004KT 15SM FEW065 27/11 A2995 RMK CU1 SLP139

CYQF;2009-09-03 02:00;CYQF 030200Z 05003KT 15SM FEW250 25/12 A2995 RMK CI1 SLP138

CYQF;2009-09-03 03:00;CYQF 030300Z 35003KT 15SM FEW060 FEW250 21/12 A2996 RMK SC1CI1 SLP146

CYQF;2009-09-03 04:00;CYQF 030400Z 00000KT 15SM SKC 18/11 A2997 RMK SLP148

CYQF;2009-09-03 05:00;CYQF 030500Z 00000KT 15SM SKC 15/11 A2998 RMK SLP151

CYQF;2009-09-03 06:00;CYQF 030600Z 33003KT 15SM SKC 14/10 A2998 RMK SLP151

CYQF;2009-09-03 07:00;CYQF 030700Z 00000KT 15SM SKC 12/10 A2998 RMK SLP152

CYQF;2009-09-03 08:00;CYQF 030800Z 00000KT 15SM SKC 11/09 A2998 RMK SLP152

CYQF;2009-09-03 09:00;CYQF 030900Z 00000KT 15SM SKC 11/09 A2997 RMK SLP148

CYQF;2009-09-03 10:00;CYQF 031000Z 00000KT 15SM SKC 09/07 A2997 RMK SLP147

CYQF;2009-09-03 11:00;CYQF 031100Z 00000KT 15SM SKC 09/08 A2996 RMK SLP144

CYQF;2009-09-03 11:46;CYQF 031146Z 22003KT 2SM BR SKC

CYQF;2009-09-03 12:00;CYQF 031200Z 23002KT 3SM BR FEW250 08/07 A2995 RMK CI0 SLP143

CYQF;2009-09-03 13:00;CYQF 031300Z 17003KT 5SM BR BKN250 08/07 A2994 RMK CI2 VSBY S-W 1 SLP140

CYQF;2009-09-03 14:00;CYQF 031400Z 24002KT 10SM SCT250 08/08 A2994 RMK CI1 SLP138

CYQF;2009-09-03 15:00;CYQF 031500Z 18002KT 15SM FEW120 SCT250 12/10 A2992 RMK AC1CI1 SLP136

CYQF;2009-09-03 16:00;CYQF 031600Z 20002KT 15SM FEW120 SCT250 16/12 A2991 RMK AC1CI1 SLP131

CYQF;2009-09-03 17:00;CYQF 031700Z 20003KT 15SM SCT250 20/12 A2989 RMK CI1 SLP126

CYQF;2009-09-03 18:00;CYQF 031800Z 16003KT 15SM SCT250 25/10 A2986 RMK CI1 SLP109

CYQF;2009-09-03 19:00;CYQF 031900Z 15008KT 15SM FEW080 SCT250 29/09 A2983 RMK AC2CI1 SLP097

CYQF;2009-09-03 20:00;CYQF 032000Z 16015G20KT 15SM FEW090 BKN260 29/03 A2979 RMK AC2CI2 SLP085

CYQF;2009-09-03 21:00;CYQF 032100Z 16012KT 15SM FEW090 BKN260 30/06 A2974 RMK AC2CI2 SLP064

CYQF;2009-09-03 22:00;CYQF 032200Z 15015G25KT 15SM FEW095 BKN250 30/06 A2969 RMK CU2CI3 PRESFR PSBL CB TOPS DIST SW SLP048

CYQF;2009-09-03 23:00;CYQF 032300Z 18015G30KT 15SM SCT100 BKN250 30/04 A2966 RMK CU4CI2 CB ASOCTD SLP040

CYQF;2009-09-04 00:00;CYQF 040000Z 24010G16KT 15SM SCT060CB BKN120 BKN250 25/07 A2968 RMK CB3AC2CI1 VIRGA SH DIST NW SLP054

CYQF;2009-09-04 00:29;CYQF 040029Z 23010KT 15SM -SHRA SCT060CB BKN100 BKN250 RMK CB4AC1CI1

CYQF;2009-09-04 00:41;CYQF 040041Z CCA 28025G40KT 15SM SCT060TCU BKN100 BKN250 RMK TCU3AC2CI1 VIRGA WND SHFT

CYQF;2009-09-04 01:00;CYQF 040100Z 26010G15KT 15SM FEW060TCU SCT100 BKN250 19/07 A2971 RMK TCU2AC2CI1 CB NE-E SLP063

CYQF;2009-09-04 02:00;CYQF 040200Z 26010KT 15SM BKN050 BKN100 17/05 A2973 RMK CU6AC1 TCU ASOCTD VIRGA SLP068

CYQF;2009-09-04 03:00;CYQF 040300Z 00000KT 15SM BKN050 16/05 A2976 RMK SC7 SLP084

CYQF;2009-09-04 04:00;CYQF 040400Z 23008KT 15SM BKN070 14/06 A2978 RMK AC7 SLP090

CYQF;2009-09-04 05:00;CYQF 040500Z 24005KT 15SM BKN070 16/04 A2977 RMK AC7 SLP087

CYQF;2009-09-04 06:00;CYQF 040600Z 23010KT 15SM BKN070 15/02 A2975 RMK AC6 SLP069

CYQF;2009-09-04 07:00;CYQF 040700Z 24010KT 15SM FEW070 12/02 A2976 RMK AC2 SLP072

CYQF;2009-09-04 08:00;CYQF 040800Z 21005KT 15SM FEW070 BKN250 11/02 A2977 RMK AC2CI2 SLP076

CYQF;2009-09-04 09:00;CYQF 040900Z 00000KT 15SM SCT070 11/02 A2976 RMK AC2 SLP070

CYQF;2009-09-04 10:00;CYQF 041000Z 26010KT 15SM BKN060 12/03 A2977 RMK SC6 SLP075

CYQF;2009-09-04 11:00;CYQF 041100Z 25005KT 15SM BKN060 11/06 A2976 RMK SC6 SLP070

CYQF;2009-09-04 12:00;CYQF 041200Z 29010KT 15SM BKN060 12/07 A2978 RMK SC6 SLP083

CYQF;2009-09-04 12:51;CYQF 041251Z 28010KT 15SM -SHRA BKN050 RMK SC6

CYQF;2009-09-04 13:00;CYQF 041300Z 27010KT 15SM -SHRA BKN050 12/08 A2980 RMK SC7 CU ASOCTD VIS NW 5 SLP090

CYQF;2009-09-04 13:49;CYQF 041349Z 24006KT 15SM BKN050 RMK SC7

CYQF;2009-09-04 14:00;CYQF 041400Z 24007KT 15SM VCSH BKN050 12/08 A2981 RMK SC6 SLP093

CYQF;2009-09-04 15:00;CYQF 041500Z 27010KT 15SM BKN040 14/08 A2981 RMK SC6 SLP101

CYQF;2009-09-04 16:00;CYQF 041600Z 27008KT 15SM BKN040 15/07 A2984 RMK SC6 SLP108

CYQF;2009-09-04 17:00;CYQF 041700Z 28007KT 15SM BKN040 BKN250 16/08 A2985 RMK SC6CI1 SLP112

CYQF;2009-09-04 18:00;CYQF 041800Z 27012KT 15SM FEW050 BKN250 20/09 A2986 RMK SC2CI1 SLP114

CYQF;2009-09-04 19:00;CYQF 041900Z 29014G23KT 15SM FEW050 FEW090 BKN250 21/08 A2985 RMK CU1AC1CI1 TR CU SLP112

CYQF;2009-09-04 20:00;CYQF 042000Z 29014G21KT 15SM FEW050 FEW100 BKN250 22/09 A2986 RMK CU1AC2CI0 SLP114

CYQF;2009-09-04 21:00;CYQF 042100Z 29015G20KT 15SM FEW050 SCT100 BKN250 22/08 A2988 RMK CU2AC2CI1 SLP120

CYQF;2009-09-04 22:00;CYQF 042200Z 32015G20KT 15SM FEW060 FEW100 SCT250 22/08 A2989 RMK SC2AC1CI1 SLP125

CYQF;2009-09-04 23:00;CYQF 042300Z 32015G20KT 15SM FEW060 FEW100 FEW250 21/08 A2990 RMK SC1AC1CI1 TR CI SLP126

CYQF;2009-09-05 00:00;CYQF 050000Z 35010G15KT 15SM FEW060 FEW100 20/08 A2991 RMK SC1AC1 SLP134

CYQF;2009-09-05 01:00;CYQF 050100Z 35012KT 15SM FEW100 18/07 A2993 RMK AC1 SLP139

CYQF;2009-09-05 02:00;CYQF 050200Z 35005KT 15SM FEW100 FEW250 16/07 A2994 RMK AC1CI0 SLP143

CYQF;2009-09-05 03:00;CYQF 050300Z 27004KT 15SM FEW100 FEW250 11/07 A2997 RMK AC1CI0 SLP161

CYQF;2009-09-05 04:00;CYQF 050400Z 25005KT 15SM FEW100 FEW250 09/05 A2998 RMK AC1CI1 SLP165

CYQF;2009-09-05 05:00;CYQF 050500Z 25007KT 15SM FEW250 09/06 A3000 RMK CI0 SLP169

CYQF;2009-09-05 06:00;CYQF 050600Z 25006KT 15SM FEW250 09/05 A3000 RMK CI0 SLP168

CYQF;2009-09-05 07:00;CYQF 050700Z 24002KT 15SM FEW250 08/05 A3001 RMK CI1 SLP172

CYQF;2009-09-05 08:00;CYQF 050800Z 17002KT 15SM FEW250 06/04 A3001 RMK CI1 SLP172

CYQF;2009-09-05 09:00;CYQF 050900Z 20003KT 15SM FEW250 05/04 A3002 RMK CI0 SLP175

CYQF;2009-09-05 10:00;CYQF 051000Z 20005KT 15SM FEW250 04/03 A3002 RMK CI0 SLP175

CYQF;2009-09-05 11:00;CYQF 051100Z 20003KT 15SM FEW250 05/04 A3002 RMK CI0 SLP176

CYQF;2009-09-05 12:00;CYQF 051200Z 21002KT 15SM FEW250 03/02 A3002 RMK CI1 SLP180

CYQF;2009-09-05 13:00;CYQF 051300Z 19005KT 15SM FEW100 BKN250 04/02 A3001 RMK AC1CI2 SLP179

CYQF;2009-09-05 14:00;CYQF 051400Z 19004KT 15SM FEW100 BKN250 05/04 A3002 RMK AC1CI3 SLP180

CYQF;2009-09-05 15:00;CYQF 051500Z 00000KT 15SM FEW100 BKN250 08/06 A3002 RMK AC2CI2 SLP183

CYQF;2009-09-05 16:00;CYQF 051600Z 10002KT 15SM FEW100 BKN250 13/09 A2999 RMK AC2CI1 SLP176

CYQF;2009-09-05 17:00;CYQF 051700Z 15011KT 15SM BKN100 BKN250 18/07 A2998 RMK AC5CI1 SLP173

CYQF;2009-09-05 18:00;CYQF 051800Z 16013KT 15SM FEW100 BKN250 18/07 A2997 RMK AC2CI2 SLP160

CYQF;2009-09-05 19:00;CYQF 051900Z 16012KT 15SM FEW100 BKN250 20/08 A2994 RMK AC2CI2 SLP150

CYQF;2009-09-05 20:00;CYQF 052000Z 16013KT 15SM FEW100 BKN250 21/08 A2992 RMK AC2CI2 SLP143

CYQF;2009-09-05 21:00;CYQF 052100Z 15010KT 15SM FEW100 BKN250 21/07 A2990 RMK AC1CI3 SLP134

CYQF;2009-09-05 22:00;CYQF 052200Z 16010KT 15SM FEW100 BKN250 22/07 A2987 RMK AC1CI2 SLP125

CYQF;2009-09-05 23:00;CYQF 052300Z 16010G15KT 15SM FEW100 BKN250 23/07 A2985 RMK AC2CI3 SLP118

CYQF;2009-09-06 00:00;CYQF 060000Z 13010KT 15SM SCT100 BKN250 22/07 A2983 RMK AC3CI2 SLP111

CYQF;2009-09-06 01:00;CYQF 060100Z 12008KT 15SM BKN100 BKN250 21/07 A2981 RMK AC5CI2 SLP107

CYQF;2009-09-06 02:00;CYQF 060200Z 10004KT 15SM SCT100 BKN250 19/08 A2981 RMK AC3CI2 SLP106

CYQF;2009-09-06 03:00;CYQF 060300Z 09005KT 15SM FEW100 BKN250 17/08 A2980 RMK AC2CI2 SLP102

CYQF;2009-09-06 04:00;CYQF 060400Z 12003KT 15SM SCT100 BKN250 17/07 A2980 RMK AC3CI2 SLP102

CYQF;2009-09-06 05:00;CYQF 060500Z 15006KT 15SM BKN100 OVC250 19/07 A2977 RMK AC6CI2 SLP094

CYQF;2009-09-06 06:00;CYQF 060600Z 16012KT 15SM BKN100 OVC250 20/07 A2976 RMK AC6CI2 SLP073

CYQF;2009-09-06 07:00;CYQF 060700Z 15010KT 15SM BKN090 OVC250 19/07 A2976 RMK AC6CI2 SLP074

CYQF;2009-09-06 08:00;CYQF 060800Z 18004KT 15SM BKN090 OVC250 17/09 A2976 RMK AC6CI2 SLP074

CYQF;2009-09-06 09:00;CYQF 060900Z 14012KT 15SM BKN090 OVC250 18/08 A2976 RMK AC6CI2 SLP073

CYQF;2009-09-06 10:00;CYQF 061000Z 09004KT 15SM BKN090 BKN250 15/08 A2973 RMK AC5CI2 SLP064

CYQF;2009-09-06 11:00;CYQF 061100Z 14005KT 15SM BKN090 BKN250 16/08 A2972 RMK AC5CI2 SLP061

CYQF;2009-09-06 12:00;CYQF 061200Z CCA 29005KT 15SM BKN090 BKN250 13/08 A2971 RMK AC5CI2 SLP060

CYQF;2009-09-06 13:00;CYQF 061300Z 28004KT 15SM SCT090 BKN250 11/08 A2972 RMK AC3CI3 SLP063

CYQF;2009-09-06 14:00;CYQF 061400Z 00000KT 15SM SCT090 BKN250 13/09 A2970 RMK AC4CI2 SLP057

CYQF;2009-09-06 15:00;CYQF 061500Z 14007KT 15SM FEW090 OVC250 17/10 A2969 RMK AC2CI4 SLP055

CYQF;2009-09-06 16:00;CYQF 061600Z 15008KT 15SM SCT090 OVC250 19/10 A2968 RMK AC3CI4 SLP053

CYQF;2009-09-06 17:00;CYQF 061700Z 15008KT 15SM FEW060 SCT090 OVC250 19/11 A2967 RMK SC1AC2CI6 ACC ASOCTD SLP050

CYQF;2009-09-06 18:00;CYQF 061800Z 16010KT 15SM FEW060 BKN090 OVC250 20/11 A2968 RMK SC1ACC6CI2 VIRGA SLP046

CYQF;2009-09-06 19:00;CYQF 061900Z 24008KT 12SM -TSRA SCT050CB BKN090 OVC250 19/12 A2968 RMK CB4AC2CI1 SLP047

CYQF;2009-09-06 19:35;CYQF 061935Z 27006KT 15SM SCT050TCU BKN090 OVC250 RMK TCU4AC2CI1 SHS NE-E

CYQF;2009-09-06 20:00;CYQF 062000Z 30006KT 15SM FEW050 BKN090 OVC250 18/14 A2967 RMK CU2AC3CI2 RETS VIRGA SLP042

CYQF;2009-09-06 21:00;CYQF 062100Z 27005KT 15SM FEW045 BKN090 BKN250 20/13 A2966 RMK CU2AC3CI2 SLP039

CYQF;2009-09-06 22:00;CYQF 062200Z 30004KT 15SM FEW040 BKN100 BKN250 19/11 A2964 RMK CU1AC4CI2 SLP033

CYQF;2009-09-06 23:00;CYQF 062300Z 00000KT 15SM FEW040 SCT100 BKN250 20/11 A2963 RMK CU1AC3CI2 SLP029

CYQF;2009-09-07 00:00;CYQF 070000Z 13005KT 15SM FEW040 FEW100 BKN250 21/11 A2959 RMK CU1AC1CI3 SLP021

CYQF;2009-09-07 01:00;CYQF 070100Z 20010G15KT 15SM FEW080 SCT250 20/01 A2960 RMK CU2CI1 SLP024

CYQF;2009-09-07 02:00;CYQF 070200Z 27010G15KT 15SM FEW060 FEW250 17/03 A2963 RMK CU1CI0 TCU ASOCTD SLP032

CYQF;2009-09-07 03:00;CYQF 070300Z 27005KT 15SM FEW060 13/03 A2967 RMK SC2 SLP051

CYQF;2009-09-07 04:00;CYQF 070400Z 00000KT 15SM SCT060 10/05 A2970 RMK SC3 SLP060

CYQF;2009-09-07 05:00;CYQF 070500Z 25005KT 15SM FEW060 08/05 A2972 RMK SC2 SLP068

CYQF;2009-09-07 06:00;CYQF 070600Z 19006KT 15SM FEW060 06/04 A2973 RMK SC2 SLP077

CYQF;2009-09-07 07:00;CYQF 070700Z 23003KT 15SM SKC 05/03 A2973 RMK SLP077

CYQF;2009-09-07 08:00;CYQF 070800Z 07003KT 15SM SKC 06/04 A2971 RMK SLP072

CYQF;2009-09-07 09:00;CYQF 070900Z 19006KT 15SM SKC 03/01 A2972 RMK SLP075

CYQF;2009-09-07 10:00;CYQF 071000Z 19006KT 15SM SKC 03/01 A2971 RMK SLP072

CYQF;2009-09-07 11:00;CYQF 071100Z 18005KT 15SM FEW080 04/02 A2971 RMK AC2 SLP074

CYQF;2009-09-07 12:00;CYQF 071200Z 13002KT 15SM SCT080 06/03 A2971 RMK AC3 SLP069

CYQF;2009-09-07 13:00;CYQF 071300Z 22002KT 15SM SCT060 06/03 A2971 RMK SC3 SLP070

CYQF;2009-09-07 14:00;CYQF 071400Z 17006KT 15SM BKN060 07/05 A2972 RMK SC6 TCU ASOCTD VIRGA SW-NW SLP071

CYQF;2009-09-07 15:00;CYQF 071500Z 27010G15KT 15SM SCT060 BKN100 13/05 A2972 RMK SC3AC2 VIRGA SW-NW SLP071

CYQF;2009-09-07 16:00;CYQF 071600Z 25010G15KT 15SM BKN060 BKN100 13/03 A2973 RMK SC5AC2 SLP076

CYQF;2009-09-07 16:23;CYQF 071623Z 26010G15KT 15SM -SHRA BKN060 BKN100 RMK SC5AC2

CYQF;2009-09-07 17:00;CYQF 071700Z 30007KT 15SM SCT060 BKN100 OVC250 12/06 A2975 RMK SC3AC4CI1 SLP080

CYQF;2009-09-07 18:00;CYQF 071800Z 27010KT 15SM BKN060 BKN100 OVC250 13/04 A2974 RMK SC5AC2CI1 VIRGA SLP089

CYQF;2009-09-07 19:00;CYQF 071900Z 33009KT 15SM SCT060 BKN100 BKN250 14/04 A2973 RMK SC3AC2CI2 SLP086

CYQF;2009-09-07 20:00;CYQF 072000Z 36005KT 15SM SCT045 BKN080 BKN250 15/04 A2973 RMK CU3AC2CI2 SLP084

CYQF;2009-09-07 21:00;CYQF 072100Z 00000KT 15SM FEW060 SCT080 BKN250 17/02 A2971 RMK CU2AC2CI1 SLP078

CYQF;2009-09-07 22:00;CYQF 072200Z 19008KT 15SM FEW045 SCT080 BKN250 18/02 A2970 RMK CU2AC2CI2 SLP074

CYQF;2009-09-07 23:00;CYQF 072300Z 21006KT 15SM SCT045 SCT080 BKN250 18/01 A2970 RMK CU3AC1CI2 VIRGA SLP073

CYQF;2009-09-08 00:00;CYQF 080000Z 36003KT 15SM FEW050 BKN090 BKN250 16/03 A2970 RMK CU2AC2CI2 VIRGA SLP072

CYQF;2009-09-08 01:00;CYQF 080100Z 00000KT 15SM FEW050 SCT100 BKN250 15/07 A2970 RMK CU1AC4CI2 SLP072

CYQF;2009-09-08 02:00;CYQF 080200Z 18003KT 15SM FEW050 SCT100 BKN250 13/06 A2970 RMK CU1AC3CI2 SLP071

CYQF;2009-09-08 03:00;CYQF 080300Z 23005KT 15SM FEW050 FEW100 BKN250 09/04 A2971 RMK SC1AC2CI2 SLP075

CYQF;2009-09-08 04:00;CYQF 080400Z 25007KT 15SM FEW100 FEW250 07/01 A2972 RMK AC1CI0 SLP078

CYQF;2009-09-08 05:00;CYQF 080500Z 25006KT 15SM FEW100 FEW250 06/00 A2972 RMK AC2CI0 SLP078

CYQF;2009-09-08 06:00;CYQF 080600Z 22007KT 15SM SKC 04/M00 A2973 RMK SLP086

CYQF;2009-09-08 07:00;CYQF 080700Z 20005KT 15SM SKC 04/M01 A2973 RMK SLP087

CYQF;2009-09-08 08:00;CYQF 080800Z 19005KT 15SM SKC 04/M01 A2973 RMK SLP088

CYQF;2009-09-08 09:00;CYQF 080900Z 20007KT 15SM SCT250 02/M02 A2973 RMK CI0 SLP083

CYQF;2009-09-08 10:00;CYQF 081000Z 24008KT 15SM BKN250 01/M02 A2972 RMK CI0 SLP082

CYQF;2009-09-08 11:00;CYQF 081100Z 20007KT 15SM BKN250 02/M01 A2972 RMK CI5 SLP082

CYQF;2009-09-08 12:00;CYQF 081200Z 20006KT 15SM FEW250 02/M02 A2972 RMK CI0 SLP083

CYQF;2009-09-08 13:00;CYQF 081300Z 20005KT 15SM FEW100 FEW250 01/M02 A2972 RMK AC1CI1 VIRGA NW SLP084

CYQF;2009-09-08 14:00;CYQF 081400Z 23005KT 15SM FEW100 FEW250 02/M01 A2974 RMK AC1CI1 SLP089

CYQF;2009-09-08 15:00;CYQF 081500Z 23006KT 15SM FEW100 FEW250 07/02 A2975 RMK AC2CI1 SLP094

CYQF;2009-09-08 16:00;CYQF 081600Z 24003KT 15SM FEW100 FEW250 12/03 A2976 RMK AC2CI1 SLP097

CYQF;2009-09-08 17:00;CYQF 081700Z 24006KT 15SM BKN100 16/03 A2976 RMK AC6 SLP098

CYQF;2009-09-08 18:00;CYQF 081800Z 30004KT 15SM BKN100 BKN250 18/02 A2976 RMK AC6CI1 VIRGA SLP090

CYQF;2009-09-08 19:00;CYQF 081900Z 24007KT 15SM FEW060 SCT100 BKN250 19/01 A2975 RMK CU1AC3CI2 SLP087

CYQF;2009-09-08 20:00;CYQF 082000Z 30007KT 15SM FEW060 BKN100 BKN250 19/01 A2974 RMK CU2AC2CI2 SLP085

CYQF;2009-09-08 21:00;CYQF 082100Z CCA 29008KT 15SM FEW070 BKN100 BKN250 20/02 A2974 RMK CU2AC3CI2 SLP084

CYQF;2009-09-08 22:00;CYQF 082200Z 29008KT 15SM SCT060 BKN100 BKN250 20/01 A2974 RMK CU4AC2CI1 SLP085

CYQF;2009-09-08 23:00;CYQF 082300Z 29007KT 15SM SCT060 BKN100 20/00 A2974 RMK CU3AC2 SLP085

CYQF;2009-09-09 00:00;CYQF 090000Z 27005KT 15SM SCT060 BKN100 19/01 A2975 RMK CU4AC1 SLP090

CYQF;2009-09-09 01:00;CYQF 090100Z 30004KT 15SM FEW070 19/03 A2976 RMK AC2 SLP091

CYQF;2009-09-09 02:00;CYQF 090200Z 28006KT 15SM FEW070 15/00 A2977 RMK AC1 SLP096

CYQF;2009-09-09 03:00;CYQF 090300Z 27005KT 15SM FEW070 11/00 A2980 RMK AC1 SLP109

CYQF;2009-09-09 04:00;CYQF 090400Z 25008KT 15SM SKC 09/00 A2982 RMK SLP115

CYQF;2009-09-09 05:00;CYQF 090500Z 24005KT 15SM SKC 09/M01 A2983 RMK SLP120

CYQF;2009-09-09 06:00;CYQF 090600Z 14004KT 15SM SKC 06/M01 A2984 RMK SLP118

CYQF;2009-09-09 07:00;CYQF 090700Z 17005KT 15SM SKC 04/M01 A2985 RMK SLP122

CYQF;2009-09-09 08:00;CYQF 090800Z 20004KT 15SM SKC 03/M02 A2987 RMK SLP127

CYQF;2009-09-09 09:00;CYQF 090900Z 19003KT 15SM SKC 03/M02 A2987 RMK SLP130

CYQF;2009-09-09 10:00;CYQF 091000Z 16004KT 15SM SKC 02/M02 A2988 RMK SLP133

CYQF;2009-09-09 11:00;CYQF 091100Z 19005KT 15SM SCT250 02/M03 A2989 RMK CI1 SLP136

CYQF;2009-09-09 12:00;CYQF 091200Z 20004KT 15SM BKN250 01/M03 A2989 RMK CI2 SLP139

CYQF;2009-09-09 13:00;CYQF 091300Z 22004KT 15SM BKN250 01/M03 A2989 RMK CI2 SLP138

CYQF;2009-09-09 14:00;CYQF 091400Z 18003KT 15SM FEW100 BKN250 02/M02 A2990 RMK AC2CI2 SLP143

CYQF;2009-09-09 15:00;CYQF 091500Z 00000KT 15SM FEW100 BKN250 06/M00 A2990 RMK AC2CI2 SLP145

CYQF;2009-09-09 16:00;CYQF 091600Z 00000KT 15SM FEW100 BKN250 11/01 A2990 RMK AC2CI3 SLP145

CYQF;2009-09-09 17:00;CYQF 091700Z 08005KT 15SM FEW100 BKN250 17/M00 A2988 RMK AC2CI2 SLP140

CYQF;2009-09-09 18:00;CYQF 091800Z 18009KT 15SM FEW100 BKN250 19/M00 A2987 RMK AC2CI2 SLP126

CYQF;2009-09-09 19:00;CYQF 091900Z 17012KT 15SM FEW100 BKN250 20/02 A2984 RMK AC2CI3 SLP118

CYQF;2009-09-09 20:00;CYQF 092000Z 18012KT 15SM SCT100 BKN250 21/01 A2983 RMK AC4CI2 SLP114

CYQF;2009-09-09 21:00;CYQF 092100Z 21011KT 15SM BKN090 BKN250 20/04 A2982 RMK AC5CI2 SLP113

CYQF;2009-09-09 22:00;CYQF 092200Z 20008KT 15SM BKN090 OVC250 19/05 A2983 RMK AC6CI1 SLP114

CYQF;2009-09-09 23:00;CYQF 092300Z 20004KT 15SM BKN065 OVC250 19/06 A2982 RMK SC7CI1 SLP113

CYQF;2009-09-10 00:00;CYQF 100000Z 22006KT 15SM FEW030 BKN070 BKN250 20/06 A2982 RMK CU1AC4CI2 SLP113

CYQF;2009-09-10 01:00;CYQF 100100Z 24003KT 15SM FEW030 SCT070 BKN250 19/07 A2983 RMK CU1AC2CI1 SLP116

CYQF;2009-09-10 02:00;CYQF 100200Z 25004KT 15SM FEW030 SCT070 BKN250 16/06 A2984 RMK SC1AC1CI1 SLP119

CYQF;2009-09-10 03:00;CYQF 100300Z 22002KT 15SM FEW070 FEW250 12/06 A2985 RMK AC1CI1 SLP125

CYQF;2009-09-10 04:00;CYQF 100400Z 22002KT 15SM SCT100 10/05 A2987 RMK AC3 SLP134

CYQF;2009-09-10 05:00;CYQF 100500Z 20010KT 15SM FEW100 08/04 A2988 RMK AC2 SLP137

CYQF;2009-09-10 06:00;CYQF 100600Z 23006KT 15SM FEW100 10/04 A2990 RMK AC2 SLP132

CYQF;2009-09-10 07:00;CYQF 100700Z 24005KT 15SM FEW100 09/03 A2991 RMK AC1 SLP136

CYQF;2009-09-10 08:00;CYQF 100800Z 23005KT 15SM FEW100 07/03 A2992 RMK AC1 SLP139

CYQF;2009-09-10 09:00;CYQF 100900Z 23006KT 15SM FEW100 06/02 A2994 RMK AC2 SLP148

CYQF;2009-09-10 10:00;CYQF 101000Z 00000KT 15SM SCT100 05/02 A2996 RMK AC3 SLP156

CYQF;2009-09-10 11:00;CYQF 101100Z 24004KT 15SM BKN100 05/02 A2999 RMK AC5 SLP165

CYQF;2009-09-10 12:00;CYQF 101200Z 29003KT 15SM BKN100 06/03 A3003 RMK AC6 SLP180

CYQF;2009-09-10 13:00;CYQF 101300Z 24004KT 15SM BKN100 BKN250 07/04 A3007 RMK AC5CI2 SLP193

CYQF;2009-09-10 14:00;CYQF 101400Z 31004KT 15SM SCT100 BKN250 08/05 A3011 RMK AC2CI2 SLP206

CYQF;2009-09-10 15:00;CYQF 101500Z 31013KT 15SM BKN050 BKN100 BKN250 12/06 A3014 RMK SC5AC1CI1 SLP221

CYQF;2009-09-10 16:00;CYQF 101600Z 34010G15KT 15SM SCT050 BKN100 BKN250 12/06 A3017 RMK SC3AC2CI1 SLP232

CYQF;2009-09-10 17:00;CYQF 101700Z 36011KT 15SM FEW031 SCT090 14/07 A3020 RMK CU2AC2 VIRGA SLP241

CYQF;2009-09-10 18:00;CYQF 101800Z 35010G15KT 15SM FEW035 SCT090 16/06 A3022 RMK CU2AC2 SLP248

CYQF;2009-09-10 19:00;CYQF 101900Z 33010G17KT 15SM FEW045 16/05 A3023 RMK CF2 SLP251

CYQF;2009-09-10 20:00;CYQF 102000Z 31010G15KT 15SM FEW050 17/05 A3024 RMK CF2 SLP254

CYQF;2009-09-10 21:00;CYQF 102100Z 32010G15KT 15SM FEW050 18/05 A3025 RMK CU2 SLP261

CYQF;2009-09-10 22:00;CYQF 102200Z 30010KT 15SM FEW050 18/04 A3027 RMK CU1 SLP266

CYQF;2009-09-10 23:00;CYQF 102300Z 33008KT 15SM FEW050 FEW250 19/04 A3028 RMK CU1CI1 SLP270

CYQF;2009-09-11 00:00;CYQF 110000Z 33007KT 15SM FEW050 FEW250 18/04 A3030 RMK CU1CI0 SLP275

CYQF;2009-09-11 01:00;CYQF 110100Z 36005KT 15SM FEW250 18/04 A3031 RMK CI0 SLP279

CYQF;2009-09-11 02:00;CYQF 110200Z 01003KT 15SM FEW250 15/04 A3033 RMK CI1 SLP284

CYQF;2009-09-11 03:00;CYQF 110300Z 00000KT 15SM FEW250 11/05 A3035 RMK CI1 SLP296

CYQF;2009-09-11 04:00;CYQF 110400Z 00000KT 15SM SKC 07/03 A3037 RMK SLP301

CYQF;2009-09-11 05:00;CYQF 110500Z 20004KT 15SM SKC 06/03 A3038 RMK SLP305

CYQF;2009-09-11 06:00;CYQF 110600Z 00000KT 15SM SKC 06/03 A3038 RMK SLP306

CYQF;2009-09-11 07:00;CYQF 110700Z 20003KT 15SM SKC 04/01 A3037 RMK SLP304

CYQF;2009-09-11 08:00;CYQF 110800Z 00000KT 15SM FEW250 05/02 A3037 RMK CI0 SLP303

CYQF;2009-09-11 09:00;CYQF 110900Z 00000KT 15SM FEW250 04/01 A3037 RMK CI0 SLP303

CYQF;2009-09-11 10:00;CYQF 111000Z 00000KT 15SM FEW250 03/01 A3038 RMK CI0 SLP305

CYQF;2009-09-11 11:00;CYQF 111100Z 00000KT 15SM FEW250 03/01 A3038 RMK CI0 SLP305

CYQF;2009-09-11 12:00;CYQF 111200Z 20003KT 15SM FEW250 02/00 A3037 RMK CI0 SLP305

CYQF;2009-09-11 13:00;CYQF 111300Z 00000KT 15SM BKN250 03/01 A3036 RMK CI1 SLP302

CYQF;2009-09-11 14:00;CYQF 111400Z 19004KT 15SM BKN250 04/01 A3037 RMK CI2 SLP306

CYQF;2009-09-11 15:00;CYQF 111500Z 21003KT 15SM BKN250 07/04 A3037 RMK CI2 SLP309

CYQF;2009-09-11 16:00;CYQF 111600Z 19003KT 15SM SCT260 13/05 A3037 RMK CI1 SLP308

CYQF;2009-09-11 17:00;CYQF 111700Z 18009KT 15SM SCT260 18/05 A3036 RMK CI1 SLP305

CYQF;2009-09-11 18:00;CYQF 111800Z 17010G15KT 15SM FEW260 20/05 A3035 RMK CI0 SLP293

CYQF;2009-09-11 19:00;CYQF 111900Z 17010G15KT 15SM FEW260 21/05 A3032 RMK CI0 SLP284

CYQF;2009-09-11 20:00;CYQF 112000Z 18011G17KT 15SM FEW260 22/04 A3030 RMK CI1 SLP277

CYQF;2009-09-11 21:00;CYQF 112100Z 18011G16KT 15SM FEW260 23/04 A3028 RMK CI2 SLP266

CYQF;2009-09-11 22:00;CYQF 112200Z 17010G15KT 15SM FEW260 24/04 A3027 RMK CI0 SLP262

CYQF;2009-09-11 23:00;CYQF 112300Z 17010G15KT 15SM FEW260 24/04 A3025 RMK CI0 SLP256

CYQF;2009-09-12 00:00;CYQF 120000Z 17010G15KT 15SM FEW260 24/04 A3022 RMK CI1 SLP247

CYQF;2009-09-12 01:00;CYQF 120100Z 15010KT 15SM FEW260 22/04 A3021 RMK CI1 SLP244

CYQF;2009-09-12 02:00;CYQF 120200Z 15011KT 15SM SKC 19/04 A3020 RMK SLP240

CYQF;2009-09-12 03:00;CYQF 120300Z 15008KT 15SM SKC 16/04 A3020 RMK SLP242

CYQF;2009-09-12 04:00;CYQF 120400Z 15008KT 15SM SKC 16/03 A3019 RMK SLP239

CYQF;2009-09-12 05:00;CYQF 120500Z 17008KT 15SM SKC 16/03 A3018 RMK SLP238

CYQF;2009-09-12 06:00;CYQF 120600Z 17010KT 15SM SKC 14/04 A3017 RMK SLP221

CYQF;2009-09-12 07:00;CYQF 120700Z 17010KT 15SM SKC 13/04 A3016 RMK SLP217

CYQF;2009-09-12 08:00;CYQF 120800Z 17010KT 15SM SKC 12/04 A3014 RMK SLP212

CYQF;2009-09-12 09:00;CYQF 120900Z 17010KT 15SM SKC 11/03 A3012 RMK SLP204

CYQF;2009-09-12 10:00;CYQF 121000Z 18012KT 15SM SKC 11/03 A3011 RMK SLP199

CYQF;2009-09-12 11:00;CYQF 121100Z 17010KT 15SM SKC 10/03 A3009 RMK SLP193

CYQF;2009-09-12 12:00;CYQF 121200Z 15006KT 15SM SKC 08/03 A3008 RMK SLP191

CYQF;2009-09-12 13:00;CYQF 121300Z 17008KT 15SM SKC 08/03 A3006 RMK SLP186

CYQF;2009-09-12 14:00;CYQF 121400Z 16007KT 15SM SKC 10/04 A3004 RMK SLP179

CYQF;2009-09-12 15:00;CYQF 121500Z 18010G15KT 15SM SKC 13/04 A3004 RMK SLP181

CYQF;2009-09-12 16:00;CYQF 121600Z 18010G15KT 15SM SKC 16/04 A3004 RMK SLP180

CYQF;2009-09-12 17:00;CYQF 121700Z 16012G20KT 15SM SKC 19/05 A3002 RMK SLP175

CYQF;2009-09-12 18:00;CYQF 121800Z 16013G19KT 15SM SKC 20/04 A2999 RMK SLP159

CYQF;2009-09-12 19:00;CYQF 121900Z 16010G16KT 15SM SKC 23/05 A2997 RMK SLP152

CYQF;2009-09-12 20:00;CYQF 122000Z 17011G18KT 15SM SKC 25/05 A2995 RMK SLP145

CYQF;2009-09-12 21:00;CYQF 122100Z 16015G20KT 15SM SKC 27/04 A2993 RMK SLP132

CYQF;2009-09-12 22:00;CYQF 122200Z 16016G22KT 15SM SKC 27/04 A2991 RMK SLP128

CYQF;2009-09-12 23:00;CYQF 122300Z 16012G18KT 15SM SKC 27/03 A2990 RMK SLP125

CYQF;2009-09-13 00:00;CYQF 130000Z 16010G15KT 15SM SKC 26/03 A2989 RMK SLP125

CYQF;2009-09-13 01:00;CYQF 130100Z 15010G15KT 15SM SKC 25/03 A2988 RMK SLP120

CYQF;2009-09-13 02:00;CYQF 130200Z 15010KT 15SM SKC 21/03 A2987 RMK SLP117

CYQF;2009-09-13 03:00;CYQF 130300Z 14005KT 15SM SKC 19/02 A2987 RMK SLP118

CYQF;2009-09-13 04:00;CYQF 130400Z 14004KT 15SM SKC 16/02 A2986 RMK SLP117

CYQF;2009-09-13 05:00;CYQF 130500Z 15007KT 15SM SKC 13/02 A2986 RMK SLP116

CYQF;2009-09-13 06:00;CYQF 130600Z 19002KT 15SM SKC 13/02 A2985 RMK SLP113

CYQF;2009-09-13 07:00;CYQF 130700Z 16005KT 15SM SKC 13/02 A2985 RMK SLP110

CYQF;2009-09-13 08:00;CYQF 130800Z 00000KT 15SM SKC 12/02 A2984 RMK SLP108

CYQF;2009-09-13 09:00;CYQF 130900Z 17006KT 15SM SKC 10/02 A2982 RMK SLP097

CYQF;2009-09-13 10:00;CYQF 131000Z 16006KT 15SM SKC 11/02 A2982 RMK SLP095

CYQF;2009-09-13 11:00;CYQF 131100Z 16008KT 15SM SKC 07/01 A2982 RMK SLP095

CYQF;2009-09-13 12:00;CYQF 131200Z 00000KT 15SM SKC 07/01 A2981 RMK SLP098

CYQF;2009-09-13 13:00;CYQF 131300Z 16004KT 15SM SKC 08/02 A2981 RMK SLP098

CYQF;2009-09-13 14:00;CYQF 131400Z 17007KT 15SM SKC 08/02 A2982 RMK SLP099

CYQF;2009-09-13 15:00;CYQF 131500Z 19005KT 15SM SKC 12/04 A2982 RMK SLP103

CYQF;2009-09-13 16:00;CYQF 131600Z 17010G15KT 15SM SKC 15/04 A2981 RMK SLP101

CYQF;2009-09-13 17:00;CYQF 131700Z 17013KT 15SM SKC 18/05 A2981 RMK SLP101

CYQF;2009-09-13 18:00;CYQF 131800Z 17010G15KT 15SM SKC 21/06 A2980 RMK SLP092

CYQF;2009-09-13 19:00;CYQF 131900Z 17010G17KT 15SM SKC 22/05 A2978 RMK SLP088

CYQF;2009-09-13 20:00;CYQF 132000Z 15017G23KT 15SM SKC 24/06 A2977 RMK SLP085

CYQF;2009-09-13 21:00;CYQF 132100Z 17011G19KT 15SM SKC 24/06 A2976 RMK SLP079

CYQF;2009-09-13 22:00;CYQF 132200Z 14014G22KT 15SM SKC 24/06 A2976 RMK SLP078

CYQF;2009-09-13 23:00;CYQF 132300Z 13010KT 15SM SKC 24/06 A2976 RMK SLP077

CYQF;2009-09-14 00:00;CYQF 140000Z 14010G15KT 15SM SKC 24/04 A2975 RMK SLP079

CYQF;2009-09-14 01:00;CYQF 140100Z 14010G15KT 15SM SKC 22/05 A2975 RMK SLP079

CYQF;2009-09-14 02:00;CYQF 140200Z 14010KT 15SM SKC 19/05 A2975 RMK SLP079

CYQF;2009-09-14 03:00;CYQF 140300Z 14005KT 15SM SKC 15/05 A2975 RMK SLP083

CYQF;2009-09-14 04:00;CYQF 140400Z 14006KT 15SM SKC 14/05 A2975 RMK SLP082

CYQF;2009-09-14 05:00;CYQF 140500Z 15005KT 15SM SKC 14/05 A2975 RMK SLP082

CYQF;2009-09-14 06:00;CYQF 140600Z 17006KT 15SM SKC 12/05 A2974 RMK SLP074

CYQF;2009-09-14 07:00;CYQF 140700Z 17004KT 15SM SKC 09/05 A2974 RMK SLP072

CYQF;2009-09-14 08:00;CYQF 140800Z 00000KT 15SM SKC 10/05 A2974 RMK SLP073

CYQF;2009-09-14 09:00;CYQF 140900Z 00000KT 15SM SKC 08/04 A2974 RMK SLP075

CYQF;2009-09-14 10:00;CYQF 141000Z 16005KT 15SM SKC 08/04 A2974 RMK SLP073

CYQF;2009-09-14 11:00;CYQF 141100Z 00000KT 15SM SKC 07/04 A2974 RMK SLP073

CYQF;2009-09-14 12:00;CYQF 141200Z 00000KT 15SM SKC 06/04 A2974 RMK SLP076

CYQF;2009-09-14 13:00;CYQF 141300Z 34004KT 15SM FEW100 05/03 A2974 RMK AC1 SLP076

CYQF;2009-09-14 14:00;CYQF 141400Z 30002KT 15SM FEW100 04/03 A2974 RMK AC1 SLP077

CYQF;2009-09-14 15:00;CYQF 141500Z 26003KT 15SM SKC 10/06 A2974 RMK SLP083

CYQF;2009-09-14 16:00;CYQF 141600Z 02002KT 15SM FEW220 13/07 A2975 RMK CI1 SLP084

CYQF;2009-09-14 17:00;CYQF 141700Z 00000KT 15SM SCT220 15/08 A2976 RMK CI1 SLP087

CYQF;2009-09-14 18:00;CYQF 141800Z 10003KT 15SM SCT220 19/09 A2976 RMK CI2 SLP082

CYQF;2009-09-14 19:00;CYQF 141900Z 01003KT 15SM BKN220 20/09 A2975 RMK CI2 SLP079

CYQF;2009-09-14 20:00;CYQF 142000Z 05005KT 15SM BKN220 21/10 A2975 RMK CI3 SLP079

CYQF;2009-09-14 21:00;CYQF 142100Z 09004KT 15SM FEW050 BKN200 21/09 A2976 RMK CU1CI2 SLP083

CYQF;2009-09-14 22:00;CYQF 142200Z 06012KT 15SM FEW045 BKN220 21/10 A2977 RMK CU1CI3 SLP088

CYQF;2009-09-14 23:00;CYQF 142300Z 06010KT 15SM FEW040 BKN220 19/09 A2980 RMK CU1CI3 SLP096

CYQF;2009-09-15 00:00;CYQF 150000Z 06010G15KT 15SM BKN250 20/10 A2981 RMK CI2 SLP103

CYQF;2009-09-15 01:00;CYQF 150100Z 09008KT 15SM BKN250 18/10 A2984 RMK CI3 SLP112

CYQF;2009-09-15 02:00;CYQF 150200Z 10005KT 15SM FEW065 SCT250 16/09 A2986 RMK SC1CI2 CU ASOCTD SLP119

CYQF;2009-09-15 03:00;CYQF 150300Z 07002KT 15SM FEW065 FEW250 13/08 A2988 RMK SC1CI0 SLP132

CYQF;2009-09-15 04:00;CYQF 150400Z 00000KT 15SM FEW250 10/07 A2990 RMK CI0 SLP139

CYQF;2009-09-15 05:00;CYQF 150500Z 24006KT 15SM FEW250 09/06 A2992 RMK CI0 SLP145

CYQF;2009-09-15 06:00;CYQF 150600Z 22004KT 15SM FEW250 07/06 A2994 RMK CI0 SLP150

CYQF;2009-09-15 07:00;CYQF 150700Z CCA 18003KT 15SM FEW250 07/06 A2996 RMK CI0 SLP157

CYQF;2009-09-15 08:00;CYQF 150800Z 19005KT 15SM FEW250 06/05 A2998 RMK CI0 SLP162

CYQF;2009-09-15 09:00;CYQF 150900Z 19002KT 15SM SKC 06/05 A3000 RMK SLP169

CYQF;2009-09-15 10:00;CYQF 151000Z 20005KT 15SM FEW250 06/05 A3001 RMK CI0 SLP174

CYQF;2009-09-15 11:00;CYQF 151100Z 00000KT 15SM SKC 06/06 A3001 RMK SLP174

CYQF;2009-09-15 12:00;CYQF 151200Z 24004KT 15SM SKC 05/04 A3004 RMK SLP184

CYQF;2009-09-15 13:00;CYQF 151300Z 21002KT 10SM MIFG FEW100 SCT250 05/04 A3005 RMK AC1CI1 SLP189

CYQF;2009-09-15 14:00;CYQF 151400Z 24005KT 12SM FEW100 SCT250 06/05 A3008 RMK AC1CI1 BR SLP198

CYQF;2009-09-15 15:00;CYQF 151500Z 23005KT 15SM FEW250 11/09 A3010 RMK CI1 SLP208

CYQF;2009-09-15 16:00;CYQF 151600Z 28005KT 15SM FEW250 15/11 A3012 RMK CI1 SLP213

CYQF;2009-09-15 17:00;CYQF 151700Z 32008KT 15SM FEW250 20/12 A3013 RMK CI0 SLP217

CYQF;2009-09-15 18:00;CYQF 151800Z 30010KT 15SM SKC 22/12 A3014 RMK SLP216

CYQF;2009-09-15 19:00;CYQF 151900Z 30008KT 15SM SKC 22/11 A3015 RMK SLP217

CYQF;2009-09-15 20:00;CYQF 152000Z 30006KT 15SM FEW250 24/11 A3015 RMK CI1 SLP219

CYQF;2009-09-15 21:00;CYQF 152100Z 36005KT 15SM FEW250 25/11 A3015 RMK CI1 SLP218

CYQF;2009-09-15 22:00;CYQF 152200Z 35003KT 15SM FEW250 26/11 A3015 RMK CI1 SLP219

CYQF;2009-09-15 23:00;CYQF 152300Z 00000KT 15SM SCT250 26/11 A3015 RMK CI1 SLP219

CYQF;2009-09-16 00:00;CYQF 160000Z 36002KT 15SM BKN250 25/11 A3016 RMK CI4 SLP221

CYQF;2009-09-16 01:00;CYQF 160100Z 05004KT 15SM BKN250 23/11 A3016 RMK CI4 SLP222

CYQF;2009-09-16 02:00;CYQF 160200Z 03002KT 15SM FEW100 BKN250 20/11 A3017 RMK AC1CI4 SLP225

CYQF;2009-09-16 03:00;CYQF 160300Z 08005KT 15SM FEW100 BKN250 19/11 A3018 RMK AC1CI4 SLP228

CYQF;2009-09-16 04:00;CYQF 160400Z 00000KT 15SM FEW100 BKN250 16/10 A3019 RMK AC2CI4 SLP231

CYQF;2009-09-16 05:00;CYQF 160500Z 00000KT 15SM FEW100 SCT250 15/10 A3020 RMK AC1CI2 SLP233

CYQF;2009-09-16 06:00;CYQF 160600Z 03002KT 15SM SKC 14/10 A3020 RMK SLP228

CYQF;2009-09-16 07:00;CYQF 160700Z 04003KT 15SM SKC 13/09 A3019 RMK SLP227

CYQF;2009-09-16 08:00;CYQF 160800Z 18004KT 15SM SKC 12/09 A3018 RMK SLP224

CYQF;2009-09-16 09:00;CYQF 160900Z 04005KT 15SM SKC 12/09 A3017 RMK SLP218

CYQF;2009-09-16 10:00;CYQF 161000Z 35002KT 15SM SKC 11/08 A3017 RMK SLP219

CYQF;2009-09-16 11:00;CYQF 161100Z 14005KT 15SM SKC 13/08 A3016 RMK SLP216

CYQF;2009-09-16 12:00;CYQF 161200Z 24002KT 15SM SKC 11/07 A3015 RMK SLP213

CYQF;2009-09-16 13:00;CYQF 161300Z 20002KT 15SM FEW250 09/07 A3015 RMK CI1 SLP212

CYQF;2009-09-16 14:00;CYQF 161400Z 00000KT 15SM FEW250 09/07 A3014 RMK CI1 SLP209

CYQF;2009-09-16 15:00;CYQF 161500Z 00000KT 15SM FEW250 14/09 A3013 RMK CI1 SLP207

CYQF;2009-09-16 16:00;CYQF 161600Z 16008KT 15SM FEW250 18/09 A3012 RMK CI1 HZ SLP205

CYQF;2009-09-16 17:00;CYQF 161700Z 16008KT 12SM SKC 21/09 A3010 RMK SLP199

CYQF;2009-09-16 18:00;CYQF 161800Z 17010KT 12SM FEW250 24/10 A3009 RMK CI1 SLP189

CYQF;2009-09-16 19:00;CYQF 161900Z 15012KT 15SM FEW250 26/10 A3006 RMK CI1 SLP181

CYQF;2009-09-16 20:00;CYQF 162000Z 15010G15KT 12SM FEW250 28/10 A3005 RMK CI1 SLP176

CYQF;2009-09-16 21:00;CYQF 162100Z 14010G15KT 12SM FEW250 29/10 A3003 RMK CI1 SLP162

CYQF;2009-09-16 22:00;CYQF 162200Z 18012KT 15SM SKC 30/09 A3001 RMK SLP156

CYQF;2009-09-16 23:00;CYQF 162300Z 16012KT 15SM SKC 31/10 A2998 RMK SLP147

CYQF;2009-09-17 00:00;CYQF 170000Z 15011G17KT 15SM SKC 30/09 A2995 RMK SLP138

CYQF;2009-09-17 01:00;CYQF 170100Z 15010KT 15SM SKC 28/09 A2995 RMK SLP135

CYQF;2009-09-17 02:00;CYQF 170200Z 14008KT 15SM FEW060 25/09 A2994 RMK SC1 SLP132

CYQF;2009-09-17 03:00;CYQF 170300Z 14010KT 15SM SKC 24/09 A2993 RMK SLP132

CYQF;2009-09-17 04:00;CYQF 170400Z 14010KT 15SM SKC 23/08 A2991 RMK SLP128

CYQF;2009-09-17 05:00;CYQF 170500Z 18008KT 15SM SKC 20/08 A2991 RMK SLP127

CYQF;2009-09-17 06:00;CYQF 170600Z 17006KT 15SM SKC 19/08 A2990 RMK SLP118

CYQF;2009-09-17 07:00;CYQF 170700Z 17007KT 15SM SKC 18/08 A2989 RMK SLP114

CYQF;2009-09-17 08:00;CYQF 170800Z 17006KT 15SM SKC 15/08 A2989 RMK SLP113

CYQF;2009-09-17 09:00;CYQF 170900Z 17002KT 15SM SKC 13/08 A2988 RMK SLP111

CYQF;2009-09-17 10:00;CYQF 171000Z 19005KT 15SM SKC 12/07 A2988 RMK SLP111

CYQF;2009-09-17 11:00;CYQF 171100Z 18004KT 15SM SKC 11/07 A2988 RMK SLP111

CYQF;2009-09-17 12:00;CYQF 171200Z 15004KT 15SM SKC 09/06 A2988 RMK SLP113

CYQF;2009-09-17 13:00;CYQF 171300Z 20004KT 15SM FEW250 09/06 A2988 RMK CI1 SLP115

CYQF;2009-09-17 14:00;CYQF 171400Z 31004KT 15SM FEW100 FEW250 10/08 A2993 RMK AC1CI0 SLP130

CYQF;2009-09-17 15:00;CYQF 171500Z 33010KT 15SM FEW100 SCT250 16/11 A2995 RMK ACC1CI2 ACC DIST SE-S PSBL CB DIST SW SLP140

CYQF;2009-09-17 16:00;CYQF 171600Z 33010KT 15SM BKN090 18/11 A2995 RMK AC5 CB TOPS DSNT SE SLP139

CYQF;2009-09-17 17:00;CYQF 171700Z 33013G18KT 15SM FEW040 BKN090 18/10 A2997 RMK CU2AC4 VIRGA SLP145

CYQF;2009-09-17 18:00;CYQF 171800Z 32015G20KT 15SM SCT040 BKN090 18/10 A3002 RMK SC3AC3 VIRGA SLP164

CYQF;2009-09-17 19:00;CYQF 171900Z 33015G20KT 15SM FEW025 BKN040 BKN090 19/10 A2999 RMK SC2SC4AC1 TCU EMBD SLP157

CYQF;2009-09-17 20:00;CYQF 172000Z 34012G20KT 15SM SCT040 BKN090 17/10 A3000 RMK SC3AC4 SLP159

CYQF;2009-09-17 21:00;CYQF 172100Z 36010G15KT 15SM VCSH BKN040 OVC090 16/09 A3001 RMK SC5AC2 TCU EMBD SLP171

CYQF;2009-09-17 21:24;CYQF 172124Z 03010G18KT 12SM -SHRA FEW020 BKN040 OVC090 RMK SC2SC3AC2

CYQF;2009-09-17 22:00;CYQF 172200Z 35010G15KT 15SM FEW020 BKN040 BKN090 17/11 A3001 RMK SC2SC3AC2 SLP169

CYQF;2009-09-17 23:00;CYQF 172300Z 33010G15KT 15SM BKN015 BKN040 15/11 A3005 RMK SC6SC1 SLP183

CYQF;2009-09-18 00:00;CYQF 180000Z 33015G22KT 15SM BKN015 BKN040 13/10 A3009 RMK SC6SC1 SLP205

CYQF;2009-09-18 01:00;CYQF 180100Z 32010G15KT 15SM VCSH BKN025 12/07 A3012 RMK SC7 SLP215

CYQF;2009-09-18 02:00;CYQF 180200Z 03005KT 15SM BKN030 11/06 A3009 RMK SC6 SLP205

CYQF;2009-09-18 03:00;CYQF 180300Z 27006KT 15SM FEW030 09/06 A3010 RMK SC2 SLP207

CYQF;2009-09-18 04:00;CYQF 180400Z 26006KT 15SM SKC 08/07 A3010 RMK SLP207

CYQF;2009-09-18 05:00;CYQF 180500Z 24008KT 15SM SKC 06/05 A3009 RMK SLP204

CYQF;2009-09-18 06:00;CYQF 180600Z 00000KT 15SM SKC 05/05 A3008 RMK SLP202

CYQF;2009-09-18 06:17;CYQF 180617Z 18005KT 2SM BR SKC RMK FG2

CYQF;2009-09-18 07:00;CYQF 180700Z 20005KT 2SM BR SKC 03/02 A3007 RMK FG2 SLP199

CYQF;2009-09-18 07:49;CYQF 180749Z 21003KT 6SM BR SKC

CYQF;2009-09-18 08:00;CYQF 180800Z 20003KT 6SM BR SKC 03/03 A3006 RMK SLP195

CYQF;2009-09-18 09:00;CYQF 180900Z 16003KT 10SM SKC 03/03 A3005 RMK SLP194

CYQF;2009-09-18 10:00;CYQF 181000Z 15002KT 15SM SKC 03/02 A3004 RMK SLP190

CYQF;2009-09-18 11:00;CYQF 181100Z 17004KT 15SM SKC 04/02 A3002 RMK SLP185

CYQF;2009-09-18 12:00;CYQF 181200Z 20004KT 15SM FEW100 BKN250 06/04 A3001 RMK AC2CI2 SLP183

CYQF;2009-09-18 13:00;CYQF 181300Z 21003KT 15SM SCT100 BKN250 05/04 A3000 RMK AC3CI1 SLP180

CYQF;2009-09-18 14:00;CYQF 181400Z 19007KT 15SM BKN100 BKN250 08/07 A2999 RMK AC6CI1 VIRGA SLP176

CYQF;2009-09-18 15:00;CYQF 181500Z 19005KT 15SM SCT100 BKN250 09/08 A3000 RMK AC3CI2 SLP180

CYQF;2009-09-18 16:00;CYQF 181600Z 19005KT 15SM FEW100 BKN250 12/09 A3001 RMK AC1CI1 SLP182

CYQF;2009-09-18 17:00;CYQF 181700Z 24004KT 15SM BKN250 16/09 A3001 RMK CI2 SLP182

CYQF;2009-09-18 18:00;CYQF 181800Z 30003KT 15SM BKN250 20/08 A3001 RMK CI2 SLP174

CYQF;2009-09-18 19:00;CYQF 181900Z 19002KT 15SM BKN250 22/07 A3000 RMK CI2 SLP171

CYQF;2009-09-18 20:00;CYQF 182000Z 00000KT 15SM FEW100 BKN250 23/05 A2998 RMK AC1CI2 SLP167

CYQF;2009-09-18 21:00;CYQF 182100Z 24005KT 15SM FEW100 BKN250 24/06 A2996 RMK AC1CI2 SLP157

CYQF;2009-09-18 22:00;CYQF 182200Z 18004KT 15SM FEW100 BKN250 25/05 A2995 RMK AC1CI2 SLP151

CYQF;2009-09-18 23:00;CYQF 182300Z 19007KT 15SM FEW100 BKN250 25/06 A2992 RMK AC1CI2 SLP143

CYQF;2009-09-19 00:00;CYQF 190000Z 21009KT 15SM FEW060 FEW100 BKN250 25/06 A2990 RMK SC1AC2CI1 SLP131

CYQF;2009-09-19 01:00;CYQF 190100Z 20005KT 15SM FEW060 FEW100 BKN250 23/07 A2989 RMK SC1AC2CI1 SLP127

CYQF;2009-09-19 02:00;CYQF 190200Z 16003KT 15SM FEW090 SCT250 19/06 A2988 RMK AC2CI1 SLP126

CYQF;2009-09-19 03:00;CYQF 190300Z 19006KT 15SM FEW090 FEW250 15/06 A2989 RMK AC1CI1 SLP133

CYQF;2009-09-19 04:00;CYQF 190400Z 17005KT 15SM SKC 14/06 A2987 RMK SLP127

CYQF;2009-09-19 05:00;CYQF 190500Z 18003KT 15SM SKC 13/06 A2985 RMK SLP122

CYQF;2009-09-19 06:00;CYQF 190600Z 20004KT 15SM SKC 14/06 A2983 RMK SLP101

CYQF;2009-09-19 07:00;CYQF 190700Z 21005KT 15SM SKC 13/06 A2981 RMK SLP095

CYQF;2009-09-19 08:00;CYQF 190800Z 18007KT 15SM SKC 13/05 A2977 RMK SLP085

CYQF;2009-09-19 09:00;CYQF 190900Z 18008KT 15SM SKC 13/06 A2974 RMK OBS TAKEN +05 SLP069

CYQF;2009-09-19 10:00;CYQF 191000Z 19008KT 15SM SKC 12/06 A2971 RMK SLP060

CYQF;2009-09-19 11:00;CYQF 191100Z 18007KT 15SM SKC 10/05 A2969 RMK SLP053

CYQF;2009-09-19 12:00;CYQF 191200Z 20010KT 15SM FEW120 SCT250 10/05 A2966 RMK AC2CI1 SLP043

CYQF;2009-09-19 13:00;CYQF 191300Z 22006KT 15SM FEW100 BKN250 15/05 A2964 RMK AC2CI2 SLP038

CYQF;2009-09-19 14:00;CYQF 191400Z 15004KT 15SM SCT100 BKN250 12/05 A2964 RMK AC3CI2 SLP036

CYQF;2009-09-19 15:00;CYQF 191500Z 18006KT 15SM FEW100 BKN250 13/06 A2963 RMK AC1CI4 SLP040

CYQF;2009-09-19 16:00;CYQF 191600Z 19005KT 15SM FEW100 BKN250 18/06 A2962 RMK AC1CI2 SLP036

CYQF;2009-09-19 17:00;CYQF 191700Z 18008KT 15SM FEW100 BKN250 24/05 A2959 RMK AC2CI2 SLP029

CYQF;2009-09-19 18:00;CYQF 191800Z 20010KT 15SM SCT100 BKN250 26/02 A2957 RMK AC3CI2 SLP008

CYQF;2009-09-19 19:00;CYQF 191900Z 22010G15KT 15SM SCT100 BKN250 26/00 A2957 RMK AC3CI2 SLP006

CYQF;2009-09-19 20:00;CYQF 192000Z 28008KT 15SM SCT100 BKN250 26/03 A2957 RMK AC3CI2 SLP006

CYQF;2009-09-19 21:00;CYQF 192100Z 26007KT 15SM FEW060 BKN100 OVC250 25/02 A2956 RMK SC2AC3CI2 SLP004

CYQF;2009-09-19 22:00;CYQF 192200Z 27005KT 15SM FEW060 BKN100 OVC250 23/05 A2956 RMK SC1AC4CI2 SLP005

CYQF;2009-09-19 23:00;CYQF 192300Z 34013G19KT 15SM FEW060 BKN100 OVC250 18/09 A2961 RMK SC1AC4CI2 SLP020

CYQF;2009-09-20 00:00;CYQF 200000Z 36008KT 15SM BKN060 BKN100 OVC250 17/09 A2964 RMK SC5AC1CI1 VIRGA SLP043

CYQF;2009-09-20 01:00;CYQF 200100Z 36010KT 15SM BKN060 BKN100 BKN250 16/08 A2966 RMK SC5AC1CI1 SLP050

CYQF;2009-09-20 02:00;CYQF 200200Z 35007KT 15SM BKN060 BKN250 14/08 A2968 RMK SC5CI1 SLP057

CYQF;2009-09-20 03:00;CYQF 200300Z 33006KT 15SM FEW060 SCT250 14/09 A2972 RMK SC2CI0 SLP074

CYQF;2009-09-20 04:00;CYQF 200400Z 33006KT 15SM FEW060 11/07 A2975 RMK SC1 SLP083

CYQF;2009-09-20 05:00;CYQF 200500Z 34005KT 15SM BKN100 12/05 A2977 RMK AC5 SLP090

CYQF;2009-09-20 06:00;CYQF 200600Z 35009KT 15SM BKN060 12/05 A2979 RMK SC6 SLP086

CYQF;2009-09-20 07:00;CYQF 200700Z 34010G15KT 15SM BKN060 12/05 A2981 RMK SC6 SLP092

CYQF;2009-09-20 08:00;CYQF 200800Z 34005KT 15SM OVC060 11/05 A2984 RMK SC8 SLP099

CYQF;2009-09-20 08:25;CYQF 200825Z 31005KT 15SM -SHRA BKN060 OVC100 RMK SC6AC2

CYQF;2009-09-20 09:00;CYQF 200900Z 30007KT 15SM -RA OVC060 10/07 A2986 RMK SC8 SLP112

CYQF;2009-09-20 09:18;CYQF 200918Z 31010KT 15SM OVC060 RMK SC8

CYQF;2009-09-20 10:00;CYQF 201000Z 31008KT 15SM BKN060 OVC100 10/06 A2986 RMK SC5AC3 SLP113

CYQF;2009-09-20 11:00;CYQF 201100Z 30010KT 15SM OVC060 10/06 A2988 RMK SC8 SLP118

CYQF;2009-09-20 12:00;CYQF 201200Z 32006KT 15SM OVC060 10/05 A2989 RMK SC8 SLP132

CYQF;2009-09-20 13:00;CYQF 201300Z 32010G15KT 15SM FEW060 BKN100 OVC250 10/03 A2992 RMK SC2AC4CI2 SLP141

CYQF;2009-09-20 14:00;CYQF 201400Z 33011KT 15SM FEW060 BKN100 BKN250 10/02 A2995 RMK SC1AC4CI2 SLP151

CYQF;2009-09-20 15:00;CYQF 201500Z 32010KT 15SM SCT100 BKN250 10/02 A2998 RMK AC3CI2 SLP165

CYQF;2009-09-20 16:00;CYQF 201600Z 34010G15KT 15SM FEW100 SCT250 11/01 A3000 RMK AC1CI2 SLP173

CYQF;2009-09-20 17:00;CYQF 201700Z 32020G27KT 15SM FEW040 FEW100 FEW250 13/01 A3003 RMK CU1AC1CI1 TR CU SLP181

CYQF;2009-09-20 18:00;CYQF 201800Z 33020G30KT 15SM SCT060 SCT250 14/M01 A3005 RMK CU3CI0 SLP188

CYQF;2009-09-20 19:00;CYQF 201900Z 33020G25KT 15SM FEW060 FEW250 15/M00 A3006 RMK CU2CI1 SLP192

CYQF;2009-09-20 20:00;CYQF 202000Z 33020G25KT 15SM FEW060 FEW250 15/M00 A3008 RMK CU1CI1 SLP199

CYQF;2009-09-20 21:00;CYQF 202100Z 30020G25KT 15SM FEW060 FEW250 15/M00 A3009 RMK CU1CI1 SLP204

CYQF;2009-09-20 22:00;CYQF 202200Z 32018G25KT 15SM FEW060 16/M01 A3011 RMK CU2 SLP210

CYQF;2009-09-20 23:00;CYQF 202300Z 32016G26KT 15SM FEW060 16/M01 A3014 RMK CU2 SLP218

CYQF;2009-09-21 00:00;CYQF 210000Z 33014G22KT 15SM FEW060 15/M01 A3017 RMK CU1 SLP230

CYQF;2009-09-21 01:00;CYQF 210100Z 34012G18KT 15SM FEW060 13/M01 A3019 RMK CU1 SLP238

CYQF;2009-09-21 02:00;CYQF 210200Z 34005KT 15SM FEW050 08/M01 A3022 RMK SC1 SLP247

CYQF;2009-09-21 03:00;CYQF 210300Z 35007KT 15SM SKC 08/M01 A3024 RMK SLP264

CYQF;2009-09-21 04:00;CYQF 210400Z 33005KT 15SM SKC 06/M01 A3025 RMK SLP266

CYQF;2009-09-21 05:00;CYQF 210500Z 28007KT 15SM SKC 04/M01 A3026 RMK SLP270

CYQF;2009-09-21 06:00;CYQF 210600Z 00000KT 15SM SKC 03/M01 A3027 RMK SLP275

CYQF;2009-09-21 07:00;CYQF 210700Z 00000KT 15SM SKC 02/M02 A3029 RMK SLP279

CYQF;2009-09-21 08:00;CYQF 210800Z 21006KT 15SM SKC 01/M02 A3028 RMK SLP278

CYQF;2009-09-21 09:00;CYQF 210900Z 00000KT 15SM SKC 00/M02 A3031 RMK SLP289

CYQF;2009-09-21 10:00;CYQF 211000Z 19005KT 15SM SKC M01/M03 A3030 RMK SLP287

CYQF;2009-09-21 11:00;CYQF 211100Z 19005KT 15SM SKC M01/M03 A3030 RMK SLP285

CYQF;2009-09-21 12:00;CYQF 211200Z 20003KT 15SM SKC M01/M03 A3029 RMK FRION SLP284

CYQF;2009-09-21 13:00;CYQF 211300Z 19003KT 15SM FEW120 M01/M04 A3027 RMK AC2 SLP280

CYQF;2009-09-21 14:00;CYQF 211400Z 18005KT 15SM FEW120 BKN250 M00/M03 A3025 RMK AC2CI2 SLP272

CYQF;2009-09-21 15:00;CYQF 211500Z 18004KT 15SM FEW080 BKN120 OVC250 04/M01 A3023 RMK AC1AC4CI2 SLP267

CYQF;2009-09-21 16:00;CYQF 211600Z 18005KT 15SM FEW080 SCT120 BKN250 10/02 A3021 RMK AC1AC2CI2 SLP261

CYQF;2009-09-21 17:00;CYQF 211700Z 19015G20KT 15SM FEW080 FEW120 BKN250 13/00 A3021 RMK AC1AC2CI2 SLP259

CYQF;2009-09-21 18:00;CYQF 211800Z 20011G17KT 15SM FEW080 BKN120 BKN250 15/00 A3020 RMK AC1AC4CI1 SLP249

CYQF;2009-09-21 19:00;CYQF 211900Z 19013KT 15SM FEW100 BKN250 17/01 A3017 RMK AC2CI2 SLP240

CYQF;2009-09-21 20:00;CYQF 212000Z 20003KT 15SM FEW100 BKN250 20/00 A3018 RMK AC2CI2 SLP241

CYQF;2009-09-21 21:00;CYQF 212100Z 23003KT 15SM FEW100 BKN250 20/M00 A3017 RMK AC1CI2 SLP237

CYQF;2009-09-21 22:00;CYQF 212200Z 25005KT 15SM FEW100 BKN250 22/01 A3016 RMK AC1CI2 SLP234

CYQF;2009-09-21 23:00;CYQF 212300Z 32005KT 15SM FEW120 BKN250 22/03 A3016 RMK AC1CI1 SLP232

CYQF;2009-09-22 00:00;CYQF 220000Z 32003KT 15SM FEW120 BKN250 22/04 A3015 RMK AC1CI1 SLP227

CYQF;2009-09-22 01:00;CYQF 220100Z 00000KT 15SM FEW120 BKN250 20/05 A3015 RMK AC1CI1 SLP228

CYQF;2009-09-22 02:00;CYQF 220200Z 00000KT 15SM FEW120 SCT250 16/06 A3016 RMK AC1CI1 SLP232

CYQF;2009-09-22 03:00;CYQF 220300Z 00000KT 15SM FEW120 12/04 A3017 RMK AC1 SLP242

CYQF;2009-09-22 04:00;CYQF 220400Z 17005KT 15SM SKC 10/03 A3018 RMK SLP244

CYQF;2009-09-22 05:00;CYQF 220500Z 18005KT 15SM SKC 08/03 A3018 RMK SLP245

CYQF;2009-09-22 06:00;CYQF 220600Z 00000KT 15SM SKC 07/02 A3019 RMK SLP241

CYQF;2009-09-22 07:00;CYQF 220700Z 19004KT 15SM SKC 07/03 A3020 RMK SLP242

CYQF;2009-09-22 08:00;CYQF 220800Z 20004KT 15SM SKC 06/02 A3020 RMK SLP244

CYQF;2009-09-22 09:00;CYQF 220900Z 25004KT 15SM SKC 06/02 A3021 RMK SLP244

CYQF;2009-09-22 10:00;CYQF 221000Z 22004KT 15SM SKC 06/03 A3021 RMK SLP244

CYQF;2009-09-22 11:00;CYQF 221100Z 00000KT 15SM SKC 06/03 A3021 RMK SLP242

CYQF;2009-09-22 12:00;CYQF 221200Z 00000KT 15SM SKC 05/02 A3020 RMK SLP238

CYQF;2009-09-22 13:00;CYQF 221300Z 00000KT 15SM FEW250 05/02 A3020 RMK CI0 SLP240

CYQF;2009-09-22 14:00;CYQF 221400Z 20008KT 15SM BKN260 04/02 A3019 RMK CI2 SLP236

CYQF;2009-09-22 15:00;CYQF 221500Z 00000KT 15SM BKN260 09/05 A3019 RMK CI2 SLP242

CYQF;2009-09-22 16:00;CYQF 221600Z 20008KT 15SM BKN260 15/07 A3019 RMK CI2 SLP242

CYQF;2009-09-22 17:00;CYQF 221700Z 21006KT 15SM SCT260 20/08 A3019 RMK CI2 SLP242

CYQF;2009-09-22 18:00;CYQF 221800Z 00000KT 15SM FEW270 23/08 A3019 RMK CI1 SLP231

CYQF;2009-09-22 19:00;CYQF 221900Z 21005KT 15SM FEW280 26/08 A3018 RMK CI1 SLP227

CYQF;2009-09-22 20:00;CYQF 222000Z 24010KT 15SM FEW280 28/07 A3017 RMK CI1 SLP225

CYQF;2009-09-22 21:00;CYQF 222100Z 18003KT 15SM FEW280 29/07 A3016 RMK CI1 SLP217

CYQF;2009-09-22 22:00;CYQF 222200Z 18003KT 15SM FEW280 30/06 A3014 RMK CI1 SLP211

CYQF;2009-09-22 23:00;CYQF 222300Z 19005KT 15SM FEW280 30/04 A3013 RMK CI1 SLP208

CYQF;2009-09-23 00:00;CYQF 230000Z 17005KT 15SM SKC 29/05 A3012 RMK SLP202

CYQF;2009-09-23 01:00;CYQF 230100Z 15006KT 15SM SKC 27/06 A3011 RMK SLP200

CYQF;2009-09-23 02:00;CYQF 230200Z 15007KT 15SM SKC 23/06 A3010 RMK SLP198

CYQF;2009-09-23 03:00;CYQF 230300Z 17008KT 15SM SKC 19/06 A3011 RMK SLP204

CYQF;2009-09-23 04:00;CYQF 230400Z 18007KT 15SM SKC 18/06 A3011 RMK SLP205

CYQF;2009-09-23 05:00;CYQF 230500Z 20008KT 15SM SKC 16/06 A3010 RMK SLP203

CYQF;2009-09-23 06:00;CYQF 230600Z 20007KT 15SM SKC 14/05 A3011 RMK SLP194

CYQF;2009-09-23 07:00;CYQF 230700Z 22006KT 15SM SKC 10/04 A3011 RMK SLP194

CYQF;2009-09-23 08:00;CYQF 230800Z 18003KT 15SM SKC 12/05 A3012 RMK SLP197

CYQF;2009-09-23 09:00;CYQF 230900Z 18005KT 15SM SKC 09/05 A3012 RMK SLP198

CYQF;2009-09-23 10:00;CYQF 231000Z 16002KT 15SM SKC 09/04 A3012 RMK SLP198

CYQF;2009-09-23 11:00;CYQF 231100Z 21008KT 15SM SKC 06/03 A3012 RMK SLP199

CYQF;2009-09-23 12:00;CYQF 231200Z 21006KT 15SM SKC 06/03 A3013 RMK SLP204

CYQF;2009-09-23 13:00;CYQF 231300Z 21004KT 15SM BKN250 08/04 A3013 RMK CI2 SLP204

CYQF;2009-09-23 14:00;CYQF 231400Z 19005KT 15SM BKN250 06/03 A3013 RMK CI2 SLP204

CYQF;2009-09-23 15:00;CYQF 231500Z 00000KT 15SM SCT250 11/05 A3011 RMK CI1 SLP205

CYQF;2009-09-23 16:00;CYQF 231600Z 21004KT 15SM FEW250 16/07 A3011 RMK CI1 SLP205

CYQF;2009-09-23 17:00;CYQF 231700Z 18005KT 15SM FEW250 22/07 A3010 RMK CI1 SLP200

CYQF;2009-09-23 18:00;CYQF 231800Z 16004KT 15SM SCT280 26/06 A3007 RMK CI1 SLP179

CYQF;2009-09-23 19:00;CYQF 231900Z 15006KT 15SM FEW280 30/04 A3004 RMK CI1 SLP170

CYQF;2009-09-23 20:00;CYQF 232000Z 17010KT 15SM FEW280 31/05 A3002 RMK CI1 SLP163

CYQF;2009-09-23 21:00;CYQF 232100Z 17008KT 15SM SKC 33/06 A2999 RMK SLP149

CYQF;2009-09-23 22:00;CYQF 232200Z 19008KT 15SM SKC 34/03 A2997 RMK SLP143

CYQF;2009-09-23 23:00;CYQF 232300Z 20008KT 15SM SKC 34/02 A2995 RMK SLP138

CYQF;2009-09-24 00:00;CYQF 240000Z 16005KT 15SM SKC 33/03 A2993 RMK SLP133

CYQF;2009-09-24 01:00;CYQF 240100Z 17004KT 15SM SKC 30/03 A2992 RMK DU SLP130

CYQF;2009-09-24 02:00;CYQF 240200Z 21006KT 15SM SKC 24/04 A2992 RMK DU SLP130

CYQF;2009-09-24 03:00;CYQF 240300Z 23008KT 15SM SKC 17/04 A2992 RMK SLP141

CYQF;2009-09-24 04:00;CYQF 240400Z 23008KT 15SM FEW250 15/03 A2992 RMK CI1 SLP139

CYQF;2009-09-24 05:00;CYQF 240500Z 22007KT 15SM FEW250 13/03 A2991 RMK CI1 SLP136

CYQF;2009-09-24 06:00;CYQF 240600Z 21005KT 15SM SKC 12/02 A2990 RMK SLP124

CYQF;2009-09-24 07:00;CYQF 240700Z 21006KT 15SM SKC 14/02 A2989 RMK SLP121

CYQF;2009-09-24 08:00;CYQF 240800Z 21005KT 15SM SKC 10/01 A2989 RMK SLP119

CYQF;2009-09-24 09:00;CYQF 240900Z 20005KT 15SM SKC 10/01 A2988 RMK SLP111

CYQF;2009-09-24 10:00;CYQF 241000Z 20006KT 15SM SKC 10/01 A2987 RMK SLP109

CYQF;2009-09-24 11:00;CYQF 241100Z 20006KT 15SM SKC 09/01 A2987 RMK SLP108

CYQF;2009-09-24 12:00;CYQF 241200Z 21006KT 15SM SKC 09/02 A2987 RMK SLP109

CYQF;2009-09-24 13:00;CYQF 241300Z 00000KT 15SM SKC 09/02 A2988 RMK SLP111

CYQF;2009-09-24 14:00;CYQF 241400Z 20003KT 15SM SKC 08/02 A2989 RMK SLP114

CYQF;2009-09-24 15:00;CYQF 241500Z 21010KT 15SM SKC 13/04 A2989 RMK SLP127

CYQF;2009-09-24 16:00;CYQF 241600Z 25005KT 15SM SKC 17/05 A2990 RMK SLP132

CYQF;2009-09-24 17:00;CYQF 241700Z 01010KT 10SM SKC 21/05 A2993 RMK FU SLP141

CYQF;2009-09-24 18:00;CYQF 241800Z 01012G18KT 10SM SKC 22/04 A2995 RMK SLP145

CYQF;2009-09-24 19:00;CYQF 241900Z 03015G20KT 10SM SKC 22/04 A2996 RMK SLP147

CYQF;2009-09-24 20:00;CYQF 242000Z 03010G15KT 10SM SKC 23/04 A2997 RMK SLP150

CYQF;2009-09-24 21:00;CYQF 242100Z CCA 03015G20KT 10SM SKC 23/04 A2996 RMK SLP150

CYQF;2009-09-24 22:00;CYQF 242200Z 01010G15KT 12SM SKC 23/04 A2998 RMK DU SLP155

CYQF;2009-09-24 23:00;CYQF 242300Z 03010G15KT 10SM SKC 22/04 A2999 RMK DU SLP158

CYQF;2009-09-25 00:00;CYQF 250000Z 01010G15KT 12SM FEW090 FEW250 21/03 A3000 RMK AC1CI0 DU SLP166

CYQF;2009-09-25 01:00;CYQF 250100Z 36012G18KT 12SM FEW090 SCT250 18/01 A3003 RMK AC2CI1 DU SLP175

CYQF;2009-09-25 02:00;CYQF 250200Z 01007KT 15SM BKN070 BKN250 17/01 A3005 RMK AC5CI1 SLP183

CYQF;2009-09-25 03:00;CYQF 250300Z 02005KT 15SM VCSH BKN090 15/01 A3007 RMK AC6 SLP194

CYQF;2009-09-25 04:00;CYQF 250400Z 01003KT 15SM FEW090 13/01 A3009 RMK AC2 SLP199

CYQF;2009-09-25 05:00;CYQF 250500Z 35003KT 15SM FEW090 11/01 A3010 RMK AC2 SLP203

CYQF;2009-09-25 06:00;CYQF 250600Z 00000KT 15SM SKC 08/01 A3013 RMK SLP209

CYQF;2009-09-25 07:00;CYQF 250700Z 27004KT 15SM FEW090 08/00 A3014 RMK AC1 OBS TAKEN +07 SLP214

CYQF;2009-09-25 08:00;CYQF 250800Z 00000KT 15SM SKC 06/01 A3015 RMK SLP217

CYQF;2009-09-25 09:00;CYQF 250900Z 00000KT 15SM SKC 05/00 A3017 RMK SLP229

CYQF;2009-09-25 10:00;CYQF 251000Z 21003KT 15SM SKC 03/M01 A3018 RMK SLP230

CYQF;2009-09-25 11:00;CYQF 251100Z 20004KT 15SM SKC 03/M00 A3019 RMK SLP234

CYQF;2009-09-25 12:00;CYQF 251200Z 20005KT 15SM SKC 02/M01 A3019 RMK SLP238

CYQF;2009-09-25 13:00;CYQF 251300Z 00000KT 15SM FEW250 01/M02 A3019 RMK CI0 SLP239

CYQF;2009-09-25 14:00;CYQF 251400Z 00000KT 15SM FEW250 01/M01 A3017 RMK CI1 SLP234

CYQF;2009-09-25 15:00;CYQF 251500Z 00000KT 15SM SCT250 06/01 A3018 RMK CI1 SLP237

CYQF;2009-09-25 16:00;CYQF 251600Z 00000KT 15SM BKN250 12/02 A3016 RMK CI1 SLP232

CYQF;2009-09-25 17:00;CYQF 251700Z 18010G15KT 15SM FEW250 16/01 A3015 RMK CI1 SLP228

CYQF;2009-09-25 18:00;CYQF 251800Z 18010G15KT 15SM FEW250 18/01 A3012 RMK CI1 SLP213

CYQF;2009-09-25 19:00;CYQF 251900Z 18012G17KT 15SM FEW250 19/01 A3010 RMK CI1 SLP206

CYQF;2009-09-25 20:00;CYQF 252000Z 20010G18KT 15SM BKN250 21/01 A3008 RMK CI2 SLP200

CYQF;2009-09-25 21:00;CYQF 252100Z 18010G15KT 15SM BKN250 21/02 A3004 RMK CI4 SLP185

CYQF;2009-09-25 22:00;CYQF 252200Z 19012KT 15SM SCT250 22/02 A3000 RMK CI2 SLP173

CYQF;2009-09-25 23:00;CYQF 252300Z 22006KT 15SM FEW120 SCT250 23/M02 A2998 RMK AC1CI1 SLP165

CYQF;2009-09-26 00:00;CYQF 260000Z 19009KT 15SM FEW120 SCT250 22/01 A2994 RMK AC1CI1 SLP152

CYQF;2009-09-26 01:00;CYQF 260100Z 20005KT 12SM SCT120 BKN250 19/00 A2991 RMK AC2CI2 SLP142

CYQF;2009-09-26 02:00;CYQF 260200Z 18006KT 12SM FEW120 BKN250 15/00 A2988 RMK AC2CI2 SLP134

CYQF;2009-09-26 03:00;CYQF 260300Z 14003KT 15SM FEW120 SCT250 13/M00 A2985 RMK AC2CI2 SLP128

CYQF;2009-09-26 04:00;CYQF 260400Z 18005KT 15SM FEW100 FEW250 12/01 A2984 RMK AC1CI2 SLP122

CYQF;2009-09-26 05:00;CYQF 260500Z 19003KT 15SM BKN100 BKN250 13/02 A2983 RMK AC6CI1 SLP120

CYQF;2009-09-26 06:00;CYQF 260600Z 20005KT 15SM FEW100 SCT250 09/02 A2981 RMK AC1CI2 SLP105

CYQF;2009-09-26 07:00;CYQF 260700Z 04004KT 15SM SCT100 BKN250 09/02 A2984 RMK AC3CI2 SLP112

CYQF;2009-09-26 08:00;CYQF 260800Z 36010KT 15SM FEW090 BKN250 14/03 A2983 RMK AC1CI2 SLP109

CYQF;2009-09-26 09:00;CYQF 260900Z 29005KT 15SM FEW250 10/03 A2985 RMK CI1 SLP113

CYQF;2009-09-26 10:00;CYQF 261000Z 27005KT 15SM SCT070 09/04 A2985 RMK AC4 SLP113

CYQF;2009-09-26 11:00;CYQF 261100Z 27005KT 15SM SKC 07/03 A2984 RMK SLP110

CYQF;2009-09-26 12:00;CYQF 261200Z 31006KT 15SM FEW070 07/04 A2984 RMK AC1 SLP110

CYQF;2009-09-26 13:00;CYQF 261300Z 21002KT 15SM FEW070 05/02 A2985 RMK AC1 SLP114

CYQF;2009-09-26 14:00;CYQF 261400Z 27005KT 15SM SCT060 05/03 A2985 RMK SC4 SLP114

CYQF;2009-09-26 15:00;CYQF 261500Z 18003KT 15SM SCT050 09/05 A2985 RMK SC4 SLP122

CYQF;2009-09-26 16:00;CYQF 261600Z 19004KT 15SM BKN050 12/06 A2985 RMK SC6 CU EMBD SLP124

CYQF;2009-09-26 17:00;CYQF 261700Z 00000KT 15SM FEW030 FEW050 FEW090 14/06 A2984 RMK CU1SC1AC1 SLP119

CYQF;2009-09-26 18:00;CYQF 261800Z 36010KT 15SM FEW040 BKN070 16/06 A2983 RMK CU2AC3 TCU DIST NW SLP112

CYQF;2009-09-26 19:00;CYQF 261900Z 36010KT 15SM BKN050 BKN070 16/03 A2981 RMK SC5AC1 CU ASOCTD SLP106

CYQF;2009-09-26 20:00;CYQF 262000Z 01006KT 15SM BKN050 16/03 A2979 RMK SC6 CU ASOCTD SLP101

CYQF;2009-09-26 21:00;CYQF 262100Z 04005KT 15SM SCT050 17/04 A2976 RMK SC4 SLP088

CYQF;2009-09-26 22:00;CYQF 262200Z 04010KT 15SM BKN050 18/04 A2975 RMK SC6 CU ASOCTD SLP084

CYQF;2009-09-26 22:40;CYQF 262240Z 04008KT 15SM TS BKN050CB BKN100 RMK CB5AC2 LTGCG NW-N

CYQF;2009-09-26 22:46;CYQF 262246Z 01012KT 15SM -TSRA BKN050CB BKN100 RMK CB6AC2

CYQF;2009-09-26 23:00;CYQF 262300Z 34020G41KT 12SM -TSRA BKN050CB BKN100 12/06 A2981 RMK CB6AC2 PRESRR SLP103

CYQF;2009-09-26 23:32;CYQF 262332Z 36015G20KT 12SM -SHRA SCT020 BKN050CB OVC100 RMK SC3CB3AC2

CYQF;2009-09-27 00:00;CYQF 270000Z 02010G15KT 15SM FEW020 SCT050CB BKN100 09/06 A2984 RETSRA RMK SC2CB2AC3 SLP128

CYQF;2009-09-27 02:00;CYQF 270200Z 36010G15KT 15SM BKN050 BKN100 09/02 A2993 RMK SC5AC2 VIRGA SLP156

CYQF;2009-09-27 02:18;CYQF 270218Z 31035G50KT 15SM BKN050 BKN100 RMK SC6AC2

CYQF;2009-09-27 03:00;CYQF 270300Z 34012G18KT 15SM FEW050 BKN100 09/M03 A2996 RMK SC2AC4 SLP167

CYQF;2009-09-27 04:00;CYQF 270400Z 35010G18KT 15SM FEW050 SCT100 08/M06 A2999 RMK SC1AC2 SLP176

CYQF;2009-09-27 05:00;CYQF 270500Z 31020G35KT 15SM FEW100 08/M06 A3002 RMK AC2 SLP183

CYQF;2009-09-27 06:00;CYQF 270600Z 33022G33KT 15SM FEW100 07/M06 A3005 RMK AC1 SLP189

CYQF;2009-09-27 07:00;CYQF 270700Z 31020G26KT 15SM FEW100 07/M06 A3007 RMK AC1 SLP196

CYQF;2009-09-27 08:00;CYQF 270800Z 31012G20KT 15SM SKC 07/M05 A3009 RMK SLP202

CYQF;2009-09-27 09:00;CYQF 270900Z 32015G20KT 15SM SKC 07/M05 A3011 RMK SLP210

CYQF;2009-09-27 10:00;CYQF 271000Z 33015G20KT 15SM SKC 07/M06 A3011 RMK SLP211

CYQF;2009-09-27 11:00;CYQF 271100Z 32012G18KT 15SM SKC 06/M06 A3013 RMK SLP216

CYQF;2009-09-27 12:00;CYQF 271200Z 32012G17KT 15SM SKC 06/M06 A3014 RMK SLP230

CYQF;2009-09-27 13:00;CYQF 271300Z 31010G15KT 15SM SKC 05/M05 A3015 RMK SLP235

CYQF;2009-09-27 14:00;CYQF 271400Z 30010KT 15SM SKC 05/M05 A3017 RMK SLP241

CYQF;2009-09-27 15:00;CYQF 271500Z 32012G20KT 15SM SKC 07/M04 A3018 RMK SLP245

CYQF;2009-09-27 16:00;CYQF 271600Z 34020G28KT 15SM SKC 08/M03 A3020 RMK SLP250

CYQF;2009-09-27 17:00;CYQF 271700Z 33015G25KT 15SM FEW020 09/M03 A3022 RMK CF1 SLP256

CYQF;2009-09-27 18:00;CYQF 271800Z 33020G26KT 15SM FEW030 10/M03 A3021 RMK CU2 SLP254

CYQF;2009-09-27 19:00;CYQF 271900Z 32015G20KT 15SM FEW050 11/M03 A3021 RMK CU2 SLP253

CYQF;2009-09-27 20:00;CYQF 272000Z 32012G20KT 15SM FEW040 12/M04 A3021 RMK CU2 SLP254

CYQF;2009-09-27 21:00;CYQF 272100Z 31015G20KT 15SM FEW040 FEW240 12/M04 A3020 RMK CU2CI1 SLP248

CYQF;2009-09-27 22:00;CYQF 272200Z 33010G15KT 15SM FEW050 FEW240 12/M04 A3020 RMK SC2CI0 CU ASOCTD SLP247

CYQF;2009-09-27 23:00;CYQF 272300Z 32005KT 15SM FEW050 12/M04 A3019 RMK SC2 SLP244

CYQF;2009-09-28 00:00;CYQF 280000Z 01007KT 15SM SKC 12/M04 A3017 RMK SLP240

CYQF;2009-09-28 01:00;CYQF 280100Z 03002KT 15SM FEW250 10/M04 A3018 RMK CI1 SLP241

CYQF;2009-09-28 02:00;CYQF 280200Z 00000KT 15SM FEW250 06/M03 A3018 RMK CI1 SLP241

CYQF;2009-09-28 03:00;CYQF 280300Z 00000KT 15SM SKC 04/M04 A3018 RMK SLP249

CYQF;2009-09-28 04:00;CYQF 280400Z 00000KT 15SM SKC 00/M05 A3018 RMK SLP249

CYQF;2009-09-28 05:00;CYQF 280500Z 19003KT 15SM FEW150 M01/M05 A3016 RMK AC1 SLP245

CYQF;2009-09-28 06:00;CYQF 280600Z 00000KT 15SM SKC 01/M04 A3015 RMK SLP239

CYQF;2009-09-28 07:00;CYQF 280700Z 16003KT 15SM SKC 02/M04 A3013 RMK SLP233

CYQF;2009-09-28 08:00;CYQF 280800Z 16005KT 15SM SKC 02/M05 A3012 RMK SLP229

CYQF;2009-09-28 09:00;CYQF 280900Z 15005KT 15SM SKC 01/M05 A3009 RMK SLP218

CYQF;2009-09-28 10:00;CYQF 281000Z 15010KT 15SM SKC 01/M05 A3005 RMK SLP206

CYQF;2009-09-28 11:00;CYQF 281100Z 15010KT 15SM SKC 02/M05 A3003 RMK SLP198

CYQF;2009-09-28 12:00;CYQF 281200Z 16010KT 15SM SKC 02/M05 A2999 RMK SLP179

CYQF;2009-09-28 13:00;CYQF 281300Z 16014G20KT 15SM SCT070 BKN250 03/M05 A2996 RMK AC3CI1 SLP170

CYQF;2009-09-28 14:00;CYQF 281400Z 14013G18KT 15SM FEW070 BKN100 BKN250 03/M05 A2993 RMK AC2AC3CI1 SLP160

CYQF;2009-09-28 15:00;CYQF 281500Z 15010G15KT 15SM FEW070 BKN100 BKN250 03/M05 A2990 RMK AC1AC6CI2 SLP156

CYQF;2009-09-28 16:00;CYQF 281600Z 15015G25KT 15SM BKN090 BKN150 07/M05 A2986 RMK AC5AC2 SLP144

CYQF;2009-09-28 17:00;CYQF 281700Z 15025G35KT 15SM BKN100 OVC250 09/M05 A2983 RMK AC6CI2 SLP134

CYQF;2009-09-28 18:00;CYQF 281800Z 16020G26KT 15SM BKN100 OVC250 10/M05 A2980 RMK AC6CI2 SLP116

CYQF;2009-09-28 19:00;CYQF 281900Z 16022G31KT 15SM BKN100 OVC250 12/M06 A2976 RMK AC6CI1 SLP103

CYQF;2009-09-28 20:00;CYQF 282000Z 15025G38KT 15SM BKN100 OVC250 13/M06 A2971 RMK AC6CI1 SLP090

CYQF;2009-09-28 21:00;CYQF 282100Z 16030G42KT 15SM SCT100 BKN250 15/M06 A2966 RMK AC2CI5 SLP065

CYQF;2009-09-28 22:00;CYQF 282200Z 17030G38KT 15SM FEW250 16/M06 A2962 RMK CI1 SLP052

CYQF;2009-09-28 23:00;CYQF 282300Z 16030G40KT 15SM SKC 16/M06 A2960 RMK SLP047

CYQF;2009-09-29 00:00;CYQF 290000Z 16025G35KT 15SM SKC 16/M06 A2958 RMK SLP033

CYQF;2009-09-29 01:00;CYQF 290100Z 15015G20KT 15SM FEW250 14/M05 A2956 RMK CI1 SLP029

CYQF;2009-09-29 02:00;CYQF 290200Z 15015G25KT 15SM FEW250 13/M05 A2954 RMK CI1 SLP021

CYQF;2009-09-29 03:00;CYQF 290300Z 16010G15KT 15SM SCT250 11/M04 A2953 RMK CI2 SLP020

CYQF;2009-09-29 04:00;CYQF 290400Z 16010G15KT 15SM BKN250 11/M05 A2952 RMK CI2 SLP017

CYQF;2009-09-29 05:00;CYQF 290500Z 16010KT 15SM FEW100 BKN250 10/M05 A2951 RMK AC2CI1 SLP015

CYQF;2009-09-29 06:00;CYQF 290600Z 17010G15KT 15SM SCT100 BKN250 11/M05 A2949 RMK AC3CI2 SLP001

CYQF;2009-09-29 07:00;CYQF 290700Z 18013KT 15SM SCT100 BKN250 10/M04 A2949 RMK AC3CI3 SLP999

CYQF;2009-09-29 08:00;CYQF 290800Z 19012KT 15SM FEW100 BKN250 09/M04 A2947 RMK AC2CI3 OBS TAKEN +13 SLP994

CYQF;2009-09-29 09:00;CYQF 290900Z 17011KT 15SM BKN250 09/M04 A2948 RMK CI3 SLP993

CYQF;2009-09-29 10:00;CYQF 291000Z 15004KT 15SM BKN250 07/M04 A2946 RMK CI3 SLP988

CYQF;2009-09-29 11:00;CYQF 291100Z 17010KT 15SM FEW100 BKN250 08/M04 A2946 RMK AC2CI2 SLP986

CYQF;2009-09-29 12:00;CYQF 291200Z 20006KT 15SM SCT100 BKN250 09/M04 A2945 RMK AC3CI3 SLP980

CYQF;2009-09-29 13:00;CYQF 291300Z 19003KT 15SM SCT100 BKN250 07/M04 A2945 RMK AC3CI1 SLP980

CYQF;2009-09-29 14:00;CYQF 291400Z 26005KT 15SM FEW100 BKN250 04/M03 A2946 RMK AC1CI2 SLP986

CYQF;2009-09-29 15:00;CYQF 291500Z 24005KT 15SM FEW100 BKN250 06/M02 A2948 RMK AC1CI2 SLP000

CYQF;2009-09-29 16:00;CYQF 291600Z 29007KT 15SM BKN250 07/M01 A2949 RMK CI3 SLP003

CYQF;2009-09-29 17:00;CYQF 291700Z 32007KT 15SM BKN250 08/M01 A2949 RMK CI4 SLP002

CYQF;2009-09-29 18:00;CYQF 291800Z 30004KT 15SM FEW100 BKN250 10/M00 A2948 RMK AC2CI3 SLP997

CYQF;2009-09-29 19:00;CYQF 291900Z 32004KT 15SM FEW100 BKN250 10/00 A2949 RMK AC2CI2 SLP999

CYQF;2009-09-29 20:00;CYQF 292000Z 35006KT 15SM FEW035 SCT100 BKN250 10/01 A2949 RMK CU1AC2CI3 SLP000

CYQF;2009-09-29 21:00;CYQF 292100Z 01005KT 15SM FEW040 SCT100 BKN250 10/00 A2949 RMK CU1AC2CI2 SLP003

CYQF;2009-09-29 22:00;CYQF 292200Z 33010G15KT 15SM FEW040 SCT100 BKN250 10/01 A2951 RMK CU1AC2CI2 SLP008

CYQF;2009-09-29 23:00;CYQF 292300Z 34009KT 15SM FEW040 SCT100 BKN250 11/01 A2955 RMK SC2AC2CI3 SLP020

CYQF;2009-09-30 00:00;CYQF 300000Z 31006KT 15SM SCT040 BKN250 10/01 A2958 RMK SC3CI2 SLP033

CYQF;2009-09-30 01:00;CYQF 300100Z 30004KT 15SM SCT040 BKN250 08/01 A2961 RMK SC3CI3 SLP043

CYQF;2009-09-30 02:00;CYQF 300200Z 31003KT 15SM SCT040 BKN250 07/01 A2964 RMK SC3CI3 SLP052

CYQF;2009-09-30 03:00;CYQF 300300Z 00000KT 15SM FEW040 BKN250 06/M00 A2965 RMK SC2CI4 SLP064

CYQF;2009-09-30 04:00;CYQF 300400Z 00000KT 15SM SCT100 BKN250 07/01 A2968 RMK AC3CI2 SLP074

CYQF;2009-09-30 05:00;CYQF 300500Z 03006KT 15SM BKN080 OVC250 10/M01 A2971 RMK AC6CI2 SLP083

CYQF;2009-09-30 06:00;CYQF 300600Z 29006KT 15SM BKN090 OVC250 08/00 A2973 RMK AC6CI2 SLP086

CYQF;2009-09-30 07:00;CYQF 300700Z 33004KT 15SM OVC250 07/M00 A2976 RMK CI7 SLP094

CYQF;2009-09-30 08:00;CYQF 300800Z 34005KT 15SM OVC250 04/M00 A2977 RMK CI8 SLP100

CYQF;2009-09-30 09:00;CYQF 300900Z 35007KT 15SM OVC250 05/00 A2979 RMK CI8 SLP111

CYQF;2009-09-30 10:00;CYQF 301000Z 33008KT 15SM OVC250 05/00 A2981 RMK CI8 SLP115

CYQF;2009-09-30 11:00;CYQF 301100Z 33007KT 15SM OVC250 04/00 A2983 RMK CI6 SLP123

CYQF;2009-09-30 12:00;CYQF 301200Z 34007KT 15SM OVC250 04/M00 A2984 RMK CI8 SLP129

CYQF;2009-09-30 13:00;CYQF 301300Z 34006KT 15SM FEW100 OVC250 04/00 A2985 RMK AC2CI6 SLP131

CYQF;2009-09-30 14:00;CYQF 301400Z 28005KT 15SM FEW100 BKN250 01/M01 A2988 RMK AC2CI6 SLP142

CYQF;2009-09-30 15:00;CYQF 301500Z 00000KT 15SM FEW100 BKN250 02/M00 A2992 RMK AC2CI2 SLP164

CYQF;2009-09-30 16:00;CYQF 301600Z 29002KT 15SM FEW090 SCT150 BKN250 04/01 A2993 RMK AC1AS2CI2 SLP167

CYQF;2009-09-30 17:00;CYQF 301700Z 33010KT 15SM FEW030 FEW150 FEW250 07/M01 A2995 RMK CF1AC1CI1 TR CF SLP173

CYQF;2009-09-30 18:00;CYQF 301800Z 32015G20KT 15SM FEW040 BKN250 08/M02 A2996 RMK CU1CI1 SLP167

CYQF;2009-09-30 19:00;CYQF 301900Z 32020G25KT 15SM FEW040 BKN250 09/M02 A2996 RMK CU2CI1 SLP169

CYQF;2009-09-30 20:00;CYQF 302000Z 34015G20KT 15SM FEW040 SCT250 10/M02 A2996 RMK CU1CI0 SLP167

CYQF;2009-09-30 21:00;CYQF 302100Z 31011G17KT 15SM FEW045 FEW250 10/M04 A2995 RMK CU1CI1 SLP167

CYQF;2009-09-30 22:00;CYQF 302200Z 33011G16KT 15SM FEW045 FEW250 10/M03 A2996 RMK CU1CI1 SLP169

CYQF;2009-09-30 23:00;CYQF 302300Z 32010G17KT 15SM FEW045 FEW250 11/M04 A2997 RMK CU1CI2 SLP173

CYQF;2009-10-01 01:00;CYQF 010100Z 35006KT 15SM FEW050 FEW250 08/M06 A3000 RMK CU2CI1 TCU ASCOTD SW SH DIST SW SLP182

CYQF;2009-10-01 02:00;CYQF 010200Z 35006KT 15SM FEW050 FEW250 07/M05 A3002 RMK CU1CI1 SLP190

CYQF;2009-10-01 03:00;CYQF 010300Z 34003KT 15SM SKC 02/M06 A3005 RMK SLP212

CYQF;2009-10-01 04:00;CYQF 010400Z 00000KT 15SM FEW250 01/M06 A3006 RMK CI1 SLP216

CYQF;2009-10-01 05:00;CYQF 010500Z 18002KT 15SM FEW250 M01/M06 A3007 RMK CI0 SLP219

CYQF;2009-10-01 06:00;CYQF 010600Z 00000KT 15SM SKC M02/M06 A3007 RMK SLP216

CYQF;2009-10-01 07:00;CYQF 010700Z 00000KT 15SM SKC M04/M07 A3007 RMK SLP216

CYQF;2009-10-01 08:00;CYQF 010800Z 00000KT 15SM SKC M05/M08 A3007 RMK SLP218

CYQF;2009-10-01 09:00;CYQF 010900Z 21003KT 15SM SKC M05/M08 A3008 RMK SLP222

CYQF;2009-10-01 10:00;CYQF 011000Z 20003KT 15SM SKC M05/M08 A3008 RMK FROIN SLP223

CYQF;2009-10-01 11:00;CYQF 011100Z 00000KT 15SM SKC M05/M07 A3010 RMK FROIN SLP227

CYQF;2009-10-01 12:00;CYQF 011200Z 00000KT 15SM SKC M07/M09 A3010 RMK FROIN SLP232

CYQF;2009-10-01 13:00;CYQF 011300Z 18002KT 15SM FEW100 FEW250 M07/M08 A3011 RMK AC1CI1 SLP233

CYQF;2009-10-01 14:00;CYQF 011400Z 19003KT 15SM FEW100 FEW250 M07/M09 A3011 RMK AC1CI1 TR CI SLP235

CYQF;2009-10-01 15:00;CYQF 011500Z 19003KT 15SM FEW100 M04/M06 A3011 RMK AC1 FRION SLP242

CYQF;2009-10-01 16:00;CYQF 011600Z 23005KT 15SM SCT100 00/M03 A3011 RMK AC3 SLP241

CYQF;2009-10-01 17:00;CYQF 011700Z 20005KT 15SM FEW250 06/M02 A3010 RMK CI1 SLP238

CYQF;2009-10-01 18:00;CYQF 011800Z 15010KT 15SM FEW250 09/M04 A3007 RMK CI1 SLP217

CYQF;2009-10-01 19:00;CYQF 011900Z 19010KT 15SM FEW050 10/M05 A3005 RMK SC1 SLP210

CYQF;2009-10-01 20:00;CYQF 012000Z 25003KT 15SM FEW060 FEW250 11/M05 A3003 RMK CU1CI1 SLP204

CYQF;2009-10-01 21:00;CYQF 012100Z 32006KT 15SM FEW060 FEW250 12/M06 A3002 RMK CU2CI1 SLP198

CYQF;2009-10-01 22:00;CYQF 012200Z 27004KT 15SM FEW060 FEW250 12/M06 A3001 RMK CU1CI0 SLP195

CYQF;2009-10-01 23:00;CYQF 012300Z 00000KT 15SM FEW060 12/M07 A3001 RMK CU1 SLP196

CYQF;2009-10-02 00:00;CYQF 020000Z 00000KT 15SM FEW080 12/M07 A3001 RMK AC2 SLP197

CYQF;2009-10-02 01:00;CYQF 020100Z 00000KT 15SM FEW080 10/M08 A3001 RMK AC2 SLP197

CYQF;2009-10-02 02:00;CYQF 020200Z 10002KT 15SM FEW080 05/M06 A3001 RMK AC1 SLP198

CYQF;2009-10-02 03:00;CYQF 020300Z 00000KT 15SM BKN120 03/M07 A3002 RMK AC3 SLP206

CYQF;2009-10-02 04:00;CYQF 020400Z 19002KT 15SM BKN120 03/M06 A3001 RMK AC2 SLP205

CYQF;2009-10-02 05:00;CYQF 020500Z 00000KT 15SM SCT100 01/M07 A3000 RMK AC2 SLP202

CYQF;2009-10-02 06:00;CYQF 020600Z 00000KT 15SM SCT100 00/M07 A3000 RMK AC2 SLP190

CYQF;2009-10-02 07:00;CYQF 020700Z 00000KT 15SM BKN100 01/M06 A3000 RMK AC3 SLP188

CYQF;2009-10-02 08:00;CYQF 020800Z 00000KT 15SM BKN100 M01/M06 A2999 RMK AC2 SLP186

CYQF;2009-10-02 09:00;CYQF 020900Z 23002KT 15SM BKN100 M02/M06 A2998 RMK AC3 SLP183

CYQF;2009-10-02 10:00;CYQF 021000Z 00000KT 15SM FEW100 M02/M06 A2998 RMK AC1 SLP182

CYQF;2009-10-02 11:00;CYQF 021100Z 22004KT 15SM SKC M04/M07 A2998 RMK SLP181

CYQF;2009-10-02 12:00;CYQF 021200Z 22003KT 15SM FEW100 M05/M08 A2998 RMK AC1 SLP186

CYQF;2009-10-02 13:00;CYQF 021300Z 22004KT 15SM FEW100 M06/M09 A2999 RMK AC1 SLP189

CYQF;2009-10-02 14:00;CYQF 021400Z 00000KT 15SM SCT100 BKN250 M04/M07 A2999 RMK AC3CI1 SLP188

CYQF;2009-10-02 15:00;CYQF 021500Z 00000KT 15SM FEW100 M01/M05 A2999 RMK AC2 SLP193

CYQF;2009-10-02 16:00;CYQF 021600Z 00000KT 15SM FEW100 FEW250 02/M04 A2999 RMK AC1CI0 SLP193

CYQF;2009-10-02 17:00;CYQF 021700Z 03003KT 15SM SCT120 06/M03 A2998 RMK AC2 SLP192

CYQF;2009-10-02 18:00;CYQF 021800Z 13010KT 15SM SCT130 SCT250 12/M05 A2997 RMK AC2CI1 SLP175

CYQF;2009-10-02 19:00;CYQF 021900Z 12010KT 15SM SCT130 SCT250 13/M05 A2996 RMK AC2CI1 SLP172

CYQF;2009-10-02 20:00;CYQF 022000Z 12010G15KT 15SM SCT130 SCT250 13/M05 A2995 RMK AC2CI1 SLP170

CYQF;2009-10-02 21:00;CYQF 022100Z 14010KT 15SM FEW050 BKN130 BKN250 12/M04 A2995 RMK CU1AC4CI1 SLP170

CYQF;2009-10-02 22:00;CYQF 022200Z 13011KT 15SM FEW050 BKN130 BKN250 13/M04 A2995 RMK CU1AC4CI1 SLP170

CYQF;2009-10-02 23:00;CYQF 022300Z 12010KT 15SM FEW050 BKN100 BKN250 12/M04 A2995 RMK CU1AC5CI1 SLP170

CYQF;2009-10-03 00:00;CYQF 030000Z 00000KT 15SM SCT040 BKN080 11/M04 A2996 RMK CU3AC3 VIRGA SLP180

CYQF;2009-10-03 01:00;CYQF 030100Z 08007KT 15SM SCT050 BKN100 11/M04 A2997 RMK CU3AC3 VIRGA SLP181

CYQF;2009-10-03 02:00;CYQF 030200Z 07007KT 15SM FEW050 BKN100 09/M04 A2998 RMK SC2AC3 SLP184

CYQF;2009-10-03 03:00;CYQF 030300Z 10007KT 15SM BKN060 OVC100 09/M04 A2999 RMK SC5AC2 SLP188

CYQF;2009-10-03 04:00;CYQF 030400Z 06008KT 15SM OVC070 07/M04 A3000 RMK AS7 SLP191

CYQF;2009-10-03 05:00;CYQF 030500Z 07007KT 15SM OVC070 06/M04 A3002 RMK AC8 SLP196

CYQF;2009-10-03 06:00;CYQF 030600Z 09006KT 15SM OVC075 06/M04 A3004 RMK AC8 SLP194

CYQF;2009-10-03 07:00;CYQF 030700Z 12008KT 15SM OVC075 06/M04 A3005 RMK AC8 SLP196

CYQF;2009-10-03 08:00;CYQF 030800Z 06005KT 15SM BKN075 05/M04 A3006 RMK AC7 SLP201

CYQF;2009-10-03 09:00;CYQF 030900Z 05005KT 15SM OVC070 05/M04 A3007 RMK AC6 SLP206

CYQF;2009-10-03 10:00;CYQF 031000Z 04007KT 15SM OVC070 04/M04 A3008 RMK AC6 SLP209

CYQF;2009-10-03 11:00;CYQF 031100Z 03006KT 15SM OVC075 03/M04 A3010 RMK AS6 SLP213

CYQF;2009-10-03 12:00;CYQF 031200Z 03008KT 15SM BKN070 02/M04 A3011 RMK AC5 SLP221

CYQF;2009-10-03 13:00;CYQF 031300Z 36005KT 15SM BKN090 01/M04 A3012 RMK AS5 SLP224

CYQF;2009-10-03 14:00;CYQF 031400Z 03004KT 15SM SCT090 BKN250 M00/M04 A3015 RMK AC3CI1 VIRGA SLP234

CYQF;2009-10-03 15:00;CYQF 031500Z 36005KT 15SM FEW090 SCT250 M00/M04 A3017 RMK AC2CI1 SLP249

CYQF;2009-10-03 16:00;CYQF 031600Z 02006KT 15SM FEW040 BKN080 02/M03 A3019 RMK SC1AC6 SLP255

CYQF;2009-10-03 17:00;CYQF 031700Z 03005KT 15SM FEW008 BKN020 OVC080 04/M02 A3021 RMK ST2SC4AC2 SLP262

CYQF;2009-10-03 18:00;CYQF 031800Z 02006KT 15SM FEW008 BKN020 05/M01 A3022 RMK SF1SC6 SLP263

CYQF;2009-10-03 19:00;CYQF 031900Z 02010KT 15SM BKN020 BKN250 06/M01 A3022 RMK CU6CI1 SLP262

CYQF;2009-10-03 20:00;CYQF 032000Z 36011KT 15SM BKN015 06/M01 A3023 RMK SC7 CU ASOCTD SLP265

CYQF;2009-10-03 21:00;CYQF 032100Z 36010KT 15SM BKN020 06/M01 A3024 RMK SC6 CU ASOCTD SLP269

CYQF;2009-10-03 22:00;CYQF 032200Z 02013KT 15SM BKN020 BKN250 06/M01 A3024 RMK SC5CI1 SLP271

CYQF;2009-10-03 23:00;CYQF 032300Z 36012G18KT 10SM BKN020 OVC250 04/M02 A3026 RMK SC6CI1 CU ASOCTD SLP276

CYQF;2009-10-04 00:00;CYQF 040000Z 36015KT 15SM BKN020 03/M01 A3028 RMK SC7 SLP290

CYQF;2009-10-04 01:00;CYQF 040100Z 36010G15KT 15SM OVC020 03/M01 A3029 RMK SC8 CIG RAG SLP294

CYQF;2009-10-04 02:00;CYQF 040200Z 34010KT 15SM OVC018 03/M01 A3030 RMK SC8 SLP296

CYQF;2009-10-04 03:00;CYQF 040300Z 34010KT 15SM OVC016 03/M00 A3030 RMK SC8 SLP302

CYQF;2009-10-04 03:34;CYQF 040334Z 33012KT 10SM -RA OVC018 RMK SC8

CYQF;2009-10-04 04:00;CYQF 040400Z 34010KT 10SM -RA OVC017 02/00 A3031 RMK SC8 SLP303

CYQF;2009-10-04 04:30;CYQF 040430Z 34014KT 10SM -RA OVC011 RMK SC8

CYQF;2009-10-04 05:00;CYQF 040500Z 33013KT 10SM -RA OVC011 02/01 A3031 RMK SC8 SLP304

CYQF;2009-10-04 06:00;CYQF 040600Z 34010KT 6SM -RA BR OVC012 02/01 A3031 RMK SC8 SLP299

CYQF;2009-10-04 07:00;CYQF 040700Z 33010G15KT 6SM -RA BR OVC012 02/01 A3031 RMK SC8 SLP299

CYQF;2009-10-04 07:16;CYQF 040716Z 34010G15KT 6SM -RASN BR SCT007 OVC012 RMK SF3SC5

CYQF;2009-10-04 07:41;CYQF 040741Z 33010KT 8SM -SN SCT006 OVC014 RMK SF3SC5

CYQF;2009-10-04 08:00;CYQF 040800Z 33011KT 8SM -SN SCT006 OVC012 02/01 A3031 RMK SF3SC5 SLP298

CYQF;2009-10-04 08:35;CYQF 040835Z 33010KT 10SM -SN BKN005 OVC018 RMK SF6SC2

CYQF;2009-10-04 09:00;CYQF 040900Z 33011KT 8SM -SN BKN006 OVC012 01/01 A3030 RMK SF6SC2 SLP295

CYQF;2009-10-04 10:00;CYQF 041000Z 33010KT 6SM -SN BR BKN005 OVC012 01/00 A3029 RMK SF6SC2 SLP293

CYQF;2009-10-04 11:00;CYQF 041100Z 34012KT 6SM -SN BR BKN005 OVC012 01/00 A3029 RMK SF5SC3 SLP291

CYQF;2009-10-04 12:00;CYQF 041200Z 34011KT 8SM -SN BKN005 OVC012 01/01 A3029 RMK SF6SC2 SLP294

CYQF;2009-10-04 13:00;CYQF 041300Z 33010KT 8SM -SN BKN005 OVC012 01/00 A3029 RMK SF5SC3 SLP295

CYQF;2009-10-04 13:31;CYQF 041331Z 35006KT 3SM -DZ BR BKN005 OVC012 RMK SF6SC2

CYQF;2009-10-04 14:00;CYQF 041400Z 35008KT 2 1/2SM -DZ BR BKN005 OVC012 01/00 A3029 RMK SF6SC2 SLP296

CYQF;2009-10-04 15:00;CYQF 041500Z 36005KT 4SM -DZSG BR OVC005 01/01 A3030 RMK ST8 SLP299

CYQF;2009-10-04 16:00;CYQF 041600Z 35008KT 6SM -DZSG BR OVC004 02/01 A3030 RMK ST8 SLP299

CYQF;2009-10-04 17:00;CYQF 041700Z 33008KT 5SM -DZSG BR OVC003 02/01 A3029 RMK ST8 SLP298

CYQF;2009-10-04 18:00;CYQF 041800Z 34012KT 6SM -DZSG BR OVC004 02/01 A3029 RMK ST8 CIG RAG SLP296

CYQF;2009-10-04 19:00;CYQF 041900Z 34009KT 12SM -DZ OVC004 02/01 A3028 RMK SF8 CIG RAG SLP293

CYQF;2009-10-04 19:10;CYQF 041910Z 33009KT 12SM -DZ OVC006 RMK SF8 CIG RAG

CYQF;2009-10-04 20:00;CYQF 042000Z 35007KT 15SM OVC006 03/01 A3027 RMK SF8 CIG RAG SLP290

CYQF;2009-10-04 21:00;CYQF 042100Z 34008KT 15SM BKN009 OVC012 03/01 A3026 RMK SF7SC1 CIG RAG SLP286

CYQF;2009-10-04 22:00;CYQF 042200Z 02012KT 15SM BKN010 OVC015 03/01 A3026 RMK SF6SC2 CIG RAG SLP285

CYQF;2009-10-04 22:44;CYQF 042244Z 36008KT 15SM FEW008 OVC010 RMK SF2SC6

CYQF;2009-10-04 23:00;CYQF 042300Z 01007KT 15SM FEW008 OVC010 03/01 A3025 RMK SF2SC6 SLP284

CYQF;2009-10-05 00:00;CYQF 050000Z 35006KT 15SM BKN011 OVC020 03/00 A3025 RMK SC6SC2 SLP284

CYQF;2009-10-05 01:00;CYQF 050100Z 34005KT 15SM BKN012 OVC025 02/01 A3025 RMK SC5SC3 SLP284

CYQF;2009-10-05 02:00;CYQF 050200Z 33005KT 15SM BKN015 OVC040 02/00 A3026 RMK SC5SC3 SLP285

CYQF;2009-10-05 03:00;CYQF 050300Z 36005KT 15SM OVC017 02/01 A3026 RMK SC8 SLP287

CYQF;2009-10-05 04:00;CYQF 050400Z 34003KT 15SM BKN012 OVC030 02/00 A3026 RMK SC6SC2 SLP287

CYQF;2009-10-05 05:00;CYQF 050500Z 34003KT 15SM OVC011 02/00 A3026 RMK SC8 SLP286

CYQF;2009-10-05 06:00;CYQF 050600Z 33003KT 15SM BKN012 OVC025 02/00 A3025 RMK SC6SC2 SLP283

CYQF;2009-10-05 07:00;CYQF 050700Z 32003KT 15SM SCT012 OVC050 02/00 A3024 RMK SC3SC5 SLP279

CYQF;2009-10-05 08:00;CYQF 050800Z 00000KT 15SM SCT015 OVC050 01/00 A3023 RMK SC3SC5 SLP277

CYQF;2009-10-05 09:00;CYQF 050900Z 00000KT 15SM SCT020 OVC050 01/00 A3023 RMK SC3SC5 OBS TAKEN +12 SLP275

CYQF;2009-10-05 10:00;CYQF 051000Z 00000KT 15SM SCT020 OVC050 01/00 A3022 RMK SC3SC5 SLP273

CYQF;2009-10-05 11:00;CYQF 051100Z 00000KT 15SM FEW025 OVC050 01/00 A3023 RMK SC2SC6 SLP274

CYQF;2009-10-05 12:00;CYQF 051200Z 00000KT 12SM FEW007 FEW025 OVC050 01/M00 A3022 RMK SF1SC2SC6 OBS TAKEN +10 SLP271

CYQF;2009-10-05 13:00;CYQF 051300Z 00000KT 10SM BKN009 OVC050 01/M00 A3021 RMK SF5SC3 SLP268

CYQF;2009-10-05 14:00;CYQF 051400Z 00000KT 4SM BR BKN010 OVC030 01/00 A3021 RMK SF6SC2 CIG RAG SLP269

CYQF;2009-10-05 15:00;CYQF 051500Z 00000KT 6SM BR BKN010 OVC025 01/00 A3021 RMK SF5SC2 CIG RAG SLP268

CYQF;2009-10-05 15:51;CYQF 051551Z 00000KT 6SM BR FEW010 OVC025 RMK SF2SC6

CYQF;2009-10-05 16:00;CYQF 051600Z 21002KT 6SM BR FEW010 OVC025 02/00 A3020 RMK SF2SC5 SLP266

CYQF;2009-10-05 17:00;CYQF 051700Z 18003KT 8SM FEW010 SCT025 BKN120 03/00 A3018 RMK SF2SC2AC2 SLP259

CYQF;2009-10-05 18:00;CYQF 051800Z 16006KT 8SM SCT015 BKN120 05/M00 A3015 RMK CU4AC1 SLP246

CYQF;2009-10-05 19:00;CYQF 051900Z 20011KT 15SM BKN028 06/M01 A3013 RMK SC6 FEW CU SLP237

CYQF;2009-10-05 20:00;CYQF 052000Z 22010G15KT 15SM SCT030 BKN250 06/M02 A3010 RMK SC4CI0 SLP230

CYQF;2009-10-05 21:00;CYQF 052100Z 19007KT 15SM FEW030 SCT250 07/M02 A3008 RMK SC1CI1 SLP217

CYQF;2009-10-05 22:00;CYQF 052200Z 18010G15KT 15SM FEW030 BKN250 08/M03 A3006 RMK SC1CI2 SLP211

CYQF;2009-10-05 23:00;CYQF 052300Z 20008KT 15SM BKN250 08/M03 A3002 RMK CI2 SLP200

CYQF;2009-10-06 00:00;CYQF 060000Z 18010KT 15SM BKN250 08/M02 A3000 RMK CI2 SLP189

CYQF;2009-10-06 01:00;CYQF 060100Z 18010KT 15SM FEW120 SCT250 06/M02 A2997 RMK AC1CI1 SLP182

CYQF;2009-10-06 02:00;CYQF 060200Z 18008KT 15SM FEW120 BKN250 04/M02 A2996 RMK AC2CI2 SLP178

CYQF;2009-10-06 03:00;CYQF 060300Z 17010KT 15SM SCT120 BKN250 03/M02 A2993 RMK AC4CI2 SLP171

CYQF;2009-10-06 04:00;CYQF 060400Z 18006KT 15SM BKN120 OVC250 03/M02 A2991 RMK AC5CI2 SLP163

CYQF;2009-10-06 05:00;CYQF 060500Z 20008KT 15SM BKN100 OVC250 03/M01 A2986 RMK AC6CI2 SLP150

CYQF;2009-10-06 06:00;CYQF 060600Z 19005KT 15SM BKN100 OVC250 02/M01 A2985 RMK AC5CI2 SLP138

CYQF;2009-10-06 07:00;CYQF 060700Z 19005KT 15SM BKN080 BKN250 03/M01 A2982 RMK AC5CI2 SLP129

CYQF;2009-10-06 08:00;CYQF 060800Z 00000KT 15SM FEW080 FEW250 01/M01 A2979 RMK AC1CI0 SLP121

CYQF;2009-10-06 09:00;CYQF 060900Z 19004KT 15SM SCT250 01/M01 A2976 RMK CI1 SLP109

CYQF;2009-10-06 10:00;CYQF 061000Z 17005KT 15SM BKN250 01/M01 A2974 RMK CI2 SLP100

CYQF;2009-10-06 11:00;CYQF 061100Z 21004KT 15SM BKN250 01/M02 A2971 RMK CI2 SLP092

CYQF;2009-10-06 12:00;CYQF 061200Z 21007KT 15SM BKN080 BKN250 02/M01 A2969 RMK AC5CI1 SLP081

CYQF;2009-10-06 13:00;CYQF 061300Z 22006KT 15SM SCT080 BKN250 02/M01 A2966 RMK AC3CI2 SLP070

CYQF;2009-10-06 14:00;CYQF 061400Z 21006KT 15SM BKN080 BKN250 05/00 A2964 RMK AC5CI2 SLP064

CYQF;2009-10-06 15:00;CYQF 061500Z 21005KT 15SM FEW050 BKN080 OVC250 06/01 A2961 RMK SC1AC5CI2 VIRGA SLP054

CYQF;2009-10-06 16:00;CYQF 061600Z 23002KT 15SM SCT050 BKN080 OVC250 09/02 A2959 RMK SC2AC3CI2 VIRGA SLP047

CYQF;2009-10-06 17:00;CYQF 061700Z 00000KT 15SM BKN050 OVC080 11/03 A2958 RMK SC6AC2 VIRGA SLP045

CYQF;2009-10-06 18:00;CYQF 061800Z 23006KT 15SM FEW050 BKN080 BKN250 14/04 A2955 RMK SC2AC2CI1 SLP026

CYQF;2009-10-06 19:00;CYQF 061900Z 28008KT 15SM FEW050 BKN080 BKN250 18/04 A2953 RMK SC2AC2CI1 SLP018

CYQF;2009-10-06 20:00;CYQF 062000Z 33010G15KT 15SM BKN050 BKN080 18/02 A2950 RMK SC5AC2 TCU EMBD SLP011

CYQF;2009-10-06 20:14;CYQF 062014Z 34017G24KT 15SM -SHRA FEW030 BKN050 BKN080 RMK SC2SC5AC1 TCU EMBD

CYQF;2009-10-06 20:50;CYQF 062050Z 30008KT 15SM FEW030 BKN050 BKN080 RMK SC2SC4AC1 TCU EMBD VIRGA SE

CYQF;2009-10-06 21:00;CYQF 062100Z 29008KT 15SM FEW030 BKN050 15/07 A2951 RMK SC2SC5 TCU EMBD VIRGA SE SLP010

CYQF;2009-10-06 21:19;CYQF 062119Z 34030G48KT 15SM -SHRA FEW025 BKN040CB OVC080 RMK SF2CB4AC2 FROPA

CYQF;2009-10-06 22:00;CYQF 062200Z 33030G40KT 15SM BKN025 OVC080 10/06 A2963 RMK SC7AC1 PRESRR SLP048

CYQF;2009-10-06 23:00;CYQF 062300Z 33028G40KT 15SM BKN025 OVC080 08/03 A2971 RMK SC6AC2 PRESRR SLP073

CYQF;2009-10-07 00:00;CYQF 070000Z 33020G32KT 15SM VCSH BKN016 OVC080 04/02 A2982 RMK SC6AC2 PRESRR GUSTS TO 45KTS PST HR SLP131

CYQF;2009-10-07 01:00;CYQF 070100Z 33015G33KT 15SM VCSH BKN016 OVC080 03/00 A2987 RMK SC6AC2 SLP147

CYQF;2009-10-07 02:00;CYQF 070200Z 33015G30KT 15SM SCT020 BKN050 03/M01 A2992 RMK SC3SC3 SLP161

CYQF;2009-10-07 03:00;CYQF 070300Z 33018G32KT 15SM OVC040 03/M02 A2995 RMK SC8 SLP172

CYQF;2009-10-07 04:00;CYQF 070400Z 33015G25KT 15SM OVC040 03/M02 A2998 RMK SC8 SLP180

CYQF;2009-10-07 05:00;CYQF 070500Z 33020G25KT 15SM FEW040 02/M02 A3000 RMK SC2 SLP187

CYQF;2009-10-07 06:00;CYQF 070600Z 34015G26KT 15SM BKN040 02/M03 A3003 RMK SC5 SLP192

CYQF;2009-10-07 06:09;CYQF 070609Z 35015G20KT 3SM -SHSN BKN040 RMK SC6

CYQF;2009-10-07 06:22;CYQF 070622Z 34012G19KT 15SM BKN020 RMK SC6

CYQF;2009-10-07 06:39;CYQF 070639Z 35010G16KT 1SM -SHSN OVC018 RMK SN2SC6

CYQF;2009-10-07 07:00;CYQF 070700Z 34010G15KT 10SM FEW015 BKN035 01/M01 A3006 RMK SC2SC5 SLP202

CYQF;2009-10-07 08:00;CYQF 070800Z 33012KT 15SM FEW015 SCT040 00/M02 A3008 RMK SC1SC2 SLP207

CYQF;2009-10-07 09:00;CYQF 070900Z 33008KT 15SM FEW015 FEW040 M00/M02 A3009 RMK SC1SC1 SLP214

CYQF;2009-10-07 10:00;CYQF 071000Z 33010KT 15SM FEW015 SCT040 01/M03 A3010 RMK SC1SC2 SLP217

CYQF;2009-10-07 10:53;CYQF 071053Z 34010KT 15SM -SN FEW015 BKN030 RMK SC2SC6

CYQF;2009-10-07 11:00;CYQF 071100Z 33010G15KT 15SM -SN FEW015 OVC030 01/M02 A3011 RMK SC2SC6 SLP220

CYQF;2009-10-07 12:00;CYQF 071200Z 33010G15KT 15SM FEW015 OVC030 01/M02 A3012 RMK SC2SC6 SLP234

CYQF;2009-10-07 13:00;CYQF 071300Z 33010G15KT 15SM FEW015 OVC030 01/M03 A3013 RMK SC2SC6 SLP238

CYQF;2009-10-07 14:00;CYQF 071400Z 32010KT 15SM SCT015 OVC030 01/M03 A3014 RMK SC4SC4 SLP240

CYQF;2009-10-07 15:00;CYQF 071500Z 33010G15KT 15SM VCSH FEW012 OVC021 01/M02 A3015 RMK SC2SC6 SLP246

CYQF;2009-10-07 15:44;CYQF 071544Z 33010G15KT 5SM -SN BKN015 OVC025 RMK SC5SC3

CYQF;2009-10-07 16:00;CYQF 071600Z 34010KT 3SM -SN BKN015 OVC025 01/M01 A3016 RMK SC6SC2 SLP249

CYQF;2009-10-07 16:31;CYQF 071631Z 04007KT 1 1/2SM -SN BR BKN007 OVC015 RMK SF5SC3

CYQF;2009-10-07 17:00;CYQF 071700Z 03005KT 2 1/2SM -SN BR BKN008 BKN015 OVC030 M00/M01 A3016 RMK SF5SC2SC1 SLP251

CYQF;2009-10-07 18:00;CYQF 071800Z 34010G15KT 2 1/2SM -SN BR BKN008 BKN025 OVC050 01/00 A3015 RMK SF5SC2SC1 SLP250

CYQF;2009-10-07 18:21;CYQF 071821Z 34010G15KT 3SM -SHSN BKN008 BKN030 RMK SF5SC2 CU EMBD

CYQF;2009-10-07 18:53;CYQF 071853Z 34012G20KT 2SM -SHSN BKN008 OVC030 RMK CU5SC2 VIS VRB 1-3

CYQF;2009-10-07 19:00;CYQF 071900Z 35010G15KT 15SM VCSH SCT008 BKN030 01/M01 A3015 RMK CU4SC2 VIS E-SE 3 -SHSN SLP248

CYQF;2009-10-07 20:00;CYQF 072000Z 36012KT 15SM BKN025 BKN030 02/M01 A3014 RMK CU5SC2 SLP246

CYQF;2009-10-07 21:00;CYQF 072100Z 36010G15KT 15SM FEW025 BKN030 03/M03 A3014 RMK CU2SC4 SLP245

CYQF;2009-10-07 22:00;CYQF 072200Z 01008KT 15SM BKN020 03/M03 A3014 RMK CU6 SLP245

CYQF;2009-10-07 23:00;CYQF 072300Z 34004KT 15SM BKN025 03/M03 A3015 RMK CU6 SLP248

CYQF;2009-10-08 00:00;CYQF 080000Z 30005KT 15SM SCT025TCU BKN050 02/M03 A3015 RMK TCU3SC3 HVY SHWR SW SLP250

CYQF;2009-10-08 01:00;CYQF 080100Z 30005KT 15SM FEW050 00/M03 A3016 RMK SC2 CU ASOCTD SLP252

CYQF;2009-10-08 02:00;CYQF 080200Z 29005KT 15SM BKN050 M01/M04 A3016 RMK SC6 SLP253

CYQF;2009-10-08 03:00;CYQF 080300Z 27005KT 15SM BKN100 00/M02 A3017 RMK AC6 SLP257

CYQF;2009-10-08 04:00;CYQF 080400Z 27007KT 15SM BKN100 M00/M02 A3016 RMK AC7 SLP256

CYQF;2009-10-08 05:00;CYQF 080500Z 27006KT 15SM OVC100 M01/M02 A3016 RMK AC8 SLP254

CYQF;2009-10-08 06:00;CYQF 080600Z 26005KT 15SM OVC100 M01/M02 A3015 RMK AC8 SLP250

CYQF;2009-10-08 07:00;CYQF 080700Z 25005KT 15SM OVC100 M02/M03 A3012 RMK AC6 SLP243

CYQF;2009-10-08 08:00;CYQF 080800Z 25005KT 15SM OVC100 M01/M03 A3011 RMK AC7 SLP239

CYQF;2009-10-08 09:00;CYQF 080900Z 26006KT 15SM OVC100 M01/M03 A3009 RMK AC6 SLP228

CYQF;2009-10-08 10:00;CYQF 081000Z 25005KT 15SM OVC100 M02/M04 A3007 RMK AC6 SLP222

CYQF;2009-10-08 11:00;CYQF 081100Z 22004KT 15SM SCT100 M03/M05 A3004 RMK AC3 SLP212

CYQF;2009-10-08 12:00;CYQF 081200Z 22005KT 15SM FEW020 OVC080 M02/M04 A3003 RMK SC1AC7 SLP209

CYQF;2009-10-08 12:27;CYQF 081227Z 25005KT 15SM -SN FEW020 OVC075 RMK SC1AC7

CYQF;2009-10-08 13:00;CYQF 081300Z 23005KT 15SM -SN FEW020 OVC070 M02/M04 A3002 RMK SC1AC7 SLP208

CYQF;2009-10-08 14:00;CYQF 081400Z 32006KT 5SM -SN BKN025 OVC070 M01/M03 A3001 RMK SC5AC3 SLP204

CYQF;2009-10-08 14:49;CYQF 081449Z 32008KT 10SM VCSH BKN025 OVC070 RMK SC5AC3

CYQF;2009-10-08 15:00;CYQF 081500Z 33006KT 10SM VCSH BKN025 OVC070 M01/M03 A3001 RMK SC5AC3 SLP204

CYQF;2009-10-08 16:00;CYQF 081600Z 33010KT 3SM -SN BKN012 OVC030 00/M02 A3002 RMK SC6SC2 SLP206

CYQF;2009-10-08 16:08;CYQF 081608Z 35010KT 1SM -SN OVC012 RMK SN2SC6

CYQF;2009-10-08 17:00;CYQF 081700Z 03015G25KT 1SM -SN OVC010 M03/M05 A3004 RMK SN3SC5 SLP214

CYQF;2009-10-08 18:00;CYQF 081800Z 03012G20KT 1SM -SN OVC010 M03/M05 A3007 RMK SN3SC5 /S01/ SLP229

CYQF;2009-10-08 18:46;CYQF 081846Z 01012G20KT 2SM -SN SCT008 OVC015 RMK SN2SF2SC4

CYQF;2009-10-08 19:00;CYQF 081900Z 01015G21KT 2SM -SN SCT008 OVC015 M04/M06 A3011 RMK SN2SF2SC4 SLP243

CYQF;2009-10-08 19:15;CYQF 081915Z 36015G20KT 5SM -SN SCT008 OVC015 RMK SF3SC5

CYQF;2009-10-08 19:40;CYQF 081940Z 01015G20KT 10SM VCSH BKN015 OVC025 RMK SF5SC3

CYQF;2009-10-08 20:00;CYQF 082000Z 01015G25KT 10SM VCSH BKN015 OVC025 M04/M08 A3015 RMK SF6SC2 SLP255

CYQF;2009-10-08 21:00;CYQF 082100Z 36017G27KT 15SM VCSH SCT010 OVC025 M05/M10 A3019 RMK CF4SC4 SLP273

CYQF;2009-10-08 22:00;CYQF 082200Z 01015G25KT 15SM SCT010 BKN025 M05/M12 A3022 RMK SF4SC2 SLP283

CYQF;2009-10-08 23:00;CYQF 082300Z 33012G20KT 15SM VCSH FEW010 BKN025 BKN100 M05/M11 A3025 RMK SF2CU3AC1 SLP290

CYQF;2009-10-08 23:39;CYQF 082339Z 33015G25KT 1SM -SHSN FEW010 BKN025 BKN100 RMK SN3SC1SC2AC1 VIS NE 1/2

CYQF;2009-10-08 23:45;CYQF 082345Z 33015G25KT 3SM -SHGS BKN025TCU RMK SN2TCU6 VIS E 1/2

CYQF;2009-10-08 23:50;CYQF 082350Z 36010G15KT 1/8SM +SHSN VV008 RMK SN8

CYQF;2009-10-08 23:54;CYQF 082354Z 36010G15KT 1/4SM +SHSN OVC025TCU RMK SN7TCU1

CYQF;2009-10-08 23:56;CYQF 082356Z 02010G15KT 1SM -SHSN BKN025 RMK SN4CU2

CYQF;2009-10-09 00:00;CYQF 090000Z 36007KT 15SM FEW010 FEW025 SCT100 M07/M09 A3028 RMK SF1SC2AC1 VIS SE-S 5 SLP308

CYQF;2009-10-09 00:49;CYQF 090049Z 32010G15KT 5SM -SHSN FEW010 BKN025 RMK SF2SC3 VIS NE 1

CYQF;2009-10-09 01:00;CYQF 090100Z 34015G22KT 15SM VCSH FEW010 BKN025 M07/M11 A3031 RMK SC2SC3 SLP318

CYQF;2009-10-09 02:00;CYQF 090200Z 34015G20KT 15SM FEW010 SCT025 M08/M12 A3034 RMK SF1SC2 SLP325

CYQF;2009-10-09 03:00;CYQF 090300Z 33010KT 15SM FEW025 SCT100 M08/M14 A3036 RMK SC2AC2 SLP335

CYQF;2009-10-09 04:00;CYQF 090400Z 33010G15KT 15SM BKN070 M08/M15 A3037 RMK AC7 SLP338

CYQF;2009-10-09 05:00;CYQF 090500Z 31008KT 15SM OVC070 M08/M14 A3038 RMK AC8 SLP343

CYQF;2009-10-09 06:00;CYQF 090600Z 29010KT 15SM OVC070 M09/M13 A3039 RMK AC7 SLP350

CYQF;2009-10-09 07:00;CYQF 090700Z 31007KT 15SM OVC070 M08/M13 A3040 RMK AC8 SLP352

CYQF;2009-10-09 08:00;CYQF 090800Z 32010G15KT 15SM OVC070 M08/M14 A3040 RMK AC8 SLP353

CYQF;2009-10-09 09:00;CYQF 090900Z 33015G20KT 15SM OVC060 M08/M13 A3041 RMK SC8 SLP356

CYQF;2009-10-09 10:00;CYQF 091000Z 33012G18KT 15SM OVC050 M08/M13 A3041 RMK SC8 SLP357

CYQF;2009-10-09 11:00;CYQF 091100Z 34010G15KT 15SM OVC045 M08/M14 A3042 RMK SC8 SLP359

CYQF;2009-10-09 12:00;CYQF 091200Z 33013G20KT 15SM OVC050 M08/M14 A3043 RMK SC8 SLP366

CYQF;2009-10-09 12:53;CYQF 091253Z 34010G17KT 15SM -SN OVC040 RMK SC8

CYQF;2009-10-09 13:00;CYQF 091300Z 34010G15KT 15SM -SN OVC040 M08/M15 A3044 RMK SC8 SLP370

CYQF;2009-10-09 14:00;CYQF 091400Z 33015G20KT 15SM -SN OVC040 M09/M15 A3044 RMK SC8 SLP371

CYQF;2009-10-09 14:38;CYQF 091438Z 33017G24KT 15SM OVC035 RMK SC8

CYQF;2009-10-09 15:00;CYQF 091500Z 33012G20KT 15SM OVC035 M08/M14 A3045 RMK SC8 SLP375

CYQF;2009-10-09 16:00;CYQF 091600Z 33015G20KT 15SM OVC025 M08/M13 A3045 RMK SC8 SLP377

CYQF;2009-10-09 16:51;CYQF 091651Z 33015G23KT 10SM -SN OVC030 RMK SC8

CYQF;2009-10-09 17:00;CYQF 091700Z 33010G18KT 10SM -SN OVC030 M08/M15 A3046 RMK SC8 SLP379

CYQF;2009-10-09 18:00;CYQF 091800Z 33010G15KT 15SM OVC030 M08/M14 A3046 RMK SC8 SLP377

CYQF;2009-10-09 19:00;CYQF 091900Z 34010G15KT 15SM OVC036 M07/M13 A3045 RMK SC8 SLP374

CYQF;2009-10-09 20:00;CYQF 092000Z 33012G18KT 15SM OVC035 M07/M13 A3043 RMK SC8 SLP369

CYQF;2009-10-09 21:00;CYQF 092100Z 33008KT 15SM OVC035 M06/M14 A3042 RMK SC8 SLP362

CYQF;2009-10-09 22:00;CYQF 092200Z 33012KT 15SM OVC035 M06/M13 A3043 RMK SC8 SLP363

CYQF;2009-10-09 23:00;CYQF 092300Z 36010G15KT 15SM OVC035 M05/M13 A3042 RMK SC8 SLP360

CYQF;2009-10-10 00:00;CYQF 100000Z 34008KT 15SM BKN035 M05/M13 A3042 RMK SC7 SLP360

CYQF;2009-10-10 01:00;CYQF 100100Z 33010KT 15SM BKN035 M06/M12 A3042 RMK SC7 SLP362

CYQF;2009-10-10 02:00;CYQF 100200Z 31008KT 15SM OVC035 M06/M12 A3042 RMK SC8 SLP362

CYQF;2009-10-10 03:00;CYQF 100300Z 29006KT 15SM OVC040 M06/M11 A3042 RMK SC8 SLP363

CYQF;2009-10-10 04:00;CYQF 100400Z 30010KT 15SM OVC040 M06/M11 A3042 RMK SC8 SLP363

CYQF;2009-10-10 05:00;CYQF 100500Z 30010KT 15SM OVC040 M07/M11 A3042 RMK SC8 SLP363

CYQF;2009-10-10 05:35;CYQF 100535Z 29010KT 15SM -SN OVC040 RMK SC8

CYQF;2009-10-10 06:00;CYQF 100600Z 29010KT 15SM -SN OVC040 M07/M12 A3041 RMK SC8 SLP358

CYQF;2009-10-10 07:00;CYQF 100700Z 28010KT 15SM -SN OVC045 M07/M12 A3040 RMK SC8 SLP355

CYQF;2009-10-10 08:00;CYQF 100800Z 28012KT 15SM -SN OVC050 M07/M12 A3040 RMK SC8 SLP355

CYQF;2009-10-10 09:00;CYQF 100900Z 30013KT 15SM -SN OVC045 M07/M12 A3039 RMK SC8 SLP351

CYQF;2009-10-10 10:00;CYQF 101000Z 30010KT 15SM -SN OVC045 M07/M11 A3039 RMK SC8 SLP350

CYQF;2009-10-10 11:00;CYQF 101100Z 31010KT 15SM -SN OVC045 M07/M11 A3038 RMK SC8 SLP347

CYQF;2009-10-10 12:00;CYQF 101200Z 30010KT 15SM -SN OVC050 M07/M11 A3038 RMK SC8 SLP345

CYQF;2009-10-10 13:00;CYQF 101300Z 31012KT 15SM OVC050 M07/M11 A3037 RMK SC8 SLP344

CYQF;2009-10-10 13:45;CYQF 101345Z 30010G15KT 15SM OVC050 RMK SC8

CYQF;2009-10-10 13:54;CYQF 101354Z CCA 30010G15KT 15SM OVC050 RMK SC8

CYQF;2009-10-10 14:00;CYQF 101400Z 30008KT 15SM OVC050 M07/M11 A3037 RMK SC8 SLP344

CYQF;2009-10-10 15:00;CYQF 101500Z 29010KT 12SM FEW020 OVC050 M07/M11 A3037 RMK SC2SC6 SLP343

CYQF;2009-10-10 15:13;CYQF 101513Z 30010KT 10SM -SN FEW020 OVC050 RMK SC2SC6

CYQF;2009-10-10 16:00;CYQF 101600Z 31008KT 6SM -SN SCT030 OVC050 M06/M10 A3037 RMK SC4SC4 SLP344

CYQF;2009-10-10 17:00;CYQF 101700Z 32012KT 6SM -SN SCT030 OVC050 M06/M10 A3036 RMK SC3SC5 SLP342

CYQF;2009-10-10 18:00;CYQF 101800Z 32010KT 15SM BKN030 OVC050 M05/M11 A3035 RMK SC6SC2 SLP337

CYQF;2009-10-10 19:00;CYQF 101900Z 34010KT 10SM -SN BKN030 OVC050 M05/M10 A3034 RMK SC6SC2 SLP332

CYQF;2009-10-10 19:19;CYQF 101919Z 33008KT 15SM VCSH BKN030 RMK CU7 TCU ASOCTD

CYQF;2009-10-10 19:38;CYQF 101938Z 29010KT 2SM -SHSN OVC025 RMK CU8 TCU ASOCTD

CYQF;2009-10-10 19:45;CYQF 101945Z 30008KT 10SM VCSH OVC025 RMK CU8 VIS SE-SW 2

CYQF;2009-10-10 20:00;CYQF 102000Z 30008KT 3SM -SHSN OVC025 M05/M09 A3032 RMK CU8 VIS W 11/2 SLP327

CYQF;2009-10-10 21:00;CYQF 102100Z 34010KT 5SM -SHSN FEW006 OVC025 M05/M10 A3031 RMK SF2CU6 VIS W-NW 1 SLP321

CYQF;2009-10-10 22:00;CYQF 102200Z 32011KT 5SM -SHSN SCT012 OVC025 M05/M10 A3030 RMK CU3SC5 VIS S 3 SLP317

CYQF;2009-10-10 22:23;CYQF 102223Z 03008KT 2SM -SHSN BKN012 OVC025 RMK SN2CU5SC2

CYQF;2009-10-10 22:41;CYQF 102241Z 03003KT 8SM -SHSN BKN012 OVC025 RMK CU6SC2 HVR SH W+SE-SW

CYQF;2009-10-10 23:00;CYQF 102300Z 36003KT 8SM -SHSN BKN012 OVC025 M06/M09 A3029 RMK CU5SC3 VIS S 4 HVR SH S SLP315

CYQF;2009-10-10 23:45;CYQF 102345Z 29003KT 1SM -SHSN OVC011 RMK SN5SC3

CYQF;2009-10-11 00:00;CYQF 110000Z 00000KT 1SM -SHSN OVC011 M06/M08 A3028 RMK SN3SC5 SLP313

CYQF;2009-10-11 00:19;CYQF 110019Z 00000KT 2 1/2SM -SHSN OVC015 RMK SN2SC6

CYQF;2009-10-11 01:00;CYQF 110100Z 00000KT 2SM -SHSN OVC012 M06/M08 A3028 RMK SN3SC5 SLP313

CYQF;2009-10-11 01:23;CYQF 110123Z 00000KT 4SM -SHSN OVC012 RMK SN2SC6

CYQF;2009-10-11 02:00;CYQF 110200Z 00000KT 12SM SCT012 OVC040 M06/M09 A3028 RMK SC3SC5 SLP312

CYQF;2009-10-11 03:00;CYQF 110300Z 00000KT 15SM FEW015 OVC050 M07/M08 A3027 RMK SC2SC6 SLP308

CYQF;2009-10-11 04:00;CYQF 110400Z 00000KT 15SM -SN FEW015 OVC050 M07/M09 A3026 RMK SC2SC6 SLP307

CYQF;2009-10-11 05:00;CYQF 110500Z 00000KT 15SM -SN FEW015 OVC045 M07/M09 A3025 RMK SC2SC6 SLP304

CYQF;2009-10-11 06:00;CYQF 110600Z 00000KT 15SM -SN FEW015 OVC045 M07/M09 A3025 RMK SC1SC7 SLP301

CYQF;2009-10-11 07:00;CYQF 110700Z 00000KT 10SM -SN OVC050 M07/M09 A3024 RMK SC8 SLP298

CYQF;2009-10-11 08:00;CYQF 110800Z 00000KT 15SM -SN OVC050 M07/M09 A3023 RMK SC8 SLP296

CYQF;2009-10-11 09:00;CYQF 110900Z 00000KT 15SM -SN OVC040 M08/M09 A3021 RMK SC8 SLP288

CYQF;2009-10-11 10:00;CYQF 111000Z 00000KT 10SM -SN OVC045 M08/M09 A3020 RMK SC8 SLP284

CYQF;2009-10-11 11:00;CYQF 111100Z 00000KT 15SM -SN OVC045 M08/M09 A3019 RMK SC8 SLP280

CYQF;2009-10-11 12:00;CYQF 111200Z 00000KT 15SM -SN OVC045 M08/M10 A3017 RMK SC8 SLP277

CYQF;2009-10-11 13:00;CYQF 111300Z 00000KT 15SM -SN OVC050 M08/M10 A3017 RMK SC8 SLP275

CYQF;2009-10-11 14:00;CYQF 111400Z 00000KT 10SM -SN FEW025 OVC050 M08/M10 A3016 RMK SF2SC6 SLP273

CYQF;2009-10-11 15:00;CYQF 111500Z 00000KT 10SM -SN FEW025 OVC050 M07/M10 A3016 RMK SF2SC6 VIS 5 NW-N SLP271

CYQF;2009-10-11 16:00;CYQF 111600Z 00000KT 10SM -SN FEW025 OVC050 M07/M10 A3015 RMK SF1SC8 VIS 5 NW-N SLP270

CYQF;2009-10-11 17:00;CYQF 111700Z 16003KT 10SM -SN FEW035 OVC050 M06/M11 A3015 RMK SC1SC7 SLP269

CYQF;2009-10-11 18:00;CYQF 111800Z 15005KT 15SM -SN FEW025 OVC050 M06/M11 A3014 RMK CF2SC6 SLP263

CYQF;2009-10-11 19:00;CYQF 111900Z 18005KT 15SM FEW025 OVC060 M05/M10 A3012 RMK CF2SC6 SLP258

CYQF;2009-10-11 20:00;CYQF 112000Z 19004KT 15SM SCT025 BKN060 M05/M10 A3010 RMK CU3SC4 SLP252

CYQF;2009-10-11 21:00;CYQF 112100Z 18005KT 15SM BKN025 BKN060 M05/M12 A3009 RMK SC5SC2 SLP244

CYQF;2009-10-11 22:00;CYQF 112200Z 16007KT 15SM BKN030 OVC070 M05/M14 A3008 RMK SC6AC2 SLP241

CYQF;2009-10-11 23:00;CYQF 112300Z 19005KT 15SM BKN030 BKN070 M05/M13 A3006 RMK SC5AC2 SLP237

CYQF;2009-10-12 00:00;CYQF 120000Z 16007KT 15SM FEW010 BKN043 BKN070 M05/M13 A3005 RMK SC1SC5AC2 SLP234

CYQF;2009-10-12 01:00;CYQF 120100Z 15005KT 15SM BKN045 BKN070 M06/M11 A3005 RMK SC5AC2 SLP232

CYQF;2009-10-12 02:00;CYQF 120200Z 13006KT 15SM BKN050 M06/M11 A3005 RMK SC7 SLP232

CYQF;2009-10-12 03:00;CYQF 120300Z 13007KT 15SM BKN050 M06/M12 A3004 RMK SC7 SLP229

CYQF;2009-10-12 04:00;CYQF 120400Z 14006KT 15SM BKN050 M07/M11 A3003 RMK SC7 SLP226

CYQF;2009-10-12 05:00;CYQF 120500Z 15005KT 15SM BKN050 M08/M12 A3002 RMK SC6 SLP224

CYQF;2009-10-12 06:00;CYQF 120600Z 16003KT 15SM BKN050 M08/M12 A3002 RMK SC6 SLP221

CYQF;2009-10-12 07:00;CYQF 120700Z 14003KT 15SM OVC050 M09/M12 A3002 RMK SC8 SLP221

CYQF;2009-10-12 08:00;CYQF 120800Z 15003KT 15SM SCT050 M10/M13 A3001 RMK SC3 SLP219

CYQF;2009-10-12 09:00;CYQF 120900Z 16003KT 15SM SKC M11/M13 A3002 RMK SLP224

CYQF;2009-10-12 10:00;CYQF 121000Z 16004KT 15SM SKC M12/M14 A3001 RMK SLP223

CYQF;2009-10-12 11:00;CYQF 121100Z 18003KT 15SM SKC M14/M16 A3001 RMK SLP223

CYQF;2009-10-12 12:00;CYQF 121200Z 00000KT 15SM SKC M14/M16 A3002 RMK SLP228

CYQF;2009-10-12 13:00;CYQF 121300Z 16003KT 15SM FEW050 M14/M15 A3002 RMK SC1 SLP230

CYQF;2009-10-12 14:00;CYQF 121400Z 00000KT 15SM SCT040 M14/M15 A3003 RMK SC3 SLP232

CYQF;2009-10-12 15:00;CYQF 121500Z 00000KT 15SM BKN050 M12/M13 A3004 RMK SC6 SLP234

CYQF;2009-10-12 16:00;CYQF 121600Z 00000KT 15SM BKN060 M10/M12 A3005 RMK SC7 SLP236

CYQF;2009-10-12 17:00;CYQF 121700Z 00000KT 15SM BKN070 M08/M11 A3005 RMK AC7 SLP237

CYQF;2009-10-12 18:00;CYQF 121800Z 17005KT 15SM FEW015 BKN080 M06/M09 A3005 RMK CU2AC6 SLP234

CYQF;2009-10-12 19:00;CYQF 121900Z 15012KT 15SM BKN020 BKN080 M05/M11 A3005 RMK CU6AC2 SLP233

CYQF;2009-10-12 20:00;CYQF 122000Z 17011KT 15SM BKN025 BKN080 M05/M12 A3004 RMK CU6AC1 SLP229

CYQF;2009-10-12 21:00;CYQF 122100Z 13010KT 15SM BKN025 BKN080 M04/M11 A3003 RMK CU6AC2 VIS LWR S-SW SHS SLP228

CYQF;2009-10-12 21:41;CYQF 122141Z 15010KT 12SM -SHSN SCT020 BKN080 RMK CU4AC3 VIS LWR NW HVR SHS

CYQF;2009-10-12 22:00;CYQF 122200Z 14012KT 15SM SCT022 BKN060 M05/M12 A3003 RMK CU3SC4 SHS DIS NW SLP229

CYQF;2009-10-12 23:00;CYQF 122300Z 15011KT 15SM FEW022 BKN060 M05/M12 A3003 RMK CU2SC5 SHS DIS NW SLP229

CYQF;2009-10-13 00:00;CYQF 130000Z 15010KT 15SM FEW025 BKN050 M05/M13 A3004 RMK CU2SC6 SHS DIS NW SLP235

CYQF;2009-10-13 01:00;CYQF 130100Z 15007KT 15SM FEW025 BKN050 M05/M12 A3004 RMK CU2SC6 SHS DIS NW SLP235

CYQF;2009-10-13 02:00;CYQF 130200Z 14008KT 15SM OVC060 M05/M11 A3005 RMK SC8 SLP237

CYQF;2009-10-13 03:00;CYQF 130300Z 12008KT 15SM OVC060 M06/M11 A3005 RMK SC8 SLP237

CYQF;2009-10-13 04:00;CYQF 130400Z 11008KT 15SM OVC060 M06/M10 A3005 RMK SC8 SLP236

CYQF;2009-10-13 05:00;CYQF 130500Z 12008KT 15SM OVC060 M06/M10 A3005 RMK SC8 SLP236

CYQF;2009-10-13 06:00;CYQF 130600Z 12010KT 15SM OVC060 M06/M10 A3004 RMK SC8 SLP228

CYQF;2009-10-13 07:00;CYQF 130700Z 11012KT 15SM OVC060 M06/M11 A3004 RMK SC8 SLP228

CYQF;2009-10-13 08:00;CYQF 130800Z 12013KT 15SM OVC060 M06/M11 A3004 RMK SC8 SLP226

CYQF;2009-10-13 09:00;CYQF 130900Z 12012KT 15SM OVC060 M05/M11 A3003 RMK SC8 SLP222

CYQF;2009-10-13 10:00;CYQF 131000Z 11013KT 15SM OVC060 M05/M10 A3003 RMK SC8 SLP221

CYQF;2009-10-13 11:00;CYQF 131100Z 11013KT 15SM OVC056 M05/M10 A3003 RMK SC8 SLP221

CYQF;2009-10-13 12:00;CYQF 131200Z 12012KT 15SM OVC055 M06/M11 A3004 RMK SC8 SLP224

CYQF;2009-10-13 12:18;CYQF 131218Z 13010G16KT 10SM -SN OVC055 RMK SC8

CYQF;2009-10-13 13:00;CYQF 131300Z 11010G15KT 15SM -SN BKN055 OVC250 M06/M09 A3004 RMK SC6CI2 SLP224

CYQF;2009-10-13 14:00;CYQF 131400Z 13010G15KT 15SM OVC055 M06/M09 A3004 RMK SC6 SLP225

CYQF;2009-10-13 15:00;CYQF 131500Z 12010KT 10SM BKN070 M06/M09 A3005 RMK AC6 SLP228

CYQF;2009-10-13 15:13;CYQF 131513Z 12010G15KT 5SM -SN OVC070 RMK AC6

CYQF;2009-10-13 16:00;CYQF 131600Z 12010G15KT 5SM -SN OVC070 M05/M08 A3005 RMK AC6 SLP229

CYQF;2009-10-13 17:00;CYQF 131700Z 13012G17KT 15SM SCT020 OVC070 M04/M08 A3005 RMK CU4AC2 SLP228

CYQF;2009-10-13 17:32;CYQF 131732Z 12012G17KT 10SM -SN BKN020 OVC070 RMK CU5AC2

CYQF;2009-10-13 18:00;CYQF 131800Z 12013G20KT 3SM -SN BKN020 OVC070 M04/M07 A3004 RMK CU6AC2 SLP224

CYQF;2009-10-13 19:00;CYQF 131900Z 12010G15KT 3SM -SN BKN020 OVC070 M03/M06 A3004 RMK SC6AC2 SLP223

CYQF;2009-10-13 19:28;CYQF 131928Z 11010G15KT 2SM -SN BKN020 OVC070 RMK SC6AC2

CYQF;2009-10-13 20:00;CYQF 132000Z 12012G17KT 1SM -SN OVC020 M03/M05 A3003 RMK SN5SC3 SLP221

CYQF;2009-10-13 20:53;CYQF 132053Z 13012KT 12SM -SN OVC010 RMK SC8

CYQF;2009-10-13 21:00;CYQF 132100Z 13013KT 12SM -SN OVC010 M03/M06 A3002 RMK SC8 SLP215

CYQF;2009-10-13 22:00;CYQF 132200Z 12012G17KT 12SM -SN OVC017 M02/M06 A3002 RMK SC8 SLP214

CYQF;2009-10-13 23:00;CYQF 132300Z 12010KT 15SM -SN OVC021 M02/M06 A3002 RMK SC8 SLP214

CYQF;2009-10-14 00:00;CYQF 140000Z 12012KT 15SM -SN OVC020 M02/M06 A3001 RMK SC8 SLP213

CYQF;2009-10-14 01:00;CYQF 140100Z 11012KT 15SM -SN OVC020 M03/M06 A3000 RMK SC8 SLP210

CYQF;2009-10-14 02:00;CYQF 140200Z 11008KT 15SM -SN FEW013 OVC030 M03/M05 A3000 RMK SC2SC6 SLP208

CYQF;2009-10-14 02:52;CYQF 140252Z 13010KT 10SM -SN -FZDZ BKN010 OVC030 RMK SF5SC3

CYQF;2009-10-14 03:00;CYQF 140300Z 13011KT 10SM -SN -FZDZ OVC010 M03/M04 A2998 RMK SF8 CIG RAG SLP202

CYQF;2009-10-14 04:00;CYQF 140400Z 13010KT 10SM -SN OVC011 M03/M04 A2996 RMK SF8 CIG RAG REFZDZ SLP196

CYQF;2009-10-14 05:00;CYQF 140500Z 11010KT 10SM -SN FEW008 OVC015 M03/M05 A2994 RMK SF2SC6 SLP191

CYQF;2009-10-14 06:00;CYQF 140600Z 13008KT 5SM -SN OVC010 M03/M04 A2993 RMK SC8 CIG RAG SLP183

CYQF;2009-10-14 06:24;CYQF 140624Z 12010KT 2SM -SN OVC015 RMK SC8 CIG RAG

CYQF;2009-10-14 07:00;CYQF 140700Z 10008KT 5SM -SN OVC020 M03/M04 A2990 RMK SC8 CIG RAG SLP174

CYQF;2009-10-14 07:27;CYQF 140727Z 11008KT 2SM -SN OVC020 RMK SC8 CIG RAG

CYQF;2009-10-14 08:00;CYQF 140800Z 11008KT 2SM -SN OVC020 M03/M04 A2987 RMK SC8 CIG RAG SLP165

CYQF;2009-10-14 09:00;CYQF 140900Z 10006KT 1SM -SN OVC015 M03/M04 A2985 RMK SC8 CIG RAG SLP152

CYQF;2009-10-14 10:00;CYQF 141000Z 10008KT 1SM -SN OVC015 M03/M04 A2983 RMK SC8 CIG RAG /S01 SLP146

CYQF;2009-10-14 11:00;CYQF 141100Z 09010KT 1SM -SN OVC015 M03/M04 A2981 RMK SC8 CIG RAG SLP140

CYQF;2009-10-14 12:00;CYQF 141200Z CCA 09008KT 1SM -SN OVC015 M03/M04 A2980 RMK SC8 CIG RAG /S02 SLP135

CYQF;2009-10-14 13:00;CYQF 141300Z 09005KT 1SM -SN OVC015 M03/M04 A2979 RMK SC8 CIG RAG SLP132

CYQF;2009-10-14 13:25;CYQF 141325Z 07005KT 6SM -SN OVC015 RMK SC8

CYQF;2009-10-14 14:00;CYQF 141400Z 09010KT 1SM -SN OVC015 M03/M04 A2978 RMK SC8 SLP131

CYQF;2009-10-14 15:00;CYQF 141500Z 09005KT 4SM -SN OVC014 M03/M04 A2978 RMK SC8 SLP130

CYQF;2009-10-14 16:00;CYQF 141600Z 09007KT 4SM -SN OVC015 M02/M04 A2978 RMK SC8 SLP130

CYQF;2009-10-14 17:00;CYQF 141700Z 12010KT 5SM -SN BKN015 OVC090 M01/M03 A2978 RMK SC5AC2 /S01/ SLP129

CYQF;2009-10-14 18:00;CYQF 141800Z 12007KT 10SM -SN BKN015 OVC090 M00/M03 A2977 RMK SC6AC2 SLP125

CYQF;2009-10-14 19:00;CYQF 141900Z 14010KT 12SM -SN OVC012 M00/M02 A2978 RMK SC8 SLP127

CYQF;2009-10-14 20:00;CYQF 142000Z 14009KT 12SM -SN OVC012 00/M02 A2979 RMK SC8 SLP129

CYQF;2009-10-14 21:00;CYQF 142100Z 13008KT 10SM -SN OVC013 00/M02 A2979 RMK SC8 SLP131

CYQF;2009-10-14 22:00;CYQF 142200Z 13007KT 12SM -SN OVC015 01/M02 A2980 RMK SC8 SLP132

CYQF;2009-10-14 22:23;CYQF 142223Z 13008KT 12SM -SN OVC013 RMK SC8

CYQF;2009-10-14 23:00;CYQF 142300Z 14007KT 15SM -SN OVC011 01/M02 A2981 RMK SC8 CIG RAG SLP137

CYQF;2009-10-14 23:39;CYQF 142339Z 12008KT 15SM OVC012 RMK SC8

CYQF;2009-10-15 00:00;CYQF 150000Z 11009KT 15SM OVC012 01/M02 A2983 RMK SC8 SLP144

CYQF;2009-10-15 00:23;CYQF 150023Z 13007KT 15SM OVC016 RMK SC8

CYQF;2009-10-15 01:00;CYQF 150100Z 13006KT 15SM OVC015 00/M02 A2985 RMK SC8 SLP151

CYQF;2009-10-15 02:00;CYQF 150200Z 14004KT 15SM OVC015 M00/M02 A2987 RMK SC8 SLP155

CYQF;2009-10-15 03:00;CYQF 150300Z 14004KT 15SM OVC015 M00/M02 A2988 RMK SC8 SLP162

CYQF;2009-10-15 04:00;CYQF 150400Z 12005KT 15SM OVC016 M01/M02 A2989 RMK SC8 SLP165

CYQF;2009-10-15 05:00;CYQF 150500Z 14004KT 15SM OVC018 M01/M02 A2990 RMK SC8 SLP169

CYQF;2009-10-15 06:00;CYQF 150600Z 00000KT 15SM OVC011 M01/M02 A2991 RMK SC8 CIG RAG SLP170

CYQF;2009-10-15 07:00;CYQF 150700Z 13003KT 10SM FEW004 OVC010 M01/M01 A2992 RMK SF2SC6 CIG RAG SLP171

CYQF;2009-10-15 08:00;CYQF 150800Z 00000KT 15SM SCT004 OVC010 M01/M01 A2993 RMK SF4SC4 SLP176

CYQF;2009-10-15 09:00;CYQF 150900Z 13003KT 15SM SCT005 OVC014 M00/M02 A2994 RMK SF4SC4 SLP178

CYQF;2009-10-15 10:00;CYQF 151000Z 00000KT 15SM SCT006 OVC020 M00/M02 A2996 RMK SF4SC4 SLP185

CYQF;2009-10-15 11:00;CYQF 151100Z 00000KT 15SM SCT005 OVC020 M01/M02 A2997 RMK SF4SC4 SLP188

CYQF;2009-10-15 12:00;CYQF 151200Z 00000KT 15SM BKN006 OVC020 M01/M02 A3000 RMK SF6SC2 SLP201

CYQF;2009-10-15 13:00;CYQF 151300Z 00000KT 15SM BKN006 OVC020 M01/M02 A3002 RMK SF6SC2 SLP206

CYQF;2009-10-15 14:00;CYQF 151400Z 00000KT 3SM BR BKN008 OVC020 M01/M02 A3004 RMK SF6SC2 CIG RAG SLP211

CYQF;2009-10-15 15:00;CYQF 151500Z 00000KT 2SM BR BKN006 OVC012 M00/M01 A3005 RMK SF6SC2 CIG RAG SLP218

CYQF;2009-10-15 15:40;CYQF 151540Z 21002KT 2SM -SG BR OVC006 RMK SF8

CYQF;2009-10-15 16:00;CYQF 151600Z 21002KT 3SM -SG BR BKN006 OVC015 00/M01 A3007 RMK SF6SC2 CIG RAG SLP223

CYQF;2009-10-15 16:39;CYQF 151639Z 19004KT 3SM BR FEW006 SCT015 OVC025 RMK SF2SC2SC4

CYQF;2009-10-15 17:00;CYQF 151700Z 22004KT 6SM BR SCT015 OVC025 00/M02 A3007 RMK SC3SC5 SLP224

CYQF;2009-10-15 18:00;CYQF 151800Z 18002KT 6SM BR FEW015 OVC030 01/M02 A3008 RMK SC2SC6 SLP226

CYQF;2009-10-15 19:00;CYQF 151900Z 22002KT 8SM FEW015 BKN030 02/M01 A3008 RMK SC1SC6 BR SLP228

CYQF;2009-10-15 20:00;CYQF 152000Z 19003KT 8SM BKN040 BKN090 03/M01 A3009 RMK SC6AC0 BR SLP230

CYQF;2009-10-15 21:00;CYQF 152100Z 19002KT 8SM FEW040 BKN090 04/M01 A3010 RMK SC2AC3 BR SLP229

CYQF;2009-10-15 22:00;CYQF 152200Z 18002KT 10SM FEW040 BKN090 05/M01 A3011 RMK SC1AC6 SLP232

CYQF;2009-10-15 23:00;CYQF 152300Z 20004KT 10SM BKN090 04/M01 A3011 RMK AC6 SLP233

CYQF;2009-10-16 00:00;CYQF 160000Z CCA 18002KT 10SM BKN090 BKN120 04/M01 A3011 RMK AC5AC1 BR SLP234

CYQF;2009-10-16 01:00;CYQF 160100Z 20004KT 10SM BKN090 BKN120 02/M01 A3013 RMK AC5AC1 BR SLP241

CYQF;2009-10-16 02:00;CYQF 160200Z 19004KT 15SM FEW080 FEW120 01/M01 A3014 RMK AC2AC1 SLP242

CYQF;2009-10-16 03:00;CYQF 160300Z 20003KT 15SM FEW080 00/M01 A3014 RMK AC2 SLP249

CYQF;2009-10-16 04:00;CYQF 160400Z 21004KT 10SM FEW080 M01/M02 A3015 RMK AC2 BR SLP251

CYQF;2009-10-16 05:00;CYQF 160500Z 18002KT 10SM FEW080 M00/M01 A3015 RMK AC2 BR SLP253

CYQF;2009-10-16 06:00;CYQF 160600Z 00000KT 12SM FEW080 M01/M02 A3016 RMK AC2 BR SLP254

CYQF;2009-10-16 07:00;CYQF 160700Z 19004KT 15SM SKC M03/M04 A3016 RMK SLP255

CYQF;2009-10-16 08:00;CYQF 160800Z 21003KT 12SM SKC M03/M04 A3017 RMK BR SLP257

CYQF;2009-10-16 09:00;CYQF 160900Z CCA 00000KT 12SM SKC M03/M04 A3018 RMK BR SLP260

CYQF;2009-10-16 10:00;CYQF 161000Z 20003KT 12SM SKC M04/M05 A3018 RMK BR SLP262

CYQF;2009-10-16 11:00;CYQF 161100Z 00000KT 12SM SKC M04/M05 A3018 RMK BR SLP261

CYQF;2009-10-16 12:00;CYQF 161200Z 21004KT 12SM SKC M06/M07 A3017 RMK BR SLP262

CYQF;2009-10-16 13:00;CYQF 161300Z 17003KT 12SM FEW250 M05/M06 A3017 RMK CI1 BR SLP260

CYQF;2009-10-16 14:00;CYQF 161400Z 18004KT 12SM FEW120 BKN250 M05/M06 A3016 RMK AC2CI0 BR SLP257

CYQF;2009-10-16 15:00;CYQF 161500Z 20003KT 15SM FEW120 BKN250 M04/M05 A3015 RMK AC1CI2 FROIN SLP254

CYQF;2009-10-16 16:00;CYQF 161600Z 19005KT 15SM FEW030 FEW120 BKN250 M01/M03 A3014 RMK CU1AC1CI1 TR CU SLP251

CYQF;2009-10-16 17:00;CYQF 161700Z 18008KT 15SM FEW040 SCT120 BKN250 04/M02 A3010 RMK CU1AC2CI2 SLP240

CYQF;2009-10-16 18:00;CYQF 161800Z 17010KT 15SM FEW070 BKN150 BKN250 07/M01 A3007 RMK AC1AC5CI1 SLP219

CYQF;2009-10-16 19:00;CYQF 161900Z 16014G19KT 15SM FEW070 FEW150 BKN250 09/00 A3004 RMK AC1AC2CI2 SLP207

CYQF;2009-10-16 20:00;CYQF 162000Z 16015G20KT 15SM FEW070 FEW150 BKN250 11/M01 A3000 RMK AC1AC2CI2 SLP197

CYQF;2009-10-16 21:00;CYQF 162100Z 16015G22KT 15SM FEW070 BKN150 BKN250 10/M00 A2996 RMK AC1AC6CI2 SLP179

CYQF;2009-10-16 22:00;CYQF 162200Z 17014KT 15SM SCT070 BKN120 BKN250 10/M00 A2994 RMK AC3AC2CI1 SLP172

CYQF;2009-10-16 23:00;CYQF 162300Z 18010G18KT 15SM FEW040 BKN090 BKN250 10/01 A2991 RMK CU1AC5CI2 SLP163

CYQF;2009-10-17 00:00;CYQF 170000Z 19010KT 15SM FEW040 BKN090 BKN250 09/01 A2989 RMK CU1AC5CI1 SLP159

CYQF;2009-10-17 01:00;CYQF 170100Z 17010KT 15SM BKN090 BKN250 09/02 A2988 RMK AC6CI1 SLP154

CYQF;2009-10-17 02:00;CYQF 170200Z 19008KT 15SM BKN090 BKN250 10/03 A2985 RMK AC6CI2 SLP147

CYQF;2009-10-17 03:00;CYQF 170300Z 21010KT 15SM BKN080 BKN120 10/03 A2985 RMK AC6AC2 SLP142

CYQF;2009-10-17 04:00;CYQF 170400Z 21012KT 15SM SCT080 BKN120 09/03 A2986 RMK AC4AC2 SLP145

CYQF;2009-10-17 05:00;CYQF 170500Z 26012KT 15SM FEW080 BKN250 08/03 A2989 RMK AC2CI1 SLP153

CYQF;2009-10-17 06:00;CYQF 170600Z 23009KT 15SM FEW080 SCT250 07/02 A2989 RMK AC2CI1 SLP146

CYQF;2009-10-17 07:00;CYQF 170700Z 24010KT 15SM SCT080 BKN250 06/02 A2989 RMK AC4CI2 OBS TAKEN +06 SLP145

CYQF;2009-10-17 08:00;CYQF 170800Z 22008KT 15SM FEW080 OVC250 06/02 A2988 RMK AC2CI6 SLP144

CYQF;2009-10-17 09:00;CYQF 170900Z 22004KT 15SM FEW100 OVC250 07/02 A2990 RMK AC2CI6 OBS TAKEN +06 SLP145

CYQF;2009-10-17 10:00;CYQF 171000Z 00000KT 15SM FEW100 OVC250 06/02 A2989 RMK AC2CI6 SLP144

CYQF;2009-10-17 11:00;CYQF 171100Z 00000KT 15SM FEW100 OVC250 04/02 A2990 RMK AC2CI6 SLP146

CYQF;2009-10-17 12:00;CYQF 171200Z 00000KT 15SM FEW090 OVC250 04/02 A2988 RMK AC2CI6 SLP142

CYQF;2009-10-17 13:00;CYQF 171300Z 00000KT 15SM FEW090 OVC250 04/01 A2987 RMK AC2CI6 SLP140

CYQF;2009-10-17 14:00;CYQF 171400Z 36005KT 15SM BKN080 03/01 A2987 RMK AC7 SLP140

CYQF;2009-10-17 15:00;CYQF 171500Z 35007KT 15SM BKN070 05/02 A2986 RMK AC7 SLP134

CYQF;2009-10-17 16:00;CYQF 171600Z 02007KT 15SM BKN080 BKN250 07/03 A2986 RMK AC6CI1 SLP134

CYQF;2009-10-17 17:00;CYQF 171700Z 04006KT 15SM BKN080 OVC250 09/03 A2985 RMK AC6CI2 SLP130

CYQF;2009-10-17 17:22;CYQF 171722Z 06008KT 15SM -SHRA FEW040 OVC080 RMK SC2AC6

CYQF;2009-10-17 18:00;CYQF 171800Z 06008KT 15SM -SHRA FEW040 BKN080 09/04 A2984 RMK SC2AC5 SLP127

CYQF;2009-10-17 19:00;CYQF 171900Z 04010KT 15SM -SHRA FEW040 BKN080 10/04 A2982 RMK SC2AC6 SLP120

CYQF;2009-10-17 19:49;CYQF 171949Z 06010KT 15SM FEW040 BKN080 RMK SC2AC5

CYQF;2009-10-17 20:00;CYQF 172000Z 06010KT 15SM FEW040 BKN080 OVC250 11/03 A2980 RMK SC2AC4CI1 SLP114

CYQF;2009-10-17 21:00;CYQF 172100Z 06013KT 15SM FEW040 BKN080 OVC250 12/02 A2977 RMK SC2AC5CI1 SLP099

CYQF;2009-10-17 22:00;CYQF 172200Z 06010KT 15SM FEW040 BKN080 OVC250 11/01 A2976 RMK SC2AC5CI1 SLP094

CYQF;2009-10-17 23:00;CYQF 172300Z 07010KT 15SM SCT040 BKN080 OVC250 10/02 A2974 RMK SC3AC4CI1 SLP090

CYQF;2009-10-18 00:00;CYQF 180000Z 04010KT 15SM BKN040 OVC080 10/01 A2974 RMK SC5AC3 SLP092

CYQF;2009-10-18 01:00;CYQF 180100Z 04010KT 15SM BKN040 OVC080 09/02 A2973 RMK SC5AC3 SLP090

CYQF;2009-10-18 02:00;CYQF 180200Z 35007KT 15SM FEW040 SCT080 08/01 A2971 RMK SC2AC1 SLP085

CYQF;2009-10-18 03:00;CYQF 180300Z 03011KT 15SM FEW080 06/01 A2969 RMK AC2 SLP080

CYQF;2009-10-18 04:00;CYQF 180400Z 02008KT 15SM BKN050 05/02 A2971 RMK SC7 SLP085

CYQF;2009-10-18 05:00;CYQF 180500Z 32003KT 15SM OVC050 05/02 A2971 RMK SC8 SLP085

CYQF;2009-10-18 06:00;CYQF 180600Z 35003KT 15SM -SHRA OVC050 05/03 A2967 RMK SC8 SLP071

CYQF;2009-10-18 06:46;CYQF 180646Z 00000KT 15SM -SHRA BKN014 OVC050 RMK SC5SC3

CYQF;2009-10-18 07:00;CYQF 180700Z 11006KT 15SM -RA BKN014 OVC050 04/03 A2967 RMK SC5SC3 SLP072

CYQF;2009-10-18 07:52;CYQF 180752Z 34003KT 15SM BKN014 OVC050 RMK SC6SC2

CYQF;2009-10-18 08:00;CYQF 180800Z 35003KT 15SM BKN014 OVC050 05/04 A2965 RMK SC6SC2 SLP065

CYQF;2009-10-18 09:00;CYQF 180900Z 30007KT 15SM OVC012 05/04 A2968 RMK SC8 SLP072

CYQF;2009-10-18 09:35;CYQF 180935Z 32010KT 10SM -RA OVC012 RMK SC8 CIG RAG

CYQF;2009-10-18 10:00;CYQF 181000Z 35005KT 8SM -RA FEW006 OVC018 05/04 A2969 RMK SF2SC6 CIG RAG BR SLP075

CYQF;2009-10-18 11:00;CYQF 181100Z 36008KT 8SM -RA FEW008 OVC030 05/04 A2971 RMK SF2SC6 BR CIG RAG SLP080

CYQF;2009-10-18 12:00;CYQF 181200Z CCA 01011KT 8SM -RA FEW008 BKN012 OVC030 05/04 A2974 RMK SF2SC6SC1 BR CIG RAG SLP094

CYQF;2009-10-18 13:00;CYQF 181300Z 02012KT 8SM -RA FEW006 OVC011 04/03 A2977 RMK SF2SC6 BR CIG RAG SLP104

CYQF;2009-10-18 14:00;CYQF 181400Z 01005KT 8SM -RA FEW006 OVC012 04/03 A2980 RMK SF2SC6 CIG RAG SLP113

CYQF;2009-10-18 14:30;CYQF 181430Z 35003KT 8SM -RA SCT010 OVC019 RMK SC3SC5

CYQF;2009-10-18 15:00;CYQF 181500Z 31003KT 10SM -RA FEW010 OVC020 04/03 A2984 RMK SC2SC6 SLP133

CYQF;2009-10-18 16:00;CYQF 181600Z CCA 30006KT 10SM -RA OVC010 04/03 A2986 RMK SC8 CIG RAG SLP141

CYQF;2009-10-18 16:27;CYQF 181627Z 31006KT 10SM SCT008 OVC014 RMK SC4SC4 CIG RAG

CYQF;2009-10-18 17:00;CYQF 181700Z 28004KT 10SM FEW003 OVC009 04/04 A2989 RMK SF2SC6 CIG RAG SLP149

CYQF;2009-10-18 18:00;CYQF 181800Z 29005KT 10SM SCT005 OVC010 05/04 A2991 RMK SC3SC5 SLP158

CYQF;2009-10-18 19:00;CYQF 181900Z 27003KT 15SM FEW005 BKN012 BKN030 06/04 A2992 RMK SF1SC5SC2 SLP161

CYQF;2009-10-18 20:00;CYQF 182000Z 27002KT 15SM BKN014 BKN070 08/03 A2992 RMK SC5AC1 SLP160

CYQF;2009-10-18 21:00;CYQF 182100Z 00000KT 15SM SCT015 08/03 A2992 RMK SC4 SLP157

CYQF;2009-10-18 22:00;CYQF 182200Z 20004KT 15SM FEW015 SCT080 08/03 A2992 RMK SC2AC1 CU ASOCTD SLP156

CYQF;2009-10-18 23:00;CYQF 182300Z 26005KT 15SM SCT020 BKN100 07/03 A2992 RMK SC4AC2 CU ASOCTD VIRGA SW-W SLP158

CYQF;2009-10-19 00:00;CYQF 190000Z 24005KT 15SM FEW020 BKN080 BKN250 07/03 A2993 RMK CF2AC4CI1 SLP160

CYQF;2009-10-19 01:00;CYQF 190100Z 00000KT 15SM FEW020 BKN080 05/03 A2993 RMK SC1AC6 SLP160

CYQF;2009-10-19 02:00;CYQF 190200Z 00000KT 15SM BKN070 05/03 A2993 RMK AC6 SLP160

CYQF;2009-10-19 03:00;CYQF 190300Z 20004KT 15SM BKN070 03/01 A2993 RMK AC6 SLP167

CYQF;2009-10-19 04:00;CYQF 190400Z 00000KT 15SM BKN070 03/02 A2993 RMK AC6 SLP168

CYQF;2009-10-19 05:00;CYQF 190500Z 00000KT 15SM SCT070 02/02 A2994 RMK AC3 SLP170

CYQF;2009-10-19 06:00;CYQF 190600Z 00000KT 15SM FEW070 02/01 A2993 RMK AC2 SLP168

CYQF;2009-10-19 07:00;CYQF 190700Z 00000KT 10SM BKN050 01/M00 A2993 RMK SC6 SLP166

CYQF;2009-10-19 08:00;CYQF 190800Z 00000KT 6SM BR FEW050 M01/M01 A2993 RMK SC2 SLP168

CYQF;2009-10-19 08:39;CYQF 190839Z 00000KT 3/4SM BR SKC RMK FG5

CYQF;2009-10-19 09:00;CYQF 190900Z 00000KT 2SM BR OVC020 00/00 A2994 RMK FG2SC6 SLP168

CYQF;2009-10-19 09:41;CYQF 190941Z 00000KT 3SM BR OVC020 RMK FG2SC6

CYQF;2009-10-19 10:00;CYQF 191000Z 00000KT 3SM BR OVC020 01/00 A2995 RMK FG2SC6 SLP170

CYQF;2009-10-19 11:00;CYQF 191100Z 00000KT 4SM BR OVC025 01/01 A2995 RMK SC8 SLP170

CYQF;2009-10-19 12:00;CYQF 191200Z 00000KT 4SM BR OVC021 02/01 A2994 RMK SC8 SLP169

CYQF;2009-10-19 13:00;CYQF 191300Z 00000KT 4SM BR OVC021 01/01 A2994 RMK SC8 SLP168

CYQF;2009-10-19 14:00;CYQF 191400Z 00000KT 3SM BR OVC022 02/01 A2995 RMK SC8 SLP171

CYQF;2009-10-19 14:52;CYQF 191452Z 00000KT 2 1/2SM BR OVC020 RMK SC8

CYQF;2009-10-19 15:00;CYQF 191500Z 00000KT 2 1/2SM BR OVC020 02/01 A2996 RMK SC8 SLP179

CYQF;2009-10-19 15:18;CYQF 191518Z 00000KT 2SM -RA BR OVC020 RMK FG2SC6

CYQF;2009-10-19 16:00;CYQF 191600Z 00000KT 2SM -RA BR OVC021 02/02 A2996 RMK FG2SC6 SLP181

CYQF;2009-10-19 17:00;CYQF 191700Z 00000KT 2SM -RA BR OVC020 03/02 A2997 RMK FG1SC7 SLP182

CYQF;2009-10-19 18:00;CYQF 191800Z 04002KT 2SM -RA BR OVC016 04/03 A2997 RMK FG2SC6 CIG RAG RERA SLP183

CYQF;2009-10-19 19:00;CYQF 191900Z 03002KT 2SM -RA BR OVC016 04/04 A2997 RMK FG2SC6 SLP182

CYQF;2009-10-19 19:39;CYQF 191939Z 00000KT 2SM -RA BR BKN005 OVC016 RMK FG2SC3SC3

CYQF;2009-10-19 20:00;CYQF 192000Z 15003KT 2 1/2SM -RA BR FEW005 OVC016 05/04 A2996 RMK SC2SC6 VRY LGT RA SLP179

CYQF;2009-10-19 20:15;CYQF 192015Z 09002KT 5SM BR FEW005 BKN016 OVC050 RMK SC1SC5SC2

CYQF;2009-10-19 21:00;CYQF 192100Z 10005KT 6SM BR SCT005 BKN016 OVC050 05/04 A2996 RMK SC4SC3SC1 SLP178

CYQF;2009-10-19 22:00;CYQF 192200Z 12006KT 8SM BKN020 OVC050 06/04 A2996 RMK SC6SC2 SLP180

CYQF;2009-10-19 23:00;CYQF 192300Z 12005KT 6SM BR BKN020 OVC050 05/03 A2998 RMK SC6SC2 SLP184

CYQF;2009-10-19 23:06;CYQF 192306Z 13004KT 5SM -DZ BR BKN017 OVC050 RMK SC5SC3

CYQF;2009-10-20 00:00;CYQF 200000Z 10002KT 3SM -DZ BR OVC011 05/04 A2998 RMK SC8 VIS VRB 2-4 SLP187

CYQF;2009-10-20 00:17;CYQF 200017Z 11002KT 1SM -DZ BR OVC010 RMK FG2SC6

CYQF;2009-10-20 01:00;CYQF 200100Z 10002KT 1SM -DZ BR OVC010 04/04 A3000 RMK FG2SC6 SLP193

CYQF;2009-10-20 02:00;CYQF 200200Z 00000KT 1SM -DZ BR OVC007 04/04 A3001 RMK FG2SC6 SLP194

CYQF;2009-10-20 03:00;CYQF 200300Z 00000KT 2SM -DZ BR SCT007 OVC015 04/04 A3001 RMK SF3SC5 SLP197

CYQF;2009-10-20 04:00;CYQF 200400Z 00000KT 3SM -DZ BR OVC010 04/04 A3002 RMK SC8 CIG RAG SLP199

CYQF;2009-10-20 05:00;CYQF 200500Z 00000KT 3SM -DZ BR BKN007 OVC011 04/03 A3003 RMK SC6SC2 SLP201

CYQF;2009-10-20 06:00;CYQF 200600Z 00000KT 3SM -DZ BR BKN008 OVC012 04/03 A3003 RMK SC6SC2 SLP200

CYQF;2009-10-20 07:00;CYQF 200700Z 00000KT 2SM -DZ BR OVC006 04/04 A3003 RMK FG2ST6 SLP202

CYQF;2009-10-20 08:00;CYQF 200800Z 00000KT 2SM -DZ BR OVC006 04/04 A3005 RMK FG2ST6 SLP206

CYQF;2009-10-20 08:40;CYQF 200840Z 00000KT 1SM BR VV004 RMK FG8

CYQF;2009-10-20 09:00;CYQF 200900Z 00000KT 1SM BR VV004 04/04 A3005 RMK FG8 SLP206

CYQF;2009-10-20 10:00;CYQF 201000Z 34002KT 1 1/4SM BR VV004 04/04 A3005 RMK FG8 SLP207

CYQF;2009-10-20 11:00;CYQF 201100Z 02004KT 1 1/4SM BR VV005 04/04 A3005 RMK FG8 SLP207

CYQF;2009-10-20 12:00;CYQF 201200Z 36002KT 1 1/4SM BR VV005 04/04 A3006 RMK FG8 SLP212

CYQF;2009-10-20 12:15;CYQF 201215Z 00000KT 2 1/2SM BR BKN006 OVC010 RMK FG2ST5SC2

CYQF;2009-10-20 12:25;CYQF 201225Z 34003KT 5SM BR OVC006 RMK ST8

CYQF;2009-10-20 13:00;CYQF 201300Z 33005KT 2SM BR BKN003 OVC007 03/03 A3008 RMK FG5SC2SC2 SLP216

CYQF;2009-10-20 13:46;CYQF 201346Z 32004KT 3/4SM BR VV003 RMK FG8

CYQF;2009-10-20 14:00;CYQF 201400Z 33005KT 1/2SM FG VV003 02/02 A3010 RMK FG8 SLP222

CYQF;2009-10-20 14:35;CYQF 201435Z 34004KT 1/4SM FG VV002 RMK FG8

CYQF;2009-10-20 15:00;CYQF 201500Z 36003KT 1/8SM FG VV001 01/01 A3010 RMK FG8 SLP229

CYQF;2009-10-20 16:00;CYQF 201600Z 31002KT 1/4SM FG VV003 01/01 A3012 RMK FG8 SLP233

CYQF;2009-10-20 17:00;CYQF 201700Z 00000KT 1/2SM FG VV004 02/02 A3011 RMK FG8 SLP232

CYQF;2009-10-20 17:41;CYQF 201741Z 33002KT 1SM BR VV005 RMK FG8

CYQF;2009-10-20 18:00;CYQF 201800Z 34003KT 3SM BR OVC003 04/03 A3011 RMK SC7 SLP230

CYQF;2009-10-20 19:00;CYQF 201900Z 30002KT 6SM BR BKN005 05/03 A3012 RMK SC6 SLP231

CYQF;2009-10-20 19:18;CYQF 201918Z 31002KT 6SM BR SCT005 RMK SC4

CYQF;2009-10-20 20:00;CYQF 202000Z 00000KT 10SM SCT016 SCT250 07/03 A3012 RMK SC4CI1 SLP231

CYQF;2009-10-20 21:00;CYQF 202100Z 03006KT 10SM BKN025 08/02 A3011 RMK CU5 SLP223

CYQF;2009-10-20 22:00;CYQF 202200Z 00000KT 12SM SCT030 08/M01 A3011 RMK CU3 SLP223

CYQF;2009-10-20 23:00;CYQF 202300Z 00000KT 15SM SCT035 SCT090 07/M02 A3012 RMK CU3AC1 SLP227

CYQF;2009-10-21 00:00;CYQF 210000Z 08003KT 15SM FEW030 SCT090 06/M00 A3011 RMK CU1AC2 SLP226

CYQF;2009-10-21 01:00;CYQF 210100Z 00000KT 15SM BKN100 04/M01 A3012 RMK AC2 SLP229

CYQF;2009-10-21 02:00;CYQF 210200Z 18003KT 15SM BKN100 02/M01 A3013 RMK AC5 SLP232

CYQF;2009-10-21 03:00;CYQF 210300Z 00000KT 15SM BKN100 02/M01 A3013 RMK AC3 SLP241

CYQF;2009-10-21 04:00;CYQF 210400Z 00000KT 15SM FEW100 00/M02 A3013 RMK AC2 SLP242

CYQF;2009-10-21 05:00;CYQF 210500Z 00000KT 15SM FEW100 M01/M02 A3013 RMK AC1 SLP240

CYQF;2009-10-21 06:00;CYQF 210600Z 17004KT 15SM FEW100 M04/M05 A3012 RMK AC1 SLP241

CYQF;2009-10-21 07:00;CYQF 210700Z 00000KT 15SM SKC M02/M03 A3010 RMK SLP235

CYQF;2009-10-21 08:00;CYQF 210800Z 00000KT 8SM SKC M03/M04 A3009 RMK BCFG SLP233

CYQF;2009-10-21 09:00;CYQF 210900Z 15005KT 3SM BR SKC 00/M00 A3007 RMK FG1 SLP216

CYQF;2009-10-21 10:00;CYQF 211000Z 16004KT 2 1/2SM BR SKC M02/M04 A3007 RMK FG1 SLP214

CYQF;2009-10-21 11:00;CYQF 211100Z 15005KT 1 1/2SM BR SKC M01/M01 A3005 RMK FG2 SLP207

CYQF;2009-10-21 12:00;CYQF 211200Z 00000KT 2SM BR SKC M00/M01 A3003 RMK FG2 SLP202

CYQF;2009-10-21 12:23;CYQF 211223Z 17003KT 1SM BR VV004 RMK FG8

CYQF;2009-10-21 12:33;CYQF 211233Z 15004KT 1/4SM FZFG VV003 RMK FG8

CYQF;2009-10-21 13:00;CYQF 211300Z 16004KT 1/4SM FZFG VV003 M01/M01 A3002 RMK FG8 SLP200

CYQF;2009-10-21 14:00;CYQF 211400Z 15006KT 1/4SM FG VV002 00/M00 A3000 RMK FG8 SLP194

CYQF;2009-10-21 15:00;CYQF 211500Z 14006KT 1/2SM FG VV003 01/00 A2998 RMK FG8 SLP192

CYQF;2009-10-21 15:03;CYQF 211503Z 14007KT 1 1/2SM BR OVC002 RMK FG5ST3

CYQF;2009-10-21 16:00;CYQF 211600Z 17010G15KT 2SM BR OVC004 02/02 A2997 RMK FG4ST4 SLP189

CYQF;2009-10-21 16:49;CYQF 211649Z 15010G15KT 1 1/2SM BR OVC001 RMK FG6ST2

CYQF;2009-10-21 17:00;CYQF 211700Z 16010G15KT 1 1/2SM BR OVC001 02/01 A2996 RMK FG6ST2 SLP184

CYQF;2009-10-21 17:19;CYQF 211719Z 16010KT 2SM BR OVC002 RMK FG6ST2

CYQF;2009-10-21 17:23;CYQF 211723Z 16011KT 3SM BR OVC002 RMK FG4ST4

CYQF;2009-10-21 17:45;CYQF 211745Z 18010KT 1 1/2SM BR OVC002 RMK FG6ST2

CYQF;2009-10-21 18:00;CYQF 211800Z 16010G15KT 2SM BR OVC003 03/02 A2993 RMK FG4ST4 SLP177

CYQF;2009-10-21 19:00;CYQF 211900Z 16010KT 3SM BR OVC003 03/02 A2991 RMK ST8 SLP171

CYQF;2009-10-21 20:00;CYQF 212000Z 14011KT 5SM BR OVC003 04/03 A2988 RMK SC8 CIG RAG SLP161

CYQF;2009-10-21 21:00;CYQF 212100Z 16010G15KT 8SM OVC009 05/02 A2986 RMK SC8 CIG RAG SLP145

CYQF;2009-10-21 22:00;CYQF 212200Z 16012KT 12SM BKN009 OVC015 05/03 A2985 RMK SC7SC1 CIG RAG SLP142

CYQF;2009-10-21 23:00;CYQF 212300Z 16010KT 12SM BKN012 06/03 A2984 RMK SC7 CU EMBD SLP139

CYQF;2009-10-22 00:00;CYQF 220000Z 15010KT 15SM BKN011 BKN100 OVC250 06/03 A2983 RMK SC6AC1CI1 SLP133

CYQF;2009-10-22 01:00;CYQF 220100Z 00000KT 12SM SCT011 BKN100 OVC250 05/03 A2982 RMK SC4AC2CI1 SLP132

CYQF;2009-10-22 02:00;CYQF 220200Z 00000KT 15SM FEW015 BKN080 OVC250 05/04 A2982 RMK SC1AC6CI2 SLP131

CYQF;2009-10-22 03:00;CYQF 220300Z 13003KT 15SM FEW015 BKN090 BKN250 05/04 A2981 RMK SC1AC5CI1 TR SC SLP126

CYQF;2009-10-22 04:00;CYQF 220400Z 00000KT 15SM SCT090 BKN250 04/03 A2981 RMK AC3CI2 SLP126

CYQF;2009-10-22 05:00;CYQF 220500Z 34005KT 12SM SCT090 BKN250 00/M00 A2982 RMK AC4CI1 SLP131

CYQF;2009-10-22 06:00;CYQF 220600Z 01004KT 12SM BKN090 BKN250 03/03 A2983 RMK AC6CI2 BR SLP133

CYQF;2009-10-22 07:00;CYQF 220700Z 32004KT 10SM BKN090 BKN250 02/02 A2984 RMK AC5CI2 BR SLP137

CYQF;2009-10-22 08:00;CYQF 220800Z 30006KT 12SM BKN090 BKN250 03/02 A2986 RMK AC5CI2 BR SLP144

CYQF;2009-10-22 09:00;CYQF 220900Z 31006KT 12SM BKN090 BKN250 09/03 A2988 RMK AC5CI2 BR SLP143

CYQF;2009-10-22 10:00;CYQF 221000Z 30004KT 15SM BKN090 BKN250 04/03 A2991 RMK AC5CI2 SLP151

CYQF;2009-10-22 11:00;CYQF 221100Z 26005KT 15SM BKN090 BKN250 03/02 A2992 RMK AC5CI1 SLP154

CYQF;2009-10-22 11:39;CYQF 221139Z 25004KT 2SM BR BKN090 RMK FG3AC4

CYQF;2009-10-22 11:53;CYQF 221153Z 27004KT 1/2SM FG VV004 RMK FG8

CYQF;2009-10-22 12:00;CYQF 221200Z 27005KT 1/4SM FG VV004 03/03 A2993 RMK FG8 SLP165

CYQF;2009-10-22 12:33;CYQF 221233Z 30006KT 2SM BR BKN090 RMK FG3AC2

CYQF;2009-10-22 13:00;CYQF 221300Z 26003KT 3SM BR BKN100 02/02 A2995 RMK AC1 SLP170

CYQF;2009-10-22 14:00;CYQF 221400Z 25003KT 6SM BR FEW100 00/M00 A2996 RMK AC1 SLP174

CYQF;2009-10-22 15:00;CYQF 221500Z 26004KT 10SM SCT100 01/01 A2998 RMK AC3 SLP184

CYQF;2009-10-22 16:00;CYQF 221600Z 25003KT 15SM BKN100 04/02 A2999 RMK AC5 SHRA SW SLP188

CYQF;2009-10-22 17:00;CYQF 221700Z 28007KT 15SM FEW100 06/03 A3000 RMK AC2 SLP190

CYQF;2009-10-22 18:00;CYQF 221800Z 28007KT 15SM FEW100 08/04 A3000 RMK AC2 SLP186

CYQF;2009-10-22 19:00;CYQF 221900Z 25005KT 15SM FEW030 SCT100 10/03 A3000 RMK CU1AC2 SLP186

CYQF;2009-10-22 20:00;CYQF 222000Z 26008KT 15SM FEW030 FEW100 12/01 A2998 RMK CU1AC2 OBS TAKEN 08 SLP180

CYQF;2009-10-22 21:00;CYQF 222100Z 29005KT 15SM FEW050 12/M00 A2995 RMK CU2 SLP159

CYQF;2009-10-22 22:00;CYQF 222200Z 32007KT 15SM FEW050 12/M01 A2995 RMK CU2 SLP158

CYQF;2009-10-22 23:00;CYQF 222300Z 33004KT 15SM FEW050 12/M02 A2995 RMK SC1 SLP159

CYQF;2009-10-23 00:00;CYQF 230000Z 00000KT 15SM FEW050 11/M02 A2995 RMK SC1 SLP165

CYQF;2009-10-23 01:00;CYQF 230100Z 00000KT 15SM FEW040 05/M03 A2995 RMK SC2 SLP166

CYQF;2009-10-23 02:00;CYQF 230200Z 21005KT 15SM FEW040 BKN100 04/M02 A2995 RMK SC1AC4 SLP165

CYQF;2009-10-23 03:00;CYQF 230300Z 22005KT 15SM FEW100 02/M03 A2995 RMK AC1 SLP178

CYQF;2009-10-23 04:00;CYQF 230400Z 22005KT 15SM SKC 00/M04 A2994 RMK SLP176

CYQF;2009-10-23 05:00;CYQF 230500Z 00000KT 15SM SKC 01/M04 A2994 RMK SLP175

CYQF;2009-10-23 06:00;CYQF 230600Z 19004KT 15SM SKC 00/M04 A2992 RMK SLP162

CYQF;2009-10-23 07:00;CYQF 230700Z 20005KT 15SM FEW250 M03/M06 A2990 RMK CI1 SLP156

CYQF;2009-10-23 08:00;CYQF 230800Z 19004KT 15SM OVC250 M01/M05 A2990 RMK CI3 SLP155

CYQF;2009-10-23 09:00;CYQF 230900Z 20005KT 15SM FEW250 M02/M06 A2989 RMK CI0 SLP149

CYQF;2009-10-23 10:00;CYQF 231000Z 21004KT 15SM BKN250 M02/M05 A2986 RMK CI5 SLP141

CYQF;2009-10-23 11:00;CYQF 231100Z 21004KT 15SM BKN100 BKN250 M02/M04 A2983 RMK AC5CI2 SLP132

CYQF;2009-10-23 12:00;CYQF 231200Z 21002KT 15SM FEW250 M02/M05 A2981 RMK CI1 SLP124

CYQF;2009-10-23 13:00;CYQF 231300Z 20003KT 15SM FEW250 M03/M06 A2978 RMK CI0 SLP115

CYQF;2009-10-23 14:00;CYQF 231400Z 00000KT 15SM BKN250 M04/M06 A2975 RMK CI2 SLP103

CYQF;2009-10-23 15:00;CYQF 231500Z 22003KT 15SM BKN150 M02/M04 A2975 RMK AC6 SLP112

CYQF;2009-10-23 16:00;CYQF 231600Z 00000KT 15SM BKN150 00/M03 A2971 RMK AC6 SLP099

CYQF;2009-10-23 17:00;CYQF 231700Z 00000KT 15SM BKN120 BKN200 02/M02 A2968 RMK AC6CI1 SLP092

CYQF;2009-10-23 18:00;CYQF 231800Z 00000KT 15SM BKN120 BKN200 03/M01 A2966 RMK AC6CI1 SLP078

CYQF;2009-10-23 19:00;CYQF 231900Z 00000KT 15SM BKN120 BKN250 06/M09 A2964 RMK AC6CI2 SLP070

CYQF;2009-10-23 20:00;CYQF 232000Z 00000KT 15SM FEW040 BKN100 BKN250 07/00 A2961 RMK SC2AC4CI2 SLP063

CYQF;2009-10-23 21:00;CYQF 232100Z 00000KT 15SM FEW040 SCT100 BKN200 08/00 A2960 RMK SC1AC3CI3 SLP052

CYQF;2009-10-23 22:00;CYQF 232200Z 24003KT 15SM FEW040 BKN100 BKN250 09/01 A2959 RMK SC2AC2CI2 SLP049

CYQF;2009-10-23 23:00;CYQF 232300Z 30004KT 15SM FEW040 BKN100 BKN250 08/01 A2959 RMK SC1AC4CI1 SLP049

CYQF;2009-10-24 00:00;CYQF 240000Z 00000KT 15SM FEW040 BKN100 BKN250 08/01 A2959 RMK SC2AC4CI1 SLP050

CYQF;2009-10-24 01:00;CYQF 240100Z 01007KT 15SM BKN040 BKN100 BKN250 08/02 A2958 RMK SC5AC2CI1 SLP048

CYQF;2009-10-24 02:00;CYQF 240200Z 00000KT 15SM FEW040 BKN090 BKN250 06/02 A2959 RMK SC1AC4CI1 SLP051

CYQF;2009-10-24 03:00;CYQF 240300Z 24005KT 15SM BKN060 BKN100 05/02 A2958 RMK SC5AC2 SLP052

CYQF;2009-10-24 04:00;CYQF 240400Z 25004KT 15SM FEW060 01/M01 A2957 RMK SC2 SLP049

CYQF;2009-10-24 05:00;CYQF 240500Z 24004KT 15SM FEW050 SCT090 01/M01 A2958 RMK SC1AC2 SLP052

CYQF;2009-10-24 06:00;CYQF 240600Z 20003KT 15SM BKN075 02/M00 A2960 RMK AC5 SLP055

CYQF;2009-10-24 07:00;CYQF 240700Z 25006KT 15SM SCT075 02/00 A2959 RMK AC2 SLP053

CYQF;2009-10-24 08:00;CYQF 240800Z 00000KT 15SM BKN060 02/00 A2961 RMK SC6 SLP059

CYQF;2009-10-24 09:00;CYQF 240900Z 25005KT 15SM FEW060 M00/M01 A2962 RMK SC2 SLP060

CYQF;2009-10-24 10:00;CYQF 241000Z 18005KT 15SM BKN060 00/M01 A2964 RMK SC6 SLP066

CYQF;2009-10-24 11:00;CYQF 241100Z 19004KT 15SM BKN060 00/M01 A2966 RMK SC5 SLP070

CYQF;2009-10-24 12:00;CYQF 241200Z 25004KT 15SM OVC060 01/M00 A2968 RMK SC8 SLP078

CYQF;2009-10-24 13:00;CYQF 241300Z 30010KT 15SM BKN060 03/M01 A2970 RMK SC6 SLP085

CYQF;2009-10-24 14:00;CYQF 241400Z 27007KT 15SM SCT060 BKN150 03/M00 A2972 RMK SC3AC2 SLP090

CYQF;2009-10-24 15:00;CYQF 241500Z 27010KT 15SM SCT060 BKN150 03/01 A2975 RMK SC3AC2 SLP102

CYQF;2009-10-24 16:00;CYQF 241600Z 29007KT 15SM FEW070 SCT100 BKN250 04/01 A2976 RMK AC1AC3CI1 SLP108

CYQF;2009-10-24 17:00;CYQF 241700Z 31010G17KT 15SM FEW050 SCT100 BKN250 06/M02 A2978 RMK SC2AC1CI1 FEW CU SW VIRGA DIS SE SLP113

CYQF;2009-10-24 18:00;CYQF 241800Z 32020G30KT 15SM SCT030 BKN100 07/M04 A2980 RMK SC4AC1 FEW CU SH DIS W+N SLP120

CYQF;2009-10-24 19:00;CYQF 241900Z 34022G32KT 15SM SCT030 BKN080 06/M03 A2984 RMK SC4AC3 SLP132

CYQF;2009-10-24 20:00;CYQF 242000Z 31020G30KT 15SM SCT025 BKN040 BKN080 06/M03 A2985 RMK SC4SC2AC1 SH DIS S SLP136

CYQF;2009-10-24 21:00;CYQF 242100Z 32017G27KT 15SM FEW025 BKN040 BKN080 07/M04 A2986 RMK SC2SC3AC1 SLP143

CYQF;2009-10-24 22:00;CYQF 242200Z 31012G18KT 15SM FEW025 SCT040 BKN080 08/M05 A2987 RMK SC2SC2AC2 SLP147

CYQF;2009-10-24 23:00;CYQF 242300Z 32012KT 15SM FEW025 FEW040 BKN080 07/M05 A2989 RMK SC1SC2AC4 SLP152

CYQF;2009-10-25 00:00;CYQF 250000Z 32008KT 15SM BKN100 BKN250 07/M05 A2990 RMK AC5CI1 SLP157

CYQF;2009-10-25 01:00;CYQF 250100Z 32010KT 15SM SCT100 BKN250 06/M05 A2993 RMK AC3CI1 SLP166

CYQF;2009-10-25 02:00;CYQF 250200Z 29005KT 15SM FEW100 BKN250 02/M05 A2995 RMK AC2CI1 SLP173

CYQF;2009-10-25 03:00;CYQF 250300Z 27005KT 15SM SCT250 00/M06 A2997 RMK CI2 SLP186

CYQF;2009-10-25 04:00;CYQF 250400Z 29010KT 15SM SKC 01/M06 A3000 RMK SLP194

CYQF;2009-10-25 05:00;CYQF 250500Z 29007KT 15SM SKC 01/M07 A3002 RMK SLP201

CYQF;2009-10-25 06:00;CYQF 250600Z 30006KT 15SM SKC 00/M07 A3004 RMK SLP206

CYQF;2009-10-25 07:00;CYQF 250700Z 29006KT 15SM SKC M02/M08 A3006 RMK SLP212

CYQF;2009-10-25 08:00;CYQF 250800Z 24005KT 15SM SKC M04/M08 A3008 RMK SLP218

CYQF;2009-10-25 09:00;CYQF 250900Z 24008KT 15SM SKC M04/M09 A3009 RMK SLP228

CYQF;2009-10-25 10:00;CYQF 251000Z 24008KT 15SM SKC M03/M08 A3009 RMK SLP228

CYQF;2009-10-25 11:00;CYQF 251100Z 25010KT 15SM SKC M05/M09 A3009 RMK SLP228

CYQF;2009-10-25 12:00;CYQF 251200Z 22006KT 15SM SKC M06/M09 A3011 RMK SLP235

CYQF;2009-10-25 13:00;CYQF 251300Z 22005KT 15SM SKC M06/M10 A3010 RMK SLP233

CYQF;2009-10-25 14:00;CYQF 251400Z 21006KT 15SM SKC M06/M10 A3010 RMK SLP232

CYQF;2009-10-25 15:00;CYQF 251500Z 21007KT 15SM SKC M05/M09 A3010 RMK SLP241

CYQF;2009-10-25 16:00;CYQF 251600Z 20005KT 15SM SKC M02/M07 A3009 RMK SLP238

CYQF;2009-10-25 17:00;CYQF 251700Z 22008KT 15SM SKC 03/M07 A3007 RMK SLP232

CYQF;2009-10-25 18:00;CYQF 251800Z 20007KT 15SM FEW250 06/M06 A3006 RMK CI1 SLP214

CYQF;2009-10-25 19:00;CYQF 251900Z 17010KT 15SM FEW250 08/M06 A3004 RMK CI2 SLP208

CYQF;2009-10-25 20:00;CYQF 252000Z 18009KT 15SM BKN250 09/M09 A2999 RMK CI4 SLP191

CYQF;2009-10-25 21:00;CYQF 252100Z 19012KT 15SM FEW120 BKN250 09/M08 A2997 RMK AC1CI4 SLP184

CYQF;2009-10-25 22:00;CYQF 252200Z 18008KT 15SM FEW120 BKN250 09/M09 A2993 RMK AC2CI4 SLP172

CYQF;2009-10-25 23:00;CYQF 252300Z 17011KT 15SM FEW120 OVC250 08/M07 A2989 RMK AC2CI3 SLP159

CYQF;2009-10-26 00:00;CYQF 260000Z 17008KT 15SM FEW120 OVC250 06/M07 A2986 RMK AC2CI4 SLP153

CYQF;2009-10-26 01:00;CYQF 260100Z 17012KT 15SM FEW120 OVC250 04/M06 A2981 RMK AC2CI3 SLP135

CYQF;2009-10-26 02:00;CYQF 260200Z 18010KT 15SM FEW120 OVC250 04/M06 A2978 RMK AC2CI4 SLP127

CYQF;2009-10-26 03:00;CYQF 260300Z 18007KT 15SM FEW120 OVC250 04/M06 A2976 RMK AC1CI7 SLP116

CYQF;2009-10-26 04:00;CYQF 260400Z 18005KT 15SM SCT080 OVC250 04/M06 A2970 RMK AC3CI5 SLP100

CYQF;2009-10-26 05:00;CYQF 260500Z 00000KT 15SM SCT080 OVC250 03/M05 A2968 RMK AC3CI5 SLP092

CYQF;2009-10-26 06:00;CYQF 260600Z 24006KT 15SM BKN080 OVC250 05/M06 A2966 RMK AC6CI2 SLP070

CYQF;2009-10-26 07:00;CYQF 260700Z 24006KT 15SM BKN080 OVC250 04/M06 A2962 RMK AC5CI3 SLP058

CYQF;2009-10-26 08:00;CYQF 260800Z 23005KT 15SM FEW080 OVC250 02/M06 A2959 RMK AC2CI3 SLP049

CYQF;2009-10-26 09:00;CYQF 260900Z 24005KT 15SM FEW080 SCT250 01/M06 A2958 RMK AC1CI1 SLP043

CYQF;2009-10-26 10:00;CYQF 261000Z 00000KT 15SM FEW080 BKN250 00/M06 A2958 RMK AC1CI2 SLP042

CYQF;2009-10-26 11:00;CYQF 261100Z 00000KT 15SM BKN150 OVC250 M01/M05 A2958 RMK AC6CI2 SLP042

CYQF;2009-10-26 12:00;CYQF 261200Z 19004KT 15SM OVC150 M01/M05 A2956 RMK AC8 SLP043

CYQF;2009-10-26 13:00;CYQF 261300Z 23006KT 15SM OVC120 M00/M04 A2957 RMK AC8 SLP044

CYQF;2009-10-26 14:00;CYQF 261400Z 00000KT 15SM FEW040 OVC100 02/M04 A2954 RMK SC2AC5 SLP035

CYQF;2009-10-26 15:00;CYQF 261500Z 17005KT 15SM SCT050 BKN100 BKN250 01/M04 A2954 RMK SC3AC2CI1 SLP033

CYQF;2009-10-26 16:00;CYQF 261600Z 19005KT 15SM FEW050 SCT100 BKN250 02/M03 A2953 RMK SC2AC2CI1 SLP030

CYQF;2009-10-26 17:00;CYQF 261700Z 18005KT 15SM FEW040 FEW100 BKN250 07/M03 A2950 RMK SC1AC1CI2 SLP021

CYQF;2009-10-26 18:00;CYQF 261800Z 21007KT 15SM FEW040 FEW100 BKN250 10/M02 A2946 RMK SC1AC1CI2 SLP994

CYQF;2009-10-26 19:00;CYQF 261900Z 17007KT 15SM FEW100 BKN250 11/M01 A2943 RMK AC2CI3 SLP987

CYQF;2009-10-26 20:00;CYQF 262000Z 00000KT 15SM SCT100 BKN250 11/M03 A2939 RMK AC3CI4 SLP974

CYQF;2009-10-26 21:00;CYQF 262100Z 00000KT 15SM FEW030 BKN100 BKN250 11/M04 A2937 RMK CU1AS5CI2 SLP968

CYQF;2009-10-26 22:00;CYQF 262200Z 00000KT 15SM FEW030 BKN100 OVC250 11/M04 A2935 RMK CU1AS6CI2 SLP961

CYQF;2009-10-26 23:00;CYQF 262300Z 00000KT 15SM FEW040 SCT100 OVC250 10/M03 A2934 RMK CU1AS3CI2 SLP958

CYQF;2009-10-27 00:00;CYQF 270000Z 04003KT 15SM FEW040 SCT100 OVC250 08/M03 A2932 RMK CU1AS2CI2 SLP957

CYQF;2009-10-27 01:00;CYQF 270100Z 02002KT 15SM FEW040 SCT100 OVC250 06/M03 A2934 RMK SC1AS3CI2 SLP961

CYQF;2009-10-27 02:00;CYQF 270200Z 33004KT 15SM BKN100 OVC250 05/M01 A2934 RMK AC5CI2 SLP963

CYQF;2009-10-27 03:00;CYQF 270300Z 24012G18KT 15SM BKN090 OVC250 06/01 A2937 RMK AC6CI2 SLP974

CYQF;2009-10-27 03:22;CYQF 270322Z 36012KT 15SM -RA BKN090 OVC250 RMK AC6CI2

CYQF;2009-10-27 04:00;CYQF 270400Z 33006KT 15SM -RA SCT050 OVC090 04/02 A2940 RMK SC4AC4 SLP982

CYQF;2009-10-27 04:45;CYQF 270445Z 33008KT 15SM BKN060 OVC090 RMK SC5AC3

CYQF;2009-10-27 05:00;CYQF 270500Z 32010KT 15SM BKN065 OVC090 04/02 A2941 RMK SC6AC2 SLP986

CYQF;2009-10-27 06:00;CYQF 270600Z 33012G18KT 15SM BKN060 OVC090 04/02 A2943 RMK SC6AC2 SLP985

CYQF;2009-10-27 07:00;CYQF 270700Z 33010G18KT 12SM -RA FEW015 OVC040 03/01 A2946 RMK SC2SC6 SLP994

CYQF;2009-10-27 08:00;CYQF 270800Z 31008KT 15SM -RA FEW015 OVC040 02/01 A2948 RMK SC2SC6 SLP002

CYQF;2009-10-27 09:00;CYQF 270900Z 32012KT 12SM -RASN FEW012 OVC040 03/01 A2951 RMK SC2SC6 CIG RAG SLP013

CYQF;2009-10-27 09:37;CYQF 270937Z 33012KT 15SM FEW012 OVC040 RMK SC2SC6

CYQF;2009-10-27 10:00;CYQF 271000Z 33010KT 15SM SCT040 OVC075 03/01 A2952 RMK SC3AC5 SLP016

CYQF;2009-10-27 11:00;CYQF 271100Z 32010KT 15SM FEW040 SCT075 02/M01 A2954 RMK SC1AC3 SLP024

CYQF;2009-10-27 12:00;CYQF 271200Z 33010KT 15SM FEW075 BKN250 02/M02 A2957 RMK AC2CI2 SLP039

CYQF;2009-10-27 13:00;CYQF 271300Z 33010KT 15SM FEW070 BKN250 01/M02 A2959 RMK AC2CI4 SLP047

CYQF;2009-10-27 14:00;CYQF 271400Z 32013KT 15SM BKN070 BKN250 02/M02 A2961 RMK AC6CI2 SLP052

CYQF;2009-10-27 15:00;CYQF 271500Z 32012KT 15SM FEW020 BKN040 02/M02 A2964 RMK SC2SC5 SLP066

CYQF;2009-10-27 16:00;CYQF 271600Z 31012G18KT 15SM FEW025 BKN040 03/M02 A2967 RMK SC1SC6 SLP076

CYQF;2009-10-27 17:00;CYQF 271700Z 31015G21KT 15SM BKN012 OVC040 03/M01 A2970 RMK SC6SC1 CIG RAG SLP086

CYQF;2009-10-27 17:37;CYQF 271737Z 30015G20KT 5SM -DZSN OVC007 RMK SC8

CYQF;2009-10-27 18:00;CYQF 271800Z 31012G18KT 1 1/2SM -DZSN OVC005 02/00 A2973 RMK SN2SC6 SLP098

CYQF;2009-10-27 18:29;CYQF 271829Z 33012G18KT 10SM -DZ OVC011 RMK SC8

CYQF;2009-10-27 19:00;CYQF 271900Z 32012KT 10SM -DZ BKN014 OVC040 02/00 A2975 RMK SC7SC1 SLP105

CYQF;2009-10-27 19:34;CYQF 271934Z 32008KT 15SM BKN016 OVC040 RMK SC7SC1

CYQF;2009-10-27 20:00;CYQF 272000Z 33015G22KT 15SM BKN020 OVC040 03/M00 A2976 RMK SC7SC1 SLP109

CYQF;2009-10-27 21:00;CYQF 272100Z 33015G20KT 15SM BKN012 OVC040 03/00 A2977 RMK SC7SC1 CIG RAG SLP115

CYQF;2009-10-27 22:00;CYQF 272200Z 33012G18KT 15SM BKN015 BKN040 04/M00 A2980 RMK SC6SC2 CIG RAG SLP123

CYQF;2009-10-27 23:00;CYQF 272300Z 33010G18KT 15SM BKN015 BKN040 03/M01 A2983 RMK SC6SC2 SLP132

CYQF;2009-10-28 00:00;CYQF 280000Z 33010KT 15SM FEW015 BKN030 03/M02 A2985 RMK SC2SC5 SLP142

CYQF;2009-10-28 01:00;CYQF 280100Z 31007KT 15SM FEW030 01/M02 A2987 RMK SC2 SLP149

CYQF;2009-10-28 02:00;CYQF 280200Z 31006KT 15SM FEW030 M00/M03 A2990 RMK SC2 SLP157

CYQF;2009-10-28 03:00;CYQF 280300Z 32008KT 15SM FEW040 M00/M04 A2991 RMK SC2 SLP167

CYQF;2009-10-28 04:00;CYQF 280400Z 31008KT 15SM BKN090 00/M04 A2992 RMK AC5 SLP168

CYQF;2009-10-28 05:00;CYQF 280500Z 30008KT 15SM BKN090 M00/M04 A2993 RMK AC6 SLP171

CYQF;2009-10-28 06:00;CYQF 280600Z 31010KT 15SM BKN090 00/M04 A2993 RMK AC6 SLP173

CYQF;2009-10-28 07:00;CYQF 280700Z 31006KT 15SM BKN090 M00/M04 A2993 RMK AC6 SLP174

CYQF;2009-10-28 08:00;CYQF 280800Z 31013KT 15SM FEW030 BKN090 01/M04 A2994 RMK SC2AC3 SLP176

CYQF;2009-10-28 09:00;CYQF 280900Z 30010KT 15SM FEW030 BKN090 01/M04 A2995 RMK SC2AC3 SLP178

CYQF;2009-10-28 10:00;CYQF 281000Z 30008KT 15SM FEW030 BKN080 00/M05 A2995 RMK SC2AC4 SLP179

CYQF;2009-10-28 11:00;CYQF 281100Z 30008KT 15SM FEW030 BKN080 M00/M05 A2997 RMK SC2AC4 SLP183

CYQF;2009-10-28 12:00;CYQF 281200Z 31010KT 15SM FEW030 BKN080 01/M05 A2998 RMK SC2AC4 SLP189

CYQF;2009-10-28 13:00;CYQF 281300Z 31012KT 15SM FEW030 BKN080 00/M05 A2999 RMK SC2AC4 SLP191

CYQF;2009-10-28 14:00;CYQF 281400Z 30006KT 15SM FEW030 BKN080 M01/M05 A2999 RMK SC2AC3 SLP192

CYQF;2009-10-28 15:00;CYQF 281500Z 29006KT 15SM FEW030 BKN080 M00/M04 A3000 RMK SC2AC4 SLP200

CYQF;2009-10-28 16:00;CYQF 281600Z 32010G15KT 15SM FEW020 BKN090 00/M04 A3000 RMK SC2AC3 SLP201

CYQF;2009-10-28 17:00;CYQF 281700Z 32010G15KT 15SM FEW012 SCT030 BKN090 01/M03 A3000 RMK SF2SC2AC2 SLP200

CYQF;2009-10-28 18:00;CYQF 281800Z 32010G15KT 15SM BKN015 BKN030 BKN090 02/M03 A3000 RMK SC6SC1AC1 SLP199

CYQF;2009-10-28 19:00;CYQF 281900Z 34010KT 15SM BKN020 02/M03 A2999 RMK SC7 SLP195

CYQF;2009-10-28 20:00;CYQF 282000Z 34010G15KT 15SM FEW015 BKN025 03/M03 A2998 RMK SF2SC5 SLP193

CYQF;2009-10-28 21:00;CYQF 282100Z 34008KT 15SM FEW015 BKN025 03/M03 A2998 RMK SF2SC5 SLP190

CYQF;2009-10-28 22:00;CYQF 282200Z 35012KT 15SM SCT024 BKN080 03/M03 A2999 RMK SC3AC3 TCU ASOCTD SLP193

CYQF;2009-10-28 23:00;CYQF 282300Z 36008KT 15SM FEW020 BKN080 02/M03 A3000 RMK SC2AC3 SLP194

CYQF;2009-10-29 00:00;CYQF 290000Z 35006KT 15SM FEW020 BKN080 01/M04 A3000 RMK SC2AC5 OBS TAKEN +20 SLP199

CYQF;2009-10-29 01:00;CYQF 290100Z 01005KT 15SM FEW040 BKN080 BKN250 01/M04 A3002 RMK SC2AC4CI1 SLP203

CYQF;2009-10-29 02:00;CYQF 290200Z 00000KT 15SM FEW040 OVC100 M00/M04 A3002 RMK SC2AC6 SLP204

CYQF;2009-10-29 03:00;CYQF 290300Z 00000KT 15SM BKN100 OVC250 M01/M04 A3002 RMK AC6CI2 SLP208

CYQF;2009-10-29 04:00;CYQF 290400Z 00000KT 15SM BKN100 OVC250 M01/M04 A3003 RMK AC6CI2 SLP210

CYQF;2009-10-29 05:00;CYQF 290500Z 26005KT 15SM BKN100 OVC250 M02/M04 A3003 RMK AC6CI2 SLP211

CYQF;2009-10-29 06:00;CYQF 290600Z 25005KT 15SM BKN100 OVC250 M02/M04 A3003 RMK AC5CI2 SLP209

CYQF;2009-10-29 07:00;CYQF 290700Z 27006KT 15SM SCT100 BKN250 M03/M05 A3002 RMK AC3CI1 SLP208

CYQF;2009-10-29 08:00;CYQF 290800Z 27004KT 15SM SCT100 M03/M05 A3003 RMK AC2 SLP210

CYQF;2009-10-29 09:00;CYQF 290900Z 17002KT 15SM BKN100 M04/M06 A3001 RMK AC3 SLP205

CYQF;2009-10-29 10:00;CYQF 291000Z 21003KT 15SM FEW100 M06/M08 A3000 RMK AC1 SLP203

CYQF;2009-10-29 11:00;CYQF 291100Z 18003KT 15SM SKC M07/M09 A2998 RMK SLP196

CYQF;2009-10-29 12:00;CYQF 291200Z 00000KT 15SM SKC M07/M08 A2997 RMK SLP197

CYQF;2009-10-29 13:00;CYQF 291300Z 00000KT 15SM SKC M07/M08 A2995 RMK SLP191

CYQF;2009-10-29 14:00;CYQF 291400Z 17003KT 15SM FEW080 FEW250 M08/M09 A2993 RMK AC1CI1 MIFG SLP184

CYQF;2009-10-29 15:00;CYQF 291500Z 16005KT 10SM FEW080 SCT250 M05/M06 A2990 RMK AC1CI1 SLP173

CYQF;2009-10-29 15:08;CYQF 291508Z 15005KT 1 1/2SM BR BKN250 RMK FG4CI1

CYQF;2009-10-29 15:37;CYQF 291537Z 17005KT 6SM BR FEW030 SCT100 BKN250 RMK SC1AC2CI2 VIS LWR E-NE

CYQF;2009-10-29 16:00;CYQF 291600Z 18004KT 4SM BR FEW012 SCT100 OVC250 M04/M05 A2988 RMK SF1AC3CI2 SLP167

CYQF;2009-10-29 17:00;CYQF 291700Z 14010KT 3SM BR FEW015 BKN100 OVC250 M03/M04 A2985 RMK SC2AC5CI1 SLP157

CYQF;2009-10-29 18:00;CYQF 291800Z 17010KT 10SM FEW008 FEW015 BKN080 OVC250 M01/M02 A2981 RMK SF1SC2AC4CI1 BR SLP136

CYQF;2009-10-29 19:00;CYQF 291900Z 17018KT 10SM SCT010 OVC080 M00/M02 A2975 RMK SC3AC5 SLP117

CYQF;2009-10-29 20:00;CYQF 292000Z 17019G27KT 15SM SCT010 BKN080 OVC250 01/M02 A2966 RMK SC3AC3CI2 PRESFR SLP091

CYQF;2009-10-29 21:00;CYQF 292100Z 18014G23KT 15SM FEW010 BKN100 OVC250 02/M03 A2966 RMK SC2AC3CI2 SLP083

CYQF;2009-10-29 22:00;CYQF 292200Z 17013G20KT 15SM BKN090 OVC250 02/M04 A2958 RMK AC6CI2 PRESFR SLP060

CYQF;2009-10-29 23:00;CYQF 292300Z 17012G17KT 15SM OVC090 02/M05 A2953 RMK AC8 SLP044

CYQF;2009-10-30 00:00;CYQF 300000Z 17010G15KT 15SM OVC090 02/M05 A2951 RMK AC8 SLP037

CYQF;2009-10-30 01:00;CYQF 300100Z 18010KT 15SM OVC100 01/M05 A2948 RMK AC8 SLP026

CYQF;2009-10-30 01:21;CYQF 300121Z 19011KT 10SM -SHSN SCT040 OVC100 RMK SC4AC4

CYQF;2009-10-30 01:46;CYQF 300146Z 20008KT 1 1/2SM -SN VV015 RMK SN8

CYQF;2009-10-30 02:00;CYQF 300200Z 19006KT 1SM -SN VV013 M00/M01 A2947 RMK SN8 SLP024

CYQF;2009-10-30 02:39;CYQF 300239Z 18007KT 5SM -RASN OVC100 RMK SN3AC5

CYQF;2009-10-30 03:00;CYQF 300300Z 20005KT 12SM -RASN OVC100 00/M00 A2944 RMK AC8 SLP011

CYQF;2009-10-30 04:00;CYQF 300400Z 22005KT 15SM OVC100 00/M00 A2943 RMK AC7 SLP009

CYQF;2009-10-30 05:00;CYQF 300500Z 21005KT 15SM OVC100 00/M01 A2943 RMK AC6 SLP008

CYQF;2009-10-30 06:00;CYQF 300600Z 21006KT 15SM OVC100 00/M01 A2943 RMK AC5 /S01/ SLP004

CYQF;2009-10-30 07:00;CYQF 300700Z 28003KT 15SM FEW030 OVC100 01/M01 A2943 RMK SC2AC4 SLP003

CYQF;2009-10-30 08:00;CYQF 300800Z 03005KT 15SM FEW030 OVC100 00/M01 A2948 RMK SC2AC4 SLP019

CYQF;2009-10-30 09:00;CYQF 300900Z 33008KT 15SM FEW030 FEW100 BKN250 02/M01 A2951 RMK SC1AC1CI1 SLP026

CYQF;2009-10-30 10:00;CYQF 301000Z 34010KT 15SM FEW030 BKN100 BKN250 02/M01 A2955 RMK SC1AC4CI1 SLP038

CYQF;2009-10-30 10:50;CYQF 301050Z 34011KT 15SM -RA SCT020 OVC100 RMK SC3AC5

CYQF;2009-10-30 11:00;CYQF 301100Z 34011KT 15SM -RA SCT020 OVC100 02/00 A2959 RMK SC3AC5 SLP050

CYQF;2009-10-30 12:00;CYQF 301200Z 33008KT 15SM -RA FEW020 BKN100 02/01 A2960 RMK SC2AC3 SLP056

CYQF;2009-10-30 12:14;CYQF 301214Z 33007KT 15SM FEW020 BKN100 RMK SC1AC2

CYQF;2009-10-30 13:00;CYQF 301300Z 34007KT 15SM FEW020 BKN100 02/00 A2962 RMK SC2AC3 SLP063

CYQF;2009-10-30 14:00;CYQF 301400Z 01002KT 15SM FEW020 SCT100 BKN250 02/00 A2963 RMK SC2AC2CI2 SLP067

CYQF;2009-10-30 15:00;CYQF 301500Z 35003KT 15SM FEW100 SCT250 00/M00 A2963 RMK AC1CI1 SLP070

CYQF;2009-10-30 16:00;CYQF 301600Z 00000KT 15SM BKN090 BKN250 02/00 A2963 RMK AC6CI1 SLP071

CYQF;2009-10-30 17:00;CYQF 301700Z 00000KT 15SM FEW010 BKN090 OVC250 02/01 A2966 RMK SC2AC3CI2 SLP079

CYQF;2009-10-30 17:28;CYQF 301728Z 00000KT 12SM -RA BKN007 BKN090 OVC250 RMK SC5AC2CI1

CYQF;2009-10-30 18:00;CYQF 301800Z 00000KT 12SM -RA BKN007 OVC090 03/01 A2966 RMK SC7AC1 SLP076

CYQF;2009-10-30 18:49;CYQF 301849Z 11004KT 12SM -RA BKN010 OVC090 RMK SC6AC2

CYQF;2009-10-30 19:00;CYQF 301900Z 12004KT 12SM -RA BKN010 OVC090 03/01 A2964 RMK SC7AC1 SLP070

CYQF;2009-10-30 20:00;CYQF 302000Z 00000KT 15SM BKN010 OVC090 04/01 A2964 RMK SC7AC1 SLP070

CYQF;2009-10-30 21:00;CYQF 302100Z 15005KT 15SM BKN013 OVC090 04/01 A2962 RMK SC6AC2 SLP061

CYQF;2009-10-30 22:00;CYQF 302200Z 16005KT 15SM SCT013 BKN090 OVC250 04/02 A2961 RMK SC4AC2CI2 SLP058

CYQF;2009-10-30 23:00;CYQF 302300Z 13009KT 15SM FEW013 SCT040 BKN090 OVC250 04/01 A2961 RMK SC1SC2AC2CI2 SLP057

CYQF;2009-10-31 00:00;CYQF 310000Z 14006KT 15SM FEW040 BKN090 BKN250 03/01 A2960 RMK SC2AC4CI2 SLP056

CYQF;2009-10-31 01:00;CYQF 310100Z 13008KT 15SM BKN090 BKN250 03/00 A2959 RMK AC5CI2 SLP052

CYQF;2009-10-31 02:00;CYQF 310200Z 14007KT 15SM BKN150 02/M00 A2957 RMK AC5 SLP046

CYQF;2009-10-31 03:00;CYQF 310300Z 14006KT 15SM SCT080 BKN150 01/M01 A2956 RMK AC3AC3 SLP046

CYQF;2009-10-31 04:00;CYQF 310400Z 13006KT 15SM -SN OVC100 02/M00 A2954 RMK AC7 SLP039

CYQF;2009-10-31 04:09;CYQF 310409Z 16007KT 15SM OVC100 RMK AC7

CYQF;2009-10-31 05:00;CYQF 310500Z 16005KT 15SM OVC100 02/M00 A2952 RMK AC7 SLP033

CYQF;2009-10-31 06:00;CYQF 310600Z 14004KT 15SM OVC100 02/00 A2951 RMK AC7 SLP024

CYQF;2009-10-31 07:00;CYQF 310700Z 14008KT 15SM OVC100 02/M00 A2950 RMK AC7 SLP021

CYQF;2009-10-31 08:00;CYQF 310800Z 15008KT 15SM OVC100 02/M00 A2948 RMK AC8 SLP015

CYQF;2009-10-31 09:00;CYQF 310900Z 09005KT 15SM OVC100 02/M00 A2946 RMK AC8 SLP005

CYQF;2009-10-31 10:00;CYQF 311000Z 15006KT 15SM OVC090 02/00 A2943 RMK AC8 SLP996

CYQF;2009-10-31 11:00;CYQF 311100Z 13004KT 15SM OVC090 03/00 A2943 RMK AC8 SLP995

CYQF;2009-10-31 12:00;CYQF 311200Z 20002KT 15SM SCT090 02/00 A2941 RMK AC4 SLP988

CYQF;2009-10-31 13:00;CYQF 311300Z 17005KT 15SM FEW090 02/M00 A2937 RMK AC2 SLP976

CYQF;2009-10-31 14:00;CYQF 311400Z 21010KT 15SM FEW070 03/00 A2935 RMK AC2 SLP971

CYQF;2009-10-31 15:00;CYQF 311500Z 23006KT 15SM FEW070 02/M01 A2936 RMK AC2 SLP974

CYQF;2009-10-31 16:00;CYQF 311600Z 24008KT 15SM FEW080 08/01 A2937 RMK AC2 SLP976

CYQF;2009-10-31 17:00;CYQF 311700Z 28010KT 15SM FEW080 11/02 A2940 RMK AC2 SLP987

CYQF;2009-10-31 18:00;CYQF 311800Z 27010G15KT 15SM FEW080 14/01 A2943 RMK AC2 SLP983

CYQF;2009-10-31 19:00;CYQF 311900Z 35018G25KT 15SM FEW050 12/02 A2948 RMK SC1 SLP000

CYQF;2009-10-31 20:00;CYQF 312000Z 36010G15KT 15SM FEW050 09/02 A2951 RMK SC1 SLP010

CYQF;2009-10-31 21:00;CYQF 312100Z 36010G15KT 15SM FEW050 FEW100 10/01 A2955 RMK SC1AC1 SLP031

CYQF;2009-10-31 22:00;CYQF 312200Z 36010G15KT 15SM SCT025 08/02 A2961 RMK CU4 SLP051

CYQF;2009-10-31 23:00;CYQF 312300Z 35012KT 15SM BKN025 07/01 A2965 RMK CU5 SLP061

CYQF;2009-11-01 01:00;CYQF 010100Z 35010G15KT 15SM -RA BKN025 04/01 A2973 RMK SC7 SLP096

CYQF;2009-11-01 02:00;CYQF 010200Z 04003KT 10SM -RA OVC025 02/01 A2977 RMK SC8 SLP107

CYQF;2009-11-01 03:00;CYQF 010300Z 20008KT 10SM -RA OVC025 02/01 A2980 RMK SC8 SLP125

CYQF;2009-11-01 04:00;CYQF 010400Z 21008KT 15SM -RA BKN025 OVC080 02/01 A2981 RMK SC5AC3 SLP130

CYQF;2009-11-01 04:24;CYQF 010424Z 20006KT 15SM SCT025 BKN080 RMK SC3AC3

CYQF;2009-11-01 05:00;CYQF 010500Z 20006KT 15SM SCT025 BKN080 02/01 A2983 RMK SC4AC2 SLP135

CYQF;2009-11-01 06:00;CYQF 010600Z 22010KT 15SM SCT025 BKN080 01/01 A2985 RMK SC3AC4 SLP132

CYQF;2009-11-01 07:00;CYQF 010700Z 20004KT 15SM FEW030 SCT080 01/M00 A2988 RMK SC1AC2 SLP140

CYQF;2009-11-01 08:00;CYQF 010800Z 21004KT 15SM FEW030 SCT080 M00/M01 A2990 RMK SC1AC2 SLP147

CYQF;2009-11-01 09:00;CYQF 010900Z 24006KT 15SM BKN080 00/M01 A2992 RMK AC5 SLP161

CYQF;2009-11-01 10:00;CYQF 011000Z 25007KT 15SM FEW030 FEW080 00/M01 A2994 RMK SC1AC2 SLP168

CYQF;2009-11-01 11:00;CYQF 011100Z 26003KT 15SM FEW030 SCT080 M00/M01 A2996 RMK SC2AC2 SLP173

CYQF;2009-11-01 12:00;CYQF 011200Z 25003KT 15SM FEW030 SCT080 M02/M02 A2999 RMK SC2AC2 SLP191

CYQF;2009-11-01 13:00;CYQF 011300Z 20003KT 15SM FEW030 SCT080 M02/M03 A3001 RMK SC2AC2 SLP196

CYQF;2009-11-01 14:00;CYQF 011400Z 19005KT 15SM SCT030 M02/M03 A3003 RMK SC3 SLP202

CYQF;2009-11-01 15:00;CYQF 011500Z 21005KT 15SM FEW030 BKN050 M03/M04 A3004 RMK SC2SC3 VIRGA SLP216

CYQF;2009-11-01 16:00;CYQF 011600Z 18002KT 15SM FEW030 SCT080 M01/M02 A3008 RMK SC2AC2 VIRGA SLP228

CYQF;2009-11-01 17:00;CYQF 011700Z 00000KT 15SM FEW030 SCT080 01/M02 A3011 RMK SC2AC2 VIRGA SLP237

CYQF;2009-11-01 18:00;CYQF 011800Z 32010KT 15SM FEW030 04/M02 A3013 RMK SC2 SLP240

CYQF;2009-11-01 19:00;CYQF 011900Z 32008KT 15SM FEW030 04/M04 A3015 RMK CU2 SLP244

CYQF;2009-11-01 20:00;CYQF 012000Z 33008KT 15SM FEW040 05/M04 A3015 RMK CU2 VIRGA SLP245

CYQF;2009-11-01 21:00;CYQF 012100Z 32008KT 15SM FEW040 SCT080 04/M05 A3015 RMK CU2AC2 VIRGA SLP248

CYQF;2009-11-01 22:00;CYQF 012200Z 29005KT 15SM FEW040 SCT080 04/M04 A3016 RMK CU2AC2 VIRGA SLP251

CYQF;2009-11-01 23:00;CYQF 012300Z 30003KT 15SM SCT030 BKN080 04/M03 A3017 RMK CU3AC2 SLP253

CYQF;2009-11-02 00:00;CYQF 020000Z 25003KT 15SM FEW020 02/M04 A3018 RMK SC2 VIRGA SLP262

CYQF;2009-11-02 01:00;CYQF 020100Z 25003KT 15SM SCT030 00/M03 A3019 RMK SC3 SLP266

CYQF;2009-11-02 02:00;CYQF 020200Z 00000KT 15SM FEW030 M01/M04 A3020 RMK SC2 SLP267

CYQF;2009-11-02 03:00;CYQF 020300Z 00000KT 15SM FEW030 M02/M05 A3019 RMK SC1 SLP274

CYQF;2009-11-02 04:00;CYQF 020400Z 18005KT 15SM SKC M03/M06 A3018 RMK SLP270

CYQF;2009-11-02 05:00;CYQF 020500Z 19004KT 15SM SKC M04/M06 A3019 RMK SLP274

CYQF;2009-11-02 06:00;CYQF 020600Z 18006KT 15SM SKC M04/M07 A3016 RMK SLP257

CYQF;2009-11-02 07:00;CYQF 020700Z 20005KT 15SM SKC M05/M07 A3015 RMK SLP252

CYQF;2009-11-02 08:00;CYQF 020800Z 18005KT 15SM SKC M05/M08 A3015 RMK SLP253

CYQF;2009-11-02 09:00;CYQF 020900Z 19004KT 15SM FEW100 M07/M09 A3014 RMK AC2 SLP250

CYQF;2009-11-02 10:00;CYQF 021000Z 19005KT 15SM FEW100 SCT250 M06/M09 A3012 RMK AC2CI2 SLP245

CYQF;2009-11-02 11:00;CYQF 021100Z 20002KT 15SM FEW100 BKN250 M06/M09 A3011 RMK AC2CI2 SLP242

CYQF;2009-11-02 12:00;CYQF 021200Z 21003KT 15SM BKN080 M06/M09 A3010 RMK AC5 SLP239

CYQF;2009-11-02 13:00;CYQF 021300Z 19003KT 15SM BKN080 M05/M08 A3008 RMK AC7 SLP234

CYQF;2009-11-02 14:00;CYQF 021400Z 19008KT 15SM SCT070 BKN120 M04/M07 A3006 RMK AC4AC3 SLP226

CYQF;2009-11-02 15:00;CYQF 021500Z 15003KT 15SM FEW080 BKN250 M04/M07 A3005 RMK AC2CI2 SLP226

CYQF;2009-11-02 16:00;CYQF 021600Z 00000KT 15SM FEW080 BKN250 M04/M07 A3004 RMK AC1CI2 SLP221

CYQF;2009-11-02 17:00;CYQF 021700Z 00000KT 15SM FEW080 BKN250 01/M03 A3002 RMK AC1CI2 SLP216

CYQF;2009-11-02 18:00;CYQF 021800Z 20005KT 15SM FEW080 BKN250 04/M03 A3001 RMK AC1CI5 SLP205

CYQF;2009-11-02 19:00;CYQF 021900Z 18004KT 15SM FEW080 BKN250 06/M03 A2999 RMK AC2CI4 SLP197

CYQF;2009-11-02 20:00;CYQF 022000Z 19003KT 15SM BKN250 08/M03 A2997 RMK CI5 SLP191

CYQF;2009-11-02 21:00;CYQF 022100Z 00000KT 15SM FEW040 BKN250 07/M03 A2995 RMK CU2CI4 SLP182

CYQF;2009-11-02 22:00;CYQF 022200Z 00000KT 15SM FEW030 BKN150 07/M01 A2994 RMK CU2AC4 SLP179

CYQF;2009-11-02 23:00;CYQF 022300Z 00000KT 15SM FEW030 BKN100 07/M02 A2994 RMK CU2AC4 SLP178

CYQF;2009-11-03 00:00;CYQF 030000Z 00000KT 15SM BKN100 BKN250 05/M02 A2994 RMK AC5CI1 SLP178

CYQF;2009-11-03 01:00;CYQF 030100Z 00000KT 15SM BKN100 BKN250 03/M02 A2995 RMK AC5CI2 SLP183

CYQF;2009-11-03 02:00;CYQF 030200Z 34003KT 15SM BKN100 01/M03 A2995 RMK AC6 SLP183

CYQF;2009-11-03 03:00;CYQF 030300Z 36005KT 15SM BKN100 03/M04 A2996 RMK AC3 SLP188

CYQF;2009-11-03 04:00;CYQF 030400Z 30004KT 15SM BKN075 02/M04 A2998 RMK AC6 SLP192

CYQF;2009-11-03 05:00;CYQF 030500Z 31003KT 15SM BKN075 02/M03 A3000 RMK AC6 SLP199

CYQF;2009-11-03 06:00;CYQF 030600Z 31004KT 15SM OVC075 02/M03 A3002 RMK AC7 SLP199

CYQF;2009-11-03 07:00;CYQF 030700Z 35003KT 15SM OVC080 02/M02 A3004 RMK AC6 SLP205

CYQF;2009-11-03 08:00;CYQF 030800Z 33004KT 15SM FEW080 BKN250 01/M03 A3005 RMK AC1CI2 SLP210

CYQF;2009-11-03 09:00;CYQF 030900Z 00000KT 15SM BKN090 BKN250 M01/M04 A3007 RMK AC5CI1 SLP216

CYQF;2009-11-03 10:00;CYQF 031000Z 24007KT 15SM BKN090 M01/M03 A3008 RMK AC4 SLP221

CYQF;2009-11-03 11:00;CYQF 031100Z 25005KT 15SM BKN090 M00/M03 A3009 RMK AC7 SLP223

CYQF;2009-11-03 12:00;CYQF 031200Z 24006KT 15SM OVC100 M00/M03 A3011 RMK AC8 SLP230

CYQF;2009-11-03 13:00;CYQF 031300Z 00000KT 15SM FEW015 OVC060 M00/M04 A3012 RMK SC1SC8 SLP235

CYQF;2009-11-03 14:00;CYQF 031400Z 00000KT 15SM OVC060 M00/M04 A3012 RMK SC8 SLP235

CYQF;2009-11-03 15:00;CYQF 031500Z 20005KT 15SM BKN060 BKN250 M01/M03 A3014 RMK SC5CI2 SLP246

CYQF;2009-11-03 16:00;CYQF 031600Z 19003KT 15SM BKN080 BKN250 00/M03 A3014 RMK AC6CI1 SLP246

CYQF;2009-11-03 17:00;CYQF 031700Z 22004KT 15SM BKN080 BKN250 02/M03 A3015 RMK AC6CI1 VIRGA SLP247

CYQF;2009-11-03 18:00;CYQF 031800Z 21003KT 15SM SCT080 BKN250 03/M02 A3015 RMK AC3CI3 SLP244

CYQF;2009-11-03 19:00;CYQF 031900Z 23006KT 15SM FEW080 SCT250 05/M03 A3014 RMK AC2CI2 SLP243

CYQF;2009-11-03 20:00;CYQF 032000Z 32004KT 15SM FEW080 FEW250 08/M03 A3013 RMK AC1CI1 SLP238

CYQF;2009-11-03 21:00;CYQF 032100Z 24004KT 15SM FEW050 FEW080 09/M05 A3012 RMK CU1AC1 SLP233

CYQF;2009-11-03 22:00;CYQF 032200Z 27004KT 15SM FEW050 09/M06 A3012 RMK CU2 SLP233

CYQF;2009-11-03 23:00;CYQF 032300Z 22002KT 15SM FEW050 09/M07 A3013 RMK SC2 SLP234

CYQF;2009-11-04 00:00;CYQF 040000Z 00000KT 15SM FEW050 06/M05 A3012 RMK SC1 SLP233

CYQF;2009-11-04 01:00;CYQF 040100Z 19004KT 15SM FEW050 FEW250 01/M06 A3012 RMK SC1CI1 SLP235

CYQF;2009-11-04 02:00;CYQF 040200Z 00000KT 15SM FEW090 M01/M07 A3014 RMK AC2 SLP239

CYQF;2009-11-04 03:00;CYQF 040300Z 00000KT 15SM SKC M01/M07 A3015 RMK SLP253

CYQF;2009-11-04 04:00;CYQF 040400Z 04004KT 15SM SKC M03/M08 A3016 RMK SLP257

CYQF;2009-11-04 05:00;CYQF 040500Z CCA 03003KT 15SM SKC M02/M06 A3017 RMK SLP260

CYQF;2009-11-04 06:00;CYQF 040600Z 33003KT 15SM SKC M04/M08 A3017 RMK SLP261

CYQF;2009-11-04 07:00;CYQF 040700Z 00000KT 15SM SKC M05/M07 A3016 RMK SLP259

CYQF;2009-11-04 08:00;CYQF 040800Z 00000KT 15SM FEW250 M07/M09 A3016 RMK CI0 SLP257

CYQF;2009-11-04 09:00;CYQF 040900Z 21003KT 15SM SKC M08/M10 A3016 RMK SLP253

CYQF;2009-11-04 10:00;CYQF 041000Z 00000KT 15SM SKC M08/M10 A3015 RMK SLP251

CYQF;2009-11-04 11:00;CYQF 041100Z 00000KT 15SM SKC M09/M11 A3014 RMK SLP247

CYQF;2009-11-04 12:00;CYQF 041200Z 00000KT 15SM FEW250 M08/M09 A3013 RMK CI0 SLP246

CYQF;2009-11-04 13:00;CYQF 041300Z 00000KT 15SM FEW250 M08/M09 A3012 RMK CI0 SLP245

CYQF;2009-11-04 14:00;CYQF 041400Z 00000KT 15SM FEW250 M09/M11 A3011 RMK CI1 SLP242

CYQF;2009-11-04 15:00;CYQF 041500Z 01003KT 15SM SCT250 M08/M10 A3011 RMK CI2 SLP249

CYQF;2009-11-04 16:00;CYQF 041600Z 00000KT 15SM BKN250 M03/M07 A3011 RMK CI2 SLP247

CYQF;2009-11-04 17:00;CYQF 041700Z 20005KT 15SM BKN250 M02/M06 A3009 RMK CI3 SLP241

CYQF;2009-11-04 18:00;CYQF 041800Z 17008KT 15SM BKN250 01/M04 A3006 RMK CI5 SLP226

CYQF;2009-11-04 19:00;CYQF 041900Z 16012KT 15SM SCT120 BKN250 02/M04 A3005 RMK AC3CI2 SLP220

CYQF;2009-11-04 20:00;CYQF 042000Z 15010KT 15SM FEW120 BKN250 04/M04 A3000 RMK AC2CI2 SLP206

CYQF;2009-11-04 21:00;CYQF 042100Z 16011KT 15SM BKN250 05/M04 A2997 RMK CI4 SLP193

CYQF;2009-11-04 22:00;CYQF 042200Z 16010G16KT 15SM FEW120 BKN250 06/M07 A2995 RMK AC2CI2 SLP186

CYQF;2009-11-04 23:00;CYQF 042300Z 15009KT 15SM FEW120 BKN250 04/M07 A2993 RMK AC2CI3 SLP179

CYQF;2009-11-05 00:00;CYQF 050000Z 13007KT 15SM FEW100 BKN250 02/M06 A2991 RMK AC2CI2 SLP176

CYQF;2009-11-05 01:00;CYQF 050100Z 16005KT 15SM FEW100 BKN250 01/M06 A2990 RMK AC2CI2 SLP172

CYQF;2009-11-05 02:00;CYQF 050200Z 17007KT 15SM FEW100 BKN250 M00/M05 A2987 RMK AC2CI2 SLP164

CYQF;2009-11-05 03:00;CYQF 050300Z 17010KT 15SM OVC250 M00/M05 A2984 RMK CI6 SLP154

CYQF;2009-11-05 04:00;CYQF 050400Z 16005KT 15SM OVC250 M00/M05 A2982 RMK CI6 SLP148

CYQF;2009-11-05 05:00;CYQF 050500Z 16010KT 15SM OVC250 00/M05 A2978 RMK CI8 SLP136

CYQF;2009-11-05 06:00;CYQF 050600Z 18006KT 15SM FEW100 OVC250 01/M04 A2975 RMK AC2CI6 SLP112

CYQF;2009-11-05 07:00;CYQF 050700Z 18010KT 15SM OVC250 01/M05 A2971 RMK CI8 SLP099

CYQF;2009-11-05 08:00;CYQF 050800Z 17010KT 15SM OVC200 00/M05 A2968 RMK CI6 SLP089

CYQF;2009-11-05 09:00;CYQF 050900Z 13003KT 15SM OVC200 00/M05 A2964 RMK CI6 SLP070

CYQF;2009-11-05 10:00;CYQF 051000Z 16004KT 15SM OVC200 M02/M05 A2961 RMK CI6 SLP061

CYQF;2009-11-05 11:00;CYQF 051100Z 17008KT 15SM OVC200 M00/M05 A2958 RMK CI6 SLP052

CYQF;2009-11-05 12:00;CYQF 051200Z 18004KT 15SM BKN200 00/M05 A2956 RMK CI5 SLP044

CYQF;2009-11-05 13:00;CYQF 051300Z 00000KT 15SM BKN200 M02/M06 A2955 RMK CI5 SLP040

CYQF;2009-11-05 14:00;CYQF 051400Z 19005KT 15SM FEW100 BKN200 01/M05 A2955 RMK AC2CI4 SLP040

CYQF;2009-11-05 15:00;CYQF 051500Z 00000KT 15SM FEW100 BKN200 M01/M05 A2953 RMK AC2CI3 SLP038

CYQF;2009-11-05 16:00;CYQF 051600Z 00000KT 15SM SCT100 BKN200 02/M04 A2953 RMK AC3CI3 SLP036

CYQF;2009-11-05 17:00;CYQF 051700Z 00000KT 15SM SCT100 BKN250 04/M02 A2952 RMK AC4CI2 SLP033

CYQF;2009-11-05 18:00;CYQF 051800Z 19007KT 15SM SCT100 BKN250 11/M02 A2949 RMK AC4CI3 SLP010

CYQF;2009-11-05 19:00;CYQF 051900Z 19010G15KT 15SM SCT100 BKN250 15/M01 A2945 RMK AC4CI2 SLP997

CYQF;2009-11-05 20:00;CYQF 052000Z 18010KT 15SM SCT100 BKN250 16/M02 A2940 RMK AC4CI2 SLP983

CYQF;2009-11-05 21:00;CYQF 052100Z 17012KT 15SM SCT100 BKN250 18/M02 A2935 RMK AC3CI2 SLP955

CYQF;2009-11-05 22:00;CYQF 052200Z 19010G15KT 15SM FEW100 BKN250 18/M01 A2934 RMK AC2CI2 SLP951

CYQF;2009-11-05 23:00;CYQF 052300Z 21010KT 15SM FEW100 BKN250 16/M04 A2931 RMK AC2CI2 SLP941

CYQF;2009-11-06 00:00;CYQF 060000Z 21010G15KT 15SM FEW100 BKN250 15/M04 A2929 RMK AC2CI2 SLP938

CYQF;2009-11-06 01:00;CYQF 060100Z 20010KT 15SM FEW100 SCT250 11/M03 A2928 RMK AC1CI2 SLP934

CYQF;2009-11-06 02:00;CYQF 060200Z 21010KT 15SM SCT250 08/M04 A2928 RMK CI2 SLP933

CYQF;2009-11-06 03:00;CYQF 060300Z 20010KT 15SM FEW250 08/M04 A2926 RMK CI1 SLP934

CYQF;2009-11-06 04:00;CYQF 060400Z 19010G15KT 15SM FEW250 07/M04 A2923 RMK CI1 SLP925

CYQF;2009-11-06 05:00;CYQF 060500Z 18010KT 15SM FEW250 08/M04 A2922 RMK CI1 SLP921

CYQF;2009-11-06 06:00;CYQF 060600Z 19010KT 15SM SKC 04/M04 A2918 RMK SLP900

CYQF;2009-11-06 07:00;CYQF 060700Z 20010G15KT 15SM SKC 08/M03 A2916 RMK SLP894

CYQF;2009-11-06 08:00;CYQF 060800Z 19012KT 15SM FEW210 09/M02 A2914 RMK CI2 SLP886

CYQF;2009-11-06 09:00;CYQF 060900Z 19010G15KT 15SM FEW210 07/M02 A2913 RMK CI1 SLP870

CYQF;2009-11-06 10:00;CYQF 061000Z 20008KT 15SM FEW120 05/M02 A2913 RMK AC2 SLP870

CYQF;2009-11-06 11:00;CYQF 061100Z 20008KT 15SM FEW120 SCT210 04/M03 A2911 RMK AC1CI2 SLP865

CYQF;2009-11-06 12:00;CYQF 061200Z 19008KT 15SM FEW120 BKN210 05/M03 A2910 RMK AC2CI2 SLP866

CYQF;2009-11-06 13:00;CYQF 061300Z 18010KT 15SM FEW210 02/M04 A2910 RMK CI1 SLP865

CYQF;2009-11-06 14:00;CYQF 061400Z 18006KT 15SM FEW210 02/M04 A2912 RMK CI1 SLP871

CYQF;2009-11-06 15:00;CYQF 061500Z 24006KT 15SM FEW050 BKN090 03/M03 A2915 RMK CU2AC2 FEW MDT CU SW SHS DIS SW SLP893

CYQF;2009-11-06 16:00;CYQF 061600Z 26006KT 15SM BKN050 BKN090 06/M01 A2917 RMK SC5AC1 TCU EMBD VIRGA SH SW SLP899

CYQF;2009-11-06 17:00;CYQF 061700Z 26007KT 15SM BKN050 BKN090 07/M02 A2920 RMK SC6AC1 TCU EMBD VIRGA ALQDS MAMATUS SLP910

CYQF;2009-11-06 18:00;CYQF 061800Z CCA 31004KT 15SM BKN050 BKN090 07/M02 A2924 RMK SC5AC2 TCU VIRGA SLP925

CYQF;2009-11-06 19:00;CYQF 061900Z 34007KT 15SM SCT040 BKN100 BKN250 08/M02 A2927 RMK SC3AC2CI1 SLP934

CYQF;2009-11-06 20:00;CYQF 062000Z 01005KT 15SM FEW040TCU BKN100 BKN250 08/M03 A2928 RMK TCU1AC4CI1 SLP938

CYQF;2009-11-06 21:00;CYQF 062100Z 00000KT 15SM FEW040 BKN100 BKN250 09/M03 A2930 RMK CU1AC4CI1 TCU ASOCTD SLP939

CYQF;2009-11-06 22:00;CYQF 062200Z 18004KT 15SM FEW040 SCT100 BKN250 10/M03 A2931 RMK CU2AC2CI1 TCU ASOCTD NW-N SH NW-N SLP943

CYQF;2009-11-06 23:00;CYQF 062300Z 21004KT 15SM FEW040 SCT100 BKN250 09/M03 A2934 RMK CU2AC1CI1 VIRGA TCU ASOCTD SLP950

CYQF;2009-11-07 00:00;CYQF 070000Z 24013KT 15SM FEW030 SCT100 06/M08 A2936 RMK CU2AC1 SLP967

CYQF;2009-11-07 01:00;CYQF 070100Z 24012KT 15SM FEW040 SCT100 05/M07 A2939 RMK SC2AC1 SLP976

CYQF;2009-11-07 02:00;CYQF 070200Z 24008KT 15SM FEW040 FEW100 01/M07 A2941 RMK SC2AC1 SLP981

CYQF;2009-11-07 03:00;CYQF 070300Z 22008KT 15SM SKC M01/M07 A2942 RMK SLP998

CYQF;2009-11-07 04:00;CYQF 070400Z 21006KT 15SM SKC M01/M07 A2943 RMK SLP000

CYQF;2009-11-07 05:00;CYQF 070500Z 22003KT 15SM SKC M01/M08 A2944 RMK SLP003

CYQF;2009-11-07 06:00;CYQF 070600Z 20006KT 15SM SKC M04/M09 A2945 RMK SLP006

CYQF;2009-11-07 07:00;CYQF 070700Z CCA 20007KT 15SM SKC M05/M09 A2946 RMK SLP009

CYQF;2009-11-07 08:00;CYQF 070800Z 23008KT 15SM FEW250 M05/M09 A2948 RMK CI2 OBS TAKEN +06 SLP015

CYQF;2009-11-07 09:00;CYQF 070900Z 21005KT 15SM SKC M04/M10 A2947 RMK SLP012

CYQF;2009-11-07 10:00;CYQF 071000Z 23010KT 15SM SKC M02/M08 A2948 RMK SLP014

CYQF;2009-11-07 11:00;CYQF 071100Z 25007KT 15SM SKC M03/M08 A2950 RMK OBS TAKEN +10 SLP019

CYQF;2009-11-07 12:00;CYQF 071200Z 24007KT 15SM SKC M03/M09 A2950 RMK OBS TAKEN +07 SLP021

CYQF;2009-11-07 13:00;CYQF 071300Z 24005KT 15SM SKC M05/M09 A2951 RMK SLP025

CYQF;2009-11-07 14:00;CYQF 071400Z 21007KT 15SM FEW100 M07/M11 A2950 RMK AC1 SLP021

CYQF;2009-11-07 15:00;CYQF 071500Z 20006KT 15SM FEW120 M08/M11 A2950 RMK AC1 SLP035

CYQF;2009-11-07 16:00;CYQF 071600Z 19007KT 15SM FEW120 BKN250 M01/M06 A2950 RMK AC1CI2 SLP035

CYQF;2009-11-07 17:00;CYQF 071700Z 21010KT 15SM FEW090 FEW250 04/M05 A2948 RMK AC1CI1 SLP029

CYQF;2009-11-07 18:00;CYQF 071800Z 21012KT 15SM FEW090 FEW250 06/M06 A2947 RMK AC1CI1 SLP015

CYQF;2009-11-07 19:00;CYQF 071900Z 24015G21KT 15SM SCT100 BKN250 09/M08 A2946 RMK AC2CI1 SLP010

CYQF;2009-11-07 20:00;CYQF 072000Z 24007KT 15SM SCT100 SCT250 08/M09 A2943 RMK AC2CI1 SLP002

CYQF;2009-11-07 21:00;CYQF 072100Z 27015G20KT 15SM FEW090 10/M11 A2943 RMK AC2 SLP996

CYQF;2009-11-07 22:00;CYQF 072200Z 25015G28KT 15SM FEW060 FEW120 09/M12 A2945 RMK CU1AC1 SLP001

CYQF;2009-11-07 23:00;CYQF 072300Z 25012KT 15SM FEW060 FEW120 SCT250 08/M12 A2946 RMK CU1AC1CI0 SLP006

CYQF;2009-11-08 00:00;CYQF 080000Z 27008KT 15SM FEW120 FEW250 05/M12 A2947 RMK AC1CI0 SLP015

CYQF;2009-11-08 01:00;CYQF 080100Z 24007KT 15SM FEW120 FEW250 01/M11 A2949 RMK AC1CI0 SLP020

CYQF;2009-11-08 02:00;CYQF 080200Z 25005KT 15SM FEW100 02/M09 A2950 RMK AC1 SLP025

CYQF;2009-11-08 03:00;CYQF 080300Z 25005KT 15SM SCT100 BKN250 01/M09 A2951 RMK AC3CI2 SLP036

CYQF;2009-11-08 04:00;CYQF 080400Z 23007KT 15SM FEW100 BKN250 03/M08 A2953 RMK AC2CI2 SLP041

CYQF;2009-11-08 05:00;CYQF 080500Z 22005KT 15SM FEW100 BKN220 00/M07 A2953 RMK AC2CI2 SLP042

CYQF;2009-11-08 06:00;CYQF 080600Z 23008KT 15SM FEW100 M01/M08 A2954 RMK AC2 SLP035

CYQF;2009-11-08 07:00;CYQF 080700Z 26004KT 15SM BKN100 M01/M07 A2956 RMK AC5 SLP040

CYQF;2009-11-08 08:00;CYQF 080800Z 25004KT 15SM BKN100 M02/M07 A2957 RMK AC5 SLP043

CYQF;2009-11-08 09:00;CYQF 080900Z 21004KT 15SM SCT100 M04/M08 A2959 RMK AC2 SLP052

CYQF;2009-11-08 10:00;CYQF 081000Z 23005KT 15SM FEW100 M06/M10 A2960 RMK AC2 SLP055

CYQF;2009-11-08 11:00;CYQF 081100Z 21006KT 15SM FEW100 SCT250 M05/M09 A2962 RMK AC2CI2 SLP060

CYQF;2009-11-08 12:00;CYQF 081200Z 20006KT 15SM SCT100 BKN250 M07/M10 A2965 RMK AC3CI2 SLP080

CYQF;2009-11-08 13:00;CYQF 081300Z 21005KT 15SM SCT100 BKN250 M06/M09 A2967 RMK AC4CI2 SLP087

CYQF;2009-11-08 14:00;CYQF 081400Z 23005KT 15SM SCT100 BKN250 M06/M09 A2968 RMK AC4CI2 SLP091

CYQF;2009-11-08 15:00;CYQF 081500Z 23005KT 15SM BKN090 BKN250 M04/M08 A2971 RMK AC5CI1 SLP101

CYQF;2009-11-08 16:00;CYQF 081600Z 22008KT 15SM BKN090 BKN250 M03/M07 A2973 RMK AC6CI1 SLP109

CYQF;2009-11-08 17:00;CYQF 081700Z 22005KT 15SM BKN090 BKN250 M01/M06 A2975 RMK AC6CI1 SLP113

CYQF;2009-11-08 18:00;CYQF 081800Z 24006KT 15SM FEW030 FEW090 BKN250 03/M05 A2976 RMK CU1AC2CI0 SLP115

CYQF;2009-11-08 19:00;CYQF 081900Z 23010KT 15SM FEW040 FEW100 SCT250 06/M10 A2977 RMK CU1AC2CI0 SLP118

CYQF;2009-11-08 20:00;CYQF 082000Z 26008KT 15SM FEW040 FEW100 BKN250 07/M10 A2977 RMK CU1AC2CI0 SLP119

CYQF;2009-11-08 21:00;CYQF 082100Z 26008KT 15SM FEW040 FEW100 BKN250 07/M11 A2978 RMK CU2AC1CI0 SLP119

CYQF;2009-11-08 22:00;CYQF 082200Z 26007KT 15SM FEW060 SCT250 07/M14 A2978 RMK CU2CI1 SLP121

CYQF;2009-11-08 23:00;CYQF 082300Z 00000KT 15SM FEW050 FEW100 SCT250 04/M14 A2980 RMK SC2AC1CI0 SLP126

CYQF;2009-11-09 00:00;CYQF 090000Z 21004KT 15SM FEW050 FEW100 FEW250 00/M13 A2982 RMK SC1AC1CI0 SLP145

CYQF;2009-11-09 01:00;CYQF 090100Z 24006KT 15SM FEW050 FEW090 FEW250 M02/M13 A2984 RMK SC1AC1CI0 SLP152

CYQF;2009-11-09 02:00;CYQF 090200Z 22006KT 15SM FEW090 SCT250 M03/M12 A2985 RMK AC2CI1 SLP156

CYQF;2009-11-09 03:00;CYQF 090300Z 23008KT 15SM SKC M04/M13 A2987 RMK SLP164

CYQF;2009-11-09 04:00;CYQF 090400Z 24010G15KT 15SM SKC M01/M11 A2987 RMK SLP165

CYQF;2009-11-09 05:00;CYQF 090500Z 23008KT 15SM SKC M03/M12 A2988 RMK SLP168

CYQF;2009-11-09 06:00;CYQF 090600Z 19004KT 15SM SKC M04/M12 A2989 RMK SLP163

CYQF;2009-11-09 07:00;CYQF 090700Z 24006KT 15SM SKC M04/M12 A2990 RMK SLP165

CYQF;2009-11-09 08:00;CYQF 090800Z 23005KT 15SM SKC M05/M12 A2991 RMK SLP169

CYQF;2009-11-09 09:00;CYQF 090900Z 20005KT 15SM SKC M07/M13 A2992 RMK SLP171

CYQF;2009-11-09 10:00;CYQF 091000Z 19006KT 15SM SCT250 M08/M13 A2993 RMK CI1 SLP175

CYQF;2009-11-09 11:00;CYQF 091100Z 19006KT 15SM FEW250 M08/M12 A2993 RMK CI0 SLP174

CYQF;2009-11-09 12:00;CYQF 091200Z 18007KT 15SM FEW250 M06/M11 A2993 RMK CI0 SLP183

CYQF;2009-11-09 13:00;CYQF 091300Z 18007KT 15SM FEW250 M08/M12 A2993 RMK CI0 SLP182

CYQF;2009-11-09 14:00;CYQF 091400Z 17005KT 15SM FEW250 M07/M11 A2992 RMK CI0 SLP179

CYQF;2009-11-09 15:00;CYQF 091500Z 19005KT 15SM BKN250 M09/M13 A2991 RMK CI1 SLP182

CYQF;2009-11-09 16:00;CYQF 091600Z 17005KT 15SM BKN250 M01/M09 A2991 RMK CI2 SLP182

CYQF;2009-11-09 17:00;CYQF 091700Z 20010G16KT 15SM FEW120 BKN250 03/M06 A2989 RMK AC2CI1 SLP177

CYQF;2009-11-09 18:00;CYQF 091800Z 20018G25KT 15SM SCT100 BKN250 08/M07 A2987 RMK AC3CI1 SLP152

CYQF;2009-11-09 19:00;CYQF 091900Z 20012KT 15SM SCT100 BKN250 08/M08 A2985 RMK AC4CI2 SLP143

CYQF;2009-11-09 20:00;CYQF 092000Z 20012KT 15SM BKN100 BKN250 08/M09 A2983 RMK AC5CI2 SLP137

CYQF;2009-11-09 21:00;CYQF 092100Z 19010G15KT 15SM BKN100 OVC250 08/M09 A2981 RMK AC6CI1 SLP131

CYQF;2009-11-09 22:00;CYQF 092200Z 19012KT 15SM BKN100 OVC250 08/M08 A2977 RMK AC6CI1 SLP121

CYQF;2009-11-09 23:00;CYQF 092300Z 18010G15KT 15SM BKN090 BKN180 OVC250 07/M08 A2976 RMK AC5AC2CI1 SLP117

CYQF;2009-11-10 00:00;CYQF 100000Z 20008KT 15SM BKN090 BKN180 OVC250 07/M07 A2974 RMK AC5AC2CI1 SLP110

CYQF;2009-11-10 02:00;CYQF 100200Z 18010KT 15SM OVC250 05/M06 A2970 RMK CI8 SLP096

CYQF;2009-11-10 03:00;CYQF 100300Z 16006KT 15SM OVC250 03/M06 A2966 RMK CI8 SLP089

CYQF;2009-11-10 04:00;CYQF 100400Z 18010G16KT 15SM OVC250 05/M06 A2965 RMK CI6 SLP083

CYQF;2009-11-10 05:00;CYQF 100500Z 21011KT 15SM OVC250 04/M06 A2963 RMK CI6 SLP078

CYQF;2009-11-10 06:00;CYQF 100600Z 20013KT 15SM BKN250 03/M06 A2963 RMK CI3 SLP059

CYQF;2009-11-10 07:00;CYQF 100700Z 20008KT 15SM SKC 02/M06 A2964 RMK SLP062

CYQF;2009-11-10 08:00;CYQF 100800Z 19010KT 15SM SKC 02/M06 A2965 RMK SLP064

CYQF;2009-11-10 09:00;CYQF 100900Z 19010KT 15SM SKC 01/M06 A2966 RMK SLP070

CYQF;2009-11-10 10:00;CYQF 101000Z 21008KT 15SM SKC 01/M06 A2966 RMK SLP072

CYQF;2009-11-10 11:00;CYQF 101100Z 19008KT 15SM SKC 00/M06 A2969 RMK SLP081

CYQF;2009-11-10 12:00;CYQF 101200Z 28004KT 15SM SKC 01/M06 A2975 RMK SLP103

CYQF;2009-11-10 13:00;CYQF 101300Z 00000KT 15SM SKC M03/M08 A2976 RMK SLP106

CYQF;2009-11-10 14:00;CYQF 101400Z 00000KT 15SM SKC M04/M08 A2977 RMK SLP110

CYQF;2009-11-10 15:00;CYQF 101500Z 15004KT 15SM FEW090 M05/M09 A2977 RMK AC1 SLP124

CYQF;2009-11-10 16:00;CYQF 101600Z 25003KT 15SM FEW090 M04/M07 A2978 RMK AC1 SLP127

CYQF;2009-11-10 17:00;CYQF 101700Z 18003KT 15SM FEW050 FEW100 03/M06 A2978 RMK SC1AC2 SLP127

CYQF;2009-11-10 18:00;CYQF 101800Z 00000KT 15SM FEW050 BKN100 06/M05 A2978 RMK SC1AC5 SLP115

CYQF;2009-11-10 19:00;CYQF 101900Z 33008KT 15SM FEW050 BKN100 05/M07 A2980 RMK SC2AC5 VIRGA SLP121

CYQF;2009-11-10 20:00;CYQF 102000Z 12006KT 15SM FEW040 BKN090 BKN250 04/M05 A2978 RMK SC2AC4CI1 VIRGA SLP115

CYQF;2009-11-10 21:00;CYQF 102100Z 16004KT 15SM FEW040 BKN090 BKN250 06/M06 A2978 RMK SC1AC5CI1 VIRGA SLP116

CYQF;2009-11-10 22:00;CYQF 102200Z 00000KT 15SM FEW040 BKN090 BKN250 05/M05 A2979 RMK SC1AC4CI2 VIRGA SLP118

CYQF;2009-11-10 23:00;CYQF 102300Z 00000KT 15SM FEW040 SCT090 BKN140 04/M05 A2980 RMK SC1AC3AC2 SLP122

CYQF;2009-11-11 00:00;CYQF 110000Z 11005KT 15SM FEW040 FEW080 BKN140 02/M06 A2980 RMK CU1AC2AC2 SLP128

CYQF;2009-11-11 01:00;CYQF 110100Z 00000KT 15SM FEW080 FEW220 M02/M08 A2983 RMK AC1CI1 SLP137

CYQF;2009-11-11 02:00;CYQF 110200Z 24005KT 15SM SKC M02/M09 A2986 RMK SLP146

CYQF;2009-11-11 03:00;CYQF 110300Z 27004KT 15SM SKC M01/M09 A2988 RMK SLP166

CYQF;2009-11-11 04:00;CYQF 110400Z 17005KT 15SM SKC M05/M11 A2989 RMK SLP168

CYQF;2009-11-11 05:00;CYQF 110500Z 24007KT 15SM SKC M03/M10 A2989 RMK SLP169

CYQF;2009-11-11 06:00;CYQF 110600Z 20006KT 15SM SKC M07/M12 A2988 RMK SLP161

CYQF;2009-11-11 07:00;CYQF 110700Z 21004KT 15SM SKC M06/M11 A2988 RMK SLP159

CYQF;2009-11-11 08:00;CYQF 110800Z 19006KT 15SM SKC M06/M12 A2986 RMK SLP155

CYQF;2009-11-11 09:00;CYQF 110900Z 17004KT 15SM SKC M04/M11 A2985 RMK SLP144

CYQF;2009-11-11 10:00;CYQF 111000Z 14005KT 15SM FEW120 M04/M11 A2984 RMK AC2 SLP142

CYQF;2009-11-11 11:00;CYQF 111100Z 12005KT 15SM FEW120 M05/M11 A2982 RMK AC2 SLP136

CYQF;2009-11-11 12:00;CYQF 111200Z 15003KT 15SM SCT120 BKN250 M05/M10 A2980 RMK AC3CI2 SLP132

CYQF;2009-11-11 13:00;CYQF 111300Z 17007KT 15SM FEW120 BKN250 M02/M09 A2977 RMK AC2CI2 SLP123

CYQF;2009-11-11 14:00;CYQF 111400Z 18010KT 15SM SCT100 BKN250 M02/M09 A2974 RMK AC3CI1 SLP115

CYQF;2009-11-11 15:00;CYQF 111500Z 18005KT 15SM BKN100 BKN250 M04/M09 A2972 RMK AC5CI1 VIRGA SLP107

CYQF;2009-11-11 16:00;CYQF 111600Z 23003KT 15SM FEW080 BKN120 BKN250 M02/M08 A2970 RMK AC1AC4CI1 VIRGA SLP100

CYQF;2009-11-11 17:00;CYQF 111700Z 00000KT 15SM FEW080 BKN120 BKN250 M02/M07 A2967 RMK AC1AC4CI1 SLP093

CYQF;2009-11-11 18:00;CYQF 111800Z 24003KT 15SM FEW080 BKN120 BKN250 02/M06 A2966 RMK AC1AC4CI1 SLP088

CYQF;2009-11-11 19:00;CYQF 111900Z 21005KT 15SM FEW080 BKN120 BKN250 06/M06 A2964 RMK AC1AC4CI1 SLP082

CYQF;2009-11-11 20:00;CYQF 112000Z 24008KT 15SM FEW050 SCT100 BKN250 06/M07 A2963 RMK SC1AC3CI1 VIRGA SLP078

CYQF;2009-11-11 21:00;CYQF 112100Z 27008KT 15SM FEW050 FEW100 BKN250 07/M07 A2962 RMK CU1AC2CI1 SLP065

CYQF;2009-11-11 22:00;CYQF 112200Z 33010KT 15SM FEW050 FEW100 BKN250 06/M08 A2963 RMK CU1AC2CI1 SLP066

CYQF;2009-11-11 23:00;CYQF 112300Z 33006KT 15SM FEW050TCU FEW100 BKN250 02/M07 A2965 RMK TCU1AC2CI1 TCU NW-N LEE SYLVAN LK SLP072

CYQF;2009-11-12 00:00;CYQF 120000Z 02007KT 15SM FEW050TCU BKN100 BKN250 02/M07 A2966 RMK TCU2AC3CI2 VIRGA SLP083

CYQF;2009-11-12 01:00;CYQF 120100Z 35005KT 15SM SCT070 BKN250 M00/M06 A2966 RMK AC4CI2 SLP086

CYQF;2009-11-12 02:00;CYQF 120200Z 25004KT 15SM BKN060 OVC100 00/M06 A2969 RMK SC5AC3 SLP094

CYQF;2009-11-12 03:00;CYQF 120300Z 27002KT 15SM OVC090 M02/M06 A2969 RMK AC7 SLP100

CYQF;2009-11-12 04:00;CYQF 120400Z 30010KT 15SM BKN060 OVC100 01/M04 A2970 RMK SC5AC2 SLP102

CYQF;2009-11-12 04:38;CYQF 120438Z 32008KT 15SM -SHSN BKN025 OVC100 RMK SC5AC3

CYQF;2009-11-12 05:00;CYQF 120500Z 31009KT 15SM FEW025 OVC100 01/M05 A2971 RMK SC2AC6 SLP105

CYQF;2009-11-12 05:43;CYQF 120543Z 31010G15KT 12SM -SHSN BKN030 OVC100 RMK SC5AC3

CYQF;2009-11-12 06:00;CYQF 120600Z 30011KT 12SM -SHSN FEW030 OVC080 M00/M03 A2972 RMK SC2AC6 SLP101

CYQF;2009-11-12 07:00;CYQF 120700Z 30010KT 15SM -SHSN FEW030 BKN080 M02/M03 A2972 RMK SC2AC4 SLP100

CYQF;2009-11-12 07:25;CYQF 120725Z 30006KT 15SM FEW030 BKN080 RMK SC2AC3

CYQF;2009-11-12 08:00;CYQF 120800Z 28005KT 15SM SCT080 M04/M05 A2971 RMK AC3 SLP098

CYQF;2009-11-12 09:00;CYQF 120900Z 25006KT 15SM SCT080 M03/M04 A2971 RMK AC3 SLP095

CYQF;2009-11-12 10:00;CYQF 121000Z 28005KT 15SM FEW080 SCT250 M02/M03 A2971 RMK AC2CI0 SLP095

CYQF;2009-11-12 11:00;CYQF 121100Z 26008KT 15SM FEW080 FEW250 M06/M07 A2970 RMK AC2CI0 SLP093

CYQF;2009-11-12 12:00;CYQF 121200Z 26007KT 15SM FEW080 FEW250 M06/M07 A2970 RMK AC2CI0 SLP101

CYQF;2009-11-12 13:00;CYQF 121300Z 20004KT 15SM FEW080 FEW250 M08/M09 A2970 RMK AC2CI0 SLP099

CYQF;2009-11-12 14:00;CYQF 121400Z 18003KT 15SM SKC M09/M10 A2969 RMK SLP097

CYQF;2009-11-12 15:00;CYQF 121500Z 19005KT 15SM SKC M10/M11 A2969 RMK SLP107

CYQF;2009-11-12 16:00;CYQF 121600Z 20005KT 15SM SKC M08/M09 A2969 RMK SLP106

CYQF;2009-11-12 17:00;CYQF 121700Z 21005KT 15SM SKC M04/M07 A2968 RMK SLP102

CYQF;2009-11-12 18:00;CYQF 121800Z 19005KT 15SM SKC M02/M08 A2967 RMK SLP089

CYQF;2009-11-12 19:00;CYQF 121900Z 20007KT 15SM SKC 01/M09 A2965 RMK SLP081

CYQF;2009-11-12 20:00;CYQF 122000Z 22007KT 15SM SKC 03/M11 A2962 RMK SLP072

CYQF;2009-11-12 21:00;CYQF 122100Z 22006KT 15SM SKC 04/M11 A2961 RMK SLP063

CYQF;2009-11-12 22:00;CYQF 122200Z 21003KT 15SM SKC 04/M13 A2959 RMK SLP057

CYQF;2009-11-12 23:00;CYQF 122300Z 20004KT 15SM SKC 03/M13 A2958 RMK SLP055

CYQF;2009-11-13 00:00;CYQF 130000Z 18005KT 15SM SKC M01/M13 A2957 RMK SLP057

CYQF;2009-11-13 01:00;CYQF 130100Z 18006KT 15SM SKC M05/M14 A2956 RMK SLP055

CYQF;2009-11-13 02:00;CYQF 130200Z 19007KT 15SM SKC M07/M15 A2956 RMK SLP054

CYQF;2009-11-13 03:00;CYQF 130300Z 21006KT 15SM SKC M08/M15 A2955 RMK SLP065

CYQF;2009-11-13 04:00;CYQF 130400Z 21005KT 15SM SKC M09/M15 A2955 RMK SLP064

CYQF;2009-11-13 05:00;CYQF 130500Z 19006KT 15SM SKC M09/M15 A2954 RMK SLP062

CYQF;2009-11-13 06:00;CYQF 130600Z 21007KT 15SM SKC M09/M15 A2953 RMK SLP049

CYQF;2009-11-13 07:00;CYQF 130700Z 21005KT 15SM SKC M09/M15 A2952 RMK SLP046

CYQF;2009-11-13 08:00;CYQF 130800Z 20003KT 15SM SKC M11/M16 A2950 RMK SLP040

CYQF;2009-11-13 09:00;CYQF 130900Z 20005KT 15SM SKC M11/M16 A2949 RMK SLP030

CYQF;2009-11-13 10:00;CYQF 131000Z 17003KT 15SM SKC M11/M16 A2948 RMK SLP027

CYQF;2009-11-13 11:00;CYQF 131100Z 22003KT 15SM SKC M12/M16 A2946 RMK SLP022

CYQF;2009-11-13 12:00;CYQF 131200Z 18005KT 15SM SKC M12/M16 A2945 RMK SLP022

CYQF;2009-11-13 13:00;CYQF 131300Z 18005KT 15SM SKC M13/M18 A2943 RMK SLP018

CYQF;2009-11-13 14:00;CYQF 131400Z 19003KT 15SM SKC M13/M17 A2942 RMK SLP015

CYQF;2009-11-13 15:00;CYQF 131500Z 20007KT 15SM FEW250 M14/M17 A2942 RMK CI1 SLP023

CYQF;2009-11-13 16:00;CYQF 131600Z 18004KT 15SM FEW250 M11/M15 A2941 RMK CI1 SLP020

CYQF;2009-11-13 17:00;CYQF 131700Z 18006KT 15SM FEW250 M05/M11 A2939 RMK CI2 SLP016

CYQF;2009-11-13 18:00;CYQF 131800Z 18005KT 15SM FEW250 M02/M11 A2938 RMK CI2 SLP999

CYQF;2009-11-13 19:00;CYQF 131900Z 21005KT 15SM FEW250 03/M11 A2936 RMK CI2 SLP993

CYQF;2009-11-13 20:00;CYQF 132000Z 26005KT 15SM FEW250 05/M12 A2935 RMK CI1 SLP987

CYQF;2009-11-13 21:00;CYQF 132100Z 28006KT 15SM FEW250 07/M13 A2935 RMK CI1 SLP978

CYQF;2009-11-13 22:00;CYQF 132200Z 28005KT 15SM FEW250 07/M15 A2935 RMK CI1 SLP979

CYQF;2009-11-13 23:00;CYQF 132300Z 00000KT 15SM FEW120 SCT250 03/M14 A2938 RMK AC2CI1 SLP987

CYQF;2009-11-14 00:00;CYQF 140000Z 30004KT 15SM FEW120 SCT250 M02/M15 A2940 RMK AC2CI0 SLP006

CYQF;2009-11-14 01:00;CYQF 140100Z 31006KT 15SM FEW120 SCT250 M01/M13 A2943 RMK AC2CI1 SLP015

CYQF;2009-11-14 02:00;CYQF 140200Z 34005KT 15SM FEW100 BKN250 M00/M12 A2945 RMK AC2CI1 SLP023

CYQF;2009-11-14 03:00;CYQF 140300Z 27004KT 15SM SCT100 BKN250 M05/M13 A2948 RMK AC3CI2 SLP040

CYQF;2009-11-14 04:00;CYQF 140400Z 23005KT 15SM SCT100 BKN250 M03/M13 A2951 RMK AC3CI2 SLP051

CYQF;2009-11-14 05:00;CYQF 140500Z 29003KT 15SM SCT100 BKN250 M05/M13 A2955 RMK AC3CI3 SLP061

CYQF;2009-11-14 06:00;CYQF 140600Z 30008KT 15SM BKN080 OVC250 00/M11 A2958 RMK AC6CI2 SLP056

CYQF;2009-11-14 07:00;CYQF 140700Z 29008KT 15SM BKN080 OVC250 00/M10 A2962 RMK AC5CI3 SLP068

CYQF;2009-11-14 07:45;CYQF 140745Z 34016G23KT 15SM OVC080 RMK AC8 WND SHFT 0739

CYQF;2009-11-14 08:00;CYQF 140800Z 34014G20KT 15SM BKN080 00/M09 A2966 RMK AC6 SLP081

CYQF;2009-11-14 09:00;CYQF 140900Z 34008KT 15SM FEW080 BKN250 M02/M09 A2971 RMK AC2CI1 SLP092

CYQF;2009-11-14 10:00;CYQF 141000Z 29006KT 15SM SCT080 BKN250 M04/M09 A2975 RMK AC3CI0 SLP106

CYQF;2009-11-14 11:00;CYQF 141100Z 34006KT 15SM FEW250 M05/M10 A2979 RMK CI0 SLP117

CYQF;2009-11-14 12:00;CYQF 141200Z 34007KT 15SM SKC M06/M13 A2982 RMK SLP146

CYQF;2009-11-14 13:00;CYQF 141300Z 31004KT 15SM SKC M08/M14 A2984 RMK SLP153

CYQF;2009-11-14 14:00;CYQF 141400Z 27005KT 15SM FEW080 M11/M15 A2986 RMK AC1 SLP160

CYQF;2009-11-14 15:00;CYQF 141500Z 27005KT 15SM FEW100 M10/M14 A2989 RMK AC1 SLP178

CYQF;2009-11-14 16:00;CYQF 141600Z 24005KT 15SM FEW100 M09/M12 A2991 RMK AC1 SLP184

CYQF;2009-11-14 17:00;CYQF 141700Z 24006KT 15SM SKC M04/M10 A2992 RMK SLP188

CYQF;2009-11-14 18:00;CYQF 141800Z 23005KT 15SM SKC M01/M10 A2993 RMK SLP176

CYQF;2009-11-14 19:00;CYQF 141900Z 24005KT 15SM SKC 01/M13 A2991 RMK SLP171

CYQF;2009-11-14 20:00;CYQF 142000Z 21005KT 15SM SKC 01/M15 A2990 RMK SLP168

CYQF;2009-11-14 21:00;CYQF 142100Z 20010KT 15SM SKC 01/M14 A2989 RMK SLP161

CYQF;2009-11-14 22:00;CYQF 142200Z 18010KT 15SM FEW250 01/M13 A2986 RMK CI1 SLP153

CYQF;2009-11-14 23:00;CYQF 142300Z 17008KT 15SM FEW040 SCT250 M00/M13 A2984 RMK SC2CI1 SLP147

CYQF;2009-11-15 00:00;CYQF 150000Z 17009KT 15SM FEW120 SCT250 M03/M13 A2981 RMK AC2CI2 SLP146

CYQF;2009-11-15 01:00;CYQF 150100Z 17009KT 15SM FEW120 FEW250 M03/M12 A2980 RMK AC1CI2 SLP142

CYQF;2009-11-15 02:00;CYQF 150200Z 17012KT 15SM FEW120 FEW250 M03/M12 A2976 RMK AC1CI2 SLP129

CYQF;2009-11-15 03:00;CYQF 150300Z 17010KT 15SM SKC M04/M11 A2974 RMK SLP126

CYQF;2009-11-15 04:00;CYQF 150400Z 18008KT 15SM SKC M04/M12 A2972 RMK SLP120

CYQF;2009-11-15 05:00;CYQF 150500Z 17007KT 15SM SCT250 M05/M12 A2970 RMK CI2 SLP115

CYQF;2009-11-15 06:00;CYQF 150600Z 18007KT 15SM SKC M06/M13 A2969 RMK SLP099

CYQF;2009-11-15 07:00;CYQF 150700Z 19007KT 15SM SKC M09/M14 A2968 RMK SLP096

CYQF;2009-11-15 08:00;CYQF 150800Z 21003KT 15SM SKC M08/M14 A2968 RMK SLP098

CYQF;2009-11-15 09:00;CYQF 150900Z 24005KT 15SM OVC250 M07/M13 A2969 RMK CI4 SLP099

CYQF;2009-11-15 10:00;CYQF 151000Z 23004KT 15SM OVC250 07/M12 A2969 RMK CI8 SLP100

CYQF;2009-11-15 11:00;CYQF 151100Z 21004KT 15SM OVC250 M06/M12 A2968 RMK CI8 SLP097

CYQF;2009-11-15 12:00;CYQF 151200Z 21005KT 15SM OVC250 M05/M11 A2969 RMK CI8 SLP100

CYQF;2009-11-15 13:00;CYQF 151300Z 19005KT 15SM OVC250 M03/M10 A2968 RMK CI8 SLP098

CYQF;2009-11-15 14:00;CYQF 151400Z 20004KT 15SM FEW100 BKN250 M01/M08 A2966 RMK AC2CI6 SLP093

CYQF;2009-11-15 15:00;CYQF 151500Z 22008KT 15SM SCT100 BKN250 M03/M09 A2967 RMK AC3CI3 SLP095

CYQF;2009-11-15 16:00;CYQF 151600Z 21005KT 15SM SCT100 BKN250 M01/M07 A2968 RMK AC4CI3 SLP096

CYQF;2009-11-15 17:00;CYQF 151700Z 00000KT 15SM FEW050 BKN100 BKN250 02/M06 A2969 RMK SC2AC3CI2 SH DIST S SLP099

CYQF;2009-11-15 18:00;CYQF 151800Z 21005KT 15SM FEW050 BKN090 BKN250 04/M06 A2970 RMK SC2AC4CI2 SLP099

CYQF;2009-11-15 19:00;CYQF 151900Z 19005KT 15SM FEW050 BKN090 BKN250 05/M06 A2970 RMK SC2AC4CI2 SLP099

CYQF;2009-11-15 20:00;CYQF 152000Z 00000KT 15SM FEW050 BKN100 BKN250 07/M05 A2970 RMK SC1AC4CI2 SLP097

CYQF;2009-11-15 21:00;CYQF 152100Z 18002KT 15SM FEW040 BKN100 BKN250 08/M06 A2968 RMK CU1AC5CI2 SLP087

CYQF;2009-11-15 22:00;CYQF 152200Z 18007KT 15SM FEW040 BKN100 BKN250 08/M05 A2966 RMK CU1AC4CI2 SLP081

CYQF;2009-11-15 23:00;CYQF 152300Z 21012KT 15SM FEW040 BKN100 BKN250 08/M05 A2966 RMK CU1AC4CI2 SLP082

CYQF;2009-11-16 00:00;CYQF 160000Z 19014KT 15SM FEW040 BKN100 BKN250 08/M06 A2965 RMK CU1AC4CI2 SLP073

CYQF;2009-11-16 01:00;CYQF 160100Z 20013KT 15SM SCT100 BKN250 07/M06 A2965 RMK AC3CI2 SLP074

CYQF;2009-11-16 02:00;CYQF 160200Z 22007KT 15SM FEW100 BKN250 06/M06 A2965 RMK AC2CI3 SLP075

CYQF;2009-11-16 03:00;CYQF 160300Z 21011KT 15SM FEW100 BKN250 06/M06 A2964 RMK AC2CI3 SLP072

CYQF;2009-11-16 04:00;CYQF 160400Z 20014KT 15SM FEW100 BKN250 07/M05 A2964 RMK AC2CI3 SLP070

CYQF;2009-11-16 05:00;CYQF 160500Z 20012KT 15SM FEW100 BKN250 06/M05 A2962 RMK AC2CI3 SLP066

CYQF;2009-11-16 06:00;CYQF 160600Z 20012KT 15SM FEW100 BKN250 05/M05 A2962 RMK AC1CI2 SLP058

CYQF;2009-11-16 07:00;CYQF 160700Z 20009KT 15SM FEW100 SCT250 05/M05 A2963 RMK AC1CI2 SLP061

CYQF;2009-11-16 08:00;CYQF 160800Z 20010G15KT 15SM FEW100 SCT250 05/M05 A2961 RMK AC1CI1 SLP055

CYQF;2009-11-16 09:00;CYQF 160900Z 19010G15KT 15SM FEW100 04/M05 A2960 RMK AC1 SLP048

CYQF;2009-11-16 10:00;CYQF 161000Z 17008KT 15SM FEW100 04/M05 A2959 RMK AC1 SLP044

CYQF;2009-11-16 11:00;CYQF 161100Z 19012G18KT 15SM FEW100 BKN250 07/M04 A2958 RMK AC1CI2 SLP040

CYQF;2009-11-16 12:00;CYQF 161200Z 19013G20KT 15SM FEW100 BKN250 08/M04 A2956 RMK AC1CI2 SLP029

CYQF;2009-11-16 13:00;CYQF 161300Z 18010G15KT 15SM FEW100 BKN250 08/M04 A2956 RMK AC1CI2 SLP029

CYQF;2009-11-16 14:00;CYQF 161400Z 18015G20KT 15SM FEW100 BKN250 09/M04 A2955 RMK AC1CI2 SLP025

CYQF;2009-11-16 15:00;CYQF 161500Z 17010G15KT 15SM FEW100 BKN250 08/M04 A2954 RMK AC2CI2 SLP024

CYQF;2009-11-16 16:00;CYQF 161600Z 18015G20KT 15SM BKN100 BKN250 09/M04 A2953 RMK AC5CI1 SLP021

CYQF;2009-11-16 17:00;CYQF 161700Z 16013G18KT 15SM FEW040 SCT100 BKN250 10/M04 A2953 RMK CU1AC4CI2 SLP020

CYQF;2009-11-16 18:00;CYQF 161800Z 17015G20KT 15SM FEW060 SCT100 BKN250 11/M04 A2951 RMK CU1AC3CI2 SLP011

CYQF;2009-11-16 19:00;CYQF 161900Z 18015G25KT 15SM SCT100 BKN250 13/M04 A2949 RMK AC3CI2 SLP005

CYQF;2009-11-16 20:00;CYQF 162000Z 18015G25KT 15SM SCT100 BKN250 14/M03 A2947 RMK AC3CI2 SLP001

CYQF;2009-11-16 22:00;CYQF 162200Z 23018G27KT 15SM BKN100 BKN250 14/M04 A2947 RMK AC5CI2 SLP996

CYQF;2009-11-16 23:00;CYQF 162300Z 18015G23KT 15SM BKN100 10/M04 A2948 RMK AC6 SLP002

CYQF;2009-11-17 00:00;CYQF 170000Z 18010KT 15SM SCT120 BKN250 08/M04 A2947 RMK AC3CI2 SLP998

CYQF;2009-11-17 01:00;CYQF 170100Z 19013KT 15SM SCT120 BKN250 09/M04 A2947 RMK AC3CI2 SLP999

CYQF;2009-11-17 02:00;CYQF 170200Z 19015G20KT 15SM FEW120 BKN250 08/M04 A2949 RMK AC2CI4 SLP003

CYQF;2009-11-17 03:00;CYQF 170300Z 19010G17KT 15SM BKN250 08/M03 A2950 RMK CI6 SLP007

CYQF;2009-11-17 04:00;CYQF 170400Z 20010KT 15SM BKN250 06/M04 A2951 RMK CI4 SLP011

CYQF;2009-11-17 05:00;CYQF 170500Z 18012KT 15SM BKN250 05/M04 A2951 RMK CI7 SLP012

CYQF;2009-11-17 06:00;CYQF 170600Z 17013KT 15SM BKN250 06/M03 A2952 RMK CI3 SLP014

CYQF;2009-11-17 07:00;CYQF 170700Z 18010KT 15SM SKC 06/M03 A2952 RMK SLP013

CYQF;2009-11-17 08:00;CYQF 170800Z 16008KT 15SM SKC 04/M04 A2950 RMK SLP007

CYQF;2009-11-17 09:00;CYQF 170900Z 16010G15KT 15SM BKN210 05/M03 A2946 RMK CI3 SLP993

CYQF;2009-11-17 10:00;CYQF 171000Z 16010G15KT 15SM BKN210 06/M03 A2943 RMK CI6 SLP982

CYQF;2009-11-17 11:00;CYQF 171100Z 17010G15KT 15SM BKN210 06/M03 A2939 RMK CI5 SLP971

CYQF;2009-11-17 12:00;CYQF 171200Z 18010G15KT 15SM SCT210 07/M04 A2935 RMK CI2 SLP958

CYQF;2009-11-17 13:00;CYQF 171300Z 18015G20KT 15SM FEW210 06/M04 A2934 RMK CI0 SLP953

CYQF;2009-11-17 14:00;CYQF 171400Z 18010G15KT 15SM FEW210 04/M05 A2931 RMK CI1 SLP945

CYQF;2009-11-17 15:00;CYQF 171500Z 18007KT 15SM FEW120 FEW250 05/M05 A2930 RMK AC1CI1 TR CI SLP945

CYQF;2009-11-17 16:00;CYQF 171600Z 19014KT 15SM FEW100 FEW250 06/M05 A2929 RMK AC1CI1 SLP943

CYQF;2009-11-17 17:00;CYQF 171700Z 20015KT 15SM FEW120 09/M04 A2929 RMK AC1 SLP941

CYQF;2009-11-17 18:00;CYQF 171800Z 19015G25KT 15SM FEW120 13/M03 A2928 RMK AC1 SLP931

CYQF;2009-11-17 19:00;CYQF 171900Z 21016G27KT 15SM FEW120 14/M03 A2927 RMK AC1 SLP927

CYQF;2009-11-17 20:00;CYQF 172000Z 21020G35KT 15SM FEW120 15/M05 A2929 RMK AC1 SLP932

CYQF;2009-11-17 21:00;CYQF 172100Z 21020G35KT 15SM FEW040 13/M04 A2932 RMK CU2 SH SW-W SLP944

CYQF;2009-11-17 22:00;CYQF 172200Z 22018G26KT 15SM FEW040 FEW080 12/M03 A2936 RMK CF1AC1 SLP956

CYQF;2009-11-17 23:00;CYQF 172300Z 23018KT 15SM FEW040 11/M03 A2939 RMK CU1 SLP966

CYQF;2009-11-18 00:00;CYQF 180000Z 22008KT 15SM FEW040 07/M03 A2942 RMK CU2 SLP984

CYQF;2009-11-18 01:00;CYQF 180100Z 28010KT 15SM FEW040 04/M03 A2946 RMK SC2 SLP996

CYQF;2009-11-18 02:00;CYQF 180200Z 29010KT 15SM FEW050 04/M01 A2950 RMK SC1 SLP008

CYQF;2009-11-18 03:00;CYQF 180300Z 30010KT 15SM FEW050 03/M03 A2952 RMK SC1 SLP023

CYQF;2009-11-18 04:00;CYQF 180400Z 30006KT 15SM SKC 02/M05 A2955 RMK SLP033

CYQF;2009-11-18 05:00;CYQF 180500Z 17005KT 15SM FEW080 01/M06 A2960 RMK AC2 SLP048

CYQF;2009-11-18 06:00;CYQF 180600Z 27005KT 15SM FEW080 M00/M06 A2960 RMK AC2 SLP048

CYQF;2009-11-18 07:00;CYQF 180700Z 18005KT 15SM FEW080 M03/M07 A2962 RMK AC2 SLP052

CYQF;2009-11-18 08:00;CYQF 180800Z 21005KT 15SM FEW080 FEW250 M06/M09 A2962 RMK AC1CI1 OBS TAKEN +08 SLP053

CYQF;2009-11-18 09:00;CYQF 180900Z 23005KT 15SM FEW080 M06/M09 A2963 RMK AC2 SLP064

CYQF;2009-11-18 10:00;CYQF 181000Z 18003KT 15SM FEW080 M05/M08 A2963 RMK AC2 OBS TAKEN +11 SLP062

CYQF;2009-11-18 11:00;CYQF 181100Z 21004KT 15SM FEW080 M04/M07 A2964 RMK AC2 SLP066

CYQF;2009-11-18 12:00;CYQF 181200Z 18005KT 15SM FEW080 M07/M09 A2965 RMK AC1 SLP079

CYQF;2009-11-18 13:00;CYQF 181300Z 21004KT 15SM SKC M09/M11 A2966 RMK SLP080

CYQF;2009-11-18 14:00;CYQF 181400Z 18005KT 15SM SKC M08/M10 A2968 RMK SLP087

CYQF;2009-11-18 15:00;CYQF 181500Z 21006KT 15SM FEW090 M10/M12 A2969 RMK AC1 SLP100

CYQF;2009-11-18 16:00;CYQF 181600Z 21006KT 15SM FEW050 FEW100 M08/M10 A2972 RMK SC1AC1 SLP108

CYQF;2009-11-18 17:00;CYQF 181700Z 21008KT 15SM FEW050 FEW100 M01/M05 A2974 RMK SC1AC2 SLP114

CYQF;2009-11-18 18:00;CYQF 181800Z 24004KT 15SM FEW050 SCT100 03/M04 A2976 RMK CU1AC2 SLP112

CYQF;2009-11-18 19:00;CYQF 181900Z 23003KT 15SM FEW050 SCT100 04/M06 A2976 RMK CU1AC2 SLP113

CYQF;2009-11-18 20:00;CYQF 182000Z 00000KT 15SM FEW050 FEW100 06/M08 A2976 RMK CU1AC1 SLP115

CYQF;2009-11-18 21:00;CYQF 182100Z 23014KT 15SM FEW050 07/M12 A2976 RMK CU1 SLP115

CYQF;2009-11-18 22:00;CYQF 182200Z 23010G15KT 15SM FEW060 FEW250 06/M13 A2976 RMK SC1CI1 SLP117

CYQF;2009-11-18 23:00;CYQF 182300Z CCA 22008KT 15SM FEW060 SCT250 03/M20 A2978 RMK SC1CI1 SLP122

CYQF;2009-11-19 00:00;CYQF 190000Z 18005KT 15SM FEW060 FEW250 M00/M13 A2981 RMK SC1CI1 SLP140

CYQF;2009-11-19 01:00;CYQF 190100Z 20006KT 15SM FEW060 M05/M14 A2982 RMK SC1 SLP144

CYQF;2009-11-19 02:00;CYQF 190200Z 18005KT 15SM SKC M04/M14 A2983 RMK SLP148

CYQF;2009-11-19 03:00;CYQF 190300Z 21005KT 15SM SKC M04/M13 A2983 RMK SLP155

CYQF;2009-11-19 04:00;CYQF 190400Z 14003KT 15SM BKN230 M03/M13 A2982 RMK CI3 SLP154

CYQF;2009-11-19 05:00;CYQF 190500Z 13006KT 15SM FEW100 BKN230 M02/M12 A2980 RMK AC2CI3 SLP146

CYQF;2009-11-19 06:00;CYQF 190600Z 20010KT 15SM SCT120 OVC230 M01/M11 A2977 RMK AC3CI2 SLP119

CYQF;2009-11-19 07:00;CYQF 190700Z 20010KT 15SM BKN120 OVC230 01/M12 A2976 RMK AC6CI2 SLP113

CYQF;2009-11-19 08:00;CYQF 190800Z 17010KT 15SM SCT120 SCT250 M01/M13 A2972 RMK AC3CI1 SLP103

CYQF;2009-11-19 09:00;CYQF 190900Z 17010KT 15SM FEW100 SCT250 M02/M13 A2970 RMK AC2CI2 SLP091

CYQF;2009-11-19 10:00;CYQF 191000Z 17009KT 15SM SCT100 M02/M12 A2967 RMK AC3 SLP081

CYQF;2009-11-19 11:00;CYQF 191100Z 18012KT 15SM SCT100 BKN250 M01/M12 A2964 RMK AC3CI1 SLP071

CYQF;2009-11-19 12:00;CYQF 191200Z 18012KT 15SM SCT100 SCT250 M01/M11 A2962 RMK AC3CI0 SLP068

CYQF;2009-11-19 13:00;CYQF 191300Z 17010KT 15SM SCT100 BKN250 M01/M11 A2959 RMK AC3CI3 SLP059

CYQF;2009-11-19 14:00;CYQF 191400Z 17015KT 15SM SCT100 BKN250 01/M09 A2957 RMK AC3CI3 SLP055

CYQF;2009-11-19 15:00;CYQF 191500Z 17012KT 15SM FEW100 BKN250 00/M10 A2958 RMK AC2CI3 SLP058

CYQF;2009-11-19 16:00;CYQF 191600Z 17007KT 15SM FEW100 BKN250 00/M09 A2961 RMK AC2CI3 SLP068

CYQF;2009-11-19 17:00;CYQF 191700Z 17005KT 15SM SCT100 BKN250 01/M08 A2962 RMK AC3CI3 SLP071

CYQF;2009-11-19 18:00;CYQF 191800Z 18005KT 15SM FEW100 BKN250 04/M08 A2963 RMK AC2CI2 SLP067

CYQF;2009-11-19 19:00;CYQF 191900Z 21005KT 15SM FEW100 BKN250 07/M07 A2962 RMK AC2CI2 SLP064

CYQF;2009-11-19 20:00;CYQF 192000Z 26010G15KT 15SM FEW100 BKN250 10/M09 A2963 RMK AC2CI2 SLP068

CYQF;2009-11-19 21:00;CYQF 192100Z 26007KT 15SM FEW100 BKN250 10/M10 A2965 RMK AC2CI2 SLP068

CYQF;2009-11-19 22:00;CYQF 192200Z 25005KT 15SM SCT100 BKN260 09/M10 A2967 RMK AC3CI2 SLP075

CYQF;2009-11-19 23:00;CYQF 192300Z 23005KT 15SM BKN120 OVC250 06/M09 A2968 RMK AC5CI2 SLP080

CYQF;2009-11-20 00:00;CYQF 200000Z 00000KT 15SM SCT120 BKN250 04/M10 A2969 RMK AC3CI2 SLP089

CYQF;2009-11-20 01:00;CYQF 200100Z 00000KT 15SM FEW250 M01/M10 A2970 RMK CI1 SLP091

CYQF;2009-11-20 02:00;CYQF 200200Z 21005KT 15SM FEW250 M03/M11 A2968 RMK CI1 SLP086

CYQF;2009-11-20 03:00;CYQF 200300Z 12003KT 15SM FEW250 M04/M11 A2968 RMK CI1 SLP094

CYQF;2009-11-20 04:00;CYQF 200400Z 00000KT 15SM SCT250 M04/M11 A2966 RMK CI2 SLP087

CYQF;2009-11-20 05:00;CYQF 200500Z 19005KT 15SM FEW250 M04/M10 A2966 RMK CI1 SLP086

CYQF;2009-11-20 06:00;CYQF 200600Z 00000KT 15SM SKC M04/M10 A2963 RMK SLP071

CYQF;2009-11-20 07:00;CYQF 200700Z 17008KT 15SM SKC M05/M10 A2961 RMK SLP066

CYQF;2009-11-20 08:00;CYQF 200800Z 17006KT 15SM FEW100 BKN250 M02/M08 A2957 RMK AC2CI4 SLP054

CYQF;2009-11-20 09:00;CYQF 200900Z 17009KT 15SM FEW100 BKN250 M03/M08 A2956 RMK AC2CI2 SLP040

CYQF;2009-11-20 10:00;CYQF 201000Z 17008KT 15SM FEW100 BKN250 M00/M06 A2953 RMK AC2CI3 SLP031

CYQF;2009-11-20 11:00;CYQF 201100Z 18008KT 15SM FEW100 BKN250 01/M06 A2950 RMK AC2CI4 SLP022

CYQF;2009-11-20 12:00;CYQF 201200Z 18012KT 15SM SCT100 BKN250 03/M05 A2947 RMK AC4CI3 OBS TAKEN +06 SLP010

CYQF;2009-11-20 13:00;CYQF 201300Z 18009KT 15SM SCT100 BKN250 01/M05 A2946 RMK AC4CI3 SLP007

CYQF;2009-11-20 14:00;CYQF 201400Z 00000KT 15SM FEW100 BKN250 00/M05 A2945 RMK AC2CI2 SLP001

CYQF;2009-11-20 15:00;CYQF 201500Z 15008KT 15SM FEW100 BKN250 02/M05 A2943 RMK AC2CI2 SLP005

CYQF;2009-11-20 16:00;CYQF 201600Z 17006KT 15SM FEW100 BKN250 01/M05 A2941 RMK AC2CI3 SLP998

CYQF;2009-11-20 17:00;CYQF 201700Z 16007KT 15SM FEW030 FEW120 OVC250 04/M05 A2939 RMK CU1AC2CI1 SLP993

CYQF;2009-11-20 18:00;CYQF 201800Z 00000KT 15SM FEW030 FEW120 BKN250 07/M04 A2936 RMK SC1AC2CI2 SLP975

CYQF;2009-11-20 19:00;CYQF 201900Z 18006KT 15SM FEW030 FEW120 BKN250 10/M05 A2933 RMK SC1AC2CI2 SLP964

CYQF;2009-11-20 20:00;CYQF 202000Z 18008KT 15SM FEW030 SCT120 BKN250 10/M05 A2930 RMK SC1AC2CI2 SLP956

CYQF;2009-11-20 21:00;CYQF 202100Z 18008KT 15SM FEW030 SCT120 BKN250 12/M05 A2927 RMK SC1AC3CI2 SLP938

CYQF;2009-11-20 22:00;CYQF 202200Z 17008KT 15SM FEW040 SCT120 OVC250 11/M05 A2926 RMK SC1AC3CI2 SLP933

CYQF;2009-11-20 23:00;CYQF 202300Z 18007KT 15SM FEW040 SCT120 OVC250 08/M06 A2923 RMK SC1AC3CI2 SLP925

CYQF;2009-11-21 00:00;CYQF 210000Z 18006KT 15SM FEW040 SCT120 OVC250 06/M07 A2923 RMK SC2AC2CI2 SLP922

CYQF;2009-11-21 01:00;CYQF 210100Z 20006KT 15SM SCT100 BKN250 03/M07 A2922 RMK AC3CI2 SLP919

CYQF;2009-11-21 02:00;CYQF 210200Z 23010KT 15SM BKN120 BKN250 04/M07 A2919 RMK AC5CI2 SLP912

CYQF;2009-11-21 03:00;CYQF 210300Z 33004KT 15SM FEW100 OVC250 07/M07 A2919 RMK AC2CI5 SLP910

CYQF;2009-11-21 03:17;CYQF 210317Z 24010G15KT 15SM FEW100 OVC250 RMK AC2CI5 WND SHFT 0317

CYQF;2009-11-21 04:00;CYQF 210400Z 24007KT 15SM BKN100 OVC250 07/M07 A2919 RMK AC6CI2 SLP910

CYQF;2009-11-21 05:00;CYQF 210500Z 24010G15KT 15SM BKN100 OVC250 08/M07 A2920 RMK AC6CI2 SLP912

CYQF;2009-11-21 06:00;CYQF 210600Z 23007KT 15SM BKN100 OVC250 07/M07 A2919 RMK AC6CI2 SLP904

CYQF;2009-11-21 07:00;CYQF 210700Z 23008KT 15SM OVC080 06/M07 A2920 RMK AC8 SLP907

CYQF;2009-11-21 08:00;CYQF 210800Z 33004KT 15SM OVC080 05/M07 A2921 RMK AC8 SLP911

CYQF;2009-11-21 09:00;CYQF 210900Z 36004KT 15SM FEW080 BKN210 04/M06 A2923 RMK AC2CI2 SLP914

CYQF;2009-11-21 10:00;CYQF 211000Z 33006KT 15SM FEW080 BKN210 M00/M06 A2926 RMK AC2CI2 SLP925

CYQF;2009-11-21 11:00;CYQF 211100Z 33010KT 15SM SCT080 BKN210 02/M05 A2930 RMK AC3CI2 SLP936

CYQF;2009-11-21 12:00;CYQF 211200Z 31010KT 15SM OVC080 02/M04 A2932 RMK AC8 SLP954

CYQF;2009-11-21 13:00;CYQF 211300Z 32008KT 15SM BKN040 OVC080 02/M01 A2935 RMK SC6AC2 SLP964

CYQF;2009-11-21 14:00;CYQF 211400Z 32015KT 10SM -SN BKN040 OVC080 01/M01 A2938 RMK SC7AC1 SLP973

CYQF;2009-11-21 15:00;CYQF 211500Z 30005KT 15SM -SN SCT040 OVC090 01/M01 A2942 RMK SC3AC5 SLP988

CYQF;2009-11-21 15:45;CYQF 211545Z 35010KT 15SM FEW015 OVC090 RMK SC2AC6

CYQF;2009-11-21 16:00;CYQF 211600Z 32010KT 15SM SCT015 BKN080 OVC210 01/M01 A2945 RMK SC3AC3CI1 SLP999

CYQF;2009-11-21 17:00;CYQF 211700Z 32010G15KT 15SM FEW015 FEW050 BKN080 OVC210 02/M02 A2949 RMK SC2SC1AC3CI2 SLP012

CYQF;2009-11-21 18:00;CYQF 211800Z 34010KT 15SM FEW020 SCT050 BKN120 02/M03 A2950 RMK SC1SC3AC2 SLP017

CYQF;2009-11-21 19:00;CYQF 211900Z 34010KT 15SM BKN050 BKN120 03/M04 A2952 RMK SC5AC1 SLP023

CYQF;2009-11-21 20:00;CYQF 212000Z 33008KT 15SM SCT060 BKN230 03/M04 A2954 RMK SC3CI1 SLP028

CYQF;2009-11-21 21:00;CYQF 212100Z 27007KT 15SM FEW060 FEW230 04/M05 A2955 RMK SC1CI1 SLP035

CYQF;2009-11-21 22:00;CYQF 212200Z 33010KT 15SM FEW040 FEW250 04/M07 A2957 RMK SC1CI0 TCU DIST W SLP041

CYQF;2009-11-21 23:00;CYQF 212300Z 00000KT 15SM FEW040 FEW250 01/M07 A2958 RMK SC1CI0 TCU/SH DIST NW SLP046

CYQF;2009-11-22 00:00;CYQF 220000Z 25002KT 15SM BKN040 BKN250 M02/M08 A2961 RMK CU5CI0 VIRGA TCU ASOCTD SLP066

CYQF;2009-11-22 00:21;CYQF 220021Z 23004KT 15SM -SHSN BKN040 BKN250 RMK CU5CI1

CYQF;2009-11-22 00:41;CYQF 220041Z 00000KT 15SM BKN040 BKN250 RMK CU5CI1

CYQF;2009-11-22 01:00;CYQF 220100Z 35003KT 15SM BKN040 BKN100 01/M06 A2962 RMK CU5AC1 SLP069

CYQF;2009-11-22 01:15;CYQF 220115Z 33002KT 15SM -SHSN BKN040 BKN100 RMK CU5AC2

CYQF;2009-11-22 01:48;CYQF 220148Z 02002KT 15SM SCT040 SCT100 BKN250 RMK CU3AC1CI0

CYQF;2009-11-22 02:00;CYQF 220200Z 02004KT 15SM FEW040 SCT100 SCT250 M00/M05 A2962 RMK SC2AC1CI0 SLP069

CYQF;2009-11-22 03:00;CYQF 220300Z 19005KT 15SM FEW250 M03/M07 A2961 RMK CI0 SLP068

CYQF;2009-11-22 04:00;CYQF 220400Z 20004KT 15SM FEW100 M04/M07 A2961 RMK AC1 SLP067

CYQF;2009-11-22 05:00;CYQF 220500Z 00000KT 15SM FEW100 M06/M09 A2961 RMK AC1 SLP068

CYQF;2009-11-22 06:00;CYQF 220600Z 20004KT 15SM SKC M08/M10 A2961 RMK SLP070

CYQF;2009-11-22 07:00;CYQF 220700Z 21004KT 15SM SKC M10/M12 A2960 RMK SLP067

CYQF;2009-11-22 08:00;CYQF 220800Z 00000KT 15SM SKC M09/M11 A2959 RMK SLP063

CYQF;2009-11-22 09:00;CYQF 220900Z 20004KT 15SM SKC M11/M13 A2958 RMK SLP064

CYQF;2009-11-22 10:00;CYQF 221000Z 00000KT 15SM SKC M09/M12 A2959 RMK SLP066

CYQF;2009-11-22 11:00;CYQF 221100Z 20004KT 15SM SKC M12/M14 A2958 RMK SLP064

CYQF;2009-11-22 12:00;CYQF 221200Z 00000KT 15SM SKC M11/M13 A2959 RMK SLP071

CYQF;2009-11-22 13:00;CYQF 221300Z 00000KT 15SM SKC M12/M15 A2958 RMK SLP069

CYQF;2009-11-22 14:00;CYQF 221400Z 00000KT 15SM FEW120 M11/M14 A2957 RMK AC1 SLP067

CYQF;2009-11-22 15:00;CYQF 221500Z 22003KT 15SM FEW010 SCT100 M13/M15 A2959 RMK ST1AC2 VIS W-NW 5 ST/BR SLP075

CYQF;2009-11-22 16:00;CYQF 221600Z 00000KT 15SM SCT100 BKN250 M10/M12 A2959 RMK AC2CI2 FG BANK N SLP076

CYQF;2009-11-22 17:00;CYQF 221700Z 00000KT 15SM FEW010 SCT100 BKN250 M08/M10 A2959 RMK ST1AC2CI2 SLP076

CYQF;2009-11-22 18:00;CYQF 221800Z 00000KT 15SM FEW010 BKN100 M07/M09 A2959 RMK SF1AS7 SLP075

CYQF;2009-11-22 19:00;CYQF 221900Z 00000KT 15SM BKN100 M05/M07 A2960 RMK AS7 SLP078

CYQF;2009-11-22 20:00;CYQF 222000Z 01002KT 15SM BKN100 BKN250 M03/M06 A2959 RMK AS6CI1 SLP075

CYQF;2009-11-22 21:00;CYQF 222100Z 02003KT 15SM OVC100 M02/M06 A2960 RMK AS7 SLP078

CYQF;2009-11-22 22:00;CYQF 222200Z 02004KT 15SM OVC080 M01/M05 A2961 RMK AC7 XTNSV VIRGA SLP081

CYQF;2009-11-22 23:00;CYQF 222300Z 09005KT 15SM BKN100 OVC250 M00/M06 A2963 RMK AC4CI2 SLP086

CYQF;2009-11-23 00:00;CYQF 230000Z 09004KT 15SM BKN100 BKN250 M01/M07 A2965 RMK AC4CI2 SLP091

CYQF;2009-11-23 01:00;CYQF 230100Z 12004KT 15SM BKN100 BKN250 M01/M07 A2966 RMK AC5CI1 SLP095

CYQF;2009-11-23 02:00;CYQF 230200Z 16004KT 15SM BKN100 OVC250 M01/M09 A2967 RMK AC6CI1 SLP097

CYQF;2009-11-23 03:00;CYQF 230300Z 16005KT 15SM BKN100 BKN250 M03/M08 A2969 RMK AC5CI2 SLP111

CYQF;2009-11-23 04:00;CYQF 230400Z 18006KT 15SM BKN100 BKN250 M03/M08 A2971 RMK AC6CI1 SLP116

CYQF;2009-11-23 05:00;CYQF 230500Z 00000KT 15SM BKN100 BKN250 M03/M08 A2973 RMK AC6CI1 SLP123

CYQF;2009-11-23 06:00;CYQF 230600Z 00000KT 15SM BKN100 M04/M07 A2975 RMK AC6 SLP126

CYQF;2009-11-23 07:00;CYQF 230700Z 00000KT 15SM SCT100 M06/M08 A2976 RMK AC3 SLP130

CYQF;2009-11-23 08:00;CYQF 230800Z 00000KT 15SM FEW100 M09/M11 A2977 RMK AC2 SLP132

CYQF;2009-11-23 09:00;CYQF 230900Z 26004KT 15SM FEW100 M10/M12 A2980 RMK AC2 SLP145

CYQF;2009-11-23 10:00;CYQF 231000Z 23004KT 15SM FEW100 M11/M13 A2982 RMK AC2 SLP150

CYQF;2009-11-23 11:00;CYQF 231100Z 22006KT 15SM FEW100 M13/M15 A2984 RMK AC2 SLP156

CYQF;2009-11-23 12:00;CYQF 231200Z 19002KT 15SM FEW100 M10/M12 A2986 RMK AC1 SLP165

CYQF;2009-11-23 13:00;CYQF 231300Z 20006KT 15SM FEW100 M11/M12 A2988 RMK AC2 SLP171

CYQF;2009-11-23 14:00;CYQF 231400Z 21005KT 15SM FEW100 M12/M14 A2990 RMK AC2 SLP177

CYQF;2009-11-23 15:00;CYQF 231500Z 00000KT 15SM SCT090 M10/M12 A2993 RMK AC4 SLP190

CYQF;2009-11-23 16:00;CYQF 231600Z 00000KT 15SM BKN080 M08/M10 A2995 RMK AC6 SLP195

CYQF;2009-11-23 17:00;CYQF 231700Z 00000KT 15SM FEW080 M06/M09 A2997 RMK AC2 SLP203

CYQF;2009-11-23 18:00;CYQF 231800Z 18003KT 15SM SKC M03/M08 A2998 RMK SLP201

CYQF;2009-11-23 19:00;CYQF 231900Z 21002KT 15SM FEW250 M00/M07 A2997 RMK CI1 SLP199

CYQF;2009-11-23 20:00;CYQF 232000Z 00000KT 15SM FEW250 02/M07 A2996 RMK CI1 SLP194

CYQF;2009-11-23 21:00;CYQF 232100Z 00000KT 15SM BKN250 02/M07 A2995 RMK CI3 SLP192

CYQF;2009-11-23 22:00;CYQF 232200Z 09004KT 15SM FEW100 BKN250 02/M07 A2995 RMK AC2CI2 SLP190

CYQF;2009-11-23 23:00;CYQF 232300Z 08002KT 15SM FEW100 BKN250 01/M07 A2993 RMK AC2CI4 SLP184

CYQF;2009-11-24 00:00;CYQF 240000Z 12003KT 15SM FEW050 SCT100 OVC250 M00/M07 A2991 RMK SC1AC2CI2 SLP180

CYQF;2009-11-24 01:00;CYQF 240100Z 15006KT 15SM BKN100 OVC250 M01/M07 A2987 RMK AC5CI2 SLP169

CYQF;2009-11-24 02:00;CYQF 240200Z 19003KT 15SM BKN100 OVC250 M00/M06 A2985 RMK AC6CI2 SLP162

CYQF;2009-11-24 03:00;CYQF 240300Z 00000KT 15SM SCT100 BKN250 M01/M06 A2985 RMK AC3CI2 SLP159

CYQF;2009-11-24 04:00;CYQF 240400Z 17004KT 15SM FEW100 BKN250 M02/M07 A2983 RMK AC2CI2 SLP153

CYQF;2009-11-24 05:00;CYQF 240500Z 00000KT 15SM FEW100 M03/M07 A2984 RMK AC1 SLP157

CYQF;2009-11-24 06:00;CYQF 240600Z 19004KT 15SM SKC M07/M10 A2985 RMK SLP158

CYQF;2009-11-24 07:00;CYQF 240700Z 25003KT 15SM SKC M07/M10 A2986 RMK SLP162

CYQF;2009-11-24 08:00;CYQF 240800Z 17002KT 15SM SKC M07/M10 A2988 RMK SLP169

CYQF;2009-11-24 09:00;CYQF 240900Z 33015G25KT 15SM SKC 00/M06 A2993 RMK PRESRR SLP171

CYQF;2009-11-24 10:00;CYQF 241000Z 01008KT 15SM FEW080 M01/M07 A2995 RMK AC2 SLP179

CYQF;2009-11-24 11:00;CYQF 241100Z 00000KT 15SM SCT080 M06/M08 A2997 RMK AC3 SLP184

CYQF;2009-11-24 12:00;CYQF 241200Z 31005KT 15SM BKN080 M01/M06 A3000 RMK AC6 SLP200

CYQF;2009-11-24 13:00;CYQF 241300Z 22007KT 15SM VCSH BKN100 M04/M07 A3001 RMK AC7 SLP205

CYQF;2009-11-24 14:00;CYQF 241400Z 00000KT 15SM BKN100 M04/M07 A3001 RMK AC7 SLP203

CYQF;2009-11-24 15:00;CYQF 241500Z 21007KT 15SM FEW100 M06/M08 A3002 RMK AC1 SLP215

CYQF;2009-11-24 16:00;CYQF 241600Z 24008KT 15SM FEW100 FEW250 M06/M08 A3004 RMK AC1CI1 SLP220

CYQF;2009-11-24 17:00;CYQF 241700Z 00000KT 15SM FEW050 FEW250 M02/M06 A3006 RMK CU1CI1 CU DIST SE SLP228

CYQF;2009-11-24 18:00;CYQF 241800Z 00000KT 15SM FEW250 02/M06 A3006 RMK CI1 SLP228

CYQF;2009-11-24 19:00;CYQF 241900Z 30005KT 15SM FEW250 05/M10 A3007 RMK CI0 SLP231

CYQF;2009-11-24 20:00;CYQF 242000Z 33010G15KT 15SM FEW250 05/M13 A3008 RMK CI0 SLP233

CYQF;2009-11-24 21:00;CYQF 242100Z 33010KT 15SM FEW250 05/M13 A3009 RMK CI1 SLP226

CYQF;2009-11-24 22:00;CYQF 242200Z 36010G15KT 15SM FEW250 04/M12 A3011 RMK CI0 SLP231

CYQF;2009-11-24 23:00;CYQF 242300Z 36003KT 15SM FEW250 03/M12 A3014 RMK CI0 SLP239

CYQF;2009-11-25 00:00;CYQF 250000Z 00000KT 15SM FEW250 M04/M13 A3013 RMK CI0 SLP251

CYQF;2009-11-25 01:00;CYQF 250100Z 20003KT 15SM FEW250 M06/M14 A3015 RMK CI1 SLP257

CYQF;2009-11-25 02:00;CYQF 250200Z 00000KT 15SM FEW250 M07/M14 A3015 RMK CI1 SLP258

CYQF;2009-11-25 03:00;CYQF 250300Z 18002KT 15SM SKC M08/M14 A3015 RMK SLP268

CYQF;2009-11-25 04:00;CYQF 250400Z 18003KT 15SM SKC M09/M14 A3014 RMK SLP266

CYQF;2009-11-25 05:00;CYQF 250500Z 15002KT 15SM FEW100 SCT250 M08/M14 A3015 RMK AC2CI1 SLP269

CYQF;2009-11-25 06:00;CYQF 250600Z 14003KT 15SM BKN100 M05/M12 A3013 RMK AC5 SLP250

CYQF;2009-11-25 07:00;CYQF 250700Z 15003KT 15SM BKN100 OVC250 M04/M12 A3011 RMK AC6CI2 SLP244

CYQF;2009-11-25 08:00;CYQF 250800Z 17005KT 15SM OVC100 M01/M11 A3009 RMK AC4 SLP236

CYQF;2009-11-25 09:00;CYQF 250900Z 18005KT 15SM FEW100 SCT250 M03/M12 A3006 RMK AC2CI0 SLP219

CYQF;2009-11-25 10:00;CYQF 251000Z 17004KT 15SM FEW250 M02/M12 A3005 RMK CI0 SLP215

CYQF;2009-11-25 11:00;CYQF 251100Z 18008KT 15SM SKC M02/M12 A3003 RMK SLP209

CYQF;2009-11-25 12:00;CYQF 251200Z 18008KT 15SM SKC M03/M12 A3001 RMK SLP211

CYQF;2009-11-25 13:00;CYQF 251300Z 18006KT 15SM FEW100 FEW250 M03/M12 A2999 RMK AC1CI1 AC TR OBS TAKEN -02 SLP204

CYQF;2009-11-25 14:00;CYQF 251400Z 14004KT 15SM FEW100 FEW250 M03/M11 A2996 RMK AC1CI2 SLP197

CYQF;2009-11-25 15:00;CYQF 251500Z 18003KT 15SM FEW100 SCT250 M05/M12 A2996 RMK AC2CI2 SLP202

CYQF;2009-11-25 16:00;CYQF 251600Z 00000KT 15SM BKN100 BKN250 M04/M10 A2994 RMK AC5CI1 SLP195

CYQF;2009-11-25 17:00;CYQF 251700Z 00000KT 15SM BKN100 BKN250 M03/M09 A2993 RMK AC6CI2 SLP192

CYQF;2009-11-25 18:00;CYQF 251800Z 16003KT 15SM BKN100 BKN250 M00/M08 A2992 RMK AC5CI2 SLP179

CYQF;2009-11-25 19:00;CYQF 251900Z 14003KT 15SM BKN100 BKN250 01/M07 A2989 RMK AC6CI2 SLP170

CYQF;2009-11-25 20:00;CYQF 252000Z 00000KT 15SM BKN100 BKN250 03/M06 A2987 RMK AC6CI2 SLP162

CYQF;2009-11-25 21:00;CYQF 252100Z 15005KT 15SM FEW040 BKN090 BKN250 02/M06 A2985 RMK SC1AC2CI1 SLP148

CYQF;2009-11-25 22:00;CYQF 252200Z 17003KT 15SM FEW040 BKN090 BKN250 02/M06 A2985 RMK SC2AC3CI2 SLP148

CYQF;2009-11-25 23:00;CYQF 252300Z 00000KT 15SM FEW040 BKN090 BKN250 02/M06 A2984 RMK SC1AC4CI1 SLP145

CYQF;2009-11-26 00:00;CYQF 260000Z 00000KT 15SM BKN090 BKN250 01/M06 A2982 RMK AC5CI2 SLP140

CYQF;2009-11-26 01:00;CYQF 260100Z CCA 00000KT 15SM BKN090 BKN250 00/M06 A2981 RMK AC5CI2 SLP136

CYQF;2009-11-26 02:00;CYQF 260200Z 00000KT 15SM BKN090 BKN250 00/M05 A2976 RMK AC5CI2 SLP122

CYQF;2009-11-26 03:00;CYQF 260300Z 00000KT 15SM SCT090 BKN250 M00/M05 A2975 RMK AC3CI2 SLP118

CYQF;2009-11-26 04:00;CYQF 260400Z 00000KT 15SM BKN100 BKN250 M00/M05 A2974 RMK AC5CI1 SLP115

CYQF;2009-11-26 05:00;CYQF 260500Z 22005KT 15SM BKN100 BKN250 02/M04 A2972 RMK AC5CI2 SLP108

CYQF;2009-11-26 06:00;CYQF 260600Z 25006KT 15SM FEW100 SCT250 02/M04 A2972 RMK AC1CI1 SLP101

CYQF;2009-11-26 07:00;CYQF 260700Z 24005KT 15SM FEW100 BKN250 04/M02 A2972 RMK AC2CI1 SLP101

CYQF;2009-11-26 08:00;CYQF 260800Z 18006KT 15SM FEW100 OVC250 02/M03 A2972 RMK AC2CI6 SLP101

CYQF;2009-11-26 09:00;CYQF 260900Z 18004KT 15SM FEW100 BKN250 02/M03 A2975 RMK AC1CI3 SLP109

CYQF;2009-11-26 10:00;CYQF 261000Z 18004KT 15SM OVC250 00/M04 A2975 RMK CI6 SLP109

CYQF;2009-11-26 11:00;CYQF 261100Z 23003KT 15SM OVC250 00/M03 A2975 RMK CI8 SLP110

CYQF;2009-11-26 12:00;CYQF 261200Z 20002KT 15SM OVC250 01/M03 A2974 RMK CI8 SLP106

CYQF;2009-11-26 13:00;CYQF 261300Z 00000KT 15SM SCT250 00/M03 A2976 RMK CI1 SLP114

CYQF;2009-11-26 14:00;CYQF 261400Z 00000KT 15SM BKN250 M02/M05 A2975 RMK CI2 SLP109

CYQF;2009-11-26 15:00;CYQF 261500Z 34004KT 15SM FEW100 BKN250 M02/M05 A2976 RMK AC1CI2 SLP119

CYQF;2009-11-26 16:00;CYQF 261600Z 36003KT 15SM BKN080 BKN250 M02/M04 A2976 RMK AC6CI2 SLP119

CYQF;2009-11-26 17:00;CYQF 261700Z 00000KT 15SM BKN080 BKN250 02/M02 A2978 RMK AC6CI1 SLP126

CYQF;2009-11-26 18:00;CYQF 261800Z 36004KT 15SM SCT080 BKN250 03/M01 A2975 RMK AC4CI3 SLP107

CYQF;2009-11-26 19:00;CYQF 261900Z 30004KT 15SM FEW080 BKN250 04/M00 A2975 RMK AC2CI1 SLP106

CYQF;2009-11-26 20:00;CYQF 262000Z 32003KT 15SM FEW080 BKN250 05/01 A2973 RMK AC2CI2 SLP102

CYQF;2009-11-26 21:00;CYQF 262100Z 35005KT 15SM FEW080 BKN250 06/01 A2973 RMK AC2CI2 SLP098

CYQF;2009-11-26 22:00;CYQF 262200Z 03004KT 15SM FEW020 SCT080 BKN250 06/01 A2972 RMK SC1AC2CI1 SLP095

CYQF;2009-11-26 23:00;CYQF 262300Z 00000KT 15SM FEW020 BKN080 BKN250 03/M00 A2974 RMK SC1AC3CI2 SLP100

CYQF;2009-11-27 00:00;CYQF 270000Z 34009KT 15SM BKN020 BKN080 OVC250 04/01 A2976 RMK SC5AC2CI0 SLP112

CYQF;2009-11-27 01:00;CYQF 270100Z 36005KT 15SM BKN012 OVC080 03/01 A2979 RMK SC6AC2 SLP120

CYQF;2009-11-27 01:09;CYQF 270109Z 36010KT 15SM -RA BKN012 OVC080 RMK SC6AC2

CYQF;2009-11-27 02:00;CYQF 270200Z 36008KT 15SM -RA FEW008 BKN035 02/01 A2981 RMK SF2SC4 SLP125

CYQF;2009-11-27 02:23;CYQF 270223Z 36003KT 15SM FEW008 BKN035 RMK SF2SC3

CYQF;2009-11-27 03:00;CYQF 270300Z 00000KT 15SM FEW040 BKN090 00/M01 A2979 RMK SC2AC2 SLP131

CYQF;2009-11-27 04:00;CYQF 270400Z 23005KT 15SM MIFG FEW100 M04/M05 A2979 RMK AC2 SLP131

CYQF;2009-11-27 05:00;CYQF 270500Z 27005KT 15SM SKC M04/M04 A2980 RMK SLP134

CYQF;2009-11-27 06:00;CYQF 270600Z 18002KT 10SM SKC M03/M04 A2981 RMK SLP134

CYQF;2009-11-27 06:16;CYQF 270616Z 18003KT 3/4SM BR SKC RMK FG3

CYQF;2009-11-27 06:22;CYQF 270622Z 18002KT 1/2SM FZFG SKC RMK FG4 VIS VRB 1/4 - 3/4

CYQF;2009-11-27 07:00;CYQF 270700Z 20003KT 1/2SM FZFG SKC M07/M08 A2982 RMK FG4 VIS VRB 1/4-3/4 SLP137

CYQF;2009-11-27 08:00;CYQF 270800Z 20002KT 1/2SM FZFG SKC M07/M08 A2982 RMK FG6 VIS VRB 1/4-3/4 SLP138

CYQF;2009-11-27 09:00;CYQF 270900Z 00000KT 1/2SM FZFG SKC M07/M08 A2983 RMK FG4 VIS VRB 1/4-3/4 SLP143

CYQF;2009-11-27 10:00;CYQF 271000Z 00000KT 2SM BR BKN100 M07/M08 A2984 RMK FG1AC6 VIS VRB 1-3 SLP146

CYQF;2009-11-27 10:18;CYQF 271018Z 00000KT 10SM BKN100 RMK AC6 BR

CYQF;2009-11-27 11:00;CYQF 271100Z 00000KT 15SM BKN100 M05/M06 A2983 RMK AC6 SLP143

CYQF;2009-11-27 12:00;CYQF 271200Z 00000KT 15SM SCT100 M06/M07 A2983 RMK AC3 SLP143

CYQF;2009-11-27 13:00;CYQF 271300Z 19003KT 15SM BKN100 M06/M07 A2982 RMK AC6 SLP139

CYQF;2009-11-27 14:00;CYQF 271400Z 00000KT 15SM BKN100 M03/M04 A2983 RMK AC5 SLP142

CYQF;2009-11-27 14:32;CYQF 271432Z 29003KT 15SM -SN BKN100 RMK AC7

CYQF;2009-11-27 15:00;CYQF 271500Z 26004KT 15SM SCT030 BKN100 M01/M01 A2983 RMK SC3AC3 SLP140

CYQF;2009-11-27 15:37;CYQF 271537Z 23004KT 10SM -SN BKN040 BKN100 RMK SC6AC2

CYQF;2009-11-27 16:00;CYQF 271600Z 33003KT 10SM -SN BKN040 BKN100 M01/M02 A2985 RMK SC6AC2 SLP146

CYQF;2009-11-27 16:49;CYQF 271649Z 00000KT 4SM -SN FEW008 BKN019 OVC040 RMK SF2SC6SC1

CYQF;2009-11-27 17:00;CYQF 271700Z 00000KT 10SM -SN FEW008 FEW020 OVC040 M00/M01 A2986 RMK SF1SC2SC6 SLP150

CYQF;2009-11-27 17:30;CYQF 271730Z 36004KT 1 1/2SM -SN OVC018 RMK SC8

CYQF;2009-11-27 18:00;CYQF 271800Z CCA 36005KT 1 1/2SM -SN BKN020 OVC040 M00/M01 A2986 RMK SC7SC1 /S01/ SLP157

CYQF;2009-11-27 18:31;CYQF 271831Z 35004KT 1SM -SN OVC015 RMK SN4SC4

CYQF;2009-11-27 19:00;CYQF 271900Z 02006KT 1SM -SN BKN008 OVC015 M01/M02 A2987 RMK SN3SF3SC2 SLP159

CYQF;2009-11-27 19:24;CYQF 271924Z 02006KT 1/2SM SN VV004 RMK SN8

CYQF;2009-11-27 20:00;CYQF 272000Z 02004KT 1/2SM SN VV005 M01/M02 A2987 RMK SN8 /S04/ SLP160

CYQF;2009-11-27 20:30;CYQF 272030Z 00000KT 3SM -SN FEW010 OVC020 RESN RMK SF2SC6

CYQF;2009-11-27 21:00;CYQF 272100Z 00000KT 15SM -SN FEW010 OVC020 M02/M02 A2988 RESN RMK SF2SC6 SLP170

CYQF;2009-11-27 22:00;CYQF 272200Z CCA 30004KT 15SM FEW010 BKN020 OVC080 M02/M03 A2989 RMK SF1SC6AC1 SLP173

CYQF;2009-11-27 23:00;CYQF 272300Z CCA 30003KT 15SM FEW010 BKN030 BKN080 M02/M04 A2991 RMK SC1SC6AC2 SH/VIRGA DIST W-NW SLP179

CYQF;2009-11-28 00:00;CYQF 280000Z 27005KT 15SM FEW030 BKN080 M03/M05 A2993 RMK SC2AC3 VIRGA SLP184

CYQF;2009-11-28 01:00;CYQF 280100Z 22004KT 15SM FEW030 FEW080 M05/M07 A2992 RMK SC1AC1 SLP181

CYQF;2009-11-28 02:00;CYQF 280200Z 24004KT 15SM SKC M08/M09 A2993 RMK SLP184

CYQF;2009-11-28 03:00;CYQF 280300Z 24005KT 10SM MIFG SKC M09/M10 A2993 RMK SLP188

CYQF;2009-11-28 04:00;CYQF 280400Z 23005KT 15SM SKC M09/M10 A2994 RMK SLP190

CYQF;2009-11-28 05:00;CYQF 280500Z 21003KT 15SM SKC M12/M13 A2995 RMK SLP192

CYQF;2009-11-28 06:00;CYQF 280600Z 21003KT 3SM BR SKC M14/M15 A2994 RMK SLP196

CYQF;2009-11-28 06:44;CYQF 280644Z 20002KT 3/4SM BR SKC RMK FG1

CYQF;2009-11-28 06:52;CYQF 280652Z 19002KT 10SM MIFG SKC

CYQF;2009-11-28 07:00;CYQF 280700Z 19003KT 10SM MIFG SKC M13/M14 A2994 RMK SLP196

CYQF;2009-11-28 08:00;CYQF 280800Z 18004KT 15SM FEW005 M13/M15 A2995 RMK ST1 OBS TAKEN +9 SLP198

CYQF;2009-11-28 09:00;CYQF 280900Z 20004KT 15SM SKC M17/M18 A2994 RMK SLP201

CYQF;2009-11-28 10:00;CYQF 281000Z 00000KT 15SM FEW080 M17/M18 A2995 RMK AC1 SLP202

CYQF;2009-11-28 11:00;CYQF 281100Z 00000KT 15SM FEW080 M17/M18 A2994 RMK AC2 SLP201

CYQF;2009-11-28 12:00;CYQF 281200Z 00000KT 15SM FEW080 M18/M19 A2995 RMK AC2 SLP204

CYQF;2009-11-28 13:00;CYQF 281300Z 00000KT 15SM FEW080 M15/M17 A2994 RMK AC2 SLP202

CYQF;2009-11-28 14:00;CYQF 281400Z 00000KT 15SM FEW080 SCT250 M15/M16 A2995 RMK AC2CI0 SLP206

CYQF;2009-11-28 15:00;CYQF 281500Z 00000KT 15SM SCT080 SCT250 M15/M17 A2996 RMK AC3CI0 SLP213

CYQF;2009-11-28 16:00;CYQF 281600Z 00000KT 15SM FEW080 SCT250 M17/M19 A2996 RMK AC2CI2 SLP214

CYQF;2009-11-28 17:00;CYQF 281700Z 19002KT 15SM FEW090 SCT250 M15/M16 A2997 RMK AC2CI1 SLP216

CYQF;2009-11-28 18:00;CYQF 281800Z 00000KT 15SM SCT090 BKN250 M11/M12 A2997 RMK AC2CI2 SLP219

CYQF;2009-11-28 19:00;CYQF 281900Z 00000KT 15SM FEW090 BKN250 M11/M12 A2996 RMK AC1CI2 SLP216

CYQF;2009-11-28 20:00;CYQF 282000Z 00000KT 15SM FEW090 BKN250 M09/M10 A2994 RMK AC1CI3 SLP208

CYQF;2009-11-28 21:00;CYQF 282100Z 00000KT 15SM FEW100 BKN250 M08/M09 A2993 RMK AC2CI3 SLP203

CYQF;2009-11-28 22:00;CYQF 282200Z CCA 00000KT 15SM FEW100 BKN250 M08/M10 A2992 RMK AC2CI3 OBS TAKEN +05 SLP201

CYQF;2009-11-28 23:00;CYQF 282300Z 00000KT 15SM FEW100 BKN250 M09/M11 A2992 RMK AC2CI3 SLP201

CYQF;2009-11-29 00:00;CYQF 290000Z 00000KT 15SM FEW100 BKN250 M11/M12 A2992 RMK AC2CI3 SLP203

CYQF;2009-11-29 01:00;CYQF 290100Z 00000KT 15SM SCT100 BKN250 M09/M11 A2991 RMK AC3CI2 SLP202

CYQF;2009-11-29 02:00;CYQF 290200Z 00000KT 15SM SCT100 BKN250 M09/M11 A2991 RMK AC3CI2 SLP201

CYQF;2009-11-29 03:00;CYQF 290300Z 00000KT 15SM SCT100 OVC250 M10/M12 A2991 RMK AC3CI2 SLP196

CYQF;2009-11-29 04:00;CYQF 290400Z 20003KT 15SM SCT100 OVC250 M10/M11 A2990 RMK AC3CI2 SLP194

CYQF;2009-11-29 05:00;CYQF 290500Z 20002KT 15SM SCT100 OVC250 M08/M10 A2989 RMK AC3CS2 SLP190

CYQF;2009-11-29 06:00;CYQF 290600Z 22002KT 15SM FEW100 BKN250 M08/M10 A2988 RMK AC2CI2 SLP180

CYQF;2009-11-29 07:00;CYQF 290700Z 00000KT 15SM BKN100 M09/M11 A2986 RMK AC6 SLP174

CYQF;2009-11-29 08:00;CYQF 290800Z 20003KT 15SM FEW100 M10/M12 A2985 RMK AC2 SLP170

CYQF;2009-11-29 09:00;CYQF 290900Z 00000KT 15SM BKN250 M09/M11 A2985 RMK CI2 SLP169

CYQF;2009-11-29 10:00;CYQF 291000Z 00000KT 15SM FEW100 BKN250 M11/M12 A2987 RMK AC2CI2 SLP173

CYQF;2009-11-29 11:00;CYQF 291100Z 19003KT 15SM FEW100 SCT250 M09/M11 A2986 RMK AC2CI0 SLP171

CYQF;2009-11-29 12:00;CYQF 291200Z 22005KT 15SM FEW100 FEW250 M10/M12 A2986 RMK AC1CI0 SLP176

CYQF;2009-11-29 13:00;CYQF 291300Z 20004KT 15SM FEW250 M08/M11 A2986 RMK CI1 SLP174

CYQF;2009-11-29 14:00;CYQF 291400Z 23003KT 15SM SCT250 M08/M10 A2986 RMK CI2 SLP175

CYQF;2009-11-29 15:00;CYQF 291500Z 00000KT 15SM FEW080 BKN250 M06/M08 A2988 RMK AC2CI4 SLP176

CYQF;2009-11-29 16:00;CYQF 291600Z 00000KT 15SM FEW080 BKN250 M05/M08 A2988 RMK AC2CI3 SLP175

CYQF;2009-11-29 17:00;CYQF 291700Z 00000KT 15SM FEW080 BKN250 M04/M07 A2988 RMK AC2CI2 SLP176

CYQF;2009-11-29 18:00;CYQF 291800Z 00000KT 15SM FEW080 BKN250 M02/M05 A2988 RMK AC2CI2 SLP169

CYQF;2009-11-29 19:00;CYQF 291900Z 00000KT 15SM SCT100 BKN250 01/M04 A2985 RMK AC2CI2 SLP160

CYQF;2009-11-29 20:00;CYQF 292000Z 00000KT 15SM FEW030 FEW090 SCT250 04/M02 A2983 RMK CU1AC1CI1 SLP153

CYQF;2009-11-29 21:00;CYQF 292100Z 00000KT 15SM FEW030 FEW090 BKN250 05/M02 A2981 RMK CU1AC1CI1 TR CU SLP140

CYQF;2009-11-29 22:00;CYQF 292200Z 00000KT 15SM FEW030 FEW090 BKN250 03/M02 A2980 RMK CU1AC1CI2 TR CU SLP136

CYQF;2009-11-29 23:00;CYQF 292300Z 00000KT 15SM FEW030 FEW090 SCT250 01/M03 A2980 RMK CU1AC1CI1 SLP136

CYQF;2009-11-30 00:00;CYQF 300000Z 00000KT 15SM FEW030 FEW090 FEW250 M01/M04 A2980 RMK CU1AC1CI1 SLP143

CYQF;2009-11-30 01:00;CYQF 300100Z 04002KT 15SM FEW030 FEW090 FEW250 M01/M03 A2982 RMK SC1AC1CI1 SLP149

CYQF;2009-11-30 02:00;CYQF 300200Z 03008KT 15SM FEW090 FEW250 00/M02 A2985 RMK AC1CI1 SLP158

CYQF;2009-11-30 03:00;CYQF 300300Z 01004KT 15SM FEW090 M01/M03 A2988 RMK AC1 SLP165

CYQF;2009-11-30 04:00;CYQF 300400Z 35002KT 15SM SCT090 M03/M04 A2989 RMK AC4 SLP170

CYQF;2009-11-30 05:00;CYQF 300500Z 35003KT 15SM BKN090 M01/M02 A2990 RMK AC6 SLP171

CYQF;2009-11-30 06:00;CYQF 300600Z 29003KT 15SM BKN090 BKN250 M01/M03 A2991 RMK AC6CI2 SLP171

CYQF;2009-11-30 07:00;CYQF 300700Z 00000KT 15SM BKN090 OVC250 M00/M02 A2990 RMK AC6CI2 SLP169

CYQF;2009-11-30 08:00;CYQF 300800Z 24002KT 15SM BKN070 OVC250 M01/M02 A2990 RMK AC6CI2 SLP168

CYQF;2009-11-30 09:00;CYQF 300900Z 27003KT 15SM FEW030 OVC070 M01/M02 A2989 RMK SC2AC6 SLP157

CYQF;2009-11-30 10:00;CYQF 301000Z 28003KT 15SM FEW030 OVC060 M01/M02 A2986 RMK SC2SC6 SLP148

CYQF;2009-11-30 11:00;CYQF 301100Z 00000KT 15SM BKN050 OVC090 M01/M02 A2985 RMK SC5AC3 OBS TAKEN +06 SLP143

CYQF;2009-11-30 12:00;CYQF 301200Z 00000KT 15SM BKN050 OVC090 M01/M02 A2982 RMK SC5AC3 SLP139

CYQF;2009-11-30 13:00;CYQF 301300Z 15003KT 15SM BKN050 BKN090 M01/M03 A2979 RMK SC5AC2 SLP130

CYQF;2009-11-30 14:00;CYQF 301400Z 14003KT 15SM BKN050 BKN090 M01/M03 A2975 RMK SC6AC2 SLP117

CYQF;2009-11-30 15:00;CYQF 301500Z 07003KT 15SM BKN050 BKN090 M01/M03 A2972 RMK SC6AC1 SLP105

CYQF;2009-11-30 16:00;CYQF 301600Z 07003KT 15SM SCT050 BKN090 BKN250 M02/M03 A2969 RMK SC2AC1CI0 SLP095

CYQF;2009-11-30 17:00;CYQF 301700Z 06003KT 15SM FEW030 SCT050 SCT090 BKN250 M01/M03 A2968 RMK SC1SC2AC1CI1 SLP092

CYQF;2009-11-30 17:43;CYQF 301743Z 04005KT 15SM FEW008 BKN020 BKN050 RMK SF2SC5SC1 SH DIST NW

CYQF;2009-11-30 18:00;CYQF 301800Z 03006KT 15SM VCSH FEW007 BKN014 00/M02 A2968 RMK SF2SC6 SLP089

CYQF;2009-11-30 18:09;CYQF 301809Z 01008KT 2SM -SN FEW007 OVC014 RMK SN2SF1SC6 VIS SE 8

CYQF;2009-11-30 18:27;CYQF 301827Z 01005KT 1SM -SN OVC011 RMK SN3SC5

CYQF;2009-11-30 18:47;CYQF 301847Z 02003KT 3/4SM -SN VV006 RMK SN8

CYQF;2009-11-30 19:00;CYQF 301900Z 02002KT 3/4SM -SN VV006 M01/M01 A2967 RMK SN8 SLP088

CYQF;2009-11-30 19:26;CYQF 301926Z 35002KT 1SM -SN VV008 RMK SN8

CYQF;2009-11-30 20:00;CYQF 302000Z 34005KT 3/4SM -SN VV006 M01/M01 A2969 RMK SN8 SLP093

CYQF;2009-11-30 21:00;CYQF 302100Z 35005KT 3/4SM -SN VV006 M01/M01 A2970 RMK SN8 /S01/ SLP098

CYQF;2009-11-30 22:00;CYQF 302200Z 33010G15KT 1/2SM SN VV007 M01/M01 A2976 RMK SN8 /S02/ PRESRR SLP117

CYQF;2009-11-30 22:07;CYQF 302207Z 33020G25KT 0SM +SN +BLSN VV002 RMK SN8 PRESRR

CYQF;2009-11-30 22:15;CYQF 302215Z 34015G20KT 1/4SM +SN +BLSN VV004 RMK SN8 PRESRR

CYQF;2009-11-30 22:28;CYQF 302228Z 35012KT 3/4SM -SN DRSN OVC018 RMK SN3SC5 RESN PRESRR

CYQF;2009-11-30 22:45;CYQF 302245Z 33006KT 10SM -SN BKN020 RMK SC7 RESN

CYQF;2009-11-30 23:00;CYQF 302300Z CCA 34006KT 15SM -SN FEW010 BKN060 M02/M05 A2980 RMK SC1SC6 RESN SLP127

CYQF;2009-11-30 23:45;CYQF 302345Z 31008KT 15SM FEW010 BKN060 RMK SC1SC6

CYQF;2009-12-01 01:00;CYQF 010100Z 31015G20KT 15SM BKN060 OVC100 M03/M07 A2985 RMK SC5AC3 DRSN SLP150

CYQF;2009-12-01 02:00;CYQF 010200Z 32010G15KT 15SM DRSN SCT070 BKN120 M04/M07 A2989 RMK AC3AC2 SLP162

CYQF;2009-12-01 03:00;CYQF 010300Z 32010G15KT 15SM DRSN FEW070 SCT120 M04/M07 A2992 RMK AC2AC2 SLP178

CYQF;2009-12-01 04:00;CYQF 010400Z 30005KT 15SM FEW120 SCT200 M05/M08 A2994 RMK AC2CI2 SLP184

CYQF;2009-12-01 05:00;CYQF 010500Z 30008KT 15SM SCT200 M06/M08 A2995 RMK CI2 SLP189

CYQF;2009-12-01 06:00;CYQF 010600Z 30007KT 15SM SCT200 M04/M08 A2999 RMK CI2 SLP200

CYQF;2009-12-01 07:00;CYQF 010700Z 25006KT 15SM FEW250 M06/M10 A3002 RMK CI2 SLP209

CYQF;2009-12-01 08:00;CYQF 010800Z 29007KT 15SM FEW250 M06/M10 A3003 RMK CI1 SLP213

CYQF;2009-12-01 09:00;CYQF 010900Z 32012KT 15SM FEW250 M04/M10 A3005 RMK CI1 SLP221

CYQF;2009-12-01 10:00;CYQF 011000Z 33010G15KT 15SM FEW250 M05/M10 A3006 RMK CI1 SLP227

CYQF;2009-12-01 11:00;CYQF 011100Z 30008KT 15SM FEW250 M06/M11 A3008 RMK CI1 SLP233

CYQF;2009-12-01 12:00;CYQF 011200Z 30007KT 15SM FEW250 M07/M11 A3010 RMK CI1 SLP245

CYQF;2009-12-01 13:00;CYQF 011300Z 00000KT 15SM FEW250 M12/M14 A3012 RMK CI2 SLP250

CYQF;2009-12-01 14:00;CYQF 011400Z 28003KT 15SM FEW100 FEW250 M11/M14 A3013 RMK AC1CI1 SLP254

CYQF;2009-12-01 15:00;CYQF 011500Z 31008KT 15SM FEW250 M07/M12 A3014 RMK CI1 SLP261

CYQF;2009-12-01 16:00;CYQF 011600Z 30009KT 15SM FEW250 M08/M13 A3014 RMK CI1 SLP260

CYQF;2009-12-01 17:00;CYQF 011700Z 29008KT 15SM SKC M07/M12 A3014 RMK SLP262

CYQF;2009-12-01 18:00;CYQF 011800Z 30005KT 15SM SKC M07/M12 A3016 RMK SLP268

CYQF;2009-12-01 19:00;CYQF 011900Z 27006KT 15SM SKC M06/M12 A3015 RMK SLP266

CYQF;2009-12-01 20:00;CYQF 012000Z 28008KT 15SM SKC M06/M11 A3015 RMK SLP265

CYQF;2009-12-01 21:00;CYQF 012100Z 30008KT 15SM SKC M06/M11 A3015 RMK SLP261

CYQF;2009-12-01 22:00;CYQF 012200Z 30006KT 15SM SKC M05/M12 A3015 RMK SLP261

CYQF;2009-12-01 23:00;CYQF 012300Z 29005KT 15SM SKC M07/M13 A3016 RMK SLP265

CYQF;2009-12-02 00:00;CYQF 020000Z 30005KT 15SM SKC M09/M14 A3016 RMK SLP275

CYQF;2009-12-02 01:00;CYQF 020100Z 29005KT 15SM SKC M09/M14 A3017 RMK SLP276

CYQF;2009-12-02 02:00;CYQF 020200Z 29005KT 15SM SKC M10/M14 A3018 RMK SLP279

CYQF;2009-12-02 03:00;CYQF 020300Z 29006KT 15SM SKC M10/M14 A3019 RMK SLP284

CYQF;2009-12-02 04:00;CYQF 020400Z 30006KT 15SM SKC M10/M14 A3020 RMK SLP287

CYQF;2009-12-02 05:00;CYQF 020500Z 30003KT 15SM SKC M16/M19 A3021 RMK SLP291

CYQF;2009-12-02 06:00;CYQF 020600Z 00000KT 15SM SKC M12/M15 A3022 RMK SLP298

CYQF;2009-12-02 07:00;CYQF 020700Z 00000KT 15SM SKC M17/M19 A3024 RMK SLP304

CYQF;2009-12-02 08:00;CYQF 020800Z 26005KT 15SM SKC M20/M21 A3025 RMK SLP306

CYQF;2009-12-02 09:00;CYQF 020900Z 00000KT 15SM SKC M20/M23 A3026 RMK SLP322

CYQF;2009-12-02 10:00;CYQF 021000Z 00000KT 15SM SKC M18/M21 A3027 RMK SLP325

CYQF;2009-12-02 11:00;CYQF 021100Z 22003KT 15SM SKC M21/M24 A3028 RMK SLP326

CYQF;2009-12-02 12:00;CYQF 021200Z 20004KT 15SM SKC M21/M25 A3028 RMK SLP332

CYQF;2009-12-02 13:00;CYQF 021300Z 21003KT 15SM SKC M23/M27 A3029 RMK SLP335

CYQF;2009-12-02 14:00;CYQF 021400Z 21004KT 15SM SKC M23/M27 A3030 RMK SLP338

CYQF;2009-12-02 15:00;CYQF 021500Z 20004KT 15SM SKC M24/M28 A3030 RMK SLP344

CYQF;2009-12-02 16:00;CYQF 021600Z 21003KT 15SM SKC M23/M27 A3032 RMK SLP349

CYQF;2009-12-02 17:00;CYQF 021700Z 21002KT 15SM SKC M21/M25 A3034 RMK SLP354

CYQF;2009-12-02 18:00;CYQF 021800Z 00000KT 15SM SKC M16/M19 A3034 RMK SLP352

CYQF;2009-12-02 19:00;CYQF 021900Z 00000KT 15SM SKC M15/M18 A3034 RMK SLP351

CYQF;2009-12-02 20:00;CYQF 022000Z 21002KT 15SM SKC M14/M18 A3033 RMK SLP348

CYQF;2009-12-02 21:00;CYQF 022100Z 18003KT 15SM SKC M13/M18 A3032 RMK SLP349

CYQF;2009-12-02 22:00;CYQF 022200Z CCA 17003KT 15SM SKC M12/M18 A3032 RMK SLP348

CYQF;2009-12-02 23:00;CYQF 022300Z 00000KT 15SM SKC M13/M18 A3031 RMK SLP347

CYQF;2009-12-03 00:00;CYQF 030000Z 00000KT 15SM SKC M15/M19 A3032 RMK SLP352

CYQF;2009-12-03 01:00;CYQF 030100Z 00000KT 15SM SKC M17/M20 A3031 RMK SLP351

CYQF;2009-12-03 02:00;CYQF 030200Z 00000KT 15SM SKC M20/M23 A3031 RMK SLP351

CYQF;2009-12-03 03:00;CYQF 030300Z 00000KT 15SM SKC M20/M24 A3030 RMK SLP356

CYQF;2009-12-03 04:00;CYQF 030400Z 17003KT 15SM SKC M21/M25 A3029 RMK SLP351

CYQF;2009-12-03 05:00;CYQF 030500Z 00000KT 15SM SKC M21/M24 A3028 RMK SLP350

CYQF;2009-12-03 06:00;CYQF 030600Z 00000KT 15SM SKC M19/M22 A3027 RMK SLP335

CYQF;2009-12-03 07:00;CYQF 030700Z 18002KT 15SM SKC M21/M25 A3026 RMK SLP331

CYQF;2009-12-03 08:00;CYQF 030800Z 00000KT 15SM SKC M21/M25 A3025 RMK SLP327

CYQF;2009-12-03 09:00;CYQF 030900Z 00000KT 15SM SKC M20/M24 A3024 RMK SLP322

CYQF;2009-12-03 10:00;CYQF 031000Z 00000KT 15SM SKC M19/M22 A3022 RMK SLP316

CYQF;2009-12-03 11:00;CYQF 031100Z 00000KT 15SM SKC M20/M24 A3023 RMK SLP317

CYQF;2009-12-03 12:00;CYQF 031200Z 00000KT 15SM SKC M22/M26 A3021 RMK SLP316

CYQF;2009-12-03 13:00;CYQF 031300Z 00000KT 15SM SKC M21/M25 A3021 RMK SLP315

CYQF;2009-12-03 14:00;CYQF 031400Z 16005KT 15SM SKC M21/M24 A3019 RMK SLP310

CYQF;2009-12-03 15:00;CYQF 031500Z 18005KT 15SM FEW250 M21/M24 A3018 RMK CI1 SLP309

CYQF;2009-12-03 16:00;CYQF 031600Z 15005KT 15SM FEW250 M20/M24 A3017 RMK CI1 SLP306

CYQF;2009-12-03 17:00;CYQF 031700Z 19002KT 15SM SCT250 M20/M24 A3016 RMK CI2 SLP305

CYQF;2009-12-03 18:00;CYQF 031800Z 15006KT 15SM BKN250 M17/M20 A3015 RMK CI2 SLP293

CYQF;2009-12-03 19:00;CYQF 031900Z 16004KT 15SM SCT250 M15/M19 A3011 RMK CI2 SLP282

CYQF;2009-12-03 20:00;CYQF 032000Z 18010KT 15SM SCT250 M12/M19 A3009 RMK CI2 SLP276

CYQF;2009-12-03 21:00;CYQF 032100Z 15005KT 15SM BKN250 M12/M18 A3006 RMK CI2 SLP259

CYQF;2009-12-03 22:00;CYQF 032200Z 15003KT 15SM BKN250 M12/M17 A3004 RMK CI4 SLP252

CYQF;2009-12-03 23:00;CYQF 032300Z 18005KT 15SM BKN250 M13/M18 A3002 RMK CI4 SLP245

CYQF;2009-12-04 00:00;CYQF 040000Z 00000KT 15SM BKN250 M14/M18 A3000 RMK CI6 SLP241

CYQF;2009-12-04 01:00;CYQF 040100Z 15003KT 15SM BKN250 M13/M17 A2996 RMK CI3 SLP229

CYQF;2009-12-04 02:00;CYQF 040200Z 17004KT 15SM BKN250 M13/M17 A2993 RMK CI2 SLP220

CYQF;2009-12-04 03:00;CYQF 040300Z 00000KT 15SM BKN250 M14/M18 A2990 RMK CI2 SLP206

CYQF;2009-12-04 04:00;CYQF 040400Z 16003KT 15SM BKN250 M14/M18 A2986 RMK CI2 SLP195

CYQF;2009-12-04 05:00;CYQF 040500Z 18002KT 15SM BKN250 M15/M19 A2983 RMK CI4 SLP184

CYQF;2009-12-04 06:00;CYQF 040600Z 14005KT 15SM OVC250 M13/M17 A2979 RMK CI6 OBS TAKEN -01 SLP161

CYQF;2009-12-04 07:00;CYQF 040700Z 20004KT 15SM FEW120 BKN250 M12/M15 A2976 RMK AC2CI4 SLP152

CYQF;2009-12-04 08:00;CYQF 040800Z 00000KT 15SM BKN120 OVC250 M10/M14 A2973 RMK AS5CI2 SLP144

CYQF;2009-12-04 09:00;CYQF 040900Z 13005KT 15SM BKN120 OVC250 M10/M13 A2967 RMK AS5CI2 SLP112

CYQF;2009-12-04 10:00;CYQF 041000Z 06002KT 15SM FEW040 BKN120 OVC250 M09/M12 A2968 RMK SC1AC5CI2 SLP115

CYQF;2009-12-04 11:00;CYQF 041100Z 34002KT 15SM FEW040 BKN120 OVC250 M09/M12 A2971 RMK SC1AC6CI2 SLP124

CYQF;2009-12-04 12:00;CYQF 041200Z 00000KT 15SM BKN120 OVC250 M08/M12 A2971 RMK AC6CI2 SLP125

CYQF;2009-12-04 13:00;CYQF 041300Z 34008KT 15SM FEW040 OVC100 M07/M11 A2972 RMK SC2AC6 SLP128

CYQF;2009-12-04 14:00;CYQF 041400Z 34012KT 15SM BKN040 OVC100 M06/M09 A2973 RMK SC5AC3 SLP129

CYQF;2009-12-04 14:32;CYQF 041432Z 34010G15KT 10SM -SN BKN020 OVC040 RMK SC5SC3

CYQF;2009-12-04 15:00;CYQF 041500Z 34012G18KT 2SM -SN DRSN OVC020 M05/M07 A2974 RMK SN3SC5 SLP131

CYQF;2009-12-04 15:20;CYQF 041520Z 34015G20KT 1/2SM -SN BLSN VV010 RMK SN8

CYQF;2009-12-04 16:00;CYQF 041600Z 36012G18KT 1SM -SN DRSN VV012 M04/M05 A2976 RMK SN8 VIS VRB 3/4-11/2 OCNL BLSN SLP136

CYQF;2009-12-04 17:00;CYQF 041700Z 34014G20KT 3/4SM -SN BLSN VV010 M03/M04 A2977 RMK SN8 VIS VRB 1/2-1 /S01/ SLP141

CYQF;2009-12-04 18:00;CYQF 041800Z CCA 34014G20KT 3/4SM -SN BLSN VV010 M03/M04 A2978 RMK SN8 VIS VRB 1/2 -1 /S03/ SLP140

CYQF;2009-12-04 19:00;CYQF 041900Z 33010G16KT 3/4SM -SN VV010 M03/M04 A2979 RMK SN8 VIS VRBL 1/2-1 DRSN OCNL BLSN SLP143

CYQF;2009-12-04 19:08;CYQF 041908Z 34020G35KT 3/4SM -SN BLSN VV010 RMK SN8

CYQF;2009-12-04 19:35;CYQF 041935Z 33017G26KT 3/4SM -SN BLSN OVC003 RMK SN3SC5

CYQF;2009-12-04 20:00;CYQF 042000Z 35015G28KT 3/4SM -SN BLSN OVC003 M03/M04 A2980 RMK SN5SC3 VIS VRB 1/2 - 1 SLP147

CYQF;2009-12-04 21:00;CYQF 042100Z 34015G25KT 3/4SM -SN BLSN VV005 M03/M05 A2982 RMK SN8 VIS VRB 1/2-1 /S02/ SLP151

CYQF;2009-12-04 22:00;CYQF 042200Z 32015G25KT 1/2SM -SN BLSN VV005 M04/M05 A2985 RMK SN8 SLP161

CYQF;2009-12-04 22:24;CYQF 042224Z 33018G25KT 3/4SM -SN BLSN VV010 RMK SN8 VIS VRB 1/2-1

CYQF;2009-12-04 23:00;CYQF 042300Z 33018G26KT 3/4SM -SN BLSN VV008 M04/M05 A2988 RMK SN8 VIS VRB 1/2-1 SLP170

CYQF;2009-12-05 00:00;CYQF 050000Z CCA 32020G28KT 3/4SM -SN BLSN VV007 M04/M06 A2990 RMK SN8 VIS VRB 1/2 - 1 /S03/ SLP180

CYQF;2009-12-05 01:00;CYQF 050100Z 33018G24KT 1SM -SN BLSN VV007 M04/M06 A2992 RMK SN8 SLP186

CYQF;2009-12-05 02:00;CYQF 050200Z 33022G30KT 1SM -SN BLSN VV008 M04/M06 A2995 RMK SN8 SLP195

CYQF;2009-12-05 03:00;CYQF 050300Z 33025G30KT 1SM -SN BLSN VV007 M04/M06 A2998 RMK SN8 SLP204

CYQF;2009-12-05 04:00;CYQF 050400Z 33022G28KT 3/4SM -SN BLSN VV008 M05/M07 A3002 RMK SN8 VIS VRB 1/2-1 SLP215

CYQF;2009-12-05 05:00;CYQF 050500Z 34023G28KT 3/4SM -SN BLSN VV007 M05/M07 A3006 RMK SN8 VIS VRB 1/2-1 SLP229

CYQF;2009-12-05 06:00;CYQF 050600Z 33015G25KT 3/4SM -SN BLSN VV007 M05/M07 A3010 RMK SN8 VIS VRB 1/2-1 SLP245

CYQF;2009-12-05 07:00;CYQF 050700Z 33020G30KT 3/4SM -SN BLSN VV009 M05/M07 A3013 RMK SN8 VIS VRB 1/2-1 SLP253

CYQF;2009-12-05 07:37;CYQF 050737Z 33020G30KT 1SM -SN BLSN VV010 RMK SN8

CYQF;2009-12-05 08:00;CYQF 050800Z 33020G30KT 1SM -SN BLSN VV010 M05/M07 A3015 RMK SN8 SLP258

CYQF;2009-12-05 09:00;CYQF 050900Z 33020G30KT 1SM -SN BLSN VV010 M06/M08 A3017 RMK SN8 /S02/ SLP269

CYQF;2009-12-05 09:37;CYQF 050937Z 33020G30KT 1 1/2SM -SN BLSN OVC015 RMK SN4SC4

CYQF;2009-12-05 10:00;CYQF 051000Z 33025G33KT 2SM -SN BLSN OVC015 M06/M08 A3020 RMK SN4SC4 SLP278

CYQF;2009-12-05 11:00;CYQF 051100Z 34020G30KT 2 1/2SM -SN BLSN OVC020 M06/M09 A3022 RMK SN4SC4 SLP285

CYQF;2009-12-05 11:45;CYQF 051145Z 34025G35KT 5SM -SN BLSN SCT015 OVC025 RMK SN2SF2SC4

CYQF;2009-12-05 12:00;CYQF 051200Z 33023G33KT 6SM -SN DRSN SCT015 OVC025 M07/M09 A3025 RMK SF3SC5 /S03/ OCNL BLSN SLP298

CYQF;2009-12-05 13:00;CYQF 051300Z 34018G28KT 3SM -SN DRSN SCT015 OVC025 M07/M10 A3028 RMK SN2SC2SC4 OCNL BLSN SLP307

CYQF;2009-12-05 14:00;CYQF 051400Z 34025G32KT 3SM -SN DRSN SCT015 OVC025 M08/M10 A3030 RMK SN2SC2SC4 OCNL BLSN SLP313

CYQF;2009-12-05 15:00;CYQF 051500Z 35025G33KT 6SM -SN FEW015 OVC025 M08/M11 A3032 RMK SC2SC6 DRSN OCNL BS SLP326

CYQF;2009-12-05 16:00;CYQF 051600Z 33025G35KT 10SM -SN FEW015 BKN025 OVC060 M08/M12 A3034 RMK SF2SC5SC2 DRSN OCNL BS SLP331

CYQF;2009-12-05 17:00;CYQF 051700Z 33015G28KT 10SM -SN BKN025 BKN060 OVC250 M09/M12 A3036 RMK SC5SC2CI1 DRSN OCNL BLSN SLP338

CYQF;2009-12-05 18:00;CYQF 051800Z 33015G27KT 12SM BKN022 BKN060 BKN250 M09/M12 A3038 RMK SC5SC2CI1 DRSN SLP347

CYQF;2009-12-05 19:00;CYQF 051900Z 33024G30KT 3SM BLSN BKN012 BKN025 BKN060 M09/M12 A3038 RMK SC5SC2SC1 SLP348

CYQF;2009-12-05 20:00;CYQF 052000Z 34020G25KT 6SM BLSN BKN012 BKN022 M09/M12 A3039 RMK SC5SC2 SLP351

CYQF;2009-12-05 20:46;CYQF 052046Z 34020G25KT 3SM -SN BLSN BKN012 OVC022 RMK SC5SC3

CYQF;2009-12-05 21:00;CYQF 052100Z 34015G20KT 3SM -SN BLSN BKN012 OVC025 M09/M12 A3040 RMK SC5SC3 SLP355

CYQF;2009-12-05 22:00;CYQF 052200Z 34015G20KT 5SM BLSN BKN015 OVC025 M09/M12 A3042 RMK SC5SC3 SLP360

CYQF;2009-12-05 23:00;CYQF 052300Z 35010G18KT 10SM BKN015 OVC025 M09/M13 A3044 RMK SC5SC2 DRSN SLP367

CYQF;2009-12-06 00:00;CYQF 060000Z 34012G18KT 10SM -SN BKN015 OVC025 M10/M13 A3047 RMK SC5SC3 DRSN SLP381

CYQF;2009-12-06 00:15;CYQF 060015Z 36012G20KT 2SM -SN OVC015 RMK SN3SC5 DRSN

CYQF;2009-12-06 00:38;CYQF 060038Z 34012G20KT 6SM -SN SCT015 OVC032 RMK SC4SC4 DRSN OCNL BLSN

CYQF;2009-12-06 01:00;CYQF 060100Z 35013G20KT 8SM -SN OVC028 M11/M14 A3049 RMK SC8 SLP389

CYQF;2009-12-06 01:21;CYQF 060121Z 36010KT 2SM -SN OVC028 RMK SN3SC5 DRSN

CYQF;2009-12-06 01:32;CYQF 060132Z 02010G20KT 3/4SM -SN BLSN VV008 RMK SN8 VIS VRB 1/2-1

CYQF;2009-12-06 02:00;CYQF 060200Z 36013G18KT 1SM -SN BLSN OVC016 M12/M14 A3052 RMK SN6SC2 SLP397

CYQF;2009-12-06 03:00;CYQF 060300Z 01010G20KT 1SM -SN BLSN OVC016 M13/M15 A3054 RMK SN6SC2 SLP410

CYQF;2009-12-06 04:00;CYQF 060400Z 36011G18KT 1SM -SN BLSN OVC013 M13/M15 A3056 RMK SN6SC2 /S01/ SLP417

CYQF;2009-12-06 04:35;CYQF 060435Z 35012G20KT 2SM -SN BLSN OVC030 RMK SN2SC6 VIS VRB 1-3

CYQF;2009-12-06 05:00;CYQF 060500Z 36010G20KT 2SM -SN OVC030 M13/M16 A3058 RMK SN2SC6 VIS VRB 1-3 DRSN OCNL BLSN SLP424

CYQF;2009-12-06 06:00;CYQF 060600Z 36010G20KT 1SM -SN BLSN OVC030 M14/M16 A3060 RMK SN3SC5 SLP433

CYQF;2009-12-06 07:00;CYQF 060700Z 36010G18KT 2SM -SN BLSN OVC030 M14/M17 A3060 RMK SN2SC6 VIS VRB 1-3 SLP433

CYQF;2009-12-06 08:00;CYQF 060800Z 34010G15KT 3SM -SN DRSN SCT020 OVC040 M14/M17 A3059 RMK SC3SC5 REBLSN SLP431

CYQF;2009-12-06 09:00;CYQF 060900Z 35010G15KT 3SM -SN DRSN OVC035 M15/M17 A3059 RMK SN2SC6 SLP433

CYQF;2009-12-06 09:43;CYQF 060943Z 34008KT 1 1/2SM -SN OVC030 RMK SN4SC4

CYQF;2009-12-06 10:00;CYQF 061000Z 34010G15KT 1 1/2SM -SN DRSN OVC030 M15/M17 A3059 RMK SN4SC4 /S01/ SLP432

CYQF;2009-12-06 11:00;CYQF 061100Z 34012G20KT 1SM -SN BLSN OVC030 M16/M18 A3059 RMK SN4SC4 SLP433

CYQF;2009-12-06 12:00;CYQF 061200Z 34012G20KT 1SM -SN BLSN OVC030 M16/M18 A3060 RMK SN4SC4 /S02/ SLP439

CYQF;2009-12-06 12:37;CYQF 061237Z 33012G20KT 2SM -SN BLSN OVC030 RMK SN2SC6 VIS VRB 11/2-3

CYQF;2009-12-06 13:00;CYQF 061300Z 33012G20KT 2SM -SN BLSN SCT015 OVC030 M17/M20 A3061 RMK SN2SF2SC4 VIS VRB 1-3 SLP440

CYQF;2009-12-06 14:00;CYQF 061400Z 34015G20KT 5SM -SN BLSN FEW015 OVC035 M17/M21 A3060 RMK SF2SC6 SLP437

CYQF;2009-12-06 15:00;CYQF 061500Z 33015G20KT 6SM -SN BLSN FEW015 OVC035 M17/M22 A3060 RMK SF2SC6 SLP442

CYQF;2009-12-06 16:00;CYQF 061600Z 33015G23KT 5SM BLSN OVC030 M18/M23 A3060 RMK SC8 SLP444

CYQF;2009-12-06 16:44;CYQF 061644Z 33020G28KT 2SM BLSN BKN030 RMK SC7

CYQF;2009-12-06 17:00;CYQF 061700Z 33015G20KT 3SM BLSN BKN030 M18/M23 A3061 RMK SC6 VIS NW 5 SLP447

CYQF;2009-12-06 18:00;CYQF 061800Z 35012G18KT 5SM BLSN BKN030 M18/M23 A3060 RMK SC6 VIS S 2 SLP447

CYQF;2009-12-06 18:06;CYQF 061806Z 33015G23KT 5SM BLSN BKN009 RMK SC7 VIS S 2 UA/ CYQF 165010 C525 DURD 046 BKN

CYQF;2009-12-06 18:34;CYQF 061834Z 34015G20KT 8SM SCT009 RMK SC3 DRSN

CYQF;2009-12-06 19:00;CYQF 061900Z CCA 34010G15KT 15SM DRSN FEW010 M19/M24 A3058 RMK SC2 SLP440

CYQF;2009-12-06 20:00;CYQF 062000Z 34010G15KT 15SM FEW010 FEW250 M19/M24 A3056 RMK SF1CI1 SLP433

CYQF;2009-12-06 21:00;CYQF 062100Z 35012KT 15SM FEW250 M18/M24 A3053 RMK CI1 SLP423

CYQF;2009-12-06 22:00;CYQF 062200Z 34008KT 15SM FEW250 M19/M25 A3052 RMK CI1 SLP419

CYQF;2009-12-06 23:00;CYQF 062300Z 34005KT 15SM FEW250 M20/M25 A3051 RMK CI1 SLP416

CYQF;2009-12-07 00:00;CYQF 070000Z 34004KT 15SM FEW250 M21/M27 A3050 RMK CI1 SLP416

CYQF;2009-12-07 01:00;CYQF 070100Z 33004KT 15SM SCT250 M23/M27 A3048 RMK CI1 SLP412

CYQF;2009-12-07 02:00;CYQF 070200Z 30002KT 15SM FEW100 SCT250 M23/M27 A3047 RMK AC1CI1 SLP409

CYQF;2009-12-07 03:00;CYQF 070300Z 30004KT 15SM FEW250 M23/M28 A3045 RMK CI1 SLP406

CYQF;2009-12-07 04:00;CYQF 070400Z 30003KT 15SM FEW250 M25/M30 A3044 RMK CI1 SLP400

CYQF;2009-12-07 05:00;CYQF 070500Z 28004KT 15SM SKC M28/M32 A3043 RMK SLP397

CYQF;2009-12-07 06:00;CYQF 070600Z 00000KT 15SM SKC M29/M33 A3042 RMK SLP400

CYQF;2009-12-07 07:00;CYQF 070700Z 00000KT 15SM SKC M32/M36 A3040 RMK SLP394

CYQF;2009-12-07 08:00;CYQF 070800Z 21003KT 15SM SKC M33/M36 A3037 RMK SLP387

CYQF;2009-12-07 09:00;CYQF 070900Z 00000KT 15SM SKC M33/M38 A3035 RMK SLP383

CYQF;2009-12-07 10:00;CYQF 071000Z 20003KT 15SM FEW250 M32/M37 A3033 RMK CI0 SLP376

CYQF;2009-12-07 11:00;CYQF 071100Z 18003KT 15SM SKC M32/M37 A3030 RMK SLP368

CYQF;2009-12-07 12:00;CYQF 071200Z 00000KT 15SM SKC M34/M39 A3027 RMK SLP360

CYQF;2009-12-07 13:00;CYQF 071300Z 00000KT 15SM FEW250 M34/M39 A3025 RMK CI1 SLP351

CYQF;2009-12-07 14:00;CYQF 071400Z 20003KT 15SM FEW250 M34/M39 A3022 RMK CI1 SLP343

CYQF;2009-12-07 15:00;CYQF 071500Z 20003KT 15SM SKC M35/M40 A3020 RMK SLP338

CYQF;2009-12-07 16:00;CYQF 071600Z 18004KT 15SM SKC M34/M38 A3018 RMK SLP333

CYQF;2009-12-07 17:00;CYQF 071700Z 20004KT 15SM SKC M33/M37 A3016 RMK SLP328

CYQF;2009-12-07 18:00;CYQF 071800Z 00000KT 15SM SKC M28/M32 A3015 RMK SLP320

CYQF;2009-12-07 19:00;CYQF 071900Z 00000KT 15SM SKC M27/M32 A3013 RMK SLP312

CYQF;2009-12-07 20:00;CYQF 072000Z 00000KT 15SM FEW250 M24/M29 A3008 RMK CI0 SLP298

CYQF;2009-12-07 21:00;CYQF 072100Z 00000KT 15SM FEW250 M23/M26 A3005 RMK CI0 SLP283

CYQF;2009-12-07 22:00;CYQF 072200Z 00000KT 15SM FEW250 M23/M28 A3004 RMK CI0 SLP279

CYQF;2009-12-07 23:00;CYQF 072300Z 15004KT 15SM FEW250 M26/M30 A3003 RMK CI0 SLP277

CYQF;2009-12-08 00:00;CYQF 080000Z 16002KT 15SM FEW250 M28/M35 A3002 RMK CI0 SLP281

CYQF;2009-12-08 01:00;CYQF 080100Z 00000KT 15SM SKC M29/M33 A3001 RMK SLP278

CYQF;2009-12-08 02:00;CYQF 080200Z 20002KT 15SM SKC M29/M34 A2999 RMK SLP272

CYQF;2009-12-08 03:00;CYQF 080300Z 00000KT 15SM SKC M28/M33 A2999 RMK SLP273

CYQF;2009-12-08 04:00;CYQF 080400Z 00000KT 15SM SKC M28/M33 A2999 RMK SLP272

CYQF;2009-12-08 05:00;CYQF 080500Z 19003KT 15SM SKC M31/M36 A2998 RMK SLP268

CYQF;2009-12-08 06:00;CYQF 080600Z 18003KT 15SM SKC M31/M36 A2999 RMK SLP266

CYQF;2009-12-08 07:00;CYQF 080700Z 19004KT 15SM SKC M32/M37 A3000 RMK SLP269

CYQF;2009-12-08 08:00;CYQF 080800Z 18004KT 15SM SKC M31/M36 A2999 RMK SLP268

CYQF;2009-12-08 09:00;CYQF 080900Z 21004KT 15SM SKC M32/M37 A2999 RMK SLP263

CYQF;2009-12-08 10:00;CYQF 081000Z 20003KT 15SM SKC M33/M38 A3000 RMK SLP266

CYQF;2009-12-08 11:00;CYQF 081100Z 23003KT 15SM SKC M34/M38 A3001 RMK SLP267

CYQF;2009-12-08 12:00;CYQF 081200Z 20005KT 15SM BKN030 M33/M38 A3002 RMK SC6 SLP277

CYQF;2009-12-08 13:00;CYQF 081300Z 20003KT 15SM BKN030 M29/M34 A3002 RMK SC6 SLP278

CYQF;2009-12-08 13:33;CYQF 081333Z 20003KT 15SM -SN BKN030 RMK SC7

CYQF;2009-12-08 14:00;CYQF 081400Z 19004KT 15SM -SN BKN025 M26/M31 A3003 RMK SC7 SLP282

CYQF;2009-12-08 15:00;CYQF 081500Z 18004KT 10SM BKN025 M25/M29 A3004 RMK SC7 IC SLP276

CYQF;2009-12-08 16:00;CYQF 081600Z 20003KT 12SM SCT025 BKN250 M23/M27 A3006 RMK SC4CI0 SLP281

CYQF;2009-12-08 17:00;CYQF 081700Z 00000KT 15SM FEW090 SCT250 M24/M28 A3006 RMK AC2CI1 SLP283

CYQF;2009-12-08 18:00;CYQF 081800Z 26004KT 15SM FEW090 BKN250 M22/M26 A3005 RMK AC1CI2 SLP280

CYQF;2009-12-08 19:00;CYQF 081900Z 00000KT 15SM FEW015 SCT250 M20/M24 A3004 RMK SC1CI2 SLP275

CYQF;2009-12-08 20:00;CYQF 082000Z 00000KT 15SM FEW015 SCT250 M17/M21 A3002 RMK SC1CI2 SLP269

CYQF;2009-12-08 21:00;CYQF 082100Z 00000KT 15SM FEW020 FEW250 M17/M22 A3001 RMK SC1CI2 SLP260

CYQF;2009-12-08 22:00;CYQF 082200Z 00000KT 15SM FEW020 BKN250 M17/M22 A3000 RMK SC1CI3 SLP257

CYQF;2009-12-08 22:51;CYQF 082251Z 00000KT 6SM -SN SCT020 BKN090 BKN250 RMK SC3AC2CI1 VIS N 3

CYQF;2009-12-08 23:00;CYQF 082300Z 00000KT 6SM -SN SCT030 BKN090 BKN250 M18/M21 A3000 RMK SC4AC2CI1 SLP258

CYQF;2009-12-09 00:00;CYQF 090000Z 20003KT 10SM -SN FEW030 BKN090 BKN250 M20/M24 A2998 RMK SC2AC2CI1 SLP257

CYQF;2009-12-09 01:00;CYQF 090100Z 00000KT 15SM -SN BKN025 OVC090 M20/M24 A2996 RMK SC5AC3 SLP249

CYQF;2009-12-09 02:00;CYQF 090200Z 00000KT 6SM -SN OVC020 M20/M24 A2994 RMK SC8 SLP243

CYQF;2009-12-09 02:49;CYQF 090249Z 21003KT 1 1/2SM -SN OVC015 RMK SN2SC6

CYQF;2009-12-09 03:00;CYQF 090300Z 23004KT 1 1/2SM -SN OVC015 M19/M22 A2992 RMK SN2SC6 SLP223

CYQF;2009-12-09 04:00;CYQF 090400Z 23003KT 1SM -SN OVC015 M17/M20 A2991 RMK SN3SC5 SLP218

CYQF;2009-12-09 04:30;CYQF 090430Z 24004KT 3SM -SN OVC017 RMK SC8

CYQF;2009-12-09 05:00;CYQF 090500Z 25003KT 4SM -SN OVC020 M17/M20 A2989 RMK SC8 SLP213

CYQF;2009-12-09 06:00;CYQF 090600Z 00000KT 5SM -SN OVC020 M17/M21 A2987 RMK SC8 /S01/ SLP200

CYQF;2009-12-09 07:00;CYQF 090700Z 00000KT 10SM -SN BKN040 M18/M21 A2986 RMK SC5 SLP197

CYQF;2009-12-09 08:00;CYQF 090800Z 00000KT 5SM -SN BKN040 M20/M23 A2984 RMK SC6 SLP190

CYQF;2009-12-09 09:00;CYQF 090900Z 00000KT 5SM -SN OVC040 M18/M22 A2982 RMK SC8 SLP179

CYQF;2009-12-09 10:00;CYQF 091000Z 00000KT 10SM -SN OVC040 M18/M21 A2981 RMK SC7 SLP176

CYQF;2009-12-09 11:00;CYQF 091100Z 00000KT 5SM -SN OVC040 M18/M21 A2980 RMK SC7 SLP173

CYQF;2009-12-09 12:00;CYQF 091200Z 00000KT 5SM -SN OVC040 M17/M21 A2980 RMK SC8 SLP174

CYQF;2009-12-09 13:00;CYQF 091300Z 00000KT 5SM -SN OVC040 M16/M19 A2979 RMK SC7 SLP170

CYQF;2009-12-09 14:00;CYQF 091400Z 00000KT 10SM -SN OVC040 M16/M19 A2979 RMK SC7 SLP171

CYQF;2009-12-09 14:44;CYQF 091444Z 00000KT 2SM -SN OVC035 RMK SN2SC6

CYQF;2009-12-09 15:00;CYQF 091500Z 00000KT 1SM -SN OVC035 M16/M19 A2978 RMK SN2SC5 SLP163

CYQF;2009-12-09 16:00;CYQF 091600Z 00000KT 6SM -SN FEW008 SCT035 BKN090 BKN250 M17/M20 A2978 RMK SF1SC3AC2CI1 TR SF SLP163

CYQF;2009-12-09 17:00;CYQF 091700Z 00000KT 6SM -SN FEW035 SCT090 BKN250 M17/M20 A2977 RMK SC2AC2CI2 /S01/ SLP161

CYQF;2009-12-09 17:53;CYQF 091753Z 32002KT 2SM -SN SCT035 BKN090 OVC250 RMK SC4AC2CI1

CYQF;2009-12-09 18:00;CYQF 091800Z 32003KT 2SM -SN BKN030 BKN090 OVC250 M14/M17 A2977 RMK SC5AC2CI1 SLP156

CYQF;2009-12-09 18:32;CYQF 091832Z 33010KT 4SM -SN SCT030 BKN090 OVC250 RMK SC4AC2CI1

CYQF;2009-12-09 19:00;CYQF 091900Z 34011KT 4SM -SN BKN030 OVC090 M13/M16 A2976 RMK SC5AC2 SLP151

CYQF;2009-12-09 20:00;CYQF 092000Z 34012G18KT 3SM -SN DRSN BKN030 OVC090 M12/M16 A2974 RMK SC6AC2 SLP145

CYQF;2009-12-09 21:00;CYQF 092100Z 33012KT 1 1/2SM -SN DRSN OVC030 M12/M16 A2973 RMK SN2SC6 SLP141

CYQF;2009-12-09 22:00;CYQF 092200Z 35012KT 1 1/2SM -SN DRSN OVC030 M12/M15 A2973 RMK SN2SC6 SLP141

CYQF;2009-12-09 23:00;CYQF 092300Z 34010G15KT 1 1/2SM -SN DRSN OVC030 M13/M15 A2974 RMK SN2SC6 SLP144

CYQF;2009-12-10 00:00;CYQF 100000Z 35013KT 1SM -SN DRSN OVC030 M13/M15 A2974 RMK SN4SC4 SLP143

CYQF;2009-12-10 00:21;CYQF 100021Z 34012KT 3SM -SN DRSN BKN030 OVC090 RMK SC5AC3

CYQF;2009-12-10 00:45;CYQF 100045Z 33012KT 1SM -SN DRSN BKN030 OVC090 RMK SN4SC2AC2

CYQF;2009-12-10 01:00;CYQF 100100Z 33013KT 1SM -SN DRSN OVC030 M13/M15 A2975 RMK SN4SC4 SLP145

CYQF;2009-12-10 01:17;CYQF 100117Z 33011KT 2SM -SN DRSN OVC030 RMK SN2SC6

CYQF;2009-12-10 02:00;CYQF 100200Z 33010KT 2SM -SN DRSN OVC030 M13/M15 A2973 RMK SN2SC6 SLP140

CYQF;2009-12-10 02:27;CYQF 100227Z 32006KT 3SM -SN OVC050 RMK SC8

CYQF;2009-12-10 03:00;CYQF 100300Z CCA 32004KT 2SM -SN OVC050 M13/M15 A2972 RMK SN2SC6 SLP134

CYQF;2009-12-10 04:00;CYQF 100400Z 22003KT 1 1/2SM -SN OVC050 M13/M14 A2970 RMK SN3SC5 SLP129

CYQF;2009-12-10 04:51;CYQF 100451Z 22002KT 1SM -SN OVC020 RMK SN3SC5

CYQF;2009-12-10 05:00;CYQF 100500Z 21003KT 1SM -SN OVC020 M13/M14 A2969 RMK SN3SC5 /S01/ SLP126

CYQF;2009-12-10 06:00;CYQF 100600Z CCA 24003KT 1SM -SN OVC020 M12/M14 A2969 RMK SN5SC3 /S02 SLP121

CYQF;2009-12-10 07:00;CYQF 100700Z 30004KT 1SM -SN OVC020 M12/M14 A2969 RMK SN5SC3 SLP122

CYQF;2009-12-10 08:00;CYQF 100800Z 30003KT 2SM -SN OVC020 M12/M14 A2970 RMK SN3SC5 SLP125

CYQF;2009-12-10 08:38;CYQF 100838Z 33004KT 3SM -SN OVC020 RMK SN2SC6

CYQF;2009-12-10 09:00;CYQF 100900Z 33004KT 2SM -SN OVC020 M12/M14 A2970 RMK SN3SC5 SLP125

CYQF;2009-12-10 10:00;CYQF 101000Z 00000KT 3SM -SN OVC020 M12/M14 A2971 RMK SC8 SLP128

CYQF;2009-12-10 11:00;CYQF 101100Z 34008KT 3SM -SN OVC020 M12/M15 A2971 RMK SC8 SLP128

CYQF;2009-12-10 11:26;CYQF 101126Z 34012KT 2SM -SN OVC020 RMK SN2SC6

CYQF;2009-12-10 12:00;CYQF 101200Z CCA 34010KT 2SM -SN OVC020 M12/M15 A2973 RMK SC8 /S01 SLP135

CYQF;2009-12-10 13:00;CYQF 101300Z 35008KT 2SM -SN OVC020 M13/M16 A2975 RMK SN3SC5 SLP140

CYQF;2009-12-10 14:00;CYQF 101400Z 35005KT 1SM -SN OVC020 M13/M15 A2976 RMK SN4SC4 SLP143

CYQF;2009-12-10 15:00;CYQF 101500Z 00000KT 2SM -SN OVC025 M14/M16 A2977 RMK SN3SC5 OBS TAKEN +05 SLP149

CYQF;2009-12-10 16:00;CYQF 101600Z 33003KT 6SM -SN OVC025 M13/M16 A2977 RMK SC8 SLP149

CYQF;2009-12-10 17:00;CYQF 101700Z 00000KT 4SM -SN BKN030 OVC090 M14/M16 A2976 RMK SC5AC2 VIS N 2 SLP147

CYQF;2009-12-10 17:27;CYQF 101727Z 26004KT 1SM -SN OVC015 RMK SN4SC4

CYQF;2009-12-10 18:00;CYQF 101800Z 25003KT 1 1/2SM -SN OVC015 M13/M15 A2976 RMK SN4SC4 /S02/ SLP145

CYQF;2009-12-10 18:54;CYQF 101854Z 23006KT 1SM -SN OVC015 RMK SN5SC3

CYQF;2009-12-10 19:00;CYQF 101900Z 23007KT 1SM -SN OVC005 M12/M14 A2974 RMK SN5SF3 SLP138

CYQF;2009-12-10 19:40;CYQF 101940Z 23008KT 5SM -SN SCT030 OVC080 RMK SC3AC5

CYQF;2009-12-10 20:00;CYQF 102000Z 22008KT 12SM -SN BKN034 OVC080 M12/M15 A2971 RMK SC5AC2 SLP131

CYQF;2009-12-10 20:20;CYQF 102020Z 23008KT 12SM VCSH BKN035 BKN080 RMK SC5AC2

CYQF;2009-12-10 21:00;CYQF 102100Z 21004KT 15SM SCT035 BKN080 OVC250 M13/M15 A2969 RMK SC3AC2CI0 SLP121

CYQF;2009-12-10 22:00;CYQF 102200Z 20004KT 15SM SCT035 BKN080 OVC250 M14/M17 A2968 RMK SC3AC2CI2 SLP118

CYQF;2009-12-10 23:00;CYQF 102300Z 19003KT 15SM FEW030 BKN090 OVC250 M14/M17 A2967 RMK SC2AC3CI2 SLP116

CYQF;2009-12-11 00:00;CYQF 110000Z 25004KT 15SM FEW030 BKN090 OVC250 M13/M16 A2966 RMK SC2AC2CI2 SLP112

CYQF;2009-12-11 01:00;CYQF 110100Z 18004KT 15SM OVC070 M13/M15 A2964 RMK AC8 OBS TAKEN +15 SLP103

CYQF;2009-12-11 02:00;CYQF 110200Z 21003KT 15SM OVC070 M12/M15 A2960 RMK AC8 SLP092

CYQF;2009-12-11 02:10;CYQF 110210Z 22005KT 8SM -SN FEW030 OVC070 RMK SC1AC7

CYQF;2009-12-11 03:00;CYQF 110300Z 22002KT 4SM -SN BKN030 OVC070 M10/M12 A2960 RMK SC5AC3 SLP087

CYQF;2009-12-11 04:00;CYQF 110400Z 19003KT 2SM -SN OVC015 M10/M12 A2958 RMK SN2SC6 SLP082

CYQF;2009-12-11 04:15;CYQF 110415Z 20004KT 1SM -SN VV008 RMK SN8

CYQF;2009-12-11 05:00;CYQF 110500Z 20006KT 1SM -SN VV008 M10/M12 A2956 RMK SN8 SLP076

CYQF;2009-12-11 05:18;CYQF 110518Z 18004KT 6SM -SN OVC025 RMK SC8

CYQF;2009-12-11 06:00;CYQF 110600Z 19005KT 3SM -SN OVC020 M10/M12 A2955 RMK SN2SC6 /S01/ SLP070

CYQF;2009-12-11 06:13;CYQF 110613Z 20005KT 1SM -SN VV012 RMK SN8

CYQF;2009-12-11 07:00;CYQF 110700Z 21006KT 3SM -SN OVC020 M10/M11 A2955 RMK SC8 SLP068

CYQF;2009-12-11 08:00;CYQF 110800Z 19004KT 3SM -SN OVC020 M10/M11 A2954 RMK SC8 SLP066

CYQF;2009-12-11 09:00;CYQF 110900Z 00000KT 10SM -SN OVC020 M10/M11 A2954 RMK SC8 SLP066

CYQF;2009-12-11 10:00;CYQF 111000Z 33008KT 10SM -SN BKN020 M08/M10 A2956 RMK SC6 SLP072

CYQF;2009-12-11 10:46;CYQF 111046Z 36010G15KT 2SM -SN OVC020 RMK SC8

CYQF;2009-12-11 11:00;CYQF 111100Z 35008KT 3SM -SN OVC020 M09/M11 A2958 RMK SC8 SLP079

CYQF;2009-12-11 12:00;CYQF 111200Z 33008KT 10SM -SN OVC020 M09/M12 A2960 RMK SC8 SLP086

CYQF;2009-12-11 13:00;CYQF 111300Z 35006KT 10SM -SN OVC020 M10/M13 A2962 RMK SC6 SLP092

CYQF;2009-12-11 14:00;CYQF 111400Z 34007KT 10SM -SN BKN020 OVC100 M11/M13 A2963 RMK SC6AC2 SLP094

CYQF;2009-12-11 15:00;CYQF 111500Z 36011KT 8SM -SN BKN020 OVC100 M12/M14 A2964 RMK SC5AC2 SLP100

CYQF;2009-12-11 15:38;CYQF 111538Z 02007KT 1 1/2SM -SN OVC020 RMK SN3SC5 VIS VRB 1-2

CYQF;2009-12-11 16:00;CYQF 111600Z 02006KT 1 1/2SM -SN OVC022 M15/M17 A2967 RMK SN3SC5 VIS VRB 1-2 SLP108

CYQF;2009-12-11 17:00;CYQF 111700Z 36003KT 1 1/2SM -SN OVC030 M15/M17 A2969 RMK SN2SC5 VIS VRB 1-2 SLP114

CYQF;2009-12-11 17:25;CYQF 111725Z 01004KT 8SM -SN SCT030 BKN080 RMK SC3AC2

CYQF;2009-12-11 18:00;CYQF 111800Z 02004KT 10SM -SN FEW030 BKN080 M15/M17 A2968 RMK SC2AC2 /S01/ SLP119

CYQF;2009-12-11 18:34;CYQF 111834Z 09003KT 1SM -SN BKN030 OVC080 RMK SN2SC3AC2

CYQF;2009-12-11 19:00;CYQF 111900Z 09005KT 1 1/2SM -SN BKN030 BKN080 M15/M18 A2968 RMK SN2SC3AC2 VIS VRB 1-2 SLP117

CYQF;2009-12-11 19:32;CYQF 111932Z 13003KT 3SM -SN BKN030 BKN080 RMK SC5AC2

CYQF;2009-12-11 20:00;CYQF 112000Z 15003KT 3SM -SN BKN030 BKN080 M14/M17 A2966 RMK SC5AC2 SLP110

CYQF;2009-12-11 21:00;CYQF 112100Z 16006KT 15SM SCT030 BKN080 BKN250 M15/M17 A2964 RMK SC3AC2CI2 SLP102

CYQF;2009-12-11 21:42;CYQF 112142Z 15005KT 6SM -SN SCT030 OVC080 RMK SC3AC4 VIS N 2

CYQF;2009-12-11 22:00;CYQF 112200Z 15004KT 6SM -SN BKN030 OVC080 M15/M18 A2965 RMK SC5AC2 VIS NW-N 2 SLP104

CYQF;2009-12-11 22:25;CYQF 112225Z 15003KT 1SM -SN OVC020 RMK SN3SC5

CYQF;2009-12-11 23:00;CYQF 112300Z 13002KT 1 1/2SM -SN BKN020 BKN080 M15/M17 A2965 RMK SN2SC3AC2 SLP105

CYQF;2009-12-11 23:14;CYQF 112314Z 00000KT 3SM -SN BR SCT025 BKN080 RMK SN1SC3AC2

CYQF;2009-12-11 23:47;CYQF 112347Z 06003KT 1SM -SN OVC025 RMK SN4SC4

CYQF;2009-12-12 00:00;CYQF 120000Z 07003KT 1SM -SN OVC025 M15/M17 A2966 RMK SN4SC4 SLP111

CYQF;2009-12-12 00:47;CYQF 120047Z 00000KT 3SM -SN OVC025 RMK SN2SC6

CYQF;2009-12-12 01:00;CYQF 120100Z 00000KT 3SM -SN OVC025 M15/M17 A2966 RMK SN2SC6 VIS VRB 2-4 SLP110

CYQF;2009-12-12 02:00;CYQF 120200Z 06002KT 3SM -SN OVC025 M16/M17 A2966 RMK SN3SC5 VIS VRB 2-4 SLP111

CYQF;2009-12-12 03:00;CYQF 120300Z 11002KT 3SM -SN BKN025 OVC080 M16/M18 A2967 RMK SN2SC2AC3 /S01/ SLP116

CYQF;2009-12-12 04:00;CYQF 120400Z 00000KT 3SM -SN SCT025 OVC080 M16/M18 A2968 RMK SN2SC2AC4 SLP119

CYQF;2009-12-12 05:00;CYQF 120500Z 00000KT 3SM -SN BKN025 OVC080 M16/M17 A2968 RMK SN2SC2AC3 VIS VRB 2-4 SLP120

CYQF;2009-12-12 06:00;CYQF 120600Z 01004KT 3SM -SN SCT025 OVC080 M16/M18 A2970 RMK SN2SC2AC4 VIS VRB 2-4 SLP130

CYQF;2009-12-12 07:00;CYQF 120700Z 02008KT 3SM -SN SCT025 OVC080 M16/M18 A2971 RMK SN2SC2AC3 VIS VRB 2-4 SLP133

CYQF;2009-12-12 08:00;CYQF 120800Z 02008KT 3SM -SN SCT025 OVC080 M21/M23 A2974 RMK SN2SC2AC3 SLP144

CYQF;2009-12-12 08:42;CYQF 120842Z 03006KT 1SM -SN OVC025 RMK SN3SC5

CYQF;2009-12-12 09:00;CYQF 120900Z 03005KT 1 1/2SM -SN OVC025 M21/M25 A2977 RMK SN3SC5 SLP162

CYQF;2009-12-12 10:00;CYQF 121000Z 02008KT 2SM -SN BKN025 M22/M27 A2980 RMK SN3SC4 SLP171

CYQF;2009-12-12 10:28;CYQF 121028Z 03008KT 3SM -SN BKN025 RMK SN2SC5

CYQF;2009-12-12 11:00;CYQF 121100Z 03008KT 5SM -SN BKN050 M23/M28 A2983 RMK SC7 SLP179

CYQF;2009-12-12 12:00;CYQF 121200Z 03008KT 5SM -SN OVC050 M23/M28 A2985 RMK SC8 SLP192

CYQF;2009-12-12 13:00;CYQF 121300Z 03005KT 5SM -SN BKN050 M25/M30 A2988 RMK SC6 SLP203

CYQF;2009-12-12 14:00;CYQF 121400Z 04008KT 3SM -SN OVC050 M26/M31 A2993 RMK SC8 SLP216

CYQF;2009-12-12 15:00;CYQF 121500Z 03006KT 3SM -SN BKN040 OVC080 M27/M32 A2995 RMK SN1SC6AC1 SLP231

CYQF;2009-12-12 16:00;CYQF 121600Z 02005KT 4SM -SN BKN040 OVC080 M28/M33 A2997 RMK SC6AC2 VIS NW 2 SLP238

CYQF;2009-12-12 17:00;CYQF 121700Z 02004KT 3SM -SN SCT040 BKN080 OVC250 M28/M33 A3000 RMK SC3AC2CI1 SLP249

CYQF;2009-12-12 18:00;CYQF 121800Z 00000KT 2SM -SN BKN040 OVC250 M28/M33 A3001 RMK SN2SC3CI1 SLP255

CYQF;2009-12-12 19:00;CYQF 121900Z 00000KT 3SM -SN SCT040 BKN080 BKN250 M28/M32 A3001 RMK SC3AC2CI1 SLP255

CYQF;2009-12-12 20:00;CYQF 122000Z 00000KT 3SM -SN SCT040 OVC080 M27/M33 A3001 RMK SC3AC5 SLP255

CYQF;2009-12-12 21:00;CYQF 122100Z 00000KT 6SM -SN SCT040 BKN080 OVC250 M28/M33 A3002 RMK SC3AC2CI1 SLP264

CYQF;2009-12-12 22:00;CYQF 122200Z 00000KT 10SM FEW040 SCT080 BKN250 M28/M33 A3002 RMK SC2AC2CI2 SLP266

CYQF;2009-12-12 23:00;CYQF 122300Z 00000KT 10SM FEW040 SCT080 BKN250 M28/M33 A3003 RMK SC2AC2CI2 SLP269

CYQF;2009-12-13 00:00;CYQF 130000Z 00000KT 12SM BKN250 M28/M34 A3004 RMK CI4 SLP273

CYQF;2009-12-13 01:00;CYQF 130100Z 00000KT 10SM FEW080 BKN250 M30/M34 A3004 RMK AC2CI2 SLP274

CYQF;2009-12-13 02:00;CYQF 130200Z 19003KT 15SM FEW080 OVC250 M31/M36 A3003 RMK AC1CI2 SLP270

CYQF;2009-12-13 03:00;CYQF 130300Z 19003KT 15SM OVC250 M32/M36 A3002 RMK CI2 SLP276

CYQF;2009-12-13 04:00;CYQF 130400Z 00000KT 15SM FEW100 BKN250 M32/M37 A3001 RMK AC1CI2 SLP273

CYQF;2009-12-13 05:00;CYQF 130500Z 00000KT 15SM FEW020 BKN250 M31/M36 A3001 RMK SC2CI1 SLP272

CYQF;2009-12-13 06:00;CYQF 130600Z 00000KT 15SM SCT250 M32/M37 A3001 RMK CI1 SLP275

CYQF;2009-12-13 07:00;CYQF 130700Z 00000KT 15SM FEW250 M33/M37 A3001 RMK CI0 SLP274

CYQF;2009-12-13 08:00;CYQF 130800Z 00000KT 15SM FEW210 M33/M38 A3000 RMK CI1 SLP271

CYQF;2009-12-13 09:00;CYQF 130900Z 00000KT 15SM FEW210 M34/M38 A2999 RMK CI2 SLP268

CYQF;2009-12-13 10:00;CYQF 131000Z 00000KT 15SM FEW210 M32/M37 A2998 RMK CI2 SLP267

CYQF;2009-12-13 10:52;CYQF 131052Z 00000KT 10SM -SN OVC100 RMK AC8

CYQF;2009-12-13 11:00;CYQF 131100Z 00000KT 10SM -SN OVC100 M31/M36 A2998 RMK AC8 SLP266

CYQF;2009-12-13 11:32;CYQF 131132Z 00000KT 2SM -SN OVC080 M31/M35 RMK AC8

CYQF;2009-12-13 12:00;CYQF 131200Z 00000KT 2SM -SN OVC080 M31/M35 A2997 RMK AC8 SLP258

CYQF;2009-12-13 13:00;CYQF 131300Z 00000KT 10SM -SN BKN080 M31/M36 A2996 RMK AC5 SLP257

CYQF;2009-12-13 14:00;CYQF 131400Z 00000KT 10SM -SN OVC080 M31/M35 A2996 RMK AC8 SLP256

CYQF;2009-12-13 15:00;CYQF 131500Z 00000KT 4SM -SN OVC080 M30/M34 A2997 RMK AC8 SLP261

CYQF;2009-12-13 16:00;CYQF 131600Z 00000KT 3SM -SN OVC080 M29/M34 A2998 RMK SN2AC6 SLP266

CYQF;2009-12-13 16:19;CYQF 131619Z 00000KT 1SM -SN OVC080 RMK SN3AC5

CYQF;2009-12-13 17:00;CYQF 131700Z 00000KT 1 1/2SM -SN OVC080 M29/M33 A2999 RMK SN3AC4 SLP268

CYQF;2009-12-13 17:33;CYQF 131733Z 00000KT 3SM IC FEW080 OVC250 RMK AC2CI2

CYQF;2009-12-13 18:00;CYQF 131800Z 00000KT 3SM IC FEW080 OVC250 M28/M33 A3000 RMK AC2CI3 SLP272

CYQF;2009-12-13 19:00;CYQF 131900Z 00000KT 10SM FEW080 OVC250 M27/M32 A2999 RMK AC2CI3 SLP267

CYQF;2009-12-13 19:47;CYQF 131947Z 00000KT 8SM FEW080 OVC250 RMK AC2CI3 BR

CYQF;2009-12-13 20:00;CYQF 132000Z 00000KT 5SM BR FEW080 BKN250 M28/M32 A2998 RMK AC1CI3 SLP266

CYQF;2009-12-13 21:00;CYQF 132100Z 00000KT 8SM FEW080 BKN250 M28/M32 A2998 RMK AC1CI4 BR SLP265

CYQF;2009-12-13 22:00;CYQF 132200Z 00000KT 6SM BR FEW080 BKN250 M28/M33 A2998 RMK AC1CI4 SLP267

CYQF;2009-12-13 23:00;CYQF 132300Z 00000KT 3SM -SN SCT080 OVC250 M28/M33 A3000 RMK AC4CI2 SLP272

CYQF;2009-12-13 23:24;CYQF 132324Z 00000KT 2SM -SN SCT080 OVC250 RMK AC4CI2

CYQF;2009-12-14 00:00;CYQF 140000Z 26003KT 3SM -SN OVC250 M28/M33 A3001 RMK CI8 SLP272

CYQF;2009-12-14 01:00;CYQF 140100Z 27002KT 2SM -SN OVC250 M27/M32 A3002 RMK CI8 SLP274

CYQF;2009-12-14 02:00;CYQF 140200Z 27002KT 1 1/2SM -SN VV040 M27/M32 A3003 RMK SN8 SLP278

CYQF;2009-12-14 03:00;CYQF 140300Z 27002KT 2SM -SN VV040 M27/M31 A3004 RMK SN8 SLP278

CYQF;2009-12-14 03:14;CYQF 140314Z 27002KT 3SM -SN VV040 RMK SN8

CYQF;2009-12-14 04:00;CYQF 140400Z 28003KT 6SM -SN OVC100 M27/M32 A3005 RMK AC7 SLP282

CYQF;2009-12-14 05:00;CYQF 140500Z 28002KT 6SM -SN BKN100 M29/M34 A3006 RMK AC3 SLP286

CYQF;2009-12-14 06:00;CYQF 140600Z CCA 23004KT 10SM SKC M34/M38 A3006 RMK IC SLP295

CYQF;2009-12-14 06:39;CYQF 140639Z 25005KT 15SM SKC

CYQF;2009-12-14 07:00;CYQF 140700Z 23005KT 15SM SKC M33/M38 A3007 RMK SLP297

CYQF;2009-12-14 08:00;CYQF 140800Z 25005KT 15SM SKC M35/M40 A3007 RMK SLP297

CYQF;2009-12-14 09:00;CYQF 140900Z 24002KT 15SM SKC M35/M40 A3007 RMK SLP300

CYQF;2009-12-14 10:00;CYQF 141000Z 20003KT 15SM SKC M37/M40 A3009 RMK SLP304

CYQF;2009-12-14 11:00;CYQF 141100Z 25002KT 15SM SKC M37/M42 A3008 RMK SLP303

CYQF;2009-12-14 12:00;CYQF 141200Z 25005KT 15SM SKC M38/M43 A3008 RMK SLP306

CYQF;2009-12-14 13:00;CYQF 141300Z 00000KT 15SM SKC M38/M41 A3010 RMK SLP311

CYQF;2009-12-14 14:00;CYQF 141400Z 23005KT 15SM SKC M38/M42 A3009 RMK SLP309

CYQF;2009-12-14 15:00;CYQF 141500Z 20004KT 15SM SKC M37/M41 A3009 RMK SLP306

CYQF;2009-12-14 16:00;CYQF 141600Z CCA 20004KT 15SM SKC M36/M40 A3010 RMK SLP310

CYQF;2009-12-14 17:00;CYQF 141700Z 21003KT 10SM SKC M37/M41 A3012 RMK BR SLP315

CYQF;2009-12-14 18:00;CYQF 141800Z 00000KT 10SM SKC M33/M38 A3012 RMK BR SLP320

CYQF;2009-12-14 19:00;CYQF 141900Z 19003KT 12SM SKC M33/M38 A3010 RMK BR SLP315

CYQF;2009-12-14 20:00;CYQF 142000Z 19002KT 10SM SKC M30/M35 A3009 RMK BR SLP312

CYQF;2009-12-14 21:00;CYQF 142100Z 00000KT 10SM SKC M28/M32 A3007 RMK SLP300

CYQF;2009-12-14 22:00;CYQF 142200Z 00000KT 10SM SKC M28/M32 A3006 RMK BR SLP297

CYQF;2009-12-14 23:00;CYQF 142300Z 00000KT 15SM SKC M28/M33 A3006 RMK SLP295

CYQF;2009-12-15 00:00;CYQF 150000Z 00000KT 15SM SKC M29/M34 A3004 RMK SLP294

CYQF;2009-12-15 01:00;CYQF 150100Z 15004KT 15SM SKC M31/M36 A3003 RMK SLP289

CYQF;2009-12-15 02:00;CYQF 150200Z 00000KT 15SM SKC M33/M38 A3003 RMK SLP289

CYQF;2009-12-15 03:00;CYQF 150300Z 16006KT 15SM SKC M31/M36 A3000 RMK SLP281

CYQF;2009-12-15 04:00;CYQF 150400Z 12002KT 15SM SKC M31/M36 A3000 RMK SLP279

CYQF;2009-12-15 05:00;CYQF 150500Z 15004KT 15SM SKC M31/M35 A2998 RMK SLP275

CYQF;2009-12-15 06:00;CYQF 150600Z 17003KT 15SM SKC M32/M37 A2996 RMK SLP264

CYQF;2009-12-15 07:00;CYQF 150700Z 18002KT 15SM SKC M32/M37 A2995 RMK SLP260

CYQF;2009-12-15 08:00;CYQF 150800Z 18005KT 15SM SKC M31/M36 A2993 RMK SLP253

CYQF;2009-12-15 09:00;CYQF 150900Z 18005KT 15SM SKC M31/M35 A2988 RMK SLP228

CYQF;2009-12-15 10:00;CYQF 151000Z 16005KT 15SM FEW250 M29/M35 A2985 RMK CI2 SLP216

CYQF;2009-12-15 11:00;CYQF 151100Z CCA 16004KT 15SM BKN250 M27/M33 A2983 RMK CI3 SLP210

CYQF;2009-12-15 12:00;CYQF 151200Z 15008KT 15SM SCT080 BKN250 M25/M31 A2979 RMK AC3CI2 SLP191

CYQF;2009-12-15 13:00;CYQF 151300Z 13006KT 15SM SCT080 BKN250 M25/M31 A2974 RMK AC3CI2 SLP175

CYQF;2009-12-15 14:00;CYQF 151400Z 14008KT 15SM BKN075 OVC250 M24/M30 A2973 RMK AC5CI2 SLP170

CYQF;2009-12-15 15:00;CYQF 151500Z 15006KT 15SM BKN090 OVC250 M23/M29 A2971 RMK AC5CI2 SLP162

CYQF;2009-12-15 16:00;CYQF 151600Z 17010KT 15SM BKN090 BKN250 M22/M27 A2970 RMK AC5CI1 SLP159

CYQF;2009-12-15 17:00;CYQF 151700Z 13006KT 15SM FEW040 BKN100 BKN250 M22/M27 A2970 RMK SC1AC4CI1 SLP160

CYQF;2009-12-15 18:00;CYQF 151800Z 15005KT 15SM FEW100 SCT250 M22/M28 A2971 RMK AC2CI1 SLP163

CYQF;2009-12-15 19:00;CYQF 151900Z 14004KT 15SM FEW100 FEW250 M21/M28 A2970 RMK AC1CI1 SLP159

CYQF;2009-12-15 20:00;CYQF 152000Z 20004KT 15SM FEW100 M21/M27 A2970 RMK AC1 SLP160

CYQF;2009-12-15 21:00;CYQF 152100Z 19002KT 15SM FEW250 M21/M27 A2972 RMK CI1 SLP163

CYQF;2009-12-15 22:00;CYQF 152200Z 00000KT 15SM FEW250 M21/M27 A2973 RMK CI1 SLP166

CYQF;2009-12-15 23:00;CYQF 152300Z 00000KT 15SM FEW120 SCT250 M22/M28 A2975 RMK AC2CI0 SLP173

CYQF;2009-12-16 00:00;CYQF 160000Z 00000KT 15SM SCT250 M24/M29 A2977 RMK CI1 SLP176

CYQF;2009-12-16 01:00;CYQF 160100Z 19005KT 15SM SCT250 M24/M29 A2977 RMK CI1 SLP178

CYQF;2009-12-16 02:00;CYQF 160200Z 16005KT 15SM FEW250 M23/M28 A2977 RMK CI0 SLP178

CYQF;2009-12-16 03:00;CYQF 160300Z 19003KT 15SM FEW120 M24/M28 A2978 RMK AC1 SLP177

CYQF;2009-12-16 04:00;CYQF 160400Z 00000KT 15SM BKN120 M23/M27 A2978 RMK AC6 SLP177

CYQF;2009-12-16 05:00;CYQF 160500Z 00000KT 15SM OVC120 M21/M26 A2976 RMK AC8 SLP172

CYQF;2009-12-16 06:00;CYQF 160600Z 18003KT 15SM OVC120 M20/M25 A2974 RMK AC8 SLP158

CYQF;2009-12-16 07:00;CYQF 160700Z 00000KT 15SM OVC120 M19/M24 A2973 RMK AC8 SLP153

CYQF;2009-12-16 08:00;CYQF 160800Z 00000KT 15SM BKN120 OVC220 M15/M19 A2970 RMK AC5CI3 SLP146

CYQF;2009-12-16 09:00;CYQF 160900Z 15010KT 15SM SCT120 BKN220 M11/M15 A2968 RMK AC3CI1 SLP125

CYQF;2009-12-16 10:00;CYQF 161000Z 18004KT 15SM SCT120 BKN220 M13/M16 A2968 RMK AC3CI2 SLP127

CYQF;2009-12-16 11:00;CYQF 161100Z 18006KT 15SM BKN100 OVC220 M11/M14 A2964 RMK AC5CI2 SLP112

CYQF;2009-12-16 12:00;CYQF 161200Z 21003KT 15SM SCT100 BKN220 M11/M14 A2963 RMK AC3CI2 SLP112

CYQF;2009-12-16 13:00;CYQF 161300Z 00000KT 15SM FEW100 FEW220 M13/M15 A2963 RMK AC1CI0 SLP112

CYQF;2009-12-16 14:00;CYQF 161400Z 24010KT 15SM FEW100 FEW220 M12/M14 A2962 RMK AC1CI0 SLP109

CYQF;2009-12-16 15:00;CYQF 161500Z 20002KT 15SM FEW100 M13/M15 A2964 RMK AC1 SLP117

CYQF;2009-12-16 16:00;CYQF 161600Z 24004KT 15SM FEW100 FEW250 M11/M13 A2966 RMK AC1CI1 SLP125

CYQF;2009-12-16 17:00;CYQF 161700Z 17005KT 15SM FEW100 FEW250 M12/M14 A2969 RMK AC1CI2 TR AC SLP132

CYQF;2009-12-16 18:00;CYQF 161800Z 20004KT 15SM FEW250 M10/M12 A2971 RMK CI2 SLP132

CYQF;2009-12-16 19:00;CYQF 161900Z 00000KT 15SM FEW040 FEW250 M07/M12 A2971 RMK SC1CI1 SLP134

CYQF;2009-12-16 20:00;CYQF 162000Z 00000KT 15SM FEW040 SCT250 M08/M12 A2972 RMK SC1CI2 SLP136

CYQF;2009-12-16 21:00;CYQF 162100Z 00000KT 15SM FEW040 BKN250 M09/M12 A2973 RMK SC1CI2 SLP127

CYQF;2009-12-16 22:00;CYQF 162200Z 19007KT 15SM FEW040 BKN100 BKN250 M09/M13 A2973 RMK SC1AC4CI2 SLP129

CYQF;2009-12-16 23:00;CYQF 162300Z 00000KT 15SM SCT100 BKN250 M07/M11 A2974 RMK AC3CI2 SLP131

CYQF;2009-12-17 00:00;CYQF 170000Z 00000KT 15SM FEW100 BKN250 M08/M11 A2975 RMK AC2CI1 SLP132

CYQF;2009-12-17 01:00;CYQF 170100Z 18006KT 15SM FEW100 BKN250 M08/M11 A2972 RMK AC2CI1 SLP124

CYQF;2009-12-17 02:00;CYQF 170200Z 17010KT 15SM BKN080 M01/M06 A2971 RMK AC6 SLP121

CYQF;2009-12-17 03:00;CYQF 170300Z 20004KT 15SM BKN080 M00/M06 A2972 RMK AC6 SLP117

CYQF;2009-12-17 04:00;CYQF 170400Z 23008KT 15SM OVC080 M02/M07 A2973 RMK AC8 SLP120

CYQF;2009-12-17 05:00;CYQF 170500Z 24008KT 15SM OVC080 M02/M07 A2973 RMK AC8 SLP121

CYQF;2009-12-17 06:00;CYQF 170600Z 23003KT 15SM OVC080 M01/M07 A2974 RMK AC8 SLP122

CYQF;2009-12-17 07:00;CYQF 170700Z 25005KT 15SM OVC120 M02/M07 A2976 RMK AC8 SLP127

CYQF;2009-12-17 08:00;CYQF 170800Z 23008KT 15SM OVC120 M04/M08 A2977 RMK AC8 SLP131

CYQF;2009-12-17 09:00;CYQF 170900Z 26008KT 15SM OVC120 M01/M06 A2978 RMK AC8 SLP135

CYQF;2009-12-17 10:00;CYQF 171000Z 26005KT 15SM BKN120 OVC230 M04/M07 A2981 RMK AC6CI2 SLP143

CYQF;2009-12-17 11:00;CYQF 171100Z 15002KT 15SM SCT120 BKN230 M04/M07 A2983 RMK AC3CI2 SLP150

CYQF;2009-12-17 12:00;CYQF 171200Z 20007KT 15SM SCT120 BKN230 M07/M10 A2986 RMK AC3CI2 SLP168

CYQF;2009-12-17 13:00;CYQF 171300Z 25004KT 15SM FEW120 SCT230 M08/M11 A2988 RMK AC2CI1 SLP175

CYQF;2009-12-17 14:00;CYQF 171400Z 22003KT 15SM FEW120 SCT230 M11/M14 A2991 RMK AC1CI1 SLP183

CYQF;2009-12-17 15:00;CYQF 171500Z 24007KT 15SM FEW120 SCT250 M12/M13 A2993 RMK AC1CI0 SLP190

CYQF;2009-12-17 16:00;CYQF 171600Z 19004KT 15SM FEW100 FEW250 M13/M14 A2997 RMK AC1CI1 SLP202

CYQF;2009-12-17 17:00;CYQF 171700Z 15002KT 15SM FEW100 SCT250 M09/M10 A3001 RMK AC1CI1 SLP215

CYQF;2009-12-17 18:00;CYQF 171800Z 20003KT 15SM FEW100 SCT250 M09/M11 A3003 RMK AC1CI1 VIRGA SLP222

CYQF;2009-12-17 19:00;CYQF 171900Z 00000KT 15SM FEW100 SCT250 M06/M10 A3004 RMK AC2CI1 SLP225

CYQF;2009-12-17 20:00;CYQF 172000Z 18003KT 15SM FEW100 SCT250 M04/M09 A3005 RMK AC2CI1 SLP229

CYQF;2009-12-17 21:00;CYQF 172100Z 21003KT 15SM FEW100 FEW250 M05/M10 A3006 RMK AC1CI1 SLP229

CYQF;2009-12-17 22:00;CYQF 172200Z 20005KT 15SM SCT100 BKN250 M05/M09 A3009 RMK AC4CI2 SLP236

CYQF;2009-12-17 23:00;CYQF 172300Z 20004KT 15SM BKN100 BKN250 M03/M08 A3011 RMK AC3CI0 SLP242

CYQF;2009-12-18 00:00;CYQF 180000Z 23004KT 15SM BKN100 BKN250 M05/M09 A3012 RMK AC3CI0 SLP255

CYQF;2009-12-18 01:00;CYQF 180100Z 00000KT 15SM SKC M07/M10 A3012 RMK OBS TAKEN +12 SLP257

CYQF;2009-12-18 02:00;CYQF 180200Z 00000KT 15SM SKC M09/M11 A3013 RMK SLP259

CYQF;2009-12-18 03:00;CYQF 180300Z 20004KT 15SM SKC M13/M14 A3013 RMK SLP274

CYQF;2009-12-18 04:00;CYQF 180400Z 20004KT 15SM SKC M11/M12 A3013 RMK SLP273

CYQF;2009-12-18 05:00;CYQF 180500Z 00000KT 15SM SKC M12/M14 A3011 RMK SLP268

CYQF;2009-12-18 06:00;CYQF 180600Z 00000KT 15SM SKC M13/M15 A3010 RMK SLP261

CYQF;2009-12-18 07:00;CYQF 180700Z 18005KT 15SM SKC M11/M12 A3010 RMK SLP261

CYQF;2009-12-18 08:00;CYQF 180800Z 00000KT 15SM SKC M15/M17 A3009 RMK SLP257

CYQF;2009-12-18 09:00;CYQF 180900Z 18004KT 15SM SKC M15/M16 A3008 RMK SLP249

CYQF;2009-12-18 10:00;CYQF 181000Z 18004KT 15SM SKC M14/M16 A3008 RMK SLP249

CYQF;2009-12-18 11:00;CYQF 181100Z 00000KT 15SM SKC M16/M18 A3006 RMK SLP245

CYQF;2009-12-18 12:00;CYQF 181200Z 00000KT 15SM SKC M14/M15 A3006 RMK SLP242

CYQF;2009-12-18 13:00;CYQF 181300Z 00000KT 15SM SKC M16/M17 A3005 RMK SLP241

CYQF;2009-12-18 14:00;CYQF 181400Z 00000KT 15SM SKC M17/M18 A3004 RMK SLP235

CYQF;2009-12-18 15:00;CYQF 181500Z 18003KT 15SM SCT250 M15/M17 A3003 RMK CI1 SLP241

CYQF;2009-12-18 16:00;CYQF 181600Z 00000KT 15SM BKN250 M17/M18 A3002 RMK CI3 SLP239

CYQF;2009-12-18 17:00;CYQF 181700Z 18003KT 15SM BKN250 M15/M16 A3000 RMK CI3 SLP234

CYQF;2009-12-18 18:00;CYQF 181800Z 21003KT 15SM BKN250 M12/M14 A2998 RMK CI5 SLP224

CYQF;2009-12-18 19:00;CYQF 181900Z 21005KT 15SM OVC250 M10/M12 A2995 RMK CI5 SLP214

CYQF;2009-12-18 20:00;CYQF 182000Z 17002KT 15SM FEW100 OVC250 M08/M11 A2993 RMK AC2CI4 SLP206

CYQF;2009-12-18 21:00;CYQF 182100Z 00000KT 15SM OVC210 M05/M10 A2990 RMK CI6 SLP187

CYQF;2009-12-18 22:00;CYQF 182200Z 00000KT 15SM FEW040 BKN120 BKN250 M07/M10 A2989 RMK CU1AC6CI2 SLP184

CYQF;2009-12-18 23:00;CYQF 182300Z 00000KT 15SM FEW040 BKN120 BKN250 M07/M10 A2987 RMK SC1AC5CI1 SLP179

CYQF;2009-12-19 00:00;CYQF 190000Z 00000KT 15SM FEW040 BKN100 M08/M10 A2987 RMK SC1AC6 SLP178

CYQF;2009-12-19 01:00;CYQF 190100Z 19002KT 15SM FEW040 BKN100 M08/M10 A2986 RMK SC1AC6 SLP177

CYQF;2009-12-19 02:00;CYQF 190200Z 21004KT 15SM FEW040 BKN100 M07/M10 A2987 RMK SC2AC3 SLP178

CYQF;2009-12-19 03:00;CYQF 190300Z 20004KT 15SM FEW040 BKN100 M07/M10 A2987 RMK SC2AC3 SLP179

CYQF;2009-12-19 04:00;CYQF 190400Z 19002KT 15SM FEW040 BKN120 M08/M10 A2988 RMK SC2AC4 SLP183

CYQF;2009-12-19 05:00;CYQF 190500Z 00000KT 15SM FEW040 BKN120 M09/M11 A2988 RMK SC2AC4 SLP183

CYQF;2009-12-19 06:00;CYQF 190600Z 00000KT 15SM FEW120 M11/M13 A2989 RMK AC1 SLP188

CYQF;2009-12-19 07:00;CYQF 190700Z 00000KT 15SM FEW120 M10/M12 A2989 RMK AC1 SLP188

CYQF;2009-12-19 08:00;CYQF 190800Z 17006KT 15SM FEW120 M12/M13 A2989 RMK AC1 SLP188

CYQF;2009-12-19 09:00;CYQF 190900Z 00000KT 15SM SCT120 M12/M13 A2988 RMK AC3 SLP177

CYQF;2009-12-19 10:00;CYQF 191000Z 00000KT 15SM BKN060 M11/M12 A2991 RMK SC5 SLP185

CYQF;2009-12-19 11:00;CYQF 191100Z 00000KT 15SM FEW060 SCT120 M12/M14 A2991 RMK SC2AC2 SLP186

CYQF;2009-12-19 12:00;CYQF 191200Z 18005KT 15SM FEW060 BKN120 M11/M14 A2992 RMK SC1AC5 SLP192

CYQF;2009-12-19 13:00;CYQF 191300Z 20003KT 15SM BKN120 M11/M13 A2993 RMK AC6 SLP197

CYQF;2009-12-19 14:00;CYQF 191400Z 20005KT 15SM BKN100 M11/M13 A2993 RMK AC7 SLP196

CYQF;2009-12-19 15:00;CYQF 191500Z 00000KT 15SM OVC100 M09/M11 A2993 RMK AC8 SLP194

CYQF;2009-12-19 15:49;CYQF 191549Z 24002KT 10SM OVC004 RMK ST8

CYQF;2009-12-19 16:00;CYQF 191600Z 00000KT 10SM OVC004 M08/M09 A2994 RMK ST8 SLP197

CYQF;2009-12-19 16:53;CYQF 191653Z 00000KT 4SM BR OVC002 RMK ST8 VSBY SW-N 3/4

CYQF;2009-12-19 17:00;CYQF 191700Z 21002KT 3/4SM BR OVC002 M07/M08 A2995 RMK FG5ST3 SLP199

CYQF;2009-12-19 17:07;CYQF 191707Z CCA 20002KT 1/2SM FZFG VV001 RMK FG8 VIS VRB 1/4-3/4

CYQF;2009-12-19 18:00;CYQF 191800Z 21002KT 1/8SM FZFG VV001 M05/M06 A2995 RMK FG8 SLP202

CYQF;2009-12-19 18:37;CYQF 191837Z 10003KT 1/2SM FZFG VV001 RMK FG8 VIS VRB 1/4-3/4

CYQF;2009-12-19 19:00;CYQF 191900Z 13002KT 1/2SM FZFG VV001 M04/M05 A2996 RMK FG8 VIS VRB 1/4-3/4 SLP204

CYQF;2009-12-19 20:00;CYQF 192000Z 18003KT 3/4SM BR OVC002 M04/M04 A2995 RMK FG6ST2 VIS VRB 1/2-1 SLP203

CYQF;2009-12-19 21:00;CYQF 192100Z 00000KT 1SM BR FEW004 OVC013 M03/M04 A2996 RMK ST2SC5 SLP203

CYQF;2009-12-19 21:39;CYQF 192139Z 20004KT 4SM BR FEW004 BKN015 RMK ST2SC4

CYQF;2009-12-19 22:00;CYQF 192200Z 14002KT 6SM BR FEW004 SCT015 M03/M04 A2995 RMK ST1SC3 SLP199

CYQF;2009-12-19 23:00;CYQF 192300Z 09003KT 6SM BR BKN020 M05/M06 A2995 RMK SC5 SLP200

CYQF;2009-12-20 00:00;CYQF 200000Z 12005KT 10SM BKN020 M04/M05 A2995 RMK SC7 VIS NW-N 3 SLP200

CYQF;2009-12-20 00:31;CYQF 200031Z 15002KT 8SM BKN013 RMK SC7

CYQF;2009-12-20 01:00;CYQF 200100Z 14004KT 8SM BKN016 M02/M03 A2995 RMK SC6 SLP198

CYQF;2009-12-20 01:42;CYQF 200142Z 00000KT 1SM BR FEW015 RMK SC2

CYQF;2009-12-20 01:54;CYQF 200154Z 15003KT 3SM BR FEW015 RMK SC2

CYQF;2009-12-20 02:00;CYQF 200200Z 17004KT 3/4SM BR FEW015 M07/M08 A2997 RMK FG1SC2 VIS S 1/8 SLP205

CYQF;2009-12-20 02:08;CYQF 200208Z 18005KT 0SM FZFG VV000 RMK FG8

CYQF;2009-12-20 03:00;CYQF 200300Z 19003KT 0SM FZFG VV000 M07/M08 A2998 RMK FG8 SLP210

CYQF;2009-12-20 04:00;CYQF 200400Z 14005KT 0SM FZFG VV000 M06/M07 A2998 RMK FG8 SLP210

CYQF;2009-12-20 04:48;CYQF 200448Z 24003KT 1/8SM FZFG VV001 RMK FG8

CYQF;2009-12-20 05:00;CYQF 200500Z 32005KT 1/8SM FZFG VV001 M06/M07 A3000 RMK FG8 SLP216

CYQF;2009-12-20 06:00;CYQF 200600Z 36004KT 1/4SM FZFG VV001 M06/M07 A3003 RMK FG8 FROIN SLP221

CYQF;2009-12-20 06:11;CYQF 200611Z 02015G21KT 5SM BR OVC014 RMK SC8 FROIN

CYQF;2009-12-20 07:00;CYQF 200700Z 01015G20KT 15SM OVC015 M06/M08 A3007 RMK SC8 SLP234

CYQF;2009-12-20 08:00;CYQF 200800Z 36010G15KT 15SM BKN040 M07/M12 A3010 RMK SC6 SLP243

CYQF;2009-12-20 09:00;CYQF 200900Z 35006KT 15SM BKN040 M08/M13 A3010 RMK SC7 SLP249

CYQF;2009-12-20 10:00;CYQF 201000Z 34006KT 15SM OVC040 M08/M12 A3013 RMK SC8 SLP256

CYQF;2009-12-20 11:00;CYQF 201100Z 36003KT 15SM OVC040 M08/M12 A3013 RMK SC8 SLP258

CYQF;2009-12-20 12:00;CYQF 201200Z 31004KT 15SM OVC040 M09/M12 A3013 RMK SC8 SLP258

CYQF;2009-12-20 13:00;CYQF 201300Z 00000KT 15SM OVC040 M09/M12 A3012 RMK SC8 SLP256

CYQF;2009-12-20 14:00;CYQF 201400Z 00000KT 15SM OVC040 M09/M13 A3011 RMK SC8 SLP254

CYQF;2009-12-20 15:00;CYQF 201500Z 00000KT 15SM BKN040 M10/M12 A3012 RMK SC7 SLP261

CYQF;2009-12-20 16:00;CYQF 201600Z 00000KT 15SM BKN040 M10/M12 A3012 RMK SC7 SLP259

CYQF;2009-12-20 17:00;CYQF 201700Z 00000KT 15SM BKN040 M09/M12 A3010 RMK SC7 SLP255

CYQF;2009-12-20 18:00;CYQF 201800Z 14005KT 15SM BKN040 OVC100 M09/M12 A3009 RMK SC6AC2 SLP249

CYQF;2009-12-20 19:00;CYQF 201900Z 16004KT 15SM SCT040 OVC100 M08/M12 A3005 RMK SC3AC3 SLP236

CYQF;2009-12-20 20:00;CYQF 202000Z 15006KT 15SM SCT040 OVC100 M08/M12 A3003 RMK SC3AC4 SLP229

CYQF;2009-12-20 21:00;CYQF 202100Z 15008KT 15SM FEW040 OVC100 M08/M12 A2999 RMK SC2AC4 SLP215

CYQF;2009-12-20 22:00;CYQF 202200Z 14007KT 15SM FEW040 OVC080 M09/M12 A2999 RMK SC2AS6 SLP214

CYQF;2009-12-20 23:00;CYQF 202300Z 14009KT 15SM SCT040 OVC080 M09/M13 A2998 RMK SC3AS5 SLP211

CYQF;2009-12-20 23:23;CYQF 202323Z 13010KT 6SM -SN BKN040 OVC080 RMK SC5AS3

CYQF;2009-12-21 00:00;CYQF 210000Z 13010KT 4SM -SN SCT040 OVC080 M09/M13 A2996 RMK SC3AS5 SLP208

CYQF;2009-12-21 00:31;CYQF 210031Z 14012KT 1SM -SN OVC020 RMK SN3SC5

CYQF;2009-12-21 01:00;CYQF 210100Z 14012KT 1SM -SN DRSN VV010 M10/M12 A2996 RMK SN8 SLP207

CYQF;2009-12-21 01:37;CYQF 210137Z 13012KT 2SM -SN DRSN OVC015 RMK SN2SC6

CYQF;2009-12-21 02:00;CYQF 210200Z 14013KT 3SM -SN DRSN VV030 M10/M13 A2995 RMK SN8 SLP202

CYQF;2009-12-21 03:00;CYQF 210300Z 14015KT 10SM -SN OVC050 M11/M13 A2993 RMK SC8 SLP197

CYQF;2009-12-21 04:00;CYQF 210400Z 15014KT 12SM -SN OVC040 M11/M14 A2992 RMK SC8 SLP194

CYQF;2009-12-21 05:00;CYQF 210500Z 16010KT 12SM -SN DRSN OVC040 M11/M14 A2991 RMK SC8 SLP192

CYQF;2009-12-21 06:00;CYQF 210600Z 15012KT 10SM -SN DRSN OVC040 M11/M13 A2989 RMK SC8 /S01/ SLP185

CYQF;2009-12-21 07:00;CYQF 210700Z 15010G15KT 15SM -SN OVC040 M11/M13 A2989 RMK SC8 SLP183

CYQF;2009-12-21 08:00;CYQF 210800Z 15010G15KT 15SM -SN OVC030 M11/M13 A2988 RMK SC8 SLP181

CYQF;2009-12-21 09:00;CYQF 210900Z 15010G15KT 5SM -SN OVC030 M11/M13 A2988 RMK SC8 SLP179

CYQF;2009-12-21 10:00;CYQF 211000Z 16010G15KT 10SM -SN OVC030 M11/M13 A2987 RMK SC8 SLP176

CYQF;2009-12-21 11:00;CYQF 211100Z 15010G15KT 10SM -SN OVC025 M11/M13 A2987 RMK SC8 SLP176

CYQF;2009-12-21 12:00;CYQF 211200Z 14010KT 10SM -SN OVC025 M11/M13 A2986 RMK SC8 SLP175

CYQF;2009-12-21 13:00;CYQF 211300Z 13008KT 10SM -SN OVC025 M11/M14 A2986 RMK SC8 SLP174

CYQF;2009-12-21 14:00;CYQF 211400Z 14010KT 10SM -SN OVC022 M11/M14 A2985 RMK SC8 SLP172

CYQF;2009-12-21 14:10;CYQF 211410Z 15010KT 2 1/2SM -SN OVC022 RMK SN2SC6

CYQF;2009-12-21 14:46;CYQF 211446Z 13012KT 1SM -SN OVC020 RMK SN3SC5

CYQF;2009-12-21 15:00;CYQF 211500Z 12008KT 1SM -SN OVC015 M11/M13 A2984 RMK SN5SC3 SLP170

CYQF;2009-12-21 16:00;CYQF 211600Z 12010KT 1 1/2SM -SN OVC020 M11/M14 A2985 RMK SN3SC5 SLP172

CYQF;2009-12-21 17:00;CYQF 211700Z CCA 11007KT 1 1/2SM -SN OVC020 M11/M14 A2986 RMK SN5SC3 VIS VRB 1-2 /S01/ SLP175

CYQF;2009-12-21 18:00;CYQF 211800Z 10006KT 1 1/2SM -SN OVC020 M11/M14 A2985 RMK SN4SC4 VIS VRB 1-2 /S02/ SLP173

CYQF;2009-12-21 19:00;CYQF 211900Z 08007KT 1 1/2SM -SN OVC020 M11/M14 A2985 RMK SN4SC4 VIS VRB 1-2 SLP173

CYQF;2009-12-21 20:00;CYQF 212000Z 08007KT 1 1/2SM -SN OVC020 M12/M14 A2984 RMK SN4SC4 VIS VRB 1-2 SLP171

CYQF;2009-12-21 21:00;CYQF 212100Z 09005KT 2SM -SN OVC020 M11/M13 A2984 RMK SN3SC5 /S01/ SLP168

CYQF;2009-12-21 22:00;CYQF 212200Z 07004KT 2SM -SN OVC020 M12/M14 A2984 RMK SN3SC5 SLP168

CYQF;2009-12-21 22:51;CYQF 212251Z 07003KT 3SM -SN OVC020 RMK SC8

CYQF;2009-12-21 23:00;CYQF 212300Z 07004KT 4SM -SN OVC036 M12/M14 A2984 RMK SC8 SLP170

CYQF;2009-12-22 00:00;CYQF 220000Z 00000KT 5SM -SN OVC035 M12/M14 A2986 RMK SC8 /S02/ SLP179

CYQF;2009-12-22 01:00;CYQF 220100Z 06008KT 1 1/2SM -SN VV020 M13/M15 A2987 RMK SN8 SLP180

CYQF;2009-12-22 01:25;CYQF 220125Z 06007KT 1SM -SN VV010 RMK SN8 /S01/

CYQF;2009-12-22 02:00;CYQF 220200Z 06006KT 1 1/2SM -SN VV010 M13/M15 A2987 RMK SN8 SLP182

CYQF;2009-12-22 03:00;CYQF 220300Z 06006KT 1 1/2SM -SN VV010 M13/M15 A2988 RMK SN8 /S02/ SLP187

CYQF;2009-12-22 04:00;CYQF 220400Z 05004KT 1 1/2SM -SN VV011 M13/M15 A2988 RMK SN8 SLP186

CYQF;2009-12-22 04:30;CYQF 220430Z 06005KT 1SM -SN VV008 RMK SN8

CYQF;2009-12-22 05:00;CYQF 220500Z CCA 06004KT 1SM -SN VV008 M13/M15 A2987 RMK SN8 /S03/ SLP185

CYQF;2009-12-22 06:00;CYQF 220600Z 05004KT 1SM -SN VV009 M13/M15 A2988 RMK SN8 S04/ SLP187

CYQF;2009-12-22 07:00;CYQF 220700Z 03003KT 1 1/2SM -SN VV011 M13/M15 A2990 RMK SN8 VIS VRB 1-2 SLP191

CYQF;2009-12-22 07:41;CYQF 220741Z 03002KT 3SM -SN OVC100 RMK SN2AC5

CYQF;2009-12-22 08:00;CYQF 220800Z 04002KT 3SM -SN OVC100 M13/M15 A2990 RMK SN2AC4 SLP191

CYQF;2009-12-22 09:00;CYQF 220900Z 05004KT 10SM -SN OVC100 M14/M16 A2990 RMK AC8 SLP195

CYQF;2009-12-22 10:00;CYQF 221000Z 05005KT 3SM -SN OVC100 M14/M16 A2992 RMK AC6 SLP200

CYQF;2009-12-22 11:00;CYQF 221100Z 04003KT 5SM -SN BKN100 M15/M16 A2993 RMK AC6 SLP202

CYQF;2009-12-22 12:00;CYQF 221200Z 05003KT 10SM -SN OVC100 M14/M16 A2994 RMK AC8 OBS TKN +10 SLP208

CYQF;2009-12-22 13:00;CYQF 221300Z 03002KT 10SM -SN OVC100 M14/M16 A2995 RMK AC8 SLP211

CYQF;2009-12-22 14:00;CYQF 221400Z 36002KT 10SM -SN OVC100 M14/M16 A2995 RMK AC8 SLP212

CYQF;2009-12-22 15:00;CYQF 221500Z 36002KT 10SM -SN FEW040 OVC100 M15/M16 A2995 RMK SC2AC6 SLP216

CYQF;2009-12-22 16:00;CYQF 221600Z 00000KT 15SM -SN FEW040 OVC100 M14/M16 A2997 RMK SC1AC6 SLP221

CYQF;2009-12-22 17:00;CYQF 221700Z 01003KT 10SM -SN FEW040 OVC100 M14/M16 A2999 RMK SC1AC6 SLP226

CYQF;2009-12-22 17:36;CYQF 221736Z 00000KT 2 1/2SM -SN FEW040 OVC100 RMK SC1AC7

CYQF;2009-12-22 17:47;CYQF 221747Z 00000KT 4SM -SN FEW040 OVC100 RMK SC1AC7

CYQF;2009-12-22 18:00;CYQF 221800Z 00000KT 3SM -SN FEW040 OVC100 M14/M16 A3000 RMK SC1AC7 SLP231

CYQF;2009-12-22 18:05;CYQF 221805Z 00000KT 2SM -SN FEW040 OVC100 RMK SC1AC7

CYQF;2009-12-22 18:23;CYQF 221823Z 00000KT 3SM -SN FEW040 OVC100 RMK SC1AC7

CYQF;2009-12-22 19:00;CYQF 221900Z 36003KT 5SM -SN BKN050 OVC100 M14/M16 A3000 RMK SC5AC3 SLP232

CYQF;2009-12-22 20:00;CYQF 222000Z 33005KT 3SM -SN BKN050 OVC100 M14/M16 A3002 RMK SC5AC3 SLP237

CYQF;2009-12-22 21:00;CYQF 222100Z 35008KT 3SM -SN BKN050 OVC100 M14/M16 A3002 RMK SC5AC3 SLP239

CYQF;2009-12-22 21:38;CYQF 222138Z 34005KT 1 1/2SM -SN OVC030 RMK SN3SC5 VIS VRB 1-2

CYQF;2009-12-22 22:00;CYQF 222200Z 34008KT 1 1/2SM -SN OVC030 M14/M16 A3005 RMK SN3SC5 SLP247

CYQF;2009-12-22 23:00;CYQF 222300Z 33010KT 1SM -SN DRSN VV020 M14/M16 A3007 RMK SN8 /S01/ SLP253

CYQF;2009-12-22 23:28;CYQF 222328Z 34010KT 2SM -SN DRSN OVC025 RMK SN3SC5

CYQF;2009-12-23 00:00;CYQF 230000Z 34008KT 5SM -SN OVC030 M15/M17 A3009 RMK SC8 SLP265

CYQF;2009-12-23 00:40;CYQF 230040Z 33006KT 2SM -SN OVC030 RMK SN3SC5

CYQF;2009-12-23 00:49;CYQF 230049Z 33007KT 1 1/2SM -SN VV011 RMK SN8

CYQF;2009-12-23 01:00;CYQF 230100Z 34007KT 1 1/2SM -SN VV012 M15/M17 A3012 RMK SN8 /S01/ SLP274

CYQF;2009-12-23 02:00;CYQF 230200Z 33008KT 2SM -SN OVC030 M15/M17 A3013 RMK SN4SC4 SLP278

CYQF;2009-12-23 02:26;CYQF 230226Z 34008KT 6SM -SN SCT030 BKN080 RMK SC3AC2

CYQF;2009-12-23 03:00;CYQF 230300Z 35005KT 10SM -SN FEW030 BKN080 M15/M18 A3015 RMK SC2AC4 SLP288

CYQF;2009-12-23 04:00;CYQF 230400Z 36005KT 3SM -SN BKN020 OVC080 M15/M18 A3017 RMK SC6AC2 SLP292

CYQF;2009-12-23 05:00;CYQF 230500Z 33010G15KT 10SM -SN DRSN FEW020 SCT080 M16/M20 A3018 RMK SC2AC2 SLP297

CYQF;2009-12-23 05:25;CYQF 230525Z 34010G15KT 15SM DRSN FEW020 SCT080 RMK SC2AC2

CYQF;2009-12-23 06:00;CYQF 230600Z 33010KT 15SM FEW080 M18/M23 A3021 RMK AC2 SLP310

CYQF;2009-12-23 07:00;CYQF 230700Z 32007KT 15SM FEW080 M21/M25 A3023 RMK AC2 SLP316

CYQF;2009-12-23 08:00;CYQF 230800Z 29007KT 15SM FEW080 M22/M26 A3025 RMK AC1 OBS TAKEN +10 SLP323

CYQF;2009-12-23 09:00;CYQF 230900Z 29007KT 15SM SKC M23/M26 A3025 RMK SLP327

CYQF;2009-12-23 10:00;CYQF 231000Z 31002KT 15SM FEW080 M24/M28 A3025 RMK AC2 SLP328

CYQF;2009-12-23 10:31;CYQF 231031Z 29005KT 15SM -SN SCT030 BKN080 RMK SC3AC2

CYQF;2009-12-23 11:00;CYQF 231100Z 26005KT 15SM FEW030 SCT080 M21/M25 A3026 RMK SC2AC2 SLP331

CYQF;2009-12-23 12:00;CYQF 231200Z 27006KT 15SM FEW080 M22/M26 A3027 RMK AC1 SLP337

CYQF;2009-12-23 13:00;CYQF 231300Z 28005KT 15SM FEW080 M23/M27 A3028 RMK AC1 SLP341

CYQF;2009-12-23 14:00;CYQF 231400Z 27008KT 15SM SKC M22/M26 A3029 RMK SLP343

CYQF;2009-12-23 15:00;CYQF 231500Z 28010KT 15SM FEW250 M23/M27 A3030 RMK CI1 SLP349

CYQF;2009-12-23 16:00;CYQF 231600Z 28006KT 15SM BKN120 M21/M25 A3031 RMK AC3 SLP351

CYQF;2009-12-23 17:00;CYQF 231700Z 27006KT 15SM BKN120 M19/M24 A3032 RMK AC6 SLP353

CYQF;2009-12-23 18:00;CYQF 231800Z 30007KT 15SM FEW080 BKN120 BKN250 M18/M23 A3031 RMK AC2AC2CI1 SLP350

CYQF;2009-12-23 19:00;CYQF 231900Z 27005KT 15SM FEW080 BKN120 BKN250 M18/M23 A3029 RMK AC2AC2CI1 SLP345

CYQF;2009-12-23 20:00;CYQF 232000Z 27002KT 15SM BKN100 M17/M23 A3026 RMK AC5 SLP336

CYQF;2009-12-23 21:00;CYQF 232100Z 25006KT 15SM FEW100 SCT250 M18/M24 A3026 RMK AC2CI0 SLP339

CYQF;2009-12-23 22:00;CYQF 232200Z 27004KT 15SM SKC M18/M24 A3027 RMK SLP342

CYQF;2009-12-23 23:00;CYQF 232300Z 27004KT 15SM SKC M18/M24 A3029 RMK SLP347

CYQF;2009-12-24 00:00;CYQF 240000Z 27002KT 15SM SKC M23/M27 A3029 RMK SLP353

CYQF;2009-12-24 01:00;CYQF 240100Z 19005KT 15SM SKC M27/M31 A3026 RMK SLP346

CYQF;2009-12-24 02:00;CYQF 240200Z 21005KT 15SM SKC M26/M30 A3025 RMK SLP343

CYQF;2009-12-24 03:00;CYQF 240300Z 21004KT 15SM SKC M29/M33 A3025 RMK SLP345

CYQF;2009-12-24 04:00;CYQF 240400Z 20005KT 15SM SKC M25/M29 A3023 RMK SLP341

CYQF;2009-12-24 05:00;CYQF 240500Z 22004KT 15SM SKC M28/M33 A3022 RMK SLP337

CYQF;2009-12-24 06:00;CYQF 240600Z 22004KT 15SM SKC M25/M29 A3020 RMK SLP322

CYQF;2009-12-24 07:00;CYQF 240700Z 19005KT 15SM SKC M28/M32 A3018 RMK SLP316

CYQF;2009-12-24 08:00;CYQF 240800Z 21002KT 15SM SKC M28/M31 A3017 RMK SLP311

CYQF;2009-12-24 09:00;CYQF 240900Z 21003KT 15SM SKC M30/M34 A3016 RMK SLP312

CYQF;2009-12-24 10:00;CYQF 241000Z 19003KT 15SM SKC M28/M32 A3017 RMK SLP314

CYQF;2009-12-24 11:00;CYQF 241100Z 20002KT 15SM SKC M28/M33 A3015 RMK SLP310

CYQF;2009-12-24 12:00;CYQF 241200Z 21005KT 15SM SKC M29/M33 A3015 RMK SLP313

CYQF;2009-12-24 13:00;CYQF 241300Z 21003KT 15SM BKN090 M24/M28 A3015 RMK AC5 SLP314

CYQF;2009-12-24 14:00;CYQF 241400Z 20005KT 15SM FEW090 M27/M32 A3015 RMK AC1 SLP312

CYQF;2009-12-24 15:00;CYQF 241500Z 23005KT 15SM BKN090 M23/M27 A3015 RMK AC6 SLP314

CYQF;2009-12-24 16:00;CYQF 241600Z 23004KT 15SM BKN090 M20/M24 A3015 RMK AS7 SLP314

CYQF;2009-12-24 16:37;CYQF 241637Z 19004KT 12SM -SN OVC090 RMK AS8

CYQF;2009-12-24 17:00;CYQF 241700Z 20005KT 3SM -SN OVC070 M18/M21 A3015 RMK AS8 VIS VRB 2-4 SLP312

CYQF;2009-12-24 17:21;CYQF 241721Z 21004KT 1 1/2SM -SN OVC050 RMK SN2SC6

CYQF;2009-12-24 17:38;CYQF 241738Z 23005KT 3/4SM -SN VV015 RMK SN8

CYQF;2009-12-24 18:00;CYQF 241800Z 21004KT 3SM -SN BKN030 OVC080 M16/M19 A3014 RMK SC5AC3 SLP298

CYQF;2009-12-24 18:50;CYQF 241850Z 20005KT 15SM FEW030 OVC080 RMK SC2AC5

CYQF;2009-12-24 19:00;CYQF 241900Z 18005KT 15SM FEW040 BKN080 BKN150 M14/M16 A3013 RMK SC1AC5AC2 SLP295

CYQF;2009-12-24 20:00;CYQF 242000Z 25006KT 15SM FEW040 BKN080 BKN150 M11/M13 A3012 RMK SC1AC5AC1 TR SC SLP292

CYQF;2009-12-24 21:00;CYQF 242100Z 00000KT 15SM FEW040 BKN080 BKN250 M10/M11 A3012 RMK SC1AC4CI1 TR SC SLP287

CYQF;2009-12-24 22:00;CYQF 242200Z 26006KT 15SM FEW040 FEW250 M10/M13 A3012 RMK SC2CI1 SLP287

CYQF;2009-12-24 23:00;CYQF 242300Z 21002KT 15SM FEW250 M11/M13 A3012 RMK CI1 SLP287

CYQF;2009-12-25 00:00;CYQF 250000Z 26004KT 15SM FEW250 M13/M14 A3013 RMK CI1 SLP293

CYQF;2009-12-25 01:00;CYQF 250100Z 17002KT 15SM FEW040 FEW250 M13/M16 A3014 RMK SC1CI1 SLP297

CYQF;2009-12-25 02:00;CYQF 250200Z 18004KT 15SM BKN060 BKN090 M17/M17 A3014 RMK SC5AC1 SLP296

CYQF;2009-12-25 03:00;CYQF 250300Z 18005KT 15SM FEW090 M18/M19 A3015 RMK AC1 SLP299

CYQF;2009-12-25 04:00;CYQF 250400Z 18003KT 15SM FEW060 SCT090 SCT250 M18/M19 A3016 RMK SC1AC2CI0 SLP304

CYQF;2009-12-25 05:00;CYQF 250500Z 00000KT 15SM FEW250 M16/M17 A3017 RMK CI0 SLP306

CYQF;2009-12-25 06:00;CYQF 250600Z 00000KT 15SM BKN090 BKN250 M17/M18 A3017 RMK AC2CI0 SLP298

CYQF;2009-12-25 07:00;CYQF 250700Z 00000KT 15SM FEW090 M19/M20 A3019 RMK AC1 SLP303

CYQF;2009-12-25 08:00;CYQF 250800Z 00000KT 15SM SKC M17/M19 A3019 RMK SLP304

CYQF;2009-12-25 09:00;CYQF 250900Z 00000KT 10SM SKC M17/M18 A3021 RMK SLP303

CYQF;2009-12-25 10:00;CYQF 251000Z 22002KT 8SM BCFG SKC M20/M21 A3022 RMK SLP307

CYQF;2009-12-25 11:00;CYQF 251100Z 23004KT 3SM BR SKC M20/M21 A3023 RMK VIS NW-N 10 SLP309

CYQF;2009-12-25 12:00;CYQF 251200Z 00000KT 15SM SKC M19/M22 A3023 RMK SLP315

CYQF;2009-12-25 13:00;CYQF 251300Z 00000KT 15SM SKC M21/M24 A3023 RMK SLP317

CYQF;2009-12-25 14:00;CYQF 251400Z 00000KT 10SM SKC M19/M23 A3025 RMK SLP322

CYQF;2009-12-25 15:00;CYQF 251500Z CCA 32004KT 10SM SKC M22/M26 A3025 RMK SLP334

CYQF;2009-12-25 16:00;CYQF 251600Z 19002KT 15SM FEW250 M23/M26 A3025 RMK CI1 SLP335

CYQF;2009-12-25 17:00;CYQF 251700Z 25002KT 15SM FEW250 M20/M24 A3026 RMK CI1 SLP338

CYQF;2009-12-25 18:00;CYQF 251800Z 00000KT 10SM FEW250 M19/M21 A3027 RMK CI1 BR SLP335

CYQF;2009-12-25 19:00;CYQF 251900Z 00000KT 15SM SKC M17/M20 A3025 RMK SLP330

CYQF;2009-12-25 20:00;CYQF 252000Z 00000KT 15SM SKC M14/M17 A3025 RMK SLP328

CYQF;2009-12-25 21:00;CYQF 252100Z 19003KT 15SM SKC M12/M14 A3024 RMK SLP317

CYQF;2009-12-25 22:00;CYQF 252200Z 00000KT 15SM SKC M10/M12 A3024 RMK SLP317

CYQF;2009-12-25 23:00;CYQF 252300Z 00000KT 15SM SKC M12/M14 A3024 RMK SLP315

CYQF;2009-12-26 00:00;CYQF 260000Z 00000KT 15SM FEW100 M15/M16 A3024 RMK AC1 SLP321

CYQF;2009-12-26 01:00;CYQF 260100Z 15008KT 15SM SKC M14/M16 A3022 RMK SLP317

CYQF;2009-12-26 02:00;CYQF 260200Z 15004KT 15SM SKC M16/M17 A3023 RMK SLP318

CYQF;2009-12-26 03:00;CYQF 260300Z 20002KT 15SM SKC M18/M19 A3023 RMK SLP327

CYQF;2009-12-26 04:00;CYQF 260400Z 16004KT 15SM SKC M16/M18 A3022 RMK SLP323

CYQF;2009-12-26 05:00;CYQF 260500Z 00000KT 15SM SKC M18/M19 A3022 RMK SLP323

CYQF;2009-12-26 06:00;CYQF 260600Z 19002KT 15SM SKC M17/M19 A3021 RMK SLP316

CYQF;2009-12-26 07:00;CYQF 260700Z 00000KT 15SM SKC M18/M20 A3022 RMK SLP318

CYQF;2009-12-26 08:00;CYQF 260800Z 18006KT 15SM SKC M19/M20 A3020 RMK SLP311

CYQF;2009-12-26 09:00;CYQF 260900Z 30004KT 15SM SKC M18/M21 A3021 RMK SLP306

CYQF;2009-12-26 10:00;CYQF 261000Z 19004KT 15SM FEW080 M17/M19 A3019 RMK AC2 SLP301

CYQF;2009-12-26 11:00;CYQF 261100Z 18003KT 15SM FEW080 M16/M18 A3020 RMK AC2 SLP304

CYQF;2009-12-26 12:00;CYQF 261200Z 21004KT 15SM FEW080 M17/M20 A3019 RMK AC2 SLP303

CYQF;2009-12-26 13:00;CYQF 261300Z 23003KT 15SM FEW080 M19/M20 A3018 RMK AC1 SLP301

CYQF;2009-12-26 14:00;CYQF 261400Z 20004KT 15SM FEW080 M20/M22 A3018 RMK AC1 SLP299

CYQF;2009-12-26 15:00;CYQF 261500Z 20003KT 15SM SKC M18/M21 A3017 RMK SLP302

CYQF;2009-12-26 16:00;CYQF 261600Z 19004KT 15SM FEW090 FEW250 M18/M21 A3017 RMK AC1CI0 SLP302

CYQF;2009-12-26 17:00;CYQF 261700Z 20005KT 15SM FEW100 SCT250 M17/M20 A3017 RMK AC1CI1 SLP300

CYQF;2009-12-26 18:00;CYQF 261800Z 20004KT 15SM FEW100 SCT250 M15/M18 A3016 RMK AC1CI1 AC TR SLP293

CYQF;2009-12-26 19:00;CYQF 261900Z 19004KT 15SM FEW100 FEW250 M13/M16 A3015 RMK AC1CI0 AC TR SLP290

CYQF;2009-12-26 20:00;CYQF 262000Z 19003KT 15SM FEW100 FEW250 M12/M16 A3014 RMK AC1CI0 SLP288

CYQF;2009-12-26 21:00;CYQF 262100Z 21003KT 15SM FEW100 FEW250 M10/M15 A3013 RMK AC1CI0 SLP278

CYQF;2009-12-26 22:00;CYQF 262200Z 00000KT 15SM FEW100 FEW250 M09/M14 A3013 RMK AC1CI0 SLP278

CYQF;2009-12-26 23:00;CYQF 262300Z 00000KT 15SM FEW100 FEW250 M11/M14 A3014 RMK AC1CI0 SLP281

CYQF;2009-12-27 00:00;CYQF 270000Z 21004KT 15SM FEW100 FEW250 M12/M14 A3014 RMK AC1CI0 SLP283

CYQF;2009-12-27 01:00;CYQF 270100Z 19003KT 15SM FEW100 SCT250 M15/M17 A3014 RMK AC2CI0 SLP282

CYQF;2009-12-27 02:00;CYQF 270200Z 22003KT 15SM BKN100 M12/M16 A3013 RMK AC6 SLP280

CYQF;2009-12-27 03:00;CYQF 270300Z 17005KT 15SM BKN100 M10/M13 A3013 RMK AC5 SLP277

CYQF;2009-12-27 04:00;CYQF 270400Z 21002KT 15SM FEW100 M12/M15 A3013 RMK AC2 SLP276

CYQF;2009-12-27 05:00;CYQF 270500Z 21004KT 15SM FEW100 M14/M16 A3012 RMK AC2 SLP274

CYQF;2009-12-27 06:00;CYQF 270600Z 00000KT 15SM FEW100 M14/M16 A3013 RMK AC2 SLP278

CYQF;2009-12-27 07:00;CYQF 270700Z 00000KT 15SM SKC M16/M17 A3013 RMK SLP279

CYQF;2009-12-27 08:00;CYQF 270800Z 00000KT 15SM SKC M17/M18 A3013 RMK SLP279

CYQF;2009-12-27 09:00;CYQF 270900Z 20002KT 15SM SKC M16/M17 A3013 RMK SLP276

CYQF;2009-12-27 10:00;CYQF 271000Z 20004KT 15SM SKC M17/M18 A3014 RMK SLP279

CYQF;2009-12-27 10:49;CYQF 271049Z 20004KT 3/4SM BR SKC RMK FG2 VIS SW-NW 5

CYQF;2009-12-27 11:00;CYQF 271100Z 00000KT 1/2SM FZFG SKC M17/M18 A3015 RMK FG6 SLP280

CYQF;2009-12-27 11:44;CYQF 271144Z 00000KT 1/4SM FZFG VV004 RMK FG8

CYQF;2009-12-27 12:00;CYQF 271200Z CCA 00000KT 1/4SM FZFG VV004 M16/M17 A3014 RMK FG8 FROIN SLP281

CYQF;2009-12-27 12:39;CYQF 271239Z 00000KT 1/8SM FZFG VV003 RMK FG8 FROIN

CYQF;2009-12-27 13:00;CYQF 271300Z 00000KT 1/8SM FZFG VV003 M17/M18 A3015 RMK FG8 FROIN SLP282

CYQF;2009-12-27 13:34;CYQF 271334Z 21002KT 1/2SM FZFG SKC RMK FG5 FROIN

CYQF;2009-12-27 13:41;CYQF 271341Z 22002KT 2SM BR SKC RMK FG2 FROIN

CYQF;2009-12-27 14:00;CYQF 271400Z 22004KT 1SM BR SKC M17/M18 A3015 RMK FG4 FROIN SLP284

CYQF;2009-12-27 14:38;CYQF 271438Z 00000KT 2SM BR SKC RMK FG2

CYQF;2009-12-27 15:00;CYQF 271500Z 00000KT 2SM BR SKC M17/M19 A3015 RMK FG2 SLP284

CYQF;2009-12-27 15:44;CYQF 271544Z 21002KT 4SM BR FEW002 BKN250 RMK ST2CI1

CYQF;2009-12-27 16:00;CYQF 271600Z 20002KT 5SM BR FEW100 SCT250 M16/M18 A3017 RMK AC2CI1 VIS SE 2 FG SLP289

CYQF;2009-12-27 16:27;CYQF 271627Z 20003KT 3/4SM BR SCT250 RMK FG2CI1

CYQF;2009-12-27 17:00;CYQF 271700Z 00000KT 1SM BR SCT250 M16/M17 A3018 RMK FG2CI1 SLP292

CYQF;2009-12-27 17:31;CYQF 271731Z CCA 00000KT 3SM BR FEW250 RMK FG1CI1 VIS SE-S 1

CYQF;2009-12-27 18:00;CYQF 271800Z 00000KT 3SM BR FEW250 M14/M15 A3018 RMK CI1 VIS S1 SLP294

CYQF;2009-12-27 19:00;CYQF 271900Z 18002KT 6SM BR FEW250 M12/M14 A3018 RMK CI1 SLP294

CYQF;2009-12-27 20:00;CYQF 272000Z 20003KT 10SM FEW250 M12/M13 A3018 RMK CI1 BR SLP293

CYQF;2009-12-27 21:00;CYQF 272100Z 00000KT 12SM SCT250 M11/M12 A3017 RMK CI2 SLP292

CYQF;2009-12-27 22:00;CYQF 272200Z 00000KT 15SM FEW100 BKN250 M11/M12 A3019 RMK AC2CI2 SLP296

CYQF;2009-12-27 23:00;CYQF 272300Z 00000KT 15SM FEW100 BKN250 M13/M14 A3019 RMK AC1CI2 UA /OV CYQF 340005 /FL 050 /TP BE24 /TA +10 SLP298

CYQF;2009-12-28 00:00;CYQF 280000Z 00000KT 15SM SCT250 M14/M16 A3020 RMK CI2 SLP303

CYQF;2009-12-28 01:00;CYQF 280100Z 00000KT 5SM PRFG FEW250 M18/M19 A3021 RMK CI1 SLP306

CYQF;2009-12-28 01:09;CYQF 280109Z 00000KT 1SM BR SKC RMK FG3

CYQF;2009-12-28 02:00;CYQF 280200Z 00000KT 1SM BR SKC M17/M19 A3021 RMK FG3 SLP306

CYQF;2009-12-28 03:00;CYQF 280300Z 00000KT 1SM BR SKC M17/M19 A3021 RMK FG3 SLP314

CYQF;2009-12-28 04:00;CYQF 280400Z 00000KT 3/4SM BR SKC M18/M20 A3021 RMK FG5 VIS VRB 1/2-1 SLP312

CYQF;2009-12-28 05:00;CYQF 280500Z 00000KT 1/4SM FZFG SKC M20/M23 A3020 RMK FG6 SLP311

CYQF;2009-12-28 06:00;CYQF 280600Z 00000KT 1/4SM FZFG SKC M18/M22 A3021 RMK FG7 SLP310

CYQF;2009-12-28 07:00;CYQF 280700Z 00000KT 1/4SM FZFG SKC M18/M22 A3021 RMK FG7 SLP309

CYQF;2009-12-28 07:32;CYQF 280732Z 00000KT 1/8SM FZFG VV002 RMK FG8

CYQF;2009-12-28 08:00;CYQF 280800Z 00000KT 1/8SM FZFG VV002 M18/M21 A3020 RMK FG8 RIME ON INDICATOR SLP307

CYQF;2009-12-28 09:00;CYQF 280900Z 00000KT 0SM FZFG VV000 M17/M20 A3019 RMK FG8 RIME ON INDICATOR SLP298

CYQF;2009-12-28 10:00;CYQF 281000Z 00000KT 1/8SM FZFG VV001 M16/M19 A3018 RMK FG8 SLP296

CYQF;2009-12-28 11:00;CYQF 281100Z 00000KT 0SM FZFG VV000 M16/M19 A3017 RMK FG8 RIME ON INDICATOR SLP291

CYQF;2009-12-28 12:00;CYQF 281200Z 00000KT 0SM FZFG VV000 M16/M18 A3016 RMK FG8 RIME ON INDICATOR SLP290

CYQF;2009-12-28 13:00;CYQF 281300Z 00000KT 1/4SM FZFG VV002 M15/M18 A3015 RMK FG8 SLP285

CYQF;2009-12-28 14:00;CYQF 281400Z 00000KT 1/4SM FZFG VV002 M15/M18 A3013 RMK FG8 RIME ON INDICATOR SLP281

CYQF;2009-12-28 14:10;CYQF 281410Z 00000KT 0SM FZFG VV000 RMK FG8 FROIN

CYQF;2009-12-28 15:00;CYQF 281500Z 00000KT 1/8SM FZFG VV000 M15/M18 A3011 RMK FG8 FROIN SLP276

CYQF;2009-12-28 15:15;CYQF 281515Z 00000KT 0SM FZFG VV002 RMK FG8

CYQF;2009-12-28 15:16;CYQF 281516Z CCA 00000KT 0SM FZFG VV002 RMK FG8 FROIN

CYQF;2009-12-28 15:24;CYQF 281524Z 00000KT 1/4SM FZFG VV002 RMK FG8 FROIN

CYQF;2009-12-28 15:30;CYQF 281530Z 00000KT 1/2SM FZFG VV003 RMK FG8 FROIN

CYQF;2009-12-28 15:36;CYQF 281536Z 00000KT 1/4SM FZFG VV003 RMK FG8 FROIN

CYQF;2009-12-28 15:47;CYQF 281547Z 00000KT 1/2SM FZFG VV003 RMK FG8 VIS NW-NE 1/8 FROIN

CYQF;2009-12-28 16:00;CYQF 281600Z 00000KT 3/4SM BR VV004 M15/M18 A3009 RMK FG8 VIS NW-NE 1/4 FROIN SLP270

CYQF;2009-12-28 17:00;CYQF 281700Z 00000KT 3/4SM BR VV004 M15/M18 A3009 RMK FG8 FROIN SLP268

CYQF;2009-12-28 18:00;CYQF 281800Z 00000KT 3/4SM BR OVC002 M16/M18 A3007 RMK FG3ST4 SLP264

CYQF;2009-12-28 18:35;CYQF 281835Z 00000KT 1/8SM FZFG VV004 RMK FG8 FROIN

CYQF;2009-12-28 19:00;CYQF 281900Z 00000KT 1/2SM FZFG VV004 M15/M17 A3004 RMK FG8 FROIN SLP254

CYQF;2009-12-28 19:06;CYQF 281906Z 00000KT 1/2SM FZFG VV004 RMK FG8 VIS VRB 1/4-3/4 FROIN

CYQF;2009-12-28 19:25;CYQF 281925Z 00000KT 3/4SM BR OVC002 RMK FG2ST6 FROIN

CYQF;2009-12-28 20:00;CYQF 282000Z 00000KT 1SM BR OVC003 M15/M17 A3001 RMK FG2ST6 SLP244

CYQF;2009-12-28 20:34;CYQF 282034Z 00000KT 1 1/2SM BR SCT003 BKN250 RMK ST4CI2

CYQF;2009-12-28 21:00;CYQF 282100Z 00000KT 3SM BR SCT003 BKN250 M14/M16 A2999 RMK ST4CI2 SLP231

CYQF;2009-12-28 21:26;CYQF 282126Z 00000KT 2SM BR BKN003 OVC250 RMK ST6CI2

CYQF;2009-12-28 22:00;CYQF 282200Z 00000KT 2 1/2SM BR FEW003 BKN250 M15/M16 A2997 RMK ST2CI2 SLP226

CYQF;2009-12-28 23:00;CYQF 282300Z 00000KT 2 1/2SM BR FEW004 BKN250 M16/M18 A2996 RMK ST2CI2 SLP222

CYQF;2009-12-29 00:00;CYQF 290000Z 00000KT 2SM BR FEW004 BKN250 M18/M20 A2996 RMK ST1CI2 SLP224

CYQF;2009-12-29 01:00;CYQF 290100Z 00000KT 1SM BR SKC M17/M19 A2995 RMK FG6 SLP223

CYQF;2009-12-29 02:00;CYQF 290200Z 00000KT 1 1/2SM BR SKC M18/M20 A2994 RMK FG3 VIS VRB 1-2 SLP219

CYQF;2009-12-29 03:00;CYQF 290300Z 00000KT 3/4SM BR SKC M20/M23 A2993 RMK FG4 VIS VRB 1/2-1 SLP215

CYQF;2009-12-29 04:00;CYQF 290400Z 00000KT 2SM BR BKN140 M22/M25 A2991 RMK AC3 VIS N 6 SLP210

CYQF;2009-12-29 05:00;CYQF 290500Z 00000KT 4SM BR BKN140 M21/M25 A2990 RMK AC3 SLP207

CYQF;2009-12-29 06:00;CYQF 290600Z 00000KT 6SM BR SCT140 M21/M25 A2989 RMK AC2 SLP205

CYQF;2009-12-29 07:00;CYQF 290700Z 00000KT 6SM BR BKN100 M21/M24 A2988 RMK AC3 SLP202

CYQF;2009-12-29 08:00;CYQF 290800Z 23002KT 3SM BR FEW100 SCT250 M21/M25 A2988 RMK AC2CI0 FROIN SLP201

CYQF;2009-12-29 09:00;CYQF 290900Z 22003KT 6SM BR BKN100 M18/M21 A2987 RMK AC6 SLP194

CYQF;2009-12-29 10:00;CYQF 291000Z 21003KT 8SM FEW100 BKN250 M17/M20 A2988 RMK AC2CI2 BR SLP195

CYQF;2009-12-29 11:00;CYQF 291100Z 00000KT 15SM FEW100 FEW250 M17/M20 A2987 RMK AC1CI0 SLP193

CYQF;2009-12-29 12:00;CYQF 291200Z 23002KT 15SM FEW100 BKN250 M16/M18 A2987 RMK AC1CI1 SLP194

CYQF;2009-12-29 13:00;CYQF 291300Z 00000KT 15SM FEW100 BKN250 M16/M19 A2988 RMK AC2CI2 SLP196

CYQF;2009-12-29 14:00;CYQF 291400Z 22002KT 15SM FEW100 BKN250 M19/M22 A2988 RMK AC2CI1 SLP197

CYQF;2009-12-29 15:00;CYQF 291500Z 00000KT 15SM FEW100 BKN250 M19/M22 A2989 RMK AC2CI1 SLP206

CYQF;2009-12-29 15:39;CYQF 291539Z 00000KT 2SM BR FEW100 BKN250 RMK AC2CI1

CYQF;2009-12-29 16:00;CYQF 291600Z 00000KT 1/2SM FZFG FEW100 BKN250 M21/M25 A2988 RMK FG1AC2CI1 VIS S 2 SLP205

CYQF;2009-12-29 16:11;CYQF 291611Z 00000KT 1/2SM FZFG OVC250 RMK FG6CI1 VIS VRB 1/4-3/4

CYQF;2009-12-29 17:00;CYQF 291700Z 00000KT 1/2SM FZFG VV004 M18/M21 A2989 RMK FG8 VIS VRB 1/4-3/4 SLP208

CYQF;2009-12-29 18:00;CYQF 291800Z 00000KT 1/4SM FZFG VV002 M16/M18 A2989 RMK FG8 SLP205

CYQF;2009-12-29 19:00;CYQF 291900Z 00000KT 1/4SM FZFG VV002 M14/M16 A2988 RMK FG8 SLP202

CYQF;2009-12-29 20:00;CYQF 292000Z 00000KT 1/4SM FZFG VV002 M12/M13 A2987 RMK FG8 SLP199

CYQF;2009-12-29 21:00;CYQF 292100Z 00000KT 1/2SM FZFG VV002 M12/M13 A2987 RMK FG8 SLP188

CYQF;2009-12-29 21:19;CYQF 292119Z 00000KT 1SM BR OVC004 RMK FG5SF3

CYQF;2009-12-29 22:00;CYQF 292200Z 00000KT 1SM BR OVC003 M11/M12 A2987 RMK FG5SF3 SLP188

CYQF;2009-12-29 23:00;CYQF 292300Z 00000KT 1SM BR OVC003 M11/M12 A2987 RMK FG3ST5 SLP188

CYQF;2009-12-30 00:00;CYQF 300000Z 00000KT 1SM BR OVC003 M11/M13 A2987 RMK FG3ST5 SLP188

CYQF;2009-12-30 00:33;CYQF 300033Z 00000KT 1 1/2SM BR OVC005 RMK ST8 VIS VRB 1-2

CYQF;2009-12-30 01:00;CYQF 300100Z 00000KT 3SM BR OVC004 M12/M13 A2988 RMK ST8 CIG RAG SLP189

CYQF;2009-12-30 02:00;CYQF 300200Z 00000KT 3SM BR OVC003 M12/M13 A2987 RMK ST8 CIG RAG SLP187

CYQF;2009-12-30 03:00;CYQF 300300Z 00000KT 2SM -SN BR OVC005 M11/M13 A2987 RMK ST8 SLP191

CYQF;2009-12-30 04:00;CYQF 300400Z 00000KT 3/4SM -SN BR VV004 M11/M13 A2988 RMK FG8 SLP194

CYQF;2009-12-30 04:47;CYQF 300447Z 00000KT 2SM -SN BR OVC007 RMK ST8

CYQF;2009-12-30 05:00;CYQF 300500Z 00000KT 2SM -SN BR OVC007 M13/M14 A2988 RMK ST8 SLP192

CYQF;2009-12-30 06:00;CYQF 300600Z 00000KT 2SM -SN BR OVC008 M13/M15 A2988 RMK ST8 SLP192

CYQF;2009-12-30 07:00;CYQF 300700Z 00000KT 3SM -SN BR OVC013 M13/M15 A2989 RMK SC8 VIS VRB 2-4 SLP193

CYQF;2009-12-30 08:00;CYQF 300800Z 03004KT 3SM -SN BR OVC015 M14/M16 A2989 RMK SC8 VIS VRB 2-4 SLP194

CYQF;2009-12-30 09:00;CYQF 300900Z 03005KT 2SM -SN BR OVC015 M16/M17 A2990 RMK SC8 VIS VRB 1-3 SLP197

CYQF;2009-12-30 10:00;CYQF 301000Z 03004KT 2SM -SN BR OVC020 M17/M18 A2991 RMK SC7 SLP201

CYQF;2009-12-30 11:00;CYQF 301100Z 02005KT 3SM -SN BR BKN030 OVC100 M17/M19 A2991 RMK SC5AC2 /S01/ SLP200

CYQF;2009-12-30 12:00;CYQF 301200Z 02004KT 3SM -SN BR SCT030 OVC100 M18/M19 A2992 RMK SC4AC2 SLP205

CYQF;2009-12-30 13:00;CYQF 301300Z 01002KT 3SM -SN BR BKN100 OVC250 M18/M20 A2993 RMK AC5CI2 SLP209

CYQF;2009-12-30 14:00;CYQF 301400Z 01004KT 5SM -SN BR OVC100 M18/M19 A2995 RMK AC7 SLP213

CYQF;2009-12-30 15:00;CYQF 301500Z CCA 36004KT 4SM -SN BR BKN030 OVC100 M18/M19 A2996 RMK SC5AC3 SLP220

CYQF;2009-12-30 15:18;CYQF 301518Z 36003KT 2SM -SN BR OVC030 RMK SN3SC5 VIS VRB 1-3

CYQF;2009-12-30 16:00;CYQF 301600Z 00000KT 1 1/2SM -SN BR BKN030 OVC100 M18/M19 A2998 RMK SN2SC4AC2 SLP226

CYQF;2009-12-30 17:00;CYQF 301700Z 33002KT 1 1/2SM -SN BR BKN030 OVC100 M18/M20 A3001 RMK SN2SC3AS2 SLP235

CYQF;2009-12-30 18:00;CYQF 301800Z 33003KT 1 1/2SM -SN BR BKN030 OVC100 M18/M19 A3003 RMK SN2SC3AS2 /S01/ SLP244

CYQF;2009-12-30 19:00;CYQF 301900Z 34004KT 1 1/2SM -SN BR BKN030 OVC100 M17/M19 A3004 RMK SN2SC5AC2 SLP247

CYQF;2009-12-30 20:00;CYQF 302000Z 33003KT 1SM -SN BR OVC030 M17/M19 A3004 RMK SN5SC3 SLP248

CYQF;2009-12-30 21:00;CYQF 302100Z 33005KT 1SM -SN BR OVC030 M17/M19 A3004 RMK SN5SC3 /S01/ SLP253

CYQF;2009-12-30 22:00;CYQF 302200Z 33003KT 1SM -SN BR OVC030 M17/M19 A3006 RMK SN5SC3 SLP259

CYQF;2009-12-30 23:00;CYQF 302300Z 35002KT 1SM -SN BR OVC030 M17/M19 A3008 RMK SN4SC4 SLP265

CYQF;2009-12-31 00:00;CYQF 310000Z 34010KT 4SM -SN OVC030 M17/M20 A3010 RMK SC8 /S02/ SLP275

CYQF;2009-12-31 01:00;CYQF 310100Z 34007KT 1 1/2SM -SN VV015 M18/M20 A3013 RMK SN8 SLP283

CYQF;2009-12-31 01:09;CYQF 310109Z 34005KT 4SM -SN OVC030 RMK SC8

CYQF;2009-12-31 02:00;CYQF 310200Z 35005KT 3SM -SN OVC030 M18/M21 A3015 RMK SN2SC6 SLP290

CYQF;2009-12-31 03:00;CYQF 310300Z 34008KT 3SM -SN OVC030 M18/M21 A3017 RMK SN2SC6 SLP302

CYQF;2009-12-31 04:00;CYQF 310400Z 33008KT 10SM -SN BKN030 OVC250 M19/M22 A3019 RMK SC6CI1 SLP307

CYQF;2009-12-31 05:00;CYQF 310500Z 34008KT 15SM -SN FEW030 FEW100 BKN250 M20/M24 A3021 RMK SC1AC2CI2 SLP314

CYQF;2009-12-31 05:28;CYQF 310528Z 33008KT 15SM FEW100 SCT250 RMK AC2CI1 IC

CYQF;2009-12-31 06:00;CYQF 310600Z 33006KT 15SM FEW100 M22/M26 A3024 RMK AC2 IC SLP328

CYQF;2009-12-31 07:00;CYQF 310700Z 32006KT 15SM FEW100 SCT250 M23/M28 A3025 RMK AC2CI1 IC SLP334

CYQF;2009-12-31 08:00;CYQF 310800Z 31003KT 15SM BKN100 M24/M28 A3025 RMK AC5 IC SLP334

CYQF;2009-12-31 09:00;CYQF 310900Z 32003KT 15SM BKN100 M26/M30 A3026 RMK AC6 IC SLP340

CYQF;2009-12-31 10:00;CYQF 311000Z 00000KT 15SM BKN100 M25/M30 A3027 RMK AC6 IC SLP345

CYQF;2009-12-31 11:00;CYQF 311100Z 00000KT 15SM FEW018 BKN250 M26/M30 A3027 RMK ST2CI1 IC SLP343

CYQF;2009-12-31 12:00;CYQF 311200Z 00000KT 15SM FEW020 SCT100 BKN250 M26/M30 A3027 RMK ST1AC2CI1 SLP344

CYQF;2009-12-31 13:00;CYQF 311300Z 00000KT 15SM BKN100 M26/M30 A3025 RMK AC6 SLP338

CYQF;2009-12-31 14:00;CYQF 311400Z 00000KT 15SM FEW100 M27/M31 A3025 RMK AC2 SLP338

CYQF;2009-12-31 15:00;CYQF 311500Z 00000KT 15SM BKN100 M29/M33 A3025 RMK AC2 SLP343

CYQF;2009-12-31 16:00;CYQF 311600Z 00000KT 15SM BKN100 M28/M32 A3025 RMK AC6 SLP340

CYQF;2009-12-31 17:00;CYQF 311700Z 00000KT 15SM BKN100 BKN250 M27/M32 A3025 RMK AC3CI1 SLP342

CYQF;2009-12-31 18:00;CYQF 311800Z 00000KT 15SM BKN100 BKN250 M26/M29 A3026 RMK AC3CI1 SLP346

CYQF;2009-12-31 19:00;CYQF 311900Z 00000KT 5SM -SN BR SCT040 BKN100 M22/M26 A3025 RMK SC3AC2 SLP342

CYQF;2009-12-31 20:00;CYQF 312000Z 00000KT 6SM IC FEW040 BKN100 M22/M25 A3024 RMK SC2AC2 SLP339

CYQF;2009-12-31 21:00;CYQF 312100Z 00000KT 15SM FEW040 BKN100 M22/M26 A3023 RMK SC2AC4 SLP335

CYQF;2009-12-31 22:00;CYQF 312200Z 14003KT 15SM FEW040 OVC100 M22/M26 A3024 RMK SC2AC5 SLP337

CYQF;2009-12-31 22:33;CYQF 312233Z 11005KT 3SM -SN BKN040 OVC100 RMK SC6AC2

CYQF;2009-12-31 23:00;CYQF 312300Z 13004KT 2SM -SN BKN040 OVC100 M22/M25 A3024 RMK SC6AC2 SLP338

