CYQF;2015-01-01 00:00;CYQF 010000Z 24008KT 15SM BKN160 BKN250 M01/M09 A3000 RMK AC5CI2 SLP206

CYQF;2015-01-01 01:00;CYQF 010100Z 23003KT 15SM SCT160 BKN200 M02/M09 A2997 RMK AC4CS3 SLP199

CYQF;2015-01-01 02:00;CYQF 010200Z 23009KT 15SM BKN240 M02/M10 A2996 RMK CS6 SLP193

CYQF;2015-01-01 03:00;CYQF 010300Z 24005KT 15SM OVC220 M03/M09 A2997 RMK CS8 SLP198

CYQF;2015-01-01 04:00;CYQF 010400Z 31006KT 230V320 15SM SCT160 M01/M07 A2996 RMK AC3 SLP195

CYQF;2015-01-01 05:00;CYQF 010500Z 32011KT 15SM SCT080 01/M05 A2995 RMK AC4 SLP185

CYQF;2015-01-01 06:00;CYQF 010600Z 32010KT 15SM OVC072 03/M04 A2995 RMK AC8 SLP184

CYQF;2015-01-01 07:00;CYQF 010700Z 27006KT 15SM OVC052 00/M05 A2995 RMK SC8 VIRGA SLP187

CYQF;2015-01-01 08:00;CYQF 010800Z 31011G17KT 15SM OVC054 03/M03 A2995 RMK SC8 SLP179

CYQF;2015-01-01 09:00;CYQF 010900Z 30011KT 15SM BKN064 BKN086 03/M03 A2994 RMK SC5AC2 SLP177

CYQF;2015-01-01 10:00;CYQF 011000Z 31012KT 15SM OVC080 03/M03 A2995 RMK AC8 SLP178

CYQF;2015-01-01 11:00;CYQF 011100Z 30008KT 15SM OVC084 03/M02 A2995 RMK AC8 SLP181

CYQF;2015-01-01 12:00;CYQF 011200Z 27006KT 15SM OVC084 02/M02 A2995 RMK AC8 SLP180

CYQF;2015-01-01 13:00;CYQF 011300Z 28006KT 15SM OVC058 02/M02 A2994 RMK SC8 SHWRS N-NE SLP180

CYQF;2015-01-01 14:00;CYQF 011400Z 26007KT 15SM OVC080 01/M01 A2993 RMK AC8 SLP177

CYQF;2015-01-01 15:04;CYQF 011504Z 28008KT 15SM -SHSN OVC080 02/M00 A2994 RMK AC8 SLP181

CYQF;2015-01-01 15:23;CYQF 011523Z 28009KT 12SM -RA BKN022 OVC080 02/00 A2995 RMK SC6AC2 SLP182

CYQF;2015-01-01 16:00;CYQF 011600Z 29007KT 12SM -RA BKN020 OVC040 01/00 A2996 RMK SC6SC2 SLP186

CYQF;2015-01-01 17:00;CYQF 011700Z 27007KT 12SM -RA FEW020 OVC080 01/00 A2996 RMK SC2AC6 SLP183

CYQF;2015-01-01 18:00;CYQF 011800Z 26009KT 15SM -RA BKN050 OVC100 01/00 A2996 RMK SC6AC2 SLP182

CYQF;2015-01-01 18:29;CYQF 011829Z 26009KT 15SM -SN FEW020 OVC045 01/00 A2996 RMK SC1SC7 SLP181

CYQF;2015-01-01 19:00;CYQF 011900Z 27008KT 15SM FEW020 OVC066 01/M00 A2995 RMK SC1AC7 SLP179

CYQF;2015-01-01 20:00;CYQF 012000Z 27009KT 15SM FEW020 OVC055 02/M00 A2993 RMK SC1SC7 SLP169

CYQF;2015-01-01 20:23;CYQF 012023Z 28009KT 15SM -RASN FEW020 OVC050 02/M00 A2993 RMK SC1SC7 SLP171

CYQF;2015-01-01 21:00;CYQF 012100Z 29008KT 15SM -RASN OVC050 02/M00 A2993 RMK SC8 SLP169

CYQF;2015-01-01 22:00;CYQF 012200Z 26006KT 15SM -RASN FEW050 BKN082 02/00 A2991 RMK SC2AC5 SLP162

CYQF;2015-01-01 23:00;CYQF 012300Z 28006KT 15SM -RASN BKN055 01/00 A2992 RMK SC7 SLP166

CYQF;2015-01-02 00:00;CYQF 020000Z 29004KT 15SM -RASN FEW020 BKN054 01/M00 A2992 RMK SC2SC5 SLP170

CYQF;2015-01-02 00:47;CYQF 020047Z 30004KT 15SM OVC050 01/M00 A2991 RMK SC8 SLP167

CYQF;2015-01-02 01:00;CYQF 020100Z 29003KT 15SM FEW020 OVC050 01/M00 A2991 RMK SC2SC6 SLP166

CYQF;2015-01-02 02:00;CYQF 020200Z 29002KT 15SM OVC025 01/M00 A2990 RMK SC8 SLP164

CYQF;2015-01-02 02:19;CYQF 020219Z 35003KT 15SM -SN OVC033 00/M00 A2990 RMK SC8 SLP163

CYQF;2015-01-02 02:50;CYQF 020250Z 04007KT 15SM BKN007 OVC030 M00/M01 A2989 RMK ST5SC3 SLP161

CYQF;2015-01-02 03:00;CYQF 020300Z 04006KT 15SM BKN008 OVC030 M00/M01 A2989 RMK ST6SC2 SLP161

CYQF;2015-01-02 04:00;CYQF 020400Z 06004KT 15SM -SN SCT008 OVC027 M00/M01 A2987 RMK ST4SC4 SLP153

CYQF;2015-01-02 04:18;CYQF 020418Z 12003KT 050V130 15SM BKN011 OVC026 M00/M01 A2986 RMK SC5SC3 SLP150

CYQF;2015-01-02 05:00;CYQF 020500Z 10003KT 15SM OVC017 M00/M01 A2985 RMK SC8 SLP146

CYQF;2015-01-02 05:10;CYQF 020510Z 12004KT 6SM -SN BKN007 OVC017 M00/M01 A2984 RMK ST5SC3 SLP143

CYQF;2015-01-02 06:00;CYQF 020600Z 07004KT 15SM -SN OVC014 M01/M01 A2982 RMK ST8 SLP137

CYQF;2015-01-02 06:36;CYQF 020636Z 10005KT 15SM OVC017 M01/M01 A2982 RMK SC8 SLP135

CYQF;2015-01-02 07:00;CYQF 020700Z 07011KT 15SM OVC017 M02/M03 A2980 RMK SC8 SLP132

CYQF;2015-01-02 07:31;CYQF 020731Z 08014KT 15SM OVC006 M03/M05 A2979 RMK ST8 CIG RAG SLP128

CYQF;2015-01-02 08:00;CYQF 020800Z 08012G18KT 15SM OVC006 M04/M06 A2977 RMK ST8 CIG RAG SLP125

CYQF;2015-01-02 08:44;CYQF 020844Z 09010KT 3SM -SN OVC006 M05/M06 A2976 RMK ST8 SLP118

CYQF;2015-01-02 09:00;CYQF 020900Z 09010KT 1 1/2SM -SN OVC006 M05/M06 A2975 RMK SN6ST2 SLP116

CYQF;2015-01-02 09:18;CYQF 020918Z 09010KT 1SM -SN OVC008 M05/M06 A2974 RMK SN6ST2 SLP113

CYQF;2015-01-02 09:43;CYQF 020943Z 08010KT 5SM -SN OVC011 M05/M06 A2973 RMK ST8 SLP110

CYQF;2015-01-02 10:00;CYQF 021000Z 08011KT 5SM -SN OVC011 M05/M06 A2972 RMK ST8 SLP106

CYQF;2015-01-02 10:39;CYQF 021039Z 09011KT 2SM -SN OVC009 M05/M07 A2970 RMK SN4ST4 SLP100

CYQF;2015-01-02 11:00;CYQF 021100Z 09011KT 2SM -SN OVC010 M06/M07 A2969 RMK SN4ST4 /S01/ SLP097

CYQF;2015-01-02 12:00;CYQF 021200Z 09010KT 2 1/2SM -SN OVC012 M07/M09 A2965 RMK SN3ST5 PRESFR SLP085

CYQF;2015-01-02 12:06;CYQF 021206Z 08013KT 6SM -SN OVC012 M07/M09 A2965 RMK SN3ST5 SLP084

CYQF;2015-01-02 13:00;CYQF 021300Z 06009KT 15SM -SN OVC011 M07/M09 A2964 RMK ST8 VRY LGT SN SLP081

CYQF;2015-01-02 13:24;CYQF 021324Z 05009KT 15SM OVC011 M08/M10 A2964 RMK ST8 SLP083

CYQF;2015-01-02 14:00;CYQF 021400Z 05011KT 10SM -SN OVC010 M09/M10 A2965 RMK ST8 VIS S 6 SLP086

CYQF;2015-01-02 14:42;CYQF 021442Z 04015KT 5SM -SN OVC007 M10/M12 A2966 RMK ST8 PRESRR SLP092

CYQF;2015-01-02 15:00;CYQF 021500Z 05014KT 5SM -SN OVC008 M11/M12 A2968 RMK ST8 PRESRR SLP100

CYQF;2015-01-02 15:19;CYQF 021519Z 03016KT 2SM -SN DRSN OVC010 M11/M13 A2971 RMK SC8 VIS VRB 1-3 PRESRR SLP111

CYQF;2015-01-02 16:00;CYQF 021600Z 03014G20KT 3/4SM -SN DRSN VV006 M12/M14 A2973 RMK SN8 VIS VRB 1/2-1 SLP120

CYQF;2015-01-02 17:00;CYQF 021700Z 03012KT 1 1/2SM -SN DRSN VV016 M13/M15 A2978 RMK SN8 VIS VRB 1-2 PRESRR SLP139

CYQF;2015-01-02 18:00;CYQF 021800Z 03013KT 1 1/2SM -SN DRSN OVC030 M14/M17 A2983 RMK SN6SC2 VIS VRB 1-2 SLP156

CYQF;2015-01-02 19:00;CYQF 021900Z 02014KT 1 1/2SM -SN DRSN VV023 M15/M18 A2986 RMK SN8 VIS VRB 1-2 SLP168

CYQF;2015-01-02 20:00;CYQF 022000Z 01016KT 1 1/2SM -SN DRSN VV020 M16/M18 A2989 RMK SN8 VIS VRB 1-2 SLP186

CYQF;2015-01-02 20:05;CYQF 022005Z 02016G21KT 3/4SM -SN DRSN VV013 M16/M18 A2990 RMK SN8 VIS VRB 1/2-1 SLP187

CYQF;2015-01-02 20:18;CYQF 022018Z 36012G21KT 1/4SM +SN DRSN VV008 M16/M19 A2991 RMK SN8 SLP191

CYQF;2015-01-02 20:26;CYQF 022026Z 01016KT 1/2SM SN DRSN VV012 M17/M19 A2991 RMK SN8 VIS VRB 1/4-3/4 SLP192

CYQF;2015-01-02 21:00;CYQF 022100Z 36012G18KT 3/4SM -SN DRSN VV017 M17/M19 A2994 RMK SN8 VIS VRB 1/2-1 PRESRR SLP205

CYQF;2015-01-02 22:00;CYQF 022200Z 01013KT 1SM -SN DRSN VV023 M17/M20 A2999 RMK SN8 VIS VRB 1/2-11/2 PRESRR SLP221

CYQF;2015-01-02 22:46;CYQF 022246Z 36009KT 3SM -SN DRSN FEW020 OVC050 M17/M20 A3003 RMK SC2SC6 SLP234

CYQF;2015-01-02 23:00;CYQF 022300Z 36011KT 3SM -SN DRSN FEW020 OVC050 M17/M20 A3004 RMK SC2SC6 SLP238

CYQF;2015-01-03 00:00;CYQF 030000Z 01011KT 10SM -SN DRSN SCT017 OVC060 M17/M20 A3009 RMK SC3SC5 /S02/ SLP258

CYQF;2015-01-03 01:00;CYQF 030100Z 35009KT 10SM -SN DRSN BKN019 OVC060 M18/M21 A3013 RMK SC5SC3 SLP273

CYQF;2015-01-03 02:00;CYQF 030200Z 02009KT 10SM -SN FEW020 OVC079 M18/M22 A3015 RMK SC2AC6 SLP285

CYQF;2015-01-03 03:00;CYQF 030300Z 36008KT 10SM -SN BKN073 M19/M23 A3019 RMK AC6 SLP299

CYQF;2015-01-03 04:00;CYQF 030400Z 36007KT 10SM -SN OVC070 M19/M22 A3020 RMK AC8 SLP307

CYQF;2015-01-03 05:00;CYQF 030500Z 36004KT 15SM -SN BKN066 M19/M22 A3022 RMK AC7 SLP313

CYQF;2015-01-03 06:00;CYQF 030600Z 34004KT 15SM -SN OVC073 M20/M22 A3025 RMK AC8 SLP325

CYQF;2015-01-03 07:00;CYQF 030700Z 35006KT 15SM -SN OVC068 M20/M23 A3026 RMK AC8 SLP332

CYQF;2015-01-03 08:00;CYQF 030800Z 34004KT 15SM -SN OVC070 M21/M23 A3026 RMK AC8 SLP334

CYQF;2015-01-03 09:00;CYQF 030900Z 33007KT 3SM -SN OVC028 M20/M23 A3029 RMK SN2SC6 SLP343

CYQF;2015-01-03 10:00;CYQF 031000Z 33004KT 8SM -SN OVC072 M20/M23 A3031 RMK AC8 SLP350

CYQF;2015-01-03 11:00;CYQF 031100Z 33006KT 4SM -SN OVC072 M19/M22 A3032 RMK AC8 SLP354

CYQF;2015-01-03 11:34;CYQF 031134Z 33007KT 1SM -SN VV024 M19/M23 A3032 RMK SN8 SLP354

CYQF;2015-01-03 12:00;CYQF 031200Z 32006KT 3SM -SN OVC065 M19/M22 A3033 RMK SC8 SLP358

CYQF;2015-01-03 12:38;CYQF 031238Z 36006KT 310V010 1 1/2SM -SN OVC024 M19/M23 A3034 RMK SN3SC5 SLP359

CYQF;2015-01-03 13:00;CYQF 031300Z 34006KT 1 1/2SM -SN OVC028 M19/M22 A3034 RMK SN3SC5 SLP364

CYQF;2015-01-03 14:00;CYQF 031400Z 34006KT 1 1/2SM -SN OVC023 M19/M22 A3036 RMK SN3SC5 SLP369

CYQF;2015-01-03 15:00;CYQF 031500Z 35006KT 1 1/2SM -SN OVC023 M20/M23 A3037 RMK SC8 SLP375

CYQF;2015-01-03 15:08;CYQF 031508Z 34006KT 3SM -SN BKN024 OVC060 M20/M23 A3038 RMK SC5SC3 SLP378

CYQF;2015-01-03 15:48;CYQF 031548Z 34007KT 2SM -SN OVC025 M20/M23 A3040 RMK SN3SC5 SLP383

CYQF;2015-01-03 16:00;CYQF 031600Z 34008KT 2SM -SN DRSN OVC028 M20/M23 A3040 RMK SN3SC5 SLP385

CYQF;2015-01-03 17:00;CYQF 031700Z 35008KT 2SM -SN DRSN OVC035 M19/M23 A3042 RMK SN4SC4 SLP392

CYQF;2015-01-03 18:00;CYQF 031800Z 35007KT 1 1/2SM -SN DRSN VV030 M20/M23 A3043 RMK SN8 /S01/ SLP396

CYQF;2015-01-03 19:00;CYQF 031900Z 34010KT 1 1/2SM -SN DRSN VV030 M20/M24 A3043 RMK SN8 SLP394

CYQF;2015-01-03 20:00;CYQF 032000Z 01007KT 2SM -SN DRSN VV030 M20/M24 A3042 RMK SN8 VIS VRB 1-3 SLP394

CYQF;2015-01-03 21:00;CYQF 032100Z 01008KT 2SM -SN DRSN OVC046 M20/M24 A3043 RMK SC8 SLP396

CYQF;2015-01-03 21:38;CYQF 032138Z 01009KT 10SM DRSN SCT090 BKN250 M22/M25 A3043 RMK AC4CI2 SLP400

CYQF;2015-01-03 22:00;CYQF 032200Z 02007KT 12SM SCT090 BKN250 M23/M27 A3044 RMK AC3CI2 SLP403

CYQF;2015-01-03 23:00;CYQF 032300Z 32003KT 15SM FEW090 FEW220 M23/M26 A3045 RMK AC1CI1 SLP408

CYQF;2015-01-04 00:00;CYQF 040000Z 33005KT 15SM FEW090 SCT220 M24/M27 A3048 RMK AC1CI2 SLP417

CYQF;2015-01-04 01:00;CYQF 040100Z 33004KT 15SM FEW220 M25/M28 A3048 RMK CI1 SLP420

CYQF;2015-01-04 02:00;CYQF 040200Z 29005KT 15SM FEW030 M25/M28 A3049 RMK SC2 SLP422

CYQF;2015-01-04 03:00;CYQF 040300Z 25007KT 15SM FEW030 M27/M29 A3050 RMK SC1 SLP428

CYQF;2015-01-04 04:00;CYQF 040400Z 26006KT 15SM FEW220 M27/M29 A3051 RMK CI2 SLP430

CYQF;2015-01-04 05:00;CYQF 040500Z 27006KT 15SM FEW200 M27/M30 A3049 RMK CI2 SLP426

CYQF;2015-01-04 06:00;CYQF 040600Z 27007KT 15SM FEW200 M27/M30 A3051 RMK CI2 SLP431

CYQF;2015-01-04 07:00;CYQF 040700Z 29007KT 15SM BKN200 M27/M30 A3050 RMK CI6 SLP430

CYQF;2015-01-04 08:00;CYQF 040800Z 28006KT 15SM BKN200 M27/M29 A3050 RMK CI6 SLP427

CYQF;2015-01-04 09:00;CYQF 040900Z 29006KT 15SM BKN200 M27/M30 A3050 RMK CI5 SLP431

CYQF;2015-01-04 10:00;CYQF 041000Z 28004KT 15SM BKN200 M27/M30 A3051 RMK CI5 SLP435

CYQF;2015-01-04 11:00;CYQF 041100Z 27006KT 15SM SCT200 M27/M30 A3051 RMK CI3 SLP435

CYQF;2015-01-04 12:00;CYQF 041200Z 28006KT 15SM SCT200 M28/M31 A3050 RMK CI3 SLP434

CYQF;2015-01-04 13:00;CYQF 041300Z 27005KT 15SM FEW200 M28/M31 A3050 RMK CI2 SLP436

CYQF;2015-01-04 14:00;CYQF 041400Z 25006KT 15SM SKC M29/M32 A3050 RMK SLP437

CYQF;2015-01-04 15:00;CYQF 041500Z 26006KT 15SM SCT240 M30/M32 A3050 RMK CI4 SLP440

CYQF;2015-01-04 16:00;CYQF 041600Z VRB02KT 15SM SCT240 M31/M34 A3052 RMK CI4 SLP447

CYQF;2015-01-04 17:00;CYQF 041700Z 24005KT 15SM BKN240 M30/M33 A3051 RMK CI5 SLP447

CYQF;2015-01-04 18:00;CYQF 041800Z 21004KT 15SM BKN240 M30/M33 A3050 RMK CI5 SLP441

CYQF;2015-01-04 19:00;CYQF 041900Z 19007KT 15SM BKN240 M28/M31 A3047 RMK CI6 SLP430

CYQF;2015-01-04 20:00;CYQF 042000Z 20005KT 15SM BKN240 M27/M30 A3044 RMK CI6 SLP416

CYQF;2015-01-04 21:00;CYQF 042100Z 19004KT 15SM BKN240 M26/M29 A3041 RMK CI5 SLP406

CYQF;2015-01-04 22:00;CYQF 042200Z 17006KT 15SM BKN240 M24/M28 A3038 RMK CI5 SLP392

CYQF;2015-01-04 23:00;CYQF 042300Z 17009KT 15SM BKN240 M27/M30 A3034 RMK CI5 SLP380

CYQF;2015-01-05 00:00;CYQF 050000Z 18006KT 15SM BKN240 M27/M30 A3029 RMK CI6 SLP366

CYQF;2015-01-05 01:00;CYQF 050100Z 15008KT 15SM BKN240 M25/M28 A3023 RMK CI7 PRESFR SLP341

CYQF;2015-01-05 02:00;CYQF 050200Z 16013KT 15SM OVC210 M22/M26 A3015 RMK CI8 PRESFR SLP312

CYQF;2015-01-05 03:00;CYQF 050300Z 15012KT 15SM DRSN OVC130 M21/M25 A3009 RMK AC8 PRESFR SLP292

CYQF;2015-01-05 04:00;CYQF 050400Z 16013KT 15SM DRSN OVC100 M20/M23 A3002 RMK AC8 PRESFR SLP265

CYQF;2015-01-05 04:47;CYQF 050447Z 16013KT 12SM -SN DRSN OVC075 M19/M23 A2996 RMK AS8 PRESFR SLP245

CYQF;2015-01-05 05:00;CYQF 050500Z 15013G18KT 12SM -SN DRSN OVC075 M19/M23 A2995 RMK AS8 SLP242

CYQF;2015-01-05 05:41;CYQF 050541Z 15015KT 2 1/2SM -SN DRSN VV030 M19/M22 A2993 RMK SN8 SLP234

CYQF;2015-01-05 06:00;CYQF 050600Z 15015KT 1 1/2SM -SN DRSN VV022 M19/M22 A2992 RMK SN8 PRESFR SLP227

CYQF;2015-01-05 07:00;CYQF 050700Z 13009KT 1SM -SN DRSN VV017 M18/M21 A2987 RMK SN8 SLP210

CYQF;2015-01-05 07:49;CYQF 050749Z 13011KT 3SM -SN DRSN OVC045 M18/M21 A2986 RMK SC8 SLP206

CYQF;2015-01-05 08:00;CYQF 050800Z 13010KT 3SM -SN DRSN OVC043 M18/M21 A2986 RMK SC8 SLP206

CYQF;2015-01-05 08:19;CYQF 050819Z 13009KT 1 1/2SM -SN DRSN VV016 M18/M21 A2985 RMK SN8 VIS VRB 1-2 PRESFR SLP200

CYQF;2015-01-05 09:00;CYQF 050900Z 13007KT 1 1/2SM -SN VV015 M18/M21 A2988 RMK SN8 VIS VRB 1-2 SLP210

CYQF;2015-01-05 10:00;CYQF 051000Z CCA 03003KT 010V080 1 1/2SM -SN VV022 M19/M21 A2993 RMK SN8 VIS VRB 1-2 /S01/ PRESRR SLP226

CYQF;2015-01-05 11:00;CYQF 051100Z 34005KT 2SM -SN OVC030 M19/M21 A2998 RMK SN4SC4 PRESRR SLP245

CYQF;2015-01-05 11:45;CYQF 051145Z 36007KT 3SM -SN OVC090 M19/M22 A3000 RMK SN2AC6 SLP254

CYQF;2015-01-05 12:00;CYQF 051200Z 35006KT 3SM -SN OVC090 M20/M22 A3001 RMK SN2AC6 /S02/ SLP259

CYQF;2015-01-05 13:00;CYQF 051300Z 33006KT 10SM -SN BKN062 M21/M24 A3006 RMK SC7 SLP276

CYQF;2015-01-05 14:00;CYQF 051400Z 31012G17KT 10SM -SN DRSN OVC057 M21/M25 A3010 RMK SC8 PRESRR SLP285

CYQF;2015-01-05 14:38;CYQF 051438Z 32008KT 12SM DRSN BKN055 M21/M25 A3013 RMK SC6 SLP294

CYQF;2015-01-05 15:00;CYQF 051500Z 32008KT 12SM DRSN SCT050 BKN240 M22/M26 A3014 RMK SC4CI2 SLP298

CYQF;2015-01-05 16:00;CYQF 051600Z 31006KT 15SM FEW050 BKN240 M22/M26 A3019 RMK SC2CI3 SLP314

CYQF;2015-01-05 17:00;CYQF 051700Z 00000KT 15SM FEW080 SCT240 M23/M27 A3021 RMK AC1CI3 SLP320

CYQF;2015-01-05 18:00;CYQF 051800Z 20002KT 15SM FEW080 SCT240 M22/M26 A3022 RMK AC1CI3 SLP322

CYQF;2015-01-05 19:00;CYQF 051900Z 24004KT 15SM FEW080 SCT240 M20/M25 A3023 RMK AC1CI3 SLP325

CYQF;2015-01-05 20:00;CYQF 052000Z 32003KT 15SM FEW080 BKN240 M20/M25 A3023 RMK AC2CI4 SLP324

CYQF;2015-01-05 21:00;CYQF 052100Z 00000KT 15SM BKN078 BKN240 M19/M24 A3025 RMK AC5CI2 SLP328

CYQF;2015-01-05 22:00;CYQF 052200Z 25003KT 15SM BKN075 BKN240 M17/M22 A3027 RMK AC6CI1 SLP334

CYQF;2015-01-05 23:00;CYQF 052300Z 28007KT 15SM BKN075 OVC240 M16/M22 A3027 RMK AC7CI1 SLP336

CYQF;2015-01-06 00:00;CYQF 060000Z 29004KT 15SM OVC075 M16/M22 A3029 RMK AC8 SLP341

CYQF;2015-01-06 01:00;CYQF 060100Z 00000KT 15SM OVC080 M16/M20 A3029 RMK AC8 SLP344

CYQF;2015-01-06 02:00;CYQF 060200Z 26003KT 15SM OVC080 M16/M21 A3031 RMK AC8 SLP352

CYQF;2015-01-06 03:00;CYQF 060300Z 25002KT 15SM OVC075 M16/M20 A3033 RMK AC8 SLP359

CYQF;2015-01-06 04:00;CYQF 060400Z 28003KT 15SM OVC075 M16/M20 A3034 RMK AC8 SLP363

CYQF;2015-01-06 05:00;CYQF 060500Z 24002KT 15SM OVC063 M16/M20 A3035 RMK SC8 SLP367

CYQF;2015-01-06 06:00;CYQF 060600Z 00000KT 15SM OVC065 M15/M20 A3035 RMK SC8 SLP364

CYQF;2015-01-06 07:00;CYQF 060700Z VRB02KT 15SM OVC060 M15/M19 A3036 RMK SC8 SLP367

CYQF;2015-01-06 07:13;CYQF 060713Z 00000KT 10SM -SN OVC053 M15/M19 A3037 RMK SC8 SLP369

CYQF;2015-01-06 08:00;CYQF 060800Z 31004KT 2SM -SN VV033 M15/M18 A3039 RMK SN8 SLP376

CYQF;2015-01-06 09:00;CYQF 060900Z 33002KT 1 1/2SM -SN VV031 M15/M17 A3039 RMK SN8 VIS VRB 1-2 SLP376

CYQF;2015-01-06 10:00;CYQF 061000Z 01002KT 1 1/2SM -SN VV031 M15/M17 A3041 RMK SN8 VIS VRB 1-2 /S01/ SLP381

CYQF;2015-01-06 11:00;CYQF 061100Z 02004KT 1 1/2SM -SN VV027 M15/M17 A3044 RMK SN8 VIS VRB 1-2 SLP390

CYQF;2015-01-06 12:00;CYQF 061200Z 03006KT 1SM -SN VV019 M15/M17 A3046 RMK SN8 /S02/ SLP398

CYQF;2015-01-06 13:00;CYQF 061300Z CCA 02006KT 1 1/2SM -SN VV028 M15/M18 A3050 RMK SN8 VIS VRB 1-2 /S01/ SLP410

CYQF;2015-01-06 14:00;CYQF 061400Z 01005KT 1 1/2SM -SN VV026 M15/M18 A3054 RMK SN8 VIS VRB 1-2 SLP423

CYQF;2015-01-06 15:00;CYQF 061500Z 35004KT 1 1/2SM -SN VV023 M16/M18 A3058 RMK SN8 VIS VRB 1-2 /S01/ SLP437

CYQF;2015-01-06 16:00;CYQF 061600Z 36003KT 1 1/2SM -SN VV027 M16/M18 A3061 RMK SN8 VIS VRB 1-2 /S02/ SLP449

CYQF;2015-01-06 17:00;CYQF 061700Z 03006KT 1 1/2SM -SN VV027 M16/M18 A3064 RMK SN8 VIS VRB 1-2 SLP459

CYQF;2015-01-06 18:00;CYQF 061800Z 03002KT 1 1/2SM -SN VV023 M16/M18 A3068 RMK SN8 VIS VRB 1-2 SLP474

CYQF;2015-01-06 19:00;CYQF 061900Z 00000KT 1 1/2SM -SN VV027 M15/M18 A3070 RMK SN8 VIS VRB 1-2 SLP477

CYQF;2015-01-06 20:00;CYQF 062000Z 00000KT 5SM -SN OVC040 M15/M18 A3069 RMK SC8 SLP476

CYQF;2015-01-06 21:00;CYQF 062100Z 07005KT 12SM -SN FEW040 OVC092 M15/M18 A3071 RMK SC2AC6 SLP480

CYQF;2015-01-06 22:00;CYQF 062200Z 09003KT 10SM -SN OVC090 M15/M18 A3073 RMK AC8 SLP487

CYQF;2015-01-06 23:00;CYQF 062300Z 08005KT 8SM -SN OVC100 M15/M18 A3075 RMK AC8 SLP495

CYQF;2015-01-07 00:00;CYQF 070000Z 14006KT 10SM -SN OVC090 M15/M18 A3076 RMK AC8 SLP500

CYQF;2015-01-07 01:00;CYQF 070100Z 15006KT 15SM BKN100 OVC150 M15/M18 A3078 RMK AC6AC2 SLP506

CYQF;2015-01-07 02:00;CYQF 070200Z 14006KT 15SM BKN090 OVC150 M16/M19 A3079 RMK AC5AC3 SLP510

CYQF;2015-01-07 03:00;CYQF 070300Z 11005KT 15SM SCT090 BKN150 M17/M19 A3079 RMK AC3AC3 SLP514

CYQF;2015-01-07 04:00;CYQF 070400Z 16010KT 15SM FEW150 M18/M20 A3078 RMK AC2 SLP510

CYQF;2015-01-07 05:00;CYQF 070500Z 17009KT 15SM FEW150 SCT220 M19/M21 A3076 RMK AC1CI3 SLP503

CYQF;2015-01-07 06:00;CYQF 070600Z 15008KT 15SM FEW150 SCT220 M19/M21 A3074 RMK AC1CI3 SLP499

CYQF;2015-01-07 07:00;CYQF 070700Z 16011KT 15SM FEW150 SCT240 M18/M20 A3072 RMK AC1CI2 SLP488

CYQF;2015-01-07 08:00;CYQF 070800Z 16011KT 15SM FEW150 SCT240 M17/M20 A3067 RMK AC1CI2 PRESFR SLP471

CYQF;2015-01-07 08:38;CYQF 070838Z 15015KT 10SM IC SCT240 M17/M19 A3065 RMK CI3 SLP462

CYQF;2015-01-07 09:00;CYQF 070900Z 15015KT 10SM IC SCT240 M17/M19 A3064 RMK CI3 SLP459

CYQF;2015-01-07 10:00;CYQF 071000Z 16015KT 10SM IC FEW170 SCT240 M16/M19 A3059 RMK AC2CI2 PRESFR SLP441

CYQF;2015-01-07 11:00;CYQF 071100Z 16018KT 10SM IC FEW170 SCT240 M16/M18 A3054 RMK AC2CI2 PRESFR SLP422

CYQF;2015-01-07 11:10;CYQF 071110Z 16018KT 10SM DRSN FEW170 SCT240 M15/M18 A3051 RMK AC2CI2 OCNL BLSN PRESFR SLP413

CYQF;2015-01-07 12:00;CYQF 071200Z 17020G26KT 8SM DRSN OVC150 M15/M17 A3046 RMK AC8 OCNL BLSN PRESFR SLP394

CYQF;2015-01-07 13:00;CYQF 071300Z 17019KT 10SM OVC140 M14/M17 A3042 RMK AC8 OCNL BLSN SLP378

CYQF;2015-01-07 14:00;CYQF 071400Z 17020KT 15SM DRSN OVC130 M13/M16 A3033 RMK AC8 FQT GUSTS 30KTS PRESFR SLP348

CYQF;2015-01-07 15:00;CYQF 071500Z 17022G27KT 15SM DRSN OVC170 M13/M16 A3028 RMK AC8 SLP333

CYQF;2015-01-07 16:00;CYQF 071600Z 18019G25KT 15SM DRSN BKN170 OVC200 M13/M15 A3023 RMK AC6CI2 SLP315

CYQF;2015-01-07 17:00;CYQF 071700Z 17013KT 15SM DRSN SCT170 OVC200 M12/M15 A3018 RMK AC4CI4 SLP299

CYQF;2015-01-07 18:00;CYQF 071800Z 17015KT 15SM DRSN SCT160 OVC220 M12/M14 A3013 RMK AC4CI4 PRESFR SLP281

CYQF;2015-01-07 19:00;CYQF 071900Z 17012KT 15SM SCT140 OVC250 M11/M14 A3008 RMK AC3CI5 PRESFR SLP262

CYQF;2015-01-07 20:00;CYQF 072000Z 21007KT 170V230 15SM BKN080 BKN250 M10/M13 A3008 RMK AC5CI2 PRESRR SLP258

CYQF;2015-01-07 21:00;CYQF 072100Z VRB02KT 15SM BKN080 BKN140 BKN250 M09/M12 A3005 RMK AC5AC1CI1 PRESFR SLP247

CYQF;2015-01-07 22:00;CYQF 072200Z 22006KT 210V280 15SM FEW040 SCT100 OVC140 M08/M12 A3004 RMK CU1AC3AC4 CU N-NE MVG E SLP243

CYQF;2015-01-07 23:00;CYQF 072300Z 26004KT 210V270 15SM BKN080 BKN140 M07/M11 A3005 RMK AC5AC2 SLP242

CYQF;2015-01-08 00:00;CYQF 080000Z 25003KT 15SM SCT080 BKN130 M08/M11 A3007 RMK AC3AC4 SLP251

CYQF;2015-01-08 01:00;CYQF 080100Z 34005KT 15SM BKN075 BKN130 M04/M07 A3010 RMK AC5AC2 SLP254

CYQF;2015-01-08 01:16;CYQF 080116Z 36005KT 340V060 15SM -SN OVC070 M04/M06 A3010 RMK AC8 SLP254

CYQF;2015-01-08 02:00;CYQF 080200Z 34017G26KT 15SM -SN DRSN OVC070 M02/M04 A3011 RMK AC8 SLP254

CYQF;2015-01-08 03:00;CYQF 080300Z 33019G26KT 15SM -SN DRSN SCT021 OVC070 M02/M05 A3012 RMK SC3AC5 SLP259

CYQF;2015-01-08 04:00;CYQF 080400Z 03022KT 8SM -SN DRSN BKN020 OVC060 M04/M06 A3017 RMK SC6SC2 WND ESTD SLP279

CYQF;2015-01-08 04:27;CYQF 080427Z 35018G27KT 2SM -SN BLSN BKN016 OVC080 M05/M07 A3020 RMK SN2SC5AC1 PRESRR SLP288

CYQF;2015-01-08 04:37;CYQF 080437Z 34019KT 3SM -SN BLSN BKN015 OVC080 M05/M08 A3020 RMK SC7AC1 VIS VRB 2-4 SLP291

CYQF;2015-01-08 05:00;CYQF 080500Z 34020G31KT 3SM -SN BLSN SCT015 OVC043 M07/M10 A3023 RMK SC3SC5 VIS VRB 2-4 PRESRR SLP302

CYQF;2015-01-08 06:00;CYQF 080600Z 34019G29KT 3SM -SN BLSN FEW015 OVC048 M10/M12 A3029 RMK SC2SC6 VIS VRB 2-4 /S01/ SLP326

CYQF;2015-01-08 07:00;CYQF 080700Z 34022G28KT 3SM -SN BLSN OVC045 M12/M15 A3036 RMK SC8 VIS VRB 2-4 PRESRR SLP350

CYQF;2015-01-08 08:00;CYQF 080800Z 33025G36KT 3SM -SN BLSN OVC059 M12/M16 A3042 RMK SC8 VIS VRB 2-4 SLP369

CYQF;2015-01-08 09:00;CYQF 080900Z 34021G34KT 3SM -SN BLSN OVC068 M12/M16 A3046 RMK AC8 VIS VRB 2-4 PRESRR SLP386

CYQF;2015-01-08 10:00;CYQF 081000Z 33023G32KT 8SM -SN DRSN FEW030 OVC090 M13/M16 A3051 RMK SC2AC6 OCNL BLSN SLP400

CYQF;2015-01-08 11:00;CYQF 081100Z 32013G25KT 6SM -SN DRSN FEW060 OVC090 M13/M16 A3053 RMK SC2AC6 OCNL BLSN PRESRR SLP408

CYQF;2015-01-08 12:00;CYQF 081200Z 32018G25KT 2SM -SN DRSN VV036 M13/M16 A3055 RMK SN8 OCNL BLSN /S02/ SLP416

CYQF;2015-01-08 12:10;CYQF 081210Z 32017G23KT 6SM -SN DRSN FEW030 OVC084 M13/M16 A3055 RMK SC2AC6 OCNL BLSN SLP416

CYQF;2015-01-08 13:00;CYQF 081300Z 31017G25KT 10SM -SN DRSN OVC088 M13/M16 A3057 RMK AC8 SLP418

CYQF;2015-01-08 13:22;CYQF 081322Z 31015G26KT 15SM DRSN FEW080 OVC130 M13/M17 A3057 RMK AC2AC6 SLP418

CYQF;2015-01-08 14:00;CYQF 081400Z 32018G23KT 15SM BKN130 M14/M18 A3060 RMK AC5 SLP425

CYQF;2015-01-08 15:00;CYQF 081500Z 31016G23KT 15SM FEW130 M15/M19 A3063 RMK AC1 AC TR SLP437

CYQF;2015-01-08 16:00;CYQF 081600Z 32012G18KT 15SM FEW130 M15/M19 A3066 RMK AC1 AC TR SLP451

CYQF;2015-01-08 17:00;CYQF 081700Z 34010KT 15SM FEW130 M16/M20 A3069 RMK AC1 AC TR SLP465

CYQF;2015-01-08 18:00;CYQF 081800Z 32011KT 15SM SKC M16/M20 A3070 RMK SLP472

CYQF;2015-01-08 19:00;CYQF 081900Z 34009KT 15SM SKC M15/M20 A3070 RMK SLP473

CYQF;2015-01-08 20:00;CYQF 082000Z 31008KT 15SM SKC M15/M21 A3068 RMK SLP468

CYQF;2015-01-08 21:00;CYQF 082100Z 32009KT 15SM FEW250 M15/M21 A3066 RMK CI1 CI TR SLP462

CYQF;2015-01-08 22:00;CYQF 082200Z 34007KT 15SM SKC M15/M21 A3065 RMK SLP458

CYQF;2015-01-08 23:00;CYQF 082300Z 00000KT 15SM SKC M16/M22 A3065 RMK SLP459

CYQF;2015-01-09 00:00;CYQF 090000Z 00000KT 15SM SKC M17/M22 A3064 RMK SLP456

CYQF;2015-01-09 01:00;CYQF 090100Z 18006KT 15SM SKC M19/M23 A3063 RMK SLP456

CYQF;2015-01-09 02:00;CYQF 090200Z 22005KT 15SM SKC M19/M22 A3060 RMK SLP447

CYQF;2015-01-09 03:00;CYQF 090300Z 22007KT 15SM SKC M23/M26 A3056 RMK SLP439

CYQF;2015-01-09 04:00;CYQF 090400Z 21004KT 15SM SKC M23/M25 A3054 RMK SLP433

CYQF;2015-01-09 05:00;CYQF 090500Z 19003KT 15SM SKC M25/M27 A3051 RMK SLP424

CYQF;2015-01-09 06:00;CYQF 090600Z 18002KT 15SM SKC M25/M28 A3046 RMK SLP410

CYQF;2015-01-09 07:00;CYQF 090700Z 20006KT 15SM SKC M24/M26 A3043 RMK SLP396

CYQF;2015-01-09 08:00;CYQF 090800Z 05002KT 15SM SKC M26/M29 A3040 RMK SLP387

CYQF;2015-01-09 09:00;CYQF 090900Z VRB03KT 15SM SKC M23/M26 A3036 RMK PRESFR SLP369

CYQF;2015-01-09 10:00;CYQF 091000Z 16006KT 15SM SKC M22/M25 A3032 RMK SLP353

CYQF;2015-01-09 11:00;CYQF 091100Z 18004KT 15SM SKC M22/M25 A3029 RMK SLP344

CYQF;2015-01-09 12:00;CYQF 091200Z 20005KT 15SM SKC M23/M26 A3025 RMK SLP334

CYQF;2015-01-09 13:00;CYQF 091300Z 17004KT 15SM SKC M23/M25 A3021 RMK SLP322

CYQF;2015-01-09 14:00;CYQF 091400Z 14003KT 15SM SKC M23/M26 A3017 RMK SLP309

CYQF;2015-01-09 15:00;CYQF 091500Z 23002KT 15SM FEW220 M23/M26 A3014 RMK CI2 SLP305

CYQF;2015-01-09 16:00;CYQF 091600Z 22004KT 15SM SCT220 M24/M26 A3014 RMK CI4 SLP303

CYQF;2015-01-09 17:00;CYQF 091700Z 20002KT 12SM SCT220 M23/M25 A3011 RMK CI4 SLP295

CYQF;2015-01-09 18:00;CYQF 091800Z 15002KT 12SM BKN200 M22/M25 A3008 RMK CI6 SLP284

CYQF;2015-01-09 19:00;CYQF 091900Z 22005KT 15SM SCT120 BKN220 M21/M23 A3003 RMK AC3CI3 SLP262

CYQF;2015-01-09 20:00;CYQF 092000Z 17002KT 15SM SCT120 BKN220 M19/M22 A2997 RMK AC3CI3 SLP244

CYQF;2015-01-09 21:00;CYQF 092100Z 18006KT 15SM FEW120 BKN220 M16/M20 A2994 RMK AC2CI5 SLP224

CYQF;2015-01-09 22:00;CYQF 092200Z 21004KT 15SM FEW110 BKN220 M16/M20 A2991 RMK AC2CI5 SLP214

CYQF;2015-01-09 23:00;CYQF 092300Z 26002KT 15SM SCT120 BKN220 M16/M20 A2990 RMK AC3CI4 SLP211

CYQF;2015-01-10 00:00;CYQF 100000Z 21005KT 15SM BKN100 OVC220 M16/M20 A2990 RMK AC5CI3 SLP209

CYQF;2015-01-10 01:00;CYQF 100100Z 22004KT 15SM BKN090 OVC220 M15/M19 A2989 RMK AC5CI3 SLP207

CYQF;2015-01-10 02:00;CYQF 100200Z 22005KT 15SM OVC080 M15/M19 A2988 RMK AC8 SLP203

CYQF;2015-01-10 03:00;CYQF 100300Z 22005KT 15SM OVC090 M13/M17 A2989 RMK AC8 SLP203

CYQF;2015-01-10 04:00;CYQF 100400Z 24005KT 15SM OVC090 M11/M14 A2988 RMK AC8 SLP199

CYQF;2015-01-10 05:00;CYQF 100500Z 32006KT 15SM OVC100 M09/M13 A2989 RMK AC8 SLP198

CYQF;2015-01-10 06:00;CYQF 100600Z 33008KT 15SM SCT060 BKN120 M06/M11 A2992 RMK SC4AC3 SLP203

CYQF;2015-01-10 07:00;CYQF 100700Z 02002KT 15SM BKN070 M08/M12 A2993 RMK AC7 SLP210

CYQF;2015-01-10 08:00;CYQF 100800Z 34005KT 15SM OVC073 M08/M15 A2995 RMK AS8 SLP213

CYQF;2015-01-10 09:00;CYQF 100900Z 35009KT 15SM OVC070 M09/M18 A2997 RMK AS8 SLP218

CYQF;2015-01-10 10:00;CYQF 101000Z 02008KT 15SM OVC070 M10/M16 A2998 RMK AS8 SLP223

CYQF;2015-01-10 11:00;CYQF 101100Z 04007KT 15SM OVC070 M11/M16 A2999 RMK AS8 SLP227

CYQF;2015-01-10 11:35;CYQF 101135Z 05005KT 15SM -SN OVC070 M11/M16 A2998 RMK AS8 SLP224

CYQF;2015-01-10 12:00;CYQF 101200Z 03004KT 15SM OVC070 M11/M16 A2998 RMK AS8 INTMT -SN SLP225

CYQF;2015-01-10 13:00;CYQF 101300Z 00000KT 10SM -SN OVC070 M12/M16 A2997 RMK AS8 SLP221

CYQF;2015-01-10 13:33;CYQF 101333Z 03002KT 2SM -SN VV030 M12/M16 A2998 RMK SN8 SLP223

CYQF;2015-01-10 14:00;CYQF 101400Z 05002KT 2SM -SN OVC040 M12/M15 A2997 RMK SN3SC5 SLP220

CYQF;2015-01-10 14:21;CYQF 101421Z 00000KT 4SM -SN OVC038 M12/M15 A2997 RMK SC8 SLP220

CYQF;2015-01-10 15:00;CYQF 101500Z 02002KT 3SM -SN OVC039 M12/M15 A2996 RMK SC8 SLP217

CYQF;2015-01-10 15:18;CYQF 101518Z 07004KT 2SM -SN OVC038 M12/M15 A2996 RMK SN3SC5 SLP217

CYQF;2015-01-10 16:00;CYQF 101600Z 09004KT 3SM -SN OVC050 M12/M15 A2996 RMK SC8 SLP214

CYQF;2015-01-10 16:29;CYQF 101629Z 08005KT 1 1/2SM -SN VV030 M12/M15 A2997 RMK SN8 VIS VRB 1-2 SLP216

CYQF;2015-01-10 17:00;CYQF 101700Z 09005KT 1 1/2SM -SN VV030 M12/M14 A2997 RMK SN8 VIS VRB 1-2 SLP215

CYQF;2015-01-10 18:00;CYQF 101800Z 13006KT 1 1/2SM -SN VV030 M12/M14 A2996 RMK SN8 VIS VRB 1-2 /S02 SLP207

CYQF;2015-01-10 19:00;CYQF 101900Z 13008KT 2SM -SN OVC055 M12/M15 A2994 RMK SN4SC4 SLP201

CYQF;2015-01-10 19:07;CYQF 101907Z 13007KT 3SM -SN OVC055 M12/M15 A2993 RMK SN2SC6 SLP200

CYQF;2015-01-10 20:00;CYQF 102000Z 14005KT 3SM -SN OVC035 M12/M15 A2992 RMK SN2SC6 WND ESTD SLP193

CYQF;2015-01-10 21:00;CYQF 102100Z 12007KT 6SM -SN OVC037 M12/M15 A2990 RMK SC8 VIS N 3 SLP190

CYQF;2015-01-10 22:00;CYQF 102200Z 13005KT 3SM -SN OVC040 M12/M15 A2991 RMK SC8 SLP193

CYQF;2015-01-10 23:00;CYQF 102300Z 11005KT 15SM SN BKN026 BKN050 OVC100 M12/M15 A2992 RMK SC6SC1AC1 VERY LIGHT SN SLP198

CYQF;2015-01-10 23:19;CYQF 102319Z 09005KT 15SM OVC026 M12/M15 A2993 RMK SC8 SLP200

CYQF;2015-01-11 00:00;CYQF 110000Z 11004KT 12SM OVC023 M12/M15 A2995 RMK SC8 SLP208

CYQF;2015-01-11 00:28;CYQF 110028Z 10004KT 5SM -SN OVC023 M12/M15 A2995 RMK SC8 SLP210

CYQF;2015-01-11 01:00;CYQF 110100Z 13003KT 10SM -SN OVC024 M12/M15 A2996 RMK SC8 SLP214

CYQF;2015-01-11 02:00;CYQF 110200Z 20002KT 2SM -SN VV020 M12/M15 A2999 RMK SN8 SLP224

CYQF;2015-01-11 02:26;CYQF 110226Z 20002KT 5SM -SN VV043 M12/M15 A3000 RMK SN8 SLP228

CYQF;2015-01-11 03:00;CYQF 110300Z 00000KT 3SM -SN VV041 M12/M14 A3002 RMK SN8 SLP233

CYQF;2015-01-11 04:00;CYQF 110400Z 02002KT 5SM -SN VV054 M12/M14 A3004 RMK SN8 SLP240

CYQF;2015-01-11 05:00;CYQF 110500Z 33003KT 12SM -SN BKN077 BKN110 M13/M15 A3006 RMK AC6AC1 SLP249

CYQF;2015-01-11 06:00;CYQF 110600Z 29002KT 12SM -SN BKN064 M14/M15 A3008 RMK SC6 SLP256

CYQF;2015-01-11 07:00;CYQF 110700Z 31003KT 15SM MIFG SKC M15/M16 A3010 RMK SLP264

CYQF;2015-01-11 08:09;CYQF 110809Z 21002KT 1SM BR SKC M16/M17 A3011 RMK SLP270

CYQF;2015-01-11 08:22;CYQF 110822Z 21003KT 1/4SM FZFG SKC M21/M23 A3011 RMK FG2 SLP275

CYQF;2015-01-11 09:00;CYQF 110900Z 20003KT 1/4SM FZFG SKC M22/M24 A3011 RMK FG6 SLP278

CYQF;2015-01-11 09:21;CYQF 110921Z 22003KT 1SM BR SKC M21/M23 A3011 RMK SLP277

CYQF;2015-01-11 09:46;CYQF 110946Z 24003KT 3SM BR SKC M22/M24 A3012 RMK SLP279

CYQF;2015-01-11 10:00;CYQF 111000Z 25002KT 6SM BR SKC M21/M24 A3012 RMK SLP280

CYQF;2015-01-11 10:44;CYQF 111044Z 00000KT 10SM -SN BKN003 M20/M22 A3013 RMK ST7 SLP282

CYQF;2015-01-11 11:00;CYQF 111100Z VRB02KT 10SM -SN OVC002 M19/M21 A3014 RMK ST8 SLP282

CYQF;2015-01-11 12:00;CYQF 111200Z VRB02KT 3SM BR OVC002 M17/M19 A3014 RMK ST8 SLP282

CYQF;2015-01-11 12:22;CYQF 111222Z 21002KT 1SM BR OVC002 M16/M18 A3014 RMK ST8 SLP282

CYQF;2015-01-11 12:48;CYQF 111248Z 23003KT 1/8SM FZFG VV001 M16/M18 A3014 RMK FG8 SLP280

CYQF;2015-01-11 13:00;CYQF 111300Z 21002KT 1/8SM FZFG VV001 M16/M17 A3014 RMK FG8 SLP281

CYQF;2015-01-11 14:00;CYQF 111400Z 20003KT 1/8SM FZFG VV002 M17/M18 A3014 RMK FG8 SLP283

CYQF;2015-01-11 15:00;CYQF 111500Z 18004KT 1/8SM FZFG VV002 M17/M19 A3015 RMK FG8 SLP288

CYQF;2015-01-11 16:00;CYQF 111600Z 19002KT 1/8SM FZFG VV002 M19/M22 A3017 RMK FG8 SLP295

CYQF;2015-01-11 17:00;CYQF 111700Z 00000KT 1/8SM FZFG VV003 M20/M22 A3019 RMK FG8 SLP305

CYQF;2015-01-11 17:45;CYQF 111745Z 23002KT 1/4SM FZFG SKC M19/M22 A3020 RMK FG6 SLP307

CYQF;2015-01-11 17:53;CYQF 111753Z 21003KT 3/4SM BR SKC M20/M22 A3020 RMK FG4 SLP308

CYQF;2015-01-11 18:00;CYQF 111800Z 22002KT 3SM BR SKC M19/M22 A3020 RMK FG1 SLP309

CYQF;2015-01-11 18:49;CYQF 111849Z 20002KT 1 1/2SM BR SKC M19/M21 A3020 RMK FG3 VIS VRB 1-2 SLP308

CYQF;2015-01-11 19:00;CYQF 111900Z 18002KT 1/4SM FZFG SKC M19/M21 A3020 RMK FG5 SLP308

CYQF;2015-01-11 19:12;CYQF 111912Z 19003KT 3/4SM BR SKC M19/M21 A3020 RMK FG4 VIS VRB 1/2-1 SLP308

CYQF;2015-01-11 19:32;CYQF 111932Z 18003KT 3SM BR SKC M18/M20 A3020 RMK FG1 SLP307

CYQF;2015-01-11 20:00;CYQF 112000Z 19004KT 4SM BR SKC M18/M20 A3020 RMK SLP313

CYQF;2015-01-11 21:00;CYQF 112100Z 16003KT 6SM BR SKC M16/M18 A3020 RMK SLP314

CYQF;2015-01-11 22:00;CYQF 112200Z 16002KT 8SM SKC M17/M19 A3020 RMK SLP315

CYQF;2015-01-11 23:00;CYQF 112300Z 13004KT 10SM SKC M16/M18 A3021 RMK SLP312

CYQF;2015-01-12 00:00;CYQF 120000Z 15006KT 10SM SKC M17/M20 A3022 RMK SLP315

CYQF;2015-01-12 01:00;CYQF 120100Z 18002KT 10SM SKC M18/M20 A3021 RMK SLP312

CYQF;2015-01-12 02:00;CYQF 120200Z 17003KT 8SM SKC M18/M20 A3021 RMK SLP312

CYQF;2015-01-12 03:00;CYQF 120300Z 14007KT 10SM SKC M19/M21 A3021 RMK SLP314

CYQF;2015-01-12 04:00;CYQF 120400Z 15006KT 10SM SKC M17/M19 A3020 RMK SLP313

CYQF;2015-01-12 05:00;CYQF 120500Z 15005KT 10SM SKC M18/M20 A3020 RMK SLP313

CYQF;2015-01-12 06:00;CYQF 120600Z 17006KT 10SM SKC M17/M19 A3019 RMK SLP308

CYQF;2015-01-12 07:00;CYQF 120700Z 18010KT 10SM SKC M15/M17 A3018 RMK SLP302

CYQF;2015-01-12 08:00;CYQF 120800Z 17005KT 10SM SKC M17/M19 A3017 RMK SLP299

CYQF;2015-01-12 09:00;CYQF 120900Z 18003KT 10SM SKC M16/M18 A3016 RMK SLP294

CYQF;2015-01-12 10:00;CYQF 121000Z 21005KT 10SM SKC M17/M19 A3016 RMK SLP294

CYQF;2015-01-12 11:00;CYQF 121100Z 26006KT 8SM SKC M18/M20 A3015 RMK FROIN BR SLP293

CYQF;2015-01-12 12:00;CYQF 121200Z 19007KT 8SM SKC M19/M21 A3015 RMK BR SLP296

CYQF;2015-01-12 13:00;CYQF 121300Z 21004KT 8SM SKC M22/M24 A3015 RMK FROIN BR SLP299

CYQF;2015-01-12 13:52;CYQF 121352Z 22006KT 4SM BR OVC002 M21/M24 A3016 RMK ST8 SLP301

CYQF;2015-01-12 14:00;CYQF 121400Z 21006KT 2SM BR OVC002 M21/M24 A3015 RMK FG2ST6 FROIN SLP299

CYQF;2015-01-12 14:43;CYQF 121443Z 20006KT 1/2SM FZFG VV002 M22/M24 A3016 RMK FG8 SLP301

CYQF;2015-01-12 15:00;CYQF 121500Z 21006KT 3/4SM BR BKN002 M22/M25 A3016 RMK FG3ST4 FROIN SLP303

CYQF;2015-01-12 15:28;CYQF 121528Z 20006KT 1 1/2SM BR SCT002 M23/M25 A3016 RMK FG2ST2 FROIN SLP306

CYQF;2015-01-12 16:00;CYQF 121600Z 20007KT 2SM BR SCT002 M23/M26 A3017 RMK FG2ST1 FROIN SLP306

CYQF;2015-01-12 16:09;CYQF 121609Z 20007KT 3SM BR SKC M22/M25 A3017 RMK FROIN SLP307

CYQF;2015-01-12 17:00;CYQF 121700Z 20005KT 8SM SKC M22/M24 A3018 RMK SLP309

CYQF;2015-01-12 18:00;CYQF 121800Z 19006KT 10SM SKC M20/M22 A3017 RMK SLP303

CYQF;2015-01-12 19:00;CYQF 121900Z 19006KT 10SM FEW220 M17/M19 A3016 RMK CI1 CI TR SLP293

CYQF;2015-01-12 20:00;CYQF 122000Z 19006KT 10SM FEW220 M15/M17 A3015 RMK CI1 SLP289

CYQF;2015-01-12 21:00;CYQF 122100Z 18005KT 10SM FEW220 M14/M16 A3014 RMK CI2 SLP281

CYQF;2015-01-12 22:00;CYQF 122200Z 19005KT 12SM SCT220 M13/M15 A3014 RMK CI3 SLP283

CYQF;2015-01-12 23:00;CYQF 122300Z 20005KT 15SM SCT220 M13/M15 A3013 RMK CI3 SLP282

CYQF;2015-01-13 00:00;CYQF 130000Z 20005KT 15SM FEW220 M14/M16 A3014 RMK CI2 SLP287

CYQF;2015-01-13 01:00;CYQF 130100Z 21004KT 15SM FEW220 M16/M18 A3014 RMK CI1 SLP294

CYQF;2015-01-13 02:00;CYQF 130200Z 19005KT 15SM SKC M16/M18 A3015 RMK SLP297

CYQF;2015-01-13 03:00;CYQF 130300Z 22006KT 15SM SKC M15/M17 A3015 RMK SLP294

CYQF;2015-01-13 04:00;CYQF 130400Z 21007KT 15SM SKC M18/M20 A3015 RMK SLP299

CYQF;2015-01-13 05:00;CYQF 130500Z 22005KT 15SM BKN240 M16/M18 A3015 RMK CI5 SLP295

CYQF;2015-01-13 06:00;CYQF 130600Z 20005KT 15SM BKN240 M16/M18 A3015 RMK CI6 SLP293

CYQF;2015-01-13 07:00;CYQF 130700Z 19005KT 15SM SCT240 M15/M17 A3015 RMK CI3 SLP290

CYQF;2015-01-13 08:00;CYQF 130800Z 19003KT 160V220 15SM FEW240 M14/M16 A3015 RMK CI2 SLP285

CYQF;2015-01-13 09:00;CYQF 130900Z 20005KT 15SM SCT240 M16/M18 A3015 RMK CI3 SLP286

CYQF;2015-01-13 10:00;CYQF 131000Z 23005KT 15SM SCT240 M15/M17 A3016 RMK CI3 SLP288

CYQF;2015-01-13 11:00;CYQF 131100Z 21003KT 200V260 10SM SCT240 M14/M16 A3017 RMK CI3 FROIN SLP290

CYQF;2015-01-13 12:00;CYQF 131200Z 20007KT 15SM FEW012 SCT240 M15/M17 A3018 RMK SC1CI2 SLP297

CYQF;2015-01-13 13:00;CYQF 131300Z 20006KT 15SM FEW012 SCT220 M15/M17 A3017 RMK SC1CI3 SLP295

CYQF;2015-01-13 14:00;CYQF 131400Z 19007KT 15SM FEW012 SCT170 M14/M16 A3018 RMK SC1AC3 SLP297

CYQF;2015-01-13 15:00;CYQF 131500Z 19006KT 15SM SCT140 BKN200 M13/M14 A3018 RMK AC3CI4 SLP295

CYQF;2015-01-13 16:00;CYQF 131600Z 20006KT 15SM SCT140 BKN220 M13/M15 A3018 RMK AC3CI4 SLP297

CYQF;2015-01-13 17:00;CYQF 131700Z 20006KT 15SM FEW140 SCT220 M14/M15 A3018 RMK AC1CI2 SLP296

CYQF;2015-01-13 18:00;CYQF 131800Z 19006KT 15SM SCT220 M11/M13 A3017 RMK CI4 SLP291

CYQF;2015-01-13 19:00;CYQF 131900Z 22006KT 15SM SCT075 BKN220 M05/M07 A3017 RMK AC4CI2 SLP282

CYQF;2015-01-13 20:00;CYQF 132000Z 20004KT 15SM BKN070 OVC220 M03/M07 A3014 RMK AC6CI2 SLP267

CYQF;2015-01-13 21:00;CYQF 132100Z 00000KT 15SM BKN068 OVC220 M02/M06 A3013 RMK AC6CI2 SLP266

CYQF;2015-01-13 22:00;CYQF 132200Z 17005KT 15SM BKN060 OVC220 M01/M06 A3012 RMK SC6CI2 SLP259

CYQF;2015-01-13 23:00;CYQF 132300Z 21005KT 15SM BKN057 OVC220 M02/M06 A3011 RMK SC6CI2 SLP256

CYQF;2015-01-14 00:00;CYQF 140000Z 24004KT 15SM SCT060 BKN220 M01/M07 A3011 RMK SC4CI3 SLP256

CYQF;2015-01-14 01:00;CYQF 140100Z 21006KT 15SM BKN075 M03/M06 A3009 RMK AC6 SLP250

CYQF;2015-01-14 02:00;CYQF 140200Z 21009KT 15SM SCT070 00/M05 A3006 RMK AC3 SLP238

CYQF;2015-01-14 03:00;CYQF 140300Z 20008KT 15SM SCT070 M02/M07 A3003 RMK AC4 SLP227

CYQF;2015-01-14 04:00;CYQF 140400Z 22004KT 15SM SCT080 M02/M07 A3002 RMK AC4 SLP223

CYQF;2015-01-14 05:00;CYQF 140500Z 21006KT 15SM BKN100 M03/M07 A3000 RMK AC5 SLP220

CYQF;2015-01-14 06:00;CYQF 140600Z 22006KT 15SM SCT100 M05/M09 A2999 RMK AC3 SLP216

CYQF;2015-01-14 07:00;CYQF 140700Z 20004KT 15SM SCT100 M07/M10 A2998 RMK AC3 SLP207

CYQF;2015-01-14 08:00;CYQF 140800Z 20005KT 15SM FEW100 M07/M10 A2998 RMK AC2 SLP206

CYQF;2015-01-14 09:00;CYQF 140900Z 21004KT 15SM FEW100 BKN220 M07/M10 A2998 RMK AC2CI3 SLP204

CYQF;2015-01-14 10:00;CYQF 141000Z 19005KT 15SM OVC200 M06/M09 A2999 RMK CI8 SLP203

CYQF;2015-01-14 11:00;CYQF 141100Z 21004KT 15SM OVC200 M04/M08 A2998 RMK CI8 SLP199

CYQF;2015-01-14 12:00;CYQF 141200Z 00000KT 15SM OVC200 M06/M09 A2998 RMK CI8 SLP200

CYQF;2015-01-14 13:00;CYQF 141300Z 27003KT 260V340 15SM OVC200 M04/M07 A2998 RMK CI8 SLP201

CYQF;2015-01-14 14:00;CYQF 141400Z 24005KT 15SM OVC210 M05/M08 A2997 RMK CI8 SLP194

CYQF;2015-01-14 15:00;CYQF 141500Z 19005KT 15SM OVC180 M07/M09 A2997 RMK AC8 SLP201

CYQF;2015-01-14 16:00;CYQF 141600Z 20006KT 15SM BKN180 OVC240 M09/M11 A2997 RMK AC5CI3 SLP203

CYQF;2015-01-14 17:00;CYQF 141700Z 22006KT 15SM BKN240 M07/M09 A2999 RMK CI7 SLP207

CYQF;2015-01-14 18:00;CYQF 141800Z 19004KT 15SM SCT240 M06/M10 A3000 RMK CI4 SLP211

CYQF;2015-01-14 19:00;CYQF 141900Z VRB02KT 15SM FEW150 SCT240 M02/M09 A3000 RMK AC1CI3 SLP211

CYQF;2015-01-14 20:00;CYQF 142000Z 20004KT 15SM BKN100 BKN240 M01/M06 A3000 RMK AC6CI1 SLP209

CYQF;2015-01-14 21:00;CYQF 142100Z 24003KT 15SM BKN090 BKN240 01/M04 A2999 RMK AC6CI1 SLP205

CYQF;2015-01-14 22:00;CYQF 142200Z 19005KT 15SM BKN085 BKN240 01/M03 A2999 RMK AC6CI1 SLP201

CYQF;2015-01-14 23:00;CYQF 142300Z 28004KT 15SM BKN075 BKN240 02/M04 A3001 RMK AC6CI1 SLP206

CYQF;2015-01-15 00:00;CYQF 150000Z 19004KT 180V320 15SM BKN078 BKN240 M00/M04 A3002 RMK AC6CI1 SLP213

CYQF;2015-01-15 01:00;CYQF 150100Z 23005KT 15SM BKN075 01/M04 A3002 RMK AC6 SLP211

CYQF;2015-01-15 02:00;CYQF 150200Z 20008KT 15SM FEW080 M04/M07 A3002 RMK AC2 SLP215

CYQF;2015-01-15 03:00;CYQF 150300Z 19006KT 15SM FEW080 M04/M07 A3000 RMK AC1 SLP214

CYQF;2015-01-15 04:00;CYQF 150400Z 21005KT 15SM FEW210 M04/M06 A2999 RMK CI1 SLP211

CYQF;2015-01-15 05:00;CYQF 150500Z 21004KT 15SM SKC M05/M07 A2999 RMK SLP208

CYQF;2015-01-15 06:00;CYQF 150600Z 21008KT 15SM SKC M05/M07 A2996 RMK SLP200

CYQF;2015-01-15 07:00;CYQF 150700Z 22005KT 15SM SKC M06/M09 A2996 RMK SLP195

CYQF;2015-01-15 08:00;CYQF 150800Z 21006KT 15SM SKC M06/M09 A2996 RMK SLP193

CYQF;2015-01-15 09:00;CYQF 150900Z 19004KT 15SM SKC M06/M09 A2995 RMK SLP187

CYQF;2015-01-15 10:00;CYQF 151000Z 20005KT 15SM FEW230 M05/M08 A2994 RMK CI2 SLP182

CYQF;2015-01-15 11:00;CYQF 151100Z 20004KT 15SM SCT230 M06/M09 A2992 RMK CI4 SLP177

CYQF;2015-01-15 12:00;CYQF 151200Z 18005KT 15SM SCT230 M10/M11 A2989 RMK CI4 SLP172

CYQF;2015-01-15 13:00;CYQF 151300Z 20008KT 15SM OVC240 M05/M08 A2985 RMK CI8 SLP152

CYQF;2015-01-15 14:00;CYQF 151400Z 19003KT 15SM OVC220 M08/M11 A2983 RMK CI8 SLP153

CYQF;2015-01-15 15:00;CYQF 151500Z 04002KT 15SM OVC200 M07/M10 A2981 RMK CI8 SLP145

CYQF;2015-01-15 16:00;CYQF 151600Z 02004KT 15SM BKN220 M06/M09 A2979 RMK CI7 SLP140

CYQF;2015-01-15 17:00;CYQF 151700Z VRB02KT 15SM OVC180 M04/M08 A2978 RMK AS8 SLP133

CYQF;2015-01-15 18:00;CYQF 151800Z 34004KT 240V340 15SM OVC210 M04/M08 A2977 RMK CI8 SLP131

CYQF;2015-01-15 19:00;CYQF 151900Z 21004KT 15SM OVC200 M02/M06 A2974 RMK CI8 SLP118

CYQF;2015-01-15 20:00;CYQF 152000Z 22004KT 15SM BKN190 M02/M06 A2972 RMK AC7 SLP110

CYQF;2015-01-15 21:00;CYQF 152100Z 28003KT 260V030 15SM BKN190 BKN240 M03/M07 A2972 RMK AC5CI2 SLP113

CYQF;2015-01-15 22:00;CYQF 152200Z 00000KT 15SM FEW180 BKN240 M04/M07 A2972 RMK AC2CI5 SLP112

CYQF;2015-01-15 23:00;CYQF 152300Z 25005KT 15SM FEW180 BKN240 M02/M07 A2972 RMK AC2CI5 SLP112

CYQF;2015-01-16 00:00;CYQF 160000Z VRB02KT 15SM FEW180 BKN240 M06/M08 A2971 RMK AC2CI5 SLP116

CYQF;2015-01-16 01:00;CYQF 160100Z 20004KT 15SM FEW150 BKN240 M09/M11 A2971 RMK AC2CI4 SLP113

CYQF;2015-01-16 02:00;CYQF 160200Z 34003KT 15SM FEW150 OVC250 M08/M11 A2970 RMK AC1CI7 SLP114

CYQF;2015-01-16 03:00;CYQF 160300Z VRB02KT 15SM OVC250 M08/M09 A2968 RMK CI8 SLP106

CYQF;2015-01-16 04:00;CYQF 160400Z VRB03KT 15SM BKN250 M08/M09 A2965 RMK CI6 SLP094

CYQF;2015-01-16 05:00;CYQF 160500Z 20006KT 15SM BKN250 M08/M10 A2964 RMK CI7 SLP088

CYQF;2015-01-16 06:00;CYQF 160600Z 19010KT 15SM OVC250 M05/M09 A2961 RMK CI8 SLP075

CYQF;2015-01-16 07:00;CYQF 160700Z 18007KT 15SM OVC210 M05/M09 A2958 RMK CI8 SLP061

CYQF;2015-01-16 08:00;CYQF 160800Z VRB03KT 15SM OVC200 M05/M09 A2954 RMK CI8 SLP049

CYQF;2015-01-16 09:00;CYQF 160900Z VRB04KT 15SM SCT110 OVC210 M06/M09 A2951 RMK AC3CI5 SLP038

CYQF;2015-01-16 10:00;CYQF 161000Z VRB02KT 15SM FEW100 BKN150 OVC220 M05/M08 A2948 RMK AC2AC3CI3 SLP028

CYQF;2015-01-16 11:00;CYQF 161100Z 24008KT 15SM SCT130 BKN230 01/M05 A2946 RMK AC3CI4 SLP015

CYQF;2015-01-16 12:00;CYQF 161200Z 22008KT 15SM FEW120 SCT230 02/M05 A2943 RMK AC2CI2 SLP007

CYQF;2015-01-16 13:00;CYQF 161300Z 24004KT 15SM FEW120 BKN240 M02/M06 A2942 RMK AC2CI4 SLP009

CYQF;2015-01-16 14:00;CYQF 161400Z 20003KT 070V220 15SM FEW120 OVC240 M03/M07 A2939 RMK AC2CI6 SLP001

CYQF;2015-01-16 15:00;CYQF 161500Z VRB02KT 15SM BKN110 OVC240 M01/M06 A2938 RMK AC5CI3 SLP994

CYQF;2015-01-16 16:00;CYQF 161600Z 25006KT 15SM BKN085 OVC240 M03/M05 A2938 RMK AC5CI3 SLP997

CYQF;2015-01-16 16:48;CYQF 161648Z 26010KT 12SM -SHRA SCT030 OVC060 03/M05 A2940 RMK SC3SC5 SLP998

CYQF;2015-01-16 17:00;CYQF 161700Z 32009KT 12SM -SHRA SCT025 OVC055 04/M04 A2940 RMK SC3SC5 CU EMBD SLP996

CYQF;2015-01-16 17:05;CYQF 161705Z 30009KT 15SM FEW030 OVC075 04/M04 A2940 RMK SC2AC6 SLP998

CYQF;2015-01-16 17:18;CYQF 161718Z 33017G24KT 15SM -SHRA FEW020 OVC065 05/M01 A2940 RMK CU2SC6 SLP996 DENSITY ALT 3000FT

CYQF;2015-01-16 17:42;CYQF 161742Z 31016G23KT 15SM -SHRA FEW020 OVC070 06/M02 A2942 RMK CU2AC6 SLP000 DENSITY ALT 3100FT

CYQF;2015-01-16 18:00;CYQF 161800Z 31018G24KT 15SM FEW020 OVC050 06/M02 A2943 RMK CU2SC6 SLP001 DENSITY ALT 3100FT

CYQF;2015-01-16 18:48;CYQF 161848Z 32021G36KT 12SM -SHRA SCT020 OVC040 03/M01 A2948 RMK CU3SC5 PRESRR SLP020

CYQF;2015-01-16 19:00;CYQF 161900Z 33020G29KT 15SM -SHRA FEW020 OVC045 03/M00 A2948 RMK SF2SC6 SLP021

CYQF;2015-01-16 19:32;CYQF 161932Z 32015KT 15SM FEW018 BKN051 03/00 A2950 RMK SF2SC5 SLP030

CYQF;2015-01-16 20:00;CYQF 162000Z 31015KT 15SM FEW020 OVC071 03/M00 A2951 RMK SF2AC6 SLP033

CYQF;2015-01-16 21:00;CYQF 162100Z 29012G18KT 15SM FEW020 BKN080 03/M01 A2951 RMK SF1AC6 SLP033

CYQF;2015-01-16 22:00;CYQF 162200Z 28008KT 15SM SCT120 BKN240 03/M01 A2953 RMK AC3CI3 SLP040

CYQF;2015-01-16 23:00;CYQF 162300Z 31004KT 15SM FEW120 BKN240 03/M02 A2956 RMK AC2CI3 SLP042

CYQF;2015-01-17 00:00;CYQF 170000Z 29010KT 15SM FEW040 FEW240 03/M04 A2960 RMK CU1CI1 SLP054

CYQF;2015-01-17 01:00;CYQF 170100Z 30011G16KT 15SM SKC 03/M09 A2963 RMK SLP070

CYQF;2015-01-17 02:00;CYQF 170200Z 29010G16KT 15SM SKC 02/M09 A2966 RMK SLP084

CYQF;2015-01-17 03:00;CYQF 170300Z 26007KT 15SM SKC M00/M10 A2970 RMK SLP096

CYQF;2015-01-17 04:00;CYQF 170400Z 29008KT 15SM SKC M01/M11 A2972 RMK SLP106

CYQF;2015-01-17 05:00;CYQF 170500Z 28007KT 15SM SKC M02/M12 A2974 RMK SLP105

CYQF;2015-01-17 06:00;CYQF 170600Z 25005KT 15SM SKC M03/M12 A2975 RMK SLP111

CYQF;2015-01-17 07:00;CYQF 170700Z 23007KT 15SM SKC M05/M12 A2976 RMK SLP118

CYQF;2015-01-17 08:00;CYQF 170800Z 23007KT 180V240 15SM SKC M09/M14 A2977 RMK SLP127

CYQF;2015-01-17 09:00;CYQF 170900Z 22009KT 15SM SKC M06/M13 A2977 RMK SLP122

CYQF;2015-01-17 10:00;CYQF 171000Z 21008KT 15SM SKC M06/M13 A2979 RMK SLP130

CYQF;2015-01-17 11:00;CYQF 171100Z 18005KT 15SM FEW250 M10/M14 A2980 RMK CI2 SLP137

CYQF;2015-01-17 12:00;CYQF 171200Z 18007KT 15SM FEW250 M04/M12 A2981 RMK CI1 SLP134

CYQF;2015-01-17 13:00;CYQF 171300Z 34004KT 200V340 15SM OVC190 M06/M13 A2981 RMK CI8 SLP138

CYQF;2015-01-17 14:00;CYQF 171400Z 00000KT 15SM FEW190 OVC240 M07/M12 A2981 RMK CI2CI6 SLP139

CYQF;2015-01-17 15:00;CYQF 171500Z 18006KT 15SM BKN240 M08/M12 A2979 RMK CI5 SLP137

CYQF;2015-01-17 16:00;CYQF 171600Z 18005KT 15SM BKN240 M07/M13 A2978 RMK CI6 SLP131

CYQF;2015-01-17 17:00;CYQF 171700Z 07002KT 15SM BKN200 M08/M13 A2977 RMK CI7 SLP131

CYQF;2015-01-17 18:00;CYQF 171800Z 10003KT 090V160 15SM BKN160 M05/M11 A2976 RMK AC7 SLP126

CYQF;2015-01-17 19:00;CYQF 171900Z 04005KT 340V080 15SM FEW140 BKN200 M03/M11 A2975 RMK AC2CI5 SLP122

CYQF;2015-01-17 20:00;CYQF 172000Z 03003KT 15SM FEW140 BKN200 M02/M11 A2974 RMK AC2CI5 SLP123

CYQF;2015-01-17 21:00;CYQF 172100Z 00000KT 15SM BKN160 BKN200 M01/M09 A2973 RMK AC5CI1 SLP112

CYQF;2015-01-17 22:00;CYQF 172200Z 36004KT 300V020 15SM SCT160 BKN200 M03/M10 A2973 RMK AC3CC2 SLP116

CYQF;2015-01-17 23:00;CYQF 172300Z 02004KT 15SM FEW220 M03/M10 A2972 RMK CI1 SLP116

CYQF;2015-01-18 00:00;CYQF 180000Z 31004KT 15SM FEW100 FEW220 M01/M10 A2973 RMK AC1CI1 AC TR SLP113

CYQF;2015-01-18 01:00;CYQF 180100Z 25003KT 200V260 15SM FEW220 M06/M10 A2974 RMK CI1 SLP123

CYQF;2015-01-18 02:00;CYQF 180200Z 22005KT 15SM FEW220 M09/M14 A2974 RMK CI1 SLP126

CYQF;2015-01-18 03:00;CYQF 180300Z 20006KT 15SM SKC M12/M15 A2972 RMK SLP126

CYQF;2015-01-18 04:00;CYQF 180400Z 22005KT 15SM SKC M07/M12 A2972 RMK SLP117

CYQF;2015-01-18 05:00;CYQF 180500Z 11004KT 100V230 15SM SKC M11/M15 A2973 RMK SLP127

CYQF;2015-01-18 06:00;CYQF 180600Z 19005KT 15SM SKC M08/M13 A2972 RMK SLP118

CYQF;2015-01-18 07:00;CYQF 180700Z VRB02KT 15SM BKN250 M10/M15 A2971 RMK CI5 SLP114

CYQF;2015-01-18 08:00;CYQF 180800Z 20003KT 120V230 15SM BKN250 M12/M15 A2968 RMK CI7 SLP106

CYQF;2015-01-18 09:00;CYQF 180900Z 22008KT 15SM BKN240 M10/M14 A2967 RMK CI6 SLP097

CYQF;2015-01-18 10:00;CYQF 181000Z 20002KT 15SM OVC230 M13/M16 A2965 RMK CI8 SLP097

CYQF;2015-01-18 11:00;CYQF 181100Z 24002KT 15SM OVC200 M12/M15 A2964 RMK CI8 SLP091

CYQF;2015-01-18 12:00;CYQF 181200Z 29003KT 180V300 15SM OVC180 M10/M13 A2963 RMK CI8 SLP083

CYQF;2015-01-18 13:00;CYQF 181300Z 15004KT 15SM OVC180 M11/M14 A2959 RMK CI8 SLP078

CYQF;2015-01-18 14:00;CYQF 181400Z 02003KT 020V100 15SM OVC160 M11/M13 A2954 RMK AC8 PRESFR SLP063

CYQF;2015-01-18 15:00;CYQF 181500Z 00000KT 15SM OVC160 M10/M13 A2953 RMK AC8 SLP059

CYQF;2015-01-18 16:00;CYQF 181600Z 11003KT 15SM OVC140 M09/M11 A2950 RMK AC8 SLP044

CYQF;2015-01-18 17:00;CYQF 181700Z 17004KT 15SM BKN080 OVC140 M05/M09 A2949 RMK AC5AC3 SLP040

CYQF;2015-01-18 17:18;CYQF 181718Z 00000KT 15SM -FZRA BKN080 OVC140 M05/M08 A2948 RMK AC5AC3 SLP038

CYQF;2015-01-18 18:00;CYQF 181800Z 19006KT 15SM -FZRA FEW020 BKN080 BKN140 BKN220 M02/M06 A2946 RMK SC2ACC3AC1CI1 SLP026

CYQF;2015-01-18 18:16;CYQF 181816Z 16007KT 15SM FEW020 SCT080 BKN140 M03/M05 A2945 RMK SC1ACC2AC4 SLP022

CYQF;2015-01-18 19:00;CYQF 181900Z 23004KT 15SM FEW020 SCT090 BKN220 M02/M04 A2945 RMK SC2AC2CI3 SLP023

CYQF;2015-01-18 20:00;CYQF 182000Z 21003KT 15SM FEW090 BKN260 M00/M03 A2943 RMK AC2CI5 SLP014

CYQF;2015-01-18 21:00;CYQF 182100Z 20005KT 200V290 15SM SCT110 BKN260 M00/M03 A2942 RMK AC4CI3 SLP010

CYQF;2015-01-18 22:00;CYQF 182200Z 00000KT 15SM BKN110 BKN260 M01/M03 A2944 RMK AC5CI2 SLP021

CYQF;2015-01-18 23:00;CYQF 182300Z 35004KT 15SM BKN100 BKN260 M01/M04 A2947 RMK AC6CI1 SLP031

CYQF;2015-01-19 00:00;CYQF 190000Z 20005KT 15SM BKN110 OVC260 M02/M04 A2949 RMK AC6CI2 SLP038

CYQF;2015-01-19 01:00;CYQF 190100Z 22004KT 15SM BKN110 OVC260 M02/M03 A2952 RMK AC6CI2 SLP048

CYQF;2015-01-19 02:00;CYQF 190200Z 00000KT 15SM OVC100 M02/M03 A2954 RMK AC8 SLP055

CYQF;2015-01-19 03:00;CYQF 190300Z 24007KT 15SM OVC095 M01/M05 A2957 RMK AC8 SLP063

CYQF;2015-01-19 04:00;CYQF 190400Z 24005KT 15SM OVC060 M01/M05 A2960 RMK SC8 SLP072

CYQF;2015-01-19 05:00;CYQF 190500Z VRB02KT 15SM OVC075 M01/M04 A2961 RMK AC8 SLP072

CYQF;2015-01-19 06:00;CYQF 190600Z 21006KT 160V220 15SM OVC100 M01/M04 A2964 RMK AC8 SLP079

CYQF;2015-01-19 07:00;CYQF 190700Z 22004KT 15SM OVC083 M01/M04 A2967 RMK AC8 SLP090

CYQF;2015-01-19 08:00;CYQF 190800Z 22006KT 15SM OVC120 M01/M04 A2969 RMK AC8 SLP093

CYQF;2015-01-19 09:00;CYQF 190900Z 25006KT 15SM OVC120 M00/M04 A2971 RMK AC8 SLP098

CYQF;2015-01-19 10:00;CYQF 191000Z 24007KT 15SM SCT120 OVC250 M01/M04 A2973 RMK AC3CI5 SLP107

CYQF;2015-01-19 11:00;CYQF 191100Z 24008KT 15SM OVC130 M01/M05 A2975 RMK AC8 SLP114

CYQF;2015-01-19 12:00;CYQF 191200Z VRB02KT 15SM OVC140 M04/M05 A2977 RMK AC8 SLP128

CYQF;2015-01-19 13:00;CYQF 191300Z 23006KT 15SM FEW120 BKN250 M03/M06 A2980 RMK AC2CI5 SLP135

CYQF;2015-01-19 14:00;CYQF 191400Z 16003KT 15SM BKN120 BKN250 M04/M06 A2984 RMK AC5CI2 SLP150

CYQF;2015-01-19 15:00;CYQF 191500Z 20006KT 15SM BKN110 BKN250 M06/M08 A2985 RMK AC5CI2 SLP157

CYQF;2015-01-19 16:00;CYQF 191600Z 21004KT 15SM BKN110 BKN250 M06/M08 A2986 RMK AC5CI2 SLP160

CYQF;2015-01-19 17:00;CYQF 191700Z 20005KT 15SM BKN110 BKN250 M06/M08 A2989 RMK AC5CI2 SLP168

CYQF;2015-01-19 18:00;CYQF 191800Z 19003KT 15SM FEW110 BKN250 M04/M07 A2990 RMK AC2CI5 SLP172

CYQF;2015-01-19 19:00;CYQF 191900Z 24006KT 15SM FEW110 BKN250 M00/M07 A2991 RMK AC2CI5 SLP170

CYQF;2015-01-19 20:00;CYQF 192000Z 23005KT 15SM FEW110 BKN250 01/M07 A2991 RMK AC1CI6 SLP169

CYQF;2015-01-19 21:00;CYQF 192100Z 24004KT 15SM FEW070 BKN250 02/M07 A2991 RMK AC1CI4 SLP165

CYQF;2015-01-19 22:00;CYQF 192200Z 23005KT 15SM FEW070 SCT250 03/M08 A2992 RMK AC1CI3 SLP168

CYQF;2015-01-19 23:00;CYQF 192300Z 24007KT 15SM FEW070 SCT250 02/M08 A2993 RMK AC1CI2 SLP173

CYQF;2015-01-20 00:00;CYQF 200000Z 26005KT 15SM FEW070 FEW250 01/M09 A2995 RMK AC1CI1 SLP185

CYQF;2015-01-20 01:00;CYQF 200100Z 27006KT 15SM FEW070 FEW250 M01/M10 A2996 RMK AC1CI1 SLP192

CYQF;2015-01-20 02:00;CYQF 200200Z 28009KT 15SM FEW090 00/M11 A2998 RMK AC2 SLP198

CYQF;2015-01-20 03:00;CYQF 200300Z 29009KT 15SM SCT080 M01/M11 A3000 RMK AC3 SLP208

CYQF;2015-01-20 04:00;CYQF 200400Z 28008KT 15SM SCT080 M01/M11 A3001 RMK AC3 SLP213

CYQF;2015-01-20 05:00;CYQF 200500Z 28008KT 15SM SCT080 M02/M11 A3002 RMK AC4 SLP216

CYQF;2015-01-20 06:00;CYQF 200600Z 00000KT 15SM SCT080 M05/M12 A3004 RMK AC4 SLP223

CYQF;2015-01-20 07:00;CYQF 200700Z VRB02KT 15SM BKN080 M05/M11 A3006 RMK AC6 SLP225

CYQF;2015-01-20 08:00;CYQF 200800Z 29007KT 15SM BKN080 M02/M10 A3007 RMK AC5 SLP224

CYQF;2015-01-20 09:00;CYQF 200900Z 26006KT 15SM BKN080 M04/M11 A3009 RMK AC5 SLP231

CYQF;2015-01-20 10:00;CYQF 201000Z 27007KT 15SM SCT080 M03/M11 A3011 RMK AC3 SLP237

CYQF;2015-01-20 11:00;CYQF 201100Z 27007KT 15SM SCT080 M04/M11 A3012 RMK AC3 SLP245

CYQF;2015-01-20 12:00;CYQF 201200Z 28008KT 15SM SCT080 M05/M11 A3013 RMK AC3 SLP250

CYQF;2015-01-20 13:00;CYQF 201300Z 30006KT 15SM SCT080 M05/M11 A3014 RMK AC3 SLP256

CYQF;2015-01-20 14:00;CYQF 201400Z 28005KT 15SM SKC M05/M11 A3016 RMK SLP260

CYQF;2015-01-20 15:00;CYQF 201500Z 18004KT 15SM FEW080 M12/M15 A3018 RMK AC1 SLP276

CYQF;2015-01-20 16:00;CYQF 201600Z 20004KT 15SM FEW080 M09/M13 A3019 RMK AC2 SLP279

CYQF;2015-01-20 17:00;CYQF 201700Z 19005KT 15SM FEW080 SCT240 M09/M13 A3020 RMK AC2CI1 SLP283

CYQF;2015-01-20 18:00;CYQF 201800Z 22003KT 15SM SCT100 M06/M12 A3022 RMK AC3 SLP290

CYQF;2015-01-20 19:00;CYQF 201900Z 23006KT 15SM SCT100 M02/M11 A3022 RMK AC4 SLP283

CYQF;2015-01-20 20:00;CYQF 202000Z 23008KT 15SM FEW100 M03/M10 A3021 RMK AC2 SLP279

CYQF;2015-01-20 21:00;CYQF 202100Z 25004KT 15SM FEW100 M02/M10 A3021 RMK AC1 SLP277

CYQF;2015-01-20 22:00;CYQF 202200Z 26005KT 15SM FEW100 M02/M10 A3021 RMK AC1 SLP278

CYQF;2015-01-20 23:00;CYQF 202300Z 26005KT 15SM FEW100 M02/M11 A3021 RMK AC1 SLP281

CYQF;2015-01-21 00:00;CYQF 210000Z 25002KT 15SM FEW100 M04/M11 A3022 RMK AC1 SLP285

CYQF;2015-01-21 01:00;CYQF 210100Z 27003KT 15SM FEW100 M06/M12 A3022 RMK AC1 SLP288

CYQF;2015-01-21 02:00;CYQF 210200Z 22006KT 15SM SKC M10/M15 A3023 RMK SLP295

CYQF;2015-01-21 03:00;CYQF 210300Z 21006KT 15SM SKC M07/M13 A3023 RMK SLP301

CYQF;2015-01-21 04:00;CYQF 210400Z 20005KT 15SM SKC M12/M15 A3022 RMK SLP301

CYQF;2015-01-21 05:00;CYQF 210500Z 20006KT 15SM SKC M12/M15 A3022 RMK SLP298

CYQF;2015-01-21 06:00;CYQF 210600Z 20006KT 15SM SKC M10/M14 A3021 RMK SLP290

CYQF;2015-01-21 07:00;CYQF 210700Z 20005KT 15SM SKC M12/M16 A3020 RMK SLP285

CYQF;2015-01-21 08:00;CYQF 210800Z 20006KT 15SM SKC M13/M16 A3018 RMK SLP281

CYQF;2015-01-21 10:00;CYQF 211000Z 19005KT 12SM SKC M13/M16 A3015 RMK SLP270

CYQF;2015-01-21 11:00;CYQF 211100Z 19006KT 12SM SKC M14/M17 A3013 RMK SLP264

CYQF;2015-01-21 12:00;CYQF 211200Z 19006KT 12SM FEW240 M12/M17 A3011 RMK CI2 SLP256

CYQF;2015-01-21 13:00;CYQF 211300Z 18007KT 15SM SCT240 M12/M16 A3009 RMK CI4 SLP251

CYQF;2015-01-21 14:00;CYQF 211400Z 18008KT 15SM BKN240 M12/M16 A3006 RMK CI6 SLP244

CYQF;2015-01-21 15:00;CYQF 211500Z 18008KT 15SM BKN200 M10/M14 A3002 RMK CI7 SLP225

CYQF;2015-01-21 16:00;CYQF 211600Z 19005KT 15SM OVC170 M08/M13 A3000 RMK AC8 SLP222

CYQF;2015-01-21 17:00;CYQF 211700Z 18006KT 15SM BKN160 BKN200 M06/M11 A2997 RMK AC6CI1 SLP209

CYQF;2015-01-21 18:00;CYQF 211800Z 17009KT 15SM BKN140 M04/M09 A2994 RMK AC7 SLP193

CYQF;2015-01-21 19:00;CYQF 211900Z 20008KT 15SM BKN140 M02/M07 A2991 RMK AC7 SLP185

CYQF;2015-01-21 20:00;CYQF 212000Z 22004KT 15SM BKN120 M01/M06 A2989 RMK AC7 SLP177

CYQF;2015-01-21 21:00;CYQF 212100Z 21007KT 15SM BKN080 BKN120 01/M06 A2987 RMK AC5AS2 SLP170

CYQF;2015-01-21 21:12;CYQF 212112Z 23006KT 15SM -RA BKN060 01/M05 A2988 RMK SC7 SLP172

CYQF;2015-01-21 22:00;CYQF 212200Z 16005KT 15SM -RA BKN060 01/M03 A2986 RMK SC7 SLP166

CYQF;2015-01-21 22:19;CYQF 212219Z 14006KT 15SM BKN060 BKN120 01/M02 A2986 RMK SC6AC1 SLP163

CYQF;2015-01-21 23:00;CYQF 212300Z 19006KT 15SM BKN140 BKN250 01/M02 A2984 RMK AC6CI1 SLP159

CYQF;2015-01-22 00:00;CYQF 220000Z 19005KT 15SM BKN140 BKN250 M00/M03 A2983 RMK AC5CI2 SLP156

CYQF;2015-01-22 01:00;CYQF 220100Z 18008KT 15SM FEW080 BKN140 BKN250 01/M03 A2982 RMK AC1AC4CI1 SLP148

CYQF;2015-01-22 02:00;CYQF 220200Z 20006KT 15SM SCT140 00/M04 A2980 RMK AC4 SLP144

CYQF;2015-01-22 03:00;CYQF 220300Z 19006KT 15SM BKN130 M00/M05 A2979 RMK AC6 SLP139

CYQF;2015-01-22 04:00;CYQF 220400Z 20007KT 15SM BKN130 M01/M05 A2978 RMK AC6 SLP134

CYQF;2015-01-22 05:00;CYQF 220500Z 21005KT 15SM BKN130 01/M04 A2978 RMK AC7 SLP130

CYQF;2015-01-22 06:00;CYQF 220600Z 19009KT 15SM BKN130 M01/M05 A2977 RMK AC6 SLP127

CYQF;2015-01-22 07:00;CYQF 220700Z 20008KT 15SM BKN130 02/M03 A2976 RMK AC6 SLP118

CYQF;2015-01-22 08:00;CYQF 220800Z 19006KT 15SM SCT130 00/M04 A2976 RMK AC4 SLP116

CYQF;2015-01-22 09:00;CYQF 220900Z 20009KT 15SM BKN110 M01/M04 A2976 RMK AC5 SLP115

CYQF;2015-01-22 10:00;CYQF 221000Z 21008KT 15SM SCT110 BKN160 M01/M05 A2976 RMK AC3AC2 SLP117

CYQF;2015-01-22 11:00;CYQF 221100Z 22009KT 15SM BKN130 02/M03 A2977 RMK AC7 SLP116

CYQF;2015-01-22 12:00;CYQF 221200Z 23005KT 15SM BKN120 02/M03 A2977 RMK AC7 SLP117

CYQF;2015-01-22 13:00;CYQF 221300Z 22005KT 15SM OVC100 03/M02 A2977 RMK AC8 SLP116

CYQF;2015-01-22 14:00;CYQF 221400Z 22007KT 15SM OVC120 04/M02 A2978 RMK AC8 SLP120

CYQF;2015-01-22 15:00;CYQF 221500Z 21005KT 15SM OVC140 03/M02 A2978 RMK AC8 SLP122

CYQF;2015-01-22 16:00;CYQF 221600Z 23006KT 15SM BKN160 04/M02 A2980 RMK AC7 SLP125

CYQF;2015-01-22 17:00;CYQF 221700Z 22006KT 15SM FEW025 BKN160 BKN240 05/M03 A2983 RMK SC1AC4CI2 SLP133

CYQF;2015-01-22 18:00;CYQF 221800Z 18004KT 160V230 15SM FEW025 BKN160 BKN240 04/M04 A2986 RMK SC1AC4CI1 SLP147

CYQF;2015-01-22 19:00;CYQF 221900Z 00000KT 15SM BKN260 04/M03 A2986 RMK CI6 SLP147

CYQF;2015-01-22 20:00;CYQF 222000Z 20006KT 15SM FEW260 05/M03 A2987 RMK CI2 SLP150

CYQF;2015-01-22 21:00;CYQF 222100Z 23004KT 15SM FEW260 06/M03 A2987 RMK CI2 SLP148

CYQF;2015-01-22 22:00;CYQF 222200Z 23006KT 15SM FEW260 05/M02 A2988 RMK CI1 CI TR SLP152

CYQF;2015-01-22 23:00;CYQF 222300Z 00000KT 15SM FEW140 04/M02 A2989 RMK AC1 SLP155

CYQF;2015-01-23 00:00;CYQF 230000Z 18005KT 15SM FEW140 04/M03 A2991 RMK AC1 SLP162

CYQF;2015-01-23 01:00;CYQF 230100Z 20007KT 15SM FEW140 01/M04 A2993 RMK AC1 SLP170

CYQF;2015-01-23 02:00;CYQF 230200Z 21006KT 15SM FEW140 00/M04 A2995 RMK AC1 SLP176

CYQF;2015-01-23 03:00;CYQF 230300Z 20004KT 15SM SCT230 M02/M05 A2997 RMK CI4 SLP187

CYQF;2015-01-23 04:00;CYQF 230400Z 25008KT 15SM BKN230 02/M05 A2999 RMK CI6 SLP188

CYQF;2015-01-23 05:00;CYQF 230500Z 21006KT 15SM BKN240 M01/M06 A3001 RMK CI6 SLP199

CYQF;2015-01-23 06:00;CYQF 230600Z 19007KT 15SM SCT230 M03/M06 A3003 RMK CI4 SLP207

CYQF;2015-01-23 07:00;CYQF 230700Z 19008KT 15SM SCT230 M04/M08 A3000 RMK CI4 SLP201

CYQF;2015-01-23 08:00;CYQF 230800Z 19008KT 15SM BKN240 M04/M07 A3001 RMK CI5 SLP200

CYQF;2015-01-23 09:00;CYQF 230900Z 19008KT 15SM BKN240 M02/M07 A2999 RMK CI5 SLP192

CYQF;2015-01-23 10:00;CYQF 231000Z 21008KT 15SM BKN240 M02/M07 A3000 RMK CI6 SLP195

CYQF;2015-01-23 11:00;CYQF 231100Z 22008KT 15SM SCT240 M03/M08 A2999 RMK CS4 SLP194

CYQF;2015-01-23 12:00;CYQF 231200Z 19004KT 15SM FEW100 SCT240 M03/M08 A2999 RMK AC2CI2 SLP197

CYQF;2015-01-23 13:00;CYQF 231300Z 18005KT 15SM BKN110 M03/M08 A2999 RMK AC5 SLP200

CYQF;2015-01-23 14:00;CYQF 231400Z 21007KT 15SM SCT110 M01/M08 A3001 RMK AC3 SLP203

CYQF;2015-01-23 15:00;CYQF 231500Z 20004KT 15SM FEW100 M03/M08 A3001 RMK AC1 SLP208

CYQF;2015-01-23 16:00;CYQF 231600Z 19006KT 15SM FEW100 M06/M10 A2999 RMK AC1 SLP202

CYQF;2015-01-23 17:00;CYQF 231700Z 24008KT 15SM FEW100 SCT250 00/M07 A3002 RMK AC1CI3 SLP207

CYQF;2015-01-23 18:00;CYQF 231800Z 23007KT 15SM FEW100 00/M06 A3002 RMK AC2 SLP210

CYQF;2015-01-23 19:00;CYQF 231900Z 22007KT 15SM BKN150 OVC230 00/M05 A3001 RMK AS5CI3 SLP207

CYQF;2015-01-23 20:00;CYQF 232000Z 19007KT 15SM SCT100 OVC230 01/M04 A2996 RMK AC3CI5 PRESFR SLP191

CYQF;2015-01-23 21:00;CYQF 232100Z 20009KT 15SM BKN230 04/M02 A2993 RMK CI7 SLP172

CYQF;2015-01-23 22:00;CYQF 232200Z 18004KT 15SM BKN230 04/M02 A2989 RMK CI7 SLP160

CYQF;2015-01-23 23:00;CYQF 232300Z 19005KT 15SM BKN140 BKN230 04/M02 A2988 RMK AC5CI2 SLP159

CYQF;2015-01-24 00:00;CYQF 240000Z 19005KT 170V230 15SM 04/M02 A2986 RMK SLP148

CYQF;2015-01-24 00:33;CYQF 240033Z 24014G21KT 220V320 15SM -RA OVC076 09/M02 A2984 RMK AC8 SLP137

CYQF;2015-01-24 01:00;CYQF 240100Z 23007KT 15SM -RA BKN080 06/01 A2982 RMK AC7 PRESFR SLP134

CYQF;2015-01-24 01:37;CYQF 240137Z 20006KT 15SM BKN090 05/M00 A2979 RMK AC7 SLP126

CYQF;2015-01-24 02:00;CYQF 240200Z 22009KT 15SM OVC100 04/00 A2979 RMK AC8 SLP123

CYQF;2015-01-24 03:00;CYQF 240300Z 18009KT 15SM OVC090 02/M00 A2976 RMK AC8 PRESFR SLP115

CYQF;2015-01-24 04:00;CYQF 240400Z 28004KT 200V310 15SM OVC060 04/M00 A2975 RMK SC8 SLP113

CYQF;2015-01-24 05:00;CYQF 240500Z 19005KT 15SM BKN080 03/M01 A2972 RMK AC6 SLP099

CYQF;2015-01-24 06:00;CYQF 240600Z 23006KT 15SM OVC160 02/M01 A2970 RMK AC8 SLP094

CYQF;2015-01-24 07:00;CYQF 240700Z 22006KT 15SM SCT080 02/M01 A2973 RMK AC4 SLP102

CYQF;2015-01-24 08:00;CYQF 240800Z VRB02KT 15SM OVC090 02/M01 A2974 RMK AC8 SLP105

CYQF;2015-01-24 09:00;CYQF 240900Z 18005KT 15SM SCT080 BKN140 02/M01 A2973 RMK AC4AC2 SLP099

CYQF;2015-01-24 10:00;CYQF 241000Z 30007KT 15SM OVC080 03/M01 A2977 RMK AC8 SLP111

CYQF;2015-01-24 11:00;CYQF 241100Z 30009KT 15SM FEW075 BKN110 05/M01 A2977 RMK AC2AC5 PRESRR SLP112

CYQF;2015-01-24 12:00;CYQF 241200Z 30009G16KT 15SM BKN070 OVC120 05/00 A2982 RMK AC6AC2 VIRGA PRESFR SLP127

CYQF;2015-01-24 13:00;CYQF 241300Z 30013KT 15SM SCT100 06/M00 A2984 RMK AC4 PRESRR SLP131

CYQF;2015-01-24 14:00;CYQF 241400Z 29011KT 15SM FEW140 04/M01 A2987 RMK AC1 SLP146

CYQF;2015-01-24 15:00;CYQF 241500Z 29010KT 15SM FEW080 04/M02 A2990 RMK AC1 SLP160

CYQF;2015-01-24 16:00;CYQF 241600Z 29011G17KT 15SM SKC 04/M02 A2992 RMK SLP162

CYQF;2015-01-24 17:00;CYQF 241700Z 30007KT 15SM SKC 04/M03 A2995 RMK SLP174

CYQF;2015-01-24 18:00;CYQF 241800Z 29010KT 15SM SKC 05/M03 A2998 RMK SLP184

CYQF;2015-01-24 19:00;CYQF 241900Z 30007KT 15SM SKC 05/M04 A2999 RMK SLP187

CYQF;2015-01-24 20:00;CYQF 242000Z 29009KT 15SM FEW230 06/M05 A2998 RMK CI1 SLP186

CYQF;2015-01-24 21:00;CYQF 242100Z 29008KT 15SM BKN260 06/M05 A2997 RMK CC6 SLP181

CYQF;2015-01-24 22:00;CYQF 242200Z 19006KT 15SM BKN200 04/M03 A2998 RMK CC7 SLP184

CYQF;2015-01-24 23:00;CYQF 242300Z 20003KT 15SM BKN200 05/M05 A3000 RMK CC6 SLP187

CYQF;2015-01-25 00:00;CYQF 250000Z 00000KT 15SM FEW180 BKN250 02/M04 A3001 RMK AC2CI5 SLP196

CYQF;2015-01-25 01:00;CYQF 250100Z 17004KT 080V180 15SM BKN140 BKN200 01/M04 A2998 RMK AC5CI2 SLP187

CYQF;2015-01-25 02:00;CYQF 250200Z 18007KT 15SM OVC130 01/M05 A2996 RMK AC8 SLP182

CYQF;2015-01-25 03:00;CYQF 250300Z 18006KT 15SM OVC110 01/M04 A2995 RMK AC8 SLP177

CYQF;2015-01-25 04:00;CYQF 250400Z 16009KT 15SM OVC110 03/M04 A2992 RMK AC8 VIRGA SLP163

CYQF;2015-01-25 05:00;CYQF 250500Z 16013KT 15SM OVC081 04/M04 A2990 RMK AC8 VIRGA SLP158

CYQF;2015-01-25 06:00;CYQF 250600Z 15015KT 15SM OVC090 03/M04 A2987 RMK AC8 SLP147

CYQF;2015-01-25 07:00;CYQF 250700Z 17012G18KT 15SM SCT090 OVC140 03/M03 A2984 RMK AC4AC4 SLP135

CYQF;2015-01-25 08:00;CYQF 250800Z 18011KT 15SM SCT100 OVC180 03/M03 A2981 RMK AC3AC5 SLP124

CYQF;2015-01-25 09:00;CYQF 250900Z 16012KT 160V230 15SM OVC070 02/M02 A2981 RMK AC8 SLP124

CYQF;2015-01-25 10:00;CYQF 251000Z 14011KT 15SM OVC090 02/M02 A2976 RMK AC8 PRESFR SLP112

CYQF;2015-01-25 11:00;CYQF 251100Z 18009KT 15SM OVC150 01/M01 A2973 RMK AC8 SLP100

CYQF;2015-01-25 12:00;CYQF 251200Z 18009KT 15SM OVC150 01/M02 A2971 RMK AC8 SLP096

CYQF;2015-01-25 13:00;CYQF 251300Z 20007KT 15SM FEW150 BKN240 01/M02 A2969 RMK AC2CI4 SLP090

CYQF;2015-01-25 14:00;CYQF 251400Z 21006KT 15SM SCT240 02/M02 A2970 RMK CI4 SLP091

CYQF;2015-01-25 15:00;CYQF 251500Z 19006KT 15SM FEW020 SCT240 M00/M03 A2970 RMK SC1CI3 SLP096

CYQF;2015-01-25 16:00;CYQF 251600Z 21007KT 15SM FEW030 SCT240 00/M03 A2970 RMK SC1CI3 SLP092

CYQF;2015-01-25 17:00;CYQF 251700Z 23009KT 15SM FEW050 BKN250 05/M01 A2972 RMK SC2CI4 SLP093

CYQF;2015-01-25 18:00;CYQF 251800Z 18003KT 150V210 15SM FEW050 BKN250 06/M01 A2974 RMK SC1CI4 SLP098

CYQF;2015-01-25 19:00;CYQF 251900Z 01003KT 15SM SCT110 BKN250 05/M01 A2976 RMK AC4CI2 SLP109

CYQF;2015-01-25 20:00;CYQF 252000Z 17003KT 15SM SCT110 BKN250 06/M00 A2976 RMK AC3CI3 SLP105

CYQF;2015-01-25 21:00;CYQF 252100Z 00000KT 15SM FEW110 SCT250 07/01 A2978 RMK AC2CI1 SLP112

CYQF;2015-01-25 22:00;CYQF 252200Z 00000KT 15SM FEW110 SCT250 08/M00 A2979 RMK AC2CI2 SLP115

CYQF;2015-01-25 23:00;CYQF 252300Z 20003KT 130V210 15SM BKN110 07/00 A2982 RMK AC7 SLP127

CYQF;2015-01-26 00:00;CYQF 260000Z 26004KT 15SM BKN110 BKN250 07/M01 A2984 RMK AC5CI1 SLP136

CYQF;2015-01-26 01:00;CYQF 260100Z 25006KT 15SM FEW110 06/M01 A2985 RMK AC2 SLP140

CYQF;2015-01-26 02:00;CYQF 260200Z 22006KT 15SM SCT120 02/M01 A2987 RMK AC4 SLP149

CYQF;2015-01-26 03:00;CYQF 260300Z 21007KT 15SM OVC140 03/M01 A2988 RMK AC8 SLP156

CYQF;2015-01-26 04:00;CYQF 260400Z 18006KT 170V240 15SM OVC160 01/M01 A2987 RMK AC8 SLP153

CYQF;2015-01-26 05:00;CYQF 260500Z 19004KT 15SM FEW160 00/M02 A2988 RMK AC2 SLP153

CYQF;2015-01-26 06:00;CYQF 260600Z 17003KT 150V320 15SM SKC 01/M01 A2988 RMK SLP149

CYQF;2015-01-26 07:00;CYQF 260700Z 20004KT 15SM SKC M01/M03 A2987 RMK SLP150

CYQF;2015-01-26 08:00;CYQF 260800Z 17002KT 15SM SKC 01/M02 A2987 RMK SLP146

CYQF;2015-01-26 09:00;CYQF 260900Z VRB02KT 15SM SKC M02/M03 A2986 RMK SLP143

CYQF;2015-01-26 10:00;CYQF 261000Z 19004KT 15SM SKC M00/M03 A2984 RMK SLP135

CYQF;2015-01-26 11:00;CYQF 261100Z 20005KT 15SM SCT240 01/M02 A2982 RMK CI3 SLP129

CYQF;2015-01-26 12:00;CYQF 261200Z 21004KT 180V300 15SM BKN200 M00/M02 A2983 RMK CI6 SLP132

CYQF;2015-01-26 13:00;CYQF 261300Z 21005KT 15SM BKN220 M01/M03 A2982 RMK CI5 SLP132

CYQF;2015-01-26 14:00;CYQF 261400Z 20008KT 15SM BKN220 M02/M04 A2983 RMK CI5 SLP140

CYQF;2015-01-26 15:00;CYQF 261500Z VRB10KT 15SM BKN240 M00/M03 A2984 RMK CI7 SLP142

CYQF;2015-01-26 16:00;CYQF 261600Z 35004KT 15SM FEW150 BKN240 M01/M04 A2985 RMK AC2CI5 SLP146

CYQF;2015-01-26 17:00;CYQF 261700Z 05003KT 350V070 15SM BKN170 00/M03 A2985 RMK AC7 SLP148

CYQF;2015-01-26 18:00;CYQF 261800Z 01002KT 15SM FEW050 BKN170 00/M02 A2985 RMK SC1AC7 SC TR SLP147

CYQF;2015-01-26 19:00;CYQF 261900Z 00000KT 15SM FEW050 OVC160 01/M02 A2984 RMK SC1AC8 SC TR SLP144

CYQF;2015-01-26 20:00;CYQF 262000Z 35002KT 15SM OVC160 02/M01 A2981 RMK AC8 SLP132

CYQF;2015-01-26 21:00;CYQF 262100Z 01002KT 15SM BKN150 OVC250 02/M01 A2979 RMK AC6CI2 SLP125

CYQF;2015-01-26 22:00;CYQF 262200Z 19002KT 15SM BKN160 OVC250 02/M01 A2978 RMK AC6CI2 SLP121

CYQF;2015-01-26 23:00;CYQF 262300Z 04002KT 15SM OVC200 02/M01 A2977 RMK CI8 SLP115

CYQF;2015-01-27 00:00;CYQF 270000Z 04007KT 15SM BKN180 OVC250 01/M01 A2976 RMK AC5CI3 SLP115

CYQF;2015-01-27 01:00;CYQF 270100Z 01002KT 15SM BKN180 02/M01 A2975 RMK AC7 SLP113

CYQF;2015-01-27 02:00;CYQF 270200Z 04005KT 15SM OVC180 01/M01 A2975 RMK AC8 SLP113

CYQF;2015-01-27 03:00;CYQF 270300Z 03007KT 15SM OVC210 00/M02 A2973 RMK CI8 SLP107

CYQF;2015-01-27 04:00;CYQF 270400Z 01006KT 15SM BKN170 OVC240 M01/M02 A2973 RMK AC6CI2 SLP106

CYQF;2015-01-27 05:00;CYQF 270500Z 02002KT 15SM OVC250 00/M02 A2974 RMK CI8 SLP109

CYQF;2015-01-27 06:00;CYQF 270600Z 07002KT 15SM BKN250 M02/M03 A2974 RMK CI7 SLP111

CYQF;2015-01-27 07:00;CYQF 270700Z 25003KT 240V010 15SM OVC240 M03/M04 A2974 RMK CI8 SLP112

CYQF;2015-01-27 08:00;CYQF 270800Z 21003KT 190V300 15SM BKN230 M03/M03 A2974 RMK CI7 SLP109

CYQF;2015-01-27 09:00;CYQF 270900Z 22004KT 15SM BKN240 M04/M05 A2974 RMK CI7 SLP112

CYQF;2015-01-27 10:00;CYQF 271000Z 25003KT 200V270 15SM SCT240 M04/M04 A2975 RMK CI4 SLP114

CYQF;2015-01-27 11:00;CYQF 271100Z 19002KT 12SM BKN250 M06/M06 A2974 RMK CI7 SLP114

CYQF;2015-01-27 12:00;CYQF 271200Z 16002KT 10SM BKN250 M04/M05 A2974 RMK CI6 SLP114

CYQF;2015-01-27 13:00;CYQF 271300Z 23004KT 220V290 10SM BKN250 M05/M05 A2974 RMK CI7 SLP112

CYQF;2015-01-27 14:00;CYQF 271400Z VRB02KT 8SM OVC250 M06/M07 A2975 RMK CI8 SLP119

CYQF;2015-01-27 15:00;CYQF 271500Z 19004KT 5SM BR BKN250 M07/M07 A2975 RMK CI6 SLP120

CYQF;2015-01-27 16:00;CYQF 271600Z 26005KT 3SM BR BKN250 M05/M06 A2976 RMK CI6 SLP124

CYQF;2015-01-27 16:30;CYQF 271630Z 22004KT 2SM BR FEW001 OVC250 M06/M07 A2976 RMK ST1CI7 VIS S 1 SLP125

CYQF;2015-01-27 17:00;CYQF 271700Z 20002KT 2SM BR BKN250 M06/M07 A2976 RMK CI7 VIS S 1 SLP123

CYQF;2015-01-27 18:04;CYQF 271804Z 21005KT 3SM BR BKN250 M05/M06 A2976 RMK CI7 SLP126

CYQF;2015-01-27 19:00;CYQF 271900Z 18004KT 160V250 5SM BR BKN250 M04/M05 A2976 RMK CI6 SLP126

CYQF;2015-01-27 20:00;CYQF 272000Z 33005KT 8SM FEW100 BKN250 M02/M04 A2975 RMK AC1CI5 VIS S 4 SLP117

CYQF;2015-01-27 21:00;CYQF 272100Z 00000KT 8SM SCT150 SCT250 00/M03 A2975 RMK AC3CI1 SLP118

CYQF;2015-01-27 22:00;CYQF 272200Z 02003KT 330V080 8SM SCT150 BKN250 02/M01 A2975 RMK AC3CI3 SLP114

CYQF;2015-01-27 23:00;CYQF 272300Z 34004KT 7SM BKN110 BKN250 02/M02 A2976 RMK AC5CI2 SLP119

CYQF;2015-01-28 00:00;CYQF 280000Z 36004KT 7SM BKN110 BKN250 01/M01 A2976 RMK AC6CI1 SLP121

CYQF;2015-01-28 01:00;CYQF 280100Z 36006KT 7SM SCT100 BKN170 M00/M02 A2976 RMK AC3AC4 SLP121

CYQF;2015-01-28 02:00;CYQF 280200Z 36006KT 8SM BKN120 M01/M02 A2979 RMK AC7 SLP135

CYQF;2015-01-28 02:43;CYQF 280243Z 36004KT 6SM BR BKN100 M01/M02 A2981 RMK AC7 SLP142

CYQF;2015-01-28 03:00;CYQF 280300Z 07003KT 6SM BR BKN100 M02/M02 A2980 RMK AC7 SLP141

CYQF;2015-01-28 03:16;CYQF 280316Z 35004KT 340V040 3SM BR BKN100 M02/M02 A2982 RMK AC7 PRESRR SLP145

CYQF;2015-01-28 03:40;CYQF 280340Z 34007KT 340V040 2SM BR BKN003 OVC120 M02/M03 A2983 RMK SF6AC2 PRESRR SLP150

CYQF;2015-01-28 04:01;CYQF 280401Z 01010KT 330V030 3/4SM BR VV002 M02/M02 A2984 RMK FG8 SLP153

CYQF;2015-01-28 04:05;CYQF 280405Z 36008KT 1/2SM FZFG VV002 M02/M02 A2985 RMK FG8 SLP154

CYQF;2015-01-28 04:41;CYQF 280441Z 01008KT 3/4SM BR VV002 M02/M02 A2985 RMK FG8 SLP156

CYQF;2015-01-28 05:00;CYQF 280500Z 34007KT 1SM BR OVC002 M02/M02 A2986 RMK SF8 SLP160

CYQF;2015-01-28 05:19;CYQF 280519Z 32005KT 300V040 2SM BR OVC003 M02/M02 A2987 RMK SF8 SLP164

CYQF;2015-01-28 05:26;CYQF 280526Z 34007KT 300V010 1SM BR OVC004 M02/M02 A2987 RMK SF8 SLP165

CYQF;2015-01-28 05:37;CYQF 280537Z 34006KT 3SM BR FEW100 M02/M02 A2988 RMK AC2 SLP166

CYQF;2015-01-28 06:00;CYQF 280600Z 02004KT 310V040 3SM BR FEW004 SCT100 M02/M03 A2988 RMK SF2AC2 SLP167

CYQF;2015-01-28 07:00;CYQF 280700Z 29005KT 3SM BR BKN043 M02/M03 A2992 RMK SC7 SLP178

CYQF;2015-01-28 08:00;CYQF 280800Z 34007KT 5SM BR BKN030 M01/M02 A2995 RMK SC7 SLP185

CYQF;2015-01-28 08:08;CYQF 280808Z 34007KT 5SM -SN BKN030 M01/M02 A2995 RMK SC7 SLP186

CYQF;2015-01-28 09:00;CYQF 280900Z 18003KT 3SM -SN BR SCT005 OVC030 M02/M03 A2996 RMK SF4SC4 SLP190

CYQF;2015-01-28 10:00;CYQF 281000Z 25006KT 3SM -SN BR BKN005 OVC060 M02/M03 A2999 RMK SF7SC1 SLP195

CYQF;2015-01-28 10:24;CYQF 281024Z 24007KT 3SM BR BKN003 OVC080 M03/M03 A3000 RMK SF7AC1 SLP202

CYQF;2015-01-28 11:00;CYQF 281100Z 25006KT 5SM BR FEW005 BKN100 M03/M03 A3002 RMK SF2AC4 SLP208

CYQF;2015-01-28 12:00;CYQF 281200Z 23003KT 180V240 5SM BR SCT100 M04/M05 A3005 RMK AC3 SLP220

CYQF;2015-01-28 13:00;CYQF 281300Z 23004KT 5SM BR FEW090 M04/M04 A3008 RMK AC1 SLP232

CYQF;2015-01-28 14:00;CYQF 281400Z 26004KT 200V260 5SM BR FEW100 M05/M05 A3012 RMK AC1 SLP246

CYQF;2015-01-28 15:00;CYQF 281500Z 27005KT 6SM BR FEW100 M03/M04 A3015 RMK AC1 SLP257

CYQF;2015-01-28 16:00;CYQF 281600Z 29009KT 10SM FEW100 M02/M05 A3018 RMK AC1 SLP265

CYQF;2015-01-28 17:00;CYQF 281700Z 26005KT 12SM FEW100 M02/M05 A3021 RMK AC1 SLP276

CYQF;2015-01-28 18:00;CYQF 281800Z 18004KT 170V270 15SM FEW100 M03/M07 A3024 RMK AC1 SLP288

CYQF;2015-01-28 19:00;CYQF 281900Z 26004KT 15SM FEW100 00/M05 A3025 RMK AC1 AC TR SLP289

CYQF;2015-01-28 20:00;CYQF 282000Z 29005KT 15SM FEW100 02/M05 A3026 RMK AC1 AC TR SLP290

CYQF;2015-01-28 21:00;CYQF 282100Z 32005KT 15SM SKC 02/M04 A3026 RMK SLP291

CYQF;2015-01-28 22:00;CYQF 282200Z 32003KT 15SM FEW220 02/M05 A3026 RMK CI1 SLP291

CYQF;2015-01-28 23:00;CYQF 282300Z 36002KT 15SM SCT260 01/M05 A3027 RMK CI3 SLP297

CYQF;2015-01-29 00:00;CYQF 290000Z 00000KT 15SM BKN260 00/M05 A3029 RMK CI7 SLP304

CYQF;2015-01-29 01:00;CYQF 290100Z 12002KT 15SM BKN220 M03/M06 A3030 RMK CI7 SLP311

CYQF;2015-01-29 02:00;CYQF 290200Z 20005KT 15SM BKN200 M03/M06 A3031 RMK CI7 SLP317

CYQF;2015-01-29 03:00;CYQF 290300Z 17003KT 15SM FEW200 M03/M05 A3032 RMK CI2 SLP318

CYQF;2015-01-29 04:00;CYQF 290400Z VRB02KT 15SM SCT210 M06/M07 A3032 RMK CI4 SLP320

CYQF;2015-01-29 05:00;CYQF 290500Z 00000KT 15SM SCT210 M05/M06 A3032 RMK CI4 SLP318

CYQF;2015-01-29 06:00;CYQF 290600Z 16003KT 15SM BKN220 M05/M06 A3031 RMK CI6 SLP317

CYQF;2015-01-29 07:00;CYQF 290700Z 03003KT 15SM SCT240 M08/M09 A3031 RMK CI4 SLP317

CYQF;2015-01-29 08:00;CYQF 290800Z 35003KT 15SM SCT200 M06/M07 A3032 RMK CI4 SLP315

CYQF;2015-01-29 09:00;CYQF 290900Z 01003KT 15SM SCT200 M07/M08 A3030 RMK CI4 SLP311

CYQF;2015-01-29 10:00;CYQF 291000Z 00000KT 15SM BKN190 M07/M07 A3030 RMK CI5 SLP310

CYQF;2015-01-29 11:00;CYQF 291100Z 08003KT 15SM BKN220 M08/M09 A3028 RMK CI7 SLP306

CYQF;2015-01-29 12:00;CYQF 291200Z 12003KT 15SM BKN220 M07/M08 A3027 RMK CI7 SLP302

CYQF;2015-01-29 13:00;CYQF 291300Z 14006KT 15SM SCT240 M07/M08 A3026 RMK CI4 SLP303

CYQF;2015-01-29 14:00;CYQF 291400Z 17004KT 8SM SCT004 SCT100 M07/M08 A3025 RMK ST3AC1 SLP299

CYQF;2015-01-29 14:11;CYQF 291411Z 14006KT 5SM BR BKN002 BKN100 M08/M09 A3025 RMK ST5AC1 SLP298

CYQF;2015-01-29 14:44;CYQF 291444Z 15004KT 3SM BR OVC005 M08/M08 A3024 RMK ST8 SLP295

CYQF;2015-01-29 15:00;CYQF 291500Z 00000KT 2SM BR OVC003 M08/M09 A3024 RMK ST8 SLP295

CYQF;2015-01-29 15:30;CYQF 291530Z VRB02KT 3/4SM BR OVC003 M07/M08 A3023 RMK FG4ST4 SLP291

CYQF;2015-01-29 16:00;CYQF 291600Z 17003KT 100V240 3/4SM BR OVC003 M07/M08 A3023 RMK FG4ST4 SLP295

CYQF;2015-01-29 16:13;CYQF 291613Z 18005KT 1SM BR OVC003 M06/M06 A3023 RMK FG3ST5 SLP292

CYQF;2015-01-29 16:33;CYQF 291633Z 18009KT 3/4SM BR OVC002 M05/M06 A3022 RMK FG3ST5 VIS VRB 1/2-1 SLP290

CYQF;2015-01-29 17:00;CYQF 291700Z 17007KT 3/4SM BR OVC002 M05/M06 A3022 RMK FG3ST5 VIS VRB 1/2-1 SLP286

CYQF;2015-01-29 18:00;CYQF 291800Z 18004KT 3/4SM BR OVC003 M05/M05 A3021 RMK FG3ST5 VIS VRB 1/2-1 SLP283

CYQF;2015-01-29 19:00;CYQF 291900Z 18006KT 1 1/2SM BR OVC004 M04/M05 A3020 RMK FG2ST6 CIG RAG SLP282

CYQF;2015-01-29 19:11;CYQF 291911Z 18006KT 3SM BR BKN004 OVC100 M04/M05 A3019 RMK ST6AC2 VIS NW 21/2 SLP280

CYQF;2015-01-29 19:28;CYQF 291928Z 19007KT 3SM BR SCT004 BKN080 BKN250 M04/M05 A3019 RMK ST3AC2CI2 SLP278

CYQF;2015-01-29 20:00;CYQF 292000Z 18006KT 5SM BR SCT004 BKN220 M04/M04 A3017 RMK ST3CI4 SLP269

CYQF;2015-01-29 21:00;CYQF 292100Z 21004KT 190V260 6SM BR FEW005 FEW220 M03/M04 A3015 RMK ST1CI1 SLP265

CYQF;2015-01-29 22:00;CYQF 292200Z VRB02KT 8SM FEW220 M02/M04 A3015 RMK CI1 SLP263

CYQF;2015-01-29 23:00;CYQF 292300Z 21003KT 10SM FEW220 M02/M05 A3015 RMK CI1 SLP263

CYQF;2015-01-30 00:00;CYQF 300000Z 00000KT 15SM FEW220 M03/M05 A3015 RMK CI1 SLP265

CYQF;2015-01-30 01:00;CYQF 300100Z 00000KT 10SM SCT100 M05/M07 A3015 RMK AC3 SLP268

CYQF;2015-01-30 02:00;CYQF 300200Z 24003KT 10SM FEW200 M07/M09 A3016 RMK CI2 SLP273

CYQF;2015-01-30 03:00;CYQF 300300Z 20005KT 10SM SCT200 M09/M10 A3016 RMK CI4 SLP275

CYQF;2015-01-30 04:00;CYQF 300400Z 18002KT 7SM FEW200 M09/M10 A3017 RMK CI2 SLP278

CYQF;2015-01-30 05:00;CYQF 300500Z 00000KT 3SM BR SKC M10/M11 A3018 RMK SLP281

CYQF;2015-01-30 05:39;CYQF 300539Z 16002KT 1SM BR SKC M08/M09 A3018 RMK FG1 SLP277

CYQF;2015-01-30 06:00;CYQF 300600Z 18003KT 1SM BR SKC M09/M10 A3018 RMK FG1 SLP278

CYQF;2015-01-30 07:00;CYQF 300700Z 20004KT 1SM BR SKC M11/M12 A3018 RMK FG2 SLP280

CYQF;2015-01-30 07:48;CYQF 300748Z 00000KT 3SM BR SKC M11/M12 A3018 RMK SLP280

CYQF;2015-01-30 08:00;CYQF 300800Z 21002KT 10SM FEW220 M12/M13 A3018 RMK CI2 SLP280

CYQF;2015-01-30 09:00;CYQF 300900Z 00000KT 15SM FEW220 M12/M13 A3018 RMK CI2 SLP280

CYQF;2015-01-30 10:00;CYQF 301000Z 18004KT 15SM FEW200 M12/M13 A3019 RMK CI2 SLP282

CYQF;2015-01-30 11:00;CYQF 301100Z 20004KT 15SM FEW080 FEW240 M12/M13 A3019 RMK AC1CI1 SLP283

CYQF;2015-01-30 12:00;CYQF 301200Z VRB02KT 15SM FEW080 BKN200 M11/M13 A3021 RMK AC2CI4 SLP288

CYQF;2015-01-30 13:00;CYQF 301300Z 17003KT 15SM BKN080 M10/M12 A3021 RMK AC7 SLP289

CYQF;2015-01-30 14:00;CYQF 301400Z 19006KT 15SM BKN080 OVC210 M11/M12 A3021 RMK AC7CI1 SLP293

CYQF;2015-01-30 15:00;CYQF 301500Z 18005KT 170V280 15SM FEW080 BKN200 M12/M13 A3022 RMK AC2CI4 SLP300

CYQF;2015-01-30 16:00;CYQF 301600Z 21005KT 15SM FEW080 SCT180 M11/M13 A3023 RMK AC2AC1 SLP302

CYQF;2015-01-30 17:00;CYQF 301700Z 28005KT 220V290 15SM BKN090 M10/M12 A3023 RMK AC6 SLP302

CYQF;2015-01-30 18:00;CYQF 301800Z 24004KT 15SM SCT090 M07/M10 A3023 RMK AC4 SLP297

CYQF;2015-01-30 19:00;CYQF 301900Z 00000KT 15SM FEW080 SCT160 BKN220 M05/M10 A3022 RMK AC1AC3CI2 SLP294

CYQF;2015-01-30 20:00;CYQF 302000Z VRB02KT 15SM BKN090 M03/M08 A3020 RMK AC7 SLP285

CYQF;2015-01-30 21:00;CYQF 302100Z 05004KT 12SM BKN090 BKN140 M03/M07 A3015 RMK AC5AC2 SLP267

CYQF;2015-01-30 22:00;CYQF 302200Z 06012KT 12SM BKN092 OVC150 M01/M04 A3014 RMK AC6AC2 SLP261

CYQF;2015-01-30 22:45;CYQF 302245Z 06016KT 12SM FEW009 SCT050 OVC090 M02/M04 A3014 RMK SC2SC2AC4 VIS N 5 SLP262

CYQF;2015-01-30 23:00;CYQF 302300Z 06014KT 10SM SCT009 BKN050 OVC090 M02/M04 A3014 RMK SC4SC2AC2 VIS N 3 SLP264

CYQF;2015-01-30 23:15;CYQF 302315Z 05017KT 8SM BKN008 OVC050 M02/M04 A3014 RMK SC6SC2 VIS N 3 SLP266

CYQF;2015-01-31 00:00;CYQF 310000Z 06015KT 3SM -SN BR OVC006 M03/M05 A3016 RMK ST8 SLP273

CYQF;2015-01-31 00:18;CYQF 310018Z 06013KT 1 1/2SM -SN DRSN OVC008 M04/M05 A3016 RMK SN2ST6 SLP272

CYQF;2015-01-31 00:46;CYQF 310046Z 06013KT 3SM -SN DRSN OVC009 M04/M06 A3017 RMK ST8 SLP276

CYQF;2015-01-31 01:00;CYQF 310100Z 04011G17KT 5SM -SN DRSN OVC012 M04/M06 A3018 RMK ST8 SLP279

CYQF;2015-01-31 01:33;CYQF 310133Z 03013KT 1SM -SN DRSN OVC011 M05/M07 A3020 RMK SN3ST5 SLP288

CYQF;2015-01-31 02:00;CYQF 310200Z 03015KT 1SM VV014 M07/M08 A3021 RMK SN8 SLP293

CYQF;2015-01-31 03:00;CYQF 310300Z 03013KT 1 1/2SM -SN DRSN VV030 M08/M09 A3021 RMK SN8 SLP295

CYQF;2015-01-31 03:37;CYQF 310337Z 03014KT 3SM -SN DRSN OVC030 M08/M10 A3022 RMK SC8 SLP300

CYQF;2015-01-31 04:00;CYQF 310400Z 03014KT 1 1/2SM -SN DRSN OVC030 M09/M10 A3022 RMK SN3SC5 VIS VRB 1-2 SLP300

CYQF;2015-01-31 04:36;CYQF 310436Z 03012KT 1SM -SN DRSN VV012 M09/M11 A3024 RMK SN8 SLP306

CYQF;2015-01-31 05:00;CYQF 310500Z 03010KT 1SM -SN DRSN VV013 M09/M11 A3024 RMK SN8 /S04/ SLP306

CYQF;2015-01-31 06:00;CYQF 310600Z 04014KT 1SM -SN DRSN VV016 M11/M12 A3025 RMK SN8 /S06/ SLP309

CYQF;2015-01-31 07:00;CYQF 310700Z 03010KT 1SM -SN VV015 M11/M13 A3029 RMK SN8 SLP318

CYQF;2015-01-31 08:00;CYQF 310800Z 03013KT 1SM -SN VV018 M12/M14 A3029 RMK SN8 SLP319

CYQF;2015-01-31 09:00;CYQF 310900Z 03008KT 1SM -SN VV014 M12/M14 A3032 RMK SN8 /S02/ SLP329

CYQF;2015-01-31 10:00;CYQF 311000Z 02010KT 1SM -SN VV013 M13/M15 A3035 RMK SN8 SLP337

CYQF;2015-01-31 11:00;CYQF 311100Z 36010KT 1SM -SN VV014 M14/M16 A3037 RMK SN8 SLP348

CYQF;2015-01-31 12:00;CYQF 311200Z 01011KT 1SM -SN VV020 M14/M17 A3039 RMK SN8 /S03/ SLP357

CYQF;2015-01-31 13:00;CYQF 311300Z 36007KT 3SM -SN BKN060 M15/M17 A3041 RMK SN2SC5 SLP365

CYQF;2015-01-31 14:00;CYQF 311400Z 36006KT 12SM IC OVC100 M16/M18 A3041 RMK AC8 SLP368

CYQF;2015-01-31 15:00;CYQF 311500Z 36002KT 3SM -SN OVC080 M16/M18 A3042 RMK AC8 SLP371

CYQF;2015-01-31 15:35;CYQF 311535Z 02004KT 1 1/2SM -SN VV023 M16/M18 A3042 RMK SN8 SLP371

CYQF;2015-01-31 16:00;CYQF 311600Z 36004KT 1 1/2SM -SN VV026 M16/M18 A3042 RMK SN8 SLP375

CYQF;2015-01-31 16:10;CYQF 311610Z 01004KT 2 1/2SM -SN OVC060 M16/M18 A3043 RMK SC8 SLP376

CYQF;2015-01-31 17:00;CYQF 311700Z 09004KT 2 1/2SM -SN VV044 M16/M18 A3042 RMK SN8 SLP374

CYQF;2015-01-31 17:51;CYQF 311751Z VRB02KT 2SM -SN VV027 M16/M18 A3042 RMK SN8 VIS VRB 1-3 SLP375

CYQF;2015-01-31 18:00;CYQF 311800Z 00000KT 2SM -SN VV029 M15/M18 A3043 RMK SN8 VIS VRB 1-3 SLP380

CYQF;2015-01-31 18:08;CYQF 311808Z VRB02KT 3SM -SN BKN056 BKN250 M16/M18 A3043 RMK SN3SC2CI2 SLP379

CYQF;2015-01-31 18:31;CYQF 311831Z 00000KT 8SM IC FEW100 M16/M18 A3042 RMK AC2 VIS S 6 SLP377

CYQF;2015-01-31 19:00;CYQF 311900Z 00000KT 8SM IC SCT100 BKN250 M16/M18 A3042 RMK AC3CI3 SLP377

CYQF;2015-01-31 20:00;CYQF 312000Z VRB02KT 10SM IC FEW100 BKN250 M15/M18 A3041 RMK AC2CI3 SLP371

CYQF;2015-01-31 21:00;CYQF 312100Z 14004KT 15SM IC FEW100 FEW250 M15/M18 A3039 RMK AC1CI1 CI TR SLP367

CYQF;2015-01-31 22:00;CYQF 312200Z 14005KT 15SM FEW100 M15/M18 A3038 RMK AC2 SLP364

CYQF;2015-01-31 23:00;CYQF 312300Z 15008KT 15SM SCT100 M16/M19 A3036 RMK AC4 SLP361

CYQF;2015-02-01 00:00;CYQF 010000Z 20007KT 15SM BKN100 M16/M19 A3037 RMK AC5 SLP363

CYQF;2015-02-01 01:00;CYQF 010100Z 17005KT 15SM FEW100 M18/M20 A3037 RMK AC2 SLP366

CYQF;2015-02-01 02:00;CYQF 010200Z 16005KT 15SM FEW250 M22/M24 A3035 RMK CI2 SLP366

CYQF;2015-02-01 03:00;CYQF 010300Z 17003KT 15SM FEW100 M20/M22 A3034 RMK AC2 SLP360

CYQF;2015-02-01 04:00;CYQF 010400Z 17002KT 15SM SKC M21/M23 A3032 RMK SLP354

CYQF;2015-02-01 05:00;CYQF 010500Z VRB02KT 15SM SKC M20/M23 A3032 RMK SLP352

CYQF;2015-02-01 06:00;CYQF 010600Z 20004KT 15SM SKC M20/M23 A3030 RMK SLP345

CYQF;2015-02-01 07:00;CYQF 010700Z 21004KT 15SM SKC M22/M24 A3030 RMK SLP348

CYQF;2015-02-01 08:00;CYQF 010800Z 20002KT 15SM SKC M26/M29 A3027 RMK SLP342

CYQF;2015-02-01 09:00;CYQF 010900Z 19005KT 15SM SKC M23/M26 A3025 RMK SLP332

CYQF;2015-02-01 10:00;CYQF 011000Z 19004KT 15SM SKC M24/M27 A3023 RMK SLP325

CYQF;2015-02-01 11:00;CYQF 011100Z 19004KT 15SM SKC M25/M28 A3020 RMK SLP318

CYQF;2015-02-01 12:00;CYQF 011200Z 23004KT 15SM BKN200 M25/M28 A3017 RMK CI5 SLP306

CYQF;2015-02-01 13:00;CYQF 011300Z 21004KT 15SM BKN200 M26/M29 A3016 RMK CI5 SLP307

CYQF;2015-02-01 14:00;CYQF 011400Z 13003KT 15SM FEW002 FEW220 M27/M30 A3013 RMK SF1CI1 SLP301

CYQF;2015-02-01 15:00;CYQF 011500Z 22003KT 15SM FEW220 M25/M28 A3010 RMK CI2 SLP287

CYQF;2015-02-01 16:00;CYQF 011600Z 27004KT 12SM BKN190 M24/M27 A3007 RMK CI7 SLP277

CYQF;2015-02-01 16:36;CYQF 011636Z 21003KT 10SM SCT010 BKN190 M24/M26 A3007 RMK ST4CI3 -SCT LYR E1000FT AGL INVDG FM S SLP277

CYQF;2015-02-01 16:41;CYQF 011641Z 21004KT 6SM BR BKN004 OVC190 M24/M26 A3007 RMK ST7CI1 SLP276

CYQF;2015-02-01 17:00;CYQF 011700Z 27002KT 10SM BKN004 BKN190 M23/M26 A3007 RMK ST5CI2 SLP274

CYQF;2015-02-01 17:35;CYQF 011735Z 00000KT 8SM SCT004 BKN150 BKN250 M22/M25 A3006 RMK ST3AC2CI2 SLP268

CYQF;2015-02-01 18:00;CYQF 011800Z 00000KT 10SM SCT004 BKN150 BKN250 M22/M24 A3005 RMK ST3AC2CI2 SLP267

CYQF;2015-02-01 19:00;CYQF 011900Z 22002KT 10SM SCT004 OVC250 M20/M22 A3003 RMK ST3CI5 SLP259

CYQF;2015-02-01 20:00;CYQF 012000Z 00000KT 10SM SCT004 OVC150 M18/M21 A3000 RMK ST3AC5 SLP251

CYQF;2015-02-01 21:00;CYQF 012100Z 00000KT 8SM SCT004 BKN120 OVC250 M17/M19 A2997 RMK ST3AC3CI2 SLP237

CYQF;2015-02-01 22:00;CYQF 012200Z 20003KT 10SM SCT004 BKN100 OVC250 M17/M19 A2995 RMK ST3AC2CI3 SLP231

CYQF;2015-02-01 23:00;CYQF 012300Z 20003KT 10SM FEW004 SCT100 BKN250 M18/M20 A2995 RMK ST2AC2CI2 SLP232

CYQF;2015-02-02 00:00;CYQF 020000Z 34003KT 260V350 10SM BKN110 OVC200 M17/M19 A2996 RMK AC6CI2 SLP234

CYQF;2015-02-02 01:00;CYQF 020100Z 01011KT 12SM OVC080 M14/M16 A2996 RMK AC8 SLP235

CYQF;2015-02-02 02:00;CYQF 020200Z 02008KT 12SM OVC080 M14/M16 A2996 RMK AC8 SLP236

CYQF;2015-02-02 03:00;CYQF 020300Z 01005KT 12SM SCT010 BKN045 OVC080 M15/M17 A2996 RMK ST3SC3AC2 SLP232

CYQF;2015-02-02 04:00;CYQF 020400Z 34005KT 10SM -SN OVC060 M15/M16 A2996 RMK SC8 SLP233

CYQF;2015-02-02 04:30;CYQF 020430Z 34006KT 2 1/2SM -SN OVC030 M14/M16 A2997 RMK SC8 SLP235

CYQF;2015-02-02 04:40;CYQF 020440Z 34006KT 1 1/2SM -SN VV015 M14/M16 A2998 RMK SN8 SLP238

CYQF;2015-02-02 05:00;CYQF 020500Z 36006KT 2 1/2SM -SN OVC060 M14/M16 A2998 RMK SN6SC2 SLP235

CYQF;2015-02-02 05:14;CYQF 020514Z 36006KT 1SM -SN VV015 M14/M16 A2998 RMK SN8 SLP238

CYQF;2015-02-02 06:00;CYQF 020600Z 36008KT 1 1/2SM -SN VV020 M14/M16 A3000 RMK SN8 SLP240

CYQF;2015-02-02 07:00;CYQF 020700Z 01005KT 1SM -SN VV021 M14/M16 A3001 RMK SN8 SLP244

CYQF;2015-02-02 08:00;CYQF 020800Z 01006KT 1SM -SN VV021 M15/M16 A3003 RMK SN8 SLP247

CYQF;2015-02-02 09:00;CYQF 020900Z 35004KT 1SM -SN VV024 M15/M17 A3003 RMK SN8 SLP248

CYQF;2015-02-02 10:00;CYQF 021000Z 36004KT 1SM -SN VV035 M15/M17 A3005 RMK SN8 /S01/ SLP253

CYQF;2015-02-02 10:14;CYQF 021014Z 36004KT 2SM -SN OVC044 M15/M17 A3005 RMK SN4SC4 SLP254

CYQF;2015-02-02 11:00;CYQF 021100Z 06004KT 2SM -SN OVC040 M15/M17 A3003 RMK SN3SC5 SLP249

CYQF;2015-02-02 11:27;CYQF 021127Z 05003KT 3SM -SN OVC058 M15/M17 A3004 RMK SC8 SLP250

CYQF;2015-02-02 12:00;CYQF 021200Z 11006KT 3SM -SN OVC075 M15/M17 A3002 RMK AC8 /S02/ PRESFR SLP244

CYQF;2015-02-02 13:00;CYQF 021300Z 09005KT 10SM -SN OVC078 M15/M18 A3000 RMK AC8 PRESFR SLP234

CYQF;2015-02-02 14:00;CYQF 021400Z 12005KT 10SM -SN OVC080 M15/M18 A2998 RMK AC8 SLP228

CYQF;2015-02-02 15:00;CYQF 021500Z 13007KT 10SM -SN OVC080 M16/M18 A2998 RMK AC8 PRESFR SLP228

CYQF;2015-02-02 16:00;CYQF 021600Z 15006KT 10SM -SN BKN033 OVC085 M16/M18 A2998 RMK SC5AC3 SLP228

CYQF;2015-02-02 17:00;CYQF 021700Z 14006KT 6SM -SN OVC027 M16/M18 A2999 RMK SC8 SLP231

CYQF;2015-02-02 18:00;CYQF 021800Z 14007KT 4SM -SN OVC029 M16/M19 A2996 RMK SC8 SLP221

CYQF;2015-02-02 19:00;CYQF 021900Z 11005KT 3SM -SN OVC028 M15/M18 A2994 RMK SC8 SLP211

CYQF;2015-02-02 20:00;CYQF 022000Z 13003KT 3SM -SN OVC026 M15/M18 A2992 RMK SC8 SLP204

CYQF;2015-02-02 21:00;CYQF 022100Z 06004KT 5SM -SN OVC025 M15/M18 A2990 RMK SC8 SLP199

CYQF;2015-02-02 22:00;CYQF 022200Z 01003KT 3SM -SN OVC025 M14/M17 A2989 RMK SC8 SLP197

CYQF;2015-02-02 23:00;CYQF 022300Z 36007KT 3SM -SN OVC025 M15/M17 A2990 RMK SC8 SLP198

CYQF;2015-02-03 00:00;CYQF 030000Z 01007KT 5SM -SN OVC028 M15/M18 A2990 RMK SC8 SLP201

CYQF;2015-02-03 01:00;CYQF 030100Z 36004KT 6SM -SN OVC030 M15/M18 A2990 RMK SC8 SLP200

CYQF;2015-02-03 02:00;CYQF 030200Z 35004KT 3SM -SN OVC030 M16/M18 A2991 RMK SN4SC4 SLP205

CYQF;2015-02-03 03:00;CYQF 030300Z 33002KT 2SM -SN VV025 M16/M18 A2992 RMK SN8 SLP207

CYQF;2015-02-03 04:00;CYQF 030400Z 33004KT 2SM -SN VV028 M16/M18 A2992 RMK SN8 SLP209

CYQF;2015-02-03 04:34;CYQF 030434Z 34002KT 1 1/2SM -SN VV017 M16/M18 A2992 RMK SN8 SLP209

CYQF;2015-02-03 05:00;CYQF 030500Z 30002KT 2SM -SN VV030 M16/M18 A2993 RMK SN8 /S01/ SLP210

CYQF;2015-02-03 06:00;CYQF 030600Z 30003KT 2SM -SN VV030 M16/M18 A2994 RMK SN8 SLP215

CYQF;2015-02-03 07:00;CYQF 030700Z 31003KT 1 1/2SM -SN VV030 M16/M18 A2995 RMK SN8 SLP217

CYQF;2015-02-03 08:00;CYQF 030800Z 32003KT 2SM -SN VV048 M16/M18 A2996 RMK SN8 SLP220

CYQF;2015-02-03 09:00;CYQF 030900Z 30002KT 2 1/2SM -SN OVC030 M16/M18 A2996 RMK SN2SC6 SLP222

CYQF;2015-02-03 09:46;CYQF 030946Z 30003KT 3SM -SN OVC037 M16/M18 A2997 RMK SC8 SLP225

CYQF;2015-02-03 10:00;CYQF 031000Z 31004KT 4SM -SN OVC045 M16/M18 A2998 RMK SC8 SLP228

CYQF;2015-02-03 10:47;CYQF 031047Z 33005KT 1SM -SN VV020 M16/M18 A2998 RMK SN8 SLP229

CYQF;2015-02-03 11:00;CYQF 031100Z 33004KT 1SM -SN VV020 M16/M18 A2998 RMK SN8 SLP228

CYQF;2015-02-03 11:34;CYQF 031134Z 33004KT 1 1/2SM -SN VV020 M16/M18 A2999 RMK SN8 SLP232

CYQF;2015-02-03 12:00;CYQF 031200Z 34004KT 2SM -SN VV020 M16/M18 A3000 RMK SN8 /S02/ SLP236

CYQF;2015-02-03 12:09;CYQF 031209Z 33004KT 4SM -SN OVC065 M16/M18 A3000 RMK SC8 SLP235

CYQF;2015-02-03 12:54;CYQF 031254Z 33004KT 2SM -SN OVC022 M16/M18 A3001 RMK SN4SC4 SLP240

CYQF;2015-02-03 13:00;CYQF 031300Z 33004KT 1SM -SN VV016 M16/M18 A3001 RMK SN8 SLP240

CYQF;2015-02-03 13:42;CYQF 031342Z 32003KT 3SM -SN OVC070 M16/M18 A3003 RMK SN2AC6 SLP245

CYQF;2015-02-03 14:00;CYQF 031400Z 33004KT 4SM -SN OVC054 M16/M18 A3004 RMK SC8 SLP249

CYQF;2015-02-03 15:00;CYQF 031500Z 33003KT 3SM -SN BKN060 OVC080 M16/M18 A3006 RMK SN2SC5AC1 VIS VRB 2-4 /S01/ SLP255

CYQF;2015-02-03 16:00;CYQF 031600Z 26003KT 8SM -SN SCT050 BKN080 M17/M18 A3008 RMK SC3AC3 SLP264

CYQF;2015-02-03 16:47;CYQF 031647Z 29003KT 12SM FEW050 BKN080 M16/M19 A3008 RMK SC2AC5 SLP266

CYQF;2015-02-03 17:00;CYQF 031700Z 28003KT 12SM FEW050 BKN080 M17/M19 A3009 RMK SC2AC4 SLP267

CYQF;2015-02-03 18:00;CYQF 031800Z 25004KT 15SM FEW080 SCT250 M18/M21 A3010 RMK AC2CI1 SLP275

CYQF;2015-02-03 19:00;CYQF 031900Z 27006KT 15SM FEW080 M15/M19 A3011 RMK AC2 SLP275

CYQF;2015-02-03 20:00;CYQF 032000Z 26008KT 15SM FEW080 M15/M18 A3012 RMK AC1 SLP275

CYQF;2015-02-03 21:00;CYQF 032100Z 26007KT 15SM SKC M14/M18 A3012 RMK SLP277

CYQF;2015-02-03 22:00;CYQF 032200Z 28008KT 15SM SKC M14/M19 A3012 RMK SLP277

CYQF;2015-02-03 23:00;CYQF 032300Z 28005KT 15SM SKC M14/M19 A3014 RMK SLP281

CYQF;2015-02-04 00:00;CYQF 040000Z 26005KT 15SM SKC M14/M18 A3015 RMK SLP288

CYQF;2015-02-04 01:00;CYQF 040100Z 34002KT 15SM FEW220 M22/M26 A3017 RMK CI1 SLP303

CYQF;2015-02-04 02:00;CYQF 040200Z 20003KT 15SM BCFG SKC M21/M24 A3018 RMK SLP306

CYQF;2015-02-04 03:00;CYQF 040300Z 19006KT 15SM SKC M23/M26 A3019 RMK SLP311

CYQF;2015-02-04 04:00;CYQF 040400Z 19005KT 15SM SKC M29/M32 A3019 RMK SLP318

CYQF;2015-02-04 05:00;CYQF 040500Z 19006KT 15SM SKC M26/M29 A3018 RMK SLP312

CYQF;2015-02-04 06:00;CYQF 040600Z 19006KT 15SM SKC M25/M28 A3016 RMK SLP306

CYQF;2015-02-04 07:00;CYQF 040700Z 19007KT 15SM SKC M24/M26 A3014 RMK SLP292

CYQF;2015-02-04 08:00;CYQF 040800Z 18006KT 15SM SKC M27/M30 A3012 RMK SLP289

CYQF;2015-02-04 09:00;CYQF 040900Z 19008KT 15SM SKC M22/M24 A3007 RMK SLP266

CYQF;2015-02-04 10:00;CYQF 041000Z 19007KT 15SM SKC M19/M21 A3003 RMK SLP248

CYQF;2015-02-04 11:00;CYQF 041100Z 18009KT 15SM SKC M19/M22 A3000 RMK SLP238

CYQF;2015-02-04 12:00;CYQF 041200Z 18009KT 15SM SKC M18/M21 A2996 RMK FROIN SLP223

CYQF;2015-02-04 13:00;CYQF 041300Z 17006KT 15SM SKC M18/M20 A2994 RMK SLP226

CYQF;2015-02-04 14:00;CYQF 041400Z 17009KT 15SM SKC M19/M22 A2992 RMK SLP220

CYQF;2015-02-04 15:00;CYQF 041500Z 19008KT 15SM SKC M19/M23 A2990 RMK SLP216

CYQF;2015-02-04 16:00;CYQF 041600Z 19006KT 15SM FEW100 M21/M24 A2989 RMK AC1 SLP218

CYQF;2015-02-04 17:00;CYQF 041700Z 18005KT 15SM FEW090 M19/M22 A2987 RMK AC2 SLP208

CYQF;2015-02-04 18:00;CYQF 041800Z 16003KT 15SM SCT100 M16/M20 A2986 RMK AC3 SLP200

CYQF;2015-02-04 19:00;CYQF 041900Z 18002KT 15SM BKN100 M13/M17 A2985 RMK AC5 SLP189

CYQF;2015-02-04 20:00;CYQF 042000Z 20005KT 15SM FEW030 BKN090 M10/M15 A2983 RMK CU1AC7 CU TR SLP183

CYQF;2015-02-04 21:00;CYQF 042100Z 20005KT 15SM FEW030 BKN100 M08/M14 A2981 RMK CU1AC6 CU TR SLP169

CYQF;2015-02-04 22:00;CYQF 042200Z 20006KT 15SM FEW110 FEW250 M07/M13 A2979 RMK AC1CI1 SLP156

CYQF;2015-02-04 23:00;CYQF 042300Z 22002KT 15SM FEW110 FEW250 M06/M12 A2978 RMK AC1CI1 SLP153

CYQF;2015-02-05 00:00;CYQF 050000Z 36004KT 15SM FEW110 FEW250 M06/M12 A2978 RMK AC1CI1 SLP152

CYQF;2015-02-05 01:00;CYQF 050100Z 00000KT 15SM SCT250 M06/M11 A2979 RMK CI3 SLP153

CYQF;2015-02-05 02:00;CYQF 050200Z VRB02KT 15SM FEW250 M08/M12 A2978 RMK CI2 SLP155

CYQF;2015-02-05 03:00;CYQF 050300Z 24003KT 15SM FEW250 M11/M14 A2978 RMK CI2 SLP157

CYQF;2015-02-05 04:00;CYQF 050400Z 20004KT 15SM BKN220 M12/M14 A2978 RMK CI7 SLP163

CYQF;2015-02-05 05:00;CYQF 050500Z 03004KT 280V040 15SM FEW220 M16/M18 A2979 RMK CI1 SLP166

CYQF;2015-02-05 06:00;CYQF 050600Z 36007KT 15SM FEW220 M14/M16 A2980 RMK CI2 SLP165

CYQF;2015-02-05 07:00;CYQF 050700Z 03005KT 15SM BKN220 M13/M14 A2981 RMK CI6 SLP164

CYQF;2015-02-05 08:00;CYQF 050800Z 35004KT 10SM SCT220 M13/M14 A2983 RMK CI3 SLP166

CYQF;2015-02-05 09:00;CYQF 050900Z 00000KT 12SM SCT220 M16/M17 A2983 RMK CI3 SLP166

CYQF;2015-02-05 10:00;CYQF 051000Z 03002KT 5SM BR SCT220 M17/M19 A2984 RMK CI3 SLP171

CYQF;2015-02-05 10:20;CYQF 051020Z 01006KT 1/4SM FZFG VV002 M13/M15 A2983 RMK FG8 SLP165

CYQF;2015-02-05 10:36;CYQF 051036Z 01007KT 1/8SM FZFG VV001 M12/M13 A2983 RMK FG8 SLP162

CYQF;2015-02-05 11:00;CYQF 051100Z 04003KT 020V090 1/8SM FZFG VV002 M12/M14 A2983 RMK FG8 SLP161

CYQF;2015-02-05 11:42;CYQF 051142Z 00000KT 1/4SM FZFG VV003 M12/M13 A2984 RMK FG8 SLP163

CYQF;2015-02-05 12:00;CYQF 051200Z 00000KT 1/8SM FZFG VV002 M11/M13 A2984 RMK FG8 SLP164

CYQF;2015-02-05 12:50;CYQF 051250Z VRB02KT 1/4SM FZFG OVC032 M11/M13 A2984 RMK FG7SC1 SLP165

CYQF;2015-02-05 13:00;CYQF 051300Z 02003KT 330V030 3/8SM FZFG OVC031 M11/M12 A2985 RMK FG7SC1 SLP165

CYQF;2015-02-05 13:06;CYQF 051306Z 00000KT 1/2SM FZFG OVC031 M11/M13 A2985 RMK FG7SC1 SLP167

CYQF;2015-02-05 13:20;CYQF 051320Z 05006KT 040V120 1 1/2SM BR OVC031 M12/M14 A2984 RMK FG3SC5 SLP164

CYQF;2015-02-05 13:39;CYQF 051339Z 06007KT 5SM BR OVC031 M11/M12 A2983 RMK SC8 SLP160

CYQF;2015-02-05 14:00;CYQF 051400Z 08007KT 6SM BR OVC033 M09/M11 A2984 RMK SC8 SLP163

CYQF;2015-02-05 15:00;CYQF 051500Z 08011KT 12SM OVC032 M10/M12 A2983 RMK SC8 SLP164

CYQF;2015-02-05 16:00;CYQF 051600Z 08009G15KT 3SM BR OVC030 M10/M13 A2981 RMK SC8 SLP160

CYQF;2015-02-05 16:07;CYQF 051607Z 09009KT 2 1/2SM -SN OVC030 M10/M13 A2981 RMK SN3SC5 SLP160

CYQF;2015-02-05 16:47;CYQF 051647Z 11004KT 1SM -SN VV025 M10/M12 A2981 RMK SN8 SLP159

CYQF;2015-02-05 17:00;CYQF 051700Z 11005KT 1SM -SN BR VV016 M10/M12 A2980 RMK SN8 SLP160

CYQF;2015-02-05 18:00;CYQF 051800Z 08008KT 1SM -SN VV015 M10/M12 A2977 RMK SN8 /S01/ SLP147

CYQF;2015-02-05 18:15;CYQF 051815Z 09007KT 3/4SM -SN BR VV011 M10/M12 A2976 RMK SN8 SLP145

CYQF;2015-02-05 18:49;CYQF 051849Z 10011KT 3SM -SN BR OVC050 M10/M12 A2973 RMK SN2SC6 PRESFR SLP135

CYQF;2015-02-05 19:00;CYQF 051900Z 10011KT 5SM -SN BR FEW030 OVC050 M10/M13 A2972 RMK SC2SC6 SLP130

CYQF;2015-02-05 19:14;CYQF 051914Z 10009G15KT 10SM SCT030 OVC050 M11/M13 A2971 RMK SC4SC4 SLP127

CYQF;2015-02-05 20:00;CYQF 052000Z 12011KT 8SM FEW016 OVC025 M11/M14 A2969 RMK SC2SC6 PRESFR SLP118

CYQF;2015-02-05 21:00;CYQF 052100Z 12010G16KT 5SM -SN BR SCT015 OVC025 M11/M13 A2964 RMK SN2SF2SC4 SLP106

CYQF;2015-02-05 22:00;CYQF 052200Z 11010G15KT 2SM -SN OVC015 M11/M13 A2961 RMK SN6SC2 SLP096

CYQF;2015-02-05 22:23;CYQF 052223Z 10009KT 1SM -SN BR VV015 M11/M13 A2961 RMK SN8 SLP095

CYQF;2015-02-05 23:00;CYQF 052300Z 09012KT 1SM -SN VV016 M11/M13 A2960 RMK SN8 SLP088

CYQF;2015-02-06 00:00;CYQF 060000Z 06010G15KT 1SM -SN OVC018 M12/M14 A2964 RMK SC8 /S01/ SLP100

CYQF;2015-02-06 01:00;CYQF 060100Z 06015KT 1SM -SN OVC018 M14/M16 A2965 RMK SC8 SLP106

CYQF;2015-02-06 01:48;CYQF 060148Z 05015G20KT 1SM -FZDZ -SN DRSN OVC015 M14/M17 A2968 RMK ST8 PRESRR SLP119

CYQF;2015-02-06 02:00;CYQF 060200Z 05013KT 1SM -FZDZ -SN DRSN OVC015 M15/M17 A2969 RMK ST8 SLP120

CYQF;2015-02-06 02:13;CYQF 060213Z 06012G18KT 2SM -FZDZ -SN DRSN OVC015 M15/M17 A2969 RMK ST8 SLP120

CYQF;2015-02-06 03:00;CYQF 060300Z 06014G20KT 1SM -FZDZ -SN DRSN OVC015 M16/M18 A2971 RMK ST8 SLP128

CYQF;2015-02-06 03:28;CYQF 060328Z 06012KT 2SM -FZDZ -SN DRSN OVC013 M16/M19 A2971 RMK ST8 SLP131

CYQF;2015-02-06 03:40;CYQF 060340Z 06013KT 2SM -SN DRSN OVC013 M16/M19 A2972 RMK ST8 SLP133

CYQF;2015-02-06 04:00;CYQF 060400Z 07012G19KT 2SM -SN DRSN OVC013 M16/M19 A2972 RMK ST8 SLP132

CYQF;2015-02-06 05:00;CYQF 060500Z 08011KT 5SM IC OVC010 M17/M19 A2970 RMK ST8 SLP126

CYQF;2015-02-06 06:00;CYQF 060600Z 08009KT 5SM IC OVC010 M17/M19 A2970 RMK ST8 SLP125

CYQF;2015-02-06 07:00;CYQF 060700Z 08006KT 4SM IC OVC011 M17/M19 A2969 RMK SC8 SLP123

CYQF;2015-02-06 08:00;CYQF 060800Z 09008KT 4SM -SN OVC010 M17/M18 A2967 RMK SC8 SLP118

CYQF;2015-02-06 09:00;CYQF 060900Z 11006KT 4SM -SN OVC009 M16/M18 A2965 RMK SC8 SLP108

CYQF;2015-02-06 10:00;CYQF 061000Z 11006KT 6SM -SN OVC011 M16/M18 A2963 RMK SC8 SLP103

CYQF;2015-02-06 11:00;CYQF 061100Z 11007KT 6SM IC OVC011 M16/M18 A2959 RMK SC8 PRESFR SLP090

CYQF;2015-02-06 12:00;CYQF 061200Z 11011KT 6SM IC OVC010 M16/M18 A2956 RMK SC8 SLP081

CYQF;2015-02-06 13:00;CYQF 061300Z 12009KT 5SM IC OVC010 M16/M18 A2953 RMK SC8 SLP070

CYQF;2015-02-06 14:00;CYQF 061400Z 13009KT 3SM IC OVC008 M16/M18 A2951 RMK ST8 SLP066

CYQF;2015-02-06 15:00;CYQF 061500Z 13008KT 3SM IC OVC008 M16/M18 A2949 RMK ST8 PRESRR SLP061

CYQF;2015-02-06 16:00;CYQF 061600Z 10008KT 3SM IC OVC009 M16/M18 A2947 RMK ST8 SLP054

CYQF;2015-02-06 17:00;CYQF 061700Z 09007KT 2SM IC OVC008 M15/M17 A2947 RMK ST8 SLP052

CYQF;2015-02-06 18:00;CYQF 061800Z 08005KT 2 1/2SM IC OVC009 M15/M17 A2948 RMK ST8 PRESRR SLP057

CYQF;2015-02-06 19:00;CYQF 061900Z 06009KT 3SM IC OVC010 M15/M18 A2946 RMK ST8 SLP048

CYQF;2015-02-06 20:00;CYQF 062000Z 06009KT 3SM IC OVC010 M15/M18 A2945 RMK ST8 SLP043

CYQF;2015-02-06 21:00;CYQF 062100Z 07008KT 5SM IC OVC012 M15/M18 A2943 RMK ST8 SLP036

CYQF;2015-02-06 22:00;CYQF 062200Z 07009KT 6SM IC OVC012 M15/M17 A2940 RMK ST8 SLP028

CYQF;2015-02-06 23:00;CYQF 062300Z 08007KT 6SM IC OVC013 M15/M18 A2941 RMK SC8 SLP029

CYQF;2015-02-06 23:37;CYQF 062337Z 08008KT 8SM OVC014 M15/M18 A2939 RMK SC8 SLP022

CYQF;2015-02-07 00:00;CYQF 070000Z 08007KT 10SM OVC014 M16/M18 A2937 RMK SC8 SLP017

CYQF;2015-02-07 01:00;CYQF 070100Z 08007KT 10SM OVC015 M16/M18 A2937 RMK ST8 SLP019

CYQF;2015-02-07 02:00;CYQF 070200Z 07006KT 15SM OVC017 M16/M19 A2939 RMK ST8 SLP024

CYQF;2015-02-07 02:43;CYQF 070243Z 05008KT 15SM -SN OVC012 M16/M19 A2937 RMK ST8 SLP019

CYQF;2015-02-07 03:00;CYQF 070300Z 05008KT 15SM -SN OVC012 M17/M19 A2937 RMK ST8 SLP017

CYQF;2015-02-07 04:00;CYQF 070400Z 06007KT 15SM -SN OVC011 M17/M19 A2934 RMK ST8 SLP006

CYQF;2015-02-07 04:37;CYQF 070437Z 08006KT 15SM -SN OVC009 M16/M19 A2933 RMK ST8 SLP004

CYQF;2015-02-07 05:00;CYQF 070500Z 06007KT 12SM -SN OVC010 M17/M19 A2933 RMK ST8 SLP003

CYQF;2015-02-07 06:00;CYQF 070600Z 04007KT 12SM -SN OVC010 M17/M19 A2935 RMK ST8 SLP010

CYQF;2015-02-07 06:19;CYQF 070619Z 03009KT 15SM OVC010 M17/M19 A2933 RMK ST8 SLP004

CYQF;2015-02-07 07:00;CYQF 070700Z 05006KT 15SM BKN010 OVC100 M17/M19 A2935 RMK ST6AC2 PRESRR SLP010

CYQF;2015-02-07 08:00;CYQF 070800Z 06005KT 15SM BKN010 OVC120 M17/M19 A2936 RMK SF5AC3 SLP015

CYQF;2015-02-07 09:00;CYQF 070900Z 04004KT 020V100 15SM SCT010 OVC120 M17/M19 A2937 RMK SF4AC4 SLP016

CYQF;2015-02-07 10:00;CYQF 071000Z 17004KT 15SM FEW010 SCT130 BKN220 M17/M19 A2939 RMK SF1AC3CI3 SLP023

CYQF;2015-02-07 11:00;CYQF 071100Z VRB04KT 15SM FEW130 SCT240 M17/M20 A2936 RMK AC2CI2 SLP013

CYQF;2015-02-07 12:00;CYQF 071200Z VRB02KT 15SM SCT240 M18/M20 A2936 RMK CI4 SLP018

CYQF;2015-02-07 13:00;CYQF 071300Z 13004KT 15SM BKN240 M18/M20 A2934 RMK CI6 SLP007

CYQF;2015-02-07 14:00;CYQF 071400Z 10004KT 060V130 15SM BKN240 M18/M20 A2933 RMK CI6 SLP007

CYQF;2015-02-07 15:00;CYQF 071500Z 13004KT 15SM BKN230 M17/M20 A2934 RMK CI7 SLP008

CYQF;2015-02-07 16:00;CYQF 071600Z 08004KT 060V130 15SM FEW100 BKN220 M16/M19 A2934 RMK AC1CI6 SLP008

CYQF;2015-02-07 17:00;CYQF 071700Z 02005KT 360V080 15SM FEW100 BKN220 M16/M19 A2934 RMK AC1CI5 SLP008

CYQF;2015-02-07 18:00;CYQF 071800Z 03005KT 15SM FEW100 BKN220 M15/M18 A2935 RMK AC1CI5 SLP010

CYQF;2015-02-07 19:00;CYQF 071900Z 07004KT 050V110 15SM FEW100 BKN220 M14/M18 A2936 RMK AC2CI5 SLP015

CYQF;2015-02-07 20:00;CYQF 072000Z 15007KT 15SM FEW100 BKN220 M13/M17 A2938 RMK AC2CI5 SLP018

CYQF;2015-02-07 21:00;CYQF 072100Z 12004KT 15SM FEW100 BKN220 M13/M17 A2939 RMK AC2CI4 SLP022

CYQF;2015-02-07 22:00;CYQF 072200Z 15007KT 15SM FEW100 BKN200 M13/M17 A2941 RMK AC2CI5 SLP030

CYQF;2015-02-07 23:00;CYQF 072300Z 13007KT 15SM FEW100 BKN160 M12/M16 A2942 RMK AC1AC6 SLP032

CYQF;2015-02-08 00:00;CYQF 080000Z 06004KT 15SM FEW100 BKN170 M12/M15 A2944 RMK AC1AC6 SLP040

CYQF;2015-02-08 01:00;CYQF 080100Z 02005KT 15SM BKN170 M11/M15 A2947 RMK AC7 SLP048

CYQF;2015-02-08 02:00;CYQF 080200Z 04005KT 15SM BKN160 M11/M15 A2949 RMK AC7 SLP057

CYQF;2015-02-08 03:00;CYQF 080300Z 02005KT 15SM OVC150 M12/M15 A2952 RMK AC8 SLP068

CYQF;2015-02-08 04:00;CYQF 080400Z 36007KT 15SM OVC140 M13/M16 A2956 RMK AC8 SLP080

CYQF;2015-02-08 05:00;CYQF 080500Z 35006KT 15SM OVC150 M14/M16 A2958 RMK AC8 SLP088

CYQF;2015-02-08 06:00;CYQF 080600Z 35007KT 15SM OVC140 M14/M16 A2961 RMK AC8 SLP097

CYQF;2015-02-08 07:00;CYQF 080700Z 35007KT 15SM OVC140 M14/M17 A2964 RMK AC8 SLP106

CYQF;2015-02-08 08:00;CYQF 080800Z 36007KT 15SM BKN140 M14/M17 A2967 RMK AC7 SLP118

CYQF;2015-02-08 09:00;CYQF 080900Z 01009KT 15SM OVC120 M15/M18 A2973 RMK AC8 SLP136

CYQF;2015-02-08 10:00;CYQF 081000Z 01007KT 12SM BKN120 OVC240 M15/M18 A2978 RMK AC5CI3 SLP156

CYQF;2015-02-08 11:00;CYQF 081100Z 36006KT 12SM BKN140 OVC240 M15/M18 A2981 RMK AC6CI2 SLP164

CYQF;2015-02-08 12:00;CYQF 081200Z 34008KT 15SM SCT140 BKN240 M16/M19 A2985 RMK AC4CI3 SLP177

CYQF;2015-02-08 13:00;CYQF 081300Z 34006KT 15SM SCT240 M16/M20 A2989 RMK CI3 SLP193

CYQF;2015-02-08 14:00;CYQF 081400Z 34003KT 15SM FEW240 M17/M20 A2991 RMK CI2 SLP201

CYQF;2015-02-08 15:00;CYQF 081500Z 29003KT 15SM FEW120 BKN240 M17/M20 A2994 RMK AC2CI5 SLP213

CYQF;2015-02-08 16:00;CYQF 081600Z 32004KT 15SM FEW120 BKN180 M17/M20 A2996 RMK AC2AC5 PRESRR SLP221

CYQF;2015-02-08 17:00;CYQF 081700Z 01005KT 15SM BKN150 BKN200 M16/M20 A2996 RMK AC6CI1 SLP221

CYQF;2015-02-08 18:00;CYQF 081800Z 00000KT 15SM BKN150 BKN220 M16/M19 A2998 RMK AC6CI1 SLP226

CYQF;2015-02-08 19:00;CYQF 081900Z 14002KT 15SM FEW120 BKN200 M15/M19 A2998 RMK AC2CI5 SLP227

CYQF;2015-02-08 20:00;CYQF 082000Z 16003KT 100V200 15SM FEW120 BKN200 M14/M19 A2998 RMK AC1CI5 SLP224

CYQF;2015-02-08 21:00;CYQF 082100Z 00000KT 15SM FEW120 BKN240 M14/M18 A2997 RMK AC1CI7 AC TR SLP224

CYQF;2015-02-08 22:00;CYQF 082200Z 36003KT 15SM BKN220 M14/M18 A2998 RMK CI6 SLP227

CYQF;2015-02-08 23:00;CYQF 082300Z 06002KT 15SM FEW220 M13/M18 A3001 RMK CI2 SLP235

CYQF;2015-02-09 00:00;CYQF 090000Z 08006KT 15SM SKC M14/M18 A3002 RMK SLP241

CYQF;2015-02-09 01:00;CYQF 090100Z 07005KT 8SM SKC M16/M19 A3004 RMK HZ SLP250

CYQF;2015-02-09 02:00;CYQF 090200Z 08004KT 8SM SKC M17/M20 A3004 RMK HZ SLP254

CYQF;2015-02-09 03:00;CYQF 090300Z 06005KT 10SM SKC M18/M21 A3004 RMK SLP253

CYQF;2015-02-09 04:00;CYQF 090400Z 12003KT 12SM SKC M18/M21 A3003 RMK SLP251

CYQF;2015-02-09 05:00;CYQF 090500Z 16002KT 15SM SKC M18/M21 A3003 RMK SLP250

CYQF;2015-02-09 06:00;CYQF 090600Z 00000KT 15SM SKC M19/M21 A3000 RMK SLP242

CYQF;2015-02-09 07:00;CYQF 090700Z 16008KT 15SM SKC M20/M22 A2999 RMK SLP238

CYQF;2015-02-09 08:00;CYQF 090800Z 17004KT 15SM FEW240 M20/M22 A2996 RMK CI2 SLP227

CYQF;2015-02-09 09:00;CYQF 090900Z 16008KT 12SM FEW240 M20/M22 A2995 RMK CI2 SLP220

CYQF;2015-02-09 10:00;CYQF 091000Z 04005KT 12SM FEW240 M21/M24 A2994 RMK CI2 FROIN SLP220

CYQF;2015-02-09 11:00;CYQF 091100Z 08007KT 15SM BKN240 M20/M22 A2989 RMK CI6 PRESFR SLP201

CYQF;2015-02-09 12:00;CYQF 091200Z 09005KT 15SM BKN240 M19/M22 A2990 RMK CI7 SLP204

CYQF;2015-02-09 13:00;CYQF 091300Z 11004KT 12SM IC SCT160 BKN240 M18/M21 A2990 RMK AC4CI3 SLP206

CYQF;2015-02-09 14:00;CYQF 091400Z 11005KT 070V140 12SM IC OVC240 M18/M21 A2987 RMK CI8 SLP197

CYQF;2015-02-09 15:00;CYQF 091500Z 13004KT 12SM IC SCT140 BKN240 M19/M21 A2987 RMK AC3CI4 SLP199

CYQF;2015-02-09 16:00;CYQF 091600Z 01003KT 12SM IC FEW120 BKN240 M19/M22 A2986 RMK AC2CI5 SLP195

CYQF;2015-02-09 17:00;CYQF 091700Z 08004KT 12SM IC FEW120 OVC220 M18/M20 A2984 RMK AC2CC6 SLP185

CYQF;2015-02-09 18:00;CYQF 091800Z 09004KT 10SM -SN BKN015 OVC090 M17/M19 A2984 RMK SC5AC3 SLP185

CYQF;2015-02-09 19:00;CYQF 091900Z 05004KT 5SM -SN OVC015 M16/M19 A2984 RMK SC8 SLP187

CYQF;2015-02-09 20:00;CYQF 092000Z 04006KT 8SM -SN BKN015 OVC070 M16/M19 A2984 RMK SC6AC2 SLP184

CYQF;2015-02-09 20:35;CYQF 092035Z 02004KT 1 1/2SM -SN VV015 M16/M19 A2983 RMK SN8 SLP183

CYQF;2015-02-09 20:44;CYQF 092044Z 02005KT 1SM -SN VV015 M16/M19 A2983 RMK SN8 SLP182

CYQF;2015-02-09 21:00;CYQF 092100Z 02007KT 1SM -SN VV015 M16/M18 A2982 RMK SN8 SLP178

CYQF;2015-02-09 21:48;CYQF 092148Z 01008KT 2SM -SN OVC024 M16/M19 A2982 RMK SC8 SLP180

CYQF;2015-02-09 22:00;CYQF 092200Z 35006KT 2SM -SN OVC024 M16/M19 A2983 RMK SC8 SLP183

CYQF;2015-02-09 23:00;CYQF 092300Z 36007KT 1 1/2SM -SN OVC027 M16/M19 A2984 RMK SN4SC4 SLP185

CYQF;2015-02-09 23:34;CYQF 092334Z 01006KT 5SM -SN OVC028 M16/M19 A2985 RMK SC8 SLP188

CYQF;2015-02-10 00:00;CYQF 100000Z 36007KT 10SM -SN OVC028 M16/M19 A2986 RMK SC8 /S01/ SLP190

CYQF;2015-02-10 01:00;CYQF 100100Z 35007KT 12SM -SN OVC025 M16/M19 A2988 RMK SC8 SLP198

CYQF;2015-02-10 01:40;CYQF 100140Z 01007KT 2SM -SN VV018 M16/M19 A2989 RMK SN8 VIS VRB 1-3 SLP202

CYQF;2015-02-10 01:50;CYQF 100150Z 36006KT 1SM -SN VV011 M16/M19 A2990 RMK SN8 VIS VRB 3/4-11/4 SLP203

CYQF;2015-02-10 02:00;CYQF 100200Z 36006KT 1SM -SN VV013 M16/M18 A2990 RMK SN8 VIS VRB 3/4-11/4 SLP205

CYQF;2015-02-10 02:20;CYQF 100220Z 35005KT 5SM -SN OVC059 M16/M18 A2991 RMK SC8 SLP207

CYQF;2015-02-10 02:45;CYQF 100245Z 35006KT 1 1/2SM -SN VV030 M16/M18 A2992 RMK SN8 SLP210

CYQF;2015-02-10 03:00;CYQF 100300Z 35007KT 1 1/2SM -SN VV028 M16/M19 A2992 RMK SN8 SLP212

CYQF;2015-02-10 04:00;CYQF 100400Z 35005KT 3SM -SN OVC035 M16/M19 A2994 RMK SN3SC5 SLP219

CYQF;2015-02-10 04:52;CYQF 100452Z 33005KT 10SM SCT080 M16/M19 A2995 RMK AC4 SLP226

CYQF;2015-02-10 05:00;CYQF 100500Z 32005KT 12SM SCT076 M17/M19 A2996 RMK AC4 SLP225

CYQF;2015-02-10 06:00;CYQF 100600Z 30003KT 12SM SCT046 OVC080 M16/M18 A2997 RMK SC4AC4 /S01/ SLP228

CYQF;2015-02-10 07:00;CYQF 100700Z 34003KT 15SM FEW040 BKN110 M16/M19 A2999 RMK SC1AC5 SLP235

CYQF;2015-02-10 08:00;CYQF 100800Z 32003KT 15SM BKN200 M17/M20 A3002 RMK CI6 SLP246

CYQF;2015-02-10 09:00;CYQF 100900Z 30005KT 15SM SCT200 M17/M20 A3004 RMK CI3 SLP252

CYQF;2015-02-10 10:00;CYQF 101000Z 29006KT 15SM FEW110 M17/M20 A3006 RMK AC2 SLP261

CYQF;2015-02-10 11:00;CYQF 101100Z 31004KT 15SM OVC080 M17/M20 A3008 RMK AC8 SLP267

CYQF;2015-02-10 12:00;CYQF 101200Z 32007KT 15SM OVC080 M15/M18 A3011 RMK AC8 SLP272

CYQF;2015-02-10 13:00;CYQF 101300Z 32005KT 310V020 15SM BKN075 M15/M18 A3014 RMK AC7 PRESRR SLP285

CYQF;2015-02-10 14:00;CYQF 101400Z 36008KT 15SM OVC026 M14/M17 A3016 RMK SC8 SLP291

CYQF;2015-02-10 15:00;CYQF 101500Z 34006KT 15SM OVC022 M13/M16 A3021 RMK SC8 SLP305

CYQF;2015-02-10 16:00;CYQF 101600Z 31003KT 15SM OVC022 M13/M16 A3024 RMK SC8 SLP317

CYQF;2015-02-10 17:00;CYQF 101700Z 32004KT 12SM OVC025 M12/M16 A3025 RMK SC8 SLP322

CYQF;2015-02-10 18:00;CYQF 101800Z 30006KT 12SM OVC020 M12/M15 A3027 RMK SC8 SLP326

CYQF;2015-02-10 18:25;CYQF 101825Z 31005KT 10SM -SN OVC018 M11/M15 A3027 RMK SC8 SLP327

CYQF;2015-02-10 19:00;CYQF 101900Z 31007KT 15SM OVC020 M11/M15 A3030 RMK SC8 SLP335

CYQF;2015-02-10 20:00;CYQF 102000Z 32003KT 12SM -SN SCT020 BKN080 M11/M15 A3029 RMK SC3AC4 SLP333

CYQF;2015-02-10 20:43;CYQF 102043Z 03003KT 340V050 12SM BKN030 BKN080 M11/M15 A3028 RMK SC6AC1 SLP330

CYQF;2015-02-10 21:00;CYQF 102100Z 00000KT 12SM BKN030 BKN070 M10/M15 A3028 RMK SC5AC2 SLP330

CYQF;2015-02-10 22:00;CYQF 102200Z 00000KT 15SM BKN029 BKN080 BKN220 M10/M15 A3028 RMK SC5AC1CI1 SLP329

CYQF;2015-02-10 23:00;CYQF 102300Z 00000KT 15SM BKN029 BKN050 OVC220 M10/M15 A3031 RMK SC5SC2CI1 SLP339

CYQF;2015-02-11 00:00;CYQF 110000Z 09004KT 15SM OVC028 M10/M14 A3032 RMK SC8 SLP341

CYQF;2015-02-11 01:00;CYQF 110100Z 09005KT 15SM OVC025 M11/M14 A3033 RMK SC8 SLP344

CYQF;2015-02-11 02:00;CYQF 110200Z 08003KT 15SM OVC020 M11/M14 A3037 RMK SC8 PIREP JS31 DURD CYQF 072OVC055 MOD MXD ICG AT 0115Z SLP356

CYQF;2015-02-11 03:00;CYQF 110300Z 08003KT 15SM OVC015 M11/M14 A3038 RMK SC8 SLP361

CYQF;2015-02-11 04:00;CYQF 110400Z 06004KT 12SM OVC012 M11/M14 A3040 RMK SC8 SLP365

CYQF;2015-02-11 05:00;CYQF 110500Z 06003KT 12SM OVC012 M11/M14 A3041 RMK ST8 SLP370

CYQF;2015-02-11 05:18;CYQF 110518Z 06002KT 12SM -FZDZ -SN OVC012 M11/M13 A3041 RMK ST8 SLP370

CYQF;2015-02-11 06:00;CYQF 110600Z 08002KT 12SM -SN OVC012 M11/M13 A3041 RMK ST8 SLP369

CYQF;2015-02-11 07:00;CYQF 110700Z 13003KT 10SM -FZDZ -SN OVC012 M11/M13 A3043 RMK ST8 SLP373

CYQF;2015-02-11 08:00;CYQF 110800Z 16003KT 10SM -FZDZ -SN OVC012 M11/M12 A3045 RMK ST8 SLP380

CYQF;2015-02-11 08:17;CYQF 110817Z 14004KT 10SM -SN OVC012 M11/M12 A3044 RMK ST8 SLP379

CYQF;2015-02-11 09:00;CYQF 110900Z 14005KT 10SM -FZDZ -SN OVC007 M11/M12 A3043 RMK ST8 SLP375

CYQF;2015-02-11 10:00;CYQF 111000Z 12005KT 10SM -FZDZ -SN OVC007 M11/M12 A3043 RMK ST8 SLP373

CYQF;2015-02-11 11:00;CYQF 111100Z 12007KT 10SM -SN OVC009 M11/M13 A3043 RMK ST8 SLP374

CYQF;2015-02-11 11:18;CYQF 111118Z 13007KT 10SM -SN OVC010 M11/M13 A3043 RMK ST8 SLP374

CYQF;2015-02-11 12:00;CYQF 111200Z 13009KT 10SM -FZDZ -SN OVC011 M12/M13 A3044 RMK ST8 SLP376

CYQF;2015-02-11 13:00;CYQF 111300Z 12007KT 12SM OVC013 M12/M14 A3043 RMK ST8 SLP376

CYQF;2015-02-11 14:00;CYQF 111400Z 13011KT 15SM OVC014 M12/M15 A3044 RMK ST8 SLP377

CYQF;2015-02-11 15:00;CYQF 111500Z 13010KT 15SM OVC014 M12/M15 A3043 RMK ST8 SLP377

CYQF;2015-02-11 16:00;CYQF 111600Z 14013KT 12SM OVC014 M12/M15 A3042 RMK ST8 SLP374

CYQF;2015-02-11 16:48;CYQF 111648Z 15015KT 8SM -SN OVC010 M12/M15 A3041 RMK ST8 SLP369

CYQF;2015-02-11 17:00;CYQF 111700Z 15017KT 3SM -SN OVC010 M12/M15 A3040 RMK ST8 SLP366

CYQF;2015-02-11 17:46;CYQF 111746Z 14012G18KT 2SM -SN DRSN OVC013 M12/M14 A3039 RMK SN3SC5 SLP362

CYQF;2015-02-11 18:00;CYQF 111800Z 15016KT 2SM -SN DRSN OVC014 M12/M15 A3039 RMK SN2SC6 SLP363

CYQF;2015-02-11 19:00;CYQF 111900Z 16017KT 3SM -SN DRSN OVC014 M11/M14 A3037 RMK SC8 SLP355

CYQF;2015-02-11 19:50;CYQF 111950Z 15017G24KT 2SM -SN DRSN OVC013 M11/M14 A3034 RMK SC8 SLP345

CYQF;2015-02-11 20:00;CYQF 112000Z 15020KT 2SM -SN DRSN OVC012 M11/M14 A3035 RMK SC8 VIS VRB 1-3 SLP347

CYQF;2015-02-11 21:00;CYQF 112100Z 15020KT 2SM -SN DRSN OVC014 M11/M14 A3029 RMK SC8 VIS VRB 1-3 OCNL BLSN SLP327

CYQF;2015-02-11 22:00;CYQF 112200Z 16018G24KT 2SM -SN DRSN OVC013 M11/M14 A3026 RMK SC8 VIS VRB 1-3 OCNL BLSN SLP315

CYQF;2015-02-11 23:00;CYQF 112300Z 16019G25KT 2SM -SN DRSN OVC013 M10/M13 A3021 RMK SC8 VIS VRB 1-3 OCNL BLSN SLP299

CYQF;2015-02-12 00:00;CYQF 120000Z 16018G24KT 1 1/2SM -SN DRSN OVC013 M11/M13 A3017 RMK SC8 VIS VRB 1-2 OCNL BLSN SLP284

CYQF;2015-02-12 01:00;CYQF 120100Z 16016G21KT 1 1/2SM -SN DRSN OVC011 M11/M13 A3013 RMK SC8 VIS VRB 1-2 OCNL BLSN PRESFR SLP271

CYQF;2015-02-12 02:00;CYQF 120200Z 16015KT 1 1/2SM -SN DRSN OVC011 M10/M12 A3012 RMK SN3SC5 VIS VRB 1-2 OCNL BLSN SLP267

CYQF;2015-02-12 03:00;CYQF 120300Z 16016KT 3SM IC DRSN BKN012 OVC120 M10/M12 A3008 RMK SC5AC3 SLP253

CYQF;2015-02-12 04:00;CYQF 120400Z 17015KT 3SM IC FEW012 BKN120 BKN200 M09/M11 A3003 RMK SC2AC3CI1 PRESFR SLP234

CYQF;2015-02-12 05:00;CYQF 120500Z 17011KT 3SM IC SCT120 BKN200 M09/M11 A3001 RMK AC3CI2 SLP229

CYQF;2015-02-12 06:00;CYQF 120600Z 18006KT 5SM IC FEW080 SCT210 M09/M11 A3001 RMK AC2CI2 SLP226

CYQF;2015-02-12 07:00;CYQF 120700Z 18004KT 5SM BR FEW120 BKN180 M09/M10 A3001 RMK AC2AC3 SLP226

CYQF;2015-02-12 08:00;CYQF 120800Z 19002KT 5SM BR SCT100 BKN180 M08/M10 A3000 RMK AC4AC3 SLP221

CYQF;2015-02-12 09:00;CYQF 120900Z 22004KT 5SM BR OVC100 M07/M09 A2998 RMK AC8 SLP215

CYQF;2015-02-12 10:00;CYQF 121000Z 25002KT 5SM BR BKN100 BKN140 M07/M09 A3000 RMK AC5AC2 SLP222

CYQF;2015-02-12 11:00;CYQF 121100Z 21003KT 5SM BR SCT100 BKN180 M08/M10 A2999 RMK AC4AC2 SLP217

CYQF;2015-02-12 12:00;CYQF 121200Z 24005KT 5SM BR BKN090 BKN180 M07/M10 A3000 RMK AC5AC2 SLP220

CYQF;2015-02-12 13:00;CYQF 121300Z 22005KT 6SM BR BKN090 M08/M10 A3000 RMK AC5 SLP223

CYQF;2015-02-12 14:00;CYQF 121400Z 19007KT 6SM BR SCT090 M11/M12 A3001 RMK AC3 SLP228

CYQF;2015-02-12 15:00;CYQF 121500Z 18005KT 5SM BR FEW100 BKN230 M11/M12 A3002 RMK AC2CI4 SLP230

CYQF;2015-02-12 16:00;CYQF 121600Z 21005KT 6SM BR FEW100 BKN230 M10/M11 A3002 RMK AC2CI5 SLP228

CYQF;2015-02-12 17:00;CYQF 121700Z 19003KT 8SM FEW100 BKN230 M08/M10 A3004 RMK AC2CI5 SLP232

CYQF;2015-02-12 18:00;CYQF 121800Z 20003KT 8SM FEW100 BKN220 M07/M09 A3005 RMK AC2CI4 SLP234

CYQF;2015-02-12 19:00;CYQF 121900Z 19006KT 8SM BKN220 M04/M08 A3005 RMK CI6 SLP230

CYQF;2015-02-12 20:00;CYQF 122000Z 20002KT 8SM BKN220 M03/M07 A3004 RMK CI6 SLP224

CYQF;2015-02-12 21:00;CYQF 122100Z 19003KT 8SM BKN210 M01/M06 A3002 RMK CI6 SLP217

CYQF;2015-02-12 22:00;CYQF 122200Z 00000KT 8SM BKN190 03/M05 A3002 RMK AC6 SLP213

CYQF;2015-02-12 23:00;CYQF 122300Z 00000KT 8SM BKN088 BKN190 02/M04 A3002 RMK AC6AC1 SLP212

CYQF;2015-02-13 00:00;CYQF 130000Z 25002KT 8SM SCT090 BKN190 03/M03 A3003 RMK AC3CI4 SLP216

CYQF;2015-02-13 01:00;CYQF 130100Z VRB02KT 8SM FEW088 BKN190 OVC250 M00/M03 A3003 RMK AC2AC4CI2 SLP219

CYQF;2015-02-13 02:00;CYQF 130200Z 00000KT 10SM OVC190 01/M03 A3003 RMK AC8 SLP221

CYQF;2015-02-13 03:00;CYQF 130300Z 23005KT 15SM OVC077 01/M03 A3003 RMK AC8 SLP223

CYQF;2015-02-13 04:00;CYQF 130400Z 00000KT 15SM FEW077 BKN100 OVC250 M01/M03 A3004 RMK AC1AC6CI1 SLP227

CYQF;2015-02-13 05:00;CYQF 130500Z VRB06KT 15SM OVC060 02/M03 A3005 RMK SC8 VIRGA SLP223

CYQF;2015-02-13 06:00;CYQF 130600Z 20005KT 170V240 15SM BKN060 OVC120 01/M02 A3007 RMK SC6AC2 SLP231

CYQF;2015-02-13 07:00;CYQF 130700Z VRB02KT 15SM OVC088 M00/M02 A3007 RMK AC8 SLP230

CYQF;2015-02-13 08:00;CYQF 130800Z 22005KT 15SM OVC090 01/M02 A3008 RMK AC8 SLP230

CYQF;2015-02-13 09:00;CYQF 130900Z 18004KT 15SM OVC080 01/M02 A3009 RMK AC8 SLP232

CYQF;2015-02-13 10:00;CYQF 131000Z 19004KT 15SM BKN100 00/M02 A3008 RMK AC7 SLP226

CYQF;2015-02-13 11:00;CYQF 131100Z 20002KT 15SM BKN090 00/M02 A3008 RMK AC6 SLP225

CYQF;2015-02-13 12:00;CYQF 131200Z 18002KT 15SM FEW080 BKN220 M00/M02 A3009 RMK AC2CI4 SLP229

CYQF;2015-02-13 13:00;CYQF 131300Z 17002KT 15SM SCT070 M04/M05 A3010 RMK AC3 SLP240

CYQF;2015-02-13 14:00;CYQF 131400Z 18005KT 15SM SCT070 M04/M05 A3010 RMK AC4 SLP237

CYQF;2015-02-13 15:00;CYQF 131500Z 20008KT 15SM FEW070 BKN230 M03/M04 A3009 RMK AC2CI4 SLP235

CYQF;2015-02-13 16:00;CYQF 131600Z 21004KT 15SM FEW080 BKN230 M02/M04 A3009 RMK AC1CI6 SLP234

CYQF;2015-02-13 17:00;CYQF 131700Z 24002KT 15SM FEW080 BKN230 M01/M03 A3009 RMK AC1CI6 SLP231

CYQF;2015-02-13 18:00;CYQF 131800Z 19002KT 15SM FEW100 BKN210 M01/M03 A3010 RMK AC1CI6 SLP233

CYQF;2015-02-13 19:00;CYQF 131900Z 18004KT 15SM FEW100 BKN210 01/M02 A3008 RMK AC1CI6 SLP225

CYQF;2015-02-13 20:00;CYQF 132000Z 23004KT 15SM BKN170 03/M02 A3007 RMK AC7 SLP220

CYQF;2015-02-13 21:00;CYQF 132100Z 34002KT 15SM BKN200 04/M02 A3006 RMK CI7 SLP215

CYQF;2015-02-13 22:00;CYQF 132200Z 06003KT 15SM FEW120 BKN210 04/M01 A3005 RMK AC2CI5 SLP211

CYQF;2015-02-13 23:00;CYQF 132300Z 01005KT 15SM FEW100 BKN210 04/M01 A3002 RMK AC2CI5 WND ESTD SLP203

CYQF;2015-02-14 00:00;CYQF 140000Z 04008KT 15SM BKN084 BKN210 03/M00 A3003 RMK AC6CI1 SLP208

CYQF;2015-02-14 01:00;CYQF 140100Z 08006KT 15SM SCT084 BKN210 03/M00 A3003 RMK AC3CI4 SLP212

CYQF;2015-02-14 02:00;CYQF 140200Z 09008KT 15SM BKN083 OVC250 02/M01 A3004 RMK AC7CI1 SLP215

CYQF;2015-02-14 03:00;CYQF 140300Z 10008KT 15SM OVC083 02/M01 A3004 RMK AC8 SLP213

CYQF;2015-02-14 04:00;CYQF 140400Z 12013KT 15SM OVC092 02/M01 A3002 RMK AC8 SLP208

CYQF;2015-02-14 04:18;CYQF 140418Z 11009G16KT 15SM BKN009 OVC092 01/M01 A3002 RMK SC5AC3 SLP208

CYQF;2015-02-14 05:00;CYQF 140500Z 12010KT 8SM BKN011 OVC092 00/M02 A3002 RMK SC6AC2 SLP207

CYQF;2015-02-14 05:35;CYQF 140535Z 12014KT 6SM BR OVC008 M00/M02 A3001 RMK SC8 SLP205

CYQF;2015-02-14 06:00;CYQF 140600Z 13013G18KT 5SM BR OVC007 M01/M02 A3000 RMK SC8 SLP202

CYQF;2015-02-14 07:00;CYQF 140700Z 14016KT 3SM BR OVC004 M03/M03 A2997 RMK ST8 SLP190

CYQF;2015-02-14 08:00;CYQF 140800Z 13013G19KT 3SM BR OVC004 M04/M05 A2994 RMK ST8 PRESFR SLP179

CYQF;2015-02-14 09:00;CYQF 140900Z 14013G18KT 3SM BR OVC004 M04/M05 A2992 RMK ST8 SLP170

CYQF;2015-02-14 09:12;CYQF 140912Z 14013G18KT 3SM -SN DRSN OVC004 M04/M05 A2992 RMK ST8 SLP172

CYQF;2015-02-14 09:23;CYQF 140923Z 14016KT 3SM -FZRA -SN DRSN OVC004 M05/M05 A2992 RMK ST8 SLP172

CYQF;2015-02-14 10:00;CYQF 141000Z 14012KT 3SM -SN OVC004 M05/M06 A2990 RMK ST8 SLP167

CYQF;2015-02-14 10:21;CYQF 141021Z VRB02KT 4SM -FZRA -SN OVC005 M05/M06 A2998 RMK ST8 PRESRR SLP193

CYQF;2015-02-14 11:00;CYQF 141100Z 10005KT 6SM -FZRA -SN OVC005 M05/M06 A2998 RMK ST8 PRESRR SLP194

CYQF;2015-02-14 11:11;CYQF 141111Z 09004KT 6SM -SN OVC006 M05/M06 A2998 RMK ST8 SLP194

CYQF;2015-02-14 12:00;CYQF 141200Z 23002KT 6SM -SN OVC006 M05/M06 A2999 RMK ST8 SLP197

CYQF;2015-02-14 12:10;CYQF 141210Z 27003KT 2SM -SN BKN006 VV015 M05/M06 A2999 RMK ST6SN2 SLP197

CYQF;2015-02-14 12:43;CYQF 141243Z 27005KT 4SM -SN SCT006 OVC017 M05/M06 A3001 RMK SF4SC4 SLP206

CYQF;2015-02-14 13:00;CYQF 141300Z 29006KT 6SM -SN FEW006 OVC017 M04/M05 A3001 RMK SF2SC6 SLP206

CYQF;2015-02-14 14:00;CYQF 141400Z 28003KT 10SM -SN FEW015 BKN100 M04/M05 A3000 RMK SC2AC3 SLP203

CYQF;2015-02-14 14:23;CYQF 141423Z 27003KT 10SM BR SCT100 M03/M04 A3000 RMK AC4 SLP200

CYQF;2015-02-14 15:00;CYQF 141500Z 30011KT 10SM FEW080 BKN130 M01/M02 A3001 RMK AC2AC4 SLP200

CYQF;2015-02-14 16:00;CYQF 141600Z 30008KT 15SM FEW080 FEW120 SCT160 M00/M02 A3002 RMK AC1AC1AC2 SLP204

CYQF;2015-02-14 17:00;CYQF 141700Z 29011KT 15SM FEW120 SCT230 02/M01 A3004 RMK AC1CI3 SLP210

CYQF;2015-02-14 18:00;CYQF 141800Z 29009KT 15SM FEW120 02/M02 A3005 RMK AC2 SLP215

CYQF;2015-02-14 19:00;CYQF 141900Z 30007KT 15SM FEW120 02/M02 A3005 RMK AC1 SLP218

CYQF;2015-02-14 20:00;CYQF 142000Z 27005KT 15SM SKC 04/M02 A3006 RMK SLP219

CYQF;2015-02-14 21:00;CYQF 142100Z 27004KT 15SM FEW230 05/M03 A3006 RMK CI1 SLP219

CYQF;2015-02-14 22:00;CYQF 142200Z 29002KT 15SM FEW030 FEW230 05/M03 A3006 RMK CU1CI1 SLP223

CYQF;2015-02-14 23:00;CYQF 142300Z 17004KT 15SM FEW020 FEW230 03/M03 A3006 RMK CU1CI1 SLP225

CYQF;2015-02-15 00:00;CYQF 150000Z 20005KT 15SM FEW020 SCT230 03/M03 A3007 RMK SC2CI1 SLP227

CYQF;2015-02-15 01:00;CYQF 150100Z 27005KT 15SM FEW020 SCT130 SCT230 04/M04 A3010 RMK SC1AC2CI1 VIRGA SLP234

CYQF;2015-02-15 02:00;CYQF 150200Z 30006KT 15SM SCT130 03/M05 A3011 RMK AC3 SLP240

CYQF;2015-02-15 03:00;CYQF 150300Z 29008KT 15SM BKN080 03/M07 A3012 RMK AC7 SLP240

CYQF;2015-02-15 04:00;CYQF 150400Z 01003KT 15SM BKN080 02/M06 A3014 RMK AC7 SLP247

CYQF;2015-02-15 05:00;CYQF 150500Z 32004KT 15SM BKN080 02/M07 A3016 RMK AC5 SLP251

CYQF;2015-02-15 06:00;CYQF 150600Z 28004KT 15SM SCT100 01/M08 A3017 RMK AC3 SLP256

CYQF;2015-02-15 07:00;CYQF 150700Z 26005KT 15SM SCT100 M01/M09 A3018 RMK AC3 SLP262

CYQF;2015-02-15 08:00;CYQF 150800Z 30007KT 15SM BKN080 M01/M08 A3020 RMK AC6 SLP265

CYQF;2015-02-15 09:00;CYQF 150900Z 28006KT 15SM BKN080 M00/M08 A3020 RMK AC6 SLP264

CYQF;2015-02-15 10:00;CYQF 151000Z 27008KT 15SM BKN090 M02/M08 A3020 RMK AC6 SLP267

CYQF;2015-02-15 11:00;CYQF 151100Z 28005KT 15SM BKN090 M01/M08 A3021 RMK AC7 SLP270

CYQF;2015-02-15 12:00;CYQF 151200Z 29007KT 15SM SCT100 M02/M08 A3022 RMK AC4 SLP275

CYQF;2015-02-15 13:00;CYQF 151300Z 29011KT 15SM BKN100 M01/M08 A3022 RMK AC6 SLP273

CYQF;2015-02-15 14:00;CYQF 151400Z 28007KT 15SM BKN090 M02/M08 A3022 RMK AC7 SLP273

CYQF;2015-02-15 15:00;CYQF 151500Z 27005KT 15SM BKN080 M03/M09 A3022 RMK AC5 SLP275

CYQF;2015-02-15 16:00;CYQF 151600Z 27008KT 15SM FEW080 M02/M09 A3022 RMK AC2 SLP277

CYQF;2015-02-15 17:00;CYQF 151700Z 28008KT 15SM FEW080 M01/M09 A3023 RMK AC2 SLP280

CYQF;2015-02-15 18:00;CYQF 151800Z 29007KT 15SM SCT080 00/M08 A3023 RMK AC3 SLP279

CYQF;2015-02-15 19:00;CYQF 151900Z 28009KT 15SM BKN095 01/M07 A3023 RMK AC6 SLP280

CYQF;2015-02-15 20:00;CYQF 152000Z 29010KT 15SM BKN100 02/M07 A3023 RMK AC6 SLP278

CYQF;2015-02-15 21:00;CYQF 152100Z 33009KT 15SM BKN096 03/M06 A3023 RMK AC7 SLP275

CYQF;2015-02-15 22:00;CYQF 152200Z 32007KT 15SM BKN100 03/M07 A3022 RMK AC7 SLP274

CYQF;2015-02-15 23:00;CYQF 152300Z 01006KT 15SM BKN110 02/M06 A3023 RMK AC7 SLP278

CYQF;2015-02-16 00:00;CYQF 160000Z 34010KT 15SM BKN110 02/M07 A3025 RMK AC7 SLP284

CYQF;2015-02-16 01:00;CYQF 160100Z 35008KT 15SM BKN120 02/M07 A3026 RMK AC7 SLP289

CYQF;2015-02-16 02:00;CYQF 160200Z 33009KT 15SM BKN110 01/M07 A3028 RMK AC7 SLP297

CYQF;2015-02-16 03:00;CYQF 160300Z 33006KT 15SM BKN110 00/M07 A3029 RMK AC7 SLP303

CYQF;2015-02-16 04:00;CYQF 160400Z 30008KT 15SM FEW060 OVC110 00/M07 A3030 RMK SC2AC6 SLP306

CYQF;2015-02-16 05:00;CYQF 160500Z 30008KT 15SM SCT060 BKN100 00/M07 A3030 RMK SC3AC4 SLP306

CYQF;2015-02-16 06:00;CYQF 160600Z 30010KT 15SM SCT050 BKN100 M00/M05 A3032 RMK SC3AC4 SLP312

CYQF;2015-02-16 07:00;CYQF 160700Z 29012KT 15SM SCT050 BKN100 M01/M04 A3034 RMK SC3AC3 SLP317

CYQF;2015-02-16 08:00;CYQF 160800Z 29010KT 15SM SCT050 SCT100 M02/M04 A3035 RMK SC3AC1 SLP320

CYQF;2015-02-16 09:00;CYQF 160900Z 29010KT 15SM OVC080 M02/M05 A3035 RMK AC8 SLP319

CYQF;2015-02-16 10:00;CYQF 161000Z 30011KT 15SM OVC080 M01/M04 A3036 RMK AC8 SLP322

CYQF;2015-02-16 11:00;CYQF 161100Z 29012KT 15SM OVC075 M01/M04 A3036 RMK AC8 SLP323

CYQF;2015-02-16 12:00;CYQF 161200Z 30011KT 15SM OVC075 M01/M05 A3037 RMK AC8 SLP327

CYQF;2015-02-16 13:00;CYQF 161300Z 31009KT 15SM OVC070 M01/M05 A3037 RMK AC8 SLP329

CYQF;2015-02-16 14:00;CYQF 161400Z 30007KT 15SM BKN072 M02/M05 A3037 RMK AC7 SLP329

CYQF;2015-02-16 15:00;CYQF 161500Z 30008KT 15SM BKN070 M02/M06 A3038 RMK AC6 VIRGA SLP332

CYQF;2015-02-16 16:00;CYQF 161600Z 31007KT 15SM BKN070 M02/M07 A3038 RMK AC7 VIRGA SLP334

CYQF;2015-02-16 17:00;CYQF 161700Z 31011KT 15SM BKN072 M00/M06 A3038 RMK AC7 VIRGA SLP332

CYQF;2015-02-16 18:00;CYQF 161800Z 33012KT 15SM OVC073 M00/M06 A3038 RMK AC8 SLP333

CYQF;2015-02-16 19:00;CYQF 161900Z 34016KT 15SM OVC074 M00/M06 A3039 RMK AC8 SLP335

CYQF;2015-02-16 20:00;CYQF 162000Z 01009G15KT 15SM FEW025 OVC075 M01/M06 A3039 RMK SF2AC6 SLP337

CYQF;2015-02-16 21:00;CYQF 162100Z 01009KT 15SM FEW025 OVC080 M02/M05 A3039 RMK SF2AC6 SLP339

CYQF;2015-02-16 21:50;CYQF 162150Z 07009KT 10SM -SN BKN010 OVC080 M04/M06 A3040 RMK SC5AC3 WSHFT 2139 SLP344

CYQF;2015-02-16 22:00;CYQF 162200Z 06010KT 8SM -SN BKN012 OVC080 M04/M06 A3040 RMK SC5AC3 SLP344

CYQF;2015-02-16 23:00;CYQF 162300Z 06010KT 10SM -SN SCT012 OVC078 M06/M09 A3039 RMK SC4AC4 SLP345

CYQF;2015-02-17 00:00;CYQF 170000Z 07005KT 15SM -SN BKN013 OVC080 M07/M09 A3039 RMK SC5AC3 SLP344

CYQF;2015-02-17 01:00;CYQF 170100Z 08004KT 15SM -SN SCT012 BKN040 OVC080 M07/M09 A3039 RMK SC3SC4AC1 SLP344

CYQF;2015-02-17 02:00;CYQF 170200Z 35002KT 15SM -SN BKN050 OVC080 M07/M09 A3038 RMK SC6AC2 SLP342

CYQF;2015-02-17 03:00;CYQF 170300Z 31002KT 15SM -SN BKN040 OVC070 M07/M09 A3037 RMK SC6AC2 SLP340

CYQF;2015-02-17 04:00;CYQF 170400Z 29003KT 15SM -SN BKN040 OVC070 M07/M09 A3037 RMK SC6AC2 SLP339

CYQF;2015-02-17 05:00;CYQF 170500Z 05004KT 12SM -SN OVC040 M07/M09 A3036 RMK SC8 SLP335

CYQF;2015-02-17 06:00;CYQF 170600Z 00000KT 12SM -SN SCT016 OVC045 M07/M09 A3035 RMK SC3SC5 SLP330

CYQF;2015-02-17 07:00;CYQF 170700Z 00000KT 12SM SN BKN017 BKN023 OVC042 M07/M09 A3034 RMK SC6SC1SC1 SLP327

CYQF;2015-02-17 08:00;CYQF 170800Z 00000KT 2SM -SN BKN020 OVC048 M07/M09 A3034 RMK SC6SC2 SLP325

CYQF;2015-02-17 09:00;CYQF 170900Z 02003KT 2SM -SN OVC018 M08/M09 A3033 RMK SC8 SLP326

CYQF;2015-02-17 09:14;CYQF 170914Z 36003KT 3SM -SN FEW020 OVC050 M08/M09 A3033 RMK SC2SC6 SLP326

CYQF;2015-02-17 10:00;CYQF 171000Z 35002KT 5SM -SN FEW030 OVC047 M08/M10 A3033 RMK SC1SC7 /S01/ SLP328

CYQF;2015-02-17 11:00;CYQF 171100Z 31002KT 5SM SN OVC061 M08/M10 A3032 RMK SC8 SLP326

CYQF;2015-02-17 12:00;CYQF 171200Z 00000KT 5SM -SN OVC057 M08/M09 A3030 RMK SC8 SLP322

CYQF;2015-02-17 13:00;CYQF 171300Z 06002KT 5SM -SN OVC055 M08/M10 A3030 RMK SC8 SLP320

CYQF;2015-02-17 14:00;CYQF 171400Z 17002KT 6SM -SN FEW020 OVC050 M08/M10 A3028 RMK SC2SC6 SLP315

CYQF;2015-02-17 15:00;CYQF 171500Z 18002KT 6SM -SN SCT016 OVC049 M08/M10 A3026 RMK SC4SC4 SLP308

CYQF;2015-02-17 16:00;CYQF 171600Z 17004KT 8SM -SN OVC048 M08/M10 A3024 RMK SC8 SLP302

CYQF;2015-02-17 16:25;CYQF 171625Z 18003KT 8SM OVC045 M08/M09 A3024 RMK SC8 BR SLP300

CYQF;2015-02-17 17:00;CYQF 171700Z 19004KT 8SM OVC045 M07/M09 A3024 RMK SC8 BR SLP298

CYQF;2015-02-17 18:00;CYQF 171800Z 19006KT 8SM SCT100 BKN250 M07/M09 A3022 RMK AC3CI4 SLP292

CYQF;2015-02-17 19:00;CYQF 171900Z 19009KT 8SM SCT100 OVC250 M05/M08 A3019 RMK AC4CI4 SLP281

CYQF;2015-02-17 20:00;CYQF 172000Z 19009KT 8SM SCT080 OVC250 M05/M07 A3016 RMK AC4CI4 SLP268

CYQF;2015-02-17 21:00;CYQF 172100Z 17008KT 6SM BR FEW080 OVC120 M04/M07 A3012 RMK AC2AC6 SLP255

CYQF;2015-02-17 22:00;CYQF 172200Z 17008KT 8SM OVC070 M03/M06 A3009 RMK AS8 SLP245

CYQF;2015-02-17 23:00;CYQF 172300Z 17008KT 6SM -SN OVC040 M03/M05 A3008 RMK SC8 SLP241

CYQF;2015-02-17 23:19;CYQF 172319Z 17008KT 2 1/2SM -SN OVC035 M03/M05 A3008 RMK SN2SC6 SLP240

CYQF;2015-02-18 00:00;CYQF 180000Z 17008KT 1 1/2SM -SN VV030 M03/M04 A3007 RMK SN8 SLP237

CYQF;2015-02-18 01:00;CYQF 180100Z 16007KT 1 1/2SM -SN VV030 M03/M04 A3006 RMK SN8 SLP235

CYQF;2015-02-18 02:00;CYQF 180200Z 17006KT 4SM -SN OVC064 M03/M05 A3006 RMK SC8 SLP232

CYQF;2015-02-18 03:00;CYQF 180300Z 17005KT 1 1/2SM -SN VV030 M03/M04 A3005 RMK SN8 VIS VRB 1-2 SLP229

CYQF;2015-02-18 03:47;CYQF 180347Z 18008KT 3SM -SN FEW022 OVC070 M03/M04 A3003 RMK SC2AC6 VIS VRB 2-4 SLP223

CYQF;2015-02-18 04:00;CYQF 180400Z 19005KT 3SM -SN SCT020 OVC075 M03/M04 A3003 RMK SC3AC5 VIS VRB 2-4 SLP222

CYQF;2015-02-18 05:00;CYQF 180500Z 20005KT 6SM -SN OVC061 M02/M03 A3002 RMK SC8 SLP219

CYQF;2015-02-18 06:00;CYQF 180600Z 23005KT 10SM -SN OVC059 M02/M03 A3002 RMK SC8 VRY LGT SN SLP216

CYQF;2015-02-18 06:44;CYQF 180644Z 22003KT 15SM OVC062 M02/M03 A3002 RMK SC8 SLP216

CYQF;2015-02-18 07:00;CYQF 180700Z 19004KT 15SM OVC063 M02/M03 A3002 RMK SC8 SLP215

CYQF;2015-02-18 08:00;CYQF 180800Z 22005KT 15SM OVC069 M02/M03 A3001 RMK AC8 SLP210

CYQF;2015-02-18 09:00;CYQF 180900Z 26005KT 15SM OVC067 M01/M04 A3001 RMK AC8 SLP207

CYQF;2015-02-18 10:00;CYQF 181000Z 25006KT 15SM OVC064 M00/M04 A3001 RMK SC8 SLP208

CYQF;2015-02-18 11:00;CYQF 181100Z 26003KT 15SM BKN250 M02/M06 A3001 RMK CI5 SLP208

CYQF;2015-02-18 12:00;CYQF 181200Z 16003KT 15SM BKN070 OVC250 M04/M06 A3002 RMK AC7CI1 SLP213

CYQF;2015-02-18 13:00;CYQF 181300Z 18004KT 15SM OVC069 M02/M05 A3001 RMK AC8 SLP211

CYQF;2015-02-18 14:00;CYQF 181400Z 21004KT 15SM OVC066 M01/M04 A3000 RMK AC8 SLP206

CYQF;2015-02-18 15:00;CYQF 181500Z 21004KT 15SM OVC064 M01/M04 A2999 RMK SC8 SLP202

CYQF;2015-02-18 16:00;CYQF 181600Z 19005KT 15SM BKN065 BKN250 M03/M06 A2999 RMK SC5CI2 SLP203

CYQF;2015-02-18 17:00;CYQF 181700Z 20004KT 15SM FEW065 OVC250 M02/M06 A2998 RMK SC2CI6 SLP199

CYQF;2015-02-18 18:00;CYQF 181800Z 19003KT 15SM FEW065 OVC250 M00/M05 A2997 RMK SC1CI7 SLP192

CYQF;2015-02-18 19:00;CYQF 181900Z 19005KT 15SM OVC250 02/M03 A2995 RMK CI8 SLP184

CYQF;2015-02-18 20:00;CYQF 182000Z 19004KT 15SM OVC170 03/M03 A2993 RMK AS8 SLP173

CYQF;2015-02-18 21:00;CYQF 182100Z 19004KT 15SM OVC250 04/M04 A2991 RMK CI8 SLP164

CYQF;2015-02-18 22:00;CYQF 182200Z 18002KT 15SM SCT200 OVC250 04/M02 A2990 RMK CS3CI5 SLP161

CYQF;2015-02-18 23:00;CYQF 182300Z 17003KT 15SM SCT130 OVC250 03/M02 A2988 RMK AC4CI4 SLP158

CYQF;2015-02-19 00:00;CYQF 190000Z 16002KT 15SM SCT130 OVC250 04/M03 A2987 RMK AC3CI5 SLP154

CYQF;2015-02-19 01:00;CYQF 190100Z 00000KT 15SM SCT130 BKN220 02/M03 A2985 RMK AC3CI4 SLP147

CYQF;2015-02-19 02:00;CYQF 190200Z 22002KT 15SM BKN140 02/M03 A2984 RMK AC7 SLP143

CYQF;2015-02-19 03:00;CYQF 190300Z 19004KT 15SM BKN150 M01/M03 A2983 RMK AC5 SLP143

CYQF;2015-02-19 04:00;CYQF 190400Z 20004KT 15SM SCT140 M01/M04 A2982 RMK AC4 SLP141

CYQF;2015-02-19 05:00;CYQF 190500Z 18004KT 15SM OVC100 M01/M03 A2980 RMK AC8 SLP135

CYQF;2015-02-19 06:00;CYQF 190600Z 00000KT 15SM OVC090 M02/M04 A2980 RMK AC8 SLP131

CYQF;2015-02-19 07:00;CYQF 190700Z 19003KT 130V200 15SM OVC083 M02/M03 A2981 RMK AC8 SLP132

CYQF;2015-02-19 08:00;CYQF 190800Z 19003KT 180V240 15SM OVC081 M01/M03 A2981 RMK AC8 VIRGA NW-NE SLP132

CYQF;2015-02-19 08:38;CYQF 190838Z 24006KT 15SM -FZRA OVC066 00/M03 A2983 RMK AC8 SLP138

CYQF;2015-02-19 08:52;CYQF 190852Z 30018KT 15SM -RA OVC067 06/M02 A2984 RMK AC8 WIND SHIFT SLP132

CYQF;2015-02-19 09:00;CYQF 190900Z 30021KT 15SM -RA OVC067 06/M02 A2984 RMK AC8 GUSTS TO 25KT SLP134

CYQF;2015-02-19 09:27;CYQF 190927Z 29011G19KT 15SM OVC068 05/M01 A2985 RMK AC8 SLP138

CYQF;2015-02-19 10:00;CYQF 191000Z 29020G26KT 15SM OVC072 04/M01 A2986 RMK AC8 VIRGA SLP143

CYQF;2015-02-19 11:00;CYQF 191100Z 28011G16KT 15SM -SHRA OVC074 05/M01 A2986 RMK AC8 VERY LGT SHWRS SLP141

CYQF;2015-02-19 11:23;CYQF 191123Z 29013G20KT 15SM OVC078 04/M02 A2986 RMK AC8 VIRGA SLP141

CYQF;2015-02-19 12:00;CYQF 191200Z 31014KT 15SM BKN091 BKN140 04/M02 A2986 RMK AC6AC1 SLP141

CYQF;2015-02-19 13:00;CYQF 191300Z 32006KT 15SM OVC083 04/M02 A2986 RMK AC8 VIRGA SLP145

CYQF;2015-02-19 14:00;CYQF 191400Z 35004KT 15SM FEW080 BKN120 BKN160 04/M02 A2986 RMK AC2AC4AC1 SLP144

CYQF;2015-02-19 15:00;CYQF 191500Z 24006KT 15SM BKN084 03/M02 A2986 RMK AC7 SLP148

CYQF;2015-02-19 16:00;CYQF 191600Z 24008KT 15SM BKN079 03/M02 A2985 RMK AC7 SLP147

CYQF;2015-02-19 17:00;CYQF 191700Z 25010KT 15SM BKN080 03/M03 A2986 RMK AC7 SLP149

CYQF;2015-02-19 18:00;CYQF 191800Z 24005KT 15SM SCT130 BKN250 03/M02 A2986 RMK AC3CI2 SLP148

CYQF;2015-02-19 19:00;CYQF 191900Z 25005KT 200V270 15SM SCT080 BKN250 04/M03 A2986 RMK AC3CI2 SLP148

CYQF;2015-02-19 20:00;CYQF 192000Z 19005KT 15SM FEW090 FEW250 05/M03 A2984 RMK AC1CI1 AC TR CI TR SLP139

CYQF;2015-02-19 21:00;CYQF 192100Z 26007KT 15SM FEW040 FEW090 07/M05 A2983 RMK CU1AC2 CU TR SLP126

CYQF;2015-02-19 22:00;CYQF 192200Z 28005KT 15SM FEW040 FEW090 07/M05 A2982 RMK CU1AC1 SLP125

CYQF;2015-02-19 23:00;CYQF 192300Z 28002KT 15SM FEW100 FEW250 07/M05 A2983 RMK AC1CI1 SLP126

CYQF;2015-02-20 00:00;CYQF 200000Z VRB02KT 15SM SCT100 BKN250 05/M04 A2983 RMK AC3CI3 SLP131

CYQF;2015-02-20 01:00;CYQF 200100Z 35004KT 15SM FEW040 BKN120 05/M05 A2984 RMK SC2AC3 SLP134

CYQF;2015-02-20 02:00;CYQF 200200Z 33010KT 15SM SCT110 05/M05 A2985 RMK AC4 SLP138

CYQF;2015-02-20 03:00;CYQF 200300Z 30008KT 15SM SCT090 04/M04 A2986 RMK AC4 SLP143

CYQF;2015-02-20 04:00;CYQF 200400Z 33009KT 15SM FEW170 03/M04 A2987 RMK AC2 SLP147

CYQF;2015-02-20 05:00;CYQF 200500Z 32014G20KT 15SM BKN060 BKN160 04/M04 A2989 RMK SC5AC2 SLP154

CYQF;2015-02-20 06:00;CYQF 200600Z 31010KT 15SM FEW060 BKN110 03/M04 A2989 RMK SC2AC3 SLP155

CYQF;2015-02-20 07:00;CYQF 200700Z 30008KT 15SM SCT110 02/M04 A2989 RMK AC4 SLP155

CYQF;2015-02-20 08:00;CYQF 200800Z 29008KT 15SM SCT090 BKN190 02/M04 A2990 RMK AC3AC3 SLP158

CYQF;2015-02-20 09:00;CYQF 200900Z 28007KT 15SM SCT140 01/M04 A2991 RMK AC4 SLP159

CYQF;2015-02-20 10:00;CYQF 201000Z 32015G23KT 15SM OVC048 02/M03 A2992 RMK SC8 VIRGA SLP162

CYQF;2015-02-20 10:29;CYQF 201029Z 31011KT 12SM -SHGR OVC054 01/M02 A2992 RMK SC8 SLP163

CYQF;2015-02-20 11:00;CYQF 201100Z 31011G17KT 15SM VCSH SCT055 OVC097 01/M02 A2992 RMK SC4AC4 SLP163

CYQF;2015-02-20 12:00;CYQF 201200Z 30011KT 15SM OVC090 01/M02 A2992 RMK AC8 SLP166

CYQF;2015-02-20 13:00;CYQF 201300Z 31011KT 15SM VCSH FEW050 BKN140 01/M02 A2994 RMK SC2AC3 SLP173

CYQF;2015-02-20 13:50;CYQF 201350Z 31012KT 10SM -SHSN OVC022 01/M02 A2995 RMK SC8 SLP176

CYQF;2015-02-20 14:00;CYQF 201400Z 30009KT 10SM -SHSN OVC022 00/M02 A2995 RMK SC8 SLP176

CYQF;2015-02-20 15:00;CYQF 201500Z 32009KT 12SM -SHSN SCT014 OVC022 00/M01 A2996 RMK SC3SC5 SLP183

CYQF;2015-02-20 15:31;CYQF 201531Z 32010G16KT 12SM VCSH BKN015 OVC036 01/M01 A2997 RMK SC5SC3 SLP185

CYQF;2015-02-20 15:44;CYQF 201544Z 01012KT 320V020 8SM -SHSN BKN013 OVC030 M00/M02 A2998 RMK SC6SC2 WSHFT 1534 SLP189

CYQF;2015-02-20 16:00;CYQF 201600Z 01008KT 2 1/2SM -SHSN BKN012 OVC030 M00/M01 A2999 RMK SC6SC2 SLP192

CYQF;2015-02-20 16:52;CYQF 201652Z 02015KT 3SM -SHSN SCT012 OVC032 M01/M03 A3001 RMK CU4SC4 SLP202

CYQF;2015-02-20 17:00;CYQF 201700Z 36016KT 5SM -SHSN SCT015 OVC030 M01/M03 A3002 RMK CU4SC4 SLP202

CYQF;2015-02-20 17:44;CYQF 201744Z 03018KT 6SM -SHSN OVC010 M01/M04 A3003 RMK SC8 VIS N 3 SLP207

CYQF;2015-02-20 18:00;CYQF 201800Z 02015KT 2 1/2SM -SHSN OVC013 M02/M04 A3004 RMK SC8 CVCTV CLD EMBD SLP212

CYQF;2015-02-20 18:30;CYQF 201830Z 01012KT 5SM -SHSN OVC014 M02/M05 A3005 RMK SC8 CVCTV CLD EMBD SLP216

CYQF;2015-02-20 19:00;CYQF 201900Z 01012KT 12SM -SHSN BKN013 OVC040 M03/M05 A3007 RMK SC5SC3 CVCTV CLD EMBD SLP223

CYQF;2015-02-20 20:00;CYQF 202000Z 36016KT 12SM -SHSN BKN017 OVC038 M02/M06 A3008 RMK SC6SC2 CVCTV CLD EMBD SLP228

CYQF;2015-02-20 20:33;CYQF 202033Z 01015KT 15SM SCT017 BKN080 M03/M07 A3009 RMK SC4AC2 SLP232

CYQF;2015-02-20 21:00;CYQF 202100Z 36010G18KT 15SM SCT017 BKN090 BKN240 M03/M07 A3010 RMK SC4AC1CI1 SLP236

CYQF;2015-02-20 22:00;CYQF 202200Z 36013KT 15SM BKN020 OVC090 M03/M07 A3012 RMK SC7AC1 SLP244

CYQF;2015-02-20 23:00;CYQF 202300Z 01010KT 15SM FEW020 SCT080 BKN250 M04/M07 A3014 RMK SC2AC2CI2 SLP252

CYQF;2015-02-21 00:00;CYQF 210000Z 01010KT 15SM FEW020 SCT080 M04/M08 A3015 RMK CU1AC2 SLP257

CYQF;2015-02-21 01:00;CYQF 210100Z 01005KT 15SM FEW100 BKN250 M05/M09 A3017 RMK AC2CI3 SLP264

CYQF;2015-02-21 02:00;CYQF 210200Z 02005KT 15SM FEW100 BKN250 M07/M09 A3019 RMK AC2CI3 SLP272

CYQF;2015-02-21 03:00;CYQF 210300Z 00000KT 15SM FEW100 BKN140 M07/M10 A3019 RMK AC2AC4 SLP275

CYQF;2015-02-21 04:00;CYQF 210400Z 27004KT 15SM FEW065 BKN160 M07/M09 A3020 RMK SC2AC3 SLP277

CYQF;2015-02-21 05:00;CYQF 210500Z 25005KT 15SM BKN070 M07/M09 A3021 RMK AC7 SLP282

CYQF;2015-02-21 05:14;CYQF 210514Z 26005KT 10SM -SN OVC065 M07/M09 A3021 RMK SC8 SLP282

CYQF;2015-02-21 06:00;CYQF 210600Z 26005KT 5SM -SN OVC040 M06/M08 A3022 RMK SC8 SLP286

CYQF;2015-02-21 07:00;CYQF 210700Z 29008KT 5SM -SN OVC040 M05/M07 A3024 RMK SC8 SLP291

CYQF;2015-02-21 08:00;CYQF 210800Z 30011KT 15SM -SN BKN030 OVC090 M05/M07 A3025 RMK SC6AC2 SLP294

CYQF;2015-02-21 09:00;CYQF 210900Z 32014G19KT 15SM -SN BKN040 OVC100 M04/M07 A3026 RMK SC6AC2 SLP300

CYQF;2015-02-21 10:00;CYQF 211000Z 33014KT 8SM -SN SCT040 OVC100 M04/M07 A3028 RMK SC4AC4 SLP304

CYQF;2015-02-21 10:31;CYQF 211031Z 34014KT 1SM -SN BLSN OVC040 M04/M06 A3028 RMK SN4SC4 VIS VRB 1/2-11/2 /S01/ SLP306

CYQF;2015-02-21 11:00;CYQF 211100Z 05014G19KT 2SM -SN BLSN VV018 M08/M10 A3032 RMK SN8 VIS VRB 1-3 PRESRR SLP324

CYQF;2015-02-21 12:00;CYQF 211200Z 04012KT 3SM -SN DRSN OVC040 M10/M12 A3035 RMK SN5SC3 VIS VRB 2-4 SLP337

CYQF;2015-02-21 13:00;CYQF 211300Z 02010KT 6SM -SN DRSN BKN050 OVC100 M11/M13 A3039 RMK SC6AC2 SLP353

CYQF;2015-02-21 14:00;CYQF 211400Z 36004KT 5SM -SN SCT020 OVC050 M12/M14 A3042 RMK SC4SC4 SLP366

CYQF;2015-02-21 15:00;CYQF 211500Z 36007KT 8SM -SN OVC021 M12/M14 A3044 RMK SC8 SLP374

CYQF;2015-02-21 16:00;CYQF 211600Z 34007KT 8SM -SN BKN022 M11/M14 A3046 RMK SC7 SLP382

CYQF;2015-02-21 17:00;CYQF 211700Z 36011G16KT 12SM BKN020 M11/M15 A3048 RMK SC7 SLP388

CYQF;2015-02-21 17:46;CYQF 211746Z 35009KT 15SM SCT020 M11/M15 A3051 RMK SC4 SLP396

CYQF;2015-02-21 18:00;CYQF 211800Z 36010KT 15SM BKN024 M10/M15 A3051 RMK SC5 SLP396

CYQF;2015-02-21 18:11;CYQF 211811Z 01009KT 10SM -SN BKN023 M11/M14 A3052 RMK SC7 VIS N 3 SLP398

CYQF;2015-02-21 19:00;CYQF 211900Z 02008KT 8SM -SN BKN023 M11/M15 A3052 RMK SC6 SLP400

CYQF;2015-02-21 19:50;CYQF 211950Z 01006KT 15SM SCT022 M10/M15 A3052 RMK SC4 SLP399

CYQF;2015-02-21 20:00;CYQF 212000Z 01007KT 15SM SCT022 M11/M15 A3052 RMK SC4 SLP399

CYQF;2015-02-21 21:00;CYQF 212100Z 01007KT 15SM FEW024 SCT080 M10/M15 A3052 RMK SC2AC1 SLP397

CYQF;2015-02-21 22:00;CYQF 212200Z 02007KT 15SM FEW025 M10/M14 A3052 RMK SC1 SLP397

CYQF;2015-02-21 23:00;CYQF 212300Z 02005KT 15SM FEW030 M11/M15 A3052 RMK SC1 SC TR SLP403

CYQF;2015-02-22 00:00;CYQF 220000Z 02002KT 15SM FEW030 M11/M16 A3052 RMK SC1 SC TR SLP403

CYQF;2015-02-22 01:00;CYQF 220100Z 13003KT 15SM SKC M13/M16 A3052 RMK SLP408

CYQF;2015-02-22 02:00;CYQF 220200Z 17003KT 15SM SKC M13/M16 A3052 RMK SLP408

CYQF;2015-02-22 03:00;CYQF 220300Z 21004KT 15SM SKC M15/M16 A3052 RMK SLP411

CYQF;2015-02-22 04:00;CYQF 220400Z 20004KT 15SM SKC M17/M19 A3051 RMK SLP410

CYQF;2015-02-22 05:00;CYQF 220500Z 21006KT 15SM SKC M17/M19 A3049 RMK SLP404

CYQF;2015-02-22 06:00;CYQF 220600Z 20003KT 15SM SKC M19/M21 A3048 RMK SLP400

CYQF;2015-02-22 07:00;CYQF 220700Z 20004KT 15SM SKC M17/M18 A3046 RMK SLP391

CYQF;2015-02-22 08:00;CYQF 220800Z 19005KT 15SM SKC M17/M19 A3045 RMK SLP387

CYQF;2015-02-22 09:00;CYQF 220900Z 19005KT 15SM SKC M18/M20 A3042 RMK SLP377

CYQF;2015-02-22 10:00;CYQF 221000Z 20005KT 15SM FEW180 M17/M19 A3039 RMK AC1 SLP366

CYQF;2015-02-22 11:00;CYQF 221100Z 23005KT 15SM FEW180 M17/M18 A3037 RMK AC1 AC TR SLP360

CYQF;2015-02-22 12:00;CYQF 221200Z 19007KT 15SM SKC M18/M20 A3034 RMK SLP354

CYQF;2015-02-22 13:00;CYQF 221300Z 18007KT 15SM SKC M18/M20 A3032 RMK SLP348

CYQF;2015-02-22 14:00;CYQF 221400Z 17003KT 15SM FEW150 M18/M20 A3032 RMK AC2 SLP347

CYQF;2015-02-22 15:00;CYQF 221500Z 19007KT 15SM FEW150 SCT250 M18/M20 A3031 RMK AC2CI2 SLP344

CYQF;2015-02-22 16:00;CYQF 221600Z 17004KT 15SM FEW150 BKN250 M17/M19 A3032 RMK AC1CI5 SLP352

CYQF;2015-02-22 17:00;CYQF 221700Z 20006KT 15SM BKN250 M14/M17 A3031 RMK CI6 SLP345

CYQF;2015-02-22 18:00;CYQF 221800Z 19006KT 15SM BKN250 M12/M14 A3031 RMK CI5 SLP343

CYQF;2015-02-22 19:00;CYQF 221900Z 20005KT 15SM FEW250 M09/M14 A3029 RMK CI2 SLP330

CYQF;2015-02-22 20:00;CYQF 222000Z 19007KT 15SM FEW250 M07/M13 A3027 RMK CI2 SLP323

CYQF;2015-02-22 21:00;CYQF 222100Z 19005KT 15SM FEW250 M06/M12 A3025 RMK CI2 SLP316

CYQF;2015-02-22 22:00;CYQF 222200Z 18007KT 15SM FEW250 M04/M11 A3024 RMK CI2 SLP307

CYQF;2015-02-22 23:00;CYQF 222300Z 18007KT 15SM BKN250 M04/M11 A3022 RMK CI5 SLP301

CYQF;2015-02-23 00:00;CYQF 230000Z 18008KT 15SM BKN250 M04/M11 A3020 RMK CI6 SLP295

CYQF;2015-02-23 01:00;CYQF 230100Z 18008KT 15SM BKN250 M05/M11 A3017 RMK CI6 SLP288

CYQF;2015-02-23 02:00;CYQF 230200Z 19008KT 15SM FEW250 M07/M11 A3016 RMK CI2 SLP283

CYQF;2015-02-23 03:00;CYQF 230300Z 19007KT 15SM FEW250 M07/M10 A3014 RMK CI2 SLP275

CYQF;2015-02-23 04:00;CYQF 230400Z 19007KT 15SM SKC M07/M10 A3010 RMK SLP263

CYQF;2015-02-23 05:00;CYQF 230500Z 20006KT 15SM FEW250 M06/M10 A3009 RMK CI1 SLP255

CYQF;2015-02-23 06:00;CYQF 230600Z 20008KT 15SM BKN096 OVC120 M05/M10 A3008 RMK AC7AC1 SLP246

CYQF;2015-02-23 07:00;CYQF 230700Z 22008KT 15SM SCT082 BKN120 BKN160 M05/M10 A3007 RMK AC4AC2AC1 SLP239

CYQF;2015-02-23 08:00;CYQF 230800Z 23008KT 15SM SCT077 BKN180 M04/M09 A3007 RMK AC4AC3 SLP236

CYQF;2015-02-23 09:00;CYQF 230900Z 27009KT 15SM BKN130 M01/M06 A3006 RMK AC7 SLP230

CYQF;2015-02-23 10:00;CYQF 231000Z 29013KT 15SM FEW130 01/M07 A3007 RMK AC2 SLP228

CYQF;2015-02-23 11:00;CYQF 231100Z 30010KT 15SM SCT170 BKN220 01/M06 A3008 RMK AC4CI3 SLP231

CYQF;2015-02-23 12:00;CYQF 231200Z 30011G16KT 15SM OVC240 01/M04 A3009 RMK CI8 SLP234

CYQF;2015-02-23 13:00;CYQF 231300Z 30012G19KT 15SM SKC 02/M03 A3010 RMK SLP238

CYQF;2015-02-23 14:00;CYQF 231400Z 31014G22KT 15SM BKN100 04/M03 A3011 RMK AC5 SLP242

CYQF;2015-02-23 15:00;CYQF 231500Z 31010KT 15SM BKN110 04/M02 A3013 RMK AC5 SLP248

CYQF;2015-02-23 16:00;CYQF 231600Z 32011KT 15SM BKN095 05/M02 A3014 RMK AC6 SLP252

CYQF;2015-02-23 17:00;CYQF 231700Z 31008KT 15SM BKN110 04/M02 A3015 RMK AC7 SLP254

CYQF;2015-02-23 18:00;CYQF 231800Z 30009KT 15SM SCT070 BKN110 05/M02 A3015 RMK AC4AC3 SLP251

CYQF;2015-02-23 19:00;CYQF 231900Z 29011KT 15SM SCT060 BKN110 06/M02 A3014 RMK SC4AC3 SLP250

CYQF;2015-02-23 20:00;CYQF 232000Z 29011KT 15SM BKN060 BKN110 06/M01 A3013 RMK SC5AC1 SLP240

CYQF;2015-02-23 21:00;CYQF 232100Z 30008KT 15SM BKN060 06/M01 A3011 RMK SC6 SLP233

CYQF;2015-02-23 22:00;CYQF 232200Z 29006KT 15SM FEW060 07/M01 A3008 RMK SC1 SC TR SLP219

CYQF;2015-02-23 23:00;CYQF 232300Z 23004KT 15SM FEW060 FEW250 08/M00 A3007 RMK SC1CI1 SC TR CONTRAILS SLP216

CYQF;2015-02-24 00:00;CYQF 240000Z 14003KT 15SM FEW060 FEW250 05/M00 A3007 RMK SC1CI2 SC TR SLP216

CYQF;2015-02-24 01:00;CYQF 240100Z 17004KT 15SM FEW100 BKN250 05/M00 A3005 RMK AC1CI4 SLP210

CYQF;2015-02-24 02:00;CYQF 240200Z 17004KT 15SM BKN070 BKN250 04/M00 A3005 RMK AC5CI2 SLP207

CYQF;2015-02-24 03:00;CYQF 240300Z 20002KT 15SM FEW070 BKN250 03/M01 A3004 RMK AC1CI4 SLP205

CYQF;2015-02-24 04:00;CYQF 240400Z 20007KT 15SM FEW220 01/M02 A3004 RMK CI2 SLP206

CYQF;2015-02-24 05:00;CYQF 240500Z 21003KT 15SM SCT200 00/M03 A3002 RMK CI4 SLP203

CYQF;2015-02-24 06:00;CYQF 240600Z 18002KT 15SM BKN098 00/M02 A3000 RMK AC7 SLP195

CYQF;2015-02-24 07:00;CYQF 240700Z 22006KT 15SM BKN200 01/M01 A2998 RMK CI7 SLP184

CYQF;2015-02-24 08:00;CYQF 240800Z 21003KT 15SM BKN160 BKN220 00/M01 A2996 RMK AC5CI2 SLP178

CYQF;2015-02-24 09:00;CYQF 240900Z 19004KT 15SM BKN140 BKN200 00/M01 A2994 RMK AC5CI2 SLP170

CYQF;2015-02-24 10:00;CYQF 241000Z VRB03KT 15SM BKN150 00/M02 A2992 RMK AC7 SLP162

CYQF;2015-02-24 11:00;CYQF 241100Z 20004KT 15SM OVC220 M02/M03 A2988 RMK CI8 SLP152

CYQF;2015-02-24 12:00;CYQF 241200Z 21005KT 15SM OVC240 M02/M04 A2986 RMK CI8 SLP147

CYQF;2015-02-24 13:00;CYQF 241300Z 20004KT 15SM OVC230 M01/M04 A2984 RMK CI8 SLP139

CYQF;2015-02-24 14:00;CYQF 241400Z 22002KT 15SM BKN120 BKN220 M02/M04 A2983 RMK AC5CI2 SLP139

CYQF;2015-02-24 15:00;CYQF 241500Z 20006KT 15SM BKN120 BKN220 M02/M04 A2983 RMK AC6CI1 SLP140

CYQF;2015-02-24 16:00;CYQF 241600Z 24004KT 15SM BKN120 BKN220 00/M02 A2985 RMK AC5CI2 SLP145

CYQF;2015-02-24 17:00;CYQF 241700Z 32009KT 15SM SCT120 BKN200 06/M03 A2984 RMK AC4CI3 SLP136

CYQF;2015-02-24 18:00;CYQF 241800Z 31008KT 15SM BKN110 BKN200 06/M04 A2983 RMK AC5CI2 SLP133

CYQF;2015-02-24 19:00;CYQF 241900Z 32011KT 15SM FEW030 BKN170 BKN240 06/M05 A2983 RMK CU1AC5CI2 CU TR SLP131

CYQF;2015-02-24 20:00;CYQF 242000Z 34018G26KT 15SM FEW040 SCT110 BKN200 06/M06 A2983 RMK CU1AC3CI4 CU TR SLP132

CYQF;2015-02-24 21:00;CYQF 242100Z 35013G18KT 15SM SCT110 BKN200 05/M04 A2982 RMK AC4CI3 SLP131

CYQF;2015-02-24 22:00;CYQF 242200Z 34013G19KT 15SM BKN120 BKN200 05/M04 A2984 RMK AC5CI2 SLP139

CYQF;2015-02-24 23:00;CYQF 242300Z 34010G17KT 15SM BKN130 BKN210 04/M03 A2986 RMK AC5CI2 SLP146

CYQF;2015-02-25 00:00;CYQF 250000Z 35012G17KT 15SM BKN130 BKN210 04/M03 A2988 RMK AC6CI1 SLP155

CYQF;2015-02-25 01:00;CYQF 250100Z 33017KT 15SM SCT080 BKN130 BKN210 03/M03 A2991 RMK AC3AC3CI1 SLP168

CYQF;2015-02-25 02:00;CYQF 250200Z 32015G20KT 15SM SCT060 BKN130 OVC210 02/M03 A2994 RMK SC3AC3CI2 SLP177

CYQF;2015-02-25 03:00;CYQF 250300Z 33009G15KT 15SM FEW054 SCT250 01/M03 A2995 RMK SC2CI1 SLP182

CYQF;2015-02-25 04:00;CYQF 250400Z 33018G26KT 15SM BKN026 01/M03 A2997 RMK SC6 SLP188

CYQF;2015-02-25 04:09;CYQF 250409Z 33018G30KT 8SM -SN BKN024 OVC040 01/M02 A2997 RMK SC5SC3 SLP190

CYQF;2015-02-25 04:46;CYQF 250446Z 32010G20KT 15SM SCT024 BKN045 00/M02 A2998 RMK SC3SC2 SLP191

CYQF;2015-02-25 05:00;CYQF 250500Z 32013KT 15SM FEW024 SCT045 01/M02 A2997 RMK SC2SC2 SLP184

CYQF;2015-02-25 06:04;CYQF 250604Z 30023G28KT 1 1/2SM -SHSN OVC024 01/M02 A2999 RMK SC8 SLP190

CYQF;2015-02-25 06:08;CYQF 250608Z 32026G33KT 1/8SM -SHSN VV009 01/M02 A3000 RMK SN8 SLP191

CYQF;2015-02-25 06:12;CYQF 250612Z 01032G39KT 290V020 3/4SM -SN BLSN VV030 M02/M04 A3002 RMK SN8 FROPA PRESRR SLP202

CYQF;2015-02-25 06:26;CYQF 250626Z 36019G29KT 1 1/2SM -SN VV043 M03/M05 A3006 RMK SN8 PRESRR SLP217

CYQF;2015-02-25 07:00;CYQF 250700Z 36023G32KT 3SM -SN OVC027 M04/M07 A3010 RMK SC8 PRESRR SLP231

CYQF;2015-02-25 08:00;CYQF 250800Z 01022G28KT 15SM -SN OVC024 M06/M09 A3017 RMK SC8 PRESRR SLP260

CYQF;2015-02-25 08:24;CYQF 250824Z 36019G27KT 2SM -SN OVC031 M07/M10 A3020 RMK SC8 PRESRR SLP270

CYQF;2015-02-25 08:41;CYQF 250841Z 01020G26KT 1SM -SN BKN012 OVC028 M08/M10 A3022 RMK SC5SC3 PRESRR SLP276

CYQF;2015-02-25 09:00;CYQF 250900Z 01020KT 2SM -SN SCT012 OVC026 M08/M10 A3023 RMK SC3SC5 VIS VRB 1-3 SLP281

CYQF;2015-02-25 10:00;CYQF 251000Z 36015G22KT 3SM -SN OVC016 M10/M13 A3029 RMK SC8 SLP305

CYQF;2015-02-25 11:00;CYQF 251100Z 02017G25KT 15SM -SN OVC023 M10/M14 A3030 RMK SC8 SLP312

CYQF;2015-02-25 12:00;CYQF 251200Z 02010G16KT 8SM -SN OVC027 M11/M14 A3034 RMK SC8 SLP327

CYQF;2015-02-25 12:14;CYQF 251214Z 02013KT 1 1/4SM -SN VV011 M11/M14 A3034 RMK SN8 SLP328

CYQF;2015-02-25 12:33;CYQF 251233Z 01009KT 3SM -SN VV052 M12/M14 A3035 RMK SN8 SLP330

CYQF;2015-02-25 13:00;CYQF 251300Z 01009KT 2SM -SN VV025 M12/M14 A3036 RMK SN8 VIS VRB 1-3 SLP335

CYQF;2015-02-25 14:00;CYQF 251400Z 36008KT 2SM -SN VV027 M12/M15 A3038 RMK SN8 SLP343

CYQF;2015-02-25 15:00;CYQF 251500Z 36007KT 3SM -SN OVC075 M13/M15 A3039 RMK SN3AC5 SLP350

CYQF;2015-02-25 16:00;CYQF 251600Z 02006KT 3SM -SN BKN050 OVC075 M13/M15 A3043 RMK SC6AC2 /S01/ SLP360

CYQF;2015-02-25 16:32;CYQF 251632Z 03005KT 2SM -SN OVC034 M12/M15 A3043 RMK SN3SC5 SLP361

CYQF;2015-02-25 17:00;CYQF 251700Z 06006KT 2SM -SN FEW015 OVC063 M12/M15 A3043 RMK SN1SC1SC6 SLP363

CYQF;2015-02-25 17:19;CYQF 251719Z 07006KT 4SM -SN SCT020 OVC064 M12/M15 A3044 RMK SC3SC5 SLP366

CYQF;2015-02-25 18:00;CYQF 251800Z 08003KT 050V110 8SM -SN SCT016 BKN070 OVC220 M12/M15 A3045 RMK SC3AC4CI1 SLP370

CYQF;2015-02-25 19:00;CYQF 251900Z 08005KT 3SM -SN FEW015 BKN031 OVC120 M12/M16 A3046 RMK SC2SC5AC1 SLP377

CYQF;2015-02-25 20:00;CYQF 252000Z 06004KT 3SM -SN FEW015 BKN045 OVC120 M11/M16 A3045 RMK SC2SC5AC1 SLP377

CYQF;2015-02-25 20:37;CYQF 252037Z 07005KT 2SM -SN SCT015 OVC045 M11/M15 A3045 RMK SN2SC2SC4 SLP376

CYQF;2015-02-25 21:00;CYQF 252100Z 06005KT 2SM -SN SCT015 OVC041 M11/M15 A3045 RMK SN2SC2SC4 SLP378

CYQF;2015-02-25 21:48;CYQF 252148Z 06005KT 3SM -SN BKN040 BKN080 M11/M15 A3045 RMK SN1SC5AC1 SLP378

CYQF;2015-02-25 22:00;CYQF 252200Z 08005KT 3SM -SN BKN040 BKN080 M11/M15 A3045 RMK SN1SC4AC2 SLP379

CYQF;2015-02-25 23:00;CYQF 252300Z 08006KT 6SM -SN SCT024 BKN080 OVC230 M11/M14 A3045 RMK SC4AC3CI1 SLP380

CYQF;2015-02-26 00:00;CYQF 260000Z 08008KT 8SM -SN BKN020 BKN230 M11/M15 A3045 RMK SC5CI2 SLP380

CYQF;2015-02-26 00:44;CYQF 260044Z 08006KT 15SM FEW020 SCT120 BKN230 M13/M16 A3045 RMK SC2AC2CI1 SLP384

CYQF;2015-02-26 01:00;CYQF 260100Z 09006KT 15SM FEW020 BKN120 M13/M16 A3045 RMK SC2AC3 SLP386

CYQF;2015-02-26 02:00;CYQF 260200Z 10007KT 15SM FEW020 SCT120 M13/M16 A3047 RMK SC2AC2 SLP392

CYQF;2015-02-26 03:00;CYQF 260300Z 09005KT 15SM FEW017 SCT100 M15/M18 A3046 RMK SC2AC1 SLP393

CYQF;2015-02-26 04:00;CYQF 260400Z 09004KT 15SM FEW015 SCT110 M16/M18 A3045 RMK SC1AC2 SLP391

CYQF;2015-02-26 05:00;CYQF 260500Z 14006KT 15SM FEW015 FEW110 M16/M19 A3045 RMK SC1AC1 SLP391

CYQF;2015-02-26 06:00;CYQF 260600Z 16003KT 15SM FEW110 M17/M20 A3045 RMK AC1 SLP389

CYQF;2015-02-26 07:00;CYQF 260700Z /////KT 15SM SKC M17/M21 A3044 RMK WIND 110008 SLP387

CYQF;2015-02-26 08:00;CYQF 260800Z 15008KT 15SM FEW100 M17/M21 A3043 RMK AC1 SLP382

CYQF;2015-02-26 09:00;CYQF 260900Z 16007KT 15SM SKC M17/M21 A3041 RMK SLP377

CYQF;2015-02-26 10:00;CYQF 261000Z 14005KT 15SM SKC M18/M21 A3040 RMK SLP371

CYQF;2015-02-26 11:00;CYQF 261100Z 17008KT 15SM SKC M18/M21 A3038 RMK SLP364

CYQF;2015-02-26 12:00;CYQF 261200Z 17013KT 15SM SKC M17/M20 A3035 RMK SLP356

CYQF;2015-02-26 13:00;CYQF 261300Z 16010KT 15SM SKC M17/M19 A3034 RMK SLP353

CYQF;2015-02-26 13:31;CYQF 261331Z 17007KT 12SM IC FEW100 M17/M19 A3033 RMK AC1 AC TR SLP349

CYQF;2015-02-26 14:00;CYQF 261400Z 17011KT 10SM IC FEW100 M17/M19 A3032 RMK AC1 AC TR VIS S 5 SLP347

CYQF;2015-02-26 14:45;CYQF 261445Z 16012KT 2SM IC FEW100 M17/M19 A3031 RMK AC1 SLP342

CYQF;2015-02-26 15:00;CYQF 261500Z 17014KT 2SM IC FEW100 M17/M19 A3031 RMK AC1 VIS VRB 1-3 SLP343

CYQF;2015-02-26 15:09;CYQF 261509Z 16014KT 2SM IC BR SCT005 M17/M19 A3030 RMK SC4 VIS VRB 1-3 SLP342

CYQF;2015-02-26 16:00;CYQF 261600Z 18015G21KT 2 1/2SM IC BR DRSN FEW005 M15/M18 A3029 RMK SC1 SLP336

CYQF;2015-02-26 16:05;CYQF 261605Z 17018G23KT 3SM IC BR DRSN SKC M15/M18 A3028 RMK SLP335

CYQF;2015-02-26 17:00;CYQF 261700Z 17018G25KT 6SM IC DRSN SKC M14/M17 A3026 RMK SLP325

CYQF;2015-02-26 18:00;CYQF 261800Z 17016KT 6SM IC DRSN FEW250 M13/M16 A3025 RMK CI1 CI TR SLP321

CYQF;2015-02-26 19:00;CYQF 261900Z 16016KT 6SM IC DRSN FEW250 M11/M14 A3023 RMK CI1 SLP312

CYQF;2015-02-26 19:06;CYQF 261906Z 16016KT 6SM IC DRSN FEW008 FEW250 M11/M14 A3023 RMK SF1CI1 SF TR SLP311

CYQF;2015-02-26 20:00;CYQF 262000Z 16018KT 8SM IC DRSN SCT250 M10/M14 A3020 RMK CI4 SLP301

CYQF;2015-02-26 20:08;CYQF 262008Z 17018KT 8SM DRSN SCT250 M10/M14 A3019 RMK CI4 SLP299

CYQF;2015-02-26 21:00;CYQF 262100Z 17016G22KT 15SM DRSN BKN250 M09/M13 A3016 RMK CI5 SLP288

CYQF;2015-02-26 22:00;CYQF 262200Z 16016G23KT 15SM DRSN BKN250 M09/M13 A3014 RMK CI5 SLP277

CYQF;2015-02-26 23:00;CYQF 262300Z 17018KT 15SM DRSN BKN250 M08/M13 A3012 RMK CI5 SLP271

CYQF;2015-02-27 00:00;CYQF 270000Z 17016KT 15SM BKN250 M09/M13 A3010 RMK CI7 SLP265

CYQF;2015-02-27 01:00;CYQF 270100Z 17009KT 15SM BKN250 M10/M13 A3009 RMK CI7 SLP260

CYQF;2015-02-27 02:00;CYQF 270200Z 17008KT 15SM BKN250 M11/M14 A3008 RMK CI6 SLP259

CYQF;2015-02-27 03:00;CYQF 270300Z 13004KT 15SM BKN220 M11/M14 A3007 RMK CS6 SLP257

CYQF;2015-02-27 04:00;CYQF 270400Z 13003KT 15SM BKN200 M12/M15 A3006 RMK CS6 SLP252

CYQF;2015-02-27 05:00;CYQF 270500Z 05002KT 15SM BKN200 M14/M15 A3005 RMK CI6 SLP248

CYQF;2015-02-27 06:00;CYQF 270600Z 33003KT 15SM BKN200 M13/M15 A3005 RMK CI5 SLP247

CYQF;2015-02-27 07:00;CYQF 270700Z 32005KT 15SM OVC088 M14/M15 A3005 RMK AC8 SLP245

CYQF;2015-02-27 08:00;CYQF 270800Z 32005KT 15SM OVC094 M13/M14 A3006 RMK AC8 SLP245

CYQF;2015-02-27 09:00;CYQF 270900Z 35007KT 15SM BKN096 BKN140 M12/M14 A3006 RMK AC5AC1 SLP247

CYQF;2015-02-27 10:00;CYQF 271000Z 33012KT 15SM OVC091 M11/M15 A3007 RMK AC8 SLP247

CYQF;2015-02-27 11:00;CYQF 271100Z 34007KT 15SM OVC089 M12/M15 A3007 RMK AC8 SLP249

CYQF;2015-02-27 12:00;CYQF 271200Z 33005KT 12SM -SN OVC025 M11/M15 A3008 RMK SC8 SLP251

CYQF;2015-02-27 12:13;CYQF 271213Z 34009KT 2 1/2SM -SN VV051 M11/M14 A3008 RMK SN8 SLP252

CYQF;2015-02-27 12:27;CYQF 271227Z 35007KT 3SM -SN VV028 M11/M14 A3008 RMK SN8 SLP252

CYQF;2015-02-27 13:00;CYQF 271300Z 32007KT 2 1/2SM -SN VV033 M11/M14 A3009 RMK SN8 VIS VRB 2-3 SLP254

CYQF;2015-02-27 14:00;CYQF 271400Z 33006KT 5SM -SN OVC060 M11/M13 A3008 RMK SC8 SLP254

CYQF;2015-02-27 15:00;CYQF 271500Z 34010KT 3SM -SN DRSN BKN030 OVC070 M11/M14 A3010 RMK SN4SC1AC3 VIS VRB 2-4 SLP261

CYQF;2015-02-27 16:00;CYQF 271600Z 34008KT 3SM -SN DRSN BKN070 BKN250 M12/M14 A3011 RMK SN2AC4CI1 SLP267

CYQF;2015-02-27 16:21;CYQF 271621Z 34008KT 6SM IC FEW070 BKN250 M11/M14 A3012 RMK AC2CI5 SLP267

CYQF;2015-02-27 17:00;CYQF 271700Z 35009KT 6SM IC DRSN SCT050 BKN250 M11/M14 A3013 RMK SC4CI3 SLP272

CYQF;2015-02-27 18:00;CYQF 271800Z 34012KT 8SM IC DRSN FEW020 SCT070 OVC250 M11/M14 A3014 RMK SC1AC3CI5 SC TR SLP276

CYQF;2015-02-27 19:00;CYQF 271900Z 35010KT 6SM IC DRSN SCT070 OVC250 M10/M14 A3015 RMK IC2AC2CI4 SLP279

CYQF;2015-02-27 20:00;CYQF 272000Z 35009KT 6SM IC DRSN SCT070 OVC250 M10/M14 A3014 RMK IC2AC1CI5 SLP274

CYQF;2015-02-27 21:00;CYQF 272100Z 35008KT 6SM IC DRSN FEW016 OVC080 M09/M13 A3013 RMK CU1AC7 SLP269

CYQF;2015-02-27 22:00;CYQF 272200Z 35009KT 10SM IC DRSN FEW027 BKN080 BKN250 M09/M14 A3013 RMK CU1AC4CI1 SLP267

CYQF;2015-02-27 22:49;CYQF 272249Z 35008KT 10SM -SN DRSN OVC024 M09/M13 A3013 RMK SC8 SLP268

CYQF;2015-02-27 23:00;CYQF 272300Z 36009KT 10SM -SN DRSN OVC024 M09/M13 A3013 RMK SC8 SLP268

CYQF;2015-02-28 00:00;CYQF 280000Z 35009KT 10SM -SN OVC024 M09/M13 A3014 RMK SC8 SLP270

CYQF;2015-02-28 00:39;CYQF 280039Z 01007KT 15SM SCT024 BKN230 M09/M14 A3014 RMK SC3CI2 SLP271

CYQF;2015-02-28 01:00;CYQF 280100Z 01008KT 15SM SCT024 BKN230 M11/M14 A3014 RMK SC3CI2 SLP273

CYQF;2015-02-28 02:00;CYQF 280200Z 36003KT 15SM BKN032 M12/M15 A3015 RMK SC6 SLP279

CYQF;2015-02-28 03:00;CYQF 280300Z 00000KT 15SM SCT032 SCT130 M11/M15 A3015 RMK SC3AC1 SLP277

CYQF;2015-02-28 04:00;CYQF 280400Z 29004KT 15SM FEW032 SCT130 SCT240 M12/M15 A3015 RMK SC2AC1CI1 SLP281

CYQF;2015-02-28 05:00;CYQF 280500Z 26007KT 15SM FEW032 SCT130 SCT240 M13/M16 A3016 RMK SC2AC1CI1 SLP283

CYQF;2015-02-28 06:00;CYQF 280600Z 25007KT 15SM SKC M13/M15 A3015 RMK SLP280

CYQF;2015-02-28 07:00;CYQF 280700Z 26006KT 15SM SKC M14/M16 A3015 RMK SLP282

CYQF;2015-02-28 08:00;CYQF 280800Z 23002KT 15SM SKC M16/M18 A3015 RMK SLP282

CYQF;2015-02-28 09:00;CYQF 280900Z 19004KT 15SM SKC M19/M21 A3015 RMK FROIN SLP286

CYQF;2015-02-28 10:00;CYQF 281000Z 22003KT 15SM SKC M19/M21 A3014 RMK FROIN SLP281

CYQF;2015-02-28 11:00;CYQF 281100Z 19005KT 15SM SCT180 M19/M21 A3014 RMK AC3 SLP282

CYQF;2015-02-28 12:00;CYQF 281200Z 20004KT 15SM SCT140 M18/M21 A3014 RMK AC3 FROIN SLP279

CYQF;2015-02-28 13:00;CYQF 281300Z 22003KT 160V240 15SM BKN150 M17/M19 A3013 RMK AC6 FROIN SLP276

CYQF;2015-02-28 14:00;CYQF 281400Z 27008KT 15SM OVC120 M14/M17 A3013 RMK AC8 SLP275

CYQF;2015-02-28 15:00;CYQF 281500Z 26004KT 15SM OVC110 M13/M16 A3013 RMK AS8 SLP274

CYQF;2015-02-28 16:00;CYQF 281600Z 28007KT 15SM SCT090 BKN230 M12/M16 A3014 RMK AC4CI3 SLP274

CYQF;2015-02-28 17:00;CYQF 281700Z 29011KT 15SM SCT090 BKN250 M10/M15 A3014 RMK AC4CI3 SLP274

CYQF;2015-02-28 18:00;CYQF 281800Z 30009KT 15SM SCT080 BKN250 M09/M14 A3014 RMK AC4CI3 SLP274

CYQF;2015-02-28 19:00;CYQF 281900Z 30008KT 15SM FEW080 BKN250 M08/M14 A3014 RMK AC2CI4 SLP274

CYQF;2015-02-28 20:00;CYQF 282000Z 29006KT 15SM FEW030 FEW080 SCT250 M06/M13 A3014 RMK CF1AC1CI2 CF TR SLP272

CYQF;2015-02-28 21:00;CYQF 282100Z 33016G21KT 15SM DRSN BKN030 BKN250 M04/M10 A3013 RMK SC5CI1 SLP270

CYQF;2015-02-28 22:00;CYQF 282200Z 33012G21KT 15SM DRSN FEW025 SCT250 M04/M10 A3012 RMK SC2CI1 SLP267

CYQF;2015-02-28 23:00;CYQF 282300Z 34013KT 15SM BKN050 M03/M10 A3013 RMK SC5 SLP270

CYQF;2015-03-01 00:00;CYQF 010000Z 34010KT 15SM FEW050 M04/M11 A3014 RMK SC2 SLP272

CYQF;2015-03-01 01:00;CYQF 010100Z 34011KT 15SM FEW050 M04/M12 A3014 RMK SC1 SLP275

CYQF;2015-03-01 02:00;CYQF 010200Z 32008KT 15SM FEW050 M06/M12 A3016 RMK SC1 SLP279

CYQF;2015-03-01 03:00;CYQF 010300Z 33008KT 15SM SKC M07/M13 A3017 RMK SLP281

CYQF;2015-03-01 04:00;CYQF 010400Z 34004KT 15SM SKC M07/M13 A3017 RMK SLP282

CYQF;2015-03-01 05:00;CYQF 010500Z 26003KT 240V320 15SM SKC M10/M14 A3019 RMK SLP288

CYQF;2015-03-01 06:00;CYQF 010600Z 26004KT 15SM SKC M09/M14 A3020 RMK SLP289

CYQF;2015-03-01 07:00;CYQF 010700Z 27006KT 15SM SKC M10/M14 A3019 RMK SLP288

CYQF;2015-03-01 08:00;CYQF 010800Z 28007KT 15SM SKC M10/M14 A3020 RMK SLP286

CYQF;2015-03-01 09:00;CYQF 010900Z 22003KT 190V260 15SM SKC M15/M18 A3020 RMK SLP291

CYQF;2015-03-01 10:00;CYQF 011000Z 19005KT 15SM FEW250 M16/M18 A3020 RMK CI2 SLP292

CYQF;2015-03-01 11:00;CYQF 011100Z 21004KT 15SM FEW250 M16/M18 A3018 RMK CI1 SLP285

CYQF;2015-03-01 12:00;CYQF 011200Z 21004KT 15SM SKC M17/M19 A3016 RMK SLP281

CYQF;2015-03-01 13:00;CYQF 011300Z 20006KT 15SM SKC M17/M18 A3015 RMK SLP278

CYQF;2015-03-01 14:00;CYQF 011400Z 21003KT 15SM SKC M17/M19 A3014 RMK SLP275

CYQF;2015-03-01 15:00;CYQF 011500Z 18003KT 15SM FEW250 M18/M20 A3012 RMK CI2 SLP271

CYQF;2015-03-01 16:00;CYQF 011600Z 20004KT 15SM SCT250 M16/M18 A3011 RMK CI3 SLP266

CYQF;2015-03-01 17:00;CYQF 011700Z 18003KT 15SM SCT250 M13/M15 A3008 RMK CI3 SLP255

CYQF;2015-03-01 18:00;CYQF 011800Z 17013KT 15SM FEW250 M07/M12 A3006 RMK CI2 SLP239

CYQF;2015-03-01 19:00;CYQF 011900Z 17011KT 15SM FEW250 M05/M11 A3003 RMK CI2 SLP229

CYQF;2015-03-01 20:00;CYQF 012000Z 17012KT 15SM FEW250 M04/M09 A3000 RMK CI2 SLP214

CYQF;2015-03-01 21:00;CYQF 012100Z 16013G20KT 15SM SCT250 M02/M08 A2995 RMK CI3 SLP201

CYQF;2015-03-01 22:00;CYQF 012200Z 16017KT 15SM FEW250 M01/M09 A2991 RMK CI2 SLP190

CYQF;2015-03-01 23:00;CYQF 012300Z 16015KT 15SM FEW250 M01/M08 A2988 RMK CI2 SLP177

CYQF;2015-03-02 00:00;CYQF 020000Z 17011KT 15SM FEW250 M01/M08 A2985 RMK CI1 SLP167

CYQF;2015-03-02 01:00;CYQF 020100Z 16011KT 15SM FEW250 M02/M09 A2982 RMK CI1 CI TR SLP159

CYQF;2015-03-02 02:00;CYQF 020200Z 17006KT 15SM FEW250 M04/M10 A2980 RMK CI1 CI TR SLP156

CYQF;2015-03-02 03:00;CYQF 020300Z 17003KT 15SM SKC M05/M10 A2979 RMK SLP153

CYQF;2015-03-02 04:00;CYQF 020400Z 17005KT 15SM SKC M07/M10 A2977 RMK SLP147

CYQF;2015-03-02 05:00;CYQF 020500Z VRB02KT 15SM BKN080 M07/M11 A2978 RMK AC5 SLP145

CYQF;2015-03-02 06:00;CYQF 020600Z 32005KT 260V330 15SM BKN080 M08/M11 A2978 RMK AC5 SLP142

CYQF;2015-03-02 07:00;CYQF 020700Z 27006KT 15SM OVC060 M07/M10 A2979 RMK SC8 SLP140

CYQF;2015-03-02 08:00;CYQF 020800Z 30010KT 15SM OVC065 M04/M08 A2980 RMK SC8 SLP140

CYQF;2015-03-02 09:00;CYQF 020900Z 32010KT 15SM OVC054 M02/M08 A2981 RMK SC8 SLP139

CYQF;2015-03-02 10:00;CYQF 021000Z 32015KT 15SM OVC100 M02/M09 A2982 RMK AC8 SLP141

CYQF;2015-03-02 11:00;CYQF 021100Z 33014G20KT 15SM BKN021 OVC043 M02/M07 A2984 RMK SC5SC3 SLP146

CYQF;2015-03-02 11:05;CYQF 021105Z 32015G22KT 10SM -SN SCT025 OVC042 M02/M06 A2984 RMK SC3SC5 SLP147

CYQF;2015-03-02 12:00;CYQF 021200Z 32018G25KT 6SM -SN DRSN OVC025 M03/M05 A2986 RMK SN2SC6 SLP154

CYQF;2015-03-02 12:41;CYQF 021241Z 33023G29KT 1SM -SN BLSN OVC032 M04/M06 A2988 RMK SN4SC4 SLP163

CYQF;2015-03-02 12:49;CYQF 021249Z 33023G29KT 4SM -SN DRSN OVC035 M04/M07 A2989 RMK SC8 SLP166

CYQF;2015-03-02 13:00;CYQF 021300Z 33023G31KT 10SM -SN DRSN OVC045 M04/M07 A2989 RMK SC8 SLP170

CYQF;2015-03-02 13:27;CYQF 021327Z 35019G26KT 1SM -SN DRSN OVC025 M05/M07 A2992 RMK SN4SC4 OCNL BLSN PRESRR SLP181

CYQF;2015-03-02 14:00;CYQF 021400Z 34021G26KT 1 1/2SM -SN DRSN OVC015 M06/M08 A2995 RMK SN3SC5 OCNL BLSN SLP193

CYQF;2015-03-02 14:11;CYQF 021411Z 35025G31KT 1/4SM SN BLSN VV011 M06/M08 A2996 RMK SN8 PRESRR SLP198

CYQF;2015-03-02 14:15;CYQF 021415Z 35019G32KT 1/2SM SN BLSN OVC030 M07/M08 A2997 RMK SN5SC3 VIS VRB 1/4-3/4 PRESRR SLP201

CYQF;2015-03-02 14:35;CYQF 021435Z 35017G26KT 8SM -SN BLSN FEW030 BKN140 M07/M10 A2998 RMK SC2AC5 OCNL BS SLP207

CYQF;2015-03-02 15:00;CYQF 021500Z 35016G24KT 8SM -SN SCT030 BKN140 M07/M11 A3000 RMK SC3AC4 OCNL BS SLP214

CYQF;2015-03-02 16:00;CYQF 021600Z 34014G24KT 10SM -SN DRSN FEW030 SCT140 BKN250 M07/M11 A3004 RMK SC1AC3CI3 SLP229

CYQF;2015-03-02 17:00;CYQF 021700Z 31017G22KT 8SM -SN DRSN BKN030 OVC080 M07/M10 A3005 RMK SC6AC2 SLP231

CYQF;2015-03-02 18:00;CYQF 021800Z CCA 33024G30KT 10SM -SN DRSN SCT030 BKN080 M06/M11 A3005 RMK SC4AC3 SLP234

CYQF;2015-03-02 18:09;CYQF 021809Z 33025G32KT 1SM -SN DRSN SCT030 BKN080 M06/M10 A3006 RMK SC4AC3 SLP237

CYQF;2015-03-02 18:12;CYQF 021812Z 33025G32KT 12SM DRSN SCT020 BKN080 M07/M10 A3006 RMK CU4AC2 VIS S 1 SLP237

CYQF;2015-03-02 19:00;CYQF 021900Z 35018G30KT 3SM -SHSN DRSN BKN032 M07/M11 A3008 RMK CU7 VIS NE-SE 3/4 SLP242

CYQF;2015-03-02 19:13;CYQF 021913Z 36015G22KT 2SM -SHSN DRSN OVC030 M07/M10 A3008 RMK SN2CU6 VIS VRB 1-3 SLP242

CYQF;2015-03-02 19:44;CYQF 021944Z 34022G33KT 6SM -SHSN DRSN BKN030 M07/M12 A3009 RMK SN2CU5 OCNL BS SLP247

CYQF;2015-03-02 20:00;CYQF 022000Z 35019G28KT 8SM -SHSN DRSN BKN030 M07/M12 A3010 RMK SN1CU6 OCNL BS SLP245

CYQF;2015-03-02 20:19;CYQF 022019Z 34027G35KT 2SM -SHSN DRSN OVC030 M08/M12 A3010 RMK CU8 VIS NE-SE 1/2 SLP248

CYQF;2015-03-02 20:25;CYQF 022025Z 34026G35KT 12SM DRSN BKN030 M08/M13 A3010 RMK CU6 VIS NE-SE-S 2 SLP249

CYQF;2015-03-02 21:00;CYQF 022100Z 34024G32KT 15SM DRSN FEW030 FEW250 M08/M16 A3011 RMK CU1CI1 SLP248

CYQF;2015-03-02 22:00;CYQF 022200Z 35023KT 15SM FEW030 M08/M17 A3011 RMK CU1 SLP250

CYQF;2015-03-02 23:00;CYQF 022300Z 35021G28KT 15SM DRSN VCSH FEW030 BKN250 M10/M18 A3014 RMK CU2CI5 SLP261

CYQF;2015-03-03 00:00;CYQF 030000Z 35015KT 15SM DRSN VCSH FEW030 FEW250 M10/M19 A3015 RMK CU1CI1 CI TR SLP268

CYQF;2015-03-03 01:00;CYQF 030100Z 35014G22KT 15SM DRSN FEW030 M11/M19 A3017 RMK SC1 SLP276

CYQF;2015-03-03 02:00;CYQF 030200Z 34018G24KT 15SM DRSN FEW030 M12/M21 A3019 RMK SC1 SC TR SLP287

CYQF;2015-03-03 03:00;CYQF 030300Z 33011KT 15SM SKC M13/M21 A3021 RMK SLP295

CYQF;2015-03-03 04:00;CYQF 030400Z 33010KT 15SM SKC M14/M21 A3022 RMK SLP300

CYQF;2015-03-03 05:00;CYQF 030500Z 35012KT 15SM SKC M14/M22 A3024 RMK SLP308

CYQF;2015-03-03 06:00;CYQF 030600Z 35013KT 15SM SKC M15/M22 A3025 RMK SLP311

CYQF;2015-03-03 07:00;CYQF 030700Z 32012G17KT 15SM SKC M16/M23 A3026 RMK SLP315

CYQF;2015-03-03 08:00;CYQF 030800Z 30008KT 15SM SKC M17/M23 A3026 RMK SLP318

CYQF;2015-03-03 09:00;CYQF 030900Z 29008KT 15SM SKC M18/M24 A3026 RMK SLP321

CYQF;2015-03-03 10:00;CYQF 031000Z 29009KT 15SM SKC M18/M24 A3025 RMK SLP315

CYQF;2015-03-03 11:00;CYQF 031100Z 27007KT 15SM SKC M18/M23 A3023 RMK SLP310

CYQF;2015-03-03 12:00;CYQF 031200Z 29006KT 15SM SKC M19/M24 A3020 RMK SLP303

CYQF;2015-03-03 13:00;CYQF 031300Z 24005KT 15SM SKC M19/M24 A3019 RMK SLP301

CYQF;2015-03-03 14:00;CYQF 031400Z 29009KT 15SM SKC M19/M24 A3018 RMK SLP300

CYQF;2015-03-03 15:00;CYQF 031500Z 29010KT 15SM FEW250 M18/M24 A3017 RMK CI2 SLP295

CYQF;2015-03-03 16:00;CYQF 031600Z 29010KT 15SM FEW250 M17/M24 A3017 RMK CI1 CI TR SLP294

CYQF;2015-03-03 17:00;CYQF 031700Z 28008KT 15SM FEW250 M17/M23 A3017 RMK CI1 CI TR SLP294

CYQF;2015-03-03 18:00;CYQF 031800Z 29007KT 15SM FEW250 M15/M22 A3016 RMK CI1 CI TR SLP290

CYQF;2015-03-03 19:00;CYQF 031900Z 27009KT 15SM SKC M14/M21 A3014 RMK SLP282

CYQF;2015-03-03 20:00;CYQF 032000Z 30011G16KT 15SM SKC M12/M21 A3012 RMK SLP274

CYQF;2015-03-03 21:00;CYQF 032100Z 30008KT 15SM SKC M11/M20 A3011 RMK SLP270

CYQF;2015-03-03 22:00;CYQF 032200Z 34009KT 15SM SKC M10/M20 A3009 RMK SLP264

CYQF;2015-03-03 23:00;CYQF 032300Z 34007KT 15SM SKC M10/M20 A3008 RMK SLP261

CYQF;2015-03-04 00:00;CYQF 040000Z 36007KT 15SM SKC M10/M21 A3009 RMK SLP263

CYQF;2015-03-04 01:00;CYQF 040100Z 34007KT 15SM SKC M11/M22 A3009 RMK SLP266

CYQF;2015-03-04 02:00;CYQF 040200Z 33006KT 15SM SKC M11/M22 A3010 RMK SLP270

CYQF;2015-03-04 03:00;CYQF 040300Z 30004KT 15SM SKC M12/M22 A3011 RMK SLP274

CYQF;2015-03-04 04:00;CYQF 040400Z 30004KT 15SM SKC M13/M23 A3012 RMK SLP277

CYQF;2015-03-04 05:00;CYQF 040500Z VRB02KT 15SM SKC M16/M23 A3015 RMK SLP289

CYQF;2015-03-04 06:00;CYQF 040600Z 05002KT 15SM SKC M17/M23 A3015 RMK SLP289

CYQF;2015-03-04 07:00;CYQF 040700Z 06003KT 15SM SKC M18/M23 A3014 RMK SLP287

CYQF;2015-03-04 08:00;CYQF 040800Z 00000KT 15SM SKC M20/M25 A3014 RMK SLP285

CYQF;2015-03-04 09:00;CYQF 040900Z 20002KT 15SM SKC M19/M23 A3014 RMK SLP282

CYQF;2015-03-04 10:00;CYQF 041000Z 19004KT 15SM SKC M20/M24 A3012 RMK SLP278

CYQF;2015-03-04 11:00;CYQF 041100Z 16003KT 15SM SKC M22/M25 A3011 RMK SLP275

CYQF;2015-03-04 12:00;CYQF 041200Z 18005KT 15SM SKC M20/M24 A3009 RMK SLP267

CYQF;2015-03-04 13:00;CYQF 041300Z 19003KT 15SM SKC M20/M23 A3007 RMK SLP259

CYQF;2015-03-04 14:00;CYQF 041400Z 18004KT 15SM SKC M21/M24 A3006 RMK SLP256

CYQF;2015-03-04 15:00;CYQF 041500Z 18007KT 15SM SCT250 M20/M24 A3004 RMK CI4 SLP249

CYQF;2015-03-04 16:00;CYQF 041600Z 20006KT 15SM SCT250 M17/M21 A3004 RMK CI4 SLP247

CYQF;2015-03-04 17:00;CYQF 041700Z 19008KT 15SM BKN250 M15/M20 A3003 RMK CI6 SLP245

CYQF;2015-03-04 18:00;CYQF 041800Z 17007KT 15SM FEW160 SCT250 M13/M18 A3001 RMK AC1CI3 SLP237

CYQF;2015-03-04 19:00;CYQF 041900Z 19007KT 15SM SCT060 BKN160 BKN240 M10/M16 A2998 RMK SC4AC1CI2 SLP225

CYQF;2015-03-04 20:00;CYQF 042000Z 19007KT 15SM SCT060 BKN160 BKN250 M06/M14 A2996 RMK SC4AC1CI1 SLP215

CYQF;2015-03-04 21:00;CYQF 042100Z 17008KT 15SM FEW060 BKN090 BKN160 M04/M11 A2993 RMK SC1AC5AC1 SLP201

CYQF;2015-03-04 22:00;CYQF 042200Z 17008KT 15SM FEW090 BKN250 M03/M09 A2990 RMK AC2CI5 SLP190

CYQF;2015-03-05 00:00;CYQF 050000Z 19005KT 15SM FEW250 M00/M11 A2989 RMK CI2 SLP185

CYQF;2015-03-05 01:00;CYQF 050100Z 18004KT 15SM FEW250 M03/M10 A2988 RMK CI2 SLP186

CYQF;2015-03-05 02:00;CYQF 050200Z 20004KT 15SM SKC M03/M12 A2989 RMK SLP190

CYQF;2015-03-05 03:00;CYQF 050300Z 00000KT 15SM SKC M07/M12 A2992 RMK SLP201

CYQF;2015-03-05 04:00;CYQF 050400Z 21005KT 15SM SKC M06/M12 A2992 RMK SLP198

CYQF;2015-03-05 05:00;CYQF 050500Z 20005KT 15SM SKC M10/M14 A2993 RMK SLP205

CYQF;2015-03-05 06:00;CYQF 050600Z 18004KT 15SM SKC M11/M14 A2995 RMK SLP209

CYQF;2015-03-05 07:00;CYQF 050700Z 21003KT 15SM SKC M12/M15 A2995 RMK SLP206

CYQF;2015-03-05 08:00;CYQF 050800Z 19003KT 15SM SKC M12/M14 A2995 RMK SLP203

CYQF;2015-03-05 09:00;CYQF 050900Z 23007KT 15SM SKC M13/M16 A2996 RMK SLP205

CYQF;2015-03-05 10:00;CYQF 051000Z 20004KT 15SM SCT230 M10/M15 A2996 RMK CI3 SLP202

CYQF;2015-03-05 11:00;CYQF 051100Z 20007KT 15SM FEW230 M13/M17 A2995 RMK CI2 SLP200

CYQF;2015-03-05 12:00;CYQF 051200Z 21006KT 15SM SCT230 M12/M16 A2995 RMK CI3 SLP198

CYQF;2015-03-05 13:00;CYQF 051300Z 20006KT 15SM FEW130 SCT230 M12/M16 A2997 RMK AC1CI2 SLP207

CYQF;2015-03-05 14:00;CYQF 051400Z 22004KT 15SM BKN069 M11/M15 A2998 RMK AC7 SLP207

CYQF;2015-03-05 15:00;CYQF 051500Z 20005KT 15SM BKN072 OVC250 M07/M13 A2998 RMK AC6CI2 SLP208

CYQF;2015-03-05 16:00;CYQF 051600Z 22006KT 15SM FEW070 BKN140 OVC250 M07/M13 A2999 RMK AC2AC3CI3 SLP212

CYQF;2015-03-05 17:00;CYQF 051700Z 23006KT 15SM SCT070 OVC250 M05/M11 A3000 RMK AC3CI5 SLP218

CYQF;2015-03-05 18:00;CYQF 051800Z 20004KT 15SM SCT070 BKN250 M03/M10 A3001 RMK AC3CI4 SLP220

CYQF;2015-03-05 19:00;CYQF 051900Z 23003KT 15SM BKN077 OVC250 M01/M08 A3002 RMK AC5CI3 SLP219

CYQF;2015-03-05 20:00;CYQF 052000Z 16004KT 15SM FEW070 OVC250 01/M08 A3001 RMK AC2CI6 SLP215

CYQF;2015-03-05 21:00;CYQF 052100Z 18004KT 15SM FEW070 BKN250 03/M07 A2999 RMK AC2CI4 SLP208

CYQF;2015-03-05 22:00;CYQF 052200Z 19004KT 15SM FEW070 FEW160 BKN250 04/M06 A2998 RMK AC1AC1CI3 SLP200

CYQF;2015-03-05 23:00;CYQF 052300Z 18007KT 15SM FEW160 BKN250 05/M05 A2998 RMK AC2CI5 SLP203

CYQF;2015-03-06 00:00;CYQF 060000Z 19008KT 15SM FEW080 BKN250 03/M05 A2998 RMK AC2CC4 SLP203

CYQF;2015-03-06 01:00;CYQF 060100Z 19006KT 15SM BKN080 BKN250 03/M05 A2998 RMK AC6CI1 SLP205

CYQF;2015-03-06 02:00;CYQF 060200Z 18005KT 15SM BKN080 BKN250 01/M04 A2998 RMK AC6CI1 SLP205

CYQF;2015-03-06 03:00;CYQF 060300Z 20007KT 15SM BKN075 02/M04 A2998 RMK AC6 SLP198

CYQF;2015-03-06 04:00;CYQF 060400Z 21008KT 15SM BKN073 01/M04 A2996 RMK AC7 SLP193

CYQF;2015-03-06 05:00;CYQF 060500Z 21005KT 15SM BKN071 01/M04 A2996 RMK AC6 SLP191

CYQF;2015-03-06 06:00;CYQF 060600Z 22008KT 15SM SCT070 BKN160 01/M04 A2995 RMK AC4AC2 SLP186

CYQF;2015-03-06 07:00;CYQF 060700Z 23007KT 15SM FEW070 SCT230 M01/M05 A2994 RMK AC1CI2 SLP181

CYQF;2015-03-06 08:00;CYQF 060800Z 22007KT 15SM FEW100 SCT230 M03/M06 A2994 RMK AC1CI2 SLP179

CYQF;2015-03-06 09:00;CYQF 060900Z 19007KT 15SM FEW100 BKN230 M04/M07 A2993 RMK AC2CI3 SLP175

CYQF;2015-03-06 10:00;CYQF 061000Z 20009KT 15SM FEW090 BKN230 M03/M07 A2993 RMK AC2CI3 SLP173

CYQF;2015-03-06 11:00;CYQF 061100Z 23007KT 15SM BKN110 M03/M06 A2993 RMK AC6 SLP173

CYQF;2015-03-06 12:00;CYQF 061200Z 23005KT 15SM FEW100 M04/M07 A2993 RMK AC2 SLP176

CYQF;2015-03-06 13:00;CYQF 061300Z 24006KT 15SM FEW100 M03/M08 A2995 RMK AC2 SLP182

CYQF;2015-03-06 14:00;CYQF 061400Z 22005KT 15SM FEW100 M07/M10 A2996 RMK AC2 SLP193

CYQF;2015-03-06 15:00;CYQF 061500Z 21004KT 15SM FEW060 SCT110 SCT250 M05/M09 A2998 RMK SC2AC1CI1 SLP195

CYQF;2015-03-06 16:00;CYQF 061600Z 28005KT 15SM SCT100 SCT250 M01/M06 A3001 RMK AC3CI1 SLP203

CYQF;2015-03-06 17:00;CYQF 061700Z 17003KT 15SM FEW100 FEW250 M00/M05 A3004 RMK AC1CI1 SLP212

CYQF;2015-03-06 18:00;CYQF 061800Z 29005KT 15SM FEW100 FEW250 05/M05 A3005 RMK AC1CI1 SLP212

CYQF;2015-03-06 19:00;CYQF 061900Z 30006KT 250V330 15SM FEW040 FEW250 06/M05 A3006 RMK CU1CI1 SLP215

CYQF;2015-03-06 20:00;CYQF 062000Z 34010G17KT 15SM FEW050 FEW250 07/M07 A3007 RMK CU1CI1 SLP219

CYQF;2015-03-06 21:00;CYQF 062100Z 34012KT 15SM FEW050 SCT250 06/M06 A3008 RMK SC1CI2 SLP223

CYQF;2015-03-06 22:00;CYQF 062200Z 36010KT 15SM FEW050 SCT250 06/M06 A3009 RMK SC1CI2 WND ESTD SLP227

CYQF;2015-03-06 23:00;CYQF 062300Z 01008KT 15SM FEW050 SCT250 05/M05 A3010 RMK SC1CI3 SLP232

CYQF;2015-03-07 00:00;CYQF 070000Z 01005KT 340V040 15SM FEW050 FEW250 06/M07 A3012 RMK SC1CI1 SLP238

CYQF;2015-03-07 01:00;CYQF 070100Z 02006KT 15SM FEW050 SCT250 04/M06 A3014 RMK SC1CI2 SLP248

CYQF;2015-03-07 02:00;CYQF 070200Z 08003KT 15SM FEW050 SCT250 02/M05 A3016 RMK SC1CI2 SLP262

CYQF;2015-03-07 03:00;CYQF 070300Z 20006KT 110V200 15SM FEW050 BKN090 00/M05 A3018 RMK SC1AC4 SLP269

CYQF;2015-03-07 04:00;CYQF 070400Z 20005KT 15SM BKN090 M01/M05 A3019 RMK AC5 SLP267

CYQF;2015-03-07 05:00;CYQF 070500Z 19005KT 15SM FEW090 SCT240 M03/M06 A3018 RMK AC2CI2 SLP267

CYQF;2015-03-07 06:00;CYQF 070600Z 23005KT 15SM SKC M03/M06 A3018 RMK SLP262

CYQF;2015-03-07 07:00;CYQF 070700Z 21006KT 15SM FEW250 M03/M07 A3018 RMK CI2 SLP258

CYQF;2015-03-07 08:00;CYQF 070800Z 25008KT 15SM SCT250 M02/M07 A3017 RMK CI3 SLP253

CYQF;2015-03-07 09:00;CYQF 070900Z 24009KT 15SM FEW100 BKN240 M02/M07 A3016 RMK AC2CI3 SLP250

CYQF;2015-03-07 10:00;CYQF 071000Z 22005KT 15SM FEW240 M05/M08 A3014 RMK CI1 SLP249

CYQF;2015-03-07 11:00;CYQF 071100Z 19004KT 15SM FEW240 M07/M10 A3013 RMK CI1 SLP247

CYQF;2015-03-07 12:00;CYQF 071200Z 18002KT 15SM FEW100 M07/M09 A3012 RMK AC1 SLP243

CYQF;2015-03-07 13:00;CYQF 071300Z 34002KT 15SM SCT100 M07/M08 A3014 RMK AC3 SLP250

CYQF;2015-03-07 14:00;CYQF 071400Z VRB02KT 15SM SCT100 BKN150 M07/M10 A3014 RMK AC3AC4 SLP256

CYQF;2015-03-07 15:00;CYQF 071500Z 28003KT 15SM FEW100 SCT150 BKN250 M06/M09 A3015 RMK AC2AC2CI2 SLP260

CYQF;2015-03-07 16:00;CYQF 071600Z 25006KT 15SM SCT080 BKN250 M03/M08 A3017 RMK AC4CI2 SLP265

CYQF;2015-03-07 17:00;CYQF 071700Z 24003KT 180V270 15SM SCT080 M02/M07 A3018 RMK AC3 SLP268

CYQF;2015-03-07 18:00;CYQF 071800Z 23007KT 15SM FEW080 00/M06 A3017 RMK AC2 SLP264

CYQF;2015-03-07 19:00;CYQF 071900Z 28007KT 15SM FEW080 SCT250 03/M06 A3016 RMK AC1CI3 SLP258

CYQF;2015-03-07 20:00;CYQF 072000Z 26006KT 15SM FEW035 SCT250 03/M07 A3014 RMK CU1CI2 SLP248

CYQF;2015-03-07 21:00;CYQF 072100Z 22007KT 15SM FEW040 SCT250 03/M07 A3011 RMK CU1CI2 SLP236

CYQF;2015-03-07 22:00;CYQF 072200Z 18005KT 15SM FEW040 SCT250 04/M07 A3010 RMK CU1CI2 SLP235

CYQF;2015-03-07 23:00;CYQF 072300Z 21007KT 15SM FEW040 SCT250 04/M07 A3007 RMK CU1CI4 CU TR SLP229

CYQF;2015-03-08 00:00;CYQF 080000Z 19008KT 15SM FEW040 BKN250 03/M04 A3006 RMK CU1CI6 CU TR SLP223

CYQF;2015-03-08 01:00;CYQF 080100Z 19008KT 15SM SCT250 01/M04 A3004 RMK CI4 SLP218

CYQF;2015-03-08 02:00;CYQF 080200Z 20008KT 15SM BKN250 M00/M05 A3002 RMK CI5 SLP215

CYQF;2015-03-08 03:00;CYQF 080300Z 19006KT 15SM FEW250 00/M05 A3001 RMK CI2 SLP211

CYQF;2015-03-08 04:00;CYQF 080400Z 21007KT 15SM SKC 00/M05 A3002 RMK SLP210

CYQF;2015-03-08 05:00;CYQF 080500Z 24008KT 15SM FEW250 M01/M05 A3002 RMK CI2 SLP210

CYQF;2015-03-08 06:00;CYQF 080600Z 24008KT 15SM SCT250 M01/M05 A3002 RMK CI3 SLP208

CYQF;2015-03-08 07:00;CYQF 080700Z 28004KT 15SM SCT080 BKN250 M02/M06 A3003 RMK AC3CI2 SLP210

CYQF;2015-03-08 08:00;CYQF 080800Z 29008KT 15SM OVC083 01/M06 A3003 RMK AC8 SLP205

CYQF;2015-03-08 09:00;CYQF 080900Z 27007KT 15SM FEW083 SCT250 01/M07 A3003 RMK AC2CI1 SLP206

CYQF;2015-03-08 10:00;CYQF 081000Z 25007KT 15SM FEW080 M01/M08 A3003 RMK AC1 SLP207

CYQF;2015-03-08 11:00;CYQF 081100Z 24008KT 15SM FEW080 M03/M07 A3001 RMK AC2 SLP202

CYQF;2015-03-08 12:00;CYQF 081200Z 22007KT 15SM FEW080 M05/M08 A3001 RMK AC2 SLP204

CYQF;2015-03-08 13:00;CYQF 081300Z 20005KT 15SM FEW080 M06/M09 A3000 RMK AC2 SLP204

CYQF;2015-03-08 14:00;CYQF 081400Z 21004KT 15SM SCT080 M05/M09 A2999 RMK AC3 SLP203

CYQF;2015-03-08 15:00;CYQF 081500Z 22008KT 15SM FEW080 SCT250 M04/M09 A2997 RMK AC2CI1 SLP194

CYQF;2015-03-08 16:00;CYQF 081600Z 20005KT 180V270 15SM FEW100 M02/M08 A2996 RMK AC2 SLP188

CYQF;2015-03-08 17:00;CYQF 081700Z 22006KT 15SM FEW250 00/M06 A2994 RMK CI1 SLP179

CYQF;2015-03-08 18:00;CYQF 081800Z 22006KT 15SM SKC 03/M03 A2993 RMK SLP171

CYQF;2015-03-08 19:00;CYQF 081900Z 20005KT 15SM SKC 05/M03 A2990 RMK SLP161

CYQF;2015-03-08 20:00;CYQF 082000Z 18007KT 15SM SKC 05/M02 A2986 RMK SLP145

CYQF;2015-03-08 21:00;CYQF 082100Z 18008KT 15SM SKC 06/M00 A2982 RMK SLP128

CYQF;2015-03-08 22:00;CYQF 082200Z 17007KT 15SM FEW250 07/M00 A2978 RMK CI1 SLP116

CYQF;2015-03-08 23:00;CYQF 082300Z 20011KT 15SM FEW250 07/M01 A2975 RMK CI1 CI TR SLP107

CYQF;2015-03-09 00:00;CYQF 090000Z 20010KT 15SM FEW250 07/M02 A2973 RMK CI1 CI TR SLP104

CYQF;2015-03-09 01:00;CYQF 090100Z 20008KT 15SM FEW100 FEW250 06/M02 A2973 RMK AC2CI1 CI TR SLP105

CYQF;2015-03-09 02:00;CYQF 090200Z 27008KT 15SM FEW100 FEW250 07/M04 A2973 RMK AC1CI1 AC TR CI TR SLP103

CYQF;2015-03-09 03:00;CYQF 090300Z 26008KT 15SM SKC 06/M04 A2974 RMK SLP106

CYQF;2015-03-09 04:00;CYQF 090400Z 25010KT 15SM SKC 06/M04 A2973 RMK SLP100

CYQF;2015-03-09 05:00;CYQF 090500Z 24010KT 15SM SKC 05/M04 A2974 RMK SLP102

CYQF;2015-03-09 06:00;CYQF 090600Z 23010KT 15SM SKC 03/M05 A2973 RMK SLP098

CYQF;2015-03-09 07:00;CYQF 090700Z 25008KT 15SM SKC 04/M05 A2972 RMK SLP093

CYQF;2015-03-09 08:00;CYQF 090800Z 24009KT 15SM SKC 04/M05 A2971 RMK SLP090

CYQF;2015-03-09 09:00;CYQF 090900Z 22008KT 15SM BKN100 02/M03 A2972 RMK AC7 SLP093

CYQF;2015-03-09 10:00;CYQF 091000Z 23007KT 15SM BKN100 04/M03 A2972 RMK AC7 SLP089

CYQF;2015-03-09 11:00;CYQF 091100Z 21007KT 15SM SCT100 M00/M04 A2970 RMK AC3 SLP089

CYQF;2015-03-09 12:00;CYQF 091200Z 21006KT 15SM FEW100 00/M04 A2970 RMK AC2 SLP087

CYQF;2015-03-09 13:00;CYQF 091300Z 19007KT 15SM BKN100 M00/M04 A2969 RMK AC5 SLP085

CYQF;2015-03-09 14:00;CYQF 091400Z 21005KT 15SM SCT095 OVC120 00/M03 A2967 RMK AC3AC5 SLP077

CYQF;2015-03-09 15:00;CYQF 091500Z 22008KT 15SM SCT090 BKN150 03/M02 A2965 RMK AC3AC4 SLP069

CYQF;2015-03-09 16:00;CYQF 091600Z 22005KT 15SM BKN120 BKN250 04/M02 A2965 RMK AC6CI1 SLP067

CYQF;2015-03-09 17:00;CYQF 091700Z 12003KT 050V130 15SM FEW040 BKN090 BKN250 04/M01 A2965 RMK CU1AC5CI1 VIRGA SLP067

CYQF;2015-03-09 18:00;CYQF 091800Z 02005KT 340V090 15SM FEW040 BKN080 BKN250 06/M02 A2964 RMK CU1AC4CI2 VIRGA SLP065

CYQF;2015-03-09 19:00;CYQF 091900Z 04004KT 15SM FEW040 BKN090 07/M01 A2965 RMK CU1AC4 SLP064 DENSITY ALT 3000FT

CYQF;2015-03-09 20:00;CYQF 092000Z 03012KT 15SM FEW040 BKN090 07/M00 A2966 RMK CU2AC5 SLP069 DENSITY ALT 3000FT

CYQF;2015-03-09 21:00;CYQF 092100Z 02006KT 15SM SCT040 BKN090 07/02 A2966 RMK CU3AC2 SLP071 DENSITY ALT 3000FT

CYQF;2015-03-09 22:00;CYQF 092200Z 01007KT 15SM FEW040 SCT100 08/01 A2967 RMK CU2AC2 SLP074 DENSITY ALT 3000FT

CYQF;2015-03-09 23:00;CYQF 092300Z 03002KT 15SM FEW030 SCT090 BKN250 07/02 A2969 RMK CU2AC2CI1 SLP083 DENSITY ALT 3000FT

CYQF;2015-03-10 00:00;CYQF 100000Z VRB02KT 15SM BKN080 OVC250 07/02 A2970 RMK AC6CI2 SLP089

CYQF;2015-03-10 01:00;CYQF 100100Z 01008KT 15SM SCT080 BKN250 04/01 A2974 RMK AC4CI2 SLP103

CYQF;2015-03-10 02:00;CYQF 100200Z 03005KT 15SM BKN090 04/00 A2976 RMK AC5 SLP113

CYQF;2015-03-10 03:00;CYQF 100300Z 19005KT 15SM SCT080 02/M01 A2978 RMK AC3 SLP118

CYQF;2015-03-10 04:00;CYQF 100400Z 19003KT 15SM BKN085 02/01 A2981 RMK AC5 SLP127

CYQF;2015-03-10 05:00;CYQF 100500Z 20004KT 15SM SCT085 00/M01 A2983 RMK AC4 SLP134

CYQF;2015-03-10 06:00;CYQF 100600Z 21005KT 15SM FEW085 00/M01 A2983 RMK AC1 SLP135

CYQF;2015-03-10 07:00;CYQF 100700Z 20006KT 15SM SKC M00/M01 A2984 RMK SLP137

CYQF;2015-03-10 08:00;CYQF 100800Z 19007KT 15SM SKC M01/M03 A2985 RMK SLP139

CYQF;2015-03-10 09:00;CYQF 100900Z 19005KT 15SM SKC M01/M02 A2985 RMK SLP139

CYQF;2015-03-10 10:00;CYQF 101000Z 17004KT 15SM FEW080 M01/M02 A2985 RMK AC1 SLP139

CYQF;2015-03-10 11:00;CYQF 101100Z 19004KT 15SM FEW080 00/M01 A2984 RMK AC2 SLP136

CYQF;2015-03-10 12:00;CYQF 101200Z 18005KT 15SM SCT095 00/M01 A2985 RMK AC4 SLP140

CYQF;2015-03-10 13:00;CYQF 101300Z 02003KT 15SM BKN100 M02/M03 A2985 RMK AC7 SLP146

CYQF;2015-03-10 14:00;CYQF 101400Z 04003KT 350V060 15SM BKN100 BKN250 00/M01 A2986 RMK AC5CI2 SLP147

CYQF;2015-03-10 15:00;CYQF 101500Z 36003KT 15SM BKN096 M00/M02 A2987 RMK AC6 SLP154

CYQF;2015-03-10 16:00;CYQF 101600Z 01006KT 15SM FEW100 00/M01 A2988 RMK AC2 SLP155

CYQF;2015-03-10 17:00;CYQF 101700Z 01005KT 10SM FEW100 02/M00 A2988 RMK AC1 SLP156

CYQF;2015-03-10 18:00;CYQF 101800Z 01003KT 320V030 10SM FEW010 FEW250 04/01 A2987 RMK CF1CI1 SLP152

CYQF;2015-03-10 19:00;CYQF 101900Z 02003KT 15SM SCT018 BKN250 05/01 A2988 RMK SC4CI1 SLP152

CYQF;2015-03-10 20:00;CYQF 102000Z 14004KT 020V180 15SM FEW020 SCT250 06/02 A2987 RMK SC2CI1 SLP150

CYQF;2015-03-10 21:00;CYQF 102100Z 14009KT 15SM FEW020 SCT250 07/01 A2987 RMK CF1CI3 SLP148

CYQF;2015-03-10 22:00;CYQF 102200Z 10008KT 15SM FEW020 BKN130 07/01 A2984 RMK CF1AC5 SLP137

CYQF;2015-03-10 23:00;CYQF 102300Z 06008KT 15SM FEW020 FEW130 BKN250 06/01 A2985 RMK CF1AC2CI4 CF TR SLP141

CYQF;2015-03-11 00:00;CYQF 110000Z 06007KT 15SM FEW130 BKN250 05/01 A2986 RMK AC1CI7 AC TR SLP144

CYQF;2015-03-11 01:00;CYQF 110100Z 07005KT 15SM FEW130 OVC250 03/M00 A2985 RMK AC1CI8 AC TR SLP146

CYQF;2015-03-11 02:00;CYQF 110200Z 10006KT 15SM FEW130 BKN250 03/M00 A2985 RMK AC1CI5 SLP145

CYQF;2015-03-11 03:00;CYQF 110300Z 07004KT 15SM OVC250 01/M01 A2986 RMK CI8 SLP149

CYQF;2015-03-11 04:00;CYQF 110400Z 08004KT 15SM FEW020 OVC200 02/M01 A2985 RMK SC1CI8 SC TR SLP146

CYQF;2015-03-11 05:00;CYQF 110500Z 11003KT 15SM BKN210 00/M01 A2985 RMK CI7 SLP145

CYQF;2015-03-11 06:00;CYQF 110600Z 15007KT 15SM BKN230 01/M01 A2984 RMK CI7 SLP138

CYQF;2015-03-11 07:00;CYQF 110700Z 16007KT 15SM BKN230 00/M01 A2981 RMK CI7 SLP127

CYQF;2015-03-11 08:00;CYQF 110800Z 15006KT 15SM BKN200 M00/M01 A2979 RMK CI7 SLP120

CYQF;2015-03-11 09:00;CYQF 110900Z 14004KT 15SM BKN180 M01/M02 A2978 RMK AC7 SLP118

CYQF;2015-03-11 10:00;CYQF 111000Z 11003KT 100V160 15SM BKN160 BKN230 M01/M02 A2977 RMK AC5CI2 SLP112

CYQF;2015-03-11 11:00;CYQF 111100Z 15004KT 15SM BKN160 BKN220 M01/M01 A2975 RMK AC5CI2 SLP107

CYQF;2015-03-11 12:00;CYQF 111200Z 13004KT 15SM SCT160 BKN230 M01/M01 A2974 RMK AC3CI4 SLP103

CYQF;2015-03-11 13:00;CYQF 111300Z 16005KT 15SM OVC150 M01/M01 A2974 RMK AC8 SLP106

CYQF;2015-03-11 14:00;CYQF 111400Z 14005KT 10SM OVC140 M01/M01 A2973 RMK AC8 BR SLP105

CYQF;2015-03-11 15:00;CYQF 111500Z 14003KT 12SM OVC110 00/M01 A2973 RMK AC8 SLP105

CYQF;2015-03-11 16:00;CYQF 111600Z 14002KT 12SM BKN100 OVC180 00/M01 A2973 RMK AC5AC3 SLP105

CYQF;2015-03-11 17:00;CYQF 111700Z 00000KT 12SM FEW100 OVC180 01/M01 A2974 RMK AC2AC6 SLP109

CYQF;2015-03-11 18:00;CYQF 111800Z 36002KT 12SM FEW140 BKN210 02/M00 A2973 RMK AC2CI5 SLP104

CYQF;2015-03-11 19:00;CYQF 111900Z 00000KT 12SM FEW120 BKN210 03/M00 A2973 RMK AC2CI5 SLP102

CYQF;2015-03-11 20:00;CYQF 112000Z VRB02KT 12SM FEW120 BKN240 04/00 A2973 RMK AC2CI5 SLP103

CYQF;2015-03-11 21:00;CYQF 112100Z 33003KT 330V040 12SM SCT100 BKN240 05/01 A2974 RMK AC4CI3 SLP103

CYQF;2015-03-11 22:00;CYQF 112200Z 35005KT 10SM FEW100 BKN240 06/01 A2974 RMK AC1CI4 SLP102

CYQF;2015-03-11 23:00;CYQF 112300Z 34006KT 10SM FEW140 FEW250 05/01 A2975 RMK AC1CI1 SLP108

CYQF;2015-03-12 00:00;CYQF 120000Z 36008KT 10SM SCT140 SCT250 04/00 A2977 RMK AC3CI1 SLP116

CYQF;2015-03-12 01:00;CYQF 120100Z 01007KT 10SM BKN100 03/M00 A2979 RMK AC6 SLP123

CYQF;2015-03-12 02:00;CYQF 120200Z 01004KT 10SM FEW100 02/M00 A2981 RMK AC2 SLP131

CYQF;2015-03-12 03:00;CYQF 120300Z 29004KT 15SM SKC 01/M01 A2983 RMK SLP138

CYQF;2015-03-12 04:00;CYQF 120400Z 25004KT 15SM SKC M00/M01 A2985 RMK SLP146

CYQF;2015-03-12 05:00;CYQF 120500Z 00000KT 10SM SKC M01/M02 A2986 RMK SLP150

CYQF;2015-03-12 06:00;CYQF 120600Z 18004KT 6SM BR SKC M02/M02 A2987 RMK SLP153

CYQF;2015-03-12 07:00;CYQF 120700Z 00000KT 15SM BR SKC M02/M02 A2987 RMK SLP154

CYQF;2015-03-12 08:00;CYQF 120800Z 00000KT 3SM BR SCT230 M02/M02 A2987 RMK CI4 SLP153

CYQF;2015-03-12 09:00;CYQF 120900Z 16002KT 2SM BR BKN230 M03/M03 A2987 RMK CI5 VIS VRB 1-3 SLP152

CYQF;2015-03-12 09:38;CYQF 120938Z 20006KT 1/2SM FZFG BKN230 M01/M02 A2987 RMK FG2CI4 SLP150

CYQF;2015-03-12 09:52;CYQF 120952Z 00000KT 3SM BR BKN230 M02/M02 A2987 RMK CI5 SLP151

CYQF;2015-03-12 10:00;CYQF 121000Z 17002KT 4SM BR BKN230 M02/M02 A2987 RMK CI5 SLP148

CYQF;2015-03-12 11:00;CYQF 121100Z 17003KT 8SM SCT150 BKN230 M02/M02 A2986 RMK AC3CI4 SLP149

CYQF;2015-03-12 12:00;CYQF 121200Z 18005KT 10SM FEW150 BKN230 M02/M02 A2986 RMK AC2CI4 SLP150

CYQF;2015-03-12 13:00;CYQF 121300Z 19007KT 10SM BKN140 M00/M01 A2988 RMK AC7 SLP155

CYQF;2015-03-12 14:00;CYQF 121400Z 27002KT 10SM MIFG FEW040 BKN130 M00/M01 A2989 RMK SC1AC7 SC TR SLP159

CYQF;2015-03-12 15:00;CYQF 121500Z 27002KT 10SM MIFG FEW040 BKN130 M00/M01 A2991 RMK CU1AC6 CU TR SLP167

CYQF;2015-03-12 16:00;CYQF 121600Z 18006KT 15SM FEW040 FEW140 SCT250 01/M00 A2992 RMK CU1AC1CI1 SLP170

CYQF;2015-03-12 17:00;CYQF 121700Z 17002KT 15SM SCT040 SCT140 06/00 A2995 RMK CU3AC1 VIRGA SLP177

CYQF;2015-03-12 18:00;CYQF 121800Z 00000KT 15SM FEW030TCU SCT090 08/M00 A2998 RMK TCU2AC2 VIRGA SLP185

CYQF;2015-03-12 19:00;CYQF 121900Z 20003KT 060V230 15SM FEW040TCU SCT120 10/M00 A3000 RMK TCU2AC2 VIRGA SLP189 DENSITY ALT 3000FT

CYQF;2015-03-12 20:00;CYQF 122000Z 28004KT 220V310 15SM FEW045 FEW140 12/01 A3001 RMK CU1AC1 SLP193 DENSITY ALT 3200FT

CYQF;2015-03-12 21:00;CYQF 122100Z 04005KT 320V050 15SM FEW045 12/00 A3003 RMK CU1 SLP199 DENSITY ALT 3200FT

CYQF;2015-03-12 22:00;CYQF 122200Z 04003KT 15SM FEW055 13/01 A3003 RMK CU1 CU TR SLP198 DENSITY ALT 3200FT

CYQF;2015-03-12 23:00;CYQF 122300Z 00000KT 15SM FEW050 13/M00 A3005 RMK CU1 CU TR SLP202 DENSITY ALT 3300FT

CYQF;2015-03-13 00:00;CYQF 130000Z 26004KT 15SM FEW060 FEW250 13/M03 A3005 RMK CU1CI1 CU TR CI TR SLP204 DENSITY ALT 3200FT

CYQF;2015-03-13 01:00;CYQF 130100Z 28006KT 15SM FEW055 FEW250 10/M03 A3006 RMK CU1CI1 SLP210

CYQF;2015-03-13 02:00;CYQF 130200Z 23007KT 15SM FEW250 08/M04 A3009 RMK CI2 SLP223

CYQF;2015-03-13 03:00;CYQF 130300Z 27006KT 15SM SCT250 07/M04 A3011 RMK CI3 SLP231

CYQF;2015-03-13 04:00;CYQF 130400Z 26006KT 15SM BKN230 07/M04 A3013 RMK CI5 SLP236

CYQF;2015-03-13 05:00;CYQF 130500Z 24004KT 15SM FEW230 05/M04 A3014 RMK CI2 SLP235

CYQF;2015-03-13 06:00;CYQF 130600Z 23005KT 15SM FEW220 02/M04 A3015 RMK CI2 SLP240

CYQF;2015-03-13 07:00;CYQF 130700Z 24007KT 15SM SKC 04/M05 A3017 RMK SLP242

CYQF;2015-03-13 08:00;CYQF 130800Z 17003KT 15SM SKC 00/M03 A3019 RMK SLP250

CYQF;2015-03-13 09:00;CYQF 130900Z 21006KT 15SM SKC 03/M04 A3021 RMK SLP255

CYQF;2015-03-13 10:00;CYQF 131000Z 19007KT 15SM SKC M00/M04 A3022 RMK SLP262

CYQF;2015-03-13 11:00;CYQF 131100Z 22007KT 15SM SCT240 01/M04 A3024 RMK CI4 SLP265

CYQF;2015-03-13 12:00;CYQF 131200Z 22008KT 15SM BKN240 01/M04 A3024 RMK CI7 SLP266

CYQF;2015-03-13 13:00;CYQF 131300Z VRB02KT 15SM FEW120 OVC220 00/M04 A3023 RMK AC2CI6 SLP268

CYQF;2015-03-13 14:00;CYQF 131400Z 17008KT 15SM OVC220 M00/M03 A3024 RMK CI8 SLP273

CYQF;2015-03-13 15:00;CYQF 131500Z 19007KT 15SM OVC200 01/M03 A3023 RMK CI8 SLP269

CYQF;2015-03-13 16:00;CYQF 131600Z VRB03KT 15SM BKN200 03/M02 A3022 RMK CI7 SLP264

CYQF;2015-03-13 17:00;CYQF 131700Z 17004KT 15SM BKN200 OVC250 05/M00 A3020 RMK CI5CI3 SLP259

CYQF;2015-03-13 18:00;CYQF 131800Z 17007KT 15SM BKN180 BKN250 07/00 A3018 RMK AC5CI2 SLP251

CYQF;2015-03-13 19:00;CYQF 131900Z 18009KT 15SM SCT180 BKN250 10/02 A3015 RMK AC3CI3 SLP236

CYQF;2015-03-13 20:00;CYQF 132000Z 18012KT 15SM FEW180 BKN240 12/02 A3012 RMK AC2CI4 SLP228 DENSITY ALT 3000FT

CYQF;2015-03-13 21:00;CYQF 132100Z 19008KT 15SM FEW160 BKN240 11/02 A3009 RMK AC2CI4 SLP215 DENSITY ALT 3000FT

CYQF;2015-03-13 22:00;CYQF 132200Z 17009KT 15SM SCT170 BKN230 13/03 A3005 RMK AC3CI3 SLP203 DENSITY ALT 3200FT

CYQF;2015-03-13 23:00;CYQF 132300Z 15008KT 15SM FEW170 SCT220 13/05 A3001 RMK AC1CI3 SLP188 DENSITY ALT 3300FT

CYQF;2015-03-14 00:00;CYQF 140000Z 18008KT 15SM FEW170 FEW220 12/03 A2999 RMK AC1CI1 SLP182 DENSITY ALT 3200FT

CYQF;2015-03-14 01:00;CYQF 140100Z 17010KT 15SM FEW170 FEW220 10/03 A2995 RMK AC1CI1 AC TR SLP170 DENSITY ALT 3000FT

CYQF;2015-03-14 02:00;CYQF 140200Z 17009KT 15SM FEW170 SCT220 07/01 A2992 RMK AC1CI3 AC TR SLP165

CYQF;2015-03-14 03:00;CYQF 140300Z 17009KT 15SM SCT220 06/00 A2991 RMK CI3 SLP160

CYQF;2015-03-14 04:00;CYQF 140400Z 19009KT 15SM FEW220 06/M01 A2987 RMK CI2 SLP147

CYQF;2015-03-14 05:00;CYQF 140500Z 16004KT 15SM SKC 06/M02 A2985 RMK SLP135

CYQF;2015-03-14 06:00;CYQF 140600Z 20006KT 15SM BKN250 03/M02 A2981 RMK CI6 SLP122

CYQF;2015-03-14 07:00;CYQF 140700Z 19005KT 15SM SCT250 02/M03 A2976 RMK CI4 SLP104

CYQF;2015-03-14 08:00;CYQF 140800Z 19008KT 15SM OVC250 04/M02 A2974 RMK CI8 SLP091

CYQF;2015-03-14 09:00;CYQF 140900Z 20008KT 15SM OVC160 05/M02 A2969 RMK AC8 SLP076

CYQF;2015-03-14 10:00;CYQF 141000Z 21010KT 15SM OVC140 07/M03 A2966 RMK AC8 SLP062

CYQF;2015-03-14 11:00;CYQF 141100Z 21006KT 150V240 15SM OVC140 05/M03 A2962 RMK AC8 PRESFR SLP046

CYQF;2015-03-14 12:00;CYQF 141200Z 22015KT 15SM OVC160 08/M05 A2958 RMK AC8 SLP032 DENSITY ALT 3200FT

CYQF;2015-03-14 13:00;CYQF 141300Z 21012KT 15SM BKN120 OVC180 08/M05 A2956 RMK AC6AC2 SLP028 DENSITY ALT 3100FT

CYQF;2015-03-14 14:00;CYQF 141400Z 21010G15KT 15SM SCT110 BKN240 07/M04 A2954 RMK AC4CI3 SLP023 DENSITY ALT 3100FT

CYQF;2015-03-14 15:00;CYQF 141500Z 19010KT 15SM FEW110 BKN240 06/M02 A2949 RMK AC2CI5 SLP011 DENSITY ALT 3000FT

CYQF;2015-03-14 16:00;CYQF 141600Z 19010KT 15SM FEW030 FEW110 BKN240 07/M00 A2948 RMK SC1AC1CI6 SC TR SLP004 DENSITY ALT 3200FT

CYQF;2015-03-14 17:00;CYQF 141700Z 18009KT 15SM BKN240 09/02 A2945 RMK CI7 SLP991 DENSITY ALT 3500FT

CYQF;2015-03-14 18:00;CYQF 141800Z 19009KT 15SM BKN200 11/04 A2941 RMK CI7 SLP981 DENSITY ALT 3800FT

CYQF;2015-03-14 19:00;CYQF 141900Z 19011KT 15SM OVC200 12/05 A2939 RMK CI8 SLP972 DENSITY ALT 3900FT

CYQF;2015-03-14 20:00;CYQF 142000Z 17007KT 15SM FEW200 BKN260 14/06 A2934 RMK CI2CI5 PRESFR SLP951 DENSITY ALT 4200FT

CYQF;2015-03-14 21:00;CYQF 142100Z 19009KT 15SM SCT220 OVC260 13/05 A2934 RMK CI3CI5 SLP950 DENSITY ALT 4000FT

CYQF;2015-03-14 22:00;CYQF 142200Z 23014G19KT 15SM BKN220 14/01 A2931 RMK CI7 SLP937 DENSITY ALT 4200FT

CYQF;2015-03-14 23:00;CYQF 142300Z 22018KT 15SM BKN240 13/01 A2928 RMK CI7 PRESFR SLP928 DENSITY ALT 4100FT

CYQF;2015-03-15 00:00;CYQF 150000Z 24017G25KT 15SM BKN240 14/M00 A2929 RMK CI5 SLP927 DENSITY ALT 4300FT

CYQF;2015-03-15 01:00;CYQF 150100Z 24013G20KT 15SM BKN240 12/M00 A2930 RMK CI5 SLP936 DENSITY ALT 4000FT

CYQF;2015-03-15 02:00;CYQF 150200Z 24015G22KT 15SM SCT240 10/00 A2934 RMK CI4 SLP952 DENSITY ALT 3600FT

CYQF;2015-03-15 03:00;CYQF 150300Z 24008KT 15SM SCT240 08/M00 A2936 RMK CI4 SLP964 DENSITY ALT 3400FT

CYQF;2015-03-15 04:00;CYQF 150400Z 23012KT 15SM SCT240 08/M02 A2939 RMK CI4 SLP972 DENSITY ALT 3400FT

CYQF;2015-03-15 05:00;CYQF 150500Z 25012KT 15SM FEW220 07/M02 A2944 RMK CI2 PRESRR SLP986 DENSITY ALT 3300FT

CYQF;2015-03-15 06:00;CYQF 150600Z 30010KT 15SM SKC 06/M03 A2950 RMK PRESRR SLP007 DENSITY ALT 3000FT

CYQF;2015-03-15 07:00;CYQF 150700Z 33012G18KT 15SM SKC 05/M01 A2959 RMK PRESRR SLP039

CYQF;2015-03-15 08:00;CYQF 150800Z 23004KT 15SM SKC 03/M01 A2962 RMK SLP050

CYQF;2015-03-15 09:00;CYQF 150900Z 26007KT 15SM SKC 02/M01 A2965 RMK SLP060

CYQF;2015-03-15 10:00;CYQF 151000Z 31011KT 15SM BKN190 04/M01 A2969 RMK CI7 SLP073

CYQF;2015-03-15 11:00;CYQF 151100Z 31009KT 15SM OVC220 03/M01 A2972 RMK CI8 SLP083

CYQF;2015-03-15 12:00;CYQF 151200Z 36008KT 15SM SCT220 02/M03 A2975 RMK CI3 SLP095

CYQF;2015-03-15 13:00;CYQF 151300Z 36010G17KT 15SM FEW220 01/M06 A2977 RMK CI2 SLP106

CYQF;2015-03-15 14:00;CYQF 151400Z 01006KT 15SM BKN200 00/M05 A2981 RMK CI6 SLP121

CYQF;2015-03-15 15:00;CYQF 151500Z 36007KT 15SM BKN200 00/M06 A2984 RMK CI6 SLP136

CYQF;2015-03-15 18:00;CYQF 151800Z VRB02KT 15SM FEW030 SCT140 OVC260 01/M07 A2993 RMK SC1AC3CI4 SLP168

CYQF;2015-03-15 19:00;CYQF 151900Z 13003KT 100V170 15SM FEW030 OVC130 01/M07 A2992 RMK SC1AC7 SLP165

CYQF;2015-03-15 20:00;CYQF 152000Z 07005KT 15SM FEW060 BKN130 OVC260 01/M08 A2990 RMK SC2AC4CI2 SLP159

CYQF;2015-03-15 21:00;CYQF 152100Z 07007KT 15SM OVC060 02/M07 A2990 RMK SC8 SLP161

CYQF;2015-03-15 21:43;CYQF 152143Z 12006KT 350V140 6SM -SN OVC040 01/M07 A2990 RMK SC8 SLP161

CYQF;2015-03-15 22:00;CYQF 152200Z 09006KT 070V140 6SM -SN OVC040 01/M07 A2990 RMK SC8 SLP159

CYQF;2015-03-15 23:00;CYQF 152300Z 15011KT 6SM -SN FEW010 OVC050 M01/M03 A2991 RMK SC2SC6 SLP166

CYQF;2015-03-16 00:00;CYQF 160000Z 14007KT 2SM -SN BKN010 OVC040 M01/M03 A2992 RMK SN4SC2SC2 VIS VRB 1-3 SLP170

CYQF;2015-03-16 00:11;CYQF 160011Z 15007KT 3/4SM -SN BR OVC009 M01/M03 A2992 RMK SN5SC3 VIS VRB 1/2-1 SLP170

CYQF;2015-03-16 01:00;CYQF 160100Z 15006KT 1 1/2SM -SN BR OVC010 M02/M03 A2993 RMK SN5SC3 VIS VRB 1-2 SLP176

CYQF;2015-03-16 02:00;CYQF 160200Z 13002KT 2SM -SN BR OVC008 M02/M03 A2995 RMK SN5SC3 VIS VRB 1-3 SLP183

CYQF;2015-03-16 03:00;CYQF 160300Z 13004KT 3SM -SN OVC006 M02/M03 A2996 RMK SN3SC5 SLP187

CYQF;2015-03-16 03:17;CYQF 160317Z 06002KT 10SM -SN SCT006 OVC080 M02/M03 A2997 RMK SC4AC4 PRESRR SLP192

CYQF;2015-03-16 04:00;CYQF 160400Z 05003KT 6SM -SN BKN006 BKN040 M02/M03 A2998 RMK SN3SC3SC1 SLP195

CYQF;2015-03-16 04:41;CYQF 160441Z 06002KT 15SM FEW006 SCT040 BKN160 M03/M03 A3000 RMK SC1SC2AC3 SLP203

CYQF;2015-03-16 05:00;CYQF 160500Z 00000KT 15SM FEW006 SCT040 BKN160 M03/M03 A3001 RMK SC1SC2AC4 SLP206

CYQF;2015-03-16 06:00;CYQF 160600Z 13002KT 15SM BKN200 M03/M04 A3004 RMK CI7 SLP217

CYQF;2015-03-16 07:00;CYQF 160700Z 31003KT 15SM OVC020 M02/M03 A3010 RMK SC8 SLP235

CYQF;2015-03-16 07:45;CYQF 160745Z 29005KT 10SM -SN OVC020 M02/M03 A3013 RMK SC8 SLP244

CYQF;2015-03-16 08:00;CYQF 160800Z 30006KT 10SM -SN OVC020 M02/M03 A3014 RMK SC8 SLP247

CYQF;2015-03-16 09:00;CYQF 160900Z 28005KT 10SM -SN OVC022 M02/M03 A3017 RMK SC8 SLP260

CYQF;2015-03-16 10:00;CYQF 161000Z 34002KT 8SM -SN OVC011 M02/M03 A3022 RMK SC8 SLP276

CYQF;2015-03-16 10:17;CYQF 161017Z 34006KT 6SM -SN SCT008 OVC021 M02/M03 A3023 RMK SC3SC5 SLP279

CYQF;2015-03-16 11:00;CYQF 161100Z 31004KT 15SM BKN060 BKN230 M02/M03 A3024 RMK SC5CI2 VIS S 8 SLP287

CYQF;2015-03-16 12:00;CYQF 161200Z 32005KT 15SM BKN054 OVC210 M03/M04 A3028 RMK SC6CI2 PRESRR SLP302

CYQF;2015-03-16 13:00;CYQF 161300Z 31004KT 15SM SCT055 BKN230 M03/M05 A3032 RMK SC4CI3 SLP315

CYQF;2015-03-16 14:00;CYQF 161400Z 30004KT 15SM BKN220 M04/M05 A3034 RMK CI6 SLP323

CYQF;2015-03-16 15:00;CYQF 161500Z 30002KT 12SM BKN220 M04/M05 A3037 RMK CI6 SLP335

CYQF;2015-03-16 16:00;CYQF 161600Z 14002KT 15SM FEW100 BKN240 M02/M05 A3039 RMK AC1CI5 AC TR SLP340

CYQF;2015-03-16 17:00;CYQF 161700Z 18006KT 15SM FEW100 SCT240 M01/M04 A3041 RMK AC1CI3 AC TR SLP347

CYQF;2015-03-16 18:00;CYQF 161800Z 19008KT 15SM FEW016 FEW100 FEW240 M00/M05 A3042 RMK CF1AC1CI1 CF TR SLP349

CYQF;2015-03-16 19:00;CYQF 161900Z 18008KT 140V200 15SM FEW024 FEW240 02/M05 A3042 RMK CU1CI1 CU TR SLP345

CYQF;2015-03-16 20:00;CYQF 162000Z 17010G15KT 15SM FEW024 02/M04 A3042 RMK CU1 SLP344

CYQF;2015-03-16 21:00;CYQF 162100Z 18013KT 15SM SCT028 03/M04 A3040 RMK CU4 SLP337

CYQF;2015-03-16 22:00;CYQF 162200Z 18013KT 15SM BKN030 03/M04 A3038 RMK SC7 SLP330

CYQF;2015-03-16 23:00;CYQF 162300Z 21011G19KT 15SM BKN030 03/M03 A3038 RMK SC5 SLP329

CYQF;2015-03-17 00:00;CYQF 170000Z 18010KT 15SM FEW030 03/M03 A3037 RMK SC1 SLP327

CYQF;2015-03-17 01:00;CYQF 170100Z 17008KT 15SM SKC 02/M02 A3036 RMK SLP325

CYQF;2015-03-17 02:00;CYQF 170200Z 17010KT 15SM SKC 01/M02 A3035 RMK SLP325

CYQF;2015-03-17 03:00;CYQF 170300Z 17011KT 15SM SKC M00/M03 A3037 RMK SLP332

CYQF;2015-03-17 04:00;CYQF 170400Z 18008KT 15SM SKC M01/M03 A3037 RMK SLP331

CYQF;2015-03-17 05:00;CYQF 170500Z 18006KT 15SM SKC M02/M03 A3036 RMK SLP328

CYQF;2015-03-17 06:00;CYQF 170600Z 18006KT 15SM SKC M03/M04 A3035 RMK SLP326

CYQF;2015-03-17 07:00;CYQF 170700Z 17005KT 15SM SKC M04/M05 A3035 RMK SLP323

CYQF;2015-03-17 08:00;CYQF 170800Z 17005KT 15SM FEW240 M04/M05 A3034 RMK CI2 SLP319

CYQF;2015-03-17 09:00;CYQF 170900Z 16006KT 15SM BKN220 M04/M05 A3032 RMK CI7 SLP311

CYQF;2015-03-17 10:00;CYQF 171000Z 15006KT 15SM BKN210 M04/M05 A3030 RMK CI7 SLP304

CYQF;2015-03-17 11:00;CYQF 171100Z 18005KT 15SM BKN220 M05/M06 A3028 RMK CI7 SLP298

CYQF;2015-03-17 12:00;CYQF 171200Z 16003KT 15SM BKN210 M05/M06 A3026 RMK CI6 SLP293

CYQF;2015-03-17 13:00;CYQF 171300Z 17005KT 15SM FEW210 M06/M07 A3025 RMK CI2 SLP289

CYQF;2015-03-17 14:00;CYQF 171400Z 00000KT 12SM FEW210 M05/M06 A3024 RMK CI1 SLP287

CYQF;2015-03-17 15:00;CYQF 171500Z 15007KT 15SM FEW210 M02/M04 A3023 RMK CI1 SLP281

CYQF;2015-03-17 16:00;CYQF 171600Z 17017KT 15SM SCT260 M00/M03 A3021 RMK CI4 SLP275

CYQF;2015-03-17 17:00;CYQF 171700Z 17015KT 15SM FEW012 BKN260 01/M02 A3020 RMK CF2CI4 SLP269

CYQF;2015-03-17 18:00;CYQF 171800Z 18015G21KT 15SM BKN015 01/M02 A3017 RMK SC7 SLP262

CYQF;2015-03-17 18:27;CYQF 171827Z 17017KT 15SM OVC013 01/M01 A3016 RMK SC8 SLP258

CYQF;2015-03-17 19:00;CYQF 171900Z 18017G22KT 15SM OVC015 02/M01 A3016 RMK SC8 SLP256

CYQF;2015-03-17 20:00;CYQF 172000Z 17013G21KT 15SM BKN020 03/M00 A3014 RMK SC7 SLP249

CYQF;2015-03-17 21:00;CYQF 172100Z 16017G23KT 15SM BKN020 BKN240 04/M00 A3010 RMK SC6CI1 SLP235

CYQF;2015-03-17 22:00;CYQF 172200Z 16016G22KT 15SM BKN023 BKN240 05/M00 A3008 RMK SC6CI1 SLP227

CYQF;2015-03-17 23:00;CYQF 172300Z 16018G24KT 15SM BKN024 BKN240 05/M01 A3007 RMK SC6CI1 SLP223

CYQF;2015-03-18 00:00;CYQF 180000Z 17014KT 15SM SCT025 BKN220 04/M01 A3004 RMK SC3CI4 SLP216

CYQF;2015-03-18 01:00;CYQF 180100Z 15015KT 15SM FEW025 BKN210 04/M02 A3001 RMK SC2CI5 SLP206

CYQF;2015-03-18 02:00;CYQF 180200Z 16008KT 15SM FEW030 SCT120 BKN200 02/M02 A3001 RMK SC1AC2CI4 SLP205

CYQF;2015-03-18 03:00;CYQF 180300Z 15006KT 15SM FEW060 BKN210 01/M02 A3001 RMK SC1CI4 SLP205

CYQF;2015-03-18 04:00;CYQF 180400Z 16007KT 15SM FEW060 BKN210 00/M02 A3001 RMK SC1CI4 SLP202

CYQF;2015-03-18 05:00;CYQF 180500Z 16008KT 15SM OVC063 01/M02 A3000 RMK SC8 SLP198

CYQF;2015-03-18 06:00;CYQF 180600Z 16007KT 15SM BKN066 OVC210 M00/M02 A2999 RMK AC7CI1 SLP196

CYQF;2015-03-18 07:00;CYQF 180700Z 13005KT 15SM BKN065 M01/M02 A2999 RMK SC6 SLP195

CYQF;2015-03-18 08:00;CYQF 180800Z 15005KT 15SM BKN074 M01/M02 A2999 RMK AC6 SLP192

CYQF;2015-03-18 09:00;CYQF 180900Z 15005KT 15SM BKN055 OVC230 M01/M03 A2998 RMK SC6CI2 SLP190

CYQF;2015-03-18 10:00;CYQF 181000Z 14004KT 15SM FEW060 BKN210 M02/M03 A2998 RMK SC2CI5 SLP189

CYQF;2015-03-18 11:00;CYQF 181100Z 18004KT 15SM SCT220 M02/M03 A2997 RMK CI3 SLP188

CYQF;2015-03-18 12:00;CYQF 181200Z 18006KT 15SM BKN200 M02/M03 A2998 RMK CI5 SLP190

CYQF;2015-03-18 13:00;CYQF 181300Z 19005KT 15SM BKN190 M02/M03 A2997 RMK CI7 FROIN SLP189

CYQF;2015-03-18 14:00;CYQF 181400Z 19003KT 10SM BKN220 M03/M03 A2997 RMK CI7 SLP190

CYQF;2015-03-18 15:00;CYQF 181500Z 20004KT 10SM BKN250 M02/M02 A2996 RMK CI7 SLP189

CYQF;2015-03-18 16:00;CYQF 181600Z 25004KT 10SM BKN250 M01/M02 A2997 RMK CI7 SLP190

CYQF;2015-03-18 17:00;CYQF 181700Z 29005KT 12SM BKN250 01/M01 A2997 RMK CI7 SLP188

CYQF;2015-03-18 18:00;CYQF 181800Z 32006KT 10SM BKN250 04/M02 A2997 RMK CI7 SLP187

CYQF;2015-03-18 19:00;CYQF 181900Z 33006KT 280V350 15SM BKN250 05/M03 A2997 RMK CI7 SLP186

CYQF;2015-03-18 20:00;CYQF 182000Z 34006KT 300V360 15SM BKN250 07/M02 A2997 RMK CI6 SLP183

CYQF;2015-03-18 21:00;CYQF 182100Z 36009KT 15SM BKN250 08/M03 A2996 RMK CI6 SLP178

CYQF;2015-03-18 22:00;CYQF 182200Z 35009KT 15SM FEW120 BKN250 08/M03 A2996 RMK AC1CI6 AC TR SLP178

CYQF;2015-03-18 23:00;CYQF 182300Z 34007KT 15SM FEW120 BKN250 09/M02 A2995 RMK AC1CI4 SLP175

CYQF;2015-03-19 00:00;CYQF 190000Z 32006KT 15SM FEW120 SCT250 09/M03 A2995 RMK AC1CI2 SLP175

CYQF;2015-03-19 01:00;CYQF 190100Z 25003KT 15SM FEW120 FEW250 08/M03 A2995 RMK AC1CI1 SLP175

CYQF;2015-03-19 02:00;CYQF 190200Z 23007KT 15SM FEW100 06/M04 A2995 RMK AC1 SLP180

CYQF;2015-03-19 03:00;CYQF 190300Z 23008KT 15SM FEW100 05/M04 A2996 RMK AC1 SLP184

CYQF;2015-03-19 04:00;CYQF 190400Z 20008KT 15SM FEW100 04/M04 A2996 RMK AC1 SLP184

CYQF;2015-03-19 05:00;CYQF 190500Z 21006KT 15SM SKC 01/M03 A2997 RMK SLP187

CYQF;2015-03-19 06:00;CYQF 190600Z 27003KT 15SM SKC 02/M04 A2998 RMK SLP186

CYQF;2015-03-19 07:00;CYQF 190700Z 26004KT 15SM FEW240 M01/M04 A2998 RMK CI1 SLP189

CYQF;2015-03-19 08:00;CYQF 190800Z VRB02KT 15SM FEW080 M02/M04 A2999 RMK AC1 AC TR SLP189

CYQF;2015-03-19 09:00;CYQF 190900Z 31004KT 15SM SKC 01/M04 A3000 RMK SLP191

CYQF;2015-03-19 10:00;CYQF 191000Z 20005KT 15SM SKC M02/M04 A3000 RMK SLP193

CYQF;2015-03-19 11:00;CYQF 191100Z 18004KT 15SM SCT200 M02/M04 A3000 RMK CI3 SLP191

CYQF;2015-03-19 12:00;CYQF 191200Z 20005KT 15SM SCT200 M02/M05 A2999 RMK CI4 SLP189

CYQF;2015-03-19 13:00;CYQF 191300Z 20002KT 15SM BKN210 M03/M05 A2999 RMK CI5 SLP189

CYQF;2015-03-19 14:00;CYQF 191400Z 16004KT 15SM FEW150 BKN240 M03/M05 A2997 RMK AC2CI4 SLP185

CYQF;2015-03-19 15:00;CYQF 191500Z 19005KT 15SM FEW080 SCT140 BKN240 M01/M04 A2995 RMK AC1AC2CI4 SLP178

CYQF;2015-03-19 16:00;CYQF 191600Z 22003KT 15SM FEW080 SCT140 BKN240 02/M04 A2995 RMK AC1AC2CI4 SLP176

CYQF;2015-03-19 17:00;CYQF 191700Z 18004KT 15SM FEW100 BKN200 04/M03 A2993 RMK AC2CI5 SLP168

CYQF;2015-03-19 18:00;CYQF 191800Z 20003KT 15SM BKN070 BKN200 06/M03 A2990 RMK AC6CI1 SLP155

CYQF;2015-03-19 19:00;CYQF 191900Z VRB05KT 15SM BKN070 BKN200 09/M02 A2986 RMK AC5CI2 VIRGA SLP143 DENSITY ALT 3000FT

CYQF;2015-03-19 20:00;CYQF 192000Z 15010KT 15SM BKN090 BKN200 10/M01 A2984 RMK AC5CI2 VIRGA SLP134 DENSITY ALT 3100FT

CYQF;2015-03-19 21:00;CYQF 192100Z 11010KT 15SM SCT080 BKN210 11/M02 A2980 RMK AC3CI3 SLP117 DENSITY ALT 3300FT

CYQF;2015-03-19 22:00;CYQF 192200Z 04017KT 15SM BKN090 BKN210 08/01 A2978 RMK AC5CI2 SLP118

CYQF;2015-03-19 23:00;CYQF 192300Z 03013KT 15SM BKN084 OVC210 07/02 A2979 RMK AC6CI2 SLP123

CYQF;2015-03-20 00:00;CYQF 200000Z 03014KT 15SM OVC080 05/02 A2981 RMK AC8 SLP129

CYQF;2015-03-20 01:00;CYQF 200100Z 04011KT 15SM FEW020 BKN070 05/02 A2981 RMK SC1AC6 VIRGA SLP130

CYQF;2015-03-20 02:00;CYQF 200200Z 03010KT 15SM FEW020 SCT080 BKN220 03/00 A2982 RMK SC1AC3CI3 SLP137

CYQF;2015-03-20 03:00;CYQF 200300Z 01008KT 15SM FEW020 BKN090 OVC220 02/M01 A2984 RMK SC2AC3CI3 SLP141

CYQF;2015-03-20 04:00;CYQF 200400Z 06008KT 15SM FEW020 SCT090 01/M01 A2985 RMK SC1AC3 SLP144

CYQF;2015-03-20 05:00;CYQF 200500Z 02004KT 15SM FEW090 00/M01 A2987 RMK AC2 SLP149

CYQF;2015-03-20 06:00;CYQF 200600Z 11002KT 15SM SKC M01/M02 A2988 RMK SLP152

CYQF;2015-03-20 07:00;CYQF 200700Z 10005KT 15SM SKC M02/M02 A2988 RMK SLP150

CYQF;2015-03-20 08:00;CYQF 200800Z 08006KT 15SM SKC M02/M03 A2988 RMK SLP151

CYQF;2015-03-20 09:00;CYQF 200900Z 06005KT 15SM FEW090 M02/M03 A2991 RMK AC1 SLP157

CYQF;2015-03-20 10:00;CYQF 201000Z 02008KT 12SM BKN004 M02/M03 A2996 RMK ST5 SLP179

CYQF;2015-03-20 10:28;CYQF 201028Z 05005KT 2SM M02/M02 A2998 RMK SLP187

CYQF;2015-03-20 10:47;CYQF 201047Z 04007KT 1SM BR OVC001 M02/M02 A2999 RMK ST8 VIS VRB 1/2-11/2 SLP189

CYQF;2015-03-20 11:00;CYQF 201100Z 03007KT 1SM BR OVC002 M02/M02 A3000 RMK ST8 VIS VRB 1/2-11/2 SLP193

CYQF;2015-03-20 11:17;CYQF 201117Z 03007KT 2SM BR OVC004 M02/M02 A2999 RMK ST8 SLP192

CYQF;2015-03-20 11:32;CYQF 201132Z 06006KT 3SM BR BKN005 OVC020 M02/M02 A2998 RMK ST6SC2 SLP188

CYQF;2015-03-20 12:00;CYQF 201200Z 02004KT 5SM BR BKN007 OVC021 M01/M02 A3001 RMK ST6SC2 SLP197

CYQF;2015-03-20 13:00;CYQF 201300Z 04004KT 5SM BR OVC005 M01/M02 A3003 RMK ST8 SLP205

CYQF;2015-03-20 13:09;CYQF 201309Z 06004KT 2SM BR OVC005 M01/M02 A3002 RMK ST8 SLP203

CYQF;2015-03-20 13:22;CYQF 201322Z 05005KT 2SM BR OVC004 M01/M02 A3002 RMK ST8 SLP203

CYQF;2015-03-20 14:05;CYQF 201405Z 08006KT 1/4SM FZFG VV002 M01/M02 A3004 RMK FG8 SLP209

CYQF;2015-03-20 14:43;CYQF 201443Z 09005KT 1/2SM FZFG OVC002 M01/M02 A3004 RMK ST8 SLP212

CYQF;2015-03-20 15:00;CYQF 201500Z 08006KT 1SM BR OVC002 M02/M02 A3005 RMK ST8 SLP215

CYQF;2015-03-20 15:11;CYQF 201511Z 09005KT 2 1/2SM BR OVC003 M01/M02 A3005 RMK ST8 SLP215

CYQF;2015-03-20 16:00;CYQF 201600Z 10003KT 2 1/2SM BR OVC004 M01/M02 A3006 RMK ST8 SLP219

CYQF;2015-03-20 17:00;CYQF 201700Z 11006KT 2 1/2SM BR OVC005 M01/M02 A3006 RMK ST8 SLP223

CYQF;2015-03-20 17:48;CYQF 201748Z 13006KT 3SM BR OVC006 M01/M02 A3006 RMK ST8 SLP223

CYQF;2015-03-20 18:00;CYQF 201800Z 12007KT 3SM BR OVC006 M01/M01 A3006 RMK ST8 SLP223

CYQF;2015-03-20 18:33;CYQF 201833Z 12008KT 5SM BR OVC008 M00/M01 A3006 RMK ST8 SLP220

CYQF;2015-03-20 19:00;CYQF 201900Z 14008KT 5SM BR OVC008 00/M01 A3006 RMK ST8 SLP222

CYQF;2015-03-20 19:29;CYQF 201929Z 14010KT 2 1/2SM BR OVC009 M00/M01 A3006 RMK ST8 SLP222

CYQF;2015-03-20 20:00;CYQF 202000Z 14008KT 2 1/2SM BR OVC008 00/M01 A3004 RMK ST8 VIS S 5 SLP217

CYQF;2015-03-20 20:41;CYQF 202041Z 12009KT 5SM BR OVC010 00/M02 A3003 RMK ST8 SLP213

CYQF;2015-03-20 21:00;CYQF 202100Z CCA 12010KT 5SM BR OVC015 01/M02 A3002 RMK SC8 SLP208

CYQF;2015-03-20 21:39;CYQF 202139Z 12010KT 2SM -SN OVC014 01/M02 A3001 RMK SC8 SLP206

CYQF;2015-03-20 22:00;CYQF 202200Z 13009KT 1SM -SN OVC012 01/M01 A3001 RMK SC8 SLP203

CYQF;2015-03-20 23:00;CYQF 202300Z 12008KT 1SM -SN OVC010 00/M01 A2999 RMK SC8 CIG RAG SLP199

CYQF;2015-03-20 23:29;CYQF 202329Z 12010KT 2SM -SN OVC014 00/M01 A2999 RMK SC8 SLP198

CYQF;2015-03-21 00:00;CYQF 210000Z 12011KT 4SM -SN OVC010 00/M01 A2999 RMK SC8 SLP198

CYQF;2015-03-21 01:00;CYQF 210100Z 12011KT 4SM -SN OVC007 00/M01 A2998 RMK ST8 SLP193

CYQF;2015-03-21 01:29;CYQF 210129Z 13011KT 4SM -SN OVC004 M00/M01 A2998 RMK ST8 SLP194

CYQF;2015-03-21 02:00;CYQF 210200Z 13012G18KT 2SM -SN OVC003 M00/M01 A2997 RMK ST8 SLP191

CYQF;2015-03-21 03:00;CYQF 210300Z 12008KT 2SM -SN OVC005 M01/M01 A2996 RMK ST8 SLP190

CYQF;2015-03-21 03:49;CYQF 210349Z 11010KT 8SM -SN OVC005 M00/M01 A2996 RMK ST8 SLP187

CYQF;2015-03-21 04:00;CYQF 210400Z 12009KT 10SM -SN OVC004 M00/M01 A2995 RMK ST8 SLP186

CYQF;2015-03-21 04:19;CYQF 210419Z 13010KT 6SM BR OVC004 M00/M01 A2995 RMK ST8 SLP184

CYQF;2015-03-21 05:00;CYQF 210500Z 14014G23KT 3SM BR OVC004 M00/M01 A2995 RMK ST8 SLP182

CYQF;2015-03-21 06:00;CYQF 210600Z 13013G21KT 3SM BR OVC006 M01/M01 A2993 RMK ST8 SLP175

CYQF;2015-03-21 07:00;CYQF 210700Z 13012KT 3SM BR OVC005 M01/M02 A2991 RMK ST8 SLP170

CYQF;2015-03-21 08:00;CYQF 210800Z 13013KT 3SM BR OVC004 M01/M01 A2989 RMK ST8 SLP163

CYQF;2015-03-21 09:00;CYQF 210900Z 14013G18KT 3SM BR OVC004 M01/M01 A2988 RMK ST8 SLP157

CYQF;2015-03-21 10:00;CYQF 211000Z 13011KT 3SM BR OVC004 M01/M01 A2987 RMK ST8 SLP154

CYQF;2015-03-21 10:13;CYQF 211013Z 12012KT 2SM -FZDZ BR OVC003 M01/M01 A2986 RMK ST8 SLP152

CYQF;2015-03-21 11:00;CYQF 211100Z 13015KT 2SM -FZDZ BR OVC003 M01/M02 A2984 RMK ST8 SLP145

CYQF;2015-03-21 11:39;CYQF 211139Z 13012KT 1 1/2SM BR OVC002 M01/M02 A2984 RMK ST8 PRESFR SLP145

CYQF;2015-03-21 12:00;CYQF 211200Z 12010G17KT 1SM BR OVC002 M01/M02 A2984 RMK ST8 RIME ON INDICATOR SLP144

CYQF;2015-03-21 12:35;CYQF 211235Z 13013KT 5/8SM BR OVC002 M02/M02 A2986 RMK ST8 RIME ON INDICATOR PRESRR SLP151

CYQF;2015-03-21 13:00;CYQF 211300Z 12008KT 1/2SM FZFG OVC002 M02/M02 A2985 RMK FG4ST4 SLP150

CYQF;2015-03-21 14:00;CYQF 211400Z 12009KT 1/2SM FZFG OVC002 M02/M02 A2984 RMK FG4ST4 SLP146

CYQF;2015-03-21 15:00;CYQF 211500Z 13010KT 1/2SM FZFG OVC003 M02/M02 A2984 RMK FG4ST4 SLP146

CYQF;2015-03-21 16:00;CYQF 211600Z 12009KT 1/2SM FZFG VV002 M02/M02 A2985 RMK FG8 SLP148

CYQF;2015-03-21 16:16;CYQF 211616Z 12009KT 1/4SM FZFG VV002 M02/M02 A2984 RMK FG8 SLP145

CYQF;2015-03-21 17:00;CYQF 211700Z 12007KT 1/2SM FZFG VV003 M02/M02 A2983 RMK FG8 SLP143

CYQF;2015-03-21 17:17;CYQF 211717Z 11009KT 3/4SM BR VV003 M02/M02 A2983 RMK FG8 SLP142

CYQF;2015-03-21 17:48;CYQF 211748Z 11008KT 1SM BR OVC002 M02/M02 A2983 RMK FG4ST4 SLP144

CYQF;2015-03-21 18:00;CYQF 211800Z 12008KT 1SM BR OVC003 M02/M02 A2984 RMK FG3ST5 SLP145

CYQF;2015-03-21 19:00;CYQF 211900Z 10005KT 1SM BR OVC002 M01/M01 A2983 RMK FG3ST5 SLP144

CYQF;2015-03-21 19:17;CYQF 211917Z 10006KT 2SM BR OVC003 M01/M01 A2984 RMK FG2ST6 SLP147

CYQF;2015-03-21 20:00;CYQF 212000Z 09007KT 2 1/2SM BR OVC004 M01/M02 A2984 RMK ST8 SLP145

CYQF;2015-03-21 21:00;CYQF 212100Z 06008KT 3SM -FZDZ BR OVC005 M01/M02 A2982 RMK ST8 CIG RAG SLP140

CYQF;2015-03-21 21:40;CYQF 212140Z 06010KT 2 1/2SM -FZDZ BR OVC003 M01/M02 A2983 RMK ST8 CIG RAG SLP141

CYQF;2015-03-21 22:00;CYQF 212200Z 06011KT 1 1/2SM BR OVC002 M02/M02 A2982 RMK ST8 CIG RAG SLP141

CYQF;2015-03-21 22:11;CYQF 212211Z 06010KT 1SM BR OVC002 M02/M02 A2983 RMK FG4ST4 CIG RAG SLP142

CYQF;2015-03-21 22:35;CYQF 212235Z 06010KT 1SM -FZDZ -SN BR OVC002 M02/M02 A2984 RMK ST8 SLP147

CYQF;2015-03-21 22:38;CYQF 212238Z 06012KT 1SM -SHGS OVC002 M02/M03 A2984 RMK SC8 SLP147

CYQF;2015-03-21 23:00;CYQF 212300Z 06010KT 1SM -SN BR OVC003 M02/M03 A2984 RMK ST8 CIG RAG SLP147

CYQF;2015-03-21 23:23;CYQF 212323Z 06010KT 5/8SM -SN BR OVC002 M03/M03 A2984 RMK SN4ST4 CIG RAG SLP149

CYQF;2015-03-21 23:42;CYQF 212342Z 06012KT 1SM -SN BR OVC003 M03/M03 A2984 RMK ST8 CIG RAG SLP148

CYQF;2015-03-22 00:00;CYQF 220000Z 08011KT 1SM SNRA VV025 M03/M03 A2985 RMK SN8 SLP151

CYQF;2015-03-22 01:00;CYQF 220100Z 06007KT 1 1/2SM -SN BR FEW003 VV022 M03/M04 A2986 RMK ST1SN7 /S01/ SLP157

CYQF;2015-03-22 01:17;CYQF 220117Z 05008KT 3/4SM -SN BR FEW003 VV009 M03/M04 A2987 RMK ST1SN7 SLP159

CYQF;2015-03-22 01:32;CYQF 220132Z 04008KT 5/8SM -SN BR VV012 M03/M04 A2986 RMK SN8 SLP158

CYQF;2015-03-22 01:36;CYQF 220136Z 04007KT 3/4SM -SN BR VV014 M03/M04 A2986 RMK SN8 VIS VRB 1/2-1 SLP158

CYQF;2015-03-22 02:00;CYQF 220200Z 04009KT 3/4SM -SN BR VV017 M04/M04 A2987 RMK SN8 VIS VRB 1/2-1 SLP161

CYQF;2015-03-22 03:00;CYQF 220300Z 04008KT 3/4SM -SN BR VV019 M04/M05 A2988 RMK SN8 /S03/ SLP166

CYQF;2015-03-22 03:25;CYQF 220325Z 03007KT 2SM -SN BR SCT010 VV060 M04/M05 A2989 RMK ST4SN4 SLP168

CYQF;2015-03-22 04:00;CYQF 220400Z 01007KT 2 1/2SM -SN BR SCT008 OVC032 M04/M05 A2990 RMK ST3SC5 SLP173

CYQF;2015-03-22 04:26;CYQF 220426Z 02005KT 3SM -SN BR FEW030 VV060 M05/M06 A2991 RMK SC2SN6 SLP174

CYQF;2015-03-22 05:00;CYQF 220500Z 01007KT 2SM -SN BR FEW010 VV025 M05/M06 A2991 RMK SF2SN6 /S04/ SLP177

CYQF;2015-03-22 05:37;CYQF 220537Z 36005KT 1SM -SN VV012 M05/M06 A2993 RMK SN8 SLP181

CYQF;2015-03-22 06:00;CYQF 220600Z 36006KT 1 1/2SM -SN VV020 M05/M06 A2993 RMK SN8 /S06/ SLP183

CYQF;2015-03-22 06:25;CYQF 220625Z 36008KT 3SM -SN VV040 M05/M06 A2994 RMK SN8 SLP186

CYQF;2015-03-22 07:00;CYQF 220700Z 01009KT 1 1/2SM -SN VV020 M06/M07 A2995 RMK SN8 SLP189

CYQF;2015-03-22 08:00;CYQF 220800Z 34007KT 1 1/2SM -SN VV017 M07/M08 A2997 RMK SN8 /S02/ SLP197

CYQF;2015-03-22 09:00;CYQF 220900Z 35005KT 1 1/2SM -SN VV025 M07/M08 A2998 RMK SN8 SLP202

CYQF;2015-03-22 10:00;CYQF 221000Z 33005KT 1 1/2SM -SN VV018 M07/M08 A2999 RMK SN8 /S03/ SLP206

CYQF;2015-03-22 11:00;CYQF 221100Z 35005KT 1 1/2SM -SN VV018 M07/M08 A3000 RMK SN8 /S04/ SLP210

CYQF;2015-03-22 12:00;CYQF 221200Z 34006KT 2SM -SN VV030 M07/M08 A3001 RMK SN8 /S05/ SLP213

CYQF;2015-03-22 12:46;CYQF 221246Z 34006KT 5SM -SN FEW010 OVC075 M07/M08 A3002 RMK SF2AC6 SLP218

CYQF;2015-03-22 13:00;CYQF 221300Z 33008KT 6SM -SN FEW010 OVC075 M07/M08 A3002 RMK SF2AC6 SLP219

CYQF;2015-03-22 14:00;CYQF 221400Z 31006KT 12SM -SN FEW010 BKN080 OVC150 M07/M09 A3004 RMK SF1AC4AC3 SLP226

CYQF;2015-03-22 15:00;CYQF 221500Z 32006KT 15SM SCT080 BKN150 M07/M09 A3005 RMK AC4AC3 SLP229

CYQF;2015-03-22 15:13;CYQF 221513Z 32006KT 15SM SCT075 BKN150 M07/M09 A3005 RMK AC4AC2 SLP230

CYQF;2015-03-22 16:00;CYQF 221600Z 32005KT 15SM BKN070 M06/M09 A3006 RMK AC6 SLP232

CYQF;2015-03-22 17:00;CYQF 221700Z 32005KT 15SM SCT035 BKN070 M06/M09 A3006 RMK SC3AC4 SLP233

CYQF;2015-03-22 18:00;CYQF 221800Z 34005KT 15SM SCT035 BKN070 M05/M08 A3007 RMK SC4AC2 SLP236

CYQF;2015-03-22 19:00;CYQF 221900Z 35002KT 15SM BKN032 BKN070 M04/M08 A3006 RMK SC5AC2 SLP231

CYQF;2015-03-22 20:00;CYQF 222000Z 22004KT 15SM FEW030 FEW070 M03/M08 A3005 RMK SC1AC1 SC TR AC TR SLP228

CYQF;2015-03-22 21:00;CYQF 222100Z 26005KT 15SM FEW030 M03/M07 A3006 RMK SC1 SC TR SLP233

CYQF;2015-03-22 22:00;CYQF 222200Z 33003KT 280V350 15SM FEW020 FEW250 M02/M07 A3006 RMK CU1CI1 CU TR SLP229

CYQF;2015-03-22 23:00;CYQF 222300Z VRB02KT 15SM FEW020 FEW250 M02/M07 A3004 RMK CF1CI1 CF TR CI TR SLP224

CYQF;2015-03-23 00:00;CYQF 230000Z 04002KT 15SM FEW250 M02/M07 A3002 RMK CI1 SLP217

CYQF;2015-03-23 01:00;CYQF 230100Z 19003KT 15SM BKN250 M03/M06 A3004 RMK CI5 SLP223

CYQF;2015-03-23 02:00;CYQF 230200Z 16002KT 15SM BKN220 M05/M07 A3004 RMK CI6 SLP226

CYQF;2015-03-23 03:00;CYQF 230300Z 15004KT 15SM SCT180 BKN220 M06/M07 A3003 RMK CI4CI2 SLP226

CYQF;2015-03-23 04:00;CYQF 230400Z 15003KT 140V240 15SM SCT180 M06/M08 A3004 RMK CI3 SLP226

CYQF;2015-03-23 05:00;CYQF 230500Z 07002KT 15SM BKN140 M08/M09 A3002 RMK AC5 SLP223

CYQF;2015-03-23 06:00;CYQF 230600Z 05002KT 15SM OVC035 M08/M08 A3001 RMK SC8 WND ESTD SLP217

CYQF;2015-03-23 07:00;CYQF 230700Z 14005KT 15SM OVC035 M05/M06 A3001 RMK SC8 SLP211

CYQF;2015-03-23 08:00;CYQF 230800Z 12005KT 15SM OVC035 M05/M07 A2999 RMK SC8 SLP206

CYQF;2015-03-23 09:00;CYQF 230900Z 13007KT 14SM OVC033 M04/M07 A2998 RMK SC8 SLP200

CYQF;2015-03-23 10:00;CYQF 231000Z 15008KT 15SM OVC033 M05/M07 A2996 RMK SC8 SLP195

CYQF;2015-03-23 11:00;CYQF 231100Z 14006KT 15SM OVC030 M05/M07 A2994 RMK SC8 SLP186

CYQF;2015-03-23 12:00;CYQF 231200Z 14009KT 15SM OVC030 M06/M07 A2993 RMK SC8 SLP185

CYQF;2015-03-23 13:00;CYQF 231300Z 13006KT 15SM BKN033 OVC090 M07/M09 A2992 RMK SC7AC1 SLP183

CYQF;2015-03-23 14:00;CYQF 231400Z 13007KT 10SM FEW030 OVC180 M08/M09 A2990 RMK SC2AC6 SLP178

CYQF;2015-03-23 15:00;CYQF 231500Z 15009KT 12SM OVC180 M06/M08 A2990 RMK AC8 SLP178

CYQF;2015-03-23 16:00;CYQF 231600Z 13008KT 15SM SCT160 OVC260 M06/M08 A2989 RMK AC4CS4 SLP174

CYQF;2015-03-23 17:00;CYQF 231700Z 13008KT 15SM FEW015 BKN150 OVC260 M04/M07 A2989 RMK SC1AC5CI2 SLP174

CYQF;2015-03-23 18:00;CYQF 231800Z 14009KT 15SM SCT150 OVC260 M04/M07 A2987 RMK AC3CS5 SLP167

CYQF;2015-03-23 19:00;CYQF 231900Z 14011KT 15SM OVC220 M04/M07 A2986 RMK CS8 SLP159

CYQF;2015-03-23 20:00;CYQF 232000Z 14010KT 8SM BKN030 OVC070 M03/M06 A2984 RMK SC7AS1 SLP151

CYQF;2015-03-23 21:00;CYQF 232100Z 14008KT 8SM SCT030 BKN070 OVC220 M03/M06 A2982 RMK SC3AS2CS3 SLP145

CYQF;2015-03-23 22:00;CYQF 232200Z 15006KT 12SM SCT030 BKN070 OVC220 M03/M06 A2982 RMK SC3AS3CS2 SLP144

CYQF;2015-03-23 22:29;CYQF 232229Z 14007KT 10SM BKN014 OVC070 M03/M06 A2982 RMK SC6AS2 SLP145

CYQF;2015-03-23 23:00;CYQF 232300Z 13008KT 12SM OVC014 M03/M05 A2983 RMK SC8 SLP147

CYQF;2015-03-24 00:00;CYQF 240000Z 13006KT 10SM OVC013 M03/M05 A2983 RMK SC8 SLP150

CYQF;2015-03-24 01:00;CYQF 240100Z 09004KT 070V150 10SM OVC014 M02/M05 A2983 RMK SC8 SLP152

CYQF;2015-03-24 02:00;CYQF 240200Z 00000KT 10SM OVC014 M03/M05 A2986 RMK SC8 SLP162

CYQF;2015-03-24 02:41;CYQF 240241Z 00000KT 3SM OVC007 M03/M05 A2987 RMK ST8 SLP167

CYQF;2015-03-24 02:53;CYQF 240253Z 00000KT 2SM FZDZ OVC005 M03/M04 A2987 RMK ST8 FZDZ SLP167

CYQF;2015-03-24 03:00;CYQF 240300Z 08003KT 050V210 1 1/2SM FZDZ OVC005 M03/M04 A2987 RMK ST8 CIG VRB 4-6 SLP167

CYQF;2015-03-24 03:28;CYQF 240328Z 09004KT 1SM FZDZ OVC004 M03/M04 A2987 RMK ST8 CIG VRB 3-7 SLP166

CYQF;2015-03-24 03:42;CYQF 240342Z 10005KT 2SM -FZDZ -SN SCT004 OVC009 M03/M04 A2986 RMK ST3ST5 SLP164

CYQF;2015-03-24 04:00;CYQF 240400Z 12004KT 3SM -SN BR FEW004 OVC011 M03/M04 A2986 RMK ST2ST6 CIG RAG SLP162

CYQF;2015-03-24 04:33;CYQF 240433Z 16004KT 5SM BR OVC010 M03/M04 A2986 RMK ST8 SLP160

CYQF;2015-03-24 05:00;CYQF 240500Z 24003KT 160V250 5SM BR OVC006 M03/M04 A2987 RMK ST8 SLP162

CYQF;2015-03-24 06:00;CYQF 240600Z 24004KT 5SM BR OVC008 M03/M04 A2987 RMK ST8 SLP164

CYQF;2015-03-24 07:00;CYQF 240700Z 27003KT 5SM BR OVC014 M03/M04 A2987 RMK ST8 SLP161

CYQF;2015-03-24 08:00;CYQF 240800Z 29004KT 8SM OVC011 M03/M04 A2987 RMK ST8 SLP162

CYQF;2015-03-24 09:00;CYQF 240900Z 32009KT 8SM OVC012 M02/M04 A2987 RMK ST8 SLP161

CYQF;2015-03-24 10:00;CYQF 241000Z 31005KT 10SM OVC015 M02/M04 A2988 RMK CU8 SLP163

CYQF;2015-03-24 11:00;CYQF 241100Z 29005KT 10SM OVC019 M02/M05 A2989 RMK SC8 SLP166

CYQF;2015-03-24 12:00;CYQF 241200Z 30004KT 10SM OVC024 M02/M05 A2989 RMK SC8 SLP168

CYQF;2015-03-24 13:00;CYQF 241300Z 30006KT 10SM OVC024 M02/M05 A2991 RMK SC8 SLP173

CYQF;2015-03-24 14:00;CYQF 241400Z 31007KT 10SM OVC026 M02/M04 A2992 RMK SC8 SLP178

CYQF;2015-03-24 15:00;CYQF 241500Z 36005KT 10SM OVC023 M02/M05 A2993 RMK SC8 SLP181

CYQF;2015-03-24 16:00;CYQF 241600Z 34008KT 10SM FEW014 OVC030 M02/M06 A2994 RMK SF1SC7 SLP184

CYQF;2015-03-24 17:00;CYQF 241700Z 36007KT 10SM BKN015 OVC030 M02/M06 A2995 RMK SC5SC3 SLP190

CYQF;2015-03-24 18:00;CYQF 241800Z 34008KT 10SM SCT010 OVC020 M02/M06 A2996 RMK SC3SC5 CIG RAG SLP190

CYQF;2015-03-24 19:00;CYQF 241900Z 35007KT 330V030 10SM OVC021 M01/M06 A2997 RMK SC8 CIG RAG SLP195

CYQF;2015-03-24 20:00;CYQF 242000Z 35006KT 12SM OVC019 M01/M06 A2998 RMK SC8 SLP196

CYQF;2015-03-24 21:00;CYQF 242100Z 35008KT 12SM OVC020 M01/M06 A2999 RMK SC8 SLP200

CYQF;2015-03-24 22:00;CYQF 242200Z 32005KT 15SM OVC020 M01/M06 A3000 RMK SC8 SLP202

CYQF;2015-03-24 23:00;CYQF 242300Z 36005KT 330V040 15SM BKN021 M01/M05 A3000 RMK SC7 SLP203

CYQF;2015-03-25 00:00;CYQF 250000Z VRB02KT 15SM FEW020 M00/M05 A3002 RMK SC1 SLP208

CYQF;2015-03-25 01:00;CYQF 250100Z 08002KT 15SM FEW020 FEW250 M01/M05 A3003 RMK SC1CI1 SC TR SLP212

CYQF;2015-03-25 02:00;CYQF 250200Z 14003KT 15SM FEW020 SCT250 M04/M06 A3005 RMK SC2CI1 SLP223

CYQF;2015-03-25 03:00;CYQF 250300Z 17005KT 15SM FEW020 M05/M06 A3006 RMK SC1 SC TR SLP228

CYQF;2015-03-25 04:00;CYQF 250400Z 19006KT 15SM SKC M06/M07 A3006 RMK SLP231

CYQF;2015-03-25 05:00;CYQF 250500Z 20007KT 15SM SKC M06/M07 A3007 RMK SLP234

CYQF;2015-03-25 06:00;CYQF 250600Z 17004KT 15SM SKC M06/M08 A3006 RMK SLP231

CYQF;2015-03-25 07:00;CYQF 250700Z 18005KT 15SM SKC M06/M07 A3007 RMK SLP232

CYQF;2015-03-25 08:00;CYQF 250800Z 18006KT 15SM FEW060 M07/M08 A3007 RMK SC1 SLP232

CYQF;2015-03-25 09:00;CYQF 250900Z 18006KT 10SM FEW080 M07/M08 A3006 RMK AC1 SLP231

CYQF;2015-03-25 10:00;CYQF 251000Z 18005KT 10SM SKC M07/M08 A3006 RMK SLP227

CYQF;2015-03-25 11:00;CYQF 251100Z 17005KT 10SM SKC M08/M09 A3005 RMK SLP226

CYQF;2015-03-25 12:00;CYQF 251200Z 19006KT 10SM SKC M07/M08 A3005 RMK SLP225

CYQF;2015-03-25 13:00;CYQF 251300Z 18007KT 10SM BKN210 M07/M08 A3004 RMK CI5 SLP222

CYQF;2015-03-25 14:00;CYQF 251400Z 19005KT 8SM BKN150 OVC210 M07/M08 A3004 RMK AC5CI3 BR FROIN SLP225

CYQF;2015-03-25 15:00;CYQF 251500Z 20003KT 8SM BKN140 OVC210 M05/M06 A3004 RMK AC6CI2 BR SLP224

CYQF;2015-03-25 16:00;CYQF 251600Z 19003KT 8SM BKN150 OVC210 M03/M04 A3004 RMK AC5CI3 SLP222

CYQF;2015-03-25 17:00;CYQF 251700Z 16004KT 10SM BKN230 00/M04 A3001 RMK CI7 SLP211

CYQF;2015-03-25 18:00;CYQF 251800Z 15003KT 10SM BKN230 02/M04 A3000 RMK CI7 SLP206

CYQF;2015-03-25 19:00;CYQF 251900Z 14007KT 12SM BKN230 03/M02 A2999 RMK CI7 SLP199

CYQF;2015-03-25 20:00;CYQF 252000Z 14005KT 12SM FEW160 OVC230 04/M02 A2998 RMK AC1CS7 SLP196

CYQF;2015-03-25 21:00;CYQF 252100Z 14004KT 12SM FEW130 BKN230 06/M01 A2998 RMK AC2CI5 SLP193

CYQF;2015-03-25 22:00;CYQF 252200Z 12005KT 060V120 12SM SCT110 BKN230 07/M02 A2996 RMK AC3CI3 SLP188

CYQF;2015-03-25 23:00;CYQF 252300Z 07005KT 15SM FEW080 BKN120 OVC260 07/M01 A2996 RMK AC2AC4CI2 SLP189

CYQF;2015-03-26 00:00;CYQF 260000Z 11005KT 15SM OVC100 06/M02 A2998 RMK AC8 SLP193

CYQF;2015-03-26 01:00;CYQF 260100Z 09004KT 15SM OVC100 05/00 A2997 RMK AC8 SLP193

CYQF;2015-03-26 02:00;CYQF 260200Z 07004KT 15SM OVC100 02/M01 A2999 RMK AC8 SLP203

CYQF;2015-03-26 03:00;CYQF 260300Z 06003KT 15SM OVC090 02/M01 A3001 RMK AC8 SLP206

CYQF;2015-03-26 04:00;CYQF 260400Z 36003KT 15SM BKN100 03/M02 A3003 RMK AC7 SLP211

CYQF;2015-03-26 05:00;CYQF 260500Z 02002KT 15SM BKN090 02/M02 A3005 RMK AC7 SLP213

CYQF;2015-03-26 06:00;CYQF 260600Z VRB03KT 15SM BKN080 02/M02 A3003 RMK AC6 SLP205

CYQF;2015-03-26 07:00;CYQF 260700Z 00000KT 15SM BKN150 M00/M03 A3002 RMK AC7 SLP204

CYQF;2015-03-26 08:00;CYQF 260800Z 00000KT 15SM BKN130 00/M02 A3002 RMK AC7 SLP201

CYQF;2015-03-26 09:00;CYQF 260900Z 19004KT 15SM FEW170 00/M01 A3001 RMK AC1 SLP195

CYQF;2015-03-26 10:00;CYQF 261000Z 10002KT 15SM SCT170 M01/M02 A3001 RMK AC4 SLP195

CYQF;2015-03-26 11:00;CYQF 261100Z VRB02KT 15SM SCT150 01/M02 A3000 RMK AC4 SLP191

CYQF;2015-03-26 12:00;CYQF 261200Z 00000KT 15SM BKN130 00/M02 A3001 RMK AC7 SLP194

CYQF;2015-03-26 13:00;CYQF 261300Z 28002KT 15SM OVC140 M00/M02 A3000 RMK AC8 SLP194

CYQF;2015-03-26 14:00;CYQF 261400Z 21004KT 15SM BKN100 OVC250 00/M02 A2998 RMK AS6CI2 SLP190

CYQF;2015-03-26 15:00;CYQF 261500Z 21003KT 12SM SCT100 BKN250 01/M02 A2998 RMK AC3CI4 CONTRAILS SLP188

CYQF;2015-03-26 16:00;CYQF 261600Z 19005KT 12SM SCT080 BKN160 BKN250 03/M01 A2997 RMK AC4AS2CI1 SLP185

CYQF;2015-03-26 17:00;CYQF 261700Z VRB02KT 15SM BKN090 BKN160 BKN250 04/00 A2997 RMK AC5AS1CI1 SLP183

CYQF;2015-03-26 18:00;CYQF 261800Z VRB02KT 15SM BKN086 06/01 A2998 RMK AC7 SLP184

CYQF;2015-03-26 19:00;CYQF 261900Z 03004KT 360V070 15SM BKN084 08/02 A2998 RMK AC7 SLP185

CYQF;2015-03-26 20:00;CYQF 262000Z 02004KT 340V050 15SM BKN095 10/02 A2998 RMK AC7 SLP181

CYQF;2015-03-26 21:00;CYQF 262100Z 04004KT 340V060 15SM SCT085 BKN250 11/02 A2997 RMK AC4CI3 SLP177 DENSITY ALT 3100FT

CYQF;2015-03-26 22:00;CYQF 262200Z 05004KT 020V120 15SM FEW030 BKN085 BKN250 12/03 A2996 RMK SC1AC4CI1 SLP174 DENSITY ALT 3200FT

CYQF;2015-03-26 23:00;CYQF 262300Z VRB02KT 15SM FEW030 SCT090 BKN250 13/M00 A2996 RMK SC1AC3CI3 SC TR SLP170 DENSITY ALT 3300FT

CYQF;2015-03-27 00:00;CYQF 270000Z 20003KT 15SM FEW030 FEW100 BKN250 12/03 A2995 RMK SC1AC2CI4 SC TR SLP169 DENSITY ALT 3200FT

CYQF;2015-03-27 01:00;CYQF 270100Z 14003KT 15SM FEW030 SCT120 BKN250 11/02 A2995 RMK SC1AC3CI3 SC TR SLP168 DENSITY ALT 3200FT

CYQF;2015-03-27 02:00;CYQF 270200Z 16005KT 15SM SCT120 BKN220 09/05 A2995 RMK AC3CI4 SLP171

CYQF;2015-03-27 03:00;CYQF 270300Z 18006KT 15SM BKN170 06/04 A2994 RMK AS7 SLP170

CYQF;2015-03-27 04:00;CYQF 270400Z 20005KT 15SM OVC150 07/03 A2995 RMK AS8 SLP172

CYQF;2015-03-27 05:00;CYQF 270500Z 23003KT 15SM BKN150 06/03 A2995 RMK AC5 SLP173

CYQF;2015-03-27 06:00;CYQF 270600Z 18005KT 15SM SKC 05/02 A2996 RMK SLP173

CYQF;2015-03-27 07:00;CYQF 270700Z 21006KT 15SM SCT140 04/02 A2995 RMK AC4 SLP170

CYQF;2015-03-27 08:00;CYQF 270800Z 22004KT 15SM FEW170 02/00 A2994 RMK AC2 SLP166

CYQF;2015-03-27 09:00;CYQF 270900Z 21007KT 15SM SKC 01/M00 A2993 RMK SLP162

CYQF;2015-03-27 10:00;CYQF 271000Z 21006KT 15SM SKC 01/M00 A2994 RMK SLP162

CYQF;2015-03-27 11:00;CYQF 271100Z 18006KT 15SM SKC 00/M01 A2991 RMK SLP155

CYQF;2015-03-27 12:00;CYQF 271200Z 21004KT 15SM SCT250 01/00 A2991 RMK CI3 SLP152

CYQF;2015-03-27 13:00;CYQF 271300Z 20002KT 15SM BKN240 M00/M02 A2991 RMK CI6 SLP157

CYQF;2015-03-27 14:00;CYQF 271400Z 19003KT 15SM BKN240 M00/M02 A2991 RMK CI6 SLP157

CYQF;2015-03-27 15:00;CYQF 271500Z 17003KT 070V200 15SM BKN240 02/00 A2989 RMK CI5 SLP153

CYQF;2015-03-27 16:00;CYQF 271600Z VRB03KT 15SM BKN240 06/02 A2989 RMK CI6 SLP149

CYQF;2015-03-27 17:00;CYQF 271700Z 13002KT 15SM BKN240 10/03 A2988 RMK CI6 SLP141 DENSITY ALT 3000FT

CYQF;2015-03-27 18:00;CYQF 271800Z 19002KT 15SM BKN240 12/03 A2987 RMK CI6 SLP137 DENSITY ALT 3300FT

CYQF;2015-03-27 19:00;CYQF 271900Z 17005KT 120V180 15SM BKN240 14/03 A2986 RMK CI6 SLP129 DENSITY ALT 3600FT

CYQF;2015-03-27 20:00;CYQF 272000Z 17006KT 15SM FEW040 BKN240 16/04 A2982 RMK CU1CI6 CU TR SLP117 DENSITY ALT 3900FT

CYQF;2015-03-27 21:00;CYQF 272100Z 16008KT 15SM FEW040 BKN240 17/05 A2979 RMK CU1CI6 CU TR SLP107 DENSITY ALT 4000FT

CYQF;2015-03-27 22:00;CYQF 272200Z 16009KT 15SM FEW050 BKN240 18/03 A2976 RMK CU1CI4 SLP095 DENSITY ALT 4200FT

CYQF;2015-03-27 23:00;CYQF 272300Z 14012KT 15SM FEW050 BKN240 18/04 A2973 RMK CU1CI5 CU TR SLP086 DENSITY ALT 4200FT

CYQF;2015-03-28 00:00;CYQF 280000Z 14011KT 15SM FEW050 SCT240 17/06 A2970 RMK CU1CI3 CU TR SLP076 DENSITY ALT 4100FT

CYQF;2015-03-28 01:00;CYQF 280100Z 15007KT 15SM BKN240 14/05 A2968 RMK CI5 SLP072 DENSITY ALT 3800FT

CYQF;2015-03-28 02:00;CYQF 280200Z 16007KT 15SM SCT240 12/03 A2966 RMK CI4 SLP066 DENSITY ALT 3600FT

CYQF;2015-03-28 03:00;CYQF 280300Z 19006KT 15SM SCT240 11/03 A2965 RMK CI3 SLP062 DENSITY ALT 3400FT

CYQF;2015-03-28 04:00;CYQF 280400Z 22008KT 15SM FEW240 08/03 A2964 RMK CI2 SLP059 DENSITY ALT 3100FT

CYQF;2015-03-28 05:00;CYQF 280500Z 24010KT 15SM SKC 10/M01 A2964 RMK SLP052 DENSITY ALT 3300FT

CYQF;2015-03-28 06:00;CYQF 280600Z 20007KT 15SM SKC 06/M02 A2963 RMK SLP050

CYQF;2015-03-28 07:00;CYQF 280700Z 24008KT 15SM FEW120 08/M03 A2960 RMK AC1 SLP038 DENSITY ALT 3100FT

CYQF;2015-03-28 08:00;CYQF 280800Z 21007KT 15SM BKN250 04/M02 A2959 RMK CI5 SLP034

CYQF;2015-03-28 09:00;CYQF 280900Z CCA 22006KT 15SM FEW250 07/M03 A2956 RMK CI2 PRESFR SLP019 DENSITY ALT 3000FT

CYQF;2015-03-28 10:00;CYQF 281000Z VRB02KT 15SM SKC 04/M03 A2956 RMK SLP022

CYQF;2015-03-28 11:00;CYQF 281100Z 16003KT 160V220 15SM FEW250 02/M03 A2953 RMK CI2 SLP016

CYQF;2015-03-28 12:00;CYQF 281200Z 14003KT 030V160 15SM SCT100 BKN250 01/M03 A2956 RMK AC3CI3 PRESRR SLP027

CYQF;2015-03-28 13:00;CYQF 281300Z 31006KT 250V330 15SM OVC120 05/M01 A2957 RMK AC8 SLP031

CYQF;2015-03-28 14:00;CYQF 281400Z 35008KT 15SM SCT090 OVC120 05/01 A2957 RMK AC4AC4 SLP030

CYQF;2015-03-28 15:00;CYQF 281500Z 33011KT 15SM SCT080 OVC120 05/02 A2959 RMK AC3AC5 SLP039

CYQF;2015-03-28 16:00;CYQF 281600Z 34007KT 15SM FEW040 BKN080 OVC120 05/03 A2962 RMK SC2AC3AC3 SLP053

CYQF;2015-03-28 16:45;CYQF 281645Z 30005KT 15SM BKN013 OVC036 06/03 A2966 RMK SC6SC2 WIND SHIFT CU ASOCTD PRESRR SLP065

CYQF;2015-03-28 17:00;CYQF 281700Z 31004KT 10SM -SHRA BKN017 BKN040 OVC100 06/04 A2966 RMK SC5SC2AC1 CU ASOCTD SLP065

CYQF;2015-03-28 17:39;CYQF 281739Z 30010KT 15SM BKN013 OVC040 06/04 A2968 RMK SC6SC2 PRESRR SLP072

CYQF;2015-03-28 18:00;CYQF 281800Z 31006KT 15SM BKN015 OVC072 06/04 A2968 RMK SC6AC2 SLP076

CYQF;2015-03-28 18:51;CYQF 281851Z 31010KT 15SM -SHRA OVC014 06/04 A2972 RMK SC8 SLP088

CYQF;2015-03-28 19:00;CYQF 281900Z 31009KT 15SM -SHRA OVC014 06/05 A2973 RMK SC8 SLP089

CYQF;2015-03-28 20:00;CYQF 282000Z 32018G24KT 15SM -SHRA BKN014 BKN020 OVC076 06/04 A2976 RMK SC5SC2AC1 CU ASOCTD SLP104

CYQF;2015-03-28 20:29;CYQF 282029Z 32016G24KT 15SM FEW020 BKN080 BKN120 07/05 A2976 RMK CU2AC3AC2 SLP103

CYQF;2015-03-28 21:00;CYQF 282100Z 31020G27KT 15SM SCT020 BKN120 08/03 A2977 RMK CU3AC4 SLP105 DENSITY ALT 3000FT

CYQF;2015-03-28 22:00;CYQF 282200Z 32019G30KT 15SM BKN025 BKN120 09/02 A2982 RMK CU5AC1 AC TR SLP122 DENSITY ALT 3000FT

CYQF;2015-03-28 23:00;CYQF 282300Z 34018G24KT 15SM FEW030 FEW120 09/01 A2985 RMK CU2AC1 AC TR SLP137

CYQF;2015-03-29 00:00;CYQF 290000Z 34013G19KT 15SM FEW030 FEW120 08/00 A2988 RMK SC1AC1 AC TR SLP149

CYQF;2015-03-29 01:00;CYQF 290100Z 35008KT 300V010 15SM FEW030 SCT260 08/M00 A2991 RMK SC1CI2 SLP155

CYQF;2015-03-29 02:00;CYQF 290200Z 01003KT 15SM FEW030 SCT260 06/M01 A2993 RMK SC1CI3 SC TR SLP163

CYQF;2015-03-29 03:00;CYQF 290300Z 08003KT 15SM 04/M01 A2995 RMK SLP172

CYQF;2015-03-29 04:00;CYQF 290400Z 20007KT 15SM BKN080 02/M01 A2998 RMK AC5 SLP185

CYQF;2015-03-29 05:00;CYQF 290500Z 17005KT 15SM SCT080 BKN230 01/M01 A2998 RMK AC3CI4 SLP186

CYQF;2015-03-29 06:00;CYQF 290600Z 20007KT 15SM SCT200 00/M02 A2998 RMK CI4 SLP187

CYQF;2015-03-29 07:00;CYQF 290700Z 18007KT 15SM FEW200 01/M01 A2998 RMK CI2 SLP184

CYQF;2015-03-29 08:00;CYQF 290800Z 20007KT 15SM SKC 01/M01 A2997 RMK SLP181

CYQF;2015-03-29 09:00;CYQF 290900Z 20007KT 15SM SKC 01/M02 A2996 RMK SLP178

CYQF;2015-03-29 10:00;CYQF 291000Z 20007KT 15SM BKN200 00/M02 A2994 RMK CI6 SLP169

CYQF;2015-03-29 11:00;CYQF 291100Z 21004KT 15SM SKC M01/M03 A2994 RMK SLP171

CYQF;2015-03-29 12:00;CYQF 291200Z 20006KT 15SM FEW250 M02/M04 A2993 RMK CI1 SLP169

CYQF;2015-03-29 13:00;CYQF 291300Z 20005KT 15SM SCT250 M01/M03 A2993 RMK CI3 SLP167

CYQF;2015-03-29 14:00;CYQF 291400Z 19004KT 15SM BKN250 M01/M03 A2991 RMK CI6 SLP164

CYQF;2015-03-29 15:00;CYQF 291500Z 17002KT 15SM BKN200 02/M02 A2989 RMK CI7 SLP156

CYQF;2015-03-29 16:00;CYQF 291600Z 19004KT 15SM BKN220 06/01 A2988 RMK CI7 SLP150

CYQF;2015-03-29 17:00;CYQF 291700Z 19007KT 15SM BKN220 10/01 A2985 RMK CI7 SLP136 DENSITY ALT 3100FT

CYQF;2015-03-29 18:00;CYQF 291800Z 19008KT 15SM BKN220 12/01 A2983 RMK CI7 SLP126 DENSITY ALT 3300FT

CYQF;2015-03-29 19:00;CYQF 291900Z 22010KT 15SM FEW056 BKN200 14/M01 A2980 RMK CU1CI6 SLP112 DENSITY ALT 3600FT

CYQF;2015-03-29 20:00;CYQF 292000Z 21014KT 15SM FEW060 BKN220 16/M01 A2977 RMK CU1CI7 CU TR GUSTS TO 20KTS SLP101 DENSITY ALT 3900FT

CYQF;2015-03-29 21:00;CYQF 292100Z 18008KT 15SM FEW066 OVC200 16/M00 A2975 RMK CU1CI8 CU TR SLP094 DENSITY ALT 3900FT

CYQF;2015-03-29 22:00;CYQF 292200Z 00000KT 15SM FEW060 OVC160 16/M02 A2975 RMK SC2AC6 SLP093 DENSITY ALT 3900FT

CYQF;2015-03-29 23:00;CYQF 292300Z 30009G15KT 15SM FEW050 SCT090 BKN160 15/M01 A2975 RMK SC1AC2AS4 SLP096 DENSITY ALT 3800FT

CYQF;2015-03-30 00:00;CYQF 300000Z 31008KT 15SM FEW050 SCT090 BKN160 13/01 A2976 RMK SC1AC2AS4 SLP102 DENSITY ALT 3600FT

CYQF;2015-03-30 01:00;CYQF 300100Z 29011G18KT 15SM SCT040 BKN130 12/M00 A2976 RMK SC3AC4 SLP106 DENSITY ALT 3500FT

CYQF;2015-03-30 02:00;CYQF 300200Z 30007KT 15SM FEW040 SCT130 09/M01 A2978 RMK SC2AC2 SLP113 DENSITY ALT 3100FT

CYQF;2015-03-30 03:00;CYQF 300300Z 29009KT 15SM BKN130 09/M02 A2980 RMK AC5 SLP120 DENSITY ALT 3000FT

CYQF;2015-03-30 04:00;CYQF 300400Z 31010KT 15SM BKN120 08/M02 A2983 RMK AC5 SLP124

CYQF;2015-03-30 05:00;CYQF 300500Z 36004KT 15SM BKN100 07/M01 A2987 RMK AC5 SLP135

CYQF;2015-03-30 06:00;CYQF 300600Z 34004KT 15SM FEW110 07/M01 A2989 RMK AC2 SLP142

CYQF;2015-03-30 07:00;CYQF 300700Z 25003KT 230V330 15SM BKN110 05/M02 A2992 RMK AC5 SLP149

CYQF;2015-03-30 08:00;CYQF 300800Z 22005KT 15SM BKN110 04/M02 A2994 RMK AC6 SLP155

CYQF;2015-03-30 09:00;CYQF 300900Z 19002KT 15SM BKN090 02/M01 A2994 RMK AC7 SLP160

CYQF;2015-03-30 10:00;CYQF 301000Z 25005KT 15SM BKN075 04/M02 A2995 RMK AC7 SLP162

CYQF;2015-03-30 11:00;CYQF 301100Z 26004KT 15SM BKN080 04/M03 A2997 RMK AC6 SLP167

CYQF;2015-03-30 12:00;CYQF 301200Z 22002KT 15SM BKN070 02/M02 A2997 RMK AC7 SLP173

CYQF;2015-03-30 13:00;CYQF 301300Z 19004KT 15SM BKN090 BKN240 00/M02 A2997 RMK AC6CI1 SLP177

CYQF;2015-03-30 14:00;CYQF 301400Z 20005KT 15SM BKN080 BKN240 01/M01 A2997 RMK AC6CI1 SLP179

CYQF;2015-03-30 15:00;CYQF 301500Z 20003KT 15SM BKN060 BKN090 BKN240 02/M01 A2998 RMK SC5AC1CI1 SLP182

CYQF;2015-03-30 16:00;CYQF 301600Z 19005KT 15SM SCT060 BKN090 BKN240 05/M00 A2998 RMK SC4AC2CI1 SLP178

CYQF;2015-03-30 17:00;CYQF 301700Z 17009KT 15SM FEW060 SCT090 BKN240 08/M00 A2997 RMK SC1AC2CI2 SLP171

CYQF;2015-03-30 18:00;CYQF 301800Z 14012KT 15SM SCT090 BKN240 09/M02 A2996 RMK AC4CI2 SLP167

CYQF;2015-03-30 19:00;CYQF 301900Z 16013G19KT 15SM FEW090 SCT240 10/M02 A2993 RMK AC1CI2 SLP158 DENSITY ALT 3100FT

CYQF;2015-03-30 20:00;CYQF 302000Z 15016G23KT 15SM FEW090 SCT240 11/M01 A2991 RMK AC1CI2 SLP150 DENSITY ALT 3200FT

CYQF;2015-03-30 21:00;CYQF 302100Z 16013G20KT 15SM FEW090 FEW240 13/M01 A2987 RMK AC1CI1 SLP140 DENSITY ALT 3400FT

CYQF;2015-03-30 22:00;CYQF 302200Z 15013KT 15SM FEW090 BKN260 13/M00 A2984 RMK AC1CI4 SLP123 DENSITY ALT 3500FT

CYQF;2015-03-30 23:00;CYQF 302300Z 12013KT 15SM FEW051 SCT260 14/01 A2980 RMK CU1CI3 CU TR SLP109 DENSITY ALT 3600FT

CYQF;2015-03-31 00:00;CYQF 310000Z 12013KT 15SM FEW050 FEW090 SCT260 14/02 A2977 RMK SC1AC1CI3 SC TR AC TR SLP104 DENSITY ALT 3600FT

CYQF;2015-03-31 01:00;CYQF 310100Z 08008KT 15SM FEW050 SCT100 BKN260 12/02 A2976 RMK SC1AC3CI2 SC TR SLP103 DENSITY ALT 3500FT

CYQF;2015-03-31 02:00;CYQF 310200Z 08006KT 15SM FEW050 FEW100 SCT260 10/01 A2975 RMK SC1AC1CI3 SC TR SLP099 DENSITY ALT 3300FT

CYQF;2015-03-31 03:00;CYQF 310300Z 12006KT 15SM FEW100 SCT260 08/01 A2974 RMK AC1CI4 AC TR SLP097 DENSITY ALT 3000FT

CYQF;2015-03-31 04:00;CYQF 310400Z VRB05KT 15SM FEW100 07/02 A2973 RMK AC1 AC TR SLP091

CYQF;2015-03-31 05:00;CYQF 310500Z 21003KT 15SM FEW120 05/01 A2972 RMK AC1 SLP088

CYQF;2015-03-31 06:00;CYQF 310600Z 22002KT 15SM FEW250 02/M00 A2971 RMK CI2 SLP086

CYQF;2015-03-31 07:00;CYQF 310700Z 20003KT 15SM BKN150 02/00 A2968 RMK AC7 SLP075

CYQF;2015-03-31 08:00;CYQF 310800Z 18002KT 15SM BKN140 02/00 A2966 RMK AC7 SLP066

CYQF;2015-03-31 09:00;CYQF 310900Z 19004KT 15SM BKN200 02/M01 A2964 RMK CI7 SLP058

CYQF;2015-03-31 10:00;CYQF 311000Z 18007KT 15SM BKN190 01/M02 A2962 RMK CI6 SLP051

CYQF;2015-03-31 11:00;CYQF 311100Z 17002KT 15SM FEW200 04/M02 A2959 RMK CI1 SLP038

CYQF;2015-03-31 12:00;CYQF 311200Z 22004KT 15SM FEW120 00/M03 A2958 RMK AC1 AC TR SLP038

CYQF;2015-03-31 13:00;CYQF 311300Z 20006KT 15SM FEW150 01/M03 A2955 RMK AC1 AC TR SLP029

CYQF;2015-03-31 14:00;CYQF 311400Z 17007KT 15SM FEW150 02/M02 A2954 RMK AC1 AC TR SLP026

CYQF;2015-03-31 15:00;CYQF 311500Z 00000KT 15SM SKC 05/M00 A2951 RMK SLP017

CYQF;2015-03-31 16:00;CYQF 311600Z 20009KT 15SM FEW050 10/M00 A2949 RMK SC1 SC TR SLP002 DENSITY ALT 3500FT

CYQF;2015-03-31 17:00;CYQF 311700Z 19009KT 15SM FEW240 15/00 A2946 RMK CI1 CI TR SLP990 DENSITY ALT 4200FT

CYQF;2015-03-31 18:00;CYQF 311800Z 20015KT 15SM FEW050 FEW240 16/M03 A2944 RMK CU1CI1 CU TR CI TR SLP985 DENSITY ALT 4300FT

CYQF;2015-03-31 19:00;CYQF 311900Z 21015KT 15SM FEW060 FEW250 18/M03 A2941 RMK CU1CI1 CI TR SLP972 DENSITY ALT 4500FT

CYQF;2015-03-31 20:00;CYQF 312000Z 16010G20KT 140V200 15SM FEW080 FEW240 18/M01 A2937 RMK CU2CI1 CI TR SLP960 DENSITY ALT 4600FT

CYQF;2015-03-31 21:00;CYQF 312100Z 24018G23KT 15SM FEW077 SCT250 19/M07 A2935 RMK CU2CI1 SHWRS/VIRGA W-NW SLP950 DENSITY ALT 4700FT

CYQF;2015-03-31 22:00;CYQF 312200Z 24015G22KT 15SM VCSH BKN120 18/M04 A2935 RMK ACC6 SLP954 DENSITY ALT 4600FT

CYQF;2015-03-31 22:24;CYQF 312224Z 30021G30KT 15SM -SHRA BKN120 15/M02 A2936 RMK ACC7 SLP961 DENSITY ALT 4200FT

CYQF;2015-03-31 23:00;CYQF 312300Z 26015G25KT 15SM BKN072TCU 14/M00 A2940 RMK TCU7 CB W PRESRR SLP972 DENSITY ALT 4000FT

CYQF;2015-04-01 00:00;CYQF 010000Z 32011KT 15SM BKN074TCU OVC120 12/01 A2943 RMK TCU7AC1 SLP988 DENSITY ALT 3800FT

CYQF;2015-04-01 01:00;CYQF 010100Z 34019G26KT 15SM FEW070 OVC120 09/04 A2947 RMK AC2AC6 VIRGA SE-SW PRESRR SLP006 DENSITY ALT 3400FT

CYQF;2015-04-01 02:00;CYQF 010200Z 34019G29KT 15SM FEW022 FEW070 BKN120 06/01 A2951 RMK SC1AC1AC5 SC TR PRESRR SLP020 DENSITY ALT 3000FT

CYQF;2015-04-01 03:00;CYQF 010300Z 33018G26KT 15SM BKN140 BKN220 05/00 A2956 RMK AC5CI2 SLP035

CYQF;2015-04-01 04:00;CYQF 010400Z 32016G22KT 15SM BKN110 BKN200 04/M02 A2960 RMK AC5CI1 SLP046

CYQF;2015-04-01 05:00;CYQF 010500Z 31011KT 15SM BKN100 BKN200 03/M02 A2960 RMK AC5CI1 SLP042

CYQF;2015-04-01 06:00;CYQF 010600Z 31011G17KT 15SM BKN170 02/M04 A2961 RMK AC6 SLP044

CYQF;2015-04-01 07:00;CYQF 010700Z 29007KT 15SM BKN170 01/M04 A2962 RMK AC5 SLP047

CYQF;2015-04-01 08:00;CYQF 010800Z 29008KT 15SM BKN170 01/M04 A2963 RMK AC5 SLP048

CYQF;2015-04-01 09:00;CYQF 010900Z 28008KT 15SM FEW170 00/M04 A2964 RMK AC2 SLP053

CYQF;2015-04-01 10:00;CYQF 011000Z 28009KT 15SM BKN100 01/M04 A2964 RMK AC6 SLP054

CYQF;2015-04-01 11:00;CYQF 011100Z 28008KT 15SM OVC095 01/M06 A2964 RMK AC8 SLP058

CYQF;2015-04-01 12:00;CYQF 011200Z 28007KT 15SM BKN120 01/M08 A2964 RMK AC7 SLP061

CYQF;2015-04-01 13:00;CYQF 011300Z 28012G19KT 15SM OVC090 02/M09 A2964 RMK AC8 SLP063

CYQF;2015-04-01 14:00;CYQF 011400Z 29020G26KT 15SM BKN090 04/M11 A2964 RMK AC7 VIRGA SLP062

CYQF;2015-04-01 15:00;CYQF 011500Z 29020G29KT 15SM BKN070 04/M11 A2964 RMK AC7 VIRGA SLP064

CYQF;2015-04-01 16:00;CYQF 011600Z 30027G38KT 15SM BKN080 05/M11 A2962 RMK AC7 VIRGA SLP058

CYQF;2015-04-01 17:00;CYQF 011700Z 30020G43KT 15SM FEW030 OVC070 05/M10 A2962 RMK SC2AC6 VIRGA SLP060

CYQF;2015-04-01 18:00;CYQF 011800Z 31025G38KT 15SM FEW030 BKN070 04/M08 A2963 RMK SC1AC7 SC TR VIRGA SLP064

CYQF;2015-04-01 18:43;CYQF 011843Z 31030G41KT 3SM -SN OVC040 02/M05 A2966 RMK SC8 VIS S 15 PRESRR SLP077

CYQF;2015-04-01 19:00;CYQF 011900Z 31024G41KT 3SM -SN OVC030 01/M03 A2967 RMK SC8 VIS S 10 SLP084

CYQF;2015-04-01 19:42;CYQF 011942Z 30027G39KT 1 1/2SM -SN SCT012 OVC025 01/M02 A2968 RMK SF3SC5 SLP087

CYQF;2015-04-01 20:00;CYQF 012000Z 30024G38KT 2 1/2SM -SN OVC030 01/M02 A2968 RMK SC8 SLP088

CYQF;2015-04-01 21:00;CYQF 012100Z 31024G37KT 2 1/2SM -SN OVC030 01/M02 A2971 RMK SC8 SLP098

CYQF;2015-04-01 21:14;CYQF 012114Z 30025G34KT 6SM -SN SCT020 OVC040 01/M02 A2971 RMK SC4SC4 SLP098

CYQF;2015-04-01 21:38;CYQF 012138Z 31031G42KT 2 1/2SM -SN BKN020 OVC040 01/M02 A2972 RMK SC6SC2 SLP102

CYQF;2015-04-01 22:00;CYQF 012200Z 31025G38KT 2SM -SN OVC025 01/M01 A2975 RMK SC8 PRESRR SLP112

CYQF;2015-04-01 23:00;CYQF 012300Z 32028G38KT 2SM -SN OVC026 01/M01 A2980 RMK SC8 SLP128

CYQF;2015-04-02 00:00;CYQF 020000Z 33020G29KT 1 1/2SM -SN OVC014 00/M01 A2986 RMK SC8 PRESRR SLP149

CYQF;2015-04-02 00:17;CYQF 020017Z 32018G27KT 1SM -SN OVC014 00/M01 A2987 RMK SC8 SLP152

CYQF;2015-04-02 00:40;CYQF 020040Z 32015G28KT 1 1/2SM -SN SCT006 OVC014 00/M01 A2988 RMK ST3SC5 VIS VRB 1-2 SLP157

CYQF;2015-04-02 01:00;CYQF 020100Z 32017G25KT 1 1/2SM -SN SCT006 OVC014 00/M01 A2989 RMK ST3SC5 VIS VRB 1-2 SLP160

CYQF;2015-04-02 01:12;CYQF 020112Z 32017G22KT 2 1/2SM -SN OVC014 00/M01 A2990 RMK SC8 SLP164

CYQF;2015-04-02 01:24;CYQF 020124Z 32017G28KT 15SM BKN014 OVC080 00/M02 A2991 RMK SC5AC3 SLP164

CYQF;2015-04-02 02:00;CYQF 020200Z 31017G24KT 15SM FEW014 FEW080 OVC150 00/M02 A2992 RMK SC1AC2AC6 SC TR SLP166

CYQF;2015-04-02 03:00;CYQF 020300Z 32013G22KT 15SM FEW014 OVC140 00/M03 A2996 RMK SC1AC7 SLP180

CYQF;2015-04-02 04:00;CYQF 020400Z 33013KT 15SM OVC130 00/M03 A2998 RMK AC8 SLP188

CYQF;2015-04-02 05:00;CYQF 020500Z 33013G18KT 15SM FEW020 OVC120 M00/M03 A3000 RMK SC1AC8 SC TR SLP193

CYQF;2015-04-02 06:00;CYQF 020600Z 32009KT 15SM OVC120 M01/M03 A3001 RMK AC8 SLP200

CYQF;2015-04-02 07:00;CYQF 020700Z 30007KT 15SM BKN120 M01/M03 A3003 RMK AC7 SLP209

CYQF;2015-04-02 08:00;CYQF 020800Z 31006KT 15SM SCT140 OVC210 M02/M03 A3004 RMK AC3CS5 SLP215

CYQF;2015-04-02 09:00;CYQF 020900Z 30006KT 15SM FEW140 OVC210 M02/M04 A3005 RMK AC1CS7 SLP219

CYQF;2015-04-02 10:00;CYQF 021000Z 29006KT 15SM OVC180 M03/M04 A3006 RMK AS8 SLP223

CYQF;2015-04-02 11:00;CYQF 021100Z 30005KT 15SM BKN120 M03/M04 A3007 RMK AS6 SLP226

CYQF;2015-04-02 12:00;CYQF 021200Z 26002KT 15SM SCT110 OVC210 M03/M05 A3007 RMK AC4CS4 SLP227

CYQF;2015-04-02 13:00;CYQF 021300Z 22005KT 15SM SCT090 OVC210 M04/M05 A3007 RMK AC4CS4 SLP230

CYQF;2015-04-02 13:22;CYQF 021322Z 20005KT 6SM -SN SCT040 OVC100 M03/M04 A3008 RMK SC4AC4 SLP230

CYQF;2015-04-02 14:00;CYQF 021400Z 22004KT 10SM -SN BKN025 OVC100 M02/M04 A3008 RMK SC6AC2 SLP229

CYQF;2015-04-02 14:47;CYQF 021447Z 21005KT 15SM SCT030 BKN085 M02/M03 A3008 RMK SC3AC4 SLP229

CYQF;2015-04-02 15:00;CYQF 021500Z 22004KT 15SM VCSH FEW030 BKN055 BKN085 M01/M03 A3008 RMK SC2SC4AC1 SLP230

CYQF;2015-04-02 16:00;CYQF 021600Z 25006KT 15SM VCSH FEW050 BKN080 BKN220 01/M02 A3007 RMK CU2AC4CI1 SLP225

CYQF;2015-04-02 17:00;CYQF 021700Z 30007KT 15SM FEW015 SCT050 BKN085 02/M02 A3009 RMK CF2SC2AC3 SLP228

CYQF;2015-04-02 18:00;CYQF 021800Z 30011KT 15SM FEW020 BKN040 BKN080 03/M03 A3009 RMK CU2SC4AC1 SLP227

CYQF;2015-04-02 19:00;CYQF 021900Z 32013G20KT 15SM VCSH BKN025TCU BKN110 04/M04 A3008 RMK TCU5AC1 SLP223

CYQF;2015-04-02 20:00;CYQF 022000Z 33010G17KT 280V350 15SM BKN025TCU BKN080 06/M03 A3007 RMK TCU5AC2 SLP221

CYQF;2015-04-02 20:07;CYQF 022007Z 32017G22KT 15SM -SHSN BKN035TCU BKN080 05/M04 A3008 RMK TCU5AC2 SLP223

CYQF;2015-04-02 20:39;CYQF 022039Z 32020KT 10SM -SHGRSN BKN030TCU OVC100 03/M03 A3009 RMK TCU6AC2 SLP229

CYQF;2015-04-02 21:00;CYQF 022100Z 31011KT 10SM -SHGRSN BKN030TCU OVC100 03/M04 A3009 RMK TCU6AC2 SLP230

CYQF;2015-04-02 21:17;CYQF 022117Z 33009KT 15SM VCSH SCT030TCU OVC075 03/M03 A3009 RMK TCU4AC4 SLP230

CYQF;2015-04-02 22:00;CYQF 022200Z 28008KT 15SM VCSH SCT030TCU BKN080 04/M03 A3009 RMK TCU4AC3 SLP228

CYQF;2015-04-02 22:49;CYQF 022249Z 30019G27KT 3SM -SHSN BKN030TCU 04/M04 A3010 RMK TCU7 SLP233

CYQF;2015-04-02 23:04;CYQF 022304Z 33020G29KT 3/4SM -SHSN OVC030TCU 01/M02 A3012 RMK TCU8 PRESRR SLP244

CYQF;2015-04-02 23:10;CYQF 022310Z 35014G25KT 1 1/2SM -SHSN OVC030TCU 01/M01 A3012 RMK TCU8 VIS VRB 1/2-21/2 SLP244

CYQF;2015-04-02 23:21;CYQF 022321Z 36011G16KT 8SM -SHSN SCT030TCU BKN080 01/M01 A3011 RMK TCU3AC4 SLP240

CYQF;2015-04-02 23:43;CYQF 022343Z 36008KT 15SM VCSH FEW030TCU SCT080 BKN200 02/M00 A3011 RMK TCU2AC2CI3 SLP240

CYQF;2015-04-03 00:00;CYQF 030000Z 35006KT 15SM VCSH FEW030TCU SCT080 BKN200 02/M01 A3012 RMK TCU1AC2CI4 SLP243

CYQF;2015-04-03 00:16;CYQF 030016Z 31016G23KT 1/2SM SHSN BKN030TCU OVC080 02/M01 A3014 RMK TCU6AC2 PRESRR SLP249

CYQF;2015-04-03 00:23;CYQF 030023Z 31016G26KT 1/4SM +SHSN VV005 M00/M02 A3014 RMK SN8 TCU EMBDD PRESRR SLP252

CYQF;2015-04-03 00:29;CYQF 030029Z 34015G23KT 1/2SM SHSN VV007 M00/M01 A3014 RMK SN8 TCU EMBDD SLP252

CYQF;2015-04-03 00:38;CYQF 030038Z 33011G20KT 3SM -SHSN BKN030TCU OVC080 00/M01 A3013 RMK TCU5AC3 SLP249

CYQF;2015-04-03 01:00;CYQF 030100Z 34004KT 320V030 15SM -SHSN FEW012 SCT030TCU BKN100 BKN200 00/M01 A3012 RMK SC1TCU2AC2CI2 SLP247

CYQF;2015-04-03 01:11;CYQF 030111Z 34004KT 15SM FEW012 FEW030TCU SCT100 BKN200 00/M01 A3012 RMK SC1TCU1AC2CI3 SLP247

CYQF;2015-04-03 02:00;CYQF 030200Z 26004KT 15SM SCT130 BKN220 M00/M02 A3013 RMK AC4CI3 SLP249

CYQF;2015-04-03 03:00;CYQF 030300Z 31005KT 15SM SCT080 BKN200 M01/M03 A3014 RMK AC4CI3 SLP251

CYQF;2015-04-03 04:00;CYQF 030400Z 24006KT 15SM BKN140 BKN220 M01/M03 A3014 RMK AC5CI2 SLP250

CYQF;2015-04-03 05:00;CYQF 030500Z 24006KT 15SM FEW150 M02/M03 A3014 RMK AC1 SLP248

CYQF;2015-04-03 06:00;CYQF 030600Z 23004KT 15SM FEW090 M03/M04 A3014 RMK AC1 SLP248

CYQF;2015-04-03 07:00;CYQF 030700Z 18005KT 15SM SCT090 M04/M05 A3014 RMK AC3 SLP248

CYQF;2015-04-03 08:00;CYQF 030800Z 23007KT 15SM FEW090 SCT220 M02/M04 A3014 RMK AC1CI3 SLP242

CYQF;2015-04-03 09:00;CYQF 030900Z 21006KT 15SM FEW070 SCT220 M04/M05 A3012 RMK AC1CI2 SLP244

CYQF;2015-04-03 10:00;CYQF 031000Z 20005KT 15SM SKC M04/M05 A3012 RMK SLP240

CYQF;2015-04-03 11:00;CYQF 031100Z 21004KT 15SM SKC M06/M06 A3011 RMK SLP242

CYQF;2015-04-03 12:00;CYQF 031200Z 20008KT 15SM SCT100 BKN220 M05/M07 A3010 RMK AC3CI2 SLP240

CYQF;2015-04-03 13:00;CYQF 031300Z 21004KT 15SM BKN095 OVC220 M06/M07 A3010 RMK AC5CI3 SLP239

CYQF;2015-04-03 14:00;CYQF 031400Z 21003KT 15SM SCT090 BKN220 M04/M06 A3010 RMK AC4CI2 SLP239

CYQF;2015-04-03 15:00;CYQF 031500Z 19004KT 180V240 15SM FEW100 SCT220 M02/M05 A3010 RMK AC2CI2 SLP237

CYQF;2015-04-03 16:00;CYQF 031600Z VRB02KT 15SM FEW100 SCT220 M00/M03 A3010 RMK AC2CI2 SLP235

CYQF;2015-04-03 17:00;CYQF 031700Z 31002KT 15SM FEW015 02/M02 A3009 RMK CF1 SLP233

CYQF;2015-04-03 18:00;CYQF 031800Z VRB03KT 15SM FEW025 04/M03 A3008 RMK CU2 SLP226

CYQF;2015-04-03 19:00;CYQF 031900Z VRB04KT 15SM SCT040 06/M04 A3007 RMK CU4 SLP221

CYQF;2015-04-03 20:00;CYQF 032000Z 34011KT 270V360 15SM SCT050 06/M05 A3006 RMK CU4 SLP215

CYQF;2015-04-03 21:00;CYQF 032100Z 36003KT 280V020 15SM SCT050 06/M06 A3004 RMK CU4 SHWRS/VIRGA DIST ALQDS SLP212

CYQF;2015-04-03 22:00;CYQF 032200Z 02010KT 320V090 12SM SCT050 07/M03 A3002 RMK CU3 SLP205

CYQF;2015-04-03 23:00;CYQF 032300Z 36006KT 340V070 15SM FEW050 07/M04 A3001 RMK CU2 SLP203

CYQF;2015-04-04 00:00;CYQF 040000Z 35004KT 15SM FEW050 07/M05 A3001 RMK CU2 SLP200

CYQF;2015-04-04 01:00;CYQF 040100Z 02003KT 15SM FEW050 FEW250 06/M04 A3000 RMK SC1CI1 SLP198

CYQF;2015-04-04 02:00;CYQF 040200Z 07007KT 15SM FEW050 FEW250 03/M03 A2999 RMK SC1CI1 SLP198

CYQF;2015-04-04 03:00;CYQF 040300Z 08005KT 15SM FEW050 SCT250 02/M04 A2999 RMK SC1CI2 SLP198

CYQF;2015-04-04 04:00;CYQF 040400Z 09006KT 15SM SCT080 BKN250 00/M04 A3000 RMK AC3CI2 SLP201

CYQF;2015-04-04 05:00;CYQF 040500Z 07005KT 15SM BKN080 BKN250 00/M03 A3000 RMK AC5CI2 SLP198

CYQF;2015-04-04 06:00;CYQF 040600Z 06003KT 040V180 15SM BKN070 OVC250 01/M03 A3001 RMK AC5CI3 SLP196

CYQF;2015-04-04 07:00;CYQF 040700Z 04005KT 15SM OVC070 00/M04 A3001 RMK AS8 SLP197

CYQF;2015-04-04 08:00;CYQF 040800Z 07004KT 15SM SCT070 BKN220 M02/M04 A3001 RMK AC3CI4 SLP197

CYQF;2015-04-04 09:00;CYQF 040900Z 03003KT 15SM FEW070 BKN220 M01/M04 A3000 RMK AC2CI4 SLP195

CYQF;2015-04-04 10:00;CYQF 041000Z 07006KT 15SM FEW070 SCT220 M03/M05 A2999 RMK AC1CI2 SLP193

CYQF;2015-04-04 11:00;CYQF 041100Z 04004KT 15SM FEW070 FEW220 M04/M05 A2999 RMK AC1CI1 SLP192

CYQF;2015-04-04 12:00;CYQF 041200Z 07008KT 15SM FEW070 FEW220 M03/M04 A2998 RMK AC1CI1 SLP187

CYQF;2015-04-04 13:00;CYQF 041300Z 07007KT 10SM FEW050 BKN220 M03/M04 A2998 RMK SC2CI4 SLP191

CYQF;2015-04-04 14:00;CYQF 041400Z 05004KT 10SM FEW010 BKN060 BKN220 M02/M03 A2999 RMK SF1SC5CI1 WND ESTD SLP197

CYQF;2015-04-04 15:00;CYQF 041500Z 09009KT 12SM FEW010 BKN060 M01/M03 A2999 RMK SF1SC6 SLP197

CYQF;2015-04-04 16:00;CYQF 041600Z 10010G16KT 8SM -SN SCT012 OVC032 M00/M03 A3000 RMK SC4SC4 SLP198

CYQF;2015-04-04 16:18;CYQF 041618Z 10008KT 2SM -SN BKN013 OVC030 M00/M02 A3000 RMK SC6SC2 SLP200

CYQF;2015-04-04 17:00;CYQF 041700Z 09008KT 2SM -SN OVC010 M00/M02 A3001 RMK SC8 SLP202

CYQF;2015-04-04 18:00;CYQF 041800Z 10008KT 1SM -SN SCT010 VV020 M00/M02 A3001 RMK SF4SN4 SLP203

CYQF;2015-04-04 19:00;CYQF 041900Z 07011KT 1 1/2SM -SN BKN010 OVC025 M01/M01 A3002 RMK SF5SC3 SLP206

CYQF;2015-04-04 19:24;CYQF 041924Z 06011KT 1SM -SN BKN005 VV015 M00/M01 A3002 RMK SF6SN2 SLP205

CYQF;2015-04-04 20:00;CYQF 042000Z 07008KT 1 1/4SM -SN OVC007 M00/M01 A3002 RMK SC8 SLP209

CYQF;2015-04-04 21:00;CYQF 042100Z 06011KT 1 1/2SM -SN BKN008 OVC020 00/M01 A3002 RMK SC5SC3 SLP207

CYQF;2015-04-04 22:00;CYQF 042200Z 07013KT 2 1/2SM -SN SCT008 OVC021 00/M02 A3001 RMK SC3SC5 SLP206

CYQF;2015-04-04 22:11;CYQF 042211Z 07010G15KT 5SM -SN FEW008 OVC017 01/M02 A3001 RMK SC2SC6 CIG RAG SLP206

CYQF;2015-04-04 22:39;CYQF 042239Z 07011KT 10SM VCSH FEW009 OVC022 01/M02 A3001 RMK SC2SC6 SLP206

CYQF;2015-04-04 23:00;CYQF 042300Z 06012KT 12SM VCSH OVC021 01/M02 A3001 RMK SC8 SLP205

CYQF;2015-04-05 00:00;CYQF 050000Z 07011KT 15SM BKN020 BKN050 01/M02 A3001 RMK SC5SC2 SLP204

CYQF;2015-04-05 01:00;CYQF 050100Z 08009KT 15SM VCSH BKN018 01/M03 A3001 RMK SC7 SLP205

CYQF;2015-04-05 02:00;CYQF 050200Z 07007KT 15SM FEW020 BKN050 M00/M03 A3000 RMK SC2SC5 SLP202

CYQF;2015-04-05 03:00;CYQF 050300Z 06007KT 15SM BKN055 M00/M03 A3001 RMK SC6 SLP205

CYQF;2015-04-05 04:00;CYQF 050400Z 08006KT 15SM BKN058 M01/M03 A3002 RMK SC7 SLP207

CYQF;2015-04-05 04:08;CYQF 050408Z 07006KT 15SM -SN BKN045 M01/M03 A3002 RMK SC7 SLP207

CYQF;2015-04-05 05:00;CYQF 050500Z 08004KT 15SM -SN BKN036 M01/M04 A3002 RMK SC7 SLP208

CYQF;2015-04-05 05:49;CYQF 050549Z 11005KT 15SM OVC034 M01/M04 A3002 RMK SC8 SLP208

CYQF;2015-04-05 06:00;CYQF 050600Z 12004KT 15SM OVC034 M01/M04 A3002 RMK SC8 SLP208

CYQF;2015-04-05 07:00;CYQF 050700Z 13006KT 15SM OVC040 M01/M04 A3002 RMK SC8 SLP207

CYQF;2015-04-05 07:14;CYQF 050714Z 13008KT 15SM -SN OVC040 M01/M04 A3002 RMK SC8 SLP207

CYQF;2015-04-05 08:00;CYQF 050800Z 14008KT 15SM OVC040 M02/M04 A3001 RMK SC8 SLP206

CYQF;2015-04-05 09:00;CYQF 050900Z 15006KT 15SM OVC050 M02/M05 A3001 RMK SC8 SLP205

CYQF;2015-04-05 10:00;CYQF 051000Z 16006KT 15SM BKN045 M03/M05 A3000 RMK SC6 SLP204

CYQF;2015-04-05 10:24;CYQF 051024Z 15003KT 15SM SCT045 BKN240 M04/M06 A3000 RMK SC3CI2 SLP205

CYQF;2015-04-05 11:00;CYQF 051100Z 15003KT 15SM SCT045 BKN240 M04/M05 A3000 RMK SC3CI2 SLP202

CYQF;2015-04-05 12:00;CYQF 051200Z 19004KT 15SM FEW040 SCT240 M05/M06 A2999 RMK SC2CI2 SLP200

CYQF;2015-04-05 13:00;CYQF 051300Z 09002KT 15SM FEW037 BKN080 BKN250 M05/M06 A2999 RMK SC2AC3CI1 SLP201

CYQF;2015-04-05 14:00;CYQF 051400Z 18003KT 160V220 15SM BKN040 BKN080 BKN250 M04/M06 A2999 RMK SC5AC1CI1 SLP200

CYQF;2015-04-05 15:00;CYQF 051500Z 15004KT 15SM SCT040 BKN058 BKN250 M03/M06 A2999 RMK SC3SC2CI2 SLP201

CYQF;2015-04-05 16:00;CYQF 051600Z 17009KT 15SM FEW015 BKN040 BKN250 M02/M06 A2999 RMK CF2SC4CI1 SLP200

CYQF;2015-04-05 17:00;CYQF 051700Z 14011KT 15SM SCT020 BKN040 BKN250 M01/M07 A3000 RMK CU3SC3CI1 SLP201

CYQF;2015-04-05 18:00;CYQF 051800Z 14010G18KT 15SM SCT030 BKN250 01/M06 A2999 RMK CU4CI2 SLP196

CYQF;2015-04-05 19:00;CYQF 051900Z 15011KT 15SM BKN036 BKN250 02/M06 A2997 RMK CU5CI1 SLP190

CYQF;2015-04-05 20:00;CYQF 052000Z 16012KT 100V170 15SM BKN050 02/M07 A2996 RMK SC6 CU EMBD SLP187

CYQF;2015-04-05 21:00;CYQF 052100Z 13008G15KT 100V170 15SM BKN045 02/M07 A2995 RMK SC6 CU EMBD VIRGA SLP183

CYQF;2015-04-05 22:00;CYQF 052200Z 16010G16KT 100V170 15SM BKN045 03/M06 A2995 RMK SC7 CU EMBD VIRGA SLP183

CYQF;2015-04-05 23:00;CYQF 052300Z 14008KT 15SM VCSH BKN045 BKN055 02/M05 A2994 RMK CU5SC2 SLP181

CYQF;2015-04-06 00:00;CYQF 060000Z 13011KT 15SM VCSH BKN040 BKN050 02/M06 A2994 RMK CU5SC2 SLP181

CYQF;2015-04-06 01:00;CYQF 060100Z 15010KT 15SM VCSH BKN045 02/M06 A2994 RMK CU6 SLP182

CYQF;2015-04-06 02:00;CYQF 060200Z 13007KT 15SM BKN050 01/M06 A2994 RMK SC5 VIRGA SLP182

CYQF;2015-04-06 03:00;CYQF 060300Z 13005KT 15SM SCT050 M01/M06 A2995 RMK SC4 SLP186

CYQF;2015-04-06 04:00;CYQF 060400Z 12005KT 15SM FEW050 M02/M06 A2995 RMK SC1 SLP186

CYQF;2015-04-06 05:00;CYQF 060500Z 15005KT 15SM SCT050 M02/M06 A2995 RMK SC4 SLP185

CYQF;2015-04-06 06:00;CYQF 060600Z 14009KT 15SM FEW050 M03/M07 A2995 RMK SC2 SLP184

CYQF;2015-04-06 07:00;CYQF 060700Z 14006KT 15SM FEW050 M04/M08 A2994 RMK SC2 SLP182

CYQF;2015-04-06 08:00;CYQF 060800Z 14008KT 15SM SKC M04/M09 A2993 RMK SLP178

CYQF;2015-04-06 09:00;CYQF 060900Z 16009KT 15SM SKC M04/M09 A2993 RMK SLP178

CYQF;2015-04-06 10:00;CYQF 061000Z 15007KT 15SM FEW040 M06/M09 A2992 RMK SC1 SLP175

CYQF;2015-04-06 11:00;CYQF 061100Z 14010KT 15SM SCT035 M05/M08 A2992 RMK SC3 SLP176

CYQF;2015-04-06 12:00;CYQF 061200Z 14009KT 15SM FEW035 SCT220 M05/M08 A2992 RMK SC1CI3 SLP174

CYQF;2015-04-06 13:00;CYQF 061300Z 14006KT 15SM BKN140 M06/M09 A2992 RMK AC5 SLP177

CYQF;2015-04-06 14:00;CYQF 061400Z 15010KT 15SM BKN140 BKN250 M05/M09 A2993 RMK AC5CI2 SLP179

CYQF;2015-04-06 15:00;CYQF 061500Z 16010KT 15SM FEW140 OVC250 M03/M07 A2992 RMK AC2CI6 SLP177

CYQF;2015-04-06 16:00;CYQF 061600Z 16017KT 15SM FEW020 FEW080 OVC250 M01/M06 A2992 RMK CU1AC2CI6 CU TR SLP175

CYQF;2015-04-06 17:00;CYQF 061700Z 16019KT 15SM BKN035 BKN080 BKN250 01/M06 A2993 RMK CU5AC1CI1 SLP176

CYQF;2015-04-06 18:00;CYQF 061800Z 15015G24KT 15SM BKN038 BKN080 OVC250 02/M06 A2992 RMK CU5AC1CI2 SLP172

CYQF;2015-04-06 19:00;CYQF 061900Z 14019G25KT 15SM SCT040 BKN060 OVC250 01/M07 A2992 RMK CU4SC2CI2 SLP174

CYQF;2015-04-06 20:00;CYQF 062000Z 15019KT 15SM FEW040 OVC065 01/M08 A2991 RMK SC2SC6 VIRGA ALQDS SLP170

CYQF;2015-04-06 21:00;CYQF 062100Z 12015G23KT 15SM BKN045 02/M08 A2989 RMK SC7 SLP164

CYQF;2015-04-06 22:00;CYQF 062200Z 13012G25KT 15SM BKN050 02/M08 A2987 RMK SC7 CU EMBD VIRGA SLP160

CYQF;2015-04-06 23:00;CYQF 062300Z 14014KT 15SM BKN040 OVC050 02/M07 A2987 RMK CU5SC3 VIRGA SLP157

CYQF;2015-04-07 00:00;CYQF 070000Z 15018G25KT 15SM SCT050 BKN065 01/M05 A2988 RMK CU4SC3 SLP162

CYQF;2015-04-07 01:00;CYQF 070100Z 13014G20KT 15SM BKN055 M01/M04 A2989 RMK CU6 SLP167

CYQF;2015-04-07 01:43;CYQF 070143Z 13014KT 12SM -SN SCT012 BKN050 M01/M04 A2988 RMK CU4SC3 SLP166

CYQF;2015-04-07 02:00;CYQF 070200Z 13010KT 10SM -SN BKN012 OVC050 M01/M04 A2988 RMK SC6SC2 SLP166

CYQF;2015-04-07 03:00;CYQF 070300Z 12006KT 10SM -SN SCT012 OVC033 M02/M04 A2989 RMK SC4SC4 SLP166

CYQF;2015-04-07 03:44;CYQF 070344Z 10004KT 10SM -SN BKN014 OVC040 M02/M04 A2989 RMK SC6SC2 SLP166

CYQF;2015-04-07 04:00;CYQF 070400Z 11006KT 15SM -SN OVC014 M02/M04 A2988 RMK SC8 SLP162

CYQF;2015-04-07 05:00;CYQF 070500Z 11005KT 12SM -SN OVC012 M02/M03 A2987 RMK SC8 SLP157

CYQF;2015-04-07 06:00;CYQF 070600Z 09003KT 15SM -SN OVC008 M02/M03 A2987 RMK SC8 SLP153

CYQF;2015-04-07 07:00;CYQF 070700Z 09002KT 15SM -SN OVC008 M02/M03 A2985 RMK SC8 SLP149

CYQF;2015-04-07 08:00;CYQF 070800Z 03002KT 15SM OVC010 M02/M03 A2984 RMK SC8 SLP145

CYQF;2015-04-07 09:00;CYQF 070900Z 14004KT 15SM OVC009 M02/M03 A2984 RMK SC8 SLP143

CYQF;2015-04-07 10:00;CYQF 071000Z 00000KT 15SM BKN011 OVC025 M02/M03 A2984 RMK SC7SC1 SLP143

CYQF;2015-04-07 11:00;CYQF 071100Z 00000KT 15SM FEW011 BKN025 M02/M03 A2984 RMK SC2SC5 SLP143

CYQF;2015-04-07 11:30;CYQF 071130Z 00000KT 12SM BKN006 OVC025 M02/M03 A2984 RMK ST6SC2 SLP145

CYQF;2015-04-07 12:00;CYQF 071200Z 24003KT 12SM BKN006 BKN025 M02/M03 A2984 RMK SF6SC1 SLP147

CYQF;2015-04-07 12:41;CYQF 071241Z 26003KT 6SM BR BKN010 M03/M04 A2984 RMK SC7 CU SLP147

CYQF;2015-04-07 13:00;CYQF 071300Z 25006KT 6SM BR BKN010 M03/M04 A2985 RMK SC7 CU SLP150

CYQF;2015-04-07 14:00;CYQF 071400Z 24005KT 5SM BR BKN015 M04/M05 A2986 RMK SC6 SLP155

CYQF;2015-04-07 14:29;CYQF 071429Z 23006KT 3SM BR BKN003 BKN013 M04/M05 A2986 RMK ST5SC2 SLP156

CYQF;2015-04-07 15:00;CYQF 071500Z 24005KT 5SM BR BKN005 M03/M04 A2986 RMK SC7 SLP157

CYQF;2015-04-07 16:00;CYQF 071600Z 20006KT 150V220 6SM BR BKN007 M02/M03 A2987 RMK SC7 VIS NW-N 10 SLP157

CYQF;2015-04-07 17:00;CYQF 071700Z 17006KT 150V250 6SM BR BKN006 M01/M03 A2986 RMK SC7 VIS SE-S 3 NW-N 10 SLP156

CYQF;2015-04-07 17:38;CYQF 071738Z 18006KT 140V200 8SM SCT007 M00/M03 A2986 RMK SF4 SLP154

CYQF;2015-04-07 18:00;CYQF 071800Z 22006KT 140V240 10SM FEW008 01/M03 A2986 RMK SF2 SLP153

CYQF;2015-04-07 19:00;CYQF 071900Z VRB03KT 10SM FEW020 04/M03 A2986 RMK CU1 SLP147

CYQF;2015-04-07 20:00;CYQF 072000Z 25002KT 10SM SCT039 06/M04 A2984 RMK CU3 SLP140

CYQF;2015-04-07 21:00;CYQF 072100Z 36006KT 280V050 10SM BKN040 07/M04 A2982 RMK CU5 SLP132

CYQF;2015-04-07 22:00;CYQF 072200Z 36004KT 310V030 15SM BKN055 08/M06 A2981 RMK CU5 SLP127

CYQF;2015-04-07 23:00;CYQF 072300Z 00000KT 15SM BKN070TCU 08/M08 A2980 RMK TCU6 VIRGA SLP124

CYQF;2015-04-08 00:00;CYQF 080000Z 08006KT 15SM VCSH BKN070TCU 07/M05 A2980 RMK TCU6 SLP125

CYQF;2015-04-08 00:07;CYQF 080007Z 10005KT 15SM -SHGS OVC070TCU 07/M07 A2980 RMK TCU8 SLP126

CYQF;2015-04-08 00:24;CYQF 080024Z 23004G26KT 180V340 6SM -SHSNGS BKN060TCU 06/M05 A2983 RMK TCU7 PRESRR SLP136

CYQF;2015-04-08 00:39;CYQF 080039Z 16007KT 120V180 15SM VCSH SCT070TCU 05/M02 A2981 RMK TCU4 PRESFR SLP131

CYQF;2015-04-08 01:00;CYQF 080100Z 14005KT 15SM FEW060TCU BKN100 06/M02 A2981 RMK TCU2AC4 SLP129

CYQF;2015-04-08 02:00;CYQF 080200Z 15005KT 15SM FEW060TCU 03/M02 A2981 RMK TCU2 SLP135

CYQF;2015-04-08 03:00;CYQF 080300Z 16008KT 15SM FEW070 01/M03 A2983 RMK AC2 SLP143

CYQF;2015-04-08 04:00;CYQF 080400Z 17003KT 15SM SKC M01/M03 A2984 RMK SLP146

CYQF;2015-04-08 05:00;CYQF 080500Z 19004KT 15SM SKC 00/M04 A2984 RMK SLP146

CYQF;2015-04-08 06:00;CYQF 080600Z 00000KT 15SM SKC M03/M05 A2986 RMK SLP152

CYQF;2015-04-08 07:00;CYQF 080700Z 20003KT 15SM SKC M03/M05 A2986 RMK SLP150

CYQF;2015-04-08 08:00;CYQF 080800Z 20003KT 15SM SKC M04/M06 A2986 RMK SLP148

CYQF;2015-04-08 09:00;CYQF 080900Z 21004KT 15SM SKC M05/M06 A2987 RMK SLP151

CYQF;2015-04-08 10:00;CYQF 081000Z 18004KT 15SM SKC M06/M07 A2987 RMK SLP152

CYQF;2015-04-08 11:00;CYQF 081100Z 20006KT 15SM SKC M07/M09 A2988 RMK SLP157

CYQF;2015-04-08 12:00;CYQF 081200Z 17003KT 15SM SKC M07/M08 A2989 RMK SLP161

CYQF;2015-04-08 13:00;CYQF 081300Z 19007KT 15SM SKC M07/M09 A2991 RMK SLP168

CYQF;2015-04-08 14:00;CYQF 081400Z 20006KT 15SM SKC M04/M07 A2992 RMK SLP174

CYQF;2015-04-08 15:00;CYQF 081500Z 22004KT 15SM SKC M00/M05 A2993 RMK SLP175

CYQF;2015-04-08 16:00;CYQF 081600Z 27003KT 15SM SKC 04/M04 A2994 RMK SLP176

CYQF;2015-04-08 17:00;CYQF 081700Z 35007KT 340V040 15SM SKC 07/M06 A2995 RMK SLP172

CYQF;2015-04-08 18:00;CYQF 081800Z 33007KT 15SM FEW068 09/M08 A2995 RMK CU1 CU TR SLP174

CYQF;2015-04-08 19:00;CYQF 081900Z 30010G15KT 15SM FEW076 09/M10 A2994 RMK CU1 SLP172

CYQF;2015-04-08 20:00;CYQF 082000Z 29004KT 250V330 15SM FEW075 09/M11 A2994 RMK CU2 SLP172

CYQF;2015-04-08 21:00;CYQF 082100Z 32004KT 210V010 15SM FEW075 FEW210 11/M09 A2993 RMK CU1CI1 SLP167 DENSITY ALT 3100FT

CYQF;2015-04-08 22:00;CYQF 082200Z 23008KT 220V310 15SM FEW084 BKN210 11/M11 A2992 RMK CU1CI6 CU TR SLP167 DENSITY ALT 3100FT

CYQF;2015-04-08 23:00;CYQF 082300Z 28008KT 260V330 15SM FEW090 BKN210 12/M11 A2992 RMK CU1CI6 CU TR SLP165 DENSITY ALT 3200FT

CYQF;2015-04-09 00:00;CYQF 090000Z 29006KT 15SM BKN240 12/M12 A2992 RMK CI5 SLP165 DENSITY ALT 3200FT

CYQF;2015-04-09 01:00;CYQF 090100Z 29004KT 15SM BKN240 11/M11 A2992 RMK CI5 SLP167 DENSITY ALT 3100FT

CYQF;2015-04-09 02:00;CYQF 090200Z 00000KT 15SM BKN240 08/M07 A2992 RMK CI6 SLP168

CYQF;2015-04-09 03:00;CYQF 090300Z 17003KT 15SM BKN240 06/M09 A2994 RMK CI5 SLP173

CYQF;2015-04-09 04:00;CYQF 090400Z 20003KT 15SM SCT240 03/M08 A2995 RMK CI4 SLP175

CYQF;2015-04-09 05:00;CYQF 090500Z 17003KT 15SM SKC 00/M06 A2995 RMK SLP175

CYQF;2015-04-09 06:00;CYQF 090600Z 00000KT 15SM SKC 01/M08 A2996 RMK SLP175

CYQF;2015-04-09 07:00;CYQF 090700Z 20004KT 15SM SKC M02/M08 A2996 RMK SLP179

CYQF;2015-04-09 08:00;CYQF 090800Z 20005KT 15SM SKC M03/M07 A2997 RMK SLP181

CYQF;2015-04-09 09:00;CYQF 090900Z 19005KT 15SM SKC M05/M08 A2997 RMK SLP183

CYQF;2015-04-09 10:00;CYQF 091000Z 21004KT 15SM SKC M03/M08 A2998 RMK SLP185

CYQF;2015-04-09 11:00;CYQF 091100Z 22006KT 15SM SKC M05/M08 A2998 RMK SLP186

CYQF;2015-04-09 12:00;CYQF 091200Z 23009KT 15SM SKC M02/M08 A2999 RMK SLP186

CYQF;2015-04-09 13:00;CYQF 091300Z 23007KT 15SM FEW250 M04/M09 A2999 RMK CI1 SLP190

CYQF;2015-04-09 14:00;CYQF 091400Z 19004KT 15SM SCT250 M02/M06 A3000 RMK CI3 SLP193

CYQF;2015-04-09 15:00;CYQF 091500Z 22005KT 15SM SCT250 02/M06 A3001 RMK CI3 SLP194

CYQF;2015-04-09 16:00;CYQF 091600Z 28005KT 15SM SCT250 06/M06 A3001 RMK CI3 SLP192

CYQF;2015-04-09 17:00;CYQF 091700Z 27005KT 240V300 15SM SCT250 09/M06 A3001 RMK CI4 SLP193

CYQF;2015-04-09 18:00;CYQF 091800Z 34004KT 190V350 15SM SCT250 12/M06 A3000 RMK CI3 SLP184 DENSITY ALT 3100FT

CYQF;2015-04-09 19:00;CYQF 091900Z 23006KT 100V250 15SM SCT250 13/M08 A2998 RMK CI3 SLP181 DENSITY ALT 3300FT

CYQF;2015-04-09 20:00;CYQF 092000Z 25004KT 170V270 15SM FEW250 14/M07 A2997 RMK CI2 SLP176 DENSITY ALT 3500FT

CYQF;2015-04-09 21:00;CYQF 092100Z VRB02KT 15SM FEW250 14/M10 A2995 RMK CI2 SLP172 DENSITY ALT 3500FT

CYQF;2015-04-09 22:00;CYQF 092200Z 18007G15KT 130V220 15SM FEW250 16/M08 A2993 RMK CI1 SLP162 DENSITY ALT 3700FT

CYQF;2015-04-09 23:00;CYQF 092300Z 14005KT 100V220 15SM FEW250 15/M08 A2991 RMK CI1 SLP158 DENSITY ALT 3600FT

CYQF;2015-04-10 00:00;CYQF 100000Z 18006KT 150V250 15SM FEW250 16/M09 A2990 RMK CI1 CI TR SLP151 DENSITY ALT 3700FT

CYQF;2015-04-10 01:00;CYQF 100100Z 17005KT 15SM FEW250 15/M07 A2989 RMK CI1 CI TR SLP150 DENSITY ALT 3600FT

CYQF;2015-04-10 02:00;CYQF 100200Z 14006KT 15SM SKC 11/M06 A2988 RMK SLP148 DENSITY ALT 3200FT

CYQF;2015-04-10 03:00;CYQF 100300Z 15006KT 15SM SKC 07/M05 A2988 RMK FU ALOFT SLP147

CYQF;2015-04-10 04:00;CYQF 100400Z 19005KT 10SM SKC 03/M07 A2987 RMK FU SLP144

CYQF;2015-04-10 05:00;CYQF 100500Z 19005KT 15SM SKC 05/M07 A2986 RMK SLP135

CYQF;2015-04-10 06:00;CYQF 100600Z 19006KT 15SM SKC 02/M07 A2985 RMK SLP130

CYQF;2015-04-10 07:00;CYQF 100700Z 18007KT 15SM SKC M01/M07 A2984 RMK SLP128

CYQF;2015-04-10 08:00;CYQF 100800Z 19006KT 15SM SKC 00/M07 A2983 RMK SLP124

CYQF;2015-04-10 09:00;CYQF 100900Z 18006KT 15SM SKC M01/M07 A2981 RMK SLP120

CYQF;2015-04-10 10:00;CYQF 101000Z 21005KT 15SM SKC M03/M08 A2981 RMK SLP118

CYQF;2015-04-10 11:00;CYQF 101100Z 20004KT 15SM SKC M04/M08 A2980 RMK SLP116

CYQF;2015-04-10 12:00;CYQF 101200Z 18005KT 15SM SKC M05/M08 A2979 RMK SLP115

CYQF;2015-04-10 13:00;CYQF 101300Z 20005KT 15SM SKC M03/M08 A2978 RMK SLP112

CYQF;2015-04-10 14:00;CYQF 101400Z 20007KT 15SM SKC M01/M06 A2978 RMK SLP112

CYQF;2015-04-10 15:00;CYQF 101500Z 22005KT 15SM SKC 03/M06 A2976 RMK SLP107

CYQF;2015-04-10 16:00;CYQF 101600Z 21004KT 15SM SKC 08/M07 A2974 RMK SLP098 DENSITY ALT 3000FT

CYQF;2015-04-10 17:00;CYQF 101700Z 21006KT 170V250 15SM FEW072 FEW250 11/M07 A2973 RMK CU1CI1 CU TR CI TR SLP087 DENSITY ALT 3400FT

CYQF;2015-04-10 18:00;CYQF 101800Z 15009KT 140V230 15SM FEW075 FEW250 14/M08 A2969 RMK CU1CI1 CU TR CI TR SLP075 DENSITY ALT 3700FT

CYQF;2015-04-10 19:00;CYQF 101900Z 19010G18KT 180V260 15SM FEW080 FEW250 15/M09 A2966 RMK CU1CI1 CU TR CI TR SLP065 DENSITY ALT 3900FT

CYQF;2015-04-10 20:00;CYQF 102000Z 23013G21KT 170V250 15SM FEW085 FEW250 17/M08 A2962 RMK CU1CI1 CI TR SLP050 DENSITY ALT 4100FT

CYQF;2015-04-10 21:00;CYQF 102100Z 20019G27KT 15SM SCT100 SCT250 17/M09 A2958 RMK CU3CI1 CI TR SLP037 DENSITY ALT 4200FT

CYQF;2015-04-10 22:00;CYQF 102200Z 25015G25KT 15SM SCT100 SCT250 17/M10 A2956 RMK CU3CI1 CI TR SLP031 DENSITY ALT 4200FT

CYQF;2015-04-10 23:00;CYQF 102300Z 25016G25KT 15SM FEW100 SCT250 16/M11 A2954 RMK CU1CI3 SLP026 DENSITY ALT 4200FT

CYQF;2015-04-11 00:00;CYQF 110000Z 23016G24KT 15SM FEW100 FEW150 BKN250 16/M10 A2953 RMK CU1AC2CI5 CU TR SLP023 DENSITY ALT 4100FT

CYQF;2015-04-11 01:00;CYQF 110100Z 24012G21KT 15SM FEW100 SCT250 14/M09 A2951 RMK AC2CI2 SLP019 DENSITY ALT 4000FT

CYQF;2015-04-11 02:00;CYQF 110200Z 22007KT 15SM FEW100 BKN250 11/M08 A2949 RMK AC1CI4 SLP012 DENSITY ALT 3600FT

CYQF;2015-04-11 03:00;CYQF 110300Z 21009KT 15SM FEW100 FEW240 07/M08 A2949 RMK AC1CI2 AC TR SLP011 DENSITY ALT 3200FT

CYQF;2015-04-11 04:00;CYQF 110400Z 24007KT 15SM FEW240 07/M08 A2948 RMK CI1 SLP001 DENSITY ALT 3200FT

CYQF;2015-04-11 05:00;CYQF 110500Z 19005KT 15SM FEW240 03/M07 A2947 RMK CI1 SLP999

CYQF;2015-04-11 06:00;CYQF 110600Z 20008KT 15SM SCT240 01/M06 A2945 RMK CI3 SLP992

CYQF;2015-04-11 07:00;CYQF 110700Z 19005KT 15SM SKC 02/M06 A2942 RMK SLP979

CYQF;2015-04-11 08:00;CYQF 110800Z 18007KT 15SM FEW240 00/M06 A2940 RMK CI1 SLP974

CYQF;2015-04-11 09:00;CYQF 110900Z 18006KT 15SM SCT160 BKN240 01/M05 A2938 RMK AC4CI3 SLP966

CYQF;2015-04-11 10:00;CYQF 111000Z 21004KT 15SM SCT160 OVC240 01/M06 A2937 RMK AC4CI4 SLP961

CYQF;2015-04-11 11:00;CYQF 111100Z 18005KT 15SM FEW160 BKN240 00/M05 A2935 RMK AC2CI5 SLP954

CYQF;2015-04-11 12:00;CYQF 111200Z 17005KT 15SM FEW160 BKN240 00/M05 A2933 RMK AC2CI4 SLP950

CYQF;2015-04-11 13:00;CYQF 111300Z 23005KT 15SM SCT170 BKN250 02/M05 A2931 RMK AC3CI3 SLP944

CYQF;2015-04-11 14:00;CYQF 111400Z 24008KT 15SM FEW060 SCT150 BKN250 05/M05 A2931 RMK SC1AC4CI2 SC TR VIRGA SLP942 DENSITY ALT 3100FT

CYQF;2015-04-11 15:00;CYQF 111500Z 20006KT 15SM FEW060 BKN140 BKN250 04/M04 A2930 RMK SC1AC5CI2 SC TR VIRGA SLP946 DENSITY ALT 3000FT

CYQF;2015-04-11 16:00;CYQF 111600Z 28009G15KT 15SM FEW060 SCT130 BKN250 08/M05 A2929 RMK SC1AC4CI3 SC TR VIRGA SLP937 DENSITY ALT 3500FT

CYQF;2015-04-11 17:00;CYQF 111700Z 32012G20KT 15SM FEW060 SCT140 BKN260 11/M05 A2928 RMK SC1AC3CI3 VIRGA SLP933 DENSITY ALT 3900FT

CYQF;2015-04-11 18:00;CYQF 111800Z 34013G21KT 15SM FEW070TCU SCT110 BKN260 13/M05 A2928 RMK TCU2AC2CI3 VIRGA SLP936 DENSITY ALT 4100FT

CYQF;2015-04-11 19:00;CYQF 111900Z 33008G16KT 310V020 15SM VCSH BKN080TCU BKN260 13/M06 A2928 RMK TCU5CI1 SLP933 DENSITY ALT 4100FT

CYQF;2015-04-11 20:00;CYQF 112000Z 31018G30KT 15SM VCSH BKN072TCU 09/M00 A2931 RMK TCU7 PRESRR SLP950 DENSITY ALT 3600FT

CYQF;2015-04-11 20:06;CYQF 112006Z 32017G26KT 15SM -SHRA BKN072TCU 08/00 A2932 RMK TCU7 PRESRR SLP955 DENSITY ALT 3500FT

CYQF;2015-04-11 20:25;CYQF 112025Z 34025G31KT 15SM VCSH BKN075TCU 07/00 A2934 RMK TCU7 SLP962 DENSITY ALT 3300FT

CYQF;2015-04-11 21:00;CYQF 112100Z 36015G21KT 15SM VCSH BKN080 08/M01 A2934 RMK ACC7 SLP962 DENSITY ALT 3400FT

CYQF;2015-04-11 22:00;CYQF 112200Z 34018G24KT 15SM VCSH FEW040TCU BKN075 BKN210 09/M02 A2937 RMK TCU2AC5CI1 CI TR SLP970 DENSITY ALT 3500FT

CYQF;2015-04-11 22:26;CYQF 112226Z 33020G27KT 10SM -SHRA OVC040TCU 07/M01 A2940 RMK TCU8 PRESRR SLP981 DENSITY ALT 3200FT

CYQF;2015-04-11 23:00;CYQF 112300Z 33009KT 15SM VCSH BKN040TCU BKN210 05/M00 A2942 RMK TCU7CI1 CI TR SLP991 DENSITY ALT 3000FT

CYQF;2015-04-12 00:00;CYQF 120000Z 33016G24KT 15SM VCSH BKN056 OVC075 08/M06 A2944 RMK CU6AC2 SLP995 DENSITY ALT 3300FT

CYQF;2015-04-12 01:00;CYQF 120100Z 32015G26KT 15SM VCSH BKN056 OVC110 06/M06 A2947 RMK CU5AC3 SLP007 DENSITY ALT 3100FT

CYQF;2015-04-12 02:00;CYQF 120200Z 31008KT 15SM VCSH SCT044 BKN110 05/M06 A2948 RMK CU4AC3 SLP010

CYQF;2015-04-12 02:38;CYQF 120238Z 30021G32KT 15SM BKN040 05/M06 A2952 RMK CU7 VIRGA PRESRR SLP024

CYQF;2015-04-12 03:00;CYQF 120300Z 32010G26KT 15SM FEW040 BKN110 05/M09 A2952 RMK CU2AC4 PRESFR SLP023

CYQF;2015-04-12 04:00;CYQF 120400Z 24007KT 15SM SCT110 01/M06 A2954 RMK AC4 SLP028

CYQF;2015-04-12 05:00;CYQF 120500Z 26010KT 15SM FEW110 01/M05 A2955 RMK AC2 SLP031

CYQF;2015-04-12 06:00;CYQF 120600Z 24007KT 15SM FEW100 M01/M06 A2957 RMK AC1 SLP037

CYQF;2015-04-12 07:00;CYQF 120700Z 28008KT 15SM SKC M01/M09 A2958 RMK SLP042

CYQF;2015-04-12 08:00;CYQF 120800Z 25006KT 15SM FEW150 M02/M10 A2960 RMK AC2 SLP054

CYQF;2015-04-12 09:00;CYQF 120900Z 22007KT 15SM FEW150 M05/M11 A2961 RMK AC2 SLP061

CYQF;2015-04-12 10:00;CYQF 121000Z 23008KT 15SM SCT160 M05/M10 A2963 RMK AC3 SLP066

CYQF;2015-04-12 11:00;CYQF 121100Z 16003KT 15SM SCT170 M08/M11 A2964 RMK AC3 SLP079

CYQF;2015-04-12 12:00;CYQF 121200Z 19005KT 15SM BKN140 M06/M09 A2966 RMK AC5 SLP079

CYQF;2015-04-12 13:00;CYQF 121300Z 24003KT 15SM BKN140 M04/M09 A2968 RMK AC7 VIRGA SLP085

CYQF;2015-04-12 14:00;CYQF 121400Z 22004KT 15SM SCT080 BKN150 M02/M08 A2970 RMK AC3AC4 VIRGA SLP093

CYQF;2015-04-12 15:00;CYQF 121500Z 21005KT 15SM FEW080 BKN150 M01/M09 A2972 RMK ACC2AC4 VIRGA SLP097

CYQF;2015-04-12 16:00;CYQF 121600Z 24007KT 15SM FEW040 BKN150 03/M09 A2973 RMK CU1AC6 CU TR SLP101

CYQF;2015-04-12 17:00;CYQF 121700Z 25015KT 15SM FEW060 SCT150 06/M11 A2972 RMK CU1AC2 SLP094

CYQF;2015-04-12 18:00;CYQF 121800Z 29016G23KT 15SM BKN150 06/M19 A2971 RMK ACC7 SLP093

CYQF;2015-04-12 19:00;CYQF 121900Z 28015G23KT 15SM BKN140 06/M21 A2971 RMK ACC7 SLP093

CYQF;2015-04-12 20:00;CYQF 122000Z 26015G23KT 250V320 15SM BKN140 08/M22 A2971 RMK ACC7 SLP092 DENSITY ALT 3000FT

CYQF;2015-04-12 21:00;CYQF 122100Z 29021G28KT 15SM BKN140 07/M19 A2972 RMK ACC7 SLP100

CYQF;2015-04-12 22:00;CYQF 122200Z 27022G30KT 15SM BKN100 08/M18 A2973 RMK CU6 VIRGA SLP101 DENSITY ALT 3000FT

CYQF;2015-04-12 23:00;CYQF 122300Z 29019G25KT 15SM BKN100 08/M18 A2974 RMK CU6 VIRGA SLP109 DENSITY ALT 3000FT

CYQF;2015-04-13 00:00;CYQF 130000Z 30016G21KT 15SM BKN100 06/M17 A2976 RMK CU6 VIRGA SLP117

CYQF;2015-04-13 01:00;CYQF 130100Z CCA 28015G21KT 15SM BKN088 05/M17 A2978 RMK CU6 VIRGA SLP121

CYQF;2015-04-13 02:00;CYQF 130200Z 29015G22KT 240V320 15SM BKN081 05/M15 A2980 RMK CU6 VIRGA SLP126

CYQF;2015-04-13 03:00;CYQF 130300Z 29008G15KT 15SM SCT080 03/M15 A2982 RMK CU4 VIRGA SLP135

CYQF;2015-04-13 04:00;CYQF 130400Z 28010KT 15SM SCT080 03/M15 A2986 RMK CU3 SLP143

CYQF;2015-04-13 05:00;CYQF 130500Z 24006KT 15SM SKC 00/M14 A2987 RMK SLP149

CYQF;2015-04-13 06:00;CYQF 130600Z 25007KT 15SM SKC M00/M14 A2989 RMK SLP155

CYQF;2015-04-13 07:00;CYQF 130700Z 23008KT 15SM SKC M02/M14 A2991 RMK SLP163

CYQF;2015-04-13 08:00;CYQF 130800Z 23011KT 15SM SKC M03/M13 A2993 RMK SLP169

CYQF;2015-04-13 09:00;CYQF 130900Z 23008KT 15SM SKC M04/M12 A2994 RMK SLP174

CYQF;2015-04-13 10:00;CYQF 131000Z 23007KT 15SM SKC M05/M12 A2994 RMK SLP176

CYQF;2015-04-13 11:00;CYQF 131100Z 22007KT 15SM FEW160 M05/M12 A2995 RMK AC1 SLP179

CYQF;2015-04-13 12:00;CYQF 131200Z 21005KT 15SM BKN160 M06/M11 A2995 RMK AS5 SLP183

CYQF;2015-04-13 13:00;CYQF 131300Z 17005KT 15SM BKN260 M07/M11 A2995 RMK CI7 SLP186

CYQF;2015-04-13 14:00;CYQF 131400Z 20004KT 15SM BKN260 M03/M09 A2995 RMK CI7 SLP181

CYQF;2015-04-13 15:00;CYQF 131500Z 14002KT 15SM FEW120 BKN260 02/M09 A2995 RMK AC2CI5 SLP175

CYQF;2015-04-13 16:00;CYQF 131600Z 15007KT 15SM BKN260 06/M09 A2993 RMK CI7 SLP165

CYQF;2015-04-13 17:00;CYQF 131700Z 19013KT 15SM SCT260 07/M12 A2991 RMK CI4 SLP159

CYQF;2015-04-13 18:00;CYQF 131800Z 21012KT 15SM FEW080 BKN220 09/M10 A2988 RMK CU1CI6 SLP149 DENSITY ALT 3000FT

CYQF;2015-04-13 19:00;CYQF 131900Z 22014G20KT 150V230 15SM FEW080 BKN220 09/M11 A2986 RMK CU1CI6 SLP145 DENSITY ALT 3000FT

CYQF;2015-04-13 20:00;CYQF 132000Z 16009KT 15SM FEW080 BKN260 10/M11 A2983 RMK CU1CI6 SLP132 DENSITY ALT 3200FT

CYQF;2015-04-13 21:00;CYQF 132100Z 16008G19KT 140V240 15SM FEW080 BKN260 10/M11 A2980 RMK CU1CI6 SLP123 DENSITY ALT 3200FT

CYQF;2015-04-13 22:00;CYQF 132200Z 13008G15KT 110V190 15SM FEW080 BKN260 11/M10 A2977 RMK CU1CI6 SLP114 DENSITY ALT 3300FT

CYQF;2015-04-13 23:00;CYQF 132300Z 14017KT 15SM FEW080 FEW150 BKN260 12/M10 A2975 RMK CU1AC1CI5 SLP103 DENSITY ALT 3500FT

CYQF;2015-04-14 00:00;CYQF 140000Z 14013G21KT 15SM FEW150 BKN260 12/M09 A2972 RMK AC1CI5 SLP095 DENSITY ALT 3500FT

CYQF;2015-04-14 01:00;CYQF 140100Z 13013KT 15SM FEW120 BKN260 12/M08 A2969 RMK AC1CI5 SLP087 DENSITY ALT 3500FT

CYQF;2015-04-14 02:00;CYQF 140200Z 12006KT 15SM FEW120 BKN260 09/M08 A2968 RMK AC1CI5 SLP081 DENSITY ALT 3200FT

CYQF;2015-04-14 03:00;CYQF 140300Z VRB03KT 15SM FEW120 SCT260 05/M09 A2968 RMK AC1CI4 TR AC SLP080

CYQF;2015-04-14 04:00;CYQF 140400Z 00000KT 15SM SCT210 06/M08 A2969 RMK CI4 SLP077

CYQF;2015-04-14 05:00;CYQF 140500Z 06003KT 350V090 15SM OVC180 05/M08 A2967 RMK CI8 SLP073

CYQF;2015-04-14 06:00;CYQF 140600Z 00000KT 15SM OVC190 05/M06 A2967 RMK CI8 SLP069

CYQF;2015-04-14 07:00;CYQF 140700Z 18003KT 15SM FEW190 02/M06 A2965 RMK CI2 SLP066

CYQF;2015-04-14 08:00;CYQF 140800Z 22005KT 170V340 15SM SCT140 BKN200 M01/M06 A2966 RMK AC3CI4 SLP069

CYQF;2015-04-14 09:00;CYQF 140900Z 16005KT 15SM OVC180 01/M06 A2962 RMK CI8 SLP056

CYQF;2015-04-14 10:00;CYQF 141000Z 20005KT 15SM OVC170 M00/M05 A2962 RMK AC8 SLP055

CYQF;2015-04-14 11:00;CYQF 141100Z 18005KT 15SM OVC150 M00/M05 A2961 RMK AC8 SLP051

CYQF;2015-04-14 12:00;CYQF 141200Z 13002KT 15SM BKN140 M01/M05 A2960 RMK AC7 SLP048

CYQF;2015-04-14 13:00;CYQF 141300Z 00000KT 15SM FEW050 OVC110 M00/M05 A2960 RMK SC1AC7 SLP047

CYQF;2015-04-14 14:00;CYQF 141400Z 02002KT 15SM FEW050 BKN150 OVC250 M00/M04 A2960 RMK SC1AC5CI2 SLP052

CYQF;2015-04-14 15:00;CYQF 141500Z 01004KT 330V060 15SM OVC080 03/M04 A2961 RMK AC8 SLP054

CYQF;2015-04-14 16:00;CYQF 141600Z 00000KT 15SM OVC070 04/M04 A2963 RMK AC8 VIRGA SLP060

CYQF;2015-04-14 17:00;CYQF 141700Z 36007G17KT 15SM OVC060 06/M05 A2965 RMK SC8 VIRGA SLP064

CYQF;2015-04-14 18:00;CYQF 141800Z 32019KT 15SM BKN050 OVC250 07/M02 A2967 RMK SC6CI2 SLP071 DENSITY ALT 3000FT

CYQF;2015-04-14 19:00;CYQF 141900Z 33016G22KT 15SM FEW040 SCT090 BKN250 08/M00 A2968 RMK CU1AC2CI4 SLP076 DENSITY ALT 3100FT

CYQF;2015-04-14 20:00;CYQF 142000Z 32016G23KT 15SM FEW045 SCT090 BKN250 10/M03 A2969 RMK CU1AC2CI2 SLP081 DENSITY ALT 3300FT

CYQF;2015-04-14 21:00;CYQF 142100Z 33017G24KT 15SM FEW050 SCT080 11/M05 A2971 RMK CU1AC3 SLP084 DENSITY ALT 3400FT

CYQF;2015-04-14 22:00;CYQF 142200Z 34018G24KT 15SM SCT050 BKN080 10/M05 A2975 RMK CU3AC4 PRESRR SLP102 DENSITY ALT 3200FT

CYQF;2015-04-14 23:00;CYQF 142300Z 33019KT 15SM BKN050 07/M04 A2978 RMK SC7 SLP117

CYQF;2015-04-15 00:00;CYQF 150000Z 32013G20KT 15SM OVC050 07/M04 A2981 RMK SC8 SLP128

CYQF;2015-04-15 01:00;CYQF 150100Z 30016G29KT 15SM FEW020 SCT050 OVC080 04/M00 A2986 RMK SC1SC3AC4 VIRGA SLP146

CYQF;2015-04-15 02:00;CYQF 150200Z 30010KT 15SM OVC075 04/M01 A2987 RMK AC8 SLP150

CYQF;2015-04-15 03:00;CYQF 150300Z 27007KT 15SM SCT090 OVC150 04/M02 A2990 RMK AC4AC4 SLP157

CYQF;2015-04-15 04:00;CYQF 150400Z 29009KT 15SM OVC090 04/M02 A2992 RMK AC8 SLP162

CYQF;2015-04-15 05:00;CYQF 150500Z 29006KT 15SM SCT080 OVC140 03/M07 A2995 RMK AC3AC5 SLP172

CYQF;2015-04-15 06:00;CYQF 150600Z 32009KT 15SM OVC098 04/M10 A2997 RMK AC8 SLP177

CYQF;2015-04-15 07:00;CYQF 150700Z 29009KT 15SM OVC150 02/M08 A3000 RMK AC8 SLP189

CYQF;2015-04-15 08:00;CYQF 150800Z 30010KT 15SM OVC180 02/M09 A3002 RMK CI8 SLP194

CYQF;2015-04-15 09:00;CYQF 150900Z 32014G23KT 15SM BKN190 03/M11 A3005 RMK CI6 SLP200

CYQF;2015-04-15 10:00;CYQF 151000Z 31010KT 15SM SCT230 01/M12 A3006 RMK CI4 SLP210

CYQF;2015-04-15 11:00;CYQF 151100Z 30010KT 15SM FEW220 M00/M12 A3007 RMK CI2 SLP217

CYQF;2015-04-15 12:00;CYQF 151200Z 26005KT 15SM FEW220 M03/M11 A3010 RMK CI1 CI TR SLP231

CYQF;2015-04-15 13:00;CYQF 151300Z 29008KT 15SM FEW240 M03/M11 A3012 RMK CI1 SLP241

CYQF;2015-04-15 14:00;CYQF 151400Z 27010KT 15SM FEW240 M01/ RMK CI1 WND EST ALTIMETER 30.16 VIA CYQU FSS

CYQF;2015-04-15 15:00;CYQF 151500Z 27010KT 15SM FEW250 08/ RMK CI1 WND EST ALT 30.17 DP -2.6 VIA CYQU FSS

CYQF;2015-04-15 16:00;CYQF 151600Z 27010KT 15SM SKC 05/ RMK DP -8.8 ALT 30.18 WND EST VIA CYQU FSS

CYQF;2015-04-15 17:00;CYQF 151700Z 03010KT 15SM SKC 09/ RMK DP -9.6 ALT 30.17 WND EST VIA CYQU FSS

CYQF;2015-04-15 18:00;CYQF 151800Z 32010KT 15SM SKC 08/ RMK D.P. -9.3 ALT 3015 WND EST VIA CYQU FSS

CYQF;2015-04-15 19:00;CYQF 151900Z 23010KT 15SM SKC 14/ RMK D.P. -7.2 ALT 3013 WND EST VIA CYQU FSS

CYQF;2015-04-15 20:00;CYQF 152000Z 21011G18KT 15SM SKC 10/M08 RMK ALTM 3009 WND ESTD VIA CYQU FSS

CYQF;2015-04-15 21:00;CYQF 152100Z 27010G18KT 15SM SKC 11/M09 A3009 RMK ALTM 3009 VIA CYQU SLP216 DENSITY ALT 3000FT

CYQF;2015-04-15 22:00;CYQF 152200Z 23008KT 210V320 15SM SKC 12/M11 A3008 RMK SLP212 DENSITY ALT 3000FT

CYQF;2015-04-15 23:00;CYQF 152300Z 22010KT 190V260 15SM SKC 12/M10 A3006 RMK SLP206 DENSITY ALT 3200FT

CYQF;2015-04-16 00:00;CYQF 160000Z 21007KT 200V280 15SM SKC 13/M11 A3006 RMK SLP208 DENSITY ALT 3200FT

CYQF;2015-04-16 01:00;CYQF 160100Z VRB03KT 15SM SCT260 13/M10 A3006 RMK CI3 SLP209 DENSITY ALT 3200FT

CYQF;2015-04-16 02:00;CYQF 160200Z 17003KT 15SM BKN260 12/M10 A3006 RMK CI5 SLP207 DENSITY ALT 3100FT

CYQF;2015-04-16 03:00;CYQF 160300Z 17005KT 15SM SCT260 08/M08 A3007 RMK CI4 SLP205

CYQF;2015-04-16 04:00;CYQF 160400Z 28007KT 210V290 15SM BKN240 06/M09 A3009 RMK CI6 SLP219

CYQF;2015-04-16 05:00;CYQF 160500Z 26006KT 15SM SCT250 06/M09 A3011 RMK CI3 SLP219

CYQF;2015-04-16 06:00;CYQF 160600Z 30009KT 15SM SCT250 05/M08 A3012 RMK CI3 SLP225

CYQF;2015-04-16 07:00;CYQF 160700Z 23005KT 200V280 15SM BKN250 00/M09 A3013 RMK CI5 SLP229

CYQF;2015-04-16 08:00;CYQF 160800Z 21004KT 15SM SKC M02/M09 A3014 RMK SLP238

CYQF;2015-04-16 09:00;CYQF 160900Z 20007KT 15SM SKC M01/M09 A3014 RMK SLP239

CYQF;2015-04-16 10:00;CYQF 161000Z 25003KT 15SM SKC 02/M08 A3014 RMK SLP233

CYQF;2015-04-16 11:00;CYQF 161100Z VRB02KT 15SM FEW250 M01/M07 A3015 RMK CI2 SLP239

CYQF;2015-04-16 12:00;CYQF 161200Z 16004KT 15SM BKN250 M04/M08 A3015 RMK CI6 SLP242

CYQF;2015-04-16 13:00;CYQF 161300Z 19005KT 15SM BKN250 M05/M08 A3016 RMK CI5 SLP247

CYQF;2015-04-16 14:00;CYQF 161400Z 22004KT 15SM BKN250 01/M06 A3016 RMK CI5 SLP239

CYQF;2015-04-16 15:00;CYQF 161500Z 19005KT 15SM BKN250 05/M05 A3015 RMK CI7 SLP238

CYQF;2015-04-16 16:00;CYQF 161600Z 20007KT 15SM BKN250 09/M05 A3014 RMK CI7 SLP231

CYQF;2015-04-16 17:00;CYQF 161700Z 18008KT 170V230 15SM BKN180 BKN270 12/M07 A3012 RMK AC5CI2 SLP219 DENSITY ALT 3100FT

CYQF;2015-04-16 18:00;CYQF 161800Z 17009G15KT 15SM BKN160 BKN220 13/M08 A3009 RMK AC5CI2 SLP211 DENSITY ALT 3200FT

CYQF;2015-04-16 19:00;CYQF 161900Z 24010G18KT 190V260 15SM BKN210 14/M08 A3006 RMK CI7 SLP205 DENSITY ALT 3400FT

CYQF;2015-04-16 20:00;CYQF 162000Z 23014G27KT 180V250 15SM BKN210 16/M08 A3003 RMK CI7 SLP195 DENSITY ALT 3600FT

CYQF;2015-04-16 21:00;CYQF 162100Z 24015G21KT 15SM BKN210 17/M07 A3002 RMK CI7 SLP188 DENSITY ALT 3800FT

CYQF;2015-04-16 22:00;CYQF 162200Z 25015G22KT 15SM BKN230 17/M07 A3000 RMK CI7 SLP178 DENSITY ALT 3800FT

CYQF;2015-04-16 23:00;CYQF 162300Z 27011G21KT 15SM FEW100 BKN230 18/M06 A2999 RMK CU1CI5 SLP178 DENSITY ALT 3900FT

CYQF;2015-04-17 00:00;CYQF 170000Z 27010G21KT 15SM FEW100 BKN250 18/M07 A3000 RMK CU1CI5 SLP182 DENSITY ALT 3900FT

CYQF;2015-04-17 01:00;CYQF 170100Z 29010G18KT 15SM SCT100 SCT250 17/M07 A3000 RMK AC3CI1 SLP186 DENSITY ALT 3800FT

CYQF;2015-04-17 02:00;CYQF 170200Z 30009KT 15SM BKN100 16/M06 A3002 RMK AC5 SLP188 DENSITY ALT 3600FT

CYQF;2015-04-17 03:00;CYQF 170300Z 32008KT 15SM SCT100 12/M07 A3006 RMK AC3 SLP199 DENSITY ALT 3100FT

CYQF;2015-04-17 04:00;CYQF 170400Z 30006KT 15SM FEW100 10/M07 A3010 RMK AC2 SLP213

CYQF;2015-04-17 05:00;CYQF 170500Z 32006KT 15SM FEW100 09/M06 A3014 RMK AC2 SLP224

CYQF;2015-04-17 06:00;CYQF 170600Z 03011KT 15SM SKC 07/M02 A3017 RMK SLP237

CYQF;2015-04-17 07:00;CYQF 170700Z 04009KT 15SM SKC 04/M02 A3019 RMK SLP244

CYQF;2015-04-17 08:00;CYQF 170800Z 04002KT 15SM SKC 02/M04 A3021 RMK SLP251

CYQF;2015-04-17 09:00;CYQF 170900Z 20003KT 15SM SKC 01/M03 A3021 RMK SLP251

CYQF;2015-04-17 10:00;CYQF 171000Z 26005KT 15SM SKC 02/M03 A3021 RMK SLP250

CYQF;2015-04-17 11:00;CYQF 171100Z 22006KT 15SM SKC M03/M05 A3021 RMK SLP254

CYQF;2015-04-17 12:00;CYQF 171200Z 17006KT 15SM FEW250 M04/M05 A3021 RMK CI1 CI TR SLP255

CYQF;2015-04-17 13:00;CYQF 171300Z 17005KT 15SM SCT250 M03/M05 A3018 RMK CI3 SLP246

CYQF;2015-04-17 14:00;CYQF 171400Z 17007KT 15SM SCT160 BKN250 03/M02 A3016 RMK AC3CI3 SLP235

CYQF;2015-04-17 15:00;CYQF 171500Z 16014KT 15SM BKN140 BKN250 05/M03 A3013 RMK AC5CI2 SLP223

CYQF;2015-04-17 16:00;CYQF 171600Z 17019KT 15SM BKN140 BKN250 09/M05 A3008 RMK AC5CI2 PRESFR SLP205

CYQF;2015-04-17 17:00;CYQF 171700Z 18024G33KT 15SM BKN140 BKN250 12/M04 A3003 RMK AC5CC2 SLP187 DENSITY ALT 3200FT

CYQF;2015-04-17 18:00;CYQF 171800Z 16028G34KT 15SM FEW140 SCT250 BKN280 14/M04 A3000 RMK AC2CC2CI3 SLP177 DENSITY ALT 3400FT

CYQF;2015-04-17 19:00;CYQF 171900Z 17023G29KT 15SM FEW068 SCT150 BKN220 14/M03 A2995 RMK CU2AC2CI2 PRESFR SLP160 DENSITY ALT 3500FT

CYQF;2015-04-17 20:00;CYQF 172000Z 17024G34KT 15SM FEW070 SCT150 BKN250 17/M03 A2990 RMK CU2AC2CI2 SLP145 DENSITY ALT 3900FT

CYQF;2015-04-17 21:00;CYQF 172100Z 17019G28KT 15SM SCT070TCU BKN120 BKN220 20/M03 A2985 RMK TCU4AC2CI1 VIRGA SLP125 DENSITY ALT 4200FT

CYQF;2015-04-17 22:00;CYQF 172200Z 26016G31KT 190V290 15SM BKN070TCU OVC110 18/M03 A2984 RMK TCU6AC2 VIRGA SLP123 DENSITY ALT 4000FT

CYQF;2015-04-17 23:00;CYQF 172300Z 25006KT 210V290 15SM SCT070TCU BKN120 19/M04 A2982 RMK TCU3AC4 VIRGA SLP119 DENSITY ALT 4100FT

CYQF;2015-04-18 00:00;CYQF 180000Z 29018G29KT 15SM SCT060TCU BKN120 BKN210 18/M08 A2983 RMK TCU3AC2CI2 VIRGA SLP126 DENSITY ALT 4000FT

CYQF;2015-04-18 01:00;CYQF 180100Z 27020G//KT 15SM FEW070TCU SCT110 15/M02 A2986 RMK TCU2AC2 VIRGA WND ESTD PRESRR SLP138 DENSITY ALT 3700FT

CYQF;2015-04-18 02:00;CYQF 180200Z 35009G15KT 15SM SCT070TCU 11/M02 A2989 RMK TCU3 VIRGA SLP147 DENSITY ALT 3200FT

CYQF;2015-04-18 03:00;CYQF 180300Z 35013G22KT 15SM VCSH SCT070TCU 11/M02 A2993 RMK TCU4 SLP156 DENSITY ALT 3100FT

CYQF;2015-04-18 04:00;CYQF 180400Z 01010KT 15SM VCSH SCT070TCU BKN110 09/M00 A2998 RMK TCU4AC3 SLP172

CYQF;2015-04-18 05:00;CYQF 180500Z 35007KT 15SM SCT110 06/00 A3000 RMK AC3 SLP179

CYQF;2015-04-18 06:00;CYQF 180600Z 34010KT 15SM OVC150 06/01 A3004 RMK AC8 PRESRR SLP191

CYQF;2015-04-18 07:00;CYQF 180700Z 34018G29KT 15SM BKN070 OVC110 06/00 A3008 RMK AC6AC2 SLP207

CYQF;2015-04-18 08:00;CYQF 180800Z 33014G20KT 15SM BKN070 OVC100 06/M02 A3009 RMK AC5AC3 SLP206

CYQF;2015-04-18 09:00;CYQF 180900Z 32010G15KT 15SM OVC130 05/M04 A3012 RMK AC8 SLP214

CYQF;2015-04-18 10:00;CYQF 181000Z 31012G17KT 15SM OVC150 05/M06 A3014 RMK AC8 SLP221

CYQF;2015-04-18 11:00;CYQF 181100Z 31012G20KT 15SM BKN180 04/M06 A3016 RMK AC7 SLP229

CYQF;2015-04-18 12:00;CYQF 181200Z 33015G24KT 15SM FEW180 03/M05 A3018 RMK AC2 SLP240

CYQF;2015-04-18 13:00;CYQF 181300Z 33013G19KT 15SM FEW180 02/M04 A3021 RMK AC1 SLP253

CYQF;2015-04-18 14:00;CYQF 181400Z 32016G23KT 15SM FEW180 03/M04 A3023 RMK AC1 SLP262

CYQF;2015-04-18 15:00;CYQF 181500Z 33017G28KT 15SM FEW100 05/M04 A3023 RMK AC1 AC TR SLP262

CYQF;2015-04-18 16:00;CYQF 181600Z 34021G29KT 15SM FEW045 FEW100 07/M05 A3024 RMK CU1AC1 SLP265

CYQF;2015-04-18 17:00;CYQF 181700Z 32021G28KT 15SM SCT050 07/M06 A3025 RMK CU4 SLP272

CYQF;2015-04-18 18:00;CYQF 181800Z 33021G28KT 15SM VCSH BKN060 09/M08 A3025 RMK CU5 SLP270

CYQF;2015-04-18 19:00;CYQF 181900Z 32020G30KT 15SM VCSH BKN072 09/M09 A3025 RMK CU5 SLP269

CYQF;2015-04-18 20:00;CYQF 182000Z 32024G32KT 15SM VCSH BKN075 09/M08 A3025 RMK CU6 SLP270

CYQF;2015-04-18 21:00;CYQF 182100Z 32019G29KT 15SM VCSH BKN076 11/M09 A3025 RMK CU6 TCU ASOCTD SLP270

CYQF;2015-04-18 21:40;CYQF 182140Z 32011G18KT 290V010 10SM -SHSN BKN060TCU 09/M06 A3026 RMK TCU7 SLP275

CYQF;2015-04-18 22:00;CYQF 182200Z 34009G16KT 300V020 15SM VCSH BKN060TCU 07/M05 A3027 RMK TCU7 SLP280

CYQF;2015-04-18 23:00;CYQF 182300Z 34019G27KT 290V350 15SM VCSH BKN070 09/M09 A3025 RMK CU6 TCU ASOCTD SLP272

CYQF;2015-04-19 00:00;CYQF 190000Z 36011G18KT 15SM BKN060 08/M08 A3026 RMK CU6 VIRGA SLP280

CYQF;2015-04-19 01:00;CYQF 190100Z 36010G15KT 15SM SCT070 08/M09 A3026 RMK CU4 SLP279

CYQF;2015-04-19 02:00;CYQF 190200Z 02010KT 15SM FEW070 07/M08 A3025 RMK AC2 SLP274

CYQF;2015-04-19 03:00;CYQF 190300Z 36005KT 15SM FEW080 05/M09 A3025 RMK AC1 SLP277

CYQF;2015-04-19 04:00;CYQF 190400Z 26005KT 260V320 15SM SKC 02/M09 A3027 RMK SLP283

CYQF;2015-04-19 05:00;CYQF 190500Z 24003KT 210V340 15SM SKC M01/M10 A3028 RMK SLP289

CYQF;2015-04-19 06:00;CYQF 190600Z 29006KT 15SM SKC 02/M08 A3028 RMK SLP285

CYQF;2015-04-19 07:00;CYQF 190700Z 21004KT 15SM SKC M05/M11 A3029 RMK SLP295

CYQF;2015-04-19 08:00;CYQF 190800Z 20002KT 15SM SKC M05/M10 A3028 RMK SLP293

CYQF;2015-04-19 09:00;CYQF 190900Z VRB02KT 15SM SKC M06/M11 A3028 RMK SLP291

CYQF;2015-04-19 10:00;CYQF 191000Z 18004KT 15SM BKN096 M05/M09 A3027 RMK AC5 SLP293

CYQF;2015-04-19 11:00;CYQF 191100Z 21004KT 15SM BKN092 M05/M09 A3027 RMK AC5 SLP288

CYQF;2015-04-19 12:00;CYQF 191200Z 18005KT 15SM BKN089 M05/M09 A3026 RMK AC6 SLP288

CYQF;2015-04-19 13:00;CYQF 191300Z 21003KT 15SM BKN090 M04/M08 A3027 RMK AC6 SLP290

CYQF;2015-04-19 14:00;CYQF 191400Z 20005KT 15SM FEW090 BKN120 M02/M07 A3026 RMK AC2AC4 SLP285

CYQF;2015-04-19 15:00;CYQF 191500Z 24004KT 15SM FEW090 02/M07 A3025 RMK AC1 SLP280

CYQF;2015-04-19 16:00;CYQF 191600Z 25004KT 200V270 15SM FEW090 06/M06 A3025 RMK AC2 SLP276

CYQF;2015-04-19 17:00;CYQF 191700Z 26005KT 220V300 15SM FEW070 FEW100 09/M09 A3022 RMK CU1AC1 CU TR SLP268

CYQF;2015-04-19 18:00;CYQF 191800Z 05002KT 15SM FEW075 FEW250 10/M10 A3020 RMK CU1CI1 SLP256

CYQF;2015-04-19 19:00;CYQF 191900Z VRB06KT 15SM SCT080 BKN250 12/M09 A3017 RMK CU4CI1 SLP253

CYQF;2015-04-19 20:00;CYQF 192000Z VRB03KT 15SM SCT086 BKN250 11/M10 A3015 RMK CU4CI1 SLP246

CYQF;2015-04-19 21:00;CYQF 192100Z VRB05KT 15SM SCT088 SCT250 12/M10 A3013 RMK CU3CI1 CI TR SLP237 DENSITY ALT 3000FT

CYQF;2015-04-19 22:00;CYQF 192200Z VRB06KT 15SM SCT085 13/M09 A3010 RMK CU3 SLP227 DENSITY ALT 3100FT

CYQF;2015-04-19 23:00;CYQF 192300Z 26003KT 170V300 15SM FEW080 13/M10 A3008 RMK CU2 SLP219 DENSITY ALT 3200FT

CYQF;2015-04-20 00:00;CYQF 200000Z 19006KT 160V290 15SM SKC 14/M10 A3005 RMK SLP208 DENSITY ALT 3300FT

CYQF;2015-04-20 01:00;CYQF 200100Z 06006KT 360V080 15SM SKC 13/M08 A3004 RMK SLP202 DENSITY ALT 3200FT

CYQF;2015-04-20 02:00;CYQF 200200Z 08005KT 15SM SKC 11/M08 A3002 RMK SLP197 DENSITY ALT 3000FT

CYQF;2015-04-20 03:00;CYQF 200300Z 10005KT 15SM SKC 07/M09 A3002 RMK SLP195

CYQF;2015-04-20 04:00;CYQF 200400Z 16004KT 15SM SKC 06/M09 A3001 RMK SLP188

CYQF;2015-04-20 05:00;CYQF 200500Z 19003KT 15SM SKC 03/M08 A3000 RMK SLP186

CYQF;2015-04-20 06:00;CYQF 200600Z 18002KT 15SM SKC 02/M08 A2999 RMK SLP185

CYQF;2015-04-20 07:00;CYQF 200700Z 17006KT 15SM SKC 02/M08 A2998 RMK SLP179

CYQF;2015-04-20 08:00;CYQF 200800Z 17005KT 15SM SKC M00/M09 A2997 RMK SLP176

CYQF;2015-04-20 09:00;CYQF 200900Z 22003KT 15SM SKC M01/M08 A2995 RMK SLP171

CYQF;2015-04-20 10:00;CYQF 201000Z 19004KT 15SM SKC M02/M09 A2995 RMK SLP170

CYQF;2015-04-20 11:00;CYQF 201100Z 20005KT 15SM SKC M03/M08 A2995 RMK SLP171

CYQF;2015-04-20 12:00;CYQF 201200Z 20006KT 15SM FEW100 M05/M08 A2995 RMK AC1 AC TR SLP170

CYQF;2015-04-20 13:00;CYQF 201300Z 18005KT 15SM FEW100 M04/M08 A2995 RMK AC1 SLP171

CYQF;2015-04-20 14:00;CYQF 201400Z 19004KT 15SM FEW100 01/M05 A2994 RMK AC1 SLP166

CYQF;2015-04-20 15:00;CYQF 201500Z 23003KT 210V280 15SM FEW100 07/M05 A2994 RMK AC1 SLP162

CYQF;2015-04-20 16:00;CYQF 201600Z 30009KT 15SM FEW100 12/M05 A2992 RMK AC1 SLP152 DENSITY ALT 3200FT

CYQF;2015-04-20 17:00;CYQF 201700Z 31010G16KT 290V350 15SM FEW100 14/M05 A2991 RMK AC1 SLP148 DENSITY ALT 3500FT

CYQF;2015-04-20 18:00;CYQF 201800Z 31013G19KT 15SM FEW100 SCT250 15/M03 A2989 RMK AC2CI1 SLP143 DENSITY ALT 3700FT

CYQF;2015-04-20 19:00;CYQF 201900Z 33011G20KT 15SM FEW080 SCT120 SCT250 16/M03 A2988 RMK CU1AC2CI1 SLP137 DENSITY ALT 3700FT

CYQF;2015-04-20 20:00;CYQF 202000Z 31011G21KT 15SM FEW080 SCT120 BKN250 17/M03 A2986 RMK CU1AC2CI3 SLP133 DENSITY ALT 3900FT

CYQF;2015-04-20 21:00;CYQF 202100Z 33013G19KT 270V350 15SM FEW080 BKN250 17/M03 A2985 RMK CU2CI4 SLP129 DENSITY ALT 3900FT

CYQF;2015-04-20 22:00;CYQF 202200Z 31013G19KT 300V010 15SM FEW080 BKN250 18/M02 A2984 RMK CU2CI4 SLP125 DENSITY ALT 4100FT

CYQF;2015-04-20 23:00;CYQF 202300Z 32013G19KT 15SM FEW080 BKN120 18/M02 A2982 RMK CU2AC4 ACSL SLP120 DENSITY ALT 4100FT

CYQF;2015-04-21 00:00;CYQF 210000Z 01014G20KT 15SM FEW075 BKN120 17/M02 A2982 RMK CU2AC4 SLP123 DENSITY ALT 4000FT

CYQF;2015-04-21 01:00;CYQF 210100Z 01011G16KT 15SM SCT080 BKN120 16/M01 A2982 RMK AC3AC4 SLP125 DENSITY ALT 3900FT

CYQF;2015-04-21 02:00;CYQF 210200Z 36008KT 15SM FEW100 BKN120 15/M01 A2982 RMK AC2AC5 SLP119 DENSITY ALT 3800FT

CYQF;2015-04-21 03:00;CYQF 210300Z 03004KT 15SM BKN080 13/M01 A2983 RMK AC7 SLP117 DENSITY ALT 3500FT

CYQF;2015-04-21 04:00;CYQF 210400Z 02003KT 15SM 13/M01 A2983 RMK SLP115 DENSITY ALT 3400FT

CYQF;2015-04-21 05:00;CYQF 210500Z 00000KT 15SM FEW080 OVC120 10/M01 A2984 RMK AC2AC6 SLP116 DENSITY ALT 3100FT

CYQF;2015-04-21 06:00;CYQF 210600Z 21003KT 15SM BKN080 BKN120 09/M00 A2984 RMK AC6AC1 SLP117 DENSITY ALT 3000FT

CYQF;2015-04-21 07:00;CYQF 210700Z 00000KT 15SM SCT070 BKN110 08/M01 A2984 RMK AC4AC3 SLP118

CYQF;2015-04-21 08:00;CYQF 210800Z 18005KT 120V190 15SM OVC070 08/00 A2985 RMK AC8 SLP118

CYQF;2015-04-21 09:00;CYQF 210900Z 22004KT 15SM BKN070 BKN120 08/00 A2985 RMK AC5AC2 SLP119

CYQF;2015-04-21 10:00;CYQF 211000Z 11003KT 15SM FEW070 SCT120 05/M01 A2984 RMK AC2AC2 SLP118

CYQF;2015-04-21 11:00;CYQF 211100Z 04002KT 15SM SCT080 05/M00 A2984 RMK AC3 SLP118

CYQF;2015-04-21 12:00;CYQF 211200Z 00000KT 15SM SCT070 05/M01 A2984 RMK AC3 SLP119

CYQF;2015-04-21 13:00;CYQF 211300Z 19006KT 15SM SCT070 04/M02 A2984 RMK AC4 SLP120

CYQF;2015-04-21 14:00;CYQF 211400Z 20005KT 100V210 15SM FEW070 06/M01 A2984 RMK AC2 SLP120

CYQF;2015-04-21 15:00;CYQF 211500Z 18006KT 15SM FEW080 BKN100 11/M01 A2984 RMK AC2AC3 SLP118 DENSITY ALT 3200FT

CYQF;2015-04-21 16:00;CYQF 211600Z 13006KT 15SM FEW100 14/M00 A2984 RMK AC2 SLP113 DENSITY ALT 3500FT

CYQF;2015-04-21 17:00;CYQF 211700Z 16007KT 140V200 15SM FEW065 FEW250 17/01 A2982 RMK CU1CI2 CU TR SLP108 DENSITY ALT 3900FT

CYQF;2015-04-21 18:00;CYQF 211800Z 17010G16KT 140V200 15SM FEW070 SCT250 18/M00 A2982 RMK CU1CI2 SLP107 DENSITY ALT 4100FT

CYQF;2015-04-21 19:00;CYQF 211900Z 21012KT 120V240 15SM SCT076 BKN250 18/M00 A2981 RMK CU4CI2 SLP106 DENSITY ALT 4000FT

CYQF;2015-04-21 20:00;CYQF 212000Z 16012KT 110V170 15SM BKN080 BKN250 20/M00 A2980 RMK CU6CI1 SLP098 DENSITY ALT 4400FT

CYQF;2015-04-21 21:00;CYQF 212100Z 14007G15KT 110V230 15SM SCT086 BKN250 19/M00 A2978 RMK CU4CI2 SLP093 DENSITY ALT 4200FT

CYQF;2015-04-21 22:00;CYQF 212200Z 17011G18KT 15SM BKN090 BKN250 21/00 A2977 RMK CU5CI2 SLP090 DENSITY ALT 4500FT

CYQF;2015-04-21 23:00;CYQF 212300Z 18007G18KT 15SM SCT080 BKN250 21/00 A2975 RMK CU4CI2 SLP084 DENSITY ALT 4400FT

CYQF;2015-04-22 00:00;CYQF 220000Z 17015KT 15SM FEW080 BKN250 20/M00 A2974 RMK CU1CI4 SLP081 DENSITY ALT 4400FT

CYQF;2015-04-22 01:00;CYQF 220100Z 16013KT 15SM FEW075 BKN250 19/00 A2973 RMK CU1CI6 SLP081 DENSITY ALT 4300FT

CYQF;2015-04-22 02:00;CYQF 220200Z 15011KT 15SM FEW075 BKN250 17/00 A2973 RMK AC1CI6 SLP078 DENSITY ALT 4100FT

CYQF;2015-04-22 03:00;CYQF 220300Z 14007KT 15SM SCT080 BKN250 13/00 A2972 RMK AC3CI4 SLP076 DENSITY ALT 3600FT

CYQF;2015-04-22 04:00;CYQF 220400Z 15008KT 15SM FEW080 BKN250 12/M01 A2972 RMK AC2CI5 SLP075 DENSITY ALT 3400FT

CYQF;2015-04-22 05:00;CYQF 220500Z 16012KT 15SM SCT080 12/M01 A2972 RMK AC3 SLP070 DENSITY ALT 3500FT

CYQF;2015-04-22 06:00;CYQF 220600Z 16013KT 15SM BKN100 11/M01 A2972 RMK AC6 SLP070 DENSITY ALT 3400FT

CYQF;2015-04-22 07:00;CYQF 220700Z 19011KT 15SM FEW110 09/M01 A2972 RMK AC2 SLP074 DENSITY ALT 3100FT

CYQF;2015-04-22 08:00;CYQF 220800Z 18011G17KT 15SM SKC 09/M01 A2972 RMK SLP070 DENSITY ALT 3100FT

CYQF;2015-04-22 09:00;CYQF 220900Z 17007KT 15SM SKC 07/M02 A2971 RMK SLP069 DENSITY ALT 3000FT

CYQF;2015-04-22 10:00;CYQF 221000Z 16007KT 15SM SKC 06/M02 A2970 RMK SLP066

CYQF;2015-04-22 11:00;CYQF 221100Z 16008KT 15SM FEW100 05/M02 A2969 RMK AC2 SLP065

CYQF;2015-04-22 12:00;CYQF 221200Z 13005KT 15SM FEW100 SCT250 04/M02 A2969 RMK AC1CI3 SLP064

CYQF;2015-04-22 13:00;CYQF 221300Z 15007KT 15SM FEW100 BKN250 05/M01 A2968 RMK AC1CI6 SLP062

CYQF;2015-04-22 14:00;CYQF 221400Z 15009KT 15SM FEW100 BKN250 08/M00 A2967 RMK ACC1CI6 SLP058 DENSITY ALT 3000FT

CYQF;2015-04-22 15:00;CYQF 221500Z 14014KT 15SM FEW100 BKN250 10/M00 A2967 RMK ACC1CI7 ACC TR SLP060 DENSITY ALT 3300FT

CYQF;2015-04-22 16:00;CYQF 221600Z 14015KT 15SM FEW100 OVC250 12/00 A2966 RMK ACC1CI7 SLP054 DENSITY ALT 3500FT

CYQF;2015-04-22 17:00;CYQF 221700Z 15019G25KT 15SM FEW100 BKN250 14/00 A2964 RMK AC1CI6 ACC ASOCTD SLP045 DENSITY ALT 3800FT

CYQF;2015-04-22 18:00;CYQF 221800Z 15023KT 15SM FEW070 FEW100 BKN250 16/01 A2963 RMK CU1ACC1CI7 CU TR ACC TR SLP039 DENSITY ALT 4100FT

CYQF;2015-04-22 19:00;CYQF 221900Z 14020G27KT 15SM FEW080 BKN250 19/01 A2959 RMK CU1CI6 CU TR SLP028 DENSITY ALT 4400FT

CYQF;2015-04-22 20:00;CYQF 222000Z 15020G28KT 15SM FEW080 BKN250 20/01 A2958 RMK CU1CI6 CU TR SLP022 DENSITY ALT 4600FT

CYQF;2015-04-22 21:00;CYQF 222100Z 16020G28KT 15SM FEW084 BKN250 20/M01 A2956 RMK CU1CI6 SLP018 DENSITY ALT 4600FT

CYQF;2015-04-22 22:00;CYQF 222200Z 16021KT 15SM FEW090 BKN220 22/M01 A2954 RMK CU2CI5 SLP010 DENSITY ALT 4800FT

CYQF;2015-04-22 23:00;CYQF 222300Z 18015G25KT 15SM SCT100 BKN230 22/M03 A2952 RMK CU3CI3 SLP005 DENSITY ALT 4800FT

CYQF;2015-04-23 00:00;CYQF 230000Z 16012G17KT 15SM SCT100 BKN250 21/M04 A2952 RMK CU4CI2 SLP004 DENSITY ALT 4700FT

CYQF;2015-04-23 01:00;CYQF 230100Z 17008KT 15SM VCSH BKN090TCU BKN250 18/M04 A2951 RMK TCU5CI2 SLP003 DENSITY ALT 4400FT

CYQF;2015-04-23 01:21;CYQF 230121Z 30021G29KT 190V310 10SM -SHRA BKN080TCU OVC250 17/M01 A2953 RMK TCU6CI2 VIS W-NW 5 PRESRR SLP013 DENSITY ALT 4300FT

CYQF;2015-04-23 01:41;CYQF 230141Z 32022G31KT 15SM VCSH BKN080TCU OVC250 13/02 A2955 RMK TCU6CI2 PRESRR SLP024 DENSITY ALT 3800FT

CYQF;2015-04-23 02:00;CYQF 230200Z 33014G24KT 15SM VCSH BKN070TCU BKN250 12/03 A2958 RMK TCU6CI1 PRESRR SLP032 DENSITY ALT 3700FT

CYQF;2015-04-23 03:00;CYQF 230300Z 33021G29KT 15SM VCSH FEW020 BKN100CB BKN250 09/02 A2964 RMK CF1CB5CI1 SLP054 DENSITY ALT 3200FT

CYQF;2015-04-23 03:19;CYQF 230319Z 33019G32KT 15SM -SHRA FEW020 BKN080CB OVC250 08/02 A2966 RMK CF1CB5CI2 PRESRR SLP063 DENSITY ALT 3100FT

CYQF;2015-04-23 04:00;CYQF 230400Z 34020G30KT 15SM VCSH FEW020 BKN080 07/02 A2967 RMK CF1CU6 TCU PRESRR SLP065 DENSITY ALT 3000FT

CYQF;2015-04-23 05:00;CYQF 230500Z 34015G23KT 15SM SCT120 06/01 A2970 RMK AC3 SLP074

CYQF;2015-04-23 06:00;CYQF 230600Z 32013G20KT 15SM BKN120 05/01 A2972 RMK AC5 SLP079

CYQF;2015-04-23 07:00;CYQF 230700Z 31013G19KT 15SM SCT015 BKN120 04/00 A2974 RMK SC3AC3 SLP082

CYQF;2015-04-23 08:00;CYQF 230800Z 31009G15KT 15SM SKC 03/M01 A2975 RMK SLP086

CYQF;2015-04-23 09:00;CYQF 230900Z 27005KT 15SM SKC 01/M02 A2974 RMK SLP084

CYQF;2015-04-23 10:00;CYQF 231000Z 24004KT 15SM SKC M01/M02 A2973 RMK SLP083

CYQF;2015-04-23 11:00;CYQF 231100Z 24006KT 15SM SKC M01/M03 A2973 RMK SLP082

CYQF;2015-04-23 12:00;CYQF 231200Z 20006KT 15SM FEW080 M05/M06 A2973 RMK AC1 SLP089

CYQF;2015-04-23 13:00;CYQF 231300Z 20005KT 15SM FEW080 M04/M04 A2973 RMK AC2 SLP090

CYQF;2015-04-23 14:00;CYQF 231400Z CCA 23006KT 15SM FEW080 SCT110 BKN250 02/M01 A2974 RMK AC1AC2CI2 VIRGA NW SLP092

CYQF;2015-04-23 15:00;CYQF 231500Z 26005KT 15SM FEW080 SCT100 04/M01 A2973 RMK AC2AC1 SLP092

CYQF;2015-04-23 16:00;CYQF 231600Z 27006KT 240V320 15SM FEW035 FEW090 FEW250 07/M02 A2972 RMK CU1AC1CI1 CU TR CI TR SLP086

CYQF;2015-04-23 17:00;CYQF 231700Z 26005KT 210V300 15SM SCT048 SCT090 SCT250 08/M05 A2970 RMK CU3AC1CI1 AC TR SLP081 DENSITY ALT 3100FT

CYQF;2015-04-23 17:44;CYQF 231744Z 29006KT 160V310 15SM BKN048TCU BKN250 09/M06 A2969 WS RWY29 RMK TCU5CI2 WS RWY 29 SLP077 DENSITY ALT 3200FT

CYQF;2015-04-23 18:00;CYQF 231800Z 24006KT 110V250 15SM BKN060TCU BKN250 09/M06 A2969 RMK TCU5CI1 CI TR SLP076 DENSITY ALT 3200FT

CYQF;2015-04-23 19:00;CYQF 231900Z 32007G16KT 280V360 15SM BKN069 BKN250 10/M07 A2966 RMK CU5CI1 SLP067 DENSITY ALT 3400FT

CYQF;2015-04-23 20:00;CYQF 232000Z 30011KT 190V350 15SM SCT075 BKN250 11/M08 A2965 RMK CU4CI1 SLP062 DENSITY ALT 3500FT

CYQF;2015-04-23 21:00;CYQF 232100Z 00000KT 15SM SCT080 BKN250 11/M08 A2964 RMK CU4CI2 SLP061 DENSITY ALT 3500FT

CYQF;2015-04-23 22:00;CYQF 232200Z 02005KT 15SM SCT080 BKN250 12/M08 A2963 RMK CU4CI2 SLP058 DENSITY ALT 3600FT

CYQF;2015-04-23 23:00;CYQF 232300Z VRB02KT 15SM SCT080 BKN250 13/M09 A2962 RMK CU3CI2 SLP054 DENSITY ALT 3700FT

CYQF;2015-04-24 00:00;CYQF 240000Z 03009KT 15SM FEW086 SCT100 BKN140 13/M09 A2960 RMK CU2AC2AC2 SLP053 DENSITY ALT 3700FT

CYQF;2015-04-24 01:00;CYQF 240100Z 06007KT 15SM SCT085 BKN150 BKN220 12/M09 A2961 RMK CU4AC2CI1 VIRGA SLP054 DENSITY ALT 3600FT

CYQF;2015-04-24 02:00;CYQF 240200Z 05013KT 15SM SCT075 BKN150 BKN220 10/M04 A2962 RMK CU3AC2CI1 VIRGA SLP054 DENSITY ALT 3400FT

CYQF;2015-04-24 03:00;CYQF 240300Z 04014G22KT 15SM SCT070 BKN220 08/M02 A2963 RMK AC3CI3 SLP059 DENSITY ALT 3100FT

CYQF;2015-04-24 04:00;CYQF 240400Z 04013G18KT 15SM SCT160 06/M02 A2964 RMK AC3 SLP060

CYQF;2015-04-24 05:00;CYQF 240500Z 03010KT 15SM FEW160 04/M02 A2964 RMK AC2 SLP061

CYQF;2015-04-24 06:00;CYQF 240600Z 04009KT 15SM FEW090 03/M02 A2965 RMK AC2 SLP063

CYQF;2015-04-24 07:00;CYQF 240700Z 04009KT 15SM SKC 01/M02 A2966 RMK SLP067

CYQF;2015-04-24 08:00;CYQF 240800Z 32005KT 15SM BKN080 01/M01 A2967 RMK AC6 SLP070

CYQF;2015-04-24 09:00;CYQF 240900Z 32006KT 15SM FEW090 00/M02 A2966 RMK AC2 SLP071

CYQF;2015-04-24 10:00;CYQF 241000Z 33005KT 15SM SKC M00/M02 A2966 RMK SLP069

CYQF;2015-04-24 11:00;CYQF 241100Z 35005KT 15SM FEW076 BKN100 M00/M02 A2966 RMK AC2AC3 SLP068

CYQF;2015-04-24 12:00;CYQF 241200Z 34006KT 15SM BKN075 00/M01 A2967 RMK AC7 SLP070

CYQF;2015-04-24 13:00;CYQF 241300Z 36007KT 15SM FEW030 BKN070 OVC100 01/M00 A2966 RMK SF2AC3AC3 SLP069

CYQF;2015-04-24 13:19;CYQF 241319Z 36006KT 8SM SCT005 BKN070 OVC100 01/M00 A2966 RMK SF3AC3AC2 BR SLP067

CYQF;2015-04-24 14:00;CYQF 241400Z 02011KT 3SM BR OVC005 01/M00 A2966 RMK ST8 SLP070

CYQF;2015-04-24 15:00;CYQF 241500Z 36009KT 8SM BKN008 OVC100 02/00 A2967 RMK SC7AC1 CIG RAG SLP073

CYQF;2015-04-24 16:00;CYQF 241600Z 02009KT 8SM OVC010 03/00 A2967 RMK SC8 CIG RAG SLP076

CYQF;2015-04-24 17:00;CYQF 241700Z 04009KT 10SM OVC013 04/00 A2968 RMK SC8 CIG RAG SLP080

CYQF;2015-04-24 18:00;CYQF 241800Z 03009KT 12SM OVC010 03/M00 A2968 RMK SC8 SLP083

CYQF;2015-04-24 18:44;CYQF 241844Z 03008KT 12SM OVC009 03/00 A2968 RMK SC8 CIG RAG SLP083

CYQF;2015-04-24 19:00;CYQF 241900Z 03005KT 12SM OVC010 03/01 A2967 RMK SC8 CIG RAG SLP082

CYQF;2015-04-24 20:00;CYQF 242000Z 03010KT 15SM OVC015 05/01 A2966 RMK SC8 CIG RAG SLP076

CYQF;2015-04-24 21:00;CYQF 242100Z 03010KT 15SM BKN024 OVC080 06/00 A2966 RMK SC7AC1 CIG RAG SLP074

CYQF;2015-04-24 22:00;CYQF 242200Z 04012G19KT 15SM BKN034 OVC080 08/00 A2965 RMK SC7AC1 CU EMBDD SLP068 DENSITY ALT 3200FT

CYQF;2015-04-24 23:00;CYQF 242300Z 04010KT 15SM BKN037 09/00 A2965 RMK SC7 CU EMBDD SLP067 DENSITY ALT 3200FT

CYQF;2015-04-25 00:00;CYQF 250000Z 07013KT 15SM OVC038 08/01 A2965 RMK SC8 SLP068 DENSITY ALT 3100FT

CYQF;2015-04-25 01:00;CYQF 250100Z 06015KT 15SM OVC045 07/01 A2966 RMK SC8 SLP073 DENSITY ALT 3000FT

CYQF;2015-04-25 02:00;CYQF 250200Z 06019G26KT 12SM VCSH BKN020 OVC045 05/01 A2968 RMK SC6SC2 SLP083

CYQF;2015-04-25 03:00;CYQF 250300Z 06017KT 10SM VCSH OVC015 04/00 A2971 RMK SC8 SLP092

CYQF;2015-04-25 03:34;CYQF 250334Z 05003KT 040V120 3SM -RA BR OVC015 03/00 A2975 RMK SC8 PRESRR SLP106

CYQF;2015-04-25 03:41;CYQF 250341Z VRB03KT 2SM RA BR OVC010 02/00 A2976 RMK SC8 PRESRR SLP109

CYQF;2015-04-25 04:00;CYQF 250400Z 34007KT 290V350 1 1/2SM -SN BR OVC006 01/M00 A2976 RMK SC8 SLP114

CYQF;2015-04-25 04:05;CYQF 250405Z 36007KT 2SM -SN BR SCT006 OVC012 01/M00 A2976 RMK ST4SC4 SLP113

CYQF;2015-04-25 04:29;CYQF 250429Z 34007KT 1 1/2SM -SN BR BKN006 OVC012 00/M00 A2977 RMK ST6SC2 SLP116

CYQF;2015-04-25 05:00;CYQF 250500Z 02010KT 1SM -SN BR BKN006 OVC013 00/M00 A2978 RMK ST6SC2 /S01/ SLP118

CYQF;2015-04-25 06:00;CYQF 250600Z 06022G27KT 2SM -SN BKN006 OVC020 00/M00 A2974 RMK ST7SC1 /S05/ PRESFR SLP106

CYQF;2015-04-25 06:14;CYQF 250614Z 05023G28KT 10SM -SN FEW002 OVC050 00/M00 A2973 RMK ST2SC6 SLP102

CYQF;2015-04-25 06:29;CYQF 250629Z 05021G26KT 10SM -SN BKN003 OVC055 00/M00 A2973 RMK ST6SC2 SLP101

CYQF;2015-04-25 07:00;CYQF 250700Z 03011G20KT 12SM -SN BKN005 OVC060 00/00 A2975 RMK ST6SC2 PRESRR SLP107

CYQF;2015-04-25 08:00;CYQF 250800Z 26006KT 12SM -SN OVC008 01/M00 A2978 RMK ST8 SLP117

CYQF;2015-04-25 08:23;CYQF 250823Z 25005KT 15SM OVC009 01/M00 A2978 RMK ST8 SLP118

CYQF;2015-04-25 09:00;CYQF 250900Z 33007KT 15SM OVC005 00/M00 A2979 RMK ST8 SLP120

CYQF;2015-04-25 09:27;CYQF 250927Z 34007KT 10SM OVC003 00/M00 A2980 RMK ST8 SLP122

CYQF;2015-04-25 10:00;CYQF 251000Z 34006KT 10SM OVC003 00/M00 A2981 RMK ST8 SLP123

CYQF;2015-04-25 11:00;CYQF 251100Z 36007KT 10SM OVC005 M00/M01 A2981 RMK ST8 SLP125

CYQF;2015-04-25 12:00;CYQF 251200Z 36004KT 8SM OVC008 M00/M01 A2983 RMK ST8 SLP132

CYQF;2015-04-25 13:00;CYQF 251300Z 01009KT 12SM BKN008 OVC014 M00/M01 A2985 RMK ST6SC2 CIG RAG SLP138

CYQF;2015-04-25 13:30;CYQF 251330Z 01008KT 15SM OVC006 M01/M01 A2986 RMK ST8 CIG RAG SLP142

CYQF;2015-04-25 14:00;CYQF 251400Z 01008KT 15SM BKN006 OVC012 M01/M02 A2986 RMK ST7SC1 CIG RAG SLP144

CYQF;2015-04-25 14:37;CYQF 251437Z 01009KT 15SM BKN008 OVC021 M01/M02 A2986 RMK ST7SC1 CIG RAG SLP147

CYQF;2015-04-25 15:00;CYQF 251500Z 01010KT 8SM -SN OVC009 M01/M02 A2987 RMK ST8 CIG RAG SLP152

CYQF;2015-04-25 16:00;CYQF 251600Z 01008KT 2SM -SN BKN007 OVC015 M01/M02 A2989 RMK ST6SC2 CIG RAG VIS S 6 SLP161

CYQF;2015-04-25 16:26;CYQF 251626Z 35009KT 5SM -SN BKN007 OVC020 M01/M02 A2989 RMK ST6SC2 CIG RAG SLP163

CYQF;2015-04-25 17:00;CYQF 251700Z 01011KT 6SM -SN SCT008 OVC013 M01/M03 A2990 RMK SF3SC5 CIG RAG SLP167

CYQF;2015-04-25 18:00;CYQF 251800Z 01012KT 15SM -SN SCT008 OVC013 M01/M03 A2992 RMK SF3SC5 CIG RAG SLP172

CYQF;2015-04-25 19:00;CYQF 251900Z 02010KT 10SM -SN FEW008 OVC016 M01/M03 A2994 RMK SF2SC6 CIG RAG SLP179

CYQF;2015-04-25 20:00;CYQF 252000Z 02011KT 12SM -SN OVC014 M01/M03 A2995 RMK SC8 CIG RAG SLP184

CYQF;2015-04-25 20:29;CYQF 252029Z 01012KT 12SM BKN014 OVC070 M01/M03 A2996 RMK SC6AC2 CIG RAG SLP187

CYQF;2015-04-25 21:00;CYQF 252100Z 02012KT 12SM BKN015 OVC070 M00/M03 A2996 RMK SC7AC1 CIG RAG SLP187

CYQF;2015-04-25 22:00;CYQF 252200Z 04013KT 12SM OVC018 M00/M03 A2998 RMK SC8 CIG RAG SLP194

CYQF;2015-04-25 23:00;CYQF 252300Z 04012G17KT 12SM BKN017 M00/M03 A2999 RMK SC7 CIG RAG SLP198

CYQF;2015-04-26 00:00;CYQF 260000Z CCA 06012KT 12SM OVC017 M01/M04 A3001 RMK SC8 CIG RAG SLP205

CYQF;2015-04-26 01:00;CYQF 260100Z 06008KT 15SM OVC017 M01/M04 A3003 RMK SC8 SLP210

CYQF;2015-04-26 02:00;CYQF 260200Z 06005KT 15SM OVC018 M01/M03 A3004 RMK SC8 SLP216

CYQF;2015-04-26 03:00;CYQF 260300Z 03003KT 15SM FEW020 BKN025 M01/M04 A3006 RMK SC2SC5 SLP223

CYQF;2015-04-26 04:00;CYQF 260400Z 00000KT 15SM BKN027 M01/M04 A3007 RMK SC6 SLP227

CYQF;2015-04-26 05:00;CYQF 260500Z 03003KT 290V040 15SM OVC033 M02/M04 A3007 RMK SC8 SLP227

CYQF;2015-04-26 06:00;CYQF 260600Z 02002KT 15SM FEW030 M02/M04 A3007 RMK SC1 SLP227

CYQF;2015-04-26 07:00;CYQF 260700Z 33003KT 15SM SKC M03/M05 A3007 RMK FROIN SLP229

CYQF;2015-04-26 08:00;CYQF 260800Z CCA 00000KT 15SM SKC M04/M05 A3008 RMK FROIN SLP232

CYQF;2015-04-26 09:00;CYQF 260900Z 20002KT 15SM SKC M04/M04 A3008 RMK FROIN SLP233

CYQF;2015-04-26 10:00;CYQF 261000Z 19003KT 8SM SKC M06/M06 A3008 RMK FROIN SLP234

CYQF;2015-04-26 11:00;CYQF 261100Z 00000KT 10SM FEW150 M05/M05 A3008 RMK AC1 AC TR FROIN SLP233

CYQF;2015-04-26 12:00;CYQF 261200Z 24002KT 8SM FEW250 M07/M07 A3009 RMK CI2 VIS S 3 FROIN SLP239

CYQF;2015-04-26 13:00;CYQF 261300Z 18003KT 6SM BR FEW250 M06/M07 A3011 RMK CI2 VIS S 3 FROIN SLP246

CYQF;2015-04-26 14:00;CYQF 261400Z 18003KT 8SM BR FEW250 M04/M04 A3013 RMK CI2 SLP248

CYQF;2015-04-26 15:00;CYQF 261500Z 17002KT 8SM FEW010 FEW250 M02/M03 A3014 RMK SF1CI1 SF TR CI TR SLP252

CYQF;2015-04-26 16:00;CYQF 261600Z 16003KT 150V220 10SM FEW010 FEW250 00/M03 A3015 RMK CF1CI1 CF TR SLP252

CYQF;2015-04-26 17:00;CYQF 261700Z 13007KT 100V170 12SM FEW012 FEW250 01/M03 A3014 RMK CF1CI1 CF TR SLP250

CYQF;2015-04-26 18:00;CYQF 261800Z 12006KT 060V150 15SM FEW020 FEW250 03/M02 A3013 RMK CF1CI1 CF TR SLP244

CYQF;2015-04-26 19:00;CYQF 261900Z 16010G17KT 100V210 15SM FEW025 05/M01 A3013 RMK CF1 CF TR SLP242

CYQF;2015-04-26 20:00;CYQF 262000Z 16008G20KT 110V190 15SM FEW025 FEW250 06/M00 A3012 RMK CF1CI1 CF TR CI TR SLP237

CYQF;2015-04-26 21:00;CYQF 262100Z 17011KT 130V220 15SM FEW025 FEW250 09/M01 A3011 RMK CU1CI1 CU TR CI TR SLP231

CYQF;2015-04-26 22:00;CYQF 262200Z 18010KT 15SM FEW025 FEW250 10/M02 A3009 RMK CU1CI1 CU TR SLP227

CYQF;2015-04-26 23:00;CYQF 262300Z 15011G17KT 15SM FEW050 FEW250 10/M03 A3008 RMK CU1CI1 CU TR SLP221

CYQF;2015-04-27 00:00;CYQF 270000Z 14010G15KT 15SM FEW050 FEW250 11/M03 A3008 RMK CU1CI1 CU TR SLP223

CYQF;2015-04-27 01:00;CYQF 270100Z 15011KT 15SM FEW055 FEW120 FEW250 10/M04 A3008 RMK CU1AC1CI1 VIRGA CI TR SLP222

CYQF;2015-04-27 02:00;CYQF 270200Z 15012KT 15SM SCT110 BKN250 09/M02 A3006 RMK AC4CI2 PRESFR SLP216

CYQF;2015-04-27 03:00;CYQF 270300Z 14009KT 15SM FEW140 FEW250 07/M03 A3006 RMK AC1CI1 SLP216

CYQF;2015-04-27 04:00;CYQF 270400Z 15012KT 15SM FEW140 FEW250 06/M04 A3007 RMK AC1CI1 SLP216

CYQF;2015-04-27 05:00;CYQF 270500Z 16012KT 15SM SKC 06/M03 A3007 RMK SLP216

CYQF;2015-04-27 06:00;CYQF 270600Z 17009KT 15SM SKC 03/M03 A3007 RMK SLP216

CYQF;2015-04-27 07:00;CYQF 270700Z 18011KT 15SM SKC 03/M03 A3006 RMK SLP212

CYQF;2015-04-27 08:00;CYQF 270800Z 17010KT 15SM SKC 01/M03 A3007 RMK SLP214

CYQF;2015-04-27 09:00;CYQF 270900Z 19005KT 15SM FEW220 M01/M04 A3007 RMK CI1 SLP215

CYQF;2015-04-27 10:00;CYQF 271000Z 19004KT 15SM FEW220 M02/M04 A3007 RMK CI1 SLP215

CYQF;2015-04-27 11:00;CYQF 271100Z 20004KT 15SM SCT200 M02/M04 A3008 RMK CI4 SLP217

CYQF;2015-04-27 12:00;CYQF 271200Z 19005KT 15SM BKN220 M04/M05 A3009 RMK CI6 SLP223

CYQF;2015-04-27 13:00;CYQF 271300Z 20005KT 15SM FEW120 BKN220 M01/M03 A3011 RMK AC2CI5 SLP226

CYQF;2015-04-27 14:00;CYQF 271400Z 21005KT 15SM FEW120 BKN250 02/M02 A3012 RMK AC2CI4 SLP228

CYQF;2015-04-27 15:00;CYQF 271500Z 21004KT 15SM FEW120 SCT250 05/M03 A3013 RMK AC1CI3 SLP230

CYQF;2015-04-27 16:00;CYQF 271600Z 20003KT 180V250 15SM SCT250 09/M02 A3013 RMK CI3 SLP228

CYQF;2015-04-27 17:00;CYQF 271700Z VRB02KT 15SM BKN250 13/M05 A3013 RMK CI7 SLP225 DENSITY ALT 3100FT

CYQF;2015-04-27 18:00;CYQF 271800Z 22006KT 190V300 15SM BKN250 15/M06 A3013 RMK CI7 SLP223 DENSITY ALT 3300FT

CYQF;2015-04-27 19:00;CYQF 271900Z 22004KT 180V320 15SM BKN250 15/M05 A3013 RMK CI7 SLP223 DENSITY ALT 3300FT

CYQF;2015-04-27 20:00;CYQF 272000Z VRB02KT 15SM BKN250 16/M05 A3011 RMK CI6 SLP219 DENSITY ALT 3500FT

CYQF;2015-04-27 21:00;CYQF 272100Z 00000KT 15SM SCT250 17/M03 A3009 RMK CI4 SLP213 DENSITY ALT 3700FT

CYQF;2015-04-27 22:00;CYQF 272200Z 17003KT 140V240 15SM FEW250 19/M04 A3008 RMK CI2 SLP208 DENSITY ALT 3800FT

CYQF;2015-04-27 23:00;CYQF 272300Z 22006KT 170V230 15SM FEW100 BKN250 19/M04 A3006 RMK AC1CI4 ACSL ASOCTD SLP200 DENSITY ALT 3900FT

CYQF;2015-04-28 00:00;CYQF 280000Z 19005KT 15SM FEW120 BKN250 19/M03 A3005 RMK AC1CI6 ACSL ASOCTD SLP199 DENSITY ALT 3900FT

CYQF;2015-04-28 01:00;CYQF 280100Z 15007KT 15SM FEW120 BKN250 20/M03 A3005 RMK AC1CI6 ACSL ASOCTD SLP196 DENSITY ALT 4000FT

CYQF;2015-04-28 02:00;CYQF 280200Z 18004KT 15SM FEW100 BKN250 18/M03 A3005 RMK AC1CI5 SLP193 DENSITY ALT 3800FT

CYQF;2015-04-28 03:00;CYQF 280300Z 00000KT 15SM SCT250 16/M03 A3006 RMK CI4 SLP195 DENSITY ALT 3600FT

CYQF;2015-04-28 04:00;CYQF 280400Z 31003KT 15SM FEW250 14/M03 A3006 RMK CI2 SLP192 DENSITY ALT 3400FT

CYQF;2015-04-28 05:00;CYQF 280500Z 20006KT 15SM FEW250 07/M01 A3006 RMK CI2 SLP198

CYQF;2015-04-28 06:00;CYQF 280600Z 20006KT 170V240 15SM SKC 05/M01 A3007 RMK SLP201

CYQF;2015-04-28 07:00;CYQF 280700Z 16003KT 150V210 15SM FEW250 03/M01 A3007 RMK CI2 SLP206

CYQF;2015-04-28 08:00;CYQF 280800Z 22004KT 15SM FEW250 04/M02 A3007 RMK CI1 SLP203

CYQF;2015-04-28 09:00;CYQF 280900Z 21007KT 15SM FEW250 05/M01 A3006 RMK CI2 SLP197

CYQF;2015-04-28 10:00;CYQF 281000Z 21004KT 15SM SCT220 04/M01 A3005 RMK CI4 SLP191

CYQF;2015-04-28 11:00;CYQF 281100Z 18005KT 15SM BKN230 03/M01 A3003 RMK CI6 SLP186

CYQF;2015-04-28 12:00;CYQF 281200Z 20005KT 15SM FEW150 BKN230 05/M01 A3003 RMK AC2CI5 SLP183

CYQF;2015-04-28 13:00;CYQF 281300Z 17004KT 15SM BKN250 02/M01 A3001 RMK CI7 SLP178

CYQF;2015-04-28 14:00;CYQF 281400Z 18005KT 15SM OVC250 08/02 A3000 RMK CI8 SLP172

CYQF;2015-04-28 15:00;CYQF 281500Z 18008KT 15SM SCT140 BKN250 11/02 A2998 RMK AC3CI4 SLP162 DENSITY ALT 3100FT

CYQF;2015-04-28 16:00;CYQF 281600Z 15011KT 15SM BKN120 BKN250 15/01 A2995 RMK AC5CI2 SLP151 DENSITY ALT 3500FT

CYQF;2015-04-28 17:00;CYQF 281700Z 17021G28KT 15SM BKN250 19/M00 A2992 RMK CI7 SLP141 DENSITY ALT 4100FT

CYQF;2015-04-28 18:00;CYQF 281800Z CCA 17022KT 15SM OVC250 21/M01 A2989 RMK CI8 SLP132 DENSITY ALT 4300FT

CYQF;2015-04-28 19:00;CYQF 281900Z 18019G26KT 15SM FEW120 BKN200 22/M01 A2986 RMK AC2CI5 SLP125 DENSITY ALT 4500FT

CYQF;2015-04-28 20:00;CYQF 282000Z 16017KT 15SM FEW120 BKN200 24/M02 A2984 RMK AC2CI5 SLP112 DENSITY ALT 4700FT

CYQF;2015-04-28 21:00;CYQF 282100Z 17011G23KT 15SM BKN200 25/M02 A2982 RMK CI7 SLP103 DENSITY ALT 4800FT

CYQF;2015-04-28 22:00;CYQF 282200Z 19013G19KT 15SM FEW050 BKN220 26/M04 A2979 RMK CU1CI6 SLP095 DENSITY ALT 5000FT

CYQF;2015-04-28 23:00;CYQF 282300Z 23014KT 15SM FEW050 BKN220 25/M05 A2977 RMK CU1CI5 SLP088 DENSITY ALT 5000FT

CYQF;2015-04-29 00:00;CYQF 290000Z 23007KT 15SM FEW050 BKN220 24/M03 A2976 RMK CU1CI5 SLP084 DENSITY ALT 4800FT

CYQF;2015-04-29 01:00;CYQF 290100Z 22006KT 15SM FEW060 BKN240 25/M04 A2974 RMK CU1CI6 SLP079 DENSITY ALT 4900FT

CYQF;2015-04-29 02:00;CYQF 290200Z 25005KT 15SM FEW060 BKN240 23/M03 A2973 RMK CU1CI6 SLP072 DENSITY ALT 4700FT

CYQF;2015-04-29 03:00;CYQF 290300Z 28005KT 15SM FEW070 BKN240 22/M04 A2973 RMK AC1CI6 SLP069 DENSITY ALT 4600FT

CYQF;2015-04-29 04:00;CYQF 290400Z 25004KT 15SM FEW070 BKN240 18/M02 A2974 RMK AC1CI6 SLP073 DENSITY ALT 4100FT

CYQF;2015-04-29 05:00;CYQF 290500Z 25004KT 220V280 15SM BKN250 18/M02 A2974 RMK CI6 SLP069 DENSITY ALT 4200FT

CYQF;2015-04-29 06:00;CYQF 290600Z VRB02KT 15SM BKN250 11/M00 A2974 RMK CI7 SLP072 DENSITY ALT 3400FT

CYQF;2015-04-29 07:00;CYQF 290700Z VRB02KT 15SM OVC250 10/00 A2974 RMK CI8 SLP074 DENSITY ALT 3200FT

CYQF;2015-04-29 08:00;CYQF 290800Z 01013G18KT 15SM OVC240 11/02 A2978 RMK CI8 SLP084 DENSITY ALT 3300FT

CYQF;2015-04-29 09:00;CYQF 290900Z 36010G16KT 15SM OVC240 10/M01 A2980 RMK CI8 SLP091 DENSITY ALT 3100FT

CYQF;2015-04-29 10:00;CYQF 291000Z 31008KT 15SM BKN240 08/M02 A2982 RMK CI7 SLP100

CYQF;2015-04-29 11:00;CYQF 291100Z 32009KT 15SM BKN250 07/M02 A2982 RMK CI7 SLP101

CYQF;2015-04-29 12:00;CYQF 291200Z 30011KT 15SM SCT120 BKN220 06/M03 A2985 RMK AC3CI4 SLP112

CYQF;2015-04-29 13:00;CYQF 291300Z 33009G15KT 15SM FEW040 BKN110 OVC220 08/M02 A2986 RMK CU1AC5CI2 VIRGA SLP114

CYQF;2015-04-29 13:26;CYQF 291326Z 28011KT 260V020 15SM BKN080 OVC220 08/M02 A2990 RMK AC7CI1 WSHFT 1320 PRESRR SLP127

CYQF;2015-04-29 13:44;CYQF 291344Z 02012KT 290V030 15SM BKN082 OVC220 08/M02 A2985 RMK AC7CI1 WSHFT 1337 VCSH PRESFR SLP111

CYQF;2015-04-29 14:00;CYQF 291400Z VRB05KT 15SM VCSH BKN075 BKN220 08/M01 A2985 RMK AC6CI1 SLP113

CYQF;2015-04-29 15:00;CYQF 291500Z 35013G21KT 15SM SCT075 BKN120 BKN220 08/00 A2986 RMK AC3AC3CI1 SLP120

CYQF;2015-04-29 16:00;CYQF 291600Z 34012G20KT 15SM FEW070 FEW140 BKN220 09/01 A2986 RMK AC1AC2CI4 AC TR SLP122

CYQF;2015-04-29 17:00;CYQF 291700Z 01011G18KT 15SM SCT032 SCT130 BKN220 09/01 A2986 RMK CU3AC1CI2 SLP119 DENSITY ALT 3000FT

CYQF;2015-04-29 18:00;CYQF 291800Z 35013KT 15SM BKN036 BKN220 11/01 A2985 RMK CU5CI1 SLP122 DENSITY ALT 3200FT

CYQF;2015-04-29 19:00;CYQF 291900Z 34011G19KT 15SM BKN035 11/01 A2986 RMK CU7 SLP126 DENSITY ALT 3200FT

CYQF;2015-04-29 20:00;CYQF 292000Z 33014KT 15SM BKN035 OVC100 09/00 A2986 RMK SC6AC2 SLP127 DENSITY ALT 3000FT

CYQF;2015-04-29 20:46;CYQF 292046Z 35011KT 12SM -SHRA OVC040 09/01 A2987 RMK SC8 CU EMBD SLP133

CYQF;2015-04-29 21:00;CYQF 292100Z 33015G21KT 12SM -SHRA OVC040 07/02 A2988 RMK SC8 CU EMBD SLP140

CYQF;2015-04-29 22:00;CYQF 292200Z 33013KT 12SM -SHRA BKN025 OVC040 06/03 A2990 RMK SC5SC3 CU EMBD SLP150

CYQF;2015-04-29 23:00;CYQF 292300Z 32012G20KT 12SM -SHRA SCT020 OVC050 05/03 A2993 RMK SC4SC4 SLP160

CYQF;2015-04-29 23:43;CYQF 292343Z 31008KT 15SM FEW012 SCT020 BKN050 BKN100 06/03 A2992 RMK CF1SC3SC2AC1 SLP158

CYQF;2015-04-30 00:00;CYQF 300000Z 32007KT 15SM FEW012 FEW030 SCT060 BKN100 07/03 A2991 RMK CF1SC2SC2AC2 CF TR SLP155

CYQF;2015-04-30 01:00;CYQF 300100Z 32009KT 15SM FEW040TCU SCT160 BKN250 10/01 A2989 RMK TCU1AC4CI2 TCU TR SLP142 DENSITY ALT 3000FT

CYQF;2015-04-30 02:00;CYQF 300200Z 29007KT 15SM FEW040TCU FEW180 SCT250 09/M01 A2987 RMK TCU1AC2CI2 TCU TR SLP137 DENSITY ALT 3000FT

CYQF;2015-04-30 03:00;CYQF 300300Z 23009KT 15SM FEW160 SCT250 06/M01 A2989 RMK AC2CI2 WND ESTD SLP146

CYQF;2015-04-30 04:00;CYQF 300400Z 22008KT 15SM FEW250 03/M00 A2991 RMK CI1 SLP155

CYQF;2015-04-30 05:00;CYQF 300500Z 24006KT 15SM FEW160 04/M00 A2991 RMK AC1 AC TR SLP154

CYQF;2015-04-30 06:00;CYQF 300600Z 23008KT 15SM FEW160 02/M00 A2991 RMK AC1 AC TR SLP153

CYQF;2015-04-30 07:00;CYQF 300700Z 24009KT 15SM SKC 03/M00 A2991 RMK SLP152

CYQF;2015-04-30 08:00;CYQF 300800Z 21006KT 15SM SKC 01/M01 A2990 RMK SLP153

CYQF;2015-04-30 09:00;CYQF 300900Z 20006KT 15SM SKC M01/M03 A2989 RMK SLP155

CYQF;2015-04-30 10:00;CYQF 301000Z 20005KT 15SM SKC M02/M03 A2989 RMK SLP157

CYQF;2015-04-30 11:00;CYQF 301100Z 15003KT 15SM FEW240 M01/M02 A2989 RMK CI1 FROIN SLP159

CYQF;2015-04-30 12:00;CYQF 301200Z 21006KT 15SM FEW240 M03/M04 A2990 RMK CI1 FROIN SLP159

CYQF;2015-04-30 13:00;CYQF 301300Z 19006KT 15SM FEW100 M01/M02 A2989 RMK AC1 SLP153

CYQF;2015-04-30 14:00;CYQF 301400Z 18005KT 15SM FEW100 FEW250 02/M01 A2990 RMK AC1CI2 AC TR SLP152

CYQF;2015-04-30 15:00;CYQF 301500Z 23008KT 15SM FEW100 SCT250 05/M01 A2990 RMK AC1CI2 AC TR SLP152

CYQF;2015-04-30 16:00;CYQF 301600Z 24008KT 15SM FEW250 10/M01 A2989 RMK CI1 SLP147 DENSITY ALT 3000FT

CYQF;2015-04-30 17:00;CYQF 301700Z 27009G18KT 230V300 15SM FEW064 FEW250 12/M04 A2987 RMK CU1CI1 SLP138 DENSITY ALT 3300FT

CYQF;2015-04-30 18:00;CYQF 301800Z 25013G19KT 230V300 15SM FEW065 FEW250 13/M09 A2987 RMK CU1CI1 CU TR SLP137 DENSITY ALT 3500FT

CYQF;2015-04-30 19:00;CYQF 301900Z 26011G16KT 160V270 15SM SCT080 BKN250 14/M08 A2985 RMK CU4CI1 SLP128 DENSITY ALT 3600FT

CYQF;2015-04-30 20:00;CYQF 302000Z 25011G19KT 15SM BKN100 BKN250 14/M10 A2983 RMK CU5CI2 VIRGA SLP122 DENSITY ALT 3600FT

CYQF;2015-04-30 21:00;CYQF 302100Z 26019KT 15SM SCT100 BKN200 15/M09 A2982 RMK CU3CI4 VIRGA SLP120 DENSITY ALT 3700FT

CYQF;2015-04-30 22:00;CYQF 302200Z 28013G26KT 15SM SCT100 BKN200 15/M10 A2981 RMK CU3CI4 VIRGA SLP120 DENSITY ALT 3700FT

CYQF;2015-04-30 23:00;CYQF 302300Z 26014G20KT 15SM SCT096 BKN230 15/M09 A2981 RMK CU3CI4 VIRGA SLP117 DENSITY ALT 3800FT

CYQF;2015-05-01 00:00;CYQF 010000Z 26012G22KT 240V300 15SM BKN100 16/M09 A2980 RMK CU5 VIRGA SLP116 DENSITY ALT 3800FT

CYQF;2015-05-01 01:00;CYQF 010100Z 27013KT 15SM SCT090 BKN230 15/M09 A2980 RMK CU3CI3 SLP117 DENSITY ALT 3700FT

CYQF;2015-05-01 02:00;CYQF 010200Z 29015G21KT 15SM FEW090 BKN230 13/M09 A2981 RMK AC2CI3 SLP116 DENSITY ALT 3600FT

CYQF;2015-05-01 03:00;CYQF 010300Z 30009KT 15SM FEW090 BKN230 11/M08 A2983 RMK AC2CI3 SLP121 DENSITY ALT 3200FT

CYQF;2015-05-01 04:00;CYQF 010400Z 27004KT 15SM FEW090 BKN230 09/M07 A2985 RMK AC1CI4 SLP125 DENSITY ALT 3000FT

CYQF;2015-05-01 05:00;CYQF 010500Z 09004KT 060V190 15SM BKN230 05/M05 A2986 RMK CI6 SLP132

CYQF;2015-05-01 06:00;CYQF 010600Z 16005KT 110V180 15SM BKN220 05/M05 A2985 RMK CI7 SLP128

CYQF;2015-05-01 07:00;CYQF 010700Z 20003KT 15SM BKN150 05/M04 A2985 RMK AC7 SLP126

CYQF;2015-05-01 08:00;CYQF 010800Z 00000KT 15SM OVC160 04/M03 A2985 RMK AC8 SLP126

CYQF;2015-05-01 09:00;CYQF 010900Z 16008KT 15SM OVC170 05/M02 A2983 RMK AC8 SLP119

CYQF;2015-05-01 10:00;CYQF 011000Z 17008KT 15SM OVC150 04/M02 A2982 RMK AC8 SLP117

CYQF;2015-05-01 11:00;CYQF 011100Z 16006KT 15SM BKN120 05/M02 A2981 RMK AC7 SLP111

CYQF;2015-05-01 12:00;CYQF 011200Z 18006KT 15SM BKN110 04/M02 A2981 RMK AC7 SLP110

CYQF;2015-05-01 13:00;CYQF 011300Z 17004KT 15SM BKN078 04/M02 A2980 RMK AC7 VIRGA SLP109

CYQF;2015-05-01 14:00;CYQF 011400Z 18005KT 15SM FEW078 BKN140 BKN250 06/M02 A2978 RMK AC1AC5CI1 SLP103

CYQF;2015-05-01 15:00;CYQF 011500Z 19010KT 15SM FEW050 FEW250 10/M03 A2976 RMK CU1CI1 SLP095 DENSITY ALT 3200FT

CYQF;2015-05-01 16:00;CYQF 011600Z 25006KT 200V270 15SM FEW060 FEW250 12/M02 A2974 RMK CU1CI1 SLP086 DENSITY ALT 3500FT

CYQF;2015-05-01 17:00;CYQF 011700Z 24010KT 200V260 15SM FEW070 FEW250 14/M03 A2972 RMK CU1CI1 SLP081 DENSITY ALT 3800FT

CYQF;2015-05-01 18:00;CYQF 011800Z 26007KT 210V340 15SM BKN080 15/M06 A2971 RMK CU6 SLP076 DENSITY ALT 3900FT

CYQF;2015-05-01 19:00;CYQF 011900Z 20005KT 170V230 15SM BKN080 15/M05 A2968 RMK CU7 VIRGA SLP067 DENSITY ALT 3900FT

CYQF;2015-05-01 20:00;CYQF 012000Z 34016G25KT 15SM BKN080TCU 15/M04 A2968 RMK TCU7 VIRGA SLP067 DENSITY ALT 3900FT

CYQF;2015-05-01 21:00;CYQF 012100Z 36015G25KT 15SM BKN080TCU BKN180 15/M02 A2966 RMK TCU5AC2 VIRGA SLP061 DENSITY ALT 3900FT

CYQF;2015-05-01 22:00;CYQF 012200Z 34011G20KT 15SM VCSH BKN060 BKN120 14/M01 A2969 RMK SC5AC2 CVCTV CLD EMBD SLP072 DENSITY ALT 3700FT

CYQF;2015-05-01 23:00;CYQF 012300Z 01017G25KT 15SM BKN060 BKN090 11/01 A2971 RMK SC5AC2 SLP081 DENSITY ALT 3400FT

CYQF;2015-05-01 23:28;CYQF 012328Z 34017G24KT 12SM -SHRA BKN050 BKN090 10/00 A2974 RMK SC5AC2 CVCTV CLD EMBD SLP093 DENSITY ALT 3200FT

CYQF;2015-05-02 00:00;CYQF 020000Z 36014G20KT 15SM -SHRA FEW020 BKN050TCU OVC100 08/02 A2975 RMK SF1TCU6AC1 SLP100 DENSITY ALT 3000FT

CYQF;2015-05-02 00:20;CYQF 020020Z 36014KT 15SM VCSH FEW020 BKN050TCU BKN120 08/02 A2975 RMK SF1TCU5AC1 SLP098 DENSITY ALT 3000FT

CYQF;2015-05-02 01:00;CYQF 020100Z 01012G17KT 15SM VCSH SCT050 BKN120 09/01 A2973 RMK SC4AC2 SLP092 DENSITY ALT 3100FT

CYQF;2015-05-02 02:00;CYQF 020200Z 34004KT 15SM SCT050 BKN140 08/01 A2972 RMK SC4AC3 SLP088 DENSITY ALT 3000FT

CYQF;2015-05-02 03:00;CYQF 020300Z 22008KT 15SM FEW035 BKN080 OVC120 08/01 A2976 RMK SC2AC4AC2 SLP095

CYQF;2015-05-02 04:00;CYQF 020400Z 25008KT 15SM FEW035 OVC070 08/01 A2979 RMK SC2AC6 PRESRR SLP104

CYQF;2015-05-02 05:00;CYQF 020500Z 23011G16KT 15SM FEW030 OVC080 06/02 A2979 RMK SC2AC6 SLP103

CYQF;2015-05-02 06:00;CYQF 020600Z 32012G18KT 15SM FEW020 BKN090 05/01 A2981 RMK SC2AC4 SLP110

CYQF;2015-05-02 07:00;CYQF 020700Z 27002KT 15SM OVC100 04/01 A2979 RMK AC8 SLP106

CYQF;2015-05-02 08:00;CYQF 020800Z 26003KT 15SM OVC160 03/01 A2979 RMK AC8 SLP106

CYQF;2015-05-02 09:00;CYQF 020900Z 30005KT 15SM SCT045 OVC160 03/01 A2980 RMK SC3AC5 SLP112

CYQF;2015-05-02 10:00;CYQF 021000Z 28005KT 15SM BKN080 02/00 A2980 RMK AC7 SLP114

CYQF;2015-05-02 11:00;CYQF 021100Z 29005KT 15SM SCT090 BKN250 02/M01 A2981 RMK AC3CI2 SLP118

CYQF;2015-05-02 12:00;CYQF 021200Z 27006KT 15SM FEW090 FEW250 00/M02 A2982 RMK ACC1CI1 SLP127

CYQF;2015-05-02 13:00;CYQF 021300Z 30008KT 15SM FEW090 SCT120 BKN250 01/M02 A2983 RMK AC1AC2CI3 SLP129

CYQF;2015-05-02 14:00;CYQF 021400Z 30013KT 15SM SCT100 BKN250 04/M03 A2986 RMK AC3CI3 VIRGA DIST W SLP137

CYQF;2015-05-02 15:00;CYQF 021500Z 30008KT 15SM BKN080 04/M03 A2986 RMK AC7 SLP140

CYQF;2015-05-02 16:00;CYQF 021600Z 32011G20KT 15SM FEW040 BKN100 BKN250 06/M05 A2986 RMK CU1AC6CI1 CU TR SLP137

CYQF;2015-05-02 17:00;CYQF 021700Z 31017G23KT 15SM BKN045 BKN120 07/M06 A2987 RMK CU5AC2 SLP141

CYQF;2015-05-02 18:00;CYQF 021800Z 30013G21KT 15SM BKN050 BKN250 09/M06 A2987 RMK CU5CI2 SLP141

CYQF;2015-05-02 19:00;CYQF 021900Z 34018G23KT 15SM BKN060TCU BKN250 09/M08 A2986 RMK TCU6CI1 CI TR SHRA S-N SLP136 DENSITY ALT 3000FT

CYQF;2015-05-02 20:00;CYQF 022000Z 31013G20KT 270V340 15SM VCSH BKN080TCU BKN250 09/M09 A2986 RMK TCU6CI1 SHRA ALQDS SLP136 DENSITY ALT 3000FT

CYQF;2015-05-02 21:00;CYQF 022100Z 30011G22KT 15SM VCSH BKN072TCU 10/M09 A2986 RMK TCU7 SLP137 DENSITY ALT 3100FT

CYQF;2015-05-02 22:00;CYQF 022200Z 32011G19KT 15SM VCSH BKN060TCU BKN200 08/M06 A2988 RMK TCU6CI1 SLP148

CYQF;2015-05-02 23:00;CYQF 022300Z 31014G19KT 15SM VCSH SCT060TCU BKN120 09/M06 A2989 RMK TCU4AC2 SLP150 DENSITY ALT 3000FT

CYQF;2015-05-03 00:00;CYQF 030000Z 32017KT 15SM SCT060TCU BKN100 09/M07 A2990 RMK TCU3AC3 SLP155

CYQF;2015-05-03 01:00;CYQF 030100Z 32013G18KT 15SM FEW060TCU SCT100 BKN250 09/M06 A2990 RMK TCU2AC2CI2 SLP154

CYQF;2015-05-03 02:00;CYQF 030200Z 35016G24KT 15SM FEW045 SCT100 BKN250 07/M03 A2992 RMK SC2AC2CI2 SLP161

CYQF;2015-05-03 03:00;CYQF 030300Z 34006KT 15SM FEW120 SCT250 06/M04 A2994 RMK AC2CI2 SLP166

CYQF;2015-05-03 04:00;CYQF 030400Z 33007KT 15SM FEW120 SCT250 04/M04 A2996 RMK AC2CI2 SLP176

CYQF;2015-05-03 05:00;CYQF 030500Z 21004KT 200V310 15SM FEW090 SCT250 02/M03 A3000 RMK AC2CI2 SLP189

CYQF;2015-05-03 06:00;CYQF 030600Z 19003KT 15SM SCT120 BKN260 00/M04 A3000 RMK AC3CI2 SLP190

CYQF;2015-05-03 07:00;CYQF 030700Z 21002KT 15SM SCT120 BKN260 00/M03 A3001 RMK AC4CI2 SLP191

CYQF;2015-05-03 08:00;CYQF 030800Z 28007KT 15SM SCT120 BKN260 02/M02 A3002 RMK AC3CI3 SLP194

CYQF;2015-05-03 09:00;CYQF 030900Z 25004KT 15SM SCT120 01/M02 A3002 RMK AC3 SLP194

CYQF;2015-05-03 10:00;CYQF 031000Z 24007KT 15SM SCT120 M00/M02 A3002 RMK AC3 SLP198

CYQF;2015-05-03 11:00;CYQF 031100Z 23006KT 15SM FEW120 M01/M02 A3003 RMK AC2 SLP199

CYQF;2015-05-03 12:00;CYQF 031200Z 24004KT 15SM BKN090 M03/M03 A3003 RMK AC6 SLP203

CYQF;2015-05-03 13:00;CYQF 031300Z 19002KT 15SM SCT090 BKN250 M02/M03 A3003 RMK AC3CI2 SLP203

CYQF;2015-05-03 14:00;CYQF 031400Z 25004KT 15SM FEW090 01/M01 A3005 RMK AC1 SLP207

CYQF;2015-05-03 15:00;CYQF 031500Z 29004KT 220V310 15SM FEW090 04/M01 A3005 RMK AC1 SLP206

CYQF;2015-05-03 16:00;CYQF 031600Z VRB02KT 15SM FEW020 FEW090 07/M01 A3005 RMK CU1AC1 SLP206

CYQF;2015-05-03 17:00;CYQF 031700Z 00000KT 15SM BKN047 08/M02 A3005 RMK CU6 SLP205

CYQF;2015-05-03 18:00;CYQF 031800Z 00000KT 15SM VCSH BKN050 08/M04 A3005 RMK CU7 SLP207

CYQF;2015-05-03 19:00;CYQF 031900Z 19015KT 15SM VCSH BKN050TCU 07/M03 A3006 RMK TCU7 SLP210

CYQF;2015-05-03 20:00;CYQF 032000Z VRB06KT 15SM SCT060CB 09/M05 A3004 RMK CB3 SH ALQDS SLP199

CYQF;2015-05-03 21:00;CYQF 032100Z 22010G15KT 090V260 15SM BKN064CB 12/M04 A3002 RMK CB6 SH S + NW-NE SLP193 DENSITY ALT 3100FT

CYQF;2015-05-03 22:00;CYQF 032200Z 25003KT 120V270 15SM SCT060 11/M05 A3001 RMK CU3 SLP191 DENSITY ALT 3000FT

CYQF;2015-05-03 23:00;CYQF 032300Z 06010KT 020V090 15SM FEW060 11/M04 A2999 RMK CU2 CB TOP DSNT N SLP183 DENSITY ALT 3100FT

CYQF;2015-05-04 00:00;CYQF 040000Z 06004KT 010V100 15SM FEW060 12/M05 A2998 RMK CU1 CU TR SLP182 DENSITY ALT 3100FT

CYQF;2015-05-04 01:00;CYQF 040100Z 08010KT 040V100 15SM FEW060 11/M06 A2997 RMK CU1 CU TR SLP180 DENSITY ALT 3100FT

CYQF;2015-05-04 02:00;CYQF 040200Z 12008KT 15SM FEW060 11/M05 A2997 RMK SC1 SC TR SLP176 DENSITY ALT 3100FT

CYQF;2015-05-04 03:00;CYQF 040300Z 11006KT 15SM FEW250 08/M05 A2998 RMK CI1 CI TR SLP178

CYQF;2015-05-04 04:00;CYQF 040400Z 09005KT 15SM FEW250 05/M04 A2999 RMK CI1 CI TR SLP183

CYQF;2015-05-04 05:00;CYQF 040500Z 10008KT 15SM FEW070 06/M04 A2999 RMK AC1 SLP182

CYQF;2015-05-04 06:00;CYQF 040600Z 11008KT 15SM FEW070 05/M04 A2998 RMK AC1 SLP180

CYQF;2015-05-04 07:00;CYQF 040700Z 10005KT 15SM SKC 03/M04 A2999 RMK SLP185

CYQF;2015-05-04 08:00;CYQF 040800Z 14003KT 15SM SKC 02/M04 A2999 RMK SLP183

CYQF;2015-05-04 09:00;CYQF 040900Z 11004KT 15SM SKC 01/M04 A2998 RMK SLP179

CYQF;2015-05-04 10:00;CYQF 041000Z 14004KT 15SM SKC 02/M04 A2998 RMK SLP178

CYQF;2015-05-04 11:00;CYQF 041100Z 15006KT 15SM FEW100 00/M04 A2997 RMK AC1 SLP178

CYQF;2015-05-04 12:00;CYQF 041200Z 14004KT 15SM BKN180 00/M04 A2997 RMK CI6 SLP175

CYQF;2015-05-04 13:00;CYQF 041300Z 16003KT 15SM BKN130 01/M03 A2996 RMK AC7 SLP173

CYQF;2015-05-04 14:00;CYQF 041400Z 15005KT 15SM BKN140 04/M02 A2996 RMK AC7 SLP168

CYQF;2015-05-04 15:00;CYQF 041500Z 18006KT 130V220 15SM OVC140 07/M02 A2995 RMK AC8 SLP166

CYQF;2015-05-04 16:00;CYQF 041600Z 16005KT 15SM OVC250 09/M02 A2994 RMK CI8 SLP163

CYQF;2015-05-04 17:00;CYQF 041700Z 15004KT 070V190 15SM BKN250 10/M02 A2993 RMK CI6 SLP157 DENSITY ALT 3000FT

CYQF;2015-05-04 18:00;CYQF 041800Z 08006KT 15SM BKN250 13/M02 A2991 RMK CI6 SLP148 DENSITY ALT 3400FT

CYQF;2015-05-04 19:00;CYQF 041900Z 13002KT 15SM BKN250 14/M04 A2989 RMK CI7 SLP143 DENSITY ALT 3500FT

CYQF;2015-05-04 20:00;CYQF 042000Z VRB02KT 15SM BKN250 16/M06 A2987 RMK CI7 SLP134 DENSITY ALT 3800FT

CYQF;2015-05-04 21:00;CYQF 042100Z 15003KT 090V200 15SM OVC220 17/M06 A2984 RMK CI8 SLP125 DENSITY ALT 3900FT

CYQF;2015-05-04 22:00;CYQF 042200Z 08008KT 060V150 15SM BKN220 18/M06 A2982 RMK CI7 SLP114 DENSITY ALT 4000FT

CYQF;2015-05-04 23:00;CYQF 042300Z 09010KT 15SM BKN220 18/M04 A2980 RMK CI6 SLP110 DENSITY ALT 4100FT

CYQF;2015-05-05 00:00;CYQF 050000Z 11011KT 15SM BKN250 18/M06 A2978 RMK CI6 SLP103 DENSITY ALT 4200FT

CYQF;2015-05-05 01:00;CYQF 050100Z 11010KT 15SM BKN220 18/M07 A2976 RMK CI6 SLP097 DENSITY ALT 4100FT

CYQF;2015-05-05 02:00;CYQF 050200Z 08009KT 15SM FEW100 BKN250 16/M05 A2975 RMK AC1CI7 AC TR SLP090 DENSITY ALT 3900FT

CYQF;2015-05-05 03:00;CYQF 050300Z 07008KT 15SM FEW100 BKN250 12/M05 A2974 RMK AC2CI4 SLP087 DENSITY ALT 3500FT

CYQF;2015-05-05 04:00;CYQF 050400Z 06007KT 15SM FEW120 SCT250 09/M05 A2974 RMK AC2CI2 SLP087 DENSITY ALT 3200FT

CYQF;2015-05-05 05:00;CYQF 050500Z 04008KT 15SM SCT120 10/M02 A2972 RMK AC4 SLP080 DENSITY ALT 3300FT

CYQF;2015-05-05 06:00;CYQF 050600Z 07010KT 15SM SCT120 10/M00 A2970 RMK AC4 SLP071 DENSITY ALT 3300FT

CYQF;2015-05-05 07:00;CYQF 050700Z 07007KT 15SM FEW120 BKN250 08/M00 A2970 RMK AC2CI3 SLP070 DENSITY ALT 3000FT

CYQF;2015-05-05 08:00;CYQF 050800Z 04003KT 020V110 15SM BKN250 06/M01 A2969 RMK CI5 SLP070

CYQF;2015-05-05 09:00;CYQF 050900Z 08007KT 15SM FEW250 05/M01 A2968 RMK CI2 SLP066

CYQF;2015-05-05 10:00;CYQF 051000Z 02008KT 15SM FEW250 03/M01 A2968 RMK CI2 SLP064

CYQF;2015-05-05 11:00;CYQF 051100Z 02006KT 15SM FEW250 03/M01 A2968 RMK CI2 SLP065

CYQF;2015-05-05 12:00;CYQF 051200Z 34006KT 15SM FEW250 02/M02 A2968 RMK CI2 SLP067

CYQF;2015-05-05 13:00;CYQF 051300Z 36006KT 15SM FEW250 03/M01 A2968 RMK CI2 SLP067

CYQF;2015-05-05 14:00;CYQF 051400Z 01010KT 15SM SCT250 05/M00 A2969 RMK CI4 WND ESTD SLP070

CYQF;2015-05-05 15:00;CYQF 051500Z 32005KT 290V050 15SM FEW250 06/M00 A2970 RMK CI2 SLP076

CYQF;2015-05-05 16:00;CYQF 051600Z 32005KT 270V340 15SM BKN250 08/00 A2970 RMK CC5 SLP077 DENSITY ALT 3100FT

CYQF;2015-05-05 18:00;CYQF 051800Z 31007G15KT 290V360 15SM BKN250 12/01 A2970 RMK CI7 SLP070 DENSITY ALT 3600FT

CYQF;2015-05-05 19:00;CYQF 051900Z 36011G17KT 15SM FEW048 SCT220 BKN270 13/01 A2970 RMK CU1CC3CI4 CU TR SLP072 DENSITY ALT 3600FT

CYQF;2015-05-05 20:00;CYQF 052000Z 01012KT 15SM FEW048TCU BKN220 OVC270 14/01 A2970 RMK TCU2CI3CI3 TCU DIST SW-W SLP074 DENSITY ALT 3700FT

CYQF;2015-05-05 21:00;CYQF 052100Z 02014G20KT 15SM FEW052 BKN270 14/02 A2969 RMK CU1CI6 SLP072 DENSITY ALT 3800FT

CYQF;2015-05-05 22:00;CYQF 052200Z 03018KT 15SM FEW052 BKN270 16/02 A2969 RMK CU1CI6 SLP071 DENSITY ALT 3900FT

CYQF;2015-05-05 23:00;CYQF 052300Z 01018G25KT 15SM FEW056 BKN240 15/02 A2968 RMK CU2CI4 SLP070 DENSITY ALT 3900FT

CYQF;2015-05-06 00:00;CYQF 060000Z 34020G26KT 15SM FEW056 BKN240 13/01 A2970 RMK CU2CI4 SLP078 DENSITY ALT 3600FT

CYQF;2015-05-06 01:00;CYQF 060100Z 35018G25KT 15SM FEW040 BKN140 OVC250 11/01 A2972 RMK SC2AC4CI2 SLP087 DENSITY ALT 3400FT

CYQF;2015-05-06 02:00;CYQF 060200Z 34016G26KT 15SM SCT040 BKN140 OVC250 09/01 A2975 RMK SC4AC3CI1 SLP098 DENSITY ALT 3100FT

CYQF;2015-05-06 03:00;CYQF 060300Z 34019G26KT 15SM BKN062 OVC140 08/01 A2980 RMK SC6AC2 PRESRR SLP115

CYQF;2015-05-06 04:00;CYQF 060400Z 32019G29KT 15SM BKN022 OVC062 06/01 A2984 RMK SC6SC2 SLP128

CYQF;2015-05-06 04:14;CYQF 060414Z 32021G31KT 15SM -SHRA BKN016 OVC060 05/01 A2985 RMK SC7SC1 SLP133

CYQF;2015-05-06 05:00;CYQF 060500Z 31016G22KT 12SM -RA BKN012 OVC040 04/01 A2987 RMK SF5SC3 SLP140

CYQF;2015-05-06 06:00;CYQF 060600Z 31010G17KT 10SM BKN014 OVC034 03/02 A2988 RMK SF5SC3 SLP140

CYQF;2015-05-06 07:00;CYQF 060700Z 33011G17KT 10SM -RA FEW010 OVC014 03/01 A2989 RMK SF2SC6 SLP144

CYQF;2015-05-06 08:00;CYQF 060800Z 34010G16KT 10SM -RA OVC011 02/01 A2990 RMK SC8 SLP145

CYQF;2015-05-06 08:45;CYQF 060845Z 33012KT 10SM -RA OVC008 02/01 A2991 RMK SF8 SLP149

CYQF;2015-05-06 09:00;CYQF 060900Z 33012G18KT 12SM -RA OVC007 02/01 A2991 RMK SF8 SLP150

CYQF;2015-05-06 10:00;CYQF 061000Z 33014KT 12SM -RA BKN007 OVC013 01/00 A2991 RMK SF6SC2 SLP150

CYQF;2015-05-06 10:09;CYQF 061009Z 32011G18KT 12SM -RASN SCT007 OVC012 01/00 A2992 RMK SF3SC5 SLP152

CYQF;2015-05-06 10:39;CYQF 061039Z 32010G16KT 15SM SCT009 BKN014 01/00 A2991 RMK SF3SC3 SLP150

CYQF;2015-05-06 11:00;CYQF 061100Z 31015G21KT 15SM -SN SCT008 BKN015 01/M01 A2992 RMK SF3SC3 SLP152

CYQF;2015-05-06 11:26;CYQF 061126Z 33018G25KT 15SM BKN013 01/M01 A2992 RMK SC7 SLP155

CYQF;2015-05-06 12:00;CYQF 061200Z 33014G21KT 15SM BKN013 01/M01 A2994 RMK SC7 SLP162

CYQF;2015-05-06 12:19;CYQF 061219Z 32012G19KT 15SM -SHSN OVC013 01/M01 A2994 RMK SC8 CVCTV CLD EMBD VIS N 3 SLP164

CYQF;2015-05-06 13:00;CYQF 061300Z 33013KT 15SM -SHSN BKN013 BKN024 00/M01 A2995 RMK SC5SC2 CVCTV CLD EMBD VIS W-N 3 SLP168

CYQF;2015-05-06 13:23;CYQF 061323Z 32017G23KT 15SM VCSH FEW012 BKN020 01/M02 A2995 RMK SF2SC5 SLP168

CYQF;2015-05-06 14:00;CYQF 061400Z 31013G24KT 12SM -SHSN FEW012 BKN018 BKN250 01/M02 A2995 RMK SC2SC4CI1 CVCTV CLD EMBD SLP173

CYQF;2015-05-06 15:00;CYQF 061500Z CCA 32014KT 12SM -SHSN OVC018 01/M02 A2997 RMK SC8 CVCTV CLD EMBD SLP181

CYQF;2015-05-06 15:41;CYQF 061541Z 32014G22KT 15SM OVC016 01/M02 A2998 RMK SC8 SLP183

CYQF;2015-05-06 16:00;CYQF 061600Z 31011G23KT 15SM OVC017 01/M02 A2998 RMK SC8 SLP186

CYQF;2015-05-06 16:24;CYQF 061624Z 32013G19KT 10SM -SHSN OVC018 01/M02 A2999 RMK SC8 SLP189

CYQF;2015-05-06 17:00;CYQF 061700Z 31018G24KT 6SM -SHSN OVC017 01/M02 A3000 RMK SC8 CVCTV CLD EMBD SLP194

CYQF;2015-05-06 18:00;CYQF 061800Z 34017G27KT 12SM -SHSN OVC020 02/M01 A3001 RMK SC8 SLP197

CYQF;2015-05-06 19:00;CYQF 061900Z 32016G23KT 10SM -SHSN BKN017 BKN060 03/M00 A3002 RMK SC5SC2 SLP200

CYQF;2015-05-06 20:00;CYQF 062000Z 32022G29KT 15SM VCSH BKN020 BKN050 04/M02 A3002 RMK SC5SC2 SLP199

CYQF;2015-05-06 20:35;CYQF 062035Z 32026KT 15SM -SHRASN OVC021 04/M01 A3002 RMK CU8 VIS N 5 WND ESTD SLP201

CYQF;2015-05-06 20:52;CYQF 062052Z 32018KT 15SM BKN036 04/M00 A3003 RMK CU7 SLP202

CYQF;2015-05-06 21:00;CYQF 062100Z 33016G29KT 15SM BKN036 BKN250 04/M01 A3003 RMK CU6CI1 SLP202

CYQF;2015-05-06 21:39;CYQF 062139Z 34016G22KT 15SM -SHRA SCT023 BKN036 BKN250 05/M01 A3003 RMK CU4SC2CI1 SLP202

CYQF;2015-05-06 22:03;CYQF 062203Z 33016G22KT 15SM -SHRAGS BKN025 BKN250 04/M01 A3003 RMK CU6CI1 SLP205

CYQF;2015-05-06 22:25;CYQF 062225Z 31017G24KT 15SM BKN025 05/M01 A3003 RMK CU7 SLP201

CYQF;2015-05-06 23:00;CYQF 062300Z 33015G21KT 15SM BKN025 05/M02 A3004 RMK CU7 CIG RAG SLP206

CYQF;2015-05-07 00:00;CYQF 070000Z 34018KT 15SM BKN030 04/M03 A3004 RMK CU6 SLP208

CYQF;2015-05-07 01:00;CYQF 070100Z 34014G19KT 15SM BKN040 04/M02 A3006 RMK CU6 SH W SLP216

CYQF;2015-05-07 02:00;CYQF 070200Z 36012KT 15SM BKN030 BKN250 03/M01 A3008 RMK CU6CI1 SLP222

CYQF;2015-05-07 03:00;CYQF 070300Z 35011KT 15SM SCT030 SCT250 02/M02 A3010 RMK CU3CI1 SLP232

CYQF;2015-05-07 04:00;CYQF 070400Z 34005KT 15SM BKN050 00/M02 A3013 RMK SC5 SLP243

CYQF;2015-05-07 05:00;CYQF 070500Z 32009KT 15SM SCT024 BKN050 01/M01 RMK SC3SC3

CYQF;2015-05-07 06:00;CYQF 070600Z 32008KT 15SM FEW010 SCT024 BKN045 00/M02 RMK SF1SC2SC3

CYQF;2015-05-07 07:00;CYQF 070700Z 33007KT 15SM FEW020 BKN045 00/M02 RMK SC2SC4

CYQF;2015-05-07 08:00;CYQF 070800Z 31005KT 15SM SCT040 M00/M02 RMK SC4 A3014

CYQF;2015-05-07 09:00;CYQF 070900Z 28007KT 15SM SCT040 M01/M02 RMK SC3 A3013

CYQF;2015-05-07 10:00;CYQF 071000Z 28007KT 15SM FEW040 M02/M03 RMK SC2 A3013

CYQF;2015-05-07 11:00;CYQF 071100Z 29006KT 15SM FEW250 M02/M04 RMK CI1 A3013

CYQF;2015-05-07 12:00;CYQF 071200Z 18005KT 140V260 15SM FEW250 M04/M06 RMK CI2 A3013

CYQF;2015-05-07 13:00;CYQF 071300Z 21005KT 15SM FEW250 M03/M04 RMK CI2 A3013

CYQF;2015-05-07 14:00;CYQF 071400Z 23005KT 15SM FEW250 M00/M03 RMK CI1 A3013 WND ESTD

CYQF;2015-05-07 15:00;CYQF 071500Z 23005KT 15SM FEW040 FEW250 02/M03 RMK CU1CI1 CU TR A3013

CYQF;2015-05-07 16:00;CYQF 071600Z 18005KT 130V190 15SM FEW040 04/M05 RMK CU1 CU TR A3013

CYQF;2015-05-07 17:00;CYQF 071700Z 20007KT 120V260 15SM FEW040 06/M05 RMK CU1 A3011

CYQF;2015-05-07 18:00;CYQF 071800Z VRB07KT 15SM FEW040 08/M04 RMK CU1 A3010

CYQF;2015-05-07 19:00;CYQF 071900Z VRB04KT 15SM FEW050 FEW250 10/M04 RMK CU1CI1 A3008

CYQF;2015-05-07 20:00;CYQF 072000Z VRB08KT 15SM SCT060 10/M05 RMK CU4 A3006

CYQF;2015-05-07 21:00;CYQF 072100Z 01009G15KT 310V040 15SM SCT060 BKN250 12/M05 RMK CU4CI1 A3005

CYQF;2015-05-07 22:00;CYQF 072200Z 32010KT 310V030 15SM BKN080 BKN250 12/M05 RMK CU6CI1

CYQF;2015-05-07 23:00;CYQF 072300Z 09003KT 030V130 15SM SCT070 BKN250 11/M05 RMK CU4CI1 A3004

CYQF;2015-05-08 00:00;CYQF 080000Z 29008KT 220V320 15SM BKN080TCU BKN250 11/M05 RMK TCU5CI2 A3003 VIRGA W-NE

CYQF;2015-05-08 00:18;CYQF 080018Z 33023G30KT 15SM -SHRA BKN066TCU BKN250 08/00 RMK TCU6CI1 A3005

CYQF;2015-05-08 01:00;CYQF 080100Z 36020KT 15SM -SHRA FEW033 BKN060TCU BKN230 06/02 RMK CF2TCU4CI1 A3008

CYQF;2015-05-08 01:46;CYQF 080146Z 34013KT 10SM -SHRA SCT019 OVC033TCU 05/03 A3011 RMK CF3TCU5 SLP235

CYQF;2015-05-08 02:00;CYQF 080200Z 01012KT 10SM -SHRA SCT011 BKN030TCU OVC052 05/03 A3011 RMK CF4TCU3SC1 SLP233

CYQF;2015-05-08 03:00;CYQF 080300Z 01012KT 6SM -SHRA BR BKN009 OVC023 04/02 A3014 RMK SC6SC2 CIG RAG SLP241

CYQF;2015-05-08 04:00;CYQF 080400Z 04007KT 8SM -RA SCT005 OVC021 02/01 A3018 RMK SF4SC4 SLP255

CYQF;2015-05-08 05:00;CYQF 080500Z 31003KT 12SM -RA SCT005 OVC021 02/01 A3019 RMK SF4SC4 SLP257

CYQF;2015-05-08 05:24;CYQF 080524Z 27002KT 15SM FEW010 OVC030 03/02 A3019 RMK SF2SC6 SLP256

CYQF;2015-05-08 06:00;CYQF 080600Z 25002KT 15SM OVC040 03/02 A3020 RMK SC8 SLP256

CYQF;2015-05-08 07:00;CYQF 080700Z 19003KT 170V240 15SM OVC044 03/02 A3021 RMK SC8 SLP257

CYQF;2015-05-08 07:39;CYQF 080739Z 25005KT 12SM -RA SCT027 OVC050 03/02 A3021 RMK SC4SC4 SLP257

CYQF;2015-05-08 08:00;CYQF 080800Z 25007KT 12SM -RA SCT025 OVC045 02/01 A3020 RMK SC4SC4 SLP256

CYQF;2015-05-08 09:00;CYQF 080900Z 23003KT 12SM -RA OVC016 02/01 A3020 RMK SC8 SLP254

CYQF;2015-05-08 10:00;CYQF 081000Z 21006KT 15SM -RA SCT014 OVC020 02/01 A3020 RMK SC4SC4 SLP255

CYQF;2015-05-08 10:18;CYQF 081018Z 21005KT 15SM -SN OVC014 02/02 A3021 RMK SC8 SLP256

CYQF;2015-05-08 11:00;CYQF 081100Z 21005KT 15SM OVC012 02/01 A3021 RMK SC8 SLP257

CYQF;2015-05-08 12:00;CYQF 081200Z 21006KT 15SM BKN013 02/01 A3021 RMK SC6 SLP256

CYQF;2015-05-08 13:00;CYQF 081300Z 19003KT 8SM FEW015 BKN022 02/01 A3021 RMK SC2SC5 SLP263

CYQF;2015-05-08 14:00;CYQF 081400Z 21003KT 8SM FEW010 BKN025 02/01 A3021 RMK SF2SC5 SLP266

CYQF;2015-05-08 14:48;CYQF 081448Z 19004KT 10SM FEW005 BKN027 04/03 A3022 RMK SF2SC5 SLP265

CYQF;2015-05-08 15:00;CYQF 081500Z 18003KT 140V210 10SM FEW005 BKN025 BKN120 04/02 A3022 RMK CF1CU5AC1 SLP266

CYQF;2015-05-08 15:23;CYQF 081523Z VRB02KT 15SM BKN014 04/02 A3022 RMK CU7 SLP266

CYQF;2015-05-08 16:00;CYQF 081600Z 00000KT 15SM BKN033 05/00 A3021 RMK CU7 SLP265

CYQF;2015-05-08 17:00;CYQF 081700Z VRB02KT 15SM BKN025 06/00 A3021 RMK CU6 SLP262

CYQF;2015-05-08 18:00;CYQF 081800Z 26004KT 15SM BKN055 07/M03 A3020 RMK CU6 SLP257

CYQF;2015-05-08 19:00;CYQF 081900Z 00000KT 15SM BKN050 08/M03 A3018 RMK CU6 SLP252

CYQF;2015-05-08 20:00;CYQF 082000Z 29003KT 230V310 15SM BKN050 09/M04 A3017 RMK CU6 SLP245

CYQF;2015-05-08 21:00;CYQF 082100Z 32006KT 220V350 15SM BKN070TCU 10/M04 A3015 RMK TCU6 SLP238

CYQF;2015-05-08 22:00;CYQF 082200Z VRB02KT 15SM BKN065TCU 12/M06 A3013 RMK TCU5 SLP230 DENSITY ALT 3000FT

CYQF;2015-05-08 23:00;CYQF 082300Z 31004KT 280V350 15SM SCT070TCU BKN120 12/M06 A3013 RMK TCU4AC1 VIRGA ALQDS SLP228 DENSITY ALT 3000FT

CYQF;2015-05-09 00:00;CYQF 090000Z 24006KT 220V320 15SM SCT070 BKN100 12/M07 A3012 RMK CU4AC1 SLP225 DENSITY ALT 3000FT

CYQF;2015-05-09 01:00;CYQF 090100Z 01006KT 330V040 15SM SCT080 12/M07 A3012 RMK CU3 SLP226 DENSITY ALT 3000FT

CYQF;2015-05-09 02:00;CYQF 090200Z 00000KT 15SM FEW090 11/M07 A3013 RMK AC2 SLP228

CYQF;2015-05-09 03:00;CYQF 090300Z 14006KT 15SM FEW100 08/M02 A3014 RMK AC2 SLP233

CYQF;2015-05-09 04:00;CYQF 090400Z 15012KT 15SM FEW100 FEW250 05/00 A3015 RMK AC1CI1 SLP240

CYQF;2015-05-09 05:00;CYQF 090500Z 16010KT 15SM FEW100 04/M01 A3015 RMK AC1 SLP241

CYQF;2015-05-09 06:00;CYQF 090600Z 18008KT 15SM SKC 03/M01 A3015 RMK SLP242

CYQF;2015-05-09 07:00;CYQF 090700Z 17005KT 15SM SKC 02/M02 A3014 RMK SLP238

CYQF;2015-05-09 08:00;CYQF 090800Z 21005KT 15SM SKC 01/M02 A3014 RMK SLP236

CYQF;2015-05-09 09:00;CYQF 090900Z 18007KT 15SM SKC 00/M03 A3013 RMK SLP231

CYQF;2015-05-09 10:00;CYQF 091000Z 18007KT 15SM SKC 00/M02 A3012 RMK SLP229

CYQF;2015-05-09 11:00;CYQF 091100Z 19005KT 15SM FEW100 M01/M03 A3012 RMK AC1 SLP228

CYQF;2015-05-09 12:00;CYQF 091200Z 18003KT 15SM FEW100 M01/M04 A3012 RMK AC1 SLP228

CYQF;2015-05-09 13:00;CYQF 091300Z 17004KT 15SM SCT100 01/M02 A3012 RMK AC4 SLP227

CYQF;2015-05-09 14:00;CYQF 091400Z 22007KT 15SM BKN100 05/M02 A3013 RMK AC6 SLP228

CYQF;2015-05-09 15:00;CYQF 091500Z 24005KT 200V260 15SM SCT095 07/M01 A3014 RMK AC4 SLP229

CYQF;2015-05-09 16:00;CYQF 091600Z VRB02KT 15SM SCT090 10/M02 A3013 RMK AC3 SLP228

CYQF;2015-05-09 17:00;CYQF 091700Z VRB02KT 15SM FEW050 FEW090 12/M02 A3013 RMK CU1AC1 SLP226 DENSITY ALT 3100FT

CYQF;2015-05-09 18:00;CYQF 091800Z 00000KT 15SM FEW070 15/M05 A3013 RMK CU2 SLP225 DENSITY ALT 3400FT

CYQF;2015-05-09 19:00;CYQF 091900Z 29010G18KT 270V020 15SM BKN080 15/M07 A3013 RMK CU6 SLP227 DENSITY ALT 3400FT

CYQF;2015-05-09 20:00;CYQF 092000Z 34005KT 320V030 15SM BKN085 16/M07 A3014 RMK CU6 SLP227 DENSITY ALT 3400FT

CYQF;2015-05-09 21:00;CYQF 092100Z 32012KT 310V050 15SM BKN100 18/M07 A3014 RMK CU6 SLP228 DENSITY ALT 3700FT

CYQF;2015-05-09 22:00;CYQF 092200Z 35010G16KT 320V020 15SM BKN100 17/M06 A3014 RMK CU6 SLP227 DENSITY ALT 3600FT

CYQF;2015-05-09 23:00;CYQF 092300Z 01006G15KT 320V060 15SM BKN100 17/M07 A3014 RMK CU5 SLP230 DENSITY ALT 3600FT

CYQF;2015-05-10 00:00;CYQF 100000Z 02009KT 320V080 15SM FEW100 18/M06 A3014 RMK CU2 SLP228 DENSITY ALT 3700FT

CYQF;2015-05-10 01:00;CYQF 100100Z 03009KT 340V060 15SM FEW088 17/M05 A3014 RMK CU1 SLP229 DENSITY ALT 3500FT

CYQF;2015-05-10 02:00;CYQF 100200Z 07011KT 15SM FEW088 15/M06 A3014 RMK CU1 CU TR SLP227 DENSITY ALT 3400FT

CYQF;2015-05-10 03:00;CYQF 100300Z 09006KT 15SM FEW056 12/M03 A3015 RMK SC1 SLP232

CYQF;2015-05-10 04:00;CYQF 100400Z 08006KT 15SM FEW056 09/M03 A3017 RMK SC1 SLP238

CYQF;2015-05-10 05:00;CYQF 100500Z VRB02KT 15SM FEW120 09/M03 A3018 RMK AC1 SLP239

CYQF;2015-05-10 06:00;CYQF 100600Z 00000KT 15SM FEW180 08/M03 A3018 RMK AC2 SLP236

CYQF;2015-05-10 07:00;CYQF 100700Z 00000KT 15SM FEW110 06/M02 A3019 RMK AC2 WND ESTD SLP241

CYQF;2015-05-10 08:00;CYQF 100800Z 06005KT 15SM SCT110 04/M03 A3018 RMK AC4 SLP240

CYQF;2015-05-10 09:00;CYQF 100900Z 00000KT 15SM FEW100 04/M03 A3018 RMK AC2 SLP239

CYQF;2015-05-10 10:00;CYQF 101000Z 00000KT 15SM FEW090 03/M02 A3017 RMK AC2 SLP237

CYQF;2015-05-10 11:00;CYQF 101100Z 03003KT 15SM FEW090 01/M03 A3018 RMK AC2 SLP240

CYQF;2015-05-10 12:00;CYQF 101200Z 04006KT 15SM FEW090 01/M02 A3017 RMK AC1 SLP238

CYQF;2015-05-10 13:00;CYQF 101300Z 07005KT 15SM FEW100 SCT240 03/00 A3018 RMK AC2CI2 SLP240

CYQF;2015-05-10 14:00;CYQF 101400Z 07004KT 15SM FEW100 SCT240 05/02 A3019 RMK AC1CI3 SLP242

CYQF;2015-05-10 15:00;CYQF 101500Z 09006KT 15SM FEW100 BKN240 08/02 A3020 RMK AC1CI5 SLP246

CYQF;2015-05-10 16:00;CYQF 101600Z 09010KT 080V150 15SM FEW100 BKN240 11/M00 A3020 RMK AC1CI5 SLP247

CYQF;2015-05-10 17:00;CYQF 101700Z 09011KT 050V120 15SM SCT180 BKN260 13/M01 A3020 RMK AC3CI4 SLP243 DENSITY ALT 3000FT

CYQF;2015-05-10 18:00;CYQF 101800Z 09009G15KT 050V110 15SM SCT180 BKN260 13/00 RMK AC3CI3

CYQF;2015-05-10 19:00;CYQF 101900Z 06009G16KT 030V110 15SM FEW068 FEW260 14/M03 A3019 RMK CU1CI1 CU TR SLP244 DENSITY ALT 3200FT

CYQF;2015-05-10 20:00;CYQF 102000Z 07006KT 040V130 15SM FEW065 SCT160 15/M02 A3018 RMK CU1AC2 SLP242 DENSITY ALT 3300FT

CYQF;2015-05-10 21:00;CYQF 102100Z 09007KT 040V170 15SM FEW070 SCT160 16/M02 A3018 RMK CU2AC2 SLP240 DENSITY ALT 3400FT

CYQF;2015-05-10 22:00;CYQF 102200Z 09007KT 020V120 15SM SCT072 16/M02 A3016 RMK CU4 SLP235 DENSITY ALT 3400FT

CYQF;2015-05-10 23:00;CYQF 102300Z 08010G19KT 050V110 15SM FEW072 16/M02 A3015 RMK CU2 SLP233 DENSITY ALT 3400FT

CYQF;2015-05-11 00:00;CYQF 110000Z 07013KT 15SM FEW072 15/M05 A3015 RMK CU2 SLP235 DENSITY ALT 3400FT

CYQF;2015-05-11 01:00;CYQF 110100Z 08009G16KT 15SM FEW082 15/M06 A3015 RMK CU1 SLP232 DENSITY ALT 3300FT

CYQF;2015-05-11 02:00;CYQF 110200Z 07012KT 15SM FEW082 14/M08 A3014 RMK AC1 SLP229 DENSITY ALT 3200FT

CYQF;2015-05-11 03:00;CYQF 110300Z 09009KT 15SM FEW084 11/M06 A3016 RMK AC1 SLP233

CYQF;2015-05-11 04:00;CYQF 110400Z 09009KT 15SM FEW085 09/M06 A3017 RMK AC2 SLP238

CYQF;2015-05-11 05:00;CYQF 110500Z 10007KT 15SM SCT090 07/M06 A3018 RMK AC4 SLP240

CYQF;2015-05-11 06:00;CYQF 110600Z 11008KT 15SM BKN090 07/M06 A3018 RMK AC6 SLP241

CYQF;2015-05-11 07:00;CYQF 110700Z 11009KT 15SM SCT100 06/M07 A3018 RMK AC4 SLP240

CYQF;2015-05-11 08:00;CYQF 110800Z 13007KT 15SM SCT100 05/M07 A3018 RMK AC4 SLP240

CYQF;2015-05-11 09:00;CYQF 110900Z 13007KT 15SM BKN100 04/M07 A3019 RMK AC6 SLP244

CYQF;2015-05-11 10:00;CYQF 111000Z 17006KT 15SM BKN080 02/M07 A3019 RMK AC6 SLP245

CYQF;2015-05-11 11:00;CYQF 111100Z 18003KT 15SM SCT080 SCT250 00/M07 A3020 RMK AC3CI1 SLP249

CYQF;2015-05-11 12:00;CYQF 111200Z 16004KT 15SM FEW080 SCT250 M01/M06 A3019 RMK AC2CI1 SLP250

CYQF;2015-05-11 13:00;CYQF 111300Z 12002KT 15SM FEW080 01/M05 A3020 RMK AC1 SLP250

CYQF;2015-05-11 14:00;CYQF 111400Z 19008KT 15SM FEW080 04/M06 A3020 RMK AC1 SLP249

CYQF;2015-05-11 15:00;CYQF 111500Z 18011KT 15SM FEW080 07/M07 A3020 RMK AC1 SLP248

CYQF;2015-05-11 16:00;CYQF 111600Z 14010G17KT 100V170 15SM FEW080 08/M08 A3020 RMK AC1 SLP249

CYQF;2015-05-11 17:00;CYQF 111700Z 16009G19KT 080V180 15SM SKC 09/M09 A3019 RMK SLP248

CYQF;2015-05-11 18:00;CYQF 111800Z 13009G15KT 120V200 15SM BKN280 10/M08 A3017 RMK CI6 SLP240

CYQF;2015-05-11 19:00;CYQF 111900Z 11006KT 070V190 15SM BKN180 11/M09 A3015 RMK CI6 SLP233

CYQF;2015-05-11 20:00;CYQF 112000Z 12008KT 070V160 15SM BKN280 12/M09 A3013 RMK CI5 SLP227 DENSITY ALT 3000FT

CYQF;2015-05-11 21:00;CYQF 112100Z VRB09KT 15SM BKN200 12/M10 A3013 RMK CI6 SLP226 DENSITY ALT 3000FT

CYQF;2015-05-11 22:00;CYQF 112200Z 10006KT 020V150 15SM FEW140 BKN260 12/M10 A3011 RMK AC2CI4 SLP223 DENSITY ALT 3000FT

CYQF;2015-05-11 23:00;CYQF 112300Z 12009G18KT 050V150 15SM FEW260 13/M09 A3010 RMK CI1 SLP218 DENSITY ALT 3100FT

CYQF;2015-05-12 00:00;CYQF 120000Z 09008KT 060V120 15SM FEW260 12/M09 A3009 RMK CI1 SLP217 DENSITY ALT 3100FT

CYQF;2015-05-12 01:00;CYQF 120100Z 13007KT 15SM SKC 12/M08 A3008 RMK SLP212 DENSITY ALT 3100FT

CYQF;2015-05-12 02:00;CYQF 120200Z 10009KT 15SM SKC 11/M08 A3008 RMK SLP210 DENSITY ALT 3000FT

CYQF;2015-05-12 03:00;CYQF 120300Z 10007KT 15SM SKC 09/M07 A3009 RMK SLP212

CYQF;2015-05-12 04:00;CYQF 120400Z 12007KT 15SM SKC 07/M07 A3010 RMK SLP217

CYQF;2015-05-12 05:00;CYQF 120500Z 14007KT 15SM SKC 04/M07 A3010 RMK SLP220

CYQF;2015-05-12 06:00;CYQF 120600Z 15008KT 15SM SKC 03/M08 A3010 RMK SLP219

CYQF;2015-05-12 07:00;CYQF 120700Z 15006KT 15SM SKC 03/M08 A3009 RMK SLP217

CYQF;2015-05-12 08:00;CYQF 120800Z 17006KT 15SM SKC 02/M08 A3009 RMK SLP217

CYQF;2015-05-12 09:00;CYQF 120900Z 17006KT 15SM SKC 01/M08 A3009 RMK SLP215

CYQF;2015-05-12 10:00;CYQF 121000Z 00000KT 15SM SKC M01/M07 A3009 RMK SLP218

CYQF;2015-05-12 11:00;CYQF 121100Z VRB02KT 15SM SKC M01/M08 A3008 RMK SLP216

CYQF;2015-05-12 12:00;CYQF 121200Z 17003KT 15SM SKC M01/M08 A3008 RMK SLP214

CYQF;2015-05-12 13:00;CYQF 121300Z 03002KT 15SM SKC M02/M06 A3009 RMK SLP218

CYQF;2015-05-12 14:00;CYQF 121400Z VRB02KT 15SM SKC 04/M08 A3009 RMK SLP214

CYQF;2015-05-12 15:00;CYQF 121500Z 15007KT 15SM SKC 08/M07 A3010 RMK SLP216

CYQF;2015-05-12 16:00;CYQF 121600Z 15012KT 15SM SKC 10/M09 A3011 RMK SLP217

CYQF;2015-05-12 17:00;CYQF 121700Z 12012G18KT 110V180 15SM SKC 11/M09 A3010 RMK SLP218 DENSITY ALT 3000FT

CYQF;2015-05-12 18:00;CYQF 121800Z 14013G19KT 15SM SKC 13/M09 A3010 RMK SLP217 DENSITY ALT 3100FT

CYQF;2015-05-12 19:00;CYQF 121900Z 15016G23KT 090V190 15SM SKC 13/M09 A3009 RMK SLP214 DENSITY ALT 3200FT

CYQF;2015-05-12 20:00;CYQF 122000Z 12017KT 110V170 15SM SKC 14/M08 A3008 RMK SLP210 DENSITY ALT 3300FT

CYQF;2015-05-12 21:00;CYQF 122100Z 11012G22KT 100V180 15SM SKC 15/M09 A3007 RMK SLP206 DENSITY ALT 3400FT

CYQF;2015-05-12 22:00;CYQF 122200Z 12011G21KT 15SM SKC 15/M10 A3006 RMK SLP204 DENSITY ALT 3500FT

CYQF;2015-05-12 23:00;CYQF 122300Z 14011G19KT 080V170 15SM SKC 16/M10 A3005 RMK SLP199 DENSITY ALT 3500FT

CYQF;2015-05-13 00:00;CYQF 130000Z 11011G18KT 15SM SKC 15/M10 A3003 RMK SLP195 DENSITY ALT 3500FT

CYQF;2015-05-13 01:00;CYQF 130100Z 13009G15KT 15SM SKC 15/M09 A3003 RMK SLP194 DENSITY ALT 3500FT

CYQF;2015-05-13 02:00;CYQF 130200Z 12010G17KT 15SM FEW200 14/M10 A3003 RMK CI1 SLP191 DENSITY ALT 3300FT

CYQF;2015-05-13 03:00;CYQF 130300Z 12007KT 15SM FEW200 11/M09 A3004 RMK CI1 SLP193 DENSITY ALT 3000FT

CYQF;2015-05-13 04:00;CYQF 130400Z 13008KT 15SM FEW200 08/M08 A3005 RMK CI1 SLP196

CYQF;2015-05-13 05:00;CYQF 130500Z 14009KT 15SM SKC 07/M08 A3005 RMK SLP196

CYQF;2015-05-13 06:00;CYQF 130600Z 15009KT 15SM SKC 05/M08 A3005 RMK SLP197

CYQF;2015-05-13 07:00;CYQF 130700Z 15012KT 15SM SKC 05/M08 A3006 RMK SLP199

CYQF;2015-05-13 08:00;CYQF 130800Z 16009KT 15SM SKC 03/M08 A3005 RMK SLP198

CYQF;2015-05-13 09:00;CYQF 130900Z 16010KT 15SM SKC 03/M08 A3005 RMK SLP195

CYQF;2015-05-13 10:00;CYQF 131000Z 15007KT 15SM SKC 02/M08 A3004 RMK SLP193

CYQF;2015-05-13 11:00;CYQF 131100Z VRB02KT 15SM SKC 02/M07 A3004 RMK SLP193

CYQF;2015-05-13 12:00;CYQF 131200Z 20006KT 15SM FEW250 00/M08 A3004 RMK CI2 SLP197

CYQF;2015-05-13 13:00;CYQF 131300Z VRB02KT 15SM FEW250 01/M05 A3005 RMK CI1 SLP197

CYQF;2015-05-13 14:00;CYQF 131400Z 14010KT 15SM FEW250 05/M05 A3005 RMK CI1 SLP196

CYQF;2015-05-13 15:00;CYQF 131500Z 13005KT 15SM FEW250 07/M04 A3004 RMK CI1 SLP194

CYQF;2015-05-13 16:00;CYQF 131600Z 14013KT 12SM SKC 10/M03 A3004 RMK SLP193

CYQF;2015-05-13 17:00;CYQF 131700Z 14012G20KT 15SM FEW056 12/M01 A3005 RMK CU1 SLP194 DENSITY ALT 3100FT

CYQF;2015-05-13 18:00;CYQF 131800Z 15014G21KT 15SM BKN056 13/M02 A3004 RMK CU7 SLP192 DENSITY ALT 3300FT

CYQF;2015-05-13 19:00;CYQF 131900Z 15014G22KT 15SM BKN070 14/M04 A3003 RMK CU7 SLP189 DENSITY ALT 3300FT

CYQF;2015-05-13 20:00;CYQF 132000Z 13016KT 15SM BKN076 14/M05 A3002 RMK CU6 SLP188 DENSITY ALT 3400FT

CYQF;2015-05-13 21:00;CYQF 132100Z 14010G21KT 15SM BKN075 14/M05 A3002 RMK CU6 SLP187 DENSITY ALT 3400FT

CYQF;2015-05-13 22:00;CYQF 132200Z 12016G23KT 15SM BKN080 14/M06 A3002 RMK CU6 SLP187 DENSITY ALT 3400FT

CYQF;2015-05-13 23:00;CYQF 132300Z 11016G23KT 090V170 15SM BKN080 15/M06 A3001 RMK CU5 SLP185 DENSITY ALT 3500FT

CYQF;2015-05-14 00:00;CYQF 140000Z 12015G22KT 15SM SCT080 BKN130 15/M05 A3000 RMK CU4AC1 SLP184 DENSITY ALT 3500FT

CYQF;2015-05-14 01:00;CYQF 140100Z 10010G18KT 15SM BKN080 14/M06 A3000 RMK CU5 SLP183 DENSITY ALT 3400FT

CYQF;2015-05-14 02:00;CYQF 140200Z 15010KT 15SM SCT080 BKN210 13/M05 A3001 RMK CU4CI3 SLP182 DENSITY ALT 3300FT

CYQF;2015-05-14 03:00;CYQF 140300Z 13008KT 15SM BKN090 BKN210 11/M04 A3002 RMK AC5CI2 SLP185 DENSITY ALT 3000FT

CYQF;2015-05-14 04:00;CYQF 140400Z 12011KT 15SM SCT090 BKN220 09/M05 A3003 RMK AC3CI3 SLP188

CYQF;2015-05-14 05:00;CYQF 140500Z 17005KT 15SM FEW090 BKN220 06/M03 A3005 RMK AC2CI3 SLP196

CYQF;2015-05-14 06:00;CYQF 140600Z 15006KT 15SM SCT080 SCT200 07/M01 A3005 RMK AC3CI1 SLP194

CYQF;2015-05-14 07:00;CYQF 140700Z 11006KT 15SM FEW080 SCT160 06/M02 A3005 RMK AC1AC2 SLP193

CYQF;2015-05-14 08:00;CYQF 140800Z 13007KT 15SM SCT080 BKN160 07/M02 A3004 RMK CU4AC1 SLP189

CYQF;2015-05-14 09:00;CYQF 140900Z 14012G18KT 15SM BKN080 07/M01 A3004 RMK AC7 SLP188

CYQF;2015-05-14 10:00;CYQF 141000Z 14009KT 15SM BKN080 07/M01 A3004 RMK AC7 SLP189

CYQF;2015-05-14 11:00;CYQF 141100Z 14013KT 15SM BKN080 07/M00 A3003 RMK AC7 SLP187

CYQF;2015-05-14 12:00;CYQF 141200Z 14010KT 15SM BKN080 06/00 A3004 RMK AC7 SLP189

CYQF;2015-05-14 13:00;CYQF 141300Z 17008KT 15SM BKN080 06/00 A3004 RMK AC6 SLP192

CYQF;2015-05-14 14:00;CYQF 141400Z 15009KT 15SM FEW035 BKN080 06/01 A3004 RMK SC1AC6 SLP191

CYQF;2015-05-14 15:00;CYQF 141500Z 15016KT 15SM FEW035 BKN080 09/01 A3004 RMK SC1AC6 SLP192

CYQF;2015-05-14 16:00;CYQF 141600Z 14015KT 15SM FEW060 BKN080 10/01 A3004 RMK SC1AC6 SLP192

CYQF;2015-05-14 17:00;CYQF 141700Z 13015KT 15SM FEW040 BKN080 11/01 A3003 RMK CU2AC5 SLP190 DENSITY ALT 3100FT

CYQF;2015-05-14 18:00;CYQF 141800Z 14015KT 15SM SCT040 BKN070 12/00 A3002 RMK CU3AC4 WND ESTD SLP184 DENSITY ALT 3200FT

CYQF;2015-05-14 19:00;CYQF 141900Z 14013KT 15SM BKN040 OVC070 13/00 A3001 RMK SC7AC1 SLP181 DENSITY ALT 3300FT

CYQF;2015-05-14 19:31;CYQF 141931Z 14014G20KT 12SM -RA BKN050 OVC070 12/00 A3000 RMK SC7AC1 SLP181 DENSITY ALT 3200FT

CYQF;2015-05-14 20:00;CYQF 142000Z 15014G20KT 15SM BKN058 BKN080 13/01 A2999 RMK SC5AC2 SLP175 DENSITY ALT 3300FT

CYQF;2015-05-14 21:00;CYQF 142100Z 15015G21KT 15SM BKN052 OVC080 13/00 A2999 RMK SC6AC2 SLP173 DENSITY ALT 3300FT

CYQF;2015-05-14 22:00;CYQF 142200Z 17013G19KT 15SM OVC050 13/02 A2998 RMK SC8 SLP172 DENSITY ALT 3300FT

CYQF;2015-05-14 23:00;CYQF 142300Z 18013G19KT 15SM FEW050 BKN120 BKN250 13/05 A2997 RMK SC2AC3CI1 SLP166 DENSITY ALT 3300FT

CYQF;2015-05-15 00:00;CYQF 150000Z 19012G20KT 15SM FEW040 BKN100 13/04 A2996 RMK SC2AC3 SLP165 DENSITY ALT 3300FT

CYQF;2015-05-15 01:00;CYQF 150100Z 18016G22KT 15SM SCT038 BKN100 13/03 A2995 RMK SC4AC2 SLP161 DENSITY ALT 3300FT

CYQF;2015-05-15 02:00;CYQF 150200Z 17011KT 15SM SCT045 BKN100 11/04 A2994 RMK SC3AC3 SLP160 DENSITY ALT 3100FT

CYQF;2015-05-15 03:00;CYQF 150300Z 19009KT 15SM SCT050 BKN100 10/04 A2994 RMK SC3AC3 SLP158 DENSITY ALT 3000FT

CYQF;2015-05-15 04:00;CYQF 150400Z 18008KT 15SM SCT050 BKN100 09/04 A2995 RMK SC4AC3 SLP159

CYQF;2015-05-15 05:00;CYQF 150500Z 17005KT 15SM SCT050 BKN100 08/04 A2994 RMK SC4AC3 SLP155

CYQF;2015-05-15 06:00;CYQF 150600Z 17004KT 15SM BKN050 OVC100 09/05 A2993 RMK SC6AC2 SLP152

CYQF;2015-05-15 07:00;CYQF 150700Z 13005KT 15SM SCT045 BKN100 07/04 A2992 RMK SC4AC3 SLP149

CYQF;2015-05-15 08:00;CYQF 150800Z 13006KT 15SM OVC040 08/05 A2991 RMK SC8 SLP145

CYQF;2015-05-15 09:00;CYQF 150900Z 14006KT 10SM BKN035 OVC050 08/05 A2991 RMK SC5SC3 SLP144

CYQF;2015-05-15 10:00;CYQF 151000Z 13006KT 10SM FEW035 BKN050 08/05 A2989 RMK SC2SC5 SLP137

CYQF;2015-05-15 11:00;CYQF 151100Z 15010KT 15SM FEW050 BKN075 BKN120 07/01 A2989 RMK SC2AC4AC1 SLP139

CYQF;2015-05-15 12:00;CYQF 151200Z 15013KT 15SM VCSH BKN040 OVC100 06/03 A2989 RMK SC5AC3 VIS S 5 SLP139

CYQF;2015-05-15 12:06;CYQF 151206Z 15011G17KT 6SM -SHRA BKN040 OVC100 06/03 A2989 RMK SC6AC2 SLP141

CYQF;2015-05-15 13:00;CYQF 151300Z 14007KT 10SM -SHRA BKN050 OVC100 06/04 A2988 RMK SC6AC2 SLP138

CYQF;2015-05-15 13:15;CYQF 151315Z 15006KT 12SM VCSH BKN055 OVC100 07/04 A2989 RMK SC6AC2 SLP139

CYQF;2015-05-15 14:00;CYQF 151400Z 15008KT 12SM VCSH BKN050 BKN100 07/04 A2988 RMK SC6AC1 SLP139

CYQF;2015-05-15 15:00;CYQF 151500Z 14011KT 12SM VCSH BKN043 BKN100 09/07 A2988 RMK SC6AC1 SLP136 DENSITY ALT 3000FT

CYQF;2015-05-15 16:00;CYQF 151600Z 17013KT 10SM VCSH BKN020 OVC040 11/07 A2987 RMK CU5SC3 SLP133 DENSITY ALT 3200FT

CYQF;2015-05-15 17:00;CYQF 151700Z 17015G22KT 10SM VCSH SCT020 OVC040 12/07 A2987 RMK CU4SC4 SLP133 DENSITY ALT 3300FT

CYQF;2015-05-15 18:00;CYQF 151800Z 15020G25KT 12SM VCSH BKN020 OVC040 11/06 A2987 RMK CU6SC2 SLP134 DENSITY ALT 3200FT

CYQF;2015-05-15 19:00;CYQF 151900Z 14017KT 15SM BKN020 12/07 A2986 RMK SC7 CU SLP131 DENSITY ALT 3300FT

CYQF;2015-05-15 20:00;CYQF 152000Z 16015G20KT 15SM OVC020 12/07 A2986 RMK SC8 SLP129 DENSITY ALT 3300FT

CYQF;2015-05-15 21:00;CYQF 152100Z 17016G21KT 15SM OVC028 13/06 A2985 RMK SC8 SLP123 DENSITY ALT 3500FT

CYQF;2015-05-15 22:00;CYQF 152200Z 16012G18KT 15SM BKN030 13/07 A2983 RMK SC7 SLP117 DENSITY ALT 3500FT

CYQF;2015-05-15 23:00;CYQF 152300Z 17013G21KT 15SM SCT030 BKN180 14/06 A2982 RMK SC4AC3 SLP112 DENSITY ALT 3600FT

CYQF;2015-05-16 00:00;CYQF 160000Z 17017KT 15SM BKN036 BKN180 16/06 A2981 RMK SC6AC1 SLP110 DENSITY ALT 3800FT

CYQF;2015-05-16 01:00;CYQF 160100Z CCA 15013G21KT 15SM SCT034 BKN220 15/06 A2980 RMK SC3CI2 SLP108 DENSITY ALT 3700FT

CYQF;2015-05-16 02:00;CYQF 160200Z 17015KT 15SM SCT030 BKN220 14/05 A2981 RMK SC3CI3 SLP109 DENSITY ALT 3600FT

CYQF;2015-05-16 03:00;CYQF 160300Z 17011KT 15SM SCT040 BKN250 13/06 A2982 RMK SC4CI3 SLP113 DENSITY ALT 3500FT

CYQF;2015-05-16 04:00;CYQF 160400Z 17007KT 15SM SCT040 BKN250 10/05 A2984 RMK SC4CI2 SLP121 DENSITY ALT 3200FT

CYQF;2015-05-16 05:00;CYQF 160500Z 14004KT 15SM SCT140 08/05 A2985 RMK AC4 SLP125

CYQF;2015-05-16 06:00;CYQF 160600Z 16003KT 15SM BKN150 08/05 A2985 RMK AC6 SLP126

CYQF;2015-05-16 07:00;CYQF 160700Z 19002KT 15SM FEW100 SCT160 06/04 A2984 RMK AC2AC2 SLP124

CYQF;2015-05-16 08:00;CYQF 160800Z VRB02KT 15SM BKN080 BKN110 07/05 A2984 RMK AC5AC2 SLP123

CYQF;2015-05-16 09:00;CYQF 160900Z 34004KT 310V020 15SM SCT060 OVC080 06/05 A2986 RMK SC4AC4 SLP128

CYQF;2015-05-16 10:00;CYQF 161000Z 33004KT 15SM OVC060 07/05 A2986 RMK SC8 SLP129

CYQF;2015-05-16 11:00;CYQF 161100Z 06003KT 12SM VCSH OVC050 07/05 A2987 RMK SC8 SLP131

CYQF;2015-05-16 11:07;CYQF 161107Z 05002KT 12SM -RA OVC045 07/06 A2987 RMK SC8 SLP132

CYQF;2015-05-16 12:00;CYQF 161200Z 00000KT 10SM -RA OVC033 07/06 A2989 RMK SC8 SLP137

CYQF;2015-05-16 13:00;CYQF 161300Z 29003KT 6SM -RA BR OVC037 08/06 A2992 RMK SC8 SLP145

CYQF;2015-05-16 13:18;CYQF 161318Z 34002KT 2SM -RA BR OVC036 08/06 A2992 RMK SC8 SLP147

CYQF;2015-05-16 14:00;CYQF 161400Z 36003KT 2SM -RA BR OVC033 08/07 A2993 RMK SC8 SLP151

CYQF;2015-05-16 15:00;CYQF 161500Z 36005KT 2 1/2SM -RA BR SCT004 OVC040 09/08 A2994 RMK SF3SC5 SLP154

CYQF;2015-05-16 15:34;CYQF 161534Z 01007KT 3SM -RA BR SCT004 BKN022 OVC040 09/08 A2995 RMK CF3SC3SC2 SLP156

CYQF;2015-05-16 16:00;CYQF 161600Z 01008KT 3SM -RA BR FEW007 BKN023 OVC040 10/08 A2995 RMK CF2SC3SC3 SLP160

CYQF;2015-05-16 16:20;CYQF 161620Z 01007KT 3SM -RA BR BKN009 OVC021 10/09 A2996 RMK SC6SC2 VIS N 2 SLP162 DENSITY ALT 3000FT

CYQF;2015-05-16 17:00;CYQF 161700Z 02013KT 3SM -RA BR BKN009 OVC022 09/08 A2997 RMK SC5SC3 SLP170

CYQF;2015-05-16 18:00;CYQF 161800Z 02015KT 3SM -RA BR OVC010 09/08 A2999 RMK SC8 CIG RAG SLP176

CYQF;2015-05-16 19:00;CYQF 161900Z 02018G26KT 6SM -RA BR OVC008 07/07 A3001 RMK SC8 CIG RAG SLP189

CYQF;2015-05-16 20:00;CYQF 162000Z 02017G26KT 6SM -RA BR OVC008 06/05 A3006 RMK SC8 CIG RAG SLP203

CYQF;2015-05-16 21:00;CYQF 162100Z 02020G28KT 5SM -RA BR OVC008 05/04 A3009 RMK SC8 CIG RAG SLP219

CYQF;2015-05-16 22:00;CYQF 162200Z 02020KT 6SM -RA BR OVC008 05/04 A3013 RMK SF8 SLP230

CYQF;2015-05-16 23:00;CYQF 162300Z 02017G25KT 8SM -RA BKN008 OVC013 04/02 A3016 RMK SF6SC2 SLP245

CYQF;2015-05-16 23:49;CYQF 162349Z 36015KT 8SM -RASN BKN008 OVC015 02/01 A3020 RMK SF6SC2 SLP258

CYQF;2015-05-17 00:00;CYQF 170000Z 01012G17KT 5SM -RASN BKN008 OVC018 02/01 A3020 RMK SF5SC3 SLP258

CYQF;2015-05-17 00:19;CYQF 170019Z 01009G16KT 12SM -RASN SCT008 OVC024 03/01 A3020 RMK SF3SC5 SLP259

CYQF;2015-05-17 00:39;CYQF 170039Z 33005KT 15SM -RA FEW009 OVC033 03/01 A3020 RMK SF2SC6 SLP258

CYQF;2015-05-17 01:00;CYQF 170100Z 34011KT 15SM OVC040 04/01 A3020 RMK SC8 SLP257

CYQF;2015-05-17 02:00;CYQF 170200Z 30012KT 15SM FEW009 OVC045 04/02 A3022 RMK SF2SC6 SLP264

CYQF;2015-05-17 03:00;CYQF 170300Z 30013KT 15SM FEW009 OVC050 03/02 A3025 RMK SF2SC6 SLP271

CYQF;2015-05-17 04:00;CYQF 170400Z 31013KT 15SM SCT009 OVC055 03/02 A3027 RMK SF3SC5 SLP278

CYQF;2015-05-17 05:00;CYQF 170500Z 31010KT 15SM SCT009 BKN055 OVC080 03/02 A3029 RMK SF3SC3AC2 SLP286

CYQF;2015-05-17 06:00;CYQF 170600Z 33007KT 15SM OVC080 03/01 A3030 RMK AC8 SLP290

CYQF;2015-05-17 07:00;CYQF 170700Z 32007KT 15SM BKN090 03/01 A3032 RMK AC6 SLP298

CYQF;2015-05-17 08:00;CYQF 170800Z 35004KT 15SM FEW100 02/00 A3033 RMK AC2 SLP304

CYQF;2015-05-17 09:00;CYQF 170900Z 04003KT 15SM FEW100 01/M00 A3034 RMK AC2 SLP310

CYQF;2015-05-17 10:00;CYQF 171000Z 08004KT 15SM FEW170 00/M02 A3034 RMK AC2 SLP313

CYQF;2015-05-17 11:00;CYQF 171100Z 08004KT 15SM BKN140 00/M03 A3035 RMK AC6 SLP316

CYQF;2015-05-17 12:00;CYQF 171200Z 07005KT 15SM SCT140 BKN240 M01/M04 A3035 RMK AC4CI3 SLP321

CYQF;2015-05-17 13:00;CYQF 171300Z 07005KT 15SM FEW140 BKN250 M01/M04 A3036 RMK AC2CI4 SLP320

CYQF;2015-05-17 14:00;CYQF 171400Z 08007KT 15SM FEW150 BKN250 00/M04 A3037 RMK AC1CI5 SLP325

CYQF;2015-05-17 15:00;CYQF 171500Z 11007KT 080V150 15SM SCT150 BKN250 02/M03 A3038 RMK AC4CC3 SLP326

CYQF;2015-05-17 16:00;CYQF 171600Z 12004KT 090V170 15SM BKN150 BKN250 04/M03 A3039 RMK AC5CC2 SLP326

CYQF;2015-05-17 17:00;CYQF 171700Z 12005KT 080V140 15SM FEW030 FEW130 BKN250 05/M04 A3039 RMK CU1AC1CI4 CU TR SLP325

CYQF;2015-05-17 18:00;CYQF 171800Z 06007KT 020V130 15SM FEW048 SCT130 BKN250 06/M05 A3038 RMK CU1AC3CI4 CU TR SLP322

CYQF;2015-05-17 19:00;CYQF 171900Z 11008KT 010V140 15SM FEW040 BKN250 08/M02 A3038 RMK CU1CI6 CU TR SLP318

CYQF;2015-05-17 20:00;CYQF 172000Z 10007KT 080V190 15SM FEW052 BKN250 09/M02 A3036 RMK CU1CI6 CU TR SLP314

CYQF;2015-05-17 21:00;CYQF 172100Z 09005KT 15SM BKN250 11/02 A3036 RMK CI6 WND ESTD SLP311

CYQF;2015-05-17 22:00;CYQF 172200Z 12008KT 080V160 15SM BKN250 10/M04 A3035 RMK CI6 SLP312

CYQF;2015-05-17 23:00;CYQF 172300Z 16010G15KT 15SM BKN250 10/M04 A3036 RMK CI6 SLP312

CYQF;2015-05-18 00:00;CYQF 180000Z 15010KT 120V180 15SM BKN250 11/M04 A3036 RMK CI6 SLP312

CYQF;2015-05-18 01:00;CYQF 180100Z 16008G15KT 15SM BKN250 11/M05 A3035 RMK CI6 SLP310

CYQF;2015-05-18 02:00;CYQF 180200Z 13010G15KT 15SM BKN250 10/M04 A3036 RMK CI6 SLP313

CYQF;2015-05-18 03:00;CYQF 180300Z 13006KT 15SM BKN250 08/M03 A3035 RMK CI5 SLP311

CYQF;2015-05-18 04:00;CYQF 180400Z 13005KT 15SM SCT250 07/M03 A3036 RMK CI4 SLP312

CYQF;2015-05-18 05:00;CYQF 180500Z 13006KT 15SM SCT250 05/M03 A3035 RMK CI3 SLP310

CYQF;2015-05-18 06:00;CYQF 180600Z 15004KT 15SM SKC 04/M04 A3035 RMK SLP310

CYQF;2015-05-18 07:00;CYQF 180700Z 15007KT 15SM SKC 02/M04 A3034 RMK SLP308

CYQF;2015-05-18 08:00;CYQF 180800Z 13007KT 15SM SKC 02/M03 A3034 RMK SLP306

CYQF;2015-05-18 09:00;CYQF 180900Z 15010KT 15SM SKC 03/M04 A3034 RMK SLP302

CYQF;2015-05-18 10:00;CYQF 181000Z 16007KT 15SM FEW220 01/M04 A3034 RMK CI2 SLP307

CYQF;2015-05-18 11:00;CYQF 181100Z 16009KT 15SM FEW210 01/M04 A3034 RMK CI2 SLP307

CYQF;2015-05-18 12:00;CYQF 181200Z 16008KT 15SM BKN250 00/M05 A3034 RMK CI5 SLP307

CYQF;2015-05-18 13:00;CYQF 181300Z 14012KT 15SM FEW140 BKN250 02/M04 A3035 RMK AC1CI5 SLP306

CYQF;2015-05-18 14:00;CYQF 181400Z 15012KT 15SM BKN250 04/M04 A3035 RMK CI6 SLP307

CYQF;2015-05-18 15:00;CYQF 181500Z 16013KT 15SM BKN250 08/M04 A3035 RMK CI6 SLP305

CYQF;2015-05-18 16:00;CYQF 181600Z 16015KT 15SM BKN250 10/M04 A3035 RMK CI7 SLP303

CYQF;2015-05-18 17:00;CYQF 181700Z 16018KT 15SM BKN250 10/M05 A3035 RMK CI7 SLP304

CYQF;2015-05-18 18:00;CYQF 181800Z 16015G26KT 15SM BKN200 11/M05 A3034 RMK CI7 SLP301

CYQF;2015-05-18 19:00;CYQF 181900Z 17014G25KT 15SM SCT200 BKN260 13/M04 A3033 RMK CI3CI4 SLP296

CYQF;2015-05-18 20:00;CYQF 182000Z 17015G25KT 130V220 15SM BKN250 14/M03 A3032 RMK CI7 SLP292 DENSITY ALT 3100FT

CYQF;2015-05-18 21:00;CYQF 182100Z 17018G24KT 15SM BKN250 15/M03 A3031 RMK CI6 SLP288 DENSITY ALT 3200FT

CYQF;2015-05-18 22:00;CYQF 182200Z 16017G23KT 15SM BKN250 16/M04 A3029 RMK CI6 SLP282 DENSITY ALT 3300FT

CYQF;2015-05-18 23:00;CYQF 182300Z 16018G24KT 15SM SCT260 16/M05 A3028 RMK CI4 SLP279 DENSITY ALT 3300FT

CYQF;2015-05-19 00:00;CYQF 190000Z 14015G23KT 15SM SCT260 16/M03 A3027 RMK CI4 SLP276 DENSITY ALT 3300FT

CYQF;2015-05-19 01:00;CYQF 190100Z 15016KT 15SM FEW260 15/M04 A3027 RMK CI2 SLP272 DENSITY ALT 3300FT

CYQF;2015-05-19 02:00;CYQF 190200Z 15012KT 15SM FEW260 14/M05 A3026 RMK CI1 CI TR SLP270 DENSITY ALT 3200FT

CYQF;2015-05-19 03:00;CYQF 190300Z 14009KT 15SM SKC 12/M05 A3026 RMK SLP269

CYQF;2015-05-19 04:00;CYQF 190400Z 14010KT 15SM SKC 09/M06 A3027 RMK SLP274

CYQF;2015-05-19 05:00;CYQF 190500Z 14010KT 15SM SKC 07/M06 A3028 RMK SLP276

CYQF;2015-05-19 06:00;CYQF 190600Z 14009KT 15SM SKC 06/M06 A3028 RMK SLP278

CYQF;2015-05-19 07:00;CYQF 190700Z 17006KT 15SM SKC 04/M05 A3028 RMK SLP279

CYQF;2015-05-19 08:00;CYQF 190800Z 15005KT 15SM SKC 03/M06 A3028 RMK SLP278

CYQF;2015-05-19 09:00;CYQF 190900Z 15006KT 15SM SKC 02/M06 A3028 RMK SLP278

CYQF;2015-05-19 10:00;CYQF 191000Z 15006KT 15SM SKC 01/M06 A3028 RMK SLP276

CYQF;2015-05-19 11:00;CYQF 191100Z 15006KT 15SM SKC 02/M06 A3027 RMK SLP275

CYQF;2015-05-19 12:00;CYQF 191200Z 16006KT 15SM SKC 01/M06 A3027 RMK SLP275

CYQF;2015-05-19 13:00;CYQF 191300Z 15005KT 15SM SKC 03/M04 A3028 RMK SLP276

CYQF;2015-05-19 14:00;CYQF 191400Z 15008KT 15SM SKC 06/M04 A3028 RMK SLP275

CYQF;2015-05-19 15:00;CYQF 191500Z 14011KT 15SM SKC 09/M03 A3028 RMK SLP275

CYQF;2015-05-19 16:00;CYQF 191600Z 15014KT 15SM SKC 13/M04 A3029 RMK SLP276

CYQF;2015-05-19 17:00;CYQF 191700Z 16015G24KT 15SM SKC 14/M04 A3028 RMK SLP273 DENSITY ALT 3100FT

CYQF;2015-05-19 18:00;CYQF 191800Z 16017G22KT 15SM SKC 15/M04 A3028 RMK SLP273 DENSITY ALT 3200FT

CYQF;2015-05-19 19:00;CYQF 191900Z 16019G24KT 15SM SKC 17/M04 A3027 RMK SLP269 DENSITY ALT 3400FT

CYQF;2015-05-19 20:00;CYQF 192000Z 17018G24KT 15SM SKC 17/M04 A3026 RMK SLP266 DENSITY ALT 3500FT

CYQF;2015-05-19 21:00;CYQF 192100Z 17016G25KT 15SM SKC 18/M06 A3025 RMK SLP263 DENSITY ALT 3500FT

CYQF;2015-05-19 22:00;CYQF 192200Z 14014KT 15SM SKC 18/M05 A3024 RMK SLP259 DENSITY ALT 3600FT

CYQF;2015-05-19 23:00;CYQF 192300Z 15017KT 130V200 15SM SKC 18/M06 A3023 RMK SLP255 DENSITY ALT 3600FT

CYQF;2015-05-20 00:00;CYQF 200000Z 17015KT 15SM SKC 18/M05 A3021 RMK SLP249 DENSITY ALT 3700FT

CYQF;2015-05-20 01:00;CYQF 200100Z 14012KT 15SM SKC 18/M06 A3019 RMK WND ESTD SLP243 DENSITY ALT 3700FT

CYQF;2015-05-20 02:00;CYQF 200200Z 16012KT 15SM SKC 17/M05 A3019 RMK SLP238 DENSITY ALT 3500FT

CYQF;2015-05-20 03:00;CYQF 200300Z 14008KT 15SM SKC 14/M05 A3019 RMK SLP240 DENSITY ALT 3200FT

CYQF;2015-05-20 04:00;CYQF 200400Z 14007KT 15SM SKC 10/M04 A3020 RMK SLP242

CYQF;2015-05-20 05:00;CYQF 200500Z 14007KT 15SM SKC 08/M03 A3020 RMK SLP244

CYQF;2015-05-20 06:00;CYQF 200600Z 15009KT 15SM SKC 07/M04 A3020 RMK SLP243

CYQF;2015-05-20 07:00;CYQF 200700Z 22004KT 160V240 15SM SKC 07/M04 A3019 RMK SLP240

CYQF;2015-05-20 08:00;CYQF 200800Z 16003KT 15SM SKC 05/M03 A3019 RMK SLP240

CYQF;2015-05-20 09:00;CYQF 200900Z 15007KT 15SM SKC 05/M04 A3019 RMK SLP239

CYQF;2015-05-20 10:00;CYQF 201000Z 18005KT 15SM SKC 04/M04 A3018 RMK SLP237

CYQF;2015-05-20 11:00;CYQF 201100Z 15006KT 15SM SKC 03/M04 A3018 RMK SLP238

CYQF;2015-05-20 12:00;CYQF 201200Z 16006KT 15SM SKC 02/M05 A3018 RMK SLP238

CYQF;2015-05-20 13:00;CYQF 201300Z 15008KT 15SM SKC 05/M03 A3017 RMK SLP234

CYQF;2015-05-20 14:00;CYQF 201400Z 16010KT 15SM FEW250 09/M03 A3017 RMK CI1 CI TR SLP231

CYQF;2015-05-20 15:00;CYQF 201500Z 15011KT 15SM FEW260 13/M03 A3016 RMK CC1 SLP226 DENSITY ALT 3100FT

CYQF;2015-05-20 16:00;CYQF 201600Z 14015G22KT 15SM FEW250 16/M04 A3015 RMK CI1 SLP224 DENSITY ALT 3400FT

CYQF;2015-05-20 17:00;CYQF 201700Z 15018G26KT 15SM FEW260 17/M05 A3014 RMK CI1 SLP222 DENSITY ALT 3500FT

CYQF;2015-05-20 18:00;CYQF 201800Z 16018G25KT 15SM FEW260 18/M03 A3014 RMK CI1 SLP219 DENSITY ALT 3700FT

CYQF;2015-05-20 19:00;CYQF 201900Z 17016G25KT 15SM FEW260 19/M03 A3013 RMK CI1 SLP215 DENSITY ALT 3800FT

CYQF;2015-05-20 20:00;CYQF 202000Z 17020G27KT 15SM FEW260 20/M03 A3012 RMK CI1 SLP212 DENSITY ALT 4000FT

CYQF;2015-05-20 21:00;CYQF 202100Z 17018G26KT 15SM FEW260 20/M05 A3010 RMK CI1 SLP207 DENSITY ALT 4000FT

CYQF;2015-05-20 22:00;CYQF 202200Z 14013G28KT 15SM FEW260 20/M06 A3009 RMK CI1 SLP205 DENSITY ALT 4000FT

CYQF;2015-05-20 23:00;CYQF 202300Z 17021KT 15SM FEW260 21/M05 A3008 RMK CI1 SLP200 DENSITY ALT 4100FT

CYQF;2015-05-21 00:00;CYQF 210000Z 16017G25KT 15SM SKC 20/M07 A3007 RMK SLP199 DENSITY ALT 4000FT

CYQF;2015-05-21 01:00;CYQF 210100Z 15016G24KT 15SM SKC 20/M06 A3006 RMK SLP190 DENSITY ALT 4000FT

CYQF;2015-05-21 02:00;CYQF 210200Z 16017G23KT 15SM SKC 19/M07 A3004 RMK SLP183 DENSITY ALT 3900FT

CYQF;2015-05-21 03:00;CYQF 210300Z 14009KT 15SM SKC 16/M05 A3004 RMK SLP182 DENSITY ALT 3600FT

CYQF;2015-05-21 04:00;CYQF 210400Z 14008KT 15SM SKC 12/M05 A3005 RMK SLP186 DENSITY ALT 3100FT

CYQF;2015-05-21 05:00;CYQF 210500Z 14010KT 15SM SKC 10/M06 A3005 RMK SLP187

CYQF;2015-05-21 06:00;CYQF 210600Z 13008KT 15SM SKC 09/M04 A3005 RMK SLP188

CYQF;2015-05-21 07:00;CYQF 210700Z 14010KT 15SM SKC 09/M05 A3005 RMK SLP184

CYQF;2015-05-21 08:00;CYQF 210800Z 16005KT 15SM SKC 09/M04 A3005 RMK SLP183

CYQF;2015-05-21 09:00;CYQF 210900Z 15009KT 15SM SKC 07/M04 A3004 RMK SLP183

CYQF;2015-05-21 10:00;CYQF 211000Z 15010KT 15SM SKC 06/M03 A3004 RMK SLP184

CYQF;2015-05-21 11:00;CYQF 211100Z 16009KT 15SM SKC 05/M03 A3004 RMK SLP184

CYQF;2015-05-21 12:00;CYQF 211200Z 16009KT 15SM SKC 05/M03 A3005 RMK SLP189

CYQF;2015-05-21 13:00;CYQF 211300Z 14009KT 15SM SKC 06/M02 A3004 RMK SLP185

CYQF;2015-05-21 14:00;CYQF 211400Z 15011KT 15SM SKC 09/M02 A3004 RMK SLP182

CYQF;2015-05-21 15:00;CYQF 211500Z 13009KT 15SM FEW260 12/M00 A3004 RMK CI1 SLP181 DENSITY ALT 3100FT

CYQF;2015-05-21 16:00;CYQF 211600Z 13012KT 15SM FEW250 16/M01 A3003 RMK CI1 CI TR SLP178 DENSITY ALT 3600FT

CYQF;2015-05-21 17:00;CYQF 211700Z 16019G25KT 15SM FEW250 18/M03 A3002 RMK CI1 CI TR SLP176 DENSITY ALT 3800FT

CYQF;2015-05-21 18:00;CYQF 211800Z 15019G26KT 15SM FEW090 FEW250 19/M03 A3001 RMK CU1CI1 CU TR CI TR SLP173 DENSITY ALT 4000FT

CYQF;2015-05-21 19:00;CYQF 211900Z 17016G23KT 15SM FEW088 FEW250 20/M04 A3001 RMK CU1CI1 CU TR CI TR SLP169 DENSITY ALT 4100FT

CYQF;2015-05-21 20:00;CYQF 212000Z 16015G22KT 15SM FEW100 FEW250 21/M05 A3000 RMK CU1CI1 CU TR CI TR SLP165 DENSITY ALT 4200FT

CYQF;2015-05-21 21:00;CYQF 212100Z 17014G24KT 15SM FEW100 FEW250 22/M06 A2998 RMK AC1CI1 AC TR CI TR SLP162 DENSITY ALT 4300FT

CYQF;2015-05-21 22:00;CYQF 212200Z 17013G22KT 130V190 15SM FEW100 FEW250 23/M05 A2997 RMK CU1CI1 CU TR CI TR SLP157 DENSITY ALT 4400FT

CYQF;2015-05-21 23:00;CYQF 212300Z 17014G21KT 15SM FEW100 FEW250 22/M05 A2996 RMK CU1CI1 CU TR CI TR SLP154 DENSITY ALT 4400FT

CYQF;2015-05-22 00:00;CYQF 220000Z 15015G21KT 15SM FEW080 FEW250 23/M07 A2995 RMK CU1CI2 CU TR SLP150 DENSITY ALT 4500FT

CYQF;2015-05-22 01:00;CYQF 220100Z 17013G20KT 15SM FEW250 22/M06 A2993 RMK CI2 SLP144 DENSITY ALT 4400FT

CYQF;2015-05-22 02:00;CYQF 220200Z 17013G19KT 15SM FEW250 21/M06 A2994 RMK CI2 SLP144 DENSITY ALT 4300FT

CYQF;2015-05-22 03:00;CYQF 220300Z 15006KT 15SM FEW250 17/M03 A2994 RMK CI1 SLP147 DENSITY ALT 3800FT

CYQF;2015-05-22 04:00;CYQF 220400Z 13008KT 15SM FEW250 14/M03 A2995 RMK CI1 SLP150 DENSITY ALT 3400FT

CYQF;2015-05-22 05:00;CYQF 220500Z 14005KT 15SM FEW250 10/M04 A2996 RMK CI1 SLP153 DENSITY ALT 3000FT

CYQF;2015-05-22 06:00;CYQF 220600Z 17005KT 15SM SKC 10/M05 A2996 RMK SLP152 DENSITY ALT 3000FT

CYQF;2015-05-22 07:00;CYQF 220700Z 17004KT 15SM SKC 10/M04 A2996 RMK SLP152 DENSITY ALT 3000FT

CYQF;2015-05-22 08:00;CYQF 220800Z 16003KT 15SM SKC 07/M03 A2996 RMK SLP156

CYQF;2015-05-22 09:00;CYQF 220900Z 18003KT 15SM SKC 09/M04 A2997 RMK SLP153

CYQF;2015-05-22 10:00;CYQF 221000Z 00000KT 15SM SKC 06/M03 A2997 RMK SLP157

CYQF;2015-05-22 11:00;CYQF 221100Z 14003KT 15SM FEW240 06/M03 A2997 RMK CI1 SLP157

CYQF;2015-05-22 12:00;CYQF 221200Z 29002KT 15SM FEW240 06/M03 A2997 RMK CI1 SLP157

CYQF;2015-05-22 13:00;CYQF 221300Z 19006KT 15SM FEW240 08/M02 A2998 RMK CI2 SLP160

CYQF;2015-05-22 14:00;CYQF 221400Z 18002KT 15SM FEW250 10/M01 A2999 RMK CI2 SLP161 DENSITY ALT 3000FT

CYQF;2015-05-22 15:00;CYQF 221500Z 16004KT 130V200 15SM FEW250 13/M00 A3000 RMK CI2 SLP165 DENSITY ALT 3300FT

CYQF;2015-05-22 16:00;CYQF 221600Z 16003KT 100V190 15SM SCT250 17/01 A3000 RMK CI3 SLP166 DENSITY ALT 3700FT

CYQF;2015-05-22 17:00;CYQF 221700Z 14007KT 100V190 15SM SCT250 20/02 A3000 RMK CI3 SLP166 DENSITY ALT 4100FT

CYQF;2015-05-22 18:00;CYQF 221800Z 12012KT 080V170 15SM SCT250 21/M02 A3000 RMK CI4 SLP166 DENSITY ALT 4200FT

CYQF;2015-05-22 19:00;CYQF 221900Z 14006G15KT 070V190 15SM FEW250 22/M02 A3000 RMK CI2 SLP164 DENSITY ALT 4300FT

CYQF;2015-05-22 20:00;CYQF 222000Z 10006KT 060V170 15SM FEW250 23/M04 A3000 RMK CI1 CI TR SLP167 DENSITY ALT 4400FT

CYQF;2015-05-22 21:00;CYQF 222100Z 13008G18KT 110V180 15SM FEW250 23/M06 A3000 RMK CI1 CI TR SLP162 DENSITY ALT 4500FT

CYQF;2015-05-22 22:00;CYQF 222200Z 15010KT 140V230 15SM FEW100 FEW250 24/M05 A2998 RMK CU1CI1 SLP161 DENSITY ALT 4500FT

CYQF;2015-05-22 23:00;CYQF 222300Z 00000KT 15SM FEW100 FEW250 24/M05 A2998 RMK CU1CI1 CU TR CI TR SLP161 DENSITY ALT 4500FT

CYQF;2015-05-23 00:00;CYQF 230000Z 06010KT 030V100 15SM FEW100 FEW250 24/M06 A2998 RMK CU1CI1 CU TR CI TR SLP160 DENSITY ALT 4600FT

CYQF;2015-05-23 01:00;CYQF 230100Z 08009G15KT 15SM SKC 23/M04 A2999 RMK SLP160 DENSITY ALT 4500FT

CYQF;2015-05-23 02:00;CYQF 230200Z 08011KT 15SM FEW270 22/M05 A2999 RMK CI1 SLP160 DENSITY ALT 4300FT

CYQF;2015-05-23 03:00;CYQF 230300Z 08006KT 15SM FEW270 19/M02 A3000 RMK CI1 SLP165 DENSITY ALT 4000FT

CYQF;2015-05-23 04:00;CYQF 230400Z 10005KT 15SM FEW250 15/M03 A3002 RMK CI1 CI TR SLP171 DENSITY ALT 3500FT

CYQF;2015-05-23 05:00;CYQF 230500Z 04003KT 15SM FEW250 15/M03 A3004 RMK CI1 CI TR SLP173 DENSITY ALT 3500FT

CYQF;2015-05-23 06:00;CYQF 230600Z 01004KT 15SM SKC 13/M02 A3004 RMK SLP176 DENSITY ALT 3200FT

CYQF;2015-05-23 07:00;CYQF 230700Z 35003KT 15SM SKC 11/M02 A3005 RMK SLP181 DENSITY ALT 3000FT

CYQF;2015-05-23 08:00;CYQF 230800Z 29002KT 15SM SKC 09/M00 A3006 RMK SLP187

CYQF;2015-05-23 09:00;CYQF 230900Z 00000KT 15SM SKC 07/M02 A3008 RMK SLP193

CYQF;2015-05-23 10:00;CYQF 231000Z VRB02KT 15SM SKC 05/M01 A3009 RMK SLP197

CYQF;2015-05-23 11:00;CYQF 231100Z 21005KT 15SM FEW240 03/M02 A3010 RMK CI1 SLP205

CYQF;2015-05-23 12:00;CYQF 231200Z 21003KT 15SM FEW240 03/M02 A3011 RMK CI1 SLP207

CYQF;2015-05-23 13:00;CYQF 231300Z 20004KT 15SM FEW240 06/01 A3012 RMK CI1 SLP209

CYQF;2015-05-23 14:00;CYQF 231400Z VRB02KT 15SM FEW240 10/01 A3012 RMK CI1 SLP206

CYQF;2015-05-23 15:00;CYQF 231500Z VRB02KT 15SM FEW240 14/00 A3013 RMK CI1 SLP208 DENSITY ALT 3300FT

CYQF;2015-05-23 16:00;CYQF 231600Z VRB02KT 15SM FEW300 19/01 A3014 RMK CI1 SLP210 DENSITY ALT 3800FT

CYQF;2015-05-23 17:00;CYQF 231700Z VRB02KT 15SM FEW072 FEW300 21/M02 A3014 RMK CU1CI1 SLP207 DENSITY ALT 4100FT

CYQF;2015-05-23 18:00;CYQF 231800Z 15005KT 050V170 15SM FEW100 FEW300 23/M06 A3014 RMK CU1CI1 SLP207 DENSITY ALT 4300FT

CYQF;2015-05-23 19:00;CYQF 231900Z VRB02KT 15SM FEW100 24/M07 A3013 RMK CU2 SLP206 DENSITY ALT 4400FT

CYQF;2015-05-23 20:00;CYQF 232000Z 27005KT 210V010 15SM FEW100 24/M07 A3012 RMK CU2 SLP204 DENSITY ALT 4400FT

CYQF;2015-05-23 21:00;CYQF 232100Z 00000KT 15SM FEW100 24/M08 A3011 RMK CU2 SLP204 DENSITY ALT 4400FT

CYQF;2015-05-23 22:00;CYQF 232200Z VRB03KT 15SM FEW120 25/M07 A3010 RMK CU2 SLP202 DENSITY ALT 4500FT

CYQF;2015-05-23 23:00;CYQF 232300Z VRB02KT 15SM SCT120 25/M05 A3009 RMK CU3 SLP201 DENSITY ALT 4500FT

CYQF;2015-05-24 00:00;CYQF 240000Z 19006KT 160V220 15SM SCT120 25/M06 A3009 RMK CU3 SLP198 DENSITY ALT 4500FT

CYQF;2015-05-24 01:00;CYQF 240100Z 21005KT 160V220 15SM SCT120 25/M06 A3008 RMK CU3 SLP192 DENSITY ALT 4500FT

CYQF;2015-05-24 02:00;CYQF 240200Z 13007KT 15SM FEW110 24/M04 A3007 RMK CU2 SLP187 DENSITY ALT 4400FT

CYQF;2015-05-24 03:00;CYQF 240300Z 15007KT 15SM FEW110 20/M01 A3007 RMK AC2 SLP186 DENSITY ALT 4000FT

CYQF;2015-05-24 04:00;CYQF 240400Z 15005KT 15SM FEW110 FEW270 17/M02 A3007 RMK AC2CI1 CI TR SLP186 DENSITY ALT 3700FT

CYQF;2015-05-24 05:00;CYQF 240500Z 19004KT 15SM SCT110 15/M01 A3008 RMK AC3 SLP187 DENSITY ALT 3500FT

CYQF;2015-05-24 06:00;CYQF 240600Z 17005KT 15SM FEW110 13/M01 A3009 RMK AC2 SLP190 DENSITY ALT 3200FT

CYQF;2015-05-24 07:00;CYQF 240700Z 18005KT 15SM SKC 12/M01 A3008 RMK SLP187 DENSITY ALT 3100FT

CYQF;2015-05-24 08:00;CYQF 240800Z 21003KT 15SM SKC 12/M00 A3008 RMK SLP187 DENSITY ALT 3000FT

CYQF;2015-05-24 09:00;CYQF 240900Z 17002KT 15SM SKC 10/M00 A3007 RMK SLP185

CYQF;2015-05-24 10:00;CYQF 241000Z VRB02KT 15SM FEW110 06/01 A3007 RMK AC1 SLP188

CYQF;2015-05-24 11:00;CYQF 241100Z 19003KT 15SM FEW110 FEW220 06/00 A3006 RMK AC1CI1 SLP186

CYQF;2015-05-24 12:00;CYQF 241200Z 00000KT 15SM FEW110 FEW220 07/01 A3006 RMK AC1CI1 SLP186

CYQF;2015-05-24 13:00;CYQF 241300Z 24002KT 15SM FEW100 SCT250 08/03 A3006 RMK AC1CI4 AC TR SLP184

CYQF;2015-05-24 14:00;CYQF 241400Z 16004KT 15SM FEW100 SCT250 12/01 A3006 RMK AC1CI4 AC TR SLP180 DENSITY ALT 3100FT

CYQF;2015-05-24 15:00;CYQF 241500Z 15008KT 15SM FEW250 16/02 A3005 RMK CI2 SLP176 DENSITY ALT 3600FT

CYQF;2015-05-24 16:00;CYQF 241600Z 19007KT 15SM FEW250 20/02 A3004 RMK CI2 SLP170 DENSITY ALT 4100FT

CYQF;2015-05-24 17:00;CYQF 241700Z 19015G22KT 15SM FEW100 FEW250 23/M02 A3002 RMK CU1CI1 SLP165 DENSITY ALT 4400FT

CYQF;2015-05-24 18:00;CYQF 241800Z 15013G19KT 130V190 15SM SCT100 SCT250 24/M03 A3001 RMK CU3CI1 SLP162 DENSITY ALT 4500FT

CYQF;2015-05-24 19:00;CYQF 241900Z 14014G23KT 15SM SCT100 BKN250 24/M03 A3000 RMK CU4CI2 SLP159 DENSITY ALT 4500FT

CYQF;2015-05-24 20:00;CYQF 242000Z 19015G22KT 15SM SCT100 BKN250 24/M04 A2998 RMK CU4CI2 SLP155 DENSITY ALT 4500FT

CYQF;2015-05-24 21:00;CYQF 242100Z 17015G24KT 120V180 15SM SCT100 BKN250 25/M03 A2997 RMK CU3CI4 SLP151 DENSITY ALT 4600FT

CYQF;2015-05-24 22:00;CYQF 242200Z 16010G19KT 130V200 15SM SCT100 BKN250 24/M02 A2995 RMK CU4CI2 SLP149 DENSITY ALT 4600FT

CYQF;2015-05-24 23:00;CYQF 242300Z 14015KT 15SM SCT100 BKN250 24/M03 A2994 RMK CU3CI3 SLP145 DENSITY ALT 4600FT

CYQF;2015-05-25 00:00;CYQF 250000Z 14014G20KT 15SM SCT100 BKN250 24/M02 A2993 RMK CU3CI3 SLP140 DENSITY ALT 4600FT

CYQF;2015-05-25 01:00;CYQF 250100Z 18011G18KT 15SM FEW100 BKN250 23/M03 A2991 RMK CU2CI5 SLP133 DENSITY ALT 4500FT

CYQF;2015-05-25 02:00;CYQF 250200Z 17011KT 15SM FEW095 BKN250 21/M01 A2990 RMK CU1CI5 SLP129 DENSITY ALT 4400FT

CYQF;2015-05-25 03:00;CYQF 250300Z 15007KT 15SM FEW090 BKN250 18/M00 A2990 RMK AC1CI6 SLP126 DENSITY ALT 4000FT

CYQF;2015-05-25 04:00;CYQF 250400Z 14004KT 15SM BKN250 15/00 A2990 RMK CI6 SLP127 DENSITY ALT 3600FT

CYQF;2015-05-25 05:00;CYQF 250500Z 15005KT 15SM BKN250 14/M00 A2990 RMK CI5 SLP126 DENSITY ALT 3500FT

CYQF;2015-05-25 06:00;CYQF 250600Z 15005KT 15SM SCT250 12/M00 A2990 RMK CI4 SLP125 DENSITY ALT 3300FT

CYQF;2015-05-25 07:00;CYQF 250700Z VRB02KT 15SM SCT250 10/01 A2990 RMK CI3 SLP128 DENSITY ALT 3000FT

CYQF;2015-05-25 08:00;CYQF 250800Z 16002KT 15SM FEW250 10/01 A2990 RMK CI2 SLP127 DENSITY ALT 3000FT

CYQF;2015-05-25 09:00;CYQF 250900Z 07002KT 15SM FEW250 08/01 A2989 RMK CI2 SLP127

CYQF;2015-05-25 10:00;CYQF 251000Z 02002KT 15SM FEW250 07/01 A2989 RMK CI2 SLP126

CYQF;2015-05-25 11:00;CYQF 251100Z 36004KT 15SM FEW250 07/01 A2988 RMK CI1 SLP125

CYQF;2015-05-25 12:00;CYQF 251200Z 35004KT 15SM FEW150 SCT250 08/01 A2988 RMK AC1CI3 AC TR SLP125

CYQF;2015-05-25 13:00;CYQF 251300Z 35003KT 15SM FEW150 FEW250 09/02 A2989 RMK AC1CI1 AC TR SLP125 DENSITY ALT 3000FT

CYQF;2015-05-25 14:00;CYQF 251400Z 18002KT 15SM SCT150 BKN280 12/03 A2989 RMK AC3CI2 SLP124 DENSITY ALT 3300FT

CYQF;2015-05-25 15:00;CYQF 251500Z 15008KT 15SM BKN150 BKN280 16/04 A2989 RMK AC5CI1 SLP123 DENSITY ALT 3800FT

CYQF;2015-05-25 16:00;CYQF 251600Z 17009KT 15SM SCT150 BKN250 19/04 A2989 RMK AC4CI1 SLP122 DENSITY ALT 4100FT

CYQF;2015-05-25 17:00;CYQF 251700Z 15014G19KT 15SM BKN150 BKN250 21/02 A2988 RMK AC5CI1 SLP120 DENSITY ALT 4400FT

CYQF;2015-05-25 18:00;CYQF 251800Z 17017G22KT 130V200 15SM FEW080 BKN250 23/02 A2987 RMK CU1CI4 SLP116 DENSITY ALT 4500FT

CYQF;2015-05-25 19:00;CYQF 251900Z 16014G20KT 15SM FEW085 BKN250 23/01 A2986 RMK CU2CI4 SLP117 DENSITY ALT 4600FT

CYQF;2015-05-25 20:00;CYQF 252000Z 16011G19KT 15SM FEW083 BKN250 23/02 A2986 RMK CU2CI5 SLP117 DENSITY ALT 4500FT

CYQF;2015-05-25 21:00;CYQF 252100Z 14010G16KT 140V200 15SM FEW085 BKN250 23/02 A2985 RMK CU2CI5 SLP114 DENSITY ALT 4600FT

CYQF;2015-05-25 22:00;CYQF 252200Z 12006KT 090V180 15SM SCT090 BKN250 23/01 A2984 RMK CU3CI4 VIRGO SLP111 DENSITY ALT 4700FT

CYQF;2015-05-25 23:00;CYQF 252300Z 09013G19KT 15SM VCSH SCT080 BKN250 23/03 A2985 RMK CU4CI3 SLP112 DENSITY ALT 4600FT

CYQF;2015-05-26 00:00;CYQF 260000Z 07009KT 15SM SCT085 BKN250 23/02 A2984 RMK CU3CI4 SLP109 DENSITY ALT 4600FT

CYQF;2015-05-26 01:00;CYQF 260100Z 07006KT 15SM FEW080 SCT120 BKN250 22/02 A2983 RMK CU2AC2CI3 SLP106 DENSITY ALT 4600FT

CYQF;2015-05-26 02:00;CYQF 260200Z 09014G20KT 15SM SCT100 BKN250 21/02 A2984 RMK AC4CI3 SLP108 DENSITY ALT 4400FT

CYQF;2015-05-26 03:00;CYQF 260300Z 05011KT 15SM SCT100 BKN250 20/01 A2986 RMK AC4CI3 SLP109 DENSITY ALT 4300FT

CYQF;2015-05-26 04:00;CYQF 260400Z 26005KT 15SM SCT080 BKN250 18/04 A2987 RMK AC4CI3 SLP114 DENSITY ALT 4000FT

CYQF;2015-05-26 05:00;CYQF 260500Z 27005KT 15SM SCT080 BKN250 16/04 A2988 RMK AC3CI4 SLP117 DENSITY ALT 3800FT

CYQF;2015-05-26 06:00;CYQF 260600Z 00000KT 15SM SCT090 BKN250 12/04 A2989 RMK AC3CI3 SLP124 DENSITY ALT 3300FT

CYQF;2015-05-26 07:00;CYQF 260700Z 19005KT 15SM FEW090 BKN250 10/04 A2991 RMK AC1CI4 SLP130 DENSITY ALT 3100FT

CYQF;2015-05-26 08:00;CYQF 260800Z 29006KT 15SM SCT250 11/03 A2991 RMK CI4 SLP130 DENSITY ALT 3100FT

CYQF;2015-05-26 09:00;CYQF 260900Z VRB02KT 15SM FEW100 SCT250 10/04 A2992 RMK AC1CI2 SLP136 DENSITY ALT 3000FT

CYQF;2015-05-26 10:00;CYQF 261000Z 00000KT 15SM FEW100 SCT250 08/04 A2992 RMK AC1CC3 SLP137

CYQF;2015-05-26 11:00;CYQF 261100Z 15006KT 060V160 15SM FEW100 SCT250 06/03 A2993 RMK AC1CI2 SLP144

CYQF;2015-05-26 12:00;CYQF 261200Z 32003KT 310V010 15SM FEW100 BKN250 08/04 A2994 RMK AC1CI4 SLP145

CYQF;2015-05-26 13:00;CYQF 261300Z 30003KT 15SM FEW100 BKN250 11/06 A2995 RMK AC1CI4 SLP146 DENSITY ALT 3100FT

CYQF;2015-05-26 14:00;CYQF 261400Z VRB02KT 15SM FEW100 BKN250 14/05 A2996 RMK ACC1CI5 SLP149 DENSITY ALT 3400FT

CYQF;2015-05-26 15:00;CYQF 261500Z 36004KT 330V030 15SM FEW100 BKN250 16/05 A2997 RMK ACC1CI6 SLP148 DENSITY ALT 3700FT

CYQF;2015-05-26 16:00;CYQF 261600Z 35007KT 330V040 15SM FEW100 BKN250 20/04 A2997 RMK AC1CI6 SLP146 DENSITY ALT 4200FT

CYQF;2015-05-26 17:00;CYQF 261700Z 35009KT 15SM FEW100 OVC250 21/06 A2997 RMK ACC2CI6 SLP147 DENSITY ALT 4300FT

CYQF;2015-05-26 18:00;CYQF 261800Z 05012G18KT 010V070 15SM FEW100 BKN250 23/03 A2996 RMK ACC1CI6 SLP148 DENSITY ALT 4500FT

CYQF;2015-05-26 19:00;CYQF 261900Z 02012KT 360V080 15SM SCT100TCU BKN250 24/02 A2996 RMK TCU4CI2 SLP148 DENSITY ALT 4600FT

CYQF;2015-05-26 20:00;CYQF 262000Z 03014G31KT 15SM -SHRA BKN100TCU BKN250 24/03 A2995 RMK TCU5CI1 SLP146 DENSITY ALT 4600FT

CYQF;2015-05-26 20:24;CYQF 262024Z 03013G18KT 15SM BKN100CB BKN250 24/03 A2995 RMK CB5CI1 SLP145 DENSITY ALT 4600FT

CYQF;2015-05-26 20:40;CYQF 262040Z 02012G19KT 15SM TS VCSH BKN085CB BKN250 23/02 A2995 RMK CB6CI1 SLP145 DENSITY ALT 4500FT

CYQF;2015-05-26 21:00;CYQF 262100Z 04010G17KT 010V070 15SM BKN085CB BKN250 24/03 A2995 RMK CB6CI1 SLP145 DENSITY ALT 4500FT

CYQF;2015-05-26 22:00;CYQF 262200Z 19015G21KT 15SM BKN085CB 21/06 A2997 RMK CB7 SLP155 DENSITY ALT 4300FT

CYQF;2015-05-26 23:00;CYQF 262300Z 21010KT 15SM BKN060CB 19/06 A2998 RMK CB7 VCSH SLP164 DENSITY ALT 4000FT

CYQF;2015-05-27 00:00;CYQF 270000Z VRB02KT 15SM VCSH BKN060CB 20/06 A2998 RMK CB7 SLP162 DENSITY ALT 4100FT

CYQF;2015-05-27 01:00;CYQF 270100Z 19007G20KT 120V200 15SM BKN060CB BKN250 20/04 A2996 RMK CB5CI2 SLP153 DENSITY ALT 4100FT

CYQF;2015-05-27 02:00;CYQF 270200Z 22008KT 15SM BKN095CB OVC250 19/05 A2998 RMK CB6CI2 SLP155 DENSITY ALT 4000FT

CYQF;2015-05-27 02:14;CYQF 270214Z 28010G16KT 220V290 15SM BKN088CB OVC250 19/06 A2998 RMK CB6CI2 WIND SHIFT SLP158 DENSITY ALT 4000FT

CYQF;2015-05-27 03:00;CYQF 270300Z 31008G18KT 15SM SCT088CB BKN120 OVC250 15/08 A3002 RMK CB4AC3CI1 SLP170 DENSITY ALT 3500FT

CYQF;2015-05-27 04:00;CYQF 270400Z 35011KT 15SM -SHRA BKN078 OVC120 14/08 A3002 RMK AC7AC1 ACC ASOCTD SLP167 DENSITY ALT 3400FT

CYQF;2015-05-27 04:46;CYQF 270446Z 25003KT 160V300 15SM VCSH SCT080 OVC120 14/08 A3002 RMK AC3AC5 SLP167 DENSITY ALT 3400FT

CYQF;2015-05-27 05:00;CYQF 270500Z 29006KT 270V010 15SM VCSH SCT080 OVC120 13/09 A3001 RMK AC3AC5 SLP166 DENSITY ALT 3300FT

CYQF;2015-05-27 06:00;CYQF 270600Z 32005KT 250V320 15SM BKN130 OVC200 13/08 A3001 RMK AC5CI3 SLP162 DENSITY ALT 3200FT

CYQF;2015-05-27 07:00;CYQF 270700Z VRB02KT 15SM OVC180 11/08 A3002 RMK AC8 SLP166 DENSITY ALT 3100FT

CYQF;2015-05-27 08:00;CYQF 270800Z 29007KT 15SM BKN160 11/08 A3001 RMK AC7 SLP165 DENSITY ALT 3100FT

CYQF;2015-05-27 09:00;CYQF 270900Z 27007KT 15SM SCT120 BKN250 10/08 A3002 RMK AC3CI2 SLP167 DENSITY ALT 3000FT

CYQF;2015-05-27 10:00;CYQF 271000Z 26005KT 15SM FEW120 SCT250 10/07 A3002 RMK AC2CI2 SLP170

CYQF;2015-05-27 11:00;CYQF 271100Z VRB03KT 12SM SCT130 BKN250 08/06 A3002 RMK AC4CI3 SLP176

CYQF;2015-05-27 12:00;CYQF 271200Z 20003KT 12SM FEW120 BKN250 07/06 A3003 RMK AC2CI5 SLP178

CYQF;2015-05-27 13:00;CYQF 271300Z 24002KT 12SM FEW120 BKN250 09/07 A3002 RMK AC1CI6 SLP175

CYQF;2015-05-27 14:00;CYQF 271400Z 20003KT 12SM FEW120 BKN250 11/07 A3002 RMK AC1CI4 SLP172 DENSITY ALT 3000FT

CYQF;2015-05-27 15:00;CYQF 271500Z 28003KT 220V310 12SM SCT250 14/08 A3001 RMK CI4 SLP170 DENSITY ALT 3300FT

CYQF;2015-05-27 16:00;CYQF 271600Z 36003KT 280V020 12SM BKN250 17/07 A2999 RMK CC7 SLP163 DENSITY ALT 3800FT

CYQF;2015-05-27 17:00;CYQF 271700Z VRB05KT 12SM SCT140 BKN250 19/07 A2998 RMK AC3CI4 HZ SLP158 DENSITY ALT 4000FT

CYQF;2015-05-27 18:00;CYQF 271800Z 21005KT 110V250 15SM FEW100 FEW140 BKN250 20/06 A2998 RMK CU1AC1CI3 CU TR SLP157 DENSITY ALT 4100FT

CYQF;2015-05-27 19:00;CYQF 271900Z VRB05KT 15SM FEW060 FEW250 21/06 A2997 RMK CU1CI1 CB TOP DIST SW SLP153 DENSITY ALT 4200FT

CYQF;2015-05-27 20:00;CYQF 272000Z 18005KT 130V280 15SM FEW064 SCT250 22/06 A2995 RMK CU2CI1 SLP143 DENSITY ALT 4400FT

CYQF;2015-05-27 21:00;CYQF 272100Z 17005KT 100V200 15SM BKN065 BKN250 23/06 A2993 RMK CU6CI1 SLP137 DENSITY ALT 4600FT

CYQF;2015-05-27 22:00;CYQF 272200Z 19005KT 170V260 15SM BKN065TCU BKN250 23/06 A2992 RMK TCU6CI1 SLP135 DENSITY ALT 4500FT

CYQF;2015-05-27 22:19;CYQF 272219Z 25006KT 12SM -SHRA BKN065TCU 21/08 A2992 RMK TCU7 SLP137 DENSITY ALT 4300FT

CYQF;2015-05-27 23:00;CYQF 272300Z 22012KT 190V250 12SM -SHRA BKN060CB 21/07 A2991 RMK CB7 SLP136 DENSITY ALT 4300FT

CYQF;2015-05-27 23:17;CYQF 272317Z 22009G15KT 15SM -TSRA BKN060CB 20/08 A2991 RMK CB7 SLP137 DENSITY ALT 4200FT

CYQF;2015-05-27 23:39;CYQF 272339Z 26012G17KT 220V280 15SM -SHRAGR BKN060CB 19/09 A2991 RMK CB6 HAIL DIAM 005 MM SLP139 DENSITY ALT 4100FT

CYQF;2015-05-27 23:44;CYQF 272344Z 26011KT 15SM SHRA BKN060CB 18/10 A2992 RMK CB6 SLP141 DENSITY ALT 4000FT

CYQF;2015-05-28 00:00;CYQF 280000Z 26005KT 15SM SCT040CB 20/11 A2991 RMK CB4 SLP139 DENSITY ALT 4200FT

CYQF;2015-05-28 01:00;CYQF 280100Z 27010KT 15SM SCT040CB OVC250 21/08 A2990 RMK CB3CI5 SLP133 DENSITY ALT 4300FT

CYQF;2015-05-28 02:00;CYQF 280200Z 28006KT 15SM FEW040CB BKN250 18/09 A2991 RMK CB2CI5 SLP136 DENSITY ALT 4000FT

CYQF;2015-05-28 03:00;CYQF 280300Z 26004KT 15SM FEW040CB SCT120 BKN250 17/09 A2992 RMK CB1AC4CI3 CB TR SLP137 DENSITY ALT 3900FT

CYQF;2015-05-28 04:00;CYQF 280400Z 33014G19KT 15SM BKN110 BKN250 17/08 A2996 RMK AC5CI2 SLP150 DENSITY ALT 3700FT

CYQF;2015-05-28 05:00;CYQF 280500Z 36006KT 15SM BKN120 BKN250 15/07 A2997 RMK AC5CI2 SLP151 DENSITY ALT 3600FT

CYQF;2015-05-28 06:00;CYQF 280600Z 31007KT 15SM BKN085 BKN250 15/07 A3000 RMK AC5CI2 SLP160 DENSITY ALT 3500FT

CYQF;2015-05-28 07:00;CYQF 280700Z 30010KT 15SM SCT090 BKN250 13/08 A3002 RMK AC4CI2 SLP168 DENSITY ALT 3300FT

CYQF;2015-05-28 08:00;CYQF 280800Z 30011KT 15SM SCT040 OVC110 13/08 A3003 RMK SC4AC4 SLP171 DENSITY ALT 3300FT

CYQF;2015-05-28 09:00;CYQF 280900Z 36013KT 15SM FEW040 OVC110 13/08 A3005 RMK SC2AC6 SLP177 DENSITY ALT 3200FT

CYQF;2015-05-28 10:00;CYQF 281000Z 02016G24KT 10SM BKN022 OVC060 11/07 A3009 RMK SC6SC2 SLP194

CYQF;2015-05-28 10:09;CYQF 281009Z 02014KT 8SM -SHRA OVC020 10/07 A3010 RMK SC8 CU EMBD SLP196

CYQF;2015-05-28 11:00;CYQF 281100Z 36010G17KT 4SM -SHRA BR OVC017 09/07 A3012 RMK SC8 CU SLP207

CYQF;2015-05-28 11:19;CYQF 281119Z 36013G19KT 6SM BR OVC019 09/07 A3013 RMK SC8 SLP209

CYQF;2015-05-28 12:00;CYQF 281200Z 36010G16KT 8SM BKN017 OVC040 09/07 A3015 RMK SC7SC1 SLP219

CYQF;2015-05-28 12:37;CYQF 281237Z 36012G18KT 8SM OVC010 09/07 A3016 RMK SC8 SLP225

CYQF;2015-05-28 13:00;CYQF 281300Z 35011KT 8SM OVC010 09/07 A3017 RMK SC8 SLP227

CYQF;2015-05-28 14:00;CYQF 281400Z 36014KT 8SM OVC011 08/06 A3020 RMK SC8 CIG RAG SLP241

CYQF;2015-05-28 15:00;CYQF 281500Z 01011G17KT 3SM BR OVC008 07/06 A3023 RMK SC8 SLP252

CYQF;2015-05-28 16:00;CYQF 281600Z 01010KT 5SM BR OVC012 08/05 A3025 RMK SC8 CIG RAG SLP257

CYQF;2015-05-28 17:00;CYQF 281700Z 01013KT 12SM OVC012 08/05 A3026 RMK SC8 CIG RAG SLP265

CYQF;2015-05-28 17:47;CYQF 281747Z 01011KT 12SM OVC024 09/05 A3028 RMK SC8 SLP270

CYQF;2015-05-28 18:00;CYQF 281800Z 02012KT 12SM OVC020 08/04 A3028 RMK SC8 SLP272

CYQF;2015-05-28 19:00;CYQF 281900Z 02011KT 12SM BKN020 OVC051 10/04 A3030 RMK SC6SC2 SLP276

CYQF;2015-05-28 20:00;CYQF 282000Z 31007KT 290V030 15SM BKN028 11/03 A3030 RMK SC7 SLP278

CYQF;2015-05-28 21:00;CYQF 282100Z 36006KT 330V070 15SM BKN044 12/02 A3029 RMK CU6 SLP272

CYQF;2015-05-28 22:00;CYQF 282200Z 35010KT 290V070 15SM SCT060 14/M01 A3028 RMK CU3 SLP269 DENSITY ALT 3100FT

CYQF;2015-05-28 23:00;CYQF 282300Z 01007G17KT 15SM FEW080 14/M06 A3028 RMK CU1 SLP269 DENSITY ALT 3100FT

CYQF;2015-05-29 00:00;CYQF 290000Z 04010KT 320V120 15SM FEW070 15/M04 A3027 RMK CU1 SLP268 DENSITY ALT 3200FT

CYQF;2015-05-29 01:00;CYQF 290100Z 06007KT 320V110 15SM FEW070 14/M06 A3028 RMK AC1 SLP270 DENSITY ALT 3100FT

CYQF;2015-05-29 02:00;CYQF 290200Z 10008KT 15SM FEW070 FEW250 13/M05 A3028 RMK AC1CI1 SLP273 DENSITY ALT 3000FT

CYQF;2015-05-29 03:00;CYQF 290300Z 11007KT 15SM BKN250 11/M01 A3028 RMK CI5 SLP276

CYQF;2015-05-29 04:00;CYQF 290400Z 10006KT 15SM BKN250 09/M02 A3029 RMK CI7 SLP280

CYQF;2015-05-29 05:00;CYQF 290500Z 10003KT 15SM BKN250 07/M01 A3030 RMK CI6 SLP286

CYQF;2015-05-29 06:00;CYQF 290600Z 00000KT 15SM OVC220 06/M01 A3029 RMK CI8 SLP283

CYQF;2015-05-29 07:00;CYQF 290700Z VRB02KT 15SM BKN220 06/M01 A3028 RMK CI7 SLP279

CYQF;2015-05-29 08:00;CYQF 290800Z 14007KT 15SM BKN220 06/M01 A3027 RMK CI6 SLP276

CYQF;2015-05-29 09:00;CYQF 290900Z 14006KT 15SM BKN210 05/M01 A3026 RMK CI6 SLP271

CYQF;2015-05-29 10:00;CYQF 291000Z 14007KT 15SM BKN100 BKN220 06/M01 A3026 RMK AC5CI2 SLP268

CYQF;2015-05-29 11:00;CYQF 291100Z 13004KT 15SM BKN056 BKN100 OVC220 06/M01 A3026 RMK SC6AC1CI1 SLP267

CYQF;2015-05-29 12:00;CYQF 291200Z 13008KT 15SM BKN058 BKN100 OVC250 06/M01 A3026 RMK SC5AC1CI2 SLP268

CYQF;2015-05-29 13:00;CYQF 291300Z 14010KT 15SM BKN058 BKN100 OVC250 07/M01 A3025 RMK SC5AC1CI2 SLP265

CYQF;2015-05-29 14:00;CYQF 291400Z 13012KT 15SM BKN060 07/M01 A3026 RMK SC7 SLP266

CYQF;2015-05-29 15:00;CYQF 291500Z 13012G17KT 15SM BKN060 BKN100 09/M01 A3025 RMK SC5AC2 SLP265

CYQF;2015-05-29 16:00;CYQF 291600Z 13015KT 15SM BKN060 OVC100 11/M01 A3025 RMK SC6AC2 SLP262

CYQF;2015-05-29 17:00;CYQF 291700Z 12013G19KT 15SM BKN060 OVC100 12/M00 A3024 RMK SC7AC1 SLP262

CYQF;2015-05-29 18:00;CYQF 291800Z 13012G19KT 15SM BKN056 OVC100 12/M00 A3023 RMK SC6AC2 SLP259

CYQF;2015-05-29 19:00;CYQF 291900Z 16018KT 15SM BKN060 OVC100 14/00 A3022 RMK SC7AC1 SLP252 DENSITY ALT 3100FT

CYQF;2015-05-29 20:00;CYQF 292000Z 14015KT 15SM OVC060 14/M00 A3021 RMK SC8 SLP249 DENSITY ALT 3100FT

CYQF;2015-05-29 21:00;CYQF 292100Z 14012G21KT 15SM OVC060 15/01 A3019 RMK SC8 SLP242 DENSITY ALT 3300FT

CYQF;2015-05-29 22:00;CYQF 292200Z 15015KT 15SM OVC060 15/01 A3018 RMK SC8 SLP239 DENSITY ALT 3300FT

CYQF;2015-05-29 23:00;CYQF 292300Z 11011G16KT 15SM OVC060 14/01 A3017 RMK SC8 SLP236 DENSITY ALT 3200FT

CYQF;2015-05-30 00:00;CYQF 300000Z 09010G//KT 15SM OVC055 14/01 A3016 RMK SC8 WND ESTD SLP232 DENSITY ALT 3200FT

CYQF;2015-05-30 01:00;CYQF 300100Z 09014G19KT 15SM OVC050 13/01 A3014 RMK SC8 SLP226 DENSITY ALT 3100FT

CYQF;2015-05-30 02:00;CYQF 300200Z 10011KT 15SM OVC050 13/00 A3014 RMK SC8 SLP225 DENSITY ALT 3100FT

CYQF;2015-05-30 03:00;CYQF 300300Z 09007KT 15SM OVC057 13/01 A3014 RMK SC8 SLP223 DENSITY ALT 3100FT

CYQF;2015-05-30 04:00;CYQF 300400Z 11007KT 15SM BKN050 OVC120 12/00 A3013 RMK SC6AC2 SLP220 DENSITY ALT 3000FT

CYQF;2015-05-30 05:00;CYQF 300500Z 11008KT 15SM OVC047 12/M00 A3013 RMK SC8 SLP218 DENSITY ALT 3000FT

CYQF;2015-05-30 06:00;CYQF 300600Z 14014G19KT 15SM OVC048 12/M01 A3012 RMK SC8 SLP212 DENSITY ALT 3100FT

CYQF;2015-05-30 07:00;CYQF 300700Z 15014G19KT 15SM OVC045 11/M00 A3011 RMK SC8 SLP211

CYQF;2015-05-30 08:00;CYQF 300800Z 13011KT 15SM OVC046 10/01 A3011 RMK SC8 SLP211

CYQF;2015-05-30 09:00;CYQF 300900Z 14007KT 15SM OVC044 10/00 A3010 RMK SC8 SLP206

CYQF;2015-05-30 10:00;CYQF 301000Z 13008KT 15SM OVC041 09/01 A3008 RMK SC8 SLP202

CYQF;2015-05-30 11:00;CYQF 301100Z 12009KT 15SM SCT040 BKN250 07/02 A3007 RMK SC4CI3 SLP200

CYQF;2015-05-30 12:00;CYQF 301200Z 12011KT 15SM FEW040 SCT120 BKN250 07/03 A3006 RMK SC2AC2CI3 SLP196

CYQF;2015-05-30 13:00;CYQF 301300Z 13011KT 15SM FEW030 BKN120 BKN250 08/02 A3006 RMK SC2AC3CI2 SLP195

CYQF;2015-05-30 14:00;CYQF 301400Z 14011KT 15SM SCT031 BKN055 OVC120 10/03 A3005 RMK SC3SC3AC2 SLP192

CYQF;2015-05-30 15:00;CYQF 301500Z 13013KT 15SM BKN030 OVC050 10/04 A3005 RMK SC6SC2 SLP190

CYQF;2015-05-30 16:00;CYQF 301600Z 15013G18KT 15SM OVC033 10/03 A3004 RMK SC8 SLP189

CYQF;2015-05-30 17:00;CYQF 301700Z 13011KT 15SM FEW025 OVC035 11/03 A3003 RMK SC2SC6 SLP183 DENSITY ALT 3000FT

CYQF;2015-05-30 18:00;CYQF 301800Z 14012KT 15SM SCT021 OVC037 12/03 A3002 RMK SC3SC5 SLP180 DENSITY ALT 3200FT

CYQF;2015-05-30 19:00;CYQF 301900Z 12012G18KT 15SM OVC035 14/03 A3001 RMK SC8 SLP173 DENSITY ALT 3400FT

CYQF;2015-05-30 20:00;CYQF 302000Z 13014G19KT 15SM OVC040 16/04 A3000 RMK SC8 SLP170 DENSITY ALT 3600FT

CYQF;2015-05-30 21:00;CYQF 302100Z 15015KT 15SM BKN045 BKN250 17/05 A2997 RMK SC6CI1 SLP160 DENSITY ALT 3800FT

CYQF;2015-05-30 22:00;CYQF 302200Z 11014G20KT 15SM SCT045 BKN210 19/05 A2995 RMK SC3CI4 SLP151 DENSITY ALT 4000FT

CYQF;2015-05-30 23:00;CYQF 302300Z 13015G20KT 15SM FEW045 BKN100 BKN210 19/05 A2994 RMK SC2AC3CI2 SLP147 DENSITY ALT 4100FT

CYQF;2015-05-31 00:00;CYQF 310000Z 14017KT 15SM SCT060 BKN100 BKN210 19/06 A2991 RMK SC4AC1CI2 SLP139 DENSITY ALT 4100FT

CYQF;2015-05-31 01:00;CYQF 310100Z 16016G22KT 15SM FEW060 SCT100 BKN220 20/06 A2988 RMK CU2AC2CI2 SLP127 DENSITY ALT 4200FT

CYQF;2015-05-31 02:00;CYQF 310200Z 14016KT 15SM FEW055 SCT230 19/06 A2987 RMK CU1CI2 SLP122 DENSITY ALT 4200FT

CYQF;2015-05-31 03:00;CYQF 310300Z 14009KT 15SM FEW055 FEW230 18/06 A2986 RMK SC1CI1 SLP120 DENSITY ALT 4000FT

CYQF;2015-05-31 04:00;CYQF 310400Z 13008KT 15SM FEW055 FEW230 15/07 A2986 RMK SC1CI1 SLP122 DENSITY ALT 3700FT

CYQF;2015-05-31 05:00;CYQF 310500Z 15008KT 15SM FEW055 FEW220 13/07 A2986 RMK SC1CI2 SC TR SLP122 DENSITY ALT 3500FT

CYQF;2015-05-31 06:00;CYQF 310600Z 15010KT 15SM SCT250 13/08 A2984 RMK CI3 SLP115 DENSITY ALT 3400FT

CYQF;2015-05-31 07:00;CYQF 310700Z 17009KT 15SM FEW250 12/09 A2983 RMK CI2 SLP111 DENSITY ALT 3400FT

CYQF;2015-05-31 08:00;CYQF 310800Z 18010KT 15SM FEW250 11/09 A2982 RMK CI1 SLP108 DENSITY ALT 3300FT

CYQF;2015-05-31 09:00;CYQF 310900Z 19007KT 15SM FEW093 11/09 A2982 RMK AC1 SLP107 DENSITY ALT 3200FT

CYQF;2015-05-31 10:00;CYQF 311000Z 21005KT 15SM FEW090 SCT250 09/08 A2984 RMK AC1CI2 SLP113 DENSITY ALT 3000FT

CYQF;2015-05-31 10:28;CYQF 311028Z 22003KT 15SM BKN012 BKN095 10/08 A2984 RMK SC5AC1 SLP112 DENSITY ALT 3100FT

CYQF;2015-05-31 10:44;CYQF 311044Z 22004KT 6SM BR FEW012 SCT090 08/07 A2984 RMK SC2AC2 SLP112

CYQF;2015-05-31 11:00;CYQF 311100Z 23002KT 3SM BR FEW012 SCT090 08/07 A2983 RMK SC2AC2 SLP110

CYQF;2015-05-31 11:24;CYQF 311124Z 17005KT 2SM BR FEW012 SCT090 06/05 A2983 RMK SC1AC2 SLP112

CYQF;2015-05-31 11:39;CYQF 311139Z 19005KT 1SM BR SCT090 06/06 A2983 RMK AC3 VIS S 3/4 SLP113

CYQF;2015-05-31 12:00;CYQF 311200Z 20005KT 3/4SM BR SCT090 06/06 A2983 RMK FG2AC2 VIS S 1/2 SLP112

CYQF;2015-05-31 12:13;CYQF 311213Z 22006KT 1/8SM FG VV002 07/07 A2983 RMK FG8 SLP111

CYQF;2015-05-31 12:55;CYQF 311255Z 27004KT 3/4SM BR SCT001 08/07 A2984 RMK FG2ST1 SLP114

CYQF;2015-05-31 13:00;CYQF 311300Z 27004KT 3SM BR FEW090 08/08 A2984 RMK AC2 VIS SE 1/2 SLP112

CYQF;2015-05-31 14:00;CYQF 311400Z 33006KT 15SM FEW090 FEW250 12/07 A2983 RMK AC1CI1 AC TR SLP107 DENSITY ALT 3400FT

CYQF;2015-05-31 15:00;CYQF 311500Z 31004KT 15SM FEW090 14/07 A2983 RMK AC2 SLP107 DENSITY ALT 3600FT

CYQF;2015-05-31 16:00;CYQF 311600Z 00000KT 15SM FEW090 15/06 A2982 RMK AC1 SLP104 DENSITY ALT 3700FT

CYQF;2015-05-31 17:00;CYQF 311700Z 09003KT 050V160 15SM FEW050 FEW090 18/06 A2980 RMK CU1AC1 SLP097 DENSITY ALT 4000FT

CYQF;2015-05-31 18:00;CYQF 311800Z 15003KT 350V170 15SM FEW056 SCT210 20/06 A2979 RMK CU2CI1 SLP092 DENSITY ALT 4300FT

CYQF;2015-05-31 19:00;CYQF 311900Z VRB02KT 15SM SCT060CB SCT210 21/05 A2977 RMK CB3CI1 SLP085 DENSITY ALT 4400FT

CYQF;2015-05-31 20:00;CYQF 312000Z 18006G15KT 120V200 15SM BKN060CB BKN220 23/M00 A2974 RMK CB5CI2 SLP071 DENSITY ALT 4700FT

CYQF;2015-05-31 20:33;CYQF 312033Z 22003KT 100V240 15SM BKN080CB BKN100 BKN220 22/02 A2974 RMK CB5AC1CI1 SHRA SW-W LTGICCG SLP071 DENSITY ALT 4600FT

CYQF;2015-05-31 21:00;CYQF 312100Z 31004KT 300V090 15SM -TSRA BKN070CB BKN120 21/01 A2973 RMK CB6AC1 LGTICCG SLP070 DENSITY ALT 4600FT

CYQF;2015-05-31 21:13;CYQF 312113Z VRB11G32KT 12SM TSRA BKN060CB BKN100 18/04 A2976 RMK CB5AC1 LTGICCG WND SHFT PRESRR SLP083 DENSITY ALT 4200FT

CYQF;2015-05-31 21:27;CYQF 312127Z 06005G19KT 050V150 15SM SCT060CB 20/07 A2974 RMK CB3 SH E PRESFR SLP074 DENSITY ALT 4300FT

CYQF;2015-05-31 22:00;CYQF 312200Z 06009KT 15SM SCT060CB SCT200 21/07 A2972 RMK CB3CI1 CI TR SLP071 DENSITY ALT 4500FT

CYQF;2015-05-31 23:00;CYQF 312300Z 03013KT 15SM FEW060CB SCT200 22/08 A2973 RMK CB1CI2 SLP071 DENSITY ALT 4600FT

CYQF;2015-06-01 00:00;CYQF 010000Z 05015KT 15SM FEW060CB SCT200 21/08 A2973 RMK CB1CI3 WND ESTD SLP075 DENSITY ALT 4500FT

CYQF;2015-06-01 01:00;CYQF 010100Z 03008KT 15SM FEW060CB BKN200 20/08 A2974 RMK CB1CI4 SLP079 DENSITY ALT 4400FT

CYQF;2015-06-01 02:00;CYQF 010200Z 04008KT 15SM FEW060CB BKN200 19/07 A2976 RMK CB1CI5 SLP082 DENSITY ALT 4300FT

CYQF;2015-06-01 03:00;CYQF 010300Z 06006KT 15SM FEW040 BKN200 17/07 A2978 RMK CU1CI5 SLP090 DENSITY ALT 4000FT

CYQF;2015-06-01 04:00;CYQF 010400Z 01008KT 350V050 15SM FEW040 FEW200 15/07 A2980 RMK SC1CI1 SLP098 DENSITY ALT 3700FT

CYQF;2015-06-01 05:00;CYQF 010500Z 35005KT 15SM FEW090 FEW250 13/06 A2983 RMK AC1CI1 AC TR SLP107 DENSITY ALT 3500FT

CYQF;2015-06-01 06:00;CYQF 010600Z 34005KT 15SM SKC 12/06 A2986 RMK SLP115 DENSITY ALT 3300FT

CYQF;2015-06-01 07:00;CYQF 010700Z 00000KT 15SM SKC 10/06 A2987 RMK SLP120 DENSITY ALT 3100FT

CYQF;2015-06-01 08:00;CYQF 010800Z 14002KT 15SM SKC 08/06 A2988 RMK SLP123

CYQF;2015-06-01 09:00;CYQF 010900Z 23003KT 15SM SKC 09/06 A2989 RMK SLP129

CYQF;2015-06-01 10:00;CYQF 011000Z 19004KT 150V230 15SM FEW250 05/04 A2989 RMK CI1 SLP133

CYQF;2015-06-01 11:00;CYQF 011100Z 16002KT 10SM MIFG FEW250 05/04 A2990 RMK CI1 SLP137

CYQF;2015-06-01 12:00;CYQF 011200Z 20006KT 10SM FEW250 05/05 A2991 RMK CI2 SLP138

CYQF;2015-06-01 13:00;CYQF 011300Z 20005KT 12SM FEW250 08/06 A2992 RMK CI2 SLP141

CYQF;2015-06-01 14:00;CYQF 011400Z 23004KT 12SM FEW250 11/07 A2993 RMK CI2 SLP141 DENSITY ALT 3100FT

CYQF;2015-06-01 15:00;CYQF 011500Z 18010KT 150V220 15SM SCT250 15/06 A2993 RMK CI3 SLP138 DENSITY ALT 3600FT

CYQF;2015-06-01 16:00;CYQF 011600Z 16009KT 150V210 15SM FEW040 FEW250 17/06 A2992 RMK CU1CI1 CU TR SLP137 DENSITY ALT 3800FT

CYQF;2015-06-01 17:00;CYQF 011700Z 18009G15KT 15SM FEW050 FEW250 19/07 A2991 RMK CU1CI1 CU TR SLP134 DENSITY ALT 4000FT

CYQF;2015-06-01 18:00;CYQF 011800Z 19009KT 15SM SCT066 BKN250 20/06 A2992 RMK CU3CI2 SLP135 DENSITY ALT 4200FT

CYQF;2015-06-01 19:00;CYQF 011900Z 17005KT 140V230 15SM BKN060TCU BKN250 21/06 A2991 RMK TCU6CI1 SLP135 DENSITY ALT 4300FT

CYQF;2015-06-01 20:00;CYQF 012000Z 18004KT 130V230 15SM BKN060TCU BKN250 21/05 A2991 RMK TCU6CI1 SLP136 DENSITY ALT 4300FT

CYQF;2015-06-01 21:00;CYQF 012100Z VRB06KT 15SM BKN070TCU BKN250 23/06 A2990 RMK TCU6CI1 SLP130 DENSITY ALT 4500FT

CYQF;2015-06-01 22:00;CYQF 012200Z 02018KT 15SM SCT072TCU BKN250 22/07 A2990 RMK TCU4CI3 SLP134 DENSITY ALT 4500FT

CYQF;2015-06-01 23:00;CYQF 012300Z 03018KT 15SM SCT056TCU BKN250 21/08 A2991 RMK TCU3CI4 SLP140 DENSITY ALT 4300FT

CYQF;2015-06-02 00:00;CYQF 020000Z 04019G24KT 15SM FEW050 SCT250 20/08 A2992 RMK CU2CI2 SLP144 DENSITY ALT 4200FT

CYQF;2015-06-02 01:00;CYQF 020100Z 06014G21KT 15SM FEW100 SCT250 20/08 A2993 RMK AC2CI2 SLP143 DENSITY ALT 4100FT

CYQF;2015-06-02 02:00;CYQF 020200Z 04015G20KT 15SM FEW100 SCT250 18/07 A2994 RMK AC1CI3 SLP145 DENSITY ALT 3900FT

CYQF;2015-06-02 03:00;CYQF 020300Z 05014KT 15SM 17/07 A2995 RMK SLP147 DENSITY ALT 3800FT

CYQF;2015-06-02 04:00;CYQF 020400Z 06011KT 15SM SCT090 OVC120 15/07 A2996 RMK AC3AC5 SLP152 DENSITY ALT 3600FT

CYQF;2015-06-02 05:00;CYQF 020500Z 06013KT 15SM SCT090 BKN120 14/06 A2997 RMK AC3AC4 SLP152 DENSITY ALT 3500FT

CYQF;2015-06-02 06:00;CYQF 020600Z 07013KT 15SM FEW090 OVC120 13/06 A2998 RMK AC2AC6 SLP157 DENSITY ALT 3300FT

CYQF;2015-06-02 06:46;CYQF 020646Z 06010KT 15SM -RA OVC080 12/07 A3000 RMK AC8 SLP165 DENSITY ALT 3200FT

CYQF;2015-06-02 07:00;CYQF 020700Z 06008KT 12SM -RA OVC070 12/07 A3001 RMK AC8 SLP167 DENSITY ALT 3100FT

CYQF;2015-06-02 08:00;CYQF 020800Z 05014KT 15SM -RA OVC073 11/06 A3000 RMK AC8 SLP163 DENSITY ALT 3000FT

CYQF;2015-06-02 09:00;CYQF 020900Z 04014KT 15SM -RA OVC070 10/07 A2999 RMK AC8 SLP159

CYQF;2015-06-02 10:00;CYQF 021000Z 05011KT 12SM -RA OVC083 09/06 A2999 RMK AC8 SLP161

CYQF;2015-06-02 11:00;CYQF 021100Z 06012KT 15SM -RA OVC084 08/06 A2999 RMK AC8 SLP163

CYQF;2015-06-02 11:11;CYQF 021111Z 06011KT 15SM OVC085 08/06 A2999 RMK AC8 SLP163

CYQF;2015-06-02 12:00;CYQF 021200Z 05007KT 15SM OVC100 08/06 A2999 RMK AC8 SLP163

CYQF;2015-06-02 13:00;CYQF 021300Z 06008KT 15SM BKN100 BKN250 08/05 A2998 RMK AC6CI1 SLP163

CYQF;2015-06-02 14:00;CYQF 021400Z 08005KT 15SM FEW012 BKN087 OVC250 09/05 A2999 RMK SC1AC6CI2 SC TR SLP165

CYQF;2015-06-02 15:00;CYQF 021500Z 06005KT 15SM FEW012 OVC075 09/05 A2999 RMK SC1AC7 SLP168

CYQF;2015-06-02 16:00;CYQF 021600Z 07003KT 15SM FEW012 BKN080 OVC250 10/06 A2998 RMK SC1AC6CI1 SLP166

CYQF;2015-06-02 17:00;CYQF 021700Z 10011KT 15SM BKN020 OVC250 12/07 A2996 RMK SC7CI1 SLP157 DENSITY ALT 3200FT

CYQF;2015-06-02 18:00;CYQF 021800Z 14015KT 15SM OVC020 13/07 A2996 RMK SC8 SLP158 DENSITY ALT 3400FT

CYQF;2015-06-02 19:00;CYQF 021900Z 14012G18KT 15SM VCSH FEW020 OVC070 13/07 A2995 RMK SF2AC6 SLP155 DENSITY ALT 3400FT

CYQF;2015-06-02 20:00;CYQF 022000Z 16012G18KT 15SM SCT020 OVC150 14/08 A2995 RMK SC3AS5 SLP154 DENSITY ALT 3500FT

CYQF;2015-06-02 21:00;CYQF 022100Z 14010G18KT 15SM FEW030 BKN060 OVC150 17/08 A2993 RMK SC2SC4AC2 SLP144 DENSITY ALT 3800FT

CYQF;2015-06-02 22:00;CYQF 022200Z 18016KT 130V200 15SM BKN042 OVC100 18/07 A2991 RMK SC5AC3 SLP140 DENSITY ALT 3900FT

CYQF;2015-06-02 23:00;CYQF 022300Z 19015G24KT 15SM SCT036 BKN120 OVC220 17/08 A2991 RMK SC4AC2CI2 SLP141 DENSITY ALT 3800FT

CYQF;2015-06-03 00:00;CYQF 030000Z 19017G24KT 15SM FEW040 BKN120 OVC220 16/07 A2992 RMK SC2AC3CI3 SLP144 DENSITY ALT 3700FT

CYQF;2015-06-03 01:00;CYQF 030100Z 17017G23KT 15SM FEW100 BKN250 16/07 A2992 RMK AC2CI5 SLP144 DENSITY ALT 3700FT

CYQF;2015-06-03 02:00;CYQF 030200Z 17019KT 15SM FEW100 BKN250 15/07 A2992 RMK AC2CI5 SLP145 DENSITY ALT 3600FT

CYQF;2015-06-03 03:00;CYQF 030300Z 17017G24KT 15SM BKN120 BKN250 14/07 A2993 RMK AC5CI2 SLP148 DENSITY ALT 3500FT

CYQF;2015-06-03 04:00;CYQF 030400Z 18013G18KT 15SM BKN120 BKN250 13/07 A2994 RMK AC5CI2 SLP152 DENSITY ALT 3300FT

CYQF;2015-06-03 05:00;CYQF 030500Z 18014G19KT 15SM SCT100 BKN250 12/07 A2993 RMK AC3CI4 SLP149 DENSITY ALT 3200FT

CYQF;2015-06-03 06:00;CYQF 030600Z 19015KT 15SM FEW100 BKN230 11/06 A2993 RMK AC1CI6 SLP147 DENSITY ALT 3100FT

CYQF;2015-06-03 07:00;CYQF 030700Z 17011KT 15SM BKN220 10/06 A2992 RMK CI6 SLP145 DENSITY ALT 3000FT

CYQF;2015-06-03 08:00;CYQF 030800Z 15007KT 15SM BKN210 09/06 A2991 RMK CI6 SLP143

CYQF;2015-06-03 09:00;CYQF 030900Z 15008KT 15SM SCT120 OVC220 08/06 A2991 RMK AC3CI5 SLP139

CYQF;2015-06-03 10:00;CYQF 031000Z 15009KT 15SM SCT120 OVC220 09/07 A2990 RMK AC4CI4 SLP136

CYQF;2015-06-03 11:00;CYQF 031100Z 15009KT 10SM BKN140 OVC230 09/07 A2991 RMK AC5CI3 SLP138 DENSITY ALT 3000FT

CYQF;2015-06-03 12:00;CYQF 031200Z 16010KT 8SM SCT130 BKN250 09/07 A2990 RMK AC3CI3 SLP138

CYQF;2015-06-03 13:00;CYQF 031300Z 16010KT 10SM SCT130 BKN250 10/07 A2991 RMK AC3CI3 SLP140 DENSITY ALT 3000FT

CYQF;2015-06-03 14:00;CYQF 031400Z 17008KT 15SM SCT130 BKN250 11/07 A2991 RMK AC4CI3 SLP141 DENSITY ALT 3100FT

CYQF;2015-06-03 15:00;CYQF 031500Z 17015KT 15SM FEW024 FEW130 OVC250 13/08 A2992 RMK CF1AC1CI6 SLP142 DENSITY ALT 3300FT

CYQF;2015-06-03 16:00;CYQF 031600Z 17012G18KT 15SM BKN036 OVC250 14/08 A2992 RMK CU6CI2 SLP141 DENSITY ALT 3500FT

CYQF;2015-06-03 17:00;CYQF 031700Z 14017G23KT 15SM BKN035 OVC250 16/07 A2992 RMK CU6CI2 SLP142 DENSITY ALT 3700FT

CYQF;2015-06-03 18:00;CYQF 031800Z 14017G26KT 15SM BKN050 OVC250 16/06 A2993 RMK CU6CI2 SLP144 DENSITY ALT 3700FT

CYQF;2015-06-03 19:00;CYQF 031900Z 14014G21KT 15SM BKN050 OVC250 16/06 A2993 RMK CU7CI1 SLP144 DENSITY ALT 3800FT

CYQF;2015-06-03 20:00;CYQF 032000Z 14018KT 15SM SCT045 BKN065 BKN250 17/07 A2993 RMK CU3SC2CI2 SLP145 DENSITY ALT 3800FT

CYQF;2015-06-03 21:00;CYQF 032100Z 13014G22KT 15SM BKN036 BKN069 BKN250 16/07 A2992 RMK CU5AC1CI1 SLP145 DENSITY ALT 3800FT

CYQF;2015-06-03 22:00;CYQF 032200Z 14017KT 15SM BKN040 BKN070 BKN250 17/06 A2992 RMK CU5AC1CI1 SLP143 DENSITY ALT 3800FT

CYQF;2015-06-03 23:00;CYQF 032300Z 12011KT 15SM BKN053 BKN250 16/06 A2991 RMK SC6CI1 CU EMBD SLP141 DENSITY ALT 3800FT

CYQF;2015-06-04 00:00;CYQF 040000Z 11011KT 15SM OVC050 16/06 A2991 RMK SC8 CIG RAG SLP140 DENSITY ALT 3800FT

CYQF;2015-06-04 01:00;CYQF 040100Z 12011G17KT 15SM FEW045 OVC070 17/05 A2991 RMK SC2AC6 SLP140 DENSITY ALT 3800FT

CYQF;2015-06-04 02:00;CYQF 040200Z 11009KT 15SM BKN060 16/05 A2991 RMK SC7 CIG RAG SLP139 DENSITY ALT 3800FT

CYQF;2015-06-04 03:00;CYQF 040300Z 10008KT 15SM BKN050 16/05 A2992 RMK SC7 CIG RAG SLP139 DENSITY ALT 3700FT

CYQF;2015-06-04 04:00;CYQF 040400Z 08005KT 15SM BKN050 15/06 A2993 RMK SC7 CIG RAG SLP143 DENSITY ALT 3500FT

CYQF;2015-06-04 05:00;CYQF 040500Z 13010KT 15SM BKN070 14/06 A2994 RMK AC7 SLP145 DENSITY ALT 3500FT

CYQF;2015-06-04 06:00;CYQF 040600Z 15007KT 15SM OVC059 12/08 A2995 RMK SC8 SLP150 DENSITY ALT 3200FT

CYQF;2015-06-04 06:48;CYQF 040648Z 13009G15KT 15SM -RA OVC056 12/08 A2995 RMK SC8 SLP152 DENSITY ALT 3300FT

CYQF;2015-06-04 07:00;CYQF 040700Z 10009KT 15SM -RA OVC056 12/08 A2995 RMK SC8 SLP152 DENSITY ALT 3200FT

CYQF;2015-06-04 08:00;CYQF 040800Z 11004KT 12SM -RA OVC064 11/09 A2995 RMK SC8 SLP152 DENSITY ALT 3100FT

CYQF;2015-06-04 09:00;CYQF 040900Z 14002KT 15SM -RA OVC065 11/09 A2995 RMK SC8 SLP152 DENSITY ALT 3100FT

CYQF;2015-06-04 09:32;CYQF 040932Z 01004KT 15SM BKN065 OVC120 10/09 A2995 RMK SC6AC2 SLP152 DENSITY ALT 3000FT

CYQF;2015-06-04 10:00;CYQF 041000Z 05003KT 15SM BKN065 BKN120 10/09 A2995 RMK SC5AC2 SLP153 DENSITY ALT 3000FT

CYQF;2015-06-04 11:00;CYQF 041100Z 01003KT 15SM FEW065 BKN120 09/08 A2995 RMK SC2AC3 SLP155

CYQF;2015-06-04 12:00;CYQF 041200Z VRB02KT 15SM FEW060 SCT110 09/07 A2996 RMK SC1AC3 SLP158

CYQF;2015-06-04 13:00;CYQF 041300Z 31003KT 15SM SCT120 SCT250 10/09 A2997 RMK AC3CI1 SLP161 DENSITY ALT 3000FT

CYQF;2015-06-04 14:00;CYQF 041400Z 00000KT 15SM FEW060 SCT120 BKN250 12/08 A2999 RMK CU1AC2CI2 SLP164 DENSITY ALT 3200FT

CYQF;2015-06-04 15:00;CYQF 041500Z 12005KT 040V140 15SM FEW060 BKN100 BKN250 13/09 A3000 RMK CU2AC3CI2 SLP169 DENSITY ALT 3300FT

CYQF;2015-06-04 15:31;CYQF 041531Z 14006KT 12SM -SHRA FEW045 BKN080 BKN250 13/09 A3001 RMK CU2AC3CI2 SLP171 DENSITY ALT 3300FT

CYQF;2015-06-04 16:00;CYQF 041600Z 15002KT 15SM SCT070 BKN120 BKN250 13/09 A3000 RMK CU4AC2CI1 SLP170 DENSITY ALT 3200FT

CYQF;2015-06-04 17:00;CYQF 041700Z VRB03KT 15SM FEW025 SCT100 BKN250 15/10 A3000 RMK CU2AC1CI2 SLP167 DENSITY ALT 3600FT

CYQF;2015-06-04 18:00;CYQF 041800Z 11007KT 080V140 15SM FEW032 SCT100 BKN250 18/10 A2999 RMK CU2AC1CI3 CB TOPS DIST SW SLP164 DENSITY ALT 3800FT

CYQF;2015-06-04 19:00;CYQF 041900Z 14010G15KT 15SM FEW045 SCT100 BKN250 20/08 A2998 RMK CU2AC1CI2 CB TOP DSNT SW SLP158 DENSITY ALT 4100FT

CYQF;2015-06-04 20:00;CYQF 042000Z 14017G23KT 120V180 15SM BKN056 BKN100 BKN250 22/07 A2998 RMK CU5AC1CI1 SLP155 DENSITY ALT 4300FT

CYQF;2015-06-04 21:00;CYQF 042100Z 14015G23KT 15SM BKN056TCU BKN250 22/07 A2999 RMK TCU6CI1 SLP159 DENSITY ALT 4300FT

CYQF;2015-06-04 22:02;CYQF 042202Z 12013G24KT 15SM -TSRA BKN056CB OVC250 17/09 A3000 RMK CB7CI1 SLP169 DENSITY ALT 3800FT

CYQF;2015-06-04 22:06;CYQF 042206Z 13012G20KT 15SM VCSH BKN056CB OVC250 17/10 A3000 RMK CB7CI1 SLP168 DENSITY ALT 3700FT

CYQF;2015-06-04 23:00;CYQF 042300Z 12016G24KT 15SM VCSH BKN050CB BKN250 19/07 A3000 RMK CB6CI1 SLP168 DENSITY ALT 4000FT

CYQF;2015-06-05 00:00;CYQF 050000Z 15015G21KT 15SM VCSH BKN044CB BKN070 OVC250 18/08 A3002 RMK CB5AC2CI1 LTGCG DIST NW SLP177 DENSITY ALT 3800FT

CYQF;2015-06-05 01:00;CYQF 050100Z 14011G16KT 15SM VCSH BKN040CB BKN070 OVC210 17/07 A3003 RMK CB5AC2CI1 SLP179 DENSITY ALT 3700FT

CYQF;2015-06-05 02:00;CYQF 050200Z 29005KT 130V310 15SM BKN040CB BKN080 BKN240 16/08 A3004 RMK CB5AC1CI1 OCNL LTNG DIST W SLP181 DENSITY ALT 3600FT

CYQF;2015-06-05 03:00;CYQF 050300Z 36005KT 15SM SCT030 BKN100 BKN240 14/08 A3004 RMK SC3AC2CI2 SLP182 DENSITY ALT 3400FT

CYQF;2015-06-05 04:00;CYQF 050400Z 05006KT 15SM FEW030 SCT100 BKN240 12/08 A3005 RMK SC2AC1CI2 SLP188 DENSITY ALT 3100FT

CYQF;2015-06-05 05:00;CYQF 050500Z 14002KT 15SM FEW100 SCT240 11/08 A3006 RMK AC1CI3 SLP189 DENSITY ALT 3000FT

CYQF;2015-06-05 06:00;CYQF 050600Z 18002KT 15SM FEW100 BKN250 10/08 A3006 RMK AC1CI4 SLP191

CYQF;2015-06-05 07:00;CYQF 050700Z 00000KT 15SM BKN079 10/09 A3006 RMK AC6 SLP187

CYQF;2015-06-05 08:00;CYQF 050800Z 00000KT 15SM SCT074 09/08 A3006 RMK AC4 SLP188

CYQF;2015-06-05 09:00;CYQF 050900Z 21005KT 10SM BCFG SCT075 07/07 A3006 RMK AC3 SLP186

CYQF;2015-06-05 10:00;CYQF 051000Z 23006KT 10SM BCFG SCT100 07/07 A3006 RMK AC3 SLP191

CYQF;2015-06-05 10:36;CYQF 051036Z 22005KT 2SM BR SCT002 BKN100 07/06 A3006 RMK ST3AC3 VIS S 1 N4 SLP192

CYQF;2015-06-05 11:00;CYQF 051100Z 15002KT 3SM BR BKN100 07/07 A3006 RMK AC7 VIS SE-S 3/4 SLP189

CYQF;2015-06-05 12:00;CYQF 051200Z 20005KT 4SM BR BKN100 07/07 A3006 RMK AC5 SLP191

CYQF;2015-06-05 12:24;CYQF 051224Z 21004KT 1/2SM FG VV002 07/07 A3006 RMK FG8 SLP192

CYQF;2015-06-05 12:37;CYQF 051237Z VRB02KT 1/8SM FG VV001 07/07 A3006 RMK FG8 SLP193

CYQF;2015-06-05 12:46;CYQF 051246Z 20003KT 150V240 1/8SM FG BKN100 07/07 A3006 RMK FG4AC3 SLP194

CYQF;2015-06-05 13:00;CYQF 051300Z 21003KT 1/8SM FG FEW100 08/08 A3006 RMK AC2 SLP193

CYQF;2015-06-05 13:16;CYQF 051316Z 23004KT 6SM BR FEW002 FEW100 08/08 A3006 RMK SF1AC1 VIS N 2 SLP192

CYQF;2015-06-05 14:00;CYQF 051400Z 22004KT 15SM FEW100 SCT250 11/09 A3007 RMK AC2CI1 SLP193 DENSITY ALT 3000FT

CYQF;2015-06-05 15:00;CYQF 051500Z 29009KT 15SM FEW100 15/09 A3006 RMK AC1 SLP188 DENSITY ALT 3500FT

CYQF;2015-06-05 16:00;CYQF 051600Z 28008KT 15SM FEW032 SCT100 17/09 A3006 RMK CU2AC1 SLP187 DENSITY ALT 3700FT

CYQF;2015-06-05 17:00;CYQF 051700Z 31009KT 260V330 15SM FEW048 SCT100 18/07 A3005 RMK CU2AC1 SLP185 DENSITY ALT 3800FT

CYQF;2015-06-05 18:00;CYQF 051800Z 29009G16KT 270V360 15SM SCT045 BKN100 19/07 A3004 RMK CU4AC1 SLP179 DENSITY ALT 4000FT

CYQF;2015-06-05 19:00;CYQF 051900Z 33010KT 15SM BKN045 19/08 A3003 RMK CU6 SLP177 DENSITY ALT 3900FT

CYQF;2015-06-05 20:00;CYQF 052000Z 27010KT 250V360 15SM BKN053 21/07 A3002 RMK CU6 SLP171 DENSITY ALT 4200FT

CYQF;2015-06-05 21:00;CYQF 052100Z 33003KT 290V360 15SM BKN055 BKN100 21/07 A3000 RMK CU5AC1 SLP169 DENSITY ALT 4200FT

CYQF;2015-06-05 22:00;CYQF 052200Z 30008KT 15SM BKN058 BKN100 21/06 A2999 RMK CU5AC1 SLP166 DENSITY ALT 4200FT

CYQF;2015-06-05 23:00;CYQF 052300Z 36009KT 15SM SCT055 SCT100 SCT250 22/07 A2998 RMK CU3AC1CI1 CI TR SLP160 DENSITY ALT 4300FT

CYQF;2015-06-06 00:00;CYQF 060000Z 29003KT 250V030 15SM FEW060 22/06 A2997 RMK CU2 SLP156 DENSITY ALT 4400FT

CYQF;2015-06-06 01:00;CYQF 060100Z 33009KT 280V030 15SM FEW060 22/06 A2996 RMK CU1 SLP151 DENSITY ALT 4400FT

CYQF;2015-06-06 02:00;CYQF 060200Z 34005KT 15SM FEW065 FEW250 22/06 A2996 RMK CU1CI2 CU TR SLP150 DENSITY ALT 4300FT

CYQF;2015-06-06 03:00;CYQF 060300Z 06003KT 15SM FEW050 SCT250 19/08 A2995 RMK CU1CI4 CU TR SLP145 DENSITY ALT 4000FT

CYQF;2015-06-06 04:00;CYQF 060400Z 13002KT 15SM SCT220 17/08 A2996 RMK CI4 SLP147 DENSITY ALT 3800FT

CYQF;2015-06-06 05:00;CYQF 060500Z 19005KT 15SM SCT220 14/07 A2996 RMK CI3 SLP150 DENSITY ALT 3400FT

CYQF;2015-06-06 06:00;CYQF 060600Z 19003KT 15SM FEW220 12/08 A2996 RMK CI2 SLP150 DENSITY ALT 3300FT

CYQF;2015-06-06 07:00;CYQF 060700Z 20004KT 15SM SCT240 13/09 A2995 RMK CI4 SLP148 DENSITY ALT 3300FT

CYQF;2015-06-06 08:00;CYQF 060800Z 20002KT 15SM SCT100 BKN240 13/08 A2995 RMK AC4CI2 SLP145 DENSITY ALT 3400FT

CYQF;2015-06-06 09:00;CYQF 060900Z 19005KT 15SM BKN100 13/09 A2995 RMK AC6 SLP146 DENSITY ALT 3400FT

CYQF;2015-06-06 10:00;CYQF 061000Z 20004KT 15SM BKN100 13/09 A2995 RMK AC7 SLP144 DENSITY ALT 3300FT

CYQF;2015-06-06 11:00;CYQF 061100Z 23002KT 15SM SCT100 BKN250 11/08 A2994 RMK AC4CI2 SLP143 DENSITY ALT 3100FT

CYQF;2015-06-06 12:00;CYQF 061200Z 26006KT 15SM SCT100 BKN250 13/09 A2995 RMK AC4CI2 SLP143 DENSITY ALT 3400FT

CYQF;2015-06-06 13:00;CYQF 061300Z 29005KT 15SM BKN100 BKN250 14/08 A2996 RMK AC5CI2 SLP145 DENSITY ALT 3400FT

CYQF;2015-06-06 14:00;CYQF 061400Z 00000KT 15SM FEW100 BKN250 14/09 A2996 RMK AC2CI3 SLP147 DENSITY ALT 3500FT

CYQF;2015-06-06 15:00;CYQF 061500Z 33004KT 15SM FEW100 BKN250 17/08 A2997 RMK AC2CI3 SLP151 DENSITY ALT 3700FT

CYQF;2015-06-06 16:00;CYQF 061600Z 01008KT 15SM FEW140 BKN250 20/07 A2998 RMK ACC2CI5 SLP152 DENSITY ALT 4100FT

CYQF;2015-06-06 17:00;CYQF 061700Z 03006KT 350V070 15SM SCT250 21/05 A2996 RMK CI3 SLP149 DENSITY ALT 4200FT

CYQF;2015-06-06 18:00;CYQF 061800Z VRB02KT 15SM FEW060 SCT250 22/05 A2995 RMK CU1CI3 SLP146 DENSITY ALT 4400FT

CYQF;2015-06-06 19:00;CYQF 061900Z 05005KT 340V070 15SM FEW068 BKN250 22/05 A2995 RMK CU1CI4 SLP143 DENSITY ALT 4400FT

CYQF;2015-06-06 20:00;CYQF 062000Z 25003KT 110V280 15SM FEW070 BKN250 23/05 A2993 RMK CU1CI4 SLP134 DENSITY ALT 4500FT

CYQF;2015-06-06 21:00;CYQF 062100Z 29010G16KT 220V320 15SM FEW060 BKN250 25/04 A2992 RMK CU2CI5 SLP128 DENSITY ALT 4800FT

CYQF;2015-06-06 22:00;CYQF 062200Z 31008G17KT 280V340 15SM FEW060 SCT100 OVC250 25/05 A2991 RMK CU2AC1CI5 SLP128 DENSITY ALT 4700FT

CYQF;2015-06-06 23:00;CYQF 062300Z 36003KT 290V100 15SM FEW060 FEW200 BKN250 25/05 A2990 RMK CU1CI1CI5 SLP125 DENSITY ALT 4800FT

CYQF;2015-06-07 00:00;CYQF 070000Z 01007KT 15SM FEW075 BKN260 25/05 A2989 RMK CU1CI6 CU TR SLP118 DENSITY ALT 4800FT

CYQF;2015-06-07 01:00;CYQF 070100Z 00000KT 15SM FEW060 BKN250 25/05 A2988 RMK CU1CI6 CU TR SLP115 DENSITY ALT 4800FT

CYQF;2015-06-07 02:00;CYQF 070200Z VRB02KT 15SM FEW090 BKN260 25/07 A2988 RMK AC1CI6 SLP116 DENSITY ALT 4800FT

CYQF;2015-06-07 03:00;CYQF 070300Z 36004KT 15SM FEW100 BKN250 23/07 A2989 RMK AC1CI6 SLP119 DENSITY ALT 4500FT

CYQF;2015-06-07 04:00;CYQF 070400Z 31003KT 15SM FEW100 BKN250 21/06 A2991 RMK AC1CI5 SLP122 DENSITY ALT 4300FT

CYQF;2015-06-07 05:00;CYQF 070500Z 32004KT 15SM SCT250 18/07 A2993 RMK CI4 SLP130 DENSITY ALT 4000FT

CYQF;2015-06-07 06:00;CYQF 070600Z 02003KT 15SM SCT250 14/07 A2994 RMK CI4 SLP140 DENSITY ALT 3500FT

CYQF;2015-06-07 07:00;CYQF 070700Z 36003KT 15SM FEW090 SCT250 14/06 A2995 RMK AC1CI3 SLP144 DENSITY ALT 3500FT

CYQF;2015-06-07 08:00;CYQF 070800Z VRB02KT 15SM FEW090 SCT250 15/06 A2996 RMK AC2CI2 SLP145 DENSITY ALT 3600FT

CYQF;2015-06-07 09:00;CYQF 070900Z 00000KT 15SM FEW090 SCT250 11/06 A2998 RMK AC2CI2 SLP152 DENSITY ALT 3100FT

CYQF;2015-06-07 10:00;CYQF 071000Z 27004KT 15SM FEW080 SCT250 10/07 A2999 RMK AC2CI2 SLP157 DENSITY ALT 3000FT

CYQF;2015-06-07 11:00;CYQF 071100Z 27006KT 15SM FEW080 SCT250 11/06 A3000 RMK AC2CI2 SLP160 DENSITY ALT 3000FT

CYQF;2015-06-07 12:00;CYQF 071200Z VRB02KT 15SM FEW080 BKN250 10/06 A3001 RMK AC2CI5 SLP165

CYQF;2015-06-07 13:00;CYQF 071300Z 00000KT 15SM FEW100 BKN250 14/07 A3002 RMK AC2CI5 SLP161 DENSITY ALT 3400FT

CYQF;2015-06-07 14:00;CYQF 071400Z 00000KT 15SM BKN120 OVC250 16/08 A3002 RMK AC5CI3 SLP160 DENSITY ALT 3600FT

CYQF;2015-06-07 15:00;CYQF 071500Z 23003KT 15SM FEW120 BKN250 18/09 A3002 RMK AC2CI5 SLP160 DENSITY ALT 3800FT

CYQF;2015-06-07 16:00;CYQF 071600Z 25004KT 180V270 15SM FEW120 BKN250 21/06 A3001 RMK AC2CI4 SLP155 DENSITY ALT 4100FT

CYQF;2015-06-07 17:00;CYQF 071700Z VRB03KT 15SM FEW120 BKN250 21/05 A3000 RMK AC2CI4 SLP154 DENSITY ALT 4200FT

CYQF;2015-06-07 18:00;CYQF 071800Z 27005KT 170V290 15SM FEW120 BKN250 23/04 A2999 RMK AC1CI5 SLP154 DENSITY ALT 4400FT

CYQF;2015-06-07 19:00;CYQF 071900Z 21007KT 130V240 15SM BKN250 24/04 A2997 RMK CI6 SLP148 DENSITY ALT 4500FT

CYQF;2015-06-07 20:00;CYQF 072000Z 24004KT 110V260 15SM BKN250 25/05 A2995 RMK CI5 SLP138 DENSITY ALT 4700FT

CYQF;2015-06-07 21:00;CYQF 072100Z VRB06KT 15SM BKN250 26/05 A2992 RMK CI5 SLP130 DENSITY ALT 4900FT

CYQF;2015-06-07 21:04;CYQF 072104Z VRB06KT 15SM BKN250 26/04 A2992 RMK CI5 SLP129 DENSITY ALT 4900FT

CYQF;2015-06-07 22:00;CYQF 072200Z VRB02KT 15SM BKN250 26/04 A2991 RMK CI6 SLP127 DENSITY ALT 4900FT

CYQF;2015-06-07 23:00;CYQF 072300Z VRB06KT 15SM FEW120 OVC250 26/04 A2990 RMK AC2CI6 ACSL NW-N SLP123 DENSITY ALT 4900FT

CYQF;2015-06-08 00:00;CYQF 080000Z 21004KT 130V220 15SM FEW150 BKN250 27/05 A2989 RMK AC2CI5 SLP120 DENSITY ALT 5000FT

CYQF;2015-06-08 01:00;CYQF 080100Z 23004KT 150V250 15SM SCT120 BKN250 26/05 A2989 RMK AC3CI3 SLP116 DENSITY ALT 4900FT

CYQF;2015-06-08 02:00;CYQF 080200Z 17003KT 15SM FEW120 BKN250 26/07 A2988 RMK AC1CI5 SLP112 DENSITY ALT 4900FT

CYQF;2015-06-08 03:00;CYQF 080300Z 14004KT 15SM SCT250 25/08 A2988 RMK CI4 SLP110 DENSITY ALT 4800FT

CYQF;2015-06-08 04:00;CYQF 080400Z 05004KT 15SM FEW250 19/08 A2989 RMK CI2 SLP118 DENSITY ALT 4100FT

CYQF;2015-06-08 05:00;CYQF 080500Z 14003KT 15SM FEW250 19/08 A2988 RMK CI2 SLP115 DENSITY ALT 4100FT

CYQF;2015-06-08 06:00;CYQF 080600Z 33002KT 15SM FEW250 17/08 A2989 RMK CI2 SLP117 DENSITY ALT 3900FT

CYQF;2015-06-08 07:00;CYQF 080700Z 31004KT 300V050 15SM FEW120 SCT250 14/08 A2988 RMK AC2CI2 SLP117 DENSITY ALT 3600FT

CYQF;2015-06-08 08:00;CYQF 080800Z 00000KT 15SM SCT250 13/08 A2988 RMK CI3 SLP118 DENSITY ALT 3400FT

CYQF;2015-06-08 09:00;CYQF 080900Z 00000KT 15SM FEW250 12/08 A2988 RMK CI2 SLP116 DENSITY ALT 3300FT

CYQF;2015-06-08 10:00;CYQF 081000Z 25002KT 15SM FEW120 SCT250 11/08 A2988 RMK AC1CI3 AC TR SLP117 DENSITY ALT 3200FT

CYQF;2015-06-08 11:00;CYQF 081100Z 20007KT 10SM FEW120 09/07 A2987 RMK AC1 AC TR SLP117

CYQF;2015-06-08 12:00;CYQF 081200Z 21005KT 15SM FEW120 10/08 A2987 RMK AC1 AC TR SLP113 DENSITY ALT 3100FT

CYQF;2015-06-08 13:00;CYQF 081300Z 20005KT 15SM FEW120 13/09 A2986 RMK AC1 AC TR SLP106 DENSITY ALT 3500FT

CYQF;2015-06-08 14:00;CYQF 081400Z 19006KT 170V250 15SM FEW120 17/09 A2984 RMK AC1 SLP096 DENSITY ALT 4000FT

CYQF;2015-06-08 15:00;CYQF 081500Z 24007KT 200V270 15SM FEW120 21/09 A2983 RMK AC1 SLP089 DENSITY ALT 4400FT

CYQF;2015-06-08 16:00;CYQF 081600Z 33008KT 280V350 15SM SKC 24/10 A2982 RMK SLP090 DENSITY ALT 4800FT

CYQF;2015-06-08 17:00;CYQF 081700Z 02010KT 15SM FEW055 24/10 A2982 RMK CF1 SLP089 DENSITY ALT 4700FT

CYQF;2015-06-08 18:00;CYQF 081800Z 36014KT 15SM FEW060 25/09 A2980 RMK CU1 SLP085 DENSITY ALT 4900FT

CYQF;2015-06-08 19:00;CYQF 081900Z 02015KT 350V050 15SM FEW060 25/09 A2979 RMK CU1 SLP082 DENSITY ALT 4900FT

CYQF;2015-06-08 20:00;CYQF 082000Z 02012G18KT 15SM FEW060 25/09 A2978 RMK CU1 SLP082 DENSITY ALT 4900FT

CYQF;2015-06-08 21:00;CYQF 082100Z 01016KT 15SM FEW068 26/08 A2978 RMK CU1 SLP080 DENSITY ALT 5000FT

CYQF;2015-06-08 22:00;CYQF 082200Z 36011G19KT 340V040 15SM FEW076 FEW100 27/07 A2979 RMK CU1AC1 SLP087 DENSITY ALT 5100FT

CYQF;2015-06-08 23:00;CYQF 082300Z 02017G23KT 15SM FEW073 FEW120 25/07 A2981 RMK CU1AC1 AC TR SLP095 DENSITY ALT 4900FT

CYQF;2015-06-09 00:00;CYQF 090000Z 02018G24KT 15SM FEW070 FEW100 24/07 A2983 RMK CU1AC2 CU TR SLP104 DENSITY ALT 4700FT

CYQF;2015-06-09 01:00;CYQF 090100Z 01016KT 15SM FEW100 23/07 A2985 RMK AC2 SLP107 DENSITY ALT 4600FT

CYQF;2015-06-09 02:00;CYQF 090200Z 01017G23KT 15SM SCT120 21/04 A2988 RMK AC4 SLP114 DENSITY ALT 4400FT

CYQF;2015-06-09 03:00;CYQF 090300Z 01013G19KT 15SM BKN075 20/03 A2990 RMK AC6 SLP118 DENSITY ALT 4200FT

CYQF;2015-06-09 04:00;CYQF 090400Z 35004KT 15SM BKN075 19/04 A2992 RMK AC7 SLP124 DENSITY ALT 4000FT

CYQF;2015-06-09 05:00;CYQF 090500Z 33004KT 15SM BKN080 17/03 A2994 RMK AC5 SLP133 DENSITY ALT 3800FT

CYQF;2015-06-09 06:00;CYQF 090600Z 04008KT 15SM SCT080 15/03 A2996 RMK AC3 SLP142 DENSITY ALT 3600FT

CYQF;2015-06-09 07:00;CYQF 090700Z 06003KT 15SM FEW080 13/04 A2997 RMK AC2 SLP146 DENSITY ALT 3300FT

CYQF;2015-06-09 08:00;CYQF 090800Z 00000KT 15SM BKN080 14/04 A2996 RMK AC6 SLP143 DENSITY ALT 3500FT

CYQF;2015-06-09 09:00;CYQF 090900Z 00000KT 15SM OVC080 13/06 A2997 RMK AC8 SLP145 DENSITY ALT 3300FT

CYQF;2015-06-09 10:00;CYQF 091000Z 23003KT 15SM OVC080 13/07 A2997 RMK AC8 SLP147 DENSITY ALT 3300FT

CYQF;2015-06-09 11:00;CYQF 091100Z 27004KT 15SM OVC085 13/07 A2999 RMK AC8 SLP155 DENSITY ALT 3200FT

CYQF;2015-06-09 12:00;CYQF 091200Z 31005KT 15SM OVC080 13/06 A3001 RMK AC8 SLP164 DENSITY ALT 3200FT

CYQF;2015-06-09 13:00;CYQF 091300Z 02006KT 15SM OVC076 13/08 A3003 RMK AC8 VIRGA SLP170 DENSITY ALT 3200FT

CYQF;2015-06-09 13:19;CYQF 091319Z 04002KT 15SM -RA OVC076 13/08 A3003 RMK AC8 CIG RAG SLP168 DENSITY ALT 3200FT

CYQF;2015-06-09 13:46;CYQF 091346Z 00000KT 15SM BKN078 13/07 A3003 RMK AC7 VIRGA CIG RAG SLP168 DENSITY ALT 3300FT

CYQF;2015-06-09 14:00;CYQF 091400Z 11004KT 15SM BKN080 13/07 A3001 RMK AC7 VIRGA PRESFR SLP166 DENSITY ALT 3300FT

CYQF;2015-06-09 15:00;CYQF 091500Z 17008KT 15SM BKN100 14/07 A2999 RMK AC6 VIRGA SLP159 DENSITY ALT 3400FT

CYQF;2015-06-09 16:00;CYQF 091600Z VRB02KT 15SM FEW050 BKN120 16/06 A3000 RMK CU1AC6 CU TR SLP159 DENSITY ALT 3700FT

CYQF;2015-06-09 17:00;CYQF 091700Z 15005KT 120V210 15SM FEW050 SCT120 18/06 A2998 RMK CU1AC3 SLP153 DENSITY ALT 3900FT

CYQF;2015-06-09 18:00;CYQF 091800Z 19004KT 140V230 15SM FEW060 FEW120 19/04 A2997 RMK CU1AC1 SLP152 DENSITY ALT 4000FT

CYQF;2015-06-09 19:00;CYQF 091900Z 16006G15KT 15SM FEW060 FEW250 20/03 A2996 RMK CU1CI1 SLP151 DENSITY ALT 4100FT

CYQF;2015-06-09 20:00;CYQF 092000Z 21007KT 100V270 15SM FEW070 FEW250 21/05 A2995 RMK CU1CI1 CI TR SLP143 DENSITY ALT 4300FT

CYQF;2015-06-09 21:00;CYQF 092100Z VRB06KT 15SM FEW070 FEW250 22/05 A2994 RMK CU1CI1 SLP138 DENSITY ALT 4400FT

CYQF;2015-06-09 22:00;CYQF 092200Z VRB05KT 15SM FEW070 BKN120 22/05 A2992 RMK CU2AC4 SLP133 DENSITY ALT 4400FT

CYQF;2015-06-09 23:00;CYQF 092300Z 00000KT 15SM FEW072 BKN140 22/05 A2991 RMK CU2AC5 SLP131 DENSITY ALT 4400FT

CYQF;2015-06-10 00:00;CYQF 100000Z VRB02KT 15SM BKN080 22/03 A2991 RMK CU7 SLP130 DENSITY ALT 4400FT

CYQF;2015-06-10 01:00;CYQF 100100Z 21004KT 15SM BKN100 21/06 A2991 RMK AC7 SLP131 DENSITY ALT 4300FT

CYQF;2015-06-10 02:00;CYQF 100200Z 24003KT 15SM BKN100 21/06 A2991 RMK AC7 SLP132 DENSITY ALT 4300FT

CYQF;2015-06-10 03:00;CYQF 100300Z 00000KT 15SM BKN140 21/06 A2991 RMK AC6 SLP131 DENSITY ALT 4300FT

CYQF;2015-06-10 04:00;CYQF 100400Z 17002KT 15SM BKN130 19/08 A2993 RMK AC6 SLP135 DENSITY ALT 4000FT

CYQF;2015-06-10 05:00;CYQF 100500Z 23004KT 15SM BKN100 17/07 A2993 RMK AC6 SLP137 DENSITY ALT 3800FT

CYQF;2015-06-10 06:00;CYQF 100600Z VRB02KT 15SM BKN100 15/09 A2994 RMK AC6 SLP140 DENSITY ALT 3600FT

CYQF;2015-06-10 06:39;CYQF 100639Z 01006KT 12SM -SHRA OVC100 15/08 A2994 RMK ACC8 SLP142 DENSITY ALT 3600FT

CYQF;2015-06-10 07:00;CYQF 100700Z 08006KT 12SM -SHRA OVC100 15/09 A2995 RMK ACC8 SLP146 DENSITY ALT 3500FT

CYQF;2015-06-10 07:46;CYQF 100746Z 06006KT 15SM OVC090 14/08 A2995 RMK AC8 SLP147 DENSITY ALT 3400FT

CYQF;2015-06-10 08:00;CYQF 100800Z 05006KT 15SM BKN090 13/08 A2996 RMK AC6 SLP147 DENSITY ALT 3300FT

CYQF;2015-06-10 09:00;CYQF 100900Z 33005KT 330V050 15SM BKN078 12/08 A2996 RMK AC6 SLP149 DENSITY ALT 3300FT

CYQF;2015-06-10 10:00;CYQF 101000Z 07007KT 15SM VCSH BKN080 12/08 A2995 RMK AC7 SLP143 DENSITY ALT 3300FT

CYQF;2015-06-10 10:19;CYQF 101019Z 12005KT 070V140 15SM -RA BKN080 12/09 A2995 RMK AC7 SLP142 DENSITY ALT 3300FT

CYQF;2015-06-10 11:00;CYQF 101100Z 36006KT 350V060 15SM BKN080 12/09 A2995 RMK AC7 VIRGA SLP146 DENSITY ALT 3200FT

CYQF;2015-06-10 12:00;CYQF 101200Z 09008KT 15SM VCSH BKN080 11/08 A2995 RMK AC7 SLP147 DENSITY ALT 3200FT

CYQF;2015-06-10 12:07;CYQF 101207Z 08011KT 10SM -SHRA BKN070 11/08 A2995 RMK AC7 SLP144 DENSITY ALT 3100FT

CYQF;2015-06-10 13:00;CYQF 101300Z VRB04KT 15SM OVC076 11/09 A2996 RMK AC8 CU SLP149 DENSITY ALT 3100FT

CYQF;2015-06-10 13:28;CYQF 101328Z 09003KT 070V200 15SM VCSH OVC080 12/10 A2996 RMK AC8 SLP148 DENSITY ALT 3200FT

CYQF;2015-06-10 14:00;CYQF 101400Z 00000KT 15SM OVC075 12/09 A2996 RMK AC8 SLP150 DENSITY ALT 3200FT

CYQF;2015-06-10 15:00;CYQF 101500Z 03003KT 010V130 15SM BKN075 14/09 A2996 RMK AC7 SLP148 DENSITY ALT 3400FT

CYQF;2015-06-10 16:00;CYQF 101600Z 07003KT 020V080 15SM OVC065 14/09 A2996 RMK SC8 VIRGA SLP151 DENSITY ALT 3500FT

CYQF;2015-06-10 16:39;CYQF 101639Z 10006KT 15SM -SHRA FEW020 OVC065 15/10 A2996 RMK CU1SC7 SLP150 DENSITY ALT 3500FT

CYQF;2015-06-10 17:00;CYQF 101700Z 11007KT 15SM FEW020 OVC065 15/10 A2996 RMK CU1SC7 OCNL -SHRA SLP151 DENSITY ALT 3500FT

CYQF;2015-06-10 17:31;CYQF 101731Z 10008KT 070V130 15SM BKN065 17/11 A2995 RMK SC7 CU EMBD SLP146 DENSITY ALT 3800FT

CYQF;2015-06-10 18:00;CYQF 101800Z 09011KT 15SM BKN065 BKN120 17/09 A2995 RMK SC5AC1 SLP145 DENSITY ALT 3800FT

CYQF;2015-06-10 19:00;CYQF 101900Z 09015KT 15SM BKN065 BKN120 18/09 A2993 RMK SC5AC1 CU EMBD AC TR SLP138 DENSITY ALT 4000FT

CYQF;2015-06-10 20:00;CYQF 102000Z 12013KT 15SM FEW044 SCT150 BKN250 19/08 A2992 RMK CU1AC2CI2 SLP135 DENSITY ALT 4100FT

CYQF;2015-06-10 21:00;CYQF 102100Z 14011G17KT 090V170 15SM FEW050 SCT120 BKN250 20/08 A2990 RMK CU1AC2CI2 SLP129 DENSITY ALT 4200FT

CYQF;2015-06-10 22:00;CYQF 102200Z 13012G18KT 15SM SCT045 21/10 A2987 RMK CU3 SLP118 DENSITY ALT 4400FT

CYQF;2015-06-10 23:00;CYQF 102300Z 12011KT 15SM SCT045 SCT250 22/10 A2986 RMK CU3CI1 CI TR SLP113 DENSITY ALT 4400FT

CYQF;2015-06-11 00:00;CYQF 110000Z 11013KT 080V140 15SM FEW045 FEW250 21/10 A2984 RMK CU1CI1 SLP108 DENSITY ALT 4400FT

CYQF;2015-06-11 01:00;CYQF 110100Z 10010KT 15SM FEW040 FEW100 BKN250 20/10 A2984 RMK CU1AC1CI5 SLP109 DENSITY ALT 4300FT

CYQF;2015-06-11 02:00;CYQF 110200Z 08009KT 15SM VCSH SCT040CB BKN100 BKN250 19/10 A2984 RMK CB4AC2CI1 CB/SH W QUAD SLP110 DENSITY ALT 4200FT

CYQF;2015-06-11 02:43;CYQF 110243Z 05009KT 15SM -TSRA BKN040CB BKN080 BKN250 18/11 A2985 RMK CB5AC1CI1 LTGCG W SLP113 DENSITY ALT 4000FT

CYQF;2015-06-11 03:00;CYQF 110300Z 29016G23KT 270V040 12SM -TSRA BKN040CB BKN075 18/11 A2988 RMK CB5AC2 FRQ LTGIC LGTCG W PRESRR SLP122 DENSITY ALT 4000FT

CYQF;2015-06-11 03:09;CYQF 110309Z 31030G42KT 6SM +TSRA BR BKN040CB 13/09 A2988 RMK CB7 PRESRR SLP129 DENSITY ALT 3400FT

CYQF;2015-06-11 03:26;CYQF 110326Z 33022G39KT 5SM TSRA BR OVC050CB 13/09 A2992 RMK CB8 LTGIC ALQDS PRESRR SLP141 DENSITY ALT 3300FT

CYQF;2015-06-11 04:00;CYQF 110400Z 06008KT 10SM -TSRA BKN050CB BKN075 12/10 A2988 RMK CB5AC2 HVY SH E LTGIC E /R13/ SLP130 DENSITY ALT 3400FT

CYQF;2015-06-11 04:16;CYQF 110416Z 06016KT 15SM -SHRA SCT050CB BKN080 BKN180 13/10 A2987 RMK CB4AC2AC1 HVY SH NE PRESFR SLP124 DENSITY ALT 3400FT

CYQF;2015-06-11 04:34;CYQF 110434Z 06013KT 15SM VCSH SCT050CB BKN085 13/09 A2986 RMK CB4ACC3 LTGIC SE SLP120 DENSITY ALT 3500FT

CYQF;2015-06-11 05:00;CYQF 110500Z 08009KT 15SM FEW050CB BKN080 BKN180 13/10 A2985 RMK CB2AC3AC1 SLP116 DENSITY ALT 3400FT

CYQF;2015-06-11 06:00;CYQF 110600Z 11011G17KT 15SM BKN058 14/09 A2984 RMK SC7 LTGICCCCG DIST NW-N SLP110 DENSITY ALT 3600FT

CYQF;2015-06-11 07:00;CYQF 110700Z 09005G15KT 060V140 15SM OVC060 15/09 A2984 RMK SC8 LTNG DIST NW-N-NE SLP106 DENSITY ALT 3700FT

CYQF;2015-06-11 07:16;CYQF 110716Z 01018G30KT 15SM OVC055 14/09 A2984 RMK SC8 WSHFT 0701 PRESFR SLP108 DENSITY ALT 3600FT

CYQF;2015-06-11 07:18;CYQF 110718Z 04019G39KT 350V060 15SM TS OVC055 15/08 A2985 RMK SC8 CB ASOCTD SLP109 DENSITY ALT 3700FT

CYQF;2015-06-11 07:22;CYQF 110722Z 13017G39KT 350V150 15SM TS OVC055 16/08 A2985 RMK SC8 CB ASOCTD WND SHIFT SLP109 DENSITY ALT 3800FT

CYQF;2015-06-11 07:33;CYQF 110733Z 12014G29KT 15SM BKN055 OVC073 16/08 A2984 RMK SC5AC3 CB SLP105 DENSITY ALT 3800FT

CYQF;2015-06-11 08:00;CYQF 110800Z 04003KT 020V120 15SM OVC057 15/09 A2986 RMK SC8 CB LTNG NW-N-NE PRESRR SLP113 DENSITY ALT 3700FT

CYQF;2015-06-11 08:35;CYQF 110835Z 08012G18KT 10SM -SHRA BKN055 BKN080 OVC120 13/07 A2986 RMK SC5AC2AC1 PRESFR SLP116 DENSITY ALT 3500FT

CYQF;2015-06-11 08:43;CYQF 110843Z 05007KT 15SM FEW020 BKN065 OVC120 12/08 A2987 RMK SC2SC5AC1 SLP121 DENSITY ALT 3300FT

CYQF;2015-06-11 09:00;CYQF 110900Z 36010KT 15SM FEW060 OVC060 13/08 A2989 RMK SC2SC6 PRESRR SLP127 DENSITY ALT 3400FT

CYQF;2015-06-11 09:08;CYQF 110908Z 02007KT 15SM -SHRA OVC060 12/08 A2989 RMK SC8 SLP126 DENSITY ALT 3300FT

CYQF;2015-06-11 09:30;CYQF 110930Z 03003KT 020V090 15SM SCT060TCU BKN120 11/09 A2987 RMK TCU4ACC2 SLP121 DENSITY ALT 3200FT

CYQF;2015-06-11 10:00;CYQF 111000Z 08006KT 15SM FEW060 FEW120 10/08 A2986 RMK SC1AC1 PRESFR SLP114 DENSITY ALT 3100FT

CYQF;2015-06-11 11:00;CYQF 111100Z 07003KT 15SM FEW120 FEW250 10/08 A2984 RMK AC1CI1 AC TR CI TR SLP109 DENSITY ALT 3100FT

CYQF;2015-06-11 12:00;CYQF 111200Z VRB02KT 15SM FEW120 FEW250 10/08 A2984 RMK AC1CI2 AC TR SLP108 DENSITY ALT 3100FT

CYQF;2015-06-11 13:00;CYQF 111300Z 23004KT 180V250 15SM FEW120 SCT250 11/09 A2984 RMK AC1CI2 TCU TOPS DIST E SLP109 DENSITY ALT 3300FT

CYQF;2015-06-11 14:00;CYQF 111400Z 23006KT 15SM FEW120 SCT250 13/10 A2983 RMK AC1CI3 AC TR SLP106 DENSITY ALT 3500FT

CYQF;2015-06-11 15:00;CYQF 111500Z 18010KT 15SM SCT250 15/11 A2982 RMK CI4 SLP100 DENSITY ALT 3700FT

CYQF;2015-06-11 16:00;CYQF 111600Z 19009KT 15SM SCT250 17/11 A2979 RMK CI4 SLP096 DENSITY ALT 3900FT

CYQF;2015-06-11 17:00;CYQF 111700Z 16008KT 130V200 15SM FEW120 SCT250 19/13 A2977 RMK AC2CI2 SLP084 DENSITY ALT 4200FT

CYQF;2015-06-11 18:00;CYQF 111800Z 17009KT 130V190 15SM SCT120 BKN250 21/14 A2975 RMK AC3CI3 SLP073 DENSITY ALT 4500FT

CYQF;2015-06-11 19:00;CYQF 111900Z 17010KT 130V190 15SM FEW120 BKN250 22/14 A2972 RMK AC2CI5 SLP062 DENSITY ALT 4700FT

CYQF;2015-06-11 20:00;CYQF 112000Z 16007KT 15SM FEW120 BKN220 24/13 A2969 RMK AC1CI6 SLP048 DENSITY ALT 4800FT

CYQF;2015-06-11 21:00;CYQF 112100Z 17003KT 120V210 15SM FEW055 BKN220 24/10 A2967 RMK CU2CI5 SLP044 DENSITY ALT 5000FT

CYQF;2015-06-11 22:00;CYQF 112200Z 16004KT 110V180 15SM SCT065TCU BKN220 25/08 A2966 RMK TCU3CI4 SLP041 DENSITY ALT 5100FT

CYQF;2015-06-11 23:00;CYQF 112300Z 20004KT 15SM VCSH BKN065CB OVC100 25/07 A2964 RMK CB5AC3 LTGCG S-SW SLP036 DENSITY ALT 5000FT

CYQF;2015-06-12 00:00;CYQF 120000Z 16012KT 15SM VCSH BKN060CB BKN220 23/11 A2963 RMK CB5CI2 PRESFR SLP034 DENSITY ALT 4800FT

CYQF;2015-06-12 01:00;CYQF 120100Z 00000KT 15SM SCT060TCU SCT120 BKN220 23/11 A2961 RMK TCU3AC1CI2 ACSL SLP026 DENSITY ALT 4900FT

CYQF;2015-06-12 02:00;CYQF 120200Z 36011G20KT 15SM -TSRA SCT040CB OVC100 20/11 A2966 RMK CB4AC4 PRESRR SLP043 DENSITY ALT 4500FT

CYQF;2015-06-12 02:20;CYQF 120220Z 01013KT 15SM -SHRA SCT040CB BKN100 OVC220 18/12 A2965 RMK CB4AC3CI1 SLP045 DENSITY ALT 4200FT

CYQF;2015-06-12 02:45;CYQF 120245Z 02023G28KT 15SM -TSRA BKN040CB BKN100 OVC220 17/12 A2967 RMK CB6AC1CI1 SLP052 DENSITY ALT 4100FT

CYQF;2015-06-12 03:00;CYQF 120300Z 02019G30KT 15SM -SHRA FEW025 SCT040CB BKN100 16/11 A2969 RMK SF1CB3AC3 PRESRR SLP058 DENSITY ALT 4000FT

CYQF;2015-06-12 04:00;CYQF 120400Z 02012G18KT 15SM -SHRA SCT040TCU BKN080 15/10 A2975 RMK TCU3AC4 PRESFR SLP079 DENSITY ALT 3700FT

CYQF;2015-06-12 04:22;CYQF 120422Z 02004G18KT 340V050 15SM VCSH SCT050 BKN110 14/09 A2976 RMK SC3AC3 PRESRR SLP081 DENSITY ALT 3700FT

CYQF;2015-06-12 05:00;CYQF 120500Z 01006KT 15SM BKN080 14/09 A2977 RMK AC5 SLP083 DENSITY ALT 3600FT

CYQF;2015-06-12 06:00;CYQF 120600Z 33015G22KT 15SM BKN088 14/08 A2979 RMK AC7 SLP090 DENSITY ALT 3600FT

CYQF;2015-06-12 07:00;CYQF 120700Z 33007KT 15SM BKN091 12/08 A2978 RMK AC7 SLP084 DENSITY ALT 3500FT

CYQF;2015-06-12 08:00;CYQF 120800Z 26008KT 15SM -SHRA OVC091 12/08 A2980 RMK AC8 ACC SLP092 DENSITY ALT 3400FT

CYQF;2015-06-12 08:42;CYQF 120842Z 29008KT 15SM OVC073 11/08 A2979 RMK AC8 PRESFR SLP090 DENSITY ALT 3300FT

CYQF;2015-06-12 09:00;CYQF 120900Z VRB03KT 12SM OVC082 11/08 A2977 RMK AC8 PRESFR SLP081 DENSITY ALT 3300FT

CYQF;2015-06-12 10:00;CYQF 121000Z 30009KT 15SM BKN100 10/07 A2980 RMK AC7 SLP089 DENSITY ALT 3200FT

CYQF;2015-06-12 11:00;CYQF 121100Z 33010KT 15SM VCSH BKN092 BKN250 10/06 A2977 RMK AC6CI1 SLP083 DENSITY ALT 3200FT

CYQF;2015-06-12 11:38;CYQF 121138Z 28008KT 15SM -SHRA BKN078 10/06 A2980 RMK AC7 SLP092 DENSITY ALT 3200FT

CYQF;2015-06-12 11:52;CYQF 121152Z 29009KT 15SM BKN080 OVC250 10/07 A2981 RMK AC7CI1 ACC VIRGA SLP095 DENSITY ALT 3100FT

CYQF;2015-06-12 12:00;CYQF 121200Z 30009KT 15SM BKN076 OVC250 10/07 A2980 RMK AC7CI1 ACC VIRGA SLP095 DENSITY ALT 3100FT

CYQF;2015-06-12 13:00;CYQF 121300Z 31006KT 10SM -SHRA BKN054 OVC250 09/07 A2981 RMK SC5CI3 SLP098 DENSITY ALT 3100FT

CYQF;2015-06-12 14:00;CYQF 121400Z 31016KT 15SM -SHRA BKN051 OVC250 09/06 A2983 RMK SC5CI3 PRESRR SLP107 DENSITY ALT 3000FT

CYQF;2015-06-12 15:00;CYQF 121500Z 32019G25KT 15SM -SHRA FEW010 BKN050 07/05 A2984 RMK SF2SC5 CU EMBD SLP116

CYQF;2015-06-12 15:49;CYQF 121549Z 32010G19KT 4SM SHRA BR SCT012 OVC040 06/05 A2986 RMK SF3SC5 VIS S 8 SLP128

CYQF;2015-06-12 16:00;CYQF 121600Z 31013KT 3SM SHRA BR SCT012 OVC034 06/04 A2986 RMK SF4SC4 SLP128

CYQF;2015-06-12 17:51;CYQF 121751Z 24006KT 220V300 15SM VCSH FEW010 BKN045 OVC080 08/05 A2984 RMK CF2SC4AC2 SLP118

CYQF;2015-06-12 18:00;CYQF 121800Z 26005KT 220V280 15SM VCSH FEW010 BKN050 OVC080 08/06 A2984 RMK CF2SC4AC2 SLP118

CYQF;2015-06-12 19:00;CYQF 121900Z 23007KT 15SM BKN018 OVC080 10/06 A2984 RMK SC7AC1 TCU TOPS W SLP119 DENSITY ALT 3100FT

CYQF;2015-06-12 20:00;CYQF 122000Z VRB02KT 15SM FEW020TCU BKN100 BKN180 11/05 A2982 RMK TCU2AC3AC2 SLP111 DENSITY ALT 3300FT

CYQF;2015-06-12 21:00;CYQF 122100Z 34007KT 210V360 15SM SCT028TCU BKN160 BKN240 13/06 A2982 RMK TCU3AC3CI1 SH DIST W SLP111 DENSITY ALT 3500FT

CYQF;2015-06-12 21:41;CYQF 122141Z 32020G27KT 12SM -SHRA BKN035TCU OVC140 09/05 A2984 RMK TCU7AC1 SLP122 DENSITY ALT 3000FT

CYQF;2015-06-12 22:00;CYQF 122200Z 35008KT 15SM VCSH BKN035TCU BKN140 11/06 A2982 RMK TCU6AC1 PRESFR SLP115 DENSITY ALT 3200FT

CYQF;2015-06-12 23:00;CYQF 122300Z 28007KT 250V320 15SM SCT040TCU BKN210 14/04 A2981 RMK TCU3CI3 SLP106 DENSITY ALT 3600FT

CYQF;2015-06-13 00:00;CYQF 130000Z 32012G25KT 15SM VCSH BKN050TCU BKN080 12/03 A2983 RMK TCU6AC1 PRESRR SLP117 DENSITY ALT 3300FT

CYQF;2015-06-13 00:12;CYQF 130012Z 31018G23KT 12SM -SHRA BKN045CB BKN080 10/04 A2985 RMK CB6AC1 PRESRR SLP124 DENSITY ALT 3100FT

CYQF;2015-06-13 01:03;CYQF 130103Z 27005KT 200V280 15SM VCSH SCT050CB BKN080 BKN250 12/04 A2981 RMK CB3AC3CI1 SLP109 DENSITY ALT 3400FT

CYQF;2015-06-13 02:00;CYQF 130200Z 27005KT 15SM FEW040TCU SCT250 12/05 A2983 RMK TCU2CI2 SLP115 DENSITY ALT 3400FT

CYQF;2015-06-13 03:00;CYQF 130300Z 32005KT 15SM SCT060 BKN250 11/06 A2985 RMK SC4CI1 SLP128 DENSITY ALT 3200FT

CYQF;2015-06-13 04:00;CYQF 130400Z 30006KT 15SM VCSH BKN060 10/06 A2987 RMK SC7 TCU EMBD SLP136 DENSITY ALT 3100FT

CYQF;2015-06-13 04:42;CYQF 130442Z 33015KT 10SM -SHRA BKN045 09/05 A2989 RMK SC7 TCU SLP144

CYQF;2015-06-13 05:00;CYQF 130500Z 33010G16KT 15SM BKN040 BKN100 09/05 A2989 RMK SC6AC1 TCU SLP145

CYQF;2015-06-13 06:00;CYQF 130600Z 00000KT 15SM BKN063 BKN100 08/05 A2987 RMK SC6AC1 SLP137

CYQF;2015-06-13 07:00;CYQF 130700Z 23006KT 15SM FEW060 FEW100 07/05 A2986 RMK SC1AC1 SLP133

CYQF;2015-06-13 08:00;CYQF 130800Z 25006KT 15SM FEW220 06/05 A2986 RMK CI2 SLP133

CYQF;2015-06-13 09:00;CYQF 130900Z 26006KT 15SM FEW050 OVC080 07/05 A2986 RMK SC2AC6 SLP130

CYQF;2015-06-13 09:12;CYQF 130912Z 23005KT 12SM -SHRA OVC061 07/05 A2986 RMK SC8 SLP130

CYQF;2015-06-13 09:16;CYQF 130916Z 23004KT 15SM OVC050 07/05 A2986 RMK SC8 SLP129

CYQF;2015-06-13 10:00;CYQF 131000Z 23005KT 15SM OVC052 07/05 A2985 RMK SC8 SLP129

CYQF;2015-06-13 11:00;CYQF 131100Z 22004KT 15SM SCT050 OVC066 07/05 A2985 RMK SC4AC4 SLP124

CYQF;2015-06-13 11:37;CYQF 131137Z 29003KT 240V310 15SM -SHRA BKN045 BKN065 07/05 A2986 RMK SC5SC2 TCU SLP127

CYQF;2015-06-13 12:00;CYQF 131200Z 00000KT 15SM SCT045 BKN068 07/06 A2985 RMK SC3AC4 SLP127

CYQF;2015-06-13 12:44;CYQF 131244Z 27005KT 15SM -SHRA BKN055 OVC120 08/06 A2986 RMK SC6AC2 SLP131

CYQF;2015-06-13 13:00;CYQF 131300Z 26006KT 15SM -SHRA BKN055 OVC120 08/06 A2987 RMK SC6AC2 SLP132

CYQF;2015-06-13 14:00;CYQF 131400Z 31009KT 15SM -SHRA BKN055 BKN120 08/05 A2988 RMK SC6AC1 SLP134

CYQF;2015-06-13 15:00;CYQF 131500Z 30012KT 15SM -SHRA SCT020 BKN054 OVC120 08/05 A2988 RMK SC3SC4AC1 SLP138

CYQF;2015-06-13 16:00;CYQF 131600Z 31013G18KT 15SM -SHRA FEW020 OVC040 09/05 A2988 RMK SC2SC6 SLP137

CYQF;2015-06-13 16:49;CYQF 131649Z 30013G22KT 15SM BKN024 OVC040 09/07 A2988 RMK SC5SC3 SLP137 DENSITY ALT 3000FT

CYQF;2015-06-13 17:00;CYQF 131700Z 29015G21KT 15SM BKN024 OVC040 09/06 A2988 RMK SC5SC3 SLP139 DENSITY ALT 3000FT

CYQF;2015-06-13 18:00;CYQF 131800Z 30015G20KT 15SM OVC020 10/06 A2989 RMK SC8 SLP141 DENSITY ALT 3000FT

CYQF;2015-06-13 18:13;CYQF 131813Z 27014G//KT 15SM -SHRA OVC020 10/06 A2990 RMK SC8 WND ESTD SLP144 DENSITY ALT 3000FT

CYQF;2015-06-13 19:00;CYQF 131900Z 30015KT 15SM BKN020 OVC040 11/06 A2990 RMK SC5SC3 SLP146 DENSITY ALT 3100FT

CYQF;2015-06-13 19:44;CYQF 131944Z 32014G21KT 10SM -SHRA BKN020 OVC042 11/07 A2991 RMK SC6SC2 SLP147 DENSITY ALT 3200FT

CYQF;2015-06-13 20:00;CYQF 132000Z 33012G22KT 10SM -SHRA BKN020 OVC042 10/08 A2991 RMK SC6SC2 SLP151 DENSITY ALT 3000FT

CYQF;2015-06-13 21:00;CYQF 132100Z 33017KT 10SM -SHRA BKN030TCU 11/07 A2991 RMK TCU7 SLP150 DENSITY ALT 3100FT

CYQF;2015-06-13 22:00;CYQF 132200Z 33012KT 15SM -SHRA BKN030TCU 11/07 A2993 RMK TCU7 SLP155 DENSITY ALT 3100FT

CYQF;2015-06-13 23:00;CYQF 132300Z 35009G15KT 15SM -SHRA BKN030TCU 11/08 A2995 RMK TCU7 SLP164 DENSITY ALT 3100FT

CYQF;2015-06-14 00:03;CYQF 140003Z 36013G18KT 15SM VCSH BKN038TCU 11/07 A2997 RMK TCU7 SLP169 DENSITY ALT 3100FT

CYQF;2015-06-14 01:00;CYQF 140100Z 36011G18KT 15SM VCSH BKN026TCU BKN060 10/06 A2999 RMK TCU5SC2 SLP177

CYQF;2015-06-14 02:00;CYQF 140200Z 35008KT 15SM FEW040TCU BKN240 10/05 A3002 RMK TCU2CI5 SLP185 DENSITY ALT 3000FT

CYQF;2015-06-14 03:00;CYQF 140300Z 32005KT 15SM BKN060 BKN240 10/05 A3004 RMK SC6CI1 SLP193

CYQF;2015-06-14 04:00;CYQF 140400Z 31007KT 15SM SCT040 BKN070 OVC240 09/05 A3006 RMK SC4AC3CI1 SLP201

CYQF;2015-06-14 05:00;CYQF 140500Z 29006KT 15SM SCT046 BKN070 OVC250 09/05 A3006 RMK SC4AC3CI1 SLP202

CYQF;2015-06-14 06:00;CYQF 140600Z 27010KT 15SM OVC100 09/06 A3006 RMK AC8 SLP201

CYQF;2015-06-14 07:00;CYQF 140700Z 28009KT 15SM OVC110 09/06 A3007 RMK AC8 SLP202

CYQF;2015-06-14 08:00;CYQF 140800Z 29010KT 15SM OVC110 08/06 A3007 RMK AC8 SLP203

CYQF;2015-06-14 09:00;CYQF 140900Z 30010KT 15SM FEW080 SCT140 BKN250 08/06 A3007 RMK AC2AC2CI3 SLP203

CYQF;2015-06-14 10:00;CYQF 141000Z 30010KT 15SM FEW042 SCT100 BKN160 08/06 A3007 RMK SC1AC3AC2 SLP204

CYQF;2015-06-14 11:00;CYQF 141100Z 31009KT 15SM BKN024 BKN040 BKN160 08/06 A3009 RMK SC5SC1AC2 SC TR SLP209

CYQF;2015-06-14 11:44;CYQF 141144Z 30006KT 15SM FEW010 OVC021 08/06 A3010 RMK SF2SC6 SLP214

CYQF;2015-06-14 12:00;CYQF 141200Z 30006KT 15SM FEW012 OVC018 08/06 A3011 RMK SC2SC6 SLP215

CYQF;2015-06-14 13:00;CYQF 141300Z 33012KT 15SM SCT020 BKN045 BKN250 09/06 A3012 RMK SC4SC1CI2 CU ASCTD SLP218

CYQF;2015-06-14 14:00;CYQF 141400Z 33013G18KT 15SM BKN018 BKN250 09/06 A3013 RMK SC5CI2 SLP224

CYQF;2015-06-14 15:00;CYQF 141500Z 34014KT 15SM BKN021 BKN100 10/05 A3015 RMK SC5AC1 CU SLP230

CYQF;2015-06-14 16:00;CYQF 141600Z 34011G23KT 15SM BKN024 BKN100 12/06 A3015 RMK CU5AC1 SLP228

CYQF;2015-06-14 17:00;CYQF 141700Z 34018KT 15SM VCSH BKN028TCU 12/04 A3015 RMK TCU7 SLP228 DENSITY ALT 3000FT

CYQF;2015-06-14 17:19;CYQF 141719Z 32015KT 310V020 15SM -SHRA BKN030TCU 11/05 A3015 RMK TCU7 SLP231

CYQF;2015-06-14 18:00;CYQF 141800Z 32009G15KT 300V010 15SM -SHRA BKN026TCU 11/06 A3016 RMK TCU6 SLP232

CYQF;2015-06-14 18:39;CYQF 141839Z 36012G18KT 15SM VCSH BKN036TCU 13/05 A3016 RMK TCU6 SLP232 DENSITY ALT 3000FT

CYQF;2015-06-14 19:00;CYQF 141900Z 36017G22KT 15SM BKN040 13/03 A3016 RMK CU6 SLP232 DENSITY ALT 3100FT

CYQF;2015-06-14 20:00;CYQF 142000Z 36011G20KT 15SM BKN040 14/05 A3018 RMK CU6 SLP236 DENSITY ALT 3200FT

CYQF;2015-06-14 21:00;CYQF 142100Z 03010G19KT 15SM BKN040 14/04 A3018 RMK CU6 SLP238 DENSITY ALT 3200FT

CYQF;2015-06-14 22:00;CYQF 142200Z 01010G20KT 15SM VCSH BKN040 14/03 A3019 RMK CU6 SLP240 DENSITY ALT 3100FT

CYQF;2015-06-14 23:00;CYQF 142300Z 03009KT 340V050 15SM VCSH BKN040 14/04 A3020 RMK CU7 SLP245 DENSITY ALT 3200FT

CYQF;2015-06-15 00:00;CYQF 150000Z 35007KT 15SM VCSH BKN050 13/03 A3020 RMK CU7 SLP245 DENSITY ALT 3100FT

CYQF;2015-06-15 01:00;CYQF 150100Z 02008KT 15SM VCSH BKN060TCU BKN100 12/04 A3021 RMK TCU5AC2 SLP249 DENSITY ALT 3000FT

CYQF;2015-06-15 02:00;CYQF 150200Z 01004KT 15SM VCSH BKN040TCU BKN100 12/05 A3024 RMK TCU6AC1 SLP258

CYQF;2015-06-15 03:00;CYQF 150300Z 28002KT 15SM VCSH BKN040TCU BKN080 BKN240 10/07 A3025 RMK TCU5AC1CI1 SLP265

CYQF;2015-06-15 04:00;CYQF 150400Z 31005KT 15SM BKN040 BKN100 BKN240 09/06 A3026 RMK SC5AC1CI1 SH DIST SW - W SLP268

CYQF;2015-06-15 05:00;CYQF 150500Z 28005KT 15SM FEW040 FEW100 FEW250 08/06 A3028 RMK SC1AC1CI1 SC TR SLP273

CYQF;2015-06-15 06:00;CYQF 150600Z 27003KT 15SM FEW100 06/05 A3029 RMK AC1 AC TR SLP281

CYQF;2015-06-15 07:00;CYQF 150700Z 17004KT 15SM FEW100 05/04 A3029 RMK AC1 AC TR SLP281

CYQF;2015-06-15 07:25;CYQF 150725Z 20004KT 1SM BR VV002 04/04 A3029 RMK FG8 VIS S 1/2 SLP282

CYQF;2015-06-15 08:00;CYQF 150800Z 20003KT 1/2SM FG SKC 04/04 A3030 RMK FG3 SLP282

CYQF;2015-06-15 08:14;CYQF 150814Z 20004KT 1/4SM FG SKC 03/03 A3030 RMK FG5 VIS SW 1/8 SLP283

CYQF;2015-06-15 08:52;CYQF 150852Z 19005KT 1/8SM FG VV001 03/03 A3030 RMK FG8 SLP284

CYQF;2015-06-15 09:00;CYQF 150900Z 20005KT 1/8SM FG VV001 03/03 A3030 RMK FG8 SLP282

CYQF;2015-06-15 09:49;CYQF 150949Z 23003KT 1/4SM FG SKC 04/03 A3029 RMK FG5 SLP280

CYQF;2015-06-15 10:00;CYQF 151000Z 24005KT 1/2SM FG SKC 03/03 A3029 RMK FG5 SLP281

CYQF;2015-06-15 10:19;CYQF 151019Z 00000KT 1/4SM FG SKC 03/02 A3029 RMK FG4 SLP282

CYQF;2015-06-15 10:37;CYQF 151037Z VRB02KT 1/8SM FG SKC 03/02 A3029 RMK FG5 SLP281

CYQF;2015-06-15 11:00;CYQF 151100Z 16004KT 130V190 1/4SM FG SKC 02/02 A3028 RMK FG5 SLP280

CYQF;2015-06-15 11:32;CYQF 151132Z 22004KT 1/4SM FG FEW100 02/02 A3028 RMK FG2AC1 AC TR SLP280

CYQF;2015-06-15 12:00;CYQF 151200Z 22003KT 1/8SM FG SKC 02/02 A3028 RMK FG4 SLP280

CYQF;2015-06-15 13:00;CYQF 151300Z 21003KT 1/8SM FG SKC 03/03 A3028 RMK FG6 SLP279

CYQF;2015-06-15 13:28;CYQF 151328Z VRB02KT 1/4SM FG SKC 05/05 A3028 RMK FG6 SLP276

CYQF;2015-06-15 13:48;CYQF 151348Z 17003KT 2SM PRFG SKC 06/05 A3028 RMK FG4 SLP275

CYQF;2015-06-15 14:00;CYQF 151400Z VRB02KT 2 1/2SM PRFG FEW008 06/06 A3027 RMK FG1CF1 SLP274

CYQF;2015-06-15 14:17;CYQF 151417Z VRB02KT 10SM FEW008 08/08 A3027 RMK CF2 VIS LWR NW-N SLP272

CYQF;2015-06-15 15:00;CYQF 151500Z 22004KT 200V270 15SM FEW010 10/07 A3027 RMK CF2 SLP271

CYQF;2015-06-15 16:00;CYQF 151600Z 21007KT 180V240 15SM SCT020 12/06 A3026 RMK CU4 SLP267

CYQF;2015-06-15 17:00;CYQF 151700Z 19006KT 150V220 15SM BKN040 13/04 A3024 RMK CU5 SLP259 DENSITY ALT 3000FT

CYQF;2015-06-15 18:00;CYQF 151800Z 16007KT 15SM BKN040 14/04 A3022 RMK CU5 SLP252 DENSITY ALT 3200FT

CYQF;2015-06-15 19:00;CYQF 151900Z 16008KT 15SM BKN048 15/03 A3020 RMK CU5 SLP247 DENSITY ALT 3300FT

CYQF;2015-06-15 20:00;CYQF 152000Z 01005KT 15SM BKN050 16/03 A3018 RMK CU6 WND ESTD SLP240 DENSITY ALT 3400FT

CYQF;2015-06-15 21:00;CYQF 152100Z 19009KT 160V240 15SM BKN056 17/04 A3016 RMK CU6 SLP233 DENSITY ALT 3600FT

CYQF;2015-06-15 22:00;CYQF 152200Z 18007KT 110V200 15SM BKN060 17/04 A3014 RMK CU6 SLP226 DENSITY ALT 3600FT

CYQF;2015-06-15 23:00;CYQF 152300Z 17007KT 140V210 15SM BKN060 17/04 A3013 RMK CU6 SLP222 DENSITY ALT 3600FT

CYQF;2015-06-16 00:00;CYQF 160000Z 17006KT 120V200 15SM SCT060 BKN150 18/04 A3011 RMK CU4AC2 SLP214 DENSITY ALT 3700FT

CYQF;2015-06-16 01:00;CYQF 160100Z 15006KT 15SM FEW060 SCT120 SCT250 17/04 A3009 RMK CU2AC1CI1 SLP207 DENSITY ALT 3700FT

CYQF;2015-06-16 02:00;CYQF 160200Z 17007KT 15SM FEW060 FEW120 SCT250 17/05 A3008 RMK CU1AC1CI2 CU TR SLP200 DENSITY ALT 3700FT

CYQF;2015-06-16 03:00;CYQF 160300Z 13005KT 15SM FEW060 FEW250 16/06 A3007 RMK CU1CI1 CU TR SLP196 DENSITY ALT 3500FT

CYQF;2015-06-16 04:00;CYQF 160400Z 15005KT 15SM FEW100 FEW250 13/06 A3007 RMK AC1CI1 AC TR SLP197 DENSITY ALT 3200FT

CYQF;2015-06-16 05:00;CYQF 160500Z 17005KT 15SM FEW250 11/06 A3007 RMK CI1 SLP196 DENSITY ALT 3000FT

CYQF;2015-06-16 06:00;CYQF 160600Z 21003KT 15SM FEW250 10/06 A3006 RMK CI1 SLP195

CYQF;2015-06-16 07:00;CYQF 160700Z 19006KT 15SM FEW250 09/06 A3006 RMK CI1 SLP192

CYQF;2015-06-16 08:00;CYQF 160800Z 19006KT 15SM SKC 08/05 A3004 RMK SLP185

CYQF;2015-06-16 09:00;CYQF 160900Z 18004KT 15SM FEW250 07/05 A3003 RMK CI1 SLP181

CYQF;2015-06-16 10:00;CYQF 161000Z 21004KT 15SM FEW250 07/05 A3001 RMK CI1 SLP176

CYQF;2015-06-16 11:00;CYQF 161100Z 18005KT 15SM FEW250 06/05 A3000 RMK CI1 SLP173

CYQF;2015-06-16 12:00;CYQF 161200Z 19004KT 15SM FEW100 07/05 A2999 RMK AC1 SLP170

CYQF;2015-06-16 13:00;CYQF 161300Z 19004KT 15SM FEW100 09/06 A2999 RMK AC2 SLP168

CYQF;2015-06-16 14:00;CYQF 161400Z 21004KT 15SM FEW100 FEW250 11/07 A2998 RMK AC1CI1 CI TR SLP162 DENSITY ALT 3000FT

CYQF;2015-06-16 15:00;CYQF 161500Z 16003KT 080V250 15SM FEW100 FEW250 12/08 A2998 RMK AC1CI2 AC TR SLP162 DENSITY ALT 3200FT

CYQF;2015-06-16 16:00;CYQF 161600Z 22004KT 170V240 15SM FEW024 BKN250 15/09 A2998 RMK CU1CI6 CU TR SLP161 DENSITY ALT 3500FT

CYQF;2015-06-16 17:00;CYQF 161700Z 22003KT 190V310 15SM FEW028 BKN250 17/09 A2997 RMK CU1CI6 CU TR SLP157 DENSITY ALT 3800FT

CYQF;2015-06-16 18:00;CYQF 161800Z 25004KT 160V290 15SM FEW040 BKN250 19/08 A2996 RMK CU1CI6 SLP153 DENSITY ALT 4000FT

CYQF;2015-06-16 19:00;CYQF 161900Z 00000KT 15SM FEW040TCU BKN250 21/08 A2995 RMK TCU2CI3 SLP149 DENSITY ALT 4300FT

CYQF;2015-06-16 20:00;CYQF 162000Z 33005KT 290V020 15SM SCT044CB BKN250 23/04 A2993 RMK CB4CI2 SLP141 DENSITY ALT 4500FT

CYQF;2015-06-16 21:00;CYQF 162100Z 00000KT 15SM BKN080CB BKN250 22/02 A2992 RMK CB5CI2 LTGCG W SLP140 DENSITY ALT 4400FT

CYQF;2015-06-16 21:37;CYQF 162137Z 29020G31KT 230V320 15SM -SHRA BKN080CB BKN250 18/05 A2997 RMK CB6CI1 LTGCG NW VIS N 6 PRESRR SLP161 DENSITY ALT 3900FT

CYQF;2015-06-16 22:00;CYQF 162200Z 33021G28KT 15SM -SHRA BKN080CB BKN250 15/08 A2998 RMK CB6CI1 VIS N 6 PRESRR SLP169 DENSITY ALT 3500FT

CYQF;2015-06-16 22:26;CYQF 162226Z 03014KT 15SM SCT080CB BKN110 13/10 A2999 RMK CB3AC4 PRESRR SLP173 DENSITY ALT 3300FT

CYQF;2015-06-16 23:00;CYQF 162300Z 01014KT 15SM FEW080CB BKN130 BKN250 16/09 A2998 RMK CB2AC3CI2 GUSTS TO 44KT PST HR SLP169 DENSITY ALT 3600FT

CYQF;2015-06-17 00:00;CYQF 170000Z 05009KT 15SM FEW025TCU BKN140 BKN250 16/10 A2997 RMK TCU1AC4CI2 SLP165 DENSITY ALT 3600FT

CYQF;2015-06-17 01:00;CYQF 170100Z 08007KT 15SM FEW035TCU BKN140 OVC250 17/09 A2995 RMK TCU1AC5CI2 SLP155 DENSITY ALT 3800FT

CYQF;2015-06-17 02:00;CYQF 170200Z 07003KT 15SM FEW030 BKN110 BKN250 16/09 A2996 RMK SC1AC5CI1 SLP155 DENSITY ALT 3700FT

CYQF;2015-06-17 03:00;CYQF 170300Z 12003KT 060V150 15SM BKN110 BKN250 16/10 A2997 RMK AC5CI2 SLP159 DENSITY ALT 3600FT

CYQF;2015-06-17 04:00;CYQF 170400Z 30005KT 15SM VCSH SCT040 BKN110 BKN250 15/10 A3004 RMK SC3AC3CI1 PRESRR SLP179 DENSITY ALT 3400FT

CYQF;2015-06-17 04:12;CYQF 170412Z 27008KT 260V330 10SM -SHRA BKN050 OVC110 14/11 A3005 RMK SC5AC3 PRESRR SLP184 DENSITY ALT 3400FT

CYQF;2015-06-17 05:00;CYQF 170500Z 03008KT 15SM -SHRA SCT040 BKN110 12/10 A3004 RMK SC3AC3 PRESFR SLP180 DENSITY ALT 3200FT

CYQF;2015-06-17 05:16;CYQF 170516Z 05002KT 15SM FEW040 BKN080 BKN250 11/09 A3003 RMK SC2AC3CI1 SLP178 DENSITY ALT 3000FT

CYQF;2015-06-17 06:00;CYQF 170600Z 32003KT 15SM FEW080 BKN130 BKN250 11/09 A3003 RMK AC1AC4CI1 SLP174 DENSITY ALT 3000FT

CYQF;2015-06-17 07:00;CYQF 170700Z 34005KT 15SM BKN130 BKN250 11/09 A3003 RMK AC5CI1 SLP174 DENSITY ALT 3000FT

CYQF;2015-06-17 08:00;CYQF 170800Z 35005KT 15SM FEW080 BKN120 10/09 A3002 RMK AC2AC5 SLP170

CYQF;2015-06-17 08:44;CYQF 170844Z 33008KT 12SM -SHRA BKN075 OVC120 11/09 A3005 RMK AC6AC2 SLP178 DENSITY ALT 3000FT

CYQF;2015-06-17 09:00;CYQF 170900Z 34009KT 12SM -SHRA BKN075 OVC120 11/09 A3006 RMK AC7AC1 SLP182 DENSITY ALT 3000FT

CYQF;2015-06-17 10:00;CYQF 171000Z 35006KT 6SM -SHRA BR OVC070 10/09 A3006 RMK AC8 SLP194

CYQF;2015-06-17 10:43;CYQF 171043Z 01007KT 6SM -SHRA BR FEW008 OVC070 10/09 A3005 RMK SC2AC6 SLP190

CYQF;2015-06-17 11:00;CYQF 171100Z 01008KT 3SM -SHRA BR BKN006 OVC070 10/10 A3006 RMK SC5AC3 SLP190

CYQF;2015-06-17 12:00;CYQF 171200Z 04010KT 5SM -SHRA BR OVC006 10/09 A3007 RMK SC8 CIG RAG SLP195

CYQF;2015-06-17 13:00;CYQF 171300Z 05007KT 5SM -SHRA BR BKN008 OVC012 10/09 A3009 RMK SC6SC2 CIG RAG SLP199

CYQF;2015-06-17 14:00;CYQF 171400Z 03009KT 8SM -SHRA OVC013 10/08 A3010 RMK SC8 CVCTV CLD EMBD CIG RAG SLP206

CYQF;2015-06-17 14:31;CYQF 171431Z 03013KT 6SM -SHRA BR BKN005 OVC013 09/08 A3011 RMK SC6SC2 CVCTV CLD EMBD CIG RAG SLP209

CYQF;2015-06-17 15:00;CYQF 171500Z 06011KT 6SM -SHRA BR OVC005 08/07 A3012 RMK SC8 CVCTV CLD EMBD SLP215

CYQF;2015-06-17 16:00;CYQF 171600Z 07009KT 5SM -SHRA BR OVC005 08/07 A3013 RMK SC8 CVCTV CLD EMBD CIG RAG SLP219

CYQF;2015-06-17 16:38;CYQF 171638Z 06009KT 8SM -SHRA SCT005 BKN020 OVC037 09/08 A3013 RMK SC3CU3SC2 SLP217

CYQF;2015-06-17 17:00;CYQF 171700Z 08011KT 12SM -SHRA BKN013 OVC022 09/07 A3013 RMK SC6SC2 CVCTV CLD EMBD SLP219

CYQF;2015-06-17 17:26;CYQF 171726Z 07007KT 15SM BKN013 OVC022 09/08 A3013 RMK SC6SC2 SLP220

CYQF;2015-06-17 18:00;CYQF 171800Z 08007KT 15SM SCT042 OVC050 10/06 A3013 RMK SC4SC4 SLP221

CYQF;2015-06-17 19:00;CYQF 171900Z 07006KT 15SM OVC025 11/07 A3014 RMK SC8 SLP226

CYQF;2015-06-17 20:00;CYQF 172000Z 06005KT 15SM OVC030 11/07 A3014 RMK SC8 SLP226

CYQF;2015-06-17 21:00;CYQF 172100Z 11004KT 020V140 12SM -SHRA SCT030 OVC060 11/07 A3014 RMK SC4SC4 CU EMBDD SLP225

CYQF;2015-06-17 22:00;CYQF 172200Z 16003KT 100V180 15SM -SHRA OVC032 12/07 A3015 RMK SC8 SLP226

CYQF;2015-06-17 23:00;CYQF 172300Z VRB03KT 15SM -SHRA BKN022 OVC060 11/07 A3014 RMK CU5SC3 SLP226

CYQF;2015-06-18 00:00;CYQF 180000Z 20005KT 15SM -SHRA SCT026 OVC066 12/08 A3014 RMK CU3AC5 SLP223 DENSITY ALT 3000FT

CYQF;2015-06-18 00:34;CYQF 180034Z 19005KT 15SM FEW020 SCT050 BKN250 12/08 A3013 RMK SC1SC3CI2 SLP219 DENSITY ALT 3000FT

CYQF;2015-06-18 01:00;CYQF 180100Z VRB02KT 15SM SCT020 BKN250 13/08 A3013 RMK CU3CI3 SLP219 DENSITY ALT 3100FT

CYQF;2015-06-18 02:00;CYQF 180200Z 16006KT 110V180 15SM SCT020 BKN080 BKN250 12/07 A3013 RMK CU3AC2CI1 SLP218 DENSITY ALT 3100FT

CYQF;2015-06-18 03:00;CYQF 180300Z 18004KT 15SM FEW020 BKN080 11/08 A3012 RMK SC2AC4 SLP220 DENSITY ALT 3000FT

CYQF;2015-06-18 04:00;CYQF 180400Z 17005KT 15SM FEW020 SCT080 10/07 A3012 RMK SC2AC2 SLP219

CYQF;2015-06-18 05:00;CYQF 180500Z 15004KT 15SM FEW080 FEW250 08/07 A3012 RMK AC1CI1 SLP220

CYQF;2015-06-18 06:00;CYQF 180600Z 16004KT 15SM FEW250 07/06 A3011 RMK CI1 SLP217

CYQF;2015-06-18 07:00;CYQF 180700Z 14005KT 15SM FEW250 06/06 A3009 RMK CI1 SLP211

CYQF;2015-06-18 08:00;CYQF 180800Z 14005KT 15SM FEW250 06/05 A3008 RMK CI1 SLP208

CYQF;2015-06-18 09:00;CYQF 180900Z 16003KT 15SM FEW050 FEW250 06/05 A3006 RMK SC1CI1 SLP202

CYQF;2015-06-18 10:00;CYQF 181000Z 16009KT 15SM FEW050 SCT250 08/07 A3002 RMK SC2CI2 SLP183

CYQF;2015-06-18 11:00;CYQF 181100Z 17010KT 15SM FEW050 SCT250 08/07 A3000 RMK SC2CI2 SLP178

CYQF;2015-06-18 11:20;CYQF 181120Z 18010G16KT 15SM SCT008 BKN050 BKN250 08/07 A3000 RMK ST3SC2CI1 VSBY S 5 SLP179

CYQF;2015-06-18 11:25;CYQF 181125Z 17014G20KT 10SM BKN005 OVC250 08/07 A3000 RMK ST6CI2 VSBY S 5 SLP178

CYQF;2015-06-18 11:45;CYQF 181145Z 17013KT 3SM BR OVC005 09/08 A3000 RMK ST8 SLP177

CYQF;2015-06-18 12:00;CYQF 181200Z 17013KT 3SM BR OVC006 09/08 A3000 RMK ST8 SLP177

CYQF;2015-06-18 13:00;CYQF 181300Z 17015KT 3SM BR OVC005 10/09 A2998 RMK ST8 SLP168

CYQF;2015-06-18 13:45;CYQF 181345Z 18014G20KT 5SM BR OVC006 11/09 A2997 RMK SC8 CIG RAG SLP165 DENSITY ALT 3000FT

CYQF;2015-06-18 14:00;CYQF 181400Z 18011G19KT 5SM BR OVC007 11/10 A2997 RMK SC8 CIG RAG SLP165 DENSITY ALT 3100FT

CYQF;2015-06-18 15:00;CYQF 181500Z 18014G21KT 8SM OVC010 12/10 A2995 RMK SC8 SLP157 DENSITY ALT 3200FT

CYQF;2015-06-18 15:50;CYQF 181550Z 16013G19KT 10SM -RA BKN012 OVC050 12/10 A2994 RMK SC7SC1 PRESFR SLP152 DENSITY ALT 3300FT

CYQF;2015-06-18 16:00;CYQF 181600Z 18011G18KT 150V220 10SM -RA BKN012 OVC050 12/10 A2995 RMK SC7SC1 CIG RAG SLP158 DENSITY ALT 3200FT

CYQF;2015-06-18 16:37;CYQF 181637Z 18014KT 10SM BKN013 OVC050 14/11 A2994 RMK SC7SC1 CIG RAG SLP151 DENSITY ALT 3500FT

CYQF;2015-06-18 17:00;CYQF 181700Z 19012KT 12SM BKN014 BKN090 14/11 A2994 RMK SC6AC1 SLP152 DENSITY ALT 3500FT

CYQF;2015-06-18 17:23;CYQF 181723Z 18012KT 12SM BKN016 OVC090 15/11 A2994 RMK SC7AC1 SLP151 DENSITY ALT 3600FT

CYQF;2015-06-18 18:00;CYQF 181800Z CCA 21009KT 12SM BKN022 OVC090 15/11 A2993 RMK SC7AC1 SLP152 DENSITY ALT 3600FT

CYQF;2015-06-18 19:00;CYQF 181900Z 20006KT 12SM OVC023 16/11 A2992 RMK SC8 CU SLP147 DENSITY ALT 3700FT

CYQF;2015-06-18 20:00;CYQF 182000Z 19009KT 12SM BKN021 OVC100 16/12 A2992 RMK SC7AC1 CIG RAG SLP148 DENSITY ALT 3700FT

CYQF;2015-06-18 21:00;CYQF 182100Z 19010KT 12SM SCT016 BKN019 OVC100 17/13 A2991 RMK CF4SC2AC2 SLP142 DENSITY ALT 3800FT

CYQF;2015-06-18 22:00;CYQF 182200Z 19008KT 15SM SCT020 OVC100 17/12 A2990 RMK CU3ACC5 SLP136 DENSITY ALT 3900FT

CYQF;2015-06-18 23:00;CYQF 182300Z 18006KT 170V230 15SM SCT032TCU SCT140 BKN250 18/10 A2988 RMK TCU3AC1CI1 SLP130 DENSITY ALT 4000FT

CYQF;2015-06-19 00:00;CYQF 190000Z 25004KT 220V310 15SM FEW034TCU SCT095 19/10 A2987 RMK TCU2AC2 SLP123 DENSITY ALT 4100FT

CYQF;2015-06-19 01:00;CYQF 190100Z 00000KT 15SM FEW035TCU FEW100 19/10 A2986 RMK TCU1AC1 SLP120 DENSITY ALT 4100FT

CYQF;2015-06-19 02:00;CYQF 190200Z 28003KT 15SM SCT036TCU SCT100 BKN250 19/09 A2987 RMK TCU3AC1CI3 SLP121 DENSITY ALT 4100FT

CYQF;2015-06-19 03:00;CYQF 190300Z 35007KT 15SM SCT040TCU BKN140 BKN250 16/10 A2987 RMK TCU4AC2CI1 SLP124 DENSITY ALT 3800FT

CYQF;2015-06-19 04:00;CYQF 190400Z 32005KT 15SM FEW036 BKN100 BKN140 15/10 A2988 RMK CU2AC3AC2 SLP130 DENSITY ALT 3600FT

CYQF;2015-06-19 05:00;CYQF 190500Z VRB02KT 15SM FEW040 SCT090 BKN130 13/10 A2989 RMK SC1AC2AC3 SLP131 DENSITY ALT 3400FT

CYQF;2015-06-19 06:00;CYQF 190600Z 27006KT 15SM BKN140 12/10 A2988 RMK AC6 SLP128 DENSITY ALT 3300FT

CYQF;2015-06-19 07:00;CYQF 190700Z 32006KT 15SM BKN150 11/10 A2987 RMK AC7 SLP124 DENSITY ALT 3200FT

CYQF;2015-06-19 08:00;CYQF 190800Z 19003KT 15SM BKN150 10/09 A2987 RMK AC7 SLP125 DENSITY ALT 3100FT

CYQF;2015-06-19 09:00;CYQF 190900Z 20004KT 15SM BKN120 10/09 A2986 RMK AC7 SLP120 DENSITY ALT 3100FT

CYQF;2015-06-19 10:00;CYQF 191000Z 00000KT 15SM BKN140 09/09 A2986 RMK AC5 SLP120 DENSITY ALT 3000FT

CYQF;2015-06-19 10:44;CYQF 191044Z VRB04KT 2SM BR SCT140 07/07 A2986 RMK AC3 SLP122

CYQF;2015-06-19 11:00;CYQF 191100Z 19003KT 130V190 2SM BR SCT140 07/07 A2985 RMK AC3 SLP120

CYQF;2015-06-19 11:37;CYQF 191137Z VRB02KT 3SM BR SCT140 08/07 A2985 RMK AC3 SLP118

CYQF;2015-06-19 12:00;CYQF 191200Z 22004KT 1/2SM FG BKN140 BKN250 07/07 A2985 RMK FG3AC3CI1 SLP118

CYQF;2015-06-19 12:31;CYQF 191231Z 23002KT 5SM BR SCT140 BKN250 08/08 A2984 RMK AC3CI2 SLP115

CYQF;2015-06-19 13:00;CYQF 191300Z 18004KT 8SM SCT140 BKN250 08/08 A2984 RMK AC3CI2 SLP115

CYQF;2015-06-19 14:00;CYQF 191400Z VRB02KT 15SM SCT140 BKN250 12/10 A2983 RMK AC4CI1 SLP108 DENSITY ALT 3400FT

CYQF;2015-06-19 15:00;CYQF 191500Z 08004KT 15SM SCT160 BKN250 16/11 A2982 RMK AC4CI2 SLP103 DENSITY ALT 3800FT

CYQF;2015-06-19 16:00;CYQF 191600Z 13006KT 15SM FEW024 BKN160 BKN270 18/11 A2981 RMK CU1AC4CI2 SLP098 DENSITY ALT 4100FT

CYQF;2015-06-19 17:00;CYQF 191700Z 12007KT 080V160 15SM SCT030 BKN090 BKN250 19/12 A2980 RMK CU3AC2CI2 SLP096 DENSITY ALT 4200FT

CYQF;2015-06-19 18:00;CYQF 191800Z 10009KT 040V140 15SM BKN032CB BKN090 20/11 A2978 RMK CB5AC2 SLP090 DENSITY ALT 4300FT

CYQF;2015-06-19 18:44;CYQF 191844Z 09011KT 15SM TS VCSH BKN032CB BKN090 19/11 A2976 RMK CB6AC1 SLP083 DENSITY ALT 4300FT

CYQF;2015-06-19 19:00;CYQF 191900Z 13012KT 15SM TS VCSH BKN030CB 18/11 A2976 RMK CB7 SLP085 DENSITY ALT 4200FT

CYQF;2015-06-19 19:32;CYQF 191932Z VRB06G15KT 12SM -TSRA BKN035CB 15/11 A2978 RMK CB7 PRESRR SLP096 DENSITY ALT 3700FT

CYQF;2015-06-19 19:53;CYQF 191953Z 33013KT 10SM -TSRAGR BKN030CB 12/10 A2979 RMK CB7 HAIL DIAM 3MM SLP100 DENSITY ALT 3500FT

CYQF;2015-06-19 20:00;CYQF 192000Z 30014KT 270V350 10SM -TSRAGR BKN030CB 12/10 A2979 RMK CB7 HAIL DIAM 4 MM LTGCG SLP101 DENSITY ALT 3400FT

CYQF;2015-06-19 20:06;CYQF 192006Z 33013G25KT 270V350 10SM TSRA BKN030CB BKN250 13/10 A2978 RMK CB6CI1 SLP099 DENSITY ALT 3500FT

CYQF;2015-06-19 20:11;CYQF 192011Z 34013G25KT 15SM -TSRA BKN030CB BKN250 13/10 A2978 RMK CB5CI2 LTGCG VIS N 3 SLP096 DENSITY ALT 3600FT

CYQF;2015-06-19 20:38;CYQF 192038Z 35009KT 15SM FEW030CB BKN110 13/10 A2977 RMK CB2AC5 SLP096 DENSITY ALT 3600FT

CYQF;2015-06-19 21:00;CYQF 192100Z 02007KT 15SM FEW030CB BKN160 14/11 A2977 RMK CB2AC5 SLP092 DENSITY ALT 3700FT

CYQF;2015-06-19 22:00;CYQF 192200Z 05008KT 15SM FEW030CB BKN160 BKN250 18/11 A2979 RMK CB2AC3CI1 SLP095 DENSITY ALT 4100FT

CYQF;2015-06-19 23:00;CYQF 192300Z 09013KT 15SM FEW030CB SCT160 SCT250 19/10 A2979 RMK CB2AC1CI1 SLP098 DENSITY ALT 4200FT

CYQF;2015-06-20 00:00;CYQF 200000Z 11011KT 15SM FEW030 SCT160 SCT250 19/11 A2979 RMK SC2AC1CI1 CB TOP DIST W SLP098 DENSITY ALT 4200FT

CYQF;2015-06-20 00:39;CYQF 200039Z 09012KT 15SM TS VCSH SCT040CB BKN250 18/09 A2979 RMK CB4CI2 LTNG W SLP098 DENSITY ALT 4100FT

CYQF;2015-06-20 01:00;CYQF 200100Z 35009G15KT 320V110 15SM TS VCSH BKN040CB BKN250 17/10 A2982 RMK CB5CI2 LTNG S-N CB MOVG E PRESRR SLP109 DENSITY ALT 3900FT

CYQF;2015-06-20 01:09;CYQF 200109Z 33016G28KT 15SM TS VCSH BKN050CB BKN250 13/07 A2985 RMK CB5CI2 LTNG OVRHD + ALQD PRESRR SLP125 DENSITY ALT 3400FT

CYQF;2015-06-20 02:00;CYQF 200200Z 28010G17KT 270V050 15SM -TSRA BKN050CB 11/08 A2989 RMK CB7 LTNG DIST E-SE PRESRR SLP136 DENSITY ALT 3200FT

CYQF;2015-06-20 02:07;CYQF 200207Z 30008G17KT 15SM -SHRA BKN050CB 11/08 A2989 RMK CB7 LTNG DIST SE PRESRR SLP135 DENSITY ALT 3100FT

CYQF;2015-06-20 03:00;CYQF 200300Z 34009KT 15SM SCT050CB BKN160 11/08 A2990 RMK CB4AC3 SLP135 DENSITY ALT 3200FT

CYQF;2015-06-20 04:00;CYQF 200400Z 34009G15KT 15SM FEW050 BKN160 BKN250 10/08 A2994 RMK SC2AC3CI2 SLP146 DENSITY ALT 3100FT

CYQF;2015-06-20 05:00;CYQF 200500Z 31007KT 15SM FEW050 SCT160 BKN240 09/08 A2996 RMK SC1AC2CI3 SLP154

CYQF;2015-06-20 06:00;CYQF 200600Z 27009KT 15SM SCT160 BKN240 08/07 A2997 RMK AC3CI2 SLP158

CYQF;2015-06-20 07:00;CYQF 200700Z 26006KT 15SM FEW160 07/06 A2997 RMK AC2 SLP160

CYQF;2015-06-20 08:00;CYQF 200800Z 27006KT 15SM FEW160 06/05 A2996 RMK AC2 SLP167

CYQF;2015-06-20 09:00;CYQF 200900Z 24004KT 230V290 15SM FEW160 05/04 A2997 RMK AC1 SLP167

CYQF;2015-06-20 10:00;CYQF 201000Z 27006KT 15SM FEW160 06/05 A2997 RMK AC1 SLP161

CYQF;2015-06-20 11:00;CYQF 201100Z 17004KT 160V220 15SM FEW160 04/03 A2998 RMK AC1 SLP167

CYQF;2015-06-20 12:00;CYQF 201200Z 20005KT 15SM FEW050 FEW160 04/03 A2999 RMK SC1AC1 SLP169

CYQF;2015-06-20 13:00;CYQF 201300Z 21003KT 190V310 15SM FEW050 FEW160 07/06 A2999 RMK SC1AC1 SLP169

CYQF;2015-06-20 14:00;CYQF 201400Z 19005KT 15SM FEW050 FEW160 09/07 A2999 RMK SC1ACC2 SC TR SLP174

CYQF;2015-06-20 15:00;CYQF 201500Z VRB02KT 15SM FEW120 11/07 A2999 RMK ACC2 SLP170 DENSITY ALT 3100FT

CYQF;2015-06-20 16:00;CYQF 201600Z 16003KT 130V280 15SM FEW020 FEW120 13/08 A2998 RMK CU1AC1 CU TR AC TR SLP166 DENSITY ALT 3300FT

CYQF;2015-06-20 17:00;CYQF 201700Z VRB02KT 15SM SCT028 SCT120 14/07 A2997 RMK CU3AC1 CB TOP DIST W SLP163 DENSITY ALT 3500FT

CYQF;2015-06-20 18:00;CYQF 201800Z 16005KT 080V210 15SM BKN032 BKN240 15/07 A2996 RMK CU6CI1 CI TR SLP160 DENSITY ALT 3600FT

CYQF;2015-06-20 19:00;CYQF 201900Z 16003KT 100V240 15SM BKN039 BKN250 15/06 A2995 RMK CU6CI1 SHRA DIST W + NW SLP157 DENSITY ALT 3600FT

CYQF;2015-06-20 19:49;CYQF 201949Z 20007KT 15SM TS VCSH BKN034CB 15/07 A2995 RMK CB7 LTNG SW SLP155 DENSITY ALT 3600FT

CYQF;2015-06-20 20:00;CYQF 202000Z 22011G20KT 190V250 15SM -TSRA BKN034CB 15/06 A2996 RMK CB7 SLP162 DENSITY ALT 3500FT

CYQF;2015-06-20 21:00;CYQF 202100Z 11008KT 060V150 15SM SCT040CB BKN130 14/07 A2995 RMK CB4AC2 SLP158 DENSITY ALT 3500FT

CYQF;2015-06-20 22:00;CYQF 202200Z 04009KT 15SM FEW040CB SCT130 15/07 A2995 RMK CB2AC1 SLP159 DENSITY ALT 3600FT

CYQF;2015-06-20 23:00;CYQF 202300Z 03007KT 15SM FEW040CB SCT250 15/05 A2995 RMK CB2CI1 SLP159 DENSITY ALT 3600FT

CYQF;2015-06-21 00:00;CYQF 210000Z 10005KT 050V120 15SM FEW040CB FEW100 16/06 A2994 RMK CB1AC1 AC TR SLP155 DENSITY ALT 3700FT

CYQF;2015-06-21 01:00;CYQF 210100Z 00000KT 15SM FEW040CB SCT100 15/05 A2993 RMK CB2AC2 SLP151 DENSITY ALT 3600FT

CYQF;2015-06-21 02:00;CYQF 210200Z 07006KT 15SM BKN130 16/05 A2993 RMK AC6 DIST CB TOPS ALQDS SLP148 DENSITY ALT 3700FT

CYQF;2015-06-21 03:00;CYQF 210300Z 10004KT 15SM SCT130 14/07 A2994 RMK AC4 SLP151 DENSITY ALT 3500FT

CYQF;2015-06-21 04:00;CYQF 210400Z 36006KT 15SM BKN130 12/07 A2995 RMK AC6 SLP156 DENSITY ALT 3200FT

CYQF;2015-06-21 05:00;CYQF 210500Z 20003KT 15SM FEW020CB BKN140 10/07 A2995 RMK CB2AC5 LTNG SW SLP154 DENSITY ALT 3000FT

CYQF;2015-06-21 06:00;CYQF 210600Z 30002KT 15SM FEW080 BKN130 10/07 A2995 RMK AC2AC5 SLP155

CYQF;2015-06-21 07:00;CYQF 210700Z 00000KT 15SM BKN100 10/08 A2994 RMK AC7 SLP150 DENSITY ALT 3000FT

CYQF;2015-06-21 08:00;CYQF 210800Z 31003KT 15SM FEW100 08/06 A2994 RMK AC2 SLP152

CYQF;2015-06-21 09:00;CYQF 210900Z 27005KT 15SM FEW100 09/06 A2994 RMK AC2 SLP154

CYQF;2015-06-21 10:00;CYQF 211000Z 17003KT 030V180 15SM FEW100 06/05 A2994 RMK AC2 SLP155

CYQF;2015-06-21 11:00;CYQF 211100Z 31004KT 15SM FEW100 SCT220 06/05 A2993 RMK AC2CI2 SLP152

CYQF;2015-06-21 12:00;CYQF 211200Z 29004KT 15SM BKN090 BKN220 07/05 A2994 RMK AC5CI1 SLP151

CYQF;2015-06-21 13:00;CYQF 211300Z VRB02KT 15SM BKN090 08/06 A2995 RMK AC6 SLP155

CYQF;2015-06-21 14:00;CYQF 211400Z 21003KT 190V300 15SM BKN090 10/07 A2995 RMK AC6 SLP156 DENSITY ALT 3000FT

CYQF;2015-06-21 15:00;CYQF 211500Z 00000KT 15SM FEW090 SCT100 BKN250 11/07 A2995 RMK ACC1AC3CI1 SLP155 DENSITY ALT 3100FT

CYQF;2015-06-21 16:00;CYQF 211600Z 35004KT 290V050 15SM SCT020 BKN100 13/07 A2995 RMK CU4AC3 SLP157 DENSITY ALT 3300FT

CYQF;2015-06-21 17:00;CYQF 211700Z 32009KT 280V020 15SM BKN026 BKN100 14/07 A2995 RMK CU5AC2 SLP155 DENSITY ALT 3400FT

CYQF;2015-06-21 18:00;CYQF 211800Z 31008KT 290V360 15SM SCT032 BKN100 15/06 A2994 RMK CU4AC2 SLP152 DENSITY ALT 3600FT

CYQF;2015-06-21 19:00;CYQF 211900Z 32010G16KT 15SM VCSH BKN042TCU BKN100 15/05 A2994 RMK TCU5AC1 SLP150 DENSITY ALT 3500FT

CYQF;2015-06-21 20:00;CYQF 212000Z 36008KT 15SM VCSH BKN028TCU BKN100 16/07 A2993 RMK TCU5AC2 SLP148 DENSITY ALT 3700FT

CYQF;2015-06-21 21:00;CYQF 212100Z VRB09KT 15SM VCSH SCT036CB BKN260 17/07 A2992 RMK CB4CI2 SLP143 DENSITY ALT 3800FT

CYQF;2015-06-21 22:00;CYQF 212200Z VRB06KT 15SM VCSH BKN048TCU BKN260 17/08 A2991 RMK TCU6CI1 CB TOP DIST SE SLP143 DENSITY ALT 3800FT

CYQF;2015-06-21 23:00;CYQF 212300Z 33009KT 300V100 15SM BKN048TCU BKN260 18/07 A2992 RMK TCU5CI1 CB TOP DIST SE SLP145 DENSITY ALT 3900FT

CYQF;2015-06-22 00:00;CYQF 220000Z 35009KT 15SM SCT052 SCT260 18/05 A2992 RMK CU3CI1 CB TOP DIST SE SLP143 DENSITY ALT 4000FT

CYQF;2015-06-22 01:00;CYQF 220100Z 34006KT 15SM FEW044 BKN260 17/06 A2993 RMK CU1CI5 SLP148 DENSITY ALT 3900FT

CYQF;2015-06-22 02:00;CYQF 220200Z 34004KT 15SM FEW045 BKN260 17/06 A2994 RMK SC1CI6 SC TR SLP150 DENSITY ALT 3800FT

CYQF;2015-06-22 03:00;CYQF 220300Z 02003KT 15SM BKN260 16/07 A2995 RMK CI7 SLP154 DENSITY ALT 3700FT

CYQF;2015-06-22 04:00;CYQF 220400Z 26004KT 15SM BKN250 14/08 A2997 RMK CI7 SLP158 DENSITY ALT 3400FT

CYQF;2015-06-22 05:00;CYQF 220500Z 18004KT 15SM FEW250 10/07 A2996 RMK CI2 SLP160 DENSITY ALT 3000FT

CYQF;2015-06-22 06:00;CYQF 220600Z 24003KT 15SM FEW250 09/06 A2997 RMK CI1 SLP162

CYQF;2015-06-22 07:00;CYQF 220700Z 15003KT 15SM SKC 09/07 A2998 RMK SLP167

CYQF;2015-06-22 08:00;CYQF 220800Z 21004KT 15SM SKC 10/06 A2998 RMK SLP166

CYQF;2015-06-22 09:00;CYQF 220900Z 23007KT 15SM SKC 08/05 A2999 RMK SLP169

CYQF;2015-06-22 10:00;CYQF 221000Z 22008KT 15SM FEW250 07/05 A2999 RMK CI1 SLP168

CYQF;2015-06-22 11:00;CYQF 221100Z 21006KT 15SM FEW250 06/04 A2999 RMK CI1 SLP169

CYQF;2015-06-22 12:00;CYQF 221200Z VRB02KT 15SM SCT160 05/04 A3000 RMK AC3 SLP173

CYQF;2015-06-22 13:00;CYQF 221300Z 19004KT 15SM SCT120 09/06 A3000 RMK AC3 SLP169

CYQF;2015-06-22 14:00;CYQF 221400Z 20006KT 15SM SCT120 12/08 A3000 RMK AC4 SLP166 DENSITY ALT 3100FT

CYQF;2015-06-22 15:00;CYQF 221500Z 20005KT 15SM SCT130 14/08 A3000 RMK AC3 SLP168 DENSITY ALT 3300FT

CYQF;2015-06-22 16:00;CYQF 221600Z 27004KT 220V290 15SM FEW130 SCT270 16/09 A3001 RMK AC2CI1 SLP168 DENSITY ALT 3600FT

CYQF;2015-06-22 17:00;CYQF 221700Z VRB02KT 15SM FEW030 FEW130 FEW250 17/07 A3000 RMK CU1AC1CI1 CU TR AC TR SLP170 DENSITY ALT 3800FT

CYQF;2015-06-22 18:00;CYQF 221800Z VRB02KT 15SM FEW048TCU FEW130 FEW260 19/07 A3000 RMK TCU1AC1CI1 AC TR AC + CI TR SLP167 DENSITY ALT 3900FT

CYQF;2015-06-22 19:00;CYQF 221900Z VRB07KT 15SM FEW044TCU 20/09 A2999 RMK TCU1 SLP164 DENSITY ALT 4100FT

CYQF;2015-06-22 20:00;CYQF 222000Z 22004KT 200V360 15SM FEW055TCU 21/08 A2999 RMK TCU2 SLP161 DENSITY ALT 4200FT

CYQF;2015-06-22 21:00;CYQF 222100Z 18006KT 160V260 15SM FEW048CB FEW260 21/07 A2998 RMK CB2CI1 CI TR SHRA DIST W-NW SLP160 DENSITY ALT 4200FT

CYQF;2015-06-22 22:00;CYQF 222200Z 29005KT 270V350 15SM SCT050CB BKN260 21/07 A2997 RMK CB4CI2 SHRA N SLP160 DENSITY ALT 4200FT

CYQF;2015-06-22 23:00;CYQF 222300Z 35006KT 15SM FEW052 SCT120 BKN260 22/08 A2997 RMK CU1AC3CI1 CB TOPS DIST E SLP159 DENSITY ALT 4300FT

CYQF;2015-06-23 00:00;CYQF 230000Z 03004KT 290V060 15SM FEW052 SCT120 SCT260 21/08 A2996 RMK CU1AC2CI1 CI TR CB TOPS DIST E SLP158 DENSITY ALT 4300FT

CYQF;2015-06-23 01:00;CYQF 230100Z 04004KT 340V060 15SM FEW052 21/07 A2996 RMK SC1 SC TR DIST TCU TOPS ALQDS SLP153 DENSITY ALT 4300FT

CYQF;2015-06-23 02:00;CYQF 230200Z 04004KT 15SM FEW052 21/07 A2997 RMK SC1 SLP153 DENSITY ALT 4200FT

CYQF;2015-06-23 03:00;CYQF 230300Z 07006KT 15SM BKN140 18/09 A2999 RMK AC6 CB TOPS DIST W SLP160 DENSITY ALT 3900FT

CYQF;2015-06-23 04:00;CYQF 230400Z 06002KT 15SM BKN140 16/09 A3001 RMK ACC6 CB DIST NW SLP166 DENSITY ALT 3600FT

CYQF;2015-06-23 05:00;CYQF 230500Z CCA 04007KT 15SM BKN110 15/09 A3002 RMK ACC6 SHRA SW-N LTGCGICCC CB EMBD SLP171 DENSITY ALT 3500FT

CYQF;2015-06-23 05:39;CYQF 230539Z 32011KT 15SM -SHRA SCT072CB BKN110 14/10 A3004 RMK CB4AC3 LTGCGIC SLP179 DENSITY ALT 3300FT

CYQF;2015-06-23 05:52;CYQF 230552Z 34013KT 10SM -TSRA BKN076CB OVC140 16/09 A3005 RMK CB6AC2 LTGCGICCC SLP181 DENSITY ALT 3500FT

CYQF;2015-06-23 06:00;CYQF 230600Z 34012KT 10SM -TSRA BKN075CB OVC140 15/10 A3006 RMK CB6AC2 LTGCGICCC SLP184 DENSITY ALT 3400FT

CYQF;2015-06-23 06:10;CYQF 230610Z 35012KT 6SM TSRA OVC070CB 14/09 A3007 RMK CB8 LTGCG SLP187 DENSITY ALT 3300FT

CYQF;2015-06-23 06:19;CYQF 230619Z 05010G20KT 350V060 10SM -TSRA OVC073CB 14/09 A3005 RMK CB8 WSHFT 0605 LTGCGIC PRESFR SLP181 DENSITY ALT 3300FT

CYQF;2015-06-23 06:43;CYQF 230643Z 15009KT 15SM -SHRA OVC072CB 14/10 A3006 RMK CB8 SLP185 DENSITY ALT 3300FT

CYQF;2015-06-23 07:00;CYQF 230700Z 15007KT 15SM -SHRA OVC072TCU 13/11 A3006 RMK TCU8 SLP181 DENSITY ALT 3300FT

CYQF;2015-06-23 08:00;CYQF 230800Z 13006KT 15SM -SHRA OVC090 13/10 A3006 RMK AC8 PRESFR SLP182 DENSITY ALT 3200FT

CYQF;2015-06-23 08:50;CYQF 230850Z 01006KT 15SM OVC160 13/10 A3007 RMK AC8 SLP188 DENSITY ALT 3200FT

CYQF;2015-06-23 09:00;CYQF 230900Z 36005KT 15SM OVC130 13/10 A3008 RMK AC8 SLP189 DENSITY ALT 3100FT

CYQF;2015-06-23 10:00;CYQF 231000Z 06008KT 15SM SCT080 BKN110 12/11 A3005 RMK AC3AC4 PRESFR SLP180 DENSITY ALT 3100FT

CYQF;2015-06-23 11:00;CYQF 231100Z 21006KT 15SM BKN080 BKN140 11/10 A3006 RMK AC5AC2 SLP183 DENSITY ALT 3000FT

CYQF;2015-06-23 12:00;CYQF 231200Z 25003KT 15SM FEW080 BKN130 11/10 A3006 RMK AC2AC3 SLP185 DENSITY ALT 3000FT

CYQF;2015-06-23 13:00;CYQF 231300Z 00000KT 15SM SCT130 BKN260 10/09 A3006 RMK ACC4CI3 SLP186

CYQF;2015-06-23 14:00;CYQF 231400Z 25003KT 15SM SCT080 BKN130 BKN260 12/10 A3007 RMK AC4ACC1CI2 SLP187 DENSITY ALT 3100FT

CYQF;2015-06-23 15:00;CYQF 231500Z 00000KT 15SM SCT100 BKN260 14/11 A3007 RMK ACC3CI4 SLP188 DENSITY ALT 3300FT

CYQF;2015-06-23 16:00;CYQF 231600Z 00000KT 15SM SCT100 BKN260 16/11 A3006 RMK AC3CI3 SLP183 DENSITY ALT 3500FT

CYQF;2015-06-23 17:00;CYQF 231700Z 20004KT 160V280 15SM FEW030 FEW100 BKN260 18/10 A3005 RMK CU1AC1CI5 CU TR AC TR CONTRAILS SLP181 DENSITY ALT 3800FT

CYQF;2015-06-23 18:00;CYQF 231800Z 19009KT 15SM FEW030CB FEW100 BKN260 20/11 A3004 RMK CB1AC1CI3 SLP174 DENSITY ALT 4000FT

CYQF;2015-06-23 19:00;CYQF 231900Z 16008KT 15SM FEW040TCU BKN260 21/10 A3003 RMK TCU2CI5 SLP171 DENSITY ALT 4100FT

CYQF;2015-06-23 20:00;CYQF 232000Z 18004KT 150V220 15SM SCT040TCU BKN260 21/09 A3001 RMK TCU3CI3 CB TOPS DSNT W SLP166 DENSITY ALT 4200FT

CYQF;2015-06-23 21:00;CYQF 232100Z 17007KT 140V210 15SM SCT045TCU BKN260 21/09 A3001 RMK TCU3CI3 CB TOPS W SLP165 DENSITY ALT 4200FT

CYQF;2015-06-23 22:00;CYQF 232200Z 20008KT 15SM SCT050TCU BKN260 22/10 A3000 RMK TCU3CI4 SLP163 DENSITY ALT 4300FT

CYQF;2015-06-23 23:00;CYQF 232300Z 26015G20KT 15SM VCSH BKN055CB BKN100 16/08 A3003 RMK CB6AC1 SLP177 DENSITY ALT 3700FT

CYQF;2015-06-24 00:00;CYQF 240000Z 30007KT 260V330 15SM SCT050CB BKN120 BKN260 16/08 A3001 RMK CB3AC3CI1 SLP173 DENSITY ALT 3600FT

CYQF;2015-06-24 01:00;CYQF 240100Z 34010KT 15SM FEW050TCU SCT120 BKN260 18/07 A2999 RMK TCU2AC2CI3 CB TOPS DIST SE SLP166 DENSITY ALT 3800FT

CYQF;2015-06-24 02:00;CYQF 240200Z 34008KT 15SM FEW050TCU SCT150 BKN240 18/08 A3000 RMK TCU2AC2CI2 SLP167 DENSITY ALT 3800FT

CYQF;2015-06-24 03:00;CYQF 240300Z 31014KT 15SM FEW050TCU FEW100 BKN240 16/07 A3003 RMK TCU1AC1CI4 SLP175 DENSITY ALT 3600FT

CYQF;2015-06-24 04:00;CYQF 240400Z VRB02KT 15SM FEW110 BKN240 14/08 A3002 RMK AC2CI3 SLP175 DENSITY ALT 3300FT

CYQF;2015-06-24 05:00;CYQF 240500Z 17005KT 15SM FEW140 SCT250 12/08 A3005 RMK AC2CI2 SLP184 DENSITY ALT 3100FT

CYQF;2015-06-24 06:00;CYQF 240600Z 20005KT 15SM FEW090 BKN250 11/08 A3006 RMK AC2CI4 SLP187

CYQF;2015-06-24 07:00;CYQF 240700Z 22006KT 15SM FEW090 SCT250 10/07 A3006 RMK AC1CI3 SLP184

CYQF;2015-06-24 08:00;CYQF 240800Z 23005KT 15SM FEW100 SCT250 08/07 A3006 RMK AC1CI3 SLP188

CYQF;2015-06-24 09:00;CYQF 240900Z 00000KT 15SM SCT100 BKN250 07/06 A3006 RMK AC3CI3 SLP187

CYQF;2015-06-24 10:00;CYQF 241000Z 25005KT 15SM SCT250 08/07 A3005 RMK CI3 SLP184

CYQF;2015-06-24 11:00;CYQF 241100Z 23005KT 15SM FEW250 07/06 A3005 RMK CI2 SLP191

CYQF;2015-06-24 12:00;CYQF 241200Z 22005KT 15SM SKC 07/06 A3006 RMK SLP194

CYQF;2015-06-24 13:00;CYQF 241300Z 23007KT 15SM SKC 10/07 A3006 RMK SLP191

CYQF;2015-06-24 14:00;CYQF 241400Z 25005KT 15SM SKC 12/09 A3007 RMK SLP190 DENSITY ALT 3100FT

CYQF;2015-06-24 15:00;CYQF 241500Z 23004KT 15SM SKC 15/09 A3007 RMK SLP190 DENSITY ALT 3500FT

CYQF;2015-06-24 16:00;CYQF 241600Z VRB02KT 15SM FEW240 17/11 A3007 RMK CI1 SLP191 DENSITY ALT 3700FT

CYQF;2015-06-24 17:00;CYQF 241700Z 20004KT 160V260 15SM FEW032 FEW240 19/10 A3006 RMK CU1CI1 CU TR SLP187 DENSITY ALT 3900FT

CYQF;2015-06-24 18:00;CYQF 241800Z 19003KT 120V230 15SM FEW040 FEW240 21/09 A3006 RMK CU1CI1 SLP185 DENSITY ALT 4100FT

CYQF;2015-06-24 19:00;CYQF 241900Z 19003KT 140V260 15SM FEW056 FEW240 22/07 A3006 RMK CU1CI1 CU TR SLP183 DENSITY ALT 4200FT

CYQF;2015-06-24 20:00;CYQF 242000Z VRB02KT 15SM FEW064 FEW260 22/07 A3005 RMK CU1CC2 CU TR SLP183 DENSITY ALT 4300FT

CYQF;2015-06-24 21:00;CYQF 242100Z VRB02KT 15SM FEW075 SCT260 23/04 A3004 RMK CU1CI3 CU TR SLP179 DENSITY ALT 4400FT

CYQF;2015-06-24 22:00;CYQF 242200Z VRB04KT 15SM FEW068TCU BKN260 24/05 A3003 RMK TCU1CI6 SLP173 DENSITY ALT 4500FT

CYQF;2015-06-24 23:00;CYQF 242300Z 15004KT 130V240 15SM FEW065 BKN260 24/08 A3002 RMK CU1CI6 SLP170 DENSITY ALT 4500FT

CYQF;2015-06-25 00:00;CYQF 250000Z 19008KT 140V210 15SM FEW065 BKN260 24/07 A3001 RMK CU1CI4 SLP168 DENSITY ALT 4500FT

CYQF;2015-06-25 01:00;CYQF 250100Z 16007KT 15SM FEW070 BKN260 24/07 A3001 RMK AC1CI4 SLP166 DENSITY ALT 4500FT

CYQF;2015-06-25 02:00;CYQF 250200Z 17006KT 15SM FEW100 BKN260 22/11 A3001 RMK AC2CI4 SLP163 DENSITY ALT 4400FT

CYQF;2015-06-25 03:00;CYQF 250300Z 14003KT 15SM FEW100 BKN260 21/12 A3001 RMK AC1CI6 SLP162 DENSITY ALT 4100FT

CYQF;2015-06-25 04:00;CYQF 250400Z 13003KT 15SM FEW150 BKN260 19/12 A3002 RMK AC2CI3 SLP165 DENSITY ALT 3900FT

CYQF;2015-06-25 05:00;CYQF 250500Z 18003KT 15SM SCT150 BKN260 18/12 A3002 RMK AC3CI2 SLP166 DENSITY ALT 3800FT

CYQF;2015-06-25 06:00;CYQF 250600Z 20002KT 15SM SCT120 BKN250 16/11 A3003 RMK AC3CI3 SLP167 DENSITY ALT 3600FT

CYQF;2015-06-25 07:00;CYQF 250700Z 19005KT 15SM BKN150 BKN250 15/12 A3002 RMK AC5CI2 SLP166 DENSITY ALT 3500FT

CYQF;2015-06-25 08:00;CYQF 250800Z 23004KT 160V240 15SM BKN120 15/12 A3003 RMK AC7 SLP168 DENSITY ALT 3500FT

CYQF;2015-06-25 09:00;CYQF 250900Z 16004KT 15SM OVC110 14/12 A3003 RMK AC8 SLP169 DENSITY ALT 3400FT

CYQF;2015-06-25 10:00;CYQF 251000Z 32005KT 270V350 15SM SCT080 BKN120 15/11 A3005 RMK AC3AC4 SLP173 DENSITY ALT 3500FT

CYQF;2015-06-25 11:00;CYQF 251100Z 34008KT 15SM FEW080 BKN130 BKN250 16/10 A3005 RMK AC1AC5CI1 SLP171 DENSITY ALT 3600FT

CYQF;2015-06-25 12:00;CYQF 251200Z 23005KT 15SM BKN110 BKN140 15/11 A3007 RMK AC5AC1 SLP182 DENSITY ALT 3400FT

CYQF;2015-06-25 13:00;CYQF 251300Z 28005KT 15SM SCT130 14/11 A3009 RMK AC4 SLP189 DENSITY ALT 3300FT

CYQF;2015-06-25 14:00;CYQF 251400Z 29004KT 15SM SCT150 SCT270 17/12 A3009 RMK AC3CI1 SLP188 DENSITY ALT 3600FT

CYQF;2015-06-25 15:00;CYQF 251500Z 22004KT 15SM FEW150 BKN270 19/12 A3010 RMK AC2CI3 SLP189 DENSITY ALT 3900FT

CYQF;2015-06-25 16:00;CYQF 251600Z 27004KT 240V310 15SM FEW100 BKN250 19/12 A3011 RMK AC1CI5 SLP197 DENSITY ALT 3800FT

CYQF;2015-06-25 17:00;CYQF 251700Z 21004KT 200V300 15SM FEW100 BKN250 20/11 A3010 RMK AC1CI5 SLP192 DENSITY ALT 4000FT

CYQF;2015-06-25 18:00;CYQF 251800Z 00000KT 15SM FEW100 BKN250 21/11 A3010 RMK AC1CI5 SLP192 DENSITY ALT 4100FT

CYQF;2015-06-25 19:00;CYQF 251900Z VRB02KT 15SM FEW100 BKN250 23/13 A3010 RMK AC1CI4 SLP191 DENSITY ALT 4300FT

CYQF;2015-06-25 20:00;CYQF 252000Z 31004KT 250V330 15SM FEW060 FEW250 24/11 A3009 RMK CU1CI1 CI TR SLP187 DENSITY ALT 4500FT

CYQF;2015-06-25 21:00;CYQF 252100Z VRB03KT 15SM FEW060 25/07 A3007 RMK CU1 SLP181 DENSITY ALT 4600FT

CYQF;2015-06-25 22:00;CYQF 252200Z VRB03KT 15SM FEW076 26/08 A3006 RMK CU1 SLP177 DENSITY ALT 4600FT

CYQF;2015-06-25 23:00;CYQF 252300Z VRB03KT 15SM FEW068 FEW280 26/08 A3005 RMK CU1CI1 CU TR SLP170 DENSITY ALT 4700FT

CYQF;2015-06-26 00:00;CYQF 260000Z 17008KT 110V180 15SM FEW070 FEW280 26/10 A3004 RMK AC1CI1 SLP168 DENSITY ALT 4800FT

CYQF;2015-06-26 01:00;CYQF 260100Z 17006KT 15SM FEW064 SCT280 26/10 A3004 RMK SC1CI4 SC TR SLP167 DENSITY ALT 4700FT

CYQF;2015-06-26 02:00;CYQF 260200Z 13006KT 15SM FEW060 BKN280 25/12 A3003 RMK SC1CI6 SC TR SLP163 DENSITY ALT 4600FT

CYQF;2015-06-26 03:00;CYQF 260300Z 12006KT 15SM FEW120 BKN280 23/12 A3003 RMK AC2CI5 SLP164 DENSITY ALT 4400FT

CYQF;2015-06-26 04:00;CYQF 260400Z 12004KT 15SM SCT120 BKN280 20/12 A3003 RMK AC3CI4 SLP165 DENSITY ALT 4100FT

CYQF;2015-06-26 05:00;CYQF 260500Z 11002KT 15SM FEW120 SCT280 19/12 A3003 RMK AC2CI2 SLP167 DENSITY ALT 3900FT

CYQF;2015-06-26 06:00;CYQF 260600Z 00000KT 15SM SCT120 BKN250 18/11 A3003 RMK AC4CI2 SLP166 DENSITY ALT 3800FT

CYQF;2015-06-26 07:00;CYQF 260700Z 19003KT 15SM BKN130 BKN250 17/11 A3002 RMK AC5CI1 SLP163 DENSITY ALT 3700FT

CYQF;2015-06-26 08:00;CYQF 260800Z 20004KT 15SM SCT130 SCT250 15/10 A3003 RMK AC3CI1 SLP167 DENSITY ALT 3400FT

CYQF;2015-06-26 09:00;CYQF 260900Z 22005KT 15SM SCT130 BKN250 13/10 A3003 RMK AC3CI2 SLP167 DENSITY ALT 3200FT

CYQF;2015-06-26 10:00;CYQF 261000Z 18003KT 15SM SCT110 12/10 A3004 RMK AC3 SLP173 DENSITY ALT 3100FT

CYQF;2015-06-26 11:00;CYQF 261100Z 19004KT 15SM SCT110 11/10 A3006 RMK AC3 SLP181 DENSITY ALT 3000FT

CYQF;2015-06-26 12:00;CYQF 261200Z 00000KT 15SM SCT120 13/11 A3009 RMK AC3 SLP186 DENSITY ALT 3200FT

CYQF;2015-06-26 13:00;CYQF 261300Z 19004KT 15SM BKN096 14/12 A3010 RMK AC5 SLP190 DENSITY ALT 3300FT

CYQF;2015-06-26 14:00;CYQF 261400Z 02004KT 340V050 15SM BKN100 17/13 A3010 RMK AC6 VIRGA SLP188 DENSITY ALT 3700FT

CYQF;2015-06-26 15:00;CYQF 261500Z 34006KT 300V010 15SM FEW100 FEW250 19/13 A3012 RMK AC1CI1 SLP193 DENSITY ALT 3900FT

CYQF;2015-06-26 16:00;CYQF 261600Z 36009KT 320V030 15SM FEW036 FEW100 21/12 A3012 RMK CU1AC1 CU TR AC TR SLP195 DENSITY ALT 4100FT

CYQF;2015-06-26 17:00;CYQF 261700Z 36007KT 15SM FEW040 FEW100 22/12 A3012 RMK CU1AC1 CU TR SLP195 DENSITY ALT 4200FT

CYQF;2015-06-26 18:00;CYQF 261800Z 01009KT 330V030 15SM FEW045 FEW260 23/11 A3010 RMK CU1CI1 SLP190 DENSITY ALT 4400FT

CYQF;2015-06-26 19:00;CYQF 261900Z 33008KT 290V030 15SM FEW060 FEW260 24/10 A3010 RMK CU1CI2 CU TR SLP188 DENSITY ALT 4500FT

CYQF;2015-06-26 20:00;CYQF 262000Z 36006KT 300V080 15SM FEW060 FEW260 25/09 A3009 RMK CU1CI2 CU TR SLP188 DENSITY ALT 4500FT

CYQF;2015-06-26 21:00;CYQF 262100Z 02004KT 350V100 15SM FEW060 FEW260 26/12 A3008 RMK CU1CI1 CU TR SLP186 DENSITY ALT 4600FT

CYQF;2015-06-26 22:00;CYQF 262200Z VRB02KT 15SM FEW060 26/11 A3007 RMK CU1 SLP183 DENSITY ALT 4700FT

CYQF;2015-06-26 23:00;CYQF 262300Z VRB02KT 15SM FEW060 FEW260 27/11 A3006 RMK CU1CI1 CU TR SLP180 DENSITY ALT 4700FT

CYQF;2015-06-27 00:00;CYQF 270000Z 16004KT 130V260 15SM SKC 27/13 A3005 RMK SLP173 DENSITY ALT 4800FT

CYQF;2015-06-27 01:00;CYQF 270100Z 14003KT 15SM SKC 27/13 A3004 RMK SLP169 DENSITY ALT 4800FT

CYQF;2015-06-27 02:00;CYQF 270200Z 10005KT 15SM SKC 26/14 A3004 RMK SLP165 DENSITY ALT 4700FT

CYQF;2015-06-27 03:00;CYQF 270300Z 08007KT 15SM FEW300 23/14 A3004 RMK CI1 SLP166 DENSITY ALT 4400FT

CYQF;2015-06-27 04:00;CYQF 270400Z 08005KT 15SM FEW300 20/14 A3004 RMK CI1 SLP169 DENSITY ALT 4000FT

CYQF;2015-06-27 05:00;CYQF 270500Z 07002KT 15SM FEW110 FEW300 18/13 A3005 RMK AC1CI1 AC TR SLP173 DENSITY ALT 3800FT

CYQF;2015-06-27 06:00;CYQF 270600Z 00000KT 15SM FEW110 16/12 A3006 RMK AC2 SLP175 DENSITY ALT 3600FT

CYQF;2015-06-27 07:00;CYQF 270700Z 35002KT 15SM SKC 16/13 A3006 RMK SLP177 DENSITY ALT 3500FT

CYQF;2015-06-27 08:00;CYQF 270800Z 35002KT 15SM SKC 15/13 A3007 RMK SLP181 DENSITY ALT 3400FT

CYQF;2015-06-27 09:00;CYQF 270900Z 33003KT 15SM FEW100 14/12 A3008 RMK AC2 SLP185 DENSITY ALT 3300FT

CYQF;2015-06-27 10:00;CYQF 271000Z 00000KT 15SM FEW120 14/11 A3010 RMK AC1 SLP190 DENSITY ALT 3200FT

CYQF;2015-06-27 11:00;CYQF 271100Z 03003KT 15SM FEW100 FEW140 12/11 A3011 RMK AC1ACC1 SLP196 DENSITY ALT 3000FT

CYQF;2015-06-27 12:00;CYQF 271200Z 04003KT 15SM FEW100 BKN220 13/11 A3012 RMK AC1CI4 SLP196 DENSITY ALT 3100FT

CYQF;2015-06-27 13:00;CYQF 271300Z 01002KT 15SM FEW100 BKN220 14/12 A3012 RMK AC1CI5 AC TR SLP194 DENSITY ALT 3300FT

CYQF;2015-06-27 14:00;CYQF 271400Z VRB02KT 15SM BKN220 18/13 A3012 RMK CI5 SLP193 DENSITY ALT 3700FT

CYQF;2015-06-27 15:00;CYQF 271500Z 03003KT 15SM BKN250 20/14 A3013 RMK CI5 SLP195 DENSITY ALT 4000FT

CYQF;2015-06-27 16:00;CYQF 271600Z 00000KT 15SM SCT250 22/14 A3013 RMK CI3 SLP197 DENSITY ALT 4200FT

CYQF;2015-06-27 17:00;CYQF 271700Z 16005KT 120V190 15SM FEW250 24/13 A3011 RMK CI1 SLP192 DENSITY ALT 4400FT

CYQF;2015-06-27 18:00;CYQF 271800Z 13011KT 15SM FEW250 26/12 A3010 RMK CI1 SLP188 DENSITY ALT 4700FT

CYQF;2015-06-27 19:00;CYQF 271900Z 14010G15KT 110V170 15SM FEW250 27/11 A3010 RMK CI2 SLP187 DENSITY ALT 4800FT

CYQF;2015-06-27 20:00;CYQF 272000Z 14008KT 15SM FEW250 28/12 A3008 RMK CI2 SLP180 DENSITY ALT 4900FT

CYQF;2015-06-27 21:00;CYQF 272100Z 18008KT 15SM SCT250 28/14 A3007 RMK CI3 SLP177 DENSITY ALT 4900FT

CYQF;2015-06-27 22:00;CYQF 272200Z 14007KT 110V170 15SM BKN300 29/11 A3005 RMK CI5 SLP168 DENSITY ALT 5000FT

CYQF;2015-06-27 23:00;CYQF 272300Z 12006KT 060V170 15SM FEW180 BKN300 29/10 A3003 RMK AC1CI5 SLP165 DENSITY ALT 5000FT

CYQF;2015-06-28 00:00;CYQF 280000Z 14008KT 15SM BKN300 29/12 A3001 RMK CI6 SLP158 DENSITY ALT 5100FT

CYQF;2015-06-28 01:00;CYQF 280100Z 15004KT 15SM BKN150 BKN300 26/15 A3001 RMK AC5CI2 SLP157 DENSITY ALT 4800FT

CYQF;2015-06-28 02:00;CYQF 280200Z 00000KT 15SM BKN150 BKN300 25/17 A3001 RMK AC5CI2 SLP154 DENSITY ALT 4600FT

CYQF;2015-06-28 03:00;CYQF 280300Z VRB02KT 15SM BKN150 BKN300 24/16 A3000 RMK AC5CI2 SLP151 DENSITY ALT 4500FT

CYQF;2015-06-28 04:00;CYQF 280400Z 09002KT 15SM SCT210 BKN300 22/14 A3000 RMK CI3CI3 SLP150 DENSITY ALT 4300FT

CYQF;2015-06-28 05:00;CYQF 280500Z 00000KT 15SM SCT250 21/13 A3001 RMK CI3 SLP153 DENSITY ALT 4200FT

CYQF;2015-06-28 06:00;CYQF 280600Z 00000KT 15SM FEW250 18/13 A3000 RMK CI2 SLP152 DENSITY ALT 3900FT

CYQF;2015-06-28 07:00;CYQF 280700Z 19005KT 180V260 15SM FEW250 17/12 A3000 RMK CI2 SLP152 DENSITY ALT 3700FT

CYQF;2015-06-28 08:00;CYQF 280800Z 19004KT 15SM FEW250 15/12 A3000 RMK CI1 SLP153 DENSITY ALT 3500FT

CYQF;2015-06-28 09:00;CYQF 280900Z 00000KT 15SM FEW250 13/11 A3000 RMK CI1 SLP155 DENSITY ALT 3300FT

CYQF;2015-06-28 10:00;CYQF 281000Z 24004KT 15SM FEW250 15/11 A3001 RMK CI1 CI TR SLP156 DENSITY ALT 3500FT

CYQF;2015-06-28 11:00;CYQF 281100Z 25003KT 15SM FEW220 SCT280 14/11 A3003 RMK CC1CI3 SLP163 DENSITY ALT 3300FT

CYQF;2015-06-28 12:00;CYQF 281200Z 29006KT 15SM FEW130 FEW250 17/12 A3005 RMK AC1CI2 AC TR SLP166 DENSITY ALT 3700FT

CYQF;2015-06-28 13:00;CYQF 281300Z 27007KT 15SM FEW250 18/13 A3007 RMK CI1 CI TR SLP177 DENSITY ALT 3700FT

CYQF;2015-06-28 14:00;CYQF 281400Z 28007KT 15SM FEW250 19/14 A3009 RMK CI1 SLP183 DENSITY ALT 3900FT

CYQF;2015-06-28 15:00;CYQF 281500Z 34009KT 15SM FEW280 22/14 A3011 RMK CI1 SLP186 DENSITY ALT 4200FT

CYQF;2015-06-28 16:00;CYQF 281600Z 34009KT 15SM FEW250 24/15 A3011 RMK CI1 CI TR SLP188 DENSITY ALT 4400FT

CYQF;2015-06-28 17:00;CYQF 281700Z 33008KT 15SM FEW250 25/15 A3012 RMK CI1 CI TR SLP190 DENSITY ALT 4500FT

CYQF;2015-06-28 18:00;CYQF 281800Z 33008KT 15SM SKC 27/15 A3012 RMK SLP192 DENSITY ALT 4700FT

CYQF;2015-06-28 19:00;CYQF 281900Z 35007KT 300V020 15SM FEW050 FEW250 28/15 A3012 RMK CU1CI1 CU TR CI TR SLP192 DENSITY ALT 4800FT

CYQF;2015-06-28 20:00;CYQF 282000Z 03008KT 310V040 15SM FEW060 FEW250 28/12 A3011 RMK CU1CI1 CU TR CI TR SLP190 DENSITY ALT 4900FT

CYQF;2015-06-28 21:00;CYQF 282100Z 34006KT 310V050 15SM FEW250 29/12 A3010 RMK CI1 CI TR SLP189 DENSITY ALT 4900FT

CYQF;2015-06-28 22:00;CYQF 282200Z 04004KT 310V050 15SM FEW060 FEW250 29/12 A3009 RMK CU1CI1 CU TR CI TR SLP183 DENSITY ALT 5000FT

CYQF;2015-06-28 23:00;CYQF 282300Z 01004KT 360V060 15SM FEW070 FEW280 29/11 A3009 RMK CU1CI1 CU TR CI TR SLP182 DENSITY ALT 5000FT

CYQF;2015-06-29 00:00;CYQF 290000Z 06004KT 030V130 15SM FEW070 FEW280 29/13 A3008 RMK CU1CI2 CU TR SLP178 DENSITY ALT 5000FT

CYQF;2015-06-29 01:00;CYQF 290100Z 09006KT 15SM BKN280 28/13 A3008 RMK CI6 SLP176 DENSITY ALT 4900FT

CYQF;2015-06-29 02:00;CYQF 290200Z 09006KT 15SM BKN280 27/12 A3008 RMK CI6 SLP176 DENSITY ALT 4800FT

CYQF;2015-06-29 03:00;CYQF 290300Z 09005KT 15SM BKN280 25/13 A3008 RMK CI6 SLP177 DENSITY ALT 4600FT

CYQF;2015-06-29 04:00;CYQF 290400Z 09004KT 15SM FEW280 21/14 A3009 RMK CI2 SLP181 DENSITY ALT 4100FT

CYQF;2015-06-29 05:00;CYQF 290500Z 09004KT 15SM FEW280 19/13 A3009 RMK CI2 SLP182 DENSITY ALT 3800FT

CYQF;2015-06-29 06:00;CYQF 290600Z 02002KT 15SM FEW280 19/12 A3009 RMK CI2 SLP181 DENSITY ALT 3800FT

CYQF;2015-06-29 07:00;CYQF 290700Z 00000KT 15SM SCT250 19/12 A3009 RMK CI3 SLP179 DENSITY ALT 3800FT

CYQF;2015-06-29 08:00;CYQF 290800Z 04002KT 15SM BKN200 BKN220 19/11 A3009 RMK CI5CI2 SLP178 DENSITY ALT 3900FT

CYQF;2015-06-29 09:00;CYQF 290900Z 00000KT 15SM OVC210 19/10 A3008 RMK CI8 SLP175 DENSITY ALT 3900FT

CYQF;2015-06-29 10:00;CYQF 291000Z 20008KT 15SM SCT180 BKN250 17/11 A3009 RMK AC3CI4 SLP179 DENSITY ALT 3700FT

CYQF;2015-06-29 11:00;CYQF 291100Z 24003KT 15SM BKN088 BKN140 OVC250 18/11 A3009 RMK AC5AC2CI1 SLP179 DENSITY ALT 3800FT

CYQF;2015-06-29 12:00;CYQF 291200Z 21004KT 15SM SCT095 BKN120 OVC250 18/12 A3009 RMK AC4AC2CI2 SLP180 DENSITY ALT 3800FT

CYQF;2015-06-29 13:00;CYQF 291300Z 13003KT 15SM SCT090 BKN120 OVC250 18/13 A3010 RMK AC4AC3CI1 SLP182 DENSITY ALT 3700FT

CYQF;2015-06-29 14:00;CYQF 291400Z 30004KT 15SM SCT090 BKN130 OVC250 17/14 A3012 RMK AC3AC4CI1 PRESRR SLP193 DENSITY ALT 3600FT

CYQF;2015-06-29 15:00;CYQF 291500Z 04007KT 15SM BKN085 OVC130 18/14 A3013 RMK AC5AC3 SLP197 DENSITY ALT 3700FT

CYQF;2015-06-29 15:40;CYQF 291540Z 06005KT 15SM -SHRA BKN085 OVC110 19/13 A3014 RMK AC5AC3 SLP198 DENSITY ALT 3800FT

CYQF;2015-06-29 16:00;CYQF 291600Z 04006KT 15SM -SHRA SCT080 OVC110 19/14 A3013 RMK AC4AC4 SLP201 DENSITY ALT 3800FT

CYQF;2015-06-29 17:00;CYQF 291700Z 04002KT 15SM BKN090 OVC120 19/14 A3015 RMK AC5AC3 SLP210 DENSITY ALT 3800FT

CYQF;2015-06-29 18:00;CYQF 291800Z VRB02KT 15SM BKN084 OVC120 19/13 A3015 RMK AC5AC3 SLP211 DENSITY ALT 3900FT

CYQF;2015-06-29 19:00;CYQF 291900Z 17007KT 12SM BKN075 OVC120 20/15 A3014 RMK AC5AC3 SLP206 DENSITY ALT 4000FT

CYQF;2015-06-29 19:49;CYQF 291949Z 13006KT 12SM -SHRA BKN075 OVC120 20/16 A3012 RMK AC6AC2 SLP199 DENSITY ALT 3900FT

CYQF;2015-06-29 20:00;CYQF 292000Z 12007KT 10SM -SHRA BKN075 OVC120 20/16 A3012 RMK AC6AC2 SLP199 DENSITY ALT 3900FT

CYQF;2015-06-29 21:00;CYQF 292100Z 11010KT 12SM -SHRA BKN070 OVC120 19/14 A3011 RMK AC5AC3 SLP195 DENSITY ALT 3800FT

CYQF;2015-06-29 22:00;CYQF 292200Z 08004KT 15SM OVC076 19/14 A3010 RMK AC8 OCNL -SHRA SLP194 DENSITY ALT 3800FT

CYQF;2015-06-29 23:00;CYQF 292300Z 08005KT 15SM -SHRA OVC080 19/14 A3008 RMK AC8 SLP188 DENSITY ALT 3800FT

CYQF;2015-06-30 00:00;CYQF 300000Z 02006KT 15SM -SHRA OVC080 18/15 A3007 RMK AC8 SLP183 DENSITY ALT 3700FT

CYQF;2015-06-30 01:00;CYQF 300100Z 10008KT 15SM -SHRA OVC080 18/16 A3004 RMK AC8 SLP172 DENSITY ALT 3800FT

CYQF;2015-06-30 01:37;CYQF 300137Z 11007KT 15SM BKN080 BKN120 18/15 A3002 RMK ACC5AC2 SLP165 DENSITY ALT 3800FT

CYQF;2015-06-30 02:00;CYQF 300200Z 11004KT 15SM BKN080 BKN120 18/16 A3002 RMK ACC5AC2 SLP167 DENSITY ALT 3800FT

CYQF;2015-06-30 03:00;CYQF 300300Z 10008KT 15SM BKN100 17/15 A3000 RMK AC6 SLP159 DENSITY ALT 3800FT

CYQF;2015-06-30 04:00;CYQF 300400Z 09007KT 15SM BKN080 17/14 A2999 RMK AC7 SLP156 DENSITY ALT 3700FT

CYQF;2015-06-30 05:00;CYQF 300500Z 05004KT 15SM SCT060 BKN110 16/14 A2999 RMK SC4AC3 SLP159 DENSITY ALT 3600FT

CYQF;2015-06-30 06:00;CYQF 300600Z 10004KT 15SM BKN060 BKN110 16/13 A3000 RMK SC5AC2 SLP159 DENSITY ALT 3600FT

CYQF;2015-06-30 07:00;CYQF 300700Z 12006KT 15SM OVC060 16/12 A2997 RMK SC8 SLP151 DENSITY ALT 3600FT

CYQF;2015-06-30 08:00;CYQF 300800Z 11003KT 15SM OVC060 16/11 A2996 RMK SC8 BR SLP146 DENSITY ALT 3600FT

CYQF;2015-06-30 09:00;CYQF 300900Z 09005KT 8SM BKN060 BKN220 15/11 A2994 RMK SC5CI2 BR SLP142 DENSITY ALT 3600FT

CYQF;2015-06-30 10:00;CYQF 301000Z 10004KT 8SM SCT050 BKN095 BKN240 14/11 A2994 RMK SC4AC1CI2 BR SLP142 DENSITY ALT 3500FT

CYQF;2015-06-30 11:00;CYQF 301100Z 00000KT 6SM BR FEW040 BKN100 14/11 A2995 RMK SC2AC5 SLP146 DENSITY ALT 3400FT

CYQF;2015-06-30 12:00;CYQF 301200Z 05002KT 5SM BR FEW040 BKN100 14/11 A2996 RMK SC2AC5 SLP151 DENSITY ALT 3400FT

CYQF;2015-06-30 12:09;CYQF 301209Z 05002KT 5SM -RA BR SCT040 BKN100 13/12 A2996 RMK SC3AC4 SLP150 DENSITY ALT 3400FT

CYQF;2015-06-30 12:49;CYQF 301249Z 06002KT 2 1/2SM -RA BR SCT040 BKN100 14/12 A2996 RMK SC3AC4 SLP151 DENSITY ALT 3400FT

CYQF;2015-06-30 13:00;CYQF 301300Z VRB02KT 2 1/2SM -RA BR FEW034 BKN070 BKN110 14/12 A2997 RMK SC2AC3AC2 SLP153 DENSITY ALT 3500FT

CYQF;2015-06-30 13:13;CYQF 301313Z VRB02KT 3SM FU BR BKN070 BKN120 14/13 A2996 RMK FU1AC4AC2 SLP152 DENSITY ALT 3500FT

CYQF;2015-06-30 14:00;CYQF 301400Z 31004KT 2SM BR OVC070 15/13 A2999 RMK FU4AC4 SLP159 DENSITY ALT 3500FT

CYQF;2015-06-30 15:00;CYQF 301500Z 33005KT 2 1/2SM FU BR BKN025 OVC060 15/14 A3001 RMK FU3SC4SC1 SLP166 DENSITY ALT 3500FT

CYQF;2015-06-30 16:00;CYQF 301600Z 03004KT 340V040 2 1/2SM FU SCT025 BKN055 BKN080 16/14 A3001 RMK FU2SC1SC2AC1 SLP165 DENSITY ALT 3700FT

CYQF;2015-06-30 17:00;CYQF 301700Z 32006KT 290V030 2SM FU BKN020 BKN040 18/14 A3001 RMK FU2SC3SC2 SLP164 DENSITY ALT 3900FT

CYQF;2015-06-30 18:00;CYQF 301800Z 36005KT 2SM FU OVC020 18/14 A3002 RMK FU2SC6 SLP167 DENSITY ALT 3800FT

CYQF;2015-06-30 19:00;CYQF 301900Z 03005KT 350V060 2SM FU OVC022 19/14 A3002 RMK FU2SC6 SLP167 DENSITY ALT 3900FT

CYQF;2015-06-30 20:00;CYQF 302000Z VRB05KT 3SM FU BKN025 20/15 A3002 RMK FU1CU5 SLP165 DENSITY ALT 4100FT

CYQF;2015-06-30 21:00;CYQF 302100Z 05006KT 360V080 3SM FU BKN025 21/15 A3002 RMK FU1CU5 SLP165 DENSITY ALT 4200FT

CYQF;2015-06-30 22:00;CYQF 302200Z 03005KT 4SM FU SCT025CB SCT090 BKN250 21/15 A3000 RMK FU1CB2AC1CI2 SLP162 DENSITY ALT 4200FT

CYQF;2015-06-30 23:00;CYQF 302300Z VRB02KT 3SM FU SCT025CB BKN210 21/14 A3000 RMK FU2CB2CI3 SLP161 DENSITY ALT 4200FT

CYQF;2015-07-01 00:00;CYQF 010000Z 05003KT 3SM TS FU BKN040CB OVC092 21/15 A3001 RMK FU2CB3AC3 SLP163 DENSITY ALT 4200FT

CYQF;2015-07-01 00:18;CYQF 010018Z 35003KT 4SM -TSRA FU BKN037CB OVC090 20/16 A3001 RMK FU2CB4AC2 SLP164 DENSITY ALT 4100FT

CYQF;2015-07-01 00:28;CYQF 010028Z 30009G18KT 290V350 7SM -TSRA BKN050CB OVC090 19/16 A3002 RMK CB6AC2 WSHFT 0028 SLP169 DENSITY ALT 4000FT

CYQF;2015-07-01 01:00;CYQF 010100Z 20007KT 7SM -TSRA BKN040CB BKN110 17/16 A3000 RMK CB5AC2 VIS SE-S 4 SLP164 DENSITY ALT 3800FT

CYQF;2015-07-01 01:11;CYQF 010111Z 23006KT 10SM VCSH SCT040CB BKN130 18/16 A3001 RMK CB3AC4 SLP165 DENSITY ALT 3900FT

CYQF;2015-07-01 02:00;CYQF 010200Z 27007KT 12SM VCSH SCT040CB BKN110 18/15 A3001 RMK CB3AC4 SLP168 DENSITY ALT 3800FT

CYQF;2015-07-01 02:31;CYQF 010231Z 25006KT 15SM -SHRA FEW040CB BKN110 17/14 A3001 RMK CB2AC5 SLP168 DENSITY ALT 3700FT

CYQF;2015-07-01 03:00;CYQF 010300Z 27006KT 15SM -SHRA FEW040CB BKN110 17/14 A3002 RMK CB2AC5 SLP170 DENSITY ALT 3700FT

CYQF;2015-07-01 03:19;CYQF 010319Z 22003KT 210V280 15SM VCSH FEW040 BKN100 17/14 A3002 RMK SC2AC5 SLP169 DENSITY ALT 3700FT

CYQF;2015-07-01 04:00;CYQF 010400Z 24006KT 15SM VCSH FEW040 BKN100 16/15 A3002 RMK SC2ACC5 SLP169 DENSITY ALT 3600FT

CYQF;2015-07-01 05:00;CYQF 010500Z 23007KT 15SM FEW040 BKN130 16/14 A3003 RMK SC2AC5 SLP171 DENSITY ALT 3600FT

CYQF;2015-07-01 06:00;CYQF 010600Z 24006KT 15SM BKN040 BKN120 16/14 A3003 RMK SC5AC2 SLP171 DENSITY ALT 3600FT

CYQF;2015-07-01 07:00;CYQF 010700Z 28007KT 15SM SCT040 BKN120 16/14 A3004 RMK SC3AC2 SLP176 DENSITY ALT 3600FT

CYQF;2015-07-01 08:00;CYQF 010800Z 30007KT 15SM BKN045 16/14 A3004 RMK SC6 OCNL LTNG DIST S SLP174 DENSITY ALT 3600FT

CYQF;2015-07-01 09:00;CYQF 010900Z 27005KT 15SM BKN038 16/14 A3004 RMK SC6 SLP172 DENSITY ALT 3600FT

CYQF;2015-07-01 10:00;CYQF 011000Z 31005KT 250V320 15SM SCT034 BKN060 15/14 A3004 RMK SC3SC3 SLP173 DENSITY ALT 3500FT

CYQF;2015-07-01 11:00;CYQF 011100Z 32005KT 250V340 15SM FEW030 SCT100 BKN230 15/13 A3004 RMK SC2AC2CI2 SLP173 DENSITY ALT 3400FT

CYQF;2015-07-01 12:00;CYQF 011200Z 28006KT 15SM SCT070 BKN120 15/13 A3005 RMK AC4AC3 SLP178 DENSITY ALT 3400FT

CYQF;2015-07-01 13:00;CYQF 011300Z 30010KT 15SM VCSH BKN034 OVC070 15/13 A3006 RMK SC7AC1 SLP186 DENSITY ALT 3400FT

CYQF;2015-07-01 14:00;CYQF 011400Z 29009G16KT 15SM SCT018 OVC075 15/13 A3008 RMK SF3AC5 SLP192 DENSITY ALT 3400FT

CYQF;2015-07-01 15:00;CYQF 011500Z 28011KT 15SM SCT037 BKN075 15/13 A3009 RMK SC4AC3 SLP194 DENSITY ALT 3500FT

CYQF;2015-07-01 16:00;CYQF 011600Z 29011G17KT 15SM FEW055 SCT070 BKN120 17/14 A3009 RMK SC2AC2AC2 SLP194 DENSITY ALT 3600FT

CYQF;2015-07-01 17:00;CYQF 011700Z 31011G17KT 15SM SCT030 BKN080 19/14 A3009 RMK CU3AC3 SLP193 DENSITY ALT 3900FT

CYQF;2015-07-01 18:00;CYQF 011800Z 33013G23KT 15SM BKN030 BKN070 20/13 A3010 RMK CU5AC2 SLP195 DENSITY ALT 3900FT

CYQF;2015-07-01 19:00;CYQF 011900Z 30013G19KT 15SM BKN028 BKN065 20/12 A3011 RMK CU6SC1 SLP197 DENSITY ALT 4000FT

CYQF;2015-07-01 20:00;CYQF 012000Z 32010G16KT 15SM SCT030 BKN080 BKN250 22/15 A3011 RMK CU4AC2CI1 SLP195 DENSITY ALT 4200FT

CYQF;2015-07-01 21:00;CYQF 012100Z 33008KT 15SM SCT040 BKN080 BKN250 22/14 A3011 RMK CU4AC2CI1 SLP195 DENSITY ALT 4200FT

CYQF;2015-07-01 22:00;CYQF 012200Z 33009KT 290V350 15SM SCT040 SCT090 BKN250 23/14 A3010 RMK CU3AC1CI2 SLP193 DENSITY ALT 4300FT

CYQF;2015-07-01 23:00;CYQF 012300Z 33010KT 15SM SCT040TCU BKN090 23/15 A3010 RMK TCU3AC2 SLP191 DENSITY ALT 4300FT

CYQF;2015-07-02 00:00;CYQF 020000Z 33011KT 15SM SCT050TCU BKN090 24/13 A3010 RMK TCU4AC1 SLP190 DENSITY ALT 4400FT

CYQF;2015-07-02 01:00;CYQF 020100Z 36004KT 15SM VCSH SCT060TCU BKN090 24/15 A3010 RMK TCU4AC1 SLP192 DENSITY ALT 4400FT

CYQF;2015-07-02 02:00;CYQF 020200Z 36006KT 15SM FEW060TCU BKN100 22/14 A3011 RMK TCU2AC5 SLP197 DENSITY ALT 4200FT

CYQF;2015-07-02 03:00;CYQF 020300Z 35006KT 15SM BKN100 21/14 A3013 RMK AC5 SLP203 DENSITY ALT 4000FT

CYQF;2015-07-02 04:00;CYQF 020400Z 35004KT 15SM SCT100 18/13 A3014 RMK AC3 SLP209 DENSITY ALT 3700FT

CYQF;2015-07-02 05:00;CYQF 020500Z 02004KT 15SM BKN100 17/13 A3015 RMK AC5 SLP211 DENSITY ALT 3600FT

CYQF;2015-07-02 06:00;CYQF 020600Z 25004KT 15SM BKN100 17/13 A3015 RMK AC5 SLP213 DENSITY ALT 3500FT

CYQF;2015-07-02 07:00;CYQF 020700Z VRB02KT 15SM SCT110 15/13 A3016 RMK AC4 SLP215 DENSITY ALT 3300FT

CYQF;2015-07-02 08:00;CYQF 020800Z 20003KT 15SM SCT110 14/12 A3015 RMK AC4 SLP213 DENSITY ALT 3200FT

CYQF;2015-07-02 09:00;CYQF 020900Z 00000KT 15SM SKC 12/12 A3015 RMK SLP213 DENSITY ALT 3000FT

CYQF;2015-07-02 10:00;CYQF 021000Z 19005KT 12SM MIFG SKC 11/11 A3015 RMK SLP214

CYQF;2015-07-02 11:00;CYQF 021100Z 19004KT 12SM MIFG SKC 11/10 A3016 RMK SLP216

CYQF;2015-07-02 12:00;CYQF 021200Z 22004KT 12SM MIFG SKC 11/10 A3016 RMK SLP216

CYQF;2015-07-02 13:00;CYQF 021300Z 18003KT 15SM SKC 13/12 A3016 RMK SLP216 DENSITY ALT 3100FT

CYQF;2015-07-02 14:00;CYQF 021400Z 20003KT 15SM SKC 16/13 A3016 RMK SLP213 DENSITY ALT 3400FT

CYQF;2015-07-02 15:00;CYQF 021500Z 19003KT 160V230 15SM SKC 18/14 A3016 RMK SLP211 DENSITY ALT 3700FT

CYQF;2015-07-02 16:00;CYQF 021600Z 21005KT 15SM FEW025 FEW250 21/14 A3014 RMK CU1CI1 CU TR CI TR SLP207 DENSITY ALT 4000FT

CYQF;2015-07-02 17:00;CYQF 021700Z 18006KT 150V230 15SM FEW030 FEW250 23/15 A3014 RMK CU1CI1 SLP201 DENSITY ALT 4300FT

CYQF;2015-07-02 18:00;CYQF 021800Z 16009KT 150V240 15SM FEW030 SCT250 25/14 A3012 RMK CF1CI2 SLP195 DENSITY ALT 4500FT

CYQF;2015-07-02 19:00;CYQF 021900Z 19009KT 150V220 15SM FEW048 SCT250 25/13 A3010 RMK CU1CI3 SLP190 DENSITY ALT 4600FT

CYQF;2015-07-02 20:00;CYQF 022000Z 20007KT 170V230 15SM FEW056 BKN250 26/12 A3009 RMK CU2CI3 SLP187 DENSITY ALT 4700FT

CYQF;2015-07-02 21:00;CYQF 022100Z CCA 16007KT 140V220 15SM FEW055 BKN250 26/13 A3007 RMK CU2CI3 SLP181 DENSITY ALT 4700FT

CYQF;2015-07-02 22:00;CYQF 022200Z 19008KT 15SM FEW060 BKN250 27/11 A3006 RMK CU2CI4 SLP177 DENSITY ALT 4800FT

CYQF;2015-07-02 23:00;CYQF 022300Z 15006KT 15SM FEW060 BKN280 27/14 A3004 RMK CU2CI4 CB TOP DIST SW SLP170 DENSITY ALT 4800FT

CYQF;2015-07-03 00:00;CYQF 030000Z 17005KT 140V200 15SM FEW060 FEW280 27/13 A3002 RMK CU1CI1 SLP165 DENSITY ALT 4800FT

CYQF;2015-07-03 01:00;CYQF 030100Z 16009KT 15SM FEW250 26/14 A3001 RMK CI2 SLP159 DENSITY ALT 4800FT

CYQF;2015-07-03 02:00;CYQF 030200Z 17007KT 15SM FEW280 25/14 A3000 RMK CI2 TCU TOP DIST E SLP153 DENSITY ALT 4700FT

CYQF;2015-07-03 03:00;CYQF 030300Z 17005KT 15SM FEW280 23/15 A2999 RMK CI1 CI TR SLP150 DENSITY ALT 4400FT

CYQF;2015-07-03 04:00;CYQF 030400Z 14006KT 15SM FEW280 20/15 A2998 RMK CI1 CI TR SLP148 DENSITY ALT 4100FT

CYQF;2015-07-03 05:00;CYQF 030500Z 16005KT 15SM SKC 18/15 A2998 RMK SLP147 DENSITY ALT 3900FT

CYQF;2015-07-03 06:00;CYQF 030600Z 19003KT 15SM SKC 18/13 A2998 RMK SLP145 DENSITY ALT 3800FT

CYQF;2015-07-03 07:00;CYQF 030700Z 19004KT 15SM SKC 16/13 A2997 RMK SLP143 DENSITY ALT 3700FT

CYQF;2015-07-03 08:00;CYQF 030800Z 20006KT 15SM SKC 16/13 A2995 RMK SLP138 DENSITY ALT 3700FT

CYQF;2015-07-03 09:00;CYQF 030900Z 23005KT 15SM FEW110 15/13 A2994 RMK AC1 SLP133 DENSITY ALT 3600FT

CYQF;2015-07-03 10:00;CYQF 031000Z 19003KT 15SM FEW110 14/12 A2993 RMK AC2 SLP130 DENSITY ALT 3500FT

CYQF;2015-07-03 11:00;CYQF 031100Z 22003KT 15SM SCT110 SCT270 14/13 A2992 RMK AC3CI1 SLP127 DENSITY ALT 3400FT

CYQF;2015-07-03 12:00;CYQF 031200Z 21006KT 15SM SCT110 BKN270 15/13 A2992 RMK AC3CI2 SLP126 DENSITY ALT 3600FT

CYQF;2015-07-03 13:00;CYQF 031300Z 21006KT 15SM FEW100 SCT270 16/14 A2991 RMK AC1CI3 AC TR SLP122 DENSITY ALT 3700FT

CYQF;2015-07-03 14:00;CYQF 031400Z 22006KT 15SM FEW100 BKN270 18/14 A2991 RMK AC1CI4 SLP122 DENSITY ALT 3900FT

CYQF;2015-07-03 15:00;CYQF 031500Z 28006KT 15SM FEW100 SCT270 21/14 A2991 RMK AC1CI3 SLP119 DENSITY ALT 4300FT

CYQF;2015-07-03 16:00;CYQF 031600Z 30007KT 15SM FEW100 SCT270 23/14 A2989 RMK AC1CI3 AC TR SLP116 DENSITY ALT 4500FT

CYQF;2015-07-03 17:00;CYQF 031700Z 32006KT 15SM FEW040 FEW100 BKN270 25/15 A2988 RMK CF1AC1CI3 SLP112 DENSITY ALT 4800FT

CYQF;2015-07-03 18:00;CYQF 031800Z 35008KT 15SM FEW044 FEW100 BKN270 26/15 A2988 RMK CU1AC1CI4 CU TR SLP110 DENSITY ALT 4900FT

CYQF;2015-07-03 19:00;CYQF 031900Z 01011KT 15SM FEW052 FEW100 BKN270 27/14 A2988 RMK CU1AC1CI3 SLP111 DENSITY ALT 5000FT

CYQF;2015-07-03 20:00;CYQF 032000Z 02009KT 15SM FEW055 FEW100 BKN270 27/12 A2987 RMK CU1AC1CI4 SLP106 DENSITY ALT 5000FT

CYQF;2015-07-03 21:00;CYQF 032100Z 02007KT 15SM FEW064CB SCT100 BKN250 27/11 A2985 RMK CB1AC3CI3 CB E SLP101 DENSITY ALT 5100FT

CYQF;2015-07-03 22:00;CYQF 032200Z 08006KT 010V110 15SM FEW065CB BKN150 BKN250 28/14 A2984 RMK CB1AC4CI2 CB E SLP096 DENSITY ALT 5200FT

CYQF;2015-07-03 23:00;CYQF 032300Z 03007KT 15SM FEW065TCU BKN160 OVC250 27/14 A2983 RMK TCU1AC5CI2 CB TOP DIST E SLP096 DENSITY ALT 5000FT

CYQF;2015-07-04 00:00;CYQF 040000Z 01007KT 15SM FEW065TCU BKN150 BKN250 24/15 A2983 RMK TCU1AC5CI1 SLP099 DENSITY ALT 4700FT

CYQF;2015-07-04 01:00;CYQF 040100Z 03011KT 15SM FEW040TCU BKN150 BKN250 25/14 A2983 RMK TCU2AC3CI2 CB TOPS DIST W SLP095 DENSITY ALT 4900FT

CYQF;2015-07-04 02:00;CYQF 040200Z 04009KT 15SM FEW040 BKN150 BKN250 21/10 A2983 RMK CU1AC4CI2 SLP098 DENSITY ALT 4400FT

CYQF;2015-07-04 03:00;CYQF 040300Z 04005KT 15SM SCT040CB BKN130 BKN250 20/11 A2983 RMK CB3AC3CI1 LTGCG NW SHRA W-N SLP097 DENSITY ALT 4200FT

CYQF;2015-07-04 03:45;CYQF 040345Z 06006KT 15SM TS VCSH BKN032CB 19/10 A2984 RMK CB7 LTGCGIC N - E SLP101 DENSITY ALT 4100FT

CYQF;2015-07-04 04:00;CYQF 040400Z 35009KT 330V040 15SM TS VCSH BKN032CB 19/11 A2987 RMK CB6 LTGCG N-E SHRA N-E PRESRR SLP108 DENSITY ALT 4100FT

CYQF;2015-07-04 05:00;CYQF 040500Z 05010G17KT 15SM TS BKN048CB 18/06 A2986 RMK CB5 LTGCG ALQDS SLP102 DENSITY ALT 4000FT

CYQF;2015-07-04 05:22;CYQF 040522Z 04008KT 15SM SCT045CB BKN100 17/05 A2986 RMK CB3AC2 LTNG DIST NW-E SLP102 DENSITY ALT 4000FT

CYQF;2015-07-04 06:00;CYQF 040600Z 36012G19KT 15SM SCT040CB BKN070 17/06 A2990 RMK CB3AC3 LTNG ALQDS PRESRR SLP118 DENSITY ALT 3800FT

CYQF;2015-07-04 06:09;CYQF 040609Z 36003G16KT 330V030 10SM -TSRA BKN028CB OVC070 16/07 A2991 RMK CB5AC3 LTGICCG SLP121 DENSITY ALT 3800FT

CYQF;2015-07-04 06:12;CYQF 040612Z 02005KT 330V040 10SM TSRA BKN028CB OVC070 16/08 A2991 RMK CB5AC3 LTGICCG SLP121 DENSITY ALT 3700FT

CYQF;2015-07-04 06:26;CYQF 040626Z 02007KT 350V080 10SM -TSRA SCT030 BKN050CB 15/08 A2991 RMK SC3CB3 LTNG ALQDS SLP122 DENSITY ALT 3600FT

CYQF;2015-07-04 06:56;CYQF 040656Z 06005KT 350V080 15SM VCSH SCT030 BKN050CB 14/10 A2990 RMK SC4CB2 PRESFR SLP119 DENSITY ALT 3500FT

CYQF;2015-07-04 07:00;CYQF 040700Z 09004KT 010V110 15SM VCSH SCT030 BKN050CB 14/10 A2989 RMK SC4CB2 PRESFR SLP116 DENSITY ALT 3500FT

CYQF;2015-07-04 08:00;CYQF 040800Z VRB02KT 15SM FEW024 SCT050CB BKN080 14/11 A2991 RMK SC2CB2AC3 SLP124 DENSITY ALT 3500FT

CYQF;2015-07-04 09:00;CYQF 040900Z 30006KT 15SM FEW040CB BKN085 14/10 A2991 RMK CB2AC4 LTNG DIST E SLP124 DENSITY ALT 3400FT

CYQF;2015-07-04 10:00;CYQF 041000Z VRB02KT 15SM BKN085 14/11 A2993 RMK AC6 SLP129 DENSITY ALT 3400FT

CYQF;2015-07-04 11:00;CYQF 041100Z 32005KT 15SM BKN090 13/10 A2994 RMK AC6 SLP136 DENSITY ALT 3300FT

CYQF;2015-07-04 12:00;CYQF 041200Z VRB03KT 15SM BKN100 13/12 A2994 RMK AC6 SLP138 DENSITY ALT 3400FT

CYQF;2015-07-04 13:00;CYQF 041300Z 26002KT 15SM BKN100 14/11 A2994 RMK AC5 SLP135 DENSITY ALT 3500FT

CYQF;2015-07-04 14:00;CYQF 041400Z 24003KT 15SM SCT100 16/11 A2994 RMK AC4 SLP137 DENSITY ALT 3700FT

CYQF;2015-07-04 15:00;CYQF 041500Z VRB02KT 15SM FEW024 SCT100 BKN250 18/12 A2994 RMK CU1AC3CI1 SLP138 DENSITY ALT 3900FT

CYQF;2015-07-04 16:00;CYQF 041600Z 01003KT 290V080 15SM FEW025 BKN090 18/11 A2995 RMK CU2AC3 SLP140 DENSITY ALT 4000FT

CYQF;2015-07-04 17:00;CYQF 041700Z 02009KT 15SM SCT035 BKN090 19/11 A2994 RMK CU3AC2 SLP138 DENSITY ALT 4100FT

CYQF;2015-07-04 18:00;CYQF 041800Z 36008KT 12SM SCT036 SCT090 20/10 A2995 RMK CU3AC1 HZ SLP140 DENSITY ALT 4100FT

CYQF;2015-07-04 19:00;CYQF 041900Z 04010KT 8SM FEW040CB 20/11 A2994 RMK CB2 FU SLP141 DENSITY ALT 4200FT

CYQF;2015-07-04 20:00;CYQF 042000Z 05010KT 6SM FU SCT040CB BKN100 19/10 A2995 RMK CB3AC4 SLP147 DENSITY ALT 4000FT

CYQF;2015-07-04 21:00;CYQF 042100Z 01008KT 5SM FU BKN080 BKN120 18/09 A2997 RMK ACC5AC2 SLP155 DENSITY ALT 3900FT

CYQF;2015-07-04 22:00;CYQF 042200Z 01004KT 320V030 6SM FU SCT055 BKN080 BKN120 19/09 A2998 RMK SC3ACC3AC1 SLP156 DENSITY ALT 4000FT

CYQF;2015-07-04 22:34;CYQF 042234Z 34027G37KT 300V010 6SM FU SCT040 OVC090 17/08 A3000 RMK CU4AC4 SLP165 DENSITY ALT 3700FT

CYQF;2015-07-04 23:00;CYQF 042300Z 36016G22KT 12SM VCSH SCT040 OVC100 13/08 A3004 RMK CU3AC5 PRESRR SLP183 DENSITY ALT 3300FT

CYQF;2015-07-04 23:19;CYQF 042319Z 01011KT 12SM -SHRA SCT040 OVC072 13/09 A3005 RMK CU3AC5 PRESRR SLP187 DENSITY ALT 3200FT

CYQF;2015-07-05 00:00;CYQF 050000Z 33005KT 12SM -SHRA OVC077 13/10 A3006 RMK AC8 SLP189 DENSITY ALT 3200FT

CYQF;2015-07-05 00:38;CYQF 050038Z 33005KT 15SM OVC070 14/10 A3004 RMK AC8 SLP183 DENSITY ALT 3300FT

CYQF;2015-07-05 01:00;CYQF 050100Z 33004KT 15SM OVC075 14/09 A3004 RMK AC8 SLP182 DENSITY ALT 3400FT

CYQF;2015-07-05 02:00;CYQF 050200Z 29005KT 15SM BKN100 14/10 A3006 RMK AC7 SLP187 DENSITY ALT 3300FT

CYQF;2015-07-05 03:00;CYQF 050300Z 26005KT 15SM BKN120 14/10 A3006 RMK AC6 SLP187 DENSITY ALT 3300FT

CYQF;2015-07-05 04:00;CYQF 050400Z 26007KT 15SM SCT160 13/08 A3008 RMK AC4 SLP194 DENSITY ALT 3100FT

CYQF;2015-07-05 05:00;CYQF 050500Z 32008KT 15SM BKN050 12/07 A3012 RMK SC5 SLP206 DENSITY ALT 3000FT

CYQF;2015-07-05 06:00;CYQF 050600Z 30007KT 15SM FEW070 11/07 A3013 RMK AC2 SLP210

CYQF;2015-07-05 07:00;CYQF 050700Z 29005KT 15SM BKN040 10/07 A3014 RMK SC5 SLP216

CYQF;2015-07-05 08:00;CYQF 050800Z 29006KT 15SM BKN040 10/07 A3014 RMK SC7 SLP217

CYQF;2015-07-05 09:00;CYQF 050900Z 27005KT 15SM OVC030 11/07 A3014 RMK SC8 WND ESTD SLP217

CYQF;2015-07-05 10:00;CYQF 051000Z 31011G16KT 15SM OVC050 11/08 A3014 RMK SC8 SLP215

CYQF;2015-07-05 11:00;CYQF 051100Z 30009G15KT 15SM FEW020 OVC050 11/08 A3015 RMK CU2SC6 SLP223

CYQF;2015-07-05 12:00;CYQF 051200Z 32012G18KT 15SM FEW020 OVC054 11/08 A3016 RMK CU2SC6 SLP227

CYQF;2015-07-05 13:00;CYQF 051300Z 32010G20KT 15SM BKN020 OVC056 11/08 A3016 RMK SC5SC3 SLP228

CYQF;2015-07-05 14:00;CYQF 051400Z 33013G21KT 15SM BKN020 OVC060 11/08 A3018 RMK SC6SC2 SLP233

CYQF;2015-07-05 15:00;CYQF 051500Z 32011G18KT 15SM BKN020 BKN060 OVC120 12/08 A3018 RMK SC6SC1AC1 CIG RAG SLP234 DENSITY ALT 3000FT

CYQF;2015-07-05 16:00;CYQF 051600Z 35015KT 15SM BKN030 BKN120 14/07 A3019 RMK CU5AC1 SLP237 DENSITY ALT 3100FT

CYQF;2015-07-05 18:00;CYQF 051800Z 35010G20KT 15SM SCT032 BKN054 14/06 A3020 RMK CU3SC4 SLP239 DENSITY ALT 3200FT

CYQF;2015-07-05 19:00;CYQF 051900Z 36012G18KT 15SM SCT032 BKN056 14/07 A3020 RMK CU3SC4 SLP242 DENSITY ALT 3200FT

CYQF;2015-07-05 20:00;CYQF 052000Z 02012G18KT 340V040 15SM SCT035 BKN060 15/08 A3020 RMK CU3SC3 SLP242 DENSITY ALT 3300FT

CYQF;2015-07-05 21:00;CYQF 052100Z 36010G19KT 15SM SCT035 BKN060 15/08 A3020 RMK CU3SC3 SLP240 DENSITY ALT 3300FT

CYQF;2015-07-05 22:00;CYQF 052200Z 34009G15KT 310V020 15SM BKN040 17/07 A3020 RMK CU5 SLP237 DENSITY ALT 3500FT

CYQF;2015-07-05 23:00;CYQF 052300Z 36010G15KT 15SM SCT040 17/06 A3020 RMK CU4 SLP239 DENSITY ALT 3500FT

CYQF;2015-07-06 00:00;CYQF 060000Z 01009KT 15SM SCT045 17/08 A3020 RMK CU4 SLP238 DENSITY ALT 3500FT

CYQF;2015-07-06 01:00;CYQF 060100Z 02009KT 15SM FEW045 FEW250 16/06 A3020 RMK CU1CI1 SLP238 DENSITY ALT 3500FT

CYQF;2015-07-06 02:00;CYQF 060200Z 03005KT 15SM FEW040 BKN250 15/07 A3020 RMK CU1CI5 CU TR SLP238 DENSITY ALT 3300FT

CYQF;2015-07-06 03:00;CYQF 060300Z 09005KT 15SM BKN250 13/06 A3020 RMK CI6 SLP239 DENSITY ALT 3100FT

CYQF;2015-07-06 04:00;CYQF 060400Z 17003KT 15SM BKN230 12/06 A3020 RMK CI6 SLP242

CYQF;2015-07-06 05:00;CYQF 060500Z 19004KT 15SM BKN220 10/06 A3020 RMK CI6 SLP242

CYQF;2015-07-06 06:00;CYQF 060600Z 19004KT 15SM SCT220 08/05 A3021 RMK CI4 SLP246

CYQF;2015-07-06 07:00;CYQF 060700Z 18004KT 15SM SCT220 07/05 A3020 RMK CI3 SLP246

CYQF;2015-07-06 08:00;CYQF 060800Z 16004KT 15SM SCT220 06/04 A3020 RMK CI3 SLP245

CYQF;2015-07-06 09:00;CYQF 060900Z 16004KT 15SM BKN210 06/04 A3020 RMK CI5 SLP244

CYQF;2015-07-06 10:00;CYQF 061000Z 17002KT 15SM SCT210 05/04 A3019 RMK CI3 SLP240

CYQF;2015-07-06 11:00;CYQF 061100Z 16003KT 15SM FEW210 05/04 A3018 RMK CI1 SLP237

CYQF;2015-07-06 12:00;CYQF 061200Z 16003KT 15SM FEW210 06/05 A3017 RMK CC2 SLP234

CYQF;2015-07-06 13:00;CYQF 061300Z 16004KT 15SM FEW210 09/07 A3017 RMK CC2 SLP231

CYQF;2015-07-06 14:00;CYQF 061400Z 16011KT 15SM SCT270 12/08 A3016 RMK CI3 SLP225 DENSITY ALT 3000FT

CYQF;2015-07-06 15:00;CYQF 061500Z 17013G19KT 15SM SCT250 14/08 A3015 RMK CI4 SLP222 DENSITY ALT 3200FT

CYQF;2015-07-06 16:00;CYQF 061600Z 15017KT 15SM FEW250 16/07 A3014 RMK CI2 SLP217 DENSITY ALT 3500FT

CYQF;2015-07-06 17:00;CYQF 061700Z 16015G22KT 15SM FEW250 18/08 A3012 RMK CC2 SLP210 DENSITY ALT 3700FT

CYQF;2015-07-06 18:00;CYQF 061800Z 17015G22KT 15SM SCT250 18/09 A3010 RMK CC4 SLP205 DENSITY ALT 3800FT

CYQF;2015-07-06 19:00;CYQF 061900Z 16013G20KT 15SM FEW040 FEW250 20/10 A3008 RMK CF1CI2 CF TR SLP199 DENSITY ALT 4000FT

CYQF;2015-07-06 20:00;CYQF 062000Z 17014KT 15SM FEW044 FEW250 21/10 A3007 RMK CU1CI2 CU TR SLP193 DENSITY ALT 4100FT

CYQF;2015-07-06 21:00;CYQF 062100Z 16013KT 15SM FEW250 23/10 A3005 RMK CI2 SLP185 DENSITY ALT 4300FT

CYQF;2015-07-06 22:00;CYQF 062200Z 17012G19KT 15SM FEW048 SCT200 BKN250 23/11 A3004 RMK CU1CC3CI4 CU TR SLP180 DENSITY ALT 4400FT

CYQF;2015-07-06 23:00;CYQF 062300Z 18010KT 15SM FEW052 SCT200 BKN250 23/10 A3004 RMK CU1CC3CI4 CU TR SLP180 DENSITY ALT 4400FT

CYQF;2015-07-07 00:00;CYQF 070000Z 18008KT 140V240 15SM FEW056 BKN160 BKN250 23/08 A3003 RMK CU1AC5CI1 SLP178 DENSITY ALT 4400FT

CYQF;2015-07-07 01:00;CYQF 070100Z 23003KT 15SM SCT050CB BKN110 OVC250 22/11 A3004 RMK CB4AC3CI1 LTGCG W SLP178 DENSITY ALT 4200FT

CYQF;2015-07-07 02:00;CYQF 070200Z 22007KT 180V300 15SM VCSH SCT050TCU BKN090 OVC250 19/09 A3005 RMK TCU4AC3CI1 SLP181 DENSITY ALT 4000FT

CYQF;2015-07-07 03:00;CYQF 070300Z 24008G15KT 15SM SCT050TCU BKN120 OVC250 16/11 A3007 RMK TCU3AC4CI1 SLP192 DENSITY ALT 3600FT

CYQF;2015-07-07 04:00;CYQF 070400Z 25008KT 15SM FEW050 OVC120 15/12 A3009 RMK SC2AC6 SLP195 DENSITY ALT 3500FT

CYQF;2015-07-07 05:00;CYQF 070500Z 23006KT 15SM FEW050 BKN120 14/11 A3010 RMK SC2AC5 SLP198 DENSITY ALT 3300FT

CYQF;2015-07-07 06:00;CYQF 070600Z 25004KT 15SM FEW080 SCT140 BKN250 14/11 A3011 RMK AC1AC3CI1 SLP201 DENSITY ALT 3200FT

CYQF;2015-07-07 07:00;CYQF 070700Z 21005KT 15SM FEW080 FEW140 SCT250 11/10 A3010 RMK AC1AC1CI2 SLP201

CYQF;2015-07-07 08:00;CYQF 070800Z 21004KT 15SM FEW080 09/08 A3010 RMK AC1 SLP201

CYQF;2015-07-07 09:00;CYQF 070900Z 18005KT 15SM FEW140 09/08 A3011 RMK AC1 SLP201

CYQF;2015-07-07 10:00;CYQF 071000Z 00000KT 5SM BR FEW080 FEW140 09/08 A3012 RMK AC1AC1 SLP206

CYQF;2015-07-07 11:00;CYQF 071100Z 02006KT 8SM FEW140 SCT250 10/08 A3014 RMK AC1CI2 SLP211

CYQF;2015-07-07 12:00;CYQF 071200Z 34005KT 8SM FEW250 10/08 A3015 RMK CI2 SLP215

CYQF;2015-07-07 13:00;CYQF 071300Z 33006KT 12SM FEW250 11/09 A3018 RMK CI1 SLP225

CYQF;2015-07-07 14:00;CYQF 071400Z 34006KT 12SM BKN016 OVC080 12/10 A3019 RMK SC6AC2 SLP230

CYQF;2015-07-07 15:00;CYQF 071500Z 36008KT 12SM BKN015 OVC080 12/10 A3019 RMK SC6AC2 SLP234 DENSITY ALT 3000FT

CYQF;2015-07-07 16:00;CYQF 071600Z 34005KT 12SM BKN020 13/10 A3019 RMK CU7 SLP233 DENSITY ALT 3100FT

CYQF;2015-07-07 17:00;CYQF 071700Z 01009KT 320V040 10SM BKN020 BKN100 OVC250 15/10 A3018 RMK CU6AC1CI1 SLP230 DENSITY ALT 3300FT

CYQF;2015-07-07 18:00;CYQF 071800Z 01006KT 320V040 12SM BKN020 15/11 A3017 RMK SC7 SLP227 DENSITY ALT 3400FT

CYQF;2015-07-07 19:00;CYQF 071900Z 35005KT 320V040 12SM BKN025 BKN110 16/10 A3016 RMK CU6AC1 SLP225 DENSITY ALT 3400FT

CYQF;2015-07-07 20:00;CYQF 072000Z 33005KT 310V010 10SM BKN028 BKN110 17/10 A3015 RMK CU6AC1 SLP223 DENSITY ALT 3500FT

CYQF;2015-07-07 21:00;CYQF 072100Z VRB02KT 10SM BKN030 BKN110 18/09 A3013 RMK SC6AC1 SLP216 DENSITY ALT 3700FT

CYQF;2015-07-07 22:00;CYQF 072200Z VRB02KT 10SM BKN030 BKN110 18/09 A3011 RMK SC6AC1 SLP209 DENSITY ALT 3700FT

CYQF;2015-07-07 23:00;CYQF 072300Z 00000KT 12SM BKN037 18/10 A3010 RMK SC6 SLP202 DENSITY ALT 3700FT

CYQF;2015-07-08 00:00;CYQF 080000Z VRB03KT 12SM SCT040 BKN270 19/11 A3008 RMK SC4CI2 SLP196 DENSITY ALT 3900FT

CYQF;2015-07-08 01:00;CYQF 080100Z 20007KT 10SM SCT040 BKN270 19/10 A3006 RMK CU3CI2 SLP189 DENSITY ALT 3900FT

CYQF;2015-07-08 02:00;CYQF 080200Z 20004KT 10SM FEW040 FEW270 18/10 A3006 RMK CU1CI1 SLP185 DENSITY ALT 3800FT

CYQF;2015-07-08 03:00;CYQF 080300Z 22005KT 10SM FEW040 FEW270 16/11 A3005 RMK CU1CI2 CU TR SLP185 DENSITY ALT 3600FT

CYQF;2015-07-08 04:00;CYQF 080400Z 19006KT 8SM FEW270 13/10 A3005 RMK CI2 SLP188 DENSITY ALT 3300FT

CYQF;2015-07-08 05:00;CYQF 080500Z 18004KT 10SM FEW270 11/09 A3005 RMK CI2 SLP187 DENSITY ALT 3000FT

CYQF;2015-07-08 06:00;CYQF 080600Z 16004KT 10SM FEW270 10/09 A3004 RMK CI2 SLP185

CYQF;2015-07-08 07:00;CYQF 080700Z 19005KT 10SM FEW270 09/08 A3003 RMK CI2 SLP182

CYQF;2015-07-08 08:00;CYQF 080800Z 20006KT 10SM FEW270 09/08 A3001 RMK CI1 SLP174

CYQF;2015-07-08 09:00;CYQF 080900Z 20007KT 10SM FEW270 09/08 A2999 RMK CI1 SLP167

CYQF;2015-07-08 10:00;CYQF 081000Z 18007KT 10SM FEW270 09/08 A2998 RMK CI1 CI TR SLP162

CYQF;2015-07-08 11:00;CYQF 081100Z 18007KT 8SM FEW270 09/08 A2996 RMK CI1 CI TR SLP158

CYQF;2015-07-08 12:00;CYQF 081200Z 19007KT 8SM FEW270 11/09 A2995 RMK CI1 CI TR SLP149 DENSITY ALT 3100FT

CYQF;2015-07-08 13:00;CYQF 081300Z 20004KT 8SM FEW270 12/10 A2994 RMK CI1 SLP143 DENSITY ALT 3200FT

CYQF;2015-07-08 14:00;CYQF 081400Z 19008KT 8SM FEW270 14/11 A2993 RMK CI2 FU SLP138 DENSITY ALT 3500FT

CYQF;2015-07-08 15:00;CYQF 081500Z 20008KT 8SM FEW270 16/11 A2991 RMK CI1 SLP134 DENSITY ALT 3700FT

CYQF;2015-07-08 16:00;CYQF 081600Z 18005KT 8SM FEW270 18/12 A2989 RMK CI1 SLP126 DENSITY ALT 4000FT

CYQF;2015-07-08 17:00;CYQF 081700Z 18006KT 160V220 8SM FEW270 21/13 A2987 RMK CI1 SLP118 DENSITY ALT 4400FT

CYQF;2015-07-08 18:00;CYQF 081800Z 19007KT 12SM BKN270 24/12 A2985 RMK CI6 SLP110 DENSITY ALT 4800FT

CYQF;2015-07-08 19:00;CYQF 081900Z 21006KT 12SM BKN270 27/08 A2983 RMK CI7 SLP100 DENSITY ALT 5000FT

CYQF;2015-07-08 20:00;CYQF 082000Z 22007KT 12SM OVC270 27/07 A2981 RMK CI8 SLP092 DENSITY ALT 5100FT

CYQF;2015-07-08 21:00;CYQF 082100Z 22008KT 10SM OVC270 28/09 A2979 RMK CI8 SLP085 DENSITY ALT 5200FT

CYQF;2015-07-08 22:00;CYQF 082200Z 24004KT 170V280 10SM OVC270 28/09 A2977 RMK CI8 SLP078 DENSITY ALT 5300FT

CYQF;2015-07-08 23:00;CYQF 082300Z 17010KT 10SM SCT200 BKN270 29/11 A2974 RMK CI3CI4 SLP069 DENSITY ALT 5300FT

CYQF;2015-07-09 00:00;CYQF 090000Z 18013KT 10SM SCT200 BKN270 28/10 A2973 RMK CI3CI4 SLP062 DENSITY ALT 5300FT

CYQF;2015-07-09 01:00;CYQF 090100Z 18010KT 12SM SCT200 BKN270 27/11 A2971 RMK CI3CI3 SLP056 DENSITY ALT 5200FT

CYQF;2015-07-09 02:00;CYQF 090200Z 18007KT 12SM SCT200 BKN270 26/14 A2970 RMK CI3CI3 SLP053 DENSITY ALT 5000FT

CYQF;2015-07-09 03:00;CYQF 090300Z 17007KT 12SM SCT200 BKN270 22/12 A2970 RMK CI3CI4 SLP053 DENSITY ALT 4700FT

CYQF;2015-07-09 04:00;CYQF 090400Z 18008KT 12SM SCT160 BKN270 20/12 A2970 RMK AC3CI3 SLP054 DENSITY ALT 4400FT

CYQF;2015-07-09 05:00;CYQF 090500Z 20007KT 12SM BKN250 19/13 A2971 RMK CI5 SLP055 DENSITY ALT 4300FT

CYQF;2015-07-09 06:00;CYQF 090600Z 19005KT 12SM BKN250 15/12 A2971 RMK CI5 SLP054 DENSITY ALT 3900FT

CYQF;2015-07-09 07:00;CYQF 090700Z 26005KT 12SM SCT250 17/12 A2971 RMK CI3 SLP050 DENSITY ALT 4000FT

CYQF;2015-07-09 08:00;CYQF 090800Z 19004KT 12SM FEW250 13/11 A2972 RMK CI2 SLP058 DENSITY ALT 3700FT

CYQF;2015-07-09 09:00;CYQF 090900Z 22003KT 15SM SKC 12/10 A2974 RMK SLP064 DENSITY ALT 3500FT

CYQF;2015-07-09 10:00;CYQF 091000Z 00000KT 15SM FEW250 11/09 A2975 RMK CI1 SLP068 DENSITY ALT 3400FT

CYQF;2015-07-09 11:00;CYQF 091100Z VRB02KT 15SM FEW250 11/09 A2976 RMK CI2 SLP072 DENSITY ALT 3300FT

CYQF;2015-07-09 12:00;CYQF 091200Z 18004KT 160V240 12SM FEW180 SCT250 10/09 A2976 RMK AC1CI3 SLP075 DENSITY ALT 3300FT

CYQF;2015-07-09 13:00;CYQF 091300Z 20005KT 12SM SCT280 14/11 A2977 RMK CI3 SLP075 DENSITY ALT 3600FT

CYQF;2015-07-09 14:00;CYQF 091400Z 20004KT 12SM FEW280 17/12 A2977 RMK CI2 SLP075 DENSITY ALT 4000FT

CYQF;2015-07-09 15:00;CYQF 091500Z 21004KT 12SM FEW280 20/13 A2977 RMK CI1 SLP073 DENSITY ALT 4400FT

CYQF;2015-07-09 16:00;CYQF 091600Z VRB02KT 12SM FEW280 23/14 A2976 RMK CI1 SLP071 DENSITY ALT 4700FT

CYQF;2015-07-09 17:00;CYQF 091700Z 18004KT 130V270 12SM FEW280 25/14 A2976 RMK CI2 SLP069 DENSITY ALT 4900FT

CYQF;2015-07-09 18:00;CYQF 091800Z 19006KT 12SM FEW280 27/12 A2975 RMK CI2 SLP066 DENSITY ALT 5100FT

CYQF;2015-07-09 19:00;CYQF 091900Z 19006KT 140V230 12SM FEW280 29/13 A2973 RMK CI2 SLP057 DENSITY ALT 5300FT

CYQF;2015-07-09 20:00;CYQF 092000Z 18007KT 150V230 12SM SCT280 30/12 A2972 RMK CI3 SLP055 DENSITY ALT 5500FT

CYQF;2015-07-09 21:00;CYQF 092100Z 18008KT 12SM BKN280 30/13 A2971 RMK CI5 SLP052 DENSITY ALT 5500FT

CYQF;2015-07-09 22:00;CYQF 092200Z 17010KT 12SM FEW072 BKN280 30/12 A2970 RMK CU1CI5 CU TR SLP049 DENSITY ALT 5600FT

CYQF;2015-07-09 23:00;CYQF 092300Z 18009KT 12SM FEW072 SCT280 30/12 A2969 RMK CU1CI3 CU TR SLP046 DENSITY ALT 5600FT

CYQF;2015-07-10 00:00;CYQF 100000Z 16008KT 15SM FEW066 FEW280 30/13 A2968 RMK CU1CI2 CU TR SLP043 DENSITY ALT 5500FT

CYQF;2015-07-10 01:00;CYQF 100100Z 17007KT 12SM FEW280 29/13 A2967 RMK CI1 SLP039 DENSITY ALT 5500FT

CYQF;2015-07-10 02:00;CYQF 100200Z 16004KT 12SM FEW280 28/17 A2967 RMK CI1 SLP036 DENSITY ALT 5300FT

CYQF;2015-07-10 03:00;CYQF 100300Z 13003KT 12SM FEW280 25/16 A2967 RMK CI1 CI TR SLP036 DENSITY ALT 5000FT

CYQF;2015-07-10 04:00;CYQF 100400Z VRB02KT 12SM FEW280 23/15 A2968 RMK CI1 CI TR SLP038 DENSITY ALT 4700FT

CYQF;2015-07-10 05:00;CYQF 100500Z 00000KT 15SM FEW280 21/14 A2968 RMK CI1 CI TR SLP039 DENSITY ALT 4500FT

CYQF;2015-07-10 06:00;CYQF 100600Z 00000KT 15SM FEW250 16/12 A2969 RMK CI1 CI TR SLP045 DENSITY ALT 4000FT

CYQF;2015-07-10 07:00;CYQF 100700Z 21002KT 15SM FEW250 17/14 A2969 RMK CI2 SLP042 DENSITY ALT 4100FT

CYQF;2015-07-10 08:00;CYQF 100800Z 01003KT 15SM SCT250 15/14 A2971 RMK CI3 SLP049 DENSITY ALT 3800FT

CYQF;2015-07-10 09:00;CYQF 100900Z 35008KT 15SM SCT250 16/13 A2974 RMK CI3 PRESRR SLP059 DENSITY ALT 3900FT

CYQF;2015-07-10 10:00;CYQF 101000Z 04006KT 15SM FEW250 16/12 A2975 RMK CI2 SLP061 DENSITY ALT 3900FT

CYQF;2015-07-10 11:00;CYQF 101100Z 05008KT 15SM SCT250 15/11 A2975 RMK CI3 WND ESTD SLP063 DENSITY ALT 3800FT

CYQF;2015-07-10 12:00;CYQF 101200Z 35007KT 15SM FEW120 SCT250 15/10 A2977 RMK AC1CI2 SLP072 DENSITY ALT 3800FT

CYQF;2015-07-10 13:00;CYQF 101300Z 31006KT 15SM FEW120 16/11 A2979 RMK ACC2 SLP078 DENSITY ALT 3900FT

CYQF;2015-07-10 14:00;CYQF 101400Z 34006KT 15SM BKN130 18/12 A2981 RMK AC5 SLP083 DENSITY ALT 4000FT

CYQF;2015-07-10 15:00;CYQF 101500Z 35004KT 12SM BKN150 19/13 A2982 RMK AC7 SLP088 DENSITY ALT 4200FT

CYQF;2015-07-10 16:00;CYQF 101600Z 05007KT 010V080 12SM BKN150 22/14 A2982 RMK AC7 SLP089 DENSITY ALT 4500FT

CYQF;2015-07-10 17:00;CYQF 101700Z 06011KT 10SM BKN120 22/13 A2982 RMK ACC7 FU SLP092 DENSITY ALT 4500FT

CYQF;2015-07-10 18:00;CYQF 101800Z 06006KT 10SM SCT120 BKN160 23/14 A2982 RMK ACC4AC3 SLP094 DENSITY ALT 4600FT

CYQF;2015-07-10 19:00;CYQF 101900Z 07009KT 020V090 8SM SCT120 BKN160 25/15 A2982 RMK ACC4AC3 FU SLP091 DENSITY ALT 4900FT

CYQF;2015-07-10 20:00;CYQF 102000Z 06009KT 8SM BKN160 26/15 A2981 RMK AC6 SLP090 DENSITY ALT 5000FT

CYQF;2015-07-10 21:00;CYQF 102100Z 06007KT 8SM BKN160 27/15 A2980 RMK AC7 FU SLP084 DENSITY ALT 5100FT

CYQF;2015-07-10 22:00;CYQF 102200Z 04009KT 8SM FEW040 BKN160 OVC280 27/15 A2978 RMK CU1AC6CI1 FU TCU TOPS E SLP077 DENSITY ALT 5100FT

CYQF;2015-07-10 23:00;CYQF 102300Z 06011KT 8SM FEW050TCU SCT160 OVC280 28/15 A2976 RMK TCU1AC3CI4 FU SLP071 DENSITY ALT 5200FT

CYQF;2015-07-11 00:00;CYQF 110000Z 06011KT 8SM FEW060CB SCT160 OVC280 27/16 A2976 RMK CB1AC2CI5 FU SLP068 DENSITY ALT 5200FT

CYQF;2015-07-11 01:00;CYQF 110100Z 07011KT 8SM FEW160 OVC280 27/16 A2974 RMK AC2CI6 FU SLP061 DENSITY ALT 5100FT

CYQF;2015-07-11 02:00;CYQF 110200Z 06009KT 8SM SCT160 OVC280 25/15 A2974 RMK AC3CI5 FU SLP061 DENSITY ALT 5000FT

CYQF;2015-07-11 03:00;CYQF 110300Z 06008KT 8SM FEW160 OVC280 24/16 A2973 RMK AC2CI6 FU SLP060 DENSITY ALT 4800FT

CYQF;2015-07-11 04:00;CYQF 110400Z 06009KT 8SM FEW160 BKN280 22/16 A2974 RMK AC2CI5 FU SLP060 DENSITY ALT 4600FT

CYQF;2015-07-11 05:00;CYQF 110500Z 08010KT 8SM FU SCT120 BKN280 22/16 A2973 RMK AC4CI3 SLP059 DENSITY ALT 4600FT

CYQF;2015-07-11 06:00;CYQF 110600Z 00000KT 8SM SCT120 BKN280 20/16 A2972 RMK AC3CI3 SLP056 DENSITY ALT 4400FT

CYQF;2015-07-11 07:00;CYQF 110700Z 30003KT 8SM SCT120 BKN250 18/16 A2973 RMK AC3CI4 FU SLP057 DENSITY ALT 4100FT

CYQF;2015-07-11 08:00;CYQF 110800Z VRB02KT 8SM FEW120 BKN160 BKN250 17/16 A2971 RMK AC2AC3CI2 FU SLP053 DENSITY ALT 4100FT

CYQF;2015-07-11 09:00;CYQF 110900Z 00000KT 8SM SCT130 BKN250 17/16 A2970 RMK AC4CI2 FU SLP046 DENSITY ALT 4100FT

CYQF;2015-07-11 10:00;CYQF 111000Z 28004KT 15SM SCT140 BKN250 14/14 A2969 RMK AC4CI1 SLP048 DENSITY ALT 3800FT

CYQF;2015-07-11 11:00;CYQF 111100Z 00000KT 4SM BR FEW160 SCT250 13/12 A2971 RMK AC2CI2 SLP053 DENSITY ALT 3600FT

CYQF;2015-07-11 11:43;CYQF 111143Z 27002KT 1SM MIFG FEW160 BKN250 13/13 A2971 RMK AC2CI4 SLP054 DENSITY ALT 3700FT

CYQF;2015-07-11 12:00;CYQF 111200Z 21003KT 170V270 1/2SM FG SCT160 BKN250 11/11 A2972 RMK FG3AC1CI2 SLP058 DENSITY ALT 3400FT

CYQF;2015-07-11 12:32;CYQF 111232Z 34005KT 4SM PRFG SCT120 BKN250 13/12 A2973 RMK AC3CI4 SLP063 DENSITY ALT 3600FT

CYQF;2015-07-11 13:00;CYQF 111300Z 36004KT 4SM HZ SCT120 BKN250 15/14 A2972 RMK AC3CI4 SLP058 DENSITY ALT 3800FT

CYQF;2015-07-11 14:00;CYQF 111400Z 34004KT 4SM HZ SCT120 17/16 A2973 RMK AC4 SLP058 DENSITY ALT 4100FT

CYQF;2015-07-11 15:00;CYQF 111500Z 33005KT 4SM HZ BKN120 18/15 A2973 RMK AC6 SLP059 DENSITY ALT 4200FT

CYQF;2015-07-11 16:00;CYQF 111600Z 30004KT 5SM HZ FEW012 SCT120 21/17 A2973 RMK CF1AC4 CF TR SLP060 DENSITY ALT 4500FT

CYQF;2015-07-11 17:00;CYQF 111700Z 36006KT 5SM HZ FEW120 FEW280 22/18 A2973 RMK AC1CI1 SLP056 DENSITY ALT 4600FT

CYQF;2015-07-11 18:00;CYQF 111800Z VRB04KT 5SM HZ FEW020 FEW120 BKN280 24/18 A2973 RMK CU1AC1CI3 SLP057 DENSITY ALT 4800FT

CYQF;2015-07-11 19:00;CYQF 111900Z 02005KT 320V050 5SM HZ SCT120 BKN280 25/19 A2973 RMK AC4CI3 SLP058 DENSITY ALT 4900FT

CYQF;2015-07-11 20:00;CYQF 112000Z 34004KT 320V030 5SM HZ SCT120 BKN280 26/19 A2972 RMK AC3CI3 SLP054 DENSITY ALT 5000FT

CYQF;2015-07-11 21:00;CYQF 112100Z VRB04KT 5SM HZ SCT120 BKN280 27/20 A2971 RMK AC3CI3 SLP051 DENSITY ALT 5200FT

CYQF;2015-07-11 22:00;CYQF 112200Z 34005KT 5SM HZ SCT120 BKN280 27/19 A2969 RMK HZ1AC3CI3 SLP047 DENSITY ALT 5200FT

CYQF;2015-07-11 23:00;CYQF 112300Z 36004KT 340V130 3SM HZ BKN120 OVC280 27/19 A2969 RMK HZ3AC2CI3 SLP049 DENSITY ALT 5200FT

CYQF;2015-07-12 00:00;CYQF 120000Z 35005KT 320V020 3SM HZ BKN120 OVC280 26/18 A2969 RMK HZ3AC2CI3 SLP050 DENSITY ALT 5100FT

CYQF;2015-07-12 01:00;CYQF 120100Z 36005KT 3SM HZ SCT120 OVC280 24/19 A2968 RMK HZ2AC2CI4 SLP047 DENSITY ALT 4900FT

CYQF;2015-07-12 02:00;CYQF 120200Z 35004KT 3SM HZ SCT120 OVC280 24/20 A2968 RMK HZ2AC2CI4 SLP044 DENSITY ALT 4900FT

CYQF;2015-07-12 03:00;CYQF 120300Z 34003KT 3SM HZ SCT120 OVC280 23/19 A2969 RMK HZ2AC1CI5 SLP048 DENSITY ALT 4800FT

CYQF;2015-07-12 04:00;CYQF 120400Z 28004KT 3SM HZ SCT120 OVC280 21/18 A2970 RMK HZ2AC1CI5 SLP049 DENSITY ALT 4600FT

CYQF;2015-07-12 05:00;CYQF 120500Z 34003KT 3SM HZ OVC280 20/17 A2970 RMK HZ2CI6 SLP050 DENSITY ALT 4400FT

CYQF;2015-07-12 06:00;CYQF 120600Z 02004KT 3SM HZ VV040 19/17 A2970 RMK HZ8 SLP049 DENSITY ALT 4300FT

CYQF;2015-07-12 07:00;CYQF 120700Z 31005KT 3SM HZ VV042 19/17 A2971 RMK HZ8 SLP053 DENSITY ALT 4200FT

CYQF;2015-07-12 08:00;CYQF 120800Z 32002KT 3SM HZ VV045 19/17 A2973 RMK HZ8 SLP056 DENSITY ALT 4200FT

CYQF;2015-07-12 09:00;CYQF 120900Z 34005KT 3SM HZ OVC130 18/16 A2972 RMK HZ5AC3 SLP053 DENSITY ALT 4200FT

CYQF;2015-07-12 10:00;CYQF 121000Z 34006KT 3SM HZ OVC130 17/16 A2973 RMK HZ5AC3 SLP056 DENSITY ALT 4100FT

CYQF;2015-07-12 11:00;CYQF 121100Z 30004KT 2SM HZ OVC150 17/16 A2973 RMK HZ4AC4 SLP058 DENSITY ALT 4000FT

CYQF;2015-07-12 12:00;CYQF 121200Z 29006KT 2SM HZ VV038 16/16 A2974 RMK HZ8 SLP063 DENSITY ALT 4000FT

CYQF;2015-07-12 13:00;CYQF 121300Z 28006KT 2SM HZ OVC140 17/15 A2975 RMK HZ6AC2 SLP066 DENSITY ALT 4000FT

CYQF;2015-07-12 14:00;CYQF 121400Z 32004KT 280V350 2SM HZ OVC140 17/15 A2975 RMK HZ6AC2 SLP066 DENSITY ALT 4100FT

CYQF;2015-07-12 14:47;CYQF 121447Z 28004KT 5SM HZ OVC280 18/15 A2976 RMK CI8 SLP070 DENSITY ALT 4100FT

CYQF;2015-07-12 15:00;CYQF 121500Z VRB02KT 5SM HZ OVC280 18/15 A2977 RMK CI8 SLP073 DENSITY ALT 4200FT

CYQF;2015-07-12 16:00;CYQF 121600Z VRB02KT 5SM HZ OVC240 20/16 A2977 RMK CI8 SLP075 DENSITY ALT 4300FT

CYQF;2015-07-12 17:00;CYQF 121700Z VRB02KT 5SM HZ OVC240 21/17 A2977 RMK CI8 SLP074 DENSITY ALT 4500FT

CYQF;2015-07-12 18:00;CYQF 121800Z 22005KT 190V330 5SM HZ OVC140 22/18 A2978 RMK HZ4AS4 SLP080 DENSITY ALT 4600FT

CYQF;2015-07-12 19:00;CYQF 121900Z 25005KT 5SM HZ OVC140 22/18 A2979 RMK HZ4AS4 SLP083 DENSITY ALT 4600FT

CYQF;2015-07-12 20:00;CYQF 122000Z 22008KT 4SM HZ BKN140 OVC220 23/18 A2980 RMK HZ2AS3CI3 SLP086 DENSITY ALT 4600FT

CYQF;2015-07-12 21:00;CYQF 122100Z 21006KT 180V240 6SM HZ FEW140 OVC240 24/18 A2979 RMK AC2CI6 SLP082 DENSITY ALT 4700FT

CYQF;2015-07-12 22:00;CYQF 122200Z 29010KT 250V320 7SM HZ FEW032 FEW140 OVC240 26/16 A2978 RMK CU1AC1CI6 CB TOPS DIST W-NW SLP076 DENSITY ALT 5000FT

CYQF;2015-07-12 23:00;CYQF 122300Z 32009KT 8SM FEW040 OVC240 26/15 A2978 RMK CU2CI6 HZ WND ESTD SLP077 DENSITY ALT 5000FT

CYQF;2015-07-13 00:00;CYQF 130000Z 35005KT 8SM FEW036 OVC240 25/15 A2980 RMK CU2CI6 HZ SLP085 DENSITY ALT 4800FT

CYQF;2015-07-13 01:00;CYQF 130100Z 36005KT 8SM FEW036 SCT150 OVC240 24/16 A2981 RMK CU1AC3CI4 HZ SLP087 DENSITY ALT 4800FT

CYQF;2015-07-13 02:00;CYQF 130200Z 31003KT 8SM FEW065 BKN150 OVC240 23/19 A2981 RMK CU1AC4CI3 HZ SLP088 DENSITY ALT 4700FT

CYQF;2015-07-13 03:00;CYQF 130300Z 29004KT 8SM BKN160 OVC240 22/17 A2982 RMK AC5CI3 HZ SLP092 DENSITY ALT 4500FT

CYQF;2015-07-13 04:00;CYQF 130400Z 30003KT 8SM BKN160 OVC240 20/16 A2982 RMK AC6CI2 HZ SLP093 DENSITY ALT 4300FT

CYQF;2015-07-13 05:00;CYQF 130500Z 36005KT 60SM SCT100 BKN160 19/15 A2985 RMK ACC3AC4 HZ SLP103 DENSITY ALT 4200FT

CYQF;2015-07-13 06:00;CYQF 130600Z 25006KT 15SM SCT080 OVC100 19/15 A2986 RMK AC4AC4 SLP107 DENSITY ALT 4200FT

CYQF;2015-07-13 06:36;CYQF 130636Z 32006KT 10SM -SHRA SCT044 OVC080 19/15 A2988 RMK CU4AC4 SLP112 DENSITY ALT 4100FT

CYQF;2015-07-13 07:00;CYQF 130700Z 36008KT 10SM -SHRA BKN039 OVC080 19/15 A2989 RMK CU6AC2 LTNG DIST W SLP115 DENSITY ALT 4100FT

CYQF;2015-07-13 07:05;CYQF 130705Z 36007KT 10SM -TSRA BKN030CB OVC080 19/15 A2989 RMK CB7AC1 LTNG S-W SLP115 DENSITY ALT 4100FT

CYQF;2015-07-13 08:00;CYQF 130800Z 31012G22KT 3SM TSRA OVC040CB 14/13 A2994 RMK CB8 PRESRR SLP138 DENSITY ALT 3500FT

CYQF;2015-07-13 08:49;CYQF 130849Z 36009G17KT 10SM -SHRA SCT040TCU OVC085 14/13 A2994 RMK TCU4AC4 SLP136 DENSITY ALT 3500FT

CYQF;2015-07-13 09:00;CYQF 130900Z 36010G15KT 10SM -SHRA SCT040TCU OVC090 14/13 A2994 RMK TCU3AC5 SLP136 DENSITY ALT 3500FT

CYQF;2015-07-13 10:00;CYQF 131000Z 01009KT 10SM -SHRA OVC080 14/13 A2992 RMK AC8 SLP127 DENSITY ALT 3500FT

CYQF;2015-07-13 11:00;CYQF 131100Z 30005KT 15SM SCT080 BKN120 OVC250 14/13 A2993 RMK AC3AC3CI2 /R20/ SLP132 DENSITY ALT 3500FT

CYQF;2015-07-13 12:00;CYQF 131200Z 29003KT 15SM FEW008 BKN150 OVC250 14/13 A2995 RMK CF1AC6CI2 CF TR SLP138 DENSITY ALT 3500FT

CYQF;2015-07-13 13:00;CYQF 131300Z 28005KT 15SM FEW008 BKN160 BKN250 14/14 A2995 RMK CF1AC6CI1 CF TR SLP139 DENSITY ALT 3500FT

CYQF;2015-07-13 14:00;CYQF 131400Z 32003KT 290V360 15SM FEW020 BKN160 OVC250 15/14 A2995 RMK CU1AC6CI2 CU TR SLP139 DENSITY ALT 3600FT

CYQF;2015-07-13 15:00;CYQF 131500Z 34006KT 300V360 15SM FEW010 BKN140 OVC250 17/14 A2995 RMK CF1AC6CI2 CF TR SLP140 DENSITY ALT 3800FT

CYQF;2015-07-13 16:00;CYQF 131600Z 32004KT 280V350 15SM FEW012 BKN150 BKN250 19/16 A2996 RMK CU1AC4CI2 SLP142 DENSITY ALT 4000FT

CYQF;2015-07-13 17:00;CYQF 131700Z 33005KT 290V010 15SM SCT020 BKN150 BKN250 20/16 A2995 RMK CU3AC2CI2 SLP139 DENSITY ALT 4100FT

CYQF;2015-07-13 18:00;CYQF 131800Z 36005KT 340V050 15SM SCT024 BKN080 BKN250 20/14 A2995 RMK CU4AC2CI1 SLP139 DENSITY ALT 4100FT

CYQF;2015-07-13 19:00;CYQF 131900Z 28002KT 15SM SCT024TCU BKN088 20/14 A2995 RMK TCU4AC3 SH DIST S SLP138 DENSITY ALT 4200FT

CYQF;2015-07-13 20:00;CYQF 132000Z VRB05KT 15SM VCSH SCT032CB BKN090 BKN250 22/14 A2993 RMK CB4AC1CI2 SLP135 DENSITY ALT 4400FT

CYQF;2015-07-13 21:00;CYQF 132100Z VRB05KT 15SM SCT032 BKN055CB BKN090 22/14 A2992 RMK CU4CB1AC2 SLP131 DENSITY ALT 4400FT

CYQF;2015-07-13 22:00;CYQF 132200Z 11005KT 080V140 15SM FEW032 SCT060CB BKN160 21/13 A2991 RMK CU2CB2AC3 SLP130 DENSITY ALT 4300FT

CYQF;2015-07-13 23:00;CYQF 132300Z 20005KT 15SM FEW020 SCT060CB BKN160 BKN200 20/16 A2991 RMK CU1CB2AC3CI1 SH DIST SE SLP131 DENSITY ALT 4200FT

CYQF;2015-07-14 00:00;CYQF 140000Z 18007KT 15SM SCT022 BKN160 BKN200 22/15 A2991 RMK CU3AC2CI2 SLP129 DENSITY ALT 4400FT

CYQF;2015-07-14 01:00;CYQF 140100Z 21006KT 15SM SCT024TCU BKN160 BKN200 21/14 A2991 RMK TCU4AC2CI1 SH DIST W-N SLP130 DENSITY ALT 4300FT

CYQF;2015-07-14 02:00;CYQF 140200Z 19007KT 15SM FEW025TCU SCT100 BKN160 BKN200 20/13 A2988 RMK TCU1AC2AC2CI2 SLP118 DENSITY ALT 4200FT

CYQF;2015-07-14 03:00;CYQF 140300Z 00000KT 15SM FEW025TCU BKN100 BKN200 19/14 A2990 RMK TCU1AC4CI1 SLP125 DENSITY ALT 4100FT

CYQF;2015-07-14 04:00;CYQF 140400Z 00000KT 15SM FEW025TCU BKN130 BKN200 17/14 A2992 RMK TCU1AC5CI1 SLP131 DENSITY ALT 3800FT

CYQF;2015-07-14 05:00;CYQF 140500Z 25004KT 170V260 15SM FEW020 BKN120 15/14 A2992 RMK CU2AC4 SLP132 DENSITY ALT 3600FT

CYQF;2015-07-14 06:00;CYQF 140600Z 34008G15KT 15SM BKN080 15/13 A2993 RMK AC6 SLP136 DENSITY ALT 3600FT

CYQF;2015-07-14 07:00;CYQF 140700Z 01005KT 15SM SCT100 13/11 A2993 RMK AC4 SLP137 DENSITY ALT 3400FT

CYQF;2015-07-14 08:00;CYQF 140800Z 25006KT 190V260 15SM BKN100 13/11 A2994 RMK AC6 SLP139 DENSITY ALT 3300FT

CYQF;2015-07-14 09:00;CYQF 140900Z 27004KT 15SM BKN120 14/12 A2994 RMK AC7 SLP139 DENSITY ALT 3400FT

CYQF;2015-07-14 10:00;CYQF 141000Z 29004KT 15SM FEW040 BKN100 13/12 A2995 RMK SC2AC5 SLP143 DENSITY ALT 3400FT

CYQF;2015-07-14 11:00;CYQF 141100Z 27003KT 15SM FEW040 BKN110 12/11 A2995 RMK SC2AC5 SLP145 DENSITY ALT 3200FT

CYQF;2015-07-14 12:00;CYQF 141200Z 25004KT 15SM BKN110 13/12 A2994 RMK AC6 SLP140 DENSITY ALT 3300FT

CYQF;2015-07-14 13:00;CYQF 141300Z 23004KT 15SM SCT110 BKN280 13/12 A2995 RMK AC4CI1 SLP144 DENSITY ALT 3300FT

CYQF;2015-07-14 14:00;CYQF 141400Z 26007KT 15SM SCT110 BKN280 15/12 A2996 RMK AC4CI2 SLP147 DENSITY ALT 3500FT

CYQF;2015-07-14 15:00;CYQF 141500Z 27006KT 15SM SCT110 BKN280 15/12 A2997 RMK AC3CI3 SLP153 DENSITY ALT 3600FT

CYQF;2015-07-14 16:00;CYQF 141600Z 30007KT 15SM FEW020TCU FEW110 SCT280 17/12 A2997 RMK TCU1AC1CI3 TCU TR SLP153 DENSITY ALT 3700FT

CYQF;2015-07-14 17:00;CYQF 141700Z 34004KT 310V020 15SM FEW028TCU FEW150 SCT280 19/13 A2997 RMK TCU1AC1CI3 TCU TR AC TR SLP153 DENSITY ALT 4000FT

CYQF;2015-07-14 18:00;CYQF 141800Z 33005KT 280V360 15SM FEW030TCU FEW280 20/13 A2996 RMK TCU1CI1 CI TR SLP148 DENSITY ALT 4100FT

CYQF;2015-07-14 19:00;CYQF 141900Z 02005KT 350V100 15SM FEW035TCU SCT280 21/11 A2995 RMK TCU2CI1 SLP146 DENSITY ALT 4200FT

CYQF;2015-07-14 20:00;CYQF 142000Z VRB02KT 15SM SCT036 SCT280 20/12 A2994 RMK CU3CI1 SLP143 DENSITY ALT 4200FT

CYQF;2015-07-14 21:00;CYQF 142100Z 03003KT 350V060 15SM SCT036 SCT100 SCT280 21/12 A2993 RMK CU3AC1CI1 AC TR CB TOPS DIST S SLP138 DENSITY ALT 4200FT

CYQF;2015-07-14 22:00;CYQF 142200Z 00000KT 15SM FEW040 FEW100 SCT280 23/10 A2991 RMK CU1AC1CI1 SLP130 DENSITY ALT 4500FT

CYQF;2015-07-14 23:00;CYQF 142300Z 04003KT 340V080 15SM FEW044 SCT120 BKN280 23/12 A2990 RMK CU2AC2CI3 SLP126 DENSITY ALT 4500FT

CYQF;2015-07-15 00:00;CYQF 150000Z VRB02KT 15SM FEW048TCU SCT280 23/12 A2989 RMK TCU1CI2 SLP122 DENSITY ALT 4500FT

CYQF;2015-07-15 01:00;CYQF 150100Z 15003KT 120V200 15SM SCT048TCU SCT130 BKN280 23/11 A2989 RMK TCU3AC1CI2 SLP121 DENSITY ALT 4500FT

CYQF;2015-07-15 02:00;CYQF 150200Z 06003KT 15SM VCSH BKN048TCU BKN130 BKN280 20/13 A2989 RMK TCU5AC1CI1 SLP123 DENSITY ALT 4200FT

CYQF;2015-07-15 03:00;CYQF 150300Z 26006KT 220V300 15SM VCSH SCT045CB BKN120 BKN280 19/13 A2991 RMK CB3AC3CI1 LTGCG DIST SW SLP130 DENSITY ALT 4100FT

CYQF;2015-07-15 04:00;CYQF 150400Z 32008KT 15SM VCSH FEW045CB OVC120 16/12 A2993 RMK CB2AC6 SLP137 DENSITY ALT 3800FT

CYQF;2015-07-15 05:00;CYQF 150500Z 15003KT 080V180 15SM -SHRA FEW040TCU BKN090 16/12 A2993 RMK TCU2AC5 SLP137 DENSITY ALT 3700FT

CYQF;2015-07-15 05:49;CYQF 150549Z 30006KT 15SM VCSH FEW040TCU OVC100 15/12 A2994 RMK TCU2AC6 SLP140 DENSITY ALT 3600FT

CYQF;2015-07-15 06:00;CYQF 150600Z 32005KT 15SM FEW040 OVC120 14/12 A2994 RMK CU1AC7 SLP139 DENSITY ALT 3500FT

CYQF;2015-07-15 07:00;CYQF 150700Z 31005KT 15SM BKN100 14/12 A2994 RMK AC7 SLP139 DENSITY ALT 3500FT

CYQF;2015-07-15 08:00;CYQF 150800Z 19003KT 130V200 15SM BKN090 14/12 A2993 RMK AC7 SLP137 DENSITY ALT 3500FT

CYQF;2015-07-15 09:00;CYQF 150900Z 21006KT 15SM BKN110 14/12 A2992 RMK AC7 T SLP133 DENSITY ALT 3400FT

CYQF;2015-07-15 10:00;CYQF 151000Z 24006KT 15SM BKN120 13/11 A2992 RMK AC7 SLP133 DENSITY ALT 3300FT

CYQF;2015-07-15 11:00;CYQF 151100Z 21003KT 190V260 15SM BKN100 13/11 A2992 RMK AC7 SLP132 DENSITY ALT 3300FT

CYQF;2015-07-15 12:00;CYQF 151200Z 26003KT 15SM BKN100 BKN250 13/12 A2993 RMK AC6CI1 SLP135 DENSITY ALT 3300FT

CYQF;2015-07-15 13:00;CYQF 151300Z 00000KT 15SM SCT080 BKN250 13/12 A2993 RMK ACC4CI3 SLP135 DENSITY ALT 3300FT

CYQF;2015-07-15 14:00;CYQF 151400Z 25005KT 15SM BKN074 BKN250 13/12 A2993 RMK ACC5CI2 SLP137 DENSITY ALT 3400FT

CYQF;2015-07-15 15:00;CYQF 151500Z 24004KT 15SM BKN073 BKN250 14/12 A2993 RMK ACC5CI2 SLP137 DENSITY ALT 3500FT

CYQF;2015-07-15 16:00;CYQF 151600Z VRB02KT 15SM FEW065 SCT120 BKN250 17/12 A2992 RMK CU1ACC3CI1 SLP133 DENSITY ALT 3800FT

CYQF;2015-07-15 17:00;CYQF 151700Z VRB03KT 15SM FEW050 SCT250 19/11 A2991 RMK CU2CI2 SLP128 DENSITY ALT 4100FT

CYQF;2015-07-15 18:00;CYQF 151800Z 23003KT 090V250 15SM FEW050TCU SCT250 20/12 A2989 RMK TCU1CI2 SLP124 DENSITY ALT 4200FT

CYQF;2015-07-15 19:00;CYQF 151900Z VRB02KT 15SM FEW035TCU SCT250 21/13 A2987 RMK TCU1CI3 SLP117 DENSITY ALT 4300FT

CYQF;2015-07-15 20:00;CYQF 152000Z VRB04KT 15SM FEW035TCU BKN260 22/12 A2985 RMK TCU1CI5 SLP108 DENSITY ALT 4500FT

CYQF;2015-07-15 21:00;CYQF 152100Z VRB03KT 15SM FEW050 BKN260 23/09 A2983 RMK CU2CI3 SLP100 DENSITY ALT 4600FT

CYQF;2015-07-15 22:00;CYQF 152200Z 00000KT 15SM FEW052TCU BKN260 23/08 A2981 RMK TCU1CI6 SLP095 DENSITY ALT 4600FT

CYQF;2015-07-15 23:00;CYQF 152300Z 01004KT 340V060 15SM FEW052TCU BKN260 23/11 A2979 RMK TCU1CI5 SLP088 DENSITY ALT 4700FT

CYQF;2015-07-16 00:00;CYQF 160000Z 13003KT 15SM FEW052TCU SCT120 BKN260 23/10 A2978 RMK TCU1ACC2CI4 CB DIST W SLP083 DENSITY ALT 4700FT

CYQF;2015-07-16 01:04;CYQF 160104Z 01006KT 15SM TS VCSH SCT052CB OVC110 19/13 A2977 RMK CB4ACC4 LTGCC SLP084 DENSITY ALT 4300FT

CYQF;2015-07-16 01:17;CYQF 160117Z 35010G22KT 15SM TSRA BKN052CB OVC110 18/11 A2977 RMK CB5ACC3 LTGCG SLP085 DENSITY ALT 4100FT

CYQF;2015-07-16 01:31;CYQF 160131Z 29015G25KT 6SM TSRA BKN052CB OVC110 15/12 A2980 RMK CB6ACC2 LTGCG PRESRR SLP100 DENSITY ALT 3700FT

CYQF;2015-07-16 01:34;CYQF 160134Z 27016G25KT 3SM +TSRAGR OVC052CB 14/12 A2981 RMK CB8 HAIL DIAM 3MM PRESRR SLP102 DENSITY ALT 3700FT

CYQF;2015-07-16 01:41;CYQF 160141Z 22008G21KT 210V290 3SM +TSRA BKN052CB OVC110 15/13 A2982 RMK CB6ACC2 PRESRR SLP106 DENSITY ALT 3700FT

CYQF;2015-07-16 01:46;CYQF 160146Z VRB02KT 6SM TSRA SCT052CB BKN110 15/12 A2981 RMK CB4ACC3 VIS E 3 SLP102 DENSITY ALT 3800FT

CYQF;2015-07-16 02:00;CYQF 160200Z 06011KT 340V070 15SM -TSRA FEW052CB SCT110 BKN260 15/13 A2980 RMK CB2ACC2CI3 SLP100 DENSITY ALT 3800FT

CYQF;2015-07-16 02:23;CYQF 160223Z 01009KT 350V090 15SM VCSH FEW052CB BKN110 BKN260 15/13 A2977 RMK CB1ACC4CI1 PRESFR SLP089 DENSITY ALT 3800FT

CYQF;2015-07-16 03:00;CYQF 160300Z 05005KT 15SM SCT110 BKN170 15/13 A2977 RMK ACC3AC3 /R19/ SLP089 DENSITY ALT 3700FT

CYQF;2015-07-16 04:00;CYQF 160400Z VRB02KT 15SM BKN140 OVC260 14/13 A2976 RMK AC5CI3 SLP082 DENSITY ALT 3700FT

CYQF;2015-07-16 05:00;CYQF 160500Z VRB02KT 15SM BKN100 BKN260 14/13 A2977 RMK AC6CI1 SLP083 DENSITY ALT 3700FT

CYQF;2015-07-16 05:24;CYQF 160524Z 14002KT 15SM -RA BKN100 14/13 A2976 RMK AC7 SLP081 DENSITY ALT 3700FT

CYQF;2015-07-16 06:00;CYQF 160600Z 31006KT 15SM BKN120 14/12 A2977 RMK AC7 SLP082 DENSITY ALT 3700FT

CYQF;2015-07-16 07:00;CYQF 160700Z 02005KT 290V020 15SM TSRA BKN020CB OVC080 14/13 A2976 RMK CB5AC3 SLP079 DENSITY ALT 3600FT

CYQF;2015-07-16 07:40;CYQF 160740Z 32008KT 15SM VCSH SCT030CB OVC100 14/13 A2977 RMK CB4AC4 LTNG NE SLP082 DENSITY ALT 3600FT

CYQF;2015-07-16 08:00;CYQF 160800Z 34013G18KT 15SM SCT030CB OVC100 14/12 A2978 RMK CB4AC4 LTNG NE SLP083 DENSITY ALT 3600FT

CYQF;2015-07-16 09:00;CYQF 160900Z 35010G18KT 15SM OVC035 12/11 A2979 RMK SC8 SLP088 DENSITY ALT 3500FT

CYQF;2015-07-16 10:00;CYQF 161000Z 35011G18KT 15SM OVC040 11/09 A2982 RMK SC8 SLP099 DENSITY ALT 3300FT

CYQF;2015-07-16 11:00;CYQF 161100Z 32005KT 15SM OVC055 11/09 A2984 RMK SC8 PRESRR SLP105 DENSITY ALT 3200FT

CYQF;2015-07-16 12:00;CYQF 161200Z 32008KT 10SM OVC060 10/08 A2983 RMK SC8 SLP104 DENSITY ALT 3200FT

CYQF;2015-07-16 12:37;CYQF 161237Z 31006KT 10SM -RA BKN080 OVC110 10/08 A2983 RMK AC7AC1 SLP102 DENSITY ALT 3100FT

CYQF;2015-07-16 13:00;CYQF 161300Z 32006KT 15SM FEW080 BKN100 OVC250 10/08 A2982 RMK AC1AC6CI1 SLP104 DENSITY ALT 3100FT

CYQF;2015-07-16 14:00;CYQF 161400Z 28008KT 15SM OVC080 10/09 A2984 RMK AC8 SLP115 DENSITY ALT 3100FT

CYQF;2015-07-16 14:27;CYQF 161427Z 29008KT 12SM -RA FEW025 OVC080 10/08 A2983 RMK SC2AC6 SLP113 DENSITY ALT 3100FT

CYQF;2015-07-16 15:00;CYQF 161500Z 29007KT 15SM FEW020 SCT045 BKN120 10/09 A2983 RMK SC2SC2AS3 INTMT -RA SLP113 DENSITY ALT 3200FT

CYQF;2015-07-16 15:19;CYQF 161519Z 30007KT 15SM SCT040 BKN120 11/09 A2983 RMK SC3AS4 SLP113 DENSITY ALT 3200FT

CYQF;2015-07-16 16:00;CYQF 161600Z 29007KT 15SM SCT024 BKN120 12/09 A2986 RMK SC3AS4 SLP122 DENSITY ALT 3300FT

CYQF;2015-07-16 17:00;CYQF 161700Z 31008KT 15SM FEW024 BKN120 BKN250 12/07 A2985 RMK SC2AS3CI2 SLP119 DENSITY ALT 3300FT

CYQF;2015-07-16 18:00;CYQF 161800Z 33014G19KT 15SM FEW024 SCT120 BKN200 13/07 A2984 RMK CU1AS3CI3 CB TOP DIST W SLP115 DENSITY ALT 3500FT

CYQF;2015-07-16 19:00;CYQF 161900Z 33010G17KT 15SM FEW030 SCT120 BKN200 15/08 A2983 RMK CU2AS2CI3 SLP110 DENSITY ALT 3700FT

CYQF;2015-07-16 20:00;CYQF 162000Z 26012KT 15SM SCT050 BKN100 BKN250 15/08 A2984 RMK CU4AC2CI1 SLP112 DENSITY ALT 3700FT

CYQF;2015-07-16 21:00;CYQF 162100Z 25011KT 15SM SCT040CB BKN100 BKN250 16/09 A2984 RMK CB3AC2CI2 SLP111 DENSITY ALT 3800FT

CYQF;2015-07-16 21:47;CYQF 162147Z 27010KT 15SM SCT030CB BKN100 BKN250 14/07 A2983 RMK CB3AC2CI2 SLP109 DENSITY ALT 3600FT

CYQF;2015-07-16 22:00;CYQF 162200Z 29008G16KT 15SM VCSH BKN032CB BKN100 BKN250 16/09 A2983 RMK CB5AC1CI1 SLP110 DENSITY ALT 3800FT

CYQF;2015-07-16 22:13;CYQF 162213Z 30018G29KT 250V340 15SM -TSRA BKN032CB BKN100 13/06 A2984 RMK CB6AC1 SLP117 DENSITY ALT 3500FT

CYQF;2015-07-16 22:38;CYQF 162238Z 28005KT 15SM VCSH SCT032CB BKN090 11/07 A2985 RMK CB3AC4 SLP124 DENSITY ALT 3200FT

CYQF;2015-07-16 23:00;CYQF 162300Z 26004KT 15SM VCSH FEW032TCU BKN090 11/08 A2986 RMK TCU2AC5 SLP125 DENSITY ALT 3200FT

CYQF;2015-07-16 23:37;CYQF 162337Z 26007KT 15SM -SHRA SCT030TCU BKN090 12/09 A2986 RMK TCU4AC3 SLP127 DENSITY ALT 3300FT

CYQF;2015-07-17 00:00;CYQF 170000Z 30008KT 15SM SCT030TCU BKN100 BKN250 13/09 A2986 RMK TCU4AC2CI1 OCNL -SHRA SLP124 DENSITY ALT 3500FT

CYQF;2015-07-17 00:10;CYQF 170010Z 31011G18KT 15SM FEW030TCU SCT100 BKN250 15/08 A2986 RMK TCU2AC2CI2 SLP122 DENSITY ALT 3700FT

CYQF;2015-07-17 01:00;CYQF 170100Z 31023G35KT 15SM SCT036TCU 14/06 A2986 RMK TCU3 SLP123 DENSITY ALT 3600FT

CYQF;2015-07-17 02:00;CYQF 170200Z 30012G20KT 15SM FEW036 FEW250 13/06 A2987 RMK CU1CI1 SLP129 DENSITY ALT 3400FT

CYQF;2015-07-17 02:44;CYQF 170244Z 30021G36KT 15SM -SHRA BKN040 BKN080 12/07 A2988 RMK SC6ACC1 SLP135 DENSITY ALT 3300FT

CYQF;2015-07-17 03:00;CYQF 170300Z 29013G26KT 15SM -SHRA BKN040 BKN080 10/07 A2989 RMK SC5ACC2 SLP138 DENSITY ALT 3100FT

CYQF;2015-07-17 03:19;CYQF 170319Z 29011G18KT 15SM SCT040 BKN080 10/06 A2988 RMK SC3ACC4 SLP136 DENSITY ALT 3100FT

CYQF;2015-07-17 04:00;CYQF 170400Z 29008G15KT 15SM SCT040 OVC070 10/07 A2989 RMK SC4ACC4 SLP137 DENSITY ALT 3000FT

CYQF;2015-07-17 04:06;CYQF 170406Z 29012KT 15SM -SHRA BKN040 OVC070 10/07 A2988 RMK SC5ACC3 SLP135 DENSITY ALT 3000FT

CYQF;2015-07-17 05:00;CYQF 170500Z 27014G20KT 15SM -SHRA BKN025 OVC070 09/08 A2986 RMK SC6ACC2 SLP129 DENSITY ALT 3000FT

CYQF;2015-07-17 06:00;CYQF 170600Z 28013G19KT 15SM -RA OVC016 10/07 A2985 RMK SC8 SLP123 DENSITY ALT 3000FT

CYQF;2015-07-17 07:00;CYQF 170700Z 29009G17KT 15SM -RA OVC010 09/08 A2984 RMK SC8 SLP117 DENSITY ALT 3000FT

CYQF;2015-07-17 08:00;CYQF 170800Z 28012G19KT 10SM -RA OVC020 09/08 A2981 RMK SC8 SLP107 DENSITY ALT 3000FT

CYQF;2015-07-17 09:00;CYQF 170900Z 29011G19KT 5SM -RA OVC020 10/09 A2979 RMK SC8 SLP098 DENSITY ALT 3100FT

CYQF;2015-07-17 10:00;CYQF 171000Z 30012G18KT 3SM -RA BR OVC013 10/09 A2977 RMK SC8 SLP090 DENSITY ALT 3200FT

CYQF;2015-07-17 11:00;CYQF 171100Z 31018G26KT 3SM -RA BR OVC017 11/10 A2975 RMK SC8 SLP089 DENSITY ALT 3300FT

CYQF;2015-07-17 12:00;CYQF 171200Z 31016G31KT 3SM -RA BR OVC014 11/10 A2975 RMK SC8 /R013/ SLP086 DENSITY ALT 3400FT

CYQF;2015-07-17 13:00;CYQF 171300Z 32021G34KT 3SM -RA BR OVC014 12/11 A2975 RMK SC8 CIG RAG SLP084 DENSITY ALT 3500FT

CYQF;2015-07-17 14:00;CYQF 171400Z 33022G32KT 3SM -RA BR OVC015 12/11 A2975 RMK SC8 CIG RAG SLP085 DENSITY ALT 3500FT

CYQF;2015-07-17 15:00;CYQF 171500Z 33023G36KT 3SM -RA BR BKN014 OVC020 12/11 A2978 RMK SC7SC1 CIG RAG SLP099 DENSITY ALT 3400FT

CYQF;2015-07-17 16:00;CYQF 171600Z 33021G32KT 7SM -RA SCT010 OVC060 12/11 A2980 RMK CF4SC4 SLP107 DENSITY ALT 3400FT

CYQF;2015-07-17 17:00;CYQF 171700Z 32022G30KT 3SM -RA BR BKN013 OVC060 12/11 A2983 RMK SC6SC2 SLP117 DENSITY ALT 3400FT

CYQF;2015-07-17 17:31;CYQF 171731Z 32018G28KT 1 1/2SM -RA BR OVC021 12/11 A2984 RMK SC8 SLP120 DENSITY ALT 3400FT

CYQF;2015-07-17 18:00;CYQF 171800Z CCA 33022G37KT 5SM -RA BR BKN015 OVC035 13/11 A2985 RMK SC6SC2 /R14/ SLP121 DENSITY ALT 3400FT

CYQF;2015-07-17 19:00;CYQF 171900Z 31023G43KT 8SM -RA BKN015 OVC030 13/12 A2986 RMK SC6SC2 SLP126 DENSITY ALT 3500FT

CYQF;2015-07-17 19:46;CYQF 171946Z 32022G35KT 15SM SCT020 OVC063 14/12 A2988 RMK SC4SC4 SLP131 DENSITY ALT 3500FT

CYQF;2015-07-17 20:00;CYQF 172000Z 32027G38KT 15SM SCT020 OVC040 14/11 A2988 RMK SC4SC4 SLP133 DENSITY ALT 3600FT

CYQF;2015-07-17 21:00;CYQF 172100Z 32021G30KT 15SM BKN025 OVC090 16/12 A2989 RMK SC5AC3 SLP134 DENSITY ALT 3700FT

CYQF;2015-07-17 22:00;CYQF 172200Z 32017G32KT 15SM SCT020 OVC250 18/12 A2991 RMK SC4CI4 SLP136 DENSITY ALT 3900FT

CYQF;2015-07-17 23:00;CYQF 172300Z 33022G31KT 15SM BKN030 OVC250 18/12 A2991 RMK CU5CI3 SLP137 DENSITY ALT 4000FT

CYQF;2015-07-18 00:00;CYQF 180000Z 34019G27KT 15SM SCT030 BKN100 BKN250 18/11 A2993 RMK CU4AC1CI2 SLP142 DENSITY ALT 4000FT

CYQF;2015-07-18 01:00;CYQF 180100Z 07006G15KT 330V090 15SM VCSH SCT020 BKN080 BKN250 16/11 A2995 RMK CU3AC3CI1 SLP150 DENSITY ALT 3700FT

CYQF;2015-07-18 01:20;CYQF 180120Z 06011KT 15SM -SHRA SCT025TCU BKN080 15/13 A2995 RMK TCU4AC2 SLP152 DENSITY ALT 3600FT

CYQF;2015-07-18 02:00;CYQF 180200Z 04006KT 15SM SCT040TCU BKN080 15/12 A2996 RMK TCU3AC3 OCNL -SHRA SLP156 DENSITY ALT 3500FT

CYQF;2015-07-18 02:35;CYQF 180235Z 05003KT 15SM VCSH SCT040TCU BKN080 14/12 A2997 RMK TCU3AC3 SLP162 DENSITY ALT 3400FT

CYQF;2015-07-18 03:00;CYQF 180300Z 27002KT 15SM VCSH SCT040TCU BKN100 13/12 A2998 RMK TCU4AC3 WND EST WND ESTD SLP163 DENSITY ALT 3400FT

CYQF;2015-07-18 04:00;CYQF 180400Z 32019KT 15SM VCSH SCT040CB BKN090 15/11 A2999 RMK CB4AC3 WND ESTD SLP165 DENSITY ALT 3500FT

CYQF;2015-07-18 05:00;CYQF 180500Z 29008KT 15SM SCT060 BKN140 13/09 A2999 RMK CU4AC2 SLP168 DENSITY ALT 3300FT

CYQF;2015-07-18 06:00;CYQF 180600Z 27009KT 15SM FEW064 BKN090 13/11 A3000 RMK CU2AC4 WND ESTD SLP170 DENSITY ALT 3300FT

CYQF;2015-07-18 07:00;CYQF 180700Z 29008KT 15SM BKN093 13/10 A3000 RMK AC7 SLP170 DENSITY ALT 3200FT

CYQF;2015-07-18 08:00;CYQF 180800Z 29008KT 15SM SCT093 12/10 A3000 RMK AC4 SLP170 DENSITY ALT 3200FT

CYQF;2015-07-18 09:00;CYQF 180900Z 29009KT 15SM FEW090 12/09 A2999 RMK AC1 SLP165 DENSITY ALT 3200FT

CYQF;2015-07-18 10:00;CYQF 181000Z 29008KT 15SM FEW090 11/09 A2999 RMK AC1 SLP163 DENSITY ALT 3100FT

CYQF;2015-07-18 11:00;CYQF 181100Z 29010KT 15SM FEW090 11/08 A3000 RMK AC1 SLP166 DENSITY ALT 3100FT

CYQF;2015-07-18 12:00;CYQF 181200Z 29010G16KT 15SM FEW090 11/08 A3000 RMK AC1 SLP166 DENSITY ALT 3000FT

CYQF;2015-07-18 13:00;CYQF 181300Z 28007KT 15SM FEW090 12/08 A3000 RMK AC1 SLP170 DENSITY ALT 3100FT

CYQF;2015-07-18 14:00;CYQF 181400Z 27009KT 15SM FEW090 13/09 A3000 RMK AC1 AC TR WND ESTD SLP169 DENSITY ALT 3300FT

CYQF;2015-07-18 15:00;CYQF 181500Z 25006KT 15SM FEW250 16/10 A3000 RMK CI2 SLP168 DENSITY ALT 3600FT

CYQF;2015-07-18 16:00;CYQF 181600Z 29006KT 260V330 15SM FEW250 17/10 A2999 RMK CI2 SLP160 DENSITY ALT 3800FT

CYQF;2015-07-18 17:00;CYQF 181700Z 18004KT 170V310 15SM BKN250 19/10 A2997 RMK CI7 SLP153 DENSITY ALT 4100FT

CYQF;2015-07-18 18:00;CYQF 181800Z 25004KT 200V270 15SM FEW040 BKN250 20/10 A2995 RMK CU1CI4 SLP146 DENSITY ALT 4200FT

CYQF;2015-07-18 19:00;CYQF 181900Z 26009G15KT 15SM FEW040 SCT250 21/10 A2994 RMK CU1CI4 CU TR SLP141 DENSITY ALT 4300FT

CYQF;2015-07-18 20:00;CYQF 182000Z 24006KT 230V290 15SM FEW048 FEW250 22/10 A2992 RMK CU1CI1 SLP133 DENSITY ALT 4400FT

CYQF;2015-07-18 21:00;CYQF 182100Z VRB02KT 15SM FEW048 FEW250 23/11 A2989 RMK CU2CI1 CI TR SLP124 DENSITY ALT 4500FT

CYQF;2015-07-18 22:00;CYQF 182200Z 27005KT 210V360 15SM FEW048 FEW250 23/11 A2987 RMK CU1CI1 CI TR SLP117 DENSITY ALT 4600FT

CYQF;2015-07-18 23:00;CYQF 182300Z 29004KT 190V310 15SM FEW052 FEW250 23/11 A2985 RMK CU1CI1 CU TR CI TR SLP110 DENSITY ALT 4600FT

CYQF;2015-07-19 00:00;CYQF 190000Z 19005KT 110V260 15SM FEW056 FEW250 24/10 A2983 RMK CU1CI1 CU TR SLP102 DENSITY ALT 4800FT

CYQF;2015-07-19 01:00;CYQF 190100Z 16004KT 140V250 15SM FEW080 BKN260 23/12 A2981 RMK AC1CI6 SLP096 DENSITY ALT 4700FT

CYQF;2015-07-19 02:00;CYQF 190200Z 20002KT 15SM FEW080 BKN260 23/11 A2980 RMK AC2CI5 SLP091 DENSITY ALT 4700FT

CYQF;2015-07-19 03:00;CYQF 190300Z 20004KT 15SM BKN100 BKN260 20/14 A2980 RMK AC5CI2 SLP091 DENSITY ALT 4300FT

CYQF;2015-07-19 04:00;CYQF 190400Z 23006KT 15SM BKN110 19/14 A2981 RMK AC7 SLP094 DENSITY ALT 4200FT

CYQF;2015-07-19 05:00;CYQF 190500Z 26004KT 15SM BKN090 19/13 A2984 RMK AC7 SLP102 DENSITY ALT 4200FT

CYQF;2015-07-19 06:00;CYQF 190600Z 23006KT 15SM BKN100 18/14 A2984 RMK AC7 SLP101 DENSITY ALT 4000FT

CYQF;2015-07-19 07:00;CYQF 190700Z 28008KT 15SM OVC110 19/10 A2985 RMK AC8 SLP103 DENSITY ALT 4100FT

CYQF;2015-07-19 08:00;CYQF 190800Z 27008KT 15SM OVC110 18/10 A2986 RMK AC8 SLP108 DENSITY ALT 4000FT

CYQF;2015-07-19 09:00;CYQF 190900Z 33009KT 15SM BKN110 17/11 A2990 RMK AC5 PRESRR SLP120 DENSITY ALT 3800FT

CYQF;2015-07-19 10:00;CYQF 191000Z 33006KT 15SM SCT110 15/12 A2991 RMK AC3 SLP127 DENSITY ALT 3600FT

CYQF;2015-07-19 11:00;CYQF 191100Z 31009KT 15SM SCT080 BKN110 16/11 A2994 RMK AC4AC3 SLP134 DENSITY ALT 3700FT

CYQF;2015-07-19 11:07;CYQF 191107Z 29012G17KT 15SM -RA FEW060 BKN080 BKN110 15/11 A2994 RMK SC1AC5AC1 SLP135 DENSITY ALT 3600FT

CYQF;2015-07-19 11:48;CYQF 191148Z 29009KT 15SM VCSH BKN080 BKN110 14/11 A2996 RMK AC6AC1 SLP145 DENSITY ALT 3500FT

CYQF;2015-07-19 12:00;CYQF 191200Z 29008KT 15SM VCSH BKN080 BKN120 14/11 A2997 RMK AC6AC1 SLP146 DENSITY ALT 3500FT

CYQF;2015-07-19 13:00;CYQF 191300Z 31008G15KT 15SM VCSH BKN090 15/11 A3000 RMK ACC7 SLP156 DENSITY ALT 3500FT

CYQF;2015-07-19 13:27;CYQF 191327Z 32009G16KT 15SM -SHRA BKN090 15/11 A3001 RMK ACC7 SLP160 DENSITY ALT 3500FT

CYQF;2015-07-19 14:00;CYQF 191400Z 31010KT 15SM BKN090 15/10 A3002 RMK ACC7 OCNL -SHRA SLP164 DENSITY ALT 3500FT

CYQF;2015-07-19 14:13;CYQF 191413Z 31011KT 15SM BKN090 15/10 A3002 RMK ACC7 SLP163 DENSITY ALT 3500FT

CYQF;2015-07-19 15:00;CYQF 191500Z 31009G16KT 15SM BKN090 16/11 A3003 RMK ACC7 SLP170 DENSITY ALT 3600FT

CYQF;2015-07-19 16:00;CYQF 191600Z 31009G18KT 15SM FEW030 BKN110 BKN250 18/11 A3004 RMK CU1AC4CI1 SLP172 DENSITY ALT 3800FT

CYQF;2015-07-19 17:00;CYQF 191700Z 30011G19KT 15SM FEW036 FEW110 19/10 A3005 RMK CU1AC1 SLP173 DENSITY ALT 3900FT

CYQF;2015-07-19 18:00;CYQF 191800Z 31013G19KT 15SM FEW036 FEW110 BKN250 19/10 A3005 RMK CU1AC2CI3 CU TR SLP174 DENSITY ALT 4000FT

CYQF;2015-07-19 19:00;CYQF 191900Z 32011KT 15SM FEW036 SCT250 20/10 A3005 RMK CU1CI3 SLP172 DENSITY ALT 4000FT

CYQF;2015-07-19 20:00;CYQF 192000Z 30007G15KT 15SM FEW040 FEW250 21/10 A3005 RMK CU1CI1 SLP173 DENSITY ALT 4100FT

CYQF;2015-07-19 21:00;CYQF 192100Z 35007KT 15SM FEW040 FEW100 22/11 A3005 RMK CU1AC1 SLP173 DENSITY ALT 4200FT

CYQF;2015-07-19 22:00;CYQF 192200Z 32004KT 300V360 15SM FEW040 FEW100 FEW250 22/10 A3004 RMK CU1AC1CI1 AC TR CI TR SLP171 DENSITY ALT 4300FT

CYQF;2015-07-19 23:00;CYQF 192300Z VRB02KT 15SM FEW050 SCT100 SCT250 23/11 A3005 RMK CU1AC2CI1 SLP173 DENSITY ALT 4300FT

CYQF;2015-07-20 00:00;CYQF 200000Z 05005KT 020V080 15SM FEW048 FEW100 22/11 A3004 RMK CU1AC2 CU TR SLP173 DENSITY ALT 4300FT

CYQF;2015-07-20 01:00;CYQF 200100Z 08003KT 030V090 15SM FEW090 FEW240 22/10 A3004 RMK AC1CI1 SLP172 DENSITY ALT 4300FT

CYQF;2015-07-20 02:00;CYQF 200200Z VRB02KT 15SM SCT090 BKN130 20/14 A3005 RMK ACC3AC2 PRESRR SLP177 DENSITY ALT 4000FT

CYQF;2015-07-20 03:00;CYQF 200300Z 19002KT 15SM BKN130 20/13 A3005 RMK ACC6 SLP176 DENSITY ALT 4100FT

CYQF;2015-07-20 04:00;CYQF 200400Z 19003KT 15SM VCSH BKN080 18/12 A3006 RMK ACC7 SLP182 DENSITY ALT 3800FT

CYQF;2015-07-20 05:00;CYQF 200500Z 15003KT 15SM BKN080 16/13 A3006 RMK AC7 SLP183 DENSITY ALT 3600FT

CYQF;2015-07-20 06:00;CYQF 200600Z 19004KT 15SM OVC070 17/13 A3006 RMK AC8 SLP182 DENSITY ALT 3600FT

CYQF;2015-07-20 07:00;CYQF 200700Z 18003KT 15SM OVC070 16/13 A3007 RMK AC8 SLP183 DENSITY ALT 3600FT

CYQF;2015-07-20 08:00;CYQF 200800Z 15002KT 15SM OVC068 16/14 A3006 RMK AC8 SLP181 DENSITY ALT 3600FT

CYQF;2015-07-20 09:00;CYQF 200900Z 03004KT 15SM OVC070 15/13 A3006 RMK AC8 SLP180 DENSITY ALT 3500FT

CYQF;2015-07-20 10:00;CYQF 201000Z 08004KT 15SM OVC058 15/13 A3006 RMK SC8 SLP177 DENSITY ALT 3500FT

CYQF;2015-07-20 11:00;CYQF 201100Z 07003KT 15SM BKN060 15/13 A3005 RMK SC7 SLP175 DENSITY ALT 3400FT

CYQF;2015-07-20 12:00;CYQF 201200Z 18004KT 15SM BKN060 16/11 A3005 RMK SC7 SLP174 DENSITY ALT 3500FT

CYQF;2015-07-20 13:00;CYQF 201300Z 15004KT 15SM BKN080 15/12 A3004 RMK ACC7 SLP173 DENSITY ALT 3400FT

CYQF;2015-07-20 14:00;CYQF 201400Z 15008KT 15SM BKN050 BKN080 BKN260 17/11 A3003 RMK SC5ACC1CI1 SLP168 DENSITY ALT 3700FT

CYQF;2015-07-20 15:00;CYQF 201500Z 15007KT 15SM BKN050 BKN080 BKN260 18/12 A3002 RMK SC5ACC1CI1 SLP165 DENSITY ALT 3800FT

CYQF;2015-07-20 16:00;CYQF 201600Z 16009G16KT 15SM SCT060 BKN260 20/12 A3001 RMK SC3CI3 SLP160 DENSITY ALT 4000FT

CYQF;2015-07-20 17:00;CYQF 201700Z 18017G23KT 15SM BKN060 BKN220 21/12 A2998 RMK SC5CC2 SLP152 DENSITY ALT 4300FT

CYQF;2015-07-20 18:00;CYQF 201800Z 16017G22KT 15SM SCT060 BKN200 21/12 A2996 RMK ST3CC4 SLP143 DENSITY ALT 4300FT

CYQF;2015-07-20 19:00;CYQF 201900Z 15010G18KT 15SM VCSH FEW060 BKN150 BKN200 22/14 A2994 RMK SC1AC5CC1 SLP137 DENSITY ALT 4400FT

CYQF;2015-07-20 20:00;CYQF 202000Z 15012G21KT 15SM BKN120 21/13 A2992 RMK AC7 SLP130 DENSITY ALT 4300FT

CYQF;2015-07-20 20:12;CYQF 202012Z 16015G22KT 15SM -SHRA BKN120 20/13 A2991 RMK AC7 SLP127 DENSITY ALT 4200FT

CYQF;2015-07-20 20:34;CYQF 202034Z 15015G22KT 15SM FEW040 BKN120 BKN260 21/14 A2989 RMK CU1AC4CI2 SLP121 DENSITY ALT 4300FT

CYQF;2015-07-20 21:00;CYQF 202100Z 15014G21KT 15SM FEW040 BKN130 BKN260 24/15 A2987 RMK CU1AC4CI2 SLP113 DENSITY ALT 4600FT

CYQF;2015-07-20 22:00;CYQF 202200Z 15015G22KT 15SM FEW036 SCT140 BKN240 24/14 A2985 RMK CU2AC2CI2 SLP105 DENSITY ALT 4700FT

CYQF;2015-07-20 23:00;CYQF 202300Z 15017G25KT 15SM FEW040 FEW140 SCT240 25/14 A2983 RMK CU1AC2CI1 CU TR SLP096 DENSITY ALT 4800FT

CYQF;2015-07-21 00:00;CYQF 210000Z 15016G22KT 15SM FEW040TCU SCT110 SCT240 24/15 A2979 RMK TCU1AC2CI1 SLP084 DENSITY ALT 4800FT

CYQF;2015-07-21 01:00;CYQF 210100Z 15013KT 15SM FEW240 24/16 A2976 RMK CI1 SLP072 DENSITY ALT 4800FT

CYQF;2015-07-21 02:00;CYQF 210200Z 14007KT 15SM FEW240 23/16 A2973 RMK CI1 SLP063 DENSITY ALT 4700FT

CYQF;2015-07-21 03:00;CYQF 210300Z 13011KT 15SM FEW040CB 21/16 A2972 RMK CB2 SLP060 DENSITY ALT 4500FT

CYQF;2015-07-21 04:00;CYQF 210400Z 15010G15KT 15SM VCSH FEW040CB SCT080 BKN250 19/14 A2971 RMK CB2AC2CI3 LTGIC NW SLP056 DENSITY ALT 4300FT

CYQF;2015-07-21 05:00;CYQF 210500Z 19004KT 15SM VCSH SCT050CB BKN160 18/13 A2973 RMK CB4AC3 SLP062 DENSITY ALT 4200FT

CYQF;2015-07-21 05:07;CYQF 210507Z 31016G21KT 180V340 15SM VCSH SCT040CB BKN140 17/12 A2978 RMK CB4AC3 LTGICCG WND SHFT PRESRR SLP080 DENSITY ALT 4000FT

CYQF;2015-07-21 06:00;CYQF 210600Z 02007KT 15SM FEW040 BKN180 16/11 A2978 RMK SC2AC3 SLP082 DENSITY ALT 3900FT

CYQF;2015-07-21 07:00;CYQF 210700Z VRB02KT 15SM FEW040 BKN140 15/11 A2977 RMK SC1AC5 SLP081 DENSITY ALT 3800FT

CYQF;2015-07-21 08:00;CYQF 210800Z 26002KT 15SM FEW140 13/11 A2978 RMK AC1 SLP088 DENSITY ALT 3500FT

CYQF;2015-07-21 09:00;CYQF 210900Z 28005KT 15SM SKC 11/10 A2979 RMK SLP087 DENSITY ALT 3300FT

CYQF;2015-07-21 10:00;CYQF 211000Z 26011KT 15SM BKN120 13/11 A2981 RMK AC5 SLP091 DENSITY ALT 3500FT

CYQF;2015-07-21 11:00;CYQF 211100Z 29004KT 240V020 15SM FEW050 SCT120 12/11 A2979 RMK SC1ACC4 SC TR VIRGA PRESRR SLP085 DENSITY ALT 3400FT

CYQF;2015-07-21 12:00;CYQF 211200Z VRB02KT 15SM FEW050 FEW120 SCT250 11/10 A2978 RMK SC1ACC2CI1 SC TR SLP085 DENSITY ALT 3300FT

CYQF;2015-07-21 13:00;CYQF 211300Z 00000KT 15SM FEW120 FEW250 13/12 A2978 RMK ACC1CI1 SLP084 DENSITY ALT 3500FT

CYQF;2015-07-21 14:00;CYQF 211400Z 36003KT 15SM FEW120 FEW250 15/13 A2978 RMK ACC1CI1 SLP081 DENSITY ALT 3800FT

CYQF;2015-07-21 15:00;CYQF 211500Z 35010G16KT 15SM FEW100 BKN250 17/12 A2977 RMK ACC1CI4 SLP080 DENSITY ALT 4000FT

CYQF;2015-07-21 16:00;CYQF 211600Z 35006KT 15SM SCT100 SCT250 19/14 A2977 RMK ACC3CI1 SLP079 DENSITY ALT 4200FT

CYQF;2015-07-21 17:00;CYQF 211700Z 04005KT 340V070 15SM FEW025 SCT100 20/14 A2977 RMK CU1AC3 CU TR SLP077 DENSITY ALT 4400FT

CYQF;2015-07-21 18:00;CYQF 211800Z 03008KT 360V070 15SM FEW032 SCT100 SCT270 21/14 A2976 RMK CU2AC1CI1 SLP075 DENSITY ALT 4500FT

CYQF;2015-07-21 19:00;CYQF 211900Z 04007KT 010V080 15SM FEW040 FEW090 SCT250 22/13 A2976 RMK CU1AC1CI2 SLP074 DENSITY ALT 4600FT

CYQF;2015-07-21 20:00;CYQF 212000Z 05008KT 350V090 15SM FEW040 SCT250 23/14 A2974 RMK CU1CI3 SLP070 DENSITY ALT 4700FT

CYQF;2015-07-21 21:00;CYQF 212100Z 07007KT 020V110 15SM SCT044 SCT250 23/13 A2974 RMK CU3CI1 SLP070 DENSITY ALT 4700FT

CYQF;2015-07-21 22:00;CYQF 212200Z 08005KT 020V110 15SM SCT032 BKN250 21/14 A2972 RMK CU3CI2 CB DIST SW-NW SLP066 DENSITY ALT 4500FT

CYQF;2015-07-21 23:00;CYQF 212300Z 03008KT 15SM SCT020 BKN034CB BKN250 19/15 A2971 RMK CU3CB2CI2 SLP064 DENSITY ALT 4300FT

CYQF;2015-07-22 00:00;CYQF 220000Z 04009KT 15SM FEW016 SCT050CB BKN250 20/15 A2969 RMK CU1CB3CI2 SLP058 DENSITY ALT 4400FT

CYQF;2015-07-22 01:00;CYQF 220100Z 05008KT 15SM BKN024CB BKN210 21/16 A2969 RMK CB5CI2 SLP055 DENSITY ALT 4600FT

CYQF;2015-07-22 02:00;CYQF 220200Z 35013G26KT 300V360 15SM SCT024CB BKN160 OVC240 17/11 A2972 RMK CB4AC2CI2 LTGCG N PRESRR SLP067 DENSITY ALT 4000FT

CYQF;2015-07-22 03:00;CYQF 220300Z 02006KT 15SM SCT020CB BKN140 OVC240 14/11 A2971 RMK CB3AC4CI1 LTGCG W SHRA W-N SLP064 DENSITY ALT 3700FT

CYQF;2015-07-22 04:00;CYQF 220400Z 02008G15KT 330V040 15SM BKN048 OVC100 13/10 A2975 RMK CU5AC3 LTGCGIC S + W-N SLP076 DENSITY ALT 3600FT

CYQF;2015-07-22 04:44;CYQF 220444Z 36004KT 330V040 15SM TS BKN060CB OVC100 12/11 A2974 RMK CB6AC2 LTNG ALQDS SLP075 DENSITY ALT 3500FT

CYQF;2015-07-22 04:57;CYQF 220457Z 26014KT 250V320 15SM SHRA BKN060CB OVC100 13/11 A2979 RMK CB6AC2 WSHFT 0447 PRESRR SLP092 DENSITY ALT 3500FT

CYQF;2015-07-22 05:00;CYQF 220500Z 26009G18KT 15SM -TSRA BKN012CB OVC120 13/12 A2979 RMK CB6AC2 LTNG ALQDS PRESRR SLP090 DENSITY ALT 3600FT

CYQF;2015-07-22 05:40;CYQF 220540Z 36009G15KT 15SM TS VCSH FEW012 BKN050CB OVC090 14/12 A2976 RMK CF1CB5AC2 LTGCGIC SE-NE SLP079 DENSITY ALT 3600FT

CYQF;2015-07-22 06:00;CYQF 220600Z 01009KT 15SM TS VCSH FEW012 BKN050CB OVC090 14/12 A2975 RMK CF1CB5AC2 SLP074 DENSITY ALT 3600FT

CYQF;2015-07-22 06:17;CYQF 220617Z 34008KT 10SM -TSRA OVC040CB 13/11 A2977 RMK CB8 LTGCGIC ALQDS PRESRR SLP083 DENSITY ALT 3500FT

CYQF;2015-07-22 06:22;CYQF 220622Z 35006KT 310V020 5SM TSRA OVC040CB 12/11 A2978 RMK CB8 LTNG ALQDS PRESRR SLP086 DENSITY ALT 3500FT

CYQF;2015-07-22 06:41;CYQF 220641Z 02009KT 10SM -TSRA BKN040CB OVC072 12/11 A2977 RMK CB6AC2 LTNG E SLP082 DENSITY ALT 3400FT

CYQF;2015-07-22 07:00;CYQF 220700Z CCA 06010KT 10SM -TSRA OVC060CB 12/10 A2975 RMK CB8 LTNG E PRESFR SLP075 DENSITY ALT 3500FT

CYQF;2015-07-22 07:23;CYQF 220723Z 34005KT 15SM TS BKN060CB 12/10 A2976 RMK CB6 LTNG SE SLP077 DENSITY ALT 3400FT

CYQF;2015-07-22 07:42;CYQF 220742Z 32004KT 300V010 15SM FEW060 BKN170 12/10 A2976 RMK SC2AC4 SLP079 DENSITY ALT 3400FT

CYQF;2015-07-22 08:00;CYQF 220800Z 35003KT 300V010 15SM FEW080 BKN180 11/10 A2976 RMK AC2AC4 SLP077 DENSITY ALT 3400FT

CYQF;2015-07-22 09:00;CYQF 220900Z 31003KT 15SM FEW140 BKN240 10/09 A2972 RMK AC2CI4 SLP067 DENSITY ALT 3200FT

CYQF;2015-07-22 10:00;CYQF 221000Z 26005KT 15SM BKN230 10/09 A2972 RMK CI7 SLP068 DENSITY ALT 3300FT

CYQF;2015-07-22 11:00;CYQF 221100Z 22004KT 15SM FEW120 BKN220 08/08 A2973 RMK ACC1CI4 SLP074 DENSITY ALT 3000FT

CYQF;2015-07-22 12:00;CYQF 221200Z 25004KT 15SM FEW120 BKN220 08/07 A2973 RMK ACC1CI5 SLP075 DENSITY ALT 3000FT

CYQF;2015-07-22 13:00;CYQF 221300Z 14004KT 130V300 15SM FEW120 BKN210 11/09 A2972 RMK ACC2CI5 SLP068 DENSITY ALT 3300FT

CYQF;2015-07-22 14:00;CYQF 221400Z 17006KT 15SM FEW120 BKN200 11/10 A2974 RMK ACC2CI5 SLP077 DENSITY ALT 3300FT

CYQF;2015-07-22 15:00;CYQF 221500Z 17003KT 15SM SCT080 BKN200 13/11 A2972 RMK ACC4CI3 SLP071 DENSITY ALT 3600FT

CYQF;2015-07-22 16:02;CYQF 221602Z 24009KT 160V250 15SM -SHRA FEW010 OVC080 14/11 A2975 RMK SC1ACC7 PRESRR SLP082 DENSITY ALT 3600FT

CYQF;2015-07-22 16:06;CYQF 221606Z 25014KT 180V260 15SM -TSRA BKN012 OVC080 13/11 A2978 RMK SC6ACC2 LTGCG CB EMBD PRESRR SLP093 DENSITY ALT 3600FT

CYQF;2015-07-22 16:23;CYQF 221623Z 28007KT 15SM -SHRA FEW012 OVC080 13/10 A2976 RMK SC1ACC7 PRESFR SLP086 DENSITY ALT 3500FT

CYQF;2015-07-22 17:00;CYQF 221700Z 32005KT 270V350 15SM -SHRA FEW012 BKN080 OVC200 13/11 A2975 RMK SC1ACC6CI1 SLP084 DENSITY ALT 3500FT

CYQF;2015-07-22 17:38;CYQF 221738Z 36012KT 15SM VCSH SCT080 BKN120 OVC200 13/10 A2973 RMK ACC4AC3CI1 SLP077 DENSITY ALT 3600FT

CYQF;2015-07-22 18:02;CYQF 221802Z 02008KT 330V030 15SM -TSRA BKN070CB OVC120 12/10 A2975 RMK CB5AC3 LTGCG NW SLP084 DENSITY ALT 3500FT

CYQF;2015-07-22 18:48;CYQF 221848Z 28012KT 270V050 15SM -TSRAGR FEW012 OVC070 12/10 A2976 RMK SC1ACC7 LTGCG S CB EMBD HAIL DIAM 2 MM PRESRR SLP089 DENSITY ALT 3400FT

CYQF;2015-07-22 19:00;CYQF 221900Z 27011KT 15SM -TSRA FEW012 OVC070CB 11/10 A2977 RMK SF1CB7 LTGCG S-NW PRESRR SLP094 DENSITY ALT 3400FT

CYQF;2015-07-22 19:45;CYQF 221945Z VRB02KT 15SM TS BKN060CB 12/10 A2977 RMK CB7 SLP094 DENSITY ALT 3400FT

CYQF;2015-07-22 20:00;CYQF 222000Z 11003KT 010V120 12SM TS BKN060CB BKN140 12/10 A2976 RMK CB5AC2 SLP091 DENSITY ALT 3500FT

CYQF;2015-07-22 20:16;CYQF 222016Z 15007KT 15SM BKN120 12/11 A2975 RMK ACC7 SLP087 DENSITY ALT 3500FT

CYQF;2015-07-22 21:00;CYQF 222100Z 10007KT 15SM FEW060CB BKN120 BKN250 14/11 A2971 RMK CB1ACC4CI2 SLP074 DENSITY ALT 3700FT

CYQF;2015-07-22 22:00;CYQF 222200Z 18006KT 15SM FEW020 SCT120 BKN250 16/09 A2972 RMK SC1ACC2CI4 CB TOP DIST W SLP075 DENSITY ALT 3900FT

CYQF;2015-07-22 23:00;CYQF 222300Z 25005KT 15SM SCT025 BKN120 BKN250 16/10 A2975 RMK SC3AC2CI1 VIRGA SLP084 DENSITY ALT 3900FT

CYQF;2015-07-23 00:00;CYQF 230000Z 22003KT 150V230 15SM FEW025 FEW120 SCT250 17/08 A2972 RMK SC1AC1CI2 CB TOP DIST N SLP075 DENSITY ALT 4100FT

CYQF;2015-07-23 01:00;CYQF 230100Z 28006KT 15SM FEW120 FEW250 18/11 A2974 RMK AC2CI1 CI TR SLP078 DENSITY ALT 4100FT

CYQF;2015-07-23 02:00;CYQF 230200Z 28005KT 15SM FEW120 FEW250 17/11 A2976 RMK AC1CI1 SLP083 DENSITY ALT 4000FT

CYQF;2015-07-23 03:00;CYQF 230300Z 34004KT 15SM FEW120 SCT250 15/11 A2976 RMK AC1CI2 CB TOP DIST W SLP087 DENSITY ALT 3800FT

CYQF;2015-07-23 04:00;CYQF 230400Z 35004KT 15SM FEW120 SCT250 13/10 A2978 RMK AC2CI1 SLP095 DENSITY ALT 3500FT

CYQF;2015-07-23 05:00;CYQF 230500Z 32004KT 15SM FEW120 11/09 A2981 RMK AC1 SLP106 DENSITY ALT 3200FT

CYQF;2015-07-23 06:00;CYQF 230600Z 23002KT 15SM FEW120 09/07 A2982 RMK AC1 AC TR SLP112 DENSITY ALT 3000FT

CYQF;2015-07-23 07:00;CYQF 230700Z 20004KT 15SM FEW120 SCT250 08/07 A2983 RMK AC1CI2 SLP119

CYQF;2015-07-23 08:00;CYQF 230800Z 23004KT 15SM SKC 07/06 A2983 RMK SLP117

CYQF;2015-07-23 09:00;CYQF 230900Z VRB03KT 15SM SKC 07/06 A2984 RMK AURBO SLP120

CYQF;2015-07-23 10:00;CYQF 231000Z VRB02KT 15SM FEW120 06/06 A2984 RMK AC1 SLP118

CYQF;2015-07-23 11:00;CYQF 231100Z 00000KT 15SM MIFG FEW055 BKN220 06/05 A2985 RMK CU2CI3 SLP122

CYQF;2015-07-23 12:00;CYQF 231200Z 18002KT 15SM FEW055 FEW100 BKN220 06/05 A2985 RMK CU1AC1CI3 SLP121

CYQF;2015-07-23 13:00;CYQF 231300Z 00000KT 15SM FEW050 FEW100 BKN240 08/07 A2986 RMK CU1ACC1CI5 SLP120

CYQF;2015-07-23 14:00;CYQF 231400Z VRB02KT 15SM FEW050 FEW100 BKN240 10/09 A2986 RMK SC1ACC1CI4 SLP120 DENSITY ALT 3100FT

CYQF;2015-07-23 15:00;CYQF 231500Z 00000KT 15SM FEW100 BKN240 13/11 A2986 RMK AC1CI5 SLP118 DENSITY ALT 3500FT

CYQF;2015-07-23 16:00;CYQF 231600Z 15004KT 100V170 15SM FEW020 FEW180 BKN240 16/12 A2985 RMK CU1AC1CI4 SLP115 DENSITY ALT 3800FT

CYQF;2015-07-23 17:00;CYQF 231700Z 14008KT 15SM FEW030 FEW180 BKN240 19/10 A2984 RMK CU1AC1CI6 CU TR SLP111 DENSITY ALT 4100FT

CYQF;2015-07-23 18:00;CYQF 231800Z 17009KT 15SM FEW028 SCT160 BKN240 19/11 A2984 RMK CU1AC3CI2 SLP111 DENSITY ALT 4100FT

CYQF;2015-07-23 19:00;CYQF 231900Z 18005KT 150V240 15SM FEW040TCU BKN160 OVC240 19/11 A2983 RMK TCU2AC4CI2 CB TOP N SLP111 DENSITY ALT 4200FT

CYQF;2015-07-23 20:00;CYQF 232000Z 18003KT 150V260 15SM SCT040TCU BKN170 BKN240 20/11 A2983 RMK TCU3AC3CI1 SLP110 DENSITY ALT 4300FT

CYQF;2015-07-23 21:00;CYQF 232100Z 00000KT 15SM SCT040TCU BKN170 BKN240 20/11 A2981 RMK TCU4AC2CI1 SLP103 DENSITY ALT 4300FT

CYQF;2015-07-23 22:00;CYQF 232200Z 00000KT 15SM SCT048TCU BKN260 22/08 A2981 RMK TCU4CI2 CB TOP DIST W SLP101 DENSITY ALT 4600FT

CYQF;2015-07-23 23:00;CYQF 232300Z 30003KT 160V320 15SM SCT048CB BKN150 21/09 A2980 RMK CB4AC2 CB TOPS NW SLP099 DENSITY ALT 4500FT

CYQF;2015-07-24 00:00;CYQF 240000Z VRB02KT 15SM SCT032CB BKN100 20/09 A2980 RMK CB4AC3 VIRGA CB TOPS DIST N SLP102 DENSITY ALT 4300FT

CYQF;2015-07-24 01:00;CYQF 240100Z 33005KT 15SM FEW050 BKN140 21/09 A2980 RMK SC2AC4 CB TOP DIST NE SLP098 DENSITY ALT 4400FT

CYQF;2015-07-24 02:00;CYQF 240200Z 04009KT 15SM BKN140 18/11 A2982 RMK AC6 SLP107 DENSITY ALT 4100FT

CYQF;2015-07-24 03:00;CYQF 240300Z 06005KT 15SM BKN120 15/11 A2983 RMK AC7 SLP108 DENSITY ALT 3700FT

CYQF;2015-07-24 04:00;CYQF 240400Z 05005KT 15SM BKN100 14/11 A2984 RMK ACC7 SLP110 DENSITY ALT 3600FT

CYQF;2015-07-24 04:46;CYQF 240446Z 33003KT 15SM -SHRA BKN090 14/11 A2986 RMK ACC7 SLP119 DENSITY ALT 3500FT

CYQF;2015-07-24 05:00;CYQF 240500Z 14003KT 060V220 15SM -SHRA BKN097 14/11 A2986 RMK ACC7 SLP114 DENSITY ALT 3600FT

CYQF;2015-07-24 05:26;CYQF 240526Z 04008KT 15SM BKN100 13/10 A2984 RMK AC5 SLP108 DENSITY ALT 3500FT

CYQF;2015-07-24 06:00;CYQF 240600Z 07003KT 15SM FEW100 12/10 A2985 RMK AC2 SLP112 DENSITY ALT 3300FT

CYQF;2015-07-24 07:00;CYQF 240700Z 35004KT 15SM SCT130 11/10 A2987 RMK AC3 SLP120 DENSITY ALT 3200FT

CYQF;2015-07-24 08:00;CYQF 240800Z 23003KT 15SM BKN130 10/09 A2987 RMK AC5 SLP123 DENSITY ALT 3100FT

CYQF;2015-07-24 09:00;CYQF 240900Z 21003KT 15SM FEW130 09/08 A2986 RMK AC2 SLP119 DENSITY ALT 3000FT

CYQF;2015-07-24 10:00;CYQF 241000Z 25005KT 15SM FEW120 09/08 A2987 RMK AC2 SLP122

CYQF;2015-07-24 11:00;CYQF 241100Z 19003KT 15SM FEW120 07/07 A2988 RMK AC1 SLP125

CYQF;2015-07-24 12:00;CYQF 241200Z 17003KT 140V210 15SM FEW120 SCT250 07/07 A2989 RMK AC1CI2 SLP130

CYQF;2015-07-24 13:00;CYQF 241300Z 19002KT 15SM FEW120 SCT250 08/08 A2989 RMK AC1CI2 SLP128

CYQF;2015-07-24 14:00;CYQF 241400Z 21004KT 15SM FEW120 11/09 A2990 RMK AC1 SLP132 DENSITY ALT 3100FT

CYQF;2015-07-24 15:00;CYQF 241500Z 19003KT 15SM FEW250 14/11 A2990 RMK CI2 SLP132 DENSITY ALT 3500FT

CYQF;2015-07-24 16:00;CYQF 241600Z 21003KT 170V270 15SM SCT250 16/11 A2989 RMK CI3 SLP130 DENSITY ALT 3700FT

CYQF;2015-07-24 17:00;CYQF 241700Z VRB03KT 15SM FEW025 BKN250 18/12 A2988 RMK CU1CI4 SLP122 DENSITY ALT 4000FT

CYQF;2015-07-24 18:00;CYQF 241800Z 21004KT 150V240 15SM FEW040 BKN250 21/09 A2987 RMK CU2CI4 SLP118 DENSITY ALT 4300FT

CYQF;2015-07-24 19:00;CYQF 241900Z 17005KT 140V230 15SM FEW056 BKN250 22/09 A2986 RMK CU2CI4 SLP114 DENSITY ALT 4500FT

CYQF;2015-07-24 20:00;CYQF 242000Z 17004KT 150V220 15SM FEW060 BKN250 23/09 A2985 RMK SC2CI3 SLP111 DENSITY ALT 4600FT

CYQF;2015-07-24 21:00;CYQF 242100Z 17008KT 15SM FEW050 SCT110 BKN250 23/10 A2984 RMK CU1AC2CI3 SLP107 DENSITY ALT 4600FT

CYQF;2015-07-24 22:00;CYQF 242200Z 16007KT 15SM FEW050 FEW110 BKN250 24/09 A2982 RMK CU1AC1CI5 SLP100 DENSITY ALT 4700FT

CYQF;2015-07-24 23:00;CYQF 242300Z 14009KT 15SM FEW050 FEW110 BKN250 23/13 A2980 RMK CU1AC1CI5 SLP097 DENSITY ALT 4700FT

CYQF;2015-07-25 00:00;CYQF 250000Z 15008G15KT 15SM FEW044 SCT110 BKN250 23/12 A2980 RMK CU1AC3CI2 SLP096 DENSITY ALT 4600FT

CYQF;2015-07-25 01:00;CYQF 250100Z 15008KT 15SM FEW044 BKN180 BKN250 21/12 A2978 RMK CU2AC5CI1 CI TR SLP092 DENSITY ALT 4500FT

CYQF;2015-07-25 02:00;CYQF 250200Z 15009KT 15SM SCT100 BKN180 22/13 A2978 RMK AC4AC2 SLP086 DENSITY ALT 4600FT

CYQF;2015-07-25 03:00;CYQF 250300Z 20009KT 15SM SCT100 BKN250 19/13 A2978 RMK AC4CI3 SLP087 DENSITY ALT 4300FT

CYQF;2015-07-25 04:00;CYQF 250400Z 23007KT 15SM SCT100 BKN180 17/11 A2980 RMK AC3AC4 SLP094 DENSITY ALT 3900FT

CYQF;2015-07-25 05:00;CYQF 250500Z 19003KT 15SM BKN140 16/10 A2980 RMK AC7 SLP093 DENSITY ALT 3900FT

CYQF;2015-07-25 06:00;CYQF 250600Z 24004KT 15SM BKN120 16/08 A2982 RMK AC6 SLP096 DENSITY ALT 3800FT

CYQF;2015-07-25 07:00;CYQF 250700Z 00000KT 15SM FEW120 14/08 A2982 RMK AC2 SLP097 DENSITY ALT 3600FT

CYQF;2015-07-25 08:00;CYQF 250800Z 28004KT 15SM SKC 12/07 A2984 RMK SLP104 DENSITY ALT 3300FT

CYQF;2015-07-25 09:00;CYQF 250900Z 03003KT 340V050 15SM FEW170 11/08 A2984 RMK AC2 SLP107 DENSITY ALT 3200FT

CYQF;2015-07-25 10:00;CYQF 251000Z 33005KT 15SM BKN190 11/10 A2985 RMK CI6 SLP107 DENSITY ALT 3300FT

CYQF;2015-07-25 11:00;CYQF 251100Z 02003KT 15SM BKN190 11/10 A2985 RMK CI5 SLP108 DENSITY ALT 3200FT

CYQF;2015-07-25 12:00;CYQF 251200Z 28007KT 15SM FEW120 BKN240 10/09 A2986 RMK AC2CI3 SLP114 DENSITY ALT 3100FT

CYQF;2015-07-25 13:00;CYQF 251300Z VRB02KT 15SM SCT120 BKN240 11/10 A2987 RMK AC3CI4 SLP119 DENSITY ALT 3200FT

CYQF;2015-07-25 14:00;CYQF 251400Z 26003KT 200V270 15SM SCT120 BKN240 11/10 A2987 RMK AC3CI4 SLP118 DENSITY ALT 3200FT

CYQF;2015-07-25 15:00;CYQF 251500Z 00000KT 15SM SCT100 BKN240 13/10 A2987 RMK AC3CI4 SLP120 DENSITY ALT 3400FT

CYQF;2015-07-25 16:00;CYQF 251600Z 25003KT 220V310 15SM SCT120 BKN240 14/11 A2988 RMK AC3CI4 SLP123 DENSITY ALT 3600FT

CYQF;2015-07-25 17:00;CYQF 251700Z 06004KT 360V090 15SM SCT100 BKN250 16/11 A2986 RMK AC3CI4 SLP116 DENSITY ALT 3800FT

CYQF;2015-07-25 18:00;CYQF 251800Z 05005KT 030V090 15SM SCT110 BKN170 BKN250 17/11 A2985 RMK AC3AC2CI2 SLP110 DENSITY ALT 3900FT

CYQF;2015-07-25 19:00;CYQF 251900Z 05007KT 020V090 15SM SCT100 BKN160 OVC250 17/11 A2981 RMK AC3AC3CI2 SLP100 DENSITY ALT 4000FT

CYQF;2015-07-25 20:00;CYQF 252000Z 08009KT 15SM FEW030 BKN090 BKN250 19/12 A2979 RMK CU2AC3CI2 CB TOP W SLP094 DENSITY ALT 4200FT

CYQF;2015-07-25 21:00;CYQF 252100Z 07005KT 15SM FEW030 OVC160 18/12 A2978 RMK CU2AC6 SLP091 DENSITY ALT 4100FT

CYQF;2015-07-25 21:33;CYQF 252133Z 03008KT 15SM -SHRA FEW006 SCT030CB BKN080 OVC250 16/12 A2976 RMK FU1CB3AC3CI1 LTGCG W PRESFR SLP087 DENSITY ALT 3900FT

CYQF;2015-07-25 21:40;CYQF 252140Z VRB07G23KT 10SM -TSRA BKN030CB OVC080 16/12 A2978 RMK CB7AC1 LTGCG W PRESRR SLP092 DENSITY ALT 3900FT

CYQF;2015-07-25 21:43;CYQF 252143Z VRB21G38KT 3SM +TSRA OVC013CB 14/10 A2973 RMK CB8 LTGCG NW PRESFR SLP078 DENSITY ALT 3700FT

CYQF;2015-07-25 21:49;CYQF 252149Z 28031G50KT 160V320 2SM +TSRAGR OVC015CB 09/07 A2979 RMK CB8 HAIL DIAM 5MM LTGCG N PRESRR SLP105 DENSITY ALT 3100FT

CYQF;2015-07-25 22:00;CYQF 252200Z 28017G37KT 3SM +TSRA OVC040CB 10/09 A2982 RMK CB8 LTG OVRHD PRESRR SLP113 DENSITY ALT 3100FT

CYQF;2015-07-25 22:18;CYQF 252218Z 31016G28KT 6SM -TSRA BKN040CB OVC080 11/10 A2981 RMK CB6AC2 PRESRR SLP109 DENSITY ALT 3300FT

CYQF;2015-07-25 22:30;CYQF 252230Z 32016G24KT 10SM -SHRA BKN066CB OVC080 11/10 A2981 RMK CB5AC3 PRESRR SLP108 DENSITY ALT 3300FT

CYQF;2015-07-25 23:00;CYQF 252300Z 02011G19KT 15SM -SHRA SCT060CB BKN090 BKN250 13/11 A2976 RMK CB3AC3CI1 VIS N 3 PRESFR SLP089 DENSITY ALT 3500FT

CYQF;2015-07-25 23:19;CYQF 252319Z 01003KT 330V080 15SM FEW060CB BKN100 BKN240 14/11 A2978 RMK CB2AC3CI2 PRESRR SLP095 DENSITY ALT 3600FT

CYQF;2015-07-26 00:00;CYQF 260000Z 29006KT 260V320 15SM FEW060CB BKN100 BKN200 16/12 A2978 RMK CB2AC3CI2 SLP096 DENSITY ALT 3800FT

CYQF;2015-07-26 01:00;CYQF 260100Z 33006KT 290V350 15SM FEW020 SCT100 BKN200 16/12 A2980 RMK CU2AC2CI3 SLP101 DENSITY ALT 3800FT

CYQF;2015-07-26 02:00;CYQF 260200Z 36007KT 330V030 15SM FEW030 SCT100 BKN200 15/11 A2981 RMK CU2AC2CI3 SLP106 DENSITY ALT 3800FT

CYQF;2015-07-26 03:00;CYQF 260300Z 33005KT 15SM VCSH FEW030 BKN080 BKN240 14/11 A2984 RMK CU2AC4CI1 SLP113 DENSITY ALT 3600FT

CYQF;2015-07-26 04:00;CYQF 260400Z 33004KT 15SM VCSH BKN070 BKN240 12/10 A2985 RMK ACC5CI2 SLP117 DENSITY ALT 3400FT

CYQF;2015-07-26 05:00;CYQF 260500Z 30005KT 15SM FEW070 SCT120 BKN240 11/10 A2986 RMK ACC2AC2CI2 SLP119 DENSITY ALT 3200FT

CYQF;2015-07-26 06:00;CYQF 260600Z 30005KT 15SM OVC120 11/10 A2985 RMK AC8 SLP118 DENSITY ALT 3200FT

CYQF;2015-07-26 07:00;CYQF 260700Z 28007KT 15SM FEW120 10/09 A2985 RMK AC2 SLP118 DENSITY ALT 3100FT

CYQF;2015-07-26 08:00;CYQF 260800Z 22003KT 15SM SCT120 08/08 A2986 RMK AC3 SLP119

CYQF;2015-07-26 09:00;CYQF 260900Z 27005KT 15SM SKC 09/08 A2986 RMK SLP119

CYQF;2015-07-26 10:00;CYQF 261000Z 22003KT 15SM FEW240 07/06 A2986 RMK CI1 CI TR SLP131

CYQF;2015-07-26 10:48;CYQF 261048Z 16002KT 1SM BR SKC 06/06 A2986 RMK FG1 SLP134

CYQF;2015-07-26 11:00;CYQF 261100Z 18003KT 120V190 1/8SM FG SCT240 07/06 A2986 RMK FG1CI2 SLP130

CYQF;2015-07-26 12:00;CYQF 261200Z 21002KT 1/4SM FG BKN240 06/05 A2988 RMK FG2CI3 SLP133

CYQF;2015-07-26 12:25;CYQF 261225Z 19004KT 3/4SM BR FEW060 BKN240 06/06 A2988 RMK SC2CC4 SLP135

CYQF;2015-07-26 13:00;CYQF 261300Z 21002KT 1SM BR SCT080 BKN240 08/08 A2989 RMK AC3CI3 SLP134

CYQF;2015-07-26 13:11;CYQF 261311Z 23004KT 7SM SCT080 BKN240 09/08 A2989 RMK AC3CI2 SLP134

CYQF;2015-07-26 14:00;CYQF 261400Z 28004KT 15SM SCT087 BKN240 11/10 A2989 RMK AC4CI2 SLP132 DENSITY ALT 3100FT

CYQF;2015-07-26 15:00;CYQF 261500Z 19004KT 170V270 15SM FEW008 BKN086 BKN240 12/10 A2990 RMK SC1AC4CI1 SLP135 DENSITY ALT 3300FT

CYQF;2015-07-26 16:00;CYQF 261600Z 29004KT 250V320 15SM FEW015 BKN090 14/10 A2991 RMK CU2AC4 SLP138 DENSITY ALT 3500FT

CYQF;2015-07-26 17:00;CYQF 261700Z 34006KT 260V350 15SM SCT028 BKN090 15/09 A2990 RMK CU3AC3 SLP137 DENSITY ALT 3600FT

CYQF;2015-07-26 18:00;CYQF 261800Z VRB06KT 15SM SCT030 BKN090 16/10 A2991 RMK CU3AC3 SLP137 DENSITY ALT 3800FT

CYQF;2015-07-26 19:00;CYQF 261900Z 30003KT 280V010 15SM SCT040TCU BKN250 17/07 A2990 RMK TCU3CI3 SLP135 DENSITY ALT 3900FT

CYQF;2015-07-26 20:00;CYQF 262000Z 36006KT 300V030 15SM SCT032TCU BKN250 18/10 A2989 RMK TCU3CI3 SLP133 DENSITY ALT 4000FT

CYQF;2015-07-26 21:00;CYQF 262100Z 01007KT 350V060 15SM SCT036TCU BKN160 BKN250 19/10 A2989 RMK TCU4AC2CI1 SLP132 DENSITY ALT 4000FT

CYQF;2015-07-26 22:00;CYQF 262200Z 05004KT 310V080 15SM SCT044TCU BKN160 BKN230 19/07 A2989 RMK TCU4AC2CI1 SLP133 DENSITY ALT 4100FT

CYQF;2015-07-26 23:00;CYQF 262300Z VRB02KT 15SM SCT040TCU BKN100 BKN230 18/08 A2989 RMK TCU4AC2CI1 SLP134 DENSITY ALT 4000FT

CYQF;2015-07-27 00:00;CYQF 270000Z 22008KT 15SM VCSH SCT040CB BKN100 BKN230 16/09 A2990 RMK CB4AC2CI1 SLP139 DENSITY ALT 3800FT

CYQF;2015-07-27 00:49;CYQF 270049Z 26008KT 15SM -TSRA SCT055CB BKN100 OVC230 15/09 A2991 RMK CB4AC3CI1 SLP146 DENSITY ALT 3600FT

CYQF;2015-07-27 01:00;CYQF 270100Z 26009KT 15SM -TSRA BKN058CB OVC100 14/09 A2991 RMK CB5AC3 HVY SH W + N SLP145 DENSITY ALT 3500FT

CYQF;2015-07-27 02:05;CYQF 270205Z 27003KT 230V330 15SM VCSH SCT050CB OVC076 12/09 A2994 RMK CB4AC4 SLP152 DENSITY ALT 3300FT

CYQF;2015-07-27 03:00;CYQF 270300Z 27004KT 15SM VCSH FEW060TCU OVC100 12/10 A2994 RMK TCU2AC6 SLP150 DENSITY ALT 3200FT

CYQF;2015-07-27 04:00;CYQF 270400Z 30002KT 15SM BKN100 OVC140 11/10 A2994 RMK AC5AC3 SLP150 DENSITY ALT 3100FT

CYQF;2015-07-27 05:00;CYQF 270500Z 30003KT 15SM BKN087 11/10 A2995 RMK AC7 SLP152 DENSITY ALT 3100FT

CYQF;2015-07-27 06:00;CYQF 270600Z 27005KT 15SM SCT080 BKN140 10/08 A2994 RMK AC4AC2 SLP148 DENSITY ALT 3000FT

CYQF;2015-07-27 07:00;CYQF 270700Z 25004KT 15SM BKN075 BKN160 10/09 A2993 RMK AC6AC1 SLP145 DENSITY ALT 3000FT

CYQF;2015-07-27 08:00;CYQF 270800Z 23005KT 15SM OVC100 10/08 A2994 RMK AC8 SLP148 DENSITY ALT 3000FT

CYQF;2015-07-27 09:00;CYQF 270900Z 28004KT 15SM FEW075 BKN180 09/07 A2993 RMK AC2AC3 SLP146

CYQF;2015-07-27 10:00;CYQF 271000Z 14005KT 130V220 15SM BKN130 08/07 A2993 RMK AC5 SLP147

CYQF;2015-07-27 11:00;CYQF 271100Z 21003KT 15SM SCT070 BKN100 07/06 A2994 RMK AC3AC3 SLP150

CYQF;2015-07-27 12:00;CYQF 271200Z 26004KT 15SM SCT100 07/06 A2995 RMK AC3 SLP155

CYQF;2015-07-27 13:00;CYQF 271300Z 27006KT 15SM BKN100 BKN250 07/07 A2996 RMK AC5CI1 SLP162

CYQF;2015-07-27 14:00;CYQF 271400Z 30003KT 15SM BKN100 BKN250 09/08 A2997 RMK ACC5CI1 SHWRS DIST NW-NE SLP165

CYQF;2015-07-27 15:00;CYQF 271500Z 27003KT 250V350 15SM SCT055 BKN100 BKN250 12/10 A2997 RMK SC3ACC3CI1 SHWRS DIST NW SLP162 DENSITY ALT 3200FT

CYQF;2015-07-27 16:00;CYQF 271600Z 30008KT 260V330 15SM FEW018 BKN060 OVC100 14/10 A2998 RMK SC2SC3ACC3 SLP163 DENSITY ALT 3400FT

CYQF;2015-07-27 17:00;CYQF 271700Z 31009KT 15SM FEW020 BKN060 BKN100 14/08 A2998 RMK SC2SC3ACC2 SLP165 DENSITY ALT 3400FT

CYQF;2015-07-27 18:00;CYQF 271800Z 33005KT 15SM FEW020TCU BKN075 15/10 A2998 RMK TCU2AC5 SLP166 DENSITY ALT 3500FT

CYQF;2015-07-27 19:00;CYQF 271900Z 32011KT 290V360 15SM FEW028TCU BKN083 16/09 A2998 RMK TCU2AC5 SLP163 DENSITY ALT 3600FT

CYQF;2015-07-27 20:00;CYQF 272000Z 34006KT 270V350 15SM FEW032TCU SCT120 BKN200 BKN270 17/09 A2997 RMK TCU2AC2CI2CC1 SLP159 DENSITY ALT 3800FT

CYQF;2015-07-27 21:00;CYQF 272100Z 32007KT 15SM SCT040TCU BKN160 OVC250 18/09 A2997 RMK TCU3AC3CI2 SLP158 DENSITY ALT 3900FT

CYQF;2015-07-27 22:00;CYQF 272200Z 01005KT 330V040 15SM BKN036TCU BKN250 18/09 A2996 RMK TCU5CI2 SLP157 DENSITY ALT 3900FT

CYQF;2015-07-27 23:00;CYQF 272300Z 36007KT 15SM SCT040TCU BKN240 17/09 A2997 RMK TCU4CI3 SLP162 DENSITY ALT 3800FT

CYQF;2015-07-28 00:00;CYQF 280000Z 36007KT 15SM SCT040TCU SCT120 BKN240 18/09 A2998 RMK TCU3AC1CI3 SLP164 DENSITY ALT 3900FT

CYQF;2015-07-28 01:00;CYQF 280100Z 35005KT 320V020 15SM SCT040TCU SCT120 BKN240 18/09 A2999 RMK TCU3AC1CI3 CB TOPS DIST W SLP167 DENSITY ALT 3900FT

CYQF;2015-07-28 02:00;CYQF 280200Z 35004KT 15SM FEW050TCU BKN240 17/09 A2999 RMK TCU2CI3 SLP167 DENSITY ALT 3800FT

CYQF;2015-07-28 03:00;CYQF 280300Z 30002KT 15SM FEW050TCU FEW080 BKN240 17/07 A2999 RMK TCU1AC1CI5 SLP163 DENSITY ALT 3700FT

CYQF;2015-07-28 04:00;CYQF 280400Z 28004KT 15SM FEW080 SCT240 13/09 A2999 RMK AC1CI3 SLP166 DENSITY ALT 3300FT

CYQF;2015-07-28 05:00;CYQF 280500Z VRB02KT 15SM SKC 11/08 A2998 RMK SLP164 DENSITY ALT 3000FT

CYQF;2015-07-28 06:00;CYQF 280600Z 26006KT 15SM FEW260 10/07 A2996 RMK CI2 SLP157 DENSITY ALT 3000FT

CYQF;2015-07-28 07:00;CYQF 280700Z 16004KT 150V260 15SM SKC 08/06 A2998 RMK SLP165

CYQF;2015-07-28 08:00;CYQF 280800Z 18003KT 15SM SKC 07/06 A2999 RMK SLP168

CYQF;2015-07-28 09:00;CYQF 280900Z 21004KT 15SM SKC 06/05 A2999 RMK SLP169

CYQF;2015-07-28 10:00;CYQF 281000Z 26006KT 15SM SKC 08/07 A3000 RMK SLP169

CYQF;2015-07-28 11:00;CYQF 281100Z 27005KT 15SM SCT260 09/06 A3001 RMK CI3 SLP173

CYQF;2015-07-28 12:00;CYQF 281200Z 30003KT 15SM FEW100 BKN260 08/06 A3002 RMK AC1CI5 SLP177

CYQF;2015-07-28 13:00;CYQF 281300Z VRB05KT 15SM FEW100 BKN250 09/07 A3004 RMK AC2CI5 SLP181

CYQF;2015-07-28 14:00;CYQF 281400Z 28004KT 15SM FEW100 SCT250 12/08 A3004 RMK AC1CI3 SLP180 DENSITY ALT 3100FT

CYQF;2015-07-28 15:00;CYQF 281500Z 29006KT 250V330 15SM FEW100 BKN250 14/09 A3004 RMK AC1CI4 SLP177 DENSITY ALT 3400FT

CYQF;2015-07-28 16:00;CYQF 281600Z 30010KT 15SM FEW100 BKN250 16/08 A3003 RMK AC1CI5 AC TR SLP177 DENSITY ALT 3600FT

CYQF;2015-07-28 17:00;CYQF 281700Z 32009G15KT 15SM FEW032 BKN250 18/08 A3002 RMK CU1CI5 CU TR SLP173 DENSITY ALT 3800FT

CYQF;2015-07-28 18:00;CYQF 281800Z 33011G17KT 15SM FEW040 SCT250 19/09 A3001 RMK CU2CI2 SLP169 DENSITY ALT 4000FT

CYQF;2015-07-28 19:00;CYQF 281900Z 32010G17KT 15SM SCT048 SCT250 20/09 A3000 RMK CU4CI1 CI TR SLP168 DENSITY ALT 4100FT

CYQF;2015-07-28 20:00;CYQF 282000Z 30012KT 270V330 15SM SCT048 BKN100 20/08 A3000 RMK CU4AC1 SLP168 DENSITY ALT 4100FT

CYQF;2015-07-28 21:00;CYQF 282100Z 32007G15KT 15SM SCT050 21/09 A3000 RMK CU4 SLP168 DENSITY ALT 4200FT

CYQF;2015-07-28 22:00;CYQF 282200Z 32008KT 15SM SCT050 BKN090 21/09 A3000 RMK CU4AC2 SLP167 DENSITY ALT 4200FT

CYQF;2015-07-28 23:00;CYQF 282300Z 31009G15KT 15SM SCT050 BKN090 21/09 A3000 RMK CU3AC3 SLP165 DENSITY ALT 4200FT

CYQF;2015-07-29 00:00;CYQF 290000Z 35008G15KT 15SM FEW050 SCT090 22/10 A3000 RMK CU2AC2 SLP167 DENSITY ALT 4300FT

CYQF;2015-07-29 01:00;CYQF 290100Z 33007KT 15SM FEW050 21/09 A3001 RMK CU2 SLP168 DENSITY ALT 4200FT

CYQF;2015-07-29 02:00;CYQF 290200Z 33002KT 15SM FEW080 20/10 A3002 RMK AC2 CU EMBD SLP170 DENSITY ALT 4100FT

CYQF;2015-07-29 03:00;CYQF 290300Z 25004KT 15SM SCT080 17/11 A3002 RMK AC3 SLP172 DENSITY ALT 3700FT

CYQF;2015-07-29 04:00;CYQF 290400Z 25006KT 15SM SCT090 16/10 A3004 RMK AC4 SLP177 DENSITY ALT 3600FT

CYQF;2015-07-29 05:00;CYQF 290500Z 26006KT 15SM BKN090 15/10 A3005 RMK AC6 SLP180 DENSITY ALT 3500FT

CYQF;2015-07-29 06:00;CYQF 290600Z 33008KT 15SM SCT080 BKN120 15/09 A3006 RMK AC4AC3 SLP183 DENSITY ALT 3500FT

CYQF;2015-07-29 07:00;CYQF 290700Z 24007KT 15SM FEW090 13/08 A3007 RMK AC2 SLP186 DENSITY ALT 3200FT

CYQF;2015-07-29 08:00;CYQF 290800Z 28008KT 15SM FEW090 13/08 A3007 RMK AC2 SLP188 DENSITY ALT 3200FT

CYQF;2015-07-29 09:00;CYQF 290900Z 29007KT 15SM BKN090 12/08 A3008 RMK AC6 SLP190 DENSITY ALT 3100FT

CYQF;2015-07-29 10:00;CYQF 291000Z 19005KT 15SM SCT090 09/07 A3009 RMK AC3 SLP197

CYQF;2015-07-29 11:00;CYQF 291100Z 20003KT 15SM FEW090 BKN260 08/06 A3009 RMK AC1CI5 AC TR SLP199

CYQF;2015-07-29 12:00;CYQF 291200Z 21006KT 15SM FEW090 BKN260 08/07 A3010 RMK AC1CI6 SLP201

CYQF;2015-07-29 13:00;CYQF 291300Z 18004KT 15SM SCT130 BKN260 09/08 A3010 RMK AC4CI2 SLP199

CYQF;2015-07-29 14:00;CYQF 291400Z 21004KT 200V270 15SM BKN120 BKN250 12/09 A3010 RMK AC6CI1 SLP198 DENSITY ALT 3000FT

CYQF;2015-07-29 15:00;CYQF 291500Z 20005KT 15SM BKN100 BKN250 12/09 A3010 RMK AC5CI2 SLP201 DENSITY ALT 3100FT

CYQF;2015-07-29 16:00;CYQF 291600Z 18003KT 15SM BKN150 BKN280 16/10 A3009 RMK AC5CI2 SLP196 DENSITY ALT 3500FT

CYQF;2015-07-29 17:00;CYQF 291700Z 19005KT 15SM BKN100 BKN250 19/09 A3008 RMK AC5CI2 SLP191 DENSITY ALT 3800FT

CYQF;2015-07-29 18:00;CYQF 291800Z 16005KT 110V200 15SM FEW040TCU BKN100 BKN130 20/08 A3008 RMK TCU1AC4AC2 SLP187 DENSITY ALT 4000FT

CYQF;2015-07-29 19:00;CYQF 291900Z 17005KT 15SM FEW040TCU BKN130 20/11 A3007 RMK TCU1AC6 SLP186 DENSITY ALT 4000FT

CYQF;2015-07-29 20:00;CYQF 292000Z 24004KT 200V300 15SM FEW050CB BKN130 BKN280 22/09 A3006 RMK CB2AC3CI2 SLP182 DENSITY ALT 4200FT

CYQF;2015-07-29 21:00;CYQF 292100Z 25006KT 230V310 15SM FEW055CB BKN230 21/09 A3006 RMK CB2CI5 SLP181 DENSITY ALT 4200FT

CYQF;2015-07-29 22:00;CYQF 292200Z VRB03KT 15SM SCT055CB BKN230 22/08 A3006 RMK CB3CI3 SLP185 DENSITY ALT 4300FT

CYQF;2015-07-29 22:40;CYQF 292240Z 17002KT 15SM -TSRA BKN060CB OVC230 21/10 A3005 RMK CB6CI2 LTGCG NW SLP182 DENSITY ALT 4100FT

CYQF;2015-07-29 23:00;CYQF 292300Z 36023G39KT 6SM +TSRAGR OVC050CB 12/ A3009 RMK CB8 LTGCG E D.P. 9.2 QNH 3008 VIA CYQU SLP208 DENSITY ALT 3100FT

CYQF;2015-07-29 23:10;CYQF 292310Z 05005G//KT 15SM -SHRA BKN050CB 13/08 A3009 RMK CB7 LTCCG E WND ESTD SLP207 DENSITY ALT 3200FT

CYQF;2015-07-29 23:42;CYQF 292342Z 36005KT 15SM SCT050CB BKN100 16/11 A3009 RMK CB3AC2 SH E WND ESTD SLP204 DENSITY ALT 3500FT

CYQF;2015-07-30 00:00;CYQF 300000Z 05005KT 15SM FEW050CB SCT100 16/10 A3010 RMK CB2AC2 SH E WND ESTD SLP206 DENSITY ALT 3500FT

CYQF;2015-07-30 01:00;CYQF 300100Z 03006KT 020V110 15SM BKN095 16/11 A3011 RMK ACC5 CB TOP E SLP210 DENSITY ALT 3500FT

CYQF;2015-07-30 02:00;CYQF 300200Z 10006KT 15SM SCT090 17/11 A3012 RMK AC4 SLP210 DENSITY ALT 3600FT

CYQF;2015-07-30 03:00;CYQF 300300Z 20003KT 15SM SCT090 15/11 A3014 RMK AC3 SLP216 DENSITY ALT 3300FT

CYQF;2015-07-30 04:00;CYQF 300400Z 00000KT 15SM FEW090 11/09 A3015 RMK AC2 SLP222

CYQF;2015-07-30 05:00;CYQF 300500Z 24006KT 15SM FEW090 11/10 A3016 RMK AC2 SLP223

CYQF;2015-07-30 06:00;CYQF 300600Z 20004KT 15SM SCT090 10/09 A3017 RMK AC3 SLP225

CYQF;2015-07-30 07:00;CYQF 300700Z 22004KT 15SM BKN120 09/09 A3018 RMK AC5 SLP228

CYQF;2015-07-30 08:00;CYQF 300800Z 20005KT 15SM SCT120 09/08 A3018 RMK AC3 SLP229

CYQF;2015-07-30 09:00;CYQF 300900Z 23005KT 15SM SCT110 09/08 A3019 RMK AC4 SLP232

CYQF;2015-07-30 10:00;CYQF 301000Z 22004KT 15SM FEW110 08/07 A3020 RMK AC1 SLP234

CYQF;2015-07-30 11:00;CYQF 301100Z 18003KT 15SM FEW110 07/06 A3020 RMK AC1 SLP249

CYQF;2015-07-30 12:00;CYQF 301200Z 19006KT 15SM FEW090 BKN110 07/07 A3021 RMK ACC1AC6 SLP246

CYQF;2015-07-30 13:00;CYQF 301300Z 18003KT 090V210 15SM BKN100 09/08 A3022 RMK ACC5 SLP247

CYQF;2015-07-30 14:00;CYQF 301400Z 21003KT 15SM FEW100 11/09 A3023 RMK ACC1 SLP247

CYQF;2015-07-30 15:00;CYQF 301500Z 33004KT 240V010 15SM SKC 15/11 A3023 RMK SLP247 DENSITY ALT 3200FT

CYQF;2015-07-30 16:00;CYQF 301600Z 01004KT 340V060 15SM SKC 16/10 A3024 RMK SLP250 DENSITY ALT 3400FT

CYQF;2015-07-30 17:00;CYQF 301700Z 04006KT 350V070 15SM SKC 18/10 A3023 RMK SLP244 DENSITY ALT 3700FT

CYQF;2015-07-30 18:00;CYQF 301800Z 02006KT 310V040 15SM SKC 19/09 A3022 RMK SLP243 DENSITY ALT 3800FT

CYQF;2015-07-30 19:00;CYQF 301900Z VRB02KT 15SM FEW250 20/08 A3021 RMK CI1 SLP240 DENSITY ALT 3900FT

CYQF;2015-07-30 20:00;CYQF 302000Z 03004KT 350V100 15SM FEW045 SCT250 22/10 A3020 RMK CU1CI4 CU TR SLP235 DENSITY ALT 4100FT

CYQF;2015-07-30 21:00;CYQF 302100Z VRB02KT 15SM FEW045 SCT250 22/08 A3019 RMK CU1CI3 SLP231 DENSITY ALT 4100FT

CYQF;2015-07-30 22:00;CYQF 302200Z 02004KT 360V080 15SM FEW052TCU SCT250 23/09 A3017 RMK TCU1CI3 SLP225 DENSITY ALT 4200FT

CYQF;2015-07-30 23:00;CYQF 302300Z 08005KT 020V110 15SM FEW050 SCT250 23/10 A3017 RMK CU1CI3 SLP224 DENSITY ALT 4300FT

CYQF;2015-07-31 00:00;CYQF 310000Z 06007KT 010V080 15SM FEW050 SCT250 23/09 A3016 RMK CU1CI3 SLP221 DENSITY ALT 4200FT

CYQF;2015-07-31 01:00;CYQF 310100Z 09006KT 15SM FEW052 SCT250 22/10 A3016 RMK CU1CI3 CU TR SLP219 DENSITY ALT 4200FT

CYQF;2015-07-31 02:00;CYQF 310200Z 08005KT 15SM SCT250 21/12 A3015 RMK CI3 SLP217 DENSITY ALT 4000FT

CYQF;2015-07-31 03:00;CYQF 310300Z 08005KT 15SM SCT250 18/12 A3015 RMK CI3 SLP215 DENSITY ALT 3700FT

CYQF;2015-07-31 04:00;CYQF 310400Z 09005KT 15SM FEW250 15/11 A3016 RMK CI2 SLP220 DENSITY ALT 3300FT

CYQF;2015-07-31 05:00;CYQF 310500Z 08003KT 15SM FEW250 14/10 A3017 RMK CI2 SLP223 DENSITY ALT 3200FT

CYQF;2015-07-31 06:00;CYQF 310600Z 00000KT 15SM FEW250 14/10 A3018 RMK CI1 SLP224 DENSITY ALT 3200FT

CYQF;2015-07-31 07:00;CYQF 310700Z 21003KT 15SM SKC 12/09 A3018 RMK SLP226 DENSITY ALT 3000FT

CYQF;2015-07-31 08:00;CYQF 310800Z 21005KT 15SM SKC 12/09 A3018 RMK SLP226

CYQF;2015-07-31 09:00;CYQF 310900Z 20005KT 15SM SKC 11/08 A3019 RMK SLP227

CYQF;2015-07-31 10:00;CYQF 311000Z 19004KT 15SM SKC 09/07 A3018 RMK SLP228

CYQF;2015-07-31 11:00;CYQF 311100Z 14003KT 15SM SKC 09/07 A3017 RMK SLP222

CYQF;2015-07-31 12:00;CYQF 311200Z 27002KT 15SM MIFG FEW260 08/08 A3016 RMK CI1 SLP220

CYQF;2015-07-31 13:00;CYQF 311300Z 18003KT 15SM SKC 10/08 A3016 RMK SLP218

CYQF;2015-07-31 14:00;CYQF 311400Z 16003KT 130V200 15SM SKC 13/09 A3015 RMK SLP213 DENSITY ALT 3200FT

CYQF;2015-07-31 15:00;CYQF 311500Z 17006KT 15SM SKC 17/10 A3014 RMK SLP210 DENSITY ALT 3600FT

CYQF;2015-07-31 16:00;CYQF 311600Z 17010KT 15SM FEW270 20/10 A3013 RMK CI1 SLP204 DENSITY ALT 3900FT

CYQF;2015-07-31 17:00;CYQF 311700Z 17011KT 15SM FEW270 21/10 A3011 RMK CI2 SLP197 DENSITY ALT 4100FT

CYQF;2015-07-31 18:00;CYQF 311800Z 18008KT 15SM FEW270 23/12 A3009 RMK CI1 SLP191 DENSITY ALT 4300FT

CYQF;2015-07-31 19:00;CYQF 311900Z 17009KT 15SM FEW270 24/12 A3007 RMK CI2 SLP183 DENSITY ALT 4500FT

CYQF;2015-07-31 20:00;CYQF 312000Z 16010G16KT 15SM FEW050 SCT250 26/14 A3006 RMK CU1CI2 SLP177 DENSITY ALT 4700FT

CYQF;2015-07-31 21:00;CYQF 312100Z 17008KT 15SM FEW056 SCT270 27/12 A3004 RMK CU1CI2 SLP170 DENSITY ALT 4800FT

CYQF;2015-07-31 22:00;CYQF 312200Z 17011KT 15SM FEW060 SCT270 27/12 A3002 RMK CU1CI3 SLP165 DENSITY ALT 4900FT

CYQF;2015-07-31 23:00;CYQF 312300Z 15008KT 15SM FEW065 SCT270 28/11 A3000 RMK CU1CI3 SLP159 DENSITY ALT 5000FT

CYQF;2015-08-01 00:00;CYQF 010000Z 14008KT 15SM FEW060 SCT270 27/12 A2998 RMK CU1CI3 CU TR SLP153 DENSITY ALT 4900FT

CYQF;2015-08-01 01:00;CYQF 010100Z 13006KT 15SM SCT270 27/13 A2997 RMK CI3 SLP148 DENSITY ALT 4900FT

CYQF;2015-08-01 02:00;CYQF 010200Z 06004KT 15SM FEW030 FEW120 SCT270 24/17 A2996 RMK CF1AC2CI2 CF TR SLP146 DENSITY ALT 4500FT

CYQF;2015-08-01 03:00;CYQF 010300Z 03006KT 15SM FEW130 SCT270 20/15 A2997 RMK AC1CI3 SLP147 DENSITY ALT 4200FT

CYQF;2015-08-01 04:00;CYQF 010400Z 36003KT 15SM FEW130 SCT270 17/13 A2998 RMK ACC1CI3 SLP152 DENSITY ALT 3800FT

CYQF;2015-08-01 05:00;CYQF 010500Z 36007KT 15SM FEW130 SCT270 15/13 A2999 RMK ACC1CI2 SLP154 DENSITY ALT 3600FT

CYQF;2015-08-01 06:00;CYQF 010600Z 35006KT 15SM FEW130 BKN270 16/13 A2999 RMK AC1CI4 SLP153 DENSITY ALT 3600FT

CYQF;2015-08-01 07:00;CYQF 010700Z 02004KT 15SM FEW270 16/13 A2999 RMK CI2 SLP150 DENSITY ALT 3700FT

CYQF;2015-08-01 08:00;CYQF 010800Z 31002KT 15SM FEW270 14/12 A2999 RMK CI1 SLP153 DENSITY ALT 3400FT

CYQF;2015-08-01 09:00;CYQF 010900Z 36004KT 15SM FEW270 13/11 A2998 RMK CI1 SLP150 DENSITY ALT 3300FT

CYQF;2015-08-01 10:00;CYQF 011000Z 22003KT 15SM FEW270 12/11 A2997 RMK CI1 SLP145 DENSITY ALT 3200FT

CYQF;2015-08-01 11:00;CYQF 011100Z 27006KT 15SM FEW270 12/11 A2997 RMK CI2 SLP145 DENSITY ALT 3200FT

CYQF;2015-08-01 12:00;CYQF 011200Z 29007KT 15SM FEW130 SCT270 11/10 A2996 RMK AC1CI2 SLP144 DENSITY ALT 3100FT

CYQF;2015-08-01 13:00;CYQF 011300Z 34003KT 15SM FEW120 SCT270 12/11 A2998 RMK AC1CI2 SLP149 DENSITY ALT 3200FT

CYQF;2015-08-01 14:00;CYQF 011400Z 35003KT 290V030 15SM FEW120 BKN270 15/13 A3000 RMK AC1CI5 SLP156 DENSITY ALT 3500FT

CYQF;2015-08-01 15:00;CYQF 011500Z 01006KT 15SM BKN270 17/14 A3001 RMK CI5 SLP161 DENSITY ALT 3700FT

CYQF;2015-08-01 16:00;CYQF 011600Z 04009G15KT 15SM FEW100 SCT270 19/12 A3001 RMK AC1CI3 CC ASOCTD SLP163 DENSITY ALT 3900FT

CYQF;2015-08-01 17:00;CYQF 011700Z 02009KT 15SM FEW100 SCT270 20/13 A3002 RMK AC1CI3 SLP165 DENSITY ALT 4100FT

CYQF;2015-08-01 18:00;CYQF 011800Z 03010KT 350V050 15SM FEW040 SCT270 21/13 A3002 RMK CU1CI4 CU TR SLP164 DENSITY ALT 4200FT

CYQF;2015-08-01 19:00;CYQF 011900Z 02009KT 010V070 15SM FEW040 SCT270 22/12 A3001 RMK CU2CI2 SLP161 DENSITY ALT 4300FT

CYQF;2015-08-01 20:00;CYQF 012000Z 04011KT 360V060 15SM SCT040 BKN270 22/13 A3001 RMK CU3CI2 SLP162 DENSITY ALT 4300FT

CYQF;2015-08-01 21:00;CYQF 012100Z 04007KT 030V100 15SM SCT034 BKN270 23/13 A3000 RMK CU3CI3 SLP161 DENSITY ALT 4400FT

CYQF;2015-08-01 22:00;CYQF 012200Z 06006KT 010V080 15SM SCT028 BKN130 BKN270 22/14 A3001 RMK CU3AC2CI2 SLP164 DENSITY ALT 4300FT

CYQF;2015-08-01 23:00;CYQF 012300Z 04008KT 350V060 15SM SCT032 BKN130 BKN270 22/14 A3001 RMK CU3AC2CI2 SLP164 DENSITY ALT 4300FT

CYQF;2015-08-02 00:00;CYQF 020000Z 04006KT 15SM FEW040 SCT130 BKN270 22/13 A3001 RMK CU1AC2CI4 SLP167 DENSITY ALT 4300FT

CYQF;2015-08-02 01:00;CYQF 020100Z 02005KT 15SM FEW040 BKN150 BKN270 20/14 A3001 RMK CU1AC5CI1 SLP168 DENSITY ALT 4100FT

CYQF;2015-08-02 02:00;CYQF 020200Z 04004KT 15SM BKN150 BKN270 20/14 A3002 RMK AC5CI2 SLP169 DENSITY ALT 4000FT

CYQF;2015-08-02 03:00;CYQF 020300Z 07004KT 15SM BKN140 BKN250 17/14 A3003 RMK AC5CI1 SLP173 DENSITY ALT 3800FT

CYQF;2015-08-02 04:00;CYQF 020400Z 08002KT 15SM BKN140 BKN250 17/13 A3005 RMK AC5CI1 SLP175 DENSITY ALT 3700FT

CYQF;2015-08-02 05:00;CYQF 020500Z VRB02KT 15SM BKN140 15/13 A3005 RMK AC6 SLP177 DENSITY ALT 3500FT

CYQF;2015-08-02 06:00;CYQF 020600Z 20004KT 180V320 15SM BKN140 15/13 A3005 RMK AC7 SLP176 DENSITY ALT 3500FT

CYQF;2015-08-02 07:00;CYQF 020700Z 19002KT 15SM BKN070 15/14 A3006 RMK AC7 SLP178 DENSITY ALT 3500FT

CYQF;2015-08-02 08:00;CYQF 020800Z 19003KT 15SM SCT070 BKN120 15/13 A3006 RMK AC3AC3 SLP180 DENSITY ALT 3400FT

CYQF;2015-08-02 09:00;CYQF 020900Z 22004KT 15SM SCT080 BKN120 14/13 A3006 RMK AC4AC3 SLP179 DENSITY ALT 3300FT

CYQF;2015-08-02 10:00;CYQF 021000Z 18003KT 15SM BKN100 14/13 A3006 RMK AC7 SLP181 DENSITY ALT 3300FT

CYQF;2015-08-02 11:00;CYQF 021100Z 00000KT 15SM BKN080 14/13 A3006 RMK AC7 SLP181 DENSITY ALT 3300FT

CYQF;2015-08-02 12:00;CYQF 021200Z 18003KT 15SM BKN070 14/13 A3006 RMK ACC7 SLP180 DENSITY ALT 3400FT

CYQF;2015-08-02 13:00;CYQF 021300Z 00000KT 15SM BKN070 14/12 A3006 RMK ACC5 SLP184 DENSITY ALT 3300FT

CYQF;2015-08-02 14:00;CYQF 021400Z 16006KT 15SM BKN070 16/13 A3006 RMK AC5 SLP181 DENSITY ALT 3600FT

CYQF;2015-08-02 15:00;CYQF 021500Z 17007KT 15SM BKN070 19/14 A3006 RMK AC5 SLP178 DENSITY ALT 3900FT

CYQF;2015-08-02 16:00;CYQF 021600Z 17009KT 15SM SCT070 20/14 A3005 RMK AC3 SLP175 DENSITY ALT 4100FT

CYQF;2015-08-02 17:00;CYQF 021700Z 16013KT 15SM FEW040 SCT250 22/12 A3004 RMK CU1CI2 SLP173 DENSITY ALT 4200FT

CYQF;2015-08-02 18:00;CYQF 021800Z 18010G15KT 15SM FEW040 BKN110 BKN250 22/13 A3003 RMK CU1AC4CI1 SLP168 DENSITY ALT 4300FT

CYQF;2015-08-02 19:00;CYQF 021900Z 17009G16KT 15SM FEW040 SCT110 SCT250 24/14 A3001 RMK CU1AC2CI1 SLP161 DENSITY ALT 4500FT

CYQF;2015-08-02 20:00;CYQF 022000Z 15011G16KT 110V190 15SM FEW040 SCT250 24/13 A3000 RMK CU2CI2 SLP158 DENSITY ALT 4500FT

CYQF;2015-08-02 21:00;CYQF 022100Z 15012KT 15SM FEW044 BKN250 25/14 A2999 RMK CU1CI5 SLP153 DENSITY ALT 4600FT

CYQF;2015-08-02 22:00;CYQF 022200Z 18007KT 15SM FEW044 BKN250 25/14 A2997 RMK CU1CI5 SLP147 DENSITY ALT 4700FT

CYQF;2015-08-02 23:00;CYQF 022300Z 17009KT 15SM FEW050 BKN250 26/14 A2996 RMK CU1CI6 SLP143 DENSITY ALT 4800FT

CYQF;2015-08-03 00:00;CYQF 030000Z 15008KT 15SM FEW040 BKN250 26/14 A2996 RMK CU1CI7 CU TR SLP141 DENSITY ALT 4800FT

CYQF;2015-08-03 01:00;CYQF 030100Z 17005KT 15SM FEW040 BKN250 25/14 A2995 RMK CU1CI7 CU TR SLP138 DENSITY ALT 4700FT

CYQF;2015-08-03 02:00;CYQF 030200Z 12005KT 15SM FEW140 BKN250 23/16 A2994 RMK AC2CI4 SLP136 DENSITY ALT 4500FT

CYQF;2015-08-03 03:00;CYQF 030300Z 11005KT 15SM SCT140 BKN220 20/15 A2995 RMK AC4CI3 SLP138 DENSITY ALT 4200FT

CYQF;2015-08-03 04:00;CYQF 030400Z 08005KT 15SM SCT180 BKN250 18/14 A2995 RMK AC3CI3 SLP141 DENSITY ALT 3900FT

CYQF;2015-08-03 05:00;CYQF 030500Z 08004KT 15SM SCT160 BKN200 17/13 A2995 RMK AC3CI3 SLP138 DENSITY ALT 3800FT

CYQF;2015-08-03 06:00;CYQF 030600Z 14010KT 15SM SCT180 BKN270 18/12 A2994 RMK AC4CI2 SLP134 DENSITY ALT 4000FT

CYQF;2015-08-03 07:00;CYQF 030700Z 14010KT 15SM BKN170 18/11 A2994 RMK AC6 SLP132 DENSITY ALT 4000FT

CYQF;2015-08-03 08:00;CYQF 030800Z 14010KT 15SM BKN160 17/11 A2993 RMK AC6 SLP129 DENSITY ALT 3800FT

CYQF;2015-08-03 09:00;CYQF 030900Z 16008KT 15SM BKN160 15/11 A2992 RMK AC5 SLP127 DENSITY ALT 3600FT

CYQF;2015-08-03 10:00;CYQF 031000Z 16006KT 15SM SCT140 14/11 A2990 RMK AC3 SLP123 DENSITY ALT 3500FT

CYQF;2015-08-03 11:00;CYQF 031100Z 15006KT 15SM FEW140 BKN250 14/11 A2990 RMK AC2CI3 SLP121 DENSITY ALT 3500FT

CYQF;2015-08-03 12:00;CYQF 031200Z 13006KT 15SM FEW140 BKN270 13/10 A2988 RMK AC1CI5 SLP116 DENSITY ALT 3400FT

CYQF;2015-08-03 13:00;CYQF 031300Z 17003KT 15SM FEW140 BKN270 13/11 A2988 RMK AC1CI5 SLP117 DENSITY ALT 3500FT

CYQF;2015-08-03 14:00;CYQF 031400Z 17006KT 15SM FEW120 BKN270 16/12 A2988 RMK AC2CI4 SLP116 DENSITY ALT 3700FT

CYQF;2015-08-03 15:00;CYQF 031500Z 16009KT 15SM FEW120 BKN270 17/12 A2988 RMK AC1CI4 SLP116 DENSITY ALT 3900FT

CYQF;2015-08-03 16:00;CYQF 031600Z 15008KT 15SM SCT270 19/13 A2987 RMK CI4 SLP115 DENSITY ALT 4100FT

CYQF;2015-08-03 17:00;CYQF 031700Z 18007KT 130V200 15SM SCT270 21/14 A2986 RMK CI3 SLP111 DENSITY ALT 4300FT

CYQF;2015-08-03 18:00;CYQF 031800Z 16007KT 100V200 15SM BKN270 23/15 A2986 RMK CI6 SLP104 DENSITY ALT 4600FT

CYQF;2015-08-03 19:00;CYQF 031900Z 12006KT 12SM BKN270 25/16 A2984 RMK CI6 HZ SLP097 DENSITY ALT 4800FT

CYQF;2015-08-03 20:00;CYQF 032000Z 12006KT 12SM BKN270 25/16 A2983 RMK CI6 HZ SLP095 DENSITY ALT 4900FT

CYQF;2015-08-03 21:00;CYQF 032100Z 14008KT 15SM BKN270 27/15 A2982 RMK CI6 HZ SLP092 DENSITY ALT 5000FT

CYQF;2015-08-03 22:00;CYQF 032200Z 14009KT 12SM BKN270 27/17 A2981 RMK CI6 HZ SLP087 DENSITY ALT 5100FT

CYQF;2015-08-03 23:00;CYQF 032300Z 11007KT 12SM SCT160 BKN270 26/16 A2979 RMK AC3CI4 HZ SLP084 DENSITY ALT 5000FT

CYQF;2015-08-04 00:00;CYQF 040000Z 12006KT 12SM BKN150 25/17 A2978 RMK AC7 SLP080 DENSITY ALT 4900FT

CYQF;2015-08-04 01:00;CYQF 040100Z 10004KT 12SM BKN150 25/18 A2976 RMK AC7 HZ SLP076 DENSITY ALT 4900FT

CYQF;2015-08-04 02:00;CYQF 040200Z 00000KT 12SM OVC150 23/19 A2976 RMK AC8 SLP073 DENSITY ALT 4700FT

CYQF;2015-08-04 03:00;CYQF 040300Z 00000KT 12SM FEW020CB BKN110 OVC250 23/18 A2976 RMK CB2AC5CI1 CB S SLP074 DENSITY ALT 4700FT

CYQF;2015-08-04 04:00;CYQF 040400Z 19007KT 12SM OVC100 22/17 A2978 RMK AC8 SLP079 DENSITY ALT 4500FT

CYQF;2015-08-04 04:34;CYQF 040434Z 17007KT 10SM -SHRA OVC100 20/17 A2978 RMK AC8 SLP079 DENSITY ALT 4400FT

CYQF;2015-08-04 05:00;CYQF 040500Z 19007KT 8SM -SHRA OVC100 20/16 A2978 RMK AC8 CB EMBDD LTNG N-S SLP080 DENSITY ALT 4400FT

CYQF;2015-08-04 05:07;CYQF 040507Z 20009KT 10SM -TSRA SCT080CB OVC100 21/16 A2979 RMK CB4AC4 LTGCG E SLP081 DENSITY ALT 4400FT

CYQF;2015-08-04 05:32;CYQF 040532Z 18005KT 10SM -SHRA OVC100 20/16 A2979 RMK AC8 SLP084 DENSITY ALT 4300FT

CYQF;2015-08-04 06:00;CYQF 040600Z VRB03KT 10SM -SHRA OVC110 20/15 A2980 RMK AC8 SLP082 DENSITY ALT 4400FT

CYQF;2015-08-04 07:00;CYQF 040700Z VRB02KT 10SM -SHRA SCT110 OVC150 19/14 A2979 RMK AC3AC5 SLP078 DENSITY ALT 4200FT

CYQF;2015-08-04 07:28;CYQF 040728Z 14006KT 130V190 15SM OVC100 18/15 A2979 RMK AC8 SLP080 DENSITY ALT 4100FT

CYQF;2015-08-04 08:00;CYQF 040800Z 18004KT 15SM OVC100 18/15 A2978 RMK AC8 SLP077 DENSITY ALT 4100FT

CYQF;2015-08-04 09:00;CYQF 040900Z 17005KT 15SM OVC100 17/14 A2978 RMK AC8 SLP076 DENSITY ALT 4000FT

CYQF;2015-08-04 10:00;CYQF 041000Z 22003KT 15SM OVC100 18/13 A2977 RMK AC8 SLP071 DENSITY ALT 4100FT

CYQF;2015-08-04 11:00;CYQF 041100Z 19007KT 60SM -SHRA OVC110 18/12 A2981 RMK AC8 PRESRR SLP086 DENSITY ALT 4100FT

CYQF;2015-08-04 11:48;CYQF 041148Z 29012G17KT 220V310 10SM -SHRA SCT060 OVC090 18/11 A2984 RMK SC3AC5 WSHFT 1141 PRESRR SLP095 DENSITY ALT 4100FT

CYQF;2015-08-04 12:00;CYQF 041200Z 28006KT 10SM -SHRA SCT060 OVC100 18/11 A2986 RMK SC3AC5 PRESRR SLP103 DENSITY ALT 4000FT

CYQF;2015-08-04 13:00;CYQF 041300Z 33009G19KT 10SM -SHRA BKN019 OVC120 15/13 A2989 RMK SC5AC3 SLP116 DENSITY ALT 3700FT

CYQF;2015-08-04 14:00;CYQF 041400Z 34006KT 15SM SCT021 OVC110 14/11 A2991 RMK SC3AC5 OCNL -SHRA SLP126 DENSITY ALT 3500FT

CYQF;2015-08-04 15:00;CYQF 041500Z 30008KT 12SM -SHRA BKN020 OVC100 14/11 A2992 RMK SC6AC2 SLP132 DENSITY ALT 3400FT

CYQF;2015-08-04 16:00;CYQF 041600Z 32004KT 12SM -SHRA OVC022 13/11 A2992 RMK SC8 SLP134 DENSITY ALT 3400FT

CYQF;2015-08-04 16:41;CYQF 041641Z 32004KT 15SM OVC024 14/10 A2993 RMK SC8 SLP136 DENSITY ALT 3500FT

CYQF;2015-08-04 17:00;CYQF 041700Z 31006KT 15SM OVC023 15/10 A2993 RMK SC8 SLP135 DENSITY ALT 3600FT

CYQF;2015-08-04 18:00;CYQF 041800Z 33008KT 15SM BKN020 OVC100 16/10 A2993 RMK SC7AC1 SLP135 DENSITY ALT 3700FT

CYQF;2015-08-04 19:00;CYQF 041900Z 33012KT 15SM BKN023 18/11 A2993 RMK SC7 SLP135 DENSITY ALT 3900FT

CYQF;2015-08-04 20:00;CYQF 042000Z 36007KT 15SM FEW024 FEW250 20/12 A2992 RMK SC2CI1 CI TR SLP131 DENSITY ALT 4100FT

CYQF;2015-08-04 21:00;CYQF 042100Z 36009KT 290V050 15SM FEW035 FEW100 SCT250 21/13 A2991 RMK CU1AC1CI1 SLP125 DENSITY ALT 4300FT

CYQF;2015-08-04 22:00;CYQF 042200Z 01007G15KT 15SM FEW040 SCT090 20/12 A2991 RMK CU2AC2 SLP126 DENSITY ALT 4200FT

CYQF;2015-08-04 23:00;CYQF 042300Z 35010KT 330V030 15SM FEW036 BKN140 BKN250 20/12 A2991 RMK CU2AC3CI2 SLP126 DENSITY ALT 4200FT

CYQF;2015-08-05 00:00;CYQF 050000Z 31008KT 15SM SCT040 BKN130 19/12 A2994 RMK SC3AC4 VCSH SLP137 DENSITY ALT 4000FT

CYQF;2015-08-05 01:00;CYQF 050100Z 27009G15KT 15SM VCSH SCT045 OVC120 15/10 A2995 RMK SC3AC5 SLP150 DENSITY ALT 3600FT

CYQF;2015-08-05 01:12;CYQF 050112Z 27009KT 12SM -RA SCT045 OVC095 15/10 A2996 RMK SC3AC5 SLP151 DENSITY ALT 3600FT

CYQF;2015-08-05 02:00;CYQF 050200Z 27005KT 12SM -RA FEW045 OVC095 14/12 A2995 RMK SC1AC7 TCU TOPS DIST N SLP151 DENSITY ALT 3400FT

CYQF;2015-08-05 02:25;CYQF 050225Z 19004KT 170V250 8SM -SHRA FEW045 OVC085 14/12 A2995 RMK SC1AC7 SLP151 DENSITY ALT 3400FT

CYQF;2015-08-05 03:00;CYQF 050300Z 00000KT 10SM -SHRA FEW020 OVC090 14/12 A2994 RMK SC1AC7 SLP148 DENSITY ALT 3400FT

CYQF;2015-08-05 03:48;CYQF 050348Z 26007KT 12SM FEW020 SCT090 BKN120 13/12 A2995 RMK SC1AC3AC3 SLP153 DENSITY ALT 3300FT

CYQF;2015-08-05 04:00;CYQF 050400Z 24006KT 12SM -RA FEW020 SCT090 BKN160 13/12 A2995 RMK SC1AC3AC3 SLP154 DENSITY ALT 3300FT

CYQF;2015-08-05 04:21;CYQF 050421Z 25006KT 15SM SCT090 BKN180 13/11 A2996 RMK AC3AC4 SLP156 DENSITY ALT 3300FT

CYQF;2015-08-05 05:00;CYQF 050500Z 24006KT 15SM SCT090 OVC200 12/11 A2995 RMK AC3CI5 SLP154 DENSITY ALT 3300FT

CYQF;2015-08-05 06:00;CYQF 050600Z 04004KT 15SM SCT070 OVC210 13/12 A2995 RMK AC3CI5 SLP150 DENSITY ALT 3300FT

CYQF;2015-08-05 07:00;CYQF 050700Z 34002KT 15SM SCT075 BKN250 12/11 A2994 RMK AC4CI1 SLP144 DENSITY ALT 3200FT

CYQF;2015-08-05 07:46;CYQF 050746Z 19004KT 1SM BR SCT080 10/10 A2994 RMK AC3 SLP146 DENSITY ALT 3000FT

CYQF;2015-08-05 07:54;CYQF 050754Z 19004KT 10SM SCT080 11/10 A2993 RMK AC4 SLP144 DENSITY ALT 3100FT

CYQF;2015-08-05 08:00;CYQF 050800Z 21004KT 15SM SCT080 11/10 A2993 RMK AC4 SLP142 DENSITY ALT 3100FT

CYQF;2015-08-05 09:00;CYQF 050900Z 27004KT 15SM SCT085 12/11 A2993 RMK AC4 SLP140 DENSITY ALT 3200FT

CYQF;2015-08-05 10:00;CYQF 051000Z 28002KT 15SM FEW070 BKN180 10/10 A2992 RMK AC2AC3 SLP138 DENSITY ALT 3100FT

CYQF;2015-08-05 11:00;CYQF 051100Z 18004KT 15SM FEW019 BKN085 BKN250 09/08 A2993 RMK SC2AC3CI2 SLP141

CYQF;2015-08-05 12:00;CYQF 051200Z 15005KT 4SM BR SCT022 BKN065 OVC250 10/09 A2992 RMK SC3SC3CI2 SLP140 DENSITY ALT 3000FT

CYQF;2015-08-05 13:00;CYQF 051300Z 21003KT 8SM FEW022 SCT040 OVC070 10/10 A2992 RMK CU1SC2ACC5 SLP143 DENSITY ALT 3100FT

CYQF;2015-08-05 14:00;CYQF 051400Z 22003KT 10SM SCT027 BKN060 OVC100 12/11 A2991 RMK CU3SC2ACC3 SLP140 DENSITY ALT 3300FT

CYQF;2015-08-05 14:07;CYQF 051407Z 20004KT 180V240 10SM TS VCSH SCT028 BKN060 OVC100 12/11 A2991 RMK CU4SC2ACC2 SLP139 DENSITY ALT 3300FT

CYQF;2015-08-05 14:50;CYQF 051450Z 21002KT 10SM -TSRA FEW008 BKN015CB OVC040 13/12 A2991 RMK SF2CB4SC2 LTGCG W VIS N 5 SLP140 DENSITY ALT 3400FT

CYQF;2015-08-05 15:00;CYQF 051500Z 19005KT 190V250 10SM -TSRA FEW008 BKN016CB OVC040 13/12 A2992 RMK SF2CB4SC2 LTGCG W VIS N 5 SLP141 DENSITY ALT 3400FT

CYQF;2015-08-05 15:04;CYQF 051504Z 22003KT 190V260 3SM TSRA FEW008 BKN020CB OVC039 13/12 A2992 RMK SF2CB4SC2 LTGCG W SLP141 DENSITY ALT 3300FT

CYQF;2015-08-05 15:14;CYQF 051514Z 01009G17KT 240V040 5SM -TSRA FEW005 BKN030CB OVC045 12/11 A2991 RMK SF2CB4SC2 LTGCG VIS N 2 S 10 SLP139 DENSITY ALT 3300FT

CYQF;2015-08-05 15:54;CYQF 051554Z VRB02KT 10SM -SHRA FEW005 BKN033CB OVC080 13/12 A2991 RMK SF2CB4AC2 SLP138 DENSITY ALT 3400FT

CYQF;2015-08-05 16:00;CYQF 051600Z 35003KT 220V360 8SM -SHRA FEW005 BKN040CB OVC070 13/12 A2990 RMK SF2CB3AC3 SLP136 DENSITY ALT 3400FT

CYQF;2015-08-05 16:34;CYQF 051634Z 35007KT 15SM TS VCSH SCT008 BKN040CB BKN070 14/12 A2992 RMK SF3CB3AC1 LTGCG S SLP142 DENSITY ALT 3500FT

CYQF;2015-08-05 16:53;CYQF 051653Z 31006KT 300V010 8SM TSRA BKN010 OVC045CB 14/12 A2992 RMK SF5CB3 LTGCG SW SLP143 DENSITY ALT 3400FT

CYQF;2015-08-05 17:00;CYQF 051700Z VRB02KT 8SM TSRA BKN009 OVC045CB 13/12 A2993 RMK SF5CB3 LTNG OVRHD SLP146 DENSITY ALT 3400FT

CYQF;2015-08-05 17:21;CYQF 051721Z 03003KT 360V100 15SM VCSH SCT010 BKN040CB BKN060 13/12 A2992 RMK SF3CB2SC2 SLP142 DENSITY ALT 3400FT

CYQF;2015-08-05 18:00;CYQF 051800Z 10003KT 360V150 15SM SCT015 BKN050 15/12 A2991 RMK CU3SC4 CB TOP E SLP138 DENSITY ALT 3600FT

CYQF;2015-08-05 19:00;CYQF 051900Z 01004KT 310V050 15SM FEW024 BKN260 17/11 A2989 RMK CU2CI3 CB TOP DIST SW SLP128 DENSITY ALT 3900FT

CYQF;2015-08-05 20:00;CYQF 052000Z 00000KT 15SM SCT032TCU BKN260 18/11 A2988 RMK TCU3CI4 SLP127 DENSITY ALT 4000FT

CYQF;2015-08-05 21:00;CYQF 052100Z 34003KT 280V010 15SM SCT032TCU OVC220 19/10 A2988 RMK TCU4CI4 CB TOP W SLP126 DENSITY ALT 4100FT

CYQF;2015-08-05 22:00;CYQF 052200Z 02003KT 320V060 15SM SCT020TCU BKN050CB BKN220 17/12 A2986 RMK TCU3CB3CI1 SLP122 DENSITY ALT 4000FT

CYQF;2015-08-05 23:00;CYQF 052300Z 13005KT 010V140 15SM VCSH FEW013 BKN050CB BKN220 17/13 A2988 RMK SF1CB6CI1 SF TR OCNL LTGCG DIST S-SW SLP129 DENSITY ALT 3800FT

CYQF;2015-08-06 00:00;CYQF 060000Z 32014KT 230V330 15SM SCT040CB BKN100 BKN220 17/12 A2989 RMK CB3AC2CI2 SLP133 DENSITY ALT 3900FT

CYQF;2015-08-06 01:00;CYQF 060100Z 36007KT 15SM SCT065CB BKN100 BKN220 14/10 A2989 RMK CB3AC2CI2 SLP134 DENSITY ALT 3500FT

CYQF;2015-08-06 02:00;CYQF 060200Z 02004KT 15SM FEW065TCU BKN140 BKN220 14/11 A2989 RMK TCU2AC4CI1 SLP133 DENSITY ALT 3500FT

CYQF;2015-08-06 03:00;CYQF 060300Z 00000KT 15SM FEW065TCU BKN140 BKN220 14/12 A2990 RMK TCU1AC5CI1 SLP135 DENSITY ALT 3500FT

CYQF;2015-08-06 04:00;CYQF 060400Z 27004KT 15SM FEW065TCU BKN140 13/11 A2991 RMK TCU1AC6 SLP139 DENSITY ALT 3300FT

CYQF;2015-08-06 05:00;CYQF 060500Z 28004KT 15SM FEW065TCU BKN140 BKN180 12/10 A2990 RMK TCU1AC4AC2 SLP136 DENSITY ALT 3200FT

CYQF;2015-08-06 06:00;CYQF 060600Z 00000KT 15SM BKN140 OVC250 11/10 A2989 RMK AC6CI2 SLP132 DENSITY ALT 3200FT

CYQF;2015-08-06 07:00;CYQF 060700Z 01002KT 15SM BKN110 OVC250 11/10 A2989 RMK AC7CI1 SLP130 DENSITY ALT 3200FT

CYQF;2015-08-06 08:00;CYQF 060800Z 00000KT 15SM SCT070 OVC110 11/10 A2989 RMK AC3AC5 SLP129 DENSITY ALT 3200FT

CYQF;2015-08-06 09:10;CYQF 060910Z 23003KT 15SM -SHRA OVC070 11/10 A2988 RMK AC8 SLP126 DENSITY ALT 3200FT

CYQF;2015-08-06 10:00;CYQF 061000Z 32003KT 310V050 15SM -SHRA OVC070 11/10 A2987 RMK AC8 SLP122 DENSITY ALT 3200FT

CYQF;2015-08-06 11:00;CYQF 061100Z 32003KT 230V340 15SM BKN110 11/10 A2985 RMK AC6 SLP118 DENSITY ALT 3200FT

CYQF;2015-08-06 12:00;CYQF 061200Z 27005KT 10SM BKN061 OVC110 11/10 A2987 RMK SC6AC2 SLP123 DENSITY ALT 3200FT

CYQF;2015-08-06 13:00;CYQF 061300Z 25003KT 200V270 15SM BKN044 OVC110 11/10 A2986 RMK SC5AC3 SLP125 DENSITY ALT 3200FT

CYQF;2015-08-06 14:00;CYQF 061400Z 29005KT 15SM FEW012 BKN045 OVC110 11/10 A2986 RMK SF1SC5AC2 SLP125 DENSITY ALT 3200FT

CYQF;2015-08-06 14:30;CYQF 061430Z VRB02KT 10SM -SHRA SCT012 BKN020 OVC048 11/10 A2987 RMK SF3SC3SC2 SLP127 DENSITY ALT 3200FT

CYQF;2015-08-06 14:45;CYQF 061445Z 21003KT 160V220 10SM -SHRA SCT008 BKN020 OVC050 11/11 A2987 RMK SF4SC2SC2 SLP127 DENSITY ALT 3200FT

CYQF;2015-08-06 15:00;CYQF 061500Z 25004KT 7SM -SHRA BKN007 OVC050 11/11 A2987 RMK SF6SC2 SLP125 DENSITY ALT 3200FT

CYQF;2015-08-06 15:29;CYQF 061529Z 29003KT 10SM -SHRA SCT008 OVC054 12/11 A2986 RMK SF4SC4 SLP124 DENSITY ALT 3300FT

CYQF;2015-08-06 16:00;CYQF 061600Z 31003KT 12SM FEW008 OVC046 12/11 A2987 RMK SF2SC6 SLP127 DENSITY ALT 3300FT

CYQF;2015-08-06 17:00;CYQF 061700Z 31007KT 12SM -SHRA SCT012 OVC040 12/10 A2987 RMK SF3SC5 SLP127 DENSITY ALT 3400FT

CYQF;2015-08-06 18:00;CYQF 061800Z 31005KT 12SM -SHRA FEW012 SCT040 OVC070 13/11 A2986 RMK SF2SC2AC4 SLP125 DENSITY ALT 3500FT

CYQF;2015-08-06 18:47;CYQF 061847Z 32008KT 12SM FEW012 SCT040 OVC120 14/11 A2986 RMK SF1SC2AC5 TCU TOPS DIST W-NW SLP122 DENSITY ALT 3600FT

CYQF;2015-08-06 19:00;CYQF 061900Z 33007KT 12SM FEW018 SCT040 BKN120 14/11 A2986 RMK SF1SC2AC4 TCU TOPS DIST W-NW SLP123 DENSITY ALT 3600FT

CYQF;2015-08-06 20:00;CYQF 062000Z 35007KT 12SM SCT012 BKN110 OVC240 15/11 A2986 RMK CU3AC3CI2 SLP121 DENSITY ALT 3700FT

CYQF;2015-08-06 21:00;CYQF 062100Z 01006KT 15SM SCT020 BKN100 BKN240 16/12 A2986 RMK CU3AC2CI2 SLP121 DENSITY ALT 3700FT

CYQF;2015-08-06 22:00;CYQF 062200Z 35004KT 310V020 15SM SCT020 BKN120 OVC240 16/11 A2985 RMK CU3AC4CI1 SLP118 DENSITY ALT 3800FT

CYQF;2015-08-06 23:00;CYQF 062300Z 34006KT 310V050 15SM SCT025TCU OVC200 17/11 A2984 RMK TCU3CI5 SLP114 DENSITY ALT 3900FT

CYQF;2015-08-07 00:00;CYQF 070000Z 32005KT 310V010 15SM SCT025TCU BKN120 OVC210 17/11 A2986 RMK TCU4AC1CI3 SH DIST W SLP119 DENSITY ALT 3900FT

CYQF;2015-08-07 00:37;CYQF 070037Z 30014G20KT 10SM -SHRA FEW010 BKN037TCU OVC210 14/10 A2986 RMK SF1TCU7CI1 SF TR SLP125 DENSITY ALT 3500FT

CYQF;2015-08-07 01:00;CYQF 070100Z 32012G17KT 10SM -SHRA BKN035TCU OVC075 13/11 A2987 RMK TCU5AC3 SLP127 DENSITY ALT 3400FT

CYQF;2015-08-07 01:25;CYQF 070125Z 33005KT 15SM SCT035 BKN070 13/11 A2985 RMK CU3AC4 SLP121 DENSITY ALT 3400FT

CYQF;2015-08-07 02:00;CYQF 070200Z 28006KT 15SM SCT035 BKN090 13/12 A2985 RMK CU3AC4 SLP121 DENSITY ALT 3500FT

CYQF;2015-08-07 03:00;CYQF 070300Z 29006KT 15SM SCT100 BKN250 12/11 A2987 RMK AC3CI3 SLP127 DENSITY ALT 3400FT

CYQF;2015-08-07 04:00;CYQF 070400Z 29007KT 15SM SCT070 BKN110 12/11 A2988 RMK AC4AC2 ACC ASOCTD SLP130 DENSITY ALT 3300FT

CYQF;2015-08-07 05:00;CYQF 070500Z 28007KT 15SM SCT070 BKN110 11/10 A2988 RMK AC4AC3 SLP133 DENSITY ALT 3200FT

CYQF;2015-08-07 06:00;CYQF 070600Z 24002KT 15SM BKN080 OVC120 11/10 A2988 RMK AC6AC2 SLP131 DENSITY ALT 3200FT

CYQF;2015-08-07 07:00;CYQF 070700Z 23004KT 15SM SCT080 BKN120 11/10 A2988 RMK AC4AC1 SLP132 DENSITY ALT 3100FT

CYQF;2015-08-07 08:00;CYQF 070800Z VRB02KT 15SM SCT085 BKN120 10/09 A2988 RMK AC4AC2 SLP132 DENSITY ALT 3000FT

CYQF;2015-08-07 09:00;CYQF 070900Z 26005KT 15SM FEW080 SCT250 09/08 A2988 RMK AC2CI2 SLP131 DENSITY ALT 3000FT

CYQF;2015-08-07 10:00;CYQF 071000Z 26006KT 15SM FEW100 09/08 A2988 RMK AC2 SLP131 DENSITY ALT 3000FT

CYQF;2015-08-07 11:00;CYQF 071100Z 24003KT 15SM FEW100 08/07 A2988 RMK AC2 SLP132

CYQF;2015-08-07 12:00;CYQF 071200Z 24005KT 15SM FEW080 08/07 A2989 RMK AC2 SLP133

CYQF;2015-08-07 13:00;CYQF 071300Z 24006KT 15SM FEW080 08/08 A2990 RMK AC2 SLP142

CYQF;2015-08-07 14:00;CYQF 071400Z 26005KT 15SM SCT100 11/09 A2990 RMK AC4 SLP138 DENSITY ALT 3200FT

CYQF;2015-08-07 15:00;CYQF 071500Z 29006KT 15SM SCT100 14/11 A2991 RMK AC3 SLP139 DENSITY ALT 3500FT

CYQF;2015-08-07 16:00;CYQF 071600Z 29006KT 15SM SCT080 16/11 A2990 RMK AC3 SLP135 DENSITY ALT 3700FT

CYQF;2015-08-07 17:00;CYQF 071700Z 31007KT 270V350 15SM FEW024 FEW100 18/11 A2990 RMK CU2AC1 AC TR SLP133 DENSITY ALT 3900FT

CYQF;2015-08-07 18:00;CYQF 071800Z 29007KT 260V330 15SM SCT030 19/12 A2990 RMK CU3 SLP130 DENSITY ALT 4100FT

CYQF;2015-08-07 19:00;CYQF 071900Z 31009G17KT 260V330 15SM BKN043TCU 20/11 A2989 RMK TCU6 SLP128 DENSITY ALT 4200FT

CYQF;2015-08-07 20:00;CYQF 072000Z 33007G17KT 15SM BKN045 20/11 A2989 RMK CU5 SLP127 DENSITY ALT 4200FT

CYQF;2015-08-07 21:00;CYQF 072100Z 34007G15KT 280V040 15SM SCT050 21/11 A2989 RMK CU4 SLP128 DENSITY ALT 4300FT

CYQF;2015-08-07 22:00;CYQF 072200Z 33008KT 290V360 15SM SCT050 22/10 A2988 RMK CU4 SLP125 DENSITY ALT 4400FT

CYQF;2015-08-07 23:00;CYQF 072300Z 32007KT 15SM SCT045 22/11 A2987 RMK CU3 SLP122 DENSITY ALT 4400FT

CYQF;2015-08-08 00:00;CYQF 080000Z 04006KT 15SM FEW040 21/12 A2987 RMK CU1 SLP121 DENSITY ALT 4400FT

CYQF;2015-08-08 01:00;CYQF 080100Z 04003KT 010V080 15SM FEW040 21/10 A2986 RMK CU1 SLP120 DENSITY ALT 4300FT

CYQF;2015-08-08 02:00;CYQF 080200Z VRB02KT 15SM FEW050 21/12 A2987 RMK SC1 SLP119 DENSITY ALT 4300FT

CYQF;2015-08-08 03:00;CYQF 080300Z 15005KT 15SM FEW060 17/12 A2988 RMK SC1 SLP122 DENSITY ALT 3900FT

CYQF;2015-08-08 04:00;CYQF 080400Z 15003KT 15SM FEW060 15/11 A2988 RMK SC1 SLP124 DENSITY ALT 3700FT

CYQF;2015-08-08 05:00;CYQF 080500Z 19006KT 15SM FEW060 13/10 A2989 RMK SC2 SLP126 DENSITY ALT 3400FT

CYQF;2015-08-08 06:00;CYQF 080600Z 18002KT 15SM SKC 12/09 A2989 RMK SLP126 DENSITY ALT 3300FT

CYQF;2015-08-08 07:00;CYQF 080700Z 21003KT 15SM FEW060 11/09 A2989 RMK SC1 SLP128 DENSITY ALT 3200FT

CYQF;2015-08-08 08:00;CYQF 080800Z 19004KT 15SM SCT080 11/09 A2989 RMK AC3 SLP127 DENSITY ALT 3200FT

CYQF;2015-08-08 09:00;CYQF 080900Z VRB02KT 15SM FEW080 09/08 A2989 RMK AC1 SLP127

CYQF;2015-08-08 10:00;CYQF 081000Z 00000KT 15SM SCT110 10/09 A2989 RMK AC3 SLP128 DENSITY ALT 3000FT

CYQF;2015-08-08 11:00;CYQF 081100Z 00000KT 15SM SCT110 10/08 A2990 RMK AC3 SLP129 DENSITY ALT 3000FT

CYQF;2015-08-08 12:00;CYQF 081200Z VRB02KT 15SM SCT110 08/08 A2989 RMK AC3 SLP129

CYQF;2015-08-08 13:00;CYQF 081300Z 00000KT 15SM FEW110 FEW260 09/08 A2989 RMK AC1CI1 SLP128

CYQF;2015-08-08 14:00;CYQF 081400Z 18003KT 15SM FEW110 FEW260 12/10 A2989 RMK AC1CI1 SLP126 DENSITY ALT 3300FT

CYQF;2015-08-08 15:00;CYQF 081500Z 19005KT 15SM 14/11 A2990 RMK SLP130 DENSITY ALT 3500FT

CYQF;2015-08-08 16:00;CYQF 081600Z 21006KT 15SM FEW260 16/11 A2990 RMK CI1 SLP129 DENSITY ALT 3800FT

CYQF;2015-08-08 17:00;CYQF 081700Z 17004KT 120V190 15SM FEW024 FEW260 19/12 A2989 RMK CU1CI1 CU TR CI TR SLP126 DENSITY ALT 4100FT

CYQF;2015-08-08 18:00;CYQF 081800Z 17004KT 140V200 15SM FEW030 FEW260 21/10 A2989 RMK CU1CI1 SLP125 DENSITY ALT 4300FT

CYQF;2015-08-08 19:00;CYQF 081900Z 18006KT 15SM FEW048TCU FEW260 23/10 A2988 RMK TCU1CI1 SLP120 DENSITY ALT 4600FT

CYQF;2015-08-08 20:00;CYQF 082000Z 18005KT 150V250 15SM FEW064TCU FEW260 24/09 A2987 RMK TCU1CI1 SLP117 DENSITY ALT 4700FT

CYQF;2015-08-08 21:00;CYQF 082100Z VRB02KT 15SM FEW056TCU 25/07 A2987 RMK TCU1 SLP118 DENSITY ALT 4700FT

CYQF;2015-08-08 22:00;CYQF 082200Z 18005KT 100V200 15SM FEW055 FEW260 25/10 A2987 RMK CU1CI1 SLP118 DENSITY ALT 4800FT

CYQF;2015-08-08 23:00;CYQF 082300Z 18004KT 160V230 15SM FEW060 SCT260 25/09 A2987 RMK CU2CI1 SLP116 DENSITY ALT 4800FT

CYQF;2015-08-09 00:00;CYQF 090000Z 18004KT 15SM FEW060 SCT260 25/09 A2987 RMK CU2CI1 SLP118 DENSITY ALT 4800FT

CYQF;2015-08-09 01:00;CYQF 090100Z 17006KT 15SM FEW070 23/11 A2987 RMK AC2 SLP119 DENSITY ALT 4600FT

CYQF;2015-08-09 02:00;CYQF 090200Z 14004KT 15SM SCT130 SCT260 23/13 A2987 RMK AC3CI1 SLP117 DENSITY ALT 4500FT

CYQF;2015-08-09 03:00;CYQF 090300Z VRB02KT 15SM SCT130 BKN260 19/12 A2988 RMK AC4CI1 SLP122 DENSITY ALT 4100FT

CYQF;2015-08-09 04:00;CYQF 090400Z 00000KT 15SM SCT130 SCT260 17/13 A2990 RMK AC3CI1 SLP127 DENSITY ALT 3900FT

CYQF;2015-08-09 05:00;CYQF 090500Z 12003KT 15SM FEW140 17/12 A2990 RMK AC2 SLP126 DENSITY ALT 3800FT

CYQF;2015-08-09 06:00;CYQF 090600Z 36003KT 15SM FEW140 13/11 A2990 RMK AC1 SLP126 DENSITY ALT 3500FT

CYQF;2015-08-09 07:00;CYQF 090700Z 01004KT 15SM FEW140 12/10 A2990 RMK AC2 SLP125 DENSITY ALT 3300FT

CYQF;2015-08-09 08:00;CYQF 090800Z 33004KT 15SM FEW140 11/10 A2989 RMK AC1 SLP122 DENSITY ALT 3200FT

CYQF;2015-08-09 09:00;CYQF 090900Z 18006KT 15SM SKC 12/09 A2989 RMK SLP122 DENSITY ALT 3300FT

CYQF;2015-08-09 10:00;CYQF 091000Z 25003KT 15SM SKC 10/09 A2990 RMK SLP126 DENSITY ALT 3100FT

CYQF;2015-08-09 11:00;CYQF 091100Z 00000KT 15SM FEW250 09/08 A2990 RMK CI1 SLP125 DENSITY ALT 3000FT

CYQF;2015-08-09 12:00;CYQF 091200Z 00000KT 15SM FEW100 10/09 A2990 RMK AC1 SLP125 DENSITY ALT 3100FT

CYQF;2015-08-09 13:00;CYQF 091300Z 24002KT 15SM MIFG FEW100 10/09 A2991 RMK AC1 AC TR SLP131 DENSITY ALT 3000FT

CYQF;2015-08-09 14:00;CYQF 091400Z 20003KT 15SM FEW100 13/11 A2992 RMK AC1 AC TR SLP133 DENSITY ALT 3300FT

CYQF;2015-08-09 15:00;CYQF 091500Z 22004KT 15SM FEW100 15/12 A2993 RMK AC1 SLP136 DENSITY ALT 3600FT

CYQF;2015-08-09 16:00;CYQF 091600Z 15003KT 120V200 15SM FEW100 FEW250 18/13 A2993 RMK AC1CI1 CI TR SLP136 DENSITY ALT 3900FT

CYQF;2015-08-09 17:00;CYQF 091700Z 24002KT 15SM FEW032 FEW250 21/14 A2993 RMK CU1CI1 CU TR CI TR SLP133 DENSITY ALT 4300FT

CYQF;2015-08-09 18:00;CYQF 091800Z 00000KT 15SM FEW032 FEW250 23/14 A2993 RMK CU1CI1 CU TR SLP135 DENSITY ALT 4600FT

CYQF;2015-08-09 19:00;CYQF 091900Z VRB02KT 15SM FEW048 FEW250 25/12 A2993 RMK CU1CI1 SLP136 DENSITY ALT 4700FT

CYQF;2015-08-09 20:00;CYQF 092000Z VRB02KT 15SM FEW055 FEW140 26/12 A2993 RMK CU1AC1 SLP133 DENSITY ALT 4800FT

CYQF;2015-08-09 21:00;CYQF 092100Z 19003KT 120V210 15SM FEW060TCU BKN250 27/11 A2992 RMK TCU2CI3 CB TOP NW SLP129 DENSITY ALT 4900FT

CYQF;2015-08-09 22:00;CYQF 092200Z 28003KT 200V350 15SM FEW040TCU BKN250 25/16 A2992 RMK TCU2CI3 SLP133 DENSITY ALT 4700FT

CYQF;2015-08-09 23:00;CYQF 092300Z 19004KT 15SM FEW050TCU SCT130 BKN250 26/10 A2992 RMK TCU1AC2CI4 CB TOP NW SLP133 DENSITY ALT 4900FT

CYQF;2015-08-10 00:00;CYQF 100000Z 15003KT 140V230 15SM FEW060 SCT130 BKN250 27/11 A2992 RMK CU2AC2CI2 SLP129 DENSITY ALT 5000FT

CYQF;2015-08-10 01:00;CYQF 100100Z 17005KT 15SM FEW050 SCT150 BKN250 26/14 A2991 RMK CU1AC3CI3 SLP128 DENSITY ALT 4800FT

CYQF;2015-08-10 02:00;CYQF 100200Z 12005KT 15SM FEW050CB FEW150 BKN250 23/15 A2990 RMK CB1AC2CI5 CB TR CB W SLP125 DENSITY ALT 4500FT

CYQF;2015-08-10 03:00;CYQF 100300Z 09004KT 15SM SCT050CB BKN250 20/15 A2991 RMK CB3CI4 SLP128 DENSITY ALT 4200FT

CYQF;2015-08-10 04:00;CYQF 100400Z 33011G18KT 15SM SCT045CB BKN130 BKN250 19/12 A2995 RMK CB3AC2CI2 CB W-NE LTGCG DIST W-N SLP140 DENSITY ALT 4100FT

CYQF;2015-08-10 05:00;CYQF 100500Z 33006KT 15SM FEW040CB SCT140 17/12 A2996 RMK CB1AC2 LTNG N SLP145 DENSITY ALT 3800FT

CYQF;2015-08-10 06:00;CYQF 100600Z 33004KT 310V020 15SM FEW140 14/11 A2997 RMK AC2 SLP146 DENSITY ALT 3500FT

CYQF;2015-08-10 07:00;CYQF 100700Z 00000KT 15SM SKC 13/10 A2998 RMK SLP150 DENSITY ALT 3300FT

CYQF;2015-08-10 08:00;CYQF 100800Z 22007KT 15SM SKC 11/09 A2999 RMK SLP155 DENSITY ALT 3100FT

CYQF;2015-08-10 09:00;CYQF 100900Z 22004KT 15SM SKC 11/10 A2999 RMK SLP155 DENSITY ALT 3100FT

CYQF;2015-08-10 10:00;CYQF 101000Z 25006KT 15SM SKC 11/10 A3000 RMK SLP160 DENSITY ALT 3100FT

CYQF;2015-08-10 11:00;CYQF 101100Z 17003KT 150V270 15SM SKC 09/08 A3002 RMK SLP166

CYQF;2015-08-10 12:00;CYQF 101200Z 22008KT 15SM FEW100 09/08 A3003 RMK AC1 SLP171

CYQF;2015-08-10 13:00;CYQF 101300Z 22004KT 15SM FEW100 FEW250 10/09 A3004 RMK AC1CI1 AC TR CI TR SLP173

CYQF;2015-08-10 14:00;CYQF 101400Z VRB02KT 15SM FEW100 FEW250 13/11 A3005 RMK AC1CI1 AC TR SLP178 DENSITY ALT 3200FT

CYQF;2015-08-10 15:00;CYQF 101500Z 23004KT 15SM SCT270 16/13 A3005 RMK CI4 SLP178 DENSITY ALT 3600FT

CYQF;2015-08-10 16:00;CYQF 101600Z 16004KT 130V200 15SM BKN270 19/14 A3005 RMK CI6 SLP173 DENSITY ALT 3900FT

CYQF;2015-08-10 17:00;CYQF 101700Z 18003KT 140V240 15SM BKN270 22/13 A3005 RMK CI6 SLP172 DENSITY ALT 4200FT

CYQF;2015-08-10 18:00;CYQF 101800Z 20006KT 150V240 15SM BKN270 24/13 A3004 RMK CI7 SLP170 DENSITY ALT 4500FT

CYQF;2015-08-10 19:00;CYQF 101900Z 21004KT 130V290 15SM FEW110 BKN270 25/11 A3001 RMK AC2CI5 SLP160 DENSITY ALT 4700FT

CYQF;2015-08-10 20:00;CYQF 102000Z 15007KT 140V200 15SM BKN130 BKN270 26/11 A2999 RMK AC5CI2 SLP156 DENSITY ALT 4700FT

CYQF;2015-08-10 21:00;CYQF 102100Z 17009G15KT 15SM FEW060 FEW270 27/10 A2999 RMK CF1CI1 CF TR SLP153 DENSITY ALT 4800FT

CYQF;2015-08-10 22:00;CYQF 102200Z 17011KT 15SM FEW060 BKN270 27/12 A2998 RMK CU2CI3 SLP150 DENSITY ALT 4800FT

CYQF;2015-08-10 23:00;CYQF 102300Z 15008KT 15SM BKN270 26/12 A2997 RMK CI7 SLP149 DENSITY ALT 4800FT

CYQF;2015-08-11 00:00;CYQF 110000Z 14009KT 12SM FEW100 BKN270 26/12 A2996 RMK AC2CI5 HZ SLP146 DENSITY ALT 4800FT

CYQF;2015-08-11 01:00;CYQF 110100Z 16007KT 12SM SCT100 BKN270 23/14 A2995 RMK AC3CI4 HZ SLP144 DENSITY ALT 4500FT

CYQF;2015-08-11 02:00;CYQF 110200Z 08004KT 12SM SCT130 BKN270 21/16 A2994 RMK AC3CI4 HZ SLP140 DENSITY ALT 4200FT

CYQF;2015-08-11 03:00;CYQF 110300Z 03003KT 12SM FEW060CB SCT150 BKN270 19/16 A2994 RMK CB2AC2CI3 SH DIST NW LTGIC NW SLP139 DENSITY ALT 4100FT

CYQF;2015-08-11 04:00;CYQF 110400Z 33003KT 12SM FEW060CB SCT100 BKN260 19/14 A2995 RMK CB2AC2CI3 LTGCG N SLP142 DENSITY ALT 4000FT

CYQF;2015-08-11 05:00;CYQF 110500Z 30003KT 300V360 15SM FEW060 BKN100 17/14 A2998 RMK CU1AC5 LTGCG DIST NE SLP149 DENSITY ALT 3800FT

CYQF;2015-08-11 06:00;CYQF 110600Z VRB02KT 15SM FEW060 BKN100 17/14 A2998 RMK CU1AC6 SLP146 DENSITY ALT 3800FT

CYQF;2015-08-11 07:00;CYQF 110700Z 08006KT 360V080 15SM SCT100 16/13 A2997 RMK AC4 SLP145 DENSITY ALT 3600FT

CYQF;2015-08-11 08:00;CYQF 110800Z 04005KT 030V100 15SM SCT100 15/12 A2998 RMK AC4 SLP147 DENSITY ALT 3500FT

CYQF;2015-08-11 09:00;CYQF 110900Z 01005KT 15SM SKC 13/12 A2997 RMK SLP145 DENSITY ALT 3400FT

CYQF;2015-08-11 10:00;CYQF 111000Z 30003KT 15SM SKC 13/12 A2998 RMK SLP149 DENSITY ALT 3300FT

CYQF;2015-08-11 11:00;CYQF 111100Z 29005KT 15SM SCT100 12/11 A2998 RMK AC3 SLP152 DENSITY ALT 3200FT

CYQF;2015-08-11 12:00;CYQF 111200Z VRB02KT 15SM BKN230 12/10 A2999 RMK CI5 SLP154 DENSITY ALT 3200FT

CYQF;2015-08-11 13:00;CYQF 111300Z 22002KT 15SM BKN230 11/10 A3001 RMK CI5 SLP164 DENSITY ALT 3000FT

CYQF;2015-08-11 14:00;CYQF 111400Z 19005KT 12SM FEW120 BKN230 12/11 A3002 RMK AC2CI4 BR SLP168 DENSITY ALT 3200FT

CYQF;2015-08-11 15:00;CYQF 111500Z 20005KT 15SM FEW120 BKN230 14/13 A3002 RMK AC2CI4 BR SLP168 DENSITY ALT 3400FT

CYQF;2015-08-11 16:00;CYQF 111600Z 25004KT 210V280 12SM FEW120 BKN240 19/15 A3003 RMK AC2CI5 SLP167 DENSITY ALT 3900FT

CYQF;2015-08-11 17:00;CYQF 111700Z 35003KT 210V020 12SM FEW120 BKN240 22/16 A3002 RMK AC2CI4 SLP163 DENSITY ALT 4300FT

CYQF;2015-08-11 18:00;CYQF 111800Z VRB02KT 12SM BKN240 25/15 A3002 RMK CI6 SLP160 DENSITY ALT 4600FT

CYQF;2015-08-11 19:00;CYQF 111900Z VRB02KT 12SM FEW240 26/16 A3001 RMK CI2 SLP156 DENSITY ALT 4800FT

CYQF;2015-08-11 20:00;CYQF 112000Z 00000KT 12SM SCT250 27/11 A2999 RMK CI3 SLP152 DENSITY ALT 4800FT

CYQF;2015-08-11 21:00;CYQF 112100Z VRB02KT 12SM SCT250 27/10 A2997 RMK CI4 SLP146 DENSITY ALT 4900FT

CYQF;2015-08-11 22:00;CYQF 112200Z VRB02KT 12SM FEW140 SCT250 28/14 A2996 RMK AC2CI2 SLP142 DENSITY ALT 5000FT

CYQF;2015-08-11 23:00;CYQF 112300Z 33003KT 12SM BKN110 BKN250 25/16 A2996 RMK AC5CI2 SLP144 DENSITY ALT 4700FT

CYQF;2015-08-12 00:00;CYQF 120000Z 08008KT 12SM SCT110 BKN250 26/16 A2995 RMK AC4CI2 SLP139 DENSITY ALT 4800FT

CYQF;2015-08-12 01:00;CYQF 120100Z 10008KT 15SM FEW110 SCT250 26/14 A2993 RMK AC2CI1 SLP136 DENSITY ALT 4800FT

CYQF;2015-08-12 02:00;CYQF 120200Z 14005KT 15SM FEW110 FEW250 22/14 A2993 RMK AC1CI1 SLP137 DENSITY ALT 4400FT

CYQF;2015-08-12 03:00;CYQF 120300Z 19003KT 15SM FEW110 FEW250 20/14 A2994 RMK AC1CI1 SLP139 DENSITY ALT 4200FT

CYQF;2015-08-12 04:00;CYQF 120400Z VRB02KT 15SM FEW110 SCT250 18/13 A2995 RMK AC1CI2 SLP140 DENSITY ALT 3900FT

CYQF;2015-08-12 05:00;CYQF 120500Z VRB02KT 15SM FEW250 16/12 A2996 RMK CI2 SLP143 DENSITY ALT 3600FT

CYQF;2015-08-12 06:00;CYQF 120600Z 23005KT 15SM FEW250 15/12 A2996 RMK CI2 SLP143 DENSITY ALT 3500FT

CYQF;2015-08-12 07:00;CYQF 120700Z 17003KT 15SM SKC 12/11 A2997 RMK SLP146 DENSITY ALT 3300FT

CYQF;2015-08-12 08:00;CYQF 120800Z 21004KT 15SM SKC 13/11 A2996 RMK SLP143 DENSITY ALT 3300FT

CYQF;2015-08-12 09:00;CYQF 120900Z VRB02KT 15SM SKC 12/11 A2997 RMK SLP147 DENSITY ALT 3200FT

CYQF;2015-08-12 10:00;CYQF 121000Z 24004KT 220V290 15SM SKC 10/09 A2998 RMK SLP152

CYQF;2015-08-12 11:00;CYQF 121100Z 19005KT 15SM SKC 09/08 A2999 RMK SLP159

CYQF;2015-08-12 12:00;CYQF 121200Z VRB02KT 15SM FEW260 09/08 A2999 RMK CI1 SLP157

CYQF;2015-08-12 13:00;CYQF 121300Z 20004KT 15SM SKC 10/09 A3000 RMK SLP160 DENSITY ALT 3000FT

CYQF;2015-08-12 14:00;CYQF 121400Z 00000KT 15SM SKC 13/11 A3000 RMK SLP161 DENSITY ALT 3300FT

CYQF;2015-08-12 15:00;CYQF 121500Z 23003KT 190V270 15SM SKC 16/10 A3000 RMK SLP160 DENSITY ALT 3700FT

CYQF;2015-08-12 16:00;CYQF 121600Z VRB02KT 15SM SKC 20/12 A3000 RMK SLP158 DENSITY ALT 4100FT

CYQF;2015-08-12 17:00;CYQF 121700Z 00000KT 15SM FEW300 23/11 A3000 RMK CI1 SLP158 DENSITY ALT 4400FT

CYQF;2015-08-12 18:00;CYQF 121800Z 29004KT 15SM FEW300 26/13 A3000 RMK CI2 SLP154 DENSITY ALT 4800FT

CYQF;2015-08-12 19:00;CYQF 121900Z VRB04KT 15SM FEW300 28/15 A2998 RMK CI2 SLP149 DENSITY ALT 5000FT

CYQF;2015-08-12 20:00;CYQF 122000Z 02007KT 010V070 15SM FEW300 28/12 A2997 RMK CI2 SLP144 DENSITY ALT 5000FT

CYQF;2015-08-12 21:00;CYQF 122100Z 01005KT 340V060 15SM FEW300 28/12 A2996 RMK CI2 SLP143 DENSITY ALT 5100FT

CYQF;2015-08-12 22:00;CYQF 122200Z 07007KT 15SM SKC 29/13 A2995 RMK SLP137 DENSITY ALT 5100FT

CYQF;2015-08-12 23:00;CYQF 122300Z 07010KT 15SM SKC 28/12 A2994 RMK SLP136 DENSITY ALT 5100FT

CYQF;2015-08-13 00:00;CYQF 130000Z 07007KT 15SM SKC 28/15 A2993 RMK SLP135 DENSITY ALT 5000FT

CYQF;2015-08-13 01:00;CYQF 130100Z 07007KT 12SM SKC 25/15 A2993 RMK SLP137 DENSITY ALT 4800FT

CYQF;2015-08-13 02:00;CYQF 130200Z 06008KT 12SM SKC 22/15 A2993 RMK SLP137 DENSITY ALT 4400FT

CYQF;2015-08-13 03:00;CYQF 130300Z 06009KT 12SM SCT240 20/13 A2995 RMK CI4 SLP141 DENSITY ALT 4100FT

CYQF;2015-08-13 04:00;CYQF 130400Z 05007KT 12SM FEW240 18/12 A2996 RMK CI2 SLP145 DENSITY ALT 3900FT

CYQF;2015-08-13 05:00;CYQF 130500Z 03006KT 12SM SKC 16/12 A2997 RMK SLP148 DENSITY ALT 3600FT

CYQF;2015-08-13 06:00;CYQF 130600Z 05002KT 15SM SKC 17/12 A2998 RMK SLP145 DENSITY ALT 3700FT

CYQF;2015-08-13 07:00;CYQF 130700Z 33003KT 15SM SKC 13/11 A2997 RMK SLP145 DENSITY ALT 3400FT

CYQF;2015-08-13 08:00;CYQF 130800Z 29007KT 15SM SCT240 14/12 A2998 RMK CI4 SLP147 DENSITY ALT 3400FT

CYQF;2015-08-13 09:00;CYQF 130900Z 00000KT 15SM SCT240 13/11 A2999 RMK CI4 SLP149 DENSITY ALT 3300FT

CYQF;2015-08-13 10:00;CYQF 131000Z 17003KT 15SM SCT240 11/10 A2998 RMK CI3 SLP149 DENSITY ALT 3100FT

CYQF;2015-08-13 11:00;CYQF 131100Z 20004KT 15SM FEW240 11/10 A2997 RMK CI1 SLP146 DENSITY ALT 3100FT

CYQF;2015-08-13 12:00;CYQF 131200Z 21005KT 10SM BCFG FEW240 10/09 A2997 RMK CI2 SLP147

CYQF;2015-08-13 13:00;CYQF 131300Z 20003KT 10SM BCFG SCT240 10/10 A2996 RMK CI3 SLP147 DENSITY ALT 3000FT

CYQF;2015-08-13 14:00;CYQF 131400Z 19005KT 10SM SCT240 13/12 A2996 RMK CI3 SLP148 DENSITY ALT 3300FT

CYQF;2015-08-13 15:00;CYQF 131500Z 20007KT 10SM SCT280 16/11 A2996 RMK CI4 SLP146 DENSITY ALT 3700FT

CYQF;2015-08-13 16:00;CYQF 131600Z 19006KT 12SM BKN280 21/11 A2996 RMK CI5 SLP143 DENSITY ALT 4200FT

CYQF;2015-08-13 17:00;CYQF 131700Z 23006KT 8SM SCT180 OVC280 24/11 A2996 RMK AC4CI4 SLP143 DENSITY ALT 4500FT

CYQF;2015-08-13 18:00;CYQF 131800Z 22006KT 8SM BKN130 OVC280 24/12 A2995 RMK AC5CI3 SLP138 DENSITY ALT 4600FT

CYQF;2015-08-13 19:00;CYQF 131900Z 22007KT 190V250 8SM SCT170 BKN280 28/12 A2993 RMK AC3CI3 SLP129 DENSITY ALT 5100FT

CYQF;2015-08-13 20:00;CYQF 132000Z 25004KT 200V290 10SM SCT210 30/15 A2991 RMK CI4 SLP120 DENSITY ALT 5300FT

CYQF;2015-08-13 21:00;CYQF 132100Z 00000KT 10SM FEW072 SCT220 31/06 A2989 RMK CU1CI3 SLP114 DENSITY ALT 5400FT

CYQF;2015-08-13 22:00;CYQF 132200Z 17004KT 150V310 12SM SCT080 32/10 A2987 RMK CU4 SLP108 DENSITY ALT 5500FT

CYQF;2015-08-13 23:00;CYQF 132300Z 23007KT 150V250 10SM FEW080 32/10 A2986 RMK CU2 SLP105 DENSITY ALT 5600FT

CYQF;2015-08-14 00:00;CYQF 140000Z 28003KT 10SM FEW080 30/14 A2985 RMK CU2 SLP103 DENSITY ALT 5400FT

CYQF;2015-08-14 01:00;CYQF 140100Z 33003KT 10SM SCT070 28/17 A2985 RMK CU4 SLP105 DENSITY ALT 5200FT

CYQF;2015-08-14 02:00;CYQF 140200Z 35008G17KT 10SM SCT070 25/16 A2986 RMK ACC3 SLP107 DENSITY ALT 4800FT

CYQF;2015-08-14 03:00;CYQF 140300Z 36007KT 10SM FEW070 SCT150 20/13 A2988 RMK ACC2AC1 SLP117 DENSITY ALT 4200FT

CYQF;2015-08-14 04:00;CYQF 140400Z 01009KT 10SM FEW140 19/12 A2991 RMK AC2 SLP123 DENSITY ALT 4100FT

CYQF;2015-08-14 05:00;CYQF 140500Z 36005KT 10SM FEW140 17/12 A2992 RMK AC2 SLP128 DENSITY ALT 3900FT

CYQF;2015-08-14 06:00;CYQF 140600Z 02005KT 10SM FEW160 16/11 A2992 RMK AC2 SLP128 DENSITY ALT 3700FT

CYQF;2015-08-14 07:00;CYQF 140700Z VRB02KT 10SM SCT160 15/11 A2993 RMK AC4 SLP127 DENSITY ALT 3600FT

CYQF;2015-08-14 08:00;CYQF 140800Z 33007KT 10SM SCT140 14/11 A2994 RMK AC4 SLP130 DENSITY ALT 3400FT

CYQF;2015-08-14 09:00;CYQF 140900Z 36010KT 10SM FEW140 15/11 A2998 RMK AC2 SLP143 DENSITY ALT 3600FT

CYQF;2015-08-14 10:00;CYQF 141000Z 36007KT 15SM FEW160 14/12 A3001 RMK AC2 SLP153 DENSITY ALT 3400FT

CYQF;2015-08-14 11:00;CYQF 141100Z 33003KT 15SM FEW160 13/11 A3004 RMK AC2 SLP162 DENSITY ALT 3200FT

CYQF;2015-08-14 12:00;CYQF 141200Z 00000KT 15SM FEW140 FEW270 12/10 A3006 RMK AC1CI1 SLP172 DENSITY ALT 3100FT

CYQF;2015-08-14 13:00;CYQF 141300Z 28005KT 15SM FEW140 11/10 A3008 RMK ACC1 SLP183 DENSITY ALT 3000FT

CYQF;2015-08-14 14:00;CYQF 141400Z 33005KT 15SM SCT140 14/11 A3009 RMK ACC3 SLP188 DENSITY ALT 3300FT

CYQF;2015-08-14 15:00;CYQF 141500Z 33008KT 15SM SCT140 17/10 A3010 RMK ACC3 SLP194 DENSITY ALT 3600FT

CYQF;2015-08-14 16:00;CYQF 141600Z 04008KT 15SM FEW140 FEW280 18/09 A3007 RMK ACC1CI1 PRESFR SLP183 DENSITY ALT 3800FT

CYQF;2015-08-14 17:00;CYQF 141700Z 09011KT 15SM FEW280 19/08 A3004 RMK CI2 SLP172 DENSITY ALT 4000FT

CYQF;2015-08-14 18:00;CYQF 141800Z 34003KT 310V060 15SM SCT280 20/08 A3006 RMK CI4 SLP178 DENSITY ALT 4100FT

CYQF;2015-08-14 19:00;CYQF 141900Z 03008KT 350V070 15SM BKN240 21/09 A3005 RMK CI7 SLP175 DENSITY ALT 4200FT

CYQF;2015-08-14 20:00;CYQF 142000Z 33005KT 15SM VCSH SCT120 OVC240 19/12 A3009 RMK AC4CI4 SH SW MOVG NE PRESRR SLP194 DENSITY ALT 3900FT

CYQF;2015-08-14 20:41;CYQF 142041Z 02004KT 320V030 15SM -SHRA BKN100 OVC240 19/12 A3009 RMK AC5CI3 SLP193 DENSITY ALT 3800FT

CYQF;2015-08-14 21:00;CYQF 142100Z 07013KT 15SM SCT100 BKN220 20/12 A3002 RMK AC4CI3 PRESFR SLP167 DENSITY ALT 4000FT

CYQF;2015-08-14 22:00;CYQF 142200Z 09008KT 15SM FEW060TCU BKN100 OVC220 18/10 A3002 RMK TCU2AC4CI2 VIRGA SLP169 DENSITY ALT 3900FT

CYQF;2015-08-14 22:06;CYQF 142206Z 08010KT 15SM -SHRA SCT060TCU OVC100 18/11 A3001 RMK TCU3AC5 SLP168 DENSITY ALT 3900FT

CYQF;2015-08-14 22:32;CYQF 142232Z 04006KT 15SM BKN120 OVC220 18/11 A3003 RMK AC6CI2 VIRGA PRESRR SLP175 DENSITY ALT 3800FT

CYQF;2015-08-14 23:00;CYQF 142300Z 03005KT 15SM BKN120 OVC220 17/11 A3003 RMK AC6CI2 SLP177 DENSITY ALT 3700FT

CYQF;2015-08-15 00:00;CYQF 150000Z 08005KT 15SM BKN120 OVC230 18/11 A3005 RMK AC6CI2 VIRGA SLP182 DENSITY ALT 3800FT

CYQF;2015-08-15 01:00;CYQF 150100Z 08008KT 15SM VCSH BKN100 OVC230 17/10 A3003 RMK AC6CI2 SLP178 DENSITY ALT 3700FT

CYQF;2015-08-15 02:00;CYQF 150200Z 02006KT 15SM VCSH SCT055 OVC090 15/10 A3003 RMK SC4AC4 SLP178 DENSITY ALT 3500FT

CYQF;2015-08-15 03:00;CYQF 150300Z 05009KT 15SM VCSH SCT055 BKN090 15/09 A2999 RMK SC3AC4 SLP162 DENSITY ALT 3500FT

CYQF;2015-08-15 04:00;CYQF 150400Z 05008KT 15SM BKN100 13/09 A2998 RMK AC5 SLP159 DENSITY ALT 3400FT

CYQF;2015-08-15 05:00;CYQF 150500Z 04009KT 15SM SCT070 BKN100 14/09 A2999 RMK AC3AC4 LTGCG DIST SW-W SLP159 DENSITY ALT 3400FT

CYQF;2015-08-15 05:24;CYQF 150524Z 27006KT 250V350 10SM -TSRA OVC055CB 13/10 A3005 RMK CB8 PRESRR SLP179 DENSITY ALT 3200FT

CYQF;2015-08-15 06:00;CYQF 150600Z 01005KT 6SM -TSRA SCT055CB OVC090 11/10 A3002 RMK CB3AC5 LTGCC OVRHD SLP170 DENSITY ALT 3100FT

CYQF;2015-08-15 06:30;CYQF 150630Z 29009G16KT 10SM FEW010 SCT020 OVC090 11/10 A3004 RMK SF1SC3AC4 LTG DIST S PRESRR SLP179 DENSITY ALT 3000FT

CYQF;2015-08-15 06:52;CYQF 150652Z 32006KT 260V350 3SM SHRA OVC020 12/10 A3006 RMK SC8 CVCTV EMBD LTG DIST S PRESRR SLP184 DENSITY ALT 3000FT

CYQF;2015-08-15 07:00;CYQF 150700Z 05014KT 300V060 10SM -SHRA BKN020 OVC090 11/10 A3000 RMK SC6AC2 CVCTV CLD EMBD PRESFR SLP163 DENSITY ALT 3100FT

CYQF;2015-08-15 07:29;CYQF 150729Z 05007KT 10SM -TSRA SCT020 OVC090 11/10 A3000 RMK SC4AC4 CVCTV CLD EMBD LTG DIST S SLP163 DENSITY ALT 3100FT

CYQF;2015-08-15 08:00;CYQF 150800Z 05006KT 10SM -TSRA FEW020 OVC070CB 11/10 A2998 RMK SC2CB6 LTG OVRHD SLP159 DENSITY ALT 3100FT

CYQF;2015-08-15 08:24;CYQF 150824Z 30009KT 3SM TSRA SCT013 OVC070CB 11/10 A3004 RMK SF4CB4 LTG S PRESRR SLP178 DENSITY ALT 3000FT

CYQF;2015-08-15 08:31;CYQF 150831Z 33007KT 280V360 3SM SHRA FEW013 OVC033 11/10 A3004 RMK SF2SC6 CVCTV CLD EMBD PRESRR SLP178 DENSITY ALT 3000FT

CYQF;2015-08-15 09:00;CYQF 150900Z 29004KT 3SM SHRA OVC033 11/10 A3006 RMK SC8 /R10/ CVCTV CLD EMBD PRESRR SLP188 DENSITY ALT 3000FT

CYQF;2015-08-15 10:00;CYQF 151000Z CCA 01008KT 5SM SHRA BKN006 OVC033 11/10 A3000 RMK SF6SC2 /R20/ CIG RAG CVCTV CLD EMBD PRESRR SLP168 DENSITY ALT 3000FT

CYQF;2015-08-15 10:29;CYQF 151029Z 04010KT 5SM SHRA SCT006 OVC060 10/09 A3001 RMK SF4SC4 CVCTV CLD EMBD SLP171

CYQF;2015-08-15 10:42;CYQF 151042Z 01010KT 3SM SHRA BKN008 OVC060 10/09 A3003 RMK SF6SC2 CIG VRB 4-12 CVCTV CLD EMBD PRESRR SLP177

CYQF;2015-08-15 11:00;CYQF 151100Z 06018KT 3SM SHRA BKN008 OVC060 10/09 A2996 RMK SF6SC2 CIG VRB 4-12 CVCTV CLD EMBD PRESFR SLP156 DENSITY ALT 3000FT

CYQF;2015-08-15 11:44;CYQF 151144Z 04013G22KT 8SM -SHRA OVC006 10/09 A2995 RMK SC8 CIG VRBL 4-8 CVCTV CLD EMBD PRESRR SLP153 DENSITY ALT 3000FT

CYQF;2015-08-15 12:00;CYQF 151200Z 03015G22KT 8SM -SHRA OVC006 10/09 A2995 RMK SC8 /R27/ CIG VRB 4-8 CVCTV CLD EMBD SLP151 DENSITY ALT 3000FT

CYQF;2015-08-15 12:10;CYQF 151210Z 04032G41KT 8SM -SHRA OVC006 10/09 A2986 RMK SC8 PRESFR SLP122 DENSITY ALT 3000FT

CYQF;2015-08-15 13:00;CYQF 151300Z 34006KT 300V020 10SM -SHRA OVC008 10/09 A3001 RMK SC8 PRESRR SLP174

CYQF;2015-08-15 13:11;CYQF 151311Z 02013KT 12SM OVC008 09/09 A2999 RMK SC8 PRESFR SLP168

CYQF;2015-08-15 14:00;CYQF 151400Z 02007KT 360V060 15SM OVC008 09/08 A3001 RMK SC8 SLP176

CYQF;2015-08-15 15:00;CYQF 151500Z 01010KT 12SM -SHRA BKN007 OVC011 10/09 A3003 RMK SF6SC2 SLP182

CYQF;2015-08-15 16:00;CYQF 151600Z 35007KT 6SM -SHRA BR BKN008 OVC040 09/09 A3006 RMK SF5SC3 SLP196

CYQF;2015-08-15 17:00;CYQF 151700Z 34008KT 6SM -SHRA BR SCT008 BKN035 OVC050 10/09 A3009 RMK SF3SC4SC1 SLP204

CYQF;2015-08-15 17:36;CYQF 151736Z 34005KT 10SM -SHRA BKN008 OVC040 10/09 A3010 RMK SF5SC3 SLP208

CYQF;2015-08-15 18:00;CYQF 151800Z 33006KT 10SM -SHRA SCT008 BKN020 OVC044 10/09 A3011 RMK SF4SC2SC2 SLP213

CYQF;2015-08-15 19:00;CYQF 151900Z 33009KT 10SM -SHRA SCT010 BKN020 OVC050 11/09 A3013 RMK SF3SC3SC2 SLP219

CYQF;2015-08-15 20:00;CYQF 152000Z 34008G16KT 10SM -SHRA SCT012 BKN030 OVC055 11/09 A3014 RMK SF3SC3SC2 SLP222

CYQF;2015-08-15 20:19;CYQF 152019Z 35010KT 12SM VCSH SCT012 BKN030 OVC055 11/08 A3014 RMK CU3SC3SC2 SLP225

CYQF;2015-08-15 21:00;CYQF 152100Z 33011KT 15SM BKN024 OVC040 12/08 A3015 RMK CU5SC3 SLP227 DENSITY ALT 3000FT

CYQF;2015-08-15 22:00;CYQF 152200Z 31006KT 15SM BKN040 OVC100 12/09 A3016 RMK SC5AC3 SLP230 DENSITY ALT 3000FT

CYQF;2015-08-15 23:00;CYQF 152300Z 33011KT 290V010 15SM FEW020 SCT040 OVC100 12/08 A3017 RMK SC2SC2AC4 SLP235 DENSITY ALT 3000FT

CYQF;2015-08-16 00:00;CYQF 160000Z 30008KT 15SM FEW020 BKN060 OVC160 12/08 A3018 RMK SC2SC3AC3 SLP237 DENSITY ALT 3000FT

CYQF;2015-08-16 01:00;CYQF 160100Z 31007KT 15SM VCSH SCT020 BKN050 OVC160 11/09 A3019 RMK SC3SC4AC1 SLP242

CYQF;2015-08-16 02:00;CYQF 160200Z 27005KT 15SM FEW020 SCT060 OVC160 11/09 A3019 RMK SC1SC3AC4 SLP241

CYQF;2015-08-16 03:00;CYQF 160300Z 29005KT 15SM FEW020 SCT060 BKN160 10/09 A3019 RMK SC1SC2AC3 SLP245

CYQF;2015-08-16 04:00;CYQF 160400Z 30004KT 15SM BKN030 09/08 A3021 RMK SC7 SLP253

CYQF;2015-08-16 05:00;CYQF 160500Z 30005KT 15SM BKN040 BKN064 10/09 A3022 RMK SC5SC2 SLP254

CYQF;2015-08-16 06:00;CYQF 160600Z 28005KT 15SM SCT045 BKN065 10/09 A3022 RMK SC4SC3 SLP254

CYQF;2015-08-16 07:00;CYQF 160700Z 30004KT 15SM BKN065 09/08 A3023 RMK SC5 SLP256

CYQF;2015-08-16 08:00;CYQF 160800Z 00000KT 15SM FEW065 07/06 A3022 RMK SC2 SLP255

CYQF;2015-08-16 08:45;CYQF 160845Z 22002KT 3SM BR FEW001 06/06 A3022 RMK SF2 SLP256

CYQF;2015-08-16 09:00;CYQF 160900Z 20002KT 1SM BR FEW001 07/07 A3022 RMK SF2 SLP255

CYQF;2015-08-16 09:28;CYQF 160928Z 25003KT 3SM BR FEW001 SCT050 06/06 A3022 RMK SF2SC1 SLP257

CYQF;2015-08-16 10:00;CYQF 161000Z 22004KT 1SM BR SCT001 BKN050 06/05 A3022 RMK SF3SC2 SLP256

CYQF;2015-08-16 10:25;CYQF 161025Z 22002KT 3/4SM BR SCT001 BKN050 BKN100 05/04 A3022 RMK SF3SC2AC1 AC TR SLP256

CYQF;2015-08-16 10:52;CYQF 161052Z 24002KT 3/4SM BR BKN001 05/05 A3022 RMK SF6 SLP257

CYQF;2015-08-16 11:00;CYQF 161100Z 22003KT 3/4SM BR BKN001 05/05 A3022 RMK SF6 SLP255

CYQF;2015-08-16 12:00;CYQF 161200Z 19003KT 3/4SM BR BKN001 OVC100 05/05 A3022 RMK ST6AC2 SLP255

CYQF;2015-08-16 12:20;CYQF 161220Z 19002KT 1/2SM FG BKN001 OVC100 06/06 A3022 RMK FG1ST5AC2 SLP254

CYQF;2015-08-16 13:00;CYQF 161300Z 00000KT 3/8SM FG VV001 07/06 A3022 RMK FG8 SLP257

CYQF;2015-08-16 13:49;CYQF 161349Z VRB02KT 1/2SM FG OVC100 07/07 A3022 RMK FG5AC3 SLP256

CYQF;2015-08-16 14:00;CYQF 161400Z 17002KT 3/4SM BR OVC100 07/07 A3023 RMK FG4AC4 SLP257

CYQF;2015-08-16 15:00;CYQF 161500Z 28004KT 1 1/2SM BR OVC100 08/08 A3024 RMK FG2AC6 SLP263

CYQF;2015-08-16 15:19;CYQF 161519Z 25003KT 4SM BR BKN003 BKN050 OVC100 09/08 A3024 RMK SF5SC1AC2 SLP260

CYQF;2015-08-16 16:00;CYQF 161600Z VRB02KT 6SM BR BKN003 OVC035 10/10 A3024 RMK SF5SC3 SLP262

CYQF;2015-08-16 17:00;CYQF 161700Z 14003KT 100V200 15SM SCT007 OVC055 12/09 A3023 RMK SF4SC4 SLP256

CYQF;2015-08-16 18:00;CYQF 161800Z VRB02KT 15SM BKN015 OVC057 12/09 A3025 RMK CU5SC3 SLP260

CYQF;2015-08-16 19:00;CYQF 161900Z 24005KT 220V330 15SM SCT016 OVC057 13/08 A3023 RMK CU4SC4 SLP255 DENSITY ALT 3000FT

CYQF;2015-08-16 20:00;CYQF 162000Z 32008KT 260V340 15SM SCT020 BKN080 14/09 A3022 RMK CU3AC4 SLP253 DENSITY ALT 3200FT

CYQF;2015-08-16 21:00;CYQF 162100Z 33007KT 300V020 15SM SCT015 BKN060 12/09 A3021 RMK CU3SC4 SLP252 DENSITY ALT 3000FT

CYQF;2015-08-16 22:00;CYQF 162200Z 31005KT 250V330 15SM SCT020 BKN060 15/09 A3020 RMK CU3SC4 SLP247 DENSITY ALT 3200FT

CYQF;2015-08-16 23:00;CYQF 162300Z 33004KT 290V360 15SM SCT030 SCT100 BKN260 14/07 A3019 RMK CU3AC1CC2 SLP245 DENSITY ALT 3200FT

CYQF;2015-08-17 00:00;CYQF 170000Z 30004KT 210V340 15SM FEW036 FEW100 SCT260 15/07 A3018 RMK CU1AC1CI2 SLP239 DENSITY ALT 3300FT

CYQF;2015-08-17 01:00;CYQF 170100Z 30003KT 210V020 15SM SCT058 BKN080 15/07 A3017 RMK CU4AC2 SLP236 DENSITY ALT 3300FT

CYQF;2015-08-17 02:00;CYQF 170200Z 07002KT 15SM FEW060 FEW240 14/08 A3016 RMK CU1CI1 SLP232 DENSITY ALT 3200FT

CYQF;2015-08-17 03:00;CYQF 170300Z 34002KT 15SM FEW060 FEW240 13/07 A3017 RMK SC1CI1 SLP237 DENSITY ALT 3000FT

CYQF;2015-08-17 04:00;CYQF 170400Z VRB05KT 15SM FEW060 FEW240 09/06 A3018 RMK SC1CI1 SLP241

CYQF;2015-08-17 05:00;CYQF 170500Z VRB02KT 15SM FEW240 08/06 A3018 RMK CI1 SLP239

CYQF;2015-08-17 06:00;CYQF 170600Z 19005KT 15SM SKC 06/05 A3017 RMK SLP238

CYQF;2015-08-17 07:00;CYQF 170700Z 18004KT 15SM SKC 06/05 A3017 RMK SLP236

CYQF;2015-08-17 08:00;CYQF 170800Z 20003KT 10SM MIFG FEW090 05/05 A3016 RMK AC1 SLP233

CYQF;2015-08-17 09:00;CYQF 170900Z 20003KT 10SM MIFG FEW070 06/05 A3015 RMK AC2 SLP232

CYQF;2015-08-17 09:45;CYQF 170945Z 19004KT 15SM FEW070 05/04 A3014 RMK AC1 SLP230

CYQF;2015-08-17 10:00;CYQF 171000Z 19003KT 15SM SKC 05/04 A3014 RMK SLP228

CYQF;2015-08-17 10:40;CYQF 171040Z 18003KT 10SM BR FEW001 05/04 A3014 RMK SF2 VIS S 1 SLP226

CYQF;2015-08-17 10:51;CYQF 171051Z 20003KT 1SM BR VV001 04/04 A3014 RMK FG8 SLP225

CYQF;2015-08-17 11:00;CYQF 171100Z 21003KT 1SM BR VV001 04/04 A3014 RMK FG8 SLP226

CYQF;2015-08-17 11:16;CYQF 171116Z 20003KT 3/4SM BR VV001 04/03 A3013 RMK FG8 SLP225

CYQF;2015-08-17 11:33;CYQF 171133Z 20003KT 1/2SM FG VV001 03/03 A3013 RMK FG8 SLP225

CYQF;2015-08-17 11:39;CYQF 171139Z 22003KT 3/8SM FG VV001 03/03 A3013 RMK FG8 SLP226

CYQF;2015-08-17 11:48;CYQF 171148Z 24004KT 1/2SM FG VV001 04/04 A3013 RMK FG8 SLP224

CYQF;2015-08-17 12:00;CYQF 171200Z 22004KT 3/4SM BR OVC100 03/03 A3013 RMK FG7AC1 VIS E-S 1/2 SLP223

CYQF;2015-08-17 12:17;CYQF 171217Z 22007KT 6SM BR SCT100 04/03 A3013 RMK FG1AC2 VIS E-S 1 SLP222

CYQF;2015-08-17 13:00;CYQF 171300Z 21002KT 6SM BR SCT100 04/04 A3013 RMK AC4 VIS E-S SLP224

CYQF;2015-08-17 14:00;CYQF 171400Z 23004KT 10SM SCT080 07/07 A3013 RMK ACC4 SLP222

CYQF;2015-08-17 15:00;CYQF 171500Z 23005KT 200V270 15SM FEW080 SCT250 10/09 A3013 RMK AC2CI1 SLP218

CYQF;2015-08-17 16:00;CYQF 171600Z 25004KT 190V270 15SM FEW080 SCT250 13/08 A3011 RMK AC2CI2 SLP214 DENSITY ALT 3200FT

CYQF;2015-08-17 17:00;CYQF 171700Z 22005KT 180V320 15SM FEW030 SCT250 16/08 A3011 RMK CU1CI4 CU TR SLP209 DENSITY ALT 3500FT

CYQF;2015-08-17 18:00;CYQF 171800Z VRB02KT 15SM FEW030 BKN260 18/07 A3009 RMK CU1CI5 SLP205 DENSITY ALT 3700FT

CYQF;2015-08-17 19:00;CYQF 171900Z 18005KT 150V230 15SM FEW044 BKN260 19/07 A3008 RMK CU1CI6 SLP200 DENSITY ALT 3900FT

CYQF;2015-08-17 20:00;CYQF 172000Z 29008KT 210V330 15SM SCT045 BKN260 20/08 A3007 RMK CU3CI4 SLP195 DENSITY ALT 4000FT

CYQF;2015-08-17 21:00;CYQF 172100Z VRB05KT 15SM SCT045TCU BKN250 20/07 A3006 RMK TCU3CI4 SLP190 DENSITY ALT 4000FT

CYQF;2015-08-17 22:00;CYQF 172200Z 00000KT 15SM FEW050TCU BKN160 19/08 A3004 RMK TCU1AS6 SLP187 DENSITY ALT 4000FT

CYQF;2015-08-17 23:00;CYQF 172300Z 00000KT 15SM FEW050TCU SCT160 BKN260 19/09 A3003 RMK TCU1AS3CI4 TCU TR SLP183 DENSITY ALT 4000FT

CYQF;2015-08-18 00:00;CYQF 180000Z 34004KT 15SM FEW050CB BKN130 OVC260 18/10 A3002 RMK CB2AS4CI2 SH SW SLP184 DENSITY ALT 3800FT

CYQF;2015-08-18 01:00;CYQF 180100Z 28013G20KT 15SM TS VCSH BKN060 OVC120 16/07 A3004 RMK SC5AC3 CB EMBD LTGCCCG S SLP190 DENSITY ALT 3500FT

CYQF;2015-08-18 01:06;CYQF 180106Z 28010G20KT 15SM -TSRA BKN060 OVC120 15/07 A3005 RMK SC6AC2 LTGCG N VIS SW 4 CB EMBD PRESRR SLP194 DENSITY ALT 3400FT

CYQF;2015-08-18 01:40;CYQF 180140Z 17010KT 15SM -SHRA BKN060 OVC120 12/10 A3005 RMK SC5AC3 CB EMBD PRESFR SLP197 DENSITY ALT 3100FT

CYQF;2015-08-18 02:00;CYQF 180200Z 18009KT 15SM SCT060 OVC120 12/09 A3004 RMK SC4AC4 OCNL -SHRA TCU EMBD SLP192 DENSITY ALT 3100FT

CYQF;2015-08-18 02:18;CYQF 180218Z 18007KT 15SM FEW060 OVC120 12/10 A3004 RMK SC2AC6 SLP192 DENSITY ALT 3100FT

CYQF;2015-08-18 03:00;CYQF 180300Z 24004KT 15SM FEW060 OVC150 11/10 A3005 RMK SC1AC7 SLP191 DENSITY ALT 3000FT

CYQF;2015-08-18 04:00;CYQF 180400Z 23005KT 15SM SCT100 OVC200 11/09 A3006 RMK AC3CI5 SLP192 DENSITY ALT 3000FT

CYQF;2015-08-18 05:00;CYQF 180500Z 20004KT 15SM BKN150 OVC200 10/09 A3006 RMK AC5CI3 LTGCC DIST NW SLP191

CYQF;2015-08-18 05:29;CYQF 180529Z 01006KT 200V010 10SM -TSRA OVC050CB 10/09 A3008 RMK CB8 LTGCC OVRHD PRESRR SLP200

CYQF;2015-08-18 06:00;CYQF 180600Z 23005KT 15SM FEW050 OVC130 10/10 A3009 RMK SC2AC6 SLP200

CYQF;2015-08-18 07:00;CYQF 180700Z 29004KT 8SM -SHRA OVC060 11/09 A3009 RMK SC8 CVCTV EMBD SLP196

CYQF;2015-08-18 08:00;CYQF 180800Z 33010KT 280V350 10SM -SHRA BKN060 OVC090 11/09 A3010 RMK SC6AC2 CVCTV EMBD SLP199

CYQF;2015-08-18 08:39;CYQF 180839Z 31003KT 300V010 15SM SCT072 BKN150 10/09 A3009 RMK AC3AC4 SLP197

CYQF;2015-08-18 09:00;CYQF 180900Z 23004KT 15SM BKN058 OVC150 10/09 A3009 RMK SC6AC2 SLP196

CYQF;2015-08-18 10:00;CYQF 181000Z 24003KT 15SM SCT060 BKN090 10/09 A3009 RMK SC4AC2 SLP198

CYQF;2015-08-18 11:00;CYQF 181100Z 29003KT 15SM SCT060 BKN150 09/08 A3010 RMK SC3AC3 SLP202

CYQF;2015-08-18 12:00;CYQF 181200Z 30006KT 15SM BKN053 BKN150 10/08 A3011 RMK SC5AC1 SLP206

CYQF;2015-08-18 13:00;CYQF 181300Z 31007KT 15SM FEW048 SCT150 09/08 A3011 RMK SC1AC2 SLP210

CYQF;2015-08-18 14:00;CYQF 181400Z 31008KT 15SM FEW020 FEW100 FEW250 11/09 A3013 RMK SC1ACC1CI1 ACC TR SLP218

CYQF;2015-08-18 15:00;CYQF 181500Z 34011G16KT 15SM SCT014 SCT250 12/09 A3014 RMK CU3CI1 SLP220 DENSITY ALT 3000FT

CYQF;2015-08-18 16:00;CYQF 181600Z 35012KT 15SM SCT020 SCT250 13/09 A3015 RMK CU3CI1 SLP223 DENSITY ALT 3200FT

CYQF;2015-08-18 17:00;CYQF 181700Z 34009KT 300V010 15SM SCT020 BKN250 14/08 A3015 RMK CU4CI1 SLP223 DENSITY ALT 3300FT

CYQF;2015-08-18 18:00;CYQF 181800Z 33007G15KT 270V360 15SM BKN024 BKN250 16/09 A3015 RMK CU5CI1 CI TR SLP221 DENSITY ALT 3500FT

CYQF;2015-08-18 19:00;CYQF 181900Z 32004KT 280V350 15SM BKN028 17/09 A3014 RMK CU5 SLP216 DENSITY ALT 3600FT

CYQF;2015-08-18 20:00;CYQF 182000Z 34005KT 290V020 15SM BKN040 18/08 A3013 RMK CU5 SLP211 DENSITY ALT 3700FT

CYQF;2015-08-18 21:00;CYQF 182100Z 32004KT 250V360 15SM SCT040 BKN260 18/08 A3012 RMK CU3CI4 SLP208 DENSITY ALT 3800FT

CYQF;2015-08-18 22:00;CYQF 182200Z 30004KT 240V010 15SM BKN048 BKN260 19/08 A3010 RMK CU5CI1 SLP202 DENSITY ALT 3900FT

CYQF;2015-08-18 23:00;CYQF 182300Z 01005KT 310V030 15SM SCT048 SCT260 19/08 A3008 RMK CU3CI1 SLP197 DENSITY ALT 3900FT

CYQF;2015-08-19 00:00;CYQF 190000Z VRB02KT 15SM FEW048 FEW260 19/08 A3006 RMK CU1CI1 CI TR SLP190 DENSITY ALT 3900FT

CYQF;2015-08-19 01:00;CYQF 190100Z 11003KT 15SM FEW180 FEW260 19/06 A3005 RMK AC1CI1 SLP185 DENSITY ALT 3900FT

CYQF;2015-08-19 02:00;CYQF 190200Z 17005KT 15SM FEW170 SCT260 17/10 A3004 RMK AC2CI2 SLP181 DENSITY ALT 3700FT

CYQF;2015-08-19 03:00;CYQF 190300Z 15005KT 15SM FEW170 SCT240 14/09 A3003 RMK AC1CI3 SLP180 DENSITY ALT 3300FT

CYQF;2015-08-19 04:00;CYQF 190400Z 18003KT 15SM FEW100 SCT170 BKN240 11/08 A3002 RMK AC2AC2CI2 SLP177 DENSITY ALT 3100FT

CYQF;2015-08-19 05:00;CYQF 190500Z 18006KT 15SM SCT100 BKN170 11/08 A2999 RMK AC3AC3 SLP168 DENSITY ALT 3100FT

CYQF;2015-08-19 06:00;CYQF 190600Z 19005KT 15SM OVC093 12/09 A2997 RMK AC8 SLP158 DENSITY ALT 3200FT

CYQF;2015-08-19 07:00;CYQF 190700Z 18006KT 15SM BKN093 OVC150 11/08 A2996 RMK AC5AC3 SLP155 DENSITY ALT 3100FT

CYQF;2015-08-19 08:00;CYQF 190800Z 19007KT 15SM SCT096 OVC150 12/08 A2995 RMK AC3AC5 SLP148 DENSITY ALT 3200FT

CYQF;2015-08-19 09:00;CYQF 190900Z 18007KT 15SM SCT100 BKN150 11/08 A2992 RMK AC4AC2 SLP138 DENSITY ALT 3100FT

CYQF;2015-08-19 10:00;CYQF 191000Z 19006KT 15SM SCT100 BKN150 11/08 A2990 RMK AC4AC2 SLP131 DENSITY ALT 3200FT

CYQF;2015-08-19 11:00;CYQF 191100Z 19005KT 15SM BKN096 11/08 A2988 RMK AC7 SLP126 DENSITY ALT 3200FT

CYQF;2015-08-19 12:00;CYQF 191200Z 19006KT 15SM FEW096 SCT140 10/07 A2987 RMK AC2AC2 SLP121 DENSITY ALT 3100FT

CYQF;2015-08-19 13:00;CYQF 191300Z 20005KT 15SM FEW090 FEW160 09/07 A2986 RMK AC1AC1 SLP119

CYQF;2015-08-19 14:00;CYQF 191400Z 18005KT 15SM FEW090 FEW250 10/08 A2984 RMK AC1CI1 AC TR SLP115 DENSITY ALT 3200FT

CYQF;2015-08-19 15:00;CYQF 191500Z 19004KT 15SM FEW090 FEW250 14/09 A2982 RMK AC1CI1 AC TR SLP108 DENSITY ALT 3500FT

CYQF;2015-08-19 16:00;CYQF 191600Z 19005KT 15SM FEW100 FEW250 17/09 A2980 RMK AC1CI1 AC TR SLP100 DENSITY ALT 4000FT

CYQF;2015-08-19 17:00;CYQF 191700Z 16003KT 140V280 15SM FEW100 SCT260 20/11 A2979 RMK AC1CI2 SLP091 DENSITY ALT 4300FT

CYQF;2015-08-19 18:00;CYQF 191800Z 16004KT 130V240 15SM FEW100 FEW260 23/10 A2977 RMK AC1CI1 SLP081 DENSITY ALT 4700FT

CYQF;2015-08-19 19:00;CYQF 191900Z 20003KT 100V240 15SM FEW250 24/08 A2974 RMK CI2 SLP070 DENSITY ALT 4800FT

CYQF;2015-08-19 20:00;CYQF 192000Z 17003KT 150V230 15SM FEW060 FEW250 25/07 A2972 RMK CU1CI1 SLP062 DENSITY ALT 5000FT

CYQF;2015-08-19 21:00;CYQF 192100Z 17007KT 15SM FEW068 SCT270 26/07 A2970 RMK CU1CI3 SLP054 DENSITY ALT 5100FT

CYQF;2015-08-19 22:00;CYQF 192200Z 13006KT 110V180 15SM FEW068 BKN270 26/09 A2967 RMK CU1CI4 SLP046 DENSITY ALT 5100FT

CYQF;2015-08-19 23:00;CYQF 192300Z 18009KT 15SM FEW072 SCT270 26/08 A2966 RMK CU1CI3 SLP042 DENSITY ALT 5100FT

CYQF;2015-08-20 00:00;CYQF 200000Z 15003KT 120V190 15SM BKN130 BKN270 25/11 A2965 RMK ACC6CI1 CI TR SLP040 DENSITY ALT 5100FT

CYQF;2015-08-20 01:00;CYQF 200100Z 12005KT 15SM BKN130 BKN270 23/12 A2965 RMK AC5CI1 SLP043 DENSITY ALT 4800FT

CYQF;2015-08-20 02:00;CYQF 200200Z VRB03KT 15SM VCSH BKN110 BKN250 19/15 A2966 RMK ACC5CI1 SLP048 DENSITY ALT 4400FT

CYQF;2015-08-20 02:29;CYQF 200229Z 31012KT 15SM -TSRA BKN090 BKN250 19/12 A2968 RMK ACC6CI1 PRESRR SLP057 DENSITY ALT 4300FT

CYQF;2015-08-20 03:00;CYQF 200300Z 02015G21KT 15SM -TSRA BKN100 BKN250 17/12 A2972 RMK ACC5CI1 SLP068 DENSITY ALT 4000FT

CYQF;2015-08-20 03:18;CYQF 200318Z 04009KT 15SM SCT100 BKN250 15/12 A2974 RMK ACC4CI1 PRESRR SLP076 DENSITY ALT 3900FT

CYQF;2015-08-20 04:00;CYQF 200400Z CCA 01007KT 15SM SCT100 14/12 A2975 RMK ACC4 SLP077 DENSITY ALT 3700FT

CYQF;2015-08-20 04:30;CYQF 200430Z 02009KT 15SM -SHRA BKN100 14/12 A2976 RMK ACC6 SLP082 DENSITY ALT 3700FT

CYQF;2015-08-20 05:00;CYQF 200500Z 36004KT 340V040 15SM BKN100 14/12 A2976 RMK AC5 PRESRR SLP080 DENSITY ALT 3700FT

CYQF;2015-08-20 06:00;CYQF 200600Z 35005KT 15SM SCT100 13/11 A2977 RMK AC4 SLP080 DENSITY ALT 3500FT

CYQF;2015-08-20 06:18;CYQF 200618Z 34005KT 290V360 15SM -SHRA FEW060 OVC100 13/11 A2978 RMK SC2AC6 SLP084 DENSITY ALT 3500FT

CYQF;2015-08-20 06:55;CYQF 200655Z 35003KT 15SM FEW001 SCT100 12/11 A2979 RMK SC1AC3 SC TR SLP087 DENSITY ALT 3400FT

CYQF;2015-08-20 07:00;CYQF 200700Z VRB02KT 15SM FEW060 SCT100 12/11 A2978 RMK SC1AC3 SLP085 DENSITY ALT 3400FT

CYQF;2015-08-20 08:00;CYQF 200800Z VRB02KT 15SM SCT100 11/11 A2978 RMK AC3 SLP084 DENSITY ALT 3300FT

CYQF;2015-08-20 09:00;CYQF 200900Z 25003KT 15SM FEW100 09/09 A2978 RMK AC2 SLP085 DENSITY ALT 3100FT

CYQF;2015-08-20 10:00;CYQF 201000Z VRB02KT 15SM FEW080 SCT140 10/09 A2978 RMK AC1AC2 SLP085 DENSITY ALT 3100FT

CYQF;2015-08-20 11:00;CYQF 201100Z 20004KT 15SM FEW080 BKN140 08/07 A2979 RMK AC2AC3 SLP091

CYQF;2015-08-20 12:00;CYQF 201200Z 23002KT 15SM BKN080 BKN120 10/09 A2979 RMK AC5AC2 SLP089 DENSITY ALT 3200FT

CYQF;2015-08-20 13:00;CYQF 201300Z 19002KT 15SM BKN070 09/08 A2979 RMK AC7 SLP093 DENSITY ALT 3000FT

CYQF;2015-08-20 14:00;CYQF 201400Z 19003KT 15SM BKN070 11/10 A2980 RMK AC7 SLP097 DENSITY ALT 3300FT

CYQF;2015-08-20 15:00;CYQF 201500Z VRB02KT 15SM BKN080 12/11 A2982 RMK AC7 SLP105 DENSITY ALT 3400FT

CYQF;2015-08-20 15:31;CYQF 201531Z VRB02KT 15SM -SHRA SCT080 BKN120 12/11 A2982 RMK AC4AC3 SLP106 DENSITY ALT 3400FT

CYQF;2015-08-20 16:00;CYQF 201600Z VRB02KT 15SM FEW080 BKN120 BKN250 13/12 A2982 RMK AC2AC3CI2 SLP108 DENSITY ALT 3500FT

CYQF;2015-08-20 17:00;CYQF 201700Z 01006KT 15SM FEW080 BKN250 17/09 A2981 RMK AC2CI5 SLP099 DENSITY ALT 4000FT

CYQF;2015-08-20 18:00;CYQF 201800Z 02008KT 330V040 15SM SCT075 BKN140 OVC250 18/07 A2981 RMK AC3AC2CI3 SLP098 DENSITY ALT 4100FT

CYQF;2015-08-20 19:00;CYQF 201900Z 01003KT 320V040 15SM SCT080 BKN250 20/07 A2979 RMK AC4CI3 SLP091 DENSITY ALT 4300FT

CYQF;2015-08-20 20:00;CYQF 202000Z 35006KT 300V030 15SM FEW056 SCT080 BKN250 20/06 A2978 RMK CU1AC3CI4 CU TR SLP089 DENSITY ALT 4300FT

CYQF;2015-08-20 21:00;CYQF 202100Z 35002KT 15SM FEW056 SCT076 BKN140 OVC250 19/06 A2978 RMK CU1AC3AC3CI2 CU TR SLP091 DENSITY ALT 4200FT

CYQF;2015-08-20 22:00;CYQF 202200Z 03003KT 010V140 15SM FEW045 SCT100 OVC250 18/09 A2977 RMK CU1AC3CI4 SLP088 DENSITY ALT 4200FT

CYQF;2015-08-20 23:00;CYQF 202300Z 00000KT 15SM FEW030 BKN080 OVC250 18/11 A2976 RMK CU1AC5CI2 SLP087 DENSITY ALT 4100FT

CYQF;2015-08-21 00:00;CYQF 210000Z 18004KT 15SM FEW030 BKN080 BKN250 18/10 A2975 RMK CU1AC5CI2 CU TR WND ESTD SLP080 DENSITY ALT 4100FT

CYQF;2015-08-21 01:00;CYQF 210100Z 19008KT 15SM FEW030 BKN100 BKN250 16/09 A2974 RMK CU1AC5CI2 CU TR SLP081 DENSITY ALT 3900FT

CYQF;2015-08-21 02:00;CYQF 210200Z 18005KT 15SM FEW030 BKN100 BKN250 14/10 A2974 RMK SC2AC4CI1 SLP080 DENSITY ALT 3700FT

CYQF;2015-08-21 03:00;CYQF 210300Z 19004KT 15SM FEW030 BKN100 13/10 A2974 RMK SC2AC5 SLP083 DENSITY ALT 3600FT

CYQF;2015-08-21 04:00;CYQF 210400Z 17003KT 15SM BKN054 OVC100 13/11 A2974 RMK SC5AC3 SLP080 DENSITY ALT 3500FT

CYQF;2015-08-21 05:00;CYQF 210500Z 15005KT 15SM BKN049 OVC100 12/11 A2974 RMK SC6AC2 SLP076 DENSITY ALT 3500FT

CYQF;2015-08-21 06:02;CYQF 210602Z 32004KT 10SM -SHRA FEW020 BKN058 OVC080 12/11 A2975 RMK SC1SC6AC1 SLP080 DENSITY ALT 3400FT

CYQF;2015-08-21 06:44;CYQF 210644Z 01012G18KT 10SM FEW015 OVC024 11/09 A2977 RMK SF1SC7 SLP089 DENSITY ALT 3300FT

CYQF;2015-08-21 07:00;CYQF 210700Z 02014G19KT 10SM FEW015 OVC027 10/09 A2977 RMK SF2SC6 SLP086 DENSITY ALT 3200FT

CYQF;2015-08-21 08:00;CYQF 210800Z 04010KT 10SM FEW015 OVC032 09/08 A2976 RMK SF2SC6 SLP082 DENSITY ALT 3100FT

CYQF;2015-08-21 09:00;CYQF 210900Z 07009KT 10SM FEW015 OVC050 09/07 A2974 RMK SF1SC7 SLP079 DENSITY ALT 3100FT

CYQF;2015-08-21 09:47;CYQF 210947Z 06011G17KT 10SM -SHRA FEW015 OVC050 09/07 A2973 RMK SF1SC7 SLP075 DENSITY ALT 3100FT

CYQF;2015-08-21 10:00;CYQF 211000Z 05010G16KT 10SM -SHRA FEW015 OVC051 09/07 A2973 RMK SF1SC7 SLP074 DENSITY ALT 3100FT

CYQF;2015-08-21 10:41;CYQF 211041Z 04007KT 3SM -SHRA BR SCT015 OVC043 09/08 A2974 RMK SF3SC5 SLP080 DENSITY ALT 3100FT

CYQF;2015-08-21 11:00;CYQF 211100Z 02005KT 3SM -SHRA BR SCT015 OVC043 09/08 A2975 RMK SF3SC5 SLP082 DENSITY ALT 3000FT

CYQF;2015-08-21 12:00;CYQF 211200Z 02010KT 3SM -SHRA BR SCT010 OVC042 08/08 A2975 RMK SF4SC4 SLP083 DENSITY ALT 3000FT

CYQF;2015-08-21 12:29;CYQF 211229Z 03008KT 3SM SHRA BR SCT010 OVC045 08/07 A2976 RMK SF4SC4 CVCTV EMBD PRESRR SLP087 DENSITY ALT 3000FT

CYQF;2015-08-21 12:47;CYQF 211247Z 04010KT 2 1/2SM SHRA BR FEW010 OVC045 08/07 A2976 RMK SF2SC6 CVCTV EMBD SLP089

CYQF;2015-08-21 13:00;CYQF 211300Z 03009KT 2SM SHRA BR SCT006 OVC040 08/07 A2977 RMK SF3SC5 CVCTV CLD EMBD SLP093

CYQF;2015-08-21 13:46;CYQF 211346Z 03008KT 2 1/2SM -SHRA BR SCT008 OVC038 07/07 A2978 RMK SF4SC4 SLP098

CYQF;2015-08-21 14:00;CYQF 211400Z 03009KT 2SM SHRA BR SCT008 OVC040 07/07 A2978 RMK SF4SC5 CVCTV CLD EMBD CIG RAG SLP098

CYQF;2015-08-21 15:00;CYQF 211500Z 01009KT 2SM SHRA BR SCT008 OVC040 07/07 A2980 RMK SF4SC4 SLP108

CYQF;2015-08-21 16:00;CYQF 211600Z CCA 02010KT 2 1/2SM -SHRA BR SCT008 OVC055 07/07 A2979 RMK SF4SC4 CVCTV CLD EMBD SLP106

CYQF;2015-08-21 17:00;CYQF 211700Z CCA 01008KT 2SM -SHRA BR BKN009 OVC040 07/07 A2982 RMK SF5SC4 CVCTV CLD EMBD /R20/ SLP114

CYQF;2015-08-21 18:00;CYQF 211800Z 35010G15KT 2SM -RA BR SCT008 OVC037 07/06 A2984 RMK SF3SC5 /R33/ SLP124

CYQF;2015-08-21 19:00;CYQF 211900Z 36010KT 2SM RA BR SCT009 OVC030 07/06 A2986 RMK SF4SC4 SLP131

CYQF;2015-08-21 19:35;CYQF 211935Z 36011G17KT 5SM -RA BR SCT009 OVC040 07/06 A2987 RMK SF4SC4 SLP134

CYQF;2015-08-21 20:00;CYQF 212000Z 01010G17KT 5SM -RA BR SCT009 OVC040 07/05 A2988 RMK SF4SC4 SLP139

CYQF;2015-08-21 21:00;CYQF 212100Z 32008KT 5SM -RA BR SCT009 OVC030 08/07 A2991 RMK SF4SC4 SLP148

CYQF;2015-08-21 22:00;CYQF 212200Z 32010KT 6SM -RA BR FEW009 OVC040 08/06 A2992 RMK SF2SC6 SLP151

CYQF;2015-08-21 23:00;CYQF 212300Z 33008G15KT 10SM -RA FEW009 OVC050 09/07 A2993 RMK SF1SC7 SLP157

CYQF;2015-08-22 00:00;CYQF 220000Z 32006KT 10SM -RA FEW010 OVC052 09/06 A2995 RMK SF2SC6 SLP165

CYQF;2015-08-22 01:00;CYQF 220100Z 33008KT 15SM -RA FEW010 BKN060 OVC100 09/06 A2997 RMK SF2SC5AC1 -RA INTMT SLP171

CYQF;2015-08-22 01:10;CYQF 220110Z 33006KT 15SM FEW010 BKN060 OVC100 09/06 A2997 RMK SF2SC4AC2 SLP172

CYQF;2015-08-22 02:00;CYQF 220200Z 30008KT 15SM BKN048 BKN110 08/06 A3000 RMK SC5AC2 SLP181

CYQF;2015-08-22 02:39;CYQF 220239Z 31008KT 10SM -SHRA BKN017TCU OVC048 08/06 A3001 RMK TCU5SC3 SLP186

CYQF;2015-08-22 03:00;CYQF 220300Z 32008KT 12SM -SHRA SCT016TCU OVC048 08/06 A3003 RMK TCU4SC4 VIS SE 3 SLP193

CYQF;2015-08-22 03:32;CYQF 220332Z 31008KT 15SM FEW015 SCT048 BKN080 07/06 A3005 RMK SC2SC2AC3 SLP199

CYQF;2015-08-22 04:00;CYQF 220400Z 32009KT 15SM SCT045 BKN080 07/05 A3006 RMK SC3AC3 SLP202

CYQF;2015-08-22 05:00;CYQF 220500Z 32011G16KT 15SM BKN044 BKN080 08/05 A3007 RMK SC5AC2 SLP208

CYQF;2015-08-22 06:00;CYQF 220600Z 33011G16KT 15SM VCSH SCT035 OVC080 07/04 A3009 RMK SC4AC4 SLP216

CYQF;2015-08-22 07:00;CYQF 220700Z 32009KT 15SM FEW040 OVC070 07/04 A3011 RMK SC1AC7 SLP222

CYQF;2015-08-22 08:00;CYQF 220800Z 29007KT 15SM FEW040 OVC070 07/05 A3012 RMK SC2AC6 SLP227

CYQF;2015-08-22 09:00;CYQF 220900Z 30008KT 15SM OVC070 06/05 A3013 RMK AC8 SLP227

CYQF;2015-08-22 10:00;CYQF 221000Z 29007KT 15SM BKN070 06/04 A3014 RMK AC7 SLP233

CYQF;2015-08-22 11:00;CYQF 221100Z 30006KT 15SM BKN070 05/04 A3015 RMK AC5 SLP236

CYQF;2015-08-22 12:00;CYQF 221200Z 29006KT 15SM BKN060 06/04 A3015 RMK SC6 SLP237

CYQF;2015-08-22 13:00;CYQF 221300Z 29006KT 15SM SCT055 06/04 A3016 RMK SC4 SLP240

CYQF;2015-08-22 14:00;CYQF 221400Z 28006KT 15SM FEW050 07/04 A3018 RMK SC2 SLP245

CYQF;2015-08-22 15:00;CYQF 221500Z 29006KT 15SM FEW250 09/04 A3018 RMK CI1 SLP244

CYQF;2015-08-22 16:00;CYQF 221600Z 31006KT 15SM FEW024 FEW250 11/04 A3019 RMK CF1CI2 CF TR SLP246

CYQF;2015-08-22 17:00;CYQF 221700Z 35007KT 280V360 15SM SCT040 12/03 A3019 RMK CU3 SLP243

CYQF;2015-08-22 18:00;CYQF 221800Z 27004KT 230V330 15SM SCT040 13/03 A3018 RMK CU3 SLP240 DENSITY ALT 3000FT

CYQF;2015-08-22 19:00;CYQF 221900Z 30007KT 180V350 15SM FEW044 14/03 A3017 RMK CU2 SLP234 DENSITY ALT 3200FT

CYQF;2015-08-22 20:00;CYQF 222000Z 32009G15KT 260V330 15SM FEW048 15/02 A3015 RMK CU2 SLP229 DENSITY ALT 3300FT

CYQF;2015-08-22 21:00;CYQF 222100Z 33004KT 260V010 15SM FEW048 FEW270 15/03 A3015 RMK CU2CI1 CI TR SLP227 DENSITY ALT 3400FT

CYQF;2015-08-22 22:00;CYQF 222200Z 33007KT 250V350 15SM FEW058 SCT270 16/03 A3014 RMK CU2CI1 SLP223 DENSITY ALT 3500FT

CYQF;2015-08-22 23:00;CYQF 222300Z 28008KT 250V360 15SM FEW060 FEW270 16/03 A3013 RMK CU1CI1 SLP220 DENSITY ALT 3500FT

CYQF;2015-08-23 00:00;CYQF 230000Z 25004KT 240V020 15SM FEW060 FEW270 16/02 A3012 RMK CU1CI2 CU TR SLP217 DENSITY ALT 3500FT

CYQF;2015-08-23 01:00;CYQF 230100Z VRB04KT 15SM FEW270 16/04 A3011 RMK CI1 SLP214 DENSITY ALT 3500FT

CYQF;2015-08-23 02:00;CYQF 230200Z 15003KT 15SM FEW270 15/04 A3010 RMK CI2 SLP211 DENSITY ALT 3400FT

CYQF;2015-08-23 03:00;CYQF 230300Z 11005KT 15SM FEW270 10/05 A3010 RMK CI2 SLP213

CYQF;2015-08-23 04:00;CYQF 230400Z 18003KT 15SM FEW270 08/04 A3011 RMK CI2 SLP215

CYQF;2015-08-23 05:00;CYQF 230500Z 18005KT 15SM SKC 07/04 A3011 RMK SLP215

CYQF;2015-08-23 06:00;CYQF 230600Z 15002KT 15SM SKC 06/04 A3011 RMK SLP215

CYQF;2015-08-23 07:00;CYQF 230700Z 14003KT 15SM SKC 06/03 A3010 RMK AURBO SLP210

CYQF;2015-08-23 08:00;CYQF 230800Z 17004KT 15SM SKC 05/02 A3009 RMK AURBO SLP207

CYQF;2015-08-23 09:00;CYQF 230900Z 11002KT 15SM SKC 04/02 A3007 RMK AURBO SLP203

CYQF;2015-08-23 10:00;CYQF 231000Z 14002KT 15SM SKC 03/00 A3006 RMK SLP201

CYQF;2015-08-23 11:00;CYQF 231100Z 00000KT 15SM SKC 03/01 A3006 RMK SLP201

CYQF;2015-08-23 12:00;CYQF 231200Z 17003KT 15SM SKC 02/01 A3006 RMK SLP200

CYQF;2015-08-23 13:00;CYQF 231300Z 19004KT 15SM FEW250 03/02 A3006 RMK CI1 CI TR SLP200

CYQF;2015-08-23 14:00;CYQF 231400Z 17004KT 15SM SKC 05/04 A3006 RMK SLP200

CYQF;2015-08-23 15:00;CYQF 231500Z 18006KT 15SM SKC 08/05 A3006 RMK SLP202

CYQF;2015-08-23 16:00;CYQF 231600Z 19005KT 15SM SKC 11/06 A3006 RMK SLP198 DENSITY ALT 3000FT

CYQF;2015-08-23 17:00;CYQF 231700Z 16006KT 110V210 15SM FEW250 15/07 A3004 RMK CI1 CI TR SLP190 DENSITY ALT 3500FT

CYQF;2015-08-23 18:00;CYQF 231800Z 17008KT 140V210 15SM FEW250 18/07 A3003 RMK CI1 CI TR SLP181 DENSITY ALT 3900FT

CYQF;2015-08-23 19:00;CYQF 231900Z 19006KT 15SM FEW250 20/06 A3001 RMK CI1 SLP172 DENSITY ALT 4100FT

CYQF;2015-08-23 20:00;CYQF 232000Z 16007KT 130V200 15SM SCT250 21/06 A3000 RMK CI3 SLP170 DENSITY ALT 4300FT

CYQF;2015-08-23 21:00;CYQF 232100Z 16007KT 150V240 15SM FEW060 BKN250 22/06 A2999 RMK CU1CI5 CU TR SLP167 DENSITY ALT 4400FT

CYQF;2015-08-23 22:00;CYQF 232200Z 16007KT 15SM FEW064 BKN250 23/07 A2997 RMK CU1CI5 CU TR SLP162 DENSITY ALT 4400FT

CYQF;2015-08-23 23:00;CYQF 232300Z 17010G16KT 120V190 15SM FEW064 SCT250 23/08 A2996 RMK CU1CI4 CU TR SLP156 DENSITY ALT 4500FT

CYQF;2015-08-24 00:00;CYQF 240000Z 16009KT 15SM FEW064 BKN250 21/09 A2995 RMK CU1CI5 CU TR SLP156 DENSITY ALT 4300FT

CYQF;2015-08-24 01:00;CYQF 240100Z 14008G15KT 15SM BKN250 20/09 A2994 RMK CI6 SLP151 DENSITY ALT 4200FT

CYQF;2015-08-24 02:00;CYQF 240200Z 14007KT 15SM BKN250 17/09 A2993 RMK CI6 SLP151 DENSITY ALT 3900FT

CYQF;2015-08-24 03:00;CYQF 240300Z 13007KT 15SM BKN250 15/09 A2994 RMK CI6 SLP153 DENSITY ALT 3600FT

CYQF;2015-08-24 04:00;CYQF 240400Z 16008KT 15SM BKN250 14/08 A2994 RMK CI6 SLP151 DENSITY ALT 3500FT

CYQF;2015-08-24 05:00;CYQF 240500Z 17010KT 15SM BKN230 13/07 A2993 RMK CI5 SLP144 DENSITY ALT 3400FT

CYQF;2015-08-24 06:00;CYQF 240600Z 22006KT 15SM BKN230 12/07 A2994 RMK CI6 SLP146 DENSITY ALT 3200FT

CYQF;2015-08-24 07:00;CYQF 240700Z 00000KT 15SM BKN230 11/07 A2994 RMK CI6 SLP143 DENSITY ALT 3100FT

CYQF;2015-08-24 08:00;CYQF 240800Z 18005KT 15SM BKN210 10/06 A2992 RMK CI6 SLP138 DENSITY ALT 3000FT

CYQF;2015-08-24 09:00;CYQF 240900Z 16003KT 090V170 15SM BKN210 08/06 A2992 RMK CI6 SLP138

CYQF;2015-08-24 10:00;CYQF 241000Z 17003KT 15SM BKN210 08/07 A2992 RMK CI6 SLP138

CYQF;2015-08-24 11:00;CYQF 241100Z 16002KT 15SM BKN200 08/06 A2993 RMK CI6 SLP141

CYQF;2015-08-24 12:00;CYQF 241200Z 22003KT 15SM BKN200 09/07 A2994 RMK CI7 SLP144

CYQF;2015-08-24 13:00;CYQF 241300Z VRB02KT 15SM BKN250 08/07 A2996 RMK CI7 SLP154

CYQF;2015-08-24 14:00;CYQF 241400Z 27005KT 15SM BKN240 10/08 A2998 RMK CI7 SLP162

CYQF;2015-08-24 15:00;CYQF 241500Z 29006KT 15SM FEW140 BKN240 11/09 A2999 RMK AC1CI6 SLP167 DENSITY ALT 3000FT

CYQF;2015-08-24 16:00;CYQF 241600Z 30007KT 15SM FEW140 BKN250 13/09 A2999 RMK AC2CI5 SLP166 DENSITY ALT 3300FT

CYQF;2015-08-24 17:00;CYQF 241700Z 30005KT 270V350 15SM FEW140 BKN250 15/10 A2999 RMK AC2CI5 SLP163 DENSITY ALT 3500FT

CYQF;2015-08-24 18:00;CYQF 241800Z 28005KT 260V330 15SM FEW140 BKN250 18/12 A2998 RMK AC1CI6 SLP159 DENSITY ALT 3800FT

CYQF;2015-08-24 19:00;CYQF 241900Z 31005KT 260V360 10SM HZ FEW140 BKN250 20/11 A2997 RMK AC2CI3 SLP154 DENSITY ALT 4100FT

CYQF;2015-08-24 20:00;CYQF 242000Z VRB03KT 8SM SCT080 BKN200 20/12 A2996 RMK FU3CI3 SLP152 DENSITY ALT 4200FT

CYQF;2015-08-24 21:00;CYQF 242100Z VRB02KT 8SM SCT080 BKN200 22/13 A2995 RMK FU4CI3 SLP148 DENSITY ALT 4300FT

CYQF;2015-08-24 22:00;CYQF 242200Z 03004KT 280V080 8SM SCT080 OVC250 22/11 A2994 RMK FU4CI4 SLP145 DENSITY ALT 4400FT

CYQF;2015-08-24 23:00;CYQF 242300Z 04003KT 010V080 8SM SCT080 BKN250 22/12 A2994 RMK FU3CI4 SLP146 DENSITY ALT 4300FT

CYQF;2015-08-25 00:00;CYQF 250000Z 07006KT 10SM SCT100 BKN250 20/14 A2993 RMK AC3CI4 SLP144 DENSITY ALT 4200FT

CYQF;2015-08-25 01:00;CYQF 250100Z 06005KT 10SM SCT100 BKN250 19/15 A2993 RMK AC3CI4 SLP146 DENSITY ALT 4100FT

CYQF;2015-08-25 02:00;CYQF 250200Z 06004KT 8SM SCT060 OVC250 17/13 A2994 RMK SC4CI4 SLP148 DENSITY ALT 3800FT

CYQF;2015-08-25 03:00;CYQF 250300Z 06006KT 8SM SCT080 OVC200 15/13 A2994 RMK AC4CI4 SLP151 DENSITY ALT 3600FT

CYQF;2015-08-25 04:00;CYQF 250400Z 05004KT 8SM SCT080 OVC220 15/12 A2995 RMK AC4CI4 SLP152 DENSITY ALT 3600FT

CYQF;2015-08-25 05:00;CYQF 250500Z 03003KT 8SM FEW080 OVC220 14/12 A2996 RMK AC2CI6 FU SLP153 DENSITY ALT 3500FT

CYQF;2015-08-25 06:00;CYQF 250600Z 35003KT 8SM FEW080 OVC220 13/12 A2995 RMK AC2CI6 FU SLP150 DENSITY ALT 3400FT

CYQF;2015-08-25 07:00;CYQF 250700Z 35005KT 10SM FEW080 OVC220 12/11 A2996 RMK AC2CI6 FU SLP150 DENSITY ALT 3200FT

CYQF;2015-08-25 08:00;CYQF 250800Z 32002KT 10SM FEW090 OVC220 12/11 A2996 RMK AC2CI6 FU SLP150 DENSITY ALT 3200FT

CYQF;2015-08-25 09:00;CYQF 250900Z 23003KT 6SM BR FEW090 BKN220 10/09 A2995 RMK AC2CI5 SLP148 DENSITY ALT 3000FT

CYQF;2015-08-25 10:00;CYQF 251000Z VRB02KT 6SM BR BKN080 OVC220 10/09 A2995 RMK AC5CI3 SLP149

CYQF;2015-08-25 11:00;CYQF 251100Z 23005KT 3SM BR OVC078 09/08 A2996 RMK AC8 SLP153

CYQF;2015-08-25 11:38;CYQF 251138Z 20004KT 1SM BR OVC080 08/08 A2997 RMK FG3AC5 SLP158

CYQF;2015-08-25 12:00;CYQF 251200Z 00000KT 1SM BR BKN075 OVC120 07/07 A2998 RMK FG2AC4AC2 SLP161

CYQF;2015-08-25 12:18;CYQF 251218Z VRB02KT 1/2SM FG OVC080 08/08 A2998 RMK FG3AC5 SLP161

CYQF;2015-08-25 12:41;CYQF 251241Z 22002KT 3/8SM FG OVC080 07/07 A2999 RMK FG4AC4 SLP164

CYQF;2015-08-25 13:00;CYQF 251300Z 00000KT 1/2SM FG OVC080 07/07 A3000 RMK FG4AC4 SLP169

CYQF;2015-08-25 13:32;CYQF 251332Z 22002KT 1 1/2SM BR BKN070 08/08 A3000 RMK FG2AC5 FU SLP169

CYQF;2015-08-25 14:00;CYQF 251400Z 24002KT 3SM BR BKN070 10/10 A3001 RMK AC7 FU SLP172

CYQF;2015-08-25 15:00;CYQF 251500Z VRB02KT 3SM BR BKN070 12/11 A3002 RMK AC7 FU SLP175 DENSITY ALT 3100FT

CYQF;2015-08-25 15:35;CYQF 251535Z 30002KT 5SM BR FEW010 BKN070 13/12 A3002 RMK SF2AC5 FU SLP175 DENSITY ALT 3200FT

CYQF;2015-08-25 16:00;CYQF 251600Z 32004KT 5SM BR FEW010 BKN070 13/12 A3002 RMK SF2AC5 FU WND ESTD SLP176 DENSITY ALT 3300FT

CYQF;2015-08-25 17:00;CYQF 251700Z VRB02KT 6SM FU BKN240 14/12 A3002 RMK CI7 SLP175 DENSITY ALT 3400FT

CYQF;2015-08-25 18:00;CYQF 251800Z 27003KT 260V330 6SM FU FEW040 BKN240 17/12 A3002 RMK FU2CI5 SLP173 DENSITY ALT 3700FT

CYQF;2015-08-25 19:00;CYQF 251900Z 00000KT 6SM FU SCT040 BKN240 18/13 A3002 RMK FU4CI3 SLP171 DENSITY ALT 3900FT

CYQF;2015-08-25 20:00;CYQF 252000Z VRB02KT 10SM SCT040 BKN240 21/14 A3001 RMK FU3CI3 FU SLP168 DENSITY ALT 4100FT

CYQF;2015-08-25 21:00;CYQF 252100Z 00000KT 8SM BKN035 OVC240 21/13 A3000 RMK FU3SC4CI1 SLP166 DENSITY ALT 4200FT

CYQF;2015-08-25 22:00;CYQF 252200Z 03003KT 350V130 8SM BKN035 OVC250 22/14 A3000 RMK FU3SC4CI1 SLP166 DENSITY ALT 4300FT

CYQF;2015-08-25 23:00;CYQF 252300Z 03004KT 5SM FU BKN035 OVC250 21/15 A3001 RMK FU6CI2 SLP168 DENSITY ALT 4200FT

CYQF;2015-08-26 00:00;CYQF 260000Z 02002KT 5SM FU BKN040 OVC250 21/16 A3001 RMK FU5CI3 SLP172 DENSITY ALT 4200FT

CYQF;2015-08-26 01:00;CYQF 260100Z VRB02KT 5SM FU OVC040 20/16 A3002 RMK FU4SC4 SLP175 DENSITY ALT 4000FT

CYQF;2015-08-26 02:00;CYQF 260200Z 35002KT 5SM FU BKN040 OVC250 18/15 A3003 RMK FU4SC3CI1 SLP179 DENSITY ALT 3800FT

CYQF;2015-08-26 03:00;CYQF 260300Z 36005KT 8SM OVC060 14/13 A3004 RMK FU8 SLP185 DENSITY ALT 3300FT

CYQF;2015-08-26 04:00;CYQF 260400Z 36004KT 8SM OVC060 13/13 A3006 RMK FU8 SLP191 DENSITY ALT 3300FT

CYQF;2015-08-26 05:00;CYQF 260500Z 35006KT 8SM OVC054 13/12 A3007 RMK FU8 FU SLP192 DENSITY ALT 3200FT

CYQF;2015-08-26 06:00;CYQF 260600Z 00000KT 8SM OVC050 12/12 A3008 RMK FU8 FU SLP194 DENSITY ALT 3100FT

CYQF;2015-08-26 07:00;CYQF 260700Z 34003KT 10SM SKC 12/12 A3009 RMK FU SLP196 DENSITY ALT 3100FT

CYQF;2015-08-26 08:00;CYQF 260800Z 00000KT 6SM BR FU BKN170 11/11 A3008 RMK AC5 SLP193 DENSITY ALT 3000FT

CYQF;2015-08-26 09:00;CYQF 260900Z 00000KT 6SM FU BR SCT150 10/09 A3009 RMK AC4 SLP195

CYQF;2015-08-26 10:00;CYQF 261000Z 28004KT 10SM FEW080 BKN150 10/10 A3010 RMK AC2AC4 SLP198

CYQF;2015-08-26 11:00;CYQF 261100Z 30003KT 10SM OVC074 09/09 A3011 RMK FU8 FU SLP202

CYQF;2015-08-26 12:00;CYQF 261200Z 00000KT 10SM OVC074 09/09 A3012 RMK FU8 FU SLP209

CYQF;2015-08-26 13:00;CYQF 261300Z 32003KT 10SM MIFG OVC076 10/09 A3013 RMK FU8 FU SLP211

CYQF;2015-08-26 14:00;CYQF 261400Z 31004KT 6SM FU OVC080 11/10 A3014 RMK FU4AC4 SLP217

CYQF;2015-08-26 15:00;CYQF 261500Z 31003KT 6SM FU OVC080 13/12 A3015 RMK FU4AC4 SLP222 DENSITY ALT 3100FT

CYQF;2015-08-26 16:00;CYQF 261600Z 34004KT 6SM FU SCT005 OVC100 14/13 A3015 RMK FU2SF2AC4 SLP222 DENSITY ALT 3200FT

CYQF;2015-08-26 17:00;CYQF 261700Z 32004KT 240V360 6SM FU FEW009 BKN040 BKN100 15/13 A3016 RMK SF2SC4AC1 SLP224 DENSITY ALT 3300FT

CYQF;2015-08-26 18:00;CYQF 261800Z 34003KT 310V090 6SM FU FEW010 BKN040 BKN100 17/13 A3015 RMK SF2SC3AC2 SLP218 DENSITY ALT 3500FT

CYQF;2015-08-26 19:00;CYQF 261900Z 36003KT 300V040 6SM FU BKN060 OVC100 18/14 A3014 RMK FU6AC2 SLP214 DENSITY ALT 3700FT

CYQF;2015-08-26 20:00;CYQF 262000Z VRB04KT 7SM BKN070 19/14 A3012 RMK FU7 SLP208 DENSITY ALT 3900FT

CYQF;2015-08-26 21:00;CYQF 262100Z VRB02KT 7SM FEW030 BKN070 20/14 A3011 RMK CU1FU6 SLP203 DENSITY ALT 4000FT

CYQF;2015-08-26 22:00;CYQF 262200Z 05004KT 340V150 7SM FEW030 BKN060 21/15 A3009 RMK CU1FU6 SLP194 DENSITY ALT 4100FT

CYQF;2015-08-26 23:00;CYQF 262300Z 07003KT 040V150 7SM FU FEW028 OVC050 22/14 A3007 RMK CU1FU7 SLP188 DENSITY ALT 4200FT

CYQF;2015-08-27 00:00;CYQF 270000Z 08007KT 7SM FEW032 OVC050 21/13 A3006 RMK CF1FU7 FU SLP188 DENSITY ALT 4100FT

CYQF;2015-08-27 01:00;CYQF 270100Z 06005KT 8SM OVC080 20/16 A3006 RMK FU8 SLP187 DENSITY ALT 4000FT

CYQF;2015-08-27 02:00;CYQF 270200Z 08005KT 8SM SCT080 BKN250 18/15 A3005 RMK FU3CI4 SLP184 DENSITY ALT 3800FT

CYQF;2015-08-27 03:00;CYQF 270300Z 06003KT 8SM BKN080 15/13 A3006 RMK FU6 SLP188 DENSITY ALT 3500FT

CYQF;2015-08-27 04:00;CYQF 270400Z 01004KT 8SM BKN080 OVC240 14/13 A3006 RMK FU5CI3 SLP190 DENSITY ALT 3300FT

CYQF;2015-08-27 05:00;CYQF 270500Z 01003KT 8SM BKN240 14/13 A3005 RMK CI7 FU SLP184 DENSITY ALT 3300FT

CYQF;2015-08-27 06:00;CYQF 270600Z 01002KT 8SM OVC200 13/12 A3004 RMK CI8 FU SLP178 DENSITY ALT 3300FT

CYQF;2015-08-27 07:00;CYQF 270700Z 00000KT 8SM SCT140 BKN240 14/13 A3003 RMK AC4CI3 FU SLP174 DENSITY ALT 3300FT

CYQF;2015-08-27 08:00;CYQF 270800Z 16003KT 8SM SCT140 BKN240 13/12 A3002 RMK AC4CI3 FU SLP170 DENSITY ALT 3200FT

CYQF;2015-08-27 09:00;CYQF 270900Z 21002KT 8SM OVC054 12/12 A3000 RMK FU8 FU SLP162 DENSITY ALT 3200FT

CYQF;2015-08-27 10:00;CYQF 271000Z VRB02KT 10SM SCT150 OVC240 12/11 A2999 RMK AC4CI4 SLP158 DENSITY ALT 3100FT

CYQF;2015-08-27 11:00;CYQF 271100Z 00000KT 8SM OVC160 11/11 A2997 RMK AC8 FU SLP153 DENSITY ALT 3100FT

CYQF;2015-08-27 12:00;CYQF 271200Z 01006KT 8SM OVC160 11/11 A2997 RMK AC8 FU SLP153 DENSITY ALT 3100FT

CYQF;2015-08-27 13:00;CYQF 271300Z 34003KT 2SM FU BR OVC045 11/11 A2996 RMK FU4SC4 SLP153 DENSITY ALT 3100FT

CYQF;2015-08-27 14:00;CYQF 271400Z 00000KT 3SM FU BR SCT045 BKN240 13/13 A2996 RMK FU2SC2CI3 SLP153 DENSITY ALT 3300FT

CYQF;2015-08-27 15:00;CYQF 271500Z 22002KT 3SM FU BR SCT040 BKN240 15/14 A2997 RMK FU4CI3 SLP155 DENSITY ALT 3500FT

CYQF;2015-08-27 16:00;CYQF 271600Z 29004KT 220V310 3SM FU SCT010 OVC240 16/14 A2996 RMK FU2SF1CI5 SLP152 DENSITY ALT 3700FT

CYQF;2015-08-27 17:00;CYQF 271700Z 25003KT 230V300 3SM FU SCT010 OVC240 18/15 A2996 RMK FU2SF1CI5 SLP152 DENSITY ALT 3800FT

CYQF;2015-08-27 18:00;CYQF 271800Z 01003KT 250V030 5SM FU BKN240 20/15 A2995 RMK CI5 SLP146 DENSITY ALT 4100FT

CYQF;2015-08-27 19:00;CYQF 271900Z 00000KT 5SM FU BKN240 21/16 A2993 RMK CI6 SLP138 DENSITY ALT 4200FT

CYQF;2015-08-27 20:00;CYQF 272000Z 15002KT 5SM FU BKN240 22/15 A2992 RMK CI6 VIA YQU FSS SLP132 DENSITY ALT 4400FT

CYQF;2015-08-27 21:00;CYQF 272100Z VRB03KT 5SM FU SKC 23/15 A2990 RMK SLP125 DENSITY ALT 4500FT

CYQF;2015-08-27 22:00;CYQF 272200Z 20004KT 5SM FU SCT160 BKN240 23/15 A2988 RMK AC4CI3 SLP118 DENSITY ALT 4600FT

CYQF;2015-08-27 23:00;CYQF 272300Z 13007KT 120V200 3SM FU SCT160 BKN240 24/15 A2986 RMK AC3CI3 SLP110 DENSITY ALT 4700FT

CYQF;2015-08-28 00:00;CYQF 280000Z 14007KT 3SM FU SCT160 BKN240 23/14 A2985 RMK AC3CI3 SLP109 DENSITY ALT 4600FT

CYQF;2015-08-28 01:00;CYQF 280100Z 15007KT 3SM FU SCT040 BKN140 21/15 A2984 RMK FU4AC2 SLP106 DENSITY ALT 4400FT

CYQF;2015-08-28 02:00;CYQF 280200Z 19004KT 3SM FU SCT040 BKN140 BKN240 19/15 A2983 RMK FU4AC1CI1 SLP106 DENSITY ALT 4200FT

CYQF;2015-08-28 03:00;CYQF 280300Z 00000KT 5SM FU FEW140 BKN240 16/14 A2984 RMK AC2CI3 SLP109 DENSITY ALT 3800FT

CYQF;2015-08-28 04:00;CYQF 280400Z 06003KT 5SM FU BR FEW140 BKN240 15/14 A2984 RMK AC1CI4 SLP110 DENSITY ALT 3700FT

CYQF;2015-08-28 05:00;CYQF 280500Z 19004KT 5SM FU BR FEW140 SCT240 12/11 A2985 RMK AC1CI3 SLP114 DENSITY ALT 3300FT

CYQF;2015-08-28 06:00;CYQF 280600Z 21006KT 4SM FU BR FEW140 SCT240 12/11 A2985 RMK AC1CI3 SLP113 DENSITY ALT 3300FT

CYQF;2015-08-28 07:00;CYQF 280700Z 22007KT 8SM SCT240 13/11 A2986 RMK CI3 FU SLP112 DENSITY ALT 3500FT

CYQF;2015-08-28 08:00;CYQF 280800Z 25005KT 10SM BKN120 13/10 A2986 RMK AC5 SLP110 DENSITY ALT 3400FT

CYQF;2015-08-28 09:00;CYQF 280900Z 21004KT 10SM SCT240 10/08 A2986 RMK CI4 FU SLP114 DENSITY ALT 3100FT

CYQF;2015-08-28 10:00;CYQF 281000Z 19003KT 10SM BKN240 09/07 A2986 RMK CI5 FU SLP115 DENSITY ALT 3000FT

CYQF;2015-08-28 11:00;CYQF 281100Z 00000KT 10SM BKN240 09/07 A2986 RMK CI5 FU SLP116

CYQF;2015-08-28 12:00;CYQF 281200Z 23007KT 12SM BKN240 09/07 A2986 RMK CI6 SLP117 DENSITY ALT 3000FT

CYQF;2015-08-28 13:00;CYQF 281300Z 21004KT 170V230 8SM SCT120 BKN240 09/07 A2986 RMK AC3CI4 SLP118 DENSITY ALT 3000FT

CYQF;2015-08-28 14:00;CYQF 281400Z 16003KT 080V200 6SM FU SCT120 BKN240 10/09 A2986 RMK AC4CI3 SLP119 DENSITY ALT 3100FT

CYQF;2015-08-28 15:00;CYQF 281500Z 16003KT 080V170 6SM FU FEW120 BKN240 14/10 A2986 RMK AC2CI5 SLP119 DENSITY ALT 3500FT

CYQF;2015-08-28 16:00;CYQF 281600Z 19006KT 4SM FU BKN140 BKN240 15/11 A2986 RMK FU2AC4CI1 SLP116 DENSITY ALT 3700FT

CYQF;2015-08-28 17:00;CYQF 281700Z 19007KT 3SM FU OVC120 17/11 A2985 RMK FU3AC5 SLP115 DENSITY ALT 3900FT

CYQF;2015-08-28 18:00;CYQF 281800Z 20007KT 3SM FU BKN120 BKN240 19/10 A2983 RMK FU3AC3CI1 SLP107 DENSITY ALT 4200FT

CYQF;2015-08-28 19:00;CYQF 281900Z 21005KT 3SM FU BKN120 OVC220 19/11 A2981 RMK FU3AC4CI1 SLP097 DENSITY ALT 4200FT

CYQF;2015-08-28 20:00;CYQF 282000Z 17005KT 3SM FU BKN120 OVC220 22/12 A2979 RMK FU3AC3CI2 VIS S 11/2 FU SLP090 DENSITY ALT 4500FT

CYQF;2015-08-28 21:00;CYQF 282100Z 18006KT 3SM FU BKN120 OVC220 23/11 A2977 RMK FU3AC3CI2 VIS S 11/2 FU SLP083 DENSITY ALT 4700FT

CYQF;2015-08-28 21:19;CYQF 282119Z 20006KT 2SM FU BKN140 BKN220 23/12 A2976 RMK FU3AC2CI2 SLP081 DENSITY ALT 4700FT

CYQF;2015-08-28 22:00;CYQF 282200Z 20006KT 2SM FU OVC140 22/12 A2976 RMK FU4AC4 SLP080 DENSITY ALT 4600FT

CYQF;2015-08-28 23:00;CYQF 282300Z 20009KT 2SM FU OVC100 21/11 A2974 RMK FU4AC4 SLP076 DENSITY ALT 4500FT

CYQF;2015-08-29 00:00;CYQF 290000Z 19006KT 2SM FU BKN180 20/12 A2974 RMK AC7 SLP075 DENSITY ALT 4400FT

CYQF;2015-08-29 00:20;CYQF 290020Z 21009KT 3SM FU BKN170 22/10 A2973 RMK AC7 VIS S 6 FU SLP072 DENSITY ALT 4600FT

CYQF;2015-08-29 01:00;CYQF 290100Z 22007KT 4SM FU BKN160 22/10 A2972 RMK AC7 SLP069 DENSITY ALT 4600FT

CYQF;2015-08-29 02:00;CYQF 290200Z 22010KT 5SM FU FEW150 BKN210 21/09 A2971 RMK AC2CI5 SLP066 DENSITY ALT 4500FT

CYQF;2015-08-29 03:00;CYQF 290300Z 23008KT 5SM FU BKN210 19/09 A2972 RMK CI6 SLP066 DENSITY ALT 4300FT

CYQF;2015-08-29 04:00;CYQF 290400Z 26007KT 5SM FU BKN210 18/09 A2973 RMK CI7 SLP068 DENSITY ALT 4100FT

CYQF;2015-08-29 05:00;CYQF 290500Z 27008KT 5SM FU BKN210 16/09 A2974 RMK CI7 SLP072 DENSITY ALT 3900FT

CYQF;2015-08-29 06:00;CYQF 290600Z 01005KT 240V020 5SM FU BKN210 14/09 A2973 RMK CI7 SLP070 DENSITY ALT 3700FT

CYQF;2015-08-29 07:00;CYQF 290700Z 24006KT 6SM FU BKN220 14/09 A2975 RMK CI7 SLP074 DENSITY ALT 3700FT

CYQF;2015-08-29 08:00;CYQF 290800Z 24004KT 6SM FU OVC230 14/09 A2976 RMK CI8 SLP077 DENSITY ALT 3700FT

CYQF;2015-08-29 09:00;CYQF 290900Z 17004KT 6SM FU OVC240 11/09 A2977 RMK CI8 SLP083 DENSITY ALT 3300FT

CYQF;2015-08-29 10:00;CYQF 291000Z 35004KT 6SM FU OVC200 11/09 A2978 RMK CI8 SLP088 DENSITY ALT 3300FT

CYQF;2015-08-29 11:00;CYQF 291100Z VRB02KT 8SM SCT100 OVC200 12/09 A2980 RMK AC4CI4 FU SLP094 DENSITY ALT 3400FT

CYQF;2015-08-29 12:00;CYQF 291200Z 03003KT 8SM BKN100 OVC200 13/09 A2980 RMK AC6CI2 FU SLP094 DENSITY ALT 3500FT

CYQF;2015-08-29 13:00;CYQF 291300Z 16005KT 8SM BKN120 OVC200 12/09 A2981 RMK AC7CI1 SLP095 DENSITY ALT 3400FT

CYQF;2015-08-29 14:00;CYQF 291400Z 12002KT 8SM SCT120 BKN250 13/09 A2981 RMK AC4CI3 SLP095 DENSITY ALT 3500FT

CYQF;2015-08-29 15:00;CYQF 291500Z 06002KT 10SM BKN140 BKN250 15/11 A2980 RMK AC5CI2 SLP093 DENSITY ALT 3700FT

CYQF;2015-08-29 16:00;CYQF 291600Z 10005KT 070V150 12SM FEW140 BKN250 18/09 A2979 RMK AC2CI5 SLP089 DENSITY ALT 4100FT

CYQF;2015-08-29 17:00;CYQF 291700Z 13009KT 12SM FEW150 BKN250 19/10 A2977 RMK AC2CI4 SLP082 DENSITY ALT 4300FT

CYQF;2015-08-29 18:00;CYQF 291800Z 15015G20KT 12SM BKN150 BKN280 22/09 A2974 RMK AC5CC2 SLP071 DENSITY ALT 4600FT

CYQF;2015-08-29 19:00;CYQF 291900Z 13012G18KT 10SM SCT160 BKN280 23/11 A2969 RMK AC3CI4 PRESFR SLP051 DENSITY ALT 4800FT

CYQF;2015-08-29 20:00;CYQF 292000Z 13013G19KT 8SM FEW200 BKN280 25/11 A2964 RMK CI2CI5 PRESFR SLP031 DENSITY ALT 5000FT

CYQF;2015-08-29 21:00;CYQF 292100Z 11012KT 8SM OVC280 24/10 A2958 RMK CI8 SLP016 DENSITY ALT 5000FT

CYQF;2015-08-29 22:00;CYQF 292200Z 14019G30KT 8SM OVC280 26/11 A2954 RMK CI8 SLP999 DENSITY ALT 5300FT

CYQF;2015-08-29 23:00;CYQF 292300Z 16018G30KT 6SM FU OVC280 25/10 A2951 RMK CI8 SLP990 DENSITY ALT 5200FT

CYQF;2015-08-30 00:00;CYQF 300000Z 16019G28KT 6SM FU BKN280 24/11 A2948 RMK CI6 SLP979 DENSITY ALT 5200FT

CYQF;2015-08-30 01:00;CYQF 300100Z 17013G21KT 3SM FU SCT120 BKN280 23/11 A2948 RMK AC4CI2 SLP982 DENSITY ALT 5000FT

CYQF;2015-08-30 02:00;CYQF 300200Z 23015G23KT 6SM FU SCT120 23/08 A2950 RMK AC4 SLP988 DENSITY ALT 4900FT

CYQF;2015-08-30 03:00;CYQF 300300Z 22011KT 10SM FEW120 20/07 A2951 RMK AC2 FU PRESRR SLP993 DENSITY ALT 4600FT

CYQF;2015-08-30 04:00;CYQF 300400Z 21012G19KT 15SM SKC 19/04 A2953 RMK SLP997 DENSITY ALT 4500FT

CYQF;2015-08-30 05:00;CYQF 300500Z 20008KT 15SM SKC 16/04 A2953 RMK SLP998 DENSITY ALT 4200FT

CYQF;2015-08-30 06:00;CYQF 300600Z 21009KT 15SM SKC 14/04 A2953 RMK SLP996 DENSITY ALT 4000FT

CYQF;2015-08-30 07:00;CYQF 300700Z 20006KT 15SM SKC 11/05 A2953 RMK SLP998 DENSITY ALT 3600FT

CYQF;2015-08-30 08:00;CYQF 300800Z 14002KT 15SM SKC 08/05 A2954 RMK SLP004 DENSITY ALT 3300FT

CYQF;2015-08-30 09:00;CYQF 300900Z 20004KT 15SM FEW250 08/05 A2955 RMK CI2 SLP008 DENSITY ALT 3200FT

CYQF;2015-08-30 10:00;CYQF 301000Z 21009KT 15SM SCT250 09/05 A2954 RMK CI3 SLP002 DENSITY ALT 3400FT

CYQF;2015-08-30 11:00;CYQF 301100Z 25005KT 250V010 15SM SKC 07/04 A2956 RMK SLP012 DENSITY ALT 3000FT

CYQF;2015-08-30 12:00;CYQF 301200Z 16003KT 15SM FEW250 07/04 A2956 RMK CI1 SLP012 DENSITY ALT 3000FT

CYQF;2015-08-30 13:00;CYQF 301300Z 09003KT 12SM SCT250 06/04 A2956 RMK CI3 SLP014 DENSITY ALT 3000FT

CYQF;2015-08-30 14:00;CYQF 301400Z 17005KT 120V200 12SM FEW250 08/05 A2956 RMK CI1 SLP014 DENSITY ALT 3200FT

CYQF;2015-08-30 15:00;CYQF 301500Z 14004KT 100V190 10SM FEW250 13/07 A2956 RMK CI2 SLP009 DENSITY ALT 3800FT

CYQF;2015-08-30 16:00;CYQF 301600Z 19005KT 8SM SKC 17/07 A2955 RMK SLP005 DENSITY ALT 4200FT

CYQF;2015-08-30 17:00;CYQF 301700Z 20010KT 8SM FEW250 20/06 A2955 RMK CI1 SLP003 DENSITY ALT 4600FT

CYQF;2015-08-30 18:00;CYQF 301800Z 24010KT 8SM FEW250 22/06 A2955 RMK CI1 SLP003 DENSITY ALT 4800FT

CYQF;2015-08-30 19:00;CYQF 301900Z 22012KT 190V260 8SM FEW150 23/05 A2953 RMK AC1 SLP000 DENSITY ALT 4900FT

CYQF;2015-08-30 20:00;CYQF 302000Z 24006KT 200V270 10SM FEW070 SCT150 23/05 A2954 RMK CU1AC3 SLP003 DENSITY ALT 5000FT

CYQF;2015-08-30 21:00;CYQF 302100Z 32012KT 10SM FEW060 BKN140 22/07 A2952 RMK CU2AC4 SLP000 DENSITY ALT 4900FT

CYQF;2015-08-30 22:00;CYQF 302200Z 33008KT 12SM FEW050 BKN150 22/06 A2953 RMK CU2AC4 SLP003 DENSITY ALT 4900FT

CYQF;2015-08-30 23:00;CYQF 302300Z 32005KT 290V010 12SM SCT050TCU BKN160 21/08 A2954 RMK TCU3AC4 SLP008 DENSITY ALT 4800FT

CYQF;2015-08-31 00:00;CYQF 310000Z 33004KT 12SM VCSH SCT034TCU BKN110 BKN250 18/11 A2953 RMK TCU3AC3CI1 SLP008 DENSITY ALT 4400FT

CYQF;2015-08-31 00:09;CYQF 310009Z 30008KT 12SM TS VCSH SCT034CB BKN100 OVC250 18/09 A2953 RMK CB4AC3CI1 SLP011 DENSITY ALT 4300FT

CYQF;2015-08-31 00:16;CYQF 310016Z 32014KT 8SM TSRA BKN040CB BKN100 OVC250 18/11 A2955 RMK CB5AC2CI1 LTGCG SE-W CB OVRHD WND ESTD PRESRR SLP016 DENSITY ALT 4300FT

CYQF;2015-08-31 00:24;CYQF 310024Z 27006KT 12SM -TSRA BKN040CB BKN080 18/13 A2956 RMK CB5AC2 LTGCG NW-SE CB MOVG E WND ESTD PRESRR SLP018 DENSITY ALT 4400FT

CYQF;2015-08-31 01:00;CYQF 310100Z 32005KT 12SM -SHRA SCT040CB BKN080 15/11 A2958 RMK CB4AC3 WND ESTD SLP031 DENSITY ALT 4000FT

CYQF;2015-08-31 01:17;CYQF 310117Z 32004KT 12SM FEW040CB BKN078 15/10 A2957 RMK CB2AC5 WND ESTD SLP027 DENSITY ALT 4000FT

CYQF;2015-08-31 02:00;CYQF 310200Z VRB02KT 15SM SCT080 BKN120 14/10 A2956 RMK ACC3AC3 SLP025 DENSITY ALT 3900FT

CYQF;2015-08-31 03:00;CYQF 310300Z 21006KT 15SM FEW080 SCT130 11/07 A2958 RMK AC2AC2 SLP029 DENSITY ALT 3500FT

CYQF;2015-08-31 04:00;CYQF 310400Z 22008KT 15SM SKC 09/05 A2958 RMK SLP027 DENSITY ALT 3300FT

CYQF;2015-08-31 05:00;CYQF 310500Z 22007KT 15SM SKC 08/04 A2958 RMK SLP022 DENSITY ALT 3200FT

CYQF;2015-08-31 06:00;CYQF 310600Z 22007KT 15SM SKC 06/03 A2958 RMK SLP023 DENSITY ALT 3000FT

CYQF;2015-08-31 07:00;CYQF 310700Z 22008KT 15SM SKC 07/02 A2958 RMK SLP020 DENSITY ALT 3100FT

CYQF;2015-08-31 08:00;CYQF 310800Z 19005KT 15SM FEW250 06/03 A2959 RMK CI1 SLP024

CYQF;2015-08-31 09:00;CYQF 310900Z 19006KT 15SM FEW250 05/02 A2959 RMK CI1 SLP027

CYQF;2015-08-31 10:00;CYQF 311000Z 20005KT 15SM SCT220 05/02 A2959 RMK CI4 SLP026

CYQF;2015-08-31 11:00;CYQF 311100Z 19006KT 15SM BKN200 04/02 A2959 RMK CI6 SLP030

CYQF;2015-08-31 12:00;CYQF 311200Z 20004KT 15SM BKN240 05/02 A2959 RMK CI6 SLP032

CYQF;2015-08-31 13:00;CYQF 311300Z 19004KT 15SM FEW120 SCT240 05/02 A2960 RMK AC2CI2 SLP038

CYQF;2015-08-31 14:00;CYQF 311400Z 19006KT 190V280 15SM FEW120 FEW240 08/04 A2961 RMK AC1CI1 SLP041 DENSITY ALT 3100FT

CYQF;2015-08-31 15:00;CYQF 311500Z 22010KT 15SM FEW120 BKN240 12/05 A2962 RMK AC1CI4 SLP041 DENSITY ALT 3600FT

CYQF;2015-08-31 16:00;CYQF 311600Z 24005KT 15SM FEW120 BKN240 16/07 A2964 RMK AC1CI4 SLP046 DENSITY ALT 4000FT

CYQF;2015-08-31 17:00;CYQF 311700Z CCA 25004KT 200V300 15SM FEW050 FEW120 BKN250 18/07 A2964 RMK CU1AC1CI5 CU TR SLP044 DENSITY ALT 4300FT

CYQF;2015-08-31 18:00;CYQF 311800Z 26006KT 230V310 15SM FEW056 FEW120 BKN280 19/06 A2965 RMK CU1AC1CI6 CU TR SLP048 DENSITY ALT 4400FT

CYQF;2015-08-31 19:00;CYQF 311900Z 26008KT 240V300 15SM FEW056 BKN280 21/06 A2965 RMK CU1CI7 CU TR SLP045 DENSITY ALT 4600FT

CYQF;2015-08-31 20:00;CYQF 312000Z 25006KT 160V290 15SM FEW060 BKN280 20/03 A2965 RMK CU1CI6 SLP048 DENSITY ALT 4500FT

CYQF;2015-08-31 21:00;CYQF 312100Z 24005KT 200V270 15SM FEW060 BKN280 21/03 A2964 RMK CU1CI6 SLP046 DENSITY ALT 4600FT

CYQF;2015-08-31 22:00;CYQF 312200Z 17008KT 150V240 15SM SCT060 BKN280 22/04 A2963 RMK CU3CI4 SLP042 DENSITY ALT 4700FT

CYQF;2015-08-31 23:00;CYQF 312300Z VRB02KT 15SM SCT060 BKN280 21/07 A2962 RMK CU4CI3 SLP038 DENSITY ALT 4600FT

CYQF;2015-09-01 00:00;CYQF 010000Z 04004KT 300V060 15SM FEW060 BKN280 21/07 A2961 RMK CU2CI4 SLP037 DENSITY ALT 4700FT

CYQF;2015-09-01 01:00;CYQF 010100Z 23004KT 15SM FEW060 BKN280 20/08 A2961 RMK SC2CI4 SLP037 DENSITY ALT 4500FT

CYQF;2015-09-01 02:00;CYQF 010200Z 19007KT 15SM FEW090 BKN280 14/07 A2960 RMK AC2CI4 SLP038 DENSITY ALT 3900FT

CYQF;2015-09-01 03:00;CYQF 010300Z 21009KT 15SM FEW090 SCT240 13/07 A2962 RMK AC2CI2 SLP039 DENSITY ALT 3700FT

CYQF;2015-09-01 04:00;CYQF 010400Z 20006KT 15SM FEW090 SCT240 10/06 A2962 RMK AC2CI2 VIA CYQU SLP038 DENSITY ALT 3400FT

CYQF;2015-09-01 05:00;CYQF 010500Z 25003KT 15SM BKN160 BKN250 10/06 A2962 RMK AC5CI2 SLP037 DENSITY ALT 3400FT

CYQF;2015-09-01 06:00;CYQF 010600Z 05002KT 15SM BKN150 BKN250 09/06 A2960 RMK AC5CI2 SLP030 DENSITY ALT 3300FT

CYQF;2015-09-01 07:00;CYQF 010700Z 21005KT 15SM SCT140 BKN250 08/05 A2957 RMK AC3CI2 SLP020 DENSITY ALT 3200FT

CYQF;2015-09-01 08:00;CYQF 010800Z 18007KT 15SM SCT140 BKN250 07/05 A2956 RMK AC3CI2 SLP018 DENSITY ALT 3100FT

CYQF;2015-09-01 09:00;CYQF 010900Z 18004KT 15SM BKN140 BKN260 08/05 A2955 RMK AC5CI2 SLP011 DENSITY ALT 3200FT

CYQF;2015-09-01 10:00;CYQF 011000Z 19008KT 15SM FEW140 SCT250 08/05 A2953 RMK AC2CI2 SLP002 DENSITY ALT 3300FT

CYQF;2015-09-01 11:00;CYQF 011100Z 18005KT 15SM SKC 05/03 A2952 RMK SLP004

CYQF;2015-09-01 12:00;CYQF 011200Z 20008KT 15SM FEW140 08/04 A2953 RMK AC1 SLP005 DENSITY ALT 3200FT

CYQF;2015-09-01 13:00;CYQF 011300Z 28008G22KT 15SM FEW040 08/04 A2959 RMK SC1 PRESRR SLP026 DENSITY ALT 3200FT

CYQF;2015-09-01 14:00;CYQF 011400Z 33004KT 15SM FEW040 09/05 A2961 RMK SC1 SLP038 DENSITY ALT 3300FT

CYQF;2015-09-01 15:00;CYQF 011500Z 29005KT 15SM FEW040 11/06 A2963 RMK SC2 SLP044 DENSITY ALT 3500FT

CYQF;2015-09-01 16:00;CYQF 011600Z 31004KT 270V350 15SM BKN095 13/07 A2965 RMK AC6 SLP051 DENSITY ALT 3700FT

CYQF;2015-09-01 17:00;CYQF 011700Z 35008KT 15SM BKN080 BKN260 15/07 A2966 RMK AC6CI1 SLP053 DENSITY ALT 4000FT

CYQF;2015-09-01 18:00;CYQF 011800Z 34005KT 310V030 15SM BKN080 BKN260 17/04 A2967 RMK AC5CI2 SLP057 DENSITY ALT 4100FT

CYQF;2015-09-01 19:00;CYQF 011900Z VRB03KT 15SM SCT090 BKN260 18/05 A2967 RMK AC3CI3 SLP057 DENSITY ALT 4200FT

CYQF;2015-09-01 20:00;CYQF 012000Z 10003KT 020V130 15SM SCT060 BKN220 19/04 A2967 RMK SC3CI3 SLP058 DENSITY ALT 4300FT

CYQF;2015-09-01 21:00;CYQF 012100Z 05005KT 030V140 15SM FEW040 BKN100 BKN220 20/05 A2967 RMK SC2AC3CI1 SLP054 DENSITY ALT 4400FT

CYQF;2015-09-01 22:00;CYQF 012200Z 13008KT 070V150 15SM FEW040 SCT090 BKN220 21/06 A2966 RMK SC2AC2CI2 SLP049 DENSITY ALT 4500FT

CYQF;2015-09-01 23:00;CYQF 012300Z 12009G15KT 090V150 15SM SCT090 BKN220 21/07 A2965 RMK AC3CI2 SLP047 DENSITY ALT 4600FT

CYQF;2015-09-02 00:00;CYQF 020000Z 11007KT 15SM FEW045 BKN090 BKN220 19/07 A2964 RMK SC2AC3CI2 SLP044 DENSITY ALT 4300FT

CYQF;2015-09-02 01:00;CYQF 020100Z 08006KT 15SM FEW050 BKN090 BKN220 17/09 A2963 RMK SC1AC5CI1 VIRGA SLP044 DENSITY ALT 4100FT

CYQF;2015-09-02 02:00;CYQF 020200Z 10009G15KT 15SM FEW050 BKN100 BKN220 16/07 A2963 RMK SC1AC4CI2 VIRGA SLP043 DENSITY ALT 4100FT

CYQF;2015-09-02 03:00;CYQF 020300Z 35005KT 340V070 15SM FEW050 BKN100 BKN220 13/08 A2965 RMK SC1AC4CI2 SLP049 DENSITY ALT 3700FT

CYQF;2015-09-02 04:00;CYQF 020400Z 03007KT 15SM FEW060 BKN100 OVC190 13/07 A2964 RMK SC1AC4CI3 SLP046 DENSITY ALT 3700FT

CYQF;2015-09-02 05:00;CYQF 020500Z 03006KT 15SM OVC160 11/07 A2961 RMK AC8 SLP036 DENSITY ALT 3500FT

CYQF;2015-09-02 06:00;CYQF 020600Z 05006KT 15SM OVC160 11/06 A2960 RMK AC8 SLP031 DENSITY ALT 3500FT

CYQF;2015-09-02 07:00;CYQF 020700Z 04007KT 15SM BKN160 09/05 A2959 RMK AC5 SLP028 DENSITY ALT 3300FT

CYQF;2015-09-02 08:00;CYQF 020800Z 04007KT 15SM SCT160 BKN250 07/04 A2959 RMK AC3CI3 SLP029 DENSITY ALT 3000FT

CYQF;2015-09-02 09:00;CYQF 020900Z 03003KT 15SM FEW140 BKN190 07/05 A2958 RMK AC2AC4 SLP023 DENSITY ALT 3000FT

CYQF;2015-09-02 10:00;CYQF 021000Z 21004KT 15SM SCT130 BKN190 07/06 A2957 RMK AC4AC3 SLP021 DENSITY ALT 3100FT

CYQF;2015-09-02 11:00;CYQF 021100Z 00000KT 15SM FEW110 BKN150 08/06 A2958 RMK AC2AC4 SLP023 DENSITY ALT 3100FT

CYQF;2015-09-02 12:00;CYQF 021200Z 22006KT 15SM SCT140 BKN250 05/04 A2958 RMK AC4CI2 SLP027

CYQF;2015-09-02 13:00;CYQF 021300Z 21003KT 160V250 15SM FEW100 SCT250 04/03 A2958 RMK AC2CI2 SLP030

CYQF;2015-09-02 14:00;CYQF 021400Z 00000KT 15SM FEW100 SCT250 06/05 A2957 RMK AC2CI1 SLP027

CYQF;2015-09-02 15:00;CYQF 021500Z 00000KT 15SM FEW100 FEW250 10/07 A2956 RMK AC1CI1 SLP022 DENSITY ALT 3500FT

CYQF;2015-09-02 16:00;CYQF 021600Z 28003KT 15SM FEW100 FEW250 13/07 A2956 RMK AC2CI1 CI TR SLP017 DENSITY ALT 3800FT

CYQF;2015-09-02 17:00;CYQF 021700Z VRB02KT 15SM FEW100 FEW250 15/07 A2956 RMK AC2CI1 CI TR SLP017 DENSITY ALT 4000FT

CYQF;2015-09-02 18:00;CYQF 021800Z 29006KT 230V340 15SM SCT110 SCT250 17/08 A2958 RMK AC3CI1 SLP021 DENSITY ALT 4300FT

CYQF;2015-09-02 19:00;CYQF 021900Z 34007KT 15SM SCT110 SCT250 19/06 A2958 RMK AC3CI1 SLP025 DENSITY ALT 4400FT

CYQF;2015-09-02 20:00;CYQF 022000Z 29009G15KT 15SM VCSH FEW056 BKN110 BKN250 19/07 A2959 RMK CU2AC3CI2 CB TOP DIST SW SLP030 DENSITY ALT 4400FT

CYQF;2015-09-02 21:00;CYQF 022100Z 28019G27KT 10SM -TSRA BKN050CB BKN090 13/08 A2965 RMK CB5AC2 LTNG S-SE VIS SE-SW 4 PRESRR SLP056 DENSITY ALT 3700FT

CYQF;2015-09-02 21:08;CYQF 022108Z 29025G33KT 1 1/2SM -TSRA OVC045CB 11/08 A2968 RMK CB8 LTNG 4E PRESRR SLP068 DENSITY ALT 3400FT

CYQF;2015-09-02 21:18;CYQF 022118Z 29015G25KT 6SM -TSRA OVC050CB 10/08 A2970 RMK CB8 PRESRR SLP078 DENSITY ALT 3300FT

CYQF;2015-09-02 21:42;CYQF 022142Z 29007KT 10SM -SHRA OVC055CB 10/08 A2973 RMK CB8 PRESRR SLP086 DENSITY ALT 3200FT

CYQF;2015-09-02 22:00;CYQF 022200Z 01005KT 270V020 12SM -SHRA BKN057TCU 10/09 A2970 RMK TCU7 PRESFR SLP077 DENSITY ALT 3300FT

CYQF;2015-09-02 22:27;CYQF 022227Z 02005KT 15SM SCT050TCU BKN078 11/09 A2967 RMK TCU3AC4 SLP066 DENSITY ALT 3400FT

CYQF;2015-09-02 23:00;CYQF 022300Z 11005KT 050V120 15SM SCT050TCU BKN090 11/09 A2967 RMK TCU3AC4 SLP065 DENSITY ALT 3400FT

CYQF;2015-09-03 00:00;CYQF 030000Z 27004KT 250V320 15SM SCT060CB BKN140 12/10 A2968 RMK CB3AC3 VIRGA SLP071 DENSITY ALT 3600FT

CYQF;2015-09-03 01:00;CYQF 030100Z 31005KT 15SM FEW060CB SCT150 13/10 A2971 RMK CB1AC3 CB W SLP082 DENSITY ALT 3600FT

CYQF;2015-09-03 02:00;CYQF 030200Z 30006KT 15SM FEW050CB BKN170 BKN250 11/09 A2974 RMK CB1AC4CI1 CB W SLP091 DENSITY ALT 3300FT

CYQF;2015-09-03 03:00;CYQF 030300Z 31005KT 15SM FEW040CB BKN170 09/07 A2977 RMK CB1AC6 CB W SLP098 DENSITY ALT 3100FT

CYQF;2015-09-03 04:00;CYQF 030400Z 33013G20KT 15SM FEW030 SCT170 09/05 A2982 RMK SC2AC2 SLP111 DENSITY ALT 3000FT

CYQF;2015-09-03 05:00;CYQF 030500Z 03004KT 15SM FEW030 06/04 A2983 RMK SC1 SLP118

CYQF;2015-09-03 06:00;CYQF 030600Z 19005KT 15SM FEW050 04/03 A2985 RMK SC1 SLP123

CYQF;2015-09-03 07:00;CYQF 030700Z 25009KT 15SM SKC 05/04 A2985 RMK SLP121

CYQF;2015-09-03 08:00;CYQF 030800Z 25003KT 15SM SKC 05/03 A2986 RMK SLP124

CYQF;2015-09-03 09:00;CYQF 030900Z VRB02KT 15SM SKC 03/02 A2986 RMK SLP135

CYQF;2015-09-03 10:00;CYQF 031000Z 20002KT 15SM SKC 02/01 A2988 RMK SLP146

CYQF;2015-09-03 11:00;CYQF 031100Z 19003KT 15SM SKC 01/M00 A2989 RMK SLP150

CYQF;2015-09-03 12:00;CYQF 031200Z 22005KT 15SM FEW140 SCT240 01/00 A2992 RMK AC1CI4 AC TR SLP157

CYQF;2015-09-03 13:00;CYQF 031300Z 28006KT 15SM FEW100 BKN220 02/01 A2993 RMK AC1CI5 SLP159

CYQF;2015-09-03 14:00;CYQF 031400Z 00000KT 15SM BKN070 04/03 A2994 RMK AC6 SLP161

CYQF;2015-09-03 15:00;CYQF 031500Z VRB02KT 15SM BKN070 05/04 A2995 RMK AC6 SLP164

CYQF;2015-09-03 16:00;CYQF 031600Z 05003KT 010V130 15SM FEW070 08/05 A2995 RMK AC2 SLP164

CYQF;2015-09-03 17:00;CYQF 031700Z 03005KT 15SM FEW020 FEW080 FEW250 12/05 A2996 RMK CU1AC1CI1 CU TR AC TR SLP165 DENSITY ALT 3200FT

CYQF;2015-09-03 18:00;CYQF 031800Z VRB02KT 15SM SCT064 BKN090 12/05 A2997 RMK CU4AC3 SLP170 DENSITY ALT 3200FT

CYQF;2015-09-03 19:00;CYQF 031900Z 09005KT 350V120 15SM BKN032 BKN180 15/06 A2995 RMK CU5AC1 SLP161 DENSITY ALT 3500FT

CYQF;2015-09-03 20:00;CYQF 032000Z 11008KT 060V120 15SM BKN044 BKN070 14/04 A2995 RMK CU6AC1 SLP162 DENSITY ALT 3400FT

CYQF;2015-09-03 21:00;CYQF 032100Z 11009KT 050V130 15SM BKN040 BKN080 14/04 A2994 RMK CU6AC1 SLP160 DENSITY ALT 3500FT

CYQF;2015-09-03 22:00;CYQF 032200Z 09009KT 15SM VCSH BKN044 BKN080 15/04 A2994 RMK CU6AC1 SLP159 DENSITY ALT 3500FT

CYQF;2015-09-03 23:00;CYQF 032300Z 08010KT 15SM VCSH BKN040 BKN090 14/04 A2994 RMK CU5AC2 SLP161 DENSITY ALT 3400FT

CYQF;2015-09-04 00:00;CYQF 040000Z 09008KT 15SM VCSH BKN040 BKN090 14/04 A2994 RMK SC5AC2 SLP163 DENSITY ALT 3400FT

CYQF;2015-09-04 00:32;CYQF 040032Z 21015G28KT 090V220 10SM -SHRA OVC042 11/06 A2997 RMK SC8 CVCTV CLD EMBD PRESRR SLP176 DENSITY ALT 3000FT

CYQF;2015-09-04 01:00;CYQF 040100Z 26008KT 15SM -SHRA BKN042 OVC080 09/07 A2996 RMK SC6AC2 CVCTV CLD EMBD SLP175

CYQF;2015-09-04 02:00;CYQF 040200Z 30003KT 270V330 15SM OVC052 09/07 A2998 RMK SC8 SLP178

CYQF;2015-09-04 03:00;CYQF 040300Z 36006KT 15SM BKN050 OVC070 08/07 A2997 RMK SC5AC3 SLP176

CYQF;2015-09-04 04:00;CYQF 040400Z 36003KT 300V020 15SM OVC074 08/07 A2999 RMK AC8 SLP179

CYQF;2015-09-04 05:00;CYQF 040500Z 36006KT 15SM BKN078 08/07 A3000 RMK AC7 SLP177

CYQF;2015-09-04 06:00;CYQF 040600Z 29006KT 15SM BKN054 OVC080 07/06 A3002 RMK SC6AC2 SLP183

CYQF;2015-09-04 07:00;CYQF 040700Z 29004KT 15SM SCT019 OVC038 07/06 A3003 RMK SC3SC5 SLP184

CYQF;2015-09-04 08:00;CYQF 040800Z 33010KT 15SM -RA SCT019 OVC037 07/06 A3004 RMK SC4SC4 SLP189

CYQF;2015-09-04 09:00;CYQF 040900Z VRB06KT 6SM -RA OVC007 07/06 A3005 RMK SC8 SLP194

CYQF;2015-09-04 09:45;CYQF 040945Z 26007KT 15SM OVC040 06/05 A3005 RMK SC8 SLP194

CYQF;2015-09-04 10:00;CYQF 041000Z 28007KT 15SM SCT010 OVC032 06/05 A3005 RMK SC4SC4 SLP194

CYQF;2015-09-04 10:50;CYQF 041050Z 29005KT 15SM OVC006 06/05 A3006 RMK SC8 SLP196

CYQF;2015-09-04 11:00;CYQF 041100Z 27005KT 15SM OVC005 06/05 A3006 RMK ST8 SLP197

CYQF;2015-09-04 12:00;CYQF 041200Z 27005KT 15SM OVC004 06/06 A3006 RMK ST8 WND ESTD SLP197

CYQF;2015-09-04 13:00;CYQF 041300Z 01005KT 6SM BR OVC004 07/06 A3007 RMK ST8 SLP208

CYQF;2015-09-04 14:00;CYQF 041400Z 02005KT 5SM BR OVC005 07/06 A3008 RMK ST8 SLP211

CYQF;2015-09-04 15:00;CYQF 041500Z 02005KT 5SM BR OVC005 07/06 A3010 RMK ST8 SLP218

CYQF;2015-09-04 16:00;CYQF 041600Z 02006KT 6SM BR OVC006 07/06 A3011 RMK ST8 SLP222

CYQF;2015-09-04 17:00;CYQF 041700Z 02008KT 8SM BKN005 OVC010 07/06 A3013 RMK SF6SC2 SLP227

CYQF;2015-09-04 18:00;CYQF 041800Z 02009KT 10SM OVC006 07/06 A3014 RMK SF8 CIG RAG SLP233

CYQF;2015-09-04 19:00;CYQF 041900Z 36009KT 10SM OVC005 06/05 A3015 RMK SF8 CIG RAG SLP238

CYQF;2015-09-04 20:00;CYQF 042000Z 01008KT 12SM OVC007 06/05 A3015 RMK SF8 CIG RAG SLP238

CYQF;2015-09-04 20:36;CYQF 042036Z 36007KT 12SM OVC010 07/05 A3016 RMK SF8 CIG RAG SLP239

CYQF;2015-09-04 21:00;CYQF 042100Z 35007KT 12SM OVC010 07/05 A3016 RMK SF8 CIG RAG SLP242

CYQF;2015-09-04 22:00;CYQF 042200Z 36008KT 12SM OVC011 07/05 A3017 RMK SC8 SLP244

CYQF;2015-09-04 22:17;CYQF 042217Z 35006KT 12SM -RA OVC012 07/05 A3017 RMK SC8 SLP244

CYQF;2015-09-04 22:41;CYQF 042241Z 34008KT 4SM -RA BR OVC009 07/05 A3017 RMK SF8 SLP244

CYQF;2015-09-04 23:00;CYQF 042300Z 36006KT 6SM -RA BR BKN009 OVC012 06/06 A3017 RMK SF6SC2 SLP245

CYQF;2015-09-05 00:00;CYQF 050000Z 36006KT 6SM -RA BR BKN005 OVC010 06/05 A3018 RMK SF6SC2 SLP247

CYQF;2015-09-05 01:00;CYQF 050100Z 36005KT 6SM -RA BR SCT006 OVC012 07/06 A3017 RMK SF4SC4 SLP245

CYQF;2015-09-05 02:00;CYQF 050200Z 35004KT 8SM -RA FEW007 SCT014 OVC024 06/06 A3018 RMK SF2SC2SC4 SLP246

CYQF;2015-09-05 03:00;CYQF 050300Z 36003KT 310V020 10SM -RA FEW012 OVC020 06/06 A3018 RMK SC2SC6 SLP249

CYQF;2015-09-05 04:00;CYQF 050400Z 32004KT 8SM -RA FEW010 OVC017 06/06 A3019 RMK SC2SC6 SLP251

CYQF;2015-09-05 04:28;CYQF 050428Z 34004KT 6SM -RA BR FEW009 OVC014 06/06 A3019 RMK SF2SC6 SLP250

CYQF;2015-09-05 05:00;CYQF 050500Z 35003KT 6SM BR BKN009 OVC014 06/06 A3018 RMK SC6SC2 SLP247

CYQF;2015-09-05 06:00;CYQF 050600Z 34002KT 6SM BR SCT009 OVC024 06/06 A3018 RMK SC4SC4 SLP248

CYQF;2015-09-05 07:00;CYQF 050700Z 35003KT 6SM BR BKN023 OVC062 06/06 A3017 RMK SC6SC2 SLP246

CYQF;2015-09-05 08:00;CYQF 050800Z 01004KT 4SM BR OVC027 06/06 A3016 RMK SC8 SLP241

CYQF;2015-09-05 09:00;CYQF 050900Z 05002KT 5SM BR BKN025 OVC045 06/06 A3016 RMK SC5SC3 SLP240

CYQF;2015-09-05 10:00;CYQF 051000Z 01003KT 10SM OVC033 06/06 A3014 RMK SC8 SLP234

CYQF;2015-09-05 11:00;CYQF 051100Z 02004KT 10SM BKN033 OVC050 06/06 A3014 RMK SC7SC1 SLP236

CYQF;2015-09-05 12:00;CYQF 051200Z 36002KT 10SM OVC035 06/06 A3014 RMK SC8 SLP236

CYQF;2015-09-05 13:00;CYQF 051300Z 02003KT 10SM BKN037 OVC050 06/06 A3013 RMK SC6SC2 SLP229

CYQF;2015-09-05 14:00;CYQF 051400Z 03003KT 10SM BKN040 BKN060 OVC120 06/05 A3012 RMK SC5SC2AC1 SLP226

CYQF;2015-09-05 15:00;CYQF 051500Z 01004KT 10SM FEW010 BKN040 BKN060 07/06 A3013 RMK SF1SC4SC2 SLP229

CYQF;2015-09-05 16:00;CYQF 051600Z 04006KT 15SM BKN010 OVC064 08/06 A3011 RMK SC5SC3 SLP222

CYQF;2015-09-05 17:00;CYQF 051700Z 09009KT 15SM BKN014 OVC050 08/05 A3011 RMK SC5SC3 SLP223

CYQF;2015-09-05 17:48;CYQF 051748Z 08008KT 15SM SCT015 OVC021 08/05 A3010 RMK SF3SC5 SLP218

CYQF;2015-09-05 18:00;CYQF 051800Z 07007KT 15SM FEW015 OVC020 08/05 A3010 RMK SF2SC6 SLP218

CYQF;2015-09-05 19:00;CYQF 051900Z 08008KT 15SM FEW020 OVC030 09/05 A3009 RMK CF2SC6 SLP214

CYQF;2015-09-05 20:00;CYQF 052000Z 06007KT 15SM OVC030 08/04 A3007 RMK SC8 SLP208

CYQF;2015-09-05 21:00;CYQF 052100Z 05008KT 15SM BKN025 OVC060 09/04 A3005 RMK SC5SC3 SLP201

CYQF;2015-09-05 22:00;CYQF 052200Z 06009KT 15SM FEW025 OVC040 09/04 A3005 RMK SC2SC6 SLP198

CYQF;2015-09-05 22:21;CYQF 052221Z 06007KT 12SM -RA SCT040 OVC060 08/04 A3004 RMK SC3SC5 SLP197

CYQF;2015-09-05 23:00;CYQF 052300Z 04003KT 10SM -RA FEW035 OVC055 08/06 A3004 RMK SC2SC6 SLP196

CYQF;2015-09-06 00:00;CYQF 060000Z 03004KT 8SM SCT020 OVC033 07/06 A3004 RMK SC3SC5 SLP197

CYQF;2015-09-06 01:00;CYQF 060100Z 06006KT 6SM -RA BR SCT016 OVC030 06/05 A3004 RMK SC4SC4 SLP199

CYQF;2015-09-06 02:00;CYQF 060200Z 05006KT 6SM -RA BR OVC018 06/05 A3004 RMK SC8 SLP200

CYQF;2015-09-06 03:00;CYQF 060300Z 05008KT 6SM -RA BR OVC018 05/05 A3003 RMK SC8 SLP195

CYQF;2015-09-06 04:00;CYQF 060400Z 36005KT 6SM -RA BR OVC018 05/05 A3001 RMK SC8 SLP190

CYQF;2015-09-06 05:00;CYQF 060500Z 04007KT 8SM -RA OVC018 05/04 A3000 RMK SC8 /R10/ SLP186

CYQF;2015-09-06 06:00;CYQF 060600Z 36006KT 8SM -RA OVC026 04/04 A2998 RMK SC8 SLP179

CYQF;2015-09-06 07:00;CYQF 060700Z 34005KT 8SM -RA OVC016 04/04 A2996 RMK SC8 SLP172

CYQF;2015-09-06 08:00;CYQF 060800Z 34008KT 8SM -RA OVC020 04/04 A2994 RMK SC8 SLP164

CYQF;2015-09-06 09:00;CYQF 060900Z 34006KT 15SM -RA OVC015 04/04 A2993 RMK SC8 SLP160

CYQF;2015-09-06 10:00;CYQF 061000Z 34010KT 8SM -RA BKN015 OVC033 04/03 A2993 RMK SC5SC3 SLP160

CYQF;2015-09-06 11:00;CYQF 061100Z 33011KT 10SM -RA BKN021 OVC052 04/03 A2992 RMK SC5SC3 SLP158

CYQF;2015-09-06 12:00;CYQF 061200Z 33008KT 15SM -RA BKN020 OVC047 04/03 A2991 RMK SC5SC3 SLP157

CYQF;2015-09-06 13:00;CYQF 061300Z 32009KT 10SM -RA FEW010 OVC022 04/04 A2991 RMK SF1SC7 SLP155

CYQF;2015-09-06 14:00;CYQF 061400Z 32009KT 15SM -RA FEW010 OVC017 05/04 A2991 RMK SF2SC6 SLP155

CYQF;2015-09-06 14:11;CYQF 061411Z 32010G16KT 15SM SCT013 OVC020 05/04 A2990 RMK SF3SC5 SLP154

CYQF;2015-09-06 14:40;CYQF 061440Z 32013G20KT 15SM -RA OVC014 05/04 A2990 RMK SC8 CIG RAG SLP151

CYQF;2015-09-06 15:00;CYQF 061500Z 32015KT 15SM -RA OVC013 06/04 A2990 RMK SC8 SLP152

CYQF;2015-09-06 16:00;CYQF 061600Z 32016G23KT 10SM -RA BKN012 OVC030 06/05 A2989 RMK SC5SC3 SLP149

CYQF;2015-09-06 17:00;CYQF 061700Z 33012G20KT 12SM -RA SCT012 OVC035 06/04 A2990 RMK SC4SC4 SLP154

CYQF;2015-09-06 18:00;CYQF 061800Z 32014G19KT 12SM -RA SCT015 OVC035 06/05 A2990 RMK SC3SC5 SLP155

CYQF;2015-09-06 19:00;CYQF 061900Z 30010KT 12SM -RA BKN015 OVC035 06/05 A2991 RMK SC5SC3 SLP155

CYQF;2015-09-06 20:00;CYQF 062000Z 31010G19KT 8SM -RA BKN015 OVC027 07/05 A2991 RMK SC6SC2 SLP157

CYQF;2015-09-06 21:00;CYQF 062100Z 31009KT 6SM -RA BR BKN015 OVC029 06/06 A2992 RMK SC6SC2 SLP160

CYQF;2015-09-06 22:00;CYQF 062200Z 32013KT 8SM -RA BKN015 OVC042 07/05 A2992 RMK SC5SC3 SLP161

CYQF;2015-09-06 22:41;CYQF 062241Z 31010G15KT 10SM -RA OVC012 06/05 A2993 RMK SC8 SLP163

CYQF;2015-09-06 23:00;CYQF 062300Z 33019KT 290V350 10SM -RA OVC012 06/05 A2993 RMK SC8 SLP164

CYQF;2015-09-07 00:00;CYQF 070000Z 33014G21KT 10SM -RA BKN012 OVC044 06/04 A2994 RMK ST5SC3 SLP168

CYQF;2015-09-07 00:36;CYQF 070036Z 33012G17KT 10SM SCT012 OVC056 05/04 A2995 RMK SC4SC4 SLP170

CYQF;2015-09-07 01:00;CYQF 070100Z 32010KT 15SM FEW012 SCT050 OVC100 05/04 A2994 RMK SC2SC2AC4 SLP168

CYQF;2015-09-07 02:00;CYQF 070200Z 30011KT 15SM BKN016 OVC100 05/04 A2995 RMK SC5AC3 SLP170

CYQF;2015-09-07 03:00;CYQF 070300Z 32010KT 15SM OVC018 06/04 A2996 RMK SC8 SLP172

CYQF;2015-09-07 04:00;CYQF 070400Z 32006KT 15SM OVC014 06/04 A2997 RMK SC8 WND ESTD SLP176

CYQF;2015-09-07 04:19;CYQF 070419Z 33010KT 15SM SCT014 OVC032 06/04 A2997 RMK SC4SC4 SLP176

CYQF;2015-09-07 05:00;CYQF 070500Z 33008KT 15SM SCT014 OVC045 05/03 A2998 RMK SC3SC5 SLP180

CYQF;2015-09-07 05:52;CYQF 070552Z 33007KT 15SM -RA FEW014 OVC045 05/03 A2997 RMK SC2SC6 SLP176

CYQF;2015-09-07 06:00;CYQF 070600Z 31007KT 15SM -RA FEW014 OVC045 05/03 A2997 RMK SC2SC6 SLP177

CYQF;2015-09-07 06:17;CYQF 070617Z 29004KT 15SM BKN044 05/04 A2996 RMK SC7 SLP175

CYQF;2015-09-07 07:00;CYQF 070700Z 27006KT 15SM SCT022 BKN035 05/04 A2997 RMK SC4SC3 SLP177

CYQF;2015-09-07 08:00;CYQF 070800Z 29006KT 15SM BKN022 OVC050 05/04 A2997 RMK SC6SC2 SLP178

CYQF;2015-09-07 09:00;CYQF 070900Z 31007KT 15SM OVC017 05/04 A2997 RMK SC8 SLP176

CYQF;2015-09-07 10:17;CYQF 071017Z 33006KT 15SM OVC015 05/03 A2999 RMK SC8 SLP182

CYQF;2015-09-07 11:00;CYQF 071100Z 33003KT 15SM SCT015 OVC090 04/03 A2998 RMK SC3AC5 SLP182

CYQF;2015-09-07 12:00;CYQF 071200Z 25005KT 15SM OVC090 04/03 A2998 RMK AC8 SLP181

CYQF;2015-09-07 13:00;CYQF 071300Z 26005KT 15SM FEW050 OVC110 04/03 A2999 RMK SC2AC6 SLP187

CYQF;2015-09-07 14:00;CYQF 071400Z 26004KT 15SM FEW050 OVC150 04/04 A3000 RMK CU2AC6 VIRGA SLP188

CYQF;2015-09-07 15:00;CYQF 071500Z 22005KT 15SM FEW050 BKN110 06/05 A3001 RMK CU1AC6 VIRGA SLP189

CYQF;2015-09-07 16:00;CYQF 071600Z 23008KT 15SM FEW050 OVC110 07/05 A3000 RMK CU1AC7 VIRGA SLP187

CYQF;2015-09-07 17:00;CYQF 071700Z 21004KT 150V230 15SM FEW045 BKN073 BKN240 08/05 A3000 RMK CU1ACC5CI1 VIRGA SLP185

CYQF;2015-09-07 18:00;CYQF 071800Z 24006KT 15SM FEW050 OVC180 10/05 A3000 RMK CU1AC7 SLP183

CYQF;2015-09-07 19:00;CYQF 071900Z 28007KT 15SM FEW050 BKN160 12/06 A2999 RMK CU1AS6 SLP176 DENSITY ALT 3200FT

CYQF;2015-09-07 20:00;CYQF 072000Z 28009KT 250V330 15SM FEW050TCU BKN160 BKN240 14/07 A2998 RMK TCU1AS5CI1 SLP173 DENSITY ALT 3400FT

CYQF;2015-09-07 21:00;CYQF 072100Z 31010KT 15SM VCSH SCT040TCU BKN090 BKN240 14/06 A2998 RMK TCU4AC2CI1 SLP170 DENSITY ALT 3400FT

CYQF;2015-09-07 21:49;CYQF 072149Z 30012KT 250V320 15SM -TSRA BKN040CB BKN170 OVC260 13/05 A2998 RMK CB5AC2CI1 SLP172 DENSITY ALT 3300FT

CYQF;2015-09-07 22:00;CYQF 072200Z 28004G23KT 12SM -TSRA BKN060CB BKN070 BKN260 10/06 A2998 RMK CB5AC1CI1 SLP178 DENSITY ALT 3000FT

CYQF;2015-09-07 22:14;CYQF 072214Z 25005KT 15SM VCSH SCT050CB BKN080 BKN260 11/06 A2998 RMK CB4AC2CI1 SLP175 DENSITY ALT 3100FT

CYQF;2015-09-07 23:00;CYQF 072300Z 27007KT 220V300 15SM VCSH SCT050CB BKN160 BKN260 13/05 A2998 RMK CB4AC2CI1 SH W & N SLP173 DENSITY ALT 3300FT

CYQF;2015-09-07 23:23;CYQF 072323Z 30016G27KT 250V310 15SM -SHRA SCT040CB BKN170 OVC260 12/06 A3000 RMK CB4AC2CI2 PRESRR SLP181 DENSITY ALT 3100FT

CYQF;2015-09-07 23:46;CYQF 072346Z 00000KT 15SM VCSH SCT040CB BKN080 BKN260 11/06 A2998 RMK CB3AC2CI2 SLP177 DENSITY ALT 3100FT

CYQF;2015-09-08 00:00;CYQF 080000Z 30003KT 270V350 15SM VCSH FEW040CB BKN080 BKN170 11/08 A2999 RMK CB2AC4AC1 SLP178 DENSITY ALT 3100FT

CYQF;2015-09-08 01:00;CYQF 080100Z 23003KT 15SM FEW040CB BKN100 11/08 A3000 RMK CB1AC5 SLP183 DENSITY ALT 3000FT

CYQF;2015-09-08 02:00;CYQF 080200Z 20004KT 15SM BKN100 09/08 A2999 RMK AC6 SLP182

CYQF;2015-09-08 03:00;CYQF 080300Z 23006KT 15SM BKN120 08/07 A2999 RMK ACC6 SLP182

CYQF;2015-09-08 04:00;CYQF 080400Z 19006KT 15SM BKN110 07/06 A3000 RMK AC7 SLP184

CYQF;2015-09-08 05:00;CYQF 080500Z 24008KT 15SM BKN080 09/06 A3000 RMK AC7 SLP182

CYQF;2015-09-08 06:00;CYQF 080600Z 23007KT 15SM BKN083 08/06 A3000 RMK AC7 SLP181

CYQF;2015-09-08 07:00;CYQF 080700Z 23007KT 15SM OVC072 08/06 A3000 RMK AC8 SLP177

CYQF;2015-09-08 08:00;CYQF 080800Z 23005KT 15SM BKN070 07/05 A2999 RMK AC5 SLP175

CYQF;2015-09-08 09:00;CYQF 080900Z 19003KT 15SM SCT070 BKN160 BKN250 04/03 A2999 RMK AC3AC2CI1 SLP177

CYQF;2015-09-08 10:00;CYQF 081000Z 17002KT 15SM SCT082 BKN250 03/02 A2998 RMK AC4CI2 SLP178

CYQF;2015-09-08 11:00;CYQF 081100Z 19004KT 15SM FEW080 FEW250 02/01 A2997 RMK AC1CI1 SLP173

CYQF;2015-09-08 12:00;CYQF 081200Z 20003KT 15SM FEW200 02/02 A2996 RMK CI2 SLP173

CYQF;2015-09-08 13:00;CYQF 081300Z 18002KT 15SM BKN190 02/02 A2995 RMK AC6 SLP170

CYQF;2015-09-08 14:00;CYQF 081400Z 21003KT 15SM FEW120 BKN190 03/03 A2995 RMK AC2AC5 SLP168

CYQF;2015-09-08 15:00;CYQF 081500Z 21005KT 15SM SCT110 BKN170 06/04 A2994 RMK AC3AS4 SLP164

CYQF;2015-09-08 16:00;CYQF 081600Z 19002KT 15SM SCT100 BKN150 07/05 A2994 RMK AC3AS4 SLP163

CYQF;2015-09-08 17:00;CYQF 081700Z 00000KT 15SM BKN110 BKN150 09/06 A2994 RMK AC5AS2 SLP159

CYQF;2015-09-08 18:00;CYQF 081800Z 10004KT 070V170 15SM OVC078 12/07 A2992 RMK AS8 SLP148 DENSITY ALT 3200FT

CYQF;2015-09-08 19:00;CYQF 081900Z VRB02KT 15SM FEW070 OVC092 12/06 A2991 RMK AC1AS7 SLP145 DENSITY ALT 3300FT

CYQF;2015-09-08 20:00;CYQF 082000Z 22004KT 200V260 15SM FEW025 BKN070 BKN090 14/07 A2991 RMK CU2AC4AS1 SLP144 DENSITY ALT 3500FT

CYQF;2015-09-08 21:00;CYQF 082100Z VRB02KT 15SM SCT040 BKN060 BKN120 16/05 A2989 RMK CU3SC2AC2 SLP141 DENSITY ALT 3700FT

CYQF;2015-09-08 22:00;CYQF 082200Z 00000KT 15SM FEW052 BKN090 BKN260 16/04 A2988 RMK CU2AC4CI1 SLP138 DENSITY ALT 3800FT

CYQF;2015-09-08 23:00;CYQF 082300Z 08005KT 350V140 15SM FEW050 BKN096 BKN260 17/04 A2987 RMK CU1AC5CI1 SLP135 DENSITY ALT 3900FT

CYQF;2015-09-09 00:00;CYQF 090000Z 08005KT 15SM FEW050 BKN090 BKN200 15/06 A2987 RMK CU1AC4CC2 SLP137 DENSITY ALT 3700FT

CYQF;2015-09-09 01:00;CYQF 090100Z 07006KT 15SM BKN140 BKN260 14/07 A2987 RMK ACC5CI2 SH DIST NW SLP137 DENSITY ALT 3600FT

CYQF;2015-09-09 01:26;CYQF 090126Z 02008KT 15SM -SHRA BKN070 BKN100 12/07 A2988 RMK AC5ACC2 SLP141 DENSITY ALT 3300FT

CYQF;2015-09-09 02:00;CYQF 090200Z 02007KT 15SM SCT070 BKN110 BKN260 10/08 A2990 RMK AC3ACC2CI2 OCNL -SHRA SLP150 DENSITY ALT 3100FT

CYQF;2015-09-09 02:18;CYQF 090218Z 36005KT 15SM VCSH FEW070 BKN110 BKN260 10/08 A2991 RMK AC2ACC3CI1 SLP153 DENSITY ALT 3000FT

CYQF;2015-09-09 03:00;CYQF 090300Z 01006KT 15SM BKN070 BKN110 10/08 A2992 RMK AC5ACC2 SLP154 DENSITY ALT 3000FT

CYQF;2015-09-09 03:23;CYQF 090323Z 02006KT 15SM -SHRA BKN060 10/08 A2994 RMK SC7 SLP160 DENSITY ALT 3000FT

CYQF;2015-09-09 04:00;CYQF 090400Z 16003KT 110V180 12SM -SHRA OVC060 10/09 A2993 RMK SC8 SLP156 DENSITY ALT 3000FT

CYQF;2015-09-09 05:00;CYQF 090500Z 33006KT 15SM -SHRA SCT049 OVC080 10/08 A2996 RMK SC4AC4 SLP165

CYQF;2015-09-09 05:30;CYQF 090530Z 33006KT 15SM SCT050 OVC075 09/08 A2997 RMK SC3AC5 SLP170

CYQF;2015-09-09 06:00;CYQF 090600Z 30005KT 15SM SCT060 OVC160 09/08 A2999 RMK SC4AC4 SLP172

CYQF;2015-09-09 07:00;CYQF 090700Z 30005KT 15SM SCT050 OVC085 09/08 A2999 RMK SC3AC5 SLP172

CYQF;2015-09-09 08:00;CYQF 090800Z 00000KT 15SM BKN085 08/07 A2998 RMK AC6 SLP169

CYQF;2015-09-09 09:00;CYQF 090900Z 30003KT 15SM SCT060 BKN080 06/06 A2999 RMK SC3AC3 SLP173

CYQF;2015-09-09 10:00;CYQF 091000Z 18004KT 3/8SM FG BKN060 05/05 A3000 RMK FG4SC3 SLP175

CYQF;2015-09-09 10:46;CYQF 091046Z 20005KT 1/4SM FG VV001 03/03 A3000 RMK FG8 SLP177

CYQF;2015-09-09 11:00;CYQF 091100Z 20004KT 1/4SM FG VV001 04/03 A3000 RMK FG8 SLP176

CYQF;2015-09-09 12:00;CYQF 091200Z 00000KT 1/8SM FG VV001 04/03 A3000 RMK FG8 SLP179

CYQF;2015-09-09 13:00;CYQF 091300Z 17002KT 1/4SM FG BKN006 04/04 A3001 RMK FG3SF4 SLP182

CYQF;2015-09-09 14:05;CYQF 091405Z 20003KT 1/2SM FG SCT006 BKN260 05/05 A3001 RMK FG2SF1CI4 SLP186

CYQF;2015-09-09 14:39;CYQF 091439Z 18003KT 1/4SM FG BKN260 06/06 A3001 RMK FG5CI2 SLP185

CYQF;2015-09-09 15:00;CYQF 091500Z 19003KT 1/4SM FG BKN260 06/06 A3001 RMK FG5CI2 SLP185

CYQF;2015-09-09 15:34;CYQF 091534Z 20004KT 1SM BR FEW002 OVC260 07/07 A3001 RMK ST2CI6 VIS N1/2 SLP183

CYQF;2015-09-09 15:40;CYQF 091540Z 18004KT 10SM BKN002 BKN260 08/08 A3001 RMK ST5CI2 VIS N 2 SLP182

CYQF;2015-09-09 16:00;CYQF 091600Z 21003KT 170V250 15SM SCT002 BKN140 BKN260 09/08 A3001 RMK ST4AC1CI2 SLP183

CYQF;2015-09-09 17:00;CYQF 091700Z 17004KT 15SM FEW002 BKN090 BKN260 11/09 A3001 RMK SF1AC5CI1 SLP181 DENSITY ALT 3000FT

CYQF;2015-09-09 18:00;CYQF 091800Z 17003KT 130V230 15SM FEW020 BKN073 BKN130 13/08 A3000 RMK CU1AC5AC1 SLP176 DENSITY ALT 3300FT

CYQF;2015-09-09 19:00;CYQF 091900Z 00000KT 15SM FEW024 BKN078 14/08 A3000 RMK CU1AC6 SLP174 DENSITY ALT 3400FT

CYQF;2015-09-09 20:00;CYQF 092000Z 17005KT 150V240 15SM FEW030 BKN060 BKN110 16/08 A2999 RMK CU2SC4AC1 SLP171 DENSITY ALT 3600FT

CYQF;2015-09-09 21:00;CYQF 092100Z 18006KT 110V190 15SM FEW038 BKN110 16/07 A2999 RMK CU1AC6 SLP170 DENSITY ALT 3700FT

CYQF;2015-09-09 22:00;CYQF 092200Z 16003KT 070V200 15SM FEW040 BKN120 16/07 A2998 RMK CU1AC6 SLP170 DENSITY ALT 3700FT

CYQF;2015-09-09 23:00;CYQF 092300Z VRB02KT 15SM FEW040 BKN100 17/06 A2999 RMK CU2AC5 SLP172 DENSITY ALT 3700FT

CYQF;2015-09-10 00:00;CYQF 100000Z 05004KT 15SM FEW040 OVC130 16/09 A2999 RMK CU2AC6 SLP176 DENSITY ALT 3600FT

CYQF;2015-09-10 01:00;CYQF 100100Z 03005KT 15SM BKN070 BKN130 14/10 A3000 RMK AC5AC2 SLP179 DENSITY ALT 3400FT

CYQF;2015-09-10 02:00;CYQF 100200Z 02006KT 15SM BKN070 BKN130 13/09 A3001 RMK AC6AC1 SLP182 DENSITY ALT 3200FT

CYQF;2015-09-10 04:00;CYQF 100400Z 36009KT 12SM -SHRA OVC050 11/10 A3006 RMK SC8 PRESRR SLP198 DENSITY ALT 3000FT

CYQF;2015-09-10 04:39;CYQF 100439Z 07003KT 12SM OVC060 11/10 A3006 RMK SC8 SLP198

CYQF;2015-09-10 04:44;CYQF 100444Z 06003KT 12SM -SHRA OVC060 11/10 A3006 RMK SC8 SLP199

CYQF;2015-09-10 05:00;CYQF 100500Z 10003KT 12SM -SHRA OVC065 11/09 A3006 RMK SC8 CVCTV CLD EMBD LTG DIST S SLP195 DENSITY ALT 3000FT

CYQF;2015-09-10 05:24;CYQF 100524Z VRB02KT 10SM SHRA OVC060 10/10 A3008 RMK SC8 CVCTV CLD EMBD SLP203

CYQF;2015-09-10 05:40;CYQF 100540Z VRB02KT 12SM -SHRA OVC057 10/10 A3007 RMK SC8 CVCTV CLD EMBD SLP202

CYQF;2015-09-10 06:00;CYQF 100600Z 30005KT 10SM SHRA OVC054 10/09 A3009 RMK SC8 CVCTV CLD EMBD SLP206

CYQF;2015-09-10 06:37;CYQF 100637Z 15003KT 12SM -SHRA OVC050 10/10 A3008 RMK SC8 CVCTV CLD EMBD SLP202

CYQF;2015-09-10 07:00;CYQF 100700Z 18003KT 10SM -SHRA OVC050 10/10 A3008 RMK SC8 SLP201

CYQF;2015-09-10 08:00;CYQF 100800Z VRB02KT 12SM -SHRA OVC064 10/09 A3010 RMK SC8 CVCTV CLD EMBD SLP205

CYQF;2015-09-10 08:16;CYQF 100816Z 08003KT 12SM VCSH BKN060 OVC080 10/09 A3010 RMK SC6AC2 SLP205

CYQF;2015-09-10 09:00;CYQF 100900Z 26004KT 12SM BKN047 OVC120 10/09 A3010 RMK SC5AC3 SLP206

CYQF;2015-09-10 10:00;CYQF 101000Z 23004KT 12SM BKN042 OVC080 10/09 A3011 RMK SC5AC3 SLP209

CYQF;2015-09-10 11:00;CYQF 101100Z 23003KT 10SM BKN040 BKN070 08/08 A3012 RMK SC5AC1 SLP213

CYQF;2015-09-10 12:02;CYQF 101202Z VRB03KT 2SM BR SCT040 BKN090 08/07 A3013 RMK FG2SC2AC2 SLP219

CYQF;2015-09-10 12:24;CYQF 101224Z 21006KT 1SM BR SCT040 BKN080 08/08 A3013 RMK FG2SC2AC3 SLP219

CYQF;2015-09-10 13:00;CYQF 101300Z 22003KT 190V260 2SM BR BKN001 OVC080 08/08 A3013 RMK FG2SF3AC3 SLP219

CYQF;2015-09-10 13:19;CYQF 101319Z 24005KT 1/4SM FG VV002 08/08 A3014 RMK FG8 SLP223

CYQF;2015-09-10 14:00;CYQF 101400Z 24005KT 1/4SM FG VV002 08/08 A3016 RMK FG8 SLP231

CYQF;2015-09-10 14:23;CYQF 101423Z 23005KT 1/2SM FG VV002 09/08 A3016 RMK FG8 SLP233

CYQF;2015-09-10 14:43;CYQF 101443Z 20004KT 1/4SM FG VV002 09/08 A3017 RMK FG8 SLP234

CYQF;2015-09-10 15:00;CYQF 101500Z 20006KT 1/4SM FG VV001 09/09 A3017 RMK FG8 SLP235

CYQF;2015-09-10 15:20;CYQF 101520Z 20004KT 3/4SM BR OVC002 09/09 A3017 RMK FG5SF3 SLP237

CYQF;2015-09-10 15:29;CYQF 101529Z 20005KT 1 1/2SM BR OVC002 10/09 A3017 RMK FG3SF5 SLP236

CYQF;2015-09-10 15:38;CYQF 101538Z 19005KT 2SM BR OVC004 10/10 A3017 RMK SF8 SLP236

CYQF;2015-09-10 15:47;CYQF 101547Z 20005KT 6SM BR BKN004 BKN100 10/10 A3017 RMK SF6ACC1 SLP236

CYQF;2015-09-10 16:00;CYQF 101600Z VRB02KT 8SM BKN004 BKN100 BKN260 11/10 A3018 RMK SF5ACC1CI1 SLP236

CYQF;2015-09-10 16:14;CYQF 101614Z 20004KT 170V260 10SM SCT004 BKN100 BKN260 12/11 A3018 RMK SF3ACC3CI1 SLP236

CYQF;2015-09-10 17:00;CYQF 101700Z 22007KT 12SM FEW003 BKN100 BKN260 13/10 A3018 RMK SF2AC4CI1 SLP236 DENSITY ALT 3100FT

CYQF;2015-09-10 18:00;CYQF 101800Z 22007KT 15SM FEW018 SCT096 BKN260 15/10 A3018 RMK CF1AC3CI2 SLP233 DENSITY ALT 3300FT

CYQF;2015-09-10 19:00;CYQF 101900Z 19006KT 160V240 15SM FEW028 BKN093 BKN260 17/10 A3017 RMK CU2AC3CI1 SLP229 DENSITY ALT 3600FT

CYQF;2015-09-10 20:00;CYQF 102000Z 19004KT 160V240 15SM FEW032 SCT090 BKN260 18/09 A3016 RMK CU2AC1CI3 SLP225 DENSITY ALT 3700FT

CYQF;2015-09-10 21:00;CYQF 102100Z 19007KT 160V240 15SM SCT048 BKN260 20/09 A3016 RMK CU3CI2 SLP221 DENSITY ALT 3900FT

CYQF;2015-09-10 22:00;CYQF 102200Z VRB02KT 15SM SCT052 BKN260 20/07 A3014 RMK CU3CI3 SLP217 DENSITY ALT 3900FT

CYQF;2015-09-10 23:00;CYQF 102300Z 19006KT 130V230 15SM FEW052 BKN260 20/08 A3014 RMK CU2CI4 SLP216 DENSITY ALT 4000FT

CYQF;2015-09-11 00:00;CYQF 110000Z 19006KT 140V220 15SM FEW045 BKN260 20/09 A3014 RMK CU1CI5 SLP215 DENSITY ALT 4000FT

CYQF;2015-09-11 01:00;CYQF 110100Z 17005KT 15SM BKN260 18/11 A3013 RMK CI7 SLP215 DENSITY ALT 3800FT

CYQF;2015-09-11 02:00;CYQF 110200Z 14004KT 15SM BKN260 15/10 A3013 RMK CI7 SLP219 DENSITY ALT 3400FT

CYQF;2015-09-11 03:00;CYQF 110300Z 16003KT 15SM BKN260 13/09 A3015 RMK CI7 SLP226 DENSITY ALT 3100FT

CYQF;2015-09-11 04:00;CYQF 110400Z 19002KT 15SM SCT250 11/09 A3015 RMK CI3 SLP227

CYQF;2015-09-11 05:00;CYQF 110500Z 20004KT 15SM SCT250 10/08 A3016 RMK CI3 SLP228

CYQF;2015-09-11 06:00;CYQF 110600Z 18003KT 15SM SKC 10/08 A3017 RMK SLP230

CYQF;2015-09-11 07:00;CYQF 110700Z 20002KT 15SM SKC 09/07 A3017 RMK SLP228

CYQF;2015-09-11 08:00;CYQF 110800Z 19006KT 15SM SKC 08/07 A3016 RMK SLP227

CYQF;2015-09-11 09:00;CYQF 110900Z 19004KT 15SM SKC 08/06 A3017 RMK SLP227

CYQF;2015-09-11 10:00;CYQF 111000Z 20005KT 15SM SKC 06/06 A3017 RMK SLP228

CYQF;2015-09-11 11:00;CYQF 111100Z 20006KT 15SM SKC 06/05 A3016 RMK SLP226

CYQF;2015-09-11 12:00;CYQF 111200Z 19006KT 15SM SKC 06/05 A3016 RMK SLP227

CYQF;2015-09-11 13:00;CYQF 111300Z 19003KT 15SM SCT260 06/05 A3016 RMK CI3 SLP228

CYQF;2015-09-11 14:00;CYQF 111400Z 19004KT 15SM BKN260 07/06 A3016 RMK CI7 SLP232

CYQF;2015-09-11 15:00;CYQF 111500Z 21004KT 15SM BKN260 11/09 A3015 RMK CI7 SLP226

CYQF;2015-09-11 16:00;CYQF 111600Z 22004KT 15SM BKN260 14/09 A3015 RMK CI7 SLP223 DENSITY ALT 3200FT

CYQF;2015-09-11 17:00;CYQF 111700Z 22004KT 15SM BKN260 17/09 A3014 RMK CI6 SLP216 DENSITY ALT 3600FT

CYQF;2015-09-11 18:00;CYQF 111800Z 17005KT 15SM BKN260 20/09 A3011 RMK CI6 SLP205 DENSITY ALT 4000FT

CYQF;2015-09-11 19:00;CYQF 111900Z 20004KT 140V230 15SM BKN260 23/09 A3009 RMK CI6 SLP196 DENSITY ALT 4300FT

CYQF;2015-09-11 20:00;CYQF 112000Z 22007KT 140V230 15SM BKN260 25/08 A3006 RMK CI5 SLP185 DENSITY ALT 4500FT

CYQF;2015-09-11 21:00;CYQF 112100Z 17010KT 15SM BKN260 26/09 A3004 RMK CI5 SLP176 DENSITY ALT 4700FT

CYQF;2015-09-11 22:00;CYQF 112200Z 19008KT 15SM SCT260 26/08 A3002 RMK CI4 SLP171 DENSITY ALT 4700FT

CYQF;2015-09-11 23:00;CYQF 112300Z 18009KT 15SM SCT260 26/10 A3000 RMK CI3 SLP165 DENSITY ALT 4800FT

CYQF;2015-09-12 00:00;CYQF 120000Z 18010KT 15SM FEW260 26/12 A2999 RMK CI2 WND ESTD SLP160 DENSITY ALT 4800FT

CYQF;2015-09-12 01:00;CYQF 120100Z 17003KT 15SM FEW260 24/13 A2998 RMK CI1 SLP159 DENSITY ALT 4600FT

CYQF;2015-09-12 02:00;CYQF 120200Z 14003KT 15SM FEW260 19/13 A2997 RMK CI1 SLP161 DENSITY ALT 4000FT

CYQF;2015-09-12 03:00;CYQF 120300Z 07002KT 15SM FEW260 16/12 A2998 RMK CI1 SLP162 DENSITY ALT 3600FT

CYQF;2015-09-12 04:00;CYQF 120400Z 00000KT 15SM SKC 18/11 A2998 RMK SLP157 DENSITY ALT 3900FT

CYQF;2015-09-12 05:00;CYQF 120500Z 00000KT 15SM SKC 12/09 A2997 RMK SLP156 DENSITY ALT 3200FT

CYQF;2015-09-12 06:00;CYQF 120600Z VRB02KT 15SM SKC 11/10 A2997 RMK SLP153 DENSITY ALT 3100FT

CYQF;2015-09-12 07:00;CYQF 120700Z 20006KT 15SM SKC 08/06 A2995 RMK SLP150

CYQF;2015-09-12 08:00;CYQF 120800Z 19003KT 15SM SKC 07/07 A2996 RMK SLP150

CYQF;2015-09-12 09:00;CYQF 120900Z 21005KT 15SM SKC 08/08 A2996 RMK SLP147

CYQF;2015-09-12 10:00;CYQF 121000Z 20003KT 15SM SKC 08/07 A2996 RMK SLP148

CYQF;2015-09-12 11:00;CYQF 121100Z 17003KT 15SM SKC 06/06 A2996 RMK SLP151

CYQF;2015-09-12 12:00;CYQF 121200Z 20004KT 15SM SKC 06/05 A2996 RMK SLP151

CYQF;2015-09-12 13:00;CYQF 121300Z 20005KT 15SM FEW250 05/04 A2995 RMK CI2 SLP152

CYQF;2015-09-12 14:00;CYQF 121400Z 21005KT 15SM SCT250 08/06 A2995 RMK CI3 SLP153

CYQF;2015-09-12 15:00;CYQF 121500Z 22003KT 15SM FEW250 12/08 A2995 RMK CI2 SLP150 DENSITY ALT 3200FT

CYQF;2015-09-12 16:00;CYQF 121600Z 21005KT 15SM FEW250 15/08 A2993 RMK CI2 SLP139 DENSITY ALT 3600FT

CYQF;2015-09-12 17:00;CYQF 121700Z 20005KT 180V240 15SM FEW250 20/11 A2992 RMK CI2 SLP136 DENSITY ALT 4100FT

CYQF;2015-09-12 18:00;CYQF 121800Z 20005KT 15SM FEW250 23/09 A2988 RMK CI1 SLP121 DENSITY ALT 4600FT

CYQF;2015-09-12 19:00;CYQF 121900Z 18007KT 15SM FEW250 26/04 A2985 RMK CI1 SLP109 DENSITY ALT 4900FT

CYQF;2015-09-12 20:00;CYQF 122000Z 19008KT 140V210 15SM FEW080 FEW250 27/06 A2981 RMK CU1CI1 CU TR CI TR SLP096 DENSITY ALT 5100FT

CYQF;2015-09-12 21:00;CYQF 122100Z 16007KT 130V200 15SM FEW084 FEW250 28/07 A2978 RMK CU1CI1 SLP084 DENSITY ALT 5200FT

CYQF;2015-09-12 22:00;CYQF 122200Z 17007KT 130V210 15SM FEW088 FEW250 28/06 A2975 RMK CU1CI1 CU TR CI TR SLP073 DENSITY ALT 5200FT

CYQF;2015-09-12 23:00;CYQF 122300Z 14008KT 15SM FEW080 FEW250 27/07 A2972 RMK CU1CI1 CU TR CI TR SLP065 DENSITY ALT 5200FT

CYQF;2015-09-13 00:00;CYQF 130000Z 14007KT 15SM FEW078 FEW250 26/09 A2970 RMK CU2CI1 CI TR SLP060 DENSITY ALT 5100FT

CYQF;2015-09-13 01:00;CYQF 130100Z VRB02KT 15SM SCT055 SCT250 22/10 A2969 RMK CU3CI1 SLP063 DENSITY ALT 4700FT

CYQF;2015-09-13 02:00;CYQF 130200Z 02020G33KT 15SM FEW050 SCT100 SCT250 19/10 A2974 RMK SC1AC2CI1 PRESRR SLP079 DENSITY ALT 4300FT

CYQF;2015-09-13 03:00;CYQF 130300Z 36018G31KT 15SM FEW050 FEW100 SCT250 14/08 A2982 RMK SC1AC1CI1 PRESRR SLP107 DENSITY ALT 3600FT

CYQF;2015-09-13 04:00;CYQF 130400Z 35010G17KT 15SM FEW042 SCT110 13/07 A2986 RMK SC2AC2 SLP119 DENSITY ALT 3400FT

CYQF;2015-09-13 05:00;CYQF 130500Z 36005KT 15SM SCT045 BKN110 12/08 A2985 RMK SC4AC1 SLP113 DENSITY ALT 3300FT

CYQF;2015-09-13 06:00;CYQF 130600Z 00000KT 15SM OVC050 11/08 A2984 RMK SC8 SLP106 DENSITY ALT 3200FT

CYQF;2015-09-13 07:00;CYQF 130700Z 31007KT 15SM SCT022 OVC055 12/08 A2986 RMK SC4SC4 SLP110 DENSITY ALT 3300FT

CYQF;2015-09-13 08:00;CYQF 130800Z 33007KT 15SM FEW025 OVC054 11/08 A2985 RMK SC2SC6 SLP105 DENSITY ALT 3200FT

CYQF;2015-09-13 09:00;CYQF 130900Z 32007KT 15SM OVC060 10/07 A2985 RMK SC8 SLP104 DENSITY ALT 3200FT

CYQF;2015-09-13 09:44;CYQF 130944Z 30005KT 15SM -RA OVC064 10/08 A2985 RMK SC8 SLP105 DENSITY ALT 3100FT

CYQF;2015-09-13 10:00;CYQF 131000Z 28005KT 15SM -RA OVC070 10/08 A2984 RMK AC8 SLP103 DENSITY ALT 3100FT

CYQF;2015-09-13 11:00;CYQF 131100Z 23007KT 12SM -RA OVC062 09/08 A2982 RMK SC8 SLP096 DENSITY ALT 3000FT

CYQF;2015-09-13 12:00;CYQF 131200Z 24008KT 10SM -RA OVC063 09/08 A2983 RMK SC8 SLP100 DENSITY ALT 3000FT

CYQF;2015-09-13 12:41;CYQF 131241Z 25009KT 15SM VCSH SCT030 BKN120 09/08 A2981 RMK SC4AC3 SLP096 DENSITY ALT 3000FT

CYQF;2015-09-13 13:00;CYQF 131300Z 24008KT 15SM BKN033 BKN120 08/07 A2981 RMK SC5AC2 SLP100 DENSITY ALT 3000FT

CYQF;2015-09-13 14:00;CYQF 131400Z 24006KT 15SM SCT033 BKN096 BKN250 08/07 A2980 RMK SC3AC2CI2 SLP101 DENSITY ALT 3000FT

CYQF;2015-09-13 15:00;CYQF 131500Z 24006KT 15SM BKN097 10/09 A2980 RMK AC6 SLP104 DENSITY ALT 3200FT

CYQF;2015-09-13 16:00;CYQF 131600Z 26006KT 15SM FEW012 BKN090 BKN250 11/08 A2979 RMK CU1ACC5CI1 SLP099 DENSITY ALT 3300FT

CYQF;2015-09-13 17:00;CYQF 131700Z 30004KT 15SM SCT012 BKN080 BKN250 12/08 A2979 RMK SC3ACC3CI1 SLP101 DENSITY ALT 3400FT

CYQF;2015-09-13 18:00;CYQF 131800Z VRB03KT 15SM SCT017 BKN073 13/09 A2978 RMK CU4AC3 SLP096 DENSITY ALT 3500FT

CYQF;2015-09-13 19:00;CYQF 131900Z 27004KT 230V320 15SM BKN020 BKN070 BKN250 14/09 A2976 RMK CU5ACC2CI1 CI TR SLP088 DENSITY ALT 3700FT

CYQF;2015-09-13 20:00;CYQF 132000Z 33006KT 15SM BKN024 BKN070 13/08 A2975 RMK CU6ACC1 SLP086 DENSITY ALT 3600FT

CYQF;2015-09-13 21:00;CYQF 132100Z 01013KT 15SM BKN032 BKN070 14/06 A2974 RMK CU5ACC2 SLP082 DENSITY ALT 3700FT

CYQF;2015-09-13 22:00;CYQF 132200Z 01011KT 15SM BKN040 BKN070 13/06 A2973 RMK CU5ACC1 SLP081 DENSITY ALT 3600FT

CYQF;2015-09-13 23:00;CYQF 132300Z 01009KT 15SM FEW040 SCT070 BKN160 15/06 A2973 RMK CU2AC2AC2 SLP078 DENSITY ALT 3800FT

CYQF;2015-09-14 00:00;CYQF 140000Z 36005KT 15SM VCSH FEW028 BKN070 BKN160 12/05 A2973 RMK SC2ACC3CI2 SLP083 DENSITY ALT 3500FT

CYQF;2015-09-14 00:09;CYQF 140009Z 35004KT 12SM -SHRA SCT030 BKN070 12/06 A2973 RMK SC3ACC4 SLP083 DENSITY ALT 3500FT

CYQF;2015-09-14 01:00;CYQF 140100Z 01011G17KT 15SM VCSH BKN048 BKN080 11/05 A2974 RMK SC5ACC2 SLP088 DENSITY ALT 3400FT

CYQF;2015-09-14 02:00;CYQF 140200Z 36006KT 15SM BKN055 10/05 A2975 RMK SC7 SLP091 DENSITY ALT 3200FT

CYQF;2015-09-14 03:00;CYQF 140300Z 32003KT 310V010 15SM BKN060 09/05 A2976 RMK SC7 SLP094 DENSITY ALT 3100FT

CYQF;2015-09-14 04:00;CYQF 140400Z 33008KT 320V020 15SM OVC050 09/04 A2978 RMK SC8 SLP100 DENSITY ALT 3100FT

CYQF;2015-09-14 04:19;CYQF 140419Z 34006KT 15SM -RA OVC050 08/04 A2978 RMK SC8 SLP103 DENSITY ALT 3000FT

CYQF;2015-09-14 05:00;CYQF 140500Z 36006KT 15SM -RA OVC054 07/05 A2978 RMK SC8 SLP102

CYQF;2015-09-14 05:23;CYQF 140523Z 01004KT 15SM OVC049 07/05 A2978 RMK SC8 SLP102

CYQF;2015-09-14 06:00;CYQF 140600Z 36006KT 10SM -RA OVC026 07/05 A2979 RMK SC8 SLP104

CYQF;2015-09-14 07:00;CYQF 140700Z 27003KT 240V310 10SM -RA OVC046 07/06 A2979 RMK SC8 SLP104

CYQF;2015-09-14 08:00;CYQF 140800Z 32005KT 10SM -RA OVC026 07/06 A2978 RMK SC8 SLP101

CYQF;2015-09-14 08:26;CYQF 140826Z 30005KT 15SM SCT026 OVC073 07/06 A2977 RMK SC4AC4 SLP099

CYQF;2015-09-14 09:00;CYQF 140900Z 29005KT 15SM SCT026 OVC063 07/06 A2978 RMK SC3SC5 SLP102

CYQF;2015-09-14 10:00;CYQF 141000Z 31007KT 15SM FEW026 OVC063 06/05 A2978 RMK SC2SC6 SLP100

CYQF;2015-09-14 10:51;CYQF 141051Z 33007KT 15SM -RA SCT035 OVC063 06/05 A2979 RMK SC4SC4 SLP104

CYQF;2015-09-14 11:00;CYQF 141100Z 33006KT 15SM -RA BKN035 OVC063 06/05 A2978 RMK SC5SC3 SLP101

CYQF;2015-09-14 12:00;CYQF 141200Z 34004KT 320V020 15SM -RA FEW013 BKN027 OVC063 06/05 A2979 RMK SF1SC4SC3 SLP106

CYQF;2015-09-14 12:25;CYQF 141225Z 36004KT 15SM FEW013 BKN027 OVC063 05/04 A2980 RMK SF1SC5SC2 SLP110

CYQF;2015-09-14 13:00;CYQF 141300Z 35006KT 15SM -RA SCT016 BKN028 BKN070 05/04 A2981 RMK SC4SC1AC2 SLP114

CYQF;2015-09-14 14:00;CYQF 141400Z 34006KT 15SM SCT018 BKN070 05/04 A2981 RMK SC3AC4 INTMT -RA SLP117

CYQF;2015-09-14 14:48;CYQF 141448Z 35005KT 15SM SCT020 BKN070 05/04 A2982 RMK SC4AC3 SLP118

CYQF;2015-09-14 15:00;CYQF 141500Z 35006KT 15SM SCT018 BKN065 OVC100 06/04 A2982 RMK SC3SC3AC2 SLP120

CYQF;2015-09-14 16:00;CYQF 141600Z 36005KT 15SM BKN010 OVC070 06/04 A2983 RMK SC6AC2 SLP123

CYQF;2015-09-14 17:00;CYQF 141700Z 36006KT 15SM BKN012 OVC060 07/04 A2984 RMK SC6SC2 SLP126

CYQF;2015-09-14 18:00;CYQF 141800Z 36007KT 320V020 15SM BKN020 OVC060 07/04 A2983 RMK SC6SC2 SLP125

CYQF;2015-09-14 19:00;CYQF 141900Z 01007KT 15SM BKN021 OVC063 08/03 A2983 RMK SC7SC1 SLP123

CYQF;2015-09-14 20:00;CYQF 142000Z 02005KT 15SM SCT021 OVC050 08/03 A2983 RMK SC4SC4 SLP125

CYQF;2015-09-14 21:00;CYQF 142100Z 36004KT 15SM SCT020 OVC048 08/04 A2982 RMK SC4SC4 SLP121

CYQF;2015-09-14 22:00;CYQF 142200Z 00000KT 15SM SCT022 BKN052 OVC100 09/04 A2981 RMK SC3SC3AC2 SLP118 DENSITY ALT 3000FT

CYQF;2015-09-14 23:00;CYQF 142300Z 17006KT 15SM SCT024 OVC060 09/03 A2981 RMK SC3SC5 SLP117 DENSITY ALT 3000FT

CYQF;2015-09-15 00:00;CYQF 150000Z 19005KT 15SM FEW020 BKN058 OVC100 08/03 A2981 RMK SC2SC3AC3 SLP117 DENSITY ALT 3000FT

CYQF;2015-09-15 01:00;CYQF 150100Z 16004KT 15SM SCT040 OVC090 08/04 A2980 RMK SC3AC5 SLP115

CYQF;2015-09-15 02:00;CYQF 150200Z 20002KT 15SM FEW040 OVC090 07/04 A2979 RMK SC2AC6 SLP112

CYQF;2015-09-15 03:00;CYQF 150300Z 19002KT 15SM FEW034 OVC080 07/04 A2979 RMK SC2AC6 SLP112

CYQF;2015-09-15 04:00;CYQF 150400Z 22002KT 12SM -RA OVC039 07/05 A2978 RMK SC8 SLP109

CYQF;2015-09-15 05:00;CYQF 150500Z 06007KT 10SM -RA BKN024 OVC036 06/05 A2977 RMK SC5SC3 SLP104

CYQF;2015-09-15 06:00;CYQF 150600Z 08005KT 8SM -RA OVC032 06/05 A2975 RMK SC8 SLP099

CYQF;2015-09-15 07:00;CYQF 150700Z 09004KT 6SM -RA BR OVC030 06/05 A2974 RMK SC8 SLP093

CYQF;2015-09-15 08:00;CYQF 150800Z 14008KT 110V170 4SM -RA BR OVC024 05/05 A2972 RMK SC8 SLP087

CYQF;2015-09-15 09:00;CYQF 150900Z 10003KT 6SM -RA BR FEW010 OVC021 05/04 A2969 RMK SF1SC7 SLP078

CYQF;2015-09-15 10:00;CYQF 151000Z 06003KT 050V110 6SM -RA BR SCT020 OVC031 05/04 A2968 RMK SC3SC5 SLP073

CYQF;2015-09-15 11:00;CYQF 151100Z 36005KT 5SM -RA BR FEW027 OVC040 05/05 A2965 RMK SC2SC6 SLP063

CYQF;2015-09-15 12:00;CYQF 151200Z 02004KT 10SM -RA OVC018 05/05 A2964 RMK SC8 SLP060

CYQF;2015-09-15 12:13;CYQF 151213Z 03005KT 10SM -RA OVC012 05/05 A2964 RMK SC8 CIG RAG SLP058

CYQF;2015-09-15 12:30;CYQF 151230Z 02006KT 8SM -DZ OVC007 05/05 A2964 RMK ST8 CIG RAG SLP058

CYQF;2015-09-15 13:00;CYQF 151300Z 04005KT 1 1/2SM -DZ BR OVC007 06/05 A2963 RMK ST8 CIG RAG SLP057

CYQF;2015-09-15 13:48;CYQF 151348Z 04004KT 2SM BR OVC004 06/06 A2964 RMK ST8 CIG RAG SLP059

CYQF;2015-09-15 14:00;CYQF 151400Z 05003KT 2SM BR OVC004 06/06 A2964 RMK ST8 CIG RAG SLP059

CYQF;2015-09-15 14:22;CYQF 151422Z 06004KT 050V120 2SM -RA BR OVC004 06/06 A2964 RMK ST8 CIG RAG SLP059

CYQF;2015-09-15 14:42;CYQF 151442Z 08004KT 2 1/2SM BR BKN005 OVC009 07/06 A2964 RMK SF5ST3 SLP060

CYQF;2015-09-15 15:00;CYQF 151500Z 10002KT 2 1/2SM BR OVC006 07/06 A2964 RMK SF8 CIG RAG SLP060

CYQF;2015-09-15 15:08;CYQF 151508Z 00000KT 2SM -DZ BR OVC004 07/06 A2964 RMK SF8 CIG RAG SLP060 DENSITY ALT 3000FT

CYQF;2015-09-15 15:35;CYQF 151535Z 29008KT 2SM -DZ BR OVC006 06/05 A2965 RMK SF8 CIG RAG SLP062

CYQF;2015-09-15 16:00;CYQF 151600Z 30008KT 2 1/2SM -DZ BR OVC007 05/05 A2965 RMK SF8 CIG RAG SLP065

CYQF;2015-09-15 16:12;CYQF 151612Z 29009KT 6SM BR OVC006 05/05 A2965 RMK SF8 SLP065

CYQF;2015-09-15 17:00;CYQF 151700Z 29009G15KT 12SM BKN006 OVC015 06/05 A2966 RMK SF5SC3 SLP069

CYQF;2015-09-15 17:31;CYQF 151731Z 29012KT 15SM BKN010 BKN024 07/05 A2966 RMK SC6SC1 SLP069

CYQF;2015-09-15 18:00;CYQF 151800Z 28009G15KT 15SM BKN010 BKN025 07/05 A2967 RMK SC6SC1 CU EMBD SLP070 DENSITY ALT 3000FT

CYQF;2015-09-15 19:00;CYQF 151900Z 31008KT 15SM BKN015 BKN030 08/05 A2967 RMK SC5SC2 CU EMBD SLP072 DENSITY ALT 3000FT

CYQF;2015-09-15 20:00;CYQF 152000Z 31010G16KT 15SM BKN020 09/04 A2968 RMK SC7 CU SLP074 DENSITY ALT 3200FT

CYQF;2015-09-15 21:00;CYQF 152100Z 30009KT 15SM BKN027 08/04 A2970 RMK SC7 CU EMBD SLP080 DENSITY ALT 3100FT

CYQF;2015-09-15 22:00;CYQF 152200Z 31013KT 15SM BKN027 BKN080 09/04 A2969 RMK SC5AC2 CU EMBD SLP077 DENSITY ALT 3100FT

CYQF;2015-09-15 23:00;CYQF 152300Z 31011KT 15SM SCT030 08/03 A2970 RMK SC4 CU EMBD SLP082 DENSITY ALT 3100FT

CYQF;2015-09-16 00:00;CYQF 160000Z 34010G16KT 15SM SCT030 BKN250 09/04 A2972 RMK CU4CI2 SLP086 DENSITY ALT 3200FT

CYQF;2015-09-16 01:00;CYQF 160100Z 33011KT 15SM SCT021 BKN250 08/04 A2973 RMK CU4CI1 SLP091 DENSITY ALT 3100FT

CYQF;2015-09-16 02:00;CYQF 160200Z 32004KT 15SM SCT024 BKN100 07/04 A2976 RMK SC3AC2 SLP100

CYQF;2015-09-16 03:00;CYQF 160300Z 31005KT 15SM FEW020 FEW100 04/03 A2977 RMK SC1AC1 SLP108

CYQF;2015-09-16 04:00;CYQF 160400Z 28006KT 15SM SKC 04/02 A2978 RMK SLP112

CYQF;2015-09-16 05:00;CYQF 160500Z 28005KT 15SM SKC 03/02 A2978 RMK SLP112

CYQF;2015-09-16 06:00;CYQF 160600Z 26005KT 15SM SKC 03/02 A2978 RMK SLP113

CYQF;2015-09-16 07:00;CYQF 160700Z 25004KT 15SM SKC 02/02 A2979 RMK SLP117

CYQF;2015-09-16 08:00;CYQF 160800Z 28005KT 15SM SKC 02/01 A2979 RMK SLP114

CYQF;2015-09-16 09:00;CYQF 160900Z 28004KT 15SM FEW200 02/01 A2979 RMK CI1 SLP116

CYQF;2015-09-16 10:00;CYQF 161000Z 15003KT 15SM FEW010 SCT200 M00/M01 A2980 RMK ST1CI4 ST TR SLP121

CYQF;2015-09-16 10:26;CYQF 161026Z 18004KT 2SM BR FEW010 SCT200 M00/M01 A2980 RMK ST1CI4 ST TR SLP121

CYQF;2015-09-16 10:33;CYQF 161033Z 19005KT 1/2SM FZFG VV001 M00/M01 A2980 RMK FG8 FROIN SLP121

CYQF;2015-09-16 10:49;CYQF 161049Z 21005KT 1/4SM FZFG VV001 M00/M00 A2980 RMK FG8 FROIN SLP122

CYQF;2015-09-16 11:00;CYQF 161100Z 21004KT 1/2SM FG VV001 00/M00 A2981 RMK FG8 FROIN SLP123

CYQF;2015-09-16 11:07;CYQF 161107Z 21003KT 3/4SM BR OVC019 00/00 A2981 RMK FG4SC4 SLP123

CYQF;2015-09-16 11:25;CYQF 161125Z 23003KT 1SM BR OVC018 01/00 A2981 RMK FG3SC5 SLP123

CYQF;2015-09-16 11:40;CYQF 161140Z 23003KT 4SM BR OVC018 01/01 A2981 RMK SC8 SLP124

CYQF;2015-09-16 12:00;CYQF 161200Z 24004KT 10SM FEW001 OVC016 01/01 A2981 RMK SF1SC7 SLP123

CYQF;2015-09-16 13:00;CYQF 161300Z 26005KT 15SM OVC018 03/02 A2982 RMK SC8 SLP124

CYQF;2015-09-16 14:00;CYQF 161400Z 29004KT 15SM OVC015 04/02 A2984 RMK SC8 SLP131

CYQF;2015-09-16 15:00;CYQF 161500Z 28003KT 15SM OVC016 04/03 A2984 RMK SC8 SLP135

CYQF;2015-09-16 16:00;CYQF 161600Z 35005KT 15SM FEW005 OVC017 05/03 A2985 RMK SF2SC6 SLP136

CYQF;2015-09-16 17:00;CYQF 161700Z 24003KT 15SM SCT010 OVC015 05/03 A2986 RMK SF4SC4 SLP140

CYQF;2015-09-16 18:00;CYQF 161800Z 32007KT 15SM OVC017 06/03 A2984 RMK SC8 SLP134

CYQF;2015-09-16 19:00;CYQF 161900Z 32008KT 270V350 15SM BKN019 08/03 A2984 RMK SC7 SLP133

CYQF;2015-09-16 20:00;CYQF 162000Z VRB03KT 15SM BKN022 BKN250 08/02 A2985 RMK SC6CI1 SLP135

CYQF;2015-09-16 21:00;CYQF 162100Z VRB02KT 15SM SCT032 BKN250 10/03 A2984 RMK CU3CI3 SLP129 DENSITY ALT 3200FT

CYQF;2015-09-16 22:00;CYQF 162200Z VRB03KT 15SM SCT032 BKN250 11/03 A2983 RMK CU3CI4 SLP128 DENSITY ALT 3300FT

CYQF;2015-09-16 23:00;CYQF 162300Z VRB02KT 15SM SCT035 BKN250 11/01 A2983 RMK CU3CI2 SLP126 DENSITY ALT 3300FT

CYQF;2015-09-17 00:00;CYQF 170000Z 23003KT 210V310 15SM SCT043 BKN250 11/01 A2984 RMK CU3CI3 SLP129 DENSITY ALT 3200FT

CYQF;2015-09-17 01:00;CYQF 170100Z 00000KT 15SM FEW028 SCT080 BKN250 10/03 A2984 RMK CU1AC2CI2 VIRGA SW SLP131 DENSITY ALT 3100FT

CYQF;2015-09-17 02:00;CYQF 170200Z 00000KT 15SM SCT080 BKN250 08/03 A2985 RMK AC3CI2 SLP135

CYQF;2015-09-17 03:00;CYQF 170300Z 00000KT 15SM SCT100 BKN250 07/03 A2987 RMK AC4CI2 SLP143

CYQF;2015-09-17 04:00;CYQF 170400Z 02003KT 15SM FEW040 SCT065 BKN100 06/03 A2988 RMK SC2SC2AC2 SLP145

CYQF;2015-09-17 05:00;CYQF 170500Z 17005KT 15SM FEW040 BKN140 03/02 A2986 RMK SC1AC4 SLP143

CYQF;2015-09-17 06:00;CYQF 170600Z 23004KT 15SM FEW140 03/02 A2986 RMK AC2 SLP141

CYQF;2015-09-17 07:00;CYQF 170700Z 11002KT 15SM SKC 01/01 A2987 RMK SLP144

CYQF;2015-09-17 08:00;CYQF 170800Z 19004KT 6SM BR SKC 00/M00 A2986 RMK SLP143

CYQF;2015-09-17 09:00;CYQF 170900Z 19005KT 4SM BR SKC M01/M01 A2986 RMK SLP138

CYQF;2015-09-17 09:29;CYQF 170929Z 19004KT 3/4SM BR SKC M01/M01 A2985 RMK FG2 SLP136

CYQF;2015-09-17 10:00;CYQF 171000Z 19004KT 3/4SM BR SKC M00/M01 A2985 RMK FG2 SLP135

CYQF;2015-09-17 10:17;CYQF 171017Z 19002KT 6SM BR SKC M01/M01 A2985 RMK SLP135

CYQF;2015-09-17 11:00;CYQF 171100Z CCA 19002KT 10SM BCFG SKC M01/M01 A2985 RMK FROIN SLP135

CYQF;2015-09-17 11:14;CYQF 171114Z 00000KT 1SM BR SKC M01/M01 A2985 RMK FG2 FROIN SLP135

CYQF;2015-09-17 11:28;CYQF 171128Z 00000KT 6SM BR SKC M00/M01 A2985 RMK FROIN SLP133

CYQF;2015-09-17 12:00;CYQF 171200Z 00000KT 6SM BR SCT150 M02/M02 A2984 RMK AC4 SLP134

CYQF;2015-09-17 13:00;CYQF 171300Z 18003KT 10SM MIFG SCT150 M02/M02 A2984 RMK AC3 FROIN SLP136

CYQF;2015-09-17 14:00;CYQF 171400Z 22005KT 15SM BKN160 00/M00 A2986 RMK AC6 SLP140

CYQF;2015-09-17 15:00;CYQF 171500Z 18003KT 15SM FEW100 BKN160 02/02 A2986 RMK AC1AC6 SLP138

CYQF;2015-09-17 16:00;CYQF 171600Z 22006KT 15SM SCT090 BKN160 04/02 A2986 RMK AC3AC2 SLP142

CYQF;2015-09-17 17:00;CYQF 171700Z 00000KT 15SM FEW090 07/03 A2986 RMK AC2 SLP138

CYQF;2015-09-17 18:00;CYQF 171800Z VRB02KT 15SM FEW036 FEW100 FEW250 11/02 A2986 RMK CU1AC1CI2 CU TR AC TR SLP135 DENSITY ALT 3200FT

CYQF;2015-09-17 19:00;CYQF 171900Z VRB02KT 15SM FEW050 FEW250 14/M01 A2985 RMK CU1CI1 SLP130 DENSITY ALT 3500FT

CYQF;2015-09-17 20:00;CYQF 172000Z VRB06KT 15SM FEW060 FEW100 SCT250 15/M02 A2984 RMK CU1AC1CI2 AC TR SLP127 DENSITY ALT 3700FT

CYQF;2015-09-17 21:00;CYQF 172100Z 30007KT 190V330 15SM SCT062 SCT250 16/M01 A2983 RMK CU3CI1 SLP123 DENSITY ALT 3800FT

CYQF;2015-09-17 22:00;CYQF 172200Z 00000KT 15SM SCT064 BKN100 15/M02 A2982 RMK CU3AC2 SLP121 DENSITY ALT 3700FT

CYQF;2015-09-17 23:00;CYQF 172300Z 30004KT 260V350 15SM SCT080 SCT250 16/M01 A2982 RMK CU3CI1 SLP120 DENSITY ALT 3900FT

CYQF;2015-09-18 00:00;CYQF 180000Z 20004KT 160V240 15SM FEW080 FEW250 16/M01 A2982 RMK CU1CI1 SLP120 DENSITY ALT 3800FT

CYQF;2015-09-18 01:00;CYQF 180100Z 16002KT 15SM FEW100 BKN250 13/03 A2981 RMK AC2CI4 SLP122 DENSITY ALT 3500FT

CYQF;2015-09-18 02:00;CYQF 180200Z 18003KT 15SM SCT100 BKN250 11/01 A2982 RMK AC3CI3 SLP125 DENSITY ALT 3200FT

CYQF;2015-09-18 03:00;CYQF 180300Z 19005KT 15SM FEW100 BKN250 07/03 A2983 RMK AC2CI3 SLP129

CYQF;2015-09-18 04:00;CYQF 180400Z 00000KT 15SM FEW250 06/02 A2984 RMK CI2 SLP131

CYQF;2015-09-18 05:00;CYQF 180500Z 20004KT 15SM FEW200 04/02 A2984 RMK CI2 SLP130

CYQF;2015-09-18 06:00;CYQF 180600Z 22005KT 15SM BKN180 03/01 A2984 RMK AC5 SLP127

CYQF;2015-09-18 07:00;CYQF 180700Z 25006KT 15SM FEW140 04/01 A2984 RMK AC2 SLP123

CYQF;2015-09-18 08:00;CYQF 180800Z 00000KT 15SM SKC 02/M00 A2984 RMK SLP126

CYQF;2015-09-18 09:00;CYQF 180900Z 20007KT 15SM SCT210 01/M01 A2985 RMK CI3 SLP129

CYQF;2015-09-18 10:00;CYQF 181000Z 18003KT 15SM FEW210 01/M01 A2986 RMK CI1 SLP134

CYQF;2015-09-18 11:00;CYQF 181100Z 18005KT 15SM SKC M00/M01 A2986 RMK SLP131

CYQF;2015-09-18 12:00;CYQF 181200Z 18004KT 15SM FEW210 M00/M01 A2987 RMK CI1 SLP137

CYQF;2015-09-18 13:00;CYQF 181300Z 17004KT 120V180 15SM SCT130 00/M01 A2988 RMK AC3 SLP144

CYQF;2015-09-18 14:00;CYQF 181400Z 19003KT 15SM FEW090 SCT250 01/M01 A2989 RMK AC1CI3 SLP147

CYQF;2015-09-18 15:00;CYQF 181500Z 22003KT 15SM FEW090 BKN250 05/02 A2989 RMK AC2CI3 SLP149

CYQF;2015-09-18 16:00;CYQF 181600Z 24003KT 190V290 15SM FEW090 BKN250 08/03 A2990 RMK AC1CI4 SLP147

CYQF;2015-09-18 17:00;CYQF 181700Z 21004KT 15SM FEW090 BKN250 11/03 A2989 RMK AC1CI4 SLP145 DENSITY ALT 3200FT

CYQF;2015-09-18 18:00;CYQF 181800Z 22004KT 160V280 15SM FEW090 BKN250 15/02 A2988 RMK AC1CI5 SLP136 DENSITY ALT 3700FT

CYQF;2015-09-18 19:00;CYQF 181900Z 21004KT 190V270 15SM FEW090 BKN250 17/02 A2987 RMK AC1CI6 SLP130 DENSITY ALT 3900FT

CYQF;2015-09-18 20:00;CYQF 182000Z VRB02KT 15SM FEW090 BKN250 18/M00 A2986 RMK AC1CI6 AC TR SLP127 DENSITY ALT 4100FT

CYQF;2015-09-18 21:00;CYQF 182100Z 25007KT 190V310 15SM FEW070 BKN250 19/01 A2984 RMK CU1CI6 SLP121 DENSITY ALT 4100FT

CYQF;2015-09-18 22:00;CYQF 182200Z 26006KT 170V270 15SM FEW072 BKN250 19/01 A2982 RMK CU1CI6 SLP113 DENSITY ALT 4200FT

CYQF;2015-09-18 23:00;CYQF 182300Z 27006KT 15SM SCT095 BKN250 18/02 A2981 RMK AC3CI3 SLP113 DENSITY ALT 4100FT

CYQF;2015-09-19 00:00;CYQF 190000Z 24003KT 15SM BKN080 BKN250 18/04 A2980 RMK AC6CI1 SLP112 DENSITY ALT 4100FT

CYQF;2015-09-19 01:00;CYQF 190100Z 30006KT 15SM SCT080 BKN250 16/02 A2980 RMK AC3CI4 SLP112 DENSITY ALT 3900FT

CYQF;2015-09-19 02:00;CYQF 190200Z 28005KT 15SM FEW080 SCT250 13/01 A2979 RMK AC2CI2 SLP113 DENSITY ALT 3500FT

CYQF;2015-09-19 03:00;CYQF 190300Z 25005KT 15SM BKN250 11/01 A2980 RMK CI5 SLP111 DENSITY ALT 3200FT

CYQF;2015-09-19 04:00;CYQF 190400Z 20005KT 15SM FEW250 06/02 A2979 RMK CI2 SLP111

CYQF;2015-09-19 05:00;CYQF 190500Z 19006KT 15SM FEW250 05/01 A2979 RMK CI2 SLP108

CYQF;2015-09-19 06:00;CYQF 190600Z 22005KT 15SM FEW250 05/01 A2978 RMK CI1 SLP100

CYQF;2015-09-19 07:00;CYQF 190700Z VRB02KT 15SM SKC 03/01 A2977 RMK SLP098

CYQF;2015-09-19 08:00;CYQF 190800Z 22003KT 15SM SKC 03/01 A2976 RMK SLP091

CYQF;2015-09-19 09:00;CYQF 190900Z 20004KT 15SM SKC 02/00 A2975 RMK AURBO SLP089

CYQF;2015-09-19 10:00;CYQF 191000Z 16003KT 15SM SKC 02/M00 A2973 RMK SLP083

CYQF;2015-09-19 11:00;CYQF 191100Z 18005KT 15SM SKC 03/M00 A2973 RMK SLP082

CYQF;2015-09-19 12:00;CYQF 191200Z 00000KT 15SM SKC 01/M01 A2972 RMK SLP081

CYQF;2015-09-19 13:00;CYQF 191300Z 21002KT 15SM FEW160 BKN230 03/00 A2972 RMK AC1CI5 SLP081

CYQF;2015-09-19 14:00;CYQF 191400Z 19003KT 170V240 15SM FEW120 BKN230 02/M00 A2971 RMK AC2CI5 SLP084

CYQF;2015-09-19 15:00;CYQF 191500Z 21005KT 15SM BKN120 BKN230 08/04 A2971 RMK AC5CI2 SLP079 DENSITY ALT 3100FT

CYQF;2015-09-19 16:00;CYQF 191600Z 19006KT 15SM SCT120 BKN230 11/05 A2970 RMK AC3CI2 SLP075 DENSITY ALT 3400FT

CYQF;2015-09-19 17:00;CYQF 191700Z 23009KT 15SM SCT100 BKN230 16/06 A2969 RMK AC3CI4 VIA YQU FSS SLP068 DENSITY ALT 4000FT

CYQF;2015-09-19 18:00;CYQF 191800Z 21008KT 15SM SCT100 BKN230 18/06 A2968 RMK AC4CI3 SLP064 DENSITY ALT 4200FT

CYQF;2015-09-19 19:00;CYQF 191900Z 21008KT 190V250 15SM BKN100 BKN230 20/05 A2967 RMK AC5CI2 SLP061 DENSITY ALT 4400FT

CYQF;2015-09-19 20:00;CYQF 192000Z 23008KT 15SM BKN100 OVC230 20/04 A2966 RMK AC6CI2 SLP055 DENSITY ALT 4500FT

CYQF;2015-09-19 21:00;CYQF 192100Z 27005KT 15SM BKN100 OVC230 20/05 A2965 RMK AC5CI3 SLP053 DENSITY ALT 4500FT

CYQF;2015-09-19 22:00;CYQF 192200Z 29012G18KT 15SM SCT100 BKN210 20/04 A2964 RMK AC3CI4 SLP051 DENSITY ALT 4500FT

CYQF;2015-09-19 23:00;CYQF 192300Z 25010G16KT 15SM FEW080 BKN150 20/05 A2964 RMK AC2AC5 SLP049 DENSITY ALT 4500FT

CYQF;2015-09-20 00:00;CYQF 200000Z 21008KT 15SM FEW140 SCT210 19/05 A2962 RMK AC2CI1 SLP046 DENSITY ALT 4400FT

CYQF;2015-09-20 01:00;CYQF 200100Z 20007KT 15SM FEW140 17/06 A2961 RMK AC1 SLP043 DENSITY ALT 4200FT

CYQF;2015-09-20 02:00;CYQF 200200Z 19006KT 15SM FEW140 13/05 A2961 RMK AC1 SLP047 DENSITY ALT 3700FT

CYQF;2015-09-20 03:00;CYQF 200300Z 21006KT 15SM FEW140 SCT220 10/05 A2961 RMK AC1CI2 SLP044 DENSITY ALT 3300FT

CYQF;2015-09-20 04:00;CYQF 200400Z 23007KT 15SM FEW140 11/05 A2963 RMK AC1 SLP046 DENSITY ALT 3400FT

CYQF;2015-09-20 05:00;CYQF 200500Z 23006KT 15SM SCT200 11/04 A2963 RMK CI3 SLP041 DENSITY ALT 3400FT

CYQF;2015-09-20 06:00;CYQF 200600Z 24002KT 15SM FEW200 08/04 A2963 RMK CI2 SLP042 DENSITY ALT 3100FT

CYQF;2015-09-20 07:00;CYQF 200700Z 20004KT 15SM BKN140 07/04 A2963 RMK AC5 SLP041 DENSITY ALT 3000FT

CYQF;2015-09-20 08:00;CYQF 200800Z 19002KT 15SM BKN200 06/04 A2963 RMK CI5 SLP044

CYQF;2015-09-20 09:00;CYQF 200900Z 00000KT 15SM BKN180 05/03 A2964 RMK AC5 SLP047

CYQF;2015-09-20 10:00;CYQF 201000Z 00000KT 15SM SCT220 05/03 A2966 RMK CI3 SLP053

CYQF;2015-09-20 11:00;CYQF 201100Z 03007KT 15SM SCT120 BKN230 05/04 A2967 RMK AC3CI3 SLP057

CYQF;2015-09-20 12:00;CYQF 201200Z 01006KT 15SM SCT100 BKN200 05/03 A2968 RMK AC3CI3 SLP061

CYQF;2015-09-20 13:00;CYQF 201300Z 03007KT 15SM SCT090 BKN250 06/04 A2968 RMK AC3CI3 SLP064

CYQF;2015-09-20 14:00;CYQF 201400Z 05004KT 15SM BKN100 OVC250 08/06 A2969 RMK AC6CI2 SLP071 DENSITY ALT 3000FT

CYQF;2015-09-20 15:00;CYQF 201500Z 04006KT 15SM BKN100 OVC250 10/05 A2968 RMK AC6CI2 SLP069 DENSITY ALT 3200FT

CYQF;2015-09-20 16:00;CYQF 201600Z 05010KT 15SM BKN089 OVC160 11/03 A2969 RMK AC6AC2 SLP067 DENSITY ALT 3400FT

CYQF;2015-09-20 17:00;CYQF 201700Z 06011KT 15SM BKN080 BKN160 13/02 A2969 RMK AC5AC2 SLP066 DENSITY ALT 3700FT

CYQF;2015-09-20 18:00;CYQF 201800Z 07010G16KT 15SM FEW080 BKN160 14/01 A2966 RMK AC2AC3 SLP057 DENSITY ALT 3800FT

CYQF;2015-09-20 19:00;CYQF 201900Z 07009G15KT 15SM SCT080 BKN140 14/02 A2965 RMK AC4AC3 SLP053 DENSITY ALT 3800FT

CYQF;2015-09-20 19:43;CYQF 201943Z 06012KT 10SM -RA BKN075 13/03 A2964 RMK AC7 SLP052 DENSITY ALT 3700FT

CYQF;2015-09-20 20:00;CYQF 202000Z 06010KT 10SM -RA BKN090 BKN160 11/05 A2963 RMK AC6AC1 SLP052 DENSITY ALT 3500FT

CYQF;2015-09-20 21:00;CYQF 202100Z 06009G15KT 15SM FEW080 BKN100 13/04 A2961 RMK AC1AC6 SLP045 DENSITY ALT 3700FT

CYQF;2015-09-20 21:30;CYQF 202130Z 06008KT 15SM -SHRA BKN090 12/04 A2960 RMK ACC7 SLP041 DENSITY ALT 3600FT

CYQF;2015-09-20 22:00;CYQF 202200Z 03007KT 010V110 15SM -SHRA BKN080 11/05 A2959 RMK ACC7 SLP040 DENSITY ALT 3500FT

CYQF;2015-09-20 23:00;CYQF 202300Z 03009KT 15SM BKN080 10/07 A2957 RMK ACC6 SLP033 DENSITY ALT 3400FT

CYQF;2015-09-21 00:00;CYQF 210000Z 01009KT 15SM BKN080 09/07 A2955 RMK AC7 SLP026 DENSITY ALT 3300FT

CYQF;2015-09-21 00:19;CYQF 210019Z 33008KT 310V020 10SM -SHRA BKN080 09/07 A2956 RMK ACC7 PRESRR SLP032 DENSITY ALT 3300FT

CYQF;2015-09-21 01:00;CYQF 210100Z 34006KT 6SM -SHRA BR BKN080 08/07 A2956 RMK ACC7 PRESFR SLP032 DENSITY ALT 3200FT

CYQF;2015-09-21 02:00;CYQF 210200Z 09005KT 15SM BKN070 08/07 A2950 RMK ACC7 SLP010 DENSITY ALT 3300FT

CYQF;2015-09-21 03:00;CYQF 210300Z 25007KT 6SM -SHRA BR OVC070 08/07 A2957 RMK ACC8 PRESRR SLP031 DENSITY ALT 3200FT

CYQF;2015-09-21 03:46;CYQF 210346Z 29014G22KT 6SM -RA BR SCT007 OVC070 08/06 A2958 RMK SF3AC5 SLP034 DENSITY ALT 3200FT

CYQF;2015-09-21 04:00;CYQF 210400Z 28014G21KT 10SM -RA BKN008 OVC070 07/06 A2961 RMK SF5AC3 PRESRR SLP044 DENSITY ALT 3000FT

CYQF;2015-09-21 05:00;CYQF 210500Z 34016G25KT 10SM -RA BKN008 OVC070 07/06 A2966 RMK SF6AC2 PRESRR SLP057 DENSITY ALT 3000FT

CYQF;2015-09-21 06:00;CYQF 210600Z 33010G17KT 10SM -RA OVC013 06/05 A2969 RMK SC8 SLP068

CYQF;2015-09-21 06:24;CYQF 210624Z 33012G18KT 15SM OVC010 06/05 A2972 RMK SC8 SLP079

CYQF;2015-09-21 07:00;CYQF 210700Z 32016G22KT 15SM OVC014 06/04 A2976 RMK SC8 PRESRR SLP096

CYQF;2015-09-21 07:34;CYQF 210734Z 32010G21KT 10SM -SHRA BKN015 OVC042 05/04 A2978 RMK CF5SC3 PRESRR SLP103

CYQF;2015-09-21 08:00;CYQF 210800Z 33010KT 15SM BKN017 OVC035 05/03 A2978 RMK CF5SC3 SLP104

CYQF;2015-09-21 09:00;CYQF 210900Z 31008KT 15SM SCT022 BKN080 04/03 A2980 RMK SC4AC2 SLP111

CYQF;2015-09-21 10:00;CYQF 211000Z 29005KT 15SM FEW040 BKN090 04/02 A2982 RMK SC2AC5 SLP121

CYQF;2015-09-21 11:00;CYQF 211100Z 29008KT 15SM FEW030 OVC097 04/03 A2985 RMK SC2AC6 SLP131

CYQF;2015-09-21 12:00;CYQF 211200Z 31010KT 15SM BKN100 04/02 A2987 RMK AC7 SLP142

CYQF;2015-09-21 13:00;CYQF 211300Z 27006KT 15SM FEW100 03/01 A2990 RMK AC2 SLP153

CYQF;2015-09-21 14:00;CYQF 211400Z 27006KT 15SM FEW100 03/01 A2992 RMK AC1 SLP159

CYQF;2015-09-21 15:00;CYQF 211500Z 27006KT 15SM FEW100 05/02 A2995 RMK AC1 SLP166

CYQF;2015-09-21 16:00;CYQF 211600Z 30011KT 15SM FEW100 06/01 A2996 RMK AC1 AC TR SLP171

CYQF;2015-09-21 17:00;CYQF 211700Z 31011G17KT 280V340 15SM FEW030 FEW100 07/01 A2997 RMK CF1AC1 SLP174

CYQF;2015-09-21 18:00;CYQF 211800Z 30011G17KT 15SM FEW032 09/M00 A2998 RMK CF2 SLP176

CYQF;2015-09-21 19:00;CYQF 211900Z 30010G16KT 280V340 15SM SCT040 10/M01 A2999 RMK CU4 SLP177 DENSITY ALT 3000FT

CYQF;2015-09-21 20:00;CYQF 212000Z 31010G16KT 15SM BKN055 10/M02 A3000 RMK CU6 SLP182

CYQF;2015-09-21 21:00;CYQF 212100Z 31007KT 280V340 15SM BKN056 10/M01 A3000 RMK CU6 SLP184 DENSITY ALT 3000FT

CYQF;2015-09-21 22:00;CYQF 212200Z 31008KT 290V360 15SM BKN060 11/M02 A3000 RMK CU5 SLP182 DENSITY ALT 3100FT

CYQF;2015-09-21 23:00;CYQF 212300Z 30006KT 240V350 15SM BKN060 11/M02 A3000 RMK CU5 SLP183 DENSITY ALT 3100FT

CYQF;2015-09-22 00:00;CYQF 220000Z 30002KT 15SM BKN060 10/M01 A3001 RMK CU5 SLP188

CYQF;2015-09-22 01:00;CYQF 220100Z 34003KT 15SM SCT060 09/M01 A3002 RMK SC3 SLP193

CYQF;2015-09-22 02:00;CYQF 220200Z 00000KT 15SM SCT060 09/M02 A3003 RMK SC3 SLP197

CYQF;2015-09-22 03:00;CYQF 220300Z 21002KT 15SM SCT060 03/00 A3004 RMK SC4 SLP206

CYQF;2015-09-22 04:00;CYQF 220400Z 03003KT 15SM SCT060 BKN078 04/02 A3006 RMK SC4AC2 SLP207

CYQF;2015-09-22 05:00;CYQF 220500Z 19002KT 15SM OVC052 05/02 A3005 RMK SC8 SLP203

CYQF;2015-09-22 06:00;CYQF 220600Z 19003KT 15SM OVC058 05/02 A3005 RMK SC8 SLP202

CYQF;2015-09-22 07:00;CYQF 220700Z 17002KT 15SM BKN073 04/01 A3005 RMK AC7 SLP199

CYQF;2015-09-22 08:00;CYQF 220800Z 15004KT 15SM BKN072 04/01 A3004 RMK AC7 SLP199

CYQF;2015-09-22 09:00;CYQF 220900Z 15007KT 15SM BKN067 05/01 A3003 RMK AC6 SLP194

CYQF;2015-09-22 10:00;CYQF 221000Z 14006KT 15SM BKN067 04/01 A3002 RMK AC6 SLP190

CYQF;2015-09-22 11:00;CYQF 221100Z 15010KT 15SM BKN051 05/01 A3002 RMK SC6 SLP187

CYQF;2015-09-22 12:00;CYQF 221200Z 15011KT 15SM BKN047 05/01 A3000 RMK SC7 SLP183

CYQF;2015-09-22 13:00;CYQF 221300Z 15010KT 15SM SCT060 05/01 A2998 RMK SC3 SLP177

CYQF;2015-09-22 14:00;CYQF 221400Z 15007KT 15SM SCT039 SCT250 05/02 A2997 RMK SC3CI1 SLP174

CYQF;2015-09-22 15:00;CYQF 221500Z 15010KT 15SM BKN055 07/02 A2997 RMK SC5 SLP179

CYQF;2015-09-22 16:00;CYQF 221600Z 17013G22KT 15SM BKN050 BKN250 09/02 A2996 RMK SC5CI1 SLP170

CYQF;2015-09-22 17:00;CYQF 221700Z 17014G19KT 15SM SCT040 BKN250 10/03 A2995 RMK SC3CI2 SLP166 DENSITY ALT 3000FT

CYQF;2015-09-22 18:00;CYQF 221800Z 15014G20KT 15SM FEW040 FEW250 12/04 A2994 RMK SC1CI1 CI TR SLP160 DENSITY ALT 3300FT

CYQF;2015-09-22 19:00;CYQF 221900Z 14009G16KT 130V200 15SM FEW040 FEW250 13/05 A2993 RMK SC1CI2 SC TR SLP158 DENSITY ALT 3300FT

CYQF;2015-09-22 20:00;CYQF 222000Z 15007KT 140V210 15SM FEW038 SCT250 14/04 A2993 RMK CF1CI4 CF TR SLP155 DENSITY ALT 3500FT

CYQF;2015-09-22 21:00;CYQF 222100Z 11006KT 090V170 15SM FEW040 SCT250 15/04 A2993 RMK CU1CI3 SLP152 DENSITY ALT 3600FT

CYQF;2015-09-22 22:00;CYQF 222200Z 15005KT 100V240 15SM FEW040 BKN250 15/03 A2993 RMK CU1CI4 SLP152 DENSITY ALT 3600FT

CYQF;2015-09-22 23:00;CYQF 222300Z 12005KT 070V160 15SM FEW040 BKN230 16/04 A2993 RMK CU1CI4 SLP152 DENSITY ALT 3700FT

CYQF;2015-09-23 00:00;CYQF 230000Z 09008KT 15SM FEW230 15/05 A2994 RMK CI2 SLP155 DENSITY ALT 3500FT

CYQF;2015-09-23 01:00;CYQF 230100Z 08008KT 15SM BKN230 12/05 A2994 RMK CI6 SLP160 DENSITY ALT 3200FT

CYQF;2015-09-23 02:00;CYQF 230200Z 08005KT 15SM FEW100 BKN230 09/05 A2996 RMK AC1CI4 SLP172

CYQF;2015-09-23 03:00;CYQF 230300Z 06004KT 15SM SCT230 07/04 A2998 RMK CI3 SLP178

CYQF;2015-09-23 04:00;CYQF 230400Z 09004KT 15SM SKC 06/04 A2999 RMK SLP180

CYQF;2015-09-23 05:00;CYQF 230500Z 04005KT 340V070 15SM SKC 04/03 A2999 RMK SLP181

CYQF;2015-09-23 06:00;CYQF 230600Z 01005KT 15SM SCT250 04/03 A2999 RMK CI3 SLP177

CYQF;2015-09-23 07:00;CYQF 230700Z 01003KT 310V030 15SM SCT064 BKN250 03/02 A2999 RMK SC3CI3 SLP180

CYQF;2015-09-23 08:00;CYQF 230800Z 06005KT 15SM FEW060 SCT250 02/01 A2999 RMK SC1CI3 SLP177

CYQF;2015-09-23 09:00;CYQF 230900Z 01004KT 15SM SCT060 02/01 A2998 RMK SC3 SLP175

CYQF;2015-09-23 10:00;CYQF 231000Z 04003KT 15SM FEW060 02/01 A2998 RMK SC2 SLP173

CYQF;2015-09-23 11:00;CYQF 231100Z 03004KT 15SM FEW250 01/00 A2997 RMK CI1 FROIN SLP171

CYQF;2015-09-23 12:00;CYQF 231200Z 06002KT 15SM BKN250 01/00 A2997 RMK CI5 SLP171

CYQF;2015-09-23 13:00;CYQF 231300Z 08003KT 15SM FEW120 BKN250 01/00 A2995 RMK AC1CI5 FROIN SLP166

CYQF;2015-09-23 14:00;CYQF 231400Z 00000KT 15SM FEW100 BKN230 01/01 A2996 RMK AC1CI5 SLP174

CYQF;2015-09-23 15:00;CYQF 231500Z 00000KT 15SM FEW100 BKN230 02/01 A2995 RMK AC2CI5 SLP171

CYQF;2015-09-23 16:00;CYQF 231600Z 00000KT 15SM BKN200 05/03 A2995 RMK CI7 SLP170

CYQF;2015-09-23 17:00;CYQF 231700Z 00000KT 15SM BKN240 07/04 A2994 RMK CI7 SLP165

CYQF;2015-09-23 18:00;CYQF 231800Z 15004KT 080V190 15SM BKN240 12/06 A2993 RMK CI5 SLP157 DENSITY ALT 3300FT

CYQF;2015-09-23 19:00;CYQF 231900Z 17009KT 15SM SCT240 16/07 A2992 RMK CI3 SLP149 DENSITY ALT 3700FT

CYQF;2015-09-23 20:00;CYQF 232000Z 18010KT 140V200 15SM SCT250 17/06 A2990 RMK CI3 SLP143 DENSITY ALT 3800FT

CYQF;2015-09-23 21:00;CYQF 232100Z 15008KT 15SM BKN250 18/06 A2990 RMK CI5 SLP142 DENSITY ALT 3900FT

CYQF;2015-09-23 22:00;CYQF 232200Z 17005KT 15SM SCT200 BKN250 18/06 A2989 RMK CI3CI4 SLP139 DENSITY ALT 3900FT

CYQF;2015-09-23 23:00;CYQF 232300Z 11008KT 15SM BKN200 BKN250 20/06 A2989 RMK CI5CI1 SLP137 DENSITY ALT 4200FT

CYQF;2015-09-24 00:00;CYQF 240000Z 13010KT 15SM BKN230 19/06 A2989 RMK CI6 SLP141 DENSITY ALT 4100FT

CYQF;2015-09-24 01:00;CYQF 240100Z 12007KT 15SM BKN230 16/06 A2990 RMK CI5 SLP146 DENSITY ALT 3800FT

CYQF;2015-09-24 02:00;CYQF 240200Z 10006KT 15SM SCT230 12/06 A2990 RMK CI3 SLP151 DENSITY ALT 3300FT

CYQF;2015-09-24 03:00;CYQF 240300Z 35003KT 330V130 15SM FEW250 09/06 A2992 RMK CI2 SLP160

CYQF;2015-09-24 04:00;CYQF 240400Z 19003KT 15SM FEW250 09/05 A2994 RMK CI2 SLP163

CYQF;2015-09-24 05:00;CYQF 240500Z VRB02KT 15SM BKN250 06/04 A2996 RMK CI6 SLP171

CYQF;2015-09-24 06:00;CYQF 240600Z 20004KT 15SM BKN250 06/04 A2997 RMK CS6 SLP169

CYQF;2015-09-24 07:00;CYQF 240700Z 20004KT 15SM SCT250 03/02 A2998 RMK CI4 SLP173

CYQF;2015-09-24 08:00;CYQF 240800Z 22007KT 15SM BKN250 04/03 A3000 RMK CI5 SLP177

CYQF;2015-09-24 09:00;CYQF 240900Z 14004KT 15SM BKN250 03/02 A3001 RMK CI6 SLP181

CYQF;2015-09-24 10:00;CYQF 241000Z 18006KT 15SM BKN250 03/01 A3002 RMK CI6 SLP182

CYQF;2015-09-24 11:00;CYQF 241100Z 24006KT 180V250 15SM BKN250 03/01 A3001 RMK CI5 SLP178

CYQF;2015-09-24 12:00;CYQF 241200Z 00000KT 15SM SCT250 01/M00 A3005 RMK CI3 SLP193

CYQF;2015-09-24 13:00;CYQF 241300Z 22003KT 15SM FEW120 BKN250 02/00 A3005 RMK AC1CI5 SLP195

CYQF;2015-09-24 14:00;CYQF 241400Z 19004KT 15SM FEW120 OVC250 03/M01 A3005 RMK AC1CI7 SLP199

CYQF;2015-09-24 15:00;CYQF 241500Z 19005KT 15SM FEW120 BKN250 05/02 A3004 RMK AC1CI6 SLP198

CYQF;2015-09-24 16:00;CYQF 241600Z 19004KT 15SM FEW120 BKN250 10/03 A3005 RMK AC1CI6 SLP195

CYQF;2015-09-24 17:00;CYQF 241700Z 15003KT 110V190 15SM FEW120 OVC250 14/03 A3005 RMK AC1CI7 SLP194 DENSITY ALT 3300FT

CYQF;2015-09-24 18:00;CYQF 241800Z 16005KT 15SM FEW120 OVC250 18/05 A3003 RMK AC1CI7 SLP183 DENSITY ALT 3800FT

CYQF;2015-09-24 19:00;CYQF 241900Z 15013KT 15SM FEW120 OVC240 18/07 A3002 RMK AC2CI6 SLP181 DENSITY ALT 3900FT

CYQF;2015-09-24 20:00;CYQF 242000Z 16012KT 15SM SCT100 OVC230 18/04 A2999 RMK AC3CI5 SLP172 DENSITY ALT 3900FT

CYQF;2015-09-24 21:00;CYQF 242100Z 15013G21KT 15SM SCT100 OVC230 19/01 A2997 RMK AC3CI5 SLP164 DENSITY ALT 4000FT

CYQF;2015-09-24 22:00;CYQF 242200Z 15013G18KT 15SM SCT090 BKN160 BKN230 17/04 A2995 RMK AC3AC2CI2 SLP158 DENSITY ALT 3800FT

CYQF;2015-09-24 23:00;CYQF 242300Z 15009KT 15SM FEW090 BKN160 OVC230 15/04 A2993 RMK AC2AC4CI2 SLP154 DENSITY ALT 3600FT

CYQF;2015-09-25 00:00;CYQF 250000Z 15006KT 15SM FEW160 BKN210 OVC250 15/04 A2991 RMK AC2CI5CI1 SLP152 DENSITY ALT 3600FT

CYQF;2015-09-25 01:00;CYQF 250100Z 17013KT 15SM BKN210 BKN250 16/02 A2989 RMK CI5CI2 SLP141 DENSITY ALT 3700FT

CYQF;2015-09-25 02:00;CYQF 250200Z 17007KT 15SM SCT210 BKN250 14/02 A2988 RMK CI4CI3 SLP139 DENSITY ALT 3500FT

CYQF;2015-09-25 03:00;CYQF 250300Z 17011KT 15SM FEW210 BKN250 14/02 A2987 RMK CI2CI3 SLP134 DENSITY ALT 3600FT

CYQF;2015-09-25 04:00;CYQF 250400Z 17011KT 15SM FEW100 BKN240 13/03 A2986 RMK AC2CI4 SLP125 DENSITY ALT 3500FT

CYQF;2015-09-25 05:00;CYQF 250500Z 21008KT 15SM FEW120 BKN250 11/03 A2986 RMK AC1CI5 SLP121 DENSITY ALT 3200FT

CYQF;2015-09-25 06:00;CYQF 250600Z 21008KT 15SM BKN250 12/04 A2984 RMK CI6 SLP112 DENSITY ALT 3300FT

CYQF;2015-09-25 07:00;CYQF 250700Z 18007KT 15SM BKN240 11/03 A2983 RMK CI7 SLP108 DENSITY ALT 3200FT

CYQF;2015-09-25 08:00;CYQF 250800Z 19006KT 15SM BKN240 11/03 A2982 RMK CI7 SLP105 DENSITY ALT 3300FT

CYQF;2015-09-25 09:00;CYQF 250900Z 13003KT 110V190 15SM OVC240 12/03 A2981 RMK CI8 SLP100 DENSITY ALT 3400FT

CYQF;2015-09-25 10:00;CYQF 251000Z 21005KT 15SM OVC240 11/02 A2980 RMK CI8 SLP100 DENSITY ALT 3200FT

CYQF;2015-09-25 11:00;CYQF 251100Z 21006KT 15SM OVC240 09/02 A2979 RMK CI8 SLP101 DENSITY ALT 3100FT

CYQF;2015-09-25 12:00;CYQF 251200Z 19005KT 15SM BKN240 07/02 A2979 RMK CI6 SLP103

CYQF;2015-09-25 13:00;CYQF 251300Z 21009KT 15SM FEW150 BKN240 09/02 A2979 RMK AC2CI5 SLP099 DENSITY ALT 3100FT

CYQF;2015-09-25 14:00;CYQF 251400Z VRB02KT 15SM SCT150 OVC240 07/02 A2980 RMK AC3CI5 SLP106

CYQF;2015-09-25 15:00;CYQF 251500Z 31012G18KT 190V320 15SM FEW050 SCT150 BKN240 10/03 A2985 RMK SC2AC1CI4 PRESRR SLP120 DENSITY ALT 3100FT

CYQF;2015-09-25 16:00;CYQF 251600Z 34014G21KT 15SM FEW050 SCT150 BKN240 12/04 A2989 RMK SC1AC2CI4 SLP134 DENSITY ALT 3300FT

CYQF;2015-09-25 17:00;CYQF 251700Z 36015G20KT 15SM FEW050 SCT240 12/05 A2992 RMK SC1CI3 SLP145 DENSITY ALT 3300FT

CYQF;2015-09-25 18:00;CYQF 251800Z 36012G22KT 15SM BKN025 BKN240 12/06 A2993 RMK SC5CI2 SLP149 DENSITY ALT 3300FT

CYQF;2015-09-25 19:00;CYQF 251900Z 34010G16KT 15SM BKN021 BKN240 10/05 A2996 RMK SC6CI1 SLP162 DENSITY ALT 3000FT

CYQF;2015-09-25 20:00;CYQF 252000Z 01012G18KT 15SM BKN032 BKN120 OVC240 12/04 A2995 RMK SC5AC2CI1 SLP157 DENSITY ALT 3300FT

CYQF;2015-09-25 21:00;CYQF 252100Z 36011KT 320V020 15SM FEW036 BKN120 BKN250 13/03 A2995 RMK SC2AC4CI1 SLP156 DENSITY ALT 3400FT

CYQF;2015-09-25 22:00;CYQF 252200Z 02012KT 15SM BKN110 13/02 A2994 RMK AC7 SLP151 DENSITY ALT 3300FT

CYQF;2015-09-25 23:00;CYQF 252300Z 02010KT 15SM BKN110 OVC250 12/02 A2994 RMK AC7CI1 SLP153 DENSITY ALT 3300FT

CYQF;2015-09-26 00:00;CYQF 260000Z 01006KT 15SM SCT110 BKN250 12/03 A2994 RMK AC4CI2 SLP158 DENSITY ALT 3300FT

CYQF;2015-09-26 01:00;CYQF 260100Z 35004KT 15SM FEW100 BKN210 10/03 A2995 RMK AC1CI4 SLP161 DENSITY ALT 3000FT

CYQF;2015-09-26 02:00;CYQF 260200Z 36005KT 15SM FEW180 BKN250 09/03 A2995 RMK AC1CI4 SLP165

CYQF;2015-09-26 03:00;CYQF 260300Z 36006KT 15SM SCT250 07/03 A2995 RMK CI3 SLP162

CYQF;2015-09-26 04:00;CYQF 260400Z 33005KT 15SM FEW100 SCT250 06/02 A2995 RMK AC1CI2 SLP163

CYQF;2015-09-26 05:00;CYQF 260500Z 00000KT 15SM FEW050 SCT100 05/02 A2995 RMK SC2AC2 SLP164

CYQF;2015-09-26 06:00;CYQF 260600Z 00000KT 15SM OVC048 06/03 A2995 RMK SC8 SLP160

CYQF;2015-09-26 07:00;CYQF 260700Z 24004KT 15SM OVC047 07/04 A2995 RMK SC8 SLP162

CYQF;2015-09-26 08:00;CYQF 260800Z 23002KT 15SM OVC045 07/04 A2993 RMK SC8 SLP153

CYQF;2015-09-26 09:00;CYQF 260900Z 30002KT 15SM OVC050 07/04 A2992 RMK SC8 SLP148

CYQF;2015-09-26 10:00;CYQF 261000Z 32003KT 15SM BKN046 OVC080 07/05 A2991 RMK SC7AC1 SLP146

CYQF;2015-09-26 10:36;CYQF 261036Z 32004KT 15SM -SHRA BKN045 BKN087 06/05 A2990 RMK SC6AC1 CU SLP143

CYQF;2015-09-26 11:00;CYQF 261100Z 00000KT 15SM BKN045 BKN085 06/05 A2989 RMK SC5AC2 OCNL -SHRA SLP142

CYQF;2015-09-26 11:19;CYQF 261119Z 00000KT 15SM BKN050 BKN092 06/05 A2988 RMK SC5AC2 PRESFR SLP138

CYQF;2015-09-26 12:00;CYQF 261200Z 27004KT 15SM OVC044 06/05 A2990 RMK SC8 SLP143

CYQF;2015-09-26 13:00;CYQF 261300Z 31004KT 15SM -RA OVC037 06/05 A2990 RMK SC8 SLP146

CYQF;2015-09-26 13:45;CYQF 261345Z 19002KT 15SM BKN044 OVC100 06/06 A2989 RMK SC5AC3 SLP144

CYQF;2015-09-26 14:00;CYQF 261400Z 00000KT 15SM BKN045 OVC100 06/06 A2988 RMK SC6AC2 SLP143

CYQF;2015-09-26 14:49;CYQF 261449Z 28002KT 5SM -RA BR FEW010 OVC030 06/06 A2990 RMK SF1SC7 SLP148

CYQF;2015-09-26 15:00;CYQF 261500Z 30003KT 5SM -RA BR FEW010 OVC035 06/06 A2990 RMK SF2SC6 SLP150

CYQF;2015-09-26 16:00;CYQF 261600Z 00000KT 10SM -RA FEW005 BKN040 OVC080 07/06 A2988 RMK SF2SC4AC2 SLP145

CYQF;2015-09-26 16:40;CYQF 261640Z 20003KT 170V230 15SM SCT008 BKN035 OVC080 08/06 A2989 RMK SF3SC4AC1 SLP147

CYQF;2015-09-26 17:00;CYQF 261700Z 20004KT 15SM SCT010 BKN044 OVC080 08/06 A2988 RMK SF3SC4AC1 SLP145

CYQF;2015-09-26 18:00;CYQF 261800Z 17006KT 110V240 15SM BKN016 10/06 A2986 RMK CU7 SLP134 DENSITY ALT 3100FT

CYQF;2015-09-26 19:00;CYQF 261900Z 19010KT 15SM BKN024 11/05 A2985 RMK CU7 SLP129 DENSITY ALT 3200FT

CYQF;2015-09-26 20:00;CYQF 262000Z 22008KT 15SM SCT025 11/05 A2983 RMK CU4 SLP120 DENSITY ALT 3300FT

CYQF;2015-09-26 21:00;CYQF 262100Z VRB02KT 15SM FEW036 FEW120 13/05 A2981 RMK CU2AC1 AC TR SLP110 DENSITY ALT 3500FT

CYQF;2015-09-26 22:00;CYQF 262200Z 21005KT 180V290 15SM FEW040 SCT120 14/03 A2979 RMK CU2AC1 SLP105 DENSITY ALT 3600FT

CYQF;2015-09-26 23:00;CYQF 262300Z 36006KT 15SM SCT045 SCT120 11/03 A2980 RMK CU3AC1 SLP111 DENSITY ALT 3300FT

CYQF;2015-09-27 00:00;CYQF 270000Z 00000KT 15SM SCT045 BKN090 12/04 A2981 RMK CU4AC2 VIRGA SLP112 DENSITY ALT 3400FT

CYQF;2015-09-27 01:00;CYQF 270100Z 33007KT 15SM SCT045 SCT090 11/02 A2983 RMK CU4AC1 AC TR SLP123 DENSITY ALT 3200FT

CYQF;2015-09-27 02:00;CYQF 270200Z 00000KT 15SM FEW045 FEW090 07/02 A2984 RMK CU1AC1 AC TR SLP129

CYQF;2015-09-27 03:00;CYQF 270300Z 22005KT 15SM SKC 06/01 A2986 RMK SLP138

CYQF;2015-09-27 04:00;CYQF 270400Z 23006KT 15SM SKC 04/00 A2987 RMK SLP142

CYQF;2015-09-27 05:00;CYQF 270500Z 27002KT 15SM SKC 05/M01 A2988 RMK SLP143

CYQF;2015-09-27 06:00;CYQF 270600Z 25004KT 190V270 15SM SKC 02/M01 A2988 RMK SLP145

CYQF;2015-09-27 07:00;CYQF 270700Z 21005KT 15SM SKC M00/M03 A2989 RMK SLP149

CYQF;2015-09-27 08:00;CYQF 270800Z 00000KT 15SM SKC M01/M02 A2989 RMK SLP148

CYQF;2015-09-27 09:00;CYQF 270900Z 19005KT 15SM SKC M01/M03 A2990 RMK SLP150

CYQF;2015-09-27 10:00;CYQF 271000Z 19003KT 15SM SKC M01/M03 A2990 RMK SLP151

CYQF;2015-09-27 11:00;CYQF 271100Z 20003KT 15SM SCT100 M03/M04 A2990 RMK AC3 SLP154

CYQF;2015-09-27 12:00;CYQF 271200Z 21007KT 15SM BKN100 M01/M03 A2990 RMK AC5 SLP151

CYQF;2015-09-27 13:00;CYQF 271300Z 20008KT 15SM FEW100 M02/M04 A2990 RMK AC1 SLP156

CYQF;2015-09-27 14:00;CYQF 271400Z 21003KT 15SM FEW100 M02/M04 A2992 RMK AC1 SLP166

CYQF;2015-09-27 15:00;CYQF 271500Z 19006KT 15SM FEW100 FEW250 02/M02 A2993 RMK AC1CI1 SLP166

CYQF;2015-09-27 16:00;CYQF 271600Z 21004KT 15SM SCT100 05/M01 A2993 RMK AC3 SLP166

CYQF;2015-09-27 17:00;CYQF 271700Z 26005KT 240V300 15SM BKN088 10/M00 A2994 RMK AC6 SLP162 DENSITY ALT 3000FT

CYQF;2015-09-27 17:37;CYQF 271737Z 36007KT 310V020 15SM BKN088 11/M01 A2996 RMK AC6 WSHFT 1720 SLP169 DENSITY ALT 3100FT

CYQF;2015-09-27 18:00;CYQF 271800Z 36008KT 320V020 15SM BKN090 11/M02 A2996 RMK AC5 SLP172 DENSITY ALT 3100FT

CYQF;2015-09-27 19:00;CYQF 271900Z 35011KT 15SM FEW060 FEW100 13/M03 A2996 RMK CU1AC1 SLP171 DENSITY ALT 3400FT

CYQF;2015-09-27 20:00;CYQF 272000Z 32014G21KT 15SM SCT060 BKN100 13/M02 A2996 RMK CU3AC3 SLP171 DENSITY ALT 3300FT

CYQF;2015-09-27 21:00;CYQF 272100Z 33012KT 15SM SCT060 BKN110 13/M02 A2995 RMK CU3AC4 SLP171 DENSITY ALT 3400FT

CYQF;2015-09-27 22:00;CYQF 272200Z 02014G20KT 15SM FEW060 BKN095 11/01 A2997 RMK CU2AC5 SLP179 DENSITY ALT 3000FT

CYQF;2015-09-27 23:00;CYQF 272300Z 02011KT 15SM BKN120 10/02 A3000 RMK AC7 SLP190 DENSITY ALT 3000FT

CYQF;2015-09-28 00:00;CYQF 280000Z 04011KT 15SM BKN087 BKN120 09/02 A3002 RMK AC6AC1 SLP196

CYQF;2015-09-28 01:00;CYQF 280100Z 04007KT 15SM BKN077 07/02 A3005 RMK AC7 SLP210

CYQF;2015-09-28 02:00;CYQF 280200Z 02004KT 15SM BKN077 BKN120 06/02 A3007 RMK AC5AC2 SLP219

CYQF;2015-09-28 03:00;CYQF 280300Z 01004KT 15SM FEW020 BKN080 05/02 A3011 RMK SC1AC6 SLP229

CYQF;2015-09-28 04:00;CYQF 280400Z 27002KT 15SM FEW020 SCT110 04/01 A3013 RMK SC1AC4 SC TR SLP232

CYQF;2015-09-28 05:00;CYQF 280500Z 32003KT 15SM SCT040 BKN120 04/01 A3013 RMK SC3AC4 SLP229

CYQF;2015-09-28 06:00;CYQF 280600Z VRB02KT 15SM SCT055 SCT120 03/01 A3014 RMK SC3AC1 SLP231

CYQF;2015-09-28 07:00;CYQF 280700Z 18003KT 15SM FEW055 SCT120 01/M00 A3012 RMK SC2AC1 SLP225

CYQF;2015-09-28 08:00;CYQF 280800Z 24005KT 15SM BKN100 01/M00 A3012 RMK AC6 SLP225

CYQF;2015-09-28 09:00;CYQF 280900Z 21005KT 190V280 15SM FEW036 BKN075 03/01 A3012 RMK SC1AC4 SLP223

CYQF;2015-09-28 10:00;CYQF 281000Z 00000KT 15SM BKN100 01/00 A3011 RMK AC6 SLP226

CYQF;2015-09-28 11:00;CYQF 281100Z 05004KT 020V100 15SM BKN093 02/01 A3012 RMK AC7 SLP228

CYQF;2015-09-28 12:00;CYQF 281200Z 12005KT 070V150 15SM BKN090 03/01 A3011 RMK AC7 SLP225

CYQF;2015-09-28 13:00;CYQF 281300Z 17009KT 15SM BKN085 03/01 A3010 RMK AC7 SLP223

CYQF;2015-09-28 14:00;CYQF 281400Z 19005KT 15SM BKN085 04/01 A3011 RMK AC7 VIRGA SLP227

CYQF;2015-09-28 15:00;CYQF 281500Z 19007KT 15SM BKN080 04/01 A3012 RMK AC7 VIRGA SLP230

CYQF;2015-09-28 16:00;CYQF 281600Z 20006KT 15SM BKN080 05/02 A3012 RMK AC6 SLP231

CYQF;2015-09-28 17:00;CYQF 281700Z 17003KT 140V240 15SM FEW080 08/03 A3012 RMK AC2 SLP226

CYQF;2015-09-28 18:00;CYQF 281800Z 21003KT 140V270 15SM FEW250 11/02 A3011 RMK CI1 SLP220 DENSITY ALT 3000FT

CYQF;2015-09-28 19:00;CYQF 281900Z VRB04KT 15SM SKC 13/01 A3009 RMK SLP215 DENSITY ALT 3200FT

CYQF;2015-09-28 20:00;CYQF 282000Z VRB02KT 15SM FEW050 14/01 A3007 RMK CU1 SLP206 DENSITY ALT 3300FT

CYQF;2015-09-28 21:00;CYQF 282100Z 27003KT 150V280 15SM FEW060 15/M01 A3005 RMK CU1 SLP197 DENSITY ALT 3500FT

CYQF;2015-09-28 22:00;CYQF 282200Z 21006KT 15SM FEW060 16/01 A3003 RMK CU1 SLP191 DENSITY ALT 3600FT

CYQF;2015-09-28 23:00;CYQF 282300Z 17010KT 15SM SKC 16/M00 A3001 RMK SLP184 DENSITY ALT 3600FT

CYQF;2015-09-29 00:00;CYQF 290000Z 17010KT 15SM SCT250 15/M00 A3000 RMK CI3 SLP180 DENSITY ALT 3500FT

CYQF;2015-09-29 01:00;CYQF 290100Z 15007KT 15SM SCT250 12/01 A2998 RMK CI3 SLP177 DENSITY ALT 3100FT

CYQF;2015-09-29 02:00;CYQF 290200Z 12004KT 15SM FEW250 08/00 A2998 RMK CI1 SLP179

CYQF;2015-09-29 03:00;CYQF 290300Z 19004KT 15SM SKC 07/M00 A2999 RMK SLP182

CYQF;2015-09-29 04:00;CYQF 290400Z 19008KT 15SM FEW250 07/M00 A2998 RMK CI1 SLP179

CYQF;2015-09-29 05:00;CYQF 290500Z 18007KT 15SM FEW250 05/M01 A2998 RMK CI1 CI TR SLP176

CYQF;2015-09-29 06:00;CYQF 290600Z 19006KT 15SM SKC 05/M01 A2997 RMK SLP170

CYQF;2015-09-29 07:00;CYQF 290700Z 19006KT 15SM SKC 04/M01 A2995 RMK SLP165

CYQF;2015-09-29 08:00;CYQF 290800Z 20006KT 15SM SKC 04/M01 A2995 RMK SLP160

CYQF;2015-09-29 09:00;CYQF 290900Z 20003KT 15SM SKC 02/M01 A2994 RMK SLP159

CYQF;2015-09-29 10:00;CYQF 291000Z 21003KT 15SM SKC 03/M00 A2993 RMK SLP155

CYQF;2015-09-29 11:00;CYQF 291100Z 00000KT 15SM SKC 01/M02 A2993 RMK SLP157

CYQF;2015-09-29 12:00;CYQF 291200Z 20005KT 15SM SKC 00/M02 A2993 RMK SLP158

CYQF;2015-09-29 13:00;CYQF 291300Z 26005KT 15SM SKC 01/M01 A2993 RMK SLP161

CYQF;2015-09-29 14:00;CYQF 291400Z 21004KT 15SM FEW150 FEW250 M01/M02 A2993 RMK AC1CI1 AC TR CI TR SLP167

CYQF;2015-09-29 15:00;CYQF 291500Z 18004KT 15SM FEW120 FEW250 03/01 A2993 RMK AC1CI1 AC TR CI TR SLP163

CYQF;2015-09-29 16:00;CYQF 291600Z 24003KT 15SM FEW120 08/03 A2994 RMK AC1 SLP161

CYQF;2015-09-29 17:00;CYQF 291700Z VRB02KT 15SM SCT150 BKN250 13/03 A2993 RMK AC3CI3 SLP156 DENSITY ALT 3300FT

CYQF;2015-09-29 18:00;CYQF 291800Z 21003KT 15SM FEW090 BKN120 14/04 A2993 RMK AC2AC5 SLP155 DENSITY ALT 3500FT

CYQF;2015-09-29 19:00;CYQF 291900Z 22003KT 130V280 15SM SCT080 BKN120 17/04 A2993 RMK AC4AC3 SLP153 DENSITY ALT 3800FT

CYQF;2015-09-29 20:00;CYQF 292000Z 00000KT 15SM BKN160 BKN250 17/04 A2993 RMK AC5CI2 SLP151 DENSITY ALT 3800FT

CYQF;2015-09-29 21:00;CYQF 292100Z 19005KT 15SM SCT160 BKN250 18/04 A2991 RMK AC4CI2 SLP146 DENSITY ALT 3900FT

CYQF;2015-09-29 22:00;CYQF 292200Z 21006KT 190V270 15SM FEW160 SCT250 19/02 A2990 RMK AC2CI2 SLP140 DENSITY ALT 4000FT

CYQF;2015-09-29 23:00;CYQF 292300Z VRB02KT 15SM FEW160 FEW250 19/02 A2989 RMK AC1CI1 SLP141 DENSITY ALT 4100FT

CYQF;2015-09-30 00:00;CYQF 300000Z 18005KT 15SM FEW160 FEW250 18/03 A2989 RMK AC1CI1 SLP141 DENSITY ALT 4000FT

CYQF;2015-09-30 01:00;CYQF 300100Z 17003KT 15SM FEW160 FEW250 15/04 A2989 RMK AC1CI1 CI TR SLP143 DENSITY ALT 3600FT

CYQF;2015-09-30 02:00;CYQF 300200Z 17004KT 15SM FEW160 12/04 A2989 RMK AC1 SLP149 DENSITY ALT 3200FT

CYQF;2015-09-30 03:00;CYQF 300300Z 20006KT 15SM SKC 09/04 A2990 RMK SLP151

CYQF;2015-09-30 04:00;CYQF 300400Z 20003KT 15SM FEW160 07/03 A2991 RMK AC1 AC TR SLP151

CYQF;2015-09-30 05:00;CYQF 300500Z 23005KT 15SM FEW160 08/03 A2992 RMK AC1 AC TR WND ESTD SLP147

CYQF;2015-09-30 06:00;CYQF 300600Z 21004KT 15SM SKC 07/03 A2992 RMK SLP148

CYQF;2015-09-30 07:00;CYQF 300700Z 20003KT 15SM SKC 05/02 A2992 RMK SLP149

CYQF;2015-09-30 08:00;CYQF 300800Z 20004KT 15SM SKC 03/01 A2993 RMK SLP154

CYQF;2015-09-30 09:00;CYQF 300900Z 20005KT 15SM SKC 03/01 A2993 RMK SLP153

CYQF;2015-09-30 10:00;CYQF 301000Z 22005KT 15SM SKC 04/02 A2994 RMK SLP152

CYQF;2015-09-30 11:00;CYQF 301100Z 19004KT 15SM SKC 03/01 A2994 RMK SLP156

CYQF;2015-09-30 12:00;CYQF 301200Z 20004KT 15SM SKC 02/01 A2995 RMK SLP159

CYQF;2015-09-30 13:00;CYQF 301300Z 21006KT 15SM SKC 03/02 A2996 RMK SLP166

CYQF;2015-09-30 14:00;CYQF 301400Z 21004KT 15SM SKC 03/01 A2997 RMK SLP175

CYQF;2015-09-30 15:00;CYQF 301500Z 21004KT 15SM SKC 06/04 A2998 RMK SLP177

CYQF;2015-09-30 16:00;CYQF 301600Z 22004KT 15SM SKC 10/05 A2999 RMK SLP178

CYQF;2015-09-30 17:00;CYQF 301700Z 23004KT 200V290 15SM SKC 14/06 A3000 RMK SLP174 DENSITY ALT 3400FT

CYQF;2015-09-30 18:00;CYQF 301800Z 00000KT 15SM SKC 17/06 A3000 RMK SLP171 DENSITY ALT 3800FT

CYQF;2015-09-30 19:00;CYQF 301900Z 09003KT 360V160 15SM SKC 19/06 A2999 RMK SLP170 DENSITY ALT 4000FT

CYQF;2015-09-30 20:00;CYQF 302000Z 06005KT 010V080 15SM SKC 20/06 A2999 RMK SLP169 DENSITY ALT 4100FT

CYQF;2015-09-30 21:00;CYQF 302100Z 32002KT 15SM SKC 20/05 A2998 RMK SLP167 DENSITY ALT 4100FT

CYQF;2015-09-30 22:00;CYQF 302200Z VRB02KT 15SM SCT240 20/05 A2997 RMK CI4 SLP163 DENSITY ALT 4200FT

CYQF;2015-09-30 23:00;CYQF 302300Z 11003KT 080V190 15SM SCT240 21/05 A2998 RMK CI4 SLP165 DENSITY ALT 4300FT

CYQF;2015-10-01 00:00;CYQF 010000Z 22002KT 15SM BKN240 21/07 A2999 RMK CI6 SLP169 DENSITY ALT 4200FT

CYQF;2015-10-01 01:00;CYQF 010100Z 16003KT 15SM BKN240 18/07 A2999 RMK CI7 SLP173 DENSITY ALT 3900FT

CYQF;2015-10-01 02:00;CYQF 010200Z 16004KT 15SM FEW240 14/06 A3000 RMK CI2 SLP181 DENSITY ALT 3400FT

CYQF;2015-10-01 03:00;CYQF 010300Z 18004KT 15SM FEW240 11/05 A3002 RMK CI1 SLP186 DENSITY ALT 3000FT

CYQF;2015-10-01 04:00;CYQF 010400Z 19004KT 15SM SKC 09/05 A3003 RMK SLP188

CYQF;2015-10-01 05:00;CYQF 010500Z 19003KT 15SM SKC 10/05 A3004 RMK SLP187

CYQF;2015-10-01 06:00;CYQF 010600Z 18002KT 15SM SKC 08/04 A3005 RMK SLP187

CYQF;2015-10-01 07:00;CYQF 010700Z 00000KT 15SM SKC 07/04 A3004 RMK SLP185

CYQF;2015-10-01 08:00;CYQF 010800Z 18003KT 15SM SKC 06/03 A3006 RMK SLP190

CYQF;2015-10-01 09:00;CYQF 010900Z 20002KT 15SM SKC 05/03 A3006 RMK SLP192

CYQF;2015-10-01 10:00;CYQF 011000Z 00000KT 15SM SKC 04/02 A3007 RMK SLP197

CYQF;2015-10-01 11:00;CYQF 011100Z 00000KT 15SM SKC 04/02 A3007 RMK SLP197

CYQF;2015-10-01 12:00;CYQF 011200Z 00000KT 15SM SKC 04/02 A3008 RMK SLP199

CYQF;2015-10-01 13:00;CYQF 011300Z 28004KT 15SM FEW260 04/03 A3009 RMK CI1 CI TR SLP207

CYQF;2015-10-01 14:00;CYQF 011400Z 00000KT 15SM FEW260 03/01 A3011 RMK CI1 SLP218

CYQF;2015-10-01 15:00;CYQF 011500Z 19003KT 15SM FEW260 06/04 A3012 RMK CI1 SLP221

CYQF;2015-10-01 16:00;CYQF 011600Z 19004KT 15SM FEW260 10/05 A3012 RMK CI1 SLP217

CYQF;2015-10-01 17:00;CYQF 011700Z 17004KT 15SM FEW260 14/06 A3011 RMK CI2 SLP210 DENSITY ALT 3300FT

CYQF;2015-10-01 18:00;CYQF 011800Z 17006KT 140V200 15SM SCT260 17/07 A3010 RMK CI3 SLP208 DENSITY ALT 3600FT

CYQF;2015-10-01 19:00;CYQF 011900Z 16008KT 15SM BKN260 19/05 A3009 RMK CI5 SLP203 DENSITY ALT 3900FT

CYQF;2015-10-01 20:00;CYQF 012000Z 18006KT 15SM BKN260 19/06 A3008 RMK CI6 SLP201 DENSITY ALT 3900FT

CYQF;2015-10-01 21:00;CYQF 012100Z 18006KT 15SM BKN210 18/07 A3008 RMK CI7 SLP200 DENSITY ALT 3800FT

CYQF;2015-10-01 22:00;CYQF 012200Z 13007KT 12SM BKN180 20/06 A3006 RMK AC6 SLP194 DENSITY ALT 4000FT

CYQF;2015-10-01 23:00;CYQF 012300Z 13004KT 12SM BKN230 19/06 A3006 RMK CI7 SLP194 DENSITY ALT 3900FT

CYQF;2015-10-02 00:00;CYQF 020000Z 13005KT 12SM BKN220 18/05 A3006 RMK CI7 SLP195 DENSITY ALT 3800FT

CYQF;2015-10-02 01:00;CYQF 020100Z 13005KT 12SM SCT180 BKN230 15/05 A3006 RMK AC3CI3 SLP198 DENSITY ALT 3500FT

CYQF;2015-10-02 02:00;CYQF 020200Z 16005KT 12SM SCT180 BKN230 14/05 A3006 RMK AC3CI3 SLP202 DENSITY ALT 3300FT

CYQF;2015-10-02 03:00;CYQF 020300Z 16010KT 15SM SCT200 13/05 A3006 RMK CI4 SLP199 DENSITY ALT 3200FT

CYQF;2015-10-02 04:00;CYQF 020400Z 18005KT 15SM SCT200 11/05 A3006 RMK CI3 SLP194 DENSITY ALT 3000FT

CYQF;2015-10-02 05:00;CYQF 020500Z 18005KT 15SM FEW230 10/05 A3005 RMK CI2 SLP189

CYQF;2015-10-02 06:00;CYQF 020600Z 18005KT 15SM FEW200 10/05 A3004 RMK CI2 SLP184

CYQF;2015-10-02 07:00;CYQF 020700Z 15004KT 15SM FEW200 09/05 A3004 RMK CI2 SLP181

CYQF;2015-10-02 08:00;CYQF 020800Z 17002KT 15SM SCT200 07/04 A3003 RMK CI3 SLP181

CYQF;2015-10-02 09:00;CYQF 020900Z 18005KT 15SM SCT200 08/05 A3002 RMK CI3 SLP177

CYQF;2015-10-02 10:00;CYQF 021000Z 16004KT 15SM SCT200 06/04 A3001 RMK CI3 SLP172

CYQF;2015-10-02 11:00;CYQF 021100Z 18005KT 15SM FEW100 SCT200 05/04 A2999 RMK AC1CI4 AC TR SLP171

CYQF;2015-10-02 12:00;CYQF 021200Z 19004KT 15SM SCT200 04/03 A2998 RMK CI3 SLP169

CYQF;2015-10-02 13:00;CYQF 021300Z 21004KT 15SM SCT200 03/02 A2998 RMK CI3 SLP172

CYQF;2015-10-02 14:00;CYQF 021400Z 20005KT 12SM FEW100 FEW200 02/02 A2998 RMK ACC1CI1 ACC TR SLP176

CYQF;2015-10-02 15:00;CYQF 021500Z 20007KT 15SM FEW200 06/04 A2997 RMK CI1 SLP167

CYQF;2015-10-02 16:00;CYQF 021600Z 23005KT 15SM FEW150 FEW200 10/06 A2996 RMK AC1CI1 SLP161 DENSITY ALT 3000FT

CYQF;2015-10-02 17:00;CYQF 021700Z 23004KT 190V270 15SM FEW026 FEW150 FEW200 13/06 A2995 RMK CU1AC1CI1 CU TR AC TR SLP155 DENSITY ALT 3400FT

CYQF;2015-10-02 18:00;CYQF 021800Z 25004KT 190V270 15SM FEW040 FEW150 SCT200 16/07 A2994 RMK CU1AC1CI1 SLP150 DENSITY ALT 3700FT

CYQF;2015-10-02 19:00;CYQF 021900Z 34004KT 290V030 15SM FEW040 FEW140 SCT210 17/07 A2993 RMK CU1AC1CI2 SLP145 DENSITY ALT 3900FT

CYQF;2015-10-02 20:00;CYQF 022000Z 35007KT 310V060 15SM FEW044 FEW140 SCT220 19/07 A2991 RMK CU1AC1CI2 SLP141 DENSITY ALT 4100FT

CYQF;2015-10-02 21:00;CYQF 022100Z 36010G15KT 15SM FEW044 SCT140 BKN220 19/08 A2991 RMK CU1AC3CI3 SLP139 DENSITY ALT 4100FT

CYQF;2015-10-02 22:00;CYQF 022200Z 02009G16KT 15SM FEW045 SCT120 BKN220 19/09 A2992 RMK CU2AC2CI2 SLP143 DENSITY ALT 4100FT

CYQF;2015-10-02 23:00;CYQF 022300Z 01014G22KT 15SM BKN040 BKN120 18/09 A2995 RMK CU5AC2 SLP155 DENSITY ALT 3900FT

CYQF;2015-10-03 00:00;CYQF 030000Z 35020G29KT 15SM BKN015 OVC030 12/07 A3000 RMK SC5SC3 PRESRR SLP183 DENSITY ALT 3100FT

CYQF;2015-10-03 00:40;CYQF 030040Z 35020G29KT 15SM OVC012 08/05 A3005 RMK SC8 PRESRR SLP204

CYQF;2015-10-03 01:00;CYQF 030100Z 34019G33KT 15SM OVC012 07/04 A3007 RMK SC8 PRESRR SLP213

CYQF;2015-10-03 02:00;CYQF 030200Z 34022G33KT 15SM OVC013 06/03 A3012 RMK SC8 SLP230

CYQF;2015-10-03 03:00;CYQF 030300Z 32020G30KT 10SM VCSH OVC014 04/02 A3017 RMK SC8 PRESRR SLP246

CYQF;2015-10-03 03:31;CYQF 030331Z 33014G26KT 10SM -RA OVC014 04/01 A3019 RMK SC8 SLP253

CYQF;2015-10-03 04:00;CYQF 030400Z 32017G29KT 12SM -RA OVC014 03/01 A3020 RMK SC8 SLP253

CYQF;2015-10-03 05:00;CYQF 030500Z 32018G26KT 10SM -RA OVC014 03/01 A3022 RMK SC8 SLP257

CYQF;2015-10-03 06:00;CYQF 030600Z 33019G28KT 15SM -RA OVC014 02/01 A3023 RMK SC8 SLP260

CYQF;2015-10-03 07:00;CYQF 030700Z 33015G24KT 10SM -RA OVC014 02/01 A3025 RMK SC8 SLP266

CYQF;2015-10-03 08:00;CYQF 030800Z 33015G23KT 5SM -RA OVC013 02/01 A3027 RMK SC8 SLP271

CYQF;2015-10-03 09:00;CYQF 030900Z 32012G23KT 15SM -RA OVC010 02/01 A3028 RMK SC8 SLP275

CYQF;2015-10-03 10:00;CYQF 031000Z 33014G24KT 6SM -DZ OVC010 02/01 A3030 RMK ST8 SLP281

CYQF;2015-10-03 11:00;CYQF 031100Z 33018G26KT 6SM -DZ OVC012 02/01 A3031 RMK ST8 SLP285

CYQF;2015-10-03 11:37;CYQF 031137Z 33018G28KT 15SM OVC017 02/01 A3032 RMK SC8 CIG RAG SLP288

CYQF;2015-10-03 11:50;CYQF 031150Z 33014G23KT 10SM -DZ BKN009 OVC014 02/00 A3032 RMK ST6SC2 SLP289

CYQF;2015-10-03 12:00;CYQF 031200Z 33016G24KT 12SM -DZ BKN010 OVC014 02/00 A3032 RMK ST6SC2 SLP296

CYQF;2015-10-03 12:43;CYQF 031243Z 33014G21KT 15SM OVC014 02/00 A3033 RMK SC8 CIG RAG SLP300

CYQF;2015-10-03 13:00;CYQF 031300Z 33014G20KT 15SM OVC012 02/00 A3034 RMK SC8 CIG RAG SLP308

CYQF;2015-10-03 14:00;CYQF 031400Z 33015G20KT 7SM OVC013 01/01 A3035 RMK SC8 CIG RAG SLP312

CYQF;2015-10-03 14:22;CYQF 031422Z 33012G19KT 5SM BR OVC011 01/01 A3035 RMK SC8 CIG RAG SLP313

CYQF;2015-10-03 15:00;CYQF 031500Z 33012G20KT 8SM BKN010 OVC018 01/01 A3035 RMK SF5SC3 SLP316

CYQF;2015-10-03 15:28;CYQF 031528Z 33011G17KT 8SM OVC008 02/01 A3036 RMK SF8 SLP317

CYQF;2015-10-03 16:00;CYQF 031600Z 34016KT 6SM -DZ BR BKN009 OVC014 02/01 A3036 RMK SF6SC2 SLP318

CYQF;2015-10-03 16:48;CYQF 031648Z 34013G19KT 12SM SCT008 OVC013 02/00 A3036 RMK SF4SC4 SLP319

CYQF;2015-10-03 17:00;CYQF 031700Z 34011G19KT 15SM FEW008 OVC011 02/00 A3036 RMK SF1SC7 CIG RAG SLP320

CYQF;2015-10-03 18:00;CYQF 031800Z 34012G18KT 12SM OVC011 02/00 A3035 RMK SC8 SLP317

CYQF;2015-10-03 19:00;CYQF 031900Z 34014G20KT 12SM OVC013 02/00 A3035 RMK SC8 SLP315

CYQF;2015-10-03 20:00;CYQF 032000Z 35014KT 12SM OVC014 03/00 A3034 RMK SC8 SLP313

CYQF;2015-10-03 21:00;CYQF 032100Z 36011G17KT 15SM OVC013 03/01 A3034 RMK SC8 CIG RAG SLP310

CYQF;2015-10-03 22:00;CYQF 032200Z 35009KT 15SM BKN013 OVC020 04/00 A3034 RMK SC6SC2 SLP310

CYQF;2015-10-03 22:19;CYQF 032219Z 34010G16KT 15SM BKN017 OVC045 04/00 A3034 RMK SC5SC3 SLP310

CYQF;2015-10-03 23:00;CYQF 032300Z 34011KT 15SM BKN017 OVC045 04/00 A3033 RMK SC6SC2 SLP309

CYQF;2015-10-04 00:00;CYQF 040000Z 33010KT 15SM OVC015 03/00 A3034 RMK SC8 SLP312

CYQF;2015-10-04 01:00;CYQF 040100Z 34010KT 15SM OVC016 03/00 A3034 RMK SC8 SLP314

CYQF;2015-10-04 02:00;CYQF 040200Z 34008KT 15SM OVC018 03/M00 A3036 RMK SC8 SLP319

CYQF;2015-10-04 03:00;CYQF 040300Z 36008KT 15SM BKN015 OVC025 02/M01 A3036 RMK SC6SC2 SLP321

CYQF;2015-10-04 04:00;CYQF 040400Z 36006KT 15SM BKN023 OVC061 02/M01 A3037 RMK SC6SC2 SLP323

CYQF;2015-10-04 05:00;CYQF 040500Z 34007KT 15SM BKN027 OVC063 02/M00 A3036 RMK SC6SC2 SLP321

CYQF;2015-10-04 06:00;CYQF 040600Z 34006KT 15SM BKN028 OVC057 02/M00 A3034 RMK SC7SC1 SLP314

CYQF;2015-10-04 07:00;CYQF 040700Z 35004KT 15SM OVC015 02/M00 A3033 RMK SC8 SLP308

CYQF;2015-10-04 08:00;CYQF 040800Z 02005KT 15SM OVC019 02/M01 A3031 RMK SC8 SLP301

CYQF;2015-10-04 09:00;CYQF 040900Z 02006KT 15SM OVC016 01/M01 A3030 RMK SC8 SLP299

CYQF;2015-10-04 10:00;CYQF 041000Z 04005KT 15SM OVC018 01/M02 A3030 RMK SC8 SLP299

CYQF;2015-10-04 11:00;CYQF 041100Z 02006KT 15SM BKN021 00/M02 A3029 RMK SC7 SLP296

CYQF;2015-10-04 12:00;CYQF 041200Z 01004KT 15SM BKN021 M01/M03 A3028 RMK SC6 SLP295

CYQF;2015-10-04 13:00;CYQF 041300Z 02005KT 15SM BKN017 M01/M04 A3027 RMK SC7 SLP292

CYQF;2015-10-04 14:00;CYQF 041400Z 03003KT 340V040 15SM OVC013 M01/M03 A3026 RMK SC8 SLP287

CYQF;2015-10-04 15:00;CYQF 041500Z 02003KT 360V070 15SM OVC012 M01/M04 A3025 RMK SC8 SLP284

CYQF;2015-10-04 16:00;CYQF 041600Z 06005KT 15SM OVC011 M01/M04 A3024 RMK SC8 SLP283

CYQF;2015-10-04 17:00;CYQF 041700Z 00000KT 15SM OVC010 M02/M04 A3022 RMK SC8 SLP274

CYQF;2015-10-04 17:19;CYQF 041719Z VRB04KT 15SM OVC009 M01/M04 A3021 RMK SC8 SLP271

CYQF;2015-10-04 18:00;CYQF 041800Z 08004KT 15SM OVC009 M01/M03 A3019 RMK SC8 SLP265

CYQF;2015-10-04 19:00;CYQF 041900Z 08004KT 040V170 15SM BKN012 00/M03 A3017 RMK SC7 SLP257

CYQF;2015-10-04 19:49;CYQF 041949Z 13006KT 110V180 15SM SCT017 BKN240 03/M03 A3015 RMK SC4CI3 SLP247

CYQF;2015-10-04 20:00;CYQF 042000Z 17004KT 050V200 15SM SCT018 BKN240 03/M02 A3014 RMK SC4CI3 SLP245

CYQF;2015-10-04 21:00;CYQF 042100Z 11002KT 15SM SCT020 BKN240 04/M02 A3011 RMK SC3CI3 SLP233

CYQF;2015-10-04 22:00;CYQF 042200Z 21008KT 160V250 15SM FEW020 BKN240 05/M02 A3009 RMK SC2CI4 SLP224

CYQF;2015-10-04 23:00;CYQF 042300Z 17005KT 150V220 15SM FEW025 BKN240 05/M01 A3007 RMK SC2CI4 SLP217

CYQF;2015-10-05 00:00;CYQF 050000Z 17007KT 15SM FEW030 SCT240 05/M01 A3005 RMK SC1CI3 SLP212

CYQF;2015-10-05 01:00;CYQF 050100Z 17003KT 15SM BKN029 BKN240 03/M01 A3004 RMK SC6CI1 SLP210

CYQF;2015-10-05 02:00;CYQF 050200Z 15003KT 15SM FEW030 SCT240 02/M02 A3003 RMK SC2CI2 SLP209

CYQF;2015-10-05 03:00;CYQF 050300Z 15005KT 15SM FEW240 M01/M03 A3002 RMK CI2 SLP210

CYQF;2015-10-05 04:00;CYQF 050400Z 16005KT 15SM FEW250 M02/M04 A3002 RMK CI2 SLP211

CYQF;2015-10-05 05:00;CYQF 050500Z 18007KT 15SM FEW250 M01/M03 A3000 RMK CI1 SLP202

CYQF;2015-10-05 06:00;CYQF 050600Z 18008KT 15SM SKC M01/M03 A2998 RMK SLP196

CYQF;2015-10-05 07:00;CYQF 050700Z 17006KT 15SM SKC M03/M04 A2997 RMK SLP192

CYQF;2015-10-05 08:00;CYQF 050800Z 17004KT 15SM SKC M04/M04 A2994 RMK SLP180

CYQF;2015-10-05 09:00;CYQF 050900Z 19003KT 15SM SKC M04/M04 A2994 RMK FROIN SLP180

CYQF;2015-10-05 10:00;CYQF 051000Z 00000KT 12SM SKC M04/M04 A2995 RMK FROIN SLP183

CYQF;2015-10-05 11:00;CYQF 051100Z 00000KT 15SM SKC M04/M04 A2996 RMK FROIN SLP186

CYQF;2015-10-05 11:22;CYQF 051122Z 00000KT 8SM BR SKC M03/M04 A2997 RMK FROIN SLP186

CYQF;2015-10-05 11:33;CYQF 051133Z 23003KT 3SM BR SKC M05/M05 A2997 RMK FG3 FROIN SLP189

CYQF;2015-10-05 12:00;CYQF 051200Z 20004KT 3SM BR SKC M05/M06 A2997 RMK FG2 FROIN SLP190

CYQF;2015-10-05 12:29;CYQF 051229Z 23006KT 1 1/2SM BR VV002 M04/M05 A2998 RMK FG8 FROIN SLP191

CYQF;2015-10-05 12:39;CYQF 051239Z 22005KT 3/8SM FZFG VV001 M04/M04 A2998 RMK FG8 FROIN SLP192

CYQF;2015-10-05 13:00;CYQF 051300Z 22004KT 3/8SM FZFG SKC M04/M04 A2999 RMK SLP196

CYQF;2015-10-05 13:26;CYQF 051326Z 20003KT 1 1/2SM BR SKC M05/M05 A3000 RMK FROIN SLP203

CYQF;2015-10-05 13:42;CYQF 051342Z 24003KT 3SM BR FEW090 M05/M06 A3001 RMK AC1 FROIN SLP205

CYQF;2015-10-05 14:00;CYQF 051400Z 26003KT 6SM BR FEW090 M04/M04 A3002 RMK AC1 FROIN SLP207

CYQF;2015-10-05 15:00;CYQF 051500Z 21003KT 12SM FEW090 FEW200 M02/M02 A3004 RMK AC1CI1 AC TR SLP216

CYQF;2015-10-05 16:00;CYQF 051600Z 28006KT 15SM FEW210 03/01 A3005 RMK CI2 SLP216

CYQF;2015-10-05 17:00;CYQF 051700Z 34008KT 15SM FEW230 07/01 A3006 RMK CI2 SLP216

CYQF;2015-10-05 18:00;CYQF 051800Z 35011G16KT 15SM FEW024 FEW240 07/01 A3007 RMK CF1CI1 SLP217

CYQF;2015-10-05 19:00;CYQF 051900Z 34009KT 15SM FEW032 SCT240 09/01 A3007 RMK CF1CI3 CF TR SLP218

CYQF;2015-10-05 20:00;CYQF 052000Z 35008KT 15SM SCT240 10/M01 A3008 RMK CI4 SLP222

CYQF;2015-10-05 21:00;CYQF 052100Z 34008KT 320V030 15SM SCT240 10/M00 A3009 RMK CI3 SLP223

CYQF;2015-10-05 22:00;CYQF 052200Z 03008KT 15SM SCT240 11/M00 A3009 RMK CI4 SLP222

CYQF;2015-10-05 23:00;CYQF 052300Z 34007KT 330V040 15SM BKN240 11/M01 A3009 RMK CI5 SLP223

CYQF;2015-10-06 00:00;CYQF 060000Z 02003KT 15SM BKN220 10/M00 A3010 RMK CI5 SLP228

CYQF;2015-10-06 01:00;CYQF 060100Z 05004KT 15SM FEW150 BKN220 05/M01 A3010 RMK AC1CI5 SLP234

CYQF;2015-10-06 02:00;CYQF 060200Z 10004KT 15SM FEW140 BKN220 04/M01 A3013 RMK AC1CI5 SLP243

CYQF;2015-10-06 03:00;CYQF 060300Z 11004KT 15SM FEW250 03/M01 A3013 RMK CI2 SLP244

CYQF;2015-10-06 04:00;CYQF 060400Z 18003KT 15SM SKC 01/M02 A3013 RMK SLP239

CYQF;2015-10-06 05:00;CYQF 060500Z 17004KT 15SM SKC 01/M02 A3013 RMK SLP237

CYQF;2015-10-06 06:00;CYQF 060600Z 18003KT 15SM SKC 01/M01 A3014 RMK SLP237

CYQF;2015-10-06 07:00;CYQF 060700Z 17003KT 15SM SKC M00/M02 A3013 RMK SLP235

CYQF;2015-10-06 08:00;CYQF 060800Z 21004KT 15SM SKC M00/M02 A3012 RMK SLP232

CYQF;2015-10-06 09:00;CYQF 060900Z 17002KT 15SM SKC M02/M03 A3012 RMK SLP232

CYQF;2015-10-06 10:00;CYQF 061000Z 17006KT 15SM FEW210 M01/M02 A3011 RMK CI2 SLP226

CYQF;2015-10-06 11:00;CYQF 061100Z 16005KT 15SM BKN210 M01/M03 A3010 RMK CI6 SLP222

CYQF;2015-10-06 12:00;CYQF 061200Z 15005KT 15SM OVC150 M00/M02 A3009 RMK AC8 FROIN SLP220

CYQF;2015-10-06 13:00;CYQF 061300Z 13004KT 15SM OVC150 M00/M02 A3007 RMK AC8 SLP220

CYQF;2015-10-06 14:00;CYQF 061400Z 15003KT 15SM SCT180 BKN240 M01/M01 A3006 RMK AC4CI3 SLP218

CYQF;2015-10-06 15:00;CYQF 061500Z 16011KT 10SM SCT120 BKN240 02/M00 A3006 RMK AC3CI4 SLP214

CYQF;2015-10-06 16:00;CYQF 061600Z 17013G19KT 10SM SCT140 BKN240 05/01 A3004 RMK AC4CI3 SLP207

CYQF;2015-10-06 17:00;CYQF 061700Z 16017KT 10SM BKN200 BKN250 08/02 A3002 RMK CC5CI2 SLP196

CYQF;2015-10-06 18:00;CYQF 061800Z 17016G25KT 12SM FEW200 BKN270 09/02 A3001 RMK CC2CI5 SLP191

CYQF;2015-10-06 19:00;CYQF 061900Z 16018KT 12SM FEW230 BKN270 11/02 A2999 RMK CC2CI5 SLP183 DENSITY ALT 3100FT

CYQF;2015-10-06 20:00;CYQF 062000Z 17013KT 15SM FEW170 BKN220 BKN270 12/03 A2996 RMK AC2CC3CI2 SLP172 DENSITY ALT 3200FT

CYQF;2015-10-06 21:00;CYQF 062100Z 17011KT 15SM FEW160 BKN220 13/03 A2994 RMK AC2CI5 SLP164 DENSITY ALT 3400FT

CYQF;2015-10-06 22:00;CYQF 062200Z 18013G18KT 13SM OVC180 13/03 A2993 RMK CI8 SLP162 DENSITY ALT 3400FT

CYQF;2015-10-06 23:00;CYQF 062300Z 16007G15KT 15SM BKN180 13/04 A2992 RMK AC7 SLP157 DENSITY ALT 3400FT

CYQF;2015-10-07 00:00;CYQF 070000Z 16008KT 15SM BKN180 12/04 A2990 RMK AC7 SLP151 DENSITY ALT 3300FT

CYQF;2015-10-07 01:00;CYQF 070100Z 00000KT 12SM OVC180 10/04 A2990 RMK AC8 SLP154 DENSITY ALT 3100FT

CYQF;2015-10-07 02:00;CYQF 070200Z 04005KT 12SM OVC160 07/04 A2988 RMK AC8 SLP152

CYQF;2015-10-07 03:00;CYQF 070300Z 08003KT 12SM OVC140 07/04 A2987 RMK AC8 SLP143

CYQF;2015-10-07 04:00;CYQF 070400Z 35003KT 15SM OVC140 07/04 A2987 RMK AC8 SLP141

CYQF;2015-10-07 05:00;CYQF 070500Z 36002KT 15SM OVC130 06/04 A2986 RMK AC8 SLP137

CYQF;2015-10-07 06:00;CYQF 070600Z 31004KT 15SM OVC210 06/04 A2986 RMK CI8 SLP136

CYQF;2015-10-07 07:00;CYQF 070700Z 29003KT 15SM SCT120 BKN210 05/03 A2987 RMK AC4CI3 SLP137

CYQF;2015-10-07 08:00;CYQF 070800Z 29006KT 15SM OVC130 07/04 A2988 RMK AC8 SLP138

CYQF;2015-10-07 09:00;CYQF 070900Z 28005KT 15SM BKN130 OVC170 06/04 A2990 RMK AC6AC2 SLP142

CYQF;2015-10-07 10:00;CYQF 071000Z 27008KT 15SM OVC110 06/04 A2991 RMK AC8 SLP148

CYQF;2015-10-07 11:00;CYQF 071100Z 27003KT 15SM OVC100 07/04 A2992 RMK AC8 SLP151

CYQF;2015-10-07 12:00;CYQF 071200Z 26005KT 15SM BKN110 05/04 A2994 RMK AC5 SLP161

CYQF;2015-10-07 13:00;CYQF 071300Z 26006KT 15SM SCT110 BKN260 05/03 A2995 RMK AC3CI2 SLP165

CYQF;2015-10-07 14:00;CYQF 071400Z 00000KT 15SM FEW100 BKN140 BKN260 05/03 A2996 RMK AC2AC3CI1 SLP174

CYQF;2015-10-07 15:00;CYQF 071500Z 23004KT 15SM BKN080 BKN120 07/04 A2997 RMK AC6AC1 SLP174

CYQF;2015-10-07 16:00;CYQF 071600Z VRB02KT 15SM BKN090 08/05 A2999 RMK AC7 SLP180

CYQF;2015-10-07 17:00;CYQF 071700Z 21004KT 15SM BKN100 10/06 A3000 RMK AC7 SLP182

CYQF;2015-10-07 18:00;CYQF 071800Z 19003KT 150V220 15SM SCT080 BKN120 12/06 A3000 RMK AC3AC4 SLP178 DENSITY ALT 3200FT

CYQF;2015-10-07 19:00;CYQF 071900Z VRB05KT 15SM BKN110 15/05 A3000 RMK AC7 SLP177 DENSITY ALT 3500FT

CYQF;2015-10-07 20:00;CYQF 072000Z 26007KT 15SM FEW040 BKN070 15/06 A3000 RMK CU1AC7 CU TR SLP176 DENSITY ALT 3600FT

CYQF;2015-10-07 21:00;CYQF 072100Z 30006KT 270V010 15SM FEW048 BKN070 BKN260 16/04 A3000 RMK CU1AC5CI1 CU TR SLP173 DENSITY ALT 3700FT

CYQF;2015-10-07 22:00;CYQF 072200Z 30003KT 270V010 15SM FEW052 BKN080 BKN260 17/04 A2999 RMK CU2AC4CI1 SLP172 DENSITY ALT 3700FT

CYQF;2015-10-07 23:00;CYQF 072300Z 30005KT 250V330 15SM FEW050 BKN080 17/05 A3000 RMK CU1AC4 SLP172 DENSITY ALT 3700FT

CYQF;2015-10-08 00:00;CYQF 080000Z 27004KT 15SM FEW040 BKN130 15/04 A3000 RMK CU1AC4 SLP179 DENSITY ALT 3500FT

CYQF;2015-10-08 01:00;CYQF 080100Z 28003KT 15SM FEW080 SCT130 14/04 A3002 RMK AC2AC2 SLP185 DENSITY ALT 3300FT

CYQF;2015-10-08 02:00;CYQF 080200Z 00000KT 15SM SCT110 08/04 A3003 RMK AC4 SLP196

CYQF;2015-10-08 03:00;CYQF 080300Z 19003KT 15SM SCT090 08/04 A3005 RMK AC4 SLP199

CYQF;2015-10-08 04:00;CYQF 080400Z 21004KT 15SM BKN090 07/04 A3006 RMK AC6 SLP205

CYQF;2015-10-08 05:00;CYQF 080500Z 20004KT 15SM SCT090 06/04 A3007 RMK AC4 SLP207

CYQF;2015-10-08 06:00;CYQF 080600Z 00000KT 15SM BKN072 07/05 A3007 RMK AC6 SLP204

CYQF;2015-10-08 07:00;CYQF 080700Z 19005KT 15SM BKN085 08/05 A3009 RMK AC6 SLP204

CYQF;2015-10-08 08:00;CYQF 080800Z 22004KT 150V240 15SM SCT066 BKN090 08/06 A3010 RMK SC3AC3 SLP207

CYQF;2015-10-08 09:00;CYQF 080900Z 19005KT 15SM FEW065 BKN085 04/03 A3011 RMK SC1AC4 SLP214

CYQF;2015-10-08 10:00;CYQF 081000Z 21005KT 15SM FEW065 05/04 A3012 RMK SC2 SLP217

CYQF;2015-10-08 11:00;CYQF 081100Z 20003KT 15SM FEW065 03/02 A3012 RMK SC2 SLP219

CYQF;2015-10-08 12:00;CYQF 081200Z 18006KT 15SM FEW001 SCT065 01/01 A3012 RMK SF2SC1 SLP224

CYQF;2015-10-08 13:00;CYQF 081300Z 23007KT 15SM SCT070 04/02 A3014 RMK AC3 SLP227

CYQF;2015-10-08 14:00;CYQF 081400Z 22005KT 14SM FEW070 01/01 A3014 RMK AC1 SLP238

CYQF;2015-10-08 15:00;CYQF 081500Z 23005KT 15SM FEW070 05/03 A3015 RMK AC1 AC TR SLP237

CYQF;2015-10-08 16:00;CYQF 081600Z 21004KT 15SM FEW250 07/04 A3015 RMK CI1 SLP237

CYQF;2015-10-08 17:00;CYQF 081700Z 24004KT 180V260 15SM FEW250 11/05 A3016 RMK CI2 SLP235

CYQF;2015-10-08 18:00;CYQF 081800Z VRB02KT 15SM FEW250 14/05 A3016 RMK CI1 SLP230 DENSITY ALT 3200FT

CYQF;2015-10-08 19:00;CYQF 081900Z 13005KT 120V250 15SM FEW250 17/06 A3014 RMK CI1 SLP219 DENSITY ALT 3600FT

CYQF;2015-10-08 20:00;CYQF 082000Z 18004KT 130V210 15SM FEW056 FEW250 19/04 A3012 RMK CU1CI2 CU TR SLP211 DENSITY ALT 3800FT

CYQF;2015-10-08 21:00;CYQF 082100Z 19009KT 140V200 15SM FEW064 FEW100 SCT250 20/03 A3010 RMK CU1AC1CI3 CU TR AC TR SLP207 DENSITY ALT 4000FT

CYQF;2015-10-08 22:00;CYQF 082200Z 17009KT 15SM FEW065 BKN250 20/03 A3009 RMK SC1CI6 SC TR SLP202 DENSITY ALT 4000FT

CYQF;2015-10-08 23:00;CYQF 082300Z 17008KT 15SM FEW065 BKN250 20/03 A3007 RMK SC1CI7 SC TR SLP199 DENSITY ALT 4000FT

CYQF;2015-10-09 00:00;CYQF 090000Z 15008KT 15SM FEW080 OVC250 17/05 A3005 RMK AC1CI8 AC TR SLP196 DENSITY ALT 3700FT

CYQF;2015-10-09 01:00;CYQF 090100Z 15008KT 15SM FEW100 OVC250 14/05 A3003 RMK AC1CI8 AC TR SLP190 DENSITY ALT 3400FT

CYQF;2015-10-09 02:00;CYQF 090200Z 16011KT 15SM OVC240 15/05 A3002 RMK CI8 SLP189 DENSITY ALT 3500FT

CYQF;2015-10-09 03:00;CYQF 090300Z 18010KT 15SM BKN170 OVC250 14/05 A3001 RMK AC5CI3 SLP183 DENSITY ALT 3400FT

CYQF;2015-10-09 04:00;CYQF 090400Z 17006KT 15SM OVC210 12/05 A3000 RMK CI8 SLP179 DENSITY ALT 3100FT

CYQF;2015-10-09 04:57;CYQF 090457Z 22005KT 15SM -RA OVC100 12/07 A3000 RMK AC8 SLP177 DENSITY ALT 3100FT

CYQF;2015-10-09 05:00;CYQF 090500Z 21005KT 15SM -RA OVC100 12/07 A3000 RMK AC8 SLP174 DENSITY ALT 3100FT

CYQF;2015-10-09 05:52;CYQF 090552Z 18005KT 15SM OVC080 11/07 A2998 RMK AC8 SLP168 DENSITY ALT 3000FT

CYQF;2015-10-09 06:00;CYQF 090600Z 19004KT 180V240 15SM OVC080 11/07 A2998 RMK AC8 SLP165 DENSITY ALT 3000FT

CYQF;2015-10-09 07:00;CYQF 090700Z 20005KT 15SM SCT080 OVC120 10/07 A2996 RMK AC4AC4 SLP156 DENSITY ALT 3000FT

CYQF;2015-10-09 08:00;CYQF 090800Z 19006KT 15SM SCT120 BKN250 10/06 A2993 RMK AC3CI3 SLP144 DENSITY ALT 3000FT

CYQF;2015-10-09 09:00;CYQF 090900Z 19004KT 15SM BKN250 09/06 A2992 RMK CI6 SLP139 DENSITY ALT 3000FT

CYQF;2015-10-09 10:00;CYQF 091000Z 18006KT 15SM SCT250 06/04 A2990 RMK CI3 SLP135

CYQF;2015-10-09 11:00;CYQF 091100Z VRB02KT 15SM FEW250 07/04 A2989 RMK CI2 SLP130

CYQF;2015-10-09 12:00;CYQF 091200Z 17005KT 15SM SKC 05/03 A2986 RMK SLP127

CYQF;2015-10-09 13:00;CYQF 091300Z 21005KT 15SM SCT250 06/04 A2985 RMK CI3 SLP123

CYQF;2015-10-09 14:00;CYQF 091400Z 20004KT 15SM FEW100 BKN250 04/02 A2982 RMK AC1CI4 SLP116

CYQF;2015-10-09 15:00;CYQF 091500Z 22005KT 15SM FEW100 SCT250 09/05 A2982 RMK AC1CI2 SLP110 DENSITY ALT 3000FT

CYQF;2015-10-09 16:00;CYQF 091600Z 18004KT 15SM SCT100 BKN250 13/06 A2980 RMK AC3CI3 SLP102 DENSITY ALT 3500FT

CYQF;2015-10-09 17:00;CYQF 091700Z 20005KT 15SM FEW100 BKN250 17/07 A2977 RMK AC2CI5 SLP089 DENSITY ALT 4000FT

CYQF;2015-10-09 18:00;CYQF 091800Z 22008KT 15SM FEW100 BKN270 20/05 A2975 RMK AC1CI7 AC TR SLP080 DENSITY ALT 4400FT

CYQF;2015-10-09 19:00;CYQF 091900Z 17007KT 15SM FEW100 OVC270 22/06 A2971 RMK AC1CI7 PRESFR SLP065 DENSITY ALT 4600FT

CYQF;2015-10-09 20:00;CYQF 092000Z 20016G21KT 15SM BKN130 OVC270 23/04 A2969 RMK AC5CI3 SLP056 DENSITY ALT 4700FT

CYQF;2015-10-09 20:11;CYQF 092011Z 21013KT 15SM -SHRA BKN120 OVC270 22/04 A2968 RMK AC6CI2 SLP055 DENSITY ALT 4700FT

CYQF;2015-10-09 21:00;CYQF 092100Z 19008KT 15SM VCSH BKN130 OVC270 19/05 A2967 RMK AC6CI2 SLP053 DENSITY ALT 4400FT

CYQF;2015-10-09 22:00;CYQF 092200Z 20012KT 15SM FEW080 FEW130 BKN170 OVC270 20/02 A2964 RMK AC1AC1AC6CI2 AC TR AC TR SLP046 DENSITY ALT 4500FT

CYQF;2015-10-09 23:00;CYQF 092300Z 20012G20KT 15SM OVC180 20/02 A2963 RMK AC8 SLP040 DENSITY ALT 4500FT

CYQF;2015-10-10 00:00;CYQF 100000Z 21010G16KT 15SM OVC180 19/03 A2961 RMK AC8 SLP038 DENSITY ALT 4400FT

CYQF;2015-10-10 01:00;CYQF 100100Z 21009KT 15SM BKN180 OVC250 19/03 A2961 RMK AC6CI2 SLP036 DENSITY ALT 4400FT

CYQF;2015-10-10 02:00;CYQF 100200Z 23012G18KT 15SM BKN180 OVC270 19/04 A2961 RMK AC6CI2 SLP037 DENSITY ALT 4400FT

CYQF;2015-10-10 03:00;CYQF 100300Z 24013G20KT 15SM SCT180 OVC270 20/04 A2962 RMK AC3CI5 SLP035 DENSITY ALT 4500FT

CYQF;2015-10-10 04:00;CYQF 100400Z 24009G15KT 15SM SCT140 OVC240 19/05 A2960 RMK AC4CI4 SLP027 DENSITY ALT 4400FT

CYQF;2015-10-10 05:00;CYQF 100500Z 23012KT 15SM OVC240 19/05 A2961 RMK CI8 SLP024 DENSITY ALT 4400FT

CYQF;2015-10-10 06:00;CYQF 100600Z 23015G25KT 15SM OVC240 19/04 A2961 RMK CI8 SLP020 DENSITY ALT 4400FT

CYQF;2015-10-10 07:00;CYQF 100700Z 23020G29KT 15SM OVC250 19/04 A2959 RMK CI8 SLP014 DENSITY ALT 4500FT

CYQF;2015-10-10 08:00;CYQF 100800Z 23015G21KT 15SM BKN250 17/05 A2961 RMK CI7 SLP019 DENSITY ALT 4200FT

CYQF;2015-10-10 09:00;CYQF 100900Z 24008KT 15SM BKN250 15/05 A2960 RMK CI7 SLP025 DENSITY ALT 3900FT

CYQF;2015-10-10 10:00;CYQF 101000Z 25007KT 15SM OVC250 12/05 A2960 RMK CI8 SLP025 DENSITY ALT 3700FT

CYQF;2015-10-10 11:00;CYQF 101100Z 24007KT 15SM OVC250 11/05 A2959 RMK CI8 SLP022 DENSITY ALT 3500FT

CYQF;2015-10-10 12:00;CYQF 101200Z 22008KT 15SM BKN250 11/05 A2959 RMK CI7 SLP023 DENSITY ALT 3600FT

CYQF;2015-10-10 13:00;CYQF 101300Z 19009KT 15SM BKN250 09/04 A2958 RMK CI5 SLP025 DENSITY ALT 3200FT

CYQF;2015-10-10 14:00;CYQF 101400Z 18006KT 15SM FEW014 FEW120 BKN250 08/04 A2957 RMK SC1AC2CI4 SC TR SLP021 DENSITY ALT 3200FT

CYQF;2015-10-10 15:00;CYQF 101500Z 20006KT 15SM FEW014 SCT120 OVC250 10/05 A2957 RMK SC1AC2CI5 SLP017 DENSITY ALT 3400FT

CYQF;2015-10-10 16:00;CYQF 101600Z 16005KT 15SM FEW080 SCT120 BKN250 11/07 A2956 RMK AC1AC3CI2 AC TR SLP012 DENSITY ALT 3600FT

CYQF;2015-10-10 17:00;CYQF 101700Z 22005KT 15SM FEW100 BKN250 19/07 A2955 RMK AC2CI3 SLP000 DENSITY ALT 4500FT

CYQF;2015-10-10 18:00;CYQF 101800Z 21013G22KT 15SM FEW076 SCT140 BKN240 23/05 A2952 RMK CU1AC2CI3 SLP986 DENSITY ALT 5000FT

CYQF;2015-10-10 19:00;CYQF 101900Z 21017G23KT 15SM SCT240 23/05 A2950 RMK CI4 SLP981 DENSITY ALT 5000FT

CYQF;2015-10-10 20:00;CYQF 102000Z 23015G22KT 15SM BKN240 23/05 A2948 RMK CI5 SLP974 DENSITY ALT 5000FT

CYQF;2015-10-10 21:00;CYQF 102100Z 23014G22KT 15SM FEW072 BKN180 BKN260 23/05 A2944 RMK CU1AC5CC2 CU TR SLP965 DENSITY ALT 5100FT

CYQF;2015-10-10 22:00;CYQF 102200Z 24011KT 15SM FEW072 SCT180 23/04 A2942 RMK CU1AC3 CU TR SLP958 DENSITY ALT 5100FT

CYQF;2015-10-10 23:00;CYQF 102300Z 24009G16KT 15SM FEW180 23/04 A2939 RMK AC2 SLP951 DENSITY ALT 5100FT

CYQF;2015-10-11 00:00;CYQF 110000Z 24013G20KT 15SM SCT180 20/04 A2937 RMK AC3 SLP948 DENSITY ALT 4800FT

CYQF;2015-10-11 01:00;CYQF 110100Z 22009KT 15SM BKN180 16/04 A2935 RMK AC5 SLP946 DENSITY ALT 4400FT

CYQF;2015-10-11 02:00;CYQF 110200Z 25002KT 15SM FEW180 BKN220 13/03 A2934 RMK AC2CI3 SLP948 DENSITY ALT 4000FT

CYQF;2015-10-11 03:00;CYQF 110300Z 20003KT 15SM FEW140 BKN220 12/05 A2932 RMK AC2CI4 SLP940 DENSITY ALT 3900FT

CYQF;2015-10-11 04:00;CYQF 110400Z 21005KT 15SM OVC160 11/06 A2930 RMK AC8 SLP931 DENSITY ALT 3900FT

CYQF;2015-10-11 05:00;CYQF 110500Z 18006KT 15SM OVC190 10/06 A2927 RMK AC8 SLP913 DENSITY ALT 3700FT

CYQF;2015-10-11 06:00;CYQF 110600Z 22006KT 15SM SCT220 08/05 A2924 RMK CI3 SLP901 DENSITY ALT 3600FT

CYQF;2015-10-11 07:00;CYQF 110700Z 21006KT 15SM FEW100 BKN240 09/04 A2921 RMK AC1CI4 SLP892 DENSITY ALT 3700FT

CYQF;2015-10-11 08:00;CYQF 110800Z 23010G16KT 15SM BKN100 10/05 A2922 RMK AC7 SLP892 DENSITY ALT 3900FT

CYQF;2015-10-11 09:00;CYQF 110900Z 24012G18KT 15SM OVC150 12/05 A2921 RMK AC8 SLP889 DENSITY ALT 4000FT

CYQF;2015-10-11 10:00;CYQF 111000Z 25009G15KT 15SM OVC100 12/04 A2924 RMK AC8 SLP897 DENSITY ALT 4000FT

CYQF;2015-10-11 11:00;CYQF 111100Z 29013KT 15SM FEW050 OVC090 13/03 A2927 RMK SC1AC7 SLP908 DENSITY ALT 4200FT

CYQF;2015-10-11 12:00;CYQF 111200Z 30010KT 15SM BKN120 OVC200 12/02 A2933 RMK AC5CI3 SLP930 DENSITY ALT 4000FT

CYQF;2015-10-11 13:00;CYQF 111300Z 30009KT 15SM OVC200 11/03 A2938 RMK CI8 SLP955 DENSITY ALT 3700FT

CYQF;2015-10-11 14:00;CYQF 111400Z 30009KT 15SM FEW160 BKN200 10/04 A2942 RMK AC2CI5 SLP973 DENSITY ALT 3600FT

CYQF;2015-10-11 15:00;CYQF 111500Z 29010KT 15SM FEW100 BKN200 10/03 A2947 RMK AC2CI4 SLP992 DENSITY ALT 3500FT

CYQF;2015-10-11 16:00;CYQF 111600Z 31017G23KT 15SM FEW100 BKN200 13/03 A2952 RMK AC2CI4 SLP007 DENSITY ALT 3800FT

CYQF;2015-10-11 17:00;CYQF 111700Z 31026G42KT 15SM FEW056 BKN110 BKN200 14/M00 A2956 RMK CU1AC5CI1 SLP019 DENSITY ALT 3900FT

CYQF;2015-10-11 18:00;CYQF 111800Z 31022G40KT 15SM FEW056 OVC120 14/M01 A2962 RMK CF1AC7 PRESRR SLP042 DENSITY ALT 3900FT

CYQF;2015-10-11 19:00;CYQF 111900Z 32021G42KT 15SM SCT070 BKN180 15/M01 A2967 RMK AC3AC4 PRESRR SLP059 DENSITY ALT 3900FT

CYQF;2015-10-11 20:00;CYQF 112000Z 33020G32KT 15SM BKN080 BKN250 14/M01 A2972 RMK AC5CI1 SLP074 DENSITY ALT 3700FT

CYQF;2015-10-11 21:00;CYQF 112100Z 35019G26KT 15SM SCT100 15/M00 A2975 RMK AC4 SLP083 DENSITY ALT 3800FT

CYQF;2015-10-11 22:00;CYQF 112200Z 01015G22KT 15SM SCT100 14/02 A2979 RMK AC3 SLP099 DENSITY ALT 3600FT

CYQF;2015-10-11 23:00;CYQF 112300Z 03011G17KT 15SM FEW100 13/03 A2981 RMK AC2 SLP105 DENSITY ALT 3500FT

CYQF;2015-10-12 00:00;CYQF 120000Z 03010KT 15SM FEW100 12/03 A2984 RMK AC1 AC TR SLP117 DENSITY ALT 3300FT

CYQF;2015-10-12 01:00;CYQF 120100Z 04002KT 15SM FEW100 08/02 A2989 RMK AC1 AC TR PRESRR SLP139

CYQF;2015-10-12 02:00;CYQF 120200Z 19004KT 190V250 15SM FEW100 06/02 A2992 RMK AC1 AC TR SLP154

CYQF;2015-10-12 03:00;CYQF 120300Z 22005KT 15SM SKC 03/00 A2995 RMK SLP167

CYQF;2015-10-12 04:00;CYQF 120400Z 20006KT 15SM SKC 02/M00 A2996 RMK SLP170

CYQF;2015-10-12 05:00;CYQF 120500Z 19006KT 15SM SKC 02/00 A2996 RMK SLP168

CYQF;2015-10-12 06:00;CYQF 120600Z 19005KT 15SM BKN220 02/01 A2997 RMK CI5 SLP170

CYQF;2015-10-12 07:00;CYQF 120700Z 15002KT 15SM OVC150 02/01 A2994 RMK AC8 SLP159

CYQF;2015-10-12 08:00;CYQF 120800Z 15005KT 15SM FEW150 03/01 A2992 RMK AC2 SLP151

CYQF;2015-10-12 09:00;CYQF 120900Z 16006KT 15SM FEW130 01/M01 A2992 RMK AC2 SLP153

CYQF;2015-10-12 10:00;CYQF 121000Z 16006KT 15SM FEW220 00/M01 A2987 RMK CI2 SLP140

CYQF;2015-10-12 11:00;CYQF 121100Z VRB02KT 15SM SCT230 00/M03 A2987 RMK CI4 SLP139

CYQF;2015-10-12 12:00;CYQF 121200Z 16002KT 15SM FEW240 M01/M04 A2986 RMK CI2 SLP138

CYQF;2015-10-12 13:00;CYQF 121300Z 18004KT 15SM FEW220 M02/M04 A2983 RMK CI1 SLP134

CYQF;2015-10-12 14:00;CYQF 121400Z 16003KT 15SM BKN220 M01/M03 A2981 RMK CI5 SLP128

CYQF;2015-10-12 15:00;CYQF 121500Z 18004KT 15SM BKN160 03/M00 A2980 RMK AC6 SLP123

CYQF;2015-10-12 16:00;CYQF 121600Z 18004KT 15SM BKN130 06/01 A2978 RMK AC7 SLP115

CYQF;2015-10-12 17:00;CYQF 121700Z 19004KT 090V220 15SM BKN120 BKN260 09/01 A2978 RMK AC5CI2 SLP111 DENSITY ALT 3100FT

CYQF;2015-10-12 18:00;CYQF 121800Z 26005KT 15SM BKN130 BKN260 12/02 A2977 RMK AC5CI1 SLP104 DENSITY ALT 3400FT

CYQF;2015-10-12 19:00;CYQF 121900Z 31007KT 260V340 15SM FEW130 SCT260 16/01 A2976 RMK AC2CI1 SLP098 DENSITY ALT 3900FT

CYQF;2015-10-12 20:00;CYQF 122000Z 35009KT 310V010 15SM FEW130 BKN260 17/M01 A2976 RMK AC2CI3 SLP093 DENSITY ALT 4000FT

CYQF;2015-10-12 21:00;CYQF 122100Z 02009KT 330V040 15SM SCT160 BKN260 15/00 A2978 RMK AC3CI3 SLP104 DENSITY ALT 3800FT

CYQF;2015-10-12 22:00;CYQF 122200Z 03006KT 15SM FEW100 SCT180 BKN260 16/01 A2979 RMK AC2AC2CI2 SLP108 DENSITY ALT 3800FT

CYQF;2015-10-12 23:00;CYQF 122300Z 00000KT 15SM FEW090 BKN220 15/02 A2979 RMK AC2CI3 SLP110 DENSITY ALT 3800FT

CYQF;2015-10-13 00:00;CYQF 130000Z 00000KT 15SM SCT095 15/02 A2982 RMK AC3 SLP121 DENSITY ALT 3700FT

CYQF;2015-10-13 01:00;CYQF 130100Z VRB02KT 15SM SCT100 12/02 A2983 RMK AC3 SLP129 DENSITY ALT 3400FT

CYQF;2015-10-13 02:00;CYQF 130200Z 30006KT 15SM FEW080 10/M01 A2986 RMK AC2 SLP140 DENSITY ALT 3100FT

CYQF;2015-10-13 03:00;CYQF 130300Z 31006KT 15SM FEW080 08/M02 A2988 RMK AC1 SLP145

CYQF;2015-10-13 04:00;CYQF 130400Z 30007KT 15SM SKC 08/M02 A2990 RMK SLP151

CYQF;2015-10-13 05:00;CYQF 130500Z 21003KT 160V240 15SM SKC 03/M02 A2993 RMK SLP160

CYQF;2015-10-13 06:00;CYQF 130600Z 19004KT 130V210 15SM SKC 02/M03 A2995 RMK SLP165

CYQF;2015-10-13 07:00;CYQF 130700Z 20007KT 15SM SKC 01/M03 A2995 RMK SLP165

CYQF;2015-10-13 08:00;CYQF 130800Z 20003KT 15SM SKC M01/M04 A2996 RMK SLP169

CYQF;2015-10-13 09:00;CYQF 130900Z 22003KT 15SM SKC M01/M03 A2998 RMK SLP175

CYQF;2015-10-13 10:00;CYQF 131000Z 22003KT 15SM SKC M00/M04 A2998 RMK SLP177

CYQF;2015-10-13 11:00;CYQF 131100Z 19006KT 15SM SKC M03/M05 A2997 RMK SLP175

CYQF;2015-10-13 12:00;CYQF 131200Z 19004KT 15SM FEW120 M03/M05 A2996 RMK AC1 SLP174

CYQF;2015-10-13 13:00;CYQF 131300Z 23005KT 15SM SCT120 M02/M03 A2997 RMK AC3 SLP177

CYQF;2015-10-13 14:00;CYQF 131400Z 16005KT 15SM BKN230 M01/M04 A2996 RMK CI7 SLP177

CYQF;2015-10-13 15:00;CYQF 131500Z 22003KT 15SM BKN220 M00/M02 A2997 RMK CI7 SLP182

CYQF;2015-10-13 16:00;CYQF 131600Z 00000KT 15SM BKN220 03/M01 A2998 RMK CI6 SLP180

CYQF;2015-10-13 17:00;CYQF 131700Z 22008KT 15SM BKN220 07/M01 A2997 RMK CI6 SLP179

CYQF;2015-10-13 18:00;CYQF 131800Z 25008KT 15SM FEW220 11/M00 A2998 RMK CI2 SLP177 DENSITY ALT 3100FT

CYQF;2015-10-13 19:00;CYQF 131900Z 32006KT 15SM FEW220 14/M03 A2997 RMK CI1 SLP171 DENSITY ALT 3500FT

CYQF;2015-10-13 20:00;CYQF 132000Z 32007KT 220V360 15SM FEW040 FEW220 16/M04 A2995 RMK CU1CI1 CU TR CI TR SLP167 DENSITY ALT 3700FT

CYQF;2015-10-13 21:00;CYQF 132100Z 32007KT 270V350 15SM FEW048 16/M03 A2995 RMK CU1 CU TR SLP164 DENSITY ALT 3700FT

CYQF;2015-10-13 22:00;CYQF 132200Z 30009KT 15SM FEW080 16/M04 A2994 RMK CU1 CU TR SLP161 DENSITY ALT 3700FT

CYQF;2015-10-13 23:00;CYQF 132300Z 33004KT 280V340 15SM FEW080 16/M04 A2995 RMK AC1 SLP166 DENSITY ALT 3700FT

CYQF;2015-10-14 00:00;CYQF 140000Z 35004KT 15SM FEW090 14/M04 A2995 RMK AC1 SLP168 DENSITY ALT 3500FT

CYQF;2015-10-14 01:00;CYQF 140100Z 29004KT 15SM SCT100 BKN250 13/M04 A2996 RMK AC3CI3 SLP173 DENSITY ALT 3300FT

CYQF;2015-10-14 02:00;CYQF 140200Z 33005KT 15SM BKN100 10/M04 A2999 RMK AC5 SLP186 DENSITY ALT 3000FT

CYQF;2015-10-14 03:00;CYQF 140300Z 30005KT 15SM FEW100 08/M05 A3001 RMK AC2 SLP195

CYQF;2015-10-14 04:00;CYQF 140400Z 29005KT 15SM SKC 08/M05 A3003 RMK SLP197

CYQF;2015-10-14 05:00;CYQF 140500Z 28005KT 15SM SKC 06/M06 A3004 RMK SLP198

CYQF;2015-10-14 06:00;CYQF 140600Z 21005KT 15SM SKC M00/M05 A3005 RMK SLP205

CYQF;2015-10-14 07:00;CYQF 140700Z 20006KT 15SM SKC M01/M05 A3007 RMK SLP209

CYQF;2015-10-14 08:00;CYQF 140800Z 18003KT 15SM SKC M02/M06 A3009 RMK SLP215

CYQF;2015-10-14 09:00;CYQF 140900Z 21006KT 15SM SKC M03/M06 A3010 RMK SLP218

CYQF;2015-10-14 10:00;CYQF 141000Z 21003KT 15SM SKC M02/M06 A3010 RMK SLP218

CYQF;2015-10-14 11:00;CYQF 141100Z 21004KT 15SM SKC M03/M07 A3010 RMK SLP218

CYQF;2015-10-14 12:00;CYQF 141200Z 22006KT 15SM SKC M03/M07 A3011 RMK SLP225

CYQF;2015-10-14 13:00;CYQF 141300Z 21005KT 15SM SKC M03/M06 A3012 RMK SLP230

CYQF;2015-10-14 14:00;CYQF 141400Z 20003KT 15SM FEW100 FEW250 M03/M07 A3013 RMK AC1CI1 AC TR CI TR SLP235

CYQF;2015-10-14 15:00;CYQF 141500Z 00000KT 15SM FEW100 M02/M05 A3013 RMK AC1 AC TR SLP238

CYQF;2015-10-14 16:00;CYQF 141600Z 33004KT 190V360 15SM FEW100 02/M04 A3014 RMK AC1 AC TR SLP239

CYQF;2015-10-14 17:00;CYQF 141700Z 17002KT 15SM FEW100 06/M02 A3015 RMK AC1 SLP238

CYQF;2015-10-14 18:00;CYQF 141800Z VRB03KT 15SM FEW100 10/M02 A3014 RMK AC1 AC TR SLP239

CYQF;2015-10-14 19:00;CYQF 141900Z 35008KT 15SM FEW060 12/M03 A3014 RMK CU1 CU TR SLP238 DENSITY ALT 3000FT

CYQF;2015-10-14 20:00;CYQF 142000Z 35009G16KT 15SM FEW056 FEW250 12/M04 A3014 RMK CU1CI1 CU TR CI TR SLP239 DENSITY ALT 3100FT

CYQF;2015-10-14 21:00;CYQF 142100Z 36011G17KT 15SM FEW060 12/M05 A3014 RMK CU1 CU TR SLP238 DENSITY ALT 3100FT

CYQF;2015-10-14 22:00;CYQF 142200Z 33012KT 15SM FEW070 12/M05 A3014 RMK CU1 CU TR SLP237 DENSITY ALT 3000FT

CYQF;2015-10-14 23:00;CYQF 142300Z 01010G15KT 15SM FEW100 11/M05 A3015 RMK AC1 SLP243

CYQF;2015-10-15 00:00;CYQF 150000Z 35006KT 15SM FEW100 SCT250 09/M05 A3017 RMK AC1CI2 SLP251

CYQF;2015-10-15 01:00;CYQF 150100Z 33005KT 15SM FEW070 BKN250 07/M05 A3020 RMK AC1CI4 SLP263

CYQF;2015-10-15 02:00;CYQF 150200Z 02004KT 15SM SCT100 07/M04 A3024 RMK AC3 SLP278

CYQF;2015-10-15 03:00;CYQF 150300Z 36003KT 15SM BKN100 05/M04 A3028 RMK AC6 SLP295

CYQF;2015-10-15 04:00;CYQF 150400Z 00000KT 15SM BKN085 06/M04 A3031 RMK AC7 SLP299

CYQF;2015-10-15 05:00;CYQF 150500Z 31004KT 15SM BKN085 05/M03 A3034 RMK AC7 SLP305

CYQF;2015-10-15 06:00;CYQF 150600Z 29003KT 15SM BKN093 03/M03 A3036 RMK AC7 SLP310

CYQF;2015-10-15 07:00;CYQF 150700Z 28006KT 15SM SCT093 03/M04 A3038 RMK AC3 SLP315

CYQF;2015-10-15 08:00;CYQF 150800Z 28007KT 15SM SCT093 02/M04 A3040 RMK AC4 SLP320

CYQF;2015-10-15 09:00;CYQF 150900Z 20003KT 180V270 15SM FEW093 M02/M06 A3041 RMK AC2 SLP329

CYQF;2015-10-15 10:00;CYQF 151000Z VRB02KT 15SM FEW093 M03/M07 A3042 RMK AC2 SLP333

CYQF;2015-10-15 11:00;CYQF 151100Z 20003KT 15SM FEW093 M04/M06 A3041 RMK AC1 SLP333

CYQF;2015-10-15 12:00;CYQF 151200Z 21004KT 15SM SKC M04/M06 A3041 RMK SLP337

CYQF;2015-10-15 13:00;CYQF 151300Z 18005KT 15SM FEW250 M05/M07 A3043 RMK CI1 SLP346

CYQF;2015-10-15 14:00;CYQF 151400Z 19006KT 15SM BKN250 M04/M05 A3044 RMK CI5 SLP349

CYQF;2015-10-15 15:00;CYQF 151500Z 20004KT 15SM FEW250 M03/M05 A3044 RMK CI2 SLP349

CYQF;2015-10-15 16:00;CYQF 151600Z 18003KT 15SM FEW250 01/M02 A3045 RMK CI2 SLP349

CYQF;2015-10-15 17:00;CYQF 151700Z 18003KT 160V240 15SM SCT250 05/M02 A3045 RMK CI4 SLP344

CYQF;2015-10-15 18:00;CYQF 151800Z 11003KT 100V190 15SM SCT250 09/M02 A3044 RMK CI4 SLP337

CYQF;2015-10-15 19:00;CYQF 151900Z 15010G16KT 15SM BKN250 10/M05 A3043 RMK CI6 SLP333

CYQF;2015-10-15 20:00;CYQF 152000Z 14014KT 15SM BKN250 11/M05 A3041 RMK CI5 SLP325

CYQF;2015-10-15 21:00;CYQF 152100Z 15011G17KT 15SM BKN250 12/M04 A3037 RMK CI7 SLP318

CYQF;2015-10-15 22:00;CYQF 152200Z 16015KT 15SM SCT250 12/M05 A3035 RMK CI4 SLP313

CYQF;2015-10-15 23:00;CYQF 152300Z 16011KT 15SM SCT250 11/M04 A3034 RMK CI3 SLP308

CYQF;2015-10-16 00:00;CYQF 160000Z 15008KT 15SM SCT250 09/M03 A3032 RMK CI3 SLP305

CYQF;2015-10-16 01:00;CYQF 160100Z 13007KT 15SM BKN250 06/M04 A3031 RMK CI6 SLP305

CYQF;2015-10-16 02:00;CYQF 160200Z 14006KT 15SM BKN250 03/M04 A3030 RMK CI6 SLP306

CYQF;2015-10-16 03:00;CYQF 160300Z 15007KT 15SM OVC170 03/M04 A3029 RMK AC8 SLP300

CYQF;2015-10-16 04:00;CYQF 160400Z 00000KT 15SM SCT170 OVC240 04/M04 A3029 RMK AC4CI4 SLP293

CYQF;2015-10-16 05:00;CYQF 160500Z 16005KT 15SM BKN210 05/M03 A3027 RMK CI7 SLP281

CYQF;2015-10-16 06:00;CYQF 160600Z 17009KT 15SM BKN210 05/M03 A3025 RMK CI7 SLP271

CYQF;2015-10-16 07:00;CYQF 160700Z 18006KT 15SM BKN210 04/M04 A3025 RMK CI5 SLP271

CYQF;2015-10-16 08:00;CYQF 160800Z 17007KT 15SM SCT210 01/M04 A3023 RMK CI3 SLP266

CYQF;2015-10-16 09:00;CYQF 160900Z 17004KT 15SM SKC 00/M05 A3024 RMK SLP268

CYQF;2015-10-16 10:00;CYQF 161000Z 19004KT 15SM SKC M00/M05 A3023 RMK SLP267

CYQF;2015-10-16 11:00;CYQF 161100Z 18004KT 15SM FEW210 M01/M05 A3022 RMK CI2 SLP264

CYQF;2015-10-16 12:00;CYQF 161200Z 20005KT 15SM BKN210 M02/M05 A3021 RMK CI5 SLP265

CYQF;2015-10-16 13:00;CYQF 161300Z 23003KT 230V300 15SM BKN210 M02/M04 A3022 RMK CI5 SLP272

CYQF;2015-10-16 14:00;CYQF 161400Z 06002KT 15SM BKN220 M03/M05 A3022 RMK CI6 SLP275

CYQF;2015-10-16 15:00;CYQF 161500Z 00000KT 15SM BKN220 M02/M04 A3022 RMK CI6 SLP274

CYQF;2015-10-16 16:00;CYQF 161600Z 19006KT 15SM BKN220 01/M03 A3022 RMK CI5 SLP269

CYQF;2015-10-16 17:00;CYQF 161700Z 19004KT 15SM SCT220 04/M02 A3023 RMK CI4 SLP268

CYQF;2015-10-16 18:00;CYQF 161800Z 19007KT 15SM SCT220 08/M02 A3021 RMK CI3 SLP259

CYQF;2015-10-16 19:00;CYQF 161900Z 17010KT 15SM SCT250 10/M01 A3020 RMK CI3 SLP254

CYQF;2015-10-16 20:00;CYQF 162000Z 17011KT 15SM FEW250 13/M01 A3018 RMK CI2 SLP247 DENSITY ALT 3000FT

CYQF;2015-10-16 21:00;CYQF 162100Z 18012G17KT 15SM FEW250 14/M01 A3017 RMK CI2 SLP242 DENSITY ALT 3200FT

CYQF;2015-10-16 22:00;CYQF 162200Z 17012KT 15SM FEW250 15/M02 A3015 RMK CI2 SLP235 DENSITY ALT 3300FT

CYQF;2015-10-16 23:00;CYQF 162300Z 17011KT 15SM FEW250 14/M02 A3014 RMK CI2 SLP233 DENSITY ALT 3300FT

CYQF;2015-10-17 00:00;CYQF 170000Z 15009KT 15SM BKN250 12/M02 A3013 RMK CI5 SLP233 DENSITY ALT 3100FT

CYQF;2015-10-17 01:00;CYQF 170100Z 14006KT 15SM SCT250 08/M02 A3012 RMK CI4 SLP235

CYQF;2015-10-17 02:00;CYQF 170200Z 16004KT 15SM SCT250 06/M02 A3012 RMK CI3 SLP236

CYQF;2015-10-17 03:00;CYQF 170300Z 15005KT 15SM FEW250 05/M02 A3012 RMK CI2 SLP237

CYQF;2015-10-17 04:00;CYQF 170400Z 17009KT 15SM FEW250 06/M02 A3010 RMK CI1 SLP226

CYQF;2015-10-17 05:00;CYQF 170500Z 18008KT 15SM SKC 05/M02 A3009 RMK SLP220

CYQF;2015-10-17 06:00;CYQF 170600Z 18008KT 15SM SKC 04/M02 A3008 RMK SLP214

CYQF;2015-10-17 07:00;CYQF 170700Z 17007KT 15SM SKC 02/M03 A3006 RMK SLP206

CYQF;2015-10-17 08:00;CYQF 170800Z 14004KT 15SM SKC 01/M03 A3004 RMK SLP197

CYQF;2015-10-17 09:00;CYQF 170900Z 15005KT 15SM SKC 01/M03 A3002 RMK SLP189

CYQF;2015-10-17 10:00;CYQF 171000Z 17006KT 15SM SKC 01/M03 A2999 RMK SLP177

CYQF;2015-10-17 11:00;CYQF 171100Z 17006KT 15SM SKC 02/M03 A2997 RMK SLP171

CYQF;2015-10-17 12:00;CYQF 171200Z 15006KT 15SM SKC 00/M02 A2995 RMK SLP170

CYQF;2015-10-17 13:00;CYQF 171300Z 15004KT 15SM SKC 00/M03 A2994 RMK SLP170

CYQF;2015-10-17 14:00;CYQF 171400Z 15005KT 15SM SKC M00/M03 A2993 RMK SLP168

CYQF;2015-10-17 15:00;CYQF 171500Z 16005KT 15SM SKC 01/M02 A2993 RMK SLP167

CYQF;2015-10-17 16:00;CYQF 171600Z 17006KT 15SM FEW250 05/M01 A2992 RMK CI2 SLP158

CYQF;2015-10-17 17:00;CYQF 171700Z 17013KT 15SM FEW250 08/00 A2990 RMK CI1 SLP149

CYQF;2015-10-17 18:00;CYQF 171800Z 17012KT 15SM FEW250 11/00 A2988 RMK CI1 SLP142 DENSITY ALT 3200FT

CYQF;2015-10-17 19:00;CYQF 171900Z 17011KT 15SM FEW250 13/01 A2986 RMK CI2 SLP133 DENSITY ALT 3400FT

CYQF;2015-10-17 20:00;CYQF 172000Z 17010KT 15SM FEW250 16/02 A2983 RMK CI1 SLP122 DENSITY ALT 3800FT

CYQF;2015-10-17 21:00;CYQF 172100Z 15010KT 15SM FEW250 18/02 A2981 RMK CI1 SLP112 DENSITY ALT 4100FT

CYQF;2015-10-17 22:00;CYQF 172200Z 16011KT 15SM FEW250 18/01 A2979 RMK CI1 SLP104 DENSITY ALT 4100FT

CYQF;2015-10-17 23:00;CYQF 172300Z 16011KT 15SM FEW250 17/01 A2977 RMK CI1 SLP098 DENSITY ALT 4000FT

CYQF;2015-10-18 00:00;CYQF 180000Z 16010KT 15SM FEW250 15/02 A2976 RMK CI2 SLP097 DENSITY ALT 3800FT

CYQF;2015-10-18 01:00;CYQF 180100Z 17005KT 15SM FEW250 11/01 A2974 RMK CI2 SLP097 DENSITY ALT 3300FT

CYQF;2015-10-18 02:00;CYQF 180200Z 18006KT 15SM FEW250 10/01 A2973 RMK CI2 SLP094 DENSITY ALT 3200FT

CYQF;2015-10-18 03:00;CYQF 180300Z 18010KT 15SM FEW250 12/02 A2971 RMK CI1 SLP083 DENSITY ALT 3500FT

CYQF;2015-10-18 04:00;CYQF 180400Z 19007KT 15SM SKC 09/02 A2970 RMK SLP080 DENSITY ALT 3200FT

CYQF;2015-10-18 05:00;CYQF 180500Z 20005KT 15SM SKC 08/02 A2969 RMK SLP076 DENSITY ALT 3000FT

CYQF;2015-10-18 06:00;CYQF 180600Z 20006KT 15SM SKC 06/01 A2969 RMK SLP073

CYQF;2015-10-18 07:00;CYQF 180700Z 19006KT 15SM SKC 04/M00 A2968 RMK SLP072

CYQF;2015-10-18 08:00;CYQF 180800Z 00000KT 15SM SKC 05/01 A2973 RMK SLP082

CYQF;2015-10-18 09:00;CYQF 180900Z 33009KT 15SM SKC 10/03 A2974 RMK SLP078 DENSITY ALT 3200FT

CYQF;2015-10-18 10:00;CYQF 181000Z VRB03KT 15SM FEW240 08/02 A2976 RMK CI2 SLP088

CYQF;2015-10-18 11:00;CYQF 181100Z 32007KT 15SM SCT150 10/04 A2978 RMK AC3 SLP095 DENSITY ALT 3100FT

CYQF;2015-10-18 12:00;CYQF 181200Z 31007KT 15SM BKN150 10/04 A2981 RMK AC5 SLP106 DENSITY ALT 3100FT

CYQF;2015-10-18 13:00;CYQF 181300Z 25007KT 15SM BKN140 06/03 A2984 RMK AC5 SLP124

CYQF;2015-10-18 14:00;CYQF 181400Z 27007KT 15SM BKN120 BKN250 09/04 A2986 RMK AC6CI1 SLP129

CYQF;2015-10-18 15:00;CYQF 181500Z VRB02KT 15SM BKN100 BKN250 09/04 A2986 RMK AC6CI1 SLP128 DENSITY ALT 3000FT

CYQF;2015-10-18 16:00;CYQF 181600Z 31008KT 15SM BKN150 BKN250 12/04 A2988 RMK AC5CI2 SLP133 DENSITY ALT 3300FT

CYQF;2015-10-18 17:00;CYQF 181700Z 32007KT 15SM FEW090 BKN160 BKN250 13/04 A2990 RMK AC2AC4CI1 SLP141 DENSITY ALT 3400FT

CYQF;2015-10-18 18:00;CYQF 181800Z 34004KT 15SM SCT090 BKN150 BKN250 13/04 A2991 RMK AC3AC3CI1 SLP147 DENSITY ALT 3400FT

CYQF;2015-10-18 19:00;CYQF 181900Z VRB02KT 15SM BKN160 BKN250 13/03 A2991 RMK AC5CI2 SLP150 DENSITY ALT 3400FT

CYQF;2015-10-18 20:00;CYQF 182000Z 00000KT 15SM FEW090 BKN220 15/03 A2991 RMK AC2CI5 SLP144 DENSITY ALT 3600FT

CYQF;2015-10-18 21:00;CYQF 182100Z 18005KT 090V210 15SM FEW100 BKN250 15/03 A2989 RMK AC1CI5 SLP133 DENSITY ALT 3700FT

CYQF;2015-10-18 22:00;CYQF 182200Z 21006KT 15SM FEW100 BKN250 16/03 A2988 RMK AC1CI5 SLP133 DENSITY ALT 3700FT

CYQF;2015-10-18 23:00;CYQF 182300Z 18005KT 15SM FEW100 BKN250 15/03 A2987 RMK AC1CI5 SLP127 DENSITY ALT 3700FT

CYQF;2015-10-19 00:00;CYQF 190000Z 14004KT 15SM BKN250 13/04 A2986 RMK CI7 SLP128 DENSITY ALT 3400FT

CYQF;2015-10-19 01:00;CYQF 190100Z 13004KT 15SM BKN250 10/02 A2986 RMK CI7 SLP135 DENSITY ALT 3100FT

CYQF;2015-10-19 02:00;CYQF 190200Z 16003KT 15SM BKN250 09/01 A2987 RMK CI5 SLP134 DENSITY ALT 3000FT

CYQF;2015-10-19 03:00;CYQF 190300Z 16004KT 15SM SCT250 07/01 A2987 RMK CI4 SLP136

CYQF;2015-10-19 04:00;CYQF 190400Z 20004KT 15SM BKN250 07/01 A2986 RMK CI7 SLP131

CYQF;2015-10-19 05:00;CYQF 190500Z VRB02KT 15SM BKN250 03/00 A2986 RMK CI7 SLP134

CYQF;2015-10-19 06:00;CYQF 190600Z 02005KT 15SM BKN080 BKN250 05/01 A2986 RMK AC5CI2 SLP132

CYQF;2015-10-19 07:00;CYQF 190700Z 04003KT 15SM OVC085 06/01 A2987 RMK AC8 SLP132

CYQF;2015-10-19 08:00;CYQF 190800Z 05002KT 15SM OVC085 06/02 A2985 RMK AC8 SLP123

CYQF;2015-10-19 09:00;CYQF 190900Z VRB02KT 15SM OVC084 06/02 A2984 RMK AC8 SLP120

CYQF;2015-10-19 10:00;CYQF 191000Z 00000KT 15SM OVC084 07/02 A2984 RMK AC8 SLP117

CYQF;2015-10-19 11:00;CYQF 191100Z 09003KT 15SM OVC080 07/03 A2983 RMK AC8 SLP115

CYQF;2015-10-19 11:49;CYQF 191149Z 04003KT 040V130 15SM -RA OVC080 08/03 A2982 RMK AC8 SLP112

CYQF;2015-10-19 12:00;CYQF 191200Z 00000KT 15SM -RA OVC080 08/03 A2983 RMK AC8 SLP116

CYQF;2015-10-19 12:19;CYQF 191219Z 00000KT 15SM OVC078 08/03 A2982 RMK AC8 SLP113 DENSITY ALT 3000FT

CYQF;2015-10-19 12:39;CYQF 191239Z 12005KT 15SM -RA OVC080 08/03 A2982 RMK AC8 SLP113

CYQF;2015-10-19 13:00;CYQF 191300Z 19002KT 15SM BKN080 08/03 A2982 RMK AC7 SLP118

CYQF;2015-10-19 14:00;CYQF 191400Z 18007KT 15SM SCT080 BKN110 08/02 A2981 RMK AC3AC4 SLP116

CYQF;2015-10-19 15:00;CYQF 191500Z 16002KT 15SM BKN080 BKN110 08/03 A2981 RMK AC6AC1 SLP117

CYQF;2015-10-19 15:39;CYQF 191539Z VRB02KT 15SM -RA BKN080 BKN120 08/03 A2982 RMK AC5AC2 SLP119

CYQF;2015-10-19 16:00;CYQF 191600Z 00000KT 15SM BKN080 BKN120 09/03 A2981 RMK AC6AC1 SLP117 DENSITY ALT 3000FT

CYQF;2015-10-19 17:00;CYQF 191700Z 12007KT 320V130 15SM BKN080 BKN120 10/03 A2982 RMK AC5AC2 SLP121 DENSITY ALT 3200FT

CYQF;2015-10-19 18:00;CYQF 191800Z 33006KT 15SM BKN080 10/06 A2982 RMK AC7 SLP120 DENSITY ALT 3100FT

CYQF;2015-10-19 19:00;CYQF 191900Z 36004KT 320V030 15SM BKN090 11/06 A2980 RMK AC7 SLP112 DENSITY ALT 3300FT

CYQF;2015-10-19 20:00;CYQF 192000Z 08006KT 15SM BKN087 BKN250 14/04 A2978 RMK AC6CI1 SLP102 DENSITY ALT 3700FT

CYQF;2015-10-19 21:00;CYQF 192100Z 07007KT 060V120 15SM FEW090 SCT250 16/03 A2976 RMK AC2CI1 SLP092 DENSITY ALT 3900FT

CYQF;2015-10-19 22:00;CYQF 192200Z 07005KT 15SM FEW090 SCT250 16/02 A2976 RMK AC2CI2 SLP090 DENSITY ALT 3900FT

CYQF;2015-10-19 23:00;CYQF 192300Z 06008KT 15SM FEW090 FEW250 16/03 A2975 RMK AC1CI1 SLP087 DENSITY ALT 3900FT

CYQF;2015-10-20 00:00;CYQF 200000Z 07006KT 15SM SCT087 BKN250 13/02 A2975 RMK AC3CI2 SLP090 DENSITY ALT 3500FT

CYQF;2015-10-20 01:00;CYQF 200100Z 07003KT 15SM BKN100 BKN250 10/03 A2976 RMK AC6CI1 SLP096 DENSITY ALT 3300FT

CYQF;2015-10-20 02:00;CYQF 200200Z 10005KT 15SM BKN120 11/02 A2975 RMK AC7 SLP093 DENSITY ALT 3300FT

CYQF;2015-10-20 03:00;CYQF 200300Z 35002KT 15SM SCT080 BKN120 09/03 A2976 RMK AC4AC3 SLP099 DENSITY ALT 3100FT

CYQF;2015-10-20 04:00;CYQF 200400Z 05002KT 15SM OVC093 09/02 A2976 RMK AC8 SLP098 DENSITY ALT 3100FT

CYQF;2015-10-20 05:00;CYQF 200500Z 35003KT 15SM BKN093 09/02 A2978 RMK AC7 SLP102 DENSITY ALT 3100FT

CYQF;2015-10-20 06:00;CYQF 200600Z 34023G31KT 15SM SCT030 BKN090 09/05 A2985 RMK SC3AC4 PRESRR SLP127 DENSITY ALT 3000FT

CYQF;2015-10-20 07:00;CYQF 200700Z 34013KT 15SM SCT055 OVC090 08/04 A2989 RMK SC3AC5 SLP140

CYQF;2015-10-20 08:00;CYQF 200800Z 33010G18KT 15SM SCT048 OVC100 07/05 A2991 RMK SC4AC4 SLP145

CYQF;2015-10-20 09:00;CYQF 200900Z 31009G15KT 15SM FEW020 BKN100 07/04 A2993 RMK SC2AC4 SLP149

CYQF;2015-10-20 10:00;CYQF 201000Z 31009KT 15SM SCT110 05/04 A2995 RMK AC3 SLP158

CYQF;2015-10-20 11:00;CYQF 201100Z 29008KT 15SM FEW110 04/03 A2997 RMK AC1 SLP166

CYQF;2015-10-20 12:00;CYQF 201200Z 29007KT 15SM FEW014 FEW100 04/02 A3000 RMK SC1AC1 SLP181

CYQF;2015-10-20 13:00;CYQF 201300Z 30008KT 15SM SCT080 04/02 A3003 RMK AC3 SLP193

CYQF;2015-10-20 14:00;CYQF 201400Z 29006KT 15SM FEW080 03/01 A3006 RMK AC2 SLP203

CYQF;2015-10-20 15:00;CYQF 201500Z 28006KT 15SM FEW080 04/02 A3007 RMK AC1 SLP208

CYQF;2015-10-20 16:00;CYQF 201600Z 28008KT 15SM FEW080 FEW210 07/02 A3009 RMK AC1CI1 AC TR SLP212

CYQF;2015-10-20 17:00;CYQF 201700Z 33010KT 15SM SKC 08/01 A3011 RMK SLP220

CYQF;2015-10-20 18:00;CYQF 201800Z 33013KT 15SM FEW270 09/M00 A3012 RMK CI1 SLP221

CYQF;2015-10-20 19:00;CYQF 201900Z 31013G19KT 15SM FEW210 10/M01 A3012 RMK CI1 SLP221

CYQF;2015-10-20 20:00;CYQF 202000Z 34007KT 290V360 15SM FEW210 11/M02 A3011 RMK CI2 SLP218

CYQF;2015-10-20 21:00;CYQF 202100Z 30009KT 260V340 15SM FEW210 11/M02 A3011 RMK CI2 SLP216 DENSITY ALT 3000FT

CYQF;2015-10-20 22:00;CYQF 202200Z 29006KT 15SM FEW210 12/M02 A3009 RMK CI1 SLP213 DENSITY ALT 3000FT

CYQF;2015-10-20 23:00;CYQF 202300Z 23005KT 15SM FEW210 11/M01 A3008 RMK CI1 SLP210 DENSITY ALT 3000FT

CYQF;2015-10-21 00:00;CYQF 210000Z 19004KT 15SM FEW250 09/M01 A3008 RMK CI1 SLP212

CYQF;2015-10-21 01:00;CYQF 210100Z 18002KT 15SM FEW250 07/M01 A3009 RMK CI1 SLP217

CYQF;2015-10-21 02:00;CYQF 210200Z 17003KT 15SM FEW250 03/M03 A3009 RMK CI1 SLP225

CYQF;2015-10-21 03:00;CYQF 210300Z 18005KT 15SM FEW250 03/M02 A3010 RMK CI1 CI TR SLP226

CYQF;2015-10-21 04:00;CYQF 210400Z 19003KT 15SM SKC 04/M02 A3009 RMK SLP220

CYQF;2015-10-21 05:00;CYQF 210500Z 20003KT 15SM SKC 01/M03 A3009 RMK SLP220

CYQF;2015-10-21 06:00;CYQF 210600Z 07003KT 010V100 15SM SKC M01/M04 A3007 RMK SLP217

CYQF;2015-10-21 07:00;CYQF 210700Z 21005KT 15SM SKC 02/M02 A3007 RMK SLP212

CYQF;2015-10-21 08:00;CYQF 210800Z 18005KT 15SM SKC M01/M03 A3006 RMK SLP211

CYQF;2015-10-21 09:00;CYQF 210900Z 19004KT 15SM FEW240 M00/M02 A3006 RMK CI2 SLP208

CYQF;2015-10-21 10:00;CYQF 211000Z 18004KT 15SM FEW240 M02/M03 A3006 RMK CI2 SLP211

CYQF;2015-10-21 11:00;CYQF 211100Z 19005KT 15SM SKC M02/M03 A3005 RMK SLP207

CYQF;2015-10-21 12:00;CYQF 211200Z VRB02KT 15SM SKC M02/M03 A3003 RMK SLP202

CYQF;2015-10-21 13:00;CYQF 211300Z 18005KT 15SM SKC M03/M04 A3002 RMK SLP201

CYQF;2015-10-21 14:00;CYQF 211400Z 20004KT 15SM SCT220 M02/M03 A3000 RMK CI4 SLP198

CYQF;2015-10-21 15:00;CYQF 211500Z 22002KT 15SM FEW120 BKN220 M01/M02 A3001 RMK AC1CI4 SLP200

CYQF;2015-10-21 16:00;CYQF 211600Z 20004KT 15SM FEW120 BKN220 03/M01 A2998 RMK AC2CI5 SLP186

CYQF;2015-10-21 17:00;CYQF 211700Z 19004KT 15SM FEW120 BKN220 09/01 A2996 RMK AC2CI5 SLP176

CYQF;2015-10-21 18:00;CYQF 211800Z 20004KT 15SM FEW120 BKN220 13/02 A2994 RMK AC1CI5 SLP163 DENSITY ALT 3400FT

CYQF;2015-10-21 19:00;CYQF 211900Z 18011KT 15SM FEW120 BKN220 18/01 A2990 RMK AC1CI6 SLP144 DENSITY ALT 3900FT

CYQF;2015-10-21 20:00;CYQF 212000Z 17012KT 15SM FEW120 BKN220 19/02 A2988 RMK AC1CI5 SLP139 DENSITY ALT 4100FT

CYQF;2015-10-21 21:00;CYQF 212100Z 16011KT 15SM FEW120 BKN220 20/03 A2986 RMK AC1CI6 SLP131 DENSITY ALT 4200FT

CYQF;2015-10-21 22:00;CYQF 212200Z 17010KT 15SM FEW120 BKN220 21/02 A2984 RMK AC2CI5 SLP124 DENSITY ALT 4300FT

CYQF;2015-10-21 23:00;CYQF 212300Z 18006KT 15SM SCT120 BKN250 18/02 A2983 RMK AC3CI4 SLP122 DENSITY ALT 4100FT

CYQF;2015-10-22 00:00;CYQF 220000Z 25008KT 15SM SCT120 BKN250 17/00 A2983 RMK AC3CI4 SLP123 DENSITY ALT 3900FT

CYQF;2015-10-22 01:00;CYQF 220100Z 18004KT 15SM SCT120 BKN250 12/01 A2982 RMK AC3CI4 SLP129 DENSITY ALT 3300FT

CYQF;2015-10-22 02:00;CYQF 220200Z 19006KT 15SM SCT120 BKN250 12/01 A2982 RMK AC4CI3 SLP125 DENSITY ALT 3300FT

CYQF;2015-10-22 03:00;CYQF 220300Z 16005KT 15SM BKN150 OVC250 11/01 A2982 RMK AC6CI2 SLP125 DENSITY ALT 3200FT

CYQF;2015-10-22 04:00;CYQF 220400Z 25007KT 15SM BKN150 OVC250 11/01 A2982 RMK AC6CI2 SLP121 DENSITY ALT 3200FT

CYQF;2015-10-22 05:00;CYQF 220500Z 28004KT 230V290 15SM BKN160 12/01 A2983 RMK CI7 SLP118 DENSITY ALT 3400FT

CYQF;2015-10-22 06:00;CYQF 220600Z 29010KT 15SM BKN160 13/00 A2985 RMK AC7 SLP118 DENSITY ALT 3400FT

CYQF;2015-10-22 07:00;CYQF 220700Z 32012KT 15SM BKN170 13/01 A2986 RMK AC7 SLP117 DENSITY ALT 3500FT

CYQF;2015-10-22 08:00;CYQF 220800Z 34012G17KT 15SM BKN170 11/01 A2988 RMK AC7 SLP124 DENSITY ALT 3200FT

CYQF;2015-10-22 09:00;CYQF 220900Z 34007KT 15SM OVC230 10/02 A2990 RMK CI8 SLP131 DENSITY ALT 3000FT

CYQF;2015-10-22 10:00;CYQF 221000Z 34004KT 15SM OVC230 08/02 A2991 RMK CI8 SLP135

CYQF;2015-10-22 11:00;CYQF 221100Z 23004KT 15SM BKN230 06/01 A2992 RMK CI6 SLP144

CYQF;2015-10-22 12:00;CYQF 221200Z 26006KT 15SM BKN230 06/01 A2993 RMK CI7 SLP150

CYQF;2015-10-22 13:00;CYQF 221300Z 27005KT 15SM BKN230 05/01 A2994 RMK CI7 SLP161

CYQF;2015-10-22 14:00;CYQF 221400Z 30006KT 15SM FEW090 BKN240 05/01 A2995 RMK AC1CI6 SLP163

CYQF;2015-10-22 15:00;CYQF 221500Z VRB02KT 15SM FEW070 BKN240 04/01 A2997 RMK AC1CI6 SLP174

CYQF;2015-10-22 16:00;CYQF 221600Z 16004KT 150V250 15SM FEW070 BKN240 04/01 A2999 RMK AC1CI6 SLP179

CYQF;2015-10-22 17:00;CYQF 221700Z 19004KT 15SM FEW090 BKN240 07/03 A3000 RMK AC2CI5 SLP178

CYQF;2015-10-22 18:00;CYQF 221800Z 00000KT 15SM SCT090 BKN240 09/02 A2999 RMK AC3CI3 SLP171

CYQF;2015-10-22 19:00;CYQF 221900Z VRB02KT 15SM BKN100 BKN240 10/02 A2999 RMK AC5CI1 SLP171

CYQF;2015-10-22 20:00;CYQF 222000Z 09005KT 050V130 15SM FEW045 FEW100 SCT250 13/01 A2998 RMK CU1AC2CI1 CU TR SLP167 DENSITY ALT 3300FT

CYQF;2015-10-22 21:00;CYQF 222100Z 09005KT 010V160 15SM FEW052 SCT100 BKN250 13/00 A2998 RMK CU1AC3CI1 SLP167 DENSITY ALT 3300FT

CYQF;2015-10-22 22:00;CYQF 222200Z 12007KT 070V140 15SM FEW050 SCT100 SCT250 13/00 A2997 RMK CU1AC2CI1 SLP166 DENSITY ALT 3300FT

CYQF;2015-10-22 23:00;CYQF 222300Z 32004KT 310V020 15SM SCT050 BKN100 12/01 A2998 RMK CU4AC2 SLP174 DENSITY ALT 3100FT

CYQF;2015-10-22 23:27;CYQF 222327Z 12002KT 15SM BKN058CB BKN100 12/M01 A2998 RMK CB6AC1 VIRGA SLP172 DENSITY ALT 3200FT

CYQF;2015-10-22 23:53;CYQF 222353Z 01018G28KT 15SM BKN063CB BKN100 08/02 A3001 RMK CB6AC1 VIRGA PRESRR SLP186

CYQF;2015-10-23 00:00;CYQF 230000Z 36015G24KT 15SM BKN063CB BKN100 07/02 A3002 RMK CB6AC1 VIRGA PRESRR SLP192

CYQF;2015-10-23 01:00;CYQF 230100Z 02011G16KT 15SM FEW045 BKN063CB BKN076 07/01 A3004 RMK CF1CB4AC1 VIRGA SLP200

CYQF;2015-10-23 02:00;CYQF 230200Z 08003KT 070V130 15SM SCT076 BKN180 05/00 A3003 RMK AC3AC2 SLP200

CYQF;2015-10-23 03:00;CYQF 230300Z 22005KT 15SM FEW080 FEW180 02/M01 A3004 RMK AC1AC1 SLP207

CYQF;2015-10-23 04:00;CYQF 230400Z 23006KT 15SM FEW080 01/M01 A3006 RMK AC2 SLP215

CYQF;2015-10-23 05:00;CYQF 230500Z 24007KT 15SM FEW080 M01/M02 A3007 RMK AC1 SLP218

CYQF;2015-10-23 06:00;CYQF 230600Z 21004KT 15SM SKC M01/M02 A3008 RMK SLP219

CYQF;2015-10-23 07:00;CYQF 230700Z VRB02KT 15SM SKC M03/M04 A3009 RMK FROIN SLP222

CYQF;2015-10-23 08:00;CYQF 230800Z 20004KT 15SM SKC M03/M04 A3009 RMK FROIN SLP220

CYQF;2015-10-23 09:00;CYQF 230900Z 19005KT 15SM SKC M04/M04 A3010 RMK FROIN SLP222

CYQF;2015-10-23 10:00;CYQF 231000Z 20005KT 15SM SKC M05/M06 A3010 RMK FROIN SLP225

CYQF;2015-10-23 11:00;CYQF 231100Z 21004KT 15SM SKC M06/M06 A3009 RMK FROIN SLP224

CYQF;2015-10-23 12:00;CYQF 231200Z 19005KT 6SM BR SKC M06/M07 A3008 RMK SLP227

CYQF;2015-10-23 12:06;CYQF 231206Z 20005KT 1/2SM FZFG SKC M06/M07 A3008 RMK FG1 VIS NW 5 SLP225

CYQF;2015-10-23 12:13;CYQF 231213Z 20006KT 3SM BR SKC M06/M07 A3008 RMK SLP225

CYQF;2015-10-23 12:36;CYQF 231236Z 19002KT 1/4SM FZFG SKC M06/M07 A3007 RMK FG2 SLP223

CYQF;2015-10-23 13:00;CYQF 231300Z CCA 19004KT 1/2SM FZFG SKC M06/M07 A3007 RMK FG2 FROIN SLP223

CYQF;2015-10-23 13:08;CYQF 231308Z 19006KT 6SM BCFG SKC M06/M07 A3007 RMK VIS W-N 1 FROIN SLP224

CYQF;2015-10-23 14:00;CYQF 231400Z 22005KT 15SM MIFG FEW100 M05/M06 A3007 RMK AC1 FROIN SLP224

CYQF;2015-10-23 15:00;CYQF 231500Z 21003KT 15SM FEW100 FEW240 M05/M06 A3007 RMK AC1CI1 FROIN SLP229

CYQF;2015-10-23 16:00;CYQF 231600Z 18004KT 15SM FEW100 M02/M03 A3007 RMK AC2 SLP226

CYQF;2015-10-23 17:00;CYQF 231700Z 23004KT 15SM FEW100 SCT240 02/M02 A3006 RMK AC2CI2 SLP221

CYQF;2015-10-23 18:00;CYQF 231800Z 19004KT 150V220 15SM FEW100 SCT240 05/M01 A3004 RMK AC1CI3 SLP209

CYQF;2015-10-23 19:00;CYQF 231900Z 19003KT 130V220 15SM FEW100 SCT250 09/M02 A3002 RMK AC1CI3 SLP201

CYQF;2015-10-23 20:00;CYQF 232000Z VRB02KT 15SM FEW040 FEW100 BKN240 11/M03 A3001 RMK CU1AC1CI5 CU TR SLP195 DENSITY ALT 3000FT

CYQF;2015-10-23 21:00;CYQF 232100Z VRB04KT 15SM FEW050 SCT100 12/M06 A2999 RMK CU1AC2 SLP188 DENSITY ALT 3100FT

CYQF;2015-10-23 22:00;CYQF 232200Z 33006KT 320V030 15SM FEW055 FEW100 SCT210 11/M06 A2999 RMK CU1AC1CI1 SLP191 DENSITY ALT 3100FT

CYQF;2015-10-23 23:00;CYQF 232300Z 04005KT 15SM FEW055 FEW100 SCT210 11/M06 A2999 RMK CU1AC1CI1 SLP190 DENSITY ALT 3100FT

CYQF;2015-10-24 00:00;CYQF 240000Z 06006KT 15SM FEW140 FEW210 07/M04 A2999 RMK AC1CI1 SLP195

CYQF;2015-10-24 01:00;CYQF 240100Z 07005KT 15SM SCT120 06/M04 A3000 RMK AC3 SLP200

CYQF;2015-10-24 02:00;CYQF 240200Z 00000KT 15SM BKN110 04/M03 A3001 RMK AC5 WND ESTD SLP203

CYQF;2015-10-24 03:00;CYQF 240300Z 26002KT 15SM SCT080 OVC110 04/M03 A3001 RMK AC4AC4 VIRGA SLP206

CYQF;2015-10-24 04:00;CYQF 240400Z VRB02KT 15SM BKN080 OVC110 03/M02 A3002 RMK AC7AC1 SLP204

CYQF;2015-10-24 05:00;CYQF 240500Z 23004KT 15SM VCSH BKN080 OVC110 03/M02 A3002 RMK AC5AC3 SLP202

CYQF;2015-10-24 06:00;CYQF 240600Z 23007KT 15SM OVC080 04/M02 A3003 RMK AC8 SLP198

CYQF;2015-10-24 07:00;CYQF 240700Z 31002KT 15SM BKN080 04/M02 A3003 RMK AC7 SLP194

CYQF;2015-10-24 08:00;CYQF 240800Z 04004KT 030V140 15SM VCSH OVC065 03/M02 A3003 RMK SC8 SLP193

CYQF;2015-10-24 09:00;CYQF 240900Z VRB02KT 15SM OVC065 05/M03 A3004 RMK SC8 SLP195

CYQF;2015-10-24 10:00;CYQF 241000Z 36003KT 15SM BKN060 05/M02 A3005 RMK SC7 SLP199

CYQF;2015-10-24 11:00;CYQF 241100Z 31005KT 15SM OVC035 04/M00 A3007 RMK SC8 SLP206

CYQF;2015-10-24 11:08;CYQF 241108Z 29006KT 15SM -RA OVC035 04/M00 A3007 RMK SC8 SLP207

CYQF;2015-10-24 11:42;CYQF 241142Z 30007KT 15SM -RASN OVC025 04/01 A3010 RMK SC8 SLP216

CYQF;2015-10-24 12:00;CYQF 241200Z 30007KT 12SM -RASN OVC025 03/01 A3011 RMK SC8 SLP225

CYQF;2015-10-24 13:00;CYQF 241300Z 30004KT 10SM -RASN BKN008 OVC024 01/00 A3012 RMK SF6SC2 SLP235

CYQF;2015-10-24 13:49;CYQF 241349Z 35003KT 15SM -RA SCT008 OVC011 02/01 A3013 RMK SF3SC5 SLP235

CYQF;2015-10-24 14:00;CYQF 241400Z 01002KT 15SM -RA FEW008 OVC012 02/01 A3013 RMK SF2SC6 SLP238

CYQF;2015-10-24 14:19;CYQF 241419Z 08003KT 15SM SCT010 OVC022 02/01 A3013 RMK SF3SC5 SLP238

CYQF;2015-10-24 15:00;CYQF 241500Z 23003KT 15SM -RA FEW010 SCT024 OVC050 02/01 A3014 RMK SF2SC2SC4 SLP242

CYQF;2015-10-24 15:36;CYQF 241536Z 22005KT 15SM FEW010 BKN034 02/01 A3015 RMK SF2SC5 SLP245

CYQF;2015-10-24 16:00;CYQF 241600Z 24004KT 15SM FEW010 SCT050 BKN100 02/01 A3016 RMK SF1SC2AC4 SLP248

CYQF;2015-10-24 17:00;CYQF 241700Z 32003KT 270V340 15SM FEW010 BKN022 BKN100 04/02 A3016 RMK SF1SC4AC2 SLP249

CYQF;2015-10-24 18:00;CYQF 241800Z 28005KT 15SM BKN010 BKN025 04/02 A3016 RMK CU5SC2 SLP246

CYQF;2015-10-24 19:00;CYQF 241900Z 28006KT 15SM BKN015 BKN030 05/00 A3016 RMK CU5SC2 SLP245

CYQF;2015-10-24 20:00;CYQF 242000Z 28005KT 240V310 15SM SCT020 BKN040 06/01 A3015 RMK CU3SC2 SLP241

CYQF;2015-10-24 21:00;CYQF 242100Z 31003KT 15SM BKN022 06/00 A3014 RMK CU5 SLP237

CYQF;2015-10-24 22:00;CYQF 242200Z 25003KT 220V290 15SM SCT030 07/M00 A3014 RMK CU3 SLP233

CYQF;2015-10-24 23:00;CYQF 242300Z 30002KT 15SM SCT032 SCT210 07/M01 A3014 RMK CU4CI1 CI TR SLP234

CYQF;2015-10-25 00:00;CYQF 250000Z 36004KT 15SM FEW003 FEW080 FEW210 05/M01 A3014 RMK CU1AC1CI1 AC TR CI TR SLP238

CYQF;2015-10-25 01:00;CYQF 250100Z VRB02KT 15SM FEW080 FEW210 04/M02 A3014 RMK AC1CI1 AC TR CI TR SLP245

CYQF;2015-10-25 02:00;CYQF 250200Z 18003KT 15SM SKC M01/M03 A3016 RMK SLP255

CYQF;2015-10-25 03:00;CYQF 250300Z 21004KT 15SM SKC M00/M03 A3016 RMK SLP254

CYQF;2015-10-25 04:00;CYQF 250400Z 21004KT 15SM SKC M02/M03 A3017 RMK SLP258

CYQF;2015-10-25 05:00;CYQF 250500Z 20003KT 15SM SKC M03/M04 A3017 RMK SLP259

CYQF;2015-10-25 06:00;CYQF 250600Z 17003KT 15SM SKC M04/M04 A3018 RMK SLP262

CYQF;2015-10-25 07:00;CYQF 250700Z 19004KT 15SM SKC M05/M06 A3018 RMK SLP262

CYQF;2015-10-25 08:00;CYQF 250800Z 21003KT 15SM MIFG SKC M04/M04 A3018 RMK SLP258

CYQF;2015-10-25 09:00;CYQF 250900Z 21002KT 15SM MIFG SKC M05/M06 A3017 RMK FROIN SLP259

CYQF;2015-10-25 09:40;CYQF 250940Z 22003KT 1SM BR SKC M06/M06 A3018 RMK SLP261

CYQF;2015-10-25 10:00;CYQF 251000Z 20003KT 6SM BR SCT001 M06/M07 A3018 RMK SF3 SLP261

CYQF;2015-10-25 11:00;CYQF 251100Z 17003KT 1/2SM FZFG SKC M07/M07 A3017 RMK FG1 SLP260

CYQF;2015-10-25 11:13;CYQF 251113Z 17002KT 1/4SM FZFG SKC M06/M07 A3018 RMK FG1 SLP261

CYQF;2015-10-25 11:21;CYQF 251121Z 17003KT 1/2SM FZFG SKC M07/M07 A3018 RMK FG1 SLP261

CYQF;2015-10-25 12:00;CYQF 251200Z 22003KT 1SM BR SKC M05/M05 A3018 RMK SLP261

CYQF;2015-10-25 13:00;CYQF 251300Z 22002KT 1 1/2SM BR SCT005 SCT040 M06/M07 A3018 RMK FG1ST2SC1 SLP265

CYQF;2015-10-25 13:11;CYQF 251311Z 00000KT 3SM BR FEW005 FEW040 M06/M06 A3018 RMK ST1SC1 SLP265

CYQF;2015-10-25 14:00;CYQF 251400Z 00000KT 6SM BR SKC M06/M06 A3018 RMK MIFG SLP270

CYQF;2015-10-25 14:31;CYQF 251431Z 20003KT 1 1/2SM BR SKC M05/M06 A3018 RMK SLP270

CYQF;2015-10-25 15:00;CYQF 251500Z 19003KT 2SM BR SKC M05/M06 A3019 RMK FROIN SLP272

CYQF;2015-10-25 15:06;CYQF 251506Z 20004KT 3SM BR SKC M05/M06 A3019 RMK SLP271

CYQF;2015-10-25 16:00;CYQF 251600Z VRB02KT 5SM BR FEW250 M02/M02 A3019 RMK CI2 SLP270

CYQF;2015-10-25 17:00;CYQF 251700Z 17011KT 7SM SCT250 02/01 A3019 RMK CI3 SLP265

CYQF;2015-10-25 18:00;CYQF 251800Z 17014KT 12SM SCT250 04/00 A3017 RMK CI4 SLP260

CYQF;2015-10-25 19:00;CYQF 251900Z 16015KT 15SM BKN250 06/00 A3016 RMK CI5 SLP253

CYQF;2015-10-25 20:00;CYQF 252000Z 15012KT 15SM BKN250 07/01 A3014 RMK CI6 SLP245

CYQF;2015-10-25 21:01;CYQF 252101Z 13012KT 15SM BKN250 07/02 A3013 RMK CI7 SLP241

CYQF;2015-10-25 22:00;CYQF 252200Z 15015KT 15SM OVC250 08/M00 A3011 RMK CI8 SLP236

CYQF;2015-10-25 23:00;CYQF 252300Z 15012G18KT 15SM OVC250 08/M00 A3010 RMK CI8 SLP235

CYQF;2015-10-26 00:00;CYQF 260000Z 13009KT 15SM OVC250 05/M01 A3010 RMK CI8 SLP234

CYQF;2015-10-26 01:00;CYQF 260100Z 13009KT 15SM OVC220 04/M01 A3009 RMK CI8 SLP234

CYQF;2015-10-26 02:00;CYQF 260200Z 14009KT 15SM BKN220 03/M01 A3009 RMK CI6 SLP233

CYQF;2015-10-26 03:00;CYQF 260300Z 14012KT 15SM SCT220 02/M02 A3007 RMK CI4 SLP229

CYQF;2015-10-26 04:00;CYQF 260400Z 14011KT 15SM BKN220 01/M02 A3007 RMK CI5 SLP225

CYQF;2015-10-26 05:00;CYQF 260500Z 15012G17KT 15SM BKN220 01/M02 A3006 RMK CI6 SLP217

CYQF;2015-10-26 06:00;CYQF 260600Z 15008KT 15SM BKN220 00/M03 A3005 RMK CI5 SLP211

CYQF;2015-10-26 07:00;CYQF 260700Z 15005KT 15SM BKN220 00/M03 A3003 RMK CI5 SLP203

CYQF;2015-10-26 08:00;CYQF 260800Z 15006KT 15SM BKN220 M00/M03 A3001 RMK CS7 SLP197

CYQF;2015-10-26 09:00;CYQF 260900Z 16009KT 15SM OVC220 00/M03 A2999 RMK CS8 SLP188

CYQF;2015-10-26 10:00;CYQF 261000Z 16013KT 15SM OVC220 01/M03 A2996 RMK CS8 SLP178

CYQF;2015-10-26 11:00;CYQF 261100Z 16010KT 15SM FEW130 BKN220 00/M03 A2994 RMK AC1CI6 SLP171

CYQF;2015-10-26 12:00;CYQF 261200Z 16015G20KT 15SM FEW130 OVC220 00/M03 A2992 RMK AC1CI7 SLP164

CYQF;2015-10-26 13:00;CYQF 261300Z 16013KT 15SM BKN130 OVC240 01/M03 A2990 RMK AC5CI3 SLP160

CYQF;2015-10-26 14:00;CYQF 261400Z 17013KT 15SM BKN130 OVC240 01/M02 A2988 RMK AC5CI3 SLP153

CYQF;2015-10-26 15:00;CYQF 261500Z 17013G19KT 15SM FEW130 OVC260 02/M02 A2986 RMK AC2CI6 SLP149

CYQF;2015-10-26 16:00;CYQF 261600Z 17010KT 15SM BKN075 OVC260 02/M01 A2985 RMK AC6CI2 SLP144

CYQF;2015-10-26 17:00;CYQF 261700Z 18010KT 15SM FEW070 BKN094 OVC260 04/M01 A2983 RMK AC1AS6CI1 SLP136

CYQF;2015-10-26 18:00;CYQF 261800Z 17011KT 15SM FEW070 OVC090 05/00 A2981 RMK AC2AS6 SLP127

CYQF;2015-10-26 19:00;CYQF 261900Z 16011KT 15SM FEW070 SCT090 OVC260 07/01 A2977 RMK AC2AS2CS4 SLP113

CYQF;2015-10-26 20:00;CYQF 262000Z 16012G18KT 15SM SCT100 OVC260 07/01 A2976 RMK AC3CS5 SLP108

CYQF;2015-10-26 21:00;CYQF 262100Z 17011G19KT 15SM SCT100 OVC260 08/01 A2975 RMK AC3CS5 SLP103 DENSITY ALT 3000FT

CYQF;2015-10-26 21:47;CYQF 262147Z 18005KT 15SM -RA BKN070 OVC100 08/02 A2976 RMK AC5AS3 SLP109 DENSITY ALT 3000FT

CYQF;2015-10-26 22:00;CYQF 262200Z 19003KT 15SM FEW060 OVC080 08/02 A2976 RMK SC2AC6 SLP107 DENSITY ALT 3000FT

CYQF;2015-10-26 23:00;CYQF 262300Z 03003KT 12SM -RA OVC060 07/04 A2977 RMK SC8 SLP112

CYQF;2015-10-27 00:00;CYQF 270000Z 06004KT 12SM -RA BKN040 OVC080 06/04 A2978 RMK SC6AC2 SLP118

CYQF;2015-10-27 01:00;CYQF 270100Z 33010KT 10SM -RA FEW015 OVC040 06/04 A2982 RMK SF2SC6 SLP129

CYQF;2015-10-27 02:00;CYQF 270200Z 31014G20KT 6SM -RA BR BKN010 OVC040 03/02 A2986 RMK SF6SC2 SLP146

CYQF;2015-10-27 03:00;CYQF 270300Z 30012G18KT 6SM -RA BR OVC012 02/01 A2989 RMK SF8 SLP158

CYQF;2015-10-27 03:39;CYQF 270339Z 31013G23KT 12SM BKN014 OVC030 02/01 A2990 RMK SF6SC2 SLP162

CYQF;2015-10-27 04:00;CYQF 270400Z 32017G23KT 12SM OVC013 02/00 A2991 RMK SC8 SLP164

CYQF;2015-10-27 05:00;CYQF 270500Z 31014G23KT 15SM BKN012 OVC018 02/M00 A2994 RMK SF5SC3 SLP173

CYQF;2015-10-27 06:00;CYQF 270600Z 32011G20KT 15SM OVC015 02/M00 A2997 RMK SC8 SLP183

CYQF;2015-10-27 07:00;CYQF 270700Z 32016KT 15SM OVC016 02/M00 A2999 RMK SC8 SLP187

CYQF;2015-10-27 08:00;CYQF 270800Z 33016G24KT 15SM OVC019 02/M01 A3002 RMK SC8 SLP195

CYQF;2015-10-27 08:39;CYQF 270839Z 32014G25KT 10SM -SN BKN017 OVC028 01/M01 A3002 RMK SC5SC3 SLP198

CYQF;2015-10-27 09:00;CYQF 270900Z 32021G29KT 15SM -SN OVC021 01/M02 A3003 RMK SC8 SLP199

CYQF;2015-10-27 10:00;CYQF 271000Z 33017G25KT 15SM OVC022 01/M03 A3005 RMK SC8 SLP207

CYQF;2015-10-27 11:00;CYQF 271100Z 32015G25KT 15SM BKN022 00/M04 A3006 RMK SC7 SLP212

CYQF;2015-10-27 12:00;CYQF 271200Z 32018G24KT 15SM BKN022 00/M04 A3006 RMK SC7 SLP215

CYQF;2015-10-27 13:00;CYQF 271300Z 31015G30KT 15SM BKN021 00/M04 A3007 RMK SC7 SLP218

CYQF;2015-10-27 14:00;CYQF 271400Z 32017G26KT 15SM BKN025 01/M04 A3008 RMK SC7 CIG RAG SLP225

CYQF;2015-10-27 15:00;CYQF 271500Z 31016G24KT 15SM BKN025 00/M04 A3010 RMK SC7 SLP231

CYQF;2015-10-27 16:00;CYQF 271600Z 32014G21KT 15SM BKN022 00/M05 A3011 RMK SC7 SLP235

CYQF;2015-10-27 17:00;CYQF 271700Z 31011G20KT 15SM BKN021 M00/M04 A3013 RMK SC7 SLP241

CYQF;2015-10-27 18:00;CYQF 271800Z 31012G23KT 15SM BKN022 01/M04 A3013 RMK SC7 SLP242

CYQF;2015-10-27 19:00;CYQF 271900Z 32014G19KT 15SM SCT022 02/M04 A3012 RMK SC4 SLP236

CYQF;2015-10-27 20:00;CYQF 272000Z 32011G16KT 15SM FEW022 FEW210 03/M04 A3010 RMK SC1CI1 SC TR CI TR SLP229

CYQF;2015-10-27 21:00;CYQF 272100Z 33013KT 15SM FEW025 FEW210 04/M04 A3008 RMK SC1CI1 SC TR CI TR SLP222

CYQF;2015-10-27 22:00;CYQF 272200Z 34013G20KT 15SM FEW025 FEW250 04/M04 A3008 RMK SC1CI1 SC TR CI TR SLP223

CYQF;2015-10-27 23:00;CYQF 272300Z 35013KT 15SM FEW210 03/M05 A3009 RMK CI1 CI TR SLP227

CYQF;2015-10-28 00:00;CYQF 280000Z 34005KT 15SM FEW210 02/M05 A3009 RMK CI1 CI TR SLP229

CYQF;2015-10-28 01:00;CYQF 280100Z VRB02KT 15SM SKC 00/M06 A3008 RMK SLP228

CYQF;2015-10-28 02:00;CYQF 280200Z 27002KT 15SM SKC M02/M06 A3008 RMK SLP230

CYQF;2015-10-28 03:00;CYQF 280300Z 25005KT 15SM SKC M02/M06 A3007 RMK SLP228

CYQF;2015-10-28 04:00;CYQF 280400Z 22003KT 15SM SKC M04/M07 A3007 RMK SLP230

CYQF;2015-10-28 05:00;CYQF 280500Z 20004KT 15SM SKC M06/M07 A3007 RMK SLP230

CYQF;2015-10-28 06:00;CYQF 280600Z 23005KT 15SM SKC M05/M07 A3007 RMK SLP228

CYQF;2015-10-28 07:00;CYQF 280700Z 21004KT 15SM SKC M07/M09 A3005 RMK SLP224

CYQF;2015-10-28 08:00;CYQF 280800Z 18003KT 15SM SKC M07/M08 A3005 RMK SLP223

CYQF;2015-10-28 09:00;CYQF 280900Z 20003KT 15SM SKC M08/M09 A3004 RMK FROIN SLP219

CYQF;2015-10-28 10:00;CYQF 281000Z 17003KT 15SM SKC M08/M09 A3002 RMK FROIN SLP211

CYQF;2015-10-28 11:00;CYQF 281100Z 00000KT 15SM SKC M08/M09 A3001 RMK FROIN SLP208

CYQF;2015-10-28 12:00;CYQF 281200Z 18003KT 15SM SKC M08/M09 A3000 RMK FROIN SLP207

CYQF;2015-10-28 13:00;CYQF 281300Z 17005KT 15SM SKC M08/M10 A2998 RMK FROIN SLP201

CYQF;2015-10-28 14:00;CYQF 281400Z 14003KT 15SM SKC M07/M09 A2996 RMK FROIN SLP196

CYQF;2015-10-28 15:00;CYQF 281500Z 12002KT 15SM FEW250 M08/M10 A2995 RMK CI1 SLP192

CYQF;2015-10-28 16:00;CYQF 281600Z 18003KT 15SM FEW250 M03/M06 A2994 RMK CI1 SLP187

CYQF;2015-10-28 17:00;CYQF 281700Z 15009KT 15SM FEW250 M00/M04 A2993 RMK CI1 SLP181

CYQF;2015-10-28 18:00;CYQF 281800Z 16011KT 15SM FEW250 03/M04 A2990 RMK CI2 SLP167

CYQF;2015-10-28 19:00;CYQF 281900Z 17015KT 15SM SCT250 04/M03 A2988 RMK CI3 SLP162

CYQF;2015-10-28 20:00;CYQF 282000Z 15013KT 15SM SCT250 05/M03 A2986 RMK CI4 SLP151

CYQF;2015-10-28 21:00;CYQF 282100Z 15013G20KT 15SM BKN250 07/M03 A2983 RMK CI5 SLP142

CYQF;2015-10-28 22:00;CYQF 282200Z 15013G21KT 15SM BKN250 07/M04 A2981 RMK CI5 SLP135

CYQF;2015-10-28 23:00;CYQF 282300Z 15015KT 15SM BKN250 06/M04 A2980 RMK CI7 SLP132

CYQF;2015-10-29 00:00;CYQF 290000Z 14008KT 15SM BKN250 02/M04 A2979 RMK CI5 SLP134

CYQF;2015-10-29 01:00;CYQF 290100Z 16009KT 15SM BKN240 03/M04 A2978 RMK CI5 SLP131

CYQF;2015-10-29 02:00;CYQF 290200Z 16011KT 15SM OVC210 03/M05 A2976 RMK CI8 SLP122

CYQF;2015-10-29 03:00;CYQF 290300Z 17016KT 15SM OVC200 03/M05 A2975 RMK CI8 SLP117

CYQF;2015-10-29 04:00;CYQF 290400Z 17013KT 15SM OVC200 02/M05 A2974 RMK CI8 SLP109

CYQF;2015-10-29 05:00;CYQF 290500Z 17013G18KT 15SM OVC200 02/M05 A2972 RMK CI8 SLP100

CYQF;2015-10-29 06:00;CYQF 290600Z 17010KT 15SM SCT120 OVC200 01/M05 A2972 RMK AC3CS5 SLP097

CYQF;2015-10-29 07:00;CYQF 290700Z 18010KT 15SM OVC230 00/M05 A2971 RMK CS8 SLP095

CYQF;2015-10-29 08:00;CYQF 290800Z 21004KT 15SM OVC230 M01/M05 A2971 RMK CS8 SLP093

CYQF;2015-10-29 09:00;CYQF 290900Z 20004KT 15SM OVC230 M02/M05 A2971 RMK CS8 SLP093

CYQF;2015-10-29 10:00;CYQF 291000Z 28002KT 15SM OVC160 M01/M05 A2970 RMK AC8 SLP091

CYQF;2015-10-29 11:00;CYQF 291100Z 20003KT 15SM FEW050 BKN080 OVC160 M02/M04 A2970 RMK SC2AC3AC3 SLP091

CYQF;2015-10-29 11:38;CYQF 291138Z 00000KT 15SM -FZRA SCT050 OVC080 M01/M04 A2969 RMK SC4AC4 SLP088

CYQF;2015-10-29 12:00;CYQF 291200Z 19003KT 15SM -FZRA BKN050 OVC080 M01/M03 A2969 RMK SC5AC3 SLP091

CYQF;2015-10-29 13:00;CYQF 291300Z 18004KT 12SM -RA OVC050 00/M01 A2969 RMK SC8 SLP089

CYQF;2015-10-29 14:00;CYQF 291400Z 19004KT 10SM BKN050 OVC080 00/M00 A2968 RMK SC6AC2 SLP086

CYQF;2015-10-29 15:00;CYQF 291500Z 23006KT 12SM FEW030 OVC080 02/02 A2968 RMK SC1AC8 SC TR SLP083

CYQF;2015-10-29 16:00;CYQF 291600Z 25006KT 12SM FEW020 BKN080 BKN250 04/03 A2967 RMK SC1AC6CI1 SC TR SLP079

CYQF;2015-10-29 17:00;CYQF 291700Z 25006KT 15SM SCT100 BKN160 BKN260 06/04 A2967 RMK AC3AC2CI2 SLP077

CYQF;2015-10-29 18:00;CYQF 291800Z 25005KT 15SM FEW100 BKN160 BKN260 08/05 A2968 RMK AC2AC3CI2 SLP078 DENSITY ALT 3000FT

CYQF;2015-10-29 19:00;CYQF 291900Z 26004KT 15SM BKN140 BKN220 09/04 A2967 RMK AC5CC2 SLP075 DENSITY ALT 3100FT

CYQF;2015-10-29 20:00;CYQF 292000Z 22004KT 15SM SCT140 BKN220 10/04 A2966 RMK AC4CI3 SLP072 DENSITY ALT 3300FT

CYQF;2015-10-29 21:00;CYQF 292100Z 22003KT 15SM FEW016 SCT140 BKN220 10/04 A2964 RMK CU1AC4CI3 CU TR SLP066 DENSITY ALT 3400FT

CYQF;2015-10-29 22:00;CYQF 292200Z 18006KT 15SM FEW016 BKN120 BKN220 10/04 A2963 RMK CU1AC5CI2 CU TR SLP060 DENSITY ALT 3400FT

CYQF;2015-10-29 23:00;CYQF 292300Z CCA 20003KT 15SM FEW020 BKN160 BKN220 09/04 A2962 RMK CU1AC5CI1 SLP060 DENSITY ALT 3300FT

CYQF;2015-10-30 00:00;CYQF 300000Z 20003KT 15SM SCT098 BKN160 BKN220 09/03 A2962 RMK AC4AC2CI1 SLP059 DENSITY ALT 3300FT

CYQF;2015-10-30 01:00;CYQF 300100Z 16004KT 15SM SCT098 06/02 A2962 RMK AC3 SLP060

CYQF;2015-10-30 02:00;CYQF 300200Z 19007KT 15SM FEW098 04/01 A2960 RMK AC2 SLP055

CYQF;2015-10-30 03:00;CYQF 300300Z 20004KT 15SM SCT098 01/M00 A2960 RMK AC3 SLP058

CYQF;2015-10-30 04:00;CYQF 300400Z 23004KT 15SM SCT100 03/M02 A2961 RMK AC3 SLP055

CYQF;2015-10-30 05:00;CYQF 300500Z 21004KT 15SM FEW100 M03/M05 A2961 RMK AC2 SLP062

CYQF;2015-10-30 06:00;CYQF 300600Z 22005KT 15SM SKC 01/M04 A2961 RMK SLP055

CYQF;2015-10-30 07:00;CYQF 300700Z 19007KT 15SM FEW240 M03/M05 A2960 RMK CI2 SLP055

CYQF;2015-10-30 08:00;CYQF 300800Z 19006KT 15SM FEW240 M03/M06 A2957 RMK CI2 SLP043

CYQF;2015-10-30 09:00;CYQF 300900Z 19007KT 15SM FEW240 M02/M06 A2956 RMK CI2 SLP038

CYQF;2015-10-30 10:00;CYQF 301000Z 18005KT 15SM FEW240 M04/M07 A2954 RMK CI2 SLP032

CYQF;2015-10-30 11:00;CYQF 301100Z 17005KT 15SM FEW100 SCT240 M02/M06 A2950 RMK AC1CI2 SLP017

CYQF;2015-10-30 12:00;CYQF 301200Z 18004KT 15SM FEW100 SCT240 M02/M06 A2947 RMK AC2CI2 SLP008

CYQF;2015-10-30 13:00;CYQF 301300Z 17004KT 15SM FEW100 BKN240 M02/M05 A2944 RMK AC2CI5 SLP002

CYQF;2015-10-30 14:00;CYQF 301400Z 17003KT 15SM BKN200 M02/M05 A2941 RMK CI7 SLP993

CYQF;2015-10-30 15:00;CYQF 301500Z 19003KT 15SM M02/M04 A2939 RMK SLP989

CYQF;2015-10-30 16:00;CYQF 301600Z 00000KT 15SM BKN200 M01/M03 A2936 RMK CI7 SLP974

CYQF;2015-10-30 17:00;CYQF 301700Z 17002KT 15SM SCT200 BKN260 02/M01 A2931 RMK CC4CI3 PRESFR SLP963

CYQF;2015-10-30 18:00;CYQF 301800Z 22003KT 15SM SCT090 OVC200 05/01 A2929 RMK AC3CI5 SLP946 DENSITY ALT 3200FT

CYQF;2015-10-30 19:00;CYQF 301900Z 16003KT 15SM SCT080 BKN250 09/03 A2927 RMK AC4CI3 SLP938 DENSITY ALT 3700FT

CYQF;2015-10-30 20:00;CYQF 302000Z 24004KT 15SM BKN080 10/M00 A2924 RMK AC7 SLP928 DENSITY ALT 3800FT

CYQF;2015-10-30 21:00;CYQF 302100Z 33006KT 300V360 15SM BKN080 10/M00 A2923 RMK AC7 SLP924 DENSITY ALT 3900FT

CYQF;2015-10-30 22:00;CYQF 302200Z 31009KT 15SM BKN080 10/M01 A2925 RMK AC7 SLP932 DENSITY ALT 3800FT

CYQF;2015-10-30 23:00;CYQF 302300Z 33011KT 15SM BKN086 09/M00 A2928 RMK AC7 SLP944 DENSITY ALT 3700FT

CYQF;2015-10-31 00:00;CYQF 310000Z 34014G21KT 15SM BKN084 07/01 A2935 RMK AC7 SLP967 DENSITY ALT 3400FT

CYQF;2015-10-31 01:00;CYQF 310100Z 32007KT 15SM SCT080 BKN140 05/01 A2938 RMK AC4AC2 VIRGA SLP982 DENSITY ALT 3000FT

CYQF;2015-10-31 02:00;CYQF 310200Z 26006KT 15SM SCT075 BKN140 04/01 A2941 RMK AC3AC2 SLP993

CYQF;2015-10-31 03:00;CYQF 310300Z 25008KT 15SM FEW075 02/M00 A2943 RMK AC2 SLP001

CYQF;2015-10-31 04:00;CYQF 310400Z 25006KT 15SM FEW070 SCT120 02/M00 A2946 RMK AC2AC2 SLP012

CYQF;2015-10-31 05:00;CYQF 310500Z 22005KT 15SM BKN100 02/00 A2949 RMK AC7 SLP019

CYQF;2015-10-31 06:00;CYQF 310600Z VRB02KT 15SM FEW100 01/01 A2952 RMK AC2 SLP026

CYQF;2015-10-31 07:00;CYQF 310700Z 17003KT 140V220 15SM SCT090 M03/M04 A2954 RMK AC3 SLP032

CYQF;2015-10-31 08:00;CYQF 310800Z 19005KT 15SM FEW100 M04/M05 A2956 RMK AC2 SLP040

CYQF;2015-10-31 09:00;CYQF 310900Z 21006KT 15SM SCT100 M04/M05 A2956 RMK AC3 SLP041

CYQF;2015-10-31 10:00;CYQF 311000Z 18004KT 15SM FEW100 SCT220 M04/M05 A2956 RMK AC2CI2 SLP042

CYQF;2015-10-31 11:00;CYQF 311100Z 23006KT 15SM SCT100 BKN220 M02/M04 A2957 RMK AC3CI2 SLP044

CYQF;2015-10-31 12:00;CYQF 311200Z 21004KT 15SM FEW100 SCT220 M04/M06 A2957 RMK AC2CI1 SLP048

CYQF;2015-10-31 13:00;CYQF 311300Z 21004KT 15SM SCT210 M05/M07 A2959 RMK CI3 SLP057

CYQF;2015-10-31 14:00;CYQF 311400Z 19004KT 15SM BKN220 M06/M07 A2959 RMK CI5 SLP060

CYQF;2015-10-31 15:00;CYQF 311500Z 21002KT 15SM FEW170 BKN260 M05/M07 A2958 RMK AC2CI5 SLP058

CYQF;2015-10-31 16:00;CYQF 311600Z 00000KT 15SM SCT150 BKN260 M03/M04 A2958 RMK AC3CI4 SLP055

CYQF;2015-10-31 17:00;CYQF 311700Z VRB02KT 15SM BKN150 BKN260 M01/M03 A2956 RMK AC5CI2 SLP045

CYQF;2015-10-31 18:00;CYQF 311800Z 13011KT 15SM SCT140 BKN220 05/M02 A2952 RMK AC4CI3 SLP027

CYQF;2015-10-31 19:00;CYQF 311900Z 14012G19KT 15SM BKN200 05/M02 A2948 RMK CI7 SLP018

CYQF;2015-10-31 20:00;CYQF 312000Z 14014KT 15SM FEW160 BKN230 05/M02 A2943 RMK AC2CI5 PRESFR SLP001 DENSITY ALT 3000FT

CYQF;2015-10-31 21:00;CYQF 312100Z 14012G18KT 15SM SCT140 BKN220 05/M01 A2941 RMK AC3CI4 SLP994 DENSITY ALT 3000FT

CYQF;2015-10-31 22:00;CYQF 312200Z 14014KT 15SM BKN130 BKN220 06/00 A2938 RMK AC5CI2 PRESFR SLP982 DENSITY ALT 3200FT

CYQF;2015-10-31 23:00;CYQF 312300Z 13015G21KT 15SM FEW070 BKN130 BKN230 07/M01 A2933 RMK AC2AC3CI2 PRESFR SLP962 DENSITY ALT 3300FT

CYQF;2015-11-01 05:00;CYQF 010500Z 31012KT 15SM SKC 04/M02 A2936 RMK SLP974

CYQF;2015-11-01 06:00;CYQF 010600Z 32008KT 15SM SKC 02/M02 A2938 RMK WND ESTD SLP978

CYQF;2015-11-01 07:00;CYQF 010700Z 04003KT 350V080 15SM SKC 02/M02 A2941 RMK SLP989

CYQF;2015-11-01 08:00;CYQF 010800Z 00000KT 15SM SKC M02/M03 A2944 RMK SLP000

CYQF;2015-11-01 09:00;CYQF 010900Z 22007KT 160V250 15SM SKC M04/M06 A2945 RMK SLP009

CYQF;2015-11-01 10:00;CYQF 011000Z 19006KT 15SM SKC M05/M06 A2947 RMK SLP015

CYQF;2015-11-01 11:00;CYQF 011100Z 30006KT 15SM SKC M03/M05 A2948 RMK FROIN SLP014

CYQF;2015-11-01 12:00;CYQF 011200Z 00000KT 15SM SKC M05/M07 A2949 RMK FROIN SLP022

CYQF;2015-11-01 13:00;CYQF 011300Z 19005KT 15SM FEW100 M06/M08 A2951 RMK AC1 AC TR SLP030

CYQF;2015-11-01 14:00;CYQF 011400Z 21004KT 15SM BKN090 BKN220 M06/M08 A2952 RMK AC5CI1 SLP033

CYQF;2015-11-01 15:00;CYQF 011500Z 22003KT 15SM FEW090 BKN140 M04/M05 A2953 RMK AC2AC5 SLP039

CYQF;2015-11-01 16:00;CYQF 011600Z 01003KT 360V060 15SM BKN100 M03/M04 A2953 RMK AC7 VIRGA ACC SLP039

CYQF;2015-11-01 17:00;CYQF 011700Z 03004KT 15SM BKN080 M01/M03 A2952 RMK AC7 SLP030

CYQF;2015-11-01 18:00;CYQF 011800Z 08006KT 15SM BKN100 BKN260 01/M01 A2951 RMK AC5CI2 SLP025

CYQF;2015-11-01 19:00;CYQF 011900Z 06007KT 15SM FEW010 SCT100 BKN260 05/M00 A2951 RMK SF1AC3CI4 SF TR SLP022

CYQF;2015-11-01 20:00;CYQF 012000Z 12008KT 15SM SCT100 BKN200 04/M00 A2951 RMK AC4CI3 SLP028

CYQF;2015-11-01 21:00;CYQF 012100Z 05010KT 15SM FEW040 BKN110 03/M00 A2946 RMK CU1AC7 CU TR SLP015

CYQF;2015-11-01 22:00;CYQF 012200Z 05013KT 15SM FEW040 OVC130 02/M00 A2950 RMK SC1AC8 SC TR SLP030

CYQF;2015-11-01 22:46;CYQF 012246Z 06008KT 15SM FEW007 OVC130 01/M00 A2953 RMK SF1AC7 SLP040

CYQF;2015-11-01 23:00;CYQF 012300Z 06007KT 12SM FEW007 OVC130 01/M00 A2953 RMK SF2AC6 SLP038

CYQF;2015-11-02 00:00;CYQF 020000Z 04006KT 12SM FEW007 SCT130 OVC170 01/M00 A2955 RMK SF1AC3AC4 SLP047

CYQF;2015-11-02 01:00;CYQF 020100Z 36005KT 15SM FEW007 OVC170 M00/M01 A2958 RMK SF1AC7 SLP063

CYQF;2015-11-02 02:00;CYQF 020200Z 34004KT 15SM SCT090 OVC170 M01/M01 A2960 RMK AC4AC4 SLP069

CYQF;2015-11-02 02:44;CYQF 020244Z 33003KT 8SM BKN009 M00/M01 A2963 RMK ST6 SLP077

CYQF;2015-11-02 03:00;CYQF 020300Z 33005KT 6SM BR OVC009 00/M00 A2963 RMK ST8 SLP076

CYQF;2015-11-02 04:00;CYQF 020400Z 33003KT 6SM BR OVC009 01/00 A2966 RMK ST8 SLP082

CYQF;2015-11-02 04:13;CYQF 020413Z 27004KT 8SM OVC015 01/00 A2966 RMK ST8 SLP084

CYQF;2015-11-02 05:00;CYQF 020500Z 26002KT 8SM OVC019 01/00 A2968 RMK SC8 SLP088

CYQF;2015-11-02 06:00;CYQF 020600Z 27006KT 8SM OVC032 01/M00 A2970 RMK SC8 SLP093

CYQF;2015-11-02 07:00;CYQF 020700Z 28006KT 8SM OVC013 01/M01 A2972 RMK SC8 SLP095

CYQF;2015-11-02 08:00;CYQF 020800Z 26004KT 10SM BKN013 M02/M02 A2972 RMK SC6 SLP099

CYQF;2015-11-02 09:00;CYQF 020900Z 25005KT 10SM SCT013 BKN026 M00/M02 A2974 RMK SC3SC4 SLP105

CYQF;2015-11-02 10:00;CYQF 021000Z 24005KT 10SM OVC030 M00/M02 A2975 RMK SC8 SLP109

CYQF;2015-11-02 11:00;CYQF 021100Z 24007KT 15SM OVC032 00/M01 A2975 RMK SC8 SLP112

CYQF;2015-11-02 12:00;CYQF 021200Z 25007KT 15SM BKN030 M01/M02 A2975 RMK SC5 SLP114

CYQF;2015-11-02 13:00;CYQF 021300Z 22005KT 15SM FEW030 BKN220 M05/M06 A2976 RMK SC2CI3 SLP121

CYQF;2015-11-02 14:00;CYQF 021400Z 20007KT 15SM FEW030 SCT070 BKN220 M04/M05 A2976 RMK SC1AC3CI1 SLP123

CYQF;2015-11-02 15:00;CYQF 021500Z 23008KT 15SM FEW030 SCT070 BKN220 M03/M03 A2977 RMK SC1AC3CI2 SLP123

CYQF;2015-11-02 16:01;CYQF 021601Z 23007KT 15SM FEW030 SCT080 BKN220 M01/M02 A2979 RMK SC1AC2CI2 SLP128

CYQF;2015-11-02 17:00;CYQF 021700Z 24004KT 15SM FEW030 FEW080 FEW220 01/M01 A2980 RMK SC1ACC1CI1 SC TR SLP126

CYQF;2015-11-02 18:00;CYQF 021800Z 31009KT 15SM FEW020 FEW080 FEW220 03/M01 A2980 RMK SC1AC1CI1 AC TR SLP124

CYQF;2015-11-02 19:00;CYQF 021900Z 29004KT 260V320 15SM FEW024 FEW080 FEW220 05/M02 A2979 RMK CU1AC1CI1 AC TR SLP121

CYQF;2015-11-02 20:00;CYQF 022000Z 26008KT 15SM FEW028 FEW220 05/M02 A2978 RMK CU1CI1 SLP118

CYQF;2015-11-02 21:00;CYQF 022100Z 29003KT 240V310 15SM FEW030 FEW220 06/M03 A2976 RMK CU1CI1 SLP112

CYQF;2015-11-02 22:00;CYQF 022200Z 22006KT 200V270 15SM SCT040 06/M03 A2976 RMK CU3 SLP109

CYQF;2015-11-02 23:00;CYQF 022300Z 22004KT 15SM FEW040 SCT220 06/M04 A2977 RMK CU2CI1 SLP113

CYQF;2015-11-03 00:00;CYQF 030000Z 15003KT 15SM SCT049 BKN220 04/M03 A2977 RMK CU3CI2 SLP118

CYQF;2015-11-03 01:00;CYQF 030100Z VRB03KT 15SM FEW040 SCT220 02/M02 A2979 RMK CU1CI3 SLP131

CYQF;2015-11-03 02:00;CYQF 030200Z 00000KT 15SM FEW080 00/M03 A2980 RMK AC1 AC TR SLP134

CYQF;2015-11-03 03:00;CYQF 030300Z 25002KT 15SM SKC M02/M03 A2980 RMK SLP136

CYQF;2015-11-03 04:00;CYQF 030400Z VRB02KT 15SM SKC M04/M04 A2980 RMK SLP135

CYQF;2015-11-03 05:00;CYQF 030500Z 00000KT 15SM SKC M05/M06 A2981 RMK FROIN SLP139

CYQF;2015-11-03 06:00;CYQF 030600Z 04003KT 15SM SCT100 M05/M06 A2980 RMK AC3 SLP134

CYQF;2015-11-03 07:00;CYQF 030700Z 00000KT 10SM PRFG SCT100 M05/M06 A2980 RMK AC4 SLP131

CYQF;2015-11-03 08:00;CYQF 030800Z 36002KT 8SM PRFG FEW100 M05/M05 A2980 RMK AC2 SLP131

CYQF;2015-11-03 09:00;CYQF 030900Z 15002KT 8SM PRFG FEW100 M06/M06 A2981 RMK AC1 SLP132

CYQF;2015-11-03 10:00;CYQF 031000Z 17004KT 5SM BR FEW100 M07/M08 A2981 RMK AC1 SLP135

CYQF;2015-11-03 11:00;CYQF 031100Z 14002KT 5SM BR SCT100 M07/M08 A2981 RMK AC3 SLP135

CYQF;2015-11-03 12:00;CYQF 031200Z 33006KT 8SM BKN100 M06/M07 A2983 RMK AC6 SLP144

CYQF;2015-11-03 12:40;CYQF 031240Z 28004KT 5SM BR SCT006 OVC100 M05/M05 A2985 RMK ST3AC5 SLP147

CYQF;2015-11-03 13:00;CYQF 031300Z VRB02KT 5SM BR BKN005 OVC100 M04/M04 A2986 RMK ST5AC3 SLP151

CYQF;2015-11-03 14:00;CYQF 031400Z 00000KT 6SM BR BKN007 OVC100 M04/M05 A2986 RMK ST6AC2 FROIN SLP157

CYQF;2015-11-03 15:00;CYQF 031500Z VRB02KT 4SM BR OVC006 M04/M04 A2989 RMK ST8 SLP166

CYQF;2015-11-03 15:46;CYQF 031546Z 35002KT 2 1/2SM BR OVC004 M03/M04 A2990 RMK ST8 SLP169

CYQF;2015-11-03 16:00;CYQF 031600Z 00000KT 2 1/2SM BR OVC005 M03/M04 A2990 RMK ST8 SLP173

CYQF;2015-11-03 16:51;CYQF 031651Z 00000KT 2SM BR OVC004 M03/M03 A2991 RMK ST8 SLP176

CYQF;2015-11-03 17:00;CYQF 031700Z VRB02KT 1 1/2SM BR OVC004 M03/M03 A2991 RMK ST8 SLP177

CYQF;2015-11-03 17:19;CYQF 031719Z 00000KT 1SM BR OVC004 M02/M03 A2991 RMK ST8 SLP178

CYQF;2015-11-03 18:00;CYQF 031800Z 16003KT 110V220 1SM BR OVC004 M02/M02 A2992 RMK ST8 SLP180

CYQF;2015-11-03 19:00;CYQF 031900Z 23002KT 1SM BR OVC005 M01/M02 A2992 RMK ST8 SLP180

CYQF;2015-11-03 19:38;CYQF 031938Z 29004KT 2SM BR OVC008 M01/M01 A2992 RMK ST8 SLP178

CYQF;2015-11-03 20:00;CYQF 032000Z 26004KT 250V310 3SM BR OVC009 M01/M02 A2992 RMK ST8 SLP179

CYQF;2015-11-03 21:00;CYQF 032100Z VRB03KT 6SM BR OVC009 M01/M02 A2993 RMK ST8 SLP182

CYQF;2015-11-03 22:00;CYQF 032200Z 03003KT 350V060 6SM BR OVC009 M00/M02 A2994 RMK ST8 SLP188

CYQF;2015-11-03 22:28;CYQF 032228Z 03005KT 8SM SCT009 OVC012 M00/M02 A2995 RMK SF4SC4 SLP190

CYQF;2015-11-03 23:00;CYQF 032300Z 06005KT 010V080 8SM OVC011 M00/M02 A2996 RMK SC8 SLP194

CYQF;2015-11-04 00:00;CYQF 040000Z 06003KT 8SM OVC011 M00/M02 A2998 RMK SC8 SLP199

CYQF;2015-11-04 01:00;CYQF 040100Z 14003KT 10SM OVC012 M00/M02 A2999 RMK SC8 SLP202

CYQF;2015-11-04 02:00;CYQF 040200Z 15004KT 12SM OVC013 M01/M02 A3001 RMK SC8 SLP207

CYQF;2015-11-04 03:00;CYQF 040300Z 19004KT 12SM OVC017 M01/M02 A3001 RMK SC8 SLP207

CYQF;2015-11-04 04:00;CYQF 040400Z 17005KT 15SM OVC017 M01/M02 A3001 RMK SC8 SLP209

CYQF;2015-11-04 05:00;CYQF 040500Z 13005KT 110V210 15SM OVC018 M01/M03 A3001 RMK SC8 SLP206

CYQF;2015-11-04 06:00;CYQF 040600Z 22002KT 15SM OVC019 M02/M03 A3000 RMK SC8 SLP204

CYQF;2015-11-04 07:00;CYQF 040700Z 17004KT 15SM OVC015 M02/M03 A2999 RMK SC8 SLP199

CYQF;2015-11-04 07:31;CYQF 040731Z 20005KT 15SM OVC012 M01/M03 A2998 RMK SC8 SLP195

CYQF;2015-11-04 08:00;CYQF 040800Z 23004KT 170V240 15SM OVC013 M01/M04 A2997 RMK SC8 SLP191

CYQF;2015-11-04 09:00;CYQF 040900Z 17005KT 15SM OVC013 M02/M04 A2996 RMK SC8 SLP188

CYQF;2015-11-04 10:00;CYQF 041000Z 18005KT 15SM SCT013 M04/M05 A2994 RMK SC4 SLP184

CYQF;2015-11-04 11:00;CYQF 041100Z 17006KT 15SM SKC M06/M07 A2993 RMK SLP183

CYQF;2015-11-04 11:25;CYQF 041125Z 15007KT 2SM BR SCT002 M06/M07 A2993 RMK ST3 SLP183

CYQF;2015-11-04 12:00;CYQF 041200Z 17007KT 1/2SM FZFG OVC002 M05/M05 A2992 RMK ST8 SLP176

CYQF;2015-11-04 12:13;CYQF 041213Z 17007KT 2SM BR OVC003 M05/M05 A2991 RMK ST8 SLP175

CYQF;2015-11-04 12:35;CYQF 041235Z 18006KT 1/2SM FZFG OVC002 M05/M05 A2992 RMK ST8 SLP178

CYQF;2015-11-04 13:00;CYQF 041300Z 17006KT 1/2SM FZFG OVC002 M05/M05 A2991 RMK ST8 VIS VRB 1/4-3/4 SLP173

CYQF;2015-11-04 14:00;CYQF 041400Z 15005KT 1/4SM FZFG OVC002 M06/M06 A2990 RMK ST8 FROIN SLP172

CYQF;2015-11-04 14:16;CYQF 041416Z 13004KT 1/2SM FZFG SCT120 M07/M08 A2989 RMK FG3AC1 AC TR SLP172

CYQF;2015-11-04 14:31;CYQF 041431Z 16002KT 1SM BR FEW120 M08/M08 A2990 RMK FG2AC1 AC TR SLP173

CYQF;2015-11-04 15:00;CYQF 041500Z 16005KT 3SM BR FEW120 M08/M09 A2990 RMK AC1 AC TR SLP173

CYQF;2015-11-04 15:37;CYQF 041537Z 22003KT 6SM BR FEW230 M06/M07 A2991 RMK CI1 VIS LWR N SLP175

CYQF;2015-11-04 16:00;CYQF 041600Z 19005KT 6SM BR FEW230 M05/M06 A2990 RMK CI1 SLP172

CYQF;2015-11-04 17:00;CYQF 041700Z 19007KT 10SM FEW230 M03/M05 A2988 RMK CI1 SLP164

CYQF;2015-11-04 18:00;CYQF 041800Z 22007KT 12SM FEW230 M02/M05 A2987 RMK CI1 SLP160

CYQF;2015-11-04 19:00;CYQF 041900Z 20006KT 15SM FEW230 00/M05 A2986 RMK CI2 SLP151

CYQF;2015-11-04 20:00;CYQF 042000Z 20005KT 180V250 15SM FEW230 02/M04 A2983 RMK CI1 SLP141

CYQF;2015-11-04 21:00;CYQF 042100Z 22003KT 190V280 15SM SCT230 03/M05 A2982 RMK CI4 SLP137

CYQF;2015-11-04 22:00;CYQF 042200Z VRB02KT 15SM SCT230 03/M05 A2981 RMK CI4 SLP135

CYQF;2015-11-04 23:00;CYQF 042300Z 20004KT 15SM FEW100 BKN230 03/M05 A2981 RMK AC2CI3 SLP137

CYQF;2015-11-05 00:00;CYQF 050000Z 15004KT 15SM FEW100 SCT230 00/M06 A2981 RMK AC2CI1 SLP139

CYQF;2015-11-05 01:00;CYQF 050100Z 18004KT 15SM SCT090 BKN230 00/M06 A2981 RMK AC4CI1 SLP140

CYQF;2015-11-05 02:00;CYQF 050200Z 14002KT 15SM SCT090 M03/M06 A2981 RMK AC3 SLP142

CYQF;2015-11-05 03:00;CYQF 050300Z 21006KT 15SM SKC M03/M07 A2981 RMK SLP145

CYQF;2015-11-05 04:00;CYQF 050400Z 21006KT 15SM SKC M05/M08 A2980 RMK SLP143

CYQF;2015-11-05 05:00;CYQF 050500Z 23002KT 15SM SCT120 M05/M08 A2981 RMK AC4 SLP143

CYQF;2015-11-05 06:00;CYQF 050600Z 22006KT 15SM SCT120 M05/M07 A2981 RMK AC4 SLP140

CYQF;2015-11-05 07:00;CYQF 050700Z 15003KT 130V280 15SM BKN120 M04/M07 A2981 RMK AC6 SLP140

CYQF;2015-11-05 08:00;CYQF 050800Z 20005KT 15SM OVC087 M05/M08 A2980 RMK AC8 SLP135

CYQF;2015-11-05 09:00;CYQF 050900Z 18004KT 15SM BKN087 M06/M09 A2980 RMK AC6 SLP135

CYQF;2015-11-05 10:00;CYQF 051000Z 25004KT 15SM FEW087 BKN230 M06/M09 A2980 RMK AC2CI3 SLP134

CYQF;2015-11-05 11:00;CYQF 051100Z 21005KT 15SM FEW087 BKN230 M06/M09 A2980 RMK AC2CI4 SLP135

CYQF;2015-11-05 12:00;CYQF 051200Z 19006KT 15SM BKN100 M05/M08 A2981 RMK AC6 SLP139

CYQF;2015-11-05 13:00;CYQF 051300Z 18002KT 15SM BKN110 M06/M08 A2981 RMK AC7 SLP141

CYQF;2015-11-05 14:00;CYQF 051400Z 21006KT 15SM BKN110 M05/M08 A2982 RMK AC7 SLP145

CYQF;2015-11-05 15:00;CYQF 051500Z 18002KT 15SM SCT075 BKN110 M04/M07 A2984 RMK AC4AC3 SLP152

CYQF;2015-11-05 16:00;CYQF 051600Z 21004KT 15SM SCT060 OVC110 M02/M06 A2986 RMK SC4AC4 VIRGA SLP158

CYQF;2015-11-05 17:00;CYQF 051700Z 28004KT 15SM SCT060 OVC110 00/M05 A2988 RMK SC4AC4 VIRGA SLP162

CYQF;2015-11-05 18:00;CYQF 051800Z CCA 31004KT 7SM VCSH OVC045 02/M03 A2989 RMK SC8 SLP166

CYQF;2015-11-05 18:16;CYQF 051816Z 29006KT 7SM -SN OVC039 02/M03 A2990 RMK SC8 SLP167

CYQF;2015-11-05 18:33;CYQF 051833Z 30007KT 15SM FEW020 BKN110 BKN220 02/M03 A2989 RMK SC2AC3CI2 SLP165

CYQF;2015-11-05 19:00;CYQF 051900Z 32008KT 15SM SCT020 BKN100 BKN250 03/M02 A2989 RMK SC3AC3CI1 SLP164

CYQF;2015-11-05 20:00;CYQF 052000Z 29006KT 15SM FEW020 BKN050 BKN070 02/M02 A2990 RMK SC2SC4AC1 VIRGA SLP168

CYQF;2015-11-05 21:00;CYQF 052100Z 30008KT 15SM BKN065 BKN110 03/M02 A2991 RMK SC5AC2 SLP171

CYQF;2015-11-05 22:00;CYQF 052200Z 32007KT 15SM SCT040 BKN080 04/M02 A2992 RMK SC3AC4 SLP173

CYQF;2015-11-05 23:00;CYQF 052300Z 32009KT 14SM BKN030 BKN070 03/M02 A2994 RMK SC5AC2 SLP181

CYQF;2015-11-06 00:00;CYQF 060000Z 35009KT 15SM SCT030 BKN040 03/M03 A2996 RMK SC3SC4 SLP189

CYQF;2015-11-06 01:00;CYQF 060100Z 34010KT 15SM BKN040 BKN100 02/M02 A2999 RMK SC6AC1 SLP200

CYQF;2015-11-06 02:00;CYQF 060200Z 34008KT 15SM OVC036 01/M02 A3001 RMK SC8 SLP206

CYQF;2015-11-06 03:00;CYQF 060300Z 31003KT 15SM BKN040 OVC100 00/M02 A3002 RMK SC7AC1 SLP211

CYQF;2015-11-06 04:00;CYQF 060400Z 28004KT 15SM FEW020 OVC040 00/M02 A3004 RMK SC1SC7 SLP215

CYQF;2015-11-06 05:00;CYQF 060500Z 27005KT 15SM OVC047 00/M02 A3005 RMK SC8 SLP215

CYQF;2015-11-06 06:00;CYQF 060600Z 26006KT 15SM OVC050 M01/M02 A3005 RMK SC8 SLP214

CYQF;2015-11-06 07:00;CYQF 060700Z 25006KT 15SM SCT042 OVC100 M01/M02 A3004 RMK SC4AC4 SLP211

CYQF;2015-11-06 08:00;CYQF 060800Z 27006KT 15SM SCT024 BKN042 OVC100 M01/M02 A3005 RMK SC3SC2AC3 SLP214

CYQF;2015-11-06 09:00;CYQF 060900Z 29005KT 15SM FEW024 BKN060 OVC100 M00/M02 A3005 RMK SC1SC6AC1 SLP214

CYQF;2015-11-06 10:00;CYQF 061000Z 21006KT 15SM FEW060 BKN087 M04/M05 A3005 RMK SC1AC5 SLP217

CYQF;2015-11-06 11:00;CYQF 061100Z 21004KT 15SM FEW060 BKN087 M04/M04 A3004 RMK SC1AC5 FROIN SLP215

CYQF;2015-11-06 12:00;CYQF 061200Z 22005KT 15SM BKN081 M04/M05 A3003 RMK AC7 SLP213

CYQF;2015-11-06 13:00;CYQF 061300Z 20004KT 15SM SCT081 M05/M06 A3003 RMK AC3 SLP213

CYQF;2015-11-06 14:00;CYQF 061400Z 20002KT 15SM FEW075 M07/M08 A3002 RMK AC2 SLP215

CYQF;2015-11-06 15:00;CYQF 061500Z 19004KT 15SM SKC M07/M08 A3002 RMK SLP216

CYQF;2015-11-06 16:00;CYQF 061600Z 19004KT 15SM SKC M05/M06 A3002 RMK FROIN SLP211

CYQF;2015-11-06 17:00;CYQF 061700Z 21006KT 15SM SKC M02/M04 A3001 RMK SLP205

CYQF;2015-11-06 18:00;CYQF 061800Z 19008KT 15SM SKC 01/M04 A2998 RMK SLP192

CYQF;2015-11-06 19:00;CYQF 061900Z 20011KT 15SM FEW240 04/M04 A2995 RMK CI2 SLP180

CYQF;2015-11-06 20:00;CYQF 062000Z 18007KT 170V230 15SM SCT250 06/M09 A2994 RMK CI3 SLP171

CYQF;2015-11-06 21:00;CYQF 062100Z 19008KT 15SM BKN250 07/M10 A2991 RMK CI5 SLP160

CYQF;2015-11-06 22:00;CYQF 062200Z 18013KT 15SM FEW140 BKN250 08/M11 A2989 RMK AC2CI4 SLP157

CYQF;2015-11-06 23:00;CYQF 062300Z 18006KT 15SM SCT140 BKN210 06/M09 A2987 RMK AC3CI4 SLP152

CYQF;2015-11-07 00:00;CYQF 070000Z 16005KT 15SM BKN110 BKN210 03/M09 A2985 RMK AC5CI2 SLP148

CYQF;2015-11-07 01:00;CYQF 070100Z 18006KT 15SM BKN110 BKN160 03/M08 A2983 RMK AC5AC2 SLP144

CYQF;2015-11-07 02:00;CYQF 070200Z 18008KT 15SM FEW110 BKN160 02/M07 A2981 RMK AC1AC5 SLP141

CYQF;2015-11-07 03:00;CYQF 070300Z 19006KT 15SM BKN180 M00/M07 A2981 RMK AC5 SLP141

CYQF;2015-11-07 04:00;CYQF 070400Z 17005KT 15SM BKN080 BKN120 M01/M06 A2979 RMK AC5AC1 SLP135

CYQF;2015-11-07 05:00;CYQF 070500Z 20007KT 15SM FEW090 OVC180 01/M06 A2979 RMK AC1AC7 SLP128

CYQF;2015-11-07 06:00;CYQF 070600Z 21006KT 15SM FEW090 BKN150 01/M04 A2977 RMK AC1AC6 SLP119

CYQF;2015-11-07 07:00;CYQF 070700Z 19008KT 15SM FEW090 01/M04 A2976 RMK AC1 AURBO SLP109

CYQF;2015-11-07 08:00;CYQF 070800Z 20005KT 15SM FEW140 01/M04 A2976 RMK AC2 SLP108

CYQF;2015-11-07 09:00;CYQF 070900Z 15003KT 15SM BKN150 01/M04 A2975 RMK AC6 SLP105

CYQF;2015-11-07 10:00;CYQF 071000Z 20007KT 15SM SCT150 M01/M04 A2974 RMK AC4 SLP101

CYQF;2015-11-07 11:00;CYQF 071100Z 20005KT 15SM BKN170 01/M03 A2973 RMK AC6 SLP097

CYQF;2015-11-07 12:00;CYQF 071200Z 23011KT 15SM BKN160 05/M02 A2970 RMK AC7 SLP088

CYQF;2015-11-07 13:00;CYQF 071300Z 24008KT 15SM SCT160 OVC240 05/M02 A2970 RMK AC4CI4 SLP087

CYQF;2015-11-07 14:00;CYQF 071400Z 21007KT 15SM SCT160 OVC240 04/M03 A2967 RMK AC3CI5 SLP081

CYQF;2015-11-07 15:00;CYQF 071500Z 22006KT 15SM SCT160 BKN220 06/M01 A2967 RMK AC3CI4 SLP080

CYQF;2015-11-07 16:00;CYQF 071600Z 21006KT 15SM FEW120 BKN220 07/M01 A2968 RMK AC2CI4 SLP081 DENSITY ALT 3000FT

CYQF;2015-11-07 17:00;CYQF 071700Z VRB02KT 15SM FEW120 BKN220 05/M01 A2967 RMK AC2CI4 SLP080

CYQF;2015-11-07 18:00;CYQF 071800Z 28003KT 15SM FEW032 FEW100 SCT220 08/M00 A2968 RMK SC1AC1CI2 SLP078 DENSITY ALT 3100FT

CYQF;2015-11-07 19:00;CYQF 071900Z 25005KT 15SM FEW045 FEW100 BKN250 11/M00 A2967 RMK SC1AC2CI3 SC TR SLP073 DENSITY ALT 3500FT

CYQF;2015-11-07 20:00;CYQF 072000Z 24002KT 15SM FEW045 FEW100 BKN250 13/00 A2965 RMK SC1AC1CI3 SLP063 DENSITY ALT 3700FT

CYQF;2015-11-07 21:00;CYQF 072100Z 24002KT 15SM FEW045 FEW100 BKN250 11/01 A2964 RMK SC1AC1CI5 SC TR SLP060 DENSITY ALT 3500FT

CYQF;2015-11-07 22:00;CYQF 072200Z 14005KT 130V260 15SM FEW040 FEW100 BKN250 10/02 A2963 RMK SC1AC1CI5 SC TR AC TR SLP059 DENSITY ALT 3400FT

CYQF;2015-11-07 23:00;CYQF 072300Z 19003KT 15SM FEW040 SCT100 BKN220 11/01 A2962 RMK SC1AC3CI3 SLP053 DENSITY ALT 3400FT

CYQF;2015-11-08 00:00;CYQF 080000Z 00000KT 15SM FEW040 SCT100 BKN220 09/01 A2961 RMK SC1AC2CI3 SLP049 DENSITY ALT 3300FT

CYQF;2015-11-08 01:00;CYQF 080100Z 16004KT 15SM FEW040 SCT100 04/M01 A2962 RMK SC1AC3 SLP056

CYQF;2015-11-08 02:00;CYQF 080200Z VRB04KT 15SM FEW100 04/M00 A2961 RMK AC1 SLP057

CYQF;2015-11-08 03:00;CYQF 080300Z 00000KT 15SM FEW100 M01/M03 A2962 RMK AC1 SLP063

CYQF;2015-11-08 04:00;CYQF 080400Z 00000KT 15SM FEW100 M02/M04 A2962 RMK AC1 SLP062

CYQF;2015-11-08 05:00;CYQF 080500Z 34003KT 290V020 15SM SKC M02/M03 A2964 RMK SLP070

CYQF;2015-11-08 06:00;CYQF 080600Z 33007KT 15SM SKC M03/M05 A2966 RMK SLP074

CYQF;2015-11-08 07:00;CYQF 080700Z 31005KT 15SM SKC M01/M02 A2968 RMK SLP076

CYQF;2015-11-08 08:00;CYQF 080800Z 31004KT 15SM SKC M01/M01 A2967 RMK FROIN SLP073

CYQF;2015-11-08 09:00;CYQF 080900Z 33005KT 15SM SKC M01/M02 A2968 RMK FROIN SLP077

CYQF;2015-11-08 10:00;CYQF 081000Z 26004KT 15SM FEW150 M01/M02 A2969 RMK AC2 FROIN SLP082

CYQF;2015-11-08 11:00;CYQF 081100Z 36002KT 15SM BKN110 M03/M03 A2967 RMK AC5 FROIN SLP078

CYQF;2015-11-08 11:39;CYQF 081139Z 32002KT 6SM BR OVC130 M01/M01 A2967 RMK AC8 SLP074

CYQF;2015-11-08 12:00;CYQF 081200Z 23002KT 3SM BR OVC130 M03/M03 A2967 RMK FG2AC6 SLP077

CYQF;2015-11-08 12:08;CYQF 081208Z 27004KT 2 1/2SM BR OVC130 M02/M03 A2967 RMK FG2AC6 SLP078

CYQF;2015-11-08 12:19;CYQF 081219Z 25002KT 6SM BR FEW004 OVC140 M02/M03 A2966 RMK FG1ST1AC6 SLP075

CYQF;2015-11-08 13:00;CYQF 081300Z 27004KT 6SM BR SCT004 OVC150 M03/M03 A2966 RMK ST4AC4 SLP081

CYQF;2015-11-08 13:32;CYQF 081332Z 29005KT 10SM SCT004 BKN150 M02/M03 A2966 RMK ST4AC3 SLP080

CYQF;2015-11-08 14:00;CYQF 081400Z 02003KT 6SM BR SCT004 BKN140 M04/M04 A2965 RMK ST3AC4 SLP076

CYQF;2015-11-08 14:31;CYQF 081431Z VRB02KT 1SM BR OVC140 M04/M04 A2964 RMK FG4AC4 SLP076

CYQF;2015-11-08 15:00;CYQF 081500Z 24004KT 1/2SM FZFG VV004 M03/M03 A2966 RMK FG8 SLP086

CYQF;2015-11-08 15:21;CYQF 081521Z 29003KT 1 1/2SM BR BKN003 OVC120 M02/M02 A2966 RMK ST5AC3 SLP084

CYQF;2015-11-08 15:45;CYQF 081545Z 06003KT 360V090 1/2SM FZFG VV003 M01/M02 A2965 RMK FG8 FROIN SLP080

CYQF;2015-11-08 16:00;CYQF 081600Z 06002KT 1/2SM FZFG VV003 M01/M01 A2965 RMK FG8 SLP080

CYQF;2015-11-08 16:10;CYQF 081610Z VRB02KT 1/4SM FZFG VV002 M01/M01 A2965 RMK FG8 FROIN SLP079

CYQF;2015-11-08 17:00;CYQF 081700Z 05003KT 1/4SM FZFG VV002 M01/M01 A2964 RMK FG8 SLP078

CYQF;2015-11-08 17:18;CYQF 081718Z 29004KT 1SM BR VV004 M01/M01 A2965 RMK FG8 SLP082

CYQF;2015-11-08 17:30;CYQF 081730Z 31004KT 3SM BR SCT005 OVC100 M00/M01 A2966 RMK ST4AC4 SLP082

CYQF;2015-11-08 18:00;CYQF 081800Z 02006KT 5SM BR BKN006 OVC100 01/00 A2965 RMK ST5AC3 SLP081

CYQF;2015-11-08 19:00;CYQF 081900Z 36006KT 5SM BR SCT009 BKN085 02/00 A2965 RMK ST4AC3 SLP075

CYQF;2015-11-08 20:00;CYQF 082000Z 36007KT 10SM SCT013 OVC080 02/M00 A2965 RMK SC3AC5 SLP076

CYQF;2015-11-08 20:52;CYQF 082052Z 34006KT 10SM -SG SCT018 BKN080 02/M01 A2966 RMK SC3AC4 SLP080

CYQF;2015-11-08 21:00;CYQF 082100Z 34008KT 10SM -SHGS SCT018 OVC080 02/M01 A2966 RMK SC4AC4 CVCTV CLD EMBD SLP081

CYQF;2015-11-08 21:57;CYQF 082157Z 34007KT 7SM -RA BKN012 OVC080 02/M00 A2968 RMK SC5AC3 SLP089

CYQF;2015-11-08 22:00;CYQF 082200Z 33008KT 7SM -RA BKN012 OVC080 02/M00 A2968 RMK SC6AC2 SLP089

CYQF;2015-11-08 22:21;CYQF 082221Z 35008KT 10SM OVC012 02/M00 A2970 RMK SC8 CIG RAG SLP094

CYQF;2015-11-08 23:00;CYQF 082300Z 32008KT 10SM OVC012 02/00 A2971 RMK SC8 SLP101

CYQF;2015-11-09 00:00;CYQF 090000Z 33012KT 12SM OVC012 02/00 A2973 RMK SC8 SLP108

CYQF;2015-11-09 00:19;CYQF 090019Z 33011KT 12SM OVC009 02/00 A2975 RMK SC8 SLP113

CYQF;2015-11-09 00:26;CYQF 090026Z 33012KT 10SM OVC006 01/00 A2975 RMK SF8 SLP115

CYQF;2015-11-09 01:00;CYQF 090100Z 34008KT 6SM BR OVC006 01/00 A2976 RMK SF8 SLP119

CYQF;2015-11-09 01:24;CYQF 090124Z 35009KT 2SM BR OVC003 01/00 A2977 RMK SF8 SLP121

CYQF;2015-11-09 01:39;CYQF 090139Z 34007KT 2SM -DZ BR OVC004 01/00 A2977 RMK SF8 SLP122

CYQF;2015-11-09 02:00;CYQF 090200Z 34008KT 1 1/2SM -DZ BR OVC003 01/00 A2977 RMK SF8 SLP123

CYQF;2015-11-09 03:00;CYQF 090300Z 36007KT 1 1/2SM -DZ BR BKN003 OVC009 00/M00 A2981 RMK SF6SC2 SLP135

CYQF;2015-11-09 03:13;CYQF 090313Z 36008KT 4SM BR SCT003 OVC009 00/M00 A2981 RMK SF4SC4 SLP137

CYQF;2015-11-09 03:38;CYQF 090338Z 35005KT 6SM BR FEW003 OVC007 01/M00 A2982 RMK SF2SF6 SLP141

CYQF;2015-11-09 04:00;CYQF 090400Z 34006KT 10SM OVC007 00/M00 A2983 RMK SF8 SLP141

CYQF;2015-11-09 05:00;CYQF 090500Z 33007KT 10SM OVC006 01/M00 A2985 RMK SF8 SLP146

CYQF;2015-11-09 05:25;CYQF 090525Z 33008KT 10SM OVC009 00/M00 A2985 RMK SF8 SLP147

CYQF;2015-11-09 06:00;CYQF 090600Z 33006KT 10SM OVC009 00/M01 A2986 RMK SF8 SLP148

CYQF;2015-11-09 07:00;CYQF 090700Z 33010KT 8SM OVC006 00/M01 A2987 RMK SF8 SLP152

CYQF;2015-11-09 08:00;CYQF 090800Z 35005KT 8SM OVC006 M00/M01 A2988 RMK SF8 SLP157

CYQF;2015-11-09 09:00;CYQF 090900Z 33003KT 8SM OVC006 M00/M01 A2990 RMK SF8 SLP164

CYQF;2015-11-09 10:00;CYQF 091000Z 32007KT 10SM OVC009 M00/M02 A2991 RMK SF8 SLP168

CYQF;2015-11-09 11:00;CYQF 091100Z 32008KT 10SM SCT009 OVC015 M00/M02 A2992 RMK SF4SC4 SLP168

CYQF;2015-11-09 12:00;CYQF 091200Z 35004KT 15SM OVC016 00/M02 A2993 RMK SC8 SLP173

CYQF;2015-11-09 12:44;CYQF 091244Z 00000KT 10SM OVC012 M00/M02 A2993 RMK SC8 SLP174

CYQF;2015-11-09 13:00;CYQF 091300Z VRB02KT 10SM OVC013 M01/M02 A2994 RMK SC8 SLP179

CYQF;2015-11-09 14:00;CYQF 091400Z 33003KT 10SM OVC014 M00/M02 A2995 RMK SC8 SLP181

CYQF;2015-11-09 15:00;CYQF 091500Z 32002KT 6SM BR OVC018 M00/M02 A2997 RMK SC8 SLP188

CYQF;2015-11-09 16:00;CYQF 091600Z 34005KT 10SM BKN023 OVC250 M00/M02 A2997 RMK SC7CI1 SLP188

CYQF;2015-11-09 17:00;CYQF 091700Z 36005KT 15SM BKN023 00/M02 A2997 RMK SC7 SLP190

CYQF;2015-11-09 18:00;CYQF 091800Z 02006KT 15SM BKN023 BKN120 00/M03 A2998 RMK SC6AC1 SLP192

CYQF;2015-11-09 19:00;CYQF 091900Z VRB05KT 15SM BKN019 01/M04 A2998 RMK SC7 SLP190

CYQF;2015-11-09 20:00;CYQF 092000Z 00000KT 15SM BKN024 01/M05 A2997 RMK SC7 SLP190

CYQF;2015-11-09 21:00;CYQF 092100Z 00000KT 15SM BKN029 01/M05 A2998 RMK SC6 SLP191

CYQF;2015-11-09 22:00;CYQF 092200Z 00000KT 15SM SCT030 BKN120 01/M06 A2997 RMK SC4AC2 SLP187

CYQF;2015-11-09 23:00;CYQF 092300Z 14002KT 15SM SCT030 BKN120 01/M05 A2997 RMK SC3AC2 SLP188

CYQF;2015-11-10 00:00;CYQF 100000Z 13002KT 15SM FEW040 SCT120 M02/M06 A2997 RMK SC1AC3 SLP190

CYQF;2015-11-10 01:00;CYQF 100100Z 10006KT 15SM FEW040 M04/M07 A2996 RMK SC2 SLP192

CYQF;2015-11-10 02:00;CYQF 100200Z 21005KT 15SM SKC M05/M07 A2997 RMK SLP194

CYQF;2015-11-10 03:00;CYQF 100300Z 20003KT 15SM SKC M07/M09 A2997 RMK SLP196

CYQF;2015-11-10 04:00;CYQF 100400Z 20005KT 15SM SKC M08/M10 A2998 RMK SLP202

CYQF;2015-11-10 05:00;CYQF 100500Z 19006KT 15SM SKC M08/M09 A2997 RMK SLP199

CYQF;2015-11-10 06:00;CYQF 100600Z 20006KT 15SM SKC M07/M09 A2997 RMK SLP198

CYQF;2015-11-10 07:00;CYQF 100700Z 20006KT 15SM SKC M08/M09 A2996 RMK FROIN SLP193

CYQF;2015-11-10 08:00;CYQF 100800Z 19006KT 15SM SKC M09/M10 A2995 RMK FROIN SLP191

CYQF;2015-11-10 09:00;CYQF 100900Z 18005KT 15SM SKC M08/M10 A2993 RMK FROIN SLP184

CYQF;2015-11-10 10:00;CYQF 101000Z 18005KT 10SM SKC M09/M10 A2993 RMK FROIN SLP182

CYQF;2015-11-10 11:00;CYQF 101100Z 17005KT 10SM SKC M10/M11 A2991 RMK FROIN SLP180

CYQF;2015-11-10 11:55;CYQF 101155Z 19006KT 1SM BR BKN002 M09/M10 A2990 RMK ST6 FROIN SLP173

CYQF;2015-11-10 12:00;CYQF 101200Z 19006KT 1SM BR BKN002 M09/M09 A2990 RMK ST7 FROIN SLP176

CYQF;2015-11-10 13:00;CYQF 101300Z 16007KT 1SM BR OVC002 M08/M08 A2989 RMK ST8 VIS VRB 3/4-11/4 FROIN SLP174

CYQF;2015-11-10 13:33;CYQF 101333Z 18006KT 4SM BR SCT002 M08/M09 A2989 RMK ST3 FROIN SLP174

CYQF;2015-11-10 14:00;CYQF 101400Z 19004KT 6SM BR SKC M10/M12 A2989 RMK VIS NW-N 2 FROIN SLP178

CYQF;2015-11-10 15:00;CYQF 101500Z 17005KT 6SM BR SKC M12/M14 A2988 RMK VIS NW-N 3 FROIN SLP181

CYQF;2015-11-10 16:00;CYQF 101600Z 19005KT 6SM BR FEW250 M09/M10 A2988 RMK CI1 VIS W-N 3 FROIN SLP179

CYQF;2015-11-10 17:00;CYQF 101700Z 17007KT 10SM FEW250 M06/M08 A2988 RMK CI2 SLP173

CYQF;2015-11-10 18:00;CYQF 101800Z 16008KT 10SM FEW250 M03/M06 A2986 RMK CI2 SLP164

CYQF;2015-11-10 19:00;CYQF 101900Z 17009KT 15SM FEW250 M01/M05 A2984 RMK CI2 SLP155

CYQF;2015-11-10 20:00;CYQF 102000Z 16011KT 15SM SCT250 01/M05 A2982 RMK CI3 SLP145

CYQF;2015-11-10 21:00;CYQF 102100Z 17010KT 15SM BKN250 02/M04 A2979 RMK CI5 SLP134

CYQF;2015-11-10 22:00;CYQF 102200Z 16009KT 12SM BKN250 03/M04 A2976 RMK CI6 CONTRAILS SLP123

CYQF;2015-11-10 23:00;CYQF 102300Z 16008KT 15SM BKN250 02/M05 A2974 RMK CI6 SLP119

CYQF;2015-11-11 00:00;CYQF 110000Z 16009KT 15SM SCT250 M00/M06 A2973 RMK CI4 SLP116

CYQF;2015-11-11 01:00;CYQF 110100Z 17006KT 15SM SCT250 M03/M06 A2972 RMK CI3 SLP114

CYQF;2015-11-11 02:00;CYQF 110200Z 17010KT 14SM FEW250 M03/M06 A2969 RMK CI2 SLP108

CYQF;2015-11-11 03:00;CYQF 110300Z 16014KT 15SM FEW250 M03/M06 A2966 RMK CI2 SLP099

CYQF;2015-11-11 04:00;CYQF 110400Z 17008KT 15SM BKN220 M04/M06 A2964 RMK CI5 SLP088

CYQF;2015-11-11 05:00;CYQF 110500Z 18007KT 15SM SCT150 BKN220 M03/M07 A2960 RMK AC3CI3 SLP073

CYQF;2015-11-11 06:00;CYQF 110600Z 19008KT 15SM BKN130 BKN220 M02/M07 A2958 RMK AC5CI2 SLP059

CYQF;2015-11-11 07:00;CYQF 110700Z 18009KT 15SM OVC120 M02/M07 A2956 RMK AC8 SLP048

CYQF;2015-11-11 08:00;CYQF 110800Z 18005KT 15SM OVC120 M02/M06 A2953 RMK AC8 SLP038

CYQF;2015-11-11 09:00;CYQF 110900Z VRB02KT 15SM OVC170 M03/M06 A2953 RMK AC8 SLP037

CYQF;2015-11-11 10:00;CYQF 111000Z 21002KT 15SM OVC220 M04/M07 A2955 RMK CI8 SLP044

CYQF;2015-11-11 11:00;CYQF 111100Z 22003KT 15SM OVC210 M03/M06 A2954 RMK CI8 SLP041

CYQF;2015-11-11 12:00;CYQF 111200Z 25003KT 15SM OVC210 03/M08 A2955 RMK CI8 SLP039

CYQF;2015-11-11 13:00;CYQF 111300Z 03005KT 010V180 15SM BKN180 M03/M08 A2956 RMK AC6 SLP052

CYQF;2015-11-11 14:00;CYQF 111400Z 03006KT 15SM SCT200 M04/M08 A2959 RMK CI4 SLP065

CYQF;2015-11-11 15:00;CYQF 111500Z 35009KT 15SM SCT100 BKN150 02/M07 A2965 RMK AC4AC3 SLP078

CYQF;2015-11-11 16:00;CYQF 111600Z 36008KT 15SM BKN090 BKN150 02/M04 A2966 RMK AC5AC2 SLP085

CYQF;2015-11-11 17:00;CYQF 111700Z 34012G17KT 4SM VCSH OVC038 02/M03 A2971 RMK SC8 SLP102

CYQF;2015-11-11 17:08;CYQF 111708Z 33012G17KT 2 1/2SM -SN OVC044 01/M02 A2972 RMK SC8 SLP103

CYQF;2015-11-11 17:39;CYQF 111739Z 33012KT 1SM -SN VV007 01/M01 A2973 RMK SN8 SLP110

CYQF;2015-11-11 18:02;CYQF 111802Z 33011G19KT 1SM -SN VV019 00/M01 A2974 RMK SN8 SLP111

CYQF;2015-11-11 18:34;CYQF 111834Z 24006KT 15SM SCT030 OVC065 01/M01 A2973 RMK SC4SC4 SLP106

CYQF;2015-11-11 19:00;CYQF 111900Z 24006KT 15SM FEW030 BKN065 BKN100 01/M01 A2972 RMK SC2SC4AC1 SLP104

CYQF;2015-11-11 20:00;CYQF 112000Z 26009KT 15SM FEW030 SCT080 BKN250 03/00 A2974 RMK SC1AC3CI3 SLP109

CYQF;2015-11-11 21:00;CYQF 112100Z 24006KT 15SM SCT140 BKN220 03/00 A2975 RMK ACC3CI3 SLP112

CYQF;2015-11-11 22:00;CYQF 112200Z 27002KT 15SM SCT100 BKN180 03/M01 A2975 RMK AC3AC3 SLP115

CYQF;2015-11-11 23:00;CYQF 112300Z 21005KT 15SM BKN100 OVC180 01/M02 A2979 RMK AC5AC3 VIRGA SLP128

CYQF;2015-11-11 23:50;CYQF 112350Z 24005KT 15SM -SN BKN080 OVC220 02/M03 A2981 RMK AC6CI2 SLP134

CYQF;2015-11-12 00:00;CYQF 120000Z 20006KT 10SM -SN BKN080 OVC220 01/M02 A2981 RMK AC6CI2 SLP129

CYQF;2015-11-12 01:00;CYQF 120100Z 22004KT 15SM -SN BKN090 OVC220 00/M06 A2982 RMK AC6CI2 SLP141

CYQF;2015-11-12 01:39;CYQF 120139Z 19006KT 15SM FEW090 BKN220 M02/M05 A2984 RMK AC2CI3 SLP149

CYQF;2015-11-12 02:00;CYQF 120200Z 21007KT 15SM FEW090 SCT220 M03/M05 A2984 RMK AC2CI2 SLP152

CYQF;2015-11-12 03:00;CYQF 120300Z 22011KT 15SM OVC110 00/M03 A2986 RMK AC8 SLP149

CYQF;2015-11-12 04:00;CYQF 120400Z 00000KT 15SM SCT110 BKN220 M01/M04 A2990 RMK AC4CI2 SLP165

CYQF;2015-11-12 05:00;CYQF 120500Z 21004KT 15SM FEW110 SCT220 M04/M07 A2992 RMK AC2CI2 SLP173

CYQF;2015-11-12 06:00;CYQF 120600Z 21003KT 15SM FEW220 M06/M07 A2993 RMK CI2 SLP183

CYQF;2015-11-12 07:00;CYQF 120700Z 21005KT 15SM FEW220 M09/M10 A2994 RMK CI1 SLP188

CYQF;2015-11-12 08:00;CYQF 120800Z 23009KT 15SM SKC M06/M11 A2995 RMK FROIN SLP187

CYQF;2015-11-12 09:00;CYQF 120900Z 23010KT 15SM SKC M07/M11 A2996 RMK SLP191

CYQF;2015-11-12 10:00;CYQF 121000Z 22008KT 15SM SKC M07/M13 A2997 RMK SLP196

CYQF;2015-11-12 11:00;CYQF 121100Z 22008KT 15SM SKC M08/M14 A2998 RMK SLP202

CYQF;2015-11-12 12:00;CYQF 121200Z 23008KT 15SM SKC M07/M13 A2999 RMK SLP202

CYQF;2015-11-12 13:00;CYQF 121300Z 24007KT 15SM SKC M06/M13 A2998 RMK SLP199

CYQF;2015-11-12 14:00;CYQF 121400Z 24006KT 15SM SKC M08/M15 A2998 RMK SLP206

CYQF;2015-11-12 15:00;CYQF 121500Z 19008KT 15SM FEW250 M10/M14 A2998 RMK CI1 SLP204

CYQF;2015-11-12 16:00;CYQF 121600Z 18007KT 15SM SCT250 M08/M12 A2997 RMK CI3 SLP200

CYQF;2015-11-12 17:00;CYQF 121700Z 18006KT 15SM SCT250 M03/M09 A2994 RMK CI3 SLP187

CYQF;2015-11-12 18:00;CYQF 121800Z 19009KT 15SM SCT250 01/M09 A2992 RMK CI4 SLP177

CYQF;2015-11-12 19:00;CYQF 121900Z 19012KT 15SM SCT250 03/M10 A2986 RMK CI4 PRESFR SLP159

CYQF;2015-11-12 20:00;CYQF 122000Z 20012G18KT 15SM BKN250 05/M11 A2981 RMK CI5 PRESFR SLP134

CYQF;2015-11-12 21:00;CYQF 122100Z 19014G20KT 15SM FEW120 BKN250 05/M12 A2976 RMK AC2CI4 SLP119

CYQF;2015-11-12 22:00;CYQF 122200Z 17012KT 15SM SCT120 BKN250 04/M11 A2971 RMK AC3CI4 SLP102

CYQF;2015-11-12 23:00;CYQF 122300Z 17011KT 15SM SCT150 BKN250 03/M09 A2966 RMK AC4CI3 SLP088

CYQF;2015-11-13 00:00;CYQF 130000Z 19013KT 15SM BKN120 BKN250 03/M10 A2962 RMK AC5CI2 SLP072

CYQF;2015-11-13 01:00;CYQF 130100Z CCA 19011KT 15SM OVC160 02/M09 A2958 RMK AC8 SLP059

CYQF;2015-11-13 02:00;CYQF 130200Z 20014G20KT 15SM OVC160 03/M09 A2956 RMK AC8 SLP051

CYQF;2015-11-13 03:00;CYQF 130300Z 20009G16KT 15SM SCT160 BKN240 02/M09 A2952 RMK AC3CI3 SLP041

CYQF;2015-11-13 04:00;CYQF 130400Z 20008KT 15SM BKN140 01/M08 A2951 RMK AC7 SLP037

CYQF;2015-11-13 05:00;CYQF 130500Z 19006KT 15SM BKN140 00/M09 A2949 RMK AC5 SLP025

CYQF;2015-11-13 06:00;CYQF 130600Z 18004KT 15SM BKN140 M01/M08 A2949 RMK AC5 SLP023

CYQF;2015-11-13 07:00;CYQF 130700Z 19008KT 15SM OVC110 03/M08 A2948 RMK AC8 SLP013

CYQF;2015-11-13 08:00;CYQF 130800Z 15005KT 15SM OVC120 02/M07 A2946 RMK AC8 SLP006

CYQF;2015-11-13 09:00;CYQF 130900Z 18007KT 15SM BKN140 OVC220 02/M08 A2945 RMK AC6CI2 SLP001

CYQF;2015-11-13 10:00;CYQF 131000Z 17008KT 15SM SCT140 OVC240 01/M07 A2944 RMK AC3CI5 SLP998

CYQF;2015-11-13 11:00;CYQF 131100Z 18008KT 15SM FEW140 OVC220 02/M07 A2942 RMK AC2CI6 SLP994

CYQF;2015-11-13 12:00;CYQF 131200Z 19009KT 15SM OVC220 M01/M07 A2940 RMK CI8 SLP991

CYQF;2015-11-13 13:00;CYQF 131300Z 18004KT 130V200 15SM BKN220 01/M07 A2939 RMK CI6 PRESFR SLP986

CYQF;2015-11-13 14:00;CYQF 131400Z 22015KT 15SM BKN220 05/M06 A2938 RMK CI5 SLP976 DENSITY ALT 3100FT

CYQF;2015-11-13 15:00;CYQF 131500Z 20007KT 15SM FEW120 BKN220 02/M07 A2937 RMK AC2CI4 SLP978

CYQF;2015-11-13 16:00;CYQF 131600Z 22014KT 15SM FEW120 BKN200 05/M06 A2937 RMK AC2CI5 SLP973 DENSITY ALT 3100FT

CYQF;2015-11-13 17:00;CYQF 131700Z 21007KT 15SM FEW120 BKN200 04/M04 A2935 RMK AC2CI5 SLP968 DENSITY ALT 3000FT

CYQF;2015-11-13 18:00;CYQF 131800Z 23007KT 15SM FEW120 BKN200 08/M03 A2935 RMK AC2CI5 SLP966 DENSITY ALT 3500FT

CYQF;2015-11-13 19:00;CYQF 131900Z 24013G20KT 15SM FEW120 BKN210 10/M02 A2933 RMK AC2CI5 SLP952 DENSITY ALT 3700FT

CYQF;2015-11-13 20:00;CYQF 132000Z 24018G26KT 15SM FEW070 BKN180 11/M03 A2934 RMK AC1AC6 SLP955 DENSITY ALT 3800FT

CYQF;2015-11-13 21:00;CYQF 132100Z 35016G21KT 15SM FEW030 SCT070 BKN160 06/M05 A2943 RMK SC1AC2AC4 PRESRR SLP994 DENSITY ALT 3100FT

CYQF;2015-11-13 22:00;CYQF 132200Z 35013G19KT 15SM FEW025 BKN050 BKN160 04/M01 A2950 RMK SC2SC3AC2 PRESRR SLP021

CYQF;2015-11-13 23:00;CYQF 132300Z 36007G20KT 10SM VCSH FEW018 OVC040 02/M01 A2954 RMK SC2SC6 SLP036

CYQF;2015-11-13 23:10;CYQF 132310Z 36010KT 5SM -RASN FEW018 OVC040 02/M01 A2954 RMK SC2SC6 SLP037

CYQF;2015-11-13 23:49;CYQF 132349Z 33003KT 1 1/2SM -SN OVC018 01/M01 A2958 RMK SN6SC2 SLP050

CYQF;2015-11-14 00:00;CYQF 140000Z VRB02KT 1SM -SN OVC018 01/M01 A2957 RMK SN6SC2 SLP052

CYQF;2015-11-14 00:24;CYQF 140024Z 02003KT 1SM -SN FEW008 OVC015 00/M00 A2957 RMK SF2SC6 SLP053

CYQF;2015-11-14 00:31;CYQF 140031Z 03004KT 6SM -SN FEW008 BKN015 BKN055 00/M00 A2957 RMK SF2SC4SC1 SLP052

CYQF;2015-11-14 01:00;CYQF 140100Z 30002KT 10SM -SN FEW008 BKN022 OVC055 M00/M01 A2958 RMK SF2SC4SC2 SLP055

CYQF;2015-11-14 02:00;CYQF 140200Z 22005KT 12SM -SN FEW009 OVC055 M00/M01 A2960 RMK SF2SC6 SLP056

CYQF;2015-11-14 02:38;CYQF 140238Z 21008KT 15SM FEW009 OVC054 M00/M01 A2959 RMK SF1SC7 SLP053

CYQF;2015-11-14 03:00;CYQF 140300Z 23011KT 15SM FEW009 OVC052 00/M01 A2961 RMK SF1SC7 SLP062

CYQF;2015-11-14 03:16;CYQF 140316Z 22010KT 15SM -SN FEW008 OVC020 00/M00 A2963 RMK SF1SC7 PRESRR SLP068

CYQF;2015-11-14 03:25;CYQF 140325Z 24007KT 2SM -SN FEW008 OVC015 00/M00 A2963 RMK SF1SC7 SLP069

CYQF;2015-11-14 04:00;CYQF 140400Z 24004KT 1SM -SN VV009 00/M00 A2964 RMK SN8 SLP069

CYQF;2015-11-14 04:27;CYQF 140427Z 20004KT 1 1/2SM -SN VV016 00/M00 A2964 RMK SN8 SLP070

CYQF;2015-11-14 04:40;CYQF 140440Z 19006KT 3SM -SN OVC041 00/M00 A2964 RMK SC8 SLP068

CYQF;2015-11-14 05:00;CYQF 140500Z 19004KT 10SM -SN BKN040 OVC070 M00/M00 A2964 RMK SC6AC2 /S02/ SLP070

CYQF;2015-11-14 05:17;CYQF 140517Z 20007KT 15SM BKN040 OVC070 M00/M00 A2966 RMK SC6AC2 PRESRR SLP075

CYQF;2015-11-14 06:11;CYQF 140611Z 21007KT 12SM -SN OVC054 M00/M01 A2966 RMK SC8 SLP074

CYQF;2015-11-14 07:00;CYQF 140700Z 08004KT 070V180 8SM -SN OVC044 M00/M01 A2967 RMK SC8 SLP074

CYQF;2015-11-14 08:00;CYQF 140800Z 20002KT 6SM -SN BKN042 OVC056 M00/M01 A2967 RMK SC5SC3 SLP075

CYQF;2015-11-14 09:00;CYQF 140900Z VRB02KT 15SM -SN BKN045 OVC070 M01/M02 A2967 RMK SC5AC3 SLP079

CYQF;2015-11-14 10:00;CYQF 141000Z 14005KT 15SM SCT040 OVC080 M01/M01 A2968 RMK SC4AC4 SLP087

CYQF;2015-11-14 11:00;CYQF 141100Z 18011KT 15SM FEW040 OVC100 00/M02 A2967 RMK SC2AC6 SLP084

CYQF;2015-11-14 12:00;CYQF 141200Z 20009KT 15SM -SN OVC110 00/M01 A2968 RMK AC8 SLP087

CYQF;2015-11-14 12:09;CYQF 141209Z 20008KT 15SM OVC110 00/M01 A2968 RMK AC8 SLP088

CYQF;2015-11-14 13:00;CYQF 141300Z 18006KT 15SM OVC096 00/M02 A2968 RMK AC8 SLP088

CYQF;2015-11-14 14:00;CYQF 141400Z 16004KT 15SM OVC090 M01/M02 A2968 RMK AC8 SLP089

CYQF;2015-11-14 15:00;CYQF 141500Z 19007KT 15SM BKN080 OVC140 M00/M02 A2968 RMK AC5AC3 SLP089

CYQF;2015-11-14 16:00;CYQF 141600Z 18011G17KT 15SM SCT064 BKN080 OVC140 00/M02 A2969 RMK SC3AC3AC2 SLP093

CYQF;2015-11-14 16:41;CYQF 141641Z 19011KT 12SM -SN BKN040 OVC080 00/M02 A2972 RMK SC7AC1 SLP101

CYQF;2015-11-14 17:00;CYQF 141700Z 18007KT 12SM -SN BKN032 OVC080 00/M02 A2972 RMK SC5AC3 VIS LWR NW-N SLP101

CYQF;2015-11-14 18:00;CYQF 141800Z VRB02KT 10SM -SN BKN037 OVC080 00/M01 A2973 RMK SC5AC3 SLP104

CYQF;2015-11-14 19:00;CYQF 141900Z 09005KT 15SM -SN SCT048 BKN080 OVC140 00/M01 A2971 RMK SC4AC3AC1 SLP098

CYQF;2015-11-14 19:06;CYQF 141906Z 09004KT 15SM SCT050 BKN065 OVC110 01/M01 A2971 RMK SC3SC2AC3 SLP098

CYQF;2015-11-14 20:00;CYQF 142000Z 10003KT 15SM SCT048 OVC110 01/M01 A2970 RMK SC4AC4 SLP094

CYQF;2015-11-14 21:00;CYQF 142100Z 12005KT 15SM SCT038 BKN110 OVC250 01/M01 A2969 RMK SC3AC3CI2 SLP092

CYQF;2015-11-14 22:00;CYQF 142200Z 14004KT 15SM SCT040 BKN100 OVC250 01/M01 A2969 RMK SC4AC3CI1 SLP091

CYQF;2015-11-14 23:00;CYQF 142300Z VRB02KT 15SM BKN045 BKN100 OVC250 00/M01 A2968 RMK SC5AC2CI1 SLP088

CYQF;2015-11-15 00:00;CYQF 150000Z 04004KT 15SM SCT035 BKN100 BKN250 M01/M02 A2970 RMK SC4AC1CI2 SLP096

CYQF;2015-11-15 01:00;CYQF 150100Z 10002KT 15SM BKN035 BKN250 M00/M01 A2970 RMK SC5CI1 SLP096

CYQF;2015-11-15 02:00;CYQF 150200Z 03002KT 15SM BKN035 BKN250 M01/M01 A2969 RMK SC6CI1 SLP093

CYQF;2015-11-15 03:00;CYQF 150300Z 03003KT 15SM BKN037 OVC100 M01/M01 A2969 RMK SC6AC2 SLP093

CYQF;2015-11-15 03:27;CYQF 150327Z 01004KT 12SM -SN BKN037 OVC100 M01/M01 A2968 RMK SC7AC1 SLP091

CYQF;2015-11-15 04:00;CYQF 150400Z 36004KT 12SM -SN OVC037 M01/M01 A2968 RMK SC8 SLP088

CYQF;2015-11-15 05:00;CYQF 150500Z 01005KT 12SM -SN OVC036 M00/M01 A2967 RMK SC8 SLP084

CYQF;2015-11-15 05:43;CYQF 150543Z 03006KT 10SM OVC035 M00/M01 A2966 RMK SC8 SLP081

CYQF;2015-11-15 06:00;CYQF 150600Z 04006KT 10SM OVC035 00/M00 A2966 RMK SC8 SLP079

CYQF;2015-11-15 07:00;CYQF 150700Z 05006KT 10SM OVC035 00/M01 A2964 RMK SC8 SLP075

CYQF;2015-11-15 08:00;CYQF 150800Z 04004KT 10SM OVC033 00/M01 A2962 RMK SC8 SLP067

CYQF;2015-11-15 09:00;CYQF 150900Z 05005KT 10SM OVC026 M00/M01 A2959 RMK SC8 SLP057

CYQF;2015-11-15 10:00;CYQF 151000Z 06004KT 15SM OVC026 M00/M01 A2958 RMK SC8 SLP052

CYQF;2015-11-15 11:00;CYQF 151100Z 05003KT 15SM OVC022 M00/M01 A2954 RMK SC8 SLP041

CYQF;2015-11-15 12:00;CYQF 151200Z 14004KT 15SM OVC025 M02/M03 A2952 RMK SC8 SLP037

CYQF;2015-11-15 13:00;CYQF 151300Z 14004KT 15SM BKN025 M04/M05 A2951 RMK SC5 SLP034

CYQF;2015-11-15 14:00;CYQF 151400Z 14003KT 15SM M04/M05 A2948 RMK SLP025

CYQF;2015-11-15 14:38;CYQF 151438Z 03003KT 15SM PRFG SCT025 BKN100 OVC250 M06/M06 A2946 RMK FG2SC1AC3CI2 VIS W-NE 1/4 FG SLP018

CYQF;2015-11-15 15:00;CYQF 151500Z 09003KT 15SM PRFG SCT100 BKN250 M07/M07 A2945 RMK AC3CI3 VIS 1/2 W-N SLP018

CYQF;2015-11-15 15:24;CYQF 151524Z 00000KT 1/2SM FZFG BKN100 OVC250 M06/M07 A2945 RMK FG4AC2CI2 VIS 15 E SLP017

CYQF;2015-11-15 16:00;CYQF 151600Z 00000KT 2SM MIFG SCT100 BKN250 M06/M07 A2943 RMK AC3CI3 FROIN VIS LWR N SLP011

CYQF;2015-11-15 16:29;CYQF 151629Z 00000KT 10SM SCT100 BKN250 M06/M07 A2942 RMK AC4CI3 FROIN MIFG N SLP007

CYQF;2015-11-15 17:00;CYQF 151700Z 00000KT 12SM SCT100 BKN250 M06/M06 A2940 RMK AC3CI4 VIS LWR NW-N SLP999

CYQF;2015-11-15 18:00;CYQF 151800Z VRB02KT 12SM BKN230 M03/M04 A2939 RMK CI6 SLP991

CYQF;2015-11-15 19:00;CYQF 151900Z 03004KT 10SM FEW100 BKN230 M01/M03 A2936 RMK AC2CI4 SLP977

CYQF;2015-11-15 20:00;CYQF 152000Z 36006KT 12SM FEW100 BKN230 M01/M03 A2933 RMK AC1CI5 SLP969

CYQF;2015-11-15 21:00;CYQF 152100Z 02009KT 15SM BKN230 01/M02 A2932 RMK CI7 SLP963

CYQF;2015-11-15 22:00;CYQF 152200Z 03006KT 15SM BKN230 00/M02 A2933 RMK CI7 SLP966

CYQF;2015-11-15 23:00;CYQF 152300Z 01008KT 12SM FEW037 BKN230 M00/M02 A2934 RMK SC1CI6 SLP972

CYQF;2015-11-15 23:33;CYQF 152333Z 34008G15KT 10SM BKN011 BKN037 OVC230 M01/M02 A2936 RMK SC5SC1CI2 SLP980

CYQF;2015-11-16 00:00;CYQF 160000Z 01008KT 8SM BKN008 OVC040 M01/M02 A2937 RMK SC6SC2 SLP984

CYQF;2015-11-16 01:00;CYQF 160100Z 34008KT 6SM BR OVC009 M00/M01 A2940 RMK SC8 CIG RAG SLP996

CYQF;2015-11-16 02:00;CYQF 160200Z 36007KT 8SM OVC008 M00/M01 A2941 RMK SC8 SLP000

CYQF;2015-11-16 03:00;CYQF 160300Z 32010KT 12SM OVC014 M00/M02 A2943 RMK SC8 CIG RAG SLP008

CYQF;2015-11-16 04:00;CYQF 160400Z 33011KT 15SM OVC013 M00/M02 A2945 RMK SC8 PRESRR SLP017

CYQF;2015-11-16 05:00;CYQF 160500Z 32009KT 15SM OVC017 M00/M03 A2947 RMK SC8 SLP022

CYQF;2015-11-16 06:00;CYQF 160600Z 33012G17KT 15SM OVC018 M00/M03 A2950 RMK SC8 SLP029

CYQF;2015-11-16 07:00;CYQF 160700Z 32008KT 15SM BKN018 OVC100 M01/M03 A2952 RMK SC6AC2 SLP036

CYQF;2015-11-16 08:00;CYQF 160800Z 33012G17KT 15SM FEW020 OVC120 M01/M05 A2955 RMK SC2AC6 SLP044

CYQF;2015-11-16 09:00;CYQF 160900Z 32010KT 15SM OVC150 M02/M06 A2957 RMK AC8 SLP052

CYQF;2015-11-16 10:00;CYQF 161000Z 32011G17KT 15SM SCT070 OVC150 M01/M06 A2960 RMK AC4AC4 SLP063

CYQF;2015-11-16 11:00;CYQF 161100Z 32013G19KT 15SM OVC070 M02/M06 A2962 RMK AC8 SLP070

CYQF;2015-11-16 12:00;CYQF 161200Z 31011G21KT 15SM BKN080 OVC110 M02/M07 A2965 RMK AC6AC2 SLP082

CYQF;2015-11-16 13:00;CYQF 161300Z 32016KT 15SM SCT080 OVC120 M03/M07 A2969 RMK AC3AC5 SLP094

CYQF;2015-11-16 14:00;CYQF 161400Z 33015G23KT 15SM FEW080 OVC110 M03/M07 A2970 RMK AC2AC6 SLP100

CYQF;2015-11-16 15:00;CYQF 161500Z 33014G20KT 15SM FEW080 BKN110 M03/M07 A2975 RMK AC2AC5 SLP115

CYQF;2015-11-16 16:00;CYQF 161600Z 30010KT 15SM BKN120 M04/M07 A2977 RMK AC7 SLP123

CYQF;2015-11-16 17:00;CYQF 161700Z 30009G15KT 15SM BKN100 M03/M07 A2979 RMK AC5 SLP129

CYQF;2015-11-16 18:00;CYQF 161800Z 28008KT 15SM FEW100 M03/M07 A2981 RMK AC2 SLP138

CYQF;2015-11-16 19:00;CYQF 161900Z 27005KT 15SM FEW110 M03/M07 A2981 RMK AC1 SLP137

CYQF;2015-11-16 20:00;CYQF 162000Z 26006KT 15SM FEW032 M01/M07 A2981 RMK CU1 CU TR SLP135

CYQF;2015-11-16 21:00;CYQF 162100Z 24004KT 15SM FEW032 M00/M08 A2980 RMK CU1 CU TR SLP133

CYQF;2015-11-16 22:00;CYQF 162200Z 23005KT 15SM FEW100 00/M08 A2980 RMK AC1 AC TR SLP132

CYQF;2015-11-16 23:00;CYQF 162300Z 18005KT 15SM FEW100 M01/M09 A2980 RMK AC1 SLP132

CYQF;2015-11-17 00:00;CYQF 170000Z 16007KT 15SM FEW100 M05/M10 A2976 RMK AC1 SLP126

CYQF;2015-11-17 01:00;CYQF 170100Z 18008KT 15SM FEW100 M05/M10 A2973 RMK AC1 SLP116

CYQF;2015-11-17 02:00;CYQF 170200Z 18007KT 15SM FEW250 M05/M10 A2967 RMK CI1 PRESFR SLP096

CYQF;2015-11-17 03:00;CYQF 170300Z 15011KT 15SM FEW210 M06/M11 A2961 RMK CI2 PRESFR SLP074

CYQF;2015-11-17 04:00;CYQF 170400Z 17012KT 15SM SCT160 BKN210 M03/M09 A2956 RMK AC3CI2 SLP056

CYQF;2015-11-17 04:41;CYQF 170441Z 18013KT 15SM -SHGS FEW040 OVC120 M01/M10 A2953 RMK SC2AC6 SLP041

CYQF;2015-11-17 05:00;CYQF 170500Z 19015G20KT 15SM FEW040 OVC120 M01/M10 A2952 RMK SC1AC7 OCNL -SHGS SLP037

CYQF;2015-11-17 05:11;CYQF 170511Z 18013G19KT 15SM OVC130 M01/M10 A2951 RMK AC8 SLP033

CYQF;2015-11-17 06:00;CYQF 170600Z 18012KT 15SM OVC130 M01/M10 A2947 RMK AC8 PRESFR SLP020

CYQF;2015-11-17 07:00;CYQF 170700Z 19014KT 15SM OVC110 M00/M10 A2945 RMK AC8 SLP012

CYQF;2015-11-17 08:00;CYQF 170800Z 19011KT 15SM BKN140 OVC250 M01/M10 A2942 RMK AC5CI3 SLP001

CYQF;2015-11-17 09:00;CYQF 170900Z 20009KT 15SM OVC140 00/M09 A2940 RMK AC8 SLP993

CYQF;2015-11-17 10:00;CYQF 171000Z 20006KT 15SM OVC140 M02/M08 A2940 RMK AC8 SLP993

CYQF;2015-11-17 11:00;CYQF 171100Z 23012G17KT 15SM OVC120 03/M08 A2940 RMK AC8 SLP989

CYQF;2015-11-17 12:00;CYQF 171200Z 22010KT 15SM OVC120 02/M08 A2940 RMK AC8 SLP994

CYQF;2015-11-17 13:00;CYQF 171300Z 20008KT 15SM OVC140 01/M08 A2940 RMK AC8 SLP995

CYQF;2015-11-17 14:00;CYQF 171400Z 22009KT 15SM OVC140 02/M09 A2939 RMK AC8 SLP993

CYQF;2015-11-17 15:00;CYQF 171500Z 18008KT 15SM SCT140 BKN190 OVC260 M01/M08 A2938 RMK AC4AC3CI1 SLP993

CYQF;2015-11-17 16:00;CYQF 171600Z 18007KT 15SM FEW140 BKN210 OVC260 M02/M08 A2936 RMK AC2CI4CI2 SLP982

CYQF;2015-11-17 17:00;CYQF 171700Z 18008KT 15SM FEW120 BKN150 OVC210 00/M07 A2932 RMK AC2AS5CI1 SLP965

CYQF;2015-11-17 18:00;CYQF 171800Z 20008KT 15SM BKN100 OVC210 02/M07 A2932 RMK AC6CI2 SLP961

CYQF;2015-11-17 19:00;CYQF 171900Z 14006KT 15SM BKN070 OVC150 02/M06 A2926 RMK AC6AC2 VIRGA SLP940

CYQF;2015-11-17 20:00;CYQF 172000Z 10006KT 15SM BKN080 OVC130 03/M07 A2918 RMK AC5AC3 PRESFR SLP914 DENSITY ALT 3000FT

CYQF;2015-11-17 21:00;CYQF 172100Z 11007KT 15SM FEW080 BKN120 OVC230 03/M06 A2912 RMK AC2AC4CI2 PRESFR SLP891 DENSITY ALT 3100FT

CYQF;2015-11-17 22:00;CYQF 172200Z 09003KT 060V120 15SM BKN080 OVC120 02/M06 A2907 RMK AC6AC2 SLP874 DENSITY ALT 3100FT

CYQF;2015-11-17 23:00;CYQF 172300Z 05007KT 15SM BKN060 BKN080 02/M05 A2904 RMK SC5AC2 SLP861 DENSITY ALT 3100FT

CYQF;2015-11-18 00:00;CYQF 180000Z 35006KT 15SM BKN065 OVC080 02/M04 A2901 RMK SC6AC2 SLP852 DENSITY ALT 3100FT

CYQF;2015-11-18 01:00;CYQF 180100Z 02005KT 15SM BKN041 OVC072 01/M04 A2901 RMK SC6AC2 SLP853 DENSITY ALT 3100FT

CYQF;2015-11-18 01:34;CYQF 180134Z 01015KT 10SM -SN OVC032 01/M01 A2903 RMK SC8 SLP860

CYQF;2015-11-18 02:00;CYQF 180200Z 01012G18KT 8SM -SN BKN008 OVC030 00/M01 A2904 RMK ST6SC2 SLP864

CYQF;2015-11-18 02:39;CYQF 180239Z 36012G20KT 2SM -SN OVC006 M01/M01 A2907 RMK SN2SC6 SLP875

CYQF;2015-11-18 03:00;CYQF 180300Z 01016KT 2SM -SN OVC009 M01/M02 A2907 RMK SN2SC6 SLP880

CYQF;2015-11-18 03:45;CYQF 180345Z 36016G22KT 3SM -SN OVC012 M01/M03 A2910 RMK SC8 SLP891

CYQF;2015-11-18 04:00;CYQF 180400Z 36016G25KT 6SM -SN OVC012 M01/M03 A2912 RMK SC8 SLP896

CYQF;2015-11-18 04:23;CYQF 180423Z 35016G24KT 10SM -SN SCT012 OVC025 M01/M03 A2914 RMK SC3SC5 PRESRR SLP905

CYQF;2015-11-18 05:00;CYQF 180500Z 34016G23KT 10SM -SN BKN016 OVC027 M01/M04 A2918 RMK SC6SC2 PRESRR SLP918

CYQF;2015-11-18 05:34;CYQF 180534Z 34021G32KT 2SM -SN OVC012 M02/M04 A2922 RMK SN2SC6 OCNL BLSN PRESRR SLP932

CYQF;2015-11-18 06:04;CYQF 180604Z 34021G30KT 10SM -SN DRSN SCT012 OVC063 M03/M06 A2926 RMK SC3SC5 PRESRR SLP942

CYQF;2015-11-18 07:00;CYQF 180700Z 32015G23KT 12SM -SN DRSN FEW012 OVC063 M03/M06 A2932 RMK SC2SC6 PRESRR SLP965

CYQF;2015-11-18 07:41;CYQF 180741Z 32020G28KT 15SM DRSN OVC095 M03/M07 A2936 RMK AC8 PRESRR SLP978

CYQF;2015-11-18 08:00;CYQF 180800Z 32018G26KT 15SM DRSN OVC095 M03/M08 A2938 RMK AC8 PRESRR SLP985

CYQF;2015-11-18 09:00;CYQF 180900Z 31015G21KT 15SM DRSN OVC095 M03/M08 A2946 RMK AC8 PRESRR SLP012

CYQF;2015-11-18 10:00;CYQF 181000Z 32012G24KT 15SM DRSN OVC120 M03/M09 A2951 RMK AC8 PRESRR SLP031

CYQF;2015-11-18 11:00;CYQF 181100Z 32014G22KT 15SM DRSN OVC150 M04/M09 A2956 RMK AC8 SLP051

CYQF;2015-11-18 12:00;CYQF 181200Z 30017G23KT 15SM DRSN FEW030 BKN150 M05/M10 A2962 RMK SC1AC7 SC TR PRESRR SLP071

CYQF;2015-11-18 13:00;CYQF 181300Z 31012G21KT 15SM DRSN FEW030 BKN150 M06/M11 A2966 RMK SC1AC5 SC TR SLP088

CYQF;2015-11-18 14:00;CYQF 181400Z 31011G22KT 15SM DRSN FEW150 M06/M11 A2970 RMK AC2 PRESRR SLP103

CYQF;2015-11-18 15:00;CYQF 181500Z 31007KT 15SM FEW150 FEW230 M08/M12 A2975 RMK AC1CI1 CI TR SLP121

CYQF;2015-11-18 16:00;CYQF 181600Z 29011G20KT 15SM FEW120 M07/M13 A2979 RMK AC1 SLP135

CYQF;2015-11-18 17:00;CYQF 181700Z 31014G27KT 15SM FEW090 M05/M12 A2981 RMK AC1 SLP142

CYQF;2015-11-18 18:00;CYQF 181800Z 32016G23KT 15SM FEW032 FEW090 M04/M12 A2984 RMK CU1AC1 AC TR SLP150

CYQF;2015-11-18 19:00;CYQF 181900Z 30017G22KT 15SM FEW030 M04/M12 A2985 RMK CU1 SLP153

CYQF;2015-11-18 20:00;CYQF 182000Z 31018G24KT 15SM FEW035 M03/M12 A2985 RMK CU1 CU TR SLP155

CYQF;2015-11-18 21:00;CYQF 182100Z 32010G17KT 15SM FEW035 M03/M12 A2986 RMK CU1 SLP158

CYQF;2015-11-18 22:00;CYQF 182200Z 31010KT 15SM FEW035 M03/M12 A2988 RMK CU1 SLP165

CYQF;2015-11-18 23:00;CYQF 182300Z 32010G16KT 15SM FEW035 M04/M13 A2989 RMK SC1 SLP172

CYQF;2015-11-19 00:00;CYQF 190000Z 32006KT 15SM FEW030 FEW250 M06/M13 A2991 RMK CU1CI1 CU TR SLP180

CYQF;2015-11-19 01:00;CYQF 190100Z 35002KT 15SM FEW250 M09/M13 A2992 RMK CI1 SLP188

CYQF;2015-11-19 02:00;CYQF 190200Z 00000KT 15SM SCT090 M12/M15 A2992 RMK AC4 SLP192

CYQF;2015-11-19 03:00;CYQF 190300Z 23005KT 15SM SCT080 M10/M14 A2993 RMK AC4 SLP194

CYQF;2015-11-19 04:00;CYQF 190400Z VRB02KT 15SM FEW080 M12/M16 A2992 RMK AC1 SLP193

CYQF;2015-11-19 05:00;CYQF 190500Z 19004KT 15SM FEW100 M13/M15 A2992 RMK AC2 SLP191

CYQF;2015-11-19 06:00;CYQF 190600Z 18006KT 15SM SKC M15/M18 A2991 RMK SLP191

CYQF;2015-11-19 07:00;CYQF 190700Z 21008KT 15SM SKC M13/M15 A2990 RMK SLP185

CYQF;2015-11-19 08:00;CYQF 190800Z 20006KT 15SM SKC M15/M17 A2989 RMK SLP183

CYQF;2015-11-19 09:00;CYQF 190900Z 21004KT 15SM SKC M15/M17 A2988 RMK SLP177

CYQF;2015-11-19 10:00;CYQF 191000Z 20009KT 15SM SKC M14/M17 A2987 RMK SLP174

CYQF;2015-11-19 11:00;CYQF 191100Z 21003KT 15SM SKC M14/M18 A2985 RMK SLP169

CYQF;2015-11-19 12:00;CYQF 191200Z 00000KT 15SM SCT085 M15/M19 A2985 RMK AC4 SLP170

CYQF;2015-11-19 13:00;CYQF 191300Z 16004KT 15SM BKN085 M13/M16 A2983 RMK AC6 SLP166

CYQF;2015-11-19 14:00;CYQF 191400Z 18002KT 15SM BKN090 M11/M15 A2984 RMK AC6 SLP169

CYQF;2015-11-19 15:00;CYQF 191500Z 36003KT 260V050 15SM BKN070 BKN120 M11/M14 A2986 RMK AC5AC2 SLP176

CYQF;2015-11-19 15:34;CYQF 191534Z VRB02KT 6SM -SN BKN040 BKN070 M10/M13 A2988 RMK SC5AC2 VIS N 2 SLP181

CYQF;2015-11-19 16:00;CYQF 191600Z 35003KT 210V010 10SM -SN SCT014 BKN080 M08/M11 A2990 RMK SC4AC3 SLP188

CYQF;2015-11-19 17:00;CYQF 191700Z 30009KT 10SM -SN FEW015 BKN080 M06/M09 A2992 RMK SC2AC5 SLP193

CYQF;2015-11-19 17:25;CYQF 191725Z 26008KT 15SM FEW020 OVC100 M06/M09 A2991 RMK SC1AC7 SLP190

CYQF;2015-11-19 18:00;CYQF 191800Z 29012G18KT 15SM FEW020 OVC079 M06/M09 A2992 RMK SC1AC8 SC TR SLP197

CYQF;2015-11-19 19:00;CYQF 191900Z 31009KT 15SM FEW020 OVC082 M05/M08 A2993 RMK SC1AC8 SC TR SLP196

CYQF;2015-11-19 20:00;CYQF 192000Z 31011KT 15SM FEW020 OVC085 M04/M08 A2993 RMK CU1AC7 SLP196

CYQF;2015-11-19 21:00;CYQF 192100Z 31008KT 15SM FEW020 BKN090 M04/M08 A2994 RMK CU1AC6 SLP200

CYQF;2015-11-19 22:00;CYQF 192200Z 30008KT 15SM FEW020 BKN080 M04/M09 A2995 RMK CU2AC5 SLP203

CYQF;2015-11-19 23:00;CYQF 192300Z 29009KT 15SM FEW020 BKN080 M04/M09 A2996 RMK SC1AC6 SLP208

CYQF;2015-11-20 00:00;CYQF 200000Z 28008KT 15SM FEW020 BKN100 M05/M09 A2997 RMK SC1AC6 SLP213

CYQF;2015-11-20 01:00;CYQF 200100Z 27008KT 15SM OVC100 M05/M08 A2999 RMK AC8 SLP217

CYQF;2015-11-20 02:00;CYQF 200200Z 28009KT 15SM BKN078 M06/M08 A3001 RMK AC7 SLP224

CYQF;2015-11-20 03:00;CYQF 200300Z 26008KT 15SM OVC120 M06/M08 A3001 RMK AC8 SLP222

CYQF;2015-11-20 04:00;CYQF 200400Z 28007KT 15SM OVC110 M06/M09 A3004 RMK AC8 SLP231

CYQF;2015-11-20 05:00;CYQF 200500Z 29008KT 15SM BKN100 M06/M09 A3006 RMK AC6 SLP232

CYQF;2015-11-20 06:00;CYQF 200600Z 31008KT 15SM FEW100 M08/M10 A3008 RMK AC2 SLP242

CYQF;2015-11-20 07:00;CYQF 200700Z 27009KT 15SM FEW250 M08/M10 A3009 RMK CI1 SLP246

CYQF;2015-11-20 08:00;CYQF 200800Z 29010G15KT 15SM FEW120 M09/M11 A3011 RMK AC2 SLP253

CYQF;2015-11-20 09:00;CYQF 200900Z 29010KT 15SM SKC M09/M11 A3013 RMK SLP260

CYQF;2015-11-20 10:00;CYQF 201000Z 30006KT 15SM SKC M11/M13 A3015 RMK SLP270

CYQF;2015-11-20 11:00;CYQF 201100Z 29009KT 15SM SKC M10/M12 A3018 RMK SLP280

CYQF;2015-11-20 12:00;CYQF 201200Z 30008KT 15SM SKC M10/M13 A3020 RMK SLP288

CYQF;2015-11-20 13:00;CYQF 201300Z 30011KT 15SM FEW120 M11/M13 A3022 RMK AC1 SLP294

CYQF;2015-11-20 14:00;CYQF 201400Z 31009KT 15SM BKN095 M10/M13 A3026 RMK AC5 SLP308

CYQF;2015-11-20 15:00;CYQF 201500Z 28007KT 15SM BKN090 M11/M13 A3028 RMK AC5 SLP318

CYQF;2015-11-20 16:00;CYQF 201600Z 27004KT 15SM BKN080 M11/M14 A3030 RMK AC5 SLP323

CYQF;2015-11-20 17:00;CYQF 201700Z 25005KT 15SM SCT080 M09/M12 A3030 RMK AC4 SLP322

CYQF;2015-11-20 18:00;CYQF 201800Z 26004KT 15SM FEW100 FEW240 M07/M12 A3030 RMK AC1CI1 AC TR SLP320

CYQF;2015-11-20 19:00;CYQF 201900Z 27006KT 15SM SCT240 M06/M12 A3028 RMK CI4 SLP314

CYQF;2015-11-20 20:00;CYQF 202000Z 24008KT 15SM SCT240 M04/M15 A3026 RMK CI4 SLP305

CYQF;2015-11-20 21:00;CYQF 202100Z 21008KT 15SM BKN240 M04/M14 A3024 RMK CI6 SLP298

CYQF;2015-11-20 22:00;CYQF 202200Z 20011KT 15SM BKN220 M04/M13 A3022 RMK CI6 SLP294

CYQF;2015-11-20 23:00;CYQF 202300Z 21008KT 15SM BKN220 M05/M13 A3021 RMK CI6 SLP290

CYQF;2015-11-21 00:00;CYQF 210000Z 21008KT 15SM BKN220 M07/M13 A3020 RMK CI5 SLP289

CYQF;2015-11-21 01:00;CYQF 210100Z 19006KT 15SM BKN220 M10/M14 A3018 RMK CI6 SLP287

CYQF;2015-11-21 02:00;CYQF 210200Z 21006KT 15SM BKN220 M10/M14 A3016 RMK CI6 SLP280

CYQF;2015-11-21 03:00;CYQF 210300Z 20006KT 15SM BKN220 M09/M13 A3014 RMK CI7 SLP270

CYQF;2015-11-21 04:00;CYQF 210400Z 17006KT 15SM OVC210 M09/M12 A3012 RMK CI8 SLP264

CYQF;2015-11-21 05:00;CYQF 210500Z 19004KT 15SM SCT090 OVC120 M09/M11 A3010 RMK AC3AC5 SLP254

CYQF;2015-11-21 06:00;CYQF 210600Z 00000KT 15SM BKN090 BKN140 M07/M11 A3008 RMK AC5AC2 SLP244

CYQF;2015-11-21 07:00;CYQF 210700Z 09002KT 15SM BKN090 OVC140 M06/M10 A3009 RMK AC7AC1 SLP245

CYQF;2015-11-21 08:00;CYQF 210800Z 23005KT 15SM OVC080 M05/M10 A3009 RMK AC8 SLP242

CYQF;2015-11-21 09:00;CYQF 210900Z 23008KT 15SM OVC080 M04/M09 A3008 RMK AC8 SLP238

CYQF;2015-11-21 10:00;CYQF 211000Z 23007KT 15SM OVC090 M04/M09 A3007 RMK AC8 SLP233

CYQF;2015-11-21 11:00;CYQF 211100Z 22007KT 15SM FEW060 OVC090 M03/M08 A3005 RMK SC2AC6 SLP227

CYQF;2015-11-21 12:00;CYQF 211200Z 23008KT 15SM FEW060 BKN080 M03/M08 A3004 RMK SC1AC6 SLP224

CYQF;2015-11-21 13:00;CYQF 211300Z 24007KT 15SM BKN075 M03/M08 A3003 RMK AC7 SLP223

CYQF;2015-11-21 14:00;CYQF 211400Z 23007KT 15SM BKN075 BKN200 M04/M09 A3001 RMK AC5CI2 SLP221

CYQF;2015-11-21 15:00;CYQF 211500Z 21007KT 15SM SCT100 BKN220 M04/M10 A3000 RMK AC3CI3 SLP215

CYQF;2015-11-21 16:00;CYQF 211600Z 20008KT 15SM BKN220 M07/M10 A2999 RMK CI5 SLP214

CYQF;2015-11-21 17:00;CYQF 211700Z 22006KT 15SM FEW100 BKN250 M01/M09 A2998 RMK AC1CI6 SLP204

CYQF;2015-11-21 18:00;CYQF 211800Z 21007KT 15SM FEW100 BKN250 02/M07 A2995 RMK AC2CI4 SLP190

CYQF;2015-11-21 19:00;CYQF 211900Z 23008KT 15SM BKN085 BKN250 05/M07 A2992 RMK AC5CI2 SLP172

CYQF;2015-11-21 20:00;CYQF 212000Z 24008KT 15SM BKN067 06/M07 A2987 RMK AC7 SLP155

CYQF;2015-11-21 21:00;CYQF 212100Z 22008KT 15SM OVC060 05/M06 A2984 RMK SC8 PRESFR SLP142

CYQF;2015-11-21 22:00;CYQF 212200Z 21009KT 15SM BKN075 BKN250 06/M06 A2978 RMK AC6CI1 PRESFR SLP121

CYQF;2015-11-21 23:00;CYQF 212300Z 21010KT 15SM BKN070 BKN110 BKN250 06/M06 A2974 RMK AC5AC1CI1 SLP107

CYQF;2015-11-22 00:00;CYQF 220000Z 20009KT 15SM SCT070 SCT140 BKN250 04/M06 A2971 RMK AC3AC1CI1 SLP097

CYQF;2015-11-22 01:00;CYQF 220100Z 21010KT 15SM FEW070 FEW250 02/M06 A2969 RMK AC1CI1 SLP093

CYQF;2015-11-22 02:00;CYQF 220200Z 22009KT 15SM FEW250 M00/M06 A2968 RMK CI1 SLP093

CYQF;2015-11-22 03:00;CYQF 220300Z VRB02KT 15SM SKC M02/M07 A2969 RMK SLP098

CYQF;2015-11-22 04:00;CYQF 220400Z 00000KT 15SM SKC M04/M07 A2970 RMK SLP109

CYQF;2015-11-22 05:00;CYQF 220500Z 23003KT 15SM SKC M02/M07 A2971 RMK SLP104

CYQF;2015-11-22 06:00;CYQF 220600Z 21007KT 15SM SKC M04/M07 A2972 RMK SLP103

CYQF;2015-11-22 07:00;CYQF 220700Z 18005KT 15SM SKC M05/M07 A2972 RMK SLP103

CYQF;2015-11-22 08:00;CYQF 220800Z 20005KT 15SM SKC M06/M09 A2972 RMK SLP102

CYQF;2015-11-22 09:00;CYQF 220900Z 19005KT 15SM SKC M07/M10 A2972 RMK SLP105

CYQF;2015-11-22 10:00;CYQF 221000Z 18004KT 15SM SKC M06/M09 A2973 RMK SLP107

CYQF;2015-11-22 11:00;CYQF 221100Z 23008KT 15SM SKC M01/M08 A2973 RMK SLP100

CYQF;2015-11-22 12:00;CYQF 221200Z 00000KT 15SM SKC M06/M10 A2976 RMK SLP118

CYQF;2015-11-22 13:00;CYQF 221300Z VRB02KT 15SM SKC M07/M10 A2977 RMK SLP126

CYQF;2015-11-22 14:00;CYQF 221400Z 20003KT 180V240 15SM FEW250 M05/M10 A2978 RMK CI1 SLP131

CYQF;2015-11-22 15:00;CYQF 221500Z 00000KT 15SM FEW250 M05/M09 A2980 RMK CI2 SLP139

CYQF;2015-11-22 16:00;CYQF 221600Z 20004KT 15SM SCT250 M07/M10 A2982 RMK CI4 SLP150

CYQF;2015-11-22 17:00;CYQF 221700Z VRB02KT 15SM M02/M05 A2984 RMK SLP148

CYQF;2015-11-22 18:00;CYQF 221800Z 32003KT 300V030 15SM SCT250 04/M07 A2986 RMK CI3 SLP149

CYQF;2015-11-22 19:00;CYQF 221900Z 34007KT 15SM SCT250 05/M06 A2986 RMK CI3 SLP150

CYQF;2015-11-22 20:00;CYQF 222000Z 34006KT 15SM SCT250 05/M05 A2986 RMK CI3 SLP153

CYQF;2015-11-22 21:00;CYQF 222100Z 36006KT 15SM FEW250 05/M05 A2987 RMK CI2 SLP159

CYQF;2015-11-22 22:00;CYQF 222200Z 01007KT 15SM SCT250 04/M05 A2988 RMK CI3 SLP161

CYQF;2015-11-22 23:00;CYQF 222300Z 36005KT 15SM SCT250 02/M05 A2990 RMK CI3 SLP162

CYQF;2015-11-23 00:00;CYQF 230000Z 02004KT 15SM FEW250 00/M07 A2990 RMK CI2 SLP173

CYQF;2015-11-23 01:00;CYQF 230100Z 00000KT 15SM FEW250 M01/M07 A2991 RMK CI1 SLP176

CYQF;2015-11-23 02:00;CYQF 230200Z 00000KT 15SM BKN250 M06/M09 A2992 RMK CI5 SLP183

CYQF;2015-11-23 03:00;CYQF 230300Z 22002KT 15SM SCT250 M05/M08 A2993 RMK CI4 SLP185

CYQF;2015-11-23 04:00;CYQF 230400Z 23003KT 15SM SCT250 M08/M10 A2993 RMK CI4 SLP193

CYQF;2015-11-23 05:00;CYQF 230500Z 24003KT 15SM FEW250 M08/M10 A2994 RMK CI2 SLP190

CYQF;2015-11-23 06:00;CYQF 230600Z 21004KT 15SM BKN250 M10/M12 A2995 RMK CI5 SLP190

CYQF;2015-11-23 07:00;CYQF 230700Z 19003KT 15SM SCT250 M10/M12 A2995 RMK CI4 SLP190

CYQF;2015-11-23 08:00;CYQF 230800Z 19005KT 15SM SCT250 M10/M12 A2996 RMK CI4 SLP191

CYQF;2015-11-23 09:00;CYQF 230900Z 19004KT 15SM SCT250 M10/M12 A2995 RMK CI4 SLP189

CYQF;2015-11-23 10:00;CYQF 231000Z 19003KT 15SM FEW180 BKN250 M11/M12 A2995 RMK AC1CI4 SLP190

CYQF;2015-11-23 11:00;CYQF 231100Z 17002KT 15SM FEW180 BKN250 M10/M12 A2994 RMK AC2CI5 SLP186

CYQF;2015-11-23 12:00;CYQF 231200Z 34002KT 15SM BKN180 BKN250 M09/M11 A2993 RMK AC5CI2 SLP184

CYQF;2015-11-23 13:00;CYQF 231300Z 35002KT 15SM SCT140 OVC200 M08/M10 A2991 RMK AC3CI5 SLP180

CYQF;2015-11-23 14:00;CYQF 231400Z 00000KT 15SM BKN130 OVC200 M07/M09 A2990 RMK AC6CI2 SLP181

CYQF;2015-11-23 15:00;CYQF 231500Z 36003KT 15SM OVC110 M07/M09 A2989 RMK AC8 SLP176

CYQF;2015-11-23 16:00;CYQF 231600Z 36005KT 15SM OVC110 M06/M08 A2987 RMK AS8 SLP171

CYQF;2015-11-23 17:00;CYQF 231700Z 02003KT 15SM OVC100 M04/M07 A2985 RMK AS8 SLP161

CYQF;2015-11-23 18:00;CYQF 231800Z 09007KT 15SM OVC080 M02/M07 A2982 RMK AS8 SLP150

CYQF;2015-11-23 19:00;CYQF 231900Z 12006KT 15SM OVC075 M01/M07 A2979 RMK AS8 SLP139

CYQF;2015-11-23 20:00;CYQF 232000Z 11008KT 15SM OVC060 00/M07 A2976 RMK SC8 SLP127

CYQF;2015-11-23 20:08;CYQF 232008Z 10011KT 8SM -SN OVC040 00/M07 A2976 RMK SC8 SLP126

CYQF;2015-11-23 20:20;CYQF 232020Z 13010G17KT 2 1/2SM -SN VV023 M00/M06 A2975 RMK SN8 SLP125

CYQF;2015-11-23 20:50;CYQF 232050Z 13010KT 1SM -SN VV020 M01/M04 A2975 RMK SN8 SLP125

CYQF;2015-11-23 21:00;CYQF 232100Z 11007KT 1SM -SN VV018 M02/M04 A2975 RMK SN8 SLP125

CYQF;2015-11-23 21:18;CYQF 232118Z 09006KT 3/4SM -SN VV009 M02/M03 A2974 RMK SN8 SLP124

CYQF;2015-11-23 22:00;CYQF 232200Z 08008KT 3/4SM -SN VV009 M02/M03 A2972 RMK SN8 /S02/ SLP118

CYQF;2015-11-23 22:17;CYQF 232217Z 07007KT 1SM -SN SCT010 OVC030 M02/M03 A2972 RMK SC3SC5 VIS VRB 3/4-11/2 SLP117

CYQF;2015-11-23 23:00;CYQF 232300Z 07006KT 1SM -SN OVC010 M02/M03 A2972 RMK SC8 /S03/ SLP115

CYQF;2015-11-23 23:08;CYQF 232308Z 05005KT 2SM -SN OVC012 M02/M03 A2972 RMK SC8 VIS VRB 1-3 SLP115

CYQF;2015-11-23 23:45;CYQF 232345Z 07005KT 3SM -SN OVC008 M02/M03 A2971 RMK SC8 SLP113

CYQF;2015-11-24 00:00;CYQF 240000Z 05003KT 3SM -SN OVC008 M02/M03 A2972 RMK SC8 VIS VRB 2-4 SLP113

CYQF;2015-11-24 01:00;CYQF 240100Z 06007KT 3SM -SN OVC008 M02/M03 A2973 RMK SN2SC6 VIS VRB 2-4 SLP116

CYQF;2015-11-24 01:31;CYQF 240131Z 06008KT 2SM -SN OVC009 M02/M03 A2973 RMK SN2SC6 VIS VRB 1-3 SLP116

CYQF;2015-11-24 02:00;CYQF 240200Z CCA 04006KT 2SM -SN OVC012 M02/M03 A2973 RMK SN2SC6 VIS VRB 1-3 SLP116

CYQF;2015-11-24 02:34;CYQF 240234Z 04008KT 2SM -SN OVC019 M03/M03 A2973 RMK SC8 VIS VRB 1-3 SLP118

CYQF;2015-11-24 03:00;CYQF 240300Z 05008KT 2SM -SN OVC012 M03/M04 A2974 RMK SC8 VIS VRB 1-3 /S01/ SLP120

CYQF;2015-11-24 03:14;CYQF 240314Z 05012KT 3SM -SN OVC008 M03/M04 A2975 RMK SC8 VIS VRB 2-4 SLP122

CYQF;2015-11-24 04:00;CYQF 240400Z 05014KT 3SM -SN OVC006 M03/M04 A2976 RMK SC8 VIS VRB 2-4 SLP127

CYQF;2015-11-24 05:00;CYQF 240500Z 03010KT 2SM -SN OVC007 M04/M05 A2977 RMK SC8 CIG VRB 5-9 VIS VRB 1-3 SLP130

CYQF;2015-11-24 06:00;CYQF 240600Z 03011KT 2SM -SN OVC008 M04/M05 A2980 RMK SC8 SLP137

CYQF;2015-11-24 07:00;CYQF 240700Z 02013KT 1SM -SN VV010 M05/M06 A2983 RMK SN8 SLP148

CYQF;2015-11-24 08:00;CYQF 240800Z 36012KT 2SM -SN VV023 M05/M07 A2986 RMK SN8 VIS VRB 1-3 SLP157

CYQF;2015-11-24 09:00;CYQF 240900Z 36012KT 2SM -SN VV009 M06/M07 A2988 RMK SN8 VIS VRB 1-3 SLP168

CYQF;2015-11-24 10:00;CYQF 241000Z 01012G19KT 2SM -SN VV017 M06/M07 A2993 RMK SN8 CIG VRB 009-0026 VIS VRB 1-3 SLP183

CYQF;2015-11-24 11:00;CYQF 241100Z CCA 01013G20KT 2SM -SN DRSN BKN011 M06/M08 A2996 RMK SN4SC3 VIS VRB 1-3 SLP197

CYQF;2015-11-24 12:00;CYQF 241200Z CCA 01017KT 3SM -SN DRSN OVC029 M06/M08 A3000 RMK SN2SC6 /S02/ SLP208

CYQF;2015-11-24 13:00;CYQF 241300Z CCA 36015KT 2SM -SN DRSN VV012 M06/M08 A3003 RMK SN8 VIS VRB 1-3 SLP218

CYQF;2015-11-24 14:00;CYQF 241400Z 36014G22KT 1 1/2SM -SN DRSN OVC020 M07/M08 A3006 RMK SN3SC5 VIS VRB 1-2 OCNL BLSN SLP231

CYQF;2015-11-24 15:00;CYQF 241500Z 36015G23KT 2 1/2SM -SN OVC025 M07/M09 A3009 RMK SN2SC6 VIS VRB 11/2-21/2 OCNL BLSN SLP243

CYQF;2015-11-24 16:00;CYQF 241600Z 36015G22KT 1 1/2SM -SN DRSN OVC040 M08/M10 A3013 RMK SN2SC6 VIS VRB 1-2 OCNL BLSN SLP256

CYQF;2015-11-24 17:00;CYQF 241700Z 36016G21KT 1 1/2SM -SN DRSN OVC037 M08/M11 A3015 RMK SN2SC6 VIS VRB 1-2 OCNL BLSN SLP266

CYQF;2015-11-24 18:00;CYQF 241800Z 35012G18KT 1 1/2SM -SN DRSN OVC025 M08/M11 A3017 RMK SN3SC5 SLP273

CYQF;2015-11-24 19:00;CYQF 241900Z 33013KT 2SM -SN DRSN OVC017 M09/M11 A3018 RMK SN2SC6 VIS VRB 1-3 SLP277

CYQF;2015-11-24 20:00;CYQF 242000Z 35011G17KT 2SM -SN DRSN FEW015 BKN210 M09/M12 A3018 RMK SF2CI5 VIS NW 5 SLP279

CYQF;2015-11-24 20:09;CYQF 242009Z 34013KT 5SM -SN DRSN SCT015 BKN210 M09/M12 A3018 RMK SF3CI4 SLP279

CYQF;2015-11-24 21:00;CYQF 242100Z 34013G21KT 10SM -SN DRSN BKN020 BKN210 M09/M13 A3019 RMK SC6CI1 SLP283

CYQF;2015-11-24 22:00;CYQF 242200Z 34012KT 15SM DRSN SCT020 M11/M14 A3020 RMK SC3 SLP289

CYQF;2015-11-24 23:00;CYQF 242300Z 33010KT 15SM DRSN SCT020 SCT210 M12/M16 A3022 RMK SC3CI1 SLP298

CYQF;2015-11-25 00:00;CYQF 250000Z 35008KT 15SM BKN015 M13/M16 A3025 RMK SC7 SLP307

CYQF;2015-11-25 01:00;CYQF 250100Z 36008KT 15SM OVC014 M12/M15 A3025 RMK SC8 SLP309

CYQF;2015-11-25 02:00;CYQF 250200Z 36004KT 15SM BKN013 M13/M16 A3025 RMK SC7 SLP310

CYQF;2015-11-25 03:00;CYQF 250300Z 34002KT 15SM M14/M16 A3025 RMK SLP310

CYQF;2015-11-25 04:00;CYQF 250400Z 27004KT 15SM SCT012 M15/M17 A3025 RMK SC4 FROIN SLP315

CYQF;2015-11-25 05:00;CYQF 250500Z 24003KT 15SM FEW012 M20/M23 A3025 RMK SC1 FROIN SLP320

CYQF;2015-11-25 06:00;CYQF 250600Z 22002KT 15SM SCT010 M22/M24 A3026 RMK SC3 SLP325

CYQF;2015-11-25 07:00;CYQF 250700Z 21005KT 15SM IC SCT001 M24/M27 A3025 RMK ST4 SLP327

CYQF;2015-11-25 07:50;CYQF 250750Z 22006KT 1/2SM FZFG VV002 M20/M22 A3025 RMK FG8 SLP320

CYQF;2015-11-25 08:00;CYQF 250800Z 23005KT 3/8SM FZFG VV001 M20/M23 A3025 RMK FG8 FROIN SLP321

CYQF;2015-11-25 09:00;CYQF 250900Z 20005KT 1/2SM FZFG VV002 M25/M27 A3025 RMK FG8 FROIN SLP328

CYQF;2015-11-25 09:35;CYQF 250935Z 19006KT 3SM BR BKN003 M25/M28 A3025 RMK ST5 SLP325

CYQF;2015-11-25 09:48;CYQF 250948Z 19005KT 15SM SKC M25/M28 A3025 RMK SLP326

CYQF;2015-11-25 10:00;CYQF 251000Z 19004KT 15SM SKC M24/M27 A3025 RMK FROIN SLP327

CYQF;2015-11-25 11:00;CYQF 251100Z 21004KT 15SM SKC M25/M28 A3026 RMK SLP333

CYQF;2015-11-25 12:00;CYQF 251200Z 20005KT 6SM BR SKC M26/M29 A3025 RMK FROIN SLP332

CYQF;2015-11-25 13:00;CYQF 251300Z 20004KT 15SM SKC M25/M28 A3025 RMK FROIN SLP330

CYQF;2015-11-25 14:00;CYQF 251400Z 20004KT 15SM SKC M24/M27 A3026 RMK SLP333

CYQF;2015-11-25 15:00;CYQF 251500Z 20005KT 15SM SKC M23/M26 A3025 RMK SLP330

CYQF;2015-11-25 16:00;CYQF 251600Z 19006KT 15SM SKC M24/M27 A3025 RMK SLP334

CYQF;2015-11-25 17:00;CYQF 251700Z 19006KT 15SM SKC M21/M24 A3026 RMK SLP338

CYQF;2015-11-25 18:00;CYQF 251800Z 21005KT 15SM SKC M18/M20 A3024 RMK SLP330

CYQF;2015-11-25 19:00;CYQF 251900Z 20006KT 15SM FEW250 M16/M18 A3023 RMK CI1 CI TR SLP326

CYQF;2015-11-25 20:00;CYQF 252000Z 21006KT 15SM FEW250 M14/M16 A3021 RMK CI2 SLP312

CYQF;2015-11-25 21:00;CYQF 252100Z 27003KT 15SM SCT250 M11/M13 A3020 RMK CI3 SLP310

CYQF;2015-11-25 22:00;CYQF 252200Z 27006KT 15SM BKN210 M09/M14 A3020 RMK CI5 SLP307

CYQF;2015-11-25 23:00;CYQF 252300Z 29006KT 15SM SCT210 M08/M14 A3021 RMK CI3 SLP310

CYQF;2015-11-26 00:00;CYQF 260000Z 19004KT 15SM FEW210 M15/M18 A3023 RMK CI2 SLP326

CYQF;2015-11-26 01:00;CYQF 260100Z 21004KT 15SM FEW210 M15/M17 A3024 RMK CI2 FROIN SLP329

CYQF;2015-11-26 02:00;CYQF 260200Z 28004KT 180V290 15SM FEW210 M15/M17 A3025 RMK CI2 FROIN SLP332

CYQF;2015-11-26 03:00;CYQF 260300Z VRB02KT 15SM FEW210 M19/M21 A3027 RMK CI1 FROIN SLP344

CYQF;2015-11-26 04:00;CYQF 260400Z 19003KT 15SM FEW210 M19/M21 A3029 RMK CI1 FROIN SLP351

CYQF;2015-11-26 05:00;CYQF 260500Z 18004KT 15SM FEW210 M19/M21 A3031 RMK CI1 FROIN SLP354

CYQF;2015-11-26 06:00;CYQF 260600Z 21003KT 15SM SKC M18/M20 A3032 RMK FROIN SLP354

CYQF;2015-11-26 07:00;CYQF 260700Z 21003KT 15SM SKC M20/M23 A3034 RMK SLP360

CYQF;2015-11-26 08:00;CYQF 260800Z 28003KT 15SM SKC M16/M18 A3035 RMK FROIN SLP358

CYQF;2015-11-26 09:00;CYQF 260900Z 18007KT 15SM SKC M19/M21 A3037 RMK SLP363

CYQF;2015-11-26 10:00;CYQF 261000Z 21005KT 15SM SKC M18/M20 A3037 RMK FROIN SLP361

CYQF;2015-11-26 11:00;CYQF 261100Z 21005KT 15SM SKC M20/M22 A3038 RMK FROIN SLP363

CYQF;2015-11-26 12:00;CYQF 261200Z 20004KT 15SM SKC M21/M23 A3038 RMK FROIN SLP373

CYQF;2015-11-26 13:00;CYQF 261300Z 20006KT 15SM SKC M17/M19 A3038 RMK FROIN SLP371

CYQF;2015-11-26 14:00;CYQF 261400Z 21005KT 15SM FEW190 M19/M21 A3037 RMK AC2 FROIN SLP369

CYQF;2015-11-26 15:00;CYQF 261500Z 23003KT 15SM SCT190 M19/M21 A3037 RMK AC4 SLP372

CYQF;2015-11-26 16:00;CYQF 261600Z 25004KT 15SM SCT190 BKN240 M17/M19 A3036 RMK AC4CI2 SLP367

CYQF;2015-11-26 17:00;CYQF 261700Z 20003KT 15SM FEW210 M14/M16 A3035 RMK CI2 SLP360

CYQF;2015-11-26 18:00;CYQF 261800Z 20006KT 15SM FEW210 M11/M13 A3033 RMK CI1 SLP347

CYQF;2015-11-26 19:00;CYQF 261900Z 18009KT 15SM FEW210 M08/M11 A3029 RMK CI2 SLP334

CYQF;2015-11-26 20:00;CYQF 262000Z 15004KT 15SM FEW210 M07/M12 A3028 RMK CI2 SLP323

CYQF;2015-11-26 21:00;CYQF 262100Z 18005KT 15SM FEW210 M07/M12 A3027 RMK CI2 SLP325

CYQF;2015-11-26 22:00;CYQF 262200Z 18007KT 15SM SCT210 M06/M11 A3026 RMK CI4 SLP318

CYQF;2015-11-26 23:00;CYQF 262300Z 19006KT 15SM BKN210 M07/M12 A3025 RMK CI6 SLP318

CYQF;2015-11-27 00:00;CYQF 270000Z 19004KT 15SM SCT210 M10/M13 A3024 RMK CI4 SLP320

CYQF;2015-11-27 01:00;CYQF 270100Z 19004KT 15SM FEW210 M10/M12 A3024 RMK CI2 SLP314

CYQF;2015-11-27 02:00;CYQF 270200Z 21003KT 15SM SKC M10/M12 A3022 RMK SLP311

CYQF;2015-11-27 03:00;CYQF 270300Z 18004KT 15SM SKC M12/M13 A3024 RMK SLP317

CYQF;2015-11-27 04:00;CYQF 270400Z 22009KT 15SM SKC M13/M14 A3023 RMK SLP314

CYQF;2015-11-27 05:00;CYQF 270500Z 21005KT 15SM SKC M16/M18 A3023 RMK SLP315

CYQF;2015-11-27 06:00;CYQF 270600Z 19005KT 15SM SKC M17/M19 A3023 RMK FROIN SLP311

CYQF;2015-11-27 07:00;CYQF 270700Z 21004KT 15SM SKC M16/M18 A3024 RMK FROIN SLP310

CYQF;2015-11-27 08:00;CYQF 270800Z 20006KT 15SM SKC M17/M19 A3022 RMK SLP304

CYQF;2015-11-27 09:00;CYQF 270900Z 19006KT 15SM SKC M16/M17 A3022 RMK FROIN SLP301

CYQF;2015-11-27 10:00;CYQF 271000Z 20006KT 20SM SKC M15/M17 A3023 RMK FROIN SLP304

CYQF;2015-11-27 11:00;CYQF 271100Z 22004KT 150V230 15SM SKC M16/M18 A3022 RMK SLP304

CYQF;2015-11-27 12:00;CYQF 271200Z 22003KT 160V230 15SM SKC M16/M18 A3022 RMK FROIN SLP305

CYQF;2015-11-27 13:00;CYQF 271300Z VRB02KT 15SM SKC M13/M16 A3021 RMK FROIN SLP300

CYQF;2015-11-27 14:00;CYQF 271400Z 18004KT 15SM SKC M17/M19 A3022 RMK FROIN SLP308

CYQF;2015-11-27 15:00;CYQF 271500Z 19006KT 15SM FEW210 M17/M19 A3022 RMK CI1 SLP309

CYQF;2015-11-27 16:00;CYQF 271600Z 20006KT 15SM FEW210 M16/M18 A3022 RMK CI2 SLP309

CYQF;2015-11-27 17:00;CYQF 271700Z 20007KT 15SM FEW210 M10/M14 A3023 RMK CI2 SLP309

CYQF;2015-11-27 18:00;CYQF 271800Z 20006KT 15SM BKN210 M08/M13 A3024 RMK CI7 SLP311

CYQF;2015-11-27 19:00;CYQF 271900Z 19004KT 170V230 15SM BKN250 M06/M12 A3022 RMK CI5 SLP302

CYQF;2015-11-27 20:00;CYQF 272000Z 25008KT 15SM SCT250 M02/M11 A3022 RMK CI3 SLP298

CYQF;2015-11-27 21:00;CYQF 272100Z 26008KT 15SM FEW250 M02/M11 A3021 RMK CI2 SLP292

CYQF;2015-11-27 22:00;CYQF 272200Z 23007KT 15SM FEW250 M01/M11 A3021 RMK CI2 SLP291

CYQF;2015-11-27 23:00;CYQF 272300Z 15005KT 140V260 15SM FEW250 M04/M12 A3022 RMK CI2 SLP300

CYQF;2015-11-28 00:00;CYQF 280000Z 20006KT 15SM SCT250 M04/M12 A3023 RMK CC3 SLP302

CYQF;2015-11-28 01:00;CYQF 280100Z 24008KT 15SM SKC M05/M12 A3025 RMK SLP306

CYQF;2015-11-28 02:00;CYQF 280200Z 23005KT 15SM SKC M10/M14 A3026 RMK SLP322

CYQF;2015-11-28 03:01;CYQF 280301Z 19005KT 15SM SKC M12/M17 A3026 RMK SLP324

CYQF;2015-11-28 04:00;CYQF 280400Z 20006KT 15SM SKC M15/M18 A3027 RMK SLP331

CYQF;2015-11-28 05:00;CYQF 280500Z 20004KT 15SM SKC M14/M16 A3027 RMK SLP323

CYQF;2015-11-28 06:00;CYQF 280600Z VRB02KT 15SM SKC M14/M16 A3028 RMK SLP321

CYQF;2015-11-28 07:00;CYQF 280700Z 20008KT 15SM SKC M13/M17 A3027 RMK SLP316

CYQF;2015-11-28 08:00;CYQF 280800Z 20005KT 15SM SKC M14/M17 A3027 RMK SLP311

CYQF;2015-11-28 09:00;CYQF 280900Z 20007KT 15SM SKC M15/M18 A3026 RMK SLP310

CYQF;2015-11-28 10:00;CYQF 281000Z 20007KT 15SM SKC M15/M18 A3026 RMK SLP310

CYQF;2015-11-28 11:00;CYQF 281100Z 20007KT 15SM SKC M16/M19 A3026 RMK SLP315

CYQF;2015-11-28 12:00;CYQF 281200Z 20007KT 15SM SKC M17/M19 A3026 RMK SLP314

CYQF;2015-11-28 13:00;CYQF 281300Z 20007KT 15SM SKC M16/M19 A3025 RMK SLP313

CYQF;2015-11-28 14:00;CYQF 281400Z 20005KT 15SM SKC M15/M19 A3025 RMK SLP314

CYQF;2015-11-28 15:00;CYQF 281500Z 20007KT 15SM FEW250 M19/M22 A3023 RMK CI1 CI TR SLP314

CYQF;2015-11-28 16:00;CYQF 281600Z 21006KT 15SM FEW250 M16/M19 A3023 RMK CI2 SLP315

CYQF;2015-11-28 17:00;CYQF 281700Z 19006KT 15SM FEW250 M14/M18 A3024 RMK CI2 SLP314

CYQF;2015-11-28 18:00;CYQF 281800Z 20007KT 15SM FEW250 M10/M15 A3024 RMK CI1 SLP310

CYQF;2015-11-28 19:00;CYQF 281900Z 20007KT 15SM FEW250 M07/M14 A3021 RMK CI2 SLP296

CYQF;2015-11-28 20:00;CYQF 282000Z 21006KT 15SM FEW250 M06/M13 A3019 RMK CI2 SLP290

CYQF;2015-11-28 21:00;CYQF 282100Z 20004KT 15SM SCT250 M04/M13 A3017 RMK CI3 SLP282

CYQF;2015-11-28 22:00;CYQF 282200Z 20004KT 15SM SCT250 M04/M13 A3016 RMK CI3 SLP276

CYQF;2015-11-28 23:00;CYQF 282300Z 20007KT 15SM BKN250 M06/M12 A3015 RMK CI5 SLP277

CYQF;2015-11-29 00:00;CYQF 290000Z 18004KT 15SM BKN250 M07/M13 A3016 RMK CI5 SLP282

CYQF;2015-11-29 01:00;CYQF 290100Z 20005KT 15SM SCT250 M07/M14 A3015 RMK CI3 SLP281

CYQF;2015-11-29 02:00;CYQF 290200Z 19003KT 15SM SCT250 M13/M17 A3015 RMK CI3 SLP286

CYQF;2015-11-29 03:00;CYQF 290300Z 20006KT 15SM FEW250 M15/M17 A3015 RMK CI2 SLP291

CYQF;2015-11-29 04:00;CYQF 290400Z 21004KT 15SM SKC M12/M15 A3014 RMK SLP282

CYQF;2015-11-29 05:00;CYQF 290500Z 18004KT 15SM SKC M16/M19 A3014 RMK SLP285

CYQF;2015-11-29 06:00;CYQF 290600Z 19003KT 15SM SKC M16/M18 A3014 RMK FROIN SLP278

CYQF;2015-11-29 07:00;CYQF 290700Z 21006KT 15SM SKC M14/M16 A3013 RMK SLP271

CYQF;2015-11-29 08:00;CYQF 290800Z 21007KT 15SM SKC M16/M19 A3012 RMK SLP267

CYQF;2015-11-29 09:00;CYQF 290900Z 20005KT 15SM SKC M16/M18 A3012 RMK SLP265

CYQF;2015-11-29 10:00;CYQF 291000Z 20006KT 15SM SKC M17/M20 A3012 RMK SLP264

CYQF;2015-11-29 11:00;CYQF 291100Z 21007KT 15SM SKC M14/M16 A3010 RMK SLP258

CYQF;2015-11-29 12:00;CYQF 291200Z 20006KT 15SM SKC M17/M19 A3010 RMK SLP263

CYQF;2015-11-29 13:00;CYQF 291300Z 19007KT 15SM SKC M17/M20 A3010 RMK SLP263

CYQF;2015-11-29 14:00;CYQF 291400Z 20007KT 15SM FEW250 M18/M20 A3010 RMK CI2 SLP271

CYQF;2015-11-29 15:00;CYQF 291500Z 20008KT 15SM SCT250 M17/M19 A3011 RMK CI3 SLP275

CYQF;2015-11-29 16:00;CYQF 291600Z 20006KT 15SM SCT250 M16/M19 A3011 RMK CI3 SLP269

CYQF;2015-11-29 17:00;CYQF 291700Z 20007KT 15SM SCT250 M15/M18 A3011 RMK CI3 SLP273

CYQF;2015-11-29 18:00;CYQF 291800Z 20006KT 15SM SCT250 M10/M15 A3010 RMK CI3 SLP265

CYQF;2015-11-29 19:00;CYQF 291900Z 19006KT 15SM FEW250 M07/M13 A3008 RMK CI1 SLP253

CYQF;2015-11-29 20:00;CYQF 292000Z 19007KT 15SM FEW250 M06/M13 A3007 RMK CI1 SLP249

CYQF;2015-11-29 21:00;CYQF 292100Z 19005KT 15SM FEW250 M04/M12 A3006 RMK CI1 CI TR SLP242

CYQF;2015-11-29 22:00;CYQF 292200Z 20005KT 15SM FEW250 M05/M12 A3005 RMK CI1 CI TR SLP240

CYQF;2015-11-29 23:00;CYQF 292300Z 20004KT 15SM FEW250 M05/M13 A3005 RMK CI1 CI TR SLP237

CYQF;2015-11-30 00:00;CYQF 300000Z 19003KT 15SM FEW250 M06/M13 A3004 RMK CI1 CI TR SLP240

CYQF;2015-11-30 01:00;CYQF 300100Z 20003KT 15SM SKC M08/M15 A3003 RMK SLP241

CYQF;2015-11-30 02:00;CYQF 300200Z 20005KT 15SM SKC M12/M15 A3002 RMK SLP242

CYQF;2015-11-30 03:00;CYQF 300300Z 19005KT 15SM SKC M12/M15 A3002 RMK SLP238

CYQF;2015-11-30 04:00;CYQF 300400Z 19004KT 15SM SKC M13/M16 A3001 RMK SLP237

CYQF;2015-11-30 05:00;CYQF 300500Z 17004KT 15SM SKC M15/M18 A3001 RMK SLP236

CYQF;2015-11-30 06:00;CYQF 300600Z 22004KT 15SM SKC M13/M16 A3000 RMK SLP224

CYQF;2015-11-30 07:00;CYQF 300700Z 21006KT 15SM SKC M13/M16 A2999 RMK SLP219

CYQF;2015-11-30 08:00;CYQF 300800Z 21002KT 15SM SKC M15/M18 A2998 RMK SLP216

CYQF;2015-11-30 09:00;CYQF 300900Z 20004KT 15SM SKC M13/M18 A2997 RMK SLP209

CYQF;2015-11-30 10:00;CYQF 301000Z 20005KT 15SM SKC M16/M19 A2996 RMK SLP211

CYQF;2015-11-30 11:00;CYQF 301100Z 23006KT 15SM SKC M14/M16 A2995 RMK WND ESTD SLP205

CYQF;2015-11-30 12:00;CYQF 301200Z 21006KT 15SM SKC M16/M19 A2995 RMK SLP207

CYQF;2015-11-30 13:00;CYQF 301300Z 20005KT 15SM SKC M18/M21 A2994 RMK SLP210

CYQF;2015-11-30 14:00;CYQF 301400Z 21007KT 15SM SKC M18/M20 A2994 RMK SLP212

CYQF;2015-11-30 15:00;CYQF 301500Z 23008KT 15SM SKC M17/M20 A2994 RMK WND ESTD SLP210

CYQF;2015-11-30 16:00;CYQF 301600Z 20007KT 15SM SKC M18/M20 A2994 RMK SLP216

CYQF;2015-11-30 17:00;CYQF 301700Z 20007KT 15SM SKC M14/M18 A2994 RMK SLP214

CYQF;2015-11-30 18:00;CYQF 301800Z 20005KT 15SM SKC M11/M16 A2993 RMK SLP202

CYQF;2015-11-30 19:00;CYQF 301900Z 20005KT 15SM SKC M09/M14 A2991 RMK SLP193

CYQF;2015-11-30 20:00;CYQF 302000Z 20005KT 15SM SKC M07/M13 A2989 RMK SLP186

CYQF;2015-11-30 21:00;CYQF 302100Z 18004KT 15SM SKC M05/M13 A2987 RMK SLP176

CYQF;2015-11-30 22:00;CYQF 302200Z 20003KT 15SM SKC M05/M13 A2986 RMK SLP173

CYQF;2015-11-30 23:00;CYQF 302300Z 20003KT 15SM SKC M05/M13 A2985 RMK SLP168

CYQF;2015-12-01 00:00;CYQF 010000Z 24003KT 15SM SKC M05/M13 A2985 RMK SLP171

CYQF;2015-12-01 01:00;CYQF 010100Z 00000KT 15SM SKC M08/M14 A2985 RMK SLP177

CYQF;2015-12-01 02:00;CYQF 010200Z 20002KT 15SM SKC M08/M13 A2984 RMK SLP173

CYQF;2015-12-01 03:00;CYQF 010300Z 18003KT 15SM SKC M12/M16 A2984 RMK SLP178

CYQF;2015-12-01 04:00;CYQF 010400Z 20003KT 15SM SKC M16/M18 A2984 RMK SLP183

CYQF;2015-12-01 05:00;CYQF 010500Z 24003KT 15SM SKC M16/M18 A2984 RMK SLP178

CYQF;2015-12-01 06:00;CYQF 010600Z 22003KT 15SM SKC M17/M19 A2984 RMK SLP174

CYQF;2015-12-01 07:00;CYQF 010700Z 21003KT 15SM SKC M16/M18 A2984 RMK SLP172

CYQF;2015-12-01 08:00;CYQF 010800Z 22005KT 15SM SKC M19/M21 A2982 RMK SLP167

CYQF;2015-12-01 09:00;CYQF 010900Z 21005KT 15SM SKC M16/M18 A2982 RMK SLP162

CYQF;2015-12-01 10:00;CYQF 011000Z 19007KT 15SM SKC M18/M20 A2983 RMK SLP166

CYQF;2015-12-01 11:00;CYQF 011100Z 20004KT 15SM SKC M18/M20 A2982 RMK SLP163

CYQF;2015-12-01 12:00;CYQF 011200Z 19006KT 15SM SKC M18/M20 A2983 RMK SLP166

CYQF;2015-12-01 13:00;CYQF 011300Z 22007KT 15SM SKC M16/M18 A2984 RMK SLP172

CYQF;2015-12-01 14:00;CYQF 011400Z 20005KT 15SM SKC M17/M20 A2985 RMK SLP176

CYQF;2015-12-01 15:00;CYQF 011500Z 21007KT 15SM SKC M18/M20 A2985 RMK SLP182

CYQF;2015-12-01 16:00;CYQF 011600Z 21006KT 15SM SKC M16/M18 A2986 RMK SLP188

CYQF;2015-12-01 17:00;CYQF 011700Z 18005KT 15SM SKC M14/M17 A2988 RMK SLP194

CYQF;2015-12-01 18:00;CYQF 011800Z 18005KT 15SM SKC M11/M15 A2989 RMK SLP194

CYQF;2015-12-01 19:00;CYQF 011900Z 20004KT 15SM SKC M08/M14 A2989 RMK SLP189

CYQF;2015-12-01 20:00;CYQF 012000Z 18004KT 15SM SKC M06/M12 A2989 RMK SLP189

CYQF;2015-12-01 21:00;CYQF 012100Z 19005KT 15SM SKC M05/M12 A2989 RMK SLP185

CYQF;2015-12-01 22:00;CYQF 012200Z 23005KT 15SM SKC M04/M12 A2989 RMK SLP187

CYQF;2015-12-01 23:00;CYQF 012300Z 19002KT 15SM SKC M05/M13 A2990 RMK SLP191

CYQF;2015-12-02 00:00;CYQF 020000Z 22004KT 15SM FEW240 M04/M12 A2991 RMK CI1 SLP192

CYQF;2015-12-02 01:00;CYQF 020100Z 18002KT 15SM FEW240 M10/M15 A2990 RMK CI1 SLP196

CYQF;2015-12-02 02:00;CYQF 020200Z 23005KT 15SM FEW240 M11/M15 A2990 RMK CI1 SLP199

CYQF;2015-12-02 03:00;CYQF 020300Z 20005KT 15SM SKC M12/M16 A2989 RMK SLP196

CYQF;2015-12-02 04:00;CYQF 020400Z 20007KT 15SM SKC M10/M14 A2989 RMK SLP192

CYQF;2015-12-02 05:00;CYQF 020500Z 22005KT 15SM SKC M08/M15 A2986 RMK SLP177

CYQF;2015-12-02 06:00;CYQF 020600Z 23004KT 15SM SKC M10/M15 A2984 RMK SLP169

CYQF;2015-12-02 07:00;CYQF 020700Z VRB02KT 15SM SKC M12/M16 A2981 RMK SLP157

CYQF;2015-12-02 08:00;CYQF 020800Z 19005KT 15SM SKC M09/M13 A2978 RMK SLP141

CYQF;2015-12-02 09:00;CYQF 020900Z 18005KT 15SM SCT250 M11/M14 A2976 RMK CI3 SLP133

CYQF;2015-12-02 10:00;CYQF 021000Z 19007KT 15SM BKN220 M09/M12 A2974 RMK CI6 SLP122

CYQF;2015-12-02 11:00;CYQF 021100Z 19007KT 15SM OVC210 M03/M07 A2970 RMK CS8 SLP103

CYQF;2015-12-02 12:00;CYQF 021200Z 19005KT 15SM BKN160 OVC210 M03/M07 A2967 RMK AC6CS2 SLP095

CYQF;2015-12-02 13:00;CYQF 021300Z 20005KT 15SM BKN120 OVC220 M02/M07 A2966 RMK AC6CS2 SLP093

CYQF;2015-12-02 14:00;CYQF 021400Z 28004KT 220V310 15SM OVC200 00/M06 A2965 RMK CS8 SLP089

CYQF;2015-12-02 15:00;CYQF 021500Z 24011KT 220V290 15SM OVC240 02/M06 A2964 RMK CS8 SLP086

CYQF;2015-12-02 16:00;CYQF 021600Z 25010KT 15SM BKN260 02/M06 A2965 RMK CI7 SLP086

CYQF;2015-12-02 17:00;CYQF 021700Z 25013G21KT 15SM BKN260 04/M07 A2967 RMK CI6 SLP091

CYQF;2015-12-02 18:00;CYQF 021800Z 25004KT 15SM SCT260 02/M07 A2971 RMK CI4 SLP109

CYQF;2015-12-02 19:00;CYQF 021900Z 17002KT 15SM SCT260 02/M07 A2974 RMK CI4 SLP121

CYQF;2015-12-02 20:00;CYQF 022000Z 25004KT 15SM SCT260 04/M07 A2975 RMK CI3 SLP118

CYQF;2015-12-02 21:00;CYQF 022100Z 19005KT 15SM SCT260 02/M06 A2977 RMK CI3 SLP130

CYQF;2015-12-02 22:00;CYQF 022200Z 18003KT 15SM SCT260 01/M06 A2979 RMK CI3 SLP137

CYQF;2015-12-02 23:00;CYQF 022300Z 20003KT 15SM SCT260 01/M07 A2981 RMK CI3 SLP136

CYQF;2015-12-03 00:00;CYQF 030000Z 36008KT 15SM SCT260 M05/M12 A2984 RMK CI3 WND ESTD SLP154

CYQF;2015-12-03 01:00;CYQF 030100Z 19007KT 15SM FEW260 M08/M13 A2984 RMK CI2 SLP156

CYQF;2015-12-03 02:00;CYQF 030200Z VRB05KT 15SM SCT260 M08/M12 A2985 RMK CI3 SLP156

CYQF;2015-12-03 03:00;CYQF 030300Z 20008KT 15SM BKN230 M05/M10 A2986 RMK CI5 SLP152

CYQF;2015-12-03 04:00;CYQF 030400Z 21006KT 15SM BKN170 M05/M10 A2986 RMK AC5 SLP156

CYQF;2015-12-03 05:00;CYQF 030500Z 19004KT 15SM SCT160 BKN240 M05/M09 A2985 RMK AC3CI3 SLP149

CYQF;2015-12-03 06:00;CYQF 030600Z 20004KT 15SM BKN240 M05/M09 A2984 RMK CI5 SLP147

CYQF;2015-12-03 07:00;CYQF 030700Z 18005KT 15SM OVC200 M03/M09 A2982 RMK CI8 SLP138

CYQF;2015-12-03 08:00;CYQF 030800Z 21004KT 150V220 15SM SCT160 OVC210 M03/M09 A2981 RMK AC3CI5 SLP133

CYQF;2015-12-03 09:00;CYQF 030900Z 15008KT 15SM SCT220 M03/M09 A2978 RMK CI4 SLP124

CYQF;2015-12-03 10:00;CYQF 031000Z 17009KT 15SM SCT220 M04/M09 A2976 RMK CI4 SLP119

CYQF;2015-12-03 11:00;CYQF 031100Z 16010KT 15SM FEW220 M03/M10 A2973 RMK CI2 SLP108

CYQF;2015-12-03 12:00;CYQF 031200Z 00000KT 15SM BKN240 M04/M11 A2969 RMK CS6 SLP103

CYQF;2015-12-03 13:00;CYQF 031300Z 20006KT 15SM OVC230 M04/M09 A2966 RMK CS8 SLP097

CYQF;2015-12-03 14:00;CYQF 031400Z 19012KT 15SM OVC200 M00/M07 A2965 RMK CI8 SLP088

CYQF;2015-12-03 15:00;CYQF 031500Z 18009KT 15SM BKN260 M04/M09 A2963 RMK CI7 SLP079

CYQF;2015-12-03 16:00;CYQF 031600Z 19004KT 15SM BKN230 M04/M09 A2959 RMK CI7 SLP068

CYQF;2015-12-03 17:00;CYQF 031700Z 16012KT 15SM BKN220 M03/M08 A2956 RMK CI7 PRESFR SLP056

CYQF;2015-12-03 18:00;CYQF 031800Z 16010KT 15SM FEW025 SCT220 BKN260 M03/M08 A2954 RMK SC1CI4CI3 SC TR SLP047

CYQF;2015-12-03 19:00;CYQF 031900Z 16005KT 15SM FEW025 BKN260 M01/M06 A2948 RMK SC1CI7 SC TR PRESFR SLP024

CYQF;2015-12-03 20:00;CYQF 032000Z 17007KT 15SM FEW025 BKN260 01/M05 A2945 RMK SC1CI6 SLP011

CYQF;2015-12-03 21:00;CYQF 032100Z 16005KT 15SM FEW025 BKN260 04/M02 A2943 RMK SC1CI7 SC TR SLP001

CYQF;2015-12-03 22:00;CYQF 032200Z 18012G19KT 15SM FEW025 OVC260 06/M01 A2941 RMK SC1CI7 SLP994 DENSITY ALT 3100FT

CYQF;2015-12-03 23:00;CYQF 032300Z 18014G19KT 15SM FEW025 BKN260 05/M00 A2941 RMK SC1CI6 SLP992 DENSITY ALT 3000FT

CYQF;2015-12-04 00:00;CYQF 040000Z 20010KT 15SM FEW025 BKN260 04/M00 A2939 RMK SC1CI7 SC TR SLP989

CYQF;2015-12-04 01:00;CYQF 040100Z 20010G17KT 15SM FEW025 BKN260 05/M01 A2938 RMK SC1CI7 SC TR SLP983 DENSITY ALT 3000FT

CYQF;2015-12-04 02:00;CYQF 040200Z 17012KT 15SM OVC260 05/M01 A2936 RMK CI8 SLP973 DENSITY ALT 3000FT

CYQF;2015-12-04 03:00;CYQF 040300Z 20002KT 15SM OVC230 03/M01 A2936 RMK CI8 SLP978

CYQF;2015-12-04 04:00;CYQF 040400Z 18013KT 15SM FEW025 OVC230 05/M01 A2935 RMK SC1CI8 SC TR SLP971 DENSITY ALT 3000FT

CYQF;2015-12-04 05:00;CYQF 040500Z 20003KT 160V250 15SM OVC230 04/M01 A2933 RMK CI8 SLP967 DENSITY ALT 3000FT

CYQF;2015-12-04 06:00;CYQF 040600Z 19013KT 15SM SKC 04/M01 A2932 RMK SLP962 DENSITY ALT 3000FT

CYQF;2015-12-04 07:00;CYQF 040700Z 20011G18KT 15SM SKC 04/M01 A2932 RMK SLP960 DENSITY ALT 3000FT

CYQF;2015-12-04 08:00;CYQF 040800Z 20014KT 15SM FEW240 04/M02 A2933 RMK CI2 SLP962 DENSITY ALT 3000FT

CYQF;2015-12-04 09:00;CYQF 040900Z 20012KT 15SM SCT240 04/M02 A2933 RMK CI3 SLP959 DENSITY ALT 3000FT

CYQF;2015-12-04 10:00;CYQF 041000Z 20012KT 15SM SCT240 04/M02 A2933 RMK CI3 SLP957 DENSITY ALT 3000FT

CYQF;2015-12-04 11:00;CYQF 041100Z 19010KT 15SM BKN210 04/M02 A2933 RMK CI6 SLP958

CYQF;2015-12-04 12:00;CYQF 041200Z 18008KT 15SM SCT240 02/M02 A2933 RMK CI4 SLP959

CYQF;2015-12-04 13:00;CYQF 041300Z 21008KT 15SM SCT240 01/M03 A2933 RMK CI3 SLP959

CYQF;2015-12-04 14:00;CYQF 041400Z 20005KT 15SM SCT240 M01/M05 A2936 RMK CI3 SLP971

CYQF;2015-12-04 15:00;CYQF 041500Z 23009KT 15SM BKN200 01/M04 A2940 RMK CI6 PRESRR SLP988

CYQF;2015-12-04 16:00;CYQF 041600Z 27005KT 15SM BKN130 03/M03 A2944 RMK AC7 SLP996

CYQF;2015-12-04 17:00;CYQF 041700Z 28006KT 15SM BKN130 04/M03 A2948 RMK AC7 SLP011

CYQF;2015-12-04 18:00;CYQF 041800Z 35006KT 340V040 15SM BKN130 04/M03 A2952 RMK AC7 SLP023

CYQF;2015-12-04 19:00;CYQF 041900Z 29008KT 15SM BKN140 03/M03 A2955 RMK AC7 SLP035

CYQF;2015-12-04 20:00;CYQF 042000Z 27006KT 15SM FEW025 BKN190 03/M03 A2958 RMK SC1AC7 SC TR SLP046

CYQF;2015-12-04 21:00;CYQF 042100Z 17005KT 150V290 15SM FEW025 BKN210 01/M03 A2960 RMK SC1CI7 SC TR SLP054

CYQF;2015-12-04 22:00;CYQF 042200Z 22005KT 15SM FEW025 BKN220 01/M03 A2962 RMK SC1CI7 SC TR SLP062

CYQF;2015-12-04 23:00;CYQF 042300Z 16007KT 15SM FEW025 BKN250 M01/M04 A2964 RMK SC1CI7 SC TR SLP073

CYQF;2015-12-05 00:00;CYQF 050000Z 20009KT 15SM FEW025 BKN250 00/M04 A2967 RMK SC1CI6 SC TR SLP083

CYQF;2015-12-05 01:00;CYQF 050100Z 18007KT 15SM SCT250 M03/M06 A2969 RMK CI4 SLP094

CYQF;2015-12-05 02:00;CYQF 050200Z 20004KT 15SM SCT200 M03/M06 A2970 RMK CI3 SLP100

CYQF;2015-12-05 03:00;CYQF 050300Z 16005KT 120V220 15SM SKC M06/M07 A2972 RMK FROIN SLP108

CYQF;2015-12-05 04:00;CYQF 050400Z 20006KT 15SM SKC M06/M09 A2973 RMK SLP110

CYQF;2015-12-05 05:00;CYQF 050500Z 21007KT 15SM SCT230 M04/M10 A2974 RMK CI3 SLP108

CYQF;2015-12-05 06:00;CYQF 050600Z 23008KT 15SM SKC M04/M10 A2976 RMK SLP115

CYQF;2015-12-05 07:00;CYQF 050700Z 19006KT 15SM SKC M07/M12 A2976 RMK SLP122

CYQF;2015-12-05 08:00;CYQF 050800Z 20002KT 15SM FEW220 M08/M13 A2977 RMK CI2 SLP125

CYQF;2015-12-05 09:00;CYQF 050900Z 26005KT 15SM SKC M02/M11 A2978 RMK SLP125

CYQF;2015-12-05 10:00;CYQF 051000Z 25007KT 15SM FEW220 M02/M11 A2982 RMK CI2 SLP137

CYQF;2015-12-05 11:00;CYQF 051100Z 24006KT 15SM FEW220 M02/M11 A2983 RMK CI2 SLP144

CYQF;2015-12-05 12:00;CYQF 051200Z 17005KT 15SM FEW220 M09/M14 A2985 RMK CI2 SLP158

CYQF;2015-12-05 13:00;CYQF 051300Z 20007KT 15SM SKC M06/M12 A2986 RMK SLP162

CYQF;2015-12-05 14:00;CYQF 051400Z 19006KT 15SM SKC M08/M14 A2987 RMK SLP169

CYQF;2015-12-05 15:00;CYQF 051500Z 20006KT 15SM SCT260 M10/M13 A2990 RMK CI3 SLP184

CYQF;2015-12-05 16:00;CYQF 051600Z 20005KT 15SM BKN260 M08/M12 A2992 RMK CI7 SLP186

CYQF;2015-12-05 17:00;CYQF 051700Z 19007KT 15SM FEW080 BKN260 M05/M11 A2994 RMK AC2CI5 SLP191

CYQF;2015-12-05 18:00;CYQF 051800Z 19005KT 15SM FEW080 BKN260 M06/M11 A2993 RMK AC2CI5 SLP187

CYQF;2015-12-05 19:00;CYQF 051900Z 18005KT 15SM FEW080 BKN260 M03/M09 A2992 RMK AC2CI5 SLP185

CYQF;2015-12-05 20:00;CYQF 052000Z 19007KT 15SM FEW080 BKN260 01/M07 A2990 RMK AC2CI5 SLP173

CYQF;2015-12-05 21:00;CYQF 052100Z 18005KT 15SM FEW080 SCT180 BKN260 01/M05 A2989 RMK AC2AC2CI3 SLP164

CYQF;2015-12-05 22:00;CYQF 052200Z 17007KT 15SM BKN140 BKN260 01/M05 A2987 RMK AC5CI2 SLP157

CYQF;2015-12-05 23:00;CYQF 052300Z 18007KT 15SM BKN120 BKN260 01/M04 A2986 RMK AC5CI2 SLP153

CYQF;2015-12-06 00:00;CYQF 060000Z 18009KT 15SM BKN140 BKN260 00/M06 A2984 RMK AC6CI1 SLP154

CYQF;2015-12-06 01:00;CYQF 060100Z 19007KT 15SM SCT160 BKN260 M00/M07 A2981 RMK AC3CI3 SLP143

CYQF;2015-12-06 02:00;CYQF 060200Z 21013KT 15SM BKN110 04/M06 A2979 RMK AC7 SLP133

CYQF;2015-12-06 03:00;CYQF 060300Z 21010KT 15SM OVC130 03/M05 A2978 RMK AC8 SLP129

CYQF;2015-12-06 04:00;CYQF 060400Z 21011G18KT 15SM OVC160 03/M05 A2975 RMK AC8 SLP117

CYQF;2015-12-06 05:00;CYQF 060500Z 17008KT 15SM OVC190 01/M05 A2972 RMK AC8 SLP108

CYQF;2015-12-06 06:00;CYQF 060600Z 20009KT 15SM SCT150 BKN210 02/M06 A2972 RMK AC3CI3 SLP106

CYQF;2015-12-06 07:00;CYQF 060700Z 20003KT 15SM BKN240 M00/M06 A2969 RMK CI6 SLP097

CYQF;2015-12-06 08:00;CYQF 060800Z 20006KT 20SM BKN200 M02/M07 A2967 RMK CI6 SLP088

CYQF;2015-12-06 09:00;CYQF 060900Z 22017KT 15SM BKN240 03/M05 A2965 RMK CI7 SLP073

CYQF;2015-12-06 10:00;CYQF 061000Z 19017G24KT 15SM BKN220 04/M04 A2963 RMK CI7 SLP067

CYQF;2015-12-06 11:00;CYQF 061100Z 20006KT 15SM SCT220 02/M05 A2963 RMK CI3 SLP066

CYQF;2015-12-06 12:00;CYQF 061200Z 16007KT 15SM SCT220 M00/M06 A2962 RMK CI3 SLP068

CYQF;2015-12-06 13:00;CYQF 061300Z 21008KT 15SM BKN250 M01/M06 A2962 RMK CI5 SLP069

CYQF;2015-12-06 14:00;CYQF 061400Z 21007KT 15SM OVC250 M02/M06 A2962 RMK CI8 SLP064

CYQF;2015-12-06 15:00;CYQF 061500Z 21006KT 15SM OVC230 M00/M06 A2961 RMK CI8 SLP062

CYQF;2015-12-06 16:00;CYQF 061600Z 23002KT 15SM OVC230 M00/M06 A2960 RMK CI8 SLP058

CYQF;2015-12-06 17:00;CYQF 061700Z 31002KT 15SM FEW030 FEW230 BKN260 M02/M06 A2961 RMK SC1CI2CI5 SC TR SLP066

CYQF;2015-12-06 18:00;CYQF 061800Z 17005KT 15SM FEW030 SCT150 BKN260 M02/M06 A2961 RMK SC1AC3CI3 SLP065

CYQF;2015-12-06 19:00;CYQF 061900Z 20003KT 15SM SCT130 OVC250 M02/M06 A2961 RMK AC4CI4 SLP066

CYQF;2015-12-06 20:00;CYQF 062000Z 17006KT 15SM SCT140 OVC250 M01/M05 A2961 RMK AC4CI4 SLP068

CYQF;2015-12-06 21:00;CYQF 062100Z 24006KT 15SM BKN120 BKN250 01/M04 A2960 RMK AC5CI2 SLP056

CYQF;2015-12-06 22:00;CYQF 062200Z 19003KT 120V250 15SM BKN120 BKN250 01/M05 A2960 RMK AC5CI2 SLP054

CYQF;2015-12-06 23:00;CYQF 062300Z 14003KT 070V150 15SM BKN140 BKN250 00/M04 A2961 RMK AC5CI2 SLP063

CYQF;2015-12-07 00:00;CYQF 070000Z 21005KT 15SM SCT140 BKN250 01/M05 A2962 RMK AC3CI3 SLP068

CYQF;2015-12-07 01:00;CYQF 070100Z 11005KT 15SM FEW140 BKN250 M04/M07 A2964 RMK AC2CI4 SLP080

CYQF;2015-12-07 02:00;CYQF 070200Z 35003KT 15SM SCT220 M04/M06 A2964 RMK CI3 SLP081

CYQF;2015-12-07 03:00;CYQF 070300Z VRB02KT 15SM FEW220 M07/M09 A2965 RMK CI2 SLP086

CYQF;2015-12-07 04:00;CYQF 070400Z 20005KT 15SM FEW220 M07/M08 A2965 RMK CI2 SLP084

CYQF;2015-12-07 05:00;CYQF 070500Z 22008KT 15SM BKN250 M04/M08 A2964 RMK CI5 SLP080

CYQF;2015-12-07 06:00;CYQF 070600Z 24012KT 15SM OVC220 01/M06 A2962 RMK CI8 SLP069

CYQF;2015-12-07 07:00;CYQF 070700Z 22010KT 15SM OVC210 02/M05 A2960 RMK CI8 SLP060

CYQF;2015-12-07 08:00;CYQF 070800Z 20005KT 15SM OVC210 02/M05 A2960 RMK CI8 SLP060

CYQF;2015-12-07 09:00;CYQF 070900Z 20007KT 15SM OVC210 00/M05 A2957 RMK CI8 SLP050

CYQF;2015-12-07 10:00;CYQF 071000Z 21008KT 15SM BKN150 OVC210 03/M04 A2955 RMK AC5CI3 SLP039

CYQF;2015-12-07 11:00;CYQF 071100Z 20009KT 15SM OVC200 03/M04 A2953 RMK CI8 SLP034

CYQF;2015-12-07 12:00;CYQF 071200Z 20012KT 15SM BKN240 04/M04 A2950 RMK CI6 SLP023

CYQF;2015-12-07 13:00;CYQF 071300Z 19011KT 15SM BKN210 03/M05 A2949 RMK CI6 SLP025

CYQF;2015-12-07 14:00;CYQF 071400Z 19009KT 15SM SCT200 01/M05 A2947 RMK CI4 SLP019

CYQF;2015-12-07 15:00;CYQF 071500Z 19007KT 15SM BKN180 01/M05 A2948 RMK AC6 SLP026

CYQF;2015-12-07 16:00;CYQF 071600Z 16007KT 15SM BKN190 M01/M05 A2946 RMK AC5 SLP021

CYQF;2015-12-07 17:00;CYQF 071700Z 18010KT 15SM FEW220 01/M05 A2944 RMK CI1 SLP007

CYQF;2015-12-07 18:00;CYQF 071800Z 20008KT 15SM FEW220 03/M05 A2941 RMK CI1 SLP989

CYQF;2015-12-07 19:00;CYQF 071900Z 18002KT 15SM FEW220 04/M04 A2941 RMK CI1 SLP988

CYQF;2015-12-07 20:00;CYQF 072000Z 23007KT 15SM FEW220 06/M04 A2942 RMK CI1 SLP991 DENSITY ALT 3100FT

CYQF;2015-12-07 21:00;CYQF 072100Z 23008KT 15SM FEW150 SCT220 07/M03 A2944 RMK AC2CI1 SLP997 DENSITY ALT 3200FT

CYQF;2015-12-07 22:00;CYQF 072200Z 25007KT 15SM FEW150 SCT220 07/M04 A2944 RMK AC2CI1 SLP994 DENSITY ALT 3300FT

CYQF;2015-12-07 23:00;CYQF 072300Z 24005KT 15SM FEW150 SCT220 06/M04 A2946 RMK AC1CI2 SLP001 DENSITY ALT 3100FT

CYQF;2015-12-08 00:00;CYQF 080000Z VRB02KT 15SM FEW220 M02/M07 A2945 RMK CI2 SLP008

CYQF;2015-12-08 01:00;CYQF 080100Z 24006KT 15SM FEW220 M01/M07 A2947 RMK CI2 SLP014

CYQF;2015-12-08 02:00;CYQF 080200Z 23007KT 15SM SKC 02/M07 A2948 RMK SLP016

CYQF;2015-12-08 03:00;CYQF 080300Z 17003KT 130V190 15SM SCT240 M05/M08 A2948 RMK CI3 SLP024

CYQF;2015-12-08 04:00;CYQF 080400Z 00000KT 15SM BKN220 M05/M09 A2949 RMK CI6 SLP030

CYQF;2015-12-08 05:00;CYQF 080500Z 21009KT 15SM BKN170 M00/M07 A2952 RMK AC7 SLP033

CYQF;2015-12-08 06:00;CYQF 080600Z 21007KT 15SM OVC140 M02/M07 A2954 RMK AC8 SLP039

CYQF;2015-12-08 07:00;CYQF 080700Z 21008KT 15SM OVC170 M02/M07 A2956 RMK AC8 SLP044

CYQF;2015-12-08 08:00;CYQF 080800Z 02004KT 15SM SCT088 BKN170 M05/M07 A2957 RMK AC4AC3 SLP050

CYQF;2015-12-08 09:00;CYQF 080900Z VRB02KT 15SM BKN090 OVC170 M04/M08 A2958 RMK AC6AC2 SLP052

CYQF;2015-12-08 10:00;CYQF 081000Z 22007KT 15SM SCT090 OVC140 M03/M06 A2959 RMK AC3AC5 SLP053

CYQF;2015-12-08 11:00;CYQF 081100Z 31007KT 15SM FEW090 BKN140 M03/M07 A2963 RMK AC2AC3 SLP067

CYQF;2015-12-08 12:00;CYQF 081200Z 23003KT 15SM SCT140 M05/M08 A2963 RMK AC4 SLP078

CYQF;2015-12-08 13:00;CYQF 081300Z 12002KT 15SM SKC M05/M08 A2962 RMK PRESFR SLP075

CYQF;2015-12-08 14:00;CYQF 081400Z 18005KT 15SM FEW100 BKN210 M08/M11 A2964 RMK AC2CI4 SLP080

CYQF;2015-12-08 15:00;CYQF 081500Z 19004KT 15SM BKN220 M08/M10 A2962 RMK CI7 SLP081

CYQF;2015-12-08 16:00;CYQF 081600Z 00000KT 15SM BKN200 M08/M10 A2960 RMK CI7 SLP074

CYQF;2015-12-08 17:00;CYQF 081700Z 00000KT 15SM BKN200 OVC240 M07/M09 A2957 RMK CI6CI2 SLP057

CYQF;2015-12-08 18:00;CYQF 081800Z 15003KT 040V160 15SM BKN085 OVC220 M04/M07 A2952 RMK AS6CI2 PRESFR SLP040

CYQF;2015-12-08 19:00;CYQF 081900Z 18008KT 15SM BKN065 OVC090 00/M05 A2946 RMK SC6AC2 VIRGA NW-N SLP016

CYQF;2015-12-08 20:00;CYQF 082000Z 14015KT 15SM FEW065 BKN090 OVC200 01/M04 A2937 RMK SC2AC4CI2 VIRGA NW-N PRESFR SLP987

CYQF;2015-12-08 21:00;CYQF 082100Z 15010G16KT 15SM FEW100 BKN170 01/M03 A2933 RMK AC1AC6 PRESFR SLP972

CYQF;2015-12-08 22:00;CYQF 082200Z 16010KT 15SM FEW140 BKN200 02/M03 A2929 RMK AC2CI4 PRESFR SLP955

CYQF;2015-12-08 23:00;CYQF 082300Z 18011KT 15SM SCT140 BKN260 02/M02 A2927 RMK AC4CI3 SLP948

CYQF;2015-12-09 00:00;CYQF 090000Z 18005KT 15SM FEW140 BKN240 03/M01 A2924 RMK AC2CI5 SLP937 DENSITY ALT 3000FT

CYQF;2015-12-09 01:00;CYQF 090100Z 20005KT 15SM BKN220 03/M01 A2925 RMK CI7 PRESRR SLP943

CYQF;2015-12-09 02:00;CYQF 090200Z 21009KT 15SM BKN220 02/M01 A2926 RMK CI7 SLP950

CYQF;2015-12-09 03:00;CYQF 090300Z 24008KT 15SM FEW150 BKN220 05/M01 A2927 RMK AC2CI5 SLP950 DENSITY ALT 3200FT

CYQF;2015-12-09 04:00;CYQF 090400Z 01006KT 280V020 15SM SCT140 BKN220 03/M02 A2930 RMK AC3CI4 SLP963

CYQF;2015-12-09 05:00;CYQF 090500Z 18003KT 15SM SCT100 BKN220 01/M03 A2931 RMK AC4CI2 SLP968

CYQF;2015-12-09 06:00;CYQF 090600Z 23006KT 15SM FEW100 SCT220 02/M03 A2931 RMK AC2CI2 SLP963

CYQF;2015-12-09 07:00;CYQF 090700Z 00000KT 15SM FEW100 BKN180 M02/M06 A2933 RMK AC1AC4 SLP970

CYQF;2015-12-09 08:00;CYQF 090800Z 30004KT 250V010 15SM BKN170 03/M02 A2936 RMK AC7 SLP973

CYQF;2015-12-09 09:00;CYQF 090900Z 34006KT 15SM OVC180 01/M02 A2935 RMK AC8 SLP972

CYQF;2015-12-09 10:00;CYQF 091000Z 20006KT 15SM OVC170 M02/M04 A2937 RMK AC8 SLP981

CYQF;2015-12-09 11:00;CYQF 091100Z 22005KT 15SM OVC160 M02/M04 A2937 RMK AC8 SLP983

CYQF;2015-12-09 12:00;CYQF 091200Z 20004KT 15SM OVC150 M03/M04 A2937 RMK AC8 SLP981

CYQF;2015-12-09 13:00;CYQF 091300Z 19006KT 15SM FEW057 OVC140 M03/M05 A2936 RMK SC1AC7 SLP980

CYQF;2015-12-09 14:00;CYQF 091400Z 19002KT 15SM OVC064 M03/M04 A2935 RMK SC8 SLP974

CYQF;2015-12-09 15:00;CYQF 091500Z 00000KT 15SM OVC054 M02/M04 A2933 RMK SC8 SLP963

CYQF;2015-12-09 16:00;CYQF 091600Z VRB02KT 15SM BKN050 BKN120 M02/M03 A2931 RMK SC5AC2 SLP959

CYQF;2015-12-09 17:00;CYQF 091700Z 05004KT 040V130 15SM OVC060 M02/M03 A2930 RMK SC8 SLP958

CYQF;2015-12-09 18:00;CYQF 091800Z 05003KT 15SM BKN070 OVC250 M01/M03 A2926 RMK AC7CI1 SLP942

CYQF;2015-12-09 19:00;CYQF 091900Z 05004KT 15SM OVC050 01/M02 A2924 RMK SC8 SLP937

CYQF;2015-12-09 19:22;CYQF 091922Z 00000KT 1 1/4SM -SN VV010 01/M02 A2925 RMK SN8 SLP941

CYQF;2015-12-09 19:49;CYQF 091949Z 11005KT 1/2SM SN VV012 00/M00 A2925 RMK SN8 SLP940

CYQF;2015-12-09 20:00;CYQF 092000Z 10005KT 1/2SM SN VV010 00/M00 A2924 RMK SN8 /S01/ SLP934

CYQF;2015-12-09 21:00;CYQF 092100Z 05007KT 1/2SM SN OVC002 00/M00 A2922 RMK SN6SC2 /S03/ SLP928

CYQF;2015-12-09 22:00;CYQF 092200Z CCA 03007KT 3SM -SN BKN002 OVC040 00/M00 A2925 RMK SC6SC2 SLP942

CYQF;2015-12-09 22:34;CYQF 092234Z 01007KT 320V020 2SM -SN OVC003 00/M00 A2928 RMK SN3SC5 PRESRR SLP952

CYQF;2015-12-09 23:00;CYQF 092300Z 02008KT 1 1/2SM -SN OVC003 00/M00 A2929 RMK SN3SC5 VIS VRB 1-2 SLP957

CYQF;2015-12-10 00:00;CYQF 100000Z 01005KT 1 1/2SM -SN OVC006 M00/M01 A2935 RMK SC8 VIS VRB 1-2 SLP976

CYQF;2015-12-10 00:41;CYQF 100041Z 36005KT 1 1/2SM -SN OVC003 M00/M01 A2937 RMK SN2SC6 VIS VRB 1-2 SLP986

CYQF;2015-12-10 01:00;CYQF 100100Z 36006KT 1 1/2SM -SN OVC003 M00/M01 A2939 RMK SC8 VIS VRB 1-2 SLP991

CYQF;2015-12-10 02:00;CYQF 100200Z 36006KT 2SM -SN OVC003 M00/M01 A2943 RMK SC8 /S02/ SLP005

CYQF;2015-12-10 03:00;CYQF 100300Z 33003KT 1 1/2SM -SN OVC005 M00/M01 A2947 RMK SN6SC2 VIS VRB 1-2 SLP018

CYQF;2015-12-10 04:00;CYQF 100400Z 30002KT 2SM -SN VV030 M01/M01 A2949 RMK SN8 /S04/ SLP027

CYQF;2015-12-10 04:27;CYQF 100427Z 28002KT 1SM -SN BR OVC040 M01/M01 A2950 RMK SN6SC2 SLP029

CYQF;2015-12-10 04:48;CYQF 100448Z 28002KT 3SM -SN BR OVC040 M01/M01 A2951 RMK SC8 SLP031

CYQF;2015-12-10 05:00;CYQF 100500Z 26004KT 3SM -SN BR BKN035 M01/M01 A2951 RMK SC7 VIS VRB 2-4 SLP034

CYQF;2015-12-10 05:27;CYQF 100527Z 23007KT 3/4SM -SN BR BKN040 BKN080 M02/M02 A2952 RMK FG4SC2AC1 VIS 1/2-1 SLP036

CYQF;2015-12-10 06:00;CYQF 100600Z 23007KT 1/2SM -SN FZFG BKN040 BKN080 M03/M03 A2951 RMK FG5SC1AC1 VIS VRB 1/4-3/4 SLP035

CYQF;2015-12-10 06:18;CYQF 100618Z 25011KT 3/8SM FZFG VV002 M02/M02 A2952 RMK FG8 VIS VRB 1/8-5/8 SLP036

CYQF;2015-12-10 06:36;CYQF 100636Z 25009KT 1 1/2SM BR OVC080 M02/M02 A2953 RMK FG6AC2 SLP038

CYQF;2015-12-10 06:52;CYQF 100652Z 25011KT 3SM BR SCT002 BKN100 M01/M01 A2953 RMK SF3AC4 SLP040

CYQF;2015-12-10 07:00;CYQF 100700Z 25010KT 3SM BR SCT002 BKN100 M01/M01 A2954 RMK SF3AC4 SLP039

CYQF;2015-12-10 07:35;CYQF 100735Z 23008KT 10SM OVC100 M01/M02 A2954 RMK AC8 SLP040

CYQF;2015-12-10 08:00;CYQF 100800Z 23009KT 10SM FEW079 BKN100 M02/M02 A2955 RMK AC2AC5 SLP043

CYQF;2015-12-10 09:00;CYQF 100900Z 18006KT 10SM BKN093 M02/M03 A2953 RMK AC7 WND ESTD SLP040

CYQF;2015-12-10 09:14;CYQF 100914Z 21003KT 160V220 8SM BKN002 BKN093 M04/M04 A2954 RMK SF5AC2 SLP042

CYQF;2015-12-10 09:26;CYQF 100926Z 22007KT 1/2SM FZFG BKN002 OVC093 M03/M03 A2953 RMK FG4SF3AC1 VIS VRB 1/4-3/4 SLP040

CYQF;2015-12-10 09:52;CYQF 100952Z 22006KT 3/8SM FZFG VV001 M03/M03 A2953 RMK FG8 VIS VRB 1/8-5/8 SLP041

CYQF;2015-12-10 10:00;CYQF 101000Z 23005KT 3/8SM FZFG VV001 M04/M04 A2953 RMK FG8 VIS VRB 1/8-5/8 SLP040

CYQF;2015-12-10 11:00;CYQF 101100Z 00000KT 3/8SM FZFG VV001 M06/M06 A2953 RMK FG8 VIS VRB 1/8-5/8 FROIN SLP044

CYQF;2015-12-10 12:00;CYQF 101200Z 18002KT 3/8SM FZFG VV001 M07/M08 A2954 RMK FG8 VIS VRB 1/8-5/8 FROIN SLP048

CYQF;2015-12-10 12:51;CYQF 101251Z 22004KT 1/8SM FZFG VV001 M09/M10 A2952 RMK FG8 FROIN SLP042

CYQF;2015-12-10 13:00;CYQF 101300Z 23002KT 1/8SM FZFG VV001 M10/M11 A2951 RMK FG8 FROIN SLP041

CYQF;2015-12-10 13:14;CYQF 101314Z 22004KT 1/4SM FZFG VV001 M10/M11 A2951 RMK FG8 FROIN SLP040

CYQF;2015-12-10 13:26;CYQF 101326Z 21007KT 3/4SM BR SKC M10/M12 A2952 RMK FG5 SLP044

CYQF;2015-12-10 13:48;CYQF 101348Z 21004KT 1/2SM FZFG OVC120 M11/M12 A2951 RMK FG7AC1 FROIN SLP042

CYQF;2015-12-10 14:00;CYQF 101400Z 19005KT 1/2SM FZFG SKC M14/M16 A2950 RMK FG7 SLP042

CYQF;2015-12-10 14:26;CYQF 101426Z VRB02KT 3/4SM BR SCT120 M12/M13 A2950 RMK FG2AC2 SLP040

CYQF;2015-12-10 15:00;CYQF 101500Z 06002KT 1/2SM FZFG BKN120 M14/M16 A2949 RMK FG4AC1 SLP038

CYQF;2015-12-10 15:24;CYQF 101524Z 07002KT 1/4SM FZFG BKN120 M13/M15 A2949 RMK FG4AC2 RIME ON INDICATOR SLP037

CYQF;2015-12-10 16:00;CYQF 101600Z 19004KT 100V220 3/8SM FZFG BKN220 M12/M13 A2948 RMK FG4CI3 RIME ON INDICATOR SLP035

CYQF;2015-12-10 17:00;CYQF 101700Z 18004KT 1/4SM FZFG VV005 M08/M09 A2947 RMK FG8 RIME ON INDICATOR SLP027

CYQF;2015-12-10 18:00;CYQF 101800Z 18003KT 160V220 5/8SM BR VV007 M06/M07 A2946 RMK FG8 RIME ON INDICATOR SLP020

CYQF;2015-12-10 18:40;CYQF 101840Z 17010KT 1 1/2SM BR OVC003 M04/M05 A2943 RMK FG4ST4 FROIN SLP010

CYQF;2015-12-10 19:00;CYQF 101900Z 17010KT 3SM BR OVC005 M04/M05 A2942 RMK ST8 FROIN SLP006

CYQF;2015-12-10 20:00;CYQF 102000Z 15010KT 2SM BR OVC003 M04/M05 A2940 RMK FG3ST5 VIS VRB 1-3 FROIN SLP998

CYQF;2015-12-10 21:00;CYQF 102100Z 17007KT 2SM BR OVC003 M03/M03 A2939 RMK FG3ST5 VIS VRB 1-3 SLP993

CYQF;2015-12-10 22:00;CYQF 102200Z 16014KT 2SM BR OVC006 M02/M02 A2936 RMK ST8 VIS VRB 1-3 SLP985

CYQF;2015-12-10 23:00;CYQF 102300Z 16013KT 2 1/2SM BR OVC007 M02/M02 A2937 RMK SF8 SLP989

CYQF;2015-12-11 00:00;CYQF 110000Z 15009G16KT 2 1/2SM BR BKN009 OVC120 M02/M02 A2937 RMK ST6AC2 SLP992

CYQF;2015-12-11 01:00;CYQF 110100Z 16011KT 4SM BR OVC009 M02/M02 A2937 RMK ST8 SLP994

CYQF;2015-12-11 02:00;CYQF 110200Z 16011G17KT 4SM BR OVC007 M02/M02 A2937 RMK ST8 SLP998

CYQF;2015-12-11 02:28;CYQF 110228Z 16010KT 2SM -SN BR OVC007 M02/M02 A2938 RMK ST8 SLP001

CYQF;2015-12-11 03:00;CYQF 110300Z 16008KT 6SM -SN SCT007 OVC050 M02/M02 A2938 RMK ST4SC4 SLP002

CYQF;2015-12-11 03:34;CYQF 110334Z 15010KT 6SM -SN BKN007 OVC050 M02/M02 A2939 RMK ST6SC2 SLP005

CYQF;2015-12-11 04:00;CYQF 110400Z 14010KT 4SM -SN BR OVC008 M02/M02 A2939 RMK ST8 SLP002

CYQF;2015-12-11 04:31;CYQF 110431Z 12008KT 2 1/2SM -SN OVC009 M02/M02 A2939 RMK ST8 SLP002

CYQF;2015-12-11 05:00;CYQF 110500Z 13010KT 3SM -SN OVC007 M02/M02 A2939 RMK ST8 SLP998

CYQF;2015-12-11 06:00;CYQF 110600Z 13012KT 3SM -SN OVC007 M02/M03 A2940 RMK ST8 SLP000

CYQF;2015-12-11 06:45;CYQF 110645Z 14011KT 2SM -SN OVC007 M02/M03 A2941 RMK SN2ST6 VIS VRB 1-3 SLP004

CYQF;2015-12-11 07:00;CYQF 110700Z 13010KT 2SM -SN OVC007 M02/M03 A2942 RMK SN2ST6 VIS VRB 1-3 SLP005

CYQF;2015-12-11 08:00;CYQF 110800Z 12009KT 2SM -SN OVC007 M03/M03 A2942 RMK SN5ST3 VIS VRB 1-3 SLP007

CYQF;2015-12-11 08:48;CYQF 110848Z 11009KT 6SM -SN VV034 M03/M04 A2942 RMK SN8 SLP007

CYQF;2015-12-11 09:00;CYQF 110900Z 11009KT 6SM -SN OVC063 M03/M04 A2943 RMK SN3SC5 SLP008

CYQF;2015-12-11 09:42;CYQF 110942Z 13007KT 2SM -SN OVC042 M03/M04 A2945 RMK SN4SC4 VIS VRB 1-3 SLP014

CYQF;2015-12-11 10:00;CYQF 111000Z 12008KT 2SM -SN BKN018 OVC042 M03/M04 A2945 RMK SN3SC3SC2 VIS VRB 1-3 SLP015

CYQF;2015-12-11 11:00;CYQF 111100Z 13008KT 2SM -SN SCT023 OVC040 M03/M04 A2946 RMK SN2SC2SC4 VIS VRB 1-3 SLP019

CYQF;2015-12-11 11:32;CYQF 111132Z 11004KT 2SM -SN OVC010 M03/M04 A2947 RMK SN1ST7 VIS VRB 1-3 SLP023

CYQF;2015-12-11 12:00;CYQF 111200Z 13005KT 2SM -SN OVC010 M03/M04 A2948 RMK SN1ST7 VIS VRB 1-3 SLP025

CYQF;2015-12-11 13:00;CYQF 111300Z 12004KT 2SM -SN OVC013 M03/M04 A2949 RMK SN3ST5 VIS VRB 1-3 SLP028

CYQF;2015-12-11 14:00;CYQF 111400Z 10003KT 2SM -SN VV032 M03/M04 A2951 RMK SN8 VIS VRB 1-3 SLP037

CYQF;2015-12-11 15:00;CYQF 111500Z 00000KT 2SM -SN VV030 M03/M04 A2953 RMK SN8 VIS VRB 1-3 WND ESTD SLP042

CYQF;2015-12-11 16:00;CYQF 111600Z 07002KT 2SM -SN VV030 M04/M04 A2955 RMK SN8 VIS VRB 1-3 SLP049

CYQF;2015-12-11 17:00;CYQF 111700Z 11003KT 2SM -SN VV035 M03/M04 A2956 RMK SN8 VIS VRB 1-3 SLP054

CYQF;2015-12-11 18:00;CYQF 111800Z 12004KT 2SM -SN VV035 M03/M04 A2959 RMK SN8 VIS VRB 1-3 SLP062

CYQF;2015-12-11 19:00;CYQF 111900Z 15003KT 2 1/2SM -SN BR OVC028 M03/M04 A2959 RMK FG4SC4 VIS VRB 2-3 SLP063

CYQF;2015-12-11 20:00;CYQF 112000Z 14003KT 3SM -SN BR OVC030 M03/M04 A2961 RMK SC8 SLP069

CYQF;2015-12-11 21:00;CYQF 112100Z 13004KT 3SM -SN SCT010 OVC030 M03/M04 A2962 RMK SN2SF2SC4 VIS VRB 2-4 SLP074

CYQF;2015-12-11 22:00;CYQF 112200Z 10003KT 2 1/2SM -SN BR BKN010 OVC030 M03/M04 A2963 RMK SN3SF2SC3 VIS VRB 2-3 SLP078

CYQF;2015-12-11 23:00;CYQF 112300Z 10003KT 2SM -SN BR BKN010 OVC030 M03/M04 A2965 RMK SN3ST3SC2 VIS VRB 1-3 SLP084

CYQF;2015-12-12 00:00;CYQF 120000Z 12003KT 1 1/2SM -SN BR VV028 M04/M04 A2967 RMK SN8 VIS VRB 1-2 /S01/ SLP093

CYQF;2015-12-12 00:18;CYQF 120018Z 15002KT 3SM -SN BR BKN012 OVC031 M04/M05 A2968 RMK SN4SC1SC3 VIS VRB 2-4 SLP095

CYQF;2015-12-12 01:00;CYQF 120100Z 15006KT 5SM -SN BR FEW020 OVC033 M04/M05 A2969 RMK SC2SC6 SLP099

CYQF;2015-12-12 02:00;CYQF 120200Z 14007KT 3SM -SN BR OVC035 M04/M05 A2969 RMK SC8 VIS VRB 2-4 SLP102

CYQF;2015-12-12 03:00;CYQF 120300Z 15007KT 8SM -SN FEW035 BKN140 M06/M07 A2970 RMK SC2AC4 SLP106

CYQF;2015-12-12 04:00;CYQF 120400Z 16005KT 6SM -SN BKN028 BKN130 M06/M07 A2971 RMK SC5AC2 SLP109

CYQF;2015-12-12 04:38;CYQF 120438Z 15004KT 3SM -SN SCT006 OVC028 M06/M07 A2971 RMK SC3SC5 SLP108

CYQF;2015-12-12 05:00;CYQF 120500Z 16002KT 2SM -SN SCT006 OVC030 M06/M07 A2971 RMK SC4SC4 SLP109

CYQF;2015-12-12 05:20;CYQF 120520Z 14003KT 10SM -SN BKN022 OVC090 M06/M07 A2971 RMK SC6AC2 SLP109

CYQF;2015-12-12 06:00;CYQF 120600Z 14003KT 10SM -SN OVC015 M06/M07 A2971 RMK SC8 SLP108

CYQF;2015-12-12 06:12;CYQF 120612Z 13002KT 10SM -SN OVC013 M06/M07 A2971 RMK SC8 SLP108

CYQF;2015-12-12 07:00;CYQF 120700Z 13005KT 10SM -SN OVC014 M05/M07 A2971 RMK SC8 SLP109

CYQF;2015-12-12 08:00;CYQF 120800Z 16006KT 10SM -SN OVC010 M06/M07 A2971 RMK ST8 SLP109

CYQF;2015-12-12 08:36;CYQF 120836Z 15005KT 8SM -SN OVC008 M06/M07 A2972 RMK ST8 SLP111

CYQF;2015-12-12 09:00;CYQF 120900Z 17004KT 8SM -SN OVC009 M06/M07 A2971 RMK ST8 SLP110

CYQF;2015-12-12 10:00;CYQF 121000Z 16006KT 10SM -SN OVC006 M06/M07 A2972 RMK ST8 SLP113

CYQF;2015-12-12 11:00;CYQF 121100Z 15007KT 10SM OVC005 M06/M07 A2973 RMK ST8 SLP115

CYQF;2015-12-12 12:00;CYQF 121200Z 14006KT 8SM OVC004 M05/M06 A2972 RMK ST8 SLP113

CYQF;2015-12-12 12:46;CYQF 121246Z 14006KT 6SM BR OVC003 M05/M06 A2972 RMK ST8 SLP113

CYQF;2015-12-12 13:00;CYQF 121300Z 14006KT 3SM BR OVC003 M05/M06 A2972 RMK ST8 SLP113

CYQF;2015-12-12 13:29;CYQF 121329Z 13006KT 2SM BR OVC003 M05/M06 A2972 RMK ST8 SLP112

CYQF;2015-12-12 14:00;CYQF 121400Z 14004KT 2SM BR OVC002 M05/M05 A2972 RMK ST8 SLP113

CYQF;2015-12-12 15:00;CYQF 121500Z 16007KT 1SM BR OVC002 M04/M05 A2971 RMK ST8 VIS VRB 1/2-11/2 SLP111

CYQF;2015-12-12 16:00;CYQF 121600Z 17012KT 1SM BR OVC002 M04/M05 A2972 RMK ST8 VIS VRB 1/2-11/2 SLP113

CYQF;2015-12-12 17:00;CYQF 121700Z 18010KT 1SM BR OVC003 M04/M05 A2972 RMK ST8 SLP113

CYQF;2015-12-12 18:00;CYQF 121800Z 18010KT 1 1/2SM BR OVC003 M04/M05 A2971 RMK ST8 VIS VRB 1-2 SLP109

CYQF;2015-12-12 19:00;CYQF 121900Z 16009KT 1 1/2SM BR OVC003 M05/M05 A2968 RMK ST8 VIS VRB 1-2 SLP101

CYQF;2015-12-12 20:00;CYQF 122000Z 15010KT 2SM BR OVC003 M04/M05 A2966 RMK ST8 VIS VRB 1-3 SLP095

CYQF;2015-12-12 21:00;CYQF 122100Z 16012KT 2SM BR OVC004 M05/M06 A2965 RMK ST8 VIS VRB 1-3 SLP091

CYQF;2015-12-12 22:00;CYQF 122200Z 17011KT 2SM BR OVC004 M05/M06 A2965 RMK ST8 VIS VRB 1-3 SLP089

CYQF;2015-12-12 23:00;CYQF 122300Z 17010KT 2SM BR OVC004 M06/M06 A2963 RMK ST8 VIS VRB 1-3 SLP085

CYQF;2015-12-12 23:50;CYQF 122350Z 15014KT 2SM -SN BR OVC005 M06/M06 A2961 RMK SN4ST4 VIS VRB 1-3 SLP076

CYQF;2015-12-13 00:00;CYQF 130000Z 15014KT 2SM -SN BR OVC005 M06/M06 A2961 RMK SN4ST4 VIS VRB 1-3 SLP076

CYQF;2015-12-13 01:00;CYQF 130100Z 16014KT 2SM -SN BR VV004 M06/M07 A2960 RMK SN8 VIS VRB 1-3 SLP073

CYQF;2015-12-13 02:00;CYQF 130200Z 15012G18KT 2SM -SN BR VV005 M06/M06 A2956 RMK SN8 SLP058

CYQF;2015-12-13 03:00;CYQF 130300Z 14017KT 2SM -SN BR VV005 M06/M07 A2952 RMK SN8 SLP044

CYQF;2015-12-13 04:00;CYQF 130400Z 15017KT 1 1/2SM -SN BR VV004 M06/M07 A2950 RMK SN8 SLP039

CYQF;2015-12-13 04:41;CYQF 130441Z 17016KT 3/4SM -SN DRSN VV006 M06/M07 A2950 RMK SN8 SLP037

CYQF;2015-12-13 05:00;CYQF 130500Z 15013KT 3/4SM -SN DRSN VV005 M06/M07 A2949 RMK SN8 SLP033

CYQF;2015-12-13 06:00;CYQF 130600Z 16011G17KT 1 1/2SM -SN DRSN VV005 M06/M07 A2946 RMK SN8 SLP025

CYQF;2015-12-13 06:45;CYQF 130645Z 15012KT 3SM -SN DRSN OVC004 M05/M06 A2944 RMK ST8 SLP017

CYQF;2015-12-13 07:00;CYQF 130700Z 13013KT 3SM -SN DRSN OVC006 M06/M06 A2943 RMK ST8 SLP014

CYQF;2015-12-13 07:32;CYQF 130732Z 14012KT 3SM -SN DRSN OVC004 M06/M06 A2942 RMK ST8 SLP008

CYQF;2015-12-13 07:46;CYQF 130746Z 13009KT 3SM -SN DRSN OVC003 M05/M06 A2940 RMK ST8 PRESFR SLP003

CYQF;2015-12-13 08:00;CYQF 130800Z 13012KT 3SM -SN DRSN OVC003 M05/M06 A2940 RMK ST8 SLP001

CYQF;2015-12-13 09:00;CYQF 130900Z 13011G16KT 3SM -SN DRSN OVC004 M05/M06 A2938 RMK ST8 SLP997

CYQF;2015-12-13 10:00;CYQF 131000Z 14009KT 3SM -SN DRSN OVC003 M05/M06 A2937 RMK ST8 SLP993

CYQF;2015-12-13 11:00;CYQF 131100Z 13006KT 6SM -SN DRSN OVC002 M05/M06 A2935 RMK ST8 SLP987

CYQF;2015-12-13 12:00;CYQF 131200Z 11006KT 6SM -SN OVC003 M06/M06 A2934 RMK ST8 SLP983

CYQF;2015-12-13 12:10;CYQF 131210Z 10008KT 8SM OVC004 M05/M06 A2934 RMK ST8 SLP983

CYQF;2015-12-13 13:00;CYQF 131300Z 10008KT 8SM OVC004 M06/M06 A2933 RMK ST8 SLP981

CYQF;2015-12-13 13:42;CYQF 131342Z 09005KT 2SM BR OVC003 M05/M06 A2934 RMK ST8 SLP983

CYQF;2015-12-13 14:00;CYQF 131400Z 10005KT 1 1/2SM BR OVC002 M06/M06 A2934 RMK ST8 VIS VRB 1-2 SLP984

CYQF;2015-12-13 15:00;CYQF 131500Z 14005KT 3/4SM BR OVC003 M05/M06 A2934 RMK FG4ST4 VIS VRB 1/2-1 SLP984

CYQF;2015-12-13 15:34;CYQF 131534Z 10004KT 1/2SM FZFG VV003 M05/M06 A2935 RMK FG8 SLP987

CYQF;2015-12-13 16:00;CYQF 131600Z 00000KT 1/2SM FZFG VV003 M05/M06 A2937 RMK FG8 SLP994

CYQF;2015-12-13 16:14;CYQF 131614Z 16005KT 1SM BR OVC003 M05/M06 A2937 RMK FG3ST5 VIS VRB 3/4-11/4 SLP995

CYQF;2015-12-13 17:00;CYQF 131700Z VRB02KT 1SM BR OVC003 M05/M06 A2938 RMK FG3ST5 VIS VRB 3/4-11/4 SLP998

CYQF;2015-12-13 17:27;CYQF 131727Z 02003KT 010V130 1/2SM -SN FZFG OVC003 M05/M06 A2940 RMK SN4ST4 SLP003

CYQF;2015-12-13 17:52;CYQF 131752Z 03004KT 1/2SM FZFG VV003 M05/M06 A2939 RMK FG8 SLP002

CYQF;2015-12-13 18:00;CYQF 131800Z 04004KT 1/2SM FZFG VV003 M05/M06 A2939 RMK FG8 SLP001

CYQF;2015-12-13 19:00;CYQF 131900Z 34007KT 3/4SM BR VV003 M05/M06 A2939 RMK FG8 VIS VRB 1/2 - 1 SLP001

CYQF;2015-12-13 20:00;CYQF 132000Z 36005KT 1 1/2SM BR BKN006 OVC010 M05/M06 A2941 RMK FG4ST3SC2 VIS VRB 3/4-3 VIS HIER N SLP006

CYQF;2015-12-13 20:48;CYQF 132048Z 33005KT 320V030 3SM BR OVC005 M06/M06 A2942 RMK ST8 SLP009

CYQF;2015-12-13 21:00;CYQF 132100Z 36005KT 3SM BR OVC005 M06/M06 A2942 RMK ST8 SLP012

CYQF;2015-12-13 22:00;CYQF 132200Z 34005KT 4SM BR OVC006 M06/M06 A2946 RMK ST8 VIS N 6 SLP024

CYQF;2015-12-13 23:00;CYQF 132300Z 34006KT 3SM BR OVC006 M05/M06 A2949 RMK ST8 PRESRR SLP034

CYQF;2015-12-14 00:00;CYQF 140000Z 34007KT 3SM BR OVC004 M05/M06 A2950 RMK ST8 SLP039

CYQF;2015-12-14 01:00;CYQF 140100Z 35006KT 2SM BR OVC003 M05/M06 A2954 RMK ST8 VIS VRB 1-3 SLP052

CYQF;2015-12-14 02:00;CYQF 140200Z 36007KT 2SM BR OVC004 M06/M06 A2956 RMK ST8 VIS VRB 1-3 SLP061

CYQF;2015-12-14 03:00;CYQF 140300Z 34007KT 2SM BR OVC003 M05/M06 A2959 RMK ST8 VIS VRB 1-3 SLP071

CYQF;2015-12-14 04:00;CYQF 140400Z 33006KT 2SM BR OVC004 M05/M06 A2962 RMK ST8 VIS VRB 1-3 SLP081

CYQF;2015-12-14 05:00;CYQF 140500Z 32007KT 2SM BR OVC004 M05/M06 A2965 RMK ST8 VIS VRB 1-3 SLP089

CYQF;2015-12-14 06:00;CYQF 140600Z 32008KT 10SM OVC006 M05/M06 A2967 RMK ST8 SLP098

CYQF;2015-12-14 07:00;CYQF 140700Z 31008KT 12SM -SN OVC010 M05/M06 A2970 RMK SC8 SLP106

CYQF;2015-12-14 07:42;CYQF 140742Z 33010KT 12SM -SN OVC020 M06/M06 A2970 RMK SC8 SLP108

CYQF;2015-12-14 08:00;CYQF 140800Z 32008KT 12SM -SN OVC020 M06/M07 A2971 RMK SC8 SLP110

CYQF;2015-12-14 09:00;CYQF 140900Z 32007KT 12SM -SN OVC023 M06/M07 A2974 RMK SC8 SLP121

CYQF;2015-12-14 10:00;CYQF 141000Z 32006KT 12SM -SN OVC025 M06/M07 A2976 RMK SC8 SLP132

CYQF;2015-12-14 11:00;CYQF 141100Z 34006KT 15SM FEW010 OVC026 M07/M08 A2979 RMK SC2SC6 INTMT -SN SLP140

CYQF;2015-12-14 11:11;CYQF 141111Z 33007KT 15SM FEW010 OVC026 M07/M08 A2979 RMK SC2SC6 SLP142

CYQF;2015-12-14 11:24;CYQF 141124Z 34006KT 15SM -SN FEW010 OVC027 M07/M08 A2980 RMK SC2SC6 SLP143

CYQF;2015-12-14 12:00;CYQF 141200Z 33004KT 15SM -SN FEW010 OVC027 M07/M08 A2982 RMK SC2SC6 SLP150

CYQF;2015-12-14 13:00;CYQF 141300Z VRB02KT 15SM -SN SCT025 BKN055 M09/M10 A2983 RMK SC3SC4 SLP157

CYQF;2015-12-14 14:00;CYQF 141400Z 33002KT 12SM -SN SCT025 BKN055 BKN130 M08/M10 A2985 RMK SC3SC3AC1 SLP163

CYQF;2015-12-14 15:00;CYQF 141500Z 30004KT 10SM -SN SCT050 BKN130 M09/M10 A2987 RMK SC3AC4 SLP172

CYQF;2015-12-14 16:00;CYQF 141600Z 27003KT 8SM -SN FEW023 BKN080 BKN130 M10/M12 A2990 RMK SC2AC3AC2 SLP183

CYQF;2015-12-14 17:00;CYQF 141700Z 28005KT 10SM -SN FEW020 BKN130 M09/M11 A2992 RMK SC2AC4 SLP188

CYQF;2015-12-14 18:00;CYQF 141800Z 21004KT 10SM FEW020 SCT120 BKN250 M12/M13 A2993 RMK SC1AC3CI2 SLP196

CYQF;2015-12-14 19:00;CYQF 141900Z 20004KT 10SM FEW090 SCT250 M11/M13 A2994 RMK AC1CI3 SLP196

CYQF;2015-12-14 20:00;CYQF 142000Z 24003KT 10SM FEW090 SCT250 M10/M12 A2995 RMK AC2CI2 SLP199

CYQF;2015-12-14 21:00;CYQF 142100Z 19005KT 10SM FEW090 SCT250 M10/M11 A2994 RMK AC1CI2 SLP197

CYQF;2015-12-14 22:00;CYQF 142200Z 22003KT 10SM FEW090 FEW250 M10/M11 A2995 RMK AC1CI1 SLP200

CYQF;2015-12-14 23:00;CYQF 142300Z 24005KT 8SM FEW090 M09/M10 A2995 RMK AC2 SLP198

CYQF;2015-12-14 23:42;CYQF 142342Z 22002KT 3/4SM BR FEW090 M12/M12 A2995 RMK AC2 SLP203

CYQF;2015-12-15 00:00;CYQF 150000Z 22004KT 3/4SM BR FEW090 M12/M12 A2995 RMK AC2 SLP204

CYQF;2015-12-15 01:00;CYQF 150100Z 19005KT 1SM BR BKN084 M14/M15 A2995 RMK AC7 VIS S 3 SLP210

CYQF;2015-12-15 01:06;CYQF 150106Z 19005KT 6SM BR BKN083 M13/M14 A2995 RMK AC7 SLP209

CYQF;2015-12-15 02:00;CYQF 150200Z 19005KT 8SM SCT080 M14/M15 A2996 RMK AC4 SLP213

CYQF;2015-12-15 03:00;CYQF 150300Z 19005KT 8SM BR FEW080 M15/M17 A2996 RMK AC2 SLP214

CYQF;2015-12-15 04:00;CYQF 150400Z 21003KT 10SM SKC M13/M15 A2996 RMK SLP212

CYQF;2015-12-15 05:00;CYQF 150500Z 20003KT 10SM SKC M14/M16 A2996 RMK SLP212

CYQF;2015-12-15 06:00;CYQF 150600Z 20005KT 12SM SKC M16/M18 A2995 RMK SLP213

CYQF;2015-12-15 07:00;CYQF 150700Z 20005KT 15SM SKC M19/M22 A2994 RMK SLP212

CYQF;2015-12-15 08:00;CYQF 150800Z 19006KT 15SM SKC M19/M21 A2993 RMK SLP207

CYQF;2015-12-15 09:00;CYQF 150900Z 18005KT 15SM SKC M18/M20 A2991 RMK SLP199

CYQF;2015-12-15 10:00;CYQF 151000Z 18004KT 15SM SKC M20/M22 A2991 RMK SLP201

CYQF;2015-12-15 11:00;CYQF 151100Z 19004KT 15SM SKC M17/M20 A2989 RMK SLP193

CYQF;2015-12-15 12:00;CYQF 151200Z 17005KT 160V220 15SM SKC M19/M21 A2988 RMK SLP193

CYQF;2015-12-15 13:00;CYQF 151300Z 20005KT 15SM SCT110 M18/M20 A2986 RMK AC4 SLP188

CYQF;2015-12-15 14:00;CYQF 151400Z 20005KT 15SM SCT097 M18/M21 A2984 RMK AC4 SLP181

CYQF;2015-12-15 15:00;CYQF 151500Z 23003KT 15SM SCT097 M17/M19 A2983 RMK AC4 SLP178

CYQF;2015-12-15 16:00;CYQF 151600Z 19004KT 15SM FEW097 M17/M19 A2980 RMK AC2 SLP165

CYQF;2015-12-15 17:00;CYQF 151700Z 17003KT 15SM BKN095 M16/M18 A2979 RMK AC5 SLP163

CYQF;2015-12-15 18:00;CYQF 151800Z 26003KT 15SM BKN095 M13/M15 A2982 RMK AC6 PRESRR SLP171

CYQF;2015-12-15 19:00;CYQF 151900Z VRB02KT 15SM SCT095 BKN120 M12/M14 A2982 RMK AC3AC2 SLP173

CYQF;2015-12-15 20:00;CYQF 152000Z 23004KT 15SM SCT090 SCT150 BKN250 M11/M13 A2982 RMK AC3AC1CI2 SLP170

CYQF;2015-12-15 21:00;CYQF 152100Z 19002KT 15SM FEW080 BKN100 BKN250 M10/M12 A2981 RMK AC2AC3CI1 SLP168

CYQF;2015-12-15 22:00;CYQF 152200Z VRB02KT 3SM -SN OVC040 M10/M11 A2985 RMK SN2SC6 SLP181

CYQF;2015-12-15 22:10;CYQF 152210Z VRB02KT 2SM -SN BR OVC040 M09/M10 A2985 RMK SN4SC4 SLP181

CYQF;2015-12-15 22:24;CYQF 152224Z 19006KT 1SM -SN BR VV012 M09/M10 A2986 RMK SN8 VIS VRB 1/2-11/2 SLP182

CYQF;2015-12-15 23:00;CYQF 152300Z 20005KT 5SM -SN FEW010 BKN060 M08/M09 A2985 RMK SF2SC5 VIS N 10 SLP178

CYQF;2015-12-16 00:00;CYQF 160000Z 28004KT 10SM -SN FEW010 BKN120 M09/M10 A2986 RMK SF1AC6 SLP183

CYQF;2015-12-16 00:49;CYQF 160049Z VRB02KT 10SM BKN110 M10/M11 A2987 RMK AC7 SLP188

CYQF;2015-12-16 01:00;CYQF 160100Z 25004KT 10SM SCT110 M10/M11 A2987 RMK AC3 SLP185

CYQF;2015-12-16 02:00;CYQF 160200Z 29005KT 3SM MIFG SKC M08/M09 A2988 RMK SLP188

CYQF;2015-12-16 03:00;CYQF 160300Z VRB02KT 10SM FEW030 M16/M19 A2989 RMK SC2 SLP200

CYQF;2015-12-16 04:00;CYQF 160400Z 24003KT 10SM BKN030 M13/M15 A2990 RMK SC6 SLP199

CYQF;2015-12-16 05:00;CYQF 160500Z 27006KT 10SM FEW140 M09/M10 A2991 RMK AC2 SLP196

CYQF;2015-12-16 06:00;CYQF 160600Z 30010KT 15SM FEW080 M08/M09 A2992 RMK AC2 SLP195

CYQF;2015-12-16 07:00;CYQF 160700Z 27008KT 15SM FEW080 M09/M10 A2992 RMK AC2 SLP197

CYQF;2015-12-16 08:00;CYQF 160800Z 28008KT 15SM FEW080 M10/M11 A2994 RMK AC2 SLP202

CYQF;2015-12-16 09:00;CYQF 160900Z 29009KT 15SM FEW080 M09/M10 A2995 RMK AC2 SLP203

CYQF;2015-12-16 10:00;CYQF 161000Z 28007KT 15SM SCT030 SCT080 M09/M11 A2996 RMK SC3AC1 SLP208

CYQF;2015-12-16 11:00;CYQF 161100Z 28008KT 15SM FEW030 SCT110 M10/M11 A2996 RMK SC1AC2 SLP206

CYQF;2015-12-16 12:00;CYQF 161200Z 26004KT 15SM FEW080 M10/M11 A2996 RMK AC2 SLP207

CYQF;2015-12-16 13:00;CYQF 161300Z 28008KT 15SM SCT080 M09/M11 A2996 RMK AC3 SLP207

CYQF;2015-12-16 14:00;CYQF 161400Z 29008KT 15SM SCT042 BKN080 M09/M10 A2996 RMK SC3AC4 SLP207

CYQF;2015-12-16 15:00;CYQF 161500Z 24004KT 15SM FEW042 BKN080 M10/M12 A2996 RMK SC2AC5 SLP217

CYQF;2015-12-16 16:00;CYQF 161600Z 23006KT 15SM SCT080 BKN130 M14/M15 A2995 RMK AC4AC3 SLP215

CYQF;2015-12-16 17:00;CYQF 161700Z 22003KT 170V240 15SM BKN100 BKN130 M12/M13 A2997 RMK AC5AC2 SLP212

CYQF;2015-12-16 18:00;CYQF 161800Z 23004KT 15SM BKN080 BKN100 M10/M12 A2997 RMK AC5AC2 SLP211

CYQF;2015-12-16 18:33;CYQF 161833Z 23003KT 15SM -SN FEW042 OVC090 M10/M12 A2996 RMK SC2AC6 SLP209

CYQF;2015-12-16 19:00;CYQF 161900Z 28004KT 250V310 15SM -SN BKN080 BKN100 M08/M10 A2996 RMK AC5AC2 SLP205

CYQF;2015-12-16 20:00;CYQF 162000Z 29008KT 15SM VCSH FEW060 BKN100 M08/M11 A2995 RMK SC2AC4 SLP205

CYQF;2015-12-16 21:00;CYQF 162100Z 30006KT 15SM VCSH BKN073 BKN100 M07/M10 A2995 RMK AC5AC2 SLP203

CYQF;2015-12-16 22:00;CYQF 162200Z 28007KT 15SM SCT070 M07/M10 A2995 RMK AC4 SLP203

CYQF;2015-12-16 23:00;CYQF 162300Z 28005KT 15SM BKN070 M09/M11 A2996 RMK AC6 SLP209

CYQF;2015-12-17 00:00;CYQF 170000Z 26004KT 15SM BKN090 M09/M11 A2997 RMK AC6 SLP212

CYQF;2015-12-17 01:00;CYQF 170100Z 26007KT 15SM SCT090 BKN250 M10/M12 A2998 RMK AC4CI2 SLP216

CYQF;2015-12-17 02:00;CYQF 170200Z 27007KT 15SM OVC100 M10/M12 A2998 RMK AC8 SLP214

CYQF;2015-12-17 03:00;CYQF 170300Z 26009KT 15SM BKN100 M09/M11 A2997 RMK AC7 SLP213

CYQF;2015-12-17 04:00;CYQF 170400Z 26006KT 15SM FEW050 BKN100 M10/M12 A2997 RMK SC2AC5 SLP219

CYQF;2015-12-17 05:00;CYQF 170500Z 26005KT 15SM FEW050 BKN100 M10/M12 A2997 RMK SC2AC5 SLP215

CYQF;2015-12-17 06:00;CYQF 170600Z 25006KT 15SM OVC080 M09/M11 A2997 RMK AC8 SLP212

CYQF;2015-12-17 07:00;CYQF 170700Z 24009KT 15SM BKN080 M09/M11 A2996 RMK AC7 SLP208

CYQF;2015-12-17 08:00;CYQF 170800Z 23010KT 15SM SCT080 M12/M13 A2996 RMK AC4 SLP211

CYQF;2015-12-17 09:00;CYQF 170900Z 23009KT 15SM FEW080 M13/M15 A2997 RMK AC2 SLP216

CYQF;2015-12-17 10:00;CYQF 171000Z 23003KT 210V270 15SM SKC M14/M17 A2998 RMK SLP218

CYQF;2015-12-17 11:00;CYQF 171100Z 23006KT 15SM SKC M15/M16 A2997 RMK SLP219

CYQF;2015-12-17 12:00;CYQF 171200Z 27007KT 15SM SKC M14/M17 A2998 RMK SLP221

CYQF;2015-12-17 13:00;CYQF 171300Z 29005KT 15SM SKC M14/M17 A2997 RMK SLP219

CYQF;2015-12-17 14:00;CYQF 171400Z 27008KT 15SM SKC M15/M18 A2997 RMK FROIN SLP220

CYQF;2015-12-17 15:00;CYQF 171500Z 19004KT 130V210 15SM SKC M19/M21 A2997 RMK SLP222

CYQF;2015-12-17 16:00;CYQF 171600Z 18005KT 15SM SKC M21/M23 A2996 RMK WND EST WND ESTD SLP224

CYQF;2015-12-17 17:00;CYQF 171700Z 20002KT 15SM SKC M18/M21 A2996 RMK SLP221

CYQF;2015-12-17 18:00;CYQF 171800Z 18002KT 15SM SKC M18/M20 A2997 RMK SLP220

CYQF;2015-12-17 19:00;CYQF 171900Z 26007KT 15SM SKC M14/M17 A2995 RMK SLP212

CYQF;2015-12-17 20:00;CYQF 172000Z 27009KT 15SM SKC M13/M17 A2995 RMK SLP211

CYQF;2015-12-17 21:00;CYQF 172100Z 31007KT 15SM FEW230 M12/M16 A2992 RMK CI2 SLP204

CYQF;2015-12-17 22:00;CYQF 172200Z 17002KT 15SM FEW230 M13/M16 A2992 RMK CI2 SLP205

CYQF;2015-12-17 23:00;CYQF 172300Z 00000KT 15SM FEW230 M14/M17 A2992 RMK CI2 SLP206

CYQF;2015-12-18 00:00;CYQF 180000Z 17004KT 15SM SCT230 M17/M18 A2992 RMK CI3 SLP211

CYQF;2015-12-18 01:00;CYQF 180100Z 19003KT 15SM SKC M17/M19 A2991 RMK SLP208

CYQF;2015-12-18 02:00;CYQF 180200Z 20006KT 15SM SKC M20/M22 A2991 RMK SLP212

CYQF;2015-12-18 03:00;CYQF 180300Z VRB02KT 15SM SKC M21/M24 A2990 RMK SLP216

CYQF;2015-12-18 04:00;CYQF 180400Z 20003KT 15SM SKC M20/M22 A2991 RMK SLP219

CYQF;2015-12-18 05:00;CYQF 180500Z 06005KT 050V150 15SM SKC M25/M28 A2990 RMK SLP218

CYQF;2015-12-18 05:49;CYQF 180549Z 04003KT 1SM BR SKC M22/M24 A2989 RMK FG5 SLP211

CYQF;2015-12-18 06:00;CYQF 180600Z CCA 04003KT 1SM BR SKC M21/M23 A2989 RMK FROIN SLP208

CYQF;2015-12-18 07:00;CYQF 180700Z 00000KT 2SM BR OVC004 M20/M22 A2989 RMK SF8 SLP200

CYQF;2015-12-18 07:19;CYQF 180719Z VRB02KT 2SM -SN BR OVC003 M18/M21 A2988 RMK SF8 FROIN SLP196

CYQF;2015-12-18 08:00;CYQF 180800Z 12004KT 2SM -SN BR OVC003 M17/M18 A2988 RMK SF8 FROIN SLP192

CYQF;2015-12-18 09:00;CYQF 180900Z 13006KT 2SM -SN BR OVC003 M15/M17 A2986 RMK SF8 FROIN SLP183

CYQF;2015-12-18 10:00;CYQF 181000Z 13006KT 2SM -SN BR OVC004 M16/M17 A2984 RMK SF8 FROIN SLP179

CYQF;2015-12-18 11:00;CYQF 181100Z 13012KT 2SM -SN OVC006 M15/M17 A2982 RMK SF8 SLP174

CYQF;2015-12-18 12:00;CYQF 181200Z 13009KT 1 1/2SM -SN OVC005 M16/M18 A2982 RMK SF8 /S01/ SLP176

CYQF;2015-12-18 13:00;CYQF 181300Z 13011KT 1SM -SN OVC006 M16/M18 A2981 RMK SF8 SLP175

CYQF;2015-12-18 14:00;CYQF 181400Z 12010KT 2SM -SN OVC006 M16/M18 A2980 RMK SF8 SLP175

CYQF;2015-12-18 14:46;CYQF 181446Z 11009KT 1 1/2SM -SN OVC010 M15/M17 A2977 RMK ST8 SLP162

CYQF;2015-12-18 15:00;CYQF 181500Z 12011KT 1SM -SN OVC009 M15/M17 A2977 RMK SN2ST6 SLP164

CYQF;2015-12-18 15:09;CYQF 181509Z 12011G16KT 3/4SM -SN BR OVC008 M15/M17 A2976 RMK SN2ST6 SLP160

CYQF;2015-12-18 15:45;CYQF 181545Z 13013KT 1SM -SN OVC035 M15/M17 A2975 RMK SN2SC6 VIS VRB 3/4-11/2 SLP158

CYQF;2015-12-18 16:00;CYQF 181600Z 13017KT 1SM -SN DRSN OVC028 M15/M17 A2974 RMK SN2SC6 VIS VRB 3/4-11/2 SLP153

CYQF;2015-12-18 17:00;CYQF 181700Z 13014KT 1 1/2SM -SN DRSN OVC030 M15/M17 A2972 RMK SN1SC7 VIS VRB 1-2 SLP151

CYQF;2015-12-18 18:00;CYQF 181800Z 14017KT 2SM -SN BKN035 M15/M17 A2970 RMK SN1SC6 VIS VRB 1-3 /S01/ SLP138

CYQF;2015-12-18 18:21;CYQF 181821Z 14021KT 3SM -SN SCT035 OVC080 M14/M16 A2969 RMK SC4AC4 SLP134

CYQF;2015-12-18 18:43;CYQF 181843Z 14018KT 2SM -SN DRSN BKN020 OVC080 M14/M16 A2966 RMK SN1SC5AC2 VIS VRB 1-3 PRESFR SLP125

CYQF;2015-12-18 19:00;CYQF 181900Z 14017G24KT 2SM -SN DRSN OVC020 M14/M16 A2966 RMK SN2SC6 VIS VRB 1-3 SLP122

CYQF;2015-12-18 20:00;CYQF 182000Z 15017G23KT 2SM -SN DRSN OVC018 M14/M16 A2964 RMK SN2SC6 VIS VRB 1-3 SLP111

CYQF;2015-12-18 21:00;CYQF 182100Z CCA 15017G23KT 2SM -SN DRSN OVC015 M14/M15 A2961 RMK SN2SC6 VIS VRB 1-3 SLP100

CYQF;2015-12-18 21:47;CYQF 182147Z 14013KT 2SM -SN DRSN OVC013 M13/M15 A2960 RMK SN2SC6 VIS VRB 1-3 SLP095

CYQF;2015-12-18 22:00;CYQF 182200Z CCA 14012KT 2SM -SN DRSN OVC013 M13/M15 A2961 RMK SN2SC6 VIS VRB 1-3 SLP099

CYQF;2015-12-18 23:00;CYQF 182300Z 16017KT 2 1/2SM -SN DRSN OVC012 M13/M15 A2960 RMK SN1SC7 SLP095

CYQF;2015-12-18 23:45;CYQF 182345Z 16014G20KT 3SM -SN DRSN OVC010 M13/M15 A2959 RMK SC8 SLP091

CYQF;2015-12-19 00:00;CYQF 190000Z 16014G20KT 3SM -SN DRSN BKN010 M13/M15 A2958 RMK SC7 SLP090

CYQF;2015-12-19 00:44;CYQF 190044Z 16014KT 2SM IC DRSN SCT010 M13/M15 A2958 RMK SC3 PRESFR SLP089

CYQF;2015-12-19 01:00;CYQF 190100Z 16010KT 2SM IC DRSN SCT010 M13/M15 A2958 RMK SC3 SLP090

CYQF;2015-12-19 02:00;CYQF 190200Z 17008KT 3SM IC SKC M14/M16 A2958 RMK SLP089

CYQF;2015-12-19 03:00;CYQF 190300Z 07002KT 6SM IC SKC M17/M19 A2958 RMK SLP093

CYQF;2015-12-19 04:00;CYQF 190400Z 06004KT 10SM IC FEW250 M18/M20 A2960 RMK CI1 SLP099

CYQF;2015-12-19 05:00;CYQF 190500Z 36004KT 12SM SCT170 M17/M19 A2960 RMK AC4 SLP097

CYQF;2015-12-19 06:00;CYQF 190600Z 35003KT 15SM OVC160 M17/M18 A2961 RMK AC8 SLP100

CYQF;2015-12-19 07:00;CYQF 190700Z 23002KT 15SM SCT003 BKN160 M16/M17 A2961 RMK ST4AC3 SLP101

CYQF;2015-12-19 07:12;CYQF 190712Z 16003KT 150V230 15SM -SN BKN003 OVC160 M17/M19 A2961 RMK ST6AC2 SLP101

CYQF;2015-12-19 08:00;CYQF 190800Z 00000KT 10SM -SN OVC003 M16/M18 A2961 RMK ST8 SLP102

CYQF;2015-12-19 08:38;CYQF 190838Z 23004KT 1/2SM -SN BR OVC003 M16/M18 A2962 RMK FG6ST2 SLP103

CYQF;2015-12-19 09:00;CYQF 190900Z 28004KT 2SM -SN BR OVC002 M16/M18 A2962 RMK FG2ST6 SLP105

CYQF;2015-12-19 10:00;CYQF 191000Z 27005KT 2SM -SN BR OVC002 M16/M18 A2964 RMK ST8 SLP111

CYQF;2015-12-19 10:33;CYQF 191033Z 26006KT 1SM BR OVC002 M16/M18 A2965 RMK FG4ST4 SLP113

CYQF;2015-12-19 11:00;CYQF 191100Z 27006KT 3/8SM FZFG VV002 M16/M18 A2966 RMK FG8 SLP116

CYQF;2015-12-19 12:00;CYQF 191200Z 29005KT 3/8SM FZFG VV002 M16/M17 A2967 RMK FG8 FROIN SLP120

CYQF;2015-12-19 13:00;CYQF 191300Z 28003KT 1/2SM FZFG VV003 M16/M17 A2969 RMK FG8 FROIN SLP125

CYQF;2015-12-19 13:34;CYQF 191334Z 28004KT 1/2SM IC FZFG VV003 M15/M17 A2969 RMK FG8 FZ SLP125

CYQF;2015-12-19 14:00;CYQF 191400Z 28003KT 1/2SM IC FZFG VV003 M15/M17 A2969 RMK FG8 SLP127

CYQF;2015-12-19 14:16;CYQF 191416Z 28004KT 1SM IC BR OVC003 M15/M17 A2969 RMK ST8 SLP126

CYQF;2015-12-19 15:00;CYQF 191500Z 24006KT 3SM IC BR OVC005 M15/M17 A2969 RMK ST8 SLP129

CYQF;2015-12-19 16:00;CYQF 191600Z 24006KT 3SM IC BR OVC004 M15/M17 A2969 RMK ST8 SLP131

CYQF;2015-12-19 16:21;CYQF 191621Z 21005KT 1 1/2SM IC BR OVC003 M15/M17 A2969 RMK ST8 SLP131

CYQF;2015-12-19 16:35;CYQF 191635Z 24008KT 1SM IC BR OVC003 M15/M17 A2969 RMK ST8 SLP133

CYQF;2015-12-19 17:00;CYQF 191700Z 22005KT 1SM IC BR OVC003 M15/M17 A2969 RMK ST8 SLP131

CYQF;2015-12-19 17:29;CYQF 191729Z 23007KT 1 1/2SM BR OVC005 M15/M17 A2970 RMK ST8 SLP132

CYQF;2015-12-19 18:00;CYQF 191800Z 23005KT 2SM BR OVC005 M16/M18 A2970 RMK ST8 SLP132

CYQF;2015-12-19 18:25;CYQF 191825Z 22003KT 3SM BR BKN005 OVC100 M16/M18 A2969 RMK ST7AC1 SLP130

CYQF;2015-12-19 18:44;CYQF 191844Z 20004KT 5SM BR SCT005 BKN120 M16/M18 A2969 RMK SF4AC3 SLP129

CYQF;2015-12-19 19:00;CYQF 191900Z 20004KT 6SM BR FEW005 BKN120 M16/M18 A2968 RMK SF2AC5 SLP127

CYQF;2015-12-19 19:24;CYQF 191924Z 17004KT 8SM IC BKN160 M16/M19 A2967 RMK AC7 SLP123

CYQF;2015-12-19 20:00;CYQF 192000Z VRB02KT 8SM IC BKN160 M16/M18 A2968 RMK AC7 SLP126

CYQF;2015-12-19 21:00;CYQF 192100Z VRB02KT 8SM IC BKN160 M16/M18 A2966 RMK AC6 SLP118

CYQF;2015-12-19 22:00;CYQF 192200Z 15002KT 8SM IC SCT160 M16/M19 A2965 RMK AC4 SLP117

CYQF;2015-12-19 23:00;CYQF 192300Z 15004KT 10SM FEW160 M18/M20 A2965 RMK AC2 BR SLP119

CYQF;2015-12-20 00:00;CYQF 200000Z 18004KT 10SM FEW120 M18/M20 A2966 RMK AC2 BR SLP120

CYQF;2015-12-20 01:00;CYQF 200100Z 19005KT 10SM FEW120 M19/M21 A2966 RMK AC2 SLP122

CYQF;2015-12-20 02:00;CYQF 200200Z 19003KT 10SM BKN160 M20/M23 A2965 RMK AC5 SLP121

CYQF;2015-12-20 03:00;CYQF 200300Z VRB02KT 10SM BKN160 M19/M21 A2964 RMK AC6 SLP114

CYQF;2015-12-20 04:00;CYQF 200400Z 00000KT 10SM SCT120 M18/M20 A2963 RMK AC4 SLP110

CYQF;2015-12-20 05:00;CYQF 200500Z 21003KT 10SM BKN140 M17/M19 A2962 RMK AC5 SLP106

CYQF;2015-12-20 06:00;CYQF 200600Z 21002KT 15SM SCT180 M17/M19 A2960 RMK AC4 SLP100

CYQF;2015-12-20 07:00;CYQF 200700Z 26002KT 15SM BKN180 M18/M20 A2959 RMK AC6 SLP097

CYQF;2015-12-20 08:00;CYQF 200800Z 19003KT 15SM SCT110 BKN180 M16/M18 A2957 RMK AC4AC3 SLP090

CYQF;2015-12-20 09:00;CYQF 200900Z 14002KT 15SM BKN160 M18/M20 A2955 RMK AC7 SLP083

CYQF;2015-12-20 10:00;CYQF 201000Z 19007KT 15SM BKN160 M12/M14 A2954 RMK AC5 SLP073

CYQF;2015-12-20 11:00;CYQF 201100Z 19005KT 15SM SCT160 M12/M13 A2952 RMK AC3 SLP069

CYQF;2015-12-20 12:00;CYQF 201200Z 20007KT 15SM FEW030 SCT180 M11/M13 A2951 RMK SC1AC2 SLP065

CYQF;2015-12-20 13:00;CYQF 201300Z 19006KT 15SM FEW030 SCT180 M11/M12 A2949 RMK SC1AC2 SLP058

CYQF;2015-12-20 14:00;CYQF 201400Z 18007KT 15SM SKC M13/M15 A2948 RMK SLP058

CYQF;2015-12-20 15:00;CYQF 201500Z 19008KT 15SM BKN220 M11/M15 A2947 RMK CI6 SLP050

CYQF;2015-12-20 16:00;CYQF 201600Z 17005KT 15SM BKN220 M14/M16 A2945 RMK CI7 SLP047

CYQF;2015-12-20 17:00;CYQF 201700Z 18008KT 170V240 15SM BKN220 M10/M14 A2944 RMK CI5 SLP039

CYQF;2015-12-20 18:00;CYQF 201800Z 19005KT 15SM FEW200 M07/M12 A2942 RMK CI2 SLP028

CYQF;2015-12-20 19:00;CYQF 201900Z 18008KT 15SM SCT120 BKN180 M06/M11 A2939 RMK AC4AC1 SLP015

CYQF;2015-12-20 20:00;CYQF 202000Z 18006KT 15SM BKN120 M04/M09 A2937 RMK AC6 SLP005

CYQF;2015-12-20 21:00;CYQF 202100Z 19004KT 15SM SCT090 BKN120 M04/M09 A2935 RMK AC3AC4 SLP001

CYQF;2015-12-20 22:00;CYQF 202200Z 15007KT 140V210 15SM FEW090 BKN160 M05/M09 A2933 RMK AC2AC5 SLP988

CYQF;2015-12-20 23:00;CYQF 202300Z 18006KT 15SM BKN140 M04/M08 A2935 RMK AC7 SLP992

CYQF;2015-12-21 00:00;CYQF 210000Z 16005KT 15SM BKN160 M05/M09 A2935 RMK AC7 SLP994

CYQF;2015-12-21 01:00;CYQF 210100Z 25007KT 230V320 15SM BKN120 M00/M09 A2935 RMK AC7 SLP989

CYQF;2015-12-21 02:00;CYQF 210200Z 19007KT 15SM BKN100 01/M09 A2937 RMK AC7 SLP996

CYQF;2015-12-21 03:00;CYQF 210300Z 23009KT 15SM BKN120 M01/M08 A2935 RMK AC7 SLP989

CYQF;2015-12-21 04:00;CYQF 210400Z 24008KT 15SM SCT120 M02/M09 A2935 RMK AC4 SLP994

CYQF;2015-12-21 05:00;CYQF 210500Z 24008KT 15SM SCT140 M03/M10 A2936 RMK AC4 SLP995

CYQF;2015-12-21 06:00;CYQF 210600Z 25009KT 15SM FEW140 M05/M12 A2937 RMK AC2 SLP996

CYQF;2015-12-21 07:00;CYQF 210700Z 23008KT 15SM FEW140 M08/M14 A2939 RMK AC2 SLP006

CYQF;2015-12-21 08:00;CYQF 210800Z 24009KT 15SM SCT140 M06/M13 A2941 RMK AC3 AURBO SLP007

CYQF;2015-12-21 09:00;CYQF 210900Z 25010KT 15SM SCT140 M07/M13 A2941 RMK AC4 SLP009

CYQF;2015-12-21 10:00;CYQF 211000Z 22004KT 15SM SCT140 M13/M16 A2943 RMK AC3 SLP024

CYQF;2015-12-21 11:00;CYQF 211100Z 20004KT 15SM FEW160 M12/M15 A2943 RMK AC2 SLP020

CYQF;2015-12-21 12:00;CYQF 211200Z 20003KT 15SM SKC M16/M19 A2942 RMK SLP025

CYQF;2015-12-21 13:00;CYQF 211300Z 22004KT 15SM SKC M17/M20 A2942 RMK SLP019

CYQF;2015-12-21 14:00;CYQF 211400Z 22004KT 15SM FEW180 M14/M17 A2942 RMK CI2 SLP017

CYQF;2015-12-21 15:00;CYQF 211500Z 21002KT 15SM SCT180 M16/M19 A2942 RMK CI3 SLP021

CYQF;2015-12-21 16:00;CYQF 211600Z 27003KT 15SM FEW180 M15/M17 A2942 RMK CI2 SLP019

CYQF;2015-12-21 17:00;CYQF 211700Z 22005KT 15SM FEW180 M17/M20 A2941 RMK CI1 SLP020

CYQF;2015-12-21 18:00;CYQF 211800Z 18003KT 15SM FEW180 M17/M20 A2939 RMK CI1 SLP015

CYQF;2015-12-21 19:00;CYQF 211900Z 23003KT 15SM FEW180 M14/M18 A2938 RMK CI1 SLP010

CYQF;2015-12-21 20:00;CYQF 212000Z 23002KT 15SM FEW180 M10/M15 A2935 RMK CI1 SLP993

CYQF;2015-12-21 21:00;CYQF 212100Z 00000KT 15SM FEW180 M10/M15 A2932 RMK CI1 SLP984

CYQF;2015-12-21 22:00;CYQF 212200Z 00000KT 15SM FEW180 M10/M15 A2930 RMK CI2 SLP984

CYQF;2015-12-21 23:00;CYQF 212300Z 10002KT 15SM FEW180 SCT250 M11/M15 A2929 RMK AC1CI2 SLP982

CYQF;2015-12-22 00:00;CYQF 220000Z 28003KT 15SM FEW250 M12/M17 A2929 RMK CI2 SLP984

CYQF;2015-12-22 01:00;CYQF 220100Z 20003KT 15SM FEW250 M14/M16 A2928 RMK CI2 SLP986

CYQF;2015-12-22 02:00;CYQF 220200Z 17003KT 15SM SKC M18/M20 A2927 RMK SLP986

CYQF;2015-12-22 03:00;CYQF 220300Z VRB02KT 15SM SKC M16/M18 A2927 RMK SLP984

CYQF;2015-12-22 04:00;CYQF 220400Z 18004KT 15SM SCT220 M19/M21 A2926 RMK CI3 SLP984

CYQF;2015-12-22 05:00;CYQF 220500Z 00000KT 15SM BKN220 M19/M22 A2927 RMK CI5 SLP988

CYQF;2015-12-22 06:00;CYQF 220600Z 07002KT 15SM SCT170 BKN220 M20/M23 A2927 RMK AC4CI2 SLP988

CYQF;2015-12-22 07:00;CYQF 220700Z 22003KT 15SM BKN160 M18/M21 A2926 RMK AC6 SLP983

CYQF;2015-12-22 08:00;CYQF 220800Z 24004KT 15SM SCT140 BKN220 M18/M20 A2926 RMK AC3CI2 SLP977

CYQF;2015-12-22 09:00;CYQF 220900Z 23004KT 15SM BKN140 M17/M20 A2927 RMK AC5 SLP977

CYQF;2015-12-22 10:00;CYQF 221000Z 21004KT 15SM BKN160 OVC220 M19/M21 A2929 RMK AC6CI2 SLP987

CYQF;2015-12-22 11:00;CYQF 221100Z 00000KT 15SM BKN140 M19/M21 A2929 RMK AC5 SLP988

CYQF;2015-12-22 12:00;CYQF 221200Z 18003KT 15SM BKN130 M18/M21 A2929 RMK AC5 FROIN SLP990

CYQF;2015-12-22 13:00;CYQF 221300Z 19002KT 15SM BKN130 M18/M20 A2929 RMK AC6 SLP992

CYQF;2015-12-22 14:00;CYQF 221400Z 19005KT 10SM SCT130 BKN220 M19/M21 A2931 RMK AC4CI2 SLP003

CYQF;2015-12-22 15:00;CYQF 221500Z 20004KT 10SM FEW120 BKN200 M22/M25 A2930 RMK AC2CI4 SLP002

CYQF;2015-12-22 15:39;CYQF 221539Z 20005KT 6SM BR BKN180 M21/M23 A2930 RMK CI6 SLP001

CYQF;2015-12-22 16:00;CYQF 221600Z 21005KT 6SM BR SCT180 M21/M23 A2931 RMK CI4 SLP006

CYQF;2015-12-22 17:00;CYQF 221700Z 19005KT 6SM BR FEW180 M21/M23 A2932 RMK CI2 SLP010

CYQF;2015-12-22 18:00;CYQF 221800Z 20004KT 6SM BR FEW200 M18/M20 A2932 RMK CI1 SLP010

CYQF;2015-12-22 19:00;CYQF 221900Z 18004KT 6SM BR FEW200 M17/M19 A2932 RMK CI1 SLP005

CYQF;2015-12-22 20:00;CYQF 222000Z 18003KT 8SM FEW200 M15/M17 A2931 RMK CI1 SLP997

CYQF;2015-12-22 21:00;CYQF 222100Z 14002KT 8SM FEW200 M14/M16 A2930 RMK CI1 SLP995

CYQF;2015-12-22 22:00;CYQF 222200Z 00000KT 8SM FEW200 M13/M16 A2931 RMK CI1 SLP999

CYQF;2015-12-22 23:00;CYQF 222300Z 00000KT 10SM SCT200 M14/M17 A2932 RMK CI3 SLP002

CYQF;2015-12-23 00:00;CYQF 230000Z 00000KT 10SM SCT200 M14/M17 A2933 RMK CI3 SLP004

CYQF;2015-12-23 01:00;CYQF 230100Z 25004KT 130V270 10SM BKN150 M18/M20 A2933 RMK AC5 SLP009

CYQF;2015-12-23 02:00;CYQF 230200Z 26006KT 10SM BKN150 M15/M18 A2934 RMK AS7 SLP012

CYQF;2015-12-23 03:00;CYQF 230300Z 18004KT 10SM SCT140 BKN220 M18/M20 A2934 RMK AC3CS4 SLP018

CYQF;2015-12-23 04:00;CYQF 230400Z 21005KT 10SM SCT140 BKN220 M17/M19 A2934 RMK AC3CS3 SLP016

CYQF;2015-12-23 05:00;CYQF 230500Z 23004KT 10SM OVC140 M17/M19 A2934 RMK AS8 SLP016

CYQF;2015-12-23 06:00;CYQF 230600Z 19002KT 10SM OVC098 M19/M21 A2935 RMK AS8 SLP018

CYQF;2015-12-23 07:00;CYQF 230700Z 23005KT 15SM SCT098 M18/M19 A2936 RMK AS4 SLP017

CYQF;2015-12-23 08:00;CYQF 230800Z 20006KT 15SM FEW098 M20/M22 A2936 RMK AS2 FROIN SLP018

CYQF;2015-12-23 09:00;CYQF 230900Z 21007KT 15SM SKC M21/M24 A2936 RMK FROIN SLP019

CYQF;2015-12-23 10:00;CYQF 231000Z 20004KT 15SM BKN180 M22/M24 A2937 RMK AC6 FROIN SLP022

CYQF;2015-12-23 11:00;CYQF 231100Z 22005KT 15SM SCT180 M22/M24 A2938 RMK AC4 FROIN SLP025

CYQF;2015-12-23 12:00;CYQF 231200Z VRB02KT 15SM FEW180 M21/M24 A2939 RMK AC2 FROIN SLP028

CYQF;2015-12-23 13:00;CYQF 231300Z 25003KT 190V270 15SM FEW180 M22/M24 A2939 RMK AC1 FROIN SLP035

CYQF;2015-12-23 14:00;CYQF 231400Z 18005KT 15SM SCT180 M23/M26 A2940 RMK AC4 SLP037

CYQF;2015-12-23 15:00;CYQF 231500Z 22003KT 15SM SCT140 M21/M24 A2941 RMK AC4 FROIN SLP040

CYQF;2015-12-23 16:00;CYQF 231600Z 19006KT 15SM BKN140 BKN240 M24/M26 A2941 RMK AC5CI2 FROIN SLP045

CYQF;2015-12-23 17:00;CYQF 231700Z 19005KT 15SM SCT070 BKN140 M21/M23 A2943 RMK AC4AC3 SLP047

CYQF;2015-12-23 18:00;CYQF 231800Z 20005KT 15SM BKN070 M16/M19 A2944 RMK AC7 SLP046

CYQF;2015-12-23 19:00;CYQF 231900Z 20003KT 15SM BKN070 BKN250 M14/M16 A2943 RMK AC6CI1 SLP039

CYQF;2015-12-23 20:00;CYQF 232000Z 19002KT 15SM FEW070 BKN250 M14/M16 A2941 RMK AC2CI3 SLP037

CYQF;2015-12-23 21:00;CYQF 232100Z 16002KT 15SM FEW180 M14/M16 A2941 RMK AC2 SLP037

CYQF;2015-12-23 22:00;CYQF 232200Z 17002KT 15SM FEW220 M15/M17 A2942 RMK CI2 SLP041

CYQF;2015-12-23 23:00;CYQF 232300Z 01003KT 15SM SCT140 BKN220 M14/M17 A2943 RMK AC3CI2 SLP044

CYQF;2015-12-24 00:00;CYQF 240000Z 36005KT 10SM SCT140 BKN220 M16/M17 A2944 RMK AC3CI3 VIS N 3BR SLP050

CYQF;2015-12-24 01:00;CYQF 240100Z 36003KT 1/8SM FZFG VV002 M16/M18 A2946 RMK FG8 SLP056

CYQF;2015-12-24 02:00;CYQF 240200Z 19002KT 1/8SM FZFG VV002 M16/M17 A2946 RMK FG8 SLP058

CYQF;2015-12-24 03:00;CYQF 240300Z 00000KT 2SM BR OVC003 M15/M17 A2947 RMK ST8 SLP057

CYQF;2015-12-24 04:00;CYQF 240400Z 20006KT 3SM -SN BR OVC002 M15/M17 A2948 RMK ST8 SLP064

CYQF;2015-12-24 05:00;CYQF 240500Z 22004KT 3/4SM -SN BR VV002 M15/M16 A2949 RMK FG8 SLP063

CYQF;2015-12-24 06:00;CYQF 240600Z 00000KT 1SM -SN BR VV002 M14/M15 A2950 RMK FG8 SLP061

CYQF;2015-12-24 07:00;CYQF 240700Z 00000KT 1 1/2SM -SN BR VV003 M13/M15 A2951 RMK FG8 SLP061

CYQF;2015-12-24 08:00;CYQF 240800Z 00000KT 1 1/2SM -SN BR VV003 M13/M15 A2951 RMK FG8 SLP063

CYQF;2015-12-24 09:00;CYQF 240900Z 36003KT 3SM -SN OVC006 M12/M14 A2952 RMK SF8 SLP065

CYQF;2015-12-24 10:00;CYQF 241000Z 36003KT 2 1/2SM -SN OVC006 M12/M13 A2954 RMK SF8 SLP073

CYQF;2015-12-24 11:00;CYQF 241100Z 01006KT 1SM -SN OVC009 M12/M13 A2955 RMK SF8 SLP076

CYQF;2015-12-24 12:00;CYQF 241200Z 33005KT 320V020 1SM -SN OVC006 M11/M13 A2957 RMK SF8 SLP082

CYQF;2015-12-24 13:00;CYQF 241300Z 01004KT 3SM -SN OVC010 M12/M13 A2958 RMK SF8 SLP088

CYQF;2015-12-24 14:00;CYQF 241400Z 36002KT 10SM IC OVC016 M12/M14 A2960 RMK ST8 SLP095

CYQF;2015-12-24 15:00;CYQF 241500Z 01003KT 10SM IC OVC016 M12/M14 A2962 RMK ST8 SLP102

CYQF;2015-12-24 16:00;CYQF 241600Z 00000KT 2SM -SN OVC040 M13/M14 A2965 RMK SC8 SLP110

CYQF;2015-12-24 17:00;CYQF 241700Z 28003KT 3SM -SN SCT040 OVC080 M13/M14 A2968 RMK SC3AC5 VIS VRB 2-4 /S01/ SLP121

CYQF;2015-12-24 18:00;CYQF 241800Z 29004KT 5SM -SN BKN070 M13/M14 A2970 RMK AC7 SLP128

CYQF;2015-12-24 19:00;CYQF 241900Z 29003KT 3SM -SN BKN030 BKN070 M12/M14 A2970 RMK SC5AC2 VIS VRB 2 - 4 SLP127

CYQF;2015-12-24 19:40;CYQF 241940Z 29004KT 4SM IC SCT100 BKN250 M12/M14 A2971 RMK AC4CI3 SLP130

CYQF;2015-12-24 20:00;CYQF 242000Z 31005KT 3SM IC BKN100 BKN250 M12/M14 A2971 RMK AC6CI1 VIS VRB 2-4 SLP130

CYQF;2015-12-24 20:39;CYQF 242039Z 32002KT 3SM -SN BKN012 OVC100 M13/M14 A2972 RMK SC6AC2 SLP135

CYQF;2015-12-24 21:00;CYQF 242100Z 35004KT 8SM -SN OVC017 M12/M14 A2973 RMK SC8 SLP137

CYQF;2015-12-24 22:00;CYQF 242200Z 02008KT 6SM -SN BKN015 M13/M15 A2976 RMK SC7 SLP147

CYQF;2015-12-24 23:00;CYQF 242300Z 36005KT 6SM -SN OVC027 M14/M16 A2980 RMK SC8 SLP159

CYQF;2015-12-25 00:00;CYQF 250000Z 03005KT 6SM -SN OVC032 M14/M15 A2982 RMK SC8 SLP167

CYQF;2015-12-25 01:00;CYQF 250100Z 02005KT 10SM BKN011 OVC032 M14/M16 A2984 RMK SC6SC2 SLP177

CYQF;2015-12-25 02:00;CYQF 250200Z 06002KT 10SM BKN010 OVC036 M17/M19 A2986 RMK SC7SC1 CIG RAG SLP187

CYQF;2015-12-25 03:00;CYQF 250300Z 01004KT 10SM -SN OVC010 M17/M19 A2989 RMK SC8 SLP198

CYQF;2015-12-25 04:00;CYQF 250400Z 00000KT 10SM -SN BKN008 OVC030 M17/M19 A2991 RMK SC6SC2 SLP205

CYQF;2015-12-25 05:00;CYQF 250500Z 13005KT 10SM -SN SCT008 OVC027 M16/M17 A2992 RMK SC4SC4 SLP205

CYQF;2015-12-25 06:00;CYQF 250600Z 18004KT 10SM -SN OVC025 M15/M17 A2993 RMK SC8 SLP210

CYQF;2015-12-25 07:00;CYQF 250700Z 17002KT 10SM -SN OVC025 M15/M17 A2994 RMK SC8 SLP214

CYQF;2015-12-25 08:00;CYQF 250800Z 19004KT 10SM -SN OVC026 M15/M17 A2995 RMK SC8 SLP217

CYQF;2015-12-25 09:00;CYQF 250900Z 20005KT 10SM -SN OVC028 M16/M17 A2996 RMK SC8 SLP218

CYQF;2015-12-25 10:00;CYQF 251000Z 15004KT 15SM -SN OVC030 M16/M18 A2998 RMK SC8 SLP228

CYQF;2015-12-25 10:25;CYQF 251025Z 15006KT 15SM OVC032 M17/M19 A2998 RMK SC8 SLP230

CYQF;2015-12-25 11:00;CYQF 251100Z 17005KT 15SM FEW032 M18/M20 A2998 RMK SC2 FROIN SLP232

CYQF;2015-12-25 12:00;CYQF 251200Z 17005KT 15SM FEW032 M19/M22 A2999 RMK SC2 SLP236

CYQF;2015-12-25 13:00;CYQF 251300Z 15004KT 15SM SKC M21/M24 A3000 RMK FROIN SLP244

CYQF;2015-12-25 14:00;CYQF 251400Z 19003KT 15SM SKC M24/M27 A3002 RMK SLP256

CYQF;2015-12-25 15:00;CYQF 251500Z 15003KT 15SM SKC M22/M25 A3004 RMK SLP260

CYQF;2015-12-25 16:00;CYQF 251600Z 18004KT 10SM SCT250 M23/M26 A3006 RMK CI3 SLP268

CYQF;2015-12-25 17:00;CYQF 251700Z 16004KT 12SM SCT250 M23/M26 A3008 RMK CI3 SLP274

CYQF;2015-12-25 18:00;CYQF 251800Z 18007KT 10SM SCT250 M21/M24 A3008 RMK CI3 SLP273

CYQF;2015-12-25 19:00;CYQF 251900Z 18011KT 10SM SCT250 M18/M20 A3007 RMK CI3 SLP265

CYQF;2015-12-25 20:00;CYQF 252000Z 17010KT 12SM SCT250 M17/M19 A3006 RMK CI3 SLP261

CYQF;2015-12-25 21:00;CYQF 252100Z 17008KT 10SM SCT250 M17/M19 A3007 RMK CI4 SLP262

CYQF;2015-12-25 22:00;CYQF 252200Z 17009KT 12SM SCT210 M18/M20 A3008 RMK CI4 SLP267

CYQF;2015-12-25 23:00;CYQF 252300Z 19007KT 12SM SCT210 M18/M21 A3010 RMK CI3 SLP278

CYQF;2015-12-26 00:00;CYQF 260000Z 21007KT 12SM SCT210 M21/M24 A3012 RMK CI3 SLP289

CYQF;2015-12-26 01:00;CYQF 260100Z 19005KT 15SM SCT210 M22/M25 A3016 RMK CI3 SLP308

CYQF;2015-12-26 02:00;CYQF 260200Z 20006KT 15SM FEW210 M23/M26 A3019 RMK CI2 SLP321

CYQF;2015-12-26 03:00;CYQF 260300Z 26006KT 15SM FEW004 BKN210 M23/M26 A3022 RMK ST2CI3 PRESRR SLP331

CYQF;2015-12-26 04:00;CYQF 260400Z 17002KT 15SM SCT012 M20/M23 A3023 RMK ST4 SLP334

CYQF;2015-12-26 04:51;CYQF 260451Z 20004KT 10SM -SN BKN012 M19/M22 A3023 RMK SC7 SLP333

CYQF;2015-12-26 05:00;CYQF 260500Z 22005KT 10SM -SN OVC012 M19/M21 A3024 RMK SC8 SLP333

CYQF;2015-12-26 06:00;CYQF 260600Z 25009KT 15SM -SN OVC014 M18/M20 A3025 RMK SC8 SLP334

CYQF;2015-12-26 07:00;CYQF 260700Z 25007KT 15SM -SN OVC014 M17/M19 A3027 RMK SC8 SLP336

CYQF;2015-12-26 08:00;CYQF 260800Z 26006KT 15SM -SN OVC014 M16/M18 A3027 RMK SC8 SLP335

CYQF;2015-12-26 09:00;CYQF 260900Z 28005KT 15SM -SN OVC014 M16/M18 A3029 RMK SC8 SLP339

CYQF;2015-12-26 10:00;CYQF 261000Z 28004KT 15SM -SN OVC013 M16/M18 A3031 RMK SC8 SLP347

CYQF;2015-12-26 11:00;CYQF 261100Z 22005KT 15SM -SN OVC012 M16/M18 A3030 RMK SC8 SLP348

CYQF;2015-12-26 12:00;CYQF 261200Z 21005KT 15SM -SN OVC011 M18/M20 A3031 RMK SC8 SLP355

CYQF;2015-12-26 12:40;CYQF 261240Z 20004KT 15SM -SN OVC009 M17/M19 A3031 RMK SC8 SLP353

CYQF;2015-12-26 13:00;CYQF 261300Z 20004KT 15SM -SN OVC009 M17/M19 A3030 RMK SC8 SLP353

CYQF;2015-12-26 14:00;CYQF 261400Z 22004KT 15SM -SN OVC008 M17/M19 A3032 RMK SC8 SLP360

CYQF;2015-12-26 15:00;CYQF 261500Z 18007KT 15SM -SN OVC006 M17/M19 A3032 RMK SC8 SLP361

CYQF;2015-12-26 16:00;CYQF 261600Z 15009KT 10SM -SN OVC006 M18/M20 A3031 RMK SF8 SLP355

CYQF;2015-12-26 17:00;CYQF 261700Z 16006KT 8SM -SN OVC005 M19/M21 A3031 RMK SF8 SLP355

CYQF;2015-12-26 17:24;CYQF 261724Z 18005KT 12SM IC BKN005 BKN250 M19/M21 A3031 RMK SF5CI2 SLP354

CYQF;2015-12-26 18:00;CYQF 261800Z 17005KT 12SM IC FEW005 SCT250 M19/M21 A3030 RMK SF1CI2 SLP349

CYQF;2015-12-26 19:00;CYQF 261900Z 18004KT 10SM IC BKN250 M18/M21 A3028 RMK CI5 SLP341

CYQF;2015-12-26 20:00;CYQF 262000Z 15003KT 10SM IC BKN250 M18/M21 A3025 RMK CI6 SLP328

CYQF;2015-12-26 21:00;CYQF 262100Z 19004KT 10SM IC FEW150 BKN250 M18/M20 A3023 RMK AC1CI7 AC TR SLP322

CYQF;2015-12-26 22:00;CYQF 262200Z 15003KT 12SM IC FEW150 BKN250 M18/M21 A3021 RMK AC1CI7 AC TR SLP313

CYQF;2015-12-26 23:00;CYQF 262300Z 12002KT 12SM IC FEW150 BKN240 M18/M21 A3020 RMK AC1CI6 SLP310

CYQF;2015-12-27 00:00;CYQF 270000Z 14006KT 15SM IC SCT170 BKN240 M18/M20 A3019 RMK AC3CI4 SLP309

CYQF;2015-12-27 01:00;CYQF 270100Z 13006KT 15SM IC FEW090 SCT170 BKN250 M18/M20 A3017 RMK AC2AC2CI3 SLP299

CYQF;2015-12-27 02:00;CYQF 270200Z 14006KT 15SM IC BKN130 OVC250 M17/M19 A3015 RMK AC6CI2 SLP291

CYQF;2015-12-27 03:00;CYQF 270300Z 12003KT 15SM IC SCT130 BKN170 M16/M19 A3013 RMK AC4AC3 SLP286

CYQF;2015-12-27 04:00;CYQF 270400Z 12003KT 15SM IC BKN180 M17/M19 A3013 RMK AC6 SLP286

CYQF;2015-12-27 04:28;CYQF 270428Z 18004KT 15SM SCT140 BKN220 M17/M19 A3012 RMK AC3CI4 SLP285

CYQF;2015-12-27 05:00;CYQF 270500Z 15003KT 15SM BKN170 OVC220 M17/M20 A3010 RMK AC6CI2 SLP280

CYQF;2015-12-27 06:00;CYQF 270600Z 17003KT 15SM FEW160 OVC220 M18/M20 A3009 RMK AC2CI6 SLP274

CYQF;2015-12-27 07:00;CYQF 270700Z 00000KT 15SM OVC190 M17/M19 A3006 RMK AC8 SLP263

CYQF;2015-12-27 08:00;CYQF 270800Z 16004KT 15SM OVC120 M16/M18 A3004 RMK AC8 SLP254

CYQF;2015-12-27 09:00;CYQF 270900Z 15002KT 15SM BKN130 M16/M18 A3001 RMK AC7 SLP245

CYQF;2015-12-27 10:00;CYQF 271000Z 00000KT 15SM BKN100 M16/M18 A3000 RMK AC7 SLP239

CYQF;2015-12-27 11:00;CYQF 271100Z 36004KT 15SM FEW100 BKN220 M17/M19 A2999 RMK AC2CI4 WND ESTD SLP238

CYQF;2015-12-27 12:00;CYQF 271200Z 00000KT 15SM BKN220 M17/M19 A2997 RMK CI5 SLP232

CYQF;2015-12-27 13:00;CYQF 271300Z 19002KT 15SM FEW180 BKN230 M17/M19 A2995 RMK AC2CI4 SLP224

CYQF;2015-12-27 14:00;CYQF 271400Z 22002KT 15SM SCT180 BKN230 M18/M20 A2995 RMK AC3CI3 SLP224

CYQF;2015-12-27 15:00;CYQF 271500Z 00000KT 15SM FEW180 BKN230 M17/M20 A2995 RMK AC2CI4 WND ESTD SLP223

CYQF;2015-12-27 16:00;CYQF 271600Z 00000KT 15SM BKN210 M21/M23 A2994 RMK CI7 WND ESTD SLP226

CYQF;2015-12-27 17:00;CYQF 271700Z 17004KT 10SM BKN190 M19/M22 A2992 RMK CI7 SLP218

CYQF;2015-12-27 18:00;CYQF 271800Z 22007KT 12SM SCT190 BKN250 M17/M20 A2992 RMK CI3CC4 SLP214

CYQF;2015-12-27 19:00;CYQF 271900Z 19002KT 12SM BKN250 M16/M18 A2990 RMK CI7 SLP205

CYQF;2015-12-27 20:00;CYQF 272000Z 17004KT 12SM BKN250 M15/M17 A2988 RMK CI6 SLP195

CYQF;2015-12-27 21:00;CYQF 272100Z 19004KT 12SM BKN250 M14/M16 A2985 RMK CI6 SLP183

CYQF;2015-12-27 22:00;CYQF 272200Z 20004KT 15SM BKN250 M13/M16 A2985 RMK CI7 SLP182

CYQF;2015-12-27 23:00;CYQF 272300Z 21002KT 15SM BKN250 M15/M18 A2986 RMK CI6 SLP190

CYQF;2015-12-28 00:00;CYQF 280000Z 05003KT 050V150 15SM BKN250 M16/M19 A2988 RMK CI5 SLP196

CYQF;2015-12-28 01:00;CYQF 280100Z 18002KT 15SM SCT230 M14/M16 A2990 RMK CI3 SLP201

CYQF;2015-12-28 02:00;CYQF 280200Z 34002KT 15SM FEW220 M16/M19 A2990 RMK CI1 SLP206

CYQF;2015-12-28 03:00;CYQF 280300Z 18003KT 15SM SKC M19/M21 A2990 RMK SLP209

CYQF;2015-12-28 04:00;CYQF 280400Z VRB02KT 15SM SCT180 M17/M19 A2990 RMK AC4 SLP210

CYQF;2015-12-28 05:00;CYQF 280500Z 21006KT 15SM BKN160 M16/M18 A2990 RMK AC7 SLP206

CYQF;2015-12-28 06:00;CYQF 280600Z 29004KT 15SM BKN150 M14/M17 A2991 RMK AC7 SLP208

CYQF;2015-12-28 07:00;CYQF 280700Z 16004KT 15SM SCT100 OVC150 M14/M16 A2992 RMK AC4AC4 SLP207

CYQF;2015-12-28 08:00;CYQF 280800Z 27002KT 15SM BKN060 OVC100 M12/M14 A2992 RMK SC5AC3 SLP204

CYQF;2015-12-28 09:00;CYQF 280900Z 00000KT 15SM OVC070 M11/M13 A2992 RMK AC8 SLP202

CYQF;2015-12-28 10:00;CYQF 281000Z 19002KT 15SM OVC060 M11/M13 A2994 RMK SC8 VIRGA SLP208

CYQF;2015-12-28 10:08;CYQF 281008Z 00000KT 15SM -SN OVC060 M11/M13 A2995 RMK SC8 SLP210

CYQF;2015-12-28 11:00;CYQF 281100Z 00000KT 5SM -SN OVC050 M11/M13 A2996 RMK SC8 SLP216

CYQF;2015-12-28 12:00;CYQF 281200Z 03003KT 4SM -SN OVC050 M10/M12 A2996 RMK SC8 VIS VRB 3-5 SLP219

CYQF;2015-12-28 13:00;CYQF 281300Z 01003KT 4SM -SN OVC050 M11/M13 A2996 RMK SC8 VIS VRB 3-5 SLP217

CYQF;2015-12-28 14:00;CYQF 281400Z 35002KT 5SM -SN OVC047 M11/M12 A2998 RMK SC8 SLP224

CYQF;2015-12-28 15:00;CYQF 281500Z 01002KT 4SM -SN OVC048 M10/M12 A2999 RMK SC8 SLP232

CYQF;2015-12-28 15:29;CYQF 281529Z 34002KT 2SM -SN OVC032 M10/M12 A3000 RMK SC8 SLP233

CYQF;2015-12-28 16:00;CYQF 281600Z 33004KT 1 1/2SM -SN OVC045 M10/M11 A3000 RMK SC8 VIS VRB 1-2 SLP232

CYQF;2015-12-28 17:00;CYQF 281700Z 34005KT 2SM -SN OVC045 M09/M10 A3002 RMK SC8 VIS VRB 1-3 SLP237

CYQF;2015-12-28 18:00;CYQF 281800Z 33004KT 2SM -SN OVC045 M08/M10 A3003 RMK SC8 VIS VRB 1-3 SLP239

CYQF;2015-12-28 19:00;CYQF 281900Z 34006KT 2SM -SN OVC036 M07/M09 A3004 RMK SC8 VIS VRB 1-3 SLP239

CYQF;2015-12-28 20:00;CYQF 282000Z 34004KT 2SM -SN OVC045 M07/M09 A3002 RMK SC8 VIS VRB 1-3 SLP231

CYQF;2015-12-28 20:22;CYQF 282022Z 35003KT 3SM -SN BR BKN040 OVC250 M07/M09 A3002 RMK SC6CI2 SLP230

CYQF;2015-12-28 20:29;CYQF 282029Z 35002KT 8SM IC FEW040 OVC250 M08/M09 A3002 RMK SC2CI6 SLP230

CYQF;2015-12-28 21:00;CYQF 282100Z 04002KT 10SM IC BKN250 M08/M10 A3002 RMK CI7 SLP231

CYQF;2015-12-28 21:16;CYQF 282116Z 00000KT 15SM BKN100 BKN250 M08/M10 A3002 RMK AC5CI2 SLP232

CYQF;2015-12-28 22:00;CYQF 282200Z 00000KT 15SM BKN100 BKN250 M08/M09 A3003 RMK AC5CI2 SLP233

CYQF;2015-12-28 23:00;CYQF 282300Z 00000KT 15SM BKN100 BKN250 M09/M10 A3004 RMK AC5CI2 SLP239

CYQF;2015-12-29 00:00;CYQF 290000Z 00000KT 15SM BKN070 OVC250 M09/M10 A3006 RMK AC6CI2 SLP245

CYQF;2015-12-29 01:00;CYQF 290100Z 33002KT 15SM BKN039 OVC070 M09/M10 A3007 RMK SC7AC1 SLP247

CYQF;2015-12-29 02:00;CYQF 290200Z VRB02KT 15SM OVC037 M09/M10 A3007 RMK SC8 SLP248

CYQF;2015-12-29 03:00;CYQF 290300Z 24002KT 15SM OVC037 M09/M10 A3007 RMK SC8 SLP249

CYQF;2015-12-29 03:16;CYQF 290316Z 22002KT 10SM -SN OVC037 M09/M10 A3007 RMK SC8 SLP249

CYQF;2015-12-29 04:00;CYQF 290400Z 22002KT 10SM -SN OVC037 M09/M11 A3007 RMK SC8 SLP247

CYQF;2015-12-29 05:00;CYQF 290500Z 17003KT 15SM -SN OVC036 M09/M10 A3007 RMK SC8 SLP246

CYQF;2015-12-29 06:00;CYQF 290600Z 15003KT 10SM -SN OVC036 M09/M10 A3006 RMK SC8 SLP241

CYQF;2015-12-29 07:00;CYQF 290700Z 00000KT 10SM -SN OVC035 M09/M10 A3006 RMK SC8 SLP242

CYQF;2015-12-29 08:00;CYQF 290800Z 14002KT 12SM -SN OVC035 M10/M11 A3006 RMK SC8 SLP242

CYQF;2015-12-29 09:00;CYQF 290900Z 12002KT 10SM SCT035 BKN180 M11/M12 A3005 RMK SC4AC2 SLP240

CYQF;2015-12-29 09:24;CYQF 290924Z 00000KT 1/8SM FZFG SCT180 M12/M12 A3005 RMK FG3AC1 SLP240

CYQF;2015-12-29 10:00;CYQF 291000Z 00000KT 0SM FZFG VV001 M14/M15 A3005 RMK FG8 SLP242

CYQF;2015-12-29 11:00;CYQF 291100Z 17005KT 3SM BR SCT180 M16/M18 A3004 RMK FG3AC1 SLP245

CYQF;2015-12-29 12:00;CYQF 291200Z 19004KT 10SM SKC M16/M18 A3004 RMK SLP244

CYQF;2015-12-29 12:29;CYQF 291229Z 19003KT 10SM IC SKC M19/M22 A3003 RMK SLP245

CYQF;2015-12-29 13:00;CYQF 291300Z 19006KT 8SM IC SKC M18/M20 A3003 RMK SLP244

CYQF;2015-12-29 13:15;CYQF 291315Z 18005KT 8SM SKC M18/M21 A3003 RMK SLP244

CYQF;2015-12-29 14:00;CYQF 291400Z 21005KT 8SM SKC M19/M21 A3004 RMK SLP246

CYQF;2015-12-29 14:48;CYQF 291448Z 18003KT 2SM +BLSA SKC M22/M25 A3003 RMK FG2 SLP249

CYQF;2015-12-29 15:00;CYQF 291500Z 22002KT 3SM BR SKC M20/M23 A3003 RMK FG1 VIS NW-NE 1 SLP247

CYQF;2015-12-29 15:19;CYQF 291519Z 22003KT 6SM BR FEW002 SCT250 M20/M22 A3003 RMK SF2CI1 VIS W 2 SLP246

CYQF;2015-12-29 16:00;CYQF 291600Z 22003KT 4SM BR FEW002 SCT250 M18/M21 A3005 RMK SF2CI1 VIS NW 1 SLP250

CYQF;2015-12-29 16:37;CYQF 291637Z 20004KT 2SM BR SCT003 BKN250 M19/M22 A3005 RMK ST3CI3 SLP252

CYQF;2015-12-29 16:51;CYQF 291651Z 20004KT 2SM BR OVC002 M19/M22 A3005 RMK ST8 SLP253

CYQF;2015-12-29 17:00;CYQF 291700Z 22003KT 2SM BR OVC002 M19/M21 A3006 RMK ST8 SLP253

CYQF;2015-12-29 17:49;CYQF 291749Z 19005KT 1/2SM FZFG OVC002 M18/M20 A3006 RMK ST8 SLP252

CYQF;2015-12-29 18:00;CYQF 291800Z 18006KT 1/2SM FZFG OVC002 M17/M19 A3006 RMK FG4ST4 SLP251

CYQF;2015-12-29 18:44;CYQF 291844Z 22002KT 3/4SM BR BKN002 OVC250 M16/M18 A3005 RMK FG3ST4CI1 SLP248

CYQF;2015-12-29 19:00;CYQF 291900Z 18002KT 1SM BR BKN002 OVC250 M16/M18 A3005 RMK FG1ST5CI2 SLP246

CYQF;2015-12-29 19:21;CYQF 291921Z 16003KT 3SM BR BKN004 BKN250 M16/M18 A3004 RMK ST5CI2 SLP245

CYQF;2015-12-29 19:33;CYQF 291933Z 17004KT 3SM BR FEW004 SCT250 M16/M19 A3004 RMK ST2CI2 SLP245

CYQF;2015-12-29 20:00;CYQF 292000Z 18004KT 4SM BR SKC M16/M18 A3003 RMK SLP242

CYQF;2015-12-29 21:00;CYQF 292100Z 18003KT 6SM BR SKC M15/M16 A3003 RMK SLP240

CYQF;2015-12-29 21:48;CYQF 292148Z 17004KT 8SM IC SKC M16/M18 A3002 RMK SLP238

CYQF;2015-12-29 22:00;CYQF 292200Z VRB02KT 8SM IC SKC M15/M16 A3002 RMK SLP241

CYQF;2015-12-29 23:00;CYQF 292300Z 17005KT 8SM IC SKC M15/M17 A3003 RMK SLP247

CYQF;2015-12-30 00:00;CYQF 300000Z 18005KT 8SM SKC M18/M21 A3005 RMK WND ESTD SLP258

CYQF;2015-12-30 01:00;CYQF 300100Z 20004KT 12SM SKC M20/M23 A3004 RMK SLP261

CYQF;2015-12-30 02:00;CYQF 300200Z 20004KT 15SM SKC M21/M24 A3005 RMK SLP264

CYQF;2015-12-30 03:00;CYQF 300300Z 21005KT 15SM SKC M19/M21 A3004 RMK SLP262

CYQF;2015-12-30 04:00;CYQF 300400Z 21004KT 15SM SKC M21/M23 A3003 RMK SLP259

CYQF;2015-12-30 05:00;CYQF 300500Z 00000KT 15SM SKC M21/M24 A3004 RMK SLP262

CYQF;2015-12-30 06:00;CYQF 300600Z 19003KT 15SM SKC M23/M26 A3005 RMK SLP265

CYQF;2015-12-30 07:00;CYQF 300700Z 21005KT 15SM SKC M23/M26 A3005 RMK SLP265

CYQF;2015-12-30 08:00;CYQF 300800Z 20005KT 15SM SKC M26/M29 A3007 RMK SLP273

CYQF;2015-12-30 09:00;CYQF 300900Z 20007KT 15SM SKC M26/M29 A3007 RMK SLP272

CYQF;2015-12-30 10:00;CYQF 301000Z 20006KT 15SM SKC M26/M29 A3008 RMK SLP278

CYQF;2015-12-30 11:00;CYQF 301100Z 19007KT 15SM SKC M27/M30 A3010 RMK SLP284

CYQF;2015-12-30 12:00;CYQF 301200Z 18005KT 15SM SKC M27/M30 A3011 RMK SLP292

CYQF;2015-12-30 13:00;CYQF 301300Z 19006KT 15SM FEW180 M27/M30 A3011 RMK CI2 SLP295

CYQF;2015-12-30 14:00;CYQF 301400Z 19006KT 15SM BKN180 M23/M26 A3012 RMK AS5 SLP295

CYQF;2015-12-30 15:00;CYQF 301500Z 17007KT 15SM FEW160 BKN220 M24/M26 A3012 RMK AC2CS3 SLP294

CYQF;2015-12-30 16:00;CYQF 301600Z 20004KT 15SM SCT220 M24/M27 A3014 RMK CI3 SLP304

CYQF;2015-12-30 17:00;CYQF 301700Z VRB02KT 15SM FEW250 M17/M19 A3016 RMK CI1 SLP301

CYQF;2015-12-30 18:00;CYQF 301800Z 29005KT 15SM FEW250 M12/M14 A3016 RMK CI1 SLP297

CYQF;2015-12-30 19:00;CYQF 301900Z 30008KT 15SM FEW250 M11/M13 A3016 RMK CI1 CI TR SLP295

CYQF;2015-12-30 20:00;CYQF 302000Z 00000KT 15SM FEW250 M11/M15 A3015 RMK CI1 CI TR SLP298

CYQF;2015-12-30 21:00;CYQF 302100Z 19003KT 150V210 15SM FEW140 FEW250 M10/M16 A3016 RMK AC1CI1 SLP299

CYQF;2015-12-30 22:00;CYQF 302200Z 31007KT 15SM BKN060 M06/M13 A3018 RMK SC5 SLP300

CYQF;2015-12-30 23:00;CYQF 302300Z 33012G17KT 15SM BKN070 M05/M11 A3020 RMK AC5 SLP306

CYQF;2015-12-31 00:00;CYQF 310000Z 31009KT 15SM FEW070 M07/M11 A3022 RMK AC2 SLP316

CYQF;2015-12-31 01:00;CYQF 310100Z 30010KT 15SM SKC M08/M12 A3025 RMK SLP329

CYQF;2015-12-31 02:00;CYQF 310200Z 26006KT 15SM SKC M10/M14 A3026 RMK SLP331

CYQF;2015-12-31 03:00;CYQF 310300Z 25009KT 15SM SKC M11/M15 A3026 RMK SLP333

CYQF;2015-12-31 04:00;CYQF 310400Z 24006KT 15SM SKC M11/M15 A3028 RMK SLP338

CYQF;2015-12-31 05:00;CYQF 310500Z 22006KT 15SM SKC M16/M19 A3027 RMK SLP333

CYQF;2015-12-31 06:00;CYQF 310600Z 19005KT 15SM SKC M18/M20 A3027 RMK SLP329

CYQF;2015-12-31 07:00;CYQF 310700Z 22003KT 200V260 15SM SKC M17/M20 A3026 RMK SLP325

CYQF;2015-12-31 08:00;CYQF 310800Z 20006KT 15SM SKC M19/M21 A3025 RMK SLP324

CYQF;2015-12-31 09:00;CYQF 310900Z 20006KT 15SM SKC M19/M21 A3026 RMK SLP324

CYQF;2015-12-31 10:00;CYQF 311000Z 21008KT 15SM SKC M17/M20 A3024 RMK SLP314

CYQF;2015-12-31 11:00;CYQF 311100Z 21004KT 15SM SKC M20/M22 A3023 RMK SLP311

CYQF;2015-12-31 12:00;CYQF 311200Z 20005KT 15SM SKC M18/M20 A3023 RMK SLP310

CYQF;2015-12-31 13:00;CYQF 311300Z 21006KT 15SM SKC M19/M22 A3022 RMK SLP311

CYQF;2015-12-31 14:00;CYQF 311400Z 21004KT 15SM SKC M20/M22 A3022 RMK SLP313

CYQF;2015-12-31 15:00;CYQF 311500Z 20005KT 15SM FEW250 M20/M22 A3020 RMK CI2 SLP309

CYQF;2015-12-31 16:00;CYQF 311600Z 20004KT 15SM FEW250 M17/M20 A3020 RMK CI2 SLP302

CYQF;2015-12-31 17:00;CYQF 311700Z 21002KT 15SM SCT250 M16/M20 A3020 RMK CI3 SLP307

CYQF;2015-12-31 18:00;CYQF 311800Z 23009KT 15SM SCT250 M13/M18 A3020 RMK CI3 SLP305

CYQF;2015-12-31 19:00;CYQF 311900Z 22006KT 15SM SCT250 M10/M17 A3019 RMK CI3 SLP297

CYQF;2015-12-31 20:00;CYQF 312000Z 19004KT 15SM FEW250 M12/M17 A3019 RMK CI2 SLP302

CYQF;2015-12-31 21:00;CYQF 312100Z 20006KT 15SM FEW250 M11/M16 A3017 RMK CI1 CI TR SLP294

CYQF;2015-12-31 22:00;CYQF 312200Z 22006KT 15SM FEW250 M11/M17 A3017 RMK CI1 CI TR SLP293

CYQF;2015-12-31 23:00;CYQF 312300Z 18006KT 15SM FEW250 M13/M19 A3017 RMK CI1 CI TR SLP299

