CYQF;2018-01-01 00:00;CYQF 010000Z 17009KT 15SM SKC M28/M32 A3040 RMK SLP412

CYQF;2018-01-01 01:00;CYQF 010100Z 16007KT 15SM SKC M29/M33 A3039 RMK SLP412

CYQF;2018-01-01 02:00;CYQF 010200Z 18008KT 15SM SKC M30/M33 A3039 RMK SLP410

CYQF;2018-01-01 03:00;CYQF 010300Z 18008KT 15SM SKC M30/M34 A3039 RMK SLP411

CYQF;2018-01-01 04:00;CYQF 010400Z 18004KT 15SM SKC M32/M35 A3039 RMK SLP412

CYQF;2018-01-01 05:00;CYQF 010500Z 19005KT 15SM SKC M32/M35 A3038 RMK SLP407

CYQF;2018-01-01 06:00;CYQF 010600Z 20005KT 15SM SKC M32/M36 A3039 RMK SLP408

CYQF;2018-01-01 07:00;CYQF 010700Z 18005KT 15SM SKC M33/M37 A3039 RMK SLP407

CYQF;2018-01-01 08:00;CYQF 010800Z 18005KT 15SM SKC M33/M37 A3039 RMK SLP407

CYQF;2018-01-01 09:00;CYQF 010900Z 20004KT 15SM SKC M33/M36 A3037 RMK SLP402

CYQF;2018-01-01 10:00;CYQF 011000Z 21003KT 15SM SKC M33/M37 A3037 RMK SLP400

CYQF;2018-01-01 11:00;CYQF 011100Z 23005KT 15SM SKC M33/M36 A3035 RMK SLP396

CYQF;2018-01-01 12:00;CYQF 011200Z 22004KT 15SM SKC M34/M38 A3034 RMK SLP393

CYQF;2018-01-01 13:00;CYQF 011300Z 23005KT 15SM SKC M32/M35 A3032 RMK SLP387

CYQF;2018-01-01 14:00;CYQF 011400Z 24004KT 15SM SCT250 M32/M35 A3030 RMK CI3 SLP380

CYQF;2018-01-01 15:00;CYQF 011500Z 23004KT 15SM SKC M34/M38 A3028 RMK SLP375

CYQF;2018-01-01 16:00;CYQF 011600Z 22006KT 15SM SKC M29/M32 A3027 RMK SLP366

CYQF;2018-01-01 17:00;CYQF 011700Z 19005KT 15SM FEW250 M28/M31 A3025 RMK CI1 SLP360

CYQF;2018-01-01 18:00;CYQF 011800Z 17005KT 15SM FEW250 M26/M29 A3023 RMK CI2 SLP350

CYQF;2018-01-01 19:00;CYQF 011900Z 21006KT 15SM FEW250 M21/M25 A3021 RMK CI2 SLP339

CYQF;2018-01-01 20:00;CYQF 012000Z 18007KT 15SM SCT250 M18/M23 A3017 RMK CI4 SLP322

CYQF;2018-01-01 21:00;CYQF 012100Z 19004KT 170V260 15SM BKN250 M16/M21 A3016 RMK CI6 SLP315

CYQF;2018-01-01 22:00;CYQF 012200Z 22006KT 15SM BKN250 M16/M21 A3016 RMK CI7 SLP315

CYQF;2018-01-01 23:00;CYQF 012300Z 25004KT 190V270 15SM SCT180 BKN250 M17/M21 A3017 RMK AC4CI3 PRESRR SLP320

CYQF;2018-01-02 00:00;CYQF 020000Z 21007KT 15SM FEW180 BKN240 M18/M22 A3018 RMK AC2CI4 SLP325

CYQF;2018-01-02 01:00;CYQF 020100Z 19008KT 15SM FEW160 BKN250 M18/M22 A3017 RMK AC2CI4 SLP320

CYQF;2018-01-02 02:00;CYQF 020200Z 21005KT 15SM BKN230 M18/M22 A3015 RMK CI7 SLP312

CYQF;2018-01-02 03:00;CYQF 020300Z 19004KT 15SM BKN230 M17/M21 A3015 RMK CI7 SLP313

CYQF;2018-01-02 04:00;CYQF 020400Z 19005KT 15SM FEW080 BKN250 M16/M19 A3015 RMK AC1CI6 SLP308

CYQF;2018-01-02 05:00;CYQF 020500Z 19005KT 15SM BKN070 M13/M16 A3016 RMK AC7 SLP304

CYQF;2018-01-02 06:00;CYQF 020600Z 20008KT 15SM SCT070 BKN250 M13/M16 A3016 RMK AC3CI4 SLP304

CYQF;2018-01-02 07:00;CYQF 020700Z 21006KT 15SM FEW070 BKN250 M14/M17 A3016 RMK AC2CI4 SLP299

CYQF;2018-01-02 08:00;CYQF 020800Z 20006KT 15SM BKN068 M11/M14 A3017 RMK AC7 SLP293

CYQF;2018-01-02 09:00;CYQF 020900Z 19003KT 15SM BKN067 M10/M13 A3018 RMK AC7 SLP293

CYQF;2018-01-02 10:00;CYQF 021000Z 19005KT 15SM BKN065 M08/M12 A3020 RMK SC7 SLP301

CYQF;2018-01-02 11:00;CYQF 021100Z 19004KT 15SM BKN062 M08/M11 A3022 RMK SC7 SLP305

CYQF;2018-01-02 12:00;CYQF 021200Z 25003KT 15SM SCT060 SCT250 M10/M12 A3024 RMK SC3CI1 SLP316

CYQF;2018-01-02 13:00;CYQF 021300Z 23004KT 15SM SCT120 M08/M12 A3025 RMK AC4 SLP320

CYQF;2018-01-02 14:00;CYQF 021400Z 25007KT 15SM FEW110 M07/M10 A3026 RMK AC2 SLP319

CYQF;2018-01-02 15:00;CYQF 021500Z 25010KT 15SM FEW110 M07/M11 A3027 RMK AC2 SLP324

CYQF;2018-01-02 16:00;CYQF 021600Z 21005KT 15SM FEW110 SCT250 M11/M13 A3028 RMK AC1CI3 SLP331

CYQF;2018-01-02 17:00;CYQF 021700Z 20005KT 15SM FEW100 SCT250 M10/M13 A3028 RMK AC1CI3 AC TR SLP327

CYQF;2018-01-02 18:00;CYQF 021800Z 22007KT 15SM FEW100 SCT250 M05/M09 A3029 RMK AC1CI3 AC TR SLP322

CYQF;2018-01-02 19:00;CYQF 021900Z 20003KT 180V270 15SM FEW100 SCT250 M06/M10 A3027 RMK AC1CI4 AC TR SLP318

CYQF;2018-01-02 20:00;CYQF 022000Z 20005KT 15SM FEW250 M05/M09 A3025 RMK CI2 SLP305

CYQF;2018-01-02 21:00;CYQF 022100Z VRB02KT 15SM FEW100 SCT250 M03/M08 A3024 RMK AC1CI3 AC TR SLP298

CYQF;2018-01-02 22:00;CYQF 022200Z 21005KT 15SM FEW100 SCT250 M01/M07 A3023 RMK AC1CI3 AC TR SLP291

CYQF;2018-01-02 23:00;CYQF 022300Z 00000KT 15SM SCT250 M06/M11 A3023 RMK CI3 SLP296

CYQF;2018-01-03 00:00;CYQF 030000Z 22004KT 180V260 15SM SCT250 M04/M08 A3022 RMK CI4 SLP293

CYQF;2018-01-03 01:00;CYQF 030100Z 20004KT 15SM FEW250 M03/M07 A3022 RMK CI2 SLP291

CYQF;2018-01-03 02:00;CYQF 030200Z 20005KT 15SM FEW250 M09/M11 A3020 RMK CI1 SLP290

CYQF;2018-01-03 03:00;CYQF 030300Z 21003KT 15SM FEW250 M10/M11 A3019 RMK CI2 SLP286

CYQF;2018-01-03 04:00;CYQF 030400Z 00000KT 15SM SCT250 M12/M14 A3018 RMK CI3 SLP290

CYQF;2018-01-03 05:00;CYQF 030500Z 18004KT 15SM BKN240 M12/M14 A3018 RMK CI7 SLP288

CYQF;2018-01-03 06:00;CYQF 030600Z 20004KT 15SM BKN250 M10/M11 A3017 RMK CI6 SLP276

CYQF;2018-01-03 07:00;CYQF 030700Z 21007KT 15SM BKN250 M11/M12 A3015 RMK CI5 SLP274

CYQF;2018-01-03 08:00;CYQF 030800Z 15004KT 10SM SCT160 BKN250 M14/M16 A3014 RMK AC3CI3 SLP272

CYQF;2018-01-03 09:00;CYQF 030900Z 21005KT 15SM BKN160 M13/M14 A3012 RMK AC6 SLP263

CYQF;2018-01-03 10:00;CYQF 031000Z 22009KT 12SM SCT160 M11/M13 A3014 RMK AC4 SLP263

CYQF;2018-01-03 11:00;CYQF 031100Z 19006KT 10SM FEW160 SCT250 M14/M15 A3013 RMK AC2CI2 SLP271

CYQF;2018-01-03 12:00;CYQF 031200Z 20005KT 12SM FEW150 M15/M17 A3013 RMK AC2 SLP268

CYQF;2018-01-03 13:00;CYQF 031300Z 21007KT 12SM SCT001 M12/M14 A3012 RMK ST4 SLP262

CYQF;2018-01-03 13:14;CYQF 031314Z 21006KT 2SM BR BKN001 M13/M14 A3012 RMK ST6 SLP261

CYQF;2018-01-03 13:43;CYQF 031343Z 22004KT 8SM BKN001 M13/M14 A3012 RMK ST5 SLP262

CYQF;2018-01-03 13:47;CYQF 031347Z 22004KT 10SM SCT001 M13/M15 A3012 RMK ST4 SLP261

CYQF;2018-01-03 14:00;CYQF 031400Z 22007KT 10SM FEW001 M13/M15 A3011 RMK ST2 FROIN SLP267

CYQF;2018-01-03 15:00;CYQF 031500Z 22003KT 15SM FEW100 M13/M15 A3011 RMK AC1 SLP266

CYQF;2018-01-03 16:00;CYQF 031600Z 00000KT 15SM FEW100 M11/M13 A3011 RMK AC1 SLP268

CYQF;2018-01-03 17:00;CYQF 031700Z 20005KT 15SM FEW240 M13/M14 A3011 RMK CI2 SLP270

CYQF;2018-01-03 18:00;CYQF 031800Z 21005KT 15SM SCT240 M10/M11 A3011 RMK CI4 SLP264

CYQF;2018-01-03 19:00;CYQF 031900Z 19003KT 15SM SCT240 M08/M09 A3011 RMK CI3 SLP261

CYQF;2018-01-03 20:00;CYQF 032000Z 19005KT 15SM FEW240 M07/M08 A3009 RMK CI2 SLP257

CYQF;2018-01-03 21:00;CYQF 032100Z 20004KT 15SM FEW240 M06/M09 A3009 RMK CI1 SLP252

CYQF;2018-01-03 22:00;CYQF 032200Z 20004KT 15SM SCT240 M05/M09 A3009 RMK CI3 SLP250

CYQF;2018-01-03 23:00;CYQF 032300Z 21005KT 15SM SCT240 M06/M10 A3009 RMK CI3 SLP254

CYQF;2018-01-04 00:00;CYQF 040000Z 20005KT 15SM BKN240 M08/M10 A3009 RMK CI5 SLP260

CYQF;2018-01-04 01:00;CYQF 040100Z 19007KT 15SM BKN240 M09/M11 A3009 RMK CI5 SLP258

CYQF;2018-01-04 02:00;CYQF 040200Z 19005KT 15SM SCT240 M10/M12 A3008 RMK CI4 SLP257

CYQF;2018-01-04 03:00;CYQF 040300Z 21004KT 15SM BKN240 M12/M13 A3008 RMK CI5 SLP259

CYQF;2018-01-04 04:00;CYQF 040400Z VRB02KT 15SM SCT250 M13/M15 A3008 RMK CI3 SLP258

CYQF;2018-01-04 05:00;CYQF 040500Z 18004KT 15SM SCT250 M11/M12 A3009 RMK CI3 SLP258

CYQF;2018-01-04 06:00;CYQF 040600Z 20004KT 15SM SCT250 M11/M13 A3008 RMK CI3 SLP253

CYQF;2018-01-04 07:00;CYQF 040700Z 21004KT 15SM SCT250 M11/M12 A3006 RMK CI3 SLP245

CYQF;2018-01-04 08:00;CYQF 040800Z 22005KT 15SM FEW250 M14/M16 A3005 RMK CI2 SLP244

CYQF;2018-01-04 09:00;CYQF 040900Z 21007KT 15SM FEW250 M12/M14 A3005 RMK CI1 SLP238

CYQF;2018-01-04 10:00;CYQF 041000Z 23005KT 15SM FEW250 M10/M11 A3006 RMK CI2 SLP238

CYQF;2018-01-04 11:00;CYQF 041100Z 21007KT 15SM FEW250 M09/M10 A3006 RMK CI2 SLP240

CYQF;2018-01-04 12:00;CYQF 041200Z 21002KT 15SM FEW250 M13/M15 A3006 RMK CI2 SLP247

CYQF;2018-01-04 13:00;CYQF 041300Z 21007KT 15SM FEW250 M13/M14 A3005 RMK CI2 SLP242

CYQF;2018-01-04 14:00;CYQF 041400Z 24004KT 15SM SCT250 M12/M13 A3005 RMK CI3 SLP244

CYQF;2018-01-04 15:00;CYQF 041500Z 20005KT 15SM FEW090 SCT250 M13/M14 A3004 RMK AC1CI3 AC TR SLP244

CYQF;2018-01-04 16:00;CYQF 041600Z 20005KT 15SM FEW110 BKN250 M12/M14 A3004 RMK AC1CI4 SLP244

CYQF;2018-01-04 17:00;CYQF 041700Z 17003KT 15SM FEW110 BKN250 M10/M12 A3004 RMK AC1CI6 SLP240

CYQF;2018-01-04 18:00;CYQF 041800Z 20003KT 15SM FEW110 BKN250 M09/M10 A3004 RMK AC1CI6 AC TR SLP240

CYQF;2018-01-04 19:00;CYQF 041900Z 18004KT 15SM BKN250 M09/M10 A3003 RMK CI7 SLP234

CYQF;2018-01-04 20:00;CYQF 042000Z 20004KT 15SM BKN230 M08/M09 A3001 RMK CI7 SLP232

CYQF;2018-01-04 21:00;CYQF 042100Z 00000KT 15SM BKN230 M06/M09 A3000 RMK CI6 VIA CYQU SLP225

CYQF;2018-01-04 22:00;CYQF 042200Z 12002KT 15SM BKN250 M06/M09 A2999 RMK CI6 VIA CYQU SLP216

CYQF;2018-01-05 00:00;CYQF 050000Z 07003KT 15SM BKN250 M08/M11 A2998 RMK CI6 VIA CYQU SLP220

CYQF;2018-01-05 01:00;CYQF 050100Z 00000KT 15SM BKN250 M09/M11 A2999 RMK CI7 VIA CYQU SLP222

CYQF;2018-01-05 02:00;CYQF 050200Z 00000KT 15SM BKN250 M07/M09 A2999 RMK CI7 VIA CYQU SLP218

CYQF;2018-01-05 03:00;CYQF 050300Z 00000KT 15SM FEW250 M10/M11 A2997 RMK CI2 VIA CYQU SLP218

CYQF;2018-01-05 04:00;CYQF 050400Z 22003KT 15SM FEW260 M09/M10 A2997 RMK CI2 VIA CYQU SLP214

CYQF;2018-01-05 05:00;CYQF 050500Z 00000KT 15SM FEW250 M11/M12 A2997 RMK CI2 VIA CYQU SLP214

CYQF;2018-01-05 06:00;CYQF 050600Z 22003KT 15SM SKC M10/M11 A2995 RMK SLP207

CYQF;2018-01-05 07:00;CYQF 050700Z 21003KT 15SM SKC M13/M15 A2996 RMK SLP211

CYQF;2018-01-05 08:00;CYQF 050800Z 19004KT 15SM SKC M13/M15 A2994 RMK SLP206

CYQF;2018-01-05 09:00;CYQF 050900Z 21006KT 15SM SKC M10/M12 A2993 RMK SLP197

CYQF;2018-01-05 10:00;CYQF 051000Z 25002KT 15SM SKC M12/M13 A2992 RMK SLP195

CYQF;2018-01-05 11:00;CYQF 051100Z 25004KT 15SM SKC M10/M11 A2992 RMK SLP190

CYQF;2018-01-05 12:00;CYQF 051200Z 22002KT 15SM SKC M11/M12 A2990 RMK SLP190

CYQF;2018-01-05 13:00;CYQF 051300Z 24003KT 12SM SKC M13/M14 A2989 RMK SLP188

CYQF;2018-01-05 14:00;CYQF 051400Z 19003KT 15SM SKC M16/M18 A2989 RMK FROIN SLP190

CYQF;2018-01-05 15:00;CYQF 051500Z 20004KT 15SM FEW120 M15/M17 A2988 RMK AC2 SLP188

CYQF;2018-01-05 16:00;CYQF 051600Z 22004KT 8SM FEW120 M16/M18 A2988 RMK AC1 SLP190

CYQF;2018-01-05 17:00;CYQF 051700Z 19003KT 15SM SCT120 M16/M18 A2988 RMK AC3 VIS LWR TO S SLP192

CYQF;2018-01-05 17:16;CYQF 051716Z 20004KT 5SM BR FEW120 M15/M17 A2989 RMK AC2 SLP192

CYQF;2018-01-05 18:00;CYQF 051800Z 20005KT 5SM BR FEW100 FEW240 M13/M15 A2989 RMK AC1CI1 SLP188

CYQF;2018-01-05 19:00;CYQF 051900Z 22005KT 15SM FEW100 FEW240 M10/M12 A2987 RMK AC1CI1 SLP184

CYQF;2018-01-05 20:00;CYQF 052000Z 19002KT 10SM FEW100 FEW240 M09/M11 A2985 RMK AC1CI1 SLP174

CYQF;2018-01-05 21:00;CYQF 052100Z 15003KT 15SM FEW100 SCT240 M07/M10 A2983 RMK AC1CI3 SLP164

CYQF;2018-01-05 22:00;CYQF 052200Z 00000KT 15SM BKN190 M08/M12 A2982 RMK CC5 SLP162

CYQF;2018-01-05 23:00;CYQF 052300Z 00000KT 15SM BKN180 BKN220 M07/M10 A2981 RMK AC5CI2 SLP157

CYQF;2018-01-06 00:00;CYQF 060000Z 21003KT 15SM OVC160 M07/M10 A2981 RMK AC8 SLP156

CYQF;2018-01-06 01:00;CYQF 060100Z 21003KT 15SM OVC160 M07/M09 A2979 RMK AC8 SLP151

CYQF;2018-01-06 02:00;CYQF 060200Z 18004KT 15SM SCT160 M06/M09 A2978 RMK AC3 SLP149

CYQF;2018-01-06 03:00;CYQF 060300Z 17002KT 12SM BKN130 M06/M09 A2976 RMK AC6 SLP143

CYQF;2018-01-06 04:00;CYQF 060400Z 21004KT 15SM FEW150 BKN200 M04/M07 A2974 RMK AC2CI4 SLP134

CYQF;2018-01-06 05:00;CYQF 060500Z 19003KT 15SM FEW130 BKN200 M05/M08 A2972 RMK AC2CI3 SLP129

CYQF;2018-01-06 06:00;CYQF 060600Z 20004KT 15SM BKN220 M08/M09 A2971 RMK CI6 SLP126

CYQF;2018-01-06 07:00;CYQF 060700Z 20005KT 15SM BKN250 M07/M09 A2970 RMK CI6 SLP116

CYQF;2018-01-06 08:00;CYQF 060800Z 20004KT 15SM BKN250 M08/M09 A2968 RMK CI6 SLP109

CYQF;2018-01-06 09:00;CYQF 060900Z 19004KT 15SM BKN230 M08/M09 A2967 RMK CI6 SLP103

CYQF;2018-01-06 10:00;CYQF 061000Z 20004KT 15SM SCT230 M08/M09 A2966 RMK CI4 SLP101

CYQF;2018-01-06 11:00;CYQF 061100Z 19003KT 15SM SCT100 BKN230 M08/M09 A2964 RMK AC3CI3 SLP093

CYQF;2018-01-06 12:00;CYQF 061200Z 23006KT 15SM BKN100 BKN220 M05/M06 A2963 RMK AC5CI2 SLP088

CYQF;2018-01-06 13:00;CYQF 061300Z 22002KT 15SM FEW100 SCT150 BKN230 M04/M06 A2962 RMK AC2AC2CI2 SLP083

CYQF;2018-01-06 14:00;CYQF 061400Z 19005KT 15SM SCT100 BKN120 OVC250 M08/M10 A2962 RMK AC4AC2CI2 SLP088

CYQF;2018-01-06 15:00;CYQF 061500Z 19006KT 15SM BKN080 M06/M07 A2963 RMK AC7 SLP086

CYQF;2018-01-06 16:00;CYQF 061600Z 20007KT 15SM FEW070 BKN100 M05/M06 A2964 RMK AC1AC6 SLP087

CYQF;2018-01-06 17:00;CYQF 061700Z 34008KT 15SM SCT070 BKN110 M03/M05 A2970 RMK AC3AC4 PRESRR SLP104

CYQF;2018-01-06 18:00;CYQF 061800Z 35012KT 15SM FEW020 BKN110 OVC250 03/M02 A2971 RMK CU1AC6CI2 CU TR SLP108

CYQF;2018-01-06 19:00;CYQF 061900Z 34007KT 15SM SCT140 OVC210 02/M03 A2971 RMK AC4CI4 SLP108

CYQF;2018-01-06 20:00;CYQF 062000Z CCA 28005KT 15SM FEW050 BKN160 BKN220 02/M02 A2973 RMK SC2ACC4CI1 SLP115

CYQF;2018-01-06 21:00;CYQF 062100Z 28004KT 15SM FEW050 SCT160 BKN220 02/M03 A2975 RMK SC1AC2CI4 SLP120

CYQF;2018-01-06 22:00;CYQF 062200Z 26005KT 15SM FEW040 FEW120 SCT230 01/M03 A2974 RMK SC1ACC1CI2 SLP117

CYQF;2018-01-06 23:00;CYQF 062300Z 24005KT 15SM FEW050 FEW140 BKN210 01/M03 A2976 RMK SC1AC1CI4 SLP125

CYQF;2018-01-07 00:00;CYQF 070000Z 26006KT 15SM FEW100 SCT240 M00/M03 A2977 RMK AC2CI2 SLP128

CYQF;2018-01-07 01:00;CYQF 070100Z 29003KT 15SM BKN240 M05/M06 A2979 RMK CI5 SLP138

CYQF;2018-01-07 02:00;CYQF 070200Z 21003KT 200V270 15SM SCT160 M04/M05 A2980 RMK AC4 SLP145

CYQF;2018-01-07 03:00;CYQF 070300Z 22005KT 15SM BKN220 M07/M08 A2980 RMK CI6 SLP146

CYQF;2018-01-07 04:00;CYQF 070400Z 20006KT 15SM BKN220 M09/M10 A2980 RMK CI7 SLP146

CYQF;2018-01-07 05:00;CYQF 070500Z 21005KT 15SM BKN120 OVC220 M09/M10 A2980 RMK AC6CI2 SLP144

CYQF;2018-01-07 06:00;CYQF 070600Z 19005KT 15SM SCT090 BKN120 OVC250 M08/M09 A2980 RMK AC3AC3CI2 SLP139

CYQF;2018-01-07 07:00;CYQF 070700Z 17005KT 15SM FEW060 OVC140 M07/M08 A2978 RMK SC1AC7 SLP131

CYQF;2018-01-07 08:00;CYQF 070800Z 30007KT 210V310 15SM BKN150 M07/M08 A2978 RMK AC5 SLP130

CYQF;2018-01-07 09:00;CYQF 070900Z 00000KT 15SM SCT160 M07/M08 A2980 RMK AC3 SLP139

CYQF;2018-01-07 10:00;CYQF 071000Z 20007KT 15SM FEW160 M11/M12 A2981 RMK AC2 SLP146

CYQF;2018-01-07 11:00;CYQF 071100Z 23005KT 15SM FEW210 M08/M09 A2980 RMK CI2 SLP142

CYQF;2018-01-07 12:00;CYQF 071200Z 21007KT 15SM FEW210 M11/M12 A2980 RMK CI2 SLP145

CYQF;2018-01-07 13:00;CYQF 071300Z 20004KT 12SM SCT250 M12/M14 A2981 RMK CI3 SLP155

CYQF;2018-01-07 14:00;CYQF 071400Z 19004KT 15SM SCT250 M12/M13 A2982 RMK CI3 FROIN SLP157

CYQF;2018-01-07 15:00;CYQF 071500Z 20003KT 15SM BKN250 M13/M14 A2982 RMK CI5 SLP162

CYQF;2018-01-07 16:00;CYQF 071600Z 24003KT 15SM BKN220 M12/M14 A2984 RMK CI6 SLP169

CYQF;2018-01-07 17:00;CYQF 071700Z 21006KT 15SM BKN240 M12/M13 A2985 RMK CI5 SLP174

CYQF;2018-01-07 18:00;CYQF 071800Z 20007KT 15SM SCT220 BKN260 M11/M13 A2985 RMK CI4CC3 SLP173

CYQF;2018-01-07 19:00;CYQF 071900Z 29003KT 260V020 15SM BKN180 M08/M09 A2985 RMK CI7 SLP166

CYQF;2018-01-07 20:00;CYQF 072000Z 00000KT 15SM BKN180 M08/M09 A2982 RMK CI7 SLP157

CYQF;2018-01-07 21:00;CYQF 072100Z 00000KT 15SM SCT140 BKN200 M06/M07 A2982 RMK AC4CI3 SLP155

CYQF;2018-01-07 22:00;CYQF 072200Z 00000KT 15SM SCT140 BKN200 M05/M08 A2980 RMK AC3CI4 SLP151

CYQF;2018-01-07 23:00;CYQF 072300Z 00000KT 15SM SCT150 BKN250 M05/M08 A2978 RMK AC4CI3 SLP140

CYQF;2018-01-08 00:00;CYQF 080000Z 10004KT 15SM SCT140 BKN250 M07/M09 A2975 RMK AC3CI3 PRESFR SLP136

CYQF;2018-01-08 01:00;CYQF 080100Z 15007KT 15SM FEW150 BKN220 M08/M11 A2975 RMK AC2CI3 SLP137

CYQF;2018-01-08 02:00;CYQF 080200Z 14006KT 15SM FEW150 BKN230 M07/M11 A2973 RMK AC1CI5 SLP128

CYQF;2018-01-08 03:00;CYQF 080300Z VRB02KT 15SM FEW120 BKN200 M08/M11 A2972 RMK AC1CI4 SLP128

CYQF;2018-01-08 04:00;CYQF 080400Z 02003KT 15SM FEW120 BKN200 M09/M11 A2971 RMK AC1CI5 SLP125

CYQF;2018-01-08 05:00;CYQF 080500Z 18006KT 15SM FEW110 BKN180 M05/M10 A2970 RMK AC1AC4 SLP116

CYQF;2018-01-08 06:00;CYQF 080600Z 18005KT 15SM SCT230 M06/M10 A2967 RMK CI4 SLP107

CYQF;2018-01-08 07:00;CYQF 080700Z VRB02KT 15SM BKN210 M08/M11 A2968 RMK CI7 SLP108

CYQF;2018-01-08 08:00;CYQF 080800Z 15003KT 140V220 15SM BKN150 M07/M10 A2967 RMK AC7 SLP103

CYQF;2018-01-08 09:00;CYQF 080900Z 19005KT 15SM OVC160 M06/M10 A2966 RMK AC8 SLP098

CYQF;2018-01-08 10:00;CYQF 081000Z 20004KT 15SM OVC160 M07/M09 A2965 RMK AC8 SLP095

CYQF;2018-01-08 11:00;CYQF 081100Z 21004KT 15SM OVC180 M06/M09 A2965 RMK AC8 SLP093

CYQF;2018-01-08 12:00;CYQF 081200Z 00000KT 15SM OVC190 M07/M09 A2963 RMK AC8 SLP088

CYQF;2018-01-08 13:00;CYQF 081300Z 22002KT 15SM FEW090 OVC220 M08/M09 A2963 RMK AC1CI7 SLP091

CYQF;2018-01-08 14:00;CYQF 081400Z 25002KT 15SM FEW100 BKN220 M09/M11 A2963 RMK AC2CI5 SLP092

CYQF;2018-01-08 15:00;CYQF 081500Z 20005KT 15SM BKN250 M11/M13 A2963 RMK CI7 SLP096

CYQF;2018-01-08 16:00;CYQF 081600Z 20002KT 12SM FEW080 OVC250 M12/M13 A2963 RMK AC1CI7 SLP097

CYQF;2018-01-08 17:00;CYQF 081700Z 21002KT 12SM FEW100 OVC250 M09/M11 A2963 RMK AC2CI6 SLP091

CYQF;2018-01-08 18:00;CYQF 081800Z 16002KT 12SM FEW100 OVC250 M08/M11 A2964 RMK AC2CI6 SLP093

CYQF;2018-01-08 19:00;CYQF 081900Z 00000KT 12SM FEW100 OVC250 M07/M10 A2963 RMK AC1CI7 SLP089

CYQF;2018-01-08 20:00;CYQF 082000Z 21004KT 15SM SCT100 OVC250 M06/M09 A2961 RMK AC3CI5 SLP083

CYQF;2018-01-08 21:00;CYQF 082100Z 18004KT 15SM SCT140 BKN220 M05/M08 A2961 RMK AC4CI3 SLP079

CYQF;2018-01-08 22:00;CYQF 082200Z 20004KT 15SM FEW094 SCT140 BKN220 M05/M08 A2961 RMK AC1AC2CI4 SLP079

CYQF;2018-01-08 23:00;CYQF 082300Z 20005KT 15SM FEW090 SCT130 OVC250 M06/M09 A2963 RMK AC2AC2CI4 SLP086

CYQF;2018-01-09 00:00;CYQF 090000Z 19003KT 15SM BKN090 BKN220 M06/M09 A2963 RMK AC5CI2 SLP088

CYQF;2018-01-09 01:00;CYQF 090100Z 28003KT 15SM BKN090 M07/M09 A2962 RMK AC7 SLP087

CYQF;2018-01-09 02:00;CYQF 090200Z 22002KT 15SM OVC100 M07/M10 A2962 RMK AC8 SLP087

CYQF;2018-01-09 03:00;CYQF 090300Z 00000KT 15SM OVC100 M07/M10 A2961 RMK AC8 SLP088

CYQF;2018-01-09 04:00;CYQF 090400Z 00000KT 15SM BKN084 M07/M10 A2959 RMK AC7 SLP081

CYQF;2018-01-09 05:00;CYQF 090500Z 01007KT 15SM OVC095 M06/M09 A2959 RMK AC8 SLP077

CYQF;2018-01-09 06:00;CYQF 090600Z 35005KT 15SM OVC110 M05/M08 A2959 RMK AC8 SLP073

CYQF;2018-01-09 07:00;CYQF 090700Z 02009KT 15SM OVC140 M05/M08 A2957 RMK AC8 SLP065

CYQF;2018-01-09 08:00;CYQF 090800Z 04010KT 15SM OVC160 M04/M07 A2956 RMK AC8 SLP059

CYQF;2018-01-09 09:00;CYQF 090900Z 04011KT 15SM OVC160 M05/M07 A2954 RMK AC8 SLP054

CYQF;2018-01-09 10:00;CYQF 091000Z 04010KT 12SM FEW120 OVC160 M05/M07 A2952 RMK AC2AC6 SLP045

CYQF;2018-01-09 10:56;CYQF 091056Z 01008KT 8SM FEW009 OVC160 M06/M08 A2952 RMK ST2AC6 SLP048

CYQF;2018-01-09 11:00;CYQF 091100Z 01009KT 8SM SCT009 OVC160 M06/M08 A2952 RMK ST3AC5 SLP049

CYQF;2018-01-09 11:30;CYQF 091130Z 01008KT 6SM BR BKN007 OVC160 M06/M08 A2952 RMK ST6AC2 SLP049

CYQF;2018-01-09 12:00;CYQF 091200Z 02008KT 6SM BR OVC007 M06/M08 A2951 RMK ST8 SLP044

CYQF;2018-01-09 13:00;CYQF 091300Z 02011KT 6SM BR OVC005 M07/M08 A2950 RMK ST8 SLP043

CYQF;2018-01-09 13:27;CYQF 091327Z 01014KT 5SM BR OVC004 M07/M08 A2951 RMK ST8 SLP046

CYQF;2018-01-09 14:00;CYQF 091400Z 35014G19KT 3SM -SN BR VV007 M10/M11 A2951 RMK SN8 SLP052

CYQF;2018-01-09 15:00;CYQF 091500Z 01014KT 3SM -SN BLSN VV005 M11/M13 A2949 RMK SN8 SLP046

CYQF;2018-01-09 15:19;CYQF 091519Z 36014KT 1 1/2SM -SN DRSN OVC007 M12/M14 A2951 RMK SC8 SLP051

CYQF;2018-01-09 16:00;CYQF 091600Z 36014G20KT 2SM -SN DRSN OVC006 M13/M14 A2953 RMK SC8 VIS VRB 11/2-21/2 SLP060

CYQF;2018-01-09 17:00;CYQF 091700Z 35015KT 2SM -SN DRSN OVC009 M13/M16 A2954 RMK SC8 VIS VRB 11/2-21/2 SLP064

CYQF;2018-01-09 18:00;CYQF 091800Z 34017KT 2SM -SN DRSN OVC009 M14/M17 A2956 RMK SN2SC6 SLP071

CYQF;2018-01-09 18:13;CYQF 091813Z 34017G23KT 2SM -SN DRSN OVC010 M15/M17 A2956 RMK SC8 OCNL BLSN VIS VRB 11/2-21/2 SLP071

CYQF;2018-01-09 18:23;CYQF 091823Z 34013G24KT 1SM -SN DRSN OVC010 M15/M17 A2957 RMK SC8 OCNL BLSN VIS VRB 1/2-11/2 SLP074

CYQF;2018-01-09 19:00;CYQF 091900Z 34011G22KT 1SM -SN DRSN OVC012 M15/M18 A2957 RMK SC8 OCNL BLSN VIS VRB 1/2-11/2 SLP075

CYQF;2018-01-09 19:37;CYQF 091937Z 33014G20KT 2SM -SN DRSN OVC020 M16/M19 A2959 RMK SC8 VIS VRB 1-3 SLP082

CYQF;2018-01-09 20:00;CYQF 092000Z 34015G21KT 10SM -SN DRSN OVC022 M16/M19 A2959 RMK SC8 SLP081

CYQF;2018-01-09 20:46;CYQF 092046Z 34018KT 2SM -SN DRSN OVC022 M16/M20 A2960 RMK SC8 SLP085

CYQF;2018-01-09 21:00;CYQF 092100Z 34015G21KT 1SM -SN DRSN OVC022 M16/M19 A2961 RMK SC8 OCNL BLSN VIS VRB 1/2-11/2 SLP088

CYQF;2018-01-09 21:30;CYQF 092130Z 34019G27KT 2SM -SN DRSN SCT022 OVC045 M16/M20 A2962 RMK SC3SC5 OCNL BLSN VIS VRB 1-3 SLP094

CYQF;2018-01-09 22:00;CYQF 092200Z 34019G26KT 2SM -SN BLSN OVC040 M16/M20 A2964 RMK BLSN4SC4 VIS VRB 1-3 SLP101

CYQF;2018-01-09 23:00;CYQF 092300Z 34017G24KT 3SM BLSN FEW040 SCT055 M17/M21 A2968 RMK SC2SC2 VIS VRB 2-4 SLP117

CYQF;2018-01-09 23:29;CYQF 092329Z 34019KT 8SM DRSN SCT050 BKN250 M18/M21 A2970 RMK SC4CI2 SLP123

CYQF;2018-01-10 00:00;CYQF 100000Z 35013G19KT 12SM DRSN BKN048 BKN250 M17/M21 A2971 RMK SC6CI1 SLP127

CYQF;2018-01-10 00:43;CYQF 100043Z 34012KT 13SM -SN DRSN BKN048 M18/M22 A2973 RMK SC7 SLP134

CYQF;2018-01-10 01:00;CYQF 100100Z 35012G19KT 12SM -SN DRSN OVC048 M18/M21 A2973 RMK SC8 SLP135

CYQF;2018-01-10 02:00;CYQF 100200Z 34018G25KT 12SM DRSN OVC049 M18/M23 A2975 RMK SC8 OCNL BLSN SLP147

CYQF;2018-01-10 03:00;CYQF 100300Z 33020KT 12SM -SN DRSN BKN051 BKN077 M19/M24 A2979 RMK SC6AC1 PRESRR SLP164

CYQF;2018-01-10 04:00;CYQF 100400Z 34023KT 12SM -SN DRSN FEW020 SCT050 OVC090 M20/M25 A2980 RMK SC1SC3AC4 SLP172

CYQF;2018-01-10 05:00;CYQF 100500Z 33017G24KT 12SM -SN DRSN FEW025 SCT070 OVC140 M21/M25 A2983 RMK SC2AC2AC4 SLP182

CYQF;2018-01-10 05:29;CYQF 100529Z 33023KT 5SM -SN BLSN BKN020 OVC070 M21/M25 A2983 RMK BLSN4SC1AC3 SLP183

CYQF;2018-01-10 06:00;CYQF 100600Z 34019G25KT 6SM -SN BLSN FEW021 BKN041 OVC140 M21/M26 A2986 RMK SC2SC4AC2 SLP195

CYQF;2018-01-10 06:12;CYQF 100612Z 34014G21KT 8SM -SN DRSN FEW021 BKN041 OVC200 M21/M26 A2987 RMK SC2SC3CI3 SLP196

CYQF;2018-01-10 07:00;CYQF 100700Z 34017G23KT 6SM -SN DRSN FEW021 OVC060 M22/M26 A2989 RMK SC2SC6 SLP205

CYQF;2018-01-10 08:00;CYQF 100800Z 34011G16KT 3SM -SN VV033 M22/M26 A2990 RMK SN8 SLP211

CYQF;2018-01-10 08:21;CYQF 100821Z 35009KT 2SM -SN VV040 M22/M25 A2990 RMK SN8 VIS VRB 1-3 SLP210

CYQF;2018-01-10 09:00;CYQF 100900Z 34013KT 2SM -SN VV028 M22/M25 A2990 RMK SN8 VIS VRB 1-3 SLP210

CYQF;2018-01-10 10:00;CYQF 101000Z 34011KT 2SM -SN OVC050 M22/M26 A2992 RMK SN6SC2 VIS VRB 1-3 SLP218

CYQF;2018-01-10 11:00;CYQF 101100Z 34012KT 2SM -SN OVC040 M22/M26 A2993 RMK SN6SC2 VIS VRB 1-3 SLP224

CYQF;2018-01-10 12:00;CYQF 101200Z 34008KT 6SM -SN BKN060 OVC100 M23/M27 A2994 RMK SN2SC4AC2 SLP228

CYQF;2018-01-10 13:00;CYQF 101300Z 33009KT 5SM -SN OVC065 M23/M27 A2996 RMK SN2SC6 SLP234

CYQF;2018-01-10 14:00;CYQF 101400Z 33010KT 7SM -SN VV045 M23/M27 A2998 RMK SN8 SLP242

CYQF;2018-01-10 15:00;CYQF 101500Z 33009KT 10SM -SN FEW050 BKN120 M23/M27 A2999 RMK SC2AC5 SLP247

CYQF;2018-01-10 16:00;CYQF 101600Z 33007KT 12SM SCT100 BKN250 M23/M27 A3001 RMK AC3CI4 SLP255

CYQF;2018-01-10 17:00;CYQF 101700Z 33009KT 12SM OVC040 M23/M26 A3003 RMK SC8 SLP262

CYQF;2018-01-10 18:00;CYQF 101800Z 01007KT 15SM BKN041 OVC100 M22/M26 A3004 RMK SC6AC2 SLP265

CYQF;2018-01-10 19:00;CYQF 101900Z 35006KT 10SM -SN OVC045 M22/M26 A3006 RMK SC8 SLP273

CYQF;2018-01-10 20:00;CYQF 102000Z 01006KT 12SM -SN FEW020 OVC045 M22/M27 A3006 RMK SC2SC6 SLP272

CYQF;2018-01-10 21:00;CYQF 102100Z 36008KT 5SM -SN SCT035 OVC052 M22/M27 A3006 RMK SC3SC5 SLP273

CYQF;2018-01-10 22:00;CYQF 102200Z 01007KT 3SM -SN SCT040 OVC080 M22/M27 A3006 RMK SC3AC5 VIS VRB 2-4 SLP275

CYQF;2018-01-10 23:00;CYQF 102300Z 01007KT 2SM -SN OVC030 M23/M26 A3009 RMK SN2SC6 SLP284

CYQF;2018-01-11 00:00;CYQF 110000Z 02008KT 2 1/2SM -SN OVC035 M23/M27 A3011 RMK SC8 SLP292

CYQF;2018-01-11 00:19;CYQF 110019Z 03007KT 3SM -SN OVC037 M23/M27 A3012 RMK SC8 SLP298

CYQF;2018-01-11 01:00;CYQF 110100Z 02006KT 3SM -SN OVC034 M23/M27 A3014 RMK SN2SC6 SLP305

CYQF;2018-01-11 01:12;CYQF 110112Z 01007KT 2SM -SN OVC027 M23/M27 A3015 RMK SN2SC6 SLP307

CYQF;2018-01-11 02:00;CYQF 110200Z 03006KT 2SM -SN OVC030 M23/M27 A3016 RMK SN6SC2 SLP312

CYQF;2018-01-11 03:00;CYQF 110300Z 35005KT 1 1/2SM -SN OVC017 M23/M27 A3018 RMK SN3SC5 SLP319

CYQF;2018-01-11 04:00;CYQF 110400Z 01003KT 1 1/2SM -SN VV022 M23/M26 A3019 RMK SN8 VIS VRB 1-2 SLP323

CYQF;2018-01-11 04:29;CYQF 110429Z 01002KT 3SM -SN OVC060 M23/M27 A3020 RMK SN3SC5 SLP325

CYQF;2018-01-11 05:00;CYQF 110500Z 00000KT 6SM -SN OVC070 M24/M27 A3021 RMK AC8 SLP329

CYQF;2018-01-11 06:00;CYQF 110600Z 27002KT 10SM -SN OVC082 M23/M26 A3023 RMK AC8 SLP334

CYQF;2018-01-11 07:00;CYQF 110700Z 17003KT 8SM -SN OVC084 M24/M27 A3024 RMK AC8 SLP338

CYQF;2018-01-11 08:00;CYQF 110800Z 20003KT 6SM -SN OVC060 M23/M26 A3024 RMK SC8 SLP337

CYQF;2018-01-11 09:00;CYQF 110900Z 00000KT 6SM -SN OVC071 M23/M26 A3024 RMK AC8 SLP337

CYQF;2018-01-11 10:00;CYQF 111000Z 17002KT 8SM -SN OVC065 M23/M26 A3025 RMK SC8 SLP341

CYQF;2018-01-11 11:00;CYQF 111100Z 20002KT 8SM -SN OVC064 M23/M26 A3025 RMK SC8 SLP341

CYQF;2018-01-11 12:00;CYQF 111200Z 20003KT 12SM -SN BKN060 M24/M26 A3025 RMK SC7 SLP342

CYQF;2018-01-11 13:00;CYQF 111300Z 21003KT 15SM FEW060 M26/M28 A3025 RMK SC2 SLP345

CYQF;2018-01-11 14:00;CYQF 111400Z 18002KT 15SM FEW060 FEW270 M29/M32 A3023 RMK SC1CI1 SLP344

CYQF;2018-01-11 15:00;CYQF 111500Z 18004KT 15SM FEW270 M30/M33 A3022 RMK CI2 SLP341

CYQF;2018-01-11 16:00;CYQF 111600Z 15004KT 15SM FEW280 M30/M33 A3021 RMK CI2 SLP339

CYQF;2018-01-11 17:00;CYQF 111700Z 15006KT 15SM FEW280 M30/M33 A3022 RMK CI2 SLP341

CYQF;2018-01-11 18:00;CYQF 111800Z 14007KT 15SM SKC M27/M30 A3021 RMK SLP335

CYQF;2018-01-11 19:00;CYQF 111900Z 17008KT 15SM SKC M25/M28 A3018 RMK SLP321

CYQF;2018-01-11 20:00;CYQF 112000Z 16010KT 15SM SKC M25/M27 A3014 RMK SLP305

CYQF;2018-01-11 21:00;CYQF 112100Z 16009KT 15SM SKC M24/M28 A3011 RMK SLP296

CYQF;2018-01-11 22:00;CYQF 112200Z 15008KT 15SM SKC M24/M29 A3010 RMK SLP292

CYQF;2018-01-11 23:00;CYQF 112300Z 14008KT 15SM FEW250 M25/M29 A3010 RMK CI1 SLP294

CYQF;2018-01-12 00:00;CYQF 120000Z 15005KT 15SM FEW250 M28/M32 A3010 RMK CI1 SLP296

CYQF;2018-01-12 01:00;CYQF 120100Z 14006KT 15SM FEW250 M28/M31 A3011 RMK CI1 SLP303

CYQF;2018-01-12 02:00;CYQF 120200Z 15005KT 15SM FEW250 M29/M32 A3013 RMK CI1 SLP315

CYQF;2018-01-12 03:00;CYQF 120300Z 14005KT 15SM FEW250 M30/M32 A3013 RMK CI1 SLP318

CYQF;2018-01-12 04:00;CYQF 120400Z 00000KT 15SM FEW250 M30/M33 A3014 RMK CI1 SLP323

CYQF;2018-01-12 05:00;CYQF 120500Z 00000KT 15SM FEW250 M30/M33 A3016 RMK CI1 SLP328

CYQF;2018-01-12 06:00;CYQF 120600Z 18007KT 15SM SKC M31/M34 A3017 RMK SLP329

CYQF;2018-01-12 07:00;CYQF 120700Z 20004KT 15SM SKC M32/M35 A3019 RMK SLP334

CYQF;2018-01-12 08:00;CYQF 120800Z 22004KT 15SM SKC M33/M36 A3020 RMK SLP339

CYQF;2018-01-12 09:00;CYQF 120900Z 20004KT 15SM SKC M34/M37 A3020 RMK SLP342

CYQF;2018-01-12 10:00;CYQF 121000Z 21003KT 15SM SKC M32/M35 A3021 RMK SLP340

CYQF;2018-01-12 11:00;CYQF 121100Z 18003KT 15SM SKC M31/M34 A3020 RMK SLP339

CYQF;2018-01-12 12:00;CYQF 121200Z 19003KT 15SM SKC M31/M35 A3023 RMK SLP353

CYQF;2018-01-12 13:00;CYQF 121300Z 18003KT 15SM SKC M32/M35 A3024 RMK SLP356

CYQF;2018-01-12 14:00;CYQF 121400Z 00000KT 15SM SKC M32/M35 A3026 RMK SLP364

CYQF;2018-01-12 15:00;CYQF 121500Z 21005KT 15SM FEW250 M32/M35 A3028 RMK CI1 SLP371

CYQF;2018-01-12 16:00;CYQF 121600Z 19003KT 15SM FEW250 M33/M37 A3028 RMK CI1 SLP374

CYQF;2018-01-12 17:00;CYQF 121700Z 17003KT 15SM FEW250 M31/M35 A3028 RMK CI2 SLP373

CYQF;2018-01-12 18:00;CYQF 121800Z 18003KT 15SM FEW250 M29/M32 A3030 RMK CI2 SLP376

CYQF;2018-01-12 19:00;CYQF 121900Z 15004KT 15SM SCT250 M27/M30 A3026 RMK CI3 SLP363

CYQF;2018-01-12 20:00;CYQF 122000Z 17004KT 15SM SCT250 M26/M29 A3024 RMK CI4 SLP356

CYQF;2018-01-12 21:00;CYQF 122100Z 14006KT 15SM BKN250 M24/M27 A3023 RMK CI6 SLP350

CYQF;2018-01-12 22:00;CYQF 122200Z 17006KT 10SM BKN250 M23/M26 A3021 RMK CI7 SLP341

CYQF;2018-01-12 23:00;CYQF 122300Z 16008KT 10SM BKN250 M22/M25 A3021 RMK CI7 SLP338

CYQF;2018-01-13 00:00;CYQF 130000Z 17008KT 12SM SCT150 BKN250 M22/M25 A3020 RMK AC3CI4 SLP336

CYQF;2018-01-13 01:00;CYQF 130100Z 17007KT 15SM FEW140 BKN250 M23/M26 A3020 RMK AC2CI5 SLP336

CYQF;2018-01-13 02:00;CYQF 130200Z 17004KT 15SM BKN250 M24/M27 A3018 RMK CI5 SLP329

CYQF;2018-01-13 03:00;CYQF 130300Z 19004KT 15SM SCT250 M24/M27 A3016 RMK CI4 SLP322

CYQF;2018-01-13 04:00;CYQF 130400Z 18008KT 15SM FEW250 M24/M27 A3015 RMK CI2 SLP321

CYQF;2018-01-13 05:00;CYQF 130500Z 20006KT 15SM SCT230 M23/M26 A3014 RMK CI4 SLP314

CYQF;2018-01-13 06:00;CYQF 130600Z 20007KT 15SM OVC220 M22/M26 A3013 RMK CI8 SLP306

CYQF;2018-01-13 07:00;CYQF 130700Z 20006KT 15SM OVC210 M22/M25 A3014 RMK CI8 SLP306

CYQF;2018-01-13 08:00;CYQF 130800Z 18006KT 15SM OVC160 M21/M24 A3010 RMK AC8 PRESFR SLP292

CYQF;2018-01-13 09:00;CYQF 130900Z 21007KT 15SM OVC110 M20/M23 A3010 RMK AC8 SLP289

CYQF;2018-01-13 10:00;CYQF 131000Z 22003KT 15SM OVC087 M19/M22 A3011 RMK AC8 SLP289

CYQF;2018-01-13 11:00;CYQF 131100Z 21007KT 15SM OVC083 M18/M21 A3010 RMK AC8 SLP281

CYQF;2018-01-13 12:00;CYQF 131200Z 22006KT 15SM OVC100 M17/M20 A3011 RMK AC8 SLP285

CYQF;2018-01-13 13:00;CYQF 131300Z 20006KT 15SM OVC072 M17/M20 A3011 RMK AC8 SLP288

CYQF;2018-01-13 13:40;CYQF 131340Z 21007KT 15SM -SN OVC050 M16/M19 A3011 RMK SC8 SLP287

CYQF;2018-01-13 14:00;CYQF 131400Z 20005KT 15SM -SN BKN060 M15/M19 A3011 RMK SC7 SLP287

CYQF;2018-01-13 14:07;CYQF 131407Z 19005KT 15SM OVC060 M15/M19 A3011 RMK SC8 SLP285

CYQF;2018-01-13 15:00;CYQF 131500Z 21006KT 15SM BKN064 M14/M18 A3012 RMK SC7 SLP287

CYQF;2018-01-13 16:00;CYQF 131600Z 21006KT 12SM BKN062 BKN120 M12/M15 A3012 RMK SC5AC2 SLP285

CYQF;2018-01-13 16:22;CYQF 131622Z 21004KT 12SM FEW006 BKN060 OVC110 M12/M15 A3013 RMK SF1SC5AC2 VIS N 12 S 6 SLP287

CYQF;2018-01-13 17:00;CYQF 131700Z 20005KT 10SM FEW006 SCT060 BKN110 M11/M14 A3014 RMK SF1SC2AC4 VIS S 5 SLP290

CYQF;2018-01-13 17:40;CYQF 131740Z 22006KT 8SM SCT002 OVC100 M10/M11 A3015 RMK SF4AC4 VIS S 2 SLP290

CYQF;2018-01-13 17:51;CYQF 131751Z 21003KT 8SM BCFG BKN002 BKN080 M10/M11 A3015 RMK ST5AC2 VIS S 2 FG BNK INVDG FM S SLP290

CYQF;2018-01-13 18:00;CYQF 131800Z 23003KT 4SM BR BKN002 BKN080 M09/M11 A3015 RMK ST5AC2 VIS S 2 FG BNK INVDG FM S SLP290

CYQF;2018-01-13 18:07;CYQF 131807Z 24002KT 2SM BR OVC001 M09/M10 A3015 RMK SF8 SLP289

CYQF;2018-01-13 18:12;CYQF 131812Z 25003KT 1SM BR OVC001 M09/M09 A3015 RMK FG3ST5 SLP288

CYQF;2018-01-13 18:27;CYQF 131827Z 20003KT 170V230 3/4SM BR OVC001 M08/M09 A3014 RMK FG4ST4 SLP287

CYQF;2018-01-13 18:49;CYQF 131849Z 19002KT 1 1/2SM BR BKN002 OVC075 M08/M09 A3015 RMK ST5AC3 SLP287

CYQF;2018-01-13 19:00;CYQF 131900Z 18003KT 4SM BR BKN080 M07/M08 A3014 RMK AC7 VIS N-E 2 SLP284

CYQF;2018-01-13 20:00;CYQF 132000Z 18006KT 8SM FEW020 BKN080 M05/M07 A3013 RMK SC1AC5 SLP276

CYQF;2018-01-13 21:00;CYQF 132100Z 21004KT 10SM FEW020 FEW075 BKN230 M04/M06 A3013 RMK SC1AC1CI4 SLP274

CYQF;2018-01-13 22:00;CYQF 132200Z 22006KT 12SM FEW075 BKN210 M01/M04 A3014 RMK AC1CI6 SLP275

CYQF;2018-01-13 23:00;CYQF 132300Z 22007KT 15SM FEW120 BKN220 M03/M06 A3017 RMK AC1CI5 SLP284

CYQF;2018-01-14 00:00;CYQF 140000Z 20003KT 190V250 15SM BKN070 BKN220 M03/M06 A3018 RMK AC5CI2 SLP288

CYQF;2018-01-14 01:00;CYQF 140100Z 21003KT 15SM BKN070 BKN220 M03/M05 A3019 RMK AC5CI2 SLP290

CYQF;2018-01-14 02:00;CYQF 140200Z 21006KT 15SM SCT070 BKN160 M03/M05 A3020 RMK AC4AC3 SLP290

CYQF;2018-01-14 03:00;CYQF 140300Z 24009KT 15SM BKN150 M02/M05 A3020 RMK AC7 SLP289

CYQF;2018-01-14 04:00;CYQF 140400Z 00000KT 15SM BKN120 M04/M06 A3020 RMK AC6 SLP289

CYQF;2018-01-14 05:00;CYQF 140500Z VRB02KT 15SM BKN090 M05/M07 A3023 RMK AC7 SLP300

CYQF;2018-01-14 06:00;CYQF 140600Z 00000KT 15SM BKN090 M05/M06 A3024 RMK AC7 SLP302

CYQF;2018-01-14 07:00;CYQF 140700Z 29003KT 15SM BKN081 M05/M07 A3025 RMK AC7 SLP302

CYQF;2018-01-14 08:00;CYQF 140800Z 31005KT 15SM BKN072 M01/M05 A3026 RMK AC7 SLP298

CYQF;2018-01-14 09:00;CYQF 140900Z 31007KT 15SM SCT030 OVC060 00/M04 A3028 RMK SC3SC5 PRESRR SLP303

CYQF;2018-01-14 10:00;CYQF 141000Z 31006KT 15SM OVC026 00/M04 A3030 RMK SC8 SLP309

CYQF;2018-01-14 11:00;CYQF 141100Z 30005KT 15SM OVC027 00/M03 A3032 RMK SC8 SLP315

CYQF;2018-01-14 11:20;CYQF 141120Z 29006KT 10SM -SN OVC026 M00/M03 A3033 RMK SC8 SLP319

CYQF;2018-01-14 11:50;CYQF 141150Z 33007KT 3SM -SN VV017 M00/M03 A3034 RMK SN8 SLP323

CYQF;2018-01-14 12:00;CYQF 141200Z 32008KT 2SM -SN VV020 M01/M03 A3034 RMK SN8 VIS VRB 1-3 SLP325

CYQF;2018-01-14 13:00;CYQF 141300Z 03004KT 2SM -SN OVC005 M02/M03 A3035 RMK SN3SF5 VIS VRB 1-3 SLP330

CYQF;2018-01-14 13:18;CYQF 141318Z 02002KT 2SM -SN BKN005 OVC044 M02/M03 A3036 RMK SN3SF2SC3 VIS VRB 1-3 SLP332

CYQF;2018-01-14 14:00;CYQF 141400Z 31002KT 2SM -SN OVC040 M02/M03 A3036 RMK SN4SC4 SLP333

CYQF;2018-01-14 15:00;CYQF 141500Z 36003KT 2SM -SN FEW006 OVC042 M02/M03 A3037 RMK SF2SC6 SLP335

CYQF;2018-01-14 16:00;CYQF 141600Z 02007KT 2SM -SN FEW004 OVC040 M04/M04 A3040 RMK SF2SC6 SLP349

CYQF;2018-01-14 17:00;CYQF 141700Z 07008KT 1 1/2SM -SN SCT004 VV030 M05/M06 A3043 RMK SF3SN5 SLP362

CYQF;2018-01-14 18:00;CYQF 141800Z 04008KT 2SM -SN SCT004 VV040 M05/M07 A3046 RMK SF3SN5 VIS VRB 11/2- 3 SLP373

CYQF;2018-01-14 19:00;CYQF 141900Z 02006KT 2SM -SN SCT006 OVC042 M06/M08 A3046 RMK SF3SC5 VIS VRB 11/2 -3 /S01/ SLP375

CYQF;2018-01-14 19:39;CYQF 141939Z 05002KT 4SM -SN SCT007 OVC060 M06/M07 A3046 RMK SF4SC4 SLP375

CYQF;2018-01-14 19:50;CYQF 141950Z 05004KT 6SM -SN BKN008 OVC060 M06/M07 A3046 RMK SF5SC3 SLP375

CYQF;2018-01-14 20:00;CYQF 142000Z 07006KT 6SM -SN BKN009 OVC060 M06/M08 A3047 RMK SF5SC3 SLP372

CYQF;2018-01-14 21:00;CYQF 142100Z 08003KT 6SM -SN BKN009 BKN018 OVC040 M07/M09 A3048 RMK SF5SC2SC1 SLP375

CYQF;2018-01-14 21:11;CYQF 142111Z 07003KT 3SM -SN SCT009 BKN017 OVC050 M07/M08 A3048 RMK SF3SC4SC1 SLP375

CYQF;2018-01-14 22:00;CYQF 142200Z 07007KT 8SM -SN FEW018 BKN024 OVC050 M07/M09 A3049 RMK SC2SC5SC1 SLP379

CYQF;2018-01-14 22:34;CYQF 142234Z 07008KT 12SM BKN018 OVC040 M07/M10 A3050 RMK SC6SC2 SLP382

CYQF;2018-01-14 23:00;CYQF 142300Z 08005KT 15SM OVC018 M07/M09 A3050 RMK SC8 SLP383

CYQF;2018-01-15 00:00;CYQF 150000Z 12003KT 15SM OVC018 M07/M09 A3052 RMK SC8 SLP390

CYQF;2018-01-15 01:00;CYQF 150100Z 09006KT 15SM OVC018 M08/M11 A3054 RMK SC8 SLP399

CYQF;2018-01-15 02:00;CYQF 150200Z 12007KT 15SM OVC019 M08/M11 A3054 RMK SC8 SLP400

CYQF;2018-01-15 03:00;CYQF 150300Z 13009KT 15SM OVC021 M08/M11 A3055 RMK SC8 SLP405

CYQF;2018-01-15 04:00;CYQF 150400Z 14012KT 15SM OVC021 M10/M13 A3057 RMK SC8 SLP414

CYQF;2018-01-15 05:00;CYQF 150500Z 12007KT 15SM SCT020 M13/M15 A3057 RMK SC3 SLP421

CYQF;2018-01-15 06:00;CYQF 150600Z 15010KT 15SM SCT020 M14/M16 A3058 RMK SC3 SLP425

CYQF;2018-01-15 07:00;CYQF 150700Z 14010KT 15SM FEW020 M15/M17 A3057 RMK SC2 SLP422

CYQF;2018-01-15 07:49;CYQF 150749Z 16011KT 15SM BKN017 M13/M15 A3055 RMK SC6 SLP415

CYQF;2018-01-15 08:00;CYQF 150800Z 16009KT 15SM BKN016 M12/M14 A3055 RMK SC5 SLP414

CYQF;2018-01-15 09:00;CYQF 150900Z 17014KT 15SM BKN016 M11/M13 A3053 RMK SC5 SLP406

CYQF;2018-01-15 10:00;CYQF 151000Z 14007KT 15SM BKN015 M12/M14 A3052 RMK SC5 SLP403

CYQF;2018-01-15 11:00;CYQF 151100Z 16012KT 15SM BKN014 M10/M12 A3050 RMK SC6 SLP395

CYQF;2018-01-15 12:00;CYQF 151200Z 16014KT 15SM BKN012 M11/M13 A3049 RMK SC6 SLP390

CYQF;2018-01-15 13:00;CYQF 151300Z 17014G19KT 15SM BKN012 M11/M13 A3047 RMK SC5 SLP385

CYQF;2018-01-15 14:00;CYQF 151400Z 16012G18KT 12SM OVC014 M11/M13 A3045 RMK SC8 SLP380

CYQF;2018-01-15 15:00;CYQF 151500Z 16014KT 12SM OVC014 M11/M13 A3043 RMK SC8 SLP374

CYQF;2018-01-15 16:00;CYQF 151600Z 17019G25KT 10SM DRSN OVC011 M11/M14 A3041 RMK SC8 SLP367

CYQF;2018-01-15 17:00;CYQF 151700Z 17019KT 15SM DRSN OVC011 M11/M14 A3039 RMK SC8 SLP364

CYQF;2018-01-15 18:00;CYQF 151800Z 17018KT 15SM DRSN OVC010 M10/M14 A3038 RMK SC8 SLP362

CYQF;2018-01-15 19:00;CYQF 151900Z 16017G23KT 15SM DRSN OVC010 M09/M12 A3035 RMK SC8 SLP349

CYQF;2018-01-15 19:26;CYQF 151926Z 17022KT 15SM DRSN SCT010 BKN250 M08/M11 A3032 RMK SC3CI2 PRESFR SLP338

CYQF;2018-01-15 20:00;CYQF 152000Z 17019G25KT 15SM DRSN FEW010 M09/M12 A3030 RMK SC1 SLP332

CYQF;2018-01-15 21:00;CYQF 152100Z 17015KT 15SM DRSN SCT250 M09/M12 A3028 RMK CI4 SLP320

CYQF;2018-01-15 22:00;CYQF 152200Z 17015KT 15SM DRSN FEW250 M09/M11 A3025 RMK CI2 SLP313

CYQF;2018-01-15 23:00;CYQF 152300Z 16016KT 6SM BLSN FEW250 M10/M12 A3023 RMK CI1 SLP303

CYQF;2018-01-16 00:05;CYQF 160005Z 16013KT 2SM BLSN FEW250 M12/M14 A3020 RMK CI1 SLP296

CYQF;2018-01-16 01:00;CYQF 160100Z 16017G22KT 2 1/2SM BLSN SKC M12/M14 A3017 RMK SLP287

CYQF;2018-01-16 02:00;CYQF 160200Z 17013G18KT 1 1/2SM BLSN SKC M13/M15 A3016 RMK BLSN5 SLP283

CYQF;2018-01-16 02:39;CYQF 160239Z 16009KT 1SM BR DRSN BKN004 M12/M14 A3013 RMK FG4ST2 SLP275

CYQF;2018-01-16 02:52;CYQF 160252Z 16010KT 1 1/2SM BR DRSN BKN004 M12/M14 A3013 RMK FG3ST3 VIS VRB 1-2 SLP273

CYQF;2018-01-16 03:00;CYQF 160300Z 17012KT 2SM BR DRSN SCT004 M12/M14 A3013 RMK FG3ST1 VIS VRB 11/2-21/2 SLP272

CYQF;2018-01-16 04:00;CYQF 160400Z 17013KT 2SM BR DRSN SCT003 M12/M14 A3011 RMK FG3ST1 VIS VRB 1 1/2 - 2 1/2 SLP266

CYQF;2018-01-16 05:00;CYQF 160500Z 17011KT 2 1/2SM BR DRSN FEW003 M13/M15 A3008 RMK ST2 SLP257

CYQF;2018-01-16 05:25;CYQF 160525Z 17009KT 2 1/2SM IC BR DRSN FEW003 M13/M14 A3008 RMK ST1 SLP256

CYQF;2018-01-16 06:00;CYQF 160600Z 15008KT 2 1/2SM IC DRSN FEW003 M13/M15 A3007 RMK ST2 SLP252

CYQF;2018-01-16 07:00;CYQF 160700Z 15006KT 2 1/2SM IC DRSN FEW003 M14/M16 A3005 RMK ST2 SLP244

CYQF;2018-01-16 08:00;CYQF 160800Z 17006KT 2 1/2SM IC DRSN FEW003 M14/M16 A3002 RMK ST1 SLP235

CYQF;2018-01-16 09:00;CYQF 160900Z 16005KT 2 1/2SM IC SKC M15/M17 A3000 RMK SLP231

CYQF;2018-01-16 09:07;CYQF 160907Z 18006KT 4SM IC SKC M15/M16 A3000 RMK SLP230

CYQF;2018-01-16 09:39;CYQF 160939Z 20005KT 12SM SKC M15/M17 A3000 RMK SLP230

CYQF;2018-01-16 10:00;CYQF 161000Z 21006KT 12SM SKC M15/M17 A3000 RMK SLP228

CYQF;2018-01-16 11:00;CYQF 161100Z 17003KT 12SM SKC M16/M18 A2998 RMK SLP224

CYQF;2018-01-16 12:00;CYQF 161200Z 19003KT 15SM SKC M17/M19 A2995 RMK SLP217

CYQF;2018-01-16 13:00;CYQF 161300Z 20002KT 15SM SKC M17/M19 A2993 RMK SLP212

CYQF;2018-01-16 14:00;CYQF 161400Z 20003KT 15SM SKC M16/M18 A2992 RMK SLP208

CYQF;2018-01-16 15:00;CYQF 161500Z 20004KT 15SM SKC M17/M19 A2990 RMK SLP202

CYQF;2018-01-16 16:00;CYQF 161600Z 20004KT 12SM SKC M17/M19 A2989 RMK SLP197

CYQF;2018-01-16 17:00;CYQF 161700Z 23004KT 12SM SKC M15/M17 A2990 RMK SLP198

CYQF;2018-01-16 18:00;CYQF 161800Z 21003KT 12SM SKC M13/M16 A2989 RMK SLP193

CYQF;2018-01-16 19:00;CYQF 161900Z 20004KT 15SM SKC M10/M14 A2987 RMK SLP185

CYQF;2018-01-16 20:00;CYQF 162000Z 22004KT 12SM SKC M07/M12 A2985 RMK SLP173

CYQF;2018-01-16 21:00;CYQF 162100Z 00000KT 15SM FEW160 M05/M11 A2982 RMK AC1 AC TR SLP162

CYQF;2018-01-16 22:00;CYQF 162200Z 14002KT 15SM FEW160 M05/M10 A2981 RMK AC1 SLP158

CYQF;2018-01-16 23:00;CYQF 162300Z 17002KT 15SM FEW160 M05/M11 A2979 RMK AC1 PRESFR SLP154

CYQF;2018-01-17 00:00;CYQF 170000Z 00000KT 15SM FEW140 M05/M10 A2979 RMK AC1 SLP153

CYQF;2018-01-17 01:00;CYQF 170100Z 29005KT 15SM FEW140 M04/M09 A2978 RMK AC1 SLP148

CYQF;2018-01-17 02:00;CYQF 170200Z 20003KT 15SM FEW150 M09/M12 A2978 RMK AC1 SLP152

CYQF;2018-01-17 03:00;CYQF 170300Z 20007KT 15SM SKC M10/M13 A2978 RMK SLP155

CYQF;2018-01-17 04:00;CYQF 170400Z 21010KT 15SM FEW100 M08/M12 A2980 RMK AC1 SLP160

CYQF;2018-01-17 05:00;CYQF 170500Z 19005KT 15SM BKN100 M07/M10 A2982 RMK AC6 SLP164

CYQF;2018-01-17 06:00;CYQF 170600Z 22008KT 15SM BKN110 M02/M06 A2984 RMK AC6 SLP164

CYQF;2018-01-17 07:00;CYQF 170700Z 26014G19KT 15SM BKN110 05/M07 A2985 RMK AC6 SLP155

CYQF;2018-01-17 08:00;CYQF 170800Z 27015KT 15SM BKN110 05/M07 A2988 RMK AC7 SLP162

CYQF;2018-01-17 09:00;CYQF 170900Z 25009KT 15SM BKN110 05/M07 A2991 RMK AC6 SLP170

CYQF;2018-01-17 10:00;CYQF 171000Z 26009KT 15SM SCT110 03/M08 A2992 RMK AC4 SLP177

CYQF;2018-01-17 11:00;CYQF 171100Z 26009KT 15SM FEW110 02/M10 A2994 RMK AC2 SLP186

CYQF;2018-01-17 12:00;CYQF 171200Z 22006KT 15SM FEW110 M02/M11 A2995 RMK AC1 SLP192

CYQF;2018-01-17 13:00;CYQF 171300Z 22008KT 15SM FEW100 M02/M11 A2996 RMK AC1 SLP194

CYQF;2018-01-17 14:00;CYQF 171400Z 19007KT 15SM FEW100 M06/M12 A2995 RMK AC2 SLP201

CYQF;2018-01-17 15:00;CYQF 171500Z 19007KT 15SM FEW100 SCT250 M05/M13 A2994 RMK AC1CI3 SLP198

CYQF;2018-01-17 16:00;CYQF 171600Z 19004KT 15SM FEW100 BKN250 M07/M13 A2993 RMK AC1CI4 SLP195

CYQF;2018-01-17 17:00;CYQF 171700Z 19006KT 15SM FEW100 SCT250 M05/M13 A2993 RMK AC1CI3 SLP192

CYQF;2018-01-17 18:00;CYQF 171800Z 19003KT 15SM FEW100 BKN250 M08/M13 A2992 RMK AC1CI5 SLP187

CYQF;2018-01-17 19:00;CYQF 171900Z 19003KT 15SM BKN250 M02/M12 A2989 RMK CI6 SLP158

CYQF;2018-01-17 20:00;CYQF 172000Z 18004KT 15SM FEW180 BKN250 M01/M09 A2985 RMK AC1CI4 SLP144

CYQF;2018-01-17 21:00;CYQF 172100Z 17007KT 15SM SCT180 BKN250 M01/M08 A2982 RMK AC3CI3 SLP134

CYQF;2018-01-17 22:00;CYQF 172200Z 14005KT 15SM BKN250 M02/M08 A2979 RMK CI7 SLP128

CYQF;2018-01-17 23:00;CYQF 172300Z 13005KT 15SM FEW180 BKN230 M03/M08 A2977 RMK AC1CI5 SLP121

CYQF;2018-01-18 00:00;CYQF 180000Z 18003KT 15SM BKN130 OVC230 M05/M09 A2974 RMK AC6CI2 SLP119

CYQF;2018-01-18 01:00;CYQF 180100Z 16003KT 15SM BKN130 OVC230 M03/M08 A2971 RMK AC7CI1 SLP106

CYQF;2018-01-18 02:00;CYQF 180200Z 19006KT 15SM BKN150 OVC210 M01/M07 A2969 RMK AC6CI2 SLP099

CYQF;2018-01-18 03:00;CYQF 180300Z 22003KT 15SM BKN170 M01/M05 A2963 RMK AC7 SLP080

CYQF;2018-01-18 04:00;CYQF 180400Z 20012KT 15SM OVC190 04/M03 A2959 RMK CI8 SLP061

CYQF;2018-01-18 05:00;CYQF 180500Z 19007KT 15SM FEW120 OVC250 04/M03 A2955 RMK AC2CI6 SLP047

CYQF;2018-01-18 06:00;CYQF 180600Z 23010G15KT 15SM FEW100 06/M03 A2955 RMK AC2 SLP048 DENSITY ALT 3000FT

CYQF;2018-01-18 07:00;CYQF 180700Z 17005KT 15SM BKN250 03/M04 A2952 RMK CI6 SLP035

CYQF;2018-01-18 08:00;CYQF 180800Z 18008G15KT 15SM BKN250 05/M03 A2950 RMK CI7 SLP022 DENSITY ALT 3000FT

CYQF;2018-01-18 09:00;CYQF 180900Z 17010KT 15SM BKN250 04/M02 A2948 RMK CI7 SLP016

CYQF;2018-01-18 10:00;CYQF 181000Z 18010KT 15SM BKN250 04/M01 A2946 RMK CI7 SLP011

CYQF;2018-01-18 11:00;CYQF 181100Z 18007KT 15SM BKN250 03/M02 A2943 RMK CI7 SLP005

CYQF;2018-01-18 12:00;CYQF 181200Z 18010KT 15SM BKN250 02/M02 A2939 RMK CI7 SLP993

CYQF;2018-01-18 13:00;CYQF 181300Z 17006KT 15SM BKN240 02/M02 A2938 RMK CI7 SLP988

CYQF;2018-01-18 14:00;CYQF 181400Z 17009KT 15SM BKN200 02/M03 A2935 RMK CI7 SLP976

CYQF;2018-01-18 15:00;CYQF 181500Z 24008G15KT 15SM BKN180 BKN250 07/M02 A2935 RMK AC5CI2 SLP971 DENSITY ALT 3400FT

CYQF;2018-01-18 16:00;CYQF 181600Z 20007KT 15SM FEW090 SCT160 BKN260 05/M03 A2937 RMK ACC1AC3CC2 SLP974 DENSITY ALT 3200FT

CYQF;2018-01-18 17:00;CYQF 181700Z 27011G18KT 15SM FEW140 SCT260 06/M01 A2938 RMK AC2CI1 SLP976 DENSITY ALT 3200FT

CYQF;2018-01-18 18:00;CYQF 181800Z 25013KT 15SM FEW090 BKN190 06/M01 A2939 RMK ACC2AC4 SLP977 DENSITY ALT 3200FT

CYQF;2018-01-18 19:00;CYQF 181900Z 24014G19KT 15SM FEW090 BKN180 BKN250 06/M01 A2939 RMK ACC2AC3CI1 SLP981 DENSITY ALT 3300FT

CYQF;2018-01-18 20:00;CYQF 182000Z 25008G16KT 15SM FEW080 BKN160 05/M01 A2938 RMK ACC2AC4 SLP975 DENSITY ALT 3200FT

CYQF;2018-01-18 21:00;CYQF 182100Z 19010KT 15SM FEW080 BKN160 04/M01 A2938 RMK ACC2AC4 SLP976 DENSITY ALT 3100FT

CYQF;2018-01-18 22:00;CYQF 182200Z 21006KT 15SM FEW030 BKN170 05/M02 A2937 RMK CU2AC4 VIRGA SLP973 DENSITY ALT 3200FT

CYQF;2018-01-18 23:00;CYQF 182300Z 30006KT 240V310 15SM FEW030 BKN110 BKN250 05/M01 A2939 RMK CU1AC5CI1 VIRGA SLP980 DENSITY ALT 3100FT

CYQF;2018-01-19 00:00;CYQF 190000Z 26010G22KT 15SM FEW030 BKN130 BKN250 05/M05 A2941 RMK SC2AC3CI2 SLP988 DENSITY ALT 3100FT

CYQF;2018-01-19 01:00;CYQF 190100Z 25011KT 15SM BKN140 03/M05 A2942 RMK AC5 SLP993

CYQF;2018-01-19 02:00;CYQF 190200Z 26010KT 15SM BKN160 02/M04 A2942 RMK AC5 SLP997

CYQF;2018-01-19 03:00;CYQF 190300Z 24010KT 15SM FEW160 00/M05 A2941 RMK AC2 SLP991

CYQF;2018-01-19 04:00;CYQF 190400Z 23008KT 15SM SCT160 M03/M07 A2941 RMK AC3 SLP993

CYQF;2018-01-19 05:00;CYQF 190500Z 24008KT 15SM FEW130 M02/M08 A2942 RMK AC2 SLP996

CYQF;2018-01-19 06:00;CYQF 190600Z 20009KT 15SM FEW130 M06/M11 A2944 RMK AC1 SLP007

CYQF;2018-01-19 07:00;CYQF 190700Z 24008KT 15SM FEW130 M02/M10 A2945 RMK AC1 SLP005

CYQF;2018-01-19 08:00;CYQF 190800Z 25011KT 15SM SKC M04/M10 A2945 RMK SLP010

CYQF;2018-01-19 09:00;CYQF 190900Z 24011KT 15SM FEW260 M04/M11 A2945 RMK CI2 SLP011

CYQF;2018-01-19 10:00;CYQF 191000Z 24009KT 15SM FEW260 M05/M12 A2947 RMK CI2 SLP017

CYQF;2018-01-19 11:00;CYQF 191100Z 23008KT 15SM SCT100 M05/M12 A2948 RMK AC3 SLP020

CYQF;2018-01-19 12:00;CYQF 191200Z 19005KT 15SM BKN100 M08/M12 A2948 RMK AC5 SLP025

CYQF;2018-01-19 13:00;CYQF 191300Z 21004KT 15SM BKN094 M06/M11 A2948 RMK AC7 SLP026

CYQF;2018-01-19 14:00;CYQF 191400Z 22005KT 15SM BKN100 M06/M11 A2949 RMK AC7 SLP028

CYQF;2018-01-19 15:00;CYQF 191500Z 21006KT 15SM BKN090 M06/M11 A2949 RMK AC7 SLP032

CYQF;2018-01-19 16:00;CYQF 191600Z 20004KT 15SM BKN090 M05/M10 A2951 RMK AC7 SLP039

CYQF;2018-01-19 17:00;CYQF 191700Z 19006KT 15SM BKN090 M04/M10 A2953 RMK AC7 SLP045

CYQF;2018-01-19 18:00;CYQF 191800Z 23008KT 15SM BKN110 M02/M09 A2953 RMK AC6 SLP048

CYQF;2018-01-19 19:00;CYQF 191900Z 24006KT 15SM BKN085 BKN180 M01/M08 A2953 RMK AC6AC1 SLP043

CYQF;2018-01-19 20:00;CYQF 192000Z 22006KT 15SM SCT080 BKN150 01/M08 A2953 RMK AC4AC3 SLP041

CYQF;2018-01-19 21:00;CYQF 192100Z VRB02KT 15SM BKN080 BKN140 02/M08 A2953 RMK AC5AC2 SLP039

CYQF;2018-01-19 22:00;CYQF 192200Z 23003KT 15SM BKN080 02/M08 A2953 RMK AC7 SLP041

CYQF;2018-01-19 23:00;CYQF 192300Z 19004KT 15SM BKN080 BKN250 01/M05 A2954 RMK AC6CI1 SLP046

CYQF;2018-01-20 00:00;CYQF 200000Z 19005KT 15SM BKN080 BKN250 M01/M06 A2955 RMK AC6CI1 SLP056

CYQF;2018-01-20 01:00;CYQF 200100Z 21006KT 15SM SCT080 BKN170 M01/M08 A2956 RMK AC4AC1 SLP055

CYQF;2018-01-20 02:00;CYQF 200200Z 23005KT 15SM BKN089 M04/M08 A2956 RMK AC6 SLP058

CYQF;2018-01-20 03:00;CYQF 200300Z 19003KT 15SM SCT100 M06/M10 A2957 RMK AC3 SLP064

CYQF;2018-01-20 04:00;CYQF 200400Z VRB03KT 15SM SCT110 M06/M10 A2958 RMK AC3 SLP069

CYQF;2018-01-20 05:00;CYQF 200500Z 22004KT 15SM SCT110 M09/M12 A2960 RMK AC4 SLP076

CYQF;2018-01-20 06:00;CYQF 200600Z 24006KT 15SM SCT120 M04/M11 A2961 RMK AC3 SLP073

CYQF;2018-01-20 07:00;CYQF 200700Z 21004KT 15SM SKC M09/M13 A2963 RMK SLP084

CYQF;2018-01-20 08:00;CYQF 200800Z 17003KT 15SM SKC M10/M14 A2964 RMK SLP087

CYQF;2018-01-20 09:00;CYQF 200900Z 19003KT 15SM FEW120 M12/M15 A2965 RMK AC1 SLP090

CYQF;2018-01-20 10:00;CYQF 201000Z 21004KT 15SM FEW120 SCT250 M11/M14 A2966 RMK AC1CI3 SLP094

CYQF;2018-01-20 11:00;CYQF 201100Z 21005KT 15SM FEW250 M13/M16 A2966 RMK CI2 SLP098

CYQF;2018-01-20 12:00;CYQF 201200Z 21004KT 15SM FEW100 FEW250 M14/M16 A2967 RMK AC1CI1 SLP102

CYQF;2018-01-20 13:00;CYQF 201300Z 20004KT 15SM SCT250 M13/M16 A2967 RMK CI3 SLP102

CYQF;2018-01-20 14:00;CYQF 201400Z 19003KT 15SM FEW220 M15/M17 A2968 RMK CI2 SLP111

CYQF;2018-01-20 15:00;CYQF 201500Z 21003KT 15SM SCT230 M14/M16 A2968 RMK CI4 SLP112

CYQF;2018-01-20 16:00;CYQF 201600Z 18004KT 15SM BKN250 M16/M18 A2968 RMK CI5 SLP116

CYQF;2018-01-20 17:00;CYQF 201700Z 22003KT 15SM FEW120 SCT250 M14/M17 A2970 RMK AC1CI4 AC TR SLP123

CYQF;2018-01-20 18:00;CYQF 201800Z 22004KT 15SM FEW120 SCT250 M10/M15 A2971 RMK AC1CI2 SLP117

CYQF;2018-01-20 19:00;CYQF 201900Z 00000KT 15SM FEW120 FEW250 M07/M13 A2971 RMK AC1CI1 SLP120

CYQF;2018-01-20 20:00;CYQF 202000Z 16002KT 15SM FEW120 SCT250 M05/M12 A2971 RMK AC1CI2 SLP118

CYQF;2018-01-20 21:00;CYQF 202100Z 00000KT 15SM FEW090 SCT250 M03/M11 A2971 RMK AC2CI2 SLP117

CYQF;2018-01-20 22:00;CYQF 202200Z 00000KT 15SM FEW030 BKN160 BKN260 M04/M11 A2971 RMK CU1AC5CI1 SLP118

CYQF;2018-01-20 23:00;CYQF 202300Z 22004KT 15SM FEW100 BKN200 M05/M12 A2973 RMK AC1CI5 SLP129

CYQF;2018-01-21 00:00;CYQF 210000Z 24003KT 15SM FEW100 SCT250 M07/M13 A2975 RMK AC1CI3 AC TR SLP138

CYQF;2018-01-21 01:00;CYQF 210100Z VRB02KT 15SM FEW250 M07/M13 A2975 RMK CI2 SLP139

CYQF;2018-01-21 02:00;CYQF 210200Z 00000KT 15SM FEW090 SCT220 M09/M12 A2976 RMK AC2CI2 SLP146

CYQF;2018-01-21 03:00;CYQF 210300Z 22004KT 15SM FEW090 SCT220 M11/M14 A2977 RMK AC2CI2 SLP149

CYQF;2018-01-21 04:00;CYQF 210400Z 20004KT 15SM FEW230 M14/M17 A2977 RMK CI2 SLP156

CYQF;2018-01-21 05:00;CYQF 210500Z 21006KT 15SM FEW230 M16/M18 A2978 RMK CI2 SLP160

CYQF;2018-01-21 06:00;CYQF 210600Z 21003KT 15SM SKC M14/M16 A2980 RMK SLP161

CYQF;2018-01-21 07:00;CYQF 210700Z 19005KT 15SM SKC M15/M17 A2981 RMK FROIN SLP163

CYQF;2018-01-21 08:00;CYQF 210800Z 00000KT 15SM SKC M16/M18 A2982 RMK FROIN SLP162

CYQF;2018-01-21 09:00;CYQF 210900Z 21004KT 15SM SKC M12/M14 A2981 RMK SLP155

CYQF;2018-01-21 10:00;CYQF 211000Z 17002KT 15SM SKC M16/M18 A2981 RMK SLP160

CYQF;2018-01-21 11:00;CYQF 211100Z 00000KT 15SM SKC M15/M18 A2981 RMK FROIN SLP158

CYQF;2018-01-21 12:00;CYQF 211200Z 20002KT 15SM SKC M17/M19 A2981 RMK FROIN SLP163

CYQF;2018-01-21 13:00;CYQF 211300Z 21003KT 15SM FEW210 M14/M16 A2980 RMK CI1 FROIN SLP158

CYQF;2018-01-21 14:00;CYQF 211400Z 22003KT 160V220 15SM BKN170 M15/M18 A2979 RMK AC5 SLP156

CYQF;2018-01-21 15:00;CYQF 211500Z 17004KT 15SM BKN220 M13/M15 A2978 RMK CI6 SLP150

CYQF;2018-01-21 16:00;CYQF 211600Z 00000KT 15SM SCT220 M13/M15 A2977 RMK CI4 SLP152

CYQF;2018-01-21 17:00;CYQF 211700Z 16003KT 15SM SCT180 BKN250 M10/M14 A2976 RMK AC4CI2 SLP148

CYQF;2018-01-21 18:00;CYQF 211800Z 16006KT 15SM BKN170 BKN250 M05/M10 A2975 RMK AC5CI1 SLP135

CYQF;2018-01-21 19:00;CYQF 211900Z 17008KT 15SM SCT180 SCT250 M01/M08 A2972 RMK AC3CI1 SLP124

CYQF;2018-01-21 20:00;CYQF 212000Z 15007KT 15SM FEW180 SCT250 M02/M08 A2970 RMK AC2CI1 SLP117

CYQF;2018-01-21 21:00;CYQF 212100Z 19009KT 15SM SCT250 M01/M07 A2968 RMK CI4 SLP105

CYQF;2018-01-21 22:00;CYQF 212200Z 12008KT 15SM BKN220 00/M07 A2967 RMK CI6 SLP103

CYQF;2018-01-21 23:00;CYQF 212300Z 18011KT 15SM BKN220 M01/M07 A2965 RMK CI6 SLP100

CYQF;2018-01-22 00:00;CYQF 220000Z 19006KT 15SM BKN270 M02/M08 A2964 RMK CI7 SLP098

CYQF;2018-01-22 01:00;CYQF 220100Z 19011KT 15SM BKN270 M02/M09 A2962 RMK CI7 SLP089

CYQF;2018-01-22 02:00;CYQF 220200Z 18008KT 15SM BKN230 M02/M09 A2962 RMK CI6 SLP089

CYQF;2018-01-22 03:00;CYQF 220300Z 20006KT 15SM FEW050 OVC150 M01/M08 A2961 RMK SC2AC6 SLP080

CYQF;2018-01-22 04:00;CYQF 220400Z 22008KT 15SM FEW050 OVC130 00/M07 A2961 RMK SC2AC6 SLP081

CYQF;2018-01-22 05:00;CYQF 220500Z 22006KT 15SM OVC130 M00/M07 A2961 RMK AC8 SLP076

CYQF;2018-01-22 06:00;CYQF 220600Z 23010KT 15SM SCT130 OVC180 00/M07 A2961 RMK AC4AC4 SLP072

CYQF;2018-01-22 07:00;CYQF 220700Z 25012G17KT 15SM OVC130 01/M08 A2962 RMK AC8 SLP069

CYQF;2018-01-22 08:00;CYQF 220800Z 25007KT 15SM OVC140 00/M09 A2963 RMK AC8 SLP076

CYQF;2018-01-22 09:00;CYQF 220900Z 23012KT 15SM BKN150 00/M08 A2962 RMK AC7 SLP072

CYQF;2018-01-22 10:00;CYQF 221000Z 25010KT 15SM FEW150 00/M10 A2964 RMK AC1 SLP076

CYQF;2018-01-22 11:00;CYQF 221100Z 24009KT 15SM SKC M01/M11 A2966 RMK SLP087

CYQF;2018-01-22 12:00;CYQF 221200Z 25006KT 15SM SCT140 M02/M11 A2969 RMK AC4 SLP096

CYQF;2018-01-22 13:00;CYQF 221300Z 24009KT 15SM BKN160 M03/M11 A2970 RMK AC6 SLP101

CYQF;2018-01-22 14:00;CYQF 221400Z 23009KT 15SM BKN170 M03/M11 A2971 RMK AC7 SLP107

CYQF;2018-01-22 15:00;CYQF 221500Z 25004KT 15SM BKN170 M03/M11 A2974 RMK AC7 SLP117

CYQF;2018-01-22 16:00;CYQF 221600Z 22004KT 15SM BKN170 M06/M12 A2976 RMK AC7 SLP124

CYQF;2018-01-22 17:00;CYQF 221700Z 23004KT 15SM FEW020 BKN170 M05/M12 A2978 RMK CU1AC7 CU TR SLP129

CYQF;2018-01-22 18:00;CYQF 221800Z 23008KT 15SM BKN170 M04/M11 A2980 RMK AC5 SLP135

CYQF;2018-01-22 19:00;CYQF 221900Z 24007KT 15SM SCT170 BKN250 M01/M10 A2980 RMK AC3CI4 SLP134

CYQF;2018-01-22 20:00;CYQF 222000Z 24004KT 15SM FEW032 FEW090 BKN250 M01/M09 A2981 RMK CU1ACC1CI5 CU TR SLP136

CYQF;2018-01-22 21:00;CYQF 222100Z 23008KT 15SM FEW030 FEW160 SCT250 M01/M09 A2981 RMK CU1AC2CI2 CU TR SLP138

CYQF;2018-01-22 22:00;CYQF 222200Z 25004KT 15SM FEW035 SCT120 BKN250 M01/M10 A2983 RMK SC2AC1CI2 SLP142

CYQF;2018-01-22 23:00;CYQF 222300Z VRB02KT 15SM FEW035 FEW120 M02/M10 A2986 RMK CU1AC1 CU TR SLP155

CYQF;2018-01-23 00:00;CYQF 230000Z 19007KT 15SM FEW120 M05/M12 A2987 RMK AC2 SLP165

CYQF;2018-01-23 01:00;CYQF 230100Z 27003KT 210V280 15SM FEW090 SCT120 M05/M13 A2990 RMK AC1AC2 SLP177

CYQF;2018-01-23 02:00;CYQF 230200Z 22004KT 15SM SCT090 M09/M15 A2991 RMK AC3 SLP185

CYQF;2018-01-23 03:00;CYQF 230300Z 22003KT 15SM SCT090 M08/M13 A2993 RMK AC4 SLP189

CYQF;2018-01-23 04:00;CYQF 230400Z 20004KT 15SM SCT090 M12/M16 A2994 RMK AC4 SLP201

CYQF;2018-01-23 05:00;CYQF 230500Z 20004KT 15SM FEW090 M12/M15 A2995 RMK AC2 SLP203

CYQF;2018-01-23 06:00;CYQF 230600Z 18004KT 15SM FEW090 M12/M15 A2996 RMK AC1 SLP206

CYQF;2018-01-23 07:00;CYQF 230700Z 20005KT 15SM SKC M09/M13 A2997 RMK SLP201

CYQF;2018-01-23 08:00;CYQF 230800Z 21004KT 15SM SKC M13/M17 A2997 RMK SLP209

CYQF;2018-01-23 09:00;CYQF 230900Z 19005KT 15SM SKC M16/M18 A2998 RMK SLP213

CYQF;2018-01-23 10:00;CYQF 231000Z VRB02KT 15SM SKC M14/M18 A3000 RMK SLP217

CYQF;2018-01-23 11:00;CYQF 231100Z 21005KT 15SM SKC M14/M18 A3000 RMK SLP221

CYQF;2018-01-23 12:00;CYQF 231200Z 19007KT 15SM FEW100 M15/M18 A3001 RMK AC1 SLP228

CYQF;2018-01-23 13:00;CYQF 231300Z 23005KT 15SM BKN120 M13/M17 A3002 RMK AC5 SLP228

CYQF;2018-01-23 14:00;CYQF 231400Z 19004KT 15SM BKN100 M12/M16 A3002 RMK AC7 SLP232

CYQF;2018-01-23 15:00;CYQF 231500Z 20003KT 15SM SCT100 M14/M17 A3001 RMK AC3 SLP232

CYQF;2018-01-23 16:00;CYQF 231600Z 21005KT 15SM SCT100 BKN260 M13/M17 A3002 RMK AC3CI2 SLP236

CYQF;2018-01-23 17:00;CYQF 231700Z 22006KT 15SM SCT100 SCT250 M13/M17 A3003 RMK AC3CI1 SLP240

CYQF;2018-01-23 18:00;CYQF 231800Z 14004KT 090V180 15SM FEW090 FEW250 M10/M15 A3001 RMK AC1CI1 SLP230

CYQF;2018-01-23 19:00;CYQF 231900Z 21003KT 10SM FEW250 M08/M14 A2998 RMK CI1 HZ SLP213

CYQF;2018-01-23 20:00;CYQF 232000Z 22003KT 12SM FEW250 M06/M13 A2995 RMK CI1 SLP206

CYQF;2018-01-23 21:00;CYQF 232100Z 22003KT 12SM SCT250 M04/M12 A2993 RMK CI3 SLP200

CYQF;2018-01-23 22:00;CYQF 232200Z 15004KT 12SM BKN260 M03/M11 A2990 RMK CI7 SLP186

CYQF;2018-01-23 23:00;CYQF 232300Z 16007KT 15SM BKN160 OVC250 M03/M10 A2988 RMK AC5CI3 SLP180

CYQF;2018-01-24 00:00;CYQF 240000Z 15007KT 15SM BKN180 OVC250 M05/M10 A2987 RMK AC6CI2 SLP178

CYQF;2018-01-24 01:00;CYQF 240100Z 16008KT 15SM BKN190 OVC250 M06/M12 A2984 RMK AC6CI2 SLP169

CYQF;2018-01-24 02:00;CYQF 240200Z 17007KT 15SM OVC190 M08/M12 A2980 RMK AC8 SLP157

CYQF;2018-01-24 03:00;CYQF 240300Z 18005KT 15SM OVC150 M08/M12 A2978 RMK AC8 SLP151

CYQF;2018-01-24 04:00;CYQF 240400Z 16007KT 15SM OVC160 M06/M11 A2975 RMK AC8 SLP135

CYQF;2018-01-24 05:00;CYQF 240500Z 15008KT 15SM OVC150 M06/M10 A2972 RMK AC8 SLP126

CYQF;2018-01-24 06:00;CYQF 240600Z 15005KT 15SM BKN120 OVC180 M07/M10 A2970 RMK AC5AC3 SLP115

CYQF;2018-01-24 07:00;CYQF 240700Z 17004KT 110V180 15SM FEW120 OVC180 M06/M10 A2968 RMK AC2AC6 SLP107

CYQF;2018-01-24 08:00;CYQF 240800Z VRB02KT 15SM OVC180 M08/M11 A2967 RMK AC8 SLP101

CYQF;2018-01-24 09:00;CYQF 240900Z 02002KT 15SM BKN180 M09/M12 A2966 RMK AC7 SLP099

CYQF;2018-01-24 10:00;CYQF 241000Z VRB02KT 15SM OVC180 M09/M11 A2966 RMK AC8 SLP098

CYQF;2018-01-24 11:00;CYQF 241100Z 00000KT 15SM OVC160 M09/M11 A2966 RMK AC8 SLP097

CYQF;2018-01-24 12:00;CYQF 241200Z 35002KT 15SM OVC160 M10/M12 A2966 RMK AC8 SLP100

CYQF;2018-01-24 13:00;CYQF 241300Z 04004KT 15SM BKN160 M10/M12 A2964 RMK AC7 PRESFR SLP094

CYQF;2018-01-24 14:00;CYQF 241400Z 29004KT 15SM BKN130 M10/M12 A2966 RMK AC7 SLP103

CYQF;2018-01-24 15:00;CYQF 241500Z 00000KT 15SM BKN150 M10/M12 A2965 RMK AC7 SLP101

CYQF;2018-01-24 16:00;CYQF 241600Z 00000KT 15SM BKN100 M10/M12 A2963 RMK AC6 SLP093

CYQF;2018-01-24 17:00;CYQF 241700Z 08002KT 12SM SCT120 BKN260 M09/M12 A2963 RMK AC3CI4 SLP091

CYQF;2018-01-24 18:00;CYQF 241800Z 19004KT 180V340 10SM SCT100 BKN260 M08/M11 A2964 RMK AC3CI3 PRESRR SLP094

CYQF;2018-01-24 19:00;CYQF 241900Z 00000KT 10SM SCT100 BKN260 M07/M10 A2965 RMK AC3CI4 SLP095

CYQF;2018-01-24 20:00;CYQF 242000Z 03003KT 12SM FEW100 BKN240 M05/M10 A2963 RMK AC1CI6 SLP090

CYQF;2018-01-24 21:00;CYQF 242100Z 04005KT 12SM FEW100 BKN220 M04/M09 A2962 RMK AC1CI6 SLP086

CYQF;2018-01-24 22:00;CYQF 242200Z VRB02KT 12SM FEW100 BKN240 M04/M09 A2961 RMK AC1CI5 PRESFR SLP079

CYQF;2018-01-24 23:00;CYQF 242300Z 05005KT 12SM SCT120 BKN220 M02/M07 A2961 RMK AC4CI3 SLP078

CYQF;2018-01-25 00:00;CYQF 250000Z 04005KT 12SM BKN120 BKN250 M04/M08 A2960 RMK AC5CI2 SLP077

CYQF;2018-01-25 01:00;CYQF 250100Z 02004KT 15SM FEW120 BKN220 M07/M09 A2961 RMK AC1CI6 SLP086

CYQF;2018-01-25 02:00;CYQF 250200Z 06004KT 15SM BKN230 M07/M10 A2959 RMK CI5 SLP078

CYQF;2018-01-25 03:00;CYQF 250300Z 06004KT 15SM BKN120 OVC230 M07/M09 A2957 RMK AC6CI2 SLP071

CYQF;2018-01-25 04:00;CYQF 250400Z 02006KT 15SM SCT080 BKN250 M06/M09 A2956 RMK AC3CI4 SLP066

CYQF;2018-01-25 05:00;CYQF 250500Z 01003KT 15SM OVC084 M06/M08 A2956 RMK AC8 SLP065

CYQF;2018-01-25 06:00;CYQF 250600Z 03005KT 15SM OVC060 M06/M08 A2956 RMK SC8 SLP065

CYQF;2018-01-25 06:54;CYQF 250654Z 06005KT 12SM -SN OVC050 M05/M07 A2954 RMK SC8 SLP056

CYQF;2018-01-25 07:00;CYQF 250700Z 02006KT 12SM -SN OVC050 M05/M07 A2954 RMK SC8 SLP054

CYQF;2018-01-25 07:39;CYQF 250739Z 02009KT 12SM OVC050 M06/M08 A2951 RMK SC8 PRESFR SLP045

CYQF;2018-01-25 08:00;CYQF 250800Z 02003KT 15SM BKN050 OVC094 M06/M08 A2952 RMK SC6AC2 SLP047

CYQF;2018-01-25 09:00;CYQF 250900Z 01007KT 15SM SCT085 M07/M09 A2951 RMK AC3 SLP045

CYQF;2018-01-25 10:00;CYQF 251000Z 04006KT 12SM FEW140 M10/M11 A2952 RMK AC2 SLP049

CYQF;2018-01-25 10:50;CYQF 251050Z 03007KT 8SM FEW002 M11/M13 A2951 RMK SF2 SLP049

CYQF;2018-01-25 11:00;CYQF 251100Z 03008KT 6SM BR BKN002 M11/M13 A2951 RMK SF6 FROIN SLP046

CYQF;2018-01-25 11:07;CYQF 251107Z 04008KT 3/4SM BR VV002 M11/M11 A2951 RMK FG8 SLP047

CYQF;2018-01-25 11:26;CYQF 251126Z 04008KT 1/2SM FZFG VV002 M10/M11 A2951 RMK FG8 SLP043

CYQF;2018-01-25 12:00;CYQF 251200Z 03006KT 1/2SM FZFG VV002 M09/M11 A2952 RMK FG8 FROIN SLP051

CYQF;2018-01-25 13:00;CYQF 251300Z 01006KT 1/2SM FZFG VV002 M09/M10 A2950 RMK FG8 FROIN SLP046

CYQF;2018-01-25 13:18;CYQF 251318Z 02005KT 1 1/2SM BR VV003 M09/M10 A2950 RMK FG8 SLP044

CYQF;2018-01-25 13:48;CYQF 251348Z 01004KT 3/4SM BR VV002 M09/M10 A2950 RMK FG8 SLP045

CYQF;2018-01-25 14:00;CYQF 251400Z 01005KT 3/4SM BR VV002 M09/M10 A2950 RMK FG8 VIS VRB 1/2-1 SLP044

CYQF;2018-01-25 15:00;CYQF 251500Z 01005KT 1/4SM FZFG VV002 M09/M10 A2950 RMK FG8 SLP045

CYQF;2018-01-25 15:13;CYQF 251513Z 01007KT 1SM BR OVC003 M09/M10 A2950 RMK FG3ST5 VIS VRB 1/2-11/2 SLP044

CYQF;2018-01-25 15:37;CYQF 251537Z 36004KT 1 1/2SM BR OVC003 M09/M10 A2951 RMK ST8 VIS VRB 1-2 SLP050

CYQF;2018-01-25 16:00;CYQF 251600Z 36005KT 2SM BR OVC003 M09/M10 A2950 RMK ST8 SLP046

CYQF;2018-01-25 16:20;CYQF 251620Z 36004KT 1SM BR VV003 M09/M10 A2951 RMK FG8 SLP048

CYQF;2018-01-25 17:00;CYQF 251700Z 36009KT 1 1/4SM BR VV003 M08/M09 A2950 RMK FG8 VIS VRB 3/4-13/4 WND ESTD SLP045

CYQF;2018-01-25 17:35;CYQF 251735Z 01006KT 2SM BR OVC005 M08/M09 A2950 RMK FG4ST4 SLP045

CYQF;2018-01-25 18:00;CYQF 251800Z 34004KT 280V020 2 1/2SM -SN BR OVC007 M08/M09 A2951 RMK ST8 SLP046

CYQF;2018-01-25 18:41;CYQF 251841Z 02007KT 1 1/2SM BR OVC002 M08/M09 A2950 RMK ST8 SLP042

CYQF;2018-01-25 19:00;CYQF 251900Z 01007KT 2SM BR OVC004 M08/M09 A2949 RMK ST8 SLP039

CYQF;2018-01-25 19:44;CYQF 251944Z 34007KT 1 1/2SM -SN BR OVC003 M08/M09 A2949 RMK ST8 SLP039

CYQF;2018-01-25 20:00;CYQF 252000Z 35005KT 3/4SM -SN BR VV003 M08/M09 A2950 RMK FG8 SLP043

CYQF;2018-01-25 20:10;CYQF 252010Z 01007KT 3/8SM -SN FZFG VV003 M08/M09 A2949 RMK FG8 SLP040

CYQF;2018-01-25 20:26;CYQF 252026Z 36008KT 1/4SM FZFG VV002 M08/M09 A2949 RMK FG8 SLP040

CYQF;2018-01-25 21:00;CYQF 252100Z 36009KT 1/4SM -SN FZFG VV002 M08/M09 A2948 RMK FG8 PRESFR SLP039

CYQF;2018-01-25 21:41;CYQF 252141Z 33011KT 1/4SM FZFG VV003 M08/M09 A2951 RMK FG8 SLP048

CYQF;2018-01-25 22:00;CYQF 252200Z 31010KT 1/4SM FZFG VV003 M08/M09 A2953 RMK FG8 PRESRR SLP058

CYQF;2018-01-25 22:19;CYQF 252219Z 30010KT 1/2SM FZFG VV003 M08/M09 A2955 RMK FG8 SLP064

CYQF;2018-01-25 22:35;CYQF 252235Z 32009KT 1/2SM -FZDZ -SN FZFG VV003 M07/M08 A2954 RMK FG8 SLP062

CYQF;2018-01-25 22:51;CYQF 252251Z 36009KT 1/2SM -SN FZFG VV300 M08/M09 A2952 RMK FG8 PRESFR SLP055

CYQF;2018-01-25 23:00;CYQF 252300Z 32011KT 1/2SM -SN FZFG VV003 M08/M09 A2953 RMK FG8 SLP061

CYQF;2018-01-25 23:07;CYQF 252307Z 32010KT 1/2SM -SN FZFG VV005 M08/M09 A2954 RMK FG8 PRESRR SLP062

CYQF;2018-01-25 23:31;CYQF 252331Z 34009KT 5/8SM -SN BR VV012 M08/M09 A2954 RMK SN8 SLP064

CYQF;2018-01-26 00:00;CYQF 260000Z 32009KT 3/4SM -SN BR VV014 M08/M09 A2955 RMK SN8 /S01/ SLP065

CYQF;2018-01-26 00:22;CYQF 260022Z 34013KT 1 1/2SM -SN BKN009 VV020 M08/M09 A2955 RMK SC5SN3 SLP064

CYQF;2018-01-26 00:34;CYQF 260034Z 33015G20KT 2SM -SN DRSN SCT009 OVC090 M08/M09 A2956 RMK SN2SC2AC4 SLP069

CYQF;2018-01-26 01:00;CYQF 260100Z 29003KT 260V340 2SM -SN SCT009 OVC019 M08/M09 A2962 RMK SC4SC4 PRESRR SLP088

CYQF;2018-01-26 01:21;CYQF 260121Z 32007KT 270V340 6SM -SN FEW009 OVC020 M08/M10 A2962 RMK SC2SC6 SLP091

CYQF;2018-01-26 02:00;CYQF 260200Z 32010KT 3SM -SN SCT018 OVC042 M09/M10 A2963 RMK SC3SC5 SLP092

CYQF;2018-01-26 02:20;CYQF 260220Z 32012KT 2SM -SN SCT020 OVC040 M09/M10 A2962 RMK SC3SC5 SLP089

CYQF;2018-01-26 03:00;CYQF 260300Z 31009G15KT 2SM -SN FEW030 OVC080 M09/M10 A2962 RMK SC2AC6 SLP091

CYQF;2018-01-26 03:08;CYQF 260308Z 32008KT 4SM -SN FEW030 OVC090 M09/M11 A2963 RMK SC2AC6 SLP093

CYQF;2018-01-26 03:51;CYQF 260351Z 29008KT 10SM OVC090 M10/M11 A2964 RMK AC8 SLP096

CYQF;2018-01-26 04:00;CYQF 260400Z 30009KT 8SM OVC090 M10/M11 A2964 RMK AC8 SLP099

CYQF;2018-01-26 05:00;CYQF 260500Z 29011KT 12SM FEW040 OVC110 M10/M12 A2967 RMK SC1AC7 SLP108

CYQF;2018-01-26 06:00;CYQF 260600Z 28008KT 12SM OVC120 M10/M13 A2968 RMK AC8 SLP113

CYQF;2018-01-26 07:00;CYQF 260700Z 28008KT 12SM OVC140 M11/M13 A2971 RMK AC8 SLP122

CYQF;2018-01-26 08:00;CYQF 260800Z 28004KT 15SM BKN160 M12/M15 A2972 RMK AC5 SLP129

CYQF;2018-01-26 09:00;CYQF 260900Z 26005KT 15SM SCT180 M13/M16 A2973 RMK AC3 SLP134

CYQF;2018-01-26 10:00;CYQF 261000Z 26006KT 15SM FEW180 M15/M17 A2975 RMK AC1 SLP140

CYQF;2018-01-26 11:00;CYQF 261100Z 27008KT 15SM SKC M15/M17 A2976 RMK FROIN SLP144

CYQF;2018-01-26 12:00;CYQF 261200Z 28007KT 15SM FEW220 M16/M18 A2979 RMK CI1 FROIN SLP154

CYQF;2018-01-26 13:00;CYQF 261300Z 27007KT 15SM SCT200 M16/M18 A2981 RMK CI3 SLP163

CYQF;2018-01-26 14:00;CYQF 261400Z 27007KT 15SM BKN200 M17/M19 A2983 RMK CI5 SLP170

CYQF;2018-01-26 15:00;CYQF 261500Z 27006KT 15SM SCT200 M17/M19 A2985 RMK CI4 SLP178

CYQF;2018-01-26 16:00;CYQF 261600Z 28006KT 15SM SCT200 M17/M19 A2987 RMK CI3 SLP187

CYQF;2018-01-26 17:00;CYQF 261700Z 29010KT 15SM SCT200 M16/M19 A2989 RMK CI3 SLP193

CYQF;2018-01-26 18:00;CYQF 261800Z 29011KT 15SM SCT240 M15/M18 A2991 RMK CI4 SLP198

CYQF;2018-01-26 19:00;CYQF 261900Z 30008KT 15SM SCT250 M14/M18 A2991 RMK CI4 SLP201

CYQF;2018-01-26 20:00;CYQF 262000Z 32012G18KT 15SM SCT250 M13/M17 A2991 RMK CI4 SLP200

CYQF;2018-01-26 21:00;CYQF 262100Z CCA 33013KT 15SM DRSN SCT200 M12/M17 A2991 RMK CI3 SLP202

CYQF;2018-01-26 22:00;CYQF 262200Z 32013KT 15SM DRSN SCT200 M12/M17 A2993 RMK CI3 SLP209

CYQF;2018-01-26 23:00;CYQF 262300Z 34010KT 15SM SCT250 M13/M17 A2996 RMK CI4 SLP221

CYQF;2018-01-27 00:00;CYQF 270000Z 34008KT 15SM FEW030 SCT250 M14/M18 A2999 RMK SC1CI2 SLP232

CYQF;2018-01-27 01:00;CYQF 270100Z 31007KT 15SM FEW030 FEW220 M15/M19 A3002 RMK SC1CI1 SC TR SLP244

CYQF;2018-01-27 02:00;CYQF 270200Z 32007KT 15SM FEW030 FEW200 M16/M19 A3005 RMK SC1CI1 SLP255

CYQF;2018-01-27 03:00;CYQF 270300Z 31007KT 15SM FEW001 FEW200 M16/M20 A3007 RMK SC1CI1 SC TR SLP264

CYQF;2018-01-27 04:00;CYQF 270400Z 32008KT 15SM SKC M16/M20 A3010 RMK SLP274

CYQF;2018-01-27 05:00;CYQF 270500Z 29008KT 15SM SKC M18/M21 A3012 RMK SLP283

CYQF;2018-01-27 06:00;CYQF 270600Z 30008KT 15SM FEW040 M18/M21 A3014 RMK SC2 SLP289

CYQF;2018-01-27 07:00;CYQF 270700Z 33008KT 15SM FEW040 BKN170 M18/M21 A3017 RMK SC1AC6 SLP297

CYQF;2018-01-27 08:00;CYQF 270800Z 33008KT 15SM BKN150 M18/M21 A3017 RMK AC7 SLP297

CYQF;2018-01-27 09:00;CYQF 270900Z 33004KT 15SM BKN150 M19/M21 A3019 RMK AC6 SLP302

CYQF;2018-01-27 10:00;CYQF 271000Z 27004KT 250V320 15SM BKN180 M20/M22 A3020 RMK AC5 SLP307

CYQF;2018-01-27 11:00;CYQF 271100Z 28004KT 15SM SCT170 M20/M22 A3021 RMK AC3 SLP312

CYQF;2018-01-27 12:00;CYQF 271200Z 28004KT 15SM FEW170 M20/M22 A3021 RMK AC1 SLP315

CYQF;2018-01-27 13:00;CYQF 271300Z 20002KT 15SM FEW180 M24/M26 A3021 RMK AC1 AC TR SLP319

CYQF;2018-01-27 14:00;CYQF 271400Z 20004KT 15SM SKC M24/M26 A3021 RMK SLP320

CYQF;2018-01-27 15:00;CYQF 271500Z 15004KT 15SM FEW250 M24/M27 A3020 RMK CI1 SLP320

CYQF;2018-01-27 16:00;CYQF 271600Z 00000KT 15SM SCT250 M25/M28 A3020 RMK CI3 SLP319

CYQF;2018-01-27 17:00;CYQF 271700Z 08003KT 15SM BKN250 M23/M26 A3019 RMK CI6 SLP314

CYQF;2018-01-27 17:19;CYQF 271719Z 05002KT 10SM IC FEW020 OVC250 M23/M25 A3019 RMK SC1CI7 SLP315

CYQF;2018-01-27 18:00;CYQF 271800Z 00000KT 10SM IC FEW020 OVC250 M21/M24 A3020 RMK SC1CI7 SLP316

CYQF;2018-01-27 19:00;CYQF 271900Z 14008KT 10SM IC FEW020 OVC250 M17/M20 A3017 RMK SC1CI8 SC TR SLP302

CYQF;2018-01-27 19:47;CYQF 271947Z 14010KT 10SM IC FEW005 OVC250 M17/M19 A3015 RMK SF1CI7 SLP295

CYQF;2018-01-27 20:00;CYQF 272000Z 14012KT 10SM IC FEW005 OVC250 M17/M19 A3014 RMK SF1CI7 SLP292

CYQF;2018-01-27 21:00;CYQF 272100Z 13010KT 10SM IC OVC250 M16/M19 A3013 RMK CI8 SLP286

CYQF;2018-01-27 22:00;CYQF 272200Z 13009KT 10SM IC BKN070 OVC250 M16/M19 A3012 RMK AC5CI3 SLP283

CYQF;2018-01-27 22:17;CYQF 272217Z 12009KT 6SM -SN OVC050 M15/M18 A3011 RMK SC8 SLP281

CYQF;2018-01-27 22:31;CYQF 272231Z 13008KT 2 1/2SM -SN BR OVC040 M15/M18 A3011 RMK SC8 SLP282

CYQF;2018-01-27 22:44;CYQF 272244Z 13007KT 1SM -SN BR VV020 M15/M18 A3012 RMK SN8 VIS VRB 1/2-11/2 SLP284

CYQF;2018-01-27 23:00;CYQF 272300Z 13006KT 3/4SM -SN VV020 M15/M18 A3013 RMK SN8 VIS VRB 1/2-1 SLP287

CYQF;2018-01-27 23:39;CYQF 272339Z 11006KT 1/4SM SN BR VV012 M16/M18 A3013 RMK SN8 SLP287

CYQF;2018-01-28 00:00;CYQF 280000Z 08007KT 1SM -SN BR VV020 M15/M18 A3012 RMK SN8 VIS VRB 1/2-11/2 SLP286

CYQF;2018-01-28 01:00;CYQF 280100Z 08005KT 1SM -SN VV022 M15/M18 A3015 RMK SN8 SLP298

CYQF;2018-01-28 01:23;CYQF 280123Z 07005KT 1/2SM SN VV012 M15/M17 A3016 RMK SN8 SLP302

CYQF;2018-01-28 02:00;CYQF 280200Z 04005KT 3/4SM -SN VV017 M15/M17 A3018 RMK SN8 VIS VRB 1/2-1 /S02/ SLP308

CYQF;2018-01-28 03:00;CYQF 280300Z 03004KT 2SM -SN VV022 M15/M17 A3020 RMK SN8 SLP318

CYQF;2018-01-28 03:19;CYQF 280319Z 34005KT 1SM -SN VV019 M15/M18 A3021 RMK SN8 VIS VRB 3/4-11/4 /S03/ SLP322

CYQF;2018-01-28 04:00;CYQF 280400Z 33007KT 1SM -SN VV014 M16/M18 A3024 RMK SN8 VIS VRB 3/4-11/4 /S04/ SLP332

CYQF;2018-01-28 05:00;CYQF 280500Z 33008KT 1SM -SN VV013 M16/M18 A3026 RMK SN8 VIS VRB 3/4-11/4 /S05/ SLP338

CYQF;2018-01-28 06:00;CYQF 280600Z 34007KT 1 1/2SM -SN VV025 M16/M18 A3030 RMK SN8 /S06/ SLP349

CYQF;2018-01-28 06:48;CYQF 280648Z 34008KT 3SM -SN OVC045 M16/M19 A3033 RMK SN3SC5 SLP362

CYQF;2018-01-28 07:00;CYQF 280700Z 33007KT 3SM -SN OVC050 M17/M19 A3035 RMK SN3SC5 PRESRR SLP362

CYQF;2018-01-28 08:00;CYQF 280800Z 32008KT 8SM -SN BKN035 OVC070 M18/M21 A3037 RMK SC5AC3 SLP371

CYQF;2018-01-28 08:36;CYQF 280836Z 32008KT 10SM IC FEW070 SCT250 M19/M22 A3039 RMK AC1CI2 SLP377

CYQF;2018-01-28 09:00;CYQF 280900Z 30006KT 15SM IC FEW090 SCT250 M20/M22 A3040 RMK AC1CI2 SLP383

CYQF;2018-01-28 10:00;CYQF 281000Z 31008KT 15SM IC FEW250 M21/M23 A3044 RMK CI1 SLP396

CYQF;2018-01-28 11:00;CYQF 281100Z 31008KT 15SM FEW250 M20/M23 A3045 RMK CI1 SLP400

CYQF;2018-01-28 12:00;CYQF 281200Z 34006KT 15SM FEW250 M21/M24 A3047 RMK CI1 SLP406

CYQF;2018-01-28 13:00;CYQF 281300Z 30005KT 15SM FEW250 M22/M24 A3049 RMK CI1 SLP414

CYQF;2018-01-28 14:00;CYQF 281400Z 27007KT 15SM FEW250 M23/M25 A3050 RMK CI2 SLP421

CYQF;2018-01-28 15:00;CYQF 281500Z 20006KT 15SM SCT220 M28/M31 A3051 RMK CI3 SLP430

CYQF;2018-01-28 16:00;CYQF 281600Z 20003KT 15SM BKN220 M26/M29 A3050 RMK CI6 SLP426

CYQF;2018-01-28 17:00;CYQF 281700Z 18004KT 15SM BKN220 M26/M29 A3050 RMK CI6 SLP426

CYQF;2018-01-28 18:00;CYQF 281800Z 18003KT 12SM FEW090 BKN220 M23/M26 A3051 RMK AC2CI4 SLP424

CYQF;2018-01-28 19:00;CYQF 281900Z 15003KT 12SM FEW090 BKN220 M21/M23 A3048 RMK AC2CI5 SLP413

CYQF;2018-01-28 20:00;CYQF 282000Z 13004KT 12SM FEW090 BKN260 M19/M21 A3045 RMK AC2CI5 SLP400

CYQF;2018-01-28 21:00;CYQF 282100Z 13005KT 070V160 12SM FEW090 OVC260 M18/M20 A3041 RMK AC1CI7 SLP387

CYQF;2018-01-28 22:00;CYQF 282200Z 14009KT 12SM BKN090 OVC260 M17/M20 A3040 RMK AC6CI2 SLP384

CYQF;2018-01-28 23:00;CYQF 282300Z 14007KT 12SM VCSH BKN080 OVC260 M17/M20 A3038 RMK AC6CI2 SLP378

CYQF;2018-01-29 00:00;CYQF 290000Z 15009KT 12SM VCSH OVC070 M17/M20 A3035 RMK AC8 SLP368

CYQF;2018-01-29 00:12;CYQF 290012Z 15009KT 8SM -SN OVC070 M17/M20 A3035 RMK AC8 SLP369

CYQF;2018-01-29 01:00;CYQF 290100Z 14009KT 3SM -SN VV033 M18/M20 A3034 RMK SN8 SLP366

CYQF;2018-01-29 02:00;CYQF 290200Z 13009KT 2 1/2SM -SN VV038 M17/M20 A3031 RMK SN8 SLP356

CYQF;2018-01-29 02:26;CYQF 290226Z 14011KT 6SM -SN OVC060 M17/M20 A3029 RMK SN5SC3 SLP349

CYQF;2018-01-29 03:00;CYQF 290300Z 14009KT 10SM -SN OVC078 M17/M20 A3029 RMK AC8 SLP355

CYQF;2018-01-29 04:00;CYQF 290400Z 14009KT 15SM -SN OVC070 M17/M20 A3027 RMK AC8 SLP346

CYQF;2018-01-29 04:29;CYQF 290429Z 14008KT 12SM IC BKN080 M17/M20 A3025 RMK AC6 SLP340

CYQF;2018-01-29 05:00;CYQF 290500Z 13009KT 12SM IC SCT016 BKN080 BKN140 M17/M20 A3025 RMK SC3AC2AC2 SLP339

CYQF;2018-01-29 06:00;CYQF 290600Z 14009KT 10SM IC FEW015 BKN080 OVC140 M18/M20 A3022 RMK SC1AC4AC3 SLP327

CYQF;2018-01-29 07:00;CYQF 290700Z 13007KT 10SM IC BKN080 BKN140 M17/M20 A3021 RMK AC5AC2 SLP320

CYQF;2018-01-29 08:00;CYQF 290800Z 14005KT 10SM IC SCT080 BKN180 M18/M21 A3018 RMK AC4AC3 SLP308

CYQF;2018-01-29 09:00;CYQF 290900Z 14009KT 10SM IC BKN070 OVC100 M18/M21 A3016 RMK AC5AC3 SLP299

CYQF;2018-01-29 10:00;CYQF 291000Z 13008KT 5SM IC BKN100 OVC210 M17/M20 A3015 RMK AC5CI3 SLP295

CYQF;2018-01-29 11:00;CYQF 291100Z 16010KT 6SM IC SCT090 OVC250 M17/M20 A3011 RMK AC3CI5 SLP281

CYQF;2018-01-29 12:00;CYQF 291200Z 16013KT 4SM IC OVC130 M17/M20 A3008 RMK AC8 SLP268

CYQF;2018-01-29 13:00;CYQF 291300Z 16012KT 4SM IC DRSN OVC110 M17/M20 A3005 RMK AC8 SLP259

CYQF;2018-01-29 14:00;CYQF 291400Z 16011KT 10SM IC OVC100 M16/M19 A3003 RMK AC8 SLP251

CYQF;2018-01-29 15:00;CYQF 291500Z 14009KT 8SM IC OVC120 M16/M19 A2999 RMK AC8 PRESFR SLP237

CYQF;2018-01-29 16:00;CYQF 291600Z 16006KT 8SM IC BKN120 OVC220 M16/M18 A2997 RMK AC6CI2 SLP230

CYQF;2018-01-29 17:00;CYQF 291700Z 14006KT 8SM IC BKN160 OVC240 M15/M18 A2992 RMK AC5CI3 PRESFR SLP213

CYQF;2018-01-29 18:00;CYQF 291800Z 18006KT 8SM IC BKN150 OVC240 M14/M17 A2991 RMK AC7CI1 SLP206

CYQF;2018-01-29 19:00;CYQF 291900Z 13007KT 8SM IC OVC120 M14/M17 A2986 RMK AC8 PRESFR SLP189

CYQF;2018-01-29 20:00;CYQF 292000Z 17008KT 8SM IC BKN090 OVC240 M13/M16 A2982 RMK AC7CI1 SLP174

CYQF;2018-01-29 21:00;CYQF 292100Z 17006KT 8SM IC BKN075 BKN250 M12/M15 A2976 RMK AC6CI1 SLP154

CYQF;2018-01-29 22:00;CYQF 292200Z 15008KT 10SM BKN100 M11/M14 A2969 RMK AC7 SLP127

CYQF;2018-01-29 23:00;CYQF 292300Z 15003KT 10SM FEW060 OVC120 M11/M14 A2967 RMK SC1AC8 SC TR PRESFR SLP120

CYQF;2018-01-30 00:00;CYQF 300000Z 09004KT 10SM BKN150 OVC250 M11/M14 A2963 RMK AC5CI3 SLP107

CYQF;2018-01-30 01:00;CYQF 300100Z 13007KT 12SM SCT140 BKN230 M11/M14 A2956 RMK AC3CI4 PRESFR SLP079

CYQF;2018-01-30 02:00;CYQF 300200Z 14008KT 12SM SCT160 OVC250 M11/M13 A2948 RMK AC4CI4 PRESFR SLP052

CYQF;2018-01-30 03:00;CYQF 300300Z 20004KT 15SM BKN160 OVC250 M10/M12 A2946 RMK AC5CI3 PRESFR SLP043

CYQF;2018-01-30 04:00;CYQF 300400Z VRB02KT 15SM OVC120 M08/M11 A2939 RMK AC8 SLP018

CYQF;2018-01-30 05:00;CYQF 300500Z VRB02KT 15SM OVC130 M08/M10 A2935 RMK AC8 SLP001

CYQF;2018-01-30 06:00;CYQF 300600Z 21003KT 15SM OVC180 M07/M09 A2928 RMK AC8 PRESFR SLP976

CYQF;2018-01-30 07:00;CYQF 300700Z 20004KT 15SM BKN160 M02/M05 A2922 RMK AC7 PRESFR SLP948

CYQF;2018-01-30 08:00;CYQF 300800Z 19010KT 15SM SCT160 M02/M04 A2918 RMK AC4 SLP933

CYQF;2018-01-30 08:11;CYQF 300811Z 30014G19KT 180V310 15SM DRSN FEW060 BKN160 M01/M05 A2923 RMK SC1AC4 PRESRR SLP951

CYQF;2018-01-30 08:21;CYQF 300821Z 32027G33KT 270V340 12SM DRSN FEW060 BKN160 02/M04 A2926 RMK SC2AC4 OCNL BLSN PRESRR SLP957

CYQF;2018-01-30 09:00;CYQF 300900Z 32029G38KT 12SM DRSN BKN180 M03/M06 A2932 RMK AC7 OCNL BLSN PRESRR SLP983

CYQF;2018-01-30 10:00;CYQF 301000Z 30022G29KT 15SM DRSN FEW020 SCT060 BKN160 M01/M04 A2939 RMK SC2SC2AC3 SLP002

CYQF;2018-01-30 11:00;CYQF 301100Z 30011KT 15SM DRSN SCT020 BKN100 M02/M04 A2945 RMK SC4AC3 SLP024

CYQF;2018-01-30 12:00;CYQF 301200Z 31014G20KT 15SM DRSN FEW020 OVC130 M01/M04 A2948 RMK SC1AC8 SC TR SLP034

CYQF;2018-01-30 13:00;CYQF 301300Z 31011G17KT 15SM DRSN FEW020 BKN130 M02/M05 A2950 RMK SC1AC7 SC TR SLP043

CYQF;2018-01-30 14:00;CYQF 301400Z 30007KT 15SM FEW008 SCT130 SCT250 M04/M06 A2953 RMK SF1AC3CI1 SF TR SLP056

CYQF;2018-01-30 15:00;CYQF 301500Z 02002KT 15SM FEW130 SCT250 M05/M06 A2956 RMK AC2CI2 SLP065

CYQF;2018-01-30 16:00;CYQF 301600Z 02006KT 15SM SCT120 SCT250 M07/M08 A2958 RMK AC3CI1 VIRGA SLP072

CYQF;2018-01-30 17:00;CYQF 301700Z 01003KT 12SM SCT120 M07/M08 A2959 RMK AC3 SLP076

CYQF;2018-01-30 18:00;CYQF 301800Z 00000KT 12SM BKN100 BKN250 M08/M09 A2961 RMK AC5CI1 SLP084

CYQF;2018-01-30 19:00;CYQF 301900Z 19004KT 15SM SCT100 BKN200 M06/M08 A2962 RMK AC3CI4 SLP079

CYQF;2018-01-30 20:00;CYQF 302000Z 03003KT 010V080 15SM SCT100 BKN250 M05/M09 A2962 RMK AC3CI2 SLP078

CYQF;2018-01-30 21:00;CYQF 302100Z 00000KT 15SM FEW018 FEW100 BKN250 M05/M09 A2963 RMK SC1AC2CI4 SC TR SLP082

CYQF;2018-01-30 22:00;CYQF 302200Z 18003KT 15SM FEW040 SCT100 BKN250 M05/M09 A2963 RMK CU1AC3CI2 SLP082

CYQF;2018-01-30 23:00;CYQF 302300Z 18004KT 15SM SCT040 BKN100 BKN210 M06/M09 A2965 RMK SC3AC2CI2 SLP089

CYQF;2018-01-31 00:00;CYQF 310000Z 18003KT 050V190 15SM SCT100 BKN200 M07/M09 A2965 RMK AC3CI3 SLP090

CYQF;2018-01-31 01:00;CYQF 310100Z 00000KT 15SM FEW080 BKN120 M08/M10 A2967 RMK AC2AC5 SLP098

CYQF;2018-01-31 02:00;CYQF 310200Z 01006KT 10SM -SN OVC065 M09/M10 A2969 RMK SC8 SLP108

CYQF;2018-01-31 03:00;CYQF 310300Z 02011KT 10SM -SN OVC070 M09/M11 A2971 RMK AC8 SLP118

CYQF;2018-01-31 03:44;CYQF 310344Z 03009KT 15SM OVC070 M10/M13 A2974 RMK AC8 SLP128

CYQF;2018-01-31 04:00;CYQF 310400Z 02011KT 15SM OVC058 M10/M13 A2975 RMK SC8 SLP136

CYQF;2018-01-31 04:17;CYQF 310417Z 02012G17KT 10SM -SN OVC070 M10/M13 A2976 RMK AC8 PRESRR SLP140

CYQF;2018-01-31 05:00;CYQF 310500Z 36011KT 10SM -SN BKN022 OVC060 M11/M13 A2979 RMK SC5SC3 PRESRR SLP149

CYQF;2018-01-31 06:00;CYQF 310600Z 01007KT 15SM -SN SCT030 BKN100 BKN220 M13/M15 A2981 RMK SC3AC2CI2 SLP160

CYQF;2018-01-31 06:29;CYQF 310629Z 36009KT 15SM -SN SCT013 OVC030 M12/M15 A2983 RMK SC4SC4 SLP166

CYQF;2018-01-31 07:00;CYQF 310700Z 01009G15KT 10SM -SN SCT013 OVC030 M13/M16 A2984 RMK SC4SC4 SLP167

CYQF;2018-01-31 07:33;CYQF 310733Z 02010KT 10SM -SN OVC013 M14/M16 A2986 RMK SC8 SLP176

CYQF;2018-01-31 08:00;CYQF 310800Z 36008KT 12SM OVC013 M15/M17 A2988 RMK SC8 INTMT -SN SLP181

CYQF;2018-01-31 09:00;CYQF 310900Z 01009KT 12SM -SN SCT013 BKN030 OVC090 M16/M18 A2990 RMK SC4SC2AC2 SLP191

CYQF;2018-01-31 10:00;CYQF 311000Z 03014KT 6SM -SN SCT030 OVC090 M17/M20 A2994 RMK SC3AC5 SLP208

CYQF;2018-01-31 10:34;CYQF 311034Z 02010KT 12SM FEW030 M19/M22 A2997 RMK SC2 SLP220

CYQF;2018-01-31 11:00;CYQF 311100Z 01009KT 8SM IC SCT030 M20/M23 A2999 RMK SC4 SLP226

CYQF;2018-01-31 12:00;CYQF 311200Z 01010KT 15SM OVC027 M19/M23 A3002 RMK SC8 SLP239

CYQF;2018-01-31 12:15;CYQF 311215Z 01008KT 15SM -SN OVC025 M20/M23 A3003 RMK SC8 SLP242

CYQF;2018-01-31 12:27;CYQF 311227Z 01011KT 2 1/2SM -SN OVC027 M20/M23 A3003 RMK SC8 SLP244

CYQF;2018-01-31 12:34;CYQF 311234Z 01011KT 3SM -SN OVC028 M20/M23 A3004 RMK SC8 SLP245

CYQF;2018-01-31 13:00;CYQF 311300Z 02010KT 3SM -SN OVC027 M20/M23 A3004 RMK SC8 VIS VRB 2-4 SLP249

CYQF;2018-01-31 14:00;CYQF 311400Z 02008KT 10SM -SN FEW025 BKN078 M21/M24 A3007 RMK SC2AC5 SLP259

CYQF;2018-01-31 15:00;CYQF 311500Z 02006KT 10SM -SN SCT050 OVC080 M21/M25 A3010 RMK SC4AC4 SLP273

CYQF;2018-01-31 16:00;CYQF 311600Z 03007KT 15SM -SN BKN080 M22/M25 A3013 RMK AC7 SLP283

CYQF;2018-01-31 16:35;CYQF 311635Z 03004KT 2SM -SN BKN032 OVC080 M22/M25 A3015 RMK SC6AC2 SLP289

CYQF;2018-01-31 16:50;CYQF 311650Z 03004KT 6SM -SN SCT030 OVC080 M22/M25 A3015 RMK SC4AC4 SLP289

CYQF;2018-01-31 17:00;CYQF 311700Z 03005KT 8SM -SN FEW034 BKN080 OVC240 M22/M25 A3015 RMK SC2AC5CI1 SLP293

CYQF;2018-01-31 17:32;CYQF 311732Z 03004KT 3SM -SHSN BKN036 OVC080 M22/M25 A3016 RMK SC6AC2 VIS VRB 21/2-5 SLP295

CYQF;2018-01-31 18:00;CYQF 311800Z 02004KT 4SM -SHSN BKN034 OVC060 M21/M25 A3017 RMK SC5SC3 VIS VRB 3-6 SLP300

CYQF;2018-01-31 19:00;CYQF 311900Z 03002KT 10SM -SN FEW030 BKN110 M21/M25 A3017 RMK SC2AC5 SLP301

CYQF;2018-01-31 20:00;CYQF 312000Z 02002KT 6SM -SHSN SCT036 OVC080 M20/M25 A3018 RMK SC4AC4 SLP303

CYQF;2018-01-31 21:00;CYQF 312100Z CCA VRB02KT 10SM -SHSN SCT042 OVC098 M20/M25 A3017 RMK SC4AC4 SLP303

CYQF;2018-01-31 22:00;CYQF 312200Z 00000KT 10SM -SHSN FEW040 BKN100 M19/M24 A3017 RMK SC2AC5 SLP304

CYQF;2018-01-31 23:00;CYQF 312300Z CCA 08002KT 10SM -SHSN SCT022 OVC100 M20/M25 A3018 RMK SC3AC5 CVCTV CLD EMBD SLP310

CYQF;2018-02-01 00:00;CYQF 010000Z 07002KT 15SM FEW020 BKN090 M20/M24 A3018 RMK SC1AC7 SC TR OCNL -SHSN CVCTV CLD EMBD SLP311

CYQF;2018-02-01 01:00;CYQF 010100Z 11002KT 15SM -SHSN BKN090 OVC220 M20/M24 A3019 RMK AC7CI1 CVCTV CLD EMBD SLP314

CYQF;2018-02-01 02:00;CYQF 010200Z 09005KT 15SM -SN OVC094 M20/M24 A3020 RMK AC8 SLP317

CYQF;2018-02-01 03:00;CYQF 010300Z 13004KT 8SM -SN BKN026 OVC040 M19/M23 A3020 RMK SC6SC2 SLP320

CYQF;2018-02-01 04:00;CYQF 010400Z 16005KT 6SM -SN BKN018 OVC036 M20/M23 A3020 RMK SC6SC2 SLP317

CYQF;2018-02-01 04:12;CYQF 010412Z 15004KT 1SM -SN SCT020 OVC040 M20/M23 A3020 RMK SC3SC5 SLP319

CYQF;2018-02-01 04:47;CYQF 010447Z 14006KT 2 1/2SM -SN OVC030 M20/M23 A3020 RMK SC8 SLP317

CYQF;2018-02-01 05:00;CYQF 010500Z 15005KT 2SM -SN OVC035 M20/M22 A3019 RMK SN3SC5 SLP316

CYQF;2018-02-01 05:45;CYQF 010545Z 15007KT 4SM -SN BKN035 OVC060 M20/M23 A3019 RMK SC5SC3 SLP314

CYQF;2018-02-01 06:00;CYQF 010600Z 15008KT 6SM -SN SCT035 OVC100 M20/M23 A3019 RMK SC4AC4 SLP314

CYQF;2018-02-01 07:00;CYQF 010700Z 13008KT 12SM -SN SCT018 BKN100 M20/M23 A3019 RMK SC3AC4 SLP314

CYQF;2018-02-01 07:41;CYQF 010741Z 14008KT 12SM -SN OVC013 M20/M23 A3018 RMK SC8 SLP310

CYQF;2018-02-01 08:00;CYQF 010800Z 15007KT 12SM OVC013 M20/M23 A3017 RMK SC8 INTMT -SN SLP309

CYQF;2018-02-01 08:51;CYQF 010851Z 14007KT 15SM -SN SCT013 BKN100 M21/M24 A3017 RMK SC3AC3 SLP308

CYQF;2018-02-01 09:00;CYQF 010900Z 15007KT 15SM -SN FEW013 BKN100 M21/M24 A3018 RMK SC2AC4 SLP310

CYQF;2018-02-01 10:00;CYQF 011000Z 16008KT 15SM BKN100 M21/M24 A3016 RMK AC7 SLP304

CYQF;2018-02-01 11:00;CYQF 011100Z 17007KT 12SM -SN BKN100 M20/M23 A3016 RMK AC7 SLP303

CYQF;2018-02-01 12:00;CYQF 011200Z 11003KT 090V160 15SM OVC110 M20/M23 A3015 RMK AC8 INTMT -SN SLP300

CYQF;2018-02-01 12:23;CYQF 011223Z 15004KT 15SM BKN110 M20/M23 A3015 RMK AC7 SLP301

CYQF;2018-02-01 12:42;CYQF 011242Z 13002KT 15SM IC BKN110 M20/M23 A3015 RMK AC6 SLP302

CYQF;2018-02-01 13:00;CYQF 011300Z 14005KT 15SM SCT110 M21/M24 A3014 RMK AC3 SLP300

CYQF;2018-02-01 14:00;CYQF 011400Z 16004KT 15SM SCT170 BKN230 M22/M25 A3014 RMK AC4CI3 SLP299

CYQF;2018-02-01 15:00;CYQF 011500Z 05002KT 10SM SCT008 BKN180 M22/M25 A3014 RMK ST4AC2 SLP298

CYQF;2018-02-01 15:40;CYQF 011540Z 30003KT 8SM BKN007 OVC180 M23/M26 A3014 RMK ST5AC3 BR SLP299

CYQF;2018-02-01 16:00;CYQF 011600Z 33005KT 8SM BKN007 OVC180 M23/M25 A3014 RMK ST5AC3 BR SLP301

CYQF;2018-02-01 17:00;CYQF 011700Z CCA 34003KT 8SM OVC008 M21/M24 A3015 RMK ST8 SLP301

CYQF;2018-02-01 17:48;CYQF 011748Z 35004KT 8SM OVC010 M21/M24 A3017 RMK ST8 SLP307

CYQF;2018-02-01 18:00;CYQF 011800Z CCA 35004KT 8SM OVC010 M21/M24 A3017 RMK ST8 SLP308

CYQF;2018-02-01 18:53;CYQF 011853Z 32004KT 15SM SCT010 BKN250 M20/M24 A3016 RMK ST3CI4 SLP305

CYQF;2018-02-01 19:00;CYQF 011900Z 32003KT 15SM FEW010 BKN250 M20/M24 A3016 RMK ST2CI4 SLP304

CYQF;2018-02-01 20:00;CYQF 012000Z 33006KT 12SM FEW010 SCT070 BKN250 M19/M23 A3015 RMK SC1AC2CI4 SLP298

CYQF;2018-02-01 21:00;CYQF 012100Z 36004KT 12SM BKN250 M18/M22 A3014 RMK CI6 SLP297

CYQF;2018-02-01 22:00;CYQF 012200Z 01005KT 15SM FEW010 BKN250 M18/M23 A3014 RMK SC1CI5 SC TR SLP294

CYQF;2018-02-01 23:00;CYQF 012300Z 01006KT 15SM FEW010 BKN250 M19/M23 A3014 RMK SC1CI6 SC TR SLP296

CYQF;2018-02-02 00:00;CYQF 020000Z 36005KT 15SM FEW010 BKN250 M19/M23 A3014 RMK SC1CI6 SLP296

CYQF;2018-02-02 01:00;CYQF 020100Z 33003KT 15SM BKN200 M20/M23 A3016 RMK CI6 SLP306

CYQF;2018-02-02 02:00;CYQF 020200Z 32003KT 15SM BKN180 M20/M23 A3016 RMK AC7 SLP305

CYQF;2018-02-02 03:00;CYQF 020300Z 36002KT 15SM BKN150 M20/M23 A3015 RMK AC7 SLP304

CYQF;2018-02-02 04:00;CYQF 020400Z 00000KT 15SM BKN140 M21/M23 A3014 RMK AC7 SLP301

CYQF;2018-02-02 05:00;CYQF 020500Z 03003KT 15SM BKN140 M21/M24 A3015 RMK AC7 SLP304

CYQF;2018-02-02 06:00;CYQF 020600Z 36004KT 15SM SCT140 M21/M23 A3017 RMK AC3 SLP308

CYQF;2018-02-02 07:00;CYQF 020700Z 36003KT 15SM OVC090 M21/M23 A3016 RMK AC8 SLP306

CYQF;2018-02-02 08:00;CYQF 020800Z 02004KT 15SM OVC080 M20/M23 A3013 RMK AC8 SLP293

CYQF;2018-02-02 09:00;CYQF 020900Z 35003KT 15SM FEW080 BKN140 OVC220 M21/M23 A3011 RMK AC2AC4CS2 SLP287

CYQF;2018-02-02 10:00;CYQF 021000Z 00000KT 15SM OVC100 M20/M23 A3011 RMK AC8 SLP284

CYQF;2018-02-02 11:00;CYQF 021100Z 12003KT 15SM OVC070 M20/M23 A3011 RMK AC8 SLP287

CYQF;2018-02-02 12:00;CYQF 021200Z 06006KT 15SM BKN018 OVC120 M20/M23 A3010 RMK SC6AC2 SLP284

CYQF;2018-02-02 13:00;CYQF 021300Z 08006KT 15SM BKN019 OVC110 M21/M24 A3008 RMK SC7AC1 SLP277

CYQF;2018-02-02 14:00;CYQF 021400Z 08006KT 15SM FEW020 BKN085 M21/M23 A3006 RMK SC2AC4 SLP268

CYQF;2018-02-02 15:00;CYQF 021500Z 11005KT 12SM IC FEW020 BKN080 OVC250 M20/M23 A3005 RMK SC1AC5CI2 SLP265

CYQF;2018-02-02 15:22;CYQF 021522Z 11007KT 10SM -SN FEW020 BKN070 OVC250 M20/M23 A3005 RMK SC1AC6CI1 SLP265

CYQF;2018-02-02 16:00;CYQF 021600Z 12007KT 12SM -SN FEW020 BKN075 OVC250 M20/M23 A3003 RMK SC1AC6CI1 SLP260

CYQF;2018-02-02 16:44;CYQF 021644Z 13008KT 8SM -SN BKN030 BKN080 M20/M23 A3004 RMK SC5AC2 SLP262

CYQF;2018-02-02 17:00;CYQF 021700Z 13010KT 6SM -SN BKN030 OVC080 M20/M23 A3002 RMK SC6AC2 PRESFR SLP257

CYQF;2018-02-02 18:00;CYQF 021800Z 14010KT 7SM -SN OVC028 M20/M23 A3001 RMK SC8 SLP252

CYQF;2018-02-02 19:00;CYQF 021900Z 14010KT 5SM -SN OVC027 M20/M23 A2999 RMK SC8 SLP244

CYQF;2018-02-02 19:42;CYQF 021942Z 13011KT 1 1/2SM -SN VV017 M20/M23 A2995 RMK SN8 PRESFR SLP230

CYQF;2018-02-02 19:52;CYQF 021952Z 14010KT 1SM -SN VV017 M19/M23 A2994 RMK SN8 SLP228

CYQF;2018-02-02 20:00;CYQF 022000Z 12008KT 1 1/2SM -SN VV018 M19/M22 A2994 RMK SN8 VIS VRB 1-2 SLP228

CYQF;2018-02-02 20:53;CYQF 022053Z 14009KT 3SM -SN OVC023 M19/M23 A2992 RMK SC8 SLP219

CYQF;2018-02-02 21:00;CYQF 022100Z 14009KT 4SM -SN OVC023 M19/M22 A2992 RMK SC8 VIS VRB 3-6 SLP220

CYQF;2018-02-02 22:00;CYQF 022200Z 14011KT 7SM -SN BKN020 OVC060 M19/M23 A2990 RMK SC6SC2 PRESFR SLP210

CYQF;2018-02-02 23:00;CYQF 022300Z 14010KT 8SM -SN BKN018 OVC060 M19/M23 A2990 RMK SC7SC1 PRESFR SLP212

CYQF;2018-02-02 23:53;CYQF 022353Z 09006KT 070V130 10SM BKN020 OVC080 M19/M23 A2992 RMK SC7AC1 SLP218

CYQF;2018-02-03 00:00;CYQF 030000Z 10006KT 10SM BKN020 OVC080 M19/M23 A2993 RMK SC7AC1 SLP222

CYQF;2018-02-03 01:00;CYQF 030100Z 16006KT 12SM -SN OVC020 M19/M23 A2991 RMK SC8 PRESFR SLP216

CYQF;2018-02-03 02:00;CYQF 030200Z 14005KT 12SM -SN OVC020 M19/M22 A2991 RMK SC8 SLP218

CYQF;2018-02-03 03:00;CYQF 030300Z 14007KT 12SM -SN OVC016 M19/M22 A2990 RMK SC8 SLP211

CYQF;2018-02-03 04:00;CYQF 030400Z 09005KT 10SM -SN OVC015 M19/M22 A2990 RMK SC8 SLP214

CYQF;2018-02-03 05:00;CYQF 030500Z 07005KT 10SM -SN OVC014 M19/M22 A2990 RMK SC8 SLP212

CYQF;2018-02-03 06:00;CYQF 030600Z 04006KT 10SM -SN OVC015 M19/M22 A2993 RMK SC8 SLP223

CYQF;2018-02-03 07:00;CYQF 030700Z 02009KT 10SM -SN OVC019 M20/M23 A2998 RMK SC8 SLP240

CYQF;2018-02-03 08:00;CYQF 030800Z 36007KT 10SM -SN OVC036 M20/M23 A3000 RMK SC8 SLP246

CYQF;2018-02-03 08:15;CYQF 030815Z 36008KT 2 1/2SM -SN OVC037 M20/M23 A3001 RMK SC8 SLP251

CYQF;2018-02-03 08:19;CYQF 030819Z 35009KT 3SM -SN OVC037 M20/M23 A3002 RMK SC8 VIS VRB 2-4 PRESRR SLP253

CYQF;2018-02-03 09:00;CYQF 030900Z 35008KT 3SM -SN VV030 M20/M23 A3005 RMK SN8 VIS VRB 2-4 SLP263

CYQF;2018-02-03 09:28;CYQF 030928Z 35009KT 1 1/2SM -SN VV015 M20/M23 A3006 RMK SN8 VIS VRB 1-2 SLP267

CYQF;2018-02-03 09:45;CYQF 030945Z 36012KT 1SM -SN VV014 M20/M23 A3007 RMK SN8 VIS VRB 1/2-11/2 SLP272

CYQF;2018-02-03 10:00;CYQF 031000Z 35011KT 1SM -SN VV020 M21/M24 A3008 RMK SN8 VIS VRB 1/2-11/2 SLP276

CYQF;2018-02-03 11:00;CYQF 031100Z 35010KT 1SM -SN VV019 M21/M24 A3011 RMK SN8 SLP285

CYQF;2018-02-03 12:00;CYQF 031200Z 34012KT 1 1/2SM -SN DRSN VV023 M21/M24 A3014 RMK SN8 SLP297

CYQF;2018-02-03 13:00;CYQF 031300Z CCA 34011KT 1 1/2SM -SN DRSN VV023 M21/M25 A3017 RMK SN8 SLP307

CYQF;2018-02-03 14:00;CYQF 031400Z 34013KT 1 1/2SM -SN DRSN VV022 M21/M25 A3021 RMK SN8 VIS VRB 1-2 SLP321

CYQF;2018-02-03 14:16;CYQF 031416Z 34011KT 1SM -SN DRSN VV006 M21/M25 A3021 RMK SN8 VIS VRB 3/4-11/4 SLP323

CYQF;2018-02-03 14:45;CYQF 031445Z 33013KT 1SM -SN DRSN VV013 M22/M25 A3023 RMK SN8 VIS VRB 3/4-11/4 SLP329

CYQF;2018-02-03 15:00;CYQF 031500Z 34010G16KT 1 1/2SM -SN DRSN VV016 M22/M25 A3024 RMK SN8 VIS VRB 1-2 SLP332

CYQF;2018-02-03 16:00;CYQF 031600Z 33011KT 1SM -SN DRSN VV025 M21/M25 A3027 RMK SN8 VIS VRB 3/4-11/4 SLP344

CYQF;2018-02-03 17:00;CYQF 031700Z 33012KT 1SM -SN DRSN VV025 M21/M25 A3029 RMK SN8 SLP349

CYQF;2018-02-03 18:00;CYQF 031800Z 33009G15KT 1 1/4SM -SN DRSN VV030 M20/M24 A3032 RMK SN8 SLP361

CYQF;2018-02-03 18:52;CYQF 031852Z 34012KT 2SM -SN DRSN OVC050 M20/M25 A3033 RMK SN3SC5 SLP364

CYQF;2018-02-03 19:00;CYQF 031900Z 33013KT 2SM -SN DRSN OVC050 M20/M25 A3033 RMK SN3SC5 SLP363

CYQF;2018-02-03 20:00;CYQF 032000Z 33012KT 2 1/2SM -SN DRSN OVC040 M20/M25 A3033 RMK SN2SC6 SLP362

CYQF;2018-02-03 20:21;CYQF 032021Z 33009G15KT 3SM -SN DRSN OVC050 M21/M25 A3032 RMK SN2SC6 SLP361

CYQF;2018-02-03 21:00;CYQF 032100Z 34010KT 3SM -SN DRSN FEW020 BKN040 OVC250 M20/M26 A3031 RMK SC1SC5CI2 SLP358

CYQF;2018-02-03 22:00;CYQF 032200Z 34009KT 3SM -SN DRSN FEW021 BKN036 OVC250 M20/M25 A3031 RMK SC1SC6CI1 SLP358

CYQF;2018-02-03 23:00;CYQF 032300Z 34009KT 6SM -SN DRSN FEW030 BKN100 M20/M25 A3032 RMK SC2AC5 SLP360

CYQF;2018-02-04 00:00;CYQF 040000Z 33004KT 15SM FEW080 BKN110 OVC250 M21/M26 A3033 RMK AC2AC4CI2 SLP366

CYQF;2018-02-04 01:00;CYQF 040100Z 24005KT 15SM SCT110 M22/M25 A3034 RMK AC4 SLP371

CYQF;2018-02-04 02:00;CYQF 040200Z 26005KT 15SM FEW110 M23/M26 A3033 RMK AC2 SLP369

CYQF;2018-02-04 03:00;CYQF 040300Z 25003KT 15SM FEW100 M26/M29 A3032 RMK AC1 SLP369

CYQF;2018-02-04 04:00;CYQF 040400Z 20006KT 15SM FEW100 M29/M32 A3031 RMK AC2 SLP368

CYQF;2018-02-04 05:00;CYQF 040500Z 23009KT 15SM FEW100 M26/M29 A3027 RMK AC1 SLP351

CYQF;2018-02-04 06:00;CYQF 040600Z 21005KT 15SM FEW100 M29/M32 A3024 RMK AC1 SLP344

CYQF;2018-02-04 07:00;CYQF 040700Z 20006KT 15SM SKC M28/M31 A3021 RMK SLP333

CYQF;2018-02-04 08:00;CYQF 040800Z 19004KT 15SM SKC M28/M31 A3018 RMK SLP319

CYQF;2018-02-04 09:00;CYQF 040900Z 21006KT 15SM SKC M30/M34 A3015 RMK SLP312

CYQF;2018-02-04 10:00;CYQF 041000Z 22006KT 15SM SKC M32/M35 A3011 RMK SLP302

CYQF;2018-02-04 11:00;CYQF 041100Z 22005KT 15SM SKC M30/M33 A3009 RMK SLP291

CYQF;2018-02-04 12:00;CYQF 041200Z 21005KT 15SM SKC M31/M35 A3006 RMK SLP285

CYQF;2018-02-04 13:00;CYQF 041300Z 20006KT 15SM SKC M31/M34 A3005 RMK SLP279

CYQF;2018-02-04 14:00;CYQF 041400Z 20005KT 15SM FEW210 M33/M36 A3005 RMK CI1 SLP283

CYQF;2018-02-04 15:00;CYQF 041500Z 19007KT 15SM FEW240 M32/M36 A3002 RMK CI2 SLP278

CYQF;2018-02-04 16:00;CYQF 041600Z 22006KT 15SM BKN240 M31/M34 A3001 RMK CI5 SLP275

CYQF;2018-02-04 17:00;CYQF 041700Z 19005KT 15SM BKN220 M29/M32 A2999 RMK CI7 SLP264

CYQF;2018-02-04 18:00;CYQF 041800Z 19006KT 12SM BKN200 M27/M30 A2998 RMK CI7 SLP260

CYQF;2018-02-04 19:00;CYQF 041900Z 20006KT 12SM BKN150 M24/M27 A2997 RMK AC7 SLP251

CYQF;2018-02-04 20:00;CYQF 042000Z 22003KT 12SM BKN150 M22/M25 A2993 RMK AC7 SLP235

CYQF;2018-02-04 21:00;CYQF 042100Z 16002KT 12SM BKN150 M20/M23 A2992 RMK AC7 SLP232

CYQF;2018-02-04 22:00;CYQF 042200Z CCA 19003KT 12SM OVC120 M19/M21 A2988 RMK AS8 SLP219

CYQF;2018-02-04 23:00;CYQF 042300Z 19002KT 12SM OVC120 M18/M21 A2989 RMK AC8 SLP217

CYQF;2018-02-05 00:00;CYQF 050000Z 23002KT 12SM OVC120 M17/M21 A2989 RMK AC8 SLP218

CYQF;2018-02-05 01:00;CYQF 050100Z 24003KT 15SM OVC120 M17/M21 A2991 RMK AC8 SLP227

CYQF;2018-02-05 02:00;CYQF 050200Z 26002KT 12SM OVC130 M17/M21 A2993 RMK AC8 SLP235

CYQF;2018-02-05 03:00;CYQF 050300Z 27006KT 12SM OVC130 M17/M21 A2995 RMK AC8 SLP240

CYQF;2018-02-05 04:00;CYQF 050400Z 00000KT 15SM FEW140 M19/M22 A2997 RMK AC1 SLP250

CYQF;2018-02-05 05:00;CYQF 050500Z 17002KT 15SM FEW140 M21/M24 A3000 RMK AC1 SLP261

CYQF;2018-02-05 06:00;CYQF 050600Z 22005KT 15SM FEW140 M23/M26 A3003 RMK AC1 AC TR SLP271

CYQF;2018-02-05 07:00;CYQF 050700Z 19005KT 15SM FEW140 M27/M30 A3005 RMK AC1 AC TR SLP280

CYQF;2018-02-05 08:00;CYQF 050800Z 20004KT 15SM SKC M28/M31 A3008 RMK SLP290

CYQF;2018-02-05 09:00;CYQF 050900Z 33004KT 15SM SKC M22/M25 A3011 RMK SLP289

CYQF;2018-02-05 10:00;CYQF 051000Z 30006KT 15SM FEW250 M21/M24 A3013 RMK CI1 SLP294

CYQF;2018-02-05 11:00;CYQF 051100Z 32006KT 15SM FEW110 M21/M23 A3015 RMK AC1 SLP299

CYQF;2018-02-05 11:30;CYQF 051130Z 17003KT 15SM IC FEW110 M27/M30 A3016 RMK AC2 SLP310

CYQF;2018-02-05 12:00;CYQF 051200Z VRB02KT 15SM IC SCT120 M25/M28 A3017 RMK AC3 FROIN SLP311

CYQF;2018-02-05 13:00;CYQF 051300Z 30003KT 15SM IC FEW040 M21/M24 A3017 RMK SC1 FROIN SLP307

CYQF;2018-02-05 13:48;CYQF 051348Z 17004KT 15SM FEW040 M28/M30 A3018 RMK SC1 SLP315

CYQF;2018-02-05 14:00;CYQF 051400Z 19004KT 15SM FEW040 M27/M30 A3018 RMK SC1 SLP315

CYQF;2018-02-05 15:00;CYQF 051500Z 20005KT 15SM FEW040 M25/M28 A3017 RMK SC1 SC TR SLP311

CYQF;2018-02-05 16:00;CYQF 051600Z 20006KT 15SM SKC M29/M32 A3016 RMK SLP314

CYQF;2018-02-05 17:00;CYQF 051700Z 21006KT 15SM FEW250 M28/M31 A3015 RMK CI1 SLP311

CYQF;2018-02-05 18:00;CYQF 051800Z 19004KT 15SM FEW250 M23/M26 A3014 RMK CI1 CI TR SLP304

CYQF;2018-02-05 19:00;CYQF 051900Z 15004KT 15SM FEW250 M21/M23 A3011 RMK CI1 CI TR SLP298

CYQF;2018-02-05 20:00;CYQF 052000Z 15005KT 15SM FEW250 M18/M21 A3009 RMK CI1 CI TR SLP286

CYQF;2018-02-05 21:00;CYQF 052100Z 17009KT 15SM SKC M18/M21 A3005 RMK SLP267

CYQF;2018-02-05 22:00;CYQF 052200Z 17007KT 15SM FEW250 M18/M22 A3002 RMK CI1 CI TR SLP254

CYQF;2018-02-05 23:00;CYQF 052300Z 15007KT 15SM FEW250 M19/M23 A2999 RMK CI1 SLP243

CYQF;2018-02-06 00:00;CYQF 060000Z 18007KT 15SM FEW250 M19/M23 A2996 RMK CI1 CI TR SLP240

CYQF;2018-02-06 01:00;CYQF 060100Z 19005KT 15SM FEW250 M21/M24 A2994 RMK CI1 CI TR SLP231

CYQF;2018-02-06 02:00;CYQF 060200Z 19008KT 15SM FEW250 M21/M24 A2993 RMK CI1 SLP232

CYQF;2018-02-06 03:00;CYQF 060300Z 21006KT 15SM SKC M21/M24 A2992 RMK SLP227

CYQF;2018-02-06 04:00;CYQF 060400Z 21006KT 15SM FEW250 M21/M24 A2991 RMK CI2 SLP231

CYQF;2018-02-06 05:00;CYQF 060500Z 21007KT 15SM FEW250 M23/M25 A2992 RMK CI1 SLP232

CYQF;2018-02-06 06:00;CYQF 060600Z 26006KT 160V290 15SM FEW250 M25/M27 A2994 RMK CI1 SLP237

CYQF;2018-02-06 07:00;CYQF 060700Z 26003KT 15SM FEW250 M18/M21 A2996 RMK CI1 SLP232

CYQF;2018-02-06 08:00;CYQF 060800Z 29007KT 15SM FEW250 M17/M21 A2998 RMK CI2 SLP236

CYQF;2018-02-06 09:00;CYQF 060900Z 30006KT 15SM FEW250 M16/M21 A3000 RMK CI2 SLP243

CYQF;2018-02-06 10:00;CYQF 061000Z 35005KT 330V030 15SM SKC M15/M20 A3004 RMK SLP253

CYQF;2018-02-06 11:00;CYQF 061100Z 33006KT 15SM FEW250 M16/M21 A3007 RMK CI1 SLP266

CYQF;2018-02-06 12:00;CYQF 061200Z 32014KT 15SM SCT100 M15/M20 A3010 RMK AC3 SLP274

CYQF;2018-02-06 13:00;CYQF 061300Z 31012G17KT 15SM SCT100 M15/M20 A3013 RMK AC4 SLP288

CYQF;2018-02-06 14:00;CYQF 061400Z 32012KT 15SM SCT090 M16/M21 A3015 RMK AC4 SLP297

CYQF;2018-02-06 15:00;CYQF 061500Z 32010KT 15SM BKN090 BKN250 M16/M20 A3018 RMK AC5CI2 SLP306

CYQF;2018-02-06 16:00;CYQF 061600Z 31008KT 15SM BKN090 BKN250 M16/M20 A3022 RMK AC6CI1 SLP321

CYQF;2018-02-06 17:00;CYQF 061700Z 31010KT 15SM FEW080 BKN250 M15/M20 A3022 RMK AC2CI3 SLP324

CYQF;2018-02-06 18:00;CYQF 061800Z 26004KT 15SM FEW080 SCT250 M15/M20 A3023 RMK AC1CI3 AC TR SLP328

CYQF;2018-02-06 19:00;CYQF 061900Z 22003KT 210V320 15SM FEW090 BKN250 M14/M19 A3024 RMK AC1CI5 AC TR SLP323

CYQF;2018-02-06 20:00;CYQF 062000Z 29005KT 15SM BKN250 M14/M19 A3023 RMK CI6 SLP317

CYQF;2018-02-06 21:00;CYQF 062100Z 27003KT 220V300 15SM BKN250 M13/M19 A3021 RMK CI6 SLP309

CYQF;2018-02-06 22:00;CYQF 062200Z 17003KT 15SM BKN200 M14/M19 A3021 RMK CI6 SLP308

CYQF;2018-02-06 23:00;CYQF 062300Z 17004KT 15SM SCT160 OVC200 M15/M19 A3019 RMK AS3CI5 SLP304

CYQF;2018-02-07 00:00;CYQF 070000Z 15006KT 15SM BKN150 OVC250 M15/M20 A3017 RMK AC5CI3 SLP297

CYQF;2018-02-07 01:00;CYQF 070100Z 15005KT 15SM OVC150 M17/M21 A3015 RMK AC8 SLP291

CYQF;2018-02-07 02:00;CYQF 070200Z 16006KT 15SM OVC140 M16/M20 A3011 RMK AC8 PRESFR SLP279

CYQF;2018-02-07 03:00;CYQF 070300Z 18008KT 15SM OVC130 M15/M20 A3008 RMK AC8 PRESFR SLP265

CYQF;2018-02-07 04:00;CYQF 070400Z 15010KT 15SM OVC110 M14/M20 A3006 RMK AC8 SLP256

CYQF;2018-02-07 05:00;CYQF 070500Z 16008KT 15SM OVC090 M15/M19 A3003 RMK AC8 SLP247

CYQF;2018-02-07 06:00;CYQF 070600Z 17006KT 15SM OVC082 M15/M19 A3000 RMK AC8 SLP234

CYQF;2018-02-07 07:00;CYQF 070700Z 17008KT 15SM OVC074 M14/M18 A2998 RMK AC8 SLP227

CYQF;2018-02-07 08:00;CYQF 070800Z 18007KT 15SM OVC062 M14/M18 A2997 RMK SC8 SLP223

CYQF;2018-02-07 08:15;CYQF 070815Z 18006KT 12SM -SN OVC062 M14/M18 A2997 RMK SC8 SLP223

CYQF;2018-02-07 09:00;CYQF 070900Z 18004KT 8SM -SN OVC045 M14/M17 A2998 RMK SC8 SLP225

CYQF;2018-02-07 10:00;CYQF 071000Z 22002KT 6SM -SN OVC036 M14/M16 A3000 RMK SC8 SLP232

CYQF;2018-02-07 11:00;CYQF 071100Z 00000KT 6SM -SN OVC040 M14/M16 A3001 RMK SC8 SLP237

CYQF;2018-02-07 12:00;CYQF 071200Z 00000KT 10SM -SN OVC050 M14/M16 A3003 RMK SC8 SLP245

CYQF;2018-02-07 13:00;CYQF 071300Z 34005KT 3SM -SN VV020 M13/M15 A3005 RMK SN8 SLP254

CYQF;2018-02-07 13:08;CYQF 071308Z 33007KT 1 1/2SM -SN VV020 M13/M15 A3006 RMK SN8 SLP256

CYQF;2018-02-07 13:35;CYQF 071335Z 35006KT 3SM -SN VV034 M13/M15 A3007 RMK SN8 VIS VRB 2-4 SLP260

CYQF;2018-02-07 14:00;CYQF 071400Z 35008KT 3SM -SN VV045 M13/M15 A3008 RMK SN8 SLP263

CYQF;2018-02-07 14:39;CYQF 071439Z 01011KT 2SM -SN VV030 M13/M15 A3010 RMK SN8 VIS VRB 1-3 SLP269

CYQF;2018-02-07 15:00;CYQF 071500Z 01012KT 2SM -SN VV026 M14/M16 A3010 RMK SN8 VIS VRB 1-3 SLP270

CYQF;2018-02-07 16:00;CYQF 071600Z 36009KT 2SM -SN DRSN VV028 M14/M17 A3014 RMK SN8 VIS VRB 1-3 SLP285

CYQF;2018-02-07 16:41;CYQF 071641Z 36007KT 1SM -SN DRSN VV021 M15/M17 A3016 RMK SN8 SLP292

CYQF;2018-02-07 17:00;CYQF 071700Z 01007KT 1SM -SN DRSN VV025 M15/M17 A3017 RMK SN8 VIS VRB 3/4-11/4 /S01/ SLP295

CYQF;2018-02-07 18:00;CYQF 071800Z 01007KT 1 1/2SM -SN VV027 M15/M18 A3019 RMK SN8 VIS VRB 1-2 SLP302

CYQF;2018-02-07 18:32;CYQF 071832Z 01005KT 2 1/2SM -SN OVC035 M15/M17 A3021 RMK SC8 SLP309

CYQF;2018-02-07 19:00;CYQF 071900Z CCA 03007KT 2SM -SN OVC035 M14/M17 A3021 RMK SC8 VIS VRB 1-3 /S01/ SLP307

CYQF;2018-02-07 20:00;CYQF 072000Z 03005KT 2SM -SN OVC042 M14/M17 A3022 RMK SN2SC6 SLP309

CYQF;2018-02-07 21:00;CYQF 072100Z 08006KT 2SM -SN OVC034 M14/M17 A3023 RMK SC8 SLP313

CYQF;2018-02-07 22:00;CYQF 072200Z 06006KT 1 1/2SM -SN VV020 M14/M17 A3021 RMK SN8 VIS VRB 1-2 /S02/ SLP308

CYQF;2018-02-07 23:00;CYQF 072300Z 06006KT 1 1/2SM -SN VV024 M14/M17 A3022 RMK SN8 VIS VRB 1-2 SLP311

CYQF;2018-02-08 00:00;CYQF 080000Z 07006KT 2SM -SN VV040 M14/M17 A3023 RMK SN8 SLP313

CYQF;2018-02-08 00:09;CYQF 080009Z 07006KT 3SM -SN VV040 M14/M17 A3023 RMK SN8 SLP313

CYQF;2018-02-08 00:39;CYQF 080039Z 08006KT 2SM -SN VV050 M15/M17 A3023 RMK SN8 SLP313

CYQF;2018-02-08 01:00;CYQF 080100Z 08006KT 2SM -SN VV039 M15/M17 A3022 RMK SN8 SLP312

CYQF;2018-02-08 02:00;CYQF 080200Z 09006KT 2SM -SN VV039 M15/M17 A3023 RMK SN8 SLP315

CYQF;2018-02-08 03:00;CYQF 080300Z 09006KT 2SM -SN VV025 M15/M17 A3023 RMK SN8 /S01 SLP314

CYQF;2018-02-08 04:00;CYQF 080400Z 09004KT 2SM -SN VV035 M15/M17 A3023 RMK SN8 SLP314

CYQF;2018-02-08 05:00;CYQF 080500Z 09007KT 1 3/4SM -SN VV032 M15/M18 A3022 RMK SN8 SLP312

CYQF;2018-02-08 06:00;CYQF 080600Z 09006KT 2SM -SN VV030 M16/M18 A3022 RMK SN8 SLP313

CYQF;2018-02-08 07:00;CYQF 080700Z 08007KT 1 1/2SM -SN VV021 M16/M18 A3020 RMK SN8 SLP307

CYQF;2018-02-08 08:00;CYQF 080800Z 08007KT 1 1/2SM -SN VV016 M16/M18 A3020 RMK SN8 SLP304

CYQF;2018-02-08 08:51;CYQF 080851Z 07006KT 3SM -SN OVC052 M16/M18 A3019 RMK SC8 SLP300

CYQF;2018-02-08 09:00;CYQF 080900Z 07007KT 4SM -SN OVC045 M16/M18 A3019 RMK SC8 SLP303

CYQF;2018-02-08 09:34;CYQF 080934Z 05005KT 1 1/2SM -SN VV014 M16/M18 A3020 RMK SN8 SLP306

CYQF;2018-02-08 10:00;CYQF 081000Z 06007KT 1 1/2SM -SN VV012 M16/M19 A3020 RMK SN8 /S02/ SLP307

CYQF;2018-02-08 11:00;CYQF 081100Z 06010KT 2SM -SN VV016 M17/M19 A3021 RMK SN8 SLP311

CYQF;2018-02-08 12:00;CYQF 081200Z 06008KT 1 1/4SM -SN VV012 M17/M19 A3022 RMK SN8 /S03/ SLP316

CYQF;2018-02-08 13:00;CYQF 081300Z 05006KT 1 1/4SM -SN VV014 M17/M20 A3025 RMK SN8 /S01/ SLP324

CYQF;2018-02-08 14:00;CYQF 081400Z 04005KT 1 1/4SM -SN VV017 M17/M20 A3027 RMK SN8 SLP331

CYQF;2018-02-08 14:38;CYQF 081438Z 03004KT 1 1/2SM -SN VV027 M17/M20 A3028 RMK SN8 SLP337

CYQF;2018-02-08 15:00;CYQF 081500Z 01004KT 1 1/2SM -SN VV017 M17/M20 A3030 RMK SN8 VIS VRB 1-2 /S02/ SLP342

CYQF;2018-02-08 16:00;CYQF 081600Z 34004KT 1 1/2SM -SN VV022 M17/M20 A3032 RMK SN8 VIS VRB 1-2 SLP352

CYQF;2018-02-08 16:12;CYQF 081612Z 34005KT 1SM -SN VV011 M17/M20 A3033 RMK SN8 VIS VRB 1/2-11/2 SLP353

CYQF;2018-02-08 17:00;CYQF 081700Z 01005KT 1SM -SN VV030 M17/M20 A3034 RMK SN8 SLP359

CYQF;2018-02-08 18:00;CYQF 081800Z 02005KT 1 1/2SM -SN OVC035 M17/M19 A3036 RMK SC8 VIS VRB 1-2 /S03/ SLP365

CYQF;2018-02-08 19:00;CYQF 081900Z 01007KT 2SM -SN OVC042 M17/M20 A3039 RMK SC8 SLP376

CYQF;2018-02-08 20:00;CYQF 082000Z 02006KT 2SM -SN OVC037 M17/M20 A3040 RMK SC8 SLP378

CYQF;2018-02-08 20:22;CYQF 082022Z 02005KT 3SM -SN SCT035 OVC080 M17/M20 A3040 RMK SC3AC5 VIS N 6 SLP378

CYQF;2018-02-08 20:43;CYQF 082043Z 01005KT 6SM -SN FEW035 BKN080 OVC250 M17/M21 A3040 RMK SC2AC3CI3 SLP378

CYQF;2018-02-08 21:00;CYQF 082100Z 01006KT 8SM VCSH FEW030 SCT100 BKN250 M17/M21 A3040 RMK SC2AC2CI3 SLP378

CYQF;2018-02-08 22:00;CYQF 082200Z 36005KT 10SM FEW030 SCT140 BKN250 M17/M22 A3039 RMK SC1AC2CI4 SLP378

CYQF;2018-02-08 23:00;CYQF 082300Z 04003KT 15SM FEW020 SCT120 BKN250 M18/M22 A3041 RMK SC2AC1CI4 SLP385

CYQF;2018-02-09 00:00;CYQF 090000Z 23003KT 15SM BKN019 BKN250 M18/M22 A3043 RMK SC6CI1 SLP393

CYQF;2018-02-09 01:00;CYQF 090100Z 02005KT 15SM FEW020 SCT250 M22/M24 A3043 RMK SC1CI3 SLP397

CYQF;2018-02-09 02:00;CYQF 090200Z 36003KT 15SM SCT140 M22/M24 A3043 RMK AC3 SLP398

CYQF;2018-02-09 03:00;CYQF 090300Z 00000KT 15SM BKN170 M22/M24 A3044 RMK AC5 SLP400

CYQF;2018-02-09 04:00;CYQF 090400Z 17002KT 15SM SCT180 M26/M29 A3043 RMK AC4 SLP402

CYQF;2018-02-09 05:00;CYQF 090500Z 18002KT 15SM FEW180 M25/M28 A3042 RMK AC2 SLP399

CYQF;2018-02-09 06:00;CYQF 090600Z 00000KT 15SM FEW140 M29/M32 A3041 RMK AC1 SLP398

CYQF;2018-02-09 07:00;CYQF 090700Z 20003KT 15SM FEW140 M31/M34 A3040 RMK AC1 SLP398

CYQF;2018-02-09 08:00;CYQF 090800Z 21003KT 15SM FEW250 M32/M36 A3039 RMK CI1 SLP394

CYQF;2018-02-09 08:18;CYQF 090818Z 21004KT 10SM OVC002 M32/M36 A3038 RMK ST8 SLP392

CYQF;2018-02-09 08:42;CYQF 090842Z 22002KT 12SM SCT002 M33/M36 A3038 RMK ST3 SLP392

CYQF;2018-02-09 09:00;CYQF 090900Z 24003KT 12SM BKN002 M32/M36 A3038 RMK ST6 SLP392

CYQF;2018-02-09 09:17;CYQF 090917Z 22004KT 1/2SM FZFG VV002 M31/M35 A3038 RMK FG8 SLP390

CYQF;2018-02-09 10:00;CYQF 091000Z 21004KT 1/2SM FZFG VV002 M32/M35 A3037 RMK FG8 SLP389

CYQF;2018-02-09 11:00;CYQF 091100Z 19006KT 2SM BR VV002 M32/M35 A3037 RMK FG8 SLP389

CYQF;2018-02-09 11:23;CYQF 091123Z 20005KT 1/2SM FZFG VV002 M32/M35 A3037 RMK FG8 SLP389

CYQF;2018-02-09 12:00;CYQF 091200Z 21005KT 1/2SM FZFG VV002 M31/M35 A3036 RMK FG8 SLP385

CYQF;2018-02-09 12:30;CYQF 091230Z 21005KT 2SM BR VV002 M32/M35 A3036 RMK FG8 SLP387

CYQF;2018-02-09 13:00;CYQF 091300Z 21005KT 4SM BR BKN002 M34/M38 A3036 RMK ST5 SLP392

CYQF;2018-02-09 13:35;CYQF 091335Z 20005KT 6SM BR SCT002 M33/M37 A3035 RMK ST4 SLP390

CYQF;2018-02-09 14:00;CYQF 091400Z 21006KT 10SM FEW003 M35/M39 A3035 RMK ST2 SLP390

CYQF;2018-02-09 15:00;CYQF 091500Z 20005KT 10SM BCFG FEW003 M34/M38 A3034 RMK ST1 SLP387

CYQF;2018-02-09 16:00;CYQF 091600Z 20007KT 10SM FEW003 M33/M36 A3034 RMK ST1 SLP390

CYQF;2018-02-09 17:00;CYQF 091700Z 19004KT 10SM SKC M30/M34 A3033 RMK SLP384

CYQF;2018-02-09 18:00;CYQF 091800Z 19005KT 10SM SKC M28/M31 A3032 RMK SLP380

CYQF;2018-02-09 19:00;CYQF 091900Z 23009KT 10SM SKC M25/M28 A3030 RMK SLP374

CYQF;2018-02-09 20:00;CYQF 092000Z 21006KT 10SM SKC M22/M25 A3027 RMK PRESFR SLP361

CYQF;2018-02-09 21:00;CYQF 092100Z 19004KT 12SM SKC M20/M23 A3026 RMK SLP353

CYQF;2018-02-09 22:00;CYQF 092200Z 21004KT 12SM SKC M20/M22 A3023 RMK SLP341

CYQF;2018-02-09 23:00;CYQF 092300Z 21003KT 10SM SKC M20/M22 A3022 RMK SLP339

CYQF;2018-02-10 01:00;CYQF 100100Z 21004KT 12SM FEW250 M22/M25 A3019 RMK CI1 SLP332

CYQF;2018-02-10 02:00;CYQF 100200Z 22005KT 15SM FEW250 M23/M25 A3017 RMK CI1 SLP330

CYQF;2018-02-10 03:00;CYQF 100300Z 19006KT 15SM SKC M26/M29 A3016 RMK SLP327

CYQF;2018-02-10 04:00;CYQF 100400Z 20008KT 15SM SCT210 M24/M26 A3012 RMK CI3 SLP312

CYQF;2018-02-10 05:00;CYQF 100500Z 21006KT 15SM FEW210 M23/M26 A3011 RMK CI2 SLP302

CYQF;2018-02-10 06:00;CYQF 100600Z 21005KT 15SM FEW250 M25/M28 A3008 RMK CI1 CI TR SLP290

CYQF;2018-02-10 07:00;CYQF 100700Z 24008KT 15SM SCT210 M21/M23 A3006 RMK CI3 SLP274

CYQF;2018-02-10 08:00;CYQF 100800Z 23007KT 15SM SCT200 M22/M24 A3003 RMK CI3 SLP262

CYQF;2018-02-10 09:00;CYQF 100900Z 21004KT 15SM FEW210 M24/M27 A3000 RMK CI2 SLP255

CYQF;2018-02-10 10:00;CYQF 101000Z 24010KT 15SM SCT200 M20/M22 A2999 RMK CI4 SLP242

CYQF;2018-02-10 11:00;CYQF 101100Z 23006KT 15SM SCT160 M21/M23 A2996 RMK AC4 SLP233

CYQF;2018-02-10 12:00;CYQF 101200Z 20006KT 15SM FEW100 BKN160 M23/M25 A2995 RMK AC2AC3 SLP234

CYQF;2018-02-10 13:00;CYQF 101300Z 18004KT 150V220 15SM BKN090 BKN140 M19/M21 A2995 RMK AC5AC2 SLP231

CYQF;2018-02-10 14:00;CYQF 101400Z 30013KT 15SM BKN084 M13/M15 A2994 RMK AC6 FROIN SLP222

CYQF;2018-02-10 15:00;CYQF 101500Z 29008KT 12SM BKN050 OVC080 M12/M14 A2996 RMK SC5AC3 VIRGA SLP233

CYQF;2018-02-10 16:00;CYQF 101600Z 29008KT 15SM BKN060 BKN110 M09/M16 A2997 RMK SC5AC2 SLP229

CYQF;2018-02-10 17:00;CYQF 101700Z 28009KT 15SM SCT060 BKN110 M09/M16 A2996 RMK SC3AC2 SLP226

CYQF;2018-02-10 18:00;CYQF 101800Z 29011KT 15SM FEW060 BKN110 M07/M15 A2996 RMK SC2AC4 SLP224

CYQF;2018-02-10 19:00;CYQF 101900Z 28011G18KT 15SM FEW060 SCT110 OVC250 M06/M14 A2995 RMK SC2AC2CI4 SLP215

CYQF;2018-02-10 20:00;CYQF 102000Z 29010G16KT 15SM FEW060 SCT140 OVC250 M05/M13 A2992 RMK SC2AC2CI4 PRESFR SLP204

CYQF;2018-02-10 21:00;CYQF 102100Z 31013G19KT 15SM DRSN SCT060 BKN140 BKN250 M04/M12 A2988 RMK SC3AC2CI1 SLP193

CYQF;2018-02-10 22:00;CYQF 102200Z 30010KT 15SM FEW060 BKN110 BKN250 M05/M11 A2985 RMK SC2AC4CI1 SLP179

CYQF;2018-02-10 23:00;CYQF 102300Z 29008KT 15SM BKN070 OVC170 M05/M13 A2984 RMK AC5AC3 SLP177

CYQF;2018-02-11 00:00;CYQF 110000Z 26007KT 15SM OVC075 M05/M12 A2984 RMK AS8 SLP178

CYQF;2018-02-11 01:00;CYQF 110100Z 31011KT 15SM OVC070 M04/M12 A2983 RMK AS8 SLP171

CYQF;2018-02-11 02:00;CYQF 110200Z 35010G16KT 8SM -SN OVC061 M05/M10 A2984 RMK SC8 SLP166

CYQF;2018-02-11 02:17;CYQF 110217Z 34010KT 3SM -SHSN OVC061 M06/M09 A2984 RMK SN1SC7 SLP166

CYQF;2018-02-11 02:32;CYQF 110232Z 35008KT 2SM -SHSN VV032 M06/M09 A2984 RMK SN8 CVCTV CLD EMBD SLP167

CYQF;2018-02-11 03:00;CYQF 110300Z 35008KT 2SM -SHSN VV029 M07/M09 A2985 RMK SN8 SLP171

CYQF;2018-02-11 04:00;CYQF 110400Z 35003KT 1 1/2SM -SN VV017 M07/M09 A2986 RMK SN8 VIS VRB 1-2 SLP171

CYQF;2018-02-11 04:38;CYQF 110438Z 35011KT 1SM -SN VV013 M08/M10 A2987 RMK SN8 SLP175

CYQF;2018-02-11 05:00;CYQF 110500Z 02011KT 1 1/4SM -SN VV014 M08/M10 A2988 RMK SN8 SLP177

CYQF;2018-02-11 05:15;CYQF 110515Z 01011KT 1 1/2SM -SN DRSN VV021 M08/M10 A2988 RMK SN8 VIS VRB 1-2 SLP179

CYQF;2018-02-11 06:00;CYQF 110600Z 36009KT 2SM -SN DRSN VV027 M08/M10 A2990 RMK SN8 /S01/ SLP183

CYQF;2018-02-11 06:18;CYQF 110618Z 01011KT 1SM -SN DRSN VV006 M08/M10 A2990 RMK SN8 VIS VRB 1-2 SLP186

CYQF;2018-02-11 06:30;CYQF 110630Z 04015KT 2SM -SN DRSN VV025 M09/M11 A2991 RMK SN8 VIS VRB 1-3 SLP190

CYQF;2018-02-11 07:00;CYQF 110700Z 03011KT 2SM -SN DRSN VV030 M11/M13 A2993 RMK SN8 SLP195

CYQF;2018-02-11 08:00;CYQF 110800Z 04010KT 2SM -SN DRSN VV021 M11/M13 A2996 RMK SN8 SLP206

CYQF;2018-02-11 09:00;CYQF 110900Z 03009KT 2SM -SN DRSN VV022 M12/M14 A2999 RMK SN8 SLP217

CYQF;2018-02-11 10:00;CYQF 111000Z 03016G21KT 2SM -SN DRSN VV021 M12/M15 A3003 RMK SN8 VIS VRB 1-3 SLP233

CYQF;2018-02-11 11:00;CYQF 111100Z 02014KT 2SM -SN DRSN VV030 M14/M16 A3008 RMK SN8 VIS VRB 1-3 SLP249

CYQF;2018-02-11 11:25;CYQF 111125Z 02012KT 3SM -SN DRSN VV040 M14/M17 A3009 RMK SN8 SLP255

CYQF;2018-02-11 12:00;CYQF 111200Z 01011KT 3SM -SN DRSN VV035 M14/M17 A3012 RMK SN8 VIS VRB 2-4 SLP267

CYQF;2018-02-11 13:00;CYQF 111300Z 01011KT 3SM -SN DRSN OVC015 M15/M17 A3016 RMK SN6SC2 VIS VRB 2-4 SLP278

CYQF;2018-02-11 14:00;CYQF 111400Z 03011G16KT 6SM -SN DRSN BKN024 BKN100 M17/M21 A3020 RMK SC5AC1 SLP295

CYQF;2018-02-11 14:45;CYQF 111445Z 02013KT 12SM DRSN FEW024 SCT090 BKN260 M19/M22 A3023 RMK SC2AC2CI2 SLP309

CYQF;2018-02-11 15:00;CYQF 111500Z 03012KT 15SM FEW024 SCT080 BKN260 M20/M23 A3023 RMK SC2AC2CI2 SLP314

CYQF;2018-02-11 16:00;CYQF 111600Z 04011KT 12SM OVC038 M19/M22 A3027 RMK SC8 VIS NW 5 SLP325

CYQF;2018-02-11 17:00;CYQF 111700Z 02008KT 12SM BKN037 M19/M23 A3029 RMK SC7 SLP332

CYQF;2018-02-11 18:00;CYQF 111800Z 01003KT 12SM BKN039 M19/M23 A3031 RMK SC7 SLP340

CYQF;2018-02-11 19:00;CYQF 111900Z 35006KT 15SM BKN038 M19/M24 A3032 RMK SC6 SLP348

CYQF;2018-02-11 20:00;CYQF 112000Z 33004KT 12SM SCT040 M19/M25 A3032 RMK SC4 SLP347

CYQF;2018-02-11 21:00;CYQF 112100Z 16003KT 130V230 15SM FEW040 M19/M25 A3031 RMK SC1 SLP346

CYQF;2018-02-11 22:00;CYQF 112200Z 16003KT 15SM FEW040 M19/M25 A3032 RMK SC1 SLP349

CYQF;2018-02-11 23:00;CYQF 112300Z 17004KT 15SM FEW150 M20/M26 A3033 RMK AC1 AC TR SLP356

CYQF;2018-02-12 00:00;CYQF 120000Z 18003KT 15SM SKC M21/M26 A3032 RMK SLP354

CYQF;2018-02-12 01:00;CYQF 120100Z 16003KT 15SM SKC M24/M27 A3032 RMK SLP357

CYQF;2018-02-12 02:00;CYQF 120200Z 19005KT 15SM SKC M25/M28 A3032 RMK SLP364

CYQF;2018-02-12 03:00;CYQF 120300Z 19008KT 15SM SKC M28/M30 A3033 RMK SLP373

CYQF;2018-02-12 04:00;CYQF 120400Z 18006KT 15SM SKC M29/M32 A3033 RMK SLP372

CYQF;2018-02-12 05:00;CYQF 120500Z 18008KT 15SM SKC M28/M31 A3032 RMK SLP367

CYQF;2018-02-12 06:00;CYQF 120600Z 18006KT 15SM SKC M28/M31 A3030 RMK SLP361

CYQF;2018-02-12 07:00;CYQF 120700Z 18006KT 15SM SKC M29/M32 A3029 RMK SLP357

CYQF;2018-02-12 08:00;CYQF 120800Z 18007KT 15SM SKC M30/M33 A3026 RMK SLP350

CYQF;2018-02-12 09:00;CYQF 120900Z 18007KT 15SM SKC M29/M32 A3024 RMK SLP342

CYQF;2018-02-12 10:00;CYQF 121000Z 19006KT 15SM SKC M26/M29 A3020 RMK SLP326

CYQF;2018-02-12 11:00;CYQF 121100Z 19008KT 15SM SKC M26/M29 A3016 RMK SLP310

CYQF;2018-02-12 12:00;CYQF 121200Z 18010KT 15SM SKC M26/M29 A3011 RMK SLP295

CYQF;2018-02-12 13:00;CYQF 121300Z 17011KT 15SM SKC M26/M29 A3008 RMK SLP286

CYQF;2018-02-12 14:00;CYQF 121400Z 18008KT 15SM SKC M28/M31 A3004 RMK PRESFR SLP279

CYQF;2018-02-12 15:00;CYQF 121500Z 18009KT 15SM FEW250 M27/M31 A3000 RMK CI1 SLP267

CYQF;2018-02-12 16:00;CYQF 121600Z 18010KT 15SM FEW250 M26/M29 A2999 RMK CI2 SLP262

CYQF;2018-02-12 17:00;CYQF 121700Z 18008KT 15SM FEW250 M24/M27 A2997 RMK CI1 SLP250

CYQF;2018-02-12 18:00;CYQF 121800Z 16004KT 15SM FEW250 M22/M25 A2994 RMK CI1 SLP239

CYQF;2018-02-12 19:00;CYQF 121900Z 16006KT 15SM FEW250 M18/M24 A2991 RMK CI2 SLP227

CYQF;2018-02-12 20:00;CYQF 122000Z 18009KT 15SM SCT250 M16/M23 A2987 RMK CI4 PRESFR SLP209

CYQF;2018-02-12 21:00;CYQF 122100Z 00000KT 15SM SCT250 M14/M21 A2986 RMK CI4 SLP203

CYQF;2018-02-12 22:00;CYQF 122200Z 16005KT 15SM SCT250 M14/M20 A2981 RMK CI4 SLP182

CYQF;2018-02-12 23:00;CYQF 122300Z 15008KT 15SM BKN260 M15/M20 A2980 RMK CS7 SLP177

CYQF;2018-02-12 23:47;CYQF 122347Z 14003KT 15SM FEW003 BKN260 M16/M21 A2977 RMK FU1CS6 SLP170

CYQF;2018-02-13 00:00;CYQF 130000Z 15003KT 12SM FEW003 BKN260 M15/M21 A2977 RMK FU2CS5 SLP168

CYQF;2018-02-13 01:00;CYQF 130100Z 14004KT 12SM FEW003 BKN170 BKN260 M16/M20 A2975 RMK FU1AC5CI1 VIS NW 6 HZ SLP162

CYQF;2018-02-13 02:00;CYQF 130200Z 19007KT 15SM SCT170 BKN260 M15/M20 A2973 RMK AC4CI3 SLP158

CYQF;2018-02-13 03:00;CYQF 130300Z 21003KT 15SM BKN120 BKN260 M15/M20 A2970 RMK AC5CI2 SLP147

CYQF;2018-02-13 04:00;CYQF 130400Z 21004KT 15SM BKN080 BKN250 M15/M19 A2967 RMK AC6CI1 SLP136

CYQF;2018-02-13 05:00;CYQF 130500Z 20004KT 15SM SCT080 BKN230 M15/M19 A2965 RMK AC4CI1 SLP124

CYQF;2018-02-13 06:00;CYQF 130600Z 20005KT 15SM BKN230 M17/M20 A2962 RMK CI6 SLP115

CYQF;2018-02-13 07:00;CYQF 130700Z 22003KT 15SM FEW070 BKN250 M14/M18 A2962 RMK AC1CI4 SLP108

CYQF;2018-02-13 08:00;CYQF 130800Z 19005KT 15SM FEW065 BKN250 M14/M17 A2962 RMK SC2CI3 SLP103

CYQF;2018-02-13 09:00;CYQF 130900Z 21006KT 15SM SCT070 BKN230 M11/M14 A2961 RMK AC4CI3 SLP093

CYQF;2018-02-13 10:00;CYQF 131000Z 18004KT 15SM FEW070 BKN230 M10/M14 A2960 RMK AC2CI5 SLP088

CYQF;2018-02-13 11:00;CYQF 131100Z 21003KT 15SM FEW070 BKN250 M09/M13 A2958 RMK AC1CI5 SLP083

CYQF;2018-02-13 12:00;CYQF 131200Z 23012KT 15SM BKN250 M04/M09 A2956 RMK CI6 SLP071

CYQF;2018-02-13 13:00;CYQF 131300Z 24010KT 15SM BKN250 M02/M09 A2956 RMK CI5 SLP070

CYQF;2018-02-13 14:00;CYQF 131400Z 23010KT 15SM BKN250 M02/M08 A2955 RMK CI5 SLP065

CYQF;2018-02-13 15:00;CYQF 131500Z 23009KT 15SM BKN100 BKN250 00/M07 A2957 RMK AC5CI2 SLP068

CYQF;2018-02-13 16:00;CYQF 131600Z 23009KT 15SM BKN094 BKN250 01/M06 A2958 RMK AC6CI1 SLP072

CYQF;2018-02-13 17:00;CYQF 131700Z 00000KT 15SM BKN090 BKN240 M01/M06 A2958 RMK AC5CI1 SLP074

CYQF;2018-02-13 18:00;CYQF 131800Z 07004KT 040V120 15SM BKN090 BKN250 01/M04 A2958 RMK AC5CI2 SLP072

CYQF;2018-02-13 19:00;CYQF 131900Z 14008KT 15SM BKN110 OVC250 03/M03 A2955 RMK AC5CI3 SLP058

CYQF;2018-02-13 20:00;CYQF 132000Z 14007KT 15SM BKN110 OVC230 04/M02 A2951 RMK AC6CI2 SLP042

CYQF;2018-02-13 21:00;CYQF 132100Z 13008KT 15SM BKN120 OVC240 05/M02 A2947 RMK AC5CI3 SLP025 DENSITY ALT 3000FT

CYQF;2018-02-13 22:00;CYQF 132200Z 10003KT 15SM FEW050 BKN120 OVC240 05/M02 A2945 RMK SC1AC5CI3 SC TR SLP015 DENSITY ALT 3000FT

CYQF;2018-02-13 23:00;CYQF 132300Z 08004KT 020V090 15SM FEW040 BKN100 OVC240 03/M01 A2944 RMK SC1AC5CI2 SLP013

CYQF;2018-02-14 00:00;CYQF 140000Z VRB02KT 15SM FEW040 OVC084 04/M02 A2942 RMK SC1AC7 SLP000 DENSITY ALT 3000FT

CYQF;2018-02-14 01:00;CYQF 140100Z 32004KT 300V360 15SM BKN090 OVC240 04/M02 A2942 RMK AC7CI1 SLP997 DENSITY ALT 3000FT

CYQF;2018-02-14 02:00;CYQF 140200Z 34004KT 270V030 15SM BKN090 BKN220 02/M02 A2942 RMK AC6CI1 SLP001

CYQF;2018-02-14 03:00;CYQF 140300Z 21005KT 200V290 15SM BKN080 BKN200 M00/M03 A2941 RMK AC5CI2 SLP997

CYQF;2018-02-14 03:51;CYQF 140351Z 30010KT 15SM BKN120 04/M04 A2942 RMK AC5 WSHFT 0310 SLP996 DENSITY ALT 3000FT

CYQF;2018-02-14 04:00;CYQF 140400Z 31010KT 15SM BKN100 04/M04 A2942 RMK AC7 SLP995 DENSITY ALT 3000FT

CYQF;2018-02-14 05:05;CYQF 140505Z 36008KT 15SM -RA OVC060 02/M01 A2944 RMK SC8 SLP006

CYQF;2018-02-14 05:30;CYQF 140530Z 06008KT 15SM OVC060 02/M01 A2943 RMK SC8 SLP003

CYQF;2018-02-14 06:00;CYQF 140600Z 09004KT 15SM FEW040 OVC100 01/M02 A2944 RMK SC2AC6 SLP004

CYQF;2018-02-14 07:00;CYQF 140700Z 35006KT 15SM FEW040 OVC090 02/M02 A2946 RMK SC2AC6 SLP010

CYQF;2018-02-14 08:00;CYQF 140800Z 02003KT 350V080 15SM VCSH FEW020 SCT040 OVC130 01/M01 A2947 RMK SC1SC3AC4 SLP012

CYQF;2018-02-14 09:00;CYQF 140900Z 07006KT 15SM SCT015 OVC120 M01/M02 A2949 RMK SC4AC4 SLP019

CYQF;2018-02-14 09:46;CYQF 140946Z 07003KT 12SM BKN012 OVC090 M01/M02 A2951 RMK SC5AC3 SLP026

CYQF;2018-02-14 10:00;CYQF 141000Z VRB02KT 8SM BKN012 OVC090 M01/M02 A2951 RMK SC6AC2 BR SLP028

CYQF;2018-02-14 10:46;CYQF 141046Z 02002KT 5SM -SN BKN009 OVC050 M00/M01 A2952 RMK SC7SC1 SLP031

CYQF;2018-02-14 11:00;CYQF 141100Z 00000KT 5SM -SN OVC009 M00/M01 A2953 RMK SC8 SLP035

CYQF;2018-02-14 11:20;CYQF 141120Z 36009G16KT 310V050 1SM -SN OVC005 M00/M01 A2954 RMK SC8 SLP038

CYQF;2018-02-14 12:00;CYQF 141200Z 28012G19KT 2SM -SN OVC020 M00/M01 A2954 RMK SN4SC4 /S01/ SLP037

CYQF;2018-02-14 12:13;CYQF 141213Z 27009KT 10SM FEW020 OVC070 M00/M02 A2954 RMK SC2AC6 VIS S 5 SLP037

CYQF;2018-02-14 13:00;CYQF 141300Z 29010KT 15SM OVC070 M00/M02 A2955 RMK AC8 SLP041

CYQF;2018-02-14 14:00;CYQF 141400Z 31011G18KT 15SM OVC100 M00/M04 A2958 RMK AC8 SLP055

CYQF;2018-02-14 15:00;CYQF 141500Z 31011KT 15SM FEW040 BKN100 BKN250 M02/M05 A2961 RMK SC1AC5CI2 SC TR SLP070

CYQF;2018-02-14 15:38;CYQF 141538Z 35022G32KT 1/4SM -SHGS BLSN OVC020 M03/M07 A2967 RMK BLSN6SC2 PRESRR SLP090

CYQF;2018-02-14 15:44;CYQF 141544Z 36025G32KT 310V010 1SM -SHGS BLSN OVC019 M06/M08 A2969 RMK BLSN4SC4 PRESRR SLP101

CYQF;2018-02-14 15:54;CYQF 141554Z 36021G31KT 3SM -SHGS BLSN OVC019 M06/M08 A2971 RMK SC8 VIS VRB 2-4 PRESRR SLP108

CYQF;2018-02-14 16:00;CYQF 141600Z 01022G27KT 2SM BLSN OVC019 M06/M08 A2971 RMK BLSN4SC4 OCNL -SHGS VIS VRB 1-3 PRESRR SLP105

CYQF;2018-02-14 16:06;CYQF 141606Z 36026G33KT 1/2SM BLSN OVC018 M07/M09 A2972 RMK BLSN6SC2 OCNL -SHGS VIS VRB 1/4-3/4 PRESRR SLP108

CYQF;2018-02-14 16:21;CYQF 141621Z 01020G30KT 3/4SM BLSN OVC018 M07/M10 A2975 RMK BLSN6SC2 VIS VRB 1/4-11/2 PRESRR SLP118

CYQF;2018-02-14 17:00;CYQF 141700Z 36019G28KT 1SM BLSN OVC020 M09/M12 A2981 RMK BLSN4SC4 VIS VRB 1/2 - 11/2 PRESRR SLP143

CYQF;2018-02-14 17:19;CYQF 141719Z 35017G23KT 1SM -SN BLSN OVC020 M09/M11 A2983 RMK BLSN5SC3 VIS VRB 1/2 - 11/2 PRESRR SLP152

CYQF;2018-02-14 17:40;CYQF 141740Z 36021G31KT 3SM -SN SCT020 BKN080 M10/M13 A2985 RMK SC4AC2 VIS VRB 1-5 PRESRR SLP159

CYQF;2018-02-14 18:00;CYQF 141800Z 36014G25KT 4SM -SN DRSN BKN019 BKN040 M09/M13 A2987 RMK SC5SC2 SLP164

CYQF;2018-02-14 19:00;CYQF 141900Z 35017G26KT 3SM -SN DRSN SCT018 BKN040 M10/M13 A2991 RMK SC4SC3 OCNL BLSN VIS VRB 2-4 PRESRR SLP180

CYQF;2018-02-14 19:11;CYQF 141911Z 35019G26KT 3SM DRSN FEW018 SCT040 BKN070 M10/M14 A2991 RMK SC1SC3AC3 OCNL BLSN VIS VRB 1-5 SLP182

CYQF;2018-02-14 19:40;CYQF 141940Z 35017G25KT 8SM DRSN FEW018 SCT040 BKN075 M10/M15 A2993 RMK SC1SC2AC4 SLP187

CYQF;2018-02-14 20:00;CYQF 142000Z 36017G22KT 8SM DRSN FEW020 FEW040 BKN075 M11/M15 A2993 RMK SC1SC1AC5 SLP189

CYQF;2018-02-14 21:00;CYQF 142100Z 01015KT 12SM DRSN FEW040 BKN075 M12/M16 A2996 RMK SF1AC7 SF TR SLP201

CYQF;2018-02-14 22:00;CYQF 142200Z 01014G19KT 15SM FEW040 SCT075 BKN250 M13/M19 A2997 RMK SC1AC4CI2 SC TR SLP207

CYQF;2018-02-14 23:00;CYQF 142300Z 01015KT 15SM DRSN FEW075 BKN250 M13/M20 A3000 RMK AC2CI3 SLP215

CYQF;2018-02-15 00:00;CYQF 150000Z 03007KT 15SM BKN150 BKN250 M14/M21 A3002 RMK AC5CI2 SLP227

CYQF;2018-02-15 01:00;CYQF 150100Z 01006KT 15SM BKN072 BKN150 M14/M19 A3005 RMK AC5AC2 SLP234

CYQF;2018-02-15 02:00;CYQF 150200Z 04006KT 15SM OVC073 M14/M18 A3006 RMK AC8 SLP240

CYQF;2018-02-15 03:00;CYQF 150300Z 30003KT 15SM OVC050 M14/M19 A3010 RMK SC8 SLP255

CYQF;2018-02-15 04:00;CYQF 150400Z VRB02KT 15SM OVC060 M15/M19 A3013 RMK SC8 SLP272

CYQF;2018-02-15 05:00;CYQF 150500Z 32002KT 15SM OVC055 M15/M19 A3014 RMK SC8 SLP279

CYQF;2018-02-15 05:06;CYQF 150506Z 29002KT 12SM -SN BKN055 OVC150 M15/M19 A3014 RMK SC6AC2 SLP279

CYQF;2018-02-15 06:00;CYQF 150600Z 20002KT 8SM BKN055 OVC096 M17/M19 A3016 RMK SN1SC5AC2 SLP287

CYQF;2018-02-15 07:00;CYQF 150700Z 23003KT 12SM -SN FEW027 OVC091 M17/M18 A3017 RMK SC2AC6 SLP290

CYQF;2018-02-15 08:00;CYQF 150800Z 26006KT 10SM -SN SCT022 OVC091 M17/M19 A3017 RMK SC3AC5 SLP291

CYQF;2018-02-15 09:00;CYQF 150900Z 28006KT 12SM -SN FEW022 BKN091 M17/M19 A3017 RMK SC2AC4 SLP295

CYQF;2018-02-15 10:00;CYQF 151000Z 30005KT 15SM FEW022 M17/M19 A3020 RMK SC2 FROIN SLP304

CYQF;2018-02-15 11:00;CYQF 151100Z 27006KT 15SM FEW022 M18/M20 A3021 RMK SC1 SLP310

CYQF;2018-02-15 12:00;CYQF 151200Z 26007KT 15SM SKC M19/M21 A3020 RMK FROIN SLP312

CYQF;2018-02-15 13:00;CYQF 151300Z 27007KT 15SM SKC M20/M22 A3020 RMK FROIN SLP309

CYQF;2018-02-15 14:00;CYQF 151400Z 23009KT 15SM SKC M22/M24 A3019 RMK SLP310

CYQF;2018-02-15 15:00;CYQF 151500Z 24010KT 15SM SKC M21/M23 A3020 RMK SLP312

CYQF;2018-02-15 16:00;CYQF 151600Z 21006KT 15SM SKC M23/M25 A3021 RMK SLP318

CYQF;2018-02-15 17:00;CYQF 151700Z 19006KT 15SM SKC M21/M24 A3020 RMK SLP312

CYQF;2018-02-15 18:00;CYQF 151800Z 21006KT 15SM FEW250 M19/M21 A3017 RMK CI1 SLP303

CYQF;2018-02-15 19:00;CYQF 151900Z 23008KT 15SM FEW250 M15/M17 A3015 RMK CI1 SLP289

CYQF;2018-02-15 20:00;CYQF 152000Z 20007KT 15SM FEW250 M12/M18 A3011 RMK CI1 SLP275

CYQF;2018-02-15 21:00;CYQF 152100Z 19008KT 15SM FEW250 M12/M18 A3009 RMK CI1 SLP265

CYQF;2018-02-15 22:00;CYQF 152200Z 19008KT 15SM FEW250 M11/M18 A3005 RMK CI1 SLP252

CYQF;2018-02-15 23:00;CYQF 152300Z 19011KT 15SM SCT250 M11/M18 A3001 RMK CI4 SLP238

CYQF;2018-02-16 00:00;CYQF 160000Z 18007KT 15SM FEW090 SCT250 M13/M19 A2997 RMK AC1CI4 AC TR SLP227

CYQF;2018-02-16 01:00;CYQF 160100Z 18006KT 15SM FEW090 FEW230 M15/M19 A2992 RMK AC1CI2 AC TR SLP216

CYQF;2018-02-16 02:00;CYQF 160200Z 19008KT 15SM FEW230 M16/M20 A2989 RMK CI2 SLP208

CYQF;2018-02-16 03:00;CYQF 160300Z 19009KT 15SM SCT250 M17/M20 A2987 RMK CI3 SLP201

CYQF;2018-02-16 04:00;CYQF 160400Z 21006KT 15SM SCT120 BKN230 M18/M21 A2986 RMK AC3CI3 SLP200

CYQF;2018-02-16 05:00;CYQF 160500Z 22008KT 15SM SCT082 BKN110 M16/M20 A2985 RMK AC3AC4 SLP192

CYQF;2018-02-16 06:00;CYQF 160600Z 25006KT 15SM SCT082 BKN150 M12/M18 A2984 RMK AC4AC3 SLP183

CYQF;2018-02-16 07:00;CYQF 160700Z 25004KT 15SM SCT085 BKN160 M12/M18 A2984 RMK AC3AC4 SLP178

CYQF;2018-02-16 08:00;CYQF 160800Z 19005KT 15SM BKN062 OVC100 M13/M18 A2984 RMK SC5AC3 SLP175

CYQF;2018-02-16 09:00;CYQF 160900Z 19006KT 15SM SCT062 OVC110 M13/M18 A2982 RMK SC3AC5 SLP166

CYQF;2018-02-16 10:00;CYQF 161000Z 20005KT 15SM OVC082 M12/M18 A2979 RMK AC8 SLP155

CYQF;2018-02-16 11:00;CYQF 161100Z VRB02KT 15SM BKN082 OVC150 M11/M18 A2978 RMK AC5AC3 SLP149

CYQF;2018-02-16 12:00;CYQF 161200Z VRB02KT 15SM OVC081 M12/M17 A2976 RMK AC8 SLP146

CYQF;2018-02-16 13:00;CYQF 161300Z 13002KT 15SM BKN070 M13/M18 A2974 RMK AC7 SLP145

CYQF;2018-02-16 14:00;CYQF 161400Z VRB02KT 15SM SCT080 BKN140 M12/M18 A2973 RMK AC4AC3 SLP139

CYQF;2018-02-16 15:00;CYQF 161500Z 20004KT 15SM SCT080 BKN140 M15/M19 A2973 RMK AC3AC4 SLP143

CYQF;2018-02-16 16:00;CYQF 161600Z 23003KT 150V230 15SM BKN075 BKN140 M13/M18 A2974 RMK AC6AC1 VIRGA SLP145

CYQF;2018-02-16 17:00;CYQF 161700Z VRB02KT 15SM SCT080 BKN250 M12/M17 A2975 RMK AC4CI3 VIRGA SLP147

CYQF;2018-02-16 18:00;CYQF 161800Z VRB02KT 15SM BKN060 BKN180 BKN250 M09/M17 A2976 RMK SC5AC1CI1 SLP143

CYQF;2018-02-16 19:00;CYQF 161900Z VRB02KT 15SM SCT060 BKN110 BKN250 M07/M16 A2977 RMK SC4AC2CI1 SLP144

CYQF;2018-02-16 20:00;CYQF 162000Z 23005KT 15SM BKN100 BKN250 M05/M13 A2977 RMK AC5CI2 SLP142

CYQF;2018-02-16 21:00;CYQF 162100Z 30008KT 15SM FEW030 BKN250 M05/M12 A2977 RMK CU1CI6 SLP141

CYQF;2018-02-16 22:00;CYQF 162200Z 34011KT 15SM SCT032 BKN250 M05/M10 A2978 RMK SC4CI3 SLP145

CYQF;2018-02-16 23:00;CYQF 162300Z 34011KT 15SM FEW030 SCT250 M05/M11 A2980 RMK CU2CI1 SLP152

CYQF;2018-02-17 00:00;CYQF 170000Z 33009KT 15SM FEW034 BKN250 M07/M11 A2984 RMK SC2CI3 SLP168

CYQF;2018-02-17 01:00;CYQF 170100Z 33011KT 15SM FEW034 SCT250 M08/M14 A2987 RMK SC2CI2 SLP179

CYQF;2018-02-17 02:00;CYQF 170200Z 34010KT 15SM FEW040 SCT250 M09/M16 A2989 RMK SC2CI2 SLP189

CYQF;2018-02-17 03:00;CYQF 170300Z 34009KT 15SM FEW210 M11/M18 A2991 RMK CI1 SLP200

CYQF;2018-02-17 04:00;CYQF 170400Z 32010KT 15SM FEW210 M11/M19 A2992 RMK CI1 SLP202

CYQF;2018-02-17 05:00;CYQF 170500Z 33009KT 15SM SKC M12/M19 A2994 RMK SLP209

CYQF;2018-02-17 06:00;CYQF 170600Z 30007KT 15SM SKC M14/M19 A2995 RMK SLP210

CYQF;2018-02-17 07:00;CYQF 170700Z 29005KT 15SM FEW069 M14/M19 A2996 RMK AC2 SLP212

CYQF;2018-02-17 08:00;CYQF 170800Z 28005KT 15SM BKN075 M15/M19 A2997 RMK AC7 SLP213

CYQF;2018-02-17 09:00;CYQF 170900Z 27004KT 15SM OVC075 M14/M19 A2997 RMK AC8 SLP213

CYQF;2018-02-17 10:00;CYQF 171000Z 31006KT 15SM OVC072 M14/M19 A2998 RMK AC8 SLP214

CYQF;2018-02-17 11:00;CYQF 171100Z 30007KT 15SM OVC077 M13/M18 A2997 RMK AC8 SLP213

CYQF;2018-02-17 12:00;CYQF 171200Z 28006KT 15SM OVC075 M14/M19 A2997 RMK AC8 SLP215

CYQF;2018-02-17 13:00;CYQF 171300Z 28005KT 15SM BKN073 M14/M18 A2996 RMK AC6 SLP213

CYQF;2018-02-17 14:00;CYQF 171400Z 31005KT 15SM BKN090 M15/M19 A2995 RMK AC6 SLP212

CYQF;2018-02-17 15:00;CYQF 171500Z 19004KT 15SM BKN090 BKN250 M18/M20 A2993 RMK AC5CI2 SLP211

CYQF;2018-02-17 16:00;CYQF 171600Z 23004KT 15SM BKN090 BKN250 M17/M19 A2993 RMK AC5CI2 SLP210

CYQF;2018-02-17 17:00;CYQF 171700Z 25003KT 15SM BKN090 BKN250 M16/M19 A2993 RMK AC5CI2 SLP210

CYQF;2018-02-17 18:00;CYQF 171800Z 03004KT 15SM SCT090 BKN250 M16/M19 A2992 RMK AC4CI3 SLP208

CYQF;2018-02-17 19:00;CYQF 171900Z 19003KT 15SM FEW016 FEW060 OVC170 M14/M17 A2990 RMK CF1SC1AC6 SLP200

CYQF;2018-02-17 20:00;CYQF 172000Z VRB03KT 15SM FEW075 OVC150 M12/M17 A2987 RMK AC1AC7 SLP188

CYQF;2018-02-17 21:00;CYQF 172100Z 34006KT 12SM FEW070 BKN140 M12/M19 A2983 RMK AC2AC5 SLP174

CYQF;2018-02-17 22:00;CYQF 172200Z 34005KT 15SM OVC090 M12/M19 A2981 RMK AS8 SLP165

CYQF;2018-02-17 23:00;CYQF 172300Z 32003KT 15SM OVC070 M12/M19 A2979 RMK AC8 SLP159

CYQF;2018-02-18 00:00;CYQF 180000Z 22005KT 12SM OVC072 M13/M19 A2980 RMK AC8 SLP163

CYQF;2018-02-18 01:00;CYQF 180100Z 26003KT 15SM OVC072 M13/M20 A2980 RMK AC8 SLP164

CYQF;2018-02-18 02:00;CYQF 180200Z 29005KT 15SM OVC068 M13/M19 A2980 RMK AC8 SLP164

CYQF;2018-02-18 03:00;CYQF 180300Z 29006KT 15SM OVC080 M14/M19 A2980 RMK AC8 SLP167

CYQF;2018-02-18 04:00;CYQF 180400Z 28007KT 15SM OVC070 M14/M17 A2981 RMK AC8 SLP170

CYQF;2018-02-18 05:00;CYQF 180500Z 34008KT 15SM OVC069 M13/M18 A2982 RMK AC8 SLP174

CYQF;2018-02-18 06:00;CYQF 180600Z 36012KT 15SM BKN054 OVC075 M15/M19 A2987 RMK SC7AC1 SLP191

CYQF;2018-02-18 06:31;CYQF 180631Z 36010G15KT 12SM -SN OVC044 M16/M19 A2988 RMK SC8 CIG RAG SLP197

CYQF;2018-02-18 07:00;CYQF 180700Z 36010KT 12SM -SN FEW035 SCT050 OVC086 M16/M20 A2989 RMK SC1SC2AC5 SLP198

CYQF;2018-02-18 08:00;CYQF 180800Z 34006KT 15SM -SN FEW035 OVC099 M17/M20 A2991 RMK SC2AC6 SLP206

CYQF;2018-02-18 09:00;CYQF 180900Z 33008KT 12SM -SN OVC023 M17/M20 A2991 RMK SC8 SLP205

CYQF;2018-02-18 10:00;CYQF 181000Z 32008KT 15SM FEW023 SCT100 M18/M22 A2993 RMK SC2AC2 SLP213

CYQF;2018-02-18 11:00;CYQF 181100Z 31007KT 15SM SCT100 M18/M23 A2994 RMK AC4 SLP217

CYQF;2018-02-18 12:00;CYQF 181200Z 29006KT 15SM BKN140 M19/M23 A2997 RMK AC5 SLP227

CYQF;2018-02-18 13:00;CYQF 181300Z 30009KT 15SM BKN140 M19/M22 A2998 RMK AC6 SLP231

CYQF;2018-02-18 14:00;CYQF 181400Z 29007KT 15SM SCT050 BKN140 M19/M23 A2999 RMK SC4AC3 SLP235

CYQF;2018-02-18 15:00;CYQF 181500Z 29010KT 8SM BKN046 BKN140 M20/M23 A3000 RMK SC6AC1 SLP238

CYQF;2018-02-18 15:09;CYQF 181509Z 29008KT 5SM -SN BKN045 BKN140 M20/M23 A3000 RMK SC5AC2 SLP240

CYQF;2018-02-18 15:22;CYQF 181522Z 29010KT 15SM SCT045 BKN140 BKN250 M20/M23 A3000 RMK SC3AC2CI2 SLP240

CYQF;2018-02-18 16:00;CYQF 181600Z 29014KT 15SM SCT056 BKN250 M19/M22 A3001 RMK SC4CI3 SLP243

CYQF;2018-02-18 17:00;CYQF 181700Z 30009KT 15SM FEW010 SCT050 BKN250 M19/M22 A3002 RMK SC1SC2CI3 SLP246

CYQF;2018-02-18 18:00;CYQF 181800Z 30011G17KT 15SM FEW010 FEW050 BKN250 M17/M21 A3002 RMK SC1SC1CI4 SC TR SLP247

CYQF;2018-02-18 19:00;CYQF 181900Z 30009KT 15SM FEW020 BKN200 M16/M21 A3004 RMK CU1CC4 SLP252

CYQF;2018-02-18 20:00;CYQF 182000Z 34012KT 12SM VCSH DRSN BKN020 BKN200 M15/M20 A3002 RMK SC6CC1 VIS S 6 CVCTV CLD EMBD SLP246

CYQF;2018-02-18 20:19;CYQF 182019Z 33010KT 2 1/2SM -SHSN DRSN OVC020 M15/M20 A3002 RMK SC8 CVCTV CLD EMBD SLP245

CYQF;2018-02-18 20:34;CYQF 182034Z 33009KT 3SM -SHSN DRSN BKN020 M14/M19 A3001 RMK SC7 VIS VRB 2-4 CVCTV CLD EMBD SLP243

CYQF;2018-02-18 20:41;CYQF 182041Z 33010KT 12SM VCSH DRSN BKN020 BKN040 M14/M19 A3001 RMK CU5SC2 VIS S 6 CVCTV CLD EMBD SLP242

CYQF;2018-02-18 21:00;CYQF 182100Z 34013KT 12SM DRSN FEW020 SCT040 M14/M20 A3001 RMK CU2SC2 SLP241

CYQF;2018-02-18 22:00;CYQF 182200Z 34014KT 12SM DRSN FEW020 BKN045 M14/M21 A3002 RMK CU1SC6 SLP245

CYQF;2018-02-18 23:00;CYQF 182300Z 33010G17KT 15SM DRSN FEW020 SCT040 BKN270 M15/M20 A3003 RMK CU1SC3CI2 SLP250

CYQF;2018-02-19 00:00;CYQF 190000Z 34013KT 15SM BKN044 M15/M21 A3004 RMK SC6 SLP256

CYQF;2018-02-19 01:00;CYQF 190100Z 32006KT 15SM BKN050 M16/M21 A3006 RMK SC6 SLP262

CYQF;2018-02-19 02:00;CYQF 190200Z 30005KT 15SM BKN050 M17/M21 A3007 RMK SC6 SLP266

CYQF;2018-02-19 03:00;CYQF 190300Z 30005KT 15SM SCT050 M18/M22 A3007 RMK SC3 SLP270

CYQF;2018-02-19 04:00;CYQF 190400Z 27005KT 15SM FEW050 M18/M22 A3006 RMK SC2 SLP266

CYQF;2018-02-19 05:00;CYQF 190500Z 25008KT 15SM BKN050 M20/M22 A3007 RMK SC6 SLP270

CYQF;2018-02-19 06:00;CYQF 190600Z 25006KT 12SM -SN OVC051 M20/M22 A3007 RMK SC8 SLP267

CYQF;2018-02-19 07:00;CYQF 190700Z 27008KT 12SM -SN OVC051 M21/M24 A3007 RMK SC8 SLP267

CYQF;2018-02-19 08:00;CYQF 190800Z 28006KT 12SM -SN OVC049 M21/M24 A3007 RMK SC8 SLP267

CYQF;2018-02-19 09:00;CYQF 190900Z VRB02KT 12SM -SN OVC049 M23/M26 A3006 RMK SC8 SLP267

CYQF;2018-02-19 09:20;CYQF 190920Z VRB02KT 15SM SCT049 M23/M26 A3006 RMK SC3 SLP266

CYQF;2018-02-19 10:00;CYQF 191000Z 21004KT 15SM SCT049 M25/M28 A3006 RMK SC3 SLP269

CYQF;2018-02-19 11:00;CYQF 191100Z 18006KT 15SM SCT049 M28/M30 A3005 RMK SC3 SLP269

CYQF;2018-02-19 12:00;CYQF 191200Z 25005KT 15SM OVC046 M25/M28 A3004 RMK SC8 SLP262

CYQF;2018-02-19 12:17;CYQF 191217Z 18003KT 160V240 12SM -SN OVC043 M27/M30 A3003 RMK SC8 SLP262

CYQF;2018-02-19 13:00;CYQF 191300Z 23005KT 12SM -SN OVC044 M25/M27 A3004 RMK SC8 SLP262

CYQF;2018-02-19 13:46;CYQF 191346Z 25008KT 12SM BKN042 M21/M24 A3003 RMK SC7 SLP254

CYQF;2018-02-19 14:00;CYQF 191400Z 25009KT 15SM SCT040 M22/M24 A3003 RMK SC4 SLP256

CYQF;2018-02-19 15:00;CYQF 191500Z 25008KT 15SM FEW040 FEW250 M22/M24 A3003 RMK SC1CI1 SC TR SLP257

CYQF;2018-02-19 16:01;CYQF 191601Z 26007KT 15SM FEW120 M21/M24 A3002 RMK AC1 AC TR SLP256

CYQF;2018-02-19 17:00;CYQF 191700Z 25008KT 15SM FEW250 M19/M22 A3002 RMK CI1 SLP253

CYQF;2018-02-19 18:00;CYQF 191800Z 26009KT 15SM SKC M18/M23 A3001 RMK SLP248

CYQF;2018-02-19 19:00;CYQF 191900Z 26008KT 15SM SKC M16/M23 A3000 RMK SLP244

CYQF;2018-02-19 20:00;CYQF 192000Z 25008KT 15SM SKC M14/M22 A2997 RMK SLP232

CYQF;2018-02-19 21:00;CYQF 192100Z 23008KT 15SM SKC M13/M22 A2994 RMK SLP224

CYQF;2018-02-19 22:00;CYQF 192200Z 22007KT 15SM FEW036 M12/M21 A2993 RMK SC1 SC TR SLP221

CYQF;2018-02-19 23:00;CYQF 192300Z 18007KT 15SM FEW028 FEW270 M14/M21 A2992 RMK CU1CI1 CU TR CI TR SLP221

CYQF;2018-02-20 00:00;CYQF 200000Z 20009KT 15SM FEW100 M15/M22 A2992 RMK AC1 SLP221

CYQF;2018-02-20 01:00;CYQF 200100Z 20007KT 15SM FEW100 FEW270 M16/M23 A2992 RMK AC1CI1 AC TR SLP220

CYQF;2018-02-20 02:00;CYQF 200200Z 21005KT 15SM FEW100 M18/M24 A2993 RMK AC1 SLP223

CYQF;2018-02-20 03:00;CYQF 200300Z 18006KT 15SM SKC M22/M26 A2993 RMK SLP229

CYQF;2018-02-20 04:00;CYQF 200400Z 20006KT 15SM FEW100 M23/M27 A2994 RMK AC2 SLP231

CYQF;2018-02-20 05:00;CYQF 200500Z 21007KT 15SM SCT100 M24/M28 A2993 RMK AC3 SLP228

CYQF;2018-02-20 06:00;CYQF 200600Z 20008KT 15SM BKN072 M21/M26 A2992 RMK AC7 SLP221

CYQF;2018-02-20 07:00;CYQF 200700Z 22007KT 15SM BKN080 M19/M25 A2993 RMK AC7 SLP218

CYQF;2018-02-20 08:00;CYQF 200800Z 24007KT 15SM OVC085 M18/M24 A2992 RMK AC8 SLP212

CYQF;2018-02-20 09:00;CYQF 200900Z 28009KT 15SM OVC079 M16/M22 A2993 RMK AC8 SLP210

CYQF;2018-02-20 10:00;CYQF 201000Z 29009KT 15SM FEW079 M17/M23 A2993 RMK AC2 SLP212

CYQF;2018-02-20 11:00;CYQF 201100Z 28009KT 15SM SCT074 M17/M23 A2994 RMK AC4 SLP216

CYQF;2018-02-20 12:00;CYQF 201200Z 30008KT 15SM SCT074 M17/M24 A2995 RMK AC3 SLP220

CYQF;2018-02-20 13:00;CYQF 201300Z 30010KT 15SM SCT084 BKN200 M17/M23 A2996 RMK AC3CI3 SLP227

CYQF;2018-02-20 14:00;CYQF 201400Z 29009KT 15SM FEW090 BKN200 M17/M23 A2998 RMK AC2CI4 SLP234

CYQF;2018-02-20 15:00;CYQF 201500Z 29011KT 15SM BKN060 BKN090 OVC200 M15/M21 A2999 RMK SC5AC2CI1 SLP239

CYQF;2018-02-21 00:00;CYQF 210000Z 35004KT 4SM -SN BKN025 BKN090 M13/M16 A3003 RMK SC5AC2 SLP247

CYQF;2018-02-21 01:00;CYQF 210100Z 01004KT 340V040 6SM -SN SCT025 BKN045 BKN080 M14/M17 A3005 RMK SC3SC3AC1 SLP256

CYQF;2018-02-21 01:31;CYQF 210131Z VRB02KT 12SM SCT045 BKN080 M16/M18 A3006 RMK SC3AC4 SLP261

CYQF;2018-02-21 02:00;CYQF 210200Z 00000KT 15SM BKN080 M16/M17 A3007 RMK AC6 SLP264

CYQF;2018-02-21 03:00;CYQF 210300Z 25003KT 15SM SCT024 BKN080 M19/M21 A3008 RMK SC3AC2 SLP269

CYQF;2018-02-21 04:00;CYQF 210400Z 24005KT 15SM FEW020 OVC060 M17/M19 A3008 RMK SC2SC6 SLP267

CYQF;2018-02-21 04:26;CYQF 210426Z 26006KT 12SM -SN OVC060 M17/M19 A3008 RMK SC8 SLP267

CYQF;2018-02-21 05:00;CYQF 210500Z 25005KT 12SM -SN OVC060 M16/M19 A3008 RMK SC8 SLP265

CYQF;2018-02-21 06:00;CYQF 210600Z 25005KT 15SM OVC060 M17/M19 A3008 RMK SC8 SLP264

CYQF;2018-02-21 06:29;CYQF 210629Z 22005KT 12SM -SN OVC056 M18/M20 A3008 RMK SC8 SLP265

CYQF;2018-02-21 07:00;CYQF 210700Z 21005KT 12SM -SN OVC059 M19/M21 A3007 RMK SC8 SLP260

CYQF;2018-02-21 08:00;CYQF 210800Z 19006KT 12SM OVC054 M19/M21 A3005 RMK SC8 SLP254

CYQF;2018-02-21 09:00;CYQF 210900Z 21006KT 15SM OVC060 M17/M19 A3002 RMK SC8 SLP244

CYQF;2018-02-21 09:11;CYQF 210911Z 21007KT 15SM OVC060 M17/M19 A3002 RMK SC8 SLP242

CYQF;2018-02-21 10:00;CYQF 211000Z 20006KT 15SM OVC059 M17/M20 A3000 RMK SC8 SLP234

CYQF;2018-02-21 11:00;CYQF 211100Z 20006KT 15SM BKN059 M19/M22 A2997 RMK SC6 SLP228

CYQF;2018-02-21 12:00;CYQF 211200Z 19004KT 15SM FEW059 M22/M25 A2996 RMK SC2 SLP227

CYQF;2018-02-21 13:00;CYQF 211300Z 18007KT 15SM SKC M23/M26 A2993 RMK FROIN SLP222

CYQF;2018-02-21 14:00;CYQF 211400Z 19008KT 15SM SKC M22/M25 A2991 RMK SLP216

CYQF;2018-02-21 15:00;CYQF 211500Z 19004KT 15SM FEW110 M24/M27 A2992 RMK AC1 AC TR SLP224

CYQF;2018-02-21 16:00;CYQF 211600Z 18004KT 15SM FEW100 SCT250 M22/M25 A2991 RMK AC1CI3 AC TR SLP217

CYQF;2018-02-21 17:00;CYQF 211700Z 19005KT 15SM SCT250 M20/M23 A2991 RMK CI4 SLP213

CYQF;2018-02-21 18:00;CYQF 211800Z 22004KT 15SM FEW250 M19/M23 A2990 RMK CI2 SLP209

CYQF;2018-02-21 19:00;CYQF 211900Z 19004KT 15SM FEW250 M16/M23 A2990 RMK CI2 SLP207

CYQF;2018-02-21 20:00;CYQF 212000Z 18004KT 15SM FEW250 M15/M22 A2989 RMK CI2 SLP203

CYQF;2018-02-21 22:00;CYQF 212200Z 20004KT 15SM FEW030 SCT250 M13/M21 A2989 RMK SC1CI2 SLP199

CYQF;2018-02-22 01:00;CYQF 220100Z 18003KT 15SM SCT070 BKN250 M14/M22 A2993 RMK AC4CI3 SLP220

CYQF;2018-02-22 02:00;CYQF 220200Z 23002KT 15SM FEW070 SCT140 BKN230 M16/M22 A2994 RMK AC1AC2CI3 SLP226

CYQF;2018-02-22 04:00;CYQF 220400Z 17005KT 150V230 15SM SCT042 BKN100 BKN250 M19/M24 A2998 RMK SC3AC2CI1 SLP242

CYQF;2018-02-22 05:00;CYQF 220500Z 20005KT 15SM FEW040 SCT220 M21/M25 A3000 RMK SC1CI2 SLP247

CYQF;2018-02-22 06:00;CYQF 220600Z 20003KT 15SM SCT040 BKN250 M17/M21 A3002 RMK SC4CI2 SLP249

CYQF;2018-02-22 07:00;CYQF 220700Z 29009KT 15SM SCT040 BKN250 M10/M15 A3003 RMK SC3CI3 SLP244

CYQF;2018-02-22 08:00;CYQF 220800Z 29010KT 15SM FEW040 SCT250 M12/M16 A3006 RMK SC1CI2 SLP253

CYQF;2018-02-22 09:00;CYQF 220900Z 29010KT 15SM BKN044 M12/M16 A3007 RMK SC6 SLP254

CYQF;2018-02-22 10:00;CYQF 221000Z 29012KT 15SM BKN040 M10/M13 A3008 RMK SC7 SLP256

CYQF;2018-02-22 11:00;CYQF 221100Z 30012G17KT 15SM BKN040 M10/M13 A3009 RMK SC7 SLP258

CYQF;2018-02-22 11:08;CYQF 221108Z 30011G16KT 15SM -SN OVC040 M10/M13 A3009 RMK SC8 SLP259

CYQF;2018-02-22 11:51;CYQF 221151Z 30011KT 15SM OVC042 M10/M13 A3010 RMK SC8 SLP261

CYQF;2018-02-22 12:04;CYQF 221204Z 30010KT 15SM -SN OVC045 M10/M13 A3010 RMK SC8 SLP262

CYQF;2018-02-22 13:00;CYQF 221300Z 30009KT 15SM -SN OVC060 M10/M13 A3011 RMK SC8 SLP268

CYQF;2018-02-22 14:00;CYQF 221400Z 30008KT 10SM -SN OVC040 M10/M12 A3013 RMK SC8 SLP277

CYQF;2018-02-22 14:50;CYQF 221450Z 29007KT 12SM FEW040 OVC074 M10/M13 A3015 RMK SC2AC6 SLP283

CYQF;2018-02-22 15:00;CYQF 221500Z 29008KT 15SM FEW040 BKN072 M10/M12 A3015 RMK SC1AC6 SLP284

CYQF;2018-02-22 16:00;CYQF 221600Z 28007KT 15SM FEW040 BKN070 M10/M12 A3016 RMK SC1AS7 SC TR SLP292

CYQF;2018-02-22 17:00;CYQF 221700Z 28007KT 15SM FEW035 OVC070 M09/M12 A3018 RMK SC1AC7 SLP297

CYQF;2018-02-22 18:00;CYQF 221800Z 28004KT 15SM FEW030 OVC073 M09/M12 A3019 RMK SC1AC7 SLP295

CYQF;2018-02-22 19:00;CYQF 221900Z 28007KT 15SM SCT020 BKN070 M08/M11 A3019 RMK SC3AC4 SLP287

CYQF;2018-02-22 20:00;CYQF 222000Z 26006KT 15SM SCT018 BKN065 M07/M11 A3017 RMK SC3SC4 SLP283

CYQF;2018-02-22 21:00;CYQF 222100Z 26003KT 200V280 15SM SCT018 BKN070 BKN250 M07/M11 A3016 RMK CU3AC3CI1 SLP280

CYQF;2018-02-22 22:00;CYQF 222200Z 24004KT 15SM FEW018 SCT065 SCT250 M07/M12 A3015 RMK CU2SC1CI1 SLP274

CYQF;2018-02-22 23:00;CYQF 222300Z 20005KT 15SM FEW020 SCT070 M08/M12 A3014 RMK SC1AC2 SLP271

CYQF;2018-02-23 00:00;CYQF 230000Z 19005KT 15SM FEW070 FEW250 M09/M13 A3013 RMK AC1CI1 SLP270

CYQF;2018-02-23 01:00;CYQF 230100Z 20008KT 15SM FEW070 FEW250 M11/M14 A3013 RMK AC1CI1 SLP269

CYQF;2018-02-23 02:00;CYQF 230200Z 18007KT 15SM FEW070 M14/M16 A3011 RMK AC1 SLP267

CYQF;2018-02-23 03:00;CYQF 230300Z 18007KT 15SM SKC M14/M16 A3009 RMK SLP259

CYQF;2018-02-23 04:00;CYQF 230400Z 19007KT 15SM SKC M19/M20 A3007 RMK SLP260

CYQF;2018-02-23 05:00;CYQF 230500Z 18007KT 15SM SKC M17/M19 A3006 RMK SLP252

CYQF;2018-02-23 06:00;CYQF 230600Z 19007KT 15SM SKC M16/M18 A3004 RMK SLP244

CYQF;2018-02-23 07:00;CYQF 230700Z 17007KT 15SM SKC M20/M22 A3002 RMK SLP240

CYQF;2018-02-23 08:00;CYQF 230800Z 18006KT 15SM SKC M19/M21 A2999 RMK SLP229

CYQF;2018-02-23 09:00;CYQF 230900Z 20007KT 15SM SKC M19/M21 A2996 RMK SLP217

CYQF;2018-02-23 10:00;CYQF 231000Z 20008KT 15SM SKC M21/M24 A2992 RMK SLP207

CYQF;2018-02-23 11:00;CYQF 231100Z 18008KT 15SM SKC M22/M24 A2989 RMK SLP197

CYQF;2018-02-23 12:00;CYQF 231200Z 19009KT 15SM SKC M21/M24 A2985 RMK SLP185

CYQF;2018-02-23 13:00;CYQF 231300Z 19007KT 15SM SKC M22/M24 A2981 RMK SLP175

CYQF;2018-02-23 14:00;CYQF 231400Z 20006KT 15SM SKC M21/M24 A2978 RMK FROIN SLP165

CYQF;2018-02-23 15:00;CYQF 231500Z 20004KT 15SM FEW250 M21/M24 A2976 RMK CI2 SLP158

CYQF;2018-02-23 16:00;CYQF 231600Z 19005KT 15SM SCT250 M21/M24 A2973 RMK CI4 SLP155

CYQF;2018-02-23 17:00;CYQF 231700Z 18006KT 15SM BKN250 M18/M22 A2971 RMK CI7 SLP142

CYQF;2018-02-23 18:00;CYQF 231800Z 20004KT 15SM SCT140 BKN250 M16/M21 A2969 RMK AC3CI4 SLP131

CYQF;2018-02-23 19:00;CYQF 231900Z 19006KT 15SM FEW160 BKN250 M13/M20 A2966 RMK AC1CI4 SLP121

CYQF;2018-02-23 20:00;CYQF 232000Z 17004KT 15SM FEW100 BKN250 M10/M18 A2964 RMK AC2CI4 SLP108

CYQF;2018-02-23 21:00;CYQF 232100Z 15004KT 15SM SCT140 OVC250 M08/M17 A2962 RMK AC4CI4 SLP099

CYQF;2018-02-23 22:00;CYQF 232200Z 18003KT 15SM BKN050 OVC100 M07/M15 A2961 RMK SC6AS2 CIG RAG SLP096

CYQF;2018-02-23 23:00;CYQF 232300Z 21004KT 12SM BKN036 OVC100 M06/M13 A2960 RMK SC6AS2 SLP094

CYQF;2018-02-24 00:00;CYQF 240000Z 17007KT 15SM BKN060 OVC100 M06/M11 A2957 RMK SC7AC1 SLP081

CYQF;2018-02-24 01:00;CYQF 240100Z 22007KT 15SM SCT060 BKN097 M05/M11 A2957 RMK SC3AC4 SLP082

CYQF;2018-02-24 02:00;CYQF 240200Z 20006KT 15SM FEW100 BKN180 M07/M12 A2957 RMK AC2AC5 SLP082

CYQF;2018-02-24 03:00;CYQF 240300Z 22003KT 15SM BKN200 M09/M14 A2956 RMK CI7 SLP083

CYQF;2018-02-24 04:00;CYQF 240400Z 22007KT 15SM OVC140 M06/M12 A2956 RMK AS8 SLP080

CYQF;2018-02-24 05:00;CYQF 240500Z 22005KT 15SM OVC120 M08/M13 A2957 RMK AS8 SLP081

CYQF;2018-02-24 06:00;CYQF 240600Z 20005KT 15SM OVC140 M07/M14 A2956 RMK AS8 SLP075

CYQF;2018-02-24 07:00;CYQF 240700Z 20006KT 15SM OVC070 M07/M14 A2956 RMK AC8 SLP071

CYQF;2018-02-24 08:00;CYQF 240800Z 21005KT 15SM SCT070 OVC120 M06/M14 A2956 RMK AC3AC5 SLP066

CYQF;2018-02-24 09:00;CYQF 240900Z 21004KT 15SM SCT080 BKN120 M08/M14 A2956 RMK AC3AC3 SLP068

CYQF;2018-02-24 10:00;CYQF 241000Z 18006KT 140V200 15SM FEW070 BKN150 M08/M15 A2957 RMK AC2AC5 SLP067

CYQF;2018-02-24 11:00;CYQF 241100Z 23006KT 15SM BKN150 M06/M16 A2956 RMK AC6 SLP061

CYQF;2018-02-24 12:00;CYQF 241200Z 18003KT 15SM BKN140 M08/M16 A2956 RMK AC7 SLP063

CYQF;2018-02-24 13:00;CYQF 241300Z 23004KT 180V260 15SM BKN140 M08/M17 A2956 RMK AC7 SLP065

CYQF;2018-02-24 14:00;CYQF 241400Z 24005KT 210V270 15SM SCT140 M11/M19 A2957 RMK AC3 SLP071

CYQF;2018-02-24 15:00;CYQF 241500Z 24004KT 15SM SCT100 M11/M19 A2958 RMK AC3 SLP078

CYQF;2018-02-24 16:00;CYQF 241600Z 00000KT 15SM SCT100 SCT250 M11/M19 A2959 RMK AC3CI1 SLP079

CYQF;2018-02-24 17:00;CYQF 241700Z VRB02KT 15SM SCT140 BKN250 M08/M17 A2959 RMK AC4CI2 SLP078

CYQF;2018-02-24 17:14;CYQF 241714Z 29010KT 15SM FEW060 SCT140 BKN250 M05/M16 A2960 RMK SC1AC4CI1 SC TR WSHFT 1700 SLP075

CYQF;2018-02-24 18:00;CYQF 241800Z 29009KT 15SM FEW050 SCT070 BKN150 M04/M15 A2960 RMK SC1AC2AC2 SLP074

CYQF;2018-02-24 19:00;CYQF 241900Z 29011KT 15SM FEW060 FEW140 SCT250 M03/M14 A2960 RMK SC1AC2CI2 SC TR SLP072

CYQF;2018-02-24 20:00;CYQF 242000Z 29009KT 15SM FEW060 FEW100 M02/M14 A2959 RMK SC1AC1 SLP068

CYQF;2018-02-24 21:00;CYQF 242100Z 29006KT 15SM FEW060 SCT100 M02/M13 A2958 RMK SC1AC2 SLP068

CYQF;2018-02-24 22:00;CYQF 242200Z 25005KT 15SM FEW060 SCT100 M01/M14 A2958 RMK SC1AC3 SC TR SLP064

CYQF;2018-02-24 23:00;CYQF 242300Z 08002KT 15SM BKN080 BKN250 M02/M13 A2958 RMK AC6CI1 SLP064

CYQF;2018-02-25 00:00;CYQF 250000Z 09002KT 15SM SCT100 SCT250 M03/M13 A2957 RMK AC3CI1 VIRGA SLP065

CYQF;2018-02-25 01:00;CYQF 250100Z 18004KT 15SM BKN100 BKN250 M05/M14 A2956 RMK AC5CI1 VIRGA SLP063

CYQF;2018-02-25 02:00;CYQF 250200Z 19005KT 15SM SCT100 BKN250 M06/M14 A2955 RMK AC3CI2 SLP066

CYQF;2018-02-25 03:00;CYQF 250300Z 20006KT 15SM SCT100 M10/M16 A2954 RMK AC4 SLP067

CYQF;2018-02-25 04:00;CYQF 250400Z 20005KT 15SM SCT100 M13/M18 A2953 RMK AC4 SLP066

CYQF;2018-02-25 05:00;CYQF 250500Z 21006KT 15SM SKC M14/M19 A2951 RMK SLP058

CYQF;2018-02-25 06:00;CYQF 250600Z 19004KT 15SM SKC M16/M21 A2949 RMK SLP048

CYQF;2018-02-25 07:00;CYQF 250700Z 21006KT 15SM SCT200 M13/M21 A2946 RMK CI3 SLP033

CYQF;2018-02-25 08:00;CYQF 250800Z 19006KT 15SM SCT130 SCT250 M13/M21 A2945 RMK AC3CI1 SLP029

CYQF;2018-02-25 09:00;CYQF 250900Z 21007KT 15SM FEW150 M15/M21 A2943 RMK AC2 SLP022

CYQF;2018-02-25 10:00;CYQF 251000Z 21007KT 15SM SCT240 M17/M23 A2941 RMK CI4 SLP016

CYQF;2018-02-25 11:00;CYQF 251100Z 20007KT 15SM SCT230 M15/M21 A2937 RMK CI4 SLP004

CYQF;2018-02-25 12:00;CYQF 251200Z 18007KT 15SM SCT250 M14/M21 A2934 RMK CI3 SLP992

CYQF;2018-02-25 13:00;CYQF 251300Z 19005KT 15SM BKN250 M14/M21 A2931 RMK CI5 SLP985

CYQF;2018-02-25 14:00;CYQF 251400Z 20005KT 15SM BKN080 BKN200 M14/M20 A2931 RMK AC6CI1 SLP984

CYQF;2018-02-25 15:00;CYQF 251500Z 18004KT 15SM BKN090 M11/M18 A2930 RMK AC7 SLP981

CYQF;2018-02-25 16:00;CYQF 251600Z 20004KT 15SM BKN100 BKN230 M10/M16 A2929 RMK AC6CI1 SLP981

CYQF;2018-02-25 17:00;CYQF 251700Z 19005KT 15SM SCT110 BKN140 BKN250 M09/M16 A2929 RMK AC3AC3CI1 SLP982

CYQF;2018-02-25 18:00;CYQF 251800Z 19005KT 15SM BKN140 BKN200 M07/M14 A2930 RMK AC6CI1 SLP984

CYQF;2018-02-25 19:00;CYQF 251900Z 19005KT 15SM SCT150 BKN250 M04/M13 A2929 RMK AC3CI3 SLP975

CYQF;2018-02-25 20:00;CYQF 252000Z 16002KT 15SM FEW040 SCT140 SCT250 M02/M11 A2926 RMK CU1AC3CI1 CU TR SLP963

CYQF;2018-02-25 21:00;CYQF 252100Z 19004KT 15SM FEW040 SCT140 BKN250 M00/M13 A2928 RMK CU1AC2CI2 SLP967

CYQF;2018-02-25 22:00;CYQF 252200Z 17009KT 15SM FEW040 SCT140 BKN250 M00/M11 A2928 RMK CU1AC3CI3 SLP970

CYQF;2018-02-25 23:00;CYQF 252300Z 15005KT 15SM FEW040 BKN100 BKN250 M01/M10 A2929 RMK CU2AC4CI1 VIRGA NE + S SLP973

CYQF;2018-02-26 00:00;CYQF 260000Z 36010KT 15SM FEW040 SCT110 BKN250 M02/M10 A2933 RMK CU1AC3CI3 VIRGA SLP986

CYQF;2018-02-26 01:00;CYQF 260100Z 35004KT 15SM FEW040 BKN150 BKN250 M03/M10 A2935 RMK CU1AC5CI1 VIRGA SLP993

CYQF;2018-02-26 02:00;CYQF 260200Z 28009KT 15SM SCT060 BKN140 M02/M10 A2936 RMK SC3AC4 SLP998

CYQF;2018-02-26 03:00;CYQF 260300Z 29013KT 15SM SCT060 OVC140 M03/M10 A2939 RMK SC4AC4 SLP006

CYQF;2018-02-26 04:00;CYQF 260400Z 29007KT 15SM BKN078 OVC140 M04/M08 A2941 RMK AC6AC2 SLP014

CYQF;2018-02-26 05:00;CYQF 260500Z 28005KT 15SM SCT090 BKN180 M04/M08 A2944 RMK AC4AC3 SLP021

CYQF;2018-02-26 06:00;CYQF 260600Z 30005KT 15SM SCT080 BKN250 M06/M09 A2948 RMK AC3CI3 SLP034

CYQF;2018-02-26 07:00;CYQF 260700Z 00000KT 15SM FEW020 SCT060 M07/M09 A2950 RMK SC1SC3 SLP040

CYQF;2018-02-26 08:00;CYQF 260800Z 28002KT 15SM FEW020 BKN060 M07/M10 A2953 RMK SC2SC3 SLP048

CYQF;2018-02-26 09:00;CYQF 260900Z 28005KT 15SM FEW020 SCT090 M08/M09 A2956 RMK SC2AC1 SLP057

CYQF;2018-02-26 09:43;CYQF 260943Z 30003KT 15SM BKN013 OVC080 M08/M10 A2958 RMK SC6AC2 SLP066

CYQF;2018-02-26 10:00;CYQF 261000Z 28003KT 15SM BKN017 OVC080 M08/M10 A2959 RMK SC6AC2 SLP067

CYQF;2018-02-26 11:00;CYQF 261100Z 26005KT 15SM FEW020 SCT080 BKN250 M08/M10 A2960 RMK SC2AC2CI1 SLP074

CYQF;2018-02-26 12:00;CYQF 261200Z 25003KT 15SM FEW013 SCT100 BKN150 M12/M13 A2963 RMK SC2AC2AC2 SLP088

CYQF;2018-02-26 12:45;CYQF 261245Z 24008KT 10SM -SN SCT015 BKN070 M09/M10 A2964 RMK SC4AC3 SLP090

CYQF;2018-02-26 13:00;CYQF 261300Z 24006KT 10SM -SN SCT017 BKN065 M09/M10 A2965 RMK SC4SC3 SLP093

CYQF;2018-02-26 13:36;CYQF 261336Z VRB02KT 15SM FEW020 OVC065 M12/M13 A2966 RMK SC2SC6 SLP100

CYQF;2018-02-26 14:00;CYQF 261400Z 19003KT 15SM FEW020 BKN073 M12/M13 A2967 RMK SC1AC6 SC TR FROIN SLP101

CYQF;2018-02-26 15:00;CYQF 261500Z 22008KT 15SM SCT083 BKN250 M12/M13 A2968 RMK AC4CI3 SLP108

CYQF;2018-02-26 16:00;CYQF 261600Z 23009KT 15SM BKN077 BKN250 M10/M13 A2970 RMK AC5CI2 SLP112

CYQF;2018-02-26 17:00;CYQF 261700Z 23010KT 15SM FEW080 SCT160 BKN250 M09/M15 A2971 RMK AC1AC2CI2 SLP117

CYQF;2018-02-26 18:00;CYQF 261800Z 23006KT 15SM SCT250 M07/M15 A2973 RMK CI4 SLP121

CYQF;2018-02-26 19:00;CYQF 261900Z 18005KT 15SM SCT250 M05/M14 A2973 RMK CI3 SLP122

CYQF;2018-02-26 20:00;CYQF 262000Z 19006KT 15SM FEW040 FEW080 M03/M14 A2972 RMK CU1AC2 CU TR SLP116

CYQF;2018-02-26 21:00;CYQF 262100Z 17007KT 15SM FEW080 M02/M12 A2970 RMK AC1 SLP110

CYQF;2018-02-26 22:00;CYQF 262200Z 15006KT 15SM FEW080 M02/M10 A2969 RMK AC1 SLP105

CYQF;2018-02-26 23:00;CYQF 262300Z 16007KT 15SM FEW080 M04/M11 A2968 RMK AC1 SLP103

CYQF;2018-02-27 00:00;CYQF 270000Z 16006KT 15SM FEW030 FEW080 M04/M12 A2967 RMK CU1AC1 CU TR AC TR SLP104

CYQF;2018-02-27 01:00;CYQF 270100Z 17003KT 15SM FEW080 M06/M11 A2965 RMK AC1 AC TR SLP096

CYQF;2018-02-27 02:00;CYQF 270200Z 17009KT 15SM FEW080 M08/M14 A2963 RMK AC1 SLP097

CYQF;2018-02-27 03:00;CYQF 270300Z 19008KT 15SM FEW080 M09/M13 A2962 RMK AC1 AC TR SLP094

CYQF;2018-02-27 04:00;CYQF 270400Z 20005KT 15SM SKC M11/M15 A2960 RMK SLP087

CYQF;2018-02-27 05:00;CYQF 270500Z 19009KT 15SM FEW230 M11/M17 A2960 RMK CI1 SLP083

CYQF;2018-02-27 06:00;CYQF 270600Z 24007KT 15SM FEW230 M09/M18 A2957 RMK CI1 SLP071

CYQF;2018-02-27 07:00;CYQF 270700Z 21006KT 15SM BKN180 M11/M18 A2955 RMK AC6 SLP063

CYQF;2018-02-27 08:00;CYQF 270800Z 20007KT 15SM SCT150 BKN250 M11/M19 A2954 RMK AC3CI3 SLP060

CYQF;2018-02-27 09:00;CYQF 270900Z 20008KT 15SM OVC140 M11/M18 A2953 RMK AC8 SLP054

CYQF;2018-02-27 10:00;CYQF 271000Z 19005KT 140V200 15SM OVC120 M12/M18 A2953 RMK AC8 SLP055

CYQF;2018-02-27 11:00;CYQF 271100Z 16003KT 150V240 15SM OVC120 M11/M17 A2954 RMK AC8 SLP060

CYQF;2018-02-27 12:00;CYQF 271200Z 24005KT 15SM OVC085 M09/M15 A2954 RMK AS8 SLP058

CYQF;2018-02-27 13:00;CYQF 271300Z 29013KT 15SM OVC090 M04/M13 A2955 RMK AS8 SLP057

CYQF;2018-02-27 14:00;CYQF 271400Z VRB04KT 15SM OVC042 M05/M10 A2954 RMK SC8 SLP056

CYQF;2018-02-27 15:00;CYQF 271500Z 18009KT 15SM SCT040 BKN075 M07/M11 A2952 RMK SC3AC4 SLP054

CYQF;2018-02-27 16:00;CYQF 271600Z 21005KT 15SM FEW040 SCT075 BKN150 M06/M11 A2952 RMK SC1AC2AC4 SLP055

CYQF;2018-02-27 17:00;CYQF 271700Z 21007KT 15SM BKN150 M03/M13 A2952 RMK AC5 SLP050

CYQF;2018-02-27 18:00;CYQF 271800Z 26012KT 15SM BKN110 BKN250 M01/M13 A2951 RMK AC5CI2 SLP044

CYQF;2018-02-27 19:00;CYQF 271900Z 25010KT 15SM SCT110 BKN250 01/M13 A2951 RMK AC4CI1 SLP042

CYQF;2018-02-27 20:00;CYQF 272000Z 26009KT 15SM FEW040 FEW140 SCT250 01/M12 A2950 RMK CU1AC2CI1 CU TR SLP040

CYQF;2018-02-27 21:00;CYQF 272100Z 27012G18KT 15SM FEW040 FEW140 SCT250 02/M13 A2949 RMK CF1AC2CI1 CF TR SLP034

CYQF;2018-02-27 22:00;CYQF 272200Z 28013KT 15SM FEW040 BKN100 02/M14 A2950 RMK SC2AC4 SLP037

CYQF;2018-02-27 23:00;CYQF 272300Z 30007KT 15SM FEW040 BKN100 01/M12 A2951 RMK SC1AC6 SLP042

CYQF;2018-02-28 00:00;CYQF 280000Z 27009KT 15SM FEW040 BKN120 00/M12 A2953 RMK SC1AC6 VIRGA SLP048

CYQF;2018-02-28 01:00;CYQF 280100Z 28007KT 15SM FEW040 BKN110 M02/M12 A2955 RMK SC1AC5 VIRGA SLP053

CYQF;2018-02-28 02:00;CYQF 280200Z 34003KT 15SM FEW040 BKN110 M02/M12 A2958 RMK SC1AC5 VIRGA SLP064

CYQF;2018-02-28 03:00;CYQF 280300Z 27006KT 250V320 15SM BKN090 M03/M13 A2961 RMK AC6 CIG RAG SLP075

CYQF;2018-02-28 03:29;CYQF 280329Z 24006KT 15SM FEW007 BKN090 M03/M12 A2961 RMK ST2AC5 SLP079

CYQF;2018-02-28 04:00;CYQF 280400Z 23006KT 15SM FEW014 BKN080 M06/M13 A2961 RMK SC1AC5 CIG RAG SLP082

CYQF;2018-02-28 05:00;CYQF 280500Z 23007KT 15SM SCT080 M04/M14 A2963 RMK AC3 SLP080

CYQF;2018-02-28 06:00;CYQF 280600Z 24006KT 15SM FEW090 M10/M17 A2963 RMK AC1 SLP084

CYQF;2018-02-28 07:00;CYQF 280700Z 24008KT 15SM SKC M06/M18 A2964 RMK SLP083

CYQF;2018-02-28 08:00;CYQF 280800Z 23007KT 15SM FEW250 M11/M20 A2965 RMK CI2 SLP093

CYQF;2018-02-28 09:00;CYQF 280900Z 21006KT 15SM FEW250 M14/M21 A2966 RMK CI1 SLP095

CYQF;2018-02-28 10:00;CYQF 281000Z 19005KT 15SM SKC M17/M23 A2966 RMK SLP098

CYQF;2018-02-28 11:00;CYQF 281100Z 21004KT 15SM FEW100 M12/M19 A2966 RMK AC2 SLP094

CYQF;2018-02-28 12:00;CYQF 281200Z 20004KT 15SM FEW100 M17/M22 A2966 RMK AC2 SLP102

CYQF;2018-02-28 13:00;CYQF 281300Z 20010KT 15SM FEW100 FEW250 M15/M21 A2967 RMK AC1CI1 SLP107

CYQF;2018-02-28 14:00;CYQF 281400Z 20007KT 15SM SCT110 BKN250 M17/M22 A2969 RMK AC4CI1 SLP113

CYQF;2018-02-28 15:00;CYQF 281500Z 20005KT 15SM FEW120 SCT250 M19/M24 A2970 RMK AC2CI1 SLP120

CYQF;2018-02-28 16:00;CYQF 281600Z 20005KT 15SM FEW250 M17/M22 A2970 RMK CI2 SLP125

CYQF;2018-02-28 17:00;CYQF 281700Z 20006KT 15SM FEW250 M12/M19 A2972 RMK CI1 SLP123

CYQF;2018-02-28 18:00;CYQF 281800Z 21006KT 15SM FEW250 M08/M17 A2973 RMK CI2 SLP129

CYQF;2018-02-28 19:00;CYQF 281900Z 19004KT 15SM FEW250 M05/M16 A2974 RMK CI2 SLP124

CYQF;2018-02-28 20:00;CYQF 282000Z 05004KT 040V180 15SM FEW040 FEW250 M04/M14 A2974 RMK CU1CI2 CU TR SLP130

CYQF;2018-02-28 21:00;CYQF 282100Z 09002KT 15SM FEW040 FEW250 M03/M13 A2974 RMK CU1CI2 CU TR SLP130

CYQF;2018-02-28 22:00;CYQF 282200Z 12005KT 15SM FEW050 FEW250 M01/M13 A2973 RMK CU1CI1 CU TR SLP130

CYQF;2018-02-28 23:00;CYQF 282300Z 14007KT 15SM FEW050 FEW250 M01/M13 A2975 RMK CU1CI1 CU TR SLP129

CYQF;2018-03-01 00:00;CYQF 010000Z 13007KT 15SM SCT250 M03/M13 A2976 RMK CI3 SLP139

CYQF;2018-03-01 01:00;CYQF 010100Z 12005KT 15SM FEW140 BKN250 M04/M15 A2976 RMK AC1CI4 SLP140

CYQF;2018-03-01 02:00;CYQF 010200Z 11003KT 060V130 15SM BKN200 M08/M16 A2977 RMK CI5 SLP148

CYQF;2018-03-01 03:00;CYQF 010300Z 15005KT 15SM SCT150 BKN200 M08/M15 A2978 RMK AC3CI3 SLP155

CYQF;2018-03-01 04:00;CYQF 010400Z VRB02KT 15SM BKN140 OVC250 M07/M15 A2979 RMK AC5CI3 SLP155

CYQF;2018-03-01 05:00;CYQF 010500Z 09005KT 15SM BKN150 OVC250 M08/M15 A2980 RMK AC6CI2 SLP153

CYQF;2018-03-01 06:00;CYQF 010600Z 00000KT 15SM OVC150 M07/M15 A2980 RMK AS8 SLP149

CYQF;2018-03-01 06:59;CYQF 010659Z 15006KT 15SM OVC150 M08/M14 A2979 RMK AS8 SLP147

CYQF;2018-03-01 07:00;CYQF 010700Z 14007KT 15SM OVC150 M08/M14 A2979 RMK AS8 SLP144

CYQF;2018-03-01 08:00;CYQF 010800Z 15007KT 130V240 15SM OVC150 M08/M14 A2979 RMK AS8 SLP143

CYQF;2018-03-01 09:00;CYQF 010900Z 19004KT 130V210 15SM SCT140 OVC200 M08/M14 A2980 RMK AC3CI5 SLP144

CYQF;2018-03-01 10:00;CYQF 011000Z VRB02KT 15SM OVC120 M09/M14 A2980 RMK AC8 SLP142

CYQF;2018-03-01 11:00;CYQF 011100Z 13003KT 080V150 15SM OVC150 M09/M13 A2980 RMK AC8 SLP141

CYQF;2018-03-01 12:00;CYQF 011200Z 08007KT 15SM SCT160 M10/M14 A2980 RMK AC4 SLP148

CYQF;2018-03-01 13:00;CYQF 011300Z 23003KT 070V240 15SM SCT150 M12/M16 A2982 RMK AC3 SLP159

CYQF;2018-03-01 14:00;CYQF 011400Z 00000KT 15SM FEW150 BKN250 M12/M15 A2983 RMK AC2CI4 SLP166

CYQF;2018-03-01 15:00;CYQF 011500Z 18004KT 15SM BKN090 BKN140 M11/M14 A2985 RMK AC6AC1 SLP172

CYQF;2018-03-01 16:00;CYQF 011600Z 12004KT 070V140 10SM SCT064 OVC090 M09/M12 A2987 RMK SC4AC4 SLP174

CYQF;2018-03-01 17:00;CYQF 011700Z 08003KT 040V160 10SM FEW050 OVC070 M08/M12 A2989 RMK SC2AS6 VIRGA SLP182

CYQF;2018-03-01 18:00;CYQF 011800Z 12007KT 15SM FEW050 OVC070 M06/M11 A2990 RMK SC2AS6 VIRGA SLP184

CYQF;2018-03-01 19:00;CYQF 011900Z 08009KT 15SM FEW042 BKN250 M06/M10 A2991 RMK SC2CI3 SLP186

CYQF;2018-03-01 20:00;CYQF 012000Z 09012KT 15SM FEW060 SCT250 M04/M11 A2990 RMK SC1CI3 SLP183

CYQF;2018-03-01 21:00;CYQF 012100Z 10014G20KT 15SM FEW068 SCT100 BKN250 M04/M13 A2992 RMK AC2AC2CI2 SLP187

CYQF;2018-03-01 22:00;CYQF 012200Z 10010G16KT 15SM BKN051 OVC065 M04/M11 A2994 RMK SC6SC2 SLP194

CYQF;2018-03-01 23:00;CYQF 012300Z 10013KT 15SM OVC041 M04/M10 A2994 RMK SC8 SLP196

CYQF;2018-03-02 00:00;CYQF 020000Z 08013G18KT 15SM FEW014 BKN060 M05/M09 A2994 RMK SF1SC6 SLP196

CYQF;2018-03-02 01:00;CYQF 020100Z 09018G25KT 15SM FEW014 BKN076 M05/M09 A2995 RMK SC1AC6 SLP204

CYQF;2018-03-02 01:49;CYQF 020149Z 10011G17KT 15SM -SN FEW016 OVC060 M06/M09 A2997 RMK SC2SC6 SLP212

CYQF;2018-03-02 02:00;CYQF 020200Z 10013KT 15SM -SN SCT016 OVC060 M06/M09 A2997 RMK SC3SC5 SLP212

CYQF;2018-03-02 03:00;CYQF 020300Z 12015G21KT 15SM -SN SCT016 OVC070 M06/M09 A2999 RMK SC4AC4 SLP216

CYQF;2018-03-02 04:00;CYQF 020400Z 09009KT 15SM -SN SCT014 OVC060 M07/M09 A3000 RMK SC3SC5 SLP220

CYQF;2018-03-02 05:00;CYQF 020500Z 08009KT 15SM -SN BKN014 OVC060 M07/M10 A3001 RMK SC6SC2 SLP222

CYQF;2018-03-02 05:49;CYQF 020549Z 09014KT 3SM -SN OVC014 M08/M10 A3001 RMK SC8 SLP224

CYQF;2018-03-02 06:00;CYQF 020600Z 09012G19KT 2SM -SN OVC014 M08/M10 A3001 RMK SN4SC4 VIS VRB 11/2-21/2 SLP223

CYQF;2018-03-02 06:38;CYQF 020638Z 09005KT 3SM -SN OVC018 M08/M10 A3001 RMK SC8 SLP222

CYQF;2018-03-02 07:00;CYQF 020700Z 06006KT 3SM -SN OVC015 M09/M10 A3001 RMK SC8 SLP220

CYQF;2018-03-02 07:40;CYQF 020740Z 07009KT 2SM -SN OVC020 M09/M11 A3000 RMK SN3SC5 SLP218

CYQF;2018-03-02 08:00;CYQF 020800Z 08010KT 2SM -SN OVC030 M10/M12 A2999 RMK SN3SC5 SLP215

CYQF;2018-03-02 08:49;CYQF 020849Z 08013KT 6SM -SN OVC020 M10/M12 A2999 RMK SC8 SLP213

CYQF;2018-03-02 09:00;CYQF 020900Z 08011G16KT 5SM -SN OVC021 M10/M13 A2999 RMK SC8 SLP212

CYQF;2018-03-02 10:00;CYQF 021000Z 09010G16KT 3SM -SN OVC022 M10/M14 A2999 RMK SN2SC6 SLP213

CYQF;2018-03-02 11:00;CYQF 021100Z 07013KT 6SM -SN OVC018 M12/M14 A2996 RMK SC8 SLP205

CYQF;2018-03-02 12:00;CYQF 021200Z 07013KT 8SM -SN OVC018 M11/M15 A2996 RMK SC8 /S01/ SLP205

CYQF;2018-03-02 13:00;CYQF 021300Z 07008KT 10SM -SN OVC017 M12/M15 A2996 RMK SC8 SLP206

CYQF;2018-03-02 13:46;CYQF 021346Z 06006KT 2SM -SN OVC019 M12/M15 A2996 RMK SN2SC6 SLP206

CYQF;2018-03-02 14:00;CYQF 021400Z 08005KT 2SM -SN OVC018 M12/M14 A2997 RMK SN4SC4 SLP210

CYQF;2018-03-02 14:50;CYQF 021450Z 07008KT 6SM -SN OVC019 M12/M14 A2996 RMK SC8 SLP207

CYQF;2018-03-02 15:00;CYQF 021500Z 08008KT 6SM -SN OVC019 M12/M14 A2996 RMK SC8 SLP207

CYQF;2018-03-02 16:00;CYQF 021600Z 07009KT 3SM -SN OVC016 M12/M14 A2995 RMK SC8 SLP207

CYQF;2018-03-02 17:00;CYQF 021700Z 06009KT 3SM -SN OVC020 M11/M14 A2994 RMK SC8 SLP203

CYQF;2018-03-02 18:00;CYQF 021800Z 06011KT 3SM -SN OVC022 M11/M14 A2995 RMK SC8 SLP205

CYQF;2018-03-02 19:00;CYQF 021900Z 07009KT 3SM -SN OVC022 M10/M12 A2995 RMK SC8 SLP204

CYQF;2018-03-02 19:28;CYQF 021928Z 09009KT 2SM -SN VV015 M09/M11 A2994 RMK SN8 SLP202

CYQF;2018-03-02 20:00;CYQF 022000Z 09009KT 2SM -SN VV020 M08/M11 A2994 RMK SN8 SLP201

CYQF;2018-03-02 21:00;CYQF 022100Z 09008KT 2SM -SN VV021 M08/M10 A2993 RMK SN8 SLP198

CYQF;2018-03-02 22:00;CYQF 022200Z 10009KT 2SM -SN VV025 M08/M10 A2993 RMK SN8 SLP197

CYQF;2018-03-02 22:44;CYQF 022244Z 09010KT 1SM -SN VV020 M08/M10 A2993 RMK SN8 VIS VRB 1/2-11/2 SLP199

CYQF;2018-03-02 23:00;CYQF 022300Z 09011KT 1SM -SN VV020 M08/M10 A2994 RMK SN8 VIS VRB 1/2-11/2 SLP202

CYQF;2018-03-03 00:00;CYQF 030000Z 08009KT 3/4SM -SN VV015 M08/M10 A2995 RMK SN8 1/2-1 /S01/ SLP206

CYQF;2018-03-03 01:00;CYQF 030100Z 08007KT 1SM -SN VV021 M09/M10 A2996 RMK SN8 VIS VRB 1/2-11/2 SLP211

CYQF;2018-03-03 02:00;CYQF 030200Z 06009KT 1 1/2SM -SN VV018 M09/M11 A2997 RMK SN8 VIS VRB 1-2 SLP214

CYQF;2018-03-03 03:00;CYQF 030300Z 07011KT 1 1/2SM -SN VV018 M10/M11 A2997 RMK SN8 VIS VRB 1 1/4- 2 SLP216

CYQF;2018-03-03 04:00;CYQF 030400Z 07011KT 1 1/2SM -SN VV022 M10/M12 A2997 RMK SN8 VIS VRB 1 1/4-2 1/2 /S01/ SLP216

CYQF;2018-03-03 05:00;CYQF 030500Z 07009KT 2SM -SN VV028 M10/M12 A2997 RMK SN8 SLP215

CYQF;2018-03-03 06:00;CYQF 030600Z 05009KT 1 1/2SM -SN VV017 M11/M13 A2997 RMK SN8 VIS VRB 1-2 SLP216

CYQF;2018-03-03 07:00;CYQF 030700Z 04009KT 1 1/2SM -SN VV017 M11/M13 A2996 RMK SN8 SLP211

CYQF;2018-03-03 08:00;CYQF 030800Z 02011KT 1 1/2SM -SN VV022 M11/M13 A2995 RMK SN8 /S01/ SLP206

CYQF;2018-03-03 09:00;CYQF 030900Z 01008KT 1SM -SN VV014 M11/M13 A2994 RMK SN8 SLP203

CYQF;2018-03-03 10:00;CYQF 031000Z 36009KT 1SM -SN VV014 M12/M14 A2993 RMK SN8 SLP201

CYQF;2018-03-03 11:00;CYQF 031100Z 36010KT 2SM -SN VV020 M12/M14 A2991 RMK SN8 /S02/ SLP195

CYQF;2018-03-03 12:00;CYQF 031200Z 35009KT 1 1/2SM -SN VV019 M12/M14 A2992 RMK SN8 SLP198

CYQF;2018-03-03 12:30;CYQF 031230Z 35009KT 3SM -SN OVC020 M12/M14 A2992 RMK SN4SC4 SLP199

CYQF;2018-03-03 13:00;CYQF 031300Z 35010KT 3SM -SN OVC025 M12/M14 A2992 RMK SC8 SLP198

CYQF;2018-03-03 14:00;CYQF 031400Z 34009KT 2 1/2SM -SN SCT024 VV060 M12/M14 A2991 RMK SC3SN5 SLP195

CYQF;2018-03-03 15:00;CYQF 031500Z 33011KT 3SM -SN SCT024 OVC079 M12/M15 A2991 RMK SC3AC5 SLP196

CYQF;2018-03-03 16:00;CYQF 031600Z 35012KT 2SM -SN VV020 M12/M14 A2991 RMK SN8 SLP197

CYQF;2018-03-03 17:00;CYQF 031700Z 32011KT 2 1/2SM -SN DRSN OVC043 M12/M14 A2993 RMK SN3SC5 SLP202

CYQF;2018-03-03 17:52;CYQF 031752Z 32010KT 3SM -SN DRSN FEW030 BKN080 BKN250 M11/M14 A2993 RMK SC2AC3CI2 SLP203

CYQF;2018-03-03 18:00;CYQF 031800Z 32010KT 3SM -SN DRSN SCT030 BKN080 BKN250 M11/M14 A2994 RMK SC3AC2CI2 SLP205

CYQF;2018-03-03 18:38;CYQF 031838Z 32012KT 2SM -SN DRSN BKN030 BKN100 OVC250 M11/M14 A2994 RMK SC5AC2CI1 SLP206

CYQF;2018-03-03 19:00;CYQF 031900Z 32010KT 2SM -SN DRSN BKN030 OVC100 M11/M14 A2995 RMK SC6AC2 SLP208

CYQF;2018-03-03 20:00;CYQF 032000Z 32012G18KT 3SM -SN DRSN SCT030 BKN250 M11/M15 A2994 RMK SC3CI3 SLP207

CYQF;2018-03-03 21:00;CYQF 032100Z 30009KT 7SM -SN DRSN FEW020 BKN060 BKN250 M10/M14 A2995 RMK CU2SC3CI1 SLP209

CYQF;2018-03-03 22:00;CYQF 032200Z 32009KT 4SM -SN DRSN BKN020 OVC038 M09/M13 A2995 RMK SC5SC3 VIS S 2 SLP209

CYQF;2018-03-03 23:00;CYQF 032300Z 33009G15KT 6SM -SN DRSN SCT020 OVC070 M10/M15 A2997 RMK SC3AC5 VIS S 3 SLP216

CYQF;2018-03-04 00:00;CYQF 040000Z 33008KT 10SM -SN OVC070 M10/M15 A2999 RMK AC8 SLP225

CYQF;2018-03-04 01:00;CYQF 040100Z 33008KT 15SM -SN OVC060 M11/M15 A3000 RMK SC8 SLP228

CYQF;2018-03-04 01:31;CYQF 040131Z 32007KT 10SM OVC090 M11/M15 A3001 RMK AC8 SLP232

CYQF;2018-03-04 02:00;CYQF 040200Z 33005KT 15SM OVC090 M11/M15 A3002 RMK AC8 SLP237

CYQF;2018-03-04 03:00;CYQF 040300Z 28007KT 10SM OVC060 M11/M15 A3004 RMK SC8 SLP244

CYQF;2018-03-04 03:09;CYQF 040309Z 28006KT 8SM -SN OVC060 M11/M15 A3004 RMK SC8 SLP244

CYQF;2018-03-04 04:00;CYQF 040400Z 28006KT 10SM -SN OVC042 M11/M15 A3005 RMK SC8 SLP247

CYQF;2018-03-04 05:00;CYQF 040500Z 27007KT 10SM -SN OVC040 M12/M15 A3006 RMK SC8 SLP248

CYQF;2018-03-04 06:00;CYQF 040600Z 26005KT 10SM -SN OVC050 M12/M15 A3006 RMK SC8 SLP250

CYQF;2018-03-04 07:00;CYQF 040700Z 27007KT 12SM -SN SCT050 BKN080 M12/M15 A3006 RMK SC3AC4 SLP250

CYQF;2018-03-04 07:45;CYQF 040745Z 27006KT 15SM FEW050 SCT080 BKN270 M13/M16 A3007 RMK SC2AC2CI2 SLP253

CYQF;2018-03-04 08:00;CYQF 040800Z 28006KT 15SM SCT080 BKN270 M13/M16 A3007 RMK AC4CI3 SLP253

CYQF;2018-03-04 09:00;CYQF 040900Z 29010KT 15SM -SN BKN080 M13/M16 A3008 RMK AC6 SLP256

CYQF;2018-03-04 10:00;CYQF 041000Z 28007KT 15SM -SN BKN080 M13/M16 A3009 RMK AC7 SLP257

CYQF;2018-03-04 11:00;CYQF 041100Z 28008KT 6SM -SN BKN080 M13/M16 A3009 RMK AC7 SLP260

CYQF;2018-03-04 12:00;CYQF 041200Z 29008KT 6SM -SN BKN080 M14/M16 A3009 RMK AC7 SLP261

CYQF;2018-03-04 13:00;CYQF 041300Z 29007KT 6SM -SN OVC075 M14/M16 A3010 RMK AC8 SLP263

CYQF;2018-03-04 14:00;CYQF 041400Z 28007KT 6SM -SN SCT030 OVC090 M14/M17 A3010 RMK SC3AC5 SLP266

CYQF;2018-03-04 14:17;CYQF 041417Z 29007KT 8SM FEW030 BKN090 M15/M18 A3010 RMK SC2AC4 SLP267

CYQF;2018-03-04 15:00;CYQF 041500Z 27007KT 15SM SCT090 BKN140 M15/M18 A3011 RMK AC3AC3 SLP271

CYQF;2018-03-04 16:00;CYQF 041600Z 29006KT 260V320 15SM FEW090 SCT150 BKN250 M15/M19 A3013 RMK AC2AC1CI2 SLP279

CYQF;2018-03-04 17:00;CYQF 041700Z 29004KT 15SM BKN250 M16/M19 A3014 RMK CI6 SLP282

CYQF;2018-03-04 18:00;CYQF 041800Z 28004KT 240V320 15SM BKN200 M14/M18 A3015 RMK CI6 SLP282

CYQF;2018-03-04 19:00;CYQF 041900Z 30004KT 15SM SCT200 M13/M18 A3015 RMK CI4 SLP282

CYQF;2018-03-04 20:00;CYQF 042000Z 00000KT 15SM SCT200 M12/M18 A3014 RMK CI3 SLP279

CYQF;2018-03-04 21:00;CYQF 042100Z 28003KT 15SM SCT200 M12/M17 A3013 RMK CI4 SLP275

CYQF;2018-03-04 22:00;CYQF 042200Z 27005KT 15SM SCT210 M12/M17 A3012 RMK CI3 SLP272

CYQF;2018-03-04 23:00;CYQF 042300Z 28004KT 15SM FEW210 M11/M17 A3013 RMK CI2 SLP274

CYQF;2018-03-05 00:00;CYQF 050000Z 00000KT 15SM SCT210 M12/M18 A3013 RMK CI3 SLP275

CYQF;2018-03-05 01:00;CYQF 050100Z 18003KT 15SM SCT250 M13/M18 A3014 RMK CI3 SLP280

CYQF;2018-03-05 02:00;CYQF 050200Z 17003KT 15SM SCT250 M17/M19 A3015 RMK CI3 SLP291

CYQF;2018-03-05 03:00;CYQF 050300Z 19003KT 15SM FEW250 M21/M24 A3016 RMK CI2 SLP298

CYQF;2018-03-05 04:00;CYQF 050400Z 28003KT 190V280 15SM FEW250 M19/M21 A3015 RMK CI2 SLP294

CYQF;2018-03-05 05:00;CYQF 050500Z 22003KT 15SM FEW250 M20/M22 A3015 RMK CI2 SLP294

CYQF;2018-03-05 06:00;CYQF 050600Z 19005KT 15SM SKC M23/M26 A3014 RMK SLP292

CYQF;2018-03-05 07:00;CYQF 050700Z 23004KT 15SM SKC M21/M23 A3013 RMK SLP286

CYQF;2018-03-05 08:00;CYQF 050800Z 22005KT 15SM SKC M24/M26 A3013 RMK SLP290

CYQF;2018-03-05 09:00;CYQF 050900Z 22006KT 15SM SKC M26/M28 A3013 RMK SLP289

CYQF;2018-03-05 10:00;CYQF 051000Z 24004KT 15SM SKC M24/M27 A3011 RMK SLP283

CYQF;2018-03-05 11:00;CYQF 051100Z 19003KT 15SM SKC M28/M31 A3011 RMK SLP287

CYQF;2018-03-05 12:00;CYQF 051200Z 20005KT 15SM SKC M28/M31 A3012 RMK SLP291

CYQF;2018-03-05 13:00;CYQF 051300Z 23004KT 15SM SKC M27/M30 A3012 RMK SLP290

CYQF;2018-03-05 14:00;CYQF 051400Z 22006KT 15SM SKC M26/M29 A3012 RMK SLP294

CYQF;2018-03-05 14:16;CYQF 051416Z 21004KT 12SM SCT001 M27/M30 A3012 RMK SF3 SLP294

CYQF;2018-03-05 14:22;CYQF 051422Z 21004KT 12SM BKN001 M27/M30 A3012 RMK SF7 SLP294

CYQF;2018-03-05 15:00;CYQF 051500Z 22005KT 12SM FEW001 SCT250 M26/M29 A3012 RMK SF2CI1 SLP298

CYQF;2018-03-05 16:00;CYQF 051600Z 19005KT 12SM FEW060 FEW250 M24/M27 A3012 RMK SC1CI1 SC TR CI TR SLP294

CYQF;2018-03-05 17:00;CYQF 051700Z CCA 21004KT 12SM FEW250 M21/M24 A3013 RMK CI2 SLP295

CYQF;2018-03-05 18:00;CYQF 051800Z 18005KT 12SM FEW250 M18/M20 A3012 RMK CI2 SLP293

CYQF;2018-03-05 19:00;CYQF 051900Z 17005KT 12SM FEW080 M16/M18 A3012 RMK AC2 SLP285

CYQF;2018-03-05 20:00;CYQF 052000Z 17005KT 15SM FEW080 M14/M16 A3011 RMK AC1 AC TR SLP285

CYQF;2018-03-05 21:00;CYQF 052100Z 16005KT 15SM FEW080 M12/M16 A3010 RMK AC1 AC TR SLP282

CYQF;2018-03-05 22:00;CYQF 052200Z 17005KT 15SM FEW080 M11/M16 A3010 RMK AC1 AC TR SLP278

CYQF;2018-03-05 23:00;CYQF 052300Z 19004KT 15SM FEW080 M11/M16 A3011 RMK AC1 AC TR SLP285

CYQF;2018-03-06 00:00;CYQF 060000Z 19003KT 15SM FEW250 M11/M16 A3012 RMK CI2 SLP289

CYQF;2018-03-06 01:00;CYQF 060100Z 19004KT 15SM FEW120 M12/M16 A3013 RMK AC1 AC TR SLP292

CYQF;2018-03-06 02:00;CYQF 060200Z 17005KT 15SM FEW120 M17/M21 A3013 RMK AC1 AC TR SLP299

CYQF;2018-03-06 03:00;CYQF 060300Z 21005KT 15SM FEW070 M15/M17 A3014 RMK AC1 AC TR SLP300

CYQF;2018-03-06 04:00;CYQF 060400Z 20004KT 15SM FEW070 SCT250 M19/M21 A3016 RMK AC1CI3 AC TR SLP308

CYQF;2018-03-06 05:00;CYQF 060500Z 20005KT 15SM FEW070 SCT250 M18/M20 A3017 RMK AC1CI2 SLP308

CYQF;2018-03-06 06:00;CYQF 060600Z 18004KT 15SM SCT070 BKN250 M19/M21 A3019 RMK AC3CI2 SLP310

CYQF;2018-03-06 07:00;CYQF 060700Z 21003KT 15SM FEW070 M20/M23 A3020 RMK AC2 SLP314

CYQF;2018-03-06 08:00;CYQF 060800Z 20003KT 15SM FEW070 M20/M22 A3022 RMK AC1 FROIN SLP317

CYQF;2018-03-06 09:00;CYQF 060900Z 20004KT 15SM FEW070 M24/M26 A3022 RMK AC1 FROIN SLP322

CYQF;2018-03-06 10:00;CYQF 061000Z 22002KT 15SM FEW070 M25/M27 A3023 RMK AC2 FROIN SLP325

CYQF;2018-03-06 11:00;CYQF 061100Z 21004KT 15SM FEW070 M25/M28 A3025 RMK AC1 FROIN SLP330

CYQF;2018-03-06 12:00;CYQF 061200Z 25002KT 15SM SKC M23/M25 A3027 RMK FROIN SLP334

CYQF;2018-03-06 13:00;CYQF 061300Z 19003KT 170V260 15SM SKC M23/M26 A3028 RMK FROIN SLP340

CYQF;2018-03-06 14:00;CYQF 061400Z 21006KT 12SM BKN002 M27/M30 A3029 RMK SF5 VIS W 6 SLP353

CYQF;2018-03-06 14:41;CYQF 061441Z 20005KT 3SM BR SCT001 M25/M28 A3029 RMK SF4 SLP352

CYQF;2018-03-06 15:00;CYQF 061500Z 21005KT 6SM BR SCT002 M24/M27 A3029 RMK SF3 VIS S 12 SLP350

CYQF;2018-03-06 15:17;CYQF 061517Z 21004KT 12SM BKN003 M25/M28 A3030 RMK SF7 SLP351

CYQF;2018-03-06 15:46;CYQF 061546Z 21006KT 15SM FEW003 M23/M26 A3029 RMK SF2 SLP348

CYQF;2018-03-06 16:00;CYQF 061600Z 24004KT 15SM FEW003 FEW250 M22/M24 A3030 RMK SF1CI1 SLP352

CYQF;2018-03-06 17:00;CYQF 061700Z 17002KT 15SM SCT250 M20/M23 A3029 RMK CI3 SLP348

CYQF;2018-03-06 17:17;CYQF 061717Z 00000KT 8SM IC SCT250 M19/M22 A3029 RMK CI3 SLP344

CYQF;2018-03-06 18:00;CYQF 061800Z 21002KT 15SM FEW250 M18/M21 A3027 RMK CI1 SLP339

CYQF;2018-03-06 19:00;CYQF 061900Z VRB02KT 10SM FEW100 FEW250 M15/M17 A3026 RMK AC1CI1 SLP333

CYQF;2018-03-06 20:00;CYQF 062000Z 03003KT 15SM FEW100 M13/M16 A3023 RMK AC2 SLP320

CYQF;2018-03-06 21:00;CYQF 062100Z 10004KT 15SM SCT100 M09/M16 A3020 RMK AC3 SLP309

CYQF;2018-03-06 22:00;CYQF 062200Z 15011KT 15SM SCT100 M09/M16 A3020 RMK AC3 SLP311

CYQF;2018-03-06 23:00;CYQF 062300Z 13007KT 15SM SCT080 M09/M16 A3020 RMK AC3 SLP311

CYQF;2018-03-07 00:00;CYQF 070000Z 13006KT 15SM SKC M11/M16 A3019 RMK SLP306

CYQF;2018-03-07 01:00;CYQF 070100Z VRB02KT 15SM SKC M13/M18 A3018 RMK SLP307

CYQF;2018-03-07 02:00;CYQF 070200Z 10003KT 15SM FEW250 M15/M19 A3019 RMK CI1 CI TR SLP316

CYQF;2018-03-07 03:00;CYQF 070300Z 14003KT 15SM FEW250 M15/M18 A3017 RMK CI1 CI TR SLP307

CYQF;2018-03-07 04:00;CYQF 070400Z 18003KT 15SM SCT250 M16/M18 A3016 RMK CI3 SLP302

CYQF;2018-03-07 05:00;CYQF 070500Z 19004KT 15SM SKC M18/M20 A3016 RMK SLP301

CYQF;2018-03-07 06:00;CYQF 070600Z 21002KT 10SM SKC M21/M24 A3016 RMK SLP302

CYQF;2018-03-07 07:00;CYQF 070700Z 19003KT 10SM SKC M24/M26 A3015 RMK FROIN SLP300

CYQF;2018-03-07 08:00;CYQF 070800Z 22005KT 10SM SKC M22/M25 A3015 RMK FROIN SLP297

CYQF;2018-03-07 08:41;CYQF 070841Z 18003KT 6SM BR FEW010 M25/M28 A3015 RMK SF2 SLP299

CYQF;2018-03-07 08:52;CYQF 070852Z 17002KT 6SM BR BKN001 BKN010 M25/M28 A3014 RMK SF5SF1 SLP297

CYQF;2018-03-07 09:00;CYQF 070900Z 17002KT 6SM BR OVC001 M24/M27 A3014 RMK ST8 FROIN SLP288

CYQF;2018-03-07 10:00;CYQF 071000Z 20006KT 6SM BR BKN001 M27/M30 A3013 RMK ST7 FROIN SLP289

CYQF;2018-03-07 11:00;CYQF 071100Z 22005KT 6SM BR OVC001 M23/M26 A3013 RMK ST8 FROIN SLP283

CYQF;2018-03-07 11:39;CYQF 071139Z 20003KT 10SM SCT001 OVC150 M23/M26 A3012 RMK ST4AC4 SLP281

CYQF;2018-03-07 12:00;CYQF 071200Z 21005KT 10SM SCT001 OVC150 M22/M25 A3012 RMK ST3AC5 SLP283

CYQF;2018-03-07 13:00;CYQF 071300Z 19005KT 12SM FEW002 OVC140 M21/M24 A3012 RMK ST1AC7 SLP282

CYQF;2018-03-07 14:00;CYQF 071400Z 22003KT 10SM FEW005 OVC130 M21/M23 A3011 RMK ST1AC7 SLP284

CYQF;2018-03-07 15:00;CYQF 071500Z 26002KT 8SM FEW003 BKN250 M21/M24 A3010 RMK ST1CI6 BR PARHELIA SLP280

CYQF;2018-03-07 16:00;CYQF 071600Z 19002KT 8SM FEW003 BKN250 M21/M23 A3010 RMK ST2CI5 BR SLP280

CYQF;2018-03-07 17:00;CYQF 071700Z 20004KT 6SM BR FEW004 BKN240 M18/M20 A3010 RMK ST1CI6 SLP277

CYQF;2018-03-07 18:00;CYQF 071800Z 19003KT 8SM FEW004 BKN220 M15/M18 A3008 RMK ST1CI6 BR SLP273

CYQF;2018-03-07 19:00;CYQF 071900Z VRB02KT 6SM BR FEW004 BKN200 M12/M17 A3007 RMK SF1CI5 SLP267

CYQF;2018-03-07 20:00;CYQF 072000Z 18004KT 10SM FEW004 BKN200 M11/M16 A3005 RMK SF1CI4 SLP257

CYQF;2018-03-07 21:00;CYQF 072100Z 18003KT 15SM FEW004 SCT210 M10/M15 A3003 RMK ST1CI3 ST TR SLP251

CYQF;2018-03-07 22:00;CYQF 072200Z 18003KT 12SM SCT250 M09/M15 A3002 RMK CI3 SLP248

CYQF;2018-03-07 23:00;CYQF 072300Z 00000KT 12SM FEW250 M08/M15 A3000 RMK CI2 SLP239

CYQF;2018-03-08 00:00;CYQF 080000Z 00000KT 15SM FEW250 M09/M15 A3000 RMK CI2 SLP237

CYQF;2018-03-08 01:00;CYQF 080100Z 00000KT 15SM SCT250 M09/M14 A3000 RMK CI3 SLP238

CYQF;2018-03-08 02:00;CYQF 080200Z 17005KT 15SM FEW080 SCT250 M10/M15 A3001 RMK AC2CI2 SLP243

CYQF;2018-03-08 03:00;CYQF 080300Z 18004KT 15SM BKN072 M13/M16 A3001 RMK AC7 SLP246

CYQF;2018-03-08 04:00;CYQF 080400Z 20007KT 15SM BKN072 M13/M16 A3001 RMK AC7 SLP244

CYQF;2018-03-08 05:00;CYQF 080500Z 20005KT 15SM BKN070 M14/M17 A3002 RMK AC7 SLP245

CYQF;2018-03-08 06:00;CYQF 080600Z 18004KT 15SM BKN074 M15/M18 A3000 RMK AC5 SLP238

CYQF;2018-03-08 07:00;CYQF 080700Z 21004KT 15SM FEW070 M14/M16 A3000 RMK AC2 FROIN SLP230

CYQF;2018-03-08 08:00;CYQF 080800Z 00000KT 15SM FEW070 M17/M19 A2999 RMK AC1 FROIN SLP229

CYQF;2018-03-08 09:00;CYQF 080900Z 20003KT 10SM FEW070 M20/M22 A2997 RMK AC2 SLP223

CYQF;2018-03-08 10:00;CYQF 081000Z 19002KT 8SM FEW070 M20/M22 A2994 RMK AC1 SLP215

CYQF;2018-03-08 10:08;CYQF 081008Z 20004KT 5SM BR FEW070 M17/M19 A2995 RMK AC1 SLP213

CYQF;2018-03-08 11:00;CYQF 081100Z 19004KT 5SM BR FEW250 M19/M21 A2993 RMK CI1 FROIN SLP209

CYQF;2018-03-08 12:00;CYQF 081200Z 19005KT 5SM BR SCT250 M17/M20 A2991 RMK CI3 FROIN SLP201

CYQF;2018-03-08 13:00;CYQF 081300Z 18005KT 10SM FEW250 M16/M18 A2989 RMK CI1 FROIN SLP190

CYQF;2018-03-08 13:46;CYQF 081346Z 19005KT 2 1/2SM BR FEW250 M18/M21 A2986 RMK CI1 SLP185

CYQF;2018-03-08 14:00;CYQF 081400Z 19004KT 2SM BR SCT250 M20/M23 A2986 RMK CI3 SLP187

CYQF;2018-03-08 15:00;CYQF 081500Z 16008KT 2SM BR BKN250 M17/M19 A2983 RMK CI5 SLP177

CYQF;2018-03-08 16:00;CYQF 081600Z 15006KT 2SM BR BKN250 M16/M18 A2980 RMK FG2CI4 SLP165

CYQF;2018-03-08 17:00;CYQF 081700Z 14011KT 2 1/2SM BR SCT140 BKN230 M14/M15 A2978 RMK FG1AC2CI3 SLP156

CYQF;2018-03-08 18:00;CYQF 081800Z 14010KT 3SM BR SCT140 BKN250 M12/M14 A2975 RMK FG1AC3CI3 SLP145

CYQF;2018-03-08 19:00;CYQF 081900Z 15018KT 3SM BR FEW140 BKN250 M10/M11 A2972 RMK AC1CI6 SLP131

CYQF;2018-03-08 20:00;CYQF 082000Z 14015KT 3SM DRSN BR SCT014 BKN120 BKN250 M10/M13 A2968 RMK SC3AC2CI2 SLP123

CYQF;2018-03-08 21:00;CYQF 082100Z 16010KT 3SM BR SCT014 OVC090 M10/M13 A2965 RMK SC3AC5 SLP113

CYQF;2018-03-08 22:00;CYQF 082200Z 15010KT 3SM BR FEW015 OVC080 M09/M12 A2962 RMK SC2AS6 SLP104

CYQF;2018-03-08 23:00;CYQF 082300Z 15014G19KT 3SM BR BKN080 OVC250 M10/M12 A2961 RMK FG2AC5CI1 SLP097

CYQF;2018-03-08 23:19;CYQF 082319Z 15016KT 3SM BR FEW009 BKN080 OVC250 M10/M12 A2960 RMK SF2AC4CI2 SLP095

CYQF;2018-03-08 23:34;CYQF 082334Z 15014G19KT 3SM BR BKN010 BKN080 OVC250 M10/M12 A2960 RMK SF6AC1CI1 SLP094

CYQF;2018-03-09 00:00;CYQF 090000Z 14012KT 3SM BR BKN010 OVC080 M10/M12 A2958 RMK ST6AC2 VIS S 2 SLP087

CYQF;2018-03-09 00:24;CYQF 090024Z 16012KT 2SM BR BKN010 OVC080 M10/M12 A2958 RMK ST7AC1 SLP086

CYQF;2018-03-09 01:00;CYQF 090100Z 16013KT 2SM BR BKN009 OVC080 M11/M13 A2957 RMK ST7AC1 SLP084

CYQF;2018-03-09 01:16;CYQF 090116Z 16013KT 1 1/2SM -SN BR OVC009 M11/M13 A2956 RMK FG2ST6 VIS VRB 1-2 SLP080

CYQF;2018-03-09 02:00;CYQF 090200Z 16011KT 1 1/2SM -SN BR OVC009 M11/M13 A2955 RMK FG2ST6 VIS VRB 1-2 SLP081

CYQF;2018-03-09 03:00;CYQF 090300Z 16011KT 3SM -SN BR BKN009 OVC210 M11/M12 A2952 RMK ST6CI2 SLP067

CYQF;2018-03-09 04:00;CYQF 090400Z 16008KT 3SM -SN BR BKN009 OVC210 M11/M13 A2950 RMK ST5CI3 SLP059

CYQF;2018-03-09 04:18;CYQF 090418Z 16005KT 3SM IC SCT009 BKN240 M12/M13 A2950 RMK ST4CI3 SLP059

CYQF;2018-03-09 05:00;CYQF 090500Z 16006KT 4SM IC FEW010 BKN240 M12/M14 A2948 RMK ST1CI4 SLP051

CYQF;2018-03-09 06:00;CYQF 090600Z 17006KT 4SM IC SCT240 M13/M14 A2946 RMK CI4 FROIN SLP044

CYQF;2018-03-09 06:37;CYQF 090637Z 18003KT 4SM BR SCT140 BKN240 M14/M15 A2945 RMK AC3CI3 SLP041

CYQF;2018-03-09 07:00;CYQF 090700Z 00000KT 4SM BR BKN160 BKN240 M14/M15 A2945 RMK AC5CI2 FROIN SLP036

CYQF;2018-03-09 08:00;CYQF 090800Z 14002KT 4SM BR OVC160 M13/M15 A2943 RMK AC8 FROIN SLP031

CYQF;2018-03-09 09:00;CYQF 090900Z 13003KT 3SM BR OVC140 M13/M14 A2941 RMK AC8 FROIN SLP023

CYQF;2018-03-09 10:00;CYQF 091000Z VRB02KT 3SM BR OVC120 M12/M14 A2939 RMK AC8 FROIN SLP015

CYQF;2018-03-09 11:00;CYQF 091100Z 00000KT 3SM BR BKN140 M13/M15 A2938 RMK AC7 FROIN SLP012

CYQF;2018-03-09 12:00;CYQF 091200Z 06003KT 3SM BR OVC140 M13/M15 A2937 RMK AC8 SLP009

CYQF;2018-03-09 12:24;CYQF 091224Z 04002KT 2 1/2SM IC BR OVC160 M13/M14 A2936 RMK AC8 SLP006

CYQF;2018-03-09 13:00;CYQF 091300Z 36004KT 360V060 2 1/2SM BR OVC160 M13/M14 A2936 RMK AC8 SLP006

CYQF;2018-03-09 14:00;CYQF 091400Z 02003KT 2 1/2SM BR BKN160 M12/M14 A2936 RMK AC7 SLP006

CYQF;2018-03-09 14:38;CYQF 091438Z 00000KT 3SM BR BKN140 M12/M14 A2937 RMK AC7 SLP007

CYQF;2018-03-09 15:00;CYQF 091500Z VRB02KT 3SM BR BKN160 M12/M14 A2938 RMK AC7 SLP011

CYQF;2018-03-09 15:19;CYQF 091519Z 00000KT 2SM BR SCT020 OVC140 M12/M13 A2938 RMK FG2SC2AC4 SLP010

CYQF;2018-03-09 16:00;CYQF 091600Z 33004KT 2 1/2SM BR BKN160 M12/M13 A2939 RMK AC7 SLP016

CYQF;2018-03-09 16:18;CYQF 091618Z 33003KT 3SM BR BKN160 M11/M13 A2940 RMK AC7 SLP018

CYQF;2018-03-09 17:00;CYQF 091700Z 36003KT 2SM BR BKN160 BKN250 M10/M11 A2942 RMK AC5CI2 SLP025

CYQF;2018-03-09 18:00;CYQF 091800Z 33012G19KT 2 1/2SM BR BKN120 BKN250 M09/M11 A2951 RMK AC6CI1 PRESRR SLP057

CYQF;2018-03-09 18:17;CYQF 091817Z 36009G16KT 3SM BR BKN120 BKN250 M08/M10 A2951 RMK AC5CI2 SLP057

CYQF;2018-03-09 19:00;CYQF 091900Z 33012G19KT 3SM BR SCT100 BKN250 M06/M10 A2954 RMK AC3CI4 SLP065

CYQF;2018-03-09 19:22;CYQF 091922Z 32014G21KT 8SM FEW100 BKN250 M05/M10 A2957 RMK AC2CI4 SLP073

CYQF;2018-03-09 20:00;CYQF 092000Z 34013KT 8SM FEW018 BKN120 BKN250 M04/M09 A2958 RMK SC2AC4CI1 SLP074

CYQF;2018-03-09 21:00;CYQF 092100Z 34012KT 8SM FEW018 SCT110 BKN250 M02/M08 A2960 RMK SC2AC2CI2 SLP079

CYQF;2018-03-09 22:00;CYQF 092200Z 34017G22KT 12SM FEW020 SCT100 BKN250 M01/M07 A2962 RMK SC1AC2CI2 SLP087

CYQF;2018-03-09 23:00;CYQF 092300Z 34012G17KT 15SM FEW250 M01/M07 A2966 RMK CI1 SLP098

CYQF;2018-03-10 00:00;CYQF 100000Z 36007KT 15SM FEW090 FEW250 M01/M07 A2968 RMK AC1CI1 AC TR SLP106

CYQF;2018-03-10 01:00;CYQF 100100Z 36004KT 15SM FEW090 M02/M08 A2972 RMK AC1 AC TR SLP123

CYQF;2018-03-10 02:00;CYQF 100200Z 02006KT 15SM FEW070 M07/M10 A2975 RMK AC1 SLP135

CYQF;2018-03-10 03:00;CYQF 100300Z 00000KT 15SM FEW070 M04/M08 A2979 RMK AC1 SLP146

CYQF;2018-03-10 04:00;CYQF 100400Z 26008KT 15SM SKC M07/M10 A2982 RMK SLP161

CYQF;2018-03-10 05:00;CYQF 100500Z 22006KT 190V250 15SM SKC M09/M12 A2985 RMK SLP173

CYQF;2018-03-10 06:00;CYQF 100600Z 22006KT 15SM SKC M09/M11 A2988 RMK SLP179

CYQF;2018-03-10 07:00;CYQF 100700Z 20006KT 15SM SKC M12/M13 A2989 RMK SLP185

CYQF;2018-03-10 08:00;CYQF 100800Z 21004KT 15SM SKC M11/M13 A2991 RMK SLP189

CYQF;2018-03-10 09:00;CYQF 100900Z 22002KT 6SM BR SKC M14/M16 A2993 RMK SLP197

CYQF;2018-03-10 09:46;CYQF 100946Z 22004KT 2 1/2SM BR SKC M16/M17 A2994 RMK FG2 SLP203

CYQF;2018-03-10 10:00;CYQF 101000Z 22003KT 2 1/2SM BR SKC M14/M16 A2995 RMK FG2 VIS VRB 1-5 SLP201

CYQF;2018-03-10 11:00;CYQF 101100Z 19005KT 10SM SKC M18/M20 A2997 RMK SLP212

CYQF;2018-03-10 12:00;CYQF 101200Z 23004KT 10SM SKC M15/M17 A2999 RMK SLP217

CYQF;2018-03-10 13:00;CYQF 101300Z 21004KT 10SM FEW250 M16/M18 A3001 RMK CI2 SLP226

CYQF;2018-03-10 14:00;CYQF 101400Z 21006KT 10SM BKN250 M14/M16 A3003 RMK CI6 BR SLP236

CYQF;2018-03-10 15:00;CYQF 101500Z 20006KT 10SM BKN250 M18/M20 A3004 RMK CI6 BR SLP242

CYQF;2018-03-10 16:00;CYQF 101600Z 20008KT 12SM SCT250 M13/M15 A3006 RMK CI3 SLP245

CYQF;2018-03-10 17:00;CYQF 101700Z 21005KT 15SM SCT250 M10/M12 A3007 RMK CI3 SLP249

CYQF;2018-03-10 18:00;CYQF 101800Z 18003KT 15SM BKN250 M07/M09 A3008 RMK CI5 SLP248

CYQF;2018-03-10 19:00;CYQF 101900Z 16003KT 15SM SCT250 M05/M10 A3009 RMK CI4 SLP251

CYQF;2018-03-10 20:00;CYQF 102000Z 16004KT 15SM SCT250 M03/M09 A3009 RMK CI4 SLP247

CYQF;2018-03-10 21:00;CYQF 102100Z 14002KT 15SM FEW250 00/M07 A3008 RMK CI2 SLP245

CYQF;2018-03-10 22:00;CYQF 102200Z 15003KT 15SM FEW250 01/M07 A3008 RMK CI2 SLP242

CYQF;2018-03-10 23:00;CYQF 102300Z 17007KT 15SM SCT250 02/M07 A3008 RMK CI3 SLP247

CYQF;2018-03-11 00:00;CYQF 110000Z 18009KT 15SM FEW250 01/M09 A3008 RMK CI2 SLP246

CYQF;2018-03-11 01:00;CYQF 110100Z 16005KT 15SM SCT250 M02/M09 A3008 RMK CI3 SLP250

CYQF;2018-03-11 02:00;CYQF 110200Z 19003KT 15SM FEW250 M04/M09 A3009 RMK CI2 SLP254

CYQF;2018-03-11 03:00;CYQF 110300Z 14003KT 15SM SKC M07/M11 A3010 RMK SLP264

CYQF;2018-03-11 04:00;CYQF 110400Z 15004KT 15SM SKC M08/M12 A3010 RMK SLP259

CYQF;2018-03-11 05:00;CYQF 110500Z 20004KT 15SM SKC M10/M13 A3010 RMK SLP259

CYQF;2018-03-11 06:00;CYQF 110600Z 04003KT 15SM SKC M11/M13 A3010 RMK SLP258

CYQF;2018-03-11 07:00;CYQF 110700Z 03003KT 15SM SKC M10/M11 A3011 RMK SLP258

CYQF;2018-03-11 08:00;CYQF 110800Z VRB02KT 12SM SKC M10/M11 A3012 RMK SLP257

CYQF;2018-03-11 09:00;CYQF 110900Z 18003KT 8SM SKC M10/M11 A3013 RMK FROIN SLP258

CYQF;2018-03-11 09:16;CYQF 110916Z 18003KT 3SM BR SKC M11/M12 A3013 RMK SLP259

CYQF;2018-03-11 10:00;CYQF 111000Z 00000KT 3SM BR SKC M11/M12 A3013 RMK FROIN SLP257

CYQF;2018-03-11 11:00;CYQF 111100Z VRB02KT 3SM BR SKC M10/M12 A3014 RMK SLP259

CYQF;2018-03-11 11:06;CYQF 111106Z 23002KT 1SM BR SKC M10/M12 A3014 RMK SLP259

CYQF;2018-03-11 11:51;CYQF 111151Z 00000KT 3/4SM BR SKC M16/M18 A3014 RMK FG6 SLP267

CYQF;2018-03-11 12:00;CYQF 111200Z 00000KT 1/2SM FZFG VV002 M16/M18 A3015 RMK FG8 SLP270

CYQF;2018-03-11 12:07;CYQF 111207Z 00000KT 1/8SM FZFG VV001 M16/M18 A3015 RMK FG8 SLP270

CYQF;2018-03-11 12:14;CYQF 111214Z 22002KT 0SM FZFG VV001 M17/M19 A3015 RMK FG8 SLP272

CYQF;2018-03-11 13:00;CYQF 111300Z 20003KT 0SM FZFG VV001 M19/M21 A3016 RMK FG8 SLP281

CYQF;2018-03-11 13:30;CYQF 111330Z 22004KT 1/2SM FZFG VV001 M19/M21 A3016 RMK FG8 FROIN MOON DMLY VSB SLP282

CYQF;2018-03-11 14:00;CYQF 111400Z 19004KT 3/8SM FZFG VV001 M18/M21 A3017 RMK FG8 VIS VRB 1/4-1/2 SLP285

CYQF;2018-03-11 14:07;CYQF 111407Z 20003KT 1/4SM FZFG VV001 M19/M21 A3017 RMK FG8 VIS VRB 1/8-3/8 SLP287

CYQF;2018-03-11 14:12;CYQF 111412Z 20004KT 1/2SM FZFG VV001 M19/M21 A3017 RMK FG8 SLP286

CYQF;2018-03-11 14:29;CYQF 111429Z 22003KT 1/4SM FZFG VV001 M17/M19 A3017 RMK FG8 SLP286

CYQF;2018-03-11 15:00;CYQF 111500Z 18003KT 1/4SM FZFG VV001 M18/M20 A3018 RMK FG8 FROIN SLP291

CYQF;2018-03-11 16:00;CYQF 111600Z 21002KT 1/4SM FZFG VV001 M16/M18 A3019 RMK FG8 SLP294

CYQF;2018-03-11 17:00;CYQF 111700Z 20004KT 1/4SM FZFG VV001 M14/M16 A3021 RMK FG8 SLP302

CYQF;2018-03-11 17:14;CYQF 111714Z 19004KT 1SM BR VV002 M14/M15 A3021 RMK FG8 SLP302

CYQF;2018-03-11 18:00;CYQF 111800Z 17004KT 2SM BR SCT002 OVC250 M12/M14 A3021 RMK ST4CI4 SLP303

CYQF;2018-03-11 19:00;CYQF 111900Z 19003KT 3SM BR SKC M09/M10 A3022 RMK FG2 SLP299

CYQF;2018-03-11 20:00;CYQF 112000Z 20003KT 6SM BR SKC M07/M08 A3022 RMK SLP297

CYQF;2018-03-11 21:00;CYQF 112100Z 17002KT 6SM BR SKC M04/M10 A3021 RMK SLP292

CYQF;2018-03-11 22:00;CYQF 112200Z 18002KT 6SM BR FEW250 M03/M09 A3022 RMK CI1 SLP294

CYQF;2018-03-11 23:00;CYQF 112300Z 08005KT 8SM FEW250 M02/M07 A3021 RMK CI1 CI TR BR SLP290

CYQF;2018-03-12 00:00;CYQF 120000Z 11003KT 10SM FEW250 M02/M07 A3021 RMK CI1 CI TR SLP295

CYQF;2018-03-12 01:00;CYQF 120100Z 15005KT 15SM FEW250 M04/M08 A3021 RMK CI2 SLP301

CYQF;2018-03-12 02:00;CYQF 120200Z 17005KT 12SM FEW250 M07/M10 A3023 RMK CI1 SLP312

CYQF;2018-03-12 03:00;CYQF 120300Z 14007KT 10SM SKC M09/M12 A3024 RMK SLP316

CYQF;2018-03-12 04:00;CYQF 120400Z VRB02KT 10SM SKC M09/M11 A3024 RMK SLP315

CYQF;2018-03-12 05:00;CYQF 120500Z 14003KT 8SM SKC M10/M12 A3025 RMK SLP317

CYQF;2018-03-12 06:00;CYQF 120600Z 19004KT 6SM BR SKC M11/M12 A3025 RMK SLP316

CYQF;2018-03-12 07:00;CYQF 120700Z 20005KT 4SM BR SKC M12/M14 A3025 RMK SLP314

CYQF;2018-03-12 08:00;CYQF 120800Z 19004KT 3SM BR SKC M13/M13 A3025 RMK SLP312

CYQF;2018-03-12 08:22;CYQF 120822Z 20003KT 2 1/2SM BR SKC M12/M13 A3025 RMK SLP312

CYQF;2018-03-12 09:00;CYQF 120900Z 20003KT 1SM BR SKC M13/M14 A3026 RMK SLP311

CYQF;2018-03-12 09:38;CYQF 120938Z 19003KT 1/2SM FZFG SKC M16/M18 A3025 RMK FG5 SLP313

CYQF;2018-03-12 10:00;CYQF 121000Z 18004KT 1/2SM FZFG SKC M17/M19 A3025 RMK FG4 SLP310

CYQF;2018-03-12 10:37;CYQF 121037Z 21004KT 1 1/2SM BR SKC M13/M15 A3024 RMK SLP304

CYQF;2018-03-12 11:00;CYQF 121100Z 20005KT 1 1/2SM BR SKC M15/M16 A3024 RMK SLP302

CYQF;2018-03-12 11:30;CYQF 121130Z 21005KT 1SM BR SKC M13/M14 A3024 RMK SLP300

CYQF;2018-03-12 12:00;CYQF 121200Z 22003KT 1/8SM FZFG SKC M15/M17 A3023 RMK FG4 SLP302

CYQF;2018-03-12 12:47;CYQF 121247Z 20004KT 4SM BR SKC M17/M19 A3024 RMK SLP305

CYQF;2018-03-12 13:00;CYQF 121300Z 19004KT 3SM BR SKC M18/M20 A3024 RMK SLP310

CYQF;2018-03-12 13:17;CYQF 121317Z 20006KT 2SM BR SKC M18/M21 A3024 RMK FG3 VIS VRB 1-3 SLP310

CYQF;2018-03-12 14:00;CYQF 121400Z 20004KT 2SM BR SKC M19/M21 A3024 RMK SLP315

CYQF;2018-03-12 15:00;CYQF 121500Z 21004KT 2SM BR SKC M17/M20 A3024 RMK VIS VRB 1-3 SLP317

CYQF;2018-03-12 15:36;CYQF 121536Z 21005KT 3SM BR SKC M15/M17 A3024 RMK SLP314

CYQF;2018-03-12 16:00;CYQF 121600Z 20005KT 4SM BR SKC M14/M16 A3025 RMK SLP314

CYQF;2018-03-12 17:00;CYQF 121700Z 20004KT 6SM BR SKC M12/M13 A3025 RMK SLP312

CYQF;2018-03-12 18:00;CYQF 121800Z 19004KT 6SM BR SKC M09/M11 A3024 RMK SLP309

CYQF;2018-03-12 19:00;CYQF 121900Z 18003KT 8SM SKC M05/M11 A3023 RMK SLP303

CYQF;2018-03-12 20:00;CYQF 122000Z 00000KT 10SM SKC M02/M09 A3022 RMK SLP294

CYQF;2018-03-12 21:00;CYQF 122100Z 15006KT 8SM SKC 00/M07 A3020 RMK SLP285

CYQF;2018-03-12 22:00;CYQF 122200Z 14008KT 8SM SKC M00/M06 A3019 RMK SLP287

CYQF;2018-03-12 23:00;CYQF 122300Z 13007KT 8SM SKC M01/M06 A3018 RMK SLP280

CYQF;2018-03-13 00:00;CYQF 130000Z 14008KT 8SM SKC M02/M07 A3016 RMK SLP276

CYQF;2018-03-13 01:00;CYQF 130100Z 14008KT 8SM SKC M04/M08 A3015 RMK SLP280

CYQF;2018-03-13 02:00;CYQF 130200Z 16008KT 8SM FEW250 M07/M11 A3014 RMK CI2 BR SLP281

CYQF;2018-03-13 03:00;CYQF 130300Z 15007KT 8SM FEW250 M09/M12 A3013 RMK CI2 BR SLP277

CYQF;2018-03-13 04:00;CYQF 130400Z 00000KT 15SM SKC M08/M12 A3012 RMK SLP269

CYQF;2018-03-13 05:00;CYQF 130500Z 18008KT 12SM SKC M06/M11 A3011 RMK SLP259

CYQF;2018-03-13 06:00;CYQF 130600Z 19006KT 12SM SKC M08/M11 A3009 RMK SLP252

CYQF;2018-03-13 07:00;CYQF 130700Z 18009KT 15SM SKC M07/M11 A3009 RMK SLP246

CYQF;2018-03-13 08:00;CYQF 130800Z 18009KT 12SM SKC M07/M10 A3008 RMK SLP238

CYQF;2018-03-13 09:00;CYQF 130900Z 16004KT 10SM SKC M07/M09 A3006 RMK SLP231

CYQF;2018-03-13 10:00;CYQF 131000Z 17005KT 5SM BR SKC M12/M13 A3005 RMK SLP232

CYQF;2018-03-13 10:52;CYQF 131052Z 19005KT 2SM BR SKC M11/M12 A3003 RMK SLP225

CYQF;2018-03-13 11:00;CYQF 131100Z 19005KT 1 1/2SM BR SKC M11/M12 A3003 RMK FG1 VIS VRB 1-2 SLP225

CYQF;2018-03-13 11:45;CYQF 131145Z 20005KT 1/4SM FZFG SKC M11/M12 A3003 RMK FG6 SLP225

CYQF;2018-03-13 12:00;CYQF 131200Z 19004KT 1/4SM FZFG SKC M13/M15 A3003 RMK FG6 SLP228

CYQF;2018-03-13 12:06;CYQF 131206Z 20004KT 3/4SM BR SKC M13/M15 A3003 RMK FG3 VIS VRB 1/2-1 SLP228

CYQF;2018-03-13 13:00;CYQF 131300Z 20002KT 1/2SM FZFG SKC M13/M14 A3001 RMK SLP226

CYQF;2018-03-13 14:00;CYQF 131400Z CCA 18004KT 1/2SM FZFG SKC M14/M16 A3000 RMK FROIN SLP226

CYQF;2018-03-13 14:24;CYQF 131424Z 19004KT 3/4SM BR FEW250 M13/M15 A2999 RMK CI1 FROIN SLP222

CYQF;2018-03-13 14:29;CYQF 131429Z 19004KT 1 1/2SM BR FEW250 M13/M15 A2999 RMK CI1 FROIN SLP222

CYQF;2018-03-13 15:00;CYQF 131500Z 23006KT 2SM BR SKC M15/M16 A3000 RMK SLP227

CYQF;2018-03-13 15:35;CYQF 131535Z 21003KT 3SM BR FEW250 M14/M16 A3000 RMK CI2 SLP227

CYQF;2018-03-13 16:00;CYQF 131600Z 19004KT 3SM BR FEW250 M14/M16 A3000 RMK CI2 SLP225

CYQF;2018-03-13 17:00;CYQF 131700Z 20005KT 6SM BR SCT250 M11/M13 A2999 RMK CI3 SLP217

CYQF;2018-03-13 18:00;CYQF 131800Z 19006KT 6SM BR SCT250 M09/M10 A2997 RMK CI3 SLP211

CYQF;2018-03-13 19:00;CYQF 131900Z 17003KT 8SM SCT250 M05/M10 A2995 RMK CI3 BR SLP198

CYQF;2018-03-13 20:00;CYQF 132000Z 15002KT 8SM SCT250 M02/M08 A2995 RMK CI3 SLP195

CYQF;2018-03-13 21:00;CYQF 132100Z 00000KT 10SM SCT250 01/M07 A2993 RMK CI4 BR SLP186

CYQF;2018-03-13 22:00;CYQF 132200Z 08003KT 10SM BKN250 01/M07 A2991 RMK CI6 CC SLP185

CYQF;2018-03-13 22:21;CYQF 132221Z 11004KT 6SM BR BKN250 01/M07 A2991 RMK CI6 CC SLP183

CYQF;2018-03-13 23:00;CYQF 132300Z 16003KT 6SM BR BKN250 00/M07 A2991 RMK CI6 SLP181

CYQF;2018-03-14 00:00;CYQF 140000Z 23003KT 15SM BKN250 01/M07 A2990 RMK CI5 SLP179

CYQF;2018-03-14 01:00;CYQF 140100Z 00000KT 6SM BR BKN250 M03/M09 A2989 RMK CI6 SLP180

CYQF;2018-03-14 02:00;CYQF 140200Z 14003KT 8SM BKN250 M03/M08 A2987 RMK CI6 BR SLP176

CYQF;2018-03-14 03:00;CYQF 140300Z 00000KT 10SM BKN250 M07/M10 A2987 RMK CI5 SLP180

CYQF;2018-03-14 04:00;CYQF 140400Z 26002KT 8SM BKN250 M05/M08 A2987 RMK CI5 SLP177

CYQF;2018-03-14 05:00;CYQF 140500Z 19004KT 10SM SKC M11/M12 A2985 RMK SLP173

CYQF;2018-03-14 06:00;CYQF 140600Z VRB02KT 10SM SKC M09/M11 A2984 RMK SLP166

CYQF;2018-03-14 07:00;CYQF 140700Z 14002KT 8SM SKC M14/M17 A2984 RMK SLP168

CYQF;2018-03-14 08:00;CYQF 140800Z 00000KT 8SM SKC M12/M13 A2981 RMK SLP153

CYQF;2018-03-14 09:00;CYQF 140900Z 01002KT 5SM BR SKC M13/M14 A2980 RMK SLP147

CYQF;2018-03-14 10:00;CYQF 141000Z 19005KT 3SM BR SKC M14/M16 A2979 RMK FG1 SLP143

CYQF;2018-03-14 11:05;CYQF 141105Z 00000KT 2SM BR BKN001 M15/M16 A2978 RMK FG2ST3 SLP140

CYQF;2018-03-14 11:20;CYQF 141120Z VRB02KT 1SM BR OVC001 M14/M16 A2977 RMK FG4ST4 SLP138

CYQF;2018-03-14 11:26;CYQF 141126Z 12003KT 120V220 1/2SM FZFG VV001 M17/M19 A2977 RMK FG8 SLP141

CYQF;2018-03-14 11:38;CYQF 141138Z 14002KT 1/8SM FZFG VV001 M16/M17 A2977 RMK FG8 SLP140

CYQF;2018-03-14 12:00;CYQF 141200Z VRB02KT 0SM FZFG VV001 M16/M17 A2976 RMK FG8 SLP136

CYQF;2018-03-14 13:05;CYQF 141305Z 16002KT 1/2SM FZFG VV001 M16/M18 A2976 RMK FG8 SLP139

CYQF;2018-03-14 13:19;CYQF 141319Z 20004KT 1/4SM FZFG VV001 M15/M17 A2976 RMK FG8 VIS VRB 1/8-3/8 SLP139

CYQF;2018-03-14 13:34;CYQF 141334Z 19004KT 1/8SM FZFG VV001 M15/M17 A2976 RMK FG8 SLP138

CYQF;2018-03-14 14:00;CYQF 141400Z 19002KT 1/8SM FZFG VV001 M15/M16 A2975 RMK FG8 SLP136

CYQF;2018-03-14 14:50;CYQF 141450Z 00000KT 1/8SM FZFG VV002 M15/M17 A2974 RMK FG8 SLP133

CYQF;2018-03-14 15:00;CYQF 141500Z VRB02KT 1/4SM FZFG OVC250 M15/M17 A2974 RMK FG5CI3 SLP138

CYQF;2018-03-14 15:36;CYQF 141536Z 31003KT 1/8SM FZFG VV002 M15/M17 A2974 RMK FG8 SLP135

CYQF;2018-03-14 15:44;CYQF 141544Z 32002KT 1/4SM FZFG OVC250 M15/M17 A2973 RMK FG5CI3 SLP133

CYQF;2018-03-14 15:49;CYQF 141549Z 29003KT 1/2SM FZFG BKN250 M14/M16 A2973 RMK FG4CI3 VIS E-S 1/4 SLP131

CYQF;2018-03-14 16:00;CYQF 141600Z VRB02KT 1SM BR BKN250 M13/M15 A2973 RMK FG2CI5 VIS VRB 3/4-11/4 SLP130

CYQF;2018-03-14 16:12;CYQF 141612Z 00000KT 3SM BR BKN250 M13/M14 A2973 RMK CI5 SLP129

CYQF;2018-03-14 16:39;CYQF 141639Z 23002KT 6SM BR BKN250 M11/M13 A2974 RMK CI5 SLP129

CYQF;2018-03-14 17:00;CYQF 141700Z 00000KT 6SM BR BKN250 M10/M11 A2973 RMK CI5 SLP131

CYQF;2018-03-14 18:00;CYQF 141800Z 02003KT 8SM BKN250 M09/M10 A2972 RMK CI5 SLP126

CYQF;2018-03-14 19:00;CYQF 141900Z 00000KT 10SM BKN220 M04/M05 A2971 RMK CI6 SLP121

CYQF;2018-03-14 20:00;CYQF 142000Z 13006KT 12SM BKN250 M01/M06 A2970 RMK CI6 SLP110

CYQF;2018-03-14 21:00;CYQF 142100Z 14003KT 080V160 12SM BKN250 00/M05 A2967 RMK CI5 SLP100

CYQF;2018-03-14 22:00;CYQF 142200Z 14008KT 12SM BKN250 M00/M05 A2966 RMK CI6 SLP098

CYQF;2018-03-14 23:00;CYQF 142300Z 11012KT 8SM BKN250 00/M06 A2965 RMK CI5 SLP095

CYQF;2018-03-15 00:00;CYQF 150000Z 08008KT 8SM BKN250 M01/M06 A2964 RMK CI6 HZ CONTRAILS SLP095

CYQF;2018-03-15 01:00;CYQF 150100Z 07007KT 8SM BKN250 M03/M07 A2964 RMK CI5 HZ SLP097

CYQF;2018-03-15 02:00;CYQF 150200Z 06003KT 8SM FEW250 M05/M07 A2963 RMK CI2 HZ SLP094

CYQF;2018-03-15 03:00;CYQF 150300Z 16007KT 8SM FEW250 M07/M09 A2964 RMK CI2 HZ SLP102

CYQF;2018-03-15 04:00;CYQF 150400Z 15005KT 8SM FEW250 M08/M10 A2963 RMK CI2 HZ SLP099

CYQF;2018-03-15 05:00;CYQF 150500Z 16003KT 8SM SKC M08/M09 A2962 RMK SLP091

CYQF;2018-03-15 06:00;CYQF 150600Z 00000KT 3SM BR SKC M08/M09 A2962 RMK SLP088

CYQF;2018-03-15 06:30;CYQF 150630Z 00000KT 2SM BR SKC M09/M10 A2962 RMK SLP088

CYQF;2018-03-15 07:00;CYQF 150700Z 02003KT 290V030 1 1/2SM BR SKC M11/M12 A2961 RMK FG4 PRESFR SLP082

CYQF;2018-03-15 07:37;CYQF 150737Z 00000KT 1SM BR BKN002 OVC110 M11/M13 A2963 RMK ST6AC2 PRESRR SLP091

CYQF;2018-03-15 08:00;CYQF 150800Z 00000KT 1 1/2SM BR SCT001 BKN110 M12/M14 A2962 RMK FG1ST3AC3 VIS VRB 1-2 SLP084

CYQF;2018-03-15 09:00;CYQF 150900Z 29004KT 1 1/2SM BR BKN120 M09/M10 A2963 RMK FG3AC4 VIS VRB 1-2 SLP083

CYQF;2018-03-15 10:00;CYQF 151000Z 29004KT 2SM BR OVC100 M08/M09 A2963 RMK FG2AC6 VIS VRB 1-3 SLP082

CYQF;2018-03-15 10:26;CYQF 151026Z 32002KT 3SM BR OVC090 M08/M09 A2963 RMK AC8 SLP084

CYQF;2018-03-15 11:00;CYQF 151100Z 00000KT 3SM BR OVC090 M08/M09 A2964 RMK AC8 SLP087

CYQF;2018-03-15 12:00;CYQF 151200Z 33003KT 3SM BR OVC085 M08/M09 A2964 RMK AC8 SLP087

CYQF;2018-03-15 12:34;CYQF 151234Z 32003KT 3SM BR FEW004 BKN080 OVC200 M08/M09 A2964 RMK ST2AC4CI2 SLP087

CYQF;2018-03-15 13:00;CYQF 151300Z 25003KT 4SM BR SCT004 BKN080 OVC200 M07/M09 A2966 RMK ST3AC4CI1 SLP094

CYQF;2018-03-15 13:32;CYQF 151332Z 27004KT 3SM BR BKN004 OVC080 M08/M09 A2965 RMK ST5AC3 SLP093

CYQF;2018-03-15 14:00;CYQF 151400Z 30005KT 2SM BR BKN004 OVC070 M07/M08 A2965 RMK ST7AC1 SLP094

CYQF;2018-03-15 14:33;CYQF 151433Z VRB02KT 2 1/2SM BR SCT004 BKN070 OVC120 M07/M08 A2966 RMK ST4AC2AC2 SLP096

CYQF;2018-03-15 15:00;CYQF 151500Z 28004KT 3SM BR FEW040 BKN070 OVC120 M07/M08 A2966 RMK ST2AC4AC2 SLP098

CYQF;2018-03-15 16:00;CYQF 151600Z 29007KT 3SM BR FEW004 BKN061 OVC210 M06/M07 A2967 RMK ST1SC6CI1 SLP101

CYQF;2018-03-15 17:00;CYQF 151700Z 33008KT 3SM BR FEW004 OVC080 M05/M07 A2966 RMK ST1AC7 SLP098

CYQF;2018-03-15 18:00;CYQF 151800Z 36010G16KT 5SM BR OVC090 M03/M06 A2967 RMK AC8 PRESRR SLP100

CYQF;2018-03-15 19:00;CYQF 151900Z 36007KT 8SM SCT012 OVC090 M03/M06 A2969 RMK SC3AC5 SLP110

CYQF;2018-03-15 19:18;CYQF 151918Z 01010KT 8SM BKN012 OVC090 M03/M06 A2969 RMK SC6AC2 SLP111

CYQF;2018-03-15 20:00;CYQF 152000Z 01009KT 8SM OVC012 M04/M06 A2968 RMK SC8 SLP108

CYQF;2018-03-15 21:00;CYQF 152100Z 01012KT 6SM BR OVC010 M04/M06 A2966 RMK SC8 PRESFR SLP099

CYQF;2018-03-15 21:21;CYQF 152121Z 02012KT 6SM BR OVC008 M04/M06 A2966 RMK ST8 SLP100

CYQF;2018-03-15 22:00;CYQF 152200Z 01013G19KT 3SM BR OVC006 M05/M06 A2965 RMK ST8 SLP093

CYQF;2018-03-15 23:00;CYQF 152300Z 02010KT 2 1/2SM BR OVC006 M05/M06 A2968 RMK ST8 SLP104

CYQF;2018-03-15 23:21;CYQF 152321Z 02009KT 2 1/2SM BR OVC005 M05/M06 A2969 RMK ST8 SLP107

CYQF;2018-03-16 00:00;CYQF 160000Z 01008KT 2 1/2SM BR OVC005 M05/M06 A2968 RMK ST8 SLP104

CYQF;2018-03-16 01:00;CYQF 160100Z 02009KT 2 1/2SM BR OVC005 M05/M06 A2967 RMK ST8 SLP100

CYQF;2018-03-16 01:31;CYQF 160131Z 03008KT 2 1/2SM -SN BR OVC005 M05/M06 A2968 RMK ST8 SLP103

CYQF;2018-03-16 01:38;CYQF 160138Z 04006KT 1SM -SN BR VV006 M05/M06 A2968 RMK SN8 SLP104

CYQF;2018-03-16 01:48;CYQF 160148Z 03007KT 1/2SM SN VV008 M05/M06 A2968 RMK SN8 SLP103

CYQF;2018-03-16 02:00;CYQF 160200Z 02008KT 1/2SM SN VV006 M05/M06 A2967 RMK SN8 SLP101

CYQF;2018-03-16 02:17;CYQF 160217Z 01007KT 3/4SM -SN VV008 M05/M06 A2967 RMK SN8 SLP101

CYQF;2018-03-16 03:00;CYQF 160300Z 06006KT 3/4SM -SN VV012 M05/M06 A2968 RMK SN8 SLP105

CYQF;2018-03-16 03:20;CYQF 160320Z 08005KT 1SM -SN OVC020 M05/M07 A2969 RMK SN4SC4 SLP107

CYQF;2018-03-16 03:41;CYQF 160341Z 09003KT 1 1/2SM -SN OVC020 M06/M07 A2969 RMK SN4SC4 SLP109

CYQF;2018-03-16 03:48;CYQF 160348Z 07002KT 3SM -SN OVC027 M06/M07 A2969 RMK SC8 SLP108

CYQF;2018-03-16 04:00;CYQF 160400Z 06003KT 3SM BR VCSH OVC027 M06/M07 A2969 RMK SC8 SLP106

CYQF;2018-03-16 05:00;CYQF 160500Z CCA 13002KT 5SM -SN BR OVC027 M06/M07 A2969 RMK SC8 SLP105

CYQF;2018-03-16 05:46;CYQF 160546Z 00000KT 5SM -SN BR SCT009 OVC040 M06/M07 A2968 RMK ST3SC5 SLP103

CYQF;2018-03-16 06:00;CYQF 160600Z 10003KT 010V120 5SM -SN BR BKN008 OVC040 M06/M07 A2970 RMK ST6SC2 PRESRR SLP107

CYQF;2018-03-16 07:00;CYQF 160700Z 00000KT 5SM -SN BR SCT010 OVC042 M06/M07 A2970 RMK ST3SC5 SLP106

CYQF;2018-03-16 08:00;CYQF 160800Z 14003KT 5SM -SN BR FEW010 OVC041 M06/M07 A2970 RMK ST2SC6 SLP110

CYQF;2018-03-16 09:00;CYQF 160900Z 20002KT 5SM -SN BR BKN008 OVC040 M06/M07 A2970 RMK ST5SC3 SLP109

CYQF;2018-03-16 10:00;CYQF 161000Z 22002KT 6SM -SN BR BKN006 OVC040 M06/M07 A2971 RMK ST6SC2 SLP113

CYQF;2018-03-16 10:31;CYQF 161031Z 13005KT 6SM -SN BR BKN004 OVC040 M06/M07 A2971 RMK ST7SC1 SLP112

CYQF;2018-03-16 11:00;CYQF 161100Z 16005KT 3SM -SN BR BKN008 OVC040 M06/M07 A2971 RMK ST7SC1 SLP114

CYQF;2018-03-16 11:50;CYQF 161150Z 14004KT 5SM -SN BR OVC013 M06/M07 A2973 RMK SC8 SLP119

CYQF;2018-03-16 12:00;CYQF 161200Z 16006KT 5SM -SN BR OVC012 M06/M07 A2973 RMK SC8 SLP121

CYQF;2018-03-16 12:38;CYQF 161238Z 19005KT 5SM -SN BR OVC008 M06/M07 A2974 RMK ST8 SLP123

CYQF;2018-03-16 13:00;CYQF 161300Z 20005KT 4SM -SN BR OVC006 M06/M07 A2974 RMK ST8 SLP122

CYQF;2018-03-16 13:12;CYQF 161312Z 18003KT 4SM BR OVC005 M06/M07 A2974 RMK ST8 SLP122

CYQF;2018-03-16 13:32;CYQF 161332Z 17004KT 3SM BR OVC004 M06/M07 A2974 RMK ST8 SLP125

CYQF;2018-03-16 13:49;CYQF 161349Z 15004KT 2SM BR OVC004 M06/M07 A2975 RMK ST8 SLP128

CYQF;2018-03-16 14:00;CYQF 161400Z 00000KT 2SM BR OVC003 M06/M07 A2974 RMK ST8 SLP124

CYQF;2018-03-16 14:38;CYQF 161438Z 18005KT 2SM BR OVC002 M06/M07 A2975 RMK ST8 VIS VRB 11/2-21/2 SLP127

CYQF;2018-03-16 15:00;CYQF 161500Z 19007KT 2SM BR OVC002 M06/M07 A2976 RMK ST8 VIS VRB 11/2-21/2 SLP132

CYQF;2018-03-16 15:10;CYQF 161510Z 18006KT 1/2SM FZFG VV002 M06/M07 A2977 RMK FG8 VIS VRB 1/4-5/8 SLP133

CYQF;2018-03-16 15:50;CYQF 161550Z 18008KT 3/4SM BR VV004 M07/M08 A2979 RMK FG8 SLP144

CYQF;2018-03-16 16:00;CYQF 161600Z 19005KT 1SM BR OVC004 M07/M08 A2979 RMK ST8 SLP143

CYQF;2018-03-16 16:16;CYQF 161616Z 22003KT 2SM BR BKN005 M07/M08 A2979 RMK SF7 SLP144

CYQF;2018-03-16 16:21;CYQF 161621Z 23003KT 2 1/2SM BR SCT005 M07/M08 A2979 RMK SF4 SLP144

CYQF;2018-03-16 16:41;CYQF 161641Z VRB02KT 3SM BR FEW008 FEW025 M07/M08 A2980 RMK SF1SC1 SLP146

CYQF;2018-03-16 17:00;CYQF 161700Z 17004KT 5SM BR FEW025 M06/M08 A2980 RMK SC1 SLP147

CYQF;2018-03-16 18:00;CYQF 161800Z 15007KT 6SM BR FEW100 M04/M06 A2982 RMK AC2 SLP150

CYQF;2018-03-16 19:00;CYQF 161900Z 17008KT 6SM BR FEW100 M02/M05 A2982 RMK AC1 SLP150

CYQF;2018-03-16 20:00;CYQF 162000Z 18004KT 8SM FEW020 FEW250 M00/M04 A2984 RMK CF1CI1 CF TR SLP152

CYQF;2018-03-16 21:00;CYQF 162100Z 20010KT 8SM FEW250 01/M04 A2983 RMK CI2 SLP147

CYQF;2018-03-16 22:00;CYQF 162200Z 19007KT 8SM SCT250 01/M03 A2983 RMK CI3 SLP148

CYQF;2018-03-16 23:00;CYQF 162300Z 17008KT 8SM BKN250 01/M03 A2984 RMK CI7 SLP153

CYQF;2018-03-17 00:00;CYQF 170000Z 17005KT 8SM BKN250 00/M04 A2985 RMK CI7 SLP156

CYQF;2018-03-17 01:00;CYQF 170100Z 14004KT 8SM SCT140 BKN240 M00/M04 A2985 RMK AC3CI4 SLP157

CYQF;2018-03-17 02:00;CYQF 170200Z 17006KT 8SM BKN140 M02/M04 A2985 RMK AC7 SLP157

CYQF;2018-03-17 03:00;CYQF 170300Z 20004KT 10SM OVC140 M03/M06 A2986 RMK AC8 SLP161

CYQF;2018-03-17 04:00;CYQF 170400Z 23002KT 12SM OVC140 M04/M06 A2985 RMK AC8 SLP162

CYQF;2018-03-17 05:00;CYQF 170500Z 21004KT 10SM OVC140 M04/M06 A2985 RMK AC8 BR SLP160

CYQF;2018-03-17 06:00;CYQF 170600Z VRB02KT 8SM OVC150 M05/M07 A2984 RMK AC8 BR SLP158

CYQF;2018-03-17 07:00;CYQF 170700Z 15003KT 8SM OVC140 M05/M07 A2984 RMK AC8 BR SLP154

CYQF;2018-03-17 08:00;CYQF 170800Z 00000KT 5SM BR OVC140 M05/M07 A2984 RMK AC8 SLP151

CYQF;2018-03-17 09:00;CYQF 170900Z 00000KT 5SM BR OVC120 M05/M06 A2984 RMK AC8 SLP151

CYQF;2018-03-17 10:00;CYQF 171000Z 10002KT 5SM BR OVC090 M06/M07 A2984 RMK AC8 SLP150

CYQF;2018-03-17 11:00;CYQF 171100Z 28002KT 4SM BR OVC070 M05/M06 A2984 RMK AC8 SLP149

CYQF;2018-03-17 12:00;CYQF 171200Z 26005KT 4SM BR OVC052 M04/M06 A2982 RMK SC8 SLP144

CYQF;2018-03-17 13:00;CYQF 171300Z 24004KT 200V290 4SM BR OVC064 M04/M06 A2982 RMK SC8 SLP145

CYQF;2018-03-17 14:00;CYQF 171400Z 25005KT 3SM BR OVC065 M04/M06 A2982 RMK SC8 SLP144

CYQF;2018-03-17 14:13;CYQF 171413Z 24005KT 2 1/2SM -SN BR OVC065 M04/M06 A2982 RMK SC8 SLP144

CYQF;2018-03-17 15:00;CYQF 171500Z 18003KT 1 1/2SM -SN BR OVC043 M04/M06 A2982 RMK FG2SC6 SLP147

CYQF;2018-03-17 15:37;CYQF 171537Z VRB02KT 3/4SM -SN BR OVC035 M04/M05 A2982 RMK SN4SC4 VIS VRB 1/2-1 SLP148

CYQF;2018-03-17 16:00;CYQF 171600Z 20003KT 3/4SM -SN BR VV025 M04/M05 A2983 RMK SN8 SLP150

CYQF;2018-03-17 16:51;CYQF 171651Z 00000KT 3/4SM -SN BR OVC012 M03/M04 A2983 RMK SC8 SLP150

CYQF;2018-03-17 17:00;CYQF 171700Z 00000KT 3/4SM -SN BR OVC012 M02/M03 A2983 RMK SC8 SLP150

CYQF;2018-03-17 18:00;CYQF 171800Z 01004KT 1SM -SN BR FEW008 BKN025 M01/M02 A2983 RMK SF2SC5 VIS VRB 3/4-11/4 SLP149

CYQF;2018-03-17 19:00;CYQF 171900Z 35004KT 1SM -SN BR BKN008 OVC020 M01/M02 A2983 RMK SN5SF1SC2 VIS VRB 3/4-11/4 SLP151

CYQF;2018-03-17 20:00;CYQF 172000Z 34003KT 1SM -SN BR OVC022 M00/M01 A2984 RMK SN4SC4 VIS VRB 3/4-11/4 SLP151

CYQF;2018-03-17 20:37;CYQF 172037Z 33003KT 1SM -SN BR BKN005 OVC020 00/M01 A2983 RMK SN3ST3SC2 VIS VRB 3/4-11/4 SLP150

CYQF;2018-03-17 21:00;CYQF 172100Z 36006KT 1SM -SN BR OVC006 00/M01 A2984 RMK SN4ST4 SLP151

CYQF;2018-03-17 22:00;CYQF 172200Z 02006KT 3/4SM -SN BR BKN011 VV020 M00/M01 A2984 RMK ST5SN3 VIS VRB 1/2-1 SLP154

CYQF;2018-03-17 23:00;CYQF 172300Z 03006KT 3/4SM -SN BR OVC018 M01/M03 A2985 RMK SN5SC3 VIS VRB 1/2 - 1 SLP158

CYQF;2018-03-18 00:00;CYQF 180000Z 02004KT 1SM -SN BR OVC020 M01/M02 A2986 RMK SN4SC4 SLP160

CYQF;2018-03-18 01:00;CYQF 180100Z 36003KT 1 1/2SM -SN BR OVC026 M02/M03 A2987 RMK FG4SC4 SLP163

CYQF;2018-03-18 02:00;CYQF 180200Z 35003KT 1 1/2SM -SN BR OVC040 M02/M03 A2988 RMK FG4SC4 SLP165

CYQF;2018-03-18 02:43;CYQF 180243Z 35002KT 1SM -SN BR OVC008 M02/M03 A2988 RMK SN4ST4 SLP165

CYQF;2018-03-18 03:00;CYQF 180300Z 01003KT 1SM -SN BR OVC009 M02/M03 A2988 RMK SN4ST4 SLP167

CYQF;2018-03-18 04:00;CYQF 180400Z 02007KT 1 1/2SM -SN BR OVC006 M03/M03 A2989 RMK SN4ST4 SLP169

CYQF;2018-03-18 05:00;CYQF 180500Z 02004KT 2SM -SN BR FEW006 OVC016 M03/M04 A2989 RMK SF2SC6 SLP170

CYQF;2018-03-18 06:00;CYQF 180600Z 34002KT 1 1/2SM -SN BR VV018 M03/M04 A2990 RMK SN8 /S01/ SLP171

CYQF;2018-03-18 07:00;CYQF 180700Z 35003KT 1 1/2SM -SN BR OVC022 M03/M04 A2990 RMK SC8 SLP172

CYQF;2018-03-18 08:00;CYQF 180800Z 33004KT 1 1/2SM -SN OVC021 M04/M04 A2990 RMK SC8 SLP173

CYQF;2018-03-18 09:00;CYQF 180900Z 32004KT 2SM -SN OVC009 M04/M04 A2991 RMK SC8 /S01/ SLP175

CYQF;2018-03-18 10:00;CYQF 181000Z 33006KT 3SM -SN OVC009 M03/M04 A2991 RMK SC8 SLP176

CYQF;2018-03-18 11:00;CYQF 181100Z 34008KT 1 1/2SM -SN VV016 M04/M05 A2992 RMK SN8 SLP181

CYQF;2018-03-18 11:39;CYQF 181139Z 34008KT 4SM -SN FEW009 OVC050 M04/M05 A2993 RMK SF2SC6 SLP184

CYQF;2018-03-18 12:00;CYQF 181200Z 35008KT 4SM -SN FEW018 OVC050 M04/M06 A2993 RMK SC2SC6 /S01/ SLP185

CYQF;2018-03-18 12:44;CYQF 181244Z 35006KT 1 1/2SM -SN VV020 M04/M06 A2994 RMK SN8 SLP187

CYQF;2018-03-18 13:00;CYQF 181300Z 34007KT 1 1/2SM -SN VV030 M04/M06 A2995 RMK SN8 SLP190

CYQF;2018-03-18 13:22;CYQF 181322Z 35005KT 3SM -SN OVC045 M05/M06 A2995 RMK SC8 SLP191

CYQF;2018-03-18 13:44;CYQF 181344Z 34006KT 2 1/2SM -SN OVC058 M05/M06 A2995 RMK SC8 VIS VRB 2-3 SLP192

CYQF;2018-03-18 14:00;CYQF 181400Z 35006KT 2SM -SN OVC058 M04/M05 A2996 RMK SC8 VIS VRB 1-3 SLP194

CYQF;2018-03-18 15:00;CYQF 181500Z 35008KT 1 1/2SM -SN OVC035 M04/M05 A2996 RMK SC8 VIS VRB 1-2 SLP195

CYQF;2018-03-18 16:00;CYQF 181600Z 34008KT 3/4SM -SN VV012 M03/M05 A2998 RMK SN8 VIS VRB 1/2-1 SLP203

CYQF;2018-03-18 17:00;CYQF 181700Z 33009KT 1 1/2SM -SN VV025 M03/M04 A3000 RMK SN8 VIS VRB 1-2 SLP208

CYQF;2018-03-18 18:00;CYQF 181800Z 33007KT 1 1/2SM -SN OVC010 M02/M04 A3001 RMK SN6SC2 VIS VRB 1-2 /S02/ SLP212

CYQF;2018-03-18 19:00;CYQF 181900Z 33007KT 2SM -SN OVC017 M02/M04 A3002 RMK SC8 VIS VRB 11/2-21/2 SLP213

CYQF;2018-03-18 19:26;CYQF 181926Z 32008KT 3SM -SN SCT010 OVC017 M01/M04 A3002 RMK ST4SC4 SLP214

CYQF;2018-03-18 20:00;CYQF 182000Z 32008KT 6SM -SN SCT012 OVC020 M01/M04 A3002 RMK SF4SC4 SLP214

CYQF;2018-03-18 20:29;CYQF 182029Z 31006KT 2SM -SN OVC011 M01/M03 A3002 RMK SC8 SLP214

CYQF;2018-03-18 21:00;CYQF 182100Z 31007KT 3SM -SN BR BKN011 OVC040 M01/M03 A3002 RMK SC5SC3 SLP212

CYQF;2018-03-18 22:00;CYQF 182200Z 34007KT 1 1/2SM -SN BR SCT011 VV020 M01/M03 A3002 RMK SC3SN5 VIS VRB 1-2 SLP213

CYQF;2018-03-18 23:00;CYQF 182300Z 02010KT 2SM -SN BR OVC015 M02/M03 A3003 RMK SN3SC5 VIS VRB 1-3 SLP217

CYQF;2018-03-19 00:00;CYQF 190000Z 03008KT 2SM -SN BR OVC018 M02/M04 A3004 RMK SN4SC4 VIS VRB 1-3 SLP224

CYQF;2018-03-19 01:00;CYQF 190100Z 02005KT 2 1/2SM -SN BR FEW020 OVC060 M03/M04 A3005 RMK SC2SC6 SLP228

CYQF;2018-03-19 02:00;CYQF 190200Z 02004KT 2 1/2SM -SN BR FEW015 OVC055 M03/M05 A3006 RMK SC1SC7 SLP231

CYQF;2018-03-19 02:16;CYQF 190216Z 02004KT 4SM -SN FEW015 OVC055 M03/M05 A3006 RMK SC1SC7 SLP232

CYQF;2018-03-19 03:00;CYQF 190300Z 01003KT 10SM -SN OVC084 M04/M05 A3007 RMK AC8 SLP233

CYQF;2018-03-19 04:00;CYQF 190400Z 00000KT 10SM -SN OVC085 M04/M05 A3007 RMK AC8 SLP235

CYQF;2018-03-19 04:33;CYQF 190433Z VRB02KT 6SM -SN FEW007 OVC083 M04/M05 A3008 RMK SC2AC6 SLP237

CYQF;2018-03-19 05:00;CYQF 190500Z 19002KT 6SM -SN BR BKN007 OVC080 M04/M05 A3007 RMK ST5AC3 SLP235

CYQF;2018-03-19 06:00;CYQF 190600Z 21004KT 5SM -SN BR SCT023 OVC080 M04/M05 A3007 RMK ST3AC5 SLP232

CYQF;2018-03-19 06:37;CYQF 190637Z 22002KT 6SM BR SCT020 OVC075 M04/M05 A3006 RMK SC4AC4 SLP231

CYQF;2018-03-19 07:00;CYQF 190700Z 00000KT 6SM BR BKN021 OVC074 M06/M07 A3006 RMK SC5AC3 SLP230

CYQF;2018-03-19 08:00;CYQF 190800Z 16003KT 5SM BR FEW010 BKN020 OVC073 M06/M06 A3005 RMK ST2SC3AC3 SLP227

CYQF;2018-03-19 09:00;CYQF 190900Z 17003KT 6SM BR FEW020 OVC070 M06/M06 A3005 RMK SC2AC6 SLP225

CYQF;2018-03-19 10:00;CYQF 191000Z 18005KT 8SM FEW036 OVC070 M06/M06 A3003 RMK SC2AC6 BR SLP221

CYQF;2018-03-19 11:00;CYQF 191100Z 18004KT 8SM FEW004 SCT023 OVC070 M06/M07 A3002 RMK ST2SC2AC4 BR SLP219

CYQF;2018-03-19 12:00;CYQF 191200Z 15005KT 8SM FEW004 BKN070 M08/M09 A3002 RMK ST2AC3 BR SLP220

CYQF;2018-03-19 12:27;CYQF 191227Z 16003KT 1/2SM FZFG FEW002 SCT070 M09/M10 A3001 RMK ST1AC3 SLP219

CYQF;2018-03-19 13:00;CYQF 191300Z 17002KT 1/8SM FZFG VV002 M11/M12 A3001 RMK FG8 SLP221

CYQF;2018-03-19 14:00;CYQF 191400Z 19006KT 1/8SM FZFG VV002 M08/M09 A3001 RMK FG8 SLP217

CYQF;2018-03-19 14:10;CYQF 191410Z 18005KT 1/4SM FZFG VV003 M08/M09 A3001 RMK FG8 SLP217

CYQF;2018-03-19 14:19;CYQF 191419Z 18005KT 1/2SM FZFG OVC002 M08/M09 A3001 RMK ST8 SLP217

CYQF;2018-03-19 14:25;CYQF 191425Z 19004KT 1/4SM FZFG OVC002 M09/M10 A3001 RMK FG4ST4 SLP218

CYQF;2018-03-19 15:00;CYQF 191500Z 18006KT 1/8SM FZFG VV001 M09/M10 A3000 RMK FG8 SLP217

CYQF;2018-03-19 16:00;CYQF 191600Z 20005KT 1/8SM FZFG VV002 M08/M09 A3000 RMK FG8 SLP216

CYQF;2018-03-19 17:00;CYQF 191700Z 17004KT 1/8SM FZFG VV002 M08/M09 A3000 RMK FG8 SLP213

CYQF;2018-03-19 18:00;CYQF 191800Z 18003KT 1/4SM FZFG VV002 M07/M07 A2999 RMK FG8 SLP209

CYQF;2018-03-19 18:21;CYQF 191821Z 18002KT 1/2SM FZFG BKN002 M06/M07 A2998 RMK ST7 SLP206

CYQF;2018-03-19 18:26;CYQF 191826Z VRB02KT 3/4SM BR BKN003 M06/M07 A2998 RMK ST7 SLP206

CYQF;2018-03-19 18:31;CYQF 191831Z 17003KT 130V230 1SM BR BKN003 M06/M07 A2998 RMK ST6 SLP206

CYQF;2018-03-19 18:34;CYQF 191834Z 18002KT 1 1/2SM BR BKN003 M06/M07 A2998 RMK ST5 VIS S 6 SLP205

CYQF;2018-03-19 18:42;CYQF 191842Z 00000KT 3SM BR SCT003 M05/M06 A2998 RMK ST4 VIS VRB 6 SLP204

CYQF;2018-03-19 19:00;CYQF 191900Z 17002KT 6SM BR SKC M05/M06 A2997 RMK SLP203

CYQF;2018-03-19 20:00;CYQF 192000Z 14004KT 6SM BR FEW250 M04/M05 A2995 RMK CI1 SLP196

CYQF;2018-03-19 21:00;CYQF 192100Z 15004KT 6SM BR FEW250 M02/M05 A2993 RMK CI1 SLP185

CYQF;2018-03-19 22:00;CYQF 192200Z 15005KT 6SM BR FEW250 M01/M05 A2991 RMK CI2 SLP179

CYQF;2018-03-19 23:00;CYQF 192300Z 15006KT 8SM SCT250 M01/M06 A2990 RMK CI4 SLP174

CYQF;2018-03-20 00:00;CYQF 200000Z 17006KT 8SM BKN250 M02/M07 A2989 RMK CI5 SLP173

CYQF;2018-03-20 01:00;CYQF 200100Z 16006KT 8SM FEW070 BKN250 M05/M09 A2988 RMK AC1CI4 SLP177

CYQF;2018-03-20 02:00;CYQF 200200Z 18005KT 8SM FEW070 BKN250 M08/M10 A2987 RMK AC2CI4 SLP174

CYQF;2018-03-20 03:00;CYQF 200300Z 19006KT 12SM BKN075 BKN210 M07/M09 A2987 RMK AC5CI2 SLP174

CYQF;2018-03-20 04:00;CYQF 200400Z 17005KT 10SM BKN070 M08/M10 A2987 RMK AC7 SLP173

CYQF;2018-03-20 05:00;CYQF 200500Z 19004KT 10SM OVC084 M06/M08 A2986 RMK AC8 BR SLP167

CYQF;2018-03-20 06:00;CYQF 200600Z 20002KT 10SM OVC080 M05/M07 A2985 RMK AC8 BR SLP164

CYQF;2018-03-20 07:00;CYQF 200700Z 20004KT 10SM OVC090 M04/M07 A2984 RMK AC8 SLP158

CYQF;2018-03-20 07:52;CYQF 200752Z 03003KT 310V040 8SM -SN OVC060 M04/M06 A2986 RMK SC8 SLP163

CYQF;2018-03-20 08:00;CYQF 200800Z VRB02KT 10SM -SN OVC060 M04/M06 A2985 RMK SC8 SLP159

CYQF;2018-03-20 08:14;CYQF 200814Z 20003KT 190V290 10SM OVC060 M04/M06 A2985 RMK SC8 SLP158

CYQF;2018-03-20 09:00;CYQF 200900Z 26005KT 12SM -SN OVC050 M03/M05 A2985 RMK SC8 SLP156

CYQF;2018-03-20 10:00;CYQF 201000Z 26005KT 240V330 12SM -SN OVC034 02/M02 A2984 RMK SC8 SLP146

CYQF;2018-03-20 10:11;CYQF 201011Z 22005KT 200V260 12SM OVC030 01/M01 A2984 RMK SC8 SLP146

CYQF;2018-03-20 11:00;CYQF 201100Z 24008KT 15SM OVC064 00/M02 A2983 RMK SC8 SLP145

CYQF;2018-03-20 12:00;CYQF 201200Z 23004KT 15SM BKN062 BKN120 M02/M04 A2982 RMK SC6AC1 SLP145

CYQF;2018-03-20 13:00;CYQF 201300Z VRB02KT 15SM BKN090 BKN250 M04/M06 A2983 RMK AC5CI2 SLP153

CYQF;2018-03-20 14:00;CYQF 201400Z 24006KT 15SM FEW064 BKN090 BKN250 M03/M05 A2983 RMK SC2AC4CI1 SLP157

CYQF;2018-03-20 15:00;CYQF 201500Z 21006KT 15SM FEW100 SCT180 BKN250 M05/M06 A2982 RMK AC2AC2CI2 SLP154

CYQF;2018-03-20 16:00;CYQF 201600Z 23009KT 15SM SCT070 BKN250 M02/M05 A2981 RMK AC3CI3 SLP148

CYQF;2018-03-20 17:00;CYQF 201700Z 24006KT 15SM FEW070 BKN130 00/M04 A2982 RMK AC1AC6 SLP145

CYQF;2018-03-20 18:00;CYQF 201800Z 21004KT 15SM FEW070 BKN120 02/M03 A2981 RMK AC1AC6 SLP139

CYQF;2018-03-20 19:00;CYQF 201900Z 17006KT 15SM FEW025 SCT120 BKN250 03/M03 A2980 RMK CU1AC3CI3 CU TR SLP133

CYQF;2018-03-20 20:00;CYQF 202000Z 17005KT 15SM FEW030 BKN250 04/M02 A2979 RMK CU2CI4 SLP128

CYQF;2018-03-20 21:00;CYQF 202100Z 17008KT 15SM FEW030 SCT120 BKN250 04/M02 A2978 RMK CU1AC2CI3 SLP123

CYQF;2018-03-20 22:00;CYQF 202200Z 16007KT 15SM FEW070 BKN250 04/M02 A2976 RMK AC1CI6 SLP112

CYQF;2018-03-20 23:00;CYQF 202300Z 18008KT 15SM FEW100 BKN250 04/M02 A2976 RMK AC1CI5 SLP113

CYQF;2018-03-21 00:00;CYQF 210000Z 18007KT 15SM FEW100 BKN250 03/M02 A2976 RMK AC1CI4 SLP116

CYQF;2018-03-21 01:00;CYQF 210100Z 17004KT 15SM FEW120 BKN250 02/M02 A2976 RMK AC2CI5 SLP119

CYQF;2018-03-21 02:00;CYQF 210200Z 12006KT 15SM SCT150 BKN250 00/M03 A2975 RMK AC3CI4 SLP119

CYQF;2018-03-21 03:00;CYQF 210300Z 13006KT 15SM BKN170 M00/M03 A2976 RMK AC6 SLP123

CYQF;2018-03-21 04:00;CYQF 210400Z 14004KT 15SM BKN170 M00/M03 A2975 RMK AC7 SLP118

CYQF;2018-03-21 05:00;CYQF 210500Z 36004KT 12SM BKN160 M02/M04 A2975 RMK AC7 SLP117

CYQF;2018-03-21 06:00;CYQF 210600Z 05002KT 12SM SCT190 M04/M04 A2975 RMK AC4 SLP118

CYQF;2018-03-21 07:00;CYQF 210700Z 00000KT 4SM BR SCT100 M03/M04 A2976 RMK AC3 SLP120

CYQF;2018-03-21 08:00;CYQF 210800Z 15002KT 4SM BR SCT220 M06/M07 A2976 RMK CI3 SLP120

CYQF;2018-03-21 08:22;CYQF 210822Z 28005KT 1SM BR SCT210 M06/M06 A2977 RMK CI3 SLP122

CYQF;2018-03-21 09:00;CYQF 210900Z 31004KT 2SM BR SCT120 M06/M07 A2977 RMK AC3 SLP126

CYQF;2018-03-21 10:00;CYQF 211000Z VRB02KT 3/4SM BR VV002 M09/M10 A2977 RMK FG8 SLP126

CYQF;2018-03-21 10:15;CYQF 211015Z VRB02KT 1/4SM FZFG VV002 M11/M12 A2977 RMK FG8 SLP130

CYQF;2018-03-21 11:00;CYQF 211100Z 23003KT 1/4SM FZFG VV002 M12/M14 A2978 RMK FG8 SLP134

CYQF;2018-03-21 11:41;CYQF 211141Z 19004KT 1SM BR SCT002 BKN090 M11/M12 A2978 RMK ST4AC3 SLP133

CYQF;2018-03-21 12:00;CYQF 211200Z 00000KT 1SM BR SCT002 OVC090 M10/M11 A2979 RMK ST3AC5 FROIN SLP135

CYQF;2018-03-21 12:18;CYQF 211218Z 19003KT 1 1/2SM BR SCT002 BKN090 M10/M11 A2979 RMK ST3AC4 SLP135

CYQF;2018-03-21 13:00;CYQF 211300Z VRB02KT 1 1/2SM BR OVC090 M09/M11 A2979 RMK AC8 SLP138

CYQF;2018-03-21 14:00;CYQF 211400Z 18002KT 2SM BR BKN090 M10/M11 A2980 RMK AC7 SLP143

CYQF;2018-03-21 14:52;CYQF 211452Z 00000KT 3SM BR SCT090 BKN250 M10/M11 A2981 RMK AC3CI3 SLP146

CYQF;2018-03-21 15:00;CYQF 211500Z 16003KT 3SM BR SCT090 BKN250 M10/M11 A2981 RMK AC3CI3 SLP146

CYQF;2018-03-21 15:33;CYQF 211533Z 20004KT 2SM BR FEW090 BKN250 M09/M10 A2981 RMK AC2CI5 SLP148

CYQF;2018-03-21 16:00;CYQF 211600Z 19003KT 2SM BR SCT090 BKN250 M09/M10 A2982 RMK FG2AC2CI2 VIS VRB 11/2-21/2 SLP149

CYQF;2018-03-21 16:47;CYQF 211647Z 21004KT 3SM BR FEW090 BKN250 M07/M08 A2983 RMK AC2CI4 SLP151

CYQF;2018-03-21 17:00;CYQF 211700Z 20004KT 3SM BR FEW090 BKN250 M06/M07 A2983 RMK AC2CI4 SLP152

CYQF;2018-03-21 18:00;CYQF 211800Z 19003KT 4SM BR FEW090 SCT250 M02/M05 A2985 RMK AC2CI2 SLP155

CYQF;2018-03-21 19:00;CYQF 211900Z 02003KT 6SM BR BKN250 01/M04 A2985 RMK CI6 SLP153

CYQF;2018-03-21 20:00;CYQF 212000Z 35006KT 5SM BR BKN250 01/M01 A2986 RMK CI6 SLP158

CYQF;2018-03-21 21:00;CYQF 212100Z 01008KT 5SM BR BKN250 02/M01 A2986 RMK CI7 SLP157

CYQF;2018-03-21 22:00;CYQF 212200Z 05006KT 5SM BR FEW140 BKN250 02/M01 A2986 RMK AC1CI6 SLP160

CYQF;2018-03-21 23:00;CYQF 212300Z 07010KT 5SM BR FEW140 BKN250 02/M02 A2987 RMK AC2CI5 SLP168

CYQF;2018-03-22 00:00;CYQF 220000Z 06009KT 6SM BR FEW140 BKN250 01/M03 A2988 RMK AC1CI6 SLP171

CYQF;2018-03-22 01:00;CYQF 220100Z 07009KT 6SM BR FEW140 BKN250 01/M03 A2990 RMK AC2CI4 SLP177

CYQF;2018-03-22 02:00;CYQF 220200Z 05008KT 6SM BR FEW140 BKN250 M01/M03 A2991 RMK AC2CI3 SLP183

CYQF;2018-03-22 03:00;CYQF 220300Z 05006KT 10SM SCT092 BKN230 M02/M04 A2993 RMK AC3CI2 SLP189

CYQF;2018-03-22 04:00;CYQF 220400Z 06005KT 8SM SCT090 BKN250 M02/M04 A2994 RMK AC4CI3 SLP194

CYQF;2018-03-22 04:51;CYQF 220451Z 03004KT 4SM BR FEW040 SCT090 BKN180 M04/M05 A2994 RMK SC2AC2AC2 SLP197

CYQF;2018-03-22 05:00;CYQF 220500Z 04005KT 4SM BR SCT008 BKN180 M04/M06 A2994 RMK ST3AC4 SLP194

CYQF;2018-03-22 06:00;CYQF 220600Z 16004KT 090V170 4SM BR BKN005 OVC180 M03/M04 A2996 RMK ST6AC2 PRESRR SLP193

CYQF;2018-03-22 07:00;CYQF 220700Z 10003KT 090V210 5SM BR OVC004 M03/M04 A2996 RMK ST8 SLP191

CYQF;2018-03-22 07:24;CYQF 220724Z 07005KT 3SM BR OVC003 M03/M04 A2996 RMK ST8 SLP191

CYQF;2018-03-22 07:51;CYQF 220751Z 10003KT 2SM BR OVC002 M03/M04 A2997 RMK ST8 SLP195

CYQF;2018-03-22 08:00;CYQF 220800Z 12004KT 070V160 1/2SM FZFG VV002 M04/M04 A2998 RMK FG8 SLP196

CYQF;2018-03-22 08:35;CYQF 220835Z 11003KT 070V140 1/8SM FZFG VV002 M04/M05 A2998 RMK FG8 SLP197

CYQF;2018-03-22 09:00;CYQF 220900Z 08004KT 360V090 1/8SM FZFG VV002 M05/M05 A2998 RMK FG8 SLP198

CYQF;2018-03-22 10:00;CYQF 221000Z 05006KT 1/8SM FZFG VV002 M05/M06 A2998 RMK FG8 SLP198

CYQF;2018-03-22 11:00;CYQF 221100Z 07005KT 1/4SM FZFG VV002 M06/M06 A2999 RMK FG8 VIS VRB 0-1/2 SLP201

CYQF;2018-03-22 12:00;CYQF 221200Z CCA 10006KT 1/4SM FZFG VV002 M06/M07 A2999 RMK FG8 VIS VRB 0-1/2 SLP203

CYQF;2018-03-22 13:00;CYQF 221300Z 12003KT 1/4SM FZFG VV003 M07/M07 A2998 RMK FG8 VIS VRB 1/8-1/2 SLP202

CYQF;2018-03-22 14:00;CYQF 221400Z 10006KT 1/4SM FZFG VV002 M06/M07 A2998 RMK FG8 SLP202

CYQF;2018-03-22 14:49;CYQF 221449Z 15007KT 1/2SM FZFG VV003 M06/M07 A2999 RMK FG8 SLP205

CYQF;2018-03-22 15:00;CYQF 221500Z 11006KT 1SM BR VV003 M06/M07 A2998 RMK FG8 SLP203

CYQF;2018-03-22 15:43;CYQF 221543Z 11004KT 080V160 1 1/2SM BR VV004 M06/M06 A2997 RMK FG8 SLP199

CYQF;2018-03-22 16:00;CYQF 221600Z 09008KT 1 1/2SM BR VV004 M05/M06 A2997 RMK FG8 SLP198

CYQF;2018-03-22 17:00;CYQF 221700Z 19003KT 130V200 2SM BR VV004 M05/M06 A2997 RMK FG8 SLP202

CYQF;2018-03-22 18:00;CYQF 221800Z 00000KT 2SM BR VV008 M04/M04 A2996 RMK FG8 SLP194

CYQF;2018-03-22 18:51;CYQF 221851Z 15008KT 3SM BR OVC008 M03/M04 A2995 RMK FG2ST6 SLP193

CYQF;2018-03-22 19:00;CYQF 221900Z 14008KT 5SM BR OVC007 M04/M04 A2995 RMK ST8 SLP190

CYQF;2018-03-22 20:00;CYQF 222000Z 15008KT 5SM BR OVC007 M03/M05 A2993 RMK ST8 SLP184

CYQF;2018-03-22 21:00;CYQF 222100Z 11007KT 5SM BR BKN007 OVC070 M03/M05 A2990 RMK ST7AC1 SLP175

CYQF;2018-03-22 21:43;CYQF 222143Z 12005KT 5SM BR FEW007 OVC067 M03/M05 A2989 RMK ST1AC7 SLP170

CYQF;2018-03-22 22:00;CYQF 222200Z 10005KT 5SM BR FEW012 OVC062 M02/M05 A2988 RMK SF1SC8 SF TR SLP168

CYQF;2018-03-22 23:00;CYQF 222300Z 11011KT 6SM BR FEW010 OVC062 M01/M04 A2985 RMK SF1SC7 SLP158

CYQF;2018-03-23 00:00;CYQF 230000Z 09014KT 6SM BR SCT012 OVC060 M01/M03 A2980 RMK SC4SC4 SLP139

CYQF;2018-03-23 00:28;CYQF 230028Z 10011G17KT 6SM BR BKN011 OVC060 M01/M03 A2980 RMK SC6SC2 SLP141

CYQF;2018-03-23 01:00;CYQF 230100Z 11008KT 6SM BR BKN012 OVC060 M01/M03 A2980 RMK SC7SC1 CIG RAG SLP141

CYQF;2018-03-23 01:35;CYQF 230135Z 12011G16KT 3SM -SN BR OVC011 M01/M03 A2980 RMK SC8 SLP142

CYQF;2018-03-23 02:00;CYQF 230200Z 12015KT 3SM -SN BR OVC009 M01/M03 A2979 RMK SC8 VIS VRB 2-4 CIG RAG SLP136

CYQF;2018-03-23 02:14;CYQF 230214Z 11013KT 1 1/2SM -SN BR OVC009 M01/M03 A2979 RMK SC8 VIS VRB 1-2 SLP135

CYQF;2018-03-23 03:00;CYQF 230300Z 11013KT 1 1/2SM -SN BR OVC009 M01/M02 A2977 RMK SC8 VIS VRB 1-2 SLP131

CYQF;2018-03-23 04:00;CYQF 230400Z 10014G19KT 1 1/2SM -SN BR OVC009 M01/M02 A2973 RMK SC8 VIS VRB 1-2 SLP115

CYQF;2018-03-23 05:00;CYQF 230500Z 11014G21KT 1SM -SN DRSN OVC012 M01/M01 A2968 RMK SN4SC4 SLP098

CYQF;2018-03-23 05:38;CYQF 230538Z 12015KT 1 1/2SM -SN DRSN OVC009 M00/M01 A2967 RMK SN6SC2 SLP092

CYQF;2018-03-23 06:00;CYQF 230600Z 13016G22KT 1 1/2SM -SN DRSN VV009 M00/M01 A2966 RMK SN8 SLP089

CYQF;2018-03-23 06:46;CYQF 230646Z 13017G22KT 3SM -SN DRSN OVC009 M00/M01 A2963 RMK SC8 SLP079

CYQF;2018-03-23 07:00;CYQF 230700Z 13016G21KT 3SM -SN DRSN OVC008 00/M01 A2963 RMK SC8 SLP077

CYQF;2018-03-23 08:00;CYQF 230800Z 14017KT 3SM -SN DRSN OVC006 00/M01 A2961 RMK SC8 SLP068

CYQF;2018-03-23 09:00;CYQF 230900Z 14021KT 3SM -SN DRSN OVC005 00/M01 A2961 RMK SC8 SLP069

CYQF;2018-03-23 10:00;CYQF 231000Z 14012KT 5SM -SN DRSN BKN007 OVC020 M00/M01 A2956 RMK SC6SC2 PRESFR SLP052

CYQF;2018-03-23 11:00;CYQF 231100Z 16013G19KT 4SM -SN DRSN OVC007 00/M00 A2955 RMK SC8 SLP048

CYQF;2018-03-23 11:12;CYQF 231112Z 16017KT 4SM -SN DRSN OVC003 00/M00 A2955 RMK SC8 SLP048

CYQF;2018-03-23 12:00;CYQF 231200Z 17014G21KT 5SM -SN DRSN OVC005 00/M00 A2954 RMK SC8 SLP042

CYQF;2018-03-23 12:51;CYQF 231251Z 16015KT 7SM OVC006 M01/M02 A2952 RMK SC8 SLP037

CYQF;2018-03-23 13:00;CYQF 231300Z 16012KT 10SM OVC007 M01/M02 A2952 RMK SC8 SLP038

CYQF;2018-03-23 13:41;CYQF 231341Z 18010KT 8SM BKN008 BKN250 M03/M04 A2954 RMK SF5CI2 SLP045

CYQF;2018-03-23 13:49;CYQF 231349Z 17014KT 8SM SCT008 BKN250 M03/M05 A2954 RMK SF3CI2 SLP047

CYQF;2018-03-23 14:00;CYQF 231400Z 17011KT 8SM FEW008 SCT250 M04/M05 A2955 RMK SF2CI2 SLP049

CYQF;2018-03-23 15:00;CYQF 231500Z 22008KT 180V250 8SM FEW250 M05/M07 A2956 RMK CI2 PRESRR SLP056

CYQF;2018-03-23 16:00;CYQF 231600Z 25006KT 200V280 8SM SCT250 M03/M06 A2961 RMK CI3 SLP069

CYQF;2018-03-23 17:00;CYQF 231700Z VRB04KT 8SM FEW090 BKN250 M01/M05 A2966 RMK AC2CI3 SLP085

CYQF;2018-03-23 18:00;CYQF 231800Z 20004KT 190V270 8SM SCT090 SCT250 M00/M04 A2968 RMK AC3CI1 SLP091

CYQF;2018-03-23 19:00;CYQF 231900Z 21005KT 8SM FEW015 FEW080 01/M04 A2969 RMK CU1AC1 CU TR SLP091

CYQF;2018-03-23 20:00;CYQF 232000Z 19005KT 8SM FEW030 FEW090 02/M04 A2970 RMK CU1AC1 CU TR AC TR SLP093

CYQF;2018-03-23 21:00;CYQF 232100Z 17004KT 8SM FEW035 FEW250 03/M06 A2970 RMK CU1CI1 CU TR CI TR SLP092

CYQF;2018-03-23 22:00;CYQF 232200Z 16006KT 8SM FEW040 SCT250 04/M06 A2970 RMK CU1CI3 SLP094

CYQF;2018-03-23 23:00;CYQF 232300Z 14010KT 12SM FEW040 SCT250 03/M04 A2971 RMK CU1CI3 SLP097

CYQF;2018-03-24 00:00;CYQF 240000Z 15011KT 15SM FEW040 SCT250 03/M05 A2970 RMK CU1CI3 SLP093

CYQF;2018-03-24 01:00;CYQF 240100Z 14013KT 15SM FEW040 SCT100 BKN180 01/M06 A2968 RMK CU1AC3AC2 SLP090

CYQF;2018-03-24 02:00;CYQF 240200Z 15017KT 15SM FEW100 BKN220 00/M08 A2965 RMK AC1CI5 SLP085

CYQF;2018-03-24 03:00;CYQF 240300Z 16018KT 15SM FEW100 BKN210 00/M08 A2963 RMK AC1CI5 SLP080

CYQF;2018-03-24 04:00;CYQF 240400Z 21011KT 210V270 15SM BKN140 M01/M07 A2965 RMK AC7 SLP083

CYQF;2018-03-24 05:00;CYQF 240500Z 25004KT 160V260 15SM BKN140 M01/M08 A2963 RMK AC6 SLP075

CYQF;2018-03-24 06:00;CYQF 240600Z 23014G19KT 15SM BKN120 01/M08 A2961 RMK AC6 SLP064

CYQF;2018-03-24 07:00;CYQF 240700Z 21013KT 15SM FEW120 M00/M07 A2962 RMK AC2 SLP068

CYQF;2018-03-24 08:00;CYQF 240800Z 24011KT 15SM SKC M01/M07 A2962 RMK SLP070

CYQF;2018-03-24 09:00;CYQF 240900Z 25011KT 15SM FEW220 M02/M08 A2963 RMK CI2 SLP071

CYQF;2018-03-24 10:00;CYQF 241000Z 26013KT 15SM FEW220 M01/M09 A2963 RMK CI2 SLP069

CYQF;2018-03-24 11:00;CYQF 241100Z 24011KT 15SM FEW180 M01/M11 A2962 RMK AC2 SLP069

CYQF;2018-03-24 12:00;CYQF 241200Z 28007KT 15SM SKC M02/M13 A2963 RMK SLP072

CYQF;2018-03-24 13:00;CYQF 241300Z 19006KT 15SM FEW250 M07/M14 A2964 RMK CI2 SLP083

CYQF;2018-03-24 14:00;CYQF 241400Z 18002KT 15SM SCT200 M08/M14 A2964 RMK CI4 SLP087

CYQF;2018-03-24 15:00;CYQF 241500Z 20006KT 15SM BKN170 M08/M14 A2964 RMK AC6 SLP085

CYQF;2018-03-24 16:00;CYQF 241600Z 18005KT 15SM BKN150 M08/M13 A2964 RMK AC7 SLP086

CYQF;2018-03-24 17:00;CYQF 241700Z 21004KT 15SM BKN160 M05/M11 A2963 RMK AC7 SLP081

CYQF;2018-03-24 18:00;CYQF 241800Z 17004KT 120V180 15SM BKN160 M02/M11 A2964 RMK AC7 SLP079

CYQF;2018-03-24 19:00;CYQF 241900Z 18002KT 15SM FEW040 BKN250 M00/M10 A2964 RMK CU1CI6 SLP078

CYQF;2018-03-24 20:00;CYQF 242000Z 00000KT 15SM FEW040 BKN180 00/M09 A2964 RMK CU1AC6 SLP076

CYQF;2018-03-24 21:00;CYQF 242100Z 00000KT 15SM FEW040 BKN180 00/M10 A2962 RMK CU1AC6 SLP073

CYQF;2018-03-24 22:00;CYQF 242200Z 07004KT 15SM FEW040 BKN160 BKN250 02/M09 A2962 RMK CU1AC5CI1 SLP068

CYQF;2018-03-24 23:00;CYQF 242300Z 09006KT 15SM FEW040 SCT140 BKN250 02/M09 A2962 RMK CU1AC3CI3 CU TR SLP069

CYQF;2018-03-25 00:00;CYQF 250000Z 07005KT 15SM FEW040 FEW150 BKN250 02/M08 A2962 RMK CU1AC2CI3 CU TR SLP070

CYQF;2018-03-25 01:00;CYQF 250100Z 09007KT 15SM FEW040 SCT150 BKN250 00/M08 A2963 RMK SC1AC2CI4 SLP082

CYQF;2018-03-25 02:00;CYQF 250200Z 09005KT 15SM FEW040 BKN140 M02/M08 A2964 RMK SC1AC4 SLP087

CYQF;2018-03-25 03:00;CYQF 250300Z 10003KT 15SM FEW140 SCT250 M04/M08 A2965 RMK AC2CI2 SLP092

CYQF;2018-03-25 04:00;CYQF 250400Z 02002KT 15SM FEW150 SCT250 M06/M08 A2966 RMK AC1CI2 SLP099

CYQF;2018-03-25 05:00;CYQF 250500Z 36002KT 15SM FEW150 FEW250 M05/M07 A2967 RMK AC1CI2 AC TR SLP098

CYQF;2018-03-25 06:00;CYQF 250600Z 00000KT 15SM SCT220 M06/M06 A2968 RMK CI3 SLP099

CYQF;2018-03-25 07:00;CYQF 250700Z VRB02KT 10SM PRFG SCT200 M08/M09 A2969 RMK CI3 FG INVDG FM W SLP103

CYQF;2018-03-25 07:06;CYQF 250706Z VRB02KT 1/2SM FZFG OVC200 M09/M10 A2969 RMK FG6CI2 VIS HIER E SLP104

CYQF;2018-03-25 07:48;CYQF 250748Z VRB02KT 1/8SM FZFG VV001 M11/M12 A2970 RMK FG8 SLP109

CYQF;2018-03-25 08:00;CYQF 250800Z 06002KT 1/8SM FZFG VV001 M10/M11 A2970 RMK FG8 SLP108

CYQF;2018-03-25 09:00;CYQF 250900Z 09003KT 0SM FZFG VV001 M08/M10 A2970 RMK FG8 SLP108

CYQF;2018-03-25 10:00;CYQF 251000Z 20002KT 1/8SM FZFG VV001 M09/M10 A2971 RMK FG8 SLP108

CYQF;2018-03-25 11:00;CYQF 251100Z 19005KT 1/8SM FZFG VV001 M09/M10 A2972 RMK FG8 SLP112

CYQF;2018-03-25 12:00;CYQF 251200Z 19006KT 1/8SM FZFG VV002 M10/M12 A2973 RMK FG8 VIS VRB 0-1/4 SLP117

CYQF;2018-03-25 13:00;CYQF 251300Z 18006KT 1/8SM FZFG VV002 M10/M12 A2974 RMK FG8 SLP122

CYQF;2018-03-25 13:47;CYQF 251347Z 17005KT 1/4SM FZFG VV002 M12/M13 A2974 RMK FG8 SLP126

CYQF;2018-03-25 13:52;CYQF 251352Z 17004KT 1/2SM FZFG VV002 M12/M13 A2974 RMK FG8 SLP126

CYQF;2018-03-25 14:00;CYQF 251400Z 15002KT 1/2SM FZFG VV002 M12/M13 A2975 RMK FG8 VIS VRB 1/4-3/4 SLP129

CYQF;2018-03-25 14:30;CYQF 251430Z 17004KT 1 1/2SM BR BKN250 M12/M13 A2975 RMK CI6 VIS S 8 SLP129

CYQF;2018-03-25 14:48;CYQF 251448Z 19003KT 8SM BKN250 M12/M13 A2975 RMK CI5 VIS SW-N 2 BR SLP130

CYQF;2018-03-25 15:00;CYQF 251500Z 19004KT 8SM SCT250 M12/M13 A2975 RMK CI4 VIS W-N 2 BR SLP131

CYQF;2018-03-25 16:00;CYQF 251600Z 18006KT 8SM BKN250 M10/M12 A2975 RMK CI6 SLP134

CYQF;2018-03-25 17:00;CYQF 251700Z 19005KT 12SM BKN250 M09/M10 A2976 RMK CI6 SLP136

CYQF;2018-03-25 18:00;CYQF 251800Z 18005KT 15SM BKN250 M07/M08 A2976 RMK CI5 SLP134

CYQF;2018-03-25 19:00;CYQF 251900Z 18006KT 15SM FEW024 SCT250 M03/M09 A2975 RMK CU1CI3 SLP129

CYQF;2018-03-25 20:00;CYQF 252000Z 15006KT 15SM FEW024 SCT250 M01/M07 A2974 RMK CU1CI2 SLP124

CYQF;2018-03-25 21:00;CYQF 252100Z 16007KT 15SM FEW021 BKN250 01/M06 A2973 RMK CU1CI4 SLP117

CYQF;2018-03-25 22:00;CYQF 252200Z 15008KT 15SM FEW035 BKN250 00/M07 A2973 RMK CU1CI5 SLP116

CYQF;2018-03-25 23:00;CYQF 252300Z 16009KT 15SM FEW030 BKN100 BKN240 M01/M06 A2973 RMK CU1AC4CI2 SLP118

CYQF;2018-03-26 00:00;CYQF 260000Z 15008KT 15SM FEW030 SCT100 BKN240 M00/M05 A2972 RMK CU1AC2CI4 SLP118

CYQF;2018-03-26 01:00;CYQF 260100Z 25003KT 180V260 15SM FEW030 FEW160 BKN250 M01/M06 A2972 RMK CU1AC2CI5 CU TR SLP118

CYQF;2018-03-26 02:00;CYQF 260200Z 15007KT 15SM FEW025 SCT140 BKN250 M03/M06 A2972 RMK CU1AC3CI2 CU TR SLP122

CYQF;2018-03-26 03:00;CYQF 260300Z 15005KT 15SM FEW140 BKN180 M05/M07 A2972 RMK AC2AC4 SLP125

CYQF;2018-03-26 04:00;CYQF 260400Z 20007KT 15SM SCT160 M06/M09 A2973 RMK AC3 SLP126

CYQF;2018-03-26 05:00;CYQF 260500Z 19006KT 15SM SCT170 M07/M08 A2973 RMK AC3 SLP125

CYQF;2018-03-26 06:00;CYQF 260600Z 20006KT 15SM FEW170 M09/M10 A2972 RMK AC2 SLP122

CYQF;2018-03-26 07:00;CYQF 260700Z 20005KT 15SM FEW220 M11/M13 A2971 RMK CI2 SLP117

CYQF;2018-03-26 08:00;CYQF 260800Z 18006KT 15SM FEW220 M12/M14 A2970 RMK CI1 SLP113

CYQF;2018-03-26 09:00;CYQF 260900Z 21007KT 15SM FEW220 M10/M15 A2970 RMK CI2 SLP109

CYQF;2018-03-26 10:00;CYQF 261000Z 23008KT 15SM SCT230 M09/M16 A2970 RMK CI3 SLP109

CYQF;2018-03-26 11:00;CYQF 261100Z 20005KT 15SM SCT180 BKN230 M11/M18 A2970 RMK AC3CI2 SLP111

CYQF;2018-03-26 12:00;CYQF 261200Z 21006KT 15SM SCT150 BKN230 M11/M16 A2970 RMK AC4CI2 SLP112

CYQF;2018-03-26 13:00;CYQF 261300Z 21004KT 15SM SCT180 BKN250 M13/M18 A2970 RMK AC4CI2 SLP114

CYQF;2018-03-26 14:00;CYQF 261400Z 20006KT 15SM FEW180 BKN250 M10/M16 A2971 RMK AC2CI4 SLP115

CYQF;2018-03-26 15:00;CYQF 261500Z VRB03KT 15SM BKN100 BKN250 M08/M15 A2971 RMK AC6CI1 SLP115

CYQF;2018-03-26 16:00;CYQF 261600Z 21006KT 15SM SCT100 BKN250 M06/M14 A2971 RMK AC3CI3 SLP115

CYQF;2018-03-26 17:00;CYQF 261700Z 19005KT 15SM FEW100 SCT250 M03/M12 A2971 RMK AC1CI3 SLP113

CYQF;2018-03-26 18:00;CYQF 261800Z 18004KT 15SM FEW100 SCT250 00/M09 A2970 RMK AC1CI3 SLP109

CYQF;2018-03-26 19:00;CYQF 261900Z 20006KT 15SM FEW056 FEW250 04/M10 A2969 RMK CU1CI1 CU TR SLP101

CYQF;2018-03-26 20:00;CYQF 262000Z 23008KT 15SM FEW060 FEW250 05/M09 A2968 RMK CU1CI1 SLP100

CYQF;2018-03-26 21:00;CYQF 262100Z 21009KT 15SM FEW060 FEW250 05/M09 A2967 RMK CU1CI1 SLP092

CYQF;2018-03-26 22:00;CYQF 262200Z 17010KT 15SM FEW070 SCT250 05/M06 A2967 RMK AC1CI2 SLP090

CYQF;2018-03-26 23:00;CYQF 262300Z 18007KT 15SM FEW100 SCT250 05/M06 A2967 RMK AC1CI2 SLP094

CYQF;2018-03-27 00:00;CYQF 270000Z 27006KT 220V290 15SM FEW100 SCT250 05/M08 A2967 RMK AC1CI2 SLP094

CYQF;2018-03-27 01:00;CYQF 270100Z 28011KT 15SM FEW100 SCT250 05/M08 A2968 RMK AC1CI4 AC TR SLP100

CYQF;2018-03-27 02:00;CYQF 270200Z 29011KT 15SM FEW100 BKN250 04/M08 A2969 RMK AC2CI3 SLP100

CYQF;2018-03-27 03:00;CYQF 270300Z 30010KT 15SM FEW100 SCT250 03/M08 A2970 RMK AC1CI3 SLP100

CYQF;2018-03-27 04:00;CYQF 270400Z 26007KT 15SM FEW140 BKN200 02/M08 A2972 RMK AC1CS4 SLP108

CYQF;2018-03-27 05:00;CYQF 270500Z 02008KT 15SM SCT200 M02/M05 A2976 RMK CI4 SLP125

CYQF;2018-03-27 06:00;CYQF 270600Z 03009KT 12SM FEW010 SCT200 M04/M06 A2975 RMK ST1CI3 SLP120

CYQF;2018-03-27 06:47;CYQF 270647Z 04010KT 12SM SCT008 BKN200 M03/M04 A2977 RMK ST3CI3 SLP125

CYQF;2018-03-27 07:00;CYQF 270700Z 06012KT 12SM BKN006 M03/M04 A2976 RMK ST7 SLP118

CYQF;2018-03-27 08:00;CYQF 270800Z 09009KT 6SM BR OVC005 M03/M04 A2974 RMK ST8 SLP109

CYQF;2018-03-27 08:29;CYQF 270829Z 09006KT 3SM BR OVC003 M04/M04 A2973 RMK ST8 SLP106

CYQF;2018-03-27 08:48;CYQF 270848Z 09007KT 2 1/2SM BR OVC003 M04/M04 A2973 RMK FG2ST6 SLP106

CYQF;2018-03-27 09:00;CYQF 270900Z 10008KT 2 1/2SM BR OVC003 M04/M05 A2973 RMK FG2ST6 SLP108

CYQF;2018-03-27 09:12;CYQF 270912Z 10007KT 1SM BR VV002 M04/M05 A2973 RMK FG8 SLP106

CYQF;2018-03-27 10:00;CYQF 271000Z 14008KT 1SM BR VV002 M04/M05 A2969 RMK FG8 PRESFR SLP094

CYQF;2018-03-27 10:18;CYQF 271018Z 14007KT 3/4SM BR VV002 M04/M05 A2968 RMK FG8 SLP091

CYQF;2018-03-27 11:00;CYQF 271100Z 15008KT 3/4SM -SN BR VV002 M05/M05 A2966 RMK FG8 SLP085

CYQF;2018-03-27 11:17;CYQF 271117Z 15008KT 1 1/2SM BR VV003 M05/M05 A2965 RMK FG8 SLP080

CYQF;2018-03-27 12:00;CYQF 271200Z 14005KT 2SM BR OVC003 M05/M06 A2965 RMK FG4ST4 SLP079

CYQF;2018-03-27 12:25;CYQF 271225Z 13006KT 3SM BR BKN003 BKN240 M06/M06 A2964 RMK ST5CI2 SLP077

CYQF;2018-03-27 13:00;CYQF 271300Z 12003KT 3SM BR SCT005 BKN160 M06/M07 A2962 RMK ST4AC3 SLP071

CYQF;2018-03-27 14:00;CYQF 271400Z 13006KT 5SM BR FEW005 BKN080 M06/M07 A2959 RMK ST2AC5 PRESFR SLP061

CYQF;2018-03-27 15:00;CYQF 271500Z 00000KT 6SM BR BKN080 M05/M06 A2957 RMK AC7 SLP055

CYQF;2018-03-27 16:00;CYQF 271600Z 02004KT 330V030 6SM BR OVC080 M04/M06 A2959 RMK AC8 SLP061

CYQF;2018-03-27 16:41;CYQF 271641Z VRB02KT 6SM -SHGS BR OVC070 M03/M05 A2960 RMK AC8 CVCTV CLD EMBD SLP064

CYQF;2018-03-27 17:00;CYQF 271700Z 09004KT 8SM FEW020 OVC070 M02/M05 A2958 RMK CF1AC8 CF TR OCNL -SHGS CVCTV CLD EMBD PRESFR SLP059

CYQF;2018-03-27 17:21;CYQF 271721Z 22010KT 8SM FEW020 OVC060 M02/M05 A2959 RMK CF1SC7 SLP063

CYQF;2018-03-27 18:00;CYQF 271800Z 19007KT 8SM BKN080 M02/M05 A2957 RMK AC7 SLP058

CYQF;2018-03-27 19:00;CYQF 271900Z 23004KT 10SM FEW020 BKN100 BKN250 01/M03 A2956 RMK CU1AC5CI1 SLP051

CYQF;2018-03-27 20:00;CYQF 272000Z 02003KT 10SM FEW020 BKN100 BKN250 02/M03 A2957 RMK CU2AC3CI2 SLP054

CYQF;2018-03-27 21:00;CYQF 272100Z 29007KT 12SM VCSH FEW020 SCT040 BKN060 03/M02 A2963 RMK CU2SC2SC3 PRESRR SLP075

CYQF;2018-03-27 21:19;CYQF 272119Z 35014G24KT 12SM -SHRA SCT020 BKN040 04/M01 A2964 RMK CU4SC3 SLP078

CYQF;2018-03-27 22:00;CYQF 272200Z 33008G16KT 12SM -SHRA FEW020 SCT040 BKN060 03/M00 A2966 RMK CU2SC2SC3 CVCTV CLD EMBD SLP084

CYQF;2018-03-27 22:16;CYQF 272216Z 34009KT 15SM VCSH FEW020 BKN050 BKN090 03/M00 A2967 RMK CU1SC5AC1 CVCTV CLD EMBD PRESRR SLP089

CYQF;2018-03-27 23:00;CYQF 272300Z 34011KT 15SM VCSH FEW020 BKN060 03/M01 A2969 RMK CF1SC6 SLP095

CYQF;2018-03-27 23:08;CYQF 272308Z 33013KT 12SM -SHRA SCT020 OVC060 03/M01 A2970 RMK CU3SC5 SLP098

CYQF;2018-03-27 23:47;CYQF 272347Z 33014G21KT 15SM VCSH FEW020 BKN060 02/M00 A2972 RMK CF2SC5 SLP109

CYQF;2018-03-28 00:00;CYQF 280000Z 33012G19KT 15SM VCSH SCT020 BKN055 02/M01 A2973 RMK CF3SC4 VIS LWR S SLP111

CYQF;2018-03-28 00:21;CYQF 280021Z 34012KT 6SM -SHRA BR SCT020 OVC040 02/M01 A2974 RMK CF4SC4 SLP115

CYQF;2018-03-28 00:48;CYQF 280048Z 29010KT 8SM -SHRASN BKN020 OVC050 01/M00 A2976 RMK CU5SC3 PRESRR SLP124

CYQF;2018-03-28 01:00;CYQF 280100Z 30009KT 4SM -SHRASN FEW014 OVC020 01/M00 A2978 RMK CF2CU6 PRESRR SLP129

CYQF;2018-03-28 01:31;CYQF 280131Z 30004KT 10SM VCSH FEW015 BKN020 BKN100 01/00 A2978 RMK CF2CU3AC2 SLP131

CYQF;2018-03-28 02:00;CYQF 280200Z 33013G18KT 12SM VCSH FEW015 SCT020 OVC060 01/M01 A2980 RMK CF1CU3SC4 SLP136

CYQF;2018-03-28 03:00;CYQF 280300Z CCA 31009G16KT 10SM VCSH SCT020 SCT060 BKN100 01/M02 A2984 RMK SC3SC1AC1 SLP149

CYQF;2018-03-28 03:23;CYQF 280323Z 34015G22KT 12SM -SN SCT020 BKN065 01/M03 A2985 RMK SC3SC4 SLP153

CYQF;2018-03-28 04:00;CYQF 280400Z 33005KT 10SM -SN OVC017 00/M02 A2987 RMK SC8 SLP162

CYQF;2018-03-28 04:27;CYQF 280427Z 02011KT 2SM -SN FEW020 OVC030 M01/M02 A2988 RMK SC2SC6 SLP165

CYQF;2018-03-28 04:42;CYQF 280442Z 01009KT 3SM -SN FEW020 OVC035 M02/M03 A2990 RMK SC2SC6 PRESRR SLP172

CYQF;2018-03-28 05:00;CYQF 280500Z 02009KT 3SM -SN SCT007 OVC030 M03/M04 A2991 RMK ST3SC5 SLP175

CYQF;2018-03-28 05:51;CYQF 280551Z 35005KT 2SM -SN SCT007 BKN030 OVC070 M03/M04 A2991 RMK SN2ST2SC2AC2 SLP178

CYQF;2018-03-28 06:00;CYQF 280600Z 36002KT 3SM -SN FEW025 OVC090 M04/M05 A2991 RMK SC2AC6 VIS VRB 2-4 SLP178

CYQF;2018-03-28 06:13;CYQF 280613Z 00000KT 3SM BR VCSH SCT005 BKN027 OVC090 M04/M05 A2992 RMK ST3SC3AC2 SLP180

CYQF;2018-03-28 06:52;CYQF 280652Z 36003KT 310V010 3SM -SN BR FEW005 BKN014 OVC090 M03/M05 A2993 RMK ST2SC4AC2 SLP184

CYQF;2018-03-28 07:00;CYQF 280700Z 01002KT 2SM -SN BR FEW005 BKN014 OVC090 M03/M05 A2993 RMK ST2SC4AC2 SLP180

CYQF;2018-03-28 07:07;CYQF 280707Z VRB02KT 1SM -SHSN VV015 M03/M05 A2993 RMK SN8 CVCTV CLD EMBD SLP181

CYQF;2018-03-28 07:31;CYQF 280731Z 00000KT 2SM -SHSN FEW005 SCT030 OVC070 M04/M05 A2992 RMK ST2SC2AC4 VIS VRB 1-3 CVCTV CLD EMBD SLP178

CYQF;2018-03-28 08:00;CYQF 280800Z 09003KT 020V100 2SM -SHSN FEW007 BKN020 OVC070 M04/M05 A2993 RMK ST2SC3AC3 VIS VRB 1-3 CVTCV CLD EMBD SLP178

CYQF;2018-03-28 09:00;CYQF 280900Z 09002KT 2SM -SHSN FEW007 OVC025 M04/M05 A2994 RMK ST2SC6 VIS VRB 1-3 CVCTV CLD EMBD SLP181

CYQF;2018-03-28 09:45;CYQF 280945Z 11002KT 2 1/2SM BR OVC006 M05/M05 A2994 RMK ST8 SLP183

CYQF;2018-03-28 10:00;CYQF 281000Z 00000KT 3SM BR OVC006 M05/M05 A2995 RMK ST8 SLP185

CYQF;2018-03-28 10:18;CYQF 281018Z 15002KT 2 1/2SM -SHSN BR BKN006 OVC040 M04/M05 A2995 RMK ST5SC3 CVCTV CLD EMBD SLP185

CYQF;2018-03-28 10:52;CYQF 281052Z 00000KT 2 1/2SM BR OVC005 M04/M05 A2995 RMK ST8 SLP186

CYQF;2018-03-28 11:00;CYQF 281100Z 00000KT 2 1/2SM BR OVC005 M04/M05 A2995 RMK ST8 SLP185

CYQF;2018-03-28 11:14;CYQF 281114Z 00000KT 2 1/2SM -SHSN BR BKN005 OVC040 M04/M05 A2995 RMK ST5SC3 CVCTV CLD EMBD SLP186

CYQF;2018-03-28 11:46;CYQF 281146Z 22004KT 2 1/2SM -SHSN BR SCT005 OVC040 M04/M05 A2995 RMK ST4SC4 CVCTV CLD EMBD SLP187

CYQF;2018-03-28 12:00;CYQF 281200Z 21003KT 2 1/2SM -SHSN BR SCT004 OVC030 M04/M05 A2995 RMK ST4SC4 CVCTV CLD EMBD SLP187

CYQF;2018-03-28 12:43;CYQF 281243Z 25005KT 2 1/2SM -SHSN BR OVC007 M04/M04 A2996 RMK ST8 CVCTC CLD EMBD SLP190

CYQF;2018-03-28 13:00;CYQF 281300Z 25005KT 2 1/2SM -SHSN BR BKN007 OVC060 M03/M03 A2996 RMK SC5SC3 CVCTV CLD EMBD SLP190

CYQF;2018-03-28 13:37;CYQF 281337Z 15004KT 150V260 5SM BR SCT004 BKN080 M04/M05 A2997 RMK ST3AC4 SLP193

CYQF;2018-03-28 14:00;CYQF 281400Z 19003KT 6SM BR SCT004 BKN100 M03/M04 A2997 RMK SF3AC3 SLP193

CYQF;2018-03-28 15:00;CYQF 281500Z 21005KT 10SM FEW004 BKN092 BKN250 M03/M04 A2997 RMK SF1AC4CI1 BR SLP194

CYQF;2018-03-28 16:00;CYQF 281600Z 25006KT 12SM FEW008 BKN090 BKN130 BKN250 M01/M03 A2998 RMK CF1AC5AC1CI2 CF TR AC TR SLP196

CYQF;2018-03-28 17:00;CYQF 281700Z 27007KT 15SM FEW010 SCT090 BKN250 M00/M04 A2998 RMK CU1AC3CI2 CU TR SLP199

CYQF;2018-03-28 18:00;CYQF 281800Z 25007KT 15SM FEW015 SCT090 BKN250 00/M04 A2998 RMK CU2AC2CI1 SLP198

CYQF;2018-03-28 19:00;CYQF 281900Z 24005KT 15SM FEW020 FEW250 01/M04 A2997 RMK CU1CI1 SLP192

CYQF;2018-03-28 20:00;CYQF 282000Z 27008KT 230V300 15SM VCSH SCT034 BKN100 02/M05 A2997 RMK CU3ACC4 SLP193

CYQF;2018-03-28 20:06;CYQF 282006Z 27009KT 6SM -SN SCT031 BKN100 01/M05 A2997 RMK CU3ACC4 VIS LWR W SLP195

CYQF;2018-03-28 20:12;CYQF 282012Z 34012KT 250V360 2SM -SHSN BKN031 OVC100 00/M04 A2998 RMK CU5ACC3 SLP198

CYQF;2018-03-28 20:29;CYQF 282029Z 23005KT 220V310 10SM -SHSN SCT031 BKN250 01/M03 A2996 RMK CU3CI2 SLP192

CYQF;2018-03-28 21:00;CYQF 282100Z 20006KT 15SM VCSH FEW030 FEW120 SCT250 00/M03 A2996 RMK CU1AC1CI2 SLP193

CYQF;2018-03-28 22:00;CYQF 282200Z 20007KT 15SM VCSH FEW016 BKN070 01/M03 A2996 RMK CU2AC5 SLP191

CYQF;2018-03-28 23:00;CYQF 282300Z 19009KT 15SM VCSH FEW015 BKN070 01/M03 A2996 RMK CU2AC5 SLP189

CYQF;2018-03-29 00:00;CYQF 290000Z CCA 18004KT 15SM VCSH FEW015 BKN050 01/M03 A2996 RMK CU2SC5 SLP191

CYQF;2018-03-29 01:00;CYQF 290100Z 14004KT 15SM VCSH FEW015 SCT030 BKN070 01/M03 A2998 RMK CF2SC2AC3 SLP197

CYQF;2018-03-29 02:00;CYQF 290200Z 04009KT 12SM VCSH FEW015 SCT030 BKN075 M01/M03 A3000 RMK CF2SC1AC4 SLP207

CYQF;2018-03-29 03:00;CYQF 290300Z 09005KT 15SM VCSH FEW015 FEW030 BKN100 M01/M03 A3001 RMK CF1SC1AC5 SLP210

CYQF;2018-03-29 04:00;CYQF 290400Z 23004KT 15SM FEW020 OVC050 M01/M03 A3003 RMK SC2SC6 SLP214

CYQF;2018-03-29 04:15;CYQF 290415Z 26003KT 10SM -SN FEW020 OVC030 M01/M03 A3003 RMK SC2SC6 SLP216

CYQF;2018-03-29 04:42;CYQF 290442Z 25004KT 1 1/2SM -SN VV020 M01/M02 A3004 RMK SN8 VIS VRB 1-2 SLP219

CYQF;2018-03-29 05:00;CYQF 290500Z 29004KT 1 1/2SM -SN VV022 M01/M02 A3004 RMK SN8 VIS VRB 1-2 SLP219

CYQF;2018-03-29 06:00;CYQF 290600Z 26004KT 2SM -SN OVC030 M02/M02 A3004 RMK SC8 VIS VRB 1-3 SLP218

CYQF;2018-03-29 06:36;CYQF 290636Z 27004KT 2SM -SN SCT005 OVC030 M02/M02 A3005 RMK ST3SC5 VIS VRB 1-3 SLP220

CYQF;2018-03-29 07:00;CYQF 290700Z 25004KT 2SM -SN FEW005 BKN015 OVC040 M02/M03 A3005 RMK ST2SC3SC3 VIS VRB 1-3 SLP220

CYQF;2018-03-29 07:39;CYQF 290739Z 22006KT 3SM BR BKN005 BKN040 M03/M04 A3004 RMK ST6SC1 INTMT -SN SLP217

CYQF;2018-03-29 08:00;CYQF 290800Z 22006KT 3SM BR OVC005 M03/M03 A3003 RMK ST8 INTMT -SN SLP215

CYQF;2018-03-29 08:16;CYQF 290816Z 23007KT 1SM BR VV002 M02/M03 A3003 RMK FG8 SLP214

CYQF;2018-03-29 08:26;CYQF 290826Z 23007KT 1/4SM FZFG VV002 M03/M03 A3004 RMK FG8 SLP216

CYQF;2018-03-29 09:00;CYQF 290900Z 24005KT 1/4SM FZFG VV002 M03/M03 A3004 RMK FG8 SLP220

CYQF;2018-03-29 09:13;CYQF 290913Z 25006KT 1/2SM FZFG VV003 M03/M03 A3004 RMK FG8 SLP220

CYQF;2018-03-29 09:31;CYQF 290931Z 24007KT 1/8SM FZFG VV001 M04/M05 A3004 RMK FG8 SLP221

CYQF;2018-03-29 10:00;CYQF 291000Z 29005KT 1/4SM FZFG VV002 M06/M06 A3005 RMK FG8 SLP224

CYQF;2018-03-29 10:07;CYQF 291007Z 01012KT 270V010 3/4SM BR VV002 M05/M06 A3006 RMK FG8 PRESRR SLP227

CYQF;2018-03-29 10:20;CYQF 291020Z 01005KT 340V050 2SM BR FEW003 BKN010 M04/M04 A3006 RMK ST2ST5 WSHFT 1005 SLP226

CYQF;2018-03-29 10:24;CYQF 291024Z 01004KT 3SM BR SCT003 OVC007 M04/M04 A3006 RMK ST3ST5 SLP226

CYQF;2018-03-29 11:00;CYQF 291100Z 36007KT 3SM BR OVC003 M04/M04 A3007 RMK ST8 SLP227

CYQF;2018-03-29 11:43;CYQF 291143Z 07006KT 4SM BR FEW003 OVC007 M04/M06 A3007 RMK ST2ST6 SLP229

CYQF;2018-03-29 12:00;CYQF 291200Z 05007KT 6SM BR FEW003 OVC008 M05/M06 A3008 RMK ST2ST6 SLP231

CYQF;2018-03-29 12:32;CYQF 291232Z 04007KT 8SM FEW005 OVC016 M05/M06 A3009 RMK ST2SC6 SLP237

CYQF;2018-03-29 12:42;CYQF 291242Z 02005KT 8SM -SN SCT007 OVC018 M05/M06 A3009 RMK ST4SC4 SLP238

CYQF;2018-03-29 12:51;CYQF 291251Z 04009KT 2SM -SN BR BKN007 OVC016 M05/M07 A3010 RMK ST5SC3 SLP239

CYQF;2018-03-29 13:00;CYQF 291300Z 03007KT 2SM -SN BR BKN008 OVC016 M06/M07 A3010 RMK ST5SC3 SLP242

CYQF;2018-03-29 13:38;CYQF 291338Z 04011KT 5SM -SN BR BKN008 OVC015 M06/M08 A3011 RMK ST5SC3 SLP246

CYQF;2018-03-29 14:00;CYQF 291400Z 04009KT 3SM -SN BR SCT009 OVC020 M07/M08 A3012 RMK SF4SC4 SLP252

CYQF;2018-03-29 14:24;CYQF 291424Z 04009KT 2 1/2SM -SN BKN020 OVC060 M07/M09 A3013 RMK SC6SC2 SLP256

CYQF;2018-03-29 14:32;CYQF 291432Z 04008KT 3SM -SN BKN020 OVC060 M07/M09 A3013 RMK SC5SC3 SLP256

CYQF;2018-03-29 14:49;CYQF 291449Z 04006KT 2 1/2SM -SN BKN020 OVC060 M07/M09 A3014 RMK NS5SC3 VIS VRB 2-3 SLP258

CYQF;2018-03-29 15:00;CYQF 291500Z 05007KT 2 1/2SM -SN BKN020 OVC060 M07/M09 A3014 RMK SC6SC2 VIS VRB 2-3 SLP259

CYQF;2018-03-29 15:39;CYQF 291539Z 06008KT 6SM -SN FEW010 SCT020 BKN060 BKN250 M07/M09 A3014 RMK SF1SC2SC3CI1 SLP261

CYQF;2018-03-29 16:00;CYQF 291600Z 06008KT 6SM -SN FEW013 SCT024 BKN060 BKN250 M07/M09 A3015 RMK SF1SC3SC2CI1 SLP263

CYQF;2018-03-29 17:00;CYQF 291700Z 08008KT 6SM -SN FEW013 OVC025 M06/M09 A3017 RMK SC2SC6 SLP269

CYQF;2018-03-29 18:00;CYQF 291800Z 08009KT 8SM -SN FEW013 OVC023 M07/M10 A3019 RMK SC1SC7 SLP276

CYQF;2018-03-29 19:00;CYQF 291900Z 07008KT 10SM FEW013 OVC022 M07/M10 A3018 RMK SF1SC7 SLP273

CYQF;2018-03-29 19:46;CYQF 291946Z 08007KT 6SM -SHSN BKN022 M06/M10 A3017 RMK SC7 SLP270

CYQF;2018-03-29 20:00;CYQF 292000Z 10008KT 15SM BKN022 BKN250 M06/M11 A3017 RMK SC5CI2 SLP270

CYQF;2018-03-29 21:00;CYQF 292100Z 12006KT 080V160 15SM BKN023 M06/M10 A3016 RMK SC7 SLP268

CYQF;2018-03-29 22:00;CYQF 292200Z 15009KT 15SM OVC021 M06/M10 A3016 RMK SC8 SLP269

CYQF;2018-03-29 23:00;CYQF 292300Z 14011KT 15SM OVC023 M06/M10 A3015 RMK SC8 SLP264

CYQF;2018-03-30 00:00;CYQF 300000Z 14012KT 15SM OVC025 M07/M10 A3014 RMK SC8 SLP262

CYQF;2018-03-30 01:00;CYQF 300100Z 15010KT 15SM BKN018 OVC026 M08/M11 A3012 RMK SC6SC2 SLP259

CYQF;2018-03-30 01:47;CYQF 300147Z 15010KT 15SM OVC012 M08/M11 A3012 RMK SC8 SLP258

CYQF;2018-03-30 02:00;CYQF 300200Z 14009KT 15SM OVC010 M08/M10 A3012 RMK SC8 SLP262

CYQF;2018-03-30 02:39;CYQF 300239Z 15012KT 15SM -SN BKN010 OVC018 M08/M10 A3010 RMK SC5SC3 SLP254

CYQF;2018-03-30 03:00;CYQF 300300Z 15013KT 15SM -SN SCT008 OVC018 M08/M10 A3009 RMK SF4SC4 SLP251

CYQF;2018-03-30 04:00;CYQF 300400Z 14012KT 15SM -SN FEW008 OVC013 M08/M10 A3007 RMK SF2SC6 SLP241

CYQF;2018-03-30 04:29;CYQF 300429Z 14012KT 15SM OVC015 M08/M10 A3006 RMK SC8 SLP241

CYQF;2018-03-30 05:00;CYQF 300500Z 14012KT 10SM OVC016 M09/M10 A3005 RMK SC8 SLP235

CYQF;2018-03-30 05:34;CYQF 300534Z 15010KT 5SM -SN SCT015 OVC050 M09/M11 A3003 RMK SC4SC4 SLP228

CYQF;2018-03-30 05:49;CYQF 300549Z 15011KT 2SM -SN SCT015 OVC040 M09/M11 A3001 RMK SC3SC5 SLP224

CYQF;2018-03-30 06:00;CYQF 300600Z 16014KT 2SM -SN BKN015 OVC040 M09/M11 A3001 RMK SC5SC3 SLP224

CYQF;2018-03-30 06:34;CYQF 300634Z 15011KT 5SM -SN BKN019 OVC040 M09/M11 A3000 RMK SC6SC2 SLP220

CYQF;2018-03-30 07:00;CYQF 300700Z 14012KT 3SM -SN OVC017 M09/M11 A2998 RMK SC8 SLP212

CYQF;2018-03-30 08:00;CYQF 300800Z 14012G18KT 10SM -SN OVC015 M09/M12 A2994 RMK SC8 SLP200

CYQF;2018-03-30 08:16;CYQF 300816Z 13012KT 12SM -SN OVC013 M09/M12 A2993 RMK SC8 SLP196

CYQF;2018-03-30 09:00;CYQF 300900Z 13011KT 12SM OVC012 M10/M12 A2990 RMK SC8 INTMT -SN SLP183

CYQF;2018-03-30 09:17;CYQF 300917Z 14011KT 12SM OVC012 M10/M12 A2989 RMK SC8 SLP180

CYQF;2018-03-30 10:00;CYQF 301000Z 13012KT 12SM OVC013 M10/M12 A2987 RMK SC8 SLP174

CYQF;2018-03-30 10:20;CYQF 301020Z 13012KT 8SM -SN OVC012 M10/M12 A2986 RMK SC8 SLP170

CYQF;2018-03-30 11:00;CYQF 301100Z 10010KT 3SM -SN OVC012 M10/M12 A2985 RMK SC8 SLP168

CYQF;2018-03-30 11:16;CYQF 301116Z 08009KT 1 1/2SM -SN VV012 M11/M12 A2985 RMK SN8 SLP168

CYQF;2018-03-30 11:19;CYQF 301119Z 08010KT 3/4SM -SN VV012 M11/M12 A2985 RMK SN8 SLP168

CYQF;2018-03-30 12:00;CYQF 301200Z 06011KT 3/4SM -SN VV012 M11/M13 A2986 RMK SN8 SLP173

CYQF;2018-03-30 12:08;CYQF 301208Z 06011KT 1/2SM SN VV007 M11/M13 A2987 RMK SN8 SLP176

CYQF;2018-03-30 12:19;CYQF 301219Z 05011KT 3/4SM -SN VV010 M12/M13 A2987 RMK SN8 SLP177

CYQF;2018-03-30 12:46;CYQF 301246Z 06010G18KT 3/4SM -SN VV007 M12/M13 A2989 RMK SN8 VIS VRB 1/2-1 SLP184

CYQF;2018-03-30 13:00;CYQF 301300Z 05014KT 3/4SM -SN DRSN VV010 M12/M14 A2990 RMK SN8 VIS VRB 1/2-1 SLP187

CYQF;2018-03-30 14:00;CYQF 301400Z 06013KT 3/4SM -SN DRSN VV010 M13/M15 A2995 RMK SN8 VIS VRB 1/2-1 PRESRR SLP208

CYQF;2018-03-30 14:49;CYQF 301449Z 04008KT 3/4SM -SN VV008 M13/M15 A2999 RMK SN8 VIS VRB 1/2-1 SLP223

CYQF;2018-03-30 15:00;CYQF 301500Z 03008KT 3/4SM -SN DRSN VV010 M13/M15 A3000 RMK SN8 VIS VRB 1/2-1 SLP226

CYQF;2018-03-30 16:00;CYQF 301600Z 03011KT 3/4SM -SN DRSN VV012 M13/M15 A3005 RMK SN8 VIS VRB 1/2-1 SLP242

CYQF;2018-03-30 16:39;CYQF 301639Z 36009KT 2SM -SN OVC035 M12/M15 A3009 RMK SC8 SLP255

CYQF;2018-03-30 17:00;CYQF 301700Z 34009KT 1 1/2SM -SN OVC035 M12/M15 A3010 RMK SC8 VIS VRB 1-2 SLP262

CYQF;2018-03-30 18:00;CYQF 301800Z 35009KT 1 1/2SM -SN OVC035 M12/M15 A3015 RMK SC8 VIS VRB 1-2 /S02/ SLP278

CYQF;2018-03-30 19:00;CYQF 301900Z 35012KT 1 1/2SM -SN FEW015 OVC030 M11/M15 A3018 RMK SF1SC7 SLP287

CYQF;2018-03-30 19:42;CYQF 301942Z 36011KT 2 1/2SM -SN DRSN OVC035 M11/M15 A3020 RMK SC8 SLP292

CYQF;2018-03-30 20:00;CYQF 302000Z 36011KT 2 1/2SM -SN DRSN OVC024 M10/M15 A3020 RMK SC8 SLP294

CYQF;2018-03-30 21:00;CYQF 302100Z 35009KT 3SM -SN DRSN FEW012 OVC023 M10/M15 A3022 RMK SF2SC6 VIS NE-E 2 SLP302

CYQF;2018-03-30 21:11;CYQF 302111Z 01011KT 2 1/2SM -SN DRSN SCT012 OVC023 M10/M15 A3023 RMK SF3SC5 VIS VRB 2-3 SLP305

CYQF;2018-03-30 22:00;CYQF 302200Z 02011KT 2SM -SN DRSN SCT014 OVC025 M11/M15 A3025 RMK SC3SC5 VIS VRB 11/2-21/2 /S01/ SLP311

CYQF;2018-03-30 23:00;CYQF 302300Z 02009KT 1 1/2SM -SN DRSN SCT014 OVC023 M11/M14 A3028 RMK SC3SC5 SLP322

CYQF;2018-03-31 00:00;CYQF 310000Z 02010KT 1 1/2SM -SN DRSN FEW015 OVC026 M12/M15 A3030 RMK SC2SC6 SLP333

CYQF;2018-03-31 01:00;CYQF 310100Z 01006KT 1 1/2SM -SN OVC022 M12/M15 A3031 RMK SC8 SLP339

CYQF;2018-03-31 02:00;CYQF 310200Z 01004KT 2SM -SN SCT018 OVC038 M13/M15 A3034 RMK SC4SC4 SLP350

CYQF;2018-03-31 03:00;CYQF 310300Z 02003KT 2SM -SN FEW015 OVC040 M13/M15 A3036 RMK SC2SC6 SLP356

CYQF;2018-03-31 04:00;CYQF 310400Z 29002KT 3SM -SN FEW015 OVC055 M14/M16 A3038 RMK SC2SC6 SLP364

CYQF;2018-03-31 05:00;CYQF 310500Z 27004KT 3SM -SN FEW015 OVC040 M14/M16 A3039 RMK SC2SC6 SLP367

CYQF;2018-03-31 06:00;CYQF 310600Z 34008KT 8SM -SN BKN020 M15/M17 A3041 RMK SC6 SLP374

CYQF;2018-03-31 06:54;CYQF 310654Z 33008KT 15SM SCT020 BKN250 M16/M20 A3042 RMK SC4CI3 SLP381

CYQF;2018-03-31 07:00;CYQF 310700Z 32008KT 15SM SCT020 BKN250 M16/M20 A3043 RMK SC4CI3 SLP382

CYQF;2018-03-31 08:00;CYQF 310800Z 32009KT 15SM SCT030 BKN250 M17/M22 A3044 RMK SC4CI3 SLP387

CYQF;2018-03-31 09:00;CYQF 310900Z 31008KT 15SM FEW250 M18/M23 A3045 RMK CI2 SLP392

CYQF;2018-03-31 10:00;CYQF 311000Z 29008KT 15SM SKC M19/M23 A3046 RMK SLP395

CYQF;2018-03-31 11:00;CYQF 311100Z 30008KT 15SM SKC M20/M23 A3046 RMK SLP397

CYQF;2018-03-31 12:00;CYQF 311200Z 28006KT 15SM SKC M20/M24 A3046 RMK SLP399

CYQF;2018-03-31 13:00;CYQF 311300Z 27006KT 15SM FEW250 M21/M23 A3046 RMK CI2 SLP400

CYQF;2018-03-31 14:00;CYQF 311400Z 27006KT 15SM FEW250 M22/M24 A3046 RMK CI2 SLP403

CYQF;2018-03-31 15:00;CYQF 311500Z 27005KT 15SM SKC M21/M24 A3046 RMK SLP400

CYQF;2018-03-31 16:00;CYQF 311600Z 26004KT 15SM SKC M18/M22 A3044 RMK SLP392

CYQF;2018-03-31 17:00;CYQF 311700Z 26005KT 15SM SKC M16/M20 A3043 RMK SLP386

CYQF;2018-03-31 18:00;CYQF 311800Z 27005KT 15SM SKC M15/M20 A3042 RMK SLP381

CYQF;2018-03-31 19:00;CYQF 311900Z 26003KT 190V270 15SM SKC M13/M20 A3040 RMK SLP374

CYQF;2018-03-31 20:00;CYQF 312000Z 18005KT 170V240 15SM FEW250 M13/M19 A3038 RMK CI1 SLP366

CYQF;2018-03-31 21:00;CYQF 312100Z 16005KT 15SM SKC M12/M18 A3034 RMK SLP356

CYQF;2018-03-31 22:00;CYQF 312200Z 16007KT 15SM SKC M11/M17 A3032 RMK SLP347

CYQF;2018-03-31 23:00;CYQF 312300Z 18008KT 15SM FEW250 M11/M17 A3030 RMK CI2 SLP341

CYQF;2018-04-01 00:00;CYQF 010000Z 17010KT 15SM FEW250 M12/M17 A3027 RMK CI2 SLP334

CYQF;2018-04-01 01:00;CYQF 010100Z 19007KT 15SM SCT250 M14/M18 A3024 RMK CI3 SLP327

CYQF;2018-04-01 02:00;CYQF 010200Z 19006KT 15SM BKN250 M16/M19 A3022 RMK CI5 SLP321

CYQF;2018-04-01 03:00;CYQF 010300Z 18004KT 15SM BKN250 M18/M20 A3020 RMK CI5 SLP314

CYQF;2018-04-01 04:00;CYQF 010400Z 20003KT 15SM SCT250 M18/M21 A3018 RMK CI4 SLP305

CYQF;2018-04-01 05:00;CYQF 010500Z 17004KT 15SM FEW250 M21/M23 A3015 RMK CI2 SLP297

CYQF;2018-04-01 06:00;CYQF 010600Z 00000KT 15SM SKC M20/M22 A3013 RMK SLP287

CYQF;2018-04-01 07:00;CYQF 010700Z 20002KT 15SM SKC M20/M22 A3011 RMK SLP279

CYQF;2018-04-01 08:00;CYQF 010800Z 00000KT 15SM SKC M23/M26 A3010 RMK SLP276

CYQF;2018-04-01 09:00;CYQF 010900Z 19002KT 15SM FEW003 M25/M28 A3008 RMK ST1 SLP271

CYQF;2018-04-01 10:00;CYQF 011000Z 21003KT 15SM SKC M27/M30 A3006 RMK SLP265

CYQF;2018-04-01 11:00;CYQF 011100Z 21004KT 15SM SKC M27/M30 A3004 RMK SLP260

CYQF;2018-04-01 12:00;CYQF 011200Z 18004KT 15SM SKC M27/M30 A3002 RMK SLP254

CYQF;2018-04-01 13:00;CYQF 011300Z 23002KT 10SM SCT140 OVC250 M26/M29 A3000 RMK AC3CI5 BR SLP249

CYQF;2018-04-01 14:00;CYQF 011400Z VRB02KT 10SM BKN100 OVC250 M23/M26 A3000 RMK AC5CI3 BR SLP245

CYQF;2018-04-01 15:00;CYQF 011500Z 18002KT 8SM BKN100 OVC250 M22/M25 A2998 RMK AS7CI1 SLP240

CYQF;2018-04-01 16:00;CYQF 011600Z 20002KT 8SM SCT100 OVC250 M20/M23 A2996 RMK AC4CI4 SLP233

CYQF;2018-04-01 17:00;CYQF 011700Z 00000KT 8SM SCT100 OVC260 M17/M19 A2995 RMK AC3CI5 SLP228

CYQF;2018-04-01 18:00;CYQF 011800Z VRB02KT 8SM BKN100 OVC250 M15/M18 A2993 RMK AC6CI2 SLP220

CYQF;2018-04-01 19:00;CYQF 011900Z 00000KT 8SM BKN080 OVC250 M11/M17 A2992 RMK AS6CS2 SLP211

CYQF;2018-04-01 20:00;CYQF 012000Z VRB02KT 10SM SCT060 BKN100 BKN250 M09/M16 A2990 RMK SC3AS2CI2 SLP203

CYQF;2018-04-01 21:00;CYQF 012100Z 00000KT 10SM FEW100 BKN250 M08/M15 A2987 RMK AC2CI4 SLP195

CYQF;2018-04-01 22:00;CYQF 012200Z 00000KT 15SM FEW100 BKN250 M06/M19 A2987 RMK AC1CI6 AC TR SLP194

CYQF;2018-04-01 23:00;CYQF 012300Z 00000KT 15SM SCT070 BKN250 M07/M19 A2987 RMK AC3CI3 SLP196

CYQF;2018-04-02 00:00;CYQF 020000Z 00000KT 15SM FEW070 BKN250 M07/M18 A2987 RMK AC2CI5 SLP195

CYQF;2018-04-02 01:00;CYQF 020100Z 00000KT 15SM BKN100 OVC250 M08/M18 A2986 RMK AC6CI2 SLP192

CYQF;2018-04-02 02:00;CYQF 020200Z 17003KT 120V190 15SM BKN080 BKN250 M08/M16 A2986 RMK AC6CI1 SLP190

CYQF;2018-04-02 03:00;CYQF 020300Z 08003KT 15SM BKN090 M09/M16 A2987 RMK AC7 SLP191

CYQF;2018-04-02 04:00;CYQF 020400Z 07003KT 15SM BKN100 OVC250 M10/M16 A2987 RMK AC6CI2 SLP190

CYQF;2018-04-02 05:00;CYQF 020500Z 08002KT 15SM BKN100 BKN250 M11/M17 A2986 RMK AC5CI2 SLP185

CYQF;2018-04-02 06:00;CYQF 020600Z 00000KT 15SM FEW100 BKN250 M12/M17 A2985 RMK AC1CI4 SLP182

CYQF;2018-04-02 07:00;CYQF 020700Z VRB02KT 15SM FEW100 M17/M20 A2986 RMK AC1 SLP185

CYQF;2018-04-02 08:00;CYQF 020800Z 00000KT 15SM SKC M18/M21 A2986 RMK SLP185

CYQF;2018-04-02 09:00;CYQF 020900Z 00000KT 15SM SKC M18/M19 A2986 RMK SLP183

CYQF;2018-04-02 10:00;CYQF 021000Z 00000KT 15SM SCT140 M19/M21 A2986 RMK AC3 SLP181

CYQF;2018-04-02 11:00;CYQF 021100Z 21003KT 15SM BKN140 M20/M22 A2986 RMK AC5 SLP182

CYQF;2018-04-02 12:00;CYQF 021200Z 00000KT 15SM SCT120 M20/M22 A2986 RMK AC4 SLP185

CYQF;2018-04-02 13:00;CYQF 021300Z 00000KT 6SM BR BKN110 M20/M23 A2988 RMK AC5 SLP191

CYQF;2018-04-02 14:00;CYQF 021400Z 18004KT 8SM FEW100 BKN250 M23/M26 A2990 RMK AC2CI3 SLP201

CYQF;2018-04-02 15:00;CYQF 021500Z 21004KT 8SM FEW100 BKN250 M21/M24 A2991 RMK AC2CI4 SLP207

CYQF;2018-04-02 16:00;CYQF 021600Z 20004KT 8SM FEW100 BKN250 M18/M20 A2992 RMK AC1CI5 SLP207

CYQF;2018-04-02 17:00;CYQF 021700Z 17004KT 8SM BKN250 M15/M17 A2994 RMK CI6 SLP211

CYQF;2018-04-02 18:00;CYQF 021800Z 17004KT 10SM BKN250 M12/M17 A2995 RMK CI6 SLP210

CYQF;2018-04-02 19:00;CYQF 021900Z 17004KT 10SM SCT250 M10/M15 A2995 RMK CI3 SLP216

CYQF;2018-04-02 20:00;CYQF 022000Z 19004KT 15SM SCT250 M07/M15 A2996 RMK CI4 SLP217

CYQF;2018-04-02 21:00;CYQF 022100Z 18003KT 15SM FEW040 SCT250 M07/M15 A2996 RMK CU1CI3 CU TR SLP217

CYQF;2018-04-02 22:00;CYQF 022200Z 19002KT 15SM FEW040 FEW250 M06/M16 A2997 RMK CU1CI2 CU TR SLP219

CYQF;2018-04-02 23:00;CYQF 022300Z 18004KT 15SM FEW034 SCT250 M06/M17 A2997 RMK SC1CI2 SLP220

CYQF;2018-04-03 00:00;CYQF 030000Z 18005KT 15SM FEW090 M07/M17 A2997 RMK AC1 AC TR SLP220

CYQF;2018-04-03 01:00;CYQF 030100Z 17006KT 15SM FEW090 M09/M18 A2997 RMK AC1 AC TR SLP226

CYQF;2018-04-03 02:00;CYQF 030200Z 18009KT 15SM SKC M11/M18 A2998 RMK SLP235

CYQF;2018-04-03 03:00;CYQF 030300Z 19007KT 15SM SKC M14/M19 A2999 RMK SLP239

CYQF;2018-04-03 04:00;CYQF 030400Z 18006KT 15SM SKC M15/M20 A3000 RMK SLP241

CYQF;2018-04-03 05:00;CYQF 030500Z 22003KT 15SM SKC M15/M18 A3001 RMK SLP239

CYQF;2018-04-03 06:00;CYQF 030600Z 00000KT 15SM SKC M17/M19 A3000 RMK FROIN SLP236

CYQF;2018-04-03 07:00;CYQF 030700Z 19004KT 15SM SKC M16/M18 A3000 RMK FROIN SLP232

CYQF;2018-04-03 08:00;CYQF 030800Z 19005KT 15SM SKC M18/M21 A3000 RMK FROIN SLP231

CYQF;2018-04-03 09:00;CYQF 030900Z 18004KT 15SM SKC M19/M22 A2999 RMK FROIN SLP229

CYQF;2018-04-03 10:00;CYQF 031000Z 00000KT 15SM SKC M20/M21 A2999 RMK FROIN SLP229

CYQF;2018-04-03 11:00;CYQF 031100Z 22004KT 15SM SKC M20/M23 A2999 RMK FROIN SLP228

CYQF;2018-04-03 12:00;CYQF 031200Z 16003KT 15SM FEW210 M23/M26 A2998 RMK CI1 CI TR SLP230

CYQF;2018-04-03 13:00;CYQF 031300Z 00000KT 8SM FEW210 M21/M23 A2998 RMK CI2 FROIN SLP227

CYQF;2018-04-03 14:00;CYQF 031400Z 15002KT 8SM SCT200 M23/M25 A2998 RMK CI3 FROIN SLP232

CYQF;2018-04-03 15:00;CYQF 031500Z 22003KT 8SM SCT250 M21/M24 A2999 RMK CI4 SLP237

CYQF;2018-04-03 16:00;CYQF 031600Z 00000KT 8SM SCT250 M16/M18 A2999 RMK CI4 SLP234

CYQF;2018-04-03 17:00;CYQF 031700Z 03002KT 8SM FEW250 M14/M18 A2999 RMK CI2 SLP230

CYQF;2018-04-03 18:00;CYQF 031800Z 05004KT 10SM FEW250 M11/M15 A2998 WS RWY35 RMK CI2 SLP225

CYQF;2018-04-03 19:00;CYQF 031900Z 15008KT 10SM SCT250 M08/M14 A2998 RMK CI3 SLP221

CYQF;2018-04-03 20:00;CYQF 032000Z 15007KT 15SM SCT240 M07/M15 A2997 RMK CI4 SLP220

CYQF;2018-04-03 21:00;CYQF 032100Z 15009KT 15SM SCT240 M07/M14 A2997 RMK CI4 SLP221

CYQF;2018-04-03 22:00;CYQF 032200Z 15009KT 15SM SCT120 BKN240 M07/M15 A2997 RMK AC3CI3 SLP221

CYQF;2018-04-03 23:00;CYQF 032300Z 16007KT 15SM SCT100 BKN240 M07/M15 A2996 RMK AC3CI3 SLP219

CYQF;2018-04-04 00:00;CYQF 040000Z 15006KT 15SM FEW100 BKN250 M07/M15 A2996 RMK AC2CI3 SLP222

CYQF;2018-04-04 01:00;CYQF 040100Z 15005KT 15SM FEW100 BKN250 M09/M16 A2995 RMK AC2CI4 SLP220

CYQF;2018-04-04 02:00;CYQF 040200Z 16003KT 15SM BKN090 BKN250 M10/M15 A2995 RMK AC5CI1 SLP222

CYQF;2018-04-04 03:00;CYQF 040300Z 18003KT 15SM SCT090 BKN250 M10/M15 A2995 RMK AC4CI1 SLP222

CYQF;2018-04-04 04:00;CYQF 040400Z 18002KT 15SM FEW090 SCT250 M12/M16 A2996 RMK AC2CI2 SLP220

CYQF;2018-04-04 05:00;CYQF 040500Z 15002KT 15SM FEW090 SCT140 M13/M16 A2996 RMK AC1AC2 SLP218

CYQF;2018-04-04 06:00;CYQF 040600Z 19002KT 15SM FEW110 M15/M16 A2994 RMK AC2 FROIN SLP211

CYQF;2018-04-04 07:00;CYQF 040700Z 21003KT 15SM FEW110 M17/M19 A2994 RMK AC1 FROIN SLP210

CYQF;2018-04-04 08:00;CYQF 040800Z 18003KT 15SM FEW100 M17/M18 A2993 RMK AC1 FROIN SLP203

CYQF;2018-04-04 09:00;CYQF 040900Z 00000KT 15SM SKC M18/M20 A2992 RMK SLP202

CYQF;2018-04-04 10:00;CYQF 041000Z VRB02KT 15SM SKC M18/M20 A2991 RMK FROIN SLP198

CYQF;2018-04-04 11:00;CYQF 041100Z CCA 02003KT 12SM SKC M18/M20 A2991 RMK FROIN SLP201

CYQF;2018-04-04 12:00;CYQF 041200Z 03005KT 12SM FEW180 M20/M22 A2990 RMK AC1 FROIN SLP200

CYQF;2018-04-04 13:00;CYQF 041300Z 01004KT 8SM SCT140 BKN210 M17/M19 A2990 RMK AC4CI2 FROIN SLP198

CYQF;2018-04-04 14:00;CYQF 041400Z 32005KT 8SM BKN100 OVC210 M17/M19 A2990 RMK AC5CI3 SLP199

CYQF;2018-04-04 15:00;CYQF 041500Z 29004KT 6SM BR BKN089 OVC210 M15/M17 A2992 RMK AC5CI3 SLP203

CYQF;2018-04-04 16:00;CYQF 041600Z 34008KT 6SM BR SCT011 OVC089 M13/M15 A2995 RMK SC4AC4 SLP212

CYQF;2018-04-04 16:43;CYQF 041643Z 34006KT 6SM BR BKN010 OVC089 M12/M13 A2995 RMK SC6AC2 SLP212

CYQF;2018-04-04 17:00;CYQF 041700Z 01004KT 330V030 6SM BR OVC010 M11/M13 A2996 RMK ST8 SLP215

CYQF;2018-04-04 17:21;CYQF 041721Z 03006KT 8SM SCT010 BKN090 M11/M13 A2996 RMK ST4AC1 SLP215

CYQF;2018-04-04 17:35;CYQF 041735Z 01003KT 8SM BKN011 BKN090 M11/M13 A2997 RMK ST6AC1 SLP218

CYQF;2018-04-04 18:00;CYQF 041800Z 02004KT 8SM BKN013 BKN090 M09/M14 A2997 RMK SC5AC2 SLP219

CYQF;2018-04-04 19:00;CYQF 041900Z 34012KT 8SM BKN015 OVC090 M08/M12 A2999 RMK SC5AC3 SLP225

CYQF;2018-04-04 20:00;CYQF 042000Z 01016KT 8SM FEW016 BKN030 BKN090 M08/M12 A3001 RMK CU2SC4AC1 SLP232

CYQF;2018-04-04 20:17;CYQF 042017Z 01016KT 6SM -SN FEW016 BKN030 BKN090 M08/M12 A3001 RMK CU2SC4AC1 SLP232

CYQF;2018-04-04 21:00;CYQF 042100Z 02014KT 5SM -SN BKN018 OVC030 M07/M11 A3003 RMK SC5SC3 SLP240

CYQF;2018-04-04 21:34;CYQF 042134Z 36014KT 2 1/2SM -SN BKN020 OVC080 M07/M11 A3004 RMK SC6AC2 SLP244

CYQF;2018-04-04 22:00;CYQF 042200Z 36014KT 3SM -SN SCT020 OVC080 M07/M12 A3006 RMK SC3AC5 SLP250

CYQF;2018-04-04 23:00;CYQF 042300Z 35011KT 3SM -SN BKN018 OVC050 M07/M12 A3008 RMK SC6SC2 SLP258

CYQF;2018-04-05 00:00;CYQF 050000Z 01010KT 6SM -SN SCT020 OVC080 M08/M12 A3010 RMK SC3AC5 SLP266

CYQF;2018-04-05 01:00;CYQF 050100Z 03006KT 6SM -SN FEW040 OVC070 M08/M11 A3010 RMK SC2AC6 SLP265

CYQF;2018-04-05 02:00;CYQF 050200Z 00000KT 8SM BKN080 M08/M11 A3011 RMK AC7 BR SLP269

CYQF;2018-04-05 03:00;CYQF 050300Z 25005KT 12SM SCT080 BKN120 M09/M11 A3013 RMK AC3AC3 SLP275

CYQF;2018-04-05 03:45;CYQF 050345Z 25005KT 12SM -SN SCT028 BKN140 M09/M12 A3015 RMK SC4AC3 SLP280

CYQF;2018-04-05 04:00;CYQF 050400Z 25004KT 15SM BKN030 BKN130 M09/M13 A3015 RMK SC5AC2 SLP278

CYQF;2018-04-05 04:36;CYQF 050436Z 29004KT 12SM -SN BKN035 M09/M13 A3016 RMK SC7 SLP282

CYQF;2018-04-05 05:00;CYQF 050500Z 32004KT 12SM -SN BKN032 M10/M14 A3017 RMK SC7 SLP284

CYQF;2018-04-05 05:41;CYQF 050541Z 33005KT 12SM BKN035 M10/M15 A3018 RMK SC5 SLP287

CYQF;2018-04-05 06:00;CYQF 050600Z 34008KT 15SM SCT035 BKN100 M11/M16 A3019 RMK SC4AC1 SLP290

CYQF;2018-04-05 07:00;CYQF 050700Z 36008KT 15SM FEW035 SCT120 M12/M18 A3020 RMK SC1AC2 SLP294

CYQF;2018-04-05 08:00;CYQF 050800Z 34008KT 15SM FEW120 M13/M18 A3021 RMK AC2 SLP300

CYQF;2018-04-05 09:00;CYQF 050900Z 32007KT 15SM FEW120 M15/M20 A3023 RMK AC1 SLP307

CYQF;2018-04-05 10:00;CYQF 051000Z 30007KT 15SM FEW120 M16/M21 A3024 RMK AC2 SLP313

CYQF;2018-04-05 11:00;CYQF 051100Z 31007KT 15SM FEW120 M16/M22 A3025 RMK AC1 SLP315

CYQF;2018-04-05 12:00;CYQF 051200Z 30006KT 15SM FEW120 M18/M23 A3026 RMK AC1 SLP322

CYQF;2018-04-05 13:00;CYQF 051300Z 29009KT 15SM FEW120 FEW210 M16/M21 A3027 RMK AC1CI1 SLP324

CYQF;2018-04-05 14:00;CYQF 051400Z 29008KT 15SM FEW120 FEW210 M16/M21 A3028 RMK AC1CI2 AC TR SLP326

CYQF;2018-04-05 15:00;CYQF 051500Z 29008KT 15SM SCT250 M14/M20 A3029 RMK CI3 SLP327

CYQF;2018-04-05 16:00;CYQF 051600Z 30008KT 15SM SCT250 M13/M19 A3030 RMK CI4 SLP331

CYQF;2018-04-05 17:00;CYQF 051700Z 34009KT 300V010 15SM FEW250 M11/M18 A3031 RMK CI2 SLP334

CYQF;2018-04-05 18:00;CYQF 051800Z 34009KT 15SM SCT250 M10/M18 A3031 RMK CI3 SLP334

CYQF;2018-04-05 19:00;CYQF 051900Z 34009KT 15SM SCT250 M10/M18 A3031 RMK CI3 SLP336

CYQF;2018-04-05 20:00;CYQF 052000Z 02009G17KT 15SM FEW250 M09/M18 A3031 RMK CI2 SLP335

CYQF;2018-04-05 21:00;CYQF 052100Z 03008KT 15SM FEW250 M09/M18 A3032 RMK CI2 SLP340

CYQF;2018-04-05 22:00;CYQF 052200Z 03008KT 15SM FEW250 M09/M18 A3032 RMK CI2 SLP342

CYQF;2018-04-05 23:00;CYQF 052300Z 04010KT 15SM FEW250 M10/M18 A3033 RMK CI2 SLP347

CYQF;2018-04-06 00:00;CYQF 060000Z 05009KT 15SM FEW250 M10/M17 A3034 RMK CI2 SLP354

CYQF;2018-04-06 01:00;CYQF 060100Z 04009KT 15SM FEW250 M12/M18 A3035 RMK CI2 SLP355

CYQF;2018-04-06 02:00;CYQF 060200Z 04007KT 15SM SCT250 M14/M21 A3036 RMK CI3 SLP363

CYQF;2018-04-06 03:00;CYQF 060300Z 16003KT 15SM SCT250 M15/M20 A3038 RMK CI4 SLP369

CYQF;2018-04-06 04:00;CYQF 060400Z 00000KT 15SM SCT200 M15/M20 A3039 RMK CI4 SLP370

CYQF;2018-04-06 05:00;CYQF 060500Z VRB02KT 15SM FEW180 M19/M22 A3040 RMK AC2 FROIN SLP375

CYQF;2018-04-06 06:00;CYQF 060600Z 00000KT 15SM FEW180 M19/M21 A3040 RMK AC1 SLP375

CYQF;2018-04-06 07:00;CYQF 060700Z VRB02KT 15SM FEW150 M20/M22 A3040 RMK AC1 SLP374

CYQF;2018-04-06 08:00;CYQF 060800Z 17005KT 15SM FEW200 M20/M22 A3039 RMK CI1 FROIN SLP370

CYQF;2018-04-06 09:00;CYQF 060900Z 14003KT 15SM SCT200 M20/M22 A3037 RMK CI3 FROIN SLP364

CYQF;2018-04-06 10:00;CYQF 061000Z 19004KT 15SM BKN170 M20/M22 A3036 RMK AC6 FROIN SLP360

CYQF;2018-04-06 11:00;CYQF 061100Z 15005KT 15SM BKN170 M20/M22 A3035 RMK AC5 FROIN SLP356

CYQF;2018-04-06 12:00;CYQF 061200Z 15005KT 15SM SCT150 M19/M22 A3033 RMK AC4 SLP350

CYQF;2018-04-06 13:00;CYQF 061300Z 16007KT 15SM BKN150 M19/M22 A3031 RMK AC6 SLP345

CYQF;2018-04-06 14:00;CYQF 061400Z 14009KT 15SM BKN150 BKN250 M18/M21 A3029 RMK AC5CI2 SLP339

CYQF;2018-04-06 15:00;CYQF 061500Z 15009KT 15SM SCT130 BKN250 M17/M20 A3027 RMK AC4CI3 SLP331

CYQF;2018-04-06 16:00;CYQF 061600Z 14013KT 15SM FEW140 OVC250 M16/M20 A3025 RMK AC2CI6 SLP325

CYQF;2018-04-06 17:00;CYQF 061700Z 13014KT 15SM FEW140 OVC250 M15/M19 A3024 RMK AC1CI7 SLP323

CYQF;2018-04-06 18:00;CYQF 061800Z 14018KT 15SM FEW140 BKN250 M14/M18 A3022 RMK AC1CI6 SLP315

CYQF;2018-04-06 19:00;CYQF 061900Z 13019KT 15SM FEW016 OVC250 M13/M16 A3020 RMK CU1CI8 CU TR SLP308

CYQF;2018-04-06 20:00;CYQF 062000Z 14020KT 10SM DRSN FEW015 SCT070 OVC250 M12/M16 A3018 RMK SC1AC2CI5 SLP300

CYQF;2018-04-06 21:00;CYQF 062100Z 15021G26KT 10SM DRSN FEW018 BKN250 M12/M16 A3016 RMK SC2CI4 SLP295

CYQF;2018-04-06 22:00;CYQF 062200Z 14016G22KT 8SM DRSN FEW018 BKN250 M12/M15 A3015 RMK CU2CI4 SLP292

CYQF;2018-04-06 23:00;CYQF 062300Z 15017KT 8SM FEW015 OVC250 M12/M16 A3014 RMK CF2CI6 SLP288

CYQF;2018-04-06 23:39;CYQF 062339Z 15016G21KT 6SM -SN DRSN FEW020 OVC090 M12/M15 A3013 RMK CU2AC6 SLP283

CYQF;2018-04-07 00:00;CYQF 070000Z 14016KT 6SM -SN DRSN SCT030 OVC100 M12/M15 A3013 RMK SC3AC5 SLP283

CYQF;2018-04-07 01:00;CYQF 070100Z 14016KT 6SM -SN DRSN FEW018 OVC050 M12/M15 A3011 RMK CF1SC7 SLP275

CYQF;2018-04-07 02:00;CYQF 070200Z 14012G18KT 6SM -SN DRSN FEW018 OVC035 M12/M15 A3009 RMK SC1SC7 SLP267

CYQF;2018-04-07 02:36;CYQF 070236Z 14012KT 2 1/2SM -SN DRSN FEW014 OVC032 M12/M15 A3009 RMK SC2SC6 SLP269

CYQF;2018-04-07 03:00;CYQF 070300Z 13011KT 4SM -SN DRSN FEW012 BKN030 OVC060 M12/M15 A3009 RMK SC2SC3SC3 SLP266

CYQF;2018-04-07 04:00;CYQF 070400Z 13012KT 8SM -SN DRSN OVC060 M12/M15 A3008 RMK SN3SC5 SLP261

CYQF;2018-04-07 05:00;CYQF 070500Z 14010G15KT 8SM -SN DRSN OVC040 M13/M16 A3007 RMK SC8 SLP259

CYQF;2018-04-07 05:48;CYQF 070548Z 14007KT 10SM IC BKN100 M14/M17 A3007 RMK AC5 SLP258

CYQF;2018-04-07 06:00;CYQF 070600Z 14006KT 12SM IC SCT090 M14/M17 A3006 RMK AC4 SLP256

CYQF;2018-04-07 06:45;CYQF 070645Z 13011KT 8SM -SN BKN050 M13/M16 A3003 RMK SC7 SLP243

CYQF;2018-04-07 07:00;CYQF 070700Z 13012KT 4SM -SN OVC040 M14/M16 A3002 RMK SC8 SLP240

CYQF;2018-04-07 08:00;CYQF 070800Z 13013KT 10SM -SN FEW040 BKN080 M15/M17 A3001 RMK SC2AC4 SLP235

CYQF;2018-04-07 09:00;CYQF 070900Z 13013KT 10SM -SN OVC070 M14/M17 A2999 RMK AC8 SLP229

CYQF;2018-04-07 10:00;CYQF 071000Z 14012KT 12SM -SN OVC073 M14/M17 A2996 RMK AC8 SLP218

CYQF;2018-04-07 10:41;CYQF 071041Z 14011KT 10SM IC OVC070 M14/M16 A2996 RMK AC8 SLP216

CYQF;2018-04-07 11:00;CYQF 071100Z 14010KT 10SM IC SCT023 OVC070 M14/M16 A2996 RMK SC3AC5 SLP217

CYQF;2018-04-07 12:00;CYQF 071200Z 14010KT 10SM IC OVC018 M14/M16 A2993 RMK SC8 SLP207

CYQF;2018-04-07 13:00;CYQF 071300Z 15008KT 12SM IC BKN020 OVC080 M14/M16 A2991 RMK SC5AC3 SLP200

CYQF;2018-04-07 13:47;CYQF 071347Z 14009KT 10SM -SN BKN018 OVC080 M13/M16 A2988 RMK SC7AC1 SLP189

CYQF;2018-04-07 14:00;CYQF 071400Z 14010KT 10SM -SN BKN020 OVC080 M14/M16 A2988 RMK SC7AC1 SLP187

CYQF;2018-04-07 15:00;CYQF 071500Z 14013KT 3SM -SN OVC018 M13/M16 A2984 RMK SC8 SLP175

CYQF;2018-04-07 16:00;CYQF 071600Z 14013KT 3SM -SN OVC020 M12/M15 A2984 RMK SC8 SLP173

CYQF;2018-04-07 17:00;CYQF 071700Z 14012KT 8SM -SN SCT020 BKN250 M11/M15 A2982 RMK SC4CI3 SLP166

CYQF;2018-04-07 18:00;CYQF 071800Z 14013KT 10SM BKN015 OVC250 M11/M14 A2980 RMK SC5CI3 SLP161

CYQF;2018-04-07 18:16;CYQF 071816Z 14014KT 8SM -SN BKN030 OVC250 M11/M14 A2979 RMK SC5CI3 SLP158

CYQF;2018-04-07 19:00;CYQF 071900Z 13015KT 12SM FEW016 SCT029 BKN210 M10/M14 A2978 RMK CF2SC2CI3 SLP151

CYQF;2018-04-07 20:00;CYQF 072000Z 13014KT 12SM FEW018 BKN040 OVC210 M09/M14 A2976 RMK SC2SC4CI2 SLP144

CYQF;2018-04-07 21:00;CYQF 072100Z 14010KT 15SM FEW020 OVC040 M08/M13 A2973 RMK CF2SC6 SLP132

CYQF;2018-04-07 22:00;CYQF 072200Z 14011KT 12SM FEW020 OVC035 M08/M13 A2972 RMK CF1SC7 SLP130

CYQF;2018-04-07 23:00;CYQF 072300Z 14013KT 12SM OVC029 M08/M13 A2972 RMK SC8 SLP128

CYQF;2018-04-08 00:00;CYQF 080000Z 12012KT 10SM FEW012 OVC032 M08/M13 A2971 RMK SF1SC8 SF TR SLP126

CYQF;2018-04-08 01:00;CYQF 080100Z 12011KT 10SM FEW012 OVC036 M09/M13 A2971 RMK SF1SC8 SF TR SLP126

CYQF;2018-04-08 02:00;CYQF 080200Z 12008KT 8SM FEW012 OVC040 M09/M12 A2971 RMK SF1SC7 SLP127

CYQF;2018-04-08 02:41;CYQF 080241Z 12005KT 5SM -SN FEW025 OVC040 M09/M12 A2972 RMK SC2SC6 SLP129

CYQF;2018-04-08 03:00;CYQF 080300Z 09007KT 5SM -SN FEW025 OVC040 M09/M12 A2972 RMK SC2SC6 SLP129

CYQF;2018-04-08 04:00;CYQF 080400Z 07005KT 5SM -SN OVC017 M09/M11 A2972 RMK SC8 SLP129

CYQF;2018-04-08 04:43;CYQF 080443Z 07005KT 3SM -SN SCT016 OVC040 M09/M11 A2972 RMK SC3SC5 SLP129

CYQF;2018-04-08 04:47;CYQF 080447Z 07005KT 2SM -SN SCT016 OVC040 M09/M11 A2972 RMK SC3SC5 SLP129

CYQF;2018-04-08 05:00;CYQF 080500Z 06005KT 2SM -SN BKN015 OVC050 M09/M11 A2972 RMK SN3SC2SC3 SLP127

CYQF;2018-04-08 05:35;CYQF 080535Z 08005KT 3SM -SN OVC050 M09/M10 A2972 RMK SC8 SLP126

CYQF;2018-04-08 06:00;CYQF 080600Z 09006KT 3SM -SN OVC045 M09/M10 A2971 RMK SC8 SLP125

CYQF;2018-04-08 07:00;CYQF 080700Z 08006KT 3SM -SN OVC030 M09/M10 A2971 RMK SN2SC6 SLP122

CYQF;2018-04-08 07:21;CYQF 080721Z 10007KT 1 1/2SM -SN VV024 M09/M11 A2970 RMK SN8 SLP120

CYQF;2018-04-08 08:00;CYQF 080800Z 07005KT 1 1/2SM -SN VV025 M09/M11 A2971 RMK SN8 SLP120

CYQF;2018-04-08 09:00;CYQF 080900Z 08006KT 2SM -SN OVC040 M09/M11 A2971 RMK SN4SC4 /S01/ SLP119

CYQF;2018-04-08 10:00;CYQF 081000Z 06006KT 2SM -SN OVC032 M09/M11 A2971 RMK SN4SC4 SLP121

CYQF;2018-04-08 11:00;CYQF 081100Z 06006KT 2SM -SN OVC040 M10/M11 A2971 RMK SN4SC4 SLP122

CYQF;2018-04-08 12:00;CYQF 081200Z 08006KT 2SM -SN OVC032 M10/M11 A2972 RMK SN4SC4 /S02/ SLP126

CYQF;2018-04-08 13:00;CYQF 081300Z 06004KT 1 1/2SM -SN VV027 M10/M11 A2975 RMK SN8 SLP135

CYQF;2018-04-08 14:00;CYQF 081400Z 08004KT 2SM -SN OVC040 M10/M11 A2976 RMK SN4SC4 SLP140

CYQF;2018-04-08 15:00;CYQF 081500Z 08004KT 2SM -SN OVC040 M09/M12 A2978 RMK SN4SC4 SLP147

CYQF;2018-04-08 16:00;CYQF 081600Z 09004KT 2SM -SN OVC030 M09/M11 A2980 RMK SN4SC4 CIG RAG SLP151

CYQF;2018-04-08 16:54;CYQF 081654Z 06003KT 3SM -SN BKN030 OVC050 M08/M11 A2981 RMK SC5SC3 SLP154

CYQF;2018-04-08 17:00;CYQF 081700Z 08003KT 3SM -SN BKN030 OVC050 M08/M11 A2981 RMK SC5SC3 SLP155

CYQF;2018-04-08 18:00;CYQF 081800Z 00000KT 2 1/2SM -SN OVC030 M07/M11 A2983 RMK SN3SC5 CIG RAG VIS VRB 2-3 SLP160

CYQF;2018-04-08 19:00;CYQF 081900Z 00000KT 5SM -SN SCT024 BKN065 OVC250 M06/M10 A2985 RMK SC3SC2CI3 SLP165

CYQF;2018-04-08 19:49;CYQF 081949Z 00000KT 12SM FEW020 SCT060 BKN250 M05/M10 A2986 RMK SC2SC1CI2 SLP168

CYQF;2018-04-08 20:00;CYQF 082000Z 00000KT 12SM FEW020 SCT080 BKN250 M05/M10 A2986 RMK SC2AC1CI2 SLP169

CYQF;2018-04-08 21:00;CYQF 082100Z 17004KT 12SM FEW018 SCT070 BKN250 M05/M10 A2988 RMK CU1AC2CI2 SLP176

CYQF;2018-04-08 22:00;CYQF 082200Z 17003KT 150V220 12SM OVC070 M05/M09 A2989 RMK AC8 SLP179

CYQF;2018-04-08 23:00;CYQF 082300Z 14004KT 12SM OVC062 M04/M09 A2990 RMK SC8 SLP184

CYQF;2018-04-09 00:00;CYQF 090000Z 18006KT 15SM SCT060 BKN250 M04/M09 A2991 RMK SC4CI2 SLP187

CYQF;2018-04-09 01:00;CYQF 090100Z 19005KT 15SM FEW050 M05/M09 A2993 RMK SC2 SLP196

CYQF;2018-04-09 02:00;CYQF 090200Z 18006KT 15SM FEW100 M07/M10 A2994 RMK AC2 SLP199

CYQF;2018-04-09 03:00;CYQF 090300Z 19006KT 15SM FEW100 M09/M11 A2995 RMK AC2 SLP206

CYQF;2018-04-09 04:00;CYQF 090400Z 17006KT 15SM FEW080 M10/M12 A2998 RMK AC2 SLP215

CYQF;2018-04-09 05:00;CYQF 090500Z 19004KT 15SM BKN070 M10/M12 A2999 RMK AC5 SLP217

CYQF;2018-04-09 05:11;CYQF 090511Z 18003KT 15SM -SN BKN070 M10/M12 A2999 RMK AC7 SLP217

CYQF;2018-04-09 05:36;CYQF 090536Z 18005KT 15SM BKN070 M10/M12 A2998 RMK AC6 SLP216

CYQF;2018-04-09 06:00;CYQF 090600Z 18005KT 15SM BKN070 M10/M12 A2998 RMK AC5 SLP215

CYQF;2018-04-09 07:00;CYQF 090700Z 20002KT 15SM OVC060 M08/M10 A3000 RMK SC8 SLP216

CYQF;2018-04-09 08:00;CYQF 090800Z 19006KT 15SM OVC057 M07/M09 A3000 RMK SC8 SLP215

CYQF;2018-04-09 09:00;CYQF 090900Z 21006KT 15SM OVC054 M07/M09 A3000 RMK SC8 SLP217

CYQF;2018-04-09 10:00;CYQF 091000Z 20004KT 15SM OVC047 M07/M09 A3001 RMK SC8 SLP217

CYQF;2018-04-09 10:07;CYQF 091007Z 19002KT 12SM -SN BKN045 OVC070 M07/M09 A3001 RMK SC5AC3 SLP218

CYQF;2018-04-09 11:00;CYQF 091100Z 19005KT 15SM FEW045 BKN090 M08/M10 A3001 RMK SC1AC4 SLP218

CYQF;2018-04-09 12:00;CYQF 091200Z 21004KT 15SM FEW040 BKN070 M10/M11 A3002 RMK SC2AC3 SLP224

CYQF;2018-04-09 13:00;CYQF 091300Z 20004KT 8SM SCT040 OVC080 M08/M10 A3002 RMK SC3AC5 BR SLP226

CYQF;2018-04-09 14:00;CYQF 091400Z 20005KT 8SM OVC070 M06/M08 A3003 RMK AC8 BR SLP229

CYQF;2018-04-09 15:00;CYQF 091500Z 19006KT 8SM FEW008 BKN070 M05/M08 A3004 RMK SF1AC7 SF TR BR SLP232

CYQF;2018-04-09 16:00;CYQF 091600Z 19004KT 8SM FEW008 BKN080 M03/M07 A3004 RMK SF1AC6 SF TR SLP230

CYQF;2018-04-09 17:00;CYQF 091700Z 18004KT 10SM SCT080 M01/M06 A3005 RMK AC3 BR SLP230

CYQF;2018-04-09 18:00;CYQF 091800Z 20006KT 10SM FEW080 SCT250 00/M05 A3005 RMK AC2CI2 SLP231

CYQF;2018-04-09 19:00;CYQF 091900Z 17005KT 10SM SCT080 BKN250 01/M04 A3004 RMK AC3CI2 BR SLP223

CYQF;2018-04-09 20:00;CYQF 092000Z 17005KT 12SM FEW080 BKN250 03/M04 A3003 RMK AC2CI3 SLP218

CYQF;2018-04-09 21:00;CYQF 092100Z 16006KT 12SM FEW080 SCT250 04/M03 A3002 RMK AC2CI2 SLP212

CYQF;2018-04-09 22:00;CYQF 092200Z 17008KT 12SM SCT120 BKN250 05/M03 A3002 RMK AC3CI2 SLP212

CYQF;2018-04-09 23:00;CYQF 092300Z 18009KT 12SM FEW120 SCT250 04/M03 A3001 RMK AC2CI2 SLP210

CYQF;2018-04-10 00:00;CYQF 100000Z 19008KT 12SM SCT120 BKN250 04/M02 A3000 RMK AC3CI3 SLP208

CYQF;2018-04-10 01:00;CYQF 100100Z 18002KT 10SM SCT100 BKN210 02/M02 A2999 RMK AC3CI4 SLP206

CYQF;2018-04-10 02:00;CYQF 100200Z 17003KT 10SM SCT100 BKN210 02/M03 A2999 RMK AC4CI3 SLP202

CYQF;2018-04-10 03:00;CYQF 100300Z 18002KT 12SM SCT100 BKN210 01/M02 A2999 RMK AC4CI2 SLP202

CYQF;2018-04-10 04:00;CYQF 100400Z 15004KT 12SM BKN090 01/M03 A3000 RMK AC6 SLP202

CYQF;2018-04-10 05:00;CYQF 100500Z 19008KT 15SM FEW080 BKN110 01/M03 A2999 RMK AC2AC3 SLP200

CYQF;2018-04-10 06:00;CYQF 100600Z 22005KT 15SM SCT080 M01/M04 A2999 RMK AC4 SLP199

CYQF;2018-04-10 07:00;CYQF 100700Z 19003KT 15SM BKN080 M01/M04 A2999 RMK AC6 SLP198

CYQF;2018-04-10 08:00;CYQF 100800Z 19003KT 15SM FEW080 M02/M05 A3000 RMK AC2 SLP199

CYQF;2018-04-10 09:00;CYQF 100900Z 21004KT 15SM FEW080 M03/M05 A2999 RMK AC2 SLP197

CYQF;2018-04-10 10:00;CYQF 101000Z 21003KT 12SM FEW080 M04/M05 A2998 RMK AC1 SLP193

CYQF;2018-04-10 11:00;CYQF 101100Z 20005KT 10SM SKC M06/M06 A2996 RMK SLP189

CYQF;2018-04-10 12:00;CYQF 101200Z 20005KT 10SM FEW080 M06/M07 A2995 RMK AC1 SLP188

CYQF;2018-04-10 12:23;CYQF 101223Z 21004KT 6SM BR FEW080 M07/M08 A2995 RMK AC1 SLP189

CYQF;2018-04-10 13:00;CYQF 101300Z 20004KT 3SM BR FEW080 SCT270 M07/M08 A2994 RMK AC1CI3 SLP188

CYQF;2018-04-10 14:00;CYQF 101400Z 19005KT 3SM BR FEW270 M06/M08 A2994 RMK CI2 SLP185

CYQF;2018-04-10 15:00;CYQF 101500Z 19004KT 4SM BR FEW270 M04/M06 A2991 RMK CI2 SLP176

CYQF;2018-04-10 16:00;CYQF 101600Z 16003KT 6SM BR SCT250 M02/M05 A2990 RMK CI3 SLP167

CYQF;2018-04-10 17:00;CYQF 101700Z 18004KT 6SM BR FEW006 BKN250 01/M05 A2988 RMK SF1CI5 SF TR SLP157

CYQF;2018-04-10 18:00;CYQF 101800Z 00000KT 8SM BKN250 03/M05 A2987 RMK CI6 SLP152

CYQF;2018-04-10 19:00;CYQF 101900Z 05002KT 8SM SCT140 BKN220 04/M04 A2984 RMK AC3CI4 BR SLP143

CYQF;2018-04-10 20:00;CYQF 102000Z 15006KT 080V160 8SM BKN150 OVC250 05/M02 A2980 RMK AC6CI2 SLP130

CYQF;2018-04-10 21:00;CYQF 102100Z 17004KT 6SM BR BKN150 OVC250 05/M01 A2978 RMK AC6CI2 SLP124

CYQF;2018-04-10 22:00;CYQF 102200Z 16007KT 6SM BR BKN160 OVC250 04/M02 A2978 RMK AC7CI1 SLP126

CYQF;2018-04-10 23:00;CYQF 102300Z 18010KT 6SM BR BKN120 OVC250 04/M02 A2977 RMK AC6CI2 SLP124

CYQF;2018-04-11 00:00;CYQF 110000Z VRB02KT 6SM BR BKN100 OVC250 04/M02 A2974 RMK AC7CI1 SLP115

CYQF;2018-04-11 01:00;CYQF 110100Z 07007KT 6SM HZ BKN100 OVC250 03/M01 A2974 RMK AC5CI3 SLP117

CYQF;2018-04-11 02:00;CYQF 110200Z 06007KT 6SM HZ BKN067 OVC230 02/M01 A2972 RMK AC5CI3 SLP111

CYQF;2018-04-11 03:00;CYQF 110300Z 07010KT 6SM -RA HZ BKN050 OVC230 01/M01 A2972 RMK SC6CI2 SLP108

CYQF;2018-04-11 03:19;CYQF 110319Z 06007KT 6SM HZ OVC060 01/M01 A2973 RMK SC8 SLP111

CYQF;2018-04-11 03:35;CYQF 110335Z 05007KT 5SM -RA BR OVC040 01/M01 A2972 RMK SC8 SLP109

CYQF;2018-04-11 04:00;CYQF 110400Z CCA 05008KT 5SM -RASN BR OVC042 01/M01 A2972 RMK SC8 SLP105

CYQF;2018-04-11 04:45;CYQF 110445Z 05008KT 10SM -SN BKN040 OVC070 01/M01 A2970 RMK SC6AC2 SLP098

CYQF;2018-04-11 05:00;CYQF 110500Z 04007KT 10SM -SN OVC040 01/M01 A2970 RMK SC8 SLP095

CYQF;2018-04-11 05:17;CYQF 110517Z 04006KT 12SM BKN040 01/M01 A2969 RMK SC7 SLP091

CYQF;2018-04-11 06:00;CYQF 110600Z 04004KT 10SM FEW040 BKN120 00/M01 A2968 RMK SC2AC4 SLP087

CYQF;2018-04-11 06:25;CYQF 110625Z 17003KT 8SM BKN009 OVC120 00/M00 A2968 RMK ST5AC3 SLP087

CYQF;2018-04-11 07:00;CYQF 110700Z 17002KT 6SM BR OVC008 00/M00 A2968 RMK ST8 SLP085

CYQF;2018-04-11 08:00;CYQF 110800Z 12002KT 6SM BR OVC008 00/M00 A2968 RMK ST8 SLP082

CYQF;2018-04-11 09:00;CYQF 110900Z 13004KT 110V170 6SM BR OVC007 00/M01 A2966 RMK ST8 SLP078

CYQF;2018-04-11 10:00;CYQF 111000Z 28003KT 220V290 6SM BR OVC006 00/M01 A2966 RMK ST8 SLP080

CYQF;2018-04-11 11:00;CYQF 111100Z 33005KT 6SM BR OVC005 00/M01 A2966 RMK ST8 SLP080

CYQF;2018-04-11 12:00;CYQF 111200Z 33008KT 3SM BR OVC004 M00/M01 A2967 RMK ST8 SLP084

CYQF;2018-04-11 12:43;CYQF 111243Z 30011KT 2 1/2SM BR OVC006 00/M01 A2969 RMK ST8 SLP090

CYQF;2018-04-11 13:00;CYQF 111300Z 31011KT 2 1/2SM BR OVC006 M00/M01 A2969 RMK ST8 SLP092

CYQF;2018-04-11 14:00;CYQF 111400Z 30007KT 2SM BR OVC007 M00/M01 A2970 RMK ST8 SLP097

CYQF;2018-04-11 15:00;CYQF 111500Z 31010KT 2SM BR OVC007 00/M01 A2970 RMK ST8 SLP097

CYQF;2018-04-11 16:00;CYQF 111600Z 35008KT 2SM BR OVC008 00/M01 A2970 RMK ST8 SLP098

CYQF;2018-04-11 17:00;CYQF 111700Z 01005KT 2 1/2SM BR OVC008 00/M01 A2972 RMK ST8 SLP102

CYQF;2018-04-11 18:00;CYQF 111800Z 33006KT 2 1/2SM BR OVC009 01/M02 A2973 RMK ST8 SLP106

CYQF;2018-04-11 18:25;CYQF 111825Z 33005KT 3SM BR BKN010 01/M01 A2974 RMK ST7 SLP109

CYQF;2018-04-11 19:00;CYQF 111900Z 36005KT 4SM BR BKN012 02/M02 A2973 RMK SC7 SLP107

CYQF;2018-04-11 20:00;CYQF 112000Z 03008KT 8SM SCT016 BKN250 02/M02 A2972 RMK SC4CI2 SLP103

CYQF;2018-04-11 21:00;CYQF 112100Z 35005KT 8SM FEW020 BKN250 02/M02 A2972 RMK SC2CI4 SLP101

CYQF;2018-04-11 22:00;CYQF 112200Z 00000KT 8SM FEW020 BKN250 03/M02 A2973 RMK SC2CI4 SLP104

CYQF;2018-04-11 23:00;CYQF 112300Z 11007KT 6SM HZ SCT020 SCT120 BKN250 02/M02 A2972 RMK SC3AC1CI2 SLP103

CYQF;2018-04-12 00:00;CYQF 120000Z 09009KT 6SM HZ FEW020 SCT120 BKN220 02/M02 A2972 RMK SC1AC2CI3 SLP103

CYQF;2018-04-12 01:00;CYQF 120100Z 08008KT 6SM HZ BKN017 BKN250 01/M02 A2973 RMK SC5CI2 SLP107

CYQF;2018-04-12 02:00;CYQF 120200Z 09008KT 6SM HZ OVC016 00/M03 A2973 RMK SC8 SLP108

CYQF;2018-04-12 03:00;CYQF 120300Z 06006KT 12SM OVC015 M00/M03 A2974 RMK SC8 SLP113

CYQF;2018-04-12 04:00;CYQF 120400Z 07006KT 12SM OVC015 M00/M03 A2975 RMK SC8 SLP113

CYQF;2018-04-12 05:00;CYQF 120500Z 09006KT 15SM OVC015 M00/M03 A2973 RMK SC8 SLP109

CYQF;2018-04-12 06:00;CYQF 120600Z 10006KT 15SM OVC015 M01/M03 A2972 RMK SC8 SLP106

CYQF;2018-04-12 07:00;CYQF 120700Z 13008KT 15SM OVC013 M01/M03 A2971 RMK ST8 SLP101

CYQF;2018-04-12 08:00;CYQF 120800Z 16009KT 15SM OVC012 M01/M03 A2972 RMK ST8 SLP103

CYQF;2018-04-12 09:00;CYQF 120900Z 13006KT 15SM OVC012 M01/M03 A2971 RMK ST8 SLP099

CYQF;2018-04-12 10:00;CYQF 121000Z 15008KT 15SM OVC010 M01/M03 A2969 RMK ST8 SLP093

CYQF;2018-04-12 11:00;CYQF 121100Z 12007KT 15SM OVC010 M02/M03 A2969 RMK ST8 SLP093

CYQF;2018-04-12 12:00;CYQF 121200Z 12008KT 15SM OVC009 M02/M04 A2970 RMK ST8 SLP098

CYQF;2018-04-12 12:34;CYQF 121234Z 15008KT 6SM BR OVC008 M03/M04 A2971 RMK ST8 SLP101

CYQF;2018-04-12 13:00;CYQF 121300Z 13010KT 5SM BR OVC008 M03/M04 A2971 RMK ST8 SLP103

CYQF;2018-04-12 14:00;CYQF 121400Z 09009KT 4SM BR OVC008 M03/M04 A2971 RMK ST8 SLP103

CYQF;2018-04-12 15:00;CYQF 121500Z 11011KT 3SM BR OVC006 M03/M04 A2972 RMK ST8 SLP107

CYQF;2018-04-12 16:00;CYQF 121600Z 13010KT 3SM BR OVC008 M03/M05 A2972 RMK ST8 SLP108

CYQF;2018-04-12 17:00;CYQF 121700Z 13013KT 4SM BR OVC008 M03/M05 A2974 RMK ST8 SLP115

CYQF;2018-04-12 18:00;CYQF 121800Z 13011KT 5SM BR OVC008 M03/M05 A2974 RMK ST8 SLP116

CYQF;2018-04-12 19:00;CYQF 121900Z CCA 14012KT 4SM BR OVC005 M03/M04 A2976 RMK ST8 VIS LWR S SLP121

CYQF;2018-04-12 20:00;CYQF 122000Z 14011KT 4SM BR OVC007 M03/M05 A2975 RMK ST8 SLP121

CYQF;2018-04-12 21:00;CYQF 122100Z 12013KT 6SM BR OVC008 M03/M05 A2975 RMK ST8 SLP119

CYQF;2018-04-12 22:00;CYQF 122200Z 14011KT 8SM OVC011 M03/M05 A2977 RMK SC8 BR SLP126

CYQF;2018-04-12 23:00;CYQF 122300Z 14011KT 5SM BR OVC009 M03/M05 A2979 RMK SC8 SLP133

CYQF;2018-04-12 23:17;CYQF 122317Z 12011KT 3SM -SN BR OVC008 M03/M05 A2979 RMK ST8 SLP135

CYQF;2018-04-12 23:23;CYQF 122323Z 14013KT 2 1/2SM -SN BR OVC009 M03/M05 A2979 RMK ST8 SLP135

CYQF;2018-04-12 23:37;CYQF 122337Z 13011KT 1SM -SN BR OVC008 M03/M05 A2980 RMK ST8 SLP137

CYQF;2018-04-13 00:00;CYQF 130000Z 13010KT 1SM -SN BR BKN007 OVC030 M03/M04 A2980 RMK ST7SC1 SLP140

CYQF;2018-04-13 01:00;CYQF 130100Z 12011KT 1 1/2SM -SN BR SCT010 VV041 M03/M05 A2982 RMK SC4SN4 VIS VRB 1-2 SLP146

CYQF;2018-04-13 02:00;CYQF 130200Z 13012KT 1 1/2SM -SN BR VV011 M03/M05 A2983 RMK SN8 VIS VRB 1-2 SLP151

CYQF;2018-04-13 03:00;CYQF 130300Z 14010KT 2SM -SN BR VV010 M03/M04 A2986 RMK SN8 SLP159

CYQF;2018-04-13 04:00;CYQF 130400Z 15009KT 3SM -SN BR SCT008 VV038 M03/M04 A2987 RMK SC4SN4 SLP163

CYQF;2018-04-13 04:48;CYQF 130448Z 15009KT 10SM -SN BKN010 OVC070 M03/M05 A2988 RMK SC5AC3 SLP167

CYQF;2018-04-13 05:00;CYQF 130500Z 16010KT 10SM -SN BKN010 OVC070 M03/M05 A2988 RMK SC5AC3 SLP168

CYQF;2018-04-13 05:16;CYQF 130516Z 15011KT 12SM FEW010 OVC070 M03/M05 A2988 RMK SC2AC6 SLP168

CYQF;2018-04-13 06:00;CYQF 130600Z 15011KT 12SM FEW010 OVC070 M04/M05 A2988 RMK SC1AC7 SLP167

CYQF;2018-04-13 06:47;CYQF 130647Z 15011KT 12SM BKN010 OVC070 M04/M05 A2989 RMK SC5AC3 SLP169

CYQF;2018-04-13 07:00;CYQF 130700Z 16011KT 12SM BKN008 OVC070 M04/M05 A2989 RMK SC7AC1 SLP169

CYQF;2018-04-13 07:47;CYQF 130747Z 16012KT 8SM -SN BKN008 OVC070 M03/M05 A2989 RMK SC7AC1 SLP171

CYQF;2018-04-13 08:00;CYQF 130800Z 16013KT 6SM -SN BKN008 OVC070 M03/M05 A2989 RMK SC7AC1 SLP171

CYQF;2018-04-13 09:00;CYQF 130900Z 15013KT 2 1/4SM -SN BKN008 OVC070 M03/M04 A2990 RMK SC7AC1 SLP172

CYQF;2018-04-13 10:00;CYQF 131000Z 16011KT 2SM -SN BKN010 OVC070 M03/M04 A2990 RMK SC6AC2 SLP174

CYQF;2018-04-13 11:00;CYQF 131100Z 16010KT 2SM -SN VV020 M03/M04 A2991 RMK SN8 SLP178

CYQF;2018-04-13 11:34;CYQF 131134Z 17010KT 1SM -SN VV013 M03/M04 A2994 RMK SN8 SLP186

CYQF;2018-04-13 12:00;CYQF 131200Z 17009KT 1 1/2SM -SN VV016 M03/M04 A2994 RMK SN8 VIS VRB 1-2 /S01/ SLP186

CYQF;2018-04-13 13:00;CYQF 131300Z 18006KT 1SM -SN VV015 M03/M04 A2996 RMK SN8 SLP194

CYQF;2018-04-13 14:00;CYQF 131400Z 18007KT 1 1/4SM -SN VV018 M03/M03 A2997 RMK SN8 SLP198

CYQF;2018-04-13 14:42;CYQF 131442Z 18009KT 2SM -SN VV030 M02/M03 A2998 RMK SN8 SLP199

CYQF;2018-04-13 15:00;CYQF 131500Z 18009KT 2 1/2SM -SN OVC050 M02/M03 A2998 RMK SN3SC5 SLP200

CYQF;2018-04-13 15:13;CYQF 131513Z 20007KT 3SM BR OVC060 M02/M03 A2998 RMK SC8 SLP201

CYQF;2018-04-13 16:00;CYQF 131600Z 17012KT 5SM BR FEW030 OVC080 M01/M03 A2998 RMK SC1AC7 SLP200

CYQF;2018-04-13 16:28;CYQF 131628Z 22009KT 6SM BR FEW009 FEW018 BKN080 M01/M03 A3000 RMK SF1SC1AC5 PRESRR SLP207

CYQF;2018-04-13 17:00;CYQF 131700Z 18008KT 6SM BR FEW018 SCT100 BKN150 M00/M03 A3000 RMK SC1AC3AC2 SLP206

CYQF;2018-04-13 18:00;CYQF 131800Z 17009KT 8SM FEW020 SCT120 BKN250 01/M03 A3000 RMK SC1AC4CI2 SC TR BR SLP207

CYQF;2018-04-13 19:00;CYQF 131900Z 17008KT 8SM FEW020 SCT120 02/M02 A3001 RMK SC1AC3 SC TR BR SLP208

CYQF;2018-04-13 20:00;CYQF 132000Z 17009KT 8SM FEW020 FEW250 03/M02 A3000 RMK CU1CI1 CI TR SLP204

CYQF;2018-04-13 21:00;CYQF 132100Z 14010KT 8SM FEW020 FEW250 03/M02 A2999 RMK CU1CI1 SLP199

CYQF;2018-04-13 22:00;CYQF 132200Z 15010KT 8SM FEW070 BKN250 03/M01 A2999 RMK AC2CI3 SLP197

CYQF;2018-04-13 23:00;CYQF 132300Z 14011KT 8SM FEW070 BKN250 02/M01 A2997 RMK AC1CI4 SLP192

CYQF;2018-04-14 00:00;CYQF 140000Z 15014KT 8SM SCT070 BKN250 01/M01 A2995 RMK AC4CI3 SLP186

CYQF;2018-04-14 01:00;CYQF 140100Z 16016KT 8SM BKN120 BKN250 01/M02 A2992 RMK AC6CI1 SLP176

CYQF;2018-04-14 02:00;CYQF 140200Z 16016KT 10SM BKN120 01/M02 A2991 RMK AC7 SLP171

CYQF;2018-04-14 03:00;CYQF 140300Z 16015KT 12SM BKN150 01/M02 A2989 RMK AC7 SLP164

CYQF;2018-04-14 04:00;CYQF 140400Z 16011KT 12SM OVC170 00/M02 A2988 RMK AC8 SLP162

CYQF;2018-04-14 05:00;CYQF 140500Z 17012KT 12SM BKN220 01/M03 A2987 RMK CI6 SLP155

CYQF;2018-04-14 06:00;CYQF 140600Z 18008KT 15SM BKN220 01/M03 A2986 RMK CI6 SLP151

CYQF;2018-04-14 07:00;CYQF 140700Z 20005KT 15SM BKN220 01/M04 A2986 RMK CI5 SLP148

CYQF;2018-04-14 08:00;CYQF 140800Z 19007KT 15SM SCT150 BKN220 00/M04 A2985 RMK AC4CI2 SLP145

CYQF;2018-04-14 09:00;CYQF 140900Z 17005KT 15SM OVC160 01/M04 A2984 RMK AC8 SLP141

CYQF;2018-04-14 10:00;CYQF 141000Z 19008KT 15SM OVC170 02/M04 A2983 RMK AC8 SLP138

CYQF;2018-04-14 11:00;CYQF 141100Z 20005KT 15SM OVC230 01/M04 A2984 RMK CI8 SLP143

CYQF;2018-04-14 12:00;CYQF 141200Z 17005KT 15SM BKN230 01/M04 A2985 RMK CI5 SLP146

CYQF;2018-04-14 13:00;CYQF 141300Z 24008KT 15SM FEW100 BKN240 03/M05 A2986 RMK AC2CI4 SLP147

CYQF;2018-04-14 14:00;CYQF 141400Z 24008KT 15SM FEW030 SCT100 BKN240 03/M05 A2988 RMK CU1AC2CI4 SLP156

CYQF;2018-04-14 15:00;CYQF 141500Z 23009KT 15SM FEW030 FEW110 BKN220 03/M05 A2990 RMK CU1AC1CI5 SLP162

CYQF;2018-04-14 15:16;CYQF 141516Z 28011G20KT 230V310 15SM FEW030 FEW110 BKN220 05/M05 A2992 RMK CU1AC1CI5 PRESRR SLP168

CYQF;2018-04-14 16:00;CYQF 141600Z 34014G19KT 15SM FEW030 BKN240 05/M03 A2993 RMK CU1CI5 SLP173

CYQF;2018-04-14 17:00;CYQF 141700Z 36010KT 15SM FEW030 BKN240 05/M03 A2994 RMK CU1CI5 SLP173

CYQF;2018-04-14 18:00;CYQF 141800Z 32004KT 290V360 15SM FEW040 FEW180 BKN240 05/M03 A2995 RMK CU1AC1CI5 SLP178

CYQF;2018-04-14 19:00;CYQF 141900Z VRB02KT 15SM FEW030 SCT180 BKN250 06/M03 A2994 RMK CU1AC2CI4 SLP173

CYQF;2018-04-14 20:00;CYQF 142000Z VRB02KT 15SM FEW030 BKN170 BKN250 07/M03 A2994 RMK CU1AC4CI2 SLP171

CYQF;2018-04-14 21:00;CYQF 142100Z 18006KT 15SM FEW030 SCT180 BKN250 06/M02 A2995 RMK CU1AC2CI4 SLP175

CYQF;2018-04-14 22:00;CYQF 142200Z 14009KT 15SM FEW030 BKN180 BKN250 06/M03 A2994 RMK CU1AC4CI2 SLP172

CYQF;2018-04-14 23:00;CYQF 142300Z 17010KT 15SM FEW025 BKN250 05/M02 A2993 RMK CU1CI6 SLP172

CYQF;2018-04-15 00:00;CYQF 150000Z 17008KT 15SM FEW030 FEW100 BKN240 04/M02 A2993 RMK CU1AC1CI5 SLP171

CYQF;2018-04-15 01:00;CYQF 150100Z 17007KT 15SM FEW030 SCT100 BKN240 04/M02 A2992 RMK CU1AC2CI4 SLP165

CYQF;2018-04-15 02:00;CYQF 150200Z 15008KT 15SM FEW030 FEW100 BKN220 03/M02 A2992 RMK SC1AC1CI5 SLP167

CYQF;2018-04-15 03:00;CYQF 150300Z 13007KT 15SM FEW025 SCT120 BKN220 02/M02 A2993 RMK SC1AC3CI3 SLP170

CYQF;2018-04-15 04:00;CYQF 150400Z 05005KT 050V110 15SM SCT120 BKN200 M00/M03 A2993 RMK AC3CI3 SLP172

CYQF;2018-04-15 05:00;CYQF 150500Z 13005KT 12SM OVC160 00/M03 A2992 RMK AC8 SLP167

CYQF;2018-04-15 06:00;CYQF 150600Z 17007KT 15SM OVC160 01/M02 A2990 RMK AC8 SLP162

CYQF;2018-04-15 07:00;CYQF 150700Z 17008KT 15SM OVC140 M01/M03 A2990 RMK AC8 SLP162

CYQF;2018-04-15 08:00;CYQF 150800Z 20003KT 15SM OVC120 M00/M02 A2990 RMK AC8 SLP159

CYQF;2018-04-15 09:00;CYQF 150900Z 27004KT 15SM OVC100 M00/M02 A2989 RMK AC8 SLP156

CYQF;2018-04-15 10:00;CYQF 151000Z 10003KT 15SM OVC090 M00/M02 A2987 RMK AC8 SLP150

CYQF;2018-04-15 11:00;CYQF 151100Z 34005KT 15SM OVC090 M01/M02 A2985 RMK AC8 SLP145

CYQF;2018-04-15 12:00;CYQF 151200Z 00000KT 15SM OVC095 M01/M03 A2985 RMK AC8 SLP144

CYQF;2018-04-15 13:00;CYQF 151300Z VRB02KT 12SM OVC090 M01/M03 A2986 RMK AC8 SLP149

CYQF;2018-04-15 14:00;CYQF 151400Z 32004KT 12SM OVC085 M01/M02 A2985 RMK AC8 SLP148

CYQF;2018-04-15 15:00;CYQF 151500Z 36005KT 12SM FEW060 OVC100 00/M02 A2984 RMK SC1AC7 WND ESTD SLP143

CYQF;2018-04-15 16:00;CYQF 151600Z 36003KT 12SM BKN100 02/M02 A2982 RMK AC7 SLP138

CYQF;2018-04-15 17:00;CYQF 151700Z 34007KT 10SM BKN100 02/M02 A2982 RMK AC7 SLP136

CYQF;2018-04-15 18:00;CYQF 151800Z 34009KT 10SM BKN090 OVC250 02/M02 A2981 RMK AC6CI2 SLP131

CYQF;2018-04-15 19:00;CYQF 151900Z 35006KT 10SM BKN250 04/M02 A2980 RMK CI7 SLP130

CYQF;2018-04-15 20:00;CYQF 152000Z 34007KT 10SM BKN250 04/M02 A2980 RMK CI6 SLP127

CYQF;2018-04-15 21:00;CYQF 152100Z 34009KT 10SM FEW018 BKN250 04/M02 A2980 RMK SF1CI6 SF TR SLP126

CYQF;2018-04-15 22:00;CYQF 152200Z 35009KT 12SM FEW015 SCT250 04/M01 A2979 RMK SF1CI4 SF TR SLP125

CYQF;2018-04-15 23:00;CYQF 152300Z 34008KT 12SM FEW015 SCT160 BKN250 03/M01 A2980 RMK SF1AC3CI4 SF TR SLP131

CYQF;2018-04-16 00:00;CYQF 160000Z 36007KT 12SM FEW015 SCT160 BKN250 04/M01 A2981 RMK SC1AC3CI3 SC TR SLP134

CYQF;2018-04-16 01:00;CYQF 160100Z 01006KT 12SM FEW020 SCT160 BKN250 03/M00 A2983 RMK SF1AC3CI3 SLP139

CYQF;2018-04-16 02:00;CYQF 160200Z 34005KT 12SM SCT020 BKN160 BKN250 02/M01 A2985 RMK SC3AC2CI2 SLP146

CYQF;2018-04-16 03:00;CYQF 160300Z 35005KT 10SM SCT020 BKN070 02/M01 A2986 RMK SC4AC3 SLP149

CYQF;2018-04-16 04:00;CYQF 160400Z 35006KT 10SM OVC080 01/M01 A2985 RMK AC8 SLP147

CYQF;2018-04-16 05:00;CYQF 160500Z 35007KT 15SM OVC080 01/M01 A2986 RMK AC8 SLP148

CYQF;2018-04-16 06:00;CYQF 160600Z 35006KT 15SM OVC090 01/M01 A2987 RMK AC8 SLP153

CYQF;2018-04-16 07:00;CYQF 160700Z 34005KT 15SM OVC100 00/M01 A2985 RMK AC8 SLP146

CYQF;2018-04-16 08:00;CYQF 160800Z 35006KT 15SM BKN100 M00/M02 A2985 RMK AC6 SLP144

CYQF;2018-04-16 08:49;CYQF 160849Z 35004KT 15SM SCT009 BKN100 M00/M02 A2986 RMK SF3AC4 SLP148

CYQF;2018-04-16 09:00;CYQF 160900Z 35004KT 15SM SCT009 BKN100 M00/M02 A2985 RMK SF4AC3 SLP146

CYQF;2018-04-16 09:39;CYQF 160939Z 01011KT 12SM BKN008 OVC100 M00/M02 A2982 RMK ST6AC2 SLP134

CYQF;2018-04-16 09:48;CYQF 160948Z 01012KT 10SM OVC006 M00/M01 A2981 RMK ST8 SLP133

CYQF;2018-04-16 10:00;CYQF 161000Z 01013KT 10SM OVC005 M01/M02 A2981 RMK ST8 SLP131

CYQF;2018-04-16 10:29;CYQF 161029Z 01009KT 3SM BR OVC003 M01/M01 A2981 RMK ST8 SLP132

CYQF;2018-04-16 10:50;CYQF 161050Z 01012KT 2SM BR OVC002 M01/M01 A2980 RMK FG1ST7 SLP130

CYQF;2018-04-16 11:00;CYQF 161100Z 02011KT 1 1/2SM BR OVC002 M01/M01 A2980 RMK FG2ST6 SLP131

CYQF;2018-04-16 11:35;CYQF 161135Z 04013KT 1/2SM FZFG VV002 M01/M02 A2980 RMK FG8 SLP128

CYQF;2018-04-16 11:49;CYQF 161149Z 02013KT 1/2SM -SN FZFG VV002 M01/M02 A2980 RMK FG8 SLP128

CYQF;2018-04-16 12:00;CYQF 161200Z 02012KT 1/2SM -SN FZFG VV002 M01/M02 A2980 RMK FG8 SLP128

CYQF;2018-04-16 13:00;CYQF 161300Z 02013KT 1/2SM -SN FZFG VV002 M01/M01 A2976 RMK FG8 SLP117

CYQF;2018-04-16 13:39;CYQF 161339Z 01008KT 1/2SM FZFG VV002 M01/M01 A2977 RMK FG8 SLP118

CYQF;2018-04-16 13:52;CYQF 161352Z 02008KT 1/2SM -SN FZFG VV002 M01/M01 A2976 RMK FG8 SLP117

CYQF;2018-04-16 14:00;CYQF 161400Z 02013KT 1/2SM -SN FZFG VV002 M01/M01 A2976 RMK FG8 SLP116

CYQF;2018-04-16 15:00;CYQF 161500Z 02014KT 1/2SM -SN FZFG VV002 M01/M01 A2973 RMK FG8 SLP108

CYQF;2018-04-16 15:50;CYQF 161550Z 03012KT 3/8SM FZFG VV002 M01/M01 A2971 RMK FG8 SLP100

CYQF;2018-04-16 16:00;CYQF 161600Z 03014KT 3/8SM FZFG VV002 M01/M01 A2971 RMK FG8 SLP101

CYQF;2018-04-16 16:11;CYQF 161611Z 03013KT 3/8SM -SN FZFG VV002 M01/M01 A2971 RMK FG8 SLP100

CYQF;2018-04-16 16:47;CYQF 161647Z 03013G19KT 1SM -SN BR OVC002 M01/M01 A2968 RMK FG3ST5 SLP090

CYQF;2018-04-16 17:00;CYQF 161700Z 02015KT 3/4SM -SN BR OVC002 M01/M01 A2967 RMK FG3ST5 VIS VRB 1/2-1 SLP087

CYQF;2018-04-16 18:00;CYQF 161800Z 01012KT 3/4SM -SN BR VV002 M01/M01 A2964 RMK SN8 VIS VRB 1/2-1 SLP077

CYQF;2018-04-16 18:17;CYQF 161817Z 02011KT 3/4SM -SN BR VV005 M01/M01 A2964 RMK SN8 VIS VRB 1/2-1 SLP075

CYQF;2018-04-16 19:00;CYQF 161900Z 01011KT 3/4SM -SN BR VV005 M01/M01 A2961 RMK SN8 VIS VRB 1/2-1 SLP068

CYQF;2018-04-16 20:00;CYQF 162000Z 03006KT 1/2SM SN BR VV005 M00/M01 A2961 RMK SN8 VIS VRB 1/4-3/4 SLP068

CYQF;2018-04-16 21:00;CYQF 162100Z 03006KT 3/4SM -SN BR OVC005 00/M01 A2961 RMK SN5ST3 VIS VRB 1/2-1 SLP064

CYQF;2018-04-16 21:33;CYQF 162133Z 03005KT 1SM -SN SCT016 OVC030 00/M01 A2959 RMK SC3SC5 VIS VRB 3/4-11/2 SLP059

CYQF;2018-04-16 21:53;CYQF 162153Z 01007KT 350V070 2 1/2SM -SN BKN008 OVC018 00/M01 A2958 RMK SF5SC3 SLP056

CYQF;2018-04-16 22:00;CYQF 162200Z 36006KT 2 1/2SM -SN BKN008 OVC018 00/M01 A2958 RMK SF6SC2 SLP056

CYQF;2018-04-16 22:24;CYQF 162224Z 36005KT 6SM -SN OVC008 00/M01 A2958 RMK SF8 SLP054

CYQF;2018-04-16 23:00;CYQF 162300Z 01005KT 10SM -SN OVC008 01/M01 A2957 RMK SF8 SLP052

CYQF;2018-04-16 23:29;CYQF 162329Z 35004KT 10SM -SN SCT010 OVC020 01/M01 A2957 RMK SF3SC5 SLP051

CYQF;2018-04-17 00:00;CYQF 170000Z 33005KT 10SM -SN FEW010 OVC020 00/M01 A2957 RMK SF2SC6 SLP052

CYQF;2018-04-17 00:48;CYQF 170048Z 32005KT 10SM SCT010 BKN025 OVC100 00/M01 A2957 RMK SF3SC4AC1 SLP053

CYQF;2018-04-17 01:00;CYQF 170100Z 32004KT 10SM SCT010 BKN028 OVC100 00/M01 A2957 RMK SF3SC3AC2 SLP052

CYQF;2018-04-17 02:00;CYQF 170200Z 23005KT 10SM BKN027 OVC100 00/M01 A2958 RMK SC5AC3 SLP056

CYQF;2018-04-17 03:00;CYQF 170300Z 28003KT 12SM OVC025 M00/M01 A2956 RMK SC8 SLP051

CYQF;2018-04-17 04:00;CYQF 170400Z 20003KT 170V230 15SM BKN025 OVC150 M00/M01 A2956 RMK SC5AC3 SLP051

CYQF;2018-04-17 05:00;CYQF 170500Z 23006KT 15SM BKN025 OVC150 M01/M02 A2958 RMK SC5AC3 SLP056

CYQF;2018-04-17 06:00;CYQF 170600Z 23006KT 15SM SCT025 OVC150 M02/M03 A2957 RMK SC3AC5 SLP056

CYQF;2018-04-17 07:00;CYQF 170700Z 23005KT 15SM SCT025 BKN120 BKN230 M02/M03 A2956 RMK SC3AC2CI2 SLP053

CYQF;2018-04-17 08:00;CYQF 170800Z 23003KT 15SM OVC040 M02/M03 A2957 RMK SC8 SLP055

CYQF;2018-04-17 09:00;CYQF 170900Z VRB02KT 12SM OVC040 M02/M03 A2957 RMK SC8 SLP053

CYQF;2018-04-17 10:00;CYQF 171000Z 22004KT 12SM OVC038 M02/M02 A2956 RMK SC8 FROIN SLP051

CYQF;2018-04-17 10:49;CYQF 171049Z 23005KT 12SM -SN OVC038 M02/M02 A2956 RMK SC8 SLP049

CYQF;2018-04-17 11:00;CYQF 171100Z 25004KT 12SM -SN OVC036 M01/M02 A2956 RMK SC8 SLP048

CYQF;2018-04-17 11:29;CYQF 171129Z 24005KT 12SM OVC038 M01/M02 A2956 RMK SC8 SLP049

CYQF;2018-04-17 12:00;CYQF 171200Z 26005KT 12SM OVC035 M01/M02 A2957 RMK SC8 SLP052

CYQF;2018-04-17 13:00;CYQF 171300Z 28004KT 6SM BR BKN033 OVC100 M01/M02 A2958 RMK SC7AC1 SLP055

CYQF;2018-04-17 13:09;CYQF 171309Z 28004KT 5SM -SHGS BR BKN033 OVC100 M01/M02 A2957 RMK SC7AC1 SLP054

CYQF;2018-04-17 13:26;CYQF 171326Z 29004KT 6SM -SN BR BKN032 OVC100 M01/M02 A2958 RMK SC7AC1 SLP056

CYQF;2018-04-17 14:00;CYQF 171400Z 00000KT 8SM -SN FEW007 BKN032 OVC100 M01/M02 A2958 RMK SF2SC5AC1 SLP057

CYQF;2018-04-17 14:37;CYQF 171437Z 28005KT 2SM -SN BR FEW007 SCT018 OVC032 M00/M02 A2959 RMK SF1SC2SC5 SLP060

CYQF;2018-04-17 15:00;CYQF 171500Z 26006KT 1SM -SN BR SCT007 OVC015 M00/M01 A2959 RMK FG2SF2SC4 VIS VRB 3/4-11/4 SLP060

CYQF;2018-04-17 16:00;CYQF 171600Z 27006KT 1SM -SN BR SCT007 OVC017 M00/M01 A2961 RMK FG2SF1SC5 VIS VRB 3/4-11/4 SLP066

CYQF;2018-04-17 16:31;CYQF 171631Z 27006KT 1 1/2SM -SN BR FEW007 BKN020 OVC035 00/M01 A2962 RMK FG1SF1SC3SC3 VIS VRB 1-2 SLP069

CYQF;2018-04-17 17:00;CYQF 171700Z 28006KT 2SM -SN BR SCT007 OVC020 01/M01 A2963 RMK FG1SF3SC4 SLP072

CYQF;2018-04-17 17:22;CYQF 171722Z 28007KT 5SM -SN BR BKN009 BKN030 01/M01 A2964 RMK CF5SC2 SLP075

CYQF;2018-04-17 17:40;CYQF 171740Z 28007KT 8SM SCT010 BKN080 01/M01 A2964 RMK CF4AC3 SLP075

CYQF;2018-04-17 18:00;CYQF 171800Z 29005KT 10SM BKN011 BKN080 01/M01 A2965 RMK CU5AC2 SLP080

CYQF;2018-04-17 18:25;CYQF 171825Z 29006KT 12SM VCSH SCT012 BKN023 02/M01 A2966 RMK CU4SC3 SLP083

CYQF;2018-04-17 19:00;CYQF 171900Z 29009KT 10SM VCSH BKN020 02/M02 A2967 RMK CU7 SLP087

CYQF;2018-04-17 19:47;CYQF 171947Z 30010KT 12SM VCSH BKN013 OVC030 02/M01 A2968 RMK CU6SC2 SLP092

CYQF;2018-04-17 19:54;CYQF 171954Z 31009KT 10SM -SHSN BKN014 OVC030 02/M01 A2969 RMK CU5SC3 SLP094

CYQF;2018-04-17 20:00;CYQF 172000Z 31010KT 10SM -SHSN BKN012 OVC030 02/M01 A2969 RMK CU6SC2 SLP094

CYQF;2018-04-17 20:30;CYQF 172030Z 30006KT 12SM VCSH FEW009 BKN024 BKN080 02/M01 A2970 RMK CF1CU5AC1 SLP099

CYQF;2018-04-17 21:00;CYQF 172100Z 30008KT 12SM SCT014 BKN250 02/M02 A2972 RMK CU3CI3 SLP104

CYQF;2018-04-17 22:00;CYQF 172200Z 30009KT 15SM FEW016 FEW140 BKN250 02/M02 A2975 RMK CU1AC1CI5 SLP115

CYQF;2018-04-17 23:00;CYQF 172300Z 29007KT 15SM SCT020 BKN110 BKN250 02/M02 A2978 RMK SC3AC3CI1 SLP125

CYQF;2018-04-18 00:00;CYQF 180000Z 32007KT 15SM VCSH SCT020 BKN130 BKN250 02/M03 A2982 RMK CU3AC3CI1 SLP137

CYQF;2018-04-18 01:00;CYQF 180100Z 35004KT 15SM FEW020 BKN120 BKN250 02/M03 A2984 RMK SC2AC3CI1 SLP146

CYQF;2018-04-18 02:00;CYQF 180200Z 30002KT 15SM FEW040 BKN100 BKN250 02/M03 A2987 RMK SC2AC3CI1 CU EMBD SLP154

CYQF;2018-04-18 03:00;CYQF 180300Z CCA VRB02KT 15SM BKN040 01/M02 A2990 RMK SC7 VIRGA SLP166

CYQF;2018-04-18 04:00;CYQF 180400Z 21008KT 15SM FEW040 SCT080 M01/M03 A2991 RMK SC1AC3 SLP171

CYQF;2018-04-18 05:00;CYQF 180500Z 21007KT 15SM SCT080 M01/M03 A2992 RMK AC3 SLP175

CYQF;2018-04-18 06:00;CYQF 180600Z 18006KT 15SM FEW080 M02/M04 A2994 RMK AC1 SLP182

CYQF;2018-04-18 07:00;CYQF 180700Z 19008KT 15SM SCT250 M03/M04 A2996 RMK CI3 SLP188

CYQF;2018-04-18 08:00;CYQF 180800Z 20006KT 15SM SCT250 M04/M06 A2998 RMK CI3 SLP197

CYQF;2018-04-18 09:00;CYQF 180900Z 20005KT 15SM FEW250 M04/M05 A2999 RMK CI2 SLP201

CYQF;2018-04-18 10:00;CYQF 181000Z 20006KT 15SM FEW250 M04/M06 A3001 RMK CI1 SLP206

CYQF;2018-04-18 11:00;CYQF 181100Z 21005KT 120V220 15SM FEW100 M04/M06 A3003 RMK AC2 SLP213

CYQF;2018-04-18 12:00;CYQF 181200Z 19003KT 12SM SCT100 M06/M08 A3004 RMK AC3 SLP221

CYQF;2018-04-18 13:00;CYQF 181300Z 20004KT 12SM FEW090 M06/M08 A3006 RMK AC2 SLP228

CYQF;2018-04-18 14:00;CYQF 181400Z 21004KT 10SM FEW090 M05/M06 A3008 RMK AC2 SLP232

CYQF;2018-04-18 15:00;CYQF 181500Z 18003KT 12SM FEW100 M03/M05 A3010 RMK AC1 SLP237

CYQF;2018-04-18 16:00;CYQF 181600Z 17005KT 12SM FEW100 M01/M04 A3010 RMK AC1 SLP240

CYQF;2018-04-18 17:00;CYQF 181700Z 16004KT 15SM FEW030 FEW230 00/M04 A3012 RMK CU1CI1 CU TR SLP245

CYQF;2018-04-18 18:00;CYQF 181800Z 23003KT 190V250 15SM FEW030 FEW250 03/M05 A3013 RMK CU1CI1 CU TR SLP247

CYQF;2018-04-18 19:00;CYQF 181900Z 20003KT 15SM FEW026TCU SCT250 04/M04 A3014 RMK TCU2CI1 TCU DIST W SLP248

CYQF;2018-04-18 20:00;CYQF 182000Z 13008KT 15SM FEW045 SCT250 05/M06 A3013 RMK CU1CI2 SLP247

CYQF;2018-04-18 21:00;CYQF 182100Z 15007KT 15SM FEW050 FEW250 05/M06 A3014 RMK CU1CI1 SLP248

CYQF;2018-04-18 22:00;CYQF 182200Z 15008KT 15SM FEW040 FEW250 05/M05 A3014 RMK CU1CI1 CU TR CI TR SLP249

CYQF;2018-04-18 23:00;CYQF 182300Z 16009KT 15SM FEW040 FEW250 05/M04 A3014 RMK CU1CI1 CU TR SLP248

CYQF;2018-04-19 00:00;CYQF 190000Z 16007KT 15SM FEW040 FEW250 05/M04 A3014 RMK CU1CI1 CU TR CI TR SLP252

CYQF;2018-04-19 01:00;CYQF 190100Z 15007KT 15SM FEW040 SCT250 05/M04 A3015 RMK CU1CI3 CU TR SLP254

CYQF;2018-04-19 02:00;CYQF 190200Z 18003KT 15SM FEW070 SCT250 03/M04 A3015 RMK AC1CI3 AC TR SLP255

CYQF;2018-04-19 03:00;CYQF 190300Z 00000KT 15SM FEW040 FEW250 01/M04 A3016 RMK SC1CI1 SC TR CI TR SLP258

CYQF;2018-04-19 04:00;CYQF 190400Z 18002KT 15SM FEW040 FEW250 01/M05 A3016 RMK SC1CI1 SC TR CI TR SLP257

CYQF;2018-04-19 05:00;CYQF 190500Z 18002KT 15SM FEW250 M01/M05 A3016 RMK CI1 SLP259

CYQF;2018-04-19 06:00;CYQF 190600Z 17006KT 15SM FEW250 M01/M04 A3016 RMK CI2 SLP256

CYQF;2018-04-19 07:00;CYQF 190700Z 19004KT 15SM FEW250 M01/M05 A3017 RMK CI1 SLP255

CYQF;2018-04-19 08:00;CYQF 190800Z 20003KT 15SM FEW250 M02/M05 A3017 RMK CI1 SLP256

CYQF;2018-04-19 09:00;CYQF 190900Z 23003KT 15SM SKC M02/M05 A3016 RMK SLP255

CYQF;2018-04-19 10:00;CYQF 191000Z 20003KT 12SM SKC M05/M07 A3016 RMK BR SLP257

CYQF;2018-04-19 11:00;CYQF 191100Z 21004KT 10SM SKC M05/M06 A3016 RMK BR SLP257

CYQF;2018-04-19 12:00;CYQF 191200Z 20004KT 8SM FEW250 M04/M06 A3016 RMK CI1 BR FROIN SLP255

CYQF;2018-04-19 13:00;CYQF 191300Z 21005KT 5SM BR FEW090 SCT250 M04/M06 A3015 RMK AC1CI3 AC TR SLP254

CYQF;2018-04-19 14:00;CYQF 191400Z 21004KT 5SM BR FEW250 M03/M05 A3016 RMK CI2 SLP255

CYQF;2018-04-19 15:00;CYQF 191500Z 20002KT 5SM BR FEW250 M01/M04 A3016 RMK CI2 SLP257

CYQF;2018-04-19 16:00;CYQF 191600Z 19004KT 5SM BR SCT250 01/M03 A3016 RMK CI4 SLP255

CYQF;2018-04-19 17:00;CYQF 191700Z 14008KT 6SM BR FEW250 02/M02 A3014 RMK CI2 SLP250

CYQF;2018-04-19 18:00;CYQF 191800Z 16007KT 8SM HZ SKC 03/M02 A3013 RMK SLP245

CYQF;2018-04-19 19:00;CYQF 191900Z 17007KT 120V190 10SM SKC 05/M01 A3011 RMK SLP236

CYQF;2018-04-19 20:00;CYQF 192000Z 16008KT 10SM SKC 05/M01 A3010 RMK SLP233

CYQF;2018-04-19 21:00;CYQF 192100Z 14015KT 15SM SKC 05/M01 A3008 RMK SLP225

CYQF;2018-04-19 22:00;CYQF 192200Z 15013KT 10SM SKC 05/M01 A3006 RMK SLP222

CYQF;2018-04-19 23:00;CYQF 192300Z 14014KT 10SM SKC 05/M01 A3004 RMK SLP215

CYQF;2018-04-20 00:00;CYQF 200000Z 17011G17KT 12SM FEW250 05/M01 A3003 RMK CI1 SLP211

CYQF;2018-04-20 01:00;CYQF 200100Z 17012KT 15SM FEW250 04/M00 A3000 RMK CI1 SLP203

CYQF;2018-04-20 02:00;CYQF 200200Z 18009KT 15SM FEW250 03/M00 A2999 RMK CI2 SLP198

CYQF;2018-04-20 03:00;CYQF 200300Z 17006KT 10SM FEW250 02/M00 A2999 RMK CI2 SLP196

CYQF;2018-04-20 04:00;CYQF 200400Z 17010KT 12SM SCT250 02/M00 A2999 RMK CI3 SLP194

CYQF;2018-04-20 05:00;CYQF 200500Z 19006KT 15SM FEW250 01/M01 A2999 RMK CI2 SLP194

CYQF;2018-04-20 06:00;CYQF 200600Z 19007KT 15SM SCT230 01/M01 A2998 RMK CI3 SLP191

CYQF;2018-04-20 07:00;CYQF 200700Z 20003KT 15SM BKN230 M01/M02 A2999 RMK CI5 SLP193

CYQF;2018-04-20 08:00;CYQF 200800Z 21003KT 15SM FEW250 M01/M03 A3000 RMK CI2 SLP196

CYQF;2018-04-20 09:00;CYQF 200900Z 23004KT 15SM FEW250 M01/M03 A3001 RMK CI2 SLP200

CYQF;2018-04-20 10:00;CYQF 201000Z 20005KT 15SM FEW250 M03/M04 A3001 RMK CI2 SLP202

CYQF;2018-04-20 11:00;CYQF 201100Z 20004KT 15SM FEW060 SCT200 M03/M04 A3001 RMK SC1CI3 SC TR SLP204

CYQF;2018-04-20 12:00;CYQF 201200Z 19005KT 15SM BKN180 M04/M05 A3001 RMK AC6 SLP205

CYQF;2018-04-20 13:00;CYQF 201300Z 20005KT 15SM BKN170 BKN240 M03/M05 A3002 RMK AC6CI1 SLP208

CYQF;2018-04-20 14:00;CYQF 201400Z 21003KT 15SM BKN240 M01/M04 A3004 RMK CI7 SLP212

CYQF;2018-04-20 15:00;CYQF 201500Z 22004KT 15SM BKN240 01/M03 A3006 RMK CI7 SLP217

CYQF;2018-04-20 16:00;CYQF 201600Z 20003KT 15SM BKN240 04/M03 A3006 RMK CI7 SLP214

CYQF;2018-04-20 17:00;CYQF 201700Z 17003KT 15SM BKN270 05/M03 A3005 RMK CI6 SLP213

CYQF;2018-04-20 18:00;CYQF 201800Z 19005KT 15SM BKN270 08/M02 A3005 RMK CI6 SLP209

CYQF;2018-04-20 19:00;CYQF 201900Z 19004KT 15SM BKN270 09/M03 A3004 RMK CI6 SLP205

CYQF;2018-04-20 20:00;CYQF 202000Z 18007KT 15SM BKN220 10/M02 A3002 RMK CI6 SLP200 DENSITY ALT 3000FT

CYQF;2018-04-20 21:00;CYQF 202100Z 15009KT 15SM BKN250 10/M01 A3003 RMK CI6 SLP201 DENSITY ALT 3000FT

CYQF;2018-04-20 22:00;CYQF 202200Z 15011KT 15SM BKN250 10/M02 A3002 RMK CI7 SLP200 DENSITY ALT 3000FT

CYQF;2018-04-20 23:00;CYQF 202300Z 14007KT 15SM FEW180 BKN220 08/M00 A3000 RMK AC2CI5 SLP196

CYQF;2018-04-21 00:00;CYQF 210000Z 15010KT 15SM FEW180 BKN250 08/M01 A2999 RMK AC2CI4 SLP193

CYQF;2018-04-21 01:00;CYQF 210100Z 15007KT 15SM FEW140 BKN220 07/M01 A2999 RMK AC2CI5 SLP191

CYQF;2018-04-21 02:00;CYQF 210200Z 12006KT 15SM FEW140 BKN220 06/M02 A2997 RMK AC2CI5 SLP183

CYQF;2018-04-21 03:00;CYQF 210300Z 17006KT 15SM FEW140 BKN230 03/M02 A2996 RMK AC1CI6 SLP183

CYQF;2018-04-21 04:00;CYQF 210400Z 18008KT 15SM FEW140 BKN240 04/M02 A2996 RMK AC1CI6 SLP177

CYQF;2018-04-21 05:00;CYQF 210500Z 18007KT 15SM BKN230 04/M02 A2994 RMK CI6 SLP173

CYQF;2018-04-21 06:00;CYQF 210600Z 16007KT 15SM SCT140 BKN230 03/M01 A2992 RMK AC3CI4 SLP162

CYQF;2018-04-21 07:00;CYQF 210700Z 16008KT 15SM BKN120 OVC250 04/M01 A2990 RMK AC6CI2 SLP154

CYQF;2018-04-21 08:00;CYQF 210800Z 15004KT 120V190 15SM OVC110 04/M01 A2989 RMK AC8 SLP146

CYQF;2018-04-21 09:00;CYQF 210900Z 14005KT 15SM OVC120 03/M01 A2986 RMK AC8 SLP139

CYQF;2018-04-21 10:00;CYQF 211000Z 17005KT 15SM OVC120 03/M02 A2983 RMK AC8 SLP129

CYQF;2018-04-21 11:00;CYQF 211100Z 00000KT 15SM SCT110 BKN230 02/M02 A2981 RMK AC4CI3 SLP123

CYQF;2018-04-21 12:00;CYQF 211200Z 00000KT 15SM SCT100 BKN230 02/M01 A2978 RMK AC3CI4 SLP114

CYQF;2018-04-21 13:00;CYQF 211300Z 21004KT 15SM SCT100 OVC230 01/M02 A2976 RMK AC4CI4 SLP108

CYQF;2018-04-21 14:00;CYQF 211400Z 00000KT 15SM BKN095 BKN230 02/M01 A2974 RMK AC6CI1 SLP103

CYQF;2018-04-21 15:00;CYQF 211500Z 02003KT 15SM BKN090 BKN230 02/00 A2972 RMK AC6CI1 SLP098

CYQF;2018-04-21 16:00;CYQF 211600Z 14008KT 15SM BKN080 05/00 A2969 RMK AC7 CIG RAG PRESFR SLP085

CYQF;2018-04-21 17:00;CYQF 211700Z 18007KT 170V240 15SM FEW025 BKN085 06/00 A2968 RMK CU1AC6 VIRGA SLP080

CYQF;2018-04-21 18:00;CYQF 211800Z CCA 19004KT 15SM FEW032 BKN090 07/01 A2966 RMK CU2AC5 VIRGA S-NE SLP073 DENSITY ALT 3100FT

CYQF;2018-04-21 19:00;CYQF 211900Z 32006KT 12SM FEW035 OVC058 06/00 A2968 RMK CU2SC6 CIG RAG VIRGA SLP080

CYQF;2018-04-21 19:07;CYQF 211907Z 31010KT 12SM -RA FEW032 OVC058 06/00 A2969 RMK CU1SC7 PRESRR SLP082

CYQF;2018-04-21 19:31;CYQF 211931Z 30005KT 12SM BKN065 OVC080 07/01 A2968 RMK SC7AC1 CIG RAG VIRGA SLP079 DENSITY ALT 3100FT

CYQF;2018-04-21 20:00;CYQF 212000Z 32013KT 12SM FEW065 BKN080 OVC160 08/01 A2969 RMK SC2AC4AC2 VIRGA SLP079 DENSITY ALT 3200FT

CYQF;2018-04-21 21:00;CYQF 212100Z 32017G26KT 12SM VCSH SCT050 BKN080 OVC160 07/02 A2973 RMK SC4AC2AC2 SLP098 DENSITY ALT 3000FT

CYQF;2018-04-21 22:00;CYQF 212200Z 33013KT 15SM VCSH FEW050 BKN100 BKN250 07/02 A2974 RMK CU2AC4CI1 SLP101

CYQF;2018-04-21 23:00;CYQF 212300Z 31008KT 15SM VCSH FEW050 SCT100 OVC200 08/02 A2976 RMK CU2AC2CI4 SLP107 DENSITY ALT 3100FT

CYQF;2018-04-21 23:42;CYQF 212342Z 31024G32KT 280V350 15SM -SHRA SCT060TCU BKN100 08/00 A2980 RMK TCU4AC3 PRESRR SLP120 DENSITY ALT 3000FT

CYQF;2018-04-22 00:00;CYQF 220000Z 33019G26KT 10SM -SHRA FEW035 BKN060TCU BKN100 06/02 A2982 RMK SC2TCU4AC1 PRESRR SLP130

CYQF;2018-04-22 00:28;CYQF 220028Z 31009KT 15SM VCSH FEW030 SCT060TCU BKN080 BKN250 06/01 A2982 RMK SC2TCU2AC2CI1 PRESRR SLP130

CYQF;2018-04-22 01:00;CYQF 220100Z 28009KT 15SM VCSH SCT060TCU BKN085 BKN250 06/01 A2985 RMK TCU3AC2CI2 SLP141

CYQF;2018-04-22 02:00;CYQF 220200Z 30010KT 15SM VCSH FEW060 BKN090 BKN200 05/00 A2988 RMK CU2ACC4CI1 SLP152

CYQF;2018-04-22 03:00;CYQF 220300Z 31005KT 15SM FEW060 SCT100 BKN200 04/M01 A2991 RMK SC1AC2CI3 VIRGA SLP165

CYQF;2018-04-22 04:00;CYQF 220400Z 31004KT 15SM FEW100 SCT220 03/M01 A2994 RMK AC1CI3 SLP172

CYQF;2018-04-22 05:00;CYQF 220500Z 27007KT 15SM FEW100 03/M01 A2995 RMK AC1 SLP175

CYQF;2018-04-22 06:00;CYQF 220600Z 19005KT 15SM FEW100 M02/M03 A2998 RMK AC1 SLP188

CYQF;2018-04-22 07:00;CYQF 220700Z 21006KT 15SM SKC M01/M02 A2999 RMK SLP192

CYQF;2018-04-22 08:00;CYQF 220800Z 25006KT 15SM FEW100 01/M02 A3000 RMK AC1 AC TR SLP193

CYQF;2018-04-22 09:00;CYQF 220900Z 25006KT 15SM FEW100 00/M04 A3001 RMK AC1 AC TR SLP196

CYQF;2018-04-22 10:00;CYQF 221000Z 26006KT 15SM FEW100 M00/M05 A3002 RMK AC1 SLP200

CYQF;2018-04-22 11:00;CYQF 221100Z 26008KT 15SM SKC 00/M06 A3003 RMK SLP204

CYQF;2018-04-22 12:00;CYQF 221200Z 25005KT 15SM FEW100 M01/M07 A3005 RMK AC1 SLP212

CYQF;2018-04-22 13:00;CYQF 221300Z VRB05KT 15SM FEW100 M02/M06 A3007 RMK ACC1 SLP220

CYQF;2018-04-22 14:00;CYQF 221400Z 20007KT 15SM FEW100 M00/M05 A3009 RMK ACC1 SLP226

CYQF;2018-04-22 15:00;CYQF 221500Z 23007KT 15SM SCT065 02/M06 A3010 RMK SC3 SLP231

CYQF;2018-04-22 16:00;CYQF 221600Z 29012KT 15SM FEW060 SCT100 BKN250 05/M06 A3011 RMK SC1AC2CI3 SLP231

CYQF;2018-04-22 17:00;CYQF 221700Z 31012G17KT 15SM FEW070 SCT250 06/M05 A3013 RMK AC2CI1 SLP236

CYQF;2018-04-22 18:00;CYQF 221800Z 30014G19KT 15SM FEW070 SCT250 07/M05 A3014 RMK AC2CI2 SLP243

CYQF;2018-04-22 19:00;CYQF 221900Z 30015G21KT 15SM FEW040 SCT250 07/M04 A3014 RMK CU1CI3 CU TR SLP241

CYQF;2018-04-22 20:00;CYQF 222000Z 30011G18KT 15SM FEW040 BKN250 08/M03 A3014 RMK CU1CI5 CU TR SLP239

CYQF;2018-04-22 21:00;CYQF 222100Z 30013KT 15SM FEW050 BKN250 09/M03 A3015 RMK CU2CI3 SLP242

CYQF;2018-04-22 22:00;CYQF 222200Z 32012G19KT 15SM FEW055 BKN250 10/M02 A3015 RMK CU1CI5 SLP243

CYQF;2018-04-22 23:00;CYQF 222300Z 32011G18KT 15SM FEW050 BKN250 10/M04 A3016 RMK CU1CI5 SLP244

CYQF;2018-04-23 00:00;CYQF 230000Z 35011G16KT 15SM FEW050 BKN240 09/M03 A3017 RMK SC1CI6 SLP250

CYQF;2018-04-23 01:00;CYQF 230100Z 36010KT 15SM FEW050 BKN240 09/M03 A3018 RMK SC1CI6 SLP256

CYQF;2018-04-23 02:00;CYQF 230200Z 36007KT 15SM FEW050 BKN240 06/M03 A3019 RMK SC1CI6 SLP261

CYQF;2018-04-23 03:00;CYQF 230300Z 01006KT 15SM FEW080 BKN210 05/M02 A3021 RMK AC2CI4 SLP268

CYQF;2018-04-23 04:00;CYQF 230400Z 35003KT 15SM FEW100 BKN210 05/M03 A3025 RMK AC1CI4 SLP277

CYQF;2018-04-23 05:00;CYQF 230500Z 00000KT 15SM FEW100 BKN200 03/M04 A3027 RMK AC2CI3 SLP285

CYQF;2018-04-23 06:00;CYQF 230600Z 23004KT 15SM SCT100 BKN200 01/M04 A3029 RMK AC3CI2 SLP294

CYQF;2018-04-23 07:00;CYQF 230700Z 26006KT 15SM BKN100 02/M02 A3031 RMK AC7 SLP299

CYQF;2018-04-23 08:00;CYQF 230800Z 20003KT 160V240 15SM BKN100 01/M02 A3032 RMK AC7 SLP303

CYQF;2018-04-23 09:00;CYQF 230900Z 00000KT 15SM FEW070 BKN100 00/M03 A3033 RMK AC2AC5 SLP306

CYQF;2018-04-23 10:00;CYQF 231000Z 17002KT 15SM BKN070 M00/M02 A3034 RMK AC6 SLP310

CYQF;2018-04-23 11:00;CYQF 231100Z 18002KT 15SM SCT070 M00/M02 A3035 RMK AC4 SLP313

CYQF;2018-04-23 12:00;CYQF 231200Z 25003KT 15SM SCT070 M01/M03 A3036 RMK AC3 SLP317

CYQF;2018-04-23 13:00;CYQF 231300Z 23006KT 15SM FEW070 M01/M03 A3037 RMK AC2 SLP320

CYQF;2018-04-23 14:00;CYQF 231400Z 21003KT 190V260 15SM FEW070 02/M03 A3039 RMK AC1 AC TR SLP327

CYQF;2018-04-23 15:00;CYQF 231500Z 20004KT 15SM FEW070 03/M02 A3039 RMK AC1 AC TR SLP330

CYQF;2018-04-23 16:00;CYQF 231600Z 20005KT 15SM FEW240 06/M01 A3040 RMK CI1 SLP327

CYQF;2018-04-23 17:00;CYQF 231700Z 17008KT 15SM FEW240 07/M03 A3039 RMK CI2 SLP326

CYQF;2018-04-23 18:00;CYQF 231800Z 17009G17KT 160V220 15SM FEW240 09/M02 A3039 RMK CI2 SLP324

CYQF;2018-04-23 19:00;CYQF 231900Z 17010G15KT 15SM FEW240 09/M02 A3038 RMK CI1 SLP319

CYQF;2018-04-23 20:00;CYQF 232000Z 19007G17KT 160V220 15SM FEW280 10/M01 A3036 RMK CI2 SLP314

CYQF;2018-04-23 21:00;CYQF 232100Z 19011KT 15SM FEW280 11/M02 A3035 RMK CI1 SLP310

CYQF;2018-04-23 22:00;CYQF 232200Z 17006KT 140V210 15SM FEW280 11/M03 A3034 RMK CI1 SLP307

CYQF;2018-04-23 23:00;CYQF 232300Z 19005KT 15SM FEW240 11/M02 A3032 RMK CI2 SLP301

CYQF;2018-04-24 00:00;CYQF 240000Z 16006KT 15SM FEW240 12/M03 A3032 RMK CI1 SLP301

CYQF;2018-04-24 01:00;CYQF 240100Z 17008KT 15SM FEW250 11/M00 A3031 RMK CI1 SLP297

CYQF;2018-04-24 02:00;CYQF 240200Z 16006KT 15SM FEW250 09/02 A3029 RMK CI1 SLP290

CYQF;2018-04-24 03:00;CYQF 240300Z 18004KT 15SM FEW250 07/01 A3029 RMK CI2 SLP291

CYQF;2018-04-24 04:00;CYQF 240400Z 17009KT 15SM SCT250 05/M00 A3030 RMK CI4 SLP293

CYQF;2018-04-24 05:00;CYQF 240500Z 18005KT 15SM FEW250 04/M01 A3030 RMK CI2 SLP291

CYQF;2018-04-24 06:00;CYQF 240600Z 17005KT 15SM FEW250 03/M02 A3029 RMK CI2 SLP287

CYQF;2018-04-24 07:00;CYQF 240700Z 20003KT 15SM SCT250 02/M02 A3029 RMK CI3 SLP288

CYQF;2018-04-24 08:00;CYQF 240800Z 00000KT 15SM SKC M00/M02 A3028 RMK WND ESTD SLP287

CYQF;2018-04-24 09:00;CYQF 240900Z 20004KT 15SM SKC 01/M02 A3027 RMK SLP283

CYQF;2018-04-24 10:00;CYQF 241000Z 21005KT 15SM FEW250 M02/M04 A3027 RMK CI2 SLP284

CYQF;2018-04-24 11:00;CYQF 241100Z 21005KT 15SM FEW250 M01/M03 A3027 RMK CI2 SLP283

CYQF;2018-04-24 12:00;CYQF 241200Z 21006KT 15SM SCT250 M01/M04 A3027 RMK CI3 SLP282

CYQF;2018-04-24 13:00;CYQF 241300Z 21003KT 15SM SCT280 M01/M03 A3027 RMK CI3 SLP284

CYQF;2018-04-24 14:00;CYQF 241400Z 19005KT 15SM SCT280 02/M02 A3026 RMK CI4 SLP280

CYQF;2018-04-24 15:00;CYQF 241500Z 21005KT 15SM BKN280 05/M02 A3025 RMK CI5 SLP276

CYQF;2018-04-24 16:00;CYQF 241600Z 23004KT 190V250 15SM SCT240 07/M03 A3024 RMK CI4 SLP270

CYQF;2018-04-24 17:00;CYQF 241700Z 19004KT 150V250 15SM BKN240 10/M03 A3021 RMK CI7 SLP259

CYQF;2018-04-24 18:00;CYQF 241800Z 17007KT 15SM BKN220 13/M01 A3018 RMK CI5 SLP247 DENSITY ALT 3200FT

CYQF;2018-04-24 19:00;CYQF 241900Z 16007KT 130V250 15SM BKN210 16/M01 A3016 RMK CI7 SLP235 DENSITY ALT 3600FT

CYQF;2018-04-24 20:00;CYQF 242000Z 20010KT 15SM BKN210 17/M07 A3012 RMK CI7 SLP225 DENSITY ALT 3700FT

CYQF;2018-04-24 21:00;CYQF 242100Z 17007KT 15SM BKN210 17/M02 A3010 RMK CI7 SLP217 DENSITY ALT 3700FT

CYQF;2018-04-24 22:00;CYQF 242200Z 16006KT 15SM BKN210 17/01 A3008 RMK CI7 SLP210 DENSITY ALT 3800FT

CYQF;2018-04-24 23:00;CYQF 242300Z 19007KT 15SM BKN220 18/00 A3005 RMK CI7 SLP201 DENSITY ALT 3900FT

CYQF;2018-04-25 00:00;CYQF 250000Z 20005KT 15SM FEW090 BKN190 17/02 A3003 RMK AC1AC6 SLP196 DENSITY ALT 3800FT

CYQF;2018-04-25 01:00;CYQF 250100Z 19005KT 15SM FEW100 BKN200 17/04 A3000 RMK AC1CI5 SLP184 DENSITY ALT 3800FT

CYQF;2018-04-25 02:00;CYQF 250200Z 22005KT 15SM FEW100 BKN200 14/02 A2997 RMK AC1CI5 SLP173 DENSITY ALT 3500FT

CYQF;2018-04-25 03:00;CYQF 250300Z 23005KT 15SM FEW200 BKN260 09/00 A2996 RMK CI2CI4 SLP170 DENSITY ALT 3000FT

CYQF;2018-04-25 04:00;CYQF 250400Z 23006KT 15SM BKN230 10/01 A2996 RMK CI6 SLP169 DENSITY ALT 3000FT

CYQF;2018-04-25 05:00;CYQF 250500Z 27011KT 15SM SCT200 12/M04 A2996 RMK CI4 SLP163 DENSITY ALT 3300FT

CYQF;2018-04-25 06:00;CYQF 250600Z 29013G19KT 15SM BKN250 11/M06 A2997 RMK CI5 SLP163 DENSITY ALT 3200FT

CYQF;2018-04-25 07:00;CYQF 250700Z 34009KT 15SM BKN150 10/M03 A2999 RMK AC6 SLP169 DENSITY ALT 3000FT

CYQF;2018-04-25 08:00;CYQF 250800Z 35009KT 15SM BKN170 08/M03 A3002 RMK AC6 SLP179

CYQF;2018-04-25 09:00;CYQF 250900Z 36009KT 15SM BKN160 08/M04 A3004 RMK AC6 SLP187

CYQF;2018-04-25 10:00;CYQF 251000Z 35009KT 15SM SCT110 BKN170 06/M03 A3005 RMK ACC3AC4 SLP193

CYQF;2018-04-25 11:00;CYQF 251100Z 36013G19KT 15SM BKN170 BKN250 06/M02 A3008 RMK AC5CI2 SLP202

CYQF;2018-04-25 12:00;CYQF 251200Z 34013G19KT 12SM SCT110 BKN170 BKN250 05/M00 A3010 RMK AC3AC2CI2 SLP210

CYQF;2018-04-25 13:00;CYQF 251300Z 31010G17KT 12SM SCT053 BKN110 05/M00 A3012 RMK SC4AC3 VIRGA ALQDS SLP217

CYQF;2018-04-25 14:00;CYQF 251400Z 30009KT 15SM FEW050 BKN080 05/01 A3013 RMK SC2AC4 VIRGA SLP225

CYQF;2018-04-25 15:00;CYQF 251500Z 29012G18KT 12SM FEW050 BKN100 06/02 A3014 RMK SC2AC3 SLP232

CYQF;2018-04-25 16:00;CYQF 251600Z 30012G19KT 15SM FEW050 SCT100 BKN240 08/01 A3014 RMK SC1AC4CI1 SC TR SLP229

CYQF;2018-04-25 17:00;CYQF 251700Z 28013G20KT 15SM FEW036 SCT100 10/01 A3014 RMK CU2AC1 SLP224

CYQF;2018-04-25 18:00;CYQF 251800Z 32017G22KT 15SM FEW050 SCT100 11/M02 A3014 RMK CU2AC1 SLP223 DENSITY ALT 3000FT

CYQF;2018-04-25 19:00;CYQF 251900Z 29015G21KT 15SM BKN056 12/M02 A3013 RMK CU6 SLP223 DENSITY ALT 3100FT

CYQF;2018-04-25 20:00;CYQF 252000Z 32015G20KT 15SM BKN065 13/M03 A3013 RMK CU5 SLP221 DENSITY ALT 3300FT

CYQF;2018-04-25 21:00;CYQF 252100Z 32011KT 280V350 15SM SCT072 14/M05 A3013 RMK CU4 SLP222 DENSITY ALT 3300FT

CYQF;2018-04-25 22:00;CYQF 252200Z 33006KT 290V040 15SM SCT076 13/M05 A3012 RMK CU3 SLP221 DENSITY ALT 3300FT

CYQF;2018-04-25 23:00;CYQF 252300Z 29007KT 15SM FEW080 FEW250 14/M05 A3012 RMK AC1CI2 AC TR SLP220 DENSITY ALT 3300FT

CYQF;2018-04-26 00:00;CYQF 260000Z 25006KT 210V300 15SM SCT250 14/M05 A3011 RMK CI3 SLP217 DENSITY ALT 3400FT

CYQF;2018-04-26 01:00;CYQF 260100Z 28003KT 240V330 15SM SCT250 14/M05 A3010 RMK CI3 SLP214 DENSITY ALT 3400FT

CYQF;2018-04-26 02:00;CYQF 260200Z 21005KT 15SM FEW250 12/M03 A3009 RMK CI2 SLP214 DENSITY ALT 3100FT

CYQF;2018-04-26 03:00;CYQF 260300Z 20005KT 15SM SCT250 08/M03 A3009 RMK CI3 SLP217

CYQF;2018-04-26 04:00;CYQF 260400Z 19007KT 15SM FEW070 FEW250 05/M00 A3010 RMK AC1CI1 AC TR SLP219

CYQF;2018-04-26 05:00;CYQF 260500Z 20008KT 15SM SKC 05/M02 A3010 RMK SLP218

CYQF;2018-04-26 06:00;CYQF 260600Z 20008KT 15SM SKC 05/M02 A3010 RMK SLP216

CYQF;2018-04-26 07:00;CYQF 260700Z 20008KT 15SM SKC 04/M02 A3010 RMK SLP216

CYQF;2018-04-26 08:00;CYQF 260800Z 19008KT 15SM SKC 02/M02 A3009 RMK SLP216

CYQF;2018-04-26 09:00;CYQF 260900Z 23008KT 15SM SKC 03/M01 A3009 RMK SLP212

CYQF;2018-04-26 10:00;CYQF 261000Z 25006KT 200V260 15SM SKC 03/M01 A3009 RMK SLP215

CYQF;2018-04-26 11:00;CYQF 261100Z 29006KT 15SM SKC 05/M03 A3010 RMK SLP214

CYQF;2018-04-26 12:00;CYQF 261200Z 19004KT 110V260 15SM SKC 00/M02 A3011 RMK SLP224

CYQF;2018-04-26 13:00;CYQF 261300Z 28005KT 200V290 15SM SKC 04/M02 A3012 RMK SLP224

CYQF;2018-04-26 14:00;CYQF 261400Z 27006KT 15SM FEW280 08/M03 A3013 RMK CI1 CI TR SLP223

CYQF;2018-04-26 15:00;CYQF 261500Z 29008KT 12SM FEW280 11/M02 A3012 RMK CI1 SLP222 DENSITY ALT 3000FT

CYQF;2018-04-26 16:00;CYQF 261600Z 28008KT 15SM SCT280 13/M01 A3012 RMK CI3 SLP223 DENSITY ALT 3300FT

CYQF;2018-04-26 17:00;CYQF 261700Z 32009KT 15SM SCT280 15/00 A3013 RMK CI3 SLP222 DENSITY ALT 3500FT

CYQF;2018-04-26 18:00;CYQF 261800Z 32010G16KT 270V340 15SM SCT280 17/M00 A3012 RMK CI3 SLP220 DENSITY ALT 3700FT

CYQF;2018-04-26 19:00;CYQF 261900Z 33014G19KT 15SM FEW280 18/00 A3012 RMK CI2 SLP218 DENSITY ALT 3800FT

CYQF;2018-04-26 20:00;CYQF 262000Z 32010KT 15SM FEW280 19/00 A3012 RMK CI2 SLP219 DENSITY ALT 3900FT

CYQF;2018-04-26 21:00;CYQF 262100Z 32011G18KT 15SM SCT280 19/00 A3011 RMK CI3 SLP214 DENSITY ALT 4000FT

CYQF;2018-04-26 22:00;CYQF 262200Z 02005KT 300V040 15SM SCT280 19/01 A3010 RMK CI3 SLP210 DENSITY ALT 4000FT

CYQF;2018-04-26 23:00;CYQF 262300Z 01008KT 350V070 15SM SCT280 20/01 A3009 RMK CI3 SLP205 DENSITY ALT 4000FT

CYQF;2018-04-27 00:00;CYQF 270000Z 02007KT 340V070 15SM SCT280 20/01 A3008 RMK CI4 SLP207 DENSITY ALT 4100FT

CYQF;2018-04-27 01:00;CYQF 270100Z 01004KT 340V050 15SM SCT280 19/00 A3007 RMK CI3 SLP200 DENSITY ALT 4000FT

CYQF;2018-04-27 02:00;CYQF 270200Z 08006KT 15SM FEW250 17/03 A3006 RMK CI1 SLP194 DENSITY ALT 3800FT

CYQF;2018-04-27 03:00;CYQF 270300Z 08005KT 15SM FEW250 14/05 A3007 RMK CI1 SLP197 DENSITY ALT 3400FT

CYQF;2018-04-27 04:00;CYQF 270400Z 06005KT 15SM FEW250 12/04 A3008 RMK CI1 SLP202 DENSITY ALT 3200FT

CYQF;2018-04-27 05:00;CYQF 270500Z 17005KT 15SM SKC 11/02 A3008 RMK SLP200 DENSITY ALT 3100FT

CYQF;2018-04-27 06:00;CYQF 270600Z 19002KT 15SM SKC 07/02 A3008 RMK SLP202

CYQF;2018-04-27 07:00;CYQF 270700Z 00000KT 15SM SKC 08/02 A3008 RMK SLP200

CYQF;2018-04-27 08:00;CYQF 270800Z 14005KT 15SM SKC 07/01 A3008 RMK SLP201

CYQF;2018-04-27 09:00;CYQF 270900Z 15005KT 15SM SKC 06/01 A3007 RMK SLP198

CYQF;2018-04-27 10:00;CYQF 271000Z 18003KT 15SM SKC 05/01 A3007 RMK SLP197

CYQF;2018-04-27 11:00;CYQF 271100Z 17004KT 15SM SKC 06/01 A3007 RMK SLP196

CYQF;2018-04-27 12:00;CYQF 271200Z 17006KT 15SM SKC 04/M00 A3006 RMK SLP195

CYQF;2018-04-27 13:00;CYQF 271300Z 18004KT 15SM SKC 04/00 A3005 RMK SLP191

CYQF;2018-04-27 14:00;CYQF 271400Z 18011KT 15SM SKC 09/01 A3003 RMK SLP184

CYQF;2018-04-27 15:00;CYQF 271500Z 18014KT 15SM SKC 11/01 A3002 RMK SLP181 DENSITY ALT 3100FT

CYQF;2018-04-27 16:00;CYQF 271600Z 17015KT 15SM SKC 14/02 A3000 RMK SLP174 DENSITY ALT 3400FT

CYQF;2018-04-27 17:00;CYQF 271700Z 16014G19KT 15SM SKC 16/02 A2999 RMK SLP168 DENSITY ALT 3700FT

CYQF;2018-04-27 18:00;CYQF 271800Z 16015KT 15SM SKC 18/03 A2997 RMK SLP163 DENSITY ALT 4000FT

CYQF;2018-04-27 19:00;CYQF 271900Z 15020KT 15SM SKC 20/02 A2994 RMK SLP150 DENSITY ALT 4300FT

CYQF;2018-04-27 20:00;CYQF 272000Z 15018G25KT 15SM SKC 21/02 A2991 RMK SLP139 DENSITY ALT 4400FT

CYQF;2018-04-27 21:00;CYQF 272100Z 17018G26KT 15SM SKC 23/02 A2989 RMK SLP130 DENSITY ALT 4600FT

CYQF;2018-04-27 22:00;CYQF 272200Z 17019G27KT 15SM SKC 23/01 A2986 RMK SLP122 DENSITY ALT 4600FT

CYQF;2018-04-27 23:00;CYQF 272300Z 16019G25KT 15SM SKC 23/02 A2983 RMK SLP112 DENSITY ALT 4700FT

CYQF;2018-04-28 00:00;CYQF 280000Z 17020G25KT 15SM FEW270 22/02 A2981 RMK CI2 SLP108 DENSITY ALT 4600FT

CYQF;2018-04-28 01:00;CYQF 280100Z 16014G21KT 15SM FEW250 21/03 A2980 RMK CI1 SLP102 DENSITY ALT 4600FT

CYQF;2018-04-28 02:00;CYQF 280200Z 15015KT 15SM SKC 20/02 A2977 RMK SLP090 DENSITY ALT 4400FT

CYQF;2018-04-28 03:00;CYQF 280300Z 15011KT 15SM FEW250 16/03 A2976 RMK CI1 SLP089 DENSITY ALT 4000FT

CYQF;2018-04-28 04:00;CYQF 280400Z 16011KT 15SM FEW250 14/02 A2976 RMK CI1 SLP087 DENSITY ALT 3800FT

CYQF;2018-04-28 05:00;CYQF 280500Z 17010KT 15SM FEW250 13/02 A2975 RMK CI1 SLP084 DENSITY ALT 3700FT

CYQF;2018-04-28 06:00;CYQF 280600Z 17009KT 15SM SKC 11/02 A2975 RMK SLP080 DENSITY ALT 3500FT

CYQF;2018-04-28 07:00;CYQF 280700Z 19003KT 15SM SKC 08/01 A2974 RMK SLP079 DENSITY ALT 3100FT

CYQF;2018-04-28 08:00;CYQF 280800Z 15005KT 15SM SKC 08/01 A2972 RMK SLP072 DENSITY ALT 3100FT

CYQF;2018-04-28 09:00;CYQF 280900Z 18006KT 15SM SKC 07/02 A2970 RMK SLP063 DENSITY ALT 3000FT

CYQF;2018-04-28 10:00;CYQF 281000Z 23003KT 15SM SKC 07/02 A2968 RMK SLP058 DENSITY ALT 3000FT

CYQF;2018-04-28 11:00;CYQF 281100Z 19006KT 15SM SKC 03/00 A2967 RMK SLP057

CYQF;2018-04-28 12:00;CYQF 281200Z 19006KT 15SM SKC 01/M01 A2966 RMK SLP057

CYQF;2018-04-28 13:00;CYQF 281300Z 19007KT 15SM SKC 03/01 A2965 RMK SLP054

CYQF;2018-04-28 14:00;CYQF 281400Z 18005KT 15SM SKC 06/03 A2964 RMK SLP048 DENSITY ALT 3000FT

CYQF;2018-04-28 15:00;CYQF 281500Z 17005KT 150V250 15SM SKC 10/02 A2963 RMK SLP044 DENSITY ALT 3400FT

CYQF;2018-04-28 16:00;CYQF 281600Z 25005KT 190V270 15SM FEW270 14/02 A2961 RMK CI1 SLP035 DENSITY ALT 3900FT

CYQF;2018-04-28 17:00;CYQF 281700Z 24003KT 180V340 15SM FEW270 16/00 A2959 RMK CI2 SLP027 DENSITY ALT 4200FT

CYQF;2018-04-28 18:00;CYQF 281800Z 18005KT 130V230 15SM FEW270 19/01 A2958 RMK CI2 SLP020 DENSITY ALT 4600FT

CYQF;2018-04-28 19:00;CYQF 281900Z VRB03KT 10SM FEW270 21/01 A2955 RMK CI2 SLP014 DENSITY ALT 4900FT

CYQF;2018-04-28 20:00;CYQF 282000Z 27006KT 210V320 15SM FEW270 24/00 A2953 RMK CI2 SLP005 DENSITY ALT 5100FT

CYQF;2018-04-28 21:00;CYQF 282100Z VRB05KT 15SM SCT270 24/M01 A2951 RMK CI3 SLP997 DENSITY ALT 5200FT

CYQF;2018-04-28 22:00;CYQF 282200Z VRB08KT 10SM FEW270 25/M03 A2949 RMK CI2 SLP989 DENSITY ALT 5300FT

CYQF;2018-04-28 23:00;CYQF 282300Z VRB03KT 12SM SCT270 25/M03 A2947 RMK CI4 SLP986 DENSITY ALT 5300FT

CYQF;2018-04-29 00:00;CYQF 290000Z VRB05KT 15SM FEW150 BKN270 25/M04 A2946 RMK AC2CI4 SLP983 DENSITY ALT 5400FT

CYQF;2018-04-29 01:00;CYQF 290100Z 17003KT 15SM SCT160 BKN270 25/M02 A2945 RMK AC3CI4 SLP980 DENSITY ALT 5300FT

CYQF;2018-04-29 02:00;CYQF 290200Z 12002KT 15SM SCT150 BKN250 23/M01 A2944 RMK AC3CI3 SLP976 DENSITY ALT 5200FT

CYQF;2018-04-29 03:00;CYQF 290300Z VRB02KT 15SM SCT130 BKN230 19/02 A2945 RMK AC3CI2 SLP978 DENSITY ALT 4700FT

CYQF;2018-04-29 04:00;CYQF 290400Z 29007KT 15SM SCT130 SCT230 19/M01 A2946 RMK AC3CI1 SLP979 DENSITY ALT 4700FT

CYQF;2018-04-29 05:00;CYQF 290500Z 31009KT 15SM SCT130 SCT230 17/M02 A2947 RMK AC3CI1 SLP982 DENSITY ALT 4400FT

CYQF;2018-04-29 06:00;CYQF 290600Z 30008KT 15SM BKN140 16/M02 A2948 RMK AC5 SLP983 DENSITY ALT 4300FT

CYQF;2018-04-29 07:00;CYQF 290700Z 32012G17KT 15SM BKN140 16/M02 A2948 RMK AC6 SLP978 DENSITY ALT 4300FT

CYQF;2018-04-29 08:00;CYQF 290800Z 36017G24KT 15SM BKN130 15/00 A2950 RMK AC5 SLP987 DENSITY ALT 4100FT

CYQF;2018-04-29 09:00;CYQF 290900Z 35017G24KT 15SM BKN120 13/01 A2953 RMK AC7 PRESRR SLP998 DENSITY ALT 4000FT

CYQF;2018-04-29 10:00;CYQF 291000Z 34013KT 15SM OVC072 12/01 A2962 RMK AC8 SLP028 DENSITY ALT 3700FT

CYQF;2018-04-29 10:34;CYQF 291034Z 34012KT 15SM -RA OVC083 11/02 A2962 RMK AC8 SLP031 DENSITY ALT 3600FT

CYQF;2018-04-29 11:00;CYQF 291100Z 35013G18KT 15SM -RA OVC070 11/02 A2962 RMK AC8 SLP030 DENSITY ALT 3600FT

CYQF;2018-04-29 12:00;CYQF 291200Z 35011G18KT 15SM -RA OVC050 10/03 A2969 RMK SC8 SLP055 DENSITY ALT 3300FT

CYQF;2018-04-29 13:00;CYQF 291300Z 35017G22KT 12SM -RA OVC051 08/04 A2971 RMK SC8 SLP066 DENSITY ALT 3100FT

CYQF;2018-04-29 14:00;CYQF 291400Z 36015G21KT 12SM -RA BKN036 OVC055 07/03 A2977 RMK SC5SC3 SLP087

CYQF;2018-04-29 15:00;CYQF 291500Z 35015G21KT 8SM -RA BKN031 OVC042 06/03 A2981 RMK SC6SC2 SLP107

CYQF;2018-04-29 16:00;CYQF 291600Z 32010KT 8SM -RA OVC024 05/03 A2982 RMK SC8 WND ESTD SLP113

CYQF;2018-04-29 17:00;CYQF 291700Z 34019G26KT 10SM -RA SCT021 OVC042 05/03 A2985 RMK SC3SC5 SLP124

CYQF;2018-04-29 17:42;CYQF 291742Z 34016G22KT 10SM -RA BKN014 OVC040 05/03 A2986 RMK SC5SC3 SLP128

CYQF;2018-04-29 18:00;CYQF 291800Z 34017G23KT 10SM -RA BKN014 OVC040 05/03 A2986 RMK SC5SC3 SLP130

CYQF;2018-04-29 18:41;CYQF 291841Z 35019KT 12SM -RA BKN017 OVC045 06/02 A2986 RMK SC6SC2 SLP130

CYQF;2018-04-29 18:50;CYQF 291850Z 35015G23KT 15SM BKN017 OVC045 06/03 A2987 RMK SC6SC2 SLP131

CYQF;2018-04-29 19:00;CYQF 291900Z 35019G24KT 15SM BKN017 OVC050 06/03 A2986 RMK SC5SC3 SLP129

CYQF;2018-04-29 20:00;CYQF 292000Z 36016G24KT 15SM SCT020 BKN060 OVC100 08/02 A2987 RMK SC4SC2AC2 SLP131

CYQF;2018-04-29 21:00;CYQF 292100Z 35016KT 15SM BKN028 BKN100 08/01 A2988 RMK SC6AC1 SLP137

CYQF;2018-04-29 22:00;CYQF 292200Z 34014KT 15SM BKN035 OVC100 07/00 A2989 RMK SC7AC1 SLP142

CYQF;2018-04-29 23:00;CYQF 292300Z 36013G18KT 15SM OVC040 07/M00 A2991 RMK SC8 SLP151

CYQF;2018-04-30 00:00;CYQF 300000Z 36011G16KT 15SM BKN040 OVC110 07/M01 A2992 RMK SC6AC2 SLP154

CYQF;2018-04-30 01:00;CYQF 300100Z 01010KT 15SM SCT040 OVC100 07/M01 A2992 RMK SC4AC4 SLP157

CYQF;2018-04-30 02:00;CYQF 300200Z 02006KT 15SM SCT045 BKN100 07/M01 A2992 RMK SC4AC3 SLP160

CYQF;2018-04-30 03:00;CYQF 300300Z 02005KT 15SM SCT040 OVC120 05/M01 A2993 RMK SC3AC5 SLP166

CYQF;2018-04-30 04:00;CYQF 300400Z 04002KT 15SM FEW035 SCT090 OVC120 04/M00 A2995 RMK SC1AC2AS5 SLP172

CYQF;2018-04-30 05:00;CYQF 300500Z 36002KT 15SM BKN048 BKN080 05/M00 A2995 RMK SC5AC2 SLP175

CYQF;2018-04-30 06:00;CYQF 300600Z 30003KT 15SM OVC045 04/00 A2994 RMK SC8 SLP172

CYQF;2018-04-30 07:00;CYQF 300700Z 28003KT 15SM OVC044 04/01 A2996 RMK SC8 SLP176

CYQF;2018-04-30 08:00;CYQF 300800Z 00000KT 15SM BKN044 OVC077 04/01 A2995 RMK SC6AC2 SLP171

CYQF;2018-04-30 09:00;CYQF 300900Z 00000KT 15SM FEW044 OVC076 03/01 A2994 RMK SC1AC7 SLP168

CYQF;2018-04-30 10:00;CYQF 301000Z 15002KT 15SM OVC078 03/01 A2993 RMK AC8 SLP166

CYQF;2018-04-30 11:00;CYQF 301100Z 18003KT 15SM BKN078 BKN200 02/01 A2994 RMK AC5CI2 SLP170

CYQF;2018-04-30 12:00;CYQF 301200Z 00000KT 15SM SCT067 BKN082 BKN200 01/00 A2993 RMK AC4AC2CI1 SLP168

CYQF;2018-04-30 13:00;CYQF 301300Z 16004KT 12SM BKN066 BKN080 BKN250 01/00 A2994 RMK AC5AC1CI1 SLP170

CYQF;2018-04-30 14:00;CYQF 301400Z 18006KT 12SM FEW062 SCT180 BKN250 04/01 A2994 RMK SC2AC2CI3 SLP169

CYQF;2018-04-30 15:00;CYQF 301500Z 18008KT 15SM FEW011 FEW060 BKN180 05/00 A2993 RMK ST1SC1AC5 ST TR SLP165

CYQF;2018-04-30 16:00;CYQF 301600Z 18009KT 15SM SCT019 BKN200 07/01 A2992 RMK CU3CI3 SLP162

CYQF;2018-04-30 17:00;CYQF 301700Z 18008KT 140V230 15SM SCT030 BKN210 09/02 A2991 RMK CU4CI2 SLP157 DENSITY ALT 3000FT

CYQF;2018-04-30 18:00;CYQF 301800Z 16011KT 150V250 15SM BKN036 10/01 A2990 RMK CU6 SLP153 DENSITY ALT 3200FT

CYQF;2018-04-30 19:00;CYQF 301900Z 20010KT 15SM BKN036 BKN250 11/01 A2988 RMK CU5CI1 SLP143 DENSITY ALT 3200FT

CYQF;2018-04-30 20:00;CYQF 302000Z 18011G18KT 150V220 15SM SCT040 SCT250 12/01 A2985 RMK CU3CI1 SLP132 DENSITY ALT 3400FT

CYQF;2018-04-30 21:00;CYQF 302100Z 20008G15KT 160V240 15SM BKN044 12/01 A2983 RMK CU5 SLP126 DENSITY ALT 3400FT

CYQF;2018-04-30 22:00;CYQF 302200Z VRB03KT 15SM BKN050 13/01 A2980 RMK CU5 SLP112 DENSITY ALT 3700FT

CYQF;2018-04-30 23:00;CYQF 302300Z 21006KT 100V240 15SM SCT060 14/M00 A2977 RMK CU3 SLP103 DENSITY ALT 3700FT

CYQF;2018-05-01 00:00;CYQF 010000Z 22007KT 140V260 15SM FEW060 15/M00 A2975 RMK CU1 SLP097 DENSITY ALT 3900FT

CYQF;2018-05-01 01:00;CYQF 010100Z 20006KT 140V230 15SM FEW060 15/00 A2973 RMK CU1 SLP090 DENSITY ALT 3900FT

CYQF;2018-05-01 02:00;CYQF 010200Z 15007KT 15SM FEW050 14/01 A2972 RMK CU1 SLP084 DENSITY ALT 3800FT

CYQF;2018-05-01 03:00;CYQF 010300Z 15007KT 15SM FEW040 FEW100 FEW270 10/01 A2971 RMK SC1AC1CI1 SC TR AC TR SLP083 DENSITY ALT 3400FT

CYQF;2018-05-01 04:00;CYQF 010400Z 16008KT 15SM SCT100 SCT270 08/01 A2970 RMK AC3CI1 SLP081 DENSITY ALT 3200FT

CYQF;2018-05-01 05:00;CYQF 010500Z 19007KT 15SM SCT100 08/01 A2969 RMK AC4 SLP075 DENSITY ALT 3100FT

CYQF;2018-05-01 06:00;CYQF 010600Z 19005KT 15SM BKN096 07/01 A2969 RMK AC7 SLP074 DENSITY ALT 3000FT

CYQF;2018-05-01 06:42;CYQF 010642Z 32013G19KT 180V330 15SM BKN058 OVC096 08/03 A2971 RMK SC6AC2 PRESRR SLP081 DENSITY ALT 3100FT

CYQF;2018-05-01 06:52;CYQF 010652Z 33022G30KT 8SM -SHRA BKN048 OVC075 09/03 A2972 RMK SC6AC2 CVTCV CLD EMBD PRESRR SLP082 DENSITY ALT 3300FT

CYQF;2018-05-01 07:00;CYQF 010700Z 33017G30KT 60SM -SHRA OVC050 08/04 A2972 RMK SC8 CVCTV CLD EMBD PRESRR SLP085 DENSITY ALT 3100FT

CYQF;2018-05-01 08:00;CYQF 010800Z 01019G26KT 15SM -SHRA BKN050 OVC150 08/02 A2972 RMK SC6AC2 CVCTV CLD EMBD SLP081 DENSITY ALT 3100FT

CYQF;2018-05-01 08:39;CYQF 010839Z 34007KT 15SM FEW070 BKN100 OVC200 08/01 A2973 RMK AC2AC4CI2 SLP086 DENSITY ALT 3100FT

CYQF;2018-05-01 09:00;CYQF 010900Z 33009KT 15SM BKN130 OVC200 08/01 A2974 RMK AC6CI2 SLP089 DENSITY ALT 3000FT

CYQF;2018-05-01 10:00;CYQF 011000Z 34009KT 15SM BKN120 07/M01 A2976 RMK AC7 SLP095

CYQF;2018-05-01 11:00;CYQF 011100Z 33013G20KT 15SM OVC090 07/M01 A2978 RMK AC8 SLP102 DENSITY ALT 3000FT

CYQF;2018-05-01 12:00;CYQF 011200Z 33012G18KT 15SM BKN130 06/M01 A2980 RMK AC7 SLP109

CYQF;2018-05-01 13:00;CYQF 011300Z 32013G18KT 15SM SCT090 BKN130 06/M01 A2982 RMK AC4AC3 SLP118

CYQF;2018-05-01 14:00;CYQF 011400Z 32011KT 15SM FEW090 BKN140 06/00 A2984 RMK AC2AC5 SLP125

CYQF;2018-05-01 15:00;CYQF 011500Z 32016G22KT 15SM FEW030 BKN140 07/00 A2986 RMK CU2AC4 SLP133

CYQF;2018-05-01 16:00;CYQF 011600Z 31017KT 15SM SCT028 BKN140 08/01 A2987 RMK CU4AC2 SLP138

CYQF;2018-05-01 17:00;CYQF 011700Z 33016G23KT 300V360 15SM SCT040 BKN250 09/M01 A2988 RMK CU3CI2 SLP141 DENSITY ALT 3100FT

CYQF;2018-05-01 18:00;CYQF 011800Z 35013G20KT 15SM BKN042 BKN250 11/M01 A2990 RMK CU5CI1 SLP144 DENSITY ALT 3300FT

CYQF;2018-05-01 19:00;CYQF 011900Z 32015G20KT 15SM BKN050 11/M02 A2988 RMK CU6 SLP139 DENSITY ALT 3200FT

CYQF;2018-05-01 20:00;CYQF 012000Z 33016G21KT 15SM BKN060 11/M03 A2989 RMK CU7 SLP140 DENSITY ALT 3300FT

CYQF;2018-05-01 21:00;CYQF 012100Z 33013G20KT 15SM BKN060 13/M03 A2989 RMK CU7 SLP139 DENSITY ALT 3500FT

CYQF;2018-05-01 22:00;CYQF 012200Z 31012KT 15SM SCT056 BKN095 11/M03 A2988 RMK CU4AC2 SLP139 DENSITY ALT 3300FT

CYQF;2018-05-01 23:00;CYQF 012300Z 34011G16KT 15SM BKN060 BKN100 12/M03 A2988 RMK CU5AC2 SLP138 DENSITY ALT 3400FT

CYQF;2018-05-02 00:00;CYQF 020000Z 33012KT 15SM SCT064 BKN090 11/M04 A2988 RMK CU4AC1 SLP139 DENSITY ALT 3300FT

CYQF;2018-05-02 01:00;CYQF 020100Z 33009KT 15SM BKN055 BKN090 11/M04 A2987 RMK SC5AC1 SLP138 DENSITY ALT 3300FT

CYQF;2018-05-02 02:00;CYQF 020200Z 30007KT 15SM BKN080 10/M03 A2988 RMK AC5 SLP140 DENSITY ALT 3200FT

CYQF;2018-05-02 03:00;CYQF 020300Z 31003KT 15SM BKN095 09/M03 A2988 RMK AC6 SLP141 DENSITY ALT 3000FT

CYQF;2018-05-02 04:00;CYQF 020400Z 34003KT 15SM SCT080 08/M03 A2989 RMK AC3 SLP145

CYQF;2018-05-02 05:00;CYQF 020500Z 18004KT 15SM FEW080 04/M00 A2989 RMK AC2 SLP147

CYQF;2018-05-02 06:00;CYQF 020600Z 19005KT 15SM SCT098 03/M02 A2988 RMK AC4 SLP144

CYQF;2018-05-02 07:00;CYQF 020700Z 18004KT 15SM BKN100 02/M01 A2988 RMK AC5 SLP145

CYQF;2018-05-02 08:00;CYQF 020800Z 21004KT 15SM BKN097 03/M01 A2986 RMK AC7 SLP138

CYQF;2018-05-02 09:00;CYQF 020900Z 19003KT 15SM BKN094 03/M01 A2985 RMK AC7 SLP133

CYQF;2018-05-02 10:00;CYQF 021000Z 21004KT 15SM BKN089 03/M01 A2985 RMK AC6 SLP132

CYQF;2018-05-02 11:00;CYQF 021100Z 22006KT 15SM SCT085 01/M02 A2984 RMK AC4 SLP131

CYQF;2018-05-02 12:00;CYQF 021200Z 22007KT 15SM FEW085 FEW210 01/M02 A2983 RMK AC1CI1 SLP130

CYQF;2018-05-02 13:00;CYQF 021300Z 20005KT 15SM SCT082 BKN250 01/M01 A2982 RMK AC3CI3 SLP126

CYQF;2018-05-02 14:00;CYQF 021400Z 20006KT 15SM BKN080 BKN250 03/M00 A2982 RMK AC6CI1 SLP123

CYQF;2018-05-02 15:00;CYQF 021500Z 23006KT 15SM BKN078 BKN250 07/M01 A2980 RMK AC6CI1 SLP116

CYQF;2018-05-02 16:00;CYQF 021600Z 24008KT 15SM SCT080 BKN250 12/M01 A2980 RMK AC3CI3 SLP110 DENSITY ALT 3400FT

CYQF;2018-05-02 17:00;CYQF 021700Z 24007G15KT 210V280 15SM FEW080 SCT110 SCT250 15/M02 A2977 RMK AC2AC1CI1 SLP101 DENSITY ALT 3800FT

CYQF;2018-05-02 18:00;CYQF 021800Z 24009G18KT 220V290 15SM FEW075 SCT250 17/M03 A2975 RMK CU2CI2 SLP093 DENSITY ALT 4100FT

CYQF;2018-05-02 19:00;CYQF 021900Z 30007G15KT 190V320 15SM FEW080 SCT250 17/M02 A2973 RMK CU2CI2 SLP087 DENSITY ALT 4200FT

CYQF;2018-05-02 20:00;CYQF 022000Z 29009G22KT 270V330 15SM SCT080 BKN250 18/M03 A2972 RMK CU3CI2 SLP080 DENSITY ALT 4300FT

CYQF;2018-05-02 21:00;CYQF 022100Z 29013G20KT 220V340 15SM SCT080 BKN250 20/M01 A2970 RMK AC3CI2 SLP073 DENSITY ALT 4500FT

CYQF;2018-05-02 22:00;CYQF 022200Z 26010G18KT 240V330 15SM BKN090 19/M02 A2968 RMK CU6 SLP065 DENSITY ALT 4500FT

CYQF;2018-05-02 23:00;CYQF 022300Z 26010G18KT 15SM BKN090 21/M01 A2966 RMK CU6 VIRGA SLP060 DENSITY ALT 4600FT

CYQF;2018-05-03 00:00;CYQF 030000Z 30012G21KT 15SM BKN100 21/M04 A2967 RMK CU6 VIRGA SLP062 DENSITY ALT 4700FT

CYQF;2018-05-03 01:00;CYQF 030100Z 31009G15KT 15SM BKN100 19/M03 A2968 RMK AC7 VIRGA ALQDS SLP067 DENSITY ALT 4400FT

CYQF;2018-05-03 02:00;CYQF 030200Z 33011G17KT 15SM BKN110 17/M02 A2971 RMK AC6 VIRGA SLP077 DENSITY ALT 4200FT

CYQF;2018-05-03 03:00;CYQF 030300Z 34012G21KT 15SM BKN120 15/M03 A2974 RMK AC6 VIRGA SLP087 DENSITY ALT 3900FT

CYQF;2018-05-03 04:00;CYQF 030400Z 35010KT 15SM BKN120 14/M03 A2978 RMK AC6 SLP096 DENSITY ALT 3800FT

CYQF;2018-05-03 05:00;CYQF 030500Z 03013KT 15SM BKN100 11/01 A2983 RMK AC5 SLP113 DENSITY ALT 3400FT

CYQF;2018-05-03 06:00;CYQF 030600Z 05004KT 15SM BKN100 09/01 A2986 RMK AC5 SLP124 DENSITY ALT 3100FT

CYQF;2018-05-03 07:00;CYQF 030700Z 19002KT 15SM SCT100 08/01 A2987 RMK AC4 SLP127

CYQF;2018-05-03 08:00;CYQF 030800Z 24005KT 15SM FEW100 06/00 A2987 RMK AC2 SLP129

CYQF;2018-05-03 09:00;CYQF 030900Z 21003KT 15SM FEW100 01/M01 A2987 RMK AC1 SLP131

CYQF;2018-05-03 10:00;CYQF 031000Z 21005KT 15SM SKC 03/M01 A2988 RMK SLP134

CYQF;2018-05-03 11:00;CYQF 031100Z 21005KT 15SM FEW250 02/M01 A2989 RMK CI1 CI TR SLP136

CYQF;2018-05-03 12:00;CYQF 031200Z 20005KT 15SM FEW250 01/M01 A2987 RMK CI1 SLP133

CYQF;2018-05-03 13:00;CYQF 031300Z 21004KT 15SM FEW250 02/00 A2989 RMK CI2 SLP139

CYQF;2018-05-03 14:00;CYQF 031400Z 17004KT 15SM SCT250 07/02 A2990 RMK CI3 SLP138

CYQF;2018-05-03 15:00;CYQF 031500Z 22004KT 15SM FEW250 10/01 A2990 RMK CI2 SLP139 DENSITY ALT 3200FT

CYQF;2018-05-03 16:00;CYQF 031600Z 25006KT 15SM SCT250 13/00 A2990 RMK CI3 SLP136 DENSITY ALT 3500FT

CYQF;2018-05-03 17:00;CYQF 031700Z 28010KT 15SM SCT250 17/M03 A2990 RMK CI3 SLP133 DENSITY ALT 3900FT

CYQF;2018-05-03 18:00;CYQF 031800Z 34012KT 270V010 15SM FEW080 SCT250 18/M04 A2989 RMK CU1CI2 SLP133 DENSITY ALT 4100FT

CYQF;2018-05-03 19:00;CYQF 031900Z 32009G18KT 15SM FEW080 BKN250 18/M03 A2988 RMK CU2CI4 SLP131 DENSITY ALT 4100FT

CYQF;2018-05-03 20:00;CYQF 032000Z 29008G16KT 270V350 15SM SCT120 BKN240 19/M03 A2988 RMK AC4CI3 SLP131 DENSITY ALT 4200FT

CYQF;2018-05-03 21:00;CYQF 032100Z 34011G18KT 15SM FEW100 BKN140 BKN250 20/M02 A2988 RMK AC2AC3CI2 SLP135 DENSITY ALT 4300FT

CYQF;2018-05-03 22:00;CYQF 032200Z 30005G16KT 270V350 15SM FEW100 SCT180 BKN250 20/M02 A2988 RMK ACC2AC2CI3 SLP133 DENSITY ALT 4300FT

CYQF;2018-05-03 23:00;CYQF 032300Z 34012KT 15SM BKN085 BKN250 20/M01 A2988 RMK CU5CI2 SLP135 DENSITY ALT 4300FT

CYQF;2018-05-04 00:00;CYQF 040000Z 34009KT 15SM BKN100 BKN250 20/M01 A2989 RMK AC5CI2 VIRGA SLP139 DENSITY ALT 4300FT

CYQF;2018-05-04 01:00;CYQF 040100Z 01008KT 15SM BKN100 BKN250 20/01 A2989 RMK AC5CI1 SLP137 DENSITY ALT 4300FT

CYQF;2018-05-04 02:00;CYQF 040200Z 03006KT 15SM BKN100 BKN250 17/01 A2990 RMK AC5CI1 SLP138 DENSITY ALT 3900FT

CYQF;2018-05-04 03:00;CYQF 040300Z 01006KT 15SM BKN110 15/01 A2992 RMK AC6 SLP145 DENSITY ALT 3700FT

CYQF;2018-05-04 04:00;CYQF 040400Z 36006KT 15SM BKN090 BKN250 13/00 A2994 RMK AC5CI2 SLP152 DENSITY ALT 3500FT

CYQF;2018-05-04 05:00;CYQF 040500Z 00000KT 15SM SCT090 BKN250 12/01 A2995 RMK AC3CI4 SLP153 DENSITY ALT 3300FT

CYQF;2018-05-04 06:00;CYQF 040600Z 00000KT 15SM BKN140 10/01 A2996 RMK AC6 SLP155 DENSITY ALT 3100FT

CYQF;2018-05-04 07:00;CYQF 040700Z 17004KT 130V240 15SM BKN190 10/01 A2996 RMK AC7 SLP157 DENSITY ALT 3000FT

CYQF;2018-05-04 08:00;CYQF 040800Z 17002KT 15SM BKN120 08/02 A2996 RMK AC7 SLP158

CYQF;2018-05-04 09:00;CYQF 040900Z 19004KT 15SM BKN120 07/02 A2996 RMK AC5 SLP158

CYQF;2018-05-04 10:00;CYQF 041000Z VRB02KT 15SM SCT120 06/01 A2996 RMK AC3 SLP160

CYQF;2018-05-04 11:00;CYQF 041100Z 20004KT 15SM SCT120 SCT240 04/01 A2996 RMK AC3CI1 SLP161

CYQF;2018-05-04 12:00;CYQF 041200Z 22002KT 15SM FEW120 BKN240 03/M00 A2996 RMK AC1CI4 SLP163

CYQF;2018-05-04 13:00;CYQF 041300Z 19004KT 15SM FEW110 BKN250 05/02 A2997 RMK AC2CI5 SLP163

CYQF;2018-05-04 14:00;CYQF 041400Z 21003KT 15SM SCT110 BKN250 08/03 A2999 RMK AC4CI2 SLP168

CYQF;2018-05-04 15:00;CYQF 041500Z 32004KT 290V360 15SM SCT120 BKN250 12/03 A3000 RMK AC4CI2 SLP171 DENSITY ALT 3300FT

CYQF;2018-05-04 16:00;CYQF 041600Z 36006KT 15SM SCT120 BKN250 16/02 A3000 RMK AC3CI4 SLP170 DENSITY ALT 3700FT

CYQF;2018-05-04 17:00;CYQF 041700Z 33010KT 300V010 15SM FEW090 SCT120 BKN250 17/03 A3001 RMK AC1AC3CI3 SLP173 DENSITY ALT 3900FT

CYQF;2018-05-04 18:00;CYQF 041800Z 33012G18KT 15SM FEW090 SCT120 BKN250 18/03 A3001 RMK CU2AC2CI2 SLP175 DENSITY ALT 3900FT

CYQF;2018-05-04 19:00;CYQF 041900Z 34010G15KT 310V010 15SM FEW060 SCT120 BKN240 18/04 A3000 RMK CU1AC2CI4 SLP173 DENSITY ALT 3900FT

CYQF;2018-05-04 20:00;CYQF 042000Z 30012KT 15SM SCT060 SCT110 BKN240 19/03 A3000 RMK CU3AC1CI3 SLP170 DENSITY ALT 4000FT

CYQF;2018-05-04 21:00;CYQF 042100Z 34007G17KT 320V030 15SM SCT060 BKN090 BKN160 19/03 A2998 RMK CU3AC2AC2 SLP166 DENSITY ALT 4100FT

CYQF;2018-05-04 22:00;CYQF 042200Z 33012KT 15SM VCSH BKN060TCU BKN120 18/03 A2998 RMK TCU6AC1 VIS W-NW 6 SLP167 DENSITY ALT 4000FT

CYQF;2018-05-04 22:11;CYQF 042211Z 31021G29KT 15SM -SHRA BKN060TCU OVC100 16/04 A2999 RMK TCU7AC1 VIS W-N 5 SLP174 DENSITY ALT 3800FT

CYQF;2018-05-04 22:51;CYQF 042251Z 01010KT 15SM VCSH SCT060TCU OVC100 15/09 A3001 RMK TCU4AC4 SLP184 DENSITY ALT 3500FT

CYQF;2018-05-04 23:00;CYQF 042300Z 01010KT 15SM VCSH SCT040TCU OVC110 15/07 A3001 RMK TCU4AC4 SLP184 DENSITY ALT 3600FT

CYQF;2018-05-05 00:00;CYQF 050000Z 08006KT 15SM VCSH FEW040 BKN100 OVC250 16/06 A3000 RMK CU2AC4CI2 SLP178 DENSITY ALT 3700FT

CYQF;2018-05-05 01:00;CYQF 050100Z 32016G22KT 15SM VCSH FEW040 BKN100 OVC250 15/04 A3000 RMK CU1AC5CI2 SLP178 DENSITY ALT 3600FT

CYQF;2018-05-05 02:00;CYQF 050200Z 33010KT 15SM VCSH BKN100 OVC250 15/04 A2999 RMK AC5CI3 SLP170 DENSITY ALT 3600FT

CYQF;2018-05-05 03:00;CYQF 050300Z 33012G17KT 15SM VCSH BKN110 OVC250 14/04 A3000 RMK AC6CI2 SLP171 DENSITY ALT 3500FT

CYQF;2018-05-05 04:00;CYQF 050400Z 33007KT 15SM BKN120 12/05 A3002 RMK AC6 VIRGA SLP179 DENSITY ALT 3200FT

CYQF;2018-05-05 05:00;CYQF 050500Z 32003KT 15SM BKN120 11/04 A3003 RMK AC5 SLP182 DENSITY ALT 3100FT

CYQF;2018-05-05 06:00;CYQF 050600Z 26003KT 15SM BKN110 11/04 A3004 RMK AC6 SLP181 DENSITY ALT 3100FT

CYQF;2018-05-05 07:00;CYQF 050700Z 25009KT 15SM BKN110 09/05 A3005 RMK AC6 SLP188

CYQF;2018-05-05 08:00;CYQF 050800Z 29007KT 15SM BKN100 09/05 A3006 RMK AC5 SLP191

CYQF;2018-05-05 09:00;CYQF 050900Z 28008KT 15SM BKN110 09/05 A3007 RMK AC5 SLP195

CYQF;2018-05-05 10:00;CYQF 051000Z VRB03KT 15SM BKN100 07/05 A3008 RMK AC5 SLP200

CYQF;2018-05-05 11:00;CYQF 051100Z 19004KT 15SM FEW070 BKN110 06/04 A3009 RMK AC2AC4 SLP210

CYQF;2018-05-05 12:00;CYQF 051200Z 22003KT 200V270 15SM FEW070 SCT110 04/02 A3011 RMK AC2AC1 SLP217

CYQF;2018-05-05 13:00;CYQF 051300Z 30005KT 15SM BKN070 BKN100 08/05 A3013 RMK AC5AC2 SLP219

CYQF;2018-05-05 14:00;CYQF 051400Z 32004KT 15SM BKN070 BKN100 10/05 A3015 RMK AC5AC2 OCNL -SHRA CVCTV CLD EMBD SLP224

CYQF;2018-05-05 15:00;CYQF 051500Z 33007KT 15SM SCT060 BKN100 12/03 A3016 RMK SC3AC4 SLP226 DENSITY ALT 3100FT

CYQF;2018-05-05 16:00;CYQF 051600Z 31007KT 15SM FEW064 BKN096 BKN250 13/03 A3016 RMK SC2AC3CI1 SLP230 DENSITY ALT 3200FT

CYQF;2018-05-05 17:00;CYQF 051700Z 33005KT 280V360 15SM FEW062 BKN100 15/02 A3015 RMK SC2AC3 SLP225 DENSITY ALT 3500FT

CYQF;2018-05-05 18:00;CYQF 051800Z VRB04KT 15SM FEW055 BKN070 16/01 A3015 RMK CF1AC4 SLP224 DENSITY ALT 3500FT

CYQF;2018-05-05 19:00;CYQF 051900Z 31005KT 240V010 15SM FEW060 SCT210 17/03 A3014 RMK CU2CI1 SLP219 DENSITY ALT 3700FT

CYQF;2018-05-05 20:00;CYQF 052000Z 32002KT 15SM SCT060 BKN210 18/03 A3012 RMK CU4CI2 SLP214 DENSITY ALT 3800FT

CYQF;2018-05-05 21:00;CYQF 052100Z 29005KT 240V350 15SM SCT060 BKN250 19/03 A3011 RMK CU4CI2 SLP208 DENSITY ALT 3900FT

CYQF;2018-05-05 22:00;CYQF 052200Z 32005KT 270V040 15SM SCT062 BKN250 19/02 A3010 RMK CU3CI3 SLP207 DENSITY ALT 3900FT

CYQF;2018-05-05 23:00;CYQF 052300Z VRB02KT 15SM SCT062 BKN250 20/01 A3009 RMK CU3CI4 SLP203 DENSITY ALT 4000FT

CYQF;2018-05-06 00:00;CYQF 060000Z 24003KT 190V280 15SM FEW076 BKN290 20/01 A3008 RMK CU1CI5 SLP202 DENSITY ALT 4100FT

CYQF;2018-05-06 01:00;CYQF 060100Z VRB04KT 15SM FEW072 SCT290 20/01 A3008 RMK CU1CI2 SLP197 DENSITY ALT 4100FT

CYQF;2018-05-06 02:00;CYQF 060200Z 02004KT 15SM FEW072 SCT290 19/03 A3007 RMK CU1CI2 SLP193 DENSITY ALT 4000FT

CYQF;2018-05-06 03:00;CYQF 060300Z 04004KT 15SM FEW075 SCT290 15/03 A3008 RMK ACC1CI3 ACC TR SLP197 DENSITY ALT 3500FT

CYQF;2018-05-06 04:00;CYQF 060400Z 12003KT 15SM FEW070 FEW290 14/03 A3008 RMK ACC1CI2 ACC TR SLP198 DENSITY ALT 3400FT

CYQF;2018-05-06 05:00;CYQF 060500Z 00000KT 15SM FEW070 SCT280 12/03 A3010 RMK AC1CI2 SLP203 DENSITY ALT 3200FT

CYQF;2018-05-06 06:00;CYQF 060600Z 00000KT 15SM SKC 12/03 A3010 RMK SLP206 DENSITY ALT 3100FT

CYQF;2018-05-06 07:00;CYQF 060700Z 21002KT 15SM SKC 09/04 A3010 RMK SLP208

CYQF;2018-05-06 08:00;CYQF 060800Z 00000KT 15SM SKC 09/03 A3010 RMK SLP207

CYQF;2018-05-06 09:00;CYQF 060900Z 17004KT 15SM FEW070 10/02 A3010 RMK AC2 SLP202 DENSITY ALT 3000FT

CYQF;2018-05-06 10:00;CYQF 061000Z 00000KT 15SM FEW070 SCT260 05/01 A3009 RMK AC1CI2 SLP204

CYQF;2018-05-06 11:00;CYQF 061100Z 19004KT 15SM FEW120 03/01 A3009 RMK AC1 SLP205

CYQF;2018-05-06 12:00;CYQF 061200Z 00000KT 15SM FEW120 FEW260 03/01 A3009 RMK AC1CI2 AC TR SLP206

CYQF;2018-05-06 13:00;CYQF 061300Z 22004KT 15SM SCT260 03/01 A3009 RMK CI3 SLP207

CYQF;2018-05-06 14:00;CYQF 061400Z 22005KT 15SM SCT250 09/03 A3009 RMK CI3 SLP201

CYQF;2018-05-06 15:00;CYQF 061500Z 22005KT 15SM SCT250 11/03 A3008 RMK CI4 SLP201 DENSITY ALT 3000FT

CYQF;2018-05-06 16:00;CYQF 061600Z 24004KT 220V280 15SM SCT240 14/03 A3007 RMK CI3 SLP195 DENSITY ALT 3500FT

CYQF;2018-05-06 17:00;CYQF 061700Z VRB04KT 15SM FEW250 18/03 A3006 RMK CI2 SLP188 DENSITY ALT 3900FT

CYQF;2018-05-06 18:00;CYQF 061800Z 00000KT 15SM FEW250 20/02 A3005 RMK CI1 SLP182 DENSITY ALT 4100FT

CYQF;2018-05-06 19:00;CYQF 061900Z 22006KT 160V260 15SM FEW080 FEW250 22/01 A3003 RMK CF1CI2 CF TR SLP176 DENSITY ALT 4400FT

CYQF;2018-05-06 20:00;CYQF 062000Z 18008KT 170V240 15SM FEW080 SCT250 23/01 A3001 RMK CU1CI2 SLP169 DENSITY ALT 4500FT

CYQF;2018-05-06 21:00;CYQF 062100Z 22007KT 140V240 15SM FEW096 SCT250 24/M00 A2999 RMK CU2CI2 SLP159 DENSITY ALT 4600FT

CYQF;2018-05-06 22:00;CYQF 062200Z VRB05KT 15SM FEW090 SCT250 24/02 A2996 RMK CU2CI1 SLP155 DENSITY ALT 4700FT

CYQF;2018-05-06 23:00;CYQF 062300Z 18004KT 140V300 15SM SCT092 BKN120 BKN250 23/01 A2995 RMK CU3AC2CI2 SLP154 DENSITY ALT 4600FT

CYQF;2018-05-07 00:00;CYQF 070000Z 17007KT 140V250 15SM SCT095 BKN120 BKN250 23/01 A2994 RMK CU4AC1CI2 SLP150 DENSITY ALT 4600FT

CYQF;2018-05-07 01:00;CYQF 070100Z 00000KT 15SM SCT120 BKN250 22/02 A2993 RMK ACC3CI2 SLP148 DENSITY ALT 4500FT

CYQF;2018-05-07 02:00;CYQF 070200Z 07003KT 15SM BKN120 BKN250 22/05 A2992 RMK AC5CI2 SLP139 DENSITY ALT 4500FT

CYQF;2018-05-07 03:00;CYQF 070300Z 10004KT 15SM BKN120 BKN250 20/05 A2992 RMK ACC5CI1 SLP138 DENSITY ALT 4300FT

CYQF;2018-05-07 04:00;CYQF 070400Z 36006KT 15SM BKN120 18/03 A2993 RMK AC5 SLP140 DENSITY ALT 4000FT

CYQF;2018-05-07 05:00;CYQF 070500Z 02003KT 15SM BKN120 15/02 A2994 RMK AC5 SLP145 DENSITY ALT 3700FT

CYQF;2018-05-07 06:00;CYQF 070600Z 03004KT 15SM BKN120 15/03 A2995 RMK AC7 SLP145 DENSITY ALT 3700FT

CYQF;2018-05-07 07:00;CYQF 070700Z 36005KT 15SM BKN130 15/02 A2995 RMK AC7 SLP144 DENSITY ALT 3600FT

CYQF;2018-05-07 08:00;CYQF 070800Z 35006KT 15SM BKN130 13/01 A2996 RMK AC7 SLP146 DENSITY ALT 3500FT

CYQF;2018-05-07 09:00;CYQF 070900Z 36005KT 15SM BKN130 13/00 A2996 RMK AC7 SLP147 DENSITY ALT 3400FT

CYQF;2018-05-07 10:00;CYQF 071000Z 33009KT 15SM SCT130 11/01 A2998 RMK AC4 SLP153 DENSITY ALT 3200FT

CYQF;2018-05-07 11:00;CYQF 071100Z 02004KT 15SM SCT130 11/01 A2998 RMK AC4 SLP156 DENSITY ALT 3200FT

CYQF;2018-05-07 12:00;CYQF 071200Z 29003KT 15SM FEW090 BKN130 12/01 A3000 RMK AC1AC5 SLP160 DENSITY ALT 3300FT

CYQF;2018-05-07 13:00;CYQF 071300Z 32004KT 15SM BKN130 13/03 A3001 RMK AC7 SLP166 DENSITY ALT 3400FT

CYQF;2018-05-07 14:00;CYQF 071400Z 01007KT 15SM SCT140 BKN210 16/02 A3002 RMK AC4CI1 SLP167 DENSITY ALT 3700FT

CYQF;2018-05-07 15:00;CYQF 071500Z 35006KT 15SM SCT140 BKN210 17/02 A3003 RMK AC4CI1 SLP172 DENSITY ALT 3800FT

CYQF;2018-05-07 16:00;CYQF 071600Z 31008KT 15SM SCT110 BKN210 18/03 A3004 RMK AC4CI1 SLP176 DENSITY ALT 3900FT

CYQF;2018-05-07 17:00;CYQF 071700Z 32007KT 15SM SCT130 BKN210 20/03 A3005 RMK AC3CI2 SLP179 DENSITY ALT 4100FT

CYQF;2018-05-07 18:00;CYQF 071800Z 34007G16KT 320V040 15SM FEW080 SCT150 BKN250 22/01 A3006 RMK CF1AC4CI2 CF TR SLP179 DENSITY ALT 4400FT

CYQF;2018-05-07 19:00;CYQF 071900Z 01009KT 15SM FEW090 SCT150 BKN250 23/M00 A3006 RMK CU1AC3CI3 CU TR SLP180 DENSITY ALT 4500FT

CYQF;2018-05-07 20:00;CYQF 072000Z 36010G15KT 280V010 15SM FEW060 SCT100 BKN250 24/M01 A3005 RMK CU1AC2CI2 SLP178 DENSITY ALT 4500FT

CYQF;2018-05-07 21:00;CYQF 072100Z 02010G15KT 15SM FEW060 SCT140 BKN250 24/00 A3004 RMK CU2AC1CI2 SLP175 DENSITY ALT 4600FT

CYQF;2018-05-07 22:00;CYQF 072200Z 03011KT 320V060 15SM SCT070 SCT150 BKN250 25/M01 A3003 RMK CU3AC1CI3 SLP172 DENSITY ALT 4700FT

CYQF;2018-05-07 23:00;CYQF 072300Z 35006KT 320V030 15SM SCT140 BKN250 24/M02 A3002 RMK AC4CI3 SLP168 DENSITY ALT 4600FT

CYQF;2018-05-08 00:00;CYQF 080000Z 36004KT 280V040 15SM BKN120 BKN250 23/M01 A3001 RMK AC5CI2 SLP167 DENSITY ALT 4500FT

CYQF;2018-05-08 01:00;CYQF 080100Z 08006KT 15SM BKN100 BKN250 23/M00 A3001 RMK AC5CI2 SLP164 DENSITY ALT 4500FT

CYQF;2018-05-08 02:00;CYQF 080200Z 08005KT 15SM SCT120 BKN250 21/04 A3000 RMK AC3CI4 SLP159 DENSITY ALT 4300FT

CYQF;2018-05-08 03:00;CYQF 080300Z 12005KT 15SM BKN120 BKN250 19/03 A3000 RMK AC5CI2 SLP161 DENSITY ALT 4100FT

CYQF;2018-05-08 04:00;CYQF 080400Z 15007KT 15SM BKN100 BKN250 16/04 A3000 RMK AC5CI2 SLP165 DENSITY ALT 3700FT

CYQF;2018-05-08 04:46;CYQF 080446Z 26011KT 200V270 15SM -SHRA BKN090 OVC250 17/05 A3002 RMK ACC6CI2 LTGIC DIST S SLP168 DENSITY ALT 3900FT

CYQF;2018-05-08 04:50;CYQF 080450Z 26017KT 12SM -TSRA OVC090 17/06 A3001 RMK AC8 OCNL LTGIC S SLP168 DENSITY ALT 3800FT

CYQF;2018-05-08 05:00;CYQF 080500Z 25008G20KT 12SM -TSRA OVC080 18/04 A3002 RMK AC8 OCNL LTGIC LTGCG S SLP168 DENSITY ALT 3900FT

CYQF;2018-05-08 06:00;CYQF 080600Z 14010KT 12SM TS SCT070CB OVC120 13/10 A3002 RMK CB4AC4 OCNL LTGIC SE-E OCNL -SHRA SLP170 DENSITY ALT 3400FT

CYQF;2018-05-08 06:32;CYQF 080632Z 13006KT 15SM SCT080 OVC120 13/09 A3001 RMK AC3AC5 SLP165 DENSITY ALT 3400FT

CYQF;2018-05-08 07:00;CYQF 080700Z 36004KT 15SM BKN110 12/08 A2999 RMK AC6 OCNL LTGIC E SLP159 DENSITY ALT 3300FT

CYQF;2018-05-08 08:00;CYQF 080800Z 32004KT 15SM BKN090 13/08 A2999 RMK AC7 SLP155 DENSITY ALT 3400FT

CYQF;2018-05-08 09:00;CYQF 080900Z 26004KT 15SM BKN100 12/08 A2997 RMK AC6 SLP151 DENSITY ALT 3300FT

CYQF;2018-05-08 10:00;CYQF 081000Z 32006KT 260V330 15SM BKN120 12/07 A2997 RMK AC7 SLP151 DENSITY ALT 3200FT

CYQF;2018-05-08 11:00;CYQF 081100Z 36005KT 15SM SCT100 BKN160 10/06 A3000 RMK AC4AC2 SLP162 DENSITY ALT 3000FT

CYQF;2018-05-08 12:00;CYQF 081200Z 34004KT 15SM BKN080 BKN160 10/06 A3000 RMK AC5AC2 SLP165 DENSITY ALT 3000FT

CYQF;2018-05-08 12:38;CYQF 081238Z 33006KT 10SM -SHRA BKN070 BKN160 10/07 A3002 RMK AC5AC2 CVCTV CLD EMBD SLP171 DENSITY ALT 3000FT

CYQF;2018-05-08 13:00;CYQF 081300Z 27005KT 10SM -SHRA BKN067 10/07 A3003 RMK CU7 WND ESTD SLP174 DENSITY ALT 3000FT

CYQF;2018-05-08 14:00;CYQF 081400Z 00000KT 15SM BKN065 BKN250 13/05 A3003 RMK SC6CI1 WND ESTD SLP173 DENSITY ALT 3300FT

CYQF;2018-05-08 15:00;CYQF 081500Z CCA 36009KT 15SM BKN052 BKN090 BKN250 17/M01 A3003 RMK SC5AC1CI1 WND ESTD SLP172 DENSITY ALT 3800FT

CYQF;2018-05-08 15:36;CYQF 081536Z 36009KT 15SM -SHRA BKN058 BKN090 13/08 A3003 RMK CU5AC2 WND ESTD SLP176 DENSITY ALT 3300FT

CYQF;2018-05-08 16:00;CYQF 081600Z 32005KT 15SM -SHRA BKN060 BKN100 13/08 A3003 RMK CU5AC2 WND ESTD SLP180 DENSITY ALT 3300FT

CYQF;2018-05-08 16:37;CYQF 081637Z 32005KT 15SM FEW036 SCT060 BKN120 15/06 A3003 RMK CU1SC3AC2 WND ESTD SLP178 DENSITY ALT 3600FT

CYQF;2018-05-08 17:00;CYQF 081700Z 36019G//KT 15SM FEW036 SCT060 BKN120 17/07 A3003 RMK CU1SC2AC2 WND ESTD SLP172 DENSITY ALT 3800FT

CYQF;2018-05-08 18:00;CYQF 081800Z 32020G//KT 15SM SCT052 BKN220 19/06 A3002 RMK CU4CI1 WND ESTD SLP173 DENSITY ALT 4000FT

CYQF;2018-05-08 19:00;CYQF 081900Z 32014G//KT 15SM BKN065 BKN250 20/04 A3001 RMK CU5CI1 WND ESTD SLP169 DENSITY ALT 4200FT

CYQF;2018-05-08 20:00;CYQF 082000Z 30016G24KT 15SM BKN072 21/03 A3000 RMK CU5 SLP163 DENSITY ALT 4300FT

CYQF;2018-05-08 21:00;CYQF 082100Z 33011G20KT 290V360 15SM BKN080 22/04 A3000 RMK CU5 SLP161 DENSITY ALT 4400FT

CYQF;2018-05-08 22:00;CYQF 082200Z 32018KT 290V010 15SM BKN080 23/02 A2999 RMK CU6 SLP159 DENSITY ALT 4500FT

CYQF;2018-05-08 23:00;CYQF 082300Z 32012G20KT 15SM BKN080 23/02 A2999 RMK CU5 SLP160 DENSITY ALT 4500FT

CYQF;2018-05-09 00:00;CYQF 090000Z 31011G19KT 15SM SCT080 22/02 A2999 RMK CU3 SLP160 DENSITY ALT 4500FT

CYQF;2018-05-09 01:00;CYQF 090100Z 33009G16KT 15SM FEW080 FEW100 22/01 A2998 RMK CU1AC1 SLP158 DENSITY ALT 4400FT

CYQF;2018-05-09 02:00;CYQF 090200Z 33010G15KT 15SM FEW100 20/01 A2998 RMK AC1 SLP156 DENSITY ALT 4200FT

CYQF;2018-05-09 03:00;CYQF 090300Z 35004KT 15SM FEW100 17/02 A2998 RMK AC1 SLP158 DENSITY ALT 3900FT

CYQF;2018-05-09 04:00;CYQF 090400Z 35005KT 15SM FEW100 16/00 A3000 RMK AC1 SLP167 DENSITY ALT 3800FT

CYQF;2018-05-09 05:00;CYQF 090500Z 36005KT 15SM FEW100 15/00 A3001 RMK AC1 SLP169 DENSITY ALT 3600FT

CYQF;2018-05-09 06:00;CYQF 090600Z 36005KT 15SM SKC 11/01 A3002 RMK SLP175 DENSITY ALT 3100FT

CYQF;2018-05-09 07:00;CYQF 090700Z 03005KT 15SM SKC 09/01 A3004 RMK SLP182

CYQF;2018-05-09 08:00;CYQF 090800Z 05012KT 15SM SKC 11/01 A3005 RMK SLP184 DENSITY ALT 3000FT

CYQF;2018-05-09 09:00;CYQF 090900Z 05012G17KT 15SM FEW120 09/M01 A3008 RMK AC1 SLP192

CYQF;2018-05-09 10:00;CYQF 091000Z 03009KT 15SM BKN120 07/M01 A3009 RMK AC5 SLP199

CYQF;2018-05-09 11:00;CYQF 091100Z 04010KT 15SM SCT090 BKN120 07/M01 A3011 RMK AC3AC4 SLP206

CYQF;2018-05-09 12:00;CYQF 091200Z 04013KT 15SM SCT090 BKN120 06/M01 A3012 RMK AC3AC4 SLP210

CYQF;2018-05-09 13:00;CYQF 091300Z 05010G15KT 15SM BKN090 06/M00 A3014 RMK AC7 SLP219

CYQF;2018-05-09 14:00;CYQF 091400Z 06010G15KT 12SM BKN090 BKN250 05/M00 A3016 RMK AC5CI2 SLP227

CYQF;2018-05-09 15:00;CYQF 091500Z 05013KT 12SM BKN090 BKN250 05/M01 A3016 RMK AC5CI2 SLP232

CYQF;2018-05-09 16:00;CYQF 091600Z 08010KT 15SM BKN080 BKN250 05/M01 A3016 RMK AC6CI1 SLP233

CYQF;2018-05-09 17:00;CYQF 091700Z 08009KT 12SM BKN090 BKN250 07/M00 A3015 RMK AC5CI2 VIRGA SW SLP230

CYQF;2018-05-09 18:00;CYQF 091800Z 08012G18KT 15SM BKN075 BKN250 07/M01 A3014 RMK AC6CI1 VIRGA SLP228

CYQF;2018-05-09 19:00;CYQF 091900Z 10010G17KT 15SM BKN085 BKN250 09/M01 A3012 RMK AC6CI1 VIRGA SLP223

CYQF;2018-05-09 20:00;CYQF 092000Z 14014KT 15SM BKN075 OVC250 09/M02 A3011 RMK AC6CI2 VIRGA SLP218

CYQF;2018-05-09 22:00;CYQF 092200Z 13008G15KT 15SM BKN058 OVC120 09/M03 A3008 RMK SC6AC2 SLP211

CYQF;2018-05-09 22:53;CYQF 092253Z 14011G17KT 12SM -SHRA BKN040 OVC080 07/M01 A3008 RMK SC7AC1 SLP213

CYQF;2018-05-09 23:00;CYQF 092300Z 11010G18KT 12SM -SHRA BKN040 OVC080 07/M01 A3008 RMK SC7AC1 SLP213

CYQF;2018-05-10 00:00;CYQF 100000Z 13010G17KT 8SM -SHRA BKN025 OVC080 05/02 A3008 RMK SC6AC2 SLP214

CYQF;2018-05-10 01:00;CYQF 100100Z 14013KT 8SM -SHRA BKN034 OVC080 05/02 A3007 RMK SC7AC1 CVCTV CLD EMBD SLP213

CYQF;2018-05-10 02:00;CYQF 100200Z 13013KT 8SM -SHRA FEW016 OVC037 04/02 A3006 RMK SF2SC6 CVCTV CLD EMBD SLP212

CYQF;2018-05-10 03:00;CYQF 100300Z 10009KT 8SM -SHRA FEW010 SCT025 OVC060 03/02 A3005 RMK SF2SC2SC4 SLP209

CYQF;2018-05-10 04:00;CYQF 100400Z 10010KT 10SM FEW010 SCT025 OVC045 03/02 A3004 RMK SC2SC2SC4 OCNL -SHRA SLP206

CYQF;2018-05-10 05:00;CYQF 100500Z 09010KT 12SM -SHRA OVC048 03/02 A3003 RMK SC8 WND ESTD SLP200

CYQF;2018-05-10 06:00;CYQF 100600Z 09010KT 12SM OVC040 04/02 A3001 RMK SC8 OCNL -SHRA WND ESTD SLP193

CYQF;2018-05-10 07:00;CYQF 100700Z 09010KT 15SM OVC033 04/02 A3000 RMK SC8 WND ESTD SLP185

CYQF;2018-05-10 08:00;CYQF 100800Z 14010KT 15SM FEW023 OVC031 04/02 A2999 RMK SC1SC7 WND ESTD SLP182

CYQF;2018-05-10 08:40;CYQF 100840Z 14010KT 12SM -SHRA SCT011 OVC030 03/02 A2998 RMK SC3SC5 WND ESTD SLP181

CYQF;2018-05-10 09:00;CYQF 100900Z 12010G17KT 12SM -SHRA SCT008 OVC025 03/02 A2998 RMK SC4SC4 SLP181

CYQF;2018-05-10 10:00;CYQF 101000Z 13012KT 12SM -SHRA BKN009 OVC030 03/02 A2997 RMK SC5SC3 SLP177

CYQF;2018-05-10 11:00;CYQF 101100Z 13012KT 15SM -RA BKN012 OVC031 03/01 A2996 RMK SC5SC3 SLP176

CYQF;2018-05-10 12:00;CYQF 101200Z 13007KT 10SM -RA BKN010 OVC028 02/01 A2995 RMK SC5SC3 SLP175

CYQF;2018-05-10 13:00;CYQF 101300Z 13010KT 8SM -RA BR SCT010 OVC027 02/01 A2995 RMK SF4SC4 SLP175

CYQF;2018-05-10 13:51;CYQF 101351Z 13013KT 6SM -RASN OVC010 02/01 A2995 RMK SC8 SLP177

CYQF;2018-05-10 14:00;CYQF 101400Z 13010G16KT 6SM -RASN BKN010 OVC022 02/01 A2995 RMK ST6SC2 SLP177

CYQF;2018-05-10 14:50;CYQF 101450Z 13009KT 3SM -RA BKN008 OVC020 02/01 A2994 RMK ST7SC1 SLP175

CYQF;2018-05-10 15:00;CYQF 101500Z 13011KT 2 1/2SM -RA BR OVC007 02/01 A2994 RMK ST8 SLP176

CYQF;2018-05-10 15:19;CYQF 101519Z 13007KT 2 1/2SM -RAPL BR OVC006 02/01 A2994 RMK ST8 SLP175

CYQF;2018-05-10 15:48;CYQF 101548Z 12006KT 2 1/2SM -RASN BR OVC007 01/01 A2994 RMK ST8 SLP175

CYQF;2018-05-10 16:00;CYQF 101600Z 13007KT 5SM -RASN BR OVC008 02/01 A2994 RMK SC8 SLP174

CYQF;2018-05-10 16:45;CYQF 101645Z 13009G15KT 6SM -RA OVC008 03/03 A2993 RMK ST8 SLP168

CYQF;2018-05-10 17:00;CYQF 101700Z 13012KT 10SM OVC008 03/02 A2993 RMK SC8 INTMT -RA CIG RAG SLP168

CYQF;2018-05-10 18:00;CYQF 101800Z 13010KT 10SM OVC010 04/02 A2992 RMK SC8 INTMT -RA SLP166

CYQF;2018-05-10 19:00;CYQF 101900Z 14008KT 10SM OVC010 05/03 A2992 RMK SC8 SLP165

CYQF;2018-05-10 20:00;CYQF 102000Z 15009KT 10SM OVC011 06/03 A2991 RMK SC8 SLP161

CYQF;2018-05-10 21:00;CYQF 102100Z 13007KT 10SM OVC011 06/04 A2991 RMK SC8 CIG RAG SLP160

CYQF;2018-05-10 22:00;CYQF 102200Z 16007KT 10SM OVC013 06/04 A2991 RMK SC8 SLP162

CYQF;2018-05-10 23:00;CYQF 102300Z 13008KT 10SM OVC012 06/04 A2991 RMK SC8 SLP159

CYQF;2018-05-11 00:00;CYQF 110000Z 12005KT 15SM OVC012 07/04 A2990 RMK SC8 SLP158

CYQF;2018-05-11 01:00;CYQF 110100Z 11003KT 080V150 12SM OVC015 07/04 A2991 RMK SC8 SLP161

CYQF;2018-05-11 01:35;CYQF 110135Z 13007KT 12SM OVC013 06/04 A2991 RMK SC8 SLP161

CYQF;2018-05-11 02:00;CYQF 110200Z 11006KT 10SM OVC013 06/04 A2991 RMK SC8 SLP163

CYQF;2018-05-11 02:36;CYQF 110236Z 09007KT 8SM -RA OVC010 06/04 A2992 RMK SC8 BR SLP167

CYQF;2018-05-11 03:00;CYQF 110300Z 09006KT 6SM -RA BR OVC010 05/04 A2993 RMK SC8 SLP168

CYQF;2018-05-11 03:52;CYQF 110352Z 09008KT 4SM BR OVC006 05/04 A2995 RMK ST8 SLP176

CYQF;2018-05-11 04:00;CYQF 110400Z 09007KT 4SM BR OVC006 05/04 A2995 RMK ST8 SLP178

CYQF;2018-05-11 05:00;CYQF 110500Z 10006KT 4SM BR OVC007 04/03 A2996 RMK ST8 SLP180

CYQF;2018-05-11 06:00;CYQF 110600Z 08004KT 4SM BR OVC005 04/03 A2997 RMK ST8 SLP183

CYQF;2018-05-11 06:34;CYQF 110634Z 03004KT 3SM BR OVC002 04/03 A2998 RMK ST8 SLP187

CYQF;2018-05-11 07:00;CYQF 110700Z 03004KT 2 1/2SM BR OVC002 04/03 A2999 RMK ST8 SLP187

CYQF;2018-05-11 07:10;CYQF 110710Z 03005KT 2SM -DZ BR OVC002 04/03 A2999 RMK ST8 SLP188

CYQF;2018-05-11 07:48;CYQF 110748Z 04003KT 2SM BR OVC005 04/03 A3000 RMK ST8 SLP193

CYQF;2018-05-11 08:00;CYQF 110800Z 04002KT 2SM BR OVC004 04/03 A3001 RMK ST8 SLP194

CYQF;2018-05-11 09:00;CYQF 110900Z 36004KT 2SM BR OVC006 04/03 A3002 RMK ST8 SLP198

CYQF;2018-05-11 09:21;CYQF 110921Z 36004KT 3SM BR OVC006 04/03 A3002 RMK ST8 SLP199

CYQF;2018-05-11 10:00;CYQF 111000Z 36004KT 4SM BR OVC006 04/03 A3003 RMK ST8 SLP200

CYQF;2018-05-11 10:28;CYQF 111028Z 36003KT 2 1/2SM BR OVC005 03/03 A3004 RMK ST8 SLP203

CYQF;2018-05-11 11:00;CYQF 111100Z 34005KT 2 1/2SM BR OVC005 04/03 A3004 RMK ST8 SLP205

CYQF;2018-05-11 12:00;CYQF 111200Z 33004KT 2 1/2SM BR OVC006 04/03 A3006 RMK ST8 SLP209

CYQF;2018-05-11 13:00;CYQF 111300Z 34003KT 2 1/2SM BR BKN006 OVC014 04/03 A3007 RMK ST5SC3 SLP214

CYQF;2018-05-11 14:00;CYQF 111400Z 01006KT 310V030 6SM VCSH SCT006 BKN017 BKN120 05/04 A3009 RMK ST3CU3AC1 VIS LWR E SLP221

CYQF;2018-05-11 15:00;CYQF 111500Z 34008KT 8SM VCSH OVC014 05/03 A3010 RMK SC8 CU EMBD SLP223

CYQF;2018-05-11 16:00;CYQF 111600Z 34009KT 8SM VCSH OVC014 06/03 A3011 RMK SC8 SLP229

CYQF;2018-05-11 17:00;CYQF 111700Z 36007KT 12SM BKN018 08/04 A3012 RMK SC7 CU EMBD SLP231

CYQF;2018-05-11 18:00;CYQF 111800Z 33011KT 320V040 12SM BKN024 10/05 A3013 RMK CU6 SLP230

CYQF;2018-05-11 19:00;CYQF 111900Z 36009G16KT 12SM FEW026 12/04 A3013 RMK CF2 SLP228 DENSITY ALT 3100FT

CYQF;2018-05-11 20:00;CYQF 112000Z 01006KT 310V060 15SM FEW035 13/04 A3012 RMK CU2 SLP224 DENSITY ALT 3300FT

CYQF;2018-05-11 21:00;CYQF 112100Z VRB06KT 15SM FEW040 16/04 A3010 RMK CU2 SLP215 DENSITY ALT 3600FT

CYQF;2018-05-11 22:00;CYQF 112200Z 36008G20KT 290V050 15SM SCT056 18/03 A3009 RMK CU3 SLP207 DENSITY ALT 3800FT

CYQF;2018-05-11 23:00;CYQF 112300Z 33008G19KT 15SM SCT060 19/02 A3008 RMK CU4 SLP203 DENSITY ALT 3900FT

CYQF;2018-05-12 00:00;CYQF 120000Z 34011G17KT 15SM SCT068 19/01 A3007 RMK CU3 SLP201 DENSITY ALT 3900FT

CYQF;2018-05-12 01:00;CYQF 120100Z 34008KT 15SM SCT070 18/01 A3007 RMK CU3 SLP200 DENSITY ALT 3900FT

CYQF;2018-05-12 02:00;CYQF 120200Z 33006KT 15SM FEW065 SCT090 17/01 A3007 RMK CU1AC2 SLP202 DENSITY ALT 3800FT

CYQF;2018-05-12 03:00;CYQF 120300Z 30003KT 15SM FEW090 16/01 A3008 RMK AC1 SLP203 DENSITY ALT 3600FT

CYQF;2018-05-12 04:00;CYQF 120400Z 27005KT 15SM FEW090 14/02 A3008 RMK AC1 SLP207 DENSITY ALT 3400FT

CYQF;2018-05-12 05:00;CYQF 120500Z 19005KT 15SM FEW090 07/02 A3009 RMK AC1 SLP216

CYQF;2018-05-12 06:00;CYQF 120600Z 18005KT 15SM FEW090 08/03 A3009 RMK AC1 SLP213

CYQF;2018-05-12 07:00;CYQF 120700Z 17006KT 15SM SKC 04/01 A3009 RMK SLP215

CYQF;2018-05-12 08:00;CYQF 120800Z 18006KT 15SM SKC 04/02 A3008 RMK SLP210

CYQF;2018-05-12 09:00;CYQF 120900Z 19005KT 15SM SKC 03/01 A3007 RMK SLP206

CYQF;2018-05-12 10:00;CYQF 121000Z 21004KT 15SM SKC 01/M00 A3007 RMK SLP205

CYQF;2018-05-12 11:00;CYQF 121100Z 21004KT 15SM FEW210 01/M01 A3007 RMK CI1 SLP203

CYQF;2018-05-12 12:00;CYQF 121200Z 19005KT 15SM FEW210 01/M01 A3008 RMK CI2 SLP207

CYQF;2018-05-12 13:00;CYQF 121300Z 20004KT 15SM FEW100 BKN250 04/02 A3008 RMK AC1CI4 SLP203

CYQF;2018-05-12 14:00;CYQF 121400Z 24003KT 200V260 15SM FEW100 SCT250 09/03 A3008 RMK AC1CI3 AC TR SLP201

CYQF;2018-05-12 15:00;CYQF 121500Z 33005KT 280V340 15SM SCT250 14/03 A3008 RMK CI3 SLP194 DENSITY ALT 3400FT

CYQF;2018-05-12 16:00;CYQF 121600Z 33009KT 15SM BKN250 17/02 A3007 RMK CI7 SLP189 DENSITY ALT 3800FT

CYQF;2018-05-12 17:00;CYQF 121700Z 33009KT 15SM BKN250 18/02 A3005 RMK CI6 SLP190 DENSITY ALT 3900FT

CYQF;2018-05-12 18:00;CYQF 121800Z 33005KT 290V010 15SM BKN250 20/02 A3004 RMK CI6 SLP185 DENSITY ALT 4100FT

CYQF;2018-05-12 19:00;CYQF 121900Z 36010KT 15SM FEW070 BKN250 20/01 A3002 RMK CU1CI5 CU TR SLP182 DENSITY ALT 4200FT

CYQF;2018-05-12 20:00;CYQF 122000Z 31014KT 250V340 15SM FEW080 BKN250 21/01 A3000 RMK CU1CI5 SLP175 DENSITY ALT 4300FT

CYQF;2018-05-12 21:00;CYQF 122100Z 33011KT 240V340 15SM FEW070 BKN250 22/01 A2998 RMK CU1CI6 CU TR SLP167 DENSITY ALT 4400FT

CYQF;2018-05-12 22:00;CYQF 122200Z 31008G18KT 250V350 15SM FEW090 BKN250 23/01 A2997 RMK CU1CI6 CU TR SLP163 DENSITY ALT 4600FT

CYQF;2018-05-12 23:00;CYQF 122300Z 33008KT 300V010 15SM FEW090 BKN250 24/M01 A2995 RMK CU1CI4 SLP155 DENSITY ALT 4600FT

CYQF;2018-05-13 00:00;CYQF 130000Z 31008KT 280V360 15SM FEW090 BKN250 23/01 A2993 RMK CU1CI4 SLP152 DENSITY ALT 4600FT

CYQF;2018-05-13 01:00;CYQF 130100Z 33009G15KT 15SM FEW090 BKN250 22/02 A2992 RMK AC1CI6 SLP143 DENSITY ALT 4500FT

CYQF;2018-05-13 02:00;CYQF 130200Z 35006KT 15SM FEW100 BKN250 22/03 A2991 RMK AC1CI5 SLP138 DENSITY ALT 4500FT

CYQF;2018-05-13 03:00;CYQF 130300Z 01005KT 15SM FEW100 SCT250 19/02 A2991 RMK AC1CI2 SLP135 DENSITY ALT 4200FT

CYQF;2018-05-13 04:00;CYQF 130400Z 01002KT 15SM FEW100 FEW250 17/02 A2993 RMK AC1CI1 AC TR SLP138 DENSITY ALT 4000FT

CYQF;2018-05-13 05:00;CYQF 130500Z 02002KT 15SM FEW100 FEW250 14/03 A2995 RMK AC1CI1 SLP147 DENSITY ALT 3600FT

CYQF;2018-05-13 06:00;CYQF 130600Z 34004KT 15SM SCT110 12/03 A2996 RMK AC3 SLP152 DENSITY ALT 3300FT

CYQF;2018-05-13 07:00;CYQF 130700Z 26002KT 15SM FEW100 10/04 A2997 RMK AC2 SLP157 DENSITY ALT 3100FT

CYQF;2018-05-13 08:00;CYQF 130800Z 24003KT 15SM FEW100 10/02 A2998 RMK AC1 SLP158 DENSITY ALT 3100FT

CYQF;2018-05-13 09:00;CYQF 130900Z 27003KT 15SM FEW100 09/02 A2999 RMK AC1 SLP161 DENSITY ALT 3000FT

CYQF;2018-05-13 10:00;CYQF 131000Z 31009KT 15SM SKC 11/02 A3000 RMK SLP163 DENSITY ALT 3100FT

CYQF;2018-05-13 11:00;CYQF 131100Z 31011KT 15SM SKC 12/01 A3001 RMK SLP165 DENSITY ALT 3300FT

CYQF;2018-05-13 12:00;CYQF 131200Z 30010KT 15SM SKC 11/01 A3002 RMK SLP171 DENSITY ALT 3100FT

CYQF;2018-05-13 13:00;CYQF 131300Z 31005KT 15SM SKC 11/02 A3004 RMK SLP176 DENSITY ALT 3200FT

CYQF;2018-05-13 14:00;CYQF 131400Z 32011G16KT 15SM SKC 14/02 A3005 RMK SLP177 DENSITY ALT 3500FT

CYQF;2018-05-13 15:00;CYQF 131500Z 33014KT 15SM SKC 17/02 A3005 RMK SLP179 DENSITY ALT 3700FT

CYQF;2018-05-13 16:00;CYQF 131600Z 34011KT 15SM SKC 18/02 A3005 RMK SLP179 DENSITY ALT 3900FT

CYQF;2018-05-13 17:00;CYQF 131700Z 31013G20KT 15SM SKC 20/01 A3005 RMK SLP181 DENSITY ALT 4100FT

CYQF;2018-05-13 18:00;CYQF 131800Z 35014G25KT 15SM FEW080 21/00 A3005 RMK CF1 CF TR SLP181 DENSITY ALT 4200FT

CYQF;2018-05-13 19:00;CYQF 131900Z 34019G25KT 15SM FEW080 22/00 A3005 RMK CU1 CU TR SLP183 DENSITY ALT 4300FT

CYQF;2018-05-13 20:00;CYQF 132000Z 35016G23KT 330V040 15SM FEW021 FEW250 21/00 A3004 RMK CU1CI1 CU TR CI TR SLP181 DENSITY ALT 4300FT

CYQF;2018-05-13 21:00;CYQF 132100Z 02010G18KT 320V040 15SM FEW084 22/M00 A3004 RMK CU1 CU TR SLP181 DENSITY ALT 4300FT

CYQF;2018-05-13 22:00;CYQF 132200Z 36012KT 320V040 15SM FEW070 22/00 A3003 RMK AC1 SLP176 DENSITY ALT 4400FT

CYQF;2018-05-13 23:00;CYQF 132300Z 02008KT 350V080 15SM FEW070 22/M01 A3002 RMK AC1 SLP170 DENSITY ALT 4400FT

CYQF;2018-05-14 00:00;CYQF 140000Z 03008G16KT 15SM FEW070 22/M00 A3001 RMK AC1 AC TR SLP170 DENSITY ALT 4400FT

CYQF;2018-05-14 01:00;CYQF 140100Z 06006KT 010V090 15SM FEW080 21/01 A3001 RMK AC1 SLP167 DENSITY ALT 4300FT

CYQF;2018-05-14 02:00;CYQF 140200Z 07006KT 030V100 15SM FEW100 20/03 A3001 RMK AC1 SLP167 DENSITY ALT 4200FT

CYQF;2018-05-14 03:00;CYQF 140300Z 11005KT 15SM FEW100 18/01 A3002 RMK AC1 SLP169 DENSITY ALT 3900FT

CYQF;2018-05-14 04:00;CYQF 140400Z 12004KT 15SM FEW100 15/00 A3003 RMK AC1 AC TR SLP174 DENSITY ALT 3500FT

CYQF;2018-05-14 05:00;CYQF 140500Z 12002KT 15SM FEW100 14/00 A3004 RMK AC1 AC TR SLP177 DENSITY ALT 3400FT

CYQF;2018-05-14 06:00;CYQF 140600Z 21004KT 15SM FEW210 11/01 A3004 RMK CI1 SLP178 DENSITY ALT 3100FT

CYQF;2018-05-14 07:00;CYQF 140700Z 00000KT 15SM SKC 08/02 A3003 RMK SLP180

CYQF;2018-05-14 08:00;CYQF 140800Z 21004KT 15SM SKC 10/01 A3003 RMK SLP178 DENSITY ALT 3000FT

CYQF;2018-05-14 09:00;CYQF 140900Z 00000KT 15SM SKC 06/01 A3004 RMK SLP183

CYQF;2018-05-14 10:00;CYQF 141000Z 08002KT 15SM SKC 06/01 A3004 RMK SLP183

CYQF;2018-05-14 11:00;CYQF 141100Z 12002KT 15SM FEW100 06/01 A3002 RMK AC1 SLP178

CYQF;2018-05-14 12:00;CYQF 141200Z 19006KT 15SM FEW100 FEW210 06/01 A3001 RMK AC1CI1 AC TR SLP174

CYQF;2018-05-14 13:00;CYQF 141300Z 19006KT 15SM FEW100 FEW250 09/02 A3000 RMK AC1CI2 AC TR SLP168

CYQF;2018-05-14 14:00;CYQF 141400Z 17010KT 15SM SCT270 14/03 A2998 RMK CI3 SLP157 DENSITY ALT 3500FT

CYQF;2018-05-14 15:00;CYQF 141500Z 19012KT 15SM BKN250 17/03 A2997 RMK CI6 SLP154 DENSITY ALT 3800FT

CYQF;2018-05-14 16:00;CYQF 141600Z 22008KT 180V240 15SM BKN250 18/03 A2997 RMK CI5 SLP153 DENSITY ALT 4000FT

CYQF;2018-05-14 17:00;CYQF 141700Z 24003KT 190V300 15SM FEW250 20/01 A2995 RMK CI2 SLP147 DENSITY ALT 4300FT

CYQF;2018-05-14 18:00;CYQF 141800Z 32005KT 270V010 15SM SCT270 22/01 A2994 RMK CI3 SLP145 DENSITY ALT 4500FT

CYQF;2018-05-14 19:00;CYQF 141900Z VRB06KT 15SM BKN250 25/02 A2992 RMK CI6 SLP137 DENSITY ALT 4800FT

CYQF;2018-05-14 20:00;CYQF 142000Z 31010G15KT 240V340 15SM FEW090 BKN270 26/02 A2990 RMK CU1CI5 CU TR SLP126 DENSITY ALT 5000FT

CYQF;2018-05-14 21:00;CYQF 142100Z 31011KT 260V350 15SM FEW100 BKN270 27/M00 A2989 RMK CU1CI5 CU TR SLP125 DENSITY ALT 5100FT

CYQF;2018-05-14 22:00;CYQF 142200Z 34010KT 330V030 15SM FEW100 BKN250 27/01 A2987 RMK AC1CI5 SLP119 DENSITY ALT 5100FT

CYQF;2018-05-14 23:00;CYQF 142300Z VRB02KT 15SM FEW100 BKN250 27/00 A2985 RMK AC1CI5 SLP112 DENSITY ALT 5100FT

CYQF;2018-05-15 00:00;CYQF 150000Z 00000KT 15SM FEW100 BKN250 26/M01 A2983 RMK AC1CI5 SLP106 DENSITY ALT 5100FT

CYQF;2018-05-15 01:00;CYQF 150100Z VRB02KT 15SM FEW100 BKN250 26/M00 A2981 RMK AC1CI5 AC TR SLP098 DENSITY ALT 5100FT

CYQF;2018-05-15 02:00;CYQF 150200Z 08004KT 040V100 15SM FEW100 BKN250 25/05 A2980 RMK AC1CI5 AC TR SLP088 DENSITY ALT 5000FT

CYQF;2018-05-15 03:00;CYQF 150300Z 12005KT 15SM FEW100 BKN250 22/03 A2980 RMK AC1CI5 SLP088 DENSITY ALT 4600FT

CYQF;2018-05-15 04:00;CYQF 150400Z 18003KT 15SM FEW100 SCT250 18/02 A2980 RMK AC1CI3 AC TR SLP093 DENSITY ALT 4100FT

CYQF;2018-05-15 05:00;CYQF 150500Z VRB05KT 15SM SCT250 19/00 A2982 RMK CI3 SLP095 DENSITY ALT 4200FT

CYQF;2018-05-15 06:00;CYQF 150600Z 23004KT 15SM FEW250 17/M00 A2982 RMK CI2 SLP095 DENSITY ALT 4100FT

CYQF;2018-05-15 07:00;CYQF 150700Z 20007KT 15SM SKC 10/03 A2982 RMK SLP100 DENSITY ALT 3300FT

CYQF;2018-05-15 08:00;CYQF 150800Z 21006KT 15SM SKC 11/01 A2981 RMK SLP097 DENSITY ALT 3300FT

CYQF;2018-05-15 09:00;CYQF 150900Z 20005KT 15SM SKC 08/01 A2981 RMK SLP097 DENSITY ALT 3000FT

CYQF;2018-05-15 10:00;CYQF 151000Z 17006KT 15SM SKC 08/01 A2981 RMK SLP099 DENSITY ALT 3000FT

CYQF;2018-05-15 11:00;CYQF 151100Z 18004KT 160V240 15SM SKC 07/02 A2983 RMK SLP104

CYQF;2018-05-15 12:00;CYQF 151200Z 20003KT 15SM FEW290 06/01 A2983 RMK CI2 SLP107

CYQF;2018-05-15 13:00;CYQF 151300Z 18005KT 15SM BKN290 10/04 A2985 RMK CI6 SLP109 DENSITY ALT 3200FT

CYQF;2018-05-15 14:00;CYQF 151400Z 19005KT 15SM BKN280 15/05 A2986 RMK CI5 SLP108 DENSITY ALT 3800FT

CYQF;2018-05-15 15:00;CYQF 151500Z 24004KT 15SM SCT290 19/05 A2986 RMK CI3 SLP109 DENSITY ALT 4300FT

CYQF;2018-05-15 16:00;CYQF 151600Z VRB02KT 15SM FEW270 23/02 A2986 RMK CI2 SLP108 DENSITY ALT 4600FT

CYQF;2018-05-15 17:00;CYQF 151700Z 03005KT 310V070 15SM FEW088 24/01 A2985 RMK CF1 CF TR SLP103 DENSITY ALT 4800FT

CYQF;2018-05-15 18:00;CYQF 151800Z 06003KT 310V110 15SM FEW100 FEW270 25/01 A2985 RMK CU1CI1 CU TR SLP103 DENSITY ALT 4900FT

CYQF;2018-05-15 19:00;CYQF 151900Z 12003KT 040V160 15SM FEW100 26/02 A2984 RMK CU1 CU TR SLP106 DENSITY ALT 5000FT

CYQF;2018-05-15 20:00;CYQF 152000Z 07005KT 360V160 15SM FEW100 26/02 A2982 RMK CU1 CU TR SLP100 DENSITY ALT 5100FT

CYQF;2018-05-15 21:00;CYQF 152100Z VRB05KT 15SM FEW100 27/01 A2982 RMK CU1 SLP099 DENSITY ALT 5200FT

CYQF;2018-05-15 22:00;CYQF 152200Z 25004KT 240V020 15SM FEW100 27/01 A2980 RMK CU1 SLP093 DENSITY ALT 5200FT

CYQF;2018-05-15 23:00;CYQF 152300Z VRB04KT 15SM FEW100 FEW250 28/03 A2979 RMK CU1CI1 CI TR SLP088 DENSITY ALT 5300FT

CYQF;2018-05-16 00:00;CYQF 160000Z 03006KT 360V130 15SM FEW100 28/03 A2977 RMK AC2 SLP085 DENSITY ALT 5300FT

CYQF;2018-05-16 01:00;CYQF 160100Z 07005KT 15SM SCT120 27/05 A2976 RMK AC3 SLP078 DENSITY ALT 5200FT

CYQF;2018-05-16 02:00;CYQF 160200Z 07016KT 15SM SCT130 25/03 A2977 RMK AC3 SLP076 DENSITY ALT 5000FT

CYQF;2018-05-16 03:00;CYQF 160300Z 06010KT 15SM SCT100 21/04 A2977 RMK AC4 SLP078 DENSITY ALT 4600FT

CYQF;2018-05-16 04:00;CYQF 160400Z 05008KT 15SM SCT120 19/03 A2979 RMK AC4 SLP081 DENSITY ALT 4300FT

CYQF;2018-05-16 05:00;CYQF 160500Z 05008KT 15SM SCT120 18/03 A2980 RMK AC4 SLP088 DENSITY ALT 4200FT

CYQF;2018-05-16 06:00;CYQF 160600Z 02008KT 15SM SCT120 16/02 A2981 RMK AC4 SLP090 DENSITY ALT 3900FT

CYQF;2018-05-16 07:00;CYQF 160700Z 01008KT 15SM SKC 14/02 A2982 RMK SLP095 DENSITY ALT 3700FT

CYQF;2018-05-16 08:00;CYQF 160800Z 02007KT 15SM SKC 14/02 A2982 RMK SLP094 DENSITY ALT 3700FT

CYQF;2018-05-16 09:00;CYQF 160900Z 36010KT 15SM SKC 14/01 A2983 RMK SLP096 DENSITY ALT 3700FT

CYQF;2018-05-16 10:00;CYQF 161000Z 36008KT 15SM SKC 13/02 A2983 RMK SLP099 DENSITY ALT 3600FT

CYQF;2018-05-16 11:00;CYQF 161100Z 35008KT 15SM FEW110 12/02 A2984 RMK AC2 SLP103 DENSITY ALT 3500FT

CYQF;2018-05-16 12:00;CYQF 161200Z 34009KT 15SM FEW120 12/03 A2986 RMK AC2 SLP109 DENSITY ALT 3400FT

CYQF;2018-05-16 13:00;CYQF 161300Z 35006KT 15SM FEW120 13/03 A2987 RMK AC1 AC TR SLP114 DENSITY ALT 3500FT

CYQF;2018-05-16 14:00;CYQF 161400Z 36006KT 15SM FEW120 FEW280 16/03 A2988 RMK AC1CI1 AC TR CI TR SLP114 DENSITY ALT 3900FT

CYQF;2018-05-16 15:00;CYQF 161500Z 02007KT 15SM FEW120 FEW280 19/04 A2989 RMK CI1CI1 SLP118 DENSITY ALT 4100FT

CYQF;2018-05-16 16:00;CYQF 161600Z 05009G15KT 12SM FEW070 FEW280 22/05 A2989 RMK CU1CI1 CU TR HZ SLP119 DENSITY ALT 4500FT

CYQF;2018-05-16 16:50;CYQF 161650Z 08015G21KT 12SM FEW070 FEW280 23/04 A2988 RMK CU1CI1 CU TR HZ SLP114 DENSITY ALT 4600FT

CYQF;2018-05-16 17:00;CYQF 161700Z 06016G22KT 10SM FEW070 FEW280 23/04 A2988 RMK CU1CI1 CU TR HZ SLP116 DENSITY ALT 4600FT

CYQF;2018-05-16 18:00;CYQF 161800Z 05017KT 10SM FEW080 FEW280 24/03 A2989 RMK CU1CI2 CU TR HZ SLP118 DENSITY ALT 4700FT

CYQF;2018-05-16 19:00;CYQF 161900Z 05015G21KT 12SM FEW080 SCT300 24/03 A2988 RMK CU2CI1 HZ SLP118 DENSITY ALT 4800FT

CYQF;2018-05-16 20:00;CYQF 162000Z 06013G22KT 12SM FEW084 SCT300 25/04 A2988 RMK CU2CI1 HZ SLP115 DENSITY ALT 4900FT

CYQF;2018-05-16 21:00;CYQF 162100Z 06008G21KT 020V120 12SM BKN090 25/03 A2988 RMK CU5 SLP116 DENSITY ALT 4800FT

CYQF;2018-05-16 22:00;CYQF 162200Z 07015G20KT 12SM BKN090 24/03 A2987 RMK CU7 SLP114 DENSITY ALT 4800FT

CYQF;2018-05-16 23:00;CYQF 162300Z 07015G21KT 12SM BKN080 BKN270 25/04 A2986 RMK CU6CI1 HZ SLP111 DENSITY ALT 4900FT

CYQF;2018-05-17 00:00;CYQF 170000Z 07015G24KT 12SM SCT080 BKN120 BKN270 23/05 A2986 RMK CU3AC2CI2 SLP114 DENSITY ALT 4700FT

CYQF;2018-05-17 01:00;CYQF 170100Z 08013G21KT 12SM BKN080CB BKN120 22/04 A2985 RMK CB5AC2 OCNL LTGCG W SLP112 DENSITY ALT 4500FT

CYQF;2018-05-17 02:00;CYQF 170200Z 30020G32KT 12SM -SHRA SCT065 BKN080 BKN150 14/09 A2992 RMK CU3AC3AC1 SLP140 DENSITY ALT 3600FT

CYQF;2018-05-17 03:00;CYQF 170300Z 33019G27KT 12SM -SHRA FEW050 OVC080 12/08 A2995 RMK CU2AC6 SLP148 DENSITY ALT 3300FT

CYQF;2018-05-17 04:00;CYQF 170400Z 01015G23KT 12SM -RA OVC084 12/08 A2998 RMK AC8 SLP157 DENSITY ALT 3300FT

CYQF;2018-05-17 04:29;CYQF 170429Z 01016G23KT 12SM OVC070 12/07 A3000 RMK AC8 SLP162 DENSITY ALT 3300FT

CYQF;2018-05-17 04:42;CYQF 170442Z 01016G23KT 10SM -RA OVC075 12/07 A3000 RMK AC8 SLP162 DENSITY ALT 3300FT

CYQF;2018-05-17 05:00;CYQF 170500Z 01017G22KT 12SM -RA OVC080 12/08 A3000 RMK AC8 SLP162 DENSITY ALT 3300FT

CYQF;2018-05-17 06:00;CYQF 170600Z 01012G20KT 12SM -RA OVC080 11/08 A3002 RMK AC8 SLP168 DENSITY ALT 3200FT

CYQF;2018-05-17 07:00;CYQF 170700Z 36013KT 10SM -RA OVC072 10/09 A3005 RMK AC8 SLP179 DENSITY ALT 3000FT

CYQF;2018-05-17 08:00;CYQF 170800Z 02013KT 10SM -RA OVC070 10/09 A3005 RMK AC8 SLP181 DENSITY ALT 3000FT

CYQF;2018-05-17 09:00;CYQF 170900Z 03016KT 10SM -RA SCT040 OVC070 10/09 A3005 RMK SC4AC4 SLP181

CYQF;2018-05-17 10:00;CYQF 171000Z 03017KT 12SM -RA BKN045 OVC070 10/07 A3005 RMK SC6AC2 SLP182

CYQF;2018-05-17 10:35;CYQF 171035Z 03015G21KT 15SM OVC050 10/07 A3006 RMK SC8 SLP185

CYQF;2018-05-17 11:00;CYQF 171100Z 03012G19KT 15SM OVC050 09/07 A3007 RMK SC8 SLP187

CYQF;2018-05-17 12:00;CYQF 171200Z 03014KT 15SM OVC050 09/05 A3009 RMK SC8 SLP195

CYQF;2018-05-17 13:00;CYQF 171300Z 03014KT 10SM OVC045 08/06 A3010 RMK SC8 SLP203

CYQF;2018-05-17 13:31;CYQF 171331Z 05013KT 8SM -RA FEW010 OVC045 07/06 A3011 RMK SF2SC6 SLP207

CYQF;2018-05-17 14:00;CYQF 171400Z 04014KT 5SM -RA BR BKN010 OVC040 07/06 A3012 RMK SC6SC2 CIG RAG SLP219

CYQF;2018-05-17 15:00;CYQF 171500Z 07011KT 3SM -RA BR BKN009 OVC040 07/06 A3014 RMK SC6SC2 CIG RAG SLP228

CYQF;2018-05-17 16:00;CYQF 171600Z 06012KT 5SM -RA BR BKN010 OVC040 08/06 A3015 RMK SC6SC2 CIG RAG SLP232

CYQF;2018-05-17 17:00;CYQF 171700Z 05010KT 5SM -RA BR BKN010 OVC060 08/07 A3015 RMK SC6SC2 CIG RAG SLP232

CYQF;2018-05-17 18:00;CYQF 171800Z 03012G17KT 5SM -RA BR BKN012 OVC060 09/08 A3016 RMK SF7SC1 CIG RAG SLP234

CYQF;2018-05-17 19:00;CYQF 171900Z 03011G17KT 8SM -RA BKN013 OVC050 09/08 A3016 RMK SC7SC1 CIG RAG SLP236

CYQF;2018-05-17 20:00;CYQF 172000Z 04012G19KT 8SM -RA BKN015 OVC050 10/07 A3018 RMK SC5SC3 CIG RAG SLP240

CYQF;2018-05-17 21:00;CYQF 172100Z 04011KT 15SM -RA BKN015 OVC050 10/07 A3018 RMK SC5SC3 CIG RAG SLP243

CYQF;2018-05-17 22:00;CYQF 172200Z 03012KT 8SM -RA SCT014 OVC036 10/07 A3019 RMK SC4SC4 CIG RAG SLP246

CYQF;2018-05-17 23:00;CYQF 172300Z 03011KT 8SM -RA FEW010 SCT017 OVC035 10/08 A3020 RMK SF1SC3SC4 SLP250

CYQF;2018-05-18 00:00;CYQF 180000Z 05007KT 8SM -RA FEW012 BKN022 OVC040 09/08 A3021 RMK SF1SC4SC3 SLP255

CYQF;2018-05-18 01:00;CYQF 180100Z 07011KT 8SM -RA BKN012 OVC060 09/07 A3023 RMK SC5SC3 CIG RAG SLP262

CYQF;2018-05-18 01:39;CYQF 180139Z 03007KT 6SM -RA SCT012 OVC060 08/06 A3024 RMK SC4SC4 SLP266

CYQF;2018-05-18 02:00;CYQF 180200Z 03004KT 6SM -RA SCT012 OVC045 08/07 A3024 RMK SC4SC4 SLP269

CYQF;2018-05-18 02:24;CYQF 180224Z 05008KT 6SM -RA BKN009 OVC017 08/07 A3025 RMK SC5SC3 SLP271

CYQF;2018-05-18 03:00;CYQF 180300Z 07008KT 6SM -RA BKN006 OVC025 08/07 A3026 RMK SC5SC3 SLP275

CYQF;2018-05-18 04:00;CYQF 180400Z 08005KT 10SM SCT006 OVC032 07/07 A3028 RMK SC3SC5 INTMT -RA SLP282

CYQF;2018-05-18 05:00;CYQF 180500Z 10004KT 12SM -RA FEW006 OVC035 07/07 A3029 RMK SF2SC6 SLP285

CYQF;2018-05-18 05:45;CYQF 180545Z VRB02KT 12SM -RA BKN006 OVC030 07/07 A3029 RMK SF5SC3 SLP285

CYQF;2018-05-18 06:00;CYQF 180600Z 12002KT 12SM -RA BKN006 OVC030 08/07 A3029 RMK SF5SC3 SLP284

CYQF;2018-05-18 06:21;CYQF 180621Z 17003KT 110V190 15SM SCT006 OVC015 08/07 A3029 RMK SF4SC4 SLP284

CYQF;2018-05-18 07:00;CYQF 180700Z VRB02KT 15SM SCT015 OVC050 07/07 A3030 RMK SC4SC4 SLP287

CYQF;2018-05-18 08:00;CYQF 180800Z 34002KT 15SM OVC030 07/06 A3030 RMK SC8 SLP286

CYQF;2018-05-18 09:00;CYQF 180900Z 26003KT 12SM SCT030 BKN070 07/07 A3029 RMK SC3AC3 SLP284

CYQF;2018-05-18 10:00;CYQF 181000Z 21002KT 15SM BKN044 06/06 A3030 RMK SC5 SLP287

CYQF;2018-05-18 11:00;CYQF 181100Z 00000KT 10SM MIFG BKN050 06/06 A3031 RMK NS5 SLP291

CYQF;2018-05-18 12:00;CYQF 181200Z 00000KT 12SM MIFG SCT050 BKN090 06/06 A3031 RMK SC3AC2 SLP291

CYQF;2018-05-18 13:00;CYQF 181300Z 00000KT 12SM MIFG FEW050 SCT250 07/06 A3031 RMK SC1CI2 SLP292

CYQF;2018-05-18 14:00;CYQF 181400Z VRB02KT 12SM FEW250 08/06 A3031 RMK CI2 SLP291

CYQF;2018-05-18 15:00;CYQF 181500Z 17007KT 12SM FEW015 SCT250 09/05 A3031 RMK CU1CI2 SLP291

CYQF;2018-05-18 16:00;CYQF 181600Z 16010KT 15SM SCT020 BKN250 11/04 A3031 RMK SC4CI1 SLP290

CYQF;2018-05-18 17:00;CYQF 181700Z 16010KT 15SM BKN040 BKN250 12/04 A3032 RMK CU6CI1 SLP291

CYQF;2018-05-18 18:00;CYQF 181800Z 15009G15KT 15SM BKN035 12/04 A3031 RMK CU6 SLP288

CYQF;2018-05-18 19:00;CYQF 181900Z 16007G15KT 090V180 15SM BKN040 13/04 A3031 RMK CU6 SLP285 DENSITY ALT 3000FT

CYQF;2018-05-18 20:00;CYQF 182000Z 16010G19KT 15SM BKN050 15/03 A3030 RMK CU6 SLP281 DENSITY ALT 3200FT

CYQF;2018-05-18 21:00;CYQF 182100Z 17013G23KT 140V210 15SM BKN063 15/02 A3029 RMK CU5 SLP277 DENSITY ALT 3200FT

CYQF;2018-05-18 22:00;CYQF 182200Z 18012G18KT 15SM BKN064 15/03 A3028 RMK CU7 SLP272 DENSITY ALT 3400FT

CYQF;2018-05-18 23:00;CYQF 182300Z 16015G21KT 150V210 15SM BKN065 16/02 A3026 RMK CU6 SLP267 DENSITY ALT 3500FT

CYQF;2018-05-19 00:00;CYQF 190000Z 18011G18KT 15SM BKN065 15/02 A3025 RMK SC6 SLP264 DENSITY ALT 3300FT

CYQF;2018-05-19 01:00;CYQF 190100Z 18014KT 15SM BKN063 14/01 A3024 RMK SC5 SLP260 DENSITY ALT 3300FT

CYQF;2018-05-19 02:00;CYQF 190200Z 17011KT 15SM SCT060 14/01 A3023 RMK SC3 SLP257 DENSITY ALT 3200FT

CYQF;2018-05-19 03:00;CYQF 190300Z 16009KT 15SM FEW090 12/02 A3023 RMK AC1 SLP258 DENSITY ALT 3000FT

CYQF;2018-05-19 04:00;CYQF 190400Z 14006KT 15SM SKC 09/02 A3024 RMK SLP262

CYQF;2018-05-19 05:00;CYQF 190500Z 16005KT 15SM SKC 08/02 A3023 RMK SLP260

CYQF;2018-05-19 06:00;CYQF 190600Z 19006KT 15SM SKC 06/02 A3023 RMK SLP261

CYQF;2018-05-19 07:00;CYQF 190700Z 18008KT 15SM SKC 06/02 A3022 RMK SLP257

CYQF;2018-05-19 08:00;CYQF 190800Z 19007KT 15SM SKC 06/01 A3021 RMK SLP252

CYQF;2018-05-19 09:00;CYQF 190900Z 17004KT 15SM SKC 05/01 A3020 RMK SLP247

CYQF;2018-05-19 10:00;CYQF 191000Z 17007KT 15SM SKC 03/00 A3018 RMK SLP244

CYQF;2018-05-19 11:00;CYQF 191100Z 15005KT 12SM SKC 03/M00 A3018 RMK SLP242

CYQF;2018-05-19 12:00;CYQF 191200Z 17008KT 15SM SKC 04/00 A3017 RMK SLP239

CYQF;2018-05-19 13:00;CYQF 191300Z 15011KT 15SM SKC 05/01 A3016 RMK SLP236

CYQF;2018-05-19 14:00;CYQF 191400Z 15008KT 15SM SKC 09/03 A3015 RMK SLP228

CYQF;2018-05-19 15:00;CYQF 191500Z 16019G25KT 15SM SKC 12/03 A3015 RMK SLP227 DENSITY ALT 3100FT

CYQF;2018-05-19 16:00;CYQF 191600Z 18019G30KT 15SM SKC 15/03 A3015 RMK SLP226 DENSITY ALT 3400FT

CYQF;2018-05-19 17:00;CYQF 191700Z 18023G31KT 15SM SKC 16/02 A3013 RMK SLP220 DENSITY ALT 3600FT

CYQF;2018-05-19 18:00;CYQF 191800Z 18023G32KT 15SM SKC 17/02 A3012 RMK SLP216 DENSITY ALT 3700FT

CYQF;2018-05-19 19:00;CYQF 191900Z 17023G31KT 15SM SKC 18/02 A3010 RMK SLP209 DENSITY ALT 3800FT

CYQF;2018-05-19 20:00;CYQF 192000Z 17023G31KT 15SM SKC 19/03 A3008 RMK SLP203 DENSITY ALT 3900FT

CYQF;2018-05-19 21:00;CYQF 192100Z 17020G31KT 15SM FEW250 20/04 A3006 RMK CI1 SLP196 DENSITY ALT 4100FT

CYQF;2018-05-19 22:00;CYQF 192200Z 17022G28KT 15SM FEW250 20/03 A3005 RMK CI2 SLP192 DENSITY ALT 4100FT

CYQF;2018-05-19 23:00;CYQF 192300Z 18022G29KT 15SM FEW250 19/02 A3003 RMK CI1 SLP187 DENSITY ALT 4100FT

CYQF;2018-05-20 00:00;CYQF 200000Z 17021G29KT 15SM FEW250 19/02 A3001 RMK CI1 SLP180 DENSITY ALT 4000FT

CYQF;2018-05-20 01:00;CYQF 200100Z 18019G29KT 15SM FEW250 18/03 A3000 RMK CI1 CI TR SLP177 DENSITY ALT 3900FT

CYQF;2018-05-20 02:00;CYQF 200200Z 17020G28KT 15SM FEW250 17/04 A3000 RMK CI1 CI TR SLP172 DENSITY ALT 3800FT

CYQF;2018-05-20 03:00;CYQF 200300Z 17017G26KT 15SM FEW250 14/04 A3000 RMK CI1 SLP170 DENSITY ALT 3600FT

CYQF;2018-05-20 04:00;CYQF 200400Z 17016KT 15SM SCT250 12/04 A3000 RMK CI3 SLP172 DENSITY ALT 3300FT

CYQF;2018-05-20 05:00;CYQF 200500Z 17014KT 15SM FEW250 11/04 A3000 RMK CI1 SLP171 DENSITY ALT 3100FT

CYQF;2018-05-20 06:00;CYQF 200600Z 17012KT 15SM SKC 09/04 A2999 RMK SLP169 DENSITY ALT 3000FT

CYQF;2018-05-20 07:00;CYQF 200700Z 17013KT 15SM SKC 09/04 A2998 RMK SLP163

CYQF;2018-05-20 08:00;CYQF 200800Z 17009KT 15SM SKC 08/04 A2996 RMK SLP157

CYQF;2018-05-20 09:00;CYQF 200900Z 17009KT 15SM SKC 07/04 A2994 RMK SLP151

CYQF;2018-05-20 10:00;CYQF 201000Z 16009KT 15SM SKC 07/04 A2993 RMK SLP147

CYQF;2018-05-20 11:00;CYQF 201100Z 16011KT 15SM SKC 06/04 A2991 RMK SLP143

CYQF;2018-05-20 12:00;CYQF 201200Z 15007KT 15SM SKC 06/04 A2989 RMK SLP135

CYQF;2018-05-20 13:00;CYQF 201300Z 16013KT 15SM SKC 08/05 A2988 RMK SLP129

CYQF;2018-05-20 14:00;CYQF 201400Z 16015KT 15SM FEW250 09/05 A2986 RMK CI1 SLP124 DENSITY ALT 3100FT

CYQF;2018-05-20 15:00;CYQF 201500Z 15015KT 15SM FEW280 11/06 A2985 RMK CI1 CI TR SLP122 DENSITY ALT 3300FT

CYQF;2018-05-20 16:00;CYQF 201600Z 15015KT 15SM FEW250 14/06 A2984 RMK CI1 CI TR SLP116 DENSITY ALT 3700FT

CYQF;2018-05-20 17:00;CYQF 201700Z 15017KT 15SM FEW040 FEW250 16/06 A2982 RMK CU1CI1 CU TR SLP110 DENSITY ALT 3900FT

CYQF;2018-05-20 18:00;CYQF 201800Z 15012G19KT 120V190 15SM FEW048 FEW250 18/07 A2981 RMK CU1CI1 CU TR SLP104 DENSITY ALT 4100FT

CYQF;2018-05-20 19:00;CYQF 201900Z 17007G15KT 120V210 15SM FEW050 FEW250 19/06 A2980 RMK CU1CI1 CU TR CI TR SLP099 DENSITY ALT 4300FT

CYQF;2018-05-20 20:00;CYQF 202000Z 17010KT 090V180 15SM FEW056TCU SCT250 21/06 A2978 RMK TCU1CI2 TCU DIST SW-W SLP092 DENSITY ALT 4500FT

CYQF;2018-05-20 21:00;CYQF 202100Z VRB02KT 15SM FEW056CB SCT250 22/04 A2976 RMK CB2CI2 CB SW-W SLP087 DENSITY ALT 4600FT

CYQF;2018-05-20 22:00;CYQF 202200Z 22003KT 15SM FEW060TCU SCT250 23/04 A2975 RMK TCU1CI2 SLP080 DENSITY ALT 4900FT

CYQF;2018-05-20 23:00;CYQF 202300Z VRB04KT 15SM FEW060 SCT180 24/03 A2974 RMK CU2AC2 SLP078 DENSITY ALT 5000FT

CYQF;2018-05-21 00:00;CYQF 210000Z 30006KT 260V330 15SM SCT080 BKN120 BKN260 24/03 A2974 RMK CU3AC2CI1 VIRGA SE SLP077 DENSITY ALT 4900FT

CYQF;2018-05-21 01:00;CYQF 210100Z 30010KT 15SM SCT080 BKN120 24/03 A2974 RMK CU3AC2 VIRGA SLP075 DENSITY ALT 4900FT

CYQF;2018-05-21 02:00;CYQF 210200Z 29007KT 15SM SCT008 BKN120 20/05 A2975 RMK CU4AC3 VIRGA SLP082 DENSITY ALT 4500FT

CYQF;2018-05-21 03:00;CYQF 210300Z 25006KT 15SM SCT080 BKN150 19/04 A2975 RMK CU3AC4 SLP081 DENSITY ALT 4400FT

CYQF;2018-05-21 04:00;CYQF 210400Z 31005KT 15SM FEW080 BKN150 18/04 A2977 RMK CU2AC4 VIRGA PRESRR SLP086 DENSITY ALT 4300FT

CYQF;2018-05-21 05:00;CYQF 210500Z 30007KT 15SM FEW080 BKN170 16/06 A2980 RMK CU1ACC5 OCNL LTGIC DIST N SLP096 DENSITY ALT 3900FT

CYQF;2018-05-21 06:00;CYQF 210600Z 26010KT 15SM OVC080 16/05 A2981 RMK AC8 SLP099 DENSITY ALT 4000FT

CYQF;2018-05-21 06:14;CYQF 210614Z 30008G19KT 260V330 15SM -SHRA OVC080 16/06 A2983 RMK ACC8 PRESRR SLP104 DENSITY ALT 3900FT

CYQF;2018-05-21 06:43;CYQF 210643Z VRB02KT 15SM BKN080 16/06 A2984 RMK ACC7 SLP108 DENSITY ALT 3900FT

CYQF;2018-05-21 07:00;CYQF 210700Z 26004KT 240V310 15SM BKN080 15/07 A2984 RMK ACC7 SLP109 DENSITY ALT 3700FT

CYQF;2018-05-21 08:00;CYQF 210800Z 32004KT 15SM FEW080 SCT170 13/06 A2984 RMK AC2AC1 SLP108 DENSITY ALT 3600FT

CYQF;2018-05-21 09:00;CYQF 210900Z 28008KT 15SM SKC 11/06 A2984 RMK SLP111 DENSITY ALT 3300FT

CYQF;2018-05-21 10:00;CYQF 211000Z 28008KT 15SM FEW250 10/07 A2985 RMK CI1 SLP113 DENSITY ALT 3200FT

CYQF;2018-05-21 11:00;CYQF 211100Z 32006KT 270V340 15SM BKN250 10/07 A2987 RMK CI6 SLP117 DENSITY ALT 3100FT

CYQF;2018-05-21 12:00;CYQF 211200Z 28007KT 15SM FEW100 BKN250 09/06 A2988 RMK AC1CI5 SLP122 DENSITY ALT 3100FT

CYQF;2018-05-21 13:00;CYQF 211300Z 31004KT 15SM FEW100 BKN250 11/07 A2989 RMK ACC1CI5 SLP124 DENSITY ALT 3300FT

CYQF;2018-05-21 14:00;CYQF 211400Z 31007KT 15SM FEW100 BKN250 15/08 A2990 RMK ACC1CI5 SLP130 DENSITY ALT 3700FT

CYQF;2018-05-21 15:00;CYQF 211500Z 33013KT 15SM FEW100 BKN250 17/06 A2991 RMK ACC1CI6 SLP132 DENSITY ALT 3900FT

CYQF;2018-05-21 16:00;CYQF 211600Z 01009G16KT 320V030 15SM FEW080 BKN250 18/07 A2992 RMK AC2CI3 SLP132 DENSITY ALT 4000FT

CYQF;2018-05-21 17:00;CYQF 211700Z 34011G18KT 15SM FEW050 SCT250 19/07 A2991 RMK CU1CI2 SLP133 DENSITY ALT 4200FT

CYQF;2018-05-21 18:00;CYQF 211800Z 30009G15KT 290V030 15SM FEW060 FEW270 21/05 A2991 RMK CU1CI1 SLP130 DENSITY ALT 4300FT

CYQF;2018-05-21 19:00;CYQF 211900Z 30009KT 250V340 15SM BKN064 21/05 A2991 RMK CU5 SLP131 DENSITY ALT 4400FT

CYQF;2018-05-21 20:00;CYQF 212000Z 35008G18KT 300V020 15SM BKN064 21/05 A2991 RMK CU5 SLP133 DENSITY ALT 4400FT

CYQF;2018-05-21 21:00;CYQF 212100Z 31012G19KT 290V030 15SM SCT064 22/04 A2990 RMK CU4 SLP132 DENSITY ALT 4500FT

CYQF;2018-05-21 22:00;CYQF 212200Z 01004G16KT 310V040 15SM SCT080 22/04 A2990 RMK CU4 SLP130 DENSITY ALT 4500FT

CYQF;2018-05-21 23:00;CYQF 212300Z 33009G15KT 260V340 15SM SCT072 23/04 A2989 RMK CU3 SLP128 DENSITY ALT 4600FT

CYQF;2018-05-22 00:00;CYQF 220000Z 31004G15KT 280V010 15SM FEW070 22/05 A2989 RMK CU1 SLP127 DENSITY ALT 4600FT

CYQF;2018-05-22 01:00;CYQF 220100Z 32008KT 300V050 15SM FEW070 22/04 A2989 RMK CU1 CU TR SLP125 DENSITY ALT 4600FT

CYQF;2018-05-22 02:00;CYQF 220200Z 36007KT 15SM FEW065 21/05 A2989 RMK CU1 CU TR SLP123 DENSITY ALT 4400FT

CYQF;2018-05-22 03:00;CYQF 220300Z 02006KT 15SM FEW065 19/05 A2990 RMK CU1 CU TR SLP127 DENSITY ALT 4200FT

CYQF;2018-05-22 04:00;CYQF 220400Z 00000KT 15SM FEW080 15/05 A2991 RMK AC1 AC TR SLP134 DENSITY ALT 3700FT

CYQF;2018-05-22 05:00;CYQF 220500Z VRB02KT 15SM FEW080 14/05 A2992 RMK AC1 SLP138 DENSITY ALT 3600FT

CYQF;2018-05-22 06:00;CYQF 220600Z 21004KT 15SM SCT100 12/05 A2993 RMK AC3 SLP143 DENSITY ALT 3300FT

CYQF;2018-05-22 07:00;CYQF 220700Z VRB02KT 15SM SCT100 11/06 A2994 RMK AC4 SLP144 DENSITY ALT 3300FT

CYQF;2018-05-22 08:00;CYQF 220800Z 25003KT 15SM SCT100 12/06 A2995 RMK AC4 SLP146 DENSITY ALT 3300FT

CYQF;2018-05-22 09:00;CYQF 220900Z 26006KT 15SM SCT100 14/06 A2996 RMK AC4 SLP148 DENSITY ALT 3500FT

CYQF;2018-05-22 10:00;CYQF 221000Z 22006KT 15SM SCT110 12/06 A2997 RMK AC3 SLP154 DENSITY ALT 3200FT

CYQF;2018-05-22 11:00;CYQF 221100Z 11002KT 15SM BKN110 11/07 A2998 RMK AC5 SLP156 DENSITY ALT 3200FT

CYQF;2018-05-22 12:00;CYQF 221200Z 00000KT 15SM FEW090 BKN120 11/07 A2998 RMK AC1AC4 SLP158 DENSITY ALT 3200FT

CYQF;2018-05-22 13:00;CYQF 221300Z 31002KT 15SM FEW080 SCT100 13/08 A3000 RMK AC1AC2 SLP161 DENSITY ALT 3300FT

CYQF;2018-05-22 14:00;CYQF 221400Z 30004KT 15SM SCT100 17/08 A3000 RMK AC3 SLP160 DENSITY ALT 3800FT

CYQF;2018-05-22 15:00;CYQF 221500Z 25005KT 15SM FEW100 19/09 A3001 RMK AC2 SLP163 DENSITY ALT 4000FT

CYQF;2018-05-22 16:00;CYQF 221600Z 24003KT 180V290 15SM FEW150 20/07 A3000 RMK AC1 SLP163 DENSITY ALT 4200FT

CYQF;2018-05-22 17:00;CYQF 221700Z VRB02KT 15SM FEW064 FEW250 22/07 A3000 RMK CU1CI1 CU TR CI TR SLP162 DENSITY ALT 4400FT

CYQF;2018-05-22 18:00;CYQF 221800Z VRB03KT 15SM SCT072 23/04 A3000 RMK CU3 SLP161 DENSITY ALT 4600FT

CYQF;2018-05-22 19:00;CYQF 221900Z VRB02KT 15SM SCT080 25/06 A2999 RMK CU3 SLP156 DENSITY ALT 4700FT

CYQF;2018-05-22 20:00;CYQF 222000Z VRB04KT 15SM BKN080 25/05 A2997 RMK CU6 SLP151 DENSITY ALT 4800FT

CYQF;2018-05-22 21:00;CYQF 222100Z 09005KT 050V150 15SM BKN080 25/06 A2996 RMK CU5 SLP145 DENSITY ALT 4800FT

CYQF;2018-05-22 22:00;CYQF 222200Z VRB06KT 15SM SCT090 26/04 A2995 RMK CU4 SLP141 DENSITY ALT 4900FT

CYQF;2018-05-22 23:00;CYQF 222300Z 17007KT 110V180 15SM BKN080 25/04 A2994 RMK CU5 SLP140 DENSITY ALT 4800FT

CYQF;2018-05-23 00:00;CYQF 230000Z 09005KT 050V130 15SM SCT120 26/04 A2993 RMK AC4 SLP135 DENSITY ALT 4900FT

CYQF;2018-05-23 01:00;CYQF 230100Z 12007KT 15SM FEW120 25/05 A2992 RMK AC2 SLP131 DENSITY ALT 4800FT

CYQF;2018-05-23 02:00;CYQF 230200Z 11009KT 15SM FEW120 24/05 A2991 RMK AC1 AC TR SLP126 DENSITY ALT 4800FT

CYQF;2018-05-23 03:00;CYQF 230300Z 10007KT 15SM SKC 22/05 A2991 RMK SLP127 DENSITY ALT 4500FT

CYQF;2018-05-23 04:00;CYQF 230400Z 11006KT 15SM SKC 18/05 A2992 RMK SLP132 DENSITY ALT 4100FT

CYQF;2018-05-23 05:00;CYQF 230500Z 14008KT 15SM SKC 17/05 A2993 RMK SLP135 DENSITY ALT 3900FT

CYQF;2018-05-23 06:00;CYQF 230600Z 17006KT 15SM SKC 15/05 A2994 RMK SLP137 DENSITY ALT 3700FT

CYQF;2018-05-23 07:00;CYQF 230700Z 13007KT 15SM SKC 14/05 A2993 RMK SLP135 DENSITY ALT 3600FT

CYQF;2018-05-23 08:00;CYQF 230800Z 15004KT 15SM FEW100 14/04 A2993 RMK AC1 SLP134 DENSITY ALT 3500FT

CYQF;2018-05-23 09:00;CYQF 230900Z 12002KT 15SM FEW100 12/04 A2993 RMK AC2 SLP135 DENSITY ALT 3300FT

CYQF;2018-05-23 10:00;CYQF 231000Z VRB02KT 15SM SCT100 11/04 A2992 RMK AC3 SLP133 DENSITY ALT 3300FT

CYQF;2018-05-23 11:00;CYQF 231100Z 04003KT 15SM SCT100 10/05 A2991 RMK AC3 SLP133 DENSITY ALT 3100FT

CYQF;2018-05-23 12:00;CYQF 231200Z VRB02KT 15SM FEW100 12/05 A2991 RMK AC2 SLP128 DENSITY ALT 3400FT

CYQF;2018-05-23 13:00;CYQF 231300Z 19003KT 15SM FEW100 12/05 A2991 RMK AC2 SLP129 DENSITY ALT 3400FT

CYQF;2018-05-23 14:00;CYQF 231400Z VRB02KT 15SM SCT100 15/07 A2991 RMK AC3 SLP127 DENSITY ALT 3700FT

CYQF;2018-05-23 15:00;CYQF 231500Z 14009KT 15SM FEW100 20/07 A2990 RMK AC2 SLP121 DENSITY ALT 4300FT

CYQF;2018-05-23 16:00;CYQF 231600Z 16008KT 130V200 15SM FEW100 23/06 A2989 RMK AC1 AC TR SLP117 DENSITY ALT 4600FT

CYQF;2018-05-23 17:00;CYQF 231700Z 15011KT 140V200 15SM FEW070 FEW250 24/06 A2988 RMK CU1CI1 CU TR SLP113 DENSITY ALT 4800FT

CYQF;2018-05-23 18:00;CYQF 231800Z 16005G18KT 110V180 15SM FEW080 26/06 A2987 RMK CU2 SLP111 DENSITY ALT 5000FT

CYQF;2018-05-23 19:00;CYQF 231900Z 11009G17KT 050V130 15SM BKN090 26/05 A2985 RMK CU5 SLP105 DENSITY ALT 5000FT

CYQF;2018-05-23 20:00;CYQF 232000Z 17011G16KT 15SM BKN100 27/05 A2983 RMK CU6 SLP099 DENSITY ALT 5100FT

CYQF;2018-05-23 21:00;CYQF 232100Z 13008KT 15SM BKN096 25/07 A2982 RMK CU5 SLP098 DENSITY ALT 5000FT

CYQF;2018-05-23 22:00;CYQF 232200Z 14013KT 15SM BKN096 BKN250 27/03 A2980 RMK CU5CI1 CI TR SLP091 DENSITY ALT 5200FT

CYQF;2018-05-23 23:00;CYQF 232300Z 11010G17KT 060V130 15SM SCT090 BKN270 27/06 A2979 RMK CU3CI2 SLP086 DENSITY ALT 5200FT

CYQF;2018-05-24 00:00;CYQF 240000Z 14011G17KT 080V150 15SM FEW090 SCT270 27/04 A2977 RMK CU2CI2 SLP078 DENSITY ALT 5200FT

CYQF;2018-05-24 01:00;CYQF 240100Z 12010KT 070V130 15SM FEW090 SCT270 26/05 A2976 RMK CU2CI1 SLP075 DENSITY ALT 5200FT

CYQF;2018-05-24 02:00;CYQF 240200Z 11010G15KT 15SM FEW080 FEW270 25/04 A2975 RMK CU1CI1 SLP072 DENSITY ALT 5000FT

CYQF;2018-05-24 03:00;CYQF 240300Z 12008KT 15SM FEW072 FEW150 21/05 A2975 RMK CU1AC1 SLP071 DENSITY ALT 4600FT

CYQF;2018-05-24 04:00;CYQF 240400Z 12008KT 15SM FEW050 SCT110 20/05 A2976 RMK CU1AC2 SLP070 DENSITY ALT 4400FT

CYQF;2018-05-24 05:00;CYQF 240500Z 14009KT 15SM SCT100 18/06 A2976 RMK AC3 SLP071 DENSITY ALT 4300FT

CYQF;2018-05-24 06:00;CYQF 240600Z 14006KT 15SM SCT100 17/06 A2975 RMK ACC4 LTG N-NE SLP069 DENSITY ALT 4100FT

CYQF;2018-05-24 07:00;CYQF 240700Z 18004KT 15SM SCT100 15/05 A2974 RMK ACC3 SLP066 DENSITY ALT 3900FT

CYQF;2018-05-24 08:00;CYQF 240800Z 07005KT 15SM SCT100 BKN150 15/06 A2975 RMK ACC3AC2 LTGCC N SLP068 DENSITY ALT 3900FT

CYQF;2018-05-24 09:00;CYQF 240900Z 08007KT 15SM FEW100 SCT150 BKN200 15/07 A2974 RMK ACC1AC2CI2 SLP065 DENSITY ALT 4000FT

CYQF;2018-05-24 10:00;CYQF 241000Z 07005KT 15SM FEW110 SCT150 BKN200 14/06 A2973 RMK AC2AC1CI2 SLP063 DENSITY ALT 3800FT

CYQF;2018-05-24 11:00;CYQF 241100Z 15006KT 140V200 15SM SCT120 BKN200 14/06 A2972 RMK AC4CI2 SLP061 DENSITY ALT 3800FT

CYQF;2018-05-24 12:00;CYQF 241200Z 18003KT 15SM BKN110 BKN200 14/07 A2974 RMK ACC5CI2 VIRGA SLP066 DENSITY ALT 3800FT

CYQF;2018-05-24 13:00;CYQF 241300Z 08003KT 15SM VCSH SCT070TCU BKN120 BKN180 13/08 A2972 RMK TCU3AC2AC1 SLP061 DENSITY ALT 3700FT

CYQF;2018-05-24 14:00;CYQF 241400Z 22007KT 210V290 15SM SCT070TCU BKN120 BKN250 16/07 A2972 RMK TCU3AC2CI1 SLP060 DENSITY ALT 4100FT

CYQF;2018-05-24 15:00;CYQF 241500Z VRB02KT 15SM SCT120 BKN210 19/07 A2972 RMK AC3CI3 VIRGA SLP059 DENSITY ALT 4400FT

CYQF;2018-05-24 16:00;CYQF 241600Z 20005KT 15SM FEW060 FEW120 BKN270 21/07 A2970 RMK CU1AC2CI3 CU TR SLP054 DENSITY ALT 4700FT

CYQF;2018-05-24 17:00;CYQF 241700Z VRB04KT 15SM FEW072 FEW120 SCT250 23/05 A2970 RMK CU1AC1CI2 CU TR SLP051 DENSITY ALT 4900FT

CYQF;2018-05-24 18:00;CYQF 241800Z 34008KT 280V010 15SM FEW080 SCT120 BKN280 25/05 A2970 RMK CU1AC2CI4 SLP052 DENSITY ALT 5000FT

CYQF;2018-05-24 19:00;CYQF 241900Z 27012G17KT 250V350 15SM FEW080CB SCT120 BKN280 25/05 A2970 RMK CB2AC2CI2 SLP055 DENSITY ALT 5100FT

CYQF;2018-05-24 20:00;CYQF 242000Z 31012G19KT 260V330 15SM SCT088TCU BKN120 BKN280 27/05 A2970 RMK TCU3AC2CI2 SLP050 DENSITY ALT 5300FT

CYQF;2018-05-24 21:00;CYQF 242100Z 28009G15KT 250V320 15SM SCT090TCU BKN140 BKN280 26/03 A2969 RMK TCU4AC2CI1 SLP046 DENSITY ALT 5300FT

CYQF;2018-05-24 22:00;CYQF 242200Z 32012G29KT 260V350 15SM SCT090CB SCT140 BKN280 27/05 A2968 RMK CB3AC1CI3 SLP046 DENSITY ALT 5300FT

CYQF;2018-05-24 23:00;CYQF 242300Z 33014G21KT 15SM SCT084TCU BKN130 25/04 A2970 RMK TCU3ACC3 SLP053 DENSITY ALT 5100FT

CYQF;2018-05-25 00:00;CYQF 250000Z 33018G26KT 15SM SCT080TCU BKN120 25/04 A2971 RMK TCU3ACC3 SLP059 DENSITY ALT 5000FT

CYQF;2018-05-25 01:00;CYQF 250100Z 33015G23KT 15SM SCT090TCU BKN170 23/06 A2973 RMK TCU3AC4 SLP067 DENSITY ALT 4900FT

CYQF;2018-05-25 02:00;CYQF 250200Z 34011G20KT 15SM BKN120 23/07 A2975 RMK AC6 SLP072 DENSITY ALT 4800FT

CYQF;2018-05-25 03:00;CYQF 250300Z 33011KT 15SM BKN120 BKN280 21/06 A2977 RMK AC6CI1 SLP078 DENSITY ALT 4600FT

CYQF;2018-05-25 04:00;CYQF 250400Z 35007KT 15SM BKN120 19/07 A2980 RMK AC7 SLP086 DENSITY ALT 4300FT

CYQF;2018-05-25 05:00;CYQF 250500Z 32004KT 15SM BKN110 17/07 A2981 RMK AC6 SLP092 DENSITY ALT 4100FT

CYQF;2018-05-25 06:00;CYQF 250600Z 27006KT 15SM SCT100 14/07 A2982 RMK AC3 SLP097 DENSITY ALT 3700FT

CYQF;2018-05-25 07:00;CYQF 250700Z 24003KT 230V290 15SM FEW140 12/06 A2983 RMK AC1 SLP101 DENSITY ALT 3500FT

CYQF;2018-05-25 08:00;CYQF 250800Z 22005KT 200V270 15SM SKC 11/05 A2983 RMK SLP101 DENSITY ALT 3300FT

CYQF;2018-05-25 09:00;CYQF 250900Z 23007KT 15SM SKC 12/07 A2982 RMK SLP098 DENSITY ALT 3400FT

CYQF;2018-05-25 10:00;CYQF 251000Z 25005KT 15SM FEW130 11/07 A2983 RMK AC1 SLP100 DENSITY ALT 3400FT

CYQF;2018-05-25 11:00;CYQF 251100Z VRB04KT 15SM FEW250 09/06 A2984 RMK CI2 SLP107 DENSITY ALT 3100FT

CYQF;2018-05-25 12:00;CYQF 251200Z 24005KT 15SM FEW130 BKN250 11/07 A2984 RMK AC1CI4 SLP107 DENSITY ALT 3300FT

CYQF;2018-05-25 13:00;CYQF 251300Z 21005KT 15SM FEW150 SCT280 12/07 A2985 RMK AC1CC3 AC TR SLP110 DENSITY ALT 3400FT

CYQF;2018-05-25 14:00;CYQF 251400Z 26004KT 15SM FEW150 SCT280 15/08 A2985 RMK AC1CI3 AC TR SLP108 DENSITY ALT 3800FT

CYQF;2018-05-25 15:00;CYQF 251500Z 24003KT 15SM FEW150 BKN280 17/10 A2984 RMK AC1CI5 AC TR SLP104 DENSITY ALT 4100FT

CYQF;2018-05-25 16:00;CYQF 251600Z VRB03KT 15SM BKN280 21/07 A2984 RMK CI5 SLP102 DENSITY ALT 4400FT

CYQF;2018-05-25 17:00;CYQF 251700Z 05002KT 15SM FEW064 BKN280 22/07 A2983 RMK CU1CI5 CU TR SLP098 DENSITY ALT 4600FT

CYQF;2018-05-25 18:00;CYQF 251800Z 35005KT 310V070 15SM FEW065 BKN280 23/06 A2982 RMK CU1CI4 SLP098 DENSITY ALT 4700FT

CYQF;2018-05-25 19:00;CYQF 251900Z 14005KT 060V180 15SM FEW072 FEW120 25/07 A2980 RMK CU1AC1 AC TR SLP093 DENSITY ALT 4900FT

CYQF;2018-05-25 20:00;CYQF 252000Z VRB04KT 15SM FEW072 SCT120 25/07 A2978 RMK CU1ACC2 SLP086 DENSITY ALT 5000FT

CYQF;2018-05-25 21:00;CYQF 252100Z 18006KT 15SM SCT090 BKN140 BKN280 25/06 A2977 RMK CU4AC1CI1 SLP080 DENSITY ALT 5000FT

CYQF;2018-05-25 22:00;CYQF 252200Z 20003KT 160V220 15SM SCT090 BKN140 25/04 A2974 RMK CU3AC4 VIRGA SLP071 DENSITY ALT 5000FT

CYQF;2018-05-25 23:00;CYQF 252300Z VRB07KT 15SM BKN084 27/06 A2971 RMK CU5 SLP062 DENSITY ALT 5300FT

CYQF;2018-05-26 00:00;CYQF 260000Z 08014KT 030V100 15SM BKN100 26/07 A2969 RMK AC5 CU SLP052 DENSITY ALT 5200FT

CYQF;2018-05-26 01:00;CYQF 260100Z 16012G18KT 15SM BKN100 BKN300 26/05 A2967 RMK AC5CI1 SLP046 DENSITY ALT 5300FT

CYQF;2018-05-26 02:00;CYQF 260200Z 16009KT 15SM BKN110 BKN300 25/05 A2965 RMK AC5CI1 SLP037 DENSITY ALT 5100FT

CYQF;2018-05-26 03:00;CYQF 260300Z 11004KT 15SM SCT140 BKN300 23/06 A2964 RMK AC3CI4 SLP034 DENSITY ALT 4900FT

CYQF;2018-05-26 04:00;CYQF 260400Z 14004KT 100V160 15SM SCT120 BKN300 21/05 A2964 RMK AC3CI4 SLP032 DENSITY ALT 4700FT

CYQF;2018-05-26 05:00;CYQF 260500Z 15012KT 15SM SCT120 BKN270 19/06 A2964 RMK AC4CI2 SLP030 DENSITY ALT 4500FT

CYQF;2018-05-26 06:00;CYQF 260600Z 17011KT 15SM BKN140 20/06 A2963 RMK AC6 SLP027 DENSITY ALT 4600FT

CYQF;2018-05-26 07:00;CYQF 260700Z 21009KT 15SM SCT140 BKN270 18/07 A2965 RMK AC4CI2 SLP033 DENSITY ALT 4300FT

CYQF;2018-05-26 08:00;CYQF 260800Z 21010KT 15SM SCT140 BKN270 17/07 A2966 RMK AC3CI2 SLP038 DENSITY ALT 4200FT

CYQF;2018-05-26 09:00;CYQF 260900Z 23003KT 15SM SCT120 BKN250 16/07 A2967 RMK AC3CI2 SLP042 DENSITY ALT 4100FT

CYQF;2018-05-26 10:00;CYQF 261000Z 35016G22KT 15SM SCT120 BKN270 14/09 A2972 RMK AC4CI2 SLP061 DENSITY ALT 3800FT

CYQF;2018-05-26 11:00;CYQF 261100Z 34015G23KT 15SM BKN120 BKN250 12/08 A2975 RMK AC5CI1 CI TR SLP072 DENSITY ALT 3500FT

CYQF;2018-05-26 12:00;CYQF 261200Z 34012G17KT 15SM BKN120 BKN250 11/07 A2978 RMK AC5CI2 SLP084 DENSITY ALT 3400FT

CYQF;2018-05-26 13:00;CYQF 261300Z 33012G18KT 15SM SCT120 BKN250 11/07 A2982 RMK ACC4CI3 VIRGA SLP096 DENSITY ALT 3400FT

CYQF;2018-05-26 14:00;CYQF 261400Z 34014KT 15SM FEW050 SCT120 BKN250 13/06 A2984 RMK SC1AC2CI3 SLP103 DENSITY ALT 3500FT

CYQF;2018-05-26 15:00;CYQF 261500Z 33015KT 15SM FEW030 FEW120 BKN250 13/06 A2985 RMK SC1AC1CI3 SLP110 DENSITY ALT 3600FT

CYQF;2018-05-26 16:00;CYQF 261600Z 33012KT 15SM FEW120 SCT250 14/05 A2984 RMK AC1CI3 SLP107 DENSITY ALT 3700FT

CYQF;2018-05-26 17:00;CYQF 261700Z 33009G17KT 310V010 15SM FEW048 FEW250 16/03 A2984 RMK CU1CI2 CU TR CU W SLP106 DENSITY ALT 3900FT

CYQF;2018-05-26 18:00;CYQF 261800Z 01012KT 15SM FEW050 FEW250 17/03 A2983 RMK CU1CI2 CU TR SLP103 DENSITY ALT 4000FT

CYQF;2018-05-26 19:00;CYQF 261900Z 02007KT 330V060 15SM FEW064 FEW250 18/03 A2981 RMK CU1CI1 CU TR SLP096 DENSITY ALT 4200FT

CYQF;2018-05-26 20:00;CYQF 262000Z 07004KT 020V130 15SM FEW064 FEW100 FEW300 18/02 A2980 RMK CU1AC1CI1 CU TR AC TR CI TR SLP093 DENSITY ALT 4200FT

CYQF;2018-05-26 21:00;CYQF 262100Z 02007KT 360V100 15SM FEW060 SCT250 20/04 A2980 RMK CU1CI3 CU TR SLP094 DENSITY ALT 4400FT

CYQF;2018-05-26 22:00;CYQF 262200Z 11005KT 060V130 15SM FEW064 SCT250 21/05 A2979 RMK CU1CI2 SLP090 DENSITY ALT 4500FT

CYQF;2018-05-26 23:00;CYQF 262300Z 11009KT 040V140 15SM FEW064 SCT300 22/05 A2979 RMK CU1CI2 SLP090 DENSITY ALT 4600FT

CYQF;2018-05-27 00:00;CYQF 270000Z 16003KT 070V210 15SM FEW060TCU BKN300 21/06 A2978 RMK TCU1CI4 SLP090 DENSITY ALT 4500FT

CYQF;2018-05-27 01:00;CYQF 270100Z 12008KT 15SM FEW060TCU BKN300 20/05 A2978 RMK TCU1CI6 SLP090 DENSITY ALT 4400FT

CYQF;2018-05-27 02:00;CYQF 270200Z 09009KT 15SM FEW060 SCT220 BKN300 20/05 A2979 RMK CU1CI2CI2 SLP091 DENSITY ALT 4500FT

CYQF;2018-05-27 03:00;CYQF 270300Z 09008KT 15SM FEW050TCU BKN300 19/05 A2979 RMK TCU2CI5 SLP094 DENSITY ALT 4300FT

CYQF;2018-05-27 04:00;CYQF 270400Z 08005KT 15SM SCT040CB BKN300 15/06 A2981 RMK CB3CI4 LTGCGCC S AND W SLP103 DENSITY ALT 3900FT

CYQF;2018-05-27 05:00;CYQF 270500Z 03010G19KT 340V040 15SM -SHRA SCT040CB BKN070 BKN250 17/04 A2987 RMK CB3AC2CI2 FRQ LTGCGCC SE SLP119 DENSITY ALT 4000FT

CYQF;2018-05-27 06:00;CYQF 270600Z 36008KT 360V060 15SM -SHRA BKN080TCU BKN140 14/06 A2988 RMK TCU5AC2 SLP127 DENSITY ALT 3600FT

CYQF;2018-05-27 06:45;CYQF 270645Z 03009KT 330V050 15SM BKN080 12/07 A2992 RMK AC7 SLP141 DENSITY ALT 3400FT

CYQF;2018-05-27 07:00;CYQF 270700Z 06006KT 15SM BKN080 12/07 A2992 RMK AC6 SLP140 DENSITY ALT 3300FT

CYQF;2018-05-27 08:00;CYQF 270800Z 36007KT 15SM SCT080 10/07 A2995 RMK AC4 SLP151 DENSITY ALT 3100FT

CYQF;2018-05-27 09:00;CYQF 270900Z 01004KT 15SM BKN140 10/06 A2997 RMK AC5 SLP159 DENSITY ALT 3000FT

CYQF;2018-05-27 10:00;CYQF 271000Z VRB02KT 15SM FEW140 08/04 A2999 RMK AC2 SLP165

CYQF;2018-05-27 11:00;CYQF 271100Z 24002KT 15SM FEW140 06/05 A3000 RMK AC2 SLP170

CYQF;2018-05-27 12:00;CYQF 271200Z 29008KT 15SM FEW140 BKN250 07/05 A3002 RMK AC2CI3 SLP178

CYQF;2018-05-27 13:00;CYQF 271300Z 30004KT 15SM FEW140 BKN250 08/06 A3005 RMK AC1CI4 SLP186

CYQF;2018-05-27 14:00;CYQF 271400Z VRB02KT 15SM SCT250 12/07 A3007 RMK CI4 SLP188 DENSITY ALT 3200FT

CYQF;2018-05-27 15:00;CYQF 271500Z 14003KT 15SM SCT250 14/06 A3008 RMK CI4 SLP192 DENSITY ALT 3400FT

CYQF;2018-05-27 16:00;CYQF 271600Z 14006KT 060V160 15SM SCT250 16/06 A3007 RMK CI4 SLP191 DENSITY ALT 3700FT

CYQF;2018-05-27 17:00;CYQF 271700Z 17005KT 150V230 15SM BKN250 18/06 A3006 RMK CI5 SLP183 DENSITY ALT 3900FT

CYQF;2018-05-27 18:00;CYQF 271800Z 16007KT 120V190 15SM SCT250 20/05 A3005 RMK CI3 SLP181 DENSITY ALT 4100FT

CYQF;2018-05-27 19:00;CYQF 271900Z 20012KT 140V230 15SM FEW060 SCT250 21/05 A3004 RMK CU1CI4 CU TR SLP177 DENSITY ALT 4300FT

CYQF;2018-05-27 20:00;CYQF 272000Z 18009G17KT 100V240 15SM FEW072 BKN250 22/04 A3003 RMK CU1CI4 SLP175 DENSITY ALT 4400FT

CYQF;2018-05-27 21:00;CYQF 272100Z 15004G15KT 110V240 15SM FEW080 BKN250 23/04 A3001 RMK CU1CI5 CU TR SLP169 DENSITY ALT 4500FT

CYQF;2018-05-27 22:00;CYQF 272200Z 18008G16KT 100V220 15SM FEW080 BKN250 24/03 A3000 RMK CU1CI5 CU TR SLP167 DENSITY ALT 4700FT

CYQF;2018-05-27 23:00;CYQF 272300Z 16011G18KT 15SM FEW080 BKN250 24/03 A2998 RMK AC1CI6 SLP160 DENSITY ALT 4700FT

CYQF;2018-05-28 00:00;CYQF 280000Z 15011G18KT 15SM FEW080 BKN280 25/04 A2997 RMK CU1CI5 SLP155 DENSITY ALT 4700FT

CYQF;2018-05-28 01:00;CYQF 280100Z 14009KT 110V190 15SM FEW150 BKN250 24/04 A2995 RMK AC2CI5 SLP148 DENSITY ALT 4700FT

CYQF;2018-05-28 02:00;CYQF 280200Z 16011KT 15SM FEW080 BKN280 23/03 A2995 RMK CU1CI4 SLP145 DENSITY ALT 4600FT

CYQF;2018-05-28 03:00;CYQF 280300Z 14008KT 15SM FEW080 BKN200 21/05 A2995 RMK AC1CI4 SLP146 DENSITY ALT 4300FT

CYQF;2018-05-28 04:00;CYQF 280400Z 14008KT 15SM FEW090 BKN250 18/05 A2996 RMK AC1CI5 SLP148 DENSITY ALT 4000FT

CYQF;2018-05-28 05:00;CYQF 280500Z 15007KT 15SM FEW250 16/05 A2996 RMK CI2 SLP149 DENSITY ALT 3800FT

CYQF;2018-05-28 06:00;CYQF 280600Z 16009KT 15SM FEW150 16/05 A2996 RMK AC1 SLP146 DENSITY ALT 3800FT

CYQF;2018-05-28 07:00;CYQF 280700Z 19008KT 15SM FEW140 15/05 A2996 RMK AC2 SLP148 DENSITY ALT 3700FT

CYQF;2018-05-28 08:00;CYQF 280800Z 18006KT 15SM FEW250 13/05 A2996 RMK CI2 SLP148 DENSITY ALT 3400FT

CYQF;2018-05-28 09:00;CYQF 280900Z 19004KT 15SM SKC 13/05 A2995 RMK SLP143 DENSITY ALT 3400FT

CYQF;2018-05-28 10:00;CYQF 281000Z 19002KT 15SM SKC 10/05 A2994 RMK SLP141 DENSITY ALT 3100FT

CYQF;2018-05-28 11:00;CYQF 281100Z 12002KT 15SM SKC 11/04 A2993 RMK SLP137 DENSITY ALT 3200FT

CYQF;2018-05-28 12:00;CYQF 281200Z 17006KT 15SM SKC 09/04 A2992 RMK SLP136 DENSITY ALT 3000FT

CYQF;2018-05-28 13:00;CYQF 281300Z 21004KT 15SM SKC 13/06 A2990 RMK SLP126 DENSITY ALT 3500FT

CYQF;2018-05-28 14:00;CYQF 281400Z 21006KT 15SM SKC 16/06 A2990 RMK SLP122 DENSITY ALT 3800FT

CYQF;2018-05-28 15:00;CYQF 281500Z 24005KT 15SM FEW250 18/06 A2987 RMK CI1 SLP115 DENSITY ALT 4100FT

CYQF;2018-05-28 16:00;CYQF 281600Z 28003KT 200V300 15SM FEW250 21/07 A2985 RMK CI1 SLP107 DENSITY ALT 4500FT

CYQF;2018-05-28 17:00;CYQF 281700Z 29007KT 230V300 15SM FEW250 25/03 A2983 RMK CI2 SLP096 DENSITY ALT 4900FT

CYQF;2018-05-28 18:00;CYQF 281800Z 23003KT 130V280 15SM FEW250 25/03 A2981 RMK CI1 SLP090 DENSITY ALT 5000FT

CYQF;2018-05-28 19:00;CYQF 281900Z 26011KT 150V310 15SM FEW250 27/03 A2980 RMK CI2 SLP085 DENSITY ALT 5200FT

CYQF;2018-05-28 20:00;CYQF 282000Z 27011KT 15SM FEW090 FEW250 28/M00 A2978 RMK CU1CI1 CU TR SLP081 DENSITY ALT 5300FT

CYQF;2018-05-28 21:00;CYQF 282100Z 30008KT 220V340 15SM FEW090 FEW250 28/00 A2976 RMK CU1CI1 CU TR SLP072 DENSITY ALT 5400FT

CYQF;2018-05-28 22:00;CYQF 282200Z 00000KT 15SM FEW090 FEW250 28/02 A2974 RMK CU2CI1 CI TR SLP068 DENSITY ALT 5400FT

CYQF;2018-05-28 23:00;CYQF 282300Z 00000KT 15SM SCT110 SCT300 29/00 A2972 RMK CU3CI1 CI TR SLP060 DENSITY ALT 5500FT

CYQF;2018-05-29 00:00;CYQF 290000Z 22008KT 200V300 15SM SCT120 SCT300 29/01 A2971 RMK CU3CI1 SLP058 DENSITY ALT 5500FT

CYQF;2018-05-29 01:00;CYQF 290100Z 28013G18KT 250V310 15SM FEW120 SCT300 28/M00 A2970 RMK CU2CI1 SLP051 DENSITY ALT 5400FT

CYQF;2018-05-29 02:00;CYQF 290200Z 34014G19KT 15SM FEW100 SCT300 25/06 A2971 RMK CU2CI2 SLP055 DENSITY ALT 5100FT

CYQF;2018-05-29 03:00;CYQF 290300Z 36012G20KT 15SM FEW100 SCT280 22/07 A2973 RMK AC1CI2 SLP063 DENSITY ALT 4700FT

CYQF;2018-05-29 04:00;CYQF 290400Z 36016G23KT 15SM FEW100 SCT250 19/07 A2976 RMK AC2CI1 SLP073 DENSITY ALT 4400FT

CYQF;2018-05-29 05:00;CYQF 290500Z CCA 36018KT 15SM FEW060 SCT120 17/07 A2980 RMK SC2AC1 SLP087 DENSITY ALT 4100FT

CYQF;2018-05-29 06:00;CYQF 290600Z 01014G19KT 15SM SCT120 15/06 A2984 RMK AC3 SLP100 DENSITY ALT 3800FT

CYQF;2018-05-29 07:00;CYQF 290700Z 36011G21KT 15SM SCT120 14/06 A2989 RMK AC3 SLP117 DENSITY ALT 3600FT

CYQF;2018-05-29 08:00;CYQF 290800Z 35014G21KT 15SM SCT080 13/07 A2991 RMK AC3 SLP125 DENSITY ALT 3500FT

CYQF;2018-05-29 09:00;CYQF 290900Z 35014G22KT 15SM BKN040 12/03 A2994 RMK SC6 SLP137 DENSITY ALT 3400FT

CYQF;2018-05-29 10:00;CYQF 291000Z 34016G23KT 15SM BKN047 11/01 A2996 RMK SC7 SLP143 DENSITY ALT 3200FT

CYQF;2018-05-29 11:00;CYQF 291100Z 35013G20KT 15SM BKN052 10/00 A2997 RMK SC7 SLP147 DENSITY ALT 3000FT

CYQF;2018-05-29 12:00;CYQF 291200Z 34010KT 15SM FEW040 BKN100 09/01 A2996 RMK SC2AC5 SLP145 DENSITY ALT 3000FT

CYQF;2018-05-29 13:00;CYQF 291300Z 33012G18KT 15SM OVC086 09/01 A2998 RMK AC8 SLP151 DENSITY ALT 3000FT

CYQF;2018-05-29 14:00;CYQF 291400Z 30007KT 15SM -SHRA OVC070 09/01 A3000 RMK ACC8 SLP162

CYQF;2018-05-29 15:00;CYQF 291500Z 30011KT 15SM OVC070 10/01 A3002 RMK ACC8 OCNL -SHRA SLP172 DENSITY ALT 3000FT

CYQF;2018-05-29 16:00;CYQF 291600Z 34016G21KT 12SM -SHRA BKN075 08/00 A3002 RMK ACC7 SLP178

CYQF;2018-05-29 17:00;CYQF 291700Z 01007KT 15SM SCT040 BKN070 09/02 A3002 RMK SC4ACC3 OCNL -SHRA SLP177

CYQF;2018-05-29 17:11;CYQF 291711Z 02008KT 350V060 15SM SCT040 BKN070 09/01 A3001 RMK SC4ACC3 VIRGA SLP177

CYQF;2018-05-29 18:00;CYQF 291800Z 04006KT 350V070 15SM FEW040 OVC070 09/01 A3000 RMK SC2ACC6 VIRGA SLP175 DENSITY ALT 3000FT

CYQF;2018-05-29 19:00;CYQF 291900Z 32008KT 12SM FEW032 OVC070 10/00 A2999 RMK SC1ACC7 SLP170 DENSITY ALT 3100FT

CYQF;2018-05-29 20:00;CYQF 292000Z 36007KT 15SM FEW028 BKN072 10/01 A2997 RMK SC1AC6 SLP164 DENSITY ALT 3100FT

CYQF;2018-05-29 21:00;CYQF 292100Z 36007KT 320V050 15SM FEW035 BKN070 11/01 A2996 RMK CU1AC6 SLP161 DENSITY ALT 3200FT

CYQF;2018-05-29 22:00;CYQF 292200Z 04004KT 320V070 15SM FEW044 SCT070 BKN110 12/02 A2993 RMK CU2AC2AC1 SLP152 DENSITY ALT 3400FT

CYQF;2018-05-29 23:00;CYQF 292300Z VRB02KT 15SM FEW045 SCT060 BKN110 13/02 A2992 RMK CU1SC2AC4 SLP147 DENSITY ALT 3500FT

CYQF;2018-05-30 00:00;CYQF 300000Z 01004KT 350V060 15SM VCSH SCT060 OVC100 12/02 A2991 RMK SC3AC5 SLP146 DENSITY ALT 3400FT

CYQF;2018-05-30 01:00;CYQF 300100Z 09002KT 15SM -RA BKN070 12/02 A2990 RMK AC7 SLP141 DENSITY ALT 3400FT

CYQF;2018-05-30 02:00;CYQF 300200Z 16004KT 110V170 8SM -RA OVC060 10/05 A2989 RMK SC8 SLP143 DENSITY ALT 3100FT

CYQF;2018-05-30 03:00;CYQF 300300Z 00000KT 8SM -RA OVC050 09/06 A2990 RMK SC8 SLP146 DENSITY ALT 3000FT

CYQF;2018-05-30 04:00;CYQF 300400Z 33002KT 5SM -RA BR OVC050 08/07 A2990 RMK SC8 SLP148

CYQF;2018-05-30 05:00;CYQF 300500Z 02003KT 8SM -RA OVC060 08/07 A2989 RMK SC8 SLP143

CYQF;2018-05-30 06:00;CYQF 300600Z 04002KT 8SM -RA OVC036 08/07 A2988 RMK SC8 SLP139

CYQF;2018-05-30 07:00;CYQF 300700Z 33004KT 6SM -RA OVC022 07/07 A2987 RMK SC8 SLP138

CYQF;2018-05-30 08:00;CYQF 300800Z 02003KT 6SM -RA SCT006 OVC020 07/07 A2987 RMK SF4SC4 SLP136

CYQF;2018-05-30 09:00;CYQF 300900Z 05004KT 8SM -RA SCT008 OVC040 07/07 A2986 RMK SF3SC5 SLP134

CYQF;2018-05-30 10:00;CYQF 301000Z 02006KT 10SM -RA BKN009 OVC062 07/06 A2984 RMK SC6SC2 SLP125

CYQF;2018-05-30 10:31;CYQF 301031Z 03006KT 10SM BKN010 OVC050 07/06 A2984 RMK SC6SC2 SLP124

CYQF;2018-05-30 11:00;CYQF 301100Z 02006KT 10SM BKN010 BKN050 OVC120 07/06 A2982 RMK SC5SC2AC1 SLP117

CYQF;2018-05-30 12:00;CYQF 301200Z 02006KT 8SM SCT006 OVC042 07/06 A2981 RMK SF4SC4 BR SLP114

CYQF;2018-05-30 13:00;CYQF 301300Z 05007KT 10SM BKN007 OVC040 07/06 A2980 RMK SF5SC3 SLP109

CYQF;2018-05-30 14:00;CYQF 301400Z 07006KT 10SM BKN008 OVC038 07/06 A2980 RMK SF6SC2 SLP111

CYQF;2018-05-30 14:33;CYQF 301433Z 07006KT 15SM FEW008 SCT025 OVC053 07/06 A2979 RMK SF2SC2SC4 SLP110

CYQF;2018-05-30 15:00;CYQF 301500Z 08006KT 12SM VCSH SCT009 BKN050 OVC080 08/06 A2978 RMK SC3SC3ACC2 SLP107 DENSITY ALT 3000FT

CYQF;2018-05-30 16:00;CYQF 301600Z 07005KT 15SM FEW008 OVC016 08/06 A2978 RMK SF1SC7 SLP108 DENSITY ALT 3000FT

CYQF;2018-05-30 17:00;CYQF 301700Z 06004KT 15SM BKN020 OVC035 09/06 A2978 RMK SC5SC3 SLP107 DENSITY ALT 3100FT

CYQF;2018-05-30 18:00;CYQF 301800Z VRB02KT 15SM BKN017 OVC046 09/06 A2978 RMK SC5SC3 SLP106 DENSITY ALT 3200FT

CYQF;2018-05-30 19:00;CYQF 301900Z 24007KT 15SM FEW010 OVC030 10/06 A2978 RMK SC1SC7 CU EMBD SLP106 DENSITY ALT 3200FT

CYQF;2018-05-30 20:00;CYQF 302000Z 29009KT 15SM FEW010 BKN020 09/07 A2979 RMK SC2SC5 SLP111 DENSITY ALT 3200FT

CYQF;2018-05-30 21:00;CYQF 302100Z 29008KT 15SM BKN015 09/06 A2980 RMK CU7 SLP114 DENSITY ALT 3200FT

CYQF;2018-05-30 22:02;CYQF 302202Z 29007KT 15SM SCT015 BKN025 10/06 A2980 RMK SC3SC4 SLP114 DENSITY ALT 3200FT

CYQF;2018-05-30 23:00;CYQF 302300Z 32007KT 280V350 15SM SCT020 BKN033 12/06 A2980 RMK CU4SC3 SLP112 DENSITY ALT 3400FT

CYQF;2018-05-31 00:00;CYQF 310000Z 33011KT 290V360 15SM SCT025 BKN230 11/05 A2980 RMK CU4CI1 SLP111 DENSITY ALT 3400FT

CYQF;2018-05-31 01:00;CYQF 310100Z 33011KT 15SM BKN035 BKN250 11/05 A2981 RMK CU5CI2 SLP116 DENSITY ALT 3300FT

CYQF;2018-05-31 02:00;CYQF 310200Z 34008G17KT 15SM FEW035 SCT250 10/05 A2982 RMK CU2CI2 SLP118 DENSITY ALT 3300FT

CYQF;2018-05-31 03:00;CYQF 310300Z 35008KT 15SM FEW020 SCT230 09/05 A2984 RMK CU2CI1 SLP129 DENSITY ALT 3000FT

CYQF;2018-05-31 04:00;CYQF 310400Z 35010KT 15SM FEW040 BKN130 BKN250 07/06 A2985 RMK CU2AC3CI2 SLP133

CYQF;2018-05-31 05:00;CYQF 310500Z 34008KT 15SM SCT012 BKN036 BKN120 08/06 A2986 RMK SC3SC3AC1 SLP136

CYQF;2018-05-31 06:00;CYQF 310600Z 01006KT 15SM VCSH SCT010 OVC046 08/06 A2987 RMK SC4SC4 SLP138

CYQF;2018-05-31 07:00;CYQF 310700Z 33004KT 15SM VCSH SCT009 OVC044 08/06 A2988 RMK SC4SC4 SLP141

CYQF;2018-05-31 07:42;CYQF 310742Z 32005KT 15SM -RA BKN007 OVC024 07/06 A2989 RMK SC6SC2 SLP142

CYQF;2018-05-31 08:00;CYQF 310800Z 31005KT 10SM -RA BKN008 OVC020 07/06 A2989 RMK SC6SC2 SLP143

CYQF;2018-05-31 08:38;CYQF 310838Z 34005KT 10SM -RA BKN015 07/06 A2989 RMK SC6 SLP145

CYQF;2018-05-31 09:00;CYQF 310900Z 34004KT 15SM -RA FEW007 BKN028 07/06 A2989 RMK SF2SC5 SLP145

CYQF;2018-05-31 09:33;CYQF 310933Z 33003KT 15SM FEW007 BKN046 07/06 A2990 RMK SF2SC5 SLP147

CYQF;2018-05-31 10:00;CYQF 311000Z 31003KT 10SM FEW007 BKN047 07/06 A2990 RMK SF2SC5 SLP147

CYQF;2018-05-31 11:00;CYQF 311100Z 35004KT 5SM BR SCT005 OVC042 07/06 A2990 RMK SF4SC4 SLP146

CYQF;2018-05-31 12:00;CYQF 311200Z 02004KT 3SM BR SCT006 BKN018 OVC050 07/06 A2990 RMK SF3SC3SC2 SLP148

CYQF;2018-05-31 13:00;CYQF 311300Z 05004KT 6SM BR SCT005 OVC022 07/07 A2992 RMK SF4SC4 SLP153

CYQF;2018-05-31 14:00;CYQF 311400Z 08006KT 3SM BR SCT005 OVC016 07/07 A2993 RMK SF3SC5 SLP156

CYQF;2018-05-31 14:07;CYQF 311407Z 08006KT 2 1/2SM -DZ BR BKN006 OVC016 07/06 A2993 RMK SF5SC3 SLP158

CYQF;2018-05-31 14:38;CYQF 311438Z 06006KT 2 1/2SM -DZ BR BKN004 OVC016 07/07 A2993 RMK ST6SC2 SLP156

CYQF;2018-05-31 14:47;CYQF 311447Z 07007KT 2 1/2SM -RA BR BKN005 OVC015 07/06 A2993 RMK ST6SC2 SLP157

CYQF;2018-05-31 15:00;CYQF 311500Z 08009KT 2 1/2SM -RA BR BKN005 OVC015 07/06 A2993 RMK SF6SC2 SLP160

CYQF;2018-05-31 16:00;CYQF 311600Z 11007KT 2 1/2SM -RA BR BKN006 OVC025 07/06 A2994 RMK SF5SC3 -RA INTMT SLP165

CYQF;2018-05-31 17:00;CYQF 311700Z 08006KT 2 1/2SM -RA BR BKN006 OVC020 08/06 A2994 RMK SF5SC3 SLP162

CYQF;2018-05-31 18:00;CYQF 311800Z 07007KT 8SM FEW006 OVC020 08/05 A2994 RMK SF2SC6 SLP163

CYQF;2018-05-31 19:00;CYQF 311900Z 07009KT 12SM FEW010 BKN024 OVC041 10/06 A2994 RMK SF1SC6SC1 SLP161 DENSITY ALT 3100FT

CYQF;2018-05-31 20:00;CYQF 312000Z 08007KT 12SM FEW010 BKN026 OVC040 10/05 A2994 RMK SC1SC5SC2 SLP160 DENSITY ALT 3100FT

CYQF;2018-05-31 21:00;CYQF 312100Z 09008KT 15SM FEW010 SCT025 OVC043 10/05 A2994 RMK SC1SC2SC5 SLP160 DENSITY ALT 3100FT

CYQF;2018-05-31 22:00;CYQF 312200Z 10007KT 15SM FEW010 FEW025 OVC039 10/05 A2993 RMK SF1SC2SC6 SF TR SLP159 DENSITY ALT 3200FT

CYQF;2018-05-31 23:00;CYQF 312300Z 09008KT 15SM FEW015 OVC043 11/05 A2993 RMK SF1SC7 SLP158 DENSITY ALT 3200FT

CYQF;2018-06-01 00:00;CYQF 010000Z 11009KT 15SM FEW015 OVC040 11/05 A2993 RMK SC1SC7 SLP157 DENSITY ALT 3200FT

CYQF;2018-06-01 01:00;CYQF 010100Z 14009KT 15SM SCT025 OVC040 10/06 A2992 RMK CU3SC5 WND ESTD SLP155 DENSITY ALT 3100FT

CYQF;2018-06-01 02:00;CYQF 010200Z 12004KT 15SM FEW025 OVC040 10/06 A2992 RMK SC2SC6 SLP156 DENSITY ALT 3100FT

CYQF;2018-06-01 03:00;CYQF 010300Z 07005KT 15SM BKN050 OVC110 09/06 A2992 RMK SC5AC3 SLP155 DENSITY ALT 3000FT

CYQF;2018-06-01 04:00;CYQF 010400Z 06004KT 15SM BKN032 OVC110 09/06 A2993 RMK SC5AC3 SLP159 DENSITY ALT 3000FT

CYQF;2018-06-01 04:39;CYQF 010439Z 10006KT 15SM -RA OVC035 09/05 A2994 RMK SC8 SLP161 DENSITY ALT 3000FT

CYQF;2018-06-01 05:00;CYQF 010500Z 09006KT 15SM -RA OVC044 09/06 A2993 RMK SC8 SLP160 DENSITY ALT 3000FT

CYQF;2018-06-01 06:00;CYQF 010600Z 10006KT 15SM -RA OVC042 08/06 A2993 RMK SC8 SLP160

CYQF;2018-06-01 07:00;CYQF 010700Z 12005KT 15SM -RA OVC041 08/06 A2994 RMK SC8 SLP160

CYQF;2018-06-01 08:00;CYQF 010800Z 07004KT 15SM -RA OVC034 07/07 A2993 RMK SC8 SLP157

CYQF;2018-06-01 09:00;CYQF 010900Z 08003KT 15SM -RA SCT009 OVC036 07/07 A2992 RMK SF3SC5 SLP155

CYQF;2018-06-01 10:00;CYQF 011000Z 05003KT 5SM -RA BR SCT011 OVC050 07/07 A2992 RMK SF3SC5 SLP153

CYQF;2018-06-01 11:00;CYQF 011100Z 04004KT 3SM -RA BR BKN010 OVC040 07/07 A2990 RMK SF5SC3 SLP148

CYQF;2018-06-01 12:00;CYQF 011200Z 05004KT 3SM -RA BR SCT006 OVC012 07/07 A2990 RMK SF4SC4 SLP148

CYQF;2018-06-01 13:00;CYQF 011300Z 05003KT 2 1/2SM -RA BR OVC009 08/07 A2991 RMK SF8 SLP149

CYQF;2018-06-01 14:00;CYQF 011400Z 10003KT 2 1/2SM -RA BR BKN007 OVC012 08/07 A2991 RMK SF6SC2 SLP152

CYQF;2018-06-01 14:23;CYQF 011423Z 10004KT 050V110 3SM -RA BR SCT007 OVC011 08/07 A2992 RMK SF3SC5 CIG RAG SLP153

CYQF;2018-06-01 15:00;CYQF 011500Z 11005KT 4SM -RA BR FEW006 OVC012 08/07 A2992 RMK SF2SC6 CIG RAG SLP155

CYQF;2018-06-01 16:00;CYQF 011600Z 13004KT 4SM -RA BR FEW007 OVC012 09/08 A2993 RMK SF2SC6 SLP158 DENSITY ALT 3000FT

CYQF;2018-06-01 16:44;CYQF 011644Z 12007KT 6SM -RA BR FEW007 SCT012 OVC030 09/07 A2993 RMK SF1SC3SC4 CIG RAG SLP158 DENSITY ALT 3000FT

CYQF;2018-06-01 17:00;CYQF 011700Z 12004KT 6SM -RA BR BKN008 OVC019 09/08 A2993 RMK SF5SC3 SLP158 DENSITY ALT 3000FT

CYQF;2018-06-01 18:00;CYQF 011800Z 14004KT 060V170 10SM -RA BKN008 OVC020 10/07 A2993 RMK SF5SC3 SLP157 DENSITY ALT 3100FT

CYQF;2018-06-01 18:19;CYQF 011819Z 16002KT 10SM -RA SCT008 OVC016 10/07 A2993 RMK SF3SC5 SLP158 DENSITY ALT 3100FT

CYQF;2018-06-01 19:00;CYQF 011900Z 00000KT 10SM -RA SCT008 BKN015 OVC040 10/07 A2993 RMK SF3SC4SC1 SLP158 DENSITY ALT 3100FT

CYQF;2018-06-01 20:00;CYQF 012000Z VRB02KT 10SM -RA FEW008 BKN017 OVC040 11/07 A2994 RMK SF1SC5SC2 SLP160 DENSITY ALT 3200FT

CYQF;2018-06-01 21:00;CYQF 012100Z 03005KT 340V070 10SM -RA BKN016 OVC049 11/08 A2995 RMK SC5SC3 SLP162 DENSITY ALT 3200FT

CYQF;2018-06-01 21:43;CYQF 012143Z 04006KT 15SM BKN018 BKN060 13/09 A2995 RMK SC5SC2 SLP162 DENSITY ALT 3400FT

CYQF;2018-06-01 22:00;CYQF 012200Z 07007KT 020V090 15SM BKN030 12/08 A2995 RMK CU6 SLP162 DENSITY ALT 3300FT

CYQF;2018-06-01 23:00;CYQF 012300Z 08004KT 030V110 15SM BKN021 BKN250 12/08 A2996 RMK SC5CI1 SLP166 DENSITY ALT 3300FT

CYQF;2018-06-02 00:00;CYQF 020000Z 12003KT 030V180 15SM SCT022 BKN130 BKN250 14/08 A2996 RMK CU4AC1CI1 SLP163 DENSITY ALT 3500FT

CYQF;2018-06-02 01:00;CYQF 020100Z 05008KT 350V120 15SM SCT020 BKN040 13/07 A2996 RMK CU3SC2 SLP163 DENSITY ALT 3400FT

CYQF;2018-06-02 02:00;CYQF 020200Z 06003KT 15SM SCT020 BKN100 12/07 A2998 RMK CU3AC2 SLP170 DENSITY ALT 3300FT

CYQF;2018-06-02 03:00;CYQF 020300Z 06005KT 15SM FEW025 BKN100 12/08 A3000 RMK CU2AC3 VIRGA SLP180 DENSITY ALT 3200FT

CYQF;2018-06-02 04:00;CYQF 020400Z 10006KT 15SM FEW020 SCT100 09/07 A3000 RMK CU1AC2 SLP179

CYQF;2018-06-02 05:00;CYQF 020500Z 16005KT 15SM SCT096 BKN250 09/07 A3000 RMK AC4CI2 SLP182

CYQF;2018-06-02 06:00;CYQF 020600Z 20008KT 15SM BKN110 BKN250 09/08 A3001 RMK AC5CI2 SLP184

CYQF;2018-06-02 07:00;CYQF 020700Z 00000KT 15SM BKN140 09/07 A3000 RMK AC6 SLP179

CYQF;2018-06-02 08:00;CYQF 020800Z 31005KT 15SM SCT140 08/05 A3002 RMK AC3 SLP186

CYQF;2018-06-02 09:00;CYQF 020900Z 32008KT 260V030 15SM FEW140 07/06 A3004 RMK AC1 SLP195

CYQF;2018-06-02 10:00;CYQF 021000Z 26007KT 15SM FEW140 08/05 A3003 RMK AC1 SLP191

CYQF;2018-06-02 11:00;CYQF 021100Z 23005KT 15SM FEW140 04/03 A3004 RMK AC1 AC TR SLP198

CYQF;2018-06-02 12:00;CYQF 021200Z 21006KT 15SM FEW100 05/04 A3005 RMK AC1 AC TR SLP197

CYQF;2018-06-02 13:00;CYQF 021300Z 23004KT 15SM FEW100 07/06 A3005 RMK AC1 SLP195

CYQF;2018-06-02 14:00;CYQF 021400Z 23008KT 15SM FEW100 09/07 A3005 RMK AC1 SLP196

CYQF;2018-06-02 15:00;CYQF 021500Z 23006KT 15SM FEW100 11/08 A3006 RMK AC1 SLP196 DENSITY ALT 3100FT

CYQF;2018-06-02 16:00;CYQF 021600Z 27007KT 15SM FEW020 FEW100 14/08 A3006 RMK CF1AC1 CF TR SLP196 DENSITY ALT 3400FT

CYQF;2018-06-02 17:00;CYQF 021700Z 28008KT 15SM FEW040 17/04 A3006 RMK CU1 SLP193 DENSITY ALT 3800FT

CYQF;2018-06-02 18:00;CYQF 021800Z 32013G19KT 15SM SCT060 18/03 A3006 RMK CU4 SLP192 DENSITY ALT 3900FT

CYQF;2018-06-02 19:00;CYQF 021900Z 32010G16KT 15SM SCT064 19/03 A3006 RMK CU4 CB TOP DIST N SLP189 DENSITY ALT 4000FT

CYQF;2018-06-02 20:00;CYQF 022000Z 31008KT 300V360 15SM BKN050TCU 19/05 A3005 RMK TCU5 SLP189 DENSITY ALT 4000FT

CYQF;2018-06-02 21:00;CYQF 022100Z 00000KT 15SM BKN050TCU BKN100 19/06 A3005 RMK TCU5AC2 SH N QUAD SLP189 DENSITY ALT 4000FT

CYQF;2018-06-02 22:00;CYQF 022200Z 01010KT 15SM BKN050 18/04 A3005 RMK CU5 CB SH DIST NE SLP188 DENSITY ALT 3900FT

CYQF;2018-06-02 23:00;CYQF 022300Z 02014G21KT 15SM SCT060 17/08 A3006 RMK CU3 SLP198 DENSITY ALT 3800FT

CYQF;2018-06-03 00:00;CYQF 030000Z 03011G17KT 15SM FEW050 17/05 A3006 RMK CU1 SLP197 DENSITY ALT 3800FT

CYQF;2018-06-03 01:00;CYQF 030100Z 03012KT 15SM FEW060 17/07 A3006 RMK CU2 SLP196 DENSITY ALT 3700FT

CYQF;2018-06-03 02:00;CYQF 030200Z 05010KT 15SM FEW100 SCT250 16/06 A3007 RMK AC2CI1 SLP197 DENSITY ALT 3600FT

CYQF;2018-06-03 03:00;CYQF 030300Z 06007KT 15SM FEW100 14/06 A3008 RMK AC2 SLP200 DENSITY ALT 3400FT

CYQF;2018-06-03 04:00;CYQF 030400Z 06003KT 15SM SCT100 12/05 A3009 RMK ACC3 VIRGA SLP204 DENSITY ALT 3100FT

CYQF;2018-06-03 05:00;CYQF 030500Z 19002KT 15SM SCT100 11/05 A3010 RMK ACC3 VIRGA SLP206 DENSITY ALT 3000FT

CYQF;2018-06-03 06:00;CYQF 030600Z 25006KT 15SM SCT100 08/05 A3011 RMK AC3 SLP210

CYQF;2018-06-03 07:00;CYQF 030700Z 25004KT 250V340 15SM FEW100 07/06 A3010 RMK AC1 SLP206

CYQF;2018-06-03 08:00;CYQF 030800Z VRB02KT 15SM SKC 05/04 A3011 RMK SLP212

CYQF;2018-06-03 09:00;CYQF 030900Z VRB02KT 15SM FEW100 05/04 A3010 RMK AC2 SLP211

CYQF;2018-06-03 10:00;CYQF 031000Z 21004KT 15SM FEW100 SCT250 05/04 A3010 RMK AC1CI3 SLP210

CYQF;2018-06-03 11:00;CYQF 031100Z 00000KT 15SM MIFG FEW100 BKN250 05/05 A3010 RMK AC1CI5 SLP212

CYQF;2018-06-03 12:00;CYQF 031200Z 02005KT 10SM MIFG SCT100 BKN250 03/03 A3010 RMK AC3CI3 SLP215

CYQF;2018-06-03 13:00;CYQF 031300Z 00000KT 15SM FEW090 BKN300 07/06 A3009 RMK AC1CI4 SLP206

CYQF;2018-06-03 14:00;CYQF 031400Z 15004KT 15SM FEW090 BKN300 11/08 A3008 RMK AC1CI5 SLP199 DENSITY ALT 3100FT

CYQF;2018-06-03 15:00;CYQF 031500Z 17011KT 15SM FEW120 BKN300 15/07 A3006 RMK ACC2CI5 SLP191 DENSITY ALT 3500FT

CYQF;2018-06-03 16:00;CYQF 031600Z 17013KT 15SM BKN110 BKN300 16/06 A3005 RMK AC5CI2 SLP187 DENSITY ALT 3600FT

CYQF;2018-06-03 17:00;CYQF 031700Z 15011KT 15SM SCT120 BKN240 BKN300 18/07 A3002 RMK ACC4CI1CI2 SLP177 DENSITY ALT 3900FT

CYQF;2018-06-03 18:00;CYQF 031800Z 18011G18KT 15SM FEW060 FEW120 BKN300 19/05 A2999 RMK CU1AC2CI5 CU TR SLP167 DENSITY ALT 4100FT

CYQF;2018-06-03 19:00;CYQF 031900Z 18011KT 15SM FEW060 BKN300 20/05 A2997 RMK CU1CI6 SLP161 DENSITY ALT 4200FT

CYQF;2018-06-03 20:00;CYQF 032000Z 16012G19KT 130V200 15SM FEW070 BKN300 21/05 A2994 RMK CU1CI6 SLP150 DENSITY ALT 4400FT

CYQF;2018-06-03 21:00;CYQF 032100Z 17007G16KT 15SM FEW070 BKN180 BKN270 21/05 A2992 RMK AC2AC3CI2 SLP144 DENSITY ALT 4400FT

CYQF;2018-06-03 22:00;CYQF 032200Z 19014KT 15SM FEW072 BKN120 BKN270 22/04 A2989 RMK CU2AC3CI2 SLP134 DENSITY ALT 4500FT

CYQF;2018-06-03 23:00;CYQF 032300Z 17012G17KT 15SM FEW060 BKN100 21/04 A2988 RMK CU1AC6 SLP129 DENSITY ALT 4500FT

CYQF;2018-06-04 00:00;CYQF 040000Z 14010KT 15SM FEW060 BKN090 BKN250 21/04 A2985 RMK CU1AC5CI1 SLP124 DENSITY ALT 4400FT

CYQF;2018-06-04 01:00;CYQF 040100Z 14012G19KT 15SM FEW040 SCT120 OVC260 21/05 A2982 RMK CU1AC3CI4 SLP109 DENSITY ALT 4500FT

CYQF;2018-06-04 02:00;CYQF 040200Z 13010KT 15SM FEW080 BKN140 OVC250 20/05 A2979 RMK AC1AC5CI2 SLP094 DENSITY ALT 4400FT

CYQF;2018-06-04 03:00;CYQF 040300Z 13009KT 15SM FEW080 BKN180 OVC250 19/05 A2977 RMK AC1AC5CI2 SLP084 DENSITY ALT 4300FT

CYQF;2018-06-04 04:00;CYQF 040400Z 12012KT 15SM SCT120 BKN230 18/04 A2975 RMK AC4CI3 SLP076 DENSITY ALT 4200FT

CYQF;2018-06-04 05:00;CYQF 040500Z 13016G23KT 15SM BKN110 BKN250 18/04 A2971 RMK AC5CI2 SLP063 DENSITY ALT 4300FT

CYQF;2018-06-04 06:00;CYQF 040600Z 13016G23KT 15SM SCT110 BKN250 17/03 A2969 RMK AC4CI2 SLP053 DENSITY ALT 4200FT

CYQF;2018-06-04 07:00;CYQF 040700Z 18014G21KT 15SM FEW110 SCT250 16/04 A2967 RMK AC2CI2 PRESRR SLP048 DENSITY ALT 4100FT

CYQF;2018-06-04 08:00;CYQF 040800Z 16007KT 15SM FEW110 BKN210 13/04 A2965 RMK AC2CI3 SLP040 DENSITY ALT 3800FT

CYQF;2018-06-04 09:00;CYQF 040900Z 19004KT 15SM BKN170 BKN250 13/06 A2962 RMK AC6CI1 PRESFR SLP032 DENSITY ALT 3800FT

CYQF;2018-06-04 10:00;CYQF 041000Z 24008KT 15SM SCT200 BKN250 14/07 A2962 RMK CI4CI2 SLP032 DENSITY ALT 3900FT

CYQF;2018-06-04 11:00;CYQF 041100Z 27008KT 15SM SCT160 BKN250 14/07 A2962 RMK AC4CI3 SLP031 DENSITY ALT 3900FT

CYQF;2018-06-04 12:00;CYQF 041200Z 28007KT 15SM SCT180 BKN250 13/07 A2964 RMK AC4CI3 SLP038 DENSITY ALT 3800FT

CYQF;2018-06-04 13:00;CYQF 041300Z 26006KT 15SM FEW080 BKN180 BKN220 13/08 A2964 RMK AC2AC3CI2 VIRGA SLP040 DENSITY ALT 3700FT

CYQF;2018-06-04 14:00;CYQF 041400Z 26006KT 15SM FEW080 SCT120 BKN190 13/08 A2965 RMK AC1AC3AC3 SLP042 DENSITY ALT 3800FT

CYQF;2018-06-04 15:00;CYQF 041500Z 18003KT 15SM SCT090 BKN140 BKN200 14/08 A2966 RMK AC3AC2CI2 VIRGA SLP047 DENSITY ALT 3900FT

CYQF;2018-06-04 16:00;CYQF 041600Z 36006KT 280V010 15SM SCT090 BKN180 BKN200 17/08 A2967 RMK AC3AC3CI1 SLP048 DENSITY ALT 4200FT

CYQF;2018-06-04 17:00;CYQF 041700Z 33012G17KT 15SM FEW048 SCT090 BKN150 17/06 A2967 RMK CU1AC2AC3 SLP047 DENSITY ALT 4200FT

CYQF;2018-06-04 18:00;CYQF 041800Z 34012G19KT 15SM FEW050 SCT100 SCT150 18/05 A2967 RMK CU2AC1AC1 SLP047 DENSITY ALT 4300FT

CYQF;2018-06-04 19:00;CYQF 041900Z 02009KT 15SM FEW048 BKN100 18/06 A2967 RMK CU2AC4 SLP051 DENSITY ALT 4300FT

CYQF;2018-06-04 20:00;CYQF 042000Z 04008KT 15SM VCSH BKN060TCU BKN100 17/05 A2967 RMK TCU5AC2 SLP052 DENSITY ALT 4200FT

CYQF;2018-06-04 20:38;CYQF 042038Z 04004KT 360V080 15SM TS VCSH BKN060CB 18/05 A2967 RMK CB6 OCNL LTGCC W SLP052 DENSITY ALT 4300FT

CYQF;2018-06-04 20:47;CYQF 042047Z 31012G18KT 300V060 15SM -TSRA BKN060CB 16/06 A2968 RMK CB7 OCNL LTGCC W SLP057 DENSITY ALT 4100FT

CYQF;2018-06-04 21:00;CYQF 042100Z 22017G27KT 190V260 12SM TSRA BKN060CB OVC100 13/06 A2969 RMK CB6ACC2 OCNL LTGCG NW SLP063 DENSITY ALT 3700FT

CYQF;2018-06-04 21:10;CYQF 042110Z 22014G36KT 12SM -TSRA BKN060CB BKN100 13/05 A2970 RMK CB5ACC2 OCNL LTGCG N SLP067 DENSITY ALT 3700FT

CYQF;2018-06-04 21:24;CYQF 042124Z 33017KT 230V350 15SM SCT060CB BKN100 15/08 A2969 RMK CB4ACC2 SLP063 DENSITY ALT 4000FT

CYQF;2018-06-04 22:00;CYQF 042200Z 03016G22KT 15SM SCT060CB BKN100 15/09 A2970 RMK CB3ACC2 SLP067 DENSITY ALT 3900FT

CYQF;2018-06-04 23:00;CYQF 042300Z 02015G20KT 15SM FEW060CB SCT140 16/07 A2971 RMK CB2AC1 SLP069 DENSITY ALT 4000FT

CYQF;2018-06-05 00:00;CYQF 050000Z 03011KT 15SM VCSH FEW040 SCT060CB BKN090 16/08 A2972 RMK CF1CB4AC2 CF TR SLP073 DENSITY ALT 4000FT

CYQF;2018-06-05 01:00;CYQF 050100Z 03009G16KT 15SM VCSH BKN070 15/07 A2973 RMK ACC7 SLP078 DENSITY ALT 3900FT

CYQF;2018-06-05 02:00;CYQF 050200Z 33019G28KT 15SM VCSH FEW030 BKN060CB BKN100 11/05 A2977 RMK CF1CB5ACC2 CF TR SLP096 DENSITY ALT 3400FT

CYQF;2018-06-05 02:41;CYQF 050241Z 32012G19KT 12SM -SHRA BKN060 09/06 A2980 RMK SC7 CVCTV CLD EMBD SLP106 DENSITY ALT 3200FT

CYQF;2018-06-05 03:00;CYQF 050300Z 34007KT 15SM -SHRA BKN060 09/06 A2979 RMK SC7 CVCTV CLD EMBD SLP101 DENSITY ALT 3200FT

CYQF;2018-06-05 03:45;CYQF 050345Z 00000KT 15SM VCSH SCT060 BKN120 10/04 A2977 RMK SC3ACC4 SLP093 DENSITY ALT 3300FT

CYQF;2018-06-05 04:00;CYQF 050400Z VRB05KT 15SM FEW060 BKN120 09/06 A2978 RMK SC2AC5 PRESRR SLP097 DENSITY ALT 3100FT

CYQF;2018-06-05 05:00;CYQF 050500Z 26006KT 15SM FEW060 BKN150 09/06 A2981 RMK SC1AC5 SLP108 DENSITY ALT 3100FT

CYQF;2018-06-05 06:00;CYQF 050600Z 24007KT 15SM FEW090 BKN150 08/07 A2982 RMK AC2AC4 SLP110 DENSITY ALT 3000FT

CYQF;2018-06-05 07:00;CYQF 050700Z 24007KT 15SM FEW090 BKN150 07/06 A2983 RMK AC2AC4 SLP114

CYQF;2018-06-05 08:00;CYQF 050800Z 24006KT 15SM BKN090 07/05 A2984 RMK AC5 SLP119

CYQF;2018-06-05 09:00;CYQF 050900Z 25004KT 15SM SCT090 06/04 A2985 RMK AC3 SLP127

CYQF;2018-06-05 10:00;CYQF 051000Z 26005KT 15SM FEW080 05/04 A2986 RMK AC2 SLP130

CYQF;2018-06-05 11:00;CYQF 051100Z 23006KT 15SM FEW080 03/02 A2987 RMK AC2 SLP135

CYQF;2018-06-05 12:00;CYQF 051200Z 21004KT 15SM SCT090 BKN260 04/03 A2988 RMK AC4CI2 SLP137

CYQF;2018-06-05 13:00;CYQF 051300Z 22003KT 15SM FEW090 SCT260 06/04 A2989 RMK AC2CI1 SLP138

CYQF;2018-06-05 14:00;CYQF 051400Z 30005KT 15SM FEW060 FEW080 SCT250 09/06 A2989 RMK SC1AC1CI2 SLP140 DENSITY ALT 3000FT

CYQF;2018-06-05 15:00;CYQF 051500Z 34005KT 290V050 15SM FEW100 SCT250 11/04 A2990 RMK AC1CI3 SLP142 DENSITY ALT 3300FT

CYQF;2018-06-05 16:00;CYQF 051600Z 05004KT 020V120 15SM FEW030 FEW100 BKN250 12/03 A2989 RMK CU1AC1CI6 CU TR AC TR SLP141 DENSITY ALT 3400FT

CYQF;2018-06-05 17:00;CYQF 051700Z 14003KT 080V190 15SM FEW045 BKN250 13/02 A2988 RMK CU2CI5 SLP136 DENSITY ALT 3500FT

CYQF;2018-06-05 18:00;CYQF 051800Z VRB04KT 15SM SCT048 BKN200 14/01 A2987 RMK CU3CI4 SLP131 DENSITY ALT 3700FT

CYQF;2018-06-05 19:00;CYQF 051900Z VRB08KT 15SM FEW045 BKN170 15/01 A2985 RMK CU2AC5 SLP126 DENSITY ALT 3800FT

CYQF;2018-06-05 20:00;CYQF 052000Z 20008KT 090V240 15SM SCT060 BKN160 16/01 A2984 RMK CU3AC3 SLP120 DENSITY ALT 3900FT

CYQF;2018-06-05 21:00;CYQF 052100Z 19010KT 140V220 15SM SCT060 BKN170 17/00 A2983 RMK CU3AC4 SLP116 DENSITY ALT 4000FT

CYQF;2018-06-05 22:00;CYQF 052200Z 00000KT 15SM FEW065 BKN150 17/01 A2982 RMK CU1AC5 SLP114 DENSITY ALT 4000FT

CYQF;2018-06-05 23:00;CYQF 052300Z 13004KT 100V170 15SM FEW068 FEW160 BKN260 18/M00 A2981 RMK CU1AC1CI5 SLP112 DENSITY ALT 4100FT

CYQF;2018-06-06 00:00;CYQF 060000Z 15006KT 15SM FEW068 SCT160 BKN260 18/00 A2980 RMK CU1AC3CI3 SLP107 DENSITY ALT 4200FT

CYQF;2018-06-06 01:00;CYQF 060100Z 12012KT 100V170 15SM FEW070 FEW160 SCT260 18/M01 A2979 RMK CU1AC2CI2 CU TR SLP102 DENSITY ALT 4200FT

CYQF;2018-06-06 02:00;CYQF 060200Z 12009KT 15SM FEW070 SCT110 BKN260 18/M00 A2979 RMK CU1AC3CI2 SLP099 DENSITY ALT 4100FT

CYQF;2018-06-06 03:00;CYQF 060300Z 12005KT 15SM FEW070 SCT110 BKN260 16/01 A2980 RMK CU1AC4CI2 CU TR SLP100 DENSITY ALT 3900FT

CYQF;2018-06-06 04:00;CYQF 060400Z 07006KT 15SM FEW110 SCT260 11/02 A2981 RMK AC2CI2 SLP109 DENSITY ALT 3400FT

CYQF;2018-06-06 05:00;CYQF 060500Z 14003KT 100V160 15SM BKN110 BKN260 10/01 A2982 RMK AC5CI1 SLP112 DENSITY ALT 3300FT

CYQF;2018-06-06 06:00;CYQF 060600Z 14005KT 130V230 15SM SCT110 09/01 A2982 RMK AC4 SLP114 DENSITY ALT 3200FT

CYQF;2018-06-06 07:00;CYQF 060700Z 22005KT 15SM FEW110 07/01 A2983 RMK AC2 SLP117

CYQF;2018-06-06 08:00;CYQF 060800Z 30007KT 15SM FEW110 07/01 A2983 RMK AC1 SLP118

CYQF;2018-06-06 09:00;CYQF 060900Z 19007KT 15SM FEW100 03/01 A2983 RMK AC1 SLP121

CYQF;2018-06-06 10:00;CYQF 061000Z 22003KT 15SM SKC 05/01 A2985 RMK SLP124

CYQF;2018-06-06 11:00;CYQF 061100Z 18004KT 160V230 15SM FEW100 05/00 A2985 RMK AC1 SLP126

CYQF;2018-06-06 12:00;CYQF 061200Z 20003KT 15SM FEW100 FEW260 04/01 A2986 RMK AC1CI1 AC TR SLP128

CYQF;2018-06-06 13:00;CYQF 061300Z 23003KT 180V250 15SM FEW080 FEW260 07/02 A2987 RMK AC1CI1 AC TR SLP128

CYQF;2018-06-06 14:00;CYQF 061400Z 18005KT 15SM FEW090 FEW250 10/03 A2988 RMK AC1CI1 AC TR CI TR SLP128 DENSITY ALT 3100FT

CYQF;2018-06-06 15:00;CYQF 061500Z 25003KT 15SM FEW090 13/04 A2988 RMK AC2 SLP127 DENSITY ALT 3500FT

CYQF;2018-06-06 16:00;CYQF 061600Z 00000KT 15SM FEW100 15/01 A2988 RMK AC1 SLP130 DENSITY ALT 3800FT

CYQF;2018-06-06 17:00;CYQF 061700Z VRB06KT 15SM FEW100 SCT250 18/00 A2987 RMK AC1CI2 SLP124 DENSITY ALT 4100FT

CYQF;2018-06-06 18:00;CYQF 061800Z 24005KT 200V290 15SM FEW072 SCT250 19/00 A2987 RMK AC1CI2 SLP123 DENSITY ALT 4200FT

CYQF;2018-06-06 19:00;CYQF 061900Z 23012KT 170V250 15SM FEW080 FEW250 20/M02 A2986 RMK CU1CI1 SLP122 DENSITY ALT 4400FT

CYQF;2018-06-06 20:00;CYQF 062000Z 19009KT 110V210 15SM SCT080 21/02 A2985 RMK CU3 SLP116 DENSITY ALT 4500FT

CYQF;2018-06-06 21:00;CYQF 062100Z VRB05KT 15SM SCT084 22/02 A2983 RMK CU4 SLP115 DENSITY ALT 4600FT

CYQF;2018-06-06 22:00;CYQF 062200Z 19011G16KT 170V270 15SM SCT092 22/M00 A2982 RMK CU3 SLP108 DENSITY ALT 4700FT

CYQF;2018-06-06 23:00;CYQF 062300Z 19010KT 150V240 15SM FEW100 23/M00 A2981 RMK CU2 SLP105 DENSITY ALT 4700FT

CYQF;2018-06-07 00:00;CYQF 070000Z VRB02KT 15SM FEW100 23/01 A2980 RMK AC1 SLP101 DENSITY ALT 4800FT

CYQF;2018-06-07 01:00;CYQF 070100Z 15008KT 15SM FEW100 23/01 A2980 RMK AC1 SLP097 DENSITY ALT 4700FT

CYQF;2018-06-07 02:00;CYQF 070200Z 14008KT 15SM FEW100 22/02 A2980 RMK AC1 AC TR SLP095 DENSITY ALT 4600FT

CYQF;2018-06-07 03:00;CYQF 070300Z 11005KT 15SM FEW100 20/04 A2980 RMK AC1 AC TR SLP096 DENSITY ALT 4400FT

CYQF;2018-06-07 04:00;CYQF 070400Z 04004KT 020V080 15SM FEW100 SCT250 18/02 A2981 RMK AC1CI2 SLP100 DENSITY ALT 4100FT

CYQF;2018-06-07 05:00;CYQF 070500Z 36006KT 15SM FEW100 SCT260 14/02 A2982 RMK AC1CI3 AC TR SLP104 DENSITY ALT 3700FT

CYQF;2018-06-07 06:00;CYQF 070600Z 30009KT 280V360 15SM SCT260 12/04 A2983 RMK CI3 SLP108 DENSITY ALT 3500FT

CYQF;2018-06-07 07:00;CYQF 070700Z 36005KT 15SM BKN250 13/03 A2984 RMK CI5 SLP108 DENSITY ALT 3500FT

CYQF;2018-06-07 08:00;CYQF 070800Z VRB02KT 15SM BKN260 10/03 A2984 RMK CI5 SLP112 DENSITY ALT 3200FT

CYQF;2018-06-07 09:00;CYQF 070900Z 23003KT 15SM SCT260 09/04 A2985 RMK CI4 SLP115 DENSITY ALT 3000FT

CYQF;2018-06-07 10:00;CYQF 071000Z 19007KT 15SM SCT260 06/04 A2986 RMK CI3 SLP122

CYQF;2018-06-07 11:00;CYQF 071100Z 16007KT 140V250 15SM FEW250 07/03 A2987 RMK CI2 SLP122

CYQF;2018-06-07 12:00;CYQF 071200Z 23004KT 15SM SCT270 08/03 A2986 RMK CI3 SLP120

CYQF;2018-06-07 13:00;CYQF 071300Z 20004KT 15SM SCT270 09/04 A2986 RMK CI4 SLP118 DENSITY ALT 3100FT

CYQF;2018-06-07 14:00;CYQF 071400Z 17003KT 160V240 12SM SCT270 12/06 A2987 RMK CI4 HZ SLP119 DENSITY ALT 3400FT

CYQF;2018-06-07 15:00;CYQF 071500Z 18005KT 12SM SCT270 16/06 A2987 RMK CI3 HZ SLP118 DENSITY ALT 3800FT

CYQF;2018-06-07 16:00;CYQF 071600Z 18005KT 130V220 12SM SCT270 19/05 A2986 RMK CI3 SLP113 DENSITY ALT 4200FT

CYQF;2018-06-07 17:00;CYQF 071700Z 18005KT 060V220 12SM SCT270 22/05 A2986 RMK CI3 SLP114 DENSITY ALT 4500FT

CYQF;2018-06-07 18:00;CYQF 071800Z 00000KT 12SM FEW270 23/03 A2985 RMK CI2 HZ SLP112 DENSITY ALT 4700FT

CYQF;2018-06-07 19:00;CYQF 071900Z VRB07KT 10SM SCT270 24/03 A2984 RMK CI3 HZ SLP105 DENSITY ALT 4800FT

CYQF;2018-06-07 20:00;CYQF 072000Z 14007KT 110V190 10SM FEW090 BKN270 25/05 A2983 RMK CU1CI4 HZ SLP102 DENSITY ALT 4900FT

CYQF;2018-06-07 21:00;CYQF 072100Z 18010G18KT 140V220 10SM FEW090 BKN270 26/05 A2981 RMK CU1CI6 HZ SLP099 DENSITY ALT 5000FT

CYQF;2018-06-07 22:00;CYQF 072200Z 12009G16KT 100V170 10SM FEW100 BKN280 26/02 A2980 RMK CU1CI6 HZ SLP098 DENSITY ALT 5100FT

CYQF;2018-06-07 23:00;CYQF 072300Z 18012KT 150V210 10SM FEW100 BKN280 26/02 A2979 RMK CU1CI6 SLP091 DENSITY ALT 5100FT

CYQF;2018-06-08 00:00;CYQF 080000Z CCA 18010KT 120V200 10SM FEW100 BKN280 26/01 A2977 RMK CU1CI6 HZ SLP085 DENSITY ALT 5100FT

CYQF;2018-06-08 01:00;CYQF 080100Z 17009KT 10SM FEW092 BKN280 25/01 A2977 RMK CU2CI5 HZ SLP083 DENSITY ALT 5000FT

CYQF;2018-06-08 02:00;CYQF 080200Z 14005KT 10SM FEW072 BKN280 23/06 A2977 RMK CU1CI6 HZ SLP081 DENSITY ALT 4800FT

CYQF;2018-06-08 03:00;CYQF 080300Z 13005KT 10SM FEW070 BKN280 21/06 A2977 RMK CU1CI5 HZ SLP080 DENSITY ALT 4600FT

CYQF;2018-06-08 04:00;CYQF 080400Z 12004KT 10SM SCT100 BKN280 19/06 A2977 RMK AC3CI4 HZ SLP081 DENSITY ALT 4300FT

CYQF;2018-06-08 05:00;CYQF 080500Z 14014KT 15SM FEW100 SCT270 19/08 A2978 RMK AC1CI2 SLP080 DENSITY ALT 4300FT

CYQF;2018-06-08 06:00;CYQF 080600Z 14012KT 15SM SCT270 17/08 A2979 WS RWY12 RMK CI3 SLP083 DENSITY ALT 4100FT

CYQF;2018-06-08 07:00;CYQF 080700Z 15010KT 15SM SCT270 16/07 A2979 RMK CI3 SLP083 DENSITY ALT 4000FT

CYQF;2018-06-08 08:00;CYQF 080800Z 20006KT 150V220 15SM SCT270 15/08 A2979 RMK CI3 SLP085 DENSITY ALT 3900FT

CYQF;2018-06-08 09:00;CYQF 080900Z 12007KT 15SM SCT270 13/09 A2980 RMK CI3 SLP090 DENSITY ALT 3700FT

CYQF;2018-06-08 10:00;CYQF 081000Z VRB02KT 15SM FEW270 12/08 A2981 RMK CI2 SLP093 DENSITY ALT 3400FT

CYQF;2018-06-08 11:00;CYQF 081100Z 23004KT 15SM FEW100 SCT270 11/08 A2981 RMK AC2CI2 SLP095 DENSITY ALT 3400FT

CYQF;2018-06-08 12:00;CYQF 081200Z VRB02KT 15SM FEW100 SCT270 09/07 A2982 RMK AC2CI2 SLP100 DENSITY ALT 3100FT

CYQF;2018-06-08 13:00;CYQF 081300Z 22006KT 12SM FEW120 BKN270 13/10 A2983 RMK ACC1CI6 HZ SLP100 DENSITY ALT 3600FT

CYQF;2018-06-08 14:00;CYQF 081400Z 25005KT 12SM FEW120 BKN270 15/10 A2984 RMK ACC1CI4 HZ SLP103 DENSITY ALT 3800FT

CYQF;2018-06-08 15:00;CYQF 081500Z 26007KT 12SM FEW120 SCT270 19/08 A2985 RMK AC1CI2 SLP105 DENSITY ALT 4300FT

CYQF;2018-06-08 16:00;CYQF 081600Z 27010G16KT 12SM FEW050 SCT270 21/05 A2986 RMK CU1CI3 SLP107 DENSITY ALT 4500FT

CYQF;2018-06-08 17:00;CYQF 081700Z 26012KT 12SM FEW050 SCT270 23/05 A2985 RMK CU1CI3 SLP103 DENSITY ALT 4700FT

CYQF;2018-06-08 18:00;CYQF 081800Z 30014G19KT 12SM FEW080 FEW270 24/03 A2985 RMK CU1CI2 CU TR SLP102 DENSITY ALT 4800FT

CYQF;2018-06-08 19:00;CYQF 081900Z 35008KT 260V020 12SM FEW080 SCT270 25/01 A2985 RMK CU1CI2 SLP103 DENSITY ALT 4900FT

CYQF;2018-06-08 20:00;CYQF 082000Z 25007KT 230V340 12SM FEW090 SCT270 25/00 A2984 RMK CU1CI2 SLP100 DENSITY ALT 5000FT

CYQF;2018-06-08 21:00;CYQF 082100Z 31006KT 260V020 15SM SCT096 BKN270 26/02 A2983 RMK CU3CI3 SLP099 DENSITY ALT 5000FT

CYQF;2018-06-08 22:00;CYQF 082200Z 27002KT 15SM SCT094 BKN270 26/03 A2982 RMK CU3CI3 SLP096 DENSITY ALT 5100FT

CYQF;2018-06-08 23:00;CYQF 082300Z VRB02KT 15SM FEW100 BKN270 27/03 A2980 RMK CU2CI4 SLP091 DENSITY ALT 5100FT

CYQF;2018-06-09 00:00;CYQF 090000Z 13010KT 15SM FEW100 BKN270 27/03 A2979 RMK CU1CI4 SLP087 DENSITY ALT 5200FT

CYQF;2018-06-09 01:00;CYQF 090100Z 16011KT 15SM FEW092 BKN270 26/04 A2978 RMK CU2CI5 SLP081 DENSITY ALT 5200FT

CYQF;2018-06-09 02:00;CYQF 090200Z 18008KT 15SM FEW090 BKN270 25/05 A2977 RMK AC1CI5 SLP076 DENSITY ALT 5000FT

CYQF;2018-06-09 03:00;CYQF 090300Z 14006KT 15SM FEW090 SCT270 22/06 A2976 RMK AC1CI3 AC TR SLP074 DENSITY ALT 4700FT

CYQF;2018-06-09 04:00;CYQF 090400Z 11002KT 12SM FEW090 SCT270 18/05 A2976 RMK AC1CI2 SLP074 DENSITY ALT 4300FT

CYQF;2018-06-09 06:00;CYQF 090600Z 04004KT 030V150 12SM FEW090 SCT270 12/04 A2974 RMK AC1CI2 SLP070 DENSITY ALT 3600FT

CYQF;2018-06-09 07:00;CYQF 090700Z 18006KT 12SM FEW100 14/03 A2972 RMK AC1 SLP061 DENSITY ALT 3800FT

CYQF;2018-06-09 08:00;CYQF 090800Z 20005KT 15SM FEW100 13/05 A2971 RMK AC2 SLP058 DENSITY ALT 3700FT

CYQF;2018-06-09 09:00;CYQF 090900Z 19005KT 12SM FEW100 SCT270 10/04 A2970 RMK AC1CI3 SLP059 DENSITY ALT 3300FT

CYQF;2018-06-09 10:00;CYQF 091000Z 17006KT 15SM SCT120 10/04 A2970 RMK AC4 SLP057 DENSITY ALT 3400FT

CYQF;2018-06-09 11:00;CYQF 091100Z 18002KT 12SM FEW120 BKN260 08/03 A2969 RMK AC1CI5 SLP056 DENSITY ALT 3100FT

CYQF;2018-06-09 12:00;CYQF 091200Z 19005KT 15SM SCT160 BKN270 12/04 A2969 RMK AC4CI2 SLP051 DENSITY ALT 3600FT

CYQF;2018-06-09 13:00;CYQF 091300Z 18005KT 15SM FEW100 BKN270 14/05 A2968 RMK ACC2CI4 SLP046 DENSITY ALT 3900FT

CYQF;2018-06-09 14:00;CYQF 091400Z 20005KT 12SM VCSH SCT100 BKN220 17/07 A2969 RMK ACC4CI3 HZ SLP049 DENSITY ALT 4100FT

CYQF;2018-06-09 15:00;CYQF 091500Z 13004KT 060V190 15SM VCSH BKN100 17/07 A2966 RMK ACC7 SLP042 DENSITY ALT 4200FT

CYQF;2018-06-09 15:20;CYQF 091520Z 13007KT 12SM -SHRA BKN080 17/06 A2966 RMK ACC7 SLP039 DENSITY ALT 4300FT

CYQF;2018-06-09 16:00;CYQF 091600Z 14009G16KT 12SM FEW050 BKN080 BKN250 19/11 A2962 RMK CU1ACC5CI1 OCNL -SHRA PRESFR SLP027 DENSITY ALT 4500FT

CYQF;2018-06-09 16:23;CYQF 091623Z 16010KT 15SM VCSH FEW050 BKN120 BKN250 21/10 A2962 RMK CU1ACC5CI2 CU TR SLP025 DENSITY ALT 4800FT

CYQF;2018-06-09 17:00;CYQF 091700Z 14008KT 15SM VCSH FEW050 BKN100 BKN250 21/09 A2961 RMK CU1ACC5CI1 SLP025 DENSITY ALT 4800FT

CYQF;2018-06-09 17:52;CYQF 091752Z 17018KT 12SM -SHRA FEW050 BKN100 21/07 A2964 RMK CU1ACC6 PRESRR SLP035 DENSITY ALT 4700FT

CYQF;2018-06-09 18:00;CYQF 091800Z 17016G22KT 12SM -SHRA FEW050 BKN100 19/09 A2964 RMK CU1ACC6 PRESRR SLP042 DENSITY ALT 4500FT

CYQF;2018-06-09 18:47;CYQF 091847Z 15010KT 15SM FEW050 BKN100 BKN140 20/11 A2962 RMK CU1ACC4AC2 SLP033 DENSITY ALT 4600FT

CYQF;2018-06-09 19:00;CYQF 091900Z 16012KT 15SM FEW050 BKN100 BKN250 21/10 A2962 RMK CU1AC4CI1 VIRGA SLP030 DENSITY ALT 4700FT

CYQF;2018-06-09 20:00;CYQF 092000Z 16016KT 15SM FEW060 SCT120 BKN250 23/08 A2960 RMK CU1AC2CI4 SLP022 DENSITY ALT 5000FT

CYQF;2018-06-09 21:00;CYQF 092100Z 19009G18KT 150V210 15SM FEW064 SCT110 BKN300 25/09 A2956 RMK CU1AC2CI4 SLP010 DENSITY ALT 5200FT

CYQF;2018-06-09 22:00;CYQF 092200Z 20009G18KT 15SM VCSH FEW064 BKN140 BKN300 25/09 A2954 RMK CU2ACC3CI2 SLP003 DENSITY ALT 5300FT

CYQF;2018-06-09 23:00;CYQF 092300Z 19006KT 15SM VCSH SCT060CB BKN080 BKN250 25/08 A2953 RMK CB4AC2CI1 SLP002 DENSITY ALT 5300FT

CYQF;2018-06-10 00:00;CYQF 100000Z 11010G17KT 15SM VCSH SCT050CB BKN080 BKN300 22/11 A2951 RMK CB4AC2CI1 SLP994 DENSITY ALT 4900FT

CYQF;2018-06-10 01:00;CYQF 100100Z 13008KT 15SM VCSH BKN050CB BKN140 OVC300 20/11 A2952 RMK CB5AC2CI1 PRESRR SLP996 DENSITY ALT 4800FT

CYQF;2018-06-10 02:00;CYQF 100200Z 15012G19KT 15SM SCT050CB OVC130 20/11 A2951 RMK CB4AC4 SLP990 DENSITY ALT 4700FT

CYQF;2018-06-10 02:22;CYQF 100222Z 15012G19KT 15SM -SHRA SCT050CB BKN082 OVC130 19/12 A2952 RMK CB4AC3AC1 SLP997 DENSITY ALT 4600FT

CYQF;2018-06-10 02:41;CYQF 100241Z 28020G30KT 170V290 3SM SHRA BKN048CB OVC082 16/12 A2957 RMK CB6AC2 VIS S 6 PRESRR SLP017 DENSITY ALT 4200FT

CYQF;2018-06-10 02:55;CYQF 100255Z 31012G21KT 6SM -SHRA SCT057CB BKN082 14/12 A2957 RMK CB4AC3 SLP017 DENSITY ALT 4000FT

CYQF;2018-06-10 03:00;CYQF 100300Z 32014KT 6SM -SHRA SCT057CB BKN082 14/12 A2957 RMK CB4AC3 SLP017 DENSITY ALT 4000FT

CYQF;2018-06-10 04:00;CYQF 100400Z 34016G21KT 12SM -SHRA FEW010 OVC044 13/12 A2957 RMK SF2SC6 CVCTV CLD EMBD SLP015 DENSITY ALT 3900FT

CYQF;2018-06-10 05:00;CYQF 100500Z 35009G19KT 12SM FEW012 SCT050 BKN120 12/10 A2958 RMK SF1SC4AC1 SF TR PRESRR SLP018 DENSITY ALT 3800FT

CYQF;2018-06-10 06:00;CYQF 100600Z 02012KT 15SM FEW060 11/10 A2954 RMK SC2 SLP008 DENSITY ALT 3700FT

CYQF;2018-06-10 07:00;CYQF 100700Z 33006KT 12SM FEW012 SCT060 10/10 A2959 RMK SF1SC2 PRESRR SLP023 DENSITY ALT 3600FT

CYQF;2018-06-10 08:00;CYQF 100800Z 28005KT 12SM FEW060 BKN160 10/10 A2959 RMK SC2AC4 SLP021 DENSITY ALT 3500FT

CYQF;2018-06-10 09:00;CYQF 100900Z 31009KT 12SM SCT012 BKN060 11/10 A2960 RMK ST4SC1 SLP022 DENSITY ALT 3600FT

CYQF;2018-06-10 09:11;CYQF 100911Z 31006KT 12SM BKN013 11/10 A2959 RMK ST5 SLP019 DENSITY ALT 3600FT

CYQF;2018-06-10 09:45;CYQF 100945Z 30008KT 12SM BKN020 11/10 A2960 RMK SC6 SLP022 DENSITY ALT 3600FT

CYQF;2018-06-10 10:00;CYQF 101000Z 32010KT 12SM BKN018 BKN080 11/10 A2958 RMK SC5AC1 SLP016 DENSITY ALT 3600FT

CYQF;2018-06-10 11:00;CYQF 101100Z 32009KT 12SM BKN020 OVC040 11/10 A2955 RMK SC5SC3 SLP006 DENSITY ALT 3700FT

CYQF;2018-06-10 11:42;CYQF 101142Z 28010KT 12SM FEW008 BKN013 OVC040 10/09 A2956 RMK SF1SC6SC1 SLP009 DENSITY ALT 3600FT

CYQF;2018-06-10 12:00;CYQF 101200Z 29011G17KT 12SM FEW007 BKN015 OVC042 10/09 A2954 RMK SF1SC4SC3 PRESFR SLP007 DENSITY ALT 3500FT

CYQF;2018-06-10 12:46;CYQF 101246Z 28009KT 12SM FEW007 OVC012 09/08 A2953 RMK SF2SC6 SLP005 DENSITY ALT 3500FT

CYQF;2018-06-10 13:00;CYQF 101300Z 28011KT 15SM FEW007 OVC011 09/08 A2954 RMK SF2SC6 SLP008 DENSITY ALT 3500FT

CYQF;2018-06-10 14:00;CYQF 101400Z 28009G17KT 15SM OVC010 09/08 A2953 RMK SC8 CIG RAG SLP008 DENSITY ALT 3500FT

CYQF;2018-06-10 14:09;CYQF 101409Z 30009KT 10SM -RA OVC011 09/08 A2953 RMK SC8 SLP006 DENSITY ALT 3500FT

CYQF;2018-06-10 15:00;CYQF 101500Z 32006KT 6SM -RA BR OVC012 09/08 A2953 RMK SC8 CIG RAG SLP014 DENSITY ALT 3500FT

CYQF;2018-06-10 15:51;CYQF 101551Z 32012G17KT 10SM OVC012 09/08 A2950 RMK SC8 SLP002 DENSITY ALT 3500FT

CYQF;2018-06-10 16:00;CYQF 101600Z 32008G16KT 10SM OVC010 09/08 A2950 RMK SC8 CIG RAG SLP003 DENSITY ALT 3500FT

CYQF;2018-06-10 16:17;CYQF 101617Z 32013KT 10SM -RA OVC010 09/07 A2949 RMK SC8 SLP000 DENSITY ALT 3500FT

CYQF;2018-06-10 17:00;CYQF 101700Z 31009G17KT 10SM -RA OVC012 08/06 A2949 RMK SC8 SLP003 DENSITY ALT 3400FT

CYQF;2018-06-10 17:51;CYQF 101751Z 29009KT 2SM -RA BR FEW008 OVC012 08/06 A2951 RMK SF2SC6 CIG RAG SLP008 DENSITY ALT 3300FT

CYQF;2018-06-10 18:00;CYQF 101800Z 29011G19KT 1 1/2SM -RA BR FEW008 OVC012 07/06 A2951 RMK SF2SC6 SLP009 DENSITY ALT 3300FT

CYQF;2018-06-10 19:00;CYQF 101900Z 27018G26KT 2SM -RA BR FEW008 OVC014 06/04 A2952 RMK SF2SC6 CIG RAG SLP016 DENSITY ALT 3100FT

CYQF;2018-06-10 19:11;CYQF 101911Z 27017G32KT 4SM -RA BR FEW008 BKN014 OVC025 05/04 A2952 RMK SF2SC3SC3 CIG RAG SLP017 DENSITY ALT 3000FT

CYQF;2018-06-10 20:00;CYQF 102000Z 28020G32KT 8SM -RA SCT013 OVC035 05/03 A2953 RMK SC4SC4 SLP023

CYQF;2018-06-10 21:00;CYQF 102100Z 29022G34KT 8SM -RA SCT015 OVC040 06/04 A2953 RMK SF3SC5 SLP020 DENSITY ALT 3100FT

CYQF;2018-06-10 22:00;CYQF 102200Z 30018G32KT 10SM -RA SCT015 OVC044 06/04 A2954 RMK SF3SC5 SLP024 DENSITY ALT 3100FT

CYQF;2018-06-10 23:00;CYQF 102300Z 28017G29KT 8SM -RA OVC015 06/04 A2956 RMK SC8 SLP030 DENSITY ALT 3000FT

CYQF;2018-06-11 00:00;CYQF 110000Z 27020G26KT 8SM -RA OVC012 05/03 A2958 RMK SC8 SLP038

CYQF;2018-06-11 01:00;CYQF 110100Z 27018G24KT 8SM -RA OVC021 05/03 A2960 RMK SC8 SLP045

CYQF;2018-06-11 02:00;CYQF 110200Z 28021G27KT 8SM -RA OVC022 05/03 A2961 RMK SC8 SLP048

CYQF;2018-06-11 03:00;CYQF 110300Z 28020G28KT 6SM -RA BR OVC027 05/04 A2961 RMK SC8 SLP050

CYQF;2018-06-11 04:00;CYQF 110400Z 28019G31KT 6SM -RA BR FEW018 OVC030 05/03 A2960 RMK SF2SC6 SLP046

CYQF;2018-06-11 05:00;CYQF 110500Z 29021G32KT 12SM -RA FEW020 OVC030 06/03 A2959 RMK SF1SC7 SLP044 DENSITY ALT 3000FT

CYQF;2018-06-11 06:00;CYQF 110600Z 29020G31KT 12SM -RA OVC030 06/04 A2960 RMK SC8 /R10/ SLP046 DENSITY ALT 3000FT

CYQF;2018-06-11 07:00;CYQF 110700Z 27018G30KT 10SM -RA OVC030 05/04 A2959 RMK SC8 SLP047

CYQF;2018-06-11 08:00;CYQF 110800Z 25013G20KT 12SM -RA OVC030 06/04 A2958 RMK SC8 SLP043 DENSITY ALT 3000FT

CYQF;2018-06-11 09:00;CYQF 110900Z 27011KT 12SM -RA OVC029 06/04 A2959 RMK SC8 SLP045 DENSITY ALT 3000FT

CYQF;2018-06-11 09:39;CYQF 110939Z 27013G21KT 15SM OVC030 06/03 A2959 RMK SC8 SLP044 DENSITY ALT 3000FT

CYQF;2018-06-11 10:00;CYQF 111000Z 26010KT 15SM BKN030 OVC060 06/03 A2958 RMK SC5SC3 SLP043 DENSITY ALT 3000FT

CYQF;2018-06-11 11:00;CYQF 111100Z 22006KT 15SM SCT030 OVC060 06/03 A2958 RMK SF3SC5 SLP042 DENSITY ALT 3000FT

CYQF;2018-06-11 12:00;CYQF 111200Z 30007G15KT 15SM FEW030 OVC060 07/02 A2958 RMK SF1SC7 SLP043 DENSITY ALT 3100FT

CYQF;2018-06-11 12:53;CYQF 111253Z 30014KT 260V330 12SM -RA BKN032 OVC060 08/02 A2959 RMK SC6SC2 SLP045 DENSITY ALT 3200FT

CYQF;2018-06-11 13:00;CYQF 111300Z 29020G28KT 12SM -RA BKN033 OVC060 07/02 A2959 RMK SC6SC2 SLP045 DENSITY ALT 3200FT

CYQF;2018-06-11 13:43;CYQF 111343Z 29014KT 15SM SCT030 OVC070 07/03 A2960 RMK SC3AC5 SLP047 DENSITY ALT 3200FT

CYQF;2018-06-11 14:00;CYQF 111400Z 29016G22KT 15SM FEW030 OVC070 07/03 A2960 RMK SC2AC6 SLP048 DENSITY ALT 3200FT

CYQF;2018-06-11 15:00;CYQF 111500Z 29013G22KT 12SM FEW020 OVC056 08/02 A2962 RMK SF2SC6 SLP054 DENSITY ALT 3300FT

CYQF;2018-06-11 16:00;CYQF 111600Z 29015G20KT 15SM FEW020 OVC060 09/02 A2963 RMK SF1SC7 SLP056 DENSITY ALT 3400FT

CYQF;2018-06-11 16:26;CYQF 111626Z 29023G33KT 15SM -RA FEW040 OVC060 10/02 A2962 RMK SC2SC6 SLP054 DENSITY ALT 3400FT

CYQF;2018-06-11 17:00;CYQF 111700Z 28016G26KT 15SM FEW040 OVC060 11/02 A2962 RMK SC2SC6 INTMT -RA SLP052 DENSITY ALT 3500FT

CYQF;2018-06-11 17:22;CYQF 111722Z 26012G20KT 15SM FEW036 OVC100 12/03 A2961 RMK CU1AC7 SLP048 DENSITY ALT 3600FT

CYQF;2018-06-11 18:00;CYQF 111800Z 28013G22KT 15SM FEW036 SCT100 OVC260 12/03 A2960 RMK CU1AC2CI5 SLP043 DENSITY ALT 3800FT

CYQF;2018-06-11 19:00;CYQF 111900Z 27018G24KT 15SM SCT036 OVC140 14/01 A2959 RMK SC3AC5 SLP039 DENSITY ALT 3900FT

CYQF;2018-06-11 20:00;CYQF 112000Z 27010G21KT 15SM FEW046 OVC140 15/02 A2959 RMK CU2AC6 SLP036 DENSITY ALT 4000FT

CYQF;2018-06-11 21:00;CYQF 112100Z 28017G23KT 15SM FEW080 BKN140 16/M01 A2960 RMK CU2AC5 SLP037 DENSITY ALT 4200FT

CYQF;2018-06-11 22:00;CYQF 112200Z 29015G21KT 230V300 15SM FEW060 SCT140 BKN300 16/M01 A2960 RMK CU2AC2CI2 SLP036 DENSITY ALT 4200FT

CYQF;2018-06-11 23:00;CYQF 112300Z 29015G23KT 15SM FEW070 BKN150 16/M03 A2960 RMK CU2AC5 SLP039 DENSITY ALT 4200FT

CYQF;2018-06-12 00:00;CYQF 120000Z 28013G25KT 15SM FEW072 SCT140 BKN300 16/M02 A2961 RMK CU1AC3CI2 SLP040 DENSITY ALT 4200FT

CYQF;2018-06-12 01:00;CYQF 120100Z 27012G19KT 15SM FEW070 BKN160 15/M02 A2962 RMK CU2AC5 SLP046 DENSITY ALT 4100FT

CYQF;2018-06-12 02:00;CYQF 120200Z 26012G24KT 15SM FEW070 BKN170 BKN250 15/M02 A2965 RMK CU1AC5CI1 CU TR SLP054 DENSITY ALT 4000FT

CYQF;2018-06-12 03:00;CYQF 120300Z 27013G20KT 15SM BKN160 BKN250 13/M04 A2967 RMK AC5CI2 SLP064 DENSITY ALT 3800FT

CYQF;2018-06-12 04:00;CYQF 120400Z 28010G15KT 15SM BKN160 12/M03 A2970 RMK AC7 SLP073 DENSITY ALT 3600FT

CYQF;2018-06-12 05:00;CYQF 120500Z 28013KT 15SM BKN140 12/M04 A2971 RMK AC7 SLP076 DENSITY ALT 3500FT

CYQF;2018-06-12 06:00;CYQF 120600Z 25007KT 15SM OVC120 10/M03 A2972 RMK AC8 SLP080 DENSITY ALT 3300FT

CYQF;2018-06-12 07:00;CYQF 120700Z 24007KT 15SM BKN120 09/M03 A2972 RMK AC7 SLP080 DENSITY ALT 3300FT

CYQF;2018-06-12 08:00;CYQF 120800Z 26006KT 15SM BKN120 09/M02 A2973 RMK AC6 SLP083 DENSITY ALT 3200FT

CYQF;2018-06-12 09:00;CYQF 120900Z 24006KT 15SM BKN110 08/M02 A2973 RMK AC7 SLP083 DENSITY ALT 3100FT

CYQF;2018-06-12 10:00;CYQF 121000Z 24008KT 15SM BKN120 08/M03 A2974 RMK AC7 SLP085 DENSITY ALT 3100FT

CYQF;2018-06-12 11:00;CYQF 121100Z 24009KT 15SM BKN140 08/M03 A2976 RMK AC7 SLP090 DENSITY ALT 3100FT

CYQF;2018-06-12 12:00;CYQF 121200Z 24008KT 15SM SCT120 BKN170 08/M02 A2976 RMK AC3AC4 SLP091 DENSITY ALT 3000FT

CYQF;2018-06-12 13:00;CYQF 121300Z 23008KT 15SM SCT140 BKN250 08/M02 A2977 RMK AC3CI3 SLP094 DENSITY ALT 3100FT

CYQF;2018-06-12 14:00;CYQF 121400Z 24010KT 15SM FEW140 BKN260 11/00 A2977 RMK AC1CI5 SLP094 DENSITY ALT 3400FT

CYQF;2018-06-12 15:00;CYQF 121500Z 27013G22KT 15SM FEW140 BKN260 14/M01 A2977 RMK AC1CI5 AC TR SLP091 DENSITY ALT 3800FT

CYQF;2018-06-12 16:00;CYQF 121600Z 30016G25KT 15SM FEW100 FEW250 15/M00 A2977 RMK ACC1CI1 SLP091 DENSITY ALT 3900FT

CYQF;2018-06-12 17:00;CYQF 121700Z 28015G23KT 15SM FEW100 16/M01 A2977 RMK ACC1 SLP091 DENSITY ALT 4000FT

CYQF;2018-06-12 18:00;CYQF 121800Z 30017G25KT 15SM FEW070 FEW100 17/M01 A2977 RMK CU1AC1 CU TR SLP092 DENSITY ALT 4100FT

CYQF;2018-06-12 19:00;CYQF 121900Z 27012G21KT 250V310 15SM SCT070 SCT150 18/M00 A2978 RMK CU3AC1 SLP094 DENSITY ALT 4200FT

CYQF;2018-06-12 20:00;CYQF 122000Z 30015G24KT 240V310 15SM BKN080 18/M01 A2978 RMK AC5 CU SLP095 DENSITY ALT 4200FT

CYQF;2018-06-12 21:00;CYQF 122100Z 29011G21KT 260V320 15SM SCT070 20/M00 A2977 RMK CU4 SLP092 DENSITY ALT 4400FT

CYQF;2018-06-12 22:00;CYQF 122200Z 28010G21KT 15SM SCT080 20/M02 A2976 RMK AC4 CU SLP088 DENSITY ALT 4400FT

CYQF;2018-06-12 23:00;CYQF 122300Z 30008G18KT 230V320 15SM SCT080 20/00 A2975 RMK CU4 SLP084 DENSITY ALT 4500FT

CYQF;2018-06-13 00:00;CYQF 130000Z 28005G15KT 15SM SCT080 20/M02 A2974 RMK CU3 SLP081 DENSITY ALT 4500FT

CYQF;2018-06-13 01:00;CYQF 130100Z 29010KT 15SM FEW070 SCT280 20/M02 A2974 RMK CU2CI1 SLP079 DENSITY ALT 4400FT

CYQF;2018-06-13 02:00;CYQF 130200Z 28011KT 15SM FEW080 SCT250 19/M04 A2973 RMK CU1CI2 SLP076 DENSITY ALT 4400FT

CYQF;2018-06-13 03:00;CYQF 130300Z 27003KT 15SM FEW080 FEW160 SCT250 17/00 A2973 RMK CU1AC2CI2 CU TR SLP073 DENSITY ALT 4100FT

CYQF;2018-06-13 04:00;CYQF 130400Z 34005KT 15SM FEW160 BKN250 13/01 A2973 RMK AC1CI4 SLP077 DENSITY ALT 3700FT

CYQF;2018-06-13 05:00;CYQF 130500Z VRB04KT 15SM FEW170 BKN250 14/02 A2976 RMK AC2CI3 SLP084 DENSITY ALT 3700FT

CYQF;2018-06-13 06:00;CYQF 130600Z 33003KT 300V020 15SM SCT180 13/02 A2976 RMK AC4 SLP085 DENSITY ALT 3700FT

CYQF;2018-06-13 07:00;CYQF 130700Z 29003KT 15SM BKN150 13/M02 A2976 RMK AC7 SLP083 DENSITY ALT 3600FT

CYQF;2018-06-13 08:00;CYQF 130800Z 24003KT 15SM BKN130 10/01 A2975 RMK AC7 SLP084 DENSITY ALT 3300FT

CYQF;2018-06-13 09:00;CYQF 130900Z 27004KT 230V290 15SM BKN130 09/02 A2975 RMK AC7 SLP083 DENSITY ALT 3200FT

CYQF;2018-06-13 10:00;CYQF 131000Z 16005KT 130V250 15SM BKN140 08/04 A2974 RMK AC7 SLP079 DENSITY ALT 3100FT

CYQF;2018-06-13 11:00;CYQF 131100Z 20003KT 15SM BKN160 07/02 A2973 RMK AC7 SLP079 DENSITY ALT 3000FT

CYQF;2018-06-13 12:00;CYQF 131200Z 22003KT 15SM BKN120 07/04 A2973 RMK AC7 SLP078 DENSITY ALT 3000FT

CYQF;2018-06-13 13:00;CYQF 131300Z VRB02KT 15SM BKN100 08/03 A2973 RMK AC7 SLP078 DENSITY ALT 3100FT

CYQF;2018-06-13 14:00;CYQF 131400Z 23004KT 15SM FEW100 BKN170 10/04 A2974 RMK AC2AC4 SLP078 DENSITY ALT 3300FT

CYQF;2018-06-13 15:00;CYQF 131500Z 18002KT 15SM FEW100 FEW170 SCT210 13/04 A2973 RMK AC1AC1CI2 SLP074 DENSITY ALT 3700FT

CYQF;2018-06-13 16:00;CYQF 131600Z 30006KT 15SM FEW052 FEW100 SCT260 16/01 A2972 RMK CU1AC1CI1 SLP071 DENSITY ALT 4000FT

CYQF;2018-06-13 17:00;CYQF 131700Z 28008KT 230V340 15SM FEW060 BKN080 BKN260 17/02 A2970 RMK CU1AC4CI1 SLP065 DENSITY ALT 4100FT

CYQF;2018-06-13 18:00;CYQF 131800Z VRB06KT 15SM SCT060 BKN080 18/03 A2969 RMK CU4AC2 SLP060 DENSITY ALT 4300FT

CYQF;2018-06-13 19:00;CYQF 131900Z CCA VRB02KT 15SM SCT060 BKN080 19/03 A2968 RMK CU4AC2 VIRGA SLP054 DENSITY ALT 4400FT

CYQF;2018-06-13 20:00;CYQF 132000Z VRB02KT 15SM BKN064 BKN090 19/03 A2967 RMK CU5AC1 SLP055 DENSITY ALT 4400FT

CYQF;2018-06-13 21:00;CYQF 132100Z 12007KT 040V140 15SM FEW060 BKN070 18/04 A2966 RMK CU2AC4 SLP053 DENSITY ALT 4400FT

CYQF;2018-06-13 22:00;CYQF 132200Z 07008KT 360V130 15SM SCT064 BKN100 21/04 A2964 RMK CU3AC3 SLP045 DENSITY ALT 4700FT

CYQF;2018-06-13 23:00;CYQF 132300Z VRB06KT 15SM FEW060TCU BKN120 20/04 A2963 RMK TCU2AC5 VIRGA SLP045 DENSITY ALT 4600FT

CYQF;2018-06-14 00:00;CYQF 140000Z VRB04KT 15SM FEW060TCU BKN120 21/06 A2963 RMK TCU2AC3 VIRGA SLP042 DENSITY ALT 4700FT

CYQF;2018-06-14 00:20;CYQF 140020Z 09010KT 15SM SCT060CB BKN120 20/05 A2962 RMK CB3AC2 OCNL LTGCG SW SLP041 DENSITY ALT 4600FT

CYQF;2018-06-14 00:38;CYQF 140038Z 12003KT 070V140 12SM TS VCSH SCT060CB BKN120 20/05 A2963 RMK CB3AC2 OCNL LTGCG SW SH SE-SW SLP043 DENSITY ALT 4600FT

CYQF;2018-06-14 01:00;CYQF 140100Z 11005KT 050V140 12SM TS VCSH SCT080CB BKN120 19/05 A2963 RMK CB4AC2 OCNL LTGCG LTGIC SE-S SH SE-S SLP044 DENSITY ALT 4500FT

CYQF;2018-06-14 01:13;CYQF 140113Z 21016G22KT 12SM -TSRA BKN070CB BKN120 16/06 A2965 RMK CB5AC2 OCNL LTGCG LTGIC E-SE PRESRR SLP053 DENSITY ALT 4200FT

CYQF;2018-06-14 01:51;CYQF 140151Z 12011G18KT 15SM SCT060CB BKN120 14/08 A2964 RMK CB4AC3 SLP053 DENSITY ALT 3900FT

CYQF;2018-06-14 02:00;CYQF 140200Z 11014KT 15SM SCT060CB BKN140 14/08 A2964 RMK CB4AC2 VCSH SLP051 DENSITY ALT 3900FT

CYQF;2018-06-14 03:00;CYQF 140300Z 06006KT 15SM SCT050TCU BKN150 BKN250 12/08 A2964 RMK TCU3AC2CI1 SLP049 DENSITY ALT 3700FT

CYQF;2018-06-14 04:00;CYQF 140400Z 02004KT 15SM FEW080TCU SCT100 BKN160 11/07 A2966 RMK TCU2AC2AC1 SLP055 DENSITY ALT 3500FT

CYQF;2018-06-14 05:00;CYQF 140500Z 34006KT 15SM VCSH SCT060CB BKN150 12/06 A2969 RMK CB3AC3 SLP061 DENSITY ALT 3600FT

CYQF;2018-06-14 05:25;CYQF 140525Z 36003KT 15SM TS VCSH SCT060CB BKN150 12/06 A2970 RMK CB4AC2 FRQ LTGCC SLP065 DENSITY ALT 3600FT

CYQF;2018-06-14 05:53;CYQF 140553Z 23004KT 12SM -TSRA BKN060CB BKN130 12/07 A2972 RMK CB5AC2 OCNL LTGCC SLP072 DENSITY ALT 3600FT

CYQF;2018-06-14 06:00;CYQF 140600Z VRB03KT 15SM -TSRA BKN060CB BKN130 12/07 A2971 RMK CB5AC2 SLP068 DENSITY ALT 3600FT

CYQF;2018-06-14 06:18;CYQF 140618Z 05010KT 15SM -SHRA SCT060CB BKN130 11/07 A2970 RMK CB4AC1 SLP065 DENSITY ALT 3500FT

CYQF;2018-06-14 06:32;CYQF 140632Z 07006KT 15SM VCSH SCT060CB SCT130 10/07 A2970 RMK CB3AC1 SLP065 DENSITY ALT 3400FT

CYQF;2018-06-14 07:00;CYQF 140700Z 07007KT 15SM FEW050TCU SCT100 10/07 A2970 RMK TCU1AC2 SLP064 DENSITY ALT 3400FT

CYQF;2018-06-14 08:00;CYQF 140800Z 02003KT 15SM SCT080 10/07 A2970 RMK AC3 SLP064 DENSITY ALT 3400FT

CYQF;2018-06-14 09:00;CYQF 140900Z 34006KT 15SM SCT068 09/06 A2971 RMK AC3 SLP071 DENSITY ALT 3200FT

CYQF;2018-06-14 10:00;CYQF 141000Z 34006KT 15SM SCT070 SCT160 09/07 A2971 RMK AC3AC1 SLP069 DENSITY ALT 3300FT

CYQF;2018-06-14 11:00;CYQF 141100Z 32003KT 15SM SCT100 BKN200 09/07 A2972 RMK AC4CI1 SLP074 DENSITY ALT 3200FT

CYQF;2018-06-14 12:00;CYQF 141200Z 32002KT 15SM BKN081 BKN200 09/07 A2973 RMK AC5CI1 SLP074 DENSITY ALT 3200FT

CYQF;2018-06-14 13:00;CYQF 141300Z 36006KT 15SM FEW081 BKN110 BKN250 10/08 A2974 RMK AC1AC4CI1 SLP079 DENSITY ALT 3300FT

CYQF;2018-06-14 14:00;CYQF 141400Z 02007KT 12SM FEW010 SCT062 BKN080 BKN250 11/08 A2975 RMK SF1SC3AC2CI1 SF TR SLP086 DENSITY ALT 3400FT

CYQF;2018-06-14 15:00;CYQF 141500Z 03007KT 15SM FEW010 BKN091 BKN250 12/08 A2976 RMK SF1AC4CI2 SLP091 DENSITY ALT 3600FT

CYQF;2018-06-14 16:00;CYQF 141600Z 04008KT 15SM FEW024 BKN090 BKN210 13/08 A2977 RMK CU2AC3CI2 SLP094 DENSITY ALT 3700FT

CYQF;2018-06-14 17:00;CYQF 141700Z 04011KT 12SM BKN032 OVC090 15/08 A2977 RMK CU6AC2 SLP092 DENSITY ALT 3800FT

CYQF;2018-06-14 18:00;CYQF 141800Z 36012G19KT 15SM BKN035 OVC060 16/08 A2977 RMK CU6SC2 SLP091 DENSITY ALT 4000FT

CYQF;2018-06-14 19:00;CYQF 141900Z 01013G18KT 330V040 15SM BKN036TCU BKN090 15/08 A2977 RMK TCU6AC1 SLP094 DENSITY ALT 3900FT

CYQF;2018-06-14 20:00;CYQF 142000Z 04012G18KT 15SM SCT036CB BKN100 17/08 A2977 RMK CB4AC3 SLP093 DENSITY ALT 4100FT

CYQF;2018-06-14 21:00;CYQF 142100Z 01005KT 350V080 15SM BKN040CB BKN100 16/08 A2978 RMK CB5AC2 SLP096 DENSITY ALT 4000FT

CYQF;2018-06-14 22:00;CYQF 142200Z 02007KT 15SM BKN040CB BKN100 16/07 A2978 RMK CB5AC1 SLP095 DENSITY ALT 4000FT

CYQF;2018-06-14 23:00;CYQF 142300Z 25010KT 15SM BKN047CB BKN100 16/10 A2978 RMK CB6AC1 SLP097 DENSITY ALT 3900FT

CYQF;2018-06-14 23:31;CYQF 142331Z 24011G19KT 15SM -SHRAGR BKN045CB BKN100 14/09 A2978 RMK CB6AC1 SLP099 DENSITY ALT 3800FT

CYQF;2018-06-14 23:46;CYQF 142346Z 24011G16KT 12SM -TSRA BKN045CB BKN100 14/09 A2978 RMK CB6AC1 LTGCG SW SLP099 DENSITY ALT 3700FT

CYQF;2018-06-15 00:00;CYQF 150000Z 28011G17KT 12SM TS VCSH BKN045CB BKN100 14/08 A2978 RMK CB5AC2 SLP101 DENSITY ALT 3700FT

CYQF;2018-06-15 00:06;CYQF 150006Z 27012G17KT 12SM -TSRA BKN045CB BKN100 13/08 A2979 RMK CB6AC1 SLP102 DENSITY ALT 3700FT

CYQF;2018-06-15 00:34;CYQF 150034Z 28005KT 15SM BKN045CB BKN100 13/08 A2979 RMK CB5AC2 SLP105 DENSITY ALT 3600FT

CYQF;2018-06-15 01:00;CYQF 150100Z 29005KT 15SM SCT045CB BKN100 BKN250 13/08 A2979 RMK CB3AC3CI1 SLP102 DENSITY ALT 3600FT

CYQF;2018-06-15 02:00;CYQF 150200Z 34007KT 15SM FEW050TCU BKN100 BKN200 15/08 A2979 RMK TCU2AC3CI2 SLP099 DENSITY ALT 3800FT

CYQF;2018-06-15 03:00;CYQF 150300Z 34006KT 15SM VCSH SCT050TCU BKN080 14/07 A2980 RMK TCU3AC3 SLP103 DENSITY ALT 3700FT

CYQF;2018-06-15 04:00;CYQF 150400Z 36008KT 15SM SCT040TCU BKN100 12/08 A2982 RMK TCU3AC2 SLP110 DENSITY ALT 3400FT

CYQF;2018-06-15 05:00;CYQF 150500Z 00000KT 15SM FEW060TCU BKN100 BKN250 10/07 A2983 RMK TCU2AC3CI1 SLP115 DENSITY ALT 3200FT

CYQF;2018-06-15 06:00;CYQF 150600Z 24006KT 15SM FEW060 SCT100 08/07 A2983 RMK SC1AC2 SLP116 DENSITY ALT 3000FT

CYQF;2018-06-15 07:00;CYQF 150700Z 25006KT 15SM FEW100 09/07 A2983 RMK AC1 SLP117 DENSITY ALT 3100FT

CYQF;2018-06-15 08:00;CYQF 150800Z VRB02KT 15SM FEW100 07/06 A2984 RMK AC1 SLP118

CYQF;2018-06-15 09:00;CYQF 150900Z VRB02KT 15SM FEW100 05/05 A2984 RMK AC1 AC TR SLP122

CYQF;2018-06-15 10:00;CYQF 151000Z 21004KT 15SM FEW100 05/04 A2984 RMK AC1 AC TR SLP124

CYQF;2018-06-15 11:00;CYQF 151100Z 20003KT 15SM FEW100 SCT250 04/04 A2986 RMK AC1CI2 SLP131

CYQF;2018-06-15 12:00;CYQF 151200Z 21004KT 15SM FEW100 SCT250 04/04 A2986 RMK ACC1CI3 SLP133

CYQF;2018-06-15 13:00;CYQF 151300Z 23005KT 15SM FEW080 BKN250 08/06 A2987 RMK ACC1CI4 SLP131

CYQF;2018-06-15 14:00;CYQF 151400Z 23005KT 15SM FEW080 BKN250 10/07 A2987 RMK ACC1CI4 SLP128 DENSITY ALT 3200FT

CYQF;2018-06-15 15:00;CYQF 151500Z 25004KT 15SM FEW080 BKN250 13/09 A2988 RMK AC2CI4 SLP130 DENSITY ALT 3500FT

CYQF;2018-06-15 16:00;CYQF 151600Z 22003KT 15SM SCT080 BKN330 15/08 A2988 RMK AC3CI4 CB TOP DIST NW SLP128 DENSITY ALT 3800FT

CYQF;2018-06-15 17:00;CYQF 151700Z VRB05KT 15SM SCT032TCU BKN080 BKN260 16/08 A2987 RMK TCU3AC2CC2 SLP128 DENSITY ALT 3900FT

CYQF;2018-06-15 18:00;CYQF 151800Z 31005KT 15SM SCT048TCU BKN160 16/07 A2987 RMK TCU4AC3 SLP129 DENSITY ALT 3900FT

CYQF;2018-06-15 19:00;CYQF 151900Z 28004KT 15SM VCSH SCT040TCU BKN140 BKN330 17/07 A2987 RMK TCU4AC2CI1 CB TOP DIST NW SLP127 DENSITY ALT 4000FT

CYQF;2018-06-15 20:00;CYQF 152000Z 24003KT 200V360 15SM VCSH BKN052TCU BKN160 18/05 A2986 RMK TCU5AC2 SLP125 DENSITY ALT 4100FT

CYQF;2018-06-15 21:00;CYQF 152100Z 31006KT 240V340 15SM VCSH BKN045TCU BKN110 18/07 A2985 RMK TCU6AC1 SLP124 DENSITY ALT 4100FT

CYQF;2018-06-15 22:00;CYQF 152200Z 00000KT 12SM -SHRA SCT040TCU BKN100 17/07 A2986 RMK TCU4AC3 SLP127 DENSITY ALT 4000FT

CYQF;2018-06-15 22:30;CYQF 152230Z 34012KT 15SM -TSRA SCT040CB BKN080 OVC250 15/08 A2986 RMK CB4AC3CI1 OCNL LTGIC S SLP130 DENSITY ALT 3800FT

CYQF;2018-06-15 23:00;CYQF 152300Z 01010KT 15SM -SHRA SCT028TCU BKN100 14/08 A2987 RMK TCU4AC3 SLP137 DENSITY ALT 3600FT

CYQF;2018-06-16 00:00;CYQF 160000Z 05005KT 15SM -SHRA BKN050TCU BKN100 14/10 A2989 RMK TCU5AC2 SLP142 DENSITY ALT 3600FT

CYQF;2018-06-16 01:00;CYQF 160100Z 31003KT 12SM -SHRA BKN050CB BKN080 14/11 A2990 RMK CB5AC2 SLP143 DENSITY ALT 3600FT

CYQF;2018-06-16 01:47;CYQF 160147Z 28010KT 12SM -TSRA SCT050CB BKN080 12/10 A2991 RMK CB3AC4 OCNL -SHRA SLP149 DENSITY ALT 3400FT

CYQF;2018-06-16 02:00;CYQF 160200Z 29006KT 12SM -TSRA SCT040CB BKN090 12/10 A2992 RMK CB4AC3 OCNL LTGCG W OCNL -SHRA SLP150 DENSITY ALT 3400FT

CYQF;2018-06-16 02:15;CYQF 160215Z 28009KT 12SM TS SCT050CB BKN090 BKN140 12/09 A2993 RMK CB3AC2AC2 SLP151 DENSITY ALT 3400FT

CYQF;2018-06-16 02:22;CYQF 160222Z 28008KT 12SM SCT050CB BKN080 BKN120 12/10 A2993 RMK CB3AC2AC2 SLP151 DENSITY ALT 3400FT

CYQF;2018-06-16 03:00;CYQF 160300Z 26008KT 15SM SCT045CB BKN080 BKN140 12/10 A2994 RMK CB3AC2AC2 SLP153 DENSITY ALT 3300FT

CYQF;2018-06-16 04:00;CYQF 160400Z 28007KT 15SM FEW040 SCT060 BKN120 12/09 A2996 RMK CU1SC3AC3 SLP157 DENSITY ALT 3300FT

CYQF;2018-06-16 05:00;CYQF 160500Z 30006KT 15SM FEW050 BKN060 11/09 A2998 RMK CU2SC5 SLP165 DENSITY ALT 3200FT

CYQF;2018-06-16 05:18;CYQF 160518Z 30008KT 15SM TS SCT050CB BKN080 11/09 A2999 RMK CB3AC4 SLP166 DENSITY ALT 3200FT

CYQF;2018-06-16 06:00;CYQF 160600Z 05005KT 12SM TS VCSH BKN035CB BKN060 12/09 A3000 RMK CB5SC2 OCNL LTGCG N SLP171 DENSITY ALT 3300FT

CYQF;2018-06-16 06:12;CYQF 160612Z VRB02KT 12SM -TSRA BKN025CB OVC050 12/09 A3000 RMK CB5SC3 SLP171 DENSITY ALT 3200FT

CYQF;2018-06-16 06:27;CYQF 160627Z VRB03KT 10SM -SHRA SCT025 OVC055 11/09 A3001 RMK CU3SC5 SLP174 DENSITY ALT 3100FT

CYQF;2018-06-16 07:00;CYQF 160700Z 20006KT 10SM -SHRA OVC060 11/09 A3000 RMK SC8 CVCTV CLD EMBD SLP172 DENSITY ALT 3100FT

CYQF;2018-06-16 08:00;CYQF 160800Z 30007KT 12SM -SHRA OVC080 09/09 A3002 RMK AC8 CVCTV CLD EMBD SLP178

CYQF;2018-06-16 08:07;CYQF 160807Z 29007KT 12SM OVC080 10/09 A3002 RMK AC8 SLP179 DENSITY ALT 3000FT

CYQF;2018-06-16 09:00;CYQF 160900Z 33007KT 15SM SCT033 BKN077 10/08 A3003 RMK SC3AC3 SLP181 DENSITY ALT 3000FT

CYQF;2018-06-16 10:00;CYQF 161000Z 36005KT 15SM FEW050 BKN080 09/08 A3004 RMK SC1AC6 SLP186

CYQF;2018-06-16 11:00;CYQF 161100Z 34008KT 15SM SCT035 BKN090 10/08 A3006 RMK CU3AC4 SLP194

CYQF;2018-06-16 12:00;CYQF 161200Z 34006KT 15SM FEW030 BKN100 10/08 A3007 RMK CU2AC5 SLP200

CYQF;2018-06-16 13:00;CYQF 161300Z 33006KT 15SM FEW060 BKN100 10/08 A3009 RMK SC1AC6 ACC ASOCTD SLP206 DENSITY ALT 3000FT

CYQF;2018-06-16 14:00;CYQF 161400Z 34007KT 15SM FEW060 BKN100 11/08 A3010 RMK SC1ACC6 SLP209 DENSITY ALT 3000FT

CYQF;2018-06-16 15:00;CYQF 161500Z 34009KT 15SM FEW070 BKN110 BKN260 12/09 A3010 RMK ACC1AC4CI1 SLP211 DENSITY ALT 3200FT

CYQF;2018-06-16 16:00;CYQF 161600Z 36010G15KT 15SM SCT020 BKN100 14/09 A3011 RMK CU3AC3 SLP210 DENSITY ALT 3400FT

CYQF;2018-06-16 17:00;CYQF 161700Z 03008KT 15SM BKN025TCU BKN060 16/10 A3010 RMK TCU5SC2 SLP207 DENSITY ALT 3600FT

CYQF;2018-06-16 18:00;CYQF 161800Z 01009KT 15SM VCSH BKN032TCU OVC090 16/08 A3010 RMK TCU6ACC2 SLP207 DENSITY ALT 3600FT

CYQF;2018-06-16 19:00;CYQF 161900Z 36015G21KT 15SM VCSH BKN040TCU BKN080 17/07 A3010 RMK TCU5ACC2 SLP204 DENSITY ALT 3700FT

CYQF;2018-06-16 20:00;CYQF 162000Z 36012G19KT 320V030 15SM VCSH BKN040TCU BKN080 18/08 A3009 RMK TCU5ACC1 SLP201 DENSITY ALT 3800FT

CYQF;2018-06-16 21:00;CYQF 162100Z 01015G21KT 350V050 15SM SCT045TCU BKN100 19/04 A3008 RMK TCU4AC2 SLP198 DENSITY ALT 4000FT

CYQF;2018-06-16 22:00;CYQF 162200Z 36008G15KT 320V030 15SM SCT044TCU BKN100 19/08 A3008 RMK TCU4ACC1 SLP196 DENSITY ALT 4000FT

CYQF;2018-06-16 23:00;CYQF 162300Z 34014G19KT 15SM SCT050TCU BKN100 19/07 A3009 RMK TCU4AC1 SLP198 DENSITY ALT 4000FT

CYQF;2018-06-17 00:00;CYQF 170000Z 33009KT 15SM FEW045TCU SCT100 18/07 A3009 RMK TCU2AC2 SLP201 DENSITY ALT 3900FT

CYQF;2018-06-17 01:00;CYQF 170100Z 33007KT 15SM FEW050TCU SCT090 18/05 A3009 RMK TCU2AC2 SLP202 DENSITY ALT 3800FT

CYQF;2018-06-17 02:00;CYQF 170200Z 34008KT 15SM FEW050TCU FEW090 SCT250 18/05 A3009 RMK TCU1AC1CI2 SLP201 DENSITY ALT 3900FT

CYQF;2018-06-17 03:00;CYQF 170300Z 34007KT 15SM FEW045 FEW100 SCT250 16/06 A3010 RMK CU1AC1CI1 SLP204 DENSITY ALT 3600FT

CYQF;2018-06-17 04:00;CYQF 170400Z 31005KT 15SM FEW040 FEW100 13/06 A3011 RMK CU1AC1 CU TR SLP208 DENSITY ALT 3300FT

CYQF;2018-06-17 05:00;CYQF 170500Z 30006KT 15SM FEW100 11/07 A3011 RMK AC1 SLP209 DENSITY ALT 3000FT

CYQF;2018-06-17 06:00;CYQF 170600Z 32005KT 15SM FEW100 11/07 A3011 RMK AC1 AC TR SLP210 DENSITY ALT 3000FT

CYQF;2018-06-17 07:00;CYQF 170700Z 19004KT 15SM SKC 08/06 A3011 RMK SLP213

CYQF;2018-06-17 08:00;CYQF 170800Z 20005KT 15SM SKC 06/04 A3011 RMK SLP214

CYQF;2018-06-17 09:00;CYQF 170900Z 23005KT 15SM SKC 07/06 A3011 RMK SLP212

CYQF;2018-06-17 10:00;CYQF 171000Z 24004KT 15SM SKC 06/05 A3011 RMK SLP213

CYQF;2018-06-17 11:00;CYQF 171100Z 19004KT 15SM FEW100 04/03 A3012 RMK AC1 AC TR SLP216

CYQF;2018-06-17 12:00;CYQF 171200Z 21003KT 15SM FEW100 06/05 A3012 RMK AC1 AC TR SLP216

CYQF;2018-06-17 13:00;CYQF 171300Z 20004KT 15SM SKC 08/07 A3012 RMK SLP215

CYQF;2018-06-17 14:00;CYQF 171400Z 23003KT 15SM SKC 11/08 A3012 RMK SLP212 DENSITY ALT 3000FT

CYQF;2018-06-17 15:00;CYQF 171500Z 20003KT 150V260 15SM SKC 14/09 A3012 RMK SLP210 DENSITY ALT 3300FT

CYQF;2018-06-17 16:00;CYQF 171600Z 19004KT 160V240 15SM FEW024TCU 16/08 A3012 RMK TCU1 TCU TR SLP212 DENSITY ALT 3500FT

CYQF;2018-06-17 17:00;CYQF 171700Z 16003KT 140V260 15SM SCT045 18/07 A3012 RMK CU3 SLP209 DENSITY ALT 3800FT

CYQF;2018-06-17 18:00;CYQF 171800Z 20010KT 190V270 15SM BKN052 20/06 A3012 RMK CU5 SLP208 DENSITY ALT 4000FT

CYQF;2018-06-17 19:00;CYQF 171900Z 20008KT 160V220 15SM BKN055 20/07 A3011 RMK CU5 SLP207 DENSITY ALT 4100FT

CYQF;2018-06-17 20:00;CYQF 172000Z 23007G16KT 180V260 15SM SCT060 21/06 A3010 RMK CU4 SLP204 DENSITY ALT 4200FT

CYQF;2018-06-17 21:00;CYQF 172100Z 22010KT 160V280 15SM SCT070 22/05 A3008 RMK CU4 SLP197 DENSITY ALT 4300FT

CYQF;2018-06-17 22:00;CYQF 172200Z 16013KT 140V230 15SM SCT060 22/08 A3007 RMK CU3 SLP194 DENSITY ALT 4400FT

CYQF;2018-06-17 23:00;CYQF 172300Z 20009KT 160V260 15SM SCT065 22/06 A3007 RMK CU3 SLP195 DENSITY ALT 4300FT

CYQF;2018-06-18 00:00;CYQF 180000Z 18010KT 160V220 15SM FEW070 22/06 A3006 RMK CU2 SLP191 DENSITY ALT 4400FT

CYQF;2018-06-18 01:00;CYQF 180100Z 14009KT 15SM FEW060 22/06 A3006 RMK CU1 SLP188 DENSITY ALT 4300FT

CYQF;2018-06-18 02:00;CYQF 180200Z 15009KT 15SM FEW060 21/05 A3006 RMK CU1 CU TR SLP186 DENSITY ALT 4200FT

CYQF;2018-06-18 03:00;CYQF 180300Z 14006KT 15SM FEW060 FEW250 18/07 A3006 RMK CU1CI1 CU TR CI TR SLP186 DENSITY ALT 3900FT

CYQF;2018-06-18 04:00;CYQF 180400Z 13005KT 15SM FEW250 14/07 A3007 RMK CI1 SLP193 DENSITY ALT 3500FT

CYQF;2018-06-18 05:00;CYQF 180500Z 15003KT 15SM FEW250 14/06 A3009 RMK CI1 CI TR SLP195 DENSITY ALT 3400FT

CYQF;2018-06-18 06:00;CYQF 180600Z 18003KT 15SM FEW250 11/06 A3009 RMK CI1 CI TR SLP198 DENSITY ALT 3100FT

CYQF;2018-06-18 07:00;CYQF 180700Z 18006KT 15SM FEW250 11/07 A3010 RMK CI1 CI TR SLP201 DENSITY ALT 3000FT

CYQF;2018-06-18 08:00;CYQF 180800Z 20006KT 15SM SKC 10/07 A3010 RMK SLP203 DENSITY ALT 3000FT

CYQF;2018-06-18 09:00;CYQF 180900Z 17004KT 15SM FEW250 08/06 A3010 RMK CI1 CI TR SLP203

CYQF;2018-06-18 10:00;CYQF 181000Z 18003KT 15SM FEW250 08/06 A3010 RMK CI1 SLP204

CYQF;2018-06-18 11:00;CYQF 181100Z 15004KT 15SM FEW250 07/05 A3012 RMK CI1 SLP210

CYQF;2018-06-18 12:00;CYQF 181200Z 15003KT 15SM FEW250 07/05 A3013 RMK CI1 CI TR SLP213

CYQF;2018-06-18 13:00;CYQF 181300Z 00000KT 12SM SKC 10/08 A3014 RMK SLP213

CYQF;2018-06-18 14:00;CYQF 181400Z 18002KT 15SM SKC 14/09 A3015 RMK SLP215 DENSITY ALT 3300FT

CYQF;2018-06-18 15:00;CYQF 181500Z 17005KT 140V200 15SM SKC 18/10 A3016 RMK SLP218 DENSITY ALT 3700FT

CYQF;2018-06-18 16:00;CYQF 181600Z 19009KT 15SM FEW250 20/10 A3016 RMK CI1 SLP219 DENSITY ALT 4000FT

CYQF;2018-06-18 17:00;CYQF 181700Z 14010G15KT 130V200 15SM FEW052 FEW330 21/08 A3016 RMK CU1CI1 SLP217 DENSITY ALT 4100FT

CYQF;2018-06-18 18:00;CYQF 181800Z 18007G15KT 140V210 15SM FEW060 SCT330 22/08 A3016 RMK CU2CI1 SLP218 DENSITY ALT 4200FT

CYQF;2018-06-18 19:00;CYQF 181900Z 18012KT 160V240 15SM SCT060 23/07 A3015 RMK CU3 SLP217 DENSITY ALT 4300FT

CYQF;2018-06-18 20:00;CYQF 182000Z 18009G15KT 150V210 15SM SCT056 23/08 A3014 RMK CU4 SLP213 DENSITY ALT 4400FT

CYQF;2018-06-18 21:00;CYQF 182100Z 15003KT 080V200 15SM BKN064 BKN250 23/06 A3014 RMK CU5CI1 SLP216 DENSITY ALT 4300FT

CYQF;2018-06-18 22:00;CYQF 182200Z 16008KT 15SM SCT070 BKN250 23/08 A3014 RMK CU3CI2 SLP214 DENSITY ALT 4400FT

CYQF;2018-06-18 23:00;CYQF 182300Z 16010KT 130V220 15SM SCT076 BKN250 24/08 A3013 RMK CU3CI2 SLP213 DENSITY ALT 4500FT

CYQF;2018-06-19 00:00;CYQF 190000Z 14010KT 15SM SCT060 BKN250 23/08 A3013 RMK CU3CI2 SLP211 DENSITY ALT 4400FT

CYQF;2018-06-19 01:00;CYQF 190100Z 12009KT 15SM SCT068 BKN250 24/08 A3013 RMK CU3CI4 SLP208 DENSITY ALT 4400FT

CYQF;2018-06-19 02:00;CYQF 190200Z 16005KT 15SM FEW050 BKN250 22/09 A3013 RMK CU1CI4 SLP207 DENSITY ALT 4300FT

CYQF;2018-06-19 03:00;CYQF 190300Z 15005KT 15SM FEW080 BKN250 21/10 A3013 RMK AC1CI6 SLP205 DENSITY ALT 4100FT

CYQF;2018-06-19 04:00;CYQF 190400Z 19004KT 15SM FEW080 SCT250 17/09 A3014 RMK AC1CI4 AC TR SLP208 DENSITY ALT 3700FT

CYQF;2018-06-19 05:00;CYQF 190500Z 18005KT 15SM SCT260 15/10 A3014 RMK CI3 SLP210 DENSITY ALT 3500FT

CYQF;2018-06-19 06:00;CYQF 190600Z 19005KT 15SM FEW250 13/09 A3015 RMK CI1 SLP215 DENSITY ALT 3200FT

CYQF;2018-06-19 07:00;CYQF 190700Z 21002KT 15SM SKC 13/09 A3015 RMK SLP212 DENSITY ALT 3200FT

CYQF;2018-06-19 08:00;CYQF 190800Z 19003KT 15SM SKC 11/08 A3015 RMK SLP216

CYQF;2018-06-19 09:00;CYQF 190900Z 18003KT 15SM SKC 09/07 A3015 RMK SLP217

CYQF;2018-06-19 10:00;CYQF 191000Z 20004KT 15SM SKC 09/07 A3014 RMK SLP214

CYQF;2018-06-19 11:00;CYQF 191100Z 19004KT 15SM SKC 07/05 A3015 RMK SLP219

CYQF;2018-06-19 12:00;CYQF 191200Z 20005KT 15SM FEW100 09/07 A3015 RMK AC1 SLP218

CYQF;2018-06-19 13:00;CYQF 191300Z 19004KT 15SM SKC 12/09 A3016 RMK SLP216 DENSITY ALT 3000FT

CYQF;2018-06-19 14:00;CYQF 191400Z 20003KT 160V230 15SM SKC 15/09 A3016 RMK SLP217 DENSITY ALT 3400FT

CYQF;2018-06-19 15:00;CYQF 191500Z 21004KT 160V220 15SM SKC 18/10 A3016 RMK SLP213 DENSITY ALT 3800FT

CYQF;2018-06-19 16:00;CYQF 191600Z 23004KT 160V250 15SM FEW250 21/09 A3016 RMK CI1 CI TR SLP213 DENSITY ALT 4100FT

CYQF;2018-06-19 17:00;CYQF 191700Z 18011KT 15SM FEW060 23/08 A3015 RMK CU1 CU TR SLP212 DENSITY ALT 4300FT

CYQF;2018-06-19 18:00;CYQF 191800Z 19009KT 140V200 15SM FEW060 FEW250 23/08 A3015 RMK CU1CI1 SLP212 DENSITY ALT 4300FT

CYQF;2018-06-19 19:00;CYQF 191900Z 18008KT 110V230 15SM SCT060 24/08 A3015 RMK CU3 SLP211 DENSITY ALT 4400FT

CYQF;2018-06-19 20:00;CYQF 192000Z 17010G19KT 140V270 15SM SCT068 25/08 A3014 RMK CU4 SLP212 DENSITY ALT 4500FT

CYQF;2018-06-19 21:00;CYQF 192100Z 19004KT 130V220 15SM SCT072 24/07 A3013 RMK CU3 SLP211 DENSITY ALT 4500FT

CYQF;2018-06-19 22:00;CYQF 192200Z 16004G15KT 130V210 15SM FEW065 25/08 A3012 RMK CU2 SLP207 DENSITY ALT 4600FT

CYQF;2018-06-19 23:00;CYQF 192300Z 15005KT 120V240 15SM FEW070 25/07 A3012 RMK CU1 SLP206 DENSITY ALT 4600FT

CYQF;2018-06-20 00:00;CYQF 200000Z 18008KT 15SM FEW080 25/07 A3010 RMK AC2 SLP200 DENSITY ALT 4600FT

CYQF;2018-06-20 01:00;CYQF 200100Z 17007KT 15SM FEW080 25/08 A3010 RMK AC1 SLP196 DENSITY ALT 4600FT

CYQF;2018-06-20 02:00;CYQF 200200Z 17006KT 15SM FEW100 24/08 A3010 RMK AC1 AC TR SLP193 DENSITY ALT 4500FT

CYQF;2018-06-20 03:00;CYQF 200300Z 16005KT 15SM SKC 21/10 A3010 RMK SLP192 DENSITY ALT 4200FT

CYQF;2018-06-20 04:00;CYQF 200400Z 15005KT 15SM SKC 17/10 A3010 RMK SLP193 DENSITY ALT 3800FT

CYQF;2018-06-20 05:00;CYQF 200500Z 15005KT 15SM SKC 16/09 A3010 RMK SLP192 DENSITY ALT 3600FT

CYQF;2018-06-20 06:00;CYQF 200600Z 16007KT 15SM SKC 14/08 A3010 RMK SLP195 DENSITY ALT 3400FT

CYQF;2018-06-20 07:00;CYQF 200700Z 18007KT 15SM SKC 13/09 A3010 RMK SLP197 DENSITY ALT 3300FT

CYQF;2018-06-20 08:00;CYQF 200800Z 18004KT 15SM SKC 11/08 A3010 RMK SLP196 DENSITY ALT 3100FT

CYQF;2018-06-20 09:00;CYQF 200900Z 17004KT 15SM SKC 11/08 A3010 RMK SLP195 DENSITY ALT 3000FT

CYQF;2018-06-20 10:00;CYQF 201000Z 17004KT 15SM SKC 11/08 A3008 RMK SLP190 DENSITY ALT 3000FT

CYQF;2018-06-20 11:00;CYQF 201100Z 21003KT 15SM SKC 10/07 A3008 RMK SLP191

CYQF;2018-06-20 12:00;CYQF 201200Z 00000KT 15SM SKC 08/06 A3008 RMK SLP193

CYQF;2018-06-20 13:00;CYQF 201300Z 16004KT 15SM SKC 12/09 A3008 RMK SLP188 DENSITY ALT 3200FT

CYQF;2018-06-20 14:00;CYQF 201400Z 17006KT 15SM SKC 16/10 A3008 RMK SLP185 DENSITY ALT 3700FT

CYQF;2018-06-20 15:00;CYQF 201500Z 17010KT 15SM SKC 19/10 A3008 RMK SLP183 DENSITY ALT 4000FT

CYQF;2018-06-20 16:00;CYQF 201600Z 17010G19KT 15SM SKC 21/10 A3007 RMK SLP183 DENSITY ALT 4200FT

CYQF;2018-06-20 17:00;CYQF 201700Z 18014KT 15SM FEW250 22/09 A3006 RMK CI1 SLP179 DENSITY ALT 4300FT

CYQF;2018-06-20 18:00;CYQF 201800Z 17015KT 15SM FEW056 FEW330 23/09 A3005 RMK CU1CI1 CU TR SLP178 DENSITY ALT 4500FT

CYQF;2018-06-20 19:00;CYQF 201900Z 18012G20KT 15SM FEW060 FEW330 24/09 A3003 RMK CU1CI1 SLP171 DENSITY ALT 4600FT

CYQF;2018-06-20 20:00;CYQF 202000Z 18014G20KT 15SM FEW068 FEW330 25/08 A3002 RMK CU1CI1 SLP169 DENSITY ALT 4700FT

CYQF;2018-06-20 21:00;CYQF 202100Z 18009G20KT 15SM FEW072 FEW330 26/10 A3001 RMK CU1CI1 CI TR SLP163 DENSITY ALT 4800FT

CYQF;2018-06-20 22:00;CYQF 202200Z 15013G20KT 15SM FEW064 FEW330 26/10 A2999 RMK CU1CI1 CI TR SLP158 DENSITY ALT 4900FT

CYQF;2018-06-20 23:00;CYQF 202300Z 16011G17KT 15SM FEW072 FEW330 26/09 A2999 RMK CU1CI1 CB TOPS DIST S SLP156 DENSITY ALT 4900FT

CYQF;2018-06-21 00:00;CYQF 210000Z 17013G19KT 15SM FEW072TCU SCT330 26/08 A2997 RMK TCU2CI2 SLP154 DENSITY ALT 4900FT

CYQF;2018-06-21 01:00;CYQF 210100Z 15011KT 15SM FEW072TCU FEW330 26/10 A2995 RMK TCU1CI1 SLP143 DENSITY ALT 4900FT

CYQF;2018-06-21 02:00;CYQF 210200Z 14011G16KT 15SM FEW070TCU SCT300 25/11 A2995 RMK TCU1CI2 TCU DIST S-SW SLP137 DENSITY ALT 4800FT

CYQF;2018-06-21 03:00;CYQF 210300Z 14009KT 15SM FEW060TCU SCT300 22/11 A2994 RMK TCU1CI3 TCU TR SLP136 DENSITY ALT 4500FT

CYQF;2018-06-21 04:00;CYQF 210400Z 14007KT 15SM SCT230 18/11 A2995 RMK CI3 SLP140 DENSITY ALT 4000FT

CYQF;2018-06-21 05:00;CYQF 210500Z 14007KT 15SM BKN260 17/11 A2995 RMK CI6 SLP141 DENSITY ALT 3900FT

CYQF;2018-06-21 06:00;CYQF 210600Z 17005KT 15SM BKN260 16/10 A2994 RMK CI6 SLP137 DENSITY ALT 3800FT

CYQF;2018-06-21 07:00;CYQF 210700Z 17004KT 15SM SCT260 16/10 A2994 RMK CI3 SLP137 DENSITY ALT 3700FT

CYQF;2018-06-21 08:00;CYQF 210800Z 16004KT 15SM FEW260 14/10 A2993 RMK CI2 SLP135 DENSITY ALT 3600FT

CYQF;2018-06-21 09:00;CYQF 210900Z VRB02KT 15SM FEW260 13/10 A2993 RMK CI2 SLP133 DENSITY ALT 3500FT

CYQF;2018-06-21 10:00;CYQF 211000Z 00000KT 15SM BKN240 12/10 A2992 RMK CI5 SLP132 DENSITY ALT 3400FT

CYQF;2018-06-21 11:00;CYQF 211100Z 13003KT 15SM BKN240 10/08 A2992 RMK CI5 SLP134 DENSITY ALT 3100FT

CYQF;2018-06-21 12:00;CYQF 211200Z 15004KT 15SM BKN240 12/10 A2992 RMK CI6 SLP133 DENSITY ALT 3300FT

CYQF;2018-06-21 13:00;CYQF 211300Z 00000KT 15SM BKN330 14/11 A2992 RMK CI5 SLP131 DENSITY ALT 3600FT

CYQF;2018-06-21 14:00;CYQF 211400Z 15003KT 110V170 15SM FEW180 SCT330 18/13 A2992 RMK AC1CI2 SLP126 DENSITY ALT 4000FT

CYQF;2018-06-21 15:00;CYQF 211500Z VRB03KT 15SM FEW170 BKN330 20/14 A2991 RMK AC2CI4 SLP124 DENSITY ALT 4300FT

CYQF;2018-06-21 16:00;CYQF 211600Z 14008KT 15SM SCT210 BKN300 23/13 A2990 RMK AC3CI2 SLP123 DENSITY ALT 4600FT

CYQF;2018-06-21 17:00;CYQF 211700Z 14010G16KT 15SM FEW040TCU SCT170 SCT300 23/13 A2990 RMK TCU1AC2CI1 SLP122 DENSITY ALT 4700FT

CYQF;2018-06-21 18:00;CYQF 211800Z 18009G16KT 140V200 15SM FEW050TCU SCT250 24/12 A2990 RMK TCU2CI2 SLP121 DENSITY ALT 4800FT

CYQF;2018-06-21 19:00;CYQF 211900Z 14008G15KT 080V170 15SM SCT050TCU BKN250 25/13 A2989 RMK TCU4CI2 SLP118 DENSITY ALT 4900FT

CYQF;2018-06-21 20:00;CYQF 212000Z 14008G16KT 080V170 15SM SCT056TCU BKN250 26/12 A2988 RMK TCU4CI2 SLP114 DENSITY ALT 5000FT

CYQF;2018-06-21 21:00;CYQF 212100Z 12008KT 15SM SCT065 BKN250 26/10 A2986 RMK CU3CI3 SLP109 DENSITY ALT 5000FT

CYQF;2018-06-21 22:00;CYQF 212200Z 15004KT 15SM SCT065 BKN250 27/10 A2985 RMK CU4CI3 SLP108 DENSITY ALT 5100FT

CYQF;2018-06-21 23:00;CYQF 212300Z 13005KT 070V160 15SM SCT060 BKN250 27/12 A2985 RMK CU3CI2 SLP109 DENSITY ALT 5100FT

CYQF;2018-06-22 00:00;CYQF 220000Z 17005KT 100V190 15SM SCT065TCU BKN250 26/11 A2985 RMK TCU4CI3 SLP108 DENSITY ALT 5000FT

CYQF;2018-06-22 00:53;CYQF 220053Z 18003KT 150V210 15SM TS VCSH BKN060CB BKN250 25/12 A2985 RMK CB6CI1 SLP108 DENSITY ALT 4900FT

CYQF;2018-06-22 01:00;CYQF 220100Z 19003KT 150V220 15SM TS VCSH BKN060CB BKN250 25/10 A2985 RMK CB6CI1 LTNG N AND E SLP105 DENSITY ALT 5000FT

CYQF;2018-06-22 01:30;CYQF 220130Z 30022G31KT 240V310 15SM TS VCSH BKN045CB BKN250 23/10 A2985 RMK CB5CI2 SLP109 DENSITY ALT 4700FT

CYQF;2018-06-22 01:39;CYQF 220139Z 30021G30KT 12SM -TSRA BKN045CB BKN250 22/10 A2985 RMK CB5CI2 SLP110 DENSITY ALT 4600FT

CYQF;2018-06-22 02:00;CYQF 220200Z 30016G28KT 15SM -TSRA BKN040CB BKN070 OVC250 20/11 A2988 RMK CB5AC2CI1 PRESRR SLP117 DENSITY ALT 4300FT

CYQF;2018-06-22 03:00;CYQF 220300Z 31013KT 15SM -TSRA SCT040CB BKN070 BKN250 19/11 A2987 RMK CB3AC3CI1 SLP113 DENSITY ALT 4200FT

CYQF;2018-06-22 03:12;CYQF 220312Z 30009G15KT 15SM TS VCSH SCT040CB BKN110 BKN250 18/11 A2987 RMK CB3AC2CI2 SLP113 DENSITY ALT 4100FT

CYQF;2018-06-22 03:25;CYQF 220325Z 30007KT 15SM FEW040CB SCT110 BKN250 18/11 A2987 RMK CB2AC2CI3 SLP114 DENSITY ALT 4100FT

CYQF;2018-06-22 04:00;CYQF 220400Z 01003KT 15SM FEW040CB SCT110 BKN250 16/11 A2988 RMK CB2AC2CI3 SLP115 DENSITY ALT 3900FT

CYQF;2018-06-22 05:00;CYQF 220500Z 22005KT 150V230 15SM FEW040CB FEW110 BKN260 14/11 A2988 RMK CB1ACC1CI4 FRQ LTGICCC EAST SLP118 DENSITY ALT 3600FT

CYQF;2018-06-22 06:00;CYQF 220600Z 26003KT 15SM FEW040CB FEW110 BKN260 14/11 A2987 RMK CB1ACC1CI4 OCNL LTGIC DIST E SLP114 DENSITY ALT 3700FT

CYQF;2018-06-22 07:00;CYQF 220700Z 30004KT 15SM FEW040CB FEW140 BKN260 12/10 A2986 RMK CB1AC1CI3 OCNL LTGIC DIST E SLP113 DENSITY ALT 3400FT

CYQF;2018-06-22 08:00;CYQF 220800Z 25007KT 190V250 15SM SCT110 12/11 A2986 RMK AC4 SLP110 DENSITY ALT 3500FT

CYQF;2018-06-22 09:00;CYQF 220900Z 20004KT 15SM SCT110 11/10 A2986 RMK AC3 SLP112 DENSITY ALT 3300FT

CYQF;2018-06-22 10:00;CYQF 221000Z 27008KT 15SM FEW110 SCT260 11/10 A2985 RMK AC1CI2 SLP108 DENSITY ALT 3400FT

CYQF;2018-06-22 11:00;CYQF 221100Z 29008KT 15SM SCT110 BKN260 12/11 A2985 RMK AC3CI3 SLP106 DENSITY ALT 3500FT

CYQF;2018-06-22 12:00;CYQF 221200Z 30008KT 15SM SCT110 BKN260 12/10 A2985 RMK ACC3CI3 SLP107 DENSITY ALT 3500FT

CYQF;2018-06-22 13:00;CYQF 221300Z 30003KT 15SM FEW030 FEW120 SCT260 14/11 A2986 RMK CU1AC1CI3 CU TR SLP109 DENSITY ALT 3600FT

CYQF;2018-06-22 14:00;CYQF 221400Z VRB02KT 15SM FEW030 SCT100 SCT260 14/12 A2985 RMK CU1AC2CI1 SLP111 DENSITY ALT 3700FT

CYQF;2018-06-22 15:00;CYQF 221500Z 34008KT 300V010 15SM FEW030 SCT100 18/13 A2985 RMK CU1AC2 SLP110 DENSITY ALT 4100FT

CYQF;2018-06-22 16:00;CYQF 221600Z 32007KT 300V360 10SM FEW030TCU SCT100 20/14 A2984 RMK TCU1AC2 SLP106 DENSITY ALT 4400FT

CYQF;2018-06-22 17:00;CYQF 221700Z 34010KT 10SM FEW030TCU FEW120 SCT260 22/14 A2983 RMK TCU1AC2CI1 TCU TR SLP104 DENSITY ALT 4600FT

CYQF;2018-06-22 18:00;CYQF 221800Z 35010G16KT 320V020 10SM SCT035TCU BKN070 BKN260 23/13 A2983 RMK TCU3AC2CI1 SLP103 DENSITY ALT 4700FT

CYQF;2018-06-22 19:00;CYQF 221900Z 34011G18KT 300V010 10SM BKN040TCU BKN070 BKN250 23/12 A2982 RMK TCU5AC1CI1 SLP100 DENSITY ALT 4700FT

CYQF;2018-06-22 20:00;CYQF 222000Z 30017G22KT 10SM TS VCSH BKN028CB OVC080 20/13 A2982 RMK CB6AC2 FREQ LTGCG N SLP102 DENSITY ALT 4400FT

CYQF;2018-06-22 20:10;CYQF 222010Z 32015G21KT 10SM -TSRA BKN030CB OVC080 20/12 A2982 RMK CB6AC2 OCNL LTGCG N SLP103 DENSITY ALT 4400FT

CYQF;2018-06-22 20:33;CYQF 222033Z 30010G16KT 10SM TSRA BKN030CB BKN080 17/14 A2981 RMK CB6AC1 SLP104 DENSITY ALT 4100FT

CYQF;2018-06-22 20:43;CYQF 222043Z 29009KT 10SM -TSRA SCT040CB BKN080 BKN300 17/14 A2980 RMK CB4AC2CI1 PRESFR SLP101 DENSITY ALT 4100FT

CYQF;2018-06-22 21:00;CYQF 222100Z 30009G15KT 15SM -TSRA SCT040CB BKN080 BKN300 18/15 A2980 RMK CB3AC2CI2 FREQ LTGCG NE-E SLP099 DENSITY ALT 4200FT

CYQF;2018-06-22 21:32;CYQF 222132Z 30009KT 15SM VCSH SCT030CB BKN090 BKN300 21/16 A2979 RMK CB3AC2CI2 SLP093 DENSITY ALT 4600FT

CYQF;2018-06-22 22:00;CYQF 222200Z 30009G15KT 280V340 15SM VCSH SCT040CB BKN150 BKN300 23/14 A2980 RMK CB3AC3CI1 SLP092 DENSITY ALT 4800FT

CYQF;2018-06-22 23:04;CYQF 222304Z 06007G16KT 360V080 12SM -TSRA BKN047CB BKN150 BKN300 19/12 A2980 RMK CB5AC1CI1 OCNL LTGCG E SLP096 DENSITY ALT 4300FT

CYQF;2018-06-22 23:31;CYQF 222331Z 14003KT 070V160 15SM TS VCSH BKN048CB BKN280 20/14 A2979 RMK CB5CI2 SLP091 DENSITY ALT 4400FT

CYQF;2018-06-22 23:37;CYQF 222337Z 13004KT 080V170 15SM VCSH BKN050CB BKN280 20/15 A2978 RMK CB5CI2 SLP090 DENSITY ALT 4500FT

CYQF;2018-06-23 00:00;CYQF 230000Z 00000KT 15SM SCT050CB BKN170 BKN280 21/14 A2978 RMK CB4AC2CI1 SLP087 DENSITY ALT 4500FT

CYQF;2018-06-23 01:00;CYQF 230100Z 01006KT 15SM VCSH SCT040CB BKN170 BKN280 22/12 A2979 RMK CB4AC2CI1 SLP088 DENSITY ALT 4700FT

CYQF;2018-06-23 02:00;CYQF 230200Z 32005KT 15SM VCSH SCT040CB BKN120 BKN280 20/12 A2978 RMK CB3AC3CI1 SLP086 DENSITY ALT 4500FT

CYQF;2018-06-23 03:00;CYQF 230300Z 26004KT 15SM VCSH SCT040CB BKN090 BKN280 19/12 A2978 RMK CB4AC2CI1 SLP082 DENSITY ALT 4400FT

CYQF;2018-06-23 04:00;CYQF 230400Z 29007KT 240V310 15SM VCSH SCT040CB BKN110 BKN210 17/13 A2978 RMK CB3AC2CI2 SLP084 DENSITY ALT 4100FT

CYQF;2018-06-23 05:00;CYQF 230500Z 26006KT 15SM SCT046 BKN110 BKN220 17/13 A2979 RMK SC4AC2CI1 SLP086 DENSITY ALT 4100FT

CYQF;2018-06-23 06:00;CYQF 230600Z 28006KT 15SM BKN035 16/13 A2979 RMK SC6 SLP084 DENSITY ALT 3900FT

CYQF;2018-06-23 07:00;CYQF 230700Z 28008KT 15SM BKN040 15/12 A2979 RMK SC6 SLP085 DENSITY ALT 3800FT

CYQF;2018-06-23 08:00;CYQF 230800Z 28006KT 15SM BKN055CB OVC110 14/12 A2978 RMK CB6AC2 OCNL LTGCG N SLP088 DENSITY ALT 3800FT

CYQF;2018-06-23 08:10;CYQF 230810Z 29006KT 12SM TS VCSH OVC048CB 14/12 A2979 RMK CB8 FQT LTGIC W-N SLP089 DENSITY ALT 3800FT

CYQF;2018-06-23 09:00;CYQF 230900Z 28008KT 15SM TS BKN045CB OVC110 15/13 A2978 RMK CB5AC3 FEW LTGIC S SLP087 DENSITY ALT 3800FT

CYQF;2018-06-23 09:13;CYQF 230913Z 05006KT 270V070 10SM TSRA OVC044CB 15/13 A2979 RMK CB8 SLP091 DENSITY ALT 3800FT

CYQF;2018-06-23 09:27;CYQF 230927Z 28004KT 240V350 10SM -TSRA BKN040CB OVC100 15/13 A2979 RMK CB5AC3 SLP092 DENSITY ALT 3800FT

CYQF;2018-06-23 10:00;CYQF 231000Z 27005KT 10SM -TSRA BKN042CB BKN100 14/13 A2980 RMK CB5AC2 OCNL LTGIC ALQDS SLP089 DENSITY ALT 3700FT

CYQF;2018-06-23 10:28;CYQF 231028Z 28008KT 15SM FEW015 SCT040CB BKN100 14/13 A2979 RMK SC1CB3AC3 SLP086 DENSITY ALT 3800FT

CYQF;2018-06-23 11:00;CYQF 231100Z 27006KT 15SM VCSH SCT040CB BKN100 14/13 A2980 RMK CB3AC3 SLP093 DENSITY ALT 3700FT

CYQF;2018-06-23 12:00;CYQF 231200Z 33006KT 15SM SCT040 BKN100 14/12 A2980 RMK SC3ACC3 SLP093 DENSITY ALT 3700FT

CYQF;2018-06-23 13:00;CYQF 231300Z 34006KT 15SM SCT003 BKN090 15/13 A2981 RMK SC3AC4 SLP095 DENSITY ALT 3800FT

CYQF;2018-06-23 14:00;CYQF 231400Z 34013G21KT 15SM FEW035 BKN100 15/13 A2981 RMK SC2ACC5 CB EMBD E SLP097 DENSITY ALT 3900FT

CYQF;2018-06-23 15:02;CYQF 231502Z 36009KT 15SM -SHRA FEW035CB SCT050 BKN080 OVC260 16/13 A2985 RMK CB1SC2ACC4CI1 OCNL LTGCG S SLP110 DENSITY ALT 3900FT

CYQF;2018-06-23 15:22;CYQF 231522Z 07003KT 320V090 15SM -TSRA SCT023CB BKN050 OVC080 16/13 A2987 RMK CB3SC3ACC2 SLP116 DENSITY ALT 3900FT

CYQF;2018-06-23 15:48;CYQF 231548Z 17005KT 15SM -SHRA BKN025 OVC080 15/14 A2988 RMK SC6ACC2 VIS S 6 CB EMBD SLP120 DENSITY ALT 3800FT

CYQF;2018-06-23 16:00;CYQF 231600Z 19003KT 12SM -SHRA BKN025 OVC080 16/14 A2988 RMK SC6ACC2 VIS S 6 SLP122 DENSITY ALT 3800FT

CYQF;2018-06-23 16:52;CYQF 231652Z 24003KT 6SM SHRA BR BKN020 OVC080 15/14 A2989 RMK SC7ACC1 SLP125 DENSITY ALT 3800FT

CYQF;2018-06-23 17:00;CYQF 231700Z 28004KT 230V310 5SM -SHRA BR BKN022 OVC080 15/14 A2989 RMK SC7ACC1 VIS S 2 SLP126 DENSITY ALT 3800FT

CYQF;2018-06-23 17:16;CYQF 231716Z 34005KT 3SM SHRA BR BKN020 OVC080 15/14 A2989 RMK SC7ACC1 SLP128 DENSITY ALT 3800FT

CYQF;2018-06-23 17:35;CYQF 231735Z 05004KT 3SM TSRA BR BKN020CB OVC080 15/15 A2990 RMK CB6ACC2 SLP129 DENSITY ALT 3800FT

CYQF;2018-06-23 18:00;CYQF 231800Z 03004KT 2SM TSRA BR BKN022CB OVC080 15/15 A2990 RMK CB6ACC2 SLP133 DENSITY ALT 3800FT

CYQF;2018-06-23 18:23;CYQF 231823Z 33003KT 310V030 3SM -TSRA BR BKN025CB OVC050 16/15 A2991 RMK CB5SC3 VIS S 6 SLP135 DENSITY ALT 3800FT

CYQF;2018-06-23 19:00;CYQF 231900Z 29003KT 8SM -SHRA FEW006 BKN025 OVC080 16/15 A2992 RMK SF1SC6ACC1 SLP138 DENSITY ALT 3800FT

CYQF;2018-06-23 19:23;CYQF 231923Z VRB02KT 3SM SHRA BR FEW006 OVC020 16/15 A2992 RMK SF1SC7 CVCTV CLD EMBD SLP140 DENSITY ALT 3900FT

CYQF;2018-06-23 19:44;CYQF 231944Z 30005KT 270V340 3SM TSRA BR FEW006 BKN020 OVC080 16/15 A2992 RMK SF1SC5ACC2 CB EMBD SLP138 DENSITY ALT 3800FT

CYQF;2018-06-23 19:53;CYQF 231953Z 29006KT 6SM -TSRA BR FEW006 SCT020 OVC080 16/15 A2991 RMK SF1SC2ACC5 CB EMBD SLP137 DENSITY ALT 3900FT

CYQF;2018-06-23 20:00;CYQF 232000Z 30006KT 6SM -SHRA BR FEW006 SCT020 OVC080 17/16 A2991 RMK SF1SC2ACC5 SLP136 DENSITY ALT 3900FT

CYQF;2018-06-23 20:09;CYQF 232009Z 31007KT 8SM -SHRA SCT020 BKN080 BKN260 17/16 A2990 RMK SC3ACC3CI1 CB EMBD SLP133 DENSITY ALT 3900FT

CYQF;2018-06-23 20:42;CYQF 232042Z 31006KT 12SM SCT030TCU BKN100 19/17 A2988 RMK TCU3AC2 SLP123 DENSITY ALT 4200FT

CYQF;2018-06-23 21:00;CYQF 232100Z 33010KT 15SM FEW030CB SCT100 BKN250 20/16 A2988 RMK CB2AC1CI2 SLP122 DENSITY ALT 4300FT

CYQF;2018-06-23 22:00;CYQF 232200Z 34007KT 12SM BKN025TCU BKN250 22/16 A2989 RMK TCU5CI2 SLP124 DENSITY ALT 4500FT

CYQF;2018-06-23 23:00;CYQF 232300Z 34005KT 12SM VCSH BKN030TCU BKN085 BKN250 20/15 A2990 RMK TCU5AC1CI1 SLP128 DENSITY ALT 4300FT

CYQF;2018-06-24 00:00;CYQF 240000Z 09004KT 12SM TS VCSH BKN035CB BKN085 20/15 A2991 RMK CB6AC1 SLP134 DENSITY ALT 4300FT

CYQF;2018-06-24 00:46;CYQF 240046Z 28007KT 12SM VCSH SCT035CB BKN085 19/14 A2992 RMK CB4AC3 SLP138 DENSITY ALT 4100FT

CYQF;2018-06-24 01:00;CYQF 240100Z 26008KT 12SM VCSH SCT035CB BKN090 18/14 A2993 RMK CB3AC4 SLP141 DENSITY ALT 4100FT

CYQF;2018-06-24 01:12;CYQF 240112Z 29009KT 12SM -SHRA SCT035CB BKN090 18/15 A2993 RMK CB3AC4 SLP143 DENSITY ALT 4000FT

CYQF;2018-06-24 02:00;CYQF 240200Z 27006KT 15SM -SHRA SCT035CB BKN090 17/15 A2995 RMK CB4AC3 SLP147 DENSITY ALT 3900FT

CYQF;2018-06-24 02:44;CYQF 240244Z 27003KT 240V310 12SM -TSRA SCT035CB BKN090 BKN240 18/15 A2995 RMK CB3AC2CI2 SLP145 DENSITY ALT 4100FT

CYQF;2018-06-24 03:00;CYQF 240300Z 29002KT 15SM -TSRA SCT035CB BKN090 BKN240 18/15 A2995 RMK CB4AC1CI2 SLP146 DENSITY ALT 4000FT

CYQF;2018-06-24 03:23;CYQF 240323Z 01010G19KT 340V050 3SM TSRA SCT035CB BKN090 BKN240 16/13 A2998 RMK CB4AC1CI1 PRESRR SLP158 DENSITY ALT 3800FT

CYQF;2018-06-24 03:31;CYQF 240331Z 06007G20KT 340V110 12SM -SHRA SCT035CB BKN090 BKN240 16/12 A2997 RMK CB4AC2CI1 VIS LWR E-S SLP155 DENSITY ALT 3700FT

CYQF;2018-06-24 04:00;CYQF 240400Z VRB02KT 12SM FEW035CB BKN120 BKN240 15/14 A2997 RMK CB2AC3CI2 SLP157 DENSITY ALT 3700FT

CYQF;2018-06-24 05:00;CYQF 240500Z 27005KT 15SM BKN100 14/12 A2997 RMK AC5 SLP159 DENSITY ALT 3500FT

CYQF;2018-06-24 06:00;CYQF 240600Z VRB02KT 15SM BKN120 13/12 A2997 RMK AC6 SLP160 DENSITY ALT 3400FT

CYQF;2018-06-24 07:00;CYQF 240700Z 28006KT 15SM SCT130 15/13 A2998 RMK AC4 SLP158 DENSITY ALT 3600FT

CYQF;2018-06-24 08:00;CYQF 240800Z 18004KT 15SM SCT130 13/11 A2998 RMK AC4 SLP162 DENSITY ALT 3300FT

CYQF;2018-06-24 09:00;CYQF 240900Z 17003KT 15SM BKN140 11/10 A2998 RMK AC5 SLP161 DENSITY ALT 3100FT

CYQF;2018-06-24 10:00;CYQF 241000Z 16004KT 15SM SCT140 10/10 A2999 RMK AC3 SLP162 DENSITY ALT 3100FT

CYQF;2018-06-24 11:00;CYQF 241100Z 19003KT 15SM MIFG FEW140 10/10 A3000 RMK AC2 SLP166 DENSITY ALT 3000FT

CYQF;2018-06-24 12:00;CYQF 241200Z 22005KT 15SM MIFG FEW140 10/10 A3000 RMK AC2 SLP170 DENSITY ALT 3000FT

CYQF;2018-06-24 13:00;CYQF 241300Z 23004KT 15SM FEW120 12/12 A3002 RMK AC1 AC TR SLP174 DENSITY ALT 3300FT

CYQF;2018-06-24 14:00;CYQF 241400Z 23004KT 15SM FEW100 15/13 A3002 RMK ACC1 ACC TR SLP174 DENSITY ALT 3600FT

CYQF;2018-06-24 15:00;CYQF 241500Z 25004KT 12SM FEW120 17/14 A3003 RMK AC1 AC TR SLP172 DENSITY ALT 3800FT

CYQF;2018-06-24 16:00;CYQF 241600Z VRB03KT 12SM FEW120 19/15 A3003 RMK AC1 AC TR SLP174 DENSITY ALT 4000FT

CYQF;2018-06-24 17:00;CYQF 241700Z 17003KT 130V210 15SM FEW024 FEW100 21/15 A3002 RMK CU1ACC1 CU TR ACC TR SLP170 DENSITY ALT 4300FT

CYQF;2018-06-24 18:00;CYQF 241800Z 17005KT 140V210 15SM FEW040 22/15 A3002 RMK CU1 SLP168 DENSITY ALT 4400FT

CYQF;2018-06-24 19:00;CYQF 241900Z 20004KT 150V220 12SM SCT040TCU SCT250 23/14 A3001 RMK TCU3CI1 SLP162 DENSITY ALT 4500FT

CYQF;2018-06-24 20:00;CYQF 242000Z 16007KT 140V220 15SM SCT045TCU BKN250 24/13 A2999 RMK TCU4CI1 SLP158 DENSITY ALT 4600FT

CYQF;2018-06-24 21:00;CYQF 242100Z 17007KT 15SM SCT040 BKN250 24/14 A2997 RMK CU4CI1 SLP153 DENSITY ALT 4700FT

CYQF;2018-06-24 22:00;CYQF 242200Z 14010KT 15SM FEW040 SCT250 25/14 A2995 RMK CU2CI2 SLP146 DENSITY ALT 4800FT

CYQF;2018-06-24 23:00;CYQF 242300Z 14007KT 110V180 15SM FEW050 SCT250 25/15 A2994 RMK CU1CI2 SLP142 DENSITY ALT 4800FT

CYQF;2018-06-25 00:00;CYQF 250000Z 15010KT 15SM FEW040 FEW120 SCT250 25/14 A2992 RMK CU1AC1CI1 SLP136 DENSITY ALT 4800FT

CYQF;2018-06-25 01:00;CYQF 250100Z 14009G15KT 15SM FEW040 FEW120 SCT250 24/14 A2990 RMK CU1AC2CI2 CU TR SLP128 DENSITY ALT 4800FT

CYQF;2018-06-25 02:00;CYQF 250200Z 14009KT 15SM FEW040 FEW120 BKN250 23/15 A2989 RMK CU1AC2CI3 CU TR SLP120 DENSITY ALT 4600FT

CYQF;2018-06-25 03:00;CYQF 250300Z 14006KT 15SM FEW120 SCT250 21/15 A2987 RMK AC1CI2 SLP115 DENSITY ALT 4400FT

CYQF;2018-06-25 04:00;CYQF 250400Z 13006KT 15SM FEW120 SCT250 18/15 A2987 RMK AC1CI3 SLP114 DENSITY ALT 4100FT

CYQF;2018-06-25 05:00;CYQF 250500Z 14006KT 15SM FEW270 17/15 A2985 RMK CI2 SLP109 DENSITY ALT 4000FT

CYQF;2018-06-25 06:00;CYQF 250600Z 15008KT 15SM FEW270 17/15 A2983 RMK CI2 SLP100 DENSITY ALT 4100FT

CYQF;2018-06-25 07:00;CYQF 250700Z 16009KT 15SM SKC 17/14 A2981 RMK SLP092 DENSITY ALT 4000FT

CYQF;2018-06-25 08:00;CYQF 250800Z 15010KT 15SM SKC 16/13 A2979 RMK SLP083 DENSITY ALT 4000FT

CYQF;2018-06-25 09:00;CYQF 250900Z 15011KT 15SM SCT270 17/13 A2975 RMK CI3 SLP070 DENSITY ALT 4100FT

CYQF;2018-06-25 10:00;CYQF 251000Z 16009KT 15SM SCT270 15/13 A2972 RMK CI3 SLP062 DENSITY ALT 3900FT

CYQF;2018-06-25 11:00;CYQF 251100Z 16007KT 10SM SCT270 14/13 A2970 RMK CI3 HZ SLP053 DENSITY ALT 3900FT

CYQF;2018-06-25 12:00;CYQF 251200Z 16009KT 10SM BKN300 14/13 A2968 RMK CI6 HZ SLP048 DENSITY ALT 3900FT

CYQF;2018-06-25 13:00;CYQF 251300Z 15010KT 10SM BKN300 16/13 A2965 RMK CI6 SLP036 DENSITY ALT 4100FT

CYQF;2018-06-25 14:00;CYQF 251400Z 16013KT 12SM BKN250 17/13 A2962 RMK CI6 SLP026 DENSITY ALT 4200FT

CYQF;2018-06-25 15:00;CYQF 251500Z 16012G17KT 15SM FEW150 BKN200 18/14 A2959 RMK AC1CI6 SLP017 DENSITY ALT 4500FT

CYQF;2018-06-25 16:00;CYQF 251600Z 17018G23KT 15SM SCT150 BKN250 21/14 A2957 RMK AC4CI2 SLP010 DENSITY ALT 4800FT

CYQF;2018-06-25 17:00;CYQF 251700Z 18015G24KT 15SM SCT150 BKN220 22/15 A2958 RMK AC3CI2 SLP013 DENSITY ALT 4900FT

CYQF;2018-06-25 18:00;CYQF 251800Z 19018G28KT 15SM FEW052 SCT130 BKN230 24/11 A2958 RMK CU1AC3CI3 SLP010 DENSITY ALT 5200FT

CYQF;2018-06-25 19:00;CYQF 251900Z 22013G20KT 15SM FEW050 SCT130 BKN230 23/11 A2959 RMK CU1AC3CI3 SLP016 DENSITY ALT 4900FT

CYQF;2018-06-25 20:00;CYQF 252000Z 20012KT 15SM FEW050 BKN130 BKN230 24/11 A2960 RMK CU1AC4CI2 SLP018 DENSITY ALT 5100FT

CYQF;2018-06-25 21:00;CYQF 252100Z 22010G16KT 15SM FEW052TCU SCT130 BKN240 24/09 A2960 RMK TCU1AC2CI4 SLP017 DENSITY ALT 5100FT

CYQF;2018-06-25 22:00;CYQF 252200Z 21006KT 15SM SCT055TCU SCT130 BKN240 25/11 A2958 RMK TCU3AC1CI3 SLP012 DENSITY ALT 5300FT

CYQF;2018-06-25 23:00;CYQF 252300Z CCA 24012KT 15SM SCT065TCU SCT140 BKN250 27/08 A2957 RMK TCU3AC1CI2 SLP008 DENSITY ALT 5400FT

CYQF;2018-06-26 00:00;CYQF 260000Z 26015G20KT 15SM SCT065TCU SCT140 BKN250 26/03 A2958 RMK TCU3AC1CI2 SLP011 DENSITY ALT 5300FT

CYQF;2018-06-26 01:00;CYQF 260100Z 31010KT 15SM FEW050TCU BKN120 BKN250 22/10 A2961 RMK TCU2AC3CI2 SLP025 DENSITY ALT 4900FT

CYQF;2018-06-26 02:00;CYQF 260200Z 33004KT 15SM FEW050 SCT110 BKN250 21/10 A2963 RMK CU1AC4CI3 CU TR VIRGA SLP031 DENSITY ALT 4700FT

CYQF;2018-06-26 03:00;CYQF 260300Z 36012KT 15SM FEW040 BKN130 BKN250 19/10 A2966 RMK CU1AC5CI1 SLP042 DENSITY ALT 4400FT

CYQF;2018-06-26 04:00;CYQF 260400Z 36007KT 15SM BKN130 BKN250 17/07 A2969 RMK AC6CI1 SLP052 DENSITY ALT 4100FT

CYQF;2018-06-26 05:00;CYQF 260500Z 34012KT 15SM BKN110 17/04 A2972 RMK AC5 SLP063 DENSITY ALT 4100FT

CYQF;2018-06-26 06:00;CYQF 260600Z 30010KT 15SM BKN090 15/03 A2973 RMK AC6 SLP064 DENSITY ALT 3900FT

CYQF;2018-06-26 07:00;CYQF 260700Z 30006KT 15SM BKN090 14/01 A2973 RMK AC6 SLP068 DENSITY ALT 3800FT

CYQF;2018-06-26 07:39;CYQF 260739Z 25006KT 12SM -SHRA OVC080 13/03 A2976 RMK ACC8 PRESRR SLP080 DENSITY ALT 3600FT

CYQF;2018-06-26 08:00;CYQF 260800Z 15009KT 120V270 12SM -SHRA OVC080 12/04 A2976 RMK ACC8 SLP079 DENSITY ALT 3500FT

CYQF;2018-06-26 08:50;CYQF 260850Z VRB02KT 15SM VCSH OVC080 12/05 A2976 RMK ACC8 PRESRR SLP078 DENSITY ALT 3500FT

CYQF;2018-06-26 09:00;CYQF 260900Z 09005KT 040V130 15SM VCSH SCT080 OVC110 11/07 A2976 RMK ACC4AC4 SLP079 DENSITY ALT 3400FT

CYQF;2018-06-26 10:00;CYQF 261000Z 08006KT 15SM FEW080 BKN110 11/06 A2977 RMK ACC2AC4 SLP080 DENSITY ALT 3400FT

CYQF;2018-06-26 11:00;CYQF 261100Z 00000KT 15SM SCT080 BKN120 09/06 A2975 RMK ACC3AC3 SLP075 DENSITY ALT 3200FT

CYQF;2018-06-26 12:00;CYQF 261200Z VRB02KT 15SM FEW080 SCT120 06/05 A2974 RMK ACC2AC1 SLP077

CYQF;2018-06-26 13:00;CYQF 261300Z 19005KT 160V220 15SM FEW080 FEW120 09/07 A2974 RMK ACC1AC1 SLP078 DENSITY ALT 3100FT

CYQF;2018-06-26 14:00;CYQF 261400Z 28007KT 230V310 15SM FEW080 FEW150 12/04 A2975 RMK ACC1AC1 SLP077 DENSITY ALT 3600FT

CYQF;2018-06-26 15:00;CYQF 261500Z 31007KT 290V350 15SM FEW045 FEW100 15/03 A2974 RMK CU1ACC1 CU TR SLP074 DENSITY ALT 3900FT

CYQF;2018-06-26 16:00;CYQF 261600Z 28007KT 15SM FEW048 FEW100 SCT250 16/04 A2973 RMK CU1AC1CI2 CU TR SLP072 DENSITY ALT 4000FT

CYQF;2018-06-26 17:00;CYQF 261700Z 26005KT 210V340 15SM SCT060 SCT100 SCT250 17/03 A2972 RMK CU3AC1CI1 AC TR SLP068 DENSITY ALT 4200FT

CYQF;2018-06-26 18:00;CYQF 261800Z 26008KT 200V290 15SM SCT080 BKN250 17/M02 A2972 RMK CU4CI1 SLP068 DENSITY ALT 4200FT

CYQF;2018-06-26 19:00;CYQF 261900Z 28006KT 240V320 15SM BKN100 BKN250 18/00 A2971 RMK CU5CI1 SLP065 DENSITY ALT 4300FT

CYQF;2018-06-26 20:00;CYQF 262000Z 28012G22KT 15SM BKN090 BKN250 18/M00 A2971 RMK CU5CI2 VIRGA SLP069 DENSITY ALT 4300FT

CYQF;2018-06-26 21:00;CYQF 262100Z 29013G21KT 15SM BKN080 BKN250 18/M01 A2973 RMK CU5CI2 VIRGA SLP075 DENSITY ALT 4300FT

CYQF;2018-06-26 22:00;CYQF 262200Z 28009G16KT 15SM FEW068 BKN200 18/01 A2974 RMK CU2CI4 VIRGA W SLP080 DENSITY ALT 4200FT

CYQF;2018-06-26 23:00;CYQF 262300Z 28006KT 15SM SCT080 BKN220 18/00 A2974 RMK AC3CI3 SLP081 DENSITY ALT 4300FT

CYQF;2018-06-27 00:00;CYQF 270000Z 31013KT 15SM SCT100 BKN220 19/02 A2975 RMK AC4CI3 SLP085 DENSITY ALT 4400FT

CYQF;2018-06-27 01:00;CYQF 270100Z 36008KT 15SM FEW100 BKN250 17/02 A2976 RMK AC2CI4 SLP091 DENSITY ALT 4100FT

CYQF;2018-06-27 02:00;CYQF 270200Z 28009G17KT 15SM FEW100 BKN250 17/M01 A2978 RMK AC2CI4 SLP093 DENSITY ALT 4100FT

CYQF;2018-06-27 03:00;CYQF 270300Z 29006KT 15SM SCT130 BKN250 15/00 A2979 RMK AC4CI2 SLP095 DENSITY ALT 3900FT

CYQF;2018-06-27 04:00;CYQF 270400Z 27007KT 15SM BKN150 BKN250 15/M00 A2980 RMK AC5CI1 SLP099 DENSITY ALT 3800FT

CYQF;2018-06-27 05:00;CYQF 270500Z 27006KT 15SM FEW150 SCT250 12/M01 A2981 RMK AC2CI2 SLP104 DENSITY ALT 3500FT

CYQF;2018-06-27 06:00;CYQF 270600Z 21006KT 15SM SCT130 09/01 A2982 RMK AC4 SLP111 DENSITY ALT 3100FT

CYQF;2018-06-27 07:00;CYQF 270700Z 24008KT 15SM SCT130 11/00 A2982 RMK AC4 SLP108 DENSITY ALT 3300FT

CYQF;2018-06-27 08:00;CYQF 270800Z 23007KT 15SM BKN130 09/02 A2982 RMK AC5 SLP110 DENSITY ALT 3100FT

CYQF;2018-06-27 09:00;CYQF 270900Z 23007KT 15SM SCT130 07/02 A2982 RMK AC3 SLP111

CYQF;2018-06-27 10:00;CYQF 271000Z 21007KT 15SM SCT130 07/01 A2982 RMK AC3 SLP111

CYQF;2018-06-27 11:00;CYQF 271100Z 20008KT 15SM SCT120 05/01 A2981 RMK AC4 SLP111

CYQF;2018-06-27 12:00;CYQF 271200Z 21006KT 15SM FEW120 05/01 A2981 RMK AC1 SLP109

CYQF;2018-06-27 13:00;CYQF 271300Z 21006KT 15SM FEW030 FEW120 08/02 A2981 RMK CU1AC1 CU TR SLP107 DENSITY ALT 3100FT

CYQF;2018-06-27 14:00;CYQF 271400Z 22007KT 15SM FEW120 11/04 A2980 RMK AC1 SLP103 DENSITY ALT 3400FT

CYQF;2018-06-27 15:00;CYQF 271500Z 23006KT 15SM FEW230 14/04 A2980 RMK CI1 SLP100 DENSITY ALT 3700FT

CYQF;2018-06-27 16:00;CYQF 271600Z 31005KT 210V320 15SM FEW044 FEW250 17/04 A2980 RMK CU1CI2 CU TR SLP097 DENSITY ALT 4100FT

CYQF;2018-06-27 17:00;CYQF 271700Z 31009KT 270V350 15SM FEW050 FEW230 19/02 A2979 RMK CU1CI1 SLP093 DENSITY ALT 4300FT

CYQF;2018-06-27 18:00;CYQF 271800Z 28008KT 210V350 15SM FEW060 FEW250 20/02 A2977 RMK CU1CI1 SLP091 DENSITY ALT 4400FT

CYQF;2018-06-27 19:00;CYQF 271900Z VRB02KT 15SM FEW080 SCT250 20/03 A2976 RMK CU2CI1 SLP082 DENSITY ALT 4500FT

CYQF;2018-06-27 20:00;CYQF 272000Z 28006KT 250V350 15SM FEW080 SCT250 21/03 A2975 RMK CU2CI1 SLP080 DENSITY ALT 4600FT

CYQF;2018-06-27 21:00;CYQF 272100Z 00000KT 15SM FEW080 SCT240 SCT300 20/01 A2974 RMK CU2CI1CI1 CI TR SLP080 DENSITY ALT 4500FT

CYQF;2018-06-27 22:00;CYQF 272200Z VRB06KT 15SM FEW090 FEW240 FEW300 22/03 A2973 RMK CU1CI1CI1 CI TR SLP078 DENSITY ALT 4700FT

CYQF;2018-06-27 23:00;CYQF 272300Z 36007KT 15SM FEW090 FEW250 21/02 A2973 RMK CU1CI1 CI TR SLP079 DENSITY ALT 4600FT

CYQF;2018-06-28 00:00;CYQF 280000Z 04004KT 340V080 15SM FEW090 FEW250 22/03 A2973 RMK CU1CI1 SLP077 DENSITY ALT 4700FT

CYQF;2018-06-28 01:00;CYQF 280100Z 36005KT 310V020 15SM FEW090 SCT250 21/04 A2973 RMK AC2CI2 SLP074 DENSITY ALT 4600FT

CYQF;2018-06-28 02:00;CYQF 280200Z 03004KT 15SM FEW120 SCT250 19/03 A2973 RMK AC2CI2 SLP074 DENSITY ALT 4400FT

CYQF;2018-06-28 03:00;CYQF 280300Z 01005KT 15SM SCT130 BKN250 18/08 A2975 RMK AC4CI2 SLP078 DENSITY ALT 4200FT

CYQF;2018-06-28 04:00;CYQF 280400Z 04006KT 15SM SCT120 BKN250 15/05 A2977 RMK AC4CI3 SLP088 DENSITY ALT 3800FT

CYQF;2018-06-28 05:00;CYQF 280500Z 02009KT 15SM FEW120 13/04 A2979 RMK AC2 SLP093 DENSITY ALT 3600FT

CYQF;2018-06-28 06:00;CYQF 280600Z 03008KT 15SM SCT110 11/05 A2980 RMK AC3 SLP099 DENSITY ALT 3400FT

CYQF;2018-06-28 07:00;CYQF 280700Z 01007KT 15SM SCT110 10/05 A2980 RMK AC4 SLP098 DENSITY ALT 3300FT

CYQF;2018-06-28 08:00;CYQF 280800Z 35004KT 15SM SCT110 BKN260 11/06 A2981 RMK AC3CI2 SLP099 DENSITY ALT 3300FT

CYQF;2018-06-28 09:00;CYQF 280900Z 33004KT 15SM SCT100 09/05 A2981 RMK AC4 SLP103 DENSITY ALT 3100FT

CYQF;2018-06-28 10:00;CYQF 281000Z 24004KT 15SM SCT100 SCT260 06/04 A2982 RMK AC3CI1 SLP107

CYQF;2018-06-28 11:00;CYQF 281100Z 29007KT 15SM SCT160 07/05 A2982 RMK AC4 SLP108

CYQF;2018-06-28 12:00;CYQF 281200Z 30005KT 15SM FEW120 BKN160 07/05 A2983 RMK AC2AC3 SLP111

CYQF;2018-06-28 13:00;CYQF 281300Z VRB02KT 15SM BKN140 11/06 A2984 RMK AC6 SLP110 DENSITY ALT 3300FT

CYQF;2018-06-28 14:00;CYQF 281400Z 31003KT 15SM SCT100 BKN150 12/07 A2984 RMK AC4AC3 SLP111 DENSITY ALT 3400FT

CYQF;2018-06-28 15:00;CYQF 281500Z 24003KT 220V290 15SM FEW100 BKN150 13/08 A2985 RMK AC2AC5 SLP115 DENSITY ALT 3500FT

CYQF;2018-06-28 16:00;CYQF 281600Z VRB05KT 15SM BKN150 BKN250 15/06 A2984 RMK AC5CI2 SLP112 DENSITY ALT 3800FT

CYQF;2018-06-28 17:00;CYQF 281700Z 35005KT 320V020 15SM SCT150 BKN250 17/04 A2983 RMK AC3CI2 SLP110 DENSITY ALT 4000FT

CYQF;2018-06-28 18:00;CYQF 281800Z VRB08KT 15SM FEW052 SCT150 BKN250 18/05 A2983 RMK CU2AC2CI2 SLP110 DENSITY ALT 4100FT

CYQF;2018-06-28 19:00;CYQF 281900Z 10003KT 080V250 15SM SCT057 BKN120 17/06 A2982 RMK CU3AC2 SLP107 DENSITY ALT 4100FT

CYQF;2018-06-28 20:00;CYQF 282000Z 35005KT 300V030 15SM SCT060 BKN120 18/05 A2980 RMK CU4AC3 SLP102 DENSITY ALT 4100FT

CYQF;2018-06-28 21:00;CYQF 282100Z VRB02KT 15SM BKN055 BKN120 18/05 A2980 RMK CU5AC2 SLP104 DENSITY ALT 4100FT

CYQF;2018-06-28 22:00;CYQF 282200Z 35004KT 320V020 15SM SCT050 OVC120 17/06 A2980 RMK CU3AC5 SLP107 DENSITY ALT 4100FT

CYQF;2018-06-28 23:00;CYQF 282300Z 34006KT 15SM SCT050 BKN100 17/05 A2980 RMK CU3AC4 VIRGA SLP107 DENSITY ALT 4000FT

CYQF;2018-06-29 00:00;CYQF 290000Z 33004KT 15SM FEW050 BKN085 16/06 A2980 RMK CU2AC5 SLP108 DENSITY ALT 4000FT

CYQF;2018-06-29 01:00;CYQF 290100Z 34003KT 310V010 15SM SCT050 BKN080 BKN140 17/07 A2980 RMK CU3AC2AC2 SLP103 DENSITY ALT 4000FT

CYQF;2018-06-29 02:00;CYQF 290200Z 24002KT 15SM FEW050 BKN100 BKN160 17/08 A2980 RMK CU2AC4AC1 SLP101 DENSITY ALT 4000FT

CYQF;2018-06-29 03:00;CYQF 290300Z 23003KT 15SM FEW050 BKN100 15/09 A2981 RMK CU1AC6 SLP104 DENSITY ALT 3900FT

CYQF;2018-06-29 04:00;CYQF 290400Z 25005KT 15SM FEW050 BKN110 14/07 A2982 RMK CU1AC6 CU TR SLP106 DENSITY ALT 3700FT

CYQF;2018-06-29 05:00;CYQF 290500Z 25005KT 15SM SCT110 13/08 A2982 RMK AC3 SLP107 DENSITY ALT 3600FT

CYQF;2018-06-29 06:00;CYQF 290600Z 21004KT 15SM SCT110 09/07 A2984 RMK AC3 SLP116 DENSITY ALT 3100FT

CYQF;2018-06-29 07:00;CYQF 290700Z 24004KT 15SM FEW110 09/06 A2984 RMK AC1 SLP115 DENSITY ALT 3100FT

CYQF;2018-06-29 08:00;CYQF 290800Z 21005KT 15SM SCT120 07/06 A2984 RMK AC4 SLP117

CYQF;2018-06-29 09:00;CYQF 290900Z 21004KT 15SM BKN120 09/07 A2984 RMK AC5 SLP115 DENSITY ALT 3100FT

CYQF;2018-06-29 10:00;CYQF 291000Z 23004KT 15SM BKN120 09/07 A2984 RMK AC5 SLP117 DENSITY ALT 3000FT

CYQF;2018-06-29 11:00;CYQF 291100Z 26003KT 15SM BKN120 08/07 A2984 RMK AC5 SLP118 DENSITY ALT 3000FT

CYQF;2018-06-29 12:00;CYQF 291200Z 20006KT 15SM BKN120 07/06 A2985 RMK AC6 SLP123

CYQF;2018-06-29 13:00;CYQF 291300Z 23004KT 15SM BKN120 09/07 A2985 RMK AC5 SLP120 DENSITY ALT 3100FT

CYQF;2018-06-29 14:00;CYQF 291400Z 22003KT 15SM BKN120 11/08 A2986 RMK AC6 SLP121 DENSITY ALT 3300FT

CYQF;2018-06-29 15:00;CYQF 291500Z 28007KT 15SM FEW120 BKN250 13/07 A2986 RMK AC2CI3 SLP122 DENSITY ALT 3600FT

CYQF;2018-06-29 16:00;CYQF 291600Z 26006KT 15SM FEW120 BKN310 15/09 A2986 RMK AC2CI3 SLP121 DENSITY ALT 3800FT

CYQF;2018-06-29 17:00;CYQF 291700Z 25004KT 190V260 15SM FEW040TCU FEW120 BKN300 17/08 A2986 RMK TCU1AC1CI4 SLP119 DENSITY ALT 4000FT

CYQF;2018-06-29 18:00;CYQF 291800Z 19006KT 180V260 12SM FEW040TCU SCT120 BKN300 19/08 A2986 RMK TCU2AC1CI2 SLP120 DENSITY ALT 4200FT

CYQF;2018-06-29 19:00;CYQF 291900Z VRB02KT 15SM BKN060TCU BKN120 BKN300 20/06 A2985 RMK TCU5AC1CI1 SH N SLP117 DENSITY ALT 4300FT

CYQF;2018-06-29 20:00;CYQF 292000Z 26004KT 170V270 15SM BKN060TCU BKN100 BKN300 19/06 A2984 RMK TCU5AC1CI1 CB DIST N SLP117 DENSITY ALT 4300FT

CYQF;2018-06-29 21:00;CYQF 292100Z 27004KT 240V010 15SM BKN060TCU BKN100 BKN220 20/06 A2984 RMK TCU5AC2CI1 CI TR CB DIST NW SLP113 DENSITY ALT 4400FT

CYQF;2018-06-29 22:00;CYQF 292200Z 26020G27KT 15SM -SHRA BKN064CB OVC100 14/08 A2987 RMK CB7AC1 SLP132 DENSITY ALT 3700FT

CYQF;2018-06-29 23:00;CYQF 292300Z 26012G18KT 15SM BKN073TCU BKN100 BKN300 14/08 A2989 RMK TCU6AC1CI1 CI TR VCSH SLP138 DENSITY ALT 3600FT

CYQF;2018-06-30 00:00;CYQF 300000Z 04005KT 15SM FEW040TCU BKN080 BKN250 15/09 A2988 RMK TCU2AC3CI2 SLP133 DENSITY ALT 3800FT

CYQF;2018-06-30 01:00;CYQF 300100Z VRB02KT 15SM FEW040TCU BKN140 BKN250 16/10 A2989 RMK TCU2AC3CI2 SLP135 DENSITY ALT 3800FT

CYQF;2018-06-30 02:00;CYQF 300200Z 15006KT 15SM FEW040TCU SCT120 BKN250 15/10 A2991 RMK TCU2AC2CI2 SLP140 DENSITY ALT 3800FT

CYQF;2018-06-30 03:00;CYQF 300300Z 17006KT 15SM FEW040TCU SCT100 BKN250 13/10 A2991 RMK TCU2AC2CI1 SLP142 DENSITY ALT 3500FT

CYQF;2018-06-30 04:00;CYQF 300400Z 21004KT 120V220 15SM FEW040 SCT180 BKN250 11/09 A2993 RMK CU2AC2CI2 SLP146 DENSITY ALT 3300FT

CYQF;2018-06-30 05:00;CYQF 300500Z 23007KT 15SM FEW170 SCT250 10/08 A2994 RMK AC1CI2 SLP150 DENSITY ALT 3100FT

CYQF;2018-06-30 06:00;CYQF 300600Z 23006KT 15SM FEW170 09/07 A2993 RMK AC2 SLP148

CYQF;2018-06-30 07:00;CYQF 300700Z 25005KT 15SM FEW170 10/07 A2993 RMK AC1 SLP145 DENSITY ALT 3100FT

CYQF;2018-06-30 08:00;CYQF 300800Z 24006KT 15SM FEW130 07/06 A2993 RMK AC1 SLP149

CYQF;2018-06-30 09:00;CYQF 300900Z 22003KT 190V250 15SM FEW130 06/05 A2993 RMK AC1 SLP148

CYQF;2018-06-30 10:00;CYQF 301000Z 20004KT 15SM FEW130 04/03 A2992 RMK AC1 SLP154

CYQF;2018-06-30 11:00;CYQF 301100Z 22005KT 15SM FEW130 05/04 A2993 RMK AC1 AC TR SLP156

CYQF;2018-06-30 12:00;CYQF 301200Z 25008KT 15SM FEW260 07/06 A2993 RMK CI1 CI TR SLP153

CYQF;2018-06-30 13:00;CYQF 301300Z 22006KT 15SM SCT260 08/07 A2994 RMK CI3 SLP153

CYQF;2018-06-30 14:00;CYQF 301400Z 24007KT 15SM SCT260 11/07 A2994 RMK CI3 SLP150 DENSITY ALT 3200FT

CYQF;2018-06-30 15:00;CYQF 301500Z 20005KT 15SM BKN260 13/08 A2993 RMK CI6 SLP147 DENSITY ALT 3500FT

CYQF;2018-06-30 16:00;CYQF 301600Z 24003KT 180V270 15SM BKN260 15/08 A2992 RMK CI7 SLP144 DENSITY ALT 3700FT

CYQF;2018-06-30 17:00;CYQF 301700Z VRB03KT 15SM FEW030 BKN260 18/10 A2990 RMK CU1CI5 SLP137 DENSITY ALT 4000FT

CYQF;2018-06-30 18:00;CYQF 301800Z 23008KT 190V270 15SM FEW040TCU SCT180 BKN260 19/07 A2989 RMK TCU1AC2CI3 SLP131 DENSITY ALT 4200FT

CYQF;2018-06-30 19:00;CYQF 301900Z 20008KT 15SM SCT060TCU BKN180 BKN260 20/06 A2986 RMK TCU3AC2CI2 SLP120 DENSITY ALT 4400FT

CYQF;2018-06-30 20:00;CYQF 302000Z 18008KT 15SM VCSH SCT060TCU BKN170 BKN260 21/06 A2983 RMK TCU3AC3CI1 SLP112 DENSITY ALT 4500FT

CYQF;2018-06-30 20:49;CYQF 302049Z 17013KT 15SM TS VCSH SCT060CB BKN100 OVC260 21/07 A2981 RMK CB4AC3CI1 SLP104 DENSITY ALT 4500FT

CYQF;2018-06-30 21:00;CYQF 302100Z 16010KT 15SM TS VCSH SCT060CB BKN100 OVC260 20/08 A2980 RMK CB4AC3CI1 SLP105 DENSITY ALT 4400FT

CYQF;2018-06-30 21:13;CYQF 302113Z 26010G17KT 160V280 12SM -TSRA BKN060CB OVC100 19/06 A2981 RMK CB5AC3 OCNL LTGCC SLP108 DENSITY ALT 4200FT

CYQF;2018-06-30 21:33;CYQF 302133Z 31009G16KT 15SM -SHRA SCT060CB BKN100 14/10 A2982 RMK CB4AC3 VIS SW 3 SLP117 DENSITY ALT 3700FT

CYQF;2018-06-30 22:00;CYQF 302200Z 16025G30KT 12SM -SHRA BKN060CB BKN120 BKN250 13/08 A2980 RMK CB5AC1CI1 VIS S 4 PRESFR SLP114 DENSITY ALT 3600FT

CYQF;2018-06-30 22:17;CYQF 302217Z 15009KT 120V190 15SM SCT060CB BKN140 BKN250 14/10 A2980 RMK CB3AC3CI1 SLP113 DENSITY ALT 3700FT

CYQF;2018-06-30 23:00;CYQF 302300Z 10008KT 15SM VCSH SCT060CB BKN140 BKN250 17/09 A2978 RMK CB3AC3CI1 SLP102 DENSITY ALT 4100FT

CYQF;2018-06-30 23:56;CYQF 302356Z 35012G18KT 12SM TS VCSH BKN065CB OVC140 13/08 A2980 RMK CB6AC2 SLP113 DENSITY ALT 3700FT

CYQF;2018-07-01 00:00;CYQF 010000Z 35011G18KT 12SM TS VCSH BKN065CB OVC140 13/08 A2980 RMK CB6AC2 SLP111 DENSITY ALT 3600FT

CYQF;2018-07-01 00:20;CYQF 010020Z 33009KT 12SM -TSRA FEW020 BKN065CB OVC140 13/08 A2982 RMK CF1CB6AC1 SLP116 DENSITY ALT 3600FT

CYQF;2018-07-01 01:00;CYQF 010100Z 04009KT 15SM -TSRA BKN060CB BKN140 11/10 A2981 RMK CB6AC1 PRESFR SLP115 DENSITY ALT 3400FT

CYQF;2018-07-01 01:35;CYQF 010135Z 02007KT 330V040 15SM -SHRA SCT060CB BKN100 11/10 A2980 RMK CB4AC3 PRESRR SLP109 DENSITY ALT 3400FT

CYQF;2018-07-01 01:43;CYQF 010143Z 02004KT 15SM SCT060CB BKN120 12/10 A2980 RMK CB3AC4 SLP108 DENSITY ALT 3500FT

CYQF;2018-07-01 02:00;CYQF 010200Z VRB03KT 15SM FEW060CB BKN120 BKN190 12/10 A2980 RMK CB2AC3AC2 SLP106 DENSITY ALT 3500FT

CYQF;2018-07-01 03:00;CYQF 010300Z 19004KT 15SM FEW060TCU BKN100 BKN250 13/10 A2979 RMK TCU1AC5CI1 SLP100 DENSITY ALT 3600FT

CYQF;2018-07-01 04:00;CYQF 010400Z 22005KT 15SM BKN110 BKN250 11/10 A2980 RMK AC5CI1 SLP101 DENSITY ALT 3400FT

CYQF;2018-07-01 05:00;CYQF 010500Z 28006KT 230V290 15SM SCT060 BKN110 11/10 A2982 RMK SC4AC3 SLP106 DENSITY ALT 3400FT

CYQF;2018-07-01 05:13;CYQF 010513Z 31012KT 12SM -SHRA BKN060 OVC110 11/10 A2984 RMK SC5AC3 PRESRR SLP113 DENSITY ALT 3400FT

CYQF;2018-07-01 05:22;CYQF 010522Z 31015G22KT 12SM -SHRA BKN070 OVC110 12/10 A2984 RMK AC6AC2 CVCTV CLD EMBD SLP112 DENSITY ALT 3400FT

CYQF;2018-07-01 06:00;CYQF 010600Z 24008KT 12SM -SHRA BKN063 BKN110 11/08 A2982 RMK SC6AC1 CVCTV CLD EMBD SLP107 DENSITY ALT 3300FT

CYQF;2018-07-01 06:38;CYQF 010638Z 18005KT 15SM SCT063 BKN110 10/09 A2981 RMK SC3AC4 SLP102 DENSITY ALT 3300FT

CYQF;2018-07-01 07:00;CYQF 010700Z 23008KT 15SM BKN100 BKN160 10/09 A2981 RMK AC5AC2 SLP101 DENSITY ALT 3300FT

CYQF;2018-07-01 08:00;CYQF 010800Z 27004KT 15SM SCT090 09/07 A2981 RMK AC3 SLP103 DENSITY ALT 3100FT

CYQF;2018-07-01 09:00;CYQF 010900Z 27006KT 15SM FEW100 SCT240 09/07 A2981 RMK AC1CI3 SLP103 DENSITY ALT 3100FT

CYQF;2018-07-01 10:00;CYQF 011000Z 27005KT 260V320 15SM FEW150 09/08 A2981 RMK AC2 SLP113 DENSITY ALT 3100FT

CYQF;2018-07-01 11:00;CYQF 011100Z 27005KT 15SM FEW080 SCT150 09/07 A2983 RMK AC2AC2 SLP113 DENSITY ALT 3100FT

CYQF;2018-07-01 12:00;CYQF 011200Z 30006KT 15SM BKN070 09/08 A2984 RMK AC5 SLP121 DENSITY ALT 3100FT

CYQF;2018-07-01 13:00;CYQF 011300Z 32004KT 300V360 15SM BKN080 12/07 A2985 RMK ACC5 SLP123 DENSITY ALT 3400FT

CYQF;2018-07-01 14:00;CYQF 011400Z 34008KT 15SM BKN080 13/07 A2986 RMK ACC6 VIRGA CB TOP DIST W SLP126 DENSITY ALT 3500FT

CYQF;2018-07-01 15:00;CYQF 011500Z 34007KT 15SM BKN075 15/07 A2987 RMK ACC6 VIRGA SLP125 DENSITY ALT 3700FT

CYQF;2018-07-01 15:28;CYQF 011528Z 35009G15KT 300V040 15SM -SHRA FEW030 BKN075 14/06 A2987 RMK CU1ACC5 SLP125 DENSITY ALT 3600FT

CYQF;2018-07-01 15:42;CYQF 011542Z 35011KT 310V010 15SM VCSH FEW030 BKN100 14/06 A2987 RMK CU1AC4 SLP125 DENSITY ALT 3700FT

CYQF;2018-07-01 16:00;CYQF 011600Z 34010KT 15SM SCT033TCU BKN100 15/07 A2986 RMK TCU3AC3 VIRGA SLP125 DENSITY ALT 3700FT

CYQF;2018-07-01 17:00;CYQF 011700Z 30003KT 280V350 15SM FEW032TCU BKN090 15/07 A2985 RMK TCU2ACC3 SLP121 DENSITY ALT 3800FT

CYQF;2018-07-01 18:00;CYQF 011800Z VRB03KT 15SM SCT045TCU BKN100 17/06 A2983 RMK TCU3ACC3 SLP111 DENSITY ALT 4100FT

CYQF;2018-07-01 18:47;CYQF 011847Z VRB02KT 15SM -SHRA BKN040CB BKN100 17/05 A2983 RMK CB5AC1 SLP111 DENSITY ALT 4000FT

CYQF;2018-07-01 19:00;CYQF 011900Z 26003KT 230V350 15SM -SHRA BKN045CB BKN100 16/05 A2982 RMK CB6AC1 SLP111 DENSITY ALT 4000FT

CYQF;2018-07-01 20:00;CYQF 012000Z 25005KT 240V350 12SM -TSRA BKN040CB BKN100 15/07 A2982 RMK CB5AC1 SLP114 DENSITY ALT 3800FT

CYQF;2018-07-01 20:35;CYQF 012035Z 19003KT 15SM VCSH SCT040CB BKN120 17/05 A2982 RMK CB4AC2 SLP112 DENSITY ALT 4000FT

CYQF;2018-07-01 21:00;CYQF 012100Z 15006KT 130V200 15SM SCT040CB BKN120 16/08 A2981 RMK CB4AC2 SLP107 DENSITY ALT 3900FT

CYQF;2018-07-01 22:00;CYQF 012200Z 09004KT 060V170 15SM FEW044CB SCT120 17/06 A2979 RMK CB2AC1 SLP100 DENSITY ALT 4100FT

CYQF;2018-07-01 23:00;CYQF 012300Z 07004KT 15SM BKN044CB BKN140 18/06 A2978 RMK CB5AC1 SLP096 DENSITY ALT 4200FT

CYQF;2018-07-01 23:42;CYQF 012342Z 20004KT 160V330 15SM TS BKN040CB BKN120 17/07 A2979 RMK CB6AC1 SLP098 DENSITY ALT 4100FT

CYQF;2018-07-02 00:00;CYQF 020000Z 23014KT 12SM -TSRA BKN050CB BKN120 15/08 A2980 RMK CB6AC1 OCNL LTGCG SW SLP103 DENSITY ALT 3800FT

CYQF;2018-07-02 00:11;CYQF 020011Z VRB02KT 8SM TSRA BKN030CB BKN120 12/07 A2982 RMK CB6AC1 OCNL LTGCG E PRESRR SLP114 DENSITY ALT 3500FT

CYQF;2018-07-02 00:21;CYQF 020021Z VRB03KT 12SM -TSRA BKN050CB 13/06 A2980 RMK CB7 SLP109 DENSITY ALT 3500FT

CYQF;2018-07-02 01:00;CYQF 020100Z 30018G28KT 15SM -TSRA BKN042CB BKN140 11/08 A2984 RMK CB6AC1 PRESRR SLP122 DENSITY ALT 3300FT

CYQF;2018-07-02 01:38;CYQF 020138Z 27005KT 15SM VCSH BKN042CB BKN140 14/08 A2980 RMK CB5AC1 SLP105 DENSITY ALT 3700FT

CYQF;2018-07-02 02:00;CYQF 020200Z 24004KT 15SM VCSH SCT042CB BKN140 14/08 A2980 RMK CB4AC2 SLP103 DENSITY ALT 3700FT

CYQF;2018-07-02 03:00;CYQF 020300Z 35005KT 15SM VCSH SCT040CB BKN100 12/09 A2982 RMK CB4AC3 SLP110 DENSITY ALT 3400FT

CYQF;2018-07-02 03:13;CYQF 020313Z VRB02KT 12SM -SHRA BKN045CB BKN100 12/08 A2983 RMK CB6AC1 SLP112 DENSITY ALT 3500FT

CYQF;2018-07-02 04:00;CYQF 020400Z 32006KT 12SM -SHRA BKN045CB BKN120 11/08 A2985 RMK CB6AC1 SLP122 DENSITY ALT 3300FT

CYQF;2018-07-02 04:41;CYQF 020441Z 07004KT 15SM VCSH BKN045CB BKN120 10/09 A2983 RMK CB5AC1 SLP114 DENSITY ALT 3300FT

CYQF;2018-07-02 05:00;CYQF 020500Z 01004KT 15SM VCSH SCT040CB BKN120 BKN250 10/09 A2985 RMK CB3AC3CI1 PRESRR SLP123 DENSITY ALT 3200FT

CYQF;2018-07-02 06:00;CYQF 020600Z 34007KT 300V360 15SM VCSH BKN060TCU OVC160 09/09 A2987 RMK TCU5AC3 SLP128 DENSITY ALT 3100FT

CYQF;2018-07-02 06:20;CYQF 020620Z 01005KT 15SM -SHRA SCT020TCU OVC060 10/09 A2989 RMK TCU4SC4 SLP131 DENSITY ALT 3100FT

CYQF;2018-07-02 07:00;CYQF 020700Z 06003KT 15SM -SHRA SCT020TCU BKN050 09/09 A2988 RMK TCU3SC4 SLP132 DENSITY ALT 3100FT

CYQF;2018-07-02 07:44;CYQF 020744Z 15004KT 15SM FEW020TCU SCT050 BKN080 08/08 A2988 RMK TCU2SC2AC2 SLP131 DENSITY ALT 3000FT

CYQF;2018-07-02 08:00;CYQF 020800Z 19004KT 15SM FEW020 BKN060 BKN080 08/08 A2987 RMK CU2SC4AC1 SLP131 DENSITY ALT 3000FT

CYQF;2018-07-02 09:00;CYQF 020900Z 24003KT 15SM BKN060 BKN080 08/08 A2986 RMK SC5AC2 SLP125 DENSITY ALT 3000FT

CYQF;2018-07-02 10:00;CYQF 021000Z 21004KT 15SM SCT060 BKN080 08/08 A2986 RMK SC3AC4 SLP124 DENSITY ALT 3000FT

CYQF;2018-07-02 11:00;CYQF 021100Z 25006KT 15SM BKN060 BKN250 08/07 A2985 RMK SC5CI1 SLP119

CYQF;2018-07-02 12:00;CYQF 021200Z 22004KT 15SM FEW060 FEW080 SCT250 07/06 A2983 RMK SC1AC1CI1 SLP119

CYQF;2018-07-02 13:00;CYQF 021300Z 25007KT 15SM FEW060 FEW100 SCT250 08/07 A2982 RMK SC1AC1CI2 SLP119 DENSITY ALT 3000FT

CYQF;2018-07-02 14:00;CYQF 021400Z 24006KT 15SM FEW030 FEW100 FEW250 10/08 A2982 RMK CU1AC1CI1 CU TR SLP113 DENSITY ALT 3300FT

CYQF;2018-07-02 15:00;CYQF 021500Z 23007KT 15SM FEW030 FEW100 SCT250 12/09 A2982 RMK CU1AC1CI1 SLP113 DENSITY ALT 3500FT

CYQF;2018-07-02 16:00;CYQF 021600Z 26005KT 210V280 15SM SCT025TCU SCT100 BKN250 14/08 A2982 RMK TCU3AC1CI1 SLP111 DENSITY ALT 3700FT

CYQF;2018-07-02 17:00;CYQF 021700Z VRB02KT 15SM VCSH BKN040TCU 14/05 A2981 RMK TCU7 SLP108 DENSITY ALT 3700FT

CYQF;2018-07-02 17:34;CYQF 021734Z 35013G19KT 220V360 15SM -SHRA BKN044TCU 12/06 A2981 RMK TCU7 SLP110 DENSITY ALT 3500FT

CYQF;2018-07-02 18:00;CYQF 021800Z 36008G15KT 15SM -SHRA BKN045TCU 14/08 A2981 RMK TCU7 SLP110 DENSITY ALT 3700FT

CYQF;2018-07-02 18:24;CYQF 021824Z 34012KT 15SM VCSH BKN040TCU BKN080 13/07 A2981 RMK TCU5AC2 SHRA SE-S SLP112 DENSITY ALT 3600FT

CYQF;2018-07-02 19:00;CYQF 021900Z 35005KT 310V030 15SM SCT040TCU BKN080 BKN250 15/07 A2980 RMK TCU4AC1CI2 SHRA DIST SE-S SLP106 DENSITY ALT 3900FT

CYQF;2018-07-02 20:00;CYQF 022000Z 33006KT 300V030 15SM VCSH BKN042TCU BKN250 16/06 A2981 RMK TCU6CI1 SLP109 DENSITY ALT 4000FT

CYQF;2018-07-02 20:40;CYQF 022040Z 35004KT 310V060 15SM TS VCSH BKN042CB 15/08 A2981 RMK CB7 SLP111 DENSITY ALT 3800FT

CYQF;2018-07-02 21:00;CYQF 022100Z 34011KT 15SM TS VCSH BKN042CB 14/07 A2982 RMK CB7 SLP114 DENSITY ALT 3700FT

CYQF;2018-07-02 21:11;CYQF 022111Z 32012G19KT 15SM -TSRA BKN042CB 13/07 A2982 RMK CB7 SLP117 DENSITY ALT 3500FT

CYQF;2018-07-02 22:00;CYQF 022200Z 28009G15KT 12SM -TSRA BKN054CB BKN250 10/08 A2985 RMK CB6CI1 SLP130 DENSITY ALT 3200FT

CYQF;2018-07-02 22:09;CYQF 022209Z 27007KT 12SM -SHRA FEW024 BKN054TCU BKN250 11/08 A2985 RMK CF1TCU5CI1 SLP129 DENSITY ALT 3300FT

CYQF;2018-07-02 22:47;CYQF 022247Z 29008KT 15SM FEW025 BKN050TCU BKN250 12/08 A2986 RMK CF1TCU5CI1 SLP128 DENSITY ALT 3500FT

CYQF;2018-07-02 23:00;CYQF 022300Z 28008G17KT 15SM FEW020 BKN050TCU BKN250 13/07 A2986 RMK CF2TCU4CI1 SLP129 DENSITY ALT 3500FT

CYQF;2018-07-03 00:00;CYQF 030000Z 28012KT 15SM FEW030 BKN054TCU BKN250 13/06 A2988 RMK CF1TCU5CI1 SLP135 DENSITY ALT 3500FT

CYQF;2018-07-03 01:00;CYQF 030100Z 29013G19KT 15SM SCT036 BKN080 BKN250 13/07 A2988 RMK CU4AC2CI1 SLP137 DENSITY ALT 3500FT

CYQF;2018-07-03 02:00;CYQF 030200Z 29011KT 15SM SCT020 BKN046 BKN150 11/08 A2989 RMK CU3CU3AC1 SLP138 DENSITY ALT 3300FT

CYQF;2018-07-03 03:00;CYQF 030300Z 28009G15KT 15SM SCT018 BKN051 BKN250 10/08 A2990 RMK SC3SC4CI1 CI TR SLP141 DENSITY ALT 3200FT

CYQF;2018-07-03 04:00;CYQF 030400Z 28007KT 15SM BKN012 OVC050 10/08 A2991 RMK SC6SC2 SLP145 DENSITY ALT 3100FT

CYQF;2018-07-03 05:00;CYQF 030500Z 30010KT 15SM SCT012 BKN042 10/09 A2992 RMK SF3SC4 SLP148 DENSITY ALT 3100FT

CYQF;2018-07-03 05:15;CYQF 030515Z 30011KT 15SM -RA SCT012 BKN040 10/09 A2992 RMK SF3SC4 SLP147 DENSITY ALT 3100FT

CYQF;2018-07-03 06:00;CYQF 030600Z 28011KT 15SM -RA SCT020 OVC050 09/08 A2992 RMK SC4SC4 SLP148 DENSITY ALT 3000FT

CYQF;2018-07-03 06:45;CYQF 030645Z 28009G15KT 15SM BKN020 OVC050 09/08 A2993 RMK SC6SC2 SLP150 DENSITY ALT 3000FT

CYQF;2018-07-03 07:00;CYQF 030700Z 29010KT 15SM BKN020 OVC050 09/08 A2993 RMK SC6SC2 SLP149 DENSITY ALT 3000FT

CYQF;2018-07-03 08:00;CYQF 030800Z 28012KT 15SM SCT012 OVC040 09/08 A2992 RMK SF3SC5 SLP147 DENSITY ALT 3000FT

CYQF;2018-07-03 09:00;CYQF 030900Z 28009KT 15SM FEW012 OVC050 09/07 A2992 RMK SF1SC7 SLP150

CYQF;2018-07-03 10:00;CYQF 031000Z 27008KT 15SM FEW015 SCT040 BKN250 08/07 A2992 RMK SC1SC2CI2 SLP152

CYQF;2018-07-03 11:00;CYQF 031100Z 27008KT 15SM FEW010 SCT030 OVC050 08/07 A2991 RMK SF1SC3SC4 SLP148

CYQF;2018-07-03 11:34;CYQF 031134Z 26007KT 15SM BKN008 OVC030 08/08 A2991 RMK SC5SC3 SLP147

CYQF;2018-07-03 12:00;CYQF 031200Z 27007KT 15SM BKN007 BKN030 BKN220 08/07 A2991 RMK SC5SC1CI1 SLP147

CYQF;2018-07-03 13:00;CYQF 031300Z 28005KT 10SM BKN007 OVC038 10/09 A2992 RMK SF6SC2 CIG RAG SLP149 DENSITY ALT 3100FT

CYQF;2018-07-03 13:11;CYQF 031311Z 28006KT 6SM -DZ BR OVC009 10/09 A2992 RMK ST8 SLP150 DENSITY ALT 3100FT

CYQF;2018-07-03 13:17;CYQF 031317Z 28006KT 3SM -RA BR BKN007 OVC014 10/09 A2992 RMK ST6SC2 CIG RAG SLP150 DENSITY ALT 3100FT

CYQF;2018-07-03 14:00;CYQF 031400Z 28006KT 3SM -SHRA BR BKN007 OVC015 11/10 A2993 RMK ST5SC3 CVCTV CLD EMBD SLP151 DENSITY ALT 3200FT

CYQF;2018-07-03 14:28;CYQF 031428Z 26004KT 4SM BR FEW006 OVC011 11/10 A2993 RMK SF2ST6 SLP152 DENSITY ALT 3200FT

CYQF;2018-07-03 15:00;CYQF 031500Z VRB02KT 6SM BR SCT006 BKN012 OVC030 11/10 A2993 RMK SF3SC3SC2 SLP153 DENSITY ALT 3200FT

CYQF;2018-07-03 16:00;CYQF 031600Z 08005KT 310V100 10SM VCSH FEW006 BKN012TCU 13/10 A2993 RMK CF2TCU5 SLP151 DENSITY ALT 3400FT

CYQF;2018-07-03 16:20;CYQF 031620Z 09004KT 050V150 15SM VCSH FEW008 BKN015TCU 14/09 A2993 RMK CF2TCU5 SLP150 DENSITY ALT 3500FT

CYQF;2018-07-03 17:00;CYQF 031700Z VRB02KT 15SM VCSH BKN028TCU BKN250 14/09 A2993 RMK TCU6CI1 SLP150 DENSITY ALT 3500FT

CYQF;2018-07-03 18:00;CYQF 031800Z VRB02KT 15SM VCSH BKN020TCU 16/11 A2993 RMK TCU7 SLP150 DENSITY ALT 3800FT

CYQF;2018-07-03 19:00;CYQF 031900Z 01002KT 15SM VCSH BKN029TCU BKN070 15/09 A2994 RMK TCU6AC1 SLP153 DENSITY ALT 3600FT

CYQF;2018-07-03 20:00;CYQF 032000Z 32004KT 300V030 15SM BKN034TCU 15/10 A2994 RMK TCU7 SLP153 DENSITY ALT 3700FT

CYQF;2018-07-03 21:00;CYQF 032100Z 30010G15KT 15SM VCSH FEW020 BKN036TCU 14/11 A2994 RMK CU2TCU5 SLP156 DENSITY ALT 3600FT

CYQF;2018-07-03 21:33;CYQF 032133Z 30008KT 15SM -SHRA BKN040TCU BKN100 15/11 A2995 RMK TCU6AC1 SLP158 DENSITY ALT 3600FT

CYQF;2018-07-03 22:00;CYQF 032200Z 29007KT 15SM -SHRA BKN040TCU BKN100 14/11 A2995 RMK TCU6AC1 SLP161 DENSITY ALT 3500FT

CYQF;2018-07-03 22:23;CYQF 032223Z 29009KT 15SM BKN040TCU BKN250 13/10 A2996 RMK TCU6CI1 SLP164 DENSITY ALT 3500FT

CYQF;2018-07-03 23:00;CYQF 032300Z 27009KT 15SM BKN042TCU BKN250 15/12 A2997 RMK TCU6CI1 SLP163 DENSITY ALT 3700FT

CYQF;2018-07-04 00:00;CYQF 040000Z 30010G17KT 15SM BKN042TCU BKN250 16/12 A2998 RMK TCU5CI2 SLP165 DENSITY ALT 3800FT

CYQF;2018-07-04 01:00;CYQF 040100Z 29011G17KT 15SM SCT040TCU BKN160 BKN250 15/11 A2998 RMK TCU4AC3CI1 CI TR SLP168 DENSITY ALT 3600FT

CYQF;2018-07-04 02:00;CYQF 040200Z 30010KT 15SM SCT020 BKN050TCU BKN150 14/10 A3000 RMK SC3TCU2AC2 SLP174 DENSITY ALT 3500FT

CYQF;2018-07-04 03:00;CYQF 040300Z 31008KT 15SM FEW020 BKN040TCU BKN080 13/11 A3002 RMK SC1TCU5AC1 SLP181 DENSITY ALT 3400FT

CYQF;2018-07-04 03:38;CYQF 040338Z 35007KT 15SM -SHRA FEW020 BKN040TCU BKN250 13/11 A3003 RMK SC2TCU5CI1 CI TR SLP185 DENSITY ALT 3300FT

CYQF;2018-07-04 04:00;CYQF 040400Z 34005KT 15SM FEW021 BKN040TCU BKN120 12/10 A3005 RMK SC2TCU4AC1 OCNL -SHRA SLP190 DENSITY ALT 3200FT

CYQF;2018-07-04 05:00;CYQF 040500Z 33008KT 15SM -SHRA BKN030TCU BKN120 12/10 A3006 RMK TCU5AC2 SLP193 DENSITY ALT 3200FT

CYQF;2018-07-04 05:41;CYQF 040541Z 33009KT 15SM SCT030TCU OVC060 11/10 A3006 RMK TCU3SC5 SLP194 DENSITY ALT 3100FT

CYQF;2018-07-04 06:00;CYQF 040600Z 33011KT 15SM FEW030 BKN070 11/09 A3006 RMK CU2AC5 SLP192 DENSITY ALT 3100FT

CYQF;2018-07-04 07:00;CYQF 040700Z 33008KT 15SM FEW030 OVC080 11/09 A3007 RMK CU2AC6 SLP196 DENSITY ALT 3000FT

CYQF;2018-07-04 07:24;CYQF 040724Z 01006KT 15SM -TSRA SCT020CB OVC080 11/09 A3007 RMK CB4AC4 SLP197 DENSITY ALT 3100FT

CYQF;2018-07-04 07:32;CYQF 040732Z 34007KT 10SM TSRA BKN020CB OVC080 11/09 A3007 RMK CB5AC3 SLP197 DENSITY ALT 3000FT

CYQF;2018-07-04 08:00;CYQF 040800Z 32005KT 15SM -SHRA SCT020CB OVC040 11/10 A3007 RMK CB4SC4 SLP196 DENSITY ALT 3000FT

CYQF;2018-07-04 08:33;CYQF 040833Z 32004KT 15SM SCT020TCU OVC100 10/09 A3008 RMK TCU3AC5 SLP199 DENSITY ALT 3000FT

CYQF;2018-07-04 09:00;CYQF 040900Z 30006KT 15SM BKN020 OVC100 10/09 A3008 RMK CU5AC3 SLP200 DENSITY ALT 3000FT

CYQF;2018-07-04 10:00;CYQF 041000Z 34009KT 15SM OVC010 11/10 A3009 RMK SC8 SLP206 DENSITY ALT 3000FT

CYQF;2018-07-04 11:00;CYQF 041100Z 33007KT 15SM BKN020 OVC100 11/10 A3012 RMK SC6AC2 SLP213 DENSITY ALT 3000FT

CYQF;2018-07-04 12:01;CYQF 041201Z 33006KT 6SM BR FEW008 BKN020 11/10 A3014 RMK SF2SC5 SLP219 DENSITY ALT 3000FT

CYQF;2018-07-04 13:00;CYQF 041300Z 30010KT 8SM SCT008 BKN023 BKN100 12/10 A3016 RMK SF3SC3ACC1 CU EMBD SLP227 DENSITY ALT 3000FT

CYQF;2018-07-04 14:00;CYQF 041400Z 31010KT 8SM OVC025 12/10 A3019 RMK SC8 CU EMBD SLP237 DENSITY ALT 3000FT

CYQF;2018-07-04 14:37;CYQF 041437Z 29007KT 10SM SCT008 OVC025 12/11 A3020 RMK SF3SC5 CU EMBD SLP241 DENSITY ALT 3000FT

CYQF;2018-07-04 15:00;CYQF 041500Z 30008KT 12SM FEW008 BKN018 BKN040 12/11 A3021 RMK SF2SC4SC1 CU EMBD SLP245 DENSITY ALT 3000FT

CYQF;2018-07-04 16:00;CYQF 041600Z 31008G15KT 15SM SCT013 BKN040 14/10 A3022 RMK CU4SC3 SLP249 DENSITY ALT 3200FT

CYQF;2018-07-04 17:00;CYQF 041700Z 30009G15KT 280V360 15SM SCT020 BKN040 15/11 A3023 RMK CU4SC2 SLP250 DENSITY ALT 3300FT

CYQF;2018-07-04 18:00;CYQF 041800Z 33007KT 15SM BKN033TCU BKN150 16/11 A3024 RMK TCU6AC1 SLP253 DENSITY ALT 3500FT

CYQF;2018-07-04 19:00;CYQF 041900Z 32008KT 15SM BKN023TCU BKN080 16/10 A3024 RMK TCU5AC2 SLP256 DENSITY ALT 3400FT

CYQF;2018-07-04 20:00;CYQF 042000Z 01006KT 15SM VCSH BKN024TCU BKN080 16/11 A3025 RMK TCU5AC2 SLP259 DENSITY ALT 3500FT

CYQF;2018-07-04 21:00;CYQF 042100Z VRB04KT 15SM BKN024TCU BKN080 17/11 A3026 RMK TCU5AC2 SLP260 DENSITY ALT 3600FT

CYQF;2018-07-04 22:00;CYQF 042200Z 24003KT 210V290 15SM BKN032TCU BKN092 18/10 A3027 RMK TCU5AC2 SLP262 DENSITY ALT 3700FT

CYQF;2018-07-04 23:00;CYQF 042300Z 24004KT 15SM SCT036TCU BKN095 18/11 A3027 RMK TCU4AC3 SLP262 DENSITY ALT 3600FT

CYQF;2018-07-05 00:00;CYQF 050000Z 35004KT 280V020 15SM SCT037TCU BKN100 18/10 A3027 RMK TCU4AC2 SLP263 DENSITY ALT 3700FT

CYQF;2018-07-05 01:00;CYQF 050100Z 35005KT 15SM SCT035TCU BKN093 17/12 A3028 RMK TCU3AC4 SLP265 DENSITY ALT 3600FT

CYQF;2018-07-05 02:00;CYQF 050200Z 01003KT 15SM FEW035TCU BKN100 16/12 A3029 RMK TCU2AC4 SLP270 DENSITY ALT 3400FT

CYQF;2018-07-05 03:00;CYQF 050300Z 00000KT 15SM FEW040 BKN100 16/12 A3029 RMK CU1AC4 SLP271 DENSITY ALT 3400FT

CYQF;2018-07-05 04:00;CYQF 050400Z VRB02KT 15SM FEW040 FEW100 SCT250 13/12 A3030 RMK CF1AC2CI1 CF TR SLP274 DENSITY ALT 3100FT

CYQF;2018-07-05 05:00;CYQF 050500Z 18004KT 15SM FEW250 12/11 A3031 RMK CI2 SLP280

CYQF;2018-07-05 06:00;CYQF 050600Z 17004KT 15SM FEW250 11/09 A3032 RMK CI1 SLP281

CYQF;2018-07-05 07:00;CYQF 050700Z 16003KT 15SM FEW250 09/08 A3031 RMK CI1 SLP281

CYQF;2018-07-05 08:00;CYQF 050800Z 18003KT 15SM SKC 08/07 A3032 RMK SLP283

CYQF;2018-07-05 09:00;CYQF 050900Z 19007KT 15SM SCT250 09/08 A3031 RMK CI3 SLP279

CYQF;2018-07-05 10:00;CYQF 051000Z 17003KT 15SM BKN230 09/08 A3030 RMK CI5 SLP276

CYQF;2018-07-05 11:00;CYQF 051100Z 16006KT 15SM BKN250 09/08 A3030 RMK CI5 SLP274

CYQF;2018-07-05 12:00;CYQF 051200Z 14005KT 15SM BKN200 09/08 A3030 RMK CI6 SLP275

CYQF;2018-07-05 13:00;CYQF 051300Z 15007KT 15SM FEW190 BKN300 11/09 A3029 RMK AC1CI6 SLP269

CYQF;2018-07-05 14:00;CYQF 051400Z 15010KT 15SM FEW160 BKN300 14/10 A3029 RMK AC2CI5 SLP268 DENSITY ALT 3100FT

CYQF;2018-07-05 15:00;CYQF 051500Z 14010KT 15SM BKN230 16/11 A3028 RMK CI7 SLP262 DENSITY ALT 3400FT

CYQF;2018-07-05 16:00;CYQF 051600Z 16016KT 15SM FEW120 BKN220 18/11 A3026 RMK AC1CI5 SLP255 DENSITY ALT 3700FT

CYQF;2018-07-05 17:00;CYQF 051700Z 18017G22KT 15SM BKN220 20/11 A3025 RMK CI5 SLP251 DENSITY ALT 3900FT

CYQF;2018-07-05 18:00;CYQF 051800Z 16019G25KT 15SM SCT250 21/12 A3023 RMK CI3 SLP247 DENSITY ALT 4000FT

CYQF;2018-07-05 19:00;CYQF 051900Z 17016G25KT 15SM FEW250 23/13 A3023 RMK CI1 SLP245 DENSITY ALT 4200FT

CYQF;2018-07-05 20:00;CYQF 052000Z 17016G22KT 15SM FEW250 24/13 A3021 RMK CI1 CI TR SLP240 DENSITY ALT 4300FT

CYQF;2018-07-05 21:00;CYQF 052100Z 18014G21KT 15SM FEW250 24/14 A3020 RMK CI1 CI TR SLP233 DENSITY ALT 4400FT

CYQF;2018-07-05 22:00;CYQF 052200Z 16014G20KT 15SM FEW250 25/13 A3018 RMK CI1 CI TR SLP226 DENSITY ALT 4500FT

CYQF;2018-07-05 23:00;CYQF 052300Z 17014G22KT 15SM SKC 25/13 A3017 RMK SLP222 DENSITY ALT 4600FT

CYQF;2018-07-06 00:00;CYQF 060000Z 17012G20KT 15SM SKC 25/14 A3015 RMK SLP215 DENSITY ALT 4600FT

CYQF;2018-07-06 01:00;CYQF 060100Z 16014G20KT 15SM FEW250 24/13 A3013 RMK CI1 CI TR SLP208 DENSITY ALT 4500FT

CYQF;2018-07-06 02:00;CYQF 060200Z 15010KT 15SM SKC 23/14 A3012 RMK SLP202 DENSITY ALT 4400FT

CYQF;2018-07-06 03:00;CYQF 060300Z 14007KT 15SM SKC 21/14 A3011 RMK SLP200 DENSITY ALT 4100FT

CYQF;2018-07-06 04:00;CYQF 060400Z 12007KT 15SM FEW160 18/14 A3011 RMK AC1 SLP198 DENSITY ALT 3800FT

CYQF;2018-07-06 05:00;CYQF 060500Z 16004KT 15SM FEW160 17/13 A3010 RMK AC2 SLP196 DENSITY ALT 3700FT

CYQF;2018-07-06 06:00;CYQF 060600Z 15006KT 15SM FEW160 15/13 A3010 RMK AC2 SLP194 DENSITY ALT 3500FT

CYQF;2018-07-06 07:00;CYQF 060700Z 18005KT 15SM SCT160 16/12 A3007 RMK AC3 SLP184 DENSITY ALT 3600FT

CYQF;2018-07-06 08:00;CYQF 060800Z 00000KT 15SM FEW160 15/12 A3004 RMK AC2 SLP174 DENSITY ALT 3500FT

CYQF;2018-07-06 09:00;CYQF 060900Z 16003KT 15SM FEW160 12/11 A3003 RMK AC2 SLP172 DENSITY ALT 3200FT

CYQF;2018-07-06 10:00;CYQF 061000Z 15006KT 15SM FEW160 13/11 A3000 RMK AC1 AC TR SLP160 DENSITY ALT 3300FT

CYQF;2018-07-06 11:00;CYQF 061100Z 22006KT 160V220 15SM FEW160 12/11 A2999 RMK AC1 SLP155 DENSITY ALT 3300FT

CYQF;2018-07-06 12:00;CYQF 061200Z 17008KT 15SM FEW140 13/11 A2997 RMK AC1 SLP149 DENSITY ALT 3400FT

CYQF;2018-07-06 13:00;CYQF 061300Z 17005KT 15SM FEW140 FEW300 14/13 A2996 RMK AC1CI1 AC TR SLP146 DENSITY ALT 3600FT

CYQF;2018-07-06 14:00;CYQF 061400Z 18003KT 15SM FEW140 FEW300 16/13 A2999 RMK AC1CI1 AC TR CI TR SLP152 DENSITY ALT 3800FT

CYQF;2018-07-06 15:00;CYQF 061500Z 22004KT 190V250 15SM FEW140 19/14 A3000 RMK AC2 SLP157 DENSITY ALT 4000FT

CYQF;2018-07-06 16:00;CYQF 061600Z 34004KT 290V360 15SM FEW150 21/16 A2999 RMK AC2 SLP154 DENSITY ALT 4300FT

CYQF;2018-07-06 17:00;CYQF 061700Z 36011G16KT 15SM FEW040 SCT150 23/14 A2997 RMK CU1AC3 SLP145 DENSITY ALT 4600FT

CYQF;2018-07-06 18:00;CYQF 061800Z 36009G16KT 15SM FEW048 FEW150 26/13 A2996 RMK CU1AC1 SLP141 DENSITY ALT 4900FT

CYQF;2018-07-06 19:00;CYQF 061900Z 35006KT 300V030 15SM FEW052 FEW150 27/13 A2994 RMK CU1AC1 SLP133 DENSITY ALT 5000FT

CYQF;2018-07-06 20:00;CYQF 062000Z 06011KT 15SM FEW060 FEW150 27/13 A2991 RMK CU1AC1 SLP125 DENSITY ALT 5100FT

CYQF;2018-07-06 21:00;CYQF 062100Z 06009KT 15SM FEW060 SCT150 28/13 A2989 RMK CU2AC1 SLP119 DENSITY ALT 5200FT

CYQF;2018-07-06 22:00;CYQF 062200Z 09010KT 15SM FEW060 BKN160 BKN300 29/13 A2987 RMK CU2AC3CI1 SLP109 DENSITY ALT 5300FT

CYQF;2018-07-06 23:00;CYQF 062300Z 07006KT 15SM FEW050 SCT170 BKN250 28/15 A2983 RMK CU1AC3CI3 SLP099 DENSITY ALT 5200FT

CYQF;2018-07-07 00:00;CYQF 070000Z 07004KT 030V100 15SM FEW050CB SCT160 BKN250 28/14 A2981 RMK CB2AC1CI4 SLP093 DENSITY ALT 5200FT

CYQF;2018-07-07 01:00;CYQF 070100Z 35010G17KT 15SM FEW040CB SCT160 BKN250 24/14 A2981 RMK CB1AC3CI3 SLP092 DENSITY ALT 4900FT

CYQF;2018-07-07 02:00;CYQF 070200Z 34013G19KT 15SM FEW040TCU SCT140 BKN250 22/12 A2981 RMK TCU1AC2CI3 SLP094 DENSITY ALT 4600FT

CYQF;2018-07-07 03:03;CYQF 070303Z 34007KT 15SM TS VCSH FEW040CB BKN090 BKN250 20/14 A2982 RMK CB2AC4CI1 OCNL LTGIC W SLP096 DENSITY ALT 4400FT

CYQF;2018-07-07 03:11;CYQF 070311Z 34008KT 15SM -TSRA BKN060CB BKN160 20/14 A2982 RMK CB5AC2 OCNL LTGIC E-W SLP098 DENSITY ALT 4400FT

CYQF;2018-07-07 03:24;CYQF 070324Z 22011G16KT 200V010 6SM TSRA BKN050CB 20/13 A2988 RMK CB7 OCNL LTGIC ALQDS PRESRR SLP116 DENSITY ALT 4300FT

CYQF;2018-07-07 03:32;CYQF 070332Z 28014G21KT 210V300 8SM -TSRA BKN060CB BKN120 19/13 A2988 RMK CB5AC2 OCNL LTGIC ALQDS PRESRR SLP118 DENSITY ALT 4300FT

CYQF;2018-07-07 04:00;CYQF 070400Z VRB09G15KT 12SM -TSRA SCT060CB BKN110 17/13 A2986 RMK CB4AC3 SLP110 DENSITY ALT 4000FT

CYQF;2018-07-07 06:40;CYQF 070640Z 34003KT 15SM BKN120 16/13 A2988 RMK AC5 SLP114 DENSITY ALT 3800FT

CYQF;2018-07-07 07:00;CYQF 070700Z 32004KT 300V010 15SM SCT120 15/12 A2987 RMK AC4 SLP110 DENSITY ALT 3800FT

CYQF;2018-07-07 08:00;CYQF 070800Z 30007KT 15SM BKN120 15/11 A2988 RMK AC6 SLP113 DENSITY ALT 3800FT

CYQF;2018-07-07 09:00;CYQF 070900Z 29008KT 15SM FEW120 BKN180 15/09 A2988 RMK AC2AC3 SLP111 DENSITY ALT 3800FT

CYQF;2018-07-07 10:00;CYQF 071000Z 17008KT 15SM SCT120 12/09 A2988 RMK AC3 SLP114 DENSITY ALT 3400FT

CYQF;2018-07-07 11:00;CYQF 071100Z 23004KT 15SM FEW120 BKN240 12/09 A2989 RMK AC2CI3 SLP118 DENSITY ALT 3300FT

CYQF;2018-07-07 12:00;CYQF 071200Z 21007KT 15SM SCT140 BKN240 12/09 A2988 RMK AC3CI2 SLP114 DENSITY ALT 3400FT

CYQF;2018-07-07 13:00;CYQF 071300Z 23006KT 15SM FEW040 SCT120 BKN250 14/09 A2987 RMK CU1ACC2CI2 SLP114 DENSITY ALT 3600FT

CYQF;2018-07-07 14:00;CYQF 071400Z 22006KT 15SM FEW040 FEW160 15/10 A2986 RMK CU1ACC1 SLP113 DENSITY ALT 3800FT

CYQF;2018-07-07 15:00;CYQF 071500Z 22007KT 15SM FEW040 FEW160 18/12 A2986 RMK CU1ACC1 CU TR SLP111 DENSITY ALT 4100FT

CYQF;2018-07-07 16:00;CYQF 071600Z 28012G17KT 15SM FEW036 FEW160 19/09 A2988 RMK CU1AC1 SLP118 DENSITY ALT 4200FT

CYQF;2018-07-07 17:00;CYQF 071700Z 31014G19KT 15SM SCT052TCU 20/07 A2988 RMK TCU3 CB DIST N SLP120 DENSITY ALT 4400FT

CYQF;2018-07-07 18:00;CYQF 071800Z 35010G15KT 15SM FEW050TCU FEW250 20/10 A2988 RMK TCU1CI1 SLP120 DENSITY ALT 4300FT

CYQF;2018-07-07 19:00;CYQF 071900Z 33006KT 280V030 15SM FEW040 21/09 A2988 RMK CU2 SLP118 DENSITY ALT 4400FT

CYQF;2018-07-07 20:00;CYQF 072000Z 29011G19KT 15SM FEW070 23/07 A2987 RMK CU2 CB TOP DIST N SLP115 DENSITY ALT 4700FT

CYQF;2018-07-07 21:00;CYQF 072100Z 30014G22KT 260V330 15SM SCT089 23/07 A2988 RMK CU3 SLP115 DENSITY ALT 4700FT

CYQF;2018-07-07 22:00;CYQF 072200Z 29010G19KT 270V350 15SM SCT090 24/06 A2988 RMK CU4 SLP120 DENSITY ALT 4800FT

CYQF;2018-07-07 23:00;CYQF 072300Z 31012G18KT 260V330 15SM FEW090 SCT120 SCT250 24/05 A2990 RMK CU1AC2CI1 VIRGA SLP126 DENSITY ALT 4700FT

CYQF;2018-07-08 00:00;CYQF 080000Z 31010G18KT 15SM FEW070 SCT120 SCT250 23/06 A2991 RMK CU2AC1CI1 VIRGA SLP130 DENSITY ALT 4700FT

CYQF;2018-07-08 01:00;CYQF 080100Z 02012G17KT 15SM SCT100 20/09 A2993 RMK AC4 SLP140 DENSITY ALT 4300FT

CYQF;2018-07-08 02:00;CYQF 080200Z 03008KT 15SM SCT100 18/09 A2995 RMK AC3 SLP145 DENSITY ALT 4100FT

CYQF;2018-07-08 03:00;CYQF 080300Z 04004KT 15SM FEW100 SCT250 17/10 A2998 RMK AC2CI1 SLP155 DENSITY ALT 3900FT

CYQF;2018-07-08 04:00;CYQF 080400Z 02006KT 15SM FEW100 14/09 A3000 RMK AC2 SLP165 DENSITY ALT 3500FT

CYQF;2018-07-08 05:00;CYQF 080500Z 01007KT 15SM FEW100 12/08 A3002 RMK AC1 SLP173 DENSITY ALT 3300FT

CYQF;2018-07-08 06:00;CYQF 080600Z 01002KT 15SM FEW100 SCT230 11/08 A3004 RMK AC1CI2 SLP182 DENSITY ALT 3100FT

CYQF;2018-07-08 07:00;CYQF 080700Z 07002KT 15SM FEW100 FEW230 10/08 A3006 RMK AC1CI1 SLP186 DENSITY ALT 3000FT

CYQF;2018-07-08 08:00;CYQF 080800Z 36003KT 15SM FEW100 11/08 A3008 RMK AC2 SLP191 DENSITY ALT 3000FT

CYQF;2018-07-08 09:00;CYQF 080900Z 36005KT 15SM BKN045 10/08 A3010 RMK SC6 SLP197

CYQF;2018-07-08 10:00;CYQF 081000Z 06004KT 15SM SCT045 09/08 A3010 RMK SC4 SLP198

CYQF;2018-07-08 11:00;CYQF 081100Z 00000KT 15SM FEW080 08/07 A3010 RMK AC1 SLP202

CYQF;2018-07-08 12:00;CYQF 081200Z 22003KT 15SM FEW080 08/07 A3011 RMK AC1 SLP205

CYQF;2018-07-08 13:00;CYQF 081300Z VRB02KT 15SM FEW080 FEW250 09/08 A3013 RMK AC1CI1 SLP213

CYQF;2018-07-08 14:00;CYQF 081400Z 19005KT 15SM FEW008 FEW080 11/09 A3013 RMK CF1AC1 SLP214 DENSITY ALT 3000FT

CYQF;2018-07-08 15:00;CYQF 081500Z 17006KT 130V230 15SM FEW008 SCT080 14/11 A3014 RMK SF2AC1 SLP215 DENSITY ALT 3300FT

CYQF;2018-07-08 16:00;CYQF 081600Z 17006KT 130V190 15SM BKN016 15/10 A3013 RMK CU6 SLP214 DENSITY ALT 3400FT

CYQF;2018-07-08 17:00;CYQF 081700Z 16009KT 15SM SCT025 17/11 A3012 RMK CU4 SLP210 DENSITY ALT 3700FT

CYQF;2018-07-08 18:00;CYQF 081800Z 16011G16KT 15SM SCT030 18/11 A3012 RMK CU4 SLP209 DENSITY ALT 3900FT

CYQF;2018-07-08 19:00;CYQF 081900Z 17006KT 150V250 15SM SCT036 19/10 A3011 RMK CU4 SLP206 DENSITY ALT 4000FT

CYQF;2018-07-08 20:00;CYQF 082000Z 21003KT 180V300 15SM SCT048 20/08 A3011 RMK CU4 SLP204 DENSITY ALT 4100FT

CYQF;2018-07-08 21:00;CYQF 082100Z 33003KT 290V060 15SM SCT044 21/05 A3010 RMK CU4 SLP199 DENSITY ALT 4200FT

CYQF;2018-07-08 22:00;CYQF 082200Z 00000KT 15SM SCT060 22/09 A3009 RMK CU3 SLP196 DENSITY ALT 4300FT

CYQF;2018-07-08 23:00;CYQF 082300Z VRB03KT 15SM SCT060 22/08 A3009 RMK CU3 SLP197 DENSITY ALT 4300FT

CYQF;2018-07-09 00:00;CYQF 090000Z 00000KT 15SM FEW060 SCT250 22/10 A3008 RMK CU2CI1 SLP195 DENSITY ALT 4300FT

CYQF;2018-07-09 01:00;CYQF 090100Z 11008KT 15SM FEW060CB SCT090 BKN250 22/10 A3007 RMK CB1AC2CI2 CB SH DIST W SLP191 DENSITY ALT 4300FT

CYQF;2018-07-09 02:00;CYQF 090200Z 13006KT 15SM VCSH FEW060CB SCT090 BKN250 21/11 A3007 RMK CB2AC1CI2 SLP189 DENSITY ALT 4200FT

CYQF;2018-07-09 03:00;CYQF 090300Z 07004KT 15SM TS VCSH BKN065CB BKN090 BKN250 18/12 A3008 RMK CB5AC1CI1 SLP192 DENSITY ALT 3900FT

CYQF;2018-07-09 03:24;CYQF 090324Z 28012G19KT 260V340 12SM -TSRA BKN065CB 18/11 A3010 RMK CB6 OCNL LTGCG LTGCC S & N PRESRR SLP202 DENSITY ALT 3800FT

CYQF;2018-07-09 03:33;CYQF 090333Z 28012G19KT 10SM TSRA BKN068CB 15/12 A3013 RMK CB7 OCNL LTGIC N PRESRR SLP213 DENSITY ALT 3500FT

CYQF;2018-07-09 03:48;CYQF 090348Z 04010KT 15SM TS BKN084CB BKN120 BKN250 14/12 A3010 RMK CB5AC1CI1 OCNL LTGIC NE PRESFR SLP205 DENSITY ALT 3400FT

CYQF;2018-07-09 04:00;CYQF 090400Z 04009KT 15SM TS SCT080CB BKN120 BKN250 14/12 A3010 RMK CB4AC2CI1 CB SH NE SLP204 DENSITY ALT 3400FT

CYQF;2018-07-09 04:10;CYQF 090410Z 05009KT 15SM SCT070CB BKN120 BKN250 14/11 A3010 RMK CB4AC2CI1 CB SH DIST NE SLP203 DENSITY ALT 3400FT

CYQF;2018-07-09 05:00;CYQF 090500Z 08007KT 15SM FEW070CB BKN120 BKN250 13/11 A3010 RMK CB2AC3CI1 OCNL LTGIC SE SLP203 DENSITY ALT 3300FT

CYQF;2018-07-09 06:00;CYQF 090600Z 36003KT 15SM SCT086 BKN180 11/11 A3010 RMK AC4AC3 SLP204 DENSITY ALT 3100FT

CYQF;2018-07-09 06:13;CYQF 090613Z 04007KT 12SM -SHRA OVC080 12/11 A3010 RMK AC8 CVCTV CLD EMBD SLP203 DENSITY ALT 3100FT

CYQF;2018-07-09 06:31;CYQF 090631Z 01004KT 350V070 15SM SCT110 13/11 A3010 RMK AC4 SLP201 DENSITY ALT 3200FT

CYQF;2018-07-09 07:00;CYQF 090700Z 07005KT 15SM FEW110 SCT180 13/10 A3010 RMK AC2AC1 SLP201 DENSITY ALT 3200FT

CYQF;2018-07-09 08:00;CYQF 090800Z 10002KT 15SM FEW110 BKN180 12/10 A3010 RMK AC1AC5 SLP200 DENSITY ALT 3200FT

CYQF;2018-07-09 09:00;CYQF 090900Z 04003KT 020V100 15SM FEW110 SCT180 11/10 A3010 RMK AC1AC2 SLP200 DENSITY ALT 3000FT

CYQF;2018-07-09 10:00;CYQF 091000Z 01007KT 15SM FEW110 BKN210 10/09 A3009 RMK AC1CI4 SLP197

CYQF;2018-07-09 11:00;CYQF 091100Z 01002KT 15SM FEW110 BKN190 10/10 A3009 RMK ACC2AC3 SLP197

CYQF;2018-07-09 12:00;CYQF 091200Z 00000KT 15SM FEW055TCU FEW110 SCT190 10/10 A3010 RMK TCU1ACC1AC3 TCU TR SLP198 DENSITY ALT 3000FT

CYQF;2018-07-09 12:18;CYQF 091218Z 00000KT 10SM BCFG FEW055TCU FEW120 BKN180 10/10 A3010 RMK TCU1ACC2AC3 TCU TR VIS LWR S SLP198

CYQF;2018-07-09 13:00;CYQF 091300Z VRB02KT 15SM SCT140 BKN180 11/11 A3010 RMK ACC4AC3 SLP198 DENSITY ALT 3100FT

CYQF;2018-07-09 14:00;CYQF 091400Z 23002KT 15SM FEW100 BKN140 13/12 A3010 RMK ACC1AC5 SLP198 DENSITY ALT 3200FT

CYQF;2018-07-09 15:00;CYQF 091500Z 22008KT 15SM FEW140 15/12 A3010 RMK AC2 SLP198 DENSITY ALT 3500FT

CYQF;2018-07-09 16:00;CYQF 091600Z 26005KT 240V310 15SM FEW020 FEW140 17/13 A3010 RMK CU1AC1 CU TR SLP200 DENSITY ALT 3700FT

CYQF;2018-07-09 17:00;CYQF 091700Z 28007KT 250V320 15SM FEW020 FEW250 19/14 A3010 RMK CU1CI1 CU TR SLP198 DENSITY ALT 4000FT

CYQF;2018-07-09 18:00;CYQF 091800Z 35005KT 310V070 15SM FEW030 FEW250 22/15 A3009 RMK CU1CI2 CU TR SLP196 DENSITY ALT 4300FT

CYQF;2018-07-09 19:00;CYQF 091900Z 33008KT 15SM FEW048 SCT250 24/11 A3009 RMK CU1CI3 CU TR SLP191 DENSITY ALT 4500FT

CYQF;2018-07-09 20:00;CYQF 092000Z 36006KT 15SM FEW048 BKN250 24/13 A3008 RMK CU1CI5 SLP187 DENSITY ALT 4600FT

CYQF;2018-07-09 21:00;CYQF 092100Z 04006KT 330V070 15SM FEW060 BKN250 25/10 A3007 RMK CU2CI5 SLP186 DENSITY ALT 4600FT

CYQF;2018-07-09 22:00;CYQF 092200Z 00000KT 15SM FEW056 SCT190 BKN250 24/10 A3007 RMK CU1AC2CI2 SLP188 DENSITY ALT 4600FT

CYQF;2018-07-09 23:00;CYQF 092300Z 09005KT 060V130 15SM FEW056 BKN210 25/11 A3006 RMK CU1CI5 SLP183 DENSITY ALT 4700FT

CYQF;2018-07-10 00:00;CYQF 100000Z 10008KT 15SM FEW060 SCT210 25/10 A3004 RMK CU1CI2 SLP176 DENSITY ALT 4700FT

CYQF;2018-07-10 01:00;CYQF 100100Z 08006KT 15SM FEW052 SCT250 25/10 A3004 RMK CU1CI3 SLP174 DENSITY ALT 4700FT

CYQF;2018-07-10 02:00;CYQF 100200Z 09005KT 15SM FEW100 SCT250 24/11 A3003 RMK AC1CI2 SLP172 DENSITY ALT 4600FT

CYQF;2018-07-10 03:00;CYQF 100300Z 07005KT 15SM FEW100 FEW250 21/13 A3003 RMK AC1CI1 SLP171 DENSITY ALT 4300FT

CYQF;2018-07-10 04:00;CYQF 100400Z 08004KT 15SM FEW100 SCT250 18/12 A3002 RMK AC2CI1 SLP170 DENSITY ALT 4000FT

CYQF;2018-07-10 05:00;CYQF 100500Z 03004KT 15SM FEW100 SCT250 16/12 A3003 RMK AC2CI2 SLP172 DENSITY ALT 3700FT

CYQF;2018-07-10 06:00;CYQF 100600Z 00000KT 15SM SCT250 17/11 A3002 RMK CI3 SLP167 DENSITY ALT 3800FT

CYQF;2018-07-10 07:00;CYQF 100700Z 00000KT 15SM FEW250 16/11 A3002 RMK CI2 SLP165 DENSITY ALT 3700FT

CYQF;2018-07-10 08:00;CYQF 100800Z 24004KT 15SM FEW250 13/11 A3002 RMK CI2 SLP168 DENSITY ALT 3400FT

CYQF;2018-07-10 09:00;CYQF 100900Z 00000KT 15SM FEW250 11/09 A3002 RMK CI2 SLP168 DENSITY ALT 3100FT

CYQF;2018-07-10 10:00;CYQF 101000Z 19002KT 15SM FEW250 11/10 A3002 RMK CI2 SLP168 DENSITY ALT 3100FT

CYQF;2018-07-10 11:00;CYQF 101100Z 14002KT 15SM FEW140 SCT250 10/09 A3000 RMK AC1CI2 SLP160 DENSITY ALT 3100FT

CYQF;2018-07-10 12:00;CYQF 101200Z 00000KT 15SM FEW140 BKN250 10/09 A2997 RMK AC1CI4 SLP153 DENSITY ALT 3000FT

CYQF;2018-07-10 13:00;CYQF 101300Z 19004KT 15SM FEW140 BKN210 15/11 A2997 RMK ACC2CI5 SLP148 DENSITY ALT 3600FT

CYQF;2018-07-10 14:00;CYQF 101400Z VRB02KT 15SM FEW140 BKN200 16/11 A2996 RMK ACC2CI5 SLP144 DENSITY ALT 3800FT

CYQF;2018-07-10 15:00;CYQF 101500Z 13005KT 15SM SCT120 BKN200 18/14 A2996 RMK ACC3CI4 VIRGA SLP144 DENSITY ALT 4000FT

CYQF;2018-07-10 16:00;CYQF 101600Z 17008KT 160V220 15SM SCT120 OVC220 19/11 A2996 RMK ACC4CI4 VIRGA SLP147 DENSITY ALT 4100FT

CYQF;2018-07-10 16:48;CYQF 101648Z 19009G15KT 160V290 15SM -SHRA SCT080 OVC120 20/10 A2996 RMK ACC4AC4 WSHFT 1623 SLP146 DENSITY ALT 4300FT

CYQF;2018-07-10 17:00;CYQF 101700Z 15013G21KT 130V260 15SM -SHRA SCT080 OVC120 19/11 A2998 RMK ACC4AC4 SLP153 DENSITY ALT 4100FT

CYQF;2018-07-10 18:00;CYQF 101800Z 23007KT 10SM -SHRA BKN080 OVC120 17/13 A2999 RMK ACC5AC3 SLP158 DENSITY ALT 3900FT

CYQF;2018-07-10 19:00;CYQF 101900Z 23007KT 6SM -SHRA BR BKN075 OVC120 16/12 A2999 RMK ACC5AC3 SLP162 DENSITY ALT 3700FT

CYQF;2018-07-10 20:00;CYQF 102000Z 14009KT 10SM -SHRA OVC090 15/13 A2997 RMK ACC8 SLP158 DENSITY ALT 3700FT

CYQF;2018-07-10 21:00;CYQF 102100Z 19003KT 130V230 10SM -SHRA OVC090 15/13 A3000 RMK ACC8 SLP174 DENSITY ALT 3600FT

CYQF;2018-07-10 22:00;CYQF 102200Z VRB05KT 15SM FEW010TCU BKN090 BKN120 BKN250 15/13 A2994 RMK TCU1ACC5AC1CI1 TCU TR OCNL -SHRA SLP150 DENSITY ALT 3700FT

CYQF;2018-07-10 22:19;CYQF 102219Z 00000KT 12SM FEW010 SCT090 BKN130 16/13 A2994 RMK SC1ACC2ACC4 SLP150 DENSITY ALT 3700FT

CYQF;2018-07-10 23:00;CYQF 102300Z 35004KT 340V040 12SM VCSH FEW015TCU BKN130 17/14 A2994 RMK TCU2AS5 SLP151 DENSITY ALT 3900FT

CYQF;2018-07-11 00:00;CYQF 110000Z VRB02KT 15SM FEW020 BKN080 BKN140 17/13 A2994 RMK CU1AC4AC2 SLP152 DENSITY ALT 3900FT

CYQF;2018-07-11 00:42;CYQF 110042Z 03003KT 12SM -SHRA FEW014 BKN085 OVC140 17/14 A2996 RMK CU1AC5AC2 SLP158 DENSITY ALT 3800FT

CYQF;2018-07-11 01:00;CYQF 110100Z 35003KT 12SM -SHRA FEW020TCU OVC090 16/14 A2997 RMK TCU2ACC6 SLP157 DENSITY ALT 3800FT

CYQF;2018-07-11 02:00;CYQF 110200Z VRB02KT 15SM -SHRA SCT020TCU OVC080 16/14 A2998 RMK TCU4AC4 SLP158 DENSITY ALT 3700FT

CYQF;2018-07-11 02:37;CYQF 110237Z VRB02KT 12SM -TSRA BKN040CB OVC140 16/14 A2997 RMK CB6AC2 SLP156 DENSITY ALT 3700FT

CYQF;2018-07-11 03:00;CYQF 110300Z 25006KT 10SM -TSRA BKN036CB OVC120 14/12 A3000 RMK CB6AC2 SLP166 DENSITY ALT 3500FT

CYQF;2018-07-11 04:00;CYQF 110400Z 25003KT 15SM -TSRA FEW040CB BKN080 BKN140 13/12 A3000 RMK CB2AC4AC1 SLP163 DENSITY ALT 3400FT

CYQF;2018-07-11 04:09;CYQF 110409Z 26003KT 210V280 15SM -SHRA FEW040TCU BKN080 BKN140 13/12 A3000 RMK TCU2AC4AC1 SLP163 DENSITY ALT 3400FT

CYQF;2018-07-11 04:40;CYQF 110440Z 27006KT 15SM FEW040TCU BKN060 BKN150 13/12 A2999 RMK TCU2SC4AC1 SLP160 DENSITY ALT 3400FT

CYQF;2018-07-11 05:00;CYQF 110500Z 26007KT 15SM FEW040TCU BKN057 BKN200 13/12 A2997 RMK TCU2SC3CI2 SLP156 DENSITY ALT 3400FT

CYQF;2018-07-11 06:00;CYQF 110600Z 28008KT 15SM SCT060 BKN180 13/11 A2997 RMK SC3AC4 SLP158 DENSITY ALT 3400FT

CYQF;2018-07-11 07:00;CYQF 110700Z 30011KT 15SM FEW100 BKN200 13/12 A2997 RMK AC1CI6 SLP158 DENSITY ALT 3400FT

CYQF;2018-07-11 08:00;CYQF 110800Z 29011G18KT 15SM FEW097 BKN200 13/11 A2997 RMK AC2CI4 SLP160 DENSITY ALT 3400FT

CYQF;2018-07-11 09:00;CYQF 110900Z 28010KT 15SM BKN100 13/11 A2998 RMK AC6 SLP164 DENSITY ALT 3400FT

CYQF;2018-07-11 10:00;CYQF 111000Z 29010KT 15SM FEW065 BKN100 14/11 A3000 RMK SC1AC6 SLP167 DENSITY ALT 3500FT

CYQF;2018-07-11 11:00;CYQF 111100Z 30011KT 15SM FEW065 BKN110 14/11 A3001 RMK SC1AC5 SLP170 DENSITY ALT 3500FT

CYQF;2018-07-11 12:00;CYQF 111200Z 29007KT 15SM FEW065 BKN110 13/10 A3002 RMK SC1AC4 SLP175 DENSITY ALT 3300FT

CYQF;2018-07-11 13:00;CYQF 111300Z 30007KT 15SM FEW080 SCT250 14/10 A3002 RMK AC2CI1 SLP176 DENSITY ALT 3500FT

CYQF;2018-07-11 14:00;CYQF 111400Z 30009KT 15SM FEW100 FEW250 16/10 A3003 RMK AC1CI1 SLP177 DENSITY ALT 3700FT

CYQF;2018-07-11 15:00;CYQF 111500Z 30013KT 15SM FEW080 18/10 A3004 RMK AC2 SLP178 DENSITY ALT 3900FT

CYQF;2018-07-11 16:00;CYQF 111600Z 32012G22KT 15SM FEW050 20/09 A3004 RMK CU1 CU TR SLP178 DENSITY ALT 4100FT

CYQF;2018-07-11 17:00;CYQF 111700Z 32012G18KT 15SM FEW050 21/09 A3004 RMK CU1 CU TR SLP176 DENSITY ALT 4200FT

CYQF;2018-07-11 18:00;CYQF 111800Z 32011G19KT 15SM FEW050 22/09 A3003 RMK CU1 CU TR SLP174 DENSITY ALT 4300FT

CYQF;2018-07-11 19:00;CYQF 111900Z 29011G18KT 270V330 15SM FEW050 23/09 A3003 RMK CU1 CU TR SLP171 DENSITY ALT 4400FT

CYQF;2018-07-11 20:00;CYQF 112000Z 31011G16KT 15SM FEW055 23/09 A3002 RMK CU1 CU TR SLP168 DENSITY ALT 4500FT

CYQF;2018-07-11 21:00;CYQF 112100Z 31011KT 15SM FEW060 24/10 A3002 RMK CU1 CU TR SLP166 DENSITY ALT 4600FT

CYQF;2018-07-11 22:00;CYQF 112200Z 33008KT 300V010 15SM FEW060 24/10 A3001 RMK CU1 SLP164 DENSITY ALT 4700FT

CYQF;2018-07-11 23:00;CYQF 112300Z 33007KT 15SM FEW060 24/08 A3001 RMK CU2 SLP162 DENSITY ALT 4600FT

CYQF;2018-07-12 00:00;CYQF 120000Z 34007KT 15SM SCT052 24/09 A3000 RMK CU3 SLP161 DENSITY ALT 4600FT

CYQF;2018-07-12 01:00;CYQF 120100Z 00000KT 15SM FEW065 24/10 A3000 RMK CU1 SLP157 DENSITY ALT 4600FT

CYQF;2018-07-12 02:00;CYQF 120200Z 03006KT 15SM FEW044 FEW300 23/11 A3000 RMK CU1CI1 CU TR SLP158 DENSITY ALT 4500FT

CYQF;2018-07-12 03:00;CYQF 120300Z 01003KT 15SM FEW050 FEW250 20/11 A3000 RMK CU1CI1 CU TR SLP159 DENSITY ALT 4200FT

CYQF;2018-07-12 04:00;CYQF 120400Z 17002KT 15SM FEW020 FEW210 16/11 A3002 RMK SC1CI1 SC TR SLP169 DENSITY ALT 3700FT

CYQF;2018-07-12 05:00;CYQF 120500Z 16003KT 15SM FEW020 FEW210 15/11 A3003 RMK SC1CI1 SC TR CI TR SLP173 DENSITY ALT 3500FT

CYQF;2018-07-12 06:00;CYQF 120600Z 20004KT 15SM FEW240 13/11 A3004 RMK CI1 SLP176 DENSITY ALT 3400FT

CYQF;2018-07-12 07:00;CYQF 120700Z 20003KT 15SM SCT100 12/10 A3005 RMK AC3 SLP179 DENSITY ALT 3200FT

CYQF;2018-07-12 08:00;CYQF 120800Z 00000KT 15SM FEW110 12/11 A3005 RMK AC2 SLP181 DENSITY ALT 3200FT

CYQF;2018-07-12 09:00;CYQF 120900Z 00000KT 15SM SCT120 11/10 A3005 RMK AC3 SLP181 DENSITY ALT 3100FT

CYQF;2018-07-12 10:00;CYQF 121000Z VRB02KT 15SM BKN120 12/11 A3006 RMK AC5 SLP183 DENSITY ALT 3100FT

CYQF;2018-07-12 11:00;CYQF 121100Z 24004KT 15SM FEW030 SCT100 10/09 A3007 RMK SC1AC3 SC TR SLP187 DENSITY ALT 3000FT

CYQF;2018-07-12 12:00;CYQF 121200Z 28005KT 15SM FEW090 11/10 A3008 RMK AC2 SLP190 DENSITY ALT 3000FT

CYQF;2018-07-12 13:00;CYQF 121300Z 30002KT 15SM FEW110 12/11 A3008 RMK AC2 SLP189 DENSITY ALT 3200FT

CYQF;2018-07-12 14:00;CYQF 121400Z 00000KT 15SM FEW110 16/10 A3008 RMK AC1 SLP187 DENSITY ALT 3600FT

CYQF;2018-07-12 15:00;CYQF 121500Z 01004KT 320V030 15SM SCT100 18/11 A3009 RMK AC3 SLP190 DENSITY ALT 3900FT

CYQF;2018-07-12 16:00;CYQF 121600Z 05009KT 15SM FEW100 FEW250 20/10 A3009 RMK AC2CI1 CI TR SLP191 DENSITY ALT 4100FT

CYQF;2018-07-12 17:00;CYQF 121700Z 09003KT 360V120 15SM FEW100 FEW250 21/11 A3008 RMK AC1CI1 SLP190 DENSITY ALT 4200FT

CYQF;2018-07-12 18:00;CYQF 121800Z 11005KT 360V140 15SM FEW050 FEW120 BKN250 22/11 A3008 RMK CU1AC1CI4 CU TR SLP190 DENSITY ALT 4300FT

CYQF;2018-07-12 19:00;CYQF 121900Z 08005KT 15SM FEW050 BKN250 22/10 A3007 RMK CU1CI5 SLP188 DENSITY ALT 4300FT

CYQF;2018-07-12 20:00;CYQF 122000Z 03006KT 330V140 15SM SCT043 BKN220 23/11 A3006 RMK CU3CI3 SLP184 DENSITY ALT 4500FT

CYQF;2018-07-12 21:00;CYQF 122100Z 09003KT 030V190 15SM SCT050 BKN250 24/12 A3005 RMK CU3CI3 SLP181 DENSITY ALT 4500FT

CYQF;2018-07-12 22:00;CYQF 122200Z 21005KT 180V240 15SM FEW050 SCT250 24/12 A3004 RMK CU2CI1 SLP176 DENSITY ALT 4600FT

CYQF;2018-07-12 23:00;CYQF 122300Z VRB04KT 15SM FEW048 SCT250 25/12 A3003 RMK CU1CI2 SLP173 DENSITY ALT 4700FT

CYQF;2018-07-13 00:00;CYQF 130000Z 12004KT 110V220 15SM FEW060 SCT300 25/10 A3002 RMK SC2CI1 SLP169 DENSITY ALT 4700FT

CYQF;2018-07-13 01:00;CYQF 130100Z 03004KT 340V050 15SM FEW060 SCT250 24/10 A3001 RMK CU1CI2 SLP164 DENSITY ALT 4700FT

CYQF;2018-07-13 02:00;CYQF 130200Z 13005KT 15SM FEW050 SCT250 24/12 A3000 RMK SC1CI2 SLP159 DENSITY ALT 4600FT

CYQF;2018-07-13 03:00;CYQF 130300Z 10004KT 15SM FEW040 SCT250 22/12 A3000 RMK SC1CI2 SLP158 DENSITY ALT 4400FT

CYQF;2018-07-13 04:00;CYQF 130400Z 10005KT 15SM FEW045 SCT250 19/13 A3001 RMK SC2CI1 SLP163 DENSITY ALT 4100FT

CYQF;2018-07-13 05:00;CYQF 130500Z VRB02KT 15SM FEW040 FEW120 17/13 A3002 RMK SC1AC1 SLP166 DENSITY ALT 3900FT

CYQF;2018-07-13 06:00;CYQF 130600Z 18004KT 15SM FEW120 16/13 A3002 RMK AC1 SLP167 DENSITY ALT 3700FT

CYQF;2018-07-13 07:00;CYQF 130700Z 17005KT 15SM FEW120 15/12 A3000 RMK AC1 SLP162 DENSITY ALT 3600FT

CYQF;2018-07-13 08:00;CYQF 130800Z 20006KT 15SM FEW120 15/12 A3000 RMK AC1 SLP161 DENSITY ALT 3600FT

CYQF;2018-07-13 09:00;CYQF 130900Z 00000KT 15SM FEW250 12/11 A3000 RMK CI2 SLP159 DENSITY ALT 3300FT

CYQF;2018-07-13 10:00;CYQF 131000Z 24002KT 15SM FEW120 12/12 A2999 RMK AC1 SLP157 DENSITY ALT 3300FT

CYQF;2018-07-13 11:00;CYQF 131100Z 28004KT 250V320 12SM MIFG FEW120 10/10 A2999 RMK AC2 SLP158 DENSITY ALT 3100FT

CYQF;2018-07-13 12:00;CYQF 131200Z 20004KT 15SM SCT140 12/11 A2998 RMK AC3 SLP154 DENSITY ALT 3300FT

CYQF;2018-07-13 13:00;CYQF 131300Z VRB02KT 15SM FEW140 13/12 A3000 RMK AC2 SLP158 DENSITY ALT 3400FT

CYQF;2018-07-13 14:00;CYQF 131400Z 30004KT 270V330 15SM SCT140 16/13 A2999 RMK AC3 SLP155 DENSITY ALT 3700FT

CYQF;2018-07-13 15:00;CYQF 131500Z 34005KT 15SM FEW130 18/14 A3000 RMK AC2 SLP155 DENSITY ALT 4000FT

CYQF;2018-07-13 16:00;CYQF 131600Z 35004KT 290V040 15SM FEW140 19/14 A2998 RMK AC2 SLP153 DENSITY ALT 4100FT

CYQF;2018-07-13 17:00;CYQF 131700Z 01003KT 300V050 15SM FEW140 20/15 A2997 RMK AC1 SLP150 DENSITY ALT 4300FT

CYQF;2018-07-13 18:00;CYQF 131800Z 35005KT 300V030 15SM FEW050 FEW250 22/14 A2996 RMK CU1CI1 CU TR SLP144 DENSITY ALT 4500FT

CYQF;2018-07-13 19:00;CYQF 131900Z 36006KT 310V060 12SM FEW050 FEW250 23/16 A2994 RMK CU1CI1 CU TR CI TR SLP137 DENSITY ALT 4600FT

CYQF;2018-07-13 20:00;CYQF 132000Z 01006KT 340V050 15SM FEW040 FEW250 25/15 A2992 RMK CU1CI1 CU TR SLP130 DENSITY ALT 4800FT

CYQF;2018-07-13 21:00;CYQF 132100Z 02003KT 270V070 12SM FEW040CB SCT260 25/16 A2991 RMK CB1CI2 SLP127 DENSITY ALT 4900FT

CYQF;2018-07-13 22:00;CYQF 132200Z 06006KT 330V120 12SM FEW040CB SCT250 25/15 A2988 RMK CB1CI2 SLP119 DENSITY ALT 4900FT

CYQF;2018-07-13 23:00;CYQF 132300Z 04005KT 300V100 12SM FEW040CB SCT260 26/15 A2986 RMK CB2CI1 SLP113 DENSITY ALT 5000FT

CYQF;2018-07-14 00:00;CYQF 140000Z 33008KT 12SM FEW030 SCT040CB BKN120 26/15 A2985 RMK CF1CB3AC1 SLP108 DENSITY ALT 5000FT

CYQF;2018-07-14 00:16;CYQF 140016Z 33023G41KT 12SM VCSH FEW025 BKN050CB BKN260 23/13 A2988 RMK SC2CB4CI1 CB SH N QUAD MOVG E PRESRR SLP122 DENSITY ALT 4600FT

CYQF;2018-07-14 01:03;CYQF 140103Z 35021G31KT 12SM VCSH FEW020 BKN042CB BKN120 17/12 A2989 RMK CF1CB4AC2 SLP130 DENSITY ALT 3900FT

CYQF;2018-07-14 01:19;CYQF 140119Z 35021G32KT 12SM -TSRA FEW020 BKN042CB BKN120 17/11 A2991 RMK CF1CB5AC1 SLP135 DENSITY ALT 3900FT

CYQF;2018-07-14 02:05;CYQF 140205Z 33013G21KT 12SM -SHRA FEW014 BKN042CB BKN110 15/13 A2997 RMK CF1CB5AC1 PRESRR SLP158 DENSITY ALT 3600FT

CYQF;2018-07-14 02:44;CYQF 140244Z 34012G18KT 12SM FEW016 BKN054TCU 14/12 A2999 RMK CF1TCU6 SLP163 DENSITY ALT 3500FT

CYQF;2018-07-14 03:00;CYQF 140300Z 34012G19KT 12SM FEW020 BKN055TCU 14/11 A3000 RMK CF1TCU6 SLP165 DENSITY ALT 3500FT

CYQF;2018-07-14 04:00;CYQF 140400Z 34017G26KT 15SM BKN015 OVC062TCU 13/10 A3003 RMK SC5TCU3 SH DIST NW SLP176 DENSITY ALT 3300FT

CYQF;2018-07-14 05:00;CYQF 140500Z 34014G20KT 12SM SCT015 BKN065CB 12/10 A3004 RMK SC3CB4 OCNL LTGIC NW SLP178 DENSITY ALT 3200FT

CYQF;2018-07-14 05:50;CYQF 140550Z 33010G18KT 12SM BKN017 12/10 A3005 RMK SC7 SLP183 DENSITY ALT 3200FT

CYQF;2018-07-14 06:00;CYQF 140600Z 33012G18KT 12SM BKN020 11/10 A3005 RMK SC7 SLP180 DENSITY ALT 3100FT

CYQF;2018-07-14 06:25;CYQF 140625Z 34020G25KT 12SM VCSH SCT020 BKN060TCU 11/09 A3002 RMK SC3TCU3 WSHFT 0612 PRESFR SLP171 DENSITY ALT 3100FT

CYQF;2018-07-14 06:42;CYQF 140642Z 29010G20KT 12SM -SHRA SCT015 BKN050TCU 11/10 A3010 RMK SC3TCU4 PRESRR SLP198 DENSITY ALT 3000FT

CYQF;2018-07-14 07:00;CYQF 140700Z 29011G17KT 12SM -SHRA FEW015 BKN060TCU 11/10 A3010 RMK SC2TCU5 SLP196 DENSITY ALT 3000FT

CYQF;2018-07-14 08:00;CYQF 140800Z 32011KT 12SM -SHRA BKN060CB OVC090 10/09 A3009 RMK CB5AC3 SLP193

CYQF;2018-07-14 09:00;CYQF 140900Z 28012G17KT 8SM -SHRA OVC060CB 10/09 A3012 RMK CB8 SLP204

CYQF;2018-07-14 10:00;CYQF 141000Z 28012G18KT 12SM -SHRA FEW020 BKN060TCU 10/09 A3014 RMK SC2TCU5 SLP211

CYQF;2018-07-14 11:00;CYQF 141100Z 30010G16KT 12SM -RA FEW020 OVC080 09/08 A3015 RMK SC2AC6 SLP214

CYQF;2018-07-14 12:00;CYQF 141200Z 30014KT 15SM FEW020 BKN050 BKN100 09/07 A3017 RMK SC2SC3AC2 INTMT -RA SLP221

CYQF;2018-07-14 12:18;CYQF 141218Z 30011G18KT 15SM SCT025 BKN050 BKN100 09/07 A3018 RMK SC3SC3AC1 SLP225

CYQF;2018-07-14 13:00;CYQF 141300Z 29013G19KT 15SM FEW020 FEW055 SCT100 09/07 A3019 RMK CF1SC1AC2 SLP237

CYQF;2018-07-14 14:00;CYQF 141400Z 29011G16KT 15SM SCT016 BKN100 10/07 A3020 RMK SC4AC1 SLP245

CYQF;2018-07-14 15:00;CYQF 141500Z 30011G17KT 15SM FEW020 12/07 A3021 RMK CU1 SLP245 DENSITY ALT 3000FT

CYQF;2018-07-14 16:00;CYQF 141600Z 27012G17KT 15SM SCT020 12/07 A3021 RMK CU3 SLP246 DENSITY ALT 3100FT

CYQF;2018-07-14 17:00;CYQF 141700Z 31016G26KT 15SM BKN028 13/06 A3021 RMK CU5 SLP247 DENSITY ALT 3200FT

CYQF;2018-07-14 18:00;CYQF 141800Z 30018G26KT 15SM BKN050 14/06 A3021 RMK SC6 SLP246 DENSITY ALT 3200FT

CYQF;2018-07-14 19:00;CYQF 141900Z 32014G23KT 15SM BKN050 16/07 A3021 RMK SC5 CU SLP243 DENSITY ALT 3500FT

CYQF;2018-07-14 20:00;CYQF 142000Z 30014G22KT 270V350 15SM SCT032 17/07 A3021 RMK CU4 SLP246 DENSITY ALT 3600FT

CYQF;2018-07-14 21:00;CYQF 142100Z 32009G16KT 15SM BKN042 17/08 A3021 RMK CU5 SLP243 DENSITY ALT 3700FT

CYQF;2018-07-14 22:00;CYQF 142200Z 30011G19KT 270V350 15SM SCT042 18/07 A3020 RMK CU4 SLP238 DENSITY ALT 3700FT

CYQF;2018-07-14 23:00;CYQF 142300Z 34011G17KT 300V010 15SM SCT052 19/07 A3020 RMK CU3 SLP237 DENSITY ALT 3900FT

CYQF;2018-07-15 00:00;CYQF 150000Z 35008G15KT 300V010 15SM FEW048 SCT300 19/07 A3019 RMK CU2CI2 SLP234 DENSITY ALT 3900FT

CYQF;2018-07-15 01:00;CYQF 150100Z 35014G20KT 15SM FEW052 SCT300 19/06 A3016 RMK CU1CI2 SLP227 DENSITY ALT 3900FT

CYQF;2018-07-15 02:00;CYQF 150200Z 34006KT 15SM FEW052 FEW100 SCT300 18/06 A3018 RMK CU1AC1CI2 CU TR SLP233 DENSITY ALT 3800FT

CYQF;2018-07-15 03:00;CYQF 150300Z VRB02KT 15SM FEW040 FEW100 FEW300 17/06 A3019 RMK CU1AC1CI2 CU TR AC TR SLP234 DENSITY ALT 3600FT

CYQF;2018-07-15 04:00;CYQF 150400Z 20003KT 15SM FEW100 FEW300 13/06 A3020 RMK AC1CI2 AC TR SLP240 DENSITY ALT 3200FT

CYQF;2018-07-15 05:00;CYQF 150500Z 20002KT 15SM FEW100 10/06 A3020 RMK AC1 AC TR SLP244

CYQF;2018-07-15 06:00;CYQF 150600Z 21004KT 15SM SKC 09/07 A3020 RMK SLP245

CYQF;2018-07-15 07:00;CYQF 150700Z 20005KT 15SM SCT070 10/08 A3020 RMK AC3 SLP241

CYQF;2018-07-15 08:00;CYQF 150800Z 19003KT 15SM SCT080 10/08 A3019 RMK AC3 SLP236

CYQF;2018-07-15 09:00;CYQF 150900Z 07002KT 15SM FEW080 08/07 A3018 RMK AC2 SLP236

CYQF;2018-07-15 10:00;CYQF 151000Z 21002KT 15SM FEW080 08/06 A3017 RMK AC1 AC TR SLP233

CYQF;2018-07-15 11:00;CYQF 151100Z 19003KT 15SM FEW070 FEW260 07/07 A3016 RMK AC1CI1 AC TR CI TR SLP228

CYQF;2018-07-15 12:00;CYQF 151200Z 18002KT 15SM FEW250 07/06 A3016 RMK CI2 SLP226

CYQF;2018-07-15 13:00;CYQF 151300Z 00000KT 15SM BKN250 08/07 A3015 RMK CI6 SLP224

CYQF;2018-07-15 14:00;CYQF 151400Z 22005KT 170V250 15SM BKN250 11/08 A3015 RMK CI6 SLP221 DENSITY ALT 3000FT

CYQF;2018-07-15 15:00;CYQF 151500Z 21005KT 15SM BKN250 13/09 A3014 RMK CI6 SLP217 DENSITY ALT 3200FT

CYQF;2018-07-15 16:00;CYQF 151600Z 25006KT 230V290 15SM BKN250 16/10 A3013 RMK CI6 SLP215 DENSITY ALT 3600FT

CYQF;2018-07-15 17:00;CYQF 151700Z 27003KT 190V300 15SM SCT250 18/11 A3013 RMK CI4 SLP216 DENSITY ALT 3800FT

CYQF;2018-07-15 18:00;CYQF 151800Z VRB02KT 15SM FEW250 21/10 A3012 RMK CI2 SLP210 DENSITY ALT 4100FT

CYQF;2018-07-15 19:00;CYQF 151900Z 25006KT 220V310 15SM FEW060 FEW250 23/07 A3011 RMK CU1CI1 CU TR SLP202 DENSITY ALT 4400FT

CYQF;2018-07-15 20:00;CYQF 152000Z 29007KT 15SM FEW075 FEW120 SCT250 24/04 A3010 RMK CU1AC1CI2 CU TR SLP199 DENSITY ALT 4500FT

CYQF;2018-07-15 21:00;CYQF 152100Z 31009KT 220V350 15SM FEW075 FEW150 SCT250 24/05 A3010 RMK CU1AC1CI2 CU TR SLP198 DENSITY ALT 4600FT

CYQF;2018-07-15 22:00;CYQF 152200Z 33008KT 300V020 15SM FEW250 25/04 A3009 RMK CI1 SLP195 DENSITY ALT 4600FT

CYQF;2018-07-15 23:00;CYQF 152300Z 01004KT 320V040 15SM FEW250 24/05 A3007 RMK CI1 SLP190 DENSITY ALT 4600FT

CYQF;2018-07-16 00:00;CYQF 160000Z VRB02KT 15SM FEW250 24/02 A3005 RMK CI1 SLP185 DENSITY ALT 4600FT

CYQF;2018-07-16 01:00;CYQF 160100Z 06004KT 030V120 15SM FEW250 24/07 A3005 RMK CI2 SLP183 DENSITY ALT 4600FT

CYQF;2018-07-16 02:00;CYQF 160200Z 09005KT 15SM FEW250 22/09 A3005 RMK CI2 SLP182 DENSITY ALT 4400FT

CYQF;2018-07-16 03:00;CYQF 160300Z 10005KT 15SM FEW150 SCT250 19/09 A3006 RMK AC1CI3 SLP185 DENSITY ALT 4000FT

CYQF;2018-07-16 04:00;CYQF 160400Z 12005KT 15SM FEW170 BKN250 16/09 A3006 RMK AC2CI3 SLP187 DENSITY ALT 3700FT

CYQF;2018-07-16 05:00;CYQF 160500Z 17004KT 15SM SCT160 BKN250 16/09 A3008 RMK AC4CI2 SLP190 DENSITY ALT 3600FT

CYQF;2018-07-16 06:00;CYQF 160600Z 00000KT 15SM BKN160 14/09 A3007 RMK AC6 SLP188 DENSITY ALT 3400FT

CYQF;2018-07-16 07:00;CYQF 160700Z 15008KT 15SM BKN160 15/08 A3007 RMK AC6 SLP183 DENSITY ALT 3600FT

CYQF;2018-07-16 08:00;CYQF 160800Z 17008KT 15SM BKN150 15/09 A3007 RMK AC7 SLP182 DENSITY ALT 3500FT

CYQF;2018-07-16 09:00;CYQF 160900Z 17007KT 15SM BKN150 14/08 A3007 RMK AC7 SLP183 DENSITY ALT 3400FT

CYQF;2018-07-16 10:00;CYQF 161000Z 21005KT 15SM BKN150 12/08 A3007 RMK AC5 SLP183 DENSITY ALT 3200FT

CYQF;2018-07-16 11:00;CYQF 161100Z 19005KT 15SM FEW150 11/08 A3006 RMK AC1 SLP183 DENSITY ALT 3000FT

CYQF;2018-07-16 12:00;CYQF 161200Z 19003KT 15SM FEW150 10/08 A3006 RMK AC1 SLP185 DENSITY ALT 3000FT

CYQF;2018-07-16 13:00;CYQF 161300Z 19003KT 15SM FEW250 12/09 A3006 RMK CI1 SLP182 DENSITY ALT 3200FT

CYQF;2018-07-16 14:00;CYQF 161400Z 18005KT 15SM FEW250 15/09 A3006 RMK CI1 SLP181 DENSITY ALT 3500FT

CYQF;2018-07-16 15:00;CYQF 161500Z 20008KT 15SM FEW250 18/09 A3006 RMK CI1 SLP180 DENSITY ALT 3900FT

CYQF;2018-07-16 16:00;CYQF 161600Z 20005KT 15SM SCT250 19/11 A3006 RMK CI3 SLP181 DENSITY ALT 4000FT

CYQF;2018-07-16 17:00;CYQF 161700Z 19006KT 150V240 15SM SCT250 22/11 A3005 RMK CI4 SLP177 DENSITY ALT 4300FT

CYQF;2018-07-16 18:00;CYQF 161800Z 17005KT 150V250 15SM SCT250 24/12 A3004 RMK CI3 SLP172 DENSITY ALT 4600FT

CYQF;2018-07-16 19:00;CYQF 161900Z 18004KT 120V260 15SM BKN250 26/06 A3003 RMK CI6 SLP166 DENSITY ALT 4800FT

CYQF;2018-07-16 20:00;CYQF 162000Z 18004KT 150V220 15SM FEW080 BKN300 27/04 A3002 RMK CU1CI5 CU TR SLP162 DENSITY ALT 5000FT

CYQF;2018-07-16 21:00;CYQF 162100Z 18003KT 120V220 15SM FEW080 SCT300 28/07 A3001 RMK CU1CI4 CU TR SLP159 DENSITY ALT 5000FT

CYQF;2018-07-16 22:00;CYQF 162200Z 19004KT 120V230 15SM FEW250 29/06 A3000 RMK CI1 SLP154 DENSITY ALT 5200FT

CYQF;2018-07-16 23:00;CYQF 162300Z 12007KT 100V180 15SM FEW080 FEW300 29/09 A2999 RMK CU1CI2 CU TR SLP152 DENSITY ALT 5200FT

CYQF;2018-07-17 00:00;CYQF 170000Z 14008KT 15SM FEW080 FEW300 29/08 A2997 RMK CU1CI1 CU TR SLP148 DENSITY ALT 5200FT

CYQF;2018-07-17 01:00;CYQF 170100Z 14007KT 15SM FEW300 28/11 A2997 RMK CI1 SLP146 DENSITY ALT 5100FT

CYQF;2018-07-17 02:00;CYQF 170200Z CCA 13006KT 15SM FEW300 26/13 A2997 RMK CI1 CI TR SLP144 DENSITY ALT 4900FT

CYQF;2018-07-17 03:00;CYQF 170300Z 12005KT 15SM SKC 24/13 A2997 RMK SLP144 DENSITY ALT 4600FT

CYQF;2018-07-17 04:00;CYQF 170400Z 17004KT 15SM SKC 21/12 A2998 RMK SLP149 DENSITY ALT 4300FT

CYQF;2018-07-17 05:00;CYQF 170500Z 15002KT 15SM SKC 18/12 A2999 RMK SLP152 DENSITY ALT 4000FT

CYQF;2018-07-17 06:00;CYQF 170600Z 16002KT 15SM SKC 18/12 A2999 RMK SLP151 DENSITY ALT 3900FT

CYQF;2018-07-17 07:00;CYQF 170700Z 19006KT 15SM SKC 15/10 A2999 RMK SLP152 DENSITY ALT 3600FT

CYQF;2018-07-17 08:00;CYQF 170800Z 20002KT 15SM SKC 13/10 A2999 RMK SLP153 DENSITY ALT 3400FT

CYQF;2018-07-17 09:00;CYQF 170900Z 16002KT 15SM SKC 12/10 A2999 RMK SLP153 DENSITY ALT 3300FT

CYQF;2018-07-17 10:00;CYQF 171000Z VRB02KT 15SM SKC 10/09 A2999 RMK SLP155 DENSITY ALT 3100FT

CYQF;2018-07-17 11:00;CYQF 171100Z VRB02KT 15SM SKC 11/10 A3000 RMK SLP157 DENSITY ALT 3100FT

CYQF;2018-07-17 12:00;CYQF 171200Z 27004KT 15SM SKC 12/10 A3001 RMK SLP159 DENSITY ALT 3200FT

CYQF;2018-07-17 13:00;CYQF 171300Z 00000KT 15SM SKC 13/11 A3001 RMK SLP161 DENSITY ALT 3400FT

CYQF;2018-07-17 14:00;CYQF 171400Z 26003KT 220V310 12SM SKC 16/12 A3003 RMK SLP165 DENSITY ALT 3600FT

CYQF;2018-07-17 15:00;CYQF 171500Z 28004KT 15SM SKC 19/13 A3003 RMK SLP165 DENSITY ALT 4000FT

CYQF;2018-07-17 16:00;CYQF 171600Z VRB02KT 15SM SKC 21/14 A3003 RMK SLP166 DENSITY ALT 4300FT

CYQF;2018-07-17 17:00;CYQF 171700Z 01004KT 320V100 12SM SKC 24/14 A3002 RMK SLP162 DENSITY ALT 4600FT

CYQF;2018-07-17 18:00;CYQF 171800Z VRB04KT 12SM FEW300 26/13 A3001 RMK CI1 SLP158 DENSITY ALT 4800FT

CYQF;2018-07-17 19:00;CYQF 171900Z CCA 36006KT 330V100 12SM FEW060 FEW300 28/13 A3000 RMK CU1CI1 CU TR SLP154 DENSITY ALT 5100FT

CYQF;2018-07-17 20:00;CYQF 172000Z 06004KT 010V110 15SM FEW300 28/13 A3000 RMK CI1 SLP154 DENSITY ALT 5100FT

CYQF;2018-07-17 21:00;CYQF 172100Z VRB02KT 15SM FEW300 29/14 A2999 RMK CI1 SLP151 DENSITY ALT 5200FT

CYQF;2018-07-17 22:00;CYQF 172200Z 30005KT 280V050 12SM FEW072 FEW300 30/12 A2997 RMK CU1CI2 CU TR SLP145 DENSITY ALT 5300FT

CYQF;2018-07-17 23:00;CYQF 172300Z 07006KT 050V190 12SM FEW065 SCT300 30/13 A2995 RMK CU1CI4 CU TR SLP139 DENSITY ALT 5300FT

CYQF;2018-07-18 00:00;CYQF 180000Z 06007KT 15SM FEW060 SCT300 29/14 A2994 RMK CU1CI4 CU TR SLP136 DENSITY ALT 5300FT

CYQF;2018-07-18 01:00;CYQF 180100Z 06005KT 15SM FEW150 BKN300 27/16 A2993 RMK AC1CI5 SLP131 DENSITY ALT 5100FT

CYQF;2018-07-18 02:00;CYQF 180200Z 06005KT 15SM FEW150 BKN300 25/16 A2993 RMK AC1CI5 SLP131 DENSITY ALT 4900FT

CYQF;2018-07-18 03:00;CYQF 180300Z 08006KT 15SM FEW150 BKN250 23/16 A2993 RMK AC1CI5 SLP130 DENSITY ALT 4600FT

CYQF;2018-07-18 04:00;CYQF 180400Z 07003KT 15SM FEW150 SCT250 21/15 A2992 RMK AC1CI2 SLP129 DENSITY ALT 4300FT

CYQF;2018-07-18 05:00;CYQF 180500Z VRB02KT 15SM BKN170 19/15 A2991 RMK AC6 SLP124 DENSITY ALT 4200FT

CYQF;2018-07-18 06:00;CYQF 180600Z 36005KT 15SM BKN150 19/15 A2991 RMK AC7 SLP120 DENSITY ALT 4200FT

CYQF;2018-07-18 06:14;CYQF 180614Z 02004KT 15SM BKN150 20/14 A2991 RMK AC7 CB NW-N OCNL LTGIC LTGCG NW-N SLP119 DENSITY ALT 4300FT

CYQF;2018-07-18 07:00;CYQF 180700Z 01005KT 15SM BKN150 20/14 A2990 RMK AC5 OCNL LTGIC LTGCG N SLP114 DENSITY ALT 4300FT

CYQF;2018-07-18 08:00;CYQF 180800Z 36005KT 15SM BKN130 19/14 A2990 RMK AC5 OCNL LTGIC LTGCG N SLP114 DENSITY ALT 4100FT

CYQF;2018-07-18 09:00;CYQF 180900Z 35007KT 15SM FEW130 19/15 A2991 RMK AC2 FRQ LTGIC NW SLP116 DENSITY ALT 4100FT

CYQF;2018-07-18 10:00;CYQF 181000Z 36010KT 15SM FEW130 17/15 A2991 RMK AC2 OCNL LTGIC DIST NW SLP118 DENSITY ALT 4000FT

CYQF;2018-07-18 11:00;CYQF 181100Z 36013G20KT 15SM FEW040 FEW130 FEW170 16/14 A2993 RMK CU1AC1AC1 CU TR SLP128 DENSITY ALT 3800FT

CYQF;2018-07-18 12:00;CYQF 181200Z 30011KT 15SM FEW012 SCT050CB BKN120 16/13 A2997 RMK SF1CB3AC3 OCNL LTGIC LTGCG SW-W PRESRR SLP141 DENSITY ALT 3700FT

CYQF;2018-07-18 12:26;CYQF 181226Z 28014G21KT 15SM BKN021 OVC130 16/13 A3002 RMK SC6AC2 OCNL LTGIC LTGCG SW-NW PRESRR SLP160 DENSITY ALT 3700FT

CYQF;2018-07-18 13:00;CYQF 181300Z 35008KT 310V010 12SM SCT020 BKN080 OVC120 16/13 A3000 RMK SC3AC2AC3 CB EMBD OCNL LTGICCG DIST N-NW PRESFR SLP153 DENSITY ALT 3800FT

CYQF;2018-07-18 13:08;CYQF 181308Z 01009KT 12SM -SHRA SCT024 BKN043 OVC080 16/13 A2998 RMK SC3SC3AC2 CVCTV CLD EMBD PRESFR SLP147 DENSITY ALT 3800FT

CYQF;2018-07-18 13:26;CYQF 181326Z 03015KT 12SM FEW024 BKN080 BKN120 16/13 A2996 RMK SC2AC3AC2 PRESFR SLP139 DENSITY ALT 3700FT

CYQF;2018-07-18 14:00;CYQF 181400Z 03009G16KT 12SM FEW024 BKN120 BKN300 16/14 A2995 RMK SC1AC5CI1 SLP140 DENSITY ALT 3800FT

CYQF;2018-07-18 15:00;CYQF 181500Z 36005KT 15SM FEW140 SCT240 17/14 A3000 RMK AC2CI2 SLP157 DENSITY ALT 3900FT

CYQF;2018-07-18 16:00;CYQF 181600Z 02012G17KT 15SM FEW024 SCT100 BKN300 19/13 A2999 RMK CU1AC2CI2 SLP154 DENSITY ALT 4100FT

CYQF;2018-07-18 17:00;CYQF 181700Z 32005KT 300V050 15SM FEW030 SCT150 20/14 A3000 RMK CU2AC2 SLP155 DENSITY ALT 4200FT

CYQF;2018-07-18 18:00;CYQF 181800Z 35003KT 310V070 15SM FEW030 SCT150 BKN300 22/14 A2998 RMK CU1AC2CI2 SLP150 DENSITY ALT 4400FT

CYQF;2018-07-18 19:00;CYQF 181900Z VRB02KT 15SM FEW035 SCT150 SCT300 22/14 A2997 RMK CU1AC2CI1 SLP144 DENSITY ALT 4500FT

CYQF;2018-07-18 20:00;CYQF 182000Z VRB02KT 15SM FEW040 SCT300 24/13 A2996 RMK CU1CI2 SLP141 DENSITY ALT 4600FT

CYQF;2018-07-18 21:00;CYQF 182100Z 19004KT 170V230 15SM FEW045 SCT300 25/14 A2995 RMK CU1CI2 SLP137 DENSITY ALT 4800FT

CYQF;2018-07-18 22:00;CYQF 182200Z VRB02KT 12SM VCSH FEW048 BKN100 BKN300 25/13 A2996 RMK CU2ACC3CI1 SLP139 DENSITY ALT 4800FT

CYQF;2018-07-18 22:37;CYQF 182237Z 29004KT 12SM TS VCSH SCT040CB BKN100 BKN300 24/15 A2996 RMK CB4ACC1CI1 SLP143 DENSITY ALT 4600FT

CYQF;2018-07-18 22:49;CYQF 182249Z 31009KT 12SM -TSRA BKN045CB BKN100 BKN300 23/14 A2997 RMK CB5ACC1CI1 OCNL LTGIC SE SLP147 DENSITY ALT 4600FT

CYQF;2018-07-18 23:00;CYQF 182300Z 29005KT 260V320 12SM -TSRA BKN045CB BKN100 BKN300 23/14 A2997 RMK CB5ACC1CI1 FQT LTGCG E-S SLP149 DENSITY ALT 4500FT

CYQF;2018-07-18 23:09;CYQF 182309Z VRB07KT 15SM TS SCT045CB BKN100 BKN300 22/15 A2996 RMK CB3AC2CI2 SLP146 DENSITY ALT 4400FT

CYQF;2018-07-18 23:17;CYQF 182317Z 14009KT 100V190 15SM FEW045CB SCT110 BKN300 20/14 A2997 RMK CB2AC2CI3 SLP150 DENSITY ALT 4300FT

CYQF;2018-07-19 00:00;CYQF 190000Z 20003KT 100V230 15SM FEW045CB SCT120 BKN300 21/13 A2994 RMK CB1AC3CI3 SLP140 DENSITY ALT 4300FT

CYQF;2018-07-19 01:00;CYQF 190100Z 11004KT 080V150 15SM FEW045CB SCT120 BKN220 20/14 A2995 RMK CB1AC2CI4 SLP144 DENSITY ALT 4200FT

CYQF;2018-07-19 02:00;CYQF 190200Z 00000KT 15SM FEW040CB BKN140 BKN200 20/13 A2996 RMK CB2AC3CI2 SLP146 DENSITY ALT 4200FT

CYQF;2018-07-19 03:00;CYQF 190300Z 26006KT 15SM FEW040TCU SCT140 BKN200 18/13 A2995 RMK TCU2AC2CI3 SLP145 DENSITY ALT 4100FT

CYQF;2018-07-19 04:00;CYQF 190400Z 26003KT 15SM FEW040 SCT150 BKN240 17/12 A2998 RMK CU2AC2CI3 SLP153 DENSITY ALT 3800FT

CYQF;2018-07-19 05:00;CYQF 190500Z 21005KT 15SM FEW030 SCT140 BKN240 15/12 A2997 RMK CU2AC2CI2 SLP153 DENSITY ALT 3600FT

CYQF;2018-07-19 06:00;CYQF 190600Z 29005KT 15SM BKN130 13/12 A3000 RMK AC6 SLP164 DENSITY ALT 3400FT

CYQF;2018-07-19 07:00;CYQF 190700Z 21003KT 15SM SCT120 BKN220 13/12 A3001 RMK AC4CI3 LTNG DIST N SLP164 DENSITY ALT 3400FT

CYQF;2018-07-19 08:00;CYQF 190800Z 24008KT 15SM FEW060 BKN170 15/12 A3000 RMK SC1AC4 LTNG DIST N SLP160 DENSITY ALT 3600FT

CYQF;2018-07-19 09:00;CYQF 190900Z 28003KT 190V300 15SM FEW060 BKN100 13/12 A3003 RMK SC1AC5 SC TR LTNG DIST NE SLP171 DENSITY ALT 3400FT

CYQF;2018-07-19 10:00;CYQF 191000Z 05006KT 15SM FEW080 BKN120 14/12 A3005 RMK AC2AC5 SLP174 DENSITY ALT 3400FT

CYQF;2018-07-19 10:12;CYQF 191012Z 04003KT 15SM -RA FEW050 BKN100 14/13 A3004 RMK SC2AC5 SLP172 DENSITY ALT 3500FT

CYQF;2018-07-19 11:00;CYQF 191100Z 33005KT 15SM SCT120 BKN150 BKN210 14/12 A3004 RMK ACC3AC2CI2 SLP175 DENSITY ALT 3400FT

CYQF;2018-07-19 12:00;CYQF 191200Z 28004KT 15SM SCT100 BKN250 13/12 A3003 RMK ACC3CI3 VIRGA SLP175 DENSITY ALT 3300FT

CYQF;2018-07-19 13:00;CYQF 191300Z 26005KT 15SM SCT100 BKN250 14/13 A3004 RMK ACC4CI2 VIRGA NE SLP179 DENSITY ALT 3400FT

CYQF;2018-07-19 14:00;CYQF 191400Z 25002KT 15SM BKN130 15/13 A3006 RMK ACC6 SLP184 DENSITY ALT 3500FT

CYQF;2018-07-19 15:00;CYQF 191500Z 34005KT 290V030 15SM FEW100 SCT140 BKN250 18/14 A3007 RMK ACC1AC3CI1 SLP186 DENSITY ALT 3800FT

CYQF;2018-07-19 16:00;CYQF 191600Z 34003KT 270V040 15SM FEW100 FEW140 SCT250 19/12 A3006 RMK ACC1AC1CI1 SLP183 DENSITY ALT 4000FT

CYQF;2018-07-19 17:00;CYQF 191700Z 07003KT 340V120 15SM FEW035 FEW250 21/13 A3005 RMK CU1CI1 CU TR SLP178 DENSITY ALT 4300FT

CYQF;2018-07-19 18:00;CYQF 191800Z 10007KT 010V150 15SM FEW040TCU FEW250 23/13 A3004 RMK TCU1CI1 SLP174 DENSITY ALT 4400FT

CYQF;2018-07-19 19:00;CYQF 191900Z 13005KT 030V170 15SM FEW040TCU SCT300 24/14 A3002 RMK TCU1CI3 SLP167 DENSITY ALT 4600FT

CYQF;2018-07-19 20:00;CYQF 192000Z 12007KT 070V170 15SM FEW045 BKN300 25/14 A3000 RMK CU1CI4 SLP158 DENSITY ALT 4700FT

CYQF;2018-07-19 21:00;CYQF 192100Z 15013KT 090V160 15SM FEW045TCU SCT130 BKN300 25/13 A2999 RMK TCU2AC2CI3 SLP155 DENSITY ALT 4700FT

CYQF;2018-07-19 22:00;CYQF 192200Z 14008KT 15SM FEW038TCU SCT140 OVC220 24/14 A2998 RMK TCU2AC2CI4 SLP153 DENSITY ALT 4600FT

CYQF;2018-07-19 23:00;CYQF 192300Z 14004KT 15SM SCT035TCU BKN120 OVC220 23/15 A2997 RMK TCU3AC3CI2 SLP151 DENSITY ALT 4500FT

CYQF;2018-07-19 23:41;CYQF 192341Z 12004KT 12SM TS VCSH SCT035CB BKN120 BKN220 23/15 A2995 RMK CB4AC2CI1 SLP145 DENSITY ALT 4500FT

CYQF;2018-07-20 00:04;CYQF 200004Z 22011G17KT 110V240 12SM -TSRA BKN035CB BKN120 OVC220 22/15 A2997 RMK CB6AC1CI1 VIS S 3 FRQ LTGCCCG SE-NW PRESRR SLP151 DENSITY ALT 4400FT

CYQF;2018-07-20 00:12;CYQF 200012Z 20011G20KT 3SM TSRA BKN035CB OVC120 18/13 A2999 RMK CB7AC1 PRESRR SLP163 DENSITY ALT 4000FT

CYQF;2018-07-20 00:18;CYQF 200018Z 15005G17KT 130V220 6SM -TSRA BKN035CB BKN100 OVC120 16/13 A2998 RMK CB5AC2AC1 OCNL LTGCCCG NW-NE VIS LWR NW-NE PRESRR SLP161 DENSITY ALT 3800FT

CYQF;2018-07-20 01:00;CYQF 200100Z 26005KT 12SM -TSRA SCT035CB OVC120 17/13 A2995 RMK CB4AC4 SLP148 DENSITY ALT 3900FT

CYQF;2018-07-20 01:35;CYQF 200135Z 32008KT 310V020 12SM -SHRA SCT035CB OVC120 17/14 A2997 RMK CB3AC5 SLP158 DENSITY ALT 3800FT

CYQF;2018-07-20 02:00;CYQF 200200Z 32005KT 12SM SCT035TCU BKN100 OVC210 16/14 A2997 RMK TCU3AC3CI2 SLP155 DENSITY ALT 3800FT

CYQF;2018-07-20 03:00;CYQF 200300Z 04008KT 12SM FEW020 SCT030TCU OVC130 16/14 A2995 RMK CU1TCU4AC4 CU TR SLP147 DENSITY ALT 3800FT

CYQF;2018-07-20 04:00;CYQF 200400Z 12005KT 100V230 12SM SCT030TCU BKN140 OVC250 13/12 A2996 RMK TCU3AC3CI2 SLP152 DENSITY ALT 3500FT

CYQF;2018-07-20 05:00;CYQF 200500Z 06007KT 15SM FEW030 BKN180 14/12 A2995 RMK CU2AC4 LTNG DIST SE SLP145 DENSITY ALT 3600FT

CYQF;2018-07-20 06:00;CYQF 200600Z 08008KT 15SM BKN140 15/13 A2994 RMK AC6 LTNG DIST SSE SLP140 DENSITY ALT 3600FT

CYQF;2018-07-20 07:00;CYQF 200700Z 10005KT 15SM SCT120 OVC250 15/13 A2994 RMK AC3CI5 LTNG DIST SE SLP137 DENSITY ALT 3700FT

CYQF;2018-07-20 08:00;CYQF 200800Z 08003KT 15SM BKN140 13/11 A2992 RMK AC5 SLP134 DENSITY ALT 3400FT

CYQF;2018-07-20 09:00;CYQF 200900Z 00000KT 15SM SCT070 12/11 A2992 RMK AC3 SLP133 DENSITY ALT 3300FT

CYQF;2018-07-20 10:00;CYQF 201000Z 00000KT 15SM SCT070 11/11 A2991 RMK AC3 SLP130 DENSITY ALT 3300FT

CYQF;2018-07-20 11:00;CYQF 201100Z 11004KT 15SM SCT070 10/10 A2990 RMK AC3 SLP130 DENSITY ALT 3100FT

CYQF;2018-07-20 12:00;CYQF 201200Z 11002KT 15SM SCT100 11/09 A2989 RMK ACC3 SLP126 DENSITY ALT 3200FT

CYQF;2018-07-20 13:00;CYQF 201300Z 12006KT 15SM FEW100 14/11 A2988 RMK ACC2 SLP126 DENSITY ALT 3600FT

CYQF;2018-07-20 14:00;CYQF 201400Z 13009KT 15SM SCT100 15/12 A2988 RMK ACC3 SLP123 DENSITY ALT 3800FT

CYQF;2018-07-20 15:00;CYQF 201500Z 15010G15KT 15SM FEW020 FEW100 17/13 A2985 RMK CF1AC1 TCU DIST N SLP113 DENSITY ALT 4000FT

CYQF;2018-07-20 17:00;CYQF 201700Z 16006KT 15SM BKN021 19/14 A2982 RMK CU6 VIA CYQU SLP103 DENSITY ALT 4300FT

CYQF;2018-07-20 18:00;CYQF 201800Z 22005KT 15SM BKN024 20/15 A2981 RMK CU5 VIA CYQU SLP098 DENSITY ALT 4400FT

CYQF;2018-07-20 19:00;CYQF 201900Z 09002KT 15SM BKN034 21/15 A2981 RMK CU7 VIA CYQU SLP097 DENSITY ALT 4500FT

CYQF;2018-07-20 20:00;CYQF 202000Z 33003KT 15SM BKN033 22/15 A2980 RMK CU6 VIA CYQU SLP095 DENSITY ALT 4600FT

CYQF;2018-07-20 21:00;CYQF 202100Z 27004KT 12SM BKN030 BKN250 23/16 A2980 RMK CU5CI1 CI TR HZ VIA CYQU SLP094 DENSITY ALT 4800FT

CYQF;2018-07-20 22:00;CYQF 202200Z 30014G21KT 12SM FEW028 SCT050CB 22/15 A2981 RMK CU2CB2 VIA CYQU SLP099 DENSITY ALT 4600FT

CYQF;2018-07-20 23:00;CYQF 202300Z 33013KT 15SM FEW024 FEW050CB 19/M18 A2983 RMK CU1CB1 VIA CYQU SLP109 DENSITY ALT 4300FT

CYQF;2018-07-21 00:00;CYQF 210000Z 33013G20KT 15SM FEW034 BKN050CB BKN100 18/M21 A2986 RMK CU2CB3AC2 VIA CYQU SLP121 DENSITY ALT 4100FT

CYQF;2018-07-21 01:00;CYQF 210100Z 35011G18KT 15SM SCT040TCU BKN140 OVC250 17/11 A2987 RMK TCU3AC3CI2 VIA CYQU SLP122 DENSITY ALT 4000FT

CYQF;2018-07-21 02:00;CYQF 210200Z 35009G18KT 15SM FEW034 SCT250 17/09 A2988 RMK CU2CI2 VIA CYQU SLP123 DENSITY ALT 4000FT

CYQF;2018-07-21 03:00;CYQF 210300Z 35006KT 15SM FEW030 SCT250 15/09 A2988 RMK CU1CI2 VIA CYQU SLP125 DENSITY ALT 3700FT

CYQF;2018-07-21 04:00;CYQF 210400Z 35005KT 15SM FEW030 SCT250 12/08 A2991 RMK SC1CI3 VIA CYQU SLP142 DENSITY ALT 3400FT

CYQF;2018-07-21 05:00;CYQF 210500Z 01005KT 15SM FEW110 FEW250 11/08 A2994 RMK AC1CI1 VIA CYQU SLP146 DENSITY ALT 3200FT

CYQF;2018-07-21 06:00;CYQF 210600Z 03009KT 15SM SCT110 12/10 A2997 RMK AC4 VIA CYQU SLP154 DENSITY ALT 3300FT

CYQF;2018-07-21 07:00;CYQF 210700Z 01008KT 15SM SCT110 11/09 A2996 RMK AC3 VIA CYQU SLP153 DENSITY ALT 3200FT

CYQF;2018-07-21 08:00;CYQF 210800Z 01003KT 15SM BKN110 10/08 A2999 RMK AC6 VIA CYQU SLP160 DENSITY ALT 3100FT

CYQF;2018-07-21 09:00;CYQF 210900Z 00000KT 15SM BKN090 10/08 A3000 RMK AC6 VIA CYQU SLP163 DENSITY ALT 3000FT

CYQF;2018-07-21 10:00;CYQF 211000Z 25006KT 15SM FEW030CB FEW120 08/08 RMK CB1AC1 VIA CYQU DENSITY ALT MISG

CYQF;2018-07-21 11:00;CYQF 211100Z 26006KT 15SM FEW030CB SCT120 08/06 A3000 RMK CB1AC2 VIA CYQU SLP170

CYQF;2018-07-21 12:00;CYQF 211200Z 20002KT 15SM SCT120 BKN210 07/07 A2999 RMK AC4CI1 VIA CYQU SLP168

CYQF;2018-07-21 13:00;CYQF 211300Z 19004KT 15SM SCT120 BKN250 08/07 A2997 RMK AC4CI1 VIA CYQU SLP163

CYQF;2018-07-21 14:00;CYQF 211400Z 00000KT 15SM FEW120 SCT250 10/09 A2996 RMK AC2CC1 VIA CYQU SLP156 DENSITY ALT 3100FT

CYQF;2018-07-21 15:00;CYQF 211500Z 17006KT 15SM FEW120 SCT250 14/09 A2994 RMK AC1CC2 VIA CYQU SLP148 DENSITY ALT 3600FT

CYQF;2018-07-21 16:00;CYQF 211600Z 19015KT 15SM SCT180 17/08 A2992 RMK AC3 VIA CYQU SLP141 DENSITY ALT 4000FT

CYQF;2018-07-21 17:00;CYQF 211700Z 17013KT 15SM FEW040TCU SCT190 SCT250 18/08 A2991 RMK TCU1AC2CI1 TCU DIST SW-W VIA CYQU SLP140 DENSITY ALT 4000FT

CYQF;2018-07-21 18:00;CYQF 211800Z 19010G17KT 15SM FEW048TCU BKN170 19/06 A2991 RMK TCU1AC5 TCU TR SLP134 DENSITY ALT 4100FT

CYQF;2018-07-21 19:00;CYQF 211900Z 19006KT 15SM FEW040TCU BKN150 18/07 A2989 RMK TCU2AC4 SLP131 DENSITY ALT 4100FT

CYQF;2018-07-21 20:00;CYQF 212000Z CCA 26003KT 170V270 15SM VCSH SCT040CB BKN120 18/07 A2989 RMK CB4AC3 SLP132 DENSITY ALT 4100FT

CYQF;2018-07-21 20:12;CYQF 212012Z 31010G21KT 12SM -SHRA SCT034CB BKN120 18/06 A2990 RMK CB4AC3 SLP135 DENSITY ALT 4100FT

CYQF;2018-07-21 20:35;CYQF 212035Z 30011G18KT 12SM TS VCSH SCT040CB BKN100 17/05 A2990 RMK CB4AC3 SLP137 DENSITY ALT 3900FT

CYQF;2018-07-21 21:00;CYQF 212100Z 32012G19KT 15SM -SHRA SCT040CB BKN110 18/06 A2991 RMK CB4AC3 SLP139 DENSITY ALT 4100FT

CYQF;2018-07-21 22:00;CYQF 212200Z 35006KT 15SM -SHRA BKN015CB BKN140 15/09 A2993 RMK CB5AC2 SLP151 DENSITY ALT 3700FT

CYQF;2018-07-21 22:46;CYQF 212246Z 33006KT 310V020 15SM VCSH SCT020CB BKN140 BKN250 19/07 A2993 RMK CB4AC2CI1 SLP147 DENSITY ALT 4200FT

CYQF;2018-07-21 23:00;CYQF 212300Z 32008KT 300V040 15SM FEW056TCU BKN120 BKN220 20/05 A2994 RMK TCU2AC3CI2 SLP149 DENSITY ALT 4200FT

CYQF;2018-07-22 00:00;CYQF 220000Z 34011G20KT 15SM FEW042 SCT140 BKN250 17/07 A2997 RMK CU2AC2CI2 SLP163 DENSITY ALT 3900FT

CYQF;2018-07-22 01:00;CYQF 220100Z 30012G18KT 15SM FEW052 SCT120 BKN250 18/05 A2998 RMK CU2AC2CI2 SLP166 DENSITY ALT 4000FT

CYQF;2018-07-22 02:00;CYQF 220200Z 31016G24KT 15SM VCSH SCT053TCU BKN100 15/07 A3001 RMK TCU4AC2 PRESRR SLP177 DENSITY ALT 3600FT

CYQF;2018-07-22 02:14;CYQF 220214Z 30016G23KT 12SM -SHRA SCT050TCU BKN100 14/07 A3001 RMK TCU4AC3 SLP179 DENSITY ALT 3500FT

CYQF;2018-07-22 02:46;CYQF 220246Z 28011KT 15SM FEW040 BKN080 BKN250 13/07 A3002 RMK CU2AC3CI1 SLP183 DENSITY ALT 3300FT

CYQF;2018-07-22 03:00;CYQF 220300Z 27009G15KT 15SM FEW030 BKN090 BKN250 13/07 A3002 RMK CU2AC4CI1 CI TR SLP179 DENSITY ALT 3300FT

CYQF;2018-07-22 04:00;CYQF 220400Z 29008KT 15SM SCT030 BKN110 BKN250 11/07 A3004 RMK SC3AC2CI2 SLP184 DENSITY ALT 3100FT

CYQF;2018-07-22 05:00;CYQF 220500Z 29010KT 15SM SCT030 BKN060 BKN090 12/07 A3006 RMK SC3SC3AC1 SLP188 DENSITY ALT 3200FT

CYQF;2018-07-22 05:32;CYQF 220532Z 28008KT 15SM -RA FEW030 BKN051 11/08 A3007 RMK SC2SC5 SLP191 DENSITY ALT 3100FT

CYQF;2018-07-22 06:00;CYQF 220600Z 29008KT 12SM -RA FEW030 OVC050 10/09 A3007 RMK SC2SC6 SLP193 DENSITY ALT 3000FT

CYQF;2018-07-22 06:47;CYQF 220647Z 28008KT 15SM FEW030 BKN060 10/09 A3007 RMK SC1SC5 SLP194 DENSITY ALT 3000FT

CYQF;2018-07-22 07:00;CYQF 220700Z 27007KT 15SM FEW030 BKN060 10/09 A3008 RMK SC1SC5 SLP196

CYQF;2018-07-22 08:00;CYQF 220800Z 28008G15KT 15SM FEW060 SCT160 10/08 A3008 RMK SC2AC1 SLP197

CYQF;2018-07-22 09:00;CYQF 220900Z 28010G18KT 15SM FEW160 FEW210 10/07 A3008 RMK AC1CI1 SLP198

CYQF;2018-07-22 10:00;CYQF 221000Z 28010KT 15SM FEW080 SCT210 10/08 A3009 RMK AC1CI2 SLP203

CYQF;2018-07-22 11:00;CYQF 221100Z 29009G18KT 10SM BKN020 BKN080 11/09 A3010 RMK SC5AC2 SLP203 DENSITY ALT 3000FT

CYQF;2018-07-22 11:42;CYQF 221142Z 28011G16KT 2 1/2SM BR OVC019 11/10 A3011 RMK SC8 SLP206 DENSITY ALT 3000FT

CYQF;2018-07-22 12:00;CYQF 221200Z 28010G17KT 2 1/2SM -RA BR OVC015 11/10 A3012 RMK SC8 SLP213 DENSITY ALT 3000FT

CYQF;2018-07-22 12:18;CYQF 221218Z 31012G17KT 8SM OVC015 11/10 A3013 RMK SC8 SLP215 DENSITY ALT 3000FT

CYQF;2018-07-22 13:00;CYQF 221300Z 31013G20KT 10SM BKN021 12/10 A3016 RMK SC7 SLP222 DENSITY ALT 3100FT

CYQF;2018-07-22 14:00;CYQF 221400Z 31015KT 15SM BKN020 13/10 A3018 RMK SC6 SLP232 DENSITY ALT 3200FT

CYQF;2018-07-22 15:00;CYQF 221500Z 32012G24KT 15SM BKN020 14/11 A3019 RMK CU7 SLP237 DENSITY ALT 3300FT

CYQF;2018-07-22 16:00;CYQF 221600Z 32022G29KT 15SM BKN023 15/10 A3021 RMK SC6 SLP243 DENSITY ALT 3400FT

CYQF;2018-07-22 17:00;CYQF 221700Z 33018G29KT 15SM BKN022 17/10 A3021 RMK CU5 SLP244 DENSITY ALT 3600FT

CYQF;2018-07-22 18:00;CYQF 221800Z 32014G25KT 15SM BKN040 19/10 A3022 RMK CU5 SLP247 DENSITY ALT 3800FT

CYQF;2018-07-22 19:00;CYQF 221900Z 32014G23KT 15SM BKN040 20/09 A3023 RMK CU5 SLP249 DENSITY ALT 3900FT

CYQF;2018-07-22 20:00;CYQF 222000Z 31014G20KT 290V350 15SM BKN048 21/08 A3024 RMK CU5 SLP249 DENSITY ALT 4000FT

CYQF;2018-07-22 21:00;CYQF 222100Z 32010G20KT 300V360 15SM VCSH BKN068 20/08 A3024 RMK CU5 SLP253 DENSITY ALT 3900FT

CYQF;2018-07-22 22:00;CYQF 222200Z 30009G15KT 280V340 15SM SCT034 BKN090 19/10 A3025 RMK CU3AC2 SLP255 DENSITY ALT 3800FT

CYQF;2018-07-22 23:00;CYQF 222300Z 33011G18KT 15SM SCT044 BKN120 22/09 A3025 RMK CU4AC2 SLP252 DENSITY ALT 4100FT

CYQF;2018-07-23 00:00;CYQF 230000Z 31011KT 290V360 15SM FEW050TCU FEW120 21/09 A3024 RMK TCU1AC1 SLP250 DENSITY ALT 4000FT

CYQF;2018-07-23 01:00;CYQF 230100Z 35011KT 15SM FEW050TCU FEW120 SCT250 20/09 A3024 RMK TCU1AC1CI1 SLP249 DENSITY ALT 3900FT

CYQF;2018-07-23 02:00;CYQF 230200Z 02008KT 15SM FEW050TCU FEW120 FEW250 19/10 A3025 RMK TCU1AC1CI1 TCU TR SLP253 DENSITY ALT 3800FT

CYQF;2018-07-23 03:00;CYQF 230300Z 34003KT 15SM FEW050TCU FEW120 SCT250 16/10 A3027 RMK TCU1AC2CI1 TCU TR SLP260 DENSITY ALT 3400FT

CYQF;2018-07-23 04:00;CYQF 230400Z 36003KT 15SM SCT120 BKN250 14/10 A3028 RMK AC4CI1 VIRGA SLP265 DENSITY ALT 3200FT

CYQF;2018-07-23 05:00;CYQF 230500Z 01004KT 15SM SCT120 12/10 A3029 RMK AC3 SLP267 DENSITY ALT 3000FT

CYQF;2018-07-23 06:00;CYQF 230600Z 02006KT 15SM SCT080 12/09 A3029 RMK AC3 SLP267

CYQF;2018-07-23 06:43;CYQF 230643Z 04006KT 12SM -RA BKN055 OVC080 13/10 A3030 RMK SC5AC3 SLP272 DENSITY ALT 3000FT

CYQF;2018-07-23 07:00;CYQF 230700Z 11004KT 070V130 12SM -RA SCT055 OVC080 12/10 A3030 RMK SC4AC4 SLP270

CYQF;2018-07-23 07:13;CYQF 230713Z VRB02KT 15SM SCT055 OVC076 12/11 A3030 RMK SC3AC5 SLP271

CYQF;2018-07-23 08:00;CYQF 230800Z 02005KT 010V090 15SM SCT050 BKN073 11/10 A3030 RMK SC3AC3 SLP270

CYQF;2018-07-23 09:00;CYQF 230900Z 03004KT 15SM SCT055 BKN094 11/09 A3030 RMK SC3AC3 SLP271

CYQF;2018-07-23 10:00;CYQF 231000Z 00000KT 15SM BKN065 11/10 A3030 RMK SC7 SLP273

CYQF;2018-07-23 10:26;CYQF 231026Z 30011G17KT 12SM -RA SCT047 OVC055 11/10 A3033 RMK SC3SC5 PRESRR SLP282

CYQF;2018-07-23 11:00;CYQF 231100Z 36003KT 10SM -RA OVC050 11/10 A3032 RMK SC8 SLP275

CYQF;2018-07-23 11:14;CYQF 231114Z 05002KT 12SM OVC055 11/10 A3031 RMK SC8 SLP274

CYQF;2018-07-23 11:40;CYQF 231140Z VRB02KT 12SM -SHRA OVC052 11/10 A3031 RMK SC8 SLP273

CYQF;2018-07-23 12:00;CYQF 231200Z 07004KT 360V070 15SM -SHRA BKN049 11/10 A3030 RMK SC7 SLP271

CYQF;2018-07-23 12:17;CYQF 231217Z 04003KT 350V060 15SM BKN050 11/10 A3031 RMK SC7 SLP272

CYQF;2018-07-23 12:49;CYQF 231249Z 03003KT 15SM FEW008 OVC050 11/11 A3030 RMK SF1SC7 SLP271

CYQF;2018-07-23 13:00;CYQF 231300Z 07003KT 15SM FEW008 OVC050 11/11 A3030 RMK SF1SC7 SLP272

CYQF;2018-07-23 14:00;CYQF 231400Z 07003KT 15SM OVC050 11/09 A3031 RMK SC8 SLP276

CYQF;2018-07-23 15:00;CYQF 231500Z 06003KT 040V110 15SM OVC050 12/09 A3031 RMK SC8 SLP277

CYQF;2018-07-23 16:00;CYQF 231600Z 06007KT 15SM OVC048 12/08 A3031 RMK SC8 SLP280

CYQF;2018-07-23 17:00;CYQF 231700Z 09006KT 15SM FEW020 BKN050 13/09 A3031 RMK CU1SC7 CU TR SLP279 DENSITY ALT 3100FT

CYQF;2018-07-23 18:00;CYQF 231800Z 10007KT 080V140 15SM FEW024 BKN050 15/09 A3030 RMK CU1SC5 CU TR SLP273 DENSITY ALT 3300FT

CYQF;2018-07-23 19:00;CYQF 231900Z 07003KT 040V110 15SM FEW030 BKN070 BKN150 16/09 A3029 RMK CU2AC4AC1 SLP270 DENSITY ALT 3400FT

CYQF;2018-07-23 20:00;CYQF 232000Z 04007KT 320V070 15SM SCT029 BKN042 BKN110 17/11 A3029 RMK CU3SC2AC2 SLP269 DENSITY ALT 3500FT

CYQF;2018-07-23 21:00;CYQF 232100Z 03004KT 350V060 15SM SCT030 BKN060 BKN090 17/11 A3028 RMK CU3SC2AC2 SLP267 DENSITY ALT 3500FT

CYQF;2018-07-23 22:00;CYQF 232200Z 04005KT 360V060 15SM SCT025 BKN090 OVC160 18/11 A3027 RMK CU3AC3AC2 SLP263 DENSITY ALT 3600FT

CYQF;2018-07-23 23:00;CYQF 232300Z 03005KT 320V040 15SM FEW025 BKN036 OVC160 17/11 A3028 RMK CF2SC4AC2 SLP265 DENSITY ALT 3600FT

CYQF;2018-07-24 00:00;CYQF 240000Z 03006KT 15SM SCT036 BKN140 OVC250 17/11 A3027 RMK CU3AC3CI2 SLP264 DENSITY ALT 3500FT

CYQF;2018-07-24 01:05;CYQF 240105Z 36008KT 15SM -SHRA SCT030 OVC080 16/11 A3028 RMK CU3AC5 SLP267 DENSITY ALT 3400FT

CYQF;2018-07-24 01:29;CYQF 240129Z 36004KT 15SM SCT030 OVC080 16/12 A3029 RMK CU4AC4 SLP270 DENSITY ALT 3400FT

CYQF;2018-07-24 02:00;CYQF 240200Z 35006KT 15SM SCT040 OVC120 16/11 A3029 RMK CU3AC5 SLP272 DENSITY ALT 3300FT

CYQF;2018-07-24 03:00;CYQF 240300Z 32005KT 15SM SCT030 OVC120 14/11 A3030 RMK CU3AC5 SLP276 DENSITY ALT 3200FT

CYQF;2018-07-24 03:09;CYQF 240309Z 31005KT 15SM -SHRA SCT030 OVC120 14/11 A3030 RMK CU4AC4 VIS S 8 SLP278 DENSITY ALT 3100FT

CYQF;2018-07-24 04:00;CYQF 240400Z 28003KT 12SM -SHRA BKN025 OVC120 13/12 A3030 RMK SC6AC2 VIS S 8 CIG RAG CVCTV CLD EMBD SLP278 DENSITY ALT 3100FT

CYQF;2018-07-24 05:00;CYQF 240500Z VRB02KT 12SM -SHRA SCT025 BKN080 13/13 A3031 RMK SC4ACC2 SLP278 DENSITY ALT 3000FT

CYQF;2018-07-24 05:22;CYQF 240522Z 32003KT 12SM MIFG SCT024 BKN080 13/12 A3030 RMK SC4AC3 SLP277 DENSITY ALT 3000FT

CYQF;2018-07-24 06:00;CYQF 240600Z 26002KT 12SM MIFG SCT020 BKN080 13/12 A3031 RMK SC4AC3 SLP276 DENSITY ALT 3000FT

CYQF;2018-07-24 07:00;CYQF 240700Z 29005KT 15SM BKN018 13/12 A3031 RMK SC7 SLP275 DENSITY ALT 3000FT

CYQF;2018-07-24 08:00;CYQF 240800Z 30005KT 15SM BKN016 OVC050 12/12 A3030 RMK SC5SC3 SLP274 DENSITY ALT 3000FT

CYQF;2018-07-24 09:00;CYQF 240900Z 33005KT 15SM SCT019 OVC037 12/12 A3030 RMK SC4SC4 SLP274 DENSITY ALT 3000FT

CYQF;2018-07-24 10:00;CYQF 241000Z 01003KT 10SM SCT015 OVC040 12/11 A3030 RMK SC3SC5 SLP272

CYQF;2018-07-24 10:09;CYQF 241009Z 34005KT 320V030 10SM FEW006 BKN015 OVC035 12/11 A3030 RMK SF2SC4SC2 BR SLP272

CYQF;2018-07-24 10:16;CYQF 241016Z 33004KT 8SM BKN005 OVC015 12/11 A3030 RMK SF6SC2 BR SLP272

CYQF;2018-07-24 10:26;CYQF 241026Z 32007KT 8SM OVC004 11/11 A3030 RMK SF8 BR SLP274

CYQF;2018-07-24 11:00;CYQF 241100Z 33006KT 12SM BKN006 OVC030 11/10 A3030 RMK SF6SC2 SLP275

CYQF;2018-07-24 11:37;CYQF 241137Z 33005KT 15SM SCT005 BKN020 OVC050 11/10 A3030 RMK SF4SC2SC2 SLP273

CYQF;2018-07-24 12:00;CYQF 241200Z 35006KT 15SM FEW005 BKN040 10/10 A3029 RMK SF2SC4 SLP270

CYQF;2018-07-24 13:00;CYQF 241300Z 00000KT 15SM SCT010 BKN050 BKN120 11/10 A3029 RMK SF4SC2AC1 VIS S 6 SLP271

CYQF;2018-07-24 14:00;CYQF 241400Z 00000KT 15SM FEW010 OVC050 11/10 A3029 RMK CF1SC7 SLP270

CYQF;2018-07-24 15:00;CYQF 241500Z 34003KT 12SM SCT007 OVC050 12/11 A3029 RMK CF3SC5 SLP271

CYQF;2018-07-24 16:00;CYQF 241600Z 34003KT 330V040 10SM SCT007 OVC042 12/11 A3029 RMK SF4SC4 SLP272 DENSITY ALT 3000FT

CYQF;2018-07-24 17:00;CYQF 241700Z 34005KT 320V030 10SM BKN007 OVC040 13/11 A3028 RMK SF5SC3 SLP269 DENSITY ALT 3100FT

CYQF;2018-07-24 18:00;CYQF 241800Z 33004KT 280V020 10SM SCT015 OVC040 14/11 A3028 RMK CU3SC5 SLP269 DENSITY ALT 3200FT

CYQF;2018-07-24 19:00;CYQF 241900Z 34006KT 10SM SCT015 OVC040 14/11 A3028 RMK CU4SC4 SLP269 DENSITY ALT 3200FT

CYQF;2018-07-24 19:36;CYQF 241936Z 36006KT 15SM TS VCSH FEW020CB BKN040 14/10 A3028 RMK CB2SC5 VIS S 6 SLP269 DENSITY ALT 3200FT

CYQF;2018-07-24 20:00;CYQF 242000Z 01004KT 340V050 15SM TS VCSH FEW020CB BKN048 14/10 A3028 RMK CB2SC5 VIS S 8 SLP267 DENSITY ALT 3200FT

CYQF;2018-07-24 20:24;CYQF 242024Z 01006KT 320V030 15SM VCSH BKN020TCU OVC040 15/10 A3028 RMK TCU5SC3 VIS S 8 SLP269 DENSITY ALT 3200FT

CYQF;2018-07-24 21:00;CYQF 242100Z 35007KT 15SM SCT020TCU BKN030 OVC060 14/10 A3029 RMK TCU4SC3SC1 SLP273 DENSITY ALT 3200FT

CYQF;2018-07-24 22:00;CYQF 242200Z 36007KT 330V030 15SM SCT020TCU BKN050 BKN080 16/10 A3028 RMK TCU3SC2AC2 SLP268 DENSITY ALT 3400FT

CYQF;2018-07-24 23:00;CYQF 242300Z 30008KT 280V350 15SM SCT020TCU BKN060 BKN120 18/10 A3028 RMK TCU3SC2AC2 SLP267 DENSITY ALT 3600FT

CYQF;2018-07-25 00:00;CYQF 250000Z 35006KT 310V020 15SM SCT035TCU BKN090 18/10 A3028 RMK TCU3AC2 SLP267 DENSITY ALT 3600FT

CYQF;2018-07-25 01:00;CYQF 250100Z 34006KT 300V010 15SM SCT035TCU BKN090 18/09 A3029 RMK TCU4AC2 SLP268 DENSITY ALT 3600FT

CYQF;2018-07-25 02:00;CYQF 250200Z 33004KT 15SM FEW040 SCT080 BKN250 17/10 A3029 RMK CU2AC2CI2 SLP271 DENSITY ALT 3500FT

CYQF;2018-07-25 03:00;CYQF 250300Z 33003KT 15SM FEW040 SCT080 BKN250 15/10 A3030 RMK CU2AC1CI3 SLP275 DENSITY ALT 3200FT

CYQF;2018-07-25 04:00;CYQF 250400Z 34002KT 15SM FEW050 BKN250 12/09 A3031 RMK CU1CI4 SLP283

CYQF;2018-07-25 05:00;CYQF 250500Z 00000KT 15SM MIFG FEW060 SCT250 10/08 A3032 RMK SC1CI3 SLP288

CYQF;2018-07-25 06:00;CYQF 250600Z 00000KT 12SM MIFG SCT042 SCT250 09/08 A3033 RMK SC3CI1 SLP290

CYQF;2018-07-25 07:00;CYQF 250700Z VRB02KT 12SM MIFG SCT040 08/07 A3033 RMK SC3 SLP291

CYQF;2018-07-25 08:00;CYQF 250800Z 20003KT 12SM MIFG SCT040 06/06 A3032 RMK SC3 SLP290

CYQF;2018-07-25 09:00;CYQF 250900Z 20004KT 12SM MIFG FEW040 05/05 A3032 RMK SC2 SLP291

CYQF;2018-07-25 09:19;CYQF 250919Z 20004KT 4SM BR FEW040 05/05 A3032 RMK SC2 SLP291

CYQF;2018-07-25 09:32;CYQF 250932Z 20002KT 2SM BR SKC 05/05 A3032 RMK FG5 SLP290

CYQF;2018-07-25 09:48;CYQF 250948Z 19003KT 1SM BR VV002 05/04 A3032 RMK FG8 SLP290

CYQF;2018-07-25 10:00;CYQF 251000Z 17002KT 1 1/2SM BR SKC 04/04 A3032 RMK FG7 SLP289

CYQF;2018-07-25 10:39;CYQF 251039Z 19003KT 5/8SM BR SKC 04/04 A3031 RMK FG7 SLP288

CYQF;2018-07-25 11:00;CYQF 251100Z 20003KT 5/8SM BR SKC 04/04 A3031 RMK FG5 SLP285

CYQF;2018-07-25 12:00;CYQF 251200Z 20003KT 1/2SM FG BKN300 04/04 A3031 RMK FG3CI3 SLP285

CYQF;2018-07-25 13:00;CYQF 251300Z 00000KT 1/2SM FG BKN300 05/05 A3032 RMK FG5CI1 SLP286

CYQF;2018-07-25 13:48;CYQF 251348Z 22002KT 1SM BR BKN300 07/07 A3033 RMK FG4CI1 VIS W-N 1/2 SLP286

CYQF;2018-07-25 14:00;CYQF 251400Z 00000KT 2SM BR BKN300 08/08 A3033 RMK FG4CI1 VIS LWR W-N SLP286

CYQF;2018-07-25 14:23;CYQF 251423Z 22003KT 3SM BR FEW005 BKN300 09/09 A3033 RMK SF2CI3 SLP287

CYQF;2018-07-25 15:00;CYQF 251500Z 00000KT 12SM VCFG FEW006 FEW300 12/10 A3033 RMK SF1CI1 FG OVR RIVER SLP286

CYQF;2018-07-25 16:00;CYQF 251600Z VRB02KT 12SM FEW015 FEW250 16/12 A3032 RMK CU1CI2 CU TR SLP283 DENSITY ALT 3300FT

CYQF;2018-07-25 17:00;CYQF 251700Z 12005KT 050V190 15SM SCT032 18/11 A3031 RMK CU3 SLP279 DENSITY ALT 3600FT

CYQF;2018-07-25 18:00;CYQF 251800Z VRB04KT 15SM BKN035 19/10 A3030 RMK CU5 SLP275 DENSITY ALT 3700FT

CYQF;2018-07-25 19:00;CYQF 251900Z 18004KT 100V210 12SM BKN040 19/10 A3030 RMK CU5 SLP274 DENSITY ALT 3800FT

CYQF;2018-07-25 20:00;CYQF 252000Z 11005KT 080V160 12SM BKN040 BKN260 20/10 A3030 RMK CU5CI1 SLP274 DENSITY ALT 3800FT

CYQF;2018-07-25 21:00;CYQF 252100Z 09006KT 030V140 15SM BKN045 21/10 A3029 RMK CU7 SLP272 DENSITY ALT 3900FT

CYQF;2018-07-25 22:00;CYQF 252200Z 15006KT 090V230 10SM BKN045 22/10 A3029 RMK CU7 SLP271 DENSITY ALT 4100FT

CYQF;2018-07-25 23:00;CYQF 252300Z VRB04KT 15SM SCT050 BKN270 21/09 A3028 RMK CU3CI3 SLP270 DENSITY ALT 4000FT

CYQF;2018-07-26 00:00;CYQF 260000Z 05004KT 030V110 12SM SCT050 BKN270 21/10 A3027 RMK CU3CI3 SLP266 DENSITY ALT 4000FT

CYQF;2018-07-26 01:00;CYQF 260100Z VRB02KT 12SM FEW060 BKN270 21/10 A3026 RMK CU1CI4 SLP263 DENSITY ALT 4000FT

CYQF;2018-07-26 02:00;CYQF 260200Z 07004KT 15SM FEW050 BKN270 19/11 A3026 RMK CU1CI7 CU TR SLP259 DENSITY ALT 3800FT

CYQF;2018-07-26 03:00;CYQF 260300Z 12004KT 10SM FEW080 BKN270 17/11 A3027 RMK AC1CI6 SLP261 DENSITY ALT 3500FT

CYQF;2018-07-26 04:00;CYQF 260400Z 07003KT 10SM BKN270 14/10 A3028 RMK CI5 SLP265 DENSITY ALT 3200FT

CYQF;2018-07-26 05:00;CYQF 260500Z 05003KT 15SM BKN270 13/09 A3028 RMK CI5 OCNL LTGCG DIST SW SLP263 DENSITY ALT 3000FT

CYQF;2018-07-26 06:00;CYQF 260600Z VRB02KT 15SM FEW080 BKN270 11/08 A3028 RMK AC2CI3 SLP264

CYQF;2018-07-26 07:00;CYQF 260700Z 21007KT 15SM FEW080 SCT270 11/09 A3028 RMK AC2CI2 SLP263

CYQF;2018-07-26 08:00;CYQF 260800Z 13002KT 15SM BKN270 10/08 A3026 RMK CI6 SLP259

CYQF;2018-07-26 09:00;CYQF 260900Z 00000KT 15SM FEW080 BKN270 08/07 A3026 RMK AC2CI5 SLP259

CYQF;2018-07-26 10:00;CYQF 261000Z 21002KT 15SM SCT070 BKN270 08/07 A3024 RMK AC3CI3 SLP252

CYQF;2018-07-26 11:00;CYQF 261100Z 18003KT 15SM MIFG SCT070 BKN270 07/07 A3024 RMK AC3CI4 SLP253

CYQF;2018-07-26 12:00;CYQF 261200Z 19006KT 12SM MIFG FEW070 OVC270 07/06 A3024 RMK AC2CI6 SLP252

CYQF;2018-07-26 13:00;CYQF 261300Z 19004KT 10SM MIFG FEW070 SCT270 08/07 A3024 RMK AC1CI2 SLP250

CYQF;2018-07-26 14:00;CYQF 261400Z 19004KT 10SM SCT280 11/09 A3024 RMK CS4 HZ SLP251

CYQF;2018-07-26 15:00;CYQF 261500Z 21004KT 10SM SCT280 14/10 A3024 RMK CI3 HZ SLP250 DENSITY ALT 3200FT

CYQF;2018-07-26 16:00;CYQF 261600Z 22004KT 170V260 10SM BKN280 16/11 A3024 RMK CI5 SLP250 DENSITY ALT 3400FT

CYQF;2018-07-26 17:00;CYQF 261700Z VRB03KT 12SM BKN280 18/11 A3022 RMK CI6 SLP243 DENSITY ALT 3800FT

CYQF;2018-07-26 18:00;CYQF 261800Z 18003KT 130V220 10SM FEW100 BKN280 20/11 A3022 RMK ACC1CI4 HZ SLP242 DENSITY ALT 4000FT

CYQF;2018-07-26 19:00;CYQF 261900Z 21005KT 150V270 10SM BKN090 BKN280 23/11 A3021 RMK AC5CI2 SLP236 DENSITY ALT 4300FT

CYQF;2018-07-26 19:43;CYQF 261943Z 30009KT 230V320 8SM FEW050 SCT090 BKN280 24/08 A3021 RMK CU2AC2CI3 WSHFT 1937 SLP235 DENSITY ALT 4400FT

CYQF;2018-07-26 20:00;CYQF 262000Z 29008KT 240V320 8SM SCT050TCU BKN090 BKN280 24/09 A3021 RMK TCU3AC2CI2 LTNG DIST SW SLP236 DENSITY ALT 4400FT

CYQF;2018-07-26 21:00;CYQF 262100Z 35004KT 310V040 8SM VCSH BKN060CB BKN100 23/09 A3020 RMK CB5AC2 LTNG SH OVR SYLVAN LAKE SLP234 DENSITY ALT 4400FT

CYQF;2018-07-26 21:14;CYQF 262114Z 31009KT 260V350 8SM TS VCSH BKN060CB BKN100 24/08 A3020 RMK CB5AC2 SLP233 DENSITY ALT 4400FT

CYQF;2018-07-26 21:49;CYQF 262149Z 28005KT 8SM VCSH SCT060CB BKN100 23/11 A3020 RMK CB4AC3 SLP236 DENSITY ALT 4300FT

CYQF;2018-07-26 22:00;CYQF 262200Z 28004KT 270V330 8SM VCSH SCT060CB BKN150 BKN270 22/09 A3020 RMK CB3AC2CI2 SLP235 DENSITY ALT 4200FT

CYQF;2018-07-26 23:00;CYQF 262300Z 36007KT 8SM SCT060CB BKN150 BKN270 23/12 A3020 RMK CB3AC2CI2 SLP236 DENSITY ALT 4200FT

CYQF;2018-07-27 00:00;CYQF 270000Z 36008KT 8SM SCT060TCU BKN270 23/10 A3019 RMK TCU3CI4 SLP233 DENSITY ALT 4300FT

CYQF;2018-07-27 01:00;CYQF 270100Z 34008KT 8SM FEW050TCU BKN270 22/10 A3019 RMK TCU2CI5 SLP231 DENSITY ALT 4200FT

CYQF;2018-07-27 02:00;CYQF 270200Z 03007KT 8SM FEW050TCU BKN250 20/12 A3019 RMK TCU2CI5 SLP233 DENSITY ALT 4000FT

CYQF;2018-07-27 03:00;CYQF 270300Z 08004KT 8SM FEW050TCU BKN250 17/12 A3020 RMK TCU1CI6 SLP237 DENSITY ALT 3600FT

CYQF;2018-07-27 04:00;CYQF 270400Z 14003KT 100V180 8SM FEW100 BKN250 14/11 A3022 RMK AC1CI4 SLP244 DENSITY ALT 3300FT

CYQF;2018-07-27 05:00;CYQF 270500Z 00000KT 12SM SCT270 13/11 A3023 RMK CI4 HZ SLP245 DENSITY ALT 3100FT

CYQF;2018-07-27 06:00;CYQF 270600Z 00000KT 15SM SKC 12/10 A3022 RMK SLP241 DENSITY ALT 3000FT

CYQF;2018-07-27 07:00;CYQF 270700Z 18003KT 180V290 15SM SKC 08/07 A3021 RMK SLP240

CYQF;2018-07-27 08:00;CYQF 270800Z 29002KT 12SM SCT270 10/09 A3020 RMK CI4 SLP234

CYQF;2018-07-27 09:00;CYQF 270900Z 23005KT 10SM MIFG SCT060 09/08 A3020 RMK SC4 SLP233

CYQF;2018-07-27 10:00;CYQF 271000Z 00000KT 10SM MIFG SCT060 08/07 A3020 RMK SC3 SLP238

CYQF;2018-07-27 11:00;CYQF 271100Z 22003KT 12SM SCT060 07/07 A3020 RMK SC3 SLP238

CYQF;2018-07-27 11:10;CYQF 271110Z 24005KT 3/4SM BR SKC 07/07 A3020 RMK FG5 SLP238

CYQF;2018-07-27 11:44;CYQF 271144Z 21004KT 2SM BR OVC060 07/06 A3020 RMK FG5SC3 SLP238

CYQF;2018-07-27 12:00;CYQF 271200Z 23003KT 3SM BR SCT060 07/06 A3020 RMK FG2SC2 SLP237

CYQF;2018-07-27 13:00;CYQF 271300Z 00000KT 3SM BR SCT060 07/07 A3020 RMK SC3 SLP239

CYQF;2018-07-27 14:00;CYQF 271400Z 18003KT 3SM BR SCT060 BKN280 08/08 A3021 RMK SC3CI2 VIS LWR S SLP242

CYQF;2018-07-27 15:00;CYQF 271500Z VRB02KT 4SM BR SCT060 12/11 A3021 RMK SC3 SLP242 DENSITY ALT 3000FT

CYQF;2018-07-27 16:00;CYQF 271600Z VRB02KT 5SM BR SCT060 17/13 A3020 RMK SC3 SLP237 DENSITY ALT 3600FT

CYQF;2018-07-27 17:00;CYQF 271700Z 09003KT 8SM SCT035 20/11 A3020 RMK CU3 HZ SLP234 DENSITY ALT 4000FT

CYQF;2018-07-27 18:00;CYQF 271800Z VRB03KT 8SM BKN054TCU 20/10 A3020 RMK TCU5 HZ SLP235 DENSITY ALT 4000FT

CYQF;2018-07-27 19:00;CYQF 271900Z 32005KT 8SM SCT048TCU BKN180 22/09 A3019 RMK TCU4AC1 HZ SLP233 DENSITY ALT 4200FT

CYQF;2018-07-27 20:00;CYQF 272000Z 22003KT 10SM SCT056TCU 22/08 A3018 RMK TCU4 HZ SLP228 DENSITY ALT 4300FT

CYQF;2018-07-27 21:00;CYQF 272100Z 30002KT 10SM SCT056TCU BKN160 24/09 A3018 RMK TCU4AC2 HZ SLP226 DENSITY ALT 4400FT

CYQF;2018-07-27 22:00;CYQF 272200Z 05002KT 10SM SCT060TCU BKN160 24/09 A3016 RMK TCU3AC2 HZ SLP222 DENSITY ALT 4400FT

CYQF;2018-07-27 23:00;CYQF 272300Z VRB02KT 10SM SCT060TCU BKN210 23/07 A3015 RMK TCU4CI2 HZ SLP220 DENSITY ALT 4400FT

CYQF;2018-07-28 00:00;CYQF 280000Z VRB02KT 10SM SCT060TCU BKN210 23/07 A3014 RMK TCU3CI2 SLP217 DENSITY ALT 4400FT

CYQF;2018-07-28 01:00;CYQF 280100Z VRB03KT 10SM FEW060TCU SCT210 23/08 A3014 RMK TCU2CI2 SLP215 DENSITY ALT 4400FT

CYQF;2018-07-28 02:00;CYQF 280200Z 09005KT 10SM FEW050TCU SCT210 22/08 A3014 RMK TCU1CI2 SLP216 DENSITY ALT 4200FT

CYQF;2018-07-28 03:00;CYQF 280300Z VRB02KT 10SM FEW100 SCT210 19/10 A3014 RMK AC1CI3 SLP215 DENSITY ALT 4000FT

CYQF;2018-07-28 04:00;CYQF 280400Z 15002KT 10SM FEW210 17/10 A3014 RMK CI2 SLP213 DENSITY ALT 3700FT

CYQF;2018-07-28 05:00;CYQF 280500Z VRB02KT 10SM FEW220 12/09 A3014 RMK CI2 HZ SLP213 DENSITY ALT 3100FT

CYQF;2018-07-28 06:00;CYQF 280600Z 20003KT 12SM SKC 13/10 A3014 RMK SLP212 DENSITY ALT 3200FT

CYQF;2018-07-28 07:00;CYQF 280700Z 21002KT 12SM SKC 11/10 A3014 RMK SLP211 DENSITY ALT 3000FT

CYQF;2018-07-28 08:00;CYQF 280800Z 00000KT 15SM MIFG SKC 10/10 A3013 RMK SLP210

CYQF;2018-07-28 09:00;CYQF 280900Z 22002KT 12SM MIFG SKC 10/09 A3012 RMK SLP207

CYQF;2018-07-28 10:00;CYQF 281000Z 20004KT 12SM MIFG SKC 08/07 A3013 RMK SLP210

CYQF;2018-07-28 11:00;CYQF 281100Z 19002KT 10SM MIFG SKC 07/07 A3012 RMK SLP210

CYQF;2018-07-28 12:00;CYQF 281200Z 18003KT 6SM BR SKC 07/06 A3012 RMK SLP211

CYQF;2018-07-28 13:00;CYQF 281300Z 23002KT 4SM BR SKC 08/07 A3013 RMK SLP212

CYQF;2018-07-28 14:00;CYQF 281400Z 20005KT 5SM BR SKC 12/10 A3013 RMK SLP210 DENSITY ALT 3100FT

CYQF;2018-07-28 15:00;CYQF 281500Z 22003KT 190V250 6SM BR SKC 14/11 A3014 RMK SLP211 DENSITY ALT 3400FT

CYQF;2018-07-28 16:00;CYQF 281600Z VRB03KT 8SM FEW250 18/12 A3013 RMK CI1 HZ SLP207 DENSITY ALT 3800FT

CYQF;2018-07-28 17:00;CYQF 281700Z 20006KT 150V220 8SM SKC 21/11 A3013 RMK SLP210 DENSITY ALT 4200FT

CYQF;2018-07-28 18:00;CYQF 281800Z 24003KT 160V290 10SM FEW064 23/07 A3013 RMK CU2 SLP205 DENSITY ALT 4400FT

CYQF;2018-07-28 19:00;CYQF 281900Z 22002KT 10SM FEW060 24/08 A3013 RMK CU1 SLP206 DENSITY ALT 4500FT

CYQF;2018-07-28 20:00;CYQF 282000Z VRB03KT 10SM SCT070 25/07 A3012 RMK CU3 SLP205 DENSITY ALT 4600FT

CYQF;2018-07-28 21:00;CYQF 282100Z VRB03KT 12SM SCT060 26/08 A3012 RMK CU3 SLP203 DENSITY ALT 4700FT

CYQF;2018-07-28 22:00;CYQF 282200Z VRB02KT 12SM SCT060 25/07 A3011 RMK CU3 SLP204 DENSITY ALT 4700FT

CYQF;2018-07-28 23:00;CYQF 282300Z 33003KT 280V060 12SM SCT060 26/08 A3011 RMK CU3 SLP204 DENSITY ALT 4700FT

CYQF;2018-07-29 00:00;CYQF 290000Z VRB04KT 12SM FEW060 26/06 A3011 RMK CU2 SLP203 DENSITY ALT 4700FT

CYQF;2018-07-29 01:00;CYQF 290100Z 35005KT 12SM FEW060 26/06 A3011 RMK CU1 SLP203 DENSITY ALT 4700FT

CYQF;2018-07-29 02:00;CYQF 290200Z 14004KT 090V160 12SM FEW070 24/10 A3012 RMK AC1 AC TR SLP202 DENSITY ALT 4500FT

CYQF;2018-07-29 03:00;CYQF 290300Z 09003KT 10SM FEW070 21/11 A3013 RMK AC1 AC TR SLP206 DENSITY ALT 4200FT

CYQF;2018-07-29 04:00;CYQF 290400Z 16003KT 090V190 12SM FEW210 18/09 A3014 RMK CI1 SLP211 DENSITY ALT 3700FT

CYQF;2018-07-29 05:00;CYQF 290500Z 19002KT 15SM FEW210 16/09 A3015 RMK CI1 SLP212 DENSITY ALT 3600FT

CYQF;2018-07-29 06:00;CYQF 290600Z 20003KT 15SM SKC 14/10 A3015 RMK SLP213 DENSITY ALT 3300FT

CYQF;2018-07-29 07:00;CYQF 290700Z 17002KT 15SM SKC 14/09 A3016 RMK SLP213 DENSITY ALT 3300FT

CYQF;2018-07-29 08:00;CYQF 290800Z 21004KT 15SM SKC 11/08 A3016 RMK SLP215

CYQF;2018-07-29 09:00;CYQF 290900Z 00000KT 15SM SKC 10/09 A3016 RMK SLP215

CYQF;2018-07-29 10:00;CYQF 291000Z 21002KT 15SM SKC 11/10 A3016 RMK SLP217 DENSITY ALT 3000FT

CYQF;2018-07-29 11:00;CYQF 291100Z 21004KT 15SM SKC 08/07 A3016 RMK SLP218

CYQF;2018-07-29 12:00;CYQF 291200Z 20004KT 8SM BCFG FEW250 08/07 A3016 RMK CI1 SLP220

CYQF;2018-07-29 13:00;CYQF 291300Z 22003KT 10SM FEW250 09/08 A3017 RMK CI1 HZ SLP222

CYQF;2018-07-29 14:00;CYQF 291400Z 19003KT 10SM FEW250 12/10 A3018 RMK CI2 SLP224 DENSITY ALT 3100FT

CYQF;2018-07-29 15:00;CYQF 291500Z 20004KT 10SM SCT250 15/11 A3019 RMK CI3 SLP226 DENSITY ALT 3400FT

CYQF;2018-07-29 16:00;CYQF 291600Z VRB02KT 10SM FEW250 19/12 A3018 RMK CI2 HZ SLP224 DENSITY ALT 3900FT

CYQF;2018-07-29 17:00;CYQF 291700Z VRB02KT 10SM SCT250 22/12 A3019 RMK CI4 HZ SLP223 DENSITY ALT 4200FT

CYQF;2018-07-29 18:00;CYQF 291800Z 22004KT 150V240 10SM SCT250 25/09 A3018 RMK CI4 HZ SLP221 DENSITY ALT 4500FT

CYQF;2018-07-29 19:00;CYQF 291900Z 09003KT 050V180 10SM SCT250 26/10 A3018 RMK CI3 HZ SLP218 DENSITY ALT 4700FT

CYQF;2018-07-29 20:00;CYQF 292000Z 00000KT 12SM SCT250 27/04 A3018 RMK CI3 SLP220 DENSITY ALT 4800FT

CYQF;2018-07-29 21:00;CYQF 292100Z 20003KT 130V270 15SM BKN280 28/08 A3018 RMK CI6 SLP221 DENSITY ALT 4800FT

CYQF;2018-07-29 22:00;CYQF 292200Z 35004KT 260V030 15SM FEW070 BKN250 29/06 A3017 RMK CU1CI5 CU TR SLP217 DENSITY ALT 4900FT

CYQF;2018-07-29 23:00;CYQF 292300Z 36004KT 320V040 12SM SCT250 28/05 A3017 RMK CI3 SLP218 DENSITY ALT 4900FT

CYQF;2018-07-30 00:00;CYQF 300000Z VRB02KT 12SM FEW250 28/05 A3016 RMK CI1 SLP216 DENSITY ALT 4900FT

CYQF;2018-07-30 01:00;CYQF 300100Z 07003KT 020V110 10SM SCT280 27/10 A3015 RMK CI4 SLP211 DENSITY ALT 4800FT

CYQF;2018-07-30 02:00;CYQF 300200Z 16003KT 10SM FEW250 26/11 A3013 RMK CI2 SLP205 DENSITY ALT 4700FT

CYQF;2018-07-30 03:00;CYQF 300300Z 17003KT 10SM SCT280 23/11 A3014 RMK CI4 HZ SLP207 DENSITY ALT 4300FT

CYQF;2018-07-30 04:00;CYQF 300400Z 20004KT 8SM SCT280 18/11 A3015 RMK CI4 HZ SLP211 DENSITY ALT 3800FT

CYQF;2018-07-30 05:00;CYQF 300500Z 20005KT 15SM SCT280 16/11 A3015 RMK CI4 SLP212 DENSITY ALT 3500FT

CYQF;2018-07-30 06:00;CYQF 300600Z 19003KT 15SM SCT250 13/10 A3016 RMK CI3 SLP213 DENSITY ALT 3200FT

CYQF;2018-07-30 07:00;CYQF 300700Z 00000KT 15SM SCT250 13/10 A3016 RMK CI3 SLP212 DENSITY ALT 3200FT

CYQF;2018-07-30 08:00;CYQF 300800Z 17004KT 15SM SCT260 11/09 A3016 RMK CI3 SLP213 DENSITY ALT 3000FT

CYQF;2018-07-30 09:00;CYQF 300900Z 20005KT 15SM SCT250 10/08 A3015 RMK CI3 SLP210

CYQF;2018-07-30 10:00;CYQF 301000Z 21005KT 15SM FEW250 10/08 A3014 RMK CI2 SLP207

CYQF;2018-07-30 11:00;CYQF 301100Z 22004KT 15SM FEW230 10/08 A3014 RMK CI1 SLP207

CYQF;2018-07-30 12:00;CYQF 301200Z 20005KT 12SM FEW230 09/08 A3012 RMK CI1 SLP203

CYQF;2018-07-30 13:00;CYQF 301300Z 21003KT 12SM SKC 11/09 A3012 RMK SLP200 DENSITY ALT 3000FT

CYQF;2018-07-30 14:00;CYQF 301400Z VRB02KT 12SM SKC 14/11 A3011 RMK SLP194 DENSITY ALT 3400FT

CYQF;2018-07-30 15:00;CYQF 301500Z VRB02KT 10SM SKC 18/13 A3010 RMK HZ SLP192 DENSITY ALT 3800FT

CYQF;2018-07-30 16:00;CYQF 301600Z 22003KT 190V260 8SM SKC 21/13 A3010 RMK SLP190 DENSITY ALT 4200FT

CYQF;2018-07-30 17:00;CYQF 301700Z 18004KT 160V230 8SM FEW080 25/14 A3008 RMK AC1 AC TR HZ SLP185 DENSITY ALT 4600FT

CYQF;2018-07-30 18:00;CYQF 301800Z 26008KT 200V320 8SM FEW080 27/13 A3007 RMK AC1 HZ SLP182 DENSITY ALT 4800FT

CYQF;2018-07-30 19:00;CYQF 301900Z 27004KT 230V350 8SM FEW060TCU 29/13 A3007 RMK TCU1 TCU TR CB DIST SW SLP178 DENSITY ALT 5100FT

CYQF;2018-07-30 20:00;CYQF 302000Z 34009KT 8SM FEW060TCU 31/12 A3007 RMK TCU1 TCU TR HZ SLP178 DENSITY ALT 5300FT

CYQF;2018-07-30 21:00;CYQF 302100Z 34009KT 310V030 8SM FEW072TCU BKN310 31/12 A3006 RMK TCU1CI5 HZ SLP178 DENSITY ALT 5300FT

CYQF;2018-07-30 22:00;CYQF 302200Z 36010G19KT 8SM FEW070 30/14 A3006 RMK CU1 SLP179 DENSITY ALT 5200FT

CYQF;2018-07-30 23:00;CYQF 302300Z 36011KT 320V030 10SM BKN310 29/15 A3007 RMK CI7 FU SLP184 DENSITY ALT 5100FT

CYQF;2018-07-31 00:00;CYQF 310000Z 36013G19KT 8SM FEW040 SCT160 BKN250 26/13 A3010 RMK CU1AC3CI3 HZ SLP197 DENSITY ALT 4700FT

CYQF;2018-07-31 01:00;CYQF 310100Z 34012G18KT 8SM VCSH FEW050CB BKN110 BKN300 24/15 A3014 RMK CB2AC3CI2 FU SLP213 DENSITY ALT 4400FT

CYQF;2018-07-31 01:09;CYQF 310109Z 32010G15KT 8SM TS VCSH BKN040CB OVC110 24/15 A3015 RMK CB5ACC3 FU FQT LTGCG N SLP215 DENSITY ALT 4400FT

CYQF;2018-07-31 01:19;CYQF 310119Z 30010G18KT 10SM -TSRA BKN040CB OVC110 24/16 A3015 RMK CB6ACC2 FQT LTG N SLP216 DENSITY ALT 4400FT

CYQF;2018-07-31 02:00;CYQF 310200Z 00000KT 10SM -TSRA BKN040CB OVC100 20/15 A3017 RMK CB5AC3 SLP222 DENSITY ALT 4000FT

CYQF;2018-07-31 02:29;CYQF 310229Z 22011KT 200V260 12SM -SHRA SCT040CB OVC100 18/15 A3017 RMK CB4AC4 SLP223 DENSITY ALT 3700FT

CYQF;2018-07-31 03:00;CYQF 310300Z 25005KT 12SM -SHRA FEW040CB BKN120 OVC290 17/15 A3016 RMK CB2AC4CI2 SLP217 DENSITY ALT 3700FT

CYQF;2018-07-31 03:19;CYQF 310319Z 31007KT 12SM VCSH SCT040CB BKN120 BKN290 17/14 A3018 RMK CB3AC3CI1 SLP223 DENSITY ALT 3600FT

CYQF;2018-07-31 04:00;CYQF 310400Z 35005KT 330V030 12SM FEW040 BKN120 OVC290 16/14 A3020 RMK CU1AC5CI2 PRESRR SLP228 DENSITY ALT 3500FT

CYQF;2018-07-31 05:00;CYQF 310500Z 36010KT 12SM -SHRA BKN050 OVC120 18/14 A3022 RMK SC6AC2 SLP229 DENSITY ALT 3700FT

CYQF;2018-07-31 06:00;CYQF 310600Z 05004KT 15SM FEW050 SCT120 15/13 A3020 RMK SC2AC1 SLP224 DENSITY ALT 3300FT

CYQF;2018-07-31 07:00;CYQF 310700Z 22005KT 210V280 15SM BKN100 14/12 A3020 RMK AC5 SLP225 DENSITY ALT 3200FT

CYQF;2018-07-31 08:00;CYQF 310800Z 00000KT 15SM FEW100 13/12 A3021 RMK AC1 SLP226 DENSITY ALT 3100FT

CYQF;2018-07-31 09:00;CYQF 310900Z 07002KT 15SM SCT120 12/11 A3020 RMK AC4 SLP222 DENSITY ALT 3000FT

CYQF;2018-07-31 10:00;CYQF 311000Z 24003KT 15SM SCT120 12/12 A3021 RMK AC3 SLP228 DENSITY ALT 3100FT

CYQF;2018-07-31 10:44;CYQF 311044Z 21006KT 8SM BCFG FEW002 SCT120 11/11 A3020 RMK ST1AC3 SLP227

CYQF;2018-07-31 11:00;CYQF 311100Z 22002KT 8SM VCFG FEW002 SCT120 12/11 A3020 RMK SF1AC2 VIS S-SE 2 SLP228 DENSITY ALT 3000FT

CYQF;2018-07-31 11:24;CYQF 311124Z 18003KT 1/4SM FG FEW002 SCT120 10/10 A3021 RMK FG1ST1AC2 SLP231

CYQF;2018-07-31 11:29;CYQF 311129Z 18003KT 1/2SM FG FEW002 SCT120 09/09 A3021 RMK FG1ST1AC1 SLP231

CYQF;2018-07-31 11:33;CYQF 311133Z 18003KT 3/4SM BR FEW002 SCT120 10/10 A3021 RMK FG1SF1AC1 SLP231

CYQF;2018-07-31 11:37;CYQF 311137Z 18003KT 3SM BR FEW001 FEW120 10/10 A3021 RMK ST1AC1 VIS SE-NW 3/4 SLP231

CYQF;2018-07-31 12:00;CYQF 311200Z 16003KT 3SM BR FEW002 FEW120 10/10 A3021 RMK SF1AC1 SF TR VIS S-NW 1 SLP234

CYQF;2018-07-31 12:36;CYQF 311236Z 15003KT 4SM BR FEW002 BKN017 10/10 A3021 RMK SF1SC6 SF TR SLP234

CYQF;2018-07-31 13:00;CYQF 311300Z 00000KT 8SM MIFG BKN018 10/10 A3021 RMK SC5 SLP236

CYQF;2018-07-31 14:00;CYQF 311400Z 15002KT 12SM FEW020 14/13 A3021 RMK SC1 SLP236 DENSITY ALT 3300FT

CYQF;2018-07-31 15:00;CYQF 311500Z 15009KT 12SM FEW020 17/15 A3020 RMK CU1 SLP233 DENSITY ALT 3700FT

CYQF;2018-07-31 16:00;CYQF 311600Z 18008KT 130V190 12SM SCT020 20/15 A3020 RMK CU4 SLP230 DENSITY ALT 4000FT

CYQF;2018-07-31 17:00;CYQF 311700Z 17007KT 12SM SCT020 21/15 A3019 RMK CU3 SLP223 DENSITY ALT 4100FT

CYQF;2018-07-31 18:00;CYQF 311800Z 19008KT 12SM SCT030 BKN120 22/13 A3020 RMK CU3AC3 SLP228 DENSITY ALT 4200FT

CYQF;2018-07-31 19:00;CYQF 311900Z 17009G16KT 120V180 12SM SCT036 BKN120 OVC250 22/14 A3017 RMK CU3AC3CI2 PRESFR SLP220 DENSITY ALT 4300FT

CYQF;2018-07-31 20:00;CYQF 312000Z 15010KT 12SM SCT040 BKN120 BKN220 24/14 A3015 RMK CU3AC2CI1 SLP212 DENSITY ALT 4500FT

CYQF;2018-07-31 21:00;CYQF 312100Z 18010G16KT 130V200 12SM SCT044 BKN220 25/14 A3014 RMK CU4CI1 SLP208 DENSITY ALT 4500FT

CYQF;2018-07-31 22:00;CYQF 312200Z 15008G19KT 12SM SCT050 BKN220 25/15 A3011 RMK CU3CI2 SLP197 DENSITY ALT 4700FT

CYQF;2018-07-31 23:00;CYQF 312300Z 15011G17KT 12SM FEW050 BKN270 26/13 A3010 RMK CU2CI4 SLP193 DENSITY ALT 4700FT

CYQF;2018-08-01 00:00;CYQF 010000Z 18010G18KT 130V190 12SM SCT048 BKN270 26/14 A3009 RMK CU3CI4 SLP191 DENSITY ALT 4800FT

CYQF;2018-08-01 01:00;CYQF 010100Z 15011G17KT 12SM FEW040 SCT180 BKN270 25/14 A3005 RMK CU1AC3CI2 CU TR SLP180 DENSITY ALT 4700FT

CYQF;2018-08-01 02:00;CYQF 010200Z 13007KT 10SM FEW040 SCT160 BKN270 22/15 A3004 RMK SC1AC2CI4 FU SLP175 DENSITY ALT 4400FT

CYQF;2018-08-01 03:00;CYQF 010300Z CCA 14007KT 10SM FEW040 SCT180 BKN270 20/15 A3003 RMK SC1AC4CI2 SC TR FU SLP169 DENSITY ALT 4200FT

CYQF;2018-08-01 04:00;CYQF 010400Z 11003KT 12SM SCT120 BKN270 19/14 A3004 RMK AS4CI3 FU CB TOP DIST W OCNL LTGCG DIST W SLP171 DENSITY ALT 4000FT

CYQF;2018-08-01 05:00;CYQF 010500Z 23006KT 12SM BKN120 18/14 A3007 RMK AC7 OCNL LTGCG SW-W SLP182 DENSITY ALT 3900FT

CYQF;2018-08-01 06:00;CYQF 010600Z 27008KT 12SM VCSH BKN100 19/14 A3009 RMK AC7 SLP187 DENSITY ALT 3900FT

CYQF;2018-08-01 07:00;CYQF 010700Z 18010KT 12SM BKN120 17/14 A3002 RMK AC7 PRESFR SLP165 DENSITY ALT 3800FT

CYQF;2018-08-01 08:00;CYQF 010800Z 17013G19KT 15SM BKN250 18/13 A2999 RMK CI7 SLP150 DENSITY ALT 3900FT

CYQF;2018-08-01 09:00;CYQF 010900Z 17012G18KT 15SM BKN160 18/12 A2998 RMK AC7 SLP148 DENSITY ALT 3900FT

CYQF;2018-08-01 10:00;CYQF 011000Z 20008KT 15SM BKN130 17/13 A3000 RMK AC6 OCNL LTGIC S SLP156 DENSITY ALT 3900FT

CYQF;2018-08-01 11:00;CYQF 011100Z 20006KT 15SM BKN120 17/13 A2997 RMK AC6 SLP142 DENSITY ALT 3900FT

CYQF;2018-08-01 11:15;CYQF 011115Z 17006KT 160V310 12SM -RA BKN100 OVC260 17/14 A2996 RMK AC6CI2 SLP139 DENSITY ALT 3900FT

CYQF;2018-08-01 11:46;CYQF 011146Z 19007KT 160V230 12SM BKN100 OVC260 17/14 A2996 RMK AS6CS2 SLP140 DENSITY ALT 3900FT

CYQF;2018-08-01 12:00;CYQF 011200Z 22006G17KT 12SM FEW080 BKN140 OVC260 17/13 A2998 RMK AC1AS4CS3 PRESRR SLP148 DENSITY ALT 3800FT

CYQF;2018-08-01 13:00;CYQF 011300Z 15006KT 140V240 12SM FEW080 BKN140 OVC260 15/14 A2995 RMK AC2AS4CI2 PRESFR SLP140 DENSITY ALT 3700FT

CYQF;2018-08-01 14:00;CYQF 011400Z 15008KT 12SM FEW100 BKN140 16/14 A2992 RMK AC2AS3 SLP132 DENSITY ALT 3800FT

CYQF;2018-08-01 15:00;CYQF 011500Z 19006KT 12SM SCT250 19/14 A2992 RMK CI4 SLP132 DENSITY ALT 4100FT

CYQF;2018-08-01 16:00;CYQF 011600Z 20009KT 8SM FEW250 22/13 A2991 RMK CI2 SLP125 DENSITY ALT 4500FT

CYQF;2018-08-01 17:00;CYQF 011700Z 19009KT 8SM FEW250 24/12 A2990 RMK CI2 SLP120 DENSITY ALT 4700FT

CYQF;2018-08-01 18:00;CYQF 011800Z 20005KT 8SM SCT250 25/14 A2989 RMK CI3 SLP116 DENSITY ALT 4800FT

CYQF;2018-08-01 19:00;CYQF 011900Z 19007KT 130V210 8SM FEW060 SCT250 26/13 A2987 RMK CU1CI3 SLP108 DENSITY ALT 5000FT

CYQF;2018-08-01 20:00;CYQF 012000Z VRB02KT 8SM FEW068 SCT100 BKN310 28/11 A2986 RMK CU1ACC3CI3 HZ SLP101 DENSITY ALT 5300FT

CYQF;2018-08-01 21:00;CYQF 012100Z 00000KT 8SM SCT120 BKN280 27/12 A2984 RMK ACC3CI3 SLP096 DENSITY ALT 5100FT

CYQF;2018-08-01 22:00;CYQF 012200Z 01005KT 310V020 8SM FEW060CB SCT120 BKN200 28/12 A2983 RMK CB2AC2CI3 HZ SLP092 DENSITY ALT 5300FT

CYQF;2018-08-01 23:00;CYQF 012300Z 36005KT 8SM FEW060CB OVC230 26/14 A2981 RMK CB2CI6 HZ SLP088 DENSITY ALT 5100FT

CYQF;2018-08-01 23:47;CYQF 012347Z 32006KT 8SM TS VCSH SCT060CB BKN120 OVC230 24/14 A2983 RMK CB3ACC2CI3 HZ SLP098 DENSITY ALT 4800FT

CYQF;2018-08-02 00:11;CYQF 020011Z 36007KT 6SM HZ VCSH FEW060CB BKN140 OVC230 24/13 A2982 RMK CB2ACC4CI2 SLP094 DENSITY ALT 4900FT

CYQF;2018-08-02 01:00;CYQF 020100Z 36012G20KT 8SM VCSH FEW050CB BKN100 BKN230 24/10 A2983 RMK CB2ACC4CI1 SLP098 DENSITY ALT 4800FT

CYQF;2018-08-02 02:00;CYQF 020200Z 04008KT 10SM FEW040CB BKN110 BKN270 22/09 A2980 RMK CB1AC4CI1 HZ SLP091 DENSITY ALT 4600FT

CYQF;2018-08-02 02:23;CYQF 020223Z 34004KT 10SM TS SCT040CB BKN110 20/10 A2980 RMK CB4ACC3 HZ SLP090 DENSITY ALT 4500FT

CYQF;2018-08-02 02:39;CYQF 020239Z 23005KT 10SM -TSRA SCT040CB BKN110 20/11 A2983 RMK CB4ACC3 PRESRR SLP101 DENSITY ALT 4400FT

CYQF;2018-08-02 03:00;CYQF 020300Z VRB06KT 10SM -TSRA SCT045CB BKN110 18/13 A2980 RMK CB3ACC4 SLP093 DENSITY ALT 4200FT

CYQF;2018-08-02 03:13;CYQF 020313Z 33006KT 320V030 12SM VCSH FEW045CB BKN110 17/13 A2980 RMK CB2ACC5 SLP094 DENSITY ALT 4100FT

CYQF;2018-08-02 04:00;CYQF 020400Z 20008KT 190V330 12SM TS VCSH SCT045CB OVC110 17/12 A2983 RMK CB3ACC5 OCNL LTGCC SW OCNL LTGCG N PRESRR SLP101 DENSITY ALT 4100FT

CYQF;2018-08-02 04:19;CYQF 020419Z 28006KT 210V290 15SM -TSRA SCT045CB OVC110 18/11 A2985 RMK CB3ACC5 OCNL LTGCG SW AND N SLP106 DENSITY ALT 4200FT

CYQF;2018-08-02 05:00;CYQF 020500Z 29009KT 240V300 12SM -SHRA SCT040CB OVC080 16/13 A2988 RMK CB3AC5 SLP114 DENSITY ALT 3900FT

CYQF;2018-08-02 06:00;CYQF 020600Z 01008KT 15SM -SHRA FEW040 BKN120 15/14 A2985 RMK CU2AC5 SLP106 DENSITY ALT 3800FT

CYQF;2018-08-02 06:17;CYQF 020617Z 35007KT 15SM BKN120 15/13 A2987 RMK AC5 SLP111 DENSITY ALT 3800FT

CYQF;2018-08-02 07:00;CYQF 020700Z 33005KT 15SM BKN120 14/12 A2988 RMK AC5 SLP115 DENSITY ALT 3700FT

CYQF;2018-08-02 08:00;CYQF 020800Z 34005KT 12SM BKN140 12/10 A2986 RMK AC6 SLP108 DENSITY ALT 3400FT

CYQF;2018-08-02 09:00;CYQF 020900Z 27006KT 12SM BKN120 12/10 A2988 RMK AC5 SLP117 DENSITY ALT 3400FT

CYQF;2018-08-02 10:00;CYQF 021000Z 26002KT 12SM BKN140 11/10 A2986 RMK AC5 SLP111 DENSITY ALT 3200FT

CYQF;2018-08-02 11:00;CYQF 021100Z 24003KT 170V250 12SM MIFG FEW040 SCT120 10/09 A2986 RMK SC1AC2 SLP113 DENSITY ALT 3200FT

CYQF;2018-08-02 12:00;CYQF 021200Z 20005KT 10SM MIFG FEW040 SCT120 09/08 A2985 RMK SC1AC3 SLP113 DENSITY ALT 3000FT

CYQF;2018-08-02 12:45;CYQF 021245Z VRB02KT 1/2SM FG FEW040 SCT120 09/09 A2986 RMK SC1AC3 SC TR VIS NW -N 4 SLP117 DENSITY ALT 3100FT

CYQF;2018-08-02 13:00;CYQF 021300Z 21003KT 1SM BR FEW003 SCT120 09/09 A2987 RMK ST1AC3 VIS SE-S 1/2 SLP118 DENSITY ALT 3100FT

CYQF;2018-08-02 13:12;CYQF 021312Z 21004KT 3SM BR FEW100 11/10 A2987 RMK AC2 VIS E-S 1 SLP118 DENSITY ALT 3200FT

CYQF;2018-08-02 13:36;CYQF 021336Z 19003KT 1 1/2SM BR SCT100 11/11 A2987 RMK AC3 SLP116 DENSITY ALT 3300FT

CYQF;2018-08-02 13:54;CYQF 021354Z 25003KT 200V270 3/4SM BR FEW001 SCT100 12/12 A2987 RMK SF1AC2 SLP115 DENSITY ALT 3400FT

CYQF;2018-08-02 14:00;CYQF 021400Z 25003KT 3/4SM BR FEW001 SCT100 12/12 A2987 RMK SF1AC2 SLP117 DENSITY ALT 3400FT

CYQF;2018-08-02 14:13;CYQF 021413Z VRB02KT 6SM BR SCT120 13/13 A2987 RMK AC3 VIS S 1 SLP116 DENSITY ALT 3500FT

CYQF;2018-08-02 15:00;CYQF 021500Z VRB02KT 10SM FEW150 SCT250 15/12 A2986 RMK ACC2CI2 SLP117 DENSITY ALT 3700FT

CYQF;2018-08-02 16:00;CYQF 021600Z VRB02KT 10SM FEW150 BKN250 17/13 A2986 RMK ACC1CI6 SLP114 DENSITY ALT 4000FT

CYQF;2018-08-02 17:00;CYQF 021700Z 20003KT 12SM FEW030 BKN250 19/13 A2985 RMK CU1CI4 SLP111 DENSITY ALT 4200FT

CYQF;2018-08-02 18:00;CYQF 021800Z VRB04KT 12SM FEW030 BKN250 20/12 A2985 RMK CU1CI5 CU TR SLP109 DENSITY ALT 4400FT

CYQF;2018-08-02 19:00;CYQF 021900Z 00000KT 12SM FEW045 SCT150 22/09 A2982 RMK CU1AC2 SLP098 DENSITY ALT 4600FT

CYQF;2018-08-02 20:00;CYQF 022000Z 19002KT 12SM FEW050CB FEW250 23/09 A2981 RMK CB1CI1 SLP097 DENSITY ALT 4700FT

CYQF;2018-08-02 21:00;CYQF 022100Z VRB03KT 12SM FEW050CB SCT150 BKN250 24/10 A2980 RMK CB1AC3CI2 SLP094 DENSITY ALT 4900FT

CYQF;2018-08-02 22:00;CYQF 022200Z 08003KT 050V200 12SM FEW044CB SCT150 BKN250 24/12 A2978 RMK CB2AC2CI2 SLP086 DENSITY ALT 4900FT

CYQF;2018-08-02 23:00;CYQF 022300Z 04005KT 12SM VCSH SCT044CB BKN140 OVC250 23/12 A2976 RMK CB4AC2CI2 SLP083 DENSITY ALT 4700FT

CYQF;2018-08-03 00:00;CYQF 030000Z 36005KT 340V050 12SM VCSH FEW040CB BKN140 BKN260 23/13 A2975 RMK CB2AC3CI2 SLP079 DENSITY ALT 4800FT

CYQF;2018-08-03 00:44;CYQF 030044Z 30016G23KT 12SM TS SCT060CB BKN130 19/08 A2978 RMK CB3AC4 OCNL LTGCG SW + N SLP093 DENSITY ALT 4300FT

CYQF;2018-08-03 01:00;CYQF 030100Z 29015G20KT 8SM -TSRA BKN060CB OVC130 17/09 A2978 RMK CB5AC3 SLP095 DENSITY ALT 4100FT

CYQF;2018-08-03 01:56;CYQF 030156Z 24013G20KT 12SM -SHRA BKN065CB BKN130 18/07 A2977 RMK CB5AC2 PRESFR SLP090 DENSITY ALT 4200FT

CYQF;2018-08-03 02:00;CYQF 030200Z 29010G21KT 200V350 12SM -SHRA BKN060CB BKN130 19/08 A2975 RMK CB5AC2 PRESFR SLP081 DENSITY ALT 4300FT

CYQF;2018-08-03 02:20;CYQF 030220Z 01007G26KT 15SM BKN060CB BKN140 14/11 A2973 RMK CB5AC2 PRESRR SLP079 DENSITY ALT 3800FT

CYQF;2018-08-03 03:00;CYQF 030300Z 30009G16KT 15SM SCT060CB BKN160 15/10 A2979 RMK CB3AC4 PRESRR SLP096 DENSITY ALT 3800FT

CYQF;2018-08-03 04:00;CYQF 030400Z 04002KT 15SM FEW060CB BKN100 14/12 A2979 RMK CB2AC5 SLP092 DENSITY ALT 3800FT

CYQF;2018-08-03 05:00;CYQF 030500Z 15002KT 15SM FEW060 BKN120 14/12 A2978 RMK SC2AC5 SLP089 DENSITY ALT 3700FT

CYQF;2018-08-03 06:00;CYQF 030600Z 23006KT 15SM BKN110 13/12 A2980 RMK AC7 SLP093 DENSITY ALT 3600FT

CYQF;2018-08-03 07:00;CYQF 030700Z 24007KT 15SM BKN100 14/12 A2979 RMK AC7 SLP088 DENSITY ALT 3800FT

CYQF;2018-08-03 08:00;CYQF 030800Z 20006KT 15SM SCT100 11/11 A2977 RMK AC3 SLP082 DENSITY ALT 3500FT

CYQF;2018-08-03 09:00;CYQF 030900Z 19005KT 15SM SCT100 10/10 A2976 RMK AC3 SLP081 DENSITY ALT 3300FT

CYQF;2018-08-03 10:00;CYQF 031000Z 24004KT 15SM SCT100 11/10 A2976 RMK AC3 SLP080 DENSITY ALT 3400FT

CYQF;2018-08-03 11:00;CYQF 031100Z 00000KT 15SM SCT100 09/09 A2975 RMK AC3 SLP080 DENSITY ALT 3200FT

CYQF;2018-08-03 12:00;CYQF 031200Z 22004KT 10SM MIFG SCT140 08/08 A2975 RMK AC3 SLP080 DENSITY ALT 3100FT

CYQF;2018-08-03 13:00;CYQF 031300Z 21003KT 10SM BCFG SCT140 BKN250 09/09 A2976 RMK AC4CI2 SLP088 DENSITY ALT 3200FT

CYQF;2018-08-03 14:00;CYQF 031400Z 23005KT 10SM BKN140 12/11 A2976 RMK AC6 SLP084 DENSITY ALT 3600FT

CYQF;2018-08-03 15:00;CYQF 031500Z 24002KT 12SM BKN140 16/13 A2976 RMK AC6 SLP085 DENSITY ALT 4000FT

CYQF;2018-08-03 16:00;CYQF 031600Z VRB02KT 12SM SCT090 BKN140 BKN250 18/11 A2976 RMK AC3AC3CI1 SLP083 DENSITY ALT 4200FT

CYQF;2018-08-03 17:00;CYQF 031700Z 34008KT 12SM SCT100 BKN140 BKN250 21/10 A2976 RMK AC3AC2CI2 HZ SLP081 DENSITY ALT 4500FT

CYQF;2018-08-03 18:00;CYQF 031800Z 35006KT 320V050 10SM FEW100 SCT140 21/09 A2977 RMK ACC2AC2 SLP083 DENSITY ALT 4600FT

CYQF;2018-08-03 19:00;CYQF 031900Z 01007KT 310V020 10SM FEW040 SCT080 BKN140 OVC250 22/10 A2977 RMK CU2AC2AC3CI1 SLP083 DENSITY ALT 4600FT

CYQF;2018-08-03 20:00;CYQF 032000Z 35005KT 290V020 8SM SCT040 BKN250 22/09 A2978 RMK CU4CI1 SLP086 DENSITY ALT 4700FT

CYQF;2018-08-03 21:00;CYQF 032100Z 35010KT 300V010 5SM HZ SCT050 BKN250 23/10 A2978 RMK CU3CI3 SLP087 DENSITY ALT 4800FT

CYQF;2018-08-03 22:00;CYQF 032200Z 32009G15KT 290V350 6SM HZ SCT048TCU BKN130 BKN250 22/10 A2978 RMK TCU3AC3CI1 SLP089 DENSITY ALT 4600FT

CYQF;2018-08-03 23:00;CYQF 032300Z 32005G15KT 6SM HZ FEW040TCU BKN120 BKN250 23/10 A2978 RMK TCU2AC4CI1 SLP090 DENSITY ALT 4700FT

CYQF;2018-08-04 00:00;CYQF 040000Z 35006KT 320V040 6SM HZ FEW040TCU BKN120 BKN250 22/10 A2979 RMK TCU2AC4CI1 SLP095 DENSITY ALT 4600FT

CYQF;2018-08-04 00:53;CYQF 040053Z 30016KT 290V040 6SM -SHRA BKN040CB BKN120 19/10 A2981 RMK CB5AC2 PRESRR SLP106 DENSITY ALT 4300FT

CYQF;2018-08-04 01:00;CYQF 040100Z 32013G23KT 6SM -SHRA BKN040CB BKN120 15/11 A2982 RMK CB5AC2 PRESRR SLP114 DENSITY ALT 3800FT

CYQF;2018-08-04 02:02;CYQF 040202Z 23003KT 220V300 8SM FEW040CB BKN080 16/13 A2981 RMK CB2AC4 OCNL LTGIC E SLP104 DENSITY ALT 3900FT

CYQF;2018-08-04 03:00;CYQF 040300Z 27004KT 10SM BKN090 BKN110 16/11 A2982 RMK AC5AC2 SLP103 DENSITY ALT 3900FT

CYQF;2018-08-04 04:00;CYQF 040400Z 28005KT 10SM BKN100 BKN150 15/11 A2984 RMK AC5AC2 SLP109 DENSITY ALT 3800FT

CYQF;2018-08-04 05:00;CYQF 040500Z 28007KT 12SM BKN080 OVC150 15/11 A2985 RMK AC6AC2 SLP111 DENSITY ALT 3800FT

CYQF;2018-08-04 06:00;CYQF 040600Z 29007KT 15SM OVC100 15/11 A2986 RMK AC8 SLP112 DENSITY ALT 3800FT

CYQF;2018-08-04 07:00;CYQF 040700Z 30007KT 15SM SCT040 OVC120 15/10 A2987 RMK SC3AC5 SLP116 DENSITY ALT 3800FT

CYQF;2018-08-04 08:00;CYQF 040800Z 30009KT 15SM OVC040 15/10 A2987 RMK SC8 SLP116 DENSITY ALT 3700FT

CYQF;2018-08-04 09:00;CYQF 040900Z 32011KT 15SM OVC040 16/10 A2988 RMK SC8 SLP115 DENSITY ALT 3800FT

CYQF;2018-08-04 10:00;CYQF 041000Z 31009KT 15SM SCT040 OVC100 15/09 A2989 RMK SC4AC4 SLP122 DENSITY ALT 3800FT

CYQF;2018-08-04 11:00;CYQF 041100Z 29005KT 15SM BKN050 14/09 A2989 RMK SC7 SLP122 DENSITY ALT 3600FT

CYQF;2018-08-04 12:00;CYQF 041200Z 28004KT 15SM SCT060 BKN120 12/09 A2989 RMK SC4AC3 SLP126 DENSITY ALT 3400FT

CYQF;2018-08-04 13:00;CYQF 041300Z 30007KT 15SM BKN065 OVC120 14/09 A2990 RMK SC6AC2 SLP135 DENSITY ALT 3600FT

CYQF;2018-08-04 14:00;CYQF 041400Z 29010G15KT 15SM BKN048 OVC080 14/09 A2991 RMK SC5AC3 SLP137 DENSITY ALT 3600FT

CYQF;2018-08-04 14:49;CYQF 041449Z 33014G19KT 15SM -SHRA BKN050 OVC080 15/10 A2993 RMK SC5AC3 CVCTV CLD EMBD SLP144 DENSITY ALT 3600FT

CYQF;2018-08-04 15:00;CYQF 041500Z 31011G18KT 10SM -SHRA BKN050 OVC080 14/11 A2993 RMK SC6AC2 CVCTV CLD EMBD SLP144 DENSITY ALT 3600FT

CYQF;2018-08-04 16:00;CYQF 041600Z 30008KT 10SM -SHRA OVC065 13/11 A2994 RMK SC8 CVCTV CLD EMBD SLP149 DENSITY ALT 3500FT

CYQF;2018-08-04 17:00;CYQF 041700Z 31009KT 10SM -SHRA FEW020 OVC065 14/11 A2996 RMK SC2SC6 CVCTV CLD EMBD SLP154 DENSITY ALT 3500FT

CYQF;2018-08-04 18:00;CYQF 041800Z 32007G15KT 8SM -SHRA FEW030 OVC065 14/12 A2997 RMK SC2SC6 CVCTV CLD EMBD SLP157 DENSITY ALT 3500FT

CYQF;2018-08-04 19:00;CYQF 041900Z 29008KT 6SM -SHRA BR OVC065 13/12 A2997 RMK SC8 SLP159 DENSITY ALT 3400FT

CYQF;2018-08-04 20:00;CYQF 042000Z CCA 29008KT 10SM -SHRA BKN060 OVC090 14/12 A2997 RMK SC5AC3 CVCTV CLD EMBD SLP159 DENSITY ALT 3600FT

CYQF;2018-08-04 20:32;CYQF 042032Z 28007KT 12SM VCSH FEW020 SCT060 OVC080 15/13 A2997 RMK CU1SC3AC5 CU TR SLP157 DENSITY ALT 3700FT

CYQF;2018-08-04 21:00;CYQF 042100Z 30006KT 12SM VCSH FEW020 SCT050 OVC080 16/13 A2998 RMK CU1SC3AC5 CU TR SLP158 DENSITY ALT 3700FT

CYQF;2018-08-04 22:00;CYQF 042200Z 34008KT 15SM FEW020 BKN064 OVC080 16/12 A2999 RMK CF1SC6AC1 SLP161 DENSITY ALT 3800FT

CYQF;2018-08-04 23:00;CYQF 042300Z 33002KT 12SM FEW012 OVC060 16/13 A2998 RMK CU1SC7 SLP162 DENSITY ALT 3700FT

CYQF;2018-08-05 00:00;CYQF 050000Z 24004KT 12SM FEW012 BKN070 17/13 A2997 RMK CU1AC6 SLP159 DENSITY ALT 3900FT

CYQF;2018-08-05 01:00;CYQF 050100Z 31006KT 12SM FEW000 BKN090 19/13 A2997 RMK CU1AC6 SLP154 DENSITY ALT 4100FT

CYQF;2018-08-05 02:00;CYQF 050200Z 32004KT 15SM FEW020TCU BKN100 18/13 A2998 RMK TCU1AC6 SLP158 DENSITY ALT 3900FT

CYQF;2018-08-05 03:00;CYQF 050300Z 30003KT 15SM FEW015 OVC110 16/14 A3000 RMK CU2AC6 SLP166 DENSITY ALT 3800FT

CYQF;2018-08-05 04:00;CYQF 050400Z 32003KT 15SM FEW015 BKN070 BKN090 15/13 A3001 RMK SC2AC3AC2 SLP174 DENSITY ALT 3600FT

CYQF;2018-08-05 05:00;CYQF 050500Z 33004KT 15SM FEW015 BKN100 14/12 A3002 RMK SC2AC5 SLP176 DENSITY ALT 3500FT

CYQF;2018-08-05 06:00;CYQF 050600Z 29004KT 15SM FEW015 BKN090 14/12 A3003 RMK SC1AC6 SLP182 DENSITY ALT 3500FT

CYQF;2018-08-05 07:00;CYQF 050700Z 22003KT 12SM BKN082 14/12 A3003 RMK AC7 SLP183 DENSITY ALT 3400FT

CYQF;2018-08-05 08:00;CYQF 050800Z 27004KT 12SM OVC080 13/11 A3004 RMK AC8 SLP186 DENSITY ALT 3400FT

CYQF;2018-08-05 09:00;CYQF 050900Z 27003KT 220V300 12SM OVC100 13/11 A3005 RMK AC8 SLP186 DENSITY ALT 3400FT

CYQF;2018-08-05 10:00;CYQF 051000Z 29003KT 12SM BKN120 13/11 A3005 RMK AC7 SLP187 DENSITY ALT 3300FT

CYQF;2018-08-05 11:00;CYQF 051100Z 00000KT 15SM BKN120 12/11 A3006 RMK AC7 SLP190 DENSITY ALT 3200FT

CYQF;2018-08-05 12:00;CYQF 051200Z 25002KT 12SM BKN120 12/11 A3007 RMK AC6 SLP192 DENSITY ALT 3200FT

CYQF;2018-08-05 13:00;CYQF 051300Z 00000KT 15SM BKN120 12/11 A3008 RMK AC6 SLP193 DENSITY ALT 3100FT

CYQF;2018-08-05 14:00;CYQF 051400Z 00000KT 15SM SCT120 15/12 A3008 RMK AC4 SLP193 DENSITY ALT 3600FT

CYQF;2018-08-05 15:00;CYQF 051500Z VRB02KT 15SM SCT120 17/12 A3010 RMK AC3 SLP198 DENSITY ALT 3700FT

CYQF;2018-08-05 16:00;CYQF 051600Z VRB02KT 15SM FEW150 FEW250 18/12 A3010 RMK AC1CI1 AC TR SLP199 DENSITY ALT 3900FT

CYQF;2018-08-05 17:00;CYQF 051700Z 00000KT 15SM FEW030 FEW250 20/13 A3010 RMK CU1CI2 CU TR SLP196 DENSITY ALT 4100FT

CYQF;2018-08-05 18:00;CYQF 051800Z 32004KT 270V070 15SM FEW040 FEW250 21/12 A3009 RMK CU1CI1 SLP193 DENSITY ALT 4200FT

CYQF;2018-08-05 19:00;CYQF 051900Z VRB02KT 15SM BKN040 21/11 A3008 RMK CU5 SLP192 DENSITY ALT 4200FT

CYQF;2018-08-05 20:00;CYQF 052000Z 31004KT 260V350 15SM BKN048TCU 22/10 A3008 RMK TCU5 SLP188 DENSITY ALT 4300FT

CYQF;2018-08-05 21:00;CYQF 052100Z VRB02KT 15SM SCT060 24/10 A3007 RMK CU3 SLP184 DENSITY ALT 4500FT

CYQF;2018-08-05 22:00;CYQF 052200Z 02004KT 280V060 15SM SCT060 24/08 A3006 RMK CU4 SLP182 DENSITY ALT 4600FT

CYQF;2018-08-05 23:00;CYQF 052300Z 03004KT 260V050 15SM SCT060 24/10 A3006 RMK CU3 SLP180 DENSITY ALT 4600FT

CYQF;2018-08-06 00:00;CYQF 060000Z VRB02KT 15SM SCT060 24/11 A3005 RMK CU3 SLP180 DENSITY ALT 4600FT

CYQF;2018-08-06 01:00;CYQF 060100Z VRB02KT 15SM FEW060 FEW150 24/10 A3005 RMK CU1AC1 SLP179 DENSITY ALT 4600FT

CYQF;2018-08-06 02:00;CYQF 060200Z 16002KT 15SM FEW120 23/12 A3005 RMK AC2 SLP177 DENSITY ALT 4500FT

CYQF;2018-08-06 03:00;CYQF 060300Z 16002KT 15SM FEW100 FEW210 20/12 A3005 RMK AC1CI1 SLP178 DENSITY ALT 4200FT

CYQF;2018-08-06 04:00;CYQF 060400Z 20004KT 15SM FEW100 16/12 A3006 RMK AC1 SLP183 DENSITY ALT 3700FT

CYQF;2018-08-06 05:00;CYQF 060500Z 20005KT 15SM FEW070 14/11 A3005 RMK AC1 SLP182 DENSITY ALT 3400FT

CYQF;2018-08-06 06:00;CYQF 060600Z 19005KT 15SM FEW070 13/11 A3005 RMK AC1 SLP182 DENSITY ALT 3300FT

CYQF;2018-08-06 07:00;CYQF 060700Z 23005KT 15SM FEW070 11/09 A3005 RMK AC1 SLP184 DENSITY ALT 3000FT

CYQF;2018-08-06 08:00;CYQF 060800Z 19003KT 15SM FEW250 10/09 A3005 RMK CI2 SLP181 DENSITY ALT 3000FT

CYQF;2018-08-06 09:00;CYQF 060900Z 20003KT 15SM FEW250 10/10 A3003 RMK CI2 SLP175 DENSITY ALT 3000FT

CYQF;2018-08-06 10:00;CYQF 061000Z 18003KT 15SM FEW250 10/09 A3003 RMK CI2 SLP173 DENSITY ALT 3000FT

CYQF;2018-08-06 11:00;CYQF 061100Z 22003KT 15SM FEW110 SCT250 10/09 A3002 RMK AC2CI2 SLP171 DENSITY ALT 3000FT

CYQF;2018-08-06 12:00;CYQF 061200Z 20006KT 12SM FEW090 FEW250 10/09 A3002 RMK AC1CI1 CI TR SLP171 DENSITY ALT 3000FT

CYQF;2018-08-06 13:00;CYQF 061300Z 22004KT 15SM FEW090 10/09 A3003 RMK ACC1 VIA CYQU SLP174 DENSITY ALT 3000FT

CYQF;2018-08-06 14:00;CYQF 061400Z 22005KT 15SM FEW090 13/11 A3003 RMK ACC1 VIA CYQU SLP173 DENSITY ALT 3300FT

CYQF;2018-08-06 15:00;CYQF 061500Z VRB02KT 15SM FEW090 16/12 A3003 RMK ACC1 SLP172 DENSITY ALT 3700FT

CYQF;2018-08-06 16:00;CYQF 061600Z 33006KT 15SM FEW090 21/11 A3003 RMK AC1 AC TR SLP172 DENSITY ALT 4300FT

CYQF;2018-08-06 17:00;CYQF 061700Z 35004KT 300V020 15SM FEW090 24/12 A3003 RMK ACC1 ACC TR SLP170 DENSITY ALT 4600FT

CYQF;2018-08-06 18:00;CYQF 061800Z 33006KT 290V040 15SM FEW060 FEW090 25/10 A3002 RMK CU1AC1 SLP167 DENSITY ALT 4700FT

CYQF;2018-08-06 19:00;CYQF 061900Z 28011KT 230V310 15SM FEW072 SCT180 27/08 A3001 RMK CU2AC1 SLP163 DENSITY ALT 4900FT

CYQF;2018-08-06 20:00;CYQF 062000Z 35005KT 290V020 15SM FEW070 27/08 A2999 RMK CU2 SLP155 DENSITY ALT 5000FT

CYQF;2018-08-06 21:00;CYQF 062100Z 34007KT 15SM FEW080 28/09 A2997 RMK CU2 SLP147 DENSITY ALT 5100FT

CYQF;2018-08-06 22:00;CYQF 062200Z VRB02KT 15SM FEW080 28/07 A2996 RMK CU2 SLP144 DENSITY ALT 5200FT

CYQF;2018-08-06 23:00;CYQF 062300Z 20004KT 180V350 15SM FEW080 FEW150 28/06 A2994 RMK CU1AC1 SLP140 DENSITY ALT 5100FT

CYQF;2018-08-07 00:00;CYQF 070000Z 36003KT 290V030 15SM FEW150 FEW250 28/09 A2993 RMK AC1CI1 SLP136 DENSITY ALT 5200FT

CYQF;2018-08-07 01:00;CYQF 070100Z 00000KT 15SM FEW150 FEW250 28/07 A2992 RMK AC1CI1 SLP133 DENSITY ALT 5200FT

CYQF;2018-08-07 02:00;CYQF 070200Z 18003KT 15SM FEW150 FEW250 26/13 A2992 RMK AC1CI1 SLP131 DENSITY ALT 4900FT

CYQF;2018-08-07 03:00;CYQF 070300Z 19003KT 15SM SCT150 BKN250 21/11 A2991 RMK AC3CI3 SLP130 DENSITY ALT 4400FT

CYQF;2018-08-07 04:00;CYQF 070400Z 19003KT 15SM FEW150 BKN250 18/11 A2992 RMK AC2CI4 SLP130 DENSITY ALT 4100FT

CYQF;2018-08-07 05:00;CYQF 070500Z 22007KT 15SM FEW150 SCT250 17/11 A2992 RMK AC1CI2 SLP129 DENSITY ALT 3900FT

CYQF;2018-08-07 06:00;CYQF 070600Z 24006KT 15SM SCT130 17/11 A2992 RMK AC4 SLP129 DENSITY ALT 3900FT

CYQF;2018-08-07 07:00;CYQF 070700Z 21002KT 15SM FEW130 14/09 A2993 RMK AC2 SLP132 DENSITY ALT 3600FT

CYQF;2018-08-07 08:00;CYQF 070800Z 00000KT 15SM FEW130 13/09 A2993 RMK AC1 SLP134 DENSITY ALT 3400FT

CYQF;2018-08-07 09:00;CYQF 070900Z 22004KT 15SM FEW250 12/08 A2993 RMK CI2 SLP134 DENSITY ALT 3300FT

CYQF;2018-08-07 10:00;CYQF 071000Z 19005KT 15SM FEW180 11/08 A2994 RMK AC2 SLP136 DENSITY ALT 3200FT

CYQF;2018-08-07 11:00;CYQF 071100Z 21004KT 15SM BKN180 11/08 A2994 RMK AC5 SLP137 DENSITY ALT 3200FT

CYQF;2018-08-07 12:00;CYQF 071200Z 21004KT 12SM BKN170 12/09 A2994 RMK AC5 SLP135 DENSITY ALT 3300FT

CYQF;2018-08-07 13:00;CYQF 071300Z 22005KT 12SM SCT140 BKN250 11/08 A2994 RMK AC4CI3 SLP138 DENSITY ALT 3200FT

CYQF;2018-08-07 14:00;CYQF 071400Z 21003KT 12SM SCT140 BKN280 15/09 A2995 RMK AC4CI3 SLP140 DENSITY ALT 3600FT

CYQF;2018-08-07 15:00;CYQF 071500Z 25004KT 10SM BKN160 18/10 A2997 RMK AC7 SLP146 DENSITY ALT 4000FT

CYQF;2018-08-07 16:00;CYQF 071600Z VRB02KT 8SM SCT160 SCT250 20/10 A2997 RMK AC3CI1 FU SLP147 DENSITY ALT 4200FT

CYQF;2018-08-07 17:00;CYQF 071700Z 29003KT 240V330 5SM FU OVC180 22/11 A2997 RMK FU6AC3 VIS HIER S SLP146 DENSITY ALT 4500FT

CYQF;2018-08-07 18:00;CYQF 071800Z 36005KT 310V010 5SM FU SCT260 24/07 A2997 RMK CI3 SLP145 DENSITY ALT 4700FT

CYQF;2018-08-07 19:00;CYQF 071900Z 05005KT 5SM FU BKN260 25/08 A2996 RMK CI5 WND ESTD SLP143 DENSITY ALT 4700FT

CYQF;2018-08-07 20:00;CYQF 072000Z 01006KT 300V070 4SM FU BKN030 OVC250 25/06 A2995 RMK FU5CI3 SLP140 DENSITY ALT 4900FT

CYQF;2018-08-07 21:00;CYQF 072100Z VRB02KT 4SM FU SCT220 26/06 A2994 RMK CI3 SLP138 DENSITY ALT 4900FT

CYQF;2018-08-07 22:00;CYQF 072200Z 11002KT 4SM FU BKN260 26/08 A2993 RMK CI5 SLP136 DENSITY ALT 5000FT

CYQF;2018-08-07 23:00;CYQF 072300Z 34004KT 250V010 4SM FU BKN260 27/07 A2993 RMK CI6 SLP136 DENSITY ALT 5000FT

CYQF;2018-08-08 00:00;CYQF 080000Z 05006KT 340V080 4SM FU OVC260 27/07 A2993 RMK FU6CI2 SLP135 DENSITY ALT 5000FT

CYQF;2018-08-08 01:00;CYQF 080100Z 01005KT 4SM FU OVC260 27/08 A2994 RMK FU3CI5 SLP139 DENSITY ALT 5000FT

CYQF;2018-08-08 02:00;CYQF 080200Z 36002KT 3SM FU BKN260 25/10 A2994 RMK FU1CI4 SLP137 DENSITY ALT 4800FT

CYQF;2018-08-08 03:00;CYQF 080300Z 05002KT 3SM FU SCT040 22/11 A2995 RMK FU2FU2 SLP141 DENSITY ALT 4400FT

CYQF;2018-08-08 04:00;CYQF 080400Z 00000KT 3SM FU VV050 18/11 A2997 RMK FU8 SLP148 DENSITY ALT 4000FT

CYQF;2018-08-08 05:00;CYQF 080500Z 00000KT 3SM FU VV050 15/10 A2999 RMK FU8 SLP155 DENSITY ALT 3600FT

CYQF;2018-08-08 06:00;CYQF 080600Z 34003KT 3SM FU VV050 14/11 A3000 RMK FU8 SLP157 DENSITY ALT 3500FT

CYQF;2018-08-08 07:00;CYQF 080700Z 31002KT 5SM FU VV050 14/11 A3001 RMK FU8 SLP163 DENSITY ALT 3500FT

CYQF;2018-08-08 08:00;CYQF 080800Z 00000KT 5SM FU VV050 11/08 A3002 RMK FU8 SLP168 DENSITY ALT 3100FT

CYQF;2018-08-08 09:00;CYQF 080900Z 20003KT 5SM FU VV050 10/09 A3003 RMK FU8 SLP170 DENSITY ALT 3000FT

CYQF;2018-08-08 10:00;CYQF 081000Z 23003KT 5SM FU SKC 10/07 A3002 RMK FU6 SLP170

CYQF;2018-08-08 11:00;CYQF 081100Z 20003KT 5SM FU SKC 08/07 A3003 RMK FU6 SLP173

CYQF;2018-08-08 12:00;CYQF 081200Z 20005KT 3SM FU SKC 08/07 A3003 RMK FU7 SLP174

CYQF;2018-08-08 13:00;CYQF 081300Z 19003KT 3SM FU SKC 09/08 A3004 RMK SLP175

CYQF;2018-08-08 14:00;CYQF 081400Z 20004KT 3SM FU SKC 12/10 A3004 RMK SLP176 DENSITY ALT 3200FT

CYQF;2018-08-08 15:00;CYQF 081500Z 21003KT 3SM FU BKN040 14/12 A3005 RMK FU6 SLP178 DENSITY ALT 3500FT

CYQF;2018-08-08 16:00;CYQF 081600Z 20005KT 170V230 3SM FU OVC040 17/12 A3005 RMK FU8 SLP179 DENSITY ALT 3800FT

CYQF;2018-08-08 17:00;CYQF 081700Z 18004KT 140V200 4SM FU OVC040 21/12 A3004 RMK FU8 SLP174 DENSITY ALT 4300FT

CYQF;2018-08-08 18:00;CYQF 081800Z 19012KT 4SM FU BKN060 26/09 A3003 RMK FU5 SLP166 DENSITY ALT 4800FT

CYQF;2018-08-08 19:00;CYQF 081900Z 19010G18KT 4SM FU SCT060 28/10 A3001 RMK FU4 SLP159 DENSITY ALT 5000FT

CYQF;2018-08-08 20:00;CYQF 082000Z 19009G16KT 4SM FU BKN060 29/09 A3000 RMK FU5 SLP157 DENSITY ALT 5100FT

CYQF;2018-08-08 21:00;CYQF 082100Z 19009KT 160V230 4SM FU BKN050 29/08 A2999 RMK FU5 SLP155 DENSITY ALT 5200FT

CYQF;2018-08-08 22:00;CYQF 082200Z 18007KT 160V220 4SM FU BKN050 30/08 A2998 RMK FU5 SLP150 DENSITY ALT 5300FT

CYQF;2018-08-08 23:00;CYQF 082300Z 18004KT 140V210 4SM FU BKN050 30/07 A2997 RMK FU7 SLP147 DENSITY ALT 5300FT

CYQF;2018-08-09 00:00;CYQF 090000Z 15005KT 5SM FU BKN050 30/07 A2995 RMK FU5 SLP143 DENSITY ALT 5300FT

CYQF;2018-08-09 01:00;CYQF 090100Z 19004KT 6SM FU SCT050 29/09 A2995 RMK FU3 SLP142 DENSITY ALT 5300FT

CYQF;2018-08-09 02:00;CYQF 090200Z 17003KT 5SM FU SCT050 26/13 A2995 RMK FU3 SLP142 DENSITY ALT 4900FT

CYQF;2018-08-09 03:00;CYQF 090300Z 12003KT 5SM FU SCT050 23/12 A2996 RMK FU3 SLP145 DENSITY ALT 4600FT

CYQF;2018-08-09 04:00;CYQF 090400Z 00000KT 6SM FU SCT040 19/10 A2997 RMK FU3 SLP150 DENSITY ALT 4100FT

CYQF;2018-08-09 05:00;CYQF 090500Z 00000KT 6SM FU SCT040 15/10 A2998 RMK FU3 SLP154 DENSITY ALT 3700FT

CYQF;2018-08-09 06:00;CYQF 090600Z 22002KT 6SM FU SCT040 17/11 A2999 RMK FU3 SLP149 DENSITY ALT 3800FT

CYQF;2018-08-09 07:00;CYQF 090700Z 20005KT 6SM FU SKC 15/09 A2999 RMK FU4 SLP151 DENSITY ALT 3600FT

CYQF;2018-08-09 08:00;CYQF 090800Z 22004KT 8SM SKC 13/09 A2999 RMK FU3 FU SLP152 DENSITY ALT 3400FT

CYQF;2018-08-09 09:00;CYQF 090900Z 23007KT 8SM SKC 13/10 A3000 RMK FU3 FU SLP153 DENSITY ALT 3400FT

CYQF;2018-08-09 10:00;CYQF 091000Z 21004KT 180V270 8SM SKC 13/10 A3001 RMK FU3 SLP157 DENSITY ALT 3400FT

CYQF;2018-08-09 11:00;CYQF 091100Z 19004KT 8SM SKC 10/09 A3001 RMK FU3 SLP162 DENSITY ALT 3000FT

CYQF;2018-08-09 12:00;CYQF 091200Z 21005KT 6SM FU SKC 10/09 A3002 RMK FU5 SLP163 DENSITY ALT 3000FT

CYQF;2018-08-09 13:00;CYQF 091300Z 20006KT 4SM FU BKN050 10/09 A3003 RMK FU5 SLP167 DENSITY ALT 3000FT

CYQF;2018-08-09 14:00;CYQF 091400Z 18004KT 4SM FU OVC070 13/11 A3004 RMK FU5FU3 SLP171 DENSITY ALT 3300FT

CYQF;2018-08-09 15:00;CYQF 091500Z 18003KT 160V220 4SM FU BKN070 17/11 A3004 RMK FU3FU3 SLP169 DENSITY ALT 3800FT

CYQF;2018-08-09 16:00;CYQF 091600Z 22005KT 6SM FU SKC 21/12 A3004 RMK SLP170 DENSITY ALT 4200FT

CYQF;2018-08-09 17:00;CYQF 091700Z 23004KT 190V260 6SM FU SKC 25/12 A3003 RMK SLP168 DENSITY ALT 4700FT

CYQF;2018-08-09 18:00;CYQF 091800Z 17004KT 090V260 6SM FU SKC 30/10 A3003 RMK FU6 SLP160 DENSITY ALT 5200FT

CYQF;2018-08-09 19:00;CYQF 091900Z 21008KT 120V230 5SM FU SKC 32/09 A3001 RMK SLP153 DENSITY ALT 5500FT

CYQF;2018-08-09 20:00;CYQF 092000Z 17010KT 130V200 6SM FU SKC 34/07 A3000 RMK SLP150 DENSITY ALT 5700FT

CYQF;2018-08-09 21:00;CYQF 092100Z 19004KT 150V230 6SM FU SKC 33/07 A2999 RMK SLP147 DENSITY ALT 5700FT

CYQF;2018-08-09 22:00;CYQF 092200Z 14008KT 130V200 6SM FU SKC 35/07 A2998 RMK SLP142 DENSITY ALT 5800FT

CYQF;2018-08-09 23:00;CYQF 092300Z 18005KT 6SM FU BKN300 34/06 A2997 RMK CI5 SLP141 DENSITY ALT 5800FT

CYQF;2018-08-10 00:00;CYQF 100000Z 14008KT 6SM FU SCT300 34/08 A2996 RMK CI4 SLP138 DENSITY ALT 5700FT

CYQF;2018-08-10 01:00;CYQF 100100Z 12007KT 6SM FU SCT300 32/10 A2994 RMK FU1CI3 SLP135 DENSITY ALT 5600FT

CYQF;2018-08-10 02:00;CYQF 100200Z 14005KT 6SM FU SCT300 27/13 A2994 RMK FU1CI3 SLP137 DENSITY ALT 5000FT

CYQF;2018-08-10 03:00;CYQF 100300Z 15006KT 5SM FU BKN300 24/12 A2994 RMK FU1CI4 SLP135 DENSITY ALT 4700FT

CYQF;2018-08-10 04:00;CYQF 100400Z 19004KT 6SM FU SCT120 BKN250 21/11 A2995 RMK FU2AC2CI2 SLP137 DENSITY ALT 4400FT

CYQF;2018-08-10 05:00;CYQF 100500Z 20004KT 6SM FU BKN140 22/10 A2995 RMK FU3AC3 SLP132 DENSITY ALT 4400FT

CYQF;2018-08-10 06:00;CYQF 100600Z 17009KT 6SM FU FEW060 SCT140 20/10 A2995 RMK SC1AC3 SLP129 DENSITY ALT 4200FT

CYQF;2018-08-10 07:00;CYQF 100700Z 20007KT 8SM SCT060 SCT140 18/10 A2994 RMK FU3AC1 SLP127 DENSITY ALT 4000FT

CYQF;2018-08-10 08:00;CYQF 100800Z 17005KT 070V180 8SM BKN060 17/10 A2994 RMK FU6 SLP126 DENSITY ALT 3900FT

CYQF;2018-08-10 09:00;CYQF 100900Z 14003KT 360V160 8SM BKN060 15/10 A2994 RMK FU5 SLP127 DENSITY ALT 3700FT

CYQF;2018-08-10 10:00;CYQF 101000Z 23003KT 8SM BKN060 14/09 A2993 RMK FU5 SLP125 DENSITY ALT 3600FT

CYQF;2018-08-10 11:00;CYQF 101100Z 17003KT 8SM BKN060 12/09 A2993 RMK FU6 SLP128 DENSITY ALT 3300FT

CYQF;2018-08-10 12:00;CYQF 101200Z 19005KT 4SM FU OVC060 10/09 A2993 RMK FU8 SLP130 DENSITY ALT 3200FT

CYQF;2018-08-10 13:00;CYQF 101300Z 20003KT 3SM FU BKN050 11/09 A2993 RMK FU6 SLP130 DENSITY ALT 3300FT

CYQF;2018-08-10 14:00;CYQF 101400Z 21002KT 3SM FU BKN050 15/11 A2993 RMK FU2FU4 SLP131 DENSITY ALT 3600FT

CYQF;2018-08-10 15:00;CYQF 101500Z 21004KT 3SM FU BKN050 19/11 A2993 RMK FU2FU3 SLP129 DENSITY ALT 4100FT

CYQF;2018-08-10 16:00;CYQF 101600Z 21006KT 3SM FU BKN050 22/11 A2992 RMK FU2FU3 SLP126 DENSITY ALT 4500FT

CYQF;2018-08-10 17:00;CYQF 101700Z 23005KT 200V260 3SM FU BKN050 26/12 A2991 RMK FU2FU3 SLP119 DENSITY ALT 5000FT

CYQF;2018-08-10 18:00;CYQF 101800Z 22006KT 3SM FU BKN060 31/12 A2991 RMK FU4FU3 SLP114 DENSITY ALT 5500FT

CYQF;2018-08-10 19:00;CYQF 101900Z 26005KT 210V280 3SM FU BKN060 34/04 A2990 RMK FU3FU3 SLP108 DENSITY ALT 5900FT

CYQF;2018-08-10 20:00;CYQF 102000Z 21004KT 160V320 3SM FU SKC 35/04 A2988 RMK FU3 SLP104 DENSITY ALT 5900FT

CYQF;2018-08-10 21:00;CYQF 102100Z 05003KT 4SM FU BKN050 35/04 A2987 RMK FU3FU3 SLP100 DENSITY ALT 6000FT

CYQF;2018-08-10 22:00;CYQF 102200Z 19004KT 160V260 4SM FU BKN050 36/05 A2985 RMK FU2FU3 SLP094 DENSITY ALT 6100FT

CYQF;2018-08-10 23:00;CYQF 102300Z 14006KT 090V200 4SM FU BKN050 36/08 A2983 RMK FU3FU3 SLP089 DENSITY ALT 6100FT

CYQF;2018-08-11 00:00;CYQF 110000Z 12006KT 4SM FU BKN050 34/10 A2981 RMK FU3FU4 SLP088 DENSITY ALT 6000FT

CYQF;2018-08-11 01:00;CYQF 110100Z 10005KT 4SM FU BKN050 32/12 A2980 RMK FU3FU3 SLP085 DENSITY ALT 5700FT

CYQF;2018-08-11 02:00;CYQF 110200Z 36004KT 4SM FU BKN050 BKN060 28/14 A2980 RMK FU3FU3CU1 SLP086 DENSITY ALT 5300FT

CYQF;2018-08-11 03:00;CYQF 110300Z 05005KT 4SM FU BKN050 BKN150 26/10 A2981 RMK FU3FU3AC1 SLP086 DENSITY ALT 5000FT

CYQF;2018-08-11 04:00;CYQF 110400Z 36007KT 5SM FU BKN050 23/11 A2982 RMK FU3FU4 SLP090 DENSITY ALT 4700FT

CYQF;2018-08-11 05:00;CYQF 110500Z 35006KT 5SM FU OVC060 22/16 A2984 RMK FU8 SLP094 DENSITY ALT 4600FT

CYQF;2018-08-11 06:00;CYQF 110600Z 36011KT 3SM FU OVC060 21/16 A2985 RMK FU8 SLP093 DENSITY ALT 4400FT

CYQF;2018-08-11 06:22;CYQF 110622Z 36013G19KT 2SM FU OVC060 21/14 A2986 RMK FU4FU4 SLP095 DENSITY ALT 4400FT

CYQF;2018-08-11 07:00;CYQF 110700Z 01011G17KT 2SM FU OVC060 20/12 A2987 RMK FU4FU4 SLP098 DENSITY ALT 4300FT

CYQF;2018-08-11 08:00;CYQF 110800Z 01010G15KT 2SM FU BKN060 OVC210 19/11 A2989 RMK FU4FU2CI2 SLP103 DENSITY ALT 4200FT

CYQF;2018-08-11 09:00;CYQF 110900Z 36011G18KT 2SM FU BKN060 OVC200 18/10 A2991 RMK FU4FU2CI2 SLP113 DENSITY ALT 4100FT

CYQF;2018-08-11 10:00;CYQF 111000Z 36008G15KT 1 1/2SM FU BKN060 OVC170 18/10 A2993 RMK FU4FU2AC2 SLP118 DENSITY ALT 4000FT

CYQF;2018-08-11 11:00;CYQF 111100Z 29006KT 1 1/2SM FU BKN045 OVC170 17/10 A2997 RMK FU4FU2AC2 PRESRR SLP131 DENSITY ALT 3900FT

CYQF;2018-08-11 12:00;CYQF 111200Z 30008KT 2 1/2SM FU OVC040 18/10 A3002 RMK FU4FU4 PRESRR SLP151 DENSITY ALT 4000FT

CYQF;2018-08-11 13:00;CYQF 111300Z 36010G15KT 2 1/2SM FU OVC040 17/09 A3001 RMK FU4FU4 PRESFR SLP151 DENSITY ALT 3900FT

CYQF;2018-08-11 14:00;CYQF 111400Z 33006KT 2 1/2SM FU BKN040 BKN140 17/09 A3005 RMK FU4FU2AC1 VIS VRB 2-3 SLP170 DENSITY ALT 3800FT

CYQF;2018-08-11 15:00;CYQF 111500Z 33010KT 2SM FU BKN050 OVC080 17/10 A3005 RMK FU2FU3AC3 PRESRR SLP171 DENSITY ALT 3700FT

CYQF;2018-08-11 16:00;CYQF 111600Z 35010G16KT 3SM FU BKN050 BKN140 19/09 A3006 RMK FU3FU2AC2 SLP176 DENSITY ALT 4000FT

CYQF;2018-08-11 17:00;CYQF 111700Z 35011G17KT 3SM FU BKN040 OVC210 21/10 A3003 RMK FU4FU3CI1 SLP164 DENSITY ALT 4200FT

CYQF;2018-08-11 18:00;CYQF 111800Z 01008KT 4SM FU SCT040 OVC210 21/08 A3007 RMK FU2FU2CI4 SLP180 DENSITY ALT 4200FT

CYQF;2018-08-11 19:00;CYQF 111900Z 01009KT 5SM FU SCT050 OVC210 22/09 A3004 RMK FG2FU2CI4 SLP168 DENSITY ALT 4400FT

CYQF;2018-08-11 20:00;CYQF 112000Z 01009G15KT 5SM FU SCT050 BKN210 23/09 A3002 RMK FU2FU2CI2 SLP161 DENSITY ALT 4500FT

CYQF;2018-08-11 21:00;CYQF 112100Z 02012KT 5SM FU SKC 23/10 A3000 RMK FU4 SLP157 DENSITY ALT 4600FT

CYQF;2018-08-11 22:00;CYQF 112200Z 02015G21KT 5SM FU SKC 23/10 A2997 RMK FU4 SLP146 DENSITY ALT 4600FT

CYQF;2018-08-11 23:00;CYQF 112300Z 03010G18KT 5SM FU SCT170 22/09 A3001 RMK AC4 SLP160 DENSITY ALT 4400FT

CYQF;2018-08-12 00:00;CYQF 120000Z 35011G18KT 5SM FU BKN055 OVC150 20/10 A3004 RMK FU2SC3AC3 PRESRR SLP173 DENSITY ALT 4100FT

CYQF;2018-08-12 01:00;CYQF 120100Z 36012G22KT 5SM FU OVC058 18/10 A3006 RMK FU3SC5 SLP183 DENSITY ALT 3900FT

CYQF;2018-08-12 01:26;CYQF 120126Z 01017G24KT 6SM TS FU VCSH BKN060CB OVC090 16/10 A3006 RMK FU2CB4AC2 SLP184 DENSITY ALT 3700FT

CYQF;2018-08-12 01:33;CYQF 120133Z 01018G26KT 6SM -TSRA FU BKN060CB OVC090 16/10 A3006 RMK CB5AC3 LTNG ALQDS SLP184 DENSITY ALT 3700FT

CYQF;2018-08-12 02:00;CYQF 120200Z 02013G21KT 6SM -SHRA FU SCT060CB OVC120 14/11 A3007 RMK CB4AC4 PRESRR SLP192 DENSITY ALT 3400FT

CYQF;2018-08-12 02:47;CYQF 120247Z 02014KT 6SM FU SCT060CB BKN120 13/11 A3003 RMK FU2CB2AC3 SLP178 DENSITY ALT 3300FT

CYQF;2018-08-12 03:00;CYQF 120300Z 03013KT 6SM FU SCT060CB OVC100 13/10 A3004 RMK FU2CB2AC4 SLP182 DENSITY ALT 3300FT

CYQF;2018-08-12 04:00;CYQF 120400Z 04011G16KT 10SM SCT050 BKN090 OVC150 12/09 A3001 RMK SC3AC2AC3 FU SLP172 DENSITY ALT 3300FT

CYQF;2018-08-12 05:00;CYQF 120500Z 33003KT 310V020 10SM FEW050 BKN150 11/08 A3004 RMK SC2AC3 SLP179 DENSITY ALT 3100FT

CYQF;2018-08-12 06:00;CYQF 120600Z 30007KT 10SM FEW050 BKN140 09/08 A3005 RMK SC2AC3 SLP185

CYQF;2018-08-12 07:00;CYQF 120700Z 33004KT 10SM FEW050 BKN140 08/07 A3006 RMK SC2AC3 SLP188

CYQF;2018-08-12 08:00;CYQF 120800Z 01006KT 10SM SCT050 BKN090 08/07 A3004 RMK SC3AC3 SLP181

CYQF;2018-08-12 09:00;CYQF 120900Z 31003KT 300V020 10SM BKN080 09/08 A3003 RMK AC6 SLP175

CYQF;2018-08-12 10:00;CYQF 121000Z 02003KT 10SM BKN070 09/09 A3001 RMK AC6 SLP169

CYQF;2018-08-12 11:00;CYQF 121100Z 35006KT 10SM FEW007 OVC070 10/09 A3000 RMK ST2AC6 SLP164 DENSITY ALT 3000FT

CYQF;2018-08-12 11:17;CYQF 121117Z 01005KT 10SM BKN006 OVC070 10/09 A2999 RMK ST5AC3 SLP162 DENSITY ALT 3000FT

CYQF;2018-08-12 12:00;CYQF 121200Z 03009KT 8SM OVC006 10/09 A2999 RMK ST8 SLP166 DENSITY ALT 3000FT

CYQF;2018-08-12 13:00;CYQF 121300Z 01007KT 8SM BKN007 OVC036 10/09 A2999 RMK SC5SC3 SLP165 DENSITY ALT 3000FT

CYQF;2018-08-12 14:00;CYQF 121400Z 01004KT 8SM OVC007 10/10 A3000 RMK SC8 SLP173 DENSITY ALT 3100FT

CYQF;2018-08-12 15:00;CYQF 121500Z 08006KT 5SM BR OVC010 11/10 A2999 RMK SC8 CIG RAG SLP170 DENSITY ALT 3100FT

CYQF;2018-08-12 16:00;CYQF 121600Z 32003KT 6SM BR OVC010 11/10 A3000 RMK ST8 SLP173 DENSITY ALT 3200FT

CYQF;2018-08-12 17:00;CYQF 121700Z 28006KT 6SM BR OVC011 11/10 A3000 RMK SC8 CIG RAG VIS HIER S SLP177 DENSITY ALT 3200FT

CYQF;2018-08-12 17:15;CYQF 121715Z 28004KT 2SM -RA BR OVC010 11/10 A3000 RMK SC8 CIG RAG VIS VRB 1-3 SLP178 DENSITY ALT 3200FT

CYQF;2018-08-12 17:35;CYQF 121735Z VRB02KT 3SM BR BKN006 OVC060 11/10 A2999 RMK SF5SC3 SLP171 DENSITY ALT 3200FT

CYQF;2018-08-12 18:00;CYQF 121800Z 29003KT 240V330 6SM BR BKN010 OVC060 13/10 A2997 RMK SF6SC2 SLP167 DENSITY ALT 3400FT

CYQF;2018-08-12 19:00;CYQF 121900Z 30007KT 270V330 6SM BR OVC014 14/10 A2999 RMK SC8 CIG RAG SLP172 DENSITY ALT 3500FT

CYQF;2018-08-12 20:00;CYQF 122000Z 31011G16KT 10SM BKN018 OVC036 15/10 A3000 RMK SC6SC2 SLP176 DENSITY ALT 3600FT

CYQF;2018-08-12 21:00;CYQF 122100Z 32014G22KT 10SM VCSH FEW012 BKN021 OVC080 14/09 A3001 RMK CF1SC5AC2 SLP180 DENSITY ALT 3500FT

CYQF;2018-08-12 22:00;CYQF 122200Z 32013G21KT 10SM VCSH SCT016 BKN040 OVC140 13/10 A3002 RMK SC3SC3AC2 SLP184 DENSITY ALT 3400FT

CYQF;2018-08-12 22:11;CYQF 122211Z 34015G21KT 10SM -SHRA SCT016 BKN040 OVC140 13/09 A3003 RMK CF4SC2AC2 SLP186 DENSITY ALT 3400FT

CYQF;2018-08-12 23:00;CYQF 122300Z 32017G22KT 12SM BKN035 BKN100 13/08 A3004 RMK SC5AC2 SLP191 DENSITY ALT 3400FT

CYQF;2018-08-13 00:00;CYQF 130000Z 32018KT 12SM BKN021 BKN120 14/07 A3007 RMK SC5AC2 SLP199 DENSITY ALT 3400FT

CYQF;2018-08-13 01:00;CYQF 130100Z 33014G22KT 12SM BKN020 BKN080 12/07 A3009 RMK SC5AC2 SLP208 DENSITY ALT 3200FT

CYQF;2018-08-13 02:00;CYQF 130200Z 31014KT 15SM BKN020 11/08 A3011 RMK SC7 SLP216 DENSITY ALT 3000FT

CYQF;2018-08-13 03:00;CYQF 130300Z 32011G17KT 15SM OVC018 11/08 A3014 RMK SC8 SLP225

CYQF;2018-08-13 04:00;CYQF 130400Z 32011G17KT 15SM BKN018 10/08 A3016 RMK SC7 CIG RAG SLP231

CYQF;2018-08-13 04:38;CYQF 130438Z 33013G18KT 15SM OVC014 10/08 A3016 RMK SC8 SLP232

CYQF;2018-08-13 05:00;CYQF 130500Z 32013KT 12SM OVC012 10/08 A3016 RMK SC8 SLP231

CYQF;2018-08-13 06:00;CYQF 130600Z 33010G16KT 12SM BKN012 OVC040 10/08 A3017 RMK ST5SC3 SLP235

CYQF;2018-08-13 06:49;CYQF 130649Z 01005KT 12SM OVC008 09/08 A3018 RMK ST8 SLP238

CYQF;2018-08-13 07:00;CYQF 130700Z 02005KT 10SM OVC008 09/08 A3018 RMK ST8 SLP238

CYQF;2018-08-13 07:46;CYQF 130746Z 31005KT 12SM OVC012 10/08 A3019 RMK ST8 SLP240

CYQF;2018-08-13 08:00;CYQF 130800Z 33005KT 12SM OVC012 10/08 A3019 RMK ST8 SLP240

CYQF;2018-08-13 09:00;CYQF 130900Z 32006KT 12SM BKN012 OVC040 09/08 A3019 RMK ST6SC2 SLP242

CYQF;2018-08-13 09:13;CYQF 130913Z 35007KT 12SM SCT012 BKN040 09/08 A3019 RMK ST4SC3 SLP241

CYQF;2018-08-13 10:00;CYQF 131000Z 27004KT 12SM FEW010 FEW040 07/06 A3020 RMK ST1SC1 SLP246

CYQF;2018-08-13 11:00;CYQF 131100Z VRB02KT 12SM FEW010 FEW040 05/05 A3020 RMK ST1SC1 SLP249

CYQF;2018-08-13 11:21;CYQF 131121Z 25006KT 10SM SCT004 04/04 A3020 RMK ST3 SLP251

CYQF;2018-08-13 12:00;CYQF 131200Z 19004KT 180V270 6SM BR FEW005 FEW012 02/02 A3020 RMK SF2SC1 SC TR SLP253

CYQF;2018-08-13 12:14;CYQF 131214Z VRB02KT 6SM BR BKN006 02/02 A3020 RMK ST5 SLP254

CYQF;2018-08-13 13:00;CYQF 131300Z 20004KT 5SM BR BKN005 04/04 A3020 RMK ST7 SLP254

CYQF;2018-08-13 13:15;CYQF 131315Z 22004KT 5SM BR BKN002 OVC050 05/05 A3021 RMK ST7SC1 SLP254

CYQF;2018-08-13 14:00;CYQF 131400Z 23003KT 5SM BR BKN004 OVC050 06/06 A3022 RMK ST6SC2 SLP257

CYQF;2018-08-13 15:00;CYQF 131500Z 21004KT 5SM BR OVC050 08/07 A3022 RMK ST8 SLP256

CYQF;2018-08-13 15:46;CYQF 131546Z 21005KT 140V230 8SM BKN010 10/07 A3021 RMK SC7 CIG RAG SLP250

CYQF;2018-08-13 16:00;CYQF 131600Z 14007KT 120V230 8SM BKN013 11/07 A3020 RMK SC7 SLP248

CYQF;2018-08-13 16:32;CYQF 131632Z 19006KT 10SM BKN017 BKN230 11/06 A3020 RMK SC5CI1 SLP245

CYQF;2018-08-13 17:00;CYQF 131700Z 17006KT 110V230 10SM BKN020 13/07 A3019 RMK CU6 SLP241 DENSITY ALT 3200FT

CYQF;2018-08-13 18:00;CYQF 131800Z 12006KT 100V270 15SM BKN022 15/07 A3017 RMK SC6 SLP233 DENSITY ALT 3400FT

CYQF;2018-08-13 19:00;CYQF 131900Z 12005KT 100V170 15SM SCT030 16/07 A3016 RMK CU4 SLP227 DENSITY ALT 3600FT

CYQF;2018-08-13 20:00;CYQF 132000Z VRB02KT 15SM FEW037 17/07 A3014 RMK CU2 SLP222 DENSITY ALT 3600FT

CYQF;2018-08-13 21:00;CYQF 132100Z VRB02KT 15SM SCT042 BKN250 18/06 A3013 RMK SC4CI1 SLP216 DENSITY ALT 3800FT

CYQF;2018-08-13 22:00;CYQF 132200Z 22008KT 180V280 15SM SCT050 SCT250 20/07 A3010 RMK SC3CI1 SLP206 DENSITY ALT 4100FT

CYQF;2018-08-13 23:00;CYQF 132300Z 21006KT 160V320 15SM FEW055 SCT250 21/07 A3008 RMK CU2CI1 SLP199 DENSITY ALT 4200FT

CYQF;2018-08-14 00:00;CYQF 140000Z 23003KT 170V260 15SM FEW060 FEW250 21/07 A3006 RMK CU1CI1 SLP196 DENSITY ALT 4300FT

CYQF;2018-08-14 01:00;CYQF 140100Z 18007KT 15SM SCT250 22/07 A3004 RMK CI4 SLP187 DENSITY ALT 4300FT

CYQF;2018-08-14 02:00;CYQF 140200Z 18006KT 15SM SCT250 20/08 A3002 RMK CI4 SLP180 DENSITY ALT 4100FT

CYQF;2018-08-14 03:00;CYQF 140300Z 17006KT 15SM SCT250 15/08 A3001 RMK CI3 SLP180 DENSITY ALT 3600FT

CYQF;2018-08-14 04:00;CYQF 140400Z 18007KT 12SM BKN250 14/07 A3002 RMK CI6 SLP180 DENSITY ALT 3400FT

CYQF;2018-08-14 05:00;CYQF 140500Z 17008KT 12SM BKN260 13/07 A3001 RMK CI5 SLP175 DENSITY ALT 3400FT

CYQF;2018-08-14 06:00;CYQF 140600Z 19005KT 12SM BKN260 11/07 A3000 RMK CI6 SLP171 DENSITY ALT 3100FT

CYQF;2018-08-14 07:00;CYQF 140700Z 20005KT 12SM BKN260 10/06 A2998 RMK CI5 SLP167 DENSITY ALT 3000FT

CYQF;2018-08-14 08:00;CYQF 140800Z 19007KT 12SM BKN260 09/06 A2998 RMK CI5 SLP164 DENSITY ALT 3000FT

CYQF;2018-08-14 09:00;CYQF 140900Z 18008KT 12SM FEW260 09/06 A2995 RMK CI2 SLP155 DENSITY ALT 3000FT

CYQF;2018-08-14 10:00;CYQF 141000Z 20005KT 12SM FEW260 09/06 A2995 RMK CI2 SLP153

CYQF;2018-08-14 11:00;CYQF 141100Z 19005KT 12SM FEW260 07/06 A2995 RMK CI2 SLP151

CYQF;2018-08-14 12:00;CYQF 141200Z 22002KT 12SM SCT260 07/05 A2994 RMK CI4 SLP149

CYQF;2018-08-14 13:00;CYQF 141300Z 19004KT 10SM SCT260 07/06 A2994 RMK CI3 HZ SLP148

CYQF;2018-08-14 14:00;CYQF 141400Z 19004KT 10SM SCT260 09/07 A2993 RMK CI4 HZ SLP146 DENSITY ALT 3000FT

CYQF;2018-08-14 15:00;CYQF 141500Z 22005KT 10SM SCT260 14/08 A2993 RMK CI4 HZ SLP145 DENSITY ALT 3600FT

CYQF;2018-08-14 16:00;CYQF 141600Z 23006KT 200V280 10SM SCT260 19/08 A2993 RMK CI3 SLP140 DENSITY ALT 4100FT

CYQF;2018-08-14 17:00;CYQF 141700Z 25007KT 210V280 10SM BKN260 23/09 A2991 RMK CI6 HZ SLP132 DENSITY ALT 4600FT

CYQF;2018-08-14 18:00;CYQF 141800Z 24007KT 210V290 10SM BKN260 26/08 A2990 RMK CI6 HZ SLP127 DENSITY ALT 4900FT

CYQF;2018-08-14 19:00;CYQF 141900Z 20007KT 180V250 6SM FU BKN260 27/07 A2988 RMK CI6 SLP118 DENSITY ALT 5100FT

CYQF;2018-08-14 20:00;CYQF 142000Z 22008KT 180V270 6SM FU FEW110 SCT250 28/06 A2986 RMK AC2CI2 SLP112 DENSITY ALT 5200FT

CYQF;2018-08-14 21:00;CYQF 142100Z 23010KT 6SM FU BKN260 29/06 A2986 RMK FU2CI3 SLP110 DENSITY ALT 5300FT

CYQF;2018-08-14 22:00;CYQF 142200Z 30007KT 210V310 5SM FU BKN260 29/05 A2984 RMK FU2CI3 SLP103 DENSITY ALT 5400FT

CYQF;2018-08-14 23:00;CYQF 142300Z 36003KT 310V010 3SM FU BKN260 29/05 A2983 RMK FU4CI2 SLP101 DENSITY ALT 5400FT

CYQF;2018-08-15 00:00;CYQF 150000Z 36005KT 3SM FU BKN260 28/07 A2982 RMK FU4CI2 SLP102 DENSITY ALT 5200FT

CYQF;2018-08-15 01:00;CYQF 150100Z 01006KT 3SM FU SCT250 25/09 A2983 RMK CI4 SLP108 DENSITY ALT 4900FT

CYQF;2018-08-15 01:42;CYQF 150142Z 01004KT 2 1/2SM FU SCT250 22/10 A2983 RMK CI4 SLP111 DENSITY ALT 4600FT

CYQF;2018-08-15 02:00;CYQF 150200Z 01004KT 2 1/2SM FU SCT250 22/10 A2983 RMK CI4 SLP109 DENSITY ALT 4600FT

CYQF;2018-08-15 03:00;CYQF 150300Z 35003KT 2 1/2SM FU SCT050 BKN150 19/09 A2984 RMK FU2FU2CI2 SLP110 DENSITY ALT 4300FT

CYQF;2018-08-15 04:00;CYQF 150400Z 00000KT 2 1/2SM FU SCT050 BKN150 16/08 A2985 RMK FU2FU2CI2 SLP109 DENSITY ALT 3900FT

CYQF;2018-08-15 05:00;CYQF 150500Z 19005KT 2SM FU OVC150 13/09 A2984 RMK FU6AC2 SLP106 DENSITY ALT 3600FT

CYQF;2018-08-15 06:00;CYQF 150600Z 23002KT 2SM FU OVC150 12/09 A2983 RMK FU6AC2 SLP102 DENSITY ALT 3500FT

CYQF;2018-08-15 07:00;CYQF 150700Z 20004KT 2SM FU OVC150 11/08 A2983 RMK FU6AC2 SLP102 DENSITY ALT 3300FT

CYQF;2018-08-15 08:00;CYQF 150800Z VRB02KT 2SM FU OVC080 11/09 A2985 RMK FU6FU2 SLP106 DENSITY ALT 3300FT

CYQF;2018-08-15 09:00;CYQF 150900Z VRB02KT 2SM FU OVC080 10/09 A2986 RMK FU6FU2 SLP108 DENSITY ALT 3200FT

CYQF;2018-08-15 09:48;CYQF 150948Z 17003KT 3SM FU OVC060 10/08 A2987 RMK FU4FU4 SLP113 DENSITY ALT 3100FT

CYQF;2018-08-15 10:00;CYQF 151000Z 18004KT 3SM FU OVC060 09/08 A2986 RMK FU4FU4 VIS VRB 2-4 SLP111 DENSITY ALT 3100FT

CYQF;2018-08-15 10:23;CYQF 151023Z 19005KT 1 1/2SM FU OVC050 09/07 A2987 RMK FU6FU2 SLP113 DENSITY ALT 3000FT

CYQF;2018-08-15 11:00;CYQF 151100Z 21005KT 1 1/2SM FU OVC040 09/08 A2988 RMK FU6FU2 VIS VRB 1-2 SLP117 DENSITY ALT 3000FT

CYQF;2018-08-15 11:44;CYQF 151144Z 25002KT 2SM FU OVC040 09/08 A2988 RMK FU6FU2 SLP118 DENSITY ALT 3000FT

CYQF;2018-08-15 12:00;CYQF 151200Z VRB02KT 1 1/2SM FU OVC035 09/07 A2989 RMK FU6FU2 VIS VRB 1-2 SLP121 DENSITY ALT 3000FT

CYQF;2018-08-15 13:00;CYQF 151300Z 30002KT 1 1/2SM FU OVC030 11/08 A2990 RMK FU6FU2 SLP126 DENSITY ALT 3200FT

CYQF;2018-08-15 13:42;CYQF 151342Z 18004KT 2 1/2SM FU OVC030 09/07 A2991 RMK FU8 SLP132 DENSITY ALT 3000FT

CYQF;2018-08-15 14:00;CYQF 151400Z 20004KT 2 1/2SM FU OVC030 09/08 A2991 RMK FU8 SLP136 DENSITY ALT 3000FT

CYQF;2018-08-15 15:00;CYQF 151500Z 22004KT 2 1/2SM FU OVC030 10/09 A2992 RMK FU8 SLP141 DENSITY ALT 3200FT

CYQF;2018-08-15 16:00;CYQF 151600Z 22005KT 2 1/2SM FU OVC030 12/10 A2992 RMK FU8 SLP142 DENSITY ALT 3400FT

CYQF;2018-08-15 17:00;CYQF 151700Z 23003KT 210V280 1 1/2SM FU OVC030 16/10 A2992 RMK FU8 SLP141 DENSITY ALT 3900FT

CYQF;2018-08-15 18:00;CYQF 151800Z 22005KT 1SM FU OVC030 20/09 A2992 RMK FU8 SLP138 DENSITY ALT 4200FT

CYQF;2018-08-15 19:00;CYQF 151900Z VRB02KT 1SM FU OVC025 22/09 A2992 RMK FU8 SLP137 DENSITY ALT 4500FT

CYQF;2018-08-15 20:00;CYQF 152000Z 15006KT 1SM FU OVC024 24/09 A2991 RMK FU5FU3 SLP131 DENSITY ALT 4800FT

CYQF;2018-08-15 21:00;CYQF 152100Z 16009KT 1SM FU OVC024 26/09 A2990 RMK FU6FU2 SLP127 DENSITY ALT 4900FT

CYQF;2018-08-15 22:00;CYQF 152200Z 11008KT 070V170 1SM FU OVC032 26/10 A2991 RMK FU6FU2 SLP129 DENSITY ALT 4900FT

CYQF;2018-08-15 23:00;CYQF 152300Z 10009KT 1SM FU OVC035 25/10 A2991 RMK FU6FU2 SLP133 DENSITY ALT 4800FT

CYQF;2018-08-16 00:00;CYQF 160000Z 06012KT 1SM FU OVC030 23/09 A2992 RMK FU5FU3 SLP139 DENSITY ALT 4600FT

CYQF;2018-08-16 01:00;CYQF 160100Z 05011KT 1 1/4SM FU OVC036 22/09 A2995 RMK FU5FU3 SLP149 DENSITY ALT 4400FT

CYQF;2018-08-16 02:00;CYQF 160200Z 02012KT 1 1/4SM FU OVC036 19/11 A2997 RMK FU7FU1 SLP160 DENSITY ALT 4100FT

CYQF;2018-08-16 03:00;CYQF 160300Z 01008KT 1 1/4SM FU OVC050 17/11 A3000 RMK FU7FU1 SLP172 DENSITY ALT 3800FT

CYQF;2018-08-16 04:00;CYQF 160400Z 35006KT 1 1/4SM FU OVC050 15/11 A3004 RMK FU7FU1 SLP183 DENSITY ALT 3600FT

CYQF;2018-08-16 05:00;CYQF 160500Z 31005KT 1 1/4SM FU OVC050 14/11 A3005 RMK FU6FU2 SLP186 DENSITY ALT 3400FT

CYQF;2018-08-16 06:00;CYQF 160600Z 32005KT 1SM FU OVC050 14/11 A3007 RMK FU6FU2 SLP188 DENSITY ALT 3400FT

CYQF;2018-08-16 07:00;CYQF 160700Z 21003KT 1SM FU VV040 11/09 A3008 RMK FU8 SLP191 DENSITY ALT 3000FT

CYQF;2018-08-16 08:00;CYQF 160800Z 24002KT 1SM FU VV040 10/09 A3007 RMK FU8 SLP187 DENSITY ALT 3000FT

CYQF;2018-08-16 09:00;CYQF 160900Z 20002KT 1SM FU VV040 09/08 A3007 RMK FU8 SLP187

CYQF;2018-08-16 10:00;CYQF 161000Z 22002KT 1SM FU VV040 09/09 A3007 RMK FU8 SLP185

CYQF;2018-08-16 10:48;CYQF 161048Z 19003KT 3/4SM FU MIFG VV040 08/07 A3007 RMK FU8 SLP187

CYQF;2018-08-16 11:00;CYQF 161100Z VRB02KT 3/4SM FU MIFG VV040 09/09 A3007 RMK FU8 SLP187

CYQF;2018-08-16 11:32;CYQF 161132Z 20003KT 1/2SM FU MIFG BKN002 OVC050 07/07 A3007 RMK FU6SF1FU2 SF TR SLP190

CYQF;2018-08-16 12:00;CYQF 161200Z 19002KT 1/2SM FU MIFG BKN002 OVC050 07/07 A3007 RMK FU6SF1FU2 SF TR VIS VRB 1/4-3/4 SLP191

CYQF;2018-08-16 12:08;CYQF 161208Z 19004KT 1/8SM FU MIFG FEW002 VV050 07/07 A3007 RMK ST1FU7 SLP191

CYQF;2018-08-16 12:18;CYQF 161218Z 18004KT 1/4SM FU MIFG FEW002 VV030 06/06 A3007 RMK SF1FU7 SLP193

CYQF;2018-08-16 13:00;CYQF 161300Z 19004KT 1/4SM FU MIFG OVC100 06/06 A3008 RMK FU7AC1 SLP197

CYQF;2018-08-16 13:25;CYQF 161325Z 00000KT 1/2SM FU VV030 06/06 A3008 RMK FU8 SLP198

CYQF;2018-08-16 14:00;CYQF 161400Z 00000KT 3/4SM FU VV035 08/08 A3008 RMK FU8 SLP198

CYQF;2018-08-16 15:00;CYQF 161500Z 18003KT 1SM FU VV038 12/10 A3008 RMK FU8 SLP197 DENSITY ALT 3200FT

CYQF;2018-08-16 15:41;CYQF 161541Z 19004KT 1 1/2SM FU VV035 14/11 A3008 RMK FU8 SLP193 DENSITY ALT 3500FT

CYQF;2018-08-16 16:00;CYQF 161600Z 16005KT 140V200 1 1/2SM FU VV036 16/11 A3007 RMK FU8 SLP192 DENSITY ALT 3600FT

CYQF;2018-08-16 17:00;CYQF 161700Z 16012KT 1 1/2SM FU VV035 20/10 A3006 RMK FU8 SLP184 DENSITY ALT 4100FT

CYQF;2018-08-16 18:00;CYQF 161800Z 17013KT 2SM FU SKC 22/10 A3004 RMK FU6 SLP175 DENSITY ALT 4300FT

CYQF;2018-08-16 19:00;CYQF 161900Z 19011G17KT 1 1/2SM FU VV039 24/11 A3002 RMK FU8 SLP170 DENSITY ALT 4600FT

CYQF;2018-08-16 20:00;CYQF 162000Z 19011KT 1 1/2SM FU VV039 25/11 A3001 RMK FU8 SLP166 DENSITY ALT 4800FT

CYQF;2018-08-16 21:00;CYQF 162100Z 16008KT 1 1/2SM FU VV038 27/11 A3000 RMK FU8 SLP159 DENSITY ALT 5000FT

CYQF;2018-08-16 22:00;CYQF 162200Z 17005KT 1 1/2SM FU VV038 28/10 A2999 RMK FU8 SLP155 DENSITY ALT 5100FT

CYQF;2018-08-16 23:00;CYQF 162300Z 13006KT 100V170 1 1/2SM FU VV044 28/08 A2998 RMK FU8 SLP152 DENSITY ALT 5100FT

CYQF;2018-08-17 00:00;CYQF 170000Z 13008KT 2SM FU VV050 28/10 A2997 RMK FU8 SLP150 DENSITY ALT 5100FT

CYQF;2018-08-17 01:00;CYQF 170100Z 14005KT 2SM FU VV050 26/11 A2997 RMK FU8 SLP154 DENSITY ALT 4900FT

CYQF;2018-08-17 02:00;CYQF 170200Z 15005KT 2SM FU VV050 22/12 A2997 RMK FU8 SLP156 DENSITY ALT 4500FT

CYQF;2018-08-17 03:00;CYQF 170300Z 15007KT 2SM FU VV050 19/10 A2997 RMK FU8 SLP157 DENSITY ALT 4100FT

CYQF;2018-08-17 04:00;CYQF 170400Z 15006KT 2 1/2SM FU VV050 18/10 A2999 RMK FU8 SLP158 DENSITY ALT 4000FT

CYQF;2018-08-17 05:00;CYQF 170500Z 15005KT 3SM FU VV060 16/10 A3000 RMK FU8 SLP159 DENSITY ALT 3800FT

CYQF;2018-08-17 06:00;CYQF 170600Z 00000KT 3SM FU OVC140 16/11 A3000 RMK FU6AC2 SLP157 DENSITY ALT 3800FT

CYQF;2018-08-17 07:00;CYQF 170700Z 18004KT 5SM FU BKN140 16/10 A3000 RMK FU5AC2 SLP158 DENSITY ALT 3700FT

CYQF;2018-08-17 08:00;CYQF 170800Z 23005KT 5SM FU BKN140 14/10 A3000 RMK FU5AC2 SLP158 DENSITY ALT 3500FT

CYQF;2018-08-17 09:00;CYQF 170900Z 20003KT 5SM FU BKN150 10/09 A3000 RMK FU4AC2 SLP160 DENSITY ALT 3000FT

CYQF;2018-08-17 10:00;CYQF 171000Z 19005KT 5SM FU BKN150 09/08 A3001 RMK FU3AC3 SLP163

CYQF;2018-08-17 11:00;CYQF 171100Z 00000KT 5SM FU BKN150 10/09 A3002 RMK FU2AC4 SLP166 DENSITY ALT 3000FT

CYQF;2018-08-17 12:00;CYQF 171200Z 20006KT 5SM FU BKN140 07/06 A3003 RMK FU3AC3 SLP174

CYQF;2018-08-17 13:00;CYQF 171300Z 20004KT 2 1/2SM FU BKN150 08/08 A3004 RMK FU3AC3 SLP178

CYQF;2018-08-17 14:00;CYQF 171400Z 16004KT 2 1/2SM FU BKN150 10/09 A3005 RMK FU3AC3 SLP183

CYQF;2018-08-17 15:00;CYQF 171500Z 19005KT 2 1/2SM FU BKN150 12/11 A3006 RMK FU3AC2 SLP187 DENSITY ALT 3200FT

CYQF;2018-08-17 16:00;CYQF 171600Z 21005KT 2 1/2SM FU VV040 16/13 A3006 RMK FU8 SLP184 DENSITY ALT 3700FT

CYQF;2018-08-17 17:00;CYQF 171700Z 23004KT 2 1/2SM FU VV040 18/14 A3006 RMK FU8 SLP182 DENSITY ALT 3900FT

CYQF;2018-08-17 18:00;CYQF 171800Z 32002KT 2 1/2SM FU VV040 22/14 A3005 RMK FU8 SLP176 DENSITY ALT 4400FT

CYQF;2018-08-17 19:00;CYQF 171900Z 05003KT 340V140 2SM FU VV030 24/10 A3004 RMK FU8 SLP170 DENSITY ALT 4600FT

CYQF;2018-08-17 20:00;CYQF 172000Z VRB05KT 2SM FU VV040 26/12 A3002 RMK FU8 SLP165 DENSITY ALT 4800FT

CYQF;2018-08-17 21:00;CYQF 172100Z 13005KT 080V250 2SM FU VV040 27/11 A3001 RMK FU8 SLP164 DENSITY ALT 4900FT

CYQF;2018-08-17 22:00;CYQF 172200Z 17006KT 110V210 2SM FU VV040 27/10 A3000 RMK FU8 SLP161 DENSITY ALT 5000FT

CYQF;2018-08-17 23:00;CYQF 172300Z 14006KT 120V190 2SM FU VV040 28/08 A2999 RMK FU8 SLP157 DENSITY ALT 5100FT

CYQF;2018-08-18 00:00;CYQF 180000Z 11005KT 090V170 2 1/2SM FU VV040 27/09 A2998 RMK FU8 SLP156 DENSITY ALT 5000FT

CYQF;2018-08-18 00:31;CYQF 180031Z 13006KT 3SM FU SKC 27/10 A2998 RMK FU5 SLP156 DENSITY ALT 5000FT

CYQF;2018-08-18 01:00;CYQF 180100Z 14006KT 3SM FU SKC 26/09 A2998 RMK FU5 SLP155 DENSITY ALT 4900FT

CYQF;2018-08-18 02:00;CYQF 180200Z 13004KT 3SM FU SKC 22/11 A2997 RMK FU6 SLP156 DENSITY ALT 4500FT

CYQF;2018-08-18 03:00;CYQF 180300Z 17003KT 3SM FU BKN250 21/10 A2998 RMK FU5CI1 CI TR SLP157 DENSITY ALT 4300FT

CYQF;2018-08-18 04:00;CYQF 180400Z 32002KT 6SM FU SKC 19/10 A3000 RMK FU4 SLP162 DENSITY ALT 4100FT

CYQF;2018-08-18 05:00;CYQF 180500Z 26002KT 6SM FU SKC 16/11 A3000 RMK FU4 SLP165 DENSITY ALT 3700FT

CYQF;2018-08-18 06:00;CYQF 180600Z 01014KT 3SM FU SKC 18/09 A3006 RMK FU6 SLP176 DENSITY ALT 3900FT

CYQF;2018-08-18 07:00;CYQF 180700Z 02007KT 3SM FU SKC 15/07 A3008 RMK FU6 SLP184 DENSITY ALT 3500FT

CYQF;2018-08-18 08:00;CYQF 180800Z 32005KT 2SM FU VV040 14/07 A3009 RMK FU8 SLP188 DENSITY ALT 3400FT

CYQF;2018-08-18 09:00;CYQF 180900Z 30007KT 2SM FU VV040 12/08 A3010 RMK FU8 SLP192 DENSITY ALT 3100FT

CYQF;2018-08-18 10:00;CYQF 181000Z 29006KT 2SM FU VV040 11/07 A3011 RMK FU8 SLP196 DENSITY ALT 3000FT

CYQF;2018-08-18 11:00;CYQF 181100Z 18004KT 150V260 2SM FU VV040 08/06 A3013 RMK FU8 SLP205

CYQF;2018-08-18 12:00;CYQF 181200Z VRB02KT 2SM FU VV040 07/06 A3013 RMK FU8 SLP209

CYQF;2018-08-18 13:00;CYQF 181300Z 20005KT 1 1/2SM FU BR VV037 06/05 A3015 RMK FU8 SLP218

CYQF;2018-08-18 14:00;CYQF 181400Z 22003KT 1 1/2SM FU BR VV033 08/06 A3017 RMK FU8 SLP225

CYQF;2018-08-18 15:00;CYQF 181500Z 30004KT 1SM FU VV025 12/08 A3019 RMK FU8 SLP230 DENSITY ALT 3100FT

CYQF;2018-08-18 15:42;CYQF 181542Z 29004KT 1 1/2SM FU VV030 15/07 A3020 RMK FU8 SLP232 DENSITY ALT 3400FT

CYQF;2018-08-18 16:00;CYQF 181600Z 29004KT 1 1/2SM FU VV035 15/07 A3021 RMK FU8 SLP235 DENSITY ALT 3400FT

CYQF;2018-08-18 17:00;CYQF 181700Z 32007KT 1 1/2SM FU VV040 17/05 A3022 RMK FU8 SLP242 DENSITY ALT 3600FT

CYQF;2018-08-18 18:00;CYQF 181800Z 33014G20KT 2SM FU VV030 17/05 A3024 RMK FU8 SLP245 DENSITY ALT 3600FT

CYQF;2018-08-18 19:00;CYQF 181900Z 33011G17KT 2SM FU VV030 16/05 A3026 RMK FU8 SLP256 DENSITY ALT 3500FT

CYQF;2018-08-18 20:00;CYQF 182000Z 34008KT 2SM FU VV030 16/06 A3027 RMK FU8 SLP260 DENSITY ALT 3400FT

CYQF;2018-08-18 21:00;CYQF 182100Z 35010G15KT 2SM FU VV030 17/06 A3028 RMK FU8 SLP265 DENSITY ALT 3500FT

CYQF;2018-08-18 22:00;CYQF 182200Z 34009G16KT 3SM FU OVC180 17/06 A3027 RMK FU5AC3 SLP263 DENSITY ALT 3600FT

CYQF;2018-08-18 23:00;CYQF 182300Z 31007KT 260V350 3SM FU OVC220 17/06 A3027 RMK FU6CI2 SLP265 DENSITY ALT 3600FT

CYQF;2018-08-19 00:00;CYQF 190000Z 27007KT 250V330 3SM FU OVC220 18/06 A3026 RMK FU6CI2 SLP263 DENSITY ALT 3600FT

CYQF;2018-08-19 01:00;CYQF 190100Z 28006KT 3SM FU OVC220 17/06 A3025 RMK FU6CI2 SLP263 DENSITY ALT 3500FT

CYQF;2018-08-19 02:00;CYQF 190200Z 25007KT 3SM FU BKN088 OVC220 14/06 A3026 RMK FU6AC1CI1 SLP265 DENSITY ALT 3200FT

CYQF;2018-08-19 03:00;CYQF 190300Z 22004KT 3SM FU BKN090 OVC220 11/06 A3026 RMK FU6AC1CI1 SLP265

CYQF;2018-08-19 04:00;CYQF 190400Z 22004KT 5SM FU BKN100 OVC270 10/06 A3027 RMK FU4AC2CI2 SLP268

CYQF;2018-08-19 05:00;CYQF 190500Z 19002KT 5SM FU BKN100 07/05 A3028 RMK FU4AC2 SLP269

CYQF;2018-08-19 06:00;CYQF 190600Z 19005KT 5SM FU BKN100 06/04 A3027 RMK FU4AC2 SLP270

CYQF;2018-08-19 07:00;CYQF 190700Z 18003KT 5SM FU BKN100 05/04 A3028 RMK FU4AC2 SLP275

CYQF;2018-08-19 08:00;CYQF 190800Z 19002KT 5SM FU BKN100 05/04 A3027 RMK FU4AC2 SLP272

CYQF;2018-08-19 09:00;CYQF 190900Z 21003KT 5SM FU BKN150 04/03 A3026 RMK FU4AC2 SLP269

CYQF;2018-08-19 10:00;CYQF 191000Z 00000KT 5SM FU BKN150 04/04 A3026 RMK FU3AC3 SLP266

CYQF;2018-08-19 11:00;CYQF 191100Z 24003KT 3SM BR FU BKN150 02/02 A3026 RMK FG3AC3 SLP269

CYQF;2018-08-19 12:00;CYQF 191200Z 00000KT 3SM BR FU BKN150 02/01 A3027 RMK FG3AC3 SLP272

CYQF;2018-08-19 13:00;CYQF 191300Z 20005KT 2 1/2SM FU BR BKN140 02/01 A3027 RMK FU6AC1 SLP274

CYQF;2018-08-19 14:00;CYQF 191400Z 21002KT 2 1/2SM FU BKN140 05/04 A3028 RMK FU6AC1 SLP278

CYQF;2018-08-19 15:00;CYQF 191500Z 22005KT 3SM FU BKN250 07/06 A3029 RMK FU3CI4 SLP280

CYQF;2018-08-19 16:00;CYQF 191600Z 23005KT 180V240 3SM FU BKN050 BKN250 11/06 A3029 RMK FU3FU2CI2 SLP277

CYQF;2018-08-19 17:00;CYQF 191700Z 21006KT 3SM FU BKN050 BKN250 15/06 A3028 RMK FU3FU2CI1 SLP275 DENSITY ALT 3200FT

CYQF;2018-08-19 18:00;CYQF 191800Z 22004KT 170V240 3SM FU SCT050 BKN250 17/06 A3029 RMK FU2FU2CI3 SLP275 DENSITY ALT 3500FT

CYQF;2018-08-19 19:00;CYQF 191900Z 00000KT 3SM FU BKN040 BKN250 19/06 A3027 RMK FU2FU3CI2 SLP269 DENSITY ALT 3700FT

CYQF;2018-08-19 20:00;CYQF 192000Z 28003KT 160V300 3SM FU BKN040 BKN250 19/04 A3026 RMK FU2FU3CI1 SLP264 DENSITY ALT 3800FT

CYQF;2018-08-19 21:00;CYQF 192100Z VRB02KT 3SM FU BKN040 BKN061 BKN250 21/04 A3025 RMK FU3FU2CU1CI1 SLP258 DENSITY ALT 4000FT

CYQF;2018-08-19 22:00;CYQF 192200Z 08005KT 360V100 3SM FU OVC120 21/02 A3024 RMK FU5AC3 SLP257 DENSITY ALT 4000FT

CYQF;2018-08-19 23:00;CYQF 192300Z VRB05KT 4SM FU SCT070 BKN120 21/02 A3023 RMK FU2CU2AC2 SLP254 DENSITY ALT 4000FT

CYQF;2018-08-20 00:00;CYQF 200000Z 04003KT 280V050 4SM FU SCT070 BKN120 21/02 A3022 RMK FU2CU2AC2 SLP251 DENSITY ALT 4100FT

CYQF;2018-08-20 01:00;CYQF 200100Z 03004KT 330V040 4SM FU OVC120 20/04 A3022 RMK FU3AC5 SLP254 DENSITY ALT 3900FT

CYQF;2018-08-20 02:00;CYQF 200200Z 03007KT 4SM FU OVC100 17/05 A3023 RMK FU3AC5 SLP255 DENSITY ALT 3600FT

CYQF;2018-08-20 03:00;CYQF 200300Z 04006KT 5SM FU BKN084 OVC150 17/05 A3024 RMK FU2AC4AC2 SLP257 DENSITY ALT 3500FT

CYQF;2018-08-20 04:00;CYQF 200400Z 06005KT 6SM FU OVC078 15/05 A3026 RMK AC8 SLP260 DENSITY ALT 3300FT

CYQF;2018-08-20 04:37;CYQF 200437Z 01005KT 6SM -RA FU OVC076 14/06 A3027 RMK AC8 SLP265 DENSITY ALT 3200FT

CYQF;2018-08-20 05:00;CYQF 200500Z 02004KT 8SM -RA OVC075 14/07 A3028 RMK AC8 SLP266 DENSITY ALT 3100FT

CYQF;2018-08-20 06:00;CYQF 200600Z 04003KT 8SM -RA OVC075 12/08 A3030 RMK AC8 SLP272

CYQF;2018-08-20 06:48;CYQF 200648Z 01011KT 10SM OVC060 12/08 A3032 RMK SC8 WSHFT 0637 SLP282

CYQF;2018-08-20 07:00;CYQF 200700Z 04016KT 8SM -RA OVC060 12/07 A3033 RMK SC8 SLP280

CYQF;2018-08-20 08:00;CYQF 200800Z 01007KT 8SM -RA OVC060 12/07 A3033 RMK SC8 SLP282

CYQF;2018-08-20 09:00;CYQF 200900Z 14007KT 8SM -RA OVC080 12/08 A3030 RMK AC8 SLP270

CYQF;2018-08-20 10:00;CYQF 201000Z 33004KT 8SM -RA OVC110 10/08 A3031 RMK AC8 SLP275

CYQF;2018-08-20 10:35;CYQF 201035Z 34004KT 10SM OVC120 10/08 A3032 RMK AC8 SLP279

CYQF;2018-08-20 11:00;CYQF 201100Z 25002KT 10SM OVC130 09/07 A3033 RMK AC8 SLP283

CYQF;2018-08-20 12:00;CYQF 201200Z 02003KT 280V040 10SM BKN140 06/04 A3035 RMK AC6 SLP291

CYQF;2018-08-20 13:00;CYQF 201300Z 00000KT 10SM SCT140 06/06 A3037 RMK AC3 SLP299

CYQF;2018-08-20 14:00;CYQF 201400Z 00000KT 8SM FEW140 09/07 A3038 RMK AC2 SLP302

CYQF;2018-08-20 15:00;CYQF 201500Z VRB02KT 8SM SKC 12/09 A3038 RMK SLP300

CYQF;2018-08-20 16:00;CYQF 201600Z VRB02KT 8SM SKC 15/09 A3038 RMK SLP298 DENSITY ALT 3100FT

CYQF;2018-08-20 17:00;CYQF 201700Z 36003KT 300V070 8SM SKC 16/07 A3037 RMK SLP295 DENSITY ALT 3300FT

CYQF;2018-08-20 18:00;CYQF 201800Z 00000KT 8SM FEW052 17/05 A3036 RMK CU1 SLP294 DENSITY ALT 3500FT

CYQF;2018-08-20 19:00;CYQF 201900Z 09003KT 010V150 8SM FEW052 19/04 A3034 RMK CU2 SLP284 DENSITY ALT 3700FT

CYQF;2018-08-20 20:00;CYQF 202000Z VRB02KT 6SM HZ SCT065 19/02 A3032 RMK CU3 SLP279 DENSITY ALT 3700FT

CYQF;2018-08-20 21:00;CYQF 202100Z 18005KT 6SM HZ SCT076 21/02 A3031 RMK CU4 SLP274 DENSITY ALT 3900FT

CYQF;2018-08-20 22:00;CYQF 202200Z 28003KT 190V330 6SM HZ BKN076 BKN250 21/02 A3030 RMK HZ1CU4CI1 SLP271 DENSITY ALT 3900FT

CYQF;2018-08-20 23:00;CYQF 202300Z 22004KT 6SM HZ FEW075 21/03 A3028 RMK CU2 SLP264 DENSITY ALT 4000FT

CYQF;2018-08-21 00:00;CYQF 210000Z 21006KT 6SM HZ SCT075 21/03 A3027 RMK CU3 SLP263 DENSITY ALT 4000FT

CYQF;2018-08-21 01:00;CYQF 210100Z 17005KT 160V220 8SM SCT065 SCT250 20/03 A3025 RMK CU3CI1 HZ SLP259 DENSITY ALT 3900FT

CYQF;2018-08-21 02:00;CYQF 210200Z 20004KT 8SM SCT250 18/05 A3025 RMK CI4 HZ SLP257 DENSITY ALT 3700FT

CYQF;2018-08-21 03:00;CYQF 210300Z 18004KT 8SM SCT250 13/06 A3025 RMK CI4 HZ SLP258 DENSITY ALT 3100FT

CYQF;2018-08-21 04:00;CYQF 210400Z 18004KT 8SM FEW160 SCT250 11/05 A3025 RMK AC1CI2 HZ SLP259

CYQF;2018-08-21 05:00;CYQF 210500Z 18004KT 8SM FEW140 10/05 A3025 RMK AC1 SLP257

CYQF;2018-08-21 06:00;CYQF 210600Z 17003KT 10SM FEW140 09/05 A3024 RMK AC1 SLP255

CYQF;2018-08-21 07:00;CYQF 210700Z 19005KT 10SM FEW160 09/05 A3023 RMK AC1 SLP250

CYQF;2018-08-22 01:00;CYQF 220100Z 13003KT 080V150 6SM FU BKN250 25/05 A3007 RMK FU1CI4 SLP193 DENSITY ALT 4700FT

CYQF;2018-08-22 02:00;CYQF 220200Z 14004KT 6SM FU SCT250 22/06 A3006 RMK CI3 SLP190 DENSITY ALT 4300FT

CYQF;2018-08-22 03:00;CYQF 220300Z 15004KT 10SM SCT250 18/06 A3005 RMK CI4 FU SLP187 DENSITY ALT 3900FT

CYQF;2018-08-22 05:00;CYQF 220500Z 20004KT 10SM FEW140 12/05 A3003 RMK AC2 FU SLP177 DENSITY ALT 3300FT

CYQF;2018-08-22 07:00;CYQF 220700Z 18003KT 10SM FEW140 10/04 A3000 RMK AC1 FU SLP165 DENSITY ALT 3000FT

CYQF;2018-08-22 08:00;CYQF 220800Z 18006KT 10SM FEW140 08/03 A2999 RMK AC1 FU SLP160

CYQF;2018-08-22 09:00;CYQF 220900Z 19003KT 10SM SKC 08/03 A2996 RMK FU SLP152

CYQF;2018-08-22 10:00;CYQF 221000Z 19005KT 10SM SKC 08/03 A2995 RMK FU SLP146

CYQF;2018-08-22 11:00;CYQF 221100Z 18003KT 10SM FEW140 08/03 A2994 RMK AC1 FU SLP141

CYQF;2018-08-22 13:00;CYQF 221300Z 24002KT 10SM SKC 07/03 A2992 RMK SLP138

CYQF;2018-08-22 14:00;CYQF 221400Z 20006KT 10SM FEW140 FEW250 10/05 A2991 RMK AC1CI2 AC TR SLP136 DENSITY ALT 3200FT

CYQF;2018-08-22 15:00;CYQF 221500Z 22006KT 10SM SKC 14/07 A2991 RMK SLP133 DENSITY ALT 3600FT

CYQF;2018-08-22 16:00;CYQF 221600Z 25003KT 210V280 10SM SKC 18/08 A2990 RMK SLP128 DENSITY ALT 4100FT

CYQF;2018-08-22 17:00;CYQF 221700Z 00000KT 8SM SCT280 23/08 A2989 RMK CI3 FU SLP122 DENSITY ALT 4700FT

CYQF;2018-08-22 17:16;CYQF 221716Z 02003KT 6SM FU SCT280 25/08 A2988 RMK CI3 SLP118 DENSITY ALT 4900FT

CYQF;2018-08-22 18:00;CYQF 221800Z 05006KT 6SM FU SKC 27/08 A2987 RMK FU2 SLP117 DENSITY ALT 5100FT

CYQF;2018-08-22 19:00;CYQF 221900Z 03006KT 6SM FU SKC 28/06 A2985 RMK FU2 SLP109 DENSITY ALT 5200FT

CYQF;2018-08-22 20:00;CYQF 222000Z 36005KT 240V030 3SM FU VV042 29/03 A2984 RMK FU8 SLP104 DENSITY ALT 5400FT

CYQF;2018-08-22 21:00;CYQF 222100Z 06003KT 330V100 3SM FU VV040 29/05 A2981 RMK FU8 SLP096 DENSITY ALT 5400FT

CYQF;2018-08-22 22:00;CYQF 222200Z 01008KT 340V090 3SM FU OVC050 30/04 A2980 RMK FU3FU5 SLP090 DENSITY ALT 5500FT

CYQF;2018-08-22 22:32;CYQF 222232Z 03010KT 2 1/2SM FU SKC 30/05 A2979 RMK FU7 SLP087 DENSITY ALT 5500FT

CYQF;2018-08-22 23:00;CYQF 222300Z 02010KT 2SM FU VV045 30/05 A2979 RMK FU8 SLP086 DENSITY ALT 5500FT

CYQF;2018-08-23 00:00;CYQF 230000Z 03009KT 2 1/2SM FU OVC040 28/05 A2978 RMK FU4FU4 SLP088 DENSITY ALT 5300FT

CYQF;2018-08-23 01:00;CYQF 230100Z 02008KT 2 1/2SM FU OVC050 26/07 A2978 RMK FU3FU5 SLP088 DENSITY ALT 5100FT

CYQF;2018-08-23 02:00;CYQF 230200Z 04007KT 2 1/2SM FU OVC040 21/06 A2977 RMK FU4FU4 SLP087 DENSITY ALT 4600FT

CYQF;2018-08-23 03:00;CYQF 230300Z 01008KT 2 1/2SM FU OVC050 19/07 A2977 RMK FU4FU4 SLP086 DENSITY ALT 4400FT

CYQF;2018-08-23 04:00;CYQF 230400Z 02004KT 2 1/2SM FU OVC040 18/05 A2978 RMK FU4FU4 SLP084 DENSITY ALT 4200FT

CYQF;2018-08-23 04:19;CYQF 230419Z 02005KT 1 1/2SM FU VV040 17/05 A2978 RMK FU8 SLP085 DENSITY ALT 4100FT

CYQF;2018-08-23 05:00;CYQF 230500Z 36003KT 1 1/2SM FU VV004 15/06 A2978 RMK FU8 SLP081 DENSITY ALT 3800FT

CYQF;2018-08-23 06:00;CYQF 230600Z 34002KT 1 1/2SM FU VV036 17/05 A2978 RMK FU8 SLP076 DENSITY ALT 4000FT

CYQF;2018-08-23 07:00;CYQF 230700Z 24004KT 1 1/2SM FU VV039 12/06 A2978 RMK FU8 SLP082 DENSITY ALT 3500FT

CYQF;2018-08-23 08:00;CYQF 230800Z VRB02KT 1 1/2SM FU VV040 12/05 A2978 RMK FU8 SLP078 DENSITY ALT 3600FT

CYQF;2018-08-23 09:00;CYQF 230900Z 18006KT 1 1/2SM FU VV040 08/05 A2977 RMK FU8 SLP080 DENSITY ALT 3100FT

CYQF;2018-08-23 10:00;CYQF 231000Z 19004KT 1 1/2SM FU VV040 08/05 A2977 RMK FU8 SLP078 DENSITY ALT 3100FT

CYQF;2018-08-23 11:00;CYQF 231100Z 20003KT 1 1/2SM FU VV040 07/05 A2977 RMK FU8 SLP081 DENSITY ALT 3000FT

CYQF;2018-08-23 12:00;CYQF 231200Z 21003KT 1 1/2SM FU VV042 07/05 A2976 RMK FU8 SLP081

CYQF;2018-08-23 13:00;CYQF 231300Z VRB02KT 2SM FU SKC 06/05 A2978 RMK FU7 SLP089

CYQF;2018-08-23 14:00;CYQF 231400Z VRB02KT 1 3/4SM FU VV034 08/06 A2979 RMK FU8 SLP095 DENSITY ALT 3000FT

CYQF;2018-08-23 15:00;CYQF 231500Z 19003KT 180V260 1 3/4SM FU VV036 10/08 A2978 RMK FU8 SLP093 DENSITY ALT 3300FT

CYQF;2018-08-23 16:00;CYQF 231600Z 16002KT 1 3/4SM FU VV036 15/08 A2977 RMK FU8 SLP085 DENSITY ALT 3800FT

CYQF;2018-08-23 17:00;CYQF 231700Z 23003KT 1 1/2SM FU VV034 18/07 A2975 RMK FU8 SLP078 DENSITY ALT 4200FT

CYQF;2018-08-23 18:00;CYQF 231800Z 24003KT 190V270 1 1/2SM FU VV035 21/08 A2974 RMK FU8 SLP069 DENSITY ALT 4600FT

CYQF;2018-08-23 19:00;CYQF 231900Z VRB02KT 1 1/2SM FU OVC040 24/06 A2972 RMK FU4FU4 SLP067 DENSITY ALT 4900FT

CYQF;2018-08-23 20:00;CYQF 232000Z 20003KT 110V260 1 1/2SM FU VV036 26/02 A2971 RMK FU8 SLP061 DENSITY ALT 5100FT

CYQF;2018-08-23 21:00;CYQF 232100Z 35005KT 310V030 1 1/2SM FU VV040 27/05 A2971 RMK FU8 SLP060 DENSITY ALT 5300FT

CYQF;2018-08-23 22:00;CYQF 232200Z 00000KT 1 1/2SM FU VV036 27/04 A2969 RMK FU8 SLP055 DENSITY ALT 5400FT

CYQF;2018-08-23 23:00;CYQF 232300Z 07005KT 010V110 1 1/2SM FU VV040 27/07 A2967 RMK FU8 SLP049 DENSITY ALT 5400FT

CYQF;2018-08-24 00:00;CYQF 240000Z 02006KT 1 1/2SM FU VV040 27/07 A2966 RMK FU8 SLP047 DENSITY ALT 5300FT

CYQF;2018-08-24 01:00;CYQF 240100Z 01010KT 1 1/2SM FU VV040 24/07 A2967 RMK FU8 SLP053 DENSITY ALT 5000FT

CYQF;2018-08-24 02:00;CYQF 240200Z 01018KT 1 1/2SM FU VV040 20/13 A2969 RMK FU8 SLP062 DENSITY ALT 4600FT

CYQF;2018-08-24 03:00;CYQF 240300Z 01014G20KT 1 1/2SM FU VV040 17/13 A2971 RMK FU8 SLP072 DENSITY ALT 4200FT

CYQF;2018-08-24 03:35;CYQF 240335Z 01018KT 1 1/2SM FU OVC012 16/13 A2972 RMK FU4SC4 SLP077 DENSITY ALT 4000FT

CYQF;2018-08-24 03:48;CYQF 240348Z 01016G23KT 1 1/2SM FU OVC008 15/13 A2973 RMK FU4ST4 SLP078 DENSITY ALT 4000FT

CYQF;2018-08-24 04:00;CYQF 240400Z 36014G20KT 1 1/2SM FU OVC008 15/13 A2973 RMK FU4ST4 SLP076 DENSITY ALT 3900FT

CYQF;2018-08-24 05:00;CYQF 240500Z 36016KT 1 1/2SM FU OVC006 14/13 A2974 RMK FU4ST4 SLP077 DENSITY ALT 3800FT

CYQF;2018-08-24 05:50;CYQF 240550Z 35012G21KT 1SM FU OVC004 13/12 A2976 RMK FU5ST3 SLP085 DENSITY ALT 3700FT

CYQF;2018-08-24 06:00;CYQF 240600Z 34016G21KT 1SM FU OVC004 13/12 A2977 RMK FU5ST3 SLP082 DENSITY ALT 3600FT

CYQF;2018-08-24 06:08;CYQF 240608Z 35016G23KT 1SM -DZ FU OVC004 13/12 A2976 RMK FU5ST3 SLP081 DENSITY ALT 3600FT

CYQF;2018-08-24 07:00;CYQF 240700Z 34011G19KT 1SM -DZ FU OVC004 12/11 A2977 RMK FU5ST3 SLP083 DENSITY ALT 3500FT

CYQF;2018-08-24 08:00;CYQF 240800Z 34011KT 1SM -DZ FU OVC004 11/11 A2978 RMK FU5ST3 SLP085 DENSITY ALT 3400FT

CYQF;2018-08-24 09:00;CYQF 240900Z 35010G16KT 1 1/4SM -DZ FU OVC005 11/11 A2978 RMK FU5ST3 SLP083 DENSITY ALT 3400FT

CYQF;2018-08-24 10:00;CYQF 241000Z 33012KT 1 1/2SM FU OVC005 11/10 A2980 RMK FU4ST4 SLP088 DENSITY ALT 3300FT

CYQF;2018-08-24 11:00;CYQF 241100Z 33013G20KT 4SM FU BKN006 OVC019 11/10 A2980 RMK ST6SC2 SLP090 DENSITY ALT 3300FT

CYQF;2018-08-24 12:00;CYQF 241200Z 33015KT 6SM FU SCT008 OVC020 10/09 A2981 RMK ST4SC4 SLP095 DENSITY ALT 3300FT

CYQF;2018-08-24 12:38;CYQF 241238Z 34012G19KT 2 1/2SM FU SCT008 OVC014 10/10 A2981 RMK SF3SC5 SLP096 DENSITY ALT 3300FT

CYQF;2018-08-24 13:00;CYQF 241300Z 35010G16KT 3SM -DZ FU OVC008 10/10 A2981 RMK SC8 CIG RAG SLP100 DENSITY ALT 3300FT

CYQF;2018-08-24 14:00;CYQF 241400Z 31009KT 5SM -DZ FU BKN008 OVC060 10/09 A2982 RMK FU7SC1 CIG RAG PRESRR SLP105 DENSITY ALT 3300FT

CYQF;2018-08-24 14:35;CYQF 241435Z 34011G17KT 5SM FU OVC018 10/09 A2983 RMK SC8 SLP107 DENSITY ALT 3300FT

CYQF;2018-08-24 15:00;CYQF 241500Z 34008KT 6SM FU OVC014 10/09 A2983 RMK SC8 CIG RAG SLP111 DENSITY ALT 3300FT

CYQF;2018-08-24 15:31;CYQF 241531Z 35007KT 6SM -RA FU OVC011 10/09 A2983 RMK SC8 SLP113 DENSITY ALT 3200FT

CYQF;2018-08-24 16:00;CYQF 241600Z 31010KT 4SM -RA FU BR SCT010 OVC018 10/09 A2985 RMK SF4SC4 SLP120 DENSITY ALT 3200FT

CYQF;2018-08-24 17:00;CYQF 241700Z CCA 33008KT 3SM -RA FU BR BKN018 OVC036 10/09 A2986 RMK SC6SC2 SLP125 DENSITY ALT 3100FT

CYQF;2018-08-24 18:00;CYQF 241800Z 33007KT 3SM -RA FU BR BKN009 OVC018 10/09 A2986 RMK SF5SC3 SLP127 DENSITY ALT 3200FT

CYQF;2018-08-24 19:00;CYQF 241900Z 33009G16KT 3SM -RA BR FU BKN010 OVC018 10/09 A2987 RMK SF5SC3 SLP133 DENSITY ALT 3100FT

CYQF;2018-08-24 19:19;CYQF 241919Z 34010KT 6SM FU BR BKN010 OVC024 10/08 A2988 RMK SF5SC3 SLP134 DENSITY ALT 3100FT

CYQF;2018-08-24 20:00;CYQF 242000Z 34010KT 6SM BR SCT010 OVC020 10/08 A2988 RMK SC4SC4 SLP137 DENSITY ALT 3100FT

CYQF;2018-08-24 20:41;CYQF 242041Z 32010G16KT 300V360 5SM -RA BR BKN010 OVC020 10/08 A2989 RMK SC5SC3 SLP140 DENSITY ALT 3100FT

CYQF;2018-08-24 21:00;CYQF 242100Z 30011KT 5SM -RA BR BKN010 OVC040 11/08 A2989 RMK SC5SC3 -RA INTMT SLP138 DENSITY ALT 3300FT

CYQF;2018-08-24 22:00;CYQF 242200Z 31012G20KT 6SM FU SCT010 OVC020 10/07 A2991 RMK SF4SC4 SLP147 DENSITY ALT 3100FT

CYQF;2018-08-24 23:00;CYQF 242300Z 32009G15KT 6SM FU SCT017 OVC025 10/06 A2991 RMK SC3SC5 SLP148 DENSITY ALT 3200FT

CYQF;2018-08-25 00:00;CYQF 250000Z 32012KT 6SM FU OVC025 10/06 A2992 RMK SC8 SLP151 DENSITY ALT 3200FT

CYQF;2018-08-25 01:00;CYQF 250100Z 33006KT 6SM FU OVC022 10/07 A2992 RMK SC8 SLP152 DENSITY ALT 3100FT

CYQF;2018-08-25 02:00;CYQF 250200Z 36008KT 6SM FU FEW018 OVC030 10/07 A2994 RMK SC2SC6 SLP159 DENSITY ALT 3100FT

CYQF;2018-08-25 03:00;CYQF 250300Z 34005KT 6SM FU SCT030 BKN150 07/05 A2996 RMK SC3AC3 SLP168

CYQF;2018-08-25 04:00;CYQF 250400Z 36004KT 8SM FEW020 BKN140 06/04 A2996 RMK SC2AC3 SLP171

CYQF;2018-08-25 05:00;CYQF 250500Z 00000KT 8SM FEW150 04/04 A2996 RMK AC2 SLP172

CYQF;2018-08-25 06:00;CYQF 250600Z 00000KT 4SM BR FEW150 03/03 A2996 RMK AC1 SLP174

CYQF;2018-08-25 06:41;CYQF 250641Z 26003KT 1/2SM FG VV002 03/03 A2996 RMK FG8 SLP174

CYQF;2018-08-25 07:00;CYQF 250700Z 21004KT 1/2SM FG VV002 01/01 A2996 RMK FG8 SLP176

CYQF;2018-08-25 07:53;CYQF 250753Z 21002KT 1/2SM FG SKC 02/01 A2996 RMK FG6 SLP175

CYQF;2018-08-25 08:00;CYQF 250800Z 20003KT 1/2SM FG SKC 01/01 A2996 RMK FG6 SLP174

CYQF;2018-08-25 08:50;CYQF 250850Z 20004KT 3/4SM BR SKC 02/01 A2995 RMK FG5 SLP173

CYQF;2018-08-25 09:00;CYQF 250900Z 19002KT 3/4SM BR SKC 01/01 A2995 RMK FG4 SLP171

CYQF;2018-08-25 09:21;CYQF 250921Z 17003KT 3SM BR FEW150 01/01 A2995 RMK AC2 SLP169

CYQF;2018-08-25 10:00;CYQF 251000Z 21002KT 3SM BR SCT120 01/01 A2994 RMK AC4 SLP170

CYQF;2018-08-25 10:12;CYQF 251012Z 20003KT 3/4SM BR BKN120 02/02 A2994 RMK FG3AC4 SLP168

CYQF;2018-08-25 10:39;CYQF 251039Z 15002KT 3SM BR BKN120 01/01 A2993 RMK AC6 SLP166

CYQF;2018-08-25 11:00;CYQF 251100Z 00000KT 4SM BR BKN110 03/03 A2993 RMK AC6 SLP163

CYQF;2018-08-25 12:00;CYQF 251200Z 05002KT 3SM BR SCT070 OVC120 02/02 A2992 RMK AC3AC5 SLP160

CYQF;2018-08-25 12:21;CYQF 251221Z 02003KT 2SM BR FEW070 OVC120 02/02 A2992 RMK AC2AC6 SLP160

CYQF;2018-08-25 13:00;CYQF 251300Z 00000KT 2SM BR OVC120 03/02 A2991 RMK AC8 SLP156

CYQF;2018-08-25 14:00;CYQF 251400Z 18003KT 2SM BR BKN120 05/05 A2991 RMK FG2AC5 SLP155

CYQF;2018-08-25 15:00;CYQF 251500Z 16004KT 2SM BR FU OVC110 06/06 A2991 RMK FG4AC4 SLP153

CYQF;2018-08-25 16:00;CYQF 251600Z 17005KT 2 1/2SM FU BR BKN110 08/07 A2989 RMK FU3AC4 SLP148

CYQF;2018-08-25 17:00;CYQF 251700Z 17003KT 150V250 2 1/2SM FU OVC110 11/08 A2988 RMK FU6AC2 SLP143 DENSITY ALT 3200FT

CYQF;2018-08-25 18:00;CYQF 251800Z 20008KT 3SM FU OVC110 16/07 A2987 RMK FU6AC2 SLP135 DENSITY ALT 3800FT

CYQF;2018-08-25 19:00;CYQF 251900Z 17011KT 3SM FU BKN110 BKN270 18/08 A2986 RMK FU4AC1CI2 SLP130 DENSITY ALT 4100FT

CYQF;2018-08-25 20:00;CYQF 252000Z 19008KT 2 1/2SM FU BKN250 19/06 A2985 RMK FU4CI3 SLP126 DENSITY ALT 4200FT

CYQF;2018-08-25 21:00;CYQF 252100Z 19005KT 170V280 2 1/2SM FU VV040 20/03 A2984 RMK FU8 SLP122 DENSITY ALT 4300FT

CYQF;2018-08-25 22:00;CYQF 252200Z 25006KT 160V270 2 1/2SM FU VV040 20/02 A2983 RMK FU8 SLP118 DENSITY ALT 4400FT

CYQF;2018-08-25 23:00;CYQF 252300Z 28005KT 160V320 2 1/2SM FU VV040 20/02 A2982 RMK FU8 SLP115 DENSITY ALT 4400FT

CYQF;2018-08-26 00:00;CYQF 260000Z 34005KT 2 1/2SM FU VV040 19/05 A2982 RMK FU8 SLP117 DENSITY ALT 4300FT

CYQF;2018-08-26 01:00;CYQF 260100Z 35002KT 2 1/2SM FU BKN090 18/06 A2982 RMK FU5AC2 SLP117 DENSITY ALT 4200FT

CYQF;2018-08-26 02:00;CYQF 260200Z 01005KT 2SM FU OVC090 16/07 A2982 RMK FU5AC3 SLP115 DENSITY ALT 4000FT

CYQF;2018-08-26 03:00;CYQF 260300Z VRB02KT 2SM FU BKN100 14/07 A2983 RMK FU6AC1 SLP119 DENSITY ALT 3700FT

CYQF;2018-08-26 03:30;CYQF 260330Z 04002KT 3SM FU BKN090 14/07 A2983 RMK FU4AC3 SLP121 DENSITY ALT 3700FT

CYQF;2018-08-26 04:00;CYQF 260400Z 29012KT 260V060 3SM FU BKN085 14/07 A2984 RMK FU4AC3 SLP122 DENSITY ALT 3700FT

CYQF;2018-08-26 05:00;CYQF 260500Z 30009KT 3SM FU BKN070 13/08 A2985 RMK AC7 SLP121 DENSITY ALT 3600FT

CYQF;2018-08-26 05:22;CYQF 260522Z 34014G23KT 3SM -RA FU OVC066 12/08 A2985 RMK AC8 SLP125 DENSITY ALT 3500FT

CYQF;2018-08-26 06:00;CYQF 260600Z 36006KT 4SM FU SCT065 OVC100 11/08 A2984 RMK SC3AC5 SLP117 DENSITY ALT 3400FT

CYQF;2018-08-26 07:00;CYQF 260700Z 09004KT 4SM FU SCT080 OVC110 11/08 A2982 RMK AC4AC4 SLP107 DENSITY ALT 3300FT

CYQF;2018-08-26 08:00;CYQF 260800Z 25004KT 4SM FU OVC100 10/08 A2981 RMK AC8 SLP105 DENSITY ALT 3200FT

CYQF;2018-08-26 09:00;CYQF 260900Z 27004KT 4SM FU OVC075 09/07 A2980 RMK AC8 SLP101 DENSITY ALT 3100FT

CYQF;2018-08-26 10:00;CYQF 261000Z 26005KT 4SM FU OVC120 10/08 A2979 RMK AC8 SLP096 DENSITY ALT 3200FT

CYQF;2018-08-26 11:00;CYQF 261100Z 31003KT 4SM FU OVC090 09/08 A2978 RMK AC8 SLP094 DENSITY ALT 3100FT

CYQF;2018-08-26 12:00;CYQF 261200Z 18002KT 3SM FU OVC070 09/08 A2977 RMK AC8 SLP092 DENSITY ALT 3100FT

CYQF;2018-08-26 12:20;CYQF 261220Z 19003KT 2SM FU OVC065 08/07 A2977 RMK FU3SC5 SLP091 DENSITY ALT 3100FT

CYQF;2018-08-26 13:00;CYQF 261300Z 19003KT 2SM BR FU OVC060 08/08 A2977 RMK FU3SC5 SLP091 DENSITY ALT 3100FT

CYQF;2018-08-26 14:00;CYQF 261400Z 19004KT 2SM BR FU SCT060 OVC120 09/08 A2976 RMK FU3SC1AC4 SLP090 DENSITY ALT 3200FT

CYQF;2018-08-26 15:00;CYQF 261500Z VRB02KT 2SM BR FU BKN060 OVC120 10/08 A2976 RMK FU4SC2AC2 SLP092 DENSITY ALT 3300FT

CYQF;2018-08-26 16:00;CYQF 261600Z VRB02KT 2 1/2SM FU BKN130 13/09 A2975 RMK FU2AC5 SLP085 DENSITY ALT 3700FT

CYQF;2018-08-26 17:00;CYQF 261700Z 19005KT 2 1/2SM FU BKN130 14/07 A2975 RMK FU2AC5 SLP083 DENSITY ALT 3800FT

CYQF;2018-08-26 18:00;CYQF 261800Z 18003KT 100V260 2 1/2SM FU BKN140 17/07 A2975 RMK FU3AC4 SLP082 DENSITY ALT 4100FT

CYQF;2018-08-26 19:00;CYQF 261900Z 05005KT 030V150 2 1/2SM FU BKN042TCU OVC130 18/07 A2973 RMK FU1TCU4AC3 SLP075 DENSITY ALT 4300FT

CYQF;2018-08-26 20:00;CYQF 262000Z 36011G18KT 2 1/2SM FU BKN045TCU BKN080 16/09 A2973 RMK FU2TCU4AC1 SLP079 DENSITY ALT 4000FT

CYQF;2018-08-26 21:00;CYQF 262100Z 01014KT 3SM FU SCT045TCU BKN080 16/08 A2973 RMK FU2TCU2AC3 SLP081 DENSITY ALT 4100FT

CYQF;2018-08-26 22:00;CYQF 262200Z 36013G19KT 4SM FU SCT036TCU OVC090 17/08 A2973 RMK TCU3AC5 SLP080 DENSITY ALT 4100FT

CYQF;2018-08-26 23:00;CYQF 262300Z 34017KT 6SM FU VCSH SCT040 OVC075 14/08 A2976 RMK SC3AC5 SLP092 DENSITY ALT 3800FT

CYQF;2018-08-26 23:19;CYQF 262319Z 34012G20KT 6SM -TSRA FU FEW020CB BKN040 OVC080 12/09 A2977 RMK CB1SC4AC3 SLP098 DENSITY ALT 3500FT

CYQF;2018-08-27 00:00;CYQF 270000Z 35010G19KT 5SM -SHRA FU FEW020TCU OVC050 10/08 A2980 RMK TCU2SC6 SLP110 DENSITY ALT 3300FT

CYQF;2018-08-27 01:00;CYQF 270100Z 33011KT 8SM -SHRA FEW020TCU OVC038 10/08 A2981 RMK TCU2SC6 SLP116 DENSITY ALT 3200FT

CYQF;2018-08-27 02:00;CYQF 270200Z 29006KT 3SM -RA BR SCT009 OVC050 10/09 A2983 RMK SF3SC5 SLP121 DENSITY ALT 3200FT

CYQF;2018-08-27 03:00;CYQF 270300Z 29007KT 6SM -RA BR FEW009 OVC035 09/08 A2985 RMK SF2SC6 SLP127 DENSITY ALT 3100FT

CYQF;2018-08-27 03:42;CYQF 270342Z 29008KT 8SM FEW010 OVC040 09/08 A2985 RMK SF1SC7 SLP129 DENSITY ALT 3100FT

CYQF;2018-08-27 03:51;CYQF 270351Z 30009KT 8SM -SHRA FEW010 OVC040 09/08 A2986 RMK SF1SC7 SLP130 DENSITY ALT 3100FT

CYQF;2018-08-27 04:00;CYQF 270400Z 30009KT 8SM -SHRA FEW010 OVC040 09/08 A2986 RMK SF1SC7 SLP127 DENSITY ALT 3100FT

CYQF;2018-08-27 04:52;CYQF 270452Z 32014KT 10SM FEW010 OVC045 10/08 A2987 RMK SF1SC7 SLP130 DENSITY ALT 3100FT

CYQF;2018-08-27 05:00;CYQF 270500Z 32014G19KT 10SM FEW010 OVC045 10/08 A2987 RMK SF1SC7 SLP129 DENSITY ALT 3100FT

CYQF;2018-08-27 06:00;CYQF 270600Z 34015G20KT 10SM FEW010 OVC021 09/07 A2989 RMK SF1SC7 SLP135 DENSITY ALT 3000FT

CYQF;2018-08-27 07:00;CYQF 270700Z 34014G22KT 12SM FEW010 OVC040 08/06 A2991 RMK SF1SC7 SLP142

CYQF;2018-08-27 08:00;CYQF 270800Z 35009G15KT 12SM OVC015 07/05 A2994 RMK SF8 SLP154

CYQF;2018-08-27 09:00;CYQF 270900Z 34012G18KT 12SM OVC015 07/05 A2995 RMK SC8 SLP157

CYQF;2018-08-27 10:00;CYQF 271000Z 33013G22KT 12SM FEW010 OVC015 07/05 A2997 RMK SF2SC6 SLP165

CYQF;2018-08-27 10:23;CYQF 271023Z 32018KT 12SM OVC012 07/05 A2998 RMK SC8 SLP169

CYQF;2018-08-27 10:32;CYQF 271032Z 33014G22KT 12SM -RA OVC012 07/05 A2999 RMK SC8 SLP170

CYQF;2018-08-27 11:00;CYQF 271100Z 34015KT 8SM -RA OVC012 06/05 A3000 RMK SC8 SLP180

CYQF;2018-08-27 12:00;CYQF 271200Z 33014G19KT 6SM -RA BKN010 OVC014 06/05 A3003 RMK SC5SC3 SLP193

CYQF;2018-08-27 12:25;CYQF 271225Z 34014G21KT 2SM -RA BR FEW007 OVC012 06/05 A3004 RMK SF2SC6 SLP199

CYQF;2018-08-27 13:00;CYQF 271300Z 33014G23KT 2SM BR OVC009 06/05 A3006 RMK FG2SF6 SLP204

CYQF;2018-08-27 13:50;CYQF 271350Z 35011G17KT 4SM -RA BR OVC011 06/05 A3008 RMK SC8 CIG RAG SLP213

CYQF;2018-08-27 14:00;CYQF 271400Z 36011G17KT 5SM -RA BR OVC020 06/04 A3009 RMK SC8 CIG RAG SLP215

CYQF;2018-08-27 14:37;CYQF 271437Z 34007KT 6SM BR VCSH BKN020 BKN260 06/05 A3010 RMK SC6CI1 SLP219

CYQF;2018-08-27 14:50;CYQF 271450Z 33011KT 6SM BR VCSH BKN014 OVC040 06/05 A3010 RMK SF6SC2 SLP220

CYQF;2018-08-27 15:00;CYQF 271500Z 33011KT 6SM BR VCSH BKN014 OVC040 06/05 A3010 RMK SF6SC2 SLP221

CYQF;2018-08-27 16:00;CYQF 271600Z 34011G17KT 8SM BKN016 OVC033 06/05 A3012 RMK SC5SC3 BR SLP226

CYQF;2018-08-27 16:38;CYQF 271638Z 33010G16KT 6SM -RA BR BKN016 OVC027 07/04 A3013 RMK SC5SC3 SLP228

CYQF;2018-08-27 17:00;CYQF 271700Z 35013G20KT 6SM -RA BR SCT014 BKN027 07/04 A3013 RMK SC4SC3 SLP229

CYQF;2018-08-27 18:00;CYQF 271800Z 33013G19KT 8SM -RA FEW020 BKN040 09/03 A3014 RMK SC2SC5 SLP229

CYQF;2018-08-27 19:00;CYQF 271900Z 34013KT 10SM OVC040 09/02 A3013 RMK SC8 INTMT -RA SLP227

CYQF;2018-08-27 20:00;CYQF 272000Z 34011KT 12SM BKN045 10/02 A3012 RMK SC7 SLP224

CYQF;2018-08-27 21:00;CYQF 272100Z 32010G16KT 290V360 12SM BKN045 11/02 A3011 RMK SC7 SLP219 DENSITY ALT 3000FT

CYQF;2018-08-27 22:00;CYQF 272200Z 34011KT 280V350 12SM BKN045 12/03 A3010 RMK SC7 SLP215 DENSITY ALT 3100FT

CYQF;2018-08-27 23:00;CYQF 272300Z 33007KT 15SM BKN043 BKN250 12/02 A3008 RMK CU5CI1 SLP208 DENSITY ALT 3200FT

CYQF;2018-08-28 00:00;CYQF 280000Z 04008KT 300V040 15SM FEW040 SCT250 12/03 A3007 RMK CU2CI2 SLP203 DENSITY ALT 3200FT

CYQF;2018-08-28 01:00;CYQF 280100Z 09003KT 040V140 15SM FEW250 12/03 A3006 RMK CI2 SLP201 DENSITY ALT 3200FT

CYQF;2018-08-28 02:00;CYQF 280200Z 12005KT 15SM FEW140 SCT250 09/03 A3004 RMK AC1CI2 SLP199

CYQF;2018-08-28 03:00;CYQF 280300Z 14005KT 15SM SCT250 07/03 A3004 RMK CI3 SLP200

CYQF;2018-08-28 04:00;CYQF 280400Z 19004KT 15SM SCT250 06/03 A3004 RMK CI3 SLP203

CYQF;2018-08-28 05:00;CYQF 280500Z 19005KT 15SM SCT180 BKN250 06/03 A3003 RMK AC4CI2 SLP197

CYQF;2018-08-28 06:00;CYQF 280600Z 19006KT 15SM FEW080 BKN180 05/03 A3001 RMK AC2AC5 SLP189

CYQF;2018-08-28 07:00;CYQF 280700Z 19006KT 15SM SCT180 04/02 A3000 RMK AC3 SLP184

CYQF;2018-08-28 08:00;CYQF 280800Z 19006KT 15SM BKN150 04/02 A2997 RMK AC5 SLP174

CYQF;2018-08-28 09:00;CYQF 280900Z 18004KT 15SM SCT150 04/02 A2995 RMK AC3 SLP168

CYQF;2018-08-28 10:00;CYQF 281000Z 18004KT 15SM BKN080 04/02 A2994 RMK AC7 SLP163

CYQF;2018-08-28 11:00;CYQF 281100Z 18004KT 15SM BKN090 03/02 A2994 RMK AC6 SLP162

CYQF;2018-08-28 12:00;CYQF 281200Z 19004KT 15SM BKN070 04/03 A2993 RMK AC7 SLP160

CYQF;2018-08-28 12:09;CYQF 281209Z 25003KT 180V280 12SM -SHRA BKN070 04/03 A2994 RMK ACC7 SLP162

CYQF;2018-08-28 13:00;CYQF 281300Z 22003KT 10SM -SHRA FEW040 OVC070 05/04 A2994 RMK SC2ACC6 SLP163

CYQF;2018-08-28 14:00;CYQF 281400Z 18003KT 5SM -RA BR OVC060 05/05 A2994 RMK SC8 SLP166

CYQF;2018-08-28 15:00;CYQF 281500Z 22005KT 6SM -RA BR FEW035 OVC060 06/06 A2994 RMK SC2SC6 SLP167

CYQF;2018-08-28 15:30;CYQF 281530Z 23006KT 2 1/2SM -RA BR SCT014 OVC060 07/06 A2994 RMK SF3SC5 SLP165

CYQF;2018-08-28 15:40;CYQF 281540Z 22005KT 3SM -RA BR FEW012 OVC055 07/07 A2994 RMK SF2SC6 VIS VRB 2-4 SLP164

CYQF;2018-08-28 16:00;CYQF 281600Z 20006KT 5SM -RA BR FEW012 OVC060 08/07 A2993 RMK SF2SC6 SLP163

CYQF;2018-08-28 17:00;CYQF 281700Z 23007KT 6SM -RA BR OVC060 09/08 A2994 RMK SC8 SLP164

CYQF;2018-08-28 17:50;CYQF 281750Z 22005KT 10SM BKN058 11/10 A2993 RMK SC7 BR SLP158 DENSITY ALT 3200FT

CYQF;2018-08-28 18:00;CYQF 281800Z 22005KT 10SM BKN060 11/10 A2992 RMK SC7 SLP157 DENSITY ALT 3300FT

CYQF;2018-08-28 19:00;CYQF 281900Z 23005KT 12SM BKN055 BKN180 13/10 A2991 RMK SC5AC2 SLP152 DENSITY ALT 3500FT

CYQF;2018-08-28 20:00;CYQF 282000Z 25008KT 12SM FEW030 BKN130 17/09 A2990 RMK CU1AC6 SLP141 DENSITY ALT 3900FT

CYQF;2018-08-28 21:00;CYQF 282100Z 28009G15KT 240V300 12SM FEW040 BKN130 BKN260 19/09 A2988 RMK CU2AC3CI2 SLP135 DENSITY ALT 4200FT

CYQF;2018-08-28 22:00;CYQF 282200Z 29008KT 260V350 12SM SCT050 BKN140 BKN250 20/08 A2987 RMK CU3AC3CI1 SLP129 DENSITY ALT 4400FT

CYQF;2018-08-28 23:00;CYQF 282300Z 35009KT 10SM FEW044 BKN090 BKN140 19/08 A2986 RMK CU2AC4AC1 SLP127 DENSITY ALT 4300FT

CYQF;2018-08-29 00:00;CYQF 290000Z 01004KT 330V040 10SM FEW045 BKN090 BKN160 19/08 A2985 RMK CU2AC3AC2 SLP122 DENSITY ALT 4300FT

CYQF;2018-08-29 01:00;CYQF 290100Z VRB02KT 10SM FEW045 SCT090 BKN160 18/11 A2984 RMK CU1AC3AC3 SLP121 DENSITY ALT 4100FT

CYQF;2018-08-29 02:00;CYQF 290200Z 16003KT 10SM SCT087 BKN130 16/11 A2983 RMK AC4AC3 SLP120 DENSITY ALT 3900FT

CYQF;2018-08-29 03:00;CYQF 290300Z 16005KT 10SM SCT080 BKN120 BKN250 14/10 A2983 RMK AC3AC3CI1 SLP121 DENSITY ALT 3700FT

CYQF;2018-08-29 04:00;CYQF 290400Z 21003KT 10SM FEW080 BKN100 13/09 A2983 RMK AC2AC3 SLP120 DENSITY ALT 3600FT

CYQF;2018-08-29 05:00;CYQF 290500Z 23005KT 15SM SCT100 BKN260 11/08 A2983 RMK AC3CI3 SLP119 DENSITY ALT 3400FT

CYQF;2018-08-29 06:00;CYQF 290600Z VRB08KT 15SM FEW080 SCT100 BKN260 09/08 A2983 RMK AC2AC2CI2 SLP119 DENSITY ALT 3100FT

CYQF;2018-08-29 07:00;CYQF 290700Z 21004KT 15SM OVC140 09/08 A2982 RMK AC8 SLP113 DENSITY ALT 3100FT

CYQF;2018-08-29 08:00;CYQF 290800Z 18004KT 15SM BKN160 09/08 A2980 RMK AC7 SLP105 DENSITY ALT 3100FT

CYQF;2018-08-29 09:00;CYQF 290900Z 19005KT 15SM FEW120 BKN230 07/06 A2979 RMK AC2CI5 SLP100 DENSITY ALT 3000FT

CYQF;2018-08-29 10:00;CYQF 291000Z 20004KT 15SM FEW120 BKN230 07/06 A2977 RMK AC2CI3 SLP092 DENSITY ALT 3000FT

CYQF;2018-08-29 11:00;CYQF 291100Z 20006KT 15SM FEW140 SCT260 06/04 A2977 RMK AC2CI2 SLP092

CYQF;2018-08-29 12:00;CYQF 291200Z 19006KT 15SM BKN140 07/05 A2976 RMK AC7 SLP087 DENSITY ALT 3000FT

CYQF;2018-08-29 13:00;CYQF 291300Z 19005KT 15SM BKN100 08/06 A2974 RMK AC7 SLP084 DENSITY ALT 3100FT

CYQF;2018-08-29 14:00;CYQF 291400Z 21004KT 10SM SCT100 OVC120 09/07 A2974 RMK AC4AC4 SLP082 DENSITY ALT 3200FT

CYQF;2018-08-29 15:00;CYQF 291500Z 20002KT 10SM SCT080 OVC100 12/08 A2973 RMK AC3AC5 SLP079 DENSITY ALT 3500FT

CYQF;2018-08-29 16:00;CYQF 291600Z 00000KT 12SM FEW080 BKN110 14/09 A2971 RMK AC2AC5 SLP072 DENSITY ALT 3800FT

CYQF;2018-08-29 17:00;CYQF 291700Z 18003KT 160V230 10SM SCT090 BKN120 17/08 A2970 RMK AC3AC4 SLP066 DENSITY ALT 4100FT

CYQF;2018-08-29 18:00;CYQF 291800Z 23008KT 10SM SCT090 BKN120 21/08 A2969 RMK AC3AC4 SLP061 DENSITY ALT 4600FT

CYQF;2018-08-29 19:00;CYQF 291900Z 26006KT 240V310 10SM SCT100 BKN260 22/07 A2967 RMK AC3CI4 FU ALF SLP051 DENSITY ALT 4800FT

CYQF;2018-08-29 20:00;CYQF 292000Z 34007KT 10SM BKN100 OVC250 21/08 A2966 RMK AC5CI3 SLP051 DENSITY ALT 4700FT

CYQF;2018-08-29 21:00;CYQF 292100Z 03008KT 10SM BKN086 OVC250 20/09 A2966 RMK AC7CI1 SLP052 DENSITY ALT 4500FT

CYQF;2018-08-29 22:00;CYQF 292200Z 02008KT 10SM BKN094 OVC250 19/09 A2965 RMK AC7CI1 SLP052 DENSITY ALT 4500FT

CYQF;2018-08-29 23:00;CYQF 292300Z 33008KT 10SM BKN080 OVC250 18/10 A2965 RMK AC5CI3 SLP054 DENSITY ALT 4400FT

CYQF;2018-08-29 23:24;CYQF 292324Z 34012G17KT 10SM -SHRA BKN077 OVC250 16/12 A2966 RMK AC6CI2 CVCTV CLD EMBD SLP060 DENSITY ALT 4200FT

CYQF;2018-08-30 00:00;CYQF 300000Z 03007KT 10SM -SHRA BKN080 BKN250 15/12 A2965 RMK AC6CI1 SLP055 DENSITY ALT 4100FT

CYQF;2018-08-30 00:32;CYQF 300032Z 02008KT 10SM BKN080 OVC250 15/12 A2964 RMK AC6CI2 SLP051 DENSITY ALT 4100FT

CYQF;2018-08-30 01:00;CYQF 300100Z 35006KT 10SM FEW020CB OVC085 15/11 A2965 RMK CB1AC7 CB DIST NW SLP053 DENSITY ALT 4100FT

CYQF;2018-08-30 01:35;CYQF 300135Z 35007KT 8SM -SHRA FEW020TCU OVC075 15/12 A2967 RMK TCU1AC7 SLP061 DENSITY ALT 4000FT

CYQF;2018-08-30 02:00;CYQF 300200Z 35007KT 10SM FEW020 BKN060 OVC100 14/11 A2968 RMK CU2SC4AC2 OCNL -SHRA SLP065 DENSITY ALT 3900FT

CYQF;2018-08-30 02:17;CYQF 300217Z 01009KT 10SM TS SCT020CB BKN060 OVC090 14/12 A2968 RMK CB3SC3AC2 OCNL LTGCG N SLP063 DENSITY ALT 3800FT

CYQF;2018-08-30 02:47;CYQF 300247Z 02009KT 10SM VCSH FEW020 BKN100 OVC250 13/12 A2968 RMK CU2AC4CI2 SLP065 DENSITY ALT 3800FT

CYQF;2018-08-30 03:00;CYQF 300300Z 02009KT 10SM VCSH SCT020 BKN060 OVC250 13/12 A2968 RMK CU3SC3CI2 SLP063 DENSITY ALT 3700FT

CYQF;2018-08-30 04:00;CYQF 300400Z 36007KT 10SM FEW020 BKN078 OVC160 12/12 A2969 RMK CU2AC5AC1 SLP064 DENSITY ALT 3600FT

CYQF;2018-08-30 04:48;CYQF 300448Z 30005KT 10SM -SHRA SCT080 BKN120 11/11 A2970 RMK ACC4AC1 SLP068 DENSITY ALT 3500FT

CYQF;2018-08-30 05:00;CYQF 300500Z 30006KT 10SM -SHRA SCT080 BKN120 11/11 A2970 RMK ACC4AC1 SLP067 DENSITY ALT 3500FT

CYQF;2018-08-30 06:00;CYQF 300600Z 35005KT 15SM SCT080 11/10 A2970 RMK ACC4 SLP062 DENSITY ALT 3500FT

CYQF;2018-08-30 06:38;CYQF 300638Z 22004KT 10SM -SHRA BKN060 OVC080 11/11 A2970 RMK SC5ACC3 SLP063 DENSITY ALT 3500FT

CYQF;2018-08-30 07:00;CYQF 300700Z 21003KT 12SM BKN060 OVC080 11/11 A2970 RMK SC6ACC2 OCNL -SHRA SLP059 DENSITY ALT 3500FT

CYQF;2018-08-30 08:00;CYQF 300800Z 24005KT 10SM -SHRA OVC060 11/10 A2971 RMK SC8 CVCTV CLD EMBD SLP064 DENSITY ALT 3500FT

CYQF;2018-08-30 09:00;CYQF 300900Z 27008KT 10SM -SHRA OVC060 11/10 A2971 RMK SC8 CVCTV CLD EMBD SLP068 DENSITY ALT 3400FT

CYQF;2018-08-30 10:00;CYQF 301000Z 24007KT 12SM -SHRA OVC080 10/10 A2971 RMK ACC8 SLP069 DENSITY ALT 3400FT

CYQF;2018-08-30 11:00;CYQF 301100Z 29008KT 12SM OVC090 10/09 A2972 RMK ACC8 OCNL -SHRA SLP073 DENSITY ALT 3400FT

CYQF;2018-08-30 12:00;CYQF 301200Z 03003KT 300V040 12SM BKN080 09/08 A2973 RMK ACC7 OCNL -SHRA SLP081 DENSITY ALT 3300FT

CYQF;2018-08-30 12:49;CYQF 301249Z 32005KT 15SM VCSH BKN080 10/08 A2974 RMK ACC5 SLP083 DENSITY ALT 3300FT

CYQF;2018-08-30 13:00;CYQF 301300Z 31002KT 15SM VCSH FEW080 BKN120 09/08 A2974 RMK AC2AC4 SLP083 DENSITY ALT 3200FT

CYQF;2018-08-30 14:00;CYQF 301400Z 22003KT 15SM SCT100 BKN250 10/09 A2974 RMK AC4CI1 VIRGA SLP085 DENSITY ALT 3300FT

CYQF;2018-08-30 15:00;CYQF 301500Z 26003KT 220V280 15SM FEW110 11/09 A2975 RMK AC2 SLP087 DENSITY ALT 3500FT

CYQF;2018-08-30 16:00;CYQF 301600Z 24005KT 15SM SCT090 SCT250 12/09 A2976 RMK AC4CI1 CI TR SLP091 DENSITY ALT 3600FT

CYQF;2018-08-30 17:00;CYQF 301700Z 23007KT 180V250 15SM SCT090 SCT260 15/08 A2976 RMK AC3CI1 SLP087 DENSITY ALT 3900FT

CYQF;2018-08-30 18:00;CYQF 301800Z 24008KT 220V290 15SM FEW040 FEW090 SCT250 17/07 A2975 RMK CU1AC1CI2 SLP083 DENSITY ALT 4100FT

CYQF;2018-08-30 19:00;CYQF 301900Z 30010KT 210V340 15SM FEW042 SCT090 BKN250 19/07 A2974 RMK CU2AC2CI2 SLP078 DENSITY ALT 4400FT

CYQF;2018-08-30 20:00;CYQF 302000Z 33008KT 220V350 15SM FEW063 SCT190 BKN250 19/06 A2974 RMK CU2AC1CI4 SLP078 DENSITY ALT 4300FT

CYQF;2018-08-30 21:00;CYQF 302100Z 32005KT 300V030 15SM FEW050 BKN120 OVC200 18/06 A2974 RMK CU2AC3CI3 SLP081 DENSITY ALT 4300FT

CYQF;2018-08-30 22:00;CYQF 302200Z 02006KT 310V050 15SM SCT100 OVC120 18/07 A2975 RMK AC3AC5 SLP082 DENSITY ALT 4200FT

CYQF;2018-08-30 23:00;CYQF 302300Z 01010KT 15SM FEW040 BKN100 OVC250 17/07 A2975 RMK CF1AC6CI1 SLP084 DENSITY ALT 4100FT

CYQF;2018-08-31 00:00;CYQF 310000Z 35008KT 12SM VCSH FEW040TCU BKN090 BKN250 17/06 A2975 RMK TCU2AC3CI2 SLP085 DENSITY ALT 4100FT

CYQF;2018-08-31 01:00;CYQF 310100Z 03005KT 12SM VCSH SCT040TCU BKN090 BKN250 15/07 A2973 RMK TCU3AC3CI1 CB TOP DIST E SLP082 DENSITY ALT 3900FT

CYQF;2018-08-31 02:00;CYQF 310200Z 36018G34KT 12SM -SHRA FEW020 BKN040TCU BKN090 OVC250 14/07 A2978 RMK CF1TCU5AC2CI1 CF TR PRESRR SLP098 DENSITY ALT 3700FT

CYQF;2018-08-31 02:14;CYQF 310214Z 34019G35KT 8SM -TSRA FEW020 BKN040CB OVC090 09/06 A2980 RMK CF1CB7AC1 CF TR PRESRR SLP110 DENSITY ALT 3200FT

CYQF;2018-08-31 03:00;CYQF 310300Z 35016G21KT 8SM -TSRA BKN040CB OVC090 09/06 A2981 RMK CB7AC1 SLP112 DENSITY ALT 3100FT

CYQF;2018-08-31 03:47;CYQF 310347Z 32006KT 300V360 10SM VCSH SCT040TCU OVC093 09/06 A2984 RMK TCU3AC5 SLP122 DENSITY ALT 3100FT

CYQF;2018-08-31 04:03;CYQF 310403Z 25004KT 230V310 10SM -SHRA FEW040TCU OVC075 09/07 A2984 RMK TCU2AC6 SLP124 DENSITY ALT 3100FT

CYQF;2018-08-31 04:47;CYQF 310447Z 33008KT 10SM VCSH OVC073 09/07 A2984 RMK AC8 SLP124 DENSITY ALT 3100FT

CYQF;2018-08-31 05:00;CYQF 310500Z 30009KT 15SM VCSH OVC085 09/06 A2985 RMK ACC8 SLP122 DENSITY ALT 3100FT

CYQF;2018-08-31 06:00;CYQF 310600Z 29008KT 15SM FEW025 BKN080 BKN170 08/06 A2986 RMK SC1AC5AC1 SLP126 DENSITY ALT 3000FT

CYQF;2018-08-31 07:00;CYQF 310700Z 30008KT 15SM FEW020 BKN130 08/06 A2987 RMK SC1AC4 SLP127

CYQF;2018-08-31 08:00;CYQF 310800Z 30008KT 15SM SCT130 07/05 A2988 RMK AC3 SLP130

CYQF;2018-08-31 09:00;CYQF 310900Z 27003KT 15SM FEW130 05/05 A2988 RMK AC1 SLP133

CYQF;2018-08-31 10:00;CYQF 311000Z 26003KT 15SM SKC 05/04 A2988 RMK SLP133

CYQF;2018-08-31 11:00;CYQF 311100Z 23005KT 15SM SKC 03/03 A2987 RMK SLP134

CYQF;2018-08-31 12:00;CYQF 311200Z 24006KT 15SM SKC 04/04 A2986 RMK SLP131

CYQF;2018-08-31 13:00;CYQF 311300Z 19003KT 15SM FEW100 01/01 A2985 RMK AC1 SLP132

CYQF;2018-08-31 14:00;CYQF 311400Z 20006KT 15SM SCT110 SCT170 05/04 A2985 RMK AC3AC1 SLP130

CYQF;2018-08-31 15:00;CYQF 311500Z 19010KT 15SM SCT110 SCT250 08/06 A2985 RMK AC3CI1 SLP131 DENSITY ALT 3000FT

CYQF;2018-08-31 16:00;CYQF 311600Z 22006KT 12SM BKN100 10/06 A2985 RMK AC5 SLP127 DENSITY ALT 3300FT

CYQF;2018-08-31 17:00;CYQF 311700Z 20007KT 15SM FEW100 SCT250 13/07 A2983 RMK AC2CI2 SLP118 DENSITY ALT 3600FT

CYQF;2018-08-31 18:00;CYQF 311800Z 21004KT 10SM SCT250 16/06 A2982 RMK CI3 HZ SLP112 DENSITY ALT 3900FT

CYQF;2018-08-31 19:00;CYQF 311900Z 28004KT 170V310 10SM SCT250 18/03 A2980 RMK CI4 HZ SLP103 DENSITY ALT 4200FT

CYQF;2018-08-31 20:00;CYQF 312000Z 22011KT 160V260 8SM FEW072 BKN250 19/01 A2978 RMK CU1CI4 HZ SLP096 DENSITY ALT 4300FT

CYQF;2018-08-31 21:00;CYQF 312100Z 16006KT 140V200 8SM FEW075 OVC210 20/03 A2976 RMK CU2CI6 HZ SLP090 DENSITY ALT 4500FT

CYQF;2018-08-31 22:00;CYQF 312200Z 14003KT 110V230 8SM FEW080 OVC230 21/03 A2973 RMK CU2CI6 HZ SLP079 DENSITY ALT 4600FT

CYQF;2018-08-31 23:00;CYQF 312300Z 27009KT 210V290 8SM FEW080 BKN250 22/02 A2971 RMK CU2CI5 SLP074 DENSITY ALT 4700FT

CYQF;2018-09-01 00:00;CYQF 010000Z 24006KT 10SM FEW085 BKN250 20/03 A2970 RMK AC2CI5 SLP071 DENSITY ALT 4500FT

CYQF;2018-09-01 01:00;CYQF 010100Z 31006KT 180V330 15SM SCT085 BKN250 20/04 A2969 RMK AC3CI4 SLP071 DENSITY ALT 4500FT

CYQF;2018-09-01 02:00;CYQF 010200Z 29010G15KT 15SM SCT085 OVC250 17/03 A2971 RMK AC3CI5 SLP074 DENSITY ALT 4200FT

CYQF;2018-09-01 03:00;CYQF 010300Z 27010KT 15SM FEW080 OVC230 16/02 A2973 RMK AC2CI6 SLP080 DENSITY ALT 4000FT

CYQF;2018-09-01 04:00;CYQF 010400Z 24005KT 15SM FEW080 OVC220 12/04 A2974 RMK AC1CI7 SLP086 DENSITY ALT 3600FT

CYQF;2018-09-01 05:00;CYQF 010500Z 23002KT 15SM FEW080 OVC160 12/04 A2972 RMK AC2AC6 SLP076 DENSITY ALT 3600FT

CYQF;2018-09-01 06:00;CYQF 010600Z 22005KT 15SM OVC140 11/05 A2971 RMK AC8 SLP069 DENSITY ALT 3500FT

CYQF;2018-09-01 07:00;CYQF 010700Z 16005KT 15SM OVC140 09/06 A2968 RMK AC8 SLP061 DENSITY ALT 3300FT

CYQF;2018-09-01 08:00;CYQF 010800Z VRB02KT 15SM OVC130 09/06 A2966 RMK AC8 SLP054 DENSITY ALT 3200FT

CYQF;2018-09-01 09:00;CYQF 010900Z 03005KT 320V040 15SM SCT080 OVC130 09/06 A2966 RMK AC4AC4 SLP051 DENSITY ALT 3300FT

CYQF;2018-09-01 09:23;CYQF 010923Z 35014KT 12SM -SHRA SCT080 OVC130 11/05 A2970 RMK ACC4AC4 PRESRR SLP063 DENSITY ALT 3400FT

CYQF;2018-09-01 10:00;CYQF 011000Z 36019G28KT 12SM -SHRA OVC080 10/08 A2972 RMK ACC8 SLP070 DENSITY ALT 3400FT

CYQF;2018-09-01 11:00;CYQF 011100Z 01006KT 12SM -SHRA OVC080 09/08 A2975 RMK ACC8 SLP082 DENSITY ALT 3200FT

CYQF;2018-09-01 12:00;CYQF 011200Z 11003KT 090V170 15SM -SHRA BKN090 09/08 A2974 RMK ACC6 SLP078 DENSITY ALT 3200FT

CYQF;2018-09-01 12:32;CYQF 011232Z 28005KT 15SM VCSH BKN065 OVC100 08/08 A2977 RMK SC5AC3 PRESRR SLP088 DENSITY ALT 3100FT

CYQF;2018-09-01 12:44;CYQF 011244Z 29025G43KT 10SM -SHRA BKN014 BKN080 OVC130 08/07 A2980 RMK SC5ACC1AC2 PRESRR SLP102 DENSITY ALT 3000FT

CYQF;2018-09-01 13:00;CYQF 011300Z 32018G27KT 3SM -SHRA BR FEW008 SCT012 OVC050 06/05 A2985 RMK SF2SC2SC4 CVCTV CLD EMBD PRESRR SLP121

CYQF;2018-09-01 14:00;CYQF 011400Z 34007KT 290V360 12SM -SHRA FEW045 BKN085 07/05 A2983 RMK SC2AC5 CVCTV CLD EMBD PRESFR SLP116

CYQF;2018-09-01 14:20;CYQF 011420Z 35003KT 12SM VCSH SCT040 BKN090 07/05 A2983 RMK SC3AC3 SLP117

CYQF;2018-09-01 15:00;CYQF 011500Z 28006KT 15SM FEW080 BKN160 08/05 A2985 RMK ACC2AC4 SLP123

CYQF;2018-09-01 16:00;CYQF 011600Z 31014G26KT 15SM FEW020 BKN070 BKN220 10/05 A2988 RMK CU2AC3CI1 SLP135 DENSITY ALT 3100FT

CYQF;2018-09-01 17:00;CYQF 011700Z 31018G32KT 15SM BKN025 BKN080 11/05 A2989 RMK CU5AC1 SLP136 DENSITY ALT 3300FT

CYQF;2018-09-01 18:00;CYQF 011800Z 32017G30KT 15SM BKN030 12/04 A2990 RMK CU6 SLP140 DENSITY ALT 3400FT

CYQF;2018-09-01 19:00;CYQF 011900Z 33019G30KT 15SM BKN040 13/04 A2990 RMK CU6 SLP142 DENSITY ALT 3500FT

CYQF;2018-09-01 20:00;CYQF 012000Z 33015G26KT 15SM SCT045 BKN250 15/03 A2991 RMK CU4CI2 SLP143 DENSITY ALT 3700FT

CYQF;2018-09-01 21:00;CYQF 012100Z 33009G22KT 15SM SCT050 BKN250 16/04 A2991 RMK CU4CI2 SLP142 DENSITY ALT 3800FT

CYQF;2018-09-01 22:00;CYQF 012200Z 32015G22KT 15SM FEW060 SCT250 16/01 A2991 RMK CU2CI2 SLP139 DENSITY ALT 3900FT

CYQF;2018-09-01 23:00;CYQF 012300Z 33015G22KT 15SM FEW070 SCT250 16/00 A2990 RMK CU2CI1 SLP138 DENSITY ALT 3900FT

CYQF;2018-09-02 00:00;CYQF 020000Z 33011KT 15SM FEW070 SCT080 SCT250 16/01 A2991 RMK CU2AC1CI1 SLP140 DENSITY ALT 3900FT

CYQF;2018-09-02 01:00;CYQF 020100Z 36006KT 15SM FEW065 SCT100 15/02 A2992 RMK CU1AC3 SLP149 DENSITY ALT 3700FT

CYQF;2018-09-02 02:00;CYQF 020200Z 00000KT 15SM FEW050 SCT085 12/03 A2993 RMK CU1AC2 SLP157 DENSITY ALT 3300FT

CYQF;2018-09-02 03:00;CYQF 020300Z 00000KT 15SM SCT080 11/04 A2995 RMK AC4 VIRGA SLP164 DENSITY ALT 3200FT

CYQF;2018-09-02 04:00;CYQF 020400Z 00000KT 15SM SCT080 BKN110 09/05 A2997 RMK AC3AC4 SLP170

CYQF;2018-09-02 05:00;CYQF 020500Z 23004KT 15SM SCT100 08/03 A2998 RMK AC4 SLP172

CYQF;2018-09-02 06:00;CYQF 020600Z 25006KT 15SM BKN080 07/04 A2999 RMK AC5 SLP175

CYQF;2018-09-02 07:00;CYQF 020700Z 17008KT 160V300 15SM SCT080 06/04 A3001 RMK AC4 SLP182

CYQF;2018-09-02 08:00;CYQF 020800Z 19004KT 180V240 15SM BKN075 07/05 A3001 RMK AC6 SLP180

CYQF;2018-09-02 09:00;CYQF 020900Z 23006KT 15SM SCT050 BKN080 06/03 A3000 RMK SC3AC3 SLP178

CYQF;2018-09-02 10:00;CYQF 021000Z 00000KT 15SM FEW050 SCT080 05/03 A3000 RMK SC2AC2 SLP179

CYQF;2018-09-02 11:00;CYQF 021100Z 00000KT 15SM FEW090 04/03 A3000 RMK AC2 SLP178

CYQF;2018-09-02 12:00;CYQF 021200Z VRB02KT 15SM BKN058 04/03 A3000 RMK SC6 SLP177

CYQF;2018-09-02 13:00;CYQF 021300Z 20004KT 15SM FEW020 SCT050 BKN160 03/03 A2999 RMK SF1SC3AC2 SLP177

CYQF;2018-09-02 14:00;CYQF 021400Z 21003KT 15SM FEW050 SCT160 BKN260 04/03 A3000 RMK SC2AC1CI3 SLP182

CYQF;2018-09-02 15:00;CYQF 021500Z 18003KT 15SM FEW050 SCT180 BKN250 06/04 A2999 RMK SC1AC2CI3 SLP177

CYQF;2018-09-02 16:00;CYQF 021600Z 20003KT 160V230 15SM FEW180 BKN250 10/05 A2998 RMK AC2CI4 SLP172 DENSITY ALT 3000FT

CYQF;2018-09-02 17:00;CYQF 021700Z 17006KT 130V250 10SM BKN250 12/06 A2996 RMK CI6 HZ SLP166 DENSITY ALT 3300FT

CYQF;2018-09-02 18:00;CYQF 021800Z 17008KT 120V210 12SM BKN250 14/05 A2994 RMK CI7 HZ SLP158 DENSITY ALT 3600FT

CYQF;2018-09-02 19:00;CYQF 021900Z 18004KT 150V230 12SM FEW150 BKN250 15/04 A2992 RMK AC1CI6 HZ SLP151 DENSITY ALT 3700FT

CYQF;2018-09-02 20:00;CYQF 022000Z 13004KT 080V220 12SM FEW150 BKN250 16/03 A2991 RMK AC1CI6 SLP143 DENSITY ALT 3900FT

CYQF;2018-09-02 21:00;CYQF 022100Z 18003KT 150V210 10SM BKN100 BKN250 17/02 A2990 RMK AC5CI2 SLP141 DENSITY ALT 3900FT

CYQF;2018-09-02 22:00;CYQF 022200Z 20005KT 100V210 10SM BKN100 BKN250 18/01 A2988 RMK ACC5CI2 HZ SLP134 DENSITY ALT 4100FT

CYQF;2018-09-02 23:00;CYQF 022300Z 13006KT 110V180 8SM SCT100 BKN250 17/02 A2987 RMK AC3CI3 FU SLP133 DENSITY ALT 4000FT

CYQF;2018-09-03 00:00;CYQF 030000Z 12010KT 6SM FU SCT100 BKN260 18/03 A2986 RMK AC3CI3 SLP127 DENSITY ALT 4100FT

CYQF;2018-09-03 01:00;CYQF 030100Z 12007KT 8SM FEW100 SCT260 17/03 A2985 RMK AC1CI3 SLP127 DENSITY ALT 4100FT

CYQF;2018-09-03 02:00;CYQF 030200Z 10005KT 050V140 8SM FEW100 BKN260 14/04 A2985 RMK AC2CI3 SLP131 DENSITY ALT 3600FT

CYQF;2018-09-03 03:00;CYQF 030300Z VRB03KT 8SM SCT100 BKN200 11/04 A2986 RMK AC3CI3 SLP133 DENSITY ALT 3300FT

CYQF;2018-09-03 04:00;CYQF 030400Z 23005KT 10SM BKN120 BKN260 12/04 A2986 RMK AC5CI2 SLP130 DENSITY ALT 3400FT

CYQF;2018-09-03 05:00;CYQF 030500Z 20005KT 10SM SCT170 10/04 A2985 RMK AC4 FU SLP125 DENSITY ALT 3200FT

CYQF;2018-09-03 06:00;CYQF 030600Z 17002KT 10SM BKN170 09/05 A2983 RMK AC7 FU SLP115 DENSITY ALT 3100FT

CYQF;2018-09-03 07:00;CYQF 030700Z 15002KT 10SM OVC140 08/05 A2980 RMK AC8 FU SLP107 DENSITY ALT 3100FT

CYQF;2018-09-03 08:00;CYQF 030800Z 16005KT 12SM OVC090 09/06 A2982 RMK AC8 SLP110 DENSITY ALT 3100FT

CYQF;2018-09-03 08:19;CYQF 030819Z 16005KT 12SM -SHRA OVC080 09/07 A2981 RMK AC8 SLP108 DENSITY ALT 3100FT

CYQF;2018-09-03 09:00;CYQF 030900Z 25008KT 12SM -SHRA OVC080 10/07 A2984 RMK ACC8 PRESRR SLP117 DENSITY ALT 3200FT

CYQF;2018-09-03 10:00;CYQF 031000Z 32008KT 12SM -SHRA OVC080 10/07 A2986 RMK ACC8 SLP120 DENSITY ALT 3200FT

CYQF;2018-09-03 11:00;CYQF 031100Z 33012KT 12SM -SHRA OVC080 09/07 A2986 RMK ACC8 SLP123 DENSITY ALT 3100FT

CYQF;2018-09-03 12:00;CYQF 031200Z 34016G21KT 12SM -SHRA SCT014 OVC080 08/07 A2986 RMK SC4ACC4 SLP124 DENSITY ALT 3000FT

CYQF;2018-09-03 12:08;CYQF 031208Z 34013G21KT 12SM BKN012 OVC080 08/07 A2986 RMK SC5AC3 SLP125

CYQF;2018-09-03 13:00;CYQF 031300Z 34011G19KT 6SM BR SCT012 OVC120 08/06 A2988 RMK SC4AC4 SLP131

CYQF;2018-09-03 13:34;CYQF 031334Z 34009KT 8SM -RA FEW012 BKN055 BKN120 08/06 A2989 RMK SC1SC4AC2 SLP135

CYQF;2018-09-03 14:00;CYQF 031400Z 32011G16KT 8SM -RA FEW012 OVC060 08/06 A2990 RMK SC2SC6 SLP142

CYQF;2018-09-03 15:00;CYQF 031500Z 31008KT 8SM -RA FEW010 BKN050 OVC090 08/06 A2992 RMK SC1SC4AC3 SLP153

CYQF;2018-09-03 15:21;CYQF 031521Z 31007KT 10SM VCSH FEW010 BKN050 OVC080 08/06 A2993 RMK SC1SC4AC3 SLP156

CYQF;2018-09-03 15:45;CYQF 031545Z 30009KT 10SM -RA BKN058 OVC080 08/06 A2994 RMK SC6AC2 SLP160

CYQF;2018-09-03 16:00;CYQF 031600Z 31011KT 10SM BKN055 OVC087 08/06 A2994 RMK SC5AC3 INTMT -RA SLP159

CYQF;2018-09-03 16:50;CYQF 031650Z 30009G15KT 10SM SCT055 OVC100 09/06 A2996 RMK SC3AC5 SLP165

CYQF;2018-09-03 17:00;CYQF 031700Z 30008KT 10SM FEW055 OVC100 09/06 A2996 RMK SC2AC6 SLP167

CYQF;2018-09-03 18:00;CYQF 031800Z 31010G18KT 10SM FEW015 BKN120 BKN250 11/06 A2998 RMK CU2AC3CI2 SLP173 DENSITY ALT 3100FT

CYQF;2018-09-03 19:00;CYQF 031900Z 32017G24KT 12SM SCT025 BKN100 BKN150 12/05 A3000 RMK CU3AC2AC2 SLP177 DENSITY ALT 3200FT

CYQF;2018-09-03 20:00;CYQF 032000Z 31021G27KT 12SM VCSH BKN036 BKN100 13/04 A3000 RMK CU6AC1 SLP177 DENSITY ALT 3400FT

CYQF;2018-09-03 21:00;CYQF 032100Z 32021G31KT 12SM VCSH BKN040 BKN100 12/04 A3002 RMK CU5AC1 SLP185 DENSITY ALT 3300FT

CYQF;2018-09-03 22:00;CYQF 032200Z 32013G25KT 15SM BKN040 13/03 A3004 RMK CU6 SLP188 DENSITY ALT 3400FT

CYQF;2018-09-03 23:00;CYQF 032300Z 31014G26KT 15SM BKN060 14/03 A3006 RMK CU6 SLP196 DENSITY ALT 3500FT

CYQF;2018-09-04 00:00;CYQF 040000Z 33017G27KT 15SM SCT060 12/04 A3010 RMK CU4 SLP212 DENSITY ALT 3200FT

CYQF;2018-09-04 01:00;CYQF 040100Z 33013G20KT 15SM SCT060 12/03 A3012 RMK CU4 VIRGA SLP221 DENSITY ALT 3100FT

CYQF;2018-09-04 02:00;CYQF 040200Z 33010KT 15SM FEW060 SCT120 10/04 A3014 RMK CU2AC1 SLP231

CYQF;2018-09-04 03:00;CYQF 040300Z 32007KT 15SM FEW060 FEW120 08/04 A3017 RMK CU1AC1 CU TR SLP242

CYQF;2018-09-04 04:00;CYQF 040400Z 31006KT 15SM FEW120 05/03 A3018 RMK AC2 SLP249

CYQF;2018-09-04 05:00;CYQF 040500Z 30005KT 15SM FEW140 05/03 A3020 RMK AC2 SLP255

CYQF;2018-09-04 06:00;CYQF 040600Z 27006KT 12SM BKN120 05/03 A3021 RMK AC5 SLP257

CYQF;2018-09-04 07:00;CYQF 040700Z VRB03KT 12SM SCT031 BKN120 04/03 A3023 RMK SC4AC2 SLP262

CYQF;2018-09-04 08:00;CYQF 040800Z 03005KT 15SM FEW030 BKN140 04/03 A3024 RMK SC2AC5 SLP265

CYQF;2018-09-04 09:00;CYQF 040900Z 33002KT 15SM FEW020 SCT040 OVC120 04/03 A3025 RMK SC2SC2AC4 SLP270

CYQF;2018-09-04 10:00;CYQF 041000Z 00000KT 12SM -RA BKN023 OVC070 05/04 A3027 RMK SC5AC3 SLP275

CYQF;2018-09-04 11:00;CYQF 041100Z 26003KT 10SM -RA BKN024 OVC040 05/04 A3029 RMK SC6SC2 SLP279

CYQF;2018-09-04 12:00;CYQF 041200Z 25002KT 15SM -RA FEW023 BKN040 05/04 A3029 RMK SC2SC5 SLP281

CYQF;2018-09-04 12:42;CYQF 041242Z 00000KT 15SM SCT024 BKN040 05/04 A3029 RMK SC3SC4 SLP283

CYQF;2018-09-04 13:00;CYQF 041300Z 34002KT 15SM BKN025 OVC040 05/04 A3030 RMK SC6SC2 SLP286

CYQF;2018-09-04 14:00;CYQF 041400Z CCA VRB02KT 15SM BKN025 BKN040 05/05 A3030 RMK SC5SC2 SLP289

CYQF;2018-09-04 15:00;CYQF 041500Z 20004KT 15SM FEW015 BKN030 OVC045 06/04 A3031 RMK SC1SC4SC3 SLP293

CYQF;2018-09-04 16:00;CYQF 041600Z 13003KT 15SM FEW027 BKN057 07/04 A3031 RMK SC2SC5 SLP295

CYQF;2018-09-04 17:00;CYQF 041700Z 18007KT 160V230 15SM BKN015 BKN050 09/05 A3031 RMK CU5SC2 SLP294

CYQF;2018-09-04 18:00;CYQF 041800Z 18005KT 15SM BKN020 BKN090 09/05 A3030 RMK SC6AC1 SLP289

CYQF;2018-09-04 19:00;CYQF 041900Z 22004KT 170V230 15SM BKN025 BKN050 10/03 A3029 RMK CU5SC2 SLP285

CYQF;2018-09-04 20:00;CYQF 042000Z 17007KT 15SM SCT030 BKN050 11/04 A3027 RMK CU3SC4 SLP276

CYQF;2018-09-04 21:00;CYQF 042100Z 19005KT 150V240 15SM BKN044 13/04 A3024 RMK CU7 SLP265 DENSITY ALT 3100FT

CYQF;2018-09-04 22:00;CYQF 042200Z 19004KT 15SM BKN044 13/03 A3022 RMK CU6 SLP259 DENSITY ALT 3100FT

CYQF;2018-09-04 23:00;CYQF 042300Z 00000KT 15SM BKN045 14/02 A3021 RMK CU5 SLP254 DENSITY ALT 3200FT

CYQF;2018-09-05 00:00;CYQF 050000Z 19004KT 180V270 15SM SCT045 15/02 A3021 RMK CU3 SLP252 DENSITY ALT 3300FT

CYQF;2018-09-05 01:00;CYQF 050100Z 18003KT 120V210 15SM FEW045 14/03 A3020 RMK CU1 SLP250 DENSITY ALT 3300FT

CYQF;2018-09-05 02:00;CYQF 050200Z 14003KT 15SM SKC 11/04 A3020 RMK SLP250

CYQF;2018-09-05 03:00;CYQF 050300Z 17006KT 15SM SKC 08/03 A3020 RMK SLP256

CYQF;2018-09-05 04:00;CYQF 050400Z 18005KT 15SM SKC 06/03 A3021 RMK SLP261

CYQF;2018-09-05 05:00;CYQF 050500Z 18005KT 15SM SKC 05/02 A3021 RMK SLP260

CYQF;2018-09-05 06:00;CYQF 050600Z 17005KT 15SM SKC 05/03 A3021 RMK SLP260

CYQF;2018-09-05 07:00;CYQF 050700Z 18004KT 15SM SKC 04/02 A3021 RMK SLP257

CYQF;2018-09-05 08:00;CYQF 050800Z 19005KT 12SM SKC 04/02 A3021 RMK SLP257

CYQF;2018-09-05 09:00;CYQF 050900Z 18004KT 12SM SKC 03/02 A3020 RMK SLP254

CYQF;2018-09-05 10:00;CYQF 051000Z 18003KT 15SM SKC 02/01 A3020 RMK SLP253

CYQF;2018-09-05 11:00;CYQF 051100Z 15004KT 15SM SKC 02/02 A3019 RMK SLP250

CYQF;2018-09-05 12:00;CYQF 051200Z 14004KT 12SM FEW070 02/01 A3019 RMK AC1 AC TR SLP250

CYQF;2018-09-05 13:00;CYQF 051300Z 18005KT 8SM FEW070 FEW210 01/M00 A3019 RMK AC1CI1 SLP250

CYQF;2018-09-05 14:00;CYQF 051400Z 16005KT 8SM SCT260 03/02 A3020 RMK CI3 SLP255

CYQF;2018-09-05 15:00;CYQF 051500Z VRB04KT 12SM FEW260 06/04 A3020 RMK CI2 SLP256

CYQF;2018-09-05 16:00;CYQF 051600Z 20008KT 12SM SCT250 08/04 A3020 RMK CI4 SLP254

CYQF;2018-09-05 17:00;CYQF 051700Z 18005KT 140V230 10SM SCT260 11/05 A3020 RMK CI3 SLP251 DENSITY ALT 3000FT

CYQF;2018-09-05 18:00;CYQF 051800Z 19007KT 110V210 10SM BKN260 14/05 A3019 RMK CI5 SLP246 DENSITY ALT 3300FT

CYQF;2018-09-05 19:00;CYQF 051900Z 18006KT 140V210 12SM SCT250 17/05 A3018 RMK CI3 SLP239 DENSITY ALT 3700FT

CYQF;2018-09-05 20:00;CYQF 052000Z 17008G15KT 130V230 15SM FEW050 FEW250 19/04 A3017 RMK CU1CI2 CU TR SLP233 DENSITY ALT 3900FT

CYQF;2018-09-05 21:00;CYQF 052100Z 22006KT 190V310 15SM FEW060 FEW260 19/04 A3016 RMK CU1CI1 CU TR SLP233 DENSITY ALT 3900FT

CYQF;2018-09-05 22:00;CYQF 052200Z VRB04KT 15SM FEW068 SCT260 20/03 A3016 RMK CU2CC2 SLP230 DENSITY ALT 4100FT

CYQF;2018-09-05 23:00;CYQF 052300Z 11003KT 080V150 15SM FEW072 SCT100 BKN210 21/03 A3015 RMK CU1AC2CI2 SLP226 DENSITY ALT 4100FT

CYQF;2018-09-06 00:00;CYQF 060000Z 12006KT 070V160 15SM FEW070 FEW180 21/04 A3015 RMK CU1AC2 CU TR SLP228 DENSITY ALT 4100FT

CYQF;2018-09-06 01:00;CYQF 060100Z 09007KT 15SM SCT210 19/03 A3015 RMK CI3 SLP230 DENSITY ALT 3900FT

CYQF;2018-09-06 02:00;CYQF 060200Z 09004KT 15SM FEW170 15/04 A3016 RMK AC2 SLP236 DENSITY ALT 3500FT

CYQF;2018-09-06 03:00;CYQF 060300Z 09003KT 15SM FEW170 13/03 A3018 RMK AC2 SLP241 DENSITY ALT 3200FT

CYQF;2018-09-06 04:00;CYQF 060400Z 00000KT 12SM SCT170 12/04 A3019 RMK AC3 SLP243 DENSITY ALT 3100FT

CYQF;2018-09-06 05:00;CYQF 060500Z 00000KT 15SM BKN170 11/03 A3019 RMK AC5 SLP243

CYQF;2018-09-06 06:00;CYQF 060600Z 36004KT 15SM SCT160 07/03 A3020 RMK AC4 SLP244

CYQF;2018-09-06 07:00;CYQF 060700Z 35003KT 15SM FEW160 08/04 A3020 RMK AC2 SLP241

CYQF;2018-09-06 08:00;CYQF 060800Z 31005KT 15SM FEW160 06/03 A3020 RMK AC2 SLP243

CYQF;2018-09-06 09:00;CYQF 060900Z 01003KT 15SM FEW160 05/02 A3020 RMK AC2 SLP245

CYQF;2018-09-06 10:00;CYQF 061000Z 00000KT 15SM SKC 04/02 A3020 RMK SLP242

CYQF;2018-09-06 11:00;CYQF 061100Z 33003KT 15SM FEW210 03/03 A3020 RMK CI2 SLP243

CYQF;2018-09-06 12:00;CYQF 061200Z 04002KT 15SM FEW090 04/03 A3020 RMK AC1 SLP244

CYQF;2018-09-06 13:00;CYQF 061300Z 02002KT 15SM MIFG FEW100 SCT250 04/03 A3020 RMK AC1CI2 SLP246

CYQF;2018-09-06 14:00;CYQF 061400Z 00000KT 15SM FEW100 BKN250 04/04 A3020 RMK AC2CI3 SLP249

CYQF;2018-09-06 15:00;CYQF 061500Z VRB02KT 15SM FEW100 BKN250 08/05 A3021 RMK AC2CI4 SLP251

CYQF;2018-09-06 16:00;CYQF 061600Z 00000KT 12SM SCT100 BKN200 11/06 A3021 RMK AC3CI4 SLP247

CYQF;2018-09-06 17:00;CYQF 061700Z 00000KT 15SM FEW120 BKN200 15/05 A3020 RMK AC1CI5 SLP242 DENSITY ALT 3400FT

CYQF;2018-09-06 18:00;CYQF 061800Z VRB03KT 15SM BKN250 17/04 A3020 RMK CI7 SLP243 DENSITY ALT 3600FT

CYQF;2018-09-06 19:00;CYQF 061900Z 07008KT 010V090 12SM FEW100 BKN190 20/06 A3018 RMK AC1CI6 SLP230 DENSITY ALT 4000FT

CYQF;2018-09-06 20:00;CYQF 062000Z 14007KT 110V170 12SM FEW100 BKN250 20/06 A3016 RMK AC1CI6 SLP228 DENSITY ALT 4000FT

CYQF;2018-09-06 21:00;CYQF 062100Z 13008KT 080V180 15SM SCT180 BKN280 22/07 A3015 RMK AC3CI2 SLP225 DENSITY ALT 4200FT

CYQF;2018-09-06 22:00;CYQF 062200Z 13007KT 060V170 15SM SCT160 BKN260 22/07 A3014 RMK AC3CI3 SLP221 DENSITY ALT 4300FT

CYQF;2018-09-06 23:00;CYQF 062300Z VRB02KT 12SM SCT160 BKN260 23/07 A3012 RMK AC4CI3 SLP214 DENSITY ALT 4300FT

CYQF;2018-09-07 00:00;CYQF 070000Z 11005KT 15SM BKN150 OVC260 21/07 A3011 RMK ACC6CI2 VIRGA SLP212 DENSITY ALT 4100FT

CYQF;2018-09-07 01:00;CYQF 070100Z 02006KT 15SM BKN150 BKN260 19/09 A3011 RMK ACC5CI2 SLP214 DENSITY ALT 3900FT

CYQF;2018-09-07 02:00;CYQF 070200Z 05004KT 12SM FEW080 BKN150 BKN210 17/08 A3011 RMK AC1AC4CC2 SLP215 DENSITY ALT 3700FT

CYQF;2018-09-07 03:00;CYQF 070300Z 03006KT 15SM BKN140 BKN260 15/08 A3011 RMK AC5CI2 SLP214 DENSITY ALT 3500FT

CYQF;2018-09-07 04:00;CYQF 070400Z 02007KT 15SM BKN160 14/08 A3012 RMK AC5 SLP215 DENSITY ALT 3400FT

CYQF;2018-09-07 05:00;CYQF 070500Z 36007KT 15SM BKN160 13/08 A3012 RMK AC5 SLP211 DENSITY ALT 3200FT

CYQF;2018-09-07 06:00;CYQF 070600Z 01008KT 15SM BKN160 12/08 A3010 RMK AC5 SLP205 DENSITY ALT 3100FT

CYQF;2018-09-07 07:00;CYQF 070700Z 01004KT 15SM BKN160 10/07 A3011 RMK AC6 SLP205

CYQF;2018-09-07 08:00;CYQF 070800Z 14003KT 040V160 15SM BKN160 12/07 A3009 RMK AC6 SLP198 DENSITY ALT 3100FT

CYQF;2018-09-07 09:00;CYQF 070900Z 17008KT 15SM SCT160 12/06 A3007 RMK AC4 SLP189 DENSITY ALT 3200FT

CYQF;2018-09-07 10:00;CYQF 071000Z 17008KT 15SM FEW140 10/05 A3006 RMK AC2 SLP184 DENSITY ALT 3000FT

CYQF;2018-09-07 11:00;CYQF 071100Z 15006KT 15SM FEW140 10/04 A3004 RMK AC2 SLP178

CYQF;2018-09-07 12:00;CYQF 071200Z 15006KT 15SM FEW140 09/04 A3003 RMK AC2 SLP179

CYQF;2018-09-07 13:00;CYQF 071300Z 17008KT 15SM FEW150 BKN240 08/04 A3002 RMK AC2CI3 SLP179

CYQF;2018-09-07 14:00;CYQF 071400Z 18002KT 15SM FEW150 SCT240 08/05 A3002 RMK AC1CI2 WND ESTD SLP181

CYQF;2018-09-07 15:00;CYQF 071500Z 00000KT 15SM FEW120 SCT250 14/05 A3000 RMK AC1CI2 WND ESTD SLP170 DENSITY ALT 3400FT

CYQF;2018-09-07 16:00;CYQF 071600Z 18005KT 15SM FEW120 17/07 A3000 RMK AC1 WND ESTD SLP167 DENSITY ALT 3800FT

CYQF;2018-09-07 17:00;CYQF 071700Z 18006KT 15SM FEW120 17/08 A2999 RMK AC1 SLP165 DENSITY ALT 3800FT

CYQF;2018-09-07 18:00;CYQF 071800Z 12005KT 110V220 12SM FEW120 20/09 A2998 RMK AC1 HZ SLP158 DENSITY ALT 4200FT

CYQF;2018-09-07 19:00;CYQF 071900Z 19004KT 100V230 12SM FEW120 22/09 A2995 RMK AC2 HZ SLP149 DENSITY ALT 4400FT

CYQF;2018-09-07 20:00;CYQF 072000Z VRB03KT 12SM FEW260 24/09 A2994 RMK CI1 SLP140 DENSITY ALT 4700FT

CYQF;2018-09-07 21:00;CYQF 072100Z 14004KT 8SM FEW080 SCT260 26/09 A2993 RMK AC1CI2 SLP135 DENSITY ALT 4900FT

CYQF;2018-09-07 22:00;CYQF 072200Z 00000KT 8SM FEW080 FEW260 26/08 A2991 RMK AC1CI1 ACSL HZ SLP131 DENSITY ALT 5000FT

CYQF;2018-09-07 23:00;CYQF 072300Z VRB06KT 10SM FEW060 SCT260 27/07 A2990 RMK CU1CI2 SLP127 DENSITY ALT 5000FT

CYQF;2018-09-08 00:00;CYQF 080000Z 07007KT 8SM FEW064 25/09 A2989 RMK CU1 SLP126 DENSITY ALT 4900FT

CYQF;2018-09-08 01:00;CYQF 080100Z 08006KT 8SM FEW080 22/10 A2989 RMK AC2 SLP130 DENSITY ALT 4600FT

CYQF;2018-09-08 02:00;CYQF 080200Z 07005KT 8SM FEW120 SCT220 18/10 A2989 RMK AC1CI2 SLP133 DENSITY ALT 4100FT

CYQF;2018-09-08 03:00;CYQF 080300Z 02003KT 10SM FEW080 BKN220 16/10 A2989 RMK AC1CI6 SLP130 DENSITY ALT 3800FT

CYQF;2018-09-08 04:00;CYQF 080400Z 03005KT 10SM SCT200 15/08 A2988 RMK CI3 SLP123 DENSITY ALT 3700FT

CYQF;2018-09-08 05:00;CYQF 080500Z 04003KT 15SM SCT190 14/08 A2987 RMK AC4 SLP121 DENSITY ALT 3600FT

CYQF;2018-09-08 06:00;CYQF 080600Z VRB02KT 15SM SCT190 11/07 A2985 RMK AC3 SLP117 DENSITY ALT 3300FT

CYQF;2018-09-08 07:00;CYQF 080700Z 23006KT 12SM SCT190 11/08 A2985 RMK AC3 SLP114 DENSITY ALT 3300FT

CYQF;2018-09-08 08:00;CYQF 080800Z 00000KT 12SM SCT250 09/07 A2983 RMK CI3 SLP106 DENSITY ALT 3100FT

CYQF;2018-09-08 09:00;CYQF 080900Z 23003KT 180V250 12SM SCT250 08/07 A2981 RMK CI3 SLP099 DENSITY ALT 3100FT

CYQF;2018-09-08 10:00;CYQF 081000Z VRB02KT 15SM FEW120 SCT210 07/05 A2980 RMK AC2CI2 SLP097

CYQF;2018-09-08 11:00;CYQF 081100Z 23003KT 12SM FEW120 SCT180 08/07 A2979 RMK AC1AC3 SLP090 DENSITY ALT 3000FT

CYQF;2018-09-08 12:00;CYQF 081200Z 18003KT 12SM SCT120 BKN180 06/05 A2979 RMK AC3AC2 SLP092

CYQF;2018-09-08 13:00;CYQF 081300Z 26006KT 6SM BR OVC130 08/07 A2979 RMK AC8 SLP093 DENSITY ALT 3100FT

CYQF;2018-09-08 14:00;CYQF 081400Z VRB05KT 6SM BR SCT080 OVC110 11/10 A2979 RMK AC3AC5 SLP097 DENSITY ALT 3400FT

CYQF;2018-09-08 15:00;CYQF 081500Z 24013G20KT 8SM OVC110 11/10 A2979 RMK AC8 BR PRESRR SLP098 DENSITY ALT 3400FT

CYQF;2018-09-08 16:00;CYQF 081600Z 29005KT 230V300 8SM BKN110 OVC250 14/11 A2979 RMK AC6CI2 SLP096 DENSITY ALT 3800FT

CYQF;2018-09-08 17:00;CYQF 081700Z 29007KT 260V330 10SM BKN100 OVC250 17/11 A2980 RMK AC5CI3 SLP098 DENSITY ALT 4000FT

CYQF;2018-09-08 17:41;CYQF 081741Z 29012KT 12SM -SHRA BKN100 BKN250 16/11 A2981 RMK ACC5CI2 SLP103 DENSITY ALT 4000FT

CYQF;2018-09-08 18:00;CYQF 081800Z 31011G17KT 12SM SCT100 BKN200 17/11 A2981 RMK AC3CI3 SLP105 DENSITY ALT 4100FT

CYQF;2018-09-08 19:00;CYQF 081900Z 32021G26KT 15SM SCT027 BKN200 19/11 A2981 RMK CU3CI3 SLP104 DENSITY ALT 4300FT

CYQF;2018-09-08 20:00;CYQF 082000Z 32017G26KT 15SM SCT040 BKN210 20/09 A2981 RMK SF3CI2 SLP103 DENSITY ALT 4400FT

CYQF;2018-09-08 21:00;CYQF 082100Z 33020KT 15SM SCT040 BKN070 BKN210 20/07 A2983 RMK CU3AC2CI1 SLP110 DENSITY ALT 4400FT

CYQF;2018-09-08 22:00;CYQF 082200Z 31014G20KT 15SM FEW040 FEW070 SCT220 20/08 A2984 RMK CU1AC1CI1 SLP115 DENSITY ALT 4400FT

CYQF;2018-09-08 23:00;CYQF 082300Z 33014G23KT 15SM FEW050 FEW080 SCT210 20/06 A2984 RMK CU1AC1CI2 SLP116 DENSITY ALT 4400FT

CYQF;2018-09-09 00:00;CYQF 090000Z 36013G20KT 15SM FEW050 FEW080 SCT240 19/06 A2985 RMK CU1AC1CI2 CU TR SLP121 DENSITY ALT 4300FT

CYQF;2018-09-09 01:00;CYQF 090100Z 36012G17KT 15SM FEW045 SCT110 BKN260 18/06 A2987 RMK CU1AC3CI3 CU TR SLP126 DENSITY ALT 4100FT

CYQF;2018-09-09 02:00;CYQF 090200Z 34005KT 15SM FEW045 SCT110 SCT210 15/06 A2989 RMK CU1AC2CI1 SLP135 DENSITY ALT 3700FT

CYQF;2018-09-09 03:00;CYQF 090300Z 33004KT 15SM SCT090 BKN120 13/07 A2990 RMK AC3AC2 SLP140 DENSITY ALT 3500FT

CYQF;2018-09-09 04:00;CYQF 090400Z 28007KT 15SM SCT090 11/07 A2991 RMK AC3 SLP143 DENSITY ALT 3300FT

CYQF;2018-09-09 05:00;CYQF 090500Z 26006KT 15SM SCT070 BKN090 11/07 A2993 RMK AC3AC2 SLP145 DENSITY ALT 3300FT

CYQF;2018-09-09 06:00;CYQF 090600Z 34006KT 15SM FEW070 BKN110 11/07 A2991 RMK AC2AC4 SLP139 DENSITY ALT 3300FT

CYQF;2018-09-09 07:00;CYQF 090700Z 33007KT 15SM FEW070 BKN120 12/07 A2991 RMK AC2AC5 SLP137 DENSITY ALT 3400FT

CYQF;2018-09-09 08:00;CYQF 090800Z 04003KT 310V080 15SM FEW060 BKN100 11/08 A2994 RMK SC2AC4 SLP146 DENSITY ALT 3200FT

CYQF;2018-09-09 09:00;CYQF 090900Z 36004KT 15SM FEW040 BKN210 10/08 A2995 RMK SC2CI3 SLP150 DENSITY ALT 3100FT

CYQF;2018-09-09 10:00;CYQF 091000Z 35006KT 15SM SCT040 BKN100 10/07 A2996 RMK SC4AC2 SLP155 DENSITY ALT 3000FT

CYQF;2018-09-09 11:00;CYQF 091100Z 32006KT 15SM BKN045 09/07 A2997 RMK SC5 SLP159 DENSITY ALT 3000FT

CYQF;2018-09-09 12:00;CYQF 091200Z 34008KT 15SM SCT045 BKN090 08/06 A2998 RMK SC3AC2 SLP164

CYQF;2018-09-09 13:00;CYQF 091300Z 34006KT 15SM SCT019 BKN044 BKN090 08/06 A2999 RMK SC3SC3AC1 SLP170

CYQF;2018-09-09 14:00;CYQF 091400Z 34006KT 15SM SCT018 BKN043 08/05 A3000 RMK SC3SC4 SLP176

CYQF;2018-09-09 15:00;CYQF 091500Z 31008KT 15SM FEW018 BKN042 09/05 A3000 RMK SC2SC5 SLP178

CYQF;2018-09-09 16:00;CYQF 091600Z 31011KT 15SM FEW020 BKN057 09/05 A3001 RMK SC2SC5 SLP182

CYQF;2018-09-09 17:00;CYQF 091700Z 32007KT 15SM FEW018 BKN040 11/05 A3001 RMK SC2SC5 SLP179 DENSITY ALT 3100FT

CYQF;2018-09-09 18:00;CYQF 091800Z 31009KT 15SM FEW018 BKN047 OVC140 12/05 A3000 RMK SC1SC6AC1 SLP174 DENSITY ALT 3300FT

CYQF;2018-09-09 19:00;CYQF 091900Z 32007KT 15SM FEW018 OVC042 12/05 A2999 RMK SC2SC6 SLP172 DENSITY ALT 3200FT

CYQF;2018-09-09 20:00;CYQF 092000Z 34007KT 15SM FEW025 OVC041 12/06 A3000 RMK CU1SC7 SLP174 DENSITY ALT 3300FT

CYQF;2018-09-09 21:00;CYQF 092100Z 33007KT 15SM FEW025 OVC041 13/06 A2999 RMK CU1SC7 SLP172 DENSITY ALT 3300FT

CYQF;2018-09-09 22:00;CYQF 092200Z 36007KT 330V040 15SM FEW025 BKN040 13/05 A2998 RMK CU1SC6 SLP168 DENSITY ALT 3400FT

CYQF;2018-09-09 23:00;CYQF 092300Z 32007KT 290V360 15SM FEW025 BKN043 13/05 A2998 RMK CU2SC5 SLP168 DENSITY ALT 3400FT

CYQF;2018-09-10 00:00;CYQF 100000Z 01006KT 15SM FEW025 BKN042 13/06 A2998 RMK CU1SC6 SLP170 DENSITY ALT 3400FT

CYQF;2018-09-10 01:00;CYQF 100100Z 02005KT 15SM SCT040 BKN100 12/06 A2998 RMK SC3AC4 SLP170 DENSITY ALT 3300FT

CYQF;2018-09-10 02:00;CYQF 100200Z 36002KT 15SM FEW040 BKN110 11/05 A2997 RMK SC2AC4 SLP169 DENSITY ALT 3200FT

CYQF;2018-09-10 03:00;CYQF 100300Z 35002KT 15SM BKN044 BKN110 11/06 A2997 RMK SC5AC2 SLP168 DENSITY ALT 3100FT

CYQF;2018-09-10 04:00;CYQF 100400Z 07010KT 15SM BKN044 10/05 A2996 RMK SC7 SLP166 DENSITY ALT 3100FT

CYQF;2018-09-10 05:00;CYQF 100500Z 07008KT 15SM SCT040 BKN110 09/05 A2995 RMK SC3AC4 SLP162 DENSITY ALT 3000FT

CYQF;2018-09-10 06:00;CYQF 100600Z 10009KT 15SM OVC043 09/05 A2994 RMK SC8 SLP158

CYQF;2018-09-10 07:00;CYQF 100700Z 11007KT 15SM OVC041 08/05 A2992 RMK SC8 SLP153

CYQF;2018-09-10 08:00;CYQF 100800Z 10008KT 15SM OVC040 08/05 A2991 RMK SC8 SLP148

CYQF;2018-09-10 09:00;CYQF 100900Z 11006KT 15SM BKN040 OVC100 08/05 A2989 RMK SC6AC2 SLP141

CYQF;2018-09-10 10:00;CYQF 101000Z 13004KT 15SM SCT040 BKN090 07/05 A2988 RMK SC3AC4 SLP135

CYQF;2018-09-10 10:13;CYQF 101013Z 15003KT 15SM -RA SCT040 OVC080 07/05 A2988 RMK SC4AC4 SLP137

CYQF;2018-09-10 11:00;CYQF 101100Z 10006KT 12SM -RA FEW015 BKN040 OVC080 07/06 A2985 RMK SC2SC3AC3 SLP128

CYQF;2018-09-10 12:00;CYQF 101200Z 12004KT 12SM -RA FEW012 OVC090 07/06 A2984 RMK SF2AC6 SLP123

CYQF;2018-09-10 12:38;CYQF 101238Z 13005KT 12SM FEW015 BKN060 OVC160 06/06 A2982 RMK SF1SC4AC3 SLP118

CYQF;2018-09-10 13:00;CYQF 101300Z 13006KT 12SM FEW015 SCT060 BKN160 06/05 A2981 RMK SF1SC3AC3 SLP117

CYQF;2018-09-10 13:50;CYQF 101350Z 13006KT 12SM FEW007 SCT060 BKN210 06/06 A2980 RMK SF2SC2CI3 SLP113

CYQF;2018-09-10 14:00;CYQF 101400Z 14004KT 12SM FEW007 SCT060 BKN150 BKN210 06/06 A2981 RMK SF2SC2AC2CI1 SLP115

CYQF;2018-09-10 15:00;CYQF 101500Z 14009KT 12SM SCT007 BKN080 BKN200 07/07 A2979 RMK SF4AC1CC2 SLP109 DENSITY ALT 3000FT

CYQF;2018-09-10 15:27;CYQF 101527Z 15008KT 12SM BKN008 OVC200 08/07 A2979 RMK SF6CC2 SLP108 DENSITY ALT 3000FT

CYQF;2018-09-10 15:46;CYQF 101546Z 15005KT 12SM BKN010 OVC200 08/07 A2979 RMK SC7CI1 SLP106 DENSITY ALT 3100FT

CYQF;2018-09-10 16:00;CYQF 101600Z 13007KT 12SM OVC011 09/08 A2978 RMK SC8 SLP102 DENSITY ALT 3200FT

CYQF;2018-09-10 17:00;CYQF 101700Z 20005KT 120V220 12SM OVC014 10/07 A2977 RMK SC8 SLP101 DENSITY ALT 3300FT

CYQF;2018-09-10 18:00;CYQF 101800Z VRB02KT 15SM BKN019 OVC110 11/07 A2975 RMK SC7AC1 SLP092 DENSITY ALT 3500FT

CYQF;2018-09-10 19:00;CYQF 101900Z 34007KT 12SM OVC020 11/08 A2975 RMK SC8 SLP093 DENSITY ALT 3500FT

CYQF;2018-09-10 20:00;CYQF 102000Z 33009KT 12SM BKN019 OVC040 11/07 A2975 RMK SC6SC2 SLP093 DENSITY ALT 3400FT

CYQF;2018-09-10 21:00;CYQF 102100Z 36007KT 12SM OVC017 11/07 A2976 RMK SC8 SLP098 DENSITY ALT 3400FT

CYQF;2018-09-10 22:00;CYQF 102200Z 34008KT 12SM OVC016 11/07 A2977 RMK SC8 SLP100 DENSITY ALT 3400FT

CYQF;2018-09-10 23:00;CYQF 102300Z 34009KT 12SM OVC019 11/07 A2977 RMK SC8 SLP102 DENSITY ALT 3400FT

CYQF;2018-09-11 00:00;CYQF 110000Z 02005KT 12SM FEW012 OVC017 10/08 A2979 RMK SC2SC6 SLP109 DENSITY ALT 3300FT

CYQF;2018-09-11 01:00;CYQF 110100Z 35007KT 12SM FEW015 OVC024 10/07 A2980 RMK SC2SC6 SLP114 DENSITY ALT 3300FT

CYQF;2018-09-11 02:00;CYQF 110200Z 36005KT 12SM FEW015 OVC028 09/07 A2980 RMK SC1SC7 SLP116 DENSITY ALT 3200FT

CYQF;2018-09-11 03:00;CYQF 110300Z 34004KT 12SM BKN027 BKN110 09/07 A2982 RMK SC6AC1 SLP121 DENSITY ALT 3100FT

CYQF;2018-09-11 04:00;CYQF 110400Z 32002KT 12SM FEW020 SCT110 08/07 A2983 RMK SC1AC3 SLP125 DENSITY ALT 3000FT

CYQF;2018-09-11 05:00;CYQF 110500Z 27003KT 12SM BKN100 07/06 A2983 RMK AC5 SLP124

CYQF;2018-09-11 06:00;CYQF 110600Z 26004KT 15SM BKN096 07/05 A2984 RMK AC6 SLP125

CYQF;2018-09-11 07:00;CYQF 110700Z 17003KT 15SM BKN100 06/05 A2983 RMK AC7 SLP122

CYQF;2018-09-11 08:00;CYQF 110800Z 22002KT 15SM BKN120 06/05 A2983 RMK AC7 SLP122

CYQF;2018-09-11 09:00;CYQF 110900Z 00000KT 15SM BKN100 06/05 A2983 RMK AC7 SLP125

CYQF;2018-09-11 10:00;CYQF 111000Z 21005KT 15SM OVC100 06/06 A2984 RMK AC8 SLP126

CYQF;2018-09-11 11:00;CYQF 111100Z 00000KT 15SM BKN110 06/05 A2985 RMK AC7 SLP131

CYQF;2018-09-11 11:11;CYQF 111111Z 29003KT 270V350 15SM FEW014 OVC110 06/06 A2985 RMK SC1AC7 SLP130

CYQF;2018-09-11 12:00;CYQF 111200Z 31003KT 15SM BKN016 OVC110 07/06 A2985 RMK SC5AC3 SLP132

CYQF;2018-09-11 13:00;CYQF 111300Z 36002KT 12SM VCSH SCT076 OVC110 06/06 A2986 RMK AC4AC4 SLP134

CYQF;2018-09-11 13:24;CYQF 111324Z 06003KT 12SM -RA SCT063 BKN110 06/06 A2986 RMK SC4AC3 SLP135

CYQF;2018-09-11 14:00;CYQF 111400Z 34003KT 300V070 12SM VCSH SCT014 BKN060 BKN110 06/06 A2987 RMK SC3SC2AC2 SLP138

CYQF;2018-09-11 15:00;CYQF 111500Z 00000KT 12SM SCT014 BKN050 BKN100 08/06 A2987 RMK SC3SC2AC1 SLP138 DENSITY ALT 3000FT

CYQF;2018-09-11 16:00;CYQF 111600Z 12003KT 050V160 15SM BKN016 BKN040 BKN075 09/06 A2987 RMK SC5SC1AC1 SLP137 DENSITY ALT 3100FT

CYQF;2018-09-11 17:00;CYQF 111700Z VRB02KT 15SM BKN017 BKN100 11/06 A2986 RMK CU5AC1 SLP133 DENSITY ALT 3300FT

CYQF;2018-09-11 18:00;CYQF 111800Z VRB02KT 12SM SCT020 BKN060 BKN140 12/07 A2985 RMK CU3SC3AC1 SLP129 DENSITY ALT 3500FT

CYQF;2018-09-11 19:00;CYQF 111900Z 14004KT 050V180 15SM SCT034TCU BKN100 15/08 A2984 RMK TCU4AC2 SLP121 DENSITY ALT 3800FT

CYQF;2018-09-11 20:00;CYQF 112000Z 09005KT 360V100 15SM SCT040TCU BKN250 16/07 A2983 RMK TCU4CI1 SLP117 DENSITY ALT 3900FT

CYQF;2018-09-11 21:00;CYQF 112100Z 03003KT 350V100 15SM BKN044TCU BKN250 17/05 A2981 RMK TCU5CI1 SLP111 DENSITY ALT 4000FT

CYQF;2018-09-11 22:00;CYQF 112200Z 08003KT 030V180 15SM TS VCSH BKN040CB BKN250 18/05 A2980 RMK CB5CI2 OCNL LTGCG SE AND DIST SW SLP107 DENSITY ALT 4100FT

CYQF;2018-09-11 23:00;CYQF 112300Z 23012G23KT 12SM TS VCSH BKN042CB BKN250 12/05 A2982 RMK CB6CI1 OCNL LTGCG SE SLP119 DENSITY ALT 3500FT

CYQF;2018-09-11 23:14;CYQF 112314Z 23012G18KT 12SM -SHRA BKN045CB BKN250 12/06 A2982 RMK CB6CI1 SLP121 DENSITY ALT 3400FT

CYQF;2018-09-12 00:00;CYQF 120000Z 16013KT 12SM -SHRA BKN040CB BKN250 09/08 A2984 RMK CB6CI1 OCNL LTGCG NE VIS SE 6 SLP127 DENSITY ALT 3100FT

CYQF;2018-09-12 00:51;CYQF 120051Z 13010KT 15SM SCT040CB BKN120 BKN210 09/08 A2981 RMK CB3AC3CI1 VIRGA SLP117 DENSITY ALT 3200FT

CYQF;2018-09-12 01:00;CYQF 120100Z 12008KT 15SM SCT040CB BKN120 BKN210 10/08 A2980 RMK CB3AC3CI1 VIRGA SLP116 DENSITY ALT 3200FT

CYQF;2018-09-12 02:00;CYQF 120200Z 34003KT 15SM SCT040 BKN130 09/07 A2981 RMK CU3AC4 SLP118 DENSITY ALT 3100FT

CYQF;2018-09-12 03:00;CYQF 120300Z 07004KT 15SM SCT040 OVC085 09/07 A2983 RMK SC3AC5 SLP123 DENSITY ALT 3000FT

CYQF;2018-09-12 03:42;CYQF 120342Z 28007KT 12SM -RA SCT030 OVC070 08/08 A2984 RMK SC3AC5 SLP128 DENSITY ALT 3000FT

CYQF;2018-09-12 04:00;CYQF 120400Z 32004KT 12SM -RA SCT030 OVC060 09/07 A2985 RMK SC3SC5 SLP131 DENSITY ALT 3000FT

CYQF;2018-09-12 05:00;CYQF 120500Z VRB02KT 12SM -RA FEW040 BKN065 OVC170 09/07 A2986 RMK SC2SC5AC1 SLP132 DENSITY ALT 3000FT

CYQF;2018-09-12 05:22;CYQF 120522Z 34005KT 290V360 12SM OVC065 09/07 A2986 RMK SC8 SLP131 DENSITY ALT 3000FT

CYQF;2018-09-12 06:00;CYQF 120600Z 29005KT 15SM OVC055 08/07 A2986 RMK SC8 SLP128 DENSITY ALT 3000FT

CYQF;2018-09-12 07:00;CYQF 120700Z 31005KT 12SM SCT055 OVC092 08/07 A2985 RMK SC4AC4 SLP123 DENSITY ALT 3000FT

CYQF;2018-09-12 08:00;CYQF 120800Z 34005KT 12SM SCT055 OVC090 08/07 A2985 RMK SC3AC5 SLP122

CYQF;2018-09-12 08:50;CYQF 120850Z 00000KT 8SM FEW006 OVC055 07/07 A2984 RMK SF1SC7 SLP121

CYQF;2018-09-12 09:00;CYQF 120900Z 30002KT 8SM FEW006 OVC055 07/07 A2984 RMK SF2SC6 SLP121

CYQF;2018-09-12 10:00;CYQF 121000Z 30005KT 6SM BR SCT006 OVC050 07/07 A2984 RMK SF4SC4 SLP119

CYQF;2018-09-12 10:17;CYQF 121017Z 29005KT 6SM -DZ BR BKN005 BKN045 08/07 A2984 RMK SF5SC2 SLP119

CYQF;2018-09-12 11:00;CYQF 121100Z 30004KT 6SM -DZ BR BKN006 OVC048 08/07 A2984 RMK SF6SC2 SLP123

CYQF;2018-09-12 11:09;CYQF 121109Z 30005KT 8SM SCT006 OVC050 08/07 A2984 RMK SF3SC5 SLP123

CYQF;2018-09-12 12:00;CYQF 121200Z 28005KT 8SM FEW006 BKN020 OVC050 08/07 A2983 RMK SF1SC5SC2 SLP125

CYQF;2018-09-12 13:00;CYQF 121300Z 30006KT 8SM FEW006 BKN015 OVC044 07/07 A2984 RMK SF1SC6SC2 SF TR SLP128

CYQF;2018-09-12 14:03;CYQF 121403Z 31017G23KT 2SM -DZ BR BKN007 OVC012 06/05 A2986 RMK ST7SC1 SLP135

CYQF;2018-09-12 15:00;CYQF 121500Z 32017G23KT 8SM -DZ BKN011 OVC038 04/03 A2988 RMK SC6SC2 SLP146

CYQF;2018-09-12 15:51;CYQF 121551Z 33012G19KT 15SM OVC012 03/01 A2991 RMK SC8 SLP156

CYQF;2018-09-12 16:00;CYQF 121600Z 32014G22KT 15SM OVC012 03/01 A2991 RMK SC8 SLP157

CYQF;2018-09-12 16:38;CYQF 121638Z 34012KT 10SM -DZ FEW005 OVC011 03/01 A2991 RMK SF2SC6 SLP159

CYQF;2018-09-12 17:00;CYQF 121700Z 33016G23KT 8SM -DZ OVC015 02/M00 A2992 RMK SC8 CIG RAG SLP162

CYQF;2018-09-12 17:51;CYQF 121751Z 35012KT 10SM -DZ OVC012 02/00 A2993 RMK SC8 CIG RAG SLP165

CYQF;2018-09-12 18:00;CYQF 121800Z 34013KT 15SM -DZ OVC014 02/M00 A2993 RMK SC8 CIG RAG SLP166

CYQF;2018-09-12 19:00;CYQF 121900Z 34014KT 15SM BKN014 OVC026 02/M01 A2993 RMK SC6SC2 CIG RAG SLP166

CYQF;2018-09-12 19:38;CYQF 121938Z 32016G21KT 15SM SCT017 OVC026 02/M01 A2993 RMK SC4SC4 SLP165

CYQF;2018-09-12 20:00;CYQF 122000Z 34017KT 15SM BKN017 OVC025 03/M01 A2992 RMK SC5SC3 SLP164

CYQF;2018-09-12 21:00;CYQF 122100Z 34014G20KT 15SM BKN019 OVC025 03/M01 A2993 RMK SC7SC1 SLP168

CYQF;2018-09-12 22:00;CYQF 122200Z 32012KT 15SM OVC019 03/M01 A2994 RMK SC8 SLP169

CYQF;2018-09-12 23:00;CYQF 122300Z 34013G20KT 15SM OVC020 02/M01 A2994 RMK SC8 SLP171

CYQF;2018-09-13 00:00;CYQF 130000Z 36012KT 15SM OVC020 02/M02 A2995 RMK SC8 SLP174

CYQF;2018-09-13 01:00;CYQF 130100Z 35010KT 15SM OVC020 01/M02 A2997 RMK SC8 SLP182

CYQF;2018-09-13 02:00;CYQF 130200Z 01009G16KT 12SM OVC015 00/M02 A2998 RMK SC8 SLP186

CYQF;2018-09-13 02:32;CYQF 130232Z 35009KT 3SM -SN OVC016 M00/M02 A2998 RMK SC8 SLP188

CYQF;2018-09-13 02:49;CYQF 130249Z 34009KT 1 1/2SM -SN OVC012 M01/M02 A2999 RMK SC8 SLP189

CYQF;2018-09-13 03:00;CYQF 130300Z 34009KT 1 1/2SM -SN BKN005 OVC011 M01/M02 A2999 RMK SF5SC3 SLP196

CYQF;2018-09-13 03:20;CYQF 130320Z 35005KT 1SM -SN BKN005 OVC010 M01/M02 A3000 RMK SF6SC2 SLP197

CYQF;2018-09-13 03:44;CYQF 130344Z 01005KT 3SM -SN SCT005 OVC010 M01/M02 A3000 RMK SF3SC5 CIG RAG SLP200

CYQF;2018-09-13 04:00;CYQF 130400Z 35004KT 6SM -SN FEW005 OVC011 M01/M02 A3001 RMK SF2SC6 SLP203

CYQF;2018-09-13 05:00;CYQF 130500Z 36007KT 6SM -SN FEW005 OVC010 M01/M02 A3001 RMK SF2SC6 SLP205

CYQF;2018-09-13 06:00;CYQF 130600Z 36007KT 6SM -SN FEW005 BKN017 M02/M03 A3001 RMK SF1SC6 SLP203

CYQF;2018-09-13 06:45;CYQF 130645Z 35007KT 8SM FEW005 BKN019 OVC055 M02/M03 A3001 RMK SF1SC5SC2 SLP204

CYQF;2018-09-13 07:00;CYQF 130700Z 35006KT 8SM FEW005 OVC010 M02/M03 A3000 RMK SF2SC6 SLP202

CYQF;2018-09-13 07:32;CYQF 130732Z 34006KT 6SM -SN SCT005 OVC010 M02/M03 A3000 RMK SF3SC5 SLP202

CYQF;2018-09-13 07:41;CYQF 130741Z 34007KT 2SM -SN BKN006 OVC010 M02/M03 A3000 RMK SN2SF4SC2 SLP203

CYQF;2018-09-13 08:00;CYQF 130800Z 35009KT 3SM -SN SCT006 BKN012 OVC090 M02/M03 A3001 RMK SF3SC3AC2 SLP204

CYQF;2018-09-13 08:41;CYQF 130841Z 34005KT 2SM -SN VV010 M03/M03 A3001 RMK SN8 SLP204

CYQF;2018-09-13 09:00;CYQF 130900Z 34005KT 1 1/2SM -SN VV015 M03/M03 A3001 RMK SN8 SLP204

CYQF;2018-09-13 09:38;CYQF 130938Z 35005KT 3SM -SN OVC060 M03/M03 A3000 RMK SN6SC2 SLP203

CYQF;2018-09-13 10:00;CYQF 131000Z 35006KT 3SM -SN BKN005 BKN020 OVC060 M02/M03 A3000 RMK SN3SF2SC1SC2 /S02/ SLP203

CYQF;2018-09-13 11:00;CYQF 131100Z 36006KT 6SM -SN BKN009 OVC020 M03/M04 A3001 RMK SN2SF4SC2 SLP206

CYQF;2018-09-13 12:00;CYQF 131200Z 34007KT 6SM -SN SCT009 OVC015 M03/M04 A3001 RMK SN1SF2SC5 SLP207

CYQF;2018-09-13 13:00;CYQF 131300Z 34005KT 10SM -SN OVC013 M03/M04 A3002 RMK SC8 CIG RAG SLP209

CYQF;2018-09-13 13:23;CYQF 131323Z 34006KT 12SM OVC010 M03/M04 A3002 RMK SC8 CIG RAG SLP211

CYQF;2018-09-13 14:00;CYQF 131400Z 34004KT 12SM OVC010 M03/M04 A3002 RMK SC8 SLP213

CYQF;2018-09-13 14:24;CYQF 131424Z 35004KT 3SM -SN OVC010 M03/M04 A3003 RMK SC8 VIS S 6 SLP216

CYQF;2018-09-13 14:31;CYQF 131431Z 34004KT 1 1/2SM -SN OVC012 M03/M04 A3004 RMK SC8 SLP217

CYQF;2018-09-13 15:00;CYQF 131500Z 31004KT 1SM -SN OVC012 M03/M04 A3004 RMK SC8 SLP219

CYQF;2018-09-13 16:00;CYQF 131600Z 32006KT 1 1/2SM -SN BKN010 OVC060 M02/M03 A3003 RMK SC5SC3 SLP217

CYQF;2018-09-13 16:06;CYQF 131606Z 33007KT 3SM -SN BKN009 OVC060 M02/M03 A3003 RMK SC5SC3 SLP217

CYQF;2018-09-13 17:00;CYQF 131700Z 35006KT 3SM -SN BKN008 OVC050 M02/M03 A3004 RMK SC5SC3 SLP218

CYQF;2018-09-13 17:38;CYQF 131738Z 34007KT 6SM -SN BKN010 OVC090 M02/M03 A3003 RMK SC6AC2 SLP216

CYQF;2018-09-13 18:00;CYQF 131800Z 34006KT 10SM -SN OVC012 M01/M03 A3003 RMK SC8 SLP214

CYQF;2018-09-13 18:26;CYQF 131826Z 35006KT 12SM OVC017 M01/M03 A3002 RMK SC8 SLP211

CYQF;2018-09-13 18:41;CYQF 131841Z 35005KT 310V010 3SM -SN OVC013 M01/M04 A3002 RMK SC8 SLP212

CYQF;2018-09-13 19:00;CYQF 131900Z 33008KT 1SM -SN OVC014 M01/M03 A3003 RMK SN4SC4 VIS 1/2-11/2 SLP215

CYQF;2018-09-13 20:00;CYQF 132000Z 33009KT 1SM -SN OVC006 M01/M02 A3004 RMK SN5SC3 VIS VRB 1/2-11/2 SLP219

CYQF;2018-09-13 20:42;CYQF 132042Z 34008KT 3SM -SN BKN009 BKN030 M01/M03 A3004 RMK SC6SC1 SLP220

CYQF;2018-09-13 21:00;CYQF 132100Z 34007KT 6SM -SN BKN009 BKN019 OVC100 M00/M02 A3004 RMK SC5SC2AC1 SLP220

CYQF;2018-09-13 22:06;CYQF 132206Z 01005KT 1 1/2SM -SN VV009 M01/M02 A3006 RMK SN8 SLP224

CYQF;2018-09-13 23:00;CYQF 132300Z 34004KT 1 1/2SM -SN BKN009 OVC028 M01/M02 A3007 RMK SC5SC3 SLP231

CYQF;2018-09-14 00:00;CYQF 140000Z 01006KT 1 1/2SM -SN BKN006 OVC021 M01/M02 A3009 RMK SF5SC3 SLP235

CYQF;2018-09-14 00:41;CYQF 140041Z 36006KT 5SM -SN BKN006 BKN020 OVC120 M01/M02 A3010 RMK SF5SC2AC1 SLP240

CYQF;2018-09-14 01:00;CYQF 140100Z 03006KT 8SM -SN SCT005 BKN030 BKN090 M01/M02 A3010 RMK SF3SC3AC1 SLP242

CYQF;2018-09-14 01:18;CYQF 140118Z 01004KT 8SM BKN008 BKN030 BKN120 M01/M02 A3012 RMK SC5SC1AC1 PRESRR SLP247

CYQF;2018-09-14 01:51;CYQF 140151Z 03003KT 8SM SCT008 BKN023 BKN120 M01/M02 A3012 RMK SC3SC3AC1 SLP248

CYQF;2018-09-14 02:00;CYQF 140200Z 05003KT 8SM FEW006 BKN023 BKN120 M01/M02 A3012 RMK SF2SC4AC1 SLP247

CYQF;2018-09-14 03:00;CYQF 140300Z 03002KT 10SM FEW006 BKN021 OVC080 M01/M02 A3014 RMK SF1SC5AC2 SLP255

CYQF;2018-09-14 04:00;CYQF 140400Z 00000KT 10SM FEW005 BKN010 OVC020 M01/M02 A3016 RMK SF2SC3SC3 SLP259

CYQF;2018-09-14 04:38;CYQF 140438Z 04002KT 12SM SCT008 BKN020 BKN100 M01/M02 A3015 RMK SF3SC2AC2 SLP258

CYQF;2018-09-14 05:00;CYQF 140500Z 01002KT 15SM FEW020 BKN100 M01/M02 A3016 RMK SC2AC4 SLP260

CYQF;2018-09-14 05:38;CYQF 140538Z 00000KT 15SM SCT008 BKN020 BKN100 M02/M02 A3016 RMK SF3SC2AC2 SLP262

CYQF;2018-09-14 06:00;CYQF 140600Z 03004KT 15SM BKN009 BKN100 M02/M03 A3016 RMK SC5AC2 SLP261

CYQF;2018-09-14 07:00;CYQF 140700Z 01003KT 15SM FEW008 OVC023 M02/M02 A3017 RMK SC2SC6 SLP263

CYQF;2018-09-14 08:00;CYQF 140800Z 10005KT 15SM SCT008 OVC022 M03/M03 A3017 RMK SC3SC5 SLP263

CYQF;2018-09-14 08:52;CYQF 140852Z 09006KT 15SM OVC006 M02/M03 A3017 RMK ST8 SLP265

CYQF;2018-09-14 09:00;CYQF 140900Z 09007KT 15SM OVC006 M02/M03 A3018 RMK ST8 SLP265

CYQF;2018-09-14 10:00;CYQF 141000Z 08004KT 060V130 15SM OVC005 M03/M04 A3019 RMK ST8 SLP269

CYQF;2018-09-14 11:00;CYQF 141100Z 10004KT 15SM BKN008 OVC060 M02/M03 A3018 RMK ST7SC1 SLP268

CYQF;2018-09-14 12:00;CYQF 141200Z 10002KT 12SM OVC010 M02/M03 A3018 RMK ST8 SLP268

CYQF;2018-09-14 13:00;CYQF 141300Z 18002KT 10SM FEW010 BKN015 OVC100 M03/M04 A3019 RMK SF2SC4AC2 SLP271

CYQF;2018-09-14 14:00;CYQF 141400Z 14003KT 10SM OVC017 M02/M03 A3020 RMK SC8 SLP273

CYQF;2018-09-14 15:00;CYQF 141500Z 14006KT 10SM OVC014 M01/M03 A3020 RMK SC8 SLP273

CYQF;2018-09-14 16:00;CYQF 141600Z 14008KT 12SM OVC012 M01/M02 A3019 RMK SC8 SLP270

CYQF;2018-09-14 17:00;CYQF 141700Z 15010KT 12SM BKN012 OVC015 M00/M02 A3020 RMK SC5SC3 SLP271

CYQF;2018-09-14 18:00;CYQF 141800Z 14008KT 12SM OVC012 01/M02 A3019 RMK SC8 SLP268

CYQF;2018-09-14 18:52;CYQF 141852Z 12008KT 12SM BKN015 OVC023 01/M02 A3017 RMK SC5SC3 SLP262

CYQF;2018-09-14 19:00;CYQF 141900Z 14010KT 12SM BKN015 OVC020 01/M02 A3017 RMK SC5SC3 SLP261

CYQF;2018-09-14 20:00;CYQF 142000Z 14010KT 12SM OVC018 02/M01 A3017 RMK SC8 SLP260

CYQF;2018-09-14 21:00;CYQF 142100Z 13007KT 12SM OVC018 02/M01 A3016 RMK SC8 SLP259

CYQF;2018-09-14 22:00;CYQF 142200Z 13006KT 12SM OVC019 02/M01 A3016 RMK SC8 SLP256

CYQF;2018-09-14 23:00;CYQF 142300Z 14005KT 12SM OVC019 03/M00 A3016 RMK SC8 SLP255

CYQF;2018-09-15 00:00;CYQF 150000Z 11004KT 12SM OVC023 03/M00 A3015 RMK SC8 SLP252

CYQF;2018-09-15 01:00;CYQF 150100Z 13006KT 12SM OVC023 03/M00 A3015 RMK SC8 SLP252

CYQF;2018-09-15 02:00;CYQF 150200Z 11007KT 12SM OVC021 03/M00 A3015 RMK SC8 SLP251

CYQF;2018-09-15 02:24;CYQF 150224Z 09005KT 12SM -RA OVC027 03/M00 A3015 RMK SC8 SLP251

CYQF;2018-09-15 03:00;CYQF 150300Z 08006KT 12SM -RA OVC023 03/00 A3015 RMK SC8 SLP252

CYQF;2018-09-15 04:00;CYQF 150400Z 04005KT 12SM OVC025 03/01 A3014 RMK SC8 SLP248

CYQF;2018-09-15 05:00;CYQF 150500Z 08008KT 15SM OVC030 02/00 A3013 RMK SC8 SLP245

CYQF;2018-09-15 06:00;CYQF 150600Z 09008KT 15SM OVC027 02/00 A3013 RMK SC8 SLP242

CYQF;2018-09-15 07:00;CYQF 150700Z 09006KT 15SM OVC026 02/00 A3012 RMK SC8 SLP238

CYQF;2018-09-15 08:00;CYQF 150800Z 09007KT 15SM OVC022 02/00 A3010 RMK SC8 SLP233

CYQF;2018-09-15 09:00;CYQF 150900Z 08007KT 15SM OVC018 03/00 A3009 RMK SC8 SLP227

CYQF;2018-09-15 10:00;CYQF 151000Z 08009KT 15SM OVC016 03/00 A3008 RMK SC8 SLP223

CYQF;2018-09-15 11:00;CYQF 151100Z 06007KT 15SM OVC015 02/01 A3007 RMK SC8 SLP219

CYQF;2018-09-15 11:46;CYQF 151146Z 03006KT 15SM OVC010 02/01 A3006 RMK SC8 SLP217

CYQF;2018-09-15 11:52;CYQF 151152Z 03005KT 15SM -RA OVC010 02/01 A3006 RMK SC8 SLP217

CYQF;2018-09-15 12:00;CYQF 151200Z 03006KT 15SM -RA OVC010 02/01 A3006 RMK SC8 SLP216

CYQF;2018-09-15 13:00;CYQF 151300Z 04008KT 6SM -RA BR OVC005 02/02 A3005 RMK SC8 SLP212

CYQF;2018-09-15 13:10;CYQF 151310Z 04007KT 2SM -RASN OVC004 02/02 A3005 RMK SC8 SLP212

CYQF;2018-09-15 13:55;CYQF 151355Z 04007KT 2SM -DZ BR OVC004 02/02 A3005 RMK ST8 SLP212

CYQF;2018-09-15 14:00;CYQF 151400Z 04008KT 2SM -DZ BR OVC004 02/02 A3004 RMK ST8 SLP211

CYQF;2018-09-15 15:00;CYQF 151500Z 05007KT 2SM -DZ BR OVC004 02/02 A3005 RMK ST8 VIS VRB 1-3 SLP212

CYQF;2018-09-15 16:00;CYQF 151600Z 04007KT 1 1/2SM -DZ BR OVC003 02/02 A3004 RMK ST8 VIS VRB 1-2 SLP211

CYQF;2018-09-15 17:00;CYQF 151700Z 04008KT 1 1/2SM -DZ BR OVC004 02/02 A3005 RMK ST8 VIS VRB 1-2 SLP212

CYQF;2018-09-15 18:00;CYQF 151800Z 02007KT 1 1/2SM -DZ BR OVC003 03/02 A3004 RMK ST8 VIS VRB 1-2 SLP211

CYQF;2018-09-15 19:00;CYQF 151900Z 02006KT 2SM -DZ BR OVC004 03/03 A3003 RMK ST8 VIS VRB 1-3 SLP207

CYQF;2018-09-15 20:00;CYQF 152000Z 01006KT 3SM -DZ BR OVC005 03/03 A3004 RMK ST8 SLP209

CYQF;2018-09-15 21:00;CYQF 152100Z 36008KT 3SM -DZ BR OVC004 03/03 A3003 RMK ST8 SLP207

CYQF;2018-09-15 22:00;CYQF 152200Z 34008KT 3SM -DZ BR OVC004 03/02 A3004 RMK ST8 SLP208

CYQF;2018-09-15 22:37;CYQF 152237Z 36006KT 2SM -DZ BR OVC003 03/03 A3004 RMK SF8 VIS VRB 1-3 CIG RAG SLP209

CYQF;2018-09-15 23:00;CYQF 152300Z 01008KT 1 1/2SM -DZ BR VV004 03/02 A3003 RMK FG8 SLP208

CYQF;2018-09-16 00:00;CYQF 160000Z 35008KT 2SM -DZ BR OVC004 02/02 A3005 RMK ST8 SLP214

CYQF;2018-09-16 01:00;CYQF 160100Z 35011KT 2SM -DZ BR OVC004 02/01 A3005 RMK ST8 SLP213

CYQF;2018-09-16 01:33;CYQF 160133Z 36006KT 1 1/2SM -DZ BR VV004 02/01 A3006 RMK FG8 SLP219

CYQF;2018-09-16 01:38;CYQF 160138Z 36006KT 3/4SM -DZ BR VV003 02/01 A3006 RMK FG8 SLP219

CYQF;2018-09-16 02:00;CYQF 160200Z 36006KT 3/4SM -DZ BR VV004 02/01 A3007 RMK FG8 SLP222

CYQF;2018-09-16 03:00;CYQF 160300Z 35007KT 1SM -DZ BR VV004 01/01 A3007 RMK FG8 SLP222

CYQF;2018-09-16 04:00;CYQF 160400Z 33006KT 1SM -DZ BR VV004 01/01 A3008 RMK FG8 SLP224

CYQF;2018-09-16 05:00;CYQF 160500Z 36005KT 1 1/2SM -DZ BR OVC004 01/01 A3007 RMK ST8 SLP220

CYQF;2018-09-16 06:00;CYQF 160600Z 01007KT 1SM -DZ BR OVC004 01/01 A3005 RMK ST8 SLP216

CYQF;2018-09-16 07:00;CYQF 160700Z 01006KT 1SM -DZ BR OVC003 01/01 A3005 RMK ST8 SLP212

CYQF;2018-09-16 07:33;CYQF 160733Z 36005KT 1SM BR OVC003 01/01 A3005 RMK ST8 SLP212

CYQF;2018-09-16 08:00;CYQF 160800Z 35004KT 3/4SM BR VV003 01/01 A3004 RMK FG8 SLP211

CYQF;2018-09-16 09:00;CYQF 160900Z 33005KT 1SM -RA BR VV004 01/01 A3004 RMK FG8 SLP210

CYQF;2018-09-16 09:36;CYQF 160936Z 33005KT 1 1/2SM -RASN BR OVC006 01/01 A3003 RMK ST8 SLP208

CYQF;2018-09-16 09:46;CYQF 160946Z 33004KT 3SM -RASN BR OVC008 01/01 A3003 RMK ST8 SLP209

CYQF;2018-09-16 10:03;CYQF 161003Z 33004KT 2 1/2SM -DZSN BR OVC007 01/01 A3003 RMK ST8 SLP209

CYQF;2018-09-16 11:00;CYQF 161100Z 34004KT 4SM -RASN OVC004 00/00 A3002 RMK ST8 SLP206

CYQF;2018-09-16 11:19;CYQF 161119Z 33004KT 4SM -SN OVC008 00/00 A3002 RMK ST8 SLP206

CYQF;2018-09-16 11:42;CYQF 161142Z 36004KT 4SM -RASN BKN003 OVC025 00/00 A3002 RMK ST5SC3 SLP204

CYQF;2018-09-16 12:04;CYQF 161204Z 36005KT 2 1/2SM -SN BR SCT005 OVC026 00/00 A3001 RMK ST3SC5 SLP202

CYQF;2018-09-16 12:14;CYQF 161214Z 35004KT 2SM -RASN BR SCT005 OVC026 00/00 A3001 RMK SF4SC4 SLP203

CYQF;2018-09-16 12:31;CYQF 161231Z 36004KT 2SM -SN BR OVC006 00/00 A3001 RMK SF8 SLP203

CYQF;2018-09-16 13:00;CYQF 161300Z 36005KT 2SM -SN BR VV009 00/00 A3000 RMK SN8 SLP201

CYQF;2018-09-16 14:00;CYQF 161400Z 36004KT 1SM -SN VV009 00/00 A3000 RMK SN8 VIS VRB 3/4-11/4 SLP201

CYQF;2018-09-16 15:00;CYQF 161500Z 36005KT 1SM -SN VV011 00/00 A3000 RMK SN8 VIS VRB 3/4-11/4 SLP200

CYQF;2018-09-16 16:00;CYQF 161600Z 36005KT 2SM -SN OVC003 00/00 A3000 RMK SN5SF3 VIS VRB 1-3 SLP199

CYQF;2018-09-16 17:00;CYQF 161700Z 36005KT 1 1/2SM -SN OVC003 00/00 A3000 RMK SN5SF3 VIS VRB 1-2 SLP201

CYQF;2018-09-16 17:46;CYQF 161746Z 01004KT 2SM -SN BR OVC005 01/01 A3000 RMK ST8 VIS VRB 11/2-21/2 CIG VRB 300-700 SLP200

CYQF;2018-09-16 18:00;CYQF 161800Z 35005KT 2SM -SN BR OVC005 01/01 A3000 RMK ST8 VIS VRB 11/2-21/2 CIG VRB 300-700 SLP201

CYQF;2018-09-16 18:19;CYQF 161819Z 01004KT 6SM -DZ BR OVC004 02/01 A3000 RMK ST8 SLP200

CYQF;2018-09-16 19:00;CYQF 161900Z 35006KT 8SM -DZ OVC005 02/02 A3000 RMK ST8 SLP198

CYQF;2018-09-16 20:00;CYQF 162000Z 36005KT 330V040 6SM -DZ OVC004 02/02 A3000 RMK ST8 SLP199

CYQF;2018-09-16 20:45;CYQF 162045Z 33005KT 330V030 2SM -DZ BR OVC004 02/02 A3000 RMK FG4ST4 SLP199

CYQF;2018-09-16 21:00;CYQF 162100Z 35005KT 1 1/2SM -DZ BR OVC004 02/02 A3000 RMK FG4ST4 SLP198

CYQF;2018-09-16 21:48;CYQF 162148Z 36005KT 320V020 2SM BR OVC004 03/02 A3001 RMK FG3ST5 SLP200

CYQF;2018-09-16 22:00;CYQF 162200Z 36004KT 2SM BR OVC004 03/02 A3001 RMK FG2ST6 SLP201

CYQF;2018-09-16 22:31;CYQF 162231Z 36006KT 2SM -DZ BR OVC008 03/02 A3001 RMK FG1SF7 CIG RAG SLP202

CYQF;2018-09-16 22:52;CYQF 162252Z 36004KT 3SM -DZ BR BKN004 OVC010 03/02 A3001 RMK SF5ST3 SLP203

CYQF;2018-09-16 23:00;CYQF 162300Z 01005KT 4SM BR SCT004 OVC007 03/02 A3001 RMK SF3SF5 SLP203

CYQF;2018-09-17 00:00;CYQF 170000Z 36004KT 6SM BR BKN007 OVC013 03/02 A3002 RMK SF5SC3 VIS S 3 SLP205

CYQF;2018-09-17 00:41;CYQF 170041Z 35005KT 6SM BR SCT007 OVC012 03/02 A3003 RMK SF4SC4 VIS S3 SLP207

CYQF;2018-09-17 01:00;CYQF 170100Z 36004KT 6SM BR SCT007 OVC012 03/02 A3003 RMK SF3SC5 SLP208

CYQF;2018-09-17 02:00;CYQF 170200Z 34004KT 6SM BR FEW007 OVC012 03/02 A3004 RMK SF2SC6 SLP214

CYQF;2018-09-17 02:20;CYQF 170220Z 35005KT 4SM -DZ BR SCT007 OVC010 02/02 A3005 RMK SF3SC5 SLP215

CYQF;2018-09-17 03:00;CYQF 170300Z 01004KT 4SM -DZ BR OVC007 02/02 A3005 RMK SF8 SLP216

CYQF;2018-09-17 04:00;CYQF 170400Z 36005KT 6SM -DZ BR OVC006 02/02 A3005 RMK SF8 SLP217

CYQF;2018-09-17 04:21;CYQF 170421Z 36004KT 6SM BR BKN007 OVC030 02/02 A3005 RMK SF6SC2 SLP215

CYQF;2018-09-17 05:00;CYQF 170500Z 35003KT 8SM FEW004 OVC008 02/02 A3005 RMK SF2ST6 SLP216

CYQF;2018-09-17 05:17;CYQF 170517Z 35004KT 8SM BKN004 OVC007 02/02 A3005 RMK SF5ST3 SLP215

CYQF;2018-09-17 05:39;CYQF 170539Z 33004KT 12SM SCT004 OVC008 02/01 A3005 RMK SF3ST5 SLP215

CYQF;2018-09-17 06:00;CYQF 170600Z 36004KT 12SM OVC006 02/01 A3005 RMK ST8 SLP215

CYQF;2018-09-17 07:00;CYQF 170700Z 35002KT 15SM BKN007 OVC030 02/01 A3004 RMK SF5SC3 CIG VRB 5-9 SLP212

CYQF;2018-09-17 08:00;CYQF 170800Z 03003KT 15SM OVC007 02/01 A3004 RMK ST8 SLP212

CYQF;2018-09-17 09:00;CYQF 170900Z 03003KT 15SM FEW007 OVC027 02/01 A3004 RMK SF2SC6 SLP212

CYQF;2018-09-17 10:00;CYQF 171000Z 36003KT 15SM BKN009 OVC026 02/01 A3003 RMK SF6SC2 SLP208

CYQF;2018-09-17 11:00;CYQF 171100Z 36002KT 15SM BKN008 OVC027 01/01 A3003 RMK SF5SC3 SLP207

CYQF;2018-09-17 11:36;CYQF 171136Z 03006KT 4SM BR OVC003 01/01 A3003 RMK SF8 SLP208

CYQF;2018-09-17 11:41;CYQF 171141Z 02006KT 3/4SM BR OVC003 01/01 A3003 RMK SF8 SLP208

CYQF;2018-09-17 11:44;CYQF 171144Z 02006KT 1/2SM FG VV003 01/01 A3003 RMK FG8 SLP208

CYQF;2018-09-17 12:00;CYQF 171200Z 03005KT 4SM BR OVC003 01/01 A3004 RMK SF8 SLP209

CYQF;2018-09-17 13:00;CYQF 171300Z 02003KT 4SM BR BKN003 OVC007 01/01 A3004 RMK SF5ST3 SLP212

CYQF;2018-09-17 13:49;CYQF 171349Z 36002KT 3SM BR BKN004 OVC007 01/01 A3005 RMK SF5ST3 SLP215

CYQF;2018-09-17 14:00;CYQF 171400Z 01003KT 3SM BR BKN004 OVC006 01/01 A3006 RMK SF5ST3 SLP217

CYQF;2018-09-17 15:00;CYQF 171500Z 05005KT 4SM BR BKN004 OVC008 01/01 A3006 RMK SF5ST3 SLP218

CYQF;2018-09-17 16:00;CYQF 171600Z VRB02KT 6SM BR BKN004 OVC007 02/01 A3007 RMK SF5ST3 SLP220

CYQF;2018-09-17 16:19;CYQF 171619Z VRB02KT 8SM SCT004 OVC009 02/00 A3007 RMK SF3ST5 SLP220

CYQF;2018-09-17 17:00;CYQF 171700Z VRB02KT 8SM SCT004 OVC008 02/01 A3007 RMK SF3ST5 SLP221

CYQF;2018-09-17 17:37;CYQF 171737Z 00000KT 8SM BKN010 OVC025 03/00 A3007 RMK SC6SC2 SLP219

CYQF;2018-09-17 18:00;CYQF 171800Z VRB03KT 10SM BKN015 OVC024 04/02 A3007 RMK SC5SC3 SLP218

CYQF;2018-09-17 19:00;CYQF 171900Z 23003KT 210V320 10SM OVC018 04/01 A3006 RMK SC8 SLP217

CYQF;2018-09-17 20:00;CYQF 172000Z VRB02KT 10SM OVC018 05/01 A3007 RMK SC8 SLP217

CYQF;2018-09-17 21:00;CYQF 172100Z 00000KT 12SM OVC019 06/02 A3006 RMK SC8 SLP215

CYQF;2018-09-17 22:00;CYQF 172200Z 00000KT 12SM OVC020 06/01 A3006 RMK SC8 SLP215

CYQF;2018-09-17 23:00;CYQF 172300Z 02003KT 340V090 12SM BKN020 06/02 A3007 RMK SC7 SLP216

CYQF;2018-09-18 00:00;CYQF 180000Z 03004KT 12SM OVC021 06/02 A3008 RMK SC8 SLP219

CYQF;2018-09-18 01:00;CYQF 180100Z 06004KT 12SM OVC021 06/02 A3009 RMK SC8 SLP226

CYQF;2018-09-18 02:00;CYQF 180200Z 36003KT 15SM OVC020 05/02 A3011 RMK SC8 SLP232

CYQF;2018-09-18 03:00;CYQF 180300Z 02006KT 15SM OVC024 05/02 A3012 RMK SC8 SLP238

CYQF;2018-09-18 04:00;CYQF 180400Z 01003KT 15SM OVC024 04/02 A3013 RMK SC8 SLP238

CYQF;2018-09-18 04:51;CYQF 180451Z 02004KT 10SM -SHRA SCT024 OVC060 04/02 A3014 RMK SC3SC5 CVCTV CLD EMBD SLP243

CYQF;2018-09-18 05:00;CYQF 180500Z 03006KT 8SM -SHRA SCT024 OVC060 04/02 A3013 RMK SC3SC5 CVCTV CLD EMBD SLP241

CYQF;2018-09-18 05:39;CYQF 180539Z 33003KT 320V020 15SM SCT020 OVC040 03/02 A3014 RMK SC3SC5 SLP245

CYQF;2018-09-18 06:00;CYQF 180600Z 36002KT 15SM BKN018 OVC040 03/02 A3014 RMK SC6SC2 SLP243

CYQF;2018-09-18 07:00;CYQF 180700Z VRB02KT 15SM OVC017 03/03 A3014 RMK SC8 SLP242

CYQF;2018-09-18 08:00;CYQF 180800Z 00000KT 15SM OVC050 03/03 A3014 RMK SC8 SLP240

CYQF;2018-09-18 09:00;CYQF 180900Z 16002KT 15SM OVC016 03/03 A3013 RMK SC8 SLP238

CYQF;2018-09-18 10:00;CYQF 181000Z 20002KT 15SM OVC018 03/03 A3013 RMK SC8 SLP236

CYQF;2018-09-18 11:00;CYQF 181100Z 00000KT 10SM OVC020 03/03 A3012 RMK SC8 SLP233

CYQF;2018-09-18 12:00;CYQF 181200Z 20002KT 8SM OVC017 03/03 A3013 RMK SC8 SLP235

CYQF;2018-09-18 13:00;CYQF 181300Z 18003KT 2SM -DZ BR OVC018 03/03 A3012 RMK ST8 SLP234

CYQF;2018-09-18 14:00;CYQF 181400Z 20003KT 2SM -DZ BR OVC025 03/03 A3013 RMK ST8 SLP236

CYQF;2018-09-18 14:29;CYQF 181429Z 20003KT 1 1/2SM -DZ BR SCT004 OVC025 04/03 A3013 RMK SF3ST5 VIS VRB 1-2 SLP237

CYQF;2018-09-18 15:00;CYQF 181500Z 33002KT 1 1/2SM -DZ BR BKN003 OVC010 04/03 A3014 RMK SF5ST3 VIS VRB 1-2 SLP241

CYQF;2018-09-18 16:00;CYQF 181600Z 30003KT 2SM -DZ BR BKN004 BKN008 OVC018 04/04 A3014 RMK SF5ST2SC1 VIS VRB 11/2-21/2 SLP241

CYQF;2018-09-18 16:31;CYQF 181631Z 00000KT 4SM -DZ BR BKN010 OVC018 04/03 A3014 RMK SF5SC3 VIS S 2 SLP241

CYQF;2018-09-18 16:51;CYQF 181651Z 00000KT 6SM BR SCT010 OVC020 04/03 A3015 RMK SF3SC5 SLP242

CYQF;2018-09-18 17:00;CYQF 181700Z VRB03KT 6SM BR SCT010 OVC015 05/03 A3015 RMK SF4SC4 SLP243

CYQF;2018-09-18 17:08;CYQF 181708Z VRB02KT 5SM -DZ BR SCT008 OVC012 05/03 A3015 RMK SF3ST5 SLP243

CYQF;2018-09-18 18:00;CYQF 181800Z 03004KT 5SM -DZ BR SCT008 OVC012 05/04 A3015 RMK SF3ST5 SLP244

CYQF;2018-09-18 19:00;CYQF 181900Z 03006KT 5SM -DZ BR SCT008 OVC015 05/03 A3015 RMK SF3ST5 SLP244

CYQF;2018-09-18 19:22;CYQF 181922Z 05004KT 5SM -RA BR FEW008 OVC020 05/03 A3015 RMK SF2SC6 SLP243

CYQF;2018-09-18 20:00;CYQF 182000Z 06003KT 360V080 6SM -RA BR FEW008 OVC021 06/03 A3015 RMK SF2SC6 SLP242

CYQF;2018-09-18 20:15;CYQF 182015Z 08003KT 020V120 8SM FEW008 OVC020 06/04 A3015 RMK SF2SC6 SLP242

CYQF;2018-09-18 21:00;CYQF 182100Z 00000KT 10SM BKN015 OVC035 07/03 A3014 RMK CU5SC3 SLP239

CYQF;2018-09-18 22:00;CYQF 182200Z VRB02KT 15SM BKN022 BKN040 OVC090 08/03 A3014 RMK CU5SC2AC1 SLP238

CYQF;2018-09-18 23:00;CYQF 182300Z VRB02KT 15SM SCT020 BKN050 BKN120 08/02 A3014 RMK CU4SC2AC1 SLP236

CYQF;2018-09-19 00:00;CYQF 190000Z VRB02KT 15SM SCT023 BKN120 08/02 A3014 RMK CU4AC2 SLP237

CYQF;2018-09-19 01:00;CYQF 190100Z 21004KT 15SM SCT023 BKN070 OVC120 07/03 A3015 RMK CU3AC3AC2 SLP241

CYQF;2018-09-19 02:00;CYQF 190200Z 22004KT 15SM BKN055 BKN080 06/03 A3016 RMK SC5AC2 SLP245

CYQF;2018-09-19 03:00;CYQF 190300Z 21003KT 15SM SCT055 BKN080 BKN120 05/04 A3017 RMK SC3AC2AC2 VIRGA SLP249

CYQF;2018-09-19 04:00;CYQF 190400Z 25004KT 15SM FEW050 SCT080 BKN120 05/04 A3018 RMK SC2AC2AC2 SLP252

CYQF;2018-09-19 05:00;CYQF 190500Z 23005KT 12SM BKN110 04/03 A3017 RMK AC6 SLP250

CYQF;2018-09-19 06:00;CYQF 190600Z 34003KT 15SM BKN110 02/02 A3018 RMK AC7 SLP254

CYQF;2018-09-19 07:00;CYQF 190700Z 19006KT 15SM BKN110 01/01 A3017 RMK AC5 SLP255

CYQF;2018-09-19 08:00;CYQF 190800Z VRB02KT 6SM BR BKN120 01/01 A3017 RMK AC6 SLP254

CYQF;2018-09-19 09:06;CYQF 190906Z 16002KT 1 1/2SM BR SCT002 BKN120 01/00 A3016 RMK FG2ST2AC3 SLP250

CYQF;2018-09-19 09:18;CYQF 190918Z 20002KT 1/2SM FG VV002 01/01 A3017 RMK FG8 SLP250

CYQF;2018-09-19 10:00;CYQF 191000Z 24003KT 1/4SM FZFG VV001 M00/M00 A3017 RMK FG8 SLP251

CYQF;2018-09-19 10:46;CYQF 191046Z 29003KT 230V290 1/2SM FZFG BKN003 M01/M01 A3016 RMK FG4ST2 SLP250

CYQF;2018-09-19 10:53;CYQF 191053Z 30003KT 3/4SM BR SCT002 M01/M01 A3016 RMK FG2ST1 SLP249

CYQF;2018-09-19 11:00;CYQF 191100Z 29002KT 3/4SM BR SKC M02/M02 A3016 RMK FG2 SLP249

CYQF;2018-09-19 11:12;CYQF 191112Z 25002KT 2SM BR SKC M01/M02 A3016 RMK FG2 VIS SE-SW 3/4 SLP249

CYQF;2018-09-19 11:16;CYQF 191116Z 23002KT 1/2SM FZFG SCT002 M02/M02 A3016 RMK FG2ST2 VIS NW-NE 3 SLP249

CYQF;2018-09-19 11:32;CYQF 191132Z 00000KT 1/2SM FZFG BKN002 M02/M03 A3016 RMK FG4ST2 VIS VRB 1/3-3/4 SLP250

CYQF;2018-09-19 12:00;CYQF 191200Z 18003KT 1/2SM FZFG BKN001 M03/M03 A3016 RMK FG4ST2 VIS VRB 1/4-3/4 SLP250

CYQF;2018-09-19 13:00;CYQF 191300Z 19002KT 3/4SM BR OVC100 M03/M04 A3015 RMK FG5AC3 VIS VRB 1/2-1 SLP251

CYQF;2018-09-19 13:32;CYQF 191332Z 21003KT 1/8SM FZFG VV001 M03/M03 A3015 RMK FG8 SLP250

CYQF;2018-09-19 14:00;CYQF 191400Z 25002KT 1/8SM FZFG VV001 M03/M03 A3016 RMK FG8 SLP252

CYQF;2018-09-19 15:00;CYQF 191500Z 18002KT 1/8SM FZFG VV002 M01/M01 A3016 RMK FG8 SLP253

CYQF;2018-09-19 15:49;CYQF 191549Z 00000KT 1/2SM FG SKC 02/02 A3016 RMK FG4 SLP248

CYQF;2018-09-19 16:04;CYQF 191604Z 00000KT 5SM BR FEW005 04/04 A3016 RMK CF2 VIS W-N 2 SLP247

CYQF;2018-09-19 17:00;CYQF 191700Z 18009KT 12SM BKN020 07/04 A3016 RMK CU6 SLP244

CYQF;2018-09-19 18:00;CYQF 191800Z 22007KT 160V230 12SM BKN022 08/03 A3015 RMK CU7 SLP240

CYQF;2018-09-19 19:00;CYQF 191900Z 16007KT 130V200 15SM BKN025 08/03 A3013 RMK CU7 SLP235

CYQF;2018-09-19 20:00;CYQF 192000Z 15009G16KT 12SM BKN032 09/03 A3011 RMK SC7 HZ SLP230

CYQF;2018-09-19 20:59;CYQF 192059Z 14007KT 15SM BKN036 10/03 A3010 RMK SC7 SLP222

CYQF;2018-09-19 21:00;CYQF 192100Z 14007KT 15SM BKN036 10/03 A3010 RMK SC7 SLP223

CYQF;2018-09-19 22:00;CYQF 192200Z 12006KT 15SM BKN040 10/03 A3008 RMK CU7 SLP216 DENSITY ALT 3000FT

CYQF;2018-09-19 23:00;CYQF 192300Z 14009KT 12SM BKN034 10/02 A3006 RMK SC6 SLP212 DENSITY ALT 3000FT

CYQF;2018-09-20 00:00;CYQF 200000Z 12009KT 15SM BKN050 BKN100 BKN250 10/02 A3005 RMK CU5AC1CI1 SLP212

CYQF;2018-09-20 01:00;CYQF 200100Z 15007KT 15SM SCT045 BKN250 09/02 A3005 RMK SC3CI3 SLP213

CYQF;2018-09-20 02:00;CYQF 200200Z 13005KT 15SM FEW050 BKN250 05/01 A3005 RMK SC2CI3 SLP217

CYQF;2018-09-20 03:00;CYQF 200300Z 15006KT 15SM SCT250 03/01 A3005 RMK CI4 SLP217

CYQF;2018-09-20 04:00;CYQF 200400Z 15004KT 15SM SCT250 03/01 A3004 RMK CI4 SLP210

CYQF;2018-09-20 05:00;CYQF 200500Z 16004KT 15SM BKN200 04/02 A3003 RMK CI5 SLP202

CYQF;2018-09-20 06:00;CYQF 200600Z 17002KT 15SM BKN170 03/02 A3002 RMK AC6 SLP197

CYQF;2018-09-20 07:00;CYQF 200700Z 00000KT 15SM FEW015 BKN160 02/02 A3001 RMK SC1AC6 SLP194

CYQF;2018-09-20 08:00;CYQF 200800Z 16002KT 15SM FEW015 BKN160 03/02 A3000 RMK SC1AC4 SLP190

CYQF;2018-09-20 09:00;CYQF 200900Z 00000KT 15SM BKN140 01/01 A3000 RMK AC5 SLP189

CYQF;2018-09-20 10:00;CYQF 201000Z 03003KT 15SM BKN170 M00/M01 A2999 RMK AC5 SLP187

CYQF;2018-09-20 11:00;CYQF 201100Z VRB02KT 12SM MIFG FEW035 BKN180 01/01 A2999 RMK SC2AC3 SLP184

CYQF;2018-09-20 12:00;CYQF 201200Z CCA 01003KT 6SM BR BKN160 01/00 A2999 RMK AC5 SLP187

CYQF;2018-09-20 13:00;CYQF 201300Z 36004KT 8SM MIFG SCT170 BKN250 01/01 A3000 RMK AC3CI2 MIFG OVR RUNWAY SLP191

CYQF;2018-09-20 14:00;CYQF 201400Z 36002KT 3SM BR BKN100 OVC250 M00/M00 A3002 RMK FG2AC4CI2 VIS N+S 1 SLP202

CYQF;2018-09-20 15:00;CYQF 201500Z 28004KT 3SM BR FEW010 BKN090 OVC250 04/04 A3003 RMK FG1SF1AC5CI1 SLP205

CYQF;2018-09-20 15:54;CYQF 201554Z 35005KT 310V010 3SM BR SCT006 BKN035 OVC090 05/04 A3006 RMK SF4SC3AC1 SLP211

CYQF;2018-09-20 16:00;CYQF 201600Z 36004KT 320V030 3SM BR SCT006 BKN036 OVC250 05/04 A3006 RMK SF4SC3CI1 SLP212

CYQF;2018-09-20 17:00;CYQF 201700Z 34006KT 8SM FEW008 BKN030 OVC250 08/05 A3007 RMK SF2SC5CI1 HZ SLP212

CYQF;2018-09-20 17:17;CYQF 201717Z 35006KT 8SM -SHRA FEW008 BKN030 OVC250 06/05 A3007 RMK SF2SC4CI2 CVCTV CLD EMBD SLP215

CYQF;2018-09-20 18:00;CYQF 201800Z 35004KT 8SM -SHRA FEW010 BKN025 OVC250 07/05 A3008 RMK SF1CU5CI2 SLP216

CYQF;2018-09-20 19:00;CYQF 201900Z 01007KT 8SM -SHRA FEW010 OVC022 07/06 A3009 RMK SF2CU6 SLP220

CYQF;2018-09-20 20:00;CYQF 202000Z 05010KT 5SM -SHRA BR SCT011 OVC043 08/06 A3010 RMK SF3SC5 SLP222

CYQF;2018-09-20 21:00;CYQF 202100Z 03010G15KT 5SM -SHRA BR BKN012 OVC030 07/06 A3010 RMK SC5SC3 CVCTV CLD EMBD SLP228

CYQF;2018-09-20 21:42;CYQF 202142Z 02006KT 6SM -SHRA BR FEW012 OVC030 07/06 A3010 RMK SF2SC6 CVCTV CLD EMBD SLP227

CYQF;2018-09-20 22:00;CYQF 202200Z 03006KT 6SM -SHRA BR FEW012 BKN030 OVC045 07/06 A3010 RMK SF2SC4SC2 CVCTV CLD EMBD SLP230

CYQF;2018-09-20 23:00;CYQF 202300Z 02007KT 10SM -SHRA FEW012 OVC030 07/05 A3012 RMK SF1SC8 SF TR CVCTV CLD EMBD SLP234

CYQF;2018-09-21 00:00;CYQF 210000Z 02005KT 7SM -SHRA BKN016 OVC030 06/05 A3014 RMK SC5SC3 CVCTV CLD EMBD SLP241

CYQF;2018-09-21 01:00;CYQF 210100Z 36003KT 8SM -SHRA FEW016 OVC035 06/05 A3014 RMK SC1SC7 CVCTV CLD EMBD SLP243

CYQF;2018-09-21 02:00;CYQF 210200Z 03007KT 6SM BR FEW016 OVC036 06/05 A3015 RMK SC2SC6 OCNL -SHRA SLP248

CYQF;2018-09-21 02:43;CYQF 210243Z 01006KT 8SM OVC016 05/04 A3016 RMK SC8 BR CIG RAG SLP251

CYQF;2018-09-21 03:00;CYQF 210300Z 04008KT 8SM BKN017 OVC035 05/03 A3017 RMK SC5SC3 BR SLP248

CYQF;2018-09-21 03:32;CYQF 210332Z 36008KT 10SM -SHRA OVC017 04/02 A3018 RMK SC8 CVCTV CLD EMBD SLP253

CYQF;2018-09-21 04:00;CYQF 210400Z 01010KT 12SM -RA OVC018 03/02 A3017 RMK SC8 SLP251

CYQF;2018-09-21 05:00;CYQF 210500Z 02009KT 12SM -RA OVC018 02/01 A3017 RMK SC8 SLP247

CYQF;2018-09-21 06:00;CYQF 210600Z 03008KT 12SM -RA OVC016 03/02 A3016 RMK SC8 SLP245

CYQF;2018-09-21 07:00;CYQF 210700Z 06006KT 12SM -RA OVC015 03/03 A3014 RMK SC8 SLP238

CYQF;2018-09-21 07:10;CYQF 210710Z 07005KT 12SM -RA OVC011 03/02 A3014 RMK SC8 SLP237

CYQF;2018-09-21 07:33;CYQF 210733Z 08007KT 12SM -RA SCT008 OVC012 03/02 A3013 RMK ST3SC5 SLP236

CYQF;2018-09-21 08:00;CYQF 210800Z 07007KT 8SM -RA BKN007 OVC012 03/02 A3012 RMK ST5SC3 SLP232

CYQF;2018-09-21 08:20;CYQF 210820Z 06006KT 5SM -SHRA OVC006 03/02 A3012 RMK ST8 CVCTV CLD EMBD SLP232

CYQF;2018-09-21 09:00;CYQF 210900Z 05006KT 3SM -SHRA BR OVC005 03/02 A3011 RMK ST8 CVCTV CLD EMBD SLP229

CYQF;2018-09-21 09:34;CYQF 210934Z 05005KT 2SM -RA BR OVC003 03/02 A3010 RMK FG2ST6 SLP226

CYQF;2018-09-21 10:00;CYQF 211000Z 05005KT 2SM -RA BR OVC003 03/02 A3009 RMK FG2ST6 SLP221

CYQF;2018-09-21 10:19;CYQF 211019Z 05004KT 1SM -RA BR OVC003 03/02 A3009 RMK FG4ST4 SLP220

CYQF;2018-09-21 10:43;CYQF 211043Z 04005KT 1 1/2SM -RA BR OVC004 03/02 A3008 RMK FG2ST6 SLP216

CYQF;2018-09-21 11:00;CYQF 211100Z 03004KT 2SM -RA BR OVC003 03/02 A3008 RMK FG2ST6 SLP217

CYQF;2018-09-21 11:22;CYQF 211122Z 08003KT 360V130 3SM -RA BR OVC005 03/03 A3007 RMK ST8 SLP216

CYQF;2018-09-21 12:00;CYQF 211200Z 15006KT 8SM -RA OVC007 03/03 A3007 RMK ST8 SLP215

CYQF;2018-09-21 12:11;CYQF 211211Z 13005KT 10SM -RASN OVC008 03/03 A3007 RMK SC8 SLP215

CYQF;2018-09-21 12:34;CYQF 211234Z 13005KT 6SM BR FEW003 OVC008 03/03 A3006 RMK SF2SC6 SLP212

CYQF;2018-09-21 13:00;CYQF 211300Z VRB02KT 2SM BR OVC005 03/03 A3006 RMK ST8 SLP212

CYQF;2018-09-21 13:06;CYQF 211306Z VRB02KT 1SM BR OVC004 03/03 A3006 RMK ST8 SLP212

CYQF;2018-09-21 13:28;CYQF 211328Z 08004KT 1SM -DZ BR OVC005 03/03 A3006 RMK FG3ST5 VIS VRB 3/4-11/4 SLP212

CYQF;2018-09-21 14:00;CYQF 211400Z 08005KT 1SM -DZ BR OVC005 03/03 A3006 RMK FG3ST5 VIS VRB 3/4-11/4 SLP212

CYQF;2018-09-21 15:00;CYQF 211500Z 06006KT 1SM -DZ BR OVC004 03/03 A3007 RMK ST8 VIS VRB 3/4-11/4 SLP215

CYQF;2018-09-21 16:00;CYQF 211600Z 05008KT 1SM -DZ BR OVC004 02/02 A3007 RMK FG4ST5 VIS VRB 3/4-11/4 SLP219

CYQF;2018-09-21 16:14;CYQF 211614Z 04008KT 1 1/2SM -DZ BR OVC005 02/02 A3007 RMK ST8 SLP219

CYQF;2018-09-21 17:00;CYQF 211700Z 03010KT 1 1/2SM -DZ BR OVC004 02/01 A3007 RMK ST8 CIG VRB 3-5 SLP222

CYQF;2018-09-21 18:00;CYQF 211800Z 05009KT 1 1/2SM -DZ BR OVC004 02/01 A3007 RMK FG2ST6 CIG VRB 3-5 SLP222

CYQF;2018-09-21 18:23;CYQF 211823Z 04009KT 4SM BR OVC006 01/01 A3007 RMK ST8 SLP222

CYQF;2018-09-21 19:00;CYQF 211900Z 04009KT 5SM BR OVC006 02/01 A3007 RMK ST8 SLP221

CYQF;2018-09-21 20:00;CYQF 212000Z 03008KT 8SM OVC006 02/01 A3008 RMK ST8 SLP225

CYQF;2018-09-21 21:00;CYQF 212100Z 03010KT 6SM -SN OVC005 02/01 A3008 RMK ST8 SLP224

CYQF;2018-09-21 22:00;CYQF 212200Z 05009KT 8SM -SN OVC005 01/01 A3010 RMK ST8 SLP230

CYQF;2018-09-21 22:25;CYQF 212225Z 05009KT 3SM -SN OVC005 01/00 A3010 RMK ST8 SLP231

CYQF;2018-09-21 22:51;CYQF 212251Z 06007KT 2SM -SN OVC005 01/00 A3010 RMK SC8 SLP232

CYQF;2018-09-21 23:00;CYQF 212300Z 05008KT 1 1/2SM -SN OVC005 01/00 A3010 RMK SC8 SLP232

CYQF;2018-09-22 00:00;CYQF 220000Z 05010KT 2SM -SN BKN005 OVC018 00/M00 A3010 RMK SF6SC2 SLP233

CYQF;2018-09-22 00:29;CYQF 220029Z 05009KT 3SM -SN BKN005 OVC018 00/M00 A3010 RMK SF6SC2 SLP234

CYQF;2018-09-22 01:00;CYQF 220100Z 06009KT 1 1/2SM -SN BKN006 OVC018 M00/M01 A3010 RMK SF7SC1 SLP234

CYQF;2018-09-22 02:00;CYQF 220200Z 09007KT 1 1/2SM -SN BKN006 OVC019 M01/M01 A3011 RMK SF5SC3 SLP237

CYQF;2018-09-22 03:00;CYQF 220300Z 08007KT 1 1/2SM -SN OVC004 M01/M01 A3011 RMK SN4SF4 SLP239

CYQF;2018-09-22 04:00;CYQF 220400Z 06006KT 1 1/2SM -SN SCT004 VV017 M01/M01 A3011 RMK SF3SN5 SLP238

CYQF;2018-09-22 05:00;CYQF 220500Z 08008KT 1 1/2SM -SN SCT003 VV018 M01/M01 A3009 RMK SF3SN5 /S02/ SLP232

CYQF;2018-09-22 06:00;CYQF 220600Z 07006KT 1 1/2SM -SN VV015 M01/M01 A3007 RMK SN8 /S04/ SLP226

CYQF;2018-09-22 06:46;CYQF 220646Z 07006KT 1SM -SN VV012 M01/M02 A3005 RMK SN8 SLP219

CYQF;2018-09-22 07:00;CYQF 220700Z 07006KT 3/4SM -SN VV008 M01/M02 A3005 RMK SN8 SLP218

CYQF;2018-09-22 07:50;CYQF 220750Z 07006KT 3/4SM -SN FEW005 VV012 M01/M02 A3004 RMK SF2SN6 SLP215

CYQF;2018-09-22 08:00;CYQF 220800Z 08005KT 3/4SM -SN FEW005 VV014 M01/M02 A3004 RMK SF2SN6 /S03/ SLP214

CYQF;2018-09-22 09:00;CYQF 220900Z 07007KT 3/4SM -SN VV011 M02/M02 A3003 RMK SN8 /S04/ SLP213

CYQF;2018-09-22 10:00;CYQF 221000Z 06006KT 3/4SM -SN VV013 M02/M02 A3003 RMK SN8 /S05/ SLP211

CYQF;2018-09-22 10:43;CYQF 221043Z 05006KT 1 1/2SM -SN SCT005 OVC030 M02/M02 A3002 RMK SF3SC5 SLP211

CYQF;2018-09-22 10:51;CYQF 221051Z 05007KT 3SM -SN FEW005 OVC025 M02/M02 A3002 RMK SF2SC6 SLP209

CYQF;2018-09-22 11:00;CYQF 221100Z 06007KT 2 1/2SM -SN FEW005 OVC025 M02/M02 A3002 RMK SF2SC6 SLP209

CYQF;2018-09-22 11:13;CYQF 221113Z 07008KT 1 1/2SM -SN SCT006 OVC025 M02/M02 A3002 RMK SN2SF1SC5 SLP210

CYQF;2018-09-22 12:00;CYQF 221200Z 07009KT 1 1/2SM -SN SCT005 OVC030 M02/M02 A3002 RMK SN2SF2SC4 /S06/ SLP209

CYQF;2018-09-22 13:00;CYQF 221300Z 07005KT 1 1/2SM -SN SCT004 VV020 M02/M02 A3002 RMK SF3SN5 SLP210

CYQF;2018-09-22 14:00;CYQF 221400Z 08004KT 1 1/2SM -SN BR OVC007 M02/M02 A3002 RMK SC8 SLP212

CYQF;2018-09-22 14:22;CYQF 221422Z 08006KT 1 1/2SM -FZDZ -SG OVC007 M02/M02 A3002 RMK ST8 SLP211

CYQF;2018-09-22 15:00;CYQF 221500Z 09005KT 1 1/2SM -FZDZ -SG OVC009 M02/M02 A3003 RMK ST8 SLP214

CYQF;2018-09-22 15:16;CYQF 221516Z 10005KT 1 1/2SM -SG OVC009 M01/M02 A3002 RMK ST8 SLP213

CYQF;2018-09-22 16:00;CYQF 221600Z 11006KT 2SM -SG OVC007 M01/M02 A3003 RMK ST8 CIG VRB 5-9 SLP215

CYQF;2018-09-22 16:18;CYQF 221618Z 10005KT 2SM -SHSGGS OVC006 M01/M02 A3003 RMK ST8 CIG VRB 5-9 SLP213

CYQF;2018-09-22 16:37;CYQF 221637Z 12009KT 2SM -SN SCT007 OVC017 M01/M02 A3002 RMK ST3SC5 SLP212

CYQF;2018-09-22 17:00;CYQF 221700Z 11011KT 1 1/2SM -SN OVC020 M01/M02 A3003 RMK SC8 VIS VRB 1-2 SLP213

CYQF;2018-09-22 18:00;CYQF 221800Z 13007KT 1 1/2SM -SN BKN015 M00/M01 A3003 RMK SN2SC5 VIS VRB 1-2 SLP215

CYQF;2018-09-22 18:23;CYQF 221823Z 13008KT 1SM -SN OVC008 M00/M02 A3003 RMK SN4SC4 VIS VRB 1/2-11/2 SLP215

CYQF;2018-09-22 19:00;CYQF 221900Z 12009KT 3SM -SN SCT010 OVC035 M00/M02 A3003 RMK SC3SC5 SLP213

CYQF;2018-09-22 19:18;CYQF 221918Z 12011KT 2 1/2SM -SN SCT010 OVC035 M00/M02 A3002 RMK SC4SC4 VIS VRB 2-3 SLP211

CYQF;2018-09-22 20:00;CYQF 222000Z 12009KT 2 1/2SM -SN BKN010 OVC035 00/M02 A3003 RMK SC5SC3 VIS VRB 2-3 SLP213

CYQF;2018-09-22 20:07;CYQF 222007Z 10009KT 2 1/2SM -SN BKN009 OVC035 M00/M02 A3003 RMK SC7SC1 VIS VRB 2-3 SLP214

CYQF;2018-09-22 20:27;CYQF 222027Z 12012KT 7SM -SN FEW009 OVC022 M00/M02 A3004 RMK SF1SC7 SLP216

CYQF;2018-09-22 21:00;CYQF 222100Z 11008KT 4SM -SN BKN009 OVC022 M00/M02 A3003 RMK SC6SC2 SLP215

CYQF;2018-09-22 22:00;CYQF 222200Z 12007KT 2SM -SN BKN009 OVC020 M00/M01 A3003 RMK SC7SC1 SLP213

CYQF;2018-09-22 23:00;CYQF 222300Z 10007KT 4SM -SN BKN010 OVC036 00/M01 A3002 RMK SC6SC2 SLP212

CYQF;2018-09-23 00:00;CYQF 230000Z 12007KT 6SM -SN BKN010 OVC020 M00/M02 A3004 RMK SC5SC3 VIS S 8 SLP217

CYQF;2018-09-23 01:00;CYQF 230100Z 10006KT 6SM -SN BKN010 OVC020 M00/M01 A3004 RMK SC6SC2 CIG RAG SLP219

CYQF;2018-09-23 01:49;CYQF 230149Z 09005KT 10SM BKN009 OVC018 M00/M01 A3004 RMK SC6SC2 SLP217

CYQF;2018-09-23 02:00;CYQF 230200Z 13007KT 10SM BKN009 OVC018 M00/M01 A3004 RMK SC5SC3 SLP217

CYQF;2018-09-23 02:30;CYQF 230230Z 12006KT 6SM -SN BKN008 OVC018 M00/M01 A3004 RMK SC6SC2 CIG RAG SLP217

CYQF;2018-09-23 03:00;CYQF 230300Z 12007KT 6SM -SN BKN008 OVC018 M01/M01 A3004 RMK SC7SC1 CIG RAG SLP217

CYQF;2018-09-23 04:00;CYQF 230400Z 14007KT 3SM -SN OVC007 M01/M01 A3002 RMK SC8 CIG RAG SLP212

CYQF;2018-09-23 04:33;CYQF 230433Z 14009KT 4SM BR BKN007 OVC028 M01/M01 A3001 RMK SC6SC2 SLP209

CYQF;2018-09-23 05:00;CYQF 230500Z 13008KT 3SM BR OVC005 M01/M01 A3001 RMK ST8 SLP208

CYQF;2018-09-23 05:23;CYQF 230523Z 15006KT 2SM BR OVC004 M01/M01 A3001 RMK ST8 SLP207

CYQF;2018-09-23 05:41;CYQF 230541Z 14008KT 2SM BR OVC003 M01/M01 A3000 RMK FG2ST6 SLP205

CYQF;2018-09-23 06:00;CYQF 230600Z 15007KT 2SM BR OVC003 M01/M01 A3000 RMK FG2ST6 SLP203

CYQF;2018-09-23 07:00;CYQF 230700Z 14005KT 2SM BR OVC003 M01/M01 A2999 RMK FG4ST4 SLP200

CYQF;2018-09-23 07:46;CYQF 230746Z 13005KT 3SM BR FEW003 OVC007 M01/M01 A2998 RMK SF2ST6 SLP194

CYQF;2018-09-23 08:00;CYQF 230800Z 13005KT 3SM BR OVC006 M01/M01 A2997 RMK ST8 SLP193

CYQF;2018-09-23 09:00;CYQF 230900Z 14006KT 3SM BR OVC005 M01/M01 A2997 RMK ST8 SLP191

CYQF;2018-09-23 10:00;CYQF 231000Z 13004KT 4SM BR BKN005 OVC020 M01/M01 A2995 RMK ST6SC2 SLP186

CYQF;2018-09-23 11:00;CYQF 231100Z 13004KT 4SM BR OVC005 M01/M01 A2995 RMK ST8 SLP185

CYQF;2018-09-23 12:00;CYQF 231200Z 12004KT 4SM BR BKN005 OVC020 M01/M01 A2994 RMK ST6SC2 SLP183

CYQF;2018-09-23 12:25;CYQF 231225Z 14004KT 4SM -FZDZ BR BKN005 OVC020 M01/M01 A2994 RMK ST6SC2 SLP181

CYQF;2018-09-23 12:41;CYQF 231241Z 13005KT 5SM -FZDZ -SG BR BKN005 OVC020 M00/M01 A2994 RMK ST6SC2 SLP180

CYQF;2018-09-23 13:00;CYQF 231300Z 14006KT 6SM -FZDZ -SG BR SCT004 OVC016 M00/M01 A2993 RMK ST4SC4 SLP179

CYQF;2018-09-23 13:30;CYQF 231330Z 15003KT 5SM BR BKN004 OVC016 M00/M01 A2994 RMK ST7SC1 SLP182

CYQF;2018-09-23 14:00;CYQF 231400Z 14003KT 8SM OVC005 M00/M01 A2994 RMK ST8 SLP182

CYQF;2018-09-23 15:00;CYQF 231500Z 14003KT 10SM BKN004 OVC017 M00/M01 A2994 RMK SF5SC3 SLP180

CYQF;2018-09-23 16:02;CYQF 231602Z VRB02KT 2SM -SN BR OVC005 00/M00 A2995 RMK ST8 SLP183

CYQF;2018-09-23 16:13;CYQF 231613Z 22002KT 1 1/4SM -SN BR OVC004 00/00 A2995 RMK FG2ST6 SLP183

CYQF;2018-09-23 16:19;CYQF 231619Z 21002KT 1SM -DZ BR OVC004 00/00 A2995 RMK FG3ST5 SLP183

CYQF;2018-09-23 16:54;CYQF 231654Z 24003KT 2 1/2SM BR OVC004 01/00 A2995 RMK FG1ST7 SLP183

CYQF;2018-09-23 17:00;CYQF 231700Z 22003KT 2SM BR OVC004 01/00 A2994 RMK FG1ST7 SLP182

CYQF;2018-09-23 17:23;CYQF 231723Z 19002KT 4SM BR OVC004 01/00 A2994 RMK ST8 VIS VRB 2-6 SLP180

CYQF;2018-09-23 18:00;CYQF 231800Z 17002KT 8SM BKN004 OVC010 01/00 A2993 RMK ST6SC2 SLP176

CYQF;2018-09-23 18:49;CYQF 231849Z 00000KT 12SM OVC009 02/00 A2992 RMK ST8 SLP173

CYQF;2018-09-23 19:00;CYQF 231900Z 21004KT 150V230 12SM OVC009 02/00 A2992 RMK ST8 SLP173

CYQF;2018-09-23 19:42;CYQF 231942Z 25002KT 12SM OVC010 02/00 A2992 RMK ST8 SLP173

CYQF;2018-09-23 20:00;CYQF 232000Z 27004KT 240V330 12SM OVC010 02/00 A2992 RMK ST8 SLP171

CYQF;2018-09-23 21:00;CYQF 232100Z 28004KT 210V310 10SM OVC010 02/00 A2992 RMK ST8 SLP172

CYQF;2018-09-23 22:00;CYQF 232200Z 17004KT 140V260 10SM BKN010 03/01 A2991 RMK ST7 SLP168

CYQF;2018-09-23 23:00;CYQF 232300Z 22005KT 160V240 12SM BKN010 BKN080 BKN220 04/01 A2991 RMK SC5AC1CC1 SLP166

CYQF;2018-09-23 23:06;CYQF 232306Z 20005KT 12SM SCT009 BKN080 BKN220 04/01 A2991 RMK SC4AC2CC1 SLP166

CYQF;2018-09-24 00:00;CYQF 240000Z 21005KT 12SM FEW010 BKN080 BKN220 04/02 A2991 RMK SC2AC3CI2 SLP165

CYQF;2018-09-24 01:00;CYQF 240100Z 22003KT 12SM FEW030 BKN090 BKN210 03/02 A2991 RMK SC2AC3CI2 SLP165

CYQF;2018-09-24 02:00;CYQF 240200Z 20004KT 15SM FEW040 BKN090 BKN150 02/01 A2991 RMK SC2AC4AC1 SLP169

CYQF;2018-09-24 03:00;CYQF 240300Z 18004KT 15SM SCT070 BKN130 02/01 A2991 RMK AC4AC3 SLP169

CYQF;2018-09-24 04:00;CYQF 240400Z 16003KT 15SM SCT070 OVC100 02/02 A2991 RMK AC3AC5 SLP167

CYQF;2018-09-24 05:00;CYQF 240500Z 19003KT 15SM OVC080 02/02 A2991 RMK AC8 SLP168

CYQF;2018-09-24 06:00;CYQF 240600Z 22006KT 15SM OVC075 04/03 A2991 RMK AC8 SLP165

CYQF;2018-09-24 07:00;CYQF 240700Z 25007KT 15SM OVC070 04/03 A2991 RMK AC8 SLP163

CYQF;2018-09-24 08:00;CYQF 240800Z 26005KT 15SM OVC072 04/03 A2992 RMK AC8 SLP166

CYQF;2018-09-24 09:00;CYQF 240900Z 28006KT 15SM BKN070 OVC130 04/03 A2993 RMK AC6AC2 SLP169

CYQF;2018-09-24 10:00;CYQF 241000Z 29010KT 15SM SCT050 OVC090 05/03 A2993 RMK SC4AC4 SLP168

CYQF;2018-09-24 10:45;CYQF 241045Z 29009KT 12SM -RA OVC070 05/03 A2993 RMK AC8 SLP169

CYQF;2018-09-24 11:00;CYQF 241100Z 29010KT 15SM OVC070 05/03 A2993 RMK AC8 SLP168

CYQF;2018-09-24 12:00;CYQF 241200Z 29008KT 15SM OVC060 05/03 A2994 RMK SC8 SLP170

CYQF;2018-09-24 13:00;CYQF 241300Z 26004KT 15SM FEW100 SCT120 BKN250 04/02 A2994 RMK AC2AC2CI3 SLP173

CYQF;2018-09-24 14:00;CYQF 241400Z 25004KT 15SM SCT060 BKN090 04/03 A2995 RMK SC3AC4 SLP177

CYQF;2018-09-24 14:49;CYQF 241449Z 30009G15KT 15SM -SHRA SCT048 OVC070 06/03 A2997 RMK SC4AC4 CVCTV CLD EMBD SLP182

CYQF;2018-09-24 15:00;CYQF 241500Z 30012KT 15SM -SHRA BKN063 OVC100 06/03 A2997 RMK SC6AC2 CVCTV CLD EMBD SLP182

CYQF;2018-09-24 16:00;CYQF 241600Z 25006KT 12SM -SHRA SCT060 BKN090 06/04 A2997 RMK SC4ACC3 SLP182

CYQF;2018-09-24 16:14;CYQF 241614Z 26005KT 15SM VCSH BKN053 BKN100 07/04 A2997 RMK SC5ACC2 SLP182

CYQF;2018-09-24 17:00;CYQF 241700Z 28007KT 15SM FEW012 BKN033 OVC100 08/05 A2998 RMK SF1SC6AC1 SLP184

CYQF;2018-09-24 18:00;CYQF 241800Z 31012KT 15SM FEW020 BKN040 BKN100 10/05 A2998 RMK CU2SC4AC1 SLP178 DENSITY ALT 3100FT

CYQF;2018-09-24 18:07;CYQF 241807Z 31017G24KT 15SM -SHRA SCT020 BKN040 BKN100 10/04 A2998 RMK CU3SC3ACC1 SLP179 DENSITY ALT 3000FT

CYQF;2018-09-24 18:48;CYQF 241848Z 33013G27KT 15SM BKN025 BKN040 10/04 A2999 RMK SC6SC1 SLP181 DENSITY ALT 3000FT

CYQF;2018-09-24 19:00;CYQF 241900Z 32018G23KT 280V340 15SM BKN024 BKN100 10/03 A2999 RMK CU5AC1 SLP182 DENSITY ALT 3000FT

CYQF;2018-09-24 20:00;CYQF 242000Z 30017G27KT 15SM BKN030 BKN100 12/05 A3000 RMK SC5AC2 CU SLP182 DENSITY ALT 3300FT

CYQF;2018-09-24 21:00;CYQF 242100Z 32019G27KT 15SM SCT030 BKN100 12/04 A3000 RMK CU4AC1 SLP181 DENSITY ALT 3200FT

CYQF;2018-09-24 22:00;CYQF 242200Z 31018G25KT 15SM VCSH BKN040TCU 13/03 A2999 RMK TCU6 SLP177 DENSITY ALT 3400FT

CYQF;2018-09-24 23:00;CYQF 242300Z 31014G24KT 12SM VCSH BKN040TCU 10/02 A3002 RMK TCU6 SLP190 DENSITY ALT 3000FT

CYQF;2018-09-25 00:00;CYQF 250000Z 33013G22KT 15SM SCT040TCU BKN120 11/02 A3003 RMK TCU3AC2 SLP195 DENSITY ALT 3100FT

CYQF;2018-09-25 01:00;CYQF 250100Z 33010G16KT 15SM SCT030TCU 08/02 A3006 RMK TCU3 SLP209

CYQF;2018-09-25 02:00;CYQF 250200Z 31006KT 15SM FEW120 06/01 A3009 RMK AC2 SLP219

CYQF;2018-09-25 03:00;CYQF 250300Z 29005KT 15SM FEW100 05/01 A3010 RMK AC2 SLP225

CYQF;2018-09-25 04:00;CYQF 250400Z 29005KT 15SM SCT090 05/01 A3012 RMK AC4 SLP231

CYQF;2018-09-25 05:00;CYQF 250500Z 26006KT 15SM BKN095 05/02 A3013 RMK AC5 SLP233

CYQF;2018-09-25 06:00;CYQF 250600Z 27006KT 15SM SCT095 04/02 A3013 RMK AC3 SLP230

CYQF;2018-09-25 07:00;CYQF 250700Z 27005KT 15SM FEW100 04/02 A3013 RMK AC2 SLP233

CYQF;2018-09-25 08:00;CYQF 250800Z VRB02KT 15SM BKN120 03/01 A3014 RMK AC5 SLP234

CYQF;2018-09-25 09:00;CYQF 250900Z 22003KT 190V250 15SM BKN090 02/01 A3014 RMK AC6 SLP235

CYQF;2018-09-25 10:00;CYQF 251000Z 23005KT 15SM OVC090 02/01 A3014 RMK AC8 SLP234

CYQF;2018-09-25 11:00;CYQF 251100Z 18003KT 15SM OVC100 02/01 A3015 RMK AC8 SLP240

CYQF;2018-09-25 12:00;CYQF 251200Z 19004KT 15SM FEW100 01/00 A3015 RMK AC2 SLP239

CYQF;2018-09-25 13:00;CYQF 251300Z 21005KT 15SM FEW100 M01/M01 A3015 RMK AC2 SLP244

CYQF;2018-09-25 14:00;CYQF 251400Z 21007KT 15SM FEW100 00/00 A3015 RMK ACC1 SLP246

CYQF;2018-09-25 15:00;CYQF 251500Z 22005KT 15SM FEW100 SCT250 05/03 A3014 RMK AC1CI2 SLP240

CYQF;2018-09-25 16:00;CYQF 251600Z 23005KT 15SM FEW075 SCT250 08/03 A3014 RMK AC2CI1 SLP236

CYQF;2018-09-25 17:00;CYQF 251700Z 25005KT 15SM FEW075 SCT250 11/04 A3015 RMK AC2CI1 SLP235

CYQF;2018-09-25 18:00;CYQF 251800Z 27009KT 15SM FEW040 BKN080 13/03 A3013 RMK CU1AC5 CU TR SLP227 DENSITY ALT 3200FT

CYQF;2018-09-25 19:00;CYQF 251900Z 25008KT 220V330 15SM SCT052 SCT250 15/01 A3011 RMK CU3CI1 SLP220 DENSITY ALT 3500FT

CYQF;2018-09-25 20:00;CYQF 252000Z 29013KT 15SM SCT060 BKN250 15/00 A3010 RMK CU3CI4 SLP214 DENSITY ALT 3500FT

CYQF;2018-09-25 21:00;CYQF 252100Z 29010KT 270V340 15SM SCT062 BKN250 16/01 A3009 RMK CU3CI2 SLP210 DENSITY ALT 3700FT

CYQF;2018-09-25 22:00;CYQF 252200Z 29009KT 15SM FEW064 SCT250 17/01 A3007 RMK CU2CI1 PRESFR SLP203 DENSITY ALT 3700FT

CYQF;2018-09-25 23:00;CYQF 252300Z 29006KT 250V320 15SM FEW060 BKN250 17/01 A3004 RMK CU1CI4 SLP196 DENSITY ALT 3800FT

CYQF;2018-09-26 00:00;CYQF 260000Z 25004KT 15SM BKN250 15/01 A3003 RMK CI6 SLP193 DENSITY ALT 3600FT

CYQF;2018-09-26 01:00;CYQF 260100Z 21004KT 15SM BKN250 13/01 A3002 RMK CI7 SLP194 DENSITY ALT 3300FT

CYQF;2018-09-26 02:00;CYQF 260200Z 21006KT 15SM BKN250 10/02 A3002 RMK CI7 SLP196 DENSITY ALT 3000FT

CYQF;2018-09-26 03:00;CYQF 260300Z 24008KT 15SM OVC210 10/01 A3002 RMK CI8 SLP192 DENSITY ALT 3100FT

CYQF;2018-09-26 04:00;CYQF 260400Z 29005KT 15SM OVC200 10/01 A3002 RMK CI8 SLP188 DENSITY ALT 3000FT

CYQF;2018-09-26 05:00;CYQF 260500Z 30006KT 15SM OVC200 09/01 A3003 RMK CI8 SLP190

CYQF;2018-09-26 06:00;CYQF 260600Z 29007KT 15SM BKN230 08/01 A3004 RMK CI7 SLP193

CYQF;2018-09-26 07:00;CYQF 260700Z 29006KT 15SM BKN170 08/01 A3006 RMK AC7 SLP198

CYQF;2018-09-26 08:00;CYQF 260800Z 28006KT 15SM OVC220 08/01 A3006 RMK CI8 SLP195

CYQF;2018-09-26 09:00;CYQF 260900Z 26006KT 15SM OVC220 07/01 A3006 RMK CI8 SLP195

CYQF;2018-09-26 10:00;CYQF 261000Z 27009KT 15SM FEW150 OVC230 06/01 A3006 RMK AC2CI6 SLP195

CYQF;2018-09-26 11:00;CYQF 261100Z 28009KT 15SM SCT140 OVC230 08/01 A3004 RMK AC3CI5 SLP189

CYQF;2018-09-26 12:00;CYQF 261200Z 27006KT 15SM BKN090 OVC140 08/01 A3004 RMK AC6AC2 SLP190

CYQF;2018-09-26 13:00;CYQF 261300Z 27010KT 15SM BKN060 OVC100 09/01 A3004 RMK SC5AC3 SLP193

CYQF;2018-09-26 14:00;CYQF 261400Z 32012G17KT 15SM VCSH FEW050 OVC080 10/03 A3005 RMK SC2AS6 SLP197 DENSITY ALT 3000FT

CYQF;2018-09-26 14:14;CYQF 261414Z 33012G19KT 15SM -SHRA BKN060 OVC080 10/04 A3006 RMK SC6AS2 SLP200

CYQF;2018-09-26 15:00;CYQF 261500Z 32009KT 12SM -RA BKN050 OVC080 09/06 A3006 RMK SC5AS3 -RA INTMT SLP201

CYQF;2018-09-26 16:00;CYQF 261600Z 32011G17KT 12SM -RA BKN046 OVC080 10/06 A3007 RMK SC5AC3 SLP202

CYQF;2018-09-26 16:21;CYQF 261621Z 32012G17KT 12SM SCT045 OVC075 10/06 A3006 RMK SC3AC5 SLP199 DENSITY ALT 3000FT

CYQF;2018-09-26 17:00;CYQF 261700Z 32013G20KT 15SM -RA SCT060 OVC070 10/07 A3006 RMK SC4AC4 SLP201 DENSITY ALT 3000FT

CYQF;2018-09-26 18:00;CYQF 261800Z 33014G19KT 15SM -RA FEW020 BKN080 OVC100 11/07 A3006 RMK CF1AC5AC2 SLP200 DENSITY ALT 3100FT

CYQF;2018-09-26 18:48;CYQF 261848Z 33020G27KT 15SM SCT024 BKN065 OVC120 12/06 A3005 RMK CU4SC2AC2 SLP197 DENSITY ALT 3200FT

CYQF;2018-09-26 18:57;CYQF 261857Z 32019G26KT 15SM -SHRA BKN024 BKN060 OVC100 12/06 A3005 RMK CU5SC2AC1 SLP197 DENSITY ALT 3200FT

CYQF;2018-09-26 19:00;CYQF 261900Z 32017G26KT 15SM -SHRA BKN024 BKN057 OVC100 11/06 A3005 RMK CU5SC2AC1 SLP197 DENSITY ALT 3100FT

CYQF;2018-09-26 20:00;CYQF 262000Z 31011G21KT 12SM -SHRA BKN020 OVC050 12/06 A3006 RMK CU5SC3 SLP199 DENSITY ALT 3200FT

CYQF;2018-09-26 21:00;CYQF 262100Z 32013KT 12SM -SHRA SCT014 OVC070 11/07 A3005 RMK CU3AC5 SLP199 DENSITY ALT 3100FT

CYQF;2018-09-26 22:00;CYQF 262200Z 32018G23KT 12SM -SHRA SCT022 OVC062 12/06 A3004 RMK CU4SC4 SLP196 DENSITY ALT 3200FT

CYQF;2018-09-26 23:00;CYQF 262300Z 34007KT 12SM BKN025 OVC080 11/07 A3006 RMK CU5AC3 OCNL -SHRA SLP201 DENSITY ALT 3000FT

CYQF;2018-09-27 00:00;CYQF 270000Z 33014G21KT 8SM -SHRA SCT020 OVC034 09/07 A3008 RMK SC4SC4 CVCTV CLD EMBD SLP209

CYQF;2018-09-27 01:00;CYQF 270100Z 34007KT 12SM -SHRA FEW015 OVC030 08/07 A3008 RMK SC2SC6 SLP211

CYQF;2018-09-27 02:00;CYQF 270200Z 02006KT 12SM -SHRA SCT018 OVC040 07/06 A3010 RMK SC3SC5 SLP217

CYQF;2018-09-27 02:44;CYQF 270244Z 04010KT 10SM -RA BKN011 OVC040 06/06 A3011 RMK SC5SC3 SLP221

CYQF;2018-09-27 03:00;CYQF 270300Z 02009KT 10SM -RA BKN009 OVC040 06/05 A3012 RMK SC5SC3 SLP226

CYQF;2018-09-27 04:00;CYQF 270400Z 36005KT 12SM -RA FEW007 SCT009 OVC030 06/05 A3013 RMK SF1SC3SC4 SLP230

CYQF;2018-09-27 05:00;CYQF 270500Z 35006KT 10SM -RA FEW010 OVC040 06/05 A3014 RMK SF2SC6 SLP233

CYQF;2018-09-27 06:00;CYQF 270600Z 32005KT 10SM -RA FEW010 BKN024 OVC040 06/05 A3016 RMK SF2SC4SC2 SLP239

CYQF;2018-09-27 07:00;CYQF 270700Z 32006KT 10SM -RA FEW015 OVC050 05/05 A3017 RMK SF1SC7 SLP241

CYQF;2018-09-27 08:00;CYQF 270800Z 32006KT 8SM -RA FEW015 OVC035 05/04 A3018 RMK SF1SC7 SLP244

CYQF;2018-09-27 09:00;CYQF 270900Z 33005KT 8SM -RA FEW020 OVC040 05/04 A3019 RMK SF1SC7 SLP248

CYQF;2018-09-27 10:00;CYQF 271000Z 33005KT 10SM -RA FEW010 OVC040 05/04 A3018 RMK SF2SC6 SLP243

CYQF;2018-09-27 10:27;CYQF 271027Z 33005KT 10SM -RA FEW006 OVC040 05/04 A3018 RMK SF2SC6 SLP244

CYQF;2018-09-27 11:00;CYQF 271100Z 35004KT 10SM -RA FEW006 BKN020 OVC040 05/04 A3019 RMK SF1SC4SC3 SLP248

CYQF;2018-09-27 12:00;CYQF 271200Z 32005KT 10SM -RA FEW006 OVC017 04/04 A3020 RMK SF1SC7 SLP255

CYQF;2018-09-27 12:37;CYQF 271237Z 35007KT 8SM -RA SCT006 OVC014 04/03 A3021 RMK SF3SC5 SLP260

CYQF;2018-09-27 13:00;CYQF 271300Z 34006KT 8SM -RA BKN014 OVC024 03/03 A3022 RMK SC6SC2 SLP265

CYQF;2018-09-27 14:00;CYQF 271400Z 35004KT 6SM -RA BR BKN014 OVC028 03/03 A3024 RMK SC6SC2 SLP273

CYQF;2018-09-27 15:00;CYQF 271500Z 32005KT 6SM -RA BR FEW008 BKN012 OVC040 03/03 A3026 RMK SF1SC5SC2 SLP280

CYQF;2018-09-27 16:00;CYQF 271600Z 32006KT 6SM -RA BR FEW007 BKN011 OVC040 03/03 A3027 RMK SF1SC6SC2 SF TR SLP285

CYQF;2018-09-27 17:00;CYQF 271700Z 30006KT 12SM BKN009 OVC014 04/03 A3028 RMK SF6SC2 SLP288

CYQF;2018-09-27 17:34;CYQF 271734Z 27006KT 12SM -RA BKN009 OVC012 04/03 A3029 RMK SF5SC3 SLP290

CYQF;2018-09-27 18:00;CYQF 271800Z 29008KT 8SM -RA SCT008 OVC011 04/03 A3029 RMK SF4SC4 -RA INTMT SLP290

CYQF;2018-09-27 19:00;CYQF 271900Z 32004KT 280V350 8SM -RA FEW006 BKN011 BKN040 04/03 A3029 RMK SF1SC4SC2 -RA INTMT SLP292

CYQF;2018-09-27 20:00;CYQF 272000Z 33008KT 280V350 12SM -RA FEW009 BKN013 BKN035 06/03 A3028 RMK SF1SC5SC1 -RA INTMT SLP286

CYQF;2018-09-27 20:17;CYQF 272017Z 33008KT 15SM BKN012 BKN040 06/03 A3028 RMK SC5SC2 SLP285

CYQF;2018-09-27 21:00;CYQF 272100Z 04007KT 12SM BKN016 BKN040 07/03 A3028 RMK CU6SC1 SLP285

CYQF;2018-09-27 21:17;CYQF 272117Z 02007KT 10SM -SHRA BKN015TCU 06/03 A3028 RMK TCU7 SLP285

CYQF;2018-09-27 22:00;CYQF 272200Z 00000KT 10SM -SHRA FEW020 BKN040TCU 07/04 A3028 RMK CF2TCU5 FUNNEL CLOUD NE REPD 2157 DSPTG SLP284

CYQF;2018-09-27 23:00;CYQF 272300Z 36005KT 8SM SCT030TCU BKN050 05/04 A3029 RMK TCU4SC3 OCNL -SHRA SLP290

CYQF;2018-09-27 23:07;CYQF 272307Z 01004KT 10SM VCSH SCT030TCU BKN050 06/04 A3029 RMK TCU3SC3 SLP290

CYQF;2018-09-28 00:00;CYQF 280000Z 26004KT 12SM VCSH SCT030TCU BKN080 06/03 A3029 RMK TCU4AC3 SLP291

CYQF;2018-09-28 01:00;CYQF 280100Z 31009KT 12SM -SHRA SCT020TCU BKN120 05/03 A3030 RMK TCU4AC3 SLP297

CYQF;2018-09-28 02:00;CYQF 280200Z 28006KT 12SM -SHRA SCT020TCU BKN080 03/02 A3030 RMK TCU3AC2 SLP299

CYQF;2018-09-28 02:53;CYQF 280253Z 27006KT 15SM FEW035 BKN080 02/01 A3031 RMK SC2AC3 SLP302

CYQF;2018-09-28 03:00;CYQF 280300Z 27006KT 15SM SCT035 BKN080 02/01 A3031 RMK SC3AC3 SLP303

CYQF;2018-09-28 04:00;CYQF 280400Z 28005KT 15SM SCT035 BKN075 02/01 A3032 RMK SC3AC2 SLP306

CYQF;2018-09-28 05:00;CYQF 280500Z 29005KT 15SM SCT070 01/00 A3032 RMK AC4 SLP309

CYQF;2018-09-28 06:00;CYQF 280600Z 27004KT 15SM SCT055 BKN080 01/01 A3032 RMK SC3AC4 SLP307

CYQF;2018-09-28 07:00;CYQF 280700Z 29006KT 15SM OVC054 02/01 A3032 RMK SC8 SLP307

CYQF;2018-09-28 08:00;CYQF 280800Z 00000KT 15SM BKN050 00/00 A3032 RMK SC5 SLP306

CYQF;2018-09-28 08:14;CYQF 280814Z VRB02KT 15SM FEW009 BKN020 OVC050 M00/M00 A3033 RMK SF1SC5SC2 SLP308

CYQF;2018-09-28 09:00;CYQF 280900Z VRB02KT 12SM FEW009 BKN020 BKN040 M00/M01 A3032 RMK SF1SC5SC2 SF TR SLP306

CYQF;2018-09-28 10:00;CYQF 281000Z 25005KT 12SM OVC040 00/00 A3030 RMK SC8 SLP297

CYQF;2018-09-28 10:42;CYQF 281042Z 19004KT 180V270 6SM BR FEW002 BKN050 M01/M01 A3029 RMK ST1SC5 SLP295

CYQF;2018-09-28 11:00;CYQF 281100Z 21003KT 2SM BR SCT002 BKN045 M01/M01 A3029 RMK FG1ST2SC4 SLP295

CYQF;2018-09-28 11:06;CYQF 281106Z 20003KT 160V220 1/2SM FZFG OVC040 M01/M01 A3029 RMK FG6SC2 SLP296

CYQF;2018-09-28 11:13;CYQF 281113Z 00000KT 1/4SM FZFG VV002 M01/M01 A3029 RMK FG8 FROIN SLP297

CYQF;2018-09-28 12:00;CYQF 281200Z 19004KT 1/8SM FZFG VV002 M01/M01 A3028 RMK FG8 SLP292

CYQF;2018-09-28 13:00;CYQF 281300Z 00000KT 1/4SM FZFG VV003 M00/M00 A3027 RMK FG8 SLP288

CYQF;2018-09-28 13:29;CYQF 281329Z 24003KT 1/2SM FG VV003 00/00 A3026 RMK FG8 SLP287

CYQF;2018-09-28 13:51;CYQF 281351Z VRB02KT 1/4SM FG VV003 00/00 A3026 RMK FG8 SLP286

CYQF;2018-09-28 14:03;CYQF 281403Z 22003KT 1/2SM FG VV003 00/00 A3026 RMK FG8 SLP288

CYQF;2018-09-28 14:16;CYQF 281416Z 23003KT 1/8SM FG VV002 00/00 A3025 RMK FG8 SLP285

CYQF;2018-09-28 15:00;CYQF 281500Z 19004KT 150V250 1/8SM FG VV002 00/00 A3025 RMK FG8 SLP286

CYQF;2018-09-28 16:00;CYQF 281600Z VRB02KT 1/8SM FG VV002 01/01 A3023 RMK FG8 SLP279

CYQF;2018-09-28 16:46;CYQF 281646Z 17004KT 160V230 1/2SM FG VV002 01/01 A3022 RMK FG8 SLP273

CYQF;2018-09-28 17:00;CYQF 281700Z 20007KT 3/4SM BR OVC002 02/02 A3022 RMK ST8 SLP274

CYQF;2018-09-28 17:26;CYQF 281726Z 19006KT 1 1/2SM BR OVC003 02/02 A3021 RMK ST8 SLP270

CYQF;2018-09-28 17:37;CYQF 281737Z 17006KT 3SM BR OVC005 02/02 A3020 RMK ST8 SLP269

CYQF;2018-09-28 18:00;CYQF 281800Z 16005KT 10SM BKN006 OVC100 03/03 A3020 RMK SC7AC1 SLP264

CYQF;2018-09-28 18:24;CYQF 281824Z 16005KT 10SM BKN010 OVC180 04/03 A3019 RMK SC6AC2 SLP260

CYQF;2018-09-28 19:00;CYQF 281900Z 14007KT 12SM FEW010 BKN160 BKN250 05/03 A3018 RMK CU2AC3CI2 SLP257

CYQF;2018-09-28 20:00;CYQF 282000Z 16009KT 110V190 12SM BKN015 BKN200 06/03 A3016 RMK CU5CI2 SLP250

CYQF;2018-09-28 21:00;CYQF 282100Z 20008KT 12SM SCT016 BKN060 BKN140 06/01 A3014 RMK CU4SC2AC1 SLP243

CYQF;2018-09-28 22:00;CYQF 282200Z 15005KT 120V230 12SM SCT020 BKN075 07/02 A3012 RMK CU3AC4 SLP234

CYQF;2018-09-28 23:00;CYQF 282300Z VRB02KT 15SM SCT024 BKN086 07/00 A3010 RMK CU3AC4 SLP231

CYQF;2018-09-29 00:00;CYQF 290000Z 24003KT 230V290 12SM SCT028 BKN090 07/00 A3010 RMK CU4AC3 VIRGA SLP228

CYQF;2018-09-29 00:51;CYQF 290051Z VRB03KT 12SM -SHRA BKN022TCU BKN070 06/01 A3010 RMK TCU5AC2 SLP230

CYQF;2018-09-29 01:04;CYQF 290104Z 32008KT 300V070 12SM -SHRAPL BKN022TCU BKN070 05/01 A3011 RMK TCU5AC2 SLP233

CYQF;2018-09-29 01:26;CYQF 290126Z 02011G16KT 12SM VCSH BKN025TCU OVC050 03/02 A3011 RMK TCU5SC3 SLP237

CYQF;2018-09-29 02:00;CYQF 290200Z 27006KT 10SM VCSH SCT025TCU OVC040 03/02 A3013 RMK TCU4SC4 SLP243

CYQF;2018-09-29 02:06;CYQF 290206Z 28006KT 10SM SCT009 OVC030 03/02 A3013 RMK SC4SC4 SLP243

CYQF;2018-09-29 02:54;CYQF 290254Z 15004KT 150V260 8SM -SHRA SCT020TCU OVC050 03/02 A3013 RMK TCU4SC4 SLP242

CYQF;2018-09-29 03:00;CYQF 290300Z 19002KT 8SM -SHRA SCT020TCU OVC050 03/02 A3013 RMK TCU4SC4 SLP243

CYQF;2018-09-29 03:43;CYQF 290343Z 21003KT 10SM FEW018 BKN038 BKN100 02/02 A3013 RMK SF2SC3AC2 SLP245

CYQF;2018-09-29 04:00;CYQF 290400Z 26003KT 12SM FEW018 BKN030 BKN100 02/02 A3013 RMK SF2SC3AC2 SLP245

CYQF;2018-09-29 05:00;CYQF 290500Z 32005KT 15SM BKN018 OVC090 02/01 A3014 RMK SC6AC2 SLP245

CYQF;2018-09-29 06:00;CYQF 290600Z 31004KT 15SM BKN018 BKN030 01/00 A3015 RMK SC5SC2 SLP250

CYQF;2018-09-29 07:00;CYQF 290700Z 34005KT 15SM BKN020 OVC060 01/01 A3016 RMK SC5SC3 SLP249

CYQF;2018-09-29 08:00;CYQF 290800Z 32004KT 10SM FEW020 BKN070 M00/M01 A3016 RMK SC2AC4 SLP251

CYQF;2018-09-29 08:37;CYQF 290837Z 34005KT 8SM BKN010 OVC060 M00/M01 A3017 RMK ST5SC3 SLP253

CYQF;2018-09-29 09:00;CYQF 290900Z 32006KT 8SM OVC010 M00/M01 A3017 RMK ST8 SLP255

CYQF;2018-09-29 09:41;CYQF 290941Z 31006KT 8SM SCT010 OVC020 00/M00 A3017 RMK ST3SC5 SLP254

CYQF;2018-09-29 10:00;CYQF 291000Z 33007KT 10SM SCT020 OVC030 00/M00 A3018 RMK SC3SC5 SLP255

CYQF;2018-09-29 10:12;CYQF 291012Z 33009KT 10SM -SN SCT025 OVC040 01/M00 A3018 RMK SC3SC5 SLP256

CYQF;2018-09-29 11:00;CYQF 291100Z 34007KT 8SM -SN OVC032 00/M01 A3019 RMK SC8 SLP260

CYQF;2018-09-29 12:00;CYQF 291200Z 33007KT 10SM -SN OVC040 M00/M03 A3021 RMK SC8 SLP267

CYQF;2018-09-29 12:32;CYQF 291232Z 32005KT 15SM BKN060 BKN090 M01/M03 A3022 RMK SC5AC2 SLP270

CYQF;2018-09-29 13:00;CYQF 291300Z 32008KT 15SM BKN090 M01/M03 A3022 RMK AC5 SLP273

CYQF;2018-09-29 14:00;CYQF 291400Z 31006KT 15SM BKN090 M01/M03 A3023 RMK AC6 SLP281

CYQF;2018-09-29 15:00;CYQF 291500Z 32007KT 15SM BKN090 M00/M03 A3025 RMK AC7 SLP287

CYQF;2018-09-29 16:00;CYQF 291600Z 33010KT 15SM FEW060 BKN090 01/M02 A3027 RMK SC2AC5 SLP290

CYQF;2018-09-29 16:12;CYQF 291612Z 34007G16KT 15SM FEW010 SCT080 BKN100 01/M02 A3027 RMK CF1AC3AC3 SLP292

CYQF;2018-09-29 17:00;CYQF 291700Z 01007KT 15SM FEW016 BKN080 01/M03 A3028 RMK CU2AC5 SLP296

CYQF;2018-09-29 18:00;CYQF 291800Z 01010KT 310V030 15SM SCT024 BKN057 BKN090 02/M04 A3030 RMK CU3SC2AC2 SLP301

CYQF;2018-09-29 19:00;CYQF 291900Z 35011KT 15SM SCT025 BKN070 02/M05 A3030 RMK CU4AC3 SLP300

CYQF;2018-09-29 19:27;CYQF 291927Z 36012KT 12SM -SN BKN030 02/M03 A3030 RMK SC7 VIS N 6 SLP303

CYQF;2018-09-29 20:00;CYQF 292000Z 34009G15KT 320V020 15SM BKN020 BKN070 02/M04 A3030 RMK SC6AC1 INTMT -SN SLP304

CYQF;2018-09-29 20:14;CYQF 292014Z 33009G15KT 300V010 15SM BKN027 BKN070 03/M04 A3030 RMK SC6AC1 CU SLP302

CYQF;2018-09-29 21:00;CYQF 292100Z 35014KT 15SM BKN036 02/M05 A3030 RMK SC7 CIG RAG SLP303

CYQF;2018-09-29 22:00;CYQF 292200Z 34014KT 15SM SCT025 BKN040 02/M05 A3030 RMK CU3SC3 SLP303

CYQF;2018-09-29 23:00;CYQF 292300Z 35010G15KT 15SM FEW030 BKN040 03/M04 A3030 RMK CU2SC5 SLP304

CYQF;2018-09-30 00:00;CYQF 300000Z 35011G17KT 320V020 15SM BKN045 02/M06 A3031 RMK SC5 SLP306

CYQF;2018-09-30 01:00;CYQF 300100Z 04009KT 15SM FEW045 00/M05 A3031 RMK SC2 SLP310

CYQF;2018-09-30 02:00;CYQF 300200Z 02002KT 15SM FEW045 M02/M05 A3033 RMK SC2 SLP320

CYQF;2018-09-30 03:00;CYQF 300300Z 21003KT 15SM FEW045 M03/M06 A3034 RMK SC1 SLP324

CYQF;2018-09-30 04:00;CYQF 300400Z 20003KT 190V290 15SM FEW045 M04/M06 A3035 RMK SC1 SLP327

CYQF;2018-09-30 05:00;CYQF 300500Z 18003KT 15SM SCT045 M06/M07 A3035 RMK SC3 SLP328

CYQF;2018-09-30 06:00;CYQF 300600Z VRB02KT 15SM BKN046 M04/M05 A3035 RMK SC7 FROIN SLP325

CYQF;2018-09-30 07:00;CYQF 300700Z 08006KT 15SM SCT046 M05/M07 A3034 RMK SC3 FROIN SLP322

CYQF;2018-09-30 08:00;CYQF 300800Z 19004KT 15SM FEW045 M05/M06 A3033 RMK SC2 FROIN SLP320

CYQF;2018-09-30 09:00;CYQF 300900Z 09002KT 15SM FEW045 M07/M08 A3032 RMK SC1 FROIN SLP320

CYQF;2018-09-30 10:00;CYQF 301000Z 08003KT 15SM FEW045 M07/M09 A3030 RMK SC1 FROIN SLP313

CYQF;2018-09-30 11:00;CYQF 301100Z 13004KT 15SM FEW045 M07/M09 A3030 RMK SC1 FROIN SLP310

CYQF;2018-09-30 12:00;CYQF 301200Z 13004KT 15SM FEW045 M06/M08 A3029 RMK SC2 FROIN SLP305

CYQF;2018-09-30 13:00;CYQF 301300Z 14006KT 15SM FEW045 FEW100 M07/M08 A3027 RMK SC1AC1 AC TR SLP302

CYQF;2018-09-30 14:00;CYQF 301400Z 14007KT 15SM SCT100 BKN250 M07/M08 A3026 RMK AC4CI1 SLP300

CYQF;2018-09-30 15:00;CYQF 301500Z 14008KT 15SM FEW100 FEW250 M04/M06 A3024 RMK AC1CI1 SLP294

CYQF;2018-09-30 16:00;CYQF 301600Z 16014KT 15SM FEW100 SCT250 M01/M06 A3022 RMK AC2CI2 SLP286

CYQF;2018-09-30 17:00;CYQF 301700Z 16017G24KT 15SM BKN030 BKN100 M01/M08 A3020 RMK SC5AC1 SLP280

CYQF;2018-09-30 18:00;CYQF 301800Z 16016KT 15SM BKN030 BKN250 00/M07 A3018 RMK SC5CI2 SLP268

CYQF;2018-09-30 19:00;CYQF 301900Z 16016G24KT 15SM FEW032 BKN070 BKN250 01/M07 A3015 RMK CU2AC4CI1 SLP258

CYQF;2018-09-30 20:00;CYQF 302000Z 13016KT 15SM SCT030 BKN070 01/M07 A3013 RMK SC3AC4 SLP250

CYQF;2018-09-30 21:00;CYQF 302100Z 13014G23KT 15SM SCT030 BKN070 OVC250 00/M07 A3010 RMK SC3AC4CI1 SLP244

CYQF;2018-09-30 22:00;CYQF 302200Z 14012G19KT 15SM FEW030 BKN070 OVC250 01/M06 A3009 RMK SC2AC5CI1 SLP240

CYQF;2018-09-30 23:00;CYQF 302300Z 15014G19KT 15SM SCT032 OVC076 00/M07 A3007 RMK SC3AC5 SLP233

CYQF;2018-10-01 00:00;CYQF 010000Z 15013G19KT 15SM BKN030 BKN070 00/M06 A3006 RMK SC5AC2 SLP228

CYQF;2018-10-01 01:00;CYQF 010100Z 15012KT 15SM BKN030 OVC070 M00/M05 A3002 RMK SC6AC2 SLP217

CYQF;2018-10-01 02:00;CYQF 010200Z 15012KT 15SM OVC028 M01/M05 A3002 RMK SC8 SLP216

CYQF;2018-10-01 03:00;CYQF 010300Z 15009KT 15SM OVC023 M01/M04 A3001 RMK SC8 SLP212

CYQF;2018-10-01 04:00;CYQF 010400Z 14011KT 15SM OVC024 M01/M04 A3000 RMK SC8 SLP204

CYQF;2018-10-01 05:00;CYQF 010500Z 15009KT 15SM OVC022 M01/M04 A2998 RMK SC8 SLP196

CYQF;2018-10-01 06:00;CYQF 010600Z 15011KT 15SM SCT011 OVC022 M01/M03 A2996 RMK SC3SC5 SLP188

CYQF;2018-10-01 06:16;CYQF 010616Z 15010KT 15SM BKN010 OVC022 M01/M03 A2996 RMK SC5SC3 SLP187

CYQF;2018-10-01 07:00;CYQF 010700Z 16007KT 15SM BKN009 OVC022 M01/M03 A2995 RMK SC6SC2 SLP184

CYQF;2018-10-01 07:33;CYQF 010733Z 16010KT 15SM SCT009 OVC027 M01/M03 A2994 RMK SC3SC5 SLP180

CYQF;2018-10-01 08:00;CYQF 010800Z 16008KT 15SM FEW010 OVC029 M01/M03 A2993 RMK SC2SC6 SLP180

CYQF;2018-10-01 08:41;CYQF 010841Z 16007KT 10SM -SN SCT010 OVC024 M01/M03 A2993 RMK SC3SC5 SLP180

CYQF;2018-10-01 09:00;CYQF 010900Z 16007KT 4SM -SN SCT010 OVC024 M02/M03 A2992 RMK SC3SC5 SLP177

CYQF;2018-10-01 10:00;CYQF 011000Z 15003KT 4SM -SN FEW010 BKN024 BKN070 M02/M03 A2991 RMK SC1SC4AC2 SLP173

CYQF;2018-10-01 11:00;CYQF 011100Z 16004KT 4SM -SN BKN024 OVC070 M02/M03 A2990 RMK SC6AC2 SLP169

CYQF;2018-10-01 11:31;CYQF 011131Z 16004KT 2SM -SN VV017 M02/M03 A2990 RMK SN8 SLP168

CYQF;2018-10-01 12:00;CYQF 011200Z 15002KT 2SM -SN VV017 M02/M02 A2990 RMK SN8 SLP167

CYQF;2018-10-01 13:00;CYQF 011300Z 00000KT 2SM -SN FEW005 VV020 M02/M02 A2990 RMK SF1SN8 SF TR SLP169

CYQF;2018-10-01 13:16;CYQF 011316Z 00000KT 1SM -SN VV013 M02/M02 A2990 RMK SN8 SLP170

CYQF;2018-10-01 13:45;CYQF 011345Z 00000KT 1SM -SN BKN003 VV013 M02/M02 A2991 RMK SF5SN3 SLP171

CYQF;2018-10-01 14:00;CYQF 011400Z 00000KT 1SM -SN OVC003 M02/M02 A2991 RMK ST8 /S01/ SLP172

CYQF;2018-10-01 15:00;CYQF 011500Z 00000KT 1SM -SN SCT003 VV015 M02/M02 A2991 RMK SF3SN5 /S02./ SLP175

CYQF;2018-10-01 15:46;CYQF 011546Z 25003KT 240V320 1 1/2SM -SN VV008 M01/M02 A2992 RMK SN8 SLP177

CYQF;2018-10-01 15:54;CYQF 011554Z 00000KT 2 1/2SM -SN BKN008 OVC040 M01/M02 A2992 RMK ST5SC3 SLP177

CYQF;2018-10-01 16:00;CYQF 011600Z VRB02KT 2 1/2SM -SN BKN008 OVC040 M01/M02 A2992 RMK ST6SC2 SLP177

CYQF;2018-10-01 17:00;CYQF 011700Z VRB02KT 2SM -SN BKN007 OVC030 M00/M02 A2993 RMK ST6SC2 SLP179

CYQF;2018-10-01 18:00;CYQF 011800Z 01006KT 2 1/2SM -SN BKN007 OVC017 00/M02 A2994 RMK ST5SC3 /S03/ SLP181

CYQF;2018-10-01 18:14;CYQF 011814Z 36005KT 2SM -SN FEW007 BKN017 OVC032 00/M01 A2994 RMK SF2SC3SC3 VIS VRB 11/2-21/2 SLP182

CYQF;2018-10-01 18:51;CYQF 011851Z 35004KT 300V020 1SM -SN SCT008 OVC025 00/M02 A2994 RMK SF4SC4 SLP183

CYQF;2018-10-01 19:00;CYQF 011900Z 35005KT 1 1/2SM -SN SCT008 OVC025 00/M01 A2995 RMK SF4SC4 VIS VRB 1-2 SLP184

CYQF;2018-10-01 20:00;CYQF 012000Z 32006KT 300V010 1SM -SN FEW004 VV018 00/M01 A2995 RMK SF2SN6 SLP186

CYQF;2018-10-01 21:00;CYQF 012100Z 34006KT 1 1/4SM -SN SCT007 VV018 00/M01 A2995 RMK SF3SN5 VIS VRB 1-1 1/2 SLP187

CYQF;2018-10-01 21:25;CYQF 012125Z 34004KT 2SM -SN SCT007 OVC040 01/M01 A2995 RMK SF4SC4 SLP186

CYQF;2018-10-01 22:00;CYQF 012200Z 33006KT 1 1/2SM -SN BKN009 OVC030 01/M00 A2996 RMK SF5SC3 SLP188

CYQF;2018-10-01 23:00;CYQF 012300Z 34007KT 2SM -SN BKN008 OVC040 01/M01 A2997 RMK SN2SF3SC3 VIS VRB 1-3 SLP191

CYQF;2018-10-02 00:00;CYQF 020000Z 34006KT 1 1/2SM -SN FEW009 OVC040 M00/M01 A2998 RMK SF2SC6 SLP197

CYQF;2018-10-02 01:00;CYQF 020100Z 33004KT 1 1/2SM -SN FEW008 OVC017 M01/M01 A3000 RMK SF2SC6 SLP205

CYQF;2018-10-02 02:00;CYQF 020200Z 36005KT 1 1/2SM -SN SCT008 BKN018 OVC080 M01/M01 A3000 RMK SN2SF1SC3AC2 SLP207

CYQF;2018-10-02 02:46;CYQF 020246Z 36005KT 3SM -SN SCT008 OVC042 M01/M02 A3001 RMK SF3SC5 SLP210

CYQF;2018-10-02 03:00;CYQF 020300Z 36005KT 4SM -SN SCT006 OVC027 M01/M02 A3002 RMK SC3SC5 /S01/ SLP211

CYQF;2018-10-02 04:00;CYQF 020400Z 01005KT 4SM -SN SCT011 OVC027 M01/M02 A3003 RMK SC4SC4 SLP213

CYQF;2018-10-02 04:47;CYQF 020447Z 35004KT 4SM -SN SCT007 BKN011 OVC027 M01/M02 A3003 RMK SC3SC4SC1 SLP215

CYQF;2018-10-02 05:00;CYQF 020500Z 35006KT 4SM -SN BKN005 OVC011 M01/M02 A3003 RMK SC6SC2 SLP215

CYQF;2018-10-02 05:14;CYQF 020514Z 35007KT 2SM -SN BKN006 OVC013 M01/M02 A3004 RMK SC6SC2 SLP216

CYQF;2018-10-02 06:00;CYQF 020600Z 02007KT 2SM -SN BKN006 OVC017 M01/M02 A3003 RMK SC5SC3 SLP212

CYQF;2018-10-02 06:31;CYQF 020631Z 35006KT 3SM -SN BKN007 OVC018 M01/M02 A3004 RMK SC5SC3 SLP218

CYQF;2018-10-02 07:00;CYQF 020700Z 36005KT 4SM -SN BKN008 OVC020 M01/M02 A3005 RMK SC7SC1 SLP219

CYQF;2018-10-02 08:00;CYQF 020800Z 02008KT 3SM -SN OVC006 M01/M02 A3005 RMK SC8 SLP219

CYQF;2018-10-02 09:00;CYQF 020900Z 01008KT 4SM -SN OVC005 M02/M02 A3004 RMK SC8 SLP217

CYQF;2018-10-02 10:00;CYQF 021000Z 02011KT 6SM -SN OVC010 M02/M03 A3005 RMK SC8 SLP219

CYQF;2018-10-02 11:00;CYQF 021100Z 36007KT 6SM -SN OVC007 M02/M03 A3004 RMK SC8 SLP218

CYQF;2018-10-02 12:00;CYQF 021200Z 01006KT 3SM -SN OVC007 M03/M03 A3003 RMK SC8 SLP214

CYQF;2018-10-02 13:00;CYQF 021300Z 36004KT 4SM -SN OVC007 M03/M03 A3003 RMK SC8 SLP216

CYQF;2018-10-02 13:23;CYQF 021323Z 01005KT 2SM -SN OVC008 M03/M03 A3003 RMK SC8 SLP216

CYQF;2018-10-02 13:39;CYQF 021339Z 03003KT 1SM -SN OVC007 M03/M03 A3003 RMK SC8 SLP215

CYQF;2018-10-02 14:00;CYQF 021400Z 02004KT 1 1/2SM -SN SCT006 VV028 M03/M03 A3003 RMK SF3SN5 VIS VRB 1-2 SLP215

CYQF;2018-10-02 15:00;CYQF 021500Z 01004KT 2SM -SN SCT006 OVC060 M03/M03 A3002 RMK SF4SC4 SLP213

CYQF;2018-10-02 15:23;CYQF 021523Z 02005KT 1 1/2SM -SN BKN006 OVC060 M02/M03 A3002 RMK SF6SC2 SLP213

CYQF;2018-10-02 16:00;CYQF 021600Z 03005KT 1 1/2SM -SN BKN007 OVC060 M02/M03 A3001 RMK ST6SC2 SLP209

CYQF;2018-10-02 16:20;CYQF 021620Z 06006KT 2 1/2SM -SN SCT005 OVC009 M02/M03 A3000 RMK SF3SC5 SLP207

CYQF;2018-10-02 16:39;CYQF 021639Z 07006KT 5SM -SN SCT007 OVC012 M02/M03 A3000 RMK SF4SC4 SLP206

CYQF;2018-10-02 17:00;CYQF 021700Z 07005KT 5SM -SN BKN008 OVC012 M02/M03 A3000 RMK SF5SC3 SLP204

CYQF;2018-10-02 17:44;CYQF 021744Z 05006KT 2 1/2SM -SN OVC012 M02/M03 A2998 RMK SC8 SLP199

CYQF;2018-10-02 18:00;CYQF 021800Z 06006KT 2 1/2SM -SN OVC013 M02/M03 A2998 RMK SC8 SLP199

CYQF;2018-10-02 18:26;CYQF 021826Z 05005KT 1 1/2SM -SN SCT006 OVC013 M02/M03 A2998 RMK SF4SC4 VIS VRB 1-2 SLP197

CYQF;2018-10-02 19:00;CYQF 021900Z 03006KT 1 1/2SM -SN BKN006 OVC025 M02/M03 A2997 RMK SF6SC2 SLP193

CYQF;2018-10-02 20:00;CYQF 022000Z 03008KT 1SM -SN BKN006 OVC025 M02/M03 A2995 RMK SF5SC3 VIS 1/2-11/2 SLP187

CYQF;2018-10-02 21:00;CYQF 022100Z 02008KT 1SM -SN VV007 M01/M02 A2992 RMK SN8 /S02/ SLP176

CYQF;2018-10-02 21:23;CYQF 022123Z 02007KT 1 1/2SM -SN BKN007 OVC030 M01/M03 A2991 RMK SN2SC4SC2 SLP175

CYQF;2018-10-02 22:00;CYQF 022200Z 04008KT 2 1/2SM -SN BKN008 OVC030 M01/M03 A2990 RMK SC5SC3 VIS VRB 13/4-4 SLP169

CYQF;2018-10-02 22:10;CYQF 022210Z 04007KT 5SM -SN BKN010 OVC030 M01/M03 A2989 RMK SC6SC2 SLP168

CYQF;2018-10-02 22:44;CYQF 022244Z 03007KT 1SM -SN OVC011 M01/M03 A2989 RMK SN4SC4 SLP166

CYQF;2018-10-02 23:00;CYQF 022300Z 02007KT 3/4SM -SN VV012 M02/M02 A2989 RMK SN8 SLP166

CYQF;2018-10-02 23:41;CYQF 022341Z 05007KT 1 1/2SM -SN OVC008 M02/M02 A2988 RMK SN3SC5 VIS VRB 1-2 SLP163

CYQF;2018-10-03 00:00;CYQF 030000Z 04006KT 1 1/2SM -SN SCT010 OVC015 M02/M03 A2987 RMK SN3SC1SC4 VIS VRB 1-2 SLP162

CYQF;2018-10-03 00:38;CYQF 030038Z 03008KT 3SM -SN BKN009 OVC015 M02/M03 A2987 RMK SC6SC2 SLP160

CYQF;2018-10-03 01:00;CYQF 030100Z 03009KT 3SM -SN BKN008 OVC015 M02/M03 A2986 RMK SC6SC2 SLP157

CYQF;2018-10-03 02:00;CYQF 030200Z 36006KT 6SM -SN FEW008 SCT015 BKN030 OVC078 M02/M04 A2987 RMK SC2SC2SC2AC2 SLP162

CYQF;2018-10-03 02:21;CYQF 030221Z 02005KT 8SM SCT015 OVC078 M03/M04 A2988 RMK SC4AC4 SLP164

CYQF;2018-10-03 03:00;CYQF 030300Z 35002KT 10SM BKN015 OVC030 M03/M04 A2989 RMK SC6SC2 SLP168

CYQF;2018-10-03 03:43;CYQF 030343Z 36006KT 8SM -SN SCT018 BKN030 OVC080 M03/M04 A2988 RMK SC4SC3AC1 SLP164

CYQF;2018-10-03 04:00;CYQF 030400Z 36004KT 8SM -SN FEW020 SCT030 OVC080 M03/M04 A2987 RMK SC2SC2AC4 SLP163

CYQF;2018-10-03 04:30;CYQF 030430Z 35003KT 10SM SCT040 OVC080 M03/M04 A2988 RMK SC4AC4 SLP164

CYQF;2018-10-03 05:00;CYQF 030500Z 32004KT 15SM SCT040 OVC080 M03/M04 A2989 RMK SC3AC5 SLP168

CYQF;2018-10-03 06:00;CYQF 030600Z 33005KT 15SM FEW020 BKN045 OVC090 M03/M04 A2990 RMK SC1SC6AC1 SLP172

CYQF;2018-10-03 07:00;CYQF 030700Z 33007KT 15SM OVC040 M03/M04 A2990 RMK SC8 SLP172

CYQF;2018-10-03 07:16;CYQF 030716Z 32006KT 15SM -SN OVC030 M03/M04 A2991 RMK SC8 SLP173

CYQF;2018-10-03 08:00;CYQF 030800Z 33005KT 15SM -SN OVC036 M02/M04 A2992 RMK SC8 SLP180

CYQF;2018-10-03 09:00;CYQF 030900Z 31006KT 15SM -SN BKN042 M03/M05 A2993 RMK SC7 SLP183

CYQF;2018-10-03 09:15;CYQF 030915Z 31008KT 15SM OVC034 M03/M05 A2993 RMK SC8 SLP183

CYQF;2018-10-03 10:00;CYQF 031000Z 30007KT 15SM OVC045 M03/M04 A2995 RMK SC8 SLP188

CYQF;2018-10-03 11:00;CYQF 031100Z 30007KT 15SM -SN OVC036 M03/M05 A2996 RMK SC8 SLP194

CYQF;2018-10-03 12:00;CYQF 031200Z 30007KT 15SM OVC037 M03/M06 A2998 RMK SC8 SLP198

CYQF;2018-10-03 13:00;CYQF 031300Z 27004KT 15SM FEW100 M05/M07 A2999 RMK AC2 SLP206

CYQF;2018-10-03 14:00;CYQF 031400Z 27007KT 15SM FEW100 M05/M07 A3002 RMK AC1 AC TR SLP217

CYQF;2018-10-03 15:00;CYQF 031500Z 24005KT 15SM FEW100 M05/M06 A3004 RMK AC1 SLP224

CYQF;2018-10-03 16:00;CYQF 031600Z 25009KT 15SM FEW100 M04/M06 A3005 RMK AC1 SLP228

CYQF;2018-10-03 17:00;CYQF 031700Z 27006KT 15SM FEW160 M02/M06 A3006 RMK AC2 SLP228

CYQF;2018-10-03 18:00;CYQF 031800Z 27005KT 230V320 15SM FEW160 M01/M06 A3006 RMK AC1 AC TR SLP225

CYQF;2018-10-03 19:00;CYQF 031900Z 25007KT 15SM SKC 00/M06 A3005 RMK SLP223

CYQF;2018-10-03 20:00;CYQF 032000Z 25006KT 15SM FEW250 01/M07 A3004 RMK CI2 SLP218

CYQF;2018-10-03 21:00;CYQF 032100Z 24006KT 220V300 15SM SCT250 02/M06 A3004 RMK CI3 SLP217

CYQF;2018-10-03 22:00;CYQF 032200Z 27007KT 200V280 15SM SCT250 03/M08 A3004 RMK CI3 SLP216

CYQF;2018-10-03 23:00;CYQF 032300Z 22003KT 15SM SCT250 03/M08 A3004 RMK CI4 SLP214

CYQF;2018-10-04 00:00;CYQF 040000Z 21003KT 15SM FEW100 BKN250 02/M06 A3003 RMK AC1CI6 AC TR SLP214

CYQF;2018-10-04 01:00;CYQF 040100Z VRB02KT 15SM FEW120 BKN250 00/M05 A3003 RMK AC1CI7 AC TR SLP219

CYQF;2018-10-04 02:00;CYQF 040200Z 15003KT 15SM OVC200 M01/M05 A3003 RMK CI8 SLP219

CYQF;2018-10-04 03:00;CYQF 040300Z 13003KT 15SM OVC200 M02/M05 A3004 RMK CI8 SLP223

CYQF;2018-10-04 04:00;CYQF 040400Z 16005KT 15SM BKN200 M03/M05 A3003 RMK CI7 SLP220

CYQF;2018-10-04 05:00;CYQF 040500Z 17004KT 15SM OVC180 M03/M05 A3002 RMK AC8 SLP214

CYQF;2018-10-04 06:00;CYQF 040600Z 16004KT 15SM OVC180 M03/M05 A3001 RMK AC8 SLP210

CYQF;2018-10-04 07:00;CYQF 040700Z 14005KT 15SM BKN160 M03/M05 A3000 RMK AC7 SLP205

CYQF;2018-10-04 08:00;CYQF 040800Z 14005KT 15SM OVC160 M03/M05 A2999 RMK AC8 SLP201

CYQF;2018-10-04 09:00;CYQF 040900Z 17005KT 15SM OVC150 M03/M05 A2999 RMK AC8 SLP198

CYQF;2018-10-04 10:00;CYQF 041000Z 17003KT 15SM OVC140 M03/M05 A2998 RMK AC8 SLP194

CYQF;2018-10-04 11:00;CYQF 041100Z 18006KT 15SM BKN150 M03/M05 A2996 RMK AC7 SLP188

CYQF;2018-10-04 12:00;CYQF 041200Z 17007KT 15SM BKN140 BKN170 M03/M05 A2995 RMK AC5AC2 SLP184

CYQF;2018-10-04 13:00;CYQF 041300Z 16007KT 15SM SCT160 OVC240 M04/M05 A2994 RMK AC4CI4 SLP184

CYQF;2018-10-04 14:00;CYQF 041400Z 16004KT 10SM BKN160 OVC250 M03/M05 A2994 RMK AC5CI3 SLP187

CYQF;2018-10-04 15:00;CYQF 041500Z 15006KT 8SM FEW060 BKN150 BKN250 M02/M04 A2993 RMK SC1AC4CI1 HZ SLP184

CYQF;2018-10-04 16:00;CYQF 041600Z 15009KT 8SM FEW060 BKN150 OVC250 M00/M03 A2993 RMK SC1AC5CI3 SC TR SLP180

CYQF;2018-10-04 16:38;CYQF 041638Z 16010KT 8SM FEW010 BKN054 OVC250 M00/M03 A2993 RMK SF1SC6CI1 SLP180

CYQF;2018-10-04 17:00;CYQF 041700Z 18009KT 8SM FEW010 BKN055 OVC250 M00/M03 A2992 RMK SC1SC5CI2 SLP179

CYQF;2018-10-04 18:00;CYQF 041800Z 17007KT 8SM FEW012 BKN050 OVC250 01/M02 A2991 RMK CF1SC5CI2 SLP173

CYQF;2018-10-04 19:00;CYQF 041900Z 15009KT 8SM SCT010 BKN050 BKN140 03/M01 A2991 RMK CF3SC2AC2 SLP169

CYQF;2018-10-04 20:00;CYQF 042000Z 16012G17KT 8SM SCT015 BKN140 BKN250 04/00 A2989 RMK SC4AC2CI1 SLP162

CYQF;2018-10-04 21:00;CYQF 042100Z 18013KT 8SM BKN018 BKN250 04/M01 A2989 RMK CU5CI2 HZ SLP162

CYQF;2018-10-04 22:00;CYQF 042200Z 18010G17KT 8SM BKN020 OVC250 04/M01 A2989 RMK CU6CI2 HZ SLP161

CYQF;2018-10-04 23:00;CYQF 042300Z 16010KT 10SM BKN020 BKN250 02/M01 A2989 RMK SC6CI1 HZ SLP164

CYQF;2018-10-05 00:00;CYQF 050000Z 16008KT 10SM BKN020 BKN250 02/M02 A2990 RMK SC6CI1 SLP166

CYQF;2018-10-05 01:00;CYQF 050100Z 16007KT 12SM FEW030 SCT250 00/M02 A2990 RMK SC1CI2 SLP169

CYQF;2018-10-05 02:00;CYQF 050200Z 19005KT 12SM FEW030 SCT250 M01/M03 A2990 RMK SC1CI2 SLP173

CYQF;2018-10-05 03:00;CYQF 050300Z 20003KT 15SM SKC M02/M03 A2991 RMK SLP173

CYQF;2018-10-05 04:00;CYQF 050400Z 18004KT 15SM SKC M03/M04 A2991 RMK SLP172

CYQF;2018-10-05 05:00;CYQF 050500Z 18004KT 15SM SKC M04/M04 A2990 RMK SLP172

CYQF;2018-10-05 06:00;CYQF 050600Z 17005KT 15SM SKC M05/M06 A2990 RMK SLP172

CYQF;2018-10-05 07:00;CYQF 050700Z 20004KT 15SM SKC M05/M06 A2991 RMK FROIN SLP171

CYQF;2018-10-05 08:00;CYQF 050800Z 21004KT 15SM SKC M05/M05 A2990 RMK FROIN SLP168

CYQF;2018-10-05 09:00;CYQF 050900Z 22003KT 15SM SKC M05/M05 A2991 RMK FROIN SLP172

CYQF;2018-10-05 10:00;CYQF 051000Z 21005KT 15SM SKC M06/M07 A2991 RMK FROIN SLP175

CYQF;2018-10-05 11:00;CYQF 051100Z 20003KT 12SM SKC M07/M08 A2992 RMK FROIN SLP181

CYQF;2018-10-05 12:00;CYQF 051200Z 20005KT 12SM SKC M07/M08 A2994 RMK SLP188

CYQF;2018-10-05 13:00;CYQF 051300Z 21004KT 15SM SCT250 M07/M09 A2994 RMK CI3 FROIN SLP190

CYQF;2018-10-05 14:00;CYQF 051400Z 18003KT 15SM BKN170 M07/M08 A2995 RMK AC5 FROIN SLP194

CYQF;2018-10-05 15:00;CYQF 051500Z 19004KT 10SM BKN250 M05/M05 A2996 RMK CI6 HZ SLP195

CYQF;2018-10-05 16:00;CYQF 051600Z 24003KT 15SM BKN170 M00/M02 A2997 RMK AC6 SLP193

CYQF;2018-10-05 17:00;CYQF 051700Z VRB02KT 12SM FEW150 BKN250 04/M01 A2996 RMK AC2CI4 SLP189

CYQF;2018-10-05 18:00;CYQF 051800Z 00000KT 12SM BKN250 05/M04 A2996 RMK CI6 SLP188

CYQF;2018-10-05 19:00;CYQF 051900Z 00000KT 15SM BKN200 07/M04 A2995 RMK CI5 SLP182

CYQF;2018-10-05 20:00;CYQF 052000Z 18004KT 090V210 15SM BKN220 08/M04 A2994 RMK CI5 SLP176

CYQF;2018-10-05 21:00;CYQF 052100Z 21004KT 15SM FEW160 BKN220 09/M05 A2993 RMK AC2CI3 SLP173 DENSITY ALT 3000FT

CYQF;2018-10-05 22:00;CYQF 052200Z 13003KT 060V180 15SM FEW040 SCT120 BKN220 09/M04 A2993 RMK SC1AC3CI3 SC TR SLP173 DENSITY ALT 3000FT

CYQF;2018-10-05 23:00;CYQF 052300Z 20005KT 130V230 15SM FEW040 FEW120 BKN250 09/M04 A2992 RMK SC1AC1CI5 SC TR SLP173 DENSITY ALT 3000FT

CYQF;2018-10-06 00:00;CYQF 060000Z 15003KT 15SM FEW040 SCT120 SCT250 08/M04 A2992 RMK SC1AC2CI1 SLP174

CYQF;2018-10-06 01:00;CYQF 060100Z 16003KT 15SM FEW040 SCT120 SCT250 05/M04 A2993 RMK SC1AC2CI1 SLP180

CYQF;2018-10-06 02:00;CYQF 060200Z 16003KT 15SM FEW120 BKN250 03/M03 A2994 RMK AC2CI3 SLP185

CYQF;2018-10-06 03:00;CYQF 060300Z 19004KT 15SM FEW250 01/M03 A2994 RMK CI2 SLP184

CYQF;2018-10-06 04:00;CYQF 060400Z 19004KT 15SM FEW120 M00/M03 A2994 RMK AC1 SLP182

CYQF;2018-10-06 05:00;CYQF 060500Z VRB02KT 15SM SKC M03/M04 A2995 RMK SLP182

CYQF;2018-10-06 06:00;CYQF 060600Z 19004KT 15SM SKC M04/M06 A2993 RMK SLP178

CYQF;2018-10-06 07:00;CYQF 060700Z 00000KT 15SM SKC M04/M05 A2993 RMK SLP176

CYQF;2018-10-06 08:00;CYQF 060800Z 23003KT 15SM SKC M05/M06 A2994 RMK SLP176

CYQF;2018-10-06 09:00;CYQF 060900Z 22003KT 15SM SKC M05/M06 A2994 RMK SLP175

CYQF;2018-10-06 10:00;CYQF 061000Z 20003KT 15SM SKC M06/M07 A2994 RMK SLP176

CYQF;2018-10-06 11:00;CYQF 061100Z 19004KT 12SM SKC M06/M07 A2994 RMK SLP176

CYQF;2018-10-06 12:00;CYQF 061200Z 17003KT 10SM SKC M06/M07 A2995 RMK SLP181

CYQF;2018-10-06 13:00;CYQF 061300Z 20005KT 12SM SKC M07/M07 A2995 RMK FROIN SLP187

CYQF;2018-10-06 14:00;CYQF 061400Z 21004KT 10SM FEW220 M06/M07 A2996 RMK CI1 SLP191

CYQF;2018-10-06 15:00;CYQF 061500Z 20004KT 10SM FEW200 SCT250 M03/M04 A2998 RMK CI1CI2 SLP196

CYQF;2018-10-06 16:00;CYQF 061600Z 20004KT 170V230 12SM FEW200 FEW250 00/M02 A2998 RMK CI1CI2 CI TR SLP194

CYQF;2018-10-06 17:00;CYQF 061700Z 26005KT 15SM FEW250 03/M02 A2999 RMK CI2 SLP196

CYQF;2018-10-06 18:00;CYQF 061800Z 27003KT 160V310 15SM FEW250 06/M02 A2999 RMK CI2 SLP194

CYQF;2018-10-06 19:00;CYQF 061900Z VRB02KT 15SM FEW250 09/M03 A2999 RMK CI2 SLP191

CYQF;2018-10-06 20:00;CYQF 062000Z VRB05KT 15SM FEW040 FEW250 11/M04 A2998 RMK SC1CI2 SC TR SLP188 DENSITY ALT 3200FT

CYQF;2018-10-06 21:00;CYQF 062100Z 34003KT 300V030 15SM FEW040 FEW210 12/M06 A2999 RMK SC1CI1 SLP189 DENSITY ALT 3200FT

CYQF;2018-10-06 22:00;CYQF 062200Z 32008KT 300V030 15SM FEW040 FEW250 12/M06 A2999 RMK SC1CI1 SC TR SLP191 DENSITY ALT 3200FT

CYQF;2018-10-06 23:00;CYQF 062300Z 35004KT 260V010 15SM FEW050 FEW250 12/M07 A3000 RMK SC1CI1 CI TR SLP194 DENSITY ALT 3200FT

CYQF;2018-10-07 00:00;CYQF 070000Z 02007KT 15SM FEW050 FEW120 10/M04 A3001 RMK SC1AC2 SC TR SLP202 DENSITY ALT 3000FT

CYQF;2018-10-07 01:00;CYQF 070100Z 02005KT 15SM BKN110 07/M04 A3003 RMK AC5 SLP212

CYQF;2018-10-07 02:00;CYQF 070200Z 11003KT 15SM BKN100 07/M03 A3004 RMK AC7 SLP215

CYQF;2018-10-07 03:00;CYQF 070300Z 00000KT 15SM BKN100 06/M03 A3005 RMK AC7 SLP217

CYQF;2018-10-07 04:00;CYQF 070400Z 23002KT 15SM BKN110 04/M02 A3006 RMK AC7 SLP218

CYQF;2018-10-07 05:00;CYQF 070500Z 24002KT 15SM FEW080 OVC110 03/M02 A3007 RMK AC1AC7 SLP218

CYQF;2018-10-07 06:00;CYQF 070600Z VRB02KT 15SM FEW080 OVC110 02/M02 A3008 RMK AC1AC7 SLP219

CYQF;2018-10-07 07:00;CYQF 070700Z 18004KT 15SM SCT080 OVC110 01/M02 A3007 RMK AC3AC5 SLP215

CYQF;2018-10-07 08:00;CYQF 070800Z 01006KT 15SM OVC110 00/M02 A3009 RMK AC8 SLP219

CYQF;2018-10-07 09:00;CYQF 070900Z 00000KT 15SM FEW080 FEW110 M00/M03 A3009 RMK AC1AC1 SLP219

CYQF;2018-10-07 10:00;CYQF 071000Z 35003KT 15SM SKC 00/M02 A3009 RMK SLP220

CYQF;2018-10-07 11:00;CYQF 071100Z 05004KT 15SM OVC110 M01/M03 A3009 RMK AC8 SLP220

CYQF;2018-10-07 12:00;CYQF 071200Z 10003KT 15SM OVC110 00/M02 A3009 RMK AC8 SLP219

CYQF;2018-10-07 13:00;CYQF 071300Z 01006KT 15SM BKN100 M00/M02 A3009 RMK AC7 SLP224

CYQF;2018-10-07 14:00;CYQF 071400Z 04003KT 15SM BKN110 BKN220 M01/M02 A3010 RMK AC5CI1 SLP228

CYQF;2018-10-07 15:00;CYQF 071500Z 00000KT 15SM BKN120 BKN220 M01/M02 A3010 RMK AC6CI1 SLP231

CYQF;2018-10-07 16:00;CYQF 071600Z 04005KT 350V050 15SM BKN120 BKN250 02/M00 A3012 RMK AC5CI1 SLP237

CYQF;2018-10-07 17:00;CYQF 071700Z 08004KT 15SM FEW120 BKN250 05/M01 A3011 RMK AC2CI4 SLP231

CYQF;2018-10-07 18:00;CYQF 071800Z 07006KT 050V120 15SM FEW120 BKN250 07/M00 A3010 RMK AC1CI5 SLP226

CYQF;2018-10-07 19:00;CYQF 071900Z 10006KT 15SM FEW120 BKN250 10/M02 A3009 RMK AC2CI4 SLP220

CYQF;2018-10-07 20:00;CYQF 072000Z 17009KT 130V190 15SM SCT110 BKN250 11/M02 A3007 RMK AC3CI2 SLP214 DENSITY ALT 3000FT

CYQF;2018-10-07 21:00;CYQF 072100Z 13007KT 15SM FEW020 SCT110 BKN260 11/M02 A3006 RMK SC1AC3CI3 SC TR SLP211 DENSITY ALT 3100FT

CYQF;2018-10-07 22:00;CYQF 072200Z 14006KT 120V180 15SM FEW040 SCT100 BKN250 11/M01 A3006 RMK CU1AC3CI3 CU TR SLP209 DENSITY ALT 3100FT

CYQF;2018-10-07 23:00;CYQF 072300Z 15005KT 120V190 15SM FEW120 BKN250 12/M02 A3005 RMK AC2CI3 SLP206 DENSITY ALT 3200FT

CYQF;2018-10-08 00:00;CYQF 080000Z 11004KT 15SM SCT080 BKN260 11/M02 A3005 RMK AC4CI2 SLP206 DENSITY ALT 3000FT

CYQF;2018-10-08 01:00;CYQF 080100Z 07007KT 15SM BKN065 BKN090 BKN260 08/M00 A3005 RMK SC5AC1CI1 VIRGA SW-N SLP212

CYQF;2018-10-08 02:00;CYQF 080200Z 08012KT 15SM BKN065 OVC090 06/01 A3007 RMK SC7AC1 SLP220

CYQF;2018-10-08 03:00;CYQF 080300Z 04008KT 15SM BKN060 OVC090 05/01 A3008 RMK SC6AC2 SLP224

CYQF;2018-10-08 04:00;CYQF 080400Z 04007KT 15SM OVC070 04/01 A3010 RMK AC8 SLP228

CYQF;2018-10-08 05:00;CYQF 080500Z 06008KT 15SM BKN080 02/00 A3010 RMK AC7 SLP227

CYQF;2018-10-08 06:00;CYQF 080600Z 04009KT 15SM OVC085 01/M00 A3010 RMK AC8 SLP227

CYQF;2018-10-08 07:00;CYQF 080700Z 07010KT 15SM OVC085 01/M00 A3010 RMK AC8 SLP225

CYQF;2018-10-08 08:00;CYQF 080800Z 02009KT 15SM SCT009 OVC060 01/M00 A3013 RMK ST3SC5 SLP234

CYQF;2018-10-08 09:00;CYQF 080900Z 03011KT 10SM -SN OVC006 01/M00 A3015 RMK ST8 SLP240

CYQF;2018-10-08 10:00;CYQF 081000Z 02010G16KT 8SM -SN OVC007 M00/M01 A3017 RMK ST8 SLP247

CYQF;2018-10-08 10:51;CYQF 081051Z 02013G18KT 2SM -SN SCT006 OVC024 M02/M03 A3019 RMK ST4SC4 SLP255

CYQF;2018-10-08 11:00;CYQF 081100Z 02014KT 1 1/2SM -SN BKN006 VV015 M02/M03 A3019 RMK ST5SN3 SLP257

CYQF;2018-10-08 12:00;CYQF 081200Z 01009KT 1 1/2SM -SN BKN008 OVC025 M03/M03 A3021 RMK ST6SC2 CIG VRB 6-10 SLP265

CYQF;2018-10-08 12:15;CYQF 081215Z 01008KT 3SM -SN OVC008 M03/M04 A3021 RMK ST8 SLP267

CYQF;2018-10-08 13:00;CYQF 081300Z 02010KT 10SM -SN OVC008 M03/M04 A3022 RMK SC8 SLP274

CYQF;2018-10-08 13:49;CYQF 081349Z 02010KT 10SM OVC007 M03/M04 A3024 RMK SC8 SLP280

CYQF;2018-10-08 14:00;CYQF 081400Z 02010KT 10SM OVC007 M03/M04 A3025 RMK SC8 SLP284

CYQF;2018-10-08 15:00;CYQF 081500Z 03010KT 12SM OVC008 M03/M05 A3026 RMK SC8 SLP291

CYQF;2018-10-08 16:00;CYQF 081600Z 04009KT 4SM BR OVC007 M04/M05 A3027 RMK ST8 SLP295

CYQF;2018-10-08 17:00;CYQF 081700Z 05009KT 4SM BR OVC006 M04/M04 A3027 RMK SC8 SLP298

CYQF;2018-10-08 17:47;CYQF 081747Z 03007KT 5SM -SN BR OVC006 M03/M04 A3027 RMK ST8 SLP297

CYQF;2018-10-08 18:00;CYQF 081800Z 05007KT 5SM -SN BR OVC005 M03/M04 A3028 RMK ST8 SLP299

CYQF;2018-10-08 19:00;CYQF 081900Z 06005KT 5SM -SN BR OVC005 M03/M04 A3027 RMK SC8 SLP297

CYQF;2018-10-08 20:00;CYQF 082000Z 04006KT 010V080 6SM -SN BR OVC006 M03/M04 A3025 RMK SC8 SLP291

CYQF;2018-10-08 20:46;CYQF 082046Z 06007KT 6SM BR OVC007 M03/M04 A3024 RMK SC8 SLP287

CYQF;2018-10-08 21:00;CYQF 082100Z 05005KT 8SM OVC008 M03/M04 A3024 RMK ST8 SLP287

CYQF;2018-10-08 22:00;CYQF 082200Z 07007KT 10SM OVC010 M02/M04 A3023 RMK SC8 SLP286

CYQF;2018-10-08 22:42;CYQF 082242Z 08006KT 10SM OVC006 M02/M03 A3022 RMK SC8 SLP281

CYQF;2018-10-08 23:00;CYQF 082300Z 07007KT 10SM OVC006 M02/M03 A3021 RMK SC8 SLP281

CYQF;2018-10-09 00:00;CYQF 090000Z 08010KT 10SM OVC008 M03/M04 A3022 RMK SC8 SLP283

CYQF;2018-10-09 01:00;CYQF 090100Z 10008KT 6SM BR OVC007 M03/M04 A3021 RMK SC8 SLP280

CYQF;2018-10-09 02:00;CYQF 090200Z 11008KT 12SM OVC008 M03/M04 A3021 RMK ST8 SLP282

CYQF;2018-10-09 03:00;CYQF 090300Z 11009KT 12SM OVC008 M03/M04 A3020 RMK ST8 SLP280

CYQF;2018-10-09 04:00;CYQF 090400Z 12009G15KT 12SM OVC007 M03/M04 A3020 RMK ST8 SLP279

CYQF;2018-10-09 05:00;CYQF 090500Z 11007KT 10SM -SN OVC008 M03/M04 A3021 RMK ST8 SLP282

CYQF;2018-10-09 06:00;CYQF 090600Z 11008KT 8SM -FZDZ -SN OVC009 M03/M04 A3020 RMK SC8 SLP280

CYQF;2018-10-09 06:34;CYQF 090634Z 12010KT 10SM -SN OVC009 M03/M04 A3020 RMK SC8 SLP279

CYQF;2018-10-09 07:00;CYQF 090700Z 10007KT 12SM -SN OVC008 M03/M04 A3020 RMK SC8 SLP279

CYQF;2018-10-09 08:00;CYQF 090800Z 10009KT 5SM -SN OVC008 M03/M04 A3022 RMK SC8 CIG RAG SLP284

CYQF;2018-10-09 09:00;CYQF 090900Z 09010KT 3SM -SN OVC006 M03/M04 A3022 RMK SC8 CIG RAG SLP284

CYQF;2018-10-09 09:16;CYQF 090916Z 09010KT 2SM -FZDZ -SN OVC006 M03/M04 A3022 RMK SC8 SLP284

CYQF;2018-10-09 09:47;CYQF 090947Z 09008KT 5SM -FZDZ -SN OVC010 M03/M04 A3022 RMK SC8 CIG RAG SLP286

CYQF;2018-10-09 10:00;CYQF 091000Z 09009KT 5SM -SN OVC009 M03/M05 A3023 RMK SC8 CIG RAG SLP287

CYQF;2018-10-09 11:00;CYQF 091100Z 09009KT 5SM -SN OVC007 M04/M05 A3024 RMK SC8 CIG RAG SLP291

CYQF;2018-10-09 12:00;CYQF 091200Z 08007KT 5SM -SN BKN010 OVC030 M04/M05 A3025 RMK SC6SC2 SLP296

CYQF;2018-10-09 12:23;CYQF 091223Z 07007KT 6SM -SN BKN008 OVC030 M04/M05 A3026 RMK SC7SC1 CIG RAG SLP298

CYQF;2018-10-09 13:00;CYQF 091300Z 09010KT 6SM -SN OVC008 M04/M06 A3027 RMK SC8 SLP303

CYQF;2018-10-09 14:00;CYQF 091400Z 08006KT 6SM -SN OVC006 M04/M05 A3029 RMK SC8 SLP310

CYQF;2018-10-09 15:00;CYQF 091500Z 09006KT 6SM -SN OVC006 M05/M05 A3030 RMK SC8 SLP316

CYQF;2018-10-09 16:00;CYQF 091600Z 06008KT 6SM -SN OVC005 M05/M05 A3031 RMK SC8 SLP319

CYQF;2018-10-09 16:29;CYQF 091629Z 06007KT 2 1/2SM -SN OVC004 M05/M05 A3031 RMK SC8 SLP319

CYQF;2018-10-09 17:00;CYQF 091700Z 06007KT 2 1/2SM -SN OVC005 M05/M05 A3032 RMK SC8 SLP320

CYQF;2018-10-09 18:00;CYQF 091800Z 07005KT 3SM -SN OVC006 M04/M05 A3033 RMK SC8 SLP325

CYQF;2018-10-09 19:00;CYQF 091900Z 05008KT 4SM -SN OVC006 M04/M05 A3033 RMK SC8 SLP325

CYQF;2018-10-09 20:00;CYQF 092000Z 06006KT 4SM -SN OVC009 M04/M05 A3034 RMK SC8 SLP326

CYQF;2018-10-09 21:00;CYQF 092100Z 07007KT 6SM -SN OVC014 M03/M05 A3033 RMK SC8 SLP325

CYQF;2018-10-09 22:00;CYQF 092200Z 06007KT 7SM OVC010 M04/M06 A3033 RMK SC8 SLP325

CYQF;2018-10-09 23:00;CYQF 092300Z 07006KT 7SM OVC010 M04/M05 A3033 RMK SC8 SLP324

CYQF;2018-10-09 23:41;CYQF 092341Z 08007KT 6SM -SN OVC009 M04/M05 A3032 RMK SC8 SLP323

CYQF;2018-10-10 00:00;CYQF 100000Z 09006KT 6SM -SN OVC009 M04/M05 A3033 RMK SC8 SLP324

CYQF;2018-10-10 01:00;CYQF 100100Z 09006KT 10SM -SN OVC010 M04/M05 A3033 RMK SC8 SLP324

CYQF;2018-10-10 02:00;CYQF 100200Z 10004KT 10SM -SN OVC010 M04/M05 A3033 RMK SC8 SLP324

CYQF;2018-10-10 03:00;CYQF 100300Z 11005KT 12SM -SN OVC011 M03/M05 A3032 RMK SC8 -SN INTMT SLP322

CYQF;2018-10-10 04:00;CYQF 100400Z 13006KT 12SM OVC011 M03/M05 A3031 RMK SC8 INTMT -SN SLP319

CYQF;2018-10-10 04:32;CYQF 100432Z 14007KT 12SM OVC011 M03/M05 A3031 RMK SC8 SLP317

CYQF;2018-10-10 05:00;CYQF 100500Z 13005KT 12SM OVC009 M03/M04 A3030 RMK SC8 SLP315

CYQF;2018-10-10 05:20;CYQF 100520Z 13007KT 12SM -SN OVC008 M03/M04 A3030 RMK SC8 SLP313

CYQF;2018-10-10 06:00;CYQF 100600Z 13007KT 15SM -SN OVC009 M03/M04 A3029 RMK SC8 CIG RAG SLP310

CYQF;2018-10-10 07:00;CYQF 100700Z 14009KT 12SM -SN OVC006 M03/M04 A3027 RMK SC8 SLP304

CYQF;2018-10-10 07:37;CYQF 100737Z 14009KT 10SM OVC005 M03/M03 A3026 RMK ST8 SLP300

CYQF;2018-10-10 08:00;CYQF 100800Z 14009KT 10SM OVC005 M03/M03 A3026 RMK ST8 SLP299

CYQF;2018-10-10 09:00;CYQF 100900Z 15008KT 6SM BR OVC005 M02/M03 A3025 RMK ST8 SLP295

CYQF;2018-10-10 10:00;CYQF 101000Z 14012KT 6SM BR OVC004 M03/M03 A3023 RMK ST8 SLP289

CYQF;2018-10-10 11:00;CYQF 101100Z 16012KT 6SM -SN BR OVC005 M02/M03 A3022 RMK ST8 SLP286

CYQF;2018-10-10 12:00;CYQF 101200Z 15011KT 5SM -SN BR OVC005 M02/M03 A3021 RMK SC8 CIG RAG SLP281

CYQF;2018-10-10 12:23;CYQF 101223Z 15011KT 6SM BR OVC005 M02/M03 A3020 RMK SC8 SLP279

CYQF;2018-10-10 12:44;CYQF 101244Z 15012KT 6SM -SN BR OVC004 M02/M03 A3020 RMK SC8 CIG RAG SLP278

CYQF;2018-10-10 13:00;CYQF 101300Z 15010KT 6SM -SN OVC005 M02/M03 A3020 RMK SC8 SLP277

CYQF;2018-10-10 13:27;CYQF 101327Z 15013G18KT 4SM -SN BR OVC003 M02/M03 A3020 RMK ST8 SLP276

CYQF;2018-10-10 13:43;CYQF 101343Z 15012KT 1 1/2SM -SN BR OVC003 M02/M02 A3020 RMK FG2ST6 SLP276

CYQF;2018-10-10 14:00;CYQF 101400Z 15012KT 1 1/2SM -SN BR OVC003 M02/M02 A3019 RMK FG2ST6 VIS VRB 1-2 SLP275

CYQF;2018-10-10 15:00;CYQF 101500Z 14014KT 1 1/2SM -SN BR OVC004 M02/M02 A3019 RMK FG1ST7 VIS VRB 1-2 SLP272

CYQF;2018-10-10 15:34;CYQF 101534Z 15012G17KT 2 1/2SM BR OVC005 M02/M02 A3018 RMK SC8 SLP270

CYQF;2018-10-10 15:50;CYQF 101550Z 15012KT 3SM BR OVC005 M02/M02 A3018 RMK SC8 SLP268

CYQF;2018-10-10 16:00;CYQF 101600Z 15011KT 3SM BR OVC006 M01/M02 A3018 RMK SC8 SLP268

CYQF;2018-10-10 17:00;CYQF 101700Z 16009G16KT 4SM BR OVC007 M01/M02 A3018 RMK SC8 CIG RAG SLP267

CYQF;2018-10-10 18:00;CYQF 101800Z 16013G18KT 8SM OVC009 M01/M03 A3017 RMK SC8 SLP264

CYQF;2018-10-10 19:00;CYQF 101900Z 17011G17KT 8SM OVC009 M01/M03 A3017 RMK SC8 SLP263

CYQF;2018-10-10 20:00;CYQF 102000Z 18014KT 8SM OVC010 M01/M03 A3015 RMK SC8 SLP256

CYQF;2018-10-10 21:00;CYQF 102100Z 17013KT 8SM OVC010 M00/M03 A3012 RMK SC8 SLP248

CYQF;2018-10-10 22:00;CYQF 102200Z 17012G17KT 8SM OVC014 M00/M03 A3012 RMK SC8 SLP247

CYQF;2018-10-10 23:00;CYQF 102300Z 17009KT 8SM OVC014 M00/M02 A3012 RMK SC8 SLP246

CYQF;2018-10-11 00:00;CYQF 110000Z 16011KT 8SM OVC014 M00/M03 A3013 RMK SC8 SLP250

CYQF;2018-10-11 01:00;CYQF 110100Z 16005KT 8SM OVC014 M01/M03 A3012 RMK SC8 SLP246

CYQF;2018-10-11 02:00;CYQF 110200Z 19005KT 10SM OVC014 M00/M03 A3012 RMK SC8 SLP245

CYQF;2018-10-11 02:20;CYQF 110220Z 15004KT 10SM OVC015 M00/M03 A3012 RMK SC8 SLP245

CYQF;2018-10-11 03:00;CYQF 110300Z 16004KT 10SM OVC016 M00/M02 A3012 RMK SC8 SLP247

CYQF;2018-10-11 04:00;CYQF 110400Z 13003KT 12SM OVC020 M00/M02 A3013 RMK SC8 SLP248

CYQF;2018-10-11 05:00;CYQF 110500Z 21002KT 12SM OVC020 M00/M02 A3011 RMK SC8 SLP243

CYQF;2018-10-11 06:00;CYQF 110600Z 20004KT 12SM OVC024 M01/M02 A3010 RMK SC8 SLP240

CYQF;2018-10-11 06:11;CYQF 110611Z 19004KT 10SM -SN OVC024 M01/M02 A3010 RMK SC8 SLP237

CYQF;2018-10-11 07:00;CYQF 110700Z 23002KT 12SM -SN OVC024 M01/M02 A3010 RMK SC8 SLP236

CYQF;2018-10-11 07:14;CYQF 110714Z 25002KT 12SM OVC022 M01/M02 A3010 RMK SC8 SLP236

CYQF;2018-10-11 08:00;CYQF 110800Z 28002KT 10SM -SN OVC024 M01/M02 A3009 RMK SC8 SLP233

CYQF;2018-10-11 09:00;CYQF 110900Z 32004KT 6SM -SN FEW010 OVC023 M01/M02 A3008 RMK SC2SC6 SLP229

CYQF;2018-10-11 10:00;CYQF 111000Z 33002KT 6SM -SN FEW009 OVC022 M01/M02 A3007 RMK SC2SC6 SLP226

CYQF;2018-10-11 10:24;CYQF 111024Z 23002KT 6SM BR SCT020 M03/M03 A3006 RMK SC4 SLP226

CYQF;2018-10-11 10:35;CYQF 111035Z 27004KT 6SM BR SCT006 BKN020 M03/M03 A3007 RMK ST4SC1 SLP228

CYQF;2018-10-11 11:00;CYQF 111100Z 26002KT 8SM OVC008 M03/M04 A3007 RMK SC8 CIG RAG SLP228

CYQF;2018-10-11 11:28;CYQF 111128Z VRB02KT 10SM FEW008 OVC017 M03/M04 A3007 RMK SC2SC6 SLP229

CYQF;2018-10-11 11:47;CYQF 111147Z 00000KT 12SM FEW008 SCT015 M05/M05 A3006 RMK SC1SC2 SLP228

CYQF;2018-10-11 12:00;CYQF 111200Z 00000KT 10SM FEW015 M05/M05 A3006 RMK SC2 SLP227

CYQF;2018-10-11 13:00;CYQF 111300Z 19004KT 8SM BCFG FEW015 M06/M06 A3005 RMK SC2 VIS NW 2 SLP225

CYQF;2018-10-11 13:29;CYQF 111329Z 20004KT 3SM BR FEW009 FEW015 M06/M07 A3004 RMK SF1SC2 SF TR SLP222

CYQF;2018-10-11 13:44;CYQF 111344Z 22003KT 1SM BR FEW015 M08/M08 A3004 RMK SC1 SLP225

CYQF;2018-10-11 14:00;CYQF 111400Z 22002KT 1SM BR FEW015 M07/M08 A3004 RMK SC1 SLP222

CYQF;2018-10-11 14:32;CYQF 111432Z 21004KT 3SM BR FEW030 M05/M06 A3003 RMK SC1 SC TR SLP218

CYQF;2018-10-11 15:00;CYQF 111500Z 19004KT 5SM BR FEW060 M05/M05 A3002 RMK SC1 SC TR SLP215

CYQF;2018-10-11 16:00;CYQF 111600Z 18004KT 6SM BR FEW250 M02/M02 A3000 RMK CI1 CI TR SLP206

CYQF;2018-10-11 17:00;CYQF 111700Z 14005KT 8SM FEW015 01/M02 A2999 RMK SC1 SC TR WND ESTD SLP195

CYQF;2018-10-11 18:00;CYQF 111800Z 18008KT 8SM FEW020 SCT250 03/M02 A2997 RMK SC2CI1 SLP189

CYQF;2018-10-11 19:00;CYQF 111900Z 19012KT 10SM FEW020 SCT250 04/M02 A2995 RMK SC1CI4 SC TR SLP180

CYQF;2018-10-11 20:00;CYQF 112000Z 18009G15KT 12SM FEW180 BKN250 05/M02 A2991 RMK AC1CI5 SLP166

CYQF;2018-10-11 21:00;CYQF 112100Z 20008KT 12SM SCT180 BKN250 06/M02 A2989 RMK AC3CI3 SLP156

CYQF;2018-10-11 22:00;CYQF 112200Z 19008KT 12SM BKN100 OVC250 06/M01 A2987 RMK AC7CI1 SLP151

CYQF;2018-10-11 23:00;CYQF 112300Z 18009KT 15SM BKN100 BKN250 07/M01 A2985 RMK AC5CC2 SLP144

CYQF;2018-10-12 00:00;CYQF 120000Z 18007KT 15SM SCT060 BKN100 05/M01 A2983 RMK SC4AC3 SLP142

CYQF;2018-10-12 01:00;CYQF 120100Z 19007KT 10SM BKN070 OVC250 04/M00 A2982 RMK AC6CI2 SLP142

CYQF;2018-10-12 02:00;CYQF 120200Z 19007KT 12SM SCT050 OVC080 03/M00 A2982 RMK SC3AC5 SLP142

CYQF;2018-10-12 02:37;CYQF 120237Z 19007KT 12SM -SHRA OVC040 03/00 A2981 RMK SC8 CVCTV CLD EMBD SLP139

CYQF;2018-10-12 03:00;CYQF 120300Z 16005KT 12SM -SHRA SCT040 OVC060 03/01 A2980 RMK CU3SC5 SLP133

CYQF;2018-10-12 04:00;CYQF 120400Z 20005KT 12SM -SHRA OVC060 03/01 A2979 RMK SC8 CVCTV CLD EMBD SLP126

CYQF;2018-10-12 05:00;CYQF 120500Z 19006KT 15SM OVC050 03/01 A2976 RMK SC8 SLP114

CYQF;2018-10-12 06:00;CYQF 120600Z 18006KT 15SM OVC051 03/01 A2974 RMK SC8 SLP105

CYQF;2018-10-12 07:00;CYQF 120700Z 19004KT 15SM OVC048 04/01 A2973 RMK SC8 SLP099

CYQF;2018-10-12 08:00;CYQF 120800Z 20004KT 15SM OVC060 04/01 A2972 RMK SC8 SLP094

CYQF;2018-10-12 09:00;CYQF 120900Z 21002KT 15SM BKN060 BKN140 OVC230 02/00 A2971 RMK SC5AC2CI1 SLP090

CYQF;2018-10-12 10:00;CYQF 121000Z 00000KT 15SM BKN055 OVC140 04/01 A2970 RMK SC5AC3 SLP085

CYQF;2018-10-12 11:00;CYQF 121100Z 19006KT 15SM BKN140 OVC250 02/M00 A2967 RMK AC5CI3 SLP079

CYQF;2018-10-12 12:00;CYQF 121200Z 19007KT 15SM BKN120 BKN250 01/M00 A2963 RMK AC6CI1 SLP065

CYQF;2018-10-12 13:00;CYQF 121300Z 16005KT 15SM BKN100 01/M01 A2958 RMK AC7 PRESFR SLP050

CYQF;2018-10-12 14:00;CYQF 121400Z 21004KT 180V250 15SM VCSH FEW050 BKN100 02/M00 A2956 RMK CU2AC5 SLP044

CYQF;2018-10-12 15:00;CYQF 121500Z 21005KT 15SM VCSH SCT080 BKN110 03/00 A2953 RMK ACC3AC3 SLP032

CYQF;2018-10-12 16:00;CYQF 121600Z 23004KT 180V250 15SM SCT070 SCT120 07/01 A2951 RMK ACC3AC1 SLP021 DENSITY ALT 3300FT

CYQF;2018-10-12 17:00;CYQF 121700Z 34017G26KT 15SM BKN080 BKN120 08/02 A2959 RMK ACC6AC1 SLP047 DENSITY ALT 3300FT

CYQF;2018-10-12 17:31;CYQF 121731Z 01018G24KT 15SM -SHRA FEW060 BKN100 07/04 A2959 RMK CU2AC4 SLP047 DENSITY ALT 3100FT

CYQF;2018-10-12 18:00;CYQF 121800Z 03008KT 340V050 15SM -SHRA BKN080 BKN250 06/04 A2959 RMK ACC6CI1 SLP048 DENSITY ALT 3000FT

CYQF;2018-10-12 19:00;CYQF 121900Z 35006KT 15SM -SHRA BKN070 BKN250 07/04 A2960 RMK ACC5CI2 SLP051 DENSITY ALT 3100FT

CYQF;2018-10-12 19:32;CYQF 121932Z 29005KT 15SM VCSH SCT070 BKN160 BKN250 09/05 A2961 RMK ACC3AC3CI1 TCU EMBD SLP054 DENSITY ALT 3300FT

CYQF;2018-10-12 20:00;CYQF 122000Z 32010G17KT 15SM VCSH FEW016 SCT080 BKN150 BKN250 09/05 A2961 RMK SF1ACC2AC2CI2 SLP053 DENSITY ALT 3400FT

CYQF;2018-10-12 21:00;CYQF 122100Z 33026G35KT 15SM BKN040 OVC100 09/02 A2966 RMK SC5ACC3 PRESRR SLP069 DENSITY ALT 3300FT

CYQF;2018-10-12 21:55;CYQF 122155Z 33030G42KT 12SM -SHRA BKN025 OVC100 07/01 A2971 RMK SC7AC1 PRESRR SLP088 DENSITY ALT 3000FT

CYQF;2018-10-12 22:00;CYQF 122200Z CCA 34032G42KT 12SM -SHRA BKN025 OVC100 06/02 A2972 RMK SC6AC2 PRESRR SLP094

CYQF;2018-10-12 22:23;CYQF 122223Z 33030G40KT 12SM BKN021 OVC100 04/00 A2977 RMK SC7AC1 PRESRR SLP113

CYQF;2018-10-12 22:48;CYQF 122248Z 34027G36KT 12SM SCT009 OVC020 03/M00 A2981 RMK SF3SC5 VCSH PRESRR SLP128

CYQF;2018-10-12 23:00;CYQF 122300Z 34027G36KT 12SM VCSH FEW009 BKN020 OVC120 02/M01 A2983 RMK SF2SC3ACC3 PRESRR SLP137

CYQF;2018-10-12 23:15;CYQF 122315Z 33020G32KT 12SM -RA BKN012 OVC120 02/M00 A2985 RMK SC6AC2 PRESRR SLP144

CYQF;2018-10-13 00:00;CYQF 130000Z 33015G29KT 12SM -RA VCSH BKN012 OVC035 01/M02 A2988 RMK SC5SC3 VIS S 6 SLP158

CYQF;2018-10-13 00:12;CYQF 130012Z 33016G23KT 12SM -SN BKN012 OVC040 01/M01 A2989 RMK SC5SC3 SLP161

CYQF;2018-10-13 00:28;CYQF 130028Z 33020G29KT 15SM BKN014 OVC100 01/M02 A2990 RMK SC5AC3 SLP163

CYQF;2018-10-13 01:00;CYQF 130100Z 33016G24KT 15SM BKN020 BKN120 OVC250 00/M03 A2991 RMK SC5AC1CI2 SLP170

CYQF;2018-10-13 02:00;CYQF 130200Z 33021G29KT 15SM SCT020 OVC150 M00/M04 A2996 RMK SC4AC4 SLP185

CYQF;2018-10-13 03:00;CYQF 130300Z 34017G26KT 15SM FEW020 BKN040 OVC150 M01/M04 A3000 RMK SC2SC4AC2 SLP198

CYQF;2018-10-13 03:22;CYQF 130322Z 33020G30KT 12SM -SN SCT018 OVC040 M01/M03 A3000 RMK SC4SC4 SLP201

CYQF;2018-10-13 04:00;CYQF 130400Z 34019G25KT 12SM -SN FEW018 OVC040 M01/M04 A3002 RMK SC2SC6 SLP201

CYQF;2018-10-13 04:19;CYQF 130419Z 33018G28KT 15SM FEW018 OVC031 M01/M04 A3003 RMK SC2SC6 SLP205

CYQF;2018-10-13 04:30;CYQF 130430Z 34021G31KT 12SM -SN FEW018 OVC030 M01/M04 A3004 RMK SC1SC7 SLP208

CYQF;2018-10-13 05:00;CYQF 130500Z 34015G23KT 12SM -SN FEW020 OVC035 M01/M04 A3005 RMK SC2SC6 -SN INTMT SLP212

CYQF;2018-10-13 06:00;CYQF 130600Z 34016G24KT 12SM SCT020 OVC037 M01/M05 A3007 RMK SC3SC5 INTMT -SN SLP221

CYQF;2018-10-13 06:08;CYQF 130608Z 34016G22KT 12SM FEW020 OVC040 M01/M05 A3008 RMK SC2SC6 SLP222

CYQF;2018-10-13 07:00;CYQF 130700Z 34013G20KT 12SM OVC037 M01/M05 A3009 RMK SC8 SLP227

CYQF;2018-10-13 08:00;CYQF 130800Z 34010G17KT 12SM OVC038 M02/M05 A3011 RMK SC8 SLP230

CYQF;2018-10-13 09:00;CYQF 130900Z 33008G15KT 12SM FEW020 OVC036 M02/M05 A3012 RMK SC2SC6 SLP235

CYQF;2018-10-13 10:00;CYQF 131000Z 34010KT 12SM FEW020 OVC036 M02/M06 A3013 RMK SC2SC6 SLP242

CYQF;2018-10-13 11:00;CYQF 131100Z 35017G25KT 12SM SCT020 OVC031 M02/M07 A3015 RMK SC3SC5 SLP254

CYQF;2018-10-13 12:00;CYQF 131200Z 35012G22KT 12SM OVC034 M03/M08 A3016 RMK SC8 SLP259

CYQF;2018-10-13 13:00;CYQF 131300Z 34013KT 15SM OVC031 M03/M08 A3017 RMK SC8 SLP262

CYQF;2018-10-13 13:15;CYQF 131315Z 33012G17KT 15SM -SN OVC031 M03/M07 A3017 RMK SC8 SLP263

CYQF;2018-10-13 14:00;CYQF 131400Z 34009G15KT 15SM -SN OVC028 M03/M07 A3018 RMK SC8 SLP266

CYQF;2018-10-13 14:22;CYQF 131422Z 35010KT 1SM -SN OVC021 M03/M07 A3019 RMK SN3SC5 SLP271

CYQF;2018-10-13 14:34;CYQF 131434Z 35009KT 3SM -SN FEW015 OVC022 M03/M06 A3019 RMK SF1SC7 CIG RAG SLP272

CYQF;2018-10-13 15:00;CYQF 131500Z 35007KT 8SM -SN BKN023 OVC080 M03/M06 A3019 RMK SC5AC3 SLP271

CYQF;2018-10-13 15:46;CYQF 131546Z 01009G16KT 12SM SCT020 OVC035 M03/M07 A3021 RMK SC3SC5 SLP280

CYQF;2018-10-13 16:00;CYQF 131600Z 02011KT 12SM FEW010 OVC034 M03/M08 A3022 RMK CF2SC6 SLP282

CYQF;2018-10-13 17:00;CYQF 131700Z 35007KT 15SM FEW015 OVC035 M02/M07 A3023 RMK CF1SC7 SLP285

CYQF;2018-10-13 18:00;CYQF 131800Z 33006KT 15SM OVC027 M01/M07 A3024 RMK SC8 SLP289

CYQF;2018-10-13 18:39;CYQF 131839Z 34012KT 12SM -SN OVC026 M01/M07 A3025 RMK SC8 SLP291

CYQF;2018-10-13 19:00;CYQF 131900Z 35012KT 12SM -SN OVC028 M01/M07 A3026 RMK SC8 SLP294

CYQF;2018-10-13 19:47;CYQF 131947Z 34012KT 15SM OVC026 M01/M07 A3026 RMK SC8 SLP293

CYQF;2018-10-13 20:00;CYQF 132000Z 34010G16KT 15SM OVC026 M01/M07 A3026 RMK SC8 SLP295

CYQF;2018-10-13 20:37;CYQF 132037Z 34009KT 15SM -SN OVC024 M01/M06 A3026 RMK SC8 SLP293

CYQF;2018-10-13 21:00;CYQF 132100Z 33008KT 15SM BKN024 OVC060 M00/M05 A3026 RMK SC7SC1 SLP292

CYQF;2018-10-13 22:00;CYQF 132200Z 33009KT 15SM BKN030 OVC060 M00/M05 A3028 RMK SC7SC1 SLP299

CYQF;2018-10-13 23:00;CYQF 132300Z 34010KT 15SM OVC037 00/M05 A3027 RMK SC8 SLP297

CYQF;2018-10-14 00:00;CYQF 140000Z 34006KT 15SM BKN037 00/M05 A3028 RMK SC6 SLP300

CYQF;2018-10-14 01:00;CYQF 140100Z 01002KT 15SM BKN038 M01/M05 A3028 RMK SC6 SLP302

CYQF;2018-10-14 02:00;CYQF 140200Z 25003KT 15SM BKN040 M01/M05 A3029 RMK SC5 SLP305

CYQF;2018-10-14 03:00;CYQF 140300Z 23003KT 15SM BKN030 M01/M05 A3029 RMK SC5 SLP305

CYQF;2018-10-14 04:00;CYQF 140400Z 27005KT 15SM SCT030 M02/M04 A3030 RMK SC3 SLP310

CYQF;2018-10-14 05:00;CYQF 140500Z 26005KT 15SM FEW030 M03/M04 A3030 RMK SC2 SLP312

CYQF;2018-10-14 06:00;CYQF 140600Z 27005KT 15SM FEW030 M03/M04 A3030 RMK SC1 SLP310

CYQF;2018-10-14 07:00;CYQF 140700Z CCA 25006KT 15SM SKC M04/M04 A3030 RMK FROIN SLP310

CYQF;2018-10-14 08:00;CYQF 140800Z 25006KT 6SM BR SKC M04/M05 A3030 RMK SLP311

CYQF;2018-10-14 08:07;CYQF 140807Z 25005KT 2SM BR BKN002 M05/M05 A3030 RMK FG2ST4 VIS NW 10 SLP310

CYQF;2018-10-14 08:14;CYQF 140814Z 25006KT 4SM BR SCT002 M04/M05 A3029 RMK ST3 VIS NW 12 SLP309

CYQF;2018-10-14 09:00;CYQF 140900Z 25005KT 15SM SKC M06/M07 A3028 RMK SLP307

CYQF;2018-10-14 10:00;CYQF 141000Z 23004KT 15SM SKC M07/M08 A3028 RMK SLP306

CYQF;2018-10-14 11:00;CYQF 141100Z 20004KT 15SM SKC M09/M10 A3026 RMK FROIN SLP300

CYQF;2018-10-14 12:00;CYQF 141200Z 19004KT 15SM SCT250 M09/M10 A3024 RMK CI3 SLP294

CYQF;2018-10-14 13:00;CYQF 141300Z 20004KT 15SM SCT200 M09/M10 A3023 RMK CI3 SLP291

CYQF;2018-10-14 14:00;CYQF 141400Z 20004KT 15SM SCT240 M08/M09 A3021 RMK CI4 SLP286

CYQF;2018-10-14 15:00;CYQF 141500Z 20003KT 15SM SCT170 BKN250 M06/M06 A3020 RMK AC4CC2 SLP280

CYQF;2018-10-14 16:00;CYQF 141600Z 19005KT 15SM SCT170 BKN250 M04/M05 A3021 RMK AC4CC2 SLP280

CYQF;2018-10-14 17:00;CYQF 141700Z 20006KT 15SM SCT170 BKN220 M00/M03 A3018 RMK AC3CI3 SLP267

CYQF;2018-10-14 18:00;CYQF 141800Z 22008KT 15SM BKN140 BKN250 03/M04 A3016 RMK AC5CI2 SLP257

CYQF;2018-10-14 19:00;CYQF 141900Z 22011KT 15SM BKN130 BKN250 07/M05 A3013 RMK AC5CI2 SLP243

CYQF;2018-10-14 20:00;CYQF 142000Z 23010KT 15SM BKN140 BKN250 10/M06 A3010 RMK AC5CI1 SLP232

CYQF;2018-10-14 21:00;CYQF 142100Z 27009KT 15SM SCT090 BKN250 11/M05 A3008 RMK AC3CI2 SLP224 DENSITY ALT 3100FT

CYQF;2018-10-14 22:00;CYQF 142200Z 31009KT 270V330 15SM FEW120 BKN250 13/M01 A3006 RMK AC2CI3 SLP217 DENSITY ALT 3300FT

CYQF;2018-10-14 23:00;CYQF 142300Z 30008KT 15SM FEW120 BKN250 12/M00 A3005 RMK AC1CI5 SLP215 DENSITY ALT 3200FT

CYQF;2018-10-15 00:00;CYQF 150000Z 25004KT 15SM FEW120 BKN250 11/00 A3002 RMK AC1CI4 SLP207 DENSITY ALT 3200FT

CYQF;2018-10-15 01:00;CYQF 150100Z 21005KT 15SM FEW100 SCT250 08/M01 A3002 RMK AC1CI3 SLP210

CYQF;2018-10-15 02:00;CYQF 150200Z 22007KT 15SM FEW160 SCT250 03/M02 A3001 RMK AC2CI2 SLP211

CYQF;2018-10-15 03:00;CYQF 150300Z 24008KT 15SM BKN150 07/01 A3000 RMK AC7 SLP202

CYQF;2018-10-15 04:00;CYQF 150400Z 24005KT 15SM BKN150 02/M01 A3001 RMK AC7 SLP207

CYQF;2018-10-15 05:00;CYQF 150500Z 28007KT 15SM BKN150 08/M02 A3002 RMK AC5 SLP199

CYQF;2018-10-15 06:00;CYQF 150600Z 26006KT 15SM BKN150 06/M02 A3001 RMK AC6 SLP194

CYQF;2018-10-15 07:00;CYQF 150700Z 28008KT 15SM BKN160 07/M04 A3001 RMK AC6 SLP189

CYQF;2018-10-15 08:00;CYQF 150800Z 28008KT 15SM FEW150 06/M04 A3002 RMK AC1 SLP191

CYQF;2018-10-15 09:00;CYQF 150900Z 30009KT 15SM SKC 07/M03 A3004 RMK SLP195

CYQF;2018-10-15 10:00;CYQF 151000Z 32014G20KT 15SM SKC 10/M02 A3005 RMK SLP194

CYQF;2018-10-15 11:00;CYQF 151100Z 31009KT 15SM SKC 09/M01 A3007 RMK SLP203

CYQF;2018-10-15 12:00;CYQF 151200Z 30009KT 15SM SKC 08/M01 A3008 RMK SLP208

CYQF;2018-10-15 13:00;CYQF 151300Z 28004KT 15SM BKN250 05/M02 A3010 RMK CI5 SLP220

CYQF;2018-10-15 14:00;CYQF 151400Z 26005KT 15SM BKN250 03/M02 A3010 RMK CI6 SLP229

CYQF;2018-10-15 15:00;CYQF 151500Z 22003KT 15SM FEW140 BKN250 03/M01 A3011 RMK AC2CI4 SLP229

CYQF;2018-10-15 16:00;CYQF 151600Z 27003KT 15SM FEW140 BKN250 09/00 A3012 RMK AC1CI5 SLP232

CYQF;2018-10-15 17:00;CYQF 151700Z 30008G15KT 15SM FEW100 BKN250 12/00 A3012 RMK AC2CI5 SLP222 DENSITY ALT 3100FT

CYQF;2018-10-15 18:00;CYQF 151800Z 31011KT 15SM FEW100 BKN250 14/M00 A3011 RMK AC2CI5 SLP218 DENSITY ALT 3300FT

CYQF;2018-10-15 19:00;CYQF 151900Z 31013G19KT 15SM FEW060 FEW100 BKN250 15/M00 A3010 RMK CU1AC1CI5 SLP210 DENSITY ALT 3500FT

CYQF;2018-10-15 20:00;CYQF 152000Z 32016G24KT 15SM FEW060 FEW120 BKN250 17/M00 A3008 RMK CU1AC1CI5 SLP202 DENSITY ALT 3800FT

CYQF;2018-10-15 21:00;CYQF 152100Z 36011G17KT 310V020 15SM FEW060 SCT100 BKN250 18/00 A3006 RMK CU1AC2CI3 SLP195 DENSITY ALT 3900FT

CYQF;2018-10-15 22:00;CYQF 152200Z 02010G15KT 15SM BKN090 OVC250 16/M01 A3007 RMK AC6CI2 SLP195 DENSITY ALT 3700FT

CYQF;2018-10-15 23:00;CYQF 152300Z 02012G18KT 15SM SCT090 BKN250 16/M01 A3008 RMK AC4CI3 SLP202 DENSITY ALT 3600FT

CYQF;2018-10-16 00:00;CYQF 160000Z 03009KT 15SM BKN160 BKN250 13/M01 A3010 RMK AC5CI2 SLP213 DENSITY ALT 3300FT

CYQF;2018-10-16 01:00;CYQF 160100Z 05005KT 15SM BKN160 BKN250 09/M01 A3012 RMK AC5CI2 SLP226

CYQF;2018-10-16 02:00;CYQF 160200Z 00000KT 15SM BKN110 10/M01 A3014 RMK AC7 SLP236

CYQF;2018-10-16 03:00;CYQF 160300Z 26005KT 15SM BKN090 09/M00 A3017 RMK AC7 SLP245

CYQF;2018-10-16 04:00;CYQF 160400Z 26006KT 15SM BKN088 08/M00 A3019 RMK AC7 SLP248

CYQF;2018-10-16 05:00;CYQF 160500Z 25006KT 15SM BKN085 09/M01 A3021 RMK AC7 SLP250

CYQF;2018-10-16 06:00;CYQF 160600Z 25006KT 15SM BKN080 08/M00 A3022 RMK AC7 SLP255

CYQF;2018-10-16 07:00;CYQF 160700Z 26007KT 15SM BKN080 08/M01 A3023 RMK AC7 SLP256

CYQF;2018-10-16 08:00;CYQF 160800Z 26006KT 15SM FEW080 07/M01 A3024 RMK AC2 SLP257

CYQF;2018-10-16 09:00;CYQF 160900Z 23008KT 15SM FEW080 04/M01 A3024 RMK AC1 SLP260

CYQF;2018-10-16 10:00;CYQF 161000Z 24007KT 15SM SCT080 05/M01 A3025 RMK AC3 SLP265

CYQF;2018-10-16 11:00;CYQF 161100Z 24005KT 15SM SCT080 04/M01 A3026 RMK AC4 SLP268

CYQF;2018-10-16 12:00;CYQF 161200Z 25006KT 15SM SCT080 04/M02 A3026 RMK AC3 SLP271

CYQF;2018-10-16 13:00;CYQF 161300Z 19005KT 15SM FEW080 M01/M04 A3026 RMK AC1 SLP283

CYQF;2018-10-16 14:00;CYQF 161400Z 19005KT 15SM FEW080 BKN260 M03/M05 A3026 RMK AC1CI5 SLP284

CYQF;2018-10-16 15:00;CYQF 161500Z 23003KT 10SM SCT250 01/M02 A3027 RMK CI4 HZ SLP284

CYQF;2018-10-16 16:00;CYQF 161600Z 24008KT 15SM SCT250 06/M01 A3027 RMK CI3 SLP277

CYQF;2018-10-16 17:00;CYQF 161700Z 26008KT 15SM SCT250 10/M01 A3026 RMK CI3 SLP272

CYQF;2018-10-16 18:00;CYQF 161800Z 26005KT 210V280 15SM FEW250 13/M00 A3025 RMK CI2 SLP265 DENSITY ALT 3100FT

CYQF;2018-10-16 19:00;CYQF 161900Z 29009KT 15SM FEW250 16/M04 A3024 RMK CI2 SLP258 DENSITY ALT 3500FT

CYQF;2018-10-16 20:00;CYQF 162000Z 33011KT 280V350 15SM FEW250 17/M04 A3023 RMK CI2 SLP254 DENSITY ALT 3600FT

CYQF;2018-10-16 21:00;CYQF 162100Z 33016KT 15SM FEW250 18/M04 A3022 RMK CI1 CI TR SLP252 DENSITY ALT 3700FT

CYQF;2018-10-16 22:00;CYQF 162200Z 32008G17KT 15SM FEW250 18/M03 A3020 RMK CI1 SLP247 DENSITY ALT 3800FT

CYQF;2018-10-16 23:00;CYQF 162300Z 33008KT 15SM FEW250 18/M03 A3020 RMK CI1 SLP246 DENSITY ALT 3700FT

CYQF;2018-10-17 00:00;CYQF 170000Z 00000KT 15SM FEW250 16/M04 A3019 RMK CI1 SLP246 DENSITY ALT 3500FT

CYQF;2018-10-17 01:00;CYQF 170100Z 20004KT 15SM FEW250 13/M04 A3019 RMK CI1 SLP253 DENSITY ALT 3200FT

CYQF;2018-10-17 02:00;CYQF 170200Z 19007KT 15SM FEW250 05/M04 A3020 RMK CI1 SLP267

CYQF;2018-10-17 03:00;CYQF 170300Z 21007KT 15SM FEW250 03/M03 A3020 RMK CI1 SLP265

CYQF;2018-10-17 04:00;CYQF 170400Z 20005KT 15SM FEW250 02/M04 A3020 RMK CI1 SLP260

CYQF;2018-10-17 05:00;CYQF 170500Z 22009KT 15SM FEW250 04/M03 A3020 RMK CI2 SLP253

CYQF;2018-10-17 06:00;CYQF 170600Z 22007KT 15SM SKC 01/M04 A3020 RMK SLP253

CYQF;2018-10-17 07:00;CYQF 170700Z 20003KT 15SM SKC 00/M04 A3020 RMK SLP253

CYQF;2018-10-17 08:00;CYQF 170800Z 18004KT 15SM SKC M01/M04 A3020 RMK SLP252

CYQF;2018-10-17 09:00;CYQF 170900Z 19005KT 15SM SKC M01/M04 A3020 RMK SLP251

CYQF;2018-10-17 10:00;CYQF 171000Z 19003KT 090V210 15SM SKC M01/M05 A3019 RMK SLP247

CYQF;2018-10-17 11:00;CYQF 171100Z 20005KT 15SM SKC M02/M05 A3018 RMK SLP246

CYQF;2018-10-17 12:00;CYQF 171200Z 20006KT 15SM SKC M04/M06 A3018 RMK SLP250

CYQF;2018-10-17 13:00;CYQF 171300Z 19005KT 15SM SKC M03/M06 A3017 RMK SLP249

CYQF;2018-10-17 14:00;CYQF 171400Z 19006KT 15SM FEW250 M04/M06 A3017 RMK CI1 SLP260

CYQF;2018-10-17 15:00;CYQF 171500Z 19004KT 15SM FEW250 M01/M04 A3017 RMK CI1 SLP259

CYQF;2018-10-17 16:00;CYQF 171600Z 20005KT 15SM FEW250 06/M03 A3017 RMK CI2 SLP252

CYQF;2018-10-17 17:00;CYQF 171700Z 21004KT 180V240 15SM SCT250 11/M02 A3015 RMK CI3 SLP237

CYQF;2018-10-17 18:00;CYQF 171800Z 20004KT 15SM FEW260 13/M03 A3014 RMK CI2 SLP233 DENSITY ALT 3300FT

CYQF;2018-10-17 19:00;CYQF 171900Z 19005KT 150V220 12SM FEW260 17/M02 A3011 RMK CI2 SLP219 DENSITY ALT 3700FT

CYQF;2018-10-17 20:00;CYQF 172000Z 19006KT 15SM FEW260 21/M03 A3007 RMK CI2 SLP204 DENSITY ALT 4200FT

CYQF;2018-10-17 21:00;CYQF 172100Z 18010KT 15SM SCT260 23/M06 A3004 RMK CI3 SLP190 DENSITY ALT 4500FT

CYQF;2018-10-17 22:00;CYQF 172200Z 21009KT 12SM BKN260 23/M07 A3000 RMK CI6 SLP178 DENSITY ALT 4500FT

CYQF;2018-10-17 23:00;CYQF 172300Z 17006KT 15SM BKN260 22/M04 A2998 RMK CI5 SLP172 DENSITY ALT 4400FT

CYQF;2018-10-18 00:00;CYQF 180000Z 15003KT 15SM BKN250 19/M05 A2996 RMK CI6 SLP172 DENSITY ALT 4100FT

CYQF;2018-10-18 01:00;CYQF 180100Z 16003KT 10SM BKN250 13/M06 A2994 RMK CI5 HZ SLP171 DENSITY ALT 3400FT

CYQF;2018-10-18 02:00;CYQF 180200Z 28004KT 280V350 12SM BKN250 15/M06 A2995 RMK CI5 HZ SLP172 DENSITY ALT 3600FT

CYQF;2018-10-18 03:00;CYQF 180300Z 26005KT 200V260 12SM BKN250 05/M05 A2995 RMK CI5 HZ SLP178

CYQF;2018-10-18 04:00;CYQF 180400Z 25005KT 15SM SCT250 10/M08 A2995 RMK CI3 SLP165 DENSITY ALT 3100FT

CYQF;2018-10-18 05:00;CYQF 180500Z 19006KT 15SM FEW250 M00/M05 A2995 RMK CI1 SLP171

CYQF;2018-10-18 06:00;CYQF 180600Z 20006KT 15SM FEW250 00/M05 A2994 RMK CI2 SLP164

CYQF;2018-10-18 07:00;CYQF 180700Z 20004KT 15SM FEW250 04/M06 A2994 RMK CI2 SLP156

CYQF;2018-10-18 08:00;CYQF 180800Z 26003KT 15SM FEW250 01/M07 A2995 RMK CI2 SLP160

CYQF;2018-10-18 09:00;CYQF 180900Z 20005KT 15SM FEW250 00/M07 A2995 RMK CI1 SLP157

CYQF;2018-10-18 10:00;CYQF 181000Z 22005KT 15SM FEW250 M01/M06 A2994 RMK CI2 SLP155

CYQF;2018-10-18 11:00;CYQF 181100Z 19005KT 15SM SCT250 M02/M06 A2995 RMK CI3 SLP160

CYQF;2018-10-18 12:00;CYQF 181200Z 19006KT 15SM BKN240 M02/M05 A2996 RMK CI5 SLP168

CYQF;2018-10-18 13:00;CYQF 181300Z 19004KT 15SM BKN240 M00/M05 A2997 RMK CI7 SLP176

CYQF;2018-10-18 14:00;CYQF 181400Z 22004KT 15SM BKN220 00/M05 A2998 RMK CI7 SLP176

CYQF;2018-10-18 15:00;CYQF 181500Z 19004KT 15SM SCT160 BKN250 M00/M04 A3000 RMK AC3CI4 SLP198

CYQF;2018-10-18 16:00;CYQF 181600Z 21004KT 15SM SCT160 BKN250 03/M01 A3001 RMK AC3CI3 SLP192

CYQF;2018-10-18 17:00;CYQF 181700Z 00000KT 12SM SCT130 BKN250 07/M02 A3002 RMK AC4CI2 SLP201

CYQF;2018-10-18 18:00;CYQF 181800Z 26003KT 12SM FEW130 BKN250 12/M03 A3003 RMK AC2CI5 SLP197 DENSITY ALT 3200FT

CYQF;2018-10-18 19:00;CYQF 181900Z 29003KT 12SM FEW130 BKN250 15/M03 A3004 RMK AC2CI4 SLP193 DENSITY ALT 3500FT

CYQF;2018-10-18 20:00;CYQF 182000Z VRB02KT 12SM BKN250 16/M03 A3003 RMK CI5 SLP193 DENSITY ALT 3700FT

CYQF;2018-10-18 21:00;CYQF 182100Z 28004KT 12SM BKN180 BKN250 15/M01 A3003 RMK AC6CI1 SLP194 DENSITY ALT 3600FT

CYQF;2018-10-18 22:00;CYQF 182200Z 29003KT 12SM BKN180 BKN250 15/M01 A3003 RMK AC5CI2 SLP195 DENSITY ALT 3600FT

CYQF;2018-10-18 23:00;CYQF 182300Z 02005KT 10SM BKN180 13/00 A3004 RMK AC7 HZ SLP204 DENSITY ALT 3400FT

CYQF;2018-10-19 00:00;CYQF 190000Z 36003KT 15SM BKN150 12/M01 A3007 RMK AC7 SLP214 DENSITY ALT 3200FT

CYQF;2018-10-19 01:00;CYQF 190100Z 35005KT 15SM SCT150 11/M01 A3009 RMK AC3 SLP220 DENSITY ALT 3100FT

CYQF;2018-10-19 02:00;CYQF 190200Z 01008KT 12SM FEW150 BKN250 07/M02 A3012 RMK AC1CI4 SLP234

CYQF;2018-10-19 03:00;CYQF 190300Z 35003KT 12SM FEW250 07/M02 A3014 RMK CI2 SLP241

CYQF;2018-10-19 04:00;CYQF 190400Z 33005KT 15SM SKC 07/M01 A3017 RMK SLP249

CYQF;2018-10-19 05:00;CYQF 190500Z 30003KT 15SM SKC 03/M02 A3020 RMK SLP259

CYQF;2018-10-19 06:00;CYQF 190600Z 17005KT 15SM FEW250 M02/M04 A3023 RMK CI2 SLP269

CYQF;2018-10-19 07:00;CYQF 190700Z 24004KT 15SM FEW250 M01/M03 A3024 RMK CI2 SLP269

CYQF;2018-10-19 08:00;CYQF 190800Z 26003KT 15SM FEW250 M02/M04 A3026 RMK CI2 SLP274

CYQF;2018-10-19 09:00;CYQF 190900Z 19004KT 170V240 15SM FEW250 M04/M06 A3027 RMK CI2 SLP283

CYQF;2018-10-19 10:00;CYQF 191000Z 19005KT 15SM FEW250 M04/M05 A3028 RMK CI1 SLP287

CYQF;2018-10-19 11:00;CYQF 191100Z 18005KT 15SM FEW250 M05/M06 A3029 RMK CI2 SLP293

CYQF;2018-10-19 12:00;CYQF 191200Z 19005KT 15SM FEW250 M03/M04 A3030 RMK CI2 SLP295

CYQF;2018-10-19 13:00;CYQF 191300Z 20005KT 12SM SKC M03/M04 A3031 RMK FROIN SLP301

CYQF;2018-10-19 14:00;CYQF 191400Z 21007KT 12SM BKN250 M04/M05 A3032 RMK CI5 SLP309

CYQF;2018-10-19 15:00;CYQF 191500Z 22003KT 12SM BKN250 M02/M04 A3032 RMK CI6 SLP307

CYQF;2018-10-19 16:00;CYQF 191600Z 21004KT 12SM BKN250 01/M02 A3033 RMK CI5 SLP308

CYQF;2018-10-19 17:00;CYQF 191700Z 00000KT 12SM BKN250 05/00 A3033 RMK CI6 SLP306

CYQF;2018-10-19 18:00;CYQF 191800Z 21004KT 090V260 10SM BKN250 09/00 A3032 RMK CI5 SLP306

CYQF;2018-10-19 19:00;CYQF 191900Z 23003KT 170V260 12SM FEW200 SCT260 12/M01 A3032 RMK CI2CI2 SLP300

CYQF;2018-10-19 20:00;CYQF 192000Z 13003KT 12SM FEW180 SCT250 13/M02 A3031 RMK AC1CI2 SLP295 DENSITY ALT 3000FT

CYQF;2018-10-19 21:00;CYQF 192100Z 00000KT 12SM FEW180 SCT250 13/M01 A3030 RMK AC1CI3 SLP295 DENSITY ALT 3100FT

CYQF;2018-10-19 22:00;CYQF 192200Z 00000KT 12SM FEW170 SCT250 14/M02 A3029 RMK AC2CI2 SLP290 DENSITY ALT 3200FT

CYQF;2018-10-19 23:00;CYQF 192300Z 13005KT 100V160 12SM FEW250 14/M01 A3027 RMK CI2 SLP286 DENSITY ALT 3200FT

CYQF;2018-10-20 00:00;CYQF 200000Z 14007KT 12SM SCT250 11/M01 A3026 RMK CI4 SLP284

CYQF;2018-10-20 01:00;CYQF 200100Z 13007KT 15SM FEW250 06/M02 A3024 RMK CI2 SLP283

CYQF;2018-10-20 02:00;CYQF 200200Z 17006KT 15SM FEW250 05/M03 A3022 RMK CI1 CI TR SLP279

CYQF;2018-10-20 03:00;CYQF 200300Z 16005KT 15SM SKC 03/M03 A3021 RMK SLP273

CYQF;2018-10-20 04:00;CYQF 200400Z 16003KT 15SM SKC 04/M03 A3020 RMK SLP264

CYQF;2018-10-20 05:00;CYQF 200500Z 18006KT 15SM FEW250 01/M03 A3017 RMK CI1 CI TR SLP254

CYQF;2018-10-20 06:00;CYQF 200600Z 17010KT 15SM SKC 03/M02 A3015 RMK SLP240

CYQF;2018-10-20 07:00;CYQF 200700Z 18011KT 15SM SKC 04/M02 A3012 RMK SLP224

CYQF;2018-10-20 08:00;CYQF 200800Z 17013KT 15SM FEW250 05/M02 A3008 RMK CI2 SLP209

CYQF;2018-10-20 09:00;CYQF 200900Z 18015KT 15SM FEW250 05/M02 A3005 RMK CI1 SLP197

CYQF;2018-10-20 10:00;CYQF 201000Z 18013KT 15SM FEW250 04/M02 A3001 RMK CI1 CI TR SLP186

CYQF;2018-10-20 11:00;CYQF 201100Z 18008KT 15SM SKC 02/M02 A3000 RMK SLP182

CYQF;2018-10-20 12:00;CYQF 201200Z 18003KT 160V230 15SM FEW250 00/M03 A2999 RMK CI2 SLP184

CYQF;2018-10-20 13:00;CYQF 201300Z 20007KT 15SM FEW250 M03/M04 A2998 RMK CI1 SLP189

CYQF;2018-10-20 14:00;CYQF 201400Z 22004KT 15SM FEW250 M01/M03 A2998 RMK CI2 SLP189

CYQF;2018-10-20 15:00;CYQF 201500Z 19006KT 15SM FEW250 M02/M03 A2998 RMK CI2 SLP192

CYQF;2018-10-20 16:00;CYQF 201600Z 17004KT 160V230 15SM FEW120 SCT250 03/M01 A2999 RMK AC1CI2 SLP191

CYQF;2018-10-20 17:00;CYQF 201700Z 34008KT 15SM FEW120 12/02 A3000 RMK AC1 SLP188 DENSITY ALT 3300FT

CYQF;2018-10-20 18:00;CYQF 201800Z 36010G19KT 12SM FEW120 15/02 A3001 RMK AC2 SLP184 DENSITY ALT 3600FT

CYQF;2018-10-20 19:00;CYQF 201900Z 02011G19KT 15SM SKC 15/02 A2999 RMK SLP177 DENSITY ALT 3600FT

CYQF;2018-10-20 20:00;CYQF 202000Z 03010KT 15SM FEW240 16/02 A2999 RMK CI1 SLP175 DENSITY ALT 3800FT

CYQF;2018-10-20 21:00;CYQF 202100Z 34008KT 320V030 15SM FEW240 16/01 A2998 RMK CI1 SLP171 DENSITY ALT 3800FT

CYQF;2018-10-20 22:00;CYQF 202200Z 31004KT 280V060 15SM FEW240 16/00 A2998 RMK CI1 SLP172 DENSITY ALT 3800FT

CYQF;2018-10-20 23:00;CYQF 202300Z 36004KT 15SM FEW240 16/01 A2999 RMK CI1 SLP177 DENSITY ALT 3700FT

CYQF;2018-10-21 00:00;CYQF 210000Z 04003KT 300V060 15SM FEW240 13/01 A2999 RMK CI1 SLP183 DENSITY ALT 3400FT

CYQF;2018-10-21 01:00;CYQF 210100Z 02002KT 15SM FEW240 08/M00 A3001 RMK CI1 SLP200

CYQF;2018-10-21 02:00;CYQF 210200Z 00000KT 15SM SKC 09/00 A3003 RMK SLP203

CYQF;2018-10-21 03:00;CYQF 210300Z 34005KT 200V340 15SM FEW240 05/M00 A3005 RMK CI1 SLP213

CYQF;2018-10-21 04:00;CYQF 210400Z 14004KT 360V150 15SM FEW240 01/M02 A3006 RMK CI1 SLP216

CYQF;2018-10-21 05:00;CYQF 210500Z 21005KT 15SM FEW240 00/M02 A3006 RMK CI1 SLP209

CYQF;2018-10-21 06:00;CYQF 210600Z 24004KT 15SM SCT240 M00/M03 A3008 RMK CI3 SLP212

CYQF;2018-10-21 07:00;CYQF 210700Z 00000KT 15SM SCT200 M03/M05 A3009 RMK CI3 SLP220

CYQF;2018-10-21 08:00;CYQF 210800Z 21004KT 15SM SCT200 M03/M05 A3011 RMK CI4 SLP225

CYQF;2018-10-21 09:00;CYQF 210900Z 28002KT 15SM FEW200 M02/M04 A3012 RMK CI2 SLP226

CYQF;2018-10-21 10:00;CYQF 211000Z 19006KT 15SM FEW220 M04/M05 A3012 RMK CI1 SLP231

CYQF;2018-10-21 11:00;CYQF 211100Z 23003KT 15SM FEW220 M03/M04 A3013 RMK CI1 FROIN SLP232

CYQF;2018-10-21 12:00;CYQF 211200Z 22002KT 15SM SKC M05/M05 A3013 RMK FROIN SLP238

CYQF;2018-10-21 13:00;CYQF 211300Z 20003KT 15SM SKC M07/M08 A3013 RMK SLP245

CYQF;2018-10-21 14:00;CYQF 211400Z 21004KT 12SM FEW250 M07/M08 A3013 RMK CI1 CI TR SLP243

CYQF;2018-10-21 15:00;CYQF 211500Z 20004KT 12SM FEW250 M05/M06 A3014 RMK CI1 SLP249

CYQF;2018-10-21 16:00;CYQF 211600Z 22003KT 12SM FEW250 M01/M03 A3015 RMK CI1 SLP252

CYQF;2018-10-21 17:00;CYQF 211700Z VRB02KT 10SM FEW250 04/M02 A3016 RMK CI1 SLP252

CYQF;2018-10-21 18:00;CYQF 211800Z VRB02KT 10SM FEW250 08/M02 A3017 RMK CI1 SLP251

CYQF;2018-10-21 19:00;CYQF 211900Z 01004KT 12SM FEW250 10/M04 A3016 RMK CI1 SLP250

CYQF;2018-10-21 20:00;CYQF 212000Z 01003KT 340V060 12SM FEW250 11/M05 A3016 RMK CI2 SLP247

CYQF;2018-10-21 21:00;CYQF 212100Z 01005KT 310V030 15SM FEW250 11/M05 A3015 RMK CI2 SLP244 DENSITY ALT 3000FT

CYQF;2018-10-21 22:00;CYQF 212200Z 31003KT 12SM FEW250 11/M05 A3014 RMK CI2 SLP242 DENSITY ALT 3000FT

CYQF;2018-10-21 23:00;CYQF 212300Z 35004KT 15SM FEW250 11/M05 A3015 RMK CI2 SLP244 DENSITY ALT 3000FT

CYQF;2018-10-22 00:00;CYQF 220000Z 01006KT 15SM FEW250 09/M05 A3015 RMK CI2 SLP250

CYQF;2018-10-22 01:00;CYQF 220100Z 36002KT 15SM FEW250 05/M07 A3016 RMK CI2 SLP260

CYQF;2018-10-22 02:00;CYQF 220200Z 20002KT 15SM FEW240 04/M06 A3017 RMK CI2 SLP265

CYQF;2018-10-22 03:00;CYQF 220300Z 17002KT 15SM SKC M01/M07 A3018 RMK SLP272

CYQF;2018-10-22 04:00;CYQF 220400Z 19004KT 15SM SKC M02/M07 A3019 RMK SLP271

CYQF;2018-10-22 05:00;CYQF 220500Z 20002KT 15SM SKC M03/M07 A3019 RMK SLP268

CYQF;2018-10-22 06:00;CYQF 220600Z 21003KT 15SM SKC M04/M07 A3019 RMK SLP263

CYQF;2018-10-22 07:00;CYQF 220700Z 00000KT 15SM SKC M05/M09 A3019 RMK SLP263

CYQF;2018-10-22 08:00;CYQF 220800Z 23006KT 15SM SKC M06/M08 A3020 RMK SLP265

CYQF;2018-10-22 09:00;CYQF 220900Z 20005KT 15SM SKC M05/M08 A3019 RMK SLP260

CYQF;2018-10-22 10:00;CYQF 221000Z 00000KT 15SM SKC M06/M08 A3019 RMK SLP261

CYQF;2018-10-22 11:00;CYQF 221100Z 00000KT 15SM SKC M04/M07 A3018 RMK SLP255

CYQF;2018-10-22 12:00;CYQF 221200Z 00000KT 15SM SKC M04/M07 A3016 RMK SLP252

CYQF;2018-10-22 13:00;CYQF 221300Z 17004KT 15SM FEW250 M04/M07 A3015 RMK CI1 SLP251

CYQF;2018-10-22 14:00;CYQF 221400Z 17006KT 12SM FEW250 M02/M06 A3014 RMK CI1 SLP250

CYQF;2018-10-22 15:00;CYQF 221500Z 14006KT 10SM FEW250 M03/M05 A3014 RMK CI1 SLP255

CYQF;2018-10-22 16:00;CYQF 221600Z 16008KT 12SM SKC 01/M03 A3014 RMK SLP250

CYQF;2018-10-22 17:00;CYQF 221700Z 16010KT 10SM SKC 04/M04 A3013 RMK SLP246

CYQF;2018-10-22 18:00;CYQF 221800Z 16015KT 10SM SKC 08/M04 A3012 RMK SLP238

CYQF;2018-10-22 19:00;CYQF 221900Z 17016G23KT 12SM SKC 10/M03 A3010 RMK SLP233

CYQF;2018-10-22 20:00;CYQF 222000Z 16018G24KT 12SM SCT250 12/M03 A3009 RMK CC3 SLP224 DENSITY ALT 3100FT

CYQF;2018-10-22 21:00;CYQF 222100Z 16018G23KT 12SM FEW250 13/M03 A3007 RMK CI1 CI TR SLP218 DENSITY ALT 3200FT

CYQF;2018-10-22 22:00;CYQF 222200Z 16015G21KT 12SM SKC 13/M03 A3006 RMK SLP214 DENSITY ALT 3300FT

CYQF;2018-10-22 23:00;CYQF 222300Z 16011G19KT 15SM SKC 13/M03 A3005 RMK SLP210 DENSITY ALT 3300FT

CYQF;2018-10-23 00:00;CYQF 230000Z 14009KT 10SM SKC 10/M03 A3005 RMK SLP212 DENSITY ALT 3000FT

CYQF;2018-10-23 01:00;CYQF 230100Z 14008KT 12SM FEW250 06/M04 A3005 RMK CI2 SLP218

CYQF;2018-10-23 02:00;CYQF 230200Z 14007KT 12SM SKC 03/M04 A3004 RMK SLP216

CYQF;2018-10-23 03:00;CYQF 230300Z 16005KT 15SM SKC 02/M04 A3004 RMK SLP215

CYQF;2018-10-23 04:00;CYQF 230400Z 14004KT 15SM SKC 01/M05 A3004 RMK SLP212

CYQF;2018-10-23 05:00;CYQF 230500Z 15006KT 15SM SKC 02/M04 A3002 RMK SLP201

CYQF;2018-10-23 06:00;CYQF 230600Z 16006KT 15SM SKC 01/M05 A3000 RMK SLP192

CYQF;2018-10-23 07:00;CYQF 230700Z 14003KT 15SM SKC 01/M05 A2999 RMK SLP187

CYQF;2018-10-23 08:00;CYQF 230800Z 17007KT 15SM SKC M01/M05 A2999 RMK SLP184

CYQF;2018-10-23 09:00;CYQF 230900Z 17010KT 15SM SKC M00/M05 A2998 RMK SLP180

CYQF;2018-10-23 10:00;CYQF 231000Z 15003KT 15SM SKC M01/M05 A2997 RMK SLP178

CYQF;2018-10-23 11:00;CYQF 231100Z 16005KT 15SM SKC M02/M06 A2996 RMK SLP174

CYQF;2018-10-23 12:00;CYQF 231200Z 18005KT 15SM SKC M03/M05 A2994 RMK SLP173

CYQF;2018-10-23 13:00;CYQF 231300Z 22006KT 15SM SKC M03/M05 A2993 RMK SLP176

CYQF;2018-10-23 14:00;CYQF 231400Z 20002KT 10SM SKC M04/M06 A2994 RMK HZ SLP180

CYQF;2018-10-23 15:00;CYQF 231500Z 19005KT 12SM SKC M04/M05 A2994 RMK SLP181

CYQF;2018-10-23 16:00;CYQF 231600Z 19003KT 10SM SKC M01/M03 A2993 RMK SLP176

CYQF;2018-10-23 17:00;CYQF 231700Z 18004KT 140V200 10SM SKC 03/M03 A2992 RMK SLP167

CYQF;2018-10-23 18:00;CYQF 231800Z VRB02KT 10SM SKC 06/M01 A2991 RMK SLP162

CYQF;2018-10-23 19:00;CYQF 231900Z 18005KT 10SM SKC RMK WND ESTD DENSITY ALT MISG

CYQF;2018-10-23 20:00;CYQF 232000Z 18002KT 8SM SKC RMK WND ESTD DENSITY ALT MISG

CYQF;2018-10-23 21:00;CYQF 232100Z 17005KT 120V190 8SM SKC 13/M01 A2986 RMK SLP138 DENSITY ALT 3500FT

CYQF;2018-10-23 22:00;CYQF 232200Z 13005KT 8SM FEW250 14/M00 A2985 RMK CI1 SLP137 DENSITY ALT 3600FT

CYQF;2018-10-23 23:00;CYQF 232300Z 12006KT 8SM FEW250 13/M00 A2984 RMK CI1 SLP135 DENSITY ALT 3500FT

CYQF;2018-10-24 00:00;CYQF 240000Z 13005KT 8SM SKC 08/M01 A2984 RMK SLP139 DENSITY ALT 3000FT

CYQF;2018-10-24 01:00;CYQF 240100Z 15002KT 10SM FEW150 07/M02 A2983 RMK AC1 SLP137

CYQF;2018-10-24 02:00;CYQF 240200Z 13004KT 10SM SKC 04/M03 A2982 RMK SLP140

CYQF;2018-10-24 03:00;CYQF 240300Z 15002KT 10SM SKC 02/M03 A2982 RMK SLP142

CYQF;2018-10-24 04:00;CYQF 240400Z 00000KT 12SM SKC 01/M02 A2981 RMK SLP136

CYQF;2018-10-24 05:00;CYQF 240500Z 00000KT 12SM SKC 01/M02 A2981 RMK SLP131

CYQF;2018-10-24 06:00;CYQF 240600Z 00000KT 12SM FEW250 M01/M03 A2980 RMK CI1 SLP127

CYQF;2018-10-24 07:00;CYQF 240700Z VRB02KT 12SM FEW240 M02/M03 A2980 RMK CI2 SLP138

CYQF;2018-10-24 08:00;CYQF 240800Z 25003KT 12SM SCT250 M02/M03 A2980 RMK CI3 SLP136

CYQF;2018-10-24 09:00;CYQF 240900Z 20004KT 12SM SCT250 M05/M06 A2979 RMK CI3 SLP119

CYQF;2018-10-24 10:00;CYQF 241000Z 21003KT 12SM FEW150 BKN240 M04/M06 A2978 RMK AC2CI3 SLP116

CYQF;2018-10-24 11:00;CYQF 241100Z 20004KT 12SM SCT150 BKN250 M03/M04 A2978 RMK AC3CI2 SLP114

CYQF;2018-10-24 12:00;CYQF 241200Z 20003KT 15SM BKN150 M02/M04 A2978 RMK AC5 SLP117

CYQF;2018-10-24 13:00;CYQF 241300Z 18005KT 15SM SCT180 BKN250 M02/M04 A2978 RMK AC4CI2 SLP118

CYQF;2018-10-24 14:00;CYQF 241400Z 19004KT 12SM SCT190 BKN250 M04/M06 A2977 RMK AC4CI3 SLP123

CYQF;2018-10-24 15:00;CYQF 241500Z 19004KT 12SM SCT190 BKN260 M02/M05 A2978 RMK AC3CI2 SLP125

CYQF;2018-10-24 16:00;CYQF 241600Z 17004KT 12SM SCT170 BKN250 M00/M02 A2977 RMK AC4CI1 SLP121

CYQF;2018-10-24 17:00;CYQF 241700Z 22004KT 10SM SCT150 BKN250 05/M00 A2977 RMK AC3CI2 HZ SLP114

CYQF;2018-10-24 18:00;CYQF 241800Z 23004KT 10SM SCT140 BKN250 09/M01 A2977 RMK AC4CI3 SLP111 DENSITY ALT 3200FT

CYQF;2018-10-24 19:00;CYQF 241900Z 30007KT 10SM SCT140 BKN250 14/M01 A2975 RMK AC3CI2 SLP101 DENSITY ALT 3700FT

CYQF;2018-10-24 20:00;CYQF 242000Z 30007KT 260V010 10SM BKN140 BKN200 17/M01 A2974 RMK AC5CC2 SLP095 DENSITY ALT 4100FT

CYQF;2018-10-24 21:00;CYQF 242100Z 29011G16KT 10SM OVC140 16/M01 A2974 RMK AC8 SLP097 DENSITY ALT 4100FT

CYQF;2018-10-24 22:00;CYQF 242200Z 30010KT 10SM BKN120 17/M01 A2975 RMK AC7 SLP100 DENSITY ALT 4100FT

CYQF;2018-10-24 23:00;CYQF 242300Z 27013G22KT 10SM BKN120 15/03 A2976 RMK AC7 SLP105 DENSITY ALT 3800FT

CYQF;2018-10-25 00:00;CYQF 250000Z 27009KT 12SM FEW045 OVC110 13/02 A2977 RMK CU1AC7 SLP109 DENSITY ALT 3600FT

CYQF;2018-10-25 01:00;CYQF 250100Z 26012KT 12SM FEW040 OVC070 12/02 A2980 RMK CU1AC7 SLP119 DENSITY ALT 3500FT

CYQF;2018-10-25 02:00;CYQF 250200Z 28010G15KT 12SM FEW040 OVC060 11/03 A2980 RMK CU1SC7 SLP124 DENSITY ALT 3400FT

CYQF;2018-10-25 03:00;CYQF 250300Z 25006KT 15SM OVC080 10/04 A2980 RMK AC8 SLP123 DENSITY ALT 3300FT

CYQF;2018-10-25 04:00;CYQF 250400Z 28006KT 15SM BKN085 09/03 A2980 RMK AC7 SLP123 DENSITY ALT 3200FT

CYQF;2018-10-25 05:00;CYQF 250500Z 27008KT 15SM BKN090 09/03 A2980 RMK AC7 SLP117 DENSITY ALT 3200FT

CYQF;2018-10-25 06:00;CYQF 250600Z 26006KT 15SM BKN090 09/03 A2981 RMK AC7 SLP115 DENSITY ALT 3100FT

CYQF;2018-10-25 07:00;CYQF 250700Z 26003KT 15SM BKN100 08/02 A2981 RMK AC6 SLP112 DENSITY ALT 3000FT

CYQF;2018-10-25 08:00;CYQF 250800Z 23004KT 15SM BKN100 06/01 A2981 RMK AC7 SLP111

CYQF;2018-10-25 09:00;CYQF 250900Z 26004KT 15SM BKN075 BKN100 07/01 A2982 RMK AC6AC1 SLP114

CYQF;2018-10-25 10:00;CYQF 251000Z 27007KT 15SM BKN070 08/00 A2983 RMK AC7 SLP114 DENSITY ALT 3000FT

CYQF;2018-10-25 11:00;CYQF 251100Z 25004KT 15SM BKN060 07/M01 A2983 RMK SC7 SLP118

CYQF;2018-10-25 12:00;CYQF 251200Z 24004KT 15SM BKN070 06/M01 A2983 RMK AC7 SLP121

CYQF;2018-10-25 13:00;CYQF 251300Z 19004KT 180V250 15SM SCT080 02/M03 A2983 RMK AC3 SLP125

CYQF;2018-10-25 14:00;CYQF 251400Z 21008KT 15SM FEW080 00/M03 A2984 RMK AC2 SLP134

CYQF;2018-10-25 15:00;CYQF 251500Z 19005KT 15SM SCT080 BKN240 M00/M04 A2986 RMK AC3CI2 SLP140

CYQF;2018-10-25 16:00;CYQF 251600Z 21004KT 170V240 15SM BKN080 BKN200 06/M01 A2985 RMK AC5CI2 SLP134

CYQF;2018-10-25 17:00;CYQF 251700Z 23003KT 200V260 15SM SCT140 BKN220 08/M02 A2986 RMK AC4CI3 SLP132

CYQF;2018-10-25 18:00;CYQF 251800Z 23005KT 220V280 15SM FEW140 11/M02 A2986 RMK AC2 SLP131 DENSITY ALT 3300FT

CYQF;2018-10-25 19:00;CYQF 251900Z 25005KT 210V290 15SM FEW140 14/M03 A2985 RMK AC2 SLP125 DENSITY ALT 3600FT

CYQF;2018-10-25 20:00;CYQF 252000Z 27006KT 200V320 15SM FEW140 FEW220 15/M03 A2982 RMK AC1CI1 SLP117 DENSITY ALT 3800FT

CYQF;2018-10-25 21:00;CYQF 252100Z 30007KT 15SM FEW100 FEW250 16/M03 A2981 RMK AC1CI1 SLP112 DENSITY ALT 3900FT

CYQF;2018-10-25 22:00;CYQF 252200Z 33008KT 270V340 15SM SCT250 16/M03 A2980 RMK CI4 SLP106 DENSITY ALT 3900FT

CYQF;2018-10-25 23:00;CYQF 252300Z 03004KT 340V040 15SM FEW250 15/M02 A2979 RMK CI2 SLP103 DENSITY ALT 3800FT

CYQF;2018-10-26 00:00;CYQF 260000Z 12002KT 15SM FEW250 11/M02 A2980 RMK CI2 SLP111 DENSITY ALT 3400FT

CYQF;2018-10-26 01:00;CYQF 260100Z 14006KT 15SM FEW140 08/M03 A2979 RMK AC1 SLP115 DENSITY ALT 3100FT

CYQF;2018-10-26 02:00;CYQF 260200Z 20004KT 15SM FEW140 06/M03 A2978 RMK AC1 SLP117

CYQF;2018-10-26 03:00;CYQF 260300Z 20005KT 15SM SCT140 06/M03 A2977 RMK AC4 SLP117

CYQF;2018-10-26 04:00;CYQF 260400Z 14003KT 080V150 15SM FEW120 01/M04 A2976 RMK AC2 SLP109

CYQF;2018-10-26 05:00;CYQF 260500Z 24008KT 15SM FEW120 06/M03 A2977 RMK AC2 SLP106

CYQF;2018-10-26 06:00;CYQF 260600Z 21006KT 15SM BKN120 03/M03 A2980 RMK AC5 SLP115

CYQF;2018-10-26 06:41;CYQF 260641Z 32013KT 15SM BKN090 07/M02 A2983 RMK AC6 SLP122

CYQF;2018-10-26 07:00;CYQF 260700Z 33007KT 15SM FEW090 06/M01 A2983 RMK AC2 SLP121

CYQF;2018-10-26 08:00;CYQF 260800Z 23003KT 220V320 15SM BKN100 04/M01 A2985 RMK AC5 SLP127

CYQF;2018-10-26 09:00;CYQF 260900Z VRB02KT 15SM FEW100 02/M01 A2987 RMK AC1 SLP136

CYQF;2018-10-26 10:00;CYQF 261000Z 23004KT 15SM FEW100 M01/M02 A2988 RMK AC1 SLP141

CYQF;2018-10-26 11:00;CYQF 261100Z 23006KT 15SM SKC M01/M02 A2988 RMK SLP145

CYQF;2018-10-26 12:00;CYQF 261200Z 26008KT 15SM SKC M01/M03 A2987 RMK SLP144

CYQF;2018-10-26 13:00;CYQF 261300Z 19006KT 15SM FEW250 M05/M06 A2987 RMK CI2 SLP153

CYQF;2018-10-26 14:00;CYQF 261400Z 20007KT 15SM FEW160 BKN250 M07/M07 A2988 RMK AC2CI3 SLP159

CYQF;2018-10-26 15:00;CYQF 261500Z 21004KT 15SM FEW160 BKN250 M04/M05 A2987 RMK AC2CI4 SLP156

CYQF;2018-10-26 16:00;CYQF 261600Z 19004KT 15SM FEW160 BKN250 M00/M02 A2986 RMK AC1CI5 SLP153

CYQF;2018-10-26 17:00;CYQF 261700Z 17003KT 15SM FEW120 BKN250 02/00 A2983 RMK AC1CI5 SLP132

CYQF;2018-10-26 18:00;CYQF 261800Z 18016G21KT 15SM FEW150 BKN250 07/M01 A2979 RMK AC1CI5 AC TR SLP118

CYQF;2018-10-26 19:00;CYQF 261900Z 18014G21KT 15SM BKN120 BKN250 09/M01 A2975 RMK AC5CI2 SLP098 DENSITY ALT 3200FT

CYQF;2018-10-26 20:00;CYQF 262000Z 17011G17KT 15SM FEW032 BKN110 10/M02 A2971 RMK CU1AC6 VIRGA SLP087 DENSITY ALT 3300FT

CYQF;2018-10-26 21:00;CYQF 262100Z 15011G17KT 15SM FEW040 SCT160 SCT250 12/M01 A2968 RMK CU1AC3CI1 CU TR SLP073 DENSITY ALT 3600FT

CYQF;2018-10-26 22:00;CYQF 262200Z 17007KT 15SM FEW040 FEW160 FEW250 14/M00 A2966 RMK CU1AC1CI1 CU TR SLP069 DENSITY ALT 3800FT

CYQF;2018-10-26 23:00;CYQF 262300Z 18006KT 15SM FEW028 FEW100 SCT250 13/M00 A2963 RMK SC1AC1CI1 SLP061 DENSITY ALT 3800FT

CYQF;2018-10-27 00:00;CYQF 270000Z 20004KT 15SM FEW120 10/M01 A2962 RMK AC2 SLP061 DENSITY ALT 3400FT

CYQF;2018-10-27 01:00;CYQF 270100Z 22007KT 15SM FEW120 09/M00 A2961 RMK AC2 SLP062 DENSITY ALT 3400FT

CYQF;2018-10-27 02:00;CYQF 270200Z 35005KT 15SM BKN120 05/M01 A2962 RMK AC5 SLP073

CYQF;2018-10-27 03:00;CYQF 270300Z 32004KT 15SM BKN100 06/M01 A2965 RMK AC6 SLP078 DENSITY ALT 3000FT

CYQF;2018-10-27 03:37;CYQF 270337Z 36008KT 15SM -RA BKN091 07/M01 A2968 RMK AC7 SLP088 DENSITY ALT 3000FT

CYQF;2018-10-27 03:52;CYQF 270352Z 34010G16KT 15SM BKN100 08/M00 A2969 RMK AC7 SLP091 DENSITY ALT 3100FT

CYQF;2018-10-27 04:00;CYQF 270400Z 32017G24KT 15SM BKN080 08/M00 A2971 RMK AC7 PRESRR SLP090 DENSITY ALT 3100FT

CYQF;2018-10-27 04:49;CYQF 270449Z 32017G22KT 12SM -RA OVC065 08/00 A2975 RMK SC8 PRESRR SLP105 DENSITY ALT 3100FT

CYQF;2018-10-27 05:00;CYQF 270500Z 33023G33KT 12SM -RA OVC070 08/00 A2976 RMK AC8 PRESRR SLP107 DENSITY ALT 3000FT

CYQF;2018-10-27 06:00;CYQF 270600Z 04005KT 15SM -RA OVC090 04/02 A2976 RMK AC8 PRESFR SLP105

CYQF;2018-10-27 07:00;CYQF 270700Z 24008KT 15SM OVC140 04/02 A2978 RMK AC8 SLP109

CYQF;2018-10-27 08:00;CYQF 270800Z 26007KT 200V280 15SM OVC180 04/01 A2978 RMK AC8 SLP108

CYQF;2018-10-27 09:00;CYQF 270900Z 26008KT 15SM BKN210 03/01 A2979 RMK CI7 SLP111

CYQF;2018-10-27 10:00;CYQF 271000Z 25009KT 15SM SCT220 03/01 A2980 RMK CI3 SLP114

CYQF;2018-10-27 11:00;CYQF 271100Z 24010G15KT 15SM FEW220 02/01 A2981 RMK CI2 SLP118

CYQF;2018-10-27 12:00;CYQF 271200Z 21007KT 15SM BKN220 M01/M02 A2983 RMK CI5 SLP132

CYQF;2018-10-27 13:00;CYQF 271300Z 24010KT 15SM FEW180 BKN220 01/M01 A2982 RMK AC2CI4 SLP128

CYQF;2018-10-27 14:00;CYQF 271400Z VRB03KT 15SM SCT160 BKN220 M01/M03 A2984 RMK AC4CI2 SLP141

CYQF;2018-10-27 15:00;CYQF 271500Z 21007KT 15SM SCT040 BKN110 00/M01 A2985 RMK SC3AC4 SLP141

CYQF;2018-10-27 16:00;CYQF 271600Z 23003KT 15SM FEW040 BKN120 00/M01 A2987 RMK CU2AC4 VIRGA SLP147

CYQF;2018-10-27 17:00;CYQF 271700Z VRB02KT 15SM FEW040 BKN100 02/00 A2990 RMK CU2AC4 VIRGA SLP156

CYQF;2018-10-27 18:00;CYQF 271800Z 27004KT 250V330 15SM SCT030 BKN100 06/M01 A2991 RMK CU3AC4 VIRGA SLP159

CYQF;2018-10-27 19:00;CYQF 271900Z 32005KT 15SM VCSH FEW040 SCT100 09/M02 A2991 RMK CU2AC2 SHRA MOVG E SLP154 DENSITY ALT 3000FT

CYQF;2018-10-27 20:00;CYQF 272000Z 30010G17KT 15SM SCT050 11/M03 A2990 RMK CU3 SLP150 DENSITY ALT 3200FT

CYQF;2018-10-27 21:00;CYQF 272100Z 34012G18KT 15SM FEW050 11/M06 A2990 RMK CU1 SLP148 DENSITY ALT 3300FT

CYQF;2018-10-27 22:00;CYQF 272200Z 32013G19KT 15SM FEW050 11/M07 A2990 RMK CU1 CU TR SLP152 DENSITY ALT 3300FT

CYQF;2018-10-27 23:00;CYQF 272300Z 33009KT 15SM FEW070 10/M07 A2991 RMK AC1 AC TR SLP157 DENSITY ALT 3200FT

CYQF;2018-10-28 00:00;CYQF 280000Z 29003KT 15SM FEW120 09/M08 A2993 RMK AC1 SLP168 DENSITY ALT 3000FT

CYQF;2018-10-28 01:00;CYQF 280100Z 29004KT 15SM FEW120 07/M08 A2994 RMK AC1 SLP174

CYQF;2018-10-28 02:00;CYQF 280200Z 27006KT 15SM FEW120 05/M10 A2996 RMK AC1 SLP183

CYQF;2018-10-28 03:00;CYQF 280300Z 28003KT 15SM FEW120 M01/M08 A2998 RMK AC2 SLP194

CYQF;2018-10-28 04:00;CYQF 280400Z 09002KT 15SM SKC M02/M09 A2998 RMK SLP197

CYQF;2018-10-28 05:00;CYQF 280500Z 00000KT 15SM SKC M02/M09 A2999 RMK SLP197

CYQF;2018-10-28 06:00;CYQF 280600Z VRB02KT 15SM SCT220 M04/M09 A2999 RMK CI4 SLP196

CYQF;2018-10-28 07:00;CYQF 280700Z 19004KT 15SM BKN220 M05/M09 A2998 RMK CI6 SLP188

CYQF;2018-10-28 08:00;CYQF 280800Z 19005KT 15SM BKN220 M06/M10 A2996 RMK CI7 SLP182

CYQF;2018-10-28 09:00;CYQF 280900Z 03002KT 15SM BKN220 M05/M09 A2994 RMK CI7 SLP174

CYQF;2018-10-28 10:00;CYQF 281000Z 05002KT 15SM BKN200 M03/M08 A2991 RMK CI7 SLP162

CYQF;2018-10-28 11:00;CYQF 281100Z 16006KT 15SM BKN200 M01/M07 A2991 RMK CI7 SLP158

CYQF;2018-10-28 12:00;CYQF 281200Z 15008KT 15SM OVC240 M01/M06 A2987 RMK CI8 SLP148

CYQF;2018-10-28 13:00;CYQF 281300Z 14007KT 15SM BKN180 OVC240 M02/M06 A2984 RMK AC6CI2 PRESFR SLP141

CYQF;2018-10-28 14:00;CYQF 281400Z 16010KT 15SM FEW100 BKN200 M00/M06 A2980 RMK AC1CI6 SLP128

CYQF;2018-10-28 15:00;CYQF 281500Z 14012KT 15SM FEW160 OVC200 M01/M06 A2978 RMK AC2CI6 SLP127

CYQF;2018-10-28 16:00;CYQF 281600Z 15015G21KT 15SM SCT090 BKN170 01/M06 A2976 RMK AC3AC4 SLP118

CYQF;2018-10-28 17:00;CYQF 281700Z 15016G24KT 15SM SCT100 OVC220 03/M04 A2972 RMK AC3CI5 SLP105

CYQF;2018-10-28 18:00;CYQF 281800Z 15019KT 15SM BKN090 OVC250 05/M05 A2969 RMK AC5CI3 SLP094

CYQF;2018-10-28 19:00;CYQF 281900Z 15017G25KT 15SM BKN070 06/M03 A2966 RMK AC7 SLP081 DENSITY ALT 3000FT

CYQF;2018-10-28 20:00;CYQF 282000Z 15016G24KT 15SM BKN090 06/M02 A2963 RMK AC6 SLP071 DENSITY ALT 3000FT

CYQF;2018-10-28 21:00;CYQF 282100Z 16012G20KT 15SM SCT140 BKN220 08/M01 A2962 RMK AC3CI2 SLP068 DENSITY ALT 3200FT

CYQF;2018-10-28 22:00;CYQF 282200Z 15013KT 15SM FEW140 SCT220 08/M00 A2960 RMK AC2CI1 SLP055 DENSITY ALT 3300FT

CYQF;2018-10-28 23:00;CYQF 282300Z 13006KT 15SM FEW120 SCT240 08/M00 A2961 RMK AC2CI1 SLP058 DENSITY ALT 3200FT

CYQF;2018-10-29 00:00;CYQF 290000Z 03005KT 020V130 15SM SCT085 BKN260 04/M01 A2962 RMK ACC4CI1 SLP066

CYQF;2018-10-29 01:00;CYQF 290100Z 01003KT 310V020 15SM VCSH BKN080 05/M01 A2964 RMK ACC6 SLP073

CYQF;2018-10-29 02:00;CYQF 290200Z 31004KT 15SM SCT080 04/M01 A2965 RMK AC4 SLP076

CYQF;2018-10-29 03:00;CYQF 290300Z 27007KT 15SM FEW110 BKN220 01/M02 A2966 RMK AC2CI4 SLP084

CYQF;2018-10-29 04:00;CYQF 290400Z 29007KT 15SM BKN120 BKN220 01/M03 A2968 RMK AC5CI2 SLP087

CYQF;2018-10-29 05:00;CYQF 290500Z 27007KT 15SM SCT120 BKN220 M00/M04 A2969 RMK AC3CI4 SLP089

CYQF;2018-10-29 06:00;CYQF 290600Z 26007KT 15SM SCT220 M01/M05 A2969 RMK CI3 SLP090

CYQF;2018-10-29 07:00;CYQF 290700Z 28007KT 15SM FEW220 M01/M05 A2971 RMK CI2 SLP094

CYQF;2018-10-29 08:00;CYQF 290800Z 26007KT 15SM SCT220 M00/M05 A2972 RMK CI3 SLP097

CYQF;2018-10-29 09:00;CYQF 290900Z 25005KT 15SM SCT240 M01/M05 A2974 RMK CI3 SLP104

CYQF;2018-10-29 10:00;CYQF 291000Z 23009KT 15SM FEW080 BKN220 M05/M07 A2975 RMK AC2CI4 SLP110

CYQF;2018-10-29 11:00;CYQF 291100Z 21009KT 15SM FEW080 BKN220 M02/M04 A2976 RMK AC2CI5 SLP111

CYQF;2018-10-29 12:00;CYQF 291200Z 26007KT 15SM BKN080 01/M03 A2978 RMK AC7 SLP118

CYQF;2018-10-29 13:00;CYQF 291300Z 23005KT 15SM BKN090 00/M03 A2979 RMK AC7 SLP124

CYQF;2018-10-29 14:00;CYQF 291400Z 27006KT 15SM FEW050 BKN100 01/M02 A2980 RMK SC1AC6 VIRGA SLP127

CYQF;2018-10-29 15:00;CYQF 291500Z 29008KT 15SM SCT078 BKN250 02/M02 A2981 RMK ACC3CI2 VIRGA ALQDS SLP133

CYQF;2018-10-29 16:00;CYQF 291600Z 29010KT 15SM VCSH BKN080 BKN250 04/M01 A2983 RMK ACC5CI2 SLP137

CYQF;2018-10-29 17:00;CYQF 291700Z 28007KT 15SM BKN080 BKN250 04/M00 A2984 RMK AC5CI1 SLP140

CYQF;2018-10-29 18:00;CYQF 291800Z 32009G15KT 15SM BKN070 BKN120 07/00 A2985 RMK AC5AC1 VIRGA SLP141

CYQF;2018-10-29 19:00;CYQF 291900Z 31010KT 15SM FEW030 SCT070 BKN100 07/M00 A2984 RMK CU1ACC2AC4 SLP140

CYQF;2018-10-29 20:00;CYQF 292000Z 32007KT 280V340 15SM FEW040 FEW100 FEW260 10/M01 A2984 RMK CU1ACC1CI1 CU TR SLP135 DENSITY ALT 3200FT

CYQF;2018-10-29 21:00;CYQF 292100Z 33011KT 15SM SCT050 SCT100 11/M03 A2984 RMK CU3AC1 VIRGA SLP137 DENSITY ALT 3300FT

CYQF;2018-10-29 22:00;CYQF 292200Z 33011G16KT 15SM FEW056 SCT100 10/M04 A2985 RMK CU1AC2 SLP143 DENSITY ALT 3200FT

CYQF;2018-10-29 23:00;CYQF 292300Z 33005KT 15SM FEW044 SCT110 BKN260 07/M04 A2986 RMK CU1ACC4CI1 CU TR SLP148

CYQF;2018-10-30 00:00;CYQF 300000Z 33004KT 15SM FEW044 BKN120 06/M04 A2988 RMK CU1AC6 CU TR VIRGA SLP153

CYQF;2018-10-30 01:00;CYQF 300100Z 29005KT 15SM BKN100 06/M04 A2990 RMK ACC5 SLP160

CYQF;2018-10-30 02:00;CYQF 300200Z 33004KT 15SM BKN080 05/M04 A2991 RMK AC6 SLP164

CYQF;2018-10-30 03:00;CYQF 300300Z 34004KT 15SM BKN084 05/M03 A2992 RMK AC6 SLP168

CYQF;2018-10-30 04:00;CYQF 300400Z 24004KT 230V290 15SM BKN100 03/M03 A2993 RMK AC6 SLP168

CYQF;2018-10-30 05:00;CYQF 300500Z 23004KT 15SM SCT100 M01/M05 A2993 RMK AC3 SLP173

CYQF;2018-10-30 06:00;CYQF 300600Z 22007KT 15SM BKN100 M03/M06 A2993 RMK AC5 SLP172

CYQF;2018-10-30 07:00;CYQF 300700Z 22006KT 15SM BKN100 M00/M04 A2992 RMK AC7 SLP167

CYQF;2018-10-30 08:00;CYQF 300800Z 24005KT 15SM BKN100 01/M04 A2992 RMK AC7 SLP161

CYQF;2018-10-30 09:00;CYQF 300900Z 21004KT 15SM BKN100 M02/M04 A2993 RMK AC7 SLP166

CYQF;2018-10-30 10:00;CYQF 301000Z 20005KT 15SM FEW100 M04/M06 A2993 RMK AC2 SLP170

CYQF;2018-10-30 11:00;CYQF 301100Z 20004KT 15SM SKC M06/M07 A2993 RMK SLP176

CYQF;2018-10-30 12:00;CYQF 301200Z 17005KT 15SM BKN095 M05/M06 A2993 RMK AC5 SLP175

CYQF;2018-10-30 13:00;CYQF 301300Z 20004KT 15SM OVC080 M02/M05 A2994 RMK AC8 SLP175

CYQF;2018-10-30 14:00;CYQF 301400Z 20004KT 15SM SCT080 BKN093 M02/M05 A2994 RMK AC4AC3 SLP178

CYQF;2018-10-30 15:00;CYQF 301500Z 24003KT 15SM BKN070 M01/M04 A2996 RMK AC7 VIRGA SLP182

CYQF;2018-10-30 16:00;CYQF 301600Z 18003KT 15SM BKN100 BKN250 00/M04 A2996 RMK AC5CI2 VIRGA SLP183

CYQF;2018-10-30 17:00;CYQF 301700Z 22004KT 15SM FEW070 BKN100 BKN250 02/M04 A2998 RMK AC1AC5CI1 VIRGA SLP193

CYQF;2018-10-30 18:00;CYQF 301800Z VRB03KT 15SM BKN048 BKN090 05/M03 A2999 RMK SC5AC2 VIRGA SLP194

CYQF;2018-10-30 19:00;CYQF 301900Z VRB02KT 15SM FEW050 SCT100 BKN200 07/M02 A2998 RMK SC2AC2CI2 VIRGA SLP187

CYQF;2018-10-30 20:00;CYQF 302000Z 04006KT 15SM FEW050 SCT100 BKN200 09/M02 A2997 RMK SC1AC3CI1 VIRGA SLP181

CYQF;2018-10-30 21:00;CYQF 302100Z 33009KT 15SM FEW060 BKN100 10/M03 A2996 RMK CU2AC4 SLP177 DENSITY ALT 3000FT

CYQF;2018-10-30 22:00;CYQF 302200Z 34004KT 15SM FEW060 BKN120 09/M03 A2995 RMK SC1AC4 SLP178 DENSITY ALT 3000FT

CYQF;2018-10-30 23:00;CYQF 302300Z 34003KT 290V010 15SM BKN100 08/M03 A2996 RMK AC6 VIRGA SLP185

CYQF;2018-10-31 00:00;CYQF 310000Z 17003KT 170V240 15SM BKN110 07/M04 A2996 RMK AC5 SLP185

CYQF;2018-10-31 01:00;CYQF 310100Z 18003KT 15SM BKN110 03/M04 A2996 RMK AC7 SLP185

CYQF;2018-10-31 02:00;CYQF 310200Z 00000KT 15SM FEW080 BKN120 01/M04 A2996 RMK AC2AC5 SLP188

CYQF;2018-10-31 03:00;CYQF 310300Z 19003KT 180V240 15SM BKN080 03/M03 A2996 RMK AC7 SLP187

CYQF;2018-10-31 04:00;CYQF 310400Z 21006KT 15SM BKN090 01/M03 A2995 RMK AC6 SLP182

CYQF;2018-10-31 05:00;CYQF 310500Z 23008KT 15SM BKN100 01/M04 A2994 RMK AC6 SLP177

CYQF;2018-10-31 06:00;CYQF 310600Z 22007KT 15SM SCT100 M02/M06 A2993 RMK AC3 SLP175

CYQF;2018-10-31 07:00;CYQF 310700Z 24004KT 15SM FEW100 SCT230 M04/M06 A2992 RMK AC2CI1 SLP170

CYQF;2018-10-31 08:00;CYQF 310800Z 23005KT 15SM FEW100 BKN230 M06/M09 A2991 RMK AC1CI5 SLP169

CYQF;2018-10-31 09:00;CYQF 310900Z 20005KT 15SM FEW100 BKN170 M04/M07 A2990 RMK AC1AC6 SLP161

CYQF;2018-10-31 10:00;CYQF 311000Z 20005KT 15SM OVC150 M04/M07 A2989 RMK AC8 SLP157

CYQF;2018-10-31 11:00;CYQF 311100Z 17003KT 15SM OVC150 M03/M06 A2986 RMK AC8 SLP148

CYQF;2018-10-31 12:00;CYQF 311200Z 00000KT 15SM BKN120 M04/M07 A2983 RMK AC5 SLP141

CYQF;2018-10-31 13:00;CYQF 311300Z 23003KT 15SM FEW120 M03/M07 A2981 RMK AC2 SLP135

CYQF;2018-10-31 14:00;CYQF 311400Z 00000KT 15SM FEW120 BKN190 M04/M07 A2978 RMK AC1CI4 SLP127

CYQF;2018-10-31 15:00;CYQF 311500Z 19002KT 15SM BKN100 M03/M06 A2977 RMK AC7 SLP123

CYQF;2018-10-31 16:00;CYQF 311600Z VRB02KT 15SM BKN100 M02/M06 A2976 RMK AC7 SLP117

CYQF;2018-10-31 17:00;CYQF 311700Z 00000KT 15SM BKN100 01/M04 A2973 RMK AC7 SLP105

CYQF;2018-10-31 18:00;CYQF 311800Z 14004KT 15SM BKN100 BKN260 05/M04 A2972 RMK AC6CI1 SLP101

CYQF;2018-10-31 19:00;CYQF 311900Z VRB02KT 15SM SCT090 BKN110 06/M03 A2971 RMK AC4AC3 SLP097

CYQF;2018-10-31 20:00;CYQF 312000Z 23005KT 15SM BKN090 07/M04 A2970 RMK AC7 SLP095 DENSITY ALT 3000FT

CYQF;2018-10-31 21:00;CYQF 312100Z 23004KT 15SM BKN110 07/M03 A2969 RMK AC7 SLP090 DENSITY ALT 3100FT

CYQF;2018-10-31 22:00;CYQF 312200Z 31004KT 190V340 15SM BKN097 08/M05 A2969 RMK AC7 SLP088 DENSITY ALT 3100FT

CYQF;2018-10-31 23:00;CYQF 312300Z 25003KT 15SM BKN090 07/M04 A2969 RMK AC7 VIRGA SLP089 DENSITY ALT 3000FT

CYQF;2018-11-01 00:00;CYQF 010000Z 00000KT 15SM BKN090 05/M04 A2968 RMK AC6 SLP091

CYQF;2018-11-01 01:00;CYQF 010100Z 19003KT 15SM BKN085 03/M04 A2967 RMK AC5 SLP087

CYQF;2018-11-01 02:00;CYQF 010200Z 20005KT 15SM BKN090 02/M03 A2966 RMK AC5 SLP085

CYQF;2018-11-01 03:00;CYQF 010300Z 20005KT 15SM BKN120 01/M04 A2964 RMK AC5 SLP080

CYQF;2018-11-01 04:00;CYQF 010400Z 30007KT 15SM BKN060 04/M04 A2968 RMK SC6 PRESRR SLP088

CYQF;2018-11-01 04:28;CYQF 010428Z 35010KT 12SM -SHRA BKN040 BKN070 04/M02 A2972 RMK SC5AC2 CVCTV CLD EMBD PRESRR SLP101

CYQF;2018-11-01 05:00;CYQF 010500Z 34015G21KT 15SM -SHRA BKN040 OVC140 04/M01 A2974 RMK SC6AC2 SLP105

CYQF;2018-11-01 06:00;CYQF 010600Z 29012KT 15SM BKN040 OVC072 04/00 A2976 RMK SC5AC3 PRESRR SLP109

CYQF;2018-11-01 07:00;CYQF 010700Z 29014KT 15SM BKN060 OVC092 04/M00 A2979 RMK SC6AC2 SLP118

CYQF;2018-11-01 08:00;CYQF 010800Z 30015G23KT 15SM FEW040 FEW140 03/M02 A2980 RMK SC1AC1 SLP123

CYQF;2018-11-01 09:00;CYQF 010900Z 32014G23KT 15SM BKN025 BKN120 03/M01 A2983 RMK SC5AC2 SLP131

CYQF;2018-11-01 10:00;CYQF 011000Z 32015G27KT 15SM OVC022 03/M01 A2987 RMK SC8 SLP144

CYQF;2018-11-01 11:00;CYQF 011100Z 33018KT 15SM OVC015 02/M01 A2990 RMK SC8 PRESRR SLP157

CYQF;2018-11-01 12:00;CYQF 011200Z 33010G17KT 15SM OVC012 02/M00 A2995 RMK SC8 SLP175

CYQF;2018-11-01 13:00;CYQF 011300Z 31010G16KT 15SM OVC022 02/M01 A2997 RMK SC8 SLP186

CYQF;2018-11-01 14:00;CYQF 011400Z 32005KT 15SM OVC015 02/M01 A2999 RMK SC8 SLP193

CYQF;2018-11-01 15:00;CYQF 011500Z 34009KT 15SM BKN019 BKN040 02/M01 A3000 RMK SC6SC1 SLP198

CYQF;2018-11-01 16:00;CYQF 011600Z 29005KT 15SM BKN015 02/M01 A3002 RMK SC7 SLP203

CYQF;2018-11-01 17:00;CYQF 011700Z 33007KT 15SM BKN014 02/M01 A3002 RMK SC7 SLP202

CYQF;2018-11-01 18:00;CYQF 011800Z 34011KT 15SM OVC032 03/M02 A3003 RMK SC8 SLP203

CYQF;2018-11-01 19:00;CYQF 011900Z 32007KT 15SM FEW015 BKN028 03/M02 A3003 RMK SC2SC5 SLP204

CYQF;2018-11-01 20:00;CYQF 012000Z 34005KT 15SM OVC028 03/M02 A3003 RMK SC8 SLP204

CYQF;2018-11-01 21:00;CYQF 012100Z 02003KT 15SM OVC028 03/M03 A3002 RMK SC8 SLP201

CYQF;2018-11-01 22:00;CYQF 012200Z 04006KT 15SM OVC035 03/M02 A3000 RMK SC8 SLP195

CYQF;2018-11-01 23:00;CYQF 012300Z 09005KT 10SM SCT018 OVC030 02/M01 A2999 RMK CF3SC5 SLP193

CYQF;2018-11-02 00:00;CYQF 020000Z 13009KT 8SM FEW018 BKN030 OVC090 02/M01 A2997 RMK CF1SC4AC3 SLP188

CYQF;2018-11-02 01:00;CYQF 020100Z 12008KT 12SM SCT080 BKN250 01/M02 A2995 RMK AC4CI3 SLP180

CYQF;2018-11-02 02:00;CYQF 020200Z 12009KT 12SM OVC075 00/M03 A2992 RMK AC8 SLP172

CYQF;2018-11-02 03:00;CYQF 020300Z 13010G16KT 12SM OVC070 00/M03 A2989 RMK AC8 SLP160

CYQF;2018-11-02 03:50;CYQF 020350Z 14012KT 8SM -SN OVC040 M00/M03 A2986 RMK SC8 SLP152

CYQF;2018-11-02 04:00;CYQF 020400Z 14011G17KT 5SM -SN OVC040 M00/M02 A2985 RMK SC8 SLP149

CYQF;2018-11-02 05:00;CYQF 020500Z 13012G17KT 4SM -SN OVC040 M01/M02 A2983 RMK SC8 SLP139

CYQF;2018-11-02 06:00;CYQF 020600Z 13014KT 4SM -SN FEW010 OVC040 M01/M02 A2980 RMK SC1SC7 SLP128

CYQF;2018-11-02 07:00;CYQF 020700Z 14016G21KT 3SM -SN SCT010 OVC034 M01/M02 A2976 RMK SC4SC4 SLP116

CYQF;2018-11-02 07:25;CYQF 020725Z 14016G21KT 4SM -SN BKN009 OVC034 M01/M02 A2975 RMK SC6SC2 SLP113

CYQF;2018-11-02 08:00;CYQF 020800Z 14013G18KT 3SM -SN BKN008 OVC030 M01/M02 A2974 RMK SC7SC1 SLP108

CYQF;2018-11-02 08:14;CYQF 020814Z 14013G21KT 2 1/2SM -SN BKN006 OVC026 M01/M02 A2972 RMK SC7SC1 SLP104

CYQF;2018-11-02 09:00;CYQF 020900Z 15013KT 2 1/2SM -SN OVC007 M01/M02 A2971 RMK SC8 SLP097

CYQF;2018-11-02 10:00;CYQF 021000Z 14012KT 4SM -SN OVC008 M01/M02 A2967 RMK SC8 SLP084

CYQF;2018-11-02 11:00;CYQF 021100Z 15012KT 4SM -SN OVC006 M01/M02 A2964 RMK SC8 SLP076

CYQF;2018-11-02 12:00;CYQF 021200Z 15011KT 4SM -SN OVC006 M01/M02 A2961 RMK SC8 SLP065

CYQF;2018-11-02 12:06;CYQF 021206Z 14011KT 3SM -FZRA -SN OVC006 M01/M01 A2961 RMK SC8 SLP063

CYQF;2018-11-02 13:00;CYQF 021300Z CCA 14009KT 3SM -FZRA -SN OVC006 M00/M01 A2958 RMK SC8 SLP056

CYQF;2018-11-02 13:21;CYQF 021321Z 14008KT 3SM -FZRA OVC007 M00/M01 A2957 RMK SC8 SLP053

CYQF;2018-11-02 14:00;CYQF 021400Z 13009KT 5SM -FZRA OVC007 M00/M01 A2956 RMK SC8 SLP049

CYQF;2018-11-02 14:50;CYQF 021450Z 14008KT 3SM -FZRA -SN OVC008 M00/M01 A2957 RMK SC8 SLP051

CYQF;2018-11-02 15:00;CYQF 021500Z 13004KT 3SM -FZRA -SN OVC007 M00/M01 A2957 RMK SC8 SLP053

CYQF;2018-11-02 15:23;CYQF 021523Z 12006KT 2SM -SN OVC007 M00/M01 A2957 RMK SN3SC5 SLP053

CYQF;2018-11-02 16:00;CYQF 021600Z 06003KT 050V110 2SM -SN BKN008 OVC018 M00/M01 A2958 RMK SN3SF3SC2 SLP056

CYQF;2018-11-02 17:00;CYQF 021700Z 05008KT 2 1/2SM -SN BR BKN005 OVC009 M01/M02 A2959 RMK SN2SF3SC3 CIG RAG SLP062

CYQF;2018-11-02 17:43;CYQF 021743Z 04008KT 3SM -SN BR BKN005 OVC009 M01/M02 A2962 RMK SF5SC3 SLP071

CYQF;2018-11-02 18:00;CYQF 021800Z 03007KT 3SM -SN BR OVC008 M01/M02 A2963 RMK SC8 SLP076

CYQF;2018-11-02 18:40;CYQF 021840Z 04006KT 2SM -SN BR OVC008 M01/M02 A2967 RMK SN3SC5 SLP088

CYQF;2018-11-02 19:00;CYQF 021900Z 04004KT 2SM -SN BR OVC004 M01/M02 A2967 RMK SN3SC5 SLP090

CYQF;2018-11-02 20:00;CYQF 022000Z 01003KT 2SM -SN BR BKN004 OVC020 M01/M02 A2970 RMK SF5SC3 VIA CYQU SLP098

CYQF;2018-11-02 20:30;CYQF 022030Z 33003KT 5SM BR BKN005 OVC020 M01/M02 A2971 RMK ST6SC2 VIA CYQU SLP104

CYQF;2018-11-02 21:00;CYQF 022100Z 32005KT 5SM -SN BR BKN009 OVC015 M01/M02 A2973 RMK SC5SC3 VIA CYQU SLP109

CYQF;2018-11-02 22:00;CYQF 022200Z 00000KT 4SM -SN SCT008 OVC014 M01/M02 A2976 RMK SC3SC5 VIA CYQU SLP121

CYQF;2018-11-02 23:00;CYQF 022300Z 35006KT 6SM -SN OVC015 M01/M02 A2979 RMK SC8 VIA CYQU SLP130

CYQF;2018-11-03 00:00;CYQF 030000Z 34007KT 6SM -SN BKN014 OVC100 M01/M02 A2983 RMK SC7AC1 VIA CYQU SLP143

CYQF;2018-11-03 01:00;CYQF 030100Z 33005KT 8SM -SN BKN014 OVC080 M01/M02 A2986 RMK SC5AC3 -SN INTMT VIA CYQU SLP155

CYQF;2018-11-03 01:16;CYQF 030116Z 32004KT 10SM -SN SCT015 OVC070 M01/M02 A2988 RMK SC3AC5 VIA CYQU SLP161

CYQF;2018-11-03 02:00;CYQF 030200Z 31003KT 10SM -SN BKN018 OVC070 M01/M02 A2991 RMK SC6AC2 VIA CYQU SLP170

CYQF;2018-11-03 03:00;CYQF 030300Z 36002KT 6SM -SN SCT017 OVC060 M01/M02 A2991 RMK SC4SC4 VIA CYQU SLP173

CYQF;2018-11-03 04:00;CYQF 030400Z 26005KT 8SM -SN SCT020 BKN090 M01/M02 A2993 RMK SC3AC4 VIA CYQU SLP178

CYQF;2018-11-03 04:44;CYQF 030444Z 02002KT 8SM SCT015 BKN070 M03/M03 A2994 RMK SC3AC2 VIA CYQU SLP183

CYQF;2018-11-03 05:00;CYQF 030500Z 02004KT 8SM BKN015 M02/M03 A2994 RMK SC6 VIA CYQU SLP184

CYQF;2018-11-03 06:00;CYQF 030600Z 02003KT 5SM BR FEW015 M03/M04 A2995 RMK SC1 VIA CYQU SLP188

CYQF;2018-11-03 08:00;CYQF 030800Z 19006KT 10SM FEW080 M05/M06 A2993 RMK AC1 VIA CYQU SLP186

CYQF;2018-11-03 09:00;CYQF 030900Z /////KT 6SM BR BKN100 M06/M06 A2993 RMK AC5 VIA CYQU SLP185

CYQF;2018-11-03 10:00;CYQF 031000Z 18004KT 10SM SCT100 M06/M07 A2992 RMK AC3 VIA CYQU SLP183

CYQF;2018-11-03 11:00;CYQF 031100Z 21004KT 15SM SCT100 M04/M05 A2992 RMK AC4 VIA CYQU SLP178

CYQF;2018-11-03 12:00;CYQF 031200Z 17006KT 15SM BKN100 M04/M04 A2991 RMK AC6 VIA CYQU SLP175

CYQF;2018-11-03 13:00;CYQF 031300Z 18005KT 15SM OVC100 M03/M03 A2993 RMK AC8 VIA CYQU SLP181

CYQF;2018-11-03 14:00;CYQF 031400Z 16003KT 15SM OVC100 M02/M03 A2992 RMK AC8 VIA CYQU SLP177

CYQF;2018-11-03 15:00;CYQF 031500Z 16006KT 10SM BKN110 M03/M03 A2991 RMK AC7 VIA CYQU SLP176

CYQF;2018-11-03 16:00;CYQF 031600Z 18004KT 10SM SCT100 BKN250 M02/M02 A2991 RMK AC4CI3 VIA CYQU SLP175

CYQF;2018-11-03 17:00;CYQF 031700Z 18008KT 10SM BKN110 BKN250 M00/M01 A2989 RMK AC5CI2 VIRGA VIA CYQU SLP167

CYQF;2018-11-03 18:00;CYQF 031800Z 16003KT 10SM BKN110 BKN250 01/00 A2990 RMK AC5CI2 VIA CYQU SLP168

CYQF;2018-11-03 19:00;CYQF 031900Z 17005KT 12SM SCT140 BKN250 02/00 A2987 RMK AC4CI2 VIA CYQU SLP151

CYQF;2018-11-03 20:00;CYQF 032000Z 14003KT 8SM FEW140 SCT250 04/02 A2984 RMK AC1CI2 VIA CYQU SLP148

CYQF;2018-11-03 21:00;CYQF 032100Z 13006KT 8SM FEW140 SCT260 05/02 A2981 RMK AC1CI3 PRESFR SLP138

CYQF;2018-11-03 22:00;CYQF 032200Z 14004KT 12SM FEW012 FEW140 BKN260 06/04 A2979 RMK CU1AC1CI4 SLP127

CYQF;2018-11-03 23:00;CYQF 032300Z 15004KT 12SM FEW015 FEW140 BKN250 05/03 A2978 RMK CU1AC2CI5 CU TR SLP124

CYQF;2018-11-04 05:00;CYQF 040500Z 16005KT 15SM OVC140 01/M01 A2959 RMK AC8 SLP059

CYQF;2018-11-04 06:00;CYQF 040600Z 19006KT 15SM FEW130 BKN210 02/M01 A2954 RMK AC2CI5 SLP037

CYQF;2018-11-04 07:00;CYQF 040700Z 18009KT 15SM OVC100 03/M01 A2950 RMK AC8 SLP020

CYQF;2018-11-04 08:00;CYQF 040800Z 15004KT 15SM OVC085 03/M00 A2944 RMK AC8 SLP001

CYQF;2018-11-04 09:00;CYQF 040900Z 16005KT 15SM OVC076 03/00 A2941 RMK AC8 PRESFR SLP987

CYQF;2018-11-04 10:00;CYQF 041000Z 19003KT 160V300 15SM OVC071 04/M00 A2938 RMK AC8 SLP975 DENSITY ALT 3000FT

CYQF;2018-11-04 11:00;CYQF 041100Z 04005KT 15SM OVC100 02/M00 A2934 RMK AC8 SLP965

CYQF;2018-11-04 12:00;CYQF 041200Z 09005KT 15SM OVC085 02/M01 A2931 RMK AC8 SLP956

CYQF;2018-11-04 13:00;CYQF 041300Z 00000KT 15SM OVC090 02/M01 A2930 RMK AC8 SLP952

CYQF;2018-11-04 14:00;CYQF 041400Z VRB05KT 15SM SCT100 BKN150 02/M01 A2929 RMK AC3AC3 SLP950

CYQF;2018-11-04 15:00;CYQF 041500Z 36004KT 15SM BKN090 BKN150 01/M01 A2929 RMK AC6AC1 SLP951

CYQF;2018-11-04 16:00;CYQF 041600Z 28002KT 15SM BKN085 02/M00 A2930 RMK AC7 VIRGA SLP954

CYQF;2018-11-04 17:00;CYQF 041700Z 36004KT 320V040 12SM -RA BKN080 04/00 A2932 RMK AC7 SLP959 DENSITY ALT 3100FT

CYQF;2018-11-04 18:00;CYQF 041800Z 25004KT 12SM -RA BKN070 BKN250 05/01 A2933 RMK AC6CI1 SLP962 DENSITY ALT 3100FT

CYQF;2018-11-04 19:02;CYQF 041902Z 30002KT 12SM BKN070 OVC250 06/02 A2935 RMK AC6CI2 VIRGA SLP966 DENSITY ALT 3300FT

CYQF;2018-11-04 20:00;CYQF 042000Z 30008KT 10SM -RA OVC070 06/02 A2939 RMK AS8 VIS SW 4 SLP979 DENSITY ALT 3200FT

CYQF;2018-11-04 21:00;CYQF 042100Z 33007KT 10SM -RA SCT025 BKN050 BKN080 05/03 A2942 RMK SC3SC3AC1 SLP992 DENSITY ALT 3100FT

CYQF;2018-11-04 22:00;CYQF 042200Z 32017G23KT 12SM -RA SCT025 BKN070 BKN180 05/02 A2945 RMK SC3AC2AC2 -RA INTMT PRESRR SLP002 DENSITY ALT 3000FT

CYQF;2018-11-04 22:50;CYQF 042250Z 34012KT 12SM BKN030 BKN080 03/01 A2950 RMK SC5AC2 SLP019

CYQF;2018-11-04 23:00;CYQF 042300Z 34012KT 12SM BKN025 BKN080 03/00 A2950 RMK SC6AC1 SLP023

CYQF;2018-11-04 23:45;CYQF 042345Z 34020G27KT 12SM OVC013 02/M00 A2954 RMK SC8 SLP036

CYQF;2018-11-05 00:00;CYQF 050000Z 34017G25KT 12SM BKN014 BKN025 OVC080 01/M01 A2955 RMK SC5SC2AC1 PRESRR SLP043

CYQF;2018-11-05 00:20;CYQF 050020Z 33019G26KT 8SM -SN BKN014 OVC030 01/M02 A2957 RMK SC5SC3 PRESRR SLP050

CYQF;2018-11-05 00:53;CYQF 050053Z 34014G25KT 1 1/2SM -SN OVC020 M01/M03 A2961 RMK SN2SC6 SLP064

CYQF;2018-11-05 01:00;CYQF 050100Z 34014G20KT 3SM -SN BKN015 OVC050 M01/M03 A2961 RMK SC6SC2 VIS VRB 2-4 SLP067

CYQF;2018-11-05 02:00;CYQF 050200Z 34013G22KT 12SM -SN BKN020 OVC050 M02/M05 A2965 RMK SC6SC2 SLP081

CYQF;2018-11-05 03:00;CYQF 050300Z 34016G28KT 12SM -SN OVC020 M03/M07 A2969 RMK SC8 -SN INTMT SLP096

CYQF;2018-11-05 03:11;CYQF 050311Z 33021G27KT 15SM BKN022 M03/M07 A2970 RMK SC7 SLP098

CYQF;2018-11-05 04:00;CYQF 050400Z 34014G25KT 15SM FEW020 BKN040 M04/M07 A2972 RMK SC1SC4 SLP107

CYQF;2018-11-05 05:00;CYQF 050500Z 34015G21KT 15SM SCT020 M04/M08 A2974 RMK SC3 SLP113

CYQF;2018-11-05 05:24;CYQF 050524Z 32021G31KT 5SM -SN BKN020 OVC050 M05/M08 A2976 RMK SC5SC3 SLP119

CYQF;2018-11-05 05:42;CYQF 050542Z 33017G25KT 12SM BKN023 M05/M08 A2977 RMK SC6 SLP121

CYQF;2018-11-05 06:00;CYQF 050600Z 33019G26KT 10SM BKN022 BKN060 M05/M09 A2978 RMK SC5SC2 SLP124

CYQF;2018-11-05 07:00;CYQF 050700Z 33021G29KT 12SM OVC025 M05/M10 A2980 RMK SC8 SLP130

CYQF;2018-11-05 07:22;CYQF 050722Z 33015KT 8SM -SN OVC022 M05/M09 A2981 RMK SC8 SLP134

CYQF;2018-11-05 08:00;CYQF 050800Z 33018G24KT 10SM -SN OVC021 M05/M10 A2982 RMK SC8 SLP138

CYQF;2018-11-05 09:00;CYQF 050900Z 33017G25KT 12SM -SN OVC019 M06/M09 A2985 RMK SC8 SLP150

CYQF;2018-11-05 10:00;CYQF 051000Z 32014G24KT 12SM -SN OVC016 M06/M09 A2987 RMK SC8 SLP157

CYQF;2018-11-05 11:00;CYQF 051100Z 33012G18KT 12SM -SN OVC021 M06/M09 A2988 RMK SC8 SLP164

CYQF;2018-11-05 12:00;CYQF 051200Z 33013G18KT 15SM -SN OVC020 M06/M09 A2989 RMK SC8 SLP169

CYQF;2018-11-05 12:26;CYQF 051226Z 32011KT 15SM OVC017 M06/M09 A2990 RMK SC8 SLP172

CYQF;2018-11-05 13:00;CYQF 051300Z 32011KT 15SM OVC015 M06/M09 A2990 RMK SC8 SLP175

CYQF;2018-11-05 13:13;CYQF 051313Z 34010KT 12SM -SN OVC015 M06/M09 A2990 RMK SC8 SLP176

CYQF;2018-11-05 14:00;CYQF 051400Z 34011KT 15SM -SN OVC014 M06/M09 A2991 RMK SC8 SLP181

CYQF;2018-11-05 15:00;CYQF 051500Z 33010KT 15SM BKN015 M06/M09 A2993 RMK SC7 SLP188

CYQF;2018-11-05 16:00;CYQF 051600Z 34011KT 15SM BKN015 M07/M10 A2994 RMK SC7 SLP193

CYQF;2018-11-05 17:00;CYQF 051700Z 35009KT 15SM BKN015 BKN210 M06/M10 A2995 RMK SC5CI2 SLP198

CYQF;2018-11-05 18:00;CYQF 051800Z 35007KT 15SM BKN016 BKN120 BKN230 M06/M10 A2997 RMK SC5AC1CI1 SLP202

CYQF;2018-11-05 19:00;CYQF 051900Z 36007KT 10SM BKN020 BKN120 M06/M10 A2998 RMK SC5AC2 SLP206

CYQF;2018-11-05 20:00;CYQF 052000Z 34007KT 12SM SCT020 BKN070 BKN120 M05/M10 A2998 RMK SC3AC3AC1 SLP208

CYQF;2018-11-05 21:00;CYQF 052100Z 01008KT 12SM SCT020 BKN080 M06/M10 A2999 RMK SC3AC4 SLP212

CYQF;2018-11-05 22:00;CYQF 052200Z 04008KT 15SM FEW020 OVC070 M06/M10 A3000 RMK SC2AC6 SLP215

CYQF;2018-11-05 23:00;CYQF 052300Z 02006KT 15SM FEW020 BKN068 M06/M09 A3002 RMK SF1AC6 SLP223

CYQF;2018-11-06 00:00;CYQF 060000Z 02008KT 12SM FEW012 OVC070 M07/M10 A3004 RMK SF1AC7 SLP230

CYQF;2018-11-06 00:36;CYQF 060036Z 02006KT 12SM -SN FEW012 OVC070 M08/M10 A3004 RMK SF1AC7 SLP232

CYQF;2018-11-06 01:00;CYQF 060100Z 01007KT 12SM -SN FEW012 OVC070 M08/M10 A3005 RMK SF1AC7 SLP234

CYQF;2018-11-06 02:00;CYQF 060200Z 02008KT 15SM OVC060 M08/M11 A3007 RMK SC8 INTMT -SN SLP241

CYQF;2018-11-06 02:24;CYQF 060224Z 03006KT 8SM BKN010 OVC090 M09/M11 A3007 RMK ST5AC3 INTMT -SN SLP244

CYQF;2018-11-06 02:40;CYQF 060240Z 03006KT 10SM BKN010 OVC100 M09/M11 A3008 RMK ST5AC3 SLP247

CYQF;2018-11-06 03:00;CYQF 060300Z 05007KT 12SM BKN011 OVC100 M09/M11 A3008 RMK ST5AC3 SLP248

CYQF;2018-11-06 03:10;CYQF 060310Z 03007KT 12SM -SN SCT010 OVC120 M09/M11 A3008 RMK ST4AC4 SLP248

CYQF;2018-11-06 03:25;CYQF 060325Z 04005KT 12SM -SN BKN010 OVC120 M09/M11 A3009 RMK ST5AC3 -SN INTMT SLP251

CYQF;2018-11-06 03:51;CYQF 060351Z 03005KT 15SM SCT010 BKN070 OVC120 M10/M12 A3010 RMK ST3AC4AC1 SLP254

CYQF;2018-11-06 04:00;CYQF 060400Z 03005KT 15SM SCT010 BKN070 OVC120 M10/M12 A3010 RMK ST3AC4AC1 SLP254

CYQF;2018-11-06 05:00;CYQF 060500Z 03006KT 12SM SCT010 OVC060 M10/M12 A3011 RMK SC4SC4 SLP259

CYQF;2018-11-06 05:12;CYQF 060512Z 03006KT 12SM BKN009 OVC060 M10/M12 A3012 RMK SC5SC3 SLP261

CYQF;2018-11-06 06:00;CYQF 060600Z 04007KT 12SM OVC009 M10/M12 A3013 RMK ST8 SLP266

CYQF;2018-11-06 06:42;CYQF 060642Z 03006KT 10SM -SN OVC008 M11/M12 A3013 RMK ST8 SLP267

CYQF;2018-11-06 07:00;CYQF 060700Z 02006KT 10SM -SN OVC009 M11/M12 A3013 RMK ST8 SLP267

CYQF;2018-11-06 08:00;CYQF 060800Z 04005KT 10SM -SN OVC009 M11/M12 A3014 RMK ST8 SLP270

CYQF;2018-11-06 09:00;CYQF 060900Z 05004KT 010V080 10SM -SN OVC009 M11/M13 A3015 RMK ST8 SLP272

CYQF;2018-11-06 09:48;CYQF 060948Z 06003KT 10SM OVC010 M11/M13 A3016 RMK ST8 IC SLP276

CYQF;2018-11-06 10:00;CYQF 061000Z 03004KT 020V090 10SM OVC010 M11/M13 A3016 RMK ST8 IC SLP276

CYQF;2018-11-06 11:00;CYQF 061100Z 03003KT 020V080 10SM OVC010 M11/M13 A3016 RMK ST8 IC SLP278

CYQF;2018-11-06 12:00;CYQF 061200Z 06004KT 10SM OVC010 M11/M13 A3017 RMK ST8 IC SLP282

CYQF;2018-11-06 13:00;CYQF 061300Z 07003KT 12SM OVC010 M11/M13 A3018 RMK ST8 IC SLP287

CYQF;2018-11-06 13:44;CYQF 061344Z 05003KT 8SM -SN OVC010 M11/M13 A3019 RMK ST8 SLP289

CYQF;2018-11-06 14:00;CYQF 061400Z 04003KT 10SM -SN OVC009 M11/M13 A3019 RMK ST8 SLP290

CYQF;2018-11-06 14:38;CYQF 061438Z 03004KT 10SM OVC010 M11/M13 A3020 RMK ST8 SLP293

CYQF;2018-11-06 15:00;CYQF 061500Z 05003KT 360V080 8SM OVC010 M11/M13 A3020 RMK SC8 SLP295

CYQF;2018-11-06 16:00;CYQF 061600Z 03004KT 8SM OVC010 M11/M13 A3021 RMK ST8 SLP299

CYQF;2018-11-06 16:23;CYQF 061623Z 03003KT 6SM IC BR BKN010 OVC040 M10/M13 A3022 RMK ST6SC2 SLP301

CYQF;2018-11-06 17:00;CYQF 061700Z 04004KT 010V080 5SM -SN BR BKN011 OVC050 M10/M13 A3022 RMK ST5SC3 SLP302

CYQF;2018-11-06 18:00;CYQF 061800Z 00000KT 3SM -SN BR BKN010 OVC040 M10/M12 A3024 RMK SF5SC3 SLP307

CYQF;2018-11-06 18:39;CYQF 061839Z VRB04KT 2SM -SN BR BKN010 OVC035 M09/M12 A3024 RMK SN2SF4SC2 SLP307

CYQF;2018-11-06 19:00;CYQF 061900Z VRB02KT 2SM -SN BKN010 OVC035 M09/M12 A3024 RMK SC6SC2 SLP307

CYQF;2018-11-06 20:00;CYQF 062000Z 36003KT 340V040 2SM -SN BKN010 VV033 M09/M11 A3024 RMK ST5SN3 SLP307

CYQF;2018-11-06 21:00;CYQF 062100Z 35004KT 330V050 2SM -SN BKN012 VV035 M08/M11 A3024 RMK ST5SN3 SLP308

CYQF;2018-11-06 22:00;CYQF 062200Z 35008KT 2SM -SN BKN013 OVC040 M08/M11 A3025 RMK SC5SC3 SLP311

CYQF;2018-11-06 22:41;CYQF 062241Z 34008KT 3SM -SN SCT013 BKN020 BKN070 M09/M12 A3026 RMK ST3SC2AC2 VIS LWR S SLP313

CYQF;2018-11-06 23:00;CYQF 062300Z 34005KT 6SM -SN SCT013 BKN070 BKN260 M09/M12 A3026 RMK SC3AC2CI2 SLP313

CYQF;2018-11-06 23:08;CYQF 062308Z 34005KT 8SM FEW012 BKN070 BKN260 M09/M12 A3026 RMK SC2AC3CI2 SLP315

CYQF;2018-11-07 00:00;CYQF 070000Z 32003KT 8SM SCT016 BKN070 OVC120 M10/M12 A3027 RMK SC4AC3AC1 SLP318

CYQF;2018-11-07 01:00;CYQF 070100Z 34006KT 8SM -SN SCT018 OVC040 M09/M12 A3027 RMK SC3SC5 SLP319

CYQF;2018-11-07 01:07;CYQF 070107Z 34005KT 8SM -SN SCT016 OVC040 M09/M12 A3027 RMK SC3SC5 SLP318

CYQF;2018-11-07 02:00;CYQF 070200Z 32004KT 8SM -SN FEW016 SCT055 OVC120 M09/M12 A3028 RMK SF1SC2AC5 SLP322

CYQF;2018-11-07 03:00;CYQF 070300Z 31003KT 5SM -SN FEW040 OVC080 M09/M11 A3029 RMK SC2AC6 SLP323

CYQF;2018-11-07 04:00;CYQF 070400Z 34004KT 12SM -SN SCT025 OVC080 M10/M11 A3029 RMK SC3AC5 SLP328

CYQF;2018-11-07 05:00;CYQF 070500Z 36004KT 12SM -SN BKN018 OVC060 M09/M11 A3030 RMK SC5SC3 SLP328

CYQF;2018-11-07 05:27;CYQF 070527Z 02006KT 12SM -SN FEW008 SCT012 OVC020 M09/M11 A3031 RMK SF2SC2SC4 SLP331

CYQF;2018-11-07 06:00;CYQF 070600Z 03006KT 10SM -SN FEW010 OVC019 M10/M12 A3031 RMK SC2SC6 /S01/ SLP331

CYQF;2018-11-07 07:00;CYQF 070700Z 35007KT 10SM -SN OVC019 M10/M12 A3031 RMK SC8 SLP331

CYQF;2018-11-07 08:00;CYQF 070800Z 34007KT 8SM -SN OVC018 M10/M12 A3031 RMK SC8 SLP331

CYQF;2018-11-07 09:00;CYQF 070900Z 34008KT 8SM -SN OVC017 M10/M12 A3030 RMK SC8 SLP328

CYQF;2018-11-07 10:00;CYQF 071000Z 35005KT 10SM -SN OVC018 M10/M12 A3030 RMK SC8 SLP326

CYQF;2018-11-07 11:00;CYQF 071100Z 35004KT 10SM -SN OVC018 M10/M13 A3030 RMK SC8 SLP327

CYQF;2018-11-07 12:00;CYQF 071200Z 35003KT 10SM -SN OVC017 M10/M13 A3030 RMK SC8 SLP328

CYQF;2018-11-07 13:00;CYQF 071300Z 31003KT 10SM -SN OVC017 M11/M13 A3029 RMK SC8 SLP325

CYQF;2018-11-07 14:00;CYQF 071400Z 34003KT 300V360 15SM -SN BKN018 M11/M14 A3029 RMK SC7 SLP325

CYQF;2018-11-07 15:00;CYQF 071500Z 29002KT 10SM BKN120 BKN250 M12/M14 A3029 RMK AC6CI1 SLP327

CYQF;2018-11-07 16:00;CYQF 071600Z VRB02KT 10SM BKN110 BKN250 M12/M14 A3030 RMK AC6CI1 SLP330

CYQF;2018-11-07 17:00;CYQF 071700Z 31004KT 10SM FEW018 FEW110 BKN250 M11/M13 A3030 RMK SF1AC2CI4 SF TR SLP328

CYQF;2018-11-07 18:00;CYQF 071800Z 32008KT 15SM FEW020 FEW110 SCT250 M09/M13 A3029 RMK SF1AC1CI1 SLP325

CYQF;2018-11-07 19:00;CYQF 071900Z 29008KT 10SM FEW020 SCT110 M08/M12 A3029 RMK SF1AC2 SLP322

CYQF;2018-11-07 20:00;CYQF 072000Z 30008KT 260V320 10SM FEW020 FEW250 M07/M13 A3028 RMK SF1CI1 SF TR CI TR SLP317

CYQF;2018-11-07 21:00;CYQF 072100Z 31009G15KT 12SM SKC M06/M13 A3027 RMK SLP313

CYQF;2018-11-07 22:00;CYQF 072200Z 28009KT 270V330 12SM SKC M06/M13 A3027 RMK SLP312

CYQF;2018-11-07 23:00;CYQF 072300Z 27005KT 12SM SKC M06/M12 A3026 RMK SLP311

CYQF;2018-11-08 00:00;CYQF 080000Z 21004KT 12SM SKC M07/M12 A3026 RMK SLP312

CYQF;2018-11-08 01:00;CYQF 080100Z 22005KT 12SM SKC M08/M12 A3025 RMK SLP310

CYQF;2018-11-08 02:00;CYQF 080200Z 24006KT 15SM SKC M09/M12 A3025 RMK SLP312

CYQF;2018-11-08 03:00;CYQF 080300Z 24008KT 15SM SKC M10/M13 A3025 RMK SLP312

CYQF;2018-11-08 04:00;CYQF 080400Z 25007KT 15SM SKC M10/M13 A3024 RMK SLP312

CYQF;2018-11-08 05:00;CYQF 080500Z 25006KT 15SM SKC M11/M14 A3024 RMK SLP311

CYQF;2018-11-08 06:00;CYQF 080600Z 30007KT 15SM SKC M10/M14 A3025 RMK SLP309

CYQF;2018-11-08 07:00;CYQF 080700Z 30006KT 15SM SKC M10/M14 A3025 RMK SLP309

CYQF;2018-11-08 08:00;CYQF 080800Z 27004KT 15SM SKC M11/M15 A3026 RMK SLP313

CYQF;2018-11-08 09:00;CYQF 080900Z 29004KT 15SM SKC M11/M15 A3026 RMK SLP312

CYQF;2018-11-08 10:00;CYQF 081000Z 29005KT 15SM SKC M12/M15 A3026 RMK SLP313

CYQF;2018-11-08 11:00;CYQF 081100Z 28005KT 15SM SKC M12/M15 A3025 RMK SLP308

CYQF;2018-11-08 12:00;CYQF 081200Z 28007KT 15SM SKC M11/M14 A3024 RMK SLP308

CYQF;2018-11-08 13:00;CYQF 081300Z VRB02KT 15SM SKC M15/M18 A3025 RMK SLP317

CYQF;2018-11-08 14:00;CYQF 081400Z CCA 19003KT 15SM SKC M17/M19 A3026 RMK FROIN SLP321

CYQF;2018-11-08 15:00;CYQF 081500Z 22003KT 15SM SKC M15/M17 A3028 RMK SLP325

CYQF;2018-11-08 16:00;CYQF 081600Z 23003KT 15SM FEW160 M12/M14 A3029 RMK AC2 SLP330

CYQF;2018-11-08 17:00;CYQF 081700Z 28003KT 12SM FEW018 FEW160 FEW250 M09/M12 A3030 RMK SF1AC1CI1 SF TR CI TR SLP328

CYQF;2018-11-08 18:00;CYQF 081800Z VRB02KT 12SM FEW250 M07/M11 A3031 RMK CI2 SLP329

CYQF;2018-11-08 19:00;CYQF 081900Z 00000KT 10SM FEW250 M06/M11 A3031 RMK CI1 HZ SLP327

CYQF;2018-11-08 20:00;CYQF 082000Z 03004KT 340V050 15SM FEW250 M05/M10 A3030 RMK CI1 SLP326

CYQF;2018-11-08 21:00;CYQF 082100Z 07005KT 15SM FEW250 M05/M10 A3030 RMK CI1 SLP326

CYQF;2018-11-08 22:00;CYQF 082200Z 09006KT 040V100 10SM FEW250 M05/M10 A3031 RMK CI1 HZ SLP328

CYQF;2018-11-08 23:00;CYQF 082300Z 14007KT 10SM FEW250 M06/M10 A3032 RMK CI1 HZ SLP332

CYQF;2018-11-09 00:00;CYQF 090000Z 14007KT 10SM FEW150 M09/M11 A3031 RMK AC1 SLP334

CYQF;2018-11-09 01:00;CYQF 090100Z 16007KT 10SM FEW150 M10/M12 A3032 RMK AC1 SLP342

CYQF;2018-11-09 02:00;CYQF 090200Z 17007KT 15SM SKC M11/M12 A3031 RMK SLP341

CYQF;2018-11-09 03:00;CYQF 090300Z 17006KT 15SM SKC M12/M13 A3030 RMK SLP338

CYQF;2018-11-09 03:38;CYQF 090338Z 17012KT 15SM SCT057 BKN130 M09/M11 A3029 RMK SC3AC2 SLP328

CYQF;2018-11-09 04:00;CYQF 090400Z 17014KT 15SM BKN053 OVC130 M08/M11 A3027 RMK SC5AC3 SLP320

CYQF;2018-11-09 05:00;CYQF 090500Z 17014KT 15SM OVC060 M08/M11 A3025 RMK SC8 SLP308

CYQF;2018-11-09 06:00;CYQF 090600Z 17012KT 15SM BKN055 M08/M11 A3023 RMK SC5 SLP298

CYQF;2018-11-09 07:00;CYQF 090700Z 17013KT 15SM BKN058 M08/M10 A3019 RMK SC6 PRESFR SLP282

CYQF;2018-11-09 08:00;CYQF 090800Z 17009KT 12SM FEW060 SCT260 M09/M11 A3017 RMK SC2CI2 SLP276

CYQF;2018-11-09 09:00;CYQF 090900Z 16007KT 15SM FEW260 M09/M11 A3014 RMK CI2 SLP267

CYQF;2018-11-09 10:00;CYQF 091000Z 17007KT 15SM SKC M10/M12 A3010 RMK SLP253

CYQF;2018-11-09 11:00;CYQF 091100Z 18007KT 12SM SCT240 M10/M12 A3006 RMK CI4 SLP239

CYQF;2018-11-09 12:00;CYQF 091200Z 18007KT 15SM BKN140 M08/M11 A3002 RMK AC5 SLP230

CYQF;2018-11-09 13:00;CYQF 091300Z 18004KT 12SM BKN080 M08/M10 A2999 RMK AC6 SLP218

CYQF;2018-11-09 14:00;CYQF 091400Z 18006KT 12SM BKN070 M07/M10 A2994 RMK AC7 SLP201

CYQF;2018-11-09 15:00;CYQF 091500Z 18007KT 10SM FEW030 OVC075 M06/M09 A2991 RMK SC1AC7 VIRGA SLP191

CYQF;2018-11-09 16:00;CYQF 091600Z 16006KT 10SM SCT070 BKN170 M06/M09 A2987 RMK AC4AC3 VIRGA SLP173

CYQF;2018-11-09 17:00;CYQF 091700Z 18004KT 10SM SCT070 BKN230 M05/M08 A2984 RMK AC4CI3 SLP162

CYQF;2018-11-09 18:00;CYQF 091800Z VRB02KT 10SM BKN080 BKN250 M03/M07 A2982 RMK AC5CI2 SLP153

CYQF;2018-11-09 19:00;CYQF 091900Z 26003KT 190V290 10SM BKN054 BKN080 00/M06 A2981 RMK SC5AC2 SLP144

CYQF;2018-11-09 20:00;CYQF 092000Z 26005KT 12SM FEW050 SCT080 BKN150 BKN250 03/M03 A2980 RMK SC1AC3AS2CI1 SLP138

CYQF;2018-11-09 21:02;CYQF 092102Z 31012KT 10SM -RA BKN056 OVC095 03/M00 A2980 RMK SC6AC2 SLP141

CYQF;2018-11-09 22:00;CYQF 092200Z 31010KT 15SM -RA BKN053 BKN090 03/01 A2980 RMK SC6AC1 SLP139

CYQF;2018-11-09 22:12;CYQF 092212Z 32010KT 15SM BKN060 BKN090 03/01 A2980 RMK SC5AC2 VIRGA SLP139

CYQF;2018-11-09 23:00;CYQF 092300Z 33010G17KT 15SM FEW060 SCT120 BKN260 03/M00 A2979 RMK SC2AC2CI2 SLP137

CYQF;2018-11-10 00:00;CYQF 100000Z 32005KT 15SM SCT065 BKN120 BKN260 01/M01 A2979 RMK SC3AC2CI1 SLP137

CYQF;2018-11-10 00:48;CYQF 100048Z 31016KT 12SM -RA SCT017 BKN060 BKN180 02/00 A2981 RMK SC3SC3AC1 SLP142

CYQF;2018-11-10 01:00;CYQF 100100Z 32012G19KT 12SM -RA SCT017 BKN049 02/00 A2981 RMK SC4SC3 SLP142

CYQF;2018-11-10 01:26;CYQF 100126Z 34012G18KT 12SM SCT017 BKN060 BKN120 02/M00 A2981 RMK SC3SC2AC2 SLP143

CYQF;2018-11-10 02:00;CYQF 100200Z 33015G20KT 12SM FEW017 OVC084 02/M01 A2982 RMK SC1AC7 SLP147

CYQF;2018-11-10 03:00;CYQF 100300Z 33011G20KT 15SM BKN022 OVC085 02/M01 A2985 RMK SC7AC1 SLP153

CYQF;2018-11-10 04:00;CYQF 100400Z 31013KT 6SM -SN OVC017 01/M01 A2987 RMK SC8 SLP162

CYQF;2018-11-10 05:00;CYQF 100500Z 31015G22KT 8SM -SN BKN019 OVC035 01/M01 A2988 RMK SC5SC3 SLP165

CYQF;2018-11-10 05:44;CYQF 100544Z 31017G22KT 2 1/2SM -SN BKN019 OVC035 01/M01 A2990 RMK SC6SC2 SLP170

CYQF;2018-11-10 06:00;CYQF 100600Z 32015G23KT 2 1/2SM -SN DRSN OVC016 01/M01 A2990 RMK SN2SC6 SLP170

CYQF;2018-11-10 07:00;CYQF 100700Z 30014G19KT 2SM -SN DRSN OVC014 00/M01 A2992 RMK SN3SC5 SLP173

CYQF;2018-11-10 08:00;CYQF 100800Z 30015G20KT 2SM -SN DRSN OVC014 00/M01 A2994 RMK SN3SC5 SLP177

CYQF;2018-11-10 09:00;CYQF 100900Z 30013G19KT 2 1/2SM -SN DRSN OVC014 00/M01 A2995 RMK SN3SC5 SLP181

CYQF;2018-11-10 09:49;CYQF 100949Z 31012KT 6SM -SN DRSN OVC017 00/M01 A2997 RMK SC8 SLP186

CYQF;2018-11-10 10:00;CYQF 101000Z 31013G18KT 10SM -SN DRSN OVC017 00/M01 A2997 RMK SC8 SLP187

CYQF;2018-11-10 11:00;CYQF 101100Z 33019KT 6SM -SN DRSN OVC018 00/M02 A3000 RMK SC8 SLP196

CYQF;2018-11-10 12:00;CYQF 101200Z 34016G26KT 8SM -SN DRSN OVC020 M01/M03 A3003 RMK SC8 SLP212

CYQF;2018-11-10 13:00;CYQF 101300Z 33015KT 10SM -SN DRSN SCT007 OVC020 M01/M04 A3006 RMK SF3SC5 SLP222

CYQF;2018-11-10 14:00;CYQF 101400Z 33014G21KT 12SM -SN FEW020 OVC060 M01/M04 A3009 RMK SC2SC6 SLP230

CYQF;2018-11-10 14:23;CYQF 101423Z 33014G19KT 15SM FEW020 BKN080 M01/M04 A3009 RMK SC2AC5 SLP233

CYQF;2018-11-10 15:00;CYQF 101500Z 33011KT 15SM FEW015 OVC078 M01/M04 A3011 RMK SC1AC7 SLP238

CYQF;2018-11-10 16:00;CYQF 101600Z 31009G16KT 15SM FEW015 BKN060 M00/M03 A3012 RMK SC1SC6 VIRGA SLP244

CYQF;2018-11-10 17:00;CYQF 101700Z 32010G16KT 12SM VCSH FEW015 BKN078 00/M02 A3014 RMK SC2AC5 SLP248

CYQF;2018-11-10 17:07;CYQF 101707Z 31011KT 6SM -SHSN FEW015 BKN040 OVC078 00/M02 A3014 RMK SC2SC3AC3 SLP249

CYQF;2018-11-10 17:10;CYQF 101710Z 31011KT 1SM -SHSN BKN015 OVC080 00/M02 A3014 RMK SC6AC2 SLP250

CYQF;2018-11-10 17:17;CYQF 101717Z 32011KT 3SM -SHSN BKN015 OVC080 00/M02 A3014 RMK SC6AC2 SLP250

CYQF;2018-11-10 17:37;CYQF 101737Z 30009G15KT 6SM VCSH SCT020 OVC080 00/M02 A3014 RMK SC4AC4 SLP250

CYQF;2018-11-10 18:00;CYQF 101800Z 30008KT 15SM VCSH BKN017 BKN080 01/M02 A3015 RMK SC6AC1 SLP252

CYQF;2018-11-10 18:20;CYQF 101820Z 30010KT 3SM -SHSN BKN025 BKN080 01/M02 A3015 RMK CU6AC1 SLP250

CYQF;2018-11-10 19:00;CYQF 101900Z 29009KT 6SM -SHSN BKN025 BKN060 01/M01 A3015 RMK CU5SC2 SLP250

CYQF;2018-11-10 19:12;CYQF 101912Z 30009KT 12SM VCSH BKN025 BKN060 02/M01 A3015 RMK CU6SC1 SLP250

CYQF;2018-11-10 20:00;CYQF 102000Z 33014G20KT 15SM VCSH BKN020 BKN060 BKN250 01/M03 A3015 RMK CU5SC1CI1 SLP252

CYQF;2018-11-10 21:00;CYQF 102100Z 32013G21KT 15SM SCT020 BKN250 01/M04 A3015 RMK CU4CI1 SLP252

CYQF;2018-11-10 22:00;CYQF 102200Z 31013G20KT 15SM FEW038 SCT150 SCT250 03/M04 A3015 RMK CU2AC1CI1 SLP250

CYQF;2018-11-10 23:00;CYQF 102300Z 32010G16KT 15SM FEW040 BKN070 02/M04 A3017 RMK SC2AC5 VIRGA SLP258

CYQF;2018-11-11 00:00;CYQF 110000Z 31004KT 15SM SCT070 BKN220 M00/M04 A3017 RMK AC3CI3 SLP262

CYQF;2018-11-11 01:00;CYQF 110100Z 25003KT 15SM BKN068 BKN180 M01/M04 A3017 RMK AC5AC2 SLP261

CYQF;2018-11-11 02:00;CYQF 110200Z 26005KT 15SM OVC075 M01/M03 A3018 RMK AC8 SLP264

CYQF;2018-11-11 03:00;CYQF 110300Z 28006KT 15SM BKN051 OVC075 00/M03 A3019 RMK SC7AC1 SLP267

CYQF;2018-11-11 04:00;CYQF 110400Z 31007KT 10SM OVC051 00/M04 A3019 RMK SC8 SLP268

CYQF;2018-11-11 04:10;CYQF 110410Z 32014KT 10SM -SN OVC051 01/M03 A3020 RMK SC8 SLP271

CYQF;2018-11-11 04:29;CYQF 110429Z 31012KT 2 1/2SM -SN OVC037 00/M02 A3021 RMK SC8 SLP275

CYQF;2018-11-11 05:00;CYQF 110500Z 31009KT 2SM -SN OVC028 M00/M02 A3022 RMK SC8 SLP278

CYQF;2018-11-11 05:39;CYQF 110539Z 32007KT 1 1/2SM -SN OVC010 M01/M02 A3023 RMK SC8 SLP283

CYQF;2018-11-11 06:00;CYQF 110600Z 31005KT 1 1/2SM -SN OVC010 M01/M02 A3024 RMK SN3SC5 SLP285

CYQF;2018-11-11 07:00;CYQF 110700Z 30010KT 10SM -SHSN SCT010 OVC028 M01/M02 A3026 RMK SF4SC4 SLP290

CYQF;2018-11-11 08:00;CYQF 110800Z 36011G17KT 320V030 3SM -SHSN SCT010 OVC020 M01/M03 A3028 RMK SF4SC4 SLP298

CYQF;2018-11-11 08:39;CYQF 110839Z 36006KT 2SM -SN VV010 M02/M03 A3030 RMK SN8 SLP305

CYQF;2018-11-11 09:00;CYQF 110900Z 36005KT 4SM -SHSN OVC018 M02/M03 A3030 RMK SC8 /S01/ SLP305

CYQF;2018-11-11 10:00;CYQF 111000Z 35004KT 10SM -SHSN BKN018 OVC036 M03/M04 A3030 RMK SC5SC3 SLP308

CYQF;2018-11-11 11:00;CYQF 111100Z 31003KT 12SM -SHSN SCT014 OVC040 M03/M04 A3031 RMK SC3SC5 SLP310

CYQF;2018-11-11 11:48;CYQF 111148Z 03005KT 2 1/2SM -SHSN BKN014 OVC040 M04/M04 A3032 RMK SN3SC4SC1 SLP314

CYQF;2018-11-11 12:00;CYQF 111200Z 02004KT 3SM -SHSN OVC014 M04/M04 A3032 RMK SN5SC3 SLP317

CYQF;2018-11-11 13:00;CYQF 111300Z 07003KT 3SM -SHSN OVC014 M05/M06 A3033 RMK SN2SC6 SLP322

CYQF;2018-11-11 14:00;CYQF 111400Z 02005KT 3SM -SN OVC020 M05/M06 A3036 RMK SN2SC6 SLP334

CYQF;2018-11-11 15:00;CYQF 111500Z 02005KT 5SM -SN SCT020 OVC040 M05/M06 A3040 RMK SC4SC4 /S01/ SLP345

CYQF;2018-11-11 15:45;CYQF 111545Z 02007KT 12SM BKN017 BKN040 M05/M07 A3041 RMK SC5SC2 SLP350

CYQF;2018-11-11 16:00;CYQF 111600Z 02006KT 12SM SCT017 BKN040 BKN250 M05/M08 A3042 RMK SC3SC2CI2 SLP353

CYQF;2018-11-11 17:00;CYQF 111700Z 02007KT 15SM BKN018 BKN040 M05/M08 A3045 RMK SC6SC1 SLP362

CYQF;2018-11-11 18:00;CYQF 111800Z 01005KT 15SM FEW020 BKN040 BKN120 M04/M08 A3046 RMK SC1SC4AC1 SLP366

CYQF;2018-11-11 19:00;CYQF 111900Z 35003KT 320V020 15SM FEW020 SCT040 BKN100 M04/M08 A3048 RMK CU1SC3AC2 SLP372

CYQF;2018-11-11 20:00;CYQF 112000Z 35006KT 15SM FEW020 SCT035 BKN050 BKN110 M03/M08 A3048 RMK CF1SC3SC1AC1 SLP372

CYQF;2018-11-11 21:00;CYQF 112100Z 33006KT 15SM FEW020 BKN032 M03/M08 A3049 RMK CF1SC7 CF TR SLP378

CYQF;2018-11-11 22:00;CYQF 112200Z 33004KT 15SM FEW017 BKN027 M04/M08 A3049 RMK CF1SC7 CF TR SLP380

CYQF;2018-11-11 22:08;CYQF 112208Z 32003KT 15SM -SN FEW017 BKN027 M04/M08 A3049 RMK CF1SC7 CF TR SLP380

CYQF;2018-11-11 23:00;CYQF 112300Z 32004KT 12SM -SN BKN030 M04/M08 A3050 RMK SC7 SLP382

CYQF;2018-11-12 00:00;CYQF 120000Z 31003KT 12SM -SN BKN024 M04/M07 A3050 RMK SC7 SLP383

CYQF;2018-11-12 01:00;CYQF 120100Z CCA 33003KT 12SM -SN BKN029 M04/M07 A3049 RMK SC7 SLP382

CYQF;2018-11-12 02:00;CYQF 120200Z 19003KT 15SM -SN BKN032 M05/M07 A3048 RMK SC7 SLP378

CYQF;2018-11-12 02:11;CYQF 120211Z 20005KT 15SM BKN032 M05/M07 A3048 RMK SC7 SLP379

CYQF;2018-11-12 03:00;CYQF 120300Z 19007KT 15SM SCT032 M07/M09 A3047 RMK SC4 SLP378

CYQF;2018-11-12 04:00;CYQF 120400Z 20008KT 15SM FEW030 M07/M09 A3046 RMK SC2 SLP374

CYQF;2018-11-12 05:00;CYQF 120500Z 21009KT 15SM FEW030 M07/M09 A3043 RMK SC1 SLP365

CYQF;2018-11-12 06:00;CYQF 120600Z 20009KT 15SM SKC M07/M09 A3041 RMK SLP357

CYQF;2018-11-12 07:00;CYQF 120700Z 20007KT 15SM SKC M10/M11 A3039 RMK SLP354

CYQF;2018-11-12 08:00;CYQF 120800Z 19008KT 10SM BKN120 M07/M08 A3037 RMK AC6 SLP341

CYQF;2018-11-12 09:00;CYQF 120900Z 18006KT 12SM OVC120 M06/M07 A3035 RMK AC8 SLP334

CYQF;2018-11-12 10:00;CYQF 121000Z 20006KT 12SM OVC120 M06/M08 A3034 RMK AC8 SLP331

CYQF;2018-11-12 11:00;CYQF 121100Z 18005KT 12SM BKN058 OVC120 M06/M08 A3030 RMK SC5AC3 PRESFR SLP319

CYQF;2018-11-12 12:00;CYQF 121200Z 21005KT 12SM FEW060 SCT120 M08/M10 A3029 RMK SC2AC2 SLP315

CYQF;2018-11-12 13:00;CYQF 121300Z 19004KT 12SM BKN053 M08/M09 A3028 RMK SC6 SLP311

CYQF;2018-11-12 14:00;CYQF 121400Z 19004KT 12SM BKN048 M06/M08 A3027 RMK SC7 SLP307

CYQF;2018-11-12 15:00;CYQF 121500Z 19004KT 15SM OVC052 M06/M08 A3027 RMK SC8 SLP311

CYQF;2018-11-12 16:00;CYQF 121600Z 21004KT 15SM BKN050 M04/M06 A3028 RMK SC7 SLP311

CYQF;2018-11-12 17:00;CYQF 121700Z 22004KT 15SM BKN051 BKN140 M02/M06 A3028 RMK SC6AC1 SLP308

CYQF;2018-11-12 18:00;CYQF 121800Z 22005KT 15SM SCT110 BKN250 M00/M05 A3028 RMK AC3CI3 SLP305

CYQF;2018-11-12 19:00;CYQF 121900Z 25007KT 15SM FEW100 BKN250 02/M04 A3027 RMK AC2CI4 SLP303

CYQF;2018-11-12 20:00;CYQF 122000Z 23006KT 15SM FEW100 BKN250 03/M03 A3025 RMK AC2CI3 SLP294

CYQF;2018-11-12 21:00;CYQF 122100Z 26006KT 15SM FEW100 BKN250 05/M02 A3025 RMK AC1CI6 SLP288

CYQF;2018-11-12 22:00;CYQF 122200Z 26006KT 15SM FEW100 BKN250 05/M01 A3024 RMK AC1CI6 SLP287

CYQF;2018-11-12 23:00;CYQF 122300Z 27004KT 15SM SCT100 BKN250 04/M02 A3025 RMK AC3CI4 SLP291

CYQF;2018-11-13 00:00;CYQF 130000Z 25004KT 15SM FEW100 BKN250 03/M03 A3025 RMK AC1CI4 SLP296

CYQF;2018-11-13 01:00;CYQF 130100Z 21003KT 15SM FEW100 BKN250 01/M03 A3025 RMK AC1CI6 SLP296

CYQF;2018-11-13 02:00;CYQF 130200Z 20006KT 15SM BKN250 M03/M04 A3024 RMK CI5 SLP297

CYQF;2018-11-13 03:00;CYQF 130300Z 21010KT 15SM BKN220 M00/M03 A3024 RMK CI5 SLP291

CYQF;2018-11-13 04:00;CYQF 130400Z 22007KT 15SM SCT220 M02/M04 A3023 RMK CI3 SLP287

CYQF;2018-11-13 05:00;CYQF 130500Z 22007KT 15SM SCT220 M02/M05 A3022 RMK CI3 SLP283

CYQF;2018-11-13 06:00;CYQF 130600Z 19004KT 15SM FEW180 SCT240 M05/M07 A3021 RMK AC1CI2 SLP281

CYQF;2018-11-13 07:00;CYQF 130700Z 19004KT 15SM FEW230 M04/M06 A3020 RMK CI2 SLP273

CYQF;2018-11-13 08:00;CYQF 130800Z 20006KT 15SM FEW240 M05/M06 A3018 RMK CI2 SLP267

CYQF;2018-11-13 09:00;CYQF 130900Z 18003KT 15SM SCT210 M05/M06 A3018 RMK CI4 SLP262

CYQF;2018-11-13 10:00;CYQF 131000Z 20005KT 15SM BKN180 M04/M06 A3016 RMK AC5 SLP257

CYQF;2018-11-13 11:00;CYQF 131100Z 20005KT 15SM SCT180 M05/M06 A3013 RMK AC3 SLP249

CYQF;2018-11-13 12:00;CYQF 131200Z 19003KT 15SM FEW180 SCT220 M06/M07 A3011 RMK AC1CI2 SLP243

CYQF;2018-11-13 13:00;CYQF 131300Z 19006KT 15SM BKN180 M04/M06 A3009 RMK AC6 SLP237

CYQF;2018-11-13 14:00;CYQF 131400Z 17003KT 15SM BKN220 M04/M06 A3006 RMK CI7 SLP231

CYQF;2018-11-13 15:00;CYQF 131500Z 21002KT 15SM FEW150 OVC230 M03/M05 A3006 RMK AC2CI6 SLP228

CYQF;2018-11-13 16:00;CYQF 131600Z 19006KT 15SM FEW150 BKN230 M03/M04 A3005 RMK AC2CI5 SLP224

CYQF;2018-11-13 17:00;CYQF 131700Z 21004KT 15SM FEW150 BKN240 M01/M02 A3005 RMK AC2CI5 SLP221

CYQF;2018-11-13 18:00;CYQF 131800Z 19005KT 15SM FEW150 BKN230 02/M01 A3002 RMK AC2CI3 SLP214

CYQF;2018-11-13 19:00;CYQF 131900Z 21009KT 15SM FEW150 SCT250 06/M01 A3000 RMK AC1CI3 SLP201

CYQF;2018-11-13 20:00;CYQF 132000Z 20004KT 15SM FEW150 BKN250 08/01 A2999 RMK AC1CI5 SLP193

CYQF;2018-11-13 21:00;CYQF 132100Z 21003KT 15SM FEW120 BKN260 09/02 A2996 RMK AC2CI5 SLP182 DENSITY ALT 3000FT

CYQF;2018-11-13 22:00;CYQF 132200Z 20005KT 15SM FEW120 OVC260 09/02 A2994 RMK AC1CI7 SLP174 DENSITY ALT 3000FT

CYQF;2018-11-13 23:00;CYQF 132300Z 18004KT 15SM FEW120 OVC260 08/01 A2992 RMK AC1CI7 SLP172

CYQF;2018-11-14 00:00;CYQF 140000Z 18005KT 12SM FEW100 BKN240 06/M00 A2992 RMK AC2CI5 SLP173

CYQF;2018-11-14 01:00;CYQF 140100Z 21006KT 15SM OVC240 02/M02 A2991 RMK CI8 SLP172

CYQF;2018-11-14 02:00;CYQF 140200Z 23008KT 15SM OVC240 06/M04 A2991 RMK CI8 SLP166

CYQF;2018-11-14 03:00;CYQF 140300Z 22008KT 15SM OVC240 05/M04 A2991 RMK CI8 SLP167

CYQF;2018-11-14 04:00;CYQF 140400Z 24008KT 15SM SCT130 OVC250 07/M06 A2990 RMK AC4CI4 SLP162

CYQF;2018-11-14 05:00;CYQF 140500Z 24010KT 15SM BKN160 08/M08 A2990 RMK AC7 SLP159

CYQF;2018-11-14 06:00;CYQF 140600Z 22005KT 15SM BKN160 07/M06 A2990 RMK AC7 SLP156

CYQF;2018-11-14 07:00;CYQF 140700Z 22005KT 15SM OVC180 04/M04 A2989 RMK AC8 SLP153

CYQF;2018-11-14 08:00;CYQF 140800Z 27004KT 15SM BKN130 03/M05 A2990 RMK AC7 SLP153

CYQF;2018-11-14 09:00;CYQF 140900Z 18006KT 15SM BKN120 01/M03 A2990 RMK AC7 SLP153

CYQF;2018-11-14 10:00;CYQF 141000Z 22008KT 15SM OVC120 04/M05 A2988 RMK AC8 SLP145

CYQF;2018-11-14 11:00;CYQF 141100Z 20005KT 15SM OVC130 02/M03 A2988 RMK AC8 SLP148

CYQF;2018-11-14 12:00;CYQF 141200Z 22004KT 15SM OVC120 02/M03 A2984 RMK AC8 SLP138

CYQF;2018-11-14 13:00;CYQF 141300Z 24009KT 15SM OVC150 05/M05 A2984 RMK AC8 SLP137

CYQF;2018-11-14 14:00;CYQF 141400Z 24009KT 15SM BKN160 OVC200 04/M05 A2984 RMK AC7CI1 SLP133

CYQF;2018-11-14 15:00;CYQF 141500Z 25005KT 15SM FEW150 BKN230 03/M04 A2986 RMK AC1CI6 SLP143

CYQF;2018-11-14 16:00;CYQF 141600Z 18003KT 15SM BKN210 02/M04 A2985 RMK CI6 SLP141

CYQF;2018-11-14 17:00;CYQF 141700Z 25004KT 15SM FEW100 BKN240 06/M02 A2986 RMK AC1CI7 AC TR SLP137

CYQF;2018-11-14 18:00;CYQF 141800Z 29003KT 230V330 15SM FEW100 BKN210 08/M02 A2984 RMK AC2CI4 SLP130 DENSITY ALT 3000FT

CYQF;2018-11-14 19:00;CYQF 141900Z 32003KT 250V350 15SM FEW100 BKN200 09/M02 A2984 RMK AC2CI4 SLP131 DENSITY ALT 3100FT

CYQF;2018-11-14 20:00;CYQF 142000Z 17003KT 15SM BKN140 08/M01 A2981 RMK AC7 VIRGA SLP123 DENSITY ALT 3000FT

CYQF;2018-11-14 21:00;CYQF 142100Z 23003KT 15SM OVC120 06/M01 A2981 RMK AC8 VIRGA SLP127

CYQF;2018-11-14 22:00;CYQF 142200Z 00000KT 15SM BKN100 05/M01 A2979 RMK AC7 VIRGA SLP118

CYQF;2018-11-14 23:00;CYQF 142300Z 27002KT 15SM OVC080 05/M01 A2980 RMK AC8 VIRGA SLP126

CYQF;2018-11-14 23:48;CYQF 142348Z 29004KT 240V310 10SM -SHRA OVC070 05/M01 A2984 RMK AC8 SLP138

CYQF;2018-11-15 00:00;CYQF 150000Z 26005KT 10SM -SHRA OVC070 05/M01 A2984 RMK ACC8 SLP138

CYQF;2018-11-15 01:00;CYQF 150100Z 24006KT 10SM -SHRA OVC070 05/01 A2986 RMK ACC8 SLP141

CYQF;2018-11-15 02:00;CYQF 150200Z 26006KT 15SM BKN060 BKN110 BKN230 04/00 A2988 RMK SC5AC1CI1 SLP149

CYQF;2018-11-15 03:00;CYQF 150300Z 28008KT 15SM BKN060 OVC200 04/01 A2990 RMK SC6CI2 SLP160

CYQF;2018-11-15 04:00;CYQF 150400Z 30007KT 12SM OVC080 04/01 A2992 RMK AC8 SLP167

CYQF;2018-11-15 04:46;CYQF 150446Z 29006KT 15SM -SHRA OVC060 04/01 A2993 RMK SC8 SLP170

CYQF;2018-11-15 05:00;CYQF 150500Z 30008KT 15SM -SHRA OVC060 04/01 A2993 RMK SC8 SLP167

CYQF;2018-11-15 05:37;CYQF 150537Z 31008KT 15SM SCT060 OVC100 04/00 A2995 RMK SC4AC4 SLP172

CYQF;2018-11-15 06:00;CYQF 150600Z 30006KT 15SM SCT083 OVC120 03/00 A2996 RMK AC3AC5 SLP174

CYQF;2018-11-15 07:00;CYQF 150700Z 08005KT 350V090 15SM BKN077 BKN140 01/M00 A2996 RMK AC6AC1 SLP177

CYQF;2018-11-15 08:00;CYQF 150800Z 01002KT 15SM SCT080 BKN160 02/00 A2998 RMK AC4AC3 SLP183

CYQF;2018-11-15 09:00;CYQF 150900Z 25005KT 15SM SCT140 M00/M01 A3000 RMK AC3 SLP194

CYQF;2018-11-15 10:00;CYQF 151000Z 00000KT 15SM FEW160 M02/M03 A3002 RMK AC2 SLP204

CYQF;2018-11-15 11:00;CYQF 151100Z 21005KT 15SM FEW096 M02/M03 A3003 RMK AC2 FROIN SLP209

CYQF;2018-11-15 12:00;CYQF 151200Z 24003KT 15SM FEW095 M03/M03 A3003 RMK AC1 SLP211

CYQF;2018-11-15 13:00;CYQF 151300Z 22003KT 15SM FEW100 M05/M06 A3004 RMK AC1 FROIN SLP216

CYQF;2018-11-15 14:00;CYQF 151400Z 21003KT 180V270 15SM FEW100 SCT240 M04/M05 A3005 RMK AC1CI3 SLP218

CYQF;2018-11-15 15:00;CYQF 151500Z 20003KT 15SM FEW100 BKN210 M04/M05 A3005 RMK AC1CI5 SLP221

CYQF;2018-11-15 16:00;CYQF 151600Z 22003KT 15SM FEW090 BKN180 M03/M03 A3005 RMK AC1AC6 SLP216

CYQF;2018-11-15 17:00;CYQF 151700Z VRB02KT 15SM FEW090 BKN210 01/M01 A3004 RMK AC1CI6 SLP209

CYQF;2018-11-15 18:00;CYQF 151800Z 18006KT 15SM FEW090 BKN260 01/M02 A3003 RMK AC1CI6 SLP205

CYQF;2018-11-15 19:00;CYQF 151900Z 21004KT 190V250 15SM BKN240 03/M01 A3000 RMK CI7 SLP196

CYQF;2018-11-15 20:00;CYQF 152000Z 20003KT 15SM FEW050 SCT140 BKN240 05/M00 A2997 RMK CU1AC3CI4 CU TR SLP181

CYQF;2018-11-15 21:00;CYQF 152100Z 04004KT 030V110 12SM SCT120 OVC250 06/01 A2993 RMK AC4CI4 SLP172

CYQF;2018-11-15 22:00;CYQF 152200Z 08006KT 15SM SCT120 OVC250 06/00 A2990 RMK AC3CI5 SLP161

CYQF;2018-11-15 23:00;CYQF 152300Z 07004KT 15SM BKN080 OVC250 04/M01 A2988 RMK AC5CI3 VIRGA SLP157

CYQF;2018-11-16 00:00;CYQF 160000Z 10006KT 12SM BKN070 04/M01 A2985 RMK ACC7 VIRGA SLP149

CYQF;2018-11-16 01:00;CYQF 160100Z 07009KT 12SM VCSH OVC070 03/M01 A2981 RMK ACC8 SLP138

CYQF;2018-11-16 02:00;CYQF 160200Z 07005KT 040V120 12SM VCSH OVC060 03/M00 A2980 RMK SC8 SLP132

CYQF;2018-11-16 03:00;CYQF 160300Z 07009G18KT 12SM FEW025 OVC050 03/M00 A2981 RMK SC2SC6 SLP138

CYQF;2018-11-16 03:36;CYQF 160336Z 07014KT 12SM -RA FEW025 OVC060 02/00 A2981 RMK SC2SC6 SLP140

CYQF;2018-11-16 04:00;CYQF 160400Z 08011KT 12SM -RA SCT005 BKN040 BKN100 01/00 A2980 RMK SF3SC2AC2 SLP136

CYQF;2018-11-16 04:28;CYQF 160428Z 07012G17KT 6SM -SN BR OVC003 01/00 A2981 RMK ST8 SLP138

CYQF;2018-11-16 05:00;CYQF 160500Z 06012G17KT 6SM -SN BR OVC003 00/00 A2982 RMK ST8 SLP138

CYQF;2018-11-16 06:00;CYQF 160600Z 05012KT 3SM -SN OVC003 00/M00 A2985 RMK ST8 SLP148

CYQF;2018-11-16 06:41;CYQF 160641Z 04012KT 2 1/2SM -SN OVC003 00/M00 A2988 RMK ST8 SLP158

CYQF;2018-11-16 07:00;CYQF 160700Z 03016KT 1 1/2SM -SN OVC003 00/M00 A2991 RMK ST8 PRESRR SLP165

CYQF;2018-11-16 08:00;CYQF 160800Z 01022G29KT 1 1/2SM -SN OVC003 M03/M04 A3000 RMK ST8 PRESRR SLP200

CYQF;2018-11-16 08:50;CYQF 160850Z 36019G31KT 1SM -SN OVC003 M06/M07 A3011 RMK ST8 PRESRR SLP240

CYQF;2018-11-16 09:00;CYQF 160900Z 36017G26KT 1SM -SN VV003 M06/M07 A3012 RMK SN8 PRESRR SLP243

CYQF;2018-11-16 09:17;CYQF 160917Z 35022G32KT 1/2SM SN VV003 M06/M07 A3015 RMK SN8 PRESRR SLP253

CYQF;2018-11-16 10:00;CYQF 161000Z 36014G24KT 1/2SM SN VV004 M07/M08 A3020 RMK SN8 PRESRR SLP272

CYQF;2018-11-16 11:00;CYQF 161100Z 34016G24KT 1/2SM SN VV005 M08/M10 A3026 RMK SN8 /S01/ SLP297

CYQF;2018-11-16 11:23;CYQF 161123Z 35015G24KT 3/4SM -SN VV007 M09/M11 A3028 RMK SN8 SLP304

CYQF;2018-11-16 11:35;CYQF 161135Z 35014G20KT 3SM -SN OVC010 M09/M11 A3029 RMK SN4SC4 SLP307

CYQF;2018-11-16 12:00;CYQF 161200Z 35015G23KT 6SM -SN OVC015 M09/M12 A3030 RMK SC8 SLP311

CYQF;2018-11-16 13:00;CYQF 161300Z 34013KT 6SM -SN BKN015 OVC053 M10/M12 A3034 RMK SC7SC1 SLP329

CYQF;2018-11-16 14:00;CYQF 161400Z 35011KT 10SM -SN DRSN OVC020 M10/M13 A3037 RMK SC8 SLP339

CYQF;2018-11-16 15:00;CYQF 161500Z 35010KT 10SM -SN DRSN OVC020 M10/M13 A3039 RMK SC8 SLP346

CYQF;2018-11-16 16:00;CYQF 161600Z 01010KT 4SM -SN DRSN OVC023 M11/M14 A3041 RMK SC8 SLP355

CYQF;2018-11-16 16:12;CYQF 161612Z 36008KT 2SM -SN DRSN OVC020 M11/M13 A3041 RMK SC8 SLP357

CYQF;2018-11-16 16:31;CYQF 161631Z 36009KT 1SM -SN DRSN OVC025 M11/M13 A3042 RMK SC8 SLP360

CYQF;2018-11-16 17:00;CYQF 161700Z 02009KT 2SM -SN DRSN OVC021 M12/M14 A3043 RMK SC8 SLP364

CYQF;2018-11-16 17:14;CYQF 161714Z 02009KT 3SM -SN DRSN BKN026 BKN120 M12/M14 A3044 RMK SC6AC1 SLP366

CYQF;2018-11-16 18:00;CYQF 161800Z 36007KT 5SM -SN SCT025 BKN055 OVC100 M11/M14 A3045 RMK SC4SC3AC1 SLP371

CYQF;2018-11-16 19:00;CYQF 161900Z 02008KT 4SM -SN OVC025 M11/M14 A3046 RMK SC8 SLP375

CYQF;2018-11-16 20:00;CYQF 162000Z 02006KT 4SM -SN BKN024 OVC140 M11/M14 A3047 RMK SC6AC2 SLP380

CYQF;2018-11-16 21:00;CYQF 162100Z 03006KT 4SM -SN OVC030 M11/M14 A3047 RMK SC8 SLP383

CYQF;2018-11-16 21:43;CYQF 162143Z 02006KT 10SM -SN SCT025 BKN050 OVC140 M12/M15 A3048 RMK SC3SC4AC1 SLP387

CYQF;2018-11-16 22:00;CYQF 162200Z 06004KT 10SM -SN BKN022 OVC050 M12/M14 A3048 RMK SC7SC1 SLP388

CYQF;2018-11-16 23:00;CYQF 162300Z 07003KT 12SM -SN BKN040 OVC080 M12/M15 A3048 RMK SC7AC1 SLP391

CYQF;2018-11-17 00:00;CYQF 170000Z 10003KT 12SM -SN OVC045 M12/M15 A3048 RMK SC8 SLP394

CYQF;2018-11-17 01:00;CYQF 170100Z 16004KT 12SM -SN SCT018 OVC042 M12/M15 A3047 RMK SC3SC5 SLP390

CYQF;2018-11-17 02:00;CYQF 170200Z 19003KT 12SM -SN FEW020 OVC040 M13/M16 A3046 RMK SC2SC6 SLP390

CYQF;2018-11-17 03:00;CYQF 170300Z 18004KT 12SM -SN SCT040 M16/M17 A3045 RMK SC4 SLP389

CYQF;2018-11-17 03:38;CYQF 170338Z 15003KT 15SM FEW040 M16/M18 A3044 RMK SC1 IC SLP384

CYQF;2018-11-17 04:00;CYQF 170400Z 18003KT 15SM IC SKC M17/M19 A3043 RMK SLP385

CYQF;2018-11-17 05:00;CYQF 170500Z 18005KT 15SM FEW020 M17/M19 A3042 RMK SC1 SLP381

CYQF;2018-11-17 06:00;CYQF 170600Z 18007KT 15SM SKC M17/M19 A3040 RMK SLP373

CYQF;2018-11-17 07:00;CYQF 170700Z 18005KT 15SM SKC M18/M20 A3038 RMK SLP368

CYQF;2018-11-17 08:00;CYQF 170800Z 20004KT 12SM SKC M17/M19 A3035 RMK SLP358

CYQF;2018-11-17 09:00;CYQF 170900Z 18005KT 12SM SKC M18/M21 A3034 RMK SLP353

CYQF;2018-11-17 10:00;CYQF 171000Z 19004KT 12SM SKC M19/M21 A3032 RMK SLP349

CYQF;2018-11-17 11:00;CYQF 171100Z 20004KT 12SM SKC M19/M22 A3029 RMK SLP339

CYQF;2018-11-17 12:00;CYQF 171200Z 20004KT 15SM SKC M20/M23 A3028 RMK SLP335

CYQF;2018-11-17 13:00;CYQF 171300Z 20006KT 15SM SKC M22/M24 A3024 RMK SLP326

CYQF;2018-11-17 13:07;CYQF 171307Z 20005KT 15SM FEW002 M22/M25 A3024 RMK ST2 SLP324

CYQF;2018-11-17 13:43;CYQF 171343Z 24003KT 15SM FEW230 M20/M22 A3024 RMK CI2 PRESRR SLP323

CYQF;2018-11-17 14:00;CYQF 171400Z 20003KT 12SM SCT230 M19/M21 A3024 RMK CI4 SLP323

CYQF;2018-11-17 15:00;CYQF 171500Z 21007KT 12SM BKN230 M18/M20 A3021 RMK CI6 SLP313

CYQF;2018-11-17 16:00;CYQF 171600Z 19004KT 15SM FEW230 M19/M22 A3020 RMK CI2 SLP315

CYQF;2018-11-17 17:00;CYQF 171700Z 19004KT 15SM FEW230 M17/M19 A3019 RMK CI2 SLP306

CYQF;2018-11-17 18:00;CYQF 171800Z 21004KT 15SM FEW230 M13/M15 A3018 RMK CI1 SLP300

CYQF;2018-11-17 19:00;CYQF 171900Z 20006KT 15SM FEW230 M12/M14 A3017 RMK CI2 SLP294

CYQF;2018-11-17 20:00;CYQF 172000Z 20005KT 15SM FEW230 M11/M13 A3015 RMK CI1 SLP288

CYQF;2018-11-17 21:00;CYQF 172100Z 18005KT 15SM FEW230 M10/M12 A3013 RMK CI1 SLP279

CYQF;2018-11-17 22:00;CYQF 172200Z 22005KT 15SM FEW230 M09/M13 A3011 RMK CI1 SLP271

CYQF;2018-11-17 23:00;CYQF 172300Z 21006KT 15SM FEW160 FEW230 M09/M13 A3008 RMK AC1CI2 AC TR SLP263

CYQF;2018-11-18 00:00;CYQF 180000Z 24002KT 15SM FEW220 M12/M16 A3007 RMK CI2 SLP263

CYQF;2018-11-18 01:00;CYQF 180100Z 00000KT 15SM FEW220 M13/M15 A3006 RMK CI2 SLP264

CYQF;2018-11-18 02:00;CYQF 180200Z 20006KT 15SM FEW240 M15/M17 A3003 RMK CI2 SLP250

CYQF;2018-11-18 03:00;CYQF 180300Z 20005KT 15SM FEW160 SCT240 M12/M16 A3000 RMK AC2CI2 SLP236

CYQF;2018-11-18 04:00;CYQF 180400Z 23004KT 15SM BKN060 M10/M13 A2997 RMK SC7 SLP225

CYQF;2018-11-18 05:00;CYQF 180500Z VRB03KT 15SM BKN050 M08/M11 A2994 RMK SC7 SLP210

CYQF;2018-11-18 05:49;CYQF 180549Z 25006KT 12SM -SN OVC030 M05/M11 A2996 RMK SC8 SLP211

CYQF;2018-11-18 06:00;CYQF 180600Z 25003KT 3SM -SN OVC022 M05/M10 A2995 RMK SC8 SLP206

CYQF;2018-11-18 06:15;CYQF 180615Z 17003KT 150V230 5SM -FZRA -SN OVC025 M05/M08 A2994 RMK SC8 PRESFR SLP200

CYQF;2018-11-18 06:23;CYQF 180623Z 20005KT 15SM -FZRA OVC030 M05/M08 A2993 RMK SC8 SLP198

CYQF;2018-11-18 06:49;CYQF 180649Z 20006KT 15SM OVC033 M04/M07 A2991 RMK SC8 SLP190

CYQF;2018-11-18 07:00;CYQF 180700Z 18005KT 15SM OVC040 M04/M07 A2990 RMK SC8 SLP185

CYQF;2018-11-18 08:00;CYQF 180800Z 22007KT 15SM SCT050 OVC070 M04/M07 A2987 RMK SC4AC4 SLP172

CYQF;2018-11-18 09:00;CYQF 180900Z 36003KT 15SM OVC055 M03/M06 A2987 RMK SC8 PRESRR SLP172

CYQF;2018-11-18 10:00;CYQF 181000Z 19005KT 070V220 15SM OVC050 M02/M05 A2986 RMK SC8 SLP166

CYQF;2018-11-18 10:39;CYQF 181039Z 20003KT 15SM -FZRA SCT035 OVC060 M02/M04 A2987 RMK SC3SC5 SLP168

CYQF;2018-11-18 11:00;CYQF 181100Z 19005KT 15SM -FZRA SCT035 OVC060 M02/M04 A2986 RMK SC3SC5 SLP165

CYQF;2018-11-18 12:00;CYQF 181200Z 25005KT 15SM -FZRA SCT035 OVC060 M00/M02 A2985 RMK SC3SC5 SLP164

CYQF;2018-11-18 12:18;CYQF 181218Z 28006KT 15SM -RA FEW030 OVC060 01/M01 A2985 RMK SC2SC6 SLP162

CYQF;2018-11-18 13:00;CYQF 181300Z 25003KT 15SM -RA SCT030 OVC050 01/M00 A2985 RMK SC4SC4 SLP162

CYQF;2018-11-18 14:00;CYQF 181400Z 32008KT 15SM -RA OVC035 03/01 A2985 RMK SC8 SLP163

CYQF;2018-11-18 15:00;CYQF 181500Z 28005KT 6SM -RA BR OVC030 03/02 A2986 RMK SC8 SLP163

CYQF;2018-11-18 16:00;CYQF 181600Z 30009KT 8SM -RA SCT020 OVC040 03/02 A2987 RMK SC3SC5 SLP165

CYQF;2018-11-18 17:00;CYQF 181700Z 31017G23KT 8SM -RA FEW020 OVC055 04/02 A2990 RMK SC2SC6 SLP171

CYQF;2018-11-18 18:00;CYQF 181800Z 31017G25KT 12SM -RA FEW010 SCT050 OVC080 04/02 A2991 RMK SF1ST2AC5 SLP172

CYQF;2018-11-18 18:19;CYQF 181819Z 31017G26KT 15SM FEW008 SCT040 OVC090 04/02 A2991 RMK SF1SC2AC5 SLP172

CYQF;2018-11-18 18:36;CYQF 181836Z 31015G27KT 12SM -RA FEW020 BKN070 OVC090 04/02 A2992 RMK SC1AC4AC3 SLP174

CYQF;2018-11-18 19:00;CYQF 181900Z 31016G23KT 15SM -RA FEW020 BKN065 OVC090 04/02 A2992 RMK SC1SC6AC1 SLP174

CYQF;2018-11-18 20:00;CYQF 182000Z 31015G21KT 15SM -RA FEW020 OVC055 04/02 A2994 RMK SC2SC6 SLP180

CYQF;2018-11-18 20:49;CYQF 182049Z 32011G21KT 15SM FEW015 OVC070 04/02 A2995 RMK SC2AC6 SLP183

CYQF;2018-11-18 21:00;CYQF 182100Z 32011KT 15SM FEW015 OVC070 04/02 A2995 RMK SC2AC6 SLP182

CYQF;2018-11-18 21:19;CYQF 182119Z 31011KT 15SM -RA FEW015 OVC065 04/02 A2995 RMK SC1SC7 SLP183

CYQF;2018-11-18 22:00;CYQF 182200Z 30009G16KT 15SM -RA FEW015 SCT040 OVC075 04/02 A2996 RMK SC1SC3AC4 SLP187

CYQF;2018-11-18 22:11;CYQF 182211Z 31011KT 15SM FEW015 SCT040 OVC065 04/02 A2997 RMK SC1SC2SC5 SLP188

CYQF;2018-11-18 22:48;CYQF 182248Z 31010KT 15SM -RA FEW020 OVC055 04/02 A2997 RMK SC2SC6 SLP190

CYQF;2018-11-18 23:00;CYQF 182300Z 30008KT 15SM -RA FEW020 BKN050 OVC080 04/02 A2998 RMK SC2SC4AC2 SLP191

CYQF;2018-11-19 00:00;CYQF 190000Z 31009KT 15SM SCT020 BKN065 OVC100 03/01 A3000 RMK SC3SC4AC1 VIRGA SLP199

CYQF;2018-11-19 01:00;CYQF 190100Z 28005KT 15SM FEW020 OVC060 03/01 A3001 RMK SC2SC6 VIRGA SLP201

CYQF;2018-11-19 02:00;CYQF 190200Z 28004KT 15SM SCT050 OVC075 02/01 A3001 RMK SC3AC5 SLP200

CYQF;2018-11-19 03:00;CYQF 190300Z 29006KT 15SM OVC070 03/01 A3003 RMK AC8 SLP205

CYQF;2018-11-19 04:00;CYQF 190400Z 28006KT 15SM FEW040 OVC075 03/01 A3003 RMK SC1AC7 SLP206

CYQF;2018-11-19 05:00;CYQF 190500Z 25005KT 15SM FEW040 OVC075 02/01 A3004 RMK SC1AC7 SLP209

CYQF;2018-11-19 06:00;CYQF 190600Z 06003KT 270V070 15SM OVC070 01/00 A3004 RMK AC8 SLP211

CYQF;2018-11-19 07:00;CYQF 190700Z 20004KT 15SM OVC070 00/00 A3005 RMK AC8 SLP214

CYQF;2018-11-19 08:00;CYQF 190800Z 22003KT 15SM OVC065 00/00 A3005 RMK SC8 SLP215

CYQF;2018-11-19 09:00;CYQF 190900Z 19003KT 15SM OVC070 00/M00 A3005 RMK AC8 SLP214

CYQF;2018-11-19 10:00;CYQF 191000Z 21005KT 15SM BKN068 M00/M00 A3005 RMK AC7 SLP215

CYQF;2018-11-19 11:00;CYQF 191100Z 23007KT 15SM BKN060 00/M00 A3004 RMK SC5 SLP211

CYQF;2018-11-19 12:00;CYQF 191200Z 21005KT 15SM BKN055 00/M01 A3004 RMK SC5 SLP210

CYQF;2018-11-19 13:00;CYQF 191300Z 22006KT 15SM BKN055 M01/M02 A3003 RMK SC5 SLP210

CYQF;2018-11-19 14:00;CYQF 191400Z 21005KT 15SM FEW055 SCT250 M02/M02 A3002 RMK SC1CI2 SLP207

CYQF;2018-11-19 15:00;CYQF 191500Z 21003KT 15SM BKN260 M01/M02 A3000 RMK CI5 SLP201

CYQF;2018-11-19 16:00;CYQF 191600Z 23007KT 15SM FEW100 BKN260 M00/M02 A3000 RMK AC1CI7 AC TR SLP201

CYQF;2018-11-19 17:00;CYQF 191700Z 21006KT 15SM FEW060 BKN260 01/M01 A3000 RMK SC2CI5 SLP200

CYQF;2018-11-19 18:00;CYQF 191800Z 22004KT 15SM FEW060 BKN260 03/M01 A3001 RMK SC1CI6 SLP201

CYQF;2018-11-19 19:00;CYQF 191900Z 24007KT 15SM BKN260 04/00 A3000 RMK CI7 SLP196

CYQF;2018-11-19 20:00;CYQF 192000Z 26006KT 15SM BKN260 06/00 A2999 RMK CI6 SLP191

CYQF;2018-11-19 21:00;CYQF 192100Z 23004KT 15SM BKN260 07/02 A2997 RMK CI6 SLP184

CYQF;2018-11-19 22:00;CYQF 192200Z 25004KT 15SM BKN260 08/02 A2997 RMK CI6 SLP181

CYQF;2018-11-19 23:00;CYQF 192300Z 26004KT 15SM BKN260 06/01 A2996 RMK CI5 SLP180

CYQF;2018-11-20 00:00;CYQF 200000Z 18004KT 15SM BKN260 03/00 A2996 RMK CI5 SLP184

CYQF;2018-11-20 01:00;CYQF 200100Z 19005KT 15SM SCT250 02/M00 A2996 RMK CI4 SLP186

CYQF;2018-11-20 02:00;CYQF 200200Z 19005KT 15SM SCT250 01/M01 A2996 RMK CI3 SLP188

CYQF;2018-11-20 03:00;CYQF 200300Z 19002KT 15SM SCT260 01/M00 A2996 RMK CI3 SLP186

CYQF;2018-11-20 04:00;CYQF 200400Z 18004KT 15SM SKC M01/M02 A2995 RMK SLP186

CYQF;2018-11-20 05:00;CYQF 200500Z 20005KT 15SM SKC M03/M03 A2995 RMK SLP187

CYQF;2018-11-20 06:00;CYQF 200600Z 21005KT 15SM FEW250 M03/M05 A2995 RMK CI2 SLP185

CYQF;2018-11-20 07:00;CYQF 200700Z 21005KT 15SM FEW250 M03/M04 A2994 RMK CI2 SLP178

CYQF;2018-11-20 08:00;CYQF 200800Z 18005KT 15SM SCT250 M04/M04 A2992 RMK CI3 SLP173

CYQF;2018-11-20 09:00;CYQF 200900Z 21006KT 15SM FEW250 M03/M04 A2991 RMK CI1 SLP165

CYQF;2018-11-20 10:00;CYQF 201000Z 20005KT 15SM SKC M04/M05 A2990 RMK SLP161

CYQF;2018-11-20 11:00;CYQF 201100Z 23004KT 15SM SKC M02/M04 A2988 RMK SLP155

CYQF;2018-11-20 12:00;CYQF 201200Z 23004KT 15SM SKC M05/M07 A2987 RMK SLP158

CYQF;2018-11-20 13:00;CYQF 201300Z 19005KT 15SM SKC M06/M07 A2986 RMK SLP158

CYQF;2018-11-20 14:00;CYQF 201400Z 21005KT 15SM FEW250 M05/M06 A2986 RMK CI2 SLP158

CYQF;2018-11-20 15:00;CYQF 201500Z 16003KT 12SM FEW120 BKN250 M06/M07 A2986 RMK AC1CI5 AC TR SLP159

CYQF;2018-11-20 16:00;CYQF 201600Z 20006KT 15SM FEW120 BKN250 M02/M03 A2986 RMK AC1CI6 AC TR SLP158

CYQF;2018-11-20 17:00;CYQF 201700Z 20005KT 15SM FEW120 BKN260 M00/M02 A2987 RMK AC1CI6 SLP161

CYQF;2018-11-20 18:00;CYQF 201800Z 21006KT 15SM FEW120 BKN260 02/M01 A2987 RMK AC2CI5 SLP159

CYQF;2018-11-20 19:00;CYQF 201900Z 19005KT 15SM FEW120 BKN220 03/M01 A2985 RMK AC1CI5 SLP151

CYQF;2018-11-20 20:00;CYQF 202000Z 23003KT 15SM FEW120 BKN260 03/M00 A2986 RMK AC2CI5 SLP152

CYQF;2018-11-20 21:00;CYQF 202100Z 00000KT 15SM FEW120 BKN260 03/00 A2985 RMK AC2CI5 SLP148

CYQF;2018-11-20 22:00;CYQF 202200Z 21004KT 15SM FEW120 BKN260 02/M00 A2984 RMK AC2CI5 SLP149

CYQF;2018-11-20 23:00;CYQF 202300Z 21002KT 15SM BKN220 03/00 A2983 RMK CI7 SLP143

CYQF;2018-11-21 00:00;CYQF 210000Z 19003KT 15SM BKN210 02/00 A2984 RMK CI6 SLP148

CYQF;2018-11-21 01:00;CYQF 210100Z 18004KT 15SM BKN190 00/M01 A2983 RMK CI7 SLP148

CYQF;2018-11-21 02:00;CYQF 210200Z 00000KT 15SM BKN250 M01/M02 A2982 RMK CI7 SLP146

CYQF;2018-11-21 03:00;CYQF 210300Z 00000KT 15SM BKN250 01/M01 A2981 RMK CI7 SLP143

CYQF;2018-11-21 04:00;CYQF 210400Z 19005KT 15SM BKN250 M01/M03 A2980 RMK CI7 SLP134

CYQF;2018-11-21 05:00;CYQF 210500Z 19006KT 15SM BKN250 M00/M03 A2979 RMK CI7 SLP129

CYQF;2018-11-21 06:00;CYQF 210600Z 20003KT 15SM BKN230 M00/M03 A2979 RMK CI5 SLP125

CYQF;2018-11-21 07:00;CYQF 210700Z 20006KT 15SM SCT210 00/M03 A2978 RMK CI3 SLP120

CYQF;2018-11-21 08:00;CYQF 210800Z 20003KT 15SM FEW210 M03/M05 A2977 RMK CI2 SLP122

CYQF;2018-11-21 09:00;CYQF 210900Z 19006KT 15SM FEW210 M01/M04 A2976 RMK CI1 SLP115

CYQF;2018-11-21 10:00;CYQF 211000Z 20005KT 15SM SCT210 M02/M05 A2974 RMK CI3 SLP112

CYQF;2018-11-21 11:00;CYQF 211100Z 19004KT 15SM SCT240 M02/M05 A2973 RMK CI3 SLP106

CYQF;2018-11-21 12:00;CYQF 211200Z 18005KT 15SM SCT240 M03/M05 A2971 RMK CI3 SLP102

CYQF;2018-11-21 13:00;CYQF 211300Z 20005KT 15SM BKN240 M03/M06 A2970 RMK CI5 SLP101

CYQF;2018-11-21 14:00;CYQF 211400Z 20005KT 15SM BKN240 M04/M06 A2970 RMK CI6 SLP102

CYQF;2018-11-21 15:00;CYQF 211500Z 20005KT 15SM BKN160 BKN240 M03/M05 A2969 RMK AC5CI2 SLP096

CYQF;2018-11-21 16:00;CYQF 211600Z 17003KT 130V200 15SM SCT160 BKN230 M02/M04 A2969 RMK AC3CI4 SLP097

CYQF;2018-11-21 17:00;CYQF 211700Z 21004KT 15SM FEW150 BKN210 M02/M03 A2967 RMK AC1CI6 SLP088

CYQF;2018-11-21 18:00;CYQF 211800Z 21004KT 15SM SCT150 BKN220 02/M03 A2966 RMK AC3CI3 SLP080

CYQF;2018-11-21 19:00;CYQF 211900Z 18005KT 15SM BKN220 04/M01 A2963 RMK CI7 SLP068

CYQF;2018-11-21 20:00;CYQF 212000Z 19003KT 15SM FEW160 BKN260 06/00 A2960 RMK AC2CI5 SLP059 DENSITY ALT 3000FT

CYQF;2018-11-21 21:00;CYQF 212100Z 18008KT 15SM BKN210 06/M01 A2958 RMK CI7 SLP049 DENSITY ALT 3000FT

CYQF;2018-11-21 22:00;CYQF 212200Z VRB02KT 15SM BKN150 BKN250 05/M03 A2956 RMK AC6CI1 SLP044 DENSITY ALT 3000FT

CYQF;2018-11-21 23:00;CYQF 212300Z 23006KT 15SM BKN160 BKN260 05/M02 A2954 RMK AC5CI2 SLP039

CYQF;2018-11-22 00:00;CYQF 220000Z 19007KT 15SM BKN180 BKN250 04/M03 A2953 RMK AC5CI2 SLP037

CYQF;2018-11-22 01:00;CYQF 220100Z 22010KT 15SM BKN180 06/M03 A2951 RMK AC7 SLP027 DENSITY ALT 3100FT

CYQF;2018-11-22 02:00;CYQF 220200Z 23006KT 15SM BKN200 06/M04 A2950 RMK CI7 SLP024 DENSITY ALT 3200FT

CYQF;2018-11-22 03:00;CYQF 220300Z 20008KT 15SM OVC200 03/M03 A2949 RMK CI8 SLP024

CYQF;2018-11-22 04:00;CYQF 220400Z 23008KT 15SM OVC200 05/M04 A2948 RMK CI8 SLP019 DENSITY ALT 3000FT

CYQF;2018-11-22 05:00;CYQF 220500Z VRB02KT 15SM OVC140 02/M03 A2949 RMK AC8 SLP023

CYQF;2018-11-22 06:00;CYQF 220600Z 05002KT 15SM OVC160 02/M03 A2948 RMK AC8 SLP017

CYQF;2018-11-22 07:00;CYQF 220700Z 25006KT 15SM OVC170 05/M04 A2950 RMK AC8 SLP019 DENSITY ALT 3000FT

CYQF;2018-11-22 08:00;CYQF 220800Z 23005KT 15SM BKN170 BKN230 04/M04 A2950 RMK AC5CI2 SLP018

CYQF;2018-11-22 09:00;CYQF 220900Z 14003KT 15SM SCT170 BKN240 00/M03 A2950 RMK AC3CI2 SLP022

CYQF;2018-11-22 10:00;CYQF 221000Z 11004KT 060V130 15SM FEW150 SCT240 M01/M04 A2951 RMK AC1CI2 SLP027

CYQF;2018-11-22 11:00;CYQF 221100Z 20002KT 15SM FEW160 FEW240 M01/M05 A2951 RMK AC1CI1 SLP028

CYQF;2018-11-22 12:00;CYQF 221200Z 23003KT 15SM FEW180 M01/M06 A2950 RMK AC1 SLP025

CYQF;2018-11-22 13:00;CYQF 221300Z 24005KT 15SM BKN170 BKN240 M01/M04 A2951 RMK AC6CI1 SLP025

CYQF;2018-11-22 14:00;CYQF 221400Z VRB02KT 15SM OVC180 M01/M04 A2950 RMK AC8 SLP023

CYQF;2018-11-22 15:00;CYQF 221500Z 20003KT 140V210 15SM BKN160 M02/M04 A2951 RMK AC7 SLP030

CYQF;2018-11-22 16:00;CYQF 221600Z 19004KT 15SM FEW110 BKN170 M01/M03 A2950 RMK AC2AC5 SLP022

CYQF;2018-11-22 17:00;CYQF 221700Z VRB02KT 15SM SCT080 BKN160 00/M02 A2948 RMK AC3AC4 VIRGA SLP019

CYQF;2018-11-22 18:00;CYQF 221800Z 19003KT 15SM FEW080 BKN160 03/M01 A2948 RMK AC2AC3 SLP014

CYQF;2018-11-22 19:00;CYQF 221900Z 03005KT 15SM FEW080 BKN160 06/M01 A2946 RMK AC2AC5 SLP002 DENSITY ALT 3100FT

CYQF;2018-11-22 20:00;CYQF 222000Z 05003KT 360V070 15SM FEW080 FEW160 SCT220 07/M00 A2944 RMK AC1AC1CI2 SLP996 DENSITY ALT 3300FT

CYQF;2018-11-22 21:00;CYQF 222100Z 36006KT 15SM FEW100 SCT160 BKN220 06/M01 A2945 RMK AC1AC2CI4 SLP003 DENSITY ALT 3200FT

CYQF;2018-11-22 22:00;CYQF 222200Z 06006KT 15SM BKN100 BKN220 05/M02 A2945 RMK AC5CI2 SLP006 DENSITY ALT 3100FT

CYQF;2018-11-22 23:00;CYQF 222300Z 09004KT 15SM SCT100 BKN200 03/M02 A2945 RMK AC3CI3 SLP008

CYQF;2018-11-23 00:00;CYQF 230000Z 09004KT 15SM SCT090 BKN160 02/M03 A2946 RMK AC3AC4 SLP013

CYQF;2018-11-23 01:00;CYQF 230100Z 05005KT 15SM SCT090 BKN140 02/M03 A2946 RMK AC3AC4 SLP014

CYQF;2018-11-23 02:00;CYQF 230200Z 36005KT 15SM OVC100 01/M02 A2948 RMK AC8 SLP020

CYQF;2018-11-23 03:00;CYQF 230300Z 35004KT 15SM BKN080 01/M02 A2947 RMK AC7 SLP020

CYQF;2018-11-23 04:00;CYQF 230400Z 34003KT 15SM BKN100 01/M03 A2947 RMK AC6 SLP017

CYQF;2018-11-23 05:00;CYQF 230500Z 32003KT 15SM BKN110 M00/M03 A2949 RMK AC6 SLP024

CYQF;2018-11-23 06:00;CYQF 230600Z 00000KT 15SM BKN100 M02/M03 A2949 RMK AC6 SLP022

CYQF;2018-11-23 07:00;CYQF 230700Z 04003KT 15SM SCT100 M02/M03 A2949 RMK AC3 SLP019

CYQF;2018-11-23 08:00;CYQF 230800Z 33006KT 15SM FEW100 M03/M04 A2950 RMK AC1 FROIN SLP022

CYQF;2018-11-23 09:00;CYQF 230900Z 33005KT 15SM SCT093 M03/M05 A2951 RMK AC3 FROIN SLP030

CYQF;2018-11-23 10:00;CYQF 231000Z 05003KT 15SM SCT076 M04/M05 A2952 RMK AC4 SLP034

CYQF;2018-11-23 11:00;CYQF 231100Z 03004KT 15SM BKN075 M04/M05 A2952 RMK AC5 SLP038

CYQF;2018-11-23 12:00;CYQF 231200Z 36004KT 12SM SCT080 BKN210 M03/M04 A2953 RMK AC3CS4 FROIN SLP039

CYQF;2018-11-23 13:00;CYQF 231300Z 35003KT 15SM SCT080 OVC220 M04/M05 A2955 RMK AC3CI5 SLP047

CYQF;2018-11-23 16:35;CYQF 231635Z 01007KT 6SM -SN SCT050 BKN090 M02/M04 A2960 RMK SC3AC4 SLP063

CYQF;2018-11-23 17:00;CYQF 231700Z 02006KT 5SM BR BKN038 BKN080 M02/M03 A2960 RMK SC5AC2 INTMT -SN SLP064

CYQF;2018-11-23 19:00;CYQF 231900Z CCA 03006KT 8SM FEW012 OVC040 M01/M03 A2960 RMK SC2SC6 SLP067

CYQF;2018-11-23 20:00;CYQF 232000Z 06010KT 8SM FEW012 OVC038 M01/M04 A2959 RMK SC2SC6 SLP063

CYQF;2018-11-23 20:18;CYQF 232018Z 07008KT 8SM SCT008 OVC038 M02/M04 A2959 RMK SF3SC5 SLP064

CYQF;2018-11-23 21:00;CYQF 232100Z 08003KT 6SM BR SCT008 OVC037 M02/M04 A2960 RMK SF4SC4 SLP068

CYQF;2018-11-23 21:20;CYQF 232120Z 09003KT 6SM -SN BR BKN008 OVC037 M02/M04 A2961 RMK SF5SC3 VIS S 4 SLP070

CYQF;2018-11-23 22:00;CYQF 232200Z 06005KT 6SM -SN BR SCT008 OVC038 M02/M04 A2960 RMK SF4SC4 SLP069

CYQF;2018-11-23 22:39;CYQF 232239Z 06008KT 1SM -SN VV016 M02/M04 A2960 RMK SN8 SLP070

CYQF;2018-11-23 23:00;CYQF 232300Z 05008KT 1SM -SN VV016 M02/M03 A2961 RMK SN8 SLP071

CYQF;2018-11-24 00:00;CYQF 240000Z 04006KT 1SM -SN VV018 M03/M04 A2962 RMK SN8 SLP077

CYQF;2018-11-24 00:35;CYQF 240035Z 05004KT 1 1/2SM -SN SCT007 VV022 M03/M04 A2963 RMK SF3SN5 SLP079

CYQF;2018-11-24 01:00;CYQF 240100Z 06004KT 1 1/2SM -SN VV017 M03/M04 A2963 RMK SN8 SLP081

CYQF;2018-11-24 01:44;CYQF 240144Z 06005KT 4SM -SN BKN007 OVC011 M03/M04 A2964 RMK SF5SC3 SLP085

CYQF;2018-11-24 02:00;CYQF 240200Z 07006KT 3SM -SN BKN007 OVC010 M04/M04 A2964 RMK SF5SC3 /S01/ SLP084

CYQF;2018-11-24 03:00;CYQF 240300Z 06004KT 2SM -SN VV016 M04/M05 A2965 RMK SN8 /S02/ SLP090

CYQF;2018-11-24 04:00;CYQF 240400Z 07005KT 2SM -SN SCT008 VV017 M04/M05 A2966 RMK SF3SN5 /S03/ SLP092

CYQF;2018-11-24 05:00;CYQF 240500Z 05008KT 2 1/2SM -SN SCT008 VV030 M05/M06 A2967 RMK SF3SN5 SLP096

CYQF;2018-11-24 06:00;CYQF 240600Z CCA 06009KT 2SM -SN FEW008 VV038 M05/M06 A2969 RMK SF2SN6 /S04/ SLP101

CYQF;2018-11-24 07:00;CYQF 240700Z 06006KT 2 1/2SM -SN FEW009 VV040 M05/M06 A2971 RMK SF1SN7 SLP109

CYQF;2018-11-24 08:00;CYQF 240800Z 05004KT 2 1/2SM -SN FEW009 VV040 M06/M07 A2973 RMK SF1SN7 /S01/ SLP116

CYQF;2018-11-24 08:24;CYQF 240824Z 05003KT 3SM -SN BKN012 OVC040 M06/M07 A2974 RMK SF5SC3 SLP121

CYQF;2018-11-24 08:42;CYQF 240842Z 03003KT 4SM -SN OVC008 M06/M07 A2975 RMK SC8 SLP123

CYQF;2018-11-24 09:00;CYQF 240900Z 02002KT 4SM -SN OVC008 M06/M07 A2976 RMK SC8 SLP127

CYQF;2018-11-24 10:00;CYQF 241000Z 08002KT 6SM -SN OVC007 M06/M07 A2979 RMK ST8 SLP136

CYQF;2018-11-24 11:00;CYQF 241100Z 08003KT 3SM -SN OVC007 M06/M07 A2980 RMK ST8 SLP141

CYQF;2018-11-24 11:12;CYQF 241112Z 09002KT 2SM -SN OVC012 M06/M07 A2980 RMK ST8 SLP142

CYQF;2018-11-24 11:39;CYQF 241139Z 00000KT 3SM -SN BKN012 OVC050 M06/M07 A2981 RMK ST6SC2 SLP146

CYQF;2018-11-24 12:00;CYQF 241200Z 00000KT 3SM -SN SCT012 OVC050 M06/M07 A2982 RMK ST4SC4 /S02/ SLP149

CYQF;2018-11-24 13:00;CYQF 241300Z 00000KT 5SM -SN SCT050 OVC080 M07/M07 A2983 RMK SC4AC4 SLP154

CYQF;2018-11-24 14:00;CYQF 241400Z 00000KT 10SM -SN OVC065 M07/M08 A2985 RMK SC8 SLP163

CYQF;2018-11-24 15:00;CYQF 241500Z 08002KT 8SM -SN SCT090 BKN250 M08/M09 A2987 RMK AC4CI3 SLP170

CYQF;2018-11-24 15:14;CYQF 241514Z 10002KT 6SM BR SCT100 BKN260 M09/M09 A2987 RMK AC3CI3 SLP172

CYQF;2018-11-24 16:00;CYQF 241600Z 15003KT 3SM BR FEW040 SCT100 BKN250 M11/M13 A2988 RMK SC1AC2CI3 SLP177

CYQF;2018-11-24 16:11;CYQF 241611Z 16003KT 2SM BR SCT006 SCT040 BKN250 M11/M13 A2989 RMK ST3SC1CI2 VIS VRB 1-3 SLP180

CYQF;2018-11-24 17:00;CYQF 241700Z 17004KT 6SM BR SCT006 BKN022 M10/M11 A2990 RMK SF3SC4 SLP183

CYQF;2018-11-24 17:12;CYQF 241712Z 16004KT 5SM BR BKN002 OVC020 M09/M10 A2990 RMK ST5SC3 SLP183

CYQF;2018-11-24 17:48;CYQF 241748Z 17004KT 6SM BR SCT003 OVC020 M07/M08 A2990 RMK ST3SC5 SLP182

CYQF;2018-11-24 18:00;CYQF 241800Z 16003KT 6SM BR FEW003 BKN022 M07/M08 A2991 RMK ST1SC6 SLP183

CYQF;2018-11-24 19:00;CYQF 241900Z 17007KT 10SM BKN022 M06/M07 A2991 RMK SC6 SLP183

CYQF;2018-11-24 20:00;CYQF 242000Z 17009KT 60SM FEW020 M06/M07 A2991 RMK SC1 SLP183

CYQF;2018-11-24 21:00;CYQF 242100Z 15006KT 6SM BR SCT009 SCT020 M07/M07 A2991 RMK ST4SC1 SC TR SLP185

CYQF;2018-11-24 22:00;CYQF 242200Z 16007KT 8SM FEW010 M06/M08 A2992 RMK SC1 SLP187

CYQF;2018-11-24 23:00;CYQF 242300Z 16005KT 8SM FEW020 M08/M10 A2993 RMK SC1 SLP195

CYQF;2018-11-25 00:00;CYQF 250000Z 18006KT 6SM BR FEW100 M10/M11 A2995 RMK AC2 SLP201

CYQF;2018-11-25 01:00;CYQF 250100Z 15004KT 8SM SCT100 M11/M12 A2996 RMK AC4 SLP209

CYQF;2018-11-25 02:00;CYQF 250200Z VRB02KT 10SM BKN080 M09/M10 A2997 RMK AC7 SLP210

CYQF;2018-11-25 03:00;CYQF 250300Z 19005KT 10SM BKN080 OVC110 M08/M08 A2998 RMK AC6AC2 SLP212

CYQF;2018-11-25 04:00;CYQF 250400Z 20003KT 12SM BKN070 BKN110 M07/M08 A2999 RMK AC5AC1 SLP218

CYQF;2018-11-25 05:00;CYQF 250500Z 19004KT 12SM OVC090 M08/M09 A2998 RMK AC8 SLP216

CYQF;2018-11-25 06:00;CYQF 250600Z 19002KT 15SM BKN075 M08/M09 A3000 RMK AC6 SLP217

CYQF;2018-11-25 07:00;CYQF 250700Z VRB02KT 15SM BKN075 M08/M09 A3000 RMK AC6 SLP219

CYQF;2018-11-25 08:00;CYQF 250800Z 19003KT 15SM BKN100 M10/M11 A3001 RMK AC5 SLP226

CYQF;2018-11-25 09:00;CYQF 250900Z 19003KT 15SM BKN100 M12/M14 A3002 RMK AC5 SLP232

CYQF;2018-11-25 10:00;CYQF 251000Z 21004KT 10SM SCT100 M13/M14 A3004 RMK AC4 SLP237

CYQF;2018-11-25 11:00;CYQF 251100Z 18003KT 6SM BR FEW100 SCT230 M16/M18 A3004 RMK AC2CI2 SLP242

CYQF;2018-11-25 12:00;CYQF 251200Z 21004KT 6SM BR BKN240 M14/M15 A3004 RMK CS5 FROIN SLP243

CYQF;2018-11-25 13:00;CYQF 251300Z 21002KT 10SM BKN220 M15/M17 A3003 RMK CS6 FROIN SLP244

CYQF;2018-11-25 14:00;CYQF 251400Z 22004KT 10SM BKN210 M15/M17 A3004 RMK CI6 SLP244

CYQF;2018-11-25 15:00;CYQF 251500Z 18003KT 10SM BKN210 M15/M17 A3005 RMK CI6 SLP246

CYQF;2018-11-25 16:00;CYQF 251600Z 19004KT 12SM BKN200 M15/M17 A3006 RMK CI6 SLP248

CYQF;2018-11-25 17:00;CYQF 251700Z 20005KT 12SM FEW100 BKN200 M13/M14 A3006 RMK AC1CI4 SLP245

CYQF;2018-11-25 18:00;CYQF 251800Z 20002KT 8SM FEW100 SCT200 M10/M11 A3006 RMK AC1CI2 SLP242

CYQF;2018-11-25 19:00;CYQF 251900Z 19002KT 10SM FEW200 M08/M09 A3006 RMK CI2 SLP242

CYQF;2018-11-25 20:00;CYQF 252000Z 20002KT 10SM SCT230 M06/M09 A3006 RMK CI4 SLP240

CYQF;2018-11-25 21:00;CYQF 252100Z 20003KT 15SM SCT230 M05/M09 A3005 RMK CI3 SLP238

CYQF;2018-11-25 22:00;CYQF 252200Z 15004KT 15SM BKN250 M05/M09 A3005 RMK CI5 SLP240

CYQF;2018-11-25 23:00;CYQF 252300Z 19002KT 15SM BKN250 M06/M09 A3005 RMK CI6 SLP245

CYQF;2018-11-26 00:00;CYQF 260000Z 21003KT 15SM BKN250 M07/M10 A3006 RMK CI5 SLP247

CYQF;2018-11-26 01:00;CYQF 260100Z 16004KT 15SM SCT230 M10/M12 A3005 RMK CI3 SLP249

CYQF;2018-11-26 02:00;CYQF 260200Z 00000KT 15SM SCT230 M09/M11 A3004 RMK CI3 SLP243

CYQF;2018-11-26 03:00;CYQF 260300Z 20005KT 15SM FEW250 M10/M11 A3003 RMK CI2 SLP240

CYQF;2018-11-26 04:00;CYQF 260400Z 17002KT 15SM FEW250 M11/M13 A3004 RMK CI2 SLP246

CYQF;2018-11-26 05:00;CYQF 260500Z 00000KT 15SM SKC M13/M14 A3003 RMK SLP241

CYQF;2018-11-26 06:00;CYQF 260600Z VRB02KT 15SM SCT240 M10/M12 A3001 RMK CI4 SLP230

CYQF;2018-11-26 07:00;CYQF 260700Z 16004KT 15SM SCT240 M12/M13 A3000 RMK CI4 SLP224

CYQF;2018-11-26 08:00;CYQF 260800Z 16005KT 15SM BKN240 M11/M13 A2998 RMK CI5 SLP215

CYQF;2018-11-26 09:00;CYQF 260900Z 16004KT 15SM BKN240 M13/M14 A2996 RMK CI6 SLP207

CYQF;2018-11-26 10:00;CYQF 261000Z 14008KT 15SM BKN210 M11/M13 A2995 RMK CI6 SLP204

CYQF;2018-11-26 11:00;CYQF 261100Z 15005KT 15SM BKN160 M11/M13 A2993 RMK AC6 SLP198

CYQF;2018-11-26 12:00;CYQF 261200Z 16003KT 15SM SCT160 M10/M12 A2991 RMK AC4 SLP189

CYQF;2018-11-26 13:00;CYQF 261300Z 16005KT 15SM SCT140 M09/M11 A2988 RMK AC3 SLP182

CYQF;2018-11-26 14:00;CYQF 261400Z 15006KT 12SM BKN180 M09/M11 A2988 RMK CI7 SLP181

CYQF;2018-11-26 15:00;CYQF 261500Z 15007KT 10SM FEW100 BKN160 BKN220 M08/M10 A2986 RMK AC1AS4CI2 SLP173

CYQF;2018-11-26 16:00;CYQF 261600Z 15010KT 8SM FEW100 SCT150 BKN250 M08/M11 A2985 RMK AC1AS3CI3 SLP171

CYQF;2018-11-26 17:00;CYQF 261700Z 15007KT 8SM FEW120 BKN250 M07/M10 A2984 RMK AC2CI5 SLP168

CYQF;2018-11-26 18:00;CYQF 261800Z 14009KT 10SM FEW120 BKN250 M04/M08 A2982 RMK AC2CI5 WND ESTD SLP156

CYQF;2018-11-26 19:00;CYQF 261900Z 14012KT 10SM BKN120 OVC250 M05/M08 A2979 RMK AC5CI3 SLP146

CYQF;2018-11-26 20:00;CYQF 262000Z 15009KT 10SM SCT120 OVC250 M04/M06 A2974 RMK AC4CI4 PRESFR SLP129

CYQF;2018-11-26 21:00;CYQF 262100Z 14010KT 15SM SCT100 OVC210 M03/M06 A2972 RMK AC3CI5 SLP122

CYQF;2018-11-26 22:00;CYQF 262200Z 14009KT 10SM FEW040 SCT120 OVC220 M03/M05 A2971 RMK CF1AC4CI4 CF TR SLP116

CYQF;2018-11-26 23:00;CYQF 262300Z 16009KT 12SM FEW030 BKN120 OVC200 M02/M04 A2969 RMK SC1AC6CI1 SLP107

CYQF;2018-11-27 00:00;CYQF 270000Z 17011G17KT 15SM FEW040 BKN140 OVC250 M02/M04 A2965 RMK SC1AC6CI2 SC TR SLP093

CYQF;2018-11-27 01:00;CYQF 270100Z VRB03KT 15SM BKN120 OVC190 M03/M04 A2963 RMK AC5AC3 SLP088

CYQF;2018-11-27 02:00;CYQF 270200Z 11004KT 040V160 15SM SCT120 BKN180 M03/M05 A2960 RMK AC3AC4 SLP075

CYQF;2018-11-27 03:00;CYQF 270300Z 12006KT 15SM FEW120 OVC180 M04/M05 A2957 RMK AC1AC7 SLP065

CYQF;2018-11-27 04:00;CYQF 270400Z 07004KT 060V130 15SM BKN160 BKN230 M03/M05 A2956 RMK AC5CI1 SLP063

CYQF;2018-11-27 05:00;CYQF 270500Z 08004KT 15SM FEW140 BKN200 M04/M05 A2956 RMK AC2CI4 SLP060

CYQF;2018-11-27 06:00;CYQF 270600Z 19005KT 15SM BKN230 M04/M05 A2953 RMK CI6 SLP048

CYQF;2018-11-27 07:00;CYQF 270700Z 19004KT 15SM BKN230 M04/M06 A2954 RMK CI6 SLP053

CYQF;2018-11-27 08:00;CYQF 270800Z VRB02KT 15SM BKN220 M06/M08 A2953 RMK CI6 SLP050

CYQF;2018-11-27 09:00;CYQF 270900Z VRB02KT 15SM BKN220 M06/M06 A2954 RMK CI7 SLP051

CYQF;2018-11-27 10:00;CYQF 271000Z 35003KT 290V360 15SM SCT220 M09/M10 A2953 RMK CI4 SLP052

CYQF;2018-11-27 11:00;CYQF 271100Z 22004KT 10SM FEW010 OVC240 M09/M10 A2952 RMK SF2CI6 SLP049

CYQF;2018-11-27 12:00;CYQF 271200Z 20003KT 150V220 15SM FEW010 BKN240 M09/M10 A2951 RMK SF2CI3 SLP045

CYQF;2018-11-27 13:00;CYQF 271300Z 21004KT 10SM FEW010 BKN240 M10/M11 A2952 RMK SF2CI4 SLP048

CYQF;2018-11-27 14:00;CYQF 271400Z 04002KT 6SM BR FEW010 BKN200 M08/M09 A2950 RMK ST2CI5 SLP040

CYQF;2018-11-27 15:00;CYQF 271500Z VRB02KT 6SM BR FEW010 BKN200 M08/M09 A2950 RMK ST1CI6 PRESFR SLP039

CYQF;2018-11-27 16:00;CYQF 271600Z 22004KT 6SM BR SCT160 OVC210 M07/M07 A2947 RMK AS3CI5 SLP029

CYQF;2018-11-27 17:00;CYQF 271700Z 23003KT 8SM FEW100 BKN160 BKN250 M05/M06 A2946 RMK AC2AC4CI1 SLP024

CYQF;2018-11-27 18:00;CYQF 271800Z 17003KT 8SM FEW040 BKN130 BKN250 M03/M05 A2945 RMK SC1AC4CI2 SLP017

CYQF;2018-11-27 19:00;CYQF 271900Z 00000KT 8SM FEW080 SCT140 BKN260 M02/M04 A2943 RMK AC2AC1CI2 SLP009

CYQF;2018-11-27 20:00;CYQF 272000Z 11004KT 8SM FEW040 SCT080 BKN250 M01/M04 A2941 RMK SC1AC2CI4 SLP006

CYQF;2018-11-27 21:00;CYQF 272100Z 07003KT 340V080 8SM FEW040 FEW080 BKN230 M02/M04 A2940 RMK SC1AC1CI5 SLP002

CYQF;2018-11-27 22:00;CYQF 272200Z 00000KT 8SM FEW040 SCT100 BKN250 M02/M04 A2940 RMK SC1AC3CI2 SLP005

CYQF;2018-11-27 23:00;CYQF 272300Z 02003KT 12SM FEW040 SCT120 BKN240 M03/M05 A2940 RMK SC2AC2CI3 SLP008

CYQF;2018-11-28 00:00;CYQF 280000Z 36002KT 12SM FEW040 FEW120 BKN240 M02/M04 A2940 RMK SC1AC1CI4 SLP006

CYQF;2018-11-28 01:00;CYQF 280100Z VRB02KT 12SM FEW040 FEW100 BKN180 M04/M06 A2939 RMK SC1AC1AC5 SLP007

CYQF;2018-11-28 02:00;CYQF 280200Z 18003KT 12SM FEW120 BKN180 M03/M04 A2939 RMK AC1AC4 SLP002

CYQF;2018-11-28 03:00;CYQF 280300Z 01005KT 330V040 12SM BKN190 M06/M06 A2940 RMK AC5 SLP007

CYQF;2018-11-28 04:00;CYQF 280400Z 00000KT 10SM BKN130 OVC170 M07/M07 A2940 RMK AC6AC2 SLP009

CYQF;2018-11-28 05:00;CYQF 280500Z 00000KT 8SM FEW002 BKN130 M06/M07 A2941 RMK ST2AC4 SLP011

CYQF;2018-11-28 06:00;CYQF 280600Z 01004KT 300V030 8SM FEW002 OVC140 M07/M08 A2943 RMK SF2AC6 SLP017

CYQF;2018-11-28 07:00;CYQF 280700Z VRB02KT 10SM SCT140 M06/M06 A2945 RMK AC4 SLP020

CYQF;2018-11-28 07:28;CYQF 280728Z 32002KT 2SM BR BKN120 M05/M06 A2945 RMK FG4AC2 SLP020

CYQF;2018-11-28 08:00;CYQF 280800Z 00000KT 1SM BR OVC100 M06/M07 A2946 RMK FG5AC3 SLP023

CYQF;2018-11-28 09:00;CYQF 280900Z 00000KT 3/4SM BR SCT100 M10/M12 A2948 RMK FG2AC2 FROIN SLP034

CYQF;2018-11-28 09:31;CYQF 280931Z 24002KT 1/4SM FZFG VV002 M10/M11 A2948 RMK FG8 SLP035

CYQF;2018-11-28 10:00;CYQF 281000Z 00000KT 1/4SM FZFG VV001 M09/M10 A2949 RMK FG8 SLP037

CYQF;2018-11-28 11:00;CYQF 281100Z 21003KT 3/8SM FZFG VV001 M11/M12 A2950 RMK FG8 SLP043

CYQF;2018-11-28 12:00;CYQF 281200Z 22003KT 1SM BR SCT100 M12/M13 A2951 RMK AC4 SLP047

CYQF;2018-11-28 12:45;CYQF 281245Z 22005KT 6SM BR SCT002 BKN100 M12/M13 A2951 RMK ST3AC2 SLP048

CYQF;2018-11-28 13:00;CYQF 281300Z 21003KT 10SM FEW002 FEW100 M13/M15 A2951 RMK SF1AC1 FROIN SLP052

CYQF;2018-11-28 14:00;CYQF 281400Z 19003KT 12SM SCT100 BKN180 M11/M12 A2951 RMK AC3AC3 SLP048

CYQF;2018-11-28 15:00;CYQF 281500Z 15002KT 12SM FEW160 M12/M14 A2952 RMK AC2 SLP055

CYQF;2018-11-28 16:00;CYQF 281600Z 20004KT 8SM SCT150 M12/M13 A2952 RMK AC3 SLP055

CYQF;2018-11-28 17:00;CYQF 281700Z 00000KT 8SM SCT150 M08/M09 A2952 RMK AC3 SLP052

CYQF;2018-11-28 18:00;CYQF 281800Z 00000KT 8SM FEW140 SCT250 M07/M08 A2953 RMK AC1CI2 SLP053

CYQF;2018-11-28 19:00;CYQF 281900Z 20002KT 12SM FEW140 FEW250 M03/M04 A2951 RMK AC1CI1 SLP043

CYQF;2018-11-28 20:00;CYQF 282000Z 20002KT 15SM FEW080 M01/M04 A2950 RMK AC1 SLP036

CYQF;2018-11-28 21:00;CYQF 282100Z 20006KT 15SM FEW080 M00/M05 A2950 RMK AC1 SLP038

CYQF;2018-11-28 22:00;CYQF 282200Z 00000KT 15SM FEW080 01/M05 A2949 RMK AC1 SLP033

CYQF;2018-11-28 23:00;CYQF 282300Z 00000KT 15SM FEW080 M01/M05 A2950 RMK AC1 SLP042

CYQF;2018-11-29 00:00;CYQF 290000Z VRB02KT 15SM FEW100 M04/M06 A2951 RMK AC2 SLP048

CYQF;2018-11-29 01:00;CYQF 290100Z 20003KT 170V230 15SM FEW100 M07/M10 A2951 RMK AC1 SLP055

CYQF;2018-11-29 02:00;CYQF 290200Z 00000KT 15SM FEW140 M08/M09 A2952 RMK AC1 SLP055

CYQF;2018-11-29 03:00;CYQF 290300Z 22003KT 15SM FEW090 M09/M10 A2953 RMK AC2 SLP063

CYQF;2018-11-29 04:00;CYQF 290400Z 19006KT 180V250 15SM FEW040 BKN140 M09/M11 A2953 RMK SC2AC3 SLP064

CYQF;2018-11-29 05:00;CYQF 290500Z 20007KT 15SM FEW040 SCT250 M11/M12 A2954 RMK SC2CI1 SLP062

CYQF;2018-11-29 06:00;CYQF 290600Z 24007KT 15SM FEW040 SCT250 M07/M08 A2954 RMK SC2CI2 SLP058

CYQF;2018-11-29 07:00;CYQF 290700Z 26007KT 15SM FEW100 M05/M08 A2955 RMK AC2 SLP053

CYQF;2018-11-29 08:00;CYQF 290800Z 21003KT 15SM FEW100 M10/M13 A2956 RMK AC2 SLP060

CYQF;2018-11-29 09:00;CYQF 290900Z 20006KT 15SM SCT090 M11/M13 A2956 RMK AC3 SLP063

CYQF;2018-11-29 10:00;CYQF 291000Z 20006KT 15SM FEW090 M11/M12 A2957 RMK AC2 SLP064

CYQF;2018-11-29 11:00;CYQF 291100Z 21005KT 15SM FEW090 M12/M13 A2957 RMK AC1 SLP066

CYQF;2018-11-29 12:00;CYQF 291200Z 21005KT 15SM BKN075 M10/M12 A2957 RMK AC5 SLP068

CYQF;2018-11-29 13:00;CYQF 291300Z 21004KT 15SM BKN080 M08/M10 A2957 RMK AC5 SLP068

CYQF;2018-11-29 14:00;CYQF 291400Z 19004KT 15SM FEW080 M12/M14 A2957 RMK AC1 SLP075

CYQF;2018-11-29 15:00;CYQF 291500Z 22006KT 15SM FEW080 M10/M12 A2958 RMK AC2 SLP077

CYQF;2018-11-29 16:00;CYQF 291600Z 21007KT 15SM FEW080 M12/M14 A2959 RMK AC1 SLP083

CYQF;2018-11-29 17:00;CYQF 291700Z 21005KT 15SM FEW080 M08/M11 A2959 RMK AC1 SLP081

CYQF;2018-11-29 18:00;CYQF 291800Z 20003KT 15SM FEW080 M05/M10 A2959 RMK AC1 SLP073

CYQF;2018-11-29 19:00;CYQF 291900Z 20006KT 15SM FEW080 M04/M10 A2958 RMK AC1 SLP066

CYQF;2018-11-29 20:00;CYQF 292000Z 21004KT 15SM FEW100 FEW250 M02/M08 A2957 RMK AC1CI1 SLP067

CYQF;2018-11-29 21:00;CYQF 292100Z 19003KT 15SM FEW250 M01/M08 A2957 RMK CI1 SLP064

CYQF;2018-11-29 22:00;CYQF 292200Z 15002KT 15SM FEW120 SCT250 M01/M08 A2957 RMK AC1CI3 SLP067

CYQF;2018-11-29 23:00;CYQF 292300Z 00000KT 15SM FEW120 BKN250 M02/M08 A2957 RMK AC2CI4 SLP069

CYQF;2018-11-30 00:00;CYQF 300000Z 00000KT 15SM FEW120 SCT250 M03/M08 A2957 RMK AC1CI2 SLP067

CYQF;2018-11-30 01:00;CYQF 300100Z 00000KT 15SM FEW120 SCT250 M08/M11 A2957 RMK AC2CI2 SLP071

CYQF;2018-11-30 02:00;CYQF 300200Z 18003KT 15SM FEW050 SCT250 M10/M12 A2957 RMK SC1CI2 SLP078

CYQF;2018-11-30 03:00;CYQF 300300Z 36003KT 350V060 15SM FEW050 FEW250 M11/M12 A2958 RMK SC1CI2 SC TR SLP080

CYQF;2018-11-30 04:00;CYQF 300400Z 00000KT 15SM FEW250 M10/M12 A2958 RMK CI2 SLP081

CYQF;2018-11-30 05:00;CYQF 300500Z 08003KT 15SM FEW250 M10/M11 A2958 RMK CI2 SLP076

CYQF;2018-11-30 06:00;CYQF 300600Z 21003KT 15SM SKC M12/M13 A2958 RMK SLP076

CYQF;2018-11-30 07:00;CYQF 300700Z 21005KT 15SM SKC M14/M15 A2958 RMK SLP077

CYQF;2018-11-30 08:00;CYQF 300800Z 18003KT 15SM SKC M15/M17 A2958 RMK SLP076

CYQF;2018-11-30 09:00;CYQF 300900Z 00000KT 15SM SKC M15/M17 A2959 RMK SLP078

CYQF;2018-11-30 10:00;CYQF 301000Z 20006KT 15SM SKC M15/M17 A2960 RMK SLP081

CYQF;2018-11-30 11:00;CYQF 301100Z 28005KT 15SM SKC M14/M16 A2961 RMK SLP083

CYQF;2018-11-30 12:00;CYQF 301200Z 19002KT 15SM SKC M17/M18 A2961 RMK SLP090

CYQF;2018-11-30 13:00;CYQF 301300Z 22005KT 15SM SKC M16/M18 A2961 RMK SLP094

CYQF;2018-11-30 14:00;CYQF 301400Z 20002KT 15SM SKC M15/M17 A2962 RMK SLP100

CYQF;2018-11-30 15:00;CYQF 301500Z 22005KT 12SM FEW250 M16/M18 A2963 RMK CI2 SLP105

CYQF;2018-11-30 16:00;CYQF 301600Z VRB02KT 10SM FEW250 M17/M18 A2965 RMK CI2 SLP110

CYQF;2018-11-30 17:00;CYQF 301700Z 19004KT 10SM FEW140 SCT250 M15/M16 A2967 RMK AC1CI2 SLP115

CYQF;2018-11-30 18:00;CYQF 301800Z 18003KT 12SM FEW140 SCT250 M12/M14 A2967 RMK AC1CI2 SLP115

CYQF;2018-11-30 19:00;CYQF 301900Z 18003KT 12SM SCT250 M10/M11 A2967 RMK CI3 SLP112

CYQF;2018-11-30 20:00;CYQF 302000Z 18002KT 12SM SCT250 M09/M10 A2967 RMK CI4 SLP114

CYQF;2018-11-30 21:00;CYQF 302100Z 17002KT 12SM SCT140 BKN250 M06/M09 A2967 RMK AC3CI3 SLP112

CYQF;2018-11-30 22:00;CYQF 302200Z CCA 18004KT 12SM SCT140 BKN250 M08/M11 A2969 RMK AC3CI4 SLP120

CYQF;2018-11-30 23:00;CYQF 302300Z 18003KT 12SM SCT140 BKN250 M09/M11 A2971 RMK AC4CI3 SLP125

CYQF;2018-12-01 00:00;CYQF 010000Z 21003KT 12SM BKN120 M09/M11 A2972 RMK AC7 SLP133

CYQF;2018-12-01 01:00;CYQF 010100Z 21002KT 12SM BKN110 M09/M10 A2972 RMK AC7 SLP134

CYQF;2018-12-01 02:00;CYQF 010200Z 00000KT 15SM OVC110 M09/M11 A2972 RMK AC8 SLP134

CYQF;2018-12-01 03:00;CYQF 010300Z 05002KT 12SM OVC110 M10/M11 A2973 RMK AC8 SLP139

CYQF;2018-12-01 03:51;CYQF 010351Z 22002KT 12SM SCT006 OVC110 M10/M12 A2975 RMK ST3AC5 SLP145

CYQF;2018-12-01 04:00;CYQF 010400Z 26004KT 12SM SCT004 OVC110 M10/M11 A2975 RMK ST4AC4 SLP145

CYQF;2018-12-01 04:28;CYQF 010428Z 27004KT 10SM BKN003 OVC110 M09/M10 A2975 RMK ST6AC2 SLP144

CYQF;2018-12-01 05:00;CYQF 010500Z 00000KT 6SM BR OVC001 M07/M08 A2976 RMK ST8 SLP142

CYQF;2018-12-01 05:12;CYQF 010512Z 00000KT 2SM BR VV002 M08/M08 A2976 RMK FG8 SLP142

CYQF;2018-12-01 05:41;CYQF 010541Z 00000KT 1/2SM FZFG VV001 M08/M09 A2976 RMK FG8 SLP145

CYQF;2018-12-01 06:00;CYQF 010600Z 16002KT 1/4SM FZFG VV001 M08/M09 A2977 RMK FG8 SLP144

CYQF;2018-12-01 07:00;CYQF 010700Z 17002KT 1/4SM FZFG VV001 M08/M09 A2978 RMK FG8 SLP144

CYQF;2018-12-01 08:00;CYQF 010800Z 22002KT 0SM FZFG VV001 M07/M08 A2979 RMK FG8 SLP145

CYQF;2018-12-01 09:00;CYQF 010900Z 16002KT 1/8SM FZFG VV001 M06/M07 A2979 RMK FG8 SLP143

CYQF;2018-12-01 10:00;CYQF 011000Z 00000KT 1/8SM -FZDZ VV001 M06/M06 A2980 RMK FG8 SLP146

CYQF;2018-12-01 11:00;CYQF 011100Z 23002KT 1/8SM FZFG VV001 M05/M06 A2980 RMK FG8 SLP149

CYQF;2018-12-01 12:00;CYQF 011200Z 28002KT 1/8SM FZFG VV001 M05/M05 A2981 RMK FG8 SLP150

CYQF;2018-12-01 13:00;CYQF 011300Z 29003KT 1/8SM FZFG VV001 M04/M05 A2981 RMK FG8 SLP152

CYQF;2018-12-01 13:37;CYQF 011337Z 01004KT 1/4SM FZFG VV002 M04/M04 A2982 RMK FG8 SLP152

CYQF;2018-12-01 14:00;CYQF 011400Z 02003KT 1/2SM FZFG VV003 M04/M04 A2983 RMK FG8 SLP156

CYQF;2018-12-01 14:53;CYQF 011453Z 34002KT 1/2SM FZFG VV006 M04/M04 A2984 RMK FG8 SLP160

CYQF;2018-12-01 15:00;CYQF 011500Z 36002KT 1/2SM -SN FZFG VV006 M04/M04 A2984 RMK FG8 SLP161

CYQF;2018-12-01 15:49;CYQF 011549Z 32003KT 3/4SM -SN BR OVC015 M04/M04 A2984 RMK SN4SC4 SLP163

CYQF;2018-12-01 16:00;CYQF 011600Z 33003KT 3/4SM -SN BR OVC020 M04/M04 A2984 RMK SN4SC4 VIS VRB 1/2-1 SLP162

CYQF;2018-12-01 17:00;CYQF 011700Z 35004KT 3/4SM -SN BR OVC020 M03/M04 A2985 RMK SN4SC4 SLP161

CYQF;2018-12-01 18:00;CYQF 011800Z 35005KT 3/4SM -SN BR BKN006 OVC020 M03/M03 A2986 RMK SN4SF1SC3 SLP164

CYQF;2018-12-01 19:00;CYQF 011900Z 02005KT 3/4SM -SN BR VV009 M03/M03 A2986 RMK SN8 VIS VRB 1/2-1 SLP164

CYQF;2018-12-01 20:00;CYQF 012000Z 35006KT 3/4SM -SN BR VV010 M03/M03 A2985 RMK SN8 VIS VRB 1/2-1 SLP162

CYQF;2018-12-01 21:00;CYQF 012100Z 36007KT 3/4SM -SN BR VV010 M03/M03 A2985 RMK SN8 VIS VRB 1/2-1 /S02/ SLP161

CYQF;2018-12-01 22:00;CYQF 012200Z 35006KT 3/4SM -SN BR VV020 M03/M04 A2986 RMK SN8 VIS VRB 1/2-1 SLP162

CYQF;2018-12-01 23:00;CYQF 012300Z 01006KT 3/4SM -SN BR BKN009 OVC040 M04/M04 A2988 RMK SN3SC2SC3 VIS VRB 1/2-1 SLP168

CYQF;2018-12-02 00:00;CYQF 020000Z 01005KT 3/4SM -SN BR OVC030 M04/M04 A2989 RMK SN5SC3 VIS VRB 1/2-1 /S04/ SLP172

CYQF;2018-12-02 00:42;CYQF 020042Z 02005KT 1 1/2SM -SN OVC030 M04/M05 A2989 RMK SC8 VIS VRB 1-2 SLP173

CYQF;2018-12-02 01:00;CYQF 020100Z 01004KT 1 1/2SM -SN OVC030 M04/M05 A2989 RMK SC8 SLP172

CYQF;2018-12-02 02:00;CYQF 020200Z 35005KT 1 1/2SM -SN OVC037 M04/M05 A2989 RMK SC8 VIS VRB 1-2 SLP173

CYQF;2018-12-02 03:00;CYQF 020300Z CCA 35005KT 2SM -SN VV023 M04/M05 A2989 RMK SN8 /S01/ SLP173

CYQF;2018-12-02 04:00;CYQF 020400Z 02003KT 2SM -SN OVC040 M04/M05 A2990 RMK SN6SC2 SLP174

CYQF;2018-12-02 04:44;CYQF 020444Z 01006KT 3/4SM -SN VV017 M05/M05 A2990 RMK SN8 VIS VRB 1/2-1 SLP176

CYQF;2018-12-02 05:00;CYQF 020500Z 02007KT 1 1/2SM -SN OVC008 M05/M05 A2990 RMK SN6SC2 VIS VRB 1-2 /S02/ SLP176

CYQF;2018-12-02 05:24;CYQF 020524Z 36008KT 3SM -SN BKN010 OVC030 M05/M05 A2990 RMK SN3SC3SC2 SLP176

CYQF;2018-12-02 05:29;CYQF 020529Z 35006KT 2SM -SN BKN010 OVC030 M05/M05 A2990 RMK SN3SC2SC3 VIS VRB 1-3 SLP176

CYQF;2018-12-02 06:00;CYQF 020600Z 35007KT 1 1/2SM -SN VV020 M05/M05 A2990 RMK SN8 /S03/ SLP176

CYQF;2018-12-02 07:00;CYQF 020700Z 36004KT 2SM -SN VV020 M05/M05 A2990 RMK SN8 SLP176

CYQF;2018-12-02 07:20;CYQF 020720Z 05004KT 2SM -SN BKN008 OVC025 M05/M06 A2990 RMK SN2ST3SC3 SLP177

CYQF;2018-12-02 08:00;CYQF 020800Z 03006KT 2SM -SN VV008 M05/M06 A2990 RMK SN8 SLP177

CYQF;2018-12-02 08:40;CYQF 020840Z 03007KT 1 1/2SM -SN VV010 M06/M06 A2991 RMK SN8 SLP178

CYQF;2018-12-02 09:00;CYQF 020900Z 05006KT 1 1/2SM -SN VV012 M06/M07 A2991 RMK SN8 SLP179

CYQF;2018-12-02 10:00;CYQF 021000Z 03005KT 1 1/4SM -SN VV013 M07/M08 A2991 RMK SN8 SLP181

CYQF;2018-12-02 11:00;CYQF 021100Z 36004KT 1 1/2SM -SN OVC025 M07/M08 A2990 RMK SN2SC6 SLP179

CYQF;2018-12-02 12:00;CYQF 021200Z 34003KT 1 1/2SM -SN VV020 M07/M08 A2990 RMK SN8 /S01/ SLP181

CYQF;2018-12-02 12:09;CYQF 021209Z 36002KT 1SM -SN VV015 M07/M08 A2991 RMK SN8 SLP182

CYQF;2018-12-02 12:19;CYQF 021219Z 01003KT 3/4SM -SN VV014 M07/M08 A2991 RMK SN8 SLP182

CYQF;2018-12-02 13:00;CYQF 021300Z 01004KT 3/4SM -SN VV014 M07/M08 A2991 RMK SN8 SLP185

CYQF;2018-12-02 13:26;CYQF 021326Z 36004KT 1SM -SN VV020 M07/M08 A2992 RMK SN8 SLP186

CYQF;2018-12-02 13:37;CYQF 021337Z 32004KT 3/4SM -SN VV020 M07/M08 A2992 RMK SN8 SLP186

CYQF;2018-12-02 14:00;CYQF 021400Z 34007KT 1SM -SN VV030 M07/M08 A2992 RMK SN8 /S01/ VIS VRB 3/4-11/4 SLP188

CYQF;2018-12-02 14:20;CYQF 021420Z 36005KT 1SM -SN FEW008 VV030 M07/M08 A2993 RMK SF2SN6 WND ESTD SLP189

CYQF;2018-12-02 15:00;CYQF 021500Z 01005KT 1SM -SN VV022 M08/M09 A2993 RMK SN8 SLP190

CYQF;2018-12-02 15:38;CYQF 021538Z 02003KT 3/4SM -SN VV018 M08/M09 A2993 RMK SN8 SLP191

CYQF;2018-12-02 16:00;CYQF 021600Z 35002KT 1SM -SN VV028 M07/M08 A2993 RMK SN8 VIS VRB 3/4 - 11/4 SLP192

CYQF;2018-12-02 17:00;CYQF 021700Z 04003KT 1 1/2SM -SN SCT020 OVC035 M07/M08 A2994 RMK ST3SC5 SLP196

CYQF;2018-12-02 18:00;CYQF 021800Z 34006KT 1 1/2SM -SN OVC035 M06/M08 A2996 RMK SC8 SLP200

CYQF;2018-12-02 18:45;CYQF 021845Z 36006KT 1SM -SN VV017 M06/M08 A2996 RMK SN8 SLP201

CYQF;2018-12-02 19:00;CYQF 021900Z 35007KT 1SM -SN VV015 M06/M08 A2996 RMK SN8 SLP201

CYQF;2018-12-02 19:39;CYQF 021939Z 36007KT 3/4SM -SN VV013 M06/M08 A2996 RMK SN8 SLP201

CYQF;2018-12-02 20:00;CYQF 022000Z 35006KT 3/4SM -SN VV014 M06/M08 A2997 RMK SN8 /S02/ SLP203

CYQF;2018-12-02 20:42;CYQF 022042Z 35004KT 1SM -SN VV018 M06/M08 A2997 RMK SN8 SLP205

CYQF;2018-12-02 21:00;CYQF 022100Z 35004KT 1SM -SN VV021 M06/M07 A2997 RMK SN8 SLP206

CYQF;2018-12-02 22:00;CYQF 022200Z 30003KT 1SM -SN VV018 M06/M07 A2999 RMK SN8 /S03/ SLP211

CYQF;2018-12-02 23:00;CYQF 022300Z 32009KT 1SM -SN VV020 M05/M06 A3000 RMK SN8 VIS VRB 3/4-11/4 SLP216

CYQF;2018-12-03 00:00;CYQF 030000Z 34010KT 1 1/2SM -SN DRSN OVC025 M05/M06 A3002 RMK SN4SC4 VIS VRB 1-2 SLP223

CYQF;2018-12-03 01:00;CYQF 030100Z 34004KT 1 1/2SM -SN BKN017 M05/M06 A3003 RMK SN3SC4 VIS VRB 1-2 SLP227

CYQF;2018-12-03 02:00;CYQF 030200Z 31004KT 1 1/2SM -SN OVC016 M05/M05 A3005 RMK SN4SC4 VIS VRB 1-2 SLP231

CYQF;2018-12-03 03:00;CYQF 030300Z 30006KT 1 1/2SM -SN OVC023 M04/M05 A3005 RMK SN4SC4 /S01/ VIS VRB 1-2 SLP232

CYQF;2018-12-03 03:42;CYQF 030342Z 30009KT 4SM -SN FEW016 VV050 M04/M05 A3005 RMK SF2SN6 SLP233

CYQF;2018-12-03 04:00;CYQF 030400Z 30009KT 6SM -SN FEW016 VV050 M04/M05 A3006 RMK SF2SN6 SLP234

CYQF;2018-12-03 05:00;CYQF 030500Z 28007KT 8SM -SN FEW016 OVC080 M04/M05 A3007 RMK SF2AC6 SLP238

CYQF;2018-12-03 06:00;CYQF 030600Z 29008KT 12SM OVC080 M04/M06 A3007 RMK AC8 SLP239

CYQF;2018-12-03 07:00;CYQF 030700Z 30007KT 15SM SCT100 M05/M07 A3009 RMK AC4 SLP245

CYQF;2018-12-03 08:00;CYQF 030800Z 28005KT 15SM BKN090 M05/M07 A3010 RMK AC5 SLP248

CYQF;2018-12-03 09:00;CYQF 030900Z 25004KT 15SM BKN090 M06/M07 A3010 RMK AC6 SLP248

CYQF;2018-12-03 10:00;CYQF 031000Z 25006KT 15SM BKN075 M05/M07 A3010 RMK AC7 SLP250

CYQF;2018-12-03 11:00;CYQF 031100Z 24008KT 15SM FEW040 OVC085 M05/M07 A3010 RMK SC2AC6 SLP248

CYQF;2018-12-03 12:00;CYQF 031200Z 27008KT 15SM SCT020 OVC080 M05/M07 A3011 RMK SC3AC5 SLP250

CYQF;2018-12-03 13:00;CYQF 031300Z 29010KT 15SM BKN020 BKN080 M04/M07 A3011 RMK SC5AC2 SLP252

CYQF;2018-12-03 14:00;CYQF 031400Z 29009KT 15SM FEW019 OVC100 M05/M07 A3012 RMK SC2AC6 SLP254

CYQF;2018-12-03 15:00;CYQF 031500Z 29007KT 15SM FEW020 BKN100 M06/M08 A3012 RMK SC2AC5 SLP256

CYQF;2018-12-03 16:00;CYQF 031600Z 30004KT 15SM FEW020 BKN090 OVC200 M07/M09 A3014 RMK SC1AC4CI3 SLP261

CYQF;2018-12-03 17:00;CYQF 031700Z 30005KT 15SM SCT020 BKN100 BKN220 M07/M09 A3015 RMK SC3AC2CI2 SLP266

CYQF;2018-12-03 18:00;CYQF 031800Z 00000KT 15SM FEW020 FEW140 SCT250 M07/M10 A3016 RMK SC1AC1CI2 SLP269

CYQF;2018-12-03 19:00;CYQF 031900Z 30004KT 15SM FEW100 BKN250 M07/M11 A3014 RMK AC2CI4 SLP265

CYQF;2018-12-03 20:00;CYQF 032000Z VRB02KT 15SM SCT160 BKN250 M07/M11 A3013 RMK AC3CI3 SLP262

CYQF;2018-12-03 21:00;CYQF 032100Z 29009KT 15SM SCT160 BKN250 M05/M10 A3013 RMK AC3CI4 SLP258

CYQF;2018-12-03 22:00;CYQF 032200Z 28007KT 15SM SCT140 BKN260 M06/M11 A3012 RMK AC4CI2 SLP257

CYQF;2018-12-03 23:00;CYQF 032300Z 26002KT 15SM SCT084 BKN140 BKN250 M07/M11 A3012 RMK AC3AC2CI2 SLP258

CYQF;2018-12-04 00:00;CYQF 040000Z VRB02KT 15SM SCT080 SCT250 M08/M12 A3013 RMK AC3CI1 SLP262

CYQF;2018-12-04 01:00;CYQF 040100Z 31006KT 15SM FEW080 M07/M12 A3014 RMK AC2 SLP263

CYQF;2018-12-04 02:00;CYQF 040200Z 00000KT 15SM FEW080 M09/M13 A3014 RMK AC2 SLP265

CYQF;2018-12-04 03:00;CYQF 040300Z 23005KT 15SM FEW080 M11/M14 A3015 RMK AC1 SLP272

CYQF;2018-12-04 04:00;CYQF 040400Z 31004KT 15SM FEW080 M09/M12 A3014 RMK AC1 SLP267

CYQF;2018-12-04 05:00;CYQF 040500Z 29005KT 15SM FEW080 M09/M13 A3012 RMK AC1 SLP260

CYQF;2018-12-04 06:00;CYQF 040600Z 25007KT 15SM SKC M12/M14 A3011 RMK SLP263

CYQF;2018-12-04 07:00;CYQF 040700Z 26005KT 15SM FEW250 M11/M13 A3011 RMK CI1 SLP260

CYQF;2018-12-04 08:00;CYQF 040800Z 20003KT 15SM FEW250 M15/M16 A3010 RMK CI1 SLP260

CYQF;2018-12-04 09:00;CYQF 040900Z 24002KT 15SM FEW250 M19/M20 A3009 RMK CI1 SLP259

CYQF;2018-12-04 10:00;CYQF 041000Z 18006KT 15SM FEW250 M20/M22 A3008 RMK CI2 SLP257

CYQF;2018-12-04 11:00;CYQF 041100Z 20005KT 15SM BKN170 M18/M20 A3005 RMK AC5 SLP249

CYQF;2018-12-04 12:00;CYQF 041200Z 00000KT 15SM BKN150 M16/M18 A3005 RMK AC6 SLP247

CYQF;2018-12-04 13:00;CYQF 041300Z 20007KT 15SM OVC130 M15/M17 A3003 RMK AC8 SLP239

CYQF;2018-12-04 14:00;CYQF 041400Z 21010KT 15SM BKN130 M12/M13 A3000 RMK AC7 SLP227

CYQF;2018-12-04 15:00;CYQF 041500Z 24009KT 15SM SCT090 BKN180 M11/M13 A2998 RMK AC3AC4 SLP221

CYQF;2018-12-04 16:00;CYQF 041600Z 22008KT 15SM SCT080 BKN140 M12/M15 A2997 RMK AC3AC3 SLP215

CYQF;2018-12-04 17:00;CYQF 041700Z 21005KT 15SM BKN130 M10/M14 A2996 RMK AC7 SLP211

CYQF;2018-12-04 18:00;CYQF 041800Z 25009KT 15SM SCT100 BKN120 M08/M13 A2996 RMK AC3AC4 SLP212

CYQF;2018-12-04 19:00;CYQF 041900Z 17004KT 15SM SCT090 BKN120 M08/M12 A2996 RMK AC3AC4 SLP208

CYQF;2018-12-04 20:00;CYQF 042000Z 29009KT 12SM BKN078 BKN130 M04/M11 A2995 RMK AC5AC2 VIRGA SLP205

CYQF;2018-12-04 21:00;CYQF 042100Z 28007KT 15SM BKN080 BKN120 M04/M10 A2994 RMK AC5AC2 SLP207

CYQF;2018-12-04 22:00;CYQF 042200Z 32007KT 15SM BKN100 BKN250 M02/M09 A2992 RMK AC6CI1 SLP200

CYQF;2018-12-04 23:00;CYQF 042300Z 34006KT 15SM BKN100 M02/M09 A2993 RMK AC7 SLP200

CYQF;2018-12-05 00:00;CYQF 050000Z 26004KT 15SM BKN100 M05/M10 A2995 RMK AC7 SLP210

CYQF;2018-12-05 01:00;CYQF 050100Z 32008KT 15SM BKN120 M04/M09 A2997 RMK AC7 SLP212

CYQF;2018-12-05 02:00;CYQF 050200Z 32016G23KT 15SM DRSN BKN055 OVC110 M03/M07 A2998 RMK SC5AC3 SLP210

CYQF;2018-12-05 03:00;CYQF 050300Z 32015G21KT 15SM DRSN BKN060 OVC110 M03/M08 A2999 RMK SC5AC3 SLP213

CYQF;2018-12-05 04:00;CYQF 050400Z 31010G16KT 15SM DRSN BKN040 OVC110 M03/M08 A3000 RMK SC6AC2 SLP220

CYQF;2018-12-05 05:00;CYQF 050500Z 30012G17KT 15SM DRSN BKN050 OVC110 M03/M08 A3000 RMK SC5AC3 SLP215

CYQF;2018-12-05 05:28;CYQF 050528Z 32016G24KT 10SM -SN DRSN BKN020 OVC050 M03/M08 A3001 RMK SC5SC3 SLP221

CYQF;2018-12-05 06:00;CYQF 050600Z 32018G27KT 4SM -SN DRSN OVC027 M04/M07 A3003 RMK SC8 OCNL BLSN SLP227

CYQF;2018-12-05 06:16;CYQF 050616Z 33027G38KT 1SM -SN BLSN VV013 M04/M07 A3004 RMK SN8 SLP231

CYQF;2018-12-05 06:19;CYQF 050619Z 33022G38KT 1/2SM -SN +BLSN VV008 M05/M07 A3005 RMK SN8 SLP233

CYQF;2018-12-05 06:37;CYQF 050637Z 33026G35KT 1SM -SN BLSN VV020 M05/M07 A3006 RMK SN8 VIS VRB 3/4-11/4 SLP237

CYQF;2018-12-05 07:00;CYQF 050700Z 33021G31KT 2SM -SN BLSN OVC026 M06/M08 A3007 RMK SN4SC4 VIS VRB 11/2-21/2 SLP241

CYQF;2018-12-05 07:13;CYQF 050713Z 33020G28KT 3SM -SN BLSN OVC030 M06/M08 A3008 RMK SN2SC6 SLP244

CYQF;2018-12-05 07:22;CYQF 050722Z 34022G29KT 1SM -SN BLSN OVC025 M06/M08 A3009 RMK SN5SC3 VIS VRB 3/4-11/4 SLP247

CYQF;2018-12-05 07:47;CYQF 050747Z 34023G32KT 4SM -SN BLSN FEW015 OVC059 M07/M10 A3011 RMK SF2SC6 SLP255

CYQF;2018-12-05 08:00;CYQF 050800Z 33017G27KT 5SM -SN BLSN FEW015 OVC060 M07/M10 A3012 RMK SF2SC6 SLP255

CYQF;2018-12-05 09:00;CYQF 050900Z 34013G19KT 6SM -SN DRSN FEW020 OVC060 M08/M10 A3015 RMK SF1SC7 SLP267

CYQF;2018-12-05 10:00;CYQF 051000Z 34019G25KT 5SM -SN DRSN FEW020 OVC042 M08/M11 A3018 RMK SF1SC7 SLP274

CYQF;2018-12-05 11:00;CYQF 051100Z 34013G20KT 12SM -SN DRSN BKN041 M09/M11 A3020 RMK SC7 SLP282

CYQF;2018-12-05 12:00;CYQF 051200Z 33013KT 12SM -SN DRSN BKN039 M09/M12 A3021 RMK SC7 SLP291

CYQF;2018-12-05 12:18;CYQF 051218Z 34009KT 15SM DRSN BKN040 M09/M12 A3022 RMK SC7 SLP293

CYQF;2018-12-05 12:49;CYQF 051249Z 35011G17KT 15SM -SN DRSN OVC027 M09/M13 A3022 RMK SC8 SLP295

CYQF;2018-12-05 13:00;CYQF 051300Z 34013KT 15SM -SN DRSN OVC027 M09/M13 A3023 RMK SC8 SLP295

CYQF;2018-12-05 14:00;CYQF 051400Z 33009KT 15SM -SN OVC018 M09/M12 A3025 RMK SC8 SLP300

CYQF;2018-12-05 15:00;CYQF 051500Z 35006KT 10SM -SN BKN018 OVC029 M09/M11 A3026 RMK SC5SC3 SLP305

CYQF;2018-12-05 15:39;CYQF 051539Z 35005KT 12SM OVC028 M09/M12 A3027 RMK SC8 SLP309

CYQF;2018-12-05 15:44;CYQF 051544Z 34005KT 12SM -SN OVC022 M09/M12 A3027 RMK SC8 SLP309

CYQF;2018-12-05 16:00;CYQF 051600Z 34005KT 12SM -SN SCT022 BKN035 M09/M12 A3027 RMK SC3SC4 SLP310

CYQF;2018-12-05 16:29;CYQF 051629Z 35008KT 310V010 12SM FEW022 OVC033 M09/M13 A3027 RMK SC2SC6 SLP310

CYQF;2018-12-05 17:00;CYQF 051700Z 33006KT 15SM FEW018 OVC030 M09/M13 A3028 RMK SC2SC6 SLP313

CYQF;2018-12-05 17:41;CYQF 051741Z 30004KT 10SM -SN OVC032 M09/M13 A3029 RMK SC8 SLP314

CYQF;2018-12-05 18:00;CYQF 051800Z 31005KT 10SM -SN OVC033 M09/M13 A3029 RMK SC8 SLP315

CYQF;2018-12-05 19:00;CYQF 051900Z 26006KT 10SM -SN OVC030 M08/M12 A3027 RMK SC8 SLP311

CYQF;2018-12-05 20:00;CYQF 052000Z 25005KT 10SM -SN OVC024 M08/M12 A3026 RMK SC8 SLP309

CYQF;2018-12-05 21:00;CYQF 052100Z 25004KT 10SM -SN OVC024 M08/M11 A3025 RMK SC8 SLP305

CYQF;2018-12-05 22:00;CYQF 052200Z 22004KT 15SM -SN BKN021 M08/M11 A3022 RMK SC7 SLP298

CYQF;2018-12-05 22:34;CYQF 052234Z VRB02KT 15SM BKN020 M08/M11 A3022 RMK SC5 SLP295

CYQF;2018-12-05 23:00;CYQF 052300Z 23004KT 15SM FEW020 M09/M12 A3021 RMK SC2 SLP296

CYQF;2018-12-06 00:00;CYQF 060000Z 20005KT 15SM FEW030 M12/M14 A3021 RMK SC1 SC TR SLP300

CYQF;2018-12-06 01:00;CYQF 060100Z 20006KT 15SM FEW030 M16/M17 A3020 RMK SC1 SC TR SLP299

CYQF;2018-12-06 02:00;CYQF 060200Z 19007KT 15SM SKC M16/M18 A3019 RMK FROIN SLP295

CYQF;2018-12-06 03:00;CYQF 060300Z 18006KT 15SM SKC M16/M17 A3016 RMK SLP286

CYQF;2018-12-06 04:00;CYQF 060400Z 20004KT 15SM SKC M17/M19 A3014 RMK SLP279

CYQF;2018-12-06 05:00;CYQF 060500Z 22004KT 15SM FEW140 M18/M19 A3013 RMK AC1 SLP278

CYQF;2018-12-06 06:00;CYQF 060600Z 20005KT 15SM SKC M20/M22 A3013 RMK SLP279

CYQF;2018-12-06 07:00;CYQF 060700Z 20005KT 15SM SKC M20/M22 A3012 RMK SLP275

CYQF;2018-12-06 08:00;CYQF 060800Z 20003KT 15SM SKC M19/M21 A3011 RMK SLP272

CYQF;2018-12-06 09:00;CYQF 060900Z 22003KT 15SM SKC M21/M23 A3010 RMK SLP270

CYQF;2018-12-06 10:00;CYQF 061000Z 20003KT 15SM SKC M23/M26 A3010 RMK SLP274

CYQF;2018-12-06 11:00;CYQF 061100Z 20006KT 15SM SKC M23/M25 A3009 RMK SLP271

CYQF;2018-12-06 12:00;CYQF 061200Z 20004KT 15SM BKN150 M22/M25 A3009 RMK AC5 SLP273

CYQF;2018-12-06 13:00;CYQF 061300Z 20005KT 15SM FEW150 M22/M25 A3010 RMK AC2 FROIN SLP280

CYQF;2018-12-06 14:00;CYQF 061400Z 21006KT 15SM FEW150 M23/M25 A3010 RMK AC1 FROIN SLP282

CYQF;2018-12-06 15:00;CYQF 061500Z 21007KT 15SM FEW150 M21/M23 A3011 RMK AC2 SLP284

CYQF;2018-12-06 16:00;CYQF 061600Z 20007KT 15SM FEW150 M22/M24 A3012 RMK AC1 AC TR SLP288

CYQF;2018-12-06 17:00;CYQF 061700Z 20007KT 15SM SKC M21/M23 A3013 RMK SLP290

CYQF;2018-12-06 18:00;CYQF 061800Z 20006KT 15SM SKC M19/M21 A3013 RMK SLP293

CYQF;2018-12-06 19:00;CYQF 061900Z 20004KT 15SM SKC M17/M19 A3012 RMK SLP285

CYQF;2018-12-06 20:00;CYQF 062000Z 20006KT 15SM SKC M15/M17 A3010 RMK SLP275

CYQF;2018-12-06 21:00;CYQF 062100Z 19003KT 15SM SKC M14/M16 A3009 RMK SLP272

CYQF;2018-12-06 22:00;CYQF 062200Z 19004KT 15SM SKC M15/M16 A3008 RMK SLP273

CYQF;2018-12-06 23:00;CYQF 062300Z 20003KT 15SM SKC M15/M17 A3008 RMK SLP272

CYQF;2018-12-07 00:00;CYQF 070000Z 20002KT 15SM SKC M16/M18 A3008 RMK SLP273

CYQF;2018-12-07 01:00;CYQF 070100Z 22004KT 15SM SKC M16/M18 A3007 RMK SLP271

CYQF;2018-12-07 02:00;CYQF 070200Z 22003KT 15SM SKC M18/M20 A3006 RMK SLP270

CYQF;2018-12-07 03:00;CYQF 070300Z 22003KT 15SM SKC M18/M20 A3005 RMK SLP264

CYQF;2018-12-07 04:00;CYQF 070400Z 18004KT 15SM FEW100 M19/M21 A3004 RMK AC1 SLP264

CYQF;2018-12-07 05:00;CYQF 070500Z 23005KT 15SM SKC M16/M18 A3004 RMK FROIN SLP257

CYQF;2018-12-07 06:00;CYQF 070600Z 18005KT 15SM SKC M22/M24 A3002 RMK SLP258

CYQF;2018-12-07 07:00;CYQF 070700Z 21003KT 15SM SKC M21/M23 A3002 RMK SLP251

CYQF;2018-12-07 08:00;CYQF 070800Z 21004KT 15SM SKC M19/M20 A3000 RMK SLP240

CYQF;2018-12-07 09:00;CYQF 070900Z 19004KT 15SM SKC M18/M20 A2998 RMK SLP231

CYQF;2018-12-07 10:00;CYQF 071000Z 17003KT 15SM SKC M19/M21 A2997 RMK SLP230

CYQF;2018-12-07 11:00;CYQF 071100Z 18008KT 15SM SKC M19/M21 A2995 RMK SLP225

CYQF;2018-12-07 12:00;CYQF 071200Z 25005KT 15SM SKC M16/M19 A2995 RMK SLP222

CYQF;2018-12-07 13:00;CYQF 071300Z 16007KT 15SM SKC M21/M23 A2994 RMK SLP222

CYQF;2018-12-07 14:00;CYQF 071400Z 23008KT 15SM SKC M20/M22 A2994 RMK SLP224

CYQF;2018-12-07 15:00;CYQF 071500Z 18004KT 15SM FEW250 M23/M26 A2991 RMK CI2 SLP219

CYQF;2018-12-07 16:00;CYQF 071600Z 21005KT 15SM SCT250 M23/M25 A2992 RMK CI4 SLP222

CYQF;2018-12-07 17:00;CYQF 071700Z 20005KT 15SM BKN230 M20/M23 A2993 RMK CI5 SLP218

CYQF;2018-12-07 18:00;CYQF 071800Z 20006KT 15SM SCT210 OVC250 M18/M21 A2992 RMK CI3CI5 SLP222

CYQF;2018-12-07 19:00;CYQF 071900Z 21008KT 15SM BKN220 M15/M19 A2991 RMK CI7 SLP213

CYQF;2018-12-07 20:00;CYQF 072000Z 18006KT 15SM BKN200 M14/M17 A2991 RMK CI7 SLP209

CYQF;2018-12-07 21:00;CYQF 072100Z 16005KT 15SM SCT140 BKN210 M13/M17 A2991 RMK AC3CI4 SLP205

CYQF;2018-12-07 22:00;CYQF 072200Z 19005KT 15SM SCT100 BKN200 M11/M15 A2990 RMK AC4CI2 SLP203

CYQF;2018-12-07 23:00;CYQF 072300Z 19006KT 15SM FEW100 SCT250 M12/M16 A2991 RMK AC1CI2 SLP208

CYQF;2018-12-08 00:00;CYQF 080000Z 22004KT 15SM FEW100 FEW250 M13/M17 A2994 RMK AC1CI1 SLP214

CYQF;2018-12-08 01:00;CYQF 080100Z 00000KT 15SM SKC M14/M18 A2995 RMK SLP224

CYQF;2018-12-08 02:00;CYQF 080200Z 21006KT 15SM SKC M13/M16 A2995 RMK SLP222

CYQF;2018-12-08 03:00;CYQF 080300Z 21004KT 15SM SKC M14/M18 A2996 RMK SLP231

CYQF;2018-12-08 04:00;CYQF 080400Z 19005KT 15SM SKC M18/M20 A2997 RMK SLP240

CYQF;2018-12-08 05:00;CYQF 080500Z 21006KT 15SM SKC M18/M20 A2999 RMK SLP241

CYQF;2018-12-08 06:00;CYQF 080600Z 21005KT 15SM SKC M18/M20 A3000 RMK FROIN SLP244

CYQF;2018-12-08 07:00;CYQF 080700Z 20005KT 15SM SKC M18/M20 A3001 RMK FROIN SLP244

CYQF;2018-12-08 08:00;CYQF 080800Z 22006KT 15SM SKC M17/M19 A3002 RMK FROIN SLP244

CYQF;2018-12-08 09:00;CYQF 080900Z 20005KT 15SM SKC M17/M18 A3003 RMK FROIN SLP245

CYQF;2018-12-08 10:00;CYQF 081000Z 21004KT 15SM SKC M18/M20 A3004 RMK FROIN SLP249

CYQF;2018-12-08 11:00;CYQF 081100Z 21004KT 15SM SKC M16/M18 A3005 RMK FROIN SLP253

CYQF;2018-12-08 12:00;CYQF 081200Z 20006KT 15SM SKC M18/M20 A3006 RMK FROIN SLP258

CYQF;2018-12-08 13:00;CYQF 081300Z 21009KT 15SM SKC M17/M19 A3006 RMK FROIN SLP257

CYQF;2018-12-08 14:00;CYQF 081400Z 19005KT 15SM SKC M20/M22 A3007 RMK SLP262

CYQF;2018-12-08 15:00;CYQF 081500Z 21007KT 15SM SKC M20/M22 A3007 RMK SLP265

CYQF;2018-12-08 16:00;CYQF 081600Z 20004KT 15SM FEW250 M19/M21 A3007 RMK CI1 SLP269

CYQF;2018-12-08 17:00;CYQF 081700Z 19005KT 15SM FEW250 M19/M21 A3008 RMK CI1 SLP272

CYQF;2018-12-08 18:00;CYQF 081800Z 24003KT 12SM FEW250 M15/M17 A3009 RMK CI1 SLP273

CYQF;2018-12-08 19:00;CYQF 081900Z 22003KT 15SM FEW250 M12/M16 A3009 RMK CI1 SLP267

CYQF;2018-12-08 20:00;CYQF 082000Z 18004KT 15SM FEW250 M11/M15 A3008 RMK CI1 SLP262

CYQF;2018-12-08 21:00;CYQF 082100Z 19002KT 15SM FEW260 M09/M14 A3009 RMK CI2 SLP261

CYQF;2018-12-08 22:00;CYQF 082200Z 21003KT 15SM FEW260 M08/M14 A3009 RMK CI1 SLP263

CYQF;2018-12-08 23:00;CYQF 082300Z 21005KT 15SM FEW005 M11/M16 A3010 RMK FU1 FU TR SLP268

CYQF;2018-12-09 00:00;CYQF 090000Z 23004KT 15SM FEW090 M12/M15 A3012 RMK AC1 AC TR SLP277

CYQF;2018-12-09 01:00;CYQF 090100Z 23004KT 15SM SKC M15/M18 A3012 RMK SLP282

CYQF;2018-12-09 02:00;CYQF 090200Z 19005KT 15SM SKC M17/M20 A3012 RMK SLP288

CYQF;2018-12-09 03:00;CYQF 090300Z 18004KT 15SM SKC M18/M21 A3014 RMK SLP294

CYQF;2018-12-09 04:00;CYQF 090400Z 19003KT 15SM SKC M20/M22 A3014 RMK SLP296

CYQF;2018-12-09 05:00;CYQF 090500Z 20006KT 15SM SKC M19/M21 A3015 RMK SLP299

CYQF;2018-12-09 06:00;CYQF 090600Z 20004KT 15SM SKC M20/M22 A3015 RMK FROIN SLP295

CYQF;2018-12-09 07:00;CYQF 090700Z 19006KT 15SM SKC M20/M22 A3016 RMK FROIN SLP294

CYQF;2018-12-09 08:00;CYQF 090800Z 22009KT 15SM SKC M16/M18 A3015 RMK FROIN SLP285

CYQF;2018-12-09 09:00;CYQF 090900Z 21005KT 15SM SKC M18/M20 A3014 RMK FROIN SLP281

CYQF;2018-12-09 10:00;CYQF 091000Z 19006KT 15SM SKC M17/M20 A3014 RMK FROIN SLP279

CYQF;2018-12-09 11:00;CYQF 091100Z 20006KT 15SM SKC M16/M19 A3012 RMK FROIN SLP276

CYQF;2018-12-09 12:00;CYQF 091200Z 19004KT 15SM SKC M18/M20 A3012 RMK FROIN SLP277

CYQF;2018-12-09 13:00;CYQF 091300Z 20007KT 15SM SKC M17/M19 A3011 RMK FROIN SLP276

CYQF;2018-12-09 14:00;CYQF 091400Z 19006KT 15SM SKC M17/M20 A3010 RMK SLP276

CYQF;2018-12-09 15:00;CYQF 091500Z 21006KT 15SM FEW250 M18/M20 A3009 RMK CI2 SLP275

CYQF;2018-12-09 16:00;CYQF 091600Z 19005KT 15SM SCT250 M18/M20 A3008 RMK CI4 SLP273

CYQF;2018-12-09 17:00;CYQF 091700Z 22005KT 15SM FEW250 M15/M17 A3007 RMK CI2 SLP265

CYQF;2018-12-09 18:00;CYQF 091800Z 20003KT 15SM BKN220 M10/M14 A3005 RMK CI6 SLP255

CYQF;2018-12-09 19:00;CYQF 091900Z 21005KT 15SM BKN250 M09/M13 A3003 RMK CI6 SLP247

CYQF;2018-12-09 20:00;CYQF 092000Z 06003KT 040V180 15SM BKN250 M09/M13 A3000 RMK CI7 SLP230

CYQF;2018-12-09 21:00;CYQF 092100Z 19003KT 15SM BKN250 M05/M12 A2997 RMK CI5 SLP218

CYQF;2018-12-09 22:00;CYQF 092200Z VRB02KT 15SM BKN250 M04/M11 A2994 RMK CI6 SLP207

CYQF;2018-12-09 23:00;CYQF 092300Z 12003KT 15SM FEW100 BKN250 M09/M12 A2992 RMK AC2CI5 SLP204

CYQF;2018-12-10 00:00;CYQF 100000Z 16006KT 15SM FEW100 BKN250 M08/M11 A2990 RMK AC2CI4 SLP197

CYQF;2018-12-10 01:00;CYQF 100100Z 18006KT 15SM FEW090 BKN250 M09/M13 A2988 RMK AC2CI4 SLP191

CYQF;2018-12-10 02:00;CYQF 100200Z 19005KT 130V190 15SM SCT090 BKN200 M09/M12 A2986 RMK AC4CI3 SLP184

CYQF;2018-12-10 03:00;CYQF 100300Z 18004KT 15SM SCT090 BKN220 M08/M11 A2984 RMK AC3CI4 SLP175

CYQF;2018-12-10 04:00;CYQF 100400Z 19005KT 15SM FEW090 BKN200 M07/M11 A2983 RMK AC2CI5 SLP171

CYQF;2018-12-10 05:00;CYQF 100500Z 00000KT 15SM FEW090 BKN200 M08/M11 A2981 RMK AC2CI3 SLP162

CYQF;2018-12-10 06:00;CYQF 100600Z 25004KT 15SM BKN150 M09/M11 A2981 RMK AC6 SLP158

CYQF;2018-12-10 07:00;CYQF 100700Z 26007KT 15SM BKN150 OVC250 M08/M11 A2980 RMK AC5CI3 SLP152

CYQF;2018-12-10 08:00;CYQF 100800Z 19006KT 15SM FEW150 OVC210 M10/M12 A2980 RMK AC2CI6 SLP152

CYQF;2018-12-10 09:00;CYQF 100900Z 20004KT 15SM BKN240 M10/M13 A2980 RMK CI7 SLP149

CYQF;2018-12-10 10:00;CYQF 101000Z 18004KT 15SM BKN240 M12/M14 A2981 RMK CI7 SLP154

CYQF;2018-12-10 11:00;CYQF 101100Z 22007KT 15SM BKN240 M10/M13 A2982 RMK CI7 SLP160

CYQF;2018-12-10 12:00;CYQF 101200Z 22006KT 15SM BKN210 M11/M13 A2982 RMK CI7 SLP159

CYQF;2018-12-10 13:00;CYQF 101300Z 22005KT 15SM BKN120 BKN210 M09/M12 A2982 RMK AC5CI2 SLP162

CYQF;2018-12-10 14:00;CYQF 101400Z 23011KT 15SM BKN064 OVC130 M06/M09 A2983 RMK SC5AC3 SLP158

CYQF;2018-12-10 15:00;CYQF 101500Z 25008KT 15SM SCT080 OVC220 M03/M07 A2983 RMK AC3CI5 SLP155

CYQF;2018-12-10 16:00;CYQF 101600Z 18006KT 15SM BKN080 BKN220 M05/M08 A2983 RMK AC5CI2 SLP157

CYQF;2018-12-10 17:00;CYQF 101700Z 25009KT 15SM SCT080 BKN220 M04/M07 A2984 RMK AC3CI2 SLP158

CYQF;2018-12-10 18:00;CYQF 101800Z 15007KT 130V260 15SM FEW080 SCT140 M06/M09 A2984 RMK AC2AC2 SLP165

CYQF;2018-12-10 19:00;CYQF 101900Z 23003KT 12SM FEW080 BKN130 BKN260 M04/M07 A2983 RMK AC2AC3CI1 SLP156

CYQF;2018-12-10 20:00;CYQF 102000Z 19004KT 12SM FEW080 SCT130 BKN260 M03/M06 A2983 RMK AC1AC3CI3 SLP157

CYQF;2018-12-10 21:00;CYQF 102100Z 22003KT 15SM FEW070 BKN140 M03/M06 A2983 RMK AC2AC4 SLP158

CYQF;2018-12-10 22:00;CYQF 102200Z 20004KT 15SM FEW070 BKN120 BKN220 M04/M06 A2984 RMK AC2AC4CI1 SLP162

CYQF;2018-12-10 23:00;CYQF 102300Z 20005KT 15SM SCT075 BKN150 M04/M06 A2986 RMK AC3AC4 VIRGA SLP167

CYQF;2018-12-11 00:00;CYQF 110000Z 14003KT 15SM BKN075 BKN150 M05/M07 A2987 RMK AC5AC2 SLP174

CYQF;2018-12-11 01:00;CYQF 110100Z 19003KT 170V250 15SM BKN070 BKN140 M06/M07 A2988 RMK AC5AC2 SLP176

CYQF;2018-12-11 02:00;CYQF 110200Z 22008KT 15SM SCT075 BKN120 M06/M07 A2988 RMK AC3AC3 SLP172

CYQF;2018-12-11 03:00;CYQF 110300Z 21005KT 15SM SCT075 BKN120 M08/M09 A2987 RMK AC3AC2 SLP168

CYQF;2018-12-11 04:00;CYQF 110400Z 20004KT 15SM SCT075 M06/M07 A2986 RMK AC3 SLP166

CYQF;2018-12-11 05:00;CYQF 110500Z 21006KT 15SM SKC M06/M08 A2986 RMK SLP165

CYQF;2018-12-11 06:00;CYQF 110600Z 21004KT 15SM SKC M12/M13 A2985 RMK SLP169

CYQF;2018-12-11 07:00;CYQF 110700Z 21005KT 15SM SKC M12/M14 A2984 RMK SLP163

CYQF;2018-12-11 08:00;CYQF 110800Z 20007KT 15SM SKC M12/M13 A2982 RMK SLP157

CYQF;2018-12-11 09:00;CYQF 110900Z 21007KT 15SM SKC M13/M15 A2980 RMK SLP148

CYQF;2018-12-11 10:00;CYQF 111000Z 22005KT 15SM SKC M10/M13 A2979 RMK SLP143

CYQF;2018-12-11 11:00;CYQF 111100Z 19003KT 15SM SKC M13/M15 A2976 RMK SLP137

CYQF;2018-12-11 12:00;CYQF 111200Z 20005KT 15SM SKC M09/M13 A2972 RMK SLP122

CYQF;2018-12-11 13:00;CYQF 111300Z 18006KT 15SM SKC M12/M16 A2969 RMK SLP113

CYQF;2018-12-11 14:00;CYQF 111400Z 18004KT 15SM SCT230 M14/M17 A2965 RMK CI4 SLP102

CYQF;2018-12-11 15:00;CYQF 111500Z 19004KT 170V240 15SM FEW180 BKN240 M10/M14 A2959 RMK AC2CI5 SLP079

CYQF;2018-12-11 16:00;CYQF 111600Z 17007KT 15SM BKN170 OVC240 M09/M13 A2954 RMK AC5CI3 SLP060

CYQF;2018-12-11 17:00;CYQF 111700Z 18007KT 15SM SCT130 BKN200 M06/M11 A2951 RMK AC4CI3 SLP044

CYQF;2018-12-11 18:00;CYQF 111800Z 18009KT 15SM SCT120 BKN220 M04/M09 A2944 RMK AC3CI4 PRESFR SLP026

CYQF;2018-12-11 19:00;CYQF 111900Z 20005KT 15SM SCT110 BKN220 M02/M08 A2939 RMK AS4CS3 PRESFR SLP006

CYQF;2018-12-11 20:00;CYQF 112000Z 21009KT 12SM SCT110 OVC200 02/M06 A2937 RMK AC4CI4 SLP993

CYQF;2018-12-11 21:00;CYQF 112100Z 20012KT 12SM FEW040 FEW090 BKN180 02/M05 A2932 RMK SC1AC1AC6 SC TR SLP977

CYQF;2018-12-11 22:00;CYQF 112200Z 19009KT 12SM FEW090 OVC180 01/M05 A2928 RMK AC2AC6 SLP963

CYQF;2018-12-11 23:00;CYQF 112300Z 18007KT 15SM SCT180 BKN210 00/M05 A2926 RMK AC4CI3 SLP960

CYQF;2018-12-12 00:00;CYQF 120000Z 18004KT 15SM BKN150 BKN210 00/M05 A2925 RMK AC5CI2 SLP950

CYQF;2018-12-12 01:00;CYQF 120100Z 15003KT 040V150 15SM OVC120 M01/M04 A2923 RMK AC8 SLP950

CYQF;2018-12-12 02:00;CYQF 120200Z 18004KT 15SM OVC100 01/M04 A2921 RMK AC8 SLP943

CYQF;2018-12-12 03:00;CYQF 120300Z 17004KT 15SM OVC120 03/M04 A2920 RMK AC8 SLP932 DENSITY ALT 3100FT

CYQF;2018-12-12 04:00;CYQF 120400Z 20005KT 15SM BKN110 01/M04 A2921 RMK AC7 SLP936

CYQF;2018-12-12 05:00;CYQF 120500Z 20007KT 15SM BKN150 00/M05 A2921 RMK AC7 SLP934

CYQF;2018-12-12 06:00;CYQF 120600Z 18004KT 160V220 15SM BKN160 M03/M06 A2921 RMK AC6 SLP936

CYQF;2018-12-12 07:00;CYQF 120700Z 21006KT 15SM BKN160 M03/M06 A2921 RMK AC7 SLP935

CYQF;2018-12-12 08:00;CYQF 120800Z 27004KT 15SM SCT100 BKN160 M03/M06 A2923 RMK AC3AC4 SLP936

CYQF;2018-12-12 09:00;CYQF 120900Z 28006KT 15SM BKN090 M01/M07 A2927 RMK AC6 SLP947

CYQF;2018-12-12 10:00;CYQF 121000Z 04007KT 15SM BKN070 00/M05 A2930 RMK AC7 VIRGA SLP958

CYQF;2018-12-12 10:44;CYQF 121044Z 26004KT 250V340 12SM -SN OVC070 01/M03 A2933 RMK AC8 SLP967

CYQF;2018-12-12 11:00;CYQF 121100Z VRB02KT 12SM -SN OVC070 00/M03 A2934 RMK AC8 SLP971

CYQF;2018-12-12 12:00;CYQF 121200Z 28006KT 260V050 12SM -SN OVC070 02/M03 A2936 RMK AC8 SLP977

CYQF;2018-12-12 13:00;CYQF 121300Z 25007KT 12SM -SN BKN070 M01/M04 A2938 RMK AC5 SLP989

CYQF;2018-12-12 13:30;CYQF 121330Z 26007KT 15SM BKN070 M01/M04 A2940 RMK AC5 VIRGA SLP996

CYQF;2018-12-12 14:00;CYQF 121400Z 24009KT 15SM SCT070 OVC140 00/M03 A2941 RMK AC4AC4 SLP996

CYQF;2018-12-12 15:00;CYQF 121500Z 23008KT 15SM FEW070 BKN140 OVC220 M02/M05 A2944 RMK AC2AC3CI3 SLP007

CYQF;2018-12-12 16:00;CYQF 121600Z 23009KT 15SM FEW070 BKN150 M02/M04 A2948 RMK AC2AC4 SLP022

CYQF;2018-12-12 17:00;CYQF 121700Z 23008KT 15SM FEW070 SCT160 BKN250 M03/M06 A2951 RMK AC1AC2CI3 SLP036

CYQF;2018-12-12 18:00;CYQF 121800Z 23009KT 15SM FEW150 SCT250 M01/M09 A2953 RMK AC1CI2 SLP044

CYQF;2018-12-12 19:00;CYQF 121900Z 25009KT 15SM FEW030 FEW150 FEW250 00/M09 A2955 RMK SC1AC2CI1 SC TR CI TR SLP049

CYQF;2018-12-12 20:00;CYQF 122000Z 26009KT 15SM FEW030 FEW150 02/M11 A2957 RMK SC1AC1 SLP055

CYQF;2018-12-12 21:00;CYQF 122100Z 27012KT 15SM FEW030 FEW150 FEW250 02/M11 A2960 RMK CU1AC1CI1 CU TR AC TR SLP062

CYQF;2018-12-12 22:00;CYQF 122200Z 27012KT 15SM FEW030 SCT110 SCT250 02/M11 A2965 RMK SC1AC2CI1 PRESRR SLP078

CYQF;2018-12-12 23:00;CYQF 122300Z 26011KT 15SM FEW030 FEW100 SCT250 01/M12 A2970 RMK SC1AC1CI1 SLP094

CYQF;2018-12-13 00:00;CYQF 130000Z 25009KT 15SM FEW100 SCT200 M01/M13 A2973 RMK AC1CI2 SLP106

CYQF;2018-12-13 01:00;CYQF 130100Z 23008KT 15SM FEW100 M03/M14 A2974 RMK AC1 SLP117

CYQF;2018-12-13 02:00;CYQF 130200Z 22010KT 15SM SKC M05/M15 A2974 RMK SLP117

CYQF;2018-12-13 03:00;CYQF 130300Z 21007KT 15SM SKC M07/M15 A2973 RMK SLP117

CYQF;2018-12-13 04:00;CYQF 130400Z 22011KT 15SM FEW210 M06/M15 A2971 RMK CI2 SLP109

CYQF;2018-12-13 05:00;CYQF 130500Z 22009KT 15SM SCT210 M06/M14 A2970 RMK CI3 SLP105

CYQF;2018-12-13 06:00;CYQF 130600Z 20008KT 15SM BKN210 M05/M13 A2968 RMK CS6 SLP098

CYQF;2018-12-13 07:00;CYQF 130700Z 20011KT 15SM BKN210 M03/M12 A2966 RMK CI7 SLP086

CYQF;2018-12-13 08:00;CYQF 130800Z 20008KT 15SM OVC100 M03/M10 A2964 RMK AC8 SLP077

CYQF;2018-12-13 09:00;CYQF 130900Z 19007KT 15SM OVC130 M03/M10 A2961 RMK AC8 SLP068

CYQF;2018-12-13 10:00;CYQF 131000Z 20007KT 15SM OVC160 M04/M09 A2960 RMK AC8 SLP063

CYQF;2018-12-13 11:00;CYQF 131100Z 19011G16KT 15SM OVC170 M00/M08 A2957 RMK AC8 SLP052

CYQF;2018-12-13 12:00;CYQF 131200Z 18009KT 15SM BKN170 M02/M08 A2956 RMK AC6 SLP052

CYQF;2018-12-13 13:00;CYQF 131300Z 17009KT 15SM SCT170 M03/M09 A2956 RMK AC3 SLP055

CYQF;2018-12-13 14:00;CYQF 131400Z 19007KT 15SM SCT160 M06/M11 A2956 RMK AC3 SLP060

CYQF;2018-12-13 15:00;CYQF 131500Z 24012KT 15SM FEW160 BKN250 01/M09 A2956 RMK AC2CI3 SLP055

CYQF;2018-12-13 16:00;CYQF 131600Z 25007KT 15SM SCT160 BKN220 01/M09 A2957 RMK AC3CI3 SLP059

CYQF;2018-12-13 17:00;CYQF 131700Z 23012KT 15SM SCT160 BKN220 01/M08 A2958 RMK AC3CI4 SLP061

CYQF;2018-12-13 18:00;CYQF 131800Z 23011KT 15SM SCT160 BKN220 01/M08 A2960 RMK AC3CI3 SLP067

CYQF;2018-12-13 19:00;CYQF 131900Z 23008KT 15SM BKN230 M00/M08 A2960 RMK CI7 SLP066

CYQF;2018-12-13 20:00;CYQF 132000Z 22003KT 15SM BKN250 01/M07 A2961 RMK CI6 SLP070

CYQF;2018-12-13 21:00;CYQF 132100Z 11002KT 15SM BKN240 M01/M07 A2962 RMK CI6 SLP075

CYQF;2018-12-13 22:00;CYQF 132200Z 11003KT 15SM FEW030 FEW150 BKN240 01/M07 A2964 RMK SC1AC1CI6 SC TR SLP081

CYQF;2018-12-13 23:00;CYQF 132300Z 18004KT 15SM FEW030 FEW150 BKN240 M01/M07 A2966 RMK SC1AC2CI4 SC TR SLP086

CYQF;2018-12-14 00:00;CYQF 140000Z 18007KT 15SM FEW150 BKN250 01/M08 A2968 RMK AC1CI5 SLP093

CYQF;2018-12-14 01:00;CYQF 140100Z 19006KT 15SM BKN240 M01/M08 A2970 RMK CI5 SLP101

CYQF;2018-12-14 02:00;CYQF 140200Z VRB04KT 15SM BKN250 M03/M09 A2970 RMK CI5 SLP106

CYQF;2018-12-14 03:00;CYQF 140300Z 19004KT 15SM SCT250 M04/M10 A2969 RMK CI4 SLP096

CYQF;2018-12-14 04:00;CYQF 140400Z 20002KT 15SM FEW150 SCT250 M06/M10 A2968 RMK AC1CI2 SLP096

CYQF;2018-12-14 05:00;CYQF 140500Z 00000KT 15SM FEW250 M05/M09 A2967 RMK CI2 SLP093

CYQF;2018-12-14 06:00;CYQF 140600Z 17004KT 15SM SCT250 M10/M12 A2967 RMK CI4 SLP097

CYQF;2018-12-14 07:00;CYQF 140700Z 18005KT 15SM SCT250 M07/M11 A2966 RMK CI3 SLP091

CYQF;2018-12-14 08:00;CYQF 140800Z 20011KT 15SM BKN240 M02/M07 A2963 RMK CI6 SLP074

CYQF;2018-12-14 09:00;CYQF 140900Z 17011KT 15SM BKN240 00/M05 A2961 RMK CI5 SLP066

CYQF;2018-12-14 10:00;CYQF 141000Z 18010KT 15SM BKN240 00/M05 A2961 RMK CI6 SLP064

CYQF;2018-12-14 11:00;CYQF 141100Z 19010KT 15SM BKN240 01/M04 A2959 RMK CI6 SLP058

CYQF;2018-12-14 12:00;CYQF 141200Z 17012KT 15SM SCT240 02/M04 A2958 RMK CI3 SLP051

CYQF;2018-12-14 13:00;CYQF 141300Z 19010G16KT 15SM SCT240 02/M04 A2955 RMK CI3 SLP043

CYQF;2018-12-14 14:00;CYQF 141400Z 19010KT 15SM SCT250 02/M04 A2953 RMK CI4 SLP040

CYQF;2018-12-14 15:00;CYQF 141500Z 17007KT 15SM BKN240 02/M04 A2952 RMK CI6 SLP039

CYQF;2018-12-14 16:00;CYQF 141600Z 16012KT 15SM BKN250 02/M04 A2950 RMK CI7 SLP031

CYQF;2018-12-14 17:00;CYQF 141700Z 18012G18KT 15SM BKN250 03/M03 A2951 RMK CI7 SLP035

CYQF;2018-12-14 18:00;CYQF 141800Z 17010KT 15SM BKN250 03/M03 A2951 RMK CI7 SLP039

CYQF;2018-12-14 19:00;CYQF 141900Z 18011KT 15SM BKN250 04/M03 A2948 RMK CI7 SLP026

CYQF;2018-12-14 20:00;CYQF 142000Z 17011KT 15SM BKN250 04/M03 A2945 RMK CI7 SLP010

CYQF;2018-12-14 21:00;CYQF 142100Z 16014KT 15SM BKN240 04/M03 A2943 RMK CI7 SLP001 DENSITY ALT 3000FT

CYQF;2018-12-14 22:00;CYQF 142200Z 18010KT 15SM BKN240 04/M04 A2942 RMK CI7 SLP996 DENSITY ALT 3000FT

CYQF;2018-12-14 23:00;CYQF 142300Z 19018KT 15SM BKN240 07/M05 A2939 RMK CI7 SLP982 DENSITY ALT 3300FT

CYQF;2018-12-15 00:00;CYQF 150000Z 20015G23KT 15SM BKN240 05/M05 A2940 RMK CI7 SLP985 DENSITY ALT 3100FT

CYQF;2018-12-15 01:00;CYQF 150100Z 13008KT 15SM BKN240 01/M05 A2938 RMK CI7 SLP981

CYQF;2018-12-15 02:00;CYQF 150200Z 15012KT 15SM BKN240 01/M06 A2932 RMK CI7 SLP963

CYQF;2018-12-15 03:00;CYQF 150300Z 17010KT 15SM BKN240 02/M06 A2930 RMK CI7 SLP953

CYQF;2018-12-15 04:00;CYQF 150400Z 18017KT 15SM BKN220 03/M07 A2926 RMK CI7 SLP937 DENSITY ALT 3100FT

CYQF;2018-12-15 05:00;CYQF 150500Z 19014G20KT 15SM BKN220 03/M05 A2925 RMK CI6 SLP933 DENSITY ALT 3100FT

CYQF;2018-12-15 06:00;CYQF 150600Z 19008G16KT 15SM BKN230 03/M04 A2924 RMK CI6 SLP932 DENSITY ALT 3000FT

CYQF;2018-12-15 07:00;CYQF 150700Z 18009KT 15SM BKN220 03/M04 A2926 RMK CI6 SLP936 DENSITY ALT 3000FT

CYQF;2018-12-15 08:00;CYQF 150800Z 21010KT 15SM SKC 02/M05 A2926 RMK SLP937 DENSITY ALT 3000FT

CYQF;2018-12-15 09:00;CYQF 150900Z 21011KT 15SM SKC 02/M06 A2925 RMK SLP936

CYQF;2018-12-15 10:00;CYQF 151000Z 22006KT 15SM BKN230 01/M06 A2926 RMK CI7 SLP940

CYQF;2018-12-15 11:00;CYQF 151100Z 23007KT 15SM OVC170 02/M06 A2928 RMK AC8 SLP941

CYQF;2018-12-15 12:00;CYQF 151200Z 25010KT 15SM OVC170 04/M07 A2931 RMK AC8 PRESRR SLP953 DENSITY ALT 3100FT

CYQF;2018-12-15 13:00;CYQF 151300Z 25012G18KT 15SM OVC170 04/M08 A2934 RMK AC8 SLP968 DENSITY ALT 3100FT

CYQF;2018-12-15 14:00;CYQF 151400Z 26009KT 15SM SCT180 01/M09 A2939 RMK CI3 SLP987

CYQF;2018-12-15 15:00;CYQF 151500Z 19007KT 15SM FEW120 SCT200 M03/M10 A2944 RMK AC2CI1 SLP007

CYQF;2018-12-15 15:35;CYQF 151535Z VRB09G17KT 15SM FEW110 M00/M09 A2952 RMK AC2 PRESRR SLP032

CYQF;2018-12-15 16:00;CYQF 151600Z 35016G25KT 15SM FEW110 01/M06 A2956 RMK AC2 PRESRR SLP043

CYQF;2018-12-15 17:00;CYQF 151700Z 36012KT 15SM FEW110 M00/M06 A2962 RMK AC2 SLP068

CYQF;2018-12-15 18:00;CYQF 151800Z 33010KT 15SM FEW100 FEW250 M00/M07 A2969 RMK AC1CI1 SLP091

CYQF;2018-12-15 19:00;CYQF 151900Z 33008KT 15SM FEW100 FEW250 M00/M08 A2972 RMK AC1CI1 AC TR SLP102

CYQF;2018-12-15 20:00;CYQF 152000Z 34008KT 15SM FEW100 SCT250 00/M08 A2976 RMK AC1CI2 SLP115

CYQF;2018-12-15 21:00;CYQF 152100Z 31004KT 15SM FEW100 SCT220 M01/M08 A2981 RMK AC1CI2 SLP134

CYQF;2018-12-15 22:00;CYQF 152200Z 01003KT 15SM FEW100 FEW220 M01/M08 A2984 RMK AC1CI1 SLP146

CYQF;2018-12-15 23:00;CYQF 152300Z 00000KT 15SM FEW100 FEW250 M02/M08 A2989 RMK AC1CI1 SLP165

CYQF;2018-12-16 00:00;CYQF 160000Z 00000KT 15SM FEW100 M03/M08 A2992 RMK AC1 AC TR SLP174

CYQF;2018-12-16 01:00;CYQF 160100Z 20003KT 180V250 15SM SKC M06/M10 A2996 RMK SLP189

CYQF;2018-12-16 02:00;CYQF 160200Z 20003KT 15SM SKC M10/M12 A3000 RMK SLP209

CYQF;2018-12-16 03:00;CYQF 160300Z 20002KT 15SM SKC M12/M13 A3001 RMK SLP223

CYQF;2018-12-16 04:00;CYQF 160400Z 00000KT 15SM SKC M12/M13 A3002 RMK SLP221

CYQF;2018-12-16 05:00;CYQF 160500Z 19003KT 15SM SCT240 M14/M16 A3005 RMK CI3 SLP234

CYQF;2018-12-16 06:00;CYQF 160600Z 18006KT 15SM BKN240 M14/M15 A3005 RMK CI7 SLP235

CYQF;2018-12-16 07:00;CYQF 160700Z 00000KT 15SM BKN220 M13/M15 A3005 RMK CI7 SLP233

CYQF;2018-12-16 08:00;CYQF 160800Z 00000KT 15SM BKN220 M11/M13 A3004 RMK CI7 SLP227

CYQF;2018-12-16 09:00;CYQF 160900Z 09002KT 15SM BKN230 M13/M14 A3003 RMK CI7 SLP228

CYQF;2018-12-16 10:00;CYQF 161000Z 13005KT 15SM BKN220 M08/M11 A3003 RMK CI7 SLP222

CYQF;2018-12-16 11:00;CYQF 161100Z 12006KT 15SM BKN110 BKN220 M07/M10 A3000 RMK AC5CI2 SLP212

CYQF;2018-12-16 12:00;CYQF 161200Z 15012KT 15SM OVC090 M06/M10 A2997 RMK AC8 SLP200

CYQF;2018-12-16 13:00;CYQF 161300Z 15007KT 15SM OVC110 M07/M11 A2997 RMK AC8 SLP205

CYQF;2018-12-16 14:00;CYQF 161400Z 13012KT 15SM OVC110 M07/M11 A2994 RMK AC8 SLP198

CYQF;2018-12-16 15:00;CYQF 161500Z 12008KT 15SM OVC120 M07/M11 A2992 RMK AC8 PRESFR SLP195

CYQF;2018-12-16 16:00;CYQF 161600Z 15011KT 15SM BKN120 BKN240 M07/M11 A2990 RMK AC6CI1 SLP189

CYQF;2018-12-16 17:00;CYQF 161700Z 13009KT 15SM FEW040 BKN140 BKN210 M07/M11 A2988 RMK SC1AC5CI2 SC TR SLP184

CYQF;2018-12-16 18:00;CYQF 161800Z 14011KT 15SM SCT140 BKN210 M07/M11 A2985 RMK AC4CI3 SLP175

CYQF;2018-12-16 19:00;CYQF 161900Z 13010KT 15SM SCT140 BKN210 M07/M10 A2982 RMK AC3CI3 SLP163

CYQF;2018-12-16 20:00;CYQF 162000Z 13012KT 15SM FEW030 SCT140 BKN240 M06/M09 A2978 RMK SC1AC3CI3 SC TR SLP144

CYQF;2018-12-16 21:00;CYQF 162100Z 14010KT 15SM FEW030 SCT140 BKN240 M06/M09 A2975 RMK SC1AC3CI3 SC TR SLP136

CYQF;2018-12-16 22:00;CYQF 162200Z 13010KT 15SM FEW080 SCT140 BKN220 M05/M08 A2975 RMK AC2AC2CI3 SLP131

CYQF;2018-12-16 23:00;CYQF 162300Z 14007KT 15SM BKN140 BKN220 M05/M08 A2972 RMK AC5CI2 SLP120

CYQF;2018-12-17 00:00;CYQF 170000Z 15010KT 15SM SCT140 BKN220 M05/M08 A2972 RMK AC3CI3 SLP118

CYQF;2018-12-17 01:00;CYQF 170100Z 13008KT 15SM FEW140 BKN240 M05/M07 A2970 RMK AC1CI6 SLP112

CYQF;2018-12-17 02:00;CYQF 170200Z 18008KT 15SM BKN210 M05/M07 A2969 RMK CI7 SLP106

CYQF;2018-12-17 03:00;CYQF 170300Z 11004KT 15SM FEW160 BKN200 M04/M06 A2967 RMK AC2CI5 SLP100

CYQF;2018-12-17 04:00;CYQF 170400Z VRB02KT 15SM BKN180 M04/M06 A2964 RMK AC7 PRESFR SLP089

CYQF;2018-12-17 05:00;CYQF 170500Z 14005KT 15SM BKN180 M04/M05 A2962 RMK AC7 SLP081

CYQF;2018-12-17 06:00;CYQF 170600Z 15010KT 15SM BKN170 M04/M06 A2959 RMK AC6 SLP071

CYQF;2018-12-17 07:00;CYQF 170700Z 14009KT 15SM BKN180 M04/M06 A2957 RMK AC6 SLP065

CYQF;2018-12-17 08:00;CYQF 170800Z 16005KT 15SM FEW180 M05/M06 A2954 RMK AC2 SLP056

CYQF;2018-12-17 09:00;CYQF 170900Z 18003KT 170V280 15SM FEW240 M05/M06 A2953 RMK CI2 SLP050

CYQF;2018-12-17 10:00;CYQF 171000Z 19006KT 15SM BKN240 M03/M06 A2954 RMK CI5 SLP051

CYQF;2018-12-17 11:00;CYQF 171100Z 29007KT 170V300 15SM BKN240 M01/M04 A2953 RMK CI7 SLP045

CYQF;2018-12-17 12:00;CYQF 171200Z 23008KT 15SM FEW230 01/M04 A2954 RMK CI2 SLP047

CYQF;2018-12-17 13:00;CYQF 171300Z 20006KT 15SM BKN230 M02/M05 A2955 RMK CI7 SLP055

CYQF;2018-12-17 14:00;CYQF 171400Z 19007KT 150V250 15SM BKN230 01/M04 A2956 RMK CI6 SLP055

CYQF;2018-12-17 15:00;CYQF 171500Z 21009KT 15SM SCT230 01/M04 A2957 RMK CI3 SLP054

CYQF;2018-12-17 16:00;CYQF 171600Z 22010KT 15SM FEW030 FEW160 BKN210 01/M05 A2956 RMK SC1AC2CI3 SC TR SLP052

CYQF;2018-12-17 17:00;CYQF 171700Z VRB02KT 15SM FEW120 BKN210 00/M06 A2960 RMK AC2CI3 SLP066

CYQF;2018-12-17 18:00;CYQF 171800Z 23008KT 15SM FEW120 BKN230 03/M05 A2962 RMK AC2CI4 SLP072

CYQF;2018-12-17 19:00;CYQF 171900Z 22005KT 15SM FEW120 SCT210 04/M05 A2962 RMK AC2CI1 SLP071

CYQF;2018-12-17 20:00;CYQF 172000Z 25006KT 15SM FEW040 FEW120 SCT210 05/M05 A2963 RMK CU1AC1CI2 SLP074

CYQF;2018-12-17 21:00;CYQF 172100Z 25006KT 15SM FEW030 FEW230 05/M05 A2963 RMK SC1CI2 SC TR SLP074

CYQF;2018-12-17 22:00;CYQF 172200Z 24008KT 15SM FEW030 06/M06 A2964 RMK SC1 SC TR SLP073 DENSITY ALT 3000FT

CYQF;2018-12-17 23:00;CYQF 172300Z 17003KT 110V180 15SM FEW028 02/M06 A2965 RMK SC1 SC TR SLP079

CYQF;2018-12-18 00:00;CYQF 180000Z 24007KT 15SM FEW030 03/M09 A2965 RMK SC1 SC TR SLP076

CYQF;2018-12-18 01:00;CYQF 180100Z 20008KT 15SM FEW250 M05/M10 A2965 RMK CI1 CI TR SLP087

CYQF;2018-12-18 02:00;CYQF 180200Z 20007KT 15SM SKC M04/M10 A2965 RMK SLP085

CYQF;2018-12-18 03:00;CYQF 180300Z 20005KT 15SM FEW250 M05/M11 A2965 RMK CI1 CI TR SLP083

CYQF;2018-12-18 04:00;CYQF 180400Z 21006KT 15SM SCT230 M03/M09 A2962 RMK CI3 SLP073

CYQF;2018-12-18 05:00;CYQF 180500Z 21006KT 15SM SCT200 M04/M09 A2961 RMK CI4 SLP069

CYQF;2018-12-18 06:00;CYQF 180600Z 19006KT 15SM OVC180 M04/M08 A2957 RMK CI8 SLP053

CYQF;2018-12-18 07:00;CYQF 180700Z 19005KT 15SM SCT160 OVC200 M03/M07 A2954 RMK AC3CI5 SLP042

CYQF;2018-12-18 08:00;CYQF 180800Z 19008KT 15SM FEW160 OVC200 M02/M06 A2951 RMK AC2CI6 SLP028

CYQF;2018-12-18 09:00;CYQF 180900Z 18008KT 15SM BKN200 M03/M07 A2947 RMK CI7 SLP016

CYQF;2018-12-18 10:00;CYQF 181000Z 22010G17KT 170V230 15SM SCT150 OVC220 02/M07 A2944 RMK AC3CI5 SLP997

CYQF;2018-12-18 11:00;CYQF 181100Z 20013G18KT 15SM FEW150 BKN220 03/M07 A2943 RMK AC2CI5 SLP998

CYQF;2018-12-18 12:00;CYQF 181200Z 20008KT 15SM FEW150 BKN240 01/M07 A2943 RMK AC1CI5 SLP998

CYQF;2018-12-18 13:00;CYQF 181300Z 20004KT 15SM FEW150 SCT240 M01/M07 A2941 RMK AC2CI2 SLP002

CYQF;2018-12-18 14:00;CYQF 181400Z 18003KT 170V240 15SM FEW210 M04/M09 A2939 RMK CI2 PRESFR SLP999

CYQF;2018-12-18 15:00;CYQF 181500Z 07006KT 15SM SCT210 M07/M10 A2940 RMK CI3 SLP005

CYQF;2018-12-18 16:00;CYQF 181600Z 21007KT 15SM FEW160 SCT210 M03/M08 A2939 RMK AC2CI1 SLP996

CYQF;2018-12-18 17:00;CYQF 181700Z 05004KT 15SM FEW150 SCT220 M06/M10 A2939 RMK AC1CI2 SLP002

CYQF;2018-12-18 18:00;CYQF 181800Z 15004KT 15SM SCT220 M04/M09 A2938 RMK CI3 SLP996

CYQF;2018-12-18 19:00;CYQF 181900Z 19007KT 15SM FEW160 SCT220 M04/M09 A2938 RMK AC1CI2 SLP993

CYQF;2018-12-18 20:00;CYQF 182000Z 16004KT 15SM BKN150 BKN220 M03/M07 A2935 RMK AC5CI2 SLP980

CYQF;2018-12-18 21:00;CYQF 182100Z 16007KT 15SM BKN120 M02/M06 A2935 RMK AC7 SLP982

CYQF;2018-12-18 22:00;CYQF 182200Z VRB05KT 15SM BKN100 M02/M05 A2934 RMK AC7 CIG RAG SLP973

CYQF;2018-12-18 23:00;CYQF 182300Z 22006KT 180V250 15SM BKN100 M01/M04 A2936 RMK AC7 SLP978

CYQF;2018-12-19 00:00;CYQF 190000Z 28008KT 15SM FEW018 BKN100 M01/M05 A2938 RMK SC1AC6 SLP985

CYQF;2018-12-19 01:00;CYQF 190100Z 07005KT 15SM OVC080 M02/M05 A2939 RMK AC8 VIRGA SLP995

CYQF;2018-12-19 02:00;CYQF 190200Z 21003KT 15SM OVC090 M02/M04 A2941 RMK AC8 SLP002

CYQF;2018-12-19 03:00;CYQF 190300Z 32003KT 230V330 15SM OVC120 M03/M06 A2942 RMK AC8 SLP013

CYQF;2018-12-19 04:00;CYQF 190400Z 27005KT 200V280 15SM SCT170 M02/M05 A2944 RMK AC4 SLP014

CYQF;2018-12-19 05:00;CYQF 190500Z 28004KT 15SM SCT110 BKN180 M01/M05 A2948 RMK AC3AC3 SLP029

CYQF;2018-12-19 06:00;CYQF 190600Z 17004KT 15SM FEW100 BKN200 M06/M07 A2951 RMK AC2CI5 SLP042

CYQF;2018-12-19 07:00;CYQF 190700Z 20006KT 15SM FEW100 SCT200 M07/M08 A2953 RMK AC1CI2 SLP052

CYQF;2018-12-19 08:00;CYQF 190800Z 24007KT 15SM FEW200 M06/M08 A2957 RMK CI2 SLP063

CYQF;2018-12-19 09:00;CYQF 190900Z 22007KT 15SM FEW100 SCT200 M09/M11 A2960 RMK AC2CI2 SLP076

CYQF;2018-12-19 10:00;CYQF 191000Z 21005KT 15SM SCT100 BKN200 M07/M09 A2963 RMK AC3CI2 SLP083

CYQF;2018-12-19 11:00;CYQF 191100Z 21006KT 15SM FEW100 BKN200 M06/M09 A2964 RMK AC2CI3 SLP085

CYQF;2018-12-19 12:00;CYQF 191200Z 20006KT 15SM BKN100 BKN200 M08/M10 A2966 RMK AC5CI1 SLP093

CYQF;2018-12-19 13:00;CYQF 191300Z 19005KT 15SM FEW100 BKN200 M09/M10 A2969 RMK AC2CI3 SLP105

CYQF;2018-12-19 14:00;CYQF 191400Z 21003KT 15SM SCT200 M10/M12 A2971 RMK CI3 SLP114

CYQF;2018-12-19 15:00;CYQF 191500Z 22004KT 15SM BKN100 M09/M10 A2974 RMK AC5 SLP123

CYQF;2018-12-19 16:00;CYQF 191600Z 20006KT 15SM BKN090 M09/M11 A2977 RMK AC6 VIRGA SLP133

CYQF;2018-12-19 17:00;CYQF 191700Z 22003KT 15SM BKN090 M07/M09 A2980 RMK AC7 VIRGA SLP139

CYQF;2018-12-19 18:00;CYQF 191800Z 22003KT 190V250 15SM BKN090 BKN250 M04/M07 A2981 RMK AC5CI1 SLP148

CYQF;2018-12-19 19:00;CYQF 191900Z 21005KT 15SM FEW060 SCT180 M03/M07 A2981 RMK SC2AC1 VIRGA SLP146

CYQF;2018-12-19 20:00;CYQF 192000Z 23009KT 15SM FEW060 FEW100 FEW250 M00/M07 A2982 RMK SC1AC1CI1 SC TR CI TR SLP145

CYQF;2018-12-19 21:00;CYQF 192100Z 00000KT 15SM FEW060 SCT250 M02/M07 A2983 RMK SC1CI3 SC TR SLP155

CYQF;2018-12-19 22:00;CYQF 192200Z 20003KT 15SM FEW060 SCT250 M01/M07 A2985 RMK SC1CI3 SC TR SLP159

CYQF;2018-12-19 23:00;CYQF 192300Z 21005KT 15SM SCT250 M01/M08 A2987 RMK CI3 SLP164

CYQF;2018-12-20 00:00;CYQF 200000Z 24007KT 15SM FEW250 M01/M08 A2990 RMK CI2 SLP176

CYQF;2018-12-20 01:00;CYQF 200100Z 20007KT 15SM FEW150 M07/M10 A2991 RMK AC2 SLP188

CYQF;2018-12-20 02:00;CYQF 200200Z 24008KT 15SM FEW150 SCT250 M05/M10 A2991 RMK AC1CI3 SLP188

CYQF;2018-12-20 03:00;CYQF 200300Z 24010KT 15SM SCT250 M03/M11 A2993 RMK CI4 SLP190

CYQF;2018-12-20 04:00;CYQF 200400Z 23010KT 15SM SCT220 M03/M11 A2993 RMK CI4 SLP193

CYQF;2018-12-20 05:00;CYQF 200500Z 20008KT 15SM BKN220 M08/M13 A2994 RMK CI6 SLP198

CYQF;2018-12-20 06:00;CYQF 200600Z 20004KT 15SM BKN220 M05/M11 A2994 RMK CI6 SLP191

CYQF;2018-12-20 07:00;CYQF 200700Z 20005KT 15SM SCT220 M05/M12 A2993 RMK CI3 SLP187

CYQF;2018-12-20 08:00;CYQF 200800Z 22004KT 15SM SCT220 M07/M12 A2994 RMK CI4 SLP188

CYQF;2018-12-20 09:00;CYQF 200900Z 20004KT 15SM SCT220 M07/M12 A2993 RMK CI4 SLP186

CYQF;2018-12-20 10:00;CYQF 201000Z 19004KT 15SM SCT230 M08/M13 A2993 RMK CI3 SLP187

CYQF;2018-12-20 11:00;CYQF 201100Z 17003KT 15SM BKN220 M08/M12 A2991 RMK CI5 SLP180

CYQF;2018-12-20 12:00;CYQF 201200Z 22003KT 15SM FEW150 BKN220 M09/M12 A2988 RMK AC2CI4 SLP170

CYQF;2018-12-20 13:00;CYQF 201300Z 15003KT 15SM FEW150 BKN220 M10/M13 A2984 RMK AC1CI4 SLP166

CYQF;2018-12-20 14:00;CYQF 201400Z 17005KT 15SM FEW150 BKN210 M08/M12 A2981 RMK AC1CI5 SLP153

CYQF;2018-12-20 15:00;CYQF 201500Z 16008KT 15SM FEW050 SCT120 BKN210 M06/M10 A2977 RMK SC1AC3CI4 SC TR SLP133

CYQF;2018-12-20 16:00;CYQF 201600Z 16006KT 15SM FEW050 BKN130 BKN210 M05/M08 A2974 RMK SC1AC5CI2 SC TR SLP121

CYQF;2018-12-20 17:00;CYQF 201700Z 16009KT 15SM FEW050 BKN140 M02/M07 A2970 RMK SC1AC7 SC TR SLP108

CYQF;2018-12-20 18:00;CYQF 201800Z 13009KT 15SM FEW050 BKN140 OVC250 M03/M07 A2965 RMK SC1AC6CI2 SC TR SLP087

CYQF;2018-12-20 19:00;CYQF 201900Z 15010G15KT 15SM FEW050 BKN140 OVC250 M01/M06 A2959 RMK SC1AC6CI2 SC TR SLP065

CYQF;2018-12-20 20:00;CYQF 202000Z 18013KT 15SM BKN160 BKN250 M00/M06 A2953 RMK AC5CI2 SLP047

CYQF;2018-12-20 21:00;CYQF 202100Z 16013KT 15SM BKN150 BKN220 M00/M05 A2946 RMK AC5CI2 SLP023

CYQF;2018-12-20 22:00;CYQF 202200Z 16020G25KT 15SM FEW100 BKN180 02/M03 A2941 WS RWY17 RMK ACC1AC5 SLP003

CYQF;2018-12-20 23:00;CYQF 202300Z 16017KT 15SM SCT140 BKN230 02/M03 A2936 RMK AC3CI4 SLP986

CYQF;2018-12-21 00:00;CYQF 210000Z 16018G24KT 15SM FEW140 BKN200 03/M02 A2931 RMK AC2CI5 SLP968 DENSITY ALT 3000FT

CYQF;2018-12-21 01:00;CYQF 210100Z 16017G25KT 15SM BKN240 04/M01 A2924 RMK CI6 PRESFR SLP946 DENSITY ALT 3100FT

CYQF;2018-12-21 02:00;CYQF 210200Z 15013KT 15SM OVC240 03/M01 A2920 RMK CI8 PRESFR SLP930 DENSITY ALT 3100FT

CYQF;2018-12-21 03:00;CYQF 210300Z 18013KT 15SM BKN240 03/M01 A2915 RMK CI6 SLP911 DENSITY ALT 3200FT

CYQF;2018-12-21 04:00;CYQF 210400Z 20015KT 15SM SCT220 04/M02 A2916 RMK CI3 SLP913 DENSITY ALT 3200FT

CYQF;2018-12-21 05:00;CYQF 210500Z 24016G22KT 15SM FEW220 06/M02 A2916 RMK CI2 SLP905 DENSITY ALT 3500FT

CYQF;2018-12-21 06:00;CYQF 210600Z 23009KT 15SM FEW220 03/M02 A2918 RMK CI1 SLP916 DENSITY ALT 3100FT

CYQF;2018-12-21 07:00;CYQF 210700Z 23011KT 15SM FEW220 03/M04 A2917 RMK CI2 SLP913 DENSITY ALT 3100FT

CYQF;2018-12-21 08:00;CYQF 210800Z 22005KT 15SM SCT220 M00/M05 A2919 RMK CI4 SLP919

CYQF;2018-12-21 09:00;CYQF 210900Z 23008KT 15SM FEW130 BKN200 M01/M05 A2919 RMK AC2CI4 SLP922

CYQF;2018-12-21 10:00;CYQF 211000Z 23007KT 15SM BKN130 BKN200 M01/M06 A2922 RMK AC5CI2 SLP930

CYQF;2018-12-21 11:00;CYQF 211100Z 28006KT 15SM SCT075 OVC120 02/M07 A2924 RMK AC3AC5 VIRGA SLP935

CYQF;2018-12-21 12:00;CYQF 211200Z 26007KT 15SM SCT075 BKN100 BKN220 02/M07 A2927 RMK AC3AC3CI1 SLP944

CYQF;2018-12-21 13:00;CYQF 211300Z 32013G18KT 15SM FEW080 BKN130 BKN220 02/M07 A2934 RMK AC2AC4CI1 PRESRR SLP966

CYQF;2018-12-21 14:00;CYQF 211400Z 33017G23KT 15SM FEW080 BKN100 02/M05 A2940 RMK AC1AC6 PRESRR SLP987

CYQF;2018-12-21 15:00;CYQF 211500Z 32012G17KT 15SM BKN090 OVC240 00/M05 A2944 RMK AC6CI2 VIRGA SLP002

CYQF;2018-12-21 16:00;CYQF 211600Z 32017G27KT 15SM FEW080 BKN120 BKN240 M01/M07 A2948 RMK AC1AC4CI2 SLP016

CYQF;2018-12-21 17:00;CYQF 211700Z 31013G20KT 15SM BKN120 BKN240 M01/M08 A2952 RMK AC5CI1 VIRGA PRESRR SLP030

CYQF;2018-12-21 18:00;CYQF 211800Z 32018KT 15SM SCT080 BKN140 M00/M09 A2955 RMK AC3AC3 SLP043

CYQF;2018-12-21 19:00;CYQF 211900Z 31017KT 15SM SCT088 M01/M10 A2957 RMK AC4 SLP050

CYQF;2018-12-21 20:00;CYQF 212000Z 32020G30KT 15SM BKN090 M01/M10 A2960 RMK AC7 SLP064

CYQF;2018-12-21 21:00;CYQF 212100Z 32019G26KT 15SM BKN088 M01/M10 A2963 RMK AC7 PRESRR SLP076

CYQF;2018-12-21 22:00;CYQF 212200Z 31025G35KT 15SM BKN084 M01/M10 A2965 RMK AC7 SLP084

CYQF;2018-12-21 23:00;CYQF 212300Z 31021G33KT 12SM VCSH OVC080 M02/M08 A2968 RMK AC8 VIS N 6 SLP092

CYQF;2018-12-21 23:19;CYQF 212319Z 30021G32KT 8SM -SN DRSN OVC080 M03/M07 A2969 RMK AC8 SLP096

CYQF;2018-12-21 23:49;CYQF 212349Z 30016G27KT 3SM -SN DRSN VV020 M03/M06 A2971 RMK SN8 SLP104

CYQF;2018-12-22 00:00;CYQF 220000Z 30018G26KT 3SM -SN DRSN VV024 M03/M06 A2971 RMK SN8 SLP104

CYQF;2018-12-22 01:00;CYQF 220100Z 31026G34KT 8SM -SN DRSN OVC050 M02/M08 A2973 RMK SN4SC4 SLP108

CYQF;2018-12-22 01:47;CYQF 220147Z 31022G38KT 12SM DRSN OVC074 M02/M09 A2975 RMK AC8 SLP115

CYQF;2018-12-22 02:00;CYQF 220200Z 32020G32KT 12SM DRSN OVC073 M02/M09 A2976 RMK AC8 SLP119

CYQF;2018-12-22 03:00;CYQF 220300Z 31026G36KT 12SM DRSN OVC085 M03/M09 A2979 RMK AC8 SLP130

CYQF;2018-12-22 04:00;CYQF 220400Z 32022G31KT 15SM DRSN SCT080 M03/M10 A2981 RMK AC3 SLP142

CYQF;2018-12-22 05:00;CYQF 220500Z 31017G27KT 15SM DRSN SCT080 M04/M10 A2985 RMK AC3 SLP156

CYQF;2018-12-22 06:00;CYQF 220600Z 32015G21KT 15SM DRSN SCT050 BKN080 M04/M11 A2989 RMK SC3AC3 SLP167

CYQF;2018-12-22 07:00;CYQF 220700Z 32012G17KT 15SM DRSN SCT060 BKN080 M04/M11 A2990 RMK SC4AC3 SLP172

CYQF;2018-12-22 08:00;CYQF 220800Z 32014G19KT 15SM DRSN SCT060 BKN090 M04/M11 A2991 RMK SC3AC3 SLP177

CYQF;2018-12-22 09:00;CYQF 220900Z 33012G19KT 15SM FEW060 BKN090 M05/M11 A2993 RMK SC2AC3 SLP183

CYQF;2018-12-22 10:00;CYQF 221000Z 29007KT 15SM SCT070 M07/M12 A2995 RMK AC3 SLP195

CYQF;2018-12-22 11:00;CYQF 221100Z 29012KT 15SM BKN060 M07/M13 A2998 RMK SC5 SLP203

CYQF;2018-12-22 12:00;CYQF 221200Z 30012KT 15SM BKN060 M07/M13 A2999 RMK SC5 SLP208

CYQF;2018-12-22 13:00;CYQF 221300Z 29011KT 15SM SCT060 M08/M14 A3000 RMK SC3 SLP215

CYQF;2018-12-22 14:00;CYQF 221400Z 29006KT 15SM FEW060 M08/M14 A3002 RMK SC1 SLP220

CYQF;2018-12-22 15:00;CYQF 221500Z 30006KT 15SM FEW100 SCT250 M10/M15 A3002 RMK AC1CI2 SLP223

CYQF;2018-12-22 16:00;CYQF 221600Z 00000KT 15SM SCT250 M12/M18 A3004 RMK CI3 SLP234

CYQF;2018-12-22 17:00;CYQF 221700Z 20007KT 15SM BKN200 M13/M17 A3005 RMK CI6 SLP240

CYQF;2018-12-22 18:00;CYQF 221800Z 22007KT 15SM FEW200 M11/M16 A3005 RMK CI2 SLP236

CYQF;2018-12-22 19:00;CYQF 221900Z 24008KT 15SM FEW200 M09/M14 A3005 RMK CI1 SLP233

CYQF;2018-12-22 20:00;CYQF 222000Z 24004KT 15SM FEW220 M08/M14 A3004 RMK CI1 SLP228

CYQF;2018-12-22 21:00;CYQF 222100Z 17002KT 15SM FEW220 M07/M14 A3002 RMK CI2 SLP223

CYQF;2018-12-22 22:00;CYQF 222200Z 18002KT 15SM FEW250 M08/M15 A3003 RMK CI2 SLP228

CYQF;2018-12-22 23:00;CYQF 222300Z 11002KT 15SM FEW250 M10/M14 A3003 RMK CI2 SLP230

CYQF;2018-12-23 00:00;CYQF 230000Z 17002KT 15SM SCT250 M11/M14 A3003 RMK CI3 SLP233

CYQF;2018-12-23 01:00;CYQF 230100Z 20007KT 15SM FEW230 M12/M16 A3004 RMK CI2 SLP238

CYQF;2018-12-23 02:00;CYQF 230200Z VRB02KT 15SM BKN160 M14/M16 A3000 RMK AC5 SLP226

CYQF;2018-12-23 03:00;CYQF 230300Z 00000KT 15SM BKN150 M13/M15 A2999 RMK AC7 SLP222

CYQF;2018-12-23 04:00;CYQF 230400Z 15003KT 15SM OVC130 M11/M15 A2997 RMK AC8 SLP217

CYQF;2018-12-23 05:00;CYQF 230500Z 15004KT 15SM BKN140 M10/M14 A2995 RMK AC7 SLP212

CYQF;2018-12-23 06:00;CYQF 230600Z 18005KT 15SM FEW140 SCT250 M10/M14 A2993 RMK AC2CI2 SLP202

CYQF;2018-12-23 07:00;CYQF 230700Z 19004KT 15SM FEW140 SCT230 M11/M15 A2990 RMK AC2CI2 SLP190

CYQF;2018-12-23 08:00;CYQF 230800Z 17006KT 15SM BKN120 M10/M13 A2987 RMK AC6 SLP178

CYQF;2018-12-23 09:00;CYQF 230900Z 14005KT 15SM BKN140 M11/M14 A2984 RMK AC5 SLP168

CYQF;2018-12-23 10:00;CYQF 231000Z 16011KT 15SM BKN120 BKN220 M10/M13 A2982 RMK AC5CI2 SLP159

CYQF;2018-12-23 11:00;CYQF 231100Z 14008KT 15SM BKN110 M09/M12 A2979 RMK AC7 SLP149

CYQF;2018-12-23 12:00;CYQF 231200Z 16009KT 15SM OVC100 M08/M12 A2975 RMK AC8 SLP137

CYQF;2018-12-23 13:00;CYQF 231300Z 18005KT 15SM OVC080 M08/M12 A2974 RMK AC8 SLP133

CYQF;2018-12-23 14:00;CYQF 231400Z 15009KT 15SM BKN100 M08/M12 A2972 RMK AC7 SLP130

CYQF;2018-12-23 15:00;CYQF 231500Z 19005KT 15SM BKN090 M10/M13 A2971 RMK AC7 SLP128

CYQF;2018-12-23 16:00;CYQF 231600Z 17004KT 160V230 15SM BKN120 M09/M12 A2973 RMK AC7 SLP130

CYQF;2018-12-23 17:00;CYQF 231700Z 06004KT 15SM BKN120 M09/M12 A2974 RMK AC7 SLP133

CYQF;2018-12-23 18:00;CYQF 231800Z 30003KT 15SM SCT140 BKN210 M09/M12 A2975 RMK AC4CI2 SLP136

CYQF;2018-12-23 19:00;CYQF 231900Z 33004KT 15SM FEW140 BKN220 M08/M12 A2974 RMK AC2CI4 SLP132

CYQF;2018-12-23 20:00;CYQF 232000Z 33003KT 15SM FEW140 SCT220 M08/M12 A2973 RMK AC1CI3 SLP128

CYQF;2018-12-23 21:00;CYQF 232100Z 32006KT 15SM FEW140 SCT220 M08/M12 A2974 RMK AC1CI2 SLP134

CYQF;2018-12-23 22:00;CYQF 232200Z 33005KT 15SM FEW140 SCT220 M09/M13 A2976 RMK AC1CI2 SLP138

CYQF;2018-12-23 23:00;CYQF 232300Z 29004KT 15SM SCT080 BKN250 M10/M13 A2978 RMK AC3CI2 SLP148

CYQF;2018-12-24 00:00;CYQF 240000Z 29005KT 15SM SCT076 BKN250 M10/M13 A2980 RMK AC3CI3 SLP154

CYQF;2018-12-24 01:00;CYQF 240100Z 33004KT 15SM SCT080 M11/M14 A2982 RMK AC4 SLP160

CYQF;2018-12-24 02:00;CYQF 240200Z 36004KT 15SM SCT080 M12/M13 A2983 RMK AC4 SLP166

CYQF;2018-12-24 03:00;CYQF 240300Z 33003KT 15SM BKN075 M12/M14 A2985 RMK AC5 SLP173

CYQF;2018-12-24 04:00;CYQF 240400Z 31003KT 15SM BKN100 M12/M13 A2985 RMK AC5 SLP174

CYQF;2018-12-24 05:00;CYQF 240500Z 32006KT 15SM SCT100 M12/M14 A2987 RMK AC4 SLP181

CYQF;2018-12-24 06:00;CYQF 240600Z 32005KT 15SM FEW100 SCT210 M12/M14 A2989 RMK AC1CI2 SLP186

CYQF;2018-12-24 07:00;CYQF 240700Z VRB02KT 15SM BKN070 M15/M17 A2989 RMK AC7 SLP191

CYQF;2018-12-24 08:00;CYQF 240800Z 21003KT 15SM BKN070 M14/M16 A2990 RMK AC7 SLP190

CYQF;2018-12-24 09:00;CYQF 240900Z 19003KT 15SM BKN070 M14/M16 A2991 RMK AC6 SLP196

CYQF;2018-12-24 10:00;CYQF 241000Z 00000KT 15SM BKN060 M15/M17 A2993 RMK SC5 SLP205

CYQF;2018-12-24 11:00;CYQF 241100Z 22002KT 12SM SCT070 M15/M17 A2993 RMK AC4 SLP207

CYQF;2018-12-24 12:00;CYQF 241200Z VRB02KT 10SM BKN060 M14/M15 A2994 RMK SC7 SLP208

CYQF;2018-12-24 13:00;CYQF 241300Z 18004KT 10SM BKN070 M13/M15 A2994 RMK AC7 FROIN SLP210

CYQF;2018-12-24 14:00;CYQF 241400Z 20005KT 12SM BKN090 BKN200 M14/M15 A2995 RMK AC5CI2 SLP212

CYQF;2018-12-24 15:00;CYQF 241500Z 21003KT 12SM SCT062 BKN100 BKN250 M13/M14 A2995 RMK SC3AC3CI1 SLP213

CYQF;2018-12-24 16:00;CYQF 241600Z 12004KT 8SM BKN060 BKN140 M12/M13 A2996 RMK SC5AC2 SLP215

CYQF;2018-12-24 17:00;CYQF 241700Z 01003KT 6SM BR SCT060 BKN140 M12/M14 A2997 RMK SC3AC4 SLP220

CYQF;2018-12-24 18:00;CYQF 241800Z 15004KT 6SM BR BKN063 BKN140 M10/M12 A2998 RMK SC5AC2 SLP219

CYQF;2018-12-24 18:35;CYQF 241835Z 15004KT 10SM BKN060 BKN090 BKN140 M09/M12 A2997 RMK SC5AC1AC1 SLP216

CYQF;2018-12-24 19:00;CYQF 241900Z 15005KT 10SM BKN064 BKN140 M09/M11 A2997 RMK SC5AC2 SLP217

CYQF;2018-12-24 20:00;CYQF 242000Z 13003KT 10SM BKN064 BKN140 M09/M11 A2997 RMK SC6AC1 SLP217

CYQF;2018-12-24 21:00;CYQF 242100Z 14005KT 8SM BKN070 M08/M10 A2997 RMK AC6 SLP215

CYQF;2018-12-24 22:00;CYQF 242200Z 14005KT 8SM BKN070 M08/M11 A2998 RMK AC5 SLP220

CYQF;2018-12-24 23:00;CYQF 242300Z 12006KT 8SM SCT070 M10/M12 A2999 RMK AC4 SLP226

CYQF;2018-12-24 23:29;CYQF 242329Z 14009KT 4SM BR BKN070 M11/M12 A2999 RMK AC5 SLP228

CYQF;2018-12-24 23:44;CYQF 242344Z 16003KT 3SM BR FEW002 BKN070 M11/M13 A3000 RMK SF2AC4 SLP232

CYQF;2018-12-25 00:00;CYQF 250000Z 16009KT 2 1/2SM BR SCT002 BKN070 M11/M13 A3000 RMK SF3AC4 SLP229

CYQF;2018-12-25 00:33;CYQF 250033Z 20004KT 3SM BR FEW002 BKN070 BKN140 M12/M13 A3000 RMK SF2AC3AC2 SLP232

CYQF;2018-12-25 01:00;CYQF 250100Z 18004KT 5SM BR FEW002 SCT070 BKN140 M11/M13 A3000 RMK SF1AC3AC3 SLP231

CYQF;2018-12-25 02:00;CYQF 250200Z 17003KT 5SM -SN BR SCT050 BKN140 M11/M13 A3000 RMK SC3AC4 SLP231

CYQF;2018-12-25 03:00;CYQF 250300Z 17009KT 4SM -SN BR SCT040 OVC130 M11/M12 A3000 RMK SC3AC5 SLP229

CYQF;2018-12-25 03:29;CYQF 250329Z 16006KT 3SM -SN BR FEW004 BKN040 OVC100 M10/M11 A3000 RMK SF2SC3AC3 SLP226

CYQF;2018-12-25 04:00;CYQF 250400Z 17007KT 3SM -SN BR BKN004 OVC040 M09/M10 A3000 RMK SC5SC3 SLP226

CYQF;2018-12-25 05:00;CYQF 250500Z 18005KT 5SM -SN BR SCT004 OVC056 M09/M10 A3000 RMK SC3SC5 SLP227

CYQF;2018-12-25 05:32;CYQF 250532Z 18006KT 8SM FEW004 OVC057 M09/M10 A3000 RMK SC1SC7 SLP227

CYQF;2018-12-25 06:00;CYQF 250600Z 18006KT 8SM OVC050 M08/M10 A3001 RMK SC8 SLP226

CYQF;2018-12-25 06:45;CYQF 250645Z VRB02KT 8SM FEW009 OVC050 M09/M10 A3001 RMK SF2SC6 SLP228

CYQF;2018-12-25 07:00;CYQF 250700Z 18005KT 8SM FEW006 OVC045 M08/M09 A3001 RMK SF2SC6 SLP226

CYQF;2018-12-25 08:00;CYQF 250800Z 17003KT 8SM FEW006 BKN040 OVC050 M08/M09 A3000 RMK SF2SC4SC2 SLP222

CYQF;2018-12-25 09:00;CYQF 250900Z 16005KT 8SM FEW006 OVC045 M09/M10 A3001 RMK SF1SC7 SLP223

CYQF;2018-12-25 10:00;CYQF 251000Z 16003KT 8SM OVC047 M08/M09 A3002 RMK SC8 SLP227

CYQF;2018-12-25 11:00;CYQF 251100Z 18003KT 10SM OVC046 M08/M09 A3003 RMK SC8 SLP233

CYQF;2018-12-25 12:00;CYQF 251200Z 17004KT 8SM BKN046 OVC097 M09/M10 A3003 RMK SC6AC2 SLP236

CYQF;2018-12-25 12:36;CYQF 251236Z 17005KT 8SM -SN BKN046 OVC087 M09/M10 A3003 RMK SC6AC2 SLP236

CYQF;2018-12-25 13:00;CYQF 251300Z 17003KT 8SM -SN BKN046 OVC130 M09/M10 A3003 RMK SC5AC3 SLP236

CYQF;2018-12-25 14:00;CYQF 251400Z 18004KT 10SM -SN SCT024 OVC140 M09/M10 A3004 RMK SC4AC4 SLP239

CYQF;2018-12-25 15:00;CYQF 251500Z 22003KT 10SM -SN BKN024 OVC140 M09/M10 A3005 RMK SC7AC1 SLP240

CYQF;2018-12-25 15:52;CYQF 251552Z 19003KT 5SM -SN OVC024 M09/M10 A3006 RMK SC8 SLP246

CYQF;2018-12-25 16:00;CYQF 251600Z 19003KT 3SM -SN BKN045 M09/M10 A3006 RMK SN5SC2 SLP244

CYQF;2018-12-25 17:00;CYQF 251700Z 20004KT 2 1/2SM -SN SCT030 BKN060 M09/M10 A3008 RMK SC4SC3 SLP248

CYQF;2018-12-25 17:47;CYQF 251747Z 19006KT 4SM -SN FEW030 BKN067 M09/M11 A3007 RMK SC2AC5 SLP247

CYQF;2018-12-25 18:00;CYQF 251800Z 18005KT 6SM -SN FEW020 BKN036 BKN070 M09/M11 A3007 RMK SC2SC4AC1 SLP247

CYQF;2018-12-25 19:00;CYQF 251900Z 17003KT 6SM -SN BKN030 M08/M10 A3006 RMK SC7 SLP241

CYQF;2018-12-25 19:36;CYQF 251936Z 19003KT 6SM -SN SCT006 OVC030 M08/M10 A3005 RMK SF3SC5 SLP239

CYQF;2018-12-25 20:00;CYQF 252000Z 17003KT 6SM -SN SCT006 OVC030 M08/M10 A3005 RMK SF4SC4 SLP238

CYQF;2018-12-25 21:00;CYQF 252100Z 19002KT 6SM -SN FEW006 BKN018 OVC030 M07/M09 A3005 RMK SF1SC5SC2 SLP238

CYQF;2018-12-25 22:00;CYQF 252200Z VRB02KT 6SM -SN OVC017 M07/M09 A3006 RMK SC8 SLP240

CYQF;2018-12-25 22:37;CYQF 252237Z 00000KT 2SM -SN OVC018 M07/M09 A3007 RMK SC8 SLP242

CYQF;2018-12-25 23:00;CYQF 252300Z 23003KT 170V240 1 1/2SM -SN OVC015 M07/M08 A3007 RMK SN4SC4 SLP244

CYQF;2018-12-25 23:50;CYQF 252350Z 19002KT 2SM -SN OVC010 M06/M07 A3008 RMK SC8 SLP245

CYQF;2018-12-26 00:00;CYQF 260000Z 24002KT 3SM -SN OVC010 M06/M07 A3008 RMK SC8 VIS VRB 2-4 SLP246

CYQF;2018-12-26 01:00;CYQF 260100Z 00000KT 4SM -SN OVC013 M06/M07 A3007 RMK SC8 SLP242

CYQF;2018-12-26 01:40;CYQF 260140Z 18003KT 4SM -SN BKN008 OVC017 M06/M07 A3007 RMK SC5SC3 SLP244

CYQF;2018-12-26 02:00;CYQF 260200Z 00000KT 3SM -SN SCT008 OVC015 M06/M07 A3008 RMK SC4SC4 VIS VRB 2-4 SLP245

CYQF;2018-12-26 03:00;CYQF 260300Z 02004KT 1 1/2SM -SN BKN008 OVC015 M05/M06 A3008 RMK SN4SC2SC2 VIS 1-2 SLP245

CYQF;2018-12-26 03:38;CYQF 260338Z 01006KT 3SM -SN OVC007 M05/M06 A3007 RMK SC8 SLP242

CYQF;2018-12-26 04:00;CYQF 260400Z 02006KT 5SM -SN OVC008 M05/M06 A3008 RMK SC8 SLP244

CYQF;2018-12-26 05:00;CYQF 260500Z 01007KT 3SM -SN OVC007 M06/M07 A3008 RMK SC8 SLP246

CYQF;2018-12-26 06:00;CYQF 260600Z 01008KT 3SM -SN OVC006 M07/M08 A3009 RMK SC8 SLP251

CYQF;2018-12-26 07:00;CYQF 260700Z 01008KT 3SM -SN OVC004 M08/M09 A3010 RMK SC8 SLP254

CYQF;2018-12-26 07:47;CYQF 260747Z 36009KT 1 1/2SM BR OVC003 M08/M09 A3010 RMK SF8 SLP255

CYQF;2018-12-26 08:00;CYQF 260800Z 02009KT 1SM BR OVC003 M09/M09 A3010 RMK SF8 SLP255

CYQF;2018-12-26 08:51;CYQF 260851Z 36007KT 1 1/2SM -SN BR OVC003 M09/M10 A3010 RMK SF8 SLP254

CYQF;2018-12-26 09:00;CYQF 260900Z 01006KT 1 1/2SM -SN BR OVC003 M09/M10 A3010 RMK SF8 SLP255

CYQF;2018-12-26 10:00;CYQF 261000Z 03004KT 330V050 1 1/2SM -SN BR OVC004 M09/M10 A3010 RMK SC8 SLP257

CYQF;2018-12-26 10:12;CYQF 261012Z 04004KT 010V070 1 1/2SM BR OVC004 M09/M11 A3010 RMK SC8 SLP255

CYQF;2018-12-26 10:52;CYQF 261052Z VRB02KT 1 1/2SM -SN BR OVC002 M10/M11 A3009 RMK ST8 SLP250

CYQF;2018-12-26 11:00;CYQF 261100Z 04005KT 1 1/2SM -SN BR OVC002 M10/M11 A3008 RMK ST8 SLP249

CYQF;2018-12-26 11:18;CYQF 261118Z 05003KT 040V110 3/4SM -SN BR OVC002 M10/M11 A3008 RMK ST8 SLP249

CYQF;2018-12-26 12:00;CYQF 261200Z VRB02KT 1SM -SN BR OVC002 M10/M11 A3009 RMK ST8 SLP250

CYQF;2018-12-26 13:00;CYQF 261300Z VRB04KT 3/4SM -SN BR OVC002 M10/M11 A3008 RMK FG1ST7 SLP246

CYQF;2018-12-26 13:23;CYQF 261323Z 16004KT 3/4SM BR VV002 M10/M11 A3007 RMK FG8 SLP245

CYQF;2018-12-26 14:00;CYQF 261400Z 12004KT 080V210 5/8SM BR VV004 M10/M11 A3007 RMK FG8 SLP243

CYQF;2018-12-26 15:00;CYQF 261500Z VRB02KT 3/4SM -SN BR VV006 M10/M11 A3006 RMK FG8 SLP241

CYQF;2018-12-26 16:00;CYQF 261600Z 18004KT 3/4SM -SN BR VV007 M10/M11 A3007 RMK FG8 SLP243

CYQF;2018-12-26 17:00;CYQF 261700Z 17006KT 1SM -SN BR OVC003 M10/M11 A3006 RMK ST8 SLP240

CYQF;2018-12-26 17:26;CYQF 261726Z 16004KT 1 1/2SM -SN BR OVC003 M10/M11 A3005 RMK ST8 SLP238

CYQF;2018-12-26 17:34;CYQF 261734Z 17004KT 2SM -SN BR OVC004 M10/M11 A3005 RMK ST8 SLP236

CYQF;2018-12-26 18:00;CYQF 261800Z 17007KT 1 1/2SM -SN BR OVC003 M09/M11 A3004 RMK FG3ST5 SLP234

CYQF;2018-12-26 19:00;CYQF 261900Z 15007KT 2SM -SN BR OVC004 M09/M10 A3002 RMK ST8 SLP227

CYQF;2018-12-26 19:38;CYQF 261938Z 13007KT 2 1/2SM -SN BR OVC005 M09/M10 A3000 RMK ST8 SLP222

CYQF;2018-12-26 20:00;CYQF 262000Z 13007KT 2 1/2SM BR OVC005 M09/M10 A3000 RMK ST8 SLP221

CYQF;2018-12-26 21:00;CYQF 262100Z 14008KT 2 1/2SM BR OVC005 M09/M10 A2999 RMK ST8 SLP219

CYQF;2018-12-26 22:00;CYQF 262200Z 13008KT 2 1/2SM -SN BR OVC004 M09/M10 A2999 RMK ST8 SLP219

CYQF;2018-12-26 23:00;CYQF 262300Z 11006KT 3SM -SN BR OVC005 M09/M10 A3000 RMK ST8 SLP221

CYQF;2018-12-26 23:48;CYQF 262348Z 13006KT 3SM BR OVC005 M09/M10 A3000 RMK ST8 SLP221

CYQF;2018-12-27 00:00;CYQF 270000Z 13008KT 3SM BR OVC005 M09/M10 A3000 RMK ST8 SLP221

CYQF;2018-12-27 00:26;CYQF 270026Z 15006KT 3SM -SN BR OVC005 M09/M10 A3000 RMK ST8 SLP222

CYQF;2018-12-27 01:00;CYQF 270100Z 13007KT 3SM -SN BR OVC005 M09/M10 A3000 RMK ST8 SLP222

CYQF;2018-12-27 02:00;CYQF 270200Z 14008KT 5SM -SN BR OVC005 M09/M10 A3000 RMK ST8 CIG RAG SLP225

CYQF;2018-12-27 03:00;CYQF 270300Z 16006KT 5SM -SN BR OVC005 M09/M10 A3002 RMK ST8 SLP229

CYQF;2018-12-27 04:00;CYQF 270400Z 13005KT 4SM -SN BR OVC005 M08/M09 A3002 RMK ST8 SLP230

CYQF;2018-12-27 04:38;CYQF 270438Z 13008KT 2 1/2SM -SN BR OVC003 M09/M10 A3003 RMK ST8 SLP235

CYQF;2018-12-27 05:00;CYQF 270500Z 14007KT 2 1/2SM -SN BR OVC003 M09/M10 A3004 RMK ST8 SLP236

CYQF;2018-12-27 06:00;CYQF 270600Z 13006KT 2SM -SN BR FEW008 M09/M10 A3005 RMK ST1 ST TR SLP239

CYQF;2018-12-27 07:00;CYQF 270700Z 12007KT 2SM -SN BR OVC003 M09/M10 A3005 RMK ST8 SLP240

CYQF;2018-12-27 08:00;CYQF 270800Z 12007KT 2SM -SN BR OVC003 M09/M10 A3006 RMK ST8 SLP242

CYQF;2018-12-27 09:00;CYQF 270900Z 14006KT 2SM -SN BR OVC004 M09/M10 A3007 RMK ST8 SLP245

CYQF;2018-12-27 10:00;CYQF 271000Z 14009KT 2SM -SN BR BKN004 OVC007 M08/M09 A3009 RMK ST6ST2 SLP252

CYQF;2018-12-27 10:47;CYQF 271047Z 17005KT 3SM -SN BR OVC008 M08/M09 A3009 RMK ST8 SLP252

CYQF;2018-12-27 11:00;CYQF 271100Z 15005KT 3SM -SN BR OVC006 M08/M09 A3009 RMK ST8 SLP252

CYQF;2018-12-27 12:00;CYQF 271200Z 17002KT 3SM -SN BR OVC006 M08/M09 A3009 RMK ST8 SLP252

CYQF;2018-12-27 13:00;CYQF 271300Z 12005KT 3SM -SN BR OVC009 M08/M09 A3010 RMK ST8 SLP256

CYQF;2018-12-27 14:00;CYQF 271400Z 16006KT 4SM -SN BR OVC008 M08/M09 A3012 RMK ST8 FROIN SLP262

CYQF;2018-12-27 15:00;CYQF 271500Z 18006KT 4SM -SN BR OVC008 M09/M10 A3012 RMK SF8 SLP264

CYQF;2018-12-27 16:00;CYQF 271600Z 18007KT 3SM -SN OVC006 M09/M10 A3015 RMK ST8 SLP272

CYQF;2018-12-27 17:00;CYQF 271700Z 18006KT 3SM -SN BR BKN006 OVC016 M09/M10 A3015 RMK ST7SC1 SLP273

CYQF;2018-12-27 18:00;CYQF 271800Z 19005KT 3SM -SN BR FEW006 OVC016 M08/M09 A3016 RMK ST2SC6 SLP275

CYQF;2018-12-27 19:00;CYQF 271900Z 20005KT 3SM -SN BR OVC015 M08/M09 A3014 RMK SC8 SLP269

CYQF;2018-12-27 20:00;CYQF 272000Z 19006KT 3SM -SN BR OVC012 M07/M08 A3013 RMK SC8 SLP265

CYQF;2018-12-27 21:00;CYQF 272100Z 24009KT 6SM BR BKN012 OVC055 M08/M09 A3013 RMK SC7SC1 SLP264

CYQF;2018-12-27 22:00;CYQF 272200Z CCA 20006KT 8SM SCT011 BKN060 BKN250 M08/M10 A3014 RMK SC3SC2CI2 SLP268

CYQF;2018-12-27 23:00;CYQF 272300Z 19004KT 8SM FEW010 SCT060 BKN220 M11/M12 A3015 RMK SC2SC2CI3 SLP275

CYQF;2018-12-28 00:00;CYQF 280000Z 18004KT 8SM SCT040 BKN180 M13/M14 A3014 RMK SC4AC3 SLP274

CYQF;2018-12-28 01:00;CYQF 280100Z 21003KT 8SM FEW040 BKN065 BKN180 M11/M13 A3014 RMK SC1SC4AC2 SLP272

CYQF;2018-12-28 02:00;CYQF 280200Z 21003KT 8SM -SN OVC060 M11/M13 A3014 RMK SC8 SLP272

CYQF;2018-12-28 02:13;CYQF 280213Z 19003KT 8SM OVC055 M12/M13 A3014 RMK SC8 CIG RAG SLP272

CYQF;2018-12-28 03:00;CYQF 280300Z 17005KT 8SM OVC050 M11/M12 A3013 RMK SC8 SLP271

CYQF;2018-12-28 04:00;CYQF 280400Z 20003KT 10SM BKN050 M11/M13 A3013 RMK SC6 SLP271

CYQF;2018-12-28 05:00;CYQF 280500Z 20004KT 10SM FEW050 M13/M14 A3014 RMK SC2 SLP274

CYQF;2018-12-28 06:00;CYQF 280600Z 22003KT 10SM SCT050 M13/M14 A3013 RMK SC3 SLP271

CYQF;2018-12-28 07:00;CYQF 280700Z 21006KT 10SM SCT050 M16/M17 A3012 RMK SC4 SLP269

CYQF;2018-12-28 08:00;CYQF 280800Z 21004KT 10SM SCT050 M17/M19 A3011 RMK SC3 SLP269

CYQF;2018-12-28 08:46;CYQF 280846Z 22005KT 2SM BR BKN001 OVC050 M18/M20 A3011 RMK FG2ST3SC3 SLP268

CYQF;2018-12-28 09:00;CYQF 280900Z 22003KT 3/4SM BR VV001 M16/M18 A3011 RMK FG8 SLP268

CYQF;2018-12-28 09:25;CYQF 280925Z 22002KT 1/2SM FZFG VV001 M17/M19 A3010 RMK FG8 SLP266

CYQF;2018-12-28 09:45;CYQF 280945Z 18003KT 3SM BR SKC M18/M21 A3010 RMK FG3 SLP267

CYQF;2018-12-28 10:00;CYQF 281000Z 19005KT 6SM BR SKC M19/M21 A3009 RMK FG1 SLP266

CYQF;2018-12-28 11:00;CYQF 281100Z 20005KT 8SM SKC M19/M21 A3007 RMK FROIN SLP259

CYQF;2018-12-28 12:00;CYQF 281200Z 21004KT 12SM SKC M19/M21 A3004 RMK FROIN SLP252

CYQF;2018-12-28 13:00;CYQF 281300Z 19003KT 15SM SKC M18/M20 A3002 RMK FROIN SLP244

CYQF;2018-12-28 14:00;CYQF 281400Z 21003KT 15SM SKC M16/M18 A3000 RMK SLP234

CYQF;2018-12-28 15:00;CYQF 281500Z 20004KT 15SM SKC M16/M18 A2999 RMK SLP230

CYQF;2018-12-28 16:00;CYQF 281600Z 21003KT 15SM FEW220 M18/M20 A2999 RMK CI1 SLP231

CYQF;2018-12-28 17:00;CYQF 281700Z 20004KT 15SM FEW070 FEW220 M18/M20 A2995 RMK AC1CI2 AC TR SLP221

CYQF;2018-12-28 18:00;CYQF 281800Z 23005KT 15SM FEW070 SCT220 M15/M17 A2995 RMK AC1CI3 AC TR SLP217

CYQF;2018-12-28 19:00;CYQF 281900Z 18003KT 10SM FEW090 BKN180 BKN250 M13/M14 A2990 RMK AC2AC4CI1 SLP198

CYQF;2018-12-28 20:00;CYQF 282000Z 20003KT 15SM FEW050 SCT090 BKN150 M11/M12 A2985 RMK SC1AC2AC3 SLP182

CYQF;2018-12-28 21:00;CYQF 282100Z 19003KT 15SM FEW020 SCT070 BKN150 BKN250 M10/M11 A2982 RMK SC1AC3AC2CI2 SC TR SLP170

CYQF;2018-12-28 22:00;CYQF 282200Z 16003KT 15SM SCT070 BKN120 OVC250 M09/M10 A2980 RMK AC3AC2CI3 SLP164

CYQF;2018-12-28 23:00;CYQF 282300Z 18003KT 15SM SCT070 BKN120 OVC250 M08/M09 A2979 RMK AC4AC2CI2 SLP158

CYQF;2018-12-29 00:00;CYQF 290000Z 05002KT 15SM BKN070 OVC120 M08/M09 A2978 RMK AC6AC2 SLP157

CYQF;2018-12-29 01:00;CYQF 290100Z 21002KT 15SM BKN070 OVC140 M09/M10 A2976 RMK AC5AC3 SLP150

CYQF;2018-12-29 02:00;CYQF 290200Z 21003KT 15SM SCT070 OVC130 M08/M09 A2975 RMK AC4AC4 SLP144

CYQF;2018-12-29 03:03;CYQF 290303Z 20003KT 15SM -SN SCT035 BKN070 OVC140 M07/M09 A2975 RMK SC4AC2AC2 SLP143

CYQF;2018-12-29 04:00;CYQF 290400Z 18004KT 15SM -SN BKN040 OVC070 M07/M08 A2974 RMK SC6AC2 SLP138

CYQF;2018-12-29 05:00;CYQF 290500Z 14002KT 15SM -SN OVC040 M06/M08 A2974 RMK SC8 SLP138

CYQF;2018-12-29 06:00;CYQF 290600Z 21005KT 15SM -SN OVC039 M06/M08 A2973 RMK SC8 SLP132

CYQF;2018-12-29 07:00;CYQF 290700Z 22006KT 15SM -SN OVC055 M06/M08 A2973 RMK SC8 SLP129

CYQF;2018-12-29 07:09;CYQF 290709Z 21004KT 15SM BKN055 OVC170 M06/M08 A2973 RMK SC6AC2 SLP129

CYQF;2018-12-29 08:00;CYQF 290800Z 20005KT 15SM SCT050 OVC150 M09/M10 A2972 RMK SC4AC4 SLP127

CYQF;2018-12-29 09:00;CYQF 290900Z 20006KT 15SM OVC140 M08/M09 A2972 RMK AC8 SLP123

CYQF;2018-12-29 10:00;CYQF 291000Z 20004KT 15SM BKN084 M07/M08 A2970 RMK AC7 SLP117

CYQF;2018-12-29 11:00;CYQF 291100Z 22004KT 15SM OVC068 M05/M06 A2970 RMK AC8 SLP112

CYQF;2018-12-29 12:00;CYQF 291200Z 18003KT 15SM OVC072 M06/M07 A2967 RMK AC8 SLP102

CYQF;2018-12-29 13:00;CYQF 291300Z 00000KT 15SM OVC074 M06/M06 A2963 RMK AC8 SLP091

CYQF;2018-12-29 14:00;CYQF 291400Z VRB02KT 15SM OVC084 M06/M06 A2959 RMK AC8 SLP075

CYQF;2018-12-29 15:00;CYQF 291500Z 17005KT 15SM BKN063 OVC085 M04/M05 A2957 RMK SC6AC2 SLP066

CYQF;2018-12-29 16:00;CYQF 291600Z 16007KT 10SM OVC060 M04/M05 A2954 RMK SC8 SLP053

CYQF;2018-12-29 16:32;CYQF 291632Z 16007KT 6SM -SN SCT009 OVC050 M04/M06 A2950 RMK SF3SC5 PRESFR SLP041

CYQF;2018-12-29 16:52;CYQF 291652Z 16008KT 2 1/2SM -SN FEW009 VV024 M04/M06 A2949 RMK SF2SN6 SLP035

CYQF;2018-12-29 17:00;CYQF 291700Z 16008KT 2SM -SN FEW009 VV023 M04/M05 A2948 RMK SF2SN6 SLP031

CYQF;2018-12-29 17:39;CYQF 291739Z 13005KT 4SM -SN SCT010 OVC050 M04/M04 A2943 RMK SC3SC5 SLP015

CYQF;2018-12-29 18:00;CYQF 291800Z 16007KT 4SM -SN SCT010 BKN060 OVC100 M03/M04 A2941 RMK SC3SC3AC2 PRESFR SLP006

CYQF;2018-12-29 19:00;CYQF 291900Z 14008KT 12SM -SN FEW010 BKN130 M03/M05 A2935 RMK SC1AC6 PRESFR SLP988

CYQF;2018-12-29 19:07;CYQF 291907Z 15009KT 12SM FEW010 BKN130 M03/M04 A2935 RMK SC1AC6 SLP986

CYQF;2018-12-29 20:00;CYQF 292000Z 16007KT 12SM SCT010 SCT120 BKN170 M02/M03 A2932 RMK SC3AC1AC2 SLP978

CYQF;2018-12-29 21:00;CYQF 292100Z VRB08KT 15SM FEW012 SCT120 M02/M06 A2930 RMK SC2AC1 SLP970

CYQF;2018-12-29 22:00;CYQF 292200Z 16009KT 15SM FEW040 FEW120 M03/M06 A2928 RMK SC1AC1 SLP964

CYQF;2018-12-29 23:00;CYQF 292300Z 15007KT 15SM FEW040 SCT140 M04/M06 A2928 RMK SC1AC2 SLP962

CYQF;2018-12-30 00:00;CYQF 300000Z 15004KT 15SM FEW040 BKN140 M07/M08 A2928 RMK SC1AC6 SLP966

CYQF;2018-12-30 01:00;CYQF 300100Z 19002KT 15SM FEW040 BKN120 M05/M07 A2930 RMK SC1AC6 SLP970

CYQF;2018-12-30 02:00;CYQF 300200Z 22004KT 15SM OVC080 M04/M07 A2931 RMK AC8 SLP972

CYQF;2018-12-30 03:00;CYQF 300300Z 01006KT 15SM OVC065 M04/M06 A2932 RMK SC8 SLP976

CYQF;2018-12-30 04:00;CYQF 300400Z 04008KT 15SM FEW030 OVC090 M04/M06 A2934 RMK SC1AC7 SLP980

CYQF;2018-12-30 05:00;CYQF 300500Z 02003KT 240V030 15SM OVC060 M04/M06 A2936 RMK SC8 SLP988

CYQF;2018-12-30 06:00;CYQF 300600Z 07004KT 060V130 15SM OVC060 M04/M06 A2938 RMK SC8 SLP994

CYQF;2018-12-30 07:00;CYQF 300700Z 00000KT 15SM SCT060 OVC097 M02/M05 A2941 RMK SC3AC5 SLP001

CYQF;2018-12-30 07:38;CYQF 300738Z 35017KT 300V360 15SM -SN OVC073 01/M04 A2942 RMK AC8 SLP004

CYQF;2018-12-30 08:00;CYQF 300800Z 35008KT 15SM -SN OVC056 M00/M04 A2944 RMK SC8 SLP008

CYQF;2018-12-30 09:00;CYQF 300900Z 36009G16KT 15SM -SN OVC057 M01/M04 A2948 RMK SC8 PRESRR SLP025

CYQF;2018-12-30 10:00;CYQF 301000Z 35007KT 15SM FEW021 OVC057 M03/M05 A2952 RMK SC2SC6 PRESRR SLP043

CYQF;2018-12-30 11:00;CYQF 301100Z 34011G16KT 15SM OVC014 M04/M06 A2956 RMK SC8 SLP058

CYQF;2018-12-30 12:00;CYQF 301200Z 36014KT 15SM OVC012 M06/M08 A2960 RMK SC8 SLP076

CYQF;2018-12-30 12:36;CYQF 301236Z 35016G22KT 15SM -SN OVC015 M07/M10 A2962 RMK SC8 SLP086

CYQF;2018-12-30 13:00;CYQF 301300Z 35015G23KT 10SM -SN OVC019 M09/M12 A2966 RMK SC8 PRESRR SLP099

CYQF;2018-12-30 14:00;CYQF 301400Z 34019G24KT 10SM -SN DRSN OVC030 M11/M14 A2973 RMK SC8 PRESRR SLP127

CYQF;2018-12-30 15:00;CYQF 301500Z 33018G25KT 10SM -SN DRSN OVC024 M12/M15 A2980 RMK SC8 PRESRR SLP153

CYQF;2018-12-30 15:37;CYQF 301537Z 33021G27KT 2SM -SN BLSN OVC030 M12/M15 A2983 RMK SC8 SLP163

CYQF;2018-12-30 16:00;CYQF 301600Z 34020G27KT 4SM -SN BLSN OVC030 M13/M16 A2985 RMK SC8 VIS VRB 2-6 PRESRR SLP169

CYQF;2018-12-30 17:00;CYQF 301700Z 33022G27KT 3SM -SN BLSN BKN030 OVC075 M12/M15 A2989 RMK BLSN2SC3AC3 PRESRR SLP182

CYQF;2018-12-30 18:00;CYQF 301800Z 33027G33KT 3/4SM -SN BLSN VV025 M13/M16 A2993 RMK BLSN8 VIS VRB 1/2-1 SLP197

CYQF;2018-12-30 18:37;CYQF 301837Z 33020G25KT 2SM -SN DRSN SCT012 VV036 M12/M16 A2996 RMK SF3SN5 SLP206

CYQF;2018-12-30 19:00;CYQF 301900Z 34019G26KT 6SM -SN DRSN SCT016 BKN040 OVC070 M12/M16 A2998 RMK SF3SC2AC3 SLP210

CYQF;2018-12-30 20:00;CYQF 302000Z 34019G26KT 8SM -SN DRSN FEW014 BKN080 M13/M16 A3000 RMK SF2AC5 SLP217

CYQF;2018-12-30 21:00;CYQF 302100Z 34021KT 10SM DRSN SCT020 SCT080 OVC260 M13/M17 A3005 RMK SC3AC1CI4 SLP235

CYQF;2018-12-30 22:00;CYQF 302200Z 35012G19KT 15SM DRSN BKN020 OVC050 M13/M17 A3010 RMK SC6SC2 SLP255

CYQF;2018-12-30 23:00;CYQF 302300Z 35009G15KT 15SM DRSN SCT020 OVC048 M13/M16 A3015 RMK SC3SC5 SLP271

