CYQG;2006-01-01 00:00;METAR CYQG 010000Z 24008KT 12SM BKN014 OVC028 02/01 A2975 RMK SF5SC3 SLP081=

CYQG;2006-01-01 00:23;SPECI CYQG 010023Z 25009KT 12SM OVC017 RMK SC8=

CYQG;2006-01-01 01:00;METAR CYQG 010100Z 25010KT 15SM BKN029 OVC059 02/01 A2977 RMK SC6SC2 SLP089=

CYQG;2006-01-01 03:00;METAR CYQG 010300Z 25007KT 15SM OVC014 02/01 A2980 RMK SC8 SLP097=

CYQG;2006-01-01 04:00;METAR CYQG 010400Z 25009KT 10SM BKN013 OVC020 02/01 A2983 RMK SC6SC2 SLP106=

CYQG;2006-01-01 04:27;SPECI CYQG 010427Z 25010KT 10SM FEW008 BKN012 OVC024 RMK SF1SC5SC2=

CYQG;2006-01-01 04:39;SPECI CYQG 010439Z 26011KT 10SM FEW009 SCT012 OVC046 RMK SF1SC2SC5=

CYQG;2006-01-01 05:00;METAR CYQG 010500Z 26009KT 10SM FEW009 SCT015 OVC045 02/01 A2983 RMK SF1SC3SC5 SLP109=

CYQG;2006-01-01 06:00;METAR CYQG 010600Z 25010KT 10SM FEW009 BKN021 OVC046 02/00 A2984 RMK SF1SC6SC2 SLP112=

CYQG;2006-01-01 07:00;METAR CYQG 010700Z 25010KT 10SM BKN017 OVC042 02/00 A2986 RMK SC5SC3 SLP117=

CYQG;2006-01-01 09:00;METAR CYQG 010900Z 26009KT 10SM FEW028 OVC044 02/00 A2991 RMK CU2SC6 SLP135=

CYQG;2006-01-01 10:00;METAR CYQG 011000Z 25008KT 10SM FEW027 OVC045 02/M00 A2992 RMK CU1SC7 SLP137=

CYQG;2006-01-01 11:00;METAR CYQG 011100Z 26009KT 10SM OVC045 02/M00 A2995 RMK SC7 SLP148=

CYQG;2006-01-01 12:00;METAR CYQG 011200Z 26007KT 10SM SCT034 BKN043 01/M01 A2997 RMK SC3SC3 SLP154=

CYQG;2006-01-01 13:00;METAR CYQG 011300Z 24004KT 7SM OVC034 01/M00 A2998 RMK SC8 SLP159=

CYQG;2006-01-01 14:00;METAR CYQG 011400Z 24007KT 7SM BKN023 OVC035 02/M01 A3001 RMK SC6SC2 SLP167=

CYQG;2006-01-01 15:00;METAR CYQG 011500Z 23006KT 7SM OVC021 02/M00 A3002 RMK SC8 SLP172=

CYQG;2006-01-01 16:00;METAR CYQG 011600Z 23007KT 6SM BR OVC021 02/00 A3003 RMK SC8 SLP176=

CYQG;2006-01-01 17:00;METAR CYQG 011700Z 21004KT 8SM FEW015 BKN022 03/00 A3001 RMK CF1SC6 SLP169=

CYQG;2006-01-01 18:00;METAR CYQG 011800Z 20007KT 15SM BKN018 03/M01 A3000 RMK CU7 SLP166=

CYQG;2006-01-01 19:00;METAR CYQG 011900Z 21010KT 15SM BKN017 BKN023 03/M02 A3000 RMK CU5SC2 SLP166=

CYQG;2006-01-01 20:00;METAR CYQG 012000Z 20008KT 12SM FEW017 OVC120 03/M01 A3000 RMK CU2AC6 SLP165=

CYQG;2006-01-01 21:00;METAR CYQG 012100Z 18007KT 12SM FEW019 BKN120 OVC250 03/M01 A3000 RMK CU1AC6CS2 SLP164=

CYQG;2006-01-01 22:00;METAR CYQG 012200Z 17005KT 10SM FEW120 OVC150 02/M01 A3001 RMK AC2AC6 SLP170=

CYQG;2006-01-01 23:00;METAR CYQG 012300Z 10009KT 12SM SCT080 OVC100 02/M01 A2999 RMK AC3AC5 SLP163=

CYQG;2006-01-02 00:00;METAR CYQG 020000Z 11003KT 15SM OVC140 02/M01 A3001 RMK AC8 SLP168=

CYQG;2006-01-02 01:00;METAR CYQG 020100Z 10006KT 12SM OVC120 02/M00 A3000 RMK AC8 SLP165=

CYQG;2006-01-02 02:00;METAR CYQG 020200Z 10004KT 15SM OVC071 02/M00 A3000 RMK AC8 SLP165=

CYQG;2006-01-02 02:22;SPECI CYQG 020222Z 08006KT 15SM -SHRA OVC065 RMK SC8=

CYQG;2006-01-02 03:00;METAR CYQG 020300Z 08008KT 8SM -SHRA OVC061 02/00 A2998 RMK SC8 SLP158=

CYQG;2006-01-02 04:00;METAR CYQG 020400Z 08006KT 8SM -SHRA OVC069 02/01 A2999 RMK AC8 SLP161=

CYQG;2006-01-02 05:00;METAR CYQG 020500Z 08007KT 6SM -SHRA BR OVC057 OVC073 02/01 A2998 RMK SC6AC2 SLP157=

CYQG;2006-01-02 06:00;METAR CYQG 020600Z 07010KT 5SM -SHRA BR OVC054 02/01 A2995 RMK SC8 SLP147=

CYQG;2006-01-02 07:00;METAR CYQG 020700Z 07012KT 4SM -SHRA BR OVC048 02/01 A2994 RMK SC8 SLP145=

CYQG;2006-01-02 08:00;METAR CYQG 020800Z 07010KT 4SM -RA BR OVC040 02/01 A2994 RMK NS8 SLP144=

CYQG;2006-01-02 09:00;METAR CYQG 020900Z 08010KT 4SM -RA BR OVC036 03/02 A2992 RMK NS8 SLP137=

CYQG;2006-01-02 10:00;METAR CYQG 021000Z 09011KT 5SM -RA BR OVC032 03/02 A2989 RMK NS8 SLP127=

CYQG;2006-01-02 10:50;SPECI CYQG 021050Z 09015KT 6SM BR OVC030 RMK SC8=

CYQG;2006-01-02 10:55;SPECI CYQG 021055Z 09015KT 6SM -SHRA BR OVC029 RMK SC8=

CYQG;2006-01-02 11:00;METAR CYQG 021100Z 09016KT 7SM -SHRA OVC029 03/02 A2987 RMK SC8 SLP121=

CYQG;2006-01-02 12:00;METAR CYQG 021200Z 10010G15KT 7SM -SHRA OVC031 04/02 A2987 RMK SC8 SLP122=

CYQG;2006-01-02 13:00;METAR CYQG 021300Z 08011G16KT 7SM -RA OVC034 04/02 A2986 RMK SC8 SLP118=

CYQG;2006-01-02 13:17;SPECI CYQG 021317Z 09011KT 7SM OVC033 RMK SC8=

CYQG;2006-01-02 14:00;METAR CYQG 021400Z 09015G20KT 8SM OVC029 04/02 A2986 RMK SC8 SLP117=

CYQG;2006-01-02 14:25;SPECI CYQG 021425Z 10017KT 8SM -RA OVC028 RMK SC8=

CYQG;2006-01-02 15:00;METAR CYQG 021500Z 10017KT 8SM -RA OVC020 04/02 A2985 RMK SC8 SLP114=

CYQG;2006-01-02 15:46;SPECI CYQG 021546Z 09022G31KT 12SM SCT030 BKN140 OVC260 RMK SC3AC2CS2=

CYQG;2006-01-02 16:00;METAR CYQG 021600Z 08017KT 12SM FEW030 BKN140 OVC260 04/02 A2980 RMK SC2AC3CS2 SLP098=

CYQG;2006-01-02 16:40;SPECI CYQG 021640Z 11008KT 10SM -RA BKN011 OVC035 RMK SF5SC3=

CYQG;2006-01-02 17:00;METAR CYQG 021700Z 10010KT 8SM -RA BKN010 OVC035 04/02 A2983 RMK SF6SC2 SLP107=

CYQG;2006-01-02 17:23;SPECI CYQG 021723Z 09012KT 7SM -RA BKN009 OVC017 RMK SF6SC2=

CYQG;2006-01-02 18:00;METAR CYQG 021800Z 09013KT 5SM -RA BR OVC007 04/03 A2977 RMK SF8 PRESFR SLP087=

CYQG;2006-01-02 18:39;SPECI CYQG 021839Z 09011KT 5SM BR OVC006 RMK SF8=

CYQG;2006-01-02 19:00;METAR CYQG 021900Z 09015KT 5SM BR OVC007 04/03 A2975 RMK SF8 SLP079=

CYQG;2006-01-02 20:00;METAR CYQG 022000Z 08012G18KT 5SM BR OVC006 04/03 A2973 RMK SF8 SLP072=

CYQG;2006-01-02 20:22;SPECI CYQG 022022Z 09014G19KT 5SM -SHRA BR OVC006 RMK SF8=

CYQG;2006-01-02 20:43;SPECI CYQG 022043Z 08013KT 2SM -DZ BR OVC005 RMK SF8=

CYQG;2006-01-02 21:00;METAR CYQG 022100Z 08014KT 1SM -DZ BR OVC003 04/03 A2973 RMK SF8 SLP073=

CYQG;2006-01-02 21:08;SPECI CYQG 022108Z 08015KT 1SM -DZ BR OVC002 RMK SF8=

CYQG;2006-01-02 21:20;SPECI CYQG 022120Z 08015KT 1SM -DZ BR OVC004 RMK SF8=

CYQG;2006-01-02 21:33;SPECI CYQG 022133Z 07012KT 1 1/2SM -DZ BR OVC006 RMK SF8=

CYQG;2006-01-02 22:00;METAR CYQG 022200Z 07012KT 1 1/2SM -DZ BR OVC006 04/03 A2974 RMK SF8 SLP076=

CYQG;2006-01-02 22:20;SPECI CYQG 022220Z 08016KT 1 1/2SM -SHRA BR OVC004 RMK SF8=

CYQG;2006-01-02 22:44;SPECI CYQG 022244Z 07017KT 4SM -SHRA BR OVC004 RMK SF8=

CYQG;2006-01-02 23:46;SPECI CYQG 022346Z 07016KT 5SM -DZ BR OVC005 RMK SF8=

CYQG;2006-01-03 00:00;METAR CYQG 030000Z 07013KT 4SM -DZ BR OVC004 03/02 A2974 RMK SF8 SLP078=

CYQG;2006-01-03 01:00;METAR CYQG 030100Z 08016KT 4SM -DZ BR OVC004 03/03 A2972 RMK SF8 SLP071=

CYQG;2006-01-03 01:29;SPECI CYQG 030129Z 07014KT 4SM BR OVC005 RMK SF8=

CYQG;2006-01-03 02:00;METAR CYQG 030200Z 07015KT 4SM BR OVC005 03/02 A2972 RMK SF8 SLP071=

CYQG;2006-01-03 03:00;METAR CYQG 030300Z 05012KT 4SM BR OVC007 03/02 A2973 RMK SF8 SLP074=

CYQG;2006-01-03 04:00;METAR CYQG 030400Z 06014KT 5SM -DZ BR OVC008 03/02 A2973 RMK SF8 SLP074=

CYQG;2006-01-03 05:00;METAR CYQG 030500Z 04010KT 3SM -DZ BR OVC006 03/03 A2973 RMK SF8 SLP073=

CYQG;2006-01-03 05:08;SPECI CYQG 030508Z 05010KT 2 1/2SM -SHRA BR OVC006 RMK SF8=

CYQG;2006-01-03 05:34;SPECI CYQG 030534Z 04013KT 2 1/2SM -DZ BR SCT005 OVC008 RMK SF3ST5=

CYQG;2006-01-03 06:00;METAR CYQG 030600Z 05012KT 2 1/2SM -DZ BR BKN006 OVC009 03/03 A2974 RMK FG2SF4ST2 SLP078=

CYQG;2006-01-03 06:13;SPECI CYQG 030613Z 04013KT 2 1/2SM -DZ BR BKN004 OVC008 RMK FG2SF3ST3=

CYQG;2006-01-03 07:00;METAR CYQG 030700Z 03015KT 2 1/2SM -DZ BR BKN004 OVC009 03/02 A2974 RMK FG1SF4ST3 SLP077=

CYQG;2006-01-03 07:12;SPECI CYQG 030712Z 03016KT 3SM -DZ BR SCT005 OVC009 RMK SF4ST4=

CYQG;2006-01-03 07:25;SPECI CYQG 030725Z 04013G18KT 3SM -RA BR SCT005 OVC010 RMK SF3SC5=

CYQG;2006-01-03 08:00;METAR CYQG 030800Z 03012G18KT 3SM -RA BR SCT005 OVC009 03/03 A2977 RMK SF3SC5 SLP086=

CYQG;2006-01-03 09:00;METAR CYQG 030900Z 03015KT 3SM -SHRA BR SCT005 OVC009 03/03 A2978 RMK SF4SC4 SLP091=

CYQG;2006-01-03 09:39;SPECI CYQG 030939Z 03012KT 2 1/2SM -SHRA BR BKN004 OVC009 RMK FG2SF5SC2=

CYQG;2006-01-03 10:00;METAR CYQG 031000Z 03012KT 2 1/4SM -SHRA BR OVC004 03/03 A2979 RMK FG2SF6 SLP094=

CYQG;2006-01-03 10:07;SPECI CYQG 031007Z 03013KT 2 1/4SM -DZ BR OVC003 RMK FG2SF6=

CYQG;2006-01-03 10:34;SPECI CYQG 031034Z 03012KT 2SM BR OVC003 RMK FG2SF6=

CYQG;2006-01-03 10:51;SPECI CYQG 031051Z 03012KT 2SM -DZ BR OVC003 RMK FG2SF6=

CYQG;2006-01-03 11:00;METAR CYQG 031100Z 03012KT 2SM -DZ BR OVC003 03/03 A2982 RMK FG2SF6 SLP102=

CYQG;2006-01-03 12:00;METAR CYQG 031200Z 04009KT 1 3/4SM -DZ BR BKN003 OVC006 03/03 A2983 RMK FG2SF4SC2 SLP108=

CYQG;2006-01-03 12:41;SPECI CYQG 031241Z 04009KT 1SM -DZ BR OVC004 RMK FG3SF5=

CYQG;2006-01-03 13:00;METAR CYQG 031300Z 03009KT 1SM -DZ BR OVC003 03/03 A2986 RMK FG4SF4 SLP117=

CYQG;2006-01-03 14:00;METAR CYQG 031400Z 04008KT 1 1/4SM -DZ BR BKN004 OVC010 03/03 A2987 RMK FG2SF4SC2 SLP122=

CYQG;2006-01-03 14:08;SPECI CYQG 031408Z 06008KT 1 1/2SM -DZ BR BKN004 OVC011 RMK FG2SF3SC3=

CYQG;2006-01-03 14:22;SPECI CYQG 031422Z 05007KT 2SM BR SCT004 OVC011 RMK FG2SF2SC4=

CYQG;2006-01-03 14:45;SPECI CYQG 031445Z 05008KT 3SM BR SCT007 OVC011 RMK SF4SC4=

CYQG;2006-01-03 15:00;METAR CYQG 031500Z 05007KT 3SM BR SCT006 OVC011 04/03 A2989 RMK SF4SC4 SLP127=

CYQG;2006-01-03 16:00;METAR CYQG 031600Z 01007KT 4SM BR BKN009 OVC012 04/03 A2993 RMK SF5SC3 SLP141=

CYQG;2006-01-03 16:29;SPECI CYQG 031629Z 01008KT 5SM BR SCT008 OVC011 RMK SF3SC5=

CYQG;2006-01-03 17:31;SPECI CYQG 031731Z 33006KT 5SM BR OVC010 RMK SF8=

CYQG;2006-01-03 17:37;SPECI CYQG 031737Z 34005KT 4SM -DZ BR OVC011 RMK SF8=

CYQG;2006-01-03 18:00;METAR CYQG 031800Z 35006KT 3SM -DZ BR FEW006 OVC011 04/03 A2995 RMK SF2SF6 SLP148=

CYQG;2006-01-03 18:07;SPECI CYQG 031807Z 34005KT 2SM -DZ BR FEW006 OVC011 RMK FG1SF2SF6=

CYQG;2006-01-03 18:48;SPECI CYQG 031848Z 06006KT 3SM -DZ BR SCT004 SCT011 OVC039 RMK SF3SC1SC4=

CYQG;2006-01-03 19:00;METAR CYQG 031900Z 05005KT 4SM BR FEW004 FEW011 OVC038 05/03 A2993 RMK SF2SC1SC6 SLP140=

CYQG;2006-01-03 21:00;METAR CYQG 032100Z 36003KT 5SM BR BKN011 OVC035 04/03 A2995 RMK SC6SC2 SLP147=

CYQG;2006-01-03 22:00;METAR CYQG 032200Z 06002KT 5SM BR BKN010 OVC033 04/03 A2996 RMK SC6SC2 SLP151=

CYQG;2006-01-03 22:51;SPECI CYQG 032251Z 09003KT 5SM BR SCT013 OVC032 RMK SC3SC5=

CYQG;2006-01-03 23:00;METAR CYQG 032300Z 00000KT 5SM BR SCT014 OVC032 04/03 A2997 RMK SC3SC5 SLP153=

CYQG;2006-01-04 00:00;METAR CYQG 040000Z 00000KT 5SM BR SCT014 OVC032 04/03 A2998 RMK SC4SC4 SLP160=

CYQG;2006-01-04 00:14;SPECI CYQG 040014Z 00000KT 4SM -DZ BR OVC012 RMK SC8=

CYQG;2006-01-04 01:00;METAR CYQG 040100Z 00000KT 4SM -DZ BR OVC010 04/03 A2999 RMK SC8 SLP162=

CYQG;2006-01-04 01:24;SPECI CYQG 040124Z 14003KT 3SM -DZ BR BKN008 OVC022 RMK SF6SC2=

CYQG;2006-01-04 01:52;SPECI CYQG 040152Z 11002KT 3SM -DZ BR FEW008 OVC025 RMK SF2SC6=

CYQG;2006-01-04 02:00;METAR CYQG 040200Z 13002KT 3SM -DZ BR FEW008 OVC023 04/03 A2998 RMK SF2SC6 SLP159=

CYQG;2006-01-04 03:00;METAR CYQG 040300Z 16003KT 4SM -DZ BR SCT008 OVC021 04/03 A2997 RMK SF3SC5 SLP153=

CYQG;2006-01-04 03:50;SPECI CYQG 040350Z 00000KT 4SM BR SCT006 OVC020 RMK SF4SC4=

CYQG;2006-01-04 04:00;METAR CYQG 040400Z 00000KT 5SM BR SCT005 OVC021 04/03 A2995 RMK SF3SC5 SLP148=

CYQG;2006-01-04 04:21;SPECI CYQG 040421Z 15003KT 4SM BR BKN005 OVC020 RMK SF6SC2=

CYQG;2006-01-04 04:28;SPECI CYQG 040428Z 15003KT 4SM BR OVC004 RMK SF8=

CYQG;2006-01-04 05:31;SPECI CYQG 040531Z 21004KT 2 1/4SM BR SCT005 OVC017 RMK FG2CU2SC5=

CYQG;2006-01-04 05:48;SPECI CYQG 040548Z 18005KT 3SM BR FEW006 SCT011 OVC017 RMK SF1SC3SC5=

CYQG;2006-01-04 06:00;METAR CYQG 040600Z 19006KT 4SM BR FEW007 SCT012 OVC017 03/03 A2991 RMK CU2SC2SC4 SLP134=

CYQG;2006-01-04 06:31;SPECI CYQG 040631Z 18007KT 4SM BR BKN004 OVC034 RMK SC6SC2=

CYQG;2006-01-04 07:50;SPECI CYQG 040750Z 20006KT 3SM -DZ BR SCT004 OVC007 RMK CU3SC5=

CYQG;2006-01-04 08:00;METAR CYQG 040800Z 20006KT 3SM BR OVC004 03/02 A2989 RMK ST8 SLP129=

CYQG;2006-01-04 08:09;SPECI CYQG 040809Z 19005KT 3SM -DZ BR OVC003 RMK ST8=

CYQG;2006-01-04 08:18;SPECI CYQG 040818Z 18005KT 2 1/4SM -DZ BR OVC003 RMK FG2ST6=

CYQG;2006-01-04 08:34;SPECI CYQG 040834Z 21007KT 1 1/2SM -DZ BR OVC003 RMK FG3ST5=

CYQG;2006-01-04 08:50;SPECI CYQG 040850Z 19006KT 1SM -DZ BR OVC003 RMK FG4ST4=

CYQG;2006-01-04 09:00;METAR CYQG 040900Z 20007KT 1SM -DZ BR OVC003 03/03 A2988 RMK FG4ST4 SLP124=

CYQG;2006-01-04 10:00;METAR CYQG 041000Z 18003KT 1 1/4SM -DZ BR OVC003 04/03 A2986 RMK FG3ST5 SLP117=

CYQG;2006-01-04 10:23;SPECI CYQG 041023Z 16008KT 1SM -DZ BR OVC002 RMK FG4ST4=

CYQG;2006-01-04 11:00;METAR CYQG 041100Z 18007KT 1SM -DZ BR OVC002 04/04 A2983 RMK FG4ST4 SLP106=

CYQG;2006-01-04 12:00;METAR CYQG 041200Z 17008KT 1 1/4SM -DZ BR OVC002 05/04 A2980 RMK FG2ST6 SLP095=

CYQG;2006-01-04 12:19;SPECI CYQG 041219Z 17008KT 1SM -DZ BR OVC003 RMK FG4SF4=

CYQG;2006-01-04 13:00;METAR CYQG 041300Z 18010KT 1SM -DZ BR OVC003 05/05 A2977 RMK FG4SF4 SLP087=

CYQG;2006-01-04 13:13;SPECI CYQG 041313Z 18009KT 3/4SM -DZ BR OVC003 RMK FG5SF3=

CYQG;2006-01-04 14:00;METAR CYQG 041400Z 17012KT 3/4SM -DZ BR OVC002 05/05 A2974 RMK FG5SF3 SLP076=

CYQG;2006-01-04 14:19;SPECI CYQG 041419Z 20008KT 1SM -DZ BR OVC003 RMK FG3SF5=

CYQG;2006-01-04 14:44;SPECI CYQG 041444Z 21010KT 1 1/2SM -DZ BR OVC003 RMK FG2SF6=

CYQG;2006-01-04 15:00;METAR CYQG 041500Z 21009KT 1 1/2SM -DZ BR OVC003 06/06 A2975 RMK FG2SF6 SLP079=

CYQG;2006-01-04 15:42;SPECI CYQG 041542Z 22009KT 1 3/4SM -DZ BR OVC004 RMK FG2SF6=

CYQG;2006-01-04 15:49;SPECI CYQG 041549Z 22010KT 2 1/2SM -DZ BR OVC004 RMK FG2SF6=

CYQG;2006-01-04 16:00;METAR CYQG 041600Z 22011KT 2SM -DZ BR OVC004 06/06 A2973 RMK FG2SF6 SLP071=

CYQG;2006-01-04 18:00;METAR CYQG 041800Z 21009KT 2SM -DZ BR OVC004 06/06 A2964 RMK FG2SF6 SLP043=

CYQG;2006-01-04 19:00;METAR CYQG 041900Z 22009KT 2 1/2SM -DZ BR OVC004 07/06 A2962 RMK FG2SF6 SLP034=

CYQG;2006-01-04 19:27;SPECI CYQG 041927Z 21009KT 2SM -DZ BR OVC003 RMK FG2SF6=

CYQG;2006-01-04 19:53;SPECI CYQG 041953Z 22009KT 2SM -DZ BR OVC004 RMK FG2SF6=

CYQG;2006-01-04 20:00;METAR CYQG 042000Z 21011KT 2SM -DZ BR OVC004 07/06 A2961 RMK FG2SF6 SLP030=

CYQG;2006-01-04 21:00;METAR CYQG 042100Z 21008KT 2SM -DZ BR OVC004 06/06 A2961 RMK FG2SF6 SLP030=

CYQG;2006-01-04 22:00;METAR CYQG 042200Z 22007KT 2SM -DZ BR OVC004 06/06 A2961 RMK FG2SF6 SLP032=

CYQG;2006-01-04 22:53;SPECI CYQG 042253Z 23007KT 2SM -DZ BR OVC003 RMK FG2SF6=

CYQG;2006-01-04 23:00;METAR CYQG 042300Z 23007KT 2SM -DZ BR OVC003 06/06 A2962 RMK FG2SF6 SLP034=

CYQG;2006-01-04 23:27;SPECI CYQG 042327Z 23008KT 2 1/2SM -DZ BR OVC005 RMK FG2SF6=

CYQG;2006-01-04 23:38;SPECI CYQG 042338Z 24010KT 3SM -DZ BR OVC006 RMK SF8=

CYQG;2006-01-05 00:00;METAR CYQG 050000Z 25010KT 5SM -DZ BR BKN006 OVC013 07/06 A2962 RMK SF6SC2 SLP035=

CYQG;2006-01-05 00:41;SPECI CYQG 050041Z 27010KT 5SM -RA BR OVC009 RMK SF8=

CYQG;2006-01-05 01:00;METAR CYQG 050100Z 29012KT 8SM SCT008 BKN013 OVC030 07/06 A2964 RMK SF4SC2SC2 SLP040=

CYQG;2006-01-05 02:00;METAR CYQG 050200Z 28015G21KT 10SM BKN014 OVC035 06/04 A2964 RMK SC6SC2 SLP043=

CYQG;2006-01-05 03:00;METAR CYQG 050300Z 27015G21KT 15SM BKN014 OVC023 06/03 A2965 RMK SC6SC2 SLP045=

CYQG;2006-01-05 03:24;SPECI CYQG 050324Z 27021G26KT 10SM -SHRA BKN014 OVC024 RMK SC6SC2=

CYQG;2006-01-05 04:00;METAR CYQG 050400Z 27020G26KT 15SM OVC018 05/02 A2966 RMK SC8 SLP047=

CYQG;2006-01-05 04:15;SPECI CYQG 050415Z 27015G20KT 15SM -SHRA OVC014 RMK SC8=

CYQG;2006-01-05 04:37;SPECI CYQG 050437Z 27017G25KT 15SM -SHRA OVC019 RMK SC8=

CYQG;2006-01-05 05:00;METAR CYQG 050500Z 27016G22KT 15SM -SHRA OVC018 04/02 A2967 RMK SC8 SLP050=

CYQG;2006-01-05 05:28;SPECI CYQG 050528Z 27020G26KT 15SM OVC021 RMK SC8=

CYQG;2006-01-05 06:00;METAR CYQG 050600Z 28019G26KT 15SM OVC021 04/01 A2967 RMK SC8 SLP051=

CYQG;2006-01-05 07:37;SPECI CYQG 050737Z 28018KT 15SM -SHRA OVC016 RMK SC8=

CYQG;2006-01-05 08:47;SPECI CYQG 050847Z 27016KT 15SM BKN015 OVC026 RMK SC6SC2=

CYQG;2006-01-05 09:00;METAR CYQG 050900Z 29015KT 15SM SCT015 OVC024 03/01 A2972 RMK SC3SC5 SLP068=

CYQG;2006-01-05 10:00;METAR CYQG 051000Z 28013G18KT 12SM -SHRA SCT014 OVC023 03/01 A2973 RMK SC3SC5 SLP071=

CYQG;2006-01-05 10:43;SPECI CYQG 051043Z 28012KT 15SM OVC016 RMK SC8=

CYQG;2006-01-05 12:00;METAR CYQG 051200Z 30009KT 15SM BKN015 OVC023 03/01 A2974 RMK SC6SC2 SLP077=

CYQG;2006-01-05 12:39;SPECI CYQG 051239Z 31010G15KT 15SM OVC013 RMK SC8=

CYQG;2006-01-05 13:00;METAR CYQG 051300Z 31009KT 15SM OVC013 03/00 A2977 RMK SC8 SLP084=

CYQG;2006-01-05 13:38;SPECI CYQG 051338Z 32009G15KT 15SM BKN020 OVC040 RMK SC6SC2=

CYQG;2006-01-05 14:00;METAR CYQG 051400Z 32010KT 15SM OVC016 03/01 A2978 RMK SC8 SLP090=

CYQG;2006-01-05 15:00;METAR CYQG 051500Z 32010KT 15SM OVC019 03/00 A2980 RMK SC8 SLP098=

CYQG;2006-01-05 16:00;METAR CYQG 051600Z 34010KT 15SM -SHRA BKN016 OVC021 03/00 A2981 RMK SC5SC3 SLP101=

CYQG;2006-01-05 16:35;SPECI CYQG 051635Z 34009KT 12SM -SHSN SCT016 OVC020 RMK SC4SC4=

CYQG;2006-01-05 18:00;METAR CYQG 051800Z 34011KT 10SM -SHRASN BKN015 OVC023 03/00 A2981 RMK SC5SC3 SLP099=

CYQG;2006-01-05 19:00;METAR CYQG 051900Z 34012G18KT 5SM -SHSN HZ BKN013 OVC022 02/00 A2981 RMK SC6SC2 SLP099=

CYQG;2006-01-05 20:15;SPECI CYQG 052015Z 34006KT 1SM -SN OVC008 RMK SN3SF5=

CYQG;2006-01-05 20:40;SPECI CYQG 052040Z 33008KT 2SM -SN OVC005 RMK SN2SF6=

CYQG;2006-01-05 20:53;SPECI CYQG 052053Z 33008KT 1 1/2SM -SN BKN007 OVC013 RMK SN2SF4SC2=

CYQG;2006-01-05 21:00;METAR CYQG 052100Z 33009KT 1SM -SHSN BKN007 OVC019 01/00 A2985 RMK SN3SF3SC2 SLP114=

CYQG;2006-01-05 21:14;SPECI CYQG 052114Z 34009KT 1 1/2SM -SHSN BKN008 OVC015 RMK SN2SF4SC2=

CYQG;2006-01-05 21:32;SPECI CYQG 052132Z 34005KT 2SM -SHSN BKN007 OVC013 RMK SN2SF3SC2=

CYQG;2006-01-05 21:44;SPECI CYQG 052144Z 35004KT 7SM -SHSN FEW009 BKN014 OVC039 RMK SF2SC2SC3=

CYQG;2006-01-05 22:00;METAR CYQG 052200Z 34004KT 8SM FEW008 SCT013 OVC022 01/00 A2987 RMK SF2SC2SC5 OCNL SHSN SLP120=

CYQG;2006-01-05 22:52;SPECI CYQG 052252Z 36007KT 12SM -SHSN SCT012 OVC022 RMK SC4SC4=

CYQG;2006-01-05 23:00;METAR CYQG 052300Z 35006KT 12SM -SHSN SCT012 OVC028 02/M00 A2988 RMK SC4SC4 SLP125=

CYQG;2006-01-05 23:22;SPECI CYQG 052322Z 33008KT 12SM SCT018 OVC032 RMK SC4SC4=

CYQG;2006-01-06 00:00;METAR CYQG 060000Z 35012KT 15SM OVC026 01/M03 A2991 RMK SC8 SLP135=

CYQG;2006-01-06 01:00;METAR CYQG 060100Z 35010G15KT 15SM OVC031 01/M05 A2992 RMK SC8 SLP139=

CYQG;2006-01-06 02:00;METAR CYQG 060200Z 35012G18KT 15SM -SHSN OVC023 M00/M04 A2993 RMK SC8 SLP142=

CYQG;2006-01-06 03:00;METAR CYQG 060300Z 33012G20KT 15SM -SHSN OVC023 M01/M05 A2994 RMK SC8 SLP145=

CYQG;2006-01-06 05:00;METAR CYQG 060500Z 32014KT 15SM -SHSN OVC026 M01/M07 A2995 RMK SC8 SLP150=

CYQG;2006-01-06 06:00;METAR CYQG 060600Z 34010G15KT 15SM -SHSN OVC028 M02/M06 A2996 RMK SC8 SLP152=

CYQG;2006-01-06 08:00;METAR CYQG 060800Z 34013G18KT 15SM -SHSN SCT020 OVC036 M03/M09 A2999 RMK SC3SC5 SLP162=

CYQG;2006-01-06 09:00;METAR CYQG 060900Z 34010KT 15SM FEW015 BKN037 M04/M08 A3000 RMK CF2SC3 OCNL SHSN SLP167=

CYQG;2006-01-06 10:00;METAR CYQG 061000Z 34012G17KT 15SM FEW015 FEW035 M05/M10 A3001 RMK CF1SC2 SLP169=

CYQG;2006-01-06 11:00;METAR CYQG 061100Z 35012G17KT 15SM FEW015 SCT035 M06/M11 A3002 RMK CF1SC3 SLP174=

CYQG;2006-01-06 12:00;METAR CYQG 061200Z 34009KT 15SM FEW015 FEW035 M06/M10 A3004 RMK CF1SC2 SLP180=

CYQG;2006-01-06 13:00;METAR CYQG 061300Z 34009KT 15SM -SHSN FEW008 BKN012 M06/M10 A3005 RMK CF1SC4 SLP184=

CYQG;2006-01-06 13:46;SPECI CYQG 061346Z 34012KT 15SM FEW020 RMK SC1=

CYQG;2006-01-06 14:00;METAR CYQG 061400Z 32011KT 15SM FEW020 M06/M11 A3006 RMK SC1 SLP187=

CYQG;2006-01-06 15:00;METAR CYQG 061500Z 35009KT 15SM FEW020 M06/M12 A3007 RMK SC1 SLP191=

CYQG;2006-01-06 16:00;METAR CYQG 061600Z 32012KT 15SM FEW020 FEW025 M05/M11 A3007 RMK CU1SC1 SLP192=

CYQG;2006-01-06 17:00;METAR CYQG 061700Z 32009KT 15SM FEW020 FEW025 M04/M11 A3004 RMK CU1SC1 SLP182=

CYQG;2006-01-06 18:00;METAR CYQG 061800Z 32009G15KT 15SM FEW020 BKN029 M04/M11 A3001 RMK SC1CU4 SLP173=

CYQG;2006-01-06 20:00;METAR CYQG 062000Z 30010KT 15SM FEW028 M03/M11 A3000 RMK SC1 SLP168=

CYQG;2006-01-06 21:00;METAR CYQG 062100Z 28011KT 15SM FEW030 SCT280 M02/M11 A3000 RMK SC1CI1 SLP169=

CYQG;2006-01-06 22:00;METAR CYQG 062200Z 28007KT 15SM FEW030 SCT280 M03/M11 A2999 RMK SC1CI1 SLP165=

CYQG;2006-01-06 23:00;METAR CYQG 062300Z 25005KT 15SM FEW040 BKN220 M03/M10 A2998 RMK SC1CI2 SLP161=

CYQG;2006-01-07 00:00;METAR CYQG 070000Z 21005KT 15SM FEW035 BKN220 M03/M09 A2996 RMK SC2CI3 SLP157=

CYQG;2006-01-07 01:00;METAR CYQG 070100Z 21006KT 15SM BKN220 M03/M08 A2995 RMK CI5 SLP151=

CYQG;2006-01-07 02:00;METAR CYQG 070200Z 23008KT 15SM BKN150 BKN220 M03/M08 A2994 RMK AC5CI1 SLP148=

CYQG;2006-01-07 03:00;METAR CYQG 070300Z 23009KT 15SM BKN029 BKN180 M03/M08 A2992 RMK SC5AC2 SLP142=

CYQG;2006-01-07 04:00;METAR CYQG 070400Z 22008KT 15SM BKN028 M03/M08 A2990 RMK SC7 SLP134=

CYQG;2006-01-07 06:00;METAR CYQG 070600Z 23012KT 15SM FEW030 OVC070 M02/M07 A2984 RMK SC2AC6 SLP114=

CYQG;2006-01-07 08:00;METAR CYQG 070800Z 22015KT 15SM BKN022 OVC080 M01/M06 A2980 RMK SC5AC3 SLP099=

CYQG;2006-01-07 09:00;METAR CYQG 070900Z 22012G17KT 15SM BKN019 OVC080 M01/M06 A2977 RMK SC6AC2 SLP088=

CYQG;2006-01-07 11:00;METAR CYQG 071100Z 23012G18KT 15SM OVC020 M01/M05 A2973 RMK SC8 SLP077=

CYQG;2006-01-07 11:46;SPECI CYQG 071146Z 22013KT 12SM -SHSN OVC019 RMK SC8=

CYQG;2006-01-07 12:00;METAR CYQG 071200Z 23013KT 15SM -SHSN OVC021 M01/M05 A2973 RMK SC8 SLP076=

CYQG;2006-01-07 12:33;SPECI CYQG 071233Z 23014KT 5SM -SHGS FEW011 OVC017 RMK SC2SC6=

CYQG;2006-01-07 13:00;METAR CYQG 071300Z 22011KT 4SM -SHGS SCT012 OVC018 M01/M03 A2973 RMK SC3SC5 SLP075=

CYQG;2006-01-07 14:00;METAR CYQG 071400Z 23010KT 3SM -SHGS FEW010 OVC015 M01/M02 A2974 RMK SC2SC6 SLP079=

CYQG;2006-01-07 14:25;SPECI CYQG 071425Z 11010KT 2 1/4SM -SN -FZRA BKN008 OVC015 RMK SN1SF6SC2=

CYQG;2006-01-07 14:46;SPECI CYQG 071446Z 22012KT 2 1/4SM -SN BKN008 OVC014 RMK SN1SF5SC2=

CYQG;2006-01-07 15:00;METAR CYQG 071500Z 22013KT 2 1/2SM -SN BKN009 OVC041 M01/M02 A2974 RMK SN1SF6SC2 SLP077=

CYQG;2006-01-07 15:13;SPECI CYQG 071513Z 22013KT 3SM -SN BKN012 OVC040 RMK SC6SC2=

CYQG;2006-01-07 16:00;METAR CYQG 071600Z 23013KT 4SM -SN BKN011 OVC039 M00/M02 A2973 RMK SC6SC2 SLP074=

CYQG;2006-01-07 16:27;SPECI CYQG 071627Z 22011KT 5SM -SN SCT013 OVC039 RMK SC3SC5=

CYQG;2006-01-07 17:00;METAR CYQG 071700Z 23012KT 5SM -SN FEW014 OVC028 M00/M02 A2970 RMK SC2SC6 SLP065=

CYQG;2006-01-07 18:00;METAR CYQG 071800Z 22010KT 6SM -SN FEW010 OVC018 00/M02 A2967 RMK SC2SC6 SLP055=

CYQG;2006-01-07 19:00;METAR CYQG 071900Z 23013KT 6SM -SN SCT013 OVC032 01/M02 A2966 RMK SC4SC4 SLP050=

CYQG;2006-01-07 19:34;SPECI CYQG 071934Z 23011KT 6SM -SN BR BKN012 OVC031 RMK SC6SC2=

CYQG;2006-01-07 20:00;METAR CYQG 072000Z 23009KT 6SM -SN BR BKN012 OVC030 00/M02 A2967 RMK SC6SC2 SLP054=

CYQG;2006-01-07 20:20;SPECI CYQG 072020Z 22009KT 4SM -RA BR OVC011 RMK SC8=

CYQG;2006-01-07 20:48;SPECI CYQG 072048Z 23009KT 2 1/4SM -RA BR OVC010 RMK FG1SF7=

CYQG;2006-01-07 21:00;METAR CYQG 072100Z 23010KT 2SM -RA BR OVC010 00/M01 A2969 RMK FG2SF6 SLP060=

CYQG;2006-01-07 21:42;SPECI CYQG 072142Z 23008KT 3SM -SN BKN013 OVC023 RMK SC6SC2=

CYQG;2006-01-07 22:00;METAR CYQG 072200Z 23009KT 3SM -SN SCT010 OVC018 00/M01 A2971 RMK SC3SC5 SLP066=

CYQG;2006-01-07 23:00;METAR CYQG 072300Z 23009KT 4SM -SN FEW008 SCT011 OVC023 00/M01 A2972 RMK SF2SC2SC4 SLP072=

CYQG;2006-01-07 23:39;SPECI CYQG 072339Z 24008KT 4SM -SN BKN012 OVC023 RMK SC6SC2=

CYQG;2006-01-08 00:37;SPECI CYQG 080037Z 25009KT 4SM -SN SCT010 OVC055 RMK SC3SC5=

CYQG;2006-01-08 02:00;METAR CYQG 080200Z 26008KT 5SM -SN FEW013 OVC051 01/M01 A2978 RMK SC2SC6 SLP091=

CYQG;2006-01-08 03:00;METAR CYQG 080300Z 27010KT 5SM -SN BKN012 OVC051 01/M01 A2979 RMK SC5SC3 SLP095=

CYQG;2006-01-08 03:10;SPECI CYQG 080310Z 28009KT 5SM -SN SCT012 BKN029 OVC042 RMK SC3SC4SC1=

CYQG;2006-01-08 03:51;SPECI CYQG 080351Z 26006KT 7SM FEW029 OVC051 RMK SC2SC6=

CYQG;2006-01-08 04:00;METAR CYQG 080400Z 26005KT 6SM BR FEW029 OVC049 01/M01 A2980 RMK SC2SC6 SLP099=

CYQG;2006-01-08 05:00;METAR CYQG 080500Z 26005KT 6SM BR OVC046 01/M01 A2982 RMK SC8 SLP104=

CYQG;2006-01-08 06:00;METAR CYQG 080600Z 26005KT 6SM BR OVC044 01/M01 A2983 RMK SC8 SLP108=

CYQG;2006-01-08 07:00;METAR CYQG 080700Z 25005KT 6SM BR OVC043 01/M01 A2986 RMK SC8 SLP118=

CYQG;2006-01-08 09:00;METAR CYQG 080900Z 24003KT 6SM BR OVC041 01/M01 A2989 RMK SC8 SLP127=

CYQG;2006-01-08 10:00;METAR CYQG 081000Z 24002KT 6SM BR BKN039 00/M01 A2990 RMK SC7 SLP131=

CYQG;2006-01-08 11:00;METAR CYQG 081100Z 09002KT 6SM BR BKN038 M00/M01 A2990 RMK SC7 SLP131=

CYQG;2006-01-08 12:00;METAR CYQG 081200Z 15004KT 4SM BR BKN037 M00/M01 A2990 RMK SC7 SLP134=

CYQG;2006-01-08 13:00;METAR CYQG 081300Z 13004KT 5SM BR FEW035 BKN160 M01/M02 A2990 RMK SC2AS6 SLP134=

CYQG;2006-01-08 15:00;METAR CYQG 081500Z 13007KT 5SM BR BKN035 OVC170 01/M01 A2991 RMK SC6AS2 SLP134=

CYQG;2006-01-08 16:00;METAR CYQG 081600Z 10011KT 8SM FEW035 OVC120 02/M01 A2987 RMK SC2AS5 SLP122=

CYQG;2006-01-08 17:00;METAR CYQG 081700Z 11013KT 12SM FEW035 BKN160 03/M02 A2983 RMK SC2AC4 SLP107=

CYQG;2006-01-08 18:00;METAR CYQG 081800Z 13011KT 15SM FEW035 BKN170 03/M01 A2980 RMK SC1AC5 SLP099=

CYQG;2006-01-08 19:00;METAR CYQG 081900Z 11011G17KT 15SM BKN180 04/M00 A2973 RMK AC5 PRESFR SLP073=

CYQG;2006-01-08 20:00;METAR CYQG 082000Z 10017KT 15SM FEW180 04/M00 A2967 RMK AC1 SLP055=

CYQG;2006-01-08 21:00;METAR CYQG 082100Z 10015KT 15SM FEW015 FEW250 03/M00 A2967 RMK CF1CI1 SLP053=

CYQG;2006-01-08 22:00;METAR CYQG 082200Z 10012KT 10SM FEW100 FEW270 02/M01 A2967 RMK AC1CI2 SLP055=

CYQG;2006-01-09 00:00;METAR CYQG 090000Z 11007KT 9SM BKN070 02/M00 A2965 RMK AC7 SLP048=

CYQG;2006-01-09 02:00;METAR CYQG 090200Z 09006KT 10SM BKN068 02/M00 A2961 RMK AC6 SLP035=

CYQG;2006-01-09 03:00;METAR CYQG 090300Z 09005KT 12SM FEW068 02/M00 A2960 RMK AC2 SLP030=

CYQG;2006-01-09 04:00;METAR CYQG 090400Z 10004KT 12SM FEW067 FEW270 01/M01 A2958 RMK AC2CI1 SLP025=

CYQG;2006-01-09 05:00;METAR CYQG 090500Z 01004KT 12SM FEW067 01/M01 A2958 RMK AC2 SLP022=

CYQG;2006-01-09 06:00;METAR CYQG 090600Z 00000KT 12SM FEW070 00/M01 A2957 RMK AC2 SLP018=

CYQG;2006-01-09 09:00;METAR CYQG 090900Z 29005KT 6SM BR BKN043 01/M00 A2967 RMK SC6 SLP054=

CYQG;2006-01-09 10:00;METAR CYQG 091000Z 30009KT 6SM BR BKN051 01/M00 A2972 RMK SC7 PRESRR SLP071=

CYQG;2006-01-09 11:00;METAR CYQG 091100Z 29010KT 7SM BKN046 02/M01 A2979 RMK SC7 PRESRR SLP093=

CYQG;2006-01-09 11:51;SPECI CYQG 091151Z 30016G21KT 7SM BKN014 OVC045 RMK SC6SC2=

CYQG;2006-01-09 12:00;METAR CYQG 091200Z 30015G21KT 7SM BKN014 OVC045 02/M01 A2986 RMK SC7SC1 PRESRR SLP117=

CYQG;2006-01-09 13:00;METAR CYQG 091300Z 32011G18KT 7SM OVC014 02/M01 A2992 RMK SC8 SLP136=

CYQG;2006-01-09 14:22;SPECI CYQG 091422Z 28009KT 10SM OVC018 RMK SC8=

CYQG;2006-01-09 15:00;METAR CYQG 091500Z 30009KT 12SM OVC018 02/M02 A3005 RMK SC8 PRESRR SLP184=

CYQG;2006-01-09 16:00;METAR CYQG 091600Z 31008KT 12SM OVC019 03/M02 A3009 RMK SC8 SLP196=

CYQG;2006-01-09 17:00;METAR CYQG 091700Z 29012KT 12SM OVC020 03/M01 A3010 RMK SC8 SLP199=

CYQG;2006-01-09 18:00;METAR CYQG 091800Z 31008KT 12SM OVC012 03/M02 A3012 RMK SC8 SLP207=

CYQG;2006-01-09 19:00;METAR CYQG 091900Z 29010KT 15SM OVC021 03/M02 A3014 RMK SC8 SLP215=

CYQG;2006-01-09 20:00;METAR CYQG 092000Z 29009KT 15SM OVC025 04/M01 A3017 RMK SC8 SLP223=

CYQG;2006-01-09 21:00;METAR CYQG 092100Z 29010KT 15SM BKN028 OVC073 04/M01 A3020 RMK SC6AC2 SLP234=

CYQG;2006-01-09 22:00;METAR CYQG 092200Z 29008KT 12SM OVC023 04/M01 A3023 RMK SC8 SLP245=

CYQG;2006-01-09 23:00;METAR CYQG 092300Z 28009KT 12SM OVC021 04/M01 A3025 RMK SC8 SLP250=

CYQG;2006-01-10 00:00;METAR CYQG 100000Z 28009KT 12SM OVC027 03/M01 A3028 RMK SC8 SLP261=

CYQG;2006-01-10 01:46;SPECI CYQG 100146Z 29006KT 15SM -SHRA FEW020 OVC030 RMK CU2SC6=

CYQG;2006-01-10 03:00;METAR CYQG 100300Z 29007KT 15SM FEW020 OVC032 03/M03 A3034 RMK SF1SC7 SLP281=

CYQG;2006-01-10 04:00;METAR CYQG 100400Z 31009KT 15SM FEW023 OVC032 03/M03 A3036 RMK CU2SC6 SLP288=

CYQG;2006-01-10 05:00;METAR CYQG 100500Z 30011KT 15SM OVC034 03/M04 A3038 RMK SC8 SLP294=

CYQG;2006-01-10 06:00;METAR CYQG 100600Z 30009KT 15SM OVC036 02/M05 A3038 RMK SC8 SLP296=

CYQG;2006-01-10 08:00;METAR CYQG 100800Z 31003KT 15SM OVC037 02/M05 A3041 RMK SC8 SLP305=

CYQG;2006-01-10 09:00;METAR CYQG 100900Z 29002KT 15SM BKN035 02/M05 A3041 RMK SC7 SLP304=

CYQG;2006-01-10 10:00;METAR CYQG 101000Z 23003KT 15SM BKN034 02/M05 A3040 RMK SC7 SLP301=

CYQG;2006-01-10 11:00;METAR CYQG 101100Z 24004KT 15SM SCT034 01/M05 A3040 RMK SC4 SLP300=

CYQG;2006-01-10 12:00;METAR CYQG 101200Z 21003KT 15SM FEW035 M01/M05 A3040 RMK SC2 SLP302=

CYQG;2006-01-10 13:00;METAR CYQG 101300Z 18003KT 15SM FEW032 M01/M04 A3044 RMK SC2 SLP316=

CYQG;2006-01-10 14:00;METAR CYQG 101400Z 14003KT 15SM FEW032 SCT260 00/M04 A3044 RMK SC1CI1 SLP315=

CYQG;2006-01-10 15:00;METAR CYQG 101500Z 16004KT 15SM FEW032 FEW260 03/M04 A3044 RMK SC1CI1 SLP314=

CYQG;2006-01-10 16:00;METAR CYQG 101600Z 17010KT 15SM FEW028 FEW270 03/M04 A3044 RMK CF1CI1 SLP313=

CYQG;2006-01-10 17:00;METAR CYQG 101700Z 18012KT 15SM FEW028 SCT270 03/M03 A3039 RMK SC2CI1 SLP298=

CYQG;2006-01-10 18:00;METAR CYQG 101800Z 18010KT 15SM FEW026 BKN270 02/M04 A3034 RMK SC1CI2 SLP282=

CYQG;2006-01-10 20:00;METAR CYQG 102000Z 18007KT 15SM FEW025 OVC230 03/M03 A3030 RMK SC1CS6 SLP268=

CYQG;2006-01-10 21:00;METAR CYQG 102100Z 16005KT 15SM FEW070 OVC210 03/M03 A3027 RMK AC2CS5 SLP259=

CYQG;2006-01-10 22:00;METAR CYQG 102200Z 14005KT 15SM BKN100 OVC210 03/M02 A3025 RMK AC6CS2 SLP250=

CYQG;2006-01-10 23:00;METAR CYQG 102300Z 09004KT 12SM OVC086 02/M02 A3022 RMK AC7 SLP240=

CYQG;2006-01-10 23:45;SPECI CYQG 102345Z 08007KT 12SM -SHRA OVC070 RMK AC8=

CYQG;2006-01-11 00:00;METAR CYQG 110000Z 08006KT 12SM OVC070 02/M02 A3020 RMK AC8 SLP233=

CYQG;2006-01-11 01:00;METAR CYQG 110100Z 09006KT 12SM -SHRA OVC035 02/M01 A3019 RMK SC8 SLP231=

CYQG;2006-01-11 03:00;METAR CYQG 110300Z 08007KT 6SM -RA OVC020 01/M00 A3013 RMK SC8 SLP209=

CYQG;2006-01-11 04:00;METAR CYQG 110400Z 08006KT 6SM -RA OVC017 02/00 A3010 RMK SC8 SLP199=

CYQG;2006-01-11 05:32;SPECI CYQG 110532Z 07005KT 4SM BR BKN018 OVC041 RMK SC6SC2=

CYQG;2006-01-11 05:50;SPECI CYQG 110550Z 07005KT 4SM -RA BR OVC026 RMK SC8 RA INTMT=

CYQG;2006-01-11 06:00;METAR CYQG 110600Z 06005KT 3SM -RA BR OVC029 02/02 A3003 RMK SC8 RA INTMT SLP176=

CYQG;2006-01-11 07:30;SPECI CYQG 110730Z 12006KT 4SM BR OVC015 RMK SC8=

CYQG;2006-01-11 08:00;METAR CYQG 110800Z 11004KT 4SM BR OVC015 03/03 A2995 RMK SC8 SLP151=

CYQG;2006-01-11 08:17;SPECI CYQG 110817Z 12004KT 4SM BR OVC013 RMK SC8=

CYQG;2006-01-11 09:00;METAR CYQG 110900Z 11004KT 4SM BR OVC013 04/03 A2992 RMK SC8 SLP139=

CYQG;2006-01-11 10:00;METAR CYQG 111000Z 19005KT 4SM BR FEW015 BKN076 BKN180 04/04 A2992 RMK SC2AC3AC2 SLP137=

CYQG;2006-01-11 11:00;METAR CYQG 111100Z 21011KT 4SM BR FEW015 BKN055 BKN140 06/05 A2989 RMK SC2SC3AC2 SLP127=

CYQG;2006-01-11 12:00;METAR CYQG 111200Z 19009KT 4SM BR FEW015 SCT060 BKN140 06/05 A2987 RMK SC2SC2AC1 SLP122=

CYQG;2006-01-11 13:00;METAR CYQG 111300Z 20009KT 4SM BR BKN049 OVC060 07/06 A2986 RMK SC7SC1 SLP119=

CYQG;2006-01-11 13:23;SPECI CYQG 111323Z 20009KT 4SM -SHRA BR SCT062 BKN081 BKN091 RMK SC3AC2AC2=

CYQG;2006-01-11 13:45;SPECI CYQG 111345Z 20008KT 5SM BR BKN047 BKN072 RMK SC5AC2=

CYQG;2006-01-11 14:00;METAR CYQG 111400Z 20010KT 5SM BR FEW040 OVC044 08/06 A2986 RMK SC1SC7 SLP118=

CYQG;2006-01-11 15:00;METAR CYQG 111500Z 19014KT 8SM FEW020 FEW022 BKN025 09/07 A2984 RMK CU1SC1SC6 SLP111=

CYQG;2006-01-11 15:16;SPECI CYQG 111516Z 19013KT 5SM -SHRA BR FEW016 BKN028 RMK CU2SC6=

CYQG;2006-01-11 16:00;METAR CYQG 111600Z 20017G25KT 5SM -SHRA BR FEW015 OVC030 09/07 A2983 RMK SC2SC5 SLP106=

CYQG;2006-01-11 16:26;SPECI CYQG 111626Z 22012G18KT 6SM BR SCT016 OVC024 RMK SC4SC4=

CYQG;2006-01-11 17:00;METAR CYQG 111700Z 23013G19KT 7SM SCT050 BKN068 OVC078 08/06 A2980 RMK CF3AC4AS1 CU ASOCTD SLP097=

CYQG;2006-01-11 18:00;METAR CYQG 111800Z 24017KT 10SM FEW015 BKN020 OVC049 08/05 A2979 RMK CF2SC5SC2 SLP092=

CYQG;2006-01-11 20:00;METAR CYQG 112000Z 24020G25KT 15SM BKN024 07/03 A2981 RMK SC7 SLP098=

CYQG;2006-01-11 21:00;METAR CYQG 112100Z 24017KT 15SM BKN023 BKN029 06/00 A2983 RMK SC5SC2 SLP108=

CYQG;2006-01-11 22:00;METAR CYQG 112200Z 24014KT 15SM OVC020 05/01 A2984 RMK SC8 SLP109=

CYQG;2006-01-11 23:00;METAR CYQG 112300Z 24018KT 15SM SCT012 OVC015 04/01 A2986 RMK CU3SC4 SLP116=

CYQG;2006-01-11 23:03;SPECI CYQG 112303Z 24016G24KT 15SM BKN013 OVC016 RMK SC6SC2=

CYQG;2006-01-12 00:00;METAR CYQG 120000Z 24016KT 15SM OVC011 04/01 A2987 RMK SC8 SLP119=

CYQG;2006-01-12 01:00;METAR CYQG 120100Z 24014G20KT 15SM OVC010 04/02 A2987 RMK SC8 SLP120=

CYQG;2006-01-12 03:00;METAR CYQG 120300Z 23012G20KT 15SM OVC010 04/02 A2986 RMK SC8 SLP117=

CYQG;2006-01-12 03:50;SPECI CYQG 120350Z 23017G22KT 15SM OVC009 RMK SC8=

CYQG;2006-01-12 04:00;METAR CYQG 120400Z 23016G21KT 15SM SCT009 OVC013 04/02 A2987 RMK CU4SC4 SLP118=

CYQG;2006-01-12 05:00;METAR CYQG 120500Z 24012G19KT 15SM OVC015 04/02 A2988 RMK SC8 SLP122=

CYQG;2006-01-12 06:00;METAR CYQG 120600Z 24006KT 15SM BKN015 03/01 A2986 RMK SC5 SLP117=

CYQG;2006-01-12 08:00;METAR CYQG 120800Z 22008KT 15SM FEW020 02/01 A2985 RMK SC1 SLP112=

CYQG;2006-01-12 09:00;METAR CYQG 120900Z 22007KT 15SM SKC 02/01 A2984 RMK SLP109=

CYQG;2006-01-12 10:00;METAR CYQG 121000Z 22005KT 15SM FEW160 02/00 A2983 RMK AC1 SLP107=

CYQG;2006-01-12 11:00;METAR CYQG 121100Z 23006KT 15SM SKC 02/M00 A2983 RMK SLP108=

CYQG;2006-01-12 12:00;METAR CYQG 121200Z 22006KT 15SM FEW240 02/M00 A2985 RMK CI2 SLP114=

CYQG;2006-01-12 13:00;METAR CYQG 121300Z 21006KT 12SM BKN240 02/M00 A2986 RMK CI2 SLP119=

CYQG;2006-01-12 14:00;METAR CYQG 121400Z 22008KT 15SM BKN240 03/00 A2987 RMK CI2 SLP121=

CYQG;2006-01-12 16:00;METAR CYQG 121600Z 22014KT 15SM BKN240 06/01 A2986 RMK CI3 SLP117=

CYQG;2006-01-12 17:00;METAR CYQG 121700Z 22012KT 15SM SCT190 BKN240 08/02 A2984 RMK AC3CI1 SLP110=

CYQG;2006-01-12 18:00;METAR CYQG 121800Z 22011KT 15SM SCT240 09/03 A2981 RMK CI2 SLP099=

CYQG;2006-01-12 19:00;METAR CYQG 121900Z 21012KT 15SM BKN240 09/03 A2979 RMK CI2 SLP092=

CYQG;2006-01-12 20:00;METAR CYQG 122000Z 21014KT 15SM SCT260 10/03 A2979 RMK CI2 CONTRAILS SLP093=

CYQG;2006-01-12 21:00;METAR CYQG 122100Z 20011G16KT 15SM SCT270 11/04 A2979 RMK CI1 CONTRAILS SLP093=

CYQG;2006-01-12 22:00;METAR CYQG 122200Z 19008KT 15SM FEW270 09/04 A2979 RMK CC1 CONTRAILS SLP092=

CYQG;2006-01-12 23:00;METAR CYQG 122300Z 20010KT 15SM FEW270 08/03 A2979 RMK CI1 CONTRAILS SLP091=

CYQG;2006-01-13 00:00;METAR CYQG 130000Z 20013KT 15SM SKC 08/02 A2980 RMK SLP095=

CYQG;2006-01-13 01:00;METAR CYQG 130100Z 20013KT 15SM SKC 08/02 A2979 RMK SLP092=

CYQG;2006-01-13 02:00;METAR CYQG 130200Z 20013KT 15SM SKC 07/02 A2978 RMK SLP090=

CYQG;2006-01-13 04:00;METAR CYQG 130400Z 19012KT 15SM SKC 06/01 A2975 RMK SLP078=

CYQG;2006-01-13 06:00;METAR CYQG 130600Z 20010KT 15SM FEW270 06/01 A2973 RMK CI1 SLP070=

CYQG;2006-01-13 09:00;METAR CYQG 130900Z 20011KT 15SM BKN028 OVC043 09/03 A2968 RMK SC6SC2 SLP053=

CYQG;2006-01-13 10:00;METAR CYQG 131000Z 21012KT 15SM BKN026 OVC042 08/03 A2966 RMK SC6SC2 SLP045=

CYQG;2006-01-13 11:00;METAR CYQG 131100Z 20011KT 15SM OVC028 08/03 A2965 RMK SC8 SLP042=

CYQG;2006-01-13 12:00;METAR CYQG 131200Z 20009KT 15SM OVC024 08/03 A2966 RMK SC8 SLP046=

CYQG;2006-01-13 13:00;METAR CYQG 131300Z 20010KT 15SM OVC030 08/04 A2964 RMK SC8 SLP040=

CYQG;2006-01-13 14:00;METAR CYQG 131400Z 20007KT 15SM FEW030 OVC056 08/04 A2963 RMK SC2SC6 SLP036=

CYQG;2006-01-13 15:00;METAR CYQG 131500Z 20011G16KT 10SM -DZ SCT035 OVC048 09/05 A2964 RMK SC3SC5 SLP040=

CYQG;2006-01-13 15:06;SPECI CYQG 131506Z 19012KT 6SM -RA BR FEW035 OVC048 RMK SC2SC6=

CYQG;2006-01-13 16:00;METAR CYQG 131600Z 18011G16KT 9SM -RA SCT015 OVC045 08/07 A2960 RMK SC4SC4 SLP026=

CYQG;2006-01-13 16:15;SPECI CYQG 131615Z 18011KT 10SM BKN021 OVC045 RMK SC6SC2=

CYQG;2006-01-13 16:33;SPECI CYQG 131633Z 20011G16KT 5SM -RA BR BKN035 OVC050 RMK SC6SC2=

CYQG;2006-01-13 17:00;METAR CYQG 131700Z 19011KT 6SM -RA BR SCT040 OVC076 09/08 A2955 RMK SC4AC4 SLP011=

CYQG;2006-01-13 18:36;SPECI CYQG 131836Z 16007KT 15SM BKN027 OVC050 RMK SC6SC2=

CYQG;2006-01-13 19:00;METAR CYQG 131900Z 17007KT 15SM BKN029 OVC050 09/07 A2946 RMK SC7SC1 SLP979=

CYQG;2006-01-13 20:00;METAR CYQG 132000Z 18010KT 15SM OVC032 10/06 A2943 RMK SC8 SLP970=

CYQG;2006-01-13 20:13;SPECI CYQG 132013Z 18010KT 15SM -SHRA OVC032 RMK SC8=

CYQG;2006-01-13 22:00;METAR CYQG 132200Z 22011KT 15SM -DZ OVC021 11/07 A2945 RMK SC8 SLP974=

CYQG;2006-01-13 22:26;SPECI CYQG 132226Z 21012KT 15SM -RA FEW019 OVC029 RMK SC2SC6=

CYQG;2006-01-13 23:00;METAR CYQG 132300Z 21011G16KT 15SM -RA BKN026 OVC035 10/08 A2945 RMK SC6SC2 SLP975=

CYQG;2006-01-14 00:00;METAR CYQG 140000Z 20008KT 10SM -RA SCT037 OVC047 09/08 A2945 RMK SC3SC5 SLP974=

CYQG;2006-01-14 00:37;SPECI CYQG 140037Z 19007KT 6SM BR SCT020 OVC078 RMK SC3AC5=

CYQG;2006-01-14 00:42;SPECI CYQG 140042Z 19006KT 5SM -RA BR FEW020 SCT048 OVC074 RMK SC2SC2AC4=

CYQG;2006-01-14 01:00;METAR CYQG 140100Z 20006KT 5SM -RA BR BKN043 OVC074 09/08 A2943 RMK SC6AC2 SLP968=

CYQG;2006-01-14 01:52;SPECI CYQG 140152Z 33016KT 4SM -RA BR BKN005 OVC020 RMK SF5SC3=

CYQG;2006-01-14 02:00;METAR CYQG 140200Z 34026KT 4SM -RA BR BKN006 OVC011 05/04 A2944 RMK SF5SC3 SLP971=

CYQG;2006-01-14 02:33;SPECI CYQG 140233Z 36019G24KT 5SM -RA BR BKN011 OVC017 RMK SC6SC2=

CYQG;2006-01-14 03:00;METAR CYQG 140300Z 36016G21KT 5SM -RA BR BKN009 OVC019 04/03 A2946 RMK SF5SC3 SLP978=

CYQG;2006-01-14 03:27;SPECI CYQG 140327Z 36020G25KT 8SM -RA OVC017 RMK SC8=

CYQG;2006-01-14 03:44;SPECI CYQG 140344Z 36017G22KT 8SM -RA BKN012 OVC017 RMK SC5SC3=

CYQG;2006-01-14 04:00;METAR CYQG 140400Z 35015G22KT 8SM -RA SCT009 OVC013 02/01 A2949 RMK SF4SC4 SLP991=

CYQG;2006-01-14 04:40;SPECI CYQG 140440Z 35018G25KT 5SM -RASN OVC013 RMK SC8=

CYQG;2006-01-14 05:00;METAR CYQG 140500Z 36014G21KT 5SM -RASN OVC013 02/01 A2951 RMK SC8 SLP995=

CYQG;2006-01-14 07:00;METAR CYQG 140700Z 34015G26KT 5SM -RASN BKN014 OVC021 01/M00 A2953 RMK SC6SC2 SLP005=

CYQG;2006-01-14 08:00;METAR CYQG 140800Z 34017G26KT 3SM -SN OVC016 00/M01 A2957 RMK SC8 SLP016=

CYQG;2006-01-14 08:17;SPECI CYQG 140817Z 34019G29KT 2 1/2SM -SN OVC015 RMK SC8=

CYQG;2006-01-14 09:00;METAR CYQG 140900Z 33020G26KT 2 1/2SM -SN SCT014 OVC023 00/M01 A2959 RMK SC3SC5 SLP026=

CYQG;2006-01-14 10:00;METAR CYQG 141000Z 34020G27KT 2 1/2SM -SN SCT014 OVC020 M00/M02 A2963 RMK SC3SC5 /S01/ SLP039=

CYQG;2006-01-14 10:28;SPECI CYQG 141028Z 34023G30KT 4SM -SN OVC017 RMK SC8=

CYQG;2006-01-14 11:00;METAR CYQG 141100Z 34017G28KT 12SM -SN OVC017 M00/M03 A2967 RMK SC8 SLP052=

CYQG;2006-01-14 11:46;SPECI CYQG 141146Z 34024G31KT 15SM OVC019 RMK SC8=

CYQG;2006-01-14 12:00;METAR CYQG 141200Z 34021G29KT 15SM OVC022 M01/M04 A2973 RMK SC8 PRESRR SLP072=

CYQG;2006-01-14 13:00;METAR CYQG 141300Z 34020G29KT 15SM BKN034 M02/M06 A2977 RMK SC7 SLP086=

CYQG;2006-01-14 14:00;METAR CYQG 141400Z 35028G35KT 15SM BKN031 M02/M07 A2982 RMK SC7 SLP101=

CYQG;2006-01-14 15:00;METAR CYQG 141500Z 34023G32KT 15SM BKN027 M01/M07 A2986 RMK SC7 SLP117=

CYQG;2006-01-14 16:00;METAR CYQG 141600Z 35019G31KT 15SM BKN027 M02/M07 A2989 RMK SC7 SLP129=

CYQG;2006-01-14 17:00;METAR CYQG 141700Z 33017G24KT 15SM BKN025 M02/M07 A2991 RMK SC7 SLP134=

CYQG;2006-01-14 18:00;METAR CYQG 141800Z 34018G26KT 15SM BKN026 M02/M07 A2992 RMK SC7 SLP139=

CYQG;2006-01-14 20:00;METAR CYQG 142000Z 34018G24KT 15SM BKN028 M01/M07 A2997 RMK SC7 SLP156=

CYQG;2006-01-14 21:00;METAR CYQG 142100Z 33018KT 15SM BKN027 M02/M08 A3000 RMK SC5 SLP167=

CYQG;2006-01-14 22:00;METAR CYQG 142200Z 35011G16KT 15SM FEW028 M02/M08 A3001 RMK CF2 SLP172=

CYQG;2006-01-14 23:00;METAR CYQG 142300Z 35009KT 15SM FEW028 M02/M09 A3004 RMK CF1 SLP182=

CYQG;2006-01-15 00:00;METAR CYQG 150000Z 33009KT 15SM FEW028 M02/M09 A3005 RMK CF1 SLP186=

CYQG;2006-01-15 02:00;METAR CYQG 150200Z 36009KT 15SM FEW025 FEW050 M03/M09 A3007 RMK CF1SC1 SLP193=

CYQG;2006-01-15 03:00;METAR CYQG 150300Z 02009KT 15SM FEW050 M03/M10 A3007 RMK SC1 SLP191=

CYQG;2006-01-15 04:00;METAR CYQG 150400Z 36005KT 15SM FEW050 M04/M10 A3007 RMK SC1 SLP193=

CYQG;2006-01-15 05:00;METAR CYQG 150500Z 33006KT 15SM SKC M04/M10 A3009 RMK SLP198=

CYQG;2006-01-15 06:00;METAR CYQG 150600Z 32006KT 15SM SKC M04/M10 A3009 RMK SLP199=

CYQG;2006-01-15 10:00;METAR CYQG 151000Z 35006KT 15SM SCT110 M05/M10 A3009 RMK AC3 SLP198=

CYQG;2006-01-15 11:00;METAR CYQG 151100Z 32006KT 15SM BKN110 M04/M09 A3011 RMK AC6 SLP204=

CYQG;2006-01-15 12:00;METAR CYQG 151200Z 32004KT 15SM FEW110 M05/M09 A3011 RMK AC2 SLP204=

CYQG;2006-01-15 13:00;METAR CYQG 151300Z 34002KT 15SM FEW110 M05/M10 A3010 RMK AC2 SLP203=

CYQG;2006-01-15 14:00;METAR CYQG 151400Z 35002KT 15SM BKN083 M04/M09 A3010 RMK AC6 SLP203=

CYQG;2006-01-15 15:00;METAR CYQG 151500Z 33003KT 15SM SCT080 BKN150 M03/M09 A3012 RMK AC3AC2 SLP208=

CYQG;2006-01-15 16:00;METAR CYQG 151600Z 30002KT 15SM BKN076 BKN150 M02/M10 A3011 RMK AC5AC1 SLP205=

CYQG;2006-01-15 17:00;METAR CYQG 151700Z 00000KT 15SM FEW025 BKN080 BKN120 M01/M15 A3009 RMK CU1AC5AC2 SLP199=

CYQG;2006-01-15 18:00;METAR CYQG 151800Z 10003KT 15SM FEW025 BKN100 M01/M14 A3005 RMK CU1AC6 SLP186=

CYQG;2006-01-15 19:00;METAR CYQG 151900Z 16003KT 15SM FEW030 BKN090 M01/M13 A3001 RMK SC1AC6 SLP173=

CYQG;2006-01-15 20:00;METAR CYQG 152000Z 19002KT 15SM FEW030 BKN050 BKN090 M01/M14 A3003 RMK SC1SC4AC2 SLP177=

CYQG;2006-01-15 21:00;METAR CYQG 152100Z 14003KT 15SM FEW030 SCT047 BKN110 M01/M15 A3002 RMK SC1SC4AC3 SLP176=

CYQG;2006-01-15 22:00;METAR CYQG 152200Z 22006KT 15SM FEW030 BKN047 BKN070 M02/M12 A3003 RMK SC1SC5AC2 SLP177=

CYQG;2006-01-16 00:00;METAR CYQG 160000Z 10006KT 15SM FEW045 BKN160 M02/M09 A3000 RMK SC2AC5 SLP167=

CYQG;2006-01-16 02:00;METAR CYQG 160200Z 10004KT 15SM BKN210 M03/M08 A2998 RMK CI5 SLP160=

CYQG;2006-01-16 03:00;METAR CYQG 160300Z 09005KT 15SM BKN240 M03/M08 A2996 RMK CI3 SLP156=

CYQG;2006-01-16 04:00;METAR CYQG 160400Z 11005KT 15SM BKN230 M04/M08 A2995 RMK CI3 SLP152=

CYQG;2006-01-16 05:00;METAR CYQG 160500Z 09006KT 15SM FEW180 BKN230 M04/M08 A2995 RMK AC1CI2 SLP151=

CYQG;2006-01-16 07:00;METAR CYQG 160700Z 10008KT 15SM BKN190 M03/M06 A2990 RMK AC6 SLP135=

CYQG;2006-01-16 08:00;METAR CYQG 160800Z 10010KT 15SM BKN190 M03/M05 A2989 RMK AC6 SLP130=

CYQG;2006-01-16 09:00;METAR CYQG 160900Z 10009KT 15SM BKN210 M03/M05 A2987 RMK CS6 SLP123=

CYQG;2006-01-16 10:00;METAR CYQG 161000Z 10011KT 15SM FEW210 M02/M05 A2983 RMK CI2 SLP112=

CYQG;2006-01-16 11:00;METAR CYQG 161100Z 11010KT 15SM SCT210 M02/M05 A2982 RMK CI2 SLP107=

CYQG;2006-01-16 12:00;METAR CYQG 161200Z 11010KT 15SM SCT013 BKN220 M02/M05 A2984 RMK SC3CI2 SLP114=

CYQG;2006-01-16 13:00;METAR CYQG 161300Z 10011KT 15SM BKN013 BKN220 M02/M05 A2985 RMK SC6CI2 SLP115=

CYQG;2006-01-16 14:00;METAR CYQG 161400Z 10014KT 15SM BKN012 BKN220 M02/M05 A2984 RMK SC5CI2 SLP114=

CYQG;2006-01-16 16:00;METAR CYQG 161600Z 10017G24KT 15SM FEW015 SCT080 BKN250 M00/M05 A2983 RMK SC2AC1CI2 CC ASOCTD SLP111=

CYQG;2006-01-16 18:00;METAR CYQG 161800Z 10016KT 15SM FEW015 BKN190 BKN250 00/M05 A2979 RMK CF2AC3CI1 SLP095=

CYQG;2006-01-16 19:00;METAR CYQG 161900Z 10015G20KT 15SM FEW015 SCT160 BKN250 00/M05 A2978 RMK CF1AC3CI1 SLP093=

CYQG;2006-01-16 20:00;METAR CYQG 162000Z 10017KT 15SM FEW160 SCT250 00/M05 A2977 RMK AC2CI1 SLP091=

CYQG;2006-01-16 21:00;METAR CYQG 162100Z 11016KT 15SM FEW160 SCT250 M00/M05 A2977 RMK AC1CI1 SLP088=

CYQG;2006-01-16 22:00;METAR CYQG 162200Z 10011G16KT 15SM FEW140 SCT250 M01/M05 A2978 RMK AC1CI1 CONTRAILS SLP093=

CYQG;2006-01-16 23:00;METAR CYQG 162300Z 09013KT 15SM FEW140 BKN220 M01/M05 A2979 RMK AC1CI2 SLP094=

CYQG;2006-01-17 00:00;METAR CYQG 170000Z 09012KT 15SM FEW140 BKN220 M02/M05 A2980 RMK AC1CI2 SLP098=

CYQG;2006-01-17 03:00;METAR CYQG 170300Z 09010KT 15SM FEW260 M02/M04 A2979 RMK CI1 SLP095=

CYQG;2006-01-17 04:00;METAR CYQG 170400Z 08010KT 15SM BKN039 M01/M04 A2979 RMK SC6 SLP094=

CYQG;2006-01-17 05:00;METAR CYQG 170500Z 09011KT 15SM BKN050 M01/M03 A2978 RMK SC7 SLP092=

CYQG;2006-01-17 06:00;METAR CYQG 170600Z 09010KT 15SM BKN038 OVC180 M00/M03 A2976 RMK SC6AS2 SLP084=

CYQG;2006-01-17 07:00;METAR CYQG 170700Z 09009KT 15SM OVC039 00/M03 A2976 RMK SC8 SLP085=

CYQG;2006-01-17 08:00;METAR CYQG 170800Z 09012KT 15SM FEW040 OVC140 01/M02 A2973 RMK SC2AS6 SLP076=

CYQG;2006-01-17 09:00;METAR CYQG 170900Z 11009KT 15SM BKN049 BKN100 01/M02 A2974 RMK SC6AS2 SLP077=

CYQG;2006-01-17 10:00;METAR CYQG 171000Z 09008KT 15SM BKN025 OVC100 02/M03 A2971 RMK SC6AS2 SLP069=

CYQG;2006-01-17 11:00;METAR CYQG 171100Z 09010KT 15SM OVC027 01/M02 A2970 RMK SC8 SLP063=

CYQG;2006-01-17 12:00;METAR CYQG 171200Z 09011KT 15SM BKN020 OVC027 02/M02 A2967 RMK SC6SC2 SLP056=

CYQG;2006-01-17 12:24;SPECI CYQG 171224Z 10012KT 15SM -SHRA OVC019 RMK SC8=

CYQG;2006-01-17 13:00;METAR CYQG 171300Z 10010KT 6SM -RA BR OVC015 02/M01 A2966 RMK SC8 SLP050=

CYQG;2006-01-17 13:07;SPECI CYQG 171307Z 10012KT 6SM -RA BR OVC013 RMK SC8=

CYQG;2006-01-17 14:00;METAR CYQG 171400Z 10010G15KT 5SM -RA BR OVC012 01/00 A2963 RMK SC8 SLP040=

CYQG;2006-01-17 14:40;SPECI CYQG 171440Z 09012KT 5SM -RA BR OVC009 RMK SC8=

CYQG;2006-01-17 15:00;METAR CYQG 171500Z 11012KT 4SM -RA BR SCT006 OVC009 02/01 A2959 RMK SF3SC5 SLP027=

CYQG;2006-01-17 15:47;SPECI CYQG 171547Z 12011KT 2SM -RA BR OVC005 RMK FG2SF6=

CYQG;2006-01-17 16:00;METAR CYQG 171600Z 11012KT 2SM -RA BR OVC005 02/02 A2956 RMK FG2SF6 SLP017=

CYQG;2006-01-17 17:00;METAR CYQG 171700Z 10011KT 2SM -RA BR OVC003 03/02 A2949 RMK FG2SF6 PRESFR SLP993=

CYQG;2006-01-17 18:00;METAR CYQG 171800Z 12009KT 2SM -RA BR OVC003 03/03 A2944 RMK FG2SF6 /R11/ SLP976=

CYQG;2006-01-17 19:13;SPECI CYQG 171913Z 10007KT 1 1/4SM -RA BR OVC003 RMK FG2SF6=

CYQG;2006-01-17 19:52;SPECI CYQG 171952Z 09002KT 1SM -RA BR OVC003 RMK FG3SF5=

CYQG;2006-01-17 20:15;SPECI CYQG 172015Z 09004KT 3/4SM -RA BR VV002 RMK FG8=

CYQG;2006-01-17 20:40;SPECI CYQG 172040Z 13003KT 5/8SM -RA BR VV002 RMK FG8=

CYQG;2006-01-17 20:53;SPECI CYQG 172053Z 00000KT 3/8SM FG VV001 RMK FG8=

CYQG;2006-01-17 21:00;METAR CYQG 172100Z 15002KT 3/8SM FG VV001 05/05 A2935 RMK FG8 SLP945=

CYQG;2006-01-17 21:09;SPECI CYQG 172109Z 16002KT 1/4SM -RA FG VV001 RMK FG8 RA INTMT=

CYQG;2006-01-17 21:27;SPECI CYQG 172127Z 17005KT 3/8SM -RA FG VV002 RMK FG8 RA INTMT=

CYQG;2006-01-17 22:00;METAR CYQG 172200Z 19007KT 3/8SM -RA FG VV002 08/08 A2935 RMK FG8 SLP945=

CYQG;2006-01-17 22:04;SPECI CYQG 172204Z 19007KT 5/8SM -RA BR VV003 RMK FG8=

CYQG;2006-01-17 22:06;SPECI CYQG 172206Z 18007KT 3/4SM -RA BR VV003 RMK FG8=

CYQG;2006-01-17 22:09;SPECI CYQG 172209Z 18008KT 1SM -RA BR OVC003 RMK FG6ST2=

CYQG;2006-01-17 22:52;SPECI CYQG 172252Z 19012KT 3SM BR BKN004 OVC012 RMK SF5SC3=

CYQG;2006-01-17 23:00;METAR CYQG 172300Z 19011KT 3SM -RA BR BKN004 OVC011 09/09 A2934 RMK SF5SC3 RA INTMT SLP941=

CYQG;2006-01-17 23:14;SPECI CYQG 172314Z 19010KT 2 1/4SM -RA BR OVC003 RMK FG2ST6 RA INTMT=

CYQG;2006-01-18 00:00;METAR CYQG 180000Z 25015G24KT 1 1/2SM -RA BR OVC002 09/08 A2938 RMK FG4ST4 PRESRR SLP954=

CYQG;2006-01-18 00:37;SPECI CYQG 180037Z 28009KT 3SM -RA BR OVC005 RMK SF8=

CYQG;2006-01-18 01:41;SPECI CYQG 180141Z 24008KT 4SM -RA BR BKN006 OVC042 RMK SF7SC1=

CYQG;2006-01-18 02:00;METAR CYQG 180200Z 25011KT 4SM -RA BR BKN006 OVC040 05/04 A2940 RMK SF7SC1 SLP961=

CYQG;2006-01-18 02:48;SPECI CYQG 180248Z 26011KT 4SM -RA BR OVC011 RMK SF8=

CYQG;2006-01-18 03:00;METAR CYQG 180300Z 26010KT 4SM -RA BR FEW006 OVC011 04/03 A2938 RMK SF2SC6 SLP953=

CYQG;2006-01-18 04:00;METAR CYQG 180400Z 24008KT 8SM -RA SCT008 OVC014 04/03 A2939 RMK SF4SC4 SLP958=

CYQG;2006-01-18 05:00;METAR CYQG 180500Z 24007KT 8SM -RA SCT006 OVC011 04/03 A2938 RMK SF4SC4 SLP954=

CYQG;2006-01-18 05:43;SPECI CYQG 180543Z 26008KT 8SM -RA BKN007 OVC011 RMK SF5SC3=

CYQG;2006-01-18 06:00;METAR CYQG 180600Z 26010KT 8SM -RA SCT005 OVC010 02/01 A2937 RMK SF3SC5 SLP951=

CYQG;2006-01-18 06:28;SPECI CYQG 180628Z 07008KT 8SM -RA BKN005 OVC010 RMK SF6SC2=

CYQG;2006-01-18 07:43;SPECI CYQG 180743Z 29009KT 5SM -SN BR SCT006 BKN011 OVC034 RMK SF3SC3SC2=

CYQG;2006-01-18 08:00;METAR CYQG 180800Z 29010KT 5SM -SN BR SCT010 OVC030 01/00 A2938 RMK SC4SC4 SLP953=

CYQG;2006-01-18 08:45;SPECI CYQG 180845Z 27008KT 2SM -SN BR OVC009 RMK SN2SF6=

CYQG;2006-01-18 09:00;METAR CYQG 180900Z 26008KT 1SM -SN BR OVC005 01/M00 A2941 RMK SN2SF6 SLP964=

CYQG;2006-01-18 10:00;METAR CYQG 181000Z 25011KT 2 1/2SM -SN BKN005 OVC011 01/M00 A2943 RMK SF5SC3 SLP969=

CYQG;2006-01-18 11:00;METAR CYQG 181100Z 27016KT 2SM -SN SCT007 OVC013 00/M00 A2945 RMK SN2SF2SC4 SLP976=

CYQG;2006-01-18 12:00;METAR CYQG 181200Z 27014G20KT 2SM -SN BKN007 OVC018 00/M00 A2948 RMK SN2SF3SC3 /S02/ SLP988=

CYQG;2006-01-18 12:15;SPECI CYQG 181215Z 27011G21KT 1SM -SN BKN005 OVC012 RMK SN4SF2SC2=

CYQG;2006-01-18 12:27;SPECI CYQG 181227Z 27013KT 1/2SM SN VV004 RMK SN8=

CYQG;2006-01-18 12:41;SPECI CYQG 181241Z 26014KT 3/4SM -SN OVC005 RESN RMK SN4SF4=

CYQG;2006-01-18 13:00;METAR CYQG 181300Z 26011G20KT 3/8SM SN OVC008 00/M00 A2951 RMK SN5SF3 SLP998=

CYQG;2006-01-18 13:27;SPECI CYQG 181327Z 26011G17KT 1/2SM SN OVC007 RMK SN4SF4=

CYQG;2006-01-18 13:53;SPECI CYQG 181353Z 26016KT 3/4SM -SN BKN009 OVC016 RESN RMK SN2SF3SC2 /S01/=

CYQG;2006-01-18 14:00;METAR CYQG 181400Z 26015G20KT 1SM -SN BKN009 OVC018 M00/M01 A2955 RESN RMK SN2SF3SC2 SLP011=

CYQG;2006-01-18 14:18;SPECI CYQG 181418Z 25017KT 5/8SM -SN BKN006 OVC018 RMK SN3SF3SC2=

CYQG;2006-01-18 14:35;SPECI CYQG 181435Z 26015KT 1SM -SN OVC009 RMK SN2SF6=

CYQG;2006-01-18 15:34;SPECI CYQG 181534Z 25016KT 1 1/2SM -SN BKN010 OVC020 RMK SN2SF3SC3=

CYQG;2006-01-18 16:00;METAR CYQG 181600Z 25020G25KT 1 1/2SM -SN BKN012 OVC020 M01/M03 A2963 RMK SN2SF3SC3 SLP038=

CYQG;2006-01-18 16:12;SPECI CYQG 181612Z 26021G28KT 2SM -SN OVC012 RMK SN2SC6 /02/=

CYQG;2006-01-18 16:32;SPECI CYQG 181632Z 25022KT 5SM -SN BKN014 OVC027 RMK SC5SC3=

CYQG;2006-01-18 17:00;METAR CYQG 181700Z 26018G24KT 6SM -SN BKN017 OVC058 M01/M04 A2965 RMK SC6SC2 SLP045=

CYQG;2006-01-18 20:00;METAR CYQG 182000Z 25016G24KT 5SM -SN OVC027 M02/M05 A2975 RMK SC8 SLP081=

CYQG;2006-01-18 20:19;SPECI CYQG 182019Z 25019G29KT 2 1/2SM -SN OVC022 RMK SC8=

CYQG;2006-01-18 20:36;SPECI CYQG 182036Z 25014G20KT 2SM -SN OVC013 RMK SC8=

CYQG;2006-01-18 20:51;SPECI CYQG 182051Z 23017KT 2 1/2SM -SN SCT013 OVC033 RMK SC4SC4=

CYQG;2006-01-18 21:00;METAR CYQG 182100Z 23018KT 2 1/4SM -SN SCT013 OVC034 M03/M05 A2980 RMK SC4SC4 PRESRR /S01/ SLP100=

CYQG;2006-01-18 22:00;METAR CYQG 182200Z 24019G26KT 2 1/2SM -SN DRSN FEW013 OVC034 M03/M06 A2985 RMK SC2SC6 SLP115=

CYQG;2006-01-18 22:19;SPECI CYQG 182219Z 24018KT 3SM -SN DRSN OVC035 RMK SC8=

CYQG;2006-01-18 23:00;METAR CYQG 182300Z 24018G25KT 5SM -SN DRSN OVC032 M04/M06 A2989 RMK SC8 SLP129=

CYQG;2006-01-19 00:00;METAR CYQG 190000Z 24016G24KT 8SM -SN DRSN BKN034 M04/M07 A2993 RMK SC7 SLP145=

CYQG;2006-01-19 00:34;SPECI CYQG 190034Z 24014G19KT 12SM DRSN BKN031 RMK SC7=

CYQG;2006-01-19 01:00;METAR CYQG 190100Z 23012G18KT 12SM DRSN BKN028 M04/M07 A2996 RMK SC7 SLP155=

CYQG;2006-01-19 02:00;METAR CYQG 190200Z 23013KT 15SM FEW025 BKN210 M04/M07 A2998 RMK SC2CI6 SLP162=

CYQG;2006-01-19 04:00;METAR CYQG 190400Z 23014KT 15SM BKN070 M03/M06 A3002 RMK AC7 SLP174=

CYQG;2006-01-19 05:00;METAR CYQG 190500Z 24015KT 15SM BKN073 BKN078 M02/M05 A3004 RMK AC5AC2 SLP182=

CYQG;2006-01-19 06:00;METAR CYQG 190600Z 24011G16KT 15SM BKN067 M02/M05 A3005 RMK AC6 SLP184=

CYQG;2006-01-19 07:00;METAR CYQG 190700Z 23008KT 15SM BKN160 M02/M05 A3007 RMK AC4 SLP190=

CYQG;2006-01-19 09:00;METAR CYQG 190900Z 20006KT 15SM OVC084 M01/M04 A3004 RMK AC7 SLP182=

CYQG;2006-01-19 10:00;METAR CYQG 191000Z 19006KT 15SM BKN110 M01/M04 A3004 RMK AC6 SLP181=

CYQG;2006-01-19 11:00;METAR CYQG 191100Z 17005KT 15SM BKN130 M01/M04 A3004 RMK AC6 SLP181=

CYQG;2006-01-19 12:00;METAR CYQG 191200Z 18004KT 15SM BKN130 M01/M04 A3003 RMK AC5 SLP179=

CYQG;2006-01-19 13:00;METAR CYQG 191300Z 16004KT 12SM FEW130 BKN250 M01/M04 A3002 RMK AC2CI4 CONTRAILS SLP176=

CYQG;2006-01-19 14:00;METAR CYQG 191400Z 15003KT 15SM BKN140 BKN250 M01/M03 A3002 RMK AC6CI1 SLP174=

CYQG;2006-01-19 15:00;METAR CYQG 191500Z 16006KT 15SM SCT110 OVC250 01/M02 A3000 RMK AC4CI3 SLP168=

CYQG;2006-01-19 16:00;METAR CYQG 191600Z 18006KT 15SM SCT120 BKN250 03/M01 A3000 RMK AC3CI3 SLP167=

CYQG;2006-01-19 17:00;METAR CYQG 191700Z 20013KT 15SM BKN160 BKN260 04/M01 A2997 RMK AC5CI1 CONTRAILS SLP156=

CYQG;2006-01-19 18:00;METAR CYQG 191800Z 20012KT 15SM FEW160 BKN260 05/M00 A2993 RMK AC2CI2 CONTRAILS SLP143=

CYQG;2006-01-19 19:00;METAR CYQG 191900Z 20013KT 15SM BKN260 05/01 A2989 RMK CI2 CONTRAILS SLP130=

CYQG;2006-01-19 22:00;METAR CYQG 192200Z 20013KT 15SM BKN260 07/03 A2986 RMK CI3 SLP118=

CYQG;2006-01-19 23:00;METAR CYQG 192300Z 19010KT 15SM BKN250 07/03 A2987 RMK CI4 SLP120=

CYQG;2006-01-20 00:00;METAR CYQG 200000Z 19009KT 15SM BKN043 BKN250 07/03 A2988 RMK SC6CI2 SLP123=

CYQG;2006-01-20 01:00;METAR CYQG 200100Z 20007KT 15SM OVC048 07/04 A2989 RMK SC8 SLP126=

CYQG;2006-01-20 03:00;METAR CYQG 200300Z 20010KT 15SM FEW035 BKN060 BKN260 08/05 A2987 RMK SC1SC5CI1 SLP121=

CYQG;2006-01-20 04:00;METAR CYQG 200400Z 21013KT 15SM BKN063 BKN260 09/05 A2987 RMK SC5CI1 SLP119=

CYQG;2006-01-20 05:00;METAR CYQG 200500Z 22014KT 15SM BKN061 08/05 A2986 RMK SC6 SLP117=

CYQG;2006-01-20 07:00;METAR CYQG 200700Z 21013KT 15SM BKN039 09/06 A2986 RMK SC6 SLP116=

CYQG;2006-01-20 08:00;METAR CYQG 200800Z 22014KT 15SM BKN037 09/06 A2988 RMK SC6 SLP123=

CYQG;2006-01-20 09:00;METAR CYQG 200900Z 21014KT 15SM BKN037 BKN041 09/05 A2989 RMK SC5SC2 SLP125=

CYQG;2006-01-20 10:00;METAR CYQG 201000Z 21014KT 15SM FEW027 BKN033 09/06 A2989 RMK SC2SC4 SLP125=

CYQG;2006-01-20 11:00;METAR CYQG 201100Z 21013KT 15SM BKN040 09/06 A2990 RMK SC7 SLP130=

CYQG;2006-01-20 12:00;METAR CYQG 201200Z 22010KT 15SM FEW030 SCT200 09/06 A2992 RMK SC2CI1 SLP136=

CYQG;2006-01-20 13:00;METAR CYQG 201300Z 22008KT 12SM FEW028 SCT210 08/06 A2995 RMK SC2CI1 SLP144=

CYQG;2006-01-20 14:00;METAR CYQG 201400Z 22009KT 15SM FEW026 FEW220 07/06 A2997 RMK SC1CI1 SLP152=

CYQG;2006-01-20 15:00;METAR CYQG 201500Z 22009KT 15SM SCT030 09/07 A2999 RMK SC4 SLP159=

CYQG;2006-01-20 16:00;METAR CYQG 201600Z 23011KT 15SM BKN023 BKN250 11/08 A3001 RMK SC6CI2 SLP165=

CYQG;2006-01-20 17:00;METAR CYQG 201700Z 25005KT 15SM BKN021 BKN260 12/09 A3000 RMK SC6CI2 SLP163=

CYQG;2006-01-20 18:00;METAR CYQG 201800Z 27012KT 15SM BKN038 BKN270 12/07 A3000 RMK SC6CI2 SLP162=

CYQG;2006-01-20 19:00;METAR CYQG 201900Z 08009KT 12SM BKN032 OVC270 07/05 A3001 RMK SC7CS1 SLP167=

CYQG;2006-01-20 20:00;METAR CYQG 202000Z 05012KT 6SM HZ BKN032 OVC240 07/04 A3001 RMK SC5CS2 SLP167=

CYQG;2006-01-20 21:00;METAR CYQG 202100Z 05011KT 6SM HZ FEW016 BKN032 OVC220 06/03 A3003 RMK SC1SC6CI1 SLP173=

CYQG;2006-01-20 22:00;METAR CYQG 202200Z 06010KT 6SM HZ OVC017 05/02 A3004 RMK SC8 SLP175=

CYQG;2006-01-20 23:00;METAR CYQG 202300Z 05008KT 7SM OVC015 05/02 A3002 RMK SC8 SLP170=

CYQG;2006-01-20 23:20;SPECI CYQG 202320Z 06009KT 6SM -SHRA BR OVC015 RMK SC8=

CYQG;2006-01-20 23:56;SPECI CYQG 202356Z 09012KT 4SM -SHRA BR SCT007 OVC012 RMK SC4SC4=

CYQG;2006-01-21 00:00;METAR CYQG 210000Z 08011KT 4SM -SHRA BR SCT007 OVC012 04/03 A2998 RMK SC4SC4 SLP158=

CYQG;2006-01-21 01:00;METAR CYQG 210100Z 08010KT 4SM -SHRA BR BKN007 OVC012 04/03 A2995 RERA RMK SC7SC1 SLP147=

CYQG;2006-01-21 01:32;SPECI CYQG 210132Z 09008KT 3SM -SHRA BR OVC004 RMK SC8=

CYQG;2006-01-21 02:48;SPECI CYQG 210248Z 02010G16KT 3SM SHRA BR OVC003 RMK SF8=

CYQG;2006-01-21 03:00;METAR CYQG 210300Z 03012G17KT 3SM SHRA BR OVC003 03/03 A2990 RMK SF8 SLP131=

CYQG;2006-01-21 04:00;METAR CYQG 210400Z 04013KT 4SM SHRA BR BKN003 OVC008 02/01 A2986 RMK SF5SC3 SLP117=

CYQG;2006-01-21 05:00;METAR CYQG 210500Z 05014KT 3SM -RA BR OVC003 02/02 A2982 RERA RMK SF8 SLP103=

CYQG;2006-01-21 05:09;SPECI CYQG 210509Z 04011G16KT 2SM -RA BR OVC003 RMK SF8=

CYQG;2006-01-21 05:15;SPECI CYQG 210515Z 05014KT 1 1/2SM -RASN BR OVC003 RMK SF8=

CYQG;2006-01-21 05:33;SPECI CYQG 210533Z 05016KT 2SM -RASN BR OVC002 RMK SF8=

CYQG;2006-01-21 05:49;SPECI CYQG 210549Z 07009G18KT 3SM -RASN BR OVC002 RMK SF8=

CYQG;2006-01-21 06:00;METAR CYQG 210600Z 06011G18KT 4SM -RASN BR OVC002 02/01 A2977 RMK SF8 PRESFR SLP085=

CYQG;2006-01-21 06:36;SPECI CYQG 210636Z 04013KT 4SM -RASN BR OVC004 RMK SF8 CIG VRB 3-5=

CYQG;2006-01-21 08:34;SPECI CYQG 210834Z 36018KT 12SM -RASN SCT004 OVC008 RMK SF3SC5=

CYQG;2006-01-21 09:00;METAR CYQG 210900Z 34013G18KT 6SM -RASN BR SCT004 OVC009 01/00 A2981 RMK SF3SC5 PRESRR SLP101=

CYQG;2006-01-21 09:18;SPECI CYQG 210918Z 03016KT 8SM -RASN SCT009 OVC022 RMK SC3SC5=

CYQG;2006-01-21 10:49;SPECI CYQG 211049Z 36007KT 7SM -SN FEW007 BKN012 OVC032 RMK SF2SC3SC3=

CYQG;2006-01-21 11:00;METAR CYQG 211100Z 35011KT 6SM -SN FEW007 BKN011 OVC029 01/M00 A2984 RMK SF1SC6SC2 SLP111=

CYQG;2006-01-21 12:00;METAR CYQG 211200Z 32014G19KT 3SM -SN FEW006 BKN011 OVC024 01/M00 A2992 RMK SF1SC6SC1 PRESRR /S01/ SLP140=

CYQG;2006-01-21 12:28;SPECI CYQG 211228Z 33017G24KT 8SM -SN SCT010 OVC015 RMK SF3SC5=

CYQG;2006-01-21 13:00;METAR CYQG 211300Z 32020G27KT 8SM -SN SCT016 OVC056 01/M01 A3004 RMK SF4SC4 PRESRR SLP178=

CYQG;2006-01-21 14:08;SPECI CYQG 211408Z 33012G18KT 15SM FEW016 BKN088 BKN270 RMK SF2AC3CI0=

CYQG;2006-01-21 15:00;METAR CYQG 211500Z 33012G22KT 15SM BKN016 01/M02 A3018 RMK SC7 SLP228=

CYQG;2006-01-21 16:00;METAR CYQG 211600Z 32012G19KT 15SM BKN019 01/M03 A3026 RMK SC6 SLP254=

CYQG;2006-01-21 17:00;METAR CYQG 211700Z 32016G21KT 15SM BKN026 02/M04 A3029 RMK SC5 SLP265=

CYQG;2006-01-21 18:00;METAR CYQG 211800Z 31014G20KT 15SM FEW028 03/M03 A3032 RMK SC2 SLP273=

CYQG;2006-01-21 19:00;METAR CYQG 211900Z 33010KT 15SM FEW030 03/M04 A3034 RMK CU1 SLP280=

CYQG;2006-01-21 20:00;METAR CYQG 212000Z 34007KT 15SM FEW030 04/M04 A3037 RMK CU1 SLP290=

CYQG;2006-01-21 21:00;METAR CYQG 212100Z 34006KT 15SM FEW030 03/M04 A3041 RMK CU1 SLP304=

CYQG;2006-01-21 22:00;METAR CYQG 212200Z 27005KT 15SM FEW030 03/M04 A3044 RMK SC1 SLP314=

CYQG;2006-01-21 23:00;METAR CYQG 212300Z 30003KT 15SM SKC 02/M04 A3047 RMK SLP324=

CYQG;2006-01-22 00:00;METAR CYQG 220000Z 00000KT 15SM SKC 00/M04 A3048 RMK SLP331=

CYQG;2006-01-22 01:00;METAR CYQG 220100Z 00000KT 15SM FEW030 M01/M04 A3050 RMK SC1 SLP336=

CYQG;2006-01-22 02:00;METAR CYQG 220200Z 08002KT 15SM FEW030 M01/M04 A3052 RMK SC1 SLP343=

CYQG;2006-01-22 03:00;METAR CYQG 220300Z 00000KT 15SM FEW030 M02/M04 A3053 RMK SC1 SLP348=

CYQG;2006-01-22 04:00;METAR CYQG 220400Z 10003KT 15SM SKC M02/M04 A3053 RMK SLP348=

CYQG;2006-01-22 05:00;METAR CYQG 220500Z 00000KT 15SM FEW220 M02/M03 A3053 RMK CI2 SLP348=

CYQG;2006-01-22 06:00;METAR CYQG 220600Z 16002KT 15SM SCT210 M02/M03 A3053 RMK CI1 SLP347=

CYQG;2006-01-22 07:00;METAR CYQG 220700Z 17004KT 15SM SKC M02/M03 A3053 RMK SLP347=

CYQG;2006-01-22 08:00;METAR CYQG 220800Z 16003KT 15SM SKC M02/M03 A3055 RMK SLP353=

CYQG;2006-01-22 09:00;METAR CYQG 220900Z 17003KT 15SM SKC M03/M03 A3056 RMK SLP357=

CYQG;2006-01-22 10:00;METAR CYQG 221000Z 15003KT 15SM FEW210 M02/M03 A3055 RMK CI1 SLP354=

CYQG;2006-01-22 11:00;METAR CYQG 221100Z 16005KT 15SM FEW210 M02/M03 A3054 RMK CI1 SLP352=

CYQG;2006-01-22 12:00;METAR CYQG 221200Z 16004KT 15SM SCT210 M02/M03 A3055 RMK CI1 SLP353=

CYQG;2006-01-22 13:00;METAR CYQG 221300Z 14003KT 15SM FEW220 BKN270 M03/M04 A3055 RMK CI1CI1 SLP355=

CYQG;2006-01-22 14:00;METAR CYQG 221400Z 00000KT 15SM BKN280 M01/M02 A3054 RMK CI2 SLP352=

CYQG;2006-01-22 15:00;METAR CYQG 221500Z 18007KT 15SM SCT280 M00/M03 A3056 RMK CS2 SLP356=

CYQG;2006-01-22 16:00;METAR CYQG 221600Z 17008KT 15SM BKN280 01/M03 A3053 RMK CS4 HALO SLP346=

CYQG;2006-01-22 17:00;METAR CYQG 221700Z 16008KT 15SM OVC280 02/M03 A3052 RMK CS6 SLP343=

CYQG;2006-01-22 18:00;METAR CYQG 221800Z 17003KT 15SM OVC240 02/M03 A3048 RMK CS7 SLP330=

CYQG;2006-01-22 20:00;METAR CYQG 222000Z 08004KT 15SM OVC240 02/M03 A3040 RMK CS8 SLP302=

CYQG;2006-01-22 21:00;METAR CYQG 222100Z 07008KT 15SM BKN150 OVC240 02/M03 A3037 RMK AC6CS2 SLP293=

CYQG;2006-01-22 22:00;METAR CYQG 222200Z 05005KT 15SM FEW150 BKN210 01/M02 A3036 RMK AC2CS5 SLP289=

CYQG;2006-01-22 23:00;METAR CYQG 222300Z 08005KT 15SM OVC190 00/M02 A3035 RMK AS8 SLP285=

CYQG;2006-01-23 00:00;METAR CYQG 230000Z 11003KT 15SM OVC160 00/M02 A3034 RMK AS8 SLP284=

CYQG;2006-01-23 01:00;METAR CYQG 230100Z 06005KT 15SM BKN150 OVC220 M00/M02 A3031 RMK AC5CS3 SLP274=

CYQG;2006-01-23 02:00;METAR CYQG 230200Z 04005KT 15SM OVC150 M00/M02 A3029 RMK AS8 SLP265=

CYQG;2006-01-23 04:00;METAR CYQG 230400Z 05005KT 15SM OVC140 00/M01 A3022 RMK AS8 SLP242=

CYQG;2006-01-23 05:00;METAR CYQG 230500Z 06003KT 15SM OVC140 00/M01 A3019 RMK AS8 SLP231=

CYQG;2006-01-23 06:00;METAR CYQG 230600Z 35002KT 15SM OVC130 00/M01 A3019 RMK AC8 SLP230=

CYQG;2006-01-23 08:00;METAR CYQG 230800Z 34004KT 15SM BKN130 OVC220 M00/M02 A3015 RMK AC5CI3 SLP218=

CYQG;2006-01-23 09:00;METAR CYQG 230900Z 35003KT 10SM FEW120 BKN230 M01/M03 A3011 RMK AC2CI2 SLP205=

CYQG;2006-01-23 10:00;METAR CYQG 231000Z 34005KT 8SM FEW120 BKN240 M01/M03 A3011 RMK AC1CI2 SLP202=

CYQG;2006-01-23 11:00;METAR CYQG 231100Z 33005KT 12SM BKN250 M01/M03 A3011 RMK CI2 SLP203=

CYQG;2006-01-23 12:00;METAR CYQG 231200Z 33007KT 12SM FEW100 BKN250 M01/M04 A3011 RMK AC2CI2 SLP202=

CYQG;2006-01-23 13:00;METAR CYQG 231300Z 33006KT 12SM FEW250 SCT270 M02/M05 A3011 RMK CI2CI1 SLP202=

CYQG;2006-01-23 14:00;METAR CYQG 231400Z 32010KT 15SM FEW030 FEW250 M01/M05 A3011 RMK SC1CI1 SLP203=

CYQG;2006-01-23 15:00;METAR CYQG 231500Z 32007KT 10SM FEW050 M01/M03 A3011 RMK SC2 SLP205=

CYQG;2006-01-23 15:39;SPECI CYQG 231539Z 31009KT 10SM BKN011 RMK SC6=

CYQG;2006-01-23 16:00;METAR CYQG 231600Z 32009KT 10SM BKN013 00/M03 A3013 RMK SC6 SLP209=

CYQG;2006-01-23 17:00;METAR CYQG 231700Z 32010KT 8SM BKN014 00/M04 A3011 RMK SC7 SLP204=

CYQG;2006-01-23 18:00;METAR CYQG 231800Z 28009KT 12SM SCT019 01/M04 A3009 RMK SC2 SLP196=

CYQG;2006-01-23 19:00;METAR CYQG 231900Z 28008KT 12SM FEW019 02/M04 A3006 RMK CF1 SLP186=

CYQG;2006-01-23 20:00;METAR CYQG 232000Z 27009KT 12SM FEW250 03/M04 A3005 RMK CI1 SLP183=

CYQG;2006-01-23 21:00;METAR CYQG 232100Z 27011KT 15SM FEW260 04/M06 A3004 RMK CI1 SLP180=

CYQG;2006-01-23 22:00;METAR CYQG 232200Z 29009KT 15SM SKC 04/M06 A3005 RMK SLP183=

CYQG;2006-01-23 23:00;METAR CYQG 232300Z 25006KT 15SM FEW260 02/M05 A3006 RMK CI1 SLP186=

CYQG;2006-01-24 00:00;METAR CYQG 240000Z 24005KT 15SM SKC 01/M05 A3005 RMK SLP183=

CYQG;2006-01-24 03:00;METAR CYQG 240300Z 23008KT 15SM SKC M00/M05 A3001 RMK SLP171=

CYQG;2006-01-24 04:00;METAR CYQG 240400Z 22009KT 15SM SKC 00/M04 A2998 RMK SLP159=

CYQG;2006-01-24 05:00;METAR CYQG 240500Z 22008KT 15SM SKC M00/M04 A2995 RMK SLP150=

CYQG;2006-01-24 06:00;METAR CYQG 240600Z 22013KT 15SM SKC 00/M03 A2993 RMK SLP143=

CYQG;2006-01-24 08:00;METAR CYQG 240800Z 21012KT 15SM SKC M00/M05 A2989 RMK SLP131=

CYQG;2006-01-24 10:00;METAR CYQG 241000Z 21013KT 15SM SCT150 M00/M06 A2977 RMK AC3 PRESFR SLP088=

CYQG;2006-01-24 11:00;METAR CYQG 241100Z 21015G20KT 15SM BKN130 01/M05 A2972 RMK AC6 PRESFR SLP070=

CYQG;2006-01-24 12:00;METAR CYQG 241200Z 22019KT 15SM OVC120 01/M05 A2967 RMK AC8 SLP052=

CYQG;2006-01-24 13:00;METAR CYQG 241300Z 23017KT 15SM FEW100 BKN160 01/M06 A2965 RMK AC2AC1 SLP046=

CYQG;2006-01-24 14:00;METAR CYQG 241400Z 23020G28KT 10SM FEW069 OVC083 01/M04 A2963 RMK AC1AC8 SLP041=

CYQG;2006-01-24 14:52;SPECI CYQG 241452Z 23021G27KT 8SM -SHSN OVC021 RMK SC8=

CYQG;2006-01-24 15:00;METAR CYQG 241500Z 23016G27KT 8SM -SHSN OVC021 01/M04 A2962 RMK SC8 SLP036=

CYQG;2006-01-24 16:22;SPECI CYQG 241622Z 22020KT 5SM BR OVC014 RMK SC8=

CYQG;2006-01-24 16:51;SPECI CYQG 241651Z 23015G20KT 5SM BR OVC017 RMK SC8=

CYQG;2006-01-24 17:00;METAR CYQG 241700Z 24017G22KT 6SM HZ OVC015 02/M02 A2955 RMK SC8 SLP013=

CYQG;2006-01-24 18:00;METAR CYQG 241800Z 25019KT 8SM OVC015 02/M01 A2952 RMK SC8 SLP002=

CYQG;2006-01-24 18:10;SPECI CYQG 241810Z 24016G27KT 8SM OVC013 RMK SC8=

CYQG;2006-01-24 19:00;METAR CYQG 241900Z 24015G25KT 5SM HZ SCT017 BKN022 OVC040 03/M01 A2949 RMK SC3SC3SC1 SLP993=

CYQG;2006-01-24 20:00;METAR CYQG 242000Z 23017G22KT 6SM HZ SCT020 BKN028 OVC100 03/M01 A2949 RMK SC3SC3AC1 SLP991=

CYQG;2006-01-24 20:22;SPECI CYQG 242022Z 24018KT 3SM -SHSN OVC032 RMK SC8=

CYQG;2006-01-24 21:00;METAR CYQG 242100Z 24016G21KT 7SM VCSH BKN021 OVC035 03/M00 A2951 RMK CU5SC3 OCNL SHSN SLP998=

CYQG;2006-01-24 21:51;SPECI CYQG 242151Z 24014G21KT 8SM -SHSN BKN034 OVC080 RMK CU6AC2=

CYQG;2006-01-24 22:00;METAR CYQG 242200Z 24013G19KT 8SM -SHRASN BKN026 BKN050 OVC080 03/M00 A2952 RMK CU5SC2AC2 SLP004=

CYQG;2006-01-24 22:32;SPECI CYQG 242232Z 25017G24KT 10SM BKN033 OVC050 RMK CU6SC2=

CYQG;2006-01-24 22:47;SPECI CYQG 242247Z 25022G27KT 7SM -SHRA BKN019 OVC040 RMK CU5SC3=

CYQG;2006-01-24 23:00;METAR CYQG 242300Z 26015G22KT 7SM -SHRA BKN024 OVC060 03/M00 A2955 RMK CU6SC2 SLP012=

CYQG;2006-01-25 00:00;METAR CYQG 250000Z 27023G28KT 12SM -SHRA BKN018 BKN050 OVC100 03/M00 A2957 RMK CU5SC2AC2 SLP019=

CYQG;2006-01-25 00:33;SPECI CYQG 250033Z 27016G22KT 12SM FEW018 BKN043 OVC094 RMK CU2SC3AC2=

CYQG;2006-01-25 00:35;SPECI CYQG 250035Z 27015G22KT 10SM -SHSN SCT019 BKN040 OVC095 RMK CU3SC2AC2=

CYQG;2006-01-25 01:00;METAR CYQG 250100Z 27017G24KT 15SM -SHSN SCT020 OVC130 02/M00 A2959 RMK CU3AC5 SLP025=

CYQG;2006-01-25 02:00;METAR CYQG 250200Z 27014G22KT 15SM -SHSN SCT019 OVC060 02/M01 A2961 RMK CU4SC4 SLP033=

CYQG;2006-01-25 02:54;SPECI CYQG 250254Z 30017KT 15SM FEW020 SCT080 BKN130 RMK CU2AC2AC2=

CYQG;2006-01-25 03:00;METAR CYQG 250300Z 29021G27KT 15SM SCT030 BKN081 BKN130 01/M03 A2964 RMK CU3AC2AC2 SLP043=

CYQG;2006-01-25 04:27;SPECI CYQG 250427Z 30012G21KT 15SM -SHSN OVC032 RMK SC8=

CYQG;2006-01-25 05:00;METAR CYQG 250500Z 30021G31KT 15SM -SHSN BKN032 OVC074 00/M06 A2970 RMK SC6AC2 SLP063=

CYQG;2006-01-25 05:28;SPECI CYQG 250528Z 29016G27KT 15SM SCT030 OVC077 RMK SC4AC4=

CYQG;2006-01-25 06:00;METAR CYQG 250600Z 31015G21KT 15SM SCT030 OVC075 00/M06 A2972 RMK SC4AC4 SLP072=

CYQG;2006-01-25 06:11;SPECI CYQG 250611Z 30020KT 15SM -SHSN BKN033 OVC070 RMK SC6AC2=

CYQG;2006-01-25 07:00;METAR CYQG 250700Z 29020KT 15SM -SHSN OVC030 M00/M05 A2974 RMK SC8 SLP078=

CYQG;2006-01-25 08:00;METAR CYQG 250800Z 30016G24KT 15SM -SHSN OVC034 M00/M07 A2977 RMK SC8 SLP088=

CYQG;2006-01-25 08:53;SPECI CYQG 250853Z 29021G27KT 15SM OVC031 RMK SC8=

CYQG;2006-01-25 09:00;METAR CYQG 250900Z 29020G27KT 15SM OVC032 M00/M06 A2979 RMK SC8 SLP093=

CYQG;2006-01-25 10:00;METAR CYQG 251000Z 30016G28KT 15SM OVC034 M00/M07 A2981 RMK SC8 SLP101=

CYQG;2006-01-25 10:14;SPECI CYQG 251014Z 29017G26KT 15SM -SHSN OVC032 RMK SC8=

CYQG;2006-01-25 11:00;METAR CYQG 251100Z 31019G27KT 15SM -SHSN OVC038 00/M07 A2984 RMK SC8 SLP112=

CYQG;2006-01-25 12:00;METAR CYQG 251200Z 31017G25KT 15SM -SHSN OVC042 00/M07 A2988 RMK SC8 SLP125=

CYQG;2006-01-25 12:50;SPECI CYQG 251250Z 31021G30KT 15SM OVC040 RMK SC8=

CYQG;2006-01-25 13:00;METAR CYQG 251300Z 30018G27KT 15SM OVC041 M00/M07 A2993 RMK SC8 SLP142=

CYQG;2006-01-25 13:37;SPECI CYQG 251337Z 32015G24KT 15SM -SHSN OVC037 RMK SC8=

CYQG;2006-01-25 14:00;METAR CYQG 251400Z 32017G26KT 12SM -SHSN OVC040 M00/M07 A2997 RMK SC8 SLP155=

CYQG;2006-01-25 15:00;METAR CYQG 251500Z 32017G26KT 10SM -SHSN OVC038 M00/M06 A3001 RMK SC8 SLP168=

CYQG;2006-01-25 16:00;METAR CYQG 251600Z 31018G24KT 12SM -SHSN OVC042 M00/M06 A3004 RMK SC8 SLP180=

CYQG;2006-01-25 17:00;METAR CYQG 251700Z 32019G27KT 15SM -SHSN OVC029 M00/M07 A3006 RMK SC8 SLP187=

CYQG;2006-01-25 18:00;METAR CYQG 251800Z 31019G27KT 15SM -SHSN OVC036 M00/M08 A3007 RMK SC8 SLP190=

CYQG;2006-01-25 18:51;SPECI CYQG 251851Z 32022G30KT 15SM BKN041 RMK SC7=

CYQG;2006-01-25 19:00;METAR CYQG 251900Z 32016G30KT 15SM BKN040 01/M08 A3008 RMK SC7 SLP194=

CYQG;2006-01-25 20:00;METAR CYQG 252000Z 31018G26KT 15SM BKN038 00/M08 A3011 RMK SC7 SLP203=

CYQG;2006-01-25 21:00;METAR CYQG 252100Z 32018G26KT 15SM BKN038 00/M09 A3014 RMK SC7 SLP214=

CYQG;2006-01-25 22:00;METAR CYQG 252200Z 31014G19KT 15SM BKN046 M00/M09 A3017 RMK SC6 SLP223=

CYQG;2006-01-25 23:00;METAR CYQG 252300Z 31014G21KT 15SM BKN044 M01/M10 A3020 RMK SC6 SLP233=

CYQG;2006-01-26 00:00;METAR CYQG 260000Z 32014G27KT 15SM BKN041 M01/M09 A3022 RMK SC7 SLP242=

CYQG;2006-01-26 01:00;METAR CYQG 260100Z 31017G24KT 15SM BKN040 M02/M09 A3026 RMK SC7 SLP253=

CYQG;2006-01-26 02:00;METAR CYQG 260200Z 32016G24KT 15SM BKN035 M02/M09 A3028 RMK SC6 SLP260=

CYQG;2006-01-26 03:00;METAR CYQG 260300Z 31015KT 15SM BKN034 M02/M09 A3029 RMK SC6 SLP267=

CYQG;2006-01-26 04:00;METAR CYQG 260400Z 32014G19KT 15SM BKN033 M02/M09 A3032 RMK SC6 SLP274=

CYQG;2006-01-26 05:00;METAR CYQG 260500Z 33013KT 15SM BKN035 M02/M09 A3032 RMK SC6 SLP277=

CYQG;2006-01-26 06:00;METAR CYQG 260600Z 32013KT 15SM BKN032 M03/M08 A3033 RMK SC6 SLP279=

CYQG;2006-01-26 06:41;SPECI CYQG 260641Z 32007KT 15SM -SHSN BKN031 RMK SC6=

CYQG;2006-01-26 07:00;METAR CYQG 260700Z 34008KT 15SM -SHSN BKN030 M03/M08 A3033 RMK SC6 SLP281=

CYQG;2006-01-26 08:00;METAR CYQG 260800Z 35010KT 15SM SCT034 M03/M09 A3035 RMK SC4 OCNL SHSN SLP288=

CYQG;2006-01-26 09:00;METAR CYQG 260900Z 35006KT 15SM SCT037 M04/M09 A3037 RMK SC4 SLP293=

CYQG;2006-01-26 10:00;METAR CYQG 261000Z 33006KT 15SM BKN035 M04/M09 A3040 RMK SC5 SLP303=

CYQG;2006-01-26 11:00;METAR CYQG 261100Z 33009KT 15SM -SHSN BKN030 M03/M09 A3041 RMK SC6 SLP308=

CYQG;2006-01-26 12:00;METAR CYQG 261200Z 35010G15KT 15SM -SHSN BKN023 M04/M08 A3044 RMK SC7 SLP316=

CYQG;2006-01-26 13:00;METAR CYQG 261300Z 36005KT 15SM FEW029 M04/M08 A3045 RMK SC2 SLP322=

CYQG;2006-01-26 14:00;METAR CYQG 261400Z 36003KT 15SM FEW022 FEW035 M04/M08 A3049 RMK SC1SC1 SLP335=

CYQG;2006-01-26 15:00;METAR CYQG 261500Z 36006KT 15SM FEW023 M03/M09 A3051 RMK CF2 SLP342=

CYQG;2006-01-26 16:00;METAR CYQG 261600Z 34008KT 15SM FEW024 M02/M09 A3053 RMK CU1 SLP349=

CYQG;2006-01-26 17:00;METAR CYQG 261700Z 29008KT 15SM FEW031 M01/M09 A3054 RMK CU1 SLP351=

CYQG;2006-01-26 18:00;METAR CYQG 261800Z 32010KT 15SM FEW033 M00/M09 A3053 RMK SC1 SLP347=

CYQG;2006-01-26 19:00;METAR CYQG 261900Z 34005KT 15SM FEW035 00/M09 A3051 RMK CF1 SLP340=

CYQG;2006-01-26 20:00;METAR CYQG 262000Z 02002KT 15SM FEW040 01/M09 A3050 RMK CF1 SLP339=

CYQG;2006-01-26 21:00;METAR CYQG 262100Z 10004KT 15SM FEW040 02/M09 A3051 RMK SC1 SLP342=

CYQG;2006-01-26 22:00;METAR CYQG 262200Z 10005KT 15SM FEW040 01/M08 A3051 RMK SC1 SLP341=

CYQG;2006-01-26 23:00;METAR CYQG 262300Z 21007KT 15SM SKC M01/M06 A3052 RMK SLP344=

CYQG;2006-01-27 00:00;METAR CYQG 270000Z 21007KT 15SM SKC M02/M06 A3053 RMK SLP349=

CYQG;2006-01-27 02:00;METAR CYQG 270200Z 19006KT 15SM SKC M02/M06 A3054 RMK SLP352=

CYQG;2006-01-27 03:00;METAR CYQG 270300Z 19007KT 15SM SKC M02/M05 A3054 RMK SLP350=

CYQG;2006-01-27 04:00;METAR CYQG 270400Z 19006KT 15SM SKC M02/M05 A3054 RMK SLP351=

CYQG;2006-01-27 05:00;METAR CYQG 270500Z 19007KT 15SM SKC M02/M05 A3052 RMK SLP346=

CYQG;2006-01-27 06:00;METAR CYQG 270600Z 21007KT 15SM SKC M01/M05 A3052 RMK SLP343=

CYQG;2006-01-27 08:00;METAR CYQG 270800Z 20007KT 15SM SKC M01/M05 A3051 RMK SLP340=

CYQG;2006-01-27 09:00;METAR CYQG 270900Z 21007KT 15SM SKC M02/M05 A3051 RMK SLP339=

CYQG;2006-01-27 10:00;METAR CYQG 271000Z 21009KT 15SM SKC M01/M05 A3051 RMK SLP339=

CYQG;2006-01-27 11:00;METAR CYQG 271100Z 20009KT 15SM SKC M01/M05 A3050 RMK SLP338=

CYQG;2006-01-27 12:00;METAR CYQG 271200Z 21007KT 15SM SKC M02/M05 A3050 RMK SLP339=

CYQG;2006-01-27 13:00;METAR CYQG 271300Z 21007KT 12SM FEW270 M02/M04 A3050 RMK CI1 CONTRAILS SLP338=

CYQG;2006-01-27 15:00;METAR CYQG 271500Z 21011KT 15SM FEW280 02/M03 A3048 RMK CI1 CONTRAILS SLP330=

CYQG;2006-01-27 16:00;METAR CYQG 271600Z 21012KT 15SM FEW280 03/M04 A3046 RMK CI1 SLP324=

CYQG;2006-01-27 17:00;METAR CYQG 271700Z 21014KT 15SM BKN270 03/M03 A3043 RMK CI2 SLP313=

CYQG;2006-01-27 18:00;METAR CYQG 271800Z 21014KT 15SM BKN250 03/M03 A3038 RMK CS6 SLP297=

CYQG;2006-01-27 19:00;METAR CYQG 271900Z 21019KT 15SM OVC230 05/M03 A3037 RMK CS3 SLP291=

CYQG;2006-01-27 20:00;METAR CYQG 272000Z 21012G17KT 15SM BKN170 OVC230 05/M03 A3034 RMK AC5CS2 SLP282=

CYQG;2006-01-27 22:00;METAR CYQG 272200Z 20010KT 15SM BKN170 BKN240 05/M02 A3031 RMK AC6CS2 SLP271=

CYQG;2006-01-27 23:00;METAR CYQG 272300Z 20010KT 15SM BKN170 BKN240 04/M02 A3029 RMK AC5CS2 SLP264=

CYQG;2006-01-28 00:00;METAR CYQG 280000Z 20016G21KT 15SM BKN180 05/M02 A3028 RMK AC7 SLP261=

CYQG;2006-01-28 01:00;METAR CYQG 280100Z 21015G20KT 15SM FEW140 BKN170 04/M02 A3027 RMK AC2AC5 SLP257=

CYQG;2006-01-28 03:00;METAR CYQG 280300Z 21010KT 15SM BKN140 04/M02 A3025 RMK AC7 SLP249=

CYQG;2006-01-28 04:00;METAR CYQG 280400Z 22013KT 15SM BKN110 04/M01 A3023 RMK AC7 SLP242=

CYQG;2006-01-28 05:00;METAR CYQG 280500Z 22011KT 15SM BKN120 04/M01 A3022 RMK AC7 SLP240=

CYQG;2006-01-28 07:00;METAR CYQG 280700Z 23008KT 15SM FEW097 BKN140 03/M01 A3023 RMK AC2AC6 SLP242=

CYQG;2006-01-28 08:00;METAR CYQG 280800Z 23010KT 15SM FEW090 BKN140 05/M01 A3023 RMK AC1AC6 SLP243=

CYQG;2006-01-28 09:00;METAR CYQG 280900Z 22007KT 15SM SCT097 BKN130 04/M01 A3023 RMK AC3AC4 SLP243=

CYQG;2006-01-28 11:00;METAR CYQG 281100Z 21003KT 15SM FEW095 BKN120 03/M01 A3024 RMK AC1AC6 SLP247=

CYQG;2006-01-28 12:00;METAR CYQG 281200Z 20005KT 15SM BKN120 02/M01 A3024 RMK AC5 SLP247=

CYQG;2006-01-28 13:00;METAR CYQG 281300Z 22004KT 15SM FEW050 BKN110 03/M01 A3024 RMK SC2AC6 SLP246=

CYQG;2006-01-28 14:00;METAR CYQG 281400Z 21005KT 15SM FEW050 BKN100 BKN150 03/M00 A3023 RMK SC1AC5AC2 SLP244=

CYQG;2006-01-28 15:00;METAR CYQG 281500Z 22005KT 15SM BKN100 04/M00 A3023 RMK AC7 SLP244=

CYQG;2006-01-28 16:00;METAR CYQG 281600Z 21006KT 15SM BKN100 BKN170 06/00 A3022 RMK AC5AC1 SLP240=

CYQG;2006-01-28 17:00;METAR CYQG 281700Z 22008KT 15SM FEW100 FEW180 08/01 A3019 RMK AC1AC1 SLP228=

CYQG;2006-01-28 18:00;METAR CYQG 281800Z 23006KT 15SM BKN110 09/00 A3016 RMK AC6 SLP217=

CYQG;2006-01-28 19:00;METAR CYQG 281900Z 20006KT 15SM BKN110 10/01 A3013 RMK AC7 SLP209=

CYQG;2006-01-28 20:00;METAR CYQG 282000Z 20007KT 15SM BKN110 OVC150 10/01 A3011 RMK AC6AC2 SLP203=

CYQG;2006-01-28 21:17;SPECI CYQG 282117Z 20008KT 9SM BKN110 RMK AC6=

CYQG;2006-01-28 22:00;METAR CYQG 282200Z 18004KT 10SM BKN110 OVC250 09/02 A3007 RMK AC6CI2 SLP186=

CYQG;2006-01-28 23:00;METAR CYQG 282300Z 16005KT 8SM OVC092 08/02 A3006 RMK AC8 SLP185=

CYQG;2006-01-29 00:00;METAR CYQG 290000Z 17005KT 10SM OVC072 07/02 A3005 RMK AC8 SLP183=

CYQG;2006-01-29 01:00;METAR CYQG 290100Z 15006KT 12SM OVC096 07/02 A3002 RMK AC8 SLP173=

CYQG;2006-01-29 02:00;METAR CYQG 290200Z 17008KT 15SM OVC110 08/02 A2999 RMK AC8 SLP163=

CYQG;2006-01-29 04:00;METAR CYQG 290400Z 15007KT 15SM OVC130 08/02 A2992 RMK AC8 PRESFR SLP136=

CYQG;2006-01-29 06:00;METAR CYQG 290600Z 15010KT 15SM OVC150 07/01 A2984 RMK AC8 SLP108=

CYQG;2006-01-29 07:00;METAR CYQG 290700Z 15009KT 15SM OVC130 07/00 A2980 RMK AC8 SLP093=

CYQG;2006-01-29 07:35;SPECI CYQG 290735Z 16002KT 15SM -SHRA OVC078 RMK AC8=

CYQG;2006-01-29 10:00;METAR CYQG 291000Z 15012KT 5SM -SHRA BR OVC046 05/04 A2968 RMK SC8 SLP055=

CYQG;2006-01-29 12:00;METAR CYQG 291200Z 15018KT 5SM -SHRA BR BKN028 OVC034 06/06 A2954 RMK SC6SC2 PRESFR SLP007=

CYQG;2006-01-29 13:00;METAR CYQG 291300Z 15019G25KT 5SM -SHRA BR FEW009 OVC030 07/06 A2950 RMK SF1SC7 SLP993=

CYQG;2006-01-29 15:00;METAR CYQG 291500Z 19018KT 8SM -RA FEW012 OVC020 08/06 A2942 RMK CF1SC7 SLP966=

CYQG;2006-01-29 15:39;SPECI CYQG 291539Z 22017G25KT 5SM -RA BR FEW009 OVC013 RMK CF2SC6=

CYQG;2006-01-29 15:50;SPECI CYQG 291550Z 20022G27KT 5SM -RA BR FEW018 OVC052 RMK CF2SC6=

CYQG;2006-01-29 16:00;METAR CYQG 291600Z 20019G29KT 8SM -RA FEW017 OVC058 08/06 A2940 RMK CF2SC6 SLP959=

CYQG;2006-01-29 17:00;METAR CYQG 291700Z 20018G25KT 8SM -RA FEW017 OVC022 08/07 A2936 RMK CF2SC6 SLP945=

CYQG;2006-01-29 17:26;SPECI CYQG 291726Z 21017G24KT 10SM -RA FEW009 OVC034 RMK SF2SC6=

CYQG;2006-01-29 17:40;SPECI CYQG 291740Z 21017G22KT 8SM FEW009 OVC027 RMK SF2SC6=

CYQG;2006-01-29 18:00;METAR CYQG 291800Z 21016G22KT 8SM FEW009 SCT019 BKN025 OVC035 09/08 A2934 RMK SF1SC2SC3SC2 SLP936=

CYQG;2006-01-29 20:00;METAR CYQG 292000Z 24019KT 6SM -SHRA BR BKN032 OVC059 12/08 A2934 RMK SC6SC2 SLP938=

CYQG;2006-01-29 20:23;SPECI CYQG 292023Z 23021G27KT 12SM SCT020 OVC038 RMK CU4SC4=

CYQG;2006-01-29 20:47;SPECI CYQG 292047Z 24019G29KT 8SM -SHRA BKN020 OVC055 RMK CU5SC3=

CYQG;2006-01-29 21:00;METAR CYQG 292100Z 24021G26KT 15SM -SHRA SCT020 OVC046 11/08 A2937 RMK CU3SC5 SLP950=

CYQG;2006-01-29 21:22;SPECI CYQG 292122Z 24018KT 15SM BKN034 OVC050 RMK CU5SC3=

CYQG;2006-01-29 22:00;METAR CYQG 292200Z 24016G22KT 15SM BKN022 OVC050 11/08 A2941 RMK CU6SC2 SLP963=

CYQG;2006-01-29 22:11;SPECI CYQG 292211Z 24013G19KT 10SM -SHRA BKN022 OVC050 RMK CU6SC2=

CYQG;2006-01-29 23:00;METAR CYQG 292300Z 24017G24KT 8SM -SHRA BKN014 OVC030 11/08 A2944 RMK CU6SC2 SLP973=

CYQG;2006-01-29 23:42;SPECI CYQG 292342Z 24018G24KT 10SM -SHRA BKN024 OVC051 RERA RMK CU5SC3=

CYQG;2006-01-30 00:00;METAR CYQG 300000Z 24014G20KT 12SM SCT021 OVC065 10/08 A2947 RERA RMK CU4SC4 SLP981=

CYQG;2006-01-30 01:00;METAR CYQG 300100Z 25015G21KT 15SM FEW029 BKN045 10/06 A2949 RMK CF2SC5 SLP990=

CYQG;2006-01-30 02:00;METAR CYQG 300200Z 24016KT 15SM FEW033 BKN045 09/06 A2952 RMK CU2SC5 SLP998=

CYQG;2006-01-30 03:00;METAR CYQG 300300Z 25018G24KT 15SM OVC035 09/05 A2954 RMK SC8 SLP005=

CYQG;2006-01-30 04:00;METAR CYQG 300400Z 24015G20KT 15SM SCT025 OVC056 09/05 A2955 RMK CU3SC5 SLP009=

CYQG;2006-01-30 05:00;METAR CYQG 300500Z 24014G20KT 15SM OVC024 08/05 A2956 RMK SC8 SLP012=

CYQG;2006-01-30 07:00;METAR CYQG 300700Z 24014G20KT 15SM OVC026 07/03 A2957 RMK SC8 SLP016=

CYQG;2006-01-30 08:00;METAR CYQG 300800Z 23011KT 15SM SCT022 06/03 A2959 RMK SC4 SLP023=

CYQG;2006-01-30 10:00;METAR CYQG 301000Z 21009KT 8SM -SHRA OVC034 06/04 A2959 RMK SC8 SLP024=

CYQG;2006-01-30 10:31;SPECI CYQG 301031Z 24011G17KT 15SM SCT030 BKN057 RMK SC3SC3=

CYQG;2006-01-30 11:00;METAR CYQG 301100Z 24011KT 15SM FEW030 SCT055 BKN230 06/03 A2961 RMK SC2SC2CI2 SLP028=

CYQG;2006-01-30 12:00;METAR CYQG 301200Z 22011KT 15SM FEW030 FEW055 BKN230 05/03 A2961 RMK SC1SC2CI2 SLP030=

CYQG;2006-01-30 13:00;METAR CYQG 301300Z 22009KT 12SM FEW017 FEW039 SCT180 BKN250 05/03 A2962 RMK SC1SC2AC2CI0 SLP033=

CYQG;2006-01-30 14:00;METAR CYQG 301400Z 21010KT 12SM FEW017 OVC022 05/03 A2963 RMK SC1SC6 SLP036=

CYQG;2006-01-30 15:00;METAR CYQG 301500Z 22014KT 10SM FEW017 OVC020 05/02 A2963 RMK CF1SC7 SLP038=

CYQG;2006-01-30 16:00;METAR CYQG 301600Z 22015KT 10SM FEW016 OVC022 05/03 A2965 RMK CF1SC7 SLP043=

CYQG;2006-01-30 17:00;METAR CYQG 301700Z 24017KT 12SM FEW017 BKN027 07/02 A2964 RMK CU2SC4 SLP041=

CYQG;2006-01-30 18:00;METAR CYQG 301800Z 24015G22KT 15SM FEW017 BKN034 07/00 A2964 RMK CU1SC6 SLP041=

CYQG;2006-01-30 19:00;METAR CYQG 301900Z 23019KT 15SM BKN037 BKN150 07/M00 A2963 RMK CU5AC1 SLP037=

CYQG;2006-01-30 20:00;METAR CYQG 302000Z 22016KT 15SM BKN045 BKN150 08/00 A2962 RMK CU5AC1 SLP035=

CYQG;2006-01-30 23:00;METAR CYQG 302300Z 26016KT 15SM OVC028 05/M00 A2967 RMK CU8 SLP053=

CYQG;2006-01-31 00:00;METAR CYQG 310000Z 26013KT 15SM OVC035 04/M01 A2969 RMK SC8 SLP058=

CYQG;2006-01-31 01:00;METAR CYQG 310100Z 26009KT 15SM OVC034 04/M01 A2970 RMK SC8 SLP061=

CYQG;2006-01-31 02:00;METAR CYQG 310200Z 27012KT 15SM SCT030 BKN053 04/M01 A2970 RMK CU3SC4 SLP061=

CYQG;2006-01-31 03:47;SPECI CYQG 310347Z 27010KT 12SM -DZ OVC018 RMK SC8=

CYQG;2006-01-31 04:00;METAR CYQG 310400Z 28009KT 12SM -DZ BKN013 OVC050 03/M01 A2972 RMK SC6SC2 SLP068=

CYQG;2006-01-31 04:43;SPECI CYQG 310443Z 32009KT 12SM -SHRA OVC017 RMK SC8=

CYQG;2006-01-31 05:32;SPECI CYQG 310532Z 29007KT 15SM FEW014 BKN032 RMK SC2SC5=

CYQG;2006-01-31 06:00;METAR CYQG 310600Z 30012KT 15SM FEW015 FEW034 01/M02 A2975 RMK SC2SC1 SLP079=

CYQG;2006-01-31 07:00;METAR CYQG 310700Z 31007KT 15SM OVC022 01/M03 A2976 RMK SC8 SLP082=

CYQG;2006-01-31 07:14;SPECI CYQG 310714Z 30011KT 15SM -SHSN OVC022 RMK SC8=

CYQG;2006-01-31 08:00;METAR CYQG 310800Z 30010KT 15SM -SHSN OVC021 01/M04 A2977 RMK SC8 SLP088=

CYQG;2006-01-31 09:00;METAR CYQG 310900Z 30009KT 12SM -SHSN OVC026 00/M04 A2978 RMK SC8 SLP090=

CYQG;2006-01-31 10:00;METAR CYQG 311000Z 28008KT 15SM -SHSN OVC020 00/M04 A2979 RMK SC8 SLP094=

CYQG;2006-01-31 11:00;METAR CYQG 311100Z 29009KT 15SM -SHSN OVC020 00/M04 A2981 RMK SC8 SLP099=

CYQG;2006-01-31 12:49;SPECI CYQG 311249Z 29010KT 15SM SCT021 OVC042 RMK SC3SC5=

CYQG;2006-01-31 13:00;METAR CYQG 311300Z 29012KT 15SM SCT021 OVC041 M00/M05 A2985 RMK SC4SC4 SLP114=

CYQG;2006-01-31 14:00;METAR CYQG 311400Z 28011KT 15SM BKN022 OVC040 00/M04 A2987 RMK SC5SC3 SLP120=

CYQG;2006-01-31 15:00;METAR CYQG 311500Z 28013KT 15SM -SHSN SCT022 OVC038 01/M04 A2988 RMK SC4SC4 SLP126=

CYQG;2006-01-31 16:00;METAR CYQG 311600Z 27011KT 15SM -SHSN FEW019 OVC038 01/M04 A2990 RMK SC2SC6 SLP133=

CYQG;2006-01-31 17:00;METAR CYQG 311700Z 28012KT 15SM -SHSN SCT024 OVC037 02/M04 A2991 RMK SC4SC4 SLP134=

CYQG;2006-01-31 18:00;METAR CYQG 311800Z 29010KT 15SM -SHSN OVC028 02/M04 A2991 RMK SC8 SLP134=

CYQG;2006-01-31 19:00;METAR CYQG 311900Z 29013G18KT 15SM -SHSN OVC033 02/M05 A2991 RMK SC8 VRY LGT PCPN SLP135=

CYQG;2006-01-31 20:00;METAR CYQG 312000Z 28011KT 15SM -SHSN OVC032 02/M04 A2992 RMK SC8 SLP138=

CYQG;2006-01-31 22:00;METAR CYQG 312200Z 28011G16KT 15SM OVC033 02/M05 A2995 RMK SC8 SLP150=

CYQG;2006-01-31 23:00;METAR CYQG 312300Z 27007KT 15SM OVC031 02/M05 A2996 RMK SC8 SLP151=

CYQG;2006-02-01 00:00;METAR CYQG 010000Z 27007KT 15SM OVC031 02/M05 A2997 RMK SC8 SLP156=

CYQG;2006-02-01 01:00;METAR CYQG 010100Z 26009KT 15SM BKN031 01/M05 A2997 RMK SC7 SLP157=

CYQG;2006-02-01 02:00;METAR CYQG 010200Z 24006KT 15SM BKN033 01/M04 A2998 RMK SC7 SLP160=

CYQG;2006-02-01 03:00;METAR CYQG 010300Z 23007KT 15SM BKN034 01/M03 A2999 RMK SC7 SLP162=

CYQG;2006-02-01 04:00;METAR CYQG 010400Z 22006KT 15SM BKN032 01/M03 A2998 RMK SC7 SLP158=

CYQG;2006-02-01 05:00;METAR CYQG 010500Z 23006KT 15SM BKN030 00/M03 A2997 RMK SC6 SLP157=

CYQG;2006-02-01 06:00;METAR CYQG 010600Z 24007KT 15SM BKN030 00/M03 A2997 RMK SC7 SLP156=

CYQG;2006-02-01 09:00;METAR CYQG 010900Z 21004KT 15SM FEW025 FEW080 BKN110 M00/M04 A2995 RMK SC1AC2AC4 SLP150=

CYQG;2006-02-01 10:00;METAR CYQG 011000Z 20005KT 15SM SCT110 M01/M04 A2995 RMK AC4 SLP148=

CYQG;2006-02-01 11:00;METAR CYQG 011100Z 20008KT 12SM BKN100 BKN190 00/M03 A2993 RMK AC6AC2 SLP143=

CYQG;2006-02-01 12:00;METAR CYQG 011200Z 19010KT 12SM BKN110 OVC140 01/M02 A2992 RMK AC6AC2 SLP138=

CYQG;2006-02-01 13:00;METAR CYQG 011300Z 18011KT 10SM OVC091 01/M02 A2989 RMK AC8 SLP130=

CYQG;2006-02-01 14:00;METAR CYQG 011400Z 18012KT 8SM OVC090 01/M02 A2986 RMK AC8 SLP120=

CYQG;2006-02-01 15:00;METAR CYQG 011500Z 18010KT 8SM OVC160 02/M01 A2985 RMK AC8 SLP115=

CYQG;2006-02-01 16:00;METAR CYQG 011600Z 19012KT 8SM OVC083 03/M01 A2983 RMK AC8 SLP109=

CYQG;2006-02-01 17:00;METAR CYQG 011700Z 18018KT 8SM SCT100 BKN130 04/M00 A2979 RMK AC3AC4 SLP095=

CYQG;2006-02-01 18:00;METAR CYQG 011800Z 18015G20KT 12SM FEW100 BKN120 05/00 A2972 RMK AC1AC5 PRESFR SLP071=

CYQG;2006-02-01 19:00;METAR CYQG 011900Z 19018KT 10SM FEW100 OVC110 07/01 A2971 RMK AC2AC6 SLP066=

CYQG;2006-02-01 20:00;METAR CYQG 012000Z 19017G22KT 10SM FEW100 BKN130 07/01 A2968 RMK AC2AC6 SLP057=

CYQG;2006-02-01 21:00;METAR CYQG 012100Z 20017KT 15SM BKN110 BKN200 08/01 A2967 RMK AC5CI1 SLP051=

CYQG;2006-02-01 22:00;METAR CYQG 012200Z 19014G19KT 15SM FEW190 07/00 A2966 RMK AC2 SLP050=

CYQG;2006-02-01 23:00;METAR CYQG 012300Z 20008KT 15SM SCT049 BKN180 BKN220 06/01 A2969 RMK SC3AC1CI1 SLP059=

CYQG;2006-02-02 00:00;METAR CYQG 020000Z 19010KT 15SM BKN055 06/01 A2970 RMK SC7 SLP063=

CYQG;2006-02-02 01:00;METAR CYQG 020100Z 19010KT 15SM FEW050 BKN220 06/01 A2971 RMK SC2CS4 SLP065=

CYQG;2006-02-02 03:00;METAR CYQG 020300Z 21010KT 15SM FEW240 05/00 A2971 RMK CI1 SLP068=

CYQG;2006-02-02 04:00;METAR CYQG 020400Z 24010KT 15SM SKC 04/00 A2972 RMK SLP070=

CYQG;2006-02-02 05:00;METAR CYQG 020500Z 24006KT 15SM SKC 03/00 A2973 RMK SLP072=

CYQG;2006-02-02 06:00;METAR CYQG 020600Z 27006KT 12SM BKN034 03/01 A2975 RMK SC6 SLP079=

CYQG;2006-02-02 07:00;METAR CYQG 020700Z 28006KT 12SM BKN020 BKN030 04/01 A2975 RMK SC6SC2 SLP079=

CYQG;2006-02-02 08:00;METAR CYQG 020800Z 27005KT 12SM BKN021 OVC032 04/01 A2976 RMK SC6SC2 SLP084=

CYQG;2006-02-02 10:00;METAR CYQG 021000Z 21003KT 12SM OVC021 03/01 A2977 RMK SC8 SLP084=

CYQG;2006-02-02 11:00;METAR CYQG 021100Z 22004KT 12SM OVC021 03/00 A2980 RMK SC8 SLP096=

CYQG;2006-02-02 12:00;METAR CYQG 021200Z 24004KT 12SM OVC022 03/M00 A2981 RMK SC8 SLP099=

CYQG;2006-02-02 13:00;METAR CYQG 021300Z 33003KT 12SM OVC022 03/M01 A2982 RMK SC8 SLP102=

CYQG;2006-02-02 14:00;METAR CYQG 021400Z 00000KT 12SM OVC023 04/M01 A2980 RMK SC8 SLP096=

CYQG;2006-02-02 15:00;METAR CYQG 021500Z 09002KT 8SM OVC023 04/M00 A2981 RMK SC8 SLP101=

CYQG;2006-02-02 16:00;METAR CYQG 021600Z 12003KT 8SM OVC023 04/00 A2980 RMK SC8 SLP098=

CYQG;2006-02-02 17:00;METAR CYQG 021700Z 00000KT 8SM OVC022 04/00 A2978 RMK SC8 SLP089=

CYQG;2006-02-02 18:00;METAR CYQG 021800Z 14002KT 10SM OVC018 05/00 A2974 RMK SC8 SLP078=

CYQG;2006-02-02 19:00;METAR CYQG 021900Z 11002KT 8SM BKN019 OVC250 05/01 A2972 RMK SC7CI1 SLP069=

CYQG;2006-02-02 20:00;METAR CYQG 022000Z 07006KT 8SM OVC019 05/01 A2971 RMK SC8 SLP066=

CYQG;2006-02-02 21:00;METAR CYQG 022100Z 05006KT 6SM HZ BKN019 OVC120 05/01 A2972 RMK SC6AC2 SLP069=

CYQG;2006-02-02 22:00;METAR CYQG 022200Z 07007KT 6SM HZ OVC018 05/01 A2971 RMK SC8 SLP066=

CYQG;2006-02-02 23:00;METAR CYQG 022300Z 06005KT 6SM HZ BKN018 OVC080 04/01 A2971 RMK SC6AC2 SLP065=

CYQG;2006-02-03 00:00;METAR CYQG 030000Z 09006KT 7SM BKN022 OVC045 04/01 A2969 RMK SC5SC3 SLP058=

CYQG;2006-02-03 00:37;SPECI CYQG 030037Z 10005KT 7SM -RA BKN019 OVC034 RMK SC6SC2=

CYQG;2006-02-03 01:40;SPECI CYQG 030140Z 10005KT 3SM -RA BR BKN013 OVC022 RMK SF5SC3=

CYQG;2006-02-03 01:51;SPECI CYQG 030151Z 09006KT 3SM -RA BR FEW004 OVC013 RMK SF2SC6=

CYQG;2006-02-03 02:00;METAR CYQG 030200Z 09005KT 3SM -RA BR FEW004 OVC013 03/02 A2967 RMK SF2SC6 SLP052=

CYQG;2006-02-03 03:00;METAR CYQG 030300Z 08005KT 3SM -RA BR SCT005 OVC013 03/02 A2964 RMK SF4SC4 SLP044=

CYQG;2006-02-03 03:10;SPECI CYQG 030310Z 08005KT 3SM -RA BR BKN005 OVC015 RMK SF6SC2=

CYQG;2006-02-03 04:00;METAR CYQG 030400Z 06007KT 2 1/2SM -RA BR OVC003 03/02 A2960 RMK SF8 SLP030=

CYQG;2006-02-03 05:00;METAR CYQG 030500Z 04006KT 2 1/4SM -RA BR OVC003 03/02 A2958 RMK FG1SF7 SLP023=

CYQG;2006-02-03 06:00;METAR CYQG 030600Z 05006KT 2 1/4SM -RA BR OVC003 03/02 A2956 RMK FG1SF7 SLP015=

CYQG;2006-02-03 06:51;SPECI CYQG 030651Z 03005KT 2 1/4SM -RA BR OVC004 RMK FG1SF7=

CYQG;2006-02-03 07:00;METAR CYQG 030700Z 03004KT 2 1/4SM -RA BR BKN004 OVC012 03/02 A2954 RMK FG1SF6SC1 SLP009=

CYQG;2006-02-03 08:13;SPECI CYQG 030813Z 35008KT 3SM -RA BR SCT004 OVC014 RMK SF3SC5=

CYQG;2006-02-03 10:00;METAR CYQG 031000Z 34007KT 4SM -RA BR BKN007 OVC016 02/01 A2952 RMK SC6SC2 SLP002=

CYQG;2006-02-03 10:38;SPECI CYQG 031038Z 32007KT 4SM -RASN BR BKN006 OVC019 RMK SC6SC2=

CYQG;2006-02-03 11:00;METAR CYQG 031100Z 32006KT 4SM -RASN BR BKN006 OVC021 01/00 A2953 RMK SF6SC2 SLP006=

CYQG;2006-02-03 12:00;METAR CYQG 031200Z 33006KT 5SM -RA BR BKN006 OVC013 01/01 A2955 RMK SF6SC2 SLP011=

CYQG;2006-02-03 13:00;METAR CYQG 031300Z 31007KT 3SM -RA BR OVC008 02/01 A2957 RMK FG1SF7 SLP018=

CYQG;2006-02-03 13:23;SPECI CYQG 031323Z 33004KT 6SM -RA BR SCT008 OVC025 RMK SF4SC4=

CYQG;2006-02-03 14:00;METAR CYQG 031400Z 26005KT 6SM BR FEW008 OVC036 02/01 A2960 RMK SF2SC6 SLP030=

CYQG;2006-02-03 14:17;SPECI CYQG 031417Z 25005KT 5SM -RA BR FEW008 OVC040 RMK SF2SC6=

CYQG;2006-02-03 15:00;METAR CYQG 031500Z 25006KT 5SM -RA BR FEW007 OVC025 03/02 A2961 RMK SF2SC6 SLP034=

CYQG;2006-02-03 15:37;SPECI CYQG 031537Z 26005KT 5SM -RA BR BKN007 OVC030 RMK SF5SC2=

CYQG;2006-02-03 16:00;METAR CYQG 031600Z 23007KT 6SM -RA BR BKN008 OVC027 04/02 A2964 RMK SF5SC3 SLP043=

CYQG;2006-02-03 16:26;SPECI CYQG 031626Z 24004KT 6SM BR SCT009 BKN033 RMK SF3SC4=

CYQG;2006-02-03 17:00;METAR CYQG 031700Z 22006KT 10SM SCT009 BKN045 05/03 A2963 RMK SF4SC3 SLP040=

CYQG;2006-02-03 17:37;SPECI CYQG 031737Z 22008KT 15SM BKN013 BKN030 RMK SC5SC2=

CYQG;2006-02-03 17:54;SPECI CYQG 031754Z 22008KT 15SM FEW010 BKN017 BKN038 RMK SC2SC4SC2=

CYQG;2006-02-03 18:00;METAR CYQG 031800Z 23009KT 15SM BKN015 BKN040 06/03 A2964 RMK SC6SC2 SLP043=

CYQG;2006-02-03 18:47;SPECI CYQG 031847Z 22006KT 15SM BKN013 BKN025 RMK SC5SC2=

CYQG;2006-02-03 19:00;METAR CYQG 031900Z 22007KT 15SM BKN018 06/03 A2965 RMK SC7 SLP045=

CYQG;2006-02-03 20:00;METAR CYQG 032000Z 23007KT 15SM BKN022 06/03 A2967 RMK SC7 SLP051=

CYQG;2006-02-03 20:29;SPECI CYQG 032029Z 20007KT 12SM -SHRA OVC022 RMK SC8=

CYQG;2006-02-03 21:00;METAR CYQG 032100Z 19009KT 12SM -SHRA SCT022 OVC037 05/03 A2970 RMK SC4SC4 SLP061=

CYQG;2006-02-03 22:00;METAR CYQG 032200Z 19007KT 6SM -SHRA BR FEW011 OVC022 05/03 A2971 RMK SF2SC6 SLP067=

CYQG;2006-02-03 23:00;METAR CYQG 032300Z 19006KT 6SM -SHRA BR OVC015 05/03 A2974 RMK SC8 SLP075=

CYQG;2006-02-03 23:33;SPECI CYQG 032333Z 19006KT 4SM BR BKN009 OVC023 RMK SF6SC2 OCNL SHRA=

CYQG;2006-02-03 23:49;SPECI CYQG 032349Z 19006KT 4SM BR BKN013 OVC022 RMK SF5SC3=

CYQG;2006-02-04 00:00;METAR CYQG 040000Z 19006KT 4SM BR SCT009 OVC031 05/04 A2976 RMK SF4SC4 SLP082=

CYQG;2006-02-04 03:00;METAR CYQG 040300Z 17003KT 6SM BR FEW055 03/03 A2978 RMK SC2 SLP089=

CYQG;2006-02-04 04:00;METAR CYQG 040400Z 23003KT 5SM BR FEW055 03/03 A2978 RMK SC1 SLP090=

CYQG;2006-02-04 05:00;METAR CYQG 040500Z 09002KT 4SM BR SKC 02/02 A2977 RMK SLP087=

CYQG;2006-02-04 05:15;SPECI CYQG 040515Z 09002KT 1/4SM FG OVC001 RMK FG6SF2=

CYQG;2006-02-04 06:16;SPECI CYQG 040616Z 13004KT 3/4SM BR OVC180 RMK FG4AS4=

CYQG;2006-02-04 06:34;SPECI CYQG 040634Z 24003KT 5SM BR OVC170 RMK AS8=

CYQG;2006-02-04 07:00;METAR CYQG 040700Z 30003KT 4SM BR OVC150 01/01 A2977 RMK AS8 SLP087=

CYQG;2006-02-04 09:07;SPECI CYQG 040907Z 08004KT 1/4SM FG OVC001 RMK FG3SF5=

CYQG;2006-02-04 09:28;SPECI CYQG 040928Z 00000KT 1SM BR OVC001 RMK FG3SF5=

CYQG;2006-02-04 10:00;METAR CYQG 041000Z 08006KT 1/4SM FG OVC001 02/01 A2975 RMK FG5SF3 SLP081=

CYQG;2006-02-04 11:00;METAR CYQG 041100Z 04004KT 1/4SM FG OVC001 02/02 A2974 RMK FG5SF3 SLP077=

CYQG;2006-02-04 12:00;METAR CYQG 041200Z 02007KT 1/4SM FG OVC001 03/02 A2970 RMK FG5SF3 SLP063=

CYQG;2006-02-04 12:11;SPECI CYQG 041211Z 03008KT 1/8SM FG VV001 RMK FG8=

CYQG;2006-02-04 12:35;SPECI CYQG 041235Z 05007KT 1/8SM -RA FG VV001 RMK FG8=

CYQG;2006-02-04 13:00;METAR CYQG 041300Z 05007KT 1/4SM -RA FG VV001 03/02 A2970 RMK FG8 SLP063=

CYQG;2006-02-04 13:06;SPECI CYQG 041306Z 05008KT 3/8SM -RA FG VV001 RMK FG8=

CYQG;2006-02-04 13:29;SPECI CYQG 041329Z 05007KT 1/2SM -RA FG OVC002 RMK FG6SF2=

CYQG;2006-02-04 13:33;SPECI CYQG 041333Z 06008KT 3/4SM -RA BR OVC002 RMK FG4SF4=

CYQG;2006-02-04 13:48;SPECI CYQG 041348Z 05008KT 1SM -RA BR OVC002 RMK FG3SF5=

CYQG;2006-02-04 14:25;SPECI CYQG 041425Z 04007KT 1 1/2SM -RA BR OVC002 RMK FG2SF6=

CYQG;2006-02-04 14:35;SPECI CYQG 041435Z 01008KT 2SM -RA BR OVC002 RMK FG2SF6=

CYQG;2006-02-04 14:51;SPECI CYQG 041451Z 02009KT 3SM -RA BR OVC003 RMK FG1SF7=

CYQG;2006-02-04 15:00;METAR CYQG 041500Z 03008KT 3SM -RA BR OVC003 02/02 A2966 RMK FG1SF7 SLP049=

CYQG;2006-02-04 15:30;SPECI CYQG 041530Z 36007KT 5SM -RA BR SCT003 OVC020 RMK SF4SC4=

CYQG;2006-02-04 17:00;METAR CYQG 041700Z 01008KT 5SM -RA BR SCT009 OVC016 03/02 A2955 RMK SF3SC5 PRESFR SLP011=

CYQG;2006-02-04 17:19;SPECI CYQG 041719Z 36011KT 4SM -RA BR SCT006 OVC012 RMK SF3SC5=

CYQG;2006-02-04 17:29;SPECI CYQG 041729Z 02011KT 4SM -RA BR BKN008 OVC012 RMK SF5SC3=

CYQG;2006-02-04 18:00;METAR CYQG 041800Z 01012KT 4SM -RA BR BKN008 OVC014 03/03 A2949 RMK SF6SC2 PRESFR SLP993=

CYQG;2006-02-04 18:53;SPECI CYQG 041853Z 01014KT 2 1/2SM RA BR BKN007 OVC013 RMK SF6SC2=

CYQG;2006-02-04 19:00;METAR CYQG 041900Z 01019G24KT 3SM RA BR OVC009 03/02 A2943 RMK SF8 PRESFR SLP972=

CYQG;2006-02-04 19:11;SPECI CYQG 041911Z 36014G21KT 4SM -RASN OVC007 RERA RMK SF8=

CYQG;2006-02-04 19:32;SPECI CYQG 041932Z 35012G19KT 3SM -SN OVC006 RERA RMK SF8=

CYQG;2006-02-04 19:46;SPECI CYQG 041946Z 35010KT 2SM -SN OVC006 RERA RMK SN2SF6=

CYQG;2006-02-04 20:00;METAR CYQG 042000Z 36011G16KT 1 1/4SM -SN OVC005 01/00 A2944 RERA RMK SN3SF5 SLP975=

CYQG;2006-02-04 21:22;SPECI CYQG 042122Z 36019KT 1 3/4SM -RASN BR FEW004 OVC007 RMK SF2SF6=

CYQG;2006-02-04 21:50;SPECI CYQG 042150Z 34016KT 3/4SM -SN BR FEW004 OVC007 RMK SF2SF6=

CYQG;2006-02-04 22:00;METAR CYQG 042200Z 35014G20KT 3/4SM -SN BR SCT003 OVC006 01/00 A2936 RMK SN2SF2SF4 PRESFR SLP949=

CYQG;2006-02-04 22:07;SPECI CYQG 042207Z 35014G19KT 1SM -SN BR BKN009 OVC018 RMK SN2SF6SC1=

CYQG;2006-02-04 22:12;SPECI CYQG 042212Z 36013G19KT 1 1/2SM -SN BR SCT008 OVC013 RMK SF4SC4=

CYQG;2006-02-04 22:39;SPECI CYQG 042239Z 36014G19KT 1SM -SN BR BKN008 OVC021 RMK SN1SF6SC1=

CYQG;2006-02-04 23:00;METAR CYQG 042300Z 34019KT 1 1/4SM -SN BR OVC008 01/M00 A2928 RMK SN2SF6 PRESFR SLP921=

CYQG;2006-02-04 23:28;SPECI CYQG 042328Z 34013G20KT 2 1/2SM -SN BR OVC009 RMK SF8=

CYQG;2006-02-05 00:00;METAR CYQG 050000Z 33013G19KT 2 1/2SM -SN BR OVC009 01/00 A2934 RMK SF8 PRESRR SLP939=

CYQG;2006-02-05 00:21;SPECI CYQG 050021Z 32012G17KT 1SM -SN OVC006 RMK SN3SF5=

CYQG;2006-02-05 00:26;SPECI CYQG 050026Z 32012KT 3/4SM -SN VV005 RMK SN8=

CYQG;2006-02-05 01:00;METAR CYQG 050100Z 31012G17KT 3/4SM -SN VV004 01/M00 A2932 RMK SN8 SLP935=

CYQG;2006-02-05 01:24;SPECI CYQG 050124Z 31012KT 5/8SM -SN VV003 RMK SN8=

CYQG;2006-02-05 01:54;SPECI CYQG 050154Z 31013KT 3/4SM -SN VV005 RMK SN8=

CYQG;2006-02-05 02:46;SPECI CYQG 050246Z 31013KT 1SM -SN VV008 RMK SN8=

CYQG;2006-02-05 03:00;METAR CYQG 050300Z 31014G19KT 1SM -SN VV007 00/M00 A2927 RMK SN8 /S02/ SLP919=

CYQG;2006-02-05 03:19;SPECI CYQG 050319Z 31013G19KT 2 1/4SM -SN OVC011 RMK SN3SF5=

CYQG;2006-02-05 04:00;METAR CYQG 050400Z 30016G22KT 2 1/2SM -SN OVC013 00/M00 A2926 RMK SN3SF5 /S03/ SLP914=

CYQG;2006-02-05 05:00;METAR CYQG 050500Z 30014G21KT 2SM -SN OVC012 00/M00 A2927 RMK SN3SF5 SLP916=

CYQG;2006-02-05 07:00;METAR CYQG 050700Z 29015KT 2 1/2SM -SN OVC013 00/M00 A2930 RMK SN3SF5 SLP926=

CYQG;2006-02-05 07:29;SPECI CYQG 050729Z 29015KT 2 1/2SM -SN BR OVC018 RMK SF8=

CYQG;2006-02-05 10:00;METAR CYQG 051000Z 29013G19KT 4SM -SN BR OVC050 M00/M02 A2933 RMK SC8 SLP939=

CYQG;2006-02-05 11:00;METAR CYQG 051100Z 28012G18KT 3SM -SN BR OVC028 M00/M02 A2934 RMK SC8 SLP942=

CYQG;2006-02-05 12:00;METAR CYQG 051200Z 28010KT 3SM -SN BR SCT014 OVC028 M01/M02 A2935 RMK SC3SC5 SLP946=

CYQG;2006-02-05 12:10;SPECI CYQG 051210Z 28010G15KT 1 1/2SM -SN SCT013 OVC021 RMK SN2SC2SC4=

CYQG;2006-02-05 12:18;SPECI CYQG 051218Z 27011KT 1 1/4SM -SN SCT008 OVC022 RMK SN2SF2SC4=

CYQG;2006-02-05 12:38;SPECI CYQG 051238Z 26013KT 3SM -SN SCT008 OVC015 RMK SF3SC5=

CYQG;2006-02-05 12:48;SPECI CYQG 051248Z 27014KT 1 1/2SM -SN SCT008 OVC015 RMK SN2SF2SC4=

CYQG;2006-02-05 13:00;METAR CYQG 051300Z 29012KT 3/4SM -SN BKN008 OVC013 M00/M01 A2936 RMK SN3SF2SC2 SLP949=

CYQG;2006-02-05 13:07;SPECI CYQG 051307Z 29012G17KT 1/4SM +SN OVC006 RMK SN4SF4=

CYQG;2006-02-05 13:10;SPECI CYQG 051310Z 30013G18KT 1/2SM SN OVC006 RMK SN4SF4=

CYQG;2006-02-05 13:17;SPECI CYQG 051317Z 30014G21KT 5/8SM -SN OVC006 RESN RMK SN4SF4=

CYQG;2006-02-05 13:31;SPECI CYQG 051331Z 29012KT 1SM -SN BKN008 OVC035 RESN RMK SN2SF2SC3 /S01/=

CYQG;2006-02-05 13:48;SPECI CYQG 051348Z 31012G21KT 1 3/4SM -SN SCT008 OVC030 RESN RMK SN2SF2SC5=

CYQG;2006-02-05 14:24;SPECI CYQG 051424Z 29020KT 2 1/2SM -SN SCT013 BKN024 OVC040 RMK SN1SC2SC2NS2=

CYQG;2006-02-05 14:29;SPECI CYQG 051429Z 29017G24KT 4SM -SN FEW013 BKN024 OVC045 RMK SC2SC3NS2=

CYQG;2006-02-05 14:55;SPECI CYQG 051455Z 30018G24KT 2SM -SN SCT019 OVC030 RMK SC3NS5=

CYQG;2006-02-05 15:00;METAR CYQG 051500Z 29017G24KT 3SM -SN SCT015 OVC028 M01/M03 A2939 RMK SC3NS5 SLP959=

CYQG;2006-02-05 15:49;SPECI CYQG 051549Z 31016G27KT 1 1/2SM -SN SCT013 OVC022 RMK SN2SC2SC4=

CYQG;2006-02-05 16:00;METAR CYQG 051600Z 30016KT 1 1/2SM -SN SCT013 OVC022 M02/M03 A2941 RMK SN2SC2SC4 SLP965=

CYQG;2006-02-05 16:03;SPECI CYQG 051603Z 31018KT 1SM -SN OVC024 RMK SN3SC5=

CYQG;2006-02-05 16:13;SPECI CYQG 051613Z 30013G21KT 3SM -SN SCT013 BKN028 RMK SC3SC4=

CYQG;2006-02-05 17:00;METAR CYQG 051700Z 29016G22KT 3SM -SN SCT018 BKN031 M01/M03 A2943 RMK SC3SC4 SLP973=

CYQG;2006-02-05 18:00;METAR CYQG 051800Z 29018G27KT 8SM -SN SCT020 OVC030 M01/M03 A2944 RMK CU3SC5 SLP977=

CYQG;2006-02-05 19:00;METAR CYQG 051900Z 29020G27KT 15SM -SN BKN029 BKN040 M01/M04 A2945 RMK CU5SC2 SLP980=

CYQG;2006-02-05 20:00;METAR CYQG 052000Z 30017G31KT 15SM -SN BKN027 M01/M04 A2948 RMK CU7 SLP988=

CYQG;2006-02-05 20:50;SPECI CYQG 052050Z 29018G27KT 15SM BKN028 BKN140 RMK CU6AC1=

CYQG;2006-02-05 21:00;METAR CYQG 052100Z 29019G27KT 15SM BKN027 BKN140 M01/M04 A2950 RMK CU6AC1 SLP997=

CYQG;2006-02-05 22:00;METAR CYQG 052200Z 29019G30KT 15SM BKN026 BKN140 M01/M05 A2953 RMK SC7AC1 SLP007=

CYQG;2006-02-05 23:00;METAR CYQG 052300Z 31024G35KT 15SM BKN029 BKN110 M01/M06 A2956 RMK SC6AC2 SLP018=

CYQG;2006-02-06 00:00;METAR CYQG 060000Z 30018G30KT 15SM -SHSN OVC030 M01/M06 A2961 RMK SC8 PRESRR SLP034=

CYQG;2006-02-06 03:00;METAR CYQG 060300Z 31018G26KT 15SM -SHSN DRSN BKN044 M03/M08 A2970 RMK SC6 SLP064=

CYQG;2006-02-06 04:00;METAR CYQG 060400Z 30025G32KT 15SM -SHSN BKN047 M03/M09 A2971 RMK SC6 SLP068=

CYQG;2006-02-06 05:00;METAR CYQG 060500Z 29022G29KT 15SM -SHSN BKN048 M03/M11 A2972 RMK SC7 SLP072=

CYQG;2006-02-06 10:00;METAR CYQG 061000Z 29019G26KT 15SM FEW039 M04/M12 A2976 RMK SC2 SLP086=

CYQG;2006-02-06 11:00;METAR CYQG 061100Z 28018G25KT 15SM FEW039 M04/M11 A2976 RMK SC1 SLP086=

CYQG;2006-02-06 12:00;METAR CYQG 061200Z 27017KT 15SM FEW035 M04/M11 A2977 RMK SC1 SLP088=

CYQG;2006-02-06 13:00;METAR CYQG 061300Z 26017KT 15SM FEW035 M04/M10 A2977 RMK CF1 SLP091=

CYQG;2006-02-06 15:00;METAR CYQG 061500Z 28018G28KT 15SM FEW030 BKN260 M03/M09 A2981 RMK CF2CI1 SLP102=

CYQG;2006-02-06 16:00;METAR CYQG 061600Z 29018G26KT 15SM FEW030 SCT260 M02/M09 A2981 RMK SC2CI1 SLP104=

CYQG;2006-02-06 17:00;METAR CYQG 061700Z 28023G28KT 15SM FEW035 BKN260 M01/M08 A2982 RMK SC2CI1 SLP106=

CYQG;2006-02-06 18:00;METAR CYQG 061800Z 29020G29KT 15SM FEW031 SCT260 M01/M08 A2983 RMK SC2CI1 SLP108=

CYQG;2006-02-06 19:00;METAR CYQG 061900Z 28019G28KT 15SM FEW030 BKN260 M00/M08 A2983 RMK SC2CI1 SLP110=

CYQG;2006-02-06 20:00;METAR CYQG 062000Z 28020G26KT 15SM FEW030 BKN260 00/M08 A2983 RMK SC1CI2 SLP111=

CYQG;2006-02-06 21:00;METAR CYQG 062100Z 27018G26KT 15SM FEW030 SCT260 01/M07 A2986 RMK SC1CI1 SLP118=

CYQG;2006-02-06 22:00;METAR CYQG 062200Z 29016KT 15SM FEW030 FEW260 00/M07 A2987 RMK SC1CI1 SLP123=

CYQG;2006-02-06 23:00;METAR CYQG 062300Z 28018G24KT 15SM FEW032 FEW260 M01/M08 A2989 RMK SC1CI1 SLP131=

CYQG;2006-02-07 00:00;METAR CYQG 070000Z 28019G24KT 15SM BKN030 M02/M08 A2992 RMK SC7 SLP142=

CYQG;2006-02-07 02:22;SPECI CYQG 070222Z 29017KT 15SM -SHSN BKN032 RMK SC7=

CYQG;2006-02-07 04:00;METAR CYQG 070400Z 29010KT 15SM BKN030 M03/M08 A2997 RMK SC7 SLP157=

CYQG;2006-02-07 04:35;SPECI CYQG 070435Z 28011KT 15SM -SHSN FEW027 BKN034 RMK SC1SC6=

CYQG;2006-02-07 05:00;METAR CYQG 070500Z 27009KT 15SM FEW037 M03/M08 A2998 RMK SC2 OCNL SHSN SLP161=

CYQG;2006-02-07 06:00;METAR CYQG 070600Z 28008KT 15SM SCT031 M03/M08 A2998 RMK SC2 SLP162=

CYQG;2006-02-07 09:00;METAR CYQG 070900Z 32008G17KT 15SM -SHSN SCT030 OVC036 M03/M08 A3000 RMK SC3SC4 SLP167=

CYQG;2006-02-07 10:00;METAR CYQG 071000Z 33012KT 15SM -SHSN SCT027 OVC036 M03/M09 A3001 RMK SC3SC5 SLP171=

CYQG;2006-02-07 11:00;METAR CYQG 071100Z 32009KT 15SM -SHSN FEW027 OVC035 M03/M09 A3001 RMK SC2SC6 SLP171=

CYQG;2006-02-07 12:00;METAR CYQG 071200Z 31008G15KT 15SM -SHSN FEW031 OVC035 M03/M10 A3003 RMK SC2SC6 SLP177=

CYQG;2006-02-07 13:00;METAR CYQG 071300Z 32014KT 15SM -SHSN BKN032 M03/M10 A3004 RMK SC7 SLP183=

CYQG;2006-02-07 13:25;SPECI CYQG 071325Z 30010G15KT 15SM BKN034 RMK SC7=

CYQG;2006-02-07 13:46;SPECI CYQG 071346Z 31015KT 15SM -SHSN BKN035 RMK SC7=

CYQG;2006-02-07 14:00;METAR CYQG 071400Z 29013KT 15SM -SHSN BKN034 M03/M11 A3007 RMK SC7 SLP191=

CYQG;2006-02-07 15:00;METAR CYQG 071500Z 30011KT 15SM -SHSN BKN034 M03/M10 A3008 RMK SC7 SLP197=

CYQG;2006-02-07 16:00;METAR CYQG 071600Z 31013KT 15SM -SHSN BKN034 M03/M10 A3008 RMK SC7 SLP195=

CYQG;2006-02-07 19:00;METAR CYQG 071900Z 28007KT 12SM -SHSN BKN031 M02/M10 A3007 RMK SC7 SLP193=

CYQG;2006-02-07 21:00;METAR CYQG 072100Z 29009KT 15SM -SHSN OVC038 M02/M09 A3009 RMK SC8 SLP198=

CYQG;2006-02-07 23:35;SPECI CYQG 072335Z 31007KT 15SM OVC043 RMK SC8=

CYQG;2006-02-08 00:00;METAR CYQG 080000Z 30004KT 15SM BKN045 M02/M10 A3011 RMK SC7 SLP206=

CYQG;2006-02-08 02:00;METAR CYQG 080200Z 24004KT 15SM BKN054 M03/M09 A3011 RMK SC7 SLP207=

CYQG;2006-02-08 04:00;METAR CYQG 080400Z 24003KT 15SM FEW031 OVC054 M03/M08 A3011 RMK SC2SC6 SLP204=

CYQG;2006-02-08 04:28;SPECI CYQG 080428Z 26003KT 12SM -SHSN OVC054 RMK SC8=

CYQG;2006-02-08 05:00;METAR CYQG 080500Z 26003KT 5SM -SN HZ BKN031 OVC053 M03/M08 A3010 RMK SC5SC3 SLP202=

CYQG;2006-02-08 06:00;METAR CYQG 080600Z 36003KT 10SM -SN BKN034 BKN037 OVC052 M03/M06 A3009 RMK SC5SC2SC2 /S01/ SLP200=

CYQG;2006-02-08 08:00;METAR CYQG 080800Z 36007KT 10SM -SN SCT020 OVC023 M04/M07 A3009 RMK SC3SC5 SLP200=

CYQG;2006-02-08 09:00;METAR CYQG 080900Z 34008KT 12SM -SN SCT030 OVC053 M04/M08 A3009 RMK SC3SC5 SLP199=

CYQG;2006-02-08 11:00;METAR CYQG 081100Z 34008KT 15SM -SN SCT018 BKN053 M05/M09 A3011 RMK SC3SC4 SLP204=

CYQG;2006-02-08 12:00;METAR CYQG 081200Z 34008KT 15SM -SN FEW017 OVC033 M05/M09 A3011 RMK SC2SC6 SLP206=

CYQG;2006-02-08 13:00;METAR CYQG 081300Z 35009KT 12SM -SN BKN048 M06/M11 A3012 RMK SC7 SLP209=

CYQG;2006-02-08 14:00;METAR CYQG 081400Z 34009KT 15SM -SN BKN053 M06/M11 A3013 RMK SC7 SLP212=

CYQG;2006-02-08 15:00;METAR CYQG 081500Z 35005KT 15SM -SHSN BKN057 M06/M11 A3013 RMK SC7 SLP213=

CYQG;2006-02-08 15:23;SPECI CYQG 081523Z 36007KT 15SM BKN060 RMK SC7=

CYQG;2006-02-08 16:46;SPECI CYQG 081646Z 35007KT 15SM -SHSN SCT030 BKN060 RMK CU3SC4=

CYQG;2006-02-08 17:00;METAR CYQG 081700Z 34004KT 15SM -SHSN SCT030 BKN060 M05/M10 A3013 RMK CU3SC4 SLP213=

CYQG;2006-02-08 19:00;METAR CYQG 081900Z 01006KT 7SM -SHSN OVC033 M04/M10 A3012 RMK CU8 SLP210=

CYQG;2006-02-08 20:00;METAR CYQG 082000Z 36004KT 7SM -SHSN BKN024 OVC038 M03/M10 A3013 RMK CU6SC2 SLP211=

CYQG;2006-02-08 22:03;SPECI CYQG 082203Z 03008KT 1SM -SHSN OVC019 RMK SN2SC6=

CYQG;2006-02-08 22:10;SPECI CYQG 082210Z 01007KT 1/2SM SHSN OVC015 RMK SN3SC5=

CYQG;2006-02-08 22:32;SPECI CYQG 082232Z 34002KT 12SM -SHSN BKN022 BKN180 RMK SC6AC1=

CYQG;2006-02-08 23:35;SPECI CYQG 082335Z 36008KT 15SM BKN032 BKN140 RMK SC5AC1=

CYQG;2006-02-09 00:00;METAR CYQG 090000Z 36006KT 15SM FEW035 SCT140 M05/M10 A3015 RMK SC2AC1 SLP220=

CYQG;2006-02-09 01:00;METAR CYQG 090100Z 36007KT 15SM FEW023 SCT060 M05/M09 A3016 RMK SC2SC1 SLP224=

CYQG;2006-02-09 02:00;METAR CYQG 090200Z 36010KT 15SM FEW020 FEW060 SCT190 M05/M10 A3018 RMK SC1SC2AC1 SLP230=

CYQG;2006-02-09 03:00;METAR CYQG 090300Z 36010KT 15SM FEW059 SCT170 M06/M10 A3019 RMK SC1AC1 SLP234=

CYQG;2006-02-09 05:00;METAR CYQG 090500Z 33005KT 15SM FEW210 M07/M11 A3019 RMK CI1 SLP234=

CYQG;2006-02-09 07:00;METAR CYQG 090700Z 28005KT 15SM SKC M08/M11 A3018 RMK SLP231=

CYQG;2006-02-09 08:00;METAR CYQG 090800Z 28005KT 15SM SKC M09/M11 A3019 RMK SLP234=

CYQG;2006-02-09 10:00;METAR CYQG 091000Z 28008KT 15SM FEW190 M09/M12 A3017 RMK AC1 SLP228=

CYQG;2006-02-09 11:00;METAR CYQG 091100Z 26007KT 15SM BKN130 M09/M11 A3017 RMK AC5 SLP226=

CYQG;2006-02-09 12:00;METAR CYQG 091200Z 25008KT 15SM BKN110 M08/M11 A3015 RMK AC6 SLP221=

CYQG;2006-02-09 13:00;METAR CYQG 091300Z 25008KT 15SM FEW130 BKN270 M08/M11 A3017 RMK AC2CI3 SLP226=

CYQG;2006-02-09 16:00;METAR CYQG 091600Z 28011KT 15SM SCT160 BKN270 M04/M11 A3015 RMK AC2CI2 SLP222=

CYQG;2006-02-09 19:00;METAR CYQG 091900Z 30017KT 15SM BKN045 BKN270 M01/M11 A3010 RMK SC5CI1 CONTRAILS SLP204=

CYQG;2006-02-09 20:00;METAR CYQG 092000Z 28013KT 15SM BKN045 M01/M11 A3010 RMK SC6 SLP203=

CYQG;2006-02-09 21:00;METAR CYQG 092100Z 30011KT 15SM SCT050 BKN270 M00/M10 A3010 RMK SC3CI1 SLP202=

CYQG;2006-02-09 23:00;METAR CYQG 092300Z 28008KT 15SM FEW050 FEW270 M01/M11 A3010 RMK SC1CI1 SLP203=

CYQG;2006-02-10 00:00;METAR CYQG 100000Z 29008KT 15SM FEW260 M01/M11 A3010 RMK CI1 SLP203=

CYQG;2006-02-10 01:00;METAR CYQG 100100Z 29007KT 15SM BKN210 M02/M11 A3011 RMK CS5 SLP208=

CYQG;2006-02-10 03:00;METAR CYQG 100300Z 25008KT 15SM OVC160 M02/M10 A3011 RMK AS6 SLP204=

CYQG;2006-02-10 04:00;METAR CYQG 100400Z 26010KT 15SM OVC170 M02/M09 A3010 RMK AS6 SLP203=

CYQG;2006-02-10 05:00;METAR CYQG 100500Z 27006KT 15SM OVC120 M02/M10 A3009 RMK AC8 SLP199=

CYQG;2006-02-10 07:00;METAR CYQG 100700Z 19004KT 15SM OVC130 M04/M09 A3008 RMK AC7 SLP196=

CYQG;2006-02-10 08:00;METAR CYQG 100800Z 16003KT 15SM OVC088 M04/M08 A3007 RMK AC8 SLP191=

CYQG;2006-02-10 10:00;METAR CYQG 101000Z 18003KT 15SM BKN080 M03/M08 A3003 RMK AC7 SLP177=

CYQG;2006-02-10 11:00;METAR CYQG 101100Z 20007KT 15SM OVC059 M03/M06 A3001 RMK SC8 SLP172=

CYQG;2006-02-10 11:33;SPECI CYQG 101133Z 19006KT 3SM -SN OVC015 RMK SC8=

CYQG;2006-02-10 11:48;SPECI CYQG 101148Z 19006KT 2 1/2SM -SN OVC010 RMK SC8=

CYQG;2006-02-10 12:00;METAR CYQG 101200Z 20007KT 2SM -SN OVC012 M03/M05 A3001 RMK SC8 /S01/ SLP171=

CYQG;2006-02-10 12:08;SPECI CYQG 101208Z 20008KT 1 1/4SM -SN OVC008 RMK SN2SF6=

CYQG;2006-02-10 12:16;SPECI CYQG 101216Z 20006KT 3/4SM -SN OVC006 RMK SN4SF4=

CYQG;2006-02-10 12:45;SPECI CYQG 101245Z 19006KT 1SM -SN BKN005 OVC014 RMK SN2SF2SC3=

CYQG;2006-02-10 13:00;METAR CYQG 101300Z 19007KT 1 1/4SM -SN BKN006 OVC014 M03/M04 A3001 RMK SN2SF3SC2 SLP170=

CYQG;2006-02-10 13:53;SPECI CYQG 101353Z 20007KT 2SM -SN BKN006 OVC025 RMK SN1SF5SC2=

CYQG;2006-02-10 14:00;METAR CYQG 101400Z 21007KT 2 1/2SM -SN BKN006 OVC030 M03/M04 A3001 RMK SN1SF4SC3 SLP172=

CYQG;2006-02-10 14:19;SPECI CYQG 101419Z 21007KT 1 1/2SM -SN BKN008 OVC025 RMK SN2SF4SC2 /S01/=

CYQG;2006-02-10 14:48;SPECI CYQG 101448Z 20008KT 2SM -SN SCT008 OVC025 RMK SN1SF2SC5=

CYQG;2006-02-10 15:00;METAR CYQG 101500Z 20008KT 2SM -SN FEW008 OVC025 M02/M04 A3001 RMK SN1SF2SC6 SLP172=

CYQG;2006-02-10 15:20;SPECI CYQG 101520Z 19006KT 3SM -SN FEW008 OVC025 RMK SF2SC6=

CYQG;2006-02-10 16:00;METAR CYQG 101600Z 25008KT 6SM -SN BKN020 BKN080 M01/M05 A3000 RMK CU5AC2 SLP169=

CYQG;2006-02-10 17:00;METAR CYQG 101700Z 26008KT 10SM -SN SCT022 BKN040 M01/M06 A3000 RMK CU3SC4 SLP168=

CYQG;2006-02-10 17:26;SPECI CYQG 101726Z 24007KT 12SM SCT022 BKN038 RMK CU3SC2=

CYQG;2006-02-10 18:00;METAR CYQG 101800Z 26007KT 15SM VCSH BKN025 BKN040 M00/M06 A2999 RMK CU6SC2 SLP163=

CYQG;2006-02-10 18:10;SPECI CYQG 101810Z 26010KT 12SM -SN BKN022 BKN040 RMK CU6SC2=

CYQG;2006-02-10 19:00;METAR CYQG 101900Z 25006KT 12SM -SN SCT025 BKN035 M00/M06 A2998 RMK CU3SC4 SLP160=

CYQG;2006-02-10 19:21;SPECI CYQG 101921Z 25007KT 15SM VCSH SCT025 BKN045 RMK CU3SC4=

CYQG;2006-02-10 20:00;METAR CYQG 102000Z 25007KT 15SM SCT030 BKN040 00/M07 A2998 RMK CU3SC3 SLP162=

CYQG;2006-02-10 21:00;METAR CYQG 102100Z 26008KT 12SM FEW035 BKN080 01/M07 A2999 RMK SC2AC3 SLP165=

CYQG;2006-02-10 22:00;METAR CYQG 102200Z 25008KT 15SM FEW035 OVC080 01/M07 A3000 RMK SC2AC6 SLP168=

CYQG;2006-02-11 00:00;METAR CYQG 110000Z 23004KT 15SM FEW032 OVC080 M00/M06 A3004 RMK SC1AC7 SLP179=

CYQG;2006-02-11 00:37;SPECI CYQG 110037Z 23005KT 15SM -SHSN OVC080 RMK AC8=

CYQG;2006-02-11 01:00;METAR CYQG 110100Z 22005KT 15SM -SHSN OVC080 M00/M06 A3005 RMK AC8 SLP184=

CYQG;2006-02-11 03:00;METAR CYQG 110300Z 22004KT 15SM -SHSN OVC080 M01/M06 A3007 RMK AC8 SLP191=

CYQG;2006-02-11 05:00;METAR CYQG 110500Z 00000KT 12SM OVC054 M02/M05 A3007 RMK SC8 OCNL SHSN SLP193=

CYQG;2006-02-11 06:00;METAR CYQG 110600Z 17002KT 12SM -SHSN BKN056 OVC088 M02/M05 A3007 RMK SC6AC2 SLP191=

CYQG;2006-02-11 07:00;METAR CYQG 110700Z 00000KT 12SM -SHSN FEW050 OVC077 M02/M05 A3007 RMK SC2AC6 SLP189=

CYQG;2006-02-11 08:00;METAR CYQG 110800Z 05002KT 15SM -SHSN OVC081 M02/M05 A3006 RMK AC8 SLP188=

CYQG;2006-02-11 11:00;METAR CYQG 111100Z 06005KT 15SM -SHSN OVC031 M02/M04 A3005 RMK SC8 SLP184=

CYQG;2006-02-11 12:00;METAR CYQG 111200Z 07006KT 8SM -SHSN OVC033 M02/M04 A3006 RMK SC8 SLP188=

CYQG;2006-02-11 13:00;METAR CYQG 111300Z 05006KT 3SM -SN OVC032 M02/M03 A3007 RMK SC8 SLP189=

CYQG;2006-02-11 13:47;SPECI CYQG 111347Z 05010KT 1 1/2SM -SN FEW005 OVC033 RMK SF2SC6=

CYQG;2006-02-11 14:00;METAR CYQG 111400Z 05008KT 1 1/4SM -SN SCT006 OVC035 M02/M03 A3006 RMK SN2SF2SC4 SLP187=

CYQG;2006-02-11 14:15;SPECI CYQG 111415Z 05009KT 1 1/4SM -SN BKN009 OVC030 RMK SN2SF3SC2=

CYQG;2006-02-11 14:32;SPECI CYQG 111432Z 05008KT 1 1/4SM -SN BKN005 OVC030 RMK SN2SF4SC2=

CYQG;2006-02-11 15:00;METAR CYQG 111500Z 05010KT 1 1/4SM -SN BKN005 OVC030 M02/M03 A3006 RMK SN3SF4SC1 SLP189=

CYQG;2006-02-11 15:08;SPECI CYQG 111508Z 06011KT 1 1/2SM -SN OVC006 RMK SN4SF4=

CYQG;2006-02-11 15:24;SPECI CYQG 111524Z 06012KT 3/4SM -SN OVC007 RMK SN4SF4=

CYQG;2006-02-11 16:48;SPECI CYQG 111648Z 07011G16KT 3/4SM -SN BKN006 OVC011 RMK SN4SF3SC1=

CYQG;2006-02-11 17:41;SPECI CYQG 111741Z 05012KT 5/8SM -SN BKN005 OVC013 RMK SN4SF2SC2 /S01/=

CYQG;2006-02-11 18:00;METAR CYQG 111800Z 05012KT 1/2SM SN VV005 M03/M04 A3003 RMK SN8 /S02/ SLP179=

CYQG;2006-02-11 19:25;SPECI CYQG 111925Z 05013KT 3/4SM -SN OVC007 RMK SN3SF5=

CYQG;2006-02-11 19:46;SPECI CYQG 111946Z 05012KT 1 1/4SM -SN OVC009 RMK SN2SF6=

CYQG;2006-02-11 19:50;SPECI CYQG 111950Z 05011KT 1 1/2SM -SN OVC007 RMK SN2SF6=

CYQG;2006-02-11 20:00;METAR CYQG 112000Z 05011KT 1 1/2SM -SN BKN009 OVC033 M03/M04 A3001 RMK SN2SF4SC2 /S02/ SLP171=

CYQG;2006-02-11 21:00;METAR CYQG 112100Z 06010KT 1 1/2SM -SN BKN009 OVC033 M03/M05 A3000 RMK SN2SF4SC2 SLP169=

CYQG;2006-02-11 21:35;SPECI CYQG 112135Z 06007KT 2SM -SN SCT015 OVC040 RMK SN2SF2SC4=

CYQG;2006-02-11 21:52;SPECI CYQG 112152Z 06008KT 6SM -SN FEW015 SCT030 OVC042 RMK SF2SC2SC4=

CYQG;2006-02-11 22:00;METAR CYQG 112200Z 06009KT 7SM -SN FEW018 SCT030 OVC042 M03/M06 A2999 RMK SF1SC3SC4 SLP166=

CYQG;2006-02-11 23:26;SPECI CYQG 112326Z 04012KT 15SM FEW040 BKN074 RMK SC2AC5=

CYQG;2006-02-12 00:00;METAR CYQG 120000Z 05010KT 15SM -SHSN BKN050 OVC072 M03/M09 A3000 RMK SC5AC3 SLP167=

CYQG;2006-02-12 01:00;METAR CYQG 120100Z 03008KT 15SM SCT059 BKN075 M04/M09 A2999 RMK SC4AC3 OCNL -SHSN SLP166=

CYQG;2006-02-12 02:00;METAR CYQG 120200Z 04008KT 15SM FEW059 BKN073 M04/M10 A2999 RMK SC1AC6 OCNL -SHSN SLP165=

CYQG;2006-02-12 02:40;SPECI CYQG 120240Z 04005KT 15SM FEW073 RMK AC2=

CYQG;2006-02-12 03:00;METAR CYQG 120300Z 01004KT 15SM FEW073 SCT190 M06/M10 A2998 RMK AC2AC2 SLP163=

CYQG;2006-02-12 04:00;METAR CYQG 120400Z 36005KT 15SM FEW120 BKN200 M07/M11 A2997 RMK AC1CI2 SLP159=

CYQG;2006-02-12 05:00;METAR CYQG 120500Z 35006KT 15SM BKN180 M07/M11 A2996 RMK AC2 SLP154=

CYQG;2006-02-12 06:00;METAR CYQG 120600Z 34005KT 15SM BKN180 M08/M11 A2995 RMK AC2 SLP153=

CYQG;2006-02-12 08:00;METAR CYQG 120800Z 35006KT 15SM FEW120 BKN170 M08/M11 A2992 RMK AC1AC5 SLP144=

CYQG;2006-02-12 09:00;METAR CYQG 120900Z 35003KT 15SM FEW120 SCT180 M09/M11 A2991 RMK AC1AC1 SLP140=

CYQG;2006-02-12 10:00;METAR CYQG 121000Z 34004KT 15SM SCT180 M08/M11 A2991 RMK AC1 SLP138=

CYQG;2006-02-12 12:00;METAR CYQG 121200Z 35002KT 15SM FEW190 M09/M11 A2991 RMK AC1 SLP139=

CYQG;2006-02-12 13:00;METAR CYQG 121300Z 00000KT 15SM FEW025 FEW040 SCT260 M09/M11 A2992 RMK SC1SC1CI0 SLP143=

CYQG;2006-02-12 15:00;METAR CYQG 121500Z 36005KT 15SM FEW022 FEW080 SCT270 M05/M09 A2993 RMK SC2AC1CI0 SLP145=

CYQG;2006-02-12 18:24;SPECI CYQG 121824Z 03004KT 15SM BKN035 RMK SC5=

CYQG;2006-02-12 20:00;METAR CYQG 122000Z 34005KT 15SM BKN038 M01/M10 A2989 RMK SC6 SLP133=

CYQG;2006-02-12 23:00;METAR CYQG 122300Z 14004KT 15SM BKN051 M03/M08 A2991 RMK SC7 SLP139=

CYQG;2006-02-13 00:00;METAR CYQG 130000Z 16006KT 15SM FEW055 BKN160 M04/M09 A2992 RMK SC2AC3 SLP144=

CYQG;2006-02-13 01:00;METAR CYQG 130100Z 19005KT 15SM SCT070 BKN140 M05/M09 A2993 RMK AC3AC4 SLP145=

CYQG;2006-02-13 02:00;METAR CYQG 130200Z 23006KT 15SM FEW052 BKN080 BKN130 M04/M09 A2993 RMK SC2AC4AC2 SLP145=

CYQG;2006-02-13 03:00;METAR CYQG 130300Z 25007KT 15SM SCT060 BKN082 M02/M08 A2992 RMK SC3AC4 SLP143=

CYQG;2006-02-13 04:00;METAR CYQG 130400Z 26009KT 15SM BKN080 M02/M07 A2991 RMK AC7 SLP138=

CYQG;2006-02-13 04:22;SPECI CYQG 130422Z 28013KT 12SM -SHSN BKN033 OVC080 RMK SC6AC2=

CYQG;2006-02-13 05:29;SPECI CYQG 130529Z 28009KT 12SM -SHSN FEW025 OVC069 RMK CU2AC6=

CYQG;2006-02-13 05:51;SPECI CYQG 130551Z 28010KT 15SM FEW025 OVC074 RMK CU2AC6=

CYQG;2006-02-13 06:46;SPECI CYQG 130646Z 29009KT 15SM -SHSN BKN014 OVC075 RMK SC5AC3=

CYQG;2006-02-13 06:53;SPECI CYQG 130653Z 29007KT 15SM SCT014 OVC076 RMK SC3AC5 -SHSN=

CYQG;2006-02-13 07:00;METAR CYQG 130700Z 29007KT 15SM SCT014 OVC076 M02/M05 A2991 RMK SC3AC5 OCNL SHSN SLP136=

CYQG;2006-02-13 08:46;SPECI CYQG 130846Z 29008KT 15SM -SHSN OVC029 RMK SC8=

CYQG;2006-02-13 09:24;SPECI CYQG 130924Z 29009KT 1SM -SHSN SCT005 OVC013 RMK SN1SF3SC4=

CYQG;2006-02-13 09:46;SPECI CYQG 130946Z 27008KT 2 1/2SM -SHSN OVC016 RMK SC8=

CYQG;2006-02-13 10:00;METAR CYQG 131000Z 26007KT 3SM -SHSN SCT022 OVC053 M04/M05 A2989 RMK SC4SC4 SLP130=

CYQG;2006-02-13 11:00;METAR CYQG 131100Z 27007KT 12SM -SHSN BKN023 OVC054 M03/M07 A2989 RMK SC5SC3 /S01/ SLP132=

CYQG;2006-02-13 12:00;METAR CYQG 131200Z 27013KT 15SM -SHSN SCT022 OVC054 M04/M08 A2989 RMK SC3SC5 SLP133=

CYQG;2006-02-13 13:00;METAR CYQG 131300Z 26011KT 15SM -SHSN FEW021 BKN047 M03/M08 A2989 RMK SC1SC6 SLP133=

CYQG;2006-02-13 14:00;METAR CYQG 131400Z 26012KT 15SM -SHSN BKN023 BKN048 BKN270 M03/M08 A2991 RMK CU6SC1CI1 SLP137=

CYQG;2006-02-13 15:00;METAR CYQG 131500Z 27015G20KT 15SM -SHSN SCT028 BKN130 M03/M10 A2990 RMK CU4AC3 SLP134=

CYQG;2006-02-13 16:00;METAR CYQG 131600Z 26018G24KT 15SM -SHSN BKN033 BKN120 M03/M11 A2990 RMK SC6AC2 SLP133=

CYQG;2006-02-13 16:52;SPECI CYQG 131652Z 26017KT 15SM BKN032 RMK SC7=

CYQG;2006-02-13 18:00;METAR CYQG 131800Z 25017G25KT 15SM BKN034 M03/M10 A2986 RMK SC7 SLP120=

CYQG;2006-02-13 20:00;METAR CYQG 132000Z 23017G22KT 15SM FEW032 OVC070 M02/M10 A2980 RMK SC1AS7 SLP100=

CYQG;2006-02-13 21:00;METAR CYQG 132100Z 23020G25KT 15SM FEW040 OVC080 M03/M10 A2977 RMK SC2AS6 SLP091=

CYQG;2006-02-13 23:00;METAR CYQG 132300Z 23014G19KT 15SM OVC034 M02/M08 A2977 RMK SC8 SLP091=

CYQG;2006-02-14 00:00;METAR CYQG 140000Z 24016KT 15SM OVC038 M02/M08 A2982 RMK SC8 SLP105=

CYQG;2006-02-14 01:00;METAR CYQG 140100Z 23009G16KT 15SM BKN044 OVC060 M02/M07 A2983 RMK SC6SC2 SLP109=

CYQG;2006-02-14 02:00;METAR CYQG 140200Z 22010KT 15SM OVC065 M02/M07 A2983 RMK SC8 SLP108=

CYQG;2006-02-14 03:00;METAR CYQG 140300Z 23011KT 15SM OVC054 M02/M07 A2982 RMK SC8 SLP107=

CYQG;2006-02-14 03:43;SPECI CYQG 140343Z 22010KT 15SM -SHSN OVC042 RMK SC8=

CYQG;2006-02-14 04:00;METAR CYQG 140400Z 23011KT 15SM -SHSN OVC041 M01/M07 A2981 RMK SC8 SLP104=

CYQG;2006-02-14 05:00;METAR CYQG 140500Z 23013G18KT 15SM -SHSN OVC043 M01/M06 A2980 RMK SC8 SLP101=

CYQG;2006-02-14 06:00;METAR CYQG 140600Z 25011KT 15SM -SHSN OVC056 M00/M06 A2980 RMK SC8 SLP100=

CYQG;2006-02-14 07:31;SPECI CYQG 140731Z 24011KT 15SM OVC046 RMK SC8=

CYQG;2006-02-14 09:00;METAR CYQG 140900Z 23012KT 10SM SCT045 M01/M06 A2980 RMK SC4 SLP099=

CYQG;2006-02-14 12:00;METAR CYQG 141200Z 23007KT 10SM FEW050 M03/M06 A2983 RMK SC1 SLP110=

CYQG;2006-02-14 13:00;METAR CYQG 141300Z 25006KT 8SM FEW060 FEW230 M03/M06 A2986 RMK SC1CI1 SLP119=

CYQG;2006-02-14 15:00;METAR CYQG 141500Z 23006KT 10SM FEW170 BKN250 M01/M05 A2988 RMK AC1CI2 SLP125=

CYQG;2006-02-14 16:00;METAR CYQG 141600Z 23010KT 10SM BKN180 M00/M05 A2987 RMK AC6 SLP123=

CYQG;2006-02-14 17:00;METAR CYQG 141700Z 22010KT 10SM OVC170 01/M04 A2988 RMK AS8 SLP126=

CYQG;2006-02-14 18:00;METAR CYQG 141800Z 23010KT 12SM OVC170 02/M04 A2987 RMK AS8 SLP121=

CYQG;2006-02-14 19:00;METAR CYQG 141900Z 23016KT 12SM BKN180 04/M03 A2985 RMK AS6 SLP115=

CYQG;2006-02-14 20:00;METAR CYQG 142000Z 24011G17KT 15SM SCT180 BKN240 04/M03 A2986 RMK AC3CI4 SLP120=

CYQG;2006-02-14 21:00;METAR CYQG 142100Z 25011G17KT 15SM BKN270 06/M03 A2986 RMK CI6 CONTRAILS SLP117=

CYQG;2006-02-14 22:00;METAR CYQG 142200Z 23011G16KT 15SM BKN270 06/M03 A2986 RMK CI5 CONTRAILS SLP116=

CYQG;2006-02-14 23:00;METAR CYQG 142300Z 18007KT 15SM FEW170 BKN260 04/M01 A2986 RMK AC1CI3 CONTRAILS SLP116=

CYQG;2006-02-15 00:00;METAR CYQG 150000Z 20011KT 15SM SCT260 03/M02 A2986 RMK CI2 SLP119=

CYQG;2006-02-15 01:00;METAR CYQG 150100Z 21013KT 15SM BKN220 04/M01 A2986 RMK CI3 SLP120=

CYQG;2006-02-15 02:00;METAR CYQG 150200Z 21006KT 15SM FEW220 03/M01 A2986 RMK CI1 SLP118=

CYQG;2006-02-15 03:00;METAR CYQG 150300Z 19008KT 15SM FEW220 02/M01 A2984 RMK CI1 SLP113=

CYQG;2006-02-15 05:00;METAR CYQG 150500Z 22010KT 15SM SCT200 03/M01 A2986 RMK CI2 SLP117=

CYQG;2006-02-15 06:00;METAR CYQG 150600Z 22012KT 15SM BKN230 04/M02 A2986 RMK CI2 SLP119=

CYQG;2006-02-15 07:00;METAR CYQG 150700Z 23014KT 15SM FEW230 04/M02 A2986 RMK CI1 SLP118=

CYQG;2006-02-15 08:00;METAR CYQG 150800Z 23013KT 15SM SCT190 05/M02 A2987 RMK AC2 SLP120=

CYQG;2006-02-15 09:00;METAR CYQG 150900Z 24014G20KT 15SM BKN190 06/M03 A2989 RMK AC3 SLP128=

CYQG;2006-02-15 10:00;METAR CYQG 151000Z 23014G20KT 15SM BKN190 05/M03 A2990 RMK AC5 SLP130=

CYQG;2006-02-15 11:00;METAR CYQG 151100Z 23012KT 15SM BKN190 05/M03 A2992 RMK AC5 SLP136=

CYQG;2006-02-15 12:00;METAR CYQG 151200Z 23011G16KT 15SM OVC170 04/M03 A2995 RMK AC6 SLP147=

CYQG;2006-02-15 13:00;METAR CYQG 151300Z 23010KT 15SM OVC170 04/M02 A2998 RMK AC8 SLP156=

CYQG;2006-02-15 14:00;METAR CYQG 151400Z 23011KT 15SM OVC160 04/M02 A3001 RMK AC8 SLP168=

CYQG;2006-02-15 15:00;METAR CYQG 151500Z 22005KT 15SM OVC130 05/M01 A3003 RMK AS8 SLP175=

CYQG;2006-02-15 16:00;METAR CYQG 151600Z 24007KT 15SM FEW160 SCT270 06/M01 A3005 RMK AC2CI1 SLP182=

CYQG;2006-02-15 17:00;METAR CYQG 151700Z 24006KT 15SM BKN150 BKN270 07/M00 A3006 RMK AC5CI1 SLP186=

CYQG;2006-02-15 18:00;METAR CYQG 151800Z 31007KT 15SM FEW080 OVC160 08/M00 A3007 RMK AC1AS6 SLP187=

CYQG;2006-02-15 19:00;METAR CYQG 151900Z 31002KT 15SM FEW035 OVC120 08/00 A3008 RMK SC2AS6 SLP190=

CYQG;2006-02-15 20:00;METAR CYQG 152000Z 13004KT 12SM FEW070 OVC160 07/02 A3008 RMK AC2AS6 SLP192=

CYQG;2006-02-15 22:00;METAR CYQG 152200Z 07007KT 15SM FEW035 FEW200 OVC250 06/02 A3010 RMK SC1CC2CS5 SLP198=

CYQG;2006-02-15 23:00;METAR CYQG 152300Z 09005KT 12SM FEW035 SCT140 OVC250 04/00 A3011 RMK SC1AS2CS4 SLP200=

CYQG;2006-02-16 00:00;METAR CYQG 160000Z 06006KT 10SM BKN078 03/M00 A3012 RMK AC7 SLP205=

CYQG;2006-02-16 01:00;METAR CYQG 160100Z 06008KT 8SM BKN082 OVC160 03/00 A3011 RMK AC6AC2 SLP204=

CYQG;2006-02-16 03:00;METAR CYQG 160300Z 06010KT 8SM OVC034 02/M01 A3011 RMK SC8 SLP203=

CYQG;2006-02-16 03:24;SPECI CYQG 160324Z 06010KT 6SM -SHRA BR OVC041 RMK SC8=

CYQG;2006-02-16 03:38;SPECI CYQG 160338Z 07014KT 1 1/2SM SHRA BR OVC036 RMK FG2SC6=

CYQG;2006-02-16 05:00;METAR CYQG 160500Z 06012KT 3SM -SHRA BR OVC031 01/M00 A3010 RMK SC8 SLP200=

CYQG;2006-02-16 06:00;METAR CYQG 160600Z 07013KT 3SM -SHRA BR OVC035 01/00 A3007 RMK SC8 PRESFR SLP188=

CYQG;2006-02-16 07:26;SPECI CYQG 160726Z 05010KT 2 1/2SM RA BR BKN006 OVC025 RMK SF6SC2=

CYQG;2006-02-16 08:00;METAR CYQG 160800Z 05011KT 1 1/2SM RA BR SCT003 OVC006 01/00 A3003 RMK SF3SF5 SLP174=

CYQG;2006-02-16 08:52;SPECI CYQG 160852Z 04013KT 1 1/2SM -RA BR BKN003 OVC006 RERA RMK SF6SF2=

CYQG;2006-02-16 10:00;METAR CYQG 161000Z 05010KT 1 1/2SM -RA BR BKN003 OVC006 01/00 A2999 RMK SF6SF2 SLP163=

CYQG;2006-02-16 11:00;METAR CYQG 161100Z 35006KT 1 1/2SM -RA BR OVC003 01/00 A2999 RMK FG2SF6 SLP163=

CYQG;2006-02-16 11:49;SPECI CYQG 161149Z 04009KT 1 1/4SM BR OVC002 RMK FG4SF4=

CYQG;2006-02-16 12:00;METAR CYQG 161200Z 03010KT 1 1/4SM BR OVC002 01/01 A3000 RMK FG6SF2 SLP165=

CYQG;2006-02-16 12:40;SPECI CYQG 161240Z 04013KT 1 1/4SM -RA BR OVC002 RMK FG5SF3=

CYQG;2006-02-16 13:00;METAR CYQG 161300Z 03012KT 1 1/2SM -RA BR OVC003 01/00 A3001 RMK FG3SF5 SLP168=

CYQG;2006-02-16 13:33;SPECI CYQG 161333Z 03011KT 2SM -RA BR OVC003 RMK FG2SF6=

CYQG;2006-02-16 14:00;METAR CYQG 161400Z 04012KT 2SM -RA BR OVC003 01/00 A3001 RMK FG2SF6 SLP169=

CYQG;2006-02-16 15:00;METAR CYQG 161500Z 03010KT 2SM -SHRA BR OVC003 01/00 A2999 RMK FG2SF6 SLP163=

CYQG;2006-02-16 16:00;METAR CYQG 161600Z 05008KT 2SM -SHRA BR OVC003 01/M00 A2996 RMK FG2SF6 SLP154=

CYQG;2006-02-16 16:38;SPECI CYQG 161638Z 07008KT 1 1/4SM -SHRA BR OVC003 RMK FG3SF5=

CYQG;2006-02-16 17:00;METAR CYQG 161700Z 06007KT 1SM -SHRA BR OVC003 01/00 A2992 RMK FG4SF4 SLP140=

CYQG;2006-02-16 19:00;METAR CYQG 161900Z 07006KT 3/4SM -RA BR OVC003 02/01 A2983 RMK FG4SF4 SLP110=

CYQG;2006-02-16 19:41;SPECI CYQG 161941Z 08005KT 1SM -RA BR BKN002 OVC027 RMK FG3SF3SC2=

CYQG;2006-02-16 20:00;METAR CYQG 162000Z 09004KT 1SM -SHRA BR BKN002 OVC027 03/03 A2979 RMK FG2SF2SC3 SLP094=

CYQG;2006-02-16 20:12;SPECI CYQG 162012Z 11003KT 1SM -SHRA BR SCT002 OVC027 RMK FG2SF2SC4=

CYQG;2006-02-16 20:26;SPECI CYQG 162026Z 15003KT 1 1/4SM BR SCT002 OVC028 RMK FG2SF2SC5=

CYQG;2006-02-16 20:35;SPECI CYQG 162035Z 16004KT 1 1/2SM BR OVC029 RMK FG2SC6=

CYQG;2006-02-16 20:45;SPECI CYQG 162045Z 16005KT 1 1/2SM -SHRA BR OVC028 RMK FG2SC6=

CYQG;2006-02-16 21:31;SPECI CYQG 162131Z 19016KT 8SM OVC026 RMK SC8=

CYQG;2006-02-16 22:00;METAR CYQG 162200Z 20022KT 15SM OVC024 12/10 A2971 RMK SC8 SLP066=

CYQG;2006-02-16 23:00;METAR CYQG 162300Z 19022G27KT 15SM OVC020 12/10 A2968 RMK SC8 SLP056=

CYQG;2006-02-17 00:00;METAR CYQG 170000Z 21022G27KT 10SM OVC019 12/10 A2966 RMK SC8 SLP048=

CYQG;2006-02-17 00:36;SPECI CYQG 170036Z 21019G26KT 8SM -SHRA OVC024 RMK SC8=

CYQG;2006-02-17 00:50;SPECI CYQG 170050Z 20023G30KT 10SM BKN025 OVC040 RMK SC6SC2=

CYQG;2006-02-17 01:54;SPECI CYQG 170154Z 20018KT 12SM -SHRA OVC027 RMK SC8=

CYQG;2006-02-17 02:00;METAR CYQG 170200Z 20016G22KT 12SM -SHRA OVC030 13/09 A2960 RMK CU8 SLP029=

CYQG;2006-02-17 02:47;SPECI CYQG 170247Z 21017G22KT 2 1/2SM TSRA BKN024 OVC045 RMK CU6SC2 LTGIC OVRHD CB EMBD=

CYQG;2006-02-17 03:00;METAR CYQG 170300Z 24014G24KT 3SM -SHRA BKN025 OVC050 11/10 A2959 RETSRA RMK CU6SC2 SLP026=

CYQG;2006-02-17 04:42;SPECI CYQG 170442Z 26016G26KT 2 1/2SM -SHRA BR BKN012 OVC035 RMK SF5SC3=

CYQG;2006-02-17 04:47;SPECI CYQG 170447Z 25013G26KT 1 1/4SM +SHRA BR OVC006 RMK FG2SF6=

CYQG;2006-02-17 04:51;SPECI CYQG 170451Z 25014G19KT 2 1/2SM SHRA BR FEW006 SCT013 OVC038 RMK SF2SC2SC4=

CYQG;2006-02-17 05:00;METAR CYQG 170500Z 25014G19KT 2 1/2SM SHRA BR FEW006 SCT013 OVC036 12/11 A2954 RMK SF2SC2SC5 SLP009=

CYQG;2006-02-17 05:06;SPECI CYQG 170506Z 22010G20KT 3SM SHRA BR FEW012 OVC026 RMK SF2SC6=

CYQG;2006-02-17 06:51;SPECI CYQG 170651Z 29029G36KT 15SM BKN008 OVC028 RMK SF5SC3=

CYQG;2006-02-17 08:00;METAR CYQG 170800Z 28018G27KT 15SM SCT011 BKN019 03/M01 A2973 RMK SF3SC3 PRESRR SLP070=

CYQG;2006-02-17 08:10;SPECI CYQG 170810Z 29021G26KT 6SM -SHSN SCT011 OVC018 RMK SF3SC5=

CYQG;2006-02-17 08:14;SPECI CYQG 170814Z 29023KT 1 1/4SM -SHSN BKN010 OVC018 RMK SF6SC2=

CYQG;2006-02-17 08:18;SPECI CYQG 170818Z 29019G26KT 1 1/2SM -SHSN BKN009 OVC021 RMK SF6SC2=

CYQG;2006-02-17 08:21;SPECI CYQG 170821Z 29019G25KT 3SM -SHSN SCT009 OVC034 RMK SF4SC4=

CYQG;2006-02-17 08:44;SPECI CYQG 170844Z 30026G33KT 15SM FEW009 BKN019 RMK SF2SC5=

CYQG;2006-02-17 09:00;METAR CYQG 170900Z 30019G37KT 15SM FEW009 BKN021 M01/M05 A2983 RMK SF1SC6 PRESRR SLP108=

CYQG;2006-02-17 09:37;SPECI CYQG 170937Z 30024G40KT 8SM -SHSN FEW009 BKN034 RMK SF1SC6=

CYQG;2006-02-17 09:41;SPECI CYQG 170941Z 30028G41KT 2 1/2SM -SHSN FEW009 BKN021 RMK SF1SC6=

CYQG;2006-02-17 11:00;METAR CYQG 171100Z 30022G29KT 12SM -SHSN OVC029 M04/M10 A3005 RMK SC8 PRESRR SLP182=

CYQG;2006-02-17 12:00;METAR CYQG 171200Z 30027G35KT 12SM -SHSN BKN033 M04/M10 A3013 RMK SC6 PRESRR SLP209=

CYQG;2006-02-17 12:48;SPECI CYQG 171248Z 30023G30KT 15SM FEW032 RMK SC2=

CYQG;2006-02-17 13:00;METAR CYQG 171300Z 31021G29KT 15SM FEW034 M04/M11 A3021 RMK SC1 PRESRR SLP234=

CYQG;2006-02-17 16:00;METAR CYQG 171600Z 31021KT 15SM FEW041 M02/M12 A3032 RMK CU2 SLP275=

CYQG;2006-02-17 17:00;METAR CYQG 171700Z 31012G26KT 15SM FEW042 M02/M12 A3034 RMK CU2 SLP281=

CYQG;2006-02-17 19:00;METAR CYQG 171900Z 29012KT 15SM FEW039 SCT260 M01/M11 A3034 RMK CU2CI1 SLP280=

CYQG;2006-02-17 22:00;METAR CYQG 172200Z 31013G18KT 15SM FEW043 BKN260 M02/M12 A3037 RMK SC2CI3 SLP294=

CYQG;2006-02-18 00:00;METAR CYQG 180000Z 29012G21KT 15SM OVC240 M03/M14 A3038 RMK CS6 SLP297=

CYQG;2006-02-18 01:00;METAR CYQG 180100Z 27017G22KT 15SM OVC190 M03/M13 A3037 RMK AS8 SLP294=

CYQG;2006-02-18 04:00;METAR CYQG 180400Z 28016KT 15SM FEW040 BKN210 M05/M13 A3035 RMK CF2CS3 SLP289=

CYQG;2006-02-18 05:00;METAR CYQG 180500Z 27016G30KT 15SM SCT038 BKN180 M05/M13 A3034 RMK CU3AS2 SLP285=

CYQG;2006-02-18 05:51;SPECI CYQG 180551Z 29016G25KT 15SM -SHSN SCT044 OVC180 RMK CU3AS2=

CYQG;2006-02-18 06:22;SPECI CYQG 180622Z 31020KT 1 1/2SM -SHSN OVC012 RMK SF8=

CYQG;2006-02-18 06:31;SPECI CYQG 180631Z 30017G22KT 3SM -SHSN SCT012 OVC047 RMK SF4SC4=

CYQG;2006-02-18 10:00;METAR CYQG 181000Z 31017G26KT 15SM BKN031 M13/M20 A3042 RMK SC6 SLP313=

CYQG;2006-02-18 10:06;SPECI CYQG 181006Z 32020G28KT 4SM -SHSN OVC031 RMK SC8=

CYQG;2006-02-18 11:00;METAR CYQG 181100Z 33015KT 4SM -SHSN BKN038 M14/M19 A3045 RMK SC7 SLP324=

CYQG;2006-02-18 11:46;SPECI CYQG 181146Z 32016KT 15SM VCSH SCT035 RMK SC4=

CYQG;2006-02-18 12:00;METAR CYQG 181200Z 32013G19KT 15SM VCSH SCT035 M15/M28 A3048 RMK SC4 SLP334=

CYQG;2006-02-18 13:00;METAR CYQG 181300Z 31013KT 15SM FEW035 FEW220 M15/M26 A3050 RMK SC1CI1 SLP340=

CYQG;2006-02-18 14:00;METAR CYQG 181400Z 31015G20KT 15SM FEW040 FEW230 M15/M27 A3052 RMK SC1CI1 SLP347=

CYQG;2006-02-18 15:00;METAR CYQG 181500Z 31016KT 15SM FEW040 FEW230 M14/M25 A3052 RMK SC1CI1 SLP348=

CYQG;2006-02-18 16:00;METAR CYQG 181600Z 30016KT 15SM FEW045 FEW240 M13/M25 A3053 RMK CF1CI1 SLP350=

CYQG;2006-02-18 17:00;METAR CYQG 181700Z 33012G18KT 15SM FEW045 M12/M24 A3052 RMK CU1 SLP349=

CYQG;2006-02-18 19:00;METAR CYQG 181900Z 27012KT 15SM FEW048 M11/M25 A3049 RMK CU1 SLP338=

CYQG;2006-02-18 20:00;METAR CYQG 182000Z 30013KT 15SM FEW046 M10/M24 A3048 RMK CU2 SLP334=

CYQG;2006-02-18 22:00;METAR CYQG 182200Z 33011KT 15SM FEW050 M11/M25 A3050 RMK CU1 SLP341=

CYQG;2006-02-19 00:00;METAR CYQG 190000Z 28010KT 15SM SKC M12/M24 A3050 RMK SLP345=

CYQG;2006-02-19 01:00;METAR CYQG 190100Z 30010KT 15SM FEW035 M12/M23 A3051 RMK CU1 SLP347=

CYQG;2006-02-19 02:00;METAR CYQG 190200Z 31009KT 15SM SKC M13/M23 A3050 RMK SLP345=

CYQG;2006-02-19 03:00;METAR CYQG 190300Z 28014KT 15SM SKC M13/M22 A3050 RMK SLP346=

CYQG;2006-02-19 05:00;METAR CYQG 190500Z 29011KT 15SM FEW025 M13/M21 A3050 RMK CU1 SLP345=

CYQG;2006-02-19 06:00;METAR CYQG 190600Z 30010KT 15SM FEW025 M13/M21 A3051 RMK CU1 SLP346=

CYQG;2006-02-19 08:00;METAR CYQG 190800Z 26009KT 15SM FEW020 M13/M20 A3049 RMK CU1 SLP341=

CYQG;2006-02-19 09:00;METAR CYQG 190900Z 23007KT 15SM FEW015 M14/M19 A3048 RMK CU1 SLP338=

CYQG;2006-02-19 10:00;METAR CYQG 191000Z 25009KT 15SM FEW015 M13/M18 A3048 RMK CU1 SLP336=

CYQG;2006-02-19 11:00;METAR CYQG 191100Z 25009KT 15SM FEW015 M13/M18 A3048 RMK CF2 SLP336=

CYQG;2006-02-19 12:00;METAR CYQG 191200Z 25008KT 15SM FEW015 FEW090 M13/M18 A3047 RMK CF2AC1 SLP333=

CYQG;2006-02-19 13:00;METAR CYQG 191300Z 25009KT 15SM -SHSN BKN026 M13/M17 A3045 RMK SC7 SLP327=

CYQG;2006-02-19 14:00;METAR CYQG 191400Z 23010KT 15SM -SHSN FEW017 FEW028 M11/M17 A3045 RMK SC1SC1 SLP327=

CYQG;2006-02-19 15:00;METAR CYQG 191500Z 23014KT 15SM -SHSN BKN022 M11/M17 A3045 RMK SC7 SLP326=

CYQG;2006-02-19 16:00;METAR CYQG 191600Z 26014KT 15SM -SHSN BKN025 M10/M17 A3043 RMK SC7 SLP321=

CYQG;2006-02-19 17:00;METAR CYQG 191700Z 24014KT 15SM -SHSN BKN026 M09/M16 A3041 RMK SC6 SLP315=

CYQG;2006-02-19 17:49;SPECI CYQG 191749Z 25015KT 15SM BKN029 RMK SC6=

CYQG;2006-02-19 21:00;METAR CYQG 192100Z 26013KT 15SM FEW040 M05/M16 A3029 RMK CU1 SLP271=

CYQG;2006-02-19 22:00;METAR CYQG 192200Z 25011KT 15SM FEW040 FEW270 M05/M16 A3026 RMK CU1CI1 CU TR SLP262=

CYQG;2006-02-19 23:00;METAR CYQG 192300Z 24009KT 15SM FEW180 FEW270 M06/M15 A3024 RMK AC1CI0 SLP254=

CYQG;2006-02-20 01:00;METAR CYQG 200100Z 25016KT 15SM BKN180 M07/M16 A3023 RMK AC3 SLP251=

CYQG;2006-02-20 03:00;METAR CYQG 200300Z 25012G19KT 15SM BKN160 M07/M16 A3023 RMK AC6 SLP248=

CYQG;2006-02-20 04:00;METAR CYQG 200400Z 26014KT 15SM BKN170 M07/M17 A3023 RMK AC4 SLP248=

CYQG;2006-02-20 06:00;METAR CYQG 200600Z 23009KT 15SM FEW160 M08/M15 A3020 RMK AC1 SLP238=

CYQG;2006-02-20 08:00;METAR CYQG 200800Z 24011KT 15SM FEW034 M08/M15 A3018 RMK SC2 SLP233=

CYQG;2006-02-20 10:00;METAR CYQG 201000Z 23012KT 15SM SCT032 M09/M15 A3015 RMK SC3 SLP221=

CYQG;2006-02-20 11:00;METAR CYQG 201100Z 23011KT 15SM FEW030 M09/M15 A3015 RMK SC2 SLP220=

CYQG;2006-02-20 12:00;METAR CYQG 201200Z 23010KT 15SM FEW030 M09/M15 A3014 RMK SC1 SLP220=

CYQG;2006-02-20 12:53;SPECI CYQG 201253Z 24010G15KT 15SM -SHSN FEW026 BKN030 RMK SC2SC3=

CYQG;2006-02-20 13:00;METAR CYQG 201300Z 24011KT 15SM -SHSN FEW026 BKN031 M09/M14 A3014 RMK SC2SC3 SLP219=

CYQG;2006-02-20 14:00;METAR CYQG 201400Z 24012KT 15SM -SHSN FEW026 M08/M14 A3014 RMK SC2 SLP218=

CYQG;2006-02-20 14:52;SPECI CYQG 201452Z 23013KT 15SM FEW026 RMK SC1=

CYQG;2006-02-20 15:00;METAR CYQG 201500Z 24013KT 15SM SCT026 M07/M14 A3014 RMK SC1 SLP218=

CYQG;2006-02-20 16:00;METAR CYQG 201600Z 23013KT 15SM FEW026 FEW030 M05/M13 A3012 RMK CU1SC1 SLP212=

CYQG;2006-02-20 19:00;METAR CYQG 201900Z 25017KT 15SM BKN039 M02/M12 A3004 RMK SC6 SLP182=

CYQG;2006-02-20 20:00;METAR CYQG 202000Z 21011G19KT 15SM BKN043 BKN160 M02/M12 A3001 RMK SC5AC2 SLP173=

CYQG;2006-02-20 21:00;METAR CYQG 202100Z 23015G21KT 15SM BKN083 OVC160 M02/M12 A3000 RMK AC6AC2 SLP169=

CYQG;2006-02-20 22:00;METAR CYQG 202200Z 24016KT 10SM BKN110 M02/M12 A2998 RMK AC6 SLP163=

CYQG;2006-02-20 23:00;METAR CYQG 202300Z 23013KT 10SM BKN110 M02/M12 A2997 RMK AC6 SLP160=

CYQG;2006-02-21 00:00;METAR CYQG 210000Z 23011KT 12SM SCT046 BKN083 M02/M11 A2997 RMK SC3AC2 SLP160=

CYQG;2006-02-21 01:00;METAR CYQG 210100Z 23009KT 15SM SCT046 BKN074 M03/M11 A2996 RMK SC3AC2 SLP157=

CYQG;2006-02-21 05:00;METAR CYQG 210500Z 23012KT 15SM BKN050 M02/M10 A2990 RMK SC7 SLP136=

CYQG;2006-02-21 05:14;SPECI CYQG 210514Z 23013KT 15SM -SHSN OVC047 RMK SC8=

CYQG;2006-02-21 07:46;SPECI CYQG 210746Z 23013KT 15SM BKN042 RMK SC6=

CYQG;2006-02-21 08:00;METAR CYQG 210800Z 23014KT 15SM BKN041 M03/M08 A2988 RMK SC7 SLP126=

CYQG;2006-02-21 09:00;METAR CYQG 210900Z 23012G18KT 15SM BKN040 M02/M09 A2986 RMK SC7 SLP119=

CYQG;2006-02-21 11:00;METAR CYQG 211100Z 24017G22KT 15SM FEW045 M03/M09 A2986 RMK SC1 SLP121=

CYQG;2006-02-21 12:00;METAR CYQG 211200Z 24014KT 12SM FEW045 M04/M09 A2987 RMK SC1 SLP125=

CYQG;2006-02-21 13:00;METAR CYQG 211300Z 24014G20KT 12SM BKN034 M04/M08 A2988 RMK SC7 SLP127=

CYQG;2006-02-21 14:00;METAR CYQG 211400Z 25012G19KT 15SM BKN034 M03/M08 A2991 RMK SC7 SLP138=

CYQG;2006-02-21 15:00;METAR CYQG 211500Z 26014G19KT 15SM BKN034 M01/M07 A2993 RMK SC4 SLP144=

CYQG;2006-02-21 16:00;METAR CYQG 211600Z 28012G18KT 15SM BKN036 M00/M08 A2995 RMK SC6 SLP151=

CYQG;2006-02-21 18:00;METAR CYQG 211800Z 26011G16KT 15SM BKN042 01/M09 A2997 RMK SC6 SLP157=

CYQG;2006-02-21 20:00;METAR CYQG 212000Z 22006G15KT 15SM FEW050 03/M10 A2995 RMK SC2 SLP152=

CYQG;2006-02-21 21:00;METAR CYQG 212100Z 24011G16KT 12SM FEW050 03/M09 A2996 RMK SC2 SLP153=

CYQG;2006-02-21 22:00;METAR CYQG 212200Z 24011KT 12SM SCT050 02/M09 A2996 RMK SC4 SLP154=

CYQG;2006-02-21 23:00;METAR CYQG 212300Z 23007KT 10SM FEW050 02/M08 A2996 RMK SC2 SLP152=

CYQG;2006-02-22 00:00;METAR CYQG 220000Z 22006KT 12SM FEW050 00/M08 A2997 RMK SC2 SLP156=

CYQG;2006-02-22 01:00;METAR CYQG 220100Z 21005KT 15SM SKC M01/M08 A2996 RMK SLP155=

CYQG;2006-02-22 02:00;METAR CYQG 220200Z 20006KT 15SM SKC M01/M07 A2995 RMK SLP151=

CYQG;2006-02-22 03:00;METAR CYQG 220300Z 21004KT 15SM SKC M02/M07 A2994 RMK SLP148=

CYQG;2006-02-22 04:00;METAR CYQG 220400Z 21006KT 15SM SKC M02/M07 A2994 RMK SLP148=

CYQG;2006-02-22 05:00;METAR CYQG 220500Z 21006KT 15SM BKN052 M01/M07 A2993 RMK SC7 SLP145=

CYQG;2006-02-22 07:00;METAR CYQG 220700Z 18002KT 15SM SKC M03/M06 A2991 RMK SLP135=

CYQG;2006-02-22 08:00;METAR CYQG 220800Z 21006KT 12SM BKN160 M02/M05 A2991 RMK AC6 SLP135=

CYQG;2006-02-22 10:00;METAR CYQG 221000Z 24005KT 12SM BKN100 M02/M05 A2991 RMK AC6 SLP135=

CYQG;2006-02-22 11:00;METAR CYQG 221100Z 21004KT 12SM BKN110 M01/M05 A2989 RMK AC6 SLP130=

CYQG;2006-02-22 12:00;METAR CYQG 221200Z 19002KT 10SM FEW120 SCT130 M02/M05 A2989 RMK AC1AC2 SLP128=

CYQG;2006-02-22 13:00;METAR CYQG 221300Z 17004KT 8SM SCT140 M02/M05 A2987 RMK AC3 SLP124=

CYQG;2006-02-22 14:00;METAR CYQG 221400Z 20006KT 10SM SCT120 01/M03 A2987 RMK AC3 SLP124=

CYQG;2006-02-22 15:00;METAR CYQG 221500Z 21011KT 12SM FEW120 BKN250 03/M03 A2986 RMK AC2CC2 SLP120=

CYQG;2006-02-22 16:00;METAR CYQG 221600Z 21015KT 12SM BKN120 04/M03 A2987 RMK AC5 SLP123=

CYQG;2006-02-22 17:00;METAR CYQG 221700Z 21013KT 12SM BKN120 04/M03 A2986 RMK AC7 SLP120=

CYQG;2006-02-22 18:00;METAR CYQG 221800Z 22013KT 12SM BKN120 05/M03 A2986 RMK AC5 SLP116=

CYQG;2006-02-22 19:00;METAR CYQG 221900Z 22013G18KT 15SM FEW040 FEW120 08/M03 A2982 RMK CF1AC1 SLP103=

CYQG;2006-02-22 20:00;METAR CYQG 222000Z 22013G18KT 15SM FEW040 FEW120 08/M03 A2980 RMK CF1AC1 SLP098=

CYQG;2006-02-22 21:00;METAR CYQG 222100Z 23015KT 10SM FEW040 FEW120 09/M03 A2980 RMK CF1AC1 SLP095=

CYQG;2006-02-22 22:00;METAR CYQG 222200Z 22014KT 6SM HZ SCT074 09/M03 A2978 RMK AC4 SLP091=

CYQG;2006-02-22 23:00;METAR CYQG 222300Z 22009KT 8SM BKN086 07/M03 A2979 RMK AC5 SLP092=

CYQG;2006-02-23 00:00;METAR CYQG 230000Z 22008KT 10SM SCT056 BKN079 06/M03 A2980 RMK SC3AC3 SLP099=

CYQG;2006-02-23 01:00;METAR CYQG 230100Z 24006KT 12SM BKN066 05/M03 A2983 RMK AC6 SLP108=

CYQG;2006-02-23 02:00;METAR CYQG 230200Z 24002KT 15SM BKN069 05/M03 A2984 RMK AC6 SLP111=

CYQG;2006-02-23 03:00;METAR CYQG 230300Z 03003KT 15SM BKN078 04/M03 A2985 RMK AC7 SLP113=

CYQG;2006-02-23 04:00;METAR CYQG 230400Z 00000KT 15SM BKN074 03/M03 A2986 RMK AC7 SLP116=

CYQG;2006-02-23 05:00;METAR CYQG 230500Z 28003KT 15SM BKN037 OVC052 03/M06 A2986 RMK SC7SC1 SLP117=

CYQG;2006-02-23 06:00;METAR CYQG 230600Z 00000KT 15SM FEW055 OVC089 01/M02 A2985 RMK SC2AC5 SLP114=

CYQG;2006-02-23 07:00;METAR CYQG 230700Z 24003KT 15SM OVC060 02/M02 A2987 RMK SC8 SLP120=

CYQG;2006-02-23 10:00;METAR CYQG 231000Z 26005KT 12SM FEW160 M01/M03 A2988 RMK AC0 SLP123=

CYQG;2006-02-23 11:00;METAR CYQG 231100Z 27005KT 12SM FEW160 M01/M05 A2990 RMK AC0 SLP130=

CYQG;2006-02-23 12:00;METAR CYQG 231200Z 23006KT 15SM FEW160 M02/M05 A2991 RMK AC1 SLP136=

CYQG;2006-02-23 13:00;METAR CYQG 231300Z 22006KT 12SM FEW120 M01/M04 A2992 RMK AC1 SLP137=

CYQG;2006-02-23 14:00;METAR CYQG 231400Z 22006KT 15SM BKN070 01/M04 A2992 RMK AC5 SLP139=

CYQG;2006-02-23 15:00;METAR CYQG 231500Z 22012KT 15SM FEW070 03/M04 A2991 RMK AC1 SLP134=

CYQG;2006-02-23 16:00;METAR CYQG 231600Z 23016KT 15SM FEW240 05/M03 A2989 RMK CI1 SLP129=

CYQG;2006-02-23 19:00;METAR CYQG 231900Z 23020G27KT 15SM SCT040 SCT078 BKN270 09/M03 A2983 RMK CU3AC1CI2 SLP105=

CYQG;2006-02-23 20:00;METAR CYQG 232000Z 27024G30KT 15SM VCSH BKN063 BKN270 09/M08 A2982 RMK CU6CI2 SHRA NW - NE SLP102=

CYQG;2006-02-23 21:00;METAR CYQG 232100Z 31018G32KT 15SM VCSH FEW021 BKN062 OVC270 04/M01 A2989 RMK SC2CU5CI1 PRESRR SLP127=

CYQG;2006-02-23 21:25;SPECI CYQG 232125Z 30017G26KT 15SM -SHRA SCT022 BKN060 BKN270 RMK SC3CU3CI1=

CYQG;2006-02-23 21:53;SPECI CYQG 232153Z 30017G24KT 15SM FEW020 FEW060 BKN230 RMK CU1SC1CI1=

CYQG;2006-02-23 22:00;METAR CYQG 232200Z 31014G25KT 15SM FEW020 FEW060 SCT220 03/M04 A2992 RMK CU1SC1CI1 SLP137=

CYQG;2006-02-23 23:00;METAR CYQG 232300Z 31017G27KT 15SM FEW040 FEW060 FEW140 SCT220 02/M07 A2995 RMK CU1SC1AC1CI1 SLP149=

CYQG;2006-02-24 00:00;METAR CYQG 240000Z 30016G22KT 15SM FEW040 FEW180 FEW230 02/M08 A2998 RMK SC1AC1CI1 SLP161=

CYQG;2006-02-24 01:00;METAR CYQG 240100Z 30016G22KT 15SM FEW040 FEW160 01/M10 A3001 RMK SC1AC1 SLP171=

CYQG;2006-02-24 03:00;METAR CYQG 240300Z 32013G20KT 15SM FEW042 SCT160 M00/M10 A3007 RMK SC2AC2 SLP192=

CYQG;2006-02-24 04:00;METAR CYQG 240400Z 33014G21KT 15SM BKN039 BKN160 M01/M10 A3011 RMK SC5AC1 SLP203=

CYQG;2006-02-24 05:00;METAR CYQG 240500Z 32021G30KT 15SM FEW041 M02/M12 A3014 RMK SC2 SLP213=

CYQG;2006-02-24 06:00;METAR CYQG 240600Z 33015G24KT 15SM FEW041 M03/M13 A3018 RMK SC1 SLP226=

CYQG;2006-02-24 07:00;METAR CYQG 240700Z 34013G21KT 15SM FEW041 M04/M12 A3021 RMK SC1 SLP238=

CYQG;2006-02-24 08:00;METAR CYQG 240800Z 34007KT 15SM FEW041 M04/M12 A3024 RMK SC1 SLP247=

CYQG;2006-02-24 09:00;METAR CYQG 240900Z 32010KT 15SM SKC M05/M13 A3027 RMK SLP259=

CYQG;2006-02-24 10:00;METAR CYQG 241000Z 33006KT 15SM SKC M05/M13 A3031 RMK SLP271=

CYQG;2006-02-24 11:00;METAR CYQG 241100Z 34005KT 15SM SKC M05/M12 A3033 RMK SLP278=

CYQG;2006-02-24 12:00;METAR CYQG 241200Z 33005KT 15SM FEW050 M06/M12 A3034 RMK SC1 SLP284=

CYQG;2006-02-24 13:00;METAR CYQG 241300Z 31005KT 15SM SKC M05/M11 A3038 RMK SLP295=

CYQG;2006-02-24 14:00;METAR CYQG 241400Z 27004KT 15SM SKC M04/M11 A3040 RMK SLP303=

CYQG;2006-02-24 15:00;METAR CYQG 241500Z 27006KT 15SM FEW030 M03/M12 A3041 RMK CF1 SLP309=

CYQG;2006-02-24 16:00;METAR CYQG 241600Z 25006KT 15SM FEW030 BKN270 M02/M12 A3041 RMK CF1CI1 SLP307=

CYQG;2006-02-24 17:00;METAR CYQG 241700Z 17004KT 15SM FEW030 BKN270 M01/M12 A3039 RMK CF1CI1 SLP301=

CYQG;2006-02-24 19:00;METAR CYQG 241900Z 19010KT 15SM FEW040 BKN280 M01/M11 A3034 RMK SC1CI3 SLP284=

CYQG;2006-02-24 20:00;METAR CYQG 242000Z 21011KT 15SM SCT110 BKN280 M00/M11 A3031 RMK AC3CI2 SLP272=

CYQG;2006-02-24 22:00;METAR CYQG 242200Z 17008KT 15SM OVC090 M01/M10 A3025 RMK AS8 SLP254=

CYQG;2006-02-24 23:00;METAR CYQG 242300Z 14009KT 15SM BKN080 M01/M09 A3022 RMK AS6 SLP242=

CYQG;2006-02-25 00:00;METAR CYQG 250000Z 14009KT 15SM BKN130 BKN270 M02/M09 A3020 RMK AS6CI1 SLP235=

CYQG;2006-02-25 01:00;METAR CYQG 250100Z 14009KT 15SM OVC110 M02/M09 A3017 RMK AS8 SLP226=

CYQG;2006-02-25 02:00;METAR CYQG 250200Z 14012KT 15SM BKN120 M01/M08 A3013 RMK AC7 SLP212=

CYQG;2006-02-25 04:00;METAR CYQG 250400Z 16008KT 15SM OVC100 M00/M06 A3005 RMK AC8 SLP185=

CYQG;2006-02-25 06:00;METAR CYQG 250600Z 18012KT 15SM OVC090 02/M07 A2994 RMK AC8 SLP146=

CYQG;2006-02-25 07:00;METAR CYQG 250700Z 20010KT 15SM OVC091 03/M06 A2989 RMK AC8 SLP130=

CYQG;2006-02-25 09:00;METAR CYQG 250900Z 23009KT 15SM SKC 02/M04 A2981 RMK SLP101=

CYQG;2006-02-25 12:00;METAR CYQG 251200Z 28017G25KT 15SM FEW150 04/M03 A2982 RMK AC1 SLP105=

CYQG;2006-02-25 15:00;METAR CYQG 251500Z 32025G30KT 15SM BKN038 03/M07 A2998 RMK SC6 PRESRR SLP161=

CYQG;2006-02-25 18:00;METAR CYQG 251800Z 34021G28KT 15SM SCT055 02/M11 A3013 RMK SC4 SLP209=

CYQG;2006-02-25 19:00;METAR CYQG 251900Z 32023G29KT 15SM BKN058 02/M11 A3017 RMK SC6 SLP222=

CYQG;2006-02-25 20:00;METAR CYQG 252000Z 33018G27KT 15SM BKN064 01/M14 A3019 RMK SC6 SLP231=

CYQG;2006-02-25 21:00;METAR CYQG 252100Z 32016KT 15SM FEW063 01/M13 A3023 RMK CU2 SLP243=

CYQG;2006-02-25 22:00;METAR CYQG 252200Z 33014G19KT 15SM BKN063 02/M13 A3025 RMK CU6 SLP250=

CYQG;2006-02-25 23:00;METAR CYQG 252300Z 33013KT 15SM FEW075 M00/M11 A3028 RMK AC2 VIRGA ALQDS SLP259=

CYQG;2006-02-25 23:12;SPECI CYQG 252312Z 32012KT 10SM -SHSN BKN070 RMK AC6=

CYQG;2006-02-25 23:51;SPECI CYQG 252351Z 34012G20KT 15SM SCT050 RMK SC3=

CYQG;2006-02-26 01:00;METAR CYQG 260100Z 34017KT 15SM FEW050 M01/M11 A3034 RMK SC1 SLP282=

CYQG;2006-02-26 02:00;METAR CYQG 260200Z 34016G26KT 15SM FEW050 M02/M14 A3036 RMK SC1 SLP288=

CYQG;2006-02-26 04:00;METAR CYQG 260400Z 34014KT 15SM FEW045 M04/M13 A3040 RMK SC1 SLP304=

CYQG;2006-02-26 05:00;METAR CYQG 260500Z 35013G19KT 15SM FEW046 M04/M13 A3040 RMK SC1 SLP304=

CYQG;2006-02-26 07:00;METAR CYQG 260700Z 34012G17KT 15SM FEW044 M06/M15 A3042 RMK SC2 SLP309=

CYQG;2006-02-26 09:00;METAR CYQG 260900Z 34014G20KT 15SM SKC M07/M15 A3042 RMK SLP310=

CYQG;2006-02-26 10:00;METAR CYQG 261000Z 34013G19KT 15SM SKC M07/M15 A3041 RMK SLP309=

CYQG;2006-02-26 11:00;METAR CYQG 261100Z 33011G20KT 15SM SKC M08/M16 A3043 RMK SLP313=

CYQG;2006-02-26 12:00;METAR CYQG 261200Z 32016KT 15SM FEW015 M08/M15 A3044 RMK CF1 SLP317=

CYQG;2006-02-26 13:00;METAR CYQG 261300Z 33011G16KT 15SM FEW020 M08/M15 A3045 RMK CF1 SLP321=

CYQG;2006-02-26 14:00;METAR CYQG 261400Z 34011G19KT 15SM FEW020 M07/M15 A3046 RMK CF1 SLP325=

CYQG;2006-02-26 15:00;METAR CYQG 261500Z 32012G20KT 15SM FEW020 M06/M15 A3046 RMK CF1 SLP324=

CYQG;2006-02-26 16:00;METAR CYQG 261600Z 32012KT 15SM FEW030 M05/M16 A3044 RMK SC1 SLP318=

CYQG;2006-02-26 17:00;METAR CYQG 261700Z 32009G16KT 15SM FEW030 M04/M16 A3042 RMK SC1 SLP312=

CYQG;2006-02-26 19:00;METAR CYQG 261900Z 27007G16KT 15SM FEW040 M03/M17 A3036 RMK SC2 SLP292=

CYQG;2006-02-26 20:00;METAR CYQG 262000Z 30010G17KT 15SM SCT060 BKN230 M03/M16 A3034 RMK SC3CC2 SLP286=

CYQG;2006-02-26 21:00;METAR CYQG 262100Z 31011KT 15SM FEW057 SCT110 M02/M16 A3032 RMK CU2AC1 SLP279=

CYQG;2006-02-26 23:00;METAR CYQG 262300Z 29010KT 15SM FEW060 BKN110 M03/M16 A3029 RMK SC2AC3 SLP267=

CYQG;2006-02-27 00:00;METAR CYQG 270000Z 30008KT 15SM FEW060 BKN110 M03/M15 A3027 RMK SC1AC5 SLP262=

CYQG;2006-02-27 01:00;METAR CYQG 270100Z 28006KT 15SM FEW100 M04/M15 A3026 RMK AC1 SLP258=

CYQG;2006-02-27 02:00;METAR CYQG 270200Z 29009KT 15SM FEW220 M04/M14 A3024 RMK CI1 SLP252=

CYQG;2006-02-27 04:00;METAR CYQG 270400Z 28006KT 15SM FEW220 M05/M15 A3020 RMK CI1 SLP238=

CYQG;2006-02-27 05:00;METAR CYQG 270500Z 28006KT 15SM BKN180 M06/M15 A3019 RMK AC2 SLP235=

CYQG;2006-02-27 08:00;METAR CYQG 270800Z 25005KT 15SM FEW040 SCT090 OVC180 M05/M14 A3015 RMK SC2AC2AC3 SLP219=

CYQG;2006-02-27 09:38;SPECI CYQG 270938Z 24006KT 15SM -SHSN SCT043 OVC092 RMK SC3AC5=

CYQG;2006-02-27 10:00;METAR CYQG 271000Z 24006KT 15SM FEW047 OVC095 M05/M13 A3010 RMK SC2AC6 OCNL SHSN SLP203=

CYQG;2006-02-27 11:00;METAR CYQG 271100Z 25004KT 15SM SCT029 OVC090 M04/M13 A3009 RMK SC4AC4 SLP199=

CYQG;2006-02-27 11:21;SPECI CYQG 271121Z 26005KT 15SM -SHSN BKN031 OVC080 RMK SC6AC2=

CYQG;2006-02-27 12:00;METAR CYQG 271200Z 26005KT 3SM -SHSN FEW018 OVC030 M05/M07 A3007 RMK SC2SC6 SLP194=

CYQG;2006-02-27 12:04;SPECI CYQG 271204Z 27005KT 2 1/2SM -SHSN FEW018 OVC032 RMK SC2SC6=

CYQG;2006-02-27 12:14;SPECI CYQG 271214Z 26005KT 3SM -SHSN OVC032 RMK SC8=

CYQG;2006-02-27 13:00;METAR CYQG 271300Z 26002KT 3SM -SHSN OVC025 M04/M07 A3007 RMK SN1SC7 SLP194=

CYQG;2006-02-27 13:18;SPECI CYQG 271318Z 27002KT 2SM -SN OVC024 RMK SN2SC6=

CYQG;2006-02-27 13:43;SPECI CYQG 271343Z 00000KT 1 1/2SM -SN SCT011 OVC024 RMK SN2SF2SC4=

CYQG;2006-02-27 14:43;SPECI CYQG 271443Z 29005KT 1 1/2SM -SN BKN012 OVC030 RMK SN2SF3SC3=

CYQG;2006-02-27 15:11;SPECI CYQG 271511Z 34008KT 7SM -SN BKN011 OVC030 RMK SF5SC3=

CYQG;2006-02-27 15:46;SPECI CYQG 271546Z 33005KT 7SM -SN BKN018 OVC026 RMK SC5SC2 /S01/=

CYQG;2006-02-27 17:00;METAR CYQG 271700Z 27007KT 7SM -SN BKN024 OVC040 M02/M07 A3004 RMK SC6SC2 SLP181=

CYQG;2006-02-27 18:00;METAR CYQG 271800Z 29010G16KT 7SM -SN BKN031 OVC060 M01/M07 A3001 RMK SC6NS2 SLP171=

CYQG;2006-02-27 19:00;METAR CYQG 271900Z 29010G15KT 6SM -SN SCT035 OVC060 M01/M08 A2999 RMK SC3NS5 SLP164=

CYQG;2006-02-27 20:00;METAR CYQG 272000Z 30012KT 7SM -SN BKN025 BKN040 M02/M08 A2998 RMK SC5NS2 SLP161=

CYQG;2006-02-27 21:00;METAR CYQG 272100Z 31013G18KT 12SM -SN OVC041 M02/M09 A2998 RMK SF8 SLP162=

CYQG;2006-02-27 22:00;METAR CYQG 272200Z 29009KT 15SM -SN OVC053 M02/M10 A2998 RMK SC8 SLP162=

CYQG;2006-02-27 22:39;SPECI CYQG 272239Z 31009KT 15SM FEW030 BKN058 RMK SC1SC6=

CYQG;2006-02-28 00:00;METAR CYQG 280000Z 31006KT 15SM FEW050 BKN110 M02/M11 A2999 RMK SC2AC6 SLP165=

CYQG;2006-02-28 01:00;METAR CYQG 280100Z 33008KT 15SM BKN094 M02/M13 A3001 RMK AC6 SLP171=

CYQG;2006-02-28 02:00;METAR CYQG 280200Z 36005KT 15SM FEW090 M04/M12 A3001 RMK AC2 SLP173=

CYQG;2006-02-28 04:00;METAR CYQG 280400Z 36004KT 15SM SKC M05/M12 A3003 RMK SLP180=

CYQG;2006-02-28 05:00;METAR CYQG 280500Z 01011KT 15SM SKC M06/M12 A3003 RMK SLP178=

CYQG;2006-02-28 06:00;METAR CYQG 280600Z 36009KT 15SM SKC M07/M12 A3002 RMK SLP177=

CYQG;2006-02-28 07:00;METAR CYQG 280700Z 01010KT 15SM SKC M07/M12 A3005 RMK SLP185=

CYQG;2006-02-28 08:00;METAR CYQG 280800Z 36007KT 15SM SKC M08/M12 A3004 RMK SLP183=

CYQG;2006-02-28 09:00;METAR CYQG 280900Z 00000KT 15SM SKC M08/M12 A3004 RMK SLP183=

CYQG;2006-02-28 11:00;METAR CYQG 281100Z 33004KT 15SM SKC M08/M13 A3007 RMK SLP191=

CYQG;2006-02-28 12:00;METAR CYQG 281200Z 33004KT 10SM BKN250 M08/M13 A3008 RMK CI2 SLP196=

CYQG;2006-02-28 14:00;METAR CYQG 281400Z 28004KT 15SM BKN250 M06/M14 A3009 RMK CI4 SLP199=

CYQG;2006-02-28 15:00;METAR CYQG 281500Z 27008KT 15SM FEW030 BKN210 M05/M15 A3007 RMK CU1CI6 SLP194=

CYQG;2006-02-28 16:00;METAR CYQG 281600Z 28006KT 15SM FEW030 SCT220 M04/M14 A3005 RMK SC1CI2 SLP186=

CYQG;2006-02-28 17:00;METAR CYQG 281700Z 29010KT 15SM FEW030 BKN220 M03/M15 A3004 RMK SC1CI4 SLP183=

CYQG;2006-02-28 18:00;METAR CYQG 281800Z 29007G15KT 15SM BKN250 M01/M14 A3001 RMK CI2 SLP173=

CYQG;2006-02-28 20:00;METAR CYQG 282000Z 26009KT 15SM FEW050 FEW080 BKN120 00/M15 A2995 RMK SC1AC2AC2 SLP153=

CYQG;2006-02-28 22:00;METAR CYQG 282200Z 27011G16KT 15SM BKN140 BKN260 01/M15 A2994 RMK AC7CI1 SLP148=

CYQG;2006-02-28 23:00;METAR CYQG 282300Z 30009KT 15SM BKN140 BKN260 01/M14 A2993 RMK AC6CI2 SLP145=

CYQG;2006-03-01 00:00;METAR CYQG 010000Z 31006KT 15SM BKN130 00/M14 A2992 RMK AC7 SLP143=

CYQG;2006-03-01 01:00;METAR CYQG 010100Z 32005KT 15SM BKN110 00/M13 A2994 RMK AC7 SLP148=

CYQG;2006-03-01 03:00;METAR CYQG 010300Z 30010KT 15SM OVC120 M00/M12 A2995 RMK AC8 SLP150=

CYQG;2006-03-01 05:00;METAR CYQG 010500Z 31008KT 15SM BKN120 M01/M11 A2995 RMK AC6 SLP152=

CYQG;2006-03-01 06:00;METAR CYQG 010600Z 32009KT 15SM FEW072 BKN130 M01/M11 A2995 RMK AC2AC5 SLP152=

CYQG;2006-03-01 07:00;METAR CYQG 010700Z 33010KT 15SM FEW120 M02/M11 A2996 RMK AC2 SLP153=

CYQG;2006-03-01 08:00;METAR CYQG 010800Z 33010KT 15SM FEW120 M03/M11 A2996 RMK AC2 SLP153=

CYQG;2006-03-01 09:00;METAR CYQG 010900Z 36005KT 15SM FEW110 M03/M11 A2997 RMK AC2 SLP157=

CYQG;2006-03-01 11:00;METAR CYQG 011100Z 02006KT 15SM FEW100 M04/M16 A2999 RMK AC1 SLP164=

CYQG;2006-03-01 12:00;METAR CYQG 011200Z 02006KT 15SM FEW100 M05/M15 A3001 RMK AC2 SLP171=

CYQG;2006-03-01 13:00;METAR CYQG 011300Z 02006KT 15SM FEW220 M04/M13 A3001 RMK CI1 CONTRAILS SLP172=

CYQG;2006-03-01 14:00;METAR CYQG 011400Z 03008KT 15SM FEW220 M03/M12 A3002 RMK CI1 SLP176=

CYQG;2006-03-01 15:00;METAR CYQG 011500Z 07003KT 15SM FEW100 FEW220 M03/M12 A3004 RMK AC1CI1 SLP181=

CYQG;2006-03-01 16:00;METAR CYQG 011600Z 26002KT 15SM BKN210 M01/M12 A3003 RMK CI3 SLP179=

CYQG;2006-03-01 17:00;METAR CYQG 011700Z 08003KT 15SM FEW100 BKN230 M00/M12 A3002 RMK AC1CS6 SLP175=

CYQG;2006-03-01 18:00;METAR CYQG 011800Z 18003KT 15SM BKN240 00/M12 A3000 RMK CS6 SLP168=

CYQG;2006-03-01 21:00;METAR CYQG 012100Z 12003KT 15SM FEW150 BKN160 02/M12 A2993 RMK AC2AC4 SLP142=

CYQG;2006-03-01 22:00;METAR CYQG 012200Z 18003KT 15SM BKN130 BKN160 01/M11 A2992 RMK AC6AC1 SLP141=

CYQG;2006-03-01 23:00;METAR CYQG 012300Z 19008KT 15SM SCT092 BKN200 M00/M12 A2992 RMK AC3CC2 SLP139=

CYQG;2006-03-02 00:00;METAR CYQG 020000Z 18005KT 15SM BKN120 M01/M10 A2990 RMK AC6 SLP134=

CYQG;2006-03-02 02:00;METAR CYQG 020200Z 07003KT 15SM OVC110 M01/M09 A2989 RMK AC8 SLP132=

CYQG;2006-03-02 03:00;METAR CYQG 020300Z 20002KT 15SM OVC120 M01/M09 A2989 RMK AC8 SLP131=

CYQG;2006-03-02 04:12;SPECI CYQG 020412Z 09002KT 15SM -FZRA OVC054 RMK SC8=

CYQG;2006-03-02 04:39;SPECI CYQG 020439Z 07002KT 15SM SCT050 OVC100 REFZRA RMK SC3AC5=

CYQG;2006-03-02 05:00;METAR CYQG 020500Z 00000KT 15SM SCT050 OVC093 M01/M07 A2986 REFZRA RMK SC3AC5 SLP119=

CYQG;2006-03-02 06:00;METAR CYQG 020600Z 07008KT 12SM -FZRA OVC073 M01/M06 A2977 RMK AC8 PRESFR SLP090=

CYQG;2006-03-02 07:00;METAR CYQG 020700Z 09005KT 15SM OVC056 M01/M06 A2974 REFZRA RMK SC8 SLP080=

CYQG;2006-03-02 08:00;METAR CYQG 020800Z 08005KT 15SM OVC053 M01/M05 A2973 RMK SC8 SLP075=

CYQG;2006-03-02 08:25;SPECI CYQG 020825Z 08008KT 15SM -FZRA OVC039 RMK SC8=

CYQG;2006-03-02 08:54;SPECI CYQG 020854Z 05009KT 12SM FZRA OVC035 RMK SC8=

CYQG;2006-03-02 09:03;SPECI CYQG 020903Z 05008KT 12SM -FZRA OVC035 RMK SC8=

CYQG;2006-03-02 09:19;SPECI CYQG 020919Z 06010KT 15SM OVC034 REFZRA RMK SC8=

CYQG;2006-03-02 09:46;SPECI CYQG 020946Z 05012KT 12SM -FZRA OVC034 RMK SC8 FZRA INTMT=

CYQG;2006-03-02 11:24;SPECI CYQG 021124Z 05013KT 15SM FEW010 OVC030 REFZRA RMK SF2SC6=

CYQG;2006-03-02 12:00;METAR CYQG 021200Z 07014KT 15SM FEW010 OVC029 M01/M04 A2964 REFZRA RMK SF2SC6 SLP045=

CYQG;2006-03-02 12:33;SPECI CYQG 021233Z 06009KT 10SM -FZRA BKN010 OVC026 RMK SF5SC3=

CYQG;2006-03-02 13:00;METAR CYQG 021300Z 07012KT 10SM -FZRA SCT010 OVC026 M01/M04 A2962 RMK SF3SC5 SLP039=

CYQG;2006-03-02 13:15;SPECI CYQG 021315Z 02010KT 7SM -PL -FZRA BKN010 OVC026 RMK SF6SC2=

CYQG;2006-03-02 13:28;SPECI CYQG 021328Z 05013G19KT 2 1/4SM -SHGS -FZRA BKN009 OVC026 RMK SN1SF6SC2=

CYQG;2006-03-02 13:32;SPECI CYQG 021332Z 06014KT 3SM -PL -FZRA BKN009 OVC026 RMK SF6SC2=

CYQG;2006-03-02 13:47;SPECI CYQG 021347Z 04009KT 2 1/2SM -PL -FZRA BR BKN008 OVC025 RMK FG1SF6SC2=

CYQG;2006-03-02 14:00;METAR CYQG 021400Z 06010KT 2SM -PL BR OVC007 M02/M03 A2964 REFZRA RMK FG2SF6 SLP043=

CYQG;2006-03-02 14:35;SPECI CYQG 021435Z 05011KT 1 1/2SM -SN BR OVC008 RMK FG2SF6=

CYQG;2006-03-02 15:25;SPECI CYQG 021525Z 35007KT 1SM -SN BKN009 OVC028 RMK SN2SF2SC3=

CYQG;2006-03-02 15:45;SPECI CYQG 021545Z 02009KT 1 1/2SM -SN SCT007 BKN013 OVC029 RMK SN2SF2SC2SC2=

CYQG;2006-03-02 16:00;METAR CYQG 021600Z 01007KT 2SM -SN SCT007 OVC013 M01/M03 A2969 RMK SN1SF2SC5 SLP063=

CYQG;2006-03-02 16:51;SPECI CYQG 021651Z 03011KT 4SM -SN FEW009 OVC014 RMK SF2SC6=

CYQG;2006-03-02 17:00;METAR CYQG 021700Z 03007KT 6SM -SN FEW008 OVC013 M02/M04 A2973 RMK SF2SC6 SLP074=

CYQG;2006-03-02 19:00;METAR CYQG 021900Z 34010KT 8SM -SN BKN013 OVC021 M01/M04 A2978 RMK SC5SC3 SLP091=

CYQG;2006-03-02 20:00;METAR CYQG 022000Z 34008KT 3SM -SN SCT013 OVC043 M01/M03 A2982 RMK SC3SC5 SLP104=

CYQG;2006-03-02 20:51;SPECI CYQG 022051Z 01015KT 3SM -SN SCT010 BKN014 OVC030 RMK SC3SC3SC2=

CYQG;2006-03-02 22:00;METAR CYQG 022200Z 35010KT 4SM -SN SCT032 OVC050 M02/M05 A2992 RMK SC3SC5 SLP138=

CYQG;2006-03-02 23:26;SPECI CYQG 022326Z 35008KT 15SM OVC022 RMK SC8=

CYQG;2006-03-03 00:00;METAR CYQG 030000Z 35008KT 15SM BKN025 M02/M06 A2998 RMK SC7 SLP162=

CYQG;2006-03-03 01:00;METAR CYQG 030100Z 36008G15KT 15SM BKN026 M02/M07 A3003 RMK SC6 SLP176=

CYQG;2006-03-03 02:00;METAR CYQG 030200Z 35007KT 15SM FEW021 OVC031 M03/M08 A3006 RMK SC1SC8 SLP187=

CYQG;2006-03-03 03:00;METAR CYQG 030300Z 36005KT 15SM FEW025 BKN039 M03/M08 A3009 RMK SC2SC5 SLP197=

CYQG;2006-03-03 03:29;SPECI CYQG 030329Z 01006KT 15SM -SHSN FEW023 BKN039 RMK SC2SC5=

CYQG;2006-03-03 04:00;METAR CYQG 030400Z 36009KT 15SM -SHSN FEW019 SCT022 BKN041 M03/M07 A3012 RMK SC1SC3SC4 SLP207=

CYQG;2006-03-03 05:00;METAR CYQG 030500Z 36008KT 15SM -SHSN FEW020 BKN042 M04/M09 A3014 RMK SC2SC5 SLP214=

CYQG;2006-03-03 06:00;METAR CYQG 030600Z 36005KT 15SM -SHSN FEW020 OVC042 M04/M10 A3015 RMK SC2SC6 SLP218=

CYQG;2006-03-03 07:28;SPECI CYQG 030728Z 33006KT 15SM BKN037 RMK SC7=

CYQG;2006-03-03 08:00;METAR CYQG 030800Z 32007KT 15SM BKN036 M04/M10 A3016 RMK SC7 SLP223=

CYQG;2006-03-03 09:00;METAR CYQG 030900Z 32011KT 15SM OVC034 M04/M10 A3016 RMK SC8 SLP222=

CYQG;2006-03-03 09:06;SPECI CYQG 030906Z 32010G15KT 15SM -SHSN OVC033 RMK SC8=

CYQG;2006-03-03 10:00;METAR CYQG 031000Z 31007KT 15SM -SHSN OVC032 M04/M10 A3017 RMK SC8 SLP225=

CYQG;2006-03-03 11:00;METAR CYQG 031100Z 32008KT 15SM -SHSN OVC033 M04/M10 A3019 RMK SC8 SLP233=

CYQG;2006-03-03 12:00;METAR CYQG 031200Z 33009KT 12SM -SHSN FEW015 OVC036 M04/M10 A3021 RMK CF1SC8 SLP241=

CYQG;2006-03-03 13:00;METAR CYQG 031300Z 35007KT 15SM -SHSN BKN036 M04/M10 A3023 RMK SC7 SLP247=

CYQG;2006-03-03 14:00;METAR CYQG 031400Z 35008KT 15SM -SHSN FEW020 BKN036 M04/M09 A3025 RMK CU1SC6 SLP254=

CYQG;2006-03-03 14:21;SPECI CYQG 031421Z 34007KT 15SM FEW022 BKN035 RMK CU1SC6=

CYQG;2006-03-03 16:00;METAR CYQG 031600Z 32008KT 15SM BKN032 BKN040 M02/M09 A3028 RMK CU5SC1 SLP263=

CYQG;2006-03-03 17:00;METAR CYQG 031700Z 33011KT 15SM BKN036 M02/M10 A3028 RMK CU5 SLP264=

CYQG;2006-03-03 18:00;METAR CYQG 031800Z 35010KT 15SM BKN035 M02/M09 A3029 RMK SC6 SLP267=

CYQG;2006-03-03 20:00;METAR CYQG 032000Z 33007KT 15SM FEW038 M01/M09 A3028 RMK SC2 SLP264=

CYQG;2006-03-03 21:00;METAR CYQG 032100Z 33008KT 15SM FEW038 M00/M10 A3028 RMK SC1 SLP264=

CYQG;2006-03-03 22:00;METAR CYQG 032200Z 34008KT 15SM FEW042 00/M10 A3029 RMK SC2 SLP268=

CYQG;2006-03-03 23:00;METAR CYQG 032300Z 32006KT 15SM FEW044 M01/M10 A3030 RMK SC2 SLP270=

CYQG;2006-03-04 00:00;METAR CYQG 040000Z 34006KT 15SM FEW040 M01/M10 A3031 RMK CU1 SLP272=

CYQG;2006-03-04 01:00;METAR CYQG 040100Z 32005KT 15SM SKC M02/M10 A3032 RMK SLP276=

CYQG;2006-03-04 03:00;METAR CYQG 040300Z 28006KT 15SM SKC M03/M10 A3033 RMK SLP282=

CYQG;2006-03-04 08:00;METAR CYQG 040800Z 33007KT 15SM SKC M05/M11 A3034 RMK SLP282=

CYQG;2006-03-04 09:00;METAR CYQG 040900Z 33007KT 15SM SKC M06/M11 A3034 RMK SLP283=

CYQG;2006-03-04 10:00;METAR CYQG 041000Z 32009KT 15SM SKC M06/M11 A3035 RMK SLP286=

CYQG;2006-03-04 11:00;METAR CYQG 041100Z 32007KT 15SM SKC M06/M11 A3035 RMK SLP289=

CYQG;2006-03-04 12:00;METAR CYQG 041200Z 31009KT 15SM SKC M06/M11 A3037 RMK SLP293=

CYQG;2006-03-04 13:00;METAR CYQG 041300Z 33008KT 15SM SKC M06/M11 A3038 RMK SLP296=

CYQG;2006-03-04 14:00;METAR CYQG 041400Z 33010KT 15SM SKC M05/M11 A3038 RMK SLP299=

CYQG;2006-03-04 16:00;METAR CYQG 041600Z 32008KT 15SM SKC M01/M11 A3037 RMK SLP294=

CYQG;2006-03-04 17:00;METAR CYQG 041700Z 29004KT 15SM SKC M00/M11 A3037 RMK SLP294=

CYQG;2006-03-04 18:00;METAR CYQG 041800Z 35006KT 15SM SKC 02/M10 A3036 RMK SLP290=

CYQG;2006-03-04 19:00;METAR CYQG 041900Z 33007KT 15SM SKC 04/M09 A3035 RMK SLP286=

CYQG;2006-03-04 20:00;METAR CYQG 042000Z 35004KT 15SM SKC 04/M08 A3035 RMK SLP285=

CYQG;2006-03-04 21:00;METAR CYQG 042100Z 32006KT 15SM FEW040 04/M09 A3035 RMK SC1 SLP286=

CYQG;2006-03-04 22:00;METAR CYQG 042200Z 31009KT 15SM FEW050 04/M08 A3035 RMK SC1 SLP286=

CYQG;2006-03-04 23:00;METAR CYQG 042300Z 33006KT 15SM SKC 03/M08 A3035 RMK SLP286=

CYQG;2006-03-05 00:00;METAR CYQG 050000Z 33007KT 15SM SKC 01/M08 A3036 RMK SLP291=

CYQG;2006-03-05 01:00;METAR CYQG 050100Z 33006KT 15SM SKC 01/M07 A3037 RMK SLP294=

CYQG;2006-03-05 04:00;METAR CYQG 050400Z 28005KT 15SM SKC M01/M07 A3037 RMK SLP293=

CYQG;2006-03-05 06:00;METAR CYQG 050600Z 28005KT 15SM SKC M01/M07 A3036 RMK SLP289=

CYQG;2006-03-05 07:00;METAR CYQG 050700Z 32005KT 15SM SKC M02/M07 A3037 RMK SLP291=

CYQG;2006-03-05 09:00;METAR CYQG 050900Z 29005KT 15SM SKC M03/M07 A3035 RMK SLP287=

CYQG;2006-03-05 11:00;METAR CYQG 051100Z 34002KT 15SM FEW210 M03/M08 A3035 RMK CI2 SLP284=

CYQG;2006-03-05 12:00;METAR CYQG 051200Z 00000KT 12SM FEW210 M04/M08 A3037 RMK CI2 SLP293=

CYQG;2006-03-05 13:00;METAR CYQG 051300Z 00000KT 15SM BKN240 M03/M07 A3037 RMK CI2 SLP292=

CYQG;2006-03-05 14:00;METAR CYQG 051400Z 36003KT 15SM FEW100 BKN250 M01/M07 A3036 RMK AC1CI2 SLP290=

CYQG;2006-03-05 15:00;METAR CYQG 051500Z 01003KT 15SM FEW100 OVC230 00/M07 A3035 RMK AC1CS5=

CYQG;2006-03-05 16:00;METAR CYQG 051600Z 16002KT 15SM FEW030 OVC240 01/M06 A3034 RMK SC1CS6 SLP283=

CYQG;2006-03-05 17:00;METAR CYQG 051700Z 15003KT 15SM FEW030 OVC240 02/M06 A3034 RMK SC1CS6 SLP282=

CYQG;2006-03-05 18:00;METAR CYQG 051800Z 20003KT 15SM OVC240 03/M07 A3031 RMK CS7 SLP273=

CYQG;2006-03-05 19:00;METAR CYQG 051900Z 15002KT 15SM FEW030 OVC240 04/M07 A3027 RMK SC1CS6 SLP260=

CYQG;2006-03-05 20:00;METAR CYQG 052000Z 17002KT 15SM FEW030 OVC250 04/M07 A3025 RMK SC1CS7 SLP252=

CYQG;2006-03-05 21:00;METAR CYQG 052100Z 22007KT 15SM FEW030 OVC250 03/M06 A3024 RMK SC1CS6 SLP248=

CYQG;2006-03-05 22:00;METAR CYQG 052200Z 19005KT 15SM FEW030 FEW160 OVC220 03/M05 A3022 RMK SC1AC1CS7 SLP242=

CYQG;2006-03-06 00:00;METAR CYQG 060000Z 15003KT 15SM OVC210 01/M05 A3022 RMK CS7 SLP242=

CYQG;2006-03-06 01:00;METAR CYQG 060100Z 12004KT 15SM OVC200 01/M05 A3021 RMK CS7 SLP239=

CYQG;2006-03-06 05:00;METAR CYQG 060500Z 08002KT 15SM OVC090 M00/M04 A3015 RMK AC8 SLP218=

CYQG;2006-03-06 08:00;METAR CYQG 060800Z 09002KT 15SM OVC077 M00/M04 A3011 RMK AC8 SLP204=

CYQG;2006-03-06 09:00;METAR CYQG 060900Z 09004KT 15SM OVC074 M01/M04 A3009 RMK AC8 SLP197=

CYQG;2006-03-06 10:00;METAR CYQG 061000Z 06003KT 15SM OVC070 M01/M04 A3010 RMK AC8 SLP200=

CYQG;2006-03-06 11:00;METAR CYQG 061100Z 07004KT 15SM OVC053 M01/M04 A3010 RMK SC8 SLP201=

CYQG;2006-03-06 12:00;METAR CYQG 061200Z 06006KT 15SM SCT057 OVC090 M01/M05 A3010 RMK SC4AC4 SLP201=

CYQG;2006-03-06 13:00;METAR CYQG 061300Z 07007KT 15SM OVC055 M01/M05 A3010 RMK SC8 SLP200=

CYQG;2006-03-06 14:00;METAR CYQG 061400Z 06006KT 15SM OVC056 M01/M05 A3010 RMK SC8 SLP200=

CYQG;2006-03-06 15:00;METAR CYQG 061500Z 05007KT 15SM FEW040 OVC045 00/M06 A3012 RMK SC1SC7 SLP206=

CYQG;2006-03-06 16:00;METAR CYQG 061600Z 04005KT 15SM FEW040 OVC044 00/M05 A3012 RMK CF1SC8 SLP208=

CYQG;2006-03-06 17:00;METAR CYQG 061700Z 03006KT 15SM OVC065 00/M05 A3012 RMK SC8 SLP207=

CYQG;2006-03-06 18:00;METAR CYQG 061800Z 05010G15KT 15SM FEW040 OVC073 01/M06 A3011 RMK SC1AC8 SLP204=

CYQG;2006-03-06 19:00;METAR CYQG 061900Z 03008KT 15SM FEW040 BKN085 OVC100 03/M07 A3012 RMK SC1AC6AC2 SLP207=

CYQG;2006-03-06 20:00;METAR CYQG 062000Z 03013KT 15SM FEW040 OVC100 03/M10 A3013 RMK SC1AC6 SLP209=

CYQG;2006-03-06 21:00;METAR CYQG 062100Z 03015KT 15SM FEW040 FEW100 BKN270 03/M09 A3014 RMK SC1AC2CI4 SLP212=

CYQG;2006-03-06 22:00;METAR CYQG 062200Z 05012KT 15SM FEW140 BKN270 03/M07 A3014 RMK AC2CI1 SLP214=

CYQG;2006-03-06 23:00;METAR CYQG 062300Z 04014G20KT 15SM BKN150 BKN270 02/M08 A3016 RMK AC5CI1 SLP220=

CYQG;2006-03-07 00:00;METAR CYQG 070000Z 04012KT 15SM FEW130 BKN270 01/M07 A3019 RMK AC2CI2 SLP231=

CYQG;2006-03-07 01:00;METAR CYQG 070100Z 01009KT 15SM FEW130 BKN270 M00/M11 A3022 RMK AC2CI2 SLP241=

CYQG;2006-03-07 03:00;METAR CYQG 070300Z 36009KT 15SM SKC M02/M08 A3027 RMK SLP259=

CYQG;2006-03-07 04:00;METAR CYQG 070400Z 01009KT 15SM SKC M03/M07 A3028 RMK SLP263=

CYQG;2006-03-07 06:00;METAR CYQG 070600Z 35005KT 15SM SKC M03/M07 A3028 RMK SLP263=

CYQG;2006-03-07 08:00;METAR CYQG 070800Z 36006KT 15SM SKC M04/M08 A3030 RMK SLP270=

CYQG;2006-03-07 09:00;METAR CYQG 070900Z 36006KT 15SM SKC M04/M08 A3031 RMK SLP273=

CYQG;2006-03-07 10:00;METAR CYQG 071000Z 33003KT 15SM SKC M04/M08 A3033 RMK SLP278=

CYQG;2006-03-07 11:00;METAR CYQG 071100Z 31002KT 15SM SKC M04/M09 A3034 RMK SLP282=

CYQG;2006-03-07 12:00;METAR CYQG 071200Z 00000KT 15SM SKC M05/M09 A3035 RMK SLP287=

CYQG;2006-03-07 13:00;METAR CYQG 071300Z 00000KT 15SM FEW250 M03/M08 A3036 RMK CI0 SLP291=

CYQG;2006-03-07 14:00;METAR CYQG 071400Z 36005KT 15SM FEW250 M00/M09 A3039 RMK CI0 SLP299=

CYQG;2006-03-07 16:00;METAR CYQG 071600Z 00000KT 15SM FEW250 03/M06 A3037 RMK CI1 SLP293=

CYQG;2006-03-07 18:00;METAR CYQG 071800Z 04003KT 15SM FEW040 BKN250 05/M10 A3034 RMK CF1CI1 SLP282=

CYQG;2006-03-07 21:00;METAR CYQG 072100Z 10008KT 15SM BKN270 05/M12 A3028 RMK CI4 SLP261=

CYQG;2006-03-07 22:00;METAR CYQG 072200Z 19009KT 15SM BKN270 04/M07 A3026 RMK CI4 SLP253=

CYQG;2006-03-07 23:00;METAR CYQG 072300Z 17006KT 15SM BKN270 03/M08 A3024 RMK CI6 SLP247=

CYQG;2006-03-08 00:00;METAR CYQG 080000Z 18005KT 15SM BKN270 01/M09 A3023 RMK CI6 SLP247=

CYQG;2006-03-08 01:00;METAR CYQG 080100Z 18005KT 15SM BKN240 M00/M09 A3023 RMK CI6 SLP246=

CYQG;2006-03-08 04:00;METAR CYQG 080400Z 19004KT 15SM OVC220 M00/M07 A3021 RMK CI8 SLP237=

CYQG;2006-03-08 05:00;METAR CYQG 080500Z 14003KT 15SM OVC210 M01/M06 A3018 RMK CS8 SLP229=

CYQG;2006-03-08 06:00;METAR CYQG 080600Z 17005KT 15SM OVC180 M00/M06 A3016 RMK AS8 SLP221=

CYQG;2006-03-08 09:00;METAR CYQG 080900Z 15008KT 15SM OVC110 00/M05 A3008 RMK AC8 SLP193=

CYQG;2006-03-08 10:00;METAR CYQG 081000Z 15009KT 15SM -SHPL OVC070 01/M06 A3005 RMK AC8 SLP182=

CYQG;2006-03-08 10:14;SPECI CYQG 081014Z 14010KT 15SM -SHRAPL OVC060 RMK SC8=

CYQG;2006-03-08 10:22;SPECI CYQG 081022Z 15009KT 15SM -SHRA OVC053 RMK SC8=

CYQG;2006-03-08 11:00;METAR CYQG 081100Z 16007KT 12SM -SHRA OVC053 00/M04 A3004 RMK SC8 SLP179=

CYQG;2006-03-08 11:51;SPECI CYQG 081151Z 15006KT 12SM OVC066 RMK AC8=

CYQG;2006-03-08 12:00;METAR CYQG 081200Z 14006KT 12SM OVC063 00/M03 A3002 RMK SC8 SLP174=

CYQG;2006-03-08 13:00;METAR CYQG 081300Z 15006KT 12SM FEW045 OVC057 01/M03 A3001 RMK SC1SC7 SLP170=

CYQG;2006-03-08 14:00;METAR CYQG 081400Z 16007KT 12SM OVC044 01/M03 A2998 RMK SC8 SLP159=

CYQG;2006-03-08 15:00;METAR CYQG 081500Z 16009KT 15SM OVC058 03/M03 A2994 RMK SC8 SLP145=

CYQG;2006-03-08 16:00;METAR CYQG 081600Z 18012KT 15SM OVC050 05/M03 A2992 RMK SC8 SLP137=

CYQG;2006-03-08 17:00;METAR CYQG 081700Z 19014KT 15SM OVC028 05/M03 A2988 RMK SC8 SLP126=

CYQG;2006-03-08 18:00;METAR CYQG 081800Z 20016KT 12SM FEW025 OVC049 07/M01 A2984 RMK SC2SC5 SLP111=

CYQG;2006-03-08 19:00;METAR CYQG 081900Z 20015KT 8SM OVC049 07/01 A2981 RMK SC8 SLP101=

CYQG;2006-03-08 20:00;METAR CYQG 082000Z 19011G16KT 7SM OVC047 07/02 A2977 RMK SC8 SLP088=

CYQG;2006-03-08 21:00;METAR CYQG 082100Z 21012KT 7SM OVC042 08/02 A2976 RMK SC6 SLP082=

CYQG;2006-03-08 22:00;METAR CYQG 082200Z 20010G17KT 8SM OVC044 08/02 A2974 RMK SC8 SLP077=

CYQG;2006-03-08 23:00;METAR CYQG 082300Z 19009KT 8SM OVC036 07/02 A2975 RMK SC8 SLP079=

CYQG;2006-03-09 00:00;METAR CYQG 090000Z 19009KT 7SM OVC033 06/03 A2974 RMK SC8 SLP077=

CYQG;2006-03-09 01:11;SPECI CYQG 090111Z 20013KT 6SM HZ OVC009 RMK SF8=

CYQG;2006-03-09 02:00;METAR CYQG 090200Z 19011KT 5SM BR OVC011 06/04 A2972 RMK SC8 OCNL SHRA SLP069=

CYQG;2006-03-09 02:40;SPECI CYQG 090240Z 19006KT 5SM -SHRA BR OVC011 RMK SC8=

CYQG;2006-03-09 03:00;METAR CYQG 090300Z 18008KT 5SM -SHRA BR OVC012 06/04 A2970 RMK SC8 SLP063=

CYQG;2006-03-09 03:37;SPECI CYQG 090337Z 15005KT 5SM BR SCT006 OVC012 RMK SF3SC5 OCNL SHRA=

CYQG;2006-03-09 05:00;METAR CYQG 090500Z 17011KT 3SM -RA BR BKN009 OVC035 06/05 A2963 RMK SF6SC2 SLP038=

CYQG;2006-03-09 05:49;SPECI CYQG 090549Z 13006KT 2 1/2SM -RA BR BKN006 OVC025 RMK FG1SF6SC2=

CYQG;2006-03-09 06:00;METAR CYQG 090600Z 13006KT 2SM -RA BR BKN005 OVC033 06/06 A2959 RMK FG2SF3SC3 SLP024=

CYQG;2006-03-09 06:37;SPECI CYQG 090637Z 13007KT 2 1/4SM -RA BR SCT005 OVC027 RMK FG2SF2SC5=

CYQG;2006-03-09 07:00;METAR CYQG 090700Z 13008KT 2 1/2SM -RA BR FEW005 OVC026 06/05 A2956 RMK FG1SF1SC6 SLP014=

CYQG;2006-03-09 07:08;SPECI CYQG 090708Z 14008KT 3SM -RA BR OVC025 RMK SC8=

CYQG;2006-03-09 08:00;METAR CYQG 090800Z 14007KT 4SM BR OVC028 06/05 A2951 RMK SC8 SLP998=

CYQG;2006-03-09 08:23;SPECI CYQG 090823Z 16008KT 4SM -SHRA BR OVC026 RMK SC8=

CYQG;2006-03-09 09:00;METAR CYQG 090900Z 19010KT 4SM -SHRA BR BKN026 OVC046 08/07 A2947 RMK SC6SC2 SLP981=

CYQG;2006-03-09 10:00;METAR CYQG 091000Z 21011KT 4SM -SHRA BR OVC035 08/07 A2947 RMK SC8 SLP981=

CYQG;2006-03-09 11:00;METAR CYQG 091100Z 23012KT 5SM -SHRA BR OVC024 09/07 A2949 RMK SC8 SLP989=

CYQG;2006-03-09 12:00;METAR CYQG 091200Z 20011KT 4SM -SHRA BR OVC018 09/07 A2947 RMK SC8 SLP983=

CYQG;2006-03-09 12:34;SPECI CYQG 091234Z 20019KT 4SM BR OVC022 RMK SC8=

CYQG;2006-03-09 13:00;METAR CYQG 091300Z 20021G26KT 4SM BR FEW017 BKN130 09/08 A2943 RMK SC1AC7 SLP971=

CYQG;2006-03-09 13:41;SPECI CYQG 091341Z 20020G25KT 5SM -SHRA BR OVC120 RMK AC8=

CYQG;2006-03-09 16:00;METAR CYQG 091600Z 21018KT 5SM HZ SCT020 OVC260 11/08 A2945 RMK SC3CS5 SLP976=

CYQG;2006-03-09 17:00;METAR CYQG 091700Z 22009G15KT 6SM HZ OVC017 12/10 A2947 RMK SC8 SLP981=

CYQG;2006-03-09 18:00;METAR CYQG 091800Z 22013KT 6SM HZ FEW020 OVC130 14/10 A2946 RMK SC2AC6 SLP978=

CYQG;2006-03-09 19:00;METAR CYQG 091900Z 21014KT 8SM BKN034 OVC090 15/11 A2944 RMK SC6AC2 SLP971=

CYQG;2006-03-09 19:34;SPECI CYQG 091934Z 20008KT 10SM -SHRA OVC026 RMK SC8=

CYQG;2006-03-09 20:00;METAR CYQG 092000Z 19008KT 7SM -SHRA OVC029 14/10 A2942 RMK SC8 SLP965=

CYQG;2006-03-09 21:00;METAR CYQG 092100Z 19007KT 4SM -RA BR OVC024 13/11 A2941 RMK SC8 SLP960=

CYQG;2006-03-09 21:40;SPECI CYQG 092140Z 18009KT 2 1/2SM -RA BR OVC022 RMK SC8=

CYQG;2006-03-09 22:00;METAR CYQG 092200Z 18009KT 2 1/2SM -RA BR BKN022 OVC039 12/10 A2942 RMK SC6SC2 SLP963=

CYQG;2006-03-09 22:37;SPECI CYQG 092237Z 18008KT 1 1/2SM -RA BR BKN017 OVC040 RMK SC6SC2=

CYQG;2006-03-09 23:09;SPECI CYQG 092309Z 17005KT 1 1/4SM -RA BR SCT015 OVC026 RMK SC4SC4=

CYQG;2006-03-09 23:31;SPECI CYQG 092331Z 15008KT 1SM RA BR OVC013 RMK SF8=

CYQG;2006-03-09 23:41;SPECI CYQG 092341Z 16007KT 1 1/2SM -RA BR OVC011 RERA RMK SF8=

CYQG;2006-03-10 00:00;METAR CYQG 100000Z 17011KT 1 1/2SM -RA BR SCT011 OVC017 12/11 A2938 RERA RMK SF4SC4 SLP952=

CYQG;2006-03-10 03:00;METAR CYQG 100300Z 19018KT 3SM -RA BR FEW012 OVC063 13/11 A2930 RMK SF2SC6 SLP923=

CYQG;2006-03-10 03:49;SPECI CYQG 100349Z 21020KT 10SM SCT060 OVC140 RMK SC3AS5=

CYQG;2006-03-10 04:00;METAR CYQG 100400Z 21018G24KT 8SM SCT050 OVC110 12/11 A2927 RMK SC3AS5 SLP913=

CYQG;2006-03-10 05:00;METAR CYQG 100500Z 21017G22KT 12SM OVC075 12/10 A2927 RMK AC8 SLP914=

CYQG;2006-03-10 06:00;METAR CYQG 100600Z 19009KT 15SM OVC060 11/09 A2922 RMK SC8 SLP895=

CYQG;2006-03-10 06:49;SPECI CYQG 100649Z 19016G21KT 12SM -RA FEW030 OVC052 RMK SC2SC6=

CYQG;2006-03-10 07:00;METAR CYQG 100700Z 20014G19KT 7SM -RA FEW030 OVC049 12/09 A2920 RMK SC1SC7 SLP890=

CYQG;2006-03-10 08:00;METAR CYQG 100800Z 19016G21KT 12SM -RA FEW026 OVC058 11/09 A2917 RMK SC2SC6 SLP879=

CYQG;2006-03-10 09:00;METAR CYQG 100900Z 20017G29KT 6SM -RA BR FEW018 BKN032 OVC049 11/09 A2916 RMK SC2SC5SC2 SLP875=

CYQG;2006-03-10 10:00;METAR CYQG 101000Z 21021G26KT 12SM -RA FEW022 BKN043 OVC060 10/09 A2918 RMK SC2SC4SC2 SLP881=

CYQG;2006-03-10 10:52;SPECI CYQG 101052Z 21018KT 5SM -RA BR SCT005 OVC013 RMK SF3SC5=

CYQG;2006-03-10 11:00;METAR CYQG 101100Z 21018KT 6SM -RA BR FEW005 OVC014 09/08 A2923 RMK SF2SC6 SLP899=

CYQG;2006-03-10 12:00;METAR CYQG 101200Z 22014G19KT 7SM -RA FEW005 OVC014 09/08 A2928 RMK SF1SC7 SLP916=

CYQG;2006-03-10 12:19;SPECI CYQG 101219Z 23013KT 15SM SCT014 BKN026 RMK SC4SC3=

CYQG;2006-03-10 13:00;METAR CYQG 101300Z 31018G28KT 15SM BKN012 BKN027 09/06 A2942 RMK SC5SC2 PRESRR SLP964=

CYQG;2006-03-10 13:47;SPECI CYQG 101347Z 29021G27KT 12SM BKN009 OVC020 RMK SF6SC2=

CYQG;2006-03-10 14:00;METAR CYQG 101400Z 29017G26KT 12SM BKN010 OVC025 07/05 A2956 RMK SF6SC2 PRESRR SLP010=

CYQG;2006-03-10 15:00;METAR CYQG 101500Z 29016KT 15SM BKN013 OVC038 08/05 A2963 RMK SC6SC2 PRESRR SLP036=

CYQG;2006-03-10 15:28;SPECI CYQG 101528Z 27017KT 15SM BKN017 BKN064 RMK SC6SC2=

CYQG;2006-03-10 16:00;METAR CYQG 101600Z 27015KT 15SM BKN017 BKN060 08/04 A2969 RMK SC6SC2 PRESRR SLP055=

CYQG;2006-03-10 17:00;METAR CYQG 101700Z 29015G20KT 15SM OVC020 08/04 A2974 RMK SC8 PRESRR SLP073=

CYQG;2006-03-10 19:00;METAR CYQG 101900Z 29014KT 15SM OVC020 08/03 A2981 RMK SC8 SLP097=

CYQG;2006-03-10 20:00;METAR CYQG 102000Z 29011KT 15SM BKN023 08/03 A2984 RMK SC7 SLP106=

CYQG;2006-03-10 21:00;METAR CYQG 102100Z 28010G15KT 12SM FEW025 BKN260 09/02 A2988 RMK SC2CI3 CONTRAILS SLP122=

CYQG;2006-03-10 22:00;METAR CYQG 102200Z 23010KT 12SM FEW025 BKN260 09/03 A2990 RMK CU1CI2 CONTRAILS SLP129=

CYQG;2006-03-10 23:00;METAR CYQG 102300Z 23007KT 8SM OVC260 08/03 A2993 RMK CI4 CONTRAILS SLP138=

CYQG;2006-03-11 00:00;METAR CYQG 110000Z 23008KT 8SM BKN260 07/02 A2997 RMK CI2 SLP152=

CYQG;2006-03-11 01:00;METAR CYQG 110100Z 24010KT 12SM FEW260 06/02 A3000 RMK CI1 SLP163=

CYQG;2006-03-11 03:00;METAR CYQG 110300Z 26005KT 15SM FEW260 04/01 A3004 RMK CI0 CONTRAILS SLP178=

CYQG;2006-03-11 04:00;METAR CYQG 110400Z 24003KT 15SM FEW260 04/01 A3007 RMK CI0 SLP187=

CYQG;2006-03-11 06:00;METAR CYQG 110600Z 15004KT 8SM FEW260 01/M00 A3009 RMK CI0 SLP196=

CYQG;2006-03-11 07:00;METAR CYQG 110700Z 00000KT 8SM FEW260 01/M00 A3012 RMK CI0 SLP204=

CYQG;2006-03-11 08:00;METAR CYQG 110800Z 00000KT 7SM FEW190 01/M00 A3013 RMK AC2 SLP209=

CYQG;2006-03-11 09:00;METAR CYQG 110900Z 08003KT 7SM BKN150 01/M01 A3014 RMK AC5 SLP211=

CYQG;2006-03-11 10:00;METAR CYQG 111000Z 13002KT 5SM BR BKN130 02/01 A3016 RMK AC6 SLP219=

CYQG;2006-03-11 11:00;METAR CYQG 111100Z 16003KT 5SM BR SCT130 02/01 A3019 RMK AC4 SLP227=

CYQG;2006-03-11 11:41;SPECI CYQG 111141Z 11005KT 2 1/2SM BR BKN130 BKN260 RMK AC6CI1=

CYQG;2006-03-11 12:00;METAR CYQG 111200Z 12007KT 2 1/2SM BR FEW050 BKN120 BKN140 02/01 A3017 RMK SC1AC5AC2 SLP221=

CYQG;2006-03-11 13:00;METAR CYQG 111300Z 12007KT 6SM BR BKN120 03/02 A3017 RMK AC5 SLP224=

CYQG;2006-03-11 15:00;METAR CYQG 111500Z 14009KT 6SM HZ BKN160 07/04 A3018 RMK AC6 SLP225=

CYQG;2006-03-11 16:00;METAR CYQG 111600Z 15011KT 7SM SCT160 BKN240 09/05 A3017 RMK AC3CI3 SLP221=

CYQG;2006-03-11 17:00;METAR CYQG 111700Z 15012KT 7SM SCT150 BKN220 09/06 A3015 RMK AC4CI3 SLP216=

CYQG;2006-03-11 18:00;METAR CYQG 111800Z 15010KT 8SM BKN180 BKN220 10/06 A3013 RMK AC5CI2 SLP208=

CYQG;2006-03-11 19:00;METAR CYQG 111900Z 16011KT 12SM BKN130 10/06 A3013 RMK AC7 SLP207=

CYQG;2006-03-11 20:00;METAR CYQG 112000Z 15013KT 12SM BKN130 12/07 A3010 RMK AC6 SLP198=

CYQG;2006-03-11 21:00;METAR CYQG 112100Z 18012KT 8SM FEW130 13/08 A3009 RMK AC2 SLP193=

CYQG;2006-03-11 22:00;METAR CYQG 112200Z 18010KT 12SM SCT053 12/07 A3008 RMK SC3 SLP192=

CYQG;2006-03-11 23:00;METAR CYQG 112300Z 15005KT 10SM BKN058 11/07 A3008 RMK SC7 SLP190=

CYQG;2006-03-12 00:00;METAR CYQG 120000Z 10007KT 12SM BKN060 10/07 A3007 RMK SC6 SLP187=

CYQG;2006-03-12 01:00;METAR CYQG 120100Z 10005KT 15SM SCT060 08/05 A3005 RMK SC3 SLP182=

CYQG;2006-03-12 03:00;METAR CYQG 120300Z 13005KT 10SM BKN260 06/04 A3003 RMK CI1 SLP174=

CYQG;2006-03-12 04:00;METAR CYQG 120400Z 15005KT 10SM OVC020 08/06 A3001 RMK SC8 SLP166=

CYQG;2006-03-12 04:49;SPECI CYQG 120449Z 18008KT 10SM OVC014 RMK SC8=

CYQG;2006-03-12 05:00;METAR CYQG 120500Z 18007KT 12SM OVC013 10/07 A2999 RMK SC8 SLP161=

CYQG;2006-03-12 05:36;SPECI CYQG 120536Z 19004KT 15SM OVC017 RMK SC8=

CYQG;2006-03-12 06:00;METAR CYQG 120600Z 17005KT 15SM OVC020 10/08 A2996 RMK SC8 SLP149=

CYQG;2006-03-12 06:53;SPECI CYQG 120653Z 22005KT 15SM -TSRA SCT013 OVC044 RMK SC3SC5 LTGCC CB EMBD=

CYQG;2006-03-12 07:00;METAR CYQG 120700Z 27008KT 5SM -TSRA BR BKN014 OVC040 10/08 A2999 RMK SC5SC3 LTGCC CB EMBD SLP159=

CYQG;2006-03-12 07:21;SPECI CYQG 120721Z 24008KT 5SM -SHRA BR FEW014 OVC077 RMK SC2AC6 OCNL TS LTGCC CB EMBD=

CYQG;2006-03-12 07:51;SPECI CYQG 120751Z 17003KT 5SM -SHRA BR FEW040 OVC091 RESS RMK SC2AC5=

CYQG;2006-03-12 08:26;SPECI CYQG 120826Z 17007KT 5SM BR FEW005 BKN066 OVC088 RMK SF1AC5AC2 OCNL SHRA=

CYQG;2006-03-12 08:43;SPECI CYQG 120843Z 17007KT 5SM BR FEW002 OVC063 RMK SF2SC6=

CYQG;2006-03-12 09:42;SPECI CYQG 120942Z 20005KT 3SM BR BKN003 OVC041 RMK SF6SC2=

CYQG;2006-03-12 10:00;METAR CYQG 121000Z 21002KT 4SM BR BKN003 OVC039 10/09 A2992 RMK SF6SC2 SLP132=

CYQG;2006-03-12 11:00;METAR CYQG 121100Z 21004KT 2SM BR BKN002 OVC006 10/10 A2992 RMK SF6SF2 SLP132=

CYQG;2006-03-12 12:00;METAR CYQG 121200Z 27004KT 1/2SM FG BKN001 OVC006 10/10 A2994 RMK SF6SF2 SLP141=

CYQG;2006-03-12 12:09;SPECI CYQG 121209Z 27003KT 1/4SM FG BKN001 OVC007 RMK FG5SF2SF2=

CYQG;2006-03-12 12:20;SPECI CYQG 121220Z 27003KT 1/8SM FG OVC001 RMK FG6SF2=

CYQG;2006-03-12 13:00;METAR CYQG 121300Z 24003KT 3/8SM FG BKN001 OVC009 10/10 A2994 RMK FG5SF2SF2 SLP140=

CYQG;2006-03-12 13:06;SPECI CYQG 121306Z 24003KT 3/4SM BR BKN001 OVC008 RMK FG3SF2SF2=

CYQG;2006-03-12 13:14;SPECI CYQG 121314Z 27003KT 1 1/4SM BR BKN002 OVC008 RMK FG2SF4SF2=

CYQG;2006-03-12 13:22;SPECI CYQG 121322Z 27003KT 1 1/2SM BR OVC003 RMK FG2SF6=

CYQG;2006-03-12 14:00;METAR CYQG 121400Z 28002KT 1 1/2SM BR OVC007 11/10 A2996 RMK FG2SF6 SLP148=

CYQG;2006-03-12 14:24;SPECI CYQG 121424Z 30003KT 1 1/4SM BR BKN004 OVC007 RMK FG2SF3SF2=

CYQG;2006-03-12 15:00;METAR CYQG 121500Z 31006KT 1 1/2SM BR BKN004 OVC016 12/11 A2998 RMK FG2SF5SC2 SLP154=

CYQG;2006-03-12 15:30;SPECI CYQG 121530Z 33004KT 2SM BR BKN008 BKN025 OVC051 RMK FG2SF3SC2SC2=

CYQG;2006-03-12 15:51;SPECI CYQG 121551Z 00000KT 3SM BR BKN006 BKN050 RMK SF5SC2=

CYQG;2006-03-12 16:00;METAR CYQG 121600Z 00000KT 3SM BR BKN006 BKN050 13/12 A2999 RMK SF5SC2 SLP158=

CYQG;2006-03-12 16:36;SPECI CYQG 121636Z 34003KT 6SM HZ BKN010 BKN070 BKN260 RMK SF6AC1CI1=

CYQG;2006-03-12 17:00;METAR CYQG 121700Z 03003KT 6SM HZ BKN011 BKN260 15/12 A2998 RMK SF6CI1 SLP156=

CYQG;2006-03-12 17:36;SPECI CYQG 121736Z 04002KT 8SM FEW012 BKN270 RMK SF2CI2=

CYQG;2006-03-12 18:00;METAR CYQG 121800Z 08004KT 8SM SCT013 BKN270 16/12 A2998 RMK SC3CI1 SLP152=

CYQG;2006-03-12 19:00;METAR CYQG 121900Z 06014KT 8SM FEW012 BKN270 15/11 A2997 RMK SC2CI2 SLP149=

CYQG;2006-03-12 19:55;SPECI CYQG 121955Z 05009KT 7SM BKN013 RMK SC7=

CYQG;2006-03-12 20:00;METAR CYQG 122000Z 04010KT 7SM BKN013 15/11 A2998 RMK SC7 SLP152=

CYQG;2006-03-12 20:30;SPECI CYQG 122030Z 06012KT 3SM HZ FEW008 OVC012 RMK SF2SC6=

CYQG;2006-03-12 20:42;SPECI CYQG 122042Z 06012KT 4SM BR BKN006 OVC012 RMK SF5SC3=

CYQG;2006-03-12 20:54;SPECI CYQG 122054Z 07012KT 5SM BR BKN003 OVC012 RMK SF6SC2=

CYQG;2006-03-12 21:00;METAR CYQG 122100Z 06013KT 5SM BR BKN005 OVC012 10/08 A3000 RMK SF6SC2 SLP161=

CYQG;2006-03-12 21:17;SPECI CYQG 122117Z 06012KT 5SM HZ OVC009 RMK SC8=

CYQG;2006-03-12 22:00;METAR CYQG 122200Z 06015KT 5SM HZ OVC010 09/06 A2996 RMK SC8 SLP150=

CYQG;2006-03-12 23:00;METAR CYQG 122300Z 05012KT 7SM OVC010 08/04 A2999 RMK SC8 SLP159=

CYQG;2006-03-13 00:00;METAR CYQG 130000Z 04011KT 15SM OVC011 07/01 A3000 RMK SC8 SLP162=

CYQG;2006-03-13 01:00;METAR CYQG 130100Z 05008KT 15SM OVC011 06/M01 A3001 RMK SC8 SLP164=

CYQG;2006-03-13 04:00;METAR CYQG 130400Z 07008KT 15SM OVC010 06/03 A2991 RMK SC8 SLP132=

CYQG;2006-03-13 05:18;SPECI CYQG 130518Z 04006KT 8SM OVC004 RMK SF8=

CYQG;2006-03-13 05:33;SPECI CYQG 130533Z 02008KT 5SM -SHRA BR OVC004 RMK SF8=

CYQG;2006-03-13 06:11;SPECI CYQG 130611Z 08007KT 3SM TSRA BR OVC003 RMK SF8 CB EMBD=

CYQG;2006-03-13 06:27;SPECI CYQG 130627Z 10012KT 3SM SHRA BR OVC002 RETS RMK SF8=

CYQG;2006-03-13 06:34;SPECI CYQG 130634Z 09012KT 3SM -TSRA OVC004 RETSRA RMK SF8 LTGCC CB EMBD=

CYQG;2006-03-13 07:00;METAR CYQG 130700Z 11013G18KT 5SM -SHRA BR OVC004 08/08 A2979 RETSRA RMK SF8 SLP089=

CYQG;2006-03-13 07:02;SPECI CYQG 130702Z 11013G18KT 5SM -TSRA BR OVC003 RMK SF8 CB EMBD=

CYQG;2006-03-13 07:38;SPECI CYQG 130738Z 13020G27KT 5SM -SHRA BR OVC004 RETSRA RMK SF8=

CYQG;2006-03-13 08:15;SPECI CYQG 130815Z 13019KT 5SM BR OVC002 RMK SF8=

CYQG;2006-03-13 09:49;SPECI CYQG 130949Z 16012KT 4SM -SHRA BR OVC003 RETS RMK SF8=

CYQG;2006-03-13 10:00;METAR CYQG 131000Z 16013KT 4SM BR BKN003 OVC041 11/11 A2958 RETS RMK SF6SC2 OCNL SHRA SLP018=

CYQG;2006-03-13 10:14;SPECI CYQG 131014Z 16018KT 8SM FEW003 OVC040 RMK SF1SC7=

CYQG;2006-03-13 10:40;SPECI CYQG 131040Z 17015G21KT 5SM -SHRA BR OVC044 RMK SC8 LTGCC=

CYQG;2006-03-13 10:49;SPECI CYQG 131049Z 21010G19KT 8SM -SHRA SCT009 OVC015 RMK SF3SC5=

CYQG;2006-03-13 11:00;METAR CYQG 131100Z 24026KT 12SM FEW014 BKN036 OVC043 13/12 A2962 RMK SC2SC4SC2 OCNL SHRA SLP033=

CYQG;2006-03-13 12:00;METAR CYQG 131200Z 20010KT 5SM -SHRA BR OVC096 12/11 A2959 RMK AC8 SLP022=

CYQG;2006-03-13 13:00;METAR CYQG 131300Z 22012KT 3SM -TSRA BR BKN050CB OVC080 13/12 A2960 RMK CB5AC3 LTGIC ALQDS SLP025=

CYQG;2006-03-13 13:18;SPECI CYQG 131318Z 24011KT 2 1/2SM -TSRA BR BKN038CB OVC080 RMK CB5AC3 LTGIC=

CYQG;2006-03-13 13:41;SPECI CYQG 131341Z 24005KT 6SM -TSRA BR SCT040CB BKN060 OVC090 RMK CB3SC2AC2=

CYQG;2006-03-13 13:52;SPECI CYQG 131352Z 20008KT 12SM SCT040CB BKN090 OVC200 RETS RMK CB3AC2CI2 MAMMATUS E=

CYQG;2006-03-13 14:00;METAR CYQG 131400Z 18009KT 12SM SCT040 BKN090 BKN200 13/13 A2956 RETS RMK CU3AC2CI2 SLP014=

CYQG;2006-03-13 14:44;SPECI CYQG 131444Z 20013KT 12SM FEW003 SCT040 BKN140 OVC220 RMK SF2CU2AC2CI2=

CYQG;2006-03-13 15:00;METAR CYQG 131500Z 19013KT 15SM FEW003 BKN150 BKN250 14/13 A2955 RMK SF1AC4CI2 SLP007=

CYQG;2006-03-13 15:31;SPECI CYQG 131531Z 20012G17KT 7SM -SHRA SCT050 BKN073 OVC240 RMK CU3AC3CI2=

CYQG;2006-03-13 15:38;SPECI CYQG 131538Z 20010G15KT 10SM -TSRA BKN040CB BKN075 OVC200 RMK CB5AC2CI2=

CYQG;2006-03-13 16:00;METAR CYQG 131600Z 18012KT 6SM -TSRA BR BKN033CB OVC080 13/12 A2952 RMK CB5AC3 SLP998=

CYQG;2006-03-13 16:22;SPECI CYQG 131622Z 18015KT 15SM FEW035 BKN130 BKN220 RETS RMK CU2AC3CI2=

CYQG;2006-03-13 17:00;METAR CYQG 131700Z 18015KT 15SM SCT045 BKN130 OVC220 16/14 A2948 RETS RMK CU3AC2CI2 SLP984=

CYQG;2006-03-13 18:00;METAR CYQG 131800Z 18018G24KT 15SM FEW130 BKN230 BKN270 15/13 A2944 RMK AC2CI2CS2 SLP971=

CYQG;2006-03-13 19:00;METAR CYQG 131900Z 20015KT 15SM SCT230 BKN260 17/14 A2938 RMK CI3CS4 PRESFR SLP952=

CYQG;2006-03-13 20:00;METAR CYQG 132000Z 21030G37KT 15SM FEW030 SCT250 19/13 A2936 RMK CF1CI2 SLP944=

CYQG;2006-03-13 21:00;METAR CYQG 132100Z 21022G30KT 15SM FEW043 FEW260 19/13 A2934 RMK CU2CI1 SLP934=

CYQG;2006-03-13 21:18;SPECI CYQG 132118Z 21024G31KT 15SM -SHRA BKN044TCU RMK TCU6=

CYQG;2006-03-13 21:46;SPECI CYQG 132146Z 27026KT 15SM FEW045TCU SCT270 RMK TCU2CI1=

CYQG;2006-03-13 22:00;METAR CYQG 132200Z 25027G35KT 15SM FEW050TCU FEW270 18/06 A2936 RMK TCU2CI1 CB TOPS E SLP941=

CYQG;2006-03-13 23:00;METAR CYQG 132300Z 26025G33KT 15SM FEW063TCU SCT280 17/03 A2936 RMK TCU2CI1 SLP942=

CYQG;2006-03-14 00:00;METAR CYQG 140000Z 25033G40KT 15SM FEW070 FEW280 15/02 A2939 RMK AC1CI1 SLP953=

CYQG;2006-03-14 01:00;METAR CYQG 140100Z 26023G30KT 15SM FEW075 FEW280 12/03 A2941 RMK AC1CI1 SLP960=

CYQG;2006-03-14 02:00;METAR CYQG 140200Z 25026G33KT 15SM BKN042 09/01 A2945 RMK SC6 SLP974=

CYQG;2006-03-14 03:00;METAR CYQG 140300Z 27031G38KT 15SM SCT039 07/M02 A2949 RMK SC3 SLP987=

CYQG;2006-03-14 05:00;METAR CYQG 140500Z 28022G33KT 15SM BKN042 05/M04 A2952 RMK SC7 SLP000=

CYQG;2006-03-14 06:00;METAR CYQG 140600Z 27030G36KT 15SM OVC041 04/M04 A2954 RMK SC8 SLP005=

CYQG;2006-03-14 08:00;METAR CYQG 140800Z 28027G32KT 15SM BKN038 OVC042 03/M05 A2958 RMK SC6SC2 SLP018=

CYQG;2006-03-14 09:00;METAR CYQG 140900Z 27018G28KT 15SM BKN042 03/M06 A2959 RMK SC7 SLP022=

CYQG;2006-03-14 10:00;METAR CYQG 141000Z 27026G36KT 15SM OVC042 02/M07 A2962 RMK SC8 SLP032=

CYQG;2006-03-14 10:41;SPECI CYQG 141041Z 27016G27KT 15SM -SHSN OVC034 RMK SC8=

CYQG;2006-03-14 11:00;METAR CYQG 141100Z 27026G36KT 15SM -SHSN FEW034 OVC046 02/M06 A2964 RMK SC2SC6 SLP038=

CYQG;2006-03-14 12:00;METAR CYQG 141200Z 28025G33KT 15SM -SHSN FEW029 OVC041 01/M06 A2967 RMK SC2SC5 SLP052=

CYQG;2006-03-14 13:00;METAR CYQG 141300Z 29028G38KT 15SM -SHSN BKN035 OVC060 01/M07 A2971 RMK SC6SC2 SLP063=

CYQG;2006-03-14 14:00;METAR CYQG 141400Z 28021G26KT 15SM -SHSN BKN032 BKN057 01/M07 A2974 RMK CU5SC2 SLP073=

CYQG;2006-03-14 15:00;METAR CYQG 141500Z 29017G32KT 15SM -SHSN BKN041 01/M08 A2976 RMK CU7 SLP082=

CYQG;2006-03-14 16:00;METAR CYQG 141600Z 27022G31KT 15SM -SN OVC036 01/M07 A2977 RMK CU8 SLP086=

CYQG;2006-03-14 17:00;METAR CYQG 141700Z 28021G28KT 15SM -SN OVC043 01/M07 A2978 RMK CU8 SLP090=

CYQG;2006-03-14 17:41;SPECI CYQG 141741Z 27026G31KT 15SM BKN036 RMK SC7=

CYQG;2006-03-14 18:00;METAR CYQG 141800Z 28025G31KT 15SM BKN039 02/M07 A2979 RMK SC7 SLP093=

CYQG;2006-03-14 19:00;METAR CYQG 141900Z 28023G28KT 15SM BKN044 02/M07 A2979 RMK SC7 SLP092=

CYQG;2006-03-14 20:00;METAR CYQG 142000Z 28025G32KT 15SM BKN037 02/M07 A2980 RMK SC7 SLP095=

CYQG;2006-03-14 21:00;METAR CYQG 142100Z 28023G33KT 15SM BKN043 03/M06 A2982 RMK SC7 SLP104=

CYQG;2006-03-14 23:00;METAR CYQG 142300Z 29019G32KT 15SM BKN044 02/M07 A2986 RMK SC7 SLP118=

CYQG;2006-03-15 00:00;METAR CYQG 150000Z 30017G27KT 15SM BKN042 02/M07 A2987 RMK SC7 SLP123=

CYQG;2006-03-15 01:00;METAR CYQG 150100Z 30019G28KT 15SM BKN044 01/M07 A2989 RMK SC7 SLP129=

CYQG;2006-03-15 01:19;SPECI CYQG 150119Z 29021G30KT 15SM -SHSN BKN046 RMK SC7=

CYQG;2006-03-15 03:00;METAR CYQG 150300Z 30014G21KT 15SM -SHSN BKN048 01/M07 A2990 RMK SC7 SLP133=

CYQG;2006-03-15 04:00;METAR CYQG 150400Z 30020G27KT 15SM -SHSN BKN048 01/M07 A2992 RMK SC6 SLP137=

CYQG;2006-03-15 06:00;METAR CYQG 150600Z 30020KT 15SM -SHSN SCT034 M00/M08 A2994 RMK SC4 SLP146=

CYQG;2006-03-15 06:36;SPECI CYQG 150636Z 30018G24KT 15SM SCT038 RMK CF4=

CYQG;2006-03-15 07:00;METAR CYQG 150700Z 30017G26KT 15SM SCT036 M01/M09 A2995 RMK CF3 SLP151=

CYQG;2006-03-15 08:00;METAR CYQG 150800Z 29017KT 15SM BKN044 M01/M08 A2996 RMK CF5 SLP153=

CYQG;2006-03-15 09:00;METAR CYQG 150900Z 29010G19KT 15SM BKN036 M01/M07 A2998 RMK CF6 SLP160=

CYQG;2006-03-15 09:14;SPECI CYQG 150914Z 29015KT 15SM -SHSN BKN035 RMK CF6=

CYQG;2006-03-15 10:40;SPECI CYQG 151040Z 29014G22KT 15SM FEW035 RMK CF2=

CYQG;2006-03-15 11:00;METAR CYQG 151100Z 29014G20KT 15SM SCT035 M01/M09 A3003 RMK CF3 SLP177=

CYQG;2006-03-15 12:00;METAR CYQG 151200Z 29020G25KT 15SM BKN033 M01/M09 A3005 RMK SC7 SLP185=

CYQG;2006-03-15 13:00;METAR CYQG 151300Z 29014G22KT 15SM BKN028 M01/M08 A3008 RMK SC7 SLP193=

CYQG;2006-03-15 14:00;METAR CYQG 151400Z 31021G28KT 15SM BKN035 M01/M09 A3009 RMK SC7 SLP197=

CYQG;2006-03-15 16:00;METAR CYQG 151600Z 29016G24KT 15SM FEW035 02/M09 A3010 RMK SC2 SLP200=

CYQG;2006-03-15 17:00;METAR CYQG 151700Z 28019G26KT 15SM FEW040 03/M08 A3011 RMK SC2 SLP203=

CYQG;2006-03-15 18:00;METAR CYQG 151800Z 30015G21KT 15SM FEW040 04/M08 A3011 RMK SC1 SLP204=

CYQG;2006-03-15 19:00;METAR CYQG 151900Z 28018G26KT 15SM FEW040 04/M08 A3009 RMK SC1 SLP197=

CYQG;2006-03-15 20:00;METAR CYQG 152000Z 30013G24KT 15SM FEW040 FEW280 05/M08 A3008 RMK SC1CI0 SLP195=

CYQG;2006-03-15 21:00;METAR CYQG 152100Z 27019KT 15SM FEW045 06/M07 A3010 RMK CF1 SLP198=

CYQG;2006-03-15 22:00;METAR CYQG 152200Z 29017KT 15SM FEW050 06/M08 A3010 RMK CF1 SLP198=

CYQG;2006-03-15 23:00;METAR CYQG 152300Z 29015KT 15SM FEW050 FEW280 05/M08 A3011 RMK CF1CI1 SLP202=

CYQG;2006-03-16 00:00;METAR CYQG 160000Z 31016KT 15SM FEW050 FEW270 04/M08 A3012 RMK SC1CI1 SLP207=

CYQG;2006-03-16 04:00;METAR CYQG 160400Z 30012G17KT 15SM FEW270 01/M07 A3017 RMK CI1 SLP223=

CYQG;2006-03-16 06:00;METAR CYQG 160600Z 32011KT 15SM SKC M00/M07 A3018 RMK SLP228=

CYQG;2006-03-16 07:00;METAR CYQG 160700Z 31007KT 15SM SCT230 M00/M08 A3020 RMK CS2 SLP232=

CYQG;2006-03-16 08:00;METAR CYQG 160800Z 32008KT 15SM BKN180 M01/M07 A3019 RMK AS4 SLP230=

CYQG;2006-03-16 09:00;METAR CYQG 160900Z 33004KT 15SM BKN190 M00/M09 A3017 RMK AS4 SLP224=

CYQG;2006-03-16 10:00;METAR CYQG 161000Z 34005KT 15SM BKN180 M01/M09 A3018 RMK AS2 SLP225=

CYQG;2006-03-16 11:00;METAR CYQG 161100Z 34003KT 15SM BKN120 M01/M08 A3018 RMK AS6 SLP226=

CYQG;2006-03-16 12:00;METAR CYQG 161200Z 33003KT 15SM FEW100 BKN270 M01/M09 A3019 RMK AC2CI2 SLP229=

CYQG;2006-03-16 13:00;METAR CYQG 161300Z 00000KT 15SM BKN091 BKN270 M00/M09 A3019 RMK AC6CI1 SLP230=

CYQG;2006-03-16 14:00;METAR CYQG 161400Z 35003KT 15SM BKN089 00/M09 A3020 RMK AC7 SLP232=

CYQG;2006-03-16 16:00;METAR CYQG 161600Z 06003KT 15SM BKN083 BKN250 02/M09 A3018 RMK AC5CS2 SLP226=

CYQG;2006-03-16 17:00;METAR CYQG 161700Z 06005KT 15SM BKN088 OVC250 02/M07 A3017 RMK AC6CS2 SLP224=

CYQG;2006-03-16 18:00;METAR CYQG 161800Z 07002KT 15SM BKN091 OVC250 02/M07 A3017 RMK AC6CS2 SLP223=

CYQG;2006-03-16 19:00;METAR CYQG 161900Z 07006KT 15SM BKN083 OVC250 03/M06 A3013 RMK AC6CS2 SLP209=

CYQG;2006-03-16 20:00;METAR CYQG 162000Z 07006KT 15SM BKN075 OVC250 03/M06 A3012 RMK AC5CS3 SLP208=

CYQG;2006-03-16 21:00;METAR CYQG 162100Z 09008KT 15SM BKN060 OVC100 03/M06 A3011 RMK SC6AS2 SLP205=

CYQG;2006-03-16 22:00;METAR CYQG 162200Z 06007KT 15SM OVC063 03/M08 A3010 RMK SC8 SLP200=

CYQG;2006-03-16 23:00;METAR CYQG 162300Z 07007KT 15SM SCT060 OVC090 02/M07 A3011 RMK SC3AS5 SLP202=

CYQG;2006-03-17 00:00;METAR CYQG 170000Z 09006KT 15SM OVC080 02/M06 A3012 RMK AS8 SLP207=

CYQG;2006-03-17 01:00;METAR CYQG 170100Z 06010KT 15SM OVC080 02/M05 A3013 RMK AS8 SLP211=

CYQG;2006-03-17 01:23;SPECI CYQG 170123Z 05010KT 8SM -SN OVC060 RMK SC8=

CYQG;2006-03-17 02:51;SPECI CYQG 170251Z 06007KT 15SM OVC070 RMK AS8=

CYQG;2006-03-17 03:00;METAR CYQG 170300Z 06008KT 15SM OVC080 00/M05 A3014 RMK AS8 SLP214=

CYQG;2006-03-17 04:00;METAR CYQG 170400Z 04010KT 15SM SCT070 BKN160 M00/M05 A3013 RMK AC3AS3 SLP211=

CYQG;2006-03-17 05:00;METAR CYQG 170500Z 03011KT 15SM BKN081 BKN140 M01/M06 A3014 RMK AC5AS2 SLP213=

CYQG;2006-03-17 07:00;METAR CYQG 170700Z 03016G21KT 15SM OVC019 M01/M06 A3017 RMK SC8 SLP224=

CYQG;2006-03-17 08:00;METAR CYQG 170800Z 03015KT 15SM OVC024 M01/M07 A3018 RMK SC8 SLP226=

CYQG;2006-03-17 09:00;METAR CYQG 170900Z 04014G21KT 15SM FEW025 M02/M09 A3020 RMK SC2 SLP234=

CYQG;2006-03-17 10:00;METAR CYQG 171000Z 04015KT 15SM FEW025 SCT240 M02/M09 A3022 RMK SC1CI1 SLP241=

CYQG;2006-03-17 11:00;METAR CYQG 171100Z 05015KT 15SM FEW025 SCT240 M02/M09 A3024 RMK CF1CI1 SLP247=

CYQG;2006-03-17 12:00;METAR CYQG 171200Z 35007KT 15SM FEW020 FEW085 SCT260 M03/M08 A3026 RMK CF1AC1CI1 SLP257=

CYQG;2006-03-17 13:00;METAR CYQG 171300Z 35006KT 15SM FEW030 BKN260 M02/M08 A3029 RMK SC1CI2 SLP264=

CYQG;2006-03-17 14:00;METAR CYQG 171400Z 01011KT 15SM SCT030 BKN270 M01/M07 A3030 RMK SC3CI1 CONTRAILS SLP269=

CYQG;2006-03-17 15:00;METAR CYQG 171500Z 05011KT 15SM FEW029 BKN270 00/M07 A3031 RMK SC2CI2 CONTRAILS SLP273=

CYQG;2006-03-17 16:00;METAR CYQG 171600Z 06011KT 15SM FEW030 BKN270 01/M07 A3031 RMK SC2CI2 SLP272=

CYQG;2006-03-17 17:00;METAR CYQG 171700Z 04010KT 15SM FEW040 BKN250 01/M08 A3031 RMK SC2CS4 SLP272=

CYQG;2006-03-17 18:00;METAR CYQG 171800Z 05006KT 15SM FEW040 BKN250 BKN270 02/M07 A3031 RMK SC2CS2CI0 SLP272=

CYQG;2006-03-17 19:00;METAR CYQG 171900Z 02012G17KT 15SM FEW048 BKN250 03/M07 A3030 RMK SC2CS2 SLP268=

CYQG;2006-03-17 20:00;METAR CYQG 172000Z 01010KT 15SM FEW050 SCT250 BKN270 03/M09 A3029 RMK SC2CS1CI1 SLP265=

CYQG;2006-03-17 21:00;METAR CYQG 172100Z 05011KT 15SM FEW053 SCT150 03/M08 A3029 RMK CU2AC1 SLP263=

CYQG;2006-03-17 22:00;METAR CYQG 172200Z 06007KT 15SM FEW060 FEW150 04/M08 A3029 RMK SC2AC1 SLP263=

CYQG;2006-03-17 23:00;METAR CYQG 172300Z 35010KT 15SM FEW059 03/M10 A3029 RMK SC2 SLP263=

CYQG;2006-03-18 00:00;METAR CYQG 180000Z 34008KT 15SM FEW058 02/M12 A3029 RMK SC1 SLP265=

CYQG;2006-03-18 01:00;METAR CYQG 180100Z 01007KT 15SM SKC 01/M12 A3029 RMK SLP267=

CYQG;2006-03-18 02:00;METAR CYQG 180200Z 02003KT 15SM SKC M01/M11 A3029 RMK SLP266=

CYQG;2006-03-18 04:00;METAR CYQG 180400Z 22004KT 15SM SKC M02/M06 A3028 RMK SLP261=

CYQG;2006-03-18 05:00;METAR CYQG 180500Z 27003KT 15SM SKC M02/M07 A3028 RMK SLP261=

CYQG;2006-03-18 06:00;METAR CYQG 180600Z 33007KT 15SM SKC M02/M07 A3027 RMK SLP259=

CYQG;2006-03-18 07:00;METAR CYQG 180700Z 35008G15KT 15SM SKC M02/M10 A3028 RMK SLP263=

CYQG;2006-03-18 08:00;METAR CYQG 180800Z 34009G16KT 15SM SKC M03/M13 A3027 RMK SLP259=

CYQG;2006-03-18 09:00;METAR CYQG 180900Z 34011KT 15SM SKC M03/M12 A3027 RMK SLP258=

CYQG;2006-03-18 10:00;METAR CYQG 181000Z 35011G16KT 15SM SKC M04/M12 A3027 RMK SLP259=

CYQG;2006-03-18 11:00;METAR CYQG 181100Z 33008G16KT 15SM FEW018 M04/M12 A3029 RMK CF1 SLP266=

CYQG;2006-03-18 12:00;METAR CYQG 181200Z 32012G17KT 15SM FEW018 M04/M11 A3031 RMK CF1 SLP272=

CYQG;2006-03-18 13:00;METAR CYQG 181300Z 33011G16KT 15SM FEW018 M04/M11 A3030 RMK CU1 SLP271=

CYQG;2006-03-18 15:00;METAR CYQG 181500Z 33013G19KT 15SM FEW032 M02/M12 A3029 RMK CU1 SLP266=

CYQG;2006-03-18 16:00;METAR CYQG 181600Z 32013G19KT 15SM FEW030 M01/M11 A3029 RMK SC2 SLP265=

CYQG;2006-03-18 17:00;METAR CYQG 181700Z 34012G18KT 15SM FEW030 01/M11 A3028 RMK CU1 SLP264=

CYQG;2006-03-18 20:00;METAR CYQG 182000Z 31014G20KT 15SM FEW030 03/M12 A3022 RMK SC2 SLP241=

CYQG;2006-03-18 21:00;METAR CYQG 182100Z 31018KT 15SM FEW062 04/M11 A3020 RMK SC2 SLP235=

CYQG;2006-03-18 22:00;METAR CYQG 182200Z 30011G24KT 15SM FEW062 04/M11 A3019 RMK CU2 SLP230=

CYQG;2006-03-18 23:00;METAR CYQG 182300Z 31012G19KT 15SM FEW063 03/M11 A3017 RMK SC2 SLP226=

CYQG;2006-03-19 00:00;METAR CYQG 190000Z 31013G18KT 15SM SCT067 03/M11 A3019 RMK AC3 SLP230=

CYQG;2006-03-19 01:00;METAR CYQG 190100Z 32014KT 15SM FEW068 02/M10 A3019 RMK AC2 SLP230=

CYQG;2006-03-19 02:00;METAR CYQG 190200Z 32013KT 15SM FEW067 02/M11 A3019 RMK AC1 SLP231=

CYQG;2006-03-19 03:00;METAR CYQG 190300Z 35010KT 15SM FEW055 M00/M10 A3020 RMK SC1 SLP237=

CYQG;2006-03-19 05:00;METAR CYQG 190500Z 31017KT 15SM SKC M01/M10 A3021 RMK SLP240=

CYQG;2006-03-19 06:00;METAR CYQG 190600Z 31012KT 15SM SKC M02/M10 A3022 RMK SLP240=

CYQG;2006-03-19 07:00;METAR CYQG 190700Z 31011G16KT 15SM SKC M02/M10 A3022 RMK SLP240=

CYQG;2006-03-19 08:00;METAR CYQG 190800Z 34011G18KT 15SM SKC M02/M10 A3020 RMK SLP234=

CYQG;2006-03-19 09:00;METAR CYQG 190900Z 33011G18KT 15SM SKC M03/M09 A3020 RMK SLP236=

CYQG;2006-03-19 10:00;METAR CYQG 191000Z 33008KT 15SM SKC M03/M09 A3020 RMK SLP236=

CYQG;2006-03-19 11:00;METAR CYQG 191100Z 32009KT 15SM FEW015 M03/M09 A3019 RMK CF1 SLP232=

CYQG;2006-03-19 12:00;METAR CYQG 191200Z 31007G15KT 15SM SKC M03/M08 A3020 RMK SLP233=

CYQG;2006-03-19 13:00;METAR CYQG 191300Z 29007KT 15SM SKC M02/M08 A3021 RMK SLP238=

CYQG;2006-03-19 14:00;METAR CYQG 191400Z 30011KT 15SM FEW028 M01/M08 A3021 RMK CF1 SLP237=

CYQG;2006-03-19 15:00;METAR CYQG 191500Z 30009KT 15SM FEW032 00/M08 A3019 RMK CF1 SLP232=

CYQG;2006-03-19 16:00;METAR CYQG 191600Z 29011G19KT 15SM FEW028 02/M08 A3018 RMK CF1 SLP227=

CYQG;2006-03-19 18:00;METAR CYQG 191800Z 31013KT 15SM FEW044 05/M06 A3015 RMK SC2 SLP218=

CYQG;2006-03-19 19:00;METAR CYQG 191900Z 33010G20KT 15SM FEW045 06/M06 A3013 RMK CF1 SLP209=

CYQG;2006-03-19 20:00;METAR CYQG 192000Z 30014G25KT 15SM FEW045 FEW100 08/M06 A3011 RMK CU1AC1 AC TR SLP205=

CYQG;2006-03-19 21:00;METAR CYQG 192100Z 32015KT 15SM FEW050 08/M07 A3010 RMK CU1 SLP200=

CYQG;2006-03-19 22:00;METAR CYQG 192200Z 31014G21KT 15SM FEW055 FEW280 08/M08 A3010 RMK CF1CI1 SLP198=

CYQG;2006-03-19 23:00;METAR CYQG 192300Z 31014G21KT 15SM FEW055 FEW280 08/M08 A3010 RMK SC1CI1 SLP200=

CYQG;2006-03-20 00:00;METAR CYQG 200000Z 31014G20KT 15SM FEW060 FEW270 07/M09 A3011 RMK SC1CI1 SLP204=

CYQG;2006-03-20 01:00;METAR CYQG 200100Z 32008KT 15SM SKC 06/M11 A3012 RMK SLP206=

CYQG;2006-03-20 02:00;METAR CYQG 200200Z 05011KT 15SM SKC 03/M04 A3014 RMK SLP213=

CYQG;2006-03-20 04:00;METAR CYQG 200400Z 04004KT 15SM SKC M01/M04 A3020 RMK SLP233=

CYQG;2006-03-20 06:00;METAR CYQG 200600Z 36004KT 15SM SKC M01/M04 A3020 RMK SLP234=

CYQG;2006-03-20 07:00;METAR CYQG 200700Z 36007KT 15SM SKC M01/M06 A3021 RMK SLP238=

CYQG;2006-03-20 08:00;METAR CYQG 200800Z 34007KT 15SM SKC M02/M08 A3024 RMK SLP246=

CYQG;2006-03-20 09:00;METAR CYQG 200900Z 35008KT 15SM SKC M02/M08 A3022 RMK SLP240=

CYQG;2006-03-20 10:00;METAR CYQG 201000Z 34009KT 15SM SKC M02/M09 A3023 RMK SLP243=

CYQG;2006-03-20 11:00;METAR CYQG 201100Z 36009KT 15SM FEW010 M03/M09 A3022 RMK CF1 SLP241=

CYQG;2006-03-20 13:00;METAR CYQG 201300Z 01010KT 15SM FEW050 FEW270 M01/M08 A3026 RMK SC1CI1 SLP252=

CYQG;2006-03-20 14:00;METAR CYQG 201400Z 04015KT 15SM FEW030 SCT270 M00/M08 A3025 RMK CU2CI1 SLP251=

CYQG;2006-03-20 16:00;METAR CYQG 201600Z 05009G16KT 15SM FEW030 BKN039 BKN240 00/M08 A3026 RMK CU1SC6CI1 SLP253=

CYQG;2006-03-20 17:00;METAR CYQG 201700Z 05014KT 15SM BKN040 00/M08 A3026 RMK SC7 SLP254=

CYQG;2006-03-20 18:00;METAR CYQG 201800Z 06013KT 15SM FEW029 BKN040 BKN240 01/M07 A3026 RMK CU1SC6CS1 SLP255=

CYQG;2006-03-20 19:00;METAR CYQG 201900Z 04011KT 15SM BKN038 OVC240 01/M08 A3025 RMK SC6CS1 SLP251=

CYQG;2006-03-20 20:00;METAR CYQG 202000Z 04013KT 15SM BKN036 OVC240 00/M07 A3025 RMK SC6CS1 SLP253=

CYQG;2006-03-20 21:00;METAR CYQG 202100Z 05016G22KT 15SM BKN037 00/M07 A3023 RMK SC7 SLP245=

CYQG;2006-03-20 22:00;METAR CYQG 202200Z 04012G19KT 15SM BKN034 M01/M07 A3023 RMK SC7 SLP244=

CYQG;2006-03-20 23:00;METAR CYQG 202300Z 04015KT 15SM BKN030 M01/M07 A3021 RMK SC7 SLP240=

CYQG;2006-03-21 00:00;METAR CYQG 210000Z 03012G17KT 15SM BKN027 M02/M08 A3024 RMK SC7 SLP251=

CYQG;2006-03-21 01:00;METAR CYQG 210100Z 04018KT 15SM BKN028 M03/M09 A3023 RMK SC7 SLP247=

CYQG;2006-03-21 02:00;METAR CYQG 210200Z 04015KT 15SM BKN025 M04/M09 A3023 RMK SC6 SLP247=

CYQG;2006-03-21 03:00;METAR CYQG 210300Z 04019KT 15SM SCT025 M04/M10 A3020 RMK SC3 SLP236=

CYQG;2006-03-21 04:00;METAR CYQG 210400Z 05019G24KT 15SM FEW025 M04/M10 A3017 RMK SC2 SLP227=

CYQG;2006-03-21 05:00;METAR CYQG 210500Z 05016G22KT 15SM SCT025 M04/M11 A3018 RMK SC3 SLP229=

CYQG;2006-03-21 07:00;METAR CYQG 210700Z 06015G21KT 15SM FEW250 M05/M12 A3017 RMK CI1 SLP227=

CYQG;2006-03-21 08:00;METAR CYQG 210800Z 06014KT 15SM SCT250 M04/M12 A3016 RMK CI2 SLP221=

CYQG;2006-03-21 10:00;METAR CYQG 211000Z 06014KT 15SM FEW100 BKN190 M04/M11 A3012 RMK AC2AC5 SLP209=

CYQG;2006-03-21 11:00;METAR CYQG 211100Z 06015KT 15SM FEW100 BKN190 M05/M11 A3007 RMK AC1AC2 SLP194=

CYQG;2006-03-21 12:00;METAR CYQG 211200Z 05019G25KT 15SM FEW100 BKN180 M04/M13 A3005 RMK AC1AC6 SLP186=

CYQG;2006-03-21 13:00;METAR CYQG 211300Z 06020G25KT 15SM FEW040 BKN190 BKN220 M04/M13 A3006 RMK CF1AC5CC2 SLP189=

CYQG;2006-03-21 14:00;METAR CYQG 211400Z 06018G24KT 15SM FEW040 BKN190 BKN220 M04/M12 A3005 RMK SC1AC5CC2 SLP186=

CYQG;2006-03-21 16:00;METAR CYQG 211600Z 06016KT 15SM FEW040 OVC190 M02/M11 A3004 RMK SC1AC6 SLP184=

CYQG;2006-03-21 17:00;METAR CYQG 211700Z 03016KT 15SM SCT029 OVC190 M01/M10 A3001 RMK SC4AC3 SLP171=

CYQG;2006-03-21 18:00;METAR CYQG 211800Z 04018KT 15SM SCT027 OVC210 M01/M08 A2999 RMK SC3CS4 SLP164=

CYQG;2006-03-21 19:00;METAR CYQG 211900Z 02014G19KT 15SM FEW022 OVC190 M01/M08 A2996 RMK SC2AC6 SLP155=

CYQG;2006-03-21 20:00;METAR CYQG 212000Z 04014KT 15SM SCT034 OVC220 00/M10 A2996 RMK SC3CS5 SLP154=

CYQG;2006-03-21 22:00;METAR CYQG 212200Z 01014G19KT 15SM FEW040 BKN240 00/M09 A2996 RMK SC2CS3 SLP155=

CYQG;2006-03-21 23:00;METAR CYQG 212300Z 01013KT 15SM FEW040 BKN240 M00/M09 A2998 RMK SC1CS4 CI ASOCTD CONTRAILS SLP159=

CYQG;2006-03-22 00:00;METAR CYQG 220000Z 35007KT 15SM SCT240 M01/M10 A2999 RMK CI1 SLP164=

CYQG;2006-03-22 01:00;METAR CYQG 220100Z 34004KT 15SM SKC M01/M11 A2999 RMK SLP166=

CYQG;2006-03-22 02:00;METAR CYQG 220200Z 32004KT 15SM FEW240 M01/M11 A3000 RMK CI1 SLP167=

CYQG;2006-03-22 03:00;METAR CYQG 220300Z 28005KT 15SM FEW060 SCT240 M02/M11 A3001 RMK SC2CI1 SLP170=

CYQG;2006-03-22 04:00;METAR CYQG 220400Z 32010KT 15SM SKC M01/M10 A3001 RMK SLP173=

CYQG;2006-03-22 05:00;METAR CYQG 220500Z 33009G15KT 15SM SKC M01/M10 A3002 RMK SLP175=

CYQG;2006-03-22 06:00;METAR CYQG 220600Z 32008KT 15SM SKC M02/M09 A3003 RMK SLP176=

CYQG;2006-03-22 07:00;METAR CYQG 220700Z 31008KT 15SM BKN030 M02/M09 A3004 RMK SC6 SLP180=

CYQG;2006-03-22 08:00;METAR CYQG 220800Z 31010KT 15SM OVC030 M01/M08 A3004 RMK SC8 SLP180=

CYQG;2006-03-22 08:18;SPECI CYQG 220818Z 29006KT 15SM -SHSN OVC030 RMK SC8=

CYQG;2006-03-22 09:00;METAR CYQG 220900Z 31009G15KT 15SM -SHSN OVC031 M01/M08 A3005 RMK SC8 SLP183=

CYQG;2006-03-22 10:00;METAR CYQG 221000Z 29010KT 15SM -SHSN OVC028 M01/M07 A3006 RMK SC8 SLP188=

CYQG;2006-03-22 11:00;METAR CYQG 221100Z 29009KT 15SM -SHSN OVC024 M01/M06 A3007 RMK SC8 SLP190=

CYQG;2006-03-22 11:38;SPECI CYQG 221138Z 28010KT 15SM OVC024 RMK SC8=

CYQG;2006-03-22 12:00;METAR CYQG 221200Z 28010KT 15SM OVC023 M00/M06 A3007 RMK SC8 SLP192=

CYQG;2006-03-22 13:00;METAR CYQG 221300Z 27014KT 15SM BKN024 00/M05 A3009 RMK SC7 SLP197=

CYQG;2006-03-22 14:00;METAR CYQG 221400Z 29014KT 15SM OVC023 01/M05 A3010 RMK SC8 SLP200=

CYQG;2006-03-22 15:00;METAR CYQG 221500Z 28017KT 15SM BKN023 OVC037 01/M05 A3011 RMK SC6SC2 SLP202=

CYQG;2006-03-22 16:00;METAR CYQG 221600Z 31017KT 15SM SCT028 BKN043 03/M05 A3009 RMK SC3SC4 SLP198=

CYQG;2006-03-22 17:00;METAR CYQG 221700Z 29013G19KT 15SM BKN029 03/M05 A3010 RMK SC7 SLP201=

CYQG;2006-03-22 18:00;METAR CYQG 221800Z 30016G21KT 15SM OVC031 03/M05 A3011 RMK SC8 SLP202=

CYQG;2006-03-22 19:00;METAR CYQG 221900Z 29011KT 15SM OVC032 03/M05 A3011 RMK SC8 SLP202=

CYQG;2006-03-22 20:00;METAR CYQG 222000Z 31012KT 15SM OVC033 03/M05 A3010 RMK SC8 SLP201=

CYQG;2006-03-22 21:00;METAR CYQG 222100Z 30011KT 15SM OVC036 03/M05 A3012 RMK SC8 SLP206=

CYQG;2006-03-22 22:00;METAR CYQG 222200Z 28012G17KT 15SM OVC038 03/M04 A3013 RMK SC8 SLP209=

CYQG;2006-03-22 23:00;METAR CYQG 222300Z 29010KT 15SM OVC036 03/M04 A3013 RMK SC7 SLP211=

CYQG;2006-03-23 00:00;METAR CYQG 230000Z 29010KT 15SM FEW035 OVC047 03/M04 A3015 RMK CU2SC6 SLP216=

CYQG;2006-03-23 01:00;METAR CYQG 230100Z 28011KT 15SM OVC044 03/M04 A3017 RMK SC8 SLP222=

CYQG;2006-03-23 02:00;METAR CYQG 230200Z 27011KT 15SM OVC042 03/M04 A3018 RMK SC8 SLP226=

CYQG;2006-03-23 03:00;METAR CYQG 230300Z 28009KT 15SM BKN040 03/M05 A3018 RMK SC7 SLP227=

CYQG;2006-03-23 04:00;METAR CYQG 230400Z 28008KT 15SM BKN043 02/M05 A3019 RMK SC7 SLP229=

CYQG;2006-03-23 05:00;METAR CYQG 230500Z 28008KT 15SM BKN039 02/M05 A3019 RMK SC7 SLP230=

CYQG;2006-03-23 06:00;METAR CYQG 230600Z 28008KT 15SM BKN041 02/M05 A3020 RMK SC7 SLP232=

CYQG;2006-03-23 07:00;METAR CYQG 230700Z 29006KT 15SM BKN047 02/M05 A3020 RMK SC7 SLP233=

CYQG;2006-03-23 09:00;METAR CYQG 230900Z 31003KT 15SM BKN042 01/M04 A3019 RMK SC7 SLP231=

CYQG;2006-03-23 10:00;METAR CYQG 231000Z 26003KT 15SM BKN045 00/M04 A3020 RMK SC7 SLP234=

CYQG;2006-03-23 11:00;METAR CYQG 231100Z 27003KT 15SM SCT045 M01/M05 A3021 RMK SC3 SLP236=

CYQG;2006-03-23 12:00;METAR CYQG 231200Z 29004KT 15SM FEW030 BKN069 M00/M04 A3023 RMK SC1AC5 SLP243=

CYQG;2006-03-23 13:00;METAR CYQG 231300Z 30003KT 15SM FEW040 BKN063 01/M04 A3023 RMK SC2SC2 SLP245=

CYQG;2006-03-23 14:00;METAR CYQG 231400Z 33003KT 15SM FEW025 FEW062 02/M04 A3023 RMK CU1SC1 SLP244=

CYQG;2006-03-23 15:00;METAR CYQG 231500Z 33005KT 15SM BKN028 03/M05 A3023 RMK CU6 SLP243=

CYQG;2006-03-23 16:00;METAR CYQG 231600Z 32005KT 15SM BKN037 03/M05 A3022 RMK SC7 SLP240=

CYQG;2006-03-23 17:00;METAR CYQG 231700Z 08003KT 15SM BKN036 03/M05 A3021 RMK SC7 SLP238=

CYQG;2006-03-23 18:00;METAR CYQG 231800Z 07004KT 15SM OVC040 04/M04 A3020 RMK SC8 SLP234=

CYQG;2006-03-23 20:00;METAR CYQG 232000Z 07006KT 15SM OVC044 03/M05 A3020 RMK SC8 SLP233=

CYQG;2006-03-23 21:00;METAR CYQG 232100Z 08006KT 15SM OVC043 03/M05 A3020 RMK SC8 SLP234=

CYQG;2006-03-23 22:00;METAR CYQG 232200Z 09006KT 15SM BKN046 OVC100 03/M04 A3020 RMK SC6AS2 SLP232=

CYQG;2006-03-23 23:00;METAR CYQG 232300Z 09004KT 15SM FEW035 BKN061 03/M05 A3020 RMK CU2SC6 SLP233=

CYQG;2006-03-24 00:00;METAR CYQG 240000Z 11003KT 15SM OVC056 03/M04 A3020 RMK SC8 SLP236=

CYQG;2006-03-24 01:00;METAR CYQG 240100Z 09003KT 15SM OVC059 02/M04 A3020 RMK SC8 SLP234=

CYQG;2006-03-24 01:04;SPECI CYQG 240104Z 09003KT 15SM -SHSN OVC059 RMK SC8=

CYQG;2006-03-24 01:41;SPECI CYQG 240141Z 08003KT 15SM OVC064 RMK SC8=

CYQG;2006-03-24 02:00;METAR CYQG 240200Z 09004KT 15SM FEW030 OVC058 01/M04 A3020 RMK CF1SC8 SLP233=

CYQG;2006-03-24 03:00;METAR CYQG 240300Z 08003KT 15SM OVC060 01/M02 A3018 RMK SC8 SLP227=

CYQG;2006-03-24 04:00;METAR CYQG 240400Z 13002KT 15SM BKN065 01/M02 A3017 RMK SC7 SLP225=

CYQG;2006-03-24 05:00;METAR CYQG 240500Z 08002KT 15SM FEW038 SCT065 M00/M03 A3016 RMK SC1SC3 SLP221=

CYQG;2006-03-24 06:00;METAR CYQG 240600Z 00000KT 15SM BKN040 00/M02 A3015 RMK SC7 SLP218=

CYQG;2006-03-24 07:00;METAR CYQG 240700Z 00000KT 15SM BKN052 00/M02 A3014 RMK SC6 SLP215=

CYQG;2006-03-24 08:00;METAR CYQG 240800Z 00000KT 15SM FEW045 BKN160 M01/M03 A3013 RMK SC2AC3 SLP210=

CYQG;2006-03-24 09:00;METAR CYQG 240900Z 12002KT 15SM FEW045 BKN190 M01/M03 A3013 RMK SC2AC3 SLP209=

CYQG;2006-03-24 10:00;METAR CYQG 241000Z 17003KT 15SM FEW040 SCT230 M01/M03 A3012 RMK SC2CI2 SLP208=

CYQG;2006-03-24 11:00;METAR CYQG 241100Z 14005KT 15SM OVC050 M01/M03 A3012 RMK SC7 SLP208=

CYQG;2006-03-24 12:00;METAR CYQG 241200Z 00000KT 8SM FEW040 SCT058 OVC220 M01/M03 A3013 RMK SC2SC1CI3 SLP209=

CYQG;2006-03-24 13:00;METAR CYQG 241300Z 00000KT 12SM FEW055 SCT075 BKN240 01/M02 A3013 RMK SC2AC2CI2 SLP210=

CYQG;2006-03-24 14:00;METAR CYQG 241400Z 26004KT 12SM FEW040 BKN058 BKN240 03/M04 A3011 RMK CF1SC5CI1 SLP205=

CYQG;2006-03-24 15:00;METAR CYQG 241500Z 30005KT 15SM SCT030 BKN046 BKN250 03/M05 A3011 RMK CU3SC2CI2 SLP203=

CYQG;2006-03-24 16:00;METAR CYQG 241600Z 27010KT 15SM BKN043 BKN250 04/M05 A3011 RMK CU6CI1 SLP203=

CYQG;2006-03-24 17:00;METAR CYQG 241700Z 34007KT 12SM BKN039 BKN250 04/M05 A3010 RMK CU6CI1 SLP198=

CYQG;2006-03-24 18:00;METAR CYQG 241800Z 03007KT 12SM FEW028 BKN043TCU BKN260 03/M05 A3009 RMK CF1TCU6CI1 SLP195=

CYQG;2006-03-24 19:00;METAR CYQG 241900Z 03007KT 12SM FEW027 BKN042 04/M03 A3007 RMK SC1SC6 SLP191=

CYQG;2006-03-24 20:00;METAR CYQG 242000Z 04006KT 15SM OVC050 04/M04 A3007 RMK SC8 SLP188=

CYQG;2006-03-24 21:00;METAR CYQG 242100Z 09005KT 15SM VCSH OVC048 03/M03 A3007 RMK SC8 SLP188=

CYQG;2006-03-24 21:19;SPECI CYQG 242119Z 07008KT 10SM -SHSN OVC042 RMK SC8=

CYQG;2006-03-24 22:00;METAR CYQG 242200Z 07007KT 4SM -SHSN OVC037 03/M03 A3007 RMK SC8 SLP191=

CYQG;2006-03-24 22:24;SPECI CYQG 242224Z 03007KT 1 1/2SM -SHSN OVC023 RMK SN2SC6=

CYQG;2006-03-24 23:00;METAR CYQG 242300Z 03004KT 3SM -SHSN OVC040 01/M02 A3008 RMK SN2SC6 SLP194=

CYQG;2006-03-24 23:44;SPECI CYQG 242344Z 14002KT 10SM SCT040 OVC076 RMK SC3AC5=

CYQG;2006-03-25 00:00;METAR CYQG 250000Z 18003KT 10SM SCT060 OVC072 01/M02 A3008 RMK SC3AC5 SLP195=

CYQG;2006-03-25 01:00;METAR CYQG 250100Z 00000KT 12SM OVC090 01/M02 A3008 RMK AC8 SLP194=

CYQG;2006-03-25 01:31;SPECI CYQG 250131Z 05005KT 12SM SCT012 OVC090 RMK SC3AC5=

CYQG;2006-03-25 01:41;SPECI CYQG 250141Z 04005KT 12SM BKN012 OVC090 RMK SC6AC2=

CYQG;2006-03-25 01:53;SPECI CYQG 250153Z 04007KT 12SM BKN020 BKN080 RMK SC6AC2=

CYQG;2006-03-25 02:00;METAR CYQG 250200Z 04006KT 12SM BKN018 BKN060 01/M01 A3008 RMK SC6SC2 SLP195=

CYQG;2006-03-25 02:09;SPECI CYQG 250209Z 05006KT 12SM FEW009 BKN016 OVC055 RMK SF2SC5SC2=

CYQG;2006-03-25 02:35;SPECI CYQG 250235Z 04007KT 10SM -SHSN FEW009 BKN012 OVC055 RMK SF2SC3SC2=

CYQG;2006-03-25 02:51;SPECI CYQG 250251Z 04006KT 3SM -SHSN BKN007 BKN030 OVC055 RMK SF5SC2SC2=

CYQG;2006-03-25 02:55;SPECI CYQG 250255Z 04006KT 1 1/2SM -SHSN BKN006 OVC030 RMK SF6SC2=

CYQG;2006-03-25 03:00;METAR CYQG 250300Z 05007KT 1 1/2SM -SHSN BKN006 OVC030 00/M01 A3008 RMK SN2SF4SC2 SLP193=

CYQG;2006-03-25 03:23;SPECI CYQG 250323Z 04008KT 1SM -SHSN OVC005 RMK SN5SF3=

CYQG;2006-03-25 03:32;SPECI CYQG 250332Z 05007KT 1SM -SHSN OVC006 RMK SN4SF4=

CYQG;2006-03-25 04:00;METAR CYQG 250400Z 05006KT 1 1/2SM -SN BKN007 OVC015 00/M01 A3007 RMK SN2SF4SC2 SLP190=

CYQG;2006-03-25 04:06;SPECI CYQG 250406Z 05005KT 2SM -SN BKN015 OVC030 RMK SN2SC4SC2=

CYQG;2006-03-25 04:20;SPECI CYQG 250420Z 05006KT 2SM -SN BKN008 OVC022 RMK SN2SF5SC2=

CYQG;2006-03-25 05:35;SPECI CYQG 250535Z 02006KT 2 1/2SM -SN SCT009 OVC013 RMK SF3SC5=

CYQG;2006-03-25 07:00;METAR CYQG 250700Z 35003KT 4SM -SN FEW005 SCT009 OVC013 M00/M02 A3006 RMK SF2SF2SC4 SLP185=

CYQG;2006-03-25 07:45;SPECI CYQG 250745Z 35005KT 4SM -SN BKN015 OVC065 RMK SC5SC3=

CYQG;2006-03-25 07:55;SPECI CYQG 250755Z 36004KT 3SM -SN BKN007 OVC013 RMK SF6SC2=

CYQG;2006-03-25 09:00;METAR CYQG 250900Z 34004KT 3SM -SN SCT006 OVC017 M01/M02 A3004 RMK SF4SC4 SLP180=

CYQG;2006-03-25 09:34;SPECI CYQG 250934Z 35005KT 3SM -SN FEW007 BKN019 OVC024 RMK SF1SC5SC2=

CYQG;2006-03-25 10:00;METAR CYQG 251000Z 34005KT 4SM -SN FEW007 FEW020 OVC090 M01/M02 A3004 RMK SF1SC2AC6 SLP181=

CYQG;2006-03-25 11:00;METAR CYQG 251100Z 34004KT 5SM -SN FEW007 OVC074 M01/M02 A3005 RMK SF2AC6 SLP184=

CYQG;2006-03-25 12:00;METAR CYQG 251200Z 33005KT 5SM -SN FEW008 OVC250 M01/M03 A3007 RMK SF2CS6 SLP191=

CYQG;2006-03-25 12:18;SPECI CYQG 251218Z 33006KT 7SM FEW010 OVC250 RMK SC2CS6=

CYQG;2006-03-25 13:00;METAR CYQG 251300Z 31006KT 7SM FEW013 OVC250 00/M03 A3008 RMK SC2CS6 SLP194=

CYQG;2006-03-25 14:00;METAR CYQG 251400Z 32007KT 10SM FEW014 FEW060 BKN250 01/M03 A3008 RMK SC2SC1CS1 SLP193=

CYQG;2006-03-25 15:00;METAR CYQG 251500Z 31006KT 10SM BKN016 02/M02 A3008 RMK SC7 SLP194=

CYQG;2006-03-25 16:00;METAR CYQG 251600Z 32006KT 15SM BKN017 03/M01 A3008 RMK SC7 SLP194=

CYQG;2006-03-25 17:00;METAR CYQG 251700Z 33010KT 10SM -SHRA OVC023 04/M01 A3008 RMK SC8 SLP194=

CYQG;2006-03-25 17:31;SPECI CYQG 251731Z 33010KT 5SM -SHRASN OVC014 RMK SC8=

CYQG;2006-03-25 18:00;METAR CYQG 251800Z 32011KT 5SM -SHRASN OVC011 03/01 A3008 RMK SC8 SLP193=

CYQG;2006-03-25 19:00;METAR CYQG 251900Z 29009KT 5SM -RASN BR OVC010 03/01 A3007 RMK SC8 SLP190=

CYQG;2006-03-25 19:37;SPECI CYQG 251937Z 32010KT 6SM -RA BR OVC014 RMK SC8=

CYQG;2006-03-25 20:00;METAR CYQG 252000Z 33009KT 10SM -RA OVC014 03/01 A3007 RMK SC8 SLP189=

CYQG;2006-03-25 21:00;METAR CYQG 252100Z 34010KT 7SM -RA SCT018 OVC026 04/01 A3007 RMK CF3SC5 SLP190=

CYQG;2006-03-25 22:00;METAR CYQG 252200Z 34008KT 8SM -RA FEW016 BKN038 04/01 A3008 RMK CF2SC5 SLP192=

CYQG;2006-03-25 22:17;SPECI CYQG 252217Z 35010KT 12SM SCT015 BKN051 RMK CU3SC4=

CYQG;2006-03-25 23:00;METAR CYQG 252300Z 35011G16KT 15SM FEW015 BKN025 04/00 A3009 RMK CU2SC5 SLP197=

CYQG;2006-03-26 00:00;METAR CYQG 260000Z 02013KT 15SM BKN022 03/M01 A3011 RMK SC7 SLP204=

CYQG;2006-03-26 01:00;METAR CYQG 260100Z 36010KT 15SM BKN035 03/M00 A3012 RMK SC7 SLP208=

CYQG;2006-03-26 03:00;METAR CYQG 260300Z 36007KT 15SM FEW090 SCT270 02/M02 A3014 RMK AC1CI1 CONTRAILS SLP212=

CYQG;2006-03-26 05:00;METAR CYQG 260500Z 34006KT 15SM BKN064 02/M01 A3014 RMK SC7 SLP213=

CYQG;2006-03-26 06:00;METAR CYQG 260600Z 35007KT 15SM BKN063 02/M02 A3014 RMK SC7 SLP211=

CYQG;2006-03-26 09:00;METAR CYQG 260900Z 34007KT 15SM BKN067 01/M04 A3015 RMK AC6 SLP215=

CYQG;2006-03-26 10:00;METAR CYQG 261000Z 34006KT 15SM FEW065 01/M04 A3015 RMK SC2 SLP217=

CYQG;2006-03-26 11:00;METAR CYQG 261100Z 34006KT 15SM FEW065 01/M04 A3017 RMK SC1 SLP224=

CYQG;2006-03-26 12:00;METAR CYQG 261200Z 35005KT 15SM FEW065 00/M04 A3020 RMK SC1 SLP232=

CYQG;2006-03-26 13:00;METAR CYQG 261300Z 36005KT 15SM FEW080 02/M04 A3021 RMK AC1 SLP236=

CYQG;2006-03-26 15:00;METAR CYQG 261500Z 31005KT 15SM FEW100 05/M03 A3023 RMK AC1 SLP243=

CYQG;2006-03-26 16:00;METAR CYQG 261600Z 01007KT 15SM FEW040 FEW100 07/M03 A3023 RMK CU2AC1 SLP243=

CYQG;2006-03-26 17:00;METAR CYQG 261700Z 05008KT 15SM BKN062 06/M04 A3024 RMK SC6 SLP246=

CYQG;2006-03-26 18:00;METAR CYQG 261800Z 10005KT 15SM BKN065 06/M04 A3024 RMK SC7 SLP245=

CYQG;2006-03-26 19:00;METAR CYQG 261900Z 26004KT 15SM FEW043 BKN065 08/M03 A3022 RMK CU2SC5 SLP240=

CYQG;2006-03-26 20:00;METAR CYQG 262000Z 03003KT 15SM FEW050 BKN060 07/M04 A3021 RMK SC2SC4 SLP236=

CYQG;2006-03-26 21:00;METAR CYQG 262100Z 31005KT 15SM BKN058 07/M04 A3022 RMK SC7 SLP238=

CYQG;2006-03-26 22:00;METAR CYQG 262200Z 01002KT 15SM BKN050 07/M04 A3021 RMK SC7 SLP237=

CYQG;2006-03-26 23:00;METAR CYQG 262300Z 11003KT 15SM BKN053 07/M04 A3022 RMK SC7 SLP239=

CYQG;2006-03-27 00:00;METAR CYQG 270000Z 12003KT 15SM BKN058 05/M04 A3023 RMK SC7 SLP245=

CYQG;2006-03-27 02:00;METAR CYQG 270200Z 21002KT 15SM FEW052 04/M02 A3026 RMK SC2 SLP254=

CYQG;2006-03-27 04:00;METAR CYQG 270400Z 23005KT 15SM SKC 02/M03 A3027 RMK SLP256=

CYQG;2006-03-27 06:00;METAR CYQG 270600Z 24002KT 15SM SKC 00/M03 A3028 RMK SLP260=

CYQG;2006-03-27 07:00;METAR CYQG 270700Z 25002KT 15SM SKC M01/M04 A3028 RMK SLP261=

CYQG;2006-03-27 09:00;METAR CYQG 270900Z 33002KT 15SM FEW070 M01/M04 A3029 RMK AC1 SLP265=

CYQG;2006-03-27 10:00;METAR CYQG 271000Z 00000KT 15SM SKC M02/M04 A3031 RMK SLP269=

CYQG;2006-03-27 12:00;METAR CYQG 271200Z 23003KT 15SM FEW250 M01/M04 A3033 RMK CI1 SLP279=

CYQG;2006-03-27 13:00;METAR CYQG 271300Z 00000KT 15SM FEW250 02/M02 A3033 RMK CI1 SLP278=

CYQG;2006-03-27 16:00;METAR CYQG 271600Z 24008KT 15SM FEW030 FEW260 08/M04 A3033 RMK CF1CI1 SLP277=

CYQG;2006-03-27 17:00;METAR CYQG 271700Z 21009KT 15SM FEW030 BKN270 09/M04 A3033 RMK CF1CI2 CONTRAILS SLP276=

CYQG;2006-03-27 18:00;METAR CYQG 271800Z 22007KT 15SM FEW030 BKN270 09/M05 A3031 RMK CF1CI2 CONTRAILS SLP270=

CYQG;2006-03-27 19:00;METAR CYQG 271900Z 18009KT 15SM BKN270 09/M05 A3027 RMK CI3 CONTRAILS SLP257=

CYQG;2006-03-27 21:00;METAR CYQG 272100Z 19007KT 15SM BKN270 09/M05 A3022 RMK CI6 CONTRILS SLP238=

CYQG;2006-03-27 22:00;METAR CYQG 272200Z 19008KT 15SM BKN270 09/M04 A3020 RMK CI6 SLP234=

CYQG;2006-03-28 00:00;METAR CYQG 280000Z 16005KT 12SM OVC190 07/M03 A3021 RMK AS8 SLP236=

CYQG;2006-03-28 01:00;METAR CYQG 280100Z 15006KT 15SM OVC160 06/M03 A3020 RMK AS8 SLP234=

CYQG;2006-03-28 02:00;METAR CYQG 280200Z 15004KT 15SM OVC110 05/M04 A3020 RMK AC8 SLP233=

CYQG;2006-03-28 04:00;METAR CYQG 280400Z 15008KT 15SM OVC078 05/M04 A3018 RMK AC8 SLP225=

CYQG;2006-03-28 05:00;METAR CYQG 280500Z 18010KT 15SM OVC081 05/M04 A3019 RMK AC8 SLP227=

CYQG;2006-03-28 05:53;SPECI CYQG 280553Z 20004KT 15SM -DZ OVC055 RMK SC8=

CYQG;2006-03-28 06:00;METAR CYQG 280600Z 20005KT 15SM -DZ OVC055 05/M01 A3019 RMK SC8 SLP228=

CYQG;2006-03-28 06:16;SPECI CYQG 280616Z 20003KT 15SM -SHRA OVC031 RMK SC8=

CYQG;2006-03-28 07:00;METAR CYQG 280700Z 22003KT 15SM -SHRA OVC066 04/01 A3018 RMK AC8 SLP226=

CYQG;2006-03-28 08:00;METAR CYQG 280800Z 00000KT 7SM -RA OVC038 04/02 A3017 RMK SC8 SLP220=

CYQG;2006-03-28 09:00;METAR CYQG 280900Z 09004KT 4SM -RA BR OVC048 04/02 A3015 RMK SC8 SLP216=

CYQG;2006-03-28 10:00;METAR CYQG 281000Z 08005KT 3SM -RA BR OVC067 04/02 A3015 RMK AC8 SLP214=

CYQG;2006-03-28 10:34;SPECI CYQG 281034Z 08004KT 3SM -DZ BR OVC064 RMK SC8=

CYQG;2006-03-28 11:46;SPECI CYQG 281146Z 12006KT 3SM -RA BR OVC051 RMK SC8=

CYQG;2006-03-28 12:00;METAR CYQG 281200Z 11007KT 3SM -RA BR OVC050 04/02 A3015 RMK SC8 SLP215=

CYQG;2006-03-28 13:00;METAR CYQG 281300Z 12007KT 3SM -RA BR OVC048 04/02 A3016 RMK SC8 SLP218=

CYQG;2006-03-28 13:34;SPECI CYQG 281334Z 11007KT 3SM BR OVC053 RMK SC8=

CYQG;2006-03-28 14:00;METAR CYQG 281400Z 11009KT 4SM HZ OVC053 05/03 A3016 RMK SC8 SLP218=

CYQG;2006-03-28 15:00;METAR CYQG 281500Z 11010G15KT 6SM HZ FEW013 OVC058 06/03 A3016 RMK CF2SC6 SLP218=

CYQG;2006-03-28 16:00;METAR CYQG 281600Z 13007KT 7SM BKN021 OVC060 08/03 A3016 RMK CU5SC3 SLP218=

CYQG;2006-03-28 17:00;METAR CYQG 281700Z 11009KT 8SM BKN037 09/02 A3015 RMK CU7 SLP215=

CYQG;2006-03-28 18:00;METAR CYQG 281800Z 05009KT 10SM OVC031 07/03 A3015 RMK SC8 SLP214=

CYQG;2006-03-28 19:00;METAR CYQG 281900Z 05012KT 8SM OVC033 08/02 A3014 RMK SC8 SLP211=

CYQG;2006-03-28 20:00;METAR CYQG 282000Z 05008KT 12SM SCT035 OVC054 09/02 A3014 RMK SC3SC5 SLP210=

CYQG;2006-03-28 21:00;METAR CYQG 282100Z 03009KT 10SM SCT035 OVC054 09/01 A3014 RMK SC3SC5 SLP210=

CYQG;2006-03-28 23:00;METAR CYQG 282300Z 05004KT 10SM SCT043 OVC080 09/02 A3016 RMK SC3AC5 SLP217=

CYQG;2006-03-29 00:00;METAR CYQG 290000Z 09003KT 12SM BKN080 08/02 A3017 RMK AC7 SLP222=

CYQG;2006-03-29 01:00;METAR CYQG 290100Z 04005KT 15SM BKN077 BKN110 07/02 A3019 RMK AC6AC1 SLP227=

CYQG;2006-03-29 02:00;METAR CYQG 290200Z 04003KT 12SM FEW072 OVC100 07/02 A3020 RMK AC2AC6 SLP231=

CYQG;2006-03-29 03:00;METAR CYQG 290300Z 24002KT 10SM BKN077 06/02 A3022 RMK AC7 SLP237=

CYQG;2006-03-29 04:00;METAR CYQG 290400Z 25002KT 15SM BKN082 06/01 A3022 RMK AC7 SLP238=

CYQG;2006-03-29 06:00;METAR CYQG 290600Z 05002KT 10SM BKN076 04/01 A3023 RMK AC6 SLP244=

CYQG;2006-03-29 08:00;METAR CYQG 290800Z 00000KT 5SM HZ SKC 02/M00 A3023 RMK SLP241=

CYQG;2006-03-29 09:00;METAR CYQG 290900Z 36002KT 7SM SKC 03/M00 A3023 RMK SLP243=

CYQG;2006-03-29 10:00;METAR CYQG 291000Z 32002KT 10SM FEW050 02/M01 A3025 RMK SC2 SLP248=

CYQG;2006-03-29 11:00;METAR CYQG 291100Z 33002KT 6SM HZ BKN042 02/M01 A3027 RMK SC6 SLP255=

CYQG;2006-03-29 12:00;METAR CYQG 291200Z 34002KT 6SM HZ BKN042 04/M00 A3029 RMK SC7 SLP263=

CYQG;2006-03-29 13:00;METAR CYQG 291300Z 00000KT 4SM HZ SKC 06/01 A3030 RMK SLP266=

CYQG;2006-03-29 14:00;METAR CYQG 291400Z 32002KT 7SM FEW140 08/M01 A3032 RMK AC2 SLP272=

CYQG;2006-03-29 16:00;METAR CYQG 291600Z 15003KT 7SM BKN041 BKN100 10/00 A3033 RMK SC5AC2 FEW TCU EMBD SLP275=

CYQG;2006-03-29 18:00;METAR CYQG 291800Z 27005KT 7SM BKN045TCU 12/00 A3032 RMK TCU6 SLP270=

CYQG;2006-03-29 19:00;METAR CYQG 291900Z 25005KT 9SM BKN047 12/01 A3029 RMK CU6 TCU ASOCTD SLP263=

CYQG;2006-03-29 20:00;METAR CYQG 292000Z 12003KT 12SM BKN048 12/01 A3028 RMK CU5 SLP257=

CYQG;2006-03-29 21:00;METAR CYQG 292100Z 27002KT 10SM SCT048 12/01 A3027 RMK CU3 SLP254=

CYQG;2006-03-29 22:00;METAR CYQG 292200Z 26006KT 10SM BKN047 13/02 A3026 RMK SC5 SLP253=

CYQG;2006-03-30 00:00;METAR CYQG 300000Z 21007KT 10SM FEW043 10/01 A3025 RMK SC1 SLP248=

CYQG;2006-03-30 01:00;METAR CYQG 300100Z 20006KT 15SM FEW042 08/00 A3026 RMK SC2 SLP252=

CYQG;2006-03-30 04:00;METAR CYQG 300400Z 17004KT 15SM SKC 04/M01 A3027 RMK SLP255=

CYQG;2006-03-30 05:00;METAR CYQG 300500Z 18004KT 12SM FEW250 04/M01 A3027 RMK CI0 SLP254=

CYQG;2006-03-30 06:00;METAR CYQG 300600Z 18003KT 12SM FEW250 03/M01 A3026 RMK CI0 SLP252=

CYQG;2006-03-30 07:00;METAR CYQG 300700Z 18005KT 15SM FEW250 03/M01 A3025 RMK CI0 SLP247=

CYQG;2006-03-30 08:00;METAR CYQG 300800Z 16003KT 15SM FEW250 03/M01 A3024 RMK CI1 SLP245=

CYQG;2006-03-30 09:00;METAR CYQG 300900Z 17003KT 15SM FEW250 02/M01 A3024 RMK CI1 SLP246=

CYQG;2006-03-30 12:00;METAR CYQG 301200Z 00000KT 15SM FEW190 BKN250 03/M01 A3025 RMK AC1CI2 BCFG NE SLP247=

CYQG;2006-03-30 13:00;METAR CYQG 301300Z 16005KT 12SM FEW260 07/01 A3025 RMK CI1 SLP249=

CYQG;2006-03-30 14:00;METAR CYQG 301400Z 17009KT 12SM FEW260 10/02 A3026 RMK CI1 SLP250=

CYQG;2006-03-30 15:00;METAR CYQG 301500Z 18008KT 12SM SKC 12/03 A3025 RMK SLP247=

CYQG;2006-03-30 16:00;METAR CYQG 301600Z 21011KT 12SM FEW270 14/04 A3023 RMK CI1 SLP242=

CYQG;2006-03-30 17:00;METAR CYQG 301700Z 20009KT 15SM FEW270 15/03 A3021 RMK CI1 SLP233=

CYQG;2006-03-30 18:00;METAR CYQG 301800Z 18011G17KT 15SM FEW280 16/04 A3018 RMK CI1 SLP224=

CYQG;2006-03-30 19:00;METAR CYQG 301900Z 19011G18KT 15SM FEW280 16/03 A3016 RMK CI1 SLP217=

CYQG;2006-03-30 20:00;METAR CYQG 302000Z 20011KT 15SM FEW280 16/03 A3014 RMK CI1 SLP210=

CYQG;2006-03-30 22:00;METAR CYQG 302200Z 17008KT 8SM SCT270 17/04 A3010 RMK CI1 SLP195=

CYQG;2006-03-30 23:00;METAR CYQG 302300Z 15008KT 8SM BKN270 16/03 A3009 RMK CI2 SLP192=

CYQG;2006-03-31 00:00;METAR CYQG 310000Z 14008KT 7SM OVC270 13/03 A3008 RMK CI3 SLP189=

CYQG;2006-03-31 02:00;METAR CYQG 310200Z 14011KT 8SM BKN270 09/02 A3007 RMK CI5 SLP186=

CYQG;2006-03-31 05:00;METAR CYQG 310500Z 15004KT 10SM FEW270 07/02 A3004 RMK CI2 SLP175=

CYQG;2006-03-31 06:00;METAR CYQG 310600Z 16006KT 10SM FEW270 08/02 A3001 RMK CI1 SLP165=

CYQG;2006-03-31 09:00;METAR CYQG 310900Z 18006KT 15SM SCT270 11/04 A2995 RMK CI2 SLP145=

CYQG;2006-03-31 10:00;METAR CYQG 311000Z 18008KT 15SM BKN230 12/04 A2992 RMK CI5 SLP135=

CYQG;2006-03-31 11:00;METAR CYQG 311100Z 18013KT 15SM BKN230 13/04 A2989 RMK CI2 SLP125=

CYQG;2006-03-31 12:00;METAR CYQG 311200Z 19012G17KT 15SM OVC270 14/04 A2989 RMK CI7 SLP122=

CYQG;2006-03-31 13:00;METAR CYQG 311300Z 19017KT 15SM BKN074 OVC270 16/05 A2988 RMK AC6CI1 CONTRAILS SLP118=

CYQG;2006-03-31 14:00;METAR CYQG 311400Z 20016G21KT 15SM FEW075 OVC250 16/06 A2987 RMK AC2CS6 SLP115=

CYQG;2006-03-31 15:00;METAR CYQG 311500Z 21016KT 15SM SCT070 OVC250 17/07 A2985 RMK AC4CS4 SLP110=

CYQG;2006-03-31 16:00;METAR CYQG 311600Z 22022G29KT 15SM FEW040 BKN110 BKN250 19/09 A2983 RMK SC2AC2CS2 SLP103=

CYQG;2006-03-31 16:46;SPECI CYQG 311646Z 22019G26KT 15SM -SHRA SCT040 BKN120 OVC250 RMK SC3AC2CI2=

CYQG;2006-03-31 17:00;METAR CYQG 311700Z 22022G30KT 15SM FEW040 BKN120 OVC250 17/10 A2982 RMK SC2AC3CS2 OCNL SHRA SLP099=

CYQG;2006-03-31 17:13;SPECI CYQG 311713Z 22018G26KT 15SM FEW040 BKN110 OVC250 RMK SC2AC4CS2=

CYQG;2006-03-31 19:00;METAR CYQG 311900Z 20020G26KT 15SM BKN035 OVC120 17/11 A2978 RMK CU5AC3 SLP087=

CYQG;2006-03-31 20:00;METAR CYQG 312000Z 21021G26KT 15SM SCT045 OVC250 17/11 A2976 RMK CU3CI5 SLP079=

CYQG;2006-03-31 21:00;METAR CYQG 312100Z 21019G25KT 15SM OVC032 17/11 A2975 RMK SC8 SLP075=

CYQG;2006-03-31 22:00;METAR CYQG 312200Z 20019G24KT 15SM FEW034 FEW260 19/11 A2973 RMK SC1CI1 SLP067=

CYQG;2006-03-31 23:00;METAR CYQG 312300Z 20021G26KT 15SM FEW035 FEW080 18/11 A2969 RMK SC1AC1 SLP055=

CYQG;2006-04-01 00:00;METAR CYQG 010000Z 20021G27KT 15SM BKN090 17/10 A2966 RMK AC6 SLP043=

CYQG;2006-04-01 00:49;SPECI CYQG 010049Z 19023KT 15SM TS OVC064CB RMK CB8 OCNL LTGIC NW=

CYQG;2006-04-01 01:00;METAR CYQG 010100Z 19023G29KT 15SM TS OVC065CB 17/10 A2962 RMK CB8 OCNL LTGIC N-NW SLP031=

CYQG;2006-04-01 01:04;SPECI CYQG 010104Z 20022G31KT 10SM -TSRA OVC058CB RMK CB8=

CYQG;2006-04-01 02:00;METAR CYQG 010200Z 22014KT 12SM -TSRA BKN055CB OVC230 14/11 A2965 RMK CB6CI2 SLP042=

CYQG;2006-04-01 03:00;METAR CYQG 010300Z 23016KT 10SM -SHRA FEW017 BKN055 BKN100 15/12 A2967 RETS RMK SC1SC5AC2 SLP047=

CYQG;2006-04-01 03:23;SPECI CYQG 010323Z 24014G20KT 15SM SCT027 BKN100 RMK SC4AC3=

CYQG;2006-04-01 04:00;METAR CYQG 010400Z 28017G22KT 15SM BKN029 OVC100 13/08 A2970 RMK SC6AC2 SLP057=

CYQG;2006-04-01 04:23;SPECI CYQG 010423Z 27021G29KT 15SM -SHRA SCT025 OVC083 RMK SC4AC4=

CYQG;2006-04-01 05:00;METAR CYQG 010500Z 26015G22KT 15SM FEW025 OVC110 11/08 A2972 RMK SC2AC6 OCNL SHRA SLP065=

CYQG;2006-04-01 06:00;METAR CYQG 010600Z 26015G21KT 15SM BKN062 11/06 A2973 RMK SC6 SLP068=

CYQG;2006-04-01 07:00;METAR CYQG 010700Z 27016KT 15SM FEW029 OVC046 11/06 A2973 RMK SC1SC7 SLP069=

CYQG;2006-04-01 08:00;METAR CYQG 010800Z 27017KT 15SM OVC029 10/05 A2974 RMK SC8 SLP071=

CYQG;2006-04-01 09:00;METAR CYQG 010900Z 26016G21KT 15SM OVC021 09/05 A2975 RMK SC8 SLP076=

CYQG;2006-04-01 10:00;METAR CYQG 011000Z 26016KT 15SM OVC017 09/05 A2978 RMK SC8 SLP084=

CYQG;2006-04-01 12:00;METAR CYQG 011200Z 27011G16KT 12SM OVC015 09/05 A2983 RMK SC8 SLP101=

CYQG;2006-04-01 13:00;METAR CYQG 011300Z 27012G18KT 15SM OVC017 09/06 A2986 RMK SC8 SLP111=

CYQG;2006-04-01 14:00;METAR CYQG 011400Z 29013KT 15SM OVC016 10/06 A2989 RMK SC8 SLP121=

CYQG;2006-04-01 15:00;METAR CYQG 011500Z 27015G20KT 15SM BKN018 10/06 A2989 RMK SC7 SLP125=

CYQG;2006-04-01 16:00;METAR CYQG 011600Z 28018KT 15SM OVC017 10/06 A2992 RMK SC8 SLP135=

CYQG;2006-04-01 17:00;METAR CYQG 011700Z 28013G19KT 15SM OVC020 11/06 A2995 RMK SC8 SLP142=

CYQG;2006-04-01 18:00;METAR CYQG 011800Z 25014KT 15SM BKN019 BKN040 11/06 A2995 RMK SC6SC2 SLP146=

CYQG;2006-04-01 19:00;METAR CYQG 011900Z 30014KT 15SM OVC025 11/06 A2997 RMK SC8 SLP150=

CYQG;2006-04-01 20:00;METAR CYQG 012000Z 29015KT 15SM OVC026 11/05 A2999 RMK SC8 SLP158=

CYQG;2006-04-01 21:00;METAR CYQG 012100Z 29010KT 15SM OVC028 11/05 A3001 RMK SC8 SLP164=

CYQG;2006-04-01 22:00;METAR CYQG 012200Z 30007KT 15SM OVC028 11/05 A3003 RMK SC8 SLP171=

CYQG;2006-04-01 23:00;METAR CYQG 012300Z 32007KT 15SM OVC028 10/04 A3006 RMK SC8 SLP181=

CYQG;2006-04-02 00:00;METAR CYQG 020000Z 01007KT 15SM OVC026 10/04 A3006 RMK SC8 SLP183=

CYQG;2006-04-02 01:00;METAR CYQG 020100Z 05012G17KT 15SM OVC024 08/04 A3008 RMK SC8 SLP191=

CYQG;2006-04-02 01:54;SPECI CYQG 020154Z 05010KT 5SM -DZ BR FEW009 OVC024 RMK SF2SC6=

CYQG;2006-04-02 02:00;METAR CYQG 020200Z 05009KT 4SM -RA BR BKN006 BKN013 OVC024 06/05 A3012 RMK SF5SC2SC2 SLP204=

CYQG;2006-04-02 03:37;SPECI CYQG 020337Z 06008KT 5SM -DZ BR BKN007 OVC012 RMK SF6SC2=

CYQG;2006-04-02 04:00;METAR CYQG 020400Z 07007KT 5SM -DZ BKN007 OVC013 06/04 A3013 RMK SF6SC2 SLP208=

CYQG;2006-04-02 05:00;METAR CYQG 020500Z 04008KT 6SM BR SCT007 OVC013 06/04 A3012 RMK SF4SC4 SLP205=

CYQG;2006-04-02 05:41;SPECI CYQG 020541Z 03009KT 10SM SCT013 OVC031 RMK SC3SC5=

CYQG;2006-04-02 06:00;METAR CYQG 020600Z 04009KT 15SM FEW013 OVC035 06/02 A3012 RMK SC2SC6 SLP203=

CYQG;2006-04-02 07:00;METAR CYQG 020700Z 03009KT 15SM OVC036 06/01 A3013 RMK SC8 SLP206=

CYQG;2006-04-02 08:00;METAR CYQG 020800Z 04007KT 15SM OVC039 05/01 A3012 RMK SC8 SLP203=

CYQG;2006-04-02 09:00;METAR CYQG 020900Z 04006KT 15SM OVC037 05/02 A3014 RMK SC8 SLP211=

CYQG;2006-04-02 11:00;METAR CYQG 021100Z 07002KT 12SM FEW019 BKN035 03/01 A3015 RMK CU2SC3 SLP215=

CYQG;2006-04-02 12:00;METAR CYQG 021200Z 07003KT 15SM BKN017 04/02 A3016 RMK SC7 SLP216=

CYQG;2006-04-02 13:00;METAR CYQG 021300Z 10007KT 15SM BKN017 05/02 A3015 RMK SC7 SLP214=

CYQG;2006-04-02 13:38;SPECI CYQG 021338Z 11007KT 15SM BKN014 RMK SC7=

CYQG;2006-04-02 14:00;METAR CYQG 021400Z 13009KT 12SM SCT011 OVC017 06/02 A3014 RMK SC3SC5 SLP212=

CYQG;2006-04-02 14:14;SPECI CYQG 021414Z 13012KT 12SM OVC013 RMK SC8=

CYQG;2006-04-02 16:00;METAR CYQG 021600Z 14007KT 15SM BKN016 08/03 A3010 RMK SC7 SLP196=

CYQG;2006-04-02 17:00;METAR CYQG 021700Z 12009KT 15SM BKN022 09/04 A3007 RMK SC7 SLP187=

CYQG;2006-04-02 18:00;METAR CYQG 021800Z 13012KT 15SM BKN028 10/04 A3004 RMK SC7 SLP177=

CYQG;2006-04-02 19:00;METAR CYQG 021900Z 14011KT 15SM BKN029 10/04 A3001 RMK SC7 SLP167=

CYQG;2006-04-02 22:00;METAR CYQG 022200Z 14012KT 15SM OVC027 09/04 A2991 RMK SC8 SLP132=

CYQG;2006-04-02 22:08;SPECI CYQG 022208Z 13012KT 12SM -SHRA OVC028 RMK SC8=

CYQG;2006-04-02 23:00;METAR CYQG 022300Z 13011KT 8SM -SHRA BKN027 OVC080 07/04 A2989 RMK SC6AC2 SLP126=

CYQG;2006-04-03 00:00;METAR CYQG 030000Z 11011KT 8SM -SHRA FEW027 OVC090 06/04 A2985 RMK SC2AC6 SLP113=

CYQG;2006-04-03 01:00;METAR CYQG 030100Z 12014KT 10SM -SHRA BKN035 OVC100 05/03 A2982 RMK SC5AC3 SLP104=

CYQG;2006-04-03 01:28;SPECI CYQG 030128Z 12014G20KT 12SM FEW035 BKN070 OVC100 RMK SC2AC6AC1=

CYQG;2006-04-03 02:16;SPECI CYQG 030216Z 14010KT 10SM -SHRA BKN031 OVC045 RMK SC6SC2=

CYQG;2006-04-03 03:00;METAR CYQG 030300Z 11011KT 5SM -SHRA BR OVC030 07/05 A2975 RMK SC8 SLP079=

CYQG;2006-04-03 05:00;METAR CYQG 030500Z 12007KT 6SM BR FEW025 OVC049 09/07 A2967 RMK SC2SC6 SLP053=

CYQG;2006-04-03 05:06;SPECI CYQG 030506Z 12007KT 5SM -SHRA BR FEW020 OVC041 RMK SC2SC6=

CYQG;2006-04-03 07:00;METAR CYQG 030700Z 15014G19KT 4SM -SHRA BR BKN017 OVC083 09/08 A2955 RERA RMK SC6AC2 PRESFR SLP010=

CYQG;2006-04-03 08:00;METAR CYQG 030800Z 17014KT 4SM -SHRA BR OVC017 10/08 A2952 RMK SC8 PRESFR SLP001=

CYQG;2006-04-03 08:34;SPECI CYQG 030834Z 20014G20KT 6SM BR SCT017 OVC071 RMK SC3AC5=

CYQG;2006-04-03 09:00;METAR CYQG 030900Z 20013KT 5SM BR FEW015 SCT070 11/09 A2949 RMK SC2AC2 SLP989=

CYQG;2006-04-03 11:00;METAR CYQG 031100Z 21012KT 5SM BR FEW015 SCT070 BKN270 11/09 A2950 RMK SC2AC2CI2 SLP993=

CYQG;2006-04-03 13:07;SPECI CYQG 031307Z 20011KT 15SM -SHRA SCT060 BKN110 BKN250 RMK CU3AC2CI1=

CYQG;2006-04-03 14:00;METAR CYQG 031400Z 20012G17KT 12SM BKN065 BKN130 BKN250 13/10 A2945 RMK CU5AC1CI2 SLP977=

CYQG;2006-04-03 15:00;METAR CYQG 031500Z 20015G21KT 15SM SCT064 BKN100 BKN250 14/09 A2943 RMK CU3AC2CI2 SLP966=

CYQG;2006-04-03 15:20;SPECI CYQG 031520Z 22017G22KT 12SM -SHRA BKN043 OVC100 RMK CU5AC3=

CYQG;2006-04-03 17:00;METAR CYQG 031700Z 23020G29KT 15SM BKN024 OVC045 10/08 A2942 RMK CU5SC3 INTMT -RA SLP963=

CYQG;2006-04-03 17:20;SPECI CYQG 031720Z 24017G29KT 15SM -RA BKN013 OVC049 RMK CU6SC2=

CYQG;2006-04-03 17:49;SPECI CYQG 031749Z 23016G22KT 6SM -RA BR SCT008 OVC014 RMK SF3CU5=

CYQG;2006-04-03 17:53;SPECI CYQG 031753Z 23015G21KT 6SM -RA BR BKN008 OVC014 RMK SF6CU2=

CYQG;2006-04-03 18:00;METAR CYQG 031800Z 23018G24KT 6SM -RA BR BKN008 OVC012 10/09 A2942 RMK SF5CU3 SLP965=

CYQG;2006-04-03 18:55;SPECI CYQG 031855Z 23016KT 5SM -DZ BR SCT008 OVC012 RMK SF3CU5=

CYQG;2006-04-03 19:00;METAR CYQG 031900Z 23019KT 5SM -DZ BR FEW008 OVC012 11/09 A2943 RMK SF2SC6 SLP969=

CYQG;2006-04-03 19:07;SPECI CYQG 031907Z 26025KT 4SM -RA BR BKN006 OVC013 RMK SF6SC2=

CYQG;2006-04-03 19:18;SPECI CYQG 031918Z 32026G34KT 5SM -RA BR SCT006 OVC014 RMK SF3SC5 PRESRR=

CYQG;2006-04-03 19:23;SPECI CYQG 031923Z 32024G34KT 7SM -RA FEW006 OVC015 RMK SF1SC7=

CYQG;2006-04-03 19:52;SPECI CYQG 031952Z 31021G26KT 7SM -RA OVC012 RMK SC8=

CYQG;2006-04-03 20:00;METAR CYQG 032000Z 31022G30KT 7SM -RA OVC013 07/04 A2952 RMK SC8 SLP996=

CYQG;2006-04-03 20:47;SPECI CYQG 032047Z 31019G29KT 15SM -RA OVC022 RMK SC8=

CYQG;2006-04-03 21:00;METAR CYQG 032100Z 31024G35KT 15SM OVC025 05/01 A2961 RMK SC8 SLP032=

CYQG;2006-04-03 23:00;METAR CYQG 032300Z 31018G25KT 15SM OVC035 06/M00 A2975 RMK SC8 SLP077=

CYQG;2006-04-04 00:00;METAR CYQG 040000Z 30014G26KT 15SM BKN029 06/M00 A2981 RMK SC7 PRESRR SLP097=

CYQG;2006-04-04 03:00;METAR CYQG 040300Z 32018KT 15SM SKC 04/M09 A2990 RMK SLP129=

CYQG;2006-04-04 05:00;METAR CYQG 040500Z 32013KT 15SM SKC 03/M09 A2996 RMK SLP147=

CYQG;2006-04-04 06:00;METAR CYQG 040600Z 32009KT 15SM SKC 03/M09 A2996 RMK SLP151=

CYQG;2006-04-04 07:00;METAR CYQG 040700Z 27007KT 15SM SKC 01/M08 A2997 RMK SLP153=

CYQG;2006-04-04 09:00;METAR CYQG 040900Z 29007KT 15SM SKC 01/M07 A2995 RMK SLP150=

CYQG;2006-04-04 10:00;METAR CYQG 041000Z 26007KT 15SM SKC 01/M06 A2995 RMK SLP150=

CYQG;2006-04-04 11:00;METAR CYQG 041100Z 26008KT 15SM SKC 01/M05 A2995 RMK SLP149=

CYQG;2006-04-04 12:00;METAR CYQG 041200Z 26008KT 15SM SKC 01/M04 A2995 RMK SLP146=

CYQG;2006-04-04 13:00;METAR CYQG 041300Z 25009KT 15SM SKC 03/M04 A2993 RMK SLP142=

CYQG;2006-04-04 14:00;METAR CYQG 041400Z 26011KT 15SM SKC 05/M05 A2991 RMK SLP133=

CYQG;2006-04-04 15:00;METAR CYQG 041500Z 24013G19KT 15SM FEW040 07/M05 A2987 RMK SC1 SLP121=

CYQG;2006-04-04 16:00;METAR CYQG 041600Z 26020G29KT 15SM BKN060 08/M05 A2986 RMK SC5 SLP115=

CYQG;2006-04-04 17:00;METAR CYQG 041700Z 30018G30KT 15SM BKN059 08/M05 A2983 RMK SC7 SLP105=

CYQG;2006-04-04 18:00;METAR CYQG 041800Z 29024G32KT 15SM BKN052 08/M05 A2981 RMK SC7 SLP098=

CYQG;2006-04-04 19:00;METAR CYQG 041900Z 29025G31KT 15SM VCSH BKN039 BKN052 08/M05 A2980 RMK CU5SC2 SLP096=

CYQG;2006-04-04 20:00;METAR CYQG 042000Z 30017G26KT 15SM VCSH SCT039 BKN056 07/M05 A2982 RMK CU3SC4 SLP101=

CYQG;2006-04-04 21:00;METAR CYQG 042100Z 30023G30KT 15SM SCT058 BKN077 06/M06 A2982 RMK CU3AC4 SLP104=

CYQG;2006-04-04 22:00;METAR CYQG 042200Z 30021G26KT 15SM FEW058 BKN077 06/M06 A2983 RMK CU2AC3 SLP108=

CYQG;2006-04-04 23:00;METAR CYQG 042300Z 30023G29KT 15SM VCSH BKN048 06/M04 A2985 RMK SC6 SLP113=

CYQG;2006-04-05 00:00;METAR CYQG 050000Z 30012KT 15SM FEW048 SCT080 05/M05 A2984 RMK CU2AC1 SLP110=

CYQG;2006-04-05 01:00;METAR CYQG 050100Z 30021KT 15SM BKN046 BKN088 05/M05 A2983 RMK SC5AS1 SLP106=

CYQG;2006-04-05 01:31;SPECI CYQG 050131Z 32018KT 15SM -SHRA BKN026 OVC048 RMK SF6SC2=

CYQG;2006-04-05 02:00;METAR CYQG 050200Z 30013G20KT 15SM -SHRA BKN024 OVC048 03/M00 A2984 RMK SF6SC2 SLP110=

CYQG;2006-04-05 03:00;METAR CYQG 050300Z 31015G20KT 8SM -SHRA SCT013 OVC038 03/00 A2982 RMK SF4SC4 SLP104=

CYQG;2006-04-05 03:37;SPECI CYQG 050337Z 35013KT 2 1/2SM -SHRASN BR BKN008 OVC014 RMK SF6SC2=

CYQG;2006-04-05 03:41;SPECI CYQG 050341Z 35012G17KT 1SM -SHSN OVC004 RMK SN3SF5 OCNL SHRA=

CYQG;2006-04-05 03:54;SPECI CYQG 050354Z 35011KT 2 1/2SM -SHSN FEW004 OVC014 RMK SF2SC6=

CYQG;2006-04-05 04:00;METAR CYQG 050400Z 35008KT 3SM -SHSN FEW005 OVC015 01/M01 A2983 RMK SF2SC6 SLP108=

CYQG;2006-04-05 04:19;SPECI CYQG 050419Z 33008KT 4SM -SHSN FEW004 OVC011 RMK SF2SC6=

CYQG;2006-04-05 04:28;SPECI CYQG 050428Z 33011KT 10SM -SHSN SCT010 OVC041 RMK SC3SC5=

CYQG;2006-04-05 05:42;SPECI CYQG 050542Z 33014KT 15SM BKN024 BKN110 RMK SC5AC2=

CYQG;2006-04-05 06:00;METAR CYQG 050600Z 33011G19KT 15SM BKN024 BKN110 02/M01 A2985 RMK SC6AC1 SLP114=

CYQG;2006-04-05 07:00;METAR CYQG 050700Z 34011KT 15SM BKN040 BKN100 01/M04 A2987 RMK SC5AC2 SLP121=

CYQG;2006-04-05 08:00;METAR CYQG 050800Z 34010KT 15SM BKN040 00/M05 A2988 RMK SC7 SLP123=

CYQG;2006-04-05 09:00;METAR CYQG 050900Z 32008KT 15SM BKN037 00/M04 A2988 RMK SC6 SLP125=

CYQG;2006-04-05 10:00;METAR CYQG 051000Z 27007KT 15SM BKN034 BKN130 00/M04 A2989 RMK SC5AC1 SLP128=

CYQG;2006-04-05 11:00;METAR CYQG 051100Z 28009KT 10SM FEW012 BKN110 OVC240 00/M03 A2990 RMK SF2AC3CI2 SLP132=

CYQG;2006-04-05 12:00;METAR CYQG 051200Z 28011G16KT 15SM BKN030 BKN120 01/M02 A2992 RMK SC6AC1 SLP136=

CYQG;2006-04-05 13:00;METAR CYQG 051300Z 29010G15KT 15SM BKN030 02/M02 A2992 RMK SC7 SLP139=

CYQG;2006-04-05 14:00;METAR CYQG 051400Z 29010G15KT 15SM BKN026 03/M02 A2992 RMK SC7 SLP137=

CYQG;2006-04-05 16:00;METAR CYQG 051600Z 30014G19KT 15SM BKN030 05/M02 A2994 RMK SC7 SLP143=

CYQG;2006-04-05 17:00;METAR CYQG 051700Z 32014G20KT 15SM BKN034 06/M01 A2993 RMK SC7 SLP142=

CYQG;2006-04-05 18:00;METAR CYQG 051800Z 33015KT 15SM BKN044 07/M01 A2992 RMK SC7 SLP137=

CYQG;2006-04-05 19:00;METAR CYQG 051900Z 31004KT 15SM BKN046 08/M00 A2991 RMK SC7 SLP133=

CYQG;2006-04-05 20:00;METAR CYQG 052000Z 34012KT 15SM BKN052 10/M01 A2990 RMK SC7 SLP131=

CYQG;2006-04-05 21:00;METAR CYQG 052100Z 31013KT 15SM BKN055 BKN150 11/M00 A2990 RMK SC6AC1 SLP129=

CYQG;2006-04-05 22:00;METAR CYQG 052200Z 32008KT 15SM BKN053 11/M00 A2989 RMK SC6 SLP125=

CYQG;2006-04-05 23:00;METAR CYQG 052300Z 35007KT 15SM SCT058 SCT270 11/M00 A2988 RMK SC3CI1 SLP124=

CYQG;2006-04-06 00:00;METAR CYQG 060000Z 11007KT 15SM FEW060 FEW270 08/01 A2989 RMK SC2CI1 SLP129=

CYQG;2006-04-06 01:00;METAR CYQG 060100Z 14005KT 15SM FEW060 FEW270 06/01 A2991 RMK SC1CI1 SLP133=

CYQG;2006-04-06 02:00;METAR CYQG 060200Z 15004KT 15SM FEW260 04/00 A2991 RMK CI1 SLP135=

CYQG;2006-04-06 03:00;METAR CYQG 060300Z 20002KT 15SM FEW250 03/M00 A2992 RMK CI1 SLP139=

CYQG;2006-04-06 04:00;METAR CYQG 060400Z 27003KT 15SM SKC 04/M00 A2993 RMK SLP141=

CYQG;2006-04-06 05:00;METAR CYQG 060500Z 00000KT 15SM FEW250 02/M01 A2993 RMK CI1 SLP142=

CYQG;2006-04-06 06:00;METAR CYQG 060600Z 00000KT 15SM FEW250 02/M01 A2994 RMK CI1 SLP143=

CYQG;2006-04-06 07:00;METAR CYQG 060700Z 05003KT 15SM FEW150 FEW210 02/M01 A2993 RMK AC1CI2 SLP142=

CYQG;2006-04-06 08:00;METAR CYQG 060800Z 00000KT 12SM BKN150 01/M02 A2995 RMK AC6 SLP146=

CYQG;2006-04-06 09:00;METAR CYQG 060900Z 07002KT 12SM BKN150 01/M01 A2996 RMK AC6 SLP149=

CYQG;2006-04-06 10:00;METAR CYQG 061000Z 16002KT 10SM SCT150 00/M01 A2996 RMK AC3 SLP151=

CYQG;2006-04-06 11:00;METAR CYQG 061100Z 16003KT 8SM MIFG FEW150 01/M01 A2996 RMK AC2 SLP150=

CYQG;2006-04-06 12:00;METAR CYQG 061200Z 14003KT 15SM FEW050 02/M00 A2996 RMK SC2 SLP152=

CYQG;2006-04-06 13:00;METAR CYQG 061300Z 17004KT 15SM FEW050 05/01 A2996 RMK SC1 SLP150=

CYQG;2006-04-06 14:00;METAR CYQG 061400Z 16008KT 15SM FEW080 FEW240 08/02 A2997 RMK AC1CI1 SLP154=

CYQG;2006-04-06 15:00;METAR CYQG 061500Z 15007KT 15SM FEW090 FEW150 BKN260 09/01 A2996 RMK AC1AC2CC2 SLP150=

CYQG;2006-04-06 16:00;METAR CYQG 061600Z 17007KT 15SM BKN130 BKN260 11/02 A2995 RMK AC4CI0 CONTRAILS SLP147=

CYQG;2006-04-06 17:00;METAR CYQG 061700Z 16009KT 15SM FEW130 BKN270 11/01 A2992 RMK AC2CI2 SLP137=

CYQG;2006-04-06 18:00;METAR CYQG 061800Z 18011KT 15SM FEW130 BKN260 11/01 A2991 RMK AC1CS5 SLP134=

CYQG;2006-04-06 19:00;METAR CYQG 061900Z 16007KT 15SM FEW130 BKN260 12/01 A2988 RMK AC1CS6 CONTRAILS SLP123=

CYQG;2006-04-06 21:00;METAR CYQG 062100Z 17007KT 15SM BKN260 13/M01 A2984 RMK CS5 CONTRAILS SLP108=

CYQG;2006-04-06 22:00;METAR CYQG 062200Z 14008KT 15SM FEW090 BKN260 13/M02 A2983 RMK AC1CS4 SLP104=

CYQG;2006-04-06 23:00;METAR CYQG 062300Z 16007KT 15SM BKN260 12/M00 A2981 RMK CI2 SLP098=

CYQG;2006-04-07 00:00;METAR CYQG 070000Z 13006KT 15SM FEW090 SCT260 10/01 A2980 RMK AC1CI1 SLP095=

CYQG;2006-04-07 01:00;METAR CYQG 070100Z 13007KT 15SM BKN260 07/M00 A2978 RMK CI2 SLP089=

CYQG;2006-04-07 02:00;METAR CYQG 070200Z 14007KT 15SM OVC260 06/M00 A2976 RMK CS7 SLP082=

CYQG;2006-04-07 03:00;METAR CYQG 070300Z 13005KT 15SM FEW070 OVC260 06/M01 A2972 RMK AC2CS6 SLP069=

CYQG;2006-04-07 04:00;METAR CYQG 070400Z 13003KT 15SM BKN036 OVC260 06/00 A2971 RMK SC5CS3 SLP066=

CYQG;2006-04-07 05:00;METAR CYQG 070500Z 00000KT 15SM OVC031 07/01 A2969 RMK SC8 SLP059=

CYQG;2006-04-07 06:00;METAR CYQG 070600Z 11003KT 15SM BKN032 OVC140 08/02 A2967 RMK SC6AC2 SLP048=

CYQG;2006-04-07 07:00;METAR CYQG 070700Z 16003KT 12SM SCT018 OVC081 10/06 A2964 RMK SC4AC4 SLP039=

CYQG;2006-04-07 07:47;SPECI CYQG 070747Z 20007KT 12SM -SHRA OVC021 RMK SC8=

CYQG;2006-04-07 07:53;SPECI CYQG 070753Z 21006KT 12SM -SHRA BKN013 OVC018 RMK SF5SC3=

CYQG;2006-04-07 08:00;METAR CYQG 070800Z 21006KT 12SM -SHRA BKN013 OVC020 10/08 A2961 RMK SF5SC3 SLP030=

CYQG;2006-04-07 09:00;METAR CYQG 070900Z 19004KT 3SM -SHRA BR SCT003 OVC010 10/08 A2959 RMK SF3SC5 SLP021=

CYQG;2006-04-07 09:24;SPECI CYQG 070924Z 18006KT 2SM -SHRA BR BKN003 OVC010 RMK SF5SC3=

CYQG;2006-04-07 10:00;METAR CYQG 071000Z 18005KT 2SM -RA BR OVC003 09/08 A2955 RMK SF8 SLP008=

CYQG;2006-04-07 11:00;METAR CYQG 071100Z 19004KT 1 1/2SM -RA BR OVC002 10/09 A2953 RMK FG2SF6 SLP002=

CYQG;2006-04-07 11:18;SPECI CYQG 071118Z 17006KT 1 1/2SM -RA BR OVC003 RMK FG2SF6=

CYQG;2006-04-07 12:00;METAR CYQG 071200Z 20003KT 1 1/4SM RA BR OVC003 10/09 A2951 RMK FG2SF6 /R12/ SLP994=

CYQG;2006-04-07 12:11;SPECI CYQG 071211Z 18003KT 2SM -RA BR OVC003 RERA RMK FG2SF6=

CYQG;2006-04-07 12:20;SPECI CYQG 071220Z 19002KT 1 1/4SM -RA BR OVC003 RERA RMK FG2SF6=

CYQG;2006-04-07 13:00;METAR CYQG 071300Z 28004KT 1 1/2SM -RA BR OVC004 10/09 A2952 RERA RMK FG2SF6 SLP999=

CYQG;2006-04-07 13:03;SPECI CYQG 071303Z 00000KT 1SM RA BR BKN006 OVC028 RMK FG2SF4SC2=

CYQG;2006-04-07 13:27;SPECI CYQG 071327Z 00000KT 1 1/2SM -RA BR OVC004 RERA RMK FG2SF6=

CYQG;2006-04-07 13:40;SPECI CYQG 071340Z 00000KT 2SM -RA BR OVC004 RERA RMK FG2SF6=

CYQG;2006-04-07 14:23;SPECI CYQG 071423Z 32003KT 3SM -RA BR OVC006 RMK FG1SF7=

CYQG;2006-04-07 14:43;SPECI CYQG 071443Z 36006KT 3SM -RA BR SCT006 OVC013 RMK FG1SF3SC4=

CYQG;2006-04-07 15:32;SPECI CYQG 071532Z 36013KT 4SM BR OVC003 RMK SF8=

CYQG;2006-04-07 16:00;METAR CYQG 071600Z 36008KT 5SM BR OVC006 09/08 A2952 RMK SF8 SLP000=

CYQG;2006-04-07 16:41;SPECI CYQG 071641Z 03014KT 6SM BR OVC011 RMK SF8=

CYQG;2006-04-07 16:53;SPECI CYQG 071653Z 04014KT 6SM BR SCT010 OVC017 RMK SF4SC4=

CYQG;2006-04-07 17:00;METAR CYQG 071700Z 03011KT 6SM BR BKN010 OVC017 08/07 A2955 RMK SF5SC3 SLP009=

CYQG;2006-04-07 18:00;METAR CYQG 071800Z 03009KT 6SM BR BKN012 OVC022 08/06 A2958 RMK SC5SC3 SLP018=

CYQG;2006-04-07 19:00;METAR CYQG 071900Z 36012G19KT 5SM HZ OVC014 08/05 A2962 RMK SC8 SLP032=

CYQG;2006-04-07 21:00;METAR CYQG 072100Z 01015G22KT 15SM OVC014 07/04 A2964 RMK SC8 SLP039=

CYQG;2006-04-07 21:22;SPECI CYQG 072122Z 03018KT 15SM BKN015 OVC035 RMK SC6SC2=

CYQG;2006-04-07 23:00;METAR CYQG 072300Z 36016G22KT 15SM OVC015 04/01 A2972 RMK SC8 PRESRR SLP068=

CYQG;2006-04-07 23:14;SPECI CYQG 072314Z 01012G18KT 15SM BKN014 OVC038 RMK SC6SC2=

CYQG;2006-04-08 00:00;METAR CYQG 080000Z 01014G25KT 15SM OVC014 03/M00 A2977 RMK SC8 SLP083=

CYQG;2006-04-08 04:00;METAR CYQG 080400Z 02013KT 15SM BKN076 04/M05 A2988 RMK AC7 SLP121=

CYQG;2006-04-08 06:00;METAR CYQG 080600Z 01010G18KT 15SM FEW100 01/M04 A2989 RMK AC2 SLP126=

CYQG;2006-04-08 07:00;METAR CYQG 080700Z 36010KT 15SM FEW100 01/M03 A2992 RMK AC2 PRESRR SLP138=

CYQG;2006-04-08 08:00;METAR CYQG 080800Z 01012G18KT 15SM FEW029 01/M04 A2992 RMK CU2 SLP136=

CYQG;2006-04-08 09:00;METAR CYQG 080900Z 36011KT 15SM FEW030 00/M04 A2994 RMK CF1 SLP143=

CYQG;2006-04-08 10:00;METAR CYQG 081000Z 01011KT 15SM FEW030 M00/M05 A2995 RMK CF1 SLP146=

CYQG;2006-04-08 11:00;METAR CYQG 081100Z 36010KT 12SM BKN029 M00/M05 A2999 RMK SC5 PRESRR SLP161=

CYQG;2006-04-08 12:00;METAR CYQG 081200Z 36009G15KT 15SM BKN029 M00/M06 A3001 RMK SC7 SLP170=

CYQG;2006-04-08 13:00;METAR CYQG 081300Z 01013KT 15SM BKN028 00/M07 A3004 RMK SC7 SLP180=

CYQG;2006-04-08 14:00;METAR CYQG 081400Z 02013G19KT 15SM BKN029 01/M06 A3007 RMK SC7 SLP188=

CYQG;2006-04-08 15:00;METAR CYQG 081500Z 01012G17KT 15SM BKN030 01/M06 A3009 RMK SC7 SLP197=

CYQG;2006-04-08 16:00;METAR CYQG 081600Z 02013KT 15SM BKN030 01/M06 A3011 RMK SC6 SLP203=

CYQG;2006-04-08 17:00;METAR CYQG 081700Z 35011G18KT 15SM BKN032 02/M06 A3011 RMK SC5 SLP202=

CYQG;2006-04-08 18:00;METAR CYQG 081800Z 03011G16KT 15SM FEW035 04/M06 A3011 RMK SC2 SLP202=

CYQG;2006-04-08 19:00;METAR CYQG 081900Z 04012KT 15SM FEW035 04/M06 A3011 RMK SC1 SLP204=

CYQG;2006-04-08 20:00;METAR CYQG 082000Z 03013KT 15SM FEW040 04/M06 A3012 RMK SC1 SLP207=

CYQG;2006-04-08 21:00;METAR CYQG 082100Z 35012KT 15SM FEW045 05/M06 A3013 RMK SC1 SLP210=

CYQG;2006-04-08 22:00;METAR CYQG 082200Z 05016KT 15SM FEW040 05/M04 A3015 RMK SC1 SLP216=

CYQG;2006-04-09 00:00;METAR CYQG 090000Z 06008KT 15SM FEW040 03/M03 A3017 RMK SC1 SLP225=

CYQG;2006-04-09 01:00;METAR CYQG 090100Z 05004KT 15SM FEW040 02/M04 A3019 RMK SC1 SLP230=

CYQG;2006-04-09 02:00;METAR CYQG 090200Z 09003KT 15SM SKC 01/M03 A3021 RMK SLP236=

CYQG;2006-04-09 04:00;METAR CYQG 090400Z 18003KT 15SM SKC M01/M03 A3021 RMK SLP239=

CYQG;2006-04-09 05:00;METAR CYQG 090500Z 00000KT 15SM SKC M01/M04 A3021 RMK SLP239=

CYQG;2006-04-09 06:00;METAR CYQG 090600Z 00000KT 15SM SKC M01/M05 A3022 RMK SLP241=

CYQG;2006-04-09 07:00;METAR CYQG 090700Z 00000KT 15SM SKC M01/M04 A3020 RMK SLP236=

CYQG;2006-04-09 08:00;METAR CYQG 090800Z 26003KT 15SM SKC M01/M04 A3022 RMK SLP242=

CYQG;2006-04-09 09:00;METAR CYQG 090900Z 19002KT 15SM SKC M02/M05 A3023 RMK SLP243=

CYQG;2006-04-09 11:00;METAR CYQG 091100Z 16002KT 12SM FEW080 M02/M04 A3026 RMK AC1 SLP253=

CYQG;2006-04-09 12:00;METAR CYQG 091200Z 00000KT 15SM FEW080 M01/M03 A3028 RMK AC1 SLP261=

CYQG;2006-04-09 13:00;METAR CYQG 091300Z 16004KT 15SM FEW260 02/M03 A3030 RMK CI0 SLP268=

CYQG;2006-04-09 14:00;METAR CYQG 091400Z 16005KT 15SM FEW030 SCT270 04/M02 A3030 RMK SC1CI1 SLP269=

CYQG;2006-04-09 15:00;METAR CYQG 091500Z 22007KT 15SM SCT025 BKN270 05/M01 A3030 RMK SC3CI1 SLP266=

CYQG;2006-04-09 16:00;METAR CYQG 091600Z 22004KT 15SM BKN025 05/M00 A3029 RMK SC6 SLP263=

CYQG;2006-04-09 17:00;METAR CYQG 091700Z 22006KT 15SM BKN025 07/01 A3028 RMK SC5 SLP260=

CYQG;2006-04-09 18:00;METAR CYQG 091800Z 23006KT 15SM FEW030 BKN270 08/00 A3026 RMK SC2CI1 SLP255=

CYQG;2006-04-09 20:00;METAR CYQG 092000Z 19008KT 15SM FEW035 FEW280 10/00 A3022 RMK CF1CI1 SLP241=

CYQG;2006-04-09 21:00;METAR CYQG 092100Z 18006KT 15SM SCT280 10/01 A3021 RMK CI1 SLP235=

CYQG;2006-04-09 23:00;METAR CYQG 092300Z 16009KT 15SM BKN280 09/02 A3020 RMK CI1 SLP234=

CYQG;2006-04-10 00:00;METAR CYQG 100000Z 17006KT 15SM FEW150 BKN280 07/00 A3020 RMK AC1CI2 SLP235=

CYQG;2006-04-10 01:00;METAR CYQG 100100Z 16004KT 15SM OVC240 05/00 A3020 RMK CS6 SLP235=

CYQG;2006-04-10 02:00;METAR CYQG 100200Z 17004KT 15SM OVC230 04/00 A3021 RMK CS7 SLP238=

CYQG;2006-04-10 04:00;METAR CYQG 100400Z 00000KT 15SM BKN190 04/00 A3022 RMK AS7 SLP239=

CYQG;2006-04-10 05:00;METAR CYQG 100500Z 08003KT 15SM BKN170 03/M00 A3022 RMK AS3 SLP239=

CYQG;2006-04-10 08:00;METAR CYQG 100800Z 16002KT 15SM FEW150 01/M01 A3021 RMK AC2 SLP235=

CYQG;2006-04-10 09:00;METAR CYQG 100900Z 18004KT 15SM FEW150 02/00 A3023 RMK AC2 SLP240=

CYQG;2006-04-10 11:00;METAR CYQG 101100Z 21002KT 10SM SCT150 04/01 A3026 RMK AC3 SLP252=

CYQG;2006-04-10 12:00;METAR CYQG 101200Z 22004KT 15SM BKN280 05/02 A3027 RMK CI4 CONTRAILS SLP257=

CYQG;2006-04-10 13:00;METAR CYQG 101300Z 22007KT 15SM BKN280 08/02 A3028 RMK CI4 CONTRAILS SLP258=

CYQG;2006-04-10 14:00;METAR CYQG 101400Z 23008KT 15SM FEW140 BKN280 11/02 A3027 RMK AC2CI2 SLP257=

CYQG;2006-04-10 15:00;METAR CYQG 101500Z 22008KT 15SM BKN130 BKN280 12/01 A3027 RMK AC6CI0 SLP255=

CYQG;2006-04-10 16:00;METAR CYQG 101600Z 22008KT 15SM BKN140 BKN280 12/02 A3027 RMK AC5CI1 SLP254=

CYQG;2006-04-10 17:00;METAR CYQG 101700Z 20010KT 15SM SCT140 BKN280 14/00 A3026 RMK AC4CI2 SLP250=

CYQG;2006-04-10 18:00;METAR CYQG 101800Z 19012G17KT 15SM FEW140 BKN270 14/M00 A3024 RMK AC1CS5 CONTRAILS SLP243=

CYQG;2006-04-10 19:00;METAR CYQG 101900Z 20011KT 15SM BKN270 14/00 A3021 RMK CI4 CS ASOCTD CONTRAILS SLP235=

CYQG;2006-04-10 20:00;METAR CYQG 102000Z 21013KT 15SM FEW160 BKN270 15/00 A3020 RMK AC2CI2 CC ASOCTD CONTRAILS SLP229=

CYQG;2006-04-10 21:00;METAR CYQG 102100Z 19011KT 15SM FEW150 BKN270 15/01 A3018 RMK AC2CI1 CS ASOCTD SLP225=

CYQG;2006-04-10 22:00;METAR CYQG 102200Z 17011KT 15SM SCT270 15/02 A3017 RMK CI2 SLP221=

CYQG;2006-04-10 23:00;METAR CYQG 102300Z 17010KT 15SM FEW100 FEW270 14/01 A3017 RMK AC1CI0 SLP220=

CYQG;2006-04-11 00:00;METAR CYQG 110000Z 17007KT 15SM FEW270 12/01 A3017 RMK CI0 SLP220=

CYQG;2006-04-11 01:00;METAR CYQG 110100Z 16007KT 15SM FEW100 FEW270 10/01 A3018 RMK AC1CI0 SLP224=

CYQG;2006-04-11 04:00;METAR CYQG 110400Z 00000KT 15SM SKC 06/M00 A3020 RMK SLP228=

CYQG;2006-04-11 05:00;METAR CYQG 110500Z 15002KT 15SM FEW270 06/M00 A3019 RMK CI1 SLP227=

CYQG;2006-04-11 06:00;METAR CYQG 110600Z 15002KT 15SM FEW270 05/M00 A3020 RMK CI1 SLP228=

CYQG;2006-04-11 08:00;METAR CYQG 110800Z 14004KT 15SM SKC 05/M00 A3018 RMK SLP224=

CYQG;2006-04-11 09:00;METAR CYQG 110900Z 11003KT 15SM SKC 04/M01 A3019 RMK SLP226=

CYQG;2006-04-11 10:00;METAR CYQG 111000Z 13003KT 15SM FEW270 04/M00 A3020 RMK CI1 SLP229=

CYQG;2006-04-11 11:00;METAR CYQG 111100Z 15003KT 15SM SCT270 04/00 A3020 RMK CI1 SLP229=

CYQG;2006-04-11 16:00;METAR CYQG 111600Z 21011KT 15SM OVC250 17/04 A3022 RMK CS6 SLP236=

CYQG;2006-04-11 17:00;METAR CYQG 111700Z 20009KT 15SM OVC250 18/04 A3020 RMK CS6 SLP230=

CYQG;2006-04-11 18:00;METAR CYQG 111800Z 18008KT 15SM OVC250 19/05 A3017 RMK CS6 SLP220=

CYQG;2006-04-11 19:00;METAR CYQG 111900Z 18011G16KT 15SM OVC250 21/05 A3015 RMK CS6 CONTRAILS SLP212=

CYQG;2006-04-11 21:00;METAR CYQG 112100Z 17015KT 15SM OVC230 21/04 A3009 RMK CS6 CONTRAILS SLP192=

CYQG;2006-04-11 22:00;METAR CYQG 112200Z 16010G15KT 15SM OVC230 20/03 A3008 RMK CS8 SLP189=

CYQG;2006-04-11 23:00;METAR CYQG 112300Z 15010KT 15SM OVC200 18/03 A3007 RMK CI8 SLP184=

CYQG;2006-04-12 00:00;METAR CYQG 120000Z 14005KT 12SM OVC200 16/03 A3006 RMK CI8 SLP180=

CYQG;2006-04-12 01:00;METAR CYQG 120100Z 16010KT 15SM OVC170 15/03 A3007 RMK AC8 SLP185=

CYQG;2006-04-12 02:00;METAR CYQG 120200Z 17006KT 15SM OVC160 14/04 A3009 RMK AC8 SLP191=

CYQG;2006-04-12 03:00;METAR CYQG 120300Z 18007KT 15SM OVC150 14/06 A3007 RMK AC8 SLP185=

CYQG;2006-04-12 04:00;METAR CYQG 120400Z 21012KT 15SM OVC160 17/06 A3005 RMK AC8 SLP177=

CYQG;2006-04-12 06:00;METAR CYQG 120600Z 24009KT 15SM OVC140 16/07 A3002 RMK AC8 SLP167=

CYQG;2006-04-12 07:00;METAR CYQG 120700Z 22007KT 15SM OVC140 15/07 A3003 RMK AC8 SLP168=

CYQG;2006-04-12 07:49;SPECI CYQG 120749Z 24009KT 15SM -RA FEW045 OVC100 RMK SC2AS6=

CYQG;2006-04-12 10:00;METAR CYQG 121000Z 22012G20KT 6SM -RA BR OVC060 14/12 A3000 RMK SC8 SLP157=

CYQG;2006-04-12 11:53;SPECI CYQG 121153Z 16008KT 8SM OVC082 RMK AC8=

CYQG;2006-04-12 12:00;METAR CYQG 121200Z 16008KT 8SM OVC083 12/10 A2998 RMK AC8 PRESFR SLP153=

CYQG;2006-04-12 13:00;METAR CYQG 121300Z 17012KT 10SM FEW110 BKN140 13/10 A2996 RMK AC2AC5 SLP148=

CYQG;2006-04-12 14:00;METAR CYQG 121400Z 18017G22KT 12SM -RA BKN061 OVC140 16/08 A2995 RMK SC6AC2 SLP142=

CYQG;2006-04-12 15:00;METAR CYQG 121500Z 21011G17KT 8SM -RA SCT060 OVC086 14/10 A2995 RMK SC3AC5 SLP141=

CYQG;2006-04-12 16:00;METAR CYQG 121600Z 20015KT 15SM -RA BKN047 OVC100 14/11 A2992 RMK SC6AC2 SLP132=

CYQG;2006-04-12 16:25;SPECI CYQG 121625Z 19011G16KT 15SM BKN047 OVC100 RMK SC6AC2=

CYQG;2006-04-12 17:00;METAR CYQG 121700Z 19015KT 15SM OVC049 15/11 A2988 RMK SC8 SLP120=

CYQG;2006-04-12 18:00;METAR CYQG 121800Z 20016KT 10SM BKN041 OVC070 19/12 A2984 RMK SC6AC2 SLP105=

CYQG;2006-04-12 18:39;SPECI CYQG 121839Z 20016G21KT 10SM -SHRA SCT050 OVC100 RMK SC4AC4=

CYQG;2006-04-12 19:12;SPECI CYQG 121912Z 21012G19KT 10SM -SHRA SCT040 OVC082 RMK CU4AC4=

CYQG;2006-04-12 19:30;SPECI CYQG 121930Z 21010KT 3SM -TSRA HZ FEW020 OVC046 RMK CU2SC6 LTGCG CB ASOCTD=

CYQG;2006-04-12 19:37;SPECI CYQG 121937Z 27015KT 3/4SM +TSRA SCT009 OVC021 RMK RA2SF2SC4 LTGCG CB ASOCTD WSHFT 1935=

CYQG;2006-04-12 19:49;SPECI CYQG 121949Z 26012G25KT 3SM -SHRA BR FEW015 OVC069 RETSRA RMK SF2AC6=

CYQG;2006-04-12 20:18;SPECI CYQG 122018Z 26016KT 6SM HZ SCT015TCU BKN089 RMK TCU4AC3 CB ASOCTD NE=

CYQG;2006-04-12 21:00;METAR CYQG 122100Z 28028G36KT 15SM BKN037 19/12 A2985 RMK CU7 TCU ASOCTD PRESRR SLP107=

CYQG;2006-04-12 23:00;METAR CYQG 122300Z 28028G33KT 10SM VCSH BKN045 BKN240 19/12 A2993 RMK CU6CI1 TCU ASOCTD SHRA W PRESRR SLP134=

CYQG;2006-04-13 00:00;METAR CYQG 130000Z 28016G25KT 7SM SCT038 18/11 A2996 RMK CU3 SLP146=

CYQG;2006-04-13 01:00;METAR CYQG 130100Z 30019G25KT 12SM FEW036 17/11 A3000 RMK CU2 SLP160=

CYQG;2006-04-13 02:00;METAR CYQG 130200Z 30010KT 15SM BKN210 16/11 A3003 RMK CI5 SLP170=

CYQG;2006-04-13 04:00;METAR CYQG 130400Z 27006KT 12SM BKN220 15/11 A3005 RMK CI5 SLP178=

CYQG;2006-04-13 05:00;METAR CYQG 130500Z 23004KT 10SM BKN190 14/11 A3005 RMK AC5 SLP178=

CYQG;2006-04-13 07:00;METAR CYQG 130700Z 24005KT 6SM BR SCT190 12/10 A3005 RMK AC1 SLP178=

CYQG;2006-04-13 10:00;METAR CYQG 131000Z 23006KT 5SM BR FEW140 FEW220 11/10 A3006 RMK AC1CI1 SLP181=

CYQG;2006-04-13 11:00;METAR CYQG 131100Z 24008KT 4SM BR FEW150 FEW230 11/10 A3007 RMK AC1CI1 SLP184=

CYQG;2006-04-13 12:00;METAR CYQG 131200Z 24007KT 6SM HZ FEW150 12/10 A3008 RMK AC2 ACC ASOCTD SLP187=

CYQG;2006-04-13 13:00;METAR CYQG 131300Z 25012KT 8SM FEW150 15/10 A3008 RMK AC1 SLP187=

CYQG;2006-04-13 14:00;METAR CYQG 131400Z 27011KT 15SM FEW030 FEW150 18/09 A3007 RMK CU1AC1 SLP183=

CYQG;2006-04-13 15:00;METAR CYQG 131500Z 28012G17KT 15SM FEW030 FEW270 20/08 A3006 RMK CF1CI0 SLP179=

CYQG;2006-04-13 16:00;METAR CYQG 131600Z 28014G19KT 15SM FEW030 22/07 A3006 RMK CF1 SLP178=

CYQG;2006-04-13 18:00;METAR CYQG 131800Z 26014G22KT 15SM BKN080 BKN280 23/07 A3001 RMK AC5CI1 SLP163=

CYQG;2006-04-13 19:00;METAR CYQG 131900Z 28017KT 15SM BKN081 BKN280 24/07 A3001 RMK AC6CI1 SLP162=

CYQG;2006-04-13 21:00;METAR CYQG 132100Z 28015KT 15SM BKN080 OVC260 24/06 A2999 RMK AC5CS3 SLP154=

CYQG;2006-04-13 22:00;METAR CYQG 132200Z 27008KT 15SM FEW080 OVC260 24/07 A2997 RMK AC2CS6 SLP149=

CYQG;2006-04-14 00:00;METAR CYQG 140000Z 27004KT 15SM SCT190 OVC250 22/07 A2995 RMK AS3CS5 SLP141=

CYQG;2006-04-14 01:00;METAR CYQG 140100Z 26005KT 15SM OVC170 20/08 A2995 RMK AS8 SLP143=

CYQG;2006-04-14 01:33;SPECI CYQG 140133Z 27007KT 10SM -SHRA BKN090 OVC170 RMK AC5AS3=

CYQG;2006-04-14 02:25;SPECI CYQG 140225Z 35003KT 15SM OVC099 RMK AC8=

CYQG;2006-04-14 02:50;SPECI CYQG 140250Z 00000KT 12SM -SHRA BKN090 BKN140 RMK AC5AC2=

CYQG;2006-04-14 03:33;SPECI CYQG 140333Z 11005KT 15SM OVC100 RMK AC8=

CYQG;2006-04-14 04:00;METAR CYQG 140400Z 16005KT 15SM FEW096 OVC130 18/09 A2991 RMK AC2AC6 SLP126=

CYQG;2006-04-14 05:00;METAR CYQG 140500Z 17006KT 15SM OVC086 17/09 A2989 RMK AC8 SLP121=

CYQG;2006-04-14 05:07;SPECI CYQG 140507Z 16006KT 15SM -SHRA OVC090 RMK AC8=

CYQG;2006-04-14 06:00;METAR CYQG 140600Z 15008KT 15SM OVC110 16/10 A2986 RMK AC8 OCNL SHRA SLP111=

CYQG;2006-04-14 06:41;SPECI CYQG 140641Z 17007KT 15SM -SHRA OVC083 RMK AC8=

CYQG;2006-04-14 07:00;METAR CYQG 140700Z 13008KT 15SM -SHRA OVC110 15/10 A2981 RMK AC8 SLP095=

CYQG;2006-04-14 07:39;SPECI CYQG 140739Z 16008KT 15SM OVC110 RMK AC8=

CYQG;2006-04-14 08:00;METAR CYQG 140800Z 13005KT 15SM OVC100 15/08 A2977 RMK AC8 SLP081=

CYQG;2006-04-14 09:00;METAR CYQG 140900Z 19005KT 15SM -SHRA OVC088 15/08 A2975 RMK AC8 SLP073=

CYQG;2006-04-14 10:00;METAR CYQG 141000Z 04008KT 15SM -SHRA OVC091 13/09 A2975 RMK AC8 SLP074=

CYQG;2006-04-14 11:00;METAR CYQG 141100Z 04010KT 6SM -SHRA BR OVC043 11/09 A2978 RMK SC8 SLP082=

CYQG;2006-04-14 11:54;SPECI CYQG 141154Z 09010KT 10SM SCT040 BKN110 BKN150 RMK SC3AC2AC1=

CYQG;2006-04-14 12:00;METAR CYQG 141200Z 10006KT 12SM BKN036 BKN110 BKN150 11/10 A2974 RMK SC5AC2AC1 SLP070=

CYQG;2006-04-14 13:00;METAR CYQG 141300Z 14007KT 8SM BKN022 BKN110 BKN260 13/11 A2972 RMK SC5AC1CI0 SLP063=

CYQG;2006-04-14 16:00;METAR CYQG 141600Z 23010KT 10SM FEW020 BKN270 20/15 A2964 RMK SC2CI2 SLP036=

CYQG;2006-04-14 17:00;METAR CYQG 141700Z 28011G17KT 10SM FEW026 OVC270 22/15 A2963 RMK SC2CS4 SLP032=

CYQG;2006-04-14 19:00;METAR CYQG 141900Z 26015G25KT 12SM FEW026 BKN200 OVC270 24/14 A2960 RMK SC1CS4CI2 SLP023=

CYQG;2006-04-14 20:00;METAR CYQG 142000Z 27015KT 15SM FEW025 BKN190 24/14 A2957 RMK SC1AC7 SLP013=

CYQG;2006-04-14 21:00;METAR CYQG 142100Z 27011G17KT 15SM FEW190 BKN280 26/10 A2954 RMK AC2CI2 SLP001=

CYQG;2006-04-14 22:00;METAR CYQG 142200Z 27020G26KT 15SM FEW190 SCT280 28/08 A2953 RMK AC1CI1 SLP998=

CYQG;2006-04-15 00:00;METAR CYQG 150000Z 24014KT 15SM FEW110 FEW290 24/09 A2955 RMK AC1CI1 SLP005=

CYQG;2006-04-15 01:00;METAR CYQG 150100Z 22011KT 15SM FEW110 FEW290 20/11 A2955 RMK AC1CI1 SLP005=

CYQG;2006-04-15 04:00;METAR CYQG 150400Z 22007KT 15SM SKC 17/12 A2956 RMK SLP008=

CYQG;2006-04-15 05:00;METAR CYQG 150500Z 28006KT 15SM SCT230 18/13 A2958 RMK CI2 SLP014=

CYQG;2006-04-15 09:00;METAR CYQG 150900Z 05005KT 15SM FEW070 SCT210 10/06 A2964 RMK AC1CI1 SLP038=

CYQG;2006-04-15 10:00;METAR CYQG 151000Z 03003KT 15SM BKN240 10/06 A2966 RMK CI3 SLP042=

CYQG;2006-04-15 11:00;METAR CYQG 151100Z 00000KT 12SM FEW080 SCT200 BKN270 10/06 A2968 RMK AC1CI2CI2 SLP049=

CYQG;2006-04-15 12:00;METAR CYQG 151200Z 28002KT 15SM BKN280 11/06 A2971 RMK CI6 CONTRAILS SLP059=

CYQG;2006-04-15 13:00;METAR CYQG 151300Z 35005KT 15SM BKN280 13/05 A2972 RMK CI3 CONTRAILS SLP063=

CYQG;2006-04-15 14:00;METAR CYQG 151400Z 31006KT 15SM BKN280 14/05 A2972 RMK CI3 CONTRAILS SLP063=

CYQG;2006-04-15 16:00;METAR CYQG 151600Z 32005KT 15SM FEW280 17/03 A2974 RMK CI1 SLP069=

CYQG;2006-04-15 18:00;METAR CYQG 151800Z 31012KT 15SM FEW280 20/02 A2973 RMK CI1 SLP065=

CYQG;2006-04-15 19:00;METAR CYQG 151900Z 33011G16KT 15SM FEW280 20/01 A2973 RMK CI1 SLP065=

CYQG;2006-04-15 20:00;METAR CYQG 152000Z 34011KT 15SM FEW280 21/00 A2972 RMK CI1 SLP064=

CYQG;2006-04-15 21:00;METAR CYQG 152100Z 09010KT 15SM FEW280 20/03 A2973 RMK CI1 SLP067=

CYQG;2006-04-15 22:00;METAR CYQG 152200Z 07012KT 15SM FEW280 18/06 A2973 RMK CI1 SLP067=

CYQG;2006-04-15 23:00;METAR CYQG 152300Z 06010KT 15SM FEW290 16/08 A2977 RMK CI1 SLP081=

CYQG;2006-04-16 01:00;METAR CYQG 160100Z 04013KT 15SM FEW290 11/05 A2982 RMK CI1 SLP098=

CYQG;2006-04-16 04:00;METAR CYQG 160400Z 04009KT 15SM SKC 08/04 A2983 RMK SLP103=

CYQG;2006-04-16 05:00;METAR CYQG 160500Z 04010KT 15SM SKC 07/04 A2983 RMK SLP104=

CYQG;2006-04-16 07:00;METAR CYQG 160700Z 05006KT 15SM SKC 06/03 A2985 RMK SLP109=

CYQG;2006-04-16 11:00;METAR CYQG 161100Z 02003KT 15SM FEW210 BKN280 07/04 A2990 RMK CI2CI2 SLP125=

CYQG;2006-04-16 13:00;METAR CYQG 161300Z 07012KT 15SM BKN240 09/06 A2989 RMK CS7 SLP122=

CYQG;2006-04-16 16:00;METAR CYQG 161600Z 07009KT 15SM BKN130 BKN240 11/05 A2986 RMK AC6CS2 SLP115=

CYQG;2006-04-16 17:00;METAR CYQG 161700Z 16010KT 15SM BKN110 BKN170 10/05 A2989 RMK AC5AC2 SLP124=

CYQG;2006-04-16 18:00;METAR CYQG 161800Z 13007KT 15SM BKN110 BKN240 11/05 A2988 RMK AC6CI1 SLP120=

CYQG;2006-04-16 20:00;METAR CYQG 162000Z 09010KT 15SM BKN110 BKN160 13/06 A2982 RMK AC6AC1 SLP101=

CYQG;2006-04-16 22:00;METAR CYQG 162200Z 06013KT 15SM BKN130 BKN250 13/07 A2978 RMK AC6CI1 SLP089=

CYQG;2006-04-17 00:00;METAR CYQG 170000Z 05014KT 15SM BKN110 BKN260 10/05 A2982 RMK AC6CI1 SLP101=

CYQG;2006-04-17 01:00;METAR CYQG 170100Z 05014KT 15SM BKN110 BKN260 09/03 A2984 RMK AC6CI2 SLP107=

CYQG;2006-04-17 02:00;METAR CYQG 170200Z 04015KT 15SM BKN110 BKN260 08/02 A2984 RMK AC6CI1 SLP109=

CYQG;2006-04-17 03:00;METAR CYQG 170300Z 04012G18KT 15SM SCT140 BKN270 07/01 A2983 RMK AC3CI2 SLP106=

CYQG;2006-04-17 07:00;METAR CYQG 170700Z 05008KT 15SM FEW140 SCT240 06/03 A2982 RMK AC1CI2 SLP101=

CYQG;2006-04-17 10:00;METAR CYQG 171000Z 05011KT 15SM FEW140 SCT240 06/01 A2982 RMK AC1CI1 SLP099=

CYQG;2006-04-17 11:00;METAR CYQG 171100Z 05013KT 15SM FEW140 BKN240 06/00 A2986 RMK AC1CI4 SLP113=

CYQG;2006-04-17 12:00;METAR CYQG 171200Z 06013KT 15SM FEW250 07/01 A2989 RMK CI2 SLP126=

CYQG;2006-04-17 13:00;METAR CYQG 171300Z 06013G18KT 15SM FEW250 08/01 A2991 RMK CI1 SLP133=

CYQG;2006-04-17 14:00;METAR CYQG 171400Z 05016KT 15SM SKC 09/02 A2992 RMK SLP136=

CYQG;2006-04-17 15:00;METAR CYQG 171500Z 06011G19KT 15SM SKC 10/03 A2993 RMK SLP139=

CYQG;2006-04-17 16:00;METAR CYQG 171600Z 05017KT 15SM SKC 11/02 A2994 RMK SLP142=

CYQG;2006-04-17 17:00;METAR CYQG 171700Z 04011G18KT 15SM FEW035 12/02 A2994 RMK CF1 SLP143=

CYQG;2006-04-17 18:00;METAR CYQG 171800Z 03017G22KT 15SM FEW035 FEW270 13/01 A2995 RMK CF1CI0 SLP143=

CYQG;2006-04-17 19:00;METAR CYQG 171900Z 03017G22KT 15SM FEW035 FEW270 13/01 A2995 RMK CF1CI0 SLP144=

CYQG;2006-04-17 20:00;METAR CYQG 172000Z 03016G22KT 15SM FEW035 14/02 A2995 RMK CU1 SLP144=

CYQG;2006-04-17 21:00;METAR CYQG 172100Z 03017G25KT 15SM FEW035 13/02 A2995 RMK CU1 SLP144=

CYQG;2006-04-17 22:00;METAR CYQG 172200Z 04013G21KT 15SM FEW035 13/03 A2997 RMK CU1 SLP150=

CYQG;2006-04-17 23:00;METAR CYQG 172300Z 04014KT 15SM FEW270 12/03 A2998 RMK CI0 SLP154=

CYQG;2006-04-18 00:00;METAR CYQG 180000Z 04011G17KT 15SM SKC 11/03 A2999 RMK SLP159=

CYQG;2006-04-18 01:00;METAR CYQG 180100Z 04012KT 15SM SKC 09/03 A3001 RMK SLP165=

CYQG;2006-04-18 03:00;METAR CYQG 180300Z 08007KT 15SM SKC 09/02 A3004 RMK SLP177=

CYQG;2006-04-18 04:00;METAR CYQG 180400Z 05014KT 15SM SKC 08/03 A3005 RMK SLP180=

CYQG;2006-04-18 07:00;METAR CYQG 180700Z 03006KT 15SM FEW200 05/02 A3005 RMK CI0 SLP179=

CYQG;2006-04-18 11:00;METAR CYQG 181100Z 05007KT 15SM FEW200 05/03 A3007 RMK CI0 SLP184=

CYQG;2006-04-18 13:00;METAR CYQG 181300Z 05006KT 15SM FEW240 09/04 A3010 RMK CI1 SLP195=

CYQG;2006-04-18 16:00;METAR CYQG 181600Z 04004KT 15SM SKC 14/05 A3009 RMK SLP193=

CYQG;2006-04-18 17:00;METAR CYQG 181700Z 04006KT 15SM FEW035 15/05 A3009 RMK CF1 SLP192=

CYQG;2006-04-18 18:00;METAR CYQG 181800Z 03010KT 15SM FEW035 16/05 A3007 RMK CF1 SLP186=

CYQG;2006-04-18 19:00;METAR CYQG 181900Z 10006KT 15SM FEW035 16/05 A3006 RMK CF1 SLP183=

CYQG;2006-04-18 22:00;METAR CYQG 182200Z 12008KT 15SM SKC 17/05 A3002 RMK SLP167=

CYQG;2006-04-18 23:00;METAR CYQG 182300Z 12007KT 15SM SKC 17/04 A3003 RMK SLP170=

CYQG;2006-04-19 00:00;METAR CYQG 190000Z 08006KT 15SM SKC 16/05 A3003 RMK SLP171=

CYQG;2006-04-19 01:00;METAR CYQG 190100Z 06006KT 15SM SKC 13/04 A3004 RMK SLP174=

CYQG;2006-04-19 02:00;METAR CYQG 190200Z 05005KT 15SM SKC 11/05 A3004 RMK SLP173=

CYQG;2006-04-19 03:00;METAR CYQG 190300Z 06005KT 15SM SKC 10/04 A3003 RMK SLP172=

CYQG;2006-04-19 04:00;METAR CYQG 190400Z 06006KT 15SM SKC 09/03 A3002 RMK SLP169=

CYQG;2006-04-19 05:00;METAR CYQG 190500Z 04005KT 15SM SKC 08/03 A3001 RMK SLP164=

CYQG;2006-04-19 06:00;METAR CYQG 190600Z 03005KT 15SM SKC 08/04 A3001 RMK SLP163=

CYQG;2006-04-19 07:00;METAR CYQG 190700Z 02004KT 15SM SKC 08/04 A3001 RMK SLP164=

CYQG;2006-04-19 08:00;METAR CYQG 190800Z 04007KT 15SM SKC 06/04 A2998 RMK SLP156=

CYQG;2006-04-19 10:00;METAR CYQG 191000Z 03003KT 15SM SKC 07/05 A3002 RMK SLP168=

CYQG;2006-04-19 11:00;METAR CYQG 191100Z 04004KT 12SM SKC 06/04 A3002 RMK SLP168=

CYQG;2006-04-19 12:00;METAR CYQG 191200Z 05008KT 15SM FEW280 09/07 A3002 RMK CI1 SLP168=

CYQG;2006-04-19 13:00;METAR CYQG 191300Z 06006KT 15SM SCT280 12/07 A3003 RMK CI1 SLP171=

CYQG;2006-04-19 14:00;METAR CYQG 191400Z 11002KT 15SM FEW280 15/08 A3004 RMK CI1 SLP173=

CYQG;2006-04-19 16:00;METAR CYQG 191600Z 06005KT 15SM BKN300 18/07 A3002 RMK CI3 SLP168=

CYQG;2006-04-19 17:00;METAR CYQG 191700Z 04007KT 15SM BKN300 18/07 A3001 RMK CI3 SLP165=

CYQG;2006-04-19 19:00;METAR CYQG 191900Z 06013KT 15SM SCT280 20/05 A3000 RMK CI1 SLP159=

CYQG;2006-04-19 20:00;METAR CYQG 192000Z 07008KT 15SM BKN290 21/06 A2998 RMK CI2 SLP155=

CYQG;2006-04-19 21:00;METAR CYQG 192100Z 09005KT 15SM BKN290 21/04 A2998 RMK CI2 SLP153=

CYQG;2006-04-19 22:00;METAR CYQG 192200Z 12006KT 15SM BKN290 21/03 A2998 RMK CI2 SLP153=

CYQG;2006-04-20 00:00;METAR CYQG 200000Z 09005KT 15SM BKN290 18/04 A2998 RMK CI2 SLP153=

CYQG;2006-04-20 02:00;METAR CYQG 200200Z 08004KT 15SM FEW280 15/05 A3002 RMK CI1 SLP167=

CYQG;2006-04-20 03:00;METAR CYQG 200300Z 05004KT 15SM SKC 13/05 A3001 RMK SLP164=

CYQG;2006-04-20 04:00;METAR CYQG 200400Z 03005KT 15SM SKC 12/06 A3000 RMK SLP161=

CYQG;2006-04-20 06:00;METAR CYQG 200600Z 06006KT 15SM SKC 11/06 A2999 RMK SLP156=

CYQG;2006-04-20 07:00;METAR CYQG 200700Z 05005KT 15SM SKC 10/05 A2998 RMK SLP153=

CYQG;2006-04-20 08:00;METAR CYQG 200800Z 04003KT 15SM SKC 10/06 A2998 RMK SLP154=

CYQG;2006-04-20 09:00;METAR CYQG 200900Z 03003KT 15SM SKC 09/06 A2999 RMK SLP157=

CYQG;2006-04-20 11:00;METAR CYQG 201100Z 05005KT 15SM FEW270 08/06 A3000 RMK CI1 SLP158=

CYQG;2006-04-20 12:00;METAR CYQG 201200Z 06003KT 15SM FEW270 10/07 A3000 RMK CI1 SLP161=

CYQG;2006-04-20 13:00;METAR CYQG 201300Z 11004KT 15SM FEW280 14/06 A3004 RMK CI1 SLP172=

CYQG;2006-04-20 14:00;METAR CYQG 201400Z 15004KT 15SM SCT280 16/05 A3003 RMK CI1 SLP171=

CYQG;2006-04-20 15:00;METAR CYQG 201500Z 13006KT 15SM BKN280 18/06 A3003 RMK CI2 SLP169=

CYQG;2006-04-20 18:00;METAR CYQG 201800Z 09006KT 15SM OVC280 22/06 A2998 RMK CS6 SLP152=

CYQG;2006-04-20 23:00;METAR CYQG 202300Z 12006KT 15SM SCT120 OVC280 20/06 A2993 RMK AC3CS5 SLP135=

CYQG;2006-04-21 00:00;METAR CYQG 210000Z 13006KT 15SM FEW120 BKN270 18/06 A2993 RMK AC2CS4 SLP136=

CYQG;2006-04-21 01:00;METAR CYQG 210100Z 14005KT 15SM FEW120 BKN250 16/03 A2994 RMK AC2CS4 SLP138=

CYQG;2006-04-21 02:00;METAR CYQG 210200Z 13006KT 15SM BKN093 BKN120 OVC250 14/03 A2994 RMK AC6AC1CS1 SLP140=

CYQG;2006-04-21 04:00;METAR CYQG 210400Z 09006KT 15SM OVC091 14/04 A2992 RMK AC7 SLP133=

CYQG;2006-04-21 08:00;METAR CYQG 210800Z 13006KT 15SM BKN072 15/03 A2991 RMK AC7 SLP127=

CYQG;2006-04-21 11:00;METAR CYQG 211100Z 16005KT 12SM FEW080 SCT120 BKN270 12/06 A2993 RMK AC2AC2CI2 CONTRAILS SLP135=

CYQG;2006-04-21 12:00;METAR CYQG 211200Z 12002KT 12SM FEW080 FEW120 BKN270 13/08 A2994 RMK AC1AC1CI2 SLP139=

CYQG;2006-04-21 13:00;METAR CYQG 211300Z 15004KT 10SM BKN270 15/11 A2994 RMK CI4 SLP139=

CYQG;2006-04-21 14:00;METAR CYQG 211400Z 20005KT 10SM FEW060 BKN270 17/13 A2995 RMK SC2CI3 SLP143=

CYQG;2006-04-21 16:00;METAR CYQG 211600Z 21002KT 10SM BKN280 22/14 A2994 RMK CI2 SLP138=

CYQG;2006-04-21 17:00;METAR CYQG 211700Z 22004KT 12SM BKN280 23/12 A2992 RMK CI3 SLP133=

CYQG;2006-04-21 18:00;METAR CYQG 211800Z 19003KT 12SM BKN290 23/12 A2990 RMK CI2 SLP124=

CYQG;2006-04-21 19:00;METAR CYQG 211900Z 19005KT 12SM OVC290 24/12 A2989 RMK CS6 SLP121=

CYQG;2006-04-21 21:00;METAR CYQG 212100Z 16006KT 15SM OVC260 23/10 A2986 RMK CS8 SLP110=

CYQG;2006-04-21 22:00;METAR CYQG 212200Z 13007KT 12SM SCT095 OVC260 22/13 A2985 RMK AC3CS5 SLP108=

CYQG;2006-04-21 23:00;METAR CYQG 212300Z 13019G25KT 5SM HZ BKN080 OVC180 16/13 A2986 RMK AC5AC3 SLP110=

CYQG;2006-04-21 23:45;SPECI CYQG 212345Z 13011G16KT 4SM HZ SCT065 OVC085 RMK CU4AC4=

CYQG;2006-04-22 00:00;METAR CYQG 220000Z 15012KT 3SM HZ FEW008 OVC060 15/12 A2987 RMK SF2CU6 SLP117=

CYQG;2006-04-22 00:06;SPECI CYQG 220006Z 15012KT 3SM HZ BKN008 OVC060 RMK SF6CU2=

CYQG;2006-04-22 00:29;SPECI CYQG 220029Z 23007KT 2SM -SHRA HZ OVC007 RMK SF8 WSHFT=

CYQG;2006-04-22 00:51;SPECI CYQG 220051Z 22004KT 2SM -TSRA HZ SCT008 OVC065 RMK SF3SC5 LTGIC CB EMBD=

CYQG;2006-04-22 01:00;METAR CYQG 220100Z 00000KT 2 1/2SM -TSRA BR FEW008 BKN065 OVC095 15/14 A2989 RMK SF2SC4AC2 CB EMBD SLP122=

CYQG;2006-04-22 01:35;SPECI CYQG 220135Z 09009KT 2 1/2SM -SHRA BR BKN065 OVC100 RETS RMK SC6AC2=

CYQG;2006-04-22 02:00;METAR CYQG 220200Z 10008KT 2 1/2SM -SHRA BR OVC075 14/12 A2990 RETS RMK AC8 SLP125=

CYQG;2006-04-22 03:00;METAR CYQG 220300Z 09004KT 3SM -SHRA BR BKN082 OVC093 13/11 A2989 RERA RMK AC6AC2 SLP120=

CYQG;2006-04-22 03:43;SPECI CYQG 220343Z 09003KT 6SM BR BKN087 OVC120 RMK AC5AC3=

CYQG;2006-04-22 04:00;METAR CYQG 220400Z 08005KT 5SM -SHRA BR BKN083 OVC120 13/11 A2989 RMK AC6AC2 SLP121=

CYQG;2006-04-22 04:38;SPECI CYQG 220438Z 07006KT 5SM BR SCT085 OVC130 RMK AC4AC4=

CYQG;2006-04-22 05:00;METAR CYQG 220500Z 07003KT 6SM BR FEW085 OVC150 12/10 A2988 RMK AC2AC6 SLP118=

CYQG;2006-04-22 06:00;METAR CYQG 220600Z 35002KT 8SM FEW085 OVC150 12/10 A2987 RMK AC2AC6 SLP115=

CYQG;2006-04-22 06:19;SPECI CYQG 220619Z 33002KT 7SM FEW009 BKN043 OVC140 RMK SF2SC5AC2=

CYQG;2006-04-22 06:41;SPECI CYQG 220641Z 33003KT 7SM BKN009 OVC035 RMK SF6SC2=

CYQG;2006-04-22 07:00;METAR CYQG 220700Z 34002KT 6SM BR OVC008 12/10 A2986 RMK SF8 SLP109=

CYQG;2006-04-22 07:50;SPECI CYQG 220750Z 18002KT 6SM BR SCT009 OVC048 RMK SF3SC5=

CYQG;2006-04-22 08:00;METAR CYQG 220800Z 19002KT 6SM BR SCT009 OVC047 11/10 A2985 RMK SF3SC5 SLP106=

CYQG;2006-04-22 09:00;METAR CYQG 220900Z 24003KT 5SM BR OVC005 11/10 A2985 RMK SF8 SLP106=

CYQG;2006-04-22 09:33;SPECI CYQG 220933Z 23005KT 1SM BR OVC007 RMK FG3SF5=

CYQG;2006-04-22 09:38;SPECI CYQG 220938Z 23004KT 1/2SM FG VV003 RMK FG8=

CYQG;2006-04-22 09:41;SPECI CYQG 220941Z 24004KT 1/8SM FG VV001 RMK FG8=

CYQG;2006-04-22 10:00;METAR CYQG 221000Z 25005KT 0SM FG VV001 12/11 A2985 RMK FG8 SLP107=

CYQG;2006-04-22 10:19;SPECI CYQG 221019Z 26006KT 1/4SM FG BKN006 RMK FG6SF2=

CYQG;2006-04-22 10:36;SPECI CYQG 221036Z 24005KT 1/4SM FG VV001 RMK FG8=

CYQG;2006-04-22 10:46;SPECI CYQG 221046Z 24004KT 1/4SM FG BKN006 BKN270 RMK FG5SF2CI1=

CYQG;2006-04-22 10:51;SPECI CYQG 221051Z 24003KT 1/2SM FG SCT006 BKN270 RMK FG2SF1CI2=

CYQG;2006-04-22 11:00;METAR CYQG 221100Z 22003KT 1/2SM FG SCT007 OVC270 11/11 A2986 RMK FG2SF2CI2 SLP112=

CYQG;2006-04-22 11:46;SPECI CYQG 221146Z 23006KT 1 1/2SM BR FEW007 BKN270 RMK FG1SF1CI2=

CYQG;2006-04-22 12:00;METAR CYQG 221200Z 22004KT 2 1/2SM BR BKN270 11/11 A2987 RMK FG1CI2 SLP117=

CYQG;2006-04-22 12:08;SPECI CYQG 221208Z 22004KT 4SM BR BKN270 RMK CI2=

CYQG;2006-04-22 13:00;METAR CYQG 221300Z 26006KT 12SM SCT280 14/09 A2988 RMK CI1 SLP118=

CYQG;2006-04-22 14:00;METAR CYQG 221400Z 26005KT 15SM FEW280 16/08 A2988 RMK CI1 SLP120=

CYQG;2006-04-22 15:00;METAR CYQG 221500Z 26006KT 15SM FEW280 19/06 A2988 RMK CI1 SLP118=

CYQG;2006-04-22 16:00;METAR CYQG 221600Z 25011KT 15SM FEW290 21/05 A2987 RMK CI1 SLP114=

CYQG;2006-04-22 17:00;METAR CYQG 221700Z 24012G17KT 15SM FEW060 FEW290 21/06 A2986 RMK CF1CI1 SLP110=

CYQG;2006-04-22 19:00;METAR CYQG 221900Z 20010G17KT 15SM SCT080 22/07 A2984 RMK AC3 SLP105=

CYQG;2006-04-22 21:00;METAR CYQG 222100Z 19012KT 15SM SCT065 23/06 A2979 RMK CU2 SLP088=

CYQG;2006-04-22 21:49;SPECI CYQG 222149Z 16011KT 15SM -SHRA FEW065 BKN091 RMK CU2AC5=

CYQG;2006-04-22 22:00;METAR CYQG 222200Z 18006KT 15SM -SHRA FEW065 BKN110 21/06 A2980 RMK CU2AC6 SLP089=

CYQG;2006-04-22 22:17;SPECI CYQG 222217Z 31010KT 15SM VCSH FEW065 BKN120 RMK CU2AC6 WSHFT=

CYQG;2006-04-22 23:00;METAR CYQG 222300Z 34008KT 15SM VCSH FEW080 BKN140 19/07 A2983 RMK CU2AC5 SLP099=

CYQG;2006-04-23 00:00;METAR CYQG 230000Z 03004KT 15SM VCSH BKN077TCU BKN140 17/08 A2984 RMK TCU5AC2 SLP107=

CYQG;2006-04-23 00:07;SPECI CYQG 230007Z 03003KT 15SM -SHRA BKN067 BKN140 RMK CU6AC2=

CYQG;2006-04-23 00:40;SPECI CYQG 230040Z 06004KT 15SM VCSH SCT065 BKN120 RMK CU3AC4=

CYQG;2006-04-23 01:00;METAR CYQG 230100Z 09006KT 15SM VCSH SCT085 BKN140 15/10 A2982 RMK CU4AC3 LTGIC DIST S SLP098=

CYQG;2006-04-23 01:11;SPECI CYQG 230111Z 07005KT 15SM -SHRA FEW080 OVC110 RMK CU2AC6=

CYQG;2006-04-23 02:10;SPECI CYQG 230210Z 10006KT 15SM TS BKN086 BKN250 RMK AC6CI2 CB ASOCTD LTGCC DIST S=

CYQG;2006-04-23 02:22;SPECI CYQG 230222Z 16003KT 8SM -TSRA BKN080 OVC250 RMK AC7CI1 CB EMBD LTGICCC=

CYQG;2006-04-23 02:47;SPECI CYQG 230247Z 32017KT 6SM -TSRA OVC063CB RMK CB8 WSHFT LTGIC ALQDS=

CYQG;2006-04-23 03:00;METAR CYQG 230300Z 03007G20KT 7SM -TSRA OVC033CB 14/10 A2983 RERA RMK CB8 LTGIC SLP102=

CYQG;2006-04-23 04:00;METAR CYQG 230400Z 12006KT 10SM TS FEW040 BKN096 OVC160 13/09 A2980 RMK SC2AC5AC2 OCNL LTGIC SE OCNL SHRA CB ASOCTD SLP091=

CYQG;2006-04-23 04:07;SPECI CYQG 230407Z 13009KT 12SM FEW040 OVC091 RETS RMK SC2AC6=

CYQG;2006-04-23 04:14;SPECI CYQG 230414Z 13006KT 12SM -SHRA FEW040 OVC094 RETS RMK SC2AC6=

CYQG;2006-04-23 04:42;SPECI CYQG 230442Z 32006KT 12SM OVC066 RETS RMK AC8=

CYQG;2006-04-23 05:15;SPECI CYQG 230515Z 29009KT 12SM -TSRA OVC034 RMK SC8 LTGIC N CB ASOCTD=

CYQG;2006-04-23 05:33;SPECI CYQG 230533Z 33009KT 12SM OVC037 RETS RMK SC8 OCNL SHRA=

CYQG;2006-04-23 06:03;SPECI CYQG 230603Z 33006KT 4SM -TSRA BR OVC033CB RMK CB8 LTGICCG=

CYQG;2006-04-23 06:05;SPECI CYQG 230605Z 36011KT 2 1/2SM +TSRAGS BR BKN009 OVC019CB RMK SF6CB2 LTGICCG ALQDS=

CYQG;2006-04-23 06:09;SPECI CYQG 230609Z 05007KT 7SM -TSRA FEW009 BKN025CB OVC110 RERA RMK SF2CB5AC2 LTGICCG NE=

CYQG;2006-04-23 06:28;SPECI CYQG 230628Z 07008KT 12SM TS SCT030 OVC100 RERA RMK SC3AC5 LTGCG NE CB ASOCTD=

CYQG;2006-04-23 06:41;SPECI CYQG 230641Z 06004KT 12SM FEW030 OVC100 RETSRA RMK SC2AC6 FQT LTGIC DIST SE OCNL LTGCG NE=

CYQG;2006-04-23 09:00;METAR CYQG 230900Z 27005KT 7SM OVC037 11/10 A2978 RMK SC8 SLP084=

CYQG;2006-04-23 10:00;METAR CYQG 231000Z 30007KT 12SM SCT040 11/08 A2979 RMK SC3 SLP087=

CYQG;2006-04-23 11:00;METAR CYQG 231100Z 28007KT 8SM FEW050 09/07 A2980 RMK SC2 SLP090=

CYQG;2006-04-23 12:00;METAR CYQG 231200Z 28008KT 12SM BKN071 10/07 A2982 RMK AC3 SLP100=

CYQG;2006-04-23 13:00;METAR CYQG 231300Z 31006KT 15SM FEW060 SCT270 10/07 A2983 RMK SC2CI0 SLP103=

CYQG;2006-04-23 14:00;METAR CYQG 231400Z 29010KT 15SM FEW025 FEW060 BKN270 12/07 A2983 RMK CU2SC1CI0 SLP102=

CYQG;2006-04-23 16:00;METAR CYQG 231600Z 30011KT 15SM BKN032 BKN280 14/06 A2983 RMK SC5CI0 SLP104=

CYQG;2006-04-23 17:42;SPECI CYQG 231742Z 29011KT 15SM -SHRA OVC040 RMK SC8=

CYQG;2006-04-23 21:00;METAR CYQG 232100Z 23005KT 8SM -RA BKN044 OVC080 12/10 A2981 RMK SC6AC2 SLP097=

CYQG;2006-04-23 22:55;SPECI CYQG 232255Z 29012KT 12SM BKN032 BKN095 RMK SC5AC2=

CYQG;2006-04-23 23:00;METAR CYQG 232300Z 28012KT 12SM SCT035 BKN095 12/08 A2982 RMK SC4AC3 SLP100=

CYQG;2006-04-24 00:00;METAR CYQG 240000Z 29009KT 15SM SCT025 BKN100 12/08 A2982 RMK CU4AC2 SLP101=

CYQG;2006-04-24 01:00;METAR CYQG 240100Z 27005KT 15SM BKN033 OVC100 11/08 A2984 RMK CU6AC2 SLP106=

CYQG;2006-04-24 02:00;METAR CYQG 240200Z 29007KT 15SM BKN054 12/08 A2984 RMK SC7 SLP107=

CYQG;2006-04-24 02:26;SPECI CYQG 240226Z 34009KT 10SM -SHRA SCT020 OVC037 RMK CU3SC5=

CYQG;2006-04-24 04:00;METAR CYQG 240400Z 34009KT 12SM SCT027 BKN050 11/07 A2986 RMK CU4SC3 SLP113=

CYQG;2006-04-24 05:00;METAR CYQG 240500Z 32010KT 12SM BKN016 OVC024 11/08 A2986 RMK SC6SC2 SLP113=

CYQG;2006-04-24 05:26;SPECI CYQG 240526Z 34009KT 12SM OVC014 RMK SC8=

CYQG;2006-04-24 07:00;METAR CYQG 240700Z 34010KT 15SM OVC013 09/06 A2985 RMK SC8 SLP111=

CYQG;2006-04-24 08:00;METAR CYQG 240800Z 01007KT 15SM OVC011 09/06 A2985 RMK SC8 SLP110=

CYQG;2006-04-24 10:00;METAR CYQG 241000Z 34006KT 15SM OVC013 09/06 A2991 RMK SC8 SLP132=

CYQG;2006-04-24 11:00;METAR CYQG 241100Z 27003KT 15SM OVC013 09/06 A2994 RMK SC8 SLP140=

CYQG;2006-04-24 11:22;SPECI CYQG 241122Z 25002KT 15SM OVC018 RMK SC8=

CYQG;2006-04-24 12:00;METAR CYQG 241200Z 23004KT 15SM OVC017 09/06 A2995 RMK SC8 SLP145=

CYQG;2006-04-24 13:00;METAR CYQG 241300Z 29005KT 15SM BKN017 10/06 A2995 RMK SC7 SLP143=

CYQG;2006-04-24 14:00;METAR CYQG 241400Z 32011KT 15SM BKN019 BKN140 12/06 A2995 RMK SC5AC2 SLP146=

CYQG;2006-04-24 15:00;METAR CYQG 241500Z 33007KT 15SM BKN023 13/07 A2995 RMK SC6 SLP145=

CYQG;2006-04-24 16:00;METAR CYQG 241600Z 20002KT 15SM SCT029 14/07 A2993 RMK SC3 SLP136=

CYQG;2006-04-24 17:00;METAR CYQG 241700Z 26006KT 15SM BKN042 15/07 A2990 RMK SC7 SLP128=

CYQG;2006-04-24 18:00;METAR CYQG 241800Z 26011KT 15SM OVC042 15/07 A2990 RMK SC8 SLP126=

CYQG;2006-04-24 19:00;METAR CYQG 241900Z 33008G15KT 15SM BKN047 BKN058 15/07 A2990 RMK CU5SC2 SLP127=

CYQG;2006-04-24 20:00;METAR CYQG 242000Z 29008KT 15SM BKN052 16/07 A2989 RMK CU6 SLP124=

CYQG;2006-04-24 22:00;METAR CYQG 242200Z 31006KT 15SM SCT045 18/07 A2988 RMK CU4 SLP121=

CYQG;2006-04-24 23:00;METAR CYQG 242300Z 31007KT 12SM FEW040 FEW270 18/06 A2988 RMK CU1CI1 SLP121=

CYQG;2006-04-25 00:00;METAR CYQG 250000Z 24005KT 12SM BKN270 17/07 A2986 RMK CI2 SLP113=

CYQG;2006-04-25 01:00;METAR CYQG 250100Z 21009KT 15SM BKN270 14/08 A2987 RMK CI3 SLP117=

CYQG;2006-04-25 02:00;METAR CYQG 250200Z 21007KT 15SM BKN270 13/08 A2987 RMK CI2 SLP116=

CYQG;2006-04-25 03:00;METAR CYQG 250300Z 22007KT 15SM BKN270 13/08 A2986 RMK CI2 SLP113=

CYQG;2006-04-25 04:00;METAR CYQG 250400Z 22008KT 15SM BKN190 13/08 A2986 RMK AC6 SLP111=

CYQG;2006-04-25 05:00;METAR CYQG 250500Z 23007KT 15SM BKN160 14/09 A2985 RMK AC7 SLP108=

CYQG;2006-04-25 06:00;METAR CYQG 250600Z 23008KT 15SM BKN170 14/08 A2983 RMK AC7 SLP103=

CYQG;2006-04-25 07:00;METAR CYQG 250700Z 27007KT 15SM BKN090 BKN190 14/07 A2983 RMK AC5AC1 SLP101=

CYQG;2006-04-25 08:00;METAR CYQG 250800Z 30003KT 15SM SCT090 BKN190 13/07 A2983 RMK AC4AC2 SLP101=

CYQG;2006-04-25 09:00;METAR CYQG 250900Z 05014G21KT 15SM SCT090 BKN180 10/06 A2987 RMK AC4AC3 SLP115=

CYQG;2006-04-25 10:00;METAR CYQG 251000Z 03009KT 15SM SCT027 BKN090 BKN160 10/06 A2988 RMK SC3AC3AC1 SLP118=

CYQG;2006-04-25 11:00;METAR CYQG 251100Z 01014G19KT 15SM BKN018 OVC080 10/06 A2991 RMK SC7AC1 SLP129=

CYQG;2006-04-25 12:00;METAR CYQG 251200Z 02017KT 15SM OVC014 09/05 A2995 RMK SC8 SLP142=

CYQG;2006-04-25 12:09;SPECI CYQG 251209Z 01013G20KT 15SM -SHRA OVC017 RMK SC8=

CYQG;2006-04-25 12:33;SPECI CYQG 251233Z 01016G24KT 15SM -SHRA OVC011 RMK SC8=

CYQG;2006-04-25 12:54;SPECI CYQG 251254Z 36016G26KT 15SM OVC017 RMK SC8=

CYQG;2006-04-25 13:00;METAR CYQG 251300Z 36013G20KT 15SM BKN020 OVC080 06/01 A2999 RMK SC7AC1 SLP158=

CYQG;2006-04-25 13:24;SPECI CYQG 251324Z 02016KT 15SM -SHRA OVC013 RMK SC8=

CYQG;2006-04-25 14:00;METAR CYQG 251400Z 01016G21KT 8SM -RA BKN013 OVC059 04/02 A3002 RMK SC6SC2 SLP166=

CYQG;2006-04-25 14:46;SPECI CYQG 251446Z 01013G20KT 12SM -RA SCT016 OVC057 RMK SC4SC4=

CYQG;2006-04-25 15:00;METAR CYQG 251500Z 36015KT 15SM SCT016 OVC058 04/M00 A3004 RMK SC3SC5 SLP176=

CYQG;2006-04-25 15:17;SPECI CYQG 251517Z 01010G16KT 15SM -SHRA BKN023 OVC058 RMK SC5SC3=

CYQG;2006-04-25 15:49;SPECI CYQG 251549Z 36013KT 15SM BKN024 OVC060 RMK SC6SC2=

CYQG;2006-04-25 18:00;METAR CYQG 251800Z 04012G17KT 15SM FEW025 BKN040 OVC150 07/M03 A3005 RMK SC1SC5AS2 SUN DIMLY VISBL SLP179=

CYQG;2006-04-25 19:00;METAR CYQG 251900Z 02009KT 15SM FEW025 SCT040 OVC150 07/M03 A3004 RMK SC1SC3AS4 SUN DIMLY VISBL SLP175=

CYQG;2006-04-25 21:00;METAR CYQG 252100Z 05011KT 15SM FEW120 SCT160 BKN240 07/M03 A3003 RMK AC1AC2CI1 SLP173=

CYQG;2006-04-26 00:00;METAR CYQG 260000Z 06008KT 15SM FEW100 FEW250 06/M05 A3003 RMK AC1CI1 SLP174=

CYQG;2006-04-26 01:00;METAR CYQG 260100Z 05005KT 15SM FEW100 05/M04 A3005 RMK AC1 SLP180=

CYQG;2006-04-26 04:00;METAR CYQG 260400Z 18004KT 15SM FEW260 03/M04 A3005 RMK CI1 SLP182=

CYQG;2006-04-26 05:00;METAR CYQG 260500Z 18002KT 15SM SKC 02/M05 A3004 RMK SLP180=

CYQG;2006-04-26 06:00;METAR CYQG 260600Z 22004KT 15SM SKC 02/M07 A3005 RMK SLP181=

CYQG;2006-04-26 07:00;METAR CYQG 260700Z 27003KT 15SM SKC 02/M07 A3005 RMK SLP181=

CYQG;2006-04-26 08:00;METAR CYQG 260800Z 24004KT 15SM SKC 02/M09 A3004 RMK SLP180=

CYQG;2006-04-26 10:00;METAR CYQG 261000Z 26007KT 15SM SKC 02/M05 A3003 RMK SLP175=

CYQG;2006-04-26 11:00;METAR CYQG 261100Z 27005KT 15SM SKC 02/M05 A3004 RMK SLP178=

CYQG;2006-04-26 12:00;METAR CYQG 261200Z 29008KT 15SM SKC 04/M04 A3005 RMK SLP181=

CYQG;2006-04-26 13:00;METAR CYQG 261300Z 28010KT 15SM SKC 07/M04 A3004 RMK SLP178=

CYQG;2006-04-26 14:00;METAR CYQG 261400Z 30010KT 15SM SKC 09/M05 A3003 RMK SLP174=

CYQG;2006-04-26 15:00;METAR CYQG 261500Z 26011KT 15SM SKC 11/M05 A3001 RMK SLP168=

CYQG;2006-04-26 18:00;METAR CYQG 261800Z 27014KT 15SM SKC 14/00 A2994 RMK SLP141=

CYQG;2006-04-26 19:00;METAR CYQG 261900Z 27007G16KT 15SM SKC 16/M02 A2992 RMK SLP134=

CYQG;2006-04-26 20:00;METAR CYQG 262000Z 27011G19KT 15SM SKC 17/M03 A2989 RMK SLP125=

CYQG;2006-04-26 21:00;METAR CYQG 262100Z 27010G15KT 15SM SKC 18/M02 A2987 RMK SLP117=

CYQG;2006-04-26 22:00;METAR CYQG 262200Z 29013KT 15SM SKC 18/M02 A2985 RMK SLP112=

CYQG;2006-04-27 00:00;METAR CYQG 270000Z 31011KT 15SM SKC 17/M03 A2984 RMK SLP108=

CYQG;2006-04-27 01:00;METAR CYQG 270100Z 29009KT 15SM SKC 16/M03 A2986 RMK SLP115=

CYQG;2006-04-27 04:00;METAR CYQG 270400Z 28009KT 15SM SKC 13/M03 A2988 RMK SLP120=

CYQG;2006-04-27 05:00;METAR CYQG 270500Z 28009KT 15SM SKC 12/M03 A2989 RMK SLP123=

CYQG;2006-04-27 07:00;METAR CYQG 270700Z 27007KT 15SM SKC 11/M04 A2987 RMK SLP118=

CYQG;2006-04-27 08:00;METAR CYQG 270800Z 26007KT 15SM SKC 09/M02 A2987 RMK SLP116=

CYQG;2006-04-27 10:00;METAR CYQG 271000Z 22002KT 15SM FEW080 07/M02 A2988 RMK AC1 SLP119=

CYQG;2006-04-27 11:00;METAR CYQG 271100Z 26002KT 15SM FEW090 06/M01 A2990 RMK AC1 SLP125=

CYQG;2006-04-27 13:00;METAR CYQG 271300Z 34008KT 15SM FEW100 FEW160 12/M01 A2993 RMK AC1AC1 CLDS TR SLP137=

CYQG;2006-04-27 15:00;METAR CYQG 271500Z 05008KT 15SM FEW110 SCT200 BKN250 13/02 A2997 RMK AC2CI1CC2 SLP149=

CYQG;2006-04-27 16:00;METAR CYQG 271600Z 07009KT 15SM FEW120 FEW240 13/01 A2998 RMK AC1CI1 SLP154=

CYQG;2006-04-27 17:00;METAR CYQG 271700Z 07010KT 15SM FEW120 FEW240 14/02 A2999 RMK AC2CI0 SLP156=

CYQG;2006-04-27 18:00;METAR CYQG 271800Z 06012KT 15SM FEW050 BKN110 BKN240 15/01 A2999 RMK CF1AC5CI1 CUFRA CI TR SLP157=

CYQG;2006-04-27 19:00;METAR CYQG 271900Z 06011G18KT 15SM FEW040 BKN110 15/M02 A3000 RMK CF1AC5 SLP160=

CYQG;2006-04-27 20:00;METAR CYQG 272000Z 05015G20KT 15SM FEW040 FEW110 15/01 A3001 RMK CF1AC2 SLP162=

CYQG;2006-04-27 22:00;METAR CYQG 272200Z 04020G25KT 15SM FEW120 13/M01 A3004 RMK AC2 SLP173=

CYQG;2006-04-27 23:00;METAR CYQG 272300Z 06015G20KT 15SM SCT110 11/M04 A3006 RMK AC4 SLP181=

CYQG;2006-04-28 01:00;METAR CYQG 280100Z 05012G18KT 15SM FEW110 08/M03 A3010 RMK AC1 SLP194=

CYQG;2006-04-28 02:00;METAR CYQG 280200Z 05013G20KT 15SM SKC 07/M04 A3012 RMK SLP201=

CYQG;2006-04-28 03:00;METAR CYQG 280300Z 04014KT 15SM SKC 07/M04 A3013 RMK SLP206=

CYQG;2006-04-28 04:00;METAR CYQG 280400Z 03010KT 15SM SKC 07/M05 A3014 RMK SLP210=

CYQG;2006-04-28 05:00;METAR CYQG 280500Z 03011KT 15SM SKC 06/M03 A3016 RMK SLP216=

CYQG;2006-04-28 06:00;METAR CYQG 280600Z 04008KT 15SM SKC 05/M03 A3017 RMK SLP220=

CYQG;2006-04-28 07:00;METAR CYQG 280700Z 04010KT 15SM SKC 04/M03 A3019 RMK SLP226=

CYQG;2006-04-28 08:00;METAR CYQG 280800Z 05007KT 15SM SKC 03/M01 A3021 RMK SLP233=

CYQG;2006-04-28 09:00;METAR CYQG 280900Z 03006KT 15SM SKC 04/M01 A3023 RMK SLP241=

CYQG;2006-04-28 11:00;METAR CYQG 281100Z 36006KT 15SM SKC 02/M03 A3027 RMK SLP255=

CYQG;2006-04-28 12:00;METAR CYQG 281200Z 05009KT 15SM SKC 05/M01 A3029 RMK SLP263=

CYQG;2006-04-28 13:00;METAR CYQG 281300Z 07007KT 15SM SKC 08/M01 A3032 RMK SLP272=

CYQG;2006-04-28 14:00;METAR CYQG 281400Z 08006KT 15SM SKC 09/M01 A3034 RMK SLP277=

CYQG;2006-04-28 15:00;METAR CYQG 281500Z 07005KT 15SM SKC 10/01 A3036 RMK SLP285=

CYQG;2006-04-28 16:00;METAR CYQG 281600Z 04003KT 15SM SKC 11/01 A3036 RMK SLP285=

CYQG;2006-04-28 17:00;METAR CYQG 281700Z 05005KT 15SM FEW280 12/M01 A3035 RMK CI0 SLP280=

CYQG;2006-04-28 19:00;METAR CYQG 281900Z 04010G15KT 15SM SCT280 14/M01 A3033 RMK CI1 SLP275=

CYQG;2006-04-28 20:00;METAR CYQG 282000Z 08012KT 15SM SCT280 14/M02 A3032 RMK CI1 SLP270=

CYQG;2006-04-28 21:00;METAR CYQG 282100Z 13009G15KT 15SM FEW280 14/M03 A3031 RMK CI0 SLP269=

CYQG;2006-04-28 22:00;METAR CYQG 282200Z 13010KT 15SM FEW280 13/M03 A3033 RMK CI0 SLP276=

CYQG;2006-04-28 23:00;METAR CYQG 282300Z 12008KT 15SM SCT280 13/M04 A3034 RMK CI0 SLP277=

CYQG;2006-04-29 00:00;METAR CYQG 290000Z 11009KT 15SM SCT270 12/M04 A3033 RMK CI1 SLP275=

CYQG;2006-04-29 01:00;METAR CYQG 290100Z 11006KT 15SM FEW270 09/M06 A3035 RMK CI0 SLP280=

CYQG;2006-04-29 04:00;METAR CYQG 290400Z 07004KT 15SM SKC 06/M03 A3037 RMK SLP287=

CYQG;2006-04-29 05:00;METAR CYQG 290500Z 09005KT 15SM SKC 06/M02 A3037 RMK SLP288=

CYQG;2006-04-29 07:00;METAR CYQG 290700Z 07005KT 15SM FEW270 04/M01 A3035 RMK CI1 SLP282=

CYQG;2006-04-29 09:00;METAR CYQG 290900Z 05005KT 15SM SCT270 05/M00 A3035 RMK CI1 SLP283=

CYQG;2006-04-29 10:00;METAR CYQG 291000Z 07005KT 15SM BKN270 04/M01 A3036 RMK CI2 SLP284=

CYQG;2006-04-29 12:00;METAR CYQG 291200Z 08008KT 15SM OVC270 07/01 A3037 RMK CS6 SLP289=

CYQG;2006-04-29 13:00;METAR CYQG 291300Z 10010KT 15SM BKN270 10/02 A3037 RMK CS4 SLP288=

CYQG;2006-04-29 17:00;METAR CYQG 291700Z 10012KT 15SM BKN280 16/02 A3035 RMK CI2 SLP283=

CYQG;2006-04-29 18:00;METAR CYQG 291800Z 11012G17KT 15SM FEW190 BKN280 17/02 A3035 RMK AC2CI2 SLP279=

CYQG;2006-04-29 19:00;METAR CYQG 291900Z 11012KT 15SM FEW230 OVC280 18/01 A3034 RMK CC2CS5 SLP278=

CYQG;2006-04-29 21:00;METAR CYQG 292100Z 12012KT 15SM FEW170 OVC260 18/M01 A3030 RMK AC1CS7 SLP263=

CYQG;2006-04-29 22:00;METAR CYQG 292200Z 09013KT 15SM SCT180 OVC260 17/M01 A3029 RMK AC3CS5 SLP261=

CYQG;2006-04-29 23:00;METAR CYQG 292300Z 10010KT 15SM BKN190 OVC260 15/M02 A3029 RMK AC6CS2 SLP260=

CYQG;2006-04-30 00:00;METAR CYQG 300000Z 11008KT 15SM OVC180 14/M01 A3028 RMK AC8 SLP258=

CYQG;2006-04-30 01:00;METAR CYQG 300100Z 10011KT 15SM OVC190 13/M04 A3029 RMK AC8 SLP259=

CYQG;2006-04-30 02:00;METAR CYQG 300200Z 10007KT 15SM OVC180 13/M02 A3030 RMK AC8 SLP265=

CYQG;2006-04-30 03:00;METAR CYQG 300300Z 10009KT 15SM OVC190 13/M02 A3030 RMK AC8 SLP262=

CYQG;2006-04-30 05:00;METAR CYQG 300500Z 09011KT 15SM OVC170 12/M00 A3028 RMK AS8 SLP255=

CYQG;2006-04-30 07:00;METAR CYQG 300700Z 08007KT 15SM OVC180 11/00 A3026 RMK AS8 SLP249=

CYQG;2006-04-30 08:00;METAR CYQG 300800Z 08006KT 15SM BKN180 BKN250 10/01 A3026 RMK AC5CI1 SLP247=

CYQG;2006-04-30 10:00;METAR CYQG 301000Z 08006KT 15SM BKN180 OVC250 10/02 A3022 RMK AC7CI0 SLP236=

CYQG;2006-04-30 12:00;METAR CYQG 301200Z 11011KT 15SM BKN160 BKN270 12/03 A3023 RMK AC5CI1 SLP239=

CYQG;2006-04-30 13:00;METAR CYQG 301300Z 11015KT 15SM BKN160 BKN270 14/03 A3023 RMK AC6CI1 SLP240=

CYQG;2006-04-30 14:00;METAR CYQG 301400Z 12014KT 15SM BKN200 BKN270 16/03 A3024 RMK CS5CI1 SLP241=

CYQG;2006-04-30 15:00;METAR CYQG 301500Z 14014KT 15SM BKN150 OVC270 17/03 A3024 RMK AS5CI2 SLP240=

CYQG;2006-04-30 16:00;METAR CYQG 301600Z 16013G18KT 15SM BKN150 OVC270 19/04 A3025 RMK AS5CI2 SLP245=

CYQG;2006-04-30 17:00;METAR CYQG 301700Z 13014KT 15SM OVC130 18/03 A3024 RMK AS8 AC ASOCTD SLP240=

CYQG;2006-04-30 18:00;METAR CYQG 301800Z 12014KT 15SM BKN160 OVC270 19/05 A3022 RMK AC6CI2 SLP234=

CYQG;2006-04-30 21:00;METAR CYQG 302100Z 11017G22KT 15SM BKN140 BKN250 20/04 A3016 RMK AC6CI2 SLP215=

CYQG;2006-04-30 22:00;METAR CYQG 302200Z 11017KT 15SM BKN130 19/01 A3016 RMK AC7 SLP214=

CYQG;2006-04-30 23:00;METAR CYQG 302300Z 11015G20KT 15SM BKN130 18/M01 A3014 RMK AC7 SLP209=

CYQG;2006-05-01 00:00;METAR CYQG 010000Z 11016KT 15SM BKN120 17/M01 A3014 RMK AC7 SLP209=

CYQG;2006-05-01 02:00;METAR CYQG 010200Z 11008KT 15SM BKN140 16/M01 A3017 RMK AC7 SLP218=

CYQG;2006-05-01 03:00;METAR CYQG 010300Z 11010KT 15SM BKN150 BKN260 15/01 A3017 RMK AC6CI2 SLP217=

CYQG;2006-05-01 04:00;METAR CYQG 010400Z 11011KT 15SM BKN140 OVC260 15/02 A3017 RMK AC7CI1 SLP216=

CYQG;2006-05-01 05:00;METAR CYQG 010500Z 12008KT 15SM BKN160 OVC220 14/02 A3017 RMK AC7CI1 SLP218=

CYQG;2006-05-01 06:00;METAR CYQG 010600Z 13011KT 15SM OVC150 13/03 A3017 RMK AS8 SLP218=

CYQG;2006-05-01 08:00;METAR CYQG 010800Z 18005KT 15SM OVC120 13/08 A3020 RMK AS8 SLP227=

CYQG;2006-05-01 09:00;METAR CYQG 010900Z 14006KT 15SM OVC140 13/09 A3022 RMK AS8 SLP232=

CYQG;2006-05-01 10:00;METAR CYQG 011000Z 13005KT 15SM BKN120 OVC250 12/09 A3022 RMK AS7CI1 SLP232=

CYQG;2006-05-01 12:00;METAR CYQG 011200Z 12006KT 8SM BKN110 OVC250 13/10 A3024 RMK AC5CI2 SLP241=

CYQG;2006-05-01 13:00;METAR CYQG 011300Z 13008KT 10SM BKN120 15/11 A3024 RMK AC7 SLP242=

CYQG;2006-05-01 14:00;METAR CYQG 011400Z 15011KT 15SM FEW030 BKN071 BKN130 17/10 A3024 RMK CU1AC5AC2 SLP240=

CYQG;2006-05-01 15:00;METAR CYQG 011500Z 14015KT 15SM FEW035 BKN130 BKN240 18/09 A3023 RMK CU1AC4CI1 SLP239=

CYQG;2006-05-01 19:00;METAR CYQG 011900Z 16013G18KT 15SM FEW080 BKN120 21/04 A3018 RMK AC1AC3 SLP221=

CYQG;2006-05-01 20:00;METAR CYQG 012000Z 18012KT 15SM FEW110 FEW230 21/04 A3017 RMK AC1CI1 SLP216=

CYQG;2006-05-01 21:00;METAR CYQG 012100Z 17011KT 15SM FEW100 SCT240 21/04 A3016 RMK AC2CI1 SLP213=

CYQG;2006-05-01 22:00;METAR CYQG 012200Z 16010KT 15SM BKN110 BKN240 20/03 A3015 RMK AC6CI1 SLP211=

CYQG;2006-05-01 23:00;METAR CYQG 012300Z 12010KT 15SM BKN100 BKN250 18/02 A3015 RMK AC6CI1 SLP210=

CYQG;2006-05-02 00:00;METAR CYQG 020000Z 11015KT 15SM BKN090 17/00 A3014 RMK AC7 SLP209=

CYQG;2006-05-02 01:00;METAR CYQG 020100Z 11011KT 15SM BKN090 16/00 A3015 RMK AC7 SLP210=

CYQG;2006-05-02 02:00;METAR CYQG 020200Z 12011KT 15SM BKN080 OVC120 16/M00 A3014 RMK AC6AC2 SLP208=

CYQG;2006-05-02 03:50;SPECI CYQG 020350Z 12009KT 15SM -RA OVC083 RMK AC8=

CYQG;2006-05-02 04:00;METAR CYQG 020400Z 12008KT 15SM BKN075 OVC093 15/02 A3012 RMK AC5AC3 SLP199=

CYQG;2006-05-02 05:36;SPECI CYQG 020536Z 12011KT 15SM BKN077 BKN160 RMK AC5AC2=

CYQG;2006-05-02 06:00;METAR CYQG 020600Z 11009KT 15SM BKN100 14/03 A3008 RMK AC6 SLP186=

CYQG;2006-05-02 11:00;METAR CYQG 021100Z 08003KT 15SM BKN091 BKN150 BKN250 12/05 A3000 RMK AC5AC2CI1 SHRA DIST W CI TR SLP159=

CYQG;2006-05-02 12:00;METAR CYQG 021200Z 08005KT 15SM FEW070 BKN130 BKN260 12/06 A2999 RMK AC1AC4CI1 SLP158=

CYQG;2006-05-02 13:00;METAR CYQG 021300Z 09005KT 15SM FEW065 BKN080 OVC260 16/07 A2997 RMK SC2AC2CI2 SLP150=

CYQG;2006-05-02 14:00;METAR CYQG 021400Z 09004KT 15SM BKN069 BKN088 OVC260 16/08 A2996 RMK AC5AC2CI1 SLP148=

CYQG;2006-05-02 15:38;SPECI CYQG 021538Z 19005KT 5SM -RA BR BKN053 OVC090 RMK SC6AC2=

CYQG;2006-05-02 18:00;METAR CYQG 021800Z 13005KT 4SM -RA BR FEW015 BKN027 OVC049 14/12 A2993 RMK SC2CU4SC2 SLP138=

CYQG;2006-05-02 19:00;METAR CYQG 021900Z 07007KT 4SM -RA BR SCT008 OVC040 14/12 A2991 RMK SF4SC4 SLP130=

CYQG;2006-05-02 19:43;SPECI CYQG 021943Z 06008KT 4SM -RA BR BKN007 OVC040 RMK SF7SC1=

CYQG;2006-05-02 20:00;METAR CYQG 022000Z 06009KT 15SM BKN006 OVC030 13/12 A2990 RMK SF7SC1 SLP126=

CYQG;2006-05-02 20:47;SPECI CYQG 022047Z 07007KT 5SM -RA BR BKN005 OVC025 RMK SF6SC2=

CYQG;2006-05-02 23:00;METAR CYQG 022300Z 02003KT 4SM -RA BR OVC007 13/12 A2988 RMK SF8 SLP119=

CYQG;2006-05-02 23:38;SPECI CYQG 022338Z 33004KT 5SM -RA BR OVC005 RMK SF8=

CYQG;2006-05-03 00:00;METAR CYQG 030000Z 33004KT 4SM -RA BR OVC006 13/12 A2988 RMK SF8 SLP120=

CYQG;2006-05-03 02:00;METAR CYQG 030200Z 31003KT 5SM -RA BR OVC007 14/12 A2989 RMK SF8 SLP125=

CYQG;2006-05-03 02:22;SPECI CYQG 030222Z 34004KT 3SM -DZ BR OVC008 RMK SF8=

CYQG;2006-05-03 02:48;SPECI CYQG 030248Z 35004KT 2 1/2SM -DZ BR OVC007 RMK FG1SF7=

CYQG;2006-05-03 03:00;METAR CYQG 030300Z 36003KT 2 1/2SM -DZ BR OVC008 13/12 A2990 RMK FG1SF7 SLP125=

CYQG;2006-05-03 03:53;SPECI CYQG 030353Z 36002KT 2 1/2SM -DZ BR OVC004 RMK FG1SF7=

CYQG;2006-05-03 04:35;SPECI CYQG 030435Z 36005KT 1 1/2SM -DZ BR OVC003 RMK FG2SF6=

CYQG;2006-05-03 05:21;SPECI CYQG 030521Z 05006KT 1/8SM FG VV001 RMK FG8=

CYQG;2006-05-03 05:52;SPECI CYQG 030552Z 05008KT 3/8SM -DZ FG VV001 RMK FG8=

CYQG;2006-05-03 06:00;METAR CYQG 030600Z 06008KT 3/8SM -DZ FG VV002 12/12 A2990 RMK FG8 SLP126=

CYQG;2006-05-03 06:13;SPECI CYQG 030613Z 05006KT 1 1/2SM BR OVC003 RMK FG2SF6=

CYQG;2006-05-03 06:27;SPECI CYQG 030627Z 03004KT 3SM BR SCT003 OVC072 RMK SF3AC5=

CYQG;2006-05-03 06:42;SPECI CYQG 030642Z 02005KT 3SM BR OVC006 RMK ST8=

CYQG;2006-05-03 07:27;SPECI CYQG 030727Z 36006KT 2SM BR OVC004 RMK FG2ST6=

CYQG;2006-05-03 07:51;SPECI CYQG 030751Z 36004KT 3SM -RA BR SCT006 OVC012 RMK SF3SC5=

CYQG;2006-05-03 08:17;SPECI CYQG 030817Z 36005KT 3SM BR BKN012 OVC025 RMK SC6SC2=

CYQG;2006-05-03 10:00;METAR CYQG 031000Z 35006KT 10SM FEW030 FEW080 SCT150 12/10 A2995 RMK SC1AC1AS2 SC TR SLP143=

CYQG;2006-05-03 11:00;METAR CYQG 031100Z 34006KT 12SM FEW080 FEW150 SCT240 11/08 A2998 RMK AC1AS1CI2 AC TR SLP152=

CYQG;2006-05-03 12:00;METAR CYQG 031200Z 33004KT 12SM FEW080 FEW250 13/09 A3000 RMK AC1CI1 SLP161=

CYQG;2006-05-03 13:00;METAR CYQG 031300Z 31007KT 12SM FEW260 16/11 A3004 RMK CI1 SLP172=

CYQG;2006-05-03 14:00;METAR CYQG 031400Z 32008KT 12SM FEW180 18/11 A3004 RMK AC1 SLP174=

CYQG;2006-05-03 15:00;METAR CYQG 031500Z 33007KT 15SM FEW260 19/08 A3003 RMK CI1 SLP170=

CYQG;2006-05-03 16:00;METAR CYQG 031600Z 31006KT 15SM FEW270 21/08 A3002 RMK CI1 SLP167=

CYQG;2006-05-03 17:00;METAR CYQG 031700Z 28008KT 15SM FEW270 22/08 A3002 RMK CI1 SLP167=

CYQG;2006-05-03 18:00;METAR CYQG 031800Z 30005KT 15SM FEW280 23/08 A3001 RMK CI1 SLP160=

CYQG;2006-05-03 19:00;METAR CYQG 031900Z 22008KT 15SM FEW055 FEW280 23/08 A3000 RMK CF1CI1 SLP159=

CYQG;2006-05-03 20:00;METAR CYQG 032000Z 20011G16KT 15SM FEW044 SCT280 23/11 A2999 RMK CF1CI0 SLP155=

CYQG;2006-05-03 22:00;METAR CYQG 032200Z 20011KT 15SM FEW048 BKN280 22/10 A2996 RMK CF1CI2 SLP144=

CYQG;2006-05-04 00:00;METAR CYQG 040000Z 21008KT 15SM FEW044 OVC280 20/09 A2992 RMK CU1CI6 SLP133=

CYQG;2006-05-04 01:00;METAR CYQG 040100Z 19007KT 15SM OVC250 18/09 A2992 RMK CI6 SLP132=

CYQG;2006-05-04 02:00;METAR CYQG 040200Z 21008KT 15SM BKN250 17/09 A2994 RMK CI3 SLP137=

CYQG;2006-05-04 03:00;METAR CYQG 040300Z 21008KT 15SM SCT260 17/11 A2993 RMK CI2 SLP136=

CYQG;2006-05-04 04:00;METAR CYQG 040400Z 21009KT 15SM FEW140 SCT220 17/12 A2993 RMK AC2CI1 SLP136=

CYQG;2006-05-04 06:00;METAR CYQG 040600Z 21007KT 15SM BKN110 17/12 A2992 RMK AC5 SLP132=

CYQG;2006-05-04 07:00;METAR CYQG 040700Z 20007KT 15SM BKN110 BKN240 17/13 A2991 RMK AC6CI1 SLP127=

CYQG;2006-05-04 08:00;METAR CYQG 040800Z 22008KT 15SM FEW100 OVC150 17/13 A2990 RMK AC2AC6 SLP124=

CYQG;2006-05-04 09:00;METAR CYQG 040900Z 24013KT 15SM OVC100 17/13 A2991 RMK AC7 SLP126=

CYQG;2006-05-04 09:15;SPECI CYQG 040915Z 25012KT 12SM -RA OVC099 RMK AC7=

CYQG;2006-05-04 10:00;METAR CYQG 041000Z 23003KT 12SM -RA OVC063 16/14 A2989 RMK SC7 SLP121=

CYQG;2006-05-04 10:22;SPECI CYQG 041022Z 27002KT 15SM BKN057 OVC110 RMK SC6AC2=

CYQG;2006-05-04 11:00;METAR CYQG 041100Z 20004KT 15SM BKN055 OVC110 16/14 A2988 RMK SC6AC1 VIRGA N SLP118=

CYQG;2006-05-04 12:00;METAR CYQG 041200Z 20010KT 12SM BKN080 BKN180 16/14 A2989 RMK AC6AC1 SLP122=

CYQG;2006-05-04 14:00;METAR CYQG 041400Z 26007KT 12SM SCT057 BKN070 18/14 A2987 RMK SC3AC4 SLP113=

CYQG;2006-05-04 15:00;METAR CYQG 041500Z 28010KT 12SM FEW070 20/13 A2987 RMK AC2 SLP113=

CYQG;2006-05-04 16:00;METAR CYQG 041600Z 27012KT 15SM FEW080 FEW280 22/12 A2986 RMK AC1CI0 SLP112=

CYQG;2006-05-04 17:00;METAR CYQG 041700Z 28011KT 15SM FEW060 FEW290 23/08 A2985 RMK CF1CI1 SLP108=

CYQG;2006-05-04 19:00;METAR CYQG 041900Z 26011G22KT 15SM FEW290 23/06 A2983 RMK CI1 SLP101=

CYQG;2006-05-04 20:00;METAR CYQG 042000Z 29010G18KT 15SM FEW290 23/05 A2983 RMK CI1 SLP099=

CYQG;2006-05-04 21:00;METAR CYQG 042100Z 29012G19KT 15SM SCT290 23/05 A2983 RMK CI1 SLP099=

CYQG;2006-05-04 22:00;METAR CYQG 042200Z 28016KT 15SM BKN290 22/04 A2984 RMK CI2 SLP104=

CYQG;2006-05-04 23:00;METAR CYQG 042300Z 28014KT 15SM BKN290 22/04 A2984 RMK CI2 SLP104=

CYQG;2006-05-05 00:00;METAR CYQG 050000Z 30013KT 15SM BKN290 20/03 A2985 RMK CI2 SLP108=

CYQG;2006-05-05 04:00;METAR CYQG 050400Z 31010KT 15SM FEW250 15/04 A2989 RMK CI0 SLP123=

CYQG;2006-05-05 06:00;METAR CYQG 050600Z 05005KT 15SM FEW250 11/06 A2992 RMK CI0 SLP130=

CYQG;2006-05-05 07:00;METAR CYQG 050700Z 02003KT 15SM BKN250 10/06 A2991 RMK CI1 SLP128=

CYQG;2006-05-05 09:00;METAR CYQG 050900Z 02004KT 15SM BKN250 09/05 A2991 RMK CI1 SLP128=

CYQG;2006-05-05 10:00;METAR CYQG 051000Z 36004KT 15SM SCT250 09/05 A2991 RMK CI1 SLP129=

CYQG;2006-05-05 12:00;METAR CYQG 051200Z 06006KT 15SM FEW260 10/07 A2993 RMK CI1 SLP137=

CYQG;2006-05-05 13:00;METAR CYQG 051300Z 08005KT 15SM FEW090 FEW260 12/07 A2993 RMK ACC1CI1 SLP136=

CYQG;2006-05-05 14:00;METAR CYQG 051400Z 16003KT 15SM BKN063 14/07 A2993 RMK SC6 SLP135=

CYQG;2006-05-05 17:00;METAR CYQG 051700Z 22007KT 15SM SCT045 BKN070 18/06 A2989 RMK CU4AC3 SLP124=

CYQG;2006-05-05 18:00;METAR CYQG 051800Z 17006KT 15SM SCT050 BKN075 19/07 A2988 RMK CU4AC2 SLP118=

CYQG;2006-05-05 21:00;METAR CYQG 052100Z 22009KT 15SM BKN087 20/07 A2981 RMK CU6 SLP095=

CYQG;2006-05-05 22:00;METAR CYQG 052200Z 21008KT 15SM BKN059 18/06 A2981 RMK CU7 SLP095=

CYQG;2006-05-05 23:00;METAR CYQG 052300Z 22007KT 15SM BKN063 OVC280 18/06 A2980 RMK CU6CI1 SLP092=

CYQG;2006-05-06 00:00;METAR CYQG 060000Z 02006KT 15SM VCSH BKN053 17/07 A2982 RMK CU7 SLP099=

CYQG;2006-05-06 03:00;METAR CYQG 060300Z 01012G17KT 15SM BKN048 BKN085 10/02 A2989 RMK CU5AC2 SLP124=

CYQG;2006-05-06 05:00;METAR CYQG 060500Z 36007G16KT 15SM OVC044 10/03 A2990 RMK SC7 SLP128=

CYQG;2006-05-06 06:00;METAR CYQG 060600Z 35007KT 15SM OVC043 10/03 A2991 RMK SC8 SLP129=

CYQG;2006-05-06 10:00;METAR CYQG 061000Z 01011KT 15SM FEW020 BKN029 BKN070 08/02 A2995 RMK SC1SC6AC1 SLP145=

CYQG;2006-05-06 11:00;METAR CYQG 061100Z 02008KT 15SM BKN024 08/02 A2998 RMK SC7 SLP154=

CYQG;2006-05-06 12:00;METAR CYQG 061200Z 36008KT 15SM FEW028 08/01 A3000 RMK SC1 SLP162=

CYQG;2006-05-06 13:00;METAR CYQG 061300Z 01010KT 15SM FEW030 07/M01 A3003 RMK SC1 SLP170=

CYQG;2006-05-06 15:00;METAR CYQG 061500Z 36008KT 15SM FEW040 10/M01 A3006 RMK CF1 SLP182=

CYQG;2006-05-06 16:00;METAR CYQG 061600Z 35005KT 15SM FEW043 10/M01 A3008 RMK CU1 SLP188=

CYQG;2006-05-06 17:00;METAR CYQG 061700Z 08008KT 15SM FEW045 11/01 A3008 RMK CU1 SLP190=

CYQG;2006-05-06 18:00;METAR CYQG 061800Z 06008KT 15SM FEW050 FEW280 11/01 A3007 RMK SC1CI1 SLP187=

CYQG;2006-05-06 19:00;METAR CYQG 061900Z 08010KT 15SM FEW050 FEW280 11/01 A3007 RMK SC2CI1 SLP186=

CYQG;2006-05-06 20:00;METAR CYQG 062000Z 08010KT 15SM FEW050 FEW280 12/01 A3006 RMK SC1CI1 SLP182=

CYQG;2006-05-06 21:00;METAR CYQG 062100Z 07005KT 15SM FEW050 FEW280 12/00 A3005 RMK SC1CI1 SLP180=

CYQG;2006-05-06 23:00;METAR CYQG 062300Z 08008KT 15SM FEW040 12/M01 A3006 RMK CU1 SLP183=

CYQG;2006-05-07 00:00;METAR CYQG 070000Z 16008KT 15SM FEW040 FEW280 11/02 A3008 RMK SC1CI1 SLP190=

CYQG;2006-05-07 01:00;METAR CYQG 070100Z 15007KT 15SM FEW040 FEW280 09/02 A3009 RMK SC1CI1 SLP192=

CYQG;2006-05-07 03:00;METAR CYQG 070300Z 14004KT 15SM SKC 07/02 A3010 RMK SLP197=

CYQG;2006-05-07 04:00;METAR CYQG 070400Z 13002KT 15SM SKC 06/02 A3010 RMK SLP197=

CYQG;2006-05-07 05:00;METAR CYQG 070500Z 13003KT 15SM SKC 06/01 A3011 RMK SLP199=

CYQG;2006-05-07 07:00;METAR CYQG 070700Z 17004KT 15SM SKC 05/01 A3008 RMK SLP189=

CYQG;2006-05-07 08:00;METAR CYQG 070800Z 00000KT 15SM SKC 05/00 A3008 RMK SLP190=

CYQG;2006-05-07 09:00;METAR CYQG 070900Z 13002KT 15SM SKC 04/01 A3009 RMK SLP192=

CYQG;2006-05-07 10:00;METAR CYQG 071000Z 00000KT 15SM FEW120 FEW250 04/00 A3009 RMK AC1CI1 SLP193=

CYQG;2006-05-07 11:00;METAR CYQG 071100Z 18002KT 15SM FEW140 FEW250 04/01 A3010 RMK AC1CI0 SLP195=

CYQG;2006-05-07 12:00;METAR CYQG 071200Z 18002KT 15SM SCT280 08/02 A3011 RMK CI1 SLP199=

CYQG;2006-05-07 13:00;METAR CYQG 071300Z 18003KT 15SM BKN280 11/02 A3011 RMK CI1 SLP200=

CYQG;2006-05-07 16:00;METAR CYQG 071600Z 19006KT 15SM FEW300 15/M01 A3010 RMK CI1 SLP195=

CYQG;2006-05-07 18:00;METAR CYQG 071800Z 20007KT 15SM FEW300 17/M00 A3006 RMK CI1 SLP181=

CYQG;2006-05-07 19:00;METAR CYQG 071900Z 19005KT 15SM FEW300 17/00 A3005 RMK CI1 SLP178=

CYQG;2006-05-07 20:00;METAR CYQG 072000Z 20008KT 15SM FEW300 18/M00 A3004 RMK CI1 SLP174=

CYQG;2006-05-07 21:00;METAR CYQG 072100Z 20009KT 15SM FEW300 18/M02 A3002 RMK CI1 SLP170=

CYQG;2006-05-07 22:00;METAR CYQG 072200Z 18006KT 15SM FEW300 18/M03 A3002 RMK CI1 SLP168=

CYQG;2006-05-07 23:00;METAR CYQG 072300Z 18006KT 15SM FEW300 17/M04 A3001 RMK CI1 SLP166=

CYQG;2006-05-08 00:00;METAR CYQG 080000Z 19005KT 15SM FEW290 16/M04 A3001 RMK CI1 SLP166=

CYQG;2006-05-08 01:00;METAR CYQG 080100Z 17006KT 15SM SKC 15/M04 A3002 RMK SLP169=

CYQG;2006-05-08 02:00;METAR CYQG 080200Z 17006KT 15SM SKC 12/M05 A3004 RMK SLP174=

CYQG;2006-05-08 04:00;METAR CYQG 080400Z 17002KT 15SM SKC 10/05 A3004 RMK SLP173=

CYQG;2006-05-08 06:00;METAR CYQG 080600Z 17002KT 15SM SKC 08/04 A3003 RMK SLP172=

CYQG;2006-05-08 07:00;METAR CYQG 080700Z 00000KT 15SM SKC 08/04 A3004 RMK SLP173=

CYQG;2006-05-08 10:00;METAR CYQG 081000Z 00000KT 15SM SKC 07/04 A3006 RMK SLP180=

CYQG;2006-05-08 11:00;METAR CYQG 081100Z 00000KT 15SM SKC 08/04 A3006 RMK SLP180=

CYQG;2006-05-08 12:00;METAR CYQG 081200Z 00000KT 15SM SKC 11/06 A3007 RMK SLP183=

CYQG;2006-05-08 13:00;METAR CYQG 081300Z 00000KT 15SM SKC 15/06 A3008 RMK SLP187=

CYQG;2006-05-08 14:00;METAR CYQG 081400Z 00000KT 15SM SKC 17/03 A3008 RMK SLP187=

CYQG;2006-05-08 15:00;METAR CYQG 081500Z 17002KT 15SM SKC 19/04 A3007 RMK SLP183=

CYQG;2006-05-08 16:00;METAR CYQG 081600Z 15008KT 15SM SKC 20/02 A3006 RMK SLP180=

CYQG;2006-05-08 18:00;METAR CYQG 081800Z 17009KT 15SM SKC 21/01 A3004 RMK SLP172=

CYQG;2006-05-08 19:00;METAR CYQG 081900Z 17007KT 15SM SKC 21/M00 A3003 RMK SLP169=

CYQG;2006-05-08 20:00;METAR CYQG 082000Z 16011G17KT 15SM FEW290 21/M01 A3001 RMK CI1 SLP165=

CYQG;2006-05-08 21:00;METAR CYQG 082100Z 13009KT 15SM FEW290 21/M01 A2999 RMK CI1 SLP157=

CYQG;2006-05-08 23:00;METAR CYQG 082300Z 16007KT 15SM BKN290 21/01 A2998 RMK CI1 SLP153=

CYQG;2006-05-09 00:00;METAR CYQG 090000Z 16007KT 15SM BKN290 19/03 A2998 RMK CI2 SLP152=

CYQG;2006-05-09 03:00;METAR CYQG 090300Z 14009KT 15SM BKN280 14/03 A3002 RMK CI1 SLP165=

CYQG;2006-05-09 04:00;METAR CYQG 090400Z 13007KT 15SM SCT280 13/04 A3001 RMK CI1 SLP162=

CYQG;2006-05-09 05:00;METAR CYQG 090500Z 18005KT 15SM SCT280 13/06 A3001 RMK CI1 SLP161=

CYQG;2006-05-09 06:00;METAR CYQG 090600Z 17010KT 15SM BKN270 14/06 A3000 RMK CI2 SLP158=

CYQG;2006-05-09 07:00;METAR CYQG 090700Z 17009KT 15SM BKN270 13/06 A2999 RMK CI2 SLP155=

CYQG;2006-05-09 08:00;METAR CYQG 090800Z 16006KT 15SM BKN270 12/06 A2998 RMK CI1 SLP151=

CYQG;2006-05-09 09:00;METAR CYQG 090900Z 15006KT 15SM SCT270 11/06 A2999 RMK CI1 SLP155=

CYQG;2006-05-09 10:00;METAR CYQG 091000Z 19006KT 15SM FEW270 10/06 A3001 RMK CI1 SLP164=

CYQG;2006-05-09 11:00;METAR CYQG 091100Z 10003KT 15SM FEW270 10/06 A3001 RMK CI0 SLP163=

CYQG;2006-05-09 12:00;METAR CYQG 091200Z 13006KT 15SM SKC 12/07 A3001 RMK SLP163=

CYQG;2006-05-09 13:00;METAR CYQG 091300Z 15008KT 15SM SKC 14/08 A3000 RMK SLP160=

CYQG;2006-05-09 15:00;METAR CYQG 091500Z 16007KT 15SM FEW035 16/08 A2998 RMK CF1 SLP154=

CYQG;2006-05-09 17:00;METAR CYQG 091700Z 18009KT 15SM FEW035 FEW300 19/09 A2995 RMK CF1CI1 SLP143=

CYQG;2006-05-09 18:00;METAR CYQG 091800Z 16009KT 15SM FEW045 FEW300 19/08 A2993 RMK SC1CI1 SLP136=

CYQG;2006-05-09 20:00;METAR CYQG 092000Z 17008KT 15SM FEW050 SCT300 21/09 A2989 RMK CF1CI1 SLP120=

CYQG;2006-05-09 22:00;METAR CYQG 092200Z 16010KT 15SM BKN300 21/08 A2986 RMK CI3 SLP111=

CYQG;2006-05-09 23:00;METAR CYQG 092300Z 14012KT 15SM BKN290 20/09 A2985 RMK CS6 SLP107=

CYQG;2006-05-10 00:00;METAR CYQG 100000Z 12010KT 15SM OVC290 17/08 A2984 RMK CS7 SLP107=

CYQG;2006-05-10 01:00;METAR CYQG 100100Z 12009KT 15SM OVC270 15/06 A2985 RMK CS7 SLP110=

CYQG;2006-05-10 02:00;METAR CYQG 100200Z 13008KT 15SM BKN240 14/06 A2987 RMK CS6 SLP115=

CYQG;2006-05-10 04:00;METAR CYQG 100400Z 12008KT 15SM OVC130 15/04 A2984 RMK AC8 SLP106=

CYQG;2006-05-10 05:00;METAR CYQG 100500Z 13007KT 15SM BKN150 15/06 A2983 RMK AC7 SLP102=

CYQG;2006-05-10 06:00;METAR CYQG 100600Z 13006KT 15SM FEW100 SCT150 14/07 A2982 RMK AC1AC3 SLP096=

CYQG;2006-05-10 07:00;METAR CYQG 100700Z 13006KT 15SM FEW100 13/08 A2980 RMK AC2 SLP092=

CYQG;2006-05-10 08:00;METAR CYQG 100800Z 16004KT 15SM FEW056 BKN088 15/09 A2980 RMK SC2AC4 SLP092=

CYQG;2006-05-10 09:00;METAR CYQG 100900Z 16008KT 15SM OVC052 17/10 A2980 RMK SC8 SLP089=

CYQG;2006-05-10 10:00;METAR CYQG 101000Z 16005KT 15SM SCT052 BKN120 16/09 A2978 RMK SC3AC3 SLP083=

CYQG;2006-05-10 11:00;METAR CYQG 101100Z 14004KT 15SM FEW045 SCT120 16/10 A2978 RMK SC2AC2 SLP084=

CYQG;2006-05-10 12:00;METAR CYQG 101200Z 16004KT 15SM FEW040 BKN071 16/10 A2980 RMK SC2AC2 SLP090=

CYQG;2006-05-10 13:00;METAR CYQG 101300Z 17007KT 15SM FEW045 SCT110 19/11 A2979 RMK SC1AC2 SLP087=

CYQG;2006-05-10 14:00;METAR CYQG 101400Z 19008KT 15SM BKN063 19/11 A2979 RMK SC6 SLP086=

CYQG;2006-05-10 16:00;METAR CYQG 101600Z 19006KT 15SM OVC075 21/12 A2977 RMK AC8 SLP079=

CYQG;2006-05-10 17:00;METAR CYQG 101700Z 19006KT 15SM OVC070 22/13 A2976 RMK AC8 SLP077=

CYQG;2006-05-10 18:00;METAR CYQG 101800Z 16010KT 12SM OVC075 23/14 A2974 RMK AC7 SLP071=

CYQG;2006-05-10 19:00;METAR CYQG 101900Z 17007KT 12SM FEW070 OVC090 23/14 A2973 RMK AC2AC6 SLP065=

CYQG;2006-05-10 21:00;METAR CYQG 102100Z 14008KT 12SM BKN056 OVC070 24/13 A2967 RMK SC6AC2 SLP045=

CYQG;2006-05-10 22:00;METAR CYQG 102200Z 11010KT 12SM BKN060 OVC070 23/12 A2965 RMK SC7AC1 SLP038=

CYQG;2006-05-10 23:00;METAR CYQG 102300Z 11008KT 15SM OVC063 22/10 A2963 RMK SC8 SLP031=

CYQG;2006-05-11 00:00;METAR CYQG 110000Z 18005KT 12SM -TSRA OVC042 19/12 A2963 RERA RMK SC8 CB EMBD SLP032=

CYQG;2006-05-11 00:37;SPECI CYQG 110037Z 14008KT 6SM -SHRA OVC037 RETSRA RMK SC8=

CYQG;2006-05-11 01:00;METAR CYQG 110100Z 11010KT 7SM -SHRA BKN037 OVC080 15/11 A2961 RETSRA RMK SC7AC1 SLP028=

CYQG;2006-05-11 02:00;METAR CYQG 110200Z 08008KT 5SM -RA OVC023 14/12 A2958 RMK SF8 SLP015=

CYQG;2006-05-11 02:46;SPECI CYQG 110246Z 09013KT 5SM RA FEW003 OVC036 RMK CF2SF6=

CYQG;2006-05-11 03:00;METAR CYQG 110300Z 09014KT 4SM RA SCT003 OVC036 14/13 A2954 RMK SF4SF4 SLP002=

CYQG;2006-05-11 04:00;METAR CYQG 110400Z 09018KT 3SM +RA BR SCT003 OVC015 14/12 A2950 RMK SF4SC4 SLP988=

CYQG;2006-05-11 04:06;SPECI CYQG 110406Z 09021KT 3SM TSRA BR SCT003 OVC015 RMK SF4SC4 LTGIC E CB ASOCTD=

CYQG;2006-05-11 04:28;SPECI CYQG 110428Z 09016G25KT 3SM -RA BR SCT003 OVC011 RETSRA RMK SF3NS5=

CYQG;2006-05-11 05:00;METAR CYQG 110500Z 09017KT 2 1/2SM RA BR SCT003 OVC011 13/12 A2944 RETS RMK SF3NS5 PRESFR SLP969=

CYQG;2006-05-11 05:10;SPECI CYQG 110510Z 10011G19KT 2 1/4SM RA BR BKN005 OVC012 RMK SF5NS3=

CYQG;2006-05-11 05:18;SPECI CYQG 110518Z 10017KT 1 3/4SM RA BR OVC003 RMK SF8=

CYQG;2006-05-11 05:52;SPECI CYQG 110552Z 11014G22KT 1 3/4SM -RA BR SCT003 OVC008 RERA RMK SF4NS4=

CYQG;2006-05-11 06:00;METAR CYQG 110600Z 11016G22KT 1 3/4SM -RA BR SCT003 OVC008 15/14 A2939 RERA RMK SF4NS4 PRESFR /R21/ SLP951=

CYQG;2006-05-11 06:47;SPECI CYQG 110647Z 13018G24KT 3SM -RA BR SCT008 OVC022 RERA RMK SF3NS5=

CYQG;2006-05-11 07:00;METAR CYQG 110700Z 14017KT 3SM -RA BR SCT008 OVC024 17/15 A2934 RERA RMK SF3NS5 SLP933=

CYQG;2006-05-11 07:38;SPECI CYQG 110738Z 13018KT 4SM BR FEW009 OVC032 RMK SF2NS6=

CYQG;2006-05-11 09:44;SPECI CYQG 110944Z 15021KT 5SM BR FEW012 OVC036 RERA RMK SF2NS6=

CYQG;2006-05-11 10:00;METAR CYQG 111000Z 15022KT 4SM -RA BR FEW012 OVC022 17/15 A2924 RERA RMK SF2NS6 -RA INTMT SLP901=

CYQG;2006-05-11 10:36;SPECI CYQG 111036Z 15020G26KT 7SM FEW012 BKN036 RMK SF2SC5=

CYQG;2006-05-11 11:47;SPECI CYQG 111147Z 18020G31KT 2 1/2SM +SHRA OVC017 RMK SC8=

CYQG;2006-05-11 13:00;METAR CYQG 111300Z 19017G26KT 12SM -SHRA BKN017 OVC035 15/13 A2922 RMK SC6SC2 SLP895=

CYQG;2006-05-11 13:24;SPECI CYQG 111324Z 18019G26KT 15SM FEW013 OVC023 RMK SC2SC6=

CYQG;2006-05-11 14:00;METAR CYQG 111400Z 20022G30KT 15SM BKN014 BKN037 15/12 A2923 RMK SC6SC1 SLP896=

CYQG;2006-05-11 14:44;SPECI CYQG 111444Z 21025G31KT 15SM -SHRA BKN013 OVC020 RMK SC6SC2=

CYQG;2006-05-11 15:00;METAR CYQG 111500Z 21022G32KT 15SM -SHRA BKN013 OVC024 14/10 A2924 RMK SC5SC3 SLP903=

CYQG;2006-05-11 15:36;SPECI CYQG 111536Z 22027G33KT 15SM OVC019 RMK SC8=

CYQG;2006-05-11 16:00;METAR CYQG 111600Z 21027G33KT 15SM OVC020 14/09 A2927 RMK SC8 SLP910=

CYQG;2006-05-11 17:00;METAR CYQG 111700Z 22022G29KT 15SM OVC027 14/09 A2929 RMK SC8 SLP917=

CYQG;2006-05-11 18:00;METAR CYQG 111800Z 23017G29KT 15SM BKN028 OVC042 15/09 A2929 RMK SC6SC2 SLP918=

CYQG;2006-05-11 20:51;SPECI CYQG 112051Z 22023G30KT 6SM -SHRA BKN020 OVC040 RMK CU6SC2=

CYQG;2006-05-11 21:00;METAR CYQG 112100Z 22019G30KT 12SM -SHRA BKN025 BKN069 14/11 A2934 RMK CU5AC2 SLP933=

CYQG;2006-05-11 22:00;METAR CYQG 112200Z 22016G22KT 15SM SCT020 BKN070 BKN300 14/11 A2934 RMK CU4AC2CI1 OCNL SHRA SLP934=

CYQG;2006-05-11 23:00;METAR CYQG 112300Z 25012G21KT 15SM BKN021 14/10 A2937 RMK CU7 SLP944=

CYQG;2006-05-11 23:05;SPECI CYQG 112305Z 24012G21KT 15SM -SHRA FEW015 BKN024 RMK CF2CU6=

CYQG;2006-05-12 00:00;METAR CYQG 120000Z 22012G17KT 15SM -SHRA SCT033 BKN058 12/08 A2939 RMK CU4SC3 SLP952=

CYQG;2006-05-12 01:20;SPECI CYQG 120120Z 21010KT 12SM -SHRA BKN044 BKN065 RMK CU6SC2=

CYQG;2006-05-12 01:45;SPECI CYQG 120145Z 21009KT 15SM BKN032 BKN060 RMK CU6SC2=

CYQG;2006-05-12 04:00;METAR CYQG 120400Z 19008KT 15SM OVC038 11/07 A2943 RMK SC8 SLP966=

CYQG;2006-05-12 05:00;METAR CYQG 120500Z 19008KT 15SM OVC041 11/08 A2942 RMK SC8 SLP964=

CYQG;2006-05-12 06:00;METAR CYQG 120600Z 20011G17KT 15SM BKN021 OVC060 11/07 A2941 RMK SC6SC2 SLP961=

CYQG;2006-05-12 07:00;METAR CYQG 120700Z 22006KT 15SM BKN026 OVC052 09/06 A2941 RMK SC5SC3 OCNL SHRA SLP959=

CYQG;2006-05-12 07:33;SPECI CYQG 120733Z 22006KT 15SM -SHRA BKN014 OVC030 RMK SC5SC3=

CYQG;2006-05-12 07:52;SPECI CYQG 120752Z 23008KT 15SM -SHRA SCT008 OVC017 RMK SF3SC5=

CYQG;2006-05-12 08:00;METAR CYQG 120800Z 23010KT 15SM -SHRA FEW008 OVC014 09/07 A2940 RMK SF2SC6 SLP957=

CYQG;2006-05-12 09:00;METAR CYQG 120900Z 22011KT 15SM -SHRA FEW008 OVC014 08/07 A2941 RMK SF2SC6 SLP961=

CYQG;2006-05-12 10:00;METAR CYQG 121000Z 21009KT 15SM -SHRA BKN014 OVC034 08/06 A2941 RMK SC5SC3 SLP962=

CYQG;2006-05-12 10:42;SPECI CYQG 121042Z 21005KT 8SM -SHRA SCT010 OVC025 RMK SC3SC5=

CYQG;2006-05-12 11:00;METAR CYQG 121100Z 20017KT 10SM -SHRA FEW010 OVC032 08/05 A2943 RMK SF2SC6 SLP967=

CYQG;2006-05-12 12:00;METAR CYQG 121200Z 20014G19KT 8SM -RA OVC026 07/05 A2944 RMK SC8 SLP973=

CYQG;2006-05-12 13:00;METAR CYQG 121300Z 20009KT 8SM -RA FEW020 OVC029 08/05 A2946 RMK SC2SC6 SLP977=

CYQG;2006-05-12 14:00;METAR CYQG 121400Z 20013KT 10SM -RA FEW027 OVC038 07/05 A2946 RMK SC2SC6 SLP980=

CYQG;2006-05-12 15:00;METAR CYQG 121500Z 22017G22KT 12SM -RA BKN021 OVC040 08/04 A2949 RMK SC6SC2 SLP987=

CYQG;2006-05-12 16:00;METAR CYQG 121600Z 21016G22KT 10SM -RA BKN018 OVC038 08/05 A2951 RMK SC6SC2 SLP994=

CYQG;2006-05-12 17:00;METAR CYQG 121700Z 19016KT 12SM -RA BKN017 OVC032 08/05 A2952 RMK SC6SC2 SLP000=

CYQG;2006-05-12 18:00;METAR CYQG 121800Z 23012G20KT 8SM -RA OVC018 08/05 A2954 RMK SC8 SLP007=

CYQG;2006-05-12 18:15;SPECI CYQG 121815Z 22014G19KT 10SM -RA OVC013 RMK SC8=

CYQG;2006-05-12 18:47;SPECI CYQG 121847Z 21016KT 12SM -RA SCT014 OVC025 RMK SC3SC5=

CYQG;2006-05-12 21:00;METAR CYQG 122100Z 19013KT 12SM -RA OVC027 OVC040 09/05 A2960 RMK CF6SC2 SLP026=

CYQG;2006-05-12 22:28;SPECI CYQG 122228Z 19010KT 15SM FEW020 OVC150 RMK SF2AC6=

CYQG;2006-05-12 23:00;METAR CYQG 122300Z 19008KT 15SM FEW025 BKN054 OVC150 09/05 A2963 RMK CF2SC3AC2 SLP037=

CYQG;2006-05-12 23:20;SPECI CYQG 122320Z 18009KT 15SM -RA FEW015 BKN024 OVC150 RMK CF1SC6AC2=

CYQG;2006-05-13 01:48;SPECI CYQG 130148Z 20010KT 6SM -DZ BR OVC190 RMK AC8=

CYQG;2006-05-13 02:00;METAR CYQG 130200Z 19009KT 7SM FEW020 OVC190 09/06 A2968 RMK SC2AC6 SLP055=

CYQG;2006-05-13 02:20;SPECI CYQG 130220Z 19010KT 7SM -DZ BKN028 OVC190 RMK SC6AC2=

CYQG;2006-05-13 03:00;METAR CYQG 130300Z 19007KT 7SM -RA BKN020 OVC040 09/06 A2969 RMK CF6SC2 SLP058=

CYQG;2006-05-13 04:44;SPECI CYQG 130444Z 20009KT 15SM FEW026 SCT048 BKN190 RMK SC2SC2AC2=

CYQG;2006-05-13 05:00;METAR CYQG 130500Z 20008KT 15SM FEW020 BKN037 BKN190 09/05 A2971 RMK SC2SC3AC2 SLP062=

CYQG;2006-05-13 07:00;METAR CYQG 130700Z 14004KT 15SM BKN041 09/07 A2969 RMK SC7 SLP057=

CYQG;2006-05-13 08:00;METAR CYQG 130800Z 15006KT 12SM BKN046 OVC120 09/07 A2969 RMK SC6AC2 SLP057=

CYQG;2006-05-13 09:00;METAR CYQG 130900Z 16005KT 12SM BKN031 OVC120 09/07 A2969 RMK SC6AC2 SLP058=

CYQG;2006-05-13 10:00;METAR CYQG 131000Z 12004KT 12SM -SHRA BKN016 OVC040 09/07 A2971 RMK SC5SC3 SLP062=

CYQG;2006-05-13 11:00;METAR CYQG 131100Z 12003KT 8SM -SHRA BKN026 OVC050 09/08 A2972 RMK SC5SC3 SLP066=

CYQG;2006-05-13 12:00;METAR CYQG 131200Z 11003KT 7SM -SHRA SCT035 OVC060 09/08 A2972 RMK SC3SC5 SLP068=

CYQG;2006-05-13 13:00;METAR CYQG 131300Z 13007KT 7SM -SHRA FEW015 OVC037 10/08 A2973 RMK SC2SC6 SLP071=

CYQG;2006-05-13 14:00;METAR CYQG 131400Z 15010KT 7SM -SHRA SCT018 BKN035 OVC060 11/09 A2974 RMK SF3SC4SC1 SLP073=

CYQG;2006-05-13 15:00;METAR CYQG 131500Z 18010G16KT 12SM -SHRA BKN016 OVC034 11/08 A2975 RMK SF6SC2 SLP076=

CYQG;2006-05-13 16:00;METAR CYQG 131600Z 16012KT 12SM -SHRA SCT015 OVC049 12/09 A2975 RMK SC4SC4 SLP078=

CYQG;2006-05-13 18:00;METAR CYQG 131800Z 16012KT 6SM -SHRA BKN015 OVC030 12/09 A2976 RMK SC5SC3 SLP081=

CYQG;2006-05-13 20:00;METAR CYQG 132000Z 12014KT 15SM SCT024 OVC055 13/09 A2974 RMK CU3SC5 SLP074=

CYQG;2006-05-13 21:00;METAR CYQG 132100Z 11015KT 15SM FEW025 FEW055 OVC180 14/09 A2973 RMK CF1SC2AS6 SLP070=

CYQG;2006-05-13 23:00;METAR CYQG 132300Z 21012KT 8SM -SHRA BKN028 OVC040 10/08 A2980 RERA RMK CU6SC2 VIS 4 NW-N SLP093=

CYQG;2006-05-14 01:00;METAR CYQG 140100Z 10008KT 8SM -RA BKN042 OVC054 10/09 A2981 RMK CU5SC3 SLP097=

CYQG;2006-05-14 02:00;METAR CYQG 140200Z 10008KT 8SM -RA SCT052 OVC068 10/09 A2981 RMK SC4AC4 SLP098=

CYQG;2006-05-14 03:22;SPECI CYQG 140322Z 11010KT 12SM FEW015 FEW020 SCT050 OVC120 RMK SF0CF2SC2AS2=

CYQG;2006-05-14 04:00;METAR CYQG 140400Z 12009KT 12SM FEW045 OVC070 10/09 A2980 RMK SC1AC6 SLP092=

CYQG;2006-05-14 04:15;SPECI CYQG 140415Z 12010KT 12SM -SHRA OVC075 RMK AC7=

CYQG;2006-05-14 04:34;SPECI CYQG 140434Z 10012G17KT 12SM OVC070 RMK AC8=

CYQG;2006-05-14 05:00;METAR CYQG 140500Z 11010KT 12SM OVC080 11/09 A2979 RMK AC8 SLP089=

CYQG;2006-05-14 05:47;SPECI CYQG 140547Z 11008KT 10SM -SHRA OVC060 RMK SC8=

CYQG;2006-05-14 06:00;METAR CYQG 140600Z 11010KT 10SM -SHRA OVC060 11/09 A2979 RMK SC8 SLP089=

CYQG;2006-05-14 08:00;METAR CYQG 140800Z 11007KT 10SM OVC055 11/09 A2977 RMK SC8 SLP083=

CYQG;2006-05-14 09:00;METAR CYQG 140900Z 11005KT 12SM OVC055 11/09 A2977 RMK SC8 SLP082=

CYQG;2006-05-14 10:40;SPECI CYQG 141040Z 12007KT 12SM BKN006 BKN060 OVC080 RMK SF5SC2AC2=

CYQG;2006-05-14 10:51;SPECI CYQG 141051Z 11007KT 12SM FEW007 BKN060 RMK SF2SC6=

CYQG;2006-05-14 11:00;METAR CYQG 141100Z 10005KT 6SM BR FEW007 BKN060 11/09 A2979 RMK SF2SC6 SLP089=

CYQG;2006-05-14 12:00;METAR CYQG 141200Z 11005KT 5SM BR FEW007 BKN072 11/10 A2980 RMK CU1AC6 SLP094=

CYQG;2006-05-14 13:00;METAR CYQG 141300Z 12007KT 6SM BR FEW007 BKN059 BKN090 12/11 A2982 RMK CF2SC3AC2 SLP100=

CYQG;2006-05-14 14:22;SPECI CYQG 141422Z 09007KT 7SM -RA SCT011 OVC062 RMK SF3SC5=

CYQG;2006-05-14 17:00;METAR CYQG 141700Z 07005KT 8SM -RA FEW012 SCT052 OVC064 14/11 A2986 RMK CF1SC2SC5 -RA INTMT SLP112=

CYQG;2006-05-14 19:00;METAR CYQG 141900Z 06009KT 15SM -SHRA BKN019 BKN042 15/12 A2986 RMK CU5SC2 SLP111=

CYQG;2006-05-14 19:34;SPECI CYQG 141934Z 08011KT 15SM BKN024 BKN040 RMK CU6SC2=

CYQG;2006-05-14 20:00;METAR CYQG 142000Z 07008KT 15SM SCT025 BKN068 16/11 A2985 RMK CU3AC4 SLP110=

CYQG;2006-05-14 21:00;METAR CYQG 142100Z 05009KT 12SM FEW035 SCT055 BKN080 BKN280 17/12 A2984 RMK CU2SC2AC2CI1 SLP106=

CYQG;2006-05-14 22:00;METAR CYQG 142200Z 05008KT 15SM FEW020 SCT055 BKN080 17/11 A2984 RMK CF1SC3AC3 SLP107=

CYQG;2006-05-14 22:43;SPECI CYQG 142243Z 11005KT 15SM -SHRA SCT043 OVC070 RMK CU4AC4=

CYQG;2006-05-14 23:00;METAR CYQG 142300Z 11006KT 12SM -SHRA SCT025 OVC059 16/12 A2986 RMK CU4SC4 SLP111=

CYQG;2006-05-14 23:09;SPECI CYQG 142309Z 15006KT 10SM -TSRA FEW025 OVC059 RMK CU2SC6 LTGIC E-SE CB EMBD=

CYQG;2006-05-14 23:18;SPECI CYQG 142318Z 14019G24KT 2 1/2SM +TSRA SCT013 OVC050CB RMK CU3CB5 VIS 6 N-NW LTGIC E-SE=

CYQG;2006-05-14 23:29;SPECI CYQG 142329Z 13018G28KT 5SM -TSRA FEW020 BKN038CB OVC060 RERA RMK CU2CB3SC2 LTGIC ALQDS=

CYQG;2006-05-14 23:44;SPECI CYQG 142344Z 09010KT 8SM -SHRA FEW030 BKN057CB OVC100 RETSRA RMK CU2CB3AC2 TS MVD NW=

CYQG;2006-05-15 00:22;SPECI CYQG 150022Z 08005KT 8SM -SHRA BKN016 OVC080 RMK CU6AC2=

CYQG;2006-05-15 02:00;METAR CYQG 150200Z 09011KT 8SM -SHRA SCT053 OVC080 13/11 A2988 RMK CU3AC5 SLP120=

CYQG;2006-05-15 04:00;METAR CYQG 150400Z 07011G17KT 8SM -RA FEW018 OVC070 13/11 A2988 RMK SC1AC7 SLP119=

CYQG;2006-05-15 05:00;METAR CYQG 150500Z 06011KT 7SM -RA FEW012 OVC070 13/11 A2987 RMK SC1AS7 SLP116=

CYQG;2006-05-15 06:00;METAR CYQG 150600Z 05013KT 7SM -RA BKN016 OVC060 12/11 A2985 RMK SC5SC3 SLP110=

CYQG;2006-05-15 06:28;SPECI CYQG 150628Z 04010KT 7SM -RA BKN014 OVC060 RMK SC6SC2=

CYQG;2006-05-15 06:43;SPECI CYQG 150643Z 05009KT 8SM BKN013 OVC058 RMK SC6SC2=

CYQG;2006-05-15 08:00;METAR CYQG 150800Z 06011KT 12SM OVC012 12/10 A2984 RMK SC8 SLP105=

CYQG;2006-05-15 09:00;METAR CYQG 150900Z 05009KT 10SM OVC011 12/11 A2984 RMK SC8 SLP106=

CYQG;2006-05-15 10:42;SPECI CYQG 151042Z 09006KT 6SM -RA BR OVC010 RMK SC8=

CYQG;2006-05-15 11:04;SPECI CYQG 151104Z 08005KT 5SM -RA BR OVC009 RMK SF8=

CYQG;2006-05-15 11:52;SPECI CYQG 151152Z 04006KT 5SM BR OVC007 RMK SF8=

CYQG;2006-05-15 12:00;METAR CYQG 151200Z 06004KT 5SM BR OVC007 12/10 A2986 RMK SF8 SLP112=

CYQG;2006-05-15 13:00;METAR CYQG 151300Z 06007KT 4SM -SHRA BR OVC006 11/10 A2986 RMK SF8 SLP115=

CYQG;2006-05-15 13:10;SPECI CYQG 151310Z 05006KT 4SM -SHRA BR OVC005 RMK SF8=

CYQG;2006-05-15 13:36;SPECI CYQG 151336Z 05008KT 3SM BR OVC005 RMK SF8=

CYQG;2006-05-15 14:00;METAR CYQG 151400Z 07005KT 3SM BR OVC008 12/11 A2987 RMK SF8 SLP116=

CYQG;2006-05-15 14:37;SPECI CYQG 151437Z 07007KT 4SM BR BKN010 OVC032 RMK SF6SC2=

CYQG;2006-05-15 14:50;SPECI CYQG 151450Z 07008KT 4SM -SHRA BR BKN007 OVC015 RMK SF6SC2=

CYQG;2006-05-15 15:00;METAR CYQG 151500Z 08007KT 4SM -SHRA BR BKN007 OVC018 12/11 A2987 RMK SF6SC2 SLP117=

CYQG;2006-05-15 16:00;METAR CYQG 151600Z 11008KT 3SM -SHRA BR BKN007 OVC013 12/11 A2987 RMK SF6SC2 SLP117=

CYQG;2006-05-15 16:11;SPECI CYQG 151611Z 09007KT 4SM -RA BR BKN005 OVC012 RMK SF7SC1=

CYQG;2006-05-15 17:00;METAR CYQG 151700Z 10006KT 6SM -RA BR BKN009 OVC013 12/11 A2986 RMK SF6SC2 SLP114=

CYQG;2006-05-15 17:51;SPECI CYQG 151751Z 11004KT 5SM -RA BR FEW009 OVC013 RMK SF2SC6=

CYQG;2006-05-15 18:00;METAR CYQG 151800Z 10003KT 5SM -RA BR FEW009 OVC013 12/11 A2985 RMK SF2SC6 SLP111=

CYQG;2006-05-15 18:25;SPECI CYQG 151825Z 02003KT 4SM -RA BR FEW009 OVC020 RMK SF2SC6=

CYQG;2006-05-15 19:00;METAR CYQG 151900Z 03003KT 4SM -RA BR BKN005 OVC015 12/11 A2984 RMK SF5SC3 SLP107=

CYQG;2006-05-15 19:28;SPECI CYQG 151928Z 32003KT 4SM BR SCT005 BKN017 OVC049 RMK SF3SC3SC2=

CYQG;2006-05-15 21:00;METAR CYQG 152100Z 35004KT 6SM HZ FEW009 BKN019 OVC051 15/11 A2981 RMK SF1SC4SC3 SLP097=

CYQG;2006-05-15 22:00;METAR CYQG 152200Z 36005KT 6SM HZ VCSH FEW009 BKN015 OVC034 15/11 A2982 RMK SF1SC4SC3 SHRA E-SE SLP098=

CYQG;2006-05-15 22:19;SPECI CYQG 152219Z 08005KT 5SM -SHRA HZ FEW007 BKN013 OVC034 RMK SF1SC6SC2=

CYQG;2006-05-15 23:00;METAR CYQG 152300Z 04009KT 5SM -SHRA BR FEW006 OVC011 14/12 A2982 RMK SF2SC6 SLP099=

CYQG;2006-05-15 23:38;SPECI CYQG 152338Z 03006KT 5SM -SHRA BR SCT012 OVC091 RMK SC4AC4=

CYQG;2006-05-16 00:00;METAR CYQG 160000Z 03005KT 5SM -SHRA BR SCT012 OVC094 13/11 A2982 RMK SC4AC4 SLP099=

CYQG;2006-05-16 01:00;METAR CYQG 160100Z 02007KT 5SM BR FEW012 OVC023 13/11 A2982 RMK SC2SC6 OCNL SHRA SLP099=

CYQG;2006-05-16 01:49;SPECI CYQG 160149Z 04006KT 4SM -SHRA BR FEW004 OVC019 RMK SC2SC6=

CYQG;2006-05-16 02:47;SPECI CYQG 160247Z 06003KT 4SM -SHRA BR BKN006 OVC023 RMK SF5SC3=

CYQG;2006-05-16 03:00;METAR CYQG 160300Z 07003KT 4SM -SHRA BR BKN004 OVC022 12/11 A2981 RMK SF5SC3 SLP097=

CYQG;2006-05-16 03:36;SPECI CYQG 160336Z 00000KT 4SM -RA BR FEW004 BKN022 OVC055 RMK SF1SC5SC2=

CYQG;2006-05-16 04:00;METAR CYQG 160400Z 07002KT 5SM -RA BR FEW004 OVC024 11/10 A2980 RMK SF1SC7 SLP093=

CYQG;2006-05-16 06:00;METAR CYQG 160600Z 00000KT 4SM -RA BR BKN032 OVC056 11/10 A2977 RMK SC6SC2 SLP083=

CYQG;2006-05-16 07:00;METAR CYQG 160700Z 26003KT 5SM -RA BR SCT032 OVC080 11/10 A2974 RMK SC3AS5 SLP074=

CYQG;2006-05-16 07:50;SPECI CYQG 160750Z 27002KT 5SM -DZ BR FEW006 OVC080 RMK SF1AS7=

CYQG;2006-05-16 09:00;METAR CYQG 160900Z 28004KT 5SM -DZ BR BKN013 OVC080 11/10 A2973 RMK SC6AS2 SLP067=

CYQG;2006-05-16 10:00;METAR CYQG 161000Z 34004KT 3SM -DZ BR OVC010 11/11 A2972 RMK SC8 SLP065=

CYQG;2006-05-16 10:34;SPECI CYQG 161034Z 33005KT 4SM -DZ BR OVC008 RMK SF8=

CYQG;2006-05-16 10:52;SPECI CYQG 161052Z 32004KT 5SM BR BKN007 OVC014 RMK SF6SC2=

CYQG;2006-05-16 11:00;METAR CYQG 161100Z 33005KT 6SM BR BKN007 OVC014 12/10 A2972 RMK SF6SC2 SLP065=

CYQG;2006-05-16 11:45;SPECI CYQG 161145Z 33006KT 6SM -RA BR OVC010 RMK SF8=

CYQG;2006-05-16 12:00;METAR CYQG 161200Z 32005KT 6SM -RA BR OVC009 12/10 A2972 RMK SF8 SLP065=

CYQG;2006-05-16 12:45;SPECI CYQG 161245Z 32007KT 7SM FEW008 OVC012 RMK SF2SF6=

CYQG;2006-05-16 13:00;METAR CYQG 161300Z 31009KT 8SM FEW008 OVC012 12/10 A2972 RMK SF2SF6 SLP065=

CYQG;2006-05-16 14:00;METAR CYQG 161400Z 33008KT 7SM FEW008 OVC012 13/10 A2972 RMK SF2SF6 SLP067=

CYQG;2006-05-16 14:13;SPECI CYQG 161413Z 33008KT 7SM -SHRA FEW008 BKN012 OVC018 RMK SF2SF5SC2=

CYQG;2006-05-16 14:33;SPECI CYQG 161433Z 32010KT 7SM SCT012 OVC026 RMK SC3SC5 OCNL SHRA=

CYQG;2006-05-16 15:00;METAR CYQG 161500Z 33008KT 7SM SCT012 OVC027 14/11 A2971 RMK SC3SC5 SLP062=

CYQG;2006-05-16 16:00;METAR CYQG 161600Z 32011KT 10SM SCT020 BKN046 15/11 A2971 RMK CU4SC3 SLP060=

CYQG;2006-05-16 17:00;METAR CYQG 161700Z 31010KT 8SM -SHRA BKN022 OVC071 16/10 A2969 RMK CU6AC2 SLP055=

CYQG;2006-05-16 17:36;SPECI CYQG 161736Z 31010G15KT 10SM BKN031 OVC060 RMK CU6SC2=

CYQG;2006-05-16 18:00;METAR CYQG 161800Z 32008G15KT 10SM -SHRA BKN036 OVC060 16/09 A2968 RMK CU6SC2 SLP053=

CYQG;2006-05-16 19:00;METAR CYQG 161900Z 34009KT 6SM -SHRA HZ BKN032 OVC060 15/11 A2968 RMK CU6SC2 SLP053=

CYQG;2006-05-16 19:46;SPECI CYQG 161946Z 31010G17KT 5SM -SHRA BR SCT008 OVC040 RMK CU3SC5=

CYQG;2006-05-16 20:43;SPECI CYQG 162043Z 31009KT 8SM SCT015 BKN070 RMK CU4AC3=

CYQG;2006-05-16 21:00;METAR CYQG 162100Z 31010KT 10SM SCT018 BKN077 16/11 A2965 RMK CU3AC4 SLP043=

CYQG;2006-05-16 22:00;METAR CYQG 162200Z 31008KT 15SM BKN035 BKN080 BKN250 16/11 A2964 RMK CU5AC1CI1 SLP039=

CYQG;2006-05-16 22:48;SPECI CYQG 162248Z 02007G15KT 15SM BKN032 BKN078 BKN250 RMK CU6AC1CI1=

CYQG;2006-05-16 23:00;METAR CYQG 162300Z 03005KT 15SM BKN045 BKN080 BKN250 15/11 A2964 RMK CU5AC2CI1 OCNL -SHRA SLP039=

CYQG;2006-05-17 00:00;METAR CYQG 170000Z 02005KT 15SM FEW040 BKN080 16/11 A2965 RMK CU2AC5 SLP041=

CYQG;2006-05-17 01:00;METAR CYQG 170100Z 09002KT 15SM FEW040 FEW078 BKN250 15/11 A2965 RMK CU1AC1CI4 SLP042=

CYQG;2006-05-17 05:00;METAR CYQG 170500Z 26006KT 15SM OVC070 14/10 A2964 RMK AC8 SLP037=

CYQG;2006-05-17 08:00;METAR CYQG 170800Z 27005KT 15SM BKN080 OVC120 13/11 A2961 RMK AC6AC2 SLP027=

CYQG;2006-05-17 09:00;METAR CYQG 170900Z 28006KT 12SM FEW060 SCT080 BKN110 13/11 A2961 RMK SC1AC2AC4 SLP026=

CYQG;2006-05-17 13:00;METAR CYQG 171300Z 27007KT 12SM SCT090 14/11 A2960 RMK AC4 SLP024=

CYQG;2006-05-17 15:00;METAR CYQG 171500Z 29004KT 12SM FEW020 FEW090 18/12 A2959 RMK CF1AC2 SLP019=

CYQG;2006-05-17 17:00;METAR CYQG 171700Z 25008G15KT 12SM FEW031 SCT160 BKN240 20/13 A2956 RMK CU2AC2CI2 SLP010=

CYQG;2006-05-17 18:00;METAR CYQG 171800Z 23011G16KT 15SM FEW045 BKN150 20/11 A2955 RMK CU2AC5 TCU ASOCTD DIST E SLP005=

CYQG;2006-05-17 21:00;METAR CYQG 172100Z 20008KT 12SM SCT032TCU BKN230 22/13 A2946 RMK TCU3CI1 CB ASOCTD SLP977=

CYQG;2006-05-17 22:00;METAR CYQG 172200Z 24007G15KT 12SM BKN061TCU BKN230 22/06 A2945 RMK TCU5CI1 CB ASOCTD SLP973=

CYQG;2006-05-17 22:29;SPECI CYQG 172229Z 20006G27KT 8SM -SHRA BKN044TCU BKN230 RMK TCU6CI1 CB ASOCTD=

CYQG;2006-05-17 22:51;SPECI CYQG 172251Z 33016G21KT 8SM BKN068TCU BKN230 RMK TCU6CI1 CB ASOCTD OCNL LTGCG S=

CYQG;2006-05-17 23:00;METAR CYQG 172300Z 34012G21KT 8SM -SHRA BKN058TCU 17/11 A2947 RMK TCU6 CB ASOCTD OCNL LTGCG S SLP979=

CYQG;2006-05-17 23:37;SPECI CYQG 172337Z 30002KT 12SM SCT055TCU BKN230 RMK TCU4CI1 CB ASOCTD E + SE=

CYQG;2006-05-18 00:00;METAR CYQG 180000Z 30009KT 15SM SCT080 BKN230 17/09 A2946 RMK AC3CI2 CB ASOCTD E SLP977=

CYQG;2006-05-18 01:00;METAR CYQG 180100Z 21008KT 15SM BKN049 17/09 A2950 RMK SC7 SLP989=

CYQG;2006-05-18 01:31;SPECI CYQG 180131Z 33005KT 15SM -SHRA BKN046 RMK SC7=

CYQG;2006-05-18 02:00;METAR CYQG 180200Z 02007KT 10SM -SHRA OVC042 15/10 A2950 RMK SC8 SLP988=

CYQG;2006-05-18 03:00;METAR CYQG 180300Z 03004KT 5SM SHRA BR OVC033 14/12 A2949 RMK SC8 SLP985=

CYQG;2006-05-18 04:23;SPECI CYQG 180423Z 09002KT 15SM SCT038 OVC088 RMK SC3AC5=

CYQG;2006-05-18 05:00;METAR CYQG 180500Z 13002KT 15SM FEW036 BKN047 OVC080 13/11 A2944 RMK SC1SC5AC3 SLP968=

CYQG;2006-05-18 05:49;SPECI CYQG 180549Z 18004KT 15SM BKN040CB OVC063 RMK CB5SC3=

CYQG;2006-05-18 06:00;METAR CYQG 180600Z 18003KT 5SM TS BR BKN035CB OVC063 13/11 A2942 RMK CB5SC3 SLP961=

CYQG;2006-05-18 06:16;SPECI CYQG 180616Z 29009KT 4SM -TSRA BR FEW008 OVC020CB RMK SF1CB7=

CYQG;2006-05-18 07:00;METAR CYQG 180700Z 34006KT 4SM TSRA OVC060CB 11/09 A2941 RMK CB8 LTGCG SLP960=

CYQG;2006-05-18 09:00;METAR CYQG 180900Z 28009KT 10SM -SHRA SCT013 OVC060 11/09 A2941 RMK CU4SC4 SLP958=

CYQG;2006-05-18 10:00;METAR CYQG 181000Z 31010KT 15SM -SHRA OVC020 10/08 A2941 RMK SC8 SLP958=

CYQG;2006-05-18 10:18;SPECI CYQG 181018Z 30011KT 15SM OVC020 RMK SC8=

CYQG;2006-05-18 11:00;METAR CYQG 181100Z 30010G17KT 15SM OVC020 10/07 A2942 RMK SC8 SLP962=

CYQG;2006-05-18 12:00;METAR CYQG 181200Z 30013G18KT 15SM BKN022 BKN044 10/06 A2943 RMK SC5SC2 SLP968=

CYQG;2006-05-18 13:00;METAR CYQG 181300Z 28017KT 15SM BKN022 BKN044 11/06 A2945 RMK SC5SC2 SLP972=

CYQG;2006-05-18 14:00;METAR CYQG 181400Z 29011G18KT 15SM SCT031 SCT045 12/05 A2945 RMK CU3SC1 SLP972=

CYQG;2006-05-18 15:00;METAR CYQG 181500Z 31016G21KT 15SM BKN042 BKN050 13/04 A2944 RMK CU6SC1 SLP969=

CYQG;2006-05-18 16:31;SPECI CYQG 181631Z 28013G20KT 15SM -SHRA BKN055 RMK CU7=

CYQG;2006-05-19 06:20;SPECI CYQG 190620Z 29009KT 15SM OVC014 RMK SC8=

CYQG;2006-05-19 08:33;SPECI CYQG 190833Z 28005KT 6SM -DZ FEW010 OVC013 RMK SF1SC8=

CYQG;2006-05-19 10:47;SPECI CYQG 191047Z 28009KT 15SM -SHRA OVC012 RMK SC8=

CYQG;2006-05-19 12:50;SPECI CYQG 191250Z 29010KT 8SM -SHRA FEW009 OVC012 RMK SF2SC6=

CYQG;2006-05-19 16:47;SPECI CYQG 191647Z 29011KT 10SM OVC018 RMK SC8=

CYQG;2006-05-19 19:00;METAR CYQG 191900Z 29014KT 15SM OVC014 12/08 A2967 RMK SC8 SLP052=

CYQG;2006-05-19 20:00;METAR CYQG 192000Z 29011G17KT 15SM OVC022 13/08 A2968 RMK SC8 SLP053=

CYQG;2006-05-19 21:00;METAR CYQG 192100Z 30011G18KT 15SM OVC027 13/07 A2968 RMK SC8 SLP054=

CYQG;2006-05-19 22:00;METAR CYQG 192200Z 30009KT 15SM OVC027 14/07 A2969 RMK SC8 SLP057=

CYQG;2006-05-19 23:00;METAR CYQG 192300Z 32007KT 15SM FEW027 BKN054 14/08 A2969 RMK CU1SC6 SLP057=

CYQG;2006-05-20 00:00;METAR CYQG 200000Z 35005KT 15SM SCT045 BKN230 14/07 A2970 RMK SC3CI2 SLP058=

CYQG;2006-05-20 01:00;METAR CYQG 200100Z 01004KT 15SM BKN054 BKN230 12/07 A2971 RMK SC5CI1 SLP063=

CYQG;2006-05-20 02:00;METAR CYQG 200200Z 35004KT 15SM BKN050 12/07 A2973 RMK SC6 SLP069=

CYQG;2006-05-20 04:00;METAR CYQG 200400Z 33005KT 15SM SCT220 11/06 A2975 RMK CI2 SLP078=

CYQG;2006-05-20 05:00;METAR CYQG 200500Z 30005KT 15SM FEW220 10/05 A2975 RMK CI1 SLP077=

CYQG;2006-05-20 07:00;METAR CYQG 200700Z 31007KT 15SM SKC 09/05 A2974 RMK SLP072=

CYQG;2006-05-20 08:00;METAR CYQG 200800Z 29006KT 15SM FEW250 08/04 A2974 RMK CI1 SLP074=

CYQG;2006-05-20 09:00;METAR CYQG 200900Z 29007KT 15SM SCT043 07/03 A2975 RMK SC3 SLP076=

CYQG;2006-05-20 10:00;METAR CYQG 201000Z 30005KT 15SM FEW045 06/03 A2976 RMK SC1 SLP081=

CYQG;2006-05-20 11:00;METAR CYQG 201100Z 31007KT 15SM FEW045 07/03 A2978 RMK SC1 SLP088=

CYQG;2006-05-20 12:00;METAR CYQG 201200Z 33011KT 15SM FEW045 09/04 A2980 RMK CU1 SLP094=

CYQG;2006-05-20 13:00;METAR CYQG 201300Z 32011KT 15SM FEW045 10/04 A2982 RMK CU1 SLP099=

CYQG;2006-05-20 14:00;METAR CYQG 201400Z 33009KT 15SM FEW040 12/02 A2983 RMK CF1 SLP104=

CYQG;2006-05-20 15:00;METAR CYQG 201500Z 31010G18KT 15SM FEW050 14/03 A2983 RMK CF2 SLP104=

CYQG;2006-05-20 16:00;METAR CYQG 201600Z 35013G20KT 15SM SCT055 14/02 A2984 RMK SC3 SLP106=

CYQG;2006-05-20 17:00;METAR CYQG 201700Z 32012G19KT 15SM FEW055 16/02 A2983 RMK SC2 SLP102=

CYQG;2006-05-20 18:00;METAR CYQG 201800Z 29012G22KT 15SM FEW060 17/02 A2982 RMK SC1 SLP100=

CYQG;2006-05-20 19:00;METAR CYQG 201900Z 30009G21KT 15SM SCT066 18/03 A2981 RMK SC4 SLP096=

CYQG;2006-05-20 20:00;METAR CYQG 202000Z 30010G16KT 15SM SCT071 19/04 A2980 RMK AC4 SLP092=

CYQG;2006-05-20 21:00;METAR CYQG 202100Z 30012G17KT 15SM SCT067 20/05 A2979 RMK AC4 SLP089=

CYQG;2006-05-20 22:00;METAR CYQG 202200Z 29014G21KT 15SM SCT066 20/04 A2978 RMK AC3 SLP085=

CYQG;2006-05-20 23:00;METAR CYQG 202300Z 30011G17KT 15SM FEW070 21/05 A2977 RMK AC2 SLP082=

CYQG;2006-05-21 00:00;METAR CYQG 210000Z 27011G17KT 15SM FEW070 20/03 A2977 RMK AC1 SLP080=

CYQG;2006-05-21 02:00;METAR CYQG 210200Z 23007KT 15SM BKN088 17/05 A2976 RMK AC6 SLP078=

CYQG;2006-05-21 03:00;METAR CYQG 210300Z 23009KT 15SM BKN090 16/05 A2975 RMK AC5 SLP074=

CYQG;2006-05-21 03:33;SPECI CYQG 210333Z 23008KT 15SM -SHRA BKN095 RMK AC6=

CYQG;2006-05-21 03:39;SPECI CYQG 210339Z 23009KT 15SM BKN095 RMK AC7=

CYQG;2006-05-21 04:00;METAR CYQG 210400Z 23011KT 10SM OVC080 16/05 A2971 RMK AC8 SLP063=

CYQG;2006-05-21 04:46;SPECI CYQG 210446Z 25011KT 15SM -SHRA BKN075 RMK AC7=

CYQG;2006-05-21 05:00;METAR CYQG 210500Z 24009KT 15SM BKN085 16/05 A2970 RMK AC7 SLP057=

CYQG;2006-05-21 05:18;SPECI CYQG 210518Z 27010KT 15SM -SHRA OVC075 RMK AC8=

CYQG;2006-05-21 06:00;METAR CYQG 210600Z 27010KT 12SM -SHRA OVC060 15/06 A2971 RMK SC8 SLP060=

CYQG;2006-05-21 07:00;METAR CYQG 210700Z 35023G37KT 6SM -SHRA OVC015 09/04 A2975 RMK SC8 PRESRR SLP073=

CYQG;2006-05-21 08:00;METAR CYQG 210800Z 34010KT 10SM -RA SCT035 OVC060 07/03 A2976 RMK ST3SC5 SLP077=

CYQG;2006-05-21 09:32;SPECI CYQG 210932Z 27005KT 15SM BKN058 RMK SC7=

CYQG;2006-05-21 12:00;METAR CYQG 211200Z 28013KT 15SM FEW065 FEW280 08/02 A2981 RMK CU1CI1 SLP095=

CYQG;2006-05-21 13:00;METAR CYQG 211300Z 31017G26KT 15SM FEW065 SCT280 09/01 A2982 RMK SC1CI1 SLP097=

CYQG;2006-05-21 14:00;METAR CYQG 211400Z 29015G27KT 15SM FEW040 SCT300 10/00 A2982 RMK SC1CI1 SLP099=

CYQG;2006-05-21 15:00;METAR CYQG 211500Z 31019G24KT 15SM FEW040 FEW300 11/01 A2984 RMK SC2CI0 SLP106=

CYQG;2006-05-21 16:00;METAR CYQG 211600Z 29016G25KT 15SM FEW045 SCT300 12/01 A2985 RMK SC2CI0 SLP108=

CYQG;2006-05-21 18:00;METAR CYQG 211800Z 31016G24KT 15SM BKN048 13/01 A2987 RMK SC6 SLP116=

CYQG;2006-05-21 19:00;METAR CYQG 211900Z 32014G22KT 15SM BKN052 BKN280 13/02 A2988 RMK SC7CI1 SLP120=

CYQG;2006-05-21 20:00;METAR CYQG 212000Z 32019G25KT 15SM BKN053 13/02 A2990 RMK SC6 SLP125=

CYQG;2006-05-21 21:00;METAR CYQG 212100Z 33017KT 15SM BKN050 13/02 A2990 RMK SC6 SLP129=

CYQG;2006-05-21 22:00;METAR CYQG 212200Z 31012G18KT 15SM BKN047 12/02 A2992 RMK SC6 SLP135=

CYQG;2006-05-21 23:00;METAR CYQG 212300Z 31013G19KT 15SM SCT047 BKN280 13/02 A2993 RMK SC4CI1 SLP139=

CYQG;2006-05-22 00:00;METAR CYQG 220000Z 32010G18KT 15SM SCT050 BKN280 12/01 A2995 RMK SC4CI2 SLP146=

CYQG;2006-05-22 01:00;METAR CYQG 220100Z 32011KT 15SM SCT048 BKN280 11/01 A2998 RMK SC3CI3 SLP154=

CYQG;2006-05-22 02:00;METAR CYQG 220200Z 32013KT 15SM BKN047 11/01 A3001 RMK SC7 SLP164=

CYQG;2006-05-22 03:00;METAR CYQG 220300Z 31013KT 15SM BKN044 10/01 A3004 RMK SC7 SLP174=

CYQG;2006-05-22 04:00;METAR CYQG 220400Z 35010G18KT 15SM FEW042 FEW150 09/00 A3004 RMK SC2AC1 SLP177=

CYQG;2006-05-22 05:00;METAR CYQG 220500Z 34006KT 15SM FEW150 08/M00 A3005 RMK AC1 SLP178=

CYQG;2006-05-22 06:00;METAR CYQG 220600Z 35005KT 15SM FEW220 07/00 A3006 RMK CI1 SLP181=

CYQG;2006-05-22 08:00;METAR CYQG 220800Z 34007KT 15SM SKC 06/00 A3007 RMK SLP186=

CYQG;2006-05-22 09:00;METAR CYQG 220900Z 33005KT 15SM FEW250 05/00 A3008 RMK CI1 SLP191=

CYQG;2006-05-22 10:00;METAR CYQG 221000Z 34007KT 15SM FEW022 FEW220 05/M01 A3010 RMK CF1CI1 SLP196=

CYQG;2006-05-22 12:00;METAR CYQG 221200Z 33008KT 15SM FEW030 FEW280 06/M01 A3013 RMK SC1CI1 SLP206=

CYQG;2006-05-22 13:00;METAR CYQG 221300Z 34008KT 15SM FEW030 FEW280 07/M00 A3014 RMK SC1CI1 CONTRAILS SLP209=

CYQG;2006-05-22 15:00;METAR CYQG 221500Z 31005KT 15SM FEW030 FEW280 09/M00 A3014 RMK SC1CI1 SLP209=

CYQG;2006-05-22 16:00;METAR CYQG 221600Z 33007G15KT 15SM FEW040 FEW280 12/00 A3014 RMK SC1CI1 SLP209=

CYQG;2006-05-22 17:00;METAR CYQG 221700Z 34011G17KT 15SM FEW040 FEW280 12/00 A3013 RMK SC1CI1 SLP207=

CYQG;2006-05-22 18:00;METAR CYQG 221800Z 30012KT 15SM FEW050 SCT280 13/01 A3014 RMK SC2CI1 SLP209=

CYQG;2006-05-22 19:00;METAR CYQG 221900Z 36009G21KT 15SM FEW055 FEW280 14/02 A3013 RMK SC2CI1 SLP207=

CYQG;2006-05-22 20:00;METAR CYQG 222000Z 35010G17KT 15SM FEW060 FEW290 14/M01 A3013 RMK CU1CI1 SLP207=

CYQG;2006-05-22 21:00;METAR CYQG 222100Z 01011G17KT 15SM FEW062 FEW290 14/00 A3013 RMK CU1CI1 SLP206=

CYQG;2006-05-22 22:00;METAR CYQG 222200Z 01011KT 15SM FEW060 FEW290 14/M01 A3013 RMK CU1CI1 SLP205=

CYQG;2006-05-22 23:00;METAR CYQG 222300Z 04007KT 15SM FEW060 FEW290 14/M00 A3012 RMK CU1CI1 SLP203=

CYQG;2006-05-23 00:00;METAR CYQG 230000Z 09008KT 15SM BKN280 12/02 A3012 RMK CI2 SLP202=

CYQG;2006-05-23 01:00;METAR CYQG 230100Z 18004KT 15SM FEW280 11/02 A3013 RMK CI1 SLP206=

CYQG;2006-05-23 02:00;METAR CYQG 230200Z 18003KT 15SM FEW280 10/02 A3015 RMK CI1 SLP212=

CYQG;2006-05-23 03:00;METAR CYQG 230300Z 09004KT 15SM SKC 09/03 A3016 RMK SLP217=

CYQG;2006-05-23 04:00;METAR CYQG 230400Z 11003KT 15SM SKC 08/03 A3016 RMK SLP217=

CYQG;2006-05-23 05:00;METAR CYQG 230500Z 11004KT 15SM FEW220 07/04 A3016 RMK CI1 SLP216=

CYQG;2006-05-23 07:00;METAR CYQG 230700Z 17003KT 15SM SKC 05/02 A3015 RMK SLP214=

CYQG;2006-05-23 08:00;METAR CYQG 230800Z 00000KT 15SM SKC 05/02 A3016 RMK SLP216=

CYQG;2006-05-23 09:00;METAR CYQG 230900Z 27003KT 15SM FEW220 06/03 A3017 RMK CI1 SLP220=

CYQG;2006-05-23 10:00;METAR CYQG 231000Z 29003KT 15SM FEW150 FEW220 06/04 A3018 RMK AC1CI1 SLP224=

CYQG;2006-05-23 11:00;METAR CYQG 231100Z 00000KT 15SM FEW150 FEW220 07/04 A3020 RMK AC1CI1 SLP231=

CYQG;2006-05-23 13:00;METAR CYQG 231300Z 34006KT 15SM FEW280 12/02 A3023 RMK CI1 CONTRAILS SLP238=

CYQG;2006-05-23 14:00;METAR CYQG 231400Z 01005KT 15SM FEW280 13/01 A3023 RMK CI1 SLP239=

CYQG;2006-05-23 15:00;METAR CYQG 231500Z 36008KT 15SM FEW280 15/M01 A3022 RMK CI1 CONTRAILS SLP237=

CYQG;2006-05-23 16:00;METAR CYQG 231600Z 02006G16KT 15SM FEW280 16/M01 A3021 RMK CI2 SLP234=

CYQG;2006-05-23 18:00;METAR CYQG 231800Z 04005KT 15SM FEW300 18/01 A3018 RMK CI1 CONTRAILS SLP221=

CYQG;2006-05-23 19:00;METAR CYQG 231900Z 04006KT 15SM FEW300 19/02 A3017 RMK CI1 CONTRAILS SLP217=

CYQG;2006-05-23 20:00;METAR CYQG 232000Z 10003KT 15SM FEW300 19/02 A3014 RMK CI1 SLP210=

CYQG;2006-05-23 21:00;METAR CYQG 232100Z 17007KT 15SM FEW300 19/05 A3013 RMK CI1 SLP206=

CYQG;2006-05-23 22:00;METAR CYQG 232200Z 17002KT 15SM FEW300 19/05 A3013 RMK CI1 SLP205=

CYQG;2006-05-23 23:00;METAR CYQG 232300Z 19009KT 15SM FEW300 18/05 A3013 RMK CI1 SLP205=

CYQG;2006-05-24 00:00;METAR CYQG 240000Z 19006KT 15SM FEW290 17/04 A3012 RMK CI1 SLP201=

CYQG;2006-05-24 01:00;METAR CYQG 240100Z 18006KT 15SM FEW290 15/04 A3012 RMK CI1 SLP201=

CYQG;2006-05-24 02:00;METAR CYQG 240200Z 18005KT 15SM FEW290 14/06 A3012 RMK CI1 SLP200=

CYQG;2006-05-24 03:00;METAR CYQG 240300Z 17004KT 15SM SKC 13/07 A3012 RMK SLP202=

CYQG;2006-05-24 04:00;METAR CYQG 240400Z 20008KT 15SM FEW220 13/07 A3011 RMK CI1 SLP199=

CYQG;2006-05-24 05:00;METAR CYQG 240500Z 20006KT 15SM SKC 13/06 A3010 RMK SLP193=

CYQG;2006-05-24 06:00;METAR CYQG 240600Z 00000KT 15SM FEW220 13/06 A3010 RMK CI1 SLP192=

CYQG;2006-05-24 07:00;METAR CYQG 240700Z 26003KT 15SM SKC 12/07 A3008 RMK SLP188=

CYQG;2006-05-24 08:00;METAR CYQG 240800Z 00000KT 15SM SKC 11/07 A3008 RMK SLP188=

CYQG;2006-05-24 09:00;METAR CYQG 240900Z 25002KT 15SM FEW220 10/07 A3007 RMK CI1 SLP185=

CYQG;2006-05-24 10:00;METAR CYQG 241000Z 24002KT 15SM FEW160 FEW220 10/08 A3008 RMK AC1CI2 SLP188=

CYQG;2006-05-24 11:00;METAR CYQG 241100Z 26002KT 10SM FEW160 FEW220 11/08 A3009 RMK AC1CI2 SLP191=

CYQG;2006-05-24 12:00;METAR CYQG 241200Z 27002KT 15SM SCT280 14/09 A3009 RMK CI1 SLP191=

CYQG;2006-05-24 13:00;METAR CYQG 241300Z 26006KT 15SM BKN300 16/09 A3010 RMK CI2 SLP194=

CYQG;2006-05-24 14:00;METAR CYQG 241400Z 21005KT 15SM BKN300 18/08 A3008 RMK CI3 SLP187=

CYQG;2006-05-24 16:00;METAR CYQG 241600Z 25006KT 15SM BKN300 22/06 A3007 RMK CI3 CONTRAILS SLP181=

CYQG;2006-05-24 17:00;METAR CYQG 241700Z 20010KT 15SM FEW150 SCT240 BKN300 23/08 A3005 RMK AC2CC1CI2 SLP175=

CYQG;2006-05-24 18:00;METAR CYQG 241800Z 20008G16KT 15SM FEW150 BKN300 24/07 A3002 RMK AC2CI2 SLP164=

CYQG;2006-05-24 21:00;METAR CYQG 242100Z 22013KT 15SM FEW150 BKN230 OVC290 23/05 A2993 RMK AC1CS6CS1 SLP135=

CYQG;2006-05-24 22:00;METAR CYQG 242200Z 20008KT 15SM BKN170 OVC230 23/06 A2992 RMK AS6CS2 SLP132=

CYQG;2006-05-24 23:00;METAR CYQG 242300Z 21008KT 15SM BKN150 OVC220 22/07 A2990 RMK AC6CS2 SLP126=

CYQG;2006-05-25 00:00;METAR CYQG 250000Z 19006KT 15SM BKN140 BKN240 22/09 A2989 RMK AC6CI1 SLP121=

CYQG;2006-05-25 01:00;METAR CYQG 250100Z 19006KT 15SM BKN140 OVC230 20/09 A2988 RMK AC7CI1 SLP119=

CYQG;2006-05-25 02:25;SPECI CYQG 250225Z 21012KT 15SM -SHRA FEW040 OVC110 RMK SC2AC6=

CYQG;2006-05-25 02:47;SPECI CYQG 250247Z 19006KT 15SM FEW040 OVC110 RMK SC1AC7=

CYQG;2006-05-25 04:46;SPECI CYQG 250446Z 19011KT 15SM -SHRA BKN043 OVC078 RMK SC5AC3=

CYQG;2006-05-25 05:00;METAR CYQG 250500Z 20009KT 15SM -SHRA BKN034 OVC058 15/13 A2983 RMK SC5SC3 SLP099=

CYQG;2006-05-25 07:00;METAR CYQG 250700Z 21012KT 15SM SCT033 OVC100 16/12 A2978 RMK SC4AC4 OCNL SHRA SLP082=

CYQG;2006-05-25 08:39;SPECI CYQG 250839Z 21009KT 15SM FEW030 OVC095 RMK SC2AC6=

CYQG;2006-05-25 09:00;METAR CYQG 250900Z 20012KT 15SM -SHRA FEW030 OVC079 15/13 A2974 RMK SC2AC6 SLP069=

CYQG;2006-05-25 10:00;METAR CYQG 251000Z 18011KT 15SM -SHRA FEW030 OVC079 15/13 A2971 RMK SC2AC6 SLP061=

CYQG;2006-05-25 10:19;SPECI CYQG 251019Z 20009KT 15SM FEW030 OVC081 RMK SC2AC6=

CYQG;2006-05-25 12:00;METAR CYQG 251200Z 20007KT 15SM SCT100 BKN260 16/13 A2973 RMK AC4CI2 SLP067=

CYQG;2006-05-25 13:00;METAR CYQG 251300Z 21008KT 15SM FEW100 BKN270 18/15 A2973 RMK AC1CI2 SLP065=

CYQG;2006-05-25 14:00;METAR CYQG 251400Z 22009KT 12SM BKN016 BKN270 20/15 A2972 RMK CU5CI2 SLP062=

CYQG;2006-05-25 16:00;METAR CYQG 251600Z 20009KT 8SM BKN016 22/17 A2970 RMK CU7 SLP056=

CYQG;2006-05-25 18:00;METAR CYQG 251800Z 21011G16KT 6SM HZ BKN021 BKN120 24/19 A2968 RMK CU6AC2 SLP048=

CYQG;2006-05-25 19:00;METAR CYQG 251900Z 22013KT 6SM HZ BKN026 24/19 A2966 RMK CU7 SLP043=

CYQG;2006-05-25 21:44;SPECI CYQG 252144Z 16013KT 6SM HZ BKN032 RMK SC7=

CYQG;2006-05-25 22:00;METAR CYQG 252200Z 17011G16KT 6SM HZ FEW030CB SCT040 BKN070 BKN200 24/19 A2960 RMK CB2SC2AC2CS2 CB W TO SW SLP020=

CYQG;2006-05-25 22:25;SPECI CYQG 252225Z 19014G27KT 10SM -SHRA FEW030CB BKN050 BKN120 RMK CB2SC3AC2=

CYQG;2006-05-25 22:45;SPECI CYQG 252245Z 16014G22KT 10SM SCT030CB BKN050 BKN200 RMK CB3SC2CI1 PRESFR=

CYQG;2006-05-25 23:00;METAR CYQG 252300Z 18008G15KT 10SM SCT030CB BKN080 BKN200 22/16 A2955 RMK CB4AC2CC1 CC ASOCT WITH CB SLP005=

CYQG;2006-05-26 00:10;SPECI CYQG 260010Z 22010G16KT 6SM -TSRA OVC063CB RMK CB8=

CYQG;2006-05-26 00:15;SPECI CYQG 260015Z 19006KT 5SM -SHRA BR OVC060 RMK SC8=

CYQG;2006-05-26 02:29;SPECI CYQG 260229Z 17006KT 12SM -DZ BKN010 RMK SC6=

CYQG;2006-05-26 03:42;SPECI CYQG 260342Z 17008KT 12SM -RA OVC090 RMK AC8=

CYQG;2006-05-26 04:00;METAR CYQG 260400Z 18008KT 15SM -RA BKN100 OVC160 17/16 A2958 RMK AC6AC2 SLP014=

CYQG;2006-05-26 04:32;SPECI CYQG 260432Z 19012KT 15SM SCT100 OVC160 RMK AC3AC5=

CYQG;2006-05-26 06:00;METAR CYQG 260600Z 18008KT 15SM SCT064 OVC110 17/16 A2954 RMK SC3AC5 SLP000=

CYQG;2006-05-26 07:00;METAR CYQG 260700Z 20007KT 15SM FEW023 OVC077 18/15 A2953 RMK SC2AC6 SLP997=

CYQG;2006-05-26 08:26;SPECI CYQG 260826Z 21009KT 6SM BR OVC012 RMK SC8=

CYQG;2006-05-26 09:00;METAR CYQG 260900Z 22008KT 6SM BR OVC013 18/16 A2950 RMK SC8 SLP988=

CYQG;2006-05-26 09:16;SPECI CYQG 260916Z 21007KT 5SM BR FEW006 OVC012 RMK SF2SC6=

CYQG;2006-05-26 10:00;METAR CYQG 261000Z 22006KT 3SM BR FEW005 OVC011 18/16 A2950 RMK SF2SC6 SLP987=

CYQG;2006-05-26 11:00;METAR CYQG 261100Z 24003KT 3SM BR FEW005 OVC010 18/16 A2951 RMK SF2SC6 SLP991=

CYQG;2006-05-26 11:30;SPECI CYQG 261130Z 24006KT 4SM BR OVC009 RMK SF8=

CYQG;2006-05-26 12:00;METAR CYQG 261200Z 26006KT 4SM BR OVC007 18/17 A2952 RMK SF8 SLP994=

CYQG;2006-05-26 13:00;METAR CYQG 261300Z 26005KT 4SM HZ OVC008 19/17 A2953 RMK SF8 SLP998=

CYQG;2006-05-26 14:00;METAR CYQG 261400Z 27005KT 5SM HZ OVC008 19/17 A2954 RMK SF8 SLP001=

CYQG;2006-05-26 15:09;SPECI CYQG 261509Z 26006KT 5SM HZ BKN010 BKN040 RMK SC6SC1=

CYQG;2006-05-26 16:00;METAR CYQG 261600Z 27007KT 5SM HZ BKN014 BKN023 21/17 A2955 RMK SC6SC2 SLP006=

CYQG;2006-05-26 16:26;SPECI CYQG 261626Z 26008KT 6SM HZ SCT015 BKN041 RMK SC4SC3=

CYQG;2006-05-26 17:00;METAR CYQG 261700Z 32007KT 8SM BKN018 BKN035 23/17 A2955 RMK SC6SC2 SLP006=

CYQG;2006-05-26 18:00;METAR CYQG 261800Z 32006KT 10SM BKN024TCU BKN045 24/18 A2955 RMK TCU6SC1 SLP006=

CYQG;2006-05-26 18:37;SPECI CYQG 261837Z 04007KT 12SM -SHRA BKN030TCU RMK TCU7=

CYQG;2006-05-26 19:25;SPECI CYQG 261925Z 03009KT 3SM SHRA OVC035TCU RMK TCU8=

CYQG;2006-05-26 19:30;SPECI CYQG 261930Z 03009KT 3SM +SHRA OVC035TCU RMK TCU8 AIRPORT VIS 1/2=

CYQG;2006-05-26 19:32;SPECI CYQG 261932Z 34007KT 1/2SM +TSRA OVC007CB RMK CB8=

CYQG;2006-05-26 19:37;SPECI CYQG 261937Z 33009KT 1SM +TSRA OVC025CB RMK CB8=

CYQG;2006-05-26 19:41;SPECI CYQG 261941Z 30007KT 2SM TSRA OVC030CB RMK CB8=

CYQG;2006-05-26 19:47;SPECI CYQG 261947Z 31008KT 6SM -TSRA OVC040CB RMK CB8=

CYQG;2006-05-26 20:04;SPECI CYQG 262004Z 32006KT 6SM BR BKN030TCU RMK TCU7=

CYQG;2006-05-26 21:00;METAR CYQG 262100Z 03003KT 7SM FEW015 SCT040TCU BKN090 22/20 A2960 RMK CU1TCU3AC2 SLP021=

CYQG;2006-05-26 21:15;SPECI CYQG 262115Z 06010G16KT 7SM BKN013 BKN040TCU RMK SC5TCU2=

CYQG;2006-05-26 21:27;SPECI CYQG 262127Z 05009KT 7SM BKN040TCU RMK TCU6=

CYQG;2006-05-26 22:00;METAR CYQG 262200Z 06008KT 8SM BKN065TCU 22/18 A2962 RMK TCU6 SLP029=

CYQG;2006-05-26 23:00;METAR CYQG 262300Z 03006KT 15SM SCT030 SCT200 22/17 A2964 RMK CU3CI0 SLP036=

CYQG;2006-05-27 00:00;METAR CYQG 270000Z 35006KT 15SM FEW030 FEW035CB SCT200 23/15 A2967 RMK CU2CB1CI0 CB SW MOVNG S SLP046=

CYQG;2006-05-27 01:00;METAR CYQG 270100Z 09004KT 12SM FEW040 20/16 A2970 RMK CF1 SLP056=

CYQG;2006-05-27 03:00;METAR CYQG 270300Z 09003KT 12SM MIFG SKC 18/16 A2975 RMK SLP072=

CYQG;2006-05-27 04:00;METAR CYQG 270400Z 11002KT 12SM SKC 17/15 A2976 RMK SLP076=

CYQG;2006-05-27 05:00;METAR CYQG 270500Z 04002KT 12SM SKC 17/15 A2979 RMK SLP085=

CYQG;2006-05-27 07:00;METAR CYQG 270700Z 00000KT 10SM SKC 15/14 A2981 RMK SLP093=

CYQG;2006-05-27 08:00;METAR CYQG 270800Z 36002KT 10SM SKC 16/14 A2984 RMK SLP103=

CYQG;2006-05-27 09:00;METAR CYQG 270900Z 09003KT 10SM SKC 15/14 A2986 RMK SLP110=

CYQG;2006-05-27 09:41;SPECI CYQG 270941Z 14002KT 2 1/2SM BR SKC RMK VIS W 4=

CYQG;2006-05-27 10:00;METAR CYQG 271000Z 08003KT 1SM BR SKC 15/14 A2988 RMK VIS W 2 SLP116=

CYQG;2006-05-27 10:04;SPECI CYQG 271004Z 08004KT 1/2SM FG SKC RMK VIS SW 1=

CYQG;2006-05-27 10:08;SPECI CYQG 271008Z 07004KT 3/8SM FG SKC RMK VIS SW 3/4=

CYQG;2006-05-27 10:37;SPECI CYQG 271037Z 06003KT 1/2SM FG SKC RMK FG DPT 10 FT VIS SW 1=

CYQG;2006-05-27 11:00;METAR CYQG 271100Z 03002KT 1 1/2SM BR PRFG SKC 15/14 A2990 RMK VIS NE 1/2 SLP124=

CYQG;2006-05-27 11:40;SPECI CYQG 271140Z 04003KT 3SM BR SKC=

CYQG;2006-05-27 12:00;METAR CYQG 271200Z 04002KT 5SM BR SKC 17/15 A2993 RMK SLP133=

CYQG;2006-05-27 15:00;METAR CYQG 271500Z 15003KT 15SM FEW290 23/17 A2996 RMK CI1 SLP145=

CYQG;2006-05-27 16:00;METAR CYQG 271600Z 19002KT 15SM FEW300 25/18 A2996 RMK CI1 SLP143=

CYQG;2006-05-27 18:00;METAR CYQG 271800Z 14005KT 15SM FEW036 BKN300 26/18 A2996 RMK CF1CI1 SLP145=

CYQG;2006-05-27 21:00;METAR CYQG 272100Z 18009KT 15SM OVC300 27/17 A2997 RMK CS2 SLP147=

CYQG;2006-05-27 23:00;METAR CYQG 272300Z 17007KT 12SM BKN300 25/17 A2997 RMK CS2 SLP148=

CYQG;2006-05-28 00:00;METAR CYQG 280000Z 16007KT 12SM BKN300 24/17 A2999 RMK CS2 SLP153=

CYQG;2006-05-28 01:00;METAR CYQG 280100Z 14006KT 12SM SCT300 22/16 A3000 RMK CS2 SLP158=

CYQG;2006-05-28 02:00;METAR CYQG 280200Z 16004KT 15SM FEW300 20/15 A3001 RMK CS1 SLP162=

CYQG;2006-05-28 05:00;METAR CYQG 280500Z 16008KT 15SM SKC 19/15 A3002 RMK SLP163=

CYQG;2006-05-28 06:00;METAR CYQG 280600Z 16006KT 15SM SKC 19/15 A3002 RMK SLP165=

CYQG;2006-05-28 08:00;METAR CYQG 280800Z 17005KT 15SM SKC 19/15 A3004 RMK SLP171=

CYQG;2006-05-28 09:00;METAR CYQG 280900Z 17004KT 12SM SKC 19/15 A3005 RMK SLP174=

CYQG;2006-05-28 12:00;METAR CYQG 281200Z 19009KT 8SM FEW090 FEW280 21/17 A3009 RMK AC1CI1 SLP186=

CYQG;2006-05-28 13:00;METAR CYQG 281300Z 21008KT 10SM FEW090 FEW280 23/18 A3010 RMK AC1CI1 SLP189=

CYQG;2006-05-28 15:00;METAR CYQG 281500Z 20009KT 12SM FEW130 SCT290 26/19 A3011 RMK AC1CI1 SLP193=

CYQG;2006-05-28 16:00;METAR CYQG 281600Z 21014KT 12SM FEW050 FEW290 27/18 A3010 RMK CU1CI0 SLP190=

CYQG;2006-05-28 17:00;METAR CYQG 281700Z 21015KT 12SM SCT045 28/18 A3010 RMK CU4 SLP191=

CYQG;2006-05-28 21:00;METAR CYQG 282100Z 20013G18KT 10SM SCT240 30/20 A3005 RMK CI3 SLP172=

CYQG;2006-05-28 22:00;METAR CYQG 282200Z 21015KT 8SM FEW240 30/20 A3004 RMK CI2 SLP169=

CYQG;2006-05-29 00:00;METAR CYQG 290000Z 18009KT 7SM SCT240 29/20 A3004 RMK CI3 SLP168=

CYQG;2006-05-29 02:00;METAR CYQG 290200Z 18005KT 7SM SKC 25/19 A3005 RMK SLP174=

CYQG;2006-05-29 05:00;METAR CYQG 290500Z 18004KT 12SM SKC 23/19 A3007 RMK SLP179=

CYQG;2006-05-29 06:00;METAR CYQG 290600Z 20005KT 12SM SKC 24/18 A3008 RMK SLP183=

CYQG;2006-05-29 07:00;METAR CYQG 290700Z 19004KT 10SM SKC 23/18 A3008 RMK SLP183=

CYQG;2006-05-29 09:00;METAR CYQG 290900Z 21006KT 10SM FEW060 22/17 A3009 RMK CU2 SLP186=

CYQG;2006-05-29 10:00;METAR CYQG 291000Z 22003KT 6SM HZ FEW060 SCT270 22/18 A3009 RMK CU1CI1 SLP187=

CYQG;2006-05-29 11:00;METAR CYQG 291100Z 23002KT 5SM HZ FEW270 22/18 A3010 RMK CI1 SLP190=

CYQG;2006-05-29 12:00;METAR CYQG 291200Z 24004KT 5SM HZ FEW280 24/19 A3012 RMK CI1 SLP195=

CYQG;2006-05-29 13:00;METAR CYQG 291300Z 26005KT 6SM HZ FEW280 26/20 A3012 RMK CI1 SLP197=

CYQG;2006-05-29 14:00;METAR CYQG 291400Z 29004KT 7SM FEW290 29/21 A3013 RMK CI1 SLP198=

CYQG;2006-05-29 17:00;METAR CYQG 291700Z 20006KT 10SM FEW045 FEW290 32/20 A3011 RMK CU2CI0 SLP194=

CYQG;2006-05-29 19:00;METAR CYQG 291900Z 20007KT 10SM SCT057 SCT300 33/20 A3009 RMK CU3CI1 CB TOP DIST S SLP185=

CYQG;2006-05-29 21:00;METAR CYQG 292100Z 20006KT 10SM FEW065 FEW240 33/20 A3007 RMK CU2CI1 SLP178=

CYQG;2006-05-29 22:00;METAR CYQG 292200Z 18008KT 10SM FEW065 FEW240 33/20 A3006 RMK CU1CI2 SLP176=

CYQG;2006-05-29 23:00;METAR CYQG 292300Z 18010KT 7SM FEW240 31/20 A3005 RMK CI2 SLP173=

CYQG;2006-05-30 00:00;METAR CYQG 300000Z 19007KT 10SM FEW240 30/20 A3005 RMK CI1 SLP173=

CYQG;2006-05-30 01:00;METAR CYQG 300100Z 18006KT 8SM FEW240 28/20 A3006 RMK CI2 SLP176=

CYQG;2006-05-30 04:00;METAR CYQG 300400Z 18003KT 10SM SKC 25/19 A3007 RMK SLP180=

CYQG;2006-05-30 05:00;METAR CYQG 300500Z 21004KT 10SM SKC 25/19 A3010 RMK SLP187=

CYQG;2006-05-30 06:00;METAR CYQG 300600Z 19003KT 10SM SKC 24/20 A3009 RMK SLP185=

CYQG;2006-05-30 08:00;METAR CYQG 300800Z 18003KT 8SM SKC 23/20 A3007 RMK SLP178=

CYQG;2006-05-30 10:00;METAR CYQG 301000Z 24004KT 5SM HZ MIFG BKN280 23/20 A3007 RMK CI2 SLP180=

CYQG;2006-05-30 10:51;SPECI CYQG 301051Z 21002KT 2 1/2SM HZ MIFG BKN280 RMK CI2 CONTRAILS=

CYQG;2006-05-30 11:00;METAR CYQG 301100Z 21003KT 2 1/2SM HZ MIFG BKN280 23/20 A3008 RMK CI2 CONTRAILS SLP182=

CYQG;2006-05-30 11:32;SPECI CYQG 301132Z 21005KT 3SM HZ BKN280 RMK CI2=

CYQG;2006-05-30 12:00;METAR CYQG 301200Z 23004KT 5SM HZ SCT280 24/20 A3011 RMK CI1 SLP191=

CYQG;2006-05-30 13:00;METAR CYQG 301300Z 20004KT 5SM HZ SCT290 26/21 A3011 RMK CI1 SLP193=

CYQG;2006-05-30 14:00;METAR CYQG 301400Z 21004KT 6SM HZ FEW080 BKN290 28/20 A3012 RMK AC2CI1 SLP195=

CYQG;2006-05-30 15:00;METAR CYQG 301500Z 22005KT 7SM FEW075 BKN290 30/20 A3011 RMK AC1CI2 SLP191=

CYQG;2006-05-30 17:00;METAR CYQG 301700Z 20006KT 8SM FEW045 FEW075 BKN290 31/19 A3009 RMK CU1AC1CS3 SLP185=

CYQG;2006-05-30 18:00;METAR CYQG 301800Z 21008KT 10SM FEW055TCU OVC280 32/18 A3008 RMK TCU1CS6 SLP182=

CYQG;2006-05-30 19:00;METAR CYQG 301900Z 19010KT 8SM FEW055TCU OVC270 32/19 A3006 RMK TCU1CS6 SLP175=

CYQG;2006-05-30 20:00;METAR CYQG 302000Z 19009KT 8SM FEW055TCU BKN250 31/20 A3005 RMK TCU2CI4 SLP172=

CYQG;2006-05-30 21:00;METAR CYQG 302100Z 18007KT 7SM OVC240 31/21 A3004 RMK CS6 SLP170=

CYQG;2006-05-30 22:00;METAR CYQG 302200Z 16005KT 6SM HZ BKN240 31/20 A3003 RMK CS5 SLP166=

CYQG;2006-05-30 23:00;METAR CYQG 302300Z 19010KT 6SM HZ SCT160 BKN240 28/19 A3004 RMK AC3CI3 SLP168=

CYQG;2006-05-31 00:00;METAR CYQG 310000Z 21007KT 6SM HZ FEW160 BKN240 28/19 A3004 RMK AC2CS4 SLP169=

CYQG;2006-05-31 01:00;METAR CYQG 310100Z 24004KT 6SM HZ FEW160 BKN240 27/19 A3003 RMK AC2CI2 SLP166=

CYQG;2006-05-31 02:00;METAR CYQG 310200Z 00000KT 8SM BKN240 26/19 A3006 RMK CI6 SLP174=

CYQG;2006-05-31 03:00;METAR CYQG 310300Z 21002KT 7SM SCT210 25/19 A3006 RMK CI4 SLP175=

CYQG;2006-05-31 04:00;METAR CYQG 310400Z 25003KT 7SM SCT220 25/19 A3006 RMK CI2 SLP176=

CYQG;2006-05-31 06:00;METAR CYQG 310600Z 18004KT 6SM HZ BKN120 OVC260 23/20 A3006 RMK AC5CI2 SLP175=

CYQG;2006-05-31 07:00;METAR CYQG 310700Z 20003KT 6SM HZ SCT140 OVC260 23/20 A3006 RMK AC3CI4 SLP174=

CYQG;2006-05-31 09:00;METAR CYQG 310900Z 00000KT 5SM HZ SCT100 OVC260 22/20 A3005 RMK AC3CI3 SLP173=

CYQG;2006-05-31 10:00;METAR CYQG 311000Z 21003KT 2SM BR MIFG SCT130 BKN260 22/20 A3007 RMK AC3CI2 SLP177=

CYQG;2006-05-31 11:00;METAR CYQG 311100Z 00000KT 2 1/4SM HZ SCT140 OVC260 23/20 A3007 RMK AC3CI4 SLP180=

CYQG;2006-05-31 12:00;METAR CYQG 311200Z 00000KT 2 1/4SM HZ OVC200 24/21 A3008 RMK CS7 SLP184=

CYQG;2006-05-31 13:00;METAR CYQG 311300Z 24002KT 2 1/2SM HZ BKN240 25/21 A3008 RMK CI2 SLP183=

CYQG;2006-05-31 13:47;SPECI CYQG 311347Z 25005KT 6SM HZ SCT240 RMK CI2=

CYQG;2006-05-31 15:00;METAR CYQG 311500Z 21008KT 6SM HZ FEW200 SCT240 28/20 A3007 RMK CC2CI2 SLP177=

CYQG;2006-05-31 16:00;METAR CYQG 311600Z 27010KT 7SM FEW036 FEW200 BKN240 29/20 A3007 RMK CU1CC2CI3 SLP179=

CYQG;2006-05-31 18:00;METAR CYQG 311800Z 25013KT 10SM FEW044 BKN250 BKN300 30/19 A3005 RMK CU1CS4CI1 SLP171=

CYQG;2006-05-31 19:00;METAR CYQG 311900Z 23010G18KT 10SM FEW044TCU BKN300 31/20 A3004 RMK TCU2CS3 SLP167=

CYQG;2006-05-31 20:00;METAR CYQG 312000Z 24011G16KT 15SM SCT050TCU SCT160 BKN280 31/20 A3003 RMK TCU3AC1CC2 CI ASOCTD SLP164=

CYQG;2006-05-31 20:25;SPECI CYQG 312025Z 24007KT 15SM -SHRA BKN042TCU BKN280 RMK TCU6CC2=

CYQG;2006-05-31 20:52;SPECI CYQG 312052Z 22006KT 15SM BKN050TCU BKN280 RMK TCU6CI2=

CYQG;2006-05-31 21:00;METAR CYQG 312100Z 23008KT 15SM VCSH BKN060TCU 29/20 A3002 RMK TCU7 CB TOPS ALQDS SLP163=

CYQG;2006-05-31 22:00;METAR CYQG 312200Z 25007G15KT 15SM -TSRA BKN060CB BKN300 25/21 A3003 RMK CB6CI1 LTGICCG NE SLP167=

CYQG;2006-05-31 22:14;SPECI CYQG 312214Z 29003KT 15SM TS BKN065CB BKN300 RMK CB6CI2 LTGICCG NE OCNL SHRA=

CYQG;2006-05-31 22:36;SPECI CYQG 312236Z 36006KT 15SM BKN040CB BKN160 BKN300 RETS RMK CB5AC1CI1=

CYQG;2006-05-31 23:00;METAR CYQG 312300Z 00000KT 15SM VCSH SCT045TCU SCT080 BKN300 24/20 A3002 RETS RMK TCU3AC1CI2 CB TOPS ALQDS SLP162=

CYQG;2006-05-31 23:23;SPECI CYQG 312323Z 30017KT 15SM TS VCSH SCT029CB BKN070 BKN300 RMK CB4AC1CI2=

CYQG;2006-05-31 23:51;SPECI CYQG 312351Z 29007KT 15SM -TSRA BKN060CB BKN320 RMK CB6CI2=

CYQG;2006-06-01 00:28;SPECI CYQG 010028Z 35002KT 15SM SCT050TCU BKN080 BKN320 RETS RMK TCU4AC1CI2=

CYQG;2006-06-01 01:00;METAR CYQG 010100Z 22002KT 15SM SCT080TCU BKN140 BKN320 24/19 A3004 RETS RMK TCU3AC2CI2 SLP170=

CYQG;2006-06-01 03:00;METAR CYQG 010300Z 04011KT 5SM BR SCT006 BKN180 21/19 A3006 RMK SF3AC4 SLP177=

CYQG;2006-06-01 03:15;SPECI CYQG 010315Z 04009KT 4SM BR BKN005 OVC180 RMK SF6AC2=

CYQG;2006-06-01 06:00;METAR CYQG 010600Z 04005KT 5SM BR OVC005 20/18 A3006 RMK SF8 SLP175=

CYQG;2006-06-01 06:28;SPECI CYQG 010628Z 03008KT 5SM BR OVC003 RMK SF8=

CYQG;2006-06-01 07:00;METAR CYQG 010700Z 03007KT 5SM BR OVC004 19/18 A3006 RMK SF8 CIG VRB 3-5 SLP176=

CYQG;2006-06-01 07:37;SPECI CYQG 010737Z 03007KT 8SM FEW004 OVC012 RMK SF2SC6=

CYQG;2006-06-01 09:00;METAR CYQG 010900Z 36006KT 8SM OVC014 19/17 A3005 RMK SC8 SLP173=

CYQG;2006-06-01 10:00;METAR CYQG 011000Z 01005KT 7SM OVC011 20/17 A3006 RMK SC8 SLP175=

CYQG;2006-06-01 12:00;METAR CYQG 011200Z 36006KT 6SM HZ OVC009 20/17 A3006 RMK SF8 SLP177=

CYQG;2006-06-01 12:40;SPECI CYQG 011240Z 36007KT 6SM HZ OVC012 RMK SF8=

CYQG;2006-06-01 13:00;METAR CYQG 011300Z 36006KT 7SM OVC012 20/15 A3007 RMK SF8 SLP181=

CYQG;2006-06-01 13:32;SPECI CYQG 011332Z 36003KT 8SM BKN015 OVC027 RMK SC5SC3=

CYQG;2006-06-01 14:00;METAR CYQG 011400Z 02007KT 10SM BKN016 OVC028 20/16 A3007 RMK SC6SC2 SLP180=

CYQG;2006-06-01 15:00;METAR CYQG 011500Z 04005KT 12SM FEW020 OVC160 20/15 A3006 RMK SC2AC6 SLP179=

CYQG;2006-06-01 16:00;METAR CYQG 011600Z 07002KT 15SM BKN140 21/16 A3007 RMK AC7 SLP181=

CYQG;2006-06-01 17:00;METAR CYQG 011700Z 31003KT 15SM FEW050 BKN150 23/15 A3007 RMK SC2AC6 SLP180=

CYQG;2006-06-01 18:00;METAR CYQG 011800Z 01008KT 15SM FEW030 BKN064 BKN150 24/16 A3006 RMK CF1CU6AC2 SLP177=

CYQG;2006-06-01 20:00;METAR CYQG 012000Z 08003KT 15SM FEW036 SCT160 OVC300 25/16 A3002 RMK CU1AC3CS3 SLP163=

CYQG;2006-06-01 21:00;METAR CYQG 012100Z 05007KT 15SM FEW036 SCT190 BKN300 26/16 A3000 RMK CU1AC2CS2 SLP158=

CYQG;2006-06-01 22:00;METAR CYQG 012200Z 06010KT 15SM FEW036 BKN150 25/14 A2999 RMK CU1AC6 SLP153=

CYQG;2006-06-02 00:00;METAR CYQG 020000Z 05008KT 15SM BKN160 BKN300 23/14 A2998 RMK AC6CI0 SLP151=

CYQG;2006-06-02 01:00;METAR CYQG 020100Z 04006KT 15SM FEW032 BKN160 OVC300 22/14 A2999 RMK CU0AC6CI1 SLP153=

CYQG;2006-06-02 02:00;METAR CYQG 020200Z 05006KT 15SM BKN160 21/13 A3001 RMK AC7 SLP160=

CYQG;2006-06-02 03:00;METAR CYQG 020300Z 05006KT 15SM BKN190 20/13 A3001 RMK AC7 SLP163=

CYQG;2006-06-02 04:00;METAR CYQG 020400Z 02006KT 15SM BKN190 19/13 A3001 RMK AC7 SLP162=

CYQG;2006-06-02 05:00;METAR CYQG 020500Z 03007KT 15SM BKN160 19/13 A3000 RMK AC7 SLP159=

CYQG;2006-06-02 06:00;METAR CYQG 020600Z 05004KT 15SM BKN150 18/13 A2999 RMK AC7 SLP155=

CYQG;2006-06-02 10:00;METAR CYQG 021000Z 03005KT 15SM BKN150 OVC250 18/14 A2998 RMK AC7CI1 SLP151=

CYQG;2006-06-02 11:00;METAR CYQG 021100Z 04005KT 12SM OVC120 18/14 A2999 RMK AC8 SLP155=

CYQG;2006-06-02 12:00;METAR CYQG 021200Z 04005KT 15SM OVC130 18/14 A2999 RMK AC8 SLP154=

CYQG;2006-06-02 13:00;METAR CYQG 021300Z 04006KT 15SM OVC130 18/14 A2999 RMK AC8 SLP155=

CYQG;2006-06-02 15:00;METAR CYQG 021500Z 03007KT 15SM BKN120 OVC150 20/14 A2999 RMK AC5AS3 SLP153=

CYQG;2006-06-02 16:00;METAR CYQG 021600Z 04009KT 15SM SCT130 OVC160 20/13 A2998 RMK AC3AS5 SLP151=

CYQG;2006-06-02 18:00;METAR CYQG 021800Z 04004KT 15SM FEW030 SCT140 OVC180 22/12 A2997 RMK CF1AC3AS5 SLP148=

CYQG;2006-06-02 20:00;METAR CYQG 022000Z 04006KT 15SM FEW044 BKN170 23/11 A2995 RMK CU0AC7 SLP141=

CYQG;2006-06-02 22:00;METAR CYQG 022200Z 05006KT 15SM FEW080 FEW200 BKN220 BKN300 23/13 A2992 RMK ACC0CC1CS5CI1 SLP131=

CYQG;2006-06-02 23:00;METAR CYQG 022300Z 07005KT 15SM FEW080 FEW220 BKN300 23/13 A2992 RMK ACC1CS2CI4 SLP130=

CYQG;2006-06-03 00:00;METAR CYQG 030000Z 05006KT 15SM FEW044TCU FEW220 BKN300 23/14 A2992 RMK TCU0CS2CI2 SLP130=

CYQG;2006-06-03 01:00;METAR CYQG 030100Z 04006KT 15SM FEW044CB FEW120 SCT300 18/13 A2993 RMK CB1AC1CI2 CB NW-SW MVNG S SLP133=

CYQG;2006-06-03 03:00;METAR CYQG 030300Z 34014G20KT 15SM BKN130 19/12 A2995 RMK AC5 SLP142=

CYQG;2006-06-03 06:00;METAR CYQG 030600Z 36010KT 15SM FEW082 BKN120 18/11 A2992 RMK AC1AC5 SLP129=

CYQG;2006-06-03 07:00;METAR CYQG 030700Z 35008KT 15SM SCT080 BKN120 17/11 A2991 RMK AC3AC2 SLP126=

CYQG;2006-06-03 09:00;METAR CYQG 030900Z 08004KT 15SM FEW075 BKN094 16/14 A2992 RMK AC2AC5 SLP129=

CYQG;2006-06-03 11:00;METAR CYQG 031100Z 34002KT 10SM BKN018 BKN070 17/14 A2994 RMK SC6AC1 SLP136=

CYQG;2006-06-03 12:00;METAR CYQG 031200Z 34007KT 12SM FEW015 SCT080 17/13 A2994 RMK CF1AC2 SLP136=

CYQG;2006-06-03 13:00;METAR CYQG 031300Z 36009KT 12SM FEW015 FEW100 18/13 A2994 RMK CU1AC2 SLP138=

CYQG;2006-06-03 14:00;METAR CYQG 031400Z 33009KT 15SM FEW020 BKN120 19/13 A2995 RMK CU1AC5 SLP141=

CYQG;2006-06-03 15:00;METAR CYQG 031500Z 36009G15KT 15SM SCT023 BKN130 20/14 A2995 RMK CU4AC1 SLP140=

CYQG;2006-06-03 16:40;SPECI CYQG 031640Z 03007KT 15SM -SHRA BKN030TCU BKN130 RMK TCU6AC1=

CYQG;2006-06-03 17:00;METAR CYQG 031700Z 34005KT 15SM -SHRA BKN030TCU 21/14 A2993 RMK TCU7 SLP134=

CYQG;2006-06-03 17:05;SPECI CYQG 031705Z 04005KT 15SM BKN030TCU BKN240 RMK TCU6CI1=

CYQG;2006-06-03 17:23;SPECI CYQG 031723Z 04005KT 15SM -SHRA BKN030TCU BKN240 RMK TCU6CI1=

CYQG;2006-06-03 18:00;METAR CYQG 031800Z 33008KT 10SM -SHRA BKN030TCU BKN240 20/15 A2991 RMK TCU6CI1 CB EMBD IN TCU SLP127=

CYQG;2006-06-03 18:25;SPECI CYQG 031825Z 34007KT 10SM BKN030TCU BKN180 BKN240 RMK TCU5AC1CI1=

CYQG;2006-06-03 19:23;SPECI CYQG 031923Z 32008KT 15SM TS SCT030CB SCT200 BKN300 RMK CB3CS1CI1=

CYQG;2006-06-03 19:35;SPECI CYQG 031935Z 32013KT 15SM SCT030CB SCT200 BKN300 RMK CB3CS1CI1 TS W MVNG S=

CYQG;2006-06-03 19:47;SPECI CYQG 031947Z 01012G18KT 15SM BKN035CB BKN140 BKN300 RMK CB5AC1CI1=

CYQG;2006-06-03 20:40;SPECI CYQG 032040Z 03009KT 15SM TS VCSH BKN035CB BKN150 RMK CB5AC1=

CYQG;2006-06-03 20:53;SPECI CYQG 032053Z 04010KT 6SM -TSRA BKN040CB BKN150 RMK CB6AC1=

CYQG;2006-06-03 21:25;SPECI CYQG 032125Z 08008KT 15SM TS VCSH BKN040CB BKN140 RMK CB6AC1 TS W MOVG S LTGINCCC=

CYQG;2006-06-03 22:10;SPECI CYQG 032210Z 08011KT 10SM TSRA OVC060CB RMK CB8=

CYQG;2006-06-03 22:38;SPECI CYQG 032238Z 08006KT 3SM TSRA OVC065CB RMK CB8=

CYQG;2006-06-03 22:44;SPECI CYQG 032244Z 07006KT 6SM TSRA BKN065CB RMK CB7=

CYQG;2006-06-03 23:00;METAR CYQG 032300Z 03005KT 10SM TS FEW045 BKN090CB 17/14 A2992 RMK CF0CB7 LTNINC CC CG SLP131=

CYQG;2006-06-03 23:09;SPECI CYQG 032309Z 01004KT 10SM -SHRA FEW045 BKN090CB RETS RMK CF0CB7=

CYQG;2006-06-03 23:49;SPECI CYQG 032349Z 31002KT 15SM FEW009CB BKN140 RMK CB2AC5=

CYQG;2006-06-04 00:00;METAR CYQG 040000Z 33003KT 15SM FEW009CB BKN140 17/14 A2993 RMK CB2AC5 SLP135=

CYQG;2006-06-04 01:00;METAR CYQG 040100Z 32003KT 15SM FEW060CB FEW080 BKN100 BKN200 17/14 A2993 RMK CB1ACC0AC5CS2 SLP135=

CYQG;2006-06-04 03:00;METAR CYQG 040300Z 35006KT 15SM FEW220 FEW250 16/13 A2994 RMK CC2CI1 SLP139=

CYQG;2006-06-04 04:00;METAR CYQG 040400Z 02006KT 15SM BKN071 15/12 A2996 RMK AC5 SLP144=

CYQG;2006-06-04 05:18;SPECI CYQG 040518Z 04010G16KT 15SM -SHRA OVC078 RMK AC8=

CYQG;2006-06-04 05:44;SPECI CYQG 040544Z 04008KT 15SM BKN088 RMK AC6=

CYQG;2006-06-04 06:41;SPECI CYQG 040641Z 04012G18KT 15SM -SHRA OVC081 RMK AC8=

CYQG;2006-06-04 08:00;METAR CYQG 040800Z 02014KT 10SM -RA SCT019 OVC036 14/11 A2994 RMK SC3SC5 SLP138=

CYQG;2006-06-04 09:00;METAR CYQG 040900Z 03011KT 15SM -RA BKN017 OVC069 14/12 A2995 RMK SC5AC3 SLP140=

CYQG;2006-06-04 10:00;METAR CYQG 041000Z 36007KT 15SM -RA SCT020 OVC077 14/12 A2996 RMK SC3AC5 SLP144=

CYQG;2006-06-04 10:48;SPECI CYQG 041048Z 01005KT 12SM FEW009 SCT025 BKN078 RMK CF1SC3AC4=

CYQG;2006-06-04 11:00;METAR CYQG 041100Z 36005KT 12SM FEW025 BKN067 14/12 A2997 RMK SC2AC5 SLP149=

CYQG;2006-06-04 11:20;SPECI CYQG 041120Z 35004KT 12SM -SHRA FEW025 OVC067 RMK SC2AC6=

CYQG;2006-06-04 12:00;METAR CYQG 041200Z 36004KT 15SM -SHRA BKN060 BKN080 14/13 A2999 RMK SC5AC2 SLP155=

CYQG;2006-06-04 13:00;METAR CYQG 041300Z 36003KT 15SM -SHRA FEW050 OVC080 15/13 A3000 RMK SC1AS7 SLP158=

CYQG;2006-06-04 13:31;SPECI CYQG 041331Z 03005KT 15SM FEW060 BKN090 RMK SC1AS7=

CYQG;2006-06-04 14:00;METAR CYQG 041400Z 35008KT 15SM FEW050 FEW090 BKN250 17/13 A3000 RMK CF1AC2CS2 SLP160=

CYQG;2006-06-04 15:00;METAR CYQG 041500Z 01010KT 15SM FEW050 FEW100 BKN250 19/12 A3000 RMK CU1AC2CI5 SLP158=

CYQG;2006-06-04 17:00;METAR CYQG 041700Z 03009KT 15SM FEW050 BKN250 21/13 A2998 RMK CU2CI3 SLP153=

CYQG;2006-06-04 18:00;METAR CYQG 041800Z 03010G15KT 15SM FEW050 BKN250 22/11 A2997 RMK CU2CI2 SLP148=

CYQG;2006-06-04 19:00;METAR CYQG 041900Z 04015KT 15SM FEW050 FEW250 23/10 A2996 RMK CU2CI1 SLP144=

CYQG;2006-06-04 20:00;METAR CYQG 042000Z 06013G18KT 15SM FEW060 FEW270 23/08 A2995 RMK CU2CI1 TCU TOPS E SLP143=

CYQG;2006-06-04 22:00;METAR CYQG 042200Z 04014G21KT 15SM FEW060 23/07 A2994 RMK CU1 CB TOPS DSNT ESE SLP139=

CYQG;2006-06-04 23:00;METAR CYQG 042300Z 04014KT 15SM FEW060 FEW270 22/06 A2994 RMK CU1CI0 SLP137=

CYQG;2006-06-05 01:00;METAR CYQG 050100Z 03007KT 15SM FEW270 19/10 A2995 RMK CI0 SLP143=

CYQG;2006-06-05 03:00;METAR CYQG 050300Z 02002KT 15SM FEW260 17/08 A2998 RMK CI0 SLP152=

CYQG;2006-06-05 04:00;METAR CYQG 050400Z 00000KT 15SM SKC 16/09 A2999 RMK SLP154=

CYQG;2006-06-05 05:00;METAR CYQG 050500Z 16004KT 15SM SKC 15/10 A3001 RMK SLP160=

CYQG;2006-06-05 06:00;METAR CYQG 050600Z 18002KT 15SM SKC 15/10 A3000 RMK SLP158=

CYQG;2006-06-05 07:00;METAR CYQG 050700Z 27003KT 15SM SKC 14/09 A2999 RMK SLP155=

CYQG;2006-06-05 08:00;METAR CYQG 050800Z 28003KT 15SM SKC 14/08 A2999 RMK SLP156=

CYQG;2006-06-05 09:00;METAR CYQG 050900Z 27004KT 15SM SKC 13/08 A3000 RMK SLP157=

CYQG;2006-06-05 11:00;METAR CYQG 051100Z 27006KT 15SM SCT270 15/07 A3001 RMK CI1 SLP162=

CYQG;2006-06-05 12:00;METAR CYQG 051200Z 31003KT 15SM FEW250 17/08 A3003 RMK CI1 SLP167=

CYQG;2006-06-05 13:00;METAR CYQG 051300Z 31011KT 15SM FEW250 21/08 A3003 RMK CI1 SLP169=

CYQG;2006-06-05 14:00;METAR CYQG 051400Z 29011KT 15SM FEW250 23/07 A3003 RMK CI1 SLP167=

CYQG;2006-06-05 16:00;METAR CYQG 051600Z 32008G15KT 15SM SCT250 25/07 A3002 RMK CI1 SLP163=

CYQG;2006-06-05 17:00;METAR CYQG 051700Z 35013KT 15SM BKN250 25/07 A3001 RMK CI2 SLP161=

CYQG;2006-06-05 18:00;METAR CYQG 051800Z 33011KT 15SM FEW250 26/06 A3000 RMK CI1 SLP158=

CYQG;2006-06-05 19:00;METAR CYQG 051900Z 34009G16KT 15SM FEW060 FEW250 26/07 A2999 RMK CF1CI1 SLP154=

CYQG;2006-06-05 20:00;METAR CYQG 052000Z 01009KT 15SM FEW060 FEW270 27/08 A2997 RMK CU1CI1 SLP148=

CYQG;2006-06-05 21:00;METAR CYQG 052100Z 33009KT 15SM FEW060 FEW280 27/06 A2997 RMK CU1CI1 SLP147=

CYQG;2006-06-05 22:00;METAR CYQG 052200Z 05009KT 15SM FEW063 FEW280 27/07 A2996 RMK CU1CI1 SLP145=

CYQG;2006-06-06 00:00;METAR CYQG 060000Z 08006KT 15SM FEW063 FEW290 24/09 A2997 RMK CF1CI1 CONTRAILS SLP148=

CYQG;2006-06-06 02:00;METAR CYQG 060200Z 00000KT 15SM FEW290 21/10 A2998 RMK CI1 SLP149=

CYQG;2006-06-06 03:00;METAR CYQG 060300Z 00000KT 15SM FEW290 19/11 A2998 RMK CI1 SLP151=

CYQG;2006-06-06 04:00;METAR CYQG 060400Z 00000KT 15SM FEW290 19/11 A2998 RMK CI0 SLP150=

CYQG;2006-06-06 05:00;METAR CYQG 060500Z 27003KT 15SM FEW290 18/11 A2998 RMK CI0 CONTRAILS SLP149=

CYQG;2006-06-06 06:00;METAR CYQG 060600Z 29002KT 15SM SKC 17/11 A2997 RMK SLP147=

CYQG;2006-06-06 07:00;METAR CYQG 060700Z 00000KT 15SM SKC 16/11 A2997 RMK SLP147=

CYQG;2006-06-06 09:00;METAR CYQG 060900Z 27004KT 15SM SKC 18/10 A2997 RMK SLP147=

CYQG;2006-06-06 10:00;METAR CYQG 061000Z 00000KT 10SM FEW030 17/10 A2999 RMK CF0 SLP153=

CYQG;2006-06-06 11:00;METAR CYQG 061100Z 00000KT 12SM FEW250 18/11 A3000 RMK CI0 SLP156=

CYQG;2006-06-06 12:00;METAR CYQG 061200Z 00000KT 12SM FEW250 20/12 A3000 RMK CI0 SLP158=

CYQG;2006-06-06 13:00;METAR CYQG 061300Z 00000KT 15SM FEW250 23/12 A3000 RMK CI1 SLP157=

CYQG;2006-06-06 14:00;METAR CYQG 061400Z 03002KT 15SM FEW250 25/11 A3000 RMK CI1 SLP156=

CYQG;2006-06-06 15:00;METAR CYQG 061500Z 25003KT 15SM FEW250 26/09 A2999 RMK CI1 SLP152=

CYQG;2006-06-06 16:00;METAR CYQG 061600Z 23007KT 15SM FEW060 FEW250 27/08 A2998 RMK CF1CI0 SLP150=

CYQG;2006-06-06 17:00;METAR CYQG 061700Z 20002KT 15SM FEW060 FEW250 27/09 A2998 RMK CF1CI1 SLP148=

CYQG;2006-06-06 18:00;METAR CYQG 061800Z 28004KT 15SM FEW060 FEW250 28/09 A2996 RMK CF1CI1 SLP144=

CYQG;2006-06-06 19:00;METAR CYQG 061900Z 27005KT 15SM FEW060 BKN250 28/10 A2994 RMK CF1CI2 SLP137=

CYQG;2006-06-06 22:00;METAR CYQG 062200Z 20007KT 15SM OVC270 28/09 A2991 RMK CS6 SLP127=

CYQG;2006-06-06 23:00;METAR CYQG 062300Z 17008KT 15SM OVC260 26/09 A2990 RMK CS7 SLP124=

CYQG;2006-06-07 00:00;METAR CYQG 070000Z 17007KT 15SM OVC250 25/09 A2990 RMK CS8 SLP124=

CYQG;2006-06-07 01:00;METAR CYQG 070100Z 16008KT 15SM OVC240 23/11 A2990 RMK CS7 SLP124=

CYQG;2006-06-07 02:00;METAR CYQG 070200Z 16006KT 15SM OVC230 22/11 A2991 RMK CS6 SLP127=

CYQG;2006-06-07 03:00;METAR CYQG 070300Z 17005KT 15SM FEW090 OVC210 21/11 A2991 RMK AC1CS6 SLP126=

CYQG;2006-06-07 04:00;METAR CYQG 070400Z 18005KT 15SM OVC210 21/11 A2991 RMK CS8 SLP124=

CYQG;2006-06-07 07:00;METAR CYQG 070700Z 17004KT 15SM FEW180 20/13 A2986 RMK AS2 SLP108=

CYQG;2006-06-07 08:00;METAR CYQG 070800Z 21006KT 15SM BKN150 20/13 A2986 RMK AC6 SLP107=

CYQG;2006-06-07 09:00;METAR CYQG 070900Z 19005KT 15SM BKN160 20/14 A2986 RMK AC7 SLP107=

CYQG;2006-06-07 11:00;METAR CYQG 071100Z 20004KT 10SM SCT120 BKN160 BKN300 20/15 A2987 RMK AC3AC2CI1 SLP112=

CYQG;2006-06-07 12:00;METAR CYQG 071200Z 24004KT 15SM SCT110 BKN300 21/14 A2988 RMK AC4CI2 SLP114=

CYQG;2006-06-07 13:00;METAR CYQG 071300Z 25006KT 15SM SCT120 BKN280 22/14 A2989 RMK AC3CI2 SLP118=

CYQG;2006-06-07 16:00;METAR CYQG 071600Z 28007KT 15SM -SHRA BKN087 OVC270 22/14 A2989 RMK AC6CS2 SLP118=

CYQG;2006-06-07 17:00;METAR CYQG 071700Z 24004KT 15SM -SHRA OVC081 21/15 A2989 RMK AC8 SLP120=

CYQG;2006-06-07 20:00;METAR CYQG 072000Z 14003KT 15SM FEW030 OVC090 21/13 A2986 RMK CF1AC7 SLP110=

CYQG;2006-06-07 21:00;METAR CYQG 072100Z 18005KT 15SM FEW035 BKN090 BKN270 22/13 A2984 RMK CU1AC6CI1 SLP103=

CYQG;2006-06-07 22:00;METAR CYQG 072200Z 17002KT 15SM BKN090 BKN270 23/14 A2983 RMK AC5CI1 SLP099=

CYQG;2006-06-07 23:00;METAR CYQG 072300Z 22006KT 15SM FEW090 FEW270 23/14 A2983 RMK AC2CI1 SLP101=

CYQG;2006-06-08 00:00;METAR CYQG 080000Z 22002KT 12SM FEW090 FEW280 23/14 A2984 RMK AC1CI1 SLP102=

CYQG;2006-06-08 01:00;METAR CYQG 080100Z 08003KT 12SM FEW100 FEW280 21/14 A2985 RMK AC1CI1 CONTRAILS SLP105=

CYQG;2006-06-08 02:00;METAR CYQG 080200Z 07002KT 12SM FEW100 FEW280 20/14 A2986 RMK AC1CI1 SLP110=

CYQG;2006-06-08 03:00;METAR CYQG 080300Z 00000KT 12SM FEW150 19/14 A2987 RMK AC2 SLP112=

CYQG;2006-06-08 05:00;METAR CYQG 080500Z 03005KT 8SM SCT110 BKN150 19/15 A2987 RMK AC3AC4 SLP113=

CYQG;2006-06-08 07:00;METAR CYQG 080700Z 36002KT 8SM OVC100 19/15 A2985 RMK AC8 SLP107=

CYQG;2006-06-08 09:00;METAR CYQG 080900Z 33003KT 8SM BKN110 19/14 A2985 RMK AC6 SLP107=

CYQG;2006-06-08 10:00;METAR CYQG 081000Z 35004KT 10SM FEW120 18/14 A2986 RMK AC2 SLP111=

CYQG;2006-06-08 11:00;METAR CYQG 081100Z 35004KT 10SM FEW120 19/14 A2989 RMK AC1 SLP118=

CYQG;2006-06-08 12:00;METAR CYQG 081200Z 01005KT 15SM SKC 20/14 A2990 RMK SLP122=

CYQG;2006-06-08 13:00;METAR CYQG 081300Z 36009KT 15SM SKC 21/13 A2991 RMK SLP126=

CYQG;2006-06-08 14:00;METAR CYQG 081400Z 01005KT 15SM SKC 22/13 A2991 RMK SLP125=

CYQG;2006-06-08 15:00;METAR CYQG 081500Z 01005KT 15SM SKC 24/13 A2991 RMK SLP126=

CYQG;2006-06-08 16:00;METAR CYQG 081600Z 02006KT 15SM FEW300 25/14 A2992 RMK CI0 SLP128=

CYQG;2006-06-08 17:00;METAR CYQG 081700Z 36008KT 15SM BKN280 26/14 A2991 RMK CI2 CI ASOCTD SLP126=

CYQG;2006-06-08 18:00;METAR CYQG 081800Z 04005KT 15SM FEW060 BKN280 27/13 A2989 RMK CU2CI1 SLP119=

CYQG;2006-06-08 19:00;METAR CYQG 081900Z 04005KT 15SM -SHRA SCT080 BKN110 BKN280 27/12 A2987 RMK CU3AC2CI1 SLP113=

CYQG;2006-06-08 19:37;SPECI CYQG 081937Z 33002KT 15SM FEW085TCU SCT110 SCT280 RMK TCU2AC1CI0=

CYQG;2006-06-08 20:29;SPECI CYQG 082029Z 36009KT 12SM -SHRA BKN065TCU BKN120 RMK TCU6AC1=

CYQG;2006-06-08 21:00;METAR CYQG 082100Z 05012G24KT 12SM -SHRA BKN070TCU BKN110 22/15 A2988 RMK TCU5AC2 SLP115=

CYQG;2006-06-08 21:26;SPECI CYQG 082126Z 07013KT 12SM SCT065TCU SCT100 BKN280 RMK TCU3AC1CI2=

CYQG;2006-06-08 22:00;METAR CYQG 082200Z 12007KT 15SM SCT060TCU SCT100 BKN230 23/15 A2987 RMK TCU3AC1CI2 SLP113=

CYQG;2006-06-08 23:00;METAR CYQG 082300Z 19008KT 15SM FEW060CB BKN130 BKN230 23/15 A2987 RMK CB2AC3CI1 CB E-NE SLP114=

CYQG;2006-06-09 00:00;METAR CYQG 090000Z 17006KT 15SM FEW060TCU FEW110 SCT260 22/14 A2988 RMK TCU1AC2CI1 CB TOPS DIST E-S SLP117=

CYQG;2006-06-09 01:00;METAR CYQG 090100Z 10003KT 15SM FEW060TCU SCT150 21/14 A2989 RMK TCU2AC2 SLP120=

CYQG;2006-06-09 01:38;SPECI CYQG 090138Z 05011KT 15SM -SHRA BKN070TCU BKN120 RMK TCU6AC2=

CYQG;2006-06-09 02:00;METAR CYQG 090200Z 08007KT 12SM -SHRA SCT065TCU BKN110 20/14 A2991 RMK TCU3AC2 SLP127=

CYQG;2006-06-09 02:36;SPECI CYQG 090236Z 09002KT 15SM FEW065TCU BKN090 RMK TCU2AC4=

CYQG;2006-06-09 03:00;METAR CYQG 090300Z 03005KT 15SM BKN090 19/14 A2992 RMK AC6 SLP130=

CYQG;2006-06-09 04:00;METAR CYQG 090400Z 33002KT 15SM BKN080 19/14 A2992 RMK AC6 SLP130=

CYQG;2006-06-09 05:00;METAR CYQG 090500Z 29003KT 15SM SCT078 18/14 A2992 RMK AC4 SLP128=

CYQG;2006-06-09 06:00;METAR CYQG 090600Z 27003KT 15SM FEW078 17/13 A2990 RMK AC2 SLP124=

CYQG;2006-06-09 07:00;METAR CYQG 090700Z 27007KT 15SM SCT075 18/13 A2989 RMK AC4 SLP119=

CYQG;2006-06-09 08:00;METAR CYQG 090800Z 31006KT 10SM BKN075 17/13 A2990 RMK AC5 SLP122=

CYQG;2006-06-09 09:00;METAR CYQG 090900Z 34010KT 15SM BKN075 17/12 A2990 RMK AC5 SLP124=

CYQG;2006-06-09 10:00;METAR CYQG 091000Z 35008KT 15SM FEW050 BKN075 BKN250 17/12 A2991 RMK CU1AC4CI1 SLP127=

CYQG;2006-06-09 11:00;METAR CYQG 091100Z 33007KT 15SM FEW060 BKN250 17/12 A2992 RMK CU1CI5 SLP130=

CYQG;2006-06-09 12:00;METAR CYQG 091200Z 35016KT 15SM FEW040 BKN280 18/13 A2993 RMK CF1CI5 SLP134=

CYQG;2006-06-09 13:00;METAR CYQG 091300Z 34011KT 15SM BKN020 BKN280 18/13 A2994 RMK CU5CI1 SLP137=

CYQG;2006-06-09 14:00;METAR CYQG 091400Z 36013KT 15SM BKN022 18/12 A2995 RMK CU7 SLP140=

CYQG;2006-06-09 15:00;METAR CYQG 091500Z 35012KT 15SM BKN034 18/12 A2995 RMK CU7 SLP141=

CYQG;2006-06-09 16:00;METAR CYQG 091600Z 01008KT 15SM BKN040 19/12 A2995 RMK CU7 SLP142=

CYQG;2006-06-09 17:00;METAR CYQG 091700Z 36011G17KT 15SM SCT030 BKN040 BKN280 20/13 A2995 RMK CU4SC2CI0 SLP140=

CYQG;2006-06-09 18:00;METAR CYQG 091800Z 36012KT 15SM BKN060 BKN280 21/11 A2994 RMK SC6CI1 SLP137=

CYQG;2006-06-09 19:00;METAR CYQG 091900Z 01009G17KT 15SM BKN063 BKN280 21/11 A2994 RMK CU6CI1 SLP136=

CYQG;2006-06-09 20:00;METAR CYQG 092000Z 02014KT 15SM SCT050 21/11 A2992 RMK CU3 SLP132=

CYQG;2006-06-09 21:00;METAR CYQG 092100Z 05015G22KT 15SM BKN054 BKN280 19/11 A2992 RMK CU5CI1 SLP131=

CYQG;2006-06-09 22:00;METAR CYQG 092200Z 04015KT 15SM FEW060 BKN280 20/11 A2992 RMK CU2CI2 SLP131=

CYQG;2006-06-09 23:00;METAR CYQG 092300Z 05016G21KT 15SM FEW063 BKN280 17/10 A2993 RMK SC1CI2 SLP134=

CYQG;2006-06-10 00:00;METAR CYQG 100000Z 05010KT 15SM FEW060 BKN280 17/09 A2995 RMK SC1CI2 SLP142=

CYQG;2006-06-10 01:00;METAR CYQG 100100Z 05015KT 15SM FEW065 BKN270 16/08 A2995 RMK SC1CI2 SLP142=

CYQG;2006-06-10 02:00;METAR CYQG 100200Z 04013G18KT 15SM FEW070 BKN260 15/08 A2997 RMK AC1CI2 SLP147=

CYQG;2006-06-10 03:00;METAR CYQG 100300Z 04013KT 15SM FEW070 BKN250 15/08 A2998 RMK AC2CI3 SLP152=

CYQG;2006-06-10 04:00;METAR CYQG 100400Z 02007KT 15SM SCT070 BKN250 14/07 A2998 RMK AC3CI3 SLP153=

CYQG;2006-06-10 05:00;METAR CYQG 100500Z 36008KT 15SM BKN040 BKN250 14/07 A2999 RMK SC5CI2 SLP155=

CYQG;2006-06-10 06:00;METAR CYQG 100600Z 01007KT 15SM FEW040 OVC250 13/07 A2998 RMK SC2CI6 SLP152=

CYQG;2006-06-10 07:00;METAR CYQG 100700Z 35005KT 15SM SCT060 BKN250 13/07 A2997 RMK SC4CI1 SLP148=

CYQG;2006-06-10 08:00;METAR CYQG 100800Z 35005KT 15SM FEW050 BKN060 13/06 A2997 RMK CF1SC6 SLP148=

CYQG;2006-06-10 09:00;METAR CYQG 100900Z 35006KT 15SM FEW050 SCT062 12/07 A2998 RMK CF1SC3 SLP153=

CYQG;2006-06-10 10:00;METAR CYQG 101000Z 36007KT 15SM FEW050 SCT062 12/07 A2998 RMK CF2SC2 SLP151=

CYQG;2006-06-10 11:00;METAR CYQG 101100Z 34007KT 15SM FEW050 BKN060 12/07 A2999 RMK CF1SC6 SLP155=

CYQG;2006-06-10 12:00;METAR CYQG 101200Z 36004KT 15SM FEW025 FEW120 BKN280 13/07 A3000 RMK CF1AC2CI5 SLP160=

CYQG;2006-06-10 13:00;METAR CYQG 101300Z 03010KT 15SM FEW025 BKN280 14/06 A2999 RMK CF1CS6 SLP158=

CYQG;2006-06-10 14:00;METAR CYQG 101400Z 04012KT 15SM FEW025 BKN280 15/05 A3000 RMK CF1CS6 SLP159=

CYQG;2006-06-10 16:00;METAR CYQG 101600Z 36010G15KT 15SM FEW030 BKN280 16/03 A2998 RMK SC1CI4 CS ASOCTD SLP152=

CYQG;2006-06-10 17:00;METAR CYQG 101700Z 36012KT 15SM FEW035 BKN280 17/02 A2997 RMK SC1CI2 SLP150=

CYQG;2006-06-10 18:00;METAR CYQG 101800Z 01009KT 15SM FEW040 BKN280 18/02 A2995 RMK SC1CI2 SLP143=

CYQG;2006-06-10 19:00;METAR CYQG 101900Z 04007KT 15SM FEW040 BKN280 19/03 A2994 RMK SC1CI2 SLP138=

CYQG;2006-06-10 20:00;METAR CYQG 102000Z 04004KT 15SM FEW045 BKN280 20/03 A2992 RMK SC1CI2 SLP133=

CYQG;2006-06-10 21:00;METAR CYQG 102100Z 32005KT 15SM FEW050 BKN280 20/03 A2992 RMK SC1CI1 SLP132=

CYQG;2006-06-10 22:00;METAR CYQG 102200Z 08009KT 15SM FEW060 FEW280 19/04 A2991 RMK CU1CI1 SLP128=

CYQG;2006-06-10 23:00;METAR CYQG 102300Z 05008KT 15SM FEW060 FEW280 19/05 A2990 RMK CU1CI1 SLP127=

CYQG;2006-06-11 00:00;METAR CYQG 110000Z 08008KT 15SM FEW055 FEW280 18/05 A2992 RMK CU1CI1 SLP131=

CYQG;2006-06-11 01:00;METAR CYQG 110100Z 06007KT 15SM FEW055 FEW280 16/05 A2992 RMK SC1CI1 SLP133=

CYQG;2006-06-11 02:00;METAR CYQG 110200Z 06010KT 15SM FEW280 15/06 A2994 RMK CI1 SLP138=

CYQG;2006-06-11 03:00;METAR CYQG 110300Z 05011KT 15SM FEW270 13/04 A2996 RMK CI1 SLP145=

CYQG;2006-06-11 04:00;METAR CYQG 110400Z 05009KT 15SM FEW270 12/04 A2997 RMK CI2 SLP148=

CYQG;2006-06-11 05:00;METAR CYQG 110500Z 05006KT 15SM FEW250 12/04 A2997 RMK CI1 SLP150=

CYQG;2006-06-11 06:00;METAR CYQG 110600Z 05009KT 15SM FEW250 11/04 A2996 RMK CI1 SLP146=

CYQG;2006-06-11 08:00;METAR CYQG 110800Z 36004KT 15SM FEW250 10/05 A2995 RMK CI2 SLP144=

CYQG;2006-06-11 09:00;METAR CYQG 110900Z 36004KT 15SM FEW250 10/05 A2995 RMK CI1 SLP141=

CYQG;2006-06-11 10:00;METAR CYQG 111000Z 33003KT 15SM BKN250 10/05 A2996 RMK CI2 SLP147=

CYQG;2006-06-11 11:00;METAR CYQG 111100Z 35004KT 15SM BKN250 11/06 A2997 RMK CI2 SLP150=

CYQG;2006-06-11 12:00;METAR CYQG 111200Z 04006KT 15SM FEW025 BKN280 13/06 A2996 RMK CF1CI4 SLP146=

CYQG;2006-06-11 13:00;METAR CYQG 111300Z 06006KT 15SM FEW025 FEW180 BKN280 14/06 A2997 RMK CF1AC1CI4 SLP150=

CYQG;2006-06-11 15:00;METAR CYQG 111500Z 05005KT 15SM FEW048 BKN280 15/06 A2998 RMK SC1CI2 SLP153=

CYQG;2006-06-11 16:00;METAR CYQG 111600Z 07006KT 15SM SCT045 BKN280 17/06 A2997 RMK SC3CI1 SLP150=

CYQG;2006-06-11 17:00;METAR CYQG 111700Z 03006KT 15SM FEW053 BKN280 18/06 A2997 RMK CU2CI1 SLP149=

CYQG;2006-06-11 18:00;METAR CYQG 111800Z 35007KT 15SM BKN060 BKN280 18/06 A2997 RMK SC6CI1 SLP148=

CYQG;2006-06-11 19:00;METAR CYQG 111900Z 09005KT 15SM BKN059 BKN280 19/06 A2996 RMK SC6CI1 SLP145=

CYQG;2006-06-11 20:00;METAR CYQG 112000Z 00000KT 15SM BKN062 BKN270 19/06 A2996 RMK SC6CI1 SLP146=

CYQG;2006-06-11 21:00;METAR CYQG 112100Z 06007KT 15SM SCT064 BKN270 19/06 A2995 RMK SC4CI2 SLP142=

CYQG;2006-06-11 22:00;METAR CYQG 112200Z 08008KT 15SM FEW067 BKN270 19/06 A2995 RMK AC2CI2 SLP142=

CYQG;2006-06-11 23:00;METAR CYQG 112300Z 06010KT 15SM FEW062 BKN260 19/07 A2995 RMK SC2CI2 SLP142=

CYQG;2006-06-12 00:00;METAR CYQG 120000Z 05011KT 15SM FEW064 SCT190 BKN240 18/08 A2995 RMK SC2AC2CI2 SLP144=

CYQG;2006-06-12 01:00;METAR CYQG 120100Z 06009KT 15SM BKN210 16/08 A2996 RMK CI5 SLP146=

CYQG;2006-06-12 02:00;METAR CYQG 120200Z 06007KT 15SM BKN210 15/08 A2998 RMK CI4 SLP151=

CYQG;2006-06-12 03:00;METAR CYQG 120300Z 05009KT 15SM BKN190 14/08 A3001 RMK AC5 SLP162=

CYQG;2006-06-12 04:00;METAR CYQG 120400Z 05008KT 15SM BKN190 13/07 A3002 RMK AC6 SLP167=

CYQG;2006-06-12 05:00;METAR CYQG 120500Z 35004KT 15SM BKN220 13/07 A3002 RMK CI6 SLP166=

CYQG;2006-06-12 06:00;METAR CYQG 120600Z 36005KT 15SM BKN220 12/05 A3002 RMK CI6 SLP168=

CYQG;2006-06-12 07:00;METAR CYQG 120700Z 01008KT 15SM BKN240 11/06 A3003 RMK CI6 SLP169=

CYQG;2006-06-12 08:00;METAR CYQG 120800Z 36005KT 15SM BKN250 11/06 A3003 RMK CI3 SLP170=

CYQG;2006-06-12 09:00;METAR CYQG 120900Z 36007KT 15SM FEW090 SCT260 10/06 A3004 RMK AC2CI1 SLP174=

CYQG;2006-06-12 10:00;METAR CYQG 121000Z 36006KT 15SM FEW016 FEW260 10/06 A3005 RMK CU1CI1 SLP178=

CYQG;2006-06-12 11:00;METAR CYQG 121100Z 35005KT 15SM FEW015 FEW240 10/07 A3007 RMK CF1CI1 SLP184=

CYQG;2006-06-12 12:00;METAR CYQG 121200Z 36007KT 15SM FEW030 FEW280 12/08 A3007 RMK SC1CI1 SLP185=

CYQG;2006-06-12 13:00;METAR CYQG 121300Z 01007KT 15SM FEW025 BKN036 14/08 A3008 RMK CF1SC6 SLP188=

CYQG;2006-06-12 14:00;METAR CYQG 121400Z 36006KT 15SM FEW025 BKN034 16/09 A3010 RMK CF1SC6 SLP192=

CYQG;2006-06-12 15:00;METAR CYQG 121500Z 03013G19KT 15SM FEW030 BKN038 17/09 A3009 RMK CF2SC4 SLP189=

CYQG;2006-06-12 16:00;METAR CYQG 121600Z 04013G20KT 15SM FEW025 BKN035 18/11 A3009 RMK CF1SC5 SLP191=

CYQG;2006-06-12 17:00;METAR CYQG 121700Z 06010G15KT 15SM SCT035 18/10 A3010 RMK SC3 SLP193=

CYQG;2006-06-12 18:00;METAR CYQG 121800Z 06009G15KT 15SM SCT035 19/11 A3010 RMK SC3 SLP194=

CYQG;2006-06-12 19:00;METAR CYQG 121900Z 04009G15KT 15SM FEW025 SCT040 20/11 A3010 RMK CF1SC3 SLP192=

CYQG;2006-06-12 20:00;METAR CYQG 122000Z 03009G15KT 15SM FEW040 SCT045 20/11 A3010 RMK CF2SC2 SLP192=

CYQG;2006-06-12 21:00;METAR CYQG 122100Z 09006KT 15SM BKN050 20/11 A3010 RMK SC6 SLP192=

CYQG;2006-06-12 22:00;METAR CYQG 122200Z 01006KT 15SM SCT050 21/11 A3010 RMK SC3 SLP193=

CYQG;2006-06-12 23:00;METAR CYQG 122300Z 05011KT 15SM BKN048 19/12 A3011 RMK SC6 SLP195=

CYQG;2006-06-13 00:00;METAR CYQG 130000Z 06010KT 15SM BKN048 BKN300 18/11 A3011 RMK SC5CI2 CONTRAILS SLP197=

CYQG;2006-06-13 01:00;METAR CYQG 130100Z 05006KT 15SM FEW050 BKN220 17/12 A3012 RMK SC2CI4 CONTRAILS SLP199=

CYQG;2006-06-13 02:00;METAR CYQG 130200Z 07006KT 15SM FEW050 FEW220 16/11 A3013 RMK SC1CI0 SLP202=

CYQG;2006-06-13 03:00;METAR CYQG 130300Z 06007KT 15SM SKC 15/11 A3014 RMK SLP206=

CYQG;2006-06-13 04:00;METAR CYQG 130400Z 05006KT 15SM SKC 14/10 A3013 RMK SLP204=

CYQG;2006-06-13 05:00;METAR CYQG 130500Z 36002KT 15SM SKC 14/10 A3014 RMK SLP205=

CYQG;2006-06-13 06:00;METAR CYQG 130600Z 00000KT 15SM SKC 13/10 A3012 RMK SLP200=

CYQG;2006-06-13 07:00;METAR CYQG 130700Z 35002KT 15SM SKC 13/10 A3012 RMK SLP201=

CYQG;2006-06-13 08:00;METAR CYQG 130800Z 00000KT 15SM SKC 13/09 A3014 RMK SLP205=

CYQG;2006-06-13 09:00;METAR CYQG 130900Z 36004KT 15SM FEW100 12/07 A3014 RMK AC1 SLP207=

CYQG;2006-06-13 10:00;METAR CYQG 131000Z 34003KT 15SM FEW100 FEW230 13/09 A3014 RMK AC1CI1 SLP208=

CYQG;2006-06-13 11:00;METAR CYQG 131100Z 34004KT 15SM FEW100 FEW230 13/09 A3015 RMK AC1CI0 SLP211=

CYQG;2006-06-13 12:00;METAR CYQG 131200Z 34005KT 15SM FEW100 FEW250 15/10 A3015 RMK AC1CI1 SLP211=

CYQG;2006-06-13 13:00;METAR CYQG 131300Z 05005KT 15SM FEW100 FEW250 17/09 A3015 RMK AC1CI1 SLP210=

CYQG;2006-06-13 14:00;METAR CYQG 131400Z 08005KT 15SM FEW250 18/10 A3015 RMK CI1 SLP211=

CYQG;2006-06-13 15:00;METAR CYQG 131500Z 14003KT 15SM BKN050 BKN250 19/10 A3015 RMK SC5CI1 SLP210=

CYQG;2006-06-13 16:00;METAR CYQG 131600Z 09006KT 15SM FEW054 FEW250 20/10 A3014 RMK CU1CI2 SLP208=

CYQG;2006-06-13 17:00;METAR CYQG 131700Z 03004KT 15SM SCT054 SCT250 21/11 A3013 RMK CU4CI1 SLP204=

CYQG;2006-06-13 18:00;METAR CYQG 131800Z 35005KT 15SM BKN054 21/10 A3011 RMK CU6 SLP196=

CYQG;2006-06-13 23:00;METAR CYQG 132300Z 18008KT 15SM SCT055 BKN070 21/12 A3007 RMK SC3AC3 SLP181=

CYQG;2006-06-14 00:00;METAR CYQG 140000Z 18007KT 15SM FEW070 SCT170 20/12 A3007 RMK AC2AC2 SLP182=

CYQG;2006-06-14 01:00;METAR CYQG 140100Z 18006KT 15SM BKN070 BKN160 19/12 A3008 RMK AC5AC2 SLP185=

CYQG;2006-06-14 04:00;METAR CYQG 140400Z 36002KT 15SM FEW050 BKN150 18/12 A3009 RMK SC2AC6 SLP190=

CYQG;2006-06-14 05:00;METAR CYQG 140500Z 00000KT 15SM BKN150 18/12 A3009 RMK AC6 SLP188=

CYQG;2006-06-14 06:00;METAR CYQG 140600Z 03006KT 15SM FEW077 BKN130 17/13 A3009 RMK AC1AC6 SLP187=

CYQG;2006-06-14 07:00;METAR CYQG 140700Z 04004KT 15SM OVC093 17/14 A3008 RMK AC8 SLP185=

CYQG;2006-06-14 09:00;METAR CYQG 140900Z 03006KT 15SM BKN090 16/13 A3009 RMK AC6 SLP188=

CYQG;2006-06-14 10:00;METAR CYQG 141000Z 05007KT 12SM SCT091 15/11 A3009 RMK AC3 SLP188=

CYQG;2006-06-14 11:00;METAR CYQG 141100Z 05007KT 12SM FEW100 16/12 A3010 RMK AC1 SLP191=

CYQG;2006-06-14 12:00;METAR CYQG 141200Z 04009KT 15SM FEW100 17/12 A3010 RMK AC1 SLP193=

CYQG;2006-06-14 13:00;METAR CYQG 141300Z 04009KT 15SM SKC 18/12 A3011 RMK SLP195=

CYQG;2006-06-14 15:00;METAR CYQG 141500Z 04011KT 15SM FEW040 FEW290 20/09 A3011 RMK CF1CI1 SLP194=

CYQG;2006-06-14 16:00;METAR CYQG 141600Z 06012KT 15SM FEW045 21/08 A3010 RMK CU1 SLP192=

CYQG;2006-06-14 17:00;METAR CYQG 141700Z 05011G18KT 15SM FEW050 22/09 A3009 RMK CU1 SLP190=

CYQG;2006-06-14 18:00;METAR CYQG 141800Z 02011G17KT 15SM FEW055 23/08 A3009 RMK CU1 SLP187=

CYQG;2006-06-14 19:00;METAR CYQG 141900Z 06012KT 15SM FEW055 23/08 A3007 RMK CU1 SLP183=

CYQG;2006-06-14 21:00;METAR CYQG 142100Z 05011G18KT 15SM FEW055 FEW300 23/05 A3006 RMK CU1CS1 SLP179=

CYQG;2006-06-14 22:00;METAR CYQG 142200Z 05015KT 15SM FEW250 FEW270 FEW300 23/04 A3005 RMK CS1CC1CI0 SLP174=

CYQG;2006-06-14 23:00;METAR CYQG 142300Z 05013G18KT 15SM FEW200 FEW250 23/04 A3005 RMK CC1CI1 SLP174=

CYQG;2006-06-15 00:00;METAR CYQG 150000Z 05011KT 15SM FEW240 22/06 A3005 RMK CS2 SLP176=

CYQG;2006-06-15 03:00;METAR CYQG 150300Z 03008KT 15SM SKC 18/08 A3007 RMK SLP183=

CYQG;2006-06-15 05:00;METAR CYQG 150500Z 02004KT 15SM SKC 17/07 A3009 RMK SLP189=

CYQG;2006-06-15 06:00;METAR CYQG 150600Z 01005KT 15SM SKC 16/06 A3008 RMK SLP184=

CYQG;2006-06-15 09:00;METAR CYQG 150900Z 36007KT 15SM SKC 14/06 A3011 RMK SLP195=

CYQG;2006-06-15 10:00;METAR CYQG 151000Z 36004KT 15SM FEW260 14/07 A3013 RMK CI1 SLP203=

CYQG;2006-06-15 11:00;METAR CYQG 151100Z 36004KT 15SM FEW260 15/07 A3015 RMK CI1 SLP210=

CYQG;2006-06-15 12:00;METAR CYQG 151200Z 01006KT 15SM SKC 17/08 A3017 RMK SLP215=

CYQG;2006-06-15 14:00;METAR CYQG 151400Z 02007KT 15SM SKC 22/07 A3019 RMK SLP221=

CYQG;2006-06-15 15:00;METAR CYQG 151500Z 04008KT 15SM SKC 22/07 A3020 RMK SLP224=

CYQG;2006-06-15 16:00;METAR CYQG 151600Z 06007KT 15SM FEW050 23/08 A3019 RMK CU1 SLP221=

CYQG;2006-06-15 17:00;METAR CYQG 151700Z 06003KT 15SM FEW055 24/07 A3019 RMK CF1 SLP221=

CYQG;2006-06-15 18:00;METAR CYQG 151800Z 09005KT 15SM FEW060 25/06 A3017 RMK CF1 SLP217=

CYQG;2006-06-15 20:00;METAR CYQG 152000Z 09008KT 15SM FEW060 25/07 A3015 RMK CF1 SLP209=

CYQG;2006-06-15 21:00;METAR CYQG 152100Z 07004KT 15SM FEW250 25/07 A3014 RMK CI0 SLP204=

CYQG;2006-06-15 22:00;METAR CYQG 152200Z 11007KT 15SM FEW250 26/07 A3012 RMK CI2 SLP200=

CYQG;2006-06-16 01:00;METAR CYQG 160100Z 19005KT 15SM FEW150 BKN250 22/09 A3013 RMK AC2CI1 SLP202=

CYQG;2006-06-16 03:00;METAR CYQG 160300Z 16002KT 15SM FEW250 20/11 A3015 RMK CI2 SLP207=

CYQG;2006-06-16 04:00;METAR CYQG 160400Z 14002KT 15SM SKC 19/11 A3015 RMK SLP208=

CYQG;2006-06-16 07:00;METAR CYQG 160700Z 19003KT 15SM BKN270 17/12 A3015 RMK CI4 SLP208=

CYQG;2006-06-16 09:00;METAR CYQG 160900Z 20004KT 15SM FEW080 FEW270 18/13 A3016 RMK AC1CI0 SLP212=

CYQG;2006-06-16 10:00;METAR CYQG 161000Z 20004KT 15SM FEW080 BKN270 18/13 A3017 RMK AC1CI1 SLP216=

CYQG;2006-06-16 12:00;METAR CYQG 161200Z 22008KT 15SM FEW090 BKN270 20/13 A3020 RMK AC2CI1 SLP226=

CYQG;2006-06-16 13:00;METAR CYQG 161300Z 21012KT 15SM BKN070 BKN270 22/10 A3021 RMK AC6CI1 SLP227=

CYQG;2006-06-16 16:00;METAR CYQG 161600Z 22013KT 15SM FEW050 FEW150 BKN280 26/12 A3018 RMK SC1AC1CI1 SLP217=

CYQG;2006-06-16 17:00;METAR CYQG 161700Z 21010KT 15SM FEW140 BKN290 27/13 A3016 RMK AC2CI1 SLP212=

CYQG;2006-06-16 18:00;METAR CYQG 161800Z 19013KT 15SM FEW150 SCT290 28/13 A3014 RMK AC1CI1 SLP203=

CYQG;2006-06-16 19:00;METAR CYQG 161900Z 20013KT 15SM FEW140 SCT290 29/14 A3013 RMK AC1CI1 SLP199=

CYQG;2006-06-16 21:00;METAR CYQG 162100Z 19014G19KT 15SM FEW180 SCT250 29/14 A3009 RMK AC2CI1 SLP187=

CYQG;2006-06-16 22:00;METAR CYQG 162200Z 18015KT 15SM BKN250 29/15 A3007 RMK CI4 SLP182=

CYQG;2006-06-16 23:00;METAR CYQG 162300Z 18014KT 15SM BKN220 28/14 A3006 RMK CI6 SLP178=

CYQG;2006-06-17 00:00;METAR CYQG 170000Z 18015KT 15SM FEW160 BKN230 28/15 A3005 RMK AC2CI3 SLP174=

CYQG;2006-06-17 02:00;METAR CYQG 170200Z 19009KT 10SM SCT210 25/16 A3005 RMK CI4 SLP174=

CYQG;2006-06-17 03:00;METAR CYQG 170300Z 20009KT 10SM FEW160 SCT210 25/16 A3006 RMK AC1CI3 SLP175=

CYQG;2006-06-17 04:00;METAR CYQG 170400Z 21012KT 12SM SCT180 25/15 A3006 RMK AC4 SLP175=

CYQG;2006-06-17 06:00;METAR CYQG 170600Z 22007KT 12SM BKN190 24/15 A3009 RMK AC6 SLP186=

CYQG;2006-06-17 07:00;METAR CYQG 170700Z 21007KT 15SM BKN210 23/15 A3007 RMK CI5 SLP180=

CYQG;2006-06-17 08:00;METAR CYQG 170800Z 23005KT 15SM SCT220 22/16 A3007 RMK CI2 SLP178=

CYQG;2006-06-17 09:00;METAR CYQG 170900Z 22007KT 10SM SCT240 22/15 A3006 RMK CI2 SLP177=

CYQG;2006-06-17 10:00;METAR CYQG 171000Z 22005KT 10SM FEW080 SCT260 21/16 A3007 RMK AC1CI2 SLP178=

CYQG;2006-06-17 11:00;METAR CYQG 171100Z 23004KT 10SM FEW080 BKN260 21/16 A3007 RMK AC1CI3 SLP179=

CYQG;2006-06-17 12:00;METAR CYQG 171200Z 21007KT 12SM BKN270 23/17 A3008 RMK CI2 SLP182=

CYQG;2006-06-17 13:00;METAR CYQG 171300Z 22009KT 12SM BKN280 25/15 A3008 RMK CI1 SLP184=

CYQG;2006-06-17 14:00;METAR CYQG 171400Z 23011KT 15SM BKN280 26/16 A3008 RMK CS1 SLP182=

CYQG;2006-06-17 15:00;METAR CYQG 171500Z 22011KT 15SM BKN290 28/16 A3008 RMK CS2 SLP182=

CYQG;2006-06-17 16:00;METAR CYQG 171600Z 20014KT 15SM BKN290 29/16 A3007 RMK CI2 SLP181=

CYQG;2006-06-17 18:00;METAR CYQG 171800Z 20010G17KT 15SM BKN300 30/15 A3006 RMK CI2 SLP174=

CYQG;2006-06-17 19:00;METAR CYQG 171900Z 20015KT 15SM BKN300 31/14 A3004 RMK CI2 SLP169=

CYQG;2006-06-17 21:00;METAR CYQG 172100Z 18013KT 15SM BKN320 31/15 A3001 RMK CI1 SLP158=

CYQG;2006-06-17 22:00;METAR CYQG 172200Z 19014KT 15SM FEW320 31/12 A2999 RMK CI1 SLP153=

CYQG;2006-06-17 23:00;METAR CYQG 172300Z 19014KT 15SM FEW320 31/13 A2997 RMK CI1 SLP146=

CYQG;2006-06-18 00:00;METAR CYQG 180000Z 17010KT 15SM FEW300 30/13 A2997 RMK CI1 SLP144=

CYQG;2006-06-18 01:00;METAR CYQG 180100Z 16008KT 15SM BKN300 27/14 A2997 RMK CI3 SLP144=

CYQG;2006-06-18 04:00;METAR CYQG 180400Z 21008KT 15SM BKN300 25/16 A2997 RMK CI3 SLP144=

CYQG;2006-06-18 05:00;METAR CYQG 180500Z 21010KT 15SM BKN300 26/16 A2996 RMK CI3 SLP141=

CYQG;2006-06-18 07:00;METAR CYQG 180700Z 21008KT 12SM SCT300 24/17 A2994 RMK CI1 SLP135=

CYQG;2006-06-18 08:00;METAR CYQG 180800Z 22010KT 10SM BKN300 24/18 A2995 RMK CI2 SLP137=

CYQG;2006-06-18 09:00;METAR CYQG 180900Z 21009KT 8SM BKN300 24/19 A2995 RMK CI2 SLP138=

CYQG;2006-06-18 10:00;METAR CYQG 181000Z 22010KT 5SM HZ BKN300 24/19 A2996 RMK CI4 SLP142=

CYQG;2006-06-18 11:00;METAR CYQG 181100Z 20008KT 5SM HZ FEW100 BKN300 23/20 A2997 RMK AC1CI4 SLP143=

CYQG;2006-06-18 12:00;METAR CYQG 181200Z 20013KT 5SM HZ BKN300 24/20 A2996 RMK CI4 SLP143=

CYQG;2006-06-18 12:35;SPECI CYQG 181235Z 21015KT 8SM FEW100 SCT300 RMK AC0CI3=

CYQG;2006-06-18 13:00;METAR CYQG 181300Z 22015G20KT 7SM BKN300 25/19 A2995 RMK CI4 SLP140=

CYQG;2006-06-18 14:00;METAR CYQG 181400Z 21022KT 8SM FEW130 BKN300 27/20 A2995 RMK AC2CC3 SLP137=

CYQG;2006-06-18 18:00;METAR CYQG 181800Z 22024G31KT 7SM SCT040 BKN160 BKN300 29/20 A2989 RMK CU4AC1CC2 SLP119=

CYQG;2006-06-18 19:00;METAR CYQG 181900Z 22021KT 7SM FEW040 BKN140 29/19 A2988 RMK CF1AC6 SLP113=

CYQG;2006-06-18 20:00;METAR CYQG 182000Z 21021G29KT 15SM SCT060 BKN074 28/19 A2987 RMK CU3AC4 SLP111=

CYQG;2006-06-18 21:00;METAR CYQG 182100Z 22022G29KT 15SM FEW065 BKN170 BKN300 28/19 A2985 RMK CU2AC3CI2 CB TOP DIST S SLP103=

CYQG;2006-06-18 22:00;METAR CYQG 182200Z 21015G20KT 15SM SCT060 BKN150 OVC300 28/19 A2982 RMK CU3AC2CI2 SLP094=

CYQG;2006-06-18 23:00;METAR CYQG 182300Z 21022G31KT 15SM SCT051 BKN080 OVC300 28/18 A2982 RMK CU4AC2CI2 SLP094=

CYQG;2006-06-18 23:05;SPECI CYQG 182305Z 21023G31KT 15SM -SHRA BKN048 OVC100 RMK CU5AC3=

CYQG;2006-06-18 23:52;SPECI CYQG 182352Z 22022KT 15SM FEW060 BKN150 BKN300 RMK CU2AC3CI2=

CYQG;2006-06-19 00:00;METAR CYQG 190000Z 22020G26KT 15SM FEW060 BKN150 BKN300 23/19 A2985 RMK CU2AC4CI2 SLP105=

CYQG;2006-06-19 01:00;METAR CYQG 190100Z 23016G22KT 15SM FEW020 BKN190 BKN300 23/19 A2987 RMK CU2AC2CI2 SLP112=

CYQG;2006-06-19 02:00;METAR CYQG 190200Z 25012G19KT 15SM FEW030 BKN150 23/19 A2991 RMK CU2AC6 SLP124=

CYQG;2006-06-19 02:51;SPECI CYQG 190251Z 25010KT 12SM -SHRA SCT080 OVC110 RMK AC3AC5=

CYQG;2006-06-19 03:00;METAR CYQG 190300Z 26009KT 12SM -SHRA FEW080 OVC130 23/19 A2991 RMK AC2AC6 SLP125=

CYQG;2006-06-19 04:00;METAR CYQG 190400Z 24007KT 12SM -SHRA FEW093 OVC130 22/19 A2990 RMK AC2AC6 SLP122=

CYQG;2006-06-19 04:49;SPECI CYQG 190449Z 22005KT 15SM FEW052 OVC120 RMK SC2AC6=

CYQG;2006-06-19 05:00;METAR CYQG 190500Z 20007KT 15SM FEW050 SCT120 OVC150 21/20 A2989 RMK SC2AC2AC4 SLP118=

CYQG;2006-06-19 05:53;SPECI CYQG 190553Z 21006KT 12SM -SHRA OVC083 RMK AC8=

CYQG;2006-06-19 06:00;METAR CYQG 190600Z 21005KT 12SM -SHRA OVC083 21/20 A2988 RMK AC8 SLP116=

CYQG;2006-06-19 08:00;METAR CYQG 190800Z 23005KT 8SM -SHRA OVC100 21/20 A2986 RMK AC8 SLP110=

CYQG;2006-06-19 09:00;METAR CYQG 190900Z 24004KT 8SM FEW090 OVC130 21/20 A2986 RMK AC2AC6 OCNL SHRA SLP109=

CYQG;2006-06-19 10:00;METAR CYQG 191000Z 23006KT 3SM BR FEW130 BKN180 21/19 A2986 RMK AC2AC2 SLP109=

CYQG;2006-06-19 11:13;SPECI CYQG 191113Z 24008KT 5SM BR BKN006 RMK SF5=

CYQG;2006-06-19 12:00;METAR CYQG 191200Z 26010KT 5SM BR BKN008 21/19 A2989 RMK SF7 SLP120=

CYQG;2006-06-19 12:09;SPECI CYQG 191209Z 27008KT 5SM BR BKN010 RMK SF7=

CYQG;2006-06-19 13:00;METAR CYQG 191300Z 25008KT 5SM HZ BKN011 22/19 A2989 RMK CF5 SLP121=

CYQG;2006-06-19 15:00;METAR CYQG 191500Z 24010KT 6SM HZ FEW018 BKN160 25/20 A2989 RMK CF1AC6 SLP118=

CYQG;2006-06-19 16:00;METAR CYQG 191600Z 22013KT 6SM HZ SCT025 SCT160 26/20 A2989 RMK CF3AC1 SLP118=

CYQG;2006-06-19 17:00;METAR CYQG 191700Z 22014KT 8SM SCT032TCU 27/20 A2990 RMK TCU4 SLP121=

CYQG;2006-06-19 17:10;SPECI CYQG 191710Z 22014G19KT 7SM TS BKN032CB RMK CB6=

CYQG;2006-06-19 17:15;SPECI CYQG 191715Z 22013KT 7SM -TSRA BKN032CB RMK CB6=

CYQG;2006-06-19 17:23;SPECI CYQG 191723Z 22013KT 7SM -TSRA BKN032CB RMK CB7 REDUCED VIS IN SHRA NW OF AIRPORT=

CYQG;2006-06-19 17:27;SPECI CYQG 191727Z 09005G15KT 3SM -TSRA BKN032CB RMK CB7=

CYQG;2006-06-19 17:31;SPECI CYQG 191731Z 29010KT 3SM -TSRA OVC036CB RMK CB8=

CYQG;2006-06-19 17:34;SPECI CYQG 191734Z 25013G19KT 3SM TSRA OVC027CB RMK CB8=

CYQG;2006-06-19 17:45;SPECI CYQG 191745Z 14008G17KT 6SM TSRA BKN026CB RMK CB7 LTNGCG E=

CYQG;2006-06-19 18:00;METAR CYQG 191800Z 16012KT 6SM -TSGRRA BKN026CB 18/15 A2987 RERA RMK CB7=

CYQG;2006-06-19 18:20;SPECI CYQG 191820Z 20015G31KT 6SM -TSRA BKN023CB RERAGR RMK CB7 SHRA E MVG E=

CYQG;2006-06-19 19:00;METAR CYQG 191900Z 10003KT 15SM -TSRA FEW030CB BKN100 22/14 A2986 RERAGS RMK CB1AC6 SLP109=

CYQG;2006-06-19 20:00;METAR CYQG 192000Z 22011KT 15SM SCT040CB BKN110 BKN300 24/15 A2986 RETS RMK CB3AC2CI1 SLP112=

CYQG;2006-06-19 20:51;SPECI CYQG 192051Z 22008KT 15SM -SHRA FEW040CB BKN130 BKN300 RMK CB2AC3CI2=

CYQG;2006-06-19 21:00;METAR CYQG 192100Z 20008KT 15SM -SHRA FEW040CB BKN110 BKN300 25/16 A2985 RMK CB2AC3CI2 SLP106=

CYQG;2006-06-19 21:34;SPECI CYQG 192134Z 24006KT 15SM -TSRA SCT060CB BKN110 BKN300 RMK CB4AC2CI1 LTGIC=

CYQG;2006-06-19 22:00;METAR CYQG 192200Z 19013KT 15SM SCT060CB BKN150 BKN300 22/17 A2985 RETS RMK CB3AC2CI1 OCNL LTGIC DIST E - SE SLP105=

CYQG;2006-06-19 23:00;METAR CYQG 192300Z 19004KT 15SM FEW060 BKN110 BKN280 22/16 A2984 RMK CU2AC3CS2 SLP103=

CYQG;2006-06-20 00:00;METAR CYQG 200000Z 18011KT 15SM FEW060 SCT110 BKN280 22/16 A2985 RMK CU2AC2CI3 /R19/ SLP106=

CYQG;2006-06-20 01:00;METAR CYQG 200100Z 21013G18KT 15SM FEW075TCU SCT130 BKN250 23/16 A2986 RMK TCU2AC2CC3 SLP111=

CYQG;2006-06-20 02:00;METAR CYQG 200200Z 22012KT 15SM FEW070 BKN250 22/16 A2987 RMK CU2CC5 SLP112=

CYQG;2006-06-20 03:00;METAR CYQG 200300Z 23008KT 15SM BKN280 21/15 A2989 RMK CI6 SLP118=

CYQG;2006-06-20 04:00;METAR CYQG 200400Z 24007KT 15SM BKN280 20/15 A2990 RMK CS6 SLP122=

CYQG;2006-06-20 05:00;METAR CYQG 200500Z 27005KT 15SM FEW280 20/15 A2990 RMK CI1 SLP122=

CYQG;2006-06-20 06:00;METAR CYQG 200600Z 27007KT 15SM SKC 20/15 A2990 RMK SLP125=

CYQG;2006-06-20 07:00;METAR CYQG 200700Z 26006KT 12SM FEW280 19/15 A2991 RMK CI1 SLP127=

CYQG;2006-06-20 08:00;METAR CYQG 200800Z 29007KT 12SM BKN080 19/15 A2992 RMK AC5 SLP130=

CYQG;2006-06-20 09:00;METAR CYQG 200900Z 32005KT 15SM FEW080 19/15 A2993 RMK AC1 SLP134=

CYQG;2006-06-20 10:00;METAR CYQG 201000Z 34010KT 15SM FEW080 19/14 A2996 RMK AC1 SLP143=

CYQG;2006-06-20 11:00;METAR CYQG 201100Z 34007KT 15SM FEW080 18/14 A2998 RMK AC1 SLP150=

CYQG;2006-06-20 12:00;METAR CYQG 201200Z 34010KT 15SM FEW030 FEW080 18/13 A3001 RMK CF1AC1 SLP161=

CYQG;2006-06-20 13:00;METAR CYQG 201300Z 31006KT 15SM FEW030 19/13 A3002 RMK CF1 SLP165=

CYQG;2006-06-20 14:00;METAR CYQG 201400Z 32007KT 15SM FEW032 20/12 A3001 RMK CU1 SLP161=

CYQG;2006-06-20 15:00;METAR CYQG 201500Z 34005KT 15SM FEW032 21/12 A3001 RMK CF1 SLP162=

CYQG;2006-06-20 16:00;METAR CYQG 201600Z 07005KT 15SM FEW032 22/13 A3004 RMK CF1 SLP170=

CYQG;2006-06-20 18:00;METAR CYQG 201800Z 04008KT 15SM FEW040 FEW300 23/13 A3005 RMK CF1CS1 SLP173=

CYQG;2006-06-20 19:00;METAR CYQG 201900Z 06007KT 15SM FEW040 FEW300 23/13 A3005 RMK CF1CS1 SLP173=

CYQG;2006-06-20 20:00;METAR CYQG 202000Z 07009KT 15SM SCT050 BKN250 23/13 A3005 RMK CU4CI1 SLP175=

CYQG;2006-06-20 21:00;METAR CYQG 202100Z 08005KT 15SM FEW060 BKN250 23/12 A3005 RMK CU2CI2 SLP176=

CYQG;2006-06-20 22:00;METAR CYQG 202200Z 09008KT 15SM FEW060 BKN250 23/13 A3004 RMK CU2CI5 SLP173=

CYQG;2006-06-20 23:00;METAR CYQG 202300Z 10007KT 15SM FEW060 BKN250 23/13 A3004 RMK CU1CI7 SLP172=

CYQG;2006-06-21 00:00;METAR CYQG 210000Z 10008KT 15SM BKN250 22/13 A3004 RMK CI7 SLP170=

CYQG;2006-06-21 01:00;METAR CYQG 210100Z 11006KT 15SM BKN160 BKN250 21/14 A3003 RMK AC6CI2 SLP169=

CYQG;2006-06-21 04:00;METAR CYQG 210400Z 19004KT 15SM BKN210 19/13 A3007 RMK CI6 SLP182=

CYQG;2006-06-21 05:00;METAR CYQG 210500Z 16003KT 15SM FEW180 18/13 A3006 RMK AC2 SLP179=

CYQG;2006-06-21 06:00;METAR CYQG 210600Z 17003KT 15SM FEW150 17/13 A3005 RMK AC1 SLP174=

CYQG;2006-06-21 08:00;METAR CYQG 210800Z 15005KT 15SM SCT170 17/13 A3002 RMK AC3 SLP165=

CYQG;2006-06-21 09:00;METAR CYQG 210900Z 16004KT 15SM BKN140 17/14 A3003 RMK AC7 SLP168=

CYQG;2006-06-21 10:00;METAR CYQG 211000Z 17004KT 12SM -SHRA SCT050 BKN130 18/14 A3004 RMK SC4AC3 SLP172=

CYQG;2006-06-21 11:24;SPECI CYQG 211124Z 16009KT 15SM FEW050 BKN130 OVC250 RMK CU2AC4CI2=

CYQG;2006-06-21 12:00;METAR CYQG 211200Z 18009KT 15SM FEW050 BKN130 OVC260 18/13 A3001 RMK CU2AC3CS2 SLP160=

CYQG;2006-06-21 12:25;SPECI CYQG 211225Z 16008KT 15SM -SHRA FEW040 BKN130 OVC260 RMK CU2AC4CS2=

CYQG;2006-06-21 12:41;SPECI CYQG 211241Z 18006KT 15SM FEW040 BKN120 OVC260 RMK CU2AC2CS2 OCNL SHRA=

CYQG;2006-06-21 13:00;METAR CYQG 211300Z 18006KT 15SM -SHRA BKN080 OVC260 18/15 A3005 RMK AC5CS3 LTGCC DIST S SLP174=

CYQG;2006-06-21 13:24;SPECI CYQG 211324Z 13004KT 5SM -TSRA FEW030CB OVC120 RMK CB2AC6=

CYQG;2006-06-21 13:52;SPECI CYQG 211352Z 17007KT 8SM -SHRA FEW030 BKN100 OVC260 RETSRA RMK CU2AC5CS2=

CYQG;2006-06-21 14:00;METAR CYQG 211400Z 13008KT 8SM -SHRA FEW030 BKN096 OVC260 17/15 A3003 RETSRA RMK CU2AC5CS2 SLP169=

CYQG;2006-06-21 15:00;METAR CYQG 211500Z 18012KT 8SM -SHRA BKN072 OVC150 18/17 A3000 RMK AC6AC2 SLP159=

CYQG;2006-06-21 15:26;SPECI CYQG 211526Z 18010KT 8SM -SHRA BKN010 OVC080 RMK SF5AC3=

CYQG;2006-06-21 15:42;SPECI CYQG 211542Z 18010KT 6SM BR BKN008 OVC049 RMK SF6CU2=

CYQG;2006-06-21 15:55;SPECI CYQG 211555Z 30008KT 1SM +TSRA BR BKN008 OVC050CB RMK SF6CB2=

CYQG;2006-06-21 16:08;SPECI CYQG 211608Z 36008G15KT 2SM TSRA BR SCT008 BKN016CB OVC055 RMK SF4CB2SC2=

CYQG;2006-06-21 16:18;SPECI CYQG 211618Z 11003KT 5SM -SHRA BR FEW008 BKN018 OVC055 RETSRA RMK SF2CU4SC2=

CYQG;2006-06-21 16:33;SPECI CYQG 211633Z 35007KT 1SM SHRA BR BKN017 OVC050 RETS RMK FG2CU5SC1=

CYQG;2006-06-21 16:46;SPECI CYQG 211646Z 12005KT 6SM -SHRA FEW010 BKN020 OVC050 RETSRA RMK SF2CU4SC2=

CYQG;2006-06-21 17:17;SPECI CYQG 211717Z 13010KT 15SM FEW007 SCT020 OVC043 RMK SF2CU2SC4=

CYQG;2006-06-21 19:00;METAR CYQG 211900Z 17012KT 15SM FEW008 BKN120 OVC280 22/18 A2998 RMK CF1AC5CI2 SLP152=

CYQG;2006-06-21 20:00;METAR CYQG 212000Z 19011KT 15SM OVC160 22/18 A2999 RMK AC8 SLP154=

CYQG;2006-06-21 21:00;METAR CYQG 212100Z 20013G19KT 10SM BKN010 OVC160 23/19 A2997 RMK SC6AC2 PRESSFR SLP148=

CYQG;2006-06-21 22:00;METAR CYQG 212200Z 20009G15KT 8SM BKN160 OVC250 23/20 A2993 RMK AC5CI2 SLP134=

CYQG;2006-06-21 23:44;SPECI CYQG 212344Z 21018G26KT 6SM TSRA BR OVC020CB RMK CB8 LTGCG LTGCC=

CYQG;2006-06-22 00:00;METAR CYQG 220000Z 18009G17KT 6SM TSRA BR OVC020CB 21/19 A2990 RMK CB8 LTGCG LTGCC SLP125=

CYQG;2006-06-22 01:00;METAR CYQG 220100Z 19008KT 7SM -TSRA FEW020CB BKN160 OVC240 22/20 A2992 RMK CB2AC5CI1 LTGCC LTGCG SLP129=

CYQG;2006-06-22 02:00;METAR CYQG 220200Z 20012G19KT 6SM -TSRA BR FEW060CB BKN160 OVC250 21/19 A2987 RMK CB2AC4CI2 LTGCG LTGCC PRESFR SLP114=

CYQG;2006-06-22 03:00;METAR CYQG 220300Z 26005KT 3SM +TSRA BR OVC040CB 21/20 A2996 RMK CB8 LTGCG LTGCC PRESRR SLP143=

CYQG;2006-06-22 05:48;SPECI CYQG 220548Z 21008KT 12SM FEW060CB SCT140 OVC260 RETS RMK CB1AC2CS5=

CYQG;2006-06-22 06:00;METAR CYQG 220600Z 21010KT 12SM FEW060 FEW140 OVC260 21/19 A2992 RETS RMK SC1AC1CS6 SLP130=

CYQG;2006-06-22 07:00;METAR CYQG 220700Z 20009KT 8SM FEW060 OVC270 21/20 A2992 RMK SC1CS7 SLP130=

CYQG;2006-06-22 08:00;METAR CYQG 220800Z 20005KT 5SM BR FEW040 BKN270 21/20 A2994 RMK SC1CS5 SLP136=

CYQG;2006-06-22 10:00;METAR CYQG 221000Z 24007KT 4SM BR FEW030 SCT270 21/20 A2997 RMK SC2CI1 SLP145=

CYQG;2006-06-22 12:00;METAR CYQG 221200Z 26005KT 4SM BR FEW270 22/21 A2998 RMK CI1 SLP149=

CYQG;2006-06-22 13:00;METAR CYQG 221300Z 27008KT 6SM HZ FEW030 FEW270 24/21 A2999 RMK CF1CI1 SLP153=

CYQG;2006-06-22 14:00;METAR CYQG 221400Z 23007KT 6SM HZ BKN250 25/21 A3001 RMK CI4 SLP160=

CYQG;2006-06-22 15:00;METAR CYQG 221500Z 24006KT 6SM HZ BKN250 26/21 A3001 RMK CI4 SLP161=

CYQG;2006-06-22 17:35;SPECI CYQG 221735Z 27014KT 6SM -SHRA BR BKN040 OVC140 RMK CU5AC3=

CYQG;2006-06-22 18:00;METAR CYQG 221800Z 28016KT 6SM -TSRA BR SCT040CB BKN140 29/19 A3005 RMK CB3AC3 SLP172=

CYQG;2006-06-22 18:18;SPECI CYQG 221818Z 29015G20KT 8SM TS SCT040CB BKN140 BKN250 RMK CB3AC2CI1=

CYQG;2006-06-22 19:00;METAR CYQG 221900Z 29018G24KT 10SM TS SCT040CB SCT140 BKN250 29/16 A3004 RMK CB3AC1CI1 SLP168=

CYQG;2006-06-22 20:00;METAR CYQG 222000Z 31009G16KT 10SM FEW040 SCT140 OVC250 28/16 A2998 RETS RMK CU2AC2CI4 PRESFR SLP151=

CYQG;2006-06-22 22:00;METAR CYQG 222200Z 18004KT 12SM SCT150 OVC210 27/18 A3000 RMK AC4CI4 SLP157=

CYQG;2006-06-23 00:00;METAR CYQG 230000Z 21005KT 12SM FEW058 BKN120 BKN230 25/19 A3001 RMK SC1AC4CI2 SLP160=

CYQG;2006-06-23 01:00;METAR CYQG 230100Z 19008KT 10SM SCT050 BKN084 BKN230 23/20 A3004 RMK CU4AC2CI1 TCU ASOCTD SLP171=

CYQG;2006-06-23 04:00;METAR CYQG 230400Z 32006KT 15SM SCT045 BKN260 23/15 A3007 RMK SC3CI2 SLP179=

CYQG;2006-06-23 06:00;METAR CYQG 230600Z 33005KT 15SM FEW060 OVC230 22/16 A3007 RMK SC1CS6 SLP180=

CYQG;2006-06-23 07:00;METAR CYQG 230700Z 01006KT 15SM FEW060 OVC220 21/16 A3007 RMK SC1CS7 SLP178=

CYQG;2006-06-23 09:00;METAR CYQG 230900Z 04011KT 15SM OVC210 19/15 A3008 RMK CS7 SLP184=

CYQG;2006-06-23 10:00;METAR CYQG 231000Z 03012KT 15SM BKN210 18/14 A3008 RMK CS7 SLP185=

CYQG;2006-06-23 11:00;METAR CYQG 231100Z 04011KT 15SM BKN190 BKN280 17/14 A3011 RMK AC6CI1 SLP194=

CYQG;2006-06-23 12:00;METAR CYQG 231200Z 02011KT 15SM BKN140 BKN280 17/12 A3013 RMK AC6CI2 SLP202=

CYQG;2006-06-23 13:00;METAR CYQG 231300Z 02008KT 15SM BKN150 BKN280 18/13 A3014 RMK AC6CI1 SLP205=

CYQG;2006-06-23 14:00;METAR CYQG 231400Z 36006KT 15SM BKN150 BKN280 18/13 A3015 RMK AC6CI1 SLP209=

CYQG;2006-06-23 15:00;METAR CYQG 231500Z 01005KT 15SM BKN150 BKN280 19/13 A3015 RMK AC6CI0 SLP207=

CYQG;2006-06-23 16:00;METAR CYQG 231600Z 05005KT 15SM SCT160 BKN300 21/14 A3014 RMK AC3CI2 SLP205=

CYQG;2006-06-23 17:00;METAR CYQG 231700Z 08007KT 15SM FEW160 BKN300 22/15 A3014 RMK AC2CI2 SLP204=

CYQG;2006-06-23 18:00;METAR CYQG 231800Z 06008KT 15SM FEW030 SCT180 BKN280 23/16 A3013 RMK CF1AC3CI2 SLP201=

CYQG;2006-06-23 19:00;METAR CYQG 231900Z 06007KT 15SM FEW050 BKN240 BKN280 24/16 A3012 RMK CU2CC2CI2 SLP199=

CYQG;2006-06-23 21:00;METAR CYQG 232100Z 06012KT 10SM FEW040 BKN280 24/16 A3010 RMK CU2CI2 TCU ASOCTD SLP192=

CYQG;2006-06-23 22:00;METAR CYQG 232200Z 09009KT 10SM FEW040 BKN280 23/16 A3010 RMK CU1CI2 SLP191=

CYQG;2006-06-23 23:00;METAR CYQG 232300Z 05009KT 10SM FEW040 BKN250 22/15 A3011 RMK CU1CI5 SLP193=

CYQG;2006-06-24 00:00;METAR CYQG 240000Z 06011KT 15SM FEW030 BKN250 21/16 A3011 RMK CF1CI5 SLP195=

CYQG;2006-06-24 01:00;METAR CYQG 240100Z 05011KT 12SM FEW030 BKN250 19/14 A3012 RMK CU1CI3 TCU ASOCTD W SLP198=

CYQG;2006-06-24 02:00;METAR CYQG 240200Z 05009KT 15SM FEW030 SCT250 18/13 A3014 RMK CU1CI1 SLP204=

CYQG;2006-06-24 03:00;METAR CYQG 240300Z 05009KT 15SM FEW030 FEW250 17/13 A3015 RMK CU1CI1 SLP210=

CYQG;2006-06-24 04:00;METAR CYQG 240400Z 04007KT 15SM FEW250 17/12 A3016 RMK CI1 SLP213=

CYQG;2006-06-24 05:00;METAR CYQG 240500Z 04006KT 15SM FEW250 16/12 A3015 RMK CI1 SLP209=

CYQG;2006-06-24 06:00;METAR CYQG 240600Z 03007KT 15SM FEW250 15/11 A3016 RMK CI1 SLP211=

CYQG;2006-06-24 07:00;METAR CYQG 240700Z 36006KT 15SM SKC 15/11 A3015 RMK SLP208=

CYQG;2006-06-24 09:00;METAR CYQG 240900Z 36008KT 15SM SKC 13/09 A3014 RMK SLP206=

CYQG;2006-06-24 10:00;METAR CYQG 241000Z 36006KT 15SM SKC 13/07 A3015 RMK SLP209=

CYQG;2006-06-24 11:00;METAR CYQG 241100Z 36006KT 15SM SKC 14/07 A3016 RMK SLP212=

CYQG;2006-06-24 12:00;METAR CYQG 241200Z 03010KT 15SM SKC 15/06 A3018 RMK SLP219=

CYQG;2006-06-24 13:00;METAR CYQG 241300Z 02007KT 15SM SKC 17/06 A3019 RMK SLP223=

CYQG;2006-06-24 14:00;METAR CYQG 241400Z 05009KT 15SM FEW250 18/07 A3020 RMK CI1 SLP225=

CYQG;2006-06-24 15:00;METAR CYQG 241500Z 04006KT 15SM FEW250 18/07 A3019 RMK CI1 SLP224=

CYQG;2006-06-24 16:00;METAR CYQG 241600Z 10002KT 15SM FEW260 19/08 A3019 RMK CI1 SLP224=

CYQG;2006-06-24 17:00;METAR CYQG 241700Z 27004KT 15SM FEW270 21/10 A3019 RMK CI1 SLP223=

CYQG;2006-06-24 18:00;METAR CYQG 241800Z 11003KT 15SM FEW280 22/10 A3018 RMK CI1 SLP219=

CYQG;2006-06-24 19:00;METAR CYQG 241900Z 03006KT 15SM FEW280 23/09 A3016 RMK CI1 SLP213=

CYQG;2006-06-24 20:00;METAR CYQG 242000Z 04003KT 15SM FEW280 23/09 A3014 RMK CI0 SLP207=

CYQG;2006-06-24 21:00;METAR CYQG 242100Z 06004KT 15SM FEW280 24/09 A3012 RMK CI0 SLP200=

CYQG;2006-06-24 22:00;METAR CYQG 242200Z 09008KT 15SM FEW280 24/10 A3011 RMK CI0 SLP196=

CYQG;2006-06-24 23:00;METAR CYQG 242300Z 08007KT 15SM FEW280 23/09 A3011 RMK CI0 SLP194=

CYQG;2006-06-25 00:00;METAR CYQG 250000Z 08007KT 15SM FEW280 23/08 A3011 RMK CI1 SLP196=

CYQG;2006-06-25 01:00;METAR CYQG 250100Z 10003KT 15SM SCT280 22/08 A3012 RMK CI1 SLP198=

CYQG;2006-06-25 03:00;METAR CYQG 250300Z 07003KT 15SM FEW280 19/11 A3014 RMK CI2 SLP206=

CYQG;2006-06-25 04:00;METAR CYQG 250400Z 08003KT 15SM FEW280 18/11 A3013 RMK CI1 SLP203=

CYQG;2006-06-25 05:00;METAR CYQG 250500Z 00000KT 15SM FEW280 17/11 A3013 RMK CI1 SLP202=

CYQG;2006-06-25 06:00;METAR CYQG 250600Z 00000KT 12SM FEW280 16/11 A3012 RMK CI1 SLP200=

CYQG;2006-06-25 07:00;METAR CYQG 250700Z 00000KT 12SM FEW280 16/12 A3011 RMK CI1 SLP197=

CYQG;2006-06-25 08:00;METAR CYQG 250800Z 32002KT 12SM SKC 16/12 A3011 RMK SLP194=

CYQG;2006-06-25 09:00;METAR CYQG 250900Z 33006KT 12SM FEW220 16/10 A3010 RMK CI1 SLP192=

CYQG;2006-06-25 10:00;METAR CYQG 251000Z 35003KT 15SM FEW220 15/10 A3011 RMK CI1 SLP193=

CYQG;2006-06-25 11:00;METAR CYQG 251100Z 36004KT 15SM BKN250 15/10 A3010 RMK CI2 SLP190=

CYQG;2006-06-25 12:00;METAR CYQG 251200Z 04005KT 15SM BKN300 17/13 A3010 RMK CI2 SLP190=

CYQG;2006-06-25 13:00;METAR CYQG 251300Z 03005KT 15SM BKN300 19/14 A3009 RMK CI3 SLP189=

CYQG;2006-06-25 14:00;METAR CYQG 251400Z 04004KT 15SM BKN300 21/12 A3009 RMK CI2 SLP189=

CYQG;2006-06-25 15:00;METAR CYQG 251500Z 05004KT 15SM BKN300 22/12 A3008 RMK CI2 SLP186=

CYQG;2006-06-25 16:00;METAR CYQG 251600Z 07004KT 15SM FEW040 BKN300 23/13 A3008 RMK CF1CI2 SLP186=

CYQG;2006-06-25 17:00;METAR CYQG 251700Z 09004KT 15SM FEW040 BKN300 24/11 A3007 RMK CF1CI2 SLP183=

CYQG;2006-06-25 18:00;METAR CYQG 251800Z 04006KT 15SM FEW040 BKN300 24/13 A3006 RMK CF1CI2 SLP179=

CYQG;2006-06-25 19:00;METAR CYQG 251900Z 06010KT 15SM FEW040 BKN300 25/13 A3005 RMK CF1CI2 SLP175=

CYQG;2006-06-25 20:00;METAR CYQG 252000Z 06008KT 15SM FEW040 SCT300 25/13 A3004 RMK CF1CI2 SLP172=

CYQG;2006-06-25 21:00;METAR CYQG 252100Z 10007KT 12SM FEW040 FEW300 25/15 A3003 RMK CF1CI1 SLP169=

CYQG;2006-06-25 22:00;METAR CYQG 252200Z 08006KT 12SM FEW040 FEW300 26/12 A3003 RMK CU1CI2 SLP168=

CYQG;2006-06-25 23:00;METAR CYQG 252300Z 06006KT 12SM FEW040 BKN300 26/12 A3002 RMK CU1CI2 TCU ASOCTD SLP165=

CYQG;2006-06-26 00:00;METAR CYQG 260000Z 05010KT 12SM FEW030 FEW120 BKN260 25/13 A3002 RMK CU1AC1CI4 TCU ASOCTD SLP164=

CYQG;2006-06-26 01:00;METAR CYQG 260100Z 04010G15KT 12SM FEW110 BKN230 22/14 A3003 RMK AC2CI2 SLP166=

CYQG;2006-06-26 02:00;METAR CYQG 260200Z 04011KT 15SM FEW100 BKN210 21/14 A3003 RMK AC2CI2 SLP166=

CYQG;2006-06-26 03:00;METAR CYQG 260300Z 05009KT 15SM FEW100 SCT210 21/13 A3004 RMK AC1CI2 SLP169=

CYQG;2006-06-26 04:00;METAR CYQG 260400Z 03007KT 15SM SCT210 20/13 A3003 RMK CI3 SLP167=

CYQG;2006-06-26 05:00;METAR CYQG 260500Z 36005KT 15SM SCT210 19/13 A3001 RMK CI1 SLP160=

CYQG;2006-06-26 06:00;METAR CYQG 260600Z 01004KT 15SM FEW200 18/12 A3000 RMK CI1 SLP156=

CYQG;2006-06-26 07:00;METAR CYQG 260700Z 36005KT 12SM FEW230 18/12 A2999 RMK CS1 SLP155=

CYQG;2006-06-26 08:00;METAR CYQG 260800Z 36005KT 12SM FEW230 17/13 A2998 RMK CS2 SLP151=

CYQG;2006-06-26 09:00;METAR CYQG 260900Z 36004KT 12SM SCT230 17/13 A2998 RMK CS3 SLP151=

CYQG;2006-06-26 10:00;METAR CYQG 261000Z 01005KT 12SM SCT070 SCT230 17/14 A2998 RMK AC3CS1 SLP152=

CYQG;2006-06-26 12:00;METAR CYQG 261200Z 02006KT 8SM BKN048 BKN120 19/16 A2999 RMK SC6AC1 SLP153=

CYQG;2006-06-26 13:00;METAR CYQG 261300Z 04008KT 10SM SCT045 BKN280 21/17 A2998 RMK SC3CI3 SLP152=

CYQG;2006-06-26 14:00;METAR CYQG 261400Z 05005KT 6SM HZ BKN010 OVC045 21/18 A2998 RMK SC5SC3 SLP152=

CYQG;2006-06-26 14:27;SPECI CYQG 261427Z 06005KT 6SM HZ SCT010 OVC130 RMK SC3AC5=

CYQG;2006-06-26 15:00;METAR CYQG 261500Z 06005KT 6SM HZ FEW010 BKN140 22/18 A2998 RMK SC2AC5 SLP151=

CYQG;2006-06-26 16:00;METAR CYQG 261600Z 05004KT 6SM HZ SCT015 BKN160 OVC280 23/19 A2998 RMK CU3AC2CI2 SLP149=

CYQG;2006-06-26 17:00;METAR CYQG 261700Z 04008KT 6SM HZ SCT041 OVC280 24/19 A2997 RMK CU4CI3 SLP148=

CYQG;2006-06-26 18:00;METAR CYQG 261800Z 08006KT 8SM BKN020 BKN045 OVC280 24/19 A2996 RMK CU5SC2CI2 SLP143=

CYQG;2006-06-26 19:00;METAR CYQG 261900Z 11010KT 8SM BKN030 OVC280 24/19 A2995 RMK CU6CI2 SLP142=

CYQG;2006-06-26 20:00;METAR CYQG 262000Z 11007KT 7SM BKN023 BKN110 BKN280 25/19 A2994 RMK CU6AC1CI1 SLP138=

CYQG;2006-06-26 21:00;METAR CYQG 262100Z 11006KT 7SM OVC025 24/19 A2993 RMK SC8 SLP135=

CYQG;2006-06-26 22:00;METAR CYQG 262200Z 10008KT 7SM OVC030 24/19 A2993 RMK SC8 SLP133=

CYQG;2006-06-26 23:00;METAR CYQG 262300Z 11008KT 6SM HZ FEW030 OVC270 23/18 A2991 RMK SC2CS6 SLP128=

CYQG;2006-06-27 00:00;METAR CYQG 270000Z 11005KT 6SM HZ FEW090 OVC270 22/18 A2993 RMK AC2CS6 SLP133=

CYQG;2006-06-27 01:00;METAR CYQG 270100Z 12004KT 7SM BKN120 OVC270 22/18 A2992 RMK AC6CS2 SLP130=

CYQG;2006-06-27 02:00;METAR CYQG 270200Z 12002KT 7SM OVC130 21/18 A2992 RMK AC8 SLP130=

CYQG;2006-06-27 03:00;METAR CYQG 270300Z 02002KT 8SM OVC130 21/18 A2992 RMK AC8 SLP129=

CYQG;2006-06-27 04:00;METAR CYQG 270400Z 00000KT 8SM OVC140 21/18 A2992 RMK AC8 SLP131=

CYQG;2006-06-27 06:00;METAR CYQG 270600Z 11003KT 7SM OVC140 20/18 A2991 RMK AC8 SLP126=

CYQG;2006-06-27 06:54;SPECI CYQG 270654Z 00000KT 7SM TS SCT008CB OVC120 RMK CB4AC4 LTGCC=

CYQG;2006-06-27 07:10;SPECI CYQG 270710Z 00000KT 7SM -TSRA SCT008CB OVC120 RMK CB4AC4=

CYQG;2006-06-27 07:47;SPECI CYQG 270747Z 31004KT 6SM BR SCT008 OVC120 RETS RMK CU3AC5=

CYQG;2006-06-27 08:00;METAR CYQG 270800Z 28004KT 6SM BR BKN008 OVC120 21/19 A2991 RETS RMK CU5AC3 SLP125=

CYQG;2006-06-27 09:00;METAR CYQG 270900Z 00000KT 4SM BR SCT020 OVC030 20/19 A2990 RMK SC3SC5 SLP124=

CYQG;2006-06-27 09:50;SPECI CYQG 270950Z 13004KT 2SM BR FEW014 OVC120 RMK CF2AC6=

CYQG;2006-06-27 10:00;METAR CYQG 271000Z 12004KT 2SM BR FEW014 OVC120 20/19 A2989 RMK SC2AC6 SLP119=

CYQG;2006-06-27 11:00;METAR CYQG 271100Z 23003KT 2SM BR SCT040 BKN160 BKN250 21/19 A2990 RMK CU3AC2CI1 SLP124=

CYQG;2006-06-27 12:00;METAR CYQG 271200Z 00000KT 2 1/2SM BR BKN270 21/19 A2991 RMK CI3 CC ASOCTD CONTRAILS SLP126=

CYQG;2006-06-27 12:33;SPECI CYQG 271233Z 17003KT 5SM BR BKN270 RMK CI3 CC ASOCTD CONTRAILS=

CYQG;2006-06-27 13:00;METAR CYQG 271300Z 15005KT 6SM HZ BKN280 23/20 A2992 RMK CC2 SLP130=

CYQG;2006-06-27 14:00;METAR CYQG 271400Z 22006KT 6SM HZ SCT015 BKN280 25/20 A2992 RMK CU4CI1 SLP131=

CYQG;2006-06-27 15:00;METAR CYQG 271500Z 25009KT 6SM HZ BKN020 BKN280 25/19 A2993 RMK CU5CI1 SLP132=

CYQG;2006-06-27 16:00;METAR CYQG 271600Z 25007KT 6SM HZ BKN028TCU 26/19 A2993 RMK TCU6 SLP133=

CYQG;2006-06-27 16:46;SPECI CYQG 271646Z 27015G20KT 5SM TS HZ OVC028TCU RMK TCU8 CB EMBD=

CYQG;2006-06-27 16:48;SPECI CYQG 271648Z 28013G20KT 5SM -TSRA HZ OVC034TCU RMK TCU8 CB EMBD=

CYQG;2006-06-27 17:00;METAR CYQG 271700Z 28008KT 6SM HZ BKN040TCU 24/15 A2994 RETS RMK TCU7 OCNL SHRA CB TOPS N AND S SLP136=

CYQG;2006-06-27 18:00;METAR CYQG 271800Z 26002KT 6SM HZ BKN040TCU BKN300 25/18 A2993 RMK TCU6CI0 SLP133=

CYQG;2006-06-27 19:00;METAR CYQG 271900Z 13005KT 5SM -SHRA HZ BKN034TCU 25/19 A2992 RMK TCU7 SLP131=

CYQG;2006-06-27 19:25;SPECI CYQG 271925Z 16003KT 7SM FEW035TCU RMK TCU2=

CYQG;2006-06-27 20:00;METAR CYQG 272000Z 35015KT 12SM BKN038TCU BKN130 23/14 A2994 RMK TCU6AC2 SLP135=

CYQG;2006-06-27 20:04;SPECI CYQG 272004Z 35009KT 12SM -SHRA BKN042TCU RMK TCU7 CB ASOCTD=

CYQG;2006-06-27 20:46;SPECI CYQG 272046Z 28022G28KT 5SM -TSRA HZ OVC038CB RMK CB8=

CYQG;2006-06-27 21:00;METAR CYQG 272100Z 31009G20KT 6SM -TSRA HZ BKN040CB 20/16 A2995 RMK CB7 SLP139=

CYQG;2006-06-27 21:53;SPECI CYQG 272153Z 24005KT 10SM BKN043TCU BKN120 RMK TCU5AC2=

CYQG;2006-06-27 22:00;METAR CYQG 272200Z 23005KT 12SM SCT043TCU BKN120 21/17 A2994 RMK TCU4AC3 SLP137=

CYQG;2006-06-27 23:00;METAR CYQG 272300Z 20003KT 15SM FEW045TCU BKN130 22/18 A2993 RMK TCU1AC6 SLP135=

CYQG;2006-06-28 00:00;METAR CYQG 280000Z 22003KT 10SM FEW140 FEW280 23/17 A2993 RMK AC2CI1 SLP134=

CYQG;2006-06-28 01:00;METAR CYQG 280100Z 23004KT 15SM FEW140 FEW280 22/17 A2994 RMK AC2CI1 SLP135=

CYQG;2006-06-28 03:00;METAR CYQG 280300Z 24004KT 12SM FEW140 FEW280 21/17 A2998 RMK AC1CI1 SLP148=

CYQG;2006-06-28 04:00;METAR CYQG 280400Z 22003KT 10SM FEW280 20/17 A2998 RMK CI1 SLP150=

CYQG;2006-06-28 05:00;METAR CYQG 280500Z 00000KT 8SM FEW140 19/17 A3000 RMK AC2 SLP155=

CYQG;2006-06-28 06:00;METAR CYQG 280600Z 23004KT 8SM FEW120 20/17 A2999 RMK AC2 SLP153=

CYQG;2006-06-28 07:00;METAR CYQG 280700Z 00000KT 8SM BKN130 BKN280 19/17 A2998 RMK AC5CI1 SLP151=

CYQG;2006-06-28 09:00;METAR CYQG 280900Z 25003KT 8SM FEW060 SCT120 19/17 A2998 RMK SC2AC2 SLP150=

CYQG;2006-06-28 10:00;METAR CYQG 281000Z 29005KT 7SM FEW050 FEW120 FEW250 19/16 A2999 RMK CF1AC2CI1 SLP154=

CYQG;2006-06-28 11:00;METAR CYQG 281100Z 28005KT 8SM FEW250 19/16 A3000 RMK CI1 SLP158=

CYQG;2006-06-28 12:00;METAR CYQG 281200Z 27002KT 7SM BKN280 20/16 A3001 RMK CC1 SLP161=

CYQG;2006-06-28 13:00;METAR CYQG 281300Z 29003KT 8SM FEW140 SCT280 22/16 A3002 RMK AC1CI1 SLP165=

CYQG;2006-06-28 14:00;METAR CYQG 281400Z 24005KT 10SM FEW140 FEW280 24/16 A3003 RMK AC1CI1 SLP168=

CYQG;2006-06-28 15:00;METAR CYQG 281500Z 27004KT 12SM FEW280 25/14 A3003 RMK CI1 SLP168=

CYQG;2006-06-28 16:00;METAR CYQG 281600Z 24006KT 15SM FEW040 FEW280 25/14 A3003 RMK CU2CI1 SLP168=

CYQG;2006-06-28 17:00;METAR CYQG 281700Z 24009G18KT 15SM SCT050 26/14 A3002 RMK CU3 SLP165=

CYQG;2006-06-28 18:00;METAR CYQG 281800Z 24010G16KT 15SM SCT050 27/15 A3000 RMK CU4 SLP155=

CYQG;2006-06-28 19:00;METAR CYQG 281900Z 25013G19KT 15SM BKN057 27/14 A2999 RMK CU5 TCU ASOCTD SLP152=

CYQG;2006-06-28 20:00;METAR CYQG 282000Z 22014KT 15SM SCT058TCU 28/14 A2998 RMK TCU3 SLP150=

CYQG;2006-06-28 21:00;METAR CYQG 282100Z 28018G30KT 12SM BKN062TCU 24/10 A3000 RMK TCU7 SLP156=

CYQG;2006-06-28 21:16;SPECI CYQG 282116Z 29012G20KT 15SM -TSRA BKN070TCU RMK TCU7 CB ASOCTD=

CYQG;2006-06-28 21:32;SPECI CYQG 282132Z 28008KT 15SM -SHRA BKN068TCU RETS RMK TCU7=

CYQG;2006-06-28 21:49;SPECI CYQG 282149Z 28014KT 15SM BKN070TCU RETS RMK TCU6=

CYQG;2006-06-28 22:00;METAR CYQG 282200Z 29017G24KT 15SM BKN075TCU 24/11 A3000 RETS RMK TCU5 SLP157=

CYQG;2006-06-28 23:00;METAR CYQG 282300Z 25008G19KT 15SM -SHRA BKN080 21/12 A3000 RMK AC7 SLP157=

CYQG;2006-06-28 23:21;SPECI CYQG 282321Z 25008KT 15SM BKN100 RMK AC7=

CYQG;2006-06-29 00:00;METAR CYQG 290000Z 22004KT 15SM FEW100 OVC160 20/13 A3000 RMK AC1AC7 SLP157=

CYQG;2006-06-29 01:00;METAR CYQG 290100Z 23006KT 15SM FEW160 BKN220 20/14 A3000 RMK AC2CI2 SLP158=

CYQG;2006-06-29 03:00;METAR CYQG 290300Z 21006KT 12SM FEW080 FEW250 18/14 A3004 RMK AC1CI1 SLP170=

CYQG;2006-06-29 04:00;METAR CYQG 290400Z 22006KT 10SM FEW060 FEW080 18/15 A3003 RMK SC2AC1 SLP167=

CYQG;2006-06-29 05:00;METAR CYQG 290500Z 24007KT 12SM FEW080 18/15 A3003 RMK AC2 SLP166=

CYQG;2006-06-29 06:00;METAR CYQG 290600Z 25006KT 10SM FEW250 18/14 A3002 RMK CI1 SLP164=

CYQG;2006-06-29 07:00;METAR CYQG 290700Z 25008KT 10SM FEW250 17/14 A3002 RMK CI2 SLP165=

CYQG;2006-06-29 09:00;METAR CYQG 290900Z 29007KT 8SM FEW025 FEW250 16/13 A3003 RMK CU1CI1 SLP169=

CYQG;2006-06-29 10:00;METAR CYQG 291000Z 27006KT 6SM HZ FEW080 FEW250 16/13 A3004 RMK AC1CI1 SLP173=

CYQG;2006-06-29 12:00;METAR CYQG 291200Z 27008KT 6SM HZ FEW075 17/14 A3007 RMK AC1 SLP181=

CYQG;2006-06-29 13:00;METAR CYQG 291300Z 29008KT 6SM HZ SKC 18/14 A3008 RMK SLP185=

CYQG;2006-06-29 14:00;METAR CYQG 291400Z 31007KT 8SM FEW030 19/13 A3008 RMK CF1 SLP187=

CYQG;2006-06-29 15:00;METAR CYQG 291500Z 31006KT 15SM FEW030 21/13 A3007 RMK CF1 SLP183=

CYQG;2006-06-29 16:00;METAR CYQG 291600Z 31012KT 15SM FEW040 22/12 A3008 RMK CU2 SLP185=

CYQG;2006-06-29 17:00;METAR CYQG 291700Z 35009G17KT 15SM BKN053 23/12 A3008 RMK CU6 SLP186=

CYQG;2006-06-29 18:00;METAR CYQG 291800Z 32012G17KT 15SM BKN050 24/13 A3007 RMK CU6 SLP183=

CYQG;2006-06-29 19:00;METAR CYQG 291900Z 29011KT 15SM BKN055 BKN280 24/13 A3007 RMK CU6CI0 SLP181=

CYQG;2006-06-29 20:00;METAR CYQG 292000Z 32014KT 15SM BKN055TCU BKN280 24/11 A3007 RMK TCU5CI1 SLP180=

CYQG;2006-06-29 21:00;METAR CYQG 292100Z 36013G18KT 15SM BKN057TCU 24/12 A3007 RMK TCU6 SH NE SLP180=

CYQG;2006-06-29 21:09;SPECI CYQG 292109Z 03011KT 15SM -SHRA BKN056TCU RMK TCU6=

CYQG;2006-06-29 21:46;SPECI CYQG 292146Z 01004KT 15SM FEW057TCU RMK TCU2=

CYQG;2006-06-29 22:00;METAR CYQG 292200Z 35002KT 15SM FEW057TCU 23/14 A3006 RMK TCU2 SLP179=

CYQG;2006-06-29 23:00;METAR CYQG 292300Z 36004KT 15SM BKN056TCU 24/14 A3006 RMK TCU6 SLP177=

CYQG;2006-06-30 00:00;METAR CYQG 300000Z 32009KT 15SM SCT055TCU BKN110 24/12 A3006 RMK TCU3AC2 SLP177=

CYQG;2006-06-30 01:00;METAR CYQG 300100Z 29004KT 15SM FEW060TCU SCT120 23/12 A3006 RMK TCU2AC2 SLP179=

CYQG;2006-06-30 02:00;METAR CYQG 300200Z 27003KT 15SM BKN090 22/13 A3007 RMK AC6 SLP181=

CYQG;2006-06-30 03:00;METAR CYQG 300300Z 25004KT 15SM FEW100 22/12 A3008 RMK AC2 SLP185=

CYQG;2006-06-30 04:00;METAR CYQG 300400Z 25006KT 15SM SKC 21/13 A3008 RMK SLP185=

CYQG;2006-06-30 05:00;METAR CYQG 300500Z 26006KT 15SM SKC 20/14 A3007 RMK SLP183=

CYQG;2006-06-30 06:00;METAR CYQG 300600Z 27006KT 15SM SKC 19/13 A3008 RMK SLP184=

CYQG;2006-06-30 07:00;METAR CYQG 300700Z 27006KT 15SM SKC 19/13 A3007 RMK SLP181=

CYQG;2006-06-30 09:00;METAR CYQG 300900Z 28006KT 15SM SKC 17/13 A3007 RMK SLP182=

CYQG;2006-06-30 10:00;METAR CYQG 301000Z 29005KT 12SM FEW080 17/12 A3007 RMK AC2 SLP183=

CYQG;2006-06-30 11:00;METAR CYQG 301100Z 28005KT 10SM FEW100 17/12 A3009 RMK AC2 SLP188=

CYQG;2006-06-30 12:00;METAR CYQG 301200Z 29006KT 15SM BKN130 18/12 A3010 RMK AC6 SLP190=

CYQG;2006-06-30 13:00;METAR CYQG 301300Z 29006KT 15SM BKN140 20/11 A3010 RMK AC6 SLP191=

CYQG;2006-06-30 14:00;METAR CYQG 301400Z 27007KT 15SM BKN140 21/12 A3010 RMK AC7 SLP191=

CYQG;2006-06-30 15:00;METAR CYQG 301500Z 29007KT 15SM BKN110 23/12 A3009 RMK AC7 SLP188=

CYQG;2006-06-30 16:00;METAR CYQG 301600Z 32005KT 15SM BKN100 24/12 A3009 RMK AC7 SLP187=

CYQG;2006-06-30 17:00;METAR CYQG 301700Z 30007KT 15SM BKN110 25/12 A3009 RMK AC7 SLP186=

CYQG;2006-06-30 18:00;METAR CYQG 301800Z 25005G15KT 15SM FEW040 26/12 A3007 RMK CU2 SLP181=

CYQG;2006-06-30 20:00;METAR CYQG 302000Z 23007G15KT 15SM SCT080 BKN250 27/13 A3005 RMK CU4CI1 SLP174=

CYQG;2006-06-30 21:00;METAR CYQG 302100Z 23010KT 15SM SCT065 BKN250 27/13 A3005 RMK CU4CI1 SLP174=

CYQG;2006-06-30 22:00;METAR CYQG 302200Z 23010KT 10SM BKN062TCU BKN250 27/12 A3004 RMK TCU5CI1 SLP171=

CYQG;2006-07-01 00:00;METAR CYQG 010000Z 23007KT 12SM FEW062 FEW250 26/12 A3004 RMK CU1CI1 SLP170=

CYQG;2006-07-01 01:00;METAR CYQG 010100Z 21007KT 15SM FEW120 FEW250 24/14 A3005 RMK AC1CI1 SLP173=

CYQG;2006-07-01 02:00;METAR CYQG 010200Z 20005KT 15SM FEW250 23/14 A3005 RMK CI1 SLP175=

CYQG;2006-07-01 03:00;METAR CYQG 010300Z 20006KT 15SM FEW250 22/15 A3007 RMK CI1 SLP180=

CYQG;2006-07-01 04:00;METAR CYQG 010400Z 21004KT 15SM SKC 21/15 A3007 RMK SLP181=

CYQG;2006-07-01 05:00;METAR CYQG 010500Z 21005KT 15SM SKC 20/16 A3007 RMK SLP181=

CYQG;2006-07-01 06:00;METAR CYQG 010600Z 19004KT 15SM SKC 20/16 A3007 RMK SLP181=

CYQG;2006-07-01 08:00;METAR CYQG 010800Z 00000KT 15SM SKC 18/16 A3007 RMK SLP179=

CYQG;2006-07-01 09:00;METAR CYQG 010900Z 23003KT 15SM FEW100 FEW270 18/16 A3007 RMK AC1CI0 SLP180=

CYQG;2006-07-01 11:00;METAR CYQG 011100Z 28002KT 8SM FEW030 BKN270 19/15 A3008 RMK CU2CI1 CONTRAILS SLP183=

CYQG;2006-07-01 14:00;METAR CYQG 011400Z 23009KT 12SM FEW300 25/17 A3007 RMK CI1 CONTRAILS SLP182=

CYQG;2006-07-01 15:00;METAR CYQG 011500Z 22012KT 12SM SCT300 26/17 A3005 RMK CI1 SLP172=

CYQG;2006-07-01 16:00;METAR CYQG 011600Z 22012KT 15SM FEW040 BKN300 27/19 A3005 RMK CF1CI3 SLP173=

CYQG;2006-07-01 17:00;METAR CYQG 011700Z 20014G19KT 10SM FEW040 BKN300 28/19 A3002 RMK CF1CI4 SLP164=

CYQG;2006-07-01 18:00;METAR CYQG 011800Z 22014G19KT 15SM FEW040 BKN300 29/20 A3000 RMK CF1CI4 CONTRAILS SLP155=

CYQG;2006-07-01 20:00;METAR CYQG 012000Z 22012G20KT 10SM OVC280 30/20 A2995 RMK CS5 CONTRAILS CI ASOCTD SLP141=

CYQG;2006-07-01 21:00;METAR CYQG 012100Z 22018KT 10SM SCT110 BKN280 31/18 A2993 RMK AC4CS1 SLP131=

CYQG;2006-07-01 22:00;METAR CYQG 012200Z 22013KT 10SM BKN110 31/19 A2990 RMK AC6 SLP122=

CYQG;2006-07-01 23:00;METAR CYQG 012300Z 22012G19KT 10SM SCT140 SCT280 31/19 A2989 RMK AC3CC1 SLP117=

CYQG;2006-07-02 00:00;METAR CYQG 020000Z 23011KT 11SM BKN110 BKN160 31/18 A2989 RMK AC5AC2 SLP118=

CYQG;2006-07-02 02:00;METAR CYQG 020200Z 22014G19KT 11SM SCT280 29/16 A2988 RMK CS3 SLP114=

CYQG;2006-07-02 03:00;METAR CYQG 020300Z 23016G22KT 11SM SCT280 29/17 A2987 RMK CS2 SLP112=

CYQG;2006-07-02 04:00;METAR CYQG 020400Z 25014G21KT 10SM FEW190 SCT260 29/17 A2990 RMK AC2CI1 SLP122=

CYQG;2006-07-02 05:00;METAR CYQG 020500Z 24020G27KT 15SM FEW180 FEW260 28/17 A2990 RMK AC1CI1 SLP122=

CYQG;2006-07-02 06:00;METAR CYQG 020600Z 24016G22KT 15SM BKN260 27/16 A2990 RMK CI4 SLP121=

CYQG;2006-07-02 08:00;METAR CYQG 020800Z 23014G19KT 15SM SCT170 OVC220 26/16 A2990 RMK AC4CI4 SLP121=

CYQG;2006-07-02 09:00;METAR CYQG 020900Z 24013G18KT 15SM BKN170 OVC220 26/16 A2992 RMK AC6CI2 SLP129=

CYQG;2006-07-02 10:00;METAR CYQG 021000Z 25013KT 10SM BKN150 OVC210 26/16 A2993 RMK AC6CI2 SLP132=

CYQG;2006-07-02 11:00;METAR CYQG 021100Z 26008KT 12SM SCT140 BKN210 26/17 A2995 RMK AC4CI1 SLP137=

CYQG;2006-07-02 12:00;METAR CYQG 021200Z 25008KT 12SM BKN180 BKN250 26/17 A2995 RMK AC5CI1 SLP138=

CYQG;2006-07-02 13:00;METAR CYQG 021300Z 25012KT 15SM BKN150 BKN250 26/17 A2996 RMK AC6CI1 SLP141=

CYQG;2006-07-02 14:00;METAR CYQG 021400Z 24011KT 15SM BKN140 26/17 A2998 RMK AC7 SLP147=

CYQG;2006-07-02 15:00;METAR CYQG 021500Z 25013KT 12SM OVC120 26/18 A2999 RMK AC8 PRESRR SLP151=

CYQG;2006-07-02 15:17;SPECI CYQG 021517Z 25017G26KT 12SM -SHRA OVC120 RMK AC8=

CYQG;2006-07-02 15:45;SPECI CYQG 021545Z 26015G22KT 12SM SCT060 OVC120 RMK SC4AC4=

CYQG;2006-07-02 16:00;METAR CYQG 021600Z 25017G25KT 12SM SCT060 OVC120 27/19 A3001 RMK SC3AC5 SLP158=

CYQG;2006-07-02 17:00;METAR CYQG 021700Z 26014G19KT 12SM FEW060 OVC120 25/19 A3001 RMK SC2AC6 SLP158=

CYQG;2006-07-02 18:00;METAR CYQG 021800Z 24017KT 7SM FEW060 OVC100 24/20 A3002 RMK SC2AC6 SLP162=

CYQG;2006-07-02 19:00;METAR CYQG 021900Z 24008KT 10SM OVC140 24/21 A2999 RMK AC8 SLP152=

CYQG;2006-07-02 20:09;SPECI CYQG 022009Z 27018KT 12SM FEW140 OVC180 RMK AC2AC6=

CYQG;2006-07-02 21:00;METAR CYQG 022100Z 26015KT 12SM -SHRA FEW120 OVC180 25/20 A3001 RMK AC0AC8 SLP159=

CYQG;2006-07-02 21:50;SPECI CYQG 022150Z 26013KT 12SM OVC160 RMK AC8=

CYQG;2006-07-02 22:00;METAR CYQG 022200Z 26014KT 10SM -SHRA OVC160 25/20 A3001 RMK AC8 SLP158=

CYQG;2006-07-02 22:30;SPECI CYQG 022230Z 24012KT 10SM OVC140 RMK AC8=

CYQG;2006-07-03 00:00;METAR CYQG 030000Z 26010KT 10SM SCT120 BKN140 BKN190 OVC280 26/20 A2999 RMK AC3AC2AC2CS1 SLP153=

CYQG;2006-07-03 01:00;METAR CYQG 030100Z 26008KT 10SM BKN160 BKN280 25/19 A3001 RMK AC6CS1 SLP159=

CYQG;2006-07-03 03:00;METAR CYQG 030300Z 25008KT 12SM SCT120 25/19 A3004 RMK AC4 SLP170=

CYQG;2006-07-03 04:00;METAR CYQG 030400Z 25005KT 10SM FEW120 23/20 A3004 RMK AC2 SLP169=

CYQG;2006-07-03 06:00;METAR CYQG 030600Z 25006KT 6SM HZ FEW120 22/20 A3003 RMK AC1 SLP168=

CYQG;2006-07-03 08:00;METAR CYQG 030800Z 23005KT 5SM BR SKC 21/19 A3005 RMK SLP175=

CYQG;2006-07-03 09:00;METAR CYQG 030900Z 22004KT 5SM BR SKC 20/18 A3005 RMK SLP173=

CYQG;2006-07-03 10:00;METAR CYQG 031000Z 24005KT 3SM BR FEW100 20/18 A3005 RMK AC1 SLP175=

CYQG;2006-07-03 10:07;SPECI CYQG 031007Z 24005KT 2SM BR FEW100 RMK AC1=

CYQG;2006-07-03 10:46;SPECI CYQG 031046Z 25003KT 1 1/2SM BR FEW100 RMK AC1=

CYQG;2006-07-03 11:00;METAR CYQG 031100Z 25003KT 1 1/2SM BR FEW100 20/18 A3005 RMK AC1 SLP175=

CYQG;2006-07-03 11:24;SPECI CYQG 031124Z 25005KT 2SM BR FEW100 RMK AC1=

CYQG;2006-07-03 12:00;METAR CYQG 031200Z 24003KT 3SM HZ FEW100 FEW250 21/19 A3005 RMK AC1CI1 CONTRAILS CI ASOCTD SLP175=

CYQG;2006-07-03 12:12;SPECI CYQG 031212Z 25004KT 5SM HZ FEW100 FEW250 RMK AC1CI1 CONTRAILS CI ASOCTD=

CYQG;2006-07-03 13:00;METAR CYQG 031300Z 25005KT 6SM HZ FEW100 FEW220 24/20 A3007 RMK AC1CI1 SLP181=

CYQG;2006-07-03 14:00;METAR CYQG 031400Z 23006KT 10SM SCT150 OVC240 26/20 A3006 RMK AC3CI3 SLP178=

CYQG;2006-07-03 15:00;METAR CYQG 031500Z 25009KT 10SM BKN200 OVC250 27/20 A3006 RMK CS6CI0 SLP176=

CYQG;2006-07-03 16:00;METAR CYQG 031600Z 23010KT 10SM OVC240 26/21 A3006 RMK CS8 SLP177=

CYQG;2006-07-03 17:00;METAR CYQG 031700Z 23007KT 8SM OVC180 27/21 A3005 RMK AC8 SLP173=

CYQG;2006-07-03 17:32;SPECI CYQG 031732Z 22012KT 7SM -SHRA OVC100 RMK AC8=

CYQG;2006-07-03 18:00;METAR CYQG 031800Z 22012KT 6SM -SHRA FEW025 OVC100 26/21 A3004 RMK CF2AC6 SLP170=

CYQG;2006-07-03 19:00;METAR CYQG 031900Z 23014KT 6SM -SHRA OVC120 26/21 A3003 RMK AC8 SLP165=

CYQG;2006-07-03 19:16;SPECI CYQG 031916Z 24013KT 7SM OVC120 RMK AC8=

CYQG;2006-07-03 20:00;METAR CYQG 032000Z 26011KT 12SM OVC100 25/19 A3002 RMK AC8 SLP162=

CYQG;2006-07-03 21:00;METAR CYQG 032100Z 22011KT 15SM BKN090 26/19 A3000 RMK AC7 SLP155=

CYQG;2006-07-03 22:00;METAR CYQG 032200Z 22011G17KT 15SM OVC090 25/19 A3000 RMK AC8 SLP155=

CYQG;2006-07-03 23:00;METAR CYQG 032300Z 22012KT 15SM BKN090 25/21 A2999 RMK AC7 SLP153=

CYQG;2006-07-04 00:00;METAR CYQG 040000Z 22007KT 15SM BKN080 BKN280 25/21 A2998 RMK AC6CI1 SLP150=

CYQG;2006-07-04 01:00;METAR CYQG 040100Z 23008KT 12SM BKN075 25/21 A2998 RMK AC7 SLP150=

CYQG;2006-07-04 02:00;METAR CYQG 040200Z 20005KT 8SM -SHRA BKN070 24/21 A2997 RMK AC6 SLP145=

CYQG;2006-07-04 02:21;SPECI CYQG 040221Z 20006KT 10SM BKN070 RMK AC7=

CYQG;2006-07-04 03:00;METAR CYQG 040300Z 21004KT 10SM BKN062 OVC080 23/20 A2998 RMK SC6AC2 SLP148=

CYQG;2006-07-04 04:16;SPECI CYQG 040416Z 23011KT 10SM -SHRA OVC055 RMK SC8=

CYQG;2006-07-04 04:45;SPECI CYQG 040445Z 24009G15KT 10SM -TSRA OVC056 RERA RMK SC8 LTGICCG E-SE CB ASOCTD=

CYQG;2006-07-04 05:00;METAR CYQG 040500Z 26006KT 8SM -TSRA BKN055 OVC130 23/21 A2994 RERA RMK SC6AC2 LTGICCG E-SE CB ASOCTD SLP136=

CYQG;2006-07-04 05:33;SPECI CYQG 040533Z 24006KT 6SM BR SCT050 OVC150 RETS RMK SC3AC5 OCNL LTGIC DIST SE OCNL SHRA=

CYQG;2006-07-04 06:00;METAR CYQG 040600Z 22007KT 6SM BR SCT050 OVC190 22/20 A2993 RETS RMK SC3AC5 SLP132=

CYQG;2006-07-04 07:00;METAR CYQG 040700Z 23009KT 10SM SCT060 OVC150 21/19 A2993 RMK SC3AC5 SLP131=

CYQG;2006-07-04 07:39;SPECI CYQG 040739Z 23004KT 8SM -SHRA SCT055 OVC130 RMK SC4AC4=

CYQG;2006-07-04 08:00;METAR CYQG 040800Z 24008KT 8SM -SHRA BKN022 OVC120 21/19 A2992 RMK SC6AC2 SLP130=

CYQG;2006-07-04 09:45;SPECI CYQG 040945Z 21005KT 5SM BR SCT030 OVC120 RMK SC3AC5=

CYQG;2006-07-04 10:00;METAR CYQG 041000Z 22006KT 4SM BR FEW010 BKN024 OVC140 20/19 A2990 RMK SF1SC4AC3 SLP124=

CYQG;2006-07-04 11:14;SPECI CYQG 041114Z 30005KT 2 1/2SM -SHRA BR FEW008 BKN029 OVC120 RMK SF2SC4AC2=

CYQG;2006-07-04 11:54;SPECI CYQG 041154Z 26004KT 5SM BR BKN015 OVC120 RERA RMK SC6AC2=

CYQG;2006-07-04 12:00;METAR CYQG 041200Z 25005KT 5SM BR BKN015 OVC120 21/20 A2990 RERA RMK SC6AC2 PRESFR OCNL -SHRA SLP123=

CYQG;2006-07-04 13:00;METAR CYQG 041300Z 27007KT 6SM BR OVC010 22/20 A2991 RMK SC8 SLP127=

CYQG;2006-07-04 14:00;METAR CYQG 041400Z 25007KT 6SM HZ SCT010 BKN120 24/21 A2993 RMK CF3AC2 SLP132=

CYQG;2006-07-04 15:00;METAR CYQG 041500Z 24007KT 6SM HZ BKN010 25/21 A2992 RMK CU6 SLP129=

CYQG;2006-07-04 16:00;METAR CYQG 041600Z 31010KT 8SM BKN022 BKN250 27/20 A2992 RMK CU6CI1 SLP129=

CYQG;2006-07-04 17:00;METAR CYQG 041700Z 28009KT 10SM BKN032 BKN250 28/20 A2992 RMK CU5CI1 SLP129=

CYQG;2006-07-04 18:00;METAR CYQG 041800Z 30008KT 15SM BKN040TCU BKN250 29/19 A2992 RMK TCU6CI1 SLP127=

CYQG;2006-07-04 19:00;METAR CYQG 041900Z 30011G17KT 15SM BKN040TCU BKN250 29/17 A2991 RMK TCU5CI1 SLP125=

CYQG;2006-07-04 20:00;METAR CYQG 042000Z 32011G18KT 15SM SCT060 30/16 A2990 RMK CU3 SLP123=

CYQG;2006-07-04 21:00;METAR CYQG 042100Z 32012KT 15SM FEW058 30/16 A2990 RMK CU2 SLP122=

CYQG;2006-07-04 22:00;METAR CYQG 042200Z 32011G17KT 15SM FEW070 FEW290 29/15 A2990 RMK CU2CI1 SLP123=

CYQG;2006-07-04 23:00;METAR CYQG 042300Z 34012KT 15SM FEW067 FEW290 28/14 A2991 RMK CU2CI1 SLP126=

CYQG;2006-07-05 00:00;METAR CYQG 050000Z 34011KT 15SM FEW060 FEW290 27/14 A2994 RMK CU2CI1 SLP135=

CYQG;2006-07-05 01:00;METAR CYQG 050100Z 35009KT 15SM FEW067 FEW290 25/14 A2995 RMK AC2CI1 SLP139=

CYQG;2006-07-05 03:00;METAR CYQG 050300Z 03013KT 15SM FEW070 21/16 A3001 RMK AC1 SLP158=

CYQG;2006-07-05 04:00;METAR CYQG 050400Z 02008KT 15SM SKC 20/15 A3002 RMK SLP164=

CYQG;2006-07-05 05:00;METAR CYQG 050500Z 01006KT 15SM SKC 19/14 A3004 RMK SLP168=

CYQG;2006-07-05 06:00;METAR CYQG 050600Z 36006KT 15SM FEW060 18/14 A3004 RMK CF2 SLP169=

CYQG;2006-07-05 07:00;METAR CYQG 050700Z 34003KT 15SM FEW060 SCT230 17/14 A3004 RMK CF1CI1 SLP170=

CYQG;2006-07-05 08:00;METAR CYQG 050800Z 35006KT 15SM FEW060 BKN220 17/13 A3004 RMK CF1CI5 SLP170=

CYQG;2006-07-05 09:00;METAR CYQG 050900Z 35004KT 15SM BKN220 16/10 A3005 RMK CI4 SLP175=

CYQG;2006-07-05 10:00;METAR CYQG 051000Z 34006KT 15SM FEW190 BKN240 16/09 A3006 RMK AC2CI2 SLP176=

CYQG;2006-07-05 11:00;METAR CYQG 051100Z 34008KT 15SM FEW180 SCT240 16/09 A3007 RMK AC2CI1 SLP179=

CYQG;2006-07-05 12:00;METAR CYQG 051200Z 35005KT 15SM FEW250 16/09 A3008 RMK CI0 SLP183=

CYQG;2006-07-05 14:00;METAR CYQG 051400Z 35009KT 15SM FEW030 FEW250 18/09 A3009 RMK CF1CI0 SLP188=

CYQG;2006-07-05 15:00;METAR CYQG 051500Z 35009KT 15SM FEW030 FEW140 FEW250 19/09 A3010 RMK CF1AC1CI1 SLP191=

CYQG;2006-07-05 16:00;METAR CYQG 051600Z 36007KT 15SM FEW040 FEW250 20/10 A3010 RMK CF2CI1 SLP191=

CYQG;2006-07-05 17:00;METAR CYQG 051700Z 01011KT 15SM SCT048 SCT250 21/10 A3010 RMK CU3CI1 SLP191=

CYQG;2006-07-05 18:00;METAR CYQG 051800Z 33009KT 15SM BKN048 BKN250 22/10 A3009 RMK CU5CI1 SLP188=

CYQG;2006-07-06 20:00;METAR CYQG 062000Z 07010KT 15SM SCT055 SCT300 24/13 A3023 RMK CU3CI0 SLP237=

CYQG;2006-07-06 21:00;METAR CYQG 062100Z 05009KT 15SM FEW075 SCT300 24/13 A3023 RMK CU2CS1 SLP237=

CYQG;2006-07-06 22:00;METAR CYQG 062200Z 06012KT 15SM FEW075 FEW300 23/14 A3024 RMK CU2CS1 SLP240=

CYQG;2006-07-06 23:00;METAR CYQG 062300Z 04009KT 15SM FEW070 SCT300 23/11 A3025 RMK CU1CS1 SLP241=

CYQG;2006-07-07 00:00;METAR CYQG 070000Z 05010KT 15SM FEW060 SCT300 22/11 A3026 RMK CU1CS1 SLP246=

CYQG;2006-07-07 01:00;METAR CYQG 070100Z 07005KT 15SM FEW050 BKN300 21/11 A3026 RMK CF0CS2 SLP248=

CYQG;2006-07-07 03:00;METAR CYQG 070300Z 00000KT 15SM FEW300 19/11 A3030 RMK CS2 SLP259=

CYQG;2006-07-07 04:00;METAR CYQG 070400Z 00000KT 15SM SKC 18/12 A3030 RMK SLP259=

CYQG;2006-07-07 05:00;METAR CYQG 070500Z 25004KT 15SM SCT260 18/11 A3030 RMK CI2 SLP261=

CYQG;2006-07-07 06:00;METAR CYQG 070600Z 27005KT 15SM SCT230 18/12 A3030 RMK CI2 SLP261=

CYQG;2006-07-07 07:00;METAR CYQG 070700Z 29003KT 15SM FEW250 18/12 A3030 RMK CI1 SLP260=

CYQG;2006-07-07 08:00;METAR CYQG 070800Z 28004KT 15SM SCT220 17/12 A3030 RMK CI2 SLP260=

CYQG;2006-07-07 09:00;METAR CYQG 070900Z 30004KT 15SM SCT220 17/12 A3031 RMK CI2 SLP262=

CYQG;2006-07-07 10:00;METAR CYQG 071000Z 00000KT 15SM BKN240 16/12 A3032 RMK CI2 SLP266=

CYQG;2006-07-07 11:00;METAR CYQG 071100Z 19002KT 15SM SCT260 16/12 A3033 RMK CI1 CONTRAILS SLP270=

CYQG;2006-07-07 12:00;METAR CYQG 071200Z 29005KT 15SM SCT280 18/13 A3034 RMK CI1 SLP274=

CYQG;2006-07-07 13:00;METAR CYQG 071300Z 29005KT 15SM FEW280 21/13 A3035 RMK CI1 SLP278=

CYQG;2006-07-07 14:00;METAR CYQG 071400Z 30004KT 15SM FEW280 23/13 A3036 RMK CI1 SLP279=

CYQG;2006-07-07 15:00;METAR CYQG 071500Z 36004KT 15SM FEW025 BKN300 24/13 A3035 RMK CF1CI2 SLP277=

CYQG;2006-07-07 16:00;METAR CYQG 071600Z 06003KT 15SM SCT057 OVC300 25/13 A3035 RMK CU4CI1 SLP275=

CYQG;2006-07-07 17:00;METAR CYQG 071700Z 01004KT 15SM SCT060 OVC300 25/12 A3034 RMK SC4CI1 SLP272=

CYQG;2006-07-07 18:00;METAR CYQG 071800Z 11003KT 15SM BKN067 OVC300 26/12 A3032 RMK CU5CI0 SLP266=

CYQG;2006-07-07 19:00;METAR CYQG 071900Z 00000KT 15SM SCT064 OVC300 26/13 A3030 RMK SC3CI1 SLP260=

CYQG;2006-07-07 21:00;METAR CYQG 072100Z 22008KT 15SM FEW061 OVC300 26/14 A3028 RMK SC2CI2 SLP253=

CYQG;2006-07-07 22:00;METAR CYQG 072200Z 20009KT 15SM FEW060 OVC300 25/14 A3028 RMK SC1CI2 SLP252=

CYQG;2006-07-07 23:00;METAR CYQG 072300Z 18008KT 15SM FEW060 OVC300 25/13 A3027 RMK SC0CI2 SLP248=

CYQG;2006-07-08 00:00;METAR CYQG 080000Z 18008KT 15SM FEW060 OVC300 24/14 A3027 RMK SC0CI2 SLP248=

CYQG;2006-07-08 01:00;METAR CYQG 080100Z 16005KT 15SM OVC300 23/14 A3027 RMK CI2 SLP249=

CYQG;2006-07-08 03:00;METAR CYQG 080300Z 18004KT 15SM SKC 21/14 A3028 RMK SLP253=

CYQG;2006-07-08 04:00;METAR CYQG 080400Z 19003KT 15SM SKC 20/14 A3029 RMK SLP254=

CYQG;2006-07-08 06:00;METAR CYQG 080600Z 21002KT 15SM SKC 19/14 A3027 RMK SLP248=

CYQG;2006-07-08 07:00;METAR CYQG 080700Z 17003KT 15SM SKC 19/14 A3026 RMK SLP246=

CYQG;2006-07-08 08:00;METAR CYQG 080800Z 00000KT 15SM SKC 18/14 A3026 RMK SLP245=

CYQG;2006-07-08 09:00;METAR CYQG 080900Z 27002KT 15SM SKC 18/14 A3026 RMK SLP247=

CYQG;2006-07-08 10:00;METAR CYQG 081000Z 28003KT 15SM FEW120 FEW280 18/13 A3027 RMK AC1CI1 SLP249=

CYQG;2006-07-08 11:00;METAR CYQG 081100Z 27003KT 15SM FEW063 19/13 A3027 RMK SC2 SLP250=

CYQG;2006-07-08 12:00;METAR CYQG 081200Z 24002KT 15SM FEW060 20/13 A3027 RMK SC1 SLP248=

CYQG;2006-07-08 13:00;METAR CYQG 081300Z 27007KT 15SM FEW300 22/14 A3026 RMK CS1 SLP247=

CYQG;2006-07-08 14:00;METAR CYQG 081400Z 23005KT 15SM FEW300 24/13 A3026 RMK CI0 SLP245=

CYQG;2006-07-08 15:00;METAR CYQG 081500Z 27007KT 15SM OVC300 25/13 A3024 RMK CI2 SLP238=

CYQG;2006-07-08 16:00;METAR CYQG 081600Z 26006KT 15SM FEW048 OVC300 26/14 A3023 RMK CU2CI2 SLP234=

CYQG;2006-07-08 18:00;METAR CYQG 081800Z 18007KT 15SM FEW060 OVC300 27/13 A3021 RMK CU2CI1 PRESFR SLP229=

CYQG;2006-07-08 19:00;METAR CYQG 081900Z 20009KT 15SM FEW060 OVC300 27/13 A3017 RMK CU2CI2 SLP215=

CYQG;2006-07-08 20:00;METAR CYQG 082000Z 24008KT 15SM FEW060 SCT300 27/13 A3014 RMK CU2CI1 SLP206=

CYQG;2006-07-08 21:00;METAR CYQG 082100Z 22007KT 15SM FEW060 SCT300 27/13 A3012 RMK CU1CI2 SLP197=

CYQG;2006-07-08 22:00;METAR CYQG 082200Z 22010G16KT 15SM FEW060 SCT300 27/13 A3010 RMK CU1CI2 SLP191=

CYQG;2006-07-08 23:00;METAR CYQG 082300Z 23009KT 15SM FEW060 BKN300 27/14 A3009 RMK CU1CI2 SLP186=

CYQG;2006-07-09 00:00;METAR CYQG 090000Z 20008KT 15SM FEW060 SCT300 26/13 A3008 RMK CU1CI2 SLP183=

CYQG;2006-07-09 01:00;METAR CYQG 090100Z 20007KT 15SM FEW060 FEW300 24/14 A3007 RMK CU1CI1 CU TR SLP182=

CYQG;2006-07-09 02:00;METAR CYQG 090200Z 19005KT 15SM FEW300 22/15 A3007 RMK CI1 SLP181=

CYQG;2006-07-09 04:00;METAR CYQG 090400Z 18004KT 15SM BKN063 22/16 A3005 RMK SC6 SLP174=

CYQG;2006-07-09 07:00;METAR CYQG 090700Z 22005KT 15SM BKN210 OVC250 22/16 A3001 RMK CI5CS2 SLP160=

CYQG;2006-07-09 09:00;METAR CYQG 090900Z 24004KT 15SM FEW150 OVC250 21/15 A2999 RMK AC2CS6 SLP154=

CYQG;2006-07-09 10:00;METAR CYQG 091000Z 19004KT 15SM BKN064 OVC210 20/15 A3000 RMK SC5CI3 SLP156=

CYQG;2006-07-09 11:00;METAR CYQG 091100Z 22006KT 12SM FEW066 BKN160 BKN250 20/15 A3000 RMK AC2AC4CI2 SLP157=

CYQG;2006-07-09 12:00;METAR CYQG 091200Z 22006KT 10SM FEW066 BKN160 21/15 A3000 RMK AC2AC6 ACC ASOCTD SLP157=

CYQG;2006-07-09 13:00;METAR CYQG 091300Z 22009KT 10SM SCT120 BKN260 22/15 A3000 RMK AC3CI1 SLP157=

CYQG;2006-07-09 14:00;METAR CYQG 091400Z 23009KT 12SM SCT067 SCT120 BKN270 24/16 A3000 RMK AC3AC1CI1 SLP156=

CYQG;2006-07-09 15:00;METAR CYQG 091500Z 24011KT 10SM FEW070 BKN120 BKN270 25/16 A2999 RMK AC2AC4CI1 SLP152=

CYQG;2006-07-09 16:00;METAR CYQG 091600Z 22011KT 8SM BKN130 26/16 A2998 RMK AC6 SLP149=

CYQG;2006-07-09 18:00;METAR CYQG 091800Z 23011G18KT 10SM FEW049 FEW120 28/16 A2994 RMK CU2AC1 TCU ASOCTD SLP136=

CYQG;2006-07-09 19:00;METAR CYQG 091900Z 20011G17KT 8SM SCT045 28/17 A2993 RMK CU3 TCU ASOCTD SLP131=

CYQG;2006-07-09 20:00;METAR CYQG 092000Z 23015G20KT 10SM SCT058TCU BKN078 28/17 A2992 RMK TCU3AC4 SLP128=

CYQG;2006-07-09 21:00;METAR CYQG 092100Z 21016KT 12SM SCT065 28/17 A2989 RMK SC4 TCU ASOCTD SLP120=

CYQG;2006-07-09 22:00;METAR CYQG 092200Z 21015G20KT 12SM BKN065 28/16 A2989 RMK SC7 SLP118=

CYQG;2006-07-09 23:00;METAR CYQG 092300Z 21014KT 10SM BKN060 27/16 A2989 RMK SC7 SLP119=

CYQG;2006-07-10 00:00;METAR CYQG 100000Z 21011KT 12SM BKN050TCU BKN100 27/17 A2989 RMK TCU6AC1 SLP118=

CYQG;2006-07-10 01:00;METAR CYQG 100100Z 21010KT 12SM FEW060 SCT280 26/17 A2988 RMK SC2CI0 SLP115=

CYQG;2006-07-10 03:00;METAR CYQG 100300Z 22010KT 15SM FEW060 BKN280 25/18 A2989 RMK SC2CI2 SLP117=

CYQG;2006-07-10 04:00;METAR CYQG 100400Z 22010KT 10SM BKN270 25/18 A2989 RMK CS5 SLP118=

CYQG;2006-07-10 05:00;METAR CYQG 100500Z 23009KT 12SM FEW060 BKN170 OVC270 25/17 A2989 RMK SC1AC5CS2 SLP117=

CYQG;2006-07-10 05:53;SPECI CYQG 100553Z 24009KT 10SM -SHRA SCT060 OVC110 RMK SC3AC5=

CYQG;2006-07-10 06:00;METAR CYQG 100600Z 24009KT 10SM -SHRA FEW060 OVC110 24/17 A2988 RMK SC2AC6 SLP115=

CYQG;2006-07-10 06:47;SPECI CYQG 100647Z 24005KT 10SM -TSRA SCT058CB OVC120 RMK CB3AC5=

CYQG;2006-07-10 07:48;SPECI CYQG 100748Z 17005KT 12SM TS BKN053CB OVC130 RMK CB6AC2 OCNL LTGIC E=

CYQG;2006-07-10 08:28;SPECI CYQG 100828Z 23007KT 12SM FEW050CB BKN140 RETS RMK CB2AC4=

CYQG;2006-07-10 09:00;METAR CYQG 100900Z 23011KT 12SM SCT044CB BKN130 23/17 A2984 RETS RMK CB3AC4 SLP101=

CYQG;2006-07-10 09:06;SPECI CYQG 100906Z 24012KT 10SM -TSRA BKN047CB OVC130 RMK CB6AC2=

CYQG;2006-07-10 09:46;SPECI CYQG 100946Z 23006KT 8SM SCT050 BKN110 RETS RMK SC4AC3=

CYQG;2006-07-10 10:00;METAR CYQG 101000Z 24009KT 8SM FEW055 BKN080 BKN120 22/18 A2984 RETS RMK SC2AC4AC2 SLP101=

CYQG;2006-07-10 12:00;METAR CYQG 101200Z 27012KT 6SM HZ FEW050TCU FEW120 23/18 A2986 RMK TCU1AC1 CB ASOCTD SE SLP109=

CYQG;2006-07-10 13:00;METAR CYQG 101300Z 30012KT 6SM HZ BKN019 23/19 A2989 RMK CU6 TCU ASOCTD SLP117=

CYQG;2006-07-10 14:00;METAR CYQG 101400Z 31008KT 8SM BKN027 BKN110 24/18 A2991 RMK CU6AC1 TCU ASOCTD SLP125=

CYQG;2006-07-10 15:00;METAR CYQG 101500Z 34011G20KT 15SM SCT028 SCT100 23/16 A2992 RMK CU3AC1 SLP129=

CYQG;2006-07-10 16:00;METAR CYQG 101600Z 27008KT 15SM FEW031 FEW100 24/16 A2993 RMK CU1AC1 TCU ASOCTD S SLP132=

CYQG;2006-07-10 17:00;METAR CYQG 101700Z 32008KT 15SM FEW034 FEW100 25/15 A2993 RMK CU1AC1 SLP133=

CYQG;2006-07-10 18:00;METAR CYQG 101800Z 34007KT 15SM FEW050TCU FEW100 26/14 A2993 RMK TCU1AC1 SLP133=

CYQG;2006-07-10 19:00;METAR CYQG 101900Z 32010KT 15SM FEW050 FEW100 27/14 A2993 RMK CF1AC1 TCU ASOCTD SE SLP133=

CYQG;2006-07-10 20:00;METAR CYQG 102000Z 36005KT 15SM FEW054 FEW060CB 27/14 A2994 RMK CF1CB1 SLP134=

CYQG;2006-07-10 22:00;METAR CYQG 102200Z 05012KT 15SM FEW054 FEW250 26/16 A2996 RMK CF1CI0 CB TOPS DIST S SLP141=

CYQG;2006-07-10 23:00;METAR CYQG 102300Z 06011KT 15SM BKN250 24/16 A2996 RMK CI3 SLP143=

CYQG;2006-07-11 00:00;METAR CYQG 110000Z 06008KT 15SM FEW150 SCT250 23/16 A2998 RMK AC1CI2 SLP149=

CYQG;2006-07-11 01:00;METAR CYQG 110100Z 08006KT 15SM SCT250 22/16 A2999 RMK CI2 SLP154=

CYQG;2006-07-11 02:00;METAR CYQG 110200Z 06005KT 15SM FEW250 21/15 A3001 RMK CI1 SLP160=

CYQG;2006-07-11 03:00;METAR CYQG 110300Z 05003KT 15SM FEW250 21/16 A3003 RMK CI1 SLP166=

CYQG;2006-07-11 04:00;METAR CYQG 110400Z 12004KT 15SM SCT270 20/16 A3003 RMK CI1 SLP166=

CYQG;2006-07-11 05:00;METAR CYQG 110500Z 07004KT 15SM BKN280 19/16 A3003 RMK CI2 SLP166=

CYQG;2006-07-11 06:00;METAR CYQG 110600Z 09004KT 15SM BKN280 19/16 A3002 RMK CI2 SLP164=

CYQG;2006-07-11 07:00;METAR CYQG 110700Z 14004KT 15SM SCT050 BKN280 18/16 A3004 RMK SC4CI2 SLP169=

CYQG;2006-07-11 09:00;METAR CYQG 110900Z 10004KT 15SM BKN055 BKN270 18/15 A3003 RMK SC6CI1 SLP167=

CYQG;2006-07-11 10:00;METAR CYQG 111000Z 10004KT 15SM SCT040 BKN270 18/15 A3004 RMK SC3CI3 SLP171=

CYQG;2006-07-11 11:00;METAR CYQG 111100Z 08003KT 15SM FEW040 BKN270 18/16 A3004 RMK SC1CI4 SLP172=

CYQG;2006-07-11 12:00;METAR CYQG 111200Z 10004KT 15SM BKN250 20/17 A3004 RMK CI4 SLP172=

CYQG;2006-07-11 13:00;METAR CYQG 111300Z 11006KT 12SM FEW010 BKN250 22/19 A3005 RMK SC1CI3 SLP174=

CYQG;2006-07-11 15:00;METAR CYQG 111500Z 14006KT 12SM SCT018 OVC080 26/21 A3004 RMK SC4AC4 SLP172=

CYQG;2006-07-11 16:00;METAR CYQG 111600Z 11005KT 12SM OVC020 27/21 A3004 RMK SC8 SLP169=

CYQG;2006-07-11 17:00;METAR CYQG 111700Z 19007KT 8SM SCT023 BKN045 27/20 A3004 RMK SC4SC3 SLP170=

CYQG;2006-07-11 18:00;METAR CYQG 111800Z 17007KT 6SM HZ SCT072 OVC120 27/21 A3003 RMK AC3AC5 SLP166=

CYQG;2006-07-11 19:00;METAR CYQG 111900Z 17009KT 6SM HZ SCT040 OVC085 27/21 A3002 RMK SC3AC5 SLP165=

CYQG;2006-07-11 20:00;METAR CYQG 112000Z 18008KT 6SM HZ OVC042 27/21 A3002 RMK SC8 SLP163=

CYQG;2006-07-11 20:07;SPECI CYQG 112007Z 18008KT 6SM -SHRA HZ BKN031 OVC042 RMK SC5SC3=

CYQG;2006-07-11 20:16;SPECI CYQG 112016Z 19015KT 2 1/2SM SHRA HZ BKN019 OVC037 RMK SC5SC3=

CYQG;2006-07-11 20:29;SPECI CYQG 112029Z 20007KT 4SM -SHRA HZ FEW020 OVC048 RERA RMK SC2SC6=

CYQG;2006-07-11 21:00;METAR CYQG 112100Z 19012KT 5SM -SHRA HZ FEW018 OVC036 25/22 A3001 RERA RMK SC2SC6 SLP160=

CYQG;2006-07-11 22:00;METAR CYQG 112200Z 21010KT 5SM -SHRA HZ SCT010 OVC032 24/22 A3000 RMK SF3SC5 SLP158=

CYQG;2006-07-11 23:00;METAR CYQG 112300Z 16005KT 5SM BR FEW014 BKN049 OVC120 24/22 A2998 RMK SF2SC4AC2 OCNL -SHRA SLP152=

CYQG;2006-07-11 23:24;SPECI CYQG 112324Z 16004KT 3SM BR FEW007 OVC034 RMK SF2SC6=

CYQG;2006-07-11 23:39;SPECI CYQG 112339Z 15005KT 3SM BR BKN008 OVC030 RMK SF5SC3=

CYQG;2006-07-12 00:00;METAR CYQG 120000Z 15006KT 3SM BR BKN008 BKN030 OVC098 24/22 A2999 RMK SF5SC2AC2 SLP153=

CYQG;2006-07-12 00:34;SPECI CYQG 120034Z 14006KT 3SM BR SCT009 BKN036 OVC100 RMK SF3SC3AC2=

CYQG;2006-07-12 01:00;METAR CYQG 120100Z 13006KT 3SM BR FEW009 SCT036 OVC074 23/22 A2998 RMK SF2SC2AC4 SLP150=

CYQG;2006-07-12 01:47;SPECI CYQG 120147Z 13005KT 3SM -SHRA BR BKN018 OVC039 RMK SC6SC2=

CYQG;2006-07-12 01:53;SPECI CYQG 120153Z 13006KT 3SM -SHRA BR FEW006 OVC019 RMK SF2SC6=

CYQG;2006-07-12 02:00;METAR CYQG 120200Z 14008KT 2SM +SHRA BR FEW006 OVC013 23/22 A2997 RMK SF2SC6 SLP146=

CYQG;2006-07-12 02:05;SPECI CYQG 120205Z 12007KT 1 1/2SM +SHRA BR BKN005 OVC012 RMK SF6SC2=

CYQG;2006-07-12 02:19;SPECI CYQG 120219Z 10005KT 1 1/2SM SHRA BR OVC007 RMK SF8=

CYQG;2006-07-12 02:27;SPECI CYQG 120227Z 11005KT 1 1/4SM +SHRA BR OVC005 RMK SF8 CIG VRB 3-7=

CYQG;2006-07-12 02:53;SPECI CYQG 120253Z 25009G16KT 2SM SHRA BR BKN008 OVC013 RMK SF6SC2=

CYQG;2006-07-12 03:00;METAR CYQG 120300Z 24008G16KT 2 1/2SM -SHRA BR BKN008 OVC022 23/22 A2996 RERA RMK SF5SC3 SLP142=

CYQG;2006-07-12 03:06;SPECI CYQG 120306Z 23010KT 3SM -SHRA BR OVC010 RMK SF8=

CYQG;2006-07-12 03:14;SPECI CYQG 120314Z 23006KT 3SM BR OVC006 RMK SF8=

CYQG;2006-07-12 03:37;SPECI CYQG 120337Z 21006KT 3SM BR OVC010 RMK SF8=

CYQG;2006-07-12 04:00;METAR CYQG 120400Z 20006KT 3SM BR SCT008 OVC018 23/22 A2995 RMK SF3SC5 SLP139=

CYQG;2006-07-12 04:23;SPECI CYQG 120423Z 18008KT 3SM BR BKN008 OVC018 RMK SF6SC2=

CYQG;2006-07-12 04:53;SPECI CYQG 120453Z 18008KT 3SM -SHRA BR SCT007 OVC020 RMK SF3SC5=

CYQG;2006-07-12 05:17;SPECI CYQG 120517Z 18006KT 2SM -SHRA BR OVC007 RMK SF8=

CYQG;2006-07-12 05:29;SPECI CYQG 120529Z 17007KT 2SM -TSRA BR OVC007CB RMK CB8 SF ASOCTD=

CYQG;2006-07-12 05:40;SPECI CYQG 120540Z 17008KT 1 1/2SM TSRA BR OVC007CB RMK CB8=

CYQG;2006-07-12 05:46;SPECI CYQG 120546Z 18017KT 1 1/2SM SHRA BR OVC008 RMK SF8=

CYQG;2006-07-12 06:00;METAR CYQG 120600Z 17007KT 3SM -SHRA BR BKN006 OVC020 23/22 A2989 RETSRA RMK SF6SC2 SLP120=

CYQG;2006-07-12 06:25;SPECI CYQG 120625Z 20013KT 3SM BR OVC026 RMK SC8=

CYQG;2006-07-12 06:41;SPECI CYQG 120641Z 21011KT 3SM BR OVC007 RMK SC8=

CYQG;2006-07-12 06:47;SPECI CYQG 120647Z 21010KT 3SM -SHRA BR FEW007 OVC011 RMK SF1SC7=

CYQG;2006-07-12 06:51;SPECI CYQG 120651Z 21010KT 2SM -SHRA BR FEW007 OVC011 RMK SF1SC7=

CYQG;2006-07-12 07:15;SPECI CYQG 120715Z 21013G19KT 2SM -SHRA BR BKN007 OVC012 RMK SF6SC2=

CYQG;2006-07-12 07:38;SPECI CYQG 120738Z 23010G16KT 3SM BR OVC010 RMK SC8 OCNL -SHRA=

CYQG;2006-07-12 08:00;METAR CYQG 120800Z 24011KT 3SM BR BKN010 OVC080 24/22 A2987 RMK SF6AC2 SLP113=

CYQG;2006-07-12 09:00;METAR CYQG 120900Z 23008KT 5SM BR BKN016 OVC080 23/22 A2986 RMK CF7AC1 SLP110=

CYQG;2006-07-12 09:46;SPECI CYQG 120946Z 22008KT 5SM BR FEW009 BKN013 RMK CF1CF6=

CYQG;2006-07-12 10:00;METAR CYQG 121000Z 22011KT 5SM BR FEW009 OVC013 23/22 A2988 RMK CF1SC7 SLP116=

CYQG;2006-07-12 11:00;METAR CYQG 121100Z 24008KT 6SM BR FEW011 SCT025 BKN250 23/21 A2989 RMK SF1SC2CS4 SLP117=

CYQG;2006-07-12 11:09;SPECI CYQG 121109Z 24008KT 8SM BKN008 BKN025 BKN280 RMK SF5SC1CI1=

CYQG;2006-07-12 11:31;SPECI CYQG 121131Z 23011KT 8SM BKN013 BKN023 BKN280 RMK SF5SC1CI1=

CYQG;2006-07-12 11:47;SPECI CYQG 121147Z 24008KT 10SM FEW013 SCT043 BKN280 RMK SF2SC2CI2=

CYQG;2006-07-12 12:00;METAR CYQG 121200Z 23011KT 15SM FEW013 SCT043 BKN280 24/22 A2989 RMK SF2SC2CI2 SLP120=

CYQG;2006-07-12 13:00;METAR CYQG 121300Z 25010KT 10SM SCT018 BKN190 24/22 A2990 RMK SC3AC4 SLP122=

CYQG;2006-07-12 13:28;SPECI CYQG 121328Z 27011KT 12SM BKN013 BKN190 RMK SC5AC2=

CYQG;2006-07-12 13:48;SPECI CYQG 121348Z 28011G17KT 12SM BKN020 BKN190 RMK CU5AC2=

CYQG;2006-07-12 14:00;METAR CYQG 121400Z 28012KT 15SM BKN019 BKN090 BKN260 25/21 A2991 RMK CU5AC1CS2 SLP126=

CYQG;2006-07-12 15:00;METAR CYQG 121500Z 27008KT 15SM BKN021 25/21 A2992 RMK CU7 SLP128=

CYQG;2006-07-12 16:00;METAR CYQG 121600Z 29010KT 15SM BKN024 25/21 A2993 RMK CU7 SLP133=

CYQG;2006-07-12 17:00;METAR CYQG 121700Z 29009KT 15SM BKN027 BKN095 26/21 A2993 RMK CU6AC2 SLP133=

CYQG;2006-07-12 18:00;METAR CYQG 121800Z 32008KT 15SM VCSH BKN035 BKN046 27/21 A2993 RMK CU6SC2 SLP133=

CYQG;2006-07-12 18:46;SPECI CYQG 121846Z 31006KT 15SM -SHRA BKN029 BKN045 RMK CU6SC2=

CYQG;2006-07-12 19:00;METAR CYQG 121900Z 32009KT 15SM SCT025 BKN050 BKN280 28/20 A2993 RMK CU4SC1CI2 OCNL SHRA SLP133=

CYQG;2006-07-12 20:00;METAR CYQG 122000Z 35012KT 15SM BKN027 BKN045 BKN280 27/20 A2993 RMK CU6SC1CI1 SLP131=

CYQG;2006-07-12 21:00;METAR CYQG 122100Z 36008KT 12SM FEW030 BKN050 BKN280 27/20 A2993 RMK CU2SC4CI1 SLP132=

CYQG;2006-07-12 22:00;METAR CYQG 122200Z 36008KT 15SM FEW030 BKN053 BKN280 25/20 A2993 RMK CU1SC6CI1 SLP132=

CYQG;2006-07-12 23:00;METAR CYQG 122300Z 03008KT 15SM FEW023 BKN059 25/20 A2993 RMK CU1SC6 SLP132=

CYQG;2006-07-13 00:00;METAR CYQG 130000Z 05007KT 15SM FEW022 BKN060 BKN290 25/21 A2994 RMK SC1SC6CI1 SLP135=

CYQG;2006-07-13 01:00;METAR CYQG 130100Z 08003KT 15SM FEW020 FEW061 BKN290 24/20 A2996 RMK SC1SC2CI3 SLP142=

CYQG;2006-07-13 02:00;METAR CYQG 130200Z 00000KT 15SM BKN043 BKN290 23/20 A2998 RMK SC6CI1 SLP147=

CYQG;2006-07-13 03:00;METAR CYQG 130300Z 03005KT 15SM FEW048 SCT290 23/20 A2999 RMK SC2CI1 SLP152=

CYQG;2006-07-13 04:00;METAR CYQG 130400Z 03006KT 15SM FEW045 BKN290 23/21 A2999 RMK SC1CS4 SLP154=

CYQG;2006-07-13 05:00;METAR CYQG 130500Z 04008KT 6SM BR OVC290 22/20 A3000 RMK CS6 SLP155=

CYQG;2006-07-13 07:00;METAR CYQG 130700Z 04004KT 7SM FEW290 21/19 A3001 RMK CS2 SLP158=

CYQG;2006-07-13 08:00;METAR CYQG 130800Z 00000KT 6SM BR FEW290 21/19 A3001 RMK CS2 SLP158=

CYQG;2006-07-13 08:15;SPECI CYQG 130815Z 00000KT 6SM BR MIFG FEW290 RMK CS2 MIFG AT ARPT=

CYQG;2006-07-13 09:45;SPECI CYQG 130945Z 01003KT 3SM BR MIFG SKC=

CYQG;2006-07-13 09:51;SPECI CYQG 130951Z 01003KT 2SM BR MIFG SKC=

CYQG;2006-07-13 10:00;METAR CYQG 131000Z 01002KT 2SM BR MIFG SKC 20/18 A3001 RMK SLP161=

CYQG;2006-07-13 10:12;SPECI CYQG 131012Z 00000KT 2 1/2SM BR MIFG SKC=

CYQG;2006-07-13 10:27;SPECI CYQG 131027Z 36002KT 2 1/2SM BR MIFG FEW008 RMK SF1=

CYQG;2006-07-13 10:35;SPECI CYQG 131035Z 35003KT 2 1/2SM BR MIFG SCT006 RMK SF3=

CYQG;2006-07-13 10:45;SPECI CYQG 131045Z 35003KT 2 1/2SM BR MIFG BKN005 RMK SF7=

CYQG;2006-07-13 11:00;METAR CYQG 131100Z 35003KT 3SM BR BKN005 20/19 A3002 RMK SF7 SLP163=

CYQG;2006-07-13 11:40;SPECI CYQG 131140Z 04002KT 3SM BR OVC004 RMK SF7=

CYQG;2006-07-13 12:00;METAR CYQG 131200Z 03004KT 2SM BR BKN004 21/20 A3004 RMK SF6 SLP170=

CYQG;2006-07-13 12:22;SPECI CYQG 131222Z 02004KT 3SM BR BKN005 RMK SF5=

CYQG;2006-07-13 12:34;SPECI CYQG 131234Z 01005KT 4SM BR SCT005 RMK SF4=

CYQG;2006-07-13 12:45;SPECI CYQG 131245Z 07005KT 4SM BR BKN009 RMK SF5=

CYQG;2006-07-13 13:00;METAR CYQG 131300Z 07002KT 7SM BKN009 23/20 A3006 RMK SF5 SLP176=

CYQG;2006-07-13 13:11;SPECI CYQG 131311Z 07004KT 7SM BKN011 RMK SF6=

CYQG;2006-07-13 13:50;SPECI CYQG 131350Z 09005KT 10SM BKN015 RMK SF6=

CYQG;2006-07-13 14:00;METAR CYQG 131400Z 09006KT 10SM BKN021 24/20 A3007 RMK CU6 SLP179=

CYQG;2006-07-13 16:00;METAR CYQG 131600Z 11007KT 15SM BKN026 26/20 A3006 RMK CU6 SLP175=

CYQG;2006-07-13 17:00;METAR CYQG 131700Z 09004KT 15SM SCT029 26/20 A3005 RMK CU4 SLP173=

CYQG;2006-07-13 18:00;METAR CYQG 131800Z 15005KT 15SM SCT035 28/20 A3004 RMK CU4 SLP170=

CYQG;2006-07-13 20:00;METAR CYQG 132000Z 12005KT 15SM FEW035 FEW280 29/19 A3002 RMK CF1CI1 SLP164=

CYQG;2006-07-13 21:00;METAR CYQG 132100Z 11006KT 15SM FEW035 FEW250 29/18 A3001 RMK CF1CI1 CONTRAILS SLP161=

CYQG;2006-07-13 22:00;METAR CYQG 132200Z 08007KT 15SM FEW035 FEW280 29/19 A3001 RMK CF1CI1 SLP158=

CYQG;2006-07-13 23:00;METAR CYQG 132300Z 09007KT 15SM FEW035 FEW280 28/19 A3000 RMK CU1CI1 SLP156=

CYQG;2006-07-14 00:00;METAR CYQG 140000Z 07004KT 15SM FEW280 28/18 A3000 RMK CI1 SLP155=

CYQG;2006-07-14 01:00;METAR CYQG 140100Z 14006KT 15SM FEW280 25/18 A3000 RMK CI0 SLP156=

CYQG;2006-07-14 02:00;METAR CYQG 140200Z 14003KT 15SM FEW280 23/18 A3000 RMK CI0 SLP157=

CYQG;2006-07-14 03:00;METAR CYQG 140300Z 19003KT 15SM SKC 22/17 A3001 RMK SLP160=

CYQG;2006-07-14 04:00;METAR CYQG 140400Z 00000KT 12SM SCT290 22/17 A3001 RMK CI1 SLP159=

CYQG;2006-07-14 05:00;METAR CYQG 140500Z 00000KT 8SM SCT290 21/17 A3001 RMK CI0 SLP159=

CYQG;2006-07-14 06:00;METAR CYQG 140600Z 00000KT 8SM FEW290 20/17 A3000 RMK CI0 SLP156=

CYQG;2006-07-14 07:00;METAR CYQG 140700Z 00000KT 8SM SCT290 20/17 A2999 RMK CI1 SLP154=

CYQG;2006-07-14 08:00;METAR CYQG 140800Z 00000KT 8SM FEW290 20/17 A2999 RMK CI1 SLP152=

CYQG;2006-07-14 09:00;METAR CYQG 140900Z 01002KT 8SM FEW290 19/17 A2999 RMK CI1 SLP154=

CYQG;2006-07-14 10:00;METAR CYQG 141000Z 08002KT 7SM MIFG BKN290 19/17 A2999 RMK CI2 SLP152=

CYQG;2006-07-14 11:00;METAR CYQG 141100Z 08004KT 7SM MIFG FEW040 BKN290 20/18 A2998 RMK CF1CI2 SLP150=

CYQG;2006-07-14 12:00;METAR CYQG 141200Z 10004KT 6SM HZ FEW040 OVC300 23/20 A2998 RMK CF1CI4 SLP149=

CYQG;2006-07-14 13:00;METAR CYQG 141300Z 08003KT 6SM HZ OVC300 24/21 A2998 RMK CI4 CONTRAILS SLP150=

CYQG;2006-07-14 14:00;METAR CYQG 141400Z 18002KT 8SM BKN300 26/21 A2999 RMK CI4 SLP151=

CYQG;2006-07-14 15:00;METAR CYQG 141500Z 20005KT 10SM FEW020 BKN300 27/22 A2999 RMK CU2CI2 SLP154=

CYQG;2006-07-14 16:00;METAR CYQG 141600Z 20005KT 12SM SCT035 BKN300 28/21 A2997 RMK CU3CI1 SLP147=

CYQG;2006-07-14 17:00;METAR CYQG 141700Z 18008KT 15SM FEW037 BKN300 29/21 A2995 RMK CU2CI2 SLP141=

CYQG;2006-07-14 18:00;METAR CYQG 141800Z 16009KT 15SM FEW040 OVC270 30/21 A2993 RMK SC2CS3 CI ASOCTD SLP132=

CYQG;2006-07-14 19:00;METAR CYQG 141900Z 16006KT 15SM FEW040 OVC270 29/21 A2992 RMK SC2CS5 SLP128=

CYQG;2006-07-14 20:00;METAR CYQG 142000Z 16005KT 15SM FEW040 OVC210 28/21 A2990 RMK SC1CS6 SLP121=

CYQG;2006-07-14 20:47;SPECI CYQG 142047Z 17003KT 12SM -SHRA FEW045TCU OVC140 RMK TCU2AC6=

CYQG;2006-07-14 20:50;SPECI CYQG 142050Z 17003KT 12SM -TSRA FEW045CB OVC130 RMK CB2AC6=

CYQG;2006-07-14 21:00;METAR CYQG 142100Z 18004KT 10SM -TSRA FEW050CB OVC120 27/22 A2991 RMK CB2AC6 SLP125=

CYQG;2006-07-14 22:00;METAR CYQG 142200Z 20004KT 12SM -TSRA BKN045CB OVC130 23/20 A2990 RMK CB6AC2 OCNL LTGIC E SLP122=

CYQG;2006-07-14 23:00;METAR CYQG 142300Z 16007KT 15SM -SHRA FEW016 BKN045 OVC120 23/21 A2987 RETS RMK SC1SC6AC1 SLP112=

CYQG;2006-07-14 23:33;SPECI CYQG 142333Z 17003KT 15SM FEW015 FEW080 BKN180 BKN280 RMK SC1AC2AC4CI1=

CYQG;2006-07-15 00:00;METAR CYQG 150000Z 16004KT 12SM FEW012 FEW080 BKN190 BKN280 23/22 A2988 RMK SC1AC1AC5CI1 SLP115=

CYQG;2006-07-15 00:25;SPECI CYQG 150025Z 20002KT 12SM -SHRA FEW012 BKN067 BKN180 RMK SC1AC5AC2=

CYQG;2006-07-15 02:00;METAR CYQG 150200Z 23002KT 15SM BKN017 OVC040 24/21 A2991 RMK SC6SC2 SLP125=

CYQG;2006-07-15 02:26;SPECI CYQG 150226Z 22003KT 15SM OVC014 RMK SC8=

CYQG;2006-07-15 03:00;METAR CYQG 150300Z 26005KT 15SM BKN011 OVC021 24/22 A2991 RMK SC6SC2 SLP126=

CYQG;2006-07-15 03:18;SPECI CYQG 150318Z 26004KT 15SM BKN025 OVC140 RMK SC6AC2=

CYQG;2006-07-15 04:00;METAR CYQG 150400Z 29004KT 15SM FEW025 SCT140 23/22 A2990 RMK SC2AC2 SLP123=

CYQG;2006-07-15 05:00;METAR CYQG 150500Z 28005KT 15SM FEW140 FEW280 23/21 A2991 RMK AC1CI1 SLP124=

CYQG;2006-07-15 06:00;METAR CYQG 150600Z 30007KT 15SM FEW280 23/21 A2991 RMK CI1 SLP125=

CYQG;2006-07-15 07:00;METAR CYQG 150700Z 29005KT 10SM FEW280 23/21 A2992 RMK CI1 SLP129=

CYQG;2006-07-15 08:00;METAR CYQG 150800Z 28006KT 6SM HZ FEW280 22/21 A2994 RMK CI1 SLP133=

CYQG;2006-07-15 09:00;METAR CYQG 150900Z 27004KT 6SM HZ FEW280 22/21 A2994 RMK CI1 SLP136=

CYQG;2006-07-15 10:00;METAR CYQG 151000Z 27005KT 5SM BR FEW280 22/20 A2996 RMK CI1 SLP142=

CYQG;2006-07-15 11:00;METAR CYQG 151100Z 29005KT 5SM BR FEW280 22/21 A2998 RMK CI1 SLP148=

CYQG;2006-07-15 12:00;METAR CYQG 151200Z 29007KT 6SM BR SKC 23/21 A3000 RMK SLP155=

CYQG;2006-07-15 13:00;METAR CYQG 151300Z 29008KT 8SM SKC 25/21 A3001 RMK SLP161=

CYQG;2006-07-15 14:00;METAR CYQG 151400Z 30007KT 8SM SKC 26/22 A3002 RMK SLP162=

CYQG;2006-07-15 15:00;METAR CYQG 151500Z 30006KT 10SM FEW300 28/21 A3002 RMK CI1 SLP162=

CYQG;2006-07-15 16:00;METAR CYQG 151600Z 26007KT 15SM SCT300 29/21 A3003 RMK CI1 SLP164=

CYQG;2006-07-15 18:00;METAR CYQG 151800Z 28008KT 15SM SCT060 32/19 A3002 RMK CU4 SLP161=

CYQG;2006-07-15 19:00;METAR CYQG 151900Z 29012KT 15SM BKN067 33/18 A3001 RMK CU5 SLP159=

CYQG;2006-07-15 21:00;METAR CYQG 152100Z 35008KT 12SM FEW060 33/16 A3002 RMK CU2 TCU ASOCTD S SLP161=

CYQG;2006-07-15 22:00;METAR CYQG 152200Z 36008KT 12SM FEW060 33/16 A3002 RMK CU1 SLP162=

CYQG;2006-07-15 23:00;METAR CYQG 152300Z 07006KT 12SM SKC 32/20 A3002 RMK SLP162=

CYQG;2006-07-16 00:00;METAR CYQG 160000Z 09005KT 10SM SKC 30/19 A3003 RMK SLP164=

CYQG;2006-07-16 01:00;METAR CYQG 160100Z 05002KT 12SM SKC 29/17 A3003 RMK SLP166=

CYQG;2006-07-16 02:00;METAR CYQG 160200Z 21003KT 15SM SKC 28/18 A3004 RMK SLP169=

CYQG;2006-07-16 03:00;METAR CYQG 160300Z 23004KT 15SM SKC 26/19 A3006 RMK SLP176=

CYQG;2006-07-16 04:00;METAR CYQG 160400Z 24003KT 15SM SKC 26/19 A3007 RMK SLP177=

CYQG;2006-07-16 05:00;METAR CYQG 160500Z 24005KT 15SM SKC 26/19 A3007 RMK SLP178=

CYQG;2006-07-16 06:00;METAR CYQG 160600Z 24003KT 15SM SKC 26/19 A3007 RMK SLP178=

CYQG;2006-07-16 07:00;METAR CYQG 160700Z 25004KT 15SM SKC 25/19 A3007 RMK SLP177=

CYQG;2006-07-16 08:00;METAR CYQG 160800Z 26004KT 15SM SKC 24/18 A3007 RMK SLP177=

CYQG;2006-07-16 09:00;METAR CYQG 160900Z 26004KT 15SM SKC 24/18 A3007 RMK SLP180=

CYQG;2006-07-16 10:00;METAR CYQG 161000Z 26003KT 15SM FEW080 23/18 A3008 RMK AC2 SLP181=

CYQG;2006-07-16 11:00;METAR CYQG 161100Z 21007KT 15SM FEW250 23/18 A3005 RMK CI1 SLP172=

CYQG;2006-07-16 12:00;METAR CYQG 161200Z 22005KT 15SM FEW280 25/19 A3005 RMK CI1 SLP171=

CYQG;2006-07-16 13:00;METAR CYQG 161300Z 28008KT 15SM FEW100 BKN280 27/18 A3009 RMK AC1CI2 SLP186=

CYQG;2006-07-16 14:00;METAR CYQG 161400Z 29005KT 15SM FEW150 BKN280 30/17 A3011 RMK AC2CI2 SLP192=

CYQG;2006-07-16 15:00;METAR CYQG 161500Z 29008KT 15SM -SHRA BKN150 BKN280 31/17 A3014 RMK AC6CI1 SLP201=

CYQG;2006-07-16 15:22;SPECI CYQG 161522Z 34008KT 15SM BKN150 BKN280 RMK AC5CI2=

CYQG;2006-07-16 16:00;METAR CYQG 161600Z 32003KT 15SM FEW150 BKN280 31/17 A3014 RMK AC2CI3 SLP202=

CYQG;2006-07-16 17:00;METAR CYQG 161700Z 29004KT 15SM BKN280 33/19 A3011 RMK CI3 SLP191=

CYQG;2006-07-16 18:00;METAR CYQG 161800Z 22006KT 15SM BKN280 33/19 A3008 RMK CS4 CI ASOCTD CONTRAILS SLP183=

CYQG;2006-07-16 19:00;METAR CYQG 161900Z 20012KT 15SM BKN280 33/21 A3007 RMK CS4 CONTRAILS CI ASOCTD SLP178=

CYQG;2006-07-16 20:00;METAR CYQG 162000Z 21012G18KT 15SM BKN290 33/20 A3005 RMK CS3 SLP173=

CYQG;2006-07-16 21:00;METAR CYQG 162100Z 21013KT 15SM BKN290 33/19 A3004 RMK CS2 SLP170=

CYQG;2006-07-16 22:00;METAR CYQG 162200Z 22014G19KT 15SM BKN300 33/18 A3004 RMK CS2 SLP167=

CYQG;2006-07-16 23:00;METAR CYQG 162300Z 24011KT 15SM FEW300 33/20 A3003 RMK CI1 SLP164=

CYQG;2006-07-17 00:00;METAR CYQG 170000Z 23011KT 15SM FEW300 32/20 A3003 RMK CI1 SLP164=

CYQG;2006-07-17 01:00;METAR CYQG 170100Z 23010KT 15SM BKN300 31/18 A3002 RMK CI2 SLP163=

CYQG;2006-07-17 03:00;METAR CYQG 170300Z 23006KT 15SM SCT290 28/19 A3003 RMK CI1 SLP165=

CYQG;2006-07-17 04:00;METAR CYQG 170400Z 25008KT 15SM FEW250 28/19 A3004 RMK CI1 SLP166=

CYQG;2006-07-17 05:00;METAR CYQG 170500Z 25009KT 15SM SCT250 28/19 A3003 RMK CI1 SLP165=

CYQG;2006-07-17 06:00;METAR CYQG 170600Z 26008KT 15SM SCT250 27/19 A3003 RMK CI1 SLP163=

CYQG;2006-07-17 08:00;METAR CYQG 170800Z 25007KT 15SM FEW220 25/19 A3003 RMK CI1 SLP164=

CYQG;2006-07-17 09:00;METAR CYQG 170900Z 23007KT 15SM FEW140 SCT220 24/19 A3002 RMK AC1CI1 SLP161=

CYQG;2006-07-17 10:00;METAR CYQG 171000Z 23006KT 15SM FEW140 FEW220 24/19 A3003 RMK AC1CI1 SLP163=

CYQG;2006-07-17 11:00;METAR CYQG 171100Z 22006KT 15SM SCT220 24/20 A3003 RMK CI3 SLP165=

CYQG;2006-07-17 12:00;METAR CYQG 171200Z 23007KT 15SM FEW150 25/20 A3003 RMK AC2 SLP166=

CYQG;2006-07-17 13:00;METAR CYQG 171300Z 23008KT 15SM FEW180 27/21 A3004 RMK AC1 SLP167=

CYQG;2006-07-17 14:00;METAR CYQG 171400Z 25011KT 15SM FEW280 29/21 A3003 RMK CI1 SLP166=

CYQG;2006-07-17 15:00;METAR CYQG 171500Z 24012G20KT 15SM FEW280 30/20 A3001 RMK CI1 SLP158=

CYQG;2006-07-17 16:00;METAR CYQG 171600Z 23014KT 15SM SCT280 31/20 A3001 RMK CI1 SLP156=

CYQG;2006-07-17 17:00;METAR CYQG 171700Z 23012G19KT 15SM SCT280 32/19 A2999 RMK CI1 SLP150=

CYQG;2006-07-17 18:00;METAR CYQG 171800Z 24012G22KT 15SM FEW040 BKN300 33/20 A2997 RMK CF1CI1 SLP144=

CYQG;2006-07-17 19:00;METAR CYQG 171900Z 24017KT 15SM BKN300 33/20 A2995 RMK CI2 SLP139=

CYQG;2006-07-17 20:00;METAR CYQG 172000Z 23018G25KT 15SM FEW310 33/20 A2994 RMK CI1 SLP133=

CYQG;2006-07-17 21:00;METAR CYQG 172100Z 23016G24KT 15SM FEW310 33/20 A2991 RMK CI1 SLP125=

CYQG;2006-07-17 22:00;METAR CYQG 172200Z 25018G24KT 12SM FEW050 FEW310 33/21 A2991 RMK CF1CI1 SLP125=

CYQG;2006-07-17 23:00;METAR CYQG 172300Z 23017G22KT 12SM FEW310 32/20 A2987 RMK CI1 SLP112=

CYQG;2006-07-18 00:00;METAR CYQG 180000Z 24013G19KT 12SM BKN290 31/20 A2990 RMK CI3 SLP121=

CYQG;2006-07-18 01:00;METAR CYQG 180100Z 24009KT 12SM FEW120 BKN290 30/20 A2992 RMK AC1CS6 SLP126=

CYQG;2006-07-18 03:00;METAR CYQG 180300Z 25005KT 15SM OVC064 30/20 A2995 RMK SC8 SLP139=

CYQG;2006-07-18 03:23;SPECI CYQG 180323Z 23004KT 15SM TS OVC064 RMK SC8 FQT LTGICCG NW-NE CB ASOCTD=

CYQG;2006-07-18 03:55;SPECI CYQG 180355Z 34025G32KT 15SM -TSRA OVC058 RMK SC8 FQT LTGICCG NW-NE CB ASOCTD=

CYQG;2006-07-18 04:16;SPECI CYQG 180416Z 35015KT 2SM +TSRA BKN013 OVC034CB RMK SC6CB2 FQT LTGICCG=

CYQG;2006-07-18 04:23;SPECI CYQG 180423Z 01011G17KT 4SM -TSRA BR SCT013 OVC037CB RERA RMK SC4CB4 LTGICCG=

CYQG;2006-07-18 04:40;SPECI CYQG 180440Z 05008G15KT 15SM SCT040 OVC110 RERA RMK SC3AC5 LTGICCG NE OCNL -SHRA=

CYQG;2006-07-18 05:00;METAR CYQG 180500Z 02009KT 15SM FEW040 OVC120 21/19 A3003 RERA RMK SC2AC6 OCNL LTGIC NE SLP164=

CYQG;2006-07-18 06:00;METAR CYQG 180600Z 10003KT 15SM FEW060 OVC240 22/19 A3000 RMK SC2CI6 SLP156=

CYQG;2006-07-18 06:52;SPECI CYQG 180652Z 26012KT 15SM -SHRA BKN110 OVC220 RMK AC6CI2=

CYQG;2006-07-18 07:00;METAR CYQG 180700Z 27010KT 15SM -SHRA BKN100 OVC220 22/19 A3007 RMK AC6CI2 PRESRR SLP177=

CYQG;2006-07-18 09:00;METAR CYQG 180900Z 28008KT 15SM FEW045 SCT090 OVC140 21/18 A3001 RERA RMK SC2AC2AC5 OCNL -SHRA PRESRR SLP158=

CYQG;2006-07-18 10:00;METAR CYQG 181000Z 00000KT 15SM FEW045 SCT140 BKN220 21/18 A2998 RMK SC2AC2CI4 SLP149=

CYQG;2006-07-18 11:00;METAR CYQG 181100Z 12003KT 15SM FEW020 BKN130 BKN260 21/19 A3002 RMK CF2AC3CI2 SLP162=

CYQG;2006-07-18 12:00;METAR CYQG 181200Z 03004KT 15SM FEW020 SCT130 BKN280 22/19 A3004 RMK CF2AC2CI2 SLP167=

CYQG;2006-07-18 13:00;METAR CYQG 181300Z 03004KT 15SM FEW020 SCT130 BKN280 23/19 A3005 RMK CU2AC2CI1 SLP172=

CYQG;2006-07-18 15:00;METAR CYQG 181500Z 36009KT 15SM BKN025 BKN140 26/19 A3007 RMK CU5AC1 SLP178=

CYQG;2006-07-18 16:00;METAR CYQG 181600Z 05011KT 15SM FEW040 BKN070 BKN280 26/15 A3008 RMK CU2AC2CC2 SLP183=

CYQG;2006-07-18 17:00;METAR CYQG 181700Z 07010KT 15SM FEW040 BKN070 26/17 A3009 RMK CF2AC3 SLP185=

CYQG;2006-07-18 18:00;METAR CYQG 181800Z 08010KT 15SM FEW040 FEW070 27/16 A3009 RMK CU1AC2 SLP188=

CYQG;2006-07-18 20:00;METAR CYQG 182000Z 07010KT 15SM FEW059 28/14 A3009 RMK CU1 SLP187=

CYQG;2006-07-18 21:00;METAR CYQG 182100Z 07011KT 15SM FEW060 28/15 A3009 RMK CU1 SLP186=

CYQG;2006-07-18 22:00;METAR CYQG 182200Z 07009KT 15SM FEW055 28/15 A3009 RMK SC1 SLP187=

CYQG;2006-07-18 23:00;METAR CYQG 182300Z 06010KT 15SM FEW055 27/14 A3009 RMK SC1 SLP187=

CYQG;2006-07-19 00:00;METAR CYQG 190000Z 07008KT 15SM FEW050 FEW290 26/16 A3010 RMK SC1CI1 SLP190=

CYQG;2006-07-19 01:00;METAR CYQG 190100Z 07007KT 15SM FEW050 FEW290 23/15 A3011 RMK SC1CI1 SLP195=

CYQG;2006-07-19 02:00;METAR CYQG 190200Z 06006KT 15SM FEW290 22/16 A3012 RMK CI1 SLP196=

CYQG;2006-07-19 03:00;METAR CYQG 190300Z 04006KT 15SM FEW290 21/16 A3013 RMK CI1 SLP201=

CYQG;2006-07-19 05:00;METAR CYQG 190500Z 04005KT 15SM SKC 20/15 A3015 RMK SLP207=

CYQG;2006-07-19 06:00;METAR CYQG 190600Z 35003KT 15SM FEW260 20/16 A3015 RMK CI1 SLP206=

CYQG;2006-07-19 07:00;METAR CYQG 190700Z 35004KT 15SM FEW260 19/16 A3014 RMK CI1 SLP204=

CYQG;2006-07-19 10:00;METAR CYQG 191000Z 00000KT 15SM BKN250 17/15 A3016 RMK CI4 SLP210=

CYQG;2006-07-19 11:00;METAR CYQG 191100Z 36004KT 15SM BKN260 19/16 A3017 RMK CI5 SLP214=

CYQG;2006-07-19 12:00;METAR CYQG 191200Z 06004KT 15SM BKN280 21/18 A3017 RMK CI4 SLP213=

CYQG;2006-07-19 13:00;METAR CYQG 191300Z 03005KT 15SM BKN280 22/18 A3018 RMK CC3 CI ASOCTD SLP218=

CYQG;2006-07-19 15:00;METAR CYQG 191500Z 05004KT 15SM FEW030 BKN260 24/18 A3017 RMK CF1CI2 SLP213=

CYQG;2006-07-19 16:00;METAR CYQG 191600Z 06005KT 15SM FEW035 SCT270 26/19 A3017 RMK CU2CI1 SLP213=

CYQG;2006-07-19 17:00;METAR CYQG 191700Z 13004KT 15SM FEW035 FEW280 27/19 A3015 RMK CU1CI1 SLP209=

CYQG;2006-07-19 18:00;METAR CYQG 191800Z 07007KT 15SM FEW050 FEW280 27/19 A3013 RMK CF2CI1 SLP199=

CYQG;2006-07-19 19:00;METAR CYQG 191900Z 09003KT 15SM FEW050 FEW280 29/17 A3012 RMK CF1CI1 SLP196=

CYQG;2006-07-19 21:00;METAR CYQG 192100Z 13004KT 15SM FEW050 FEW280 28/17 A3011 RMK CF0CS1 SLP195=

CYQG;2006-07-19 22:00;METAR CYQG 192200Z 18006KT 15SM FEW280 29/16 A3011 RMK CS2 SLP192=

CYQG;2006-07-19 23:00;METAR CYQG 192300Z 19004KT 12SM FEW050 SCT280 28/15 A3011 RMK CF0CS2 CI ASOCTD SLP192=

CYQG;2006-07-20 00:00;METAR CYQG 200000Z 21003KT 12SM SCT280 27/17 A3010 RMK CS2 CI CC ASOCTD SLP190=

CYQG;2006-07-20 01:00;METAR CYQG 200100Z 24003KT 12SM SCT280 29/16 A3010 RMK CC2 CI CS ASOCTD SLP189=

CYQG;2006-07-20 04:00;METAR CYQG 200400Z 18003KT 12SM FEW280 21/19 A3007 RMK CS2 SLP180=

CYQG;2006-07-20 05:00;METAR CYQG 200500Z 16005KT 12SM FEW280 21/18 A3007 RMK CI1 SLP179=

CYQG;2006-07-20 06:00;METAR CYQG 200600Z 14003KT 12SM BKN280 22/19 A3006 RMK CI2 SLP176=

CYQG;2006-07-20 07:00;METAR CYQG 200700Z 00000KT 15SM SCT280 21/19 A3005 RMK CI2 SLP172=

CYQG;2006-07-20 08:00;METAR CYQG 200800Z 00000KT 15SM SCT280 21/18 A3004 RMK CI2 SLP168=

CYQG;2006-07-20 09:00;METAR CYQG 200900Z 00000KT 12SM BKN280 21/19 A3003 RMK CI4 SLP167=

CYQG;2006-07-20 10:00;METAR CYQG 201000Z 00000KT 8SM BKN140 BKN260 23/20 A3005 RMK AC5CI2 SLP172=

CYQG;2006-07-20 11:00;METAR CYQG 201100Z 00000KT 6SM HZ SCT140 BKN260 23/20 A3005 RMK AC4CI3 SLP173=

CYQG;2006-07-20 12:00;METAR CYQG 201200Z 20003KT 8SM BKN130 BKN260 24/20 A3003 RMK AC6CI1 SLP166=

CYQG;2006-07-20 13:00;METAR CYQG 201300Z 23005KT 7SM SCT130 BKN180 OVC260 25/21 A3005 RMK AC3AC3CI1 SLP172=

CYQG;2006-07-20 14:00;METAR CYQG 201400Z 22007KT 6SM HZ BKN120 OVC260 26/22 A3001 RMK AC6CS2 SLP161=

CYQG;2006-07-20 15:00;METAR CYQG 201500Z 27009G17KT 5SM -SHRA HZ FEW023 OVC035 26/22 A3002 RMK SC2SC6 SLP163=

CYQG;2006-07-20 15:22;SPECI CYQG 201522Z 28011KT 5SM HZ FEW024 FEW037 OVC260 RMK SC1SC2CS6=

CYQG;2006-07-20 16:00;METAR CYQG 201600Z 29007KT 5SM HZ FEW019 BKN130 OVC260 27/22 A3002 RMK SC2AC5CS2 SLP162=

CYQG;2006-07-20 16:07;SPECI CYQG 201607Z 29006KT 5SM -SHRA HZ FEW019 OVC120 RMK SC2AC6=

CYQG;2006-07-20 17:00;METAR CYQG 201700Z 36003KT 6SM -SHRA HZ BKN030 OVC100 26/22 A3002 RMK SC6AC2 SLP162=

CYQG;2006-07-20 17:26;SPECI CYQG 201726Z 08003KT 5SM HZ FEW030 BKN140 OVC270 RMK SC1AC5CS2=

CYQG;2006-07-20 18:00;METAR CYQG 201800Z 07004KT 6SM HZ FEW100 FEW150 OVC270 27/22 A2999 RMK AC1AC2CS5 SLP153=

CYQG;2006-07-20 19:00;METAR CYQG 201900Z 19003KT 7SM BKN032 BKN150 OVC270 28/21 A3000 RMK CU6AC2CS1 SLP155=

CYQG;2006-07-20 20:00;METAR CYQG 202000Z 22008KT 7SM SCT055 BKN100 OVC280 29/21 A2998 RMK CU4AC1CI2 SLP148=

CYQG;2006-07-20 21:00;METAR CYQG 202100Z 22008KT 7SM FEW060 SCT250 OVC300 30/21 A2997 RMK CU2CC2CI2 SLP144=

CYQG;2006-07-21 00:00;METAR CYQG 210000Z 24010KT 12SM FEW040 SCT250 29/20 A2995 RMK CU2CC2 TCU ENE SLP140=

CYQG;2006-07-21 01:00;METAR CYQG 210100Z 31008KT 15SM FEW040 SCT050 SCT120 BKN260 28/19 A2996 RMK CU0SC3AC1CC1 SLP143=

CYQG;2006-07-21 04:00;METAR CYQG 210400Z 34006KT 15SM SCT130 26/20 A2998 RMK AC4 SLP147=

CYQG;2006-07-21 05:00;METAR CYQG 210500Z 29006KT 15SM SCT130 25/20 A2998 RMK AC3 SLP149=

CYQG;2006-07-21 06:00;METAR CYQG 210600Z 27005KT 15SM FEW130 SCT260 25/20 A2997 RMK AC1CI1 SLP146=

CYQG;2006-07-21 08:00;METAR CYQG 210800Z 28005KT 15SM FEW260 23/20 A2997 RMK CI1 SLP144=

CYQG;2006-07-21 09:00;METAR CYQG 210900Z 35006KT 15SM FEW010 SCT100 23/20 A2997 RMK SF2AC2 SLP146=

CYQG;2006-07-21 10:00;METAR CYQG 211000Z 35005KT 12SM FEW010 BKN033 BKN260 23/19 A2999 RMK SF1SC4CI1 SLP151=

CYQG;2006-07-21 11:00;METAR CYQG 211100Z 03008KT 12SM FEW033 BKN068 BKN260 22/18 A2999 RMK SC2AC2CI1 SLP152=

CYQG;2006-07-21 12:00;METAR CYQG 211200Z 03006KT 15SM SCT270 23/17 A2999 RMK CI1 SLP152=

CYQG;2006-07-21 13:00;METAR CYQG 211300Z 05009KT 15SM SCT280 24/15 A2999 RMK CI1 SLP153=

CYQG;2006-07-21 15:00;METAR CYQG 211500Z 04004KT 15SM BKN280 25/15 A3000 RMK CI3 SLP154=

CYQG;2006-07-21 16:00;METAR CYQG 211600Z 03004KT 15SM FEW150 BKN290 26/15 A2998 RMK AC1CI2 SLP150=

CYQG;2006-07-21 17:00;METAR CYQG 211700Z 01007KT 15SM FEW045 BKN290 28/16 A2997 RMK CU1CI2 SLP146=

CYQG;2006-07-21 18:00;METAR CYQG 211800Z 35009KT 15SM FEW045 BKN280 28/15 A2998 RMK SC2CI2 SLP149=

CYQG;2006-07-21 19:00;METAR CYQG 211900Z 07009KT 15SM SCT055 BKN280 28/17 A2997 RMK CU3CI2 SLP146=

CYQG;2006-07-21 20:00;METAR CYQG 212000Z 06012KT 15SM FEW054 BKN220 27/17 A2996 RMK CU2CI2 SLP141=

CYQG;2006-07-21 21:00;METAR CYQG 212100Z 02009G15KT 15SM FEW060 BKN220 26/17 A2995 RMK CU2CI2 SLP137=

CYQG;2006-07-21 22:00;METAR CYQG 212200Z 02010G15KT 15SM FEW060 OVC220 26/16 A2993 RMK CU2CI3 SLP133=

CYQG;2006-07-21 23:00;METAR CYQG 212300Z 05014KT 15SM FEW060 OVC220 24/19 A2992 RMK CU2CI4 SLP130=

CYQG;2006-07-22 00:00;METAR CYQG 220000Z 06012G18KT 15SM FEW060 OVC200 23/18 A2993 RMK CU1CI7 SLP134=

CYQG;2006-07-22 01:00;METAR CYQG 220100Z 04008G15KT 15SM SCT025 OVC200 22/16 A2993 RMK CU3CI5 SLP134=

CYQG;2006-07-22 03:00;METAR CYQG 220300Z 36007KT 15SM SCT020 OVC180 21/17 A2993 RMK CU3AC5 SLP132=

CYQG;2006-07-22 04:00;METAR CYQG 220400Z 34009KT 15SM FEW020 OVC150 21/15 A2993 RMK CU2AC6 SLP133=

CYQG;2006-07-22 05:00;METAR CYQG 220500Z 36007KT 15SM SCT037 OVC140 20/15 A2991 RMK SC3AC5 SLP125=

CYQG;2006-07-22 07:00;METAR CYQG 220700Z 36008KT 15SM SCT037 OVC130 20/14 A2986 RMK SC3AC5 SLP108=

CYQG;2006-07-22 08:00;METAR CYQG 220800Z 36009KT 15SM BKN022 OVC130 19/14 A2986 RMK SC6AC2 SLP109=

CYQG;2006-07-22 09:00;METAR CYQG 220900Z 36009KT 15SM OVC021 19/15 A2985 RMK SC8 SLP104=

CYQG;2006-07-22 10:00;METAR CYQG 221000Z 36013KT 15SM OVC020 19/15 A2984 RMK SC8 SLP103=

CYQG;2006-07-22 11:00;METAR CYQG 221100Z 36009G15KT 15SM VCSH OVC022 19/15 A2984 RMK SC8 -SHRA NE SLP101=

CYQG;2006-07-22 11:28;SPECI CYQG 221128Z 35009KT 15SM -SHRA BKN022 OVC079 RMK SC6AC2=

CYQG;2006-07-22 11:46;SPECI CYQG 221146Z 36009KT 15SM BKN024 OVC080 RMK SC6AC2=

CYQG;2006-07-22 12:00;METAR CYQG 221200Z 36008KT 15SM BKN027 OVC080 19/15 A2985 RMK SC6AC2 SLP105=

CYQG;2006-07-22 13:00;METAR CYQG 221300Z 35010KT 15SM FEW015 BKN030 BKN080 19/16 A2986 RMK CU2SC3AC2 SLP109=

CYQG;2006-07-22 14:00;METAR CYQG 221400Z 36012KT 15SM FEW016 BKN035 BKN140 21/16 A2986 RMK CU2SC2AC2 SLP110=

CYQG;2006-07-22 15:00;METAR CYQG 221500Z 02012G19KT 15SM BKN024 BKN140 23/17 A2986 RMK SC5AC2 SLP111=

CYQG;2006-07-22 16:00;METAR CYQG 221600Z 05010G17KT 15SM BKN028 BKN280 23/17 A2986 RMK CU5CI2 SLP111=

CYQG;2006-07-22 17:00;METAR CYQG 221700Z 02010KT 15SM BKN034 BKN280 24/16 A2987 RMK CU6CI2 SLP113=

CYQG;2006-07-22 18:00;METAR CYQG 221800Z 02007G15KT 15SM BKN050 BKN280 25/16 A2987 RMK CU6CI2 SLP114=

CYQG;2006-07-22 19:00;METAR CYQG 221900Z 35010G18KT 15SM SCT050 BKN280 25/13 A2987 RMK CU3CI2 TCU ASOCTD DIST E SLP113=

CYQG;2006-07-22 20:00;METAR CYQG 222000Z 36011G16KT 15SM FEW050 BKN300 26/12 A2987 RMK CU2CI2 CB TOP DIST E SLP114=

CYQG;2006-07-22 21:00;METAR CYQG 222100Z 01011G17KT 15SM FEW050 FEW140 BKN220 26/09 A2988 RMK CU1AC1CI2 SLP117=

CYQG;2006-07-22 22:00;METAR CYQG 222200Z 05014KT 15SM FEW050 FEW140 SCT280 26/11 A2989 RMK CU1AC1CI2 SLP118=

CYQG;2006-07-23 00:00;METAR CYQG 230000Z 06008KT 15SM FEW050 SCT280 23/11 A2990 RMK CU1CI1 CB=

CYQG;2006-07-23 02:00;METAR CYQG 230200Z 04006KT 15SM BKN200 20/12 A2992 RMK CI5 SLP129=

CYQG;2006-07-23 03:00;METAR CYQG 230300Z 04004KT 15SM SCT220 20/13 A2993 RMK CI2 SLP135=

CYQG;2006-07-23 04:00;METAR CYQG 230400Z 00000KT 15SM FEW220 19/12 A2994 RMK CI1 SLP137=

CYQG;2006-07-23 06:00;METAR CYQG 230600Z 36005KT 15SM SKC 19/12 A2994 RMK SLP137=

CYQG;2006-07-23 07:00;METAR CYQG 230700Z 35004KT 15SM FEW220 18/12 A2994 RMK CI1 SLP135=

CYQG;2006-07-23 08:00;METAR CYQG 230800Z 34003KT 15SM FEW220 17/12 A2994 RMK CI1 SLP137=

CYQG;2006-07-23 09:00;METAR CYQG 230900Z 00000KT 15SM FEW100 FEW220 17/12 A2994 RMK AC1CI1 SLP137=

CYQG;2006-07-23 10:00;METAR CYQG 231000Z 33004KT 15SM FEW018 FEW080 FEW220 17/12 A2995 RMK CU1AC1CI0 SLP140=

CYQG;2006-07-23 11:00;METAR CYQG 231100Z 35004KT 15SM FEW020 FEW080 BKN240 17/13 A2996 RMK CU1AC2CI1 SLP144=

CYQG;2006-07-23 12:00;METAR CYQG 231200Z 36004KT 15SM FEW020 FEW080 BKN300 19/14 A2997 RMK CU0AC0CI1 SLP147=

CYQG;2006-07-23 13:00;METAR CYQG 231300Z 32003KT 15SM FEW020 FEW080 FEW300 21/15 A2997 RMK CU0AC0CC1 CONTRAILS ASOCTD SLP148=

CYQG;2006-07-23 15:00;METAR CYQG 231500Z 36003KT 15SM FEW040 FEW300 24/14 A2997 RMK CU0CI1 SLP148=

CYQG;2006-07-23 16:00;METAR CYQG 231600Z 18002KT 15SM FEW056 FEW300 24/12 A2997 RMK CU1CI1 SLP147=

CYQG;2006-07-23 17:00;METAR CYQG 231700Z 00000KT 15SM SCT059 SCT300 25/12 A2996 RMK CU3CI0 SLP144=

CYQG;2006-07-23 18:00;METAR CYQG 231800Z 24003KT 15SM SCT060 BKN300 26/13 A2995 RMK CU4CC1 SLP140=

CYQG;2006-07-23 19:00;METAR CYQG 231900Z 08004KT 15SM SCT066 28/13 A2995 RMK CU4 SLP138=

CYQG;2006-07-23 20:00;METAR CYQG 232000Z 13005KT 15SM SCT065 26/12 A2994 RMK CU3 SLP135=

CYQG;2006-07-23 21:00;METAR CYQG 232100Z 22012KT 15SM BKN065TCU BKN250 26/14 A2992 RMK TCU5CI1 SLP130=

CYQG;2006-07-23 22:00;METAR CYQG 232200Z 22007KT 15SM BKN070TCU BKN250 26/14 A2992 RMK TCU5CI1 SLP130=

CYQG;2006-07-23 23:00;METAR CYQG 232300Z 26004KT 15SM SCT065TCU 27/14 A2992 RMK TCU3 SLP129=

CYQG;2006-07-24 00:00;METAR CYQG 240000Z 31006KT 15SM FEW070 SCT250 27/12 A2993 RMK CU2CI1 SLP133=

CYQG;2006-07-24 01:00;METAR CYQG 240100Z 30007KT 15SM FEW070 FEW250 25/11 A2994 RMK CU2CI1 SLP135=

CYQG;2006-07-24 02:00;METAR CYQG 240200Z 31003KT 15SM FEW070 FEW250 24/10 A2995 RMK CU2CI0 SLP140=

CYQG;2006-07-24 03:00;METAR CYQG 240300Z 34002KT 15SM FEW250 23/11 A2995 RMK CI1 SLP139=

CYQG;2006-07-24 04:00;METAR CYQG 240400Z 00000KT 15SM SKC 20/12 A2995 RMK SLP141=

CYQG;2006-07-24 05:00;METAR CYQG 240500Z 25003KT 15SM SKC 20/12 A2997 RMK SLP146=

CYQG;2006-07-24 06:00;METAR CYQG 240600Z 22002KT 15SM SKC 19/12 A2997 RMK SLP147=

CYQG;2006-07-24 08:00;METAR CYQG 240800Z 28005KT 15SM FEW240 19/13 A2997 RMK CI1 SLP147=

CYQG;2006-07-24 10:00;METAR CYQG 241000Z 22005KT 15SM FEW080 FEW240 17/14 A2998 RMK AC1CI0 SLP149=

CYQG;2006-07-24 12:00;METAR CYQG 241200Z 22003KT 15SM FEW080 FEW250 19/14 A2998 RMK AC0CI1 CONTRAILS SLP148=

CYQG;2006-07-24 13:00;METAR CYQG 241300Z 21005KT 15SM FEW250 22/14 A2998 RMK CI1 SLP149=

CYQG;2006-07-24 15:00;METAR CYQG 241500Z 25012G17KT 15SM FEW300 26/16 A2998 RMK CI2 CONTRAILS SLP148=

CYQG;2006-07-24 17:00;METAR CYQG 241700Z 22013G18KT 15SM FEW040 FEW300 27/17 A2995 RMK CF1CI1 SLP138=

CYQG;2006-07-24 18:00;METAR CYQG 241800Z 21015G20KT 15SM FEW044 FEW300 28/17 A2992 RMK CF1CS1 SLP130=

CYQG;2006-07-24 19:00;METAR CYQG 241900Z 20016G22KT 12SM FEW045 FEW180 29/16 A2991 RMK CF0AC1 SLP125=

CYQG;2006-07-24 20:00;METAR CYQG 242000Z 21018G24KT 15SM FEW120 FEW270 30/16 A2989 RMK AC2CC0 SLP120=

CYQG;2006-07-24 21:00;METAR CYQG 242100Z 21017G26KT 15SM SCT056 30/17 A2988 RMK SC2 SLP116=

CYQG;2006-07-24 22:00;METAR CYQG 242200Z 22015G21KT 15SM SCT055 29/17 A2988 RMK SC4 SLP115=

CYQG;2006-07-24 23:00;METAR CYQG 242300Z 21015G20KT 15SM BKN062 29/18 A2987 RMK SC5 SLP113=

CYQG;2006-07-25 00:00;METAR CYQG 250000Z 22014KT 15SM FEW060 FEW120 29/17 A2988 RMK SC1ACC1 SLP116=

CYQG;2006-07-25 01:00;METAR CYQG 250100Z 22010G15KT 15SM BKN110 28/17 A2989 RMK AC6 ACC ASOCTD SLP120=

CYQG;2006-07-25 02:00;METAR CYQG 250200Z 23012KT 15SM FEW110 27/17 A2992 RMK AC2 SLP127=

CYQG;2006-07-25 03:00;METAR CYQG 250300Z 22007KT 10SM FEW110 26/18 A2992 RMK AC1 SLP130=

CYQG;2006-07-25 04:00;METAR CYQG 250400Z 23009KT 10SM SKC 26/18 A2993 RMK SLP132=

CYQG;2006-07-25 05:00;METAR CYQG 250500Z 22010KT 15SM SKC 25/18 A2993 RMK SLP132=

CYQG;2006-07-25 06:00;METAR CYQG 250600Z 23009KT 15SM SKC 25/18 A2993 RMK SLP133=

CYQG;2006-07-25 07:00;METAR CYQG 250700Z 23008KT 12SM FEW078 25/18 A2992 RMK AC1 SLP128=

CYQG;2006-07-25 08:00;METAR CYQG 250800Z 24008KT 12SM FEW080 24/18 A2992 RMK AC1 SLP127=

CYQG;2006-07-25 09:00;METAR CYQG 250900Z 24008KT 12SM FEW080 23/18 A2992 RMK AC2 SLP127=

CYQG;2006-07-25 10:00;METAR CYQG 251000Z 23008KT 10SM FEW080 FEW250 23/18 A2993 RMK AC1CI1 SLP132=

CYQG;2006-07-25 13:00;METAR CYQG 251300Z 24010KT 8SM FEW064 SCT280 25/19 A2995 RMK SC2CS1 SLP140=

CYQG;2006-07-25 14:00;METAR CYQG 251400Z 25009KT 8SM SCT100 BKN190 27/19 A2995 RMK AC4AC1 SLP139=

CYQG;2006-07-25 14:39;SPECI CYQG 251439Z 28009G15KT 8SM -TSRA BKN060CB BKN100 BKN190 RMK CB6AC1AC1=

CYQG;2006-07-25 15:00;METAR CYQG 251500Z 26003KT 8SM TS FEW060CB FEW100 BKN140 26/19 A2996 RMK CB1AC1AC6 SLP141=

CYQG;2006-07-25 15:48;SPECI CYQG 251548Z 25008KT 8SM FEW060 BKN100 RMK CU2AC6=

CYQG;2006-07-25 16:00;METAR CYQG 251600Z 26007KT 8SM -SHRA FEW065 BKN100 26/20 A2996 RMK CU2AC5 SLP143=

CYQG;2006-07-25 16:06;SPECI CYQG 251606Z 24006KT 8SM OVC065 RMK SC8=

CYQG;2006-07-25 16:17;SPECI CYQG 251617Z 24005KT 8SM -SHRA OVC065 RMK SC8=

CYQG;2006-07-25 16:33;SPECI CYQG 251633Z 22004KT 8SM OVC065 RMK SC8=

CYQG;2006-07-25 17:00;METAR CYQG 251700Z 23005KT 8SM OVC067 26/20 A2997 RMK AC8 SLP144=

CYQG;2006-07-25 17:27;SPECI CYQG 251727Z 23007KT 8SM -SHRA OVC085 RMK AC8=

CYQG;2006-07-25 18:00;METAR CYQG 251800Z 23006KT 8SM -SHRA OVC120 26/20 A2997 RMK AC8 SLP144=

CYQG;2006-07-25 18:43;SPECI CYQG 251843Z 23008KT 8SM OVC120 RMK AC8=

CYQG;2006-07-25 19:23;SPECI CYQG 251923Z 22007KT 10SM OVC110 RMK AC8=

CYQG;2006-07-25 20:00;METAR CYQG 252000Z 21007KT 10SM BKN120 26/20 A2996 RMK AC7 SLP141=

CYQG;2006-07-25 21:00;METAR CYQG 252100Z 20006KT 10SM FEW030 SCT120 BKN280 27/21 A2995 RMK CF1AC4CI2 SLP140=

CYQG;2006-07-25 22:00;METAR CYQG 252200Z 18005KT 10SM SCT160 BKN260 28/20 A2994 RMK AC3CC2 SLP135=

CYQG;2006-07-26 00:00;METAR CYQG 260000Z 21007KT 10SM SCT160 28/20 A2992 RMK AC2 SLP128=

CYQG;2006-07-26 02:00;METAR CYQG 260200Z 18005KT 8SM BKN120 25/21 A2993 RMK AC6 SLP132=

CYQG;2006-07-26 03:00;METAR CYQG 260300Z 19005KT 7SM BKN190 24/21 A2992 RMK AC6 SLP128=

CYQG;2006-07-26 04:00;METAR CYQG 260400Z 20006KT 7SM BKN220 25/21 A2992 RMK CI5 SLP129=

CYQG;2006-07-26 05:00;METAR CYQG 260500Z 21008KT 7SM BKN170 OVC220 25/21 A2993 RMK AC6CI2 SLP131=

CYQG;2006-07-26 07:00;METAR CYQG 260700Z 22007KT 6SM HZ OVC170 25/21 A2991 RMK AC8 SLP124=

CYQG;2006-07-26 09:00;METAR CYQG 260900Z 22006KT 6SM HZ SCT170 BKN250 23/19 A2989 RMK AC3CI2 SLP118=

CYQG;2006-07-26 10:00;METAR CYQG 261000Z 22007KT 6SM HZ FEW170 BKN250 23/19 A2989 RMK AC2CI2 SLP117=

CYQG;2006-07-26 11:00;METAR CYQG 261100Z 22008KT 6SM HZ FEW170 BKN250 23/19 A2989 RMK AC1CI2 SLP118=

CYQG;2006-07-26 12:00;METAR CYQG 261200Z 23008KT 6SM HZ BKN280 24/20 A2989 RMK CI4 SLP117=

CYQG;2006-07-26 13:00;METAR CYQG 261300Z 22009KT 6SM HZ BKN280 25/19 A2989 RMK CI4 SLP118=

CYQG;2006-07-26 14:00;METAR CYQG 261400Z 21012KT 6SM HZ SCT190 BKN280 27/19 A2988 RMK AC2CI2 CONTRAILS SLP114=

CYQG;2006-07-26 15:00;METAR CYQG 261500Z 22013G19KT 8SM FEW190 BKN280 28/20 A2987 RMK AC2CI2 SLP112=

CYQG;2006-07-26 16:00;METAR CYQG 261600Z 22015KT 10SM BKN160 BKN280 29/19 A2986 RMK AC6CI1 SLP108=

CYQG;2006-07-26 17:00;METAR CYQG 261700Z 21015G22KT 12SM BKN160 29/19 A2985 RMK AC7 SLP105=

CYQG;2006-07-26 18:00;METAR CYQG 261800Z 20014G20KT 8SM BKN180 29/19 A2984 RMK AC7 SLP100=

CYQG;2006-07-26 19:00;METAR CYQG 261900Z 22018G26KT 8SM FEW050 SCT180 BKN280 30/19 A2983 RMK CF1AC3CI2 SLP096=

CYQG;2006-07-26 20:00;METAR CYQG 262000Z 21012KT 8SM SCT080 SCT160 BKN280 29/20 A2983 RMK AC3AC1CI2 SLP096=

CYQG;2006-07-26 21:00;METAR CYQG 262100Z 21011G16KT 6SM -SHRA HZ FEW015 OVC080 28/21 A2980 RMK SF1AC7 SLP089=

CYQG;2006-07-26 22:00;METAR CYQG 262200Z 28003KT 6SM -SHRA HZ BKN050 OVC080 27/22 A2980 RMK SC5AC3 SLP087=

CYQG;2006-07-26 22:30;SPECI CYQG 262230Z 18005KT 6SM HZ BKN054 OVC120 RMK SC6AC2=

CYQG;2006-07-27 00:00;METAR CYQG 270000Z 27013KT 1/2SM TSRA FG OVC009CB 23/22 A2982 RMK CB8 SLP095=

CYQG;2006-07-27 00:26;SPECI CYQG 270026Z 30007G15KT 2 1/2SM TSRA BR OVC009CB RMK CB8 L=

CYQG;2006-07-27 00:47;SPECI CYQG 270047Z 26008KT 6SM -TSRA BR BKN015CB BKN280 RERA RMK CB5CI1=

CYQG;2006-07-27 01:00;METAR CYQG 270100Z 25006KT 6SM -TSRA BR BKN010CB BKN140 BKN280 23/21 A2980 RERA RMK CB5AC1CI1 SLP090=

CYQG;2006-07-27 01:15;SPECI CYQG 270115Z 25005KT 6SM BR FEW010CB BKN120 RETS RMK CB2AC5=

CYQG;2006-07-27 02:00;METAR CYQG 270200Z 25003KT 6SM BR FEW040 BKN120 23/22 A2982 RETS RMK SC2AC3 SLP094=

CYQG;2006-07-27 03:00;METAR CYQG 270300Z 22003KT 6SM BR FEW280 23/22 A2982 RMK CI2 SLP093=

CYQG;2006-07-27 03:29;SPECI CYQG 270329Z 23002KT 3SM BR SKC=

CYQG;2006-07-27 04:00;METAR CYQG 270400Z 22004KT 3SM BR SKC 23/22 A2982 RMK SLP094=

CYQG;2006-07-27 05:00;METAR CYQG 270500Z 22004KT 3SM BR FEW280 23/22 A2983 RMK CI1 SLP099=

CYQG;2006-07-27 06:00;METAR CYQG 270600Z 22005KT 2 1/2SM BR SKC 23/21 A2983 RMK SLP098=

CYQG;2006-07-27 07:00;METAR CYQG 270700Z 00000KT 2 1/2SM BR SKC 22/22 A2983 RMK SLP099=

CYQG;2006-07-27 08:00;METAR CYQG 270800Z 00000KT 2 1/2SM BR SKC 22/22 A2983 RMK SLP098=

CYQG;2006-07-27 08:05;SPECI CYQG 270805Z 18002KT 2SM BR SKC 22/=

CYQG;2006-07-27 08:14;SPECI CYQG 270814Z 00000KT 1SM BR SKC=

CYQG;2006-07-27 08:20;SPECI CYQG 270820Z 18002KT 5/8SM BR SKC=

CYQG;2006-07-27 09:00;METAR CYQG 270900Z 18003KT 1/4SM FG VV005 21/20 A2983 RMK FG8 FG 50 FT THK SLP097=

CYQG;2006-07-27 09:10;SPECI CYQG 270910Z 18003KT 1/4SM FG OVC010 RMK FG4SF4=

CYQG;2006-07-27 09:14;SPECI CYQG 270914Z 23002KT 2 1/2SM BR BKN010 RMK SF7=

CYQG;2006-07-27 10:00;METAR CYQG 271000Z 00000KT 2 1/2SM BR BKN080 23/22 A2984 RMK AC5 SLP101=

CYQG;2006-07-27 11:00;METAR CYQG 271100Z 00000KT 2 1/2SM BR SCT050 BKN055 BKN060 23/22 A2985 RMK SC4SC1SC1 SLP103=

CYQG;2006-07-27 11:48;SPECI CYQG 271148Z 22005KT 4SM BR FEW018 OVC053 RMK SC2SC6=

CYQG;2006-07-27 12:00;METAR CYQG 271200Z 23004KT 4SM BR BKN042 BKN280 23/22 A2984 RMK SC5CI2 SLP103=

CYQG;2006-07-27 13:00;METAR CYQG 271300Z 22007KT 5SM HZ SCT014 OVC037 24/22 A2985 RMK SC3SC5 SLP106=

CYQG;2006-07-27 13:10;SPECI CYQG 271310Z 22007KT 6SM HZ SCT010 OVC014 RMK SF3SC5=

CYQG;2006-07-27 13:41;SPECI CYQG 271341Z 22008KT 6SM HZ FEW010 OVC016 RMK SF2SC6=

CYQG;2006-07-27 14:00;METAR CYQG 271400Z 23007KT 7SM FEW010 OVC018 24/21 A2986 RMK SF2SC6 SLP110=

CYQG;2006-07-27 14:10;SPECI CYQG 271410Z 25007KT 7SM -SHRA FEW010 OVC017 RMK SF2SC6=

CYQG;2006-07-27 14:49;SPECI CYQG 271449Z 24007KT 7SM SCT010 OVC018 RMK SF3SC5=

CYQG;2006-07-27 15:08;SPECI CYQG 271508Z 25008KT 7SM -SHRA BKN012 OVC018 RMK SF5SC3=

CYQG;2006-07-27 15:41;SPECI CYQG 271541Z 24010KT 7SM SCT014 OVC050 RMK SC4SC4=

CYQG;2006-07-27 16:00;METAR CYQG 271600Z 25009KT 7SM BKN012 OVC050 25/22 A2988 RMK SC6SC2 SLP114=

CYQG;2006-07-27 17:00;METAR CYQG 271700Z 27008KT 6SM HZ BKN014 BKN029 26/22 A2988 RMK SC5SC2 SLP114=

CYQG;2006-07-27 18:00;METAR CYQG 271800Z 27007KT 6SM HZ BKN018 OVC025 27/22 A2988 RMK SC6SC2 SLP114=

CYQG;2006-07-27 19:00;METAR CYQG 271900Z 26006KT 6SM HZ BKN018 BKN040 BKN280 28/23 A2987 RMK SC5SC1CI1 SLP112=

CYQG;2006-07-27 20:00;METAR CYQG 272000Z 25005KT 8SM BKN023 BKN080 29/23 A2986 RMK SC5AC1 SLP109=

CYQG;2006-07-27 21:00;METAR CYQG 272100Z 22006KT 7SM BKN021 BKN075 BKN280 29/23 A2985 RMK CU5AC1CI1 SLP103=

CYQG;2006-07-27 21:24;SPECI CYQG 272124Z 18009KT 7SM SHRA BKN021 BKN080 RMK CU6AC1=

CYQG;2006-07-27 21:47;SPECI CYQG 272147Z 13003G16KT 2 1/2SM SHRA BR OVC021 RMK CU8 VIS W 5=

CYQG;2006-07-27 21:51;SPECI CYQG 272151Z 00000G16KT 3SM TSRA BR OVC021CB RMK CB8 VIS W 5=

CYQG;2006-07-27 22:09;SPECI CYQG 272209Z 30012KT 1SM +TSRA BR OVC021CB RMK CB8 LTGIC LTGCG=

CYQG;2006-07-27 22:11;SPECI CYQG 272211Z 30012KT 1/2SM +TSRA FG OVC021CB RMK CB8 LTGIC LTGCG=

CYQG;2006-07-27 22:43;SPECI CYQG 272243Z 25002KT 7SM BKN020TCU BKN045 RETSRA RMK TCU6SC2=

CYQG;2006-07-27 23:00;METAR CYQG 272300Z 20007KT 8SM FEW021TCU BKN030 BKN045 23/21 A2986 RETSRA RMK TCU2SC3SC2 /R26/ SLP106=

CYQG;2006-07-27 23:17;SPECI CYQG 272317Z 20008KT 15SM -SHRA BKN040 BKN080 RMK SC5AC2=

CYQG;2006-07-28 00:00;METAR CYQG 280000Z 15005KT 6SM -SHRA BR FEW021TCU BKN050 BKN090 23/21 A2985 RMK TCU1SC6AC2 SLP106=

CYQG;2006-07-28 00:16;SPECI CYQG 280016Z 16004KT 8SM FEW021TCU BKN050 BKN090 RMK TCU1SC5AC2 OCNL -SHRA=

CYQG;2006-07-28 01:00;METAR CYQG 280100Z 20005KT 7SM BKN040 OVC280 24/22 A2985 RMK SC6CI2 SLP105=

CYQG;2006-07-28 01:41;SPECI CYQG 280141Z 23014KT 8SM -TSRA FEW015 OVC020CB RMK SF1CB7 LTGIC=

CYQG;2006-07-28 02:00;METAR CYQG 280200Z 26012KT 8SM -TSRA OVC021CB 24/21 A2987 RMK CB8 LTGICCG SLP113=

CYQG;2006-07-28 02:21;SPECI CYQG 280221Z 26006KT 10SM -SHRA BKN080 OVC280 RETS RMK AC5CI3=

CYQG;2006-07-28 03:12;SPECI CYQG 280312Z 27009KT 10SM -RA BKN080 OVC280 RMK AC6CI2=

CYQG;2006-07-28 04:00;METAR CYQG 280400Z 20003KT 6SM -RA BR OVC140 22/21 A2986 RMK AC8 SLP110=

CYQG;2006-07-28 05:00;METAR CYQG 280500Z 22002KT 5SM -RA BR OVC049 22/21 A2988 RMK SC8 SLP115=

CYQG;2006-07-28 05:52;SPECI CYQG 280552Z 24007KT 5SM -RA BR BKN004 OVC110 RMK SF6AC2=

CYQG;2006-07-28 06:00;METAR CYQG 280600Z 24007KT 5SM -RA BR BKN004 OVC110 22/21 A2986 RMK SF6AC2 SLP108=

CYQG;2006-07-28 06:25;SPECI CYQG 280625Z 26004KT 6SM BR FEW004 FEW110 BKN210 RMK SF1AC2CC4=

CYQG;2006-07-28 06:53;SPECI CYQG 280653Z 26003KT 6SM BR BKN003 BKN210 RMK SF6CC1=

CYQG;2006-07-28 07:00;METAR CYQG 280700Z 26004KT 5SM BR OVC005 22/21 A2986 RMK SF6 SLP108=

CYQG;2006-07-28 07:28;SPECI CYQG 280728Z 24006KT 5SM BR FEW004 BKN250 RMK SF1CC5 SF IN VCNTY DETROIT RIVER=

CYQG;2006-07-28 08:00;METAR CYQG 280800Z 25005KT 5SM BR FEW004 BKN250 22/21 A2987 RMK SF1CC7 SF IN VCNTY DETROIT RIVER SLP113=

CYQG;2006-07-28 09:00;METAR CYQG 280900Z 27006KT 7SM FEW005 SCT250 21/20 A2989 RMK SF1CC3 SLP117=

CYQG;2006-07-28 10:00;METAR CYQG 281000Z 25006KT 7SM FEW005 BKN170 BKN260 21/20 A2990 RMK SF1AC6CC1 SLP121=

CYQG;2006-07-28 11:00;METAR CYQG 281100Z 26006KT 6SM BR FEW007 BKN260 21/20 A2990 RMK SF1CC4 SF W OF AIRPORT MVNG E SLP122=

CYQG;2006-07-28 12:00;METAR CYQG 281200Z 26007KT 10SM FEW008 BKN280 22/20 A2992 RMK SF1CI2 SLP130=

CYQG;2006-07-28 12:47;SPECI CYQG 281247Z 28006KT 8SM BKN008 BKN280 RMK SF5CI1=

CYQG;2006-07-28 13:00;METAR CYQG 281300Z 27006KT 10SM BKN012 BKN280 23/21 A2994 RMK SF5CI0 SLP136=

CYQG;2006-07-28 13:25;SPECI CYQG 281325Z 28009KT 12SM SCT013 RMK SF2=

CYQG;2006-07-28 13:49;SPECI CYQG 281349Z 27011KT 12SM BKN014 RMK SF6=

CYQG;2006-07-28 14:00;METAR CYQG 281400Z 29009KT 15SM BKN014 25/20 A2995 RMK SC6 SLP140=

CYQG;2006-07-28 14:27;SPECI CYQG 281427Z 27009KT 15SM BKN016 RMK SC6=

CYQG;2006-07-28 15:00;METAR CYQG 281500Z 29009KT 8SM BKN018 25/21 A2996 RMK SC7 SLP142=

CYQG;2006-07-28 16:00;METAR CYQG 281600Z 29007KT 8SM OVC019 25/21 A2997 RMK SC8 SLP146=

CYQG;2006-07-28 17:00;METAR CYQG 281700Z 27007KT 10SM BKN022 27/21 A2997 RMK CU6 SLP146=

CYQG;2006-07-28 18:00;METAR CYQG 281800Z 26006KT 8SM BKN025 28/21 A2997 RMK CU5 SLP146=

CYQG;2006-07-28 19:00;METAR CYQG 281900Z 25007KT 10SM BKN030 28/21 A2997 RMK CU5 SLP145=

CYQG;2006-07-28 20:00;METAR CYQG 282000Z 27004KT 7SM SCT030 BKN280 29/21 A2997 RMK CU3CI1 SLP144=

CYQG;2006-07-28 21:00;METAR CYQG 282100Z 24009KT 8SM SCT030 30/22 A2996 RMK CU2 SLP141=

CYQG;2006-07-28 22:00;METAR CYQG 282200Z 22010KT 7SM FEW030 FEW280 29/22 A2995 RMK CU1CI0 SLP139=

CYQG;2006-07-28 23:00;METAR CYQG 282300Z 26008KT 8SM FEW030 FEW280 30/21 A2995 RMK CU2CI1 SLP137=

CYQG;2006-07-29 00:00;METAR CYQG 290000Z 23007KT 12SM FEW030 FEW280 29/22 A2995 RMK CU1CI1 SLP138=

CYQG;2006-07-29 01:00;METAR CYQG 290100Z 25005KT 8SM FEW030 FEW280 28/22 A2995 RMK CF1CI1 SLP140=

CYQG;2006-07-29 02:00;METAR CYQG 290200Z 20005KT 15SM FEW280 26/22 A2996 RMK CI1 SLP143=

CYQG;2006-07-29 03:00;METAR CYQG 290300Z 23005KT 15SM FEW280 25/22 A2998 RMK CI1 SLP147=

CYQG;2006-07-29 04:00;METAR CYQG 290400Z 22005KT 8SM SKC 25/22 A2997 RMK SLP145=

CYQG;2006-07-29 05:00;METAR CYQG 290500Z 23004KT 7SM SKC 25/22 A2998 RMK SLP149=

CYQG;2006-07-29 06:00;METAR CYQG 290600Z 23005KT 7SM SKC 24/22 A2998 RMK SLP149=

CYQG;2006-07-29 07:00;METAR CYQG 290700Z 23004KT 6SM BR SKC 24/22 A2998 RMK SLP148=

CYQG;2006-07-29 08:00;METAR CYQG 290800Z 25004KT 6SM BR SKC 24/22 A2998 RMK SLP150=

CYQG;2006-07-29 10:00;METAR CYQG 291000Z 21002KT 6SM BR FEW280 23/21 A2998 RMK CC1 SLP150=

CYQG;2006-07-29 11:00;METAR CYQG 291100Z 22005KT 6SM BR FEW280 23/21 A2997 RMK CI1 SLP144=

CYQG;2006-07-29 12:00;METAR CYQG 291200Z 22004KT 6SM HZ FEW280 24/22 A2996 RMK CI1 SLP141=

CYQG;2006-07-29 13:00;METAR CYQG 291300Z 27004KT 6SM HZ FEW280 25/22 A2997 RMK CI1 SLP146=

CYQG;2006-07-29 14:00;METAR CYQG 291400Z 27008KT 8SM FEW280 28/22 A2998 RMK CC1 SLP149=

CYQG;2006-07-29 15:00;METAR CYQG 291500Z 27007KT 12SM SCT160 30/23 A2998 RMK AC3 SLP149=

CYQG;2006-07-29 16:00;METAR CYQG 291600Z 22008KT 15SM FEW030 FEW160 31/23 A2997 RMK CF1AC1 SLP145=

CYQG;2006-07-29 17:00;METAR CYQG 291700Z 23010KT 15SM FEW040 BKN260 31/23 A2997 RMK CF2CC2 CI ASOCTD SLP146=

CYQG;2006-07-29 19:00;METAR CYQG 291900Z 25011KT 10SM SCT050 33/23 A2995 RMK CU3 SLP137=

CYQG;2006-07-29 20:00;METAR CYQG 292000Z 29008KT 12SM FEW050 FEW180 33/22 A2993 RMK CU2AC1 TCU ASOCTD N SLP132=

CYQG;2006-07-29 21:00;METAR CYQG 292100Z 28008KT 12SM FEW050 FEW180 34/21 A2992 RMK CU2AC1 SLP126=

CYQG;2006-07-29 22:00;METAR CYQG 292200Z 24010KT 12SM FEW054 SCT160 34/21 A2991 RMK CF1AC2 SLP124=

CYQG;2006-07-29 23:00;METAR CYQG 292300Z 26010KT 10SM FEW054 SCT160 33/23 A2990 RMK CF1AC4 SLP122=

CYQG;2006-07-30 00:00;METAR CYQG 300000Z 24007KT 8SM FEW048 FEW160 32/23 A2989 RMK CF1AC1 SLP119=

CYQG;2006-07-30 01:00;METAR CYQG 300100Z 26008KT 8SM FEW040 FEW160 31/23 A2989 RMK CF1AC1 SLP119=

CYQG;2006-07-30 02:00;METAR CYQG 300200Z 25006KT 12SM SKC 30/23 A2991 RMK SLP124=

CYQG;2006-07-30 03:00;METAR CYQG 300300Z 26006KT 12SM FEW150 29/23 A2992 RMK AC2 SLP127=

CYQG;2006-07-30 04:00;METAR CYQG 300400Z 27005KT 12SM FEW120 29/23 A2993 RMK AC1 SLP129=

CYQG;2006-07-30 05:00;METAR CYQG 300500Z 28007KT 12SM SKC 28/22 A2993 RMK SLP129=

CYQG;2006-07-30 06:00;METAR CYQG 300600Z 30006KT 12SM FEW120 28/22 A2993 RMK AC1 SLP129=

CYQG;2006-07-30 07:00;METAR CYQG 300700Z 31005KT 12SM SKC 27/22 A2992 RMK SLP128=

CYQG;2006-07-30 08:00;METAR CYQG 300800Z 29005KT 12SM SKC 26/22 A2992 RMK SLP126=

CYQG;2006-07-30 09:00;METAR CYQG 300900Z 28004KT 12SM SKC 25/22 A2991 RMK SLP123=

CYQG;2006-07-30 10:00;METAR CYQG 301000Z 31003KT 12SM FEW290 25/21 A2991 RMK CI1 SLP123=

CYQG;2006-07-30 11:00;METAR CYQG 301100Z 23003KT 10SM SKC 24/22 A2992 RMK SLP128=

CYQG;2006-07-30 12:00;METAR CYQG 301200Z 27002KT 8SM FEW280 26/22 A2993 RMK CI1 SLP130=

CYQG;2006-07-30 13:00;METAR CYQG 301300Z 05002KT 10SM SCT280 27/22 A2993 RMK CI1 CI ASOCTD SLP132=

CYQG;2006-07-30 14:00;METAR CYQG 301400Z 17004KT 15SM FEW160 28/22 A2992 RMK AC2 SLP128=

CYQG;2006-07-30 15:00;METAR CYQG 301500Z 19003KT 15SM BKN180 30/22 A2992 RMK AC4 SLP129=

CYQG;2006-07-30 16:00;METAR CYQG 301600Z 21004KT 15SM FEW040 BKN180 31/22 A2992 RMK CF1AC4 SLP128=

CYQG;2006-07-30 17:00;METAR CYQG 301700Z 25007KT 15SM FEW030 BKN180 BKN280 31/23 A2991 RMK CU2AC3CI2 SLP124=

CYQG;2006-07-30 18:00;METAR CYQG 301800Z 23009KT 15SM FEW030 SCT180 OVC280 31/24 A2988 RMK CU2AC2CI3 SLP114=

CYQG;2006-07-30 19:00;METAR CYQG 301900Z 22008KT 12SM SCT050TCU OVC270 32/25 A2987 RMK TCU3CI5 SLP109=

CYQG;2006-07-30 19:34;SPECI CYQG 301934Z 31021G28KT 8SM -TSRA SCT038CB OVC058 RMK CB4SC4=

CYQG;2006-07-30 19:43;SPECI CYQG 301943Z 31021G28KT 8SM -TSRA SCT038CB OVC058 RMK CB4SC4=

CYQG;2006-07-30 20:00;METAR CYQG 302000Z 28019G28KT 10SM TS SCT023CB BKN061 OVC270 26/19 A2988 RERA RMK CB3SC4CI1 LTGCG E-SW VSBY S-SE 3 +SHRA OCNL -SHRA SLP112=

CYQG;2006-07-30 20:32;SPECI CYQG 302032Z 31009G17KT 10SM FEW021 BKN034 OVC180 RETS RMK SC2SC4AC2 CB ASOCTD E-SE OCNL LTGCG E-SE=

CYQG;2006-07-30 21:00;METAR CYQG 302100Z 22003KT 12SM FEW021 OVC140 26/19 A2987 RETS RMK SC2AC6 SLP110=

CYQG;2006-07-30 22:00;METAR CYQG 302200Z 17004KT 12SM FEW040 OVC150 25/21 A2987 RMK SC2AC6 SLP111=

CYQG;2006-07-30 23:00;METAR CYQG 302300Z 20005KT 12SM FEW040 BKN140 25/21 A2987 RMK SC2AC6 SLP110=

CYQG;2006-07-31 00:00;METAR CYQG 310000Z 20003KT 8SM FEW030 BKN160 25/21 A2985 RMK CF2AC5 SLP105=

CYQG;2006-07-31 01:00;METAR CYQG 310100Z 24002KT 10SM FEW030 BKN170 BKN270 25/21 A2987 RMK CF1AC5CI1 SLP110=

CYQG;2006-07-31 02:00;METAR CYQG 310200Z 20005KT 15SM BKN180 25/21 A2987 RMK AC5 SLP110=

CYQG;2006-07-31 03:00;METAR CYQG 310300Z 19003KT 15SM FEW180 24/21 A2987 RMK AC2 SLP111=

CYQG;2006-07-31 04:00;METAR CYQG 310400Z 18002KT 12SM SKC 24/21 A2988 RMK SLP113=

CYQG;2006-07-31 05:00;METAR CYQG 310500Z 00000KT 12SM FEW280 23/22 A2989 RMK CI1 SLP116=

CYQG;2006-07-31 06:00;METAR CYQG 310600Z 13002KT 10SM SKC 23/21 A2987 RMK SLP112=

CYQG;2006-07-31 07:00;METAR CYQG 310700Z 00000KT 7SM MIFG SKC 23/21 A2986 RMK SLP108=

CYQG;2006-07-31 08:00;METAR CYQG 310800Z 00000KT 6SM BR MIFG FEW180 22/21 A2986 RMK AC2 SLP108=

CYQG;2006-07-31 08:11;SPECI CYQG 310811Z 00000KT 6SM BR MIFG SCT050 RMK CF4=

CYQG;2006-07-31 09:00;METAR CYQG 310900Z 25006KT 6SM BR FEW050 24/23 A2986 RMK CU2 SLP108=

CYQG;2006-07-31 09:38;SPECI CYQG 310938Z 26007KT 6SM BR FEW050CB RMK CB1 LTGIC IN CLOUD ASOCT=

CYQG;2006-07-31 09:45;SPECI CYQG 310945Z 25008KT 6SM BR FEW050CB RMK CB1 CB S MVNG SSE LTGIC ASOCT=

CYQG;2006-07-31 10:00;METAR CYQG 311000Z 25008KT 6SM BR FEW050CB 25/23 A2985 RMK CB1 CB APRX 20 MI S MVG SSE LTGIC ASOCTD SLP106=

CYQG;2006-07-31 11:00;METAR CYQG 311100Z 22004KT 2 1/2SM BR BKN019 25/23 A2989 RMK SC7 SLP118=

CYQG;2006-07-31 12:00;METAR CYQG 311200Z 21006KT 3SM BR SCT015 BKN023 25/24 A2989 RMK CU4SC3 SLP120=

CYQG;2006-07-31 13:00;METAR CYQG 311300Z 21008KT 4SM HZ BKN015 BKN270 27/24 A2989 RMK CU5CI2 SLP120=

CYQG;2006-07-31 13:43;SPECI CYQG 311343Z 22008KT 4SM HZ BKN012 RMK CU7=

CYQG;2006-07-31 14:00;METAR CYQG 311400Z 23008KT 5SM HZ BKN012 28/25 A2990 RMK CU5 SLP123=

CYQG;2006-07-31 15:00;METAR CYQG 311500Z 26005KT 6SM HZ FEW015 30/25 A2990 RMK CU2 SLP122=

CYQG;2006-07-31 16:00;METAR CYQG 311600Z 23005KT 6SM HZ FEW020 31/26 A2989 RMK CF1 SLP119=

CYQG;2006-07-31 17:00;METAR CYQG 311700Z 21008KT 7SM SCT020 33/26 A2989 RMK CU4 SLP116=

CYQG;2006-07-31 18:00;METAR CYQG 311800Z 21011KT 10SM SCT035TCU 33/26 A2988 RMK TCU4 SLP113=

CYQG;2006-07-31 19:00;METAR CYQG 311900Z 20012KT 8SM SCT040TCU 33/27 A2986 RMK TCU3 SLP107=

CYQG;2006-07-31 20:00;METAR CYQG 312000Z 21012G17KT 8SM FEW030TCU BKN220 34/26 A2985 RMK TCU2CI1 CB ASOCTD NE CONTRAILS SLP105=

CYQG;2006-07-31 21:00;METAR CYQG 312100Z 22012KT 8SM FEW030TCU FEW220 35/25 A2985 RMK TCU2CI0 SLP103=

CYQG;2006-07-31 22:00;METAR CYQG 312200Z 23012G17KT 8SM FEW030TCU 35/24 A2984 RMK TCU2 SLP101=

CYQG;2006-07-31 23:00;METAR CYQG 312300Z 23010KT 8SM FEW030 34/24 A2985 RMK CF1 TCU ASOCTD SLP104=

CYQG;2006-08-01 00:00;METAR CYQG 010000Z 23010KT 7SM FEW040 34/24 A2986 RMK CF1 SLP108=

CYQG;2006-08-01 01:00;METAR CYQG 010100Z 22008KT 7SM SKC 32/25 A2987 RMK SLP109=

CYQG;2006-08-01 02:00;METAR CYQG 010200Z 21007KT 12SM SKC 30/25 A2988 RMK SLP114=

CYQG;2006-08-01 03:00;METAR CYQG 010300Z 21007KT 15SM SKC 30/25 A2990 RMK SLP119=

CYQG;2006-08-01 04:00;METAR CYQG 010400Z 22009KT 15SM FEW280 30/25 A2990 RMK CI1 SLP120=

CYQG;2006-08-01 05:00;METAR CYQG 010500Z 24006KT 15SM FEW280 29/25 A2991 RMK CI1 SLP123=

CYQG;2006-08-01 06:00;METAR CYQG 010600Z 22006KT 15SM FEW280 29/25 A2992 RMK CI1 SLP125=

CYQG;2006-08-01 07:00;METAR CYQG 010700Z 23006KT 15SM SKC 28/25 A2991 RMK SLP123=

CYQG;2006-08-01 08:00;METAR CYQG 010800Z 25006KT 15SM SKC 28/25 A2991 RMK SLP123=

CYQG;2006-08-01 09:00;METAR CYQG 010900Z 22007KT 15SM FEW280 27/25 A2992 RMK CI1 SLP125=

CYQG;2006-08-01 10:00;METAR CYQG 011000Z 23005KT 10SM FEW280 27/25 A2993 RMK CI1 SLP129=

CYQG;2006-08-01 11:00;METAR CYQG 011100Z 22006KT 8SM FEW280 27/25 A2994 RMK CI1 SLP133=

CYQG;2006-08-01 12:00;METAR CYQG 011200Z 23007KT 8SM FEW280 28/25 A2994 RMK CI1 SLP134=

CYQG;2006-08-01 13:00;METAR CYQG 011300Z 24008KT 8SM FEW280 29/25 A2995 RMK CI1 SLP136=

CYQG;2006-08-01 14:00;METAR CYQG 011400Z 23008KT 10SM FEW280 30/24 A2994 RMK CI1 SLP134=

CYQG;2006-08-01 15:00;METAR CYQG 011500Z 24010KT 12SM SKC 32/24 A2994 RMK SLP133=

CYQG;2006-08-01 16:00;METAR CYQG 011600Z 23009KT 15SM SKC 33/24 A2994 RMK SLP134=

CYQG;2006-08-01 18:00;METAR CYQG 011800Z 23011G17KT 15SM FEW040 34/24 A2993 RMK CF1 SLP129=

CYQG;2006-08-01 19:00;METAR CYQG 011900Z 21011KT 15SM FEW040 FEW280 34/24 A2992 RMK CU1CI1 SLP125=

CYQG;2006-08-01 20:00;METAR CYQG 012000Z 21014KT 12SM FEW040TCU 35/25 A2990 RMK TCU1 SLP120=

CYQG;2006-08-01 21:00;METAR CYQG 012100Z 24013G19KT 12SM FEW048 36/24 A2990 RMK CU1 TCU ASOCTD SLP119=

CYQG;2006-08-01 23:00;METAR CYQG 012300Z 24012G17KT 15SM FEW048 FEW280 35/25 A2990 RMK CU1CI0 CB TOPS E SLP120=

CYQG;2006-08-02 00:00;METAR CYQG 020000Z 24012KT 15SM FEW048 SCT280 34/25 A2990 RMK CU1CI1 CB TOPS DSNT E SLP121=

CYQG;2006-08-02 01:00;METAR CYQG 020100Z 24009KT 15SM FEW036TCU BKN280 33/24 A2991 RMK TCU1CI2 SLP123=

CYQG;2006-08-02 02:00;METAR CYQG 020200Z 23008KT 15SM FEW035 BKN280 31/25 A2992 RMK CU1CI2 SLP127=

CYQG;2006-08-02 03:00;METAR CYQG 020300Z 24008KT 15SM BKN280 30/24 A2992 RMK CI1 SLP128=

CYQG;2006-08-02 04:00;METAR CYQG 020400Z 22010KT 15SM FEW280 30/24 A2992 RMK CI1 SLP125=

CYQG;2006-08-02 05:00;METAR CYQG 020500Z 24008KT 15SM FEW280 29/23 A2991 RMK CI1 SLP124=

CYQG;2006-08-02 06:00;METAR CYQG 020600Z 23008KT 15SM FEW280 29/24 A2991 RMK CI0 SLP123=

CYQG;2006-08-02 07:00;METAR CYQG 020700Z 22005KT 15SM SKC 28/24 A2990 RMK SLP120=

CYQG;2006-08-02 08:00;METAR CYQG 020800Z 23006KT 15SM SKC 27/24 A2989 RMK SLP117=

CYQG;2006-08-02 09:00;METAR CYQG 020900Z 23006KT 15SM SKC 27/24 A2990 RMK SLP119=

CYQG;2006-08-02 10:00;METAR CYQG 021000Z 23007KT 15SM FEW140 FEW280 26/23 A2990 RMK AC1CI1 SLP121=

CYQG;2006-08-02 11:00;METAR CYQG 021100Z 23008KT 10SM FEW280 26/23 A2991 RMK CI1 SLP122=

CYQG;2006-08-02 12:00;METAR CYQG 021200Z 24008KT 8SM FEW280 27/24 A2991 RMK CI1 SLP124=

CYQG;2006-08-02 13:00;METAR CYQG 021300Z 23012KT 10SM FEW180 29/24 A2990 RMK AC1 SLP120=

CYQG;2006-08-02 14:00;METAR CYQG 021400Z 24013G18KT 12SM FEW180 30/24 A2989 RMK AC1 SLP117=

CYQG;2006-08-02 15:00;METAR CYQG 021500Z 23013KT 15SM FEW120 32/24 A2988 RMK AC1 SLP114=

CYQG;2006-08-02 16:00;METAR CYQG 021600Z 23014G19KT 15SM FEW120 33/24 A2988 RMK AC1 SLP112=

CYQG;2006-08-02 17:00;METAR CYQG 021700Z 22016KT 15SM FEW040 SCT080 33/24 A2987 RMK CF1AC2 ACC ASOCTD SLP110=

CYQG;2006-08-02 18:00;METAR CYQG 021800Z 22015G21KT 15SM FEW040 34/24 A2984 RMK CF1 SLP099=

CYQG;2006-08-02 19:00;METAR CYQG 021900Z 22017KT 15SM FEW040 34/24 A2982 RMK CF1 SLP093=

CYQG;2006-08-02 20:00;METAR CYQG 022000Z 23015KT 15SM FEW036 35/25 A2981 RMK CF1 SLP089=

CYQG;2006-08-02 21:00;METAR CYQG 022100Z 23015G22KT 15SM FEW044 35/24 A2980 RMK CF1 SLP086=

CYQG;2006-08-02 22:00;METAR CYQG 022200Z 22016G21KT 15SM FEW044 35/24 A2979 RMK CF1 SLP081=

CYQG;2006-08-02 23:00;METAR CYQG 022300Z 23015G22KT 15SM FEW040 34/24 A2977 RMK CF1 TCU TOPS N SLP075=

CYQG;2006-08-03 00:00;METAR CYQG 030000Z 24012G19KT 15SM FEW040CB 33/24 A2977 RMK CB1 SLP076=

CYQG;2006-08-03 02:00;METAR CYQG 030200Z 23011G16KT 15SM FEW040CB 31/23 A2977 RMK CB1 LTNG DSNT NW-E SLP076=

CYQG;2006-08-03 03:00;METAR CYQG 030300Z 24012KT 15SM FEW040CB 31/23 A2980 RMK CB1 FRQ LTNG DSNT N-NE SLP087=

CYQG;2006-08-03 04:00;METAR CYQG 030400Z 24013KT 15SM FEW065 30/23 A2982 RMK SC2 SLP093=

CYQG;2006-08-03 06:00;METAR CYQG 030600Z 27012KT 15SM BKN022 29/23 A2983 RMK SC5 SLP097=

CYQG;2006-08-03 08:00;METAR CYQG 030800Z 27010KT 15SM FEW280 26/20 A2983 RMK CI2 SLP097=

CYQG;2006-08-03 09:00;METAR CYQG 030900Z 26005KT 15SM FEW280 26/20 A2983 RMK CI2 SLP097=

CYQG;2006-08-03 11:00;METAR CYQG 031100Z 32002KT 15SM SCT140 BKN230 25/21 A2983 RMK AC3CI2 PRESRR SLP098=

CYQG;2006-08-03 12:00;METAR CYQG 031200Z 24006KT 15SM FEW021 BKN079 BKN230 26/21 A2985 RMK CF2AC3CI1 TCU ASOCTD SLP103=

CYQG;2006-08-03 13:00;METAR CYQG 031300Z 21010KT 15SM VCSH FEW022 BKN056 BKN230 25/21 A2989 RMK CF1SC5CI1 TCU + CB ASOCTD SHRA SW-SE OCNL LTGCG S PRESRR SLP118=

CYQG;2006-08-03 13:04;SPECI CYQG 031304Z 22013KT 12SM -SHRA BKN027 BKN055 OVC230 RMK CU5SC2CI1 TCU + CB ASOCTD=

CYQG;2006-08-03 13:18;SPECI CYQG 031318Z 21012KT 2SM SHRA BR BKN012 OVC045 RMK CU6SC2 TCU + CB ASOCTD=

CYQG;2006-08-03 13:24;SPECI CYQG 031324Z 20011KT 3SM -SHRA BR SCT012 OVC038 RERA RMK CU4SC4 TCU + CB ASOCTD=

CYQG;2006-08-03 13:50;SPECI CYQG 031350Z 18006KT 5SM -SHRA BR FEW008 BKN046 OVC079 RERA RMK CF2SC4AC2 TCU ASOCTD=

CYQG;2006-08-03 14:00;METAR CYQG 031400Z 18004KT 7SM -SHRA FEW008 SCT050 OVC088 23/22 A2987 RERA RMK CF1SC3AC4 TCU ASOCTD PRESFR SLP111=

CYQG;2006-08-03 14:48;SPECI CYQG 031448Z 24009KT 2 1/2SM SHRA BR BKN010 OVC044 RMK SF5SC3=

CYQG;2006-08-03 15:00;METAR CYQG 031500Z 27013KT 3SM -SHRA BR SCT010 OVC055 23/21 A2988 RERA RMK SF3SC5 SLP114=

CYQG;2006-08-03 15:06;SPECI CYQG 031506Z 29011G17KT 2SM -SHRA BR FEW008 OVC058 RMK SF2SC6=

CYQG;2006-08-03 15:22;SPECI CYQG 031522Z 30013G24KT 5SM -SHRA BR FEW008 OVC042 RMK CF2SC6=

CYQG;2006-08-03 16:00;METAR CYQG 031600Z 30002KT 15SM -SHRA FEW009 SCT045 BKN120 23/21 A2984 RMK CF1SC2AC4 SLP100=

CYQG;2006-08-03 16:22;SPECI CYQG 031622Z 17004KT 15SM FEW045 BKN160 RMK SC2AC4=

CYQG;2006-08-03 17:00;METAR CYQG 031700Z 20009KT 15SM FEW015 SCT050 BKN160 25/22 A2984 RMK CF1SC2AC4 SLP100=

CYQG;2006-08-03 17:53;SPECI CYQG 031753Z 22014G19KT 15SM -SHRA FEW015 BKN047 OVC160 RMK CF1SC5AC2=

CYQG;2006-08-03 18:00;METAR CYQG 031800Z 22012G19KT 15SM -SHRA FEW015 BKN049 OVC160 26/22 A2985 RMK CF1SC5AC2 /R18/ SLP105=

CYQG;2006-08-03 19:00;METAR CYQG 031900Z 22010KT 15SM -SHRA FEW015 BKN038 OVC160 26/23 A2983 RMK CF1SC6AC1 SLP099=

CYQG;2006-08-03 20:00;METAR CYQG 032000Z 24013KT 15SM SCT020 BKN070 28/22 A2982 RMK CU3AC4 SLP094=

CYQG;2006-08-03 20:30;SPECI CYQG 032030Z 26008KT 12SM -SHRA FEW020 OVC070 RMK CF1AC7=

CYQG;2006-08-03 20:47;SPECI CYQG 032047Z 28010KT 3SM SHRA FEW021 OVC070 RMK CF1AC7=

CYQG;2006-08-03 20:50;SPECI CYQG 032050Z 27013KT 1SM +SHRA FEW021 OVC070 RMK CF1AC7=

CYQG;2006-08-03 21:00;METAR CYQG 032100Z 25011KT 6SM -SHRA SCT050 OVC070 25/22 A2983 RMK SC3AC5 SLP096=

CYQG;2006-08-03 21:26;SPECI CYQG 032126Z 25011KT 12SM BKN050 BKN070 RERA RMK SC5AC2=

CYQG;2006-08-03 22:00;METAR CYQG 032200Z 25011KT 15SM BKN050 BKN120 BKN280 27/23 A2981 RERA RMK CU5AC2CI1 TCU ASOCTD SLP091=

CYQG;2006-08-03 23:31;SPECI CYQG 032331Z 36017G38KT 15SM BKN019 RMK SC7=

CYQG;2006-08-04 00:00;METAR CYQG 040000Z 36010KT 15SM FEW012 BKN024 23/20 A2985 RMK CF1SC6 SLP106=

CYQG;2006-08-04 00:22;SPECI CYQG 040022Z 36012KT 15SM OVC013 RMK SC8=

CYQG;2006-08-04 00:36;SPECI CYQG 040036Z 36008G15KT 15SM SCT013 BKN032 BKN280 RMK SC3SC3CI1=

CYQG;2006-08-04 01:00;METAR CYQG 040100Z 36011KT 15SM FEW020 SCT031 BKN280 22/19 A2987 RMK SC2SC1CI3 SLP112=

CYQG;2006-08-04 02:00;METAR CYQG 040200Z 34009KT 15SM BKN017 22/19 A2991 RMK SC7 SLP124=

CYQG;2006-08-04 03:00;METAR CYQG 040300Z 34009KT 15SM FEW020 21/18 A2992 RMK CF1 SLP131=

CYQG;2006-08-04 04:00;METAR CYQG 040400Z 34008KT 15SM FEW020 21/18 A2994 RMK SC1 SLP136=

CYQG;2006-08-04 05:00;METAR CYQG 040500Z 34005KT 15SM SKC 20/17 A2995 RMK SLP140=

CYQG;2006-08-04 06:00;METAR CYQG 040600Z 32005KT 15SM FEW280 20/17 A2996 RMK CI1 SLP142=

CYQG;2006-08-04 07:00;METAR CYQG 040700Z 29004KT 15SM FEW280 20/17 A2997 RMK CI1 SLP146=

CYQG;2006-08-04 08:00;METAR CYQG 040800Z 29006KT 15SM FEW280 20/17 A2997 RMK CI1 SLP147=

CYQG;2006-08-04 09:00;METAR CYQG 040900Z 28005KT 15SM FEW280 20/17 A2998 RMK CI1 SLP150=

CYQG;2006-08-04 10:00;METAR CYQG 041000Z 28005KT 15SM FEW280 19/17 A3000 RMK CI1 SLP157=

CYQG;2006-08-04 11:00;METAR CYQG 041100Z 29004KT 15SM FEW280 19/17 A3002 RMK CI1 SLP164=

CYQG;2006-08-04 12:00;METAR CYQG 041200Z 27002KT 15SM SKC 21/18 A3002 RMK SLP165=

CYQG;2006-08-04 13:00;METAR CYQG 041300Z 31004KT 15SM SKC 23/18 A3005 RMK SLP175=

CYQG;2006-08-04 14:00;METAR CYQG 041400Z 30005KT 15SM SKC 26/18 A3006 RMK SLP178=

CYQG;2006-08-04 15:00;METAR CYQG 041500Z 36004KT 15SM SKC 27/16 A3007 RMK SLP179=

CYQG;2006-08-04 16:00;METAR CYQG 041600Z 35002KT 15SM FEW050 28/15 A3007 RMK CF1 SLP181=

CYQG;2006-08-04 17:00;METAR CYQG 041700Z 03004KT 15SM FEW058 29/16 A3007 RMK CU2 SLP181=

CYQG;2006-08-04 18:00;METAR CYQG 041800Z 15003KT 15SM BKN069 29/17 A3007 RMK CU5 SLP178=

CYQG;2006-08-04 19:00;METAR CYQG 041900Z 25002KT 15SM BKN073 30/15 A3006 RMK CU6 TCU ASOCTD SLP176=

CYQG;2006-08-04 20:00;METAR CYQG 042000Z 11003KT 15SM SCT075 30/18 A3005 RMK CU4 SLP172=

CYQG;2006-08-04 21:00;METAR CYQG 042100Z 16008KT 15SM SCT070 30/18 A3004 RMK CU3 SLP169=

CYQG;2006-08-04 22:00;METAR CYQG 042200Z 17008KT 12SM SCT068 28/18 A3004 RMK CU4 SLP169=

CYQG;2006-08-04 23:00;METAR CYQG 042300Z 11006KT 12SM SCT068 28/19 A3005 RMK CU3 SC ASOCTD SLP173=

CYQG;2006-08-05 00:00;METAR CYQG 050000Z 11004KT 12SM SCT062 27/19 A3006 RMK CU3 SLP176=

CYQG;2006-08-05 01:00;METAR CYQG 050100Z 05010KT 12SM FEW060 24/18 A3008 RMK CU1 CF ASOCTD SLP184=

CYQG;2006-08-05 02:00;METAR CYQG 050200Z 05006KT 15SM SKC 22/16 A3011 RMK SLP191=

CYQG;2006-08-05 03:00;METAR CYQG 050300Z 04009KT 15SM SKC 22/16 A3012 RMK SLP196=

CYQG;2006-08-05 04:00;METAR CYQG 050400Z 05006KT 15SM SKC 21/16 A3012 RMK SLP198=

CYQG;2006-08-05 05:00;METAR CYQG 050500Z 06008KT 15SM SKC 20/16 A3013 RMK SLP200=

CYQG;2006-08-05 06:00;METAR CYQG 050600Z 05005KT 15SM FEW280 20/15 A3013 RMK CI0 SLP200=

CYQG;2006-08-05 07:00;METAR CYQG 050700Z 06006KT 15SM FEW280 20/15 A3013 RMK CI1 SLP200=

CYQG;2006-08-05 08:00;METAR CYQG 050800Z 10002KT 15SM FEW280 20/15 A3013 RMK CI1 SLP201=

CYQG;2006-08-05 09:00;METAR CYQG 050900Z 10004KT 15SM FEW280 20/13 A3014 RMK CI1 SLP203=

CYQG;2006-08-05 10:00;METAR CYQG 051000Z 07004KT 15SM FEW280 18/14 A3016 RMK CI1 SLP209=

CYQG;2006-08-05 11:00;METAR CYQG 051100Z 10002KT 15SM FEW280 19/13 A3018 RMK CI1 SLP216=

CYQG;2006-08-05 12:00;METAR CYQG 051200Z 12004KT 15SM SKC 21/14 A3018 RMK SLP218=

CYQG;2006-08-05 13:00;METAR CYQG 051300Z 11006KT 15SM FEW290 22/13 A3019 RMK CI0 SLP219=

CYQG;2006-08-05 14:00;METAR CYQG 051400Z 09006KT 15SM SKC 24/15 A3019 RMK SLP221=

CYQG;2006-08-05 15:00;METAR CYQG 051500Z 08005KT 15SM FEW290 25/14 A3020 RMK CI0 SLP223=

CYQG;2006-08-05 16:00;METAR CYQG 051600Z 16003KT 15SM FEW290 26/15 A3020 RMK CI1 SLP223=

CYQG;2006-08-05 17:00;METAR CYQG 051700Z 11006KT 15SM BKN290 26/15 A3019 RMK CI2 SLP220=

CYQG;2006-08-05 18:00;METAR CYQG 051800Z 08002KT 15SM BKN280 27/16 A3018 RMK CI4 SLP216=

CYQG;2006-08-05 19:00;METAR CYQG 051900Z 08008KT 15SM FEW043 BKN290 27/16 A3017 RMK SC1CI4 SLP215=

CYQG;2006-08-05 20:00;METAR CYQG 052000Z 09006KT 15SM FEW043 BKN280 27/16 A3016 RMK CU1CI6 CS ASOCTD SLP210=

CYQG;2006-08-05 21:00;METAR CYQG 052100Z 14004KT 15SM BKN280 27/16 A3015 RMK CS5 CI ASOCTD SLP207=

CYQG;2006-08-05 22:00;METAR CYQG 052200Z 11006KT 15SM OVC280 26/17 A3015 RMK CS7 SLP207=

CYQG;2006-08-05 23:00;METAR CYQG 052300Z 12006KT 15SM SCT260 OVC280 25/17 A3014 RMK CC4CS3 SLP204=

CYQG;2006-08-06 02:00;METAR CYQG 060200Z 00000KT 15SM BKN240 BKN280 BKN300 22/16 A3014 RMK CC5CS2CI1 SLP205=

CYQG;2006-08-06 03:00;METAR CYQG 060300Z 11004KT 15SM FEW200 BKN230 22/15 A3014 RMK CC1CC6 SLP203=

CYQG;2006-08-06 04:00;METAR CYQG 060400Z 10002KT 15SM BKN180 21/15 A3014 RMK AC6 SLP202=

CYQG;2006-08-06 05:00;METAR CYQG 060500Z 11002KT 15SM BKN180 21/16 A3014 RMK AC6 SLP204=

CYQG;2006-08-06 06:00;METAR CYQG 060600Z 08003KT 15SM BKN190 20/16 A3013 RMK AC6 SLP201=

CYQG;2006-08-06 07:00;METAR CYQG 060700Z 15002KT 15SM BKN190 21/16 A3013 RMK AC6 SLP199=

CYQG;2006-08-06 08:00;METAR CYQG 060800Z 00000KT 15SM BKN170 21/16 A3012 RMK AC6 SLP196=

CYQG;2006-08-06 09:00;METAR CYQG 060900Z 00000KT 15SM BKN170 21/16 A3012 RMK AC6 SLP196=

CYQG;2006-08-06 10:00;METAR CYQG 061000Z 14003KT 15SM SCT170 20/17 A3011 RMK AC4 SLP192=

CYQG;2006-08-06 11:00;METAR CYQG 061100Z 14004KT 15SM FEW170 FEW270 20/17 A3010 RMK AC1CI1 SLP189=

CYQG;2006-08-06 13:00;METAR CYQG 061300Z 15002KT 15SM SCT280 24/20 A3011 RMK CI2 SLP193=

CYQG;2006-08-06 14:00;METAR CYQG 061400Z 16002KT 15SM BKN290 26/20 A3011 RMK CI2 SLP194=

CYQG;2006-08-06 15:00;METAR CYQG 061500Z 18004KT 15SM FEW032 BKN290 27/19 A3011 RMK CU1CI4 SLP193=

CYQG;2006-08-06 16:00;METAR CYQG 061600Z 19004KT 15SM FEW040 BKN290 28/18 A3010 RMK CU1CI2 SLP189=

CYQG;2006-08-06 17:00;METAR CYQG 061700Z 25005KT 15SM FEW052 BKN300 29/16 A3008 RMK CU1CI2 SLP185=

CYQG;2006-08-06 18:00;METAR CYQG 061800Z 24008KT 15SM FEW056 BKN300 30/17 A3007 RMK CU2CI2 SLP181=

CYQG;2006-08-06 19:00;METAR CYQG 061900Z 20007KT 15SM FEW048 OVC300 29/17 A3007 RMK CU2CS5 SLP180=

CYQG;2006-08-06 20:00;METAR CYQG 062000Z 20008KT 15SM FEW048 OVC300 29/18 A3005 RMK CU1CS7 SLP174=

CYQG;2006-08-06 21:00;METAR CYQG 062100Z 19009KT 10SM FEW040 FEW280 OVC300 28/18 A3004 RMK CU1CC2CS4 SLP168=

CYQG;2006-08-06 22:00;METAR CYQG 062200Z 18008KT 10SM FEW160 OVC280 28/18 A3001 RMK AC2CS4 SLP160=

CYQG;2006-08-06 23:00;METAR CYQG 062300Z 18007KT 8SM FEW140 FEW280 BKN300 28/18 A2999 RMK AC1CC1CS3 SLP154=

CYQG;2006-08-07 00:00;METAR CYQG 070000Z 19005KT 8SM FEW100 FEW160 BKN240 BKN280 28/18 A3001 RMK AC1AC2CS2CI1 SLP160=

CYQG;2006-08-07 01:00;METAR CYQG 070100Z 20006KT 8SM FEW090 FEW150 SCT240 26/19 A3002 RMK AC1AC2CS2 SLP162=

CYQG;2006-08-07 02:00;METAR CYQG 070200Z 21006KT 8SM FEW085 25/19 A3003 RMK AC2 SLP166=

CYQG;2006-08-07 03:00;METAR CYQG 070300Z 22006KT 8SM FEW085 25/20 A3004 RMK AC2 SLP167=

CYQG;2006-08-07 04:00;METAR CYQG 070400Z 22005KT 8SM BKN099 25/20 A3003 RMK AC6 SLP164=

CYQG;2006-08-07 05:00;METAR CYQG 070500Z 22005KT 12SM FEW063 FEW096 25/20 A3003 RMK SC1AC1 SLP164=

CYQG;2006-08-07 06:00;METAR CYQG 070600Z 24005KT 7SM SCT100 24/20 A3001 RMK AC3 SLP159=

CYQG;2006-08-07 07:00;METAR CYQG 070700Z 23005KT 7SM SCT100 24/19 A3001 RMK AC4 SLP157=

CYQG;2006-08-07 08:00;METAR CYQG 070800Z 26006KT 7SM SCT140 24/19 A3000 RMK AC3 SLP155=

CYQG;2006-08-07 09:00;METAR CYQG 070900Z 26006KT 7SM FEW120 24/19 A3001 RMK AC2 SLP158=

CYQG;2006-08-07 10:00;METAR CYQG 071000Z 25006KT 6SM HZ FEW090 FEW120 23/19 A3001 RMK AC1AC1 SLP160=

CYQG;2006-08-07 11:00;METAR CYQG 071100Z 26005KT 6SM HZ FEW100 FEW270 23/19 A3002 RMK AC1CI0 SLP163=

CYQG;2006-08-07 12:00;METAR CYQG 071200Z 24005KT 8SM SCT064 BKN100 BKN270 24/20 A3004 RMK SC4AC1CI0 SLP168=

CYQG;2006-08-07 13:00;METAR CYQG 071300Z 26005KT 7SM FEW026 BKN065 OVC270 25/20 A3006 RMK CF2SC4CI1 SLP176=

CYQG;2006-08-07 14:00;METAR CYQG 071400Z 32006KT 8SM FEW030 FEW065 OVC280 27/21 A3005 RMK SC1SC1CI2 SLP172=

CYQG;2006-08-07 15:00;METAR CYQG 071500Z 29008KT 7SM FEW025 BKN055 OVC280 28/21 A3005 RMK CF2SC3CI1 SLP172=

CYQG;2006-08-07 16:00;METAR CYQG 071600Z 28009KT 7SM BKN028 BKN290 29/21 A3005 RMK SC5CI1 SLP173=

CYQG;2006-08-07 17:00;METAR CYQG 071700Z 29008KT 8SM BKN036 BKN050 OVC290 30/21 A3005 RMK CU5SC2CI0 SLP173=

CYQG;2006-08-07 18:00;METAR CYQG 071800Z 27010KT 8SM FEW035 BKN060 OVC280 30/20 A3006 RMK CU2SC6CI0 SLP175=

CYQG;2006-08-07 19:00;METAR CYQG 071900Z 30008KT 12SM FEW035 SCT060 BKN290 30/20 A3006 RMK CU1SC2CI0 SLP175=

CYQG;2006-08-07 20:00;METAR CYQG 072000Z 32012KT 10SM FEW052 SCT080 BKN280 31/17 A3005 RMK CU2AC2CI1 SLP173=

CYQG;2006-08-07 21:00;METAR CYQG 072100Z 29007KT 10SM FEW056 SCT160 SCT280 31/16 A3004 RMK CU1AC3CI1 SLP168=

CYQG;2006-08-07 23:00;METAR CYQG 072300Z 34011KT 12SM FEW240 29/16 A3005 RMK CC2 SLP171=

CYQG;2006-08-08 00:00;METAR CYQG 080000Z 35009KT 15SM FEW052 FEW240 28/15 A3006 RMK CU1CI2 SLP176=

CYQG;2006-08-08 01:00;METAR CYQG 080100Z 35006KT 15SM FEW080 SCT250 27/15 A3008 RMK AC1CI2 SLP183=

CYQG;2006-08-08 02:00;METAR CYQG 080200Z 04008KT 15SM FEW060 FEW250 24/19 A3011 RMK CU1CI1 SLP193=

CYQG;2006-08-08 03:00;METAR CYQG 080300Z 04004KT 15SM FEW058 SCT250 23/19 A3013 RMK CU2CI1 SLP200=

CYQG;2006-08-08 04:00;METAR CYQG 080400Z 06007KT 15SM FEW024 SCT059 22/18 A3014 RMK CU1SC3 SLP204=

CYQG;2006-08-08 05:00;METAR CYQG 080500Z 05007KT 15SM SCT060 21/18 A3016 RMK SC4 SLP208=

CYQG;2006-08-08 06:00;METAR CYQG 080600Z 04007KT 15SM FEW060 BKN260 21/18 A3015 RMK SC2CI2 SLP208=

CYQG;2006-08-08 07:00;METAR CYQG 080700Z 05005KT 15SM FEW016 FEW060 BKN260 21/17 A3016 RMK CF1SC1CI2 SLP210=

CYQG;2006-08-08 08:00;METAR CYQG 080800Z 36005KT 15SM FEW020 BKN260 21/17 A3015 RMK CF2CI2 SLP208=

CYQG;2006-08-08 09:00;METAR CYQG 080900Z 01008KT 15SM FEW020 SCT260 20/16 A3016 RMK CF1CI1 SLP211=

CYQG;2006-08-08 10:00;METAR CYQG 081000Z 36006KT 15SM FEW020 FEW060 BKN260 19/15 A3018 RMK CF1SC2CI1 SLP216=

CYQG;2006-08-08 11:00;METAR CYQG 081100Z 36006KT 15SM FEW020 BKN260 19/16 A3020 RMK CU2CI2 SLP223=

CYQG;2006-08-08 12:00;METAR CYQG 081200Z 36005KT 15SM FEW032 FEW280 20/16 A3021 RMK CU2CI0 SLP226=

CYQG;2006-08-08 13:00;METAR CYQG 081300Z 33003KT 15SM FEW032 21/17 A3021 RMK CU1 SLP227=

CYQG;2006-08-08 14:00;METAR CYQG 081400Z 36005KT 15SM FEW025 SCT280 23/15 A3022 RMK CU2CI1 SLP230=

CYQG;2006-08-08 15:00;METAR CYQG 081500Z 04006KT 15SM BKN030 BKN280 24/16 A3023 RMK CU5CI1 SLP234=

CYQG;2006-08-08 16:00;METAR CYQG 081600Z 28004KT 15SM SCT030 24/15 A3023 RMK CU3 SLP236=

CYQG;2006-08-08 17:00;METAR CYQG 081700Z 05008KT 15SM SCT032 25/15 A3023 RMK CU4 SLP234=

CYQG;2006-08-08 19:00;METAR CYQG 081900Z 05010KT 15SM SCT032 SCT280 25/16 A3021 RMK CU3CI1 SLP229=

CYQG;2006-08-08 20:00;METAR CYQG 082000Z 06011KT 15SM FEW040 SCT280 26/15 A3020 RMK CU2CI1 SLP225=

CYQG;2006-08-08 21:00;METAR CYQG 082100Z 07008KT 15SM FEW040 FEW280 25/14 A3019 RMK CU2CI1 SLP221=

CYQG;2006-08-08 23:00;METAR CYQG 082300Z 06010KT 15SM FEW040 FEW060 SCT280 24/15 A3019 RMK CU1SC1CI1 SLP220=

CYQG;2006-08-09 00:00;METAR CYQG 090000Z 06008KT 15SM FEW040 FEW060 SCT280 23/14 A3019 RMK CU1SC1CI2 SLP222=

CYQG;2006-08-09 01:00;METAR CYQG 090100Z 08005KT 15SM FEW038 SCT280 21/14 A3019 RMK CU1CI1 SLP222=

CYQG;2006-08-09 02:00;METAR CYQG 090200Z 06008KT 15SM SCT280 20/14 A3020 RMK CI1 SLP224=

CYQG;2006-08-09 03:00;METAR CYQG 090300Z 09003KT 15SM SCT280 21/13 A3020 RMK CI1 SLP225=

CYQG;2006-08-09 04:00;METAR CYQG 090400Z 06005KT 15SM SCT280 19/14 A3020 RMK CI1 SLP224=

CYQG;2006-08-09 05:00;METAR CYQG 090500Z 03003KT 15SM FEW280 19/14 A3019 RMK CI1 SLP222=

CYQG;2006-08-09 06:00;METAR CYQG 090600Z 00000KT 15SM FEW280 17/14 A3019 RMK CI1 SLP222=

CYQG;2006-08-09 07:00;METAR CYQG 090700Z 00000KT 15SM FEW280 18/14 A3019 RMK CI1 SLP222=

CYQG;2006-08-09 08:00;METAR CYQG 090800Z 00000KT 15SM FEW280 18/14 A3019 RMK CI2 SLP222=

CYQG;2006-08-09 09:00;METAR CYQG 090900Z 08003KT 15SM FEW280 16/14 A3018 RMK CI1 SLP219=

CYQG;2006-08-09 10:00;METAR CYQG 091000Z 35002KT 15SM FEW080 FEW280 17/13 A3018 RMK AC1CI1 SLP218=

CYQG;2006-08-09 11:00;METAR CYQG 091100Z 13003KT 15SM FEW020 FEW080 FEW280 17/14 A3017 RMK CU1AC1CI1 SLP215=

CYQG;2006-08-09 12:00;METAR CYQG 091200Z 00000KT 15SM FEW030 SCT280 19/14 A3016 RMK CU1CI1 SLP212=

CYQG;2006-08-09 13:00;METAR CYQG 091300Z 00000KT 15SM FEW030 SCT280 21/16 A3017 RMK CU1CI1 SLP215=

CYQG;2006-08-09 14:00;METAR CYQG 091400Z 08003KT 15SM FEW030 SCT280 24/16 A3014 RMK CU1CI1 SLP206=

CYQG;2006-08-09 15:00;METAR CYQG 091500Z 00000KT 15SM SCT040 BKN270 24/14 A3014 RMK CU4CC1 SLP205=

CYQG;2006-08-09 16:00;METAR CYQG 091600Z 30002KT 15SM BKN045 BKN270 25/15 A3013 RMK CU5CI0 SLP202=

CYQG;2006-08-09 17:00;METAR CYQG 091700Z 28003KT 15SM BKN050 BKN270 25/14 A3011 RMK SC5CI0 SLP196=

CYQG;2006-08-09 18:00;METAR CYQG 091800Z 20003KT 15SM BKN048 BKN270 25/16 A3009 RMK SC6CI1 SLP188=

CYQG;2006-08-09 19:00;METAR CYQG 091900Z 18004KT 15SM BKN045 26/16 A3007 RMK SC6 SLP183=

CYQG;2006-08-09 20:00;METAR CYQG 092000Z 19008KT 15SM BKN050 26/16 A3005 RMK SC6 SLP176=

CYQG;2006-08-09 21:00;METAR CYQG 092100Z 18007KT 15SM FEW045 FEW280 26/15 A3003 RMK CU2CI1 SLP168=

CYQG;2006-08-09 22:00;METAR CYQG 092200Z 18005KT 15SM FEW045 FEW280 25/14 A3002 RMK SC1CI0 SLP165=

CYQG;2006-08-09 23:00;METAR CYQG 092300Z 16006KT 15SM FEW280 25/13 A3000 RMK CI1 SLP158=

CYQG;2006-08-10 00:00;METAR CYQG 100000Z 15005KT 15SM FEW280 24/14 A2999 RMK CI1 SLP155=

CYQG;2006-08-10 01:00;METAR CYQG 100100Z 18004KT 15SM FEW280 21/13 A2998 RMK CI0 SLP152=

CYQG;2006-08-10 02:00;METAR CYQG 100200Z 15002KT 15SM SKC 21/13 A2999 RMK SLP154=

CYQG;2006-08-10 03:00;METAR CYQG 100300Z 00000KT 15SM FEW250 20/14 A2998 RMK CI1 SLP152=

CYQG;2006-08-10 04:00;METAR CYQG 100400Z 17002KT 15SM FEW250 18/14 A2998 RMK CI1 SLP149=

CYQG;2006-08-10 05:00;METAR CYQG 100500Z 00000KT 15SM FEW180 18/14 A2998 RMK AC2 SLP149=

CYQG;2006-08-10 06:00;METAR CYQG 100600Z 00000KT 15SM FEW180 18/14 A2998 RMK AC1 SLP151=

CYQG;2006-08-10 07:00;METAR CYQG 100700Z 00000KT 15SM FEW180 17/14 A2997 RMK AC1 SLP147=

CYQG;2006-08-10 08:00;METAR CYQG 100800Z 00000KT 15SM SCT180 18/14 A2996 RMK AC3 SLP144=

CYQG;2006-08-10 09:00;METAR CYQG 100900Z 00000KT 15SM BKN160 18/14 A2996 RMK AC6 SLP143=

CYQG;2006-08-10 10:00;METAR CYQG 101000Z 00000KT 12SM -SHRA BKN150 19/15 A2995 RMK AC6 SLP141=

CYQG;2006-08-10 10:28;SPECI CYQG 101028Z 00000KT 12SM BKN120 RMK AC6=

CYQG;2006-08-10 11:00;METAR CYQG 101100Z 00000KT 12SM BKN130 19/15 A2995 RMK AC5 SLP141=

CYQG;2006-08-10 12:00;METAR CYQG 101200Z 00000KT 12SM BKN100 BKN270 20/16 A2995 RMK AC5CI1 SLP139=

CYQG;2006-08-10 13:00;METAR CYQG 101300Z 01002KT 15SM SCT110 23/18 A2996 RMK AC3 SLP142=

CYQG;2006-08-10 14:00;METAR CYQG 101400Z 36003KT 15SM BKN100 25/17 A2995 RMK AC6 SLP141=

CYQG;2006-08-10 16:00;METAR CYQG 101600Z 08004KT 15SM SCT050 BKN087 27/16 A2996 RMK CU3AC4 SLP142=

CYQG;2006-08-10 17:00;METAR CYQG 101700Z 08008KT 15SM BKN064 BKN260 26/16 A2997 RMK CU6CI1 SLP145=

CYQG;2006-08-10 18:00;METAR CYQG 101800Z 09006KT 15SM FEW050 SCT120 BKN280 27/16 A2994 RMK CU2AC2CI3 SLP137=

CYQG;2006-08-10 19:00;METAR CYQG 101900Z 14005KT 15SM SCT040 BKN280 27/17 A2995 RMK CU3CI3 SLP139=

CYQG;2006-08-10 20:00;METAR CYQG 102000Z 07005KT 15SM BKN060 BKN280 27/16 A2993 RMK SC5CI2 SLP132=

CYQG;2006-08-10 22:00;METAR CYQG 102200Z 07006KT 15SM BKN040TCU BKN280 27/17 A2991 RMK TCU5CI0 SLP127=

CYQG;2006-08-10 23:00;METAR CYQG 102300Z 04016KT 15SM SCT040TCU BKN080 BKN250 25/19 A2993 RMK TCU4AC2CI1 SLP132=

CYQG;2006-08-11 00:00;METAR CYQG 110000Z 04015G20KT 15SM FEW040 BKN250 24/18 A2993 RMK SC2CI1 SLP133=

CYQG;2006-08-11 01:00;METAR CYQG 110100Z 04013G22KT 15SM FEW020 FEW250 22/17 A2995 RMK SC1CI1 SLP140=

CYQG;2006-08-11 02:00;METAR CYQG 110200Z 01011G17KT 15SM FEW020 FEW250 22/16 A2998 RMK SC1CI1 SLP148=

CYQG;2006-08-11 03:00;METAR CYQG 110300Z 02011KT 15SM FEW020 21/16 A2999 RMK SC2 SLP152=

CYQG;2006-08-11 04:00;METAR CYQG 110400Z 02009KT 15SM SCT017 20/16 A3001 RMK CU3 SLP159=

CYQG;2006-08-11 05:00;METAR CYQG 110500Z 03008KT 15SM BKN022 20/16 A3002 RMK CU6 SLP163=

CYQG;2006-08-11 06:00;METAR CYQG 110600Z 05012G19KT 15SM FEW020 19/15 A3002 RMK CF1 SLP162=

CYQG;2006-08-11 07:00;METAR CYQG 110700Z 05014G19KT 15SM FEW020 19/13 A3001 RMK CF1 SLP159=

CYQG;2006-08-11 08:00;METAR CYQG 110800Z 05015KT 15SM SKC 18/13 A3001 RMK SLP159=

CYQG;2006-08-11 09:00;METAR CYQG 110900Z 05014KT 15SM SKC 18/12 A3001 RMK SLP161=

CYQG;2006-08-11 10:00;METAR CYQG 111000Z 05011KT 15SM FEW160 17/12 A3002 RMK AC1 SLP163=

CYQG;2006-08-11 11:00;METAR CYQG 111100Z 06011KT 15SM FEW220 16/12 A3003 RMK CC1 SLP167=

CYQG;2006-08-11 13:00;METAR CYQG 111300Z 05013KT 15SM FEW020 FEW220 18/13 A3005 RMK CU1CC1 SLP175=

CYQG;2006-08-11 14:00;METAR CYQG 111400Z 04012KT 15SM FEW020 FEW280 19/13 A3008 RMK CU1CC1 SLP185=

CYQG;2006-08-11 15:00;METAR CYQG 111500Z 03012KT 15SM FEW028 FEW280 20/14 A3009 RMK CU1CI1 SLP189=

CYQG;2006-08-11 16:00;METAR CYQG 111600Z 04010KT 15SM FEW025 FEW240 20/13 A3008 RMK CU1CS1 SLP186=

CYQG;2006-08-11 17:00;METAR CYQG 111700Z 04010G15KT 15SM FEW025 FEW240 22/14 A3008 RMK CU1CI2 SLP184=

CYQG;2006-08-11 18:00;METAR CYQG 111800Z 03011KT 15SM FEW030 FEW220 23/14 A3008 RMK CF1CI1 SLP186=

CYQG;2006-08-11 19:00;METAR CYQG 111900Z 04011G18KT 15SM FEW040 SCT220 23/13 A3008 RMK CU1CI2 SLP184=

CYQG;2006-08-11 20:00;METAR CYQG 112000Z 05010G16KT 15SM FEW040 BKN250 23/12 A3006 RMK CU1CI2 SLP179=

CYQG;2006-08-11 21:00;METAR CYQG 112100Z 03011KT 15SM FEW040 BKN230 23/13 A3006 RMK CU1CI3 SLP178=

CYQG;2006-08-11 22:00;METAR CYQG 112200Z 04011KT 15SM FEW040 BKN220 23/12 A3006 RMK CU1CI4 SLP179=

CYQG;2006-08-11 23:00;METAR CYQG 112300Z 04013KT 15SM FEW040 BKN220 22/12 A3006 RMK CU1CI2 SLP179=

CYQG;2006-08-12 00:00;METAR CYQG 120000Z 04009KT 15SM SCT220 21/12 A3007 RMK CI2 SLP180=

CYQG;2006-08-12 01:00;METAR CYQG 120100Z 04010KT 15SM FEW220 19/13 A3007 RMK CI1 SLP183=

CYQG;2006-08-12 02:00;METAR CYQG 120200Z 03010KT 15SM FEW250 19/13 A3009 RMK CI1 SLP187=

CYQG;2006-08-12 03:00;METAR CYQG 120300Z 01004KT 15SM FEW250 18/13 A3010 RMK CI1 SLP191=

CYQG;2006-08-12 04:00;METAR CYQG 120400Z 04008KT 15SM FEW250 17/13 A3009 RMK CI1 SLP190=

CYQG;2006-08-12 05:00;METAR CYQG 120500Z 05008KT 15SM FEW250 17/14 A3010 RMK CI1 SLP192=

CYQG;2006-08-12 06:00;METAR CYQG 120600Z 07007KT 15SM SKC 16/13 A3009 RMK SLP188=

CYQG;2006-08-12 07:00;METAR CYQG 120700Z 06003KT 15SM SKC 16/12 A3009 RMK SLP188=

CYQG;2006-08-12 08:00;METAR CYQG 120800Z 09002KT 15SM SKC 15/12 A3010 RMK SLP192=

CYQG;2006-08-12 09:00;METAR CYQG 120900Z 00000KT 15SM SKC 15/12 A3012 RMK SLP199=

CYQG;2006-08-12 10:00;METAR CYQG 121000Z 02002KT 15SM FEW015 15/13 A3012 RMK CF1 SLP200=

CYQG;2006-08-12 11:00;METAR CYQG 121100Z 33003KT 15SM FEW015 FEW045 15/13 A3013 RMK CF1SC1 SLP203=

CYQG;2006-08-12 12:00;METAR CYQG 121200Z 00000KT 15SM FEW035 17/13 A3014 RMK CF2 SLP207=

CYQG;2006-08-12 13:00;METAR CYQG 121300Z 09004KT 15SM FEW036 FEW045 20/14 A3014 RMK CU2SC1 SLP207=

CYQG;2006-08-12 14:00;METAR CYQG 121400Z 10007KT 15SM FEW030 21/15 A3015 RMK CU1 SLP209=

CYQG;2006-08-12 15:00;METAR CYQG 121500Z 12007KT 15SM SCT036 23/14 A3014 RMK CU3 SLP206=

CYQG;2006-08-12 16:00;METAR CYQG 121600Z 06008KT 15SM FEW039 23/13 A3014 RMK CU2 SLP203=

CYQG;2006-08-12 17:00;METAR CYQG 121700Z 07006KT 15SM FEW042 24/13 A3013 RMK CU1 SLP201=

CYQG;2006-08-12 18:00;METAR CYQG 121800Z 02008KT 15SM FEW048 FEW280 24/12 A3014 RMK CU1CI1 SLP203=

CYQG;2006-08-12 19:00;METAR CYQG 121900Z 06004KT 15SM FEW048 FEW280 21/10 A3012 RMK CU1CI1 SLP199=

CYQG;2006-08-12 20:00;METAR CYQG 122000Z 05008KT 15SM FEW052 FEW280 25/12 A3012 RMK CU1CI0 SLP198=

CYQG;2006-08-12 21:00;METAR CYQG 122100Z 05008KT 15SM FEW050 FEW280 25/10 A3011 RMK CU1CI0 SLP194=

CYQG;2006-08-12 22:00;METAR CYQG 122200Z 09008KT 15SM FEW050 FEW280 25/09 A3011 RMK CU1CI0 SLP194=

CYQG;2006-08-12 23:00;METAR CYQG 122300Z 08006KT 15SM FEW050 FEW280 24/10 A3010 RMK CU1CI0 SLP192=

CYQG;2006-08-13 00:00;METAR CYQG 130000Z 09004KT 15SM FEW280 23/10 A3009 RMK CI0 SLP189=

CYQG;2006-08-13 01:00;METAR CYQG 130100Z 10005KT 15SM SKC 21/12 A3009 RMK SLP187=

CYQG;2006-08-13 02:00;METAR CYQG 130200Z 11002KT 15SM SKC 19/14 A3010 RMK SLP190=

CYQG;2006-08-13 03:00;METAR CYQG 130300Z 13002KT 15SM SKC 18/13 A3011 RMK SLP194=

CYQG;2006-08-13 04:00;METAR CYQG 130400Z 16002KT 15SM SKC 18/13 A3011 RMK SLP196=

CYQG;2006-08-13 05:00;METAR CYQG 130500Z 00000KT 15SM SKC 17/13 A3012 RMK SLP198=

CYQG;2006-08-13 06:00;METAR CYQG 130600Z 00000KT 15SM SKC 17/13 A3014 RMK SLP205=

CYQG;2006-08-13 07:00;METAR CYQG 130700Z 00000KT 15SM SKC 15/12 A3013 RMK SLP202=

CYQG;2006-08-13 08:00;METAR CYQG 130800Z 32002KT 15SM SKC 16/13 A3014 RMK SLP204=

CYQG;2006-08-13 09:00;METAR CYQG 130900Z 00000KT 15SM SKC 16/13 A3013 RMK SLP202=

CYQG;2006-08-13 10:00;METAR CYQG 131000Z 00000KT 15SM FEW270 15/13 A3013 RMK CI0 SLP202=

CYQG;2006-08-13 11:00;METAR CYQG 131100Z 00000KT 15SM MIFG FEW270 14/13 A3014 RMK CI1 SLP204=

CYQG;2006-08-13 12:00;METAR CYQG 131200Z 00000KT 15SM FEW030 FEW270 17/13 A3014 RMK CU1CI1 SLP206=

CYQG;2006-08-13 13:00;METAR CYQG 131300Z 09003KT 15SM FEW030 FEW240 20/14 A3014 RMK CU1CI1 SLP207=

CYQG;2006-08-13 15:00;METAR CYQG 131500Z 21003KT 15SM FEW040 FEW240 24/13 A3014 RMK CU1CI1 SLP205=

CYQG;2006-08-13 16:00;METAR CYQG 131600Z 20002KT 15SM FEW052 FEW240 24/11 A3014 RMK CU1CI1 SLP203=

CYQG;2006-08-13 18:00;METAR CYQG 131800Z 14003KT 15SM FEW220 BKN250 26/13 A3008 RMK CI1CI1 CONTRAILS ASOCTD SLP186=

CYQG;2006-08-13 19:00;METAR CYQG 131900Z 00000KT 15SM FEW052 FEW240 26/13 A3008 RMK CU1CI2 SLP184=

CYQG;2006-08-13 20:00;METAR CYQG 132000Z 00000KT 15SM SCT280 27/11 A3006 RMK CI2 SLP179=

CYQG;2006-08-13 21:00;METAR CYQG 132100Z 18004KT 15SM BKN280 26/09 A3004 RMK CI3 SLP171=

CYQG;2006-08-13 22:00;METAR CYQG 132200Z 19006KT 15SM BKN260 25/12 A3004 RMK CI3 CC ASOCTD SLP171=

CYQG;2006-08-13 23:00;METAR CYQG 132300Z 17008KT 15SM BKN260 24/12 A3003 RMK CI4 SLP167=

CYQG;2006-08-14 00:00;METAR CYQG 140000Z 14005KT 15SM BKN260 22/12 A3001 RMK CI4 SLP163=

CYQG;2006-08-14 01:00;METAR CYQG 140100Z 13004KT 15SM FEW180 BKN260 20/12 A3001 RMK AC2CI3 SLP162=

CYQG;2006-08-14 02:00;METAR CYQG 140200Z 15004KT 15SM BKN260 19/12 A3001 RMK CI5 SLP162=

CYQG;2006-08-14 03:00;METAR CYQG 140300Z 15002KT 15SM SCT180 BKN260 19/12 A3002 RMK AC3CI3 SLP163=

CYQG;2006-08-14 04:00;METAR CYQG 140400Z 16003KT 15SM FEW180 BKN250 19/12 A3000 RMK AC2CI4 SLP158=

CYQG;2006-08-14 05:00;METAR CYQG 140500Z 17002KT 15SM FEW180 BKN250 18/13 A2999 RMK AC2CI5 SLP153=

CYQG;2006-08-14 06:00;METAR CYQG 140600Z 17004KT 15SM SCT250 20/14 A2996 RMK CI3 SLP144=

CYQG;2006-08-14 07:00;METAR CYQG 140700Z 18006KT 15SM FEW058 20/15 A2995 RMK CU2 SLP141=

CYQG;2006-08-14 08:00;METAR CYQG 140800Z 18006KT 15SM FEW059 BKN230 20/16 A2994 RMK CU2CI4 SLP137=

CYQG;2006-08-14 09:00;METAR CYQG 140900Z 20006KT 15SM FEW060 BKN230 21/15 A2993 RMK CU1CI4 SLP133=

CYQG;2006-08-14 10:00;METAR CYQG 141000Z 22006KT 15SM FEW080 BKN230 20/16 A2992 RMK AC1CI4 SLP131=

CYQG;2006-08-14 11:00;METAR CYQG 141100Z 22006KT 6SM HZ FEW080 BKN200 21/17 A2991 RMK AC2CI5 SLP127=

CYQG;2006-08-14 12:00;METAR CYQG 141200Z 22009KT 6SM HZ BKN180 21/16 A2990 RMK AC7 SLP124=

CYQG;2006-08-14 13:00;METAR CYQG 141300Z 22010KT 6SM HZ BKN190 23/17 A2989 RMK AC7 SLP119=

CYQG;2006-08-14 14:00;METAR CYQG 141400Z 22009KT 6SM HZ BKN190 24/17 A2986 RMK AC6 SLP111=

CYQG;2006-08-14 15:00;METAR CYQG 141500Z 23013G18KT 6SM HZ SCT057 BKN180 26/19 A2984 RMK CU4AC3 SLP103=

CYQG;2006-08-14 16:00;METAR CYQG 141600Z 23014G21KT 6SM HZ OVC039 27/20 A2982 RMK CU8 SLP095=

CYQG;2006-08-14 17:00;METAR CYQG 141700Z 23014G19KT 6SM HZ SCT035 BKN065 27/20 A2980 RMK CU3SC4 SLP089=

CYQG;2006-08-14 18:00;METAR CYQG 141800Z 24015KT 4SM HZ BKN032 OVC060 27/20 A2980 RMK CU6SC2 SLP087=

CYQG;2006-08-14 19:00;METAR CYQG 141900Z 24012G18KT 5SM HZ OVC024 26/20 A2980 RMK CU8 SLP088=

CYQG;2006-08-14 19:10;SPECI CYQG 141910Z 26014G20KT 5SM -SHRA HZ OVC021 RMK CU8=

CYQG;2006-08-14 19:33;SPECI CYQG 141933Z 26014KT 2 1/2SM -SHRA HZ OVC021 RMK CU8=

CYQG;2006-08-14 21:00;METAR CYQG 142100Z 27010KT 6SM HZ SCT020 BKN042 25/21 A2980 RMK SC4SC3 SLP087=

CYQG;2006-08-14 22:00;METAR CYQG 142200Z 26012KT 6SM HZ FEW015 SCT020 BKN250 26/20 A2979 RMK CF1SC2CI2 SLP086=

CYQG;2006-08-14 23:00;METAR CYQG 142300Z 29014KT 15SM SCT030 BKN240 26/20 A2978 RMK SC3CI2 SLP083=

CYQG;2006-08-15 00:00;METAR CYQG 150000Z 28011G16KT 15SM SCT031 SCT140 BKN240 26/18 A2979 RMK SC3AC1CI2 SLP083=

CYQG;2006-08-15 01:00;METAR CYQG 150100Z 27009KT 15SM FEW140 BKN240 25/17 A2981 RMK AC2CI2 SLP091=

CYQG;2006-08-15 02:00;METAR CYQG 150200Z 29008KT 15SM SCT250 24/16 A2984 RMK CI4 SLP101=

CYQG;2006-08-15 03:00;METAR CYQG 150300Z 32011KT 15SM BKN250 23/13 A2986 RMK CI3 SLP108=

CYQG;2006-08-15 04:00;METAR CYQG 150400Z 33009G15KT 15SM FEW250 22/13 A2987 RMK CI2 SLP111=

CYQG;2006-08-15 05:00;METAR CYQG 150500Z 32007KT 15SM FEW250 21/13 A2988 RMK CI1 SLP116=

CYQG;2006-08-15 06:00;METAR CYQG 150600Z 27005KT 15SM FEW250 20/13 A2989 RMK CI1 SLP121=

CYQG;2006-08-15 07:00;METAR CYQG 150700Z 27007KT 15SM FEW250 19/13 A2990 RMK CI1 SLP124=

CYQG;2006-08-15 08:00;METAR CYQG 150800Z 27008KT 15SM FEW250 18/13 A2991 RMK CI1 SLP125=

CYQG;2006-08-15 09:00;METAR CYQG 150900Z 27008KT 15SM FEW250 18/13 A2991 RMK CI1 SLP125=

CYQG;2006-08-15 11:00;METAR CYQG 151100Z 28005KT 15SM FEW250 17/13 A2994 RMK CI1 SLP137=

CYQG;2006-08-15 12:00;METAR CYQG 151200Z 28006KT 15SM FEW280 18/14 A2996 RMK CI1 SLP142=

CYQG;2006-08-15 13:00;METAR CYQG 151300Z 31009KT 15SM FEW280 20/15 A2997 RMK CI1 SLP146=

CYQG;2006-08-15 14:00;METAR CYQG 151400Z 30006KT 15SM FEW280 22/15 A2998 RMK CI1 SLP148=

CYQG;2006-08-15 15:00;METAR CYQG 151500Z 27007KT 15SM FEW040 FEW280 24/15 A2998 RMK CF1CI1 SLP150=

CYQG;2006-08-15 16:00;METAR CYQG 151600Z 31010G17KT 15SM SCT057 25/13 A2999 RMK CU4 SLP152=

CYQG;2006-08-15 17:00;METAR CYQG 151700Z 31009KT 15SM FEW020 SCT060 26/12 A2998 RMK FU1SC2 SLP149=

CYQG;2006-08-15 19:00;METAR CYQG 151900Z 30012KT 15SM FEW010 FEW060 27/12 A2998 RMK FU1SC1 SLP149=

CYQG;2006-08-15 20:00;METAR CYQG 152000Z 29010G17KT 15SM FEW015 FEW060 28/11 A2998 RMK FU1CU1 SLP150=

CYQG;2006-08-15 21:00;METAR CYQG 152100Z 34008G16KT 15SM FEW060 28/11 A2998 RMK CU1 SLP151=

CYQG;2006-08-15 22:00;METAR CYQG 152200Z 32013KT 15SM FEW060 28/11 A2999 RMK SC1 SLP154=

CYQG;2006-08-15 23:00;METAR CYQG 152300Z 31005KT 15SM FEW070 28/12 A3000 RMK AC1 SLP156=

CYQG;2006-08-16 00:00;METAR CYQG 160000Z 35008KT 15SM FEW075 26/12 A3002 RMK AC1 SLP163=

CYQG;2006-08-16 01:00;METAR CYQG 160100Z 35006KT 15SM FEW075 24/12 A3004 RMK AC1 SLP171=

CYQG;2006-08-16 02:00;METAR CYQG 160200Z 35003KT 15SM FEW070 24/11 A3007 RMK AC1 SLP180=

CYQG;2006-08-16 03:00;METAR CYQG 160300Z 34002KT 15SM FEW070 21/12 A3008 RMK AC1 SLP184=

CYQG;2006-08-16 04:00;METAR CYQG 160400Z 32002KT 15SM FEW085 21/13 A3010 RMK AC1 SLP189=

CYQG;2006-08-16 05:00;METAR CYQG 160500Z 29006KT 15SM FEW080 21/13 A3011 RMK AC1 SLP193=

CYQG;2006-08-16 06:00;METAR CYQG 160600Z 36002KT 15SM FEW280 20/12 A3020 RMK CI1 SLP224=

CYQG;2006-08-16 07:00;METAR CYQG 160700Z 34002KT 15SM FEW280 19/12 A3011 RMK CI1 SLP195=

CYQG;2006-08-16 09:00;METAR CYQG 160900Z 36005KT 15SM FEW280 17/12 A3014 RMK CI0 SLP204=

CYQG;2006-08-16 10:00;METAR CYQG 161000Z 35005KT 15SM FEW280 17/13 A3015 RMK CI1 SLP209=

CYQG;2006-08-16 11:00;METAR CYQG 161100Z 01003KT 15SM FEW280 16/13 A3017 RMK CI1 SLP215=

CYQG;2006-08-16 12:00;METAR CYQG 161200Z 10004KT 15SM FEW280 19/15 A3020 RMK CI1 SLP223=

CYQG;2006-08-16 13:00;METAR CYQG 161300Z 08005KT 15SM FEW090 21/15 A3022 RMK AC1 SLP230=

CYQG;2006-08-16 14:00;METAR CYQG 161400Z 08007KT 15SM FEW290 23/14 A3023 RMK CI1 SLP234=

CYQG;2006-08-16 15:00;METAR CYQG 161500Z 09008KT 15SM FEW032 23/15 A3023 RMK CU1 SLP236=

CYQG;2006-08-16 16:00;METAR CYQG 161600Z 08007KT 15SM FEW036 24/15 A3024 RMK SC1 SLP237=

CYQG;2006-08-16 17:00;METAR CYQG 161700Z 06007KT 15SM FEW044 25/14 A3023 RMK CU1 SLP234=

CYQG;2006-08-16 18:00;METAR CYQG 161800Z 04005KT 15SM FEW048 25/13 A3022 RMK SC1 SLP232=

CYQG;2006-08-16 19:00;METAR CYQG 161900Z 12003KT 15SM FEW052 26/13 A3022 RMK SC1 SLP231=

CYQG;2006-08-16 20:00;METAR CYQG 162000Z 09006KT 15SM FEW055 27/13 A3021 RMK CU1 SLP228=

CYQG;2006-08-16 21:00;METAR CYQG 162100Z 07003KT 15SM FEW055 27/13 A3021 RMK CU1 SLP227=

CYQG;2006-08-16 22:00;METAR CYQG 162200Z 09003KT 15SM FEW055 FEW290 26/12 A3020 RMK CU1CI1 SLP224=

CYQG;2006-08-16 23:00;METAR CYQG 162300Z 09004KT 15SM FEW060 FEW290 26/11 A3020 RMK CF1CI1 SLP224=

CYQG;2006-08-17 00:00;METAR CYQG 170000Z 09004KT 15SM SCT290 25/11 A3020 RMK CI1 SLP224=

CYQG;2006-08-17 01:00;METAR CYQG 170100Z 14004KT 15SM FEW280 22/16 A3021 RMK CI1 SLP227=

CYQG;2006-08-17 02:00;METAR CYQG 170200Z 18003KT 15SM FEW280 20/15 A3021 RMK CI1 SLP229=

CYQG;2006-08-17 03:00;METAR CYQG 170300Z 00000KT 15SM FEW280 20/16 A3022 RMK CI1 SLP232=

CYQG;2006-08-17 04:00;METAR CYQG 170400Z 09002KT 15SM FEW280 19/15 A3021 RMK CI0 SLP229=

CYQG;2006-08-17 05:00;METAR CYQG 170500Z 11006KT 15SM SCT280 19/15 A3021 RMK CI1 SLP228=

CYQG;2006-08-17 06:00;METAR CYQG 170600Z 11005KT 15SM SCT280 18/15 A3020 RMK CI1 SLP224=

CYQG;2006-08-17 07:00;METAR CYQG 170700Z 12003KT 15SM SCT280 18/14 A3022 RMK CI2 SLP231=

CYQG;2006-08-17 08:00;METAR CYQG 170800Z 10002KT 15SM BKN280 18/13 A3023 RMK CI2 SLP234=

CYQG;2006-08-17 09:00;METAR CYQG 170900Z 09004KT 15SM BKN250 19/14 A3024 RMK CC6 SLP237=

CYQG;2006-08-17 10:00;METAR CYQG 171000Z 12002KT 15SM BKN250 19/14 A3023 RMK CS5 SLP234=

CYQG;2006-08-17 11:00;METAR CYQG 171100Z 00000KT 15SM FEW250 SCT280 18/14 A3023 RMK CC2CI1 SLP234=

CYQG;2006-08-17 13:00;METAR CYQG 171300Z 09005KT 15SM BKN280 22/16 A3023 RMK CC2 CI ASOCTD CONTRAILS SLP235=

CYQG;2006-08-17 14:00;METAR CYQG 171400Z 10006KT 15SM FEW040 BKN280 24/17 A3022 RMK CF1CI2 CONTRAILS SLP231=

CYQG;2006-08-17 15:00;METAR CYQG 171500Z 12008KT 15SM FEW040 BKN300 25/17 A3022 RMK CU2CI2 CONTRAILS SLP231=

CYQG;2006-08-17 16:00;METAR CYQG 171600Z 15006KT 15SM BKN040 BKN300 26/16 A3021 RMK SC5CI0 SLP228=

CYQG;2006-08-17 17:00;METAR CYQG 171700Z 10005KT 15SM BKN043 BKN300 26/16 A3020 RMK SC5CI1 SLP224=

CYQG;2006-08-17 18:00;METAR CYQG 171800Z 09008G15KT 15SM SCT050 BKN300 27/16 A3018 RMK SC4CI1 SLP219=

CYQG;2006-08-17 19:00;METAR CYQG 171900Z 07004KT 15SM FEW051 BKN280 27/16 A3017 RMK SC2CS4 CONTRAILS SLP214=

CYQG;2006-08-17 20:00;METAR CYQG 172000Z 09009KT 15SM FEW050 BKN270 28/16 A3015 RMK SC1CS5 SLP207=

CYQG;2006-08-17 21:00;METAR CYQG 172100Z 09007KT 15SM FEW055 BKN270 27/16 A3014 RMK SC1CS5 SLP202=

CYQG;2006-08-17 22:00;METAR CYQG 172200Z 08010KT 15SM OVC270 26/15 A3013 RMK CS7 SLP199=

CYQG;2006-08-17 23:00;METAR CYQG 172300Z 09005KT 15SM FEW180 BKN270 25/15 A3013 RMK AC1CS6 SLP199=

CYQG;2006-08-18 00:00;METAR CYQG 180000Z 10006KT 15SM BKN180 BKN270 24/16 A3012 RMK AC5CS2 SLP198=

CYQG;2006-08-18 01:00;METAR CYQG 180100Z 12004KT 15SM BKN180 OVC270 23/16 A3012 RMK AC7CS1 SLP199=

CYQG;2006-08-18 02:00;METAR CYQG 180200Z 11003KT 15SM OVC170 22/15 A3014 RMK AC8 SLP206=

CYQG;2006-08-18 03:00;METAR CYQG 180300Z 12003KT 15SM OVC190 21/16 A3014 RMK AC8 SLP202=

CYQG;2006-08-18 04:00;METAR CYQG 180400Z 00000KT 15SM OVC160 21/16 A3014 RMK AC8 SLP203=

CYQG;2006-08-18 05:00;METAR CYQG 180500Z 00000KT 15SM OVC150 21/17 A3013 RMK AC8 SLP199=

CYQG;2006-08-18 05:29;SPECI CYQG 180529Z 00000KT 15SM -SHRA OVC150 RMK AC8=

CYQG;2006-08-18 07:00;METAR CYQG 180700Z 00000KT 15SM -SHRA OVC130 22/19 A3011 RMK AC8 SLP195=

CYQG;2006-08-18 07:51;SPECI CYQG 180751Z 36004KT 15SM BKN140 RMK AC7=

CYQG;2006-08-18 08:00;METAR CYQG 180800Z 02004KT 15SM BKN140 22/19 A3011 RMK AC7 SLP193=

CYQG;2006-08-18 08:05;SPECI CYQG 180805Z 02003KT 15SM -SHRA OVC140 RMK AC8=

CYQG;2006-08-18 09:00;METAR CYQG 180900Z 10003KT 12SM -SHRA OVC093 22/19 A3010 RMK AC8 SLP191=

CYQG;2006-08-18 10:00;METAR CYQG 181000Z 08005KT 10SM -SHRA OVC089 21/20 A3010 RMK AC8 SLP190=

CYQG;2006-08-18 10:10;SPECI CYQG 181010Z 03003KT 10SM BKN094 RMK AC7=

CYQG;2006-08-18 10:39;SPECI CYQG 181039Z 00000KT 10SM BKN090 RMK AC7=

CYQG;2006-08-18 11:00;METAR CYQG 181100Z 09005KT 7SM BKN090 22/20 A3010 RMK AC7 SLP190=

CYQG;2006-08-18 12:00;METAR CYQG 181200Z 00000KT 8SM BKN100 22/20 A3010 RMK AC7 SLP191=

CYQG;2006-08-18 13:00;METAR CYQG 181300Z 00000KT 10SM BKN087 23/20 A3011 RMK AC7 SLP193=

CYQG;2006-08-18 14:00;METAR CYQG 181400Z 19003KT 12SM BKN065 BKN090 24/20 A3012 RMK SC5AC2 SLP196=

CYQG;2006-08-18 15:00;METAR CYQG 181500Z 05003KT 15SM OVC071 25/20 A3011 RMK AC8 SLP194=

CYQG;2006-08-18 16:00;METAR CYQG 181600Z 09004KT 15SM BKN100 25/20 A3009 RMK AC7 SLP188=

CYQG;2006-08-18 17:00;METAR CYQG 181700Z 10003KT 15SM FEW030 SCT065 BKN090 27/20 A3008 RMK CF1SC3AC4 SLP184=

CYQG;2006-08-18 18:00;METAR CYQG 181800Z 19005KT 15SM SCT067 BKN280 28/19 A3007 RMK CU4CS3 SLP181=

CYQG;2006-08-18 19:00;METAR CYQG 181900Z 16003KT 15SM FEW050 OVC280 29/18 A3006 RMK CU2CS5 SLP177=

CYQG;2006-08-18 20:00;METAR CYQG 182000Z 24004KT 15SM BKN040 OVC070 28/19 A3006 RMK SC6AC2 SLP175=

CYQG;2006-08-18 21:00;METAR CYQG 182100Z 19004KT 12SM BKN064 OVC270 28/18 A3005 RMK SC6CS2 SLP172=

CYQG;2006-08-18 22:00;METAR CYQG 182200Z 22002KT 12SM OVC051 28/18 A3004 RMK SC8 SLP171=

CYQG;2006-08-18 23:00;METAR CYQG 182300Z 27002KT 12SM OVC055 27/18 A3004 RMK SC8 SLP170=

CYQG;2006-08-19 00:00;METAR CYQG 190000Z 16003KT 12SM OVC058 26/18 A3003 RMK SC8 SLP167=

CYQG;2006-08-19 01:00;METAR CYQG 190100Z 14004KT 12SM BKN062 BKN100 OVC270 25/18 A3003 RMK SC5AC1CS2 SLP166=

CYQG;2006-08-19 02:00;METAR CYQG 190200Z 17003KT 12SM FEW060 FEW100 OVC270 24/19 A3003 RMK SC1AC2CS6 SLP167=

CYQG;2006-08-19 03:00;METAR CYQG 190300Z 17002KT 12SM BKN061 OVC260 24/19 A3002 RMK SC6CS2 SLP164=

CYQG;2006-08-19 04:00;METAR CYQG 190400Z 00000KT 7SM FEW060 OVC180 23/19 A3000 RMK SC2AC6 SLP157=

CYQG;2006-08-19 05:00;METAR CYQG 190500Z 00000KT 6SM HZ SCT060 OVC160 23/20 A2999 RMK SC4AC4 SLP154=

CYQG;2006-08-19 06:00;METAR CYQG 190600Z 04002KT 6SM HZ BKN060 BKN080 OVC140 22/20 A2998 RMK SC6AC1AC1 SLP150=

CYQG;2006-08-19 06:35;SPECI CYQG 190635Z 00000KT 6SM -SHRA HZ OVC050 RMK SC8=

CYQG;2006-08-19 07:00;METAR CYQG 190700Z 00000KT 6SM -SHRA HZ OVC050 23/21 A2998 RMK SC8 SLP148=

CYQG;2006-08-19 08:00;METAR CYQG 190800Z 00000KT 6SM -SHRA HZ OVC075 23/21 A2997 RMK AC8 SLP146=

CYQG;2006-08-19 09:00;METAR CYQG 190900Z 16003KT 6SM -SHRA BR OVC076 23/21 A2995 RMK AC8 SLP140=

CYQG;2006-08-19 09:54;SPECI CYQG 190954Z 12002KT 6SM BR OVC060 RMK SC8=

CYQG;2006-08-19 10:00;METAR CYQG 191000Z 00000KT 6SM BR SCT051 OVC065 22/21 A2995 RMK SC4SC4 SLP137=

CYQG;2006-08-19 10:21;SPECI CYQG 191021Z 00000KT 2SM BR FEW036 OVC061 RMK SC2SC6=

CYQG;2006-08-19 10:40;SPECI CYQG 191040Z 00000KT 1SM -RA BR OVC037 RMK SC8=

CYQG;2006-08-19 10:47;SPECI CYQG 191047Z 24002KT 1/2SM -RA FG OVC013 RMK SC8=

CYQG;2006-08-19 11:00;METAR CYQG 191100Z 22003KT 1SM -RA BR FEW011 OVC036 23/21 A2996 RMK SF2SC6 SLP141=

CYQG;2006-08-19 11:10;SPECI CYQG 191110Z 18004KT 1 1/2SM -RA BR BKN008 OVC014 RMK SF5SC3=

CYQG;2006-08-19 11:21;SPECI CYQG 191121Z 16004KT 1SM -RA BR FEW008 BKN011 OVC036 RMK FG1SF2SC3SC2=

CYQG;2006-08-19 11:32;SPECI CYQG 191132Z 14004KT 3/4SM -RA BR SCT011 OVC028 RMK FG2SF2SC4=

CYQG;2006-08-19 12:00;METAR CYQG 191200Z 11003KT 3/4SM -RA BR SCT011 OVC026 21/20 A2994 RMK FG2SF2SC5 SLP135=

CYQG;2006-08-19 12:11;SPECI CYQG 191211Z 00000KT 5/8SM -RA BR BKN011 OVC019 RMK FG3SF2SC2=

CYQG;2006-08-19 12:25;SPECI CYQG 191225Z 09003KT 3/4SM -RA BR BKN006 OVC020 RMK FG2SF3SC2=

CYQG;2006-08-19 12:37;SPECI CYQG 191237Z 10002KT 3/4SM -RA BR OVC004 RMK FG2SF6=

CYQG;2006-08-19 12:51;SPECI CYQG 191251Z 09003KT 3/4SM -RA BR OVC003 RMK FG3SF5=

CYQG;2006-08-19 13:00;METAR CYQG 191300Z 09003KT 3/4SM -RA BR OVC003 21/20 A2992 RMK FG3SF5 SLP129=

CYQG;2006-08-19 13:06;SPECI CYQG 191306Z 09003KT 5/8SM -RA BR OVC006 RMK FG3SF5=

CYQG;2006-08-19 13:24;SPECI CYQG 191324Z 12004KT 5/8SM SHRA BR BKN002 OVC021 RMK FG2SF2SC3=

CYQG;2006-08-19 13:32;SPECI CYQG 191332Z 13003KT 1SM -SHRA BR SCT003 OVC011 RERA RMK FG2SF2SC4=

CYQG;2006-08-19 13:45;SPECI CYQG 191345Z 12006KT 1SM BR SCT004 OVC010 RERA RMK FG2SF2SC4 OCNL SHRA=

CYQG;2006-08-19 14:00;METAR CYQG 191400Z 12003KT 1 1/4SM BR BKN005 OVC015 22/21 A2990 RERA RMK FG2SF4SC2 SLP124=

CYQG;2006-08-19 14:18;SPECI CYQG 191418Z 12003KT 1 1/2SM BR BKN004 OVC012 RMK FG2SF5SC2=

CYQG;2006-08-19 15:00;METAR CYQG 191500Z 15003KT 1 1/4SM BR OVC003 22/21 A2990 RMK FG2SF6 SLP122=

CYQG;2006-08-19 15:15;SPECI CYQG 191515Z 14003KT 1SM BR OVC004 RMK FG2SF6=

CYQG;2006-08-19 15:41;SPECI CYQG 191541Z 14004KT 1 1/2SM BR BKN006 OVC017 RMK FG2SF4SC2=

CYQG;2006-08-19 15:52;SPECI CYQG 191552Z 16004KT 1 1/2SM -SHRA BR SCT006 OVC018 RMK FG2SF2SC4=

CYQG;2006-08-19 16:00;METAR CYQG 191600Z 16003KT 1SM -SHRA BR SCT006 OVC012 23/22 A2988 RMK FG2SF2SC4 SLP117=

CYQG;2006-08-19 16:06;SPECI CYQG 191606Z 19002KT 1SM -SHRA BR BKN006 OVC014 RMK FG2SF5SC2=

CYQG;2006-08-19 16:28;SPECI CYQG 191628Z 22005KT 3SM BR SCT006 OVC016 RMK SF3SC5 OCNL -SHRA=

CYQG;2006-08-19 17:00;METAR CYQG 191700Z 23005KT 4SM BR FEW006 OVC016 23/22 A2987 RMK SF2SC6 SLP113=

CYQG;2006-08-19 18:00;METAR CYQG 191800Z 28006KT 4SM HZ FEW008 OVC022 24/22 A2986 RMK SF2SC6 SLP110=

CYQG;2006-08-19 18:48;SPECI CYQG 191848Z 27006KT 5SM -DZ HZ BKN012 OVC025 RMK SC5SC3=

CYQG;2006-08-19 19:00;METAR CYQG 191900Z 28006KT 5SM -DZ HZ BKN013 OVC020 24/22 A2985 RMK SC6SC2 SLP106=

CYQG;2006-08-19 19:29;SPECI CYQG 191929Z 30007KT 5SM HZ BKN011 OVC026 RMK SC6SC2=

CYQG;2006-08-19 20:00;METAR CYQG 192000Z 31009KT 5SM HZ BKN012 OVC023 24/21 A2985 RMK SC5SC3 SLP105=

CYQG;2006-08-19 21:00;METAR CYQG 192100Z 33011KT 7SM BKN013 OVC026 24/21 A2986 RMK CU6SC2 SLP107=

CYQG;2006-08-19 21:46;SPECI CYQG 192146Z 33008KT 7SM SCT015 BKN023 RMK CU3SC2=

CYQG;2006-08-19 22:00;METAR CYQG 192200Z 32007KT 7SM FEW018 BKN280 25/20 A2985 RMK CU2CI2 SLP106=

CYQG;2006-08-19 23:00;METAR CYQG 192300Z 32007KT 7SM FEW023 BKN280 25/20 A2985 RMK CU2CI2 SLP106=

CYQG;2006-08-20 00:00;METAR CYQG 200000Z 30005KT 7SM FEW025 FEW100 BKN280 25/21 A2986 RMK SC1AC1CI3 SLP109=

CYQG;2006-08-20 01:00;METAR CYQG 200100Z 24006KT 6SM HZ BKN051 OVC280 25/21 A2987 RMK SC6CI1 SLP112=

CYQG;2006-08-20 02:00;METAR CYQG 200200Z 25007KT 7SM FEW080 BKN280 24/21 A2987 RMK AC2CI2 SLP112=

CYQG;2006-08-20 03:00;METAR CYQG 200300Z 31010KT 7SM BKN055 BKN280 25/20 A2988 RMK SC5CI2 SLP116=

CYQG;2006-08-20 04:00;METAR CYQG 200400Z 32009KT 8SM BKN042 OVC080 24/18 A2990 RMK SC6AC2 SLP121=

CYQG;2006-08-20 05:00;METAR CYQG 200500Z 32007KT 10SM FEW280 22/18 A2989 RMK CI1 SLP120=

CYQG;2006-08-20 06:00;METAR CYQG 200600Z 32009KT 12SM FEW280 21/16 A2990 RMK CI1 SLP123=

CYQG;2006-08-20 07:00;METAR CYQG 200700Z 32010G16KT 15SM FEW280 20/16 A2991 RMK CI1 SLP126=

CYQG;2006-08-20 08:00;METAR CYQG 200800Z 33007G15KT 15SM FEW280 19/15 A2991 RMK CI1 SLP127=

CYQG;2006-08-20 09:00;METAR CYQG 200900Z 33009KT 15SM BKN018 BKN280 19/15 A2993 RMK SC5CI1 SLP132=

CYQG;2006-08-20 10:00;METAR CYQG 201000Z 33011KT 15SM BKN018 BKN280 19/15 A2995 RMK SC6CI1 SLP140=

CYQG;2006-08-20 11:00;METAR CYQG 201100Z 33008KT 15SM BKN015 19/15 A2997 RMK SC5 SLP145=

CYQG;2006-08-20 12:00;METAR CYQG 201200Z 34012G18KT 15SM -SHRA BKN019 18/15 A2999 RMK CU7 SLP153=

CYQG;2006-08-20 12:42;SPECI CYQG 201242Z 36007KT 15SM VCSH BKN015 BKN037 RMK CU5SC2=

CYQG;2006-08-20 15:00;METAR CYQG 201500Z 34015KT 15SM BKN020 BKN045 20/15 A3004 RMK CU5SC2 SLP172=

CYQG;2006-08-20 16:00;METAR CYQG 201600Z 34011KT 15SM FEW025 BKN043 21/15 A3005 RMK CU2SC4 SLP175=

CYQG;2006-08-20 17:00;METAR CYQG 201700Z 01009G15KT 15SM FEW035 BKN050 22/13 A3006 RMK CU2SC6 SLP178=

CYQG;2006-08-20 18:00;METAR CYQG 201800Z 01009G15KT 15SM FEW035 BKN050 23/13 A3007 RMK CU1SC5 SLP179=

CYQG;2006-08-20 19:00;METAR CYQG 201900Z 36009KT 15SM BKN050 24/13 A3006 RMK SC5 SLP177=

CYQG;2006-08-20 20:00;METAR CYQG 202000Z 34008KT 15SM FEW050 24/13 A3005 RMK CU2 SLP175=

CYQG;2006-08-20 21:00;METAR CYQG 202100Z 03003KT 15SM FEW057 25/12 A3005 RMK CU1 SLP174=

CYQG;2006-08-20 22:00;METAR CYQG 202200Z 04008KT 15SM FEW059 25/12 A3006 RMK CU1 SLP176=

CYQG;2006-08-20 23:00;METAR CYQG 202300Z 35009KT 15SM FEW055 25/12 A3007 RMK SC1 SLP179=

CYQG;2006-08-21 00:00;METAR CYQG 210000Z 34007KT 15SM SKC 24/12 A3007 RMK SLP181=

CYQG;2006-08-21 01:00;METAR CYQG 210100Z 01005KT 15SM SKC 22/11 A3008 RMK SLP184=

CYQG;2006-08-21 02:00;METAR CYQG 210200Z 04003KT 15SM SKC 20/11 A3009 RMK SLP189=

CYQG;2006-08-21 03:00;METAR CYQG 210300Z 09004KT 15SM SKC 19/14 A3009 RMK SLP189=

CYQG;2006-08-21 04:00;METAR CYQG 210400Z 15003KT 15SM SKC 17/14 A3011 RMK SLP193=

CYQG;2006-08-21 05:00;METAR CYQG 210500Z 18003KT 15SM FEW280 16/13 A3012 RMK CI1 SLP197=

CYQG;2006-08-21 06:00;METAR CYQG 210600Z 20002KT 15SM FEW280 16/13 A3013 RMK CI1 SLP202=

CYQG;2006-08-21 07:00;METAR CYQG 210700Z 24002KT 15SM FEW280 15/13 A3013 RMK CI1 SLP203=

CYQG;2006-08-21 08:00;METAR CYQG 210800Z 24003KT 15SM FEW280 15/12 A3014 RMK CI1 SLP206=

CYQG;2006-08-21 09:00;METAR CYQG 210900Z 00000KT 15SM SKC 14/12 A3014 RMK SLP206=

CYQG;2006-08-21 10:00;METAR CYQG 211000Z 00000KT 15SM FEW280 14/12 A3015 RMK CI0 SLP208=

CYQG;2006-08-21 11:00;METAR CYQG 211100Z 00000KT 15SM FEW030 FEW140 FEW280 14/12 A3016 RMK CU1AC1CI1 SLP212=

CYQG;2006-08-21 12:00;METAR CYQG 211200Z 00000KT 15SM FEW030 FEW140 FEW280 17/13 A3016 RMK CU1AC1CI1 SLP212=

CYQG;2006-08-21 13:00;METAR CYQG 211300Z 14003KT 15SM FEW030 FEW280 19/15 A3016 RMK CF1CI1 SLP211=

CYQG;2006-08-21 14:00;METAR CYQG 211400Z 20007KT 15SM FEW030 FEW280 22/15 A3016 RMK CF1CI1 SLP212=

CYQG;2006-08-21 15:00;METAR CYQG 211500Z 23007KT 15SM FEW035 BKN280 24/15 A3016 RMK CF1CC2 CI ASOCTD SLP212=

CYQG;2006-08-21 16:00;METAR CYQG 211600Z 23003KT 15SM BKN044 BKN280 24/13 A3016 RMK CU5CC2 SLP212=

CYQG;2006-08-21 17:00;METAR CYQG 211700Z 20006KT 15SM SCT050 BKN280 25/14 A3015 RMK SC4CC2 SLP207=

CYQG;2006-08-21 18:00;METAR CYQG 211800Z 23008KT 15SM FEW050 BKN280 26/13 A3014 RMK SC2CC2 SLP203=

CYQG;2006-08-21 19:00;METAR CYQG 211900Z 32005KT 15SM FEW055 BKN280 27/13 A3012 RMK SC2CC2 SLP197=

CYQG;2006-08-21 20:00;METAR CYQG 212000Z 28006KT 15SM FEW060 FEW150 BKN290 28/13 A3010 RMK SC1AC1CI2 SLP192=

CYQG;2006-08-21 21:00;METAR CYQG 212100Z 21011KT 15SM FEW062 BKN240 26/15 A3010 RMK SC1CI5 CC ASOCTD SLP190=

CYQG;2006-08-21 22:00;METAR CYQG 212200Z 21010KT 15SM FEW063 BKN230 26/16 A3010 RMK SC1CI2 CC ASOCTD SLP190=

CYQG;2006-08-21 23:00;METAR CYQG 212300Z 23009KT 15SM FEW060 SCT220 26/15 A3008 RMK SC1CI2 CC ASOCTD SLP184=

CYQG;2006-08-22 00:00;METAR CYQG 220000Z 25010KT 15SM FEW220 25/14 A3008 RMK CI1 SLP184=

CYQG;2006-08-22 01:00;METAR CYQG 220100Z 24006KT 15SM FEW220 24/14 A3008 RMK CI1 SLP185=

CYQG;2006-08-22 02:00;METAR CYQG 220200Z 25006KT 15SM FEW220 23/15 A3011 RMK CI1 SLP193=

CYQG;2006-08-22 03:00;METAR CYQG 220300Z 24006KT 15SM SKC 22/15 A3012 RMK SLP196=

CYQG;2006-08-22 04:00;METAR CYQG 220400Z 25006KT 15SM SKC 21/15 A3012 RMK SLP197=

CYQG;2006-08-22 05:00;METAR CYQG 220500Z 25006KT 15SM SKC 20/15 A3012 RMK SLP197=

CYQG;2006-08-22 06:00;METAR CYQG 220600Z 27005KT 15SM SKC 20/15 A3012 RMK SLP197=

CYQG;2006-08-22 07:00;METAR CYQG 220700Z 29005KT 15SM SKC 20/14 A3013 RMK SLP199=

CYQG;2006-08-22 08:00;METAR CYQG 220800Z 32002KT 15SM SKC 19/14 A3012 RMK SLP196=

CYQG;2006-08-22 09:00;METAR CYQG 220900Z 27005KT 15SM FEW280 19/14 A3012 RMK CI1 SLP196=

CYQG;2006-08-22 10:00;METAR CYQG 221000Z 28002KT 15SM FEW280 18/14 A3012 RMK CI0 SLP198=

CYQG;2006-08-22 11:00;METAR CYQG 221100Z 27002KT 15SM FEW140 FEW280 18/14 A3014 RMK AC1CI1 SLP205=

CYQG;2006-08-22 12:00;METAR CYQG 221200Z 24003KT 15SM FEW140 FEW280 19/14 A3015 RMK AC1CI0 SLP207=

CYQG;2006-08-22 13:00;METAR CYQG 221300Z 25003KT 15SM FEW280 21/14 A3015 RMK CI1 SLP207=

CYQG;2006-08-22 14:00;METAR CYQG 221400Z 30003KT 15SM BKN280 23/14 A3014 RMK CI1 SLP206=

CYQG;2006-08-22 15:00;METAR CYQG 221500Z 26006KT 15SM BKN280 25/15 A3014 RMK CI1 SLP202=

CYQG;2006-08-22 16:00;METAR CYQG 221600Z 24005KT 15SM SCT300 26/15 A3013 RMK CI1 SLP199=

CYQG;2006-08-22 17:00;METAR CYQG 221700Z 18006KT 15SM FEW040 27/15 A3012 RMK CU2 SLP196=

CYQG;2006-08-22 18:00;METAR CYQG 221800Z 22009KT 15SM SCT053 28/16 A3010 RMK CU4 SLP191=

CYQG;2006-08-22 19:00;METAR CYQG 221900Z 19007KT 15SM SCT080TCU 28/17 A3009 RMK TCU3 SLP188=

CYQG;2006-08-22 20:00;METAR CYQG 222000Z 21010KT 15SM SCT070TCU 28/17 A3008 RMK TCU3 SLP183=

CYQG;2006-08-22 21:00;METAR CYQG 222100Z 21008KT 15SM BKN090TCU 27/17 A3006 RMK TCU6 SLP178=

CYQG;2006-08-22 22:00;METAR CYQG 222200Z 26002KT 15SM BKN080TCU BKN130 26/17 A3005 RMK TCU6AC2 SLP175=

CYQG;2006-08-22 23:00;METAR CYQG 222300Z 05005KT 15SM -SHRA FEW050 BKN080TCU 25/19 A3006 RMK SC2TCU5 SLP177=

CYQG;2006-08-22 23:27;SPECI CYQG 222327Z 04011KT 15SM FEW060 BKN090TCU RMK SC2TCU5=

CYQG;2006-08-23 00:00;METAR CYQG 230000Z 06009G17KT 15SM SCT050 BKN080TCU 24/18 A3006 RMK SC3TCU3 SLP178=

CYQG;2006-08-23 01:00;METAR CYQG 230100Z 05011KT 15SM BKN090 23/16 A3007 RMK AC6 SLP182=

CYQG;2006-08-23 02:00;METAR CYQG 230200Z 07006KT 15SM FEW100 21/16 A3009 RMK AC2 SLP188=

CYQG;2006-08-23 03:00;METAR CYQG 230300Z 10003KT 15SM FEW100 SCT290 21/15 A3010 RMK AC1CI2 SLP189=

CYQG;2006-08-23 04:00;METAR CYQG 230400Z 11003KT 15SM FEW120 FEW280 20/14 A3009 RMK AC1CI2 SLP187=

CYQG;2006-08-23 05:00;METAR CYQG 230500Z 15002KT 15SM FEW120 SCT280 19/12 A3009 RMK AC2CI0 SLP187=

CYQG;2006-08-23 06:00;METAR CYQG 230600Z 16003KT 15SM FEW140 SCT280 19/12 A3008 RMK AC1CI2 SLP185=

CYQG;2006-08-23 07:00;METAR CYQG 230700Z 00000KT 15SM FEW280 18/12 A3007 RMK CI1 SLP181=

CYQG;2006-08-23 08:00;METAR CYQG 230800Z 04003KT 15SM FEW280 18/12 A3007 RMK CI1 SLP179=

CYQG;2006-08-23 09:00;METAR CYQG 230900Z 35005KT 15SM FEW075 SCT280 18/14 A3006 RMK AC2CI1 SLP178=

CYQG;2006-08-23 10:00;METAR CYQG 231000Z 35006KT 15SM FEW073 SCT280 18/14 A3007 RMK AC1CI1 SLP180=

CYQG;2006-08-23 11:00;METAR CYQG 231100Z 36002KT 15SM FEW035 SCT080 BKN280 17/14 A3007 RMK CU1AC3CI2 SLP180=

CYQG;2006-08-23 12:00;METAR CYQG 231200Z 00000KT 15SM FEW020 BKN058 BKN084 19/15 A3008 RMK CU2SC3AC2 SLP183=

CYQG;2006-08-23 13:00;METAR CYQG 231300Z 07003KT 15SM BKN020 BKN050 21/17 A3007 RMK CU5SC2 SLP182=

CYQG;2006-08-23 14:00;METAR CYQG 231400Z 01004KT 15SM BKN016 BKN045 23/17 A3007 RMK CU6SC2 SLP182=

CYQG;2006-08-23 15:00;METAR CYQG 231500Z 05007KT 15SM BKN020 23/18 A3007 RMK CU6 SLP181=

CYQG;2006-08-23 16:00;METAR CYQG 231600Z 03007KT 15SM BKN023 BKN280 24/17 A3007 RMK CU5CI1 SLP181=

CYQG;2006-08-23 19:00;METAR CYQG 231900Z 04010KT 15SM FEW040TCU BKN300 26/16 A3004 RMK TCU2CI2 CB TOPS DIST E CONTRAILS SLP169=

CYQG;2006-08-23 20:00;METAR CYQG 232000Z 07008KT 15SM FEW040 BKN230 26/15 A3000 RMK CU2CS2 CC CONTRAILS ASOCTD SLP157=

CYQG;2006-08-23 21:00;METAR CYQG 232100Z 09006KT 15SM FEW040 BKN250 25/15 A2999 RMK CU1CC6 SLP154=

CYQG;2006-08-23 22:00;METAR CYQG 232200Z 09004KT 15SM FEW040 BKN170 BKN250 26/15 A2998 RMK CU1AC5CC2 SLP151=

CYQG;2006-08-23 23:00;METAR CYQG 232300Z 16005KT 15SM SCT130 BKN250 25/17 A2998 RMK AC3CI2 SLP152=

CYQG;2006-08-24 00:00;METAR CYQG 240000Z 16004KT 15SM FEW100 SCT120 BKN250 23/17 A2998 RMK AC2AC2CS3 SLP152=

CYQG;2006-08-24 01:00;METAR CYQG 240100Z 17004KT 15SM FEW060 FEW100 BKN250 22/17 A2999 RMK SC1AC1CS4 SLP153=

CYQG;2006-08-24 02:00;METAR CYQG 240200Z 13004KT 15SM FEW250 21/17 A2999 RMK CS2 SLP153=

CYQG;2006-08-24 03:00;METAR CYQG 240300Z 14002KT 15SM FEW250 20/17 A2998 RMK CS1 SLP150=

CYQG;2006-08-24 04:00;METAR CYQG 240400Z 15002KT 15SM FEW220 20/17 A2998 RMK CI1 SLP149=

CYQG;2006-08-24 05:00;METAR CYQG 240500Z 04004KT 15SM BKN077 20/17 A2999 RMK AC6 SLP154=

CYQG;2006-08-24 06:00;METAR CYQG 240600Z 09004KT 10SM BKN084 20/17 A2998 RMK AC7 SLP148=

CYQG;2006-08-24 07:00;METAR CYQG 240700Z 14004KT 12SM SCT088 BKN250 19/17 A2995 RMK AC3CI3 SLP139=

CYQG;2006-08-24 08:00;METAR CYQG 240800Z 09003KT 10SM BKN100 OVC250 18/16 A2995 RMK AC6CI2 SLP138=

CYQG;2006-08-24 09:00;METAR CYQG 240900Z 00000KT 10SM OVC100 18/16 A2996 RMK AC8 LTGCG E SLP143=

CYQG;2006-08-24 10:00;METAR CYQG 241000Z 14002KT 10SM OVC110 19/16 A2996 RMK AC8 SLP143=

CYQG;2006-08-24 10:29;SPECI CYQG 241029Z 29002KT 10SM -SHRA SCT049 OVC100 RMK SC3AC5=

CYQG;2006-08-24 11:00;METAR CYQG 241100Z 00000KT 7SM FEW035 OVC120 19/17 A2998 RMK SC2AC6 OCNL -SHRA SLP149=

CYQG;2006-08-24 12:00;METAR CYQG 241200Z 00000KT 8SM BKN110 OVC280 19/17 A2997 RMK AC6CI2 SLP148=

CYQG;2006-08-24 13:00;METAR CYQG 241300Z 20004KT 8SM FEW040 BKN130 OVC280 20/18 A2996 RMK CU2AC5CI2 SLP145=

CYQG;2006-08-24 14:00;METAR CYQG 241400Z 22003KT 8SM FEW040 BKN110 OVC270 21/18 A2997 RMK CF1AC5CS2 SLP147=

CYQG;2006-08-24 15:00;METAR CYQG 241500Z 23005KT 8SM VCSH SCT030 BKN048 OVC120 21/17 A2999 RMK CU3SC2AC2 SLP154=

CYQG;2006-08-24 15:26;SPECI CYQG 241526Z 22009KT 8SM -SHRA FEW040 BKN064 OVC120 RMK CU2SC4AC2=

CYQG;2006-08-24 15:53;SPECI CYQG 241553Z 23003KT 15SM VCSH SCT065 BKN083 OVC120 RMK SC3AC3AC2=

CYQG;2006-08-24 16:00;METAR CYQG 241600Z 22003KT 12SM VCSH BKN047 OVC080 20/17 A2998 RMK CU5AC3 SLP152=

CYQG;2006-08-24 17:00;METAR CYQG 241700Z 29003KT 6SM -SHRA HZ BKN034 OVC080 21/18 A2997 RMK CU5AC3 SLP148=

CYQG;2006-08-24 17:29;SPECI CYQG 241729Z 30004KT 10SM FEW020 SCT035 BKN150 BKN280 RMK CF1CU3AC2CI2=

CYQG;2006-08-24 18:00;METAR CYQG 241800Z 00000KT 15SM FEW020 SCT042 BKN140 BKN280 23/19 A2996 RMK CF1CU3AC2CI2 SLP145=

CYQG;2006-08-24 19:00;METAR CYQG 241900Z 25005KT 15SM BKN024 BKN045 24/18 A2996 RMK CU6SC2 SLP143=

CYQG;2006-08-24 20:00;METAR CYQG 242000Z 24003KT 15SM SCT034 BKN280 20/18 A2994 RMK CU4CS1 SLP136=

CYQG;2006-08-24 21:00;METAR CYQG 242100Z 00000KT 12SM FEW040 SCT130 OVC280 25/18 A2994 RMK CU2AC1CS2 SLP135=

CYQG;2006-08-24 21:34;SPECI CYQG 242134Z 16002KT 12SM -SHRA SCT030 OVC080 RMK SC4AC4=

CYQG;2006-08-24 22:00;METAR CYQG 242200Z 01002KT 12SM -SHRA SCT035 OVC080 24/18 A2995 RMK SC4AC4 SLP141=

CYQG;2006-08-24 23:00;METAR CYQG 242300Z 10003KT 10SM FEW035 OVC080 23/19 A2995 RMK CU1AC8 SLP139=

CYQG;2006-08-25 00:00;METAR CYQG 250000Z 11004KT 8SM SCT086 OVC150 22/19 A2993 RMK AC4AC4 SLP135=

CYQG;2006-08-25 00:37;SPECI CYQG 250037Z 05004KT 7SM -SHRA BKN060 OVC110 RMK SC6AC2=

CYQG;2006-08-25 01:00;METAR CYQG 250100Z 05003KT 7SM -SHRA OVC060 21/19 A2995 RMK SC8 SLP139=

CYQG;2006-08-25 02:00;METAR CYQG 250200Z 08003KT 7SM -SHRA OVC130 21/19 A2993 RMK AC8 SLP134=

CYQG;2006-08-25 02:53;SPECI CYQG 250253Z 09002KT 7SM SCT098 RMK AC3=

CYQG;2006-08-25 03:00;METAR CYQG 250300Z 15003KT 7SM FEW098 SCT130 21/19 A2994 RMK AC2AC2 SLP137=

CYQG;2006-08-25 04:00;METAR CYQG 250400Z 03003KT 5SM BR BKN012 OVC038 21/20 A2998 RMK SF5SC3 SLP150=

CYQG;2006-08-25 04:43;SPECI CYQG 250443Z 09004KT 5SM BR SCT010 OVC110 RMK SF3AC5=

CYQG;2006-08-25 05:00;METAR CYQG 250500Z 06003KT 5SM BR SCT010 OVC100 20/19 A2997 RMK SF4AC4 SLP147=

CYQG;2006-08-25 05:09;SPECI CYQG 250509Z 07004KT 4SM BR BKN008 OVC100 RMK ST6AC2=

CYQG;2006-08-25 06:00;METAR CYQG 250600Z 09003KT 6SM BR OVC008 20/19 A2996 RMK SF8 SLP144=

CYQG;2006-08-25 06:23;SPECI CYQG 250623Z 07002KT 6SM BR SCT008 OVC100 RMK SF4AC4=

CYQG;2006-08-25 07:00;METAR CYQG 250700Z 04002KT 6SM BR FEW008 OVC120 20/19 A2996 RMK SF2AC6 SLP145=

CYQG;2006-08-25 08:00;METAR CYQG 250800Z 01004KT 6SM BR FEW008 FEW060 OVC130 20/18 A2996 RMK SF2SC1AC6 SLP145=

CYQG;2006-08-25 09:00;METAR CYQG 250900Z 07003KT 6SM BR FEW080 OVC210 20/18 A2996 RMK AC2CI6 SLP142=

CYQG;2006-08-25 10:00;METAR CYQG 251000Z 09003KT 6SM BR FEW080 OVC230 20/18 A2995 RMK AC2CI6 SLP140=

CYQG;2006-08-25 10:51;SPECI CYQG 251051Z 15002KT 2SM BR OVC220 RMK CI8=

CYQG;2006-08-25 11:00;METAR CYQG 251100Z 15002KT 1 1/2SM BR OVC220 19/18 A2996 RMK CI8 SLP143=

CYQG;2006-08-25 12:00;METAR CYQG 251200Z 09003KT 3SM BR OVC220 20/18 A2995 RMK CS7 SLP142=

CYQG;2006-08-25 13:00;METAR CYQG 251300Z 08004KT 6SM BR FEW011 FEW180 OVC220 21/19 A2997 RMK SC1AC2CS4 SLP146=

CYQG;2006-08-25 13:43;SPECI CYQG 251343Z 08005KT 5SM BR BKN012 OVC220 RMK SC6CS2=

CYQG;2006-08-25 14:00;METAR CYQG 251400Z 08008KT 6SM HZ BKN010 BKN220 22/19 A2996 RMK SC5CI2 SLP144=

CYQG;2006-08-25 15:00;METAR CYQG 251500Z 07005KT 7SM BKN012 BKN230 23/20 A2997 RMK SC5CI1 SLP145=

CYQG;2006-08-25 16:00;METAR CYQG 251600Z 09007KT 7SM BKN013 BKN230 24/21 A2995 RMK SC6CI1 SLP139=

CYQG;2006-08-25 16:44;SPECI CYQG 251644Z 06005KT 7SM FEW013 OVC024 RMK SC2SC6=

CYQG;2006-08-25 17:00;METAR CYQG 251700Z 06006KT 8SM FEW015 OVC024 25/21 A2993 RMK SC2SC6 SLP132=

CYQG;2006-08-25 18:00;METAR CYQG 251800Z 16008KT 10SM SCT025 OVC043 27/19 A2993 RMK SC4SC4 SLP134=

CYQG;2006-08-25 19:00;METAR CYQG 251900Z 17008KT 10SM OVC042 27/19 A2994 RMK SC8 SLP136=

CYQG;2006-08-25 21:00;METAR CYQG 252100Z 16006KT 10SM BKN230 27/21 A2992 RMK CS6 SLP128=

CYQG;2006-08-25 22:00;METAR CYQG 252200Z 16007KT 8SM OVC250 26/21 A2992 RMK CS2 SLP129=

CYQG;2006-08-25 23:00;METAR CYQG 252300Z 15005KT 7SM OVC250 26/21 A2993 RMK CS4 SLP132=

CYQG;2006-08-26 00:00;METAR CYQG 260000Z 15005KT 6SM HZ BKN250 24/21 A2993 RMK CS3 SLP133=

CYQG;2006-08-26 01:00;METAR CYQG 260100Z 13004KT 6SM HZ BKN250 23/21 A2995 RMK CS3 SLP140=

CYQG;2006-08-26 02:00;METAR CYQG 260200Z 12005KT 5SM BR FEW250 22/20 A2996 RMK CS2 SLP144=

CYQG;2006-08-26 02:12;SPECI CYQG 260212Z 12005KT 5SM BR SCT005 BKN250 RMK CF4CS2=

CYQG;2006-08-26 02:18;SPECI CYQG 260218Z 12005KT 5SM BR OVC005 RMK SC8=

CYQG;2006-08-26 03:00;METAR CYQG 260300Z 12008KT 4SM BR BKN005 22/21 A2997 RMK SF7 SLP147=

CYQG;2006-08-26 03:22;SPECI CYQG 260322Z 11007KT 4SM BR BKN006 OVC250 RMK SF5CI3=

CYQG;2006-08-26 03:42;SPECI CYQG 260342Z 12006KT 4SM BR SCT006 OVC250 RMK SF3CI5=

CYQG;2006-08-26 04:00;METAR CYQG 260400Z 13007KT 3SM BR SCT006 OVC250 22/20 A2998 RMK SF3CI5 SLP149=

CYQG;2006-08-26 04:31;SPECI CYQG 260431Z 11005KT 3SM BR BKN006 OVC250 RMK SF6CI2=

CYQG;2006-08-26 05:00;METAR CYQG 260500Z 11005KT 3SM BR BKN006 OVC250 21/20 A2998 RMK SF5CI3 SLP148=

CYQG;2006-08-26 06:00;METAR CYQG 260600Z 10007KT 3SM BR OVC008 21/20 A2998 RMK SF8 SLP148=

CYQG;2006-08-26 07:00;METAR CYQG 260700Z 09006KT 3SM BR OVC007 21/20 A2999 RMK SF8 SLP153=

CYQG;2006-08-26 08:00;METAR CYQG 260800Z 06005KT 4SM BR OVC007 21/20 A3001 RMK SF8 SLP158=

CYQG;2006-08-26 09:00;METAR CYQG 260900Z 08005KT 4SM BR OVC008 21/20 A3001 RMK SF8 SLP161=

CYQG;2006-08-26 09:35;SPECI CYQG 260935Z 10007KT 4SM BR OVC010 RMK SF8=

CYQG;2006-08-26 09:52;SPECI CYQG 260952Z 07005KT 4SM BR SCT012 OVC089 RMK SC4AC4=

CYQG;2006-08-26 10:00;METAR CYQG 261000Z 06005KT 4SM BR SCT012 OVC094 21/19 A3002 RMK SC4AC4 SLP163=

CYQG;2006-08-26 10:36;SPECI CYQG 261036Z 09006KT 2 1/2SM BR FEW012 BKN110 OVC220 RMK SC2AC4CI2=

CYQG;2006-08-26 11:00;METAR CYQG 261100Z 09005KT 3SM BR BKN013 BKN100 OVC220 20/19 A3002 RMK SC5AC2CI2 SLP162=

CYQG;2006-08-26 12:00;METAR CYQG 261200Z 11005KT 5SM BR BKN012 BKN140 21/20 A3002 RMK SC6AC2 SLP165=

CYQG;2006-08-26 12:32;SPECI CYQG 261232Z 11007KT 6SM BR FEW012 BKN130 RMK SC2AC6=

CYQG;2006-08-26 13:00;METAR CYQG 261300Z 12009KT 6SM HZ FEW013 BKN130 22/20 A3003 RMK SC1AC5 SLP166=

CYQG;2006-08-26 13:53;SPECI CYQG 261353Z 12010KT 6SM HZ BKN012 BKN120 RMK SC6AC1=

CYQG;2006-08-26 14:00;METAR CYQG 261400Z 12008KT 6SM HZ OVC011 23/20 A3003 RMK SC8 SLP167=

CYQG;2006-08-26 15:00;METAR CYQG 261500Z 13010KT 6SM HZ OVC014 24/21 A3004 RMK SC8 SLP171=

CYQG;2006-08-26 15:27;SPECI CYQG 261527Z 15009KT 7SM OVC016 RMK SC8=

CYQG;2006-08-26 16:00;METAR CYQG 261600Z 14008KT 7SM OVC019 25/21 A3004 RMK SC8 SLP170=

CYQG;2006-08-26 17:00;METAR CYQG 261700Z 15009KT 7SM SCT019 OVC260 26/21 A3002 RMK SC3CS4 SLP163=

CYQG;2006-08-26 18:00;METAR CYQG 261800Z 16007KT 7SM FEW022 OVC270 27/21 A3001 RMK SC2CS5 SLP158=

CYQG;2006-08-26 19:00;METAR CYQG 261900Z 14009KT 7SM FEW023 OVC240 27/21 A2998 RMK SC1CS6 SLP151=

CYQG;2006-08-26 20:00;METAR CYQG 262000Z 13007KT 7SM FEW024 BKN250 27/21 A2996 RMK CU1CI5 SLP144=

CYQG;2006-08-26 21:00;METAR CYQG 262100Z 14007KT 7SM OVC240 26/22 A2995 RMK CS8 SLP139=

CYQG;2006-08-26 22:00;METAR CYQG 262200Z 13008KT 7SM OVC240 25/22 A2995 RMK CS8 SLP141=

CYQG;2006-08-26 23:00;METAR CYQG 262300Z 14008KT 7SM OVC200 25/21 A2995 RMK CS8 SLP139=

CYQG;2006-08-27 00:00;METAR CYQG 270000Z 15005KT 6SM HZ SCT180 OVC200 24/21 A2995 RMK AC4CS4 SLP138=

CYQG;2006-08-27 01:00;METAR CYQG 270100Z 16003KT 6SM HZ FEW060 BKN150 OVC200 24/21 A2995 RMK SC2AC3CS3 SLP141=

CYQG;2006-08-27 02:00;METAR CYQG 270200Z 19004KT 5SM -SHRA HZ BKN040 OVC200 23/22 A2995 RMK SC6CS2 SLP140=

CYQG;2006-08-27 02:31;SPECI CYQG 270231Z 20004KT 5SM HZ BKN040 OVC200 RMK SC6CS2=

CYQG;2006-08-27 03:00;METAR CYQG 270300Z 24004KT 5SM HZ BKN050 OVC120 24/22 A2996 RMK SC5AC3 SLP143=

CYQG;2006-08-27 04:00;METAR CYQG 270400Z 18003KT 5SM BR FEW050 OVC140 24/22 A2995 RMK SC2AC6 SLP141=

CYQG;2006-08-27 05:00;METAR CYQG 270500Z 09002KT 5SM HZ FEW062 OVC150 24/21 A2995 RMK SC2AC6 SLP140=

CYQG;2006-08-27 06:00;METAR CYQG 270600Z 00000KT 4SM HZ OVC140 23/21 A2995 RMK AC8 SLP137=

CYQG;2006-08-27 06:16;SPECI CYQG 270616Z 18003KT 4SM -SHRA BR FEW060 OVC120 RMK SC2AC6=

CYQG;2006-08-27 07:00;METAR CYQG 270700Z 20005KT 4SM -SHRA BR FEW060 OVC130 23/21 A2995 RMK SC1AC7 SLP139=

CYQG;2006-08-27 08:00;METAR CYQG 270800Z 19003KT 3SM BR SCT080 OVC130 23/21 A2994 RMK AC3AC5 OCNL -SHRA SLP135=

CYQG;2006-08-27 08:27;SPECI CYQG 270827Z 18004KT 2 1/2SM -SHRA BR OVC096 RMK AC8=

CYQG;2006-08-27 09:00;METAR CYQG 270900Z 17002KT 2 1/2SM -SHRA BR OVC073 23/21 A2993 RMK AC8 SLP132=

CYQG;2006-08-27 09:43;SPECI CYQG 270943Z 15002KT 2SM BR FEW031 OVC074 RMK SC2AC6=

CYQG;2006-08-27 10:00;METAR CYQG 271000Z 18002KT 1 1/2SM BR FEW018 OVC033 22/21 A2993 RMK SC2SC6 SLP132=

CYQG;2006-08-27 10:39;SPECI CYQG 271039Z 00000KT 1 1/4SM -SHRA BR BKN017 OVC031 RMK SC5SC3=

CYQG;2006-08-27 11:00;METAR CYQG 271100Z 00000KT 3/4SM -SHRA BR SCT017 OVC047 22/22 A2992 RMK SC3SC5 SLP130=

CYQG;2006-08-27 12:00;METAR CYQG 271200Z 00000KT 3/4SM -SHRA BR OVC020 22/21 A2993 RMK FG2SC6 SLP133=

CYQG;2006-08-27 12:26;SPECI CYQG 271226Z 00000KT 3/4SM -SHRA BR BKN007 OVC020 RMK FG2SF4SC2=

CYQG;2006-08-27 12:47;SPECI CYQG 271247Z 00000KT 1/2SM -RA FG OVC003 RMK FG2SF6=

CYQG;2006-08-27 13:00;METAR CYQG 271300Z 00000KT 1/2SM -RA FG BKN003 OVC014 22/22 A2993 RMK FG2SF5SC1 SLP133=

CYQG;2006-08-27 13:20;SPECI CYQG 271320Z 00000KT 1/2SM -RA FG OVC006 RMK FG2SF6=

CYQG;2006-08-27 14:00;METAR CYQG 271400Z 03005KT 3/4SM -RA BR BKN006 OVC014 22/21 A2992 RMK FG2SF5SC2 SLP131=

CYQG;2006-08-27 14:08;SPECI CYQG 271408Z 04005KT 1 1/4SM -RA BR BKN006 OVC024 RMK FG1SF4SC3=

CYQG;2006-08-27 14:14;SPECI CYQG 271414Z 03006KT 2SM -RA BR SCT006 OVC026 RMK FG1SF2SC5=

CYQG;2006-08-27 14:46;SPECI CYQG 271446Z 04006KT 3SM -RA BR FEW006 OVC032 RMK SF2SC6=

CYQG;2006-08-27 15:00;METAR CYQG 271500Z 03004KT 4SM -RA BR FEW007 OVC038 23/22 A2993 RMK SF1SC7 SLP133=

CYQG;2006-08-27 15:16;SPECI CYQG 271516Z 03005KT 4SM -SHRA BR BKN007 OVC027 RMK SF6SC2=

CYQG;2006-08-27 16:00;METAR CYQG 271600Z 04007KT 3SM -SHRA BR BKN007 OVC024 24/22 A2995 RMK SF6SC2 SLP139=

CYQG;2006-08-27 16:09;SPECI CYQG 271609Z 02008KT 2SM -SHRA BR OVC007 RMK FG1SF7=

CYQG;2006-08-27 16:35;SPECI CYQG 271635Z 01006KT 4SM BR SCT007 OVC026 RMK SF3SC5=

CYQG;2006-08-27 16:52;SPECI CYQG 271652Z 02008KT 5SM -SHRA BR FEW007 OVC032 RMK SF1SC7=

CYQG;2006-08-27 17:00;METAR CYQG 271700Z 02006KT 5SM -SHRA BR FEW007 OVC032 23/21 A2995 RMK SF1SC7 SLP139=

CYQG;2006-08-27 17:28;SPECI CYQG 271728Z 04005KT 6SM BR FEW007 OVC037 RMK SF2SC6=

CYQG;2006-08-27 18:00;METAR CYQG 271800Z 36005KT 6SM HZ FEW008 OVC039 24/21 A2995 RMK SF2SC6 SLP141=

CYQG;2006-08-27 19:00;METAR CYQG 271900Z 36005KT 7SM FEW011 OVC040 25/21 A2995 RMK SF1SC7 SLP141=

CYQG;2006-08-27 20:00;METAR CYQG 272000Z 03010KT 2SM -SHRA HZ FEW009 BKN012 OVC040 22/20 A2996 RMK SF2SC5SC1 VIS N-W 4 SLP142=

CYQG;2006-08-27 20:08;SPECI CYQG 272008Z 03008KT 2 1/2SM -SHRA HZ BKN009 BKN012 OVC040 RMK SF5SC2SC2=

CYQG;2006-08-27 20:20;SPECI CYQG 272020Z 04012KT 2SM HZ BKN009 BKN012 OVC040 RMK SF5SC2SC2=

CYQG;2006-08-27 21:00;METAR CYQG 272100Z 03010KT 3SM BR SCT008 OVC018 22/20 A2996 RMK SF3SC5 SLP143=

CYQG;2006-08-27 22:00;METAR CYQG 272200Z 04006KT 6SM BR OVC009 22/20 A2997 RMK SC8 SLP146=

CYQG;2006-08-27 23:00;METAR CYQG 272300Z 36005KT 6SM HZ BKN010 OVC040 22/20 A2997 RMK SC6SC2 SLP146=

CYQG;2006-08-28 00:00;METAR CYQG 280000Z 36006KT 6SM HZ OVC020 22/20 A2998 RMK SC8 SLP150=

CYQG;2006-08-28 01:00;METAR CYQG 280100Z 03004KT 6SM HZ OVC026 22/20 A2999 RMK SC8 SLP155=

CYQG;2006-08-28 02:00;METAR CYQG 280200Z 04005KT 5SM HZ OVC021 21/19 A2999 RMK SC8 SLP155=

CYQG;2006-08-28 03:00;METAR CYQG 280300Z 05005KT 10SM BKN021 OVC230 21/19 A3000 RMK SC6CI2 SLP156=

CYQG;2006-08-28 04:00;METAR CYQG 280400Z 01004KT 10SM FEW016 OVC260 20/18 A3000 RMK CF2CI6 SLP157=

CYQG;2006-08-28 05:00;METAR CYQG 280500Z 35002KT 10SM FEW012 OVC230 20/18 A3001 RMK CF2CI6 SLP160=

CYQG;2006-08-28 06:00;METAR CYQG 280600Z 35003KT 10SM FEW014 OVC230 20/18 A3002 RMK CF2CI6 SLP164=

CYQG;2006-08-28 07:00;METAR CYQG 280700Z 35003KT 10SM BKN017 OVC230 19/18 A3001 RMK CF5CI3 SLP160=

CYQG;2006-08-28 08:00;METAR CYQG 280800Z 33003KT 10SM BKN015 OVC210 19/18 A3001 RMK SC6CI2 SLP160=

CYQG;2006-08-28 09:00;METAR CYQG 280900Z 35004KT 10SM -SHRA BKN017 OVC160 19/17 A2999 RMK SC5AC3 SLP155=

CYQG;2006-08-28 09:36;SPECI CYQG 280936Z 36005KT 15SM SCT018 OVC130 RMK SC3AC5=

CYQG;2006-08-28 10:00;METAR CYQG 281000Z 02005KT 15SM FEW016 OVC120 19/17 A2998 RMK SC2AC6 SLP152=

CYQG;2006-08-28 11:00;METAR CYQG 281100Z 34004KT 15SM FEW014 OVC120 19/17 A2999 RMK SC2AC6 SLP155=

CYQG;2006-08-28 11:07;SPECI CYQG 281107Z 34005KT 7SM -SHRA BKN015 OVC085 RMK SC5AC3=

CYQG;2006-08-28 12:00;METAR CYQG 281200Z 35002KT 7SM -SHRA FEW015 OVC080 19/17 A2999 RMK SC1AC7 SLP155=

CYQG;2006-08-28 12:53;SPECI CYQG 281253Z 03004KT 6SM BR SCT070 OVC130 RMK AC3AC5=

CYQG;2006-08-28 13:00;METAR CYQG 281300Z 02005KT 6SM BR SCT070 OVC120 20/18 A2998 RMK AC3AC5 SLP150=

CYQG;2006-08-28 14:00;METAR CYQG 281400Z 07007KT 8SM BKN015 OVC140 20/18 A2998 RMK SC5AC3 SLP150=

CYQG;2006-08-28 15:17;SPECI CYQG 281517Z 08004KT 15SM BKN014 OVC059 RMK SC6SC2=

CYQG;2006-08-28 15:50;SPECI CYQG 281550Z 09007KT 15SM SCT015 OVC057 RMK SC3SC5=

CYQG;2006-08-28 16:00;METAR CYQG 281600Z 07005KT 15SM FEW015 OVC056 21/18 A2997 RMK SC2SC6 SLP148=

CYQG;2006-08-28 17:00;METAR CYQG 281700Z 08006KT 15SM -SHRA FEW013 OVC054 21/18 A2995 RMK SC2SC6 SLP139=

CYQG;2006-08-28 17:47;SPECI CYQG 281747Z 06008KT 12SM FEW014 OVC056 RMK SC1SC7=

CYQG;2006-08-28 18:00;METAR CYQG 281800Z 08007KT 12SM FEW014 OVC053 21/18 A2993 RMK SC2SC6 SLP133=

CYQG;2006-08-28 19:00;METAR CYQG 281900Z 08006KT 15SM FEW014 OVC044 21/18 A2992 RMK SC2SC6 SLP131=

CYQG;2006-08-28 19:07;SPECI CYQG 281907Z 07005KT 15SM -SHRA FEW014 OVC044 RMK SC2SC6=

CYQG;2006-08-28 20:00;METAR CYQG 282000Z 08003KT 8SM -SHRA FEW013 BKN040 OVC250 21/18 A2992 RMK SC2SC5CI2 SLP129=

CYQG;2006-08-28 21:00;METAR CYQG 282100Z 03006KT 6SM -SHRA HZ FEW010 OVC021 21/16 A2989 RMK SF2SC6 SLP122=

CYQG;2006-08-28 22:00;METAR CYQG 282200Z 05008KT 8SM -SHRA OVC020 20/17 A2987 RMK SC8 SLP115=

CYQG;2006-08-28 23:00;METAR CYQG 282300Z 03009KT 10SM -SHRA OVC020 20/17 A2986 RMK SC8 SLP111=

CYQG;2006-08-28 23:37;SPECI CYQG 282337Z 04012KT 8SM FEW015 OVC022 RMK SF1SC8=

CYQG;2006-08-29 00:00;METAR CYQG 290000Z 04012KT 8SM FEW015 OVC022 19/15 A2984 RMK SF1SC8 SLP105=

CYQG;2006-08-29 00:15;SPECI CYQG 290015Z 04012KT 6SM -SHRA HZ FEW009 OVC021 RMK SF2SC6=

CYQG;2006-08-29 01:00;METAR CYQG 290100Z 03012G18KT 6SM -SHRA HZ OVC010 19/17 A2985 RMK SC8 SLP107=

CYQG;2006-08-29 02:00;METAR CYQG 290200Z 04014G20KT 4SM SHRA BR OVC005 19/18 A2986 RMK SF8 SLP111=

CYQG;2006-08-29 04:00;METAR CYQG 290400Z 07012G18KT 5SM -SHRA BR FEW007 OVC037 18/17 A2982 RMK SF2SC6 SLP098=

CYQG;2006-08-29 05:00;METAR CYQG 290500Z 06012G19KT 3SM SHRA BR FEW007 BKN031 OVC078 17/16 A2980 RMK SF1SC5AC2 SLP092=

CYQG;2006-08-29 05:18;SPECI CYQG 290518Z 05014KT 3SM -SHRA BR FEW005 BKN011 OVC028 RERA RMK SF1SC5SC2=

CYQG;2006-08-29 06:00;METAR CYQG 290600Z 06013G19KT 3SM -SHRA BR BKN012 OVC022 17/16 A2980 RERA RMK SF5SC3 /R26/ SLP091=

CYQG;2006-08-29 06:22;SPECI CYQG 290622Z 06013G18KT 4SM -SHRA BR BKN009 OVC022 RMK SF5SC3=

CYQG;2006-08-29 07:00;METAR CYQG 290700Z 04015KT 5SM BR BKN006 OVC011 17/16 A2980 RMK SF5SC3 OCNL -SHRA SLP089=

CYQG;2006-08-29 08:00;METAR CYQG 290800Z 04015G24KT 2 1/2SM +SHRA BR OVC006 17/16 A2979 RMK SF8 SLP087=

CYQG;2006-08-29 09:00;METAR CYQG 290900Z 05010G15KT 2SM SHRA BR SCT003 OVC007 17/17 A2981 RMK SF3SF5 SLP092=

CYQG;2006-08-29 09:51;SPECI CYQG 290951Z 05012KT 4SM BR OVC008 RERA RMK SF8=

CYQG;2006-08-29 10:00;METAR CYQG 291000Z 04010KT 6SM BR OVC009 17/16 A2980 RERA RMK SF8 SLP088=

CYQG;2006-08-29 10:21;SPECI CYQG 291021Z 04013KT 7SM SCT009 OVC013 RMK SF3SC5=

CYQG;2006-08-29 10:44;SPECI CYQG 291044Z 04011KT 7SM SCT013 OVC043 RMK SC3SC5=

CYQG;2006-08-29 11:00;METAR CYQG 291100Z 03012KT 7SM FEW013 OVC044 17/16 A2982 RMK SC2SC6 SLP096=

CYQG;2006-08-29 12:00;METAR CYQG 291200Z 06010KT 7SM BKN015 OVC044 18/16 A2985 RMK SF6SC2 SLP106=

CYQG;2006-08-29 12:10;SPECI CYQG 291210Z 04011KT 7SM OVC012 RMK SC8=

CYQG;2006-08-29 13:00;METAR CYQG 291300Z 03009G15KT 8SM OVC013 18/16 A2986 RMK SC8 SLP112=

CYQG;2006-08-29 13:25;SPECI CYQG 291325Z 03011G16KT 8SM -SHRA SCT013 OVC060 RMK SC4SC4=

CYQG;2006-08-29 13:45;SPECI CYQG 291345Z 04014KT 9SM BKN015 OVC060 RMK SC5SC3=

CYQG;2006-08-29 14:00;METAR CYQG 291400Z 04014KT 8SM -SHRA FEW015 OVC062 19/16 A2986 RMK SC1SC7 SLP112=

CYQG;2006-08-29 14:21;SPECI CYQG 291421Z 05013KT 9SM FEW017 BKN061 RMK CF2SC6=

CYQG;2006-08-29 15:00;METAR CYQG 291500Z 05015KT 9SM FEW017 OVC064 20/16 A2989 RMK CF1SC7 SLP119=

CYQG;2006-08-29 16:00;METAR CYQG 291600Z 04011KT 10SM FEW020 OVC072 20/16 A2990 RMK CF1AC7 SLP124=

CYQG;2006-08-29 16:19;SPECI CYQG 291619Z 06012KT 10SM -SHRA FEW020 OVC072 RMK CF1AC7=

CYQG;2006-08-29 17:00;METAR CYQG 291700Z 03007KT 10SM SCT025 BKN072 20/16 A2991 RMK SC3AC4 SLP127=

CYQG;2006-08-29 18:00;METAR CYQG 291800Z 04012KT 12SM -SHRA FEW025 BKN080 BKN250 21/17 A2991 RMK CU2AC5CI1 SLP127=

CYQG;2006-08-29 18:20;SPECI CYQG 291820Z 05010KT 12SM FEW025 BKN110 BKN250 RMK CU2AC5CI1=

CYQG;2006-08-29 19:00;METAR CYQG 291900Z 03008KT 12SM FEW024 BKN130 BKN250 22/17 A2991 RMK CU2AC2CI2 SLP128=

CYQG;2006-08-29 20:00;METAR CYQG 292000Z 04011KT 15SM FEW030 BKN120 BKN280 23/16 A2990 RMK CU2AC2CI2 SLP123=

CYQG;2006-08-29 21:00;METAR CYQG 292100Z 05008KT 15SM FEW030 BKN120 BKN280 23/16 A2989 RMK CU1AC4CI2 SLP121=

CYQG;2006-08-29 22:00;METAR CYQG 292200Z 04009KT 15SM FEW030 BKN130 BKN280 23/16 A2990 RMK CU1AC5CI0 SLP123=

CYQG;2006-08-29 23:00;METAR CYQG 292300Z 03008KT 15SM BKN040 BKN130 BKN280 23/17 A2991 RMK CU5AC2CI0 SLP127=

CYQG;2006-08-30 00:00;METAR CYQG 300000Z 04008KT 15SM FEW045 BKN100 BKN280 22/17 A2992 RMK CU2AC5CI1 SLP130=

CYQG;2006-08-30 01:00;METAR CYQG 300100Z 05011G16KT 15SM SCT060 BKN120 22/16 A2993 RMK SC3AC4 SLP134=

CYQG;2006-08-30 02:00;METAR CYQG 300200Z 04010KT 15SM FEW040 SCT070 BKN120 21/17 A2994 RMK SC2AC2AC3 SLP137=

CYQG;2006-08-30 03:00;METAR CYQG 300300Z 05005KT 15SM SCT070 BKN100 20/17 A2995 RMK AC3AC3 SLP142=

CYQG;2006-08-30 04:00;METAR CYQG 300400Z 04008KT 15SM FEW070 OVC100 20/18 A2995 RMK AC2AC6 SLP141=

CYQG;2006-08-30 05:00;METAR CYQG 300500Z 03006KT 15SM BKN110 20/17 A2996 RMK AC6 SLP144=

CYQG;2006-08-30 06:00;METAR CYQG 300600Z 04007KT 15SM BKN110 20/18 A2995 RMK AC6 SLP140=

CYQG;2006-08-30 07:00;METAR CYQG 300700Z 04008KT 15SM BKN100 20/17 A2995 RMK AC6 SLP141=

CYQG;2006-08-30 08:00;METAR CYQG 300800Z 04007KT 15SM BKN100 20/16 A2997 RMK AC5 SLP146=

CYQG;2006-08-30 09:00;METAR CYQG 300900Z 04009KT 15SM FEW050 SCT100 19/16 A2998 RMK CU1AC3 SLP151=

CYQG;2006-08-30 10:00;METAR CYQG 301000Z 04009KT 15SM FEW050 SCT110 19/16 A2998 RMK CU1AC3 SLP152=

CYQG;2006-08-30 11:00;METAR CYQG 301100Z 04011KT 12SM FEW050 BKN110 18/16 A3001 RMK SC1AC4 SLP159=

CYQG;2006-08-30 12:00;METAR CYQG 301200Z 04013KT 15SM FEW011 BKN120 19/16 A3002 RMK SF2AC5 SLP165=

CYQG;2006-08-30 13:00;METAR CYQG 301300Z 04011G16KT 15SM FEW013 BKN098 20/16 A3003 RMK SF2AC4 SLP167=

CYQG;2006-08-30 14:00;METAR CYQG 301400Z 03014KT 15SM SCT015 BKN100 20/16 A3004 RMK SF3AC2 SLP171=

CYQG;2006-08-30 15:00;METAR CYQG 301500Z 03014KT 15SM FEW015 FEW120 BKN270 21/17 A3005 RMK CF2AC1CC1 SLP176=

CYQG;2006-08-30 16:00;METAR CYQG 301600Z 04013KT 15SM FEW020 FEW120 BKN270 22/16 A3006 RMK CU2AC1CC2 SLP177=

CYQG;2006-08-30 17:00;METAR CYQG 301700Z 04011G16KT 15SM FEW025 SCT100 BKN270 23/16 A3005 RMK CU2AC2CC2 SLP176=

CYQG;2006-08-30 18:00;METAR CYQG 301800Z 04011G17KT 15SM FEW025 BKN100 23/17 A3005 RMK CU2AC5 SLP175=

CYQG;2006-08-30 19:00;METAR CYQG 301900Z 04017KT 15SM FEW025 BKN110 23/17 A3005 RMK CU2AC2 SLP175=

CYQG;2006-08-30 20:00;METAR CYQG 302000Z 04006KT 15SM -SHRA FEW028 BKN067 23/16 A3004 RMK CU1AC5 SLP172=

CYQG;2006-08-30 20:15;SPECI CYQG 302015Z 03015G20KT 15SM FEW028 BKN067 RMK CU2AC3=

CYQG;2006-08-30 21:00;METAR CYQG 302100Z 02017KT 15SM FEW038 BKN110 23/17 A3004 RMK CU2AC5 SLP171=

CYQG;2006-08-30 22:00;METAR CYQG 302200Z 03017KT 15SM FEW040 SCT081 22/16 A3004 RMK CU2AC2 SLP172=

CYQG;2006-08-30 23:00;METAR CYQG 302300Z 04015KT 15SM FEW025 FEW040 FEW080 21/16 A3004 RMK CF1SC1AC2 SLP169=

CYQG;2006-08-31 00:00;METAR CYQG 310000Z 03011G18KT 15SM FEW030 FEW035 FEW040 FEW080 21/16 A3004 RMK CF1CU1SC2AC1 SLP172=

CYQG;2006-08-31 01:00;METAR CYQG 310100Z 03011G18KT 15SM BKN030 20/14 A3006 RMK SC6 SLP179=

CYQG;2006-08-31 02:00;METAR CYQG 310200Z 02012KT 15SM FEW030 19/14 A3009 RMK SC2 SLP188=

CYQG;2006-08-31 03:00;METAR CYQG 310300Z 02011KT 15SM FEW110 18/14 A3011 RMK AC1 SLP194=

CYQG;2006-08-31 04:00;METAR CYQG 310400Z 03009KT 15SM SKC 17/14 A3011 RMK SLP195=

CYQG;2006-08-31 05:00;METAR CYQG 310500Z 08009KT 15SM FEW100 18/15 A3011 RMK AC1 SLP196=

CYQG;2006-08-31 06:00;METAR CYQG 310600Z 08010KT 15SM FEW100 18/13 A3010 RMK AC1 SLP192=

CYQG;2006-08-31 07:00;METAR CYQG 310700Z 07012KT 15SM SKC 18/12 A3010 RMK SLP190=

CYQG;2006-08-31 08:00;METAR CYQG 310800Z 07008KT 15SM SKC 17/12 A3010 RMK SLP192=

CYQG;2006-08-31 09:00;METAR CYQG 310900Z 06010KT 15SM FEW100 17/13 A3010 RMK AC1 SLP192=

CYQG;2006-08-31 10:00;METAR CYQG 311000Z 05010KT 15SM SKC 17/13 A3011 RMK SLP195=

CYQG;2006-08-31 11:00;METAR CYQG 311100Z 04007KT 15SM FEW025 FEW120 16/14 A3013 RMK SC1AC1 SLP201=

CYQG;2006-08-31 12:00;METAR CYQG 311200Z 05008KT 15SM FEW025 FEW120 17/14 A3014 RMK SC1AC1 SLP207=

CYQG;2006-08-31 13:00;METAR CYQG 311300Z 04013G18KT 15SM SCT020 SCT120 18/14 A3016 RMK SC3AC1 SLP212=

CYQG;2006-08-31 14:00;METAR CYQG 311400Z 05014G19KT 15SM BKN016 18/14 A3017 RMK SC7 SLP217=

CYQG;2006-08-31 15:00;METAR CYQG 311500Z 05015KT 15SM BKN021 19/15 A3018 RMK SC6 SLP220=

CYQG;2006-08-31 16:00;METAR CYQG 311600Z 07013G20KT 15SM BKN029 BKN120 21/15 A3019 RMK SC6AC1 SLP224=

CYQG;2006-08-31 17:00;METAR CYQG 311700Z 07016KT 15SM FEW034 FEW120 22/14 A3020 RMK SC2AC1 SLP226=

CYQG;2006-08-31 18:00;METAR CYQG 311800Z 07014KT 15SM FEW035 FEW280 22/12 A3019 RMK CF1CI2 SLP223=

CYQG;2006-08-31 19:00;METAR CYQG 311900Z 08014G21KT 15SM SCT130 BKN280 22/12 A3019 RMK AC3CI1 SLP223=

CYQG;2006-08-31 20:00;METAR CYQG 312000Z 06015KT 15SM BKN230 BKN280 22/09 A3018 RMK CC4CI1 SLP218=

CYQG;2006-08-31 21:00;METAR CYQG 312100Z 07013KT 15SM SCT250 SCT280 23/08 A3017 RMK CC3CI0 SLP216=

CYQG;2006-08-31 22:00;METAR CYQG 312200Z 06014G19KT 15SM FEW230 SCT280 23/10 A3017 RMK CC2CI0 SLP216=

CYQG;2006-08-31 23:00;METAR CYQG 312300Z 06013KT 15SM BKN220 21/12 A3017 RMK CC5 SLP216=

CYQG;2006-09-01 00:00;METAR CYQG 010000Z 06012KT 15SM SCT220 SCT250 BKN280 20/12 A3017 RMK CC3CC1CI0 SLP216=

CYQG;2006-09-01 01:00;METAR CYQG 010100Z 09008KT 15SM FEW220 SCT250 SCT280 19/12 A3019 RMK CS2CC1CI1 SLP221=

CYQG;2006-09-01 02:00;METAR CYQG 010200Z 09006KT 15SM SCT250 18/13 A3020 RMK CS3 SLP226=

CYQG;2006-09-01 03:00;METAR CYQG 010300Z 07010KT 15SM SCT250 SCT280 18/14 A3021 RMK CS3CI0 SLP229=

CYQG;2006-09-01 04:00;METAR CYQG 010400Z 06010KT 15SM BKN150 18/14 A3021 RMK AC7 SLP230=

CYQG;2006-09-01 05:00;METAR CYQG 010500Z 06011KT 15SM BKN160 17/14 A3021 RMK AC7 SLP230=

CYQG;2006-09-01 06:00;METAR CYQG 010600Z 06009KT 15SM BKN160 17/14 A3020 RMK AC7 SLP225=

CYQG;2006-09-01 07:00;METAR CYQG 010700Z 06008KT 15SM FEW040 OVC130 17/15 A3019 RMK SC1AC7 SLP221=

CYQG;2006-09-01 07:38;SPECI CYQG 010738Z 08007KT 15SM -SHRA BKN042 OVC120 RMK SC5AC3=

CYQG;2006-09-01 08:00;METAR CYQG 010800Z 07008KT 15SM -SHRA SCT043 OVC130 18/15 A3018 RMK SC3AC5 SLP220=

CYQG;2006-09-01 09:00;METAR CYQG 010900Z 05007KT 15SM -SHRA FEW043 OVC140 18/15 A3018 RMK SC2AC6 SLP220=

CYQG;2006-09-01 09:27;SPECI CYQG 010927Z 06006KT 15SM FEW040 OVC130 RMK SC2AC6=

CYQG;2006-09-01 10:00;METAR CYQG 011000Z 08006KT 15SM FEW040 OVC140 18/15 A3019 RMK SC1AC7 SLP222=

CYQG;2006-09-01 11:00;METAR CYQG 011100Z 08007KT 15SM FEW040 BKN150 18/14 A3019 RMK SC2AC6 SLP222=

CYQG;2006-09-01 12:00;METAR CYQG 011200Z 08009KT 15SM FEW040 BKN160 18/15 A3020 RMK SC2AC5 SLP224=

CYQG;2006-09-01 13:00;METAR CYQG 011300Z 08009KT 15SM BKN140 OVC260 19/15 A3020 RMK AC6CI2 SLP226=

CYQG;2006-09-01 14:00;METAR CYQG 011400Z 08011KT 15SM BKN150 OVC260 19/15 A3020 RMK AC6CI2 SLP225=

CYQG;2006-09-01 15:00;METAR CYQG 011500Z 08010G17KT 15SM OVC280 20/15 A3020 RMK CI8 SLP227=

CYQG;2006-09-01 16:00;METAR CYQG 011600Z 07015KT 15SM FEW028 OVC260 20/15 A3021 RMK CU2CI6 SLP228=

CYQG;2006-09-01 17:00;METAR CYQG 011700Z 09012G17KT 15SM FEW028 OVC180 21/14 A3020 RMK CU2AC6 SLP227=

CYQG;2006-09-01 18:00;METAR CYQG 011800Z 07012KT 15SM FEW028 OVC190 21/13 A3021 RMK CU1AC7 SLP229=

CYQG;2006-09-01 19:00;METAR CYQG 011900Z 05012G17KT 15SM FEW022 BKN190 21/16 A3021 RMK CU2AC5 SLP228=

CYQG;2006-09-01 20:00;METAR CYQG 012000Z 06013KT 15SM FEW030 BKN190 21/14 A3019 RMK CF1AC6 SLP223=

CYQG;2006-09-01 21:00;METAR CYQG 012100Z 06011G17KT 15SM BKN190 BKN240 22/14 A3019 RMK AC5CS2 SLP223=

CYQG;2006-09-01 22:00;METAR CYQG 012200Z 06011G16KT 15SM BKN180 BKN250 22/13 A3019 RMK AC5CC2 SLP221=

CYQG;2006-09-01 23:00;METAR CYQG 012300Z 09006KT 15SM FEW030 BKN190 21/12 A3020 RMK CF1AC7 SLP224=

CYQG;2006-09-02 00:00;METAR CYQG 020000Z 09008KT 15SM BKN190 20/13 A3019 RMK AC7 SLP221=

CYQG;2006-09-02 01:00;METAR CYQG 020100Z 08008KT 15SM BKN190 19/13 A3019 RMK AC7 SLP222=

CYQG;2006-09-02 02:00;METAR CYQG 020200Z 08006KT 15SM BKN190 19/14 A3022 RMK AC7 SLP231=

CYQG;2006-09-02 03:00;METAR CYQG 020300Z 09008KT 15SM BKN200 19/14 A3022 RMK AC7 SLP231=

CYQG;2006-09-02 04:00;METAR CYQG 020400Z 09007KT 15SM BKN190 18/14 A3020 RMK AC7 SLP227=

CYQG;2006-09-02 05:00;METAR CYQG 020500Z 08006KT 15SM BKN200 17/14 A3020 RMK AC7 SLP225=

CYQG;2006-09-02 06:00;METAR CYQG 020600Z 09006KT 15SM BKN190 17/14 A3019 RMK AC6 SLP223=

CYQG;2006-09-02 07:00;METAR CYQG 020700Z 08007KT 15SM FEW190 SCT240 17/15 A3018 RMK AC2CI1 SLP219=

CYQG;2006-09-02 08:00;METAR CYQG 020800Z 09004KT 15SM FEW032 BKN190 17/14 A3018 RMK SC2AC6 SLP219=

CYQG;2006-09-02 09:00;METAR CYQG 020900Z 06004KT 15SM FEW030 BKN190 16/15 A3018 RMK SC1AC6 SLP219=

CYQG;2006-09-02 10:00;METAR CYQG 021000Z 04005KT 15SM OVC170 16/14 A3017 RMK AC8 SLP215=

CYQG;2006-09-02 11:00;METAR CYQG 021100Z 05006KT 15SM FEW029 OVC170 17/15 A3018 RMK SC2AC6 SLP219=

CYQG;2006-09-02 12:00;METAR CYQG 021200Z 04007KT 15SM FEW030 OVC160 17/15 A3017 RMK SC1AC7 SLP217=

CYQG;2006-09-02 13:00;METAR CYQG 021300Z 05009KT 15SM FEW030 OVC120 18/16 A3017 RMK SC1AC8 SLP217=

CYQG;2006-09-02 14:00;METAR CYQG 021400Z 05008KT 15SM OVC100 18/16 A3017 RMK AC8 SLP214=

CYQG;2006-09-02 15:00;METAR CYQG 021500Z 04013KT 15SM FEW028 OVC100 19/15 A3016 RMK SC1AC8 SLP213=

CYQG;2006-09-02 16:00;METAR CYQG 021600Z 04009KT 15SM OVC098 19/15 A3016 RMK AC8 SLP212=

CYQG;2006-09-02 17:00;METAR CYQG 021700Z 05011KT 15SM -SHRA FEW030 OVC100 19/15 A3016 RMK SF1AC8 SLP211=

CYQG;2006-09-02 18:00;METAR CYQG 021800Z 06015KT 15SM -SHRA SCT020 OVC100 19/15 A3016 RMK SC4AC4 SLP212=

CYQG;2006-09-02 19:00;METAR CYQG 021900Z 05017KT 15SM -RA BKN020 OVC100 19/14 A3015 RMK SC6AC2 SLP210=

CYQG;2006-09-02 20:00;METAR CYQG 022000Z 06014G20KT 15SM -RA BKN033 OVC077 18/14 A3015 RMK SC5AC3 SLP209=

CYQG;2006-09-02 20:32;SPECI CYQG 022032Z 07018G26KT 2SM -RA BR OVC022 RMK SC8=

CYQG;2006-09-02 20:52;SPECI CYQG 022052Z 07014G24KT 1SM -RA BR BKN008 OVC020 RMK SF5SC3=

CYQG;2006-09-02 21:00;METAR CYQG 022100Z 06013G19KT 1SM -RA BR BKN006 OVC020 15/14 A3017 RMK SF5SC3 SLP217=

CYQG;2006-09-02 21:06;SPECI CYQG 022106Z 04013KT 2SM -RA BR SCT008 OVC026 RMK SF4SC4=

CYQG;2006-09-02 21:27;SPECI CYQG 022127Z 04013G19KT 1 1/2SM -RA BR FEW008 BKN016 OVC033 RMK SF2SC4SC2=

CYQG;2006-09-02 21:46;SPECI CYQG 022146Z 05016KT 2 1/4SM -RA BR FEW008 BKN018 OVC047 RMK SF2SC5SC2=

CYQG;2006-09-02 22:00;METAR CYQG 022200Z 06019G24KT 2 1/2SM -RA BR FEW008 BKN016 OVC044 16/14 A3016 RMK SF2SC5SC2 SLP215=

CYQG;2006-09-02 22:34;SPECI CYQG 022234Z 05013G21KT 3SM -RA BR SCT016 OVC041 RMK SC4SC4=

CYQG;2006-09-02 23:00;METAR CYQG 022300Z 04012G18KT 3SM -RA BR SCT016 BKN026 OVC044 15/14 A3016 RMK SC3SC2SC2 SLP214=

CYQG;2006-09-03 00:00;METAR CYQG 030000Z 01008KT 6SM -RA BR SCT015 BKN024 OVC041 15/14 A3014 RMK SC3SC2SC2 SLP208=

CYQG;2006-09-03 00:42;SPECI CYQG 030042Z 05012KT 12SM BKN017 OVC040 RMK SC6SC2=

CYQG;2006-09-03 01:00;METAR CYQG 030100Z 06012KT 15SM OVC020 15/13 A3014 RMK SC8 SLP207=

CYQG;2006-09-03 02:00;METAR CYQG 030200Z 05009G17KT 15SM OVC016 15/13 A3013 RMK SC8 SLP203=

CYQG;2006-09-03 03:00;METAR CYQG 030300Z 36010G17KT 15SM OVC015 15/12 A3012 RMK SC8 SLP200=

CYQG;2006-09-03 04:00;METAR CYQG 030400Z 36009KT 15SM FEW021 BKN038 14/11 A3012 RMK SC2SC6 SLP199=

CYQG;2006-09-03 05:00;METAR CYQG 030500Z 36009KT 15SM OVC024 14/12 A3011 RMK SC8 SLP195=

CYQG;2006-09-03 06:00;METAR CYQG 030600Z 35006KT 15SM OVC020 15/12 A3010 RMK SC8 SLP191=

CYQG;2006-09-03 07:00;METAR CYQG 030700Z 34010KT 15SM OVC021 15/12 A3008 RMK SC8 SLP186=

CYQG;2006-09-03 08:00;METAR CYQG 030800Z 36009KT 15SM FEW012 OVC024 15/13 A3008 RMK SC1SC7 SLP186=

CYQG;2006-09-03 09:00;METAR CYQG 030900Z 36007KT 15SM SCT010 BKN032 OVC059 14/13 A3008 RMK SC3SC3SC2 SLP187=

CYQG;2006-09-03 09:14;SPECI CYQG 030914Z 35007KT 15SM BKN011 OVC030 RMK SC6SC2=

CYQG;2006-09-03 09:46;SPECI CYQG 030946Z 34005KT 15SM FEW012 BKN028 BKN043 RMK SC2SC4SC2=

CYQG;2006-09-03 10:00;METAR CYQG 031000Z 34007KT 15SM FEW012 BKN040 14/13 A3009 RMK SC2SC6 SLP190=

CYQG;2006-09-03 10:39;SPECI CYQG 031039Z 35006KT 15SM BKN010 OVC040 RMK SC6SC2=

CYQG;2006-09-03 11:00;METAR CYQG 031100Z 35006KT 15SM BKN010 BKN040 14/13 A3011 RMK SC6SC1 SLP195=

CYQG;2006-09-03 12:00;METAR CYQG 031200Z 33006KT 15SM FEW010 FEW140 15/13 A3012 RMK CU1AC2 SLP199=

CYQG;2006-09-03 13:00;METAR CYQG 031300Z 31007KT 15SM BKN012 BKN035 BKN080 15/13 A3014 RMK SC5SC2AC1 SLP206=

CYQG;2006-09-03 14:00;METAR CYQG 031400Z 31008KT 15SM BKN016 BKN080 17/13 A3014 RMK CU6AC2 SLP207=

CYQG;2006-09-03 15:00;METAR CYQG 031500Z 31010KT 15SM BKN018 BKN100 18/14 A3014 RMK CU6AC1 SLP207=

CYQG;2006-09-03 16:00;METAR CYQG 031600Z 33011KT 15SM BKN020 BKN100 19/13 A3014 RMK CU5AC1 SLP208=

CYQG;2006-09-03 17:00;METAR CYQG 031700Z 35007KT 15SM BKN020 BKN100 21/13 A3013 RMK CU5AC1 SLP204=

CYQG;2006-09-03 18:00;METAR CYQG 031800Z 36009KT 15SM BKN030 BKN280 21/13 A3013 RMK CU6CI1 SLP201=

CYQG;2006-09-03 19:00;METAR CYQG 031900Z 32010KT 15SM BKN030 BKN280 22/13 A3012 RMK CU6CI1 SLP199=

CYQG;2006-09-03 20:00;METAR CYQG 032000Z 33005KT 15SM BKN038 BKN280 22/12 A3011 RMK CU6CI1 SLP195=

CYQG;2006-09-03 21:00;METAR CYQG 032100Z 31008KT 15SM BKN044TCU BKN240 22/12 A3010 RMK TCU5CI1 SLP193=

CYQG;2006-09-03 22:00;METAR CYQG 032200Z 36007KT 15SM SCT049TCU SCT240 22/12 A3010 RMK TCU4CI1 SLP191=

CYQG;2006-09-03 23:00;METAR CYQG 032300Z 08005KT 15SM SCT050 BKN066 21/14 A3010 RMK SC4CU2 SLP192=

CYQG;2006-09-04 00:00;METAR CYQG 040000Z 08004KT 15SM SCT058 20/14 A3010 RMK SC3 SLP192=

CYQG;2006-09-04 01:00;METAR CYQG 040100Z 15003KT 15SM FEW050 18/14 A3011 RMK SC1 SLP196=

CYQG;2006-09-04 02:00;METAR CYQG 040200Z 18004KT 15SM FEW050 FEW250 17/14 A3013 RMK SC1CI1 SLP201=

CYQG;2006-09-04 03:00;METAR CYQG 040300Z 18003KT 15SM FEW050 SCT250 16/14 A3013 RMK SC1CI1 SLP203=

CYQG;2006-09-04 04:00;METAR CYQG 040400Z 20003KT 15SM FEW050 17/13 A3013 RMK SC1 SLP202=

CYQG;2006-09-04 05:00;METAR CYQG 040500Z 22005KT 15SM FEW050 FEW150 16/13 A3012 RMK SC1AC1 SLP201=

CYQG;2006-09-04 06:00;METAR CYQG 040600Z 26004KT 15SM FEW150 17/13 A3012 RMK AC1 SLP200=

CYQG;2006-09-04 07:00;METAR CYQG 040700Z 27007KT 15SM FEW055 16/13 A3012 RMK SC1 SLP198=

CYQG;2006-09-04 08:00;METAR CYQG 040800Z 26006KT 15SM FEW070 16/13 A3012 RMK AC1 SLP198=

CYQG;2006-09-04 09:00;METAR CYQG 040900Z 25006KT 15SM FEW070 16/13 A3012 RMK AC1 SLP198=

CYQG;2006-09-04 10:00;METAR CYQG 041000Z 26006KT 15SM FEW070 15/13 A3012 RMK AC1 SLP199=

CYQG;2006-09-04 11:00;METAR CYQG 041100Z 27005KT 12SM FEW070 FEW280 15/13 A3012 RMK AC1CI1 SLP200=

CYQG;2006-09-04 12:00;METAR CYQG 041200Z 26003KT 15SM FEW280 15/13 A3014 RMK CI2 SLP206=

CYQG;2006-09-04 13:00;METAR CYQG 041300Z 29006KT 15SM FEW280 18/14 A3015 RMK CI2 SLP209=

CYQG;2006-09-04 14:00;METAR CYQG 041400Z 27005KT 15SM BKN280 19/14 A3015 RMK CI5 SLP211=

CYQG;2006-09-04 15:00;METAR CYQG 041500Z 27005KT 15SM BKN270 20/15 A3016 RMK CS6 SLP211=

CYQG;2006-09-04 16:00;METAR CYQG 041600Z 29007KT 15SM BKN270 22/14 A3015 RMK CS6 SLP210=

CYQG;2006-09-04 17:00;METAR CYQG 041700Z 34007KT 15SM FEW040 BKN270 23/14 A3015 RMK CU1CS6 SLP208=

CYQG;2006-09-04 18:00;METAR CYQG 041800Z 30006KT 15SM SCT045 OVC270 24/13 A3014 RMK CU4CS3 SLP203=

CYQG;2006-09-04 19:00;METAR CYQG 041900Z 32002KT 15SM BKN047 OVC270 23/14 A3012 RMK CU5CS2 SLP199=

CYQG;2006-09-04 20:00;METAR CYQG 042000Z 08005KT 15SM BKN049 OVC270 23/15 A3011 RMK CU6CS2 SLP195=

CYQG;2006-09-04 21:00;METAR CYQG 042100Z 09003KT 15SM BKN049 OVC270 22/15 A3011 RMK CU5CS2 SLP195=

CYQG;2006-09-04 22:00;METAR CYQG 042200Z 12004KT 12SM SCT056TCU OVC270 23/15 A3010 RMK TCU3CS3 SLP191=

CYQG;2006-09-04 23:00;METAR CYQG 042300Z 14003KT 12SM BKN068 BKN270 22/15 A3010 RMK AC5CI1 SLP192=

CYQG;2006-09-05 00:00;METAR CYQG 050000Z 06005KT 12SM BKN066 BKN270 21/15 A3011 RMK AC5CI1 SLP194=

CYQG;2006-09-05 01:00;METAR CYQG 050100Z 06005KT 15SM BKN076 BKN270 20/16 A3012 RMK AC5CI2 SLP198=

CYQG;2006-09-05 02:00;METAR CYQG 050200Z 11003KT 15SM FEW075 BKN270 19/16 A3013 RMK AC1CI2 SLP202=

CYQG;2006-09-05 03:00;METAR CYQG 050300Z 13003KT 15SM BKN270 18/15 A3014 RMK CI4 SLP204=

CYQG;2006-09-05 04:00;METAR CYQG 050400Z 12002KT 15SM SCT270 17/14 A3014 RMK CI1 SLP204=

CYQG;2006-09-05 05:00;METAR CYQG 050500Z 10003KT 15SM FEW270 16/13 A3013 RMK CI0 SLP202=

CYQG;2006-09-05 06:00;METAR CYQG 050600Z 08002KT 15SM SKC 15/12 A3012 RMK SLP200=

CYQG;2006-09-05 07:00;METAR CYQG 050700Z 05002KT 15SM SKC 14/12 A3011 RMK SLP194=

CYQG;2006-09-05 08:00;METAR CYQG 050800Z 00000KT 15SM FEW280 15/12 A3010 RMK CI1 SLP192=

CYQG;2006-09-05 09:00;METAR CYQG 050900Z 00000KT 15SM FEW280 14/12 A3010 RMK CI1 SLP192=

CYQG;2006-09-05 10:00;METAR CYQG 051000Z 00000KT 15SM FEW100 14/11 A3010 RMK AC1 SLP192=

CYQG;2006-09-05 11:00;METAR CYQG 051100Z 30002KT 15SM FEW060 14/12 A3010 RMK SC2 SLP193=

CYQG;2006-09-05 12:00;METAR CYQG 051200Z 00000KT 15SM FEW060 15/13 A3011 RMK SC2 SLP195=

CYQG;2006-09-05 13:00;METAR CYQG 051300Z 00000KT 15SM FEW060 18/15 A3011 RMK SC1 SLP194=

CYQG;2006-09-05 14:00;METAR CYQG 051400Z 09003KT 15SM FEW100 FEW280 20/15 A3010 RMK AC1CI1 SLP193=

CYQG;2006-09-05 15:00;METAR CYQG 051500Z 07003KT 15SM FEW120 FEW280 21/14 A3010 RMK AC1CI1 SLP191=

CYQG;2006-09-05 16:00;METAR CYQG 051600Z 09007KT 15SM FEW060 SCT280 22/13 A3013 RMK CU1CC2 CI ASOCTD SLP200=

CYQG;2006-09-05 17:00;METAR CYQG 051700Z 07005KT 15SM FEW057 BKN280 23/13 A3008 RMK CU2CI1 SLP185=

CYQG;2006-09-05 18:00;METAR CYQG 051800Z 07006KT 15SM FEW060 BKN280 23/13 A3006 RMK CU2CI1 SLP178=

CYQG;2006-09-05 19:00;METAR CYQG 051900Z 10005KT 15SM FEW060 BKN280 24/13 A3004 RMK CU2CI2 SLP172=

CYQG;2006-09-05 20:00;METAR CYQG 052000Z 07006KT 15SM FEW060 BKN280 23/13 A3001 RMK CU2CI2 SLP162=

CYQG;2006-09-05 21:00;METAR CYQG 052100Z 08007KT 15SM FEW050TCU BKN270 23/11 A3001 RMK TCU2CI2 SLP161=

CYQG;2006-09-05 22:00;METAR CYQG 052200Z 09002KT 15SM FEW040TCU BKN210 23/11 A3001 RMK TCU2CI2 DRK W CB ASOCTD VIS W 10 SLP161=

CYQG;2006-09-05 23:00;METAR CYQG 052300Z 22004KT 15SM FEW030TCU SCT140 BKN200 22/11 A3001 RMK TCU2AC2CI1 DRK W CB ASOCTD OCNL LTG SW SLP161=

CYQG;2006-09-06 00:00;METAR CYQG 060000Z 27008KT 12SM FEW030TCU BKN110 BKN200 20/14 A3000 RMK TCU1AC4CI1 CB ASOCTD SLP157=

CYQG;2006-09-06 00:26;SPECI CYQG 060026Z 25004KT 12SM -SHRA BKN098 BKN200 RMK AC6CI1=

CYQG;2006-09-06 01:00;METAR CYQG 060100Z 28002KT 12SM -SHRA FEW069 BKN098 19/15 A3002 RMK AC2AC6 SLP164=

CYQG;2006-09-06 02:00;METAR CYQG 060200Z 30006KT 15SM -SHRA OVC110 18/15 A3003 RMK AC8 SLP168=

CYQG;2006-09-06 02:33;SPECI CYQG 060233Z 30006KT 15SM BKN120 OVC220 RMK AC6CI2=

CYQG;2006-09-06 03:00;METAR CYQG 060300Z 30003KT 15SM BKN120 OVC220 18/15 A3003 RMK AC6CI2 SLP167=

CYQG;2006-09-06 04:00;METAR CYQG 060400Z 32005KT 15SM SCT130 BKN160 18/14 A3003 RMK AC4AC2 SLP167=

CYQG;2006-09-06 05:00;METAR CYQG 060500Z 26002KT 15SM BKN090 BKN110 17/14 A3002 RMK AC5AC2 SLP165=

CYQG;2006-09-06 06:00;METAR CYQG 060600Z 22003KT 15SM BKN100 17/14 A3001 RMK AC7 SLP163=

CYQG;2006-09-06 07:00;METAR CYQG 060700Z 28004KT 15SM BKN100 17/14 A3001 RMK AC7 SLP161=

CYQG;2006-09-06 08:00;METAR CYQG 060800Z 27006KT 25SM BKN100 BKN130 17/14 A3001 RMK AC6AC1 SLP161=

CYQG;2006-09-06 09:00;METAR CYQG 060900Z 26004KT 15SM -SHRA BKN088 BKN120 17/14 A3001 RMK AC6AC2 SLP163=

CYQG;2006-09-06 09:20;SPECI CYQG 060920Z 27005KT 15SM BKN091 RMK AC7=

CYQG;2006-09-06 10:00;METAR CYQG 061000Z 27003KT 15SM BKN120 BKN140 16/14 A3001 RMK AC5AC2 SLP162=

CYQG;2006-09-06 11:00;METAR CYQG 061100Z 27002KT 15SM FEW090 BKN110 17/15 A3002 RMK AC1AC6 SHRA N OF FIELD SLP165=

CYQG;2006-09-06 12:00;METAR CYQG 061200Z 26003KT 6SM -SHRA HZ FEW060 BKN087 17/15 A3003 RMK SC2AC5 SLP168=

CYQG;2006-09-06 12:24;SPECI CYQG 061224Z 30004KT 6SM HZ SCT085 BKN130 RMK AC3AC2=

CYQG;2006-09-06 13:00;METAR CYQG 061300Z 27004KT 6SM HZ FEW140 BKN280 18/16 A3004 RMK AC2CI2 SLP170=

CYQG;2006-09-06 14:00;METAR CYQG 061400Z 27003KT 7SM FEW140 BKN280 20/16 A3004 RMK AC1CI2 SLP172=

CYQG;2006-09-06 15:00;METAR CYQG 061500Z 35006KT 10SM SCT300 22/16 A3006 RMK CI2 SLP179=

CYQG;2006-09-06 16:00;METAR CYQG 061600Z 01004KT 15SM FEW030 FEW100 SCT300 23/15 A3007 RMK CF1AC1CI2 SLP180=

CYQG;2006-09-06 17:00;METAR CYQG 061700Z 05004KT 15SM FEW040 SCT300 24/15 A3006 RMK CU2CI1 SLP179=

CYQG;2006-09-06 18:00;METAR CYQG 061800Z 07006KT 15SM BKN040TCU 24/16 A3006 RMK TCU5 SLP177=

CYQG;2006-09-06 18:43;SPECI CYQG 061843Z 07006KT 15SM -SHRA BKN043TCU RMK TCU6=

CYQG;2006-09-06 18:54;SPECI CYQG 061854Z 07005KT 12SM -TSRA BKN040TCU RMK TCU7 CB EMBD=

CYQG;2006-09-06 19:00;METAR CYQG 061900Z 08005KT 15SM -TSRA BKN040TCU 22/18 A3005 RMK TCU7 CB EMBD SLP176=

CYQG;2006-09-06 20:00;METAR CYQG 062000Z 00000KT 10SM -TSRA BKN040CB BKN100 22/18 A3006 RMK CB6AC2 OCNL LTGIC SLP178=

CYQG;2006-09-06 21:00;METAR CYQG 062100Z 00000KT 12SM -TSRA BKN050CB BKN100 20/18 A3006 RMK CB5AC2 OCNL LTGIC SLP179=

CYQG;2006-09-06 21:38;SPECI CYQG 062138Z 20007KT 12SM -SHRA SCT050CB BKN100 RETS RMK CB3AC4=

CYQG;2006-09-06 22:00;METAR CYQG 062200Z 22002KT 12SM -SHRA FEW050TCU BKN110 20/17 A3006 RETS RMK TCU2AC4 SLP178=

CYQG;2006-09-06 22:29;SPECI CYQG 062229Z 00000KT 12SM FEW055CB BKN110 RMK CB1AC2=

CYQG;2006-09-06 23:00;METAR CYQG 062300Z 00000KT 15SM FEW055CB FEW110 BKN280 21/17 A3005 RMK CB1AC1CI1 CB TOPS ALQDS SLP177=

CYQG;2006-09-07 00:00;METAR CYQG 070000Z 00000KT 12SM FEW060 FEW110 BKN290 19/17 A3007 RMK SC1AC1CI1 SLP181=

CYQG;2006-09-07 01:00;METAR CYQG 070100Z 07006KT 15SM BKN017 18/16 A3008 RMK SC5 SLP187=

CYQG;2006-09-07 02:00;METAR CYQG 070200Z 06006KT 12SM FEW016 17/15 A3010 RMK SC1 SLP193=

CYQG;2006-09-07 03:00;METAR CYQG 070300Z 08004KT 12SM FEW020 BKN290 17/15 A3010 RMK SC1CI1 SLP192=

CYQG;2006-09-07 04:00;METAR CYQG 070400Z 09004KT 12SM FEW020 FEW280 16/15 A3011 RMK SC1CI1 SLP194=

CYQG;2006-09-07 05:00;METAR CYQG 070500Z 09003KT 15SM SCT280 16/14 A3010 RMK CI2 SLP192=

CYQG;2006-09-07 06:00;METAR CYQG 070600Z 18003KT 15SM BKN280 14/13 A3010 RMK CI2 SLP191=

CYQG;2006-09-07 08:00;METAR CYQG 070800Z 00000KT 15SM FEW018 SCT280 13/13 A3008 RMK SC2CI0 SLP186=

CYQG;2006-09-07 09:00;METAR CYQG 070900Z 00000KT 15SM FEW018 FEW080 FEW280 13/12 A3008 RMK SC1AC1CI0 SLP187=

CYQG;2006-09-07 10:00;METAR CYQG 071000Z 00000KT 15SM BKN012 BKN280 14/13 A3008 RMK SC5CI0 SLP188=

CYQG;2006-09-07 11:00;METAR CYQG 071100Z 00000KT 10SM BKN016 BKN280 14/13 A3009 RMK SC6CI0 SLP191=

CYQG;2006-09-07 12:00;METAR CYQG 071200Z 14003KT 15SM BKN012 15/13 A3010 RMK SC6 SLP191=

CYQG;2006-09-07 13:00;METAR CYQG 071300Z 00000KT 15SM BKN011 16/15 A3011 RMK SC7 SLP194=

CYQG;2006-09-07 14:00;METAR CYQG 071400Z 00000KT 15SM BKN013 18/16 A3011 RMK SC7 SLP196=

CYQG;2006-09-07 15:00;METAR CYQG 071500Z 00000KT 15SM BKN014 20/17 A3012 RMK SC6 SLP199=

CYQG;2006-09-07 15:05;SPECI CYQG 071505Z 00000KT 15SM BKN015 RMK SC6=

CYQG;2006-09-07 16:00;METAR CYQG 071600Z 09002KT 12SM BKN020 22/17 A3011 RMK CU6 SLP196=

CYQG;2006-09-07 17:00;METAR CYQG 071700Z 00000KT 15SM BKN030 24/17 A3009 RMK CU6 SLP190=

CYQG;2006-09-07 18:00;METAR CYQG 071800Z 22005KT 15SM BKN030 25/17 A3007 RMK CU5 SLP183=

CYQG;2006-09-07 19:00;METAR CYQG 071900Z 22002KT 15SM BKN045TCU 25/16 A3006 RMK TCU5 SLP178=

CYQG;2006-09-07 20:00;METAR CYQG 072000Z 09008KT 15SM BKN043TCU 25/18 A3004 RMK TCU5 SLP172=

CYQG;2006-09-07 21:00;METAR CYQG 072100Z 36002KT 15SM FEW043TCU 26/16 A3003 RMK TCU2 SLP168=

CYQG;2006-09-07 22:00;METAR CYQG 072200Z 21007KT 15SM FEW044 25/15 A3001 RMK CU1 SLP163=

CYQG;2006-09-07 23:00;METAR CYQG 072300Z 20006KT 15SM FEW045 25/15 A3001 RMK CU1 SLP161=

CYQG;2006-09-08 00:00;METAR CYQG 080000Z 20006KT 15SM FEW050 FEW290 23/15 A3001 RMK SC1CI1 SLP160=

CYQG;2006-09-08 01:00;METAR CYQG 080100Z 18006KT 15SM FEW290 20/16 A3002 RMK CI0 SLP166=

CYQG;2006-09-08 02:00;METAR CYQG 080200Z 18004KT 15SM BKN290 19/17 A3003 RMK CI1 SLP167=

CYQG;2006-09-08 03:00;METAR CYQG 080300Z 19006KT 15SM BKN290 20/17 A3001 RMK CI1 SLP163=

CYQG;2006-09-08 04:00;METAR CYQG 080400Z 20005KT 15SM SCT280 20/17 A3001 RMK CI1 SLP162=

CYQG;2006-09-08 05:00;METAR CYQG 080500Z 20005KT 15SM SCT280 19/17 A3002 RMK CI1 SLP164=

CYQG;2006-09-08 06:00;METAR CYQG 080600Z 22004KT 15SM FEW280 19/17 A3001 RMK CI1 SLP162=

CYQG;2006-09-08 07:00;METAR CYQG 080700Z 23004KT 15SM FEW280 19/16 A3002 RMK CI1 SLP163=

CYQG;2006-09-08 08:00;METAR CYQG 080800Z 23004KT 15SM FEW280 18/15 A3002 RMK CI1 SLP163=

CYQG;2006-09-08 09:00;METAR CYQG 080900Z 22003KT 15SM FEW280 18/14 A3002 RMK CI1 SLP163=

CYQG;2006-09-08 10:00;METAR CYQG 081000Z 22004KT 15SM FEW280 17/14 A3002 RMK CI1 SLP165=

CYQG;2006-09-08 11:00;METAR CYQG 081100Z 19004KT 6SM HZ FEW280 17/14 A3003 RMK CI2 SLP167=

CYQG;2006-09-08 12:00;METAR CYQG 081200Z 22006KT 8SM SKC 18/17 A3004 RMK SLP171=

CYQG;2006-09-08 13:00;METAR CYQG 081300Z 23008KT 8SM SKC 19/15 A3004 RMK SLP173=

CYQG;2006-09-08 14:00;METAR CYQG 081400Z 21009KT 8SM SKC 21/16 A3005 RMK SLP176=

CYQG;2006-09-08 15:00;METAR CYQG 081500Z 24010KT 15SM FEW260 23/16 A3005 RMK CI1 SLP175=

CYQG;2006-09-08 16:00;METAR CYQG 081600Z 22011KT 15SM FEW040 FEW120 25/16 A3005 RMK CU1AC1 SLP173=

CYQG;2006-09-08 17:00;METAR CYQG 081700Z 22010G16KT 15SM FEW060 26/17 A3003 RMK CU2 SLP167=

CYQG;2006-09-08 18:00;METAR CYQG 081800Z 21013KT 15SM FEW050 27/16 A3001 RMK CU1 SLP160=

CYQG;2006-09-08 19:00;METAR CYQG 081900Z 22011G18KT 15SM FEW060 28/17 A2999 RMK CU2 SLP154=

CYQG;2006-09-08 20:00;METAR CYQG 082000Z 20014KT 15SM FEW060 28/16 A2998 RMK CU2 SLP148=

CYQG;2006-09-08 21:00;METAR CYQG 082100Z 22011KT 15SM SCT065TCU 28/16 A2996 RMK TCU3 SLP144=

CYQG;2006-09-08 22:00;METAR CYQG 082200Z 24011KT 15SM FEW070TCU 28/15 A2996 RMK TCU2 SLP143=

CYQG;2006-09-08 23:00;METAR CYQG 082300Z 25008KT 15SM FEW070 27/14 A2996 RMK CU1 SLP142=

CYQG;2006-09-09 00:00;METAR CYQG 090000Z 24008KT 15SM FEW064 25/14 A2996 RMK SC1 SLP144=

CYQG;2006-09-09 01:00;METAR CYQG 090100Z 25006KT 15SM FEW062 24/15 A2998 RMK SC1 SLP151=

CYQG;2006-09-09 02:00;METAR CYQG 090200Z 25006KT 15SM SKC 23/15 A2999 RMK SLP155=

CYQG;2006-09-09 03:00;METAR CYQG 090300Z 23006KT 15SM FEW070 22/15 A3000 RMK AC1 SLP155=

CYQG;2006-09-09 04:00;METAR CYQG 090400Z 24005KT 15SM BKN130 22/15 A3001 RMK AC6 SLP158=

CYQG;2006-09-09 05:00;METAR CYQG 090500Z 29005KT 15SM BKN076 BKN120 21/16 A3001 RMK AC6AC2 SLP160=

CYQG;2006-09-09 06:00;METAR CYQG 090600Z 32002KT 15SM BKN070 21/15 A3000 RMK AC6 SLP156=

CYQG;2006-09-09 07:00;METAR CYQG 090700Z 23006KT 15SM FEW070 19/15 A2999 RMK AC2 SLP154=

CYQG;2006-09-09 08:00;METAR CYQG 090800Z 23005KT 10SM SCT080 19/15 A3000 RMK AC4 SLP156=

CYQG;2006-09-09 09:00;METAR CYQG 090900Z 00000KT 8SM SCT090 19/14 A3003 RMK AC4 SLP165=

CYQG;2006-09-09 10:00;METAR CYQG 091000Z 00000KT 12SM FEW070 17/14 A3003 RMK AC2 SLP165=

CYQG;2006-09-09 11:00;METAR CYQG 091100Z 35005KT 8SM SCT074 BKN270 17/14 A3006 RMK AC3CI1 SLP175=

CYQG;2006-09-09 13:00;METAR CYQG 091300Z 00000KT 15SM FEW100 20/16 A3006 RMK AC2 SLP177=

CYQG;2006-09-09 14:00;METAR CYQG 091400Z 00000KT 15SM FEW040 BKN070 21/16 A3007 RMK CU2AC4 SLP179=

CYQG;2006-09-09 15:00;METAR CYQG 091500Z 01007KT 15SM FEW040 BKN067 BKN270 22/16 A3009 RMK CU2AC4CI1 SLP188=

CYQG;2006-09-09 16:00;METAR CYQG 091600Z 05009KT 15SM FEW040 SCT096 BKN270 21/15 A3010 RMK CU2AC2CI1 SLP189=

CYQG;2006-09-09 17:00;METAR CYQG 091700Z 09008KT 15SM FEW030 BKN087 BKN280 21/15 A3009 RMK CU2AC5CI1 SLP186=

CYQG;2006-09-09 17:40;SPECI CYQG 091740Z 35012G17KT 15SM TS BKN024 BKN090 RMK CU6AC2 CB EMBD=

CYQG;2006-09-09 17:42;SPECI CYQG 091742Z 35011KT 8SM -TSRA BKN022CB BKN055 OVC100 RMK CB5SC2AC2 LTGIC N VIS 5 N=

CYQG;2006-09-09 18:00;METAR CYQG 091800Z 06004KT 10SM -TSRA SCT025CB BKN055 BKN280 18/15 A3011 RERA RMK CB3SC2CI2 PRES UNSTDY SLP194=

CYQG;2006-09-09 18:24;SPECI CYQG 091824Z 05006KT 12SM SCT025 BKN098 BKN280 RETS RMK CU3AC3CI1 LTGIC DIST E=

CYQG;2006-09-09 18:49;SPECI CYQG 091849Z 03009KT 12SM -SHRA SCT015 BKN093 RMK CU3AC4=

CYQG;2006-09-09 19:00;METAR CYQG 091900Z 03011KT 15SM -SHRA BKN016 BKN095 19/17 A3010 RMK CU5AC2 SLP192=

CYQG;2006-09-09 19:19;SPECI CYQG 091919Z 03015KT 15SM BKN015 RMK SC7=

CYQG;2006-09-09 20:00;METAR CYQG 092000Z 04013G18KT 12SM BKN015 18/15 A3010 RMK SC7 SLP192=

CYQG;2006-09-09 21:00;METAR CYQG 092100Z 05014G19KT 12SM BKN018 18/14 A3010 RMK SC6 SLP192=

CYQG;2006-09-09 22:00;METAR CYQG 092200Z 03014KT 12SM BKN020 17/13 A3011 RMK SC7 SLP196=

CYQG;2006-09-09 23:00;METAR CYQG 092300Z 02011KT 12SM OVC022 17/13 A3013 RMK SC7 SLP201=

CYQG;2006-09-10 00:00;METAR CYQG 100000Z 03011G17KT 12SM FEW020 OVC250 16/12 A3013 RMK SC2CS1 SLP204=

CYQG;2006-09-10 01:00;METAR CYQG 100100Z 04015KT 15SM OVC040 16/11 A3016 RMK SC8 SLP212=

CYQG;2006-09-10 03:00;METAR CYQG 100300Z 05010G17KT 15SM OVC045 16/11 A3020 RMK SC8 SLP224=

CYQG;2006-09-10 04:00;METAR CYQG 100400Z 03010G17KT 15SM FEW031 OVC053 16/10 A3020 RMK SC2SC6 SLP225=

CYQG;2006-09-10 05:00;METAR CYQG 100500Z 01006KT 15SM BKN032 OVC055 15/10 A3020 RMK SC6SC2 SLP225=

CYQG;2006-09-10 06:00;METAR CYQG 100600Z 05012KT 15SM OVC031 15/11 A3020 RMK SC8 SLP225=

CYQG;2006-09-10 07:00;METAR CYQG 100700Z 05011KT 15SM OVC031 15/10 A3020 RMK SC8 SLP225=

CYQG;2006-09-10 08:00;METAR CYQG 100800Z 04011KT 15SM OVC032 15/10 A3020 RMK SC8 SLP227=

CYQG;2006-09-10 09:00;METAR CYQG 100900Z 06010KT 15SM OVC032 15/10 A3020 RMK SC8 SLP225=

CYQG;2006-09-10 10:00;METAR CYQG 101000Z 05007KT 15SM OVC032 14/09 A3021 RMK SC8 SLP231=

CYQG;2006-09-10 11:00;METAR CYQG 101100Z 04010KT 15SM BKN029 15/09 A3023 RMK SC7 SLP236=

CYQG;2006-09-10 12:00;METAR CYQG 101200Z 05011KT 15SM BKN029 15/09 A3024 RMK SC7 SLP240=

CYQG;2006-09-10 13:00;METAR CYQG 101300Z 05013KT 15SM BKN029 15/08 A3025 RMK SC7 SLP243=

CYQG;2006-09-10 14:00;METAR CYQG 101400Z 04014KT 15SM BKN031 15/09 A3026 RMK SC7 SLP248=

CYQG;2006-09-10 15:00;METAR CYQG 101500Z 05011KT 15SM FEW020 BKN035 15/10 A3029 RMK CF1SC7 SLP257=

CYQG;2006-09-10 16:00;METAR CYQG 101600Z 05012KT 15SM FEW020 OVC033 15/11 A3029 RMK CF1SC8 SLP257=

CYQG;2006-09-10 17:00;METAR CYQG 101700Z 05010KT 15SM FEW020 OVC035 15/11 A3029 RMK CF1SC7 SLP257=

CYQG;2006-09-10 18:00;METAR CYQG 101800Z 05012KT 15SM FEW020 OVC033 15/11 A3028 RMK CF1SC7 SLP255=

CYQG;2006-09-10 19:00;METAR CYQG 101900Z 07010KT 15SM FEW020 OVC036 16/11 A3027 RMK CF1SC7 SLP252=

CYQG;2006-09-10 20:00;METAR CYQG 102000Z 06009KT 15SM FEW025 OVC040 16/11 A3026 RMK CF1SC7 SLP249=

CYQG;2006-09-10 21:00;METAR CYQG 102100Z 07010KT 15SM FEW038 BKN050 OVC280 17/11 A3026 RMK CF1SC6CS1 SLP246=

CYQG;2006-09-10 22:00;METAR CYQG 102200Z 03010KT 15SM SCT038 BKN160 BKN260 17/10 A3026 RMK SC4AC2CC1 SLP246=

CYQG;2006-09-10 23:00;METAR CYQG 102300Z 04011KT 15SM BKN035 OVC160 16/10 A3025 RMK SC7AC1 SLP244=

CYQG;2006-09-11 00:00;METAR CYQG 110000Z 05009KT 15SM OVC035 16/09 A3026 RMK SC8 SLP246=

CYQG;2006-09-11 01:00;METAR CYQG 110100Z 06008KT 15SM OVC035 15/09 A3027 RMK SC8 SLP251=

CYQG;2006-09-11 02:00;METAR CYQG 110200Z 06007KT 15SM BKN035 15/09 A3026 RMK SC7 SLP248=

CYQG;2006-09-11 03:00;METAR CYQG 110300Z 06008KT 15SM FEW035 OVC096 15/10 A3028 RMK SC2AC6 SLP254=

CYQG;2006-09-11 04:00;METAR CYQG 110400Z 08007KT 15SM FEW035 BKN098 OVC180 15/10 A3028 RMK SC2AC6AC1 SLP254=

CYQG;2006-09-11 05:00;METAR CYQG 110500Z 08010KT 15SM SCT100 BKN170 BKN220 15/08 A3027 RMK AC3AC2CI1 SLP251=

CYQG;2006-09-11 06:00;METAR CYQG 110600Z 09007KT 15SM SCT100 OVC170 15/08 A3027 RMK AC4AC4 SLP253=

CYQG;2006-09-11 07:00;METAR CYQG 110700Z 07007KT 15SM SCT170 OVC220 14/09 A3026 RMK AC3CI4 SLP249=

CYQG;2006-09-11 08:00;METAR CYQG 110800Z 06008KT 15SM SCT070 OVC086 14/10 A3027 RMK AC4AC4 SLP252=

CYQG;2006-09-11 09:00;METAR CYQG 110900Z 06009KT 15SM SCT070 OVC110 14/11 A3026 RMK AC4AC4 SLP248=

CYQG;2006-09-11 10:00;METAR CYQG 111000Z 07010KT 15SM BKN068 OVC100 15/10 A3026 RMK AC6AC2 SLP248=

CYQG;2006-09-11 11:00;METAR CYQG 111100Z 08012KT 15SM BKN086 OVC140 14/11 A3026 RMK AC6AC2 SLP248=

CYQG;2006-09-11 12:00;METAR CYQG 111200Z 08011KT 15SM SCT090 BKN160 15/11 A3027 RMK AC3AC4 SLP250=

CYQG;2006-09-11 13:00;METAR CYQG 111300Z 07012KT 15SM FEW090 BKN160 BKN280 16/12 A3027 RMK AC2AC3CI2 SLP250=

CYQG;2006-09-11 14:00;METAR CYQG 111400Z 07010G15KT 15SM FEW030 FEW120 BKN280 17/13 A3026 RMK CF1AC1CI2 SLP249=

CYQG;2006-09-11 15:00;METAR CYQG 111500Z 08011G16KT 15SM FEW020 BKN280 18/13 A3026 RMK CF2CI2 SLP249=

CYQG;2006-09-11 16:00;METAR CYQG 111600Z 07011G16KT 15SM BKN025 BKN280 19/14 A3026 RMK CU5CI1 SLP248=

CYQG;2006-09-11 17:00;METAR CYQG 111700Z 07014KT 15SM BKN030 BKN280 20/14 A3025 RMK CU5CI1 SLP243=

CYQG;2006-09-11 18:00;METAR CYQG 111800Z 07015KT 15SM SCT030 BKN120 BKN280 20/14 A3024 RMK CU3AC2CI1 SLP240=

CYQG;2006-09-11 19:00;METAR CYQG 111900Z 07012G18KT 15SM SCT027 BKN140 20/14 A3022 RMK CU3AC4 SLP233=

CYQG;2006-09-11 20:00;METAR CYQG 112000Z 07015KT 25SM FEW030 BKN140 20/13 A3020 RMK SC1AC6 SLP228=

CYQG;2006-09-11 21:00;METAR CYQG 112100Z 08013KT 15SM BKN150 20/13 A3018 RMK AC6 SLP221=

CYQG;2006-09-11 21:51;SPECI CYQG 112151Z 08011KT 15SM -SHRA OVC120 RMK AC8=

CYQG;2006-09-11 22:00;METAR CYQG 112200Z 08010KT 15SM -SHRA BKN120 19/13 A3018 RMK AC7 SLP220=

CYQG;2006-09-11 22:32;SPECI CYQG 112232Z 08009KT 15SM BKN130 RMK AC7=

CYQG;2006-09-11 23:00;METAR CYQG 112300Z 09010KT 15SM SCT080 OVC120 19/13 A3018 RMK AC3AC5 SLP219=

CYQG;2006-09-12 00:00;METAR CYQG 120000Z 08011KT 15SM SCT080 OVC120 18/12 A3017 RMK AC4AC4 SLP216=

CYQG;2006-09-12 01:00;METAR CYQG 120100Z 09012KT 15SM FEW085 OVC150 18/13 A3016 RMK AC2AC6 SLP212=

CYQG;2006-09-12 02:00;METAR CYQG 120200Z 08008KT 15SM OVC120 17/13 A3015 RMK AC8 SLP211=

CYQG;2006-09-12 03:00;METAR CYQG 120300Z 08008KT 15SM OVC130 17/14 A3014 RMK AC8 SLP205=

CYQG;2006-09-12 04:00;METAR CYQG 120400Z 07008KT 15SM FEW038 OVC140 17/14 A3012 RMK SC2AC6 SLP200=

CYQG;2006-09-12 05:00;METAR CYQG 120500Z 06007KT 10SM BKN033 OVC073 18/15 A3011 RMK SC6AC2 SLP195=

CYQG;2006-09-12 06:00;METAR CYQG 120600Z 09006KT 6SM -SHRA BR BKN015 OVC027 18/16 A3009 RMK SF6SC2 SLP187=

CYQG;2006-09-12 06:46;SPECI CYQG 120646Z 08003KT 4SM -SHRA BR OVC009 RMK SF8=

CYQG;2006-09-12 07:00;METAR CYQG 120700Z 00000KT 3SM -SHRA BR OVC006 18/17 A3007 RMK SF8 SLP182=

CYQG;2006-09-12 09:00;METAR CYQG 120900Z 12006KT 3SM BR OVC005 19/18 A3006 RMK SF8 SLP179=

CYQG;2006-09-12 09:24;SPECI CYQG 120924Z 12008KT 3SM -SHRA BR OVC005 RMK SF8=

CYQG;2006-09-12 10:00;METAR CYQG 121000Z 12009KT 4SM -SHRA BR OVC007 19/18 A3005 RERA RMK SF8 SLP176=

CYQG;2006-09-12 11:00;METAR CYQG 121100Z 13009KT 2SM -SHRA BR OVC005 18/17 A3005 RMK SF8 SLP175=

CYQG;2006-09-12 11:46;SPECI CYQG 121146Z 13005KT 2SM BR BKN006 OVC017 RMK FG1SF6SC2=

CYQG;2006-09-12 12:00;METAR CYQG 121200Z 13007KT 2 1/4SM BR BKN006 OVC017 19/18 A3005 RMK FG1SF6SC1 SLP177=

CYQG;2006-09-12 13:00;METAR CYQG 121300Z 13007KT 2 1/2SM BR OVC006 19/18 A3004 RMK FG1SF7 SLP173=

CYQG;2006-09-12 14:00;METAR CYQG 121400Z 13009KT 2 1/2SM BR OVC006 19/18 A3003 RMK FG1SF7 SLP170=

CYQG;2006-09-12 14:29;SPECI CYQG 121429Z 13007KT 3SM -SHRA BR OVC006 RMK SF8=

CYQG;2006-09-12 15:00;METAR CYQG 121500Z 14006KT 3SM -SHRA BR OVC007 20/19 A3003 RMK SF8 SLP167=

CYQG;2006-09-12 16:00;METAR CYQG 121600Z 12005KT 2 1/2SM -SHRA BR OVC007 20/19 A3001 RMK FG1SF7 SLP162=

CYQG;2006-09-12 16:24;SPECI CYQG 121624Z 13004KT 1 1/2SM -RA BR OVC008 RMK FG2SF6=

CYQG;2006-09-12 16:35;SPECI CYQG 121635Z 13003KT 1 1/2SM -TSRA BR OVC006 RMK FG2SF6 CB EMBD=

CYQG;2006-09-12 17:00;METAR CYQG 121700Z 16009KT 1 1/4SM +TSRA BR BKN006 OVC014 20/19 A3000 RMK FG2SF6SC1 CB EMBD SLP159=

CYQG;2006-09-12 17:53;SPECI CYQG 121753Z 20004KT 3SM -SHRA BR FEW005 FEW014 OVC044 RETSRA RMK SF1SC2SC6=

CYQG;2006-09-12 18:00;METAR CYQG 121800Z 20003KT 4SM -SHRA BR FEW004 SCT014 OVC044 20/19 A2998 RETSRA RMK SF2SC1SC5 /R11/ SLP153=

CYQG;2006-09-12 18:16;SPECI CYQG 121816Z 18003KT 4SM -RA BR OVC005 RMK SF8=

CYQG;2006-09-12 19:00;METAR CYQG 121900Z 15004KT 3SM -RA BR BKN005 OVC060 20/20 A2996 RMK SF7SC1 SLP146=

CYQG;2006-09-12 19:39;SPECI CYQG 121939Z 13002KT 4SM -RA BR BKN015 OVC060 RMK SF6SC2=

CYQG;2006-09-12 19:47;SPECI CYQG 121947Z 13005KT 3SM RA BR SCT015 OVC046 RMK SF3SC5=

CYQG;2006-09-12 20:00;METAR CYQG 122000Z 14005KT 3SM +RA BR BKN020 OVC045 20/20 A2993 RMK CF6SC2 SLP136=

CYQG;2006-09-12 20:03;SPECI CYQG 122003Z 15007KT 2 1/2SM -RA BR BKN005 OVC045 RMK SF6SC2=

CYQG;2006-09-12 20:34;SPECI CYQG 122034Z 17006KT 3SM -RA BR BKN019 OVC033 RMK CF7SC1=

CYQG;2006-09-12 21:00;METAR CYQG 122100Z 16009KT 3SM RA BR BKN005 OVC030 20/19 A2991 RMK SF6SC2 SLP128=

CYQG;2006-09-12 21:10;SPECI CYQG 122110Z 18005KT 3SM -RA BR FEW005 BKN035 OVC060 RMK CF1SC6SC1=

CYQG;2006-09-12 22:00;METAR CYQG 122200Z 17006KT 6SM BR SCT005 BKN020 OVC055 20/19 A2990 RMK CF3SC3SC2 SLP125=

CYQG;2006-09-12 22:17;SPECI CYQG 122217Z 17007KT 6SM BR OVC010 RMK SC8=

CYQG;2006-09-12 22:37;SPECI CYQG 122237Z 15007KT 6SM BR SCT013 OVC130 RMK SF3AC5=

CYQG;2006-09-12 23:00;METAR CYQG 122300Z 15005KT 6SM BR FEW007 SCT060 BKN110 OVC130 20/19 A2989 RMK CF1SC3AC2AC2 SLP121=

CYQG;2006-09-12 23:45;SPECI CYQG 122345Z 14003KT 5SM -SHRA BR FEW020 BKN060 OVC130 RMK CU2SC4AC2=

CYQG;2006-09-13 00:00;METAR CYQG 130000Z 14003KT 5SM -SHRA BR FEW020 BKN060 OVC130 20/19 A2988 RMK CU2SC4AC2 SLP117=

CYQG;2006-09-13 01:09;SPECI CYQG 130109Z 17004KT 5SM SHRA BR FEW013 OVC070 RMK SC2AC6=

CYQG;2006-09-13 01:24;SPECI CYQG 130124Z 18004KT 2 1/2SM +SHRA BR OVC018 RMK SC8=

CYQG;2006-09-13 02:15;SPECI CYQG 130215Z 20005KT 3SM -SHRA BR OVC007 RMK SC8=

CYQG;2006-09-13 02:43;SPECI CYQG 130243Z 22008KT 3SM BR OVC007 RMK SC8=

CYQG;2006-09-13 03:00;METAR CYQG 130300Z 22009KT 3SM BR OVC006 20/19 A2986 RMK SC8 SLP110=

CYQG;2006-09-13 03:39;SPECI CYQG 130339Z 22006KT 4SM BR SCT009 BKN038 OVC140 RMK SF3SC4AC1=

CYQG;2006-09-13 04:00;METAR CYQG 130400Z 21006KT 4SM BR BKN013 OVC036 20/19 A2984 RMK SF5SC3 SLP105=

CYQG;2006-09-13 05:00;METAR CYQG 130500Z 22005KT 5SM BR FEW006 BKN022 OVC056 20/19 A2984 RMK SF1SC5SC2 SLP103=

CYQG;2006-09-13 05:16;SPECI CYQG 130516Z 22005KT 4SM TS BR FEW006 OVC037 RMK SF2SC6 LTGICCG S-E CB ASOCTD=

CYQG;2006-09-13 05:29;SPECI CYQG 130529Z 20006KT 4SM -TSRA BR SCT006 OVC032 RMK SF4SC4 LTGICCG S-E CB ASOCTD=

CYQG;2006-09-13 06:00;METAR CYQG 130600Z 21006KT 4SM -TSRA BR SCT006 OVC030 19/18 A2983 RMK SF4SC4 LTGIC E CB ASOCTD SLP099=

CYQG;2006-09-13 06:35;SPECI CYQG 130635Z 21006KT 4SM BR OVC008 RETS RMK SF8 OCNL LTGIC E OCNL -SHRA=

CYQG;2006-09-13 06:52;SPECI CYQG 130652Z 21005KT 4SM BR OVC004 RETS RMK SF8=

CYQG;2006-09-13 07:00;METAR CYQG 130700Z 21007KT 4SM -SHRA BR BKN004 OVC014 19/18 A2982 RETS RMK SF6SC2 SLP096=

CYQG;2006-09-13 07:29;SPECI CYQG 130729Z 21004KT 4SM TS BR BKN004 OVC013 RMK SF6SC2 OCNL -SHRA CB ASOCTD=

CYQG;2006-09-13 07:40;SPECI CYQG 130740Z 19005KT 5SM -TSRA BR BKN007 OVC023 RMK SF6SC2 CB ASOCTD=

CYQG;2006-09-13 07:45;SPECI CYQG 130745Z 19004KT 5SM -SHRA BR SCT003 OVC010 RETS RMK SF4SC4=

CYQG;2006-09-13 08:00;METAR CYQG 130800Z 19004KT 5SM BR BKN003 OVC012 19/18 A2981 RETS RMK SF6SC2 OCNL -SHRA SLP092=

CYQG;2006-09-13 08:11;SPECI CYQG 130811Z 21005KT 5SM TS BR BKN003 OVC011 RMK SF5SC3 LTGCG S CB ASOCTD=

CYQG;2006-09-13 08:47;SPECI CYQG 130847Z 20005KT 5SM -TSRA BR BKN003 OVC011 RMK SF5SC3 FQT LTGCGIC S CB ASOCTD=

CYQG;2006-09-13 09:00;METAR CYQG 130900Z 19005KT 6SM -TSRA BR SCT003 OVC021 18/18 A2980 RMK SF3SC5 FQT LTGCGIC CB ASOCTD SLP091=

CYQG;2006-09-13 09:06;SPECI CYQG 130906Z 19005KT 3SM +TSRA BR FEW008 BKN012 OVC029 RMK SF2SC5SC2 FQT LTGCGIC CB ASOCTD=

CYQG;2006-09-13 09:33;SPECI CYQG 130933Z 20003KT 4SM -TSRA BR FEW008 BKN026 OVC058 RERA RMK SF2SC4SC2 LTGIC E CB ASOCTD=

CYQG;2006-09-13 09:43;SPECI CYQG 130943Z 14005KT 5SM -SHRA BR FEW008 BKN033 OVC072 RETSRA RMK SF2SC5AC2=

CYQG;2006-09-13 10:00;METAR CYQG 131000Z 18002KT 5SM -SHRA BR FEW008 BKN039 OVC120 18/18 A2979 RETSRA RMK SF1SC5AC2 SLP087=

CYQG;2006-09-13 10:26;SPECI CYQG 131026Z 23002KT 5SM BR BKN003 OVC012 RMK SF5SC3=

CYQG;2006-09-13 11:00;METAR CYQG 131100Z 23004KT 2 1/2SM BR SCT003 BKN026 OVC140 19/18 A2980 RMK SF4SC2AC1 SLP090=

CYQG;2006-09-13 12:00;METAR CYQG 131200Z 27002KT 2SM BR SCT003 OVC028 19/18 A2981 RMK FG1SF3SC4 SLP092=

CYQG;2006-09-13 12:25;SPECI CYQG 131225Z 00000KT 1SM BR BKN002 OVC014 RMK FG2SF6SC1=

CYQG;2006-09-13 12:45;SPECI CYQG 131245Z 19002KT 1 1/2SM BR BKN003 BKN014 RMK FG1SF6SC1=

CYQG;2006-09-13 13:00;METAR CYQG 131300Z 21005KT 2 1/2SM BR OVC004 20/19 A2980 RMK FG1SF7 SLP089=

CYQG;2006-09-13 13:35;SPECI CYQG 131335Z 21003KT 4SM BR FEW004 OVC014 RMK SF2SC6=

CYQG;2006-09-13 13:46;SPECI CYQG 131346Z 21003KT 5SM BR FEW005 OVC015 RMK SF2SC6=

CYQG;2006-09-13 14:49;SPECI CYQG 131449Z 19002KT 8SM BKN011 BKN029 RMK SC6SC2=

CYQG;2006-09-13 15:00;METAR CYQG 131500Z 18003KT 8SM BKN010 BKN029 21/19 A2980 RMK SC6SC1 SLP089=

CYQG;2006-09-13 15:41;SPECI CYQG 131541Z 20008KT 7SM SCT013 BKN040 RMK SC3SC2=

CYQG;2006-09-13 16:00;METAR CYQG 131600Z 20008KT 10SM FEW014 SCT040 BKN080 22/19 A2979 RMK SC2SC2AC1 SLP085=

CYQG;2006-09-13 17:00;METAR CYQG 131700Z 22005KT 12SM SCT018TCU BKN090 23/18 A2977 RMK TCU4AC2 SLP081=

CYQG;2006-09-13 18:00;METAR CYQG 131800Z 19004KT 12SM BKN024TCU BKN090 24/18 A2977 RMK TCU5AC2 SLP080=

CYQG;2006-09-13 19:00;METAR CYQG 131900Z 19007KT 12SM FEW024TCU OVC180 23/18 A2976 RMK TCU2AS4 SLP076=

CYQG;2006-09-13 20:00;METAR CYQG 132000Z 23004KT 10SM SCT025TCU BKN058 OVC280 23/17 A2977 RMK TCU3SC3CI0 SLP078=

CYQG;2006-09-13 21:00;METAR CYQG 132100Z 00000KT 10SM BKN021 BKN056 23/16 A2976 RMK CU6SC1 SLP077=

CYQG;2006-09-13 22:00;METAR CYQG 132200Z 23003KT 10SM FEW022 BKN160 BKN280 23/17 A2977 RMK CU2AC5CI1 SLP078=

CYQG;2006-09-13 23:00;METAR CYQG 132300Z 24004KT 10SM SCT022 BKN090 BKN280 22/18 A2977 RMK CU3AC2CI1 SLP081=

CYQG;2006-09-14 00:00;METAR CYQG 140000Z 29002KT 15SM BKN020 OVC100 21/17 A2979 RMK CU6AC2 SLP085=

CYQG;2006-09-14 00:26;SPECI CYQG 140026Z 08003KT 5SM -SHRA HZ OVC010 RMK CU8=

CYQG;2006-09-14 00:40;SPECI CYQG 140040Z 04004KT 2SM SHRA BR OVC008 RMK CU8=

CYQG;2006-09-14 01:15;SPECI CYQG 140115Z 03013KT 2 1/2SM TSRA BR OVC009CB RERA RMK CB8 LTGIC=

CYQG;2006-09-14 01:42;SPECI CYQG 140142Z 03011KT 4SM -TSRA BR OVC008CB RERA RMK CB8 LTGIC=

CYQG;2006-09-14 02:00;METAR CYQG 140200Z 03012KT 5SM -TSRA BR OVC012CB 18/17 A2982 RERA RMK CB8 /R25/ SLP096=

CYQG;2006-09-14 02:18;SPECI CYQG 140218Z 03011KT 5SM -SHRA BR FEW008 BKN012CB OVC080 RETS RMK SF2CB6AC1=

CYQG;2006-09-14 02:44;SPECI CYQG 140244Z 04009KT 5SM BR BKN013CB OVC080 RETS RMK CB6AC2=

CYQG;2006-09-14 03:00;METAR CYQG 140300Z 04009KT 5SM BR BKN009 OVC080 18/17 A2983 RETS RMK SC6AC2 SLP099=

CYQG;2006-09-14 04:00;METAR CYQG 140400Z 04009KT 5SM BR OVC011 18/17 A2985 RMK SC8 SLP105=

CYQG;2006-09-14 05:00;METAR CYQG 140500Z 03008KT 10SM OVC012 18/17 A2986 RMK SC8 SLP108=

CYQG;2006-09-14 06:00;METAR CYQG 140600Z 02006KT 10SM OVC014 18/16 A2986 RMK SC8 SLP110=

CYQG;2006-09-14 07:00;METAR CYQG 140700Z 36004KT 10SM OVC014 18/16 A2986 RMK SC8 SLP111=

CYQG;2006-09-14 08:00;METAR CYQG 140800Z 34004KT 8SM BKN012 OVC026 17/15 A2987 RMK SC6SC2 SLP113=

CYQG;2006-09-14 09:00;METAR CYQG 140900Z 36005KT 8SM OVC010 17/15 A2988 RMK SC8 SLP118=

CYQG;2006-09-14 10:00;METAR CYQG 141000Z 36005KT 10SM BKN013 OVC028 17/15 A2990 RMK SC6SC2 SLP124=

CYQG;2006-09-14 11:00;METAR CYQG 141100Z 36009KT 8SM BKN013 OVC110 17/15 A2992 RMK SC7AC1 SLP131=

CYQG;2006-09-14 12:00;METAR CYQG 141200Z 35007KT 12SM BKN013 OVC028 17/15 A2994 RMK SC7SC1 SLP137=

CYQG;2006-09-14 13:00;METAR CYQG 141300Z 35008KT 15SM BKN014 BKN032 BKN110 18/15 A2996 RMK SC6SC1AC1 SLP144=

CYQG;2006-09-14 14:00;METAR CYQG 141400Z 36011KT 15SM OVC014 18/15 A2997 RMK SC8 SLP148=

CYQG;2006-09-14 15:00;METAR CYQG 141500Z 36011KT 15SM OVC014 18/15 A2999 RMK SC8 SLP156=

CYQG;2006-09-14 15:22;SPECI CYQG 141522Z 36009KT 15SM OVC016 RMK SC8=

CYQG;2006-09-14 16:00;METAR CYQG 141600Z 01006KT 15SM OVC020 19/15 A3000 RMK SC8 SLP158=

CYQG;2006-09-14 17:00;METAR CYQG 141700Z 04009KT 15SM OVC028 19/15 A3001 RMK SC8 SLP160=

CYQG;2006-09-14 18:00;METAR CYQG 141800Z 36007KT 15SM OVC027 20/14 A3001 RMK SC8 SLP161=

CYQG;2006-09-14 19:00;METAR CYQG 141900Z 04007KT 15SM BKN029 20/14 A3001 RMK SC7 SLP162=

CYQG;2006-09-14 20:00;METAR CYQG 142000Z 36007KT 15SM BKN040 21/14 A3001 RMK SC6 SLP160=

CYQG;2006-09-14 21:00;METAR CYQG 142100Z 03007KT 15SM BKN035 21/15 A3001 RMK SC7 SLP163=

CYQG;2006-09-14 22:00;METAR CYQG 142200Z 05006KT 12SM BKN042 20/15 A3002 RMK SC6 SLP166=

CYQG;2006-09-14 23:00;METAR CYQG 142300Z 36004KT 15SM BKN044 20/15 A3003 RMK SC6 SLP169=

CYQG;2006-09-15 00:00;METAR CYQG 150000Z 07003KT 12SM SCT042 19/15 A3004 RMK SC3 SLP173=

CYQG;2006-09-15 01:00;METAR CYQG 150100Z 06006KT 15SM FEW042 17/15 A3006 RMK SC2 SLP180=

CYQG;2006-09-15 02:00;METAR CYQG 150200Z 06005KT 15SM FEW280 16/14 A3008 RMK CI1 SLP187=

CYQG;2006-09-15 03:00;METAR CYQG 150300Z 00000KT 8SM FEW280 16/14 A3008 RMK CI0 SLP187=

CYQG;2006-09-15 04:00;METAR CYQG 150400Z 00000KT 6SM BR SCT011 16/14 A3009 RMK SC4 SLP190=

CYQG;2006-09-15 04:12;SPECI CYQG 150412Z 00000KT 6SM BR BKN011 RMK SC6=

CYQG;2006-09-15 05:00;METAR CYQG 150500Z 35003KT 6SM BR BKN011 15/14 A3010 RMK SC5 SLP191=

CYQG;2006-09-15 05:15;SPECI CYQG 150515Z 36004KT 6SM BR SCT011 RMK SC4=

CYQG;2006-09-15 06:00;METAR CYQG 150600Z 35005KT 6SM BR FEW011 15/14 A3010 RMK SC1 SLP191=

CYQG;2006-09-15 07:00;METAR CYQG 150700Z 36005KT 6SM BR SKC 15/13 A3010 RMK SLP193=

CYQG;2006-09-15 08:00;METAR CYQG 150800Z 36006KT 6SM BR FEW080 14/13 A3010 RMK AC2 SLP193=

CYQG;2006-09-15 09:00;METAR CYQG 150900Z 36007KT 8SM BKN015 15/13 A3012 RMK SC6 SLP199=

CYQG;2006-09-15 10:00;METAR CYQG 151000Z 34007KT 12SM BKN017 15/13 A3013 RMK SC6 SLP202=

CYQG;2006-09-15 11:00;METAR CYQG 151100Z 34007KT 10SM OVC015 15/13 A3015 RMK SC8 SLP208=

CYQG;2006-09-15 11:48;SPECI CYQG 151148Z 35005KT 12SM OVC014 RMK SC8=

CYQG;2006-09-15 12:00;METAR CYQG 151200Z 36007KT 15SM OVC014 15/13 A3017 RMK SC8 SLP215=

CYQG;2006-09-15 13:00;METAR CYQG 151300Z 03004KT 15SM OVC011 16/14 A3017 RMK SC8 SLP218=

CYQG;2006-09-15 14:00;METAR CYQG 151400Z 05005KT 15SM OVC014 16/14 A3019 RMK SC8 SLP223=

CYQG;2006-09-15 14:37;SPECI CYQG 151437Z 04007KT 15SM OVC020 RMK SC8=

CYQG;2006-09-15 15:00;METAR CYQG 151500Z 03007KT 12SM BKN021 18/14 A3020 RMK SC7 SLP225=

CYQG;2006-09-15 16:00;METAR CYQG 151600Z 06007KT 15SM FEW023 19/14 A3019 RMK SC2 SLP224=

CYQG;2006-09-15 17:00;METAR CYQG 151700Z 05006KT 15SM FEW021 BKN036 20/15 A3019 RMK SC2SC5 SLP224=

CYQG;2006-09-15 18:00;METAR CYQG 151800Z 03008KT 15SM FEW022 OVC037 20/15 A3019 RMK SC2SC6 SLP222=

CYQG;2006-09-15 19:00;METAR CYQG 151900Z 04010KT 15SM FEW022 BKN039 21/15 A3018 RMK SC1SC6 SLP219=

CYQG;2006-09-15 20:00;METAR CYQG 152000Z 04009KT 10SM BKN038 21/15 A3017 RMK SC7 SLP216=

CYQG;2006-09-15 21:00;METAR CYQG 152100Z 04006KT 15SM BKN039 21/15 A3017 RMK SC7 SLP215=

CYQG;2006-09-15 22:00;METAR CYQG 152200Z 05005KT 15SM OVC038 20/15 A3017 RMK SC8 SLP217=

CYQG;2006-09-15 23:00;METAR CYQG 152300Z 05004KT 15SM BKN040 20/15 A3016 RMK SC7 SLP214=

CYQG;2006-09-16 00:00;METAR CYQG 160000Z 09003KT 15SM BKN040 BKN280 20/15 A3017 RMK SC5CI1 SLP215=

CYQG;2006-09-16 01:00;METAR CYQG 160100Z 06003KT 15SM BKN042 19/15 A3017 RMK SC6 SLP218=

CYQG;2006-09-16 02:00;METAR CYQG 160200Z 07002KT 15SM SCT033 18/15 A3017 RMK SC4 SLP217=

CYQG;2006-09-16 03:00;METAR CYQG 160300Z 05003KT 15SM FEW023 17/15 A3017 RMK SC2 SLP216=

CYQG;2006-09-16 04:00;METAR CYQG 160400Z 03002KT 15SM BKN037 17/15 A3017 RMK SC6 SLP216=

CYQG;2006-09-16 05:00;METAR CYQG 160500Z 09002KT 15SM BKN040 17/16 A3017 RMK SC5 SLP218=

CYQG;2006-09-16 06:00;METAR CYQG 160600Z 08004KT 15SM BKN037 17/15 A3016 RMK SC5 SLP213=

CYQG;2006-09-16 07:00;METAR CYQG 160700Z 08002KT 15SM BKN037 17/16 A3017 RMK SC5 SLP214=

CYQG;2006-09-16 08:00;METAR CYQG 160800Z 05002KT 15SM FEW035 16/15 A3017 RMK SC2 SLP214=

CYQG;2006-09-16 09:00;METAR CYQG 160900Z 04003KT 15SM BKN038 16/15 A3017 RMK SC6 SLP215=

CYQG;2006-09-16 10:00;METAR CYQG 161000Z 00000KT 8SM BKN040 17/16 A3018 RMK SC7 SLP219=

CYQG;2006-09-16 11:00;METAR CYQG 161100Z 07002KT 3SM BR OVC042 16/15 A3019 RMK SC8 SLP222=

CYQG;2006-09-16 12:00;METAR CYQG 161200Z 09002KT 4SM BR FEW017 BKN044 17/16 A3020 RMK SC2SC5 SLP225=

CYQG;2006-09-16 13:00;METAR CYQG 161300Z 09002KT 4SM BR OVC016 18/17 A3020 RMK SC8 SLP228=

CYQG;2006-09-16 14:00;METAR CYQG 161400Z 14003KT 15SM BKN015 OVC034 18/17 A3020 RMK SC7SC1 SLP227=

CYQG;2006-09-16 15:00;METAR CYQG 161500Z 23004KT 7SM FEW016 OVC044 19/16 A3021 RMK SC2SC6 SLP230=

CYQG;2006-09-16 16:00;METAR CYQG 161600Z 21004KT 10SM FEW018 OVC040 19/16 A3019 RMK SC1SC7 SLP224=

CYQG;2006-09-16 17:00;METAR CYQG 161700Z 20003KT 15SM FEW019 BKN044 21/17 A3017 RMK CU2SC6 SLP216=

CYQG;2006-09-16 18:00;METAR CYQG 161800Z 08002KT 15SM BKN023 BKN041 21/16 A3015 RMK SC6SC1 SLP210=

CYQG;2006-09-16 19:00;METAR CYQG 161900Z 13006KT 15SM SCT023 OVC041 21/16 A3013 RMK SC3SC5 SLP203=

CYQG;2006-09-16 20:00;METAR CYQG 162000Z 17009KT 15SM FEW023 OVC035 21/17 A3011 RMK SC2SC6 SLP197=

CYQG;2006-09-16 21:00;METAR CYQG 162100Z 16005KT 15SM FEW023 BKN040 BKN280 21/16 A3010 RMK SC2SC3CI1 SLP193=

CYQG;2006-09-16 22:00;METAR CYQG 162200Z 17007KT 15SM FEW040 BKN280 21/15 A3009 RMK SC1CI3 CONTRAILS SLP190=

CYQG;2006-09-16 23:00;METAR CYQG 162300Z 17004KT 15SM FEW040 BKN280 20/15 A3008 RMK SC2CI4 SLP186=

CYQG;2006-09-17 00:00;METAR CYQG 170000Z 16004KT 15SM BKN280 18/15 A3007 RMK CI5 SLP184=

CYQG;2006-09-17 01:00;METAR CYQG 170100Z 14004KT 10SM BKN280 17/16 A3006 RMK CI5 SLP179=

CYQG;2006-09-17 02:00;METAR CYQG 170200Z 14003KT 8SM BKN270 17/15 A3007 RMK CI2 SLP183=

CYQG;2006-09-17 03:00;METAR CYQG 170300Z 16004KT 10SM SCT270 16/15 A3005 RMK CI2 SLP177=

CYQG;2006-09-17 04:00;METAR CYQG 170400Z 14004KT 5SM BR FEW270 17/16 A3004 RMK CI1 SLP171=

CYQG;2006-09-17 05:00;METAR CYQG 170500Z 18005KT 6SM BR SKC 17/16 A3002 RMK SLP165=

CYQG;2006-09-17 06:00;METAR CYQG 170600Z 18006KT 6SM BR SKC 17/16 A3000 RMK SLP158=

CYQG;2006-09-17 07:00;METAR CYQG 170700Z 20006KT 5SM BR SKC 17/16 A2998 RMK SLP151=

CYQG;2006-09-17 08:00;METAR CYQG 170800Z 20005KT 5SM BR SKC 17/16 A2998 RMK SLP150=

CYQG;2006-09-17 10:00;METAR CYQG 171000Z 20005KT 5SM BR FEW038 16/15 A3000 RMK SC2 SLP159=

CYQG;2006-09-17 10:47;SPECI CYQG 171047Z 19006KT 2 1/2SM BR FEW035 FEW260 RMK SC1CI1=

CYQG;2006-09-17 11:00;METAR CYQG 171100Z 19007KT 1 3/4SM BR FEW035 SCT260 16/15 A2998 RMK SC1CI1 SLP153=

CYQG;2006-09-17 12:00;METAR CYQG 171200Z 19005KT 1 3/4SM BR BKN260 16/15 A2999 RMK CI2 SLP154=

CYQG;2006-09-17 12:33;SPECI CYQG 171233Z 19005KT 2SM BR BKN260 RMK CI2=

CYQG;2006-09-17 13:00;METAR CYQG 171300Z 19009KT 2 1/2SM BR SCT260 18/17 A2998 RMK CI2 SLP150=

CYQG;2006-09-17 13:34;SPECI CYQG 171334Z 20010KT 4SM HZ FEW210 RMK CI2=

CYQG;2006-09-17 14:00;METAR CYQG 171400Z 20013KT 5SM HZ BKN250 19/16 A2996 RMK CI3 SLP145=

CYQG;2006-09-17 15:00;METAR CYQG 171500Z 21012KT 5SM HZ OVC250 21/17 A2995 RMK CS3 SLP141=

CYQG;2006-09-17 16:00;METAR CYQG 171600Z 22012KT 5SM HZ OVC250 22/17 A2994 RMK CS3 SLP137=

CYQG;2006-09-17 17:00;METAR CYQG 171700Z 20013KT 6SM HZ OVC260 23/17 A2992 RMK CS6 SLP130=

CYQG;2006-09-17 19:00;METAR CYQG 171900Z 20012G18KT 7SM SCT260 25/17 A2985 RMK CS2 SLP106=

CYQG;2006-09-17 20:00;METAR CYQG 172000Z 20013G19KT 10SM SCT250 26/17 A2981 RMK CI2 SLP094=

CYQG;2006-09-17 21:00;METAR CYQG 172100Z 18012G17KT 7SM BKN250 25/17 A2981 RMK CS2 SLP093=

CYQG;2006-09-17 22:00;METAR CYQG 172200Z 17010KT 9SM BKN280 25/17 A2978 RMK CS2 SLP083=

CYQG;2006-09-17 23:00;METAR CYQG 172300Z 18007KT 10SM BKN250 24/18 A2980 RMK CI3 SLP089=

CYQG;2006-09-18 00:00;METAR CYQG 180000Z 18007KT 12SM FEW250 23/17 A2979 RMK CI1 SLP087=

CYQG;2006-09-18 01:00;METAR CYQG 180100Z 18006KT 15SM FEW250 22/17 A2979 RMK CI1 SLP086=

CYQG;2006-09-18 02:00;METAR CYQG 180200Z 18007KT 15SM FEW280 22/17 A2979 RMK CI1 SLP086=

CYQG;2006-09-18 03:00;METAR CYQG 180300Z 20008KT 15SM FEW280 23/17 A2979 RMK CI1 SLP086=

CYQG;2006-09-18 04:00;METAR CYQG 180400Z 20010KT 12SM BKN280 23/17 A2978 RMK CI6 SLP081=

CYQG;2006-09-18 05:00;METAR CYQG 180500Z 21010KT 12SM FEW040 BKN280 22/16 A2977 RMK SC1CI3 SLP079=

CYQG;2006-09-18 06:00;METAR CYQG 180600Z 20009KT 12SM BKN270 21/16 A2975 RMK CI4 SLP072=

CYQG;2006-09-18 07:00;METAR CYQG 180700Z 21010KT 12SM FEW043 BKN270 22/16 A2974 RMK SC2CI2 SLP070=

CYQG;2006-09-18 08:00;METAR CYQG 180800Z 20011KT 12SM FEW160 BKN210 21/16 A2973 RMK AC2CI5 SLP065=

CYQG;2006-09-18 09:00;METAR CYQG 180900Z 20009KT 15SM OVC150 21/16 A2972 RMK AC8 SLP062=

CYQG;2006-09-18 09:08;SPECI CYQG 180908Z 20007KT 15SM -SHRA FEW035 OVC160 RMK SC2AC6=

CYQG;2006-09-18 09:40;SPECI CYQG 180940Z 20009KT 12SM FEW043 OVC140 RMK SC2AC6=

CYQG;2006-09-18 10:00;METAR CYQG 181000Z 20010KT 12SM OVC070 21/16 A2972 RMK AC8 SLP062=

CYQG;2006-09-18 11:00;METAR CYQG 181100Z 20010KT 8SM BKN021 OVC070 21/16 A2971 RMK SC6AC2 SLP059=

CYQG;2006-09-18 12:00;METAR CYQG 181200Z 21010KT 7SM OVC020 21/17 A2972 RMK SC8 SLP063=

CYQG;2006-09-18 13:00;METAR CYQG 181300Z 21009KT 7SM FEW025 BKN042 OVC070 21/17 A2971 RMK SC2SC6AC1 SLP060=

CYQG;2006-09-18 13:15;SPECI CYQG 181315Z 21009KT 7SM -SHRA FEW030 OVC040 RMK SF1SC7=

CYQG;2006-09-18 13:43;SPECI CYQG 181343Z 21009KT 6SM HZ OVC019 RMK SC8=

CYQG;2006-09-18 14:00;METAR CYQG 181400Z 20009KT 7SM OVC018 22/17 A2971 RMK SC8 SLP059=

CYQG;2006-09-18 14:38;SPECI CYQG 181438Z 21012KT 7SM -SHRA SCT055 OVC070 RMK SC3AC5=

CYQG;2006-09-18 15:11;SPECI CYQG 181511Z 22012G17KT 5SM HZ FEW018 BKN032 OVC060 RMK SC2SC2SC3=

CYQG;2006-09-18 15:14;SPECI CYQG 181514Z 22014KT 5SM -RA HZ FEW018 BKN032 OVC060 RMK SC2SC2SC3=

CYQG;2006-09-18 15:20;SPECI CYQG 181520Z 21010G17KT 2SM -RA HZ FEW018 OVC032 RMK SC2SC6=

CYQG;2006-09-18 16:00;METAR CYQG 181600Z 22009KT 2SM -RA BR OVC026 20/18 A2972 RMK NS8 SLP061=

CYQG;2006-09-18 16:18;SPECI CYQG 181618Z 22009KT 1 3/4SM -RA BR OVC017 RMK NS8=

CYQG;2006-09-18 16:34;SPECI CYQG 181634Z 29010KT 2SM -RA BR BKN007 OVC017 RMK SF6NS2=

CYQG;2006-09-18 17:00;METAR CYQG 181700Z 32012KT 6SM -RA BR BKN010 OVC020 18/16 A2974 RMK SF6NS2 SLP066=

CYQG;2006-09-18 17:13;SPECI CYQG 181713Z 33009KT 6SM -RA BR FEW010 OVC022 RMK SF1SC7=

CYQG;2006-09-18 17:29;SPECI CYQG 181729Z 32009KT 2SM -RA BR SCT010 OVC035 RMK SF4SC4=

CYQG;2006-09-18 18:00;METAR CYQG 181800Z 31006KT 2SM RA BR FEW008 OVC025 17/16 A2974 RMK SF2SC6 SLP068=

CYQG;2006-09-18 18:16;SPECI CYQG 181816Z 31010KT 6SM -RA BR BKN008 OVC025 RMK SF6SC2=

CYQG;2006-09-18 18:32;SPECI CYQG 181832Z 33008KT 7SM -RA SCT018 OVC023 RMK SF4SC4=

CYQG;2006-09-18 18:48;SPECI CYQG 181848Z 34004KT 7SM -RA BKN011 OVC023 RMK SC6SC2=

CYQG;2006-09-18 19:00;METAR CYQG 181900Z 33006KT 7SM -RA SCT011 OVC040 18/16 A2973 RMK SC3SC5 SLP065=

CYQG;2006-09-18 19:44;SPECI CYQG 181944Z 32007KT 2SM -RA BR BKN009 OVC040 RMK SC6SC2=

CYQG;2006-09-18 20:00;METAR CYQG 182000Z 31013KT 5SM -RA BR FEW005 OVC009 16/15 A2975 RMK SF2SC6 SLP073=

CYQG;2006-09-18 20:18;SPECI CYQG 182018Z 32008KT 10SM FEW009 OVC040 RMK SC2SC6=

CYQG;2006-09-18 21:00;METAR CYQG 182100Z 34005KT 15SM -RA OVC040 15/12 A2975 RMK SC8 SLP073=

CYQG;2006-09-18 22:00;METAR CYQG 182200Z 01002KT 15SM -RA SCT060 OVC100 15/12 A2974 RMK SC3AC5 SLP069=

CYQG;2006-09-18 23:00;METAR CYQG 182300Z 00000KT 15SM -RA OVC040 15/12 A2974 RMK SC8 SLP069=

CYQG;2006-09-19 00:00;METAR CYQG 190000Z 25004KT 15SM -RA BKN060 OVC110 15/13 A2975 RMK SC6AC2 SLP074=

CYQG;2006-09-19 00:43;SPECI CYQG 190043Z 22004KT 15SM OVC120 RMK AC8=

CYQG;2006-09-19 01:00;METAR CYQG 190100Z 23003KT 15SM OVC130 14/13 A2975 RMK AC8 SLP073=

CYQG;2006-09-19 02:00;METAR CYQG 190200Z 22006KT 15SM OVC130 14/13 A2976 RMK AC8 SLP077=

CYQG;2006-09-19 02:29;SPECI CYQG 190229Z 17004KT 15SM -SHRA OVC110 RMK AC8=

CYQG;2006-09-19 02:32;SPECI CYQG 190232Z 20003KT 15SM OVC110 RMK AC8=

CYQG;2006-09-19 03:00;METAR CYQG 190300Z 21004KT 15SM OVC120 14/13 A2973 RMK AC8 SLP067=

CYQG;2006-09-19 04:00;METAR CYQG 190400Z 23007KT 15SM FEW120 BKN260 14/13 A2974 RMK AC1CI6 SLP069=

CYQG;2006-09-19 05:00;METAR CYQG 190500Z 22005KT 15SM BKN270 14/12 A2974 RMK CS7 SLP070=

CYQG;2006-09-19 06:00;METAR CYQG 190600Z 24007KT 15SM SCT280 13/12 A2975 RMK CI3 SLP075=

CYQG;2006-09-19 07:00;METAR CYQG 190700Z 24007KT 15SM FEW280 14/12 A2974 RMK CI1 SLP072=

CYQG;2006-09-19 07:31;SPECI CYQG 190731Z 24009KT 12SM BKN007 RMK SF6=

CYQG;2006-09-19 08:00;METAR CYQG 190800Z 26009KT 10SM BKN008 14/13 A2974 RMK SF7 SLP072=

CYQG;2006-09-19 08:48;SPECI CYQG 190848Z 27009KT 12SM FEW008 RMK SF2=

CYQG;2006-09-19 09:00;METAR CYQG 190900Z 27007KT 12SM FEW008 14/12 A2974 RMK SF1 SLP073=

CYQG;2006-09-19 10:00;METAR CYQG 191000Z 27007KT 15SM FEW280 13/11 A2975 RMK CI1 SLP076=

CYQG;2006-09-19 11:00;METAR CYQG 191100Z 27007KT 15SM FEW015 FEW280 12/10 A2977 RMK SC1CI1 SLP083=

CYQG;2006-09-19 12:00;METAR CYQG 191200Z 24006KT 15SM FEW015 FEW280 12/10 A2979 RMK SC1CI1 SLP090=

CYQG;2006-09-19 13:00;METAR CYQG 191300Z 26012KT 15SM FEW016 FEW080 13/09 A2981 RMK CU1AC1 SLP095=

CYQG;2006-09-19 14:00;METAR CYQG 191400Z 26010KT 15SM FEW020 14/10 A2981 RMK CU1 SLP097=

CYQG;2006-09-19 15:00;METAR CYQG 191500Z 26011G17KT 15SM SCT024 16/09 A2982 RMK CU3 SLP097=

CYQG;2006-09-19 16:00;METAR CYQG 191600Z 23013G19KT 15SM SCT040 16/10 A2982 RMK CU4 SLP097=

CYQG;2006-09-19 17:00;METAR CYQG 191700Z 24013KT 15SM BKN055 17/08 A2981 RMK SC6 SLP095=

CYQG;2006-09-19 18:00;METAR CYQG 191800Z 26012KT 15SM BKN060 BKN190 17/08 A2980 RMK SC7AC1 SLP093=

CYQG;2006-09-19 19:00;METAR CYQG 191900Z 26003KT 15SM FEW040 BKN057 17/08 A2981 RMK CF1SC6 SLP094=

CYQG;2006-09-19 20:00;METAR CYQG 192000Z 24010G15KT 15SM BKN062 OVC100 17/08 A2981 RMK SC7AC1 SLP094=

CYQG;2006-09-19 21:00;METAR CYQG 192100Z 25011KT 15SM BKN060 OVC100 16/08 A2981 RMK SC6AC2 SLP095=

CYQG;2006-09-19 22:00;METAR CYQG 192200Z 27011KT 15SM FEW030 BKN045 OVC100 16/08 A2982 RMK CF1SC7AC1 SLP099=

CYQG;2006-09-19 23:00;METAR CYQG 192300Z 27009G16KT 15SM FEW030 BKN060 OVC100 15/08 A2983 RMK CF1SC7AC1 SLP102=

CYQG;2006-09-20 00:00;METAR CYQG 200000Z 26009KT 15SM OVC060 14/08 A2984 RMK SC8 SLP106=

CYQG;2006-09-20 01:00;METAR CYQG 200100Z 27011G16KT 15SM OVC060 13/08 A2986 RMK SC8 SLP111=

CYQG;2006-09-20 02:00;METAR CYQG 200200Z 27012KT 15SM OVC062 13/08 A2986 RMK SC8 SLP111=

CYQG;2006-09-20 03:00;METAR CYQG 200300Z 26010G17KT 15SM FEW020 OVC055 12/08 A2986 RMK CF1SC8 SLP112=

CYQG;2006-09-20 04:00;METAR CYQG 200400Z 27010KT 15SM FEW018 OVC039 12/09 A2986 RMK SC2SC6 SLP112=

CYQG;2006-09-20 04:12;SPECI CYQG 200412Z 27009KT 15SM -SHRA FEW018 OVC042 RMK SC2SC6=

CYQG;2006-09-20 05:00;METAR CYQG 200500Z 29007KT 15SM -SHRA FEW018 OVC063 12/08 A2986 RMK SC1SC7 SLP111=

CYQG;2006-09-20 05:20;SPECI CYQG 200520Z 28007KT 15SM FEW019 BKN064 OVC090 RMK SC1SC6AC1=

CYQG;2006-09-20 06:00;METAR CYQG 200600Z 28008KT 15SM FEW058 OVC080 11/08 A2985 RMK SC1AC7 SLP110=

CYQG;2006-09-20 07:00;METAR CYQG 200700Z 28011KT 15SM SCT016 OVC075 11/08 A2986 RMK SC3AC5 SLP111=

CYQG;2006-09-20 08:00;METAR CYQG 200800Z 27008KT 15SM BKN017 11/08 A2985 RMK SC6 SLP110=

CYQG;2006-09-20 09:00;METAR CYQG 200900Z 28008KT 15SM FEW017 BKN031 BKN080 11/08 A2986 RMK SC2SC4AC1 SLP112=

CYQG;2006-09-20 10:00;METAR CYQG 201000Z 28011KT 15SM FEW017 SCT040 OVC080 11/08 A2987 RMK SC2SC2AC4 SLP117=

CYQG;2006-09-20 11:00;METAR CYQG 201100Z 29008KT 15SM BKN016 BKN080 11/08 A2989 RMK SC6AC1 SLP121=

CYQG;2006-09-20 12:00;METAR CYQG 201200Z 31010G16KT 15SM FEW020 FEW280 11/07 A2991 RMK SC2CI1 SLP130=

CYQG;2006-09-20 13:00;METAR CYQG 201300Z 30013KT 15SM SCT020 11/06 A2993 RMK CU4 SLP136=

CYQG;2006-09-20 14:00;METAR CYQG 201400Z 31010G17KT 15SM SCT020 12/07 A2994 RMK CU3 SLP141=

CYQG;2006-09-20 15:00;METAR CYQG 201500Z 32013G19KT 15SM BKN023 13/06 A2995 RMK CU5 SLP145=

CYQG;2006-09-20 16:00;METAR CYQG 201600Z 31015G22KT 15SM SCT032 13/05 A2996 RMK CU4 SLP147=

CYQG;2006-09-20 17:00;METAR CYQG 201700Z 32013G18KT 15SM BKN040 14/05 A2996 RMK CU5 SLP148=

CYQG;2006-09-20 18:00;METAR CYQG 201800Z 30010G17KT 15SM SCT040 15/04 A2997 RMK CU3 SLP150=

CYQG;2006-09-20 19:00;METAR CYQG 201900Z 34013KT 15SM BKN042 BKN130 16/05 A2996 RMK CU5AC1 SLP146=

CYQG;2006-09-20 20:00;METAR CYQG 202000Z 32009G17KT 15SM BKN056 15/04 A2995 RMK CU6 SLP145=

CYQG;2006-09-20 21:00;METAR CYQG 202100Z 32008KT 15SM BKN060 16/05 A2995 RMK CU5 SLP144=

CYQG;2006-09-20 22:00;METAR CYQG 202200Z 30007KT 15SM SCT062 15/05 A2995 RMK CU4 SLP145=

CYQG;2006-09-20 23:00;METAR CYQG 202300Z 30010KT 15SM SCT070 15/05 A2996 RMK AC4 SLP148=

CYQG;2006-09-21 00:00;METAR CYQG 210000Z 26005KT 15SM FEW070 14/06 A2998 RMK AC2 SLP152=

CYQG;2006-09-21 01:00;METAR CYQG 210100Z 27005KT 15SM FEW068 13/06 A3000 RMK AC2 SLP159=

CYQG;2006-09-21 02:00;METAR CYQG 210200Z 26007KT 15SM FEW070 12/06 A3001 RMK AC1 SLP163=

CYQG;2006-09-21 03:00;METAR CYQG 210300Z 28007KT 15SM FEW070 11/06 A3002 RMK AC1 SLP167=

CYQG;2006-09-21 04:00;METAR CYQG 210400Z 28007KT 15SM SKC 11/06 A3003 RMK SLP172=

CYQG;2006-09-21 05:00;METAR CYQG 210500Z 29007KT 15SM SKC 11/06 A3004 RMK SLP173=

CYQG;2006-09-21 06:00;METAR CYQG 210600Z 29006KT 15SM SKC 10/06 A3005 RMK SLP177=

CYQG;2006-09-21 07:00;METAR CYQG 210700Z 28004KT 15SM SKC 09/06 A3005 RMK SLP179=

CYQG;2006-09-21 08:00;METAR CYQG 210800Z 27005KT 15SM SKC 09/05 A3005 RMK SLP179=

CYQG;2006-09-21 09:00;METAR CYQG 210900Z 26004KT 15SM SKC 08/05 A3006 RMK SLP182=

CYQG;2006-09-21 10:00;METAR CYQG 211000Z 24005KT 15SM SKC 07/05 A3007 RMK SLP186=

CYQG;2006-09-21 11:00;METAR CYQG 211100Z 24002KT 15SM FEW280 07/05 A3008 RMK CI1 SLP188=

CYQG;2006-09-21 12:00;METAR CYQG 211200Z 23003KT 15SM FEW140 FEW280 08/05 A3009 RMK AC1CI1 SLP193=

CYQG;2006-09-21 13:00;METAR CYQG 211300Z 23003KT 15SM FEW030 FEW140 FEW280 10/07 A3010 RMK CF1AC1CI0 SLP196=

CYQG;2006-09-21 14:00;METAR CYQG 211400Z 24005KT 15SM FEW025 FEW140 FEW280 12/06 A3012 RMK CF1AC2CI1 SLP202=

CYQG;2006-09-21 15:00;METAR CYQG 211500Z 21006KT 15SM SCT045 SCT280 15/06 A3013 RMK SC3CI0 SLP204=

CYQG;2006-09-21 16:00;METAR CYQG 211600Z 23007KT 15SM FEW045 FEW140 FEW280 16/05 A3012 RMK CF1AC1CI1 SLP202=

CYQG;2006-09-21 17:00;METAR CYQG 211700Z 22006KT 15SM SCT045 SCT280 16/06 A3011 RMK CF4CI1 SLP196=

CYQG;2006-09-21 18:00;METAR CYQG 211800Z 22006KT 15SM SCT045 17/07 A3009 RMK CF3 SLP191=

CYQG;2006-09-21 20:00;METAR CYQG 212000Z 20006KT 15SM FEW045 SCT280 18/07 A3006 RMK CU2CI1 SLP181=

CYQG;2006-09-21 21:00;METAR CYQG 212100Z 17005KT 15SM FEW045 FEW280 18/06 A3005 RMK CF2CI0 SLP178=

CYQG;2006-09-21 22:00;METAR CYQG 212200Z 20005KT 15SM FEW045 BKN280 17/06 A3005 RMK CF1CI2 SLP179=

CYQG;2006-09-21 23:00;METAR CYQG 212300Z 16009KT 12SM BKN280 15/06 A3005 RMK CI2 SLP179=

CYQG;2006-09-22 00:00;METAR CYQG 220000Z 14004KT 15SM SCT280 13/07 A3005 RMK CI2 SLP178=

CYQG;2006-09-22 01:00;METAR CYQG 220100Z 13006KT 15SM FEW280 12/07 A3005 RMK CI1 SLP180=

CYQG;2006-09-22 02:00;METAR CYQG 220200Z 14005KT 15SM FEW280 11/07 A3006 RMK CI1 SLP182=

CYQG;2006-09-22 03:00;METAR CYQG 220300Z 14004KT 15SM FEW280 11/07 A3006 RMK CI1 SLP182=

CYQG;2006-09-22 04:00;METAR CYQG 220400Z 12005KT 15SM SCT260 11/07 A3006 RMK CI2 SLP180=

CYQG;2006-09-22 05:00;METAR CYQG 220500Z 13005KT 15SM OVC200 12/08 A3004 RMK CS7 SLP175=

CYQG;2006-09-22 06:00;METAR CYQG 220600Z 12004KT 15SM OVC200 12/08 A3004 RMK CS8 SLP173=

CYQG;2006-09-22 07:00;METAR CYQG 220700Z 11004KT 15SM OVC180 12/09 A3002 RMK AC8 SLP168=

CYQG;2006-09-22 08:00;METAR CYQG 220800Z 11005KT 15SM OVC210 13/10 A3001 RMK CS8 SLP163=

CYQG;2006-09-22 09:00;METAR CYQG 220900Z 13002KT 15SM BKN220 12/09 A3000 RMK CC3 SLP161=

CYQG;2006-09-22 10:00;METAR CYQG 221000Z 13002KT 15SM SCT170 12/09 A2997 RMK AC2 SLP151=

CYQG;2006-09-22 11:00;METAR CYQG 221100Z 10003KT 15SM BKN160 OVC250 12/09 A2997 RMK AC5CI1 SLP151=

CYQG;2006-09-22 12:00;METAR CYQG 221200Z 10004KT 15SM BKN160 BKN260 13/10 A2996 RMK AC6CI1 SLP148=

CYQG;2006-09-22 13:00;METAR CYQG 221300Z 14005KT 15SM BKN140 OVC280 14/10 A2997 RMK AC6CI0 SLP151=

CYQG;2006-09-22 14:00;METAR CYQG 221400Z 14007KT 15SM SCT140 OVC250 16/11 A2995 RMK AC3CI5 SLP143=

CYQG;2006-09-22 15:00;METAR CYQG 221500Z 15006KT 15SM OVC140 16/12 A2994 RMK AC8 SLP141=

CYQG;2006-09-22 16:00;METAR CYQG 221600Z 16006KT 15SM BKN120 OVC240 17/12 A2993 RMK AC6CI2 SLP136=

CYQG;2006-09-22 17:00;METAR CYQG 221700Z 21009KT 15SM BKN110 OVC250 19/12 A2991 RMK AC6CI2 SLP130=

CYQG;2006-09-22 17:28;SPECI CYQG 221728Z 20013KT 15SM -SHRA BKN100 OVC250 RMK AC6CI2=

CYQG;2006-09-22 17:48;SPECI CYQG 221748Z 20010G18KT 15SM BKN100 OVC250 RMK AC6CI2=

CYQG;2006-09-22 18:00;METAR CYQG 221800Z 20011KT 15SM BKN070 BKN100 OVC250 18/13 A2990 RMK AC6AC1CI1 SLP125=

CYQG;2006-09-22 19:00;METAR CYQG 221900Z 16008KT 15SM BKN040 OVC085 18/14 A2986 RMK SC6AC2 SLP114=

CYQG;2006-09-22 19:31;SPECI CYQG 221931Z 16010G15KT 8SM -SHRA OVC035 RMK SC8=

CYQG;2006-09-22 20:00;METAR CYQG 222000Z 15009KT 8SM OVC030 17/14 A2985 RMK SC8 OCNL -SHRA SLP109=

CYQG;2006-09-22 21:00;METAR CYQG 222100Z 16011KT 6SM HZ OVC026 18/14 A2984 RMK SC8 SLP106=

CYQG;2006-09-22 22:00;METAR CYQG 222200Z 17013G18KT 8SM OVC015 18/15 A2982 RMK SC8 SLP099=

CYQG;2006-09-22 22:13;SPECI CYQG 222213Z 18017KT 6SM HZ OVC009 RMK SF8=

CYQG;2006-09-22 22:26;SPECI CYQG 222226Z 17011G17KT 5SM HZ SCT008 OVC016 RMK SF4SC4=

CYQG;2006-09-22 22:48;SPECI CYQG 222248Z 17009G15KT 4SM -SHRA BR FEW006 BKN012 OVC018 RMK SF2SC4SC2=

CYQG;2006-09-22 23:00;METAR CYQG 222300Z 17011KT 2 1/2SM -SHRA BR FEW006 OVC012 17/15 A2981 RMK SF2SC6 SLP095=

CYQG;2006-09-22 23:21;SPECI CYQG 222321Z 17009G15KT 1 1/2SM -SHRA BR BKN008 OVC014 RMK SF5SC3=

CYQG;2006-09-22 23:54;SPECI CYQG 222354Z 17010G15KT 3SM -SHRA BR OVC009 RMK SF8=

CYQG;2006-09-23 00:00;METAR CYQG 230000Z 17010G15KT 3SM -SHRA BR OVC009 17/15 A2978 RMK SF8 SLP085=

CYQG;2006-09-23 00:23;SPECI CYQG 230023Z 17009KT 2 1/2SM -SHRA BR BKN005 OVC010 RMK SF6SC2=

CYQG;2006-09-23 01:00;METAR CYQG 230100Z 18007G15KT 3SM BR BKN008 OVC013 17/16 A2977 RMK SF5SC3 OCNL -SHRA SLP080=

CYQG;2006-09-23 02:00;METAR CYQG 230200Z 18012KT 3SM -SHRA BR BKN008 OVC012 17/16 A2976 RMK SF6SC2 SLP078=

CYQG;2006-09-23 02:34;SPECI CYQG 230234Z 18009G18KT 3SM BR SCT008 OVC012 RMK SF3SC5=

CYQG;2006-09-23 03:00;METAR CYQG 230300Z 19013G19KT 4SM -SHRA BR FEW008 OVC012 18/16 A2976 RMK SF2SC6 SLP077=

CYQG;2006-09-23 04:00;METAR CYQG 230400Z 21006KT 4SM RA BR OVC013 18/16 A2977 RMK SC8 SLP081=

CYQG;2006-09-23 05:00;METAR CYQG 230500Z 20005KT 3SM -RA BR OVC015 18/17 A2973 RERA RMK SC8 SLP067=

CYQG;2006-09-23 05:33;SPECI CYQG 230533Z 20005KT 3SM BR OVC014 RMK SC8=

CYQG;2006-09-23 06:00;METAR CYQG 230600Z 18006KT 3SM BR FEW015 OVC160 18/16 A2969 RMK SF2AC6 SLP054=

CYQG;2006-09-23 06:23;SPECI CYQG 230623Z 00000KT 3SM -SHRA BR SCT006 OVC013 RMK SC4SC4=

CYQG;2006-09-23 06:48;SPECI CYQG 230648Z 17006KT 3SM BR BKN013 OVC110 RMK SC7AC1=

CYQG;2006-09-23 07:00;METAR CYQG 230700Z 17009KT 3SM BR FEW013 OVC110 18/16 A2967 RMK SF1AC8 SLP046=

CYQG;2006-09-23 08:00;METAR CYQG 230800Z 22010KT 5SM BR FEW009 SCT110 BKN190 19/17 A2968 RMK SF2AC2AC2 SLP051=

CYQG;2006-09-23 08:25;SPECI CYQG 230825Z 21008KT 5SM BR BKN004 RMK SF6=

CYQG;2006-09-23 08:46;SPECI CYQG 230846Z 20008KT 3SM BR BKN006 RMK SF7=

CYQG;2006-09-23 09:00;METAR CYQG 230900Z 20008KT 3SM BR OVC005 18/17 A2967 RMK SF8 PRES UNSTDY SLP045=

CYQG;2006-09-23 09:11;SPECI CYQG 230911Z 19012KT 3SM BR OVC003 RMK SF8=

CYQG;2006-09-23 10:00;METAR CYQG 231000Z 20007KT 3SM BR FEW003 BKN020 18/17 A2968 RMK SF2SC6 SLP050=

CYQG;2006-09-23 10:34;SPECI CYQG 231034Z 19006KT 3SM BR FEW005 OVC013 RMK SF2SC6=

CYQG;2006-09-23 11:00;METAR CYQG 231100Z 22006KT 5SM BR OVC007 18/17 A2969 RMK SC8 PRES UNSTDY SLP053=

CYQG;2006-09-23 11:37;SPECI CYQG 231137Z 23005KT 2 1/2SM BR OVC007 RMK SF8=

CYQG;2006-09-23 12:00;METAR CYQG 231200Z 24007KT 2 1/2SM BR BKN008 OVC013 18/17 A2973 RMK SF7SC1 SLP065=

CYQG;2006-09-23 13:00;METAR CYQG 231300Z 23005KT 2 1/2SM BR BKN008 OVC030 19/18 A2973 RMK SF5SC3 SLP067=

CYQG;2006-09-23 13:14;SPECI CYQG 231314Z 21006KT 3SM BR BKN006 OVC032 RMK SF6SC2=

CYQG;2006-09-23 14:00;METAR CYQG 231400Z 21006KT 4SM BR BKN006 OVC033 20/18 A2973 RMK SF5SC3 SLP065=

CYQG;2006-09-23 15:00;METAR CYQG 231500Z 22006KT 4SM BR BKN008 OVC030 20/19 A2972 RMK SF6SC2 SLP064=

CYQG;2006-09-23 16:00;METAR CYQG 231600Z 23008KT 5SM HZ BKN009 OVC031 22/19 A2974 RMK SF6SC2 SLP070=

CYQG;2006-09-23 16:18;SPECI CYQG 231618Z 25007KT 6SM HZ BKN013 BKN030 RMK SC5SC2=

CYQG;2006-09-23 16:34;SPECI CYQG 231634Z 24007KT 6SM HZ SCT014 BKN030 RMK SC3SC4=

CYQG;2006-09-23 17:00;METAR CYQG 231700Z 24007KT 8SM BKN016 OVC030 22/19 A2974 RMK SC7SC1 SLP071=

CYQG;2006-09-23 18:00;METAR CYQG 231800Z 25003KT 10SM FEW018 BKN030 OVC170 23/19 A2972 RMK SC1SC6AC2 SLP063=

CYQG;2006-09-23 19:00;METAR CYQG 231900Z 24005KT 12SM FEW018 OVC027 23/19 A2973 RMK SC1SC7 SLP064=

CYQG;2006-09-23 19:34;SPECI CYQG 231934Z 21004KT 7SM BKN012 OVC025 RMK SC5SC3=

CYQG;2006-09-23 20:00;METAR CYQG 232000Z 20008KT 5SM HZ BKN013 OVC038 22/20 A2971 RMK SC5SC3 SLP058=

CYQG;2006-09-23 20:30;SPECI CYQG 232030Z 22014G19KT 6SM HZ SCT012 OVC025 RMK SC3SC5=

CYQG;2006-09-23 21:00;METAR CYQG 232100Z 20014G21KT 8SM SCT013 OVC028 22/19 A2970 RMK SC4SC4 SLP054=

CYQG;2006-09-23 21:18;SPECI CYQG 232118Z 21011G19KT 5SM -SHRA HZ SCT011 OVC021 RMK SC4SC4=

CYQG;2006-09-23 21:46;SPECI CYQG 232146Z 21009KT 6SM HZ SCT013 OVC033 RMK SC3SC5=

CYQG;2006-09-23 22:00;METAR CYQG 232200Z 20008KT 8SM FEW013 SCT029 BKN052 OVC074 21/18 A2967 RMK SC2SC2SC2AC1 SLP046=

CYQG;2006-09-23 23:00;METAR CYQG 232300Z 19009KT 12SM FEW045 SCT080 OVC260 21/17 A2962 RMK SC2AC1CI3 PRESFR SLP030=

CYQG;2006-09-24 00:00;METAR CYQG 240000Z 20013KT 12SM SCT046 OVC081 21/17 A2961 RMK SC4AC4 SLP026=

CYQG;2006-09-24 00:17;SPECI CYQG 240017Z 19013G19KT 12SM -SHRA BKN033 OVC075 RMK SC6AC2=

CYQG;2006-09-24 00:42;SPECI CYQG 240042Z 20014KT 12SM BKN022 OVC070 RMK SC7AC1=

CYQG;2006-09-24 00:54;SPECI CYQG 240054Z 20013G18KT 12SM -SHRA OVC034 RMK SC8=

CYQG;2006-09-24 01:00;METAR CYQG 240100Z 19011G18KT 12SM -SHRA OVC031 20/18 A2959 RMK SC8 SLP020=

CYQG;2006-09-24 01:44;SPECI CYQG 240144Z 20012G19KT 15SM OVC023 RMK SC8=

CYQG;2006-09-24 02:00;METAR CYQG 240200Z 20011G17KT 15SM OVC023 20/18 A2958 RMK SC8 SLP017=

CYQG;2006-09-24 02:46;SPECI CYQG 240246Z 20017G25KT 12SM -SHRA FEW013 OVC027 RMK SC2SC6=

CYQG;2006-09-24 03:00;METAR CYQG 240300Z 20017G22KT 12SM -SHRA FEW012 OVC024 20/18 A2956 RMK SC2SC6 SLP007=

CYQG;2006-09-24 03:31;SPECI CYQG 240331Z 21017G25KT 12SM SCT019 OVC026 RMK SC4SC4=

CYQG;2006-09-24 03:40;SPECI CYQG 240340Z 21017G26KT 12SM -SHRA SCT019 OVC029 RMK SC4SC4=

CYQG;2006-09-24 04:00;METAR CYQG 240400Z 21020G25KT 7SM -SHRA SCT013 OVC026 20/18 A2954 RMK SC4SC4 SLP001=

CYQG;2006-09-24 04:22;SPECI CYQG 240422Z 23016G26KT 12SM BKN013 OVC016 RMK SC5SC3=

CYQG;2006-09-24 04:33;SPECI CYQG 240433Z 23013G22KT 7SM -SHRA OVC016 RMK SC8=

CYQG;2006-09-24 05:00;METAR CYQG 240500Z 24016G26KT 12SM -SHRA BKN016 OVC060 20/18 A2955 RMK SC5SC3 SLP006=

CYQG;2006-09-24 05:51;SPECI CYQG 240551Z 24009KT 12SM OVC085 RMK AC8=

CYQG;2006-09-24 06:00;METAR CYQG 240600Z 25008KT 12SM OVC085 19/17 A2956 RMK AC8 SLP007=

CYQG;2006-09-24 07:00;METAR CYQG 240700Z 23008KT 15SM BKN110 18/16 A2958 RMK AC6 SLP015=

CYQG;2006-09-24 08:00;METAR CYQG 240800Z 25011KT 15SM FEW015 17/15 A2960 RMK SC1 SLP021=

CYQG;2006-09-24 09:00;METAR CYQG 240900Z 25010KT 15SM FEW015 16/13 A2961 RMK CF1 SLP026=

CYQG;2006-09-24 10:00;METAR CYQG 241000Z 25009KT 15SM FEW015 15/13 A2963 RMK CF1 SLP031=

CYQG;2006-09-24 11:00;METAR CYQG 241100Z 24007KT 7SM FEW080 FEW260 15/13 A2963 RMK AC1CI1 SLP031=

CYQG;2006-09-24 12:00;METAR CYQG 241200Z 24010G15KT 7SM FEW013 SCT022 15/13 A2965 RMK CF1SC2 SLP039=

CYQG;2006-09-24 13:00;METAR CYQG 241300Z 25013KT 15SM FEW013 FEW075 FEW100 16/13 A2965 RMK CF1AC2AC1 SLP040=

CYQG;2006-09-24 14:00;METAR CYQG 241400Z 25016G21KT 15SM FEW020 BKN078 17/12 A2966 RMK CF1AC4 SLP042=

CYQG;2006-09-24 15:00;METAR CYQG 241500Z 27016G25KT 15SM BKN026 18/12 A2968 RMK SC6 SLP049=

CYQG;2006-09-24 16:00;METAR CYQG 241600Z 25016G25KT 15SM -SHRA BKN026 16/13 A2970 RMK SC6 SLP055=

CYQG;2006-09-24 16:21;SPECI CYQG 241621Z 25014G21KT 15SM SCT020 RMK SC3=

CYQG;2006-09-24 17:00;METAR CYQG 241700Z 24015G21KT 15SM BKN040 19/13 A2969 RMK SC7 SLP053=

CYQG;2006-09-24 18:00;METAR CYQG 241800Z 30013G21KT 15SM BKN040 19/11 A2970 RMK SC7 SLP057=

CYQG;2006-09-24 19:00;METAR CYQG 241900Z 28013KT 15SM FEW040 BKN058 19/11 A2971 RMK SC2SC5 SLP061=

CYQG;2006-09-24 20:00;METAR CYQG 242000Z 31010G17KT 15SM FEW037 BKN058 19/11 A2974 RMK SC2SC6 SLP068=

CYQG;2006-09-24 21:00;METAR CYQG 242100Z 29015KT 15SM FEW030 BKN041 17/11 A2977 RMK SC2SC6 SLP080=

CYQG;2006-09-24 22:00;METAR CYQG 242200Z 29015G20KT 15SM BKN036 16/10 A2980 RMK SC7 SLP089=

CYQG;2006-09-24 23:00;METAR CYQG 242300Z 31009G19KT 15SM BKN041 15/09 A2982 RMK SC7 SLP097=

CYQG;2006-09-25 00:00;METAR CYQG 250000Z 32010G19KT 15SM BKN040 15/09 A2985 RMK SC7 SLP108=

CYQG;2006-09-25 01:00;METAR CYQG 250100Z 32010KT 15SM FEW043 14/07 A2988 RMK SC2 SLP117=

CYQG;2006-09-25 02:00;METAR CYQG 250200Z 31005KT 15SM BKN043 13/07 A2989 RMK SC5 SLP123=

CYQG;2006-09-25 03:00;METAR CYQG 250300Z 32006KT 15SM FEW042 13/07 A2991 RMK SC2 SLP129=

CYQG;2006-09-25 04:00;METAR CYQG 250400Z 31004KT 15SM FEW042 12/07 A2992 RMK SC2 SLP134=

CYQG;2006-09-25 05:00;METAR CYQG 250500Z 32005KT 15SM FEW042 11/07 A2992 RMK SC1 SLP133=

CYQG;2006-09-25 06:00;METAR CYQG 250600Z 29005KT 15SM FEW280 10/08 A2992 RMK CI1 SLP134=

CYQG;2006-09-25 07:00;METAR CYQG 250700Z 28005KT 15SM FEW280 09/07 A2993 RMK CI1 SLP135=

CYQG;2006-09-25 08:00;METAR CYQG 250800Z 27006KT 15SM FEW280 08/06 A2993 RMK CI1 SLP135=

CYQG;2006-09-25 09:00;METAR CYQG 250900Z 25006KT 15SM FEW280 08/06 A2993 RMK CI1 SLP137=

CYQG;2006-09-25 10:00;METAR CYQG 251000Z 25005KT 15SM FEW280 08/05 A2994 RMK CI0 SLP139=

CYQG;2006-09-25 11:00;METAR CYQG 251100Z 23005KT 15SM FEW280 07/06 A2993 RMK CI1 SLP138=

CYQG;2006-09-25 12:00;METAR CYQG 251200Z 23004KT 15SM FEW280 07/06 A2994 RMK CI1 SLP141=

CYQG;2006-09-25 13:00;METAR CYQG 251300Z 22007KT 15SM FEW100 FEW280 10/07 A2994 RMK AC1CI1 CI ASOCTD SLP141=

CYQG;2006-09-25 13:22;SPECI CYQG 251322Z 24011KT 15SM SCT020 SCT280 RMK SC2CI1=

CYQG;2006-09-25 14:00;METAR CYQG 251400Z 23010G16KT 15SM FEW280 13/07 A2993 RMK CI0 SLP139=

CYQG;2006-09-25 16:00;METAR CYQG 251600Z 24011KT 15SM SCT280 16/09 A2991 RMK CS1 SLP129=

CYQG;2006-09-25 17:00;METAR CYQG 251700Z 26012G19KT 15SM SCT058 BKN280 18/08 A2987 RMK CU4CI1 SLP118=

CYQG;2006-09-25 18:00;METAR CYQG 251800Z 27010G16KT 15SM BKN055 19/08 A2985 RMK SC7 SLP110=

CYQG;2006-09-25 19:00;METAR CYQG 251900Z 27014G22KT 15SM BKN076 20/07 A2984 RMK AC6 SLP107=

CYQG;2006-09-25 20:00;METAR CYQG 252000Z 26010G22KT 15SM BKN070 20/07 A2984 RMK AC6 SLP105=

CYQG;2006-09-25 21:00;METAR CYQG 252100Z 27016G22KT 15SM BKN067 20/07 A2984 RMK AC6 SLP105=

CYQG;2006-09-25 22:00;METAR CYQG 252200Z 27013G20KT 15SM FEW070 BKN090 BKN280 20/07 A2985 RMK AC2AC4CI1 SLP110=

CYQG;2006-09-25 23:00;METAR CYQG 252300Z 26012G18KT 15SM BKN090 19/07 A2986 RMK AC7 SLP111=

CYQG;2006-09-26 00:00;METAR CYQG 260000Z 27010KT 15SM BKN100 19/07 A2988 RMK AC7 SLP119=

CYQG;2006-09-26 01:00;METAR CYQG 260100Z 27007KT 15SM FEW090 FEW280 18/07 A2990 RMK AC2CI1 SLP126=

CYQG;2006-09-26 02:00;METAR CYQG 260200Z 25006KT 15SM FEW090 16/07 A2992 RMK AC2 SLP131=

CYQG;2006-09-26 03:00;METAR CYQG 260300Z 28007KT 15SM SCT050 16/08 A2993 RMK SC3 SLP136=

CYQG;2006-09-26 04:00;METAR CYQG 260400Z 32006KT 15SM FEW280 16/08 A2995 RMK CI1 SLP143=

CYQG;2006-09-26 05:00;METAR CYQG 260500Z 32005KT 15SM FEW280 14/08 A2996 RMK CI1 SLP145=

CYQG;2006-09-26 06:00;METAR CYQG 260600Z 35006KT 15SM FEW280 13/07 A2997 RMK CI1 SLP149=

CYQG;2006-09-26 07:00;METAR CYQG 260700Z 31002KT 15SM FEW280 11/07 A2998 RMK CI1 SLP152=

CYQG;2006-09-26 08:00;METAR CYQG 260800Z 31002KT 15SM FEW280 10/07 A2998 RMK CI2 SLP153=

CYQG;2006-09-26 09:00;METAR CYQG 260900Z 25003KT 15SM FEW280 10/07 A2999 RMK CI1 SLP158=

CYQG;2006-09-26 10:00;METAR CYQG 261000Z 28006KT 15SM FEW260 10/07 A3001 RMK CI1 SLP165=

CYQG;2006-09-26 11:00;METAR CYQG 261100Z 27003KT 15SM FEW140 FEW260 09/07 A3004 RMK AC1CI1 SLP172=

CYQG;2006-09-26 12:00;METAR CYQG 261200Z 31003KT 15SM FEW280 10/07 A3004 RMK CI1 SLP175=

CYQG;2006-09-26 13:00;METAR CYQG 261300Z 23003KT 15SM FEW280 12/08 A3006 RMK CI1 SLP180=

CYQG;2006-09-26 14:00;METAR CYQG 261400Z 00000KT 15SM SCT280 14/07 A3006 RMK CI2 SLP180=

CYQG;2006-09-26 15:00;METAR CYQG 261500Z 00000KT 15SM SCT280 16/07 A3006 RMK CI1 SLP181=

CYQG;2006-09-26 16:00;METAR CYQG 261600Z 34002KT 15SM FEW040 FEW280 17/07 A3006 RMK CF1CI1 SLP179=

CYQG;2006-09-26 17:00;METAR CYQG 261700Z 27005KT 15SM FEW040 BKN280 18/05 A3004 RMK CF1CI2 SLP174=

CYQG;2006-09-26 18:00;METAR CYQG 261800Z 25006KT 15SM FEW040 BKN280 18/05 A3002 RMK CF1CI1 SLP167=

CYQG;2006-09-26 19:00;METAR CYQG 261900Z 28002KT 15SM FEW040 BKN280 19/07 A3000 RMK CF1CI2 SLP159=

CYQG;2006-09-26 20:00;METAR CYQG 262000Z 21004KT 15SM FEW045 BKN280 20/05 A2998 RMK SC1CI1 SLP154=

CYQG;2006-09-26 21:00;METAR CYQG 262100Z 22006KT 15SM FEW045 BKN270 20/06 A2997 RMK CF1CI2 SLP148=

CYQG;2006-09-26 22:00;METAR CYQG 262200Z 20007KT 15SM BKN270 19/07 A2995 RMK CI2 SLP142=

CYQG;2006-09-26 23:00;METAR CYQG 262300Z 17006KT 15SM BKN270 17/08 A2993 RMK CI3 SLP137=

CYQG;2006-09-27 00:00;METAR CYQG 270000Z 16005KT 15SM SCT260 15/08 A2993 RMK CI2 SLP137=

CYQG;2006-09-27 01:00;METAR CYQG 270100Z 15004KT 15SM FEW260 14/09 A2992 RMK CI1 SLP135=

CYQG;2006-09-27 02:00;METAR CYQG 270200Z 16004KT 15SM SKC 13/09 A2991 RMK SLP130=

CYQG;2006-09-27 03:00;METAR CYQG 270300Z 16006KT 15SM SKC 13/10 A2989 RMK SLP121=

CYQG;2006-09-27 04:00;METAR CYQG 270400Z 15004KT 15SM SKC 13/10 A2987 RMK SLP116=

CYQG;2006-09-27 05:00;METAR CYQG 270500Z 18006KT 15SM SKC 14/11 A2985 RMK SLP110=

CYQG;2006-09-27 06:00;METAR CYQG 270600Z 20009KT 15SM SCT062 16/12 A2984 RMK SC4 SLP103=

CYQG;2006-09-27 07:00;METAR CYQG 270700Z 21008KT 15SM BKN042 16/12 A2983 RMK SC5 SLP099=

CYQG;2006-09-27 08:00;METAR CYQG 270800Z 21008KT 15SM FEW280 15/12 A2981 RMK CI1 SLP094=

CYQG;2006-09-27 09:00;METAR CYQG 270900Z 21008KT 15SM FEW260 16/11 A2981 RMK CI1 SLP093=

CYQG;2006-09-27 10:00;METAR CYQG 271000Z 21006KT 15SM SCT042 SCT260 15/12 A2982 RMK SC3CI1 SLP098=

CYQG;2006-09-27 11:00;METAR CYQG 271100Z 20008KT 15SM FEW045 FEW260 15/12 A2979 RMK SC2CI1 SLP086=

CYQG;2006-09-27 12:00;METAR CYQG 271200Z 21010KT 15SM SCT072 BKN280 15/12 A2978 RMK AC4CI1 SLP085=

CYQG;2006-09-27 13:00;METAR CYQG 271300Z 21011KT 15SM SCT080 BKN280 17/12 A2977 RMK AC3CI1 SLP083=

CYQG;2006-09-27 14:00;METAR CYQG 271400Z 21014KT 15SM SCT080 BKN280 18/13 A2976 RMK AC2CI1 SLP079=

CYQG;2006-09-27 15:00;METAR CYQG 271500Z 21017KT 15SM FEW030 SCT080 BKN280 19/13 A2975 RMK CU2AC2CI0 SLP074=

CYQG;2006-09-27 16:50;SPECI CYQG 271650Z 21011G16KT 15SM -SHRA SCT080 BKN110 RMK AC3AC4=

CYQG;2006-09-27 17:00;METAR CYQG 271700Z 20012G17KT 15SM -SHRA FEW075 BKN110 21/13 A2972 RMK AC2AC5 SLP064=

CYQG;2006-09-27 17:22;SPECI CYQG 271722Z 20012G19KT 15SM BKN080 BKN110 RMK AC5AC2=

CYQG;2006-09-27 18:00;METAR CYQG 271800Z 19010KT 15SM BKN090 BKN280 22/13 A2969 RMK AC6CI0 SLP053=

CYQG;2006-09-27 19:00;METAR CYQG 271900Z 21015G25KT 15SM BKN140 BKN280 22/12 A2967 RMK AC5CS2 SLP046=

CYQG;2006-09-27 19:10;SPECI CYQG 271910Z 22017G24KT 15SM -SHRA FEW090 BKN120 OVC280 RMK AC2AC5CS1=

CYQG;2006-09-27 19:28;SPECI CYQG 271928Z 22014G20KT 15SM FEW090 BKN160 BKN280 RMK AC2AC5CI1=

CYQG;2006-09-27 20:00;METAR CYQG 272000Z 22014KT 15SM FEW090 BKN130 OVC280 23/13 A2966 RMK AC2AC6CS1 SLP043=

CYQG;2006-09-27 21:00;METAR CYQG 272100Z 22011KT 15SM SCT090 BKN160 BKN280 23/13 A2964 RMK AC3AC3CI1 SLP037=

CYQG;2006-09-27 21:17;SPECI CYQG 272117Z 22012G17KT 12SM -SHRA SCT090 OVC160 RMK AC3AC5=

CYQG;2006-09-27 21:40;SPECI CYQG 272140Z 22011KT 15SM FEW080 BKN150 BKN280 RMK AC2AC5CS1=

CYQG;2006-09-27 22:00;METAR CYQG 272200Z 23015KT 15SM FEW080 BKN130 BKN280 23/12 A2964 RMK AC2AC4CS2 SLP036=

CYQG;2006-09-27 22:28;SPECI CYQG 272228Z 22010KT 15SM -SHRA BKN060 OVC130 RMK SC5AC3=

CYQG;2006-09-27 23:00;METAR CYQG 272300Z 26009KT 12SM -TSRA BKN055CB OVC120 19/14 A2967 RMK CB6AC2 SLP046=

CYQG;2006-09-27 23:53;SPECI CYQG 272353Z 23004KT 15SM -SHRA FEW035CB BKN075 RETSRA RMK CB2AC5=

CYQG;2006-09-28 00:00;METAR CYQG 280000Z 22005KT 15SM -SHRA FEW035CB BKN075 BKN120 17/15 A2968 RETSRA RMK CB2AC5AC1 SLP051=

CYQG;2006-09-28 01:00;METAR CYQG 280100Z 25005KT 15SM -SHRA BKN052 OVC080 17/15 A2970 RMK SC6AC2 SLP058=

CYQG;2006-09-28 02:00;METAR CYQG 280200Z 30005KT 15SM -SHRA FEW030 OVC070 17/13 A2971 RMK SC2AC6 SLP062=

CYQG;2006-09-28 02:20;SPECI CYQG 280220Z 31003KT 15SM FEW030 OVC070 RMK SC2AC6=

CYQG;2006-09-28 03:00;METAR CYQG 280300Z 32009KT 15SM FEW030 BKN090 16/11 A2973 RMK SC1AC6 SLP066=

CYQG;2006-09-28 04:00;METAR CYQG 280400Z 32009KT 15SM FEW090 BKN270 14/10 A2974 RMK AC2CI3 SLP070=

CYQG;2006-09-28 05:00;METAR CYQG 280500Z 30006KT 15SM FEW085 SCT150 BKN260 14/10 A2975 RMK AC2AC2CI1 SLP072=

CYQG;2006-09-28 06:00;METAR CYQG 280600Z 32010KT 15SM BKN019 BKN190 13/09 A2975 RMK SC5AC2 SLP075=

CYQG;2006-09-28 07:00;METAR CYQG 280700Z 33008KT 15SM FEW020 BKN088 BKN180 12/08 A2976 RMK SC2AC3AC2 SLP076=

CYQG;2006-09-28 08:00;METAR CYQG 280800Z 32009KT 15SM FEW020 BKN084 BKN160 12/08 A2977 RMK SC2AC3AC2 SLP079=

CYQG;2006-09-28 09:00;METAR CYQG 280900Z 35009KT 15SM FEW020 SCT085 BKN180 11/07 A2976 RMK SC1AC3AC2 SLP077=

CYQG;2006-09-28 10:00;METAR CYQG 281000Z 32010KT 15SM SCT020 BKN190 11/07 A2977 RMK SC3AC3 SLP081=

CYQG;2006-09-28 11:00;METAR CYQG 281100Z 33006KT 15SM FEW020 OVC160 11/07 A2978 RMK SC2AC6 SLP085=

CYQG;2006-09-28 12:00;METAR CYQG 281200Z 33010KT 15SM FEW015 BKN120 BKN280 10/07 A2980 RMK CU2AC3CI2 SLP092=

CYQG;2006-09-28 13:00;METAR CYQG 281300Z 34011KT 15SM FEW018 BKN160 BKN270 10/07 A2979 RMK CU2AC3CS2 SLP090=

CYQG;2006-09-28 14:00;METAR CYQG 281400Z 34010KT 15SM FEW018 SCT190 BKN270 11/07 A2982 RMK CU2AC2CS3 SLP098=

CYQG;2006-09-28 15:00;METAR CYQG 281500Z 34011KT 15SM FEW020 SCT180 BKN270 11/06 A2982 RMK SC2AC2CS3 SLP098=

CYQG;2006-09-28 16:00;METAR CYQG 281600Z 36009G15KT 15SM FEW020 BKN260 11/06 A2981 RMK SC2CS5 SLP097=

CYQG;2006-09-28 17:00;METAR CYQG 281700Z 34008KT 15SM BKN025 BKN260 12/06 A2981 RMK SC5CS2 SLP097=

CYQG;2006-09-28 18:00;METAR CYQG 281800Z 33008KT 15SM BKN036 BKN260 13/06 A2982 RMK SC6CS2 SLP099=

CYQG;2006-09-28 19:00;METAR CYQG 281900Z 36008KT 15SM BKN042 13/05 A2982 RMK SC7 SLP100=

CYQG;2006-09-28 20:00;METAR CYQG 282000Z 34009KT 15SM BKN057 BKN260 14/05 A2982 RMK CU6CI1 SLP099=

CYQG;2006-09-28 21:00;METAR CYQG 282100Z 30009KT 15SM SCT040 SCT260 13/04 A2982 RMK SC3CI1 SLP098=

CYQG;2006-09-28 22:00;METAR CYQG 282200Z 32009G16KT 15SM SCT042 SCT260 14/04 A2984 RMK SC3CI1 SLP105=

CYQG;2006-09-28 23:00;METAR CYQG 282300Z 01008KT 15SM BKN047 13/03 A2986 RMK SC6 SLP112=

CYQG;2006-09-29 00:00;METAR CYQG 290000Z 36005KT 15SM SCT047 BKN062 12/05 A2986 RMK SC3SC2 SLP115=

CYQG;2006-09-29 01:00;METAR CYQG 290100Z 36005KT 15SM FEW060 11/05 A2988 RMK SC1 SLP119=

CYQG;2006-09-29 02:00;METAR CYQG 290200Z 36007KT 15SM FEW060 10/06 A2989 RMK SC1 SLP123=

CYQG;2006-09-29 03:00;METAR CYQG 290300Z 34004KT 15SM FEW060 09/06 A2989 RMK SC1 SLP126=

CYQG;2006-09-29 04:00;METAR CYQG 290400Z 35005KT 15SM SKC 08/06 A2991 RMK SLP130=

CYQG;2006-09-29 05:00;METAR CYQG 290500Z 34005KT 15SM SKC 08/06 A2990 RMK SLP129=

CYQG;2006-09-29 06:00;METAR CYQG 290600Z 34005KT 15SM SKC 08/06 A2991 RMK SLP131=

CYQG;2006-09-29 07:00;METAR CYQG 290700Z 32005KT 15SM SKC 07/05 A2991 RMK SLP132=

CYQG;2006-09-29 08:00;METAR CYQG 290800Z 31003KT 15SM SCT056 07/05 A2992 RMK SC3 SLP133=

CYQG;2006-09-29 09:00;METAR CYQG 290900Z 29004KT 15SM FEW060 06/05 A2992 RMK SC1 SLP136=

CYQG;2006-09-29 10:00;METAR CYQG 291000Z 28005KT 15SM FEW060 06/04 A2994 RMK SC1 SLP140=

CYQG;2006-09-29 11:00;METAR CYQG 291100Z 29004KT 15SM FEW030 06/04 A2994 RMK SC1 SLP141=

CYQG;2006-09-29 12:00;METAR CYQG 291200Z 27005KT 15SM FEW040 06/04 A2995 RMK CU1 SLP146=

CYQG;2006-09-29 13:00;METAR CYQG 291300Z 28004KT 15SM FEW060 08/05 A2996 RMK SC1 SLP149=

CYQG;2006-09-29 14:00;METAR CYQG 291400Z 28005KT 15SM FEW030 FEW060 FEW280 10/06 A2996 RMK CF1SC1CI0 CF DIST S SLP149=

CYQG;2006-09-29 15:00;METAR CYQG 291500Z 27007KT 15SM FEW030 FEW080 FEW280 12/04 A2997 RMK CU1AC1CI0 SLP151=

CYQG;2006-09-29 16:00;METAR CYQG 291600Z 27005KT 15SM FEW040 FEW100 BKN260 13/02 A2996 RMK CU1AC2CC1 SLP148=

CYQG;2006-09-29 17:00;METAR CYQG 291700Z 23007KT 15SM FEW060 BKN280 14/01 A2995 RMK CU2CC1 SLP146=

CYQG;2006-09-29 18:00;METAR CYQG 291800Z 22005KT 15SM SCT060 BKN270 14/01 A2995 RMK SC4CC2 SLP143=

CYQG;2006-09-29 19:00;METAR CYQG 291900Z 22011KT 15SM SCT050 BKN100 BKN270 15/03 A2992 RMK SC3AC2CC1 SLP136=

CYQG;2006-09-29 20:00;METAR CYQG 292000Z 21007KT 15SM FEW060 BKN095 14/04 A2991 RMK SC2AC3 SLP132=

CYQG;2006-09-29 21:00;METAR CYQG 292100Z 21010G15KT 15SM BKN098 BKN110 15/03 A2991 RMK AC5AC2 SLP130=

CYQG;2006-09-29 22:00;METAR CYQG 292200Z 20009KT 15SM FEW060 BKN095 14/03 A2990 RMK SC1AC6 SLP129=

CYQG;2006-09-29 22:39;SPECI CYQG 292239Z 23004KT 15SM -SHRA FEW058 BKN060 RMK SC1SC7=

CYQG;2006-09-29 22:55;SPECI CYQG 292255Z 23002KT 15SM BKN060 BKN095 RMK SC6AC1=

CYQG;2006-09-29 23:00;METAR CYQG 292300Z 23002KT 15SM BKN060 BKN095 14/04 A2991 RMK SC6AC1 SLP131=

CYQG;2006-09-30 00:00;METAR CYQG 300000Z 18004KT 15SM SCT100 BKN150 13/05 A2991 RMK AC4AC3 SLP132=

CYQG;2006-09-30 01:00;METAR CYQG 300100Z 17005KT 15SM SCT080 12/06 A2992 RMK AC4 SLP133=

CYQG;2006-09-30 02:00;METAR CYQG 300200Z 17005KT 15SM FEW090 OVC110 11/06 A2992 RMK AC2AC6 SLP134=

CYQG;2006-09-30 03:00;METAR CYQG 300300Z 17004KT 15SM OVC089 12/06 A2991 RMK AC8 SLP131=

CYQG;2006-09-30 04:00;METAR CYQG 300400Z 18004KT 15SM OVC092 12/06 A2991 RMK AC8 SLP130=

CYQG;2006-09-30 05:00;METAR CYQG 300500Z 18006KT 15SM OVC079 13/06 A2990 RMK AC8 SLP127=

CYQG;2006-09-30 06:00;METAR CYQG 300600Z 19008KT 15SM OVC066 13/06 A2989 RMK AC8 SLP123=

CYQG;2006-09-30 07:00;METAR CYQG 300700Z 23011KT 15SM OVC062 13/05 A2990 RMK SC8 SLP125=

CYQG;2006-09-30 07:38;SPECI CYQG 300738Z 23007KT 15SM -SHRA OVC059 RMK SC8=

CYQG;2006-09-30 08:00;METAR CYQG 300800Z 22006KT 15SM -SHRA SCT060 OVC091 12/06 A2989 RMK SC4AC4 SLP123=

CYQG;2006-09-30 09:00;METAR CYQG 300900Z 21005KT 10SM -SHRA BKN052 OVC088 10/07 A2988 RMK SC6AC2 SLP120=

CYQG;2006-09-30 10:00;METAR CYQG 301000Z 18007KT 6SM -RA BR OVC047 10/09 A2987 RMK SC8 SLP116=

CYQG;2006-09-30 11:00;METAR CYQG 301100Z 18009KT 6SM -RA BR OVC044 10/09 A2986 RMK SC8 SLP114=

CYQG;2006-09-30 12:00;METAR CYQG 301200Z 18010KT 6SM -RA BR FEW012 OVC040 11/09 A2985 RMK SF2SC6 SLP111=

CYQG;2006-09-30 13:00;METAR CYQG 301300Z 18008KT 6SM -RA BR SCT010 OVC040 11/10 A2984 RMK SF4SC4 SLP107=

CYQG;2006-09-30 14:00;METAR CYQG 301400Z 18012KT 12SM FEW012 OVC041 11/09 A2983 RMK SF1SC7 SLP103=

CYQG;2006-09-30 15:00;METAR CYQG 301500Z 18009G15KT 12SM OVC021 12/09 A2983 RMK SC8 SLP102=

CYQG;2006-09-30 16:00;METAR CYQG 301600Z 19011KT 15SM OVC019 13/10 A2980 RMK SC8 SLP095=

CYQG;2006-09-30 16:35;SPECI CYQG 301635Z 20013KT 8SM -RA OVC018 RMK SC8=

CYQG;2006-09-30 17:00;METAR CYQG 301700Z 20010KT 5SM -RA BR FEW011 OVC018 12/10 A2980 RMK SF2SC6 SLP093=

CYQG;2006-09-30 17:46;SPECI CYQG 301746Z 19008KT 7SM OVC010 RMK SC8=

CYQG;2006-09-30 18:00;METAR CYQG 301800Z 20011KT 7SM OVC011 13/11 A2978 RMK SC8 SLP085=

CYQG;2006-09-30 18:10;SPECI CYQG 301810Z 19009G15KT 6SM -RA BR OVC009 RMK SC8=

CYQG;2006-09-30 19:00;METAR CYQG 301900Z 20007KT 5SM -RA BR OVC012 14/12 A2976 RMK SC8 SLP080=

CYQG;2006-09-30 19:50;SPECI CYQG 301950Z 20006KT 5SM BR OVC020 RMK SC8=

CYQG;2006-09-30 20:00;METAR CYQG 302000Z 20005KT 8SM OVC021 14/11 A2976 RMK SC8 SLP080=

CYQG;2006-09-30 21:00;METAR CYQG 302100Z 19007KT 8SM SCT035 BKN055 BKN260 15/12 A2975 RMK CF4SC2CC2 SLP077=

CYQG;2006-09-30 22:00;METAR CYQG 302200Z 00000KT 10SM SCT050CB BKN100 15/12 A2975 RMK CB3AC4 CB E TO SW SLP077=

CYQG;2006-09-30 23:03;SPECI CYQG 302303Z 00000KT 10SM TS FEW020 BKN060CB BKN090 RMK SC2CB3AC2 LTGIC S=

CYQG;2006-09-30 23:10;SPECI CYQG 302310Z 25005KT 10SM -TSRA FEW020 BKN060CB OVC090 RMK SC2CB4AC2 LTGIC S=

CYQG;2006-09-30 23:20;SPECI CYQG 302320Z 25005KT 8SM SHRA BKN018CB OVC060 RMK CB6SC2 LTGIC S=

CYQG;2006-09-30 23:31;SPECI CYQG 302331Z 24011KT 7SM TSRA BKN030CB OVC060 RMK CB7SC1=

CYQG;2006-10-01 00:00;METAR CYQG 010000Z 24006KT 6SM TSRA SCT062 BKN081CB 12/10 A2979 RMK SC4CB3 SLP088=

CYQG;2006-10-01 00:25;SPECI CYQG 010025Z 27004KT 8SM FEW095 BKN260 RERATS RMK AC2CS3=

CYQG;2006-10-01 01:00;METAR CYQG 010100Z 25004KT 10SM BKN140 12/10 A2980 RETSRA RMK AS3 SLP093=

CYQG;2006-10-01 03:00;METAR CYQG 010300Z 24005KT 10SM SKC 11/10 A2984 RMK SLP106=

CYQG;2006-10-01 04:00;METAR CYQG 010400Z 24003KT 10SM SCT260 10/09 A2985 RMK CI2 SLP110=

CYQG;2006-10-01 05:00;METAR CYQG 010500Z 23005KT 10SM FEW030 SCT260 10/09 A2986 RMK SC1CI1 SLP114=

CYQG;2006-10-01 06:00;METAR CYQG 010600Z 23005KT 8SM SCT260 10/09 A2986 RMK CI1 SLP115=

CYQG;2006-10-01 07:00;METAR CYQG 010700Z 23004KT 7SM BKN083 10/09 A2988 RMK AC6 SLP119=

CYQG;2006-10-01 08:00;METAR CYQG 010800Z 25006KT 8SM SCT085 10/09 A2989 RMK AC3 SLP123=

CYQG;2006-10-01 09:00;METAR CYQG 010900Z 26004KT 8SM FEW085 09/09 A2990 RMK AC2 SLP128=

CYQG;2006-10-01 10:00;METAR CYQG 011000Z 27004KT 10SM SKC 09/08 A2992 RMK SLP135=

CYQG;2006-10-01 11:00;METAR CYQG 011100Z 27004KT 7SM FEW020 09/08 A2995 RMK SC1 CB ASOCTD E SLP142=

CYQG;2006-10-01 12:00;METAR CYQG 011200Z 27005KT 12SM FEW020 09/08 A2998 RMK SC1 SLP154=

CYQG;2006-10-01 13:00;METAR CYQG 011300Z 29006KT 15SM SKC 11/10 A3000 RMK SLP162=

CYQG;2006-10-01 14:00;METAR CYQG 011400Z 28007KT 15SM SKC 13/11 A3003 RMK SLP170=

CYQG;2006-10-01 15:00;METAR CYQG 011500Z 27006KT 15SM FEW020 FEW270 15/11 A3005 RMK CU1CI1 SLP178=

CYQG;2006-10-01 16:00;METAR CYQG 011600Z 31009KT 15SM FEW028 FEW280 17/11 A3006 RMK CU1CI1 SLP181=

CYQG;2006-10-01 17:00;METAR CYQG 011700Z 28008KT 15SM SCT034 17/10 A3006 RMK CU4 SLP182=

CYQG;2006-10-01 18:00;METAR CYQG 011800Z 28014KT 15SM SCT050 19/10 A3006 RMK CU3 SLP179=

CYQG;2006-10-01 19:00;METAR CYQG 011900Z 32011G17KT 15SM FEW058 20/09 A3005 RMK CU2 SLP176=

CYQG;2006-10-01 20:00;METAR CYQG 012000Z 29010G16KT 15SM SCT054 SCT260 19/08 A3006 RMK CU3CI1 SLP179=

CYQG;2006-10-01 21:00;METAR CYQG 012100Z 29009KT 15SM FEW056 20/08 A3007 RMK CU2 SLP183=

CYQG;2006-10-01 22:00;METAR CYQG 012200Z 31011KT 15SM FEW056 20/08 A3008 RMK CU1 SLP188=

CYQG;2006-10-01 23:00;METAR CYQG 012300Z 33003KT 15SM FEW260 18/08 A3010 RMK CI1 SLP192=

CYQG;2006-10-02 00:00;METAR CYQG 020000Z 36002KT 15SM FEW250 15/08 A3011 RMK CI1 SLP197=

CYQG;2006-10-02 01:00;METAR CYQG 020100Z 14003KT 15SM SKC 13/09 A3012 RMK SLP201=

CYQG;2006-10-02 02:00;METAR CYQG 020200Z 17003KT 15SM SKC 12/09 A3013 RMK SLP204=

CYQG;2006-10-02 03:00;METAR CYQG 020300Z 00000KT 15SM SKC 11/09 A3013 RMK SLP203=

CYQG;2006-10-02 04:00;METAR CYQG 020400Z 10002KT 15SM SKC 10/08 A3014 RMK SLP206=

CYQG;2006-10-02 05:00;METAR CYQG 020500Z 13003KT 15SM FEW220 10/08 A3013 RMK CI1 SLP203=

CYQG;2006-10-02 06:00;METAR CYQG 020600Z 00000KT 15SM SKC 09/08 A3014 RMK SLP207=

CYQG;2006-10-02 09:00;METAR CYQG 020900Z 10004KT 15SM BKN130 BKN220 11/10 A3014 RMK AC5CI1 SLP206=

CYQG;2006-10-02 10:00;METAR CYQG 021000Z 15003KT 15SM SCT140 SCT220 12/11 A3014 RMK AC3CI1 SLP208=

CYQG;2006-10-02 11:00;METAR CYQG 021100Z 19003KT 7SM SCT140 BKN260 12/12 A3015 RMK AC4CI3 SLP210=

CYQG;2006-10-02 12:00;METAR CYQG 021200Z 15003KT 7SM SCT130 BKN260 13/12 A3015 RMK AC3CS4 SLP212=

CYQG;2006-10-02 13:00;METAR CYQG 021300Z 22002KT 10SM -SHRA SCT047 OVC110 14/13 A3016 RMK SC4AC4 SLP213=

CYQG;2006-10-02 14:00;METAR CYQG 021400Z 22007KT 6SM -RA BR BKN060 OVC110 14/13 A3017 RMK SC5AS3 SLP218=

CYQG;2006-10-02 15:00;METAR CYQG 021500Z 21007KT 6SM -RA BR OVC058 14/13 A3015 RMK SC8 SLP212=

CYQG;2006-10-02 16:00;METAR CYQG 021600Z 18005KT 8SM -RA SCT050 OVC110 14/13 A3015 RMK SC4AS4 SLP213=

CYQG;2006-10-02 16:46;SPECI CYQG 021646Z 18008KT 12SM FEW050 OVC110 RMK SC2AS6=

CYQG;2006-10-02 17:00;METAR CYQG 021700Z 17008KT 10SM FEW050 BKN110 OVC220 15/14 A3014 RMK SC2AC5CS2 SLP208=

CYQG;2006-10-02 19:00;METAR CYQG 021900Z 19013G18KT 15SM FEW110 OVC230 18/14 A3005 RMK AC1CS7 SLP178=

CYQG;2006-10-02 20:00;METAR CYQG 022000Z 19011KT 15SM FEW100 OVC240 19/14 A3001 RMK AC1CS7 SLP164=

CYQG;2006-10-02 21:00;METAR CYQG 022100Z 20007KT 15SM OVC230 19/15 A3001 RMK CS8 SLP163=

CYQG;2006-10-02 22:00;METAR CYQG 022200Z 21009KT 15SM FEW045 FEW140 BKN230 20/15 A3001 RMK CU1AC2CI4 SLP162=

CYQG;2006-10-02 23:00;METAR CYQG 022300Z 19003KT 15SM FEW100 BKN230 18/14 A3003 RMK AC2CI2 SLP170=

CYQG;2006-10-03 00:00;METAR CYQG 030000Z 15005KT 15SM FEW230 16/13 A3004 RMK CI2 SLP173=

CYQG;2006-10-03 01:00;METAR CYQG 030100Z 14006KT 15SM SCT230 15/13 A3004 RMK CS1 SLP174=

CYQG;2006-10-03 02:00;METAR CYQG 030200Z 13004KT 15SM FEW230 15/13 A3004 RMK CS1 SLP174=

CYQG;2006-10-03 04:00;METAR CYQG 030400Z 13004KT 15SM BKN100 BKN170 16/14 A3006 RMK AC5AC2 SLP180=

CYQG;2006-10-03 05:00;METAR CYQG 030500Z 25003KT 15SM BKN110 16/14 A3008 RMK AC7 SLP186=

CYQG;2006-10-03 05:29;SPECI CYQG 030529Z 21005KT 15SM TS BKN083 RMK AC7 LTGIC S CB ASOCTD=

CYQG;2006-10-03 06:20;SPECI CYQG 030620Z 18005KT 15SM SCT090 BKN160 RETS RMK AC3AC4 OCNL LTGIC DIST SE OCNL -SHRA=

CYQG;2006-10-03 07:00;METAR CYQG 030700Z 19005KT 15SM FEW160 OVC240 17/14 A3002 RETS RMK AC2CI6 SLP167=

CYQG;2006-10-03 08:00;METAR CYQG 030800Z 17007KT 15SM OVC170 17/14 A3001 RMK AC8 SLP161=

CYQG;2006-10-03 09:00;METAR CYQG 030900Z 19005KT 8SM OVC150 17/14 A3001 RMK AC8 SLP162=

CYQG;2006-10-03 09:49;SPECI CYQG 030949Z 29010KT 8SM -SHRA OVC031 RMK SC8 OCNL LTGIC NW=

CYQG;2006-10-03 09:56;SPECI CYQG 030956Z 29012KT 5SM TSRA BR OVC023 RMK SC8 LTGIC NW CB ASOCTD=

CYQG;2006-10-03 10:00;METAR CYQG 031000Z 29010KT 5SM TSRA BR OVC021 16/14 A3008 RMK SC8 LTGIC NW CB ASOCTD PRESRR SLP185=

CYQG;2006-10-03 10:32;SPECI CYQG 031032Z 05006KT 5SM -SHRA BR FEW033 OVC110 RETSRA RMK SC2AC6=

CYQG;2006-10-03 11:00;METAR CYQG 031100Z 12006KT 3SM -SHRA BR SCT072 OVC096 16/15 A3004 RETSRA RMK AC3AC5 SLP173=

CYQG;2006-10-03 11:30;SPECI CYQG 031130Z 23007KT 2 1/2SM -SHRA BR FEW004 FEW010 OVC016 RMK SF1SF2SC6=

CYQG;2006-10-03 12:00;METAR CYQG 031200Z 23004KT 1 1/2SM SHRA BR FEW010 OVC019 16/15 A3009 RMK FG1SF1SC6 SLP191=

CYQG;2006-10-03 12:49;SPECI CYQG 031249Z 19003KT 2SM -SHRA BR FEW012 BKN032 OVC060 RERA RMK FG1SF1SC5SC2=

CYQG;2006-10-03 13:00;METAR CYQG 031300Z 19002KT 2SM -SHRA BR FEW025 OVC055 16/15 A3010 RERA RMK FG1SC1SC6 SLP194=

CYQG;2006-10-03 14:00;METAR CYQG 031400Z 26003KT 2 1/2SM -SHRA BR OVC051 16/15 A3012 RMK SC8 SLP199=

CYQG;2006-10-03 14:44;SPECI CYQG 031444Z 30006KT 2 1/2SM BR BKN052 BKN080 RMK SC6AC1=

CYQG;2006-10-03 15:00;METAR CYQG 031500Z 28006KT 2 1/2SM BR BKN052 BKN080 17/16 A3013 RMK SC6AC1 SLP203=

CYQG;2006-10-03 15:32;SPECI CYQG 031532Z 32005KT 4SM BR SCT050 BKN260 RMK SC4CI1=

CYQG;2006-10-03 16:00;METAR CYQG 031600Z 33003KT 7SM FEW050 FEW270 20/18 A3013 RMK SC1CI1 SLP202=

CYQG;2006-10-03 17:00;METAR CYQG 031700Z 00000KT 15SM FEW025 BKN270 22/17 A3011 RMK CF1CI1 SLP198=

CYQG;2006-10-03 18:00;METAR CYQG 031800Z 05003KT 15SM FEW030 BKN270 23/17 A3011 RMK SC1CI2 SLP194=

CYQG;2006-10-03 19:00;METAR CYQG 031900Z 00000KT 15SM FEW030 BKN270 24/17 A3011 RMK SC1CS6 SLP193=

CYQG;2006-10-03 20:00;METAR CYQG 032000Z 26005KT 15SM FEW030 BKN250 24/15 A3010 RMK SC1CS5 SLP190=

CYQG;2006-10-03 21:00;METAR CYQG 032100Z 22006KT 15SM FEW032 BKN250 23/16 A3010 RMK SC1CI3 SLP191=

CYQG;2006-10-03 22:00;METAR CYQG 032200Z 17007KT 15SM BKN260 23/16 A3011 RMK CI2 SLP193=

CYQG;2006-10-03 23:00;METAR CYQG 032300Z 16005KT 15SM FEW250 21/16 A3010 RMK CI1 SLP192=

CYQG;2006-10-04 00:00;METAR CYQG 040000Z 16005KT 15SM FEW250 18/15 A3011 RMK CI1 SLP195=

CYQG;2006-10-04 01:00;METAR CYQG 040100Z 16006KT 15SM SKC 17/15 A3011 RMK SLP196=

CYQG;2006-10-04 02:00;METAR CYQG 040200Z 15005KT 15SM SKC 17/15 A3010 RMK SLP192=

CYQG;2006-10-04 03:00;METAR CYQG 040300Z 16008KT 15SM FEW230 17/15 A3007 RMK CI2 SLP184=

CYQG;2006-10-04 04:00;METAR CYQG 040400Z 17006KT 15SM SCT220 17/15 A3007 RMK CI3 SLP181=

CYQG;2006-10-04 05:00;METAR CYQG 040500Z 16007KT 15SM FEW130 BKN220 18/15 A3002 RMK AC2CI3 SLP167=

CYQG;2006-10-04 06:00;METAR CYQG 040600Z 21008KT 15SM FEW086 BKN250 19/16 A3000 RMK AC2CI5 SLP158=

CYQG;2006-10-04 07:00;METAR CYQG 040700Z 20010KT 15SM FEW090 OVC260 19/16 A2998 RMK AC1CI7 SLP150=

CYQG;2006-10-04 08:00;METAR CYQG 040800Z 21009KT 8SM FEW090 OVC260 19/17 A2995 RMK AC1CI7 SLP140=

CYQG;2006-10-04 09:00;METAR CYQG 040900Z 22007KT 6SM HZ FEW094 OVC240 19/17 A2994 RMK AC2CI6 SLP137=

CYQG;2006-10-04 10:00;METAR CYQG 041000Z 01008G15KT 6SM BR FEW011 SCT095 OVC230 19/17 A2996 RMK SC2AC1CI5 PRESRR SLP144=

CYQG;2006-10-04 11:00;METAR CYQG 041100Z 09007KT 7SM BKN022 OVC095 20/17 A2995 RMK SC6AC2 SLP139=

CYQG;2006-10-04 11:43;SPECI CYQG 041143Z 00000KT 6SM -SHRA BKN030 OVC095 RMK CU5AC3=

CYQG;2006-10-04 12:00;METAR CYQG 041200Z 13004KT 6SM -SHRA HZ BKN027 OVC090 19/17 A2993 RMK CU6AC2 SLP134=

CYQG;2006-10-04 12:15;SPECI CYQG 041215Z 22002KT 6SM -TSRA HZ SCT030CB OVC090 RMK CB4AC4 LTGIC OVHD=

CYQG;2006-10-04 12:20;SPECI CYQG 041220Z 27006KT 3/4SM +TSRA BKN030CB OVC090 RMK RA3CB3AC2 TS OVHD FRQ LTGIC OVHD=

CYQG;2006-10-04 12:26;SPECI CYQG 041226Z 18006G17KT 3SM TSRA SCT030CB OVC090 RMK CB4AC4 FRG LTGIC E=

CYQG;2006-10-04 12:43;SPECI CYQG 041243Z 18012KT 4SM -SHRA SCT030CB BKN085 OVC280 RETSRA RMK CB3AC2CI2=

CYQG;2006-10-04 13:00;METAR CYQG 041300Z 18010KT 2 1/2SM -SHRA BR FEW030 BKN080 OVC280 19/18 A2991 RETSRA RMK CU2AC3CI2 SLP127=

CYQG;2006-10-04 13:43;SPECI CYQG 041343Z 23009KT 6SM BR FEW030 BKN100 OVC280 RMK CU2AC4CI2=

CYQG;2006-10-04 14:00;METAR CYQG 041400Z 26009KT 6SM BR BKN120 OVC280 20/19 A2990 RMK AC6CI2 SLP124=

CYQG;2006-10-04 14:54;SPECI CYQG 041454Z 26012G17KT 6SM -SHRA BR SCT060 OVC120 RMK SC3AC5=

CYQG;2006-10-04 15:00;METAR CYQG 041500Z 25012G17KT 7SM -SHRA FEW060 BKN120 22/19 A2994 RMK SC2AC5 SLP138=

CYQG;2006-10-04 15:16;SPECI CYQG 041516Z 27015G20KT 6SM -TSRA BKN077 OVC120 RMK AC5AC3 CB EMBD=

CYQG;2006-10-04 15:50;SPECI CYQG 041550Z 28014G19KT 6SM -SHRA SCT015 BKN075 OVC120 RETSRA RMK CU3AC3AC2=

CYQG;2006-10-04 16:00;METAR CYQG 041600Z 27010G16KT 6SM -SHRA BR BKN017 OVC090 21/19 A2997 RETSRA RMK CU6AC2 SLP147=

CYQG;2006-10-04 16:22;SPECI CYQG 041622Z 26006KT 7SM BKN016 BKN090 BKN280 RMK CU5AC2CI1=

CYQG;2006-10-04 17:00;METAR CYQG 041700Z 28006KT 7SM -SHRA BKN018 OVC090 21/20 A2995 RMK CU6AC2 SLP140=

CYQG;2006-10-04 17:22;SPECI CYQG 041722Z 34007KT 7SM -SHRA SCT007 OVC025 RMK CF3CU5=

CYQG;2006-10-04 17:49;SPECI CYQG 041749Z 31005KT 8SM FEW008 BKN022 OVC120 RMK CF2CU5AC2=

CYQG;2006-10-04 17:54;SPECI CYQG 041754Z 29004KT 8SM -SHRA FEW008 BKN022 OVC120 RMK CF2CU5AC2=

CYQG;2006-10-04 18:00;METAR CYQG 041800Z 31005KT 10SM -SHRA FEW008 BKN022 OVC120 21/19 A2998 RMK CF2CU6AC1 SLP150=

CYQG;2006-10-04 18:24;SPECI CYQG 041824Z 33008KT 12SM FEW008 BKN018 OVC033 RMK CF1CU6SC2=

CYQG;2006-10-04 18:54;SPECI CYQG 041854Z 35009KT 12SM -SHRA BKN024 OVC035 RMK CU6SC2=

CYQG;2006-10-04 19:00;METAR CYQG 041900Z 36021G26KT 15SM -SHRA SCT010 OVC024 18/17 A3000 RMK CF3CU5 SLP158=

CYQG;2006-10-04 20:00;METAR CYQG 042000Z 01012KT 15SM BKN013 OVC024 16/14 A3004 RMK SC6SC2 SLP172=

CYQG;2006-10-04 20:17;SPECI CYQG 042017Z 01014KT 15SM OVC010 RMK SC8=

CYQG;2006-10-04 20:48;SPECI CYQG 042048Z 36014G20KT 15SM OVC015 RMK SC8=

CYQG;2006-10-04 21:00;METAR CYQG 042100Z 36016KT 15SM OVC014 15/12 A3010 RMK SC8 PRESRR SLP192=

CYQG;2006-10-04 21:17;SPECI CYQG 042117Z 01014G21KT 15SM OVC016 RMK SC8=

CYQG;2006-10-04 22:00;METAR CYQG 042200Z 01010G15KT 15SM -SHRA OVC015 14/11 A3014 RMK SC8 SLP204=

CYQG;2006-10-04 22:18;SPECI CYQG 042218Z 01014G21KT 15SM BKN013 OVC060 RMK SC6SC2=

CYQG;2006-10-04 22:35;SPECI CYQG 042235Z 36012KT 15SM OVC016 RMK SC8=

CYQG;2006-10-04 23:00;METAR CYQG 042300Z 02018KT 15SM OVC017 14/10 A3016 RMK SC8 SLP211=

CYQG;2006-10-05 00:00;METAR CYQG 050000Z 01015G22KT 15SM OVC016 13/09 A3018 RMK SC8 SLP220=

CYQG;2006-10-05 01:00;METAR CYQG 050100Z 02018KT 15SM BKN030 13/08 A3022 RMK SC7 SLP232=

CYQG;2006-10-05 02:00;METAR CYQG 050200Z 03014G19KT 15SM BKN031 13/08 A3023 RMK SC7 SLP237=

CYQG;2006-10-05 03:00;METAR CYQG 050300Z 01012KT 15SM BKN031 13/08 A3025 RMK SC7 SLP244=

CYQG;2006-10-05 04:00;METAR CYQG 050400Z 04014G19KT 15SM FEW028 13/06 A3025 RMK SC2 SLP245=

CYQG;2006-10-05 05:00;METAR CYQG 050500Z 06015KT 15SM BKN036 12/06 A3026 RMK CU5 SLP248=

CYQG;2006-10-05 06:00;METAR CYQG 050600Z 07017KT 15SM FEW030 11/04 A3026 RMK CU1 SLP248=

CYQG;2006-10-05 07:00;METAR CYQG 050700Z 06015KT 15SM FEW028 10/03 A3028 RMK CU2 SLP255=

CYQG;2006-10-05 08:00;METAR CYQG 050800Z 07016KT 15SM SCT033 10/02 A3028 RMK CU3 SLP255=

CYQG;2006-10-05 09:00;METAR CYQG 050900Z 07014G22KT 15SM FEW030 09/01 A3028 RMK CU1 SLP256=

CYQG;2006-10-05 10:00;METAR CYQG 051000Z 07013G18KT 15SM FEW030 09/01 A3029 RMK CU2 SLP261=

CYQG;2006-10-05 11:00;METAR CYQG 051100Z 07014KT 15SM FEW030 BKN260 09/01 A3031 RMK CU2CI0 SLP266=

CYQG;2006-10-05 12:00;METAR CYQG 051200Z 07009KT 15SM BKN280 09/01 A3031 RMK CI5 SLP267=

CYQG;2006-10-05 13:00;METAR CYQG 051300Z 06012KT 15SM BKN280 09/03 A3033 RMK CI6 SLP273=

CYQG;2006-10-05 14:00;METAR CYQG 051400Z 07012KT 15SM BKN280 10/04 A3033 RMK CI4 SLP275=

CYQG;2006-10-05 15:00;METAR CYQG 051500Z 04014G19KT 15SM BKN280 11/05 A3034 RMK CI4 SLP275=

CYQG;2006-10-05 16:00;METAR CYQG 051600Z 04012G17KT 15SM FEW050 BKN280 12/04 A3033 RMK SC2CI1 SLP274=

CYQG;2006-10-05 17:00;METAR CYQG 051700Z 04011G20KT 15SM FEW040 SCT280 12/03 A3033 RMK SC2CI1 SLP272=

CYQG;2006-10-05 18:00;METAR CYQG 051800Z 04014G19KT 15SM FEW040 FEW280 13/02 A3031 RMK SC1CI1 SLP265=

CYQG;2006-10-05 19:00;METAR CYQG 051900Z 04015KT 15SM FEW060 SCT280 13/01 A3029 RMK SC1CI1 CONTRAILS SLP259=

CYQG;2006-10-05 21:00;METAR CYQG 052100Z 05015KT 15SM FEW050 BKN260 13/01 A3030 RMK SC1CC2 SLP265=

CYQG;2006-10-05 22:00;METAR CYQG 052200Z 03012G17KT 15SM FEW050 BKN260 11/02 A3032 RMK SC2CS4 SLP269=

CYQG;2006-10-05 23:00;METAR CYQG 052300Z 03012G17KT 15SM FEW050 BKN210 BKN280 11/01 A3032 RMK SC1CS2CC2 SLP271=

CYQG;2006-10-06 00:00;METAR CYQG 060000Z 36009KT 15SM FEW045 BKN210 10/02 A3033 RMK SC1CS6 SLP274=

CYQG;2006-10-06 01:00;METAR CYQG 060100Z 36010KT 15SM FEW210 09/02 A3033 RMK CS1 SLP273=

CYQG;2006-10-06 02:00;METAR CYQG 060200Z 01009G15KT 15SM FEW210 09/02 A3034 RMK CI1 SLP278=

CYQG;2006-10-06 03:00;METAR CYQG 060300Z 01009KT 15SM FEW030 09/02 A3035 RMK CF1 SLP282=

CYQG;2006-10-06 04:00;METAR CYQG 060400Z 02008KT 15SM SKC 08/03 A3036 RMK SLP284=

CYQG;2006-10-06 05:00;METAR CYQG 060500Z 04010G18KT 15SM SKC 08/02 A3038 RMK SLP289=

CYQG;2006-10-06 06:00;METAR CYQG 060600Z 04011G19KT 15SM SKC 08/01 A3039 RMK SLP295=

CYQG;2006-10-06 07:00;METAR CYQG 060700Z 05010KT 15SM SKC 08/02 A3039 RMK SLP294=

CYQG;2006-10-06 08:00;METAR CYQG 060800Z 04009KT 15SM SKC 08/02 A3039 RMK SLP294=

CYQG;2006-10-06 09:00;METAR CYQG 060900Z 04010KT 15SM SKC 07/02 A3041 RMK SLP300=

CYQG;2006-10-06 10:00;METAR CYQG 061000Z 04009KT 15SM SKC 08/02 A3042 RMK SLP304=

CYQG;2006-10-06 11:00;METAR CYQG 061100Z 36007KT 15SM SKC 06/02 A3045 RMK SLP314=

CYQG;2006-10-06 12:00;METAR CYQG 061200Z 36004KT 15SM FEW015 06/03 A3046 RMK CU1 CU DIST E TO S SLP319=

CYQG;2006-10-06 13:00;METAR CYQG 061300Z 07008KT 15SM FEW015 09/05 A3047 RMK CU1 CU DIST E TO S SLP323=

CYQG;2006-10-06 14:00;METAR CYQG 061400Z 07011KT 15SM FEW020 10/06 A3048 RMK CU1 SLP327=

CYQG;2006-10-06 15:00;METAR CYQG 061500Z 07008KT 15SM FEW020 12/05 A3050 RMK CU1 SLP330=

CYQG;2006-10-06 16:00;METAR CYQG 061600Z 04013KT 15SM FEW032 12/03 A3050 RMK CU1 SLP332=

CYQG;2006-10-06 17:00;METAR CYQG 061700Z 03010KT 15SM FEW032 13/03 A3050 RMK CF1 SLP331=

CYQG;2006-10-06 18:00;METAR CYQG 061800Z 04006KT 15SM FEW040 13/04 A3048 RMK CF1 SLP326=

CYQG;2006-10-06 19:00;METAR CYQG 061900Z 02008KT 15SM SKC 13/03 A3045 RMK SLP316=

CYQG;2006-10-06 20:00;METAR CYQG 062000Z 03007KT 15SM SKC 14/03 A3044 RMK SLP312=

CYQG;2006-10-06 21:00;METAR CYQG 062100Z 01007KT 15SM SKC 14/02 A3044 RMK SLP312=

CYQG;2006-10-06 22:00;METAR CYQG 062200Z 04006KT 15SM SKC 14/02 A3044 RMK SLP310=

CYQG;2006-10-06 23:00;METAR CYQG 062300Z 05005KT 15SM FEW280 12/03 A3044 RMK CI1 SLP311=

CYQG;2006-10-07 00:00;METAR CYQG 070000Z 03005KT 15SM FEW280 11/04 A3044 RMK CI0 SLP312=

CYQG;2006-10-07 01:00;METAR CYQG 070100Z 08006KT 15SM SKC 11/05 A3045 RMK SLP317=

CYQG;2006-10-07 02:00;METAR CYQG 070200Z 08004KT 15SM SKC 09/05 A3044 RMK SLP313=

CYQG;2006-10-07 04:00;METAR CYQG 070400Z 04004KT 15SM FEW280 08/05 A3044 RMK CI1 SLP311=

CYQG;2006-10-07 05:00;METAR CYQG 070500Z 05003KT 15SM FEW270 09/06 A3043 RMK CI1 SLP309=

CYQG;2006-10-07 06:00;METAR CYQG 070600Z 00000KT 15SM SKC 08/06 A3041 RMK SLP303=

CYQG;2006-10-07 07:00;METAR CYQG 070700Z 10004KT 15SM SKC 08/06 A3040 RMK SLP298=

CYQG;2006-10-07 08:00;METAR CYQG 070800Z 35002KT 15SM SKC 07/05 A3040 RMK SLP299=

CYQG;2006-10-07 09:00;METAR CYQG 070900Z 34006KT 10SM FEW027 07/05 A3041 RMK SC2 SLP302=

CYQG;2006-10-07 10:00;METAR CYQG 071000Z 36003KT 15SM SKC 06/05 A3041 RMK SLP303=

CYQG;2006-10-07 11:00;METAR CYQG 071100Z 35004KT 12SM FEW028 06/04 A3043 RMK SC2 SLP307=

CYQG;2006-10-07 12:00;METAR CYQG 071200Z 36002KT 15SM FEW028 FEW250 06/04 A3043 RMK SC2CI1 SLP308=

CYQG;2006-10-07 13:00;METAR CYQG 071300Z 05003KT 15SM FEW260 09/07 A3043 RMK CI1 SLP310=

CYQG;2006-10-07 14:00;METAR CYQG 071400Z 07006KT 15SM FEW260 13/10 A3044 RMK CI1 SLP313=

CYQG;2006-10-07 15:00;METAR CYQG 071500Z 05007KT 15SM FEW025 FEW260 14/09 A3045 RMK CF1CI1 SLP314=

CYQG;2006-10-07 16:00;METAR CYQG 071600Z 05006KT 15SM FEW024 FEW260 15/09 A3045 RMK CF1CI1 SLP315=

CYQG;2006-10-07 17:00;METAR CYQG 071700Z 04005KT 15SM FEW020 FEW250 15/09 A3043 RMK CF1CI1 SLP307=

CYQG;2006-10-07 18:00;METAR CYQG 071800Z 05004KT 15SM FEW020 FEW260 16/09 A3040 RMK CF1CI1 SLP296=

CYQG;2006-10-07 19:00;METAR CYQG 071900Z 04005KT 15SM FEW260 17/09 A3037 RMK CI1 SLP287=

CYQG;2006-10-07 20:00;METAR CYQG 072000Z 05005KT 15SM FEW260 17/10 A3035 RMK CI1 SLP280=

CYQG;2006-10-07 21:00;METAR CYQG 072100Z 04004KT 15SM FEW280 17/09 A3034 RMK CI0 SLP275=

CYQG;2006-10-07 22:00;METAR CYQG 072200Z 07005KT 15SM FEW280 17/09 A3034 RMK CI1 SLP275=

CYQG;2006-10-07 23:00;METAR CYQG 072300Z 00000KT 15SM FEW280 15/09 A3033 RMK CI1 CONTRAILS SLP274=

CYQG;2006-10-08 00:00;METAR CYQG 080000Z 16002KT 15SM FEW280 13/07 A3034 RMK CI1 SLP278=

CYQG;2006-10-08 01:00;METAR CYQG 080100Z 15003KT 15SM SKC 11/08 A3034 RMK SLP278=

CYQG;2006-10-08 02:00;METAR CYQG 080200Z 00000KT 15SM SKC 10/07 A3032 RMK SLP273=

CYQG;2006-10-08 04:00;METAR CYQG 080400Z 00000KT 15SM FEW280 08/07 A3033 RMK CI1 SLP273=

CYQG;2006-10-08 05:00;METAR CYQG 080500Z 00000KT 15SM FEW280 08/07 A3032 RMK CI1 SLP271=

CYQG;2006-10-08 06:00;METAR CYQG 080600Z 00000KT 15SM FEW270 07/06 A3031 RMK CI1 SLP266=

CYQG;2006-10-08 07:00;METAR CYQG 080700Z 00000KT 15SM SKC 07/06 A3031 RMK SLP266=

CYQG;2006-10-08 09:00;METAR CYQG 080900Z 00000KT 12SM SKC 07/06 A3029 RMK SLP259=

CYQG;2006-10-08 10:00;METAR CYQG 081000Z 00000KT 10SM SKC 07/06 A3030 RMK SLP262=

CYQG;2006-10-08 11:00;METAR CYQG 081100Z 00000KT 1SM BR BKN001 07/06 A3030 RMK FG2ST6 SLP264=

CYQG;2006-10-08 12:00;METAR CYQG 081200Z 00000KT 1/4SM FG VV000 08/08 A3030 RMK FG8 SLP265=

CYQG;2006-10-08 13:00;METAR CYQG 081300Z 27002KT 1/4SM FG VV000 09/09 A3031 RMK FG8 SLP268=

CYQG;2006-10-08 14:00;METAR CYQG 081400Z 00000KT 1/4SM FG VV000 11/11 A3032 RMK FG8 SLP270=

CYQG;2006-10-08 14:52;SPECI CYQG 081452Z 20002KT 10SM FEW001 RMK ST2 VIS N - NE 3=

CYQG;2006-10-08 15:00;METAR CYQG 081500Z 20004KT 8SM FEW001 14/13 A3030 RMK ST1 SLP265=

CYQG;2006-10-08 16:00;METAR CYQG 081600Z 23006KT 12SM FEW140 FEW260 16/10 A3029 RMK AC1CI1 SLP260=

CYQG;2006-10-08 17:00;METAR CYQG 081700Z 24006KT 15SM FEW020 FEW260 19/08 A3027 RMK ST1CI1 SLP255=

CYQG;2006-10-08 18:00;METAR CYQG 081800Z 22006KT 15SM FEW260 20/07 A3026 RMK CI1 SLP247=

CYQG;2006-10-08 19:00;METAR CYQG 081900Z 20008KT 15SM FEW260 21/09 A3022 RMK CI0 SLP234=

CYQG;2006-10-08 20:00;METAR CYQG 082000Z 22009KT 15SM FEW260 21/10 A3020 RMK CI1 SLP228=

CYQG;2006-10-08 21:00;METAR CYQG 082100Z 21008KT 12SM FEW260 21/10 A3018 RMK CI1 SLP222=

CYQG;2006-10-08 22:00;METAR CYQG 082200Z 21007KT 12SM SCT260 20/10 A3017 RMK CI1 SLP219=

CYQG;2006-10-08 23:00;METAR CYQG 082300Z 22004KT 10SM BKN260 18/10 A3017 RMK CI2 SLP217=

CYQG;2006-10-09 00:00;METAR CYQG 090000Z 18003KT 15SM SCT260 16/10 A3018 RMK CI1 SLP221=

CYQG;2006-10-09 01:00;METAR CYQG 090100Z 19006KT 15SM FEW260 15/09 A3017 RMK CI1 SLP217=

CYQG;2006-10-09 02:00;METAR CYQG 090200Z 19006KT 15SM FEW260 14/10 A3016 RMK CI1 SLP215=

CYQG;2006-10-09 03:00;METAR CYQG 090300Z 20005KT 15SM FEW260 14/11 A3016 RMK CI1 SLP214=

CYQG;2006-10-09 04:00;METAR CYQG 090400Z 00000KT 12SM SCT260 14/12 A3015 RMK CI1 SLP212=

CYQG;2006-10-09 05:00;METAR CYQG 090500Z 29003KT 8SM FEW270 13/12 A3016 RMK CI1 SLP215=

CYQG;2006-10-09 06:00;METAR CYQG 090600Z 18002KT 3SM BR SKC 11/11 A3016 RMK SLP214=

CYQG;2006-10-09 07:00;METAR CYQG 090700Z 25002KT 5SM BR SKC 11/10 A3016 RMK SLP213=

CYQG;2006-10-09 08:00;METAR CYQG 090800Z 21003KT 6SM BR SKC 10/10 A3016 RMK SLP212=

CYQG;2006-10-09 08:28;SPECI CYQG 090828Z 23004KT 1SM BR SCT270 RMK FG2CI1=

CYQG;2006-10-09 08:45;SPECI CYQG 090845Z 23005KT 2 1/2SM BR BKN270 RMK FG1CI2=

CYQG;2006-10-09 09:00;METAR CYQG 090900Z 22004KT 3SM BR BKN270 11/10 A3016 RMK CI2 SLP212=

CYQG;2006-10-09 10:00;METAR CYQG 091000Z 21005KT 7SM BKN280 11/10 A3017 RMK CI2 SLP216=

CYQG;2006-10-09 11:00;METAR CYQG 091100Z 22003KT 7SM BKN270 11/11 A3017 RMK CI2 SLP217=

CYQG;2006-10-09 12:00;METAR CYQG 091200Z 24004KT 12SM BKN260 11/11 A3018 RMK CI2 SLP222=

CYQG;2006-10-09 13:00;METAR CYQG 091300Z 27003KT 15SM BKN260 13/11 A3020 RMK CI2 SLP228=

CYQG;2006-10-09 14:00;METAR CYQG 091400Z 35003KT 8SM BKN260 15/12 A3021 RMK CI2 SLP231=

CYQG;2006-10-09 15:00;METAR CYQG 091500Z 04006KT 10SM BKN260 18/10 A3021 RMK CI2 SLP232=

CYQG;2006-10-09 16:00;METAR CYQG 091600Z 05004KT 10SM BKN250 18/09 A3021 RMK CI2 SLP230=

CYQG;2006-10-09 17:00;METAR CYQG 091700Z 02005KT 10SM BKN250 19/09 A3020 RMK CI2 SLP229=

CYQG;2006-10-09 18:00;METAR CYQG 091800Z 07006KT 15SM BKN250 19/10 A3018 RMK CI2 SLP222=

CYQG;2006-10-09 19:00;METAR CYQG 091900Z 04006KT 10SM BKN260 20/11 A3017 RMK CI3 SLP216=

CYQG;2006-10-09 20:00;METAR CYQG 092000Z 05008KT 10SM BKN260 20/11 A3015 RMK CI5 SLP210=

CYQG;2006-10-09 21:00;METAR CYQG 092100Z 05010KT 12SM BKN260 19/12 A3015 RMK CS6 SLP212=

CYQG;2006-10-09 22:00;METAR CYQG 092200Z 04013KT 15SM BKN220 16/11 A3015 RMK CI6 SLP212=

CYQG;2006-10-09 23:00;METAR CYQG 092300Z 04013KT 15SM FEW090 BKN240 15/10 A3017 RMK AC2CI3 SLP216=

CYQG;2006-10-10 00:00;METAR CYQG 100000Z 04010KT 15SM FEW090 BKN260 14/10 A3017 RMK AC1CI2 SLP218=

CYQG;2006-10-10 01:00;METAR CYQG 100100Z 05011KT 15SM FEW090 BKN260 13/10 A3017 RMK AC1CI2 SLP219=

CYQG;2006-10-10 02:00;METAR CYQG 100200Z 04011G16KT 15SM SCT260 13/10 A3017 RMK CI1 SLP217=

CYQG;2006-10-10 03:00;METAR CYQG 100300Z 04011KT 15SM BKN260 13/10 A3017 RMK CI3 SLP216=

CYQG;2006-10-10 04:00;METAR CYQG 100400Z 03005KT 15SM SCT260 12/10 A3017 RMK CI1 SLP216=

CYQG;2006-10-10 05:00;METAR CYQG 100500Z 36007KT 15SM BKN260 11/09 A3017 RMK CI2 SLP216=

CYQG;2006-10-10 06:00;METAR CYQG 100600Z 01006KT 15SM BKN260 11/08 A3016 RMK CI2 SLP215=

CYQG;2006-10-10 07:00;METAR CYQG 100700Z 03005KT 15SM OVC280 10/08 A3015 RMK CI2 SLP211=

CYQG;2006-10-10 09:00;METAR CYQG 100900Z 01006KT 15SM FEW085 BKN240 10/08 A3014 RMK AC2CI1 SLP208=

CYQG;2006-10-10 10:00;METAR CYQG 101000Z 36007KT 15SM OVC091 10/08 A3015 RMK AC8 SLP210=

CYQG;2006-10-10 11:00;METAR CYQG 101100Z 36007KT 15SM BKN093 10/07 A3015 RMK AC7 SLP210=

CYQG;2006-10-10 12:00;METAR CYQG 101200Z 01006KT 15SM SCT080 BKN100 10/07 A3014 RMK AC3AC4 SLP210=

CYQG;2006-10-10 13:00;METAR CYQG 101300Z 02008KT 15SM FEW100 BKN160 11/07 A3014 RMK AC2AC5 SLP209=

CYQG;2006-10-10 14:00;METAR CYQG 101400Z 04009KT 15SM SCT069 BKN160 12/08 A3014 RMK AC4AC3 SLP209=

CYQG;2006-10-10 15:00;METAR CYQG 101500Z 04011KT 15SM FEW090 BKN150 BKN280 13/09 A3012 RMK AC1AC6CI1 CONTRAILS SLP200=

CYQG;2006-10-10 16:00;METAR CYQG 101600Z 04010KT 15SM BKN150 14/08 A3010 RMK AC7 SLP194=

CYQG;2006-10-10 17:00;METAR CYQG 101700Z 05008KT 15SM BKN150 14/08 A3008 RMK AC6 SLP188=

CYQG;2006-10-10 18:00;METAR CYQG 101800Z 04006KT 15SM FEW070 BKN150 15/07 A3004 RMK AC2AC5 SLP176=

CYQG;2006-10-10 19:00;METAR CYQG 101900Z 05004KT 15SM BKN068 BKN150 15/07 A3003 RMK AC5AC2 SLP170=

CYQG;2006-10-10 20:00;METAR CYQG 102000Z 03005KT 15SM OVC082 14/06 A3000 RMK AC8 SLP161=

CYQG;2006-10-10 21:00;METAR CYQG 102100Z 04006KT 15SM OVC081 14/07 A2997 RMK AC8 SLP152=

CYQG;2006-10-10 22:00;METAR CYQG 102200Z 06003KT 15SM OVC082 14/09 A2995 RMK AC8 SLP145=

CYQG;2006-10-10 23:00;METAR CYQG 102300Z 09002KT 15SM BKN083 OVC140 14/09 A2994 RMK AC6AC2 SLP141=

CYQG;2006-10-11 00:00;METAR CYQG 110000Z 08002KT 15SM SCT080 OVC150 14/09 A2992 RMK AC4AC4 SLP134=

CYQG;2006-10-11 01:00;METAR CYQG 110100Z 04005KT 15SM SCT026 OVC074 13/10 A2990 RMK SC3AC5 SLP126=

CYQG;2006-10-11 02:00;METAR CYQG 110200Z 05004KT 7SM -SHRA FEW020 OVC059 12/10 A2988 RERA RMK SC2SC6 SLP119=

CYQG;2006-10-11 03:00;METAR CYQG 110300Z 04005KT 12SM -SHRA BKN084 OVC130 12/11 A2984 RMK AC6AC2 SLP107=

CYQG;2006-10-11 04:00;METAR CYQG 110400Z 05003KT 7SM -RA OVC100 12/11 A2981 RMK AC8 SLP096=

CYQG;2006-10-11 05:00;METAR CYQG 110500Z 35004KT 3SM +RA OVC014 12/11 A2978 RMK SC8 SLP085=

CYQG;2006-10-11 05:09;SPECI CYQG 110509Z 01003KT 2SM RA BR OVC034 RMK SC8=

CYQG;2006-10-11 05:14;SPECI CYQG 110514Z 34005KT 3SM -RA BR OVC035 RMK SC8=

CYQG;2006-10-11 06:27;SPECI CYQG 110627Z 04003KT 2SM RA BR OVC002 RMK SC8=

CYQG;2006-10-11 07:00;METAR CYQG 110700Z 06002KT 2SM +RA BR SCT009 OVC016 13/12 A2973 RMK SC4SC4 SLP067=

CYQG;2006-10-11 07:16;SPECI CYQG 110716Z 08005KT 2 1/2SM RA BR OVC040 RMK SC8=

CYQG;2006-10-11 07:45;SPECI CYQG 110745Z 09004KT 2SM -RA BR OVC060 RERA RMK SC8 LTGIC DIST NW=

CYQG;2006-10-11 08:00;METAR CYQG 110800Z 09002KT 2SM -DZ BR FEW005 OVC013 13/12 A2967 RERA RMK CF2SC6 SLP047=

CYQG;2006-10-11 08:29;SPECI CYQG 110829Z 20006KT 1/2SM +SHRA FG OVC020 RMK SC8=

CYQG;2006-10-11 08:34;SPECI CYQG 110834Z 20006KT 3/4SM +SHRA BR OVC020 RMK SC8=

CYQG;2006-10-11 08:38;SPECI CYQG 110838Z 13008KT 2 1/2SM SHRA BR OVC020 RMK SC8=

CYQG;2006-10-11 08:41;SPECI CYQG 110841Z 17005KT 2 1/2SM TSRA BR OVC067CB RMK CB8=

CYQG;2006-10-11 08:49;SPECI CYQG 110849Z 15008KT 3SM TSRA BR OVC067CB RERA RMK CB8=

CYQG;2006-10-11 09:00;METAR CYQG 110900Z 14008KT 5SM -SHRA BR OVC081 14/13 A2963 RETSRA RMK AC8 SLP034=

CYQG;2006-10-11 09:17;SPECI CYQG 110917Z 14004KT 5SM BR OVC120 RMK AC8=

CYQG;2006-10-11 10:00;METAR CYQG 111000Z 16004KT 4SM BR OVC130 14/14 A2961 RMK AC8 SLP029=

CYQG;2006-10-11 10:39;SPECI CYQG 111039Z 15005KT 2 1/2SM BR OVC110 RMK AC8=

CYQG;2006-10-11 10:53;SPECI CYQG 111053Z 15007KT 2 1/2SM -SHRA BR OVC100 RMK AC8=

CYQG;2006-10-11 11:00;METAR CYQG 111100Z 14006KT 2 1/2SM -SHRA BR OVC130 14/14 A2957 RMK AC8 SLP014=

CYQG;2006-10-11 11:20;SPECI CYQG 111120Z 17008KT 2SM BR BKN120 RMK AC7=

CYQG;2006-10-11 11:48;SPECI CYQG 111148Z 18004KT 3SM BR OVC150 RMK AC8=

CYQG;2006-10-11 12:00;METAR CYQG 111200Z 18003KT 3SM BR FEW030 BKN150 OVC280 15/14 A2954 RMK CU1AC6CI2 SLP004=

CYQG;2006-10-11 12:26;SPECI CYQG 111226Z 23007KT 3SM -SHRA BR FEW008 BKN033 OVC092 RMK SF2CU6AC1=

CYQG;2006-10-11 12:36;SPECI CYQG 111236Z 24006KT 1SM -TSRA BR FEW008 OVC033 RERA RMK SF2CU6 CB EMBD=

CYQG;2006-10-11 12:46;SPECI CYQG 111246Z 20006KT 1 1/4SM TSRA BR FEW009 BKN030 OVC070 RMK SF2CU5AC2 CB EMBD=

CYQG;2006-10-11 12:54;SPECI CYQG 111254Z 18006KT 3SM -TSRA BR BKN045 OVC090 RERA RMK CU5AC3 CB EMBD=

CYQG;2006-10-11 13:00;METAR CYQG 111300Z 21006KT 3SM -TSRA BR SCT030 OVC060 15/15 A2954 RERA RMK CU3CU5 CB EMBD SLP002=

CYQG;2006-10-11 13:10;SPECI CYQG 111310Z 20006KT 2 1/2SM -SHRA BR SCT060 OVC089 RETS RMK CU4AC4=

CYQG;2006-10-11 13:26;SPECI CYQG 111326Z 18009KT 3SM -SHRA BR SCT060 OVC080 RETS RMK CU3AC5=

CYQG;2006-10-11 13:48;SPECI CYQG 111348Z 19010KT 4SM BR BKN057 BKN140 RETS RMK CU5AC2=

CYQG;2006-10-11 14:00;METAR CYQG 111400Z 18011KT 4SM BR SCT030 BKN110 16/15 A2951 RETS RMK CU4AC3 SLP992=

CYQG;2006-10-11 15:00;METAR CYQG 111500Z 19013G20KT 6SM BR BKN024 OVC140 17/15 A2948 RMK CU5AC3 SLP983=

CYQG;2006-10-11 15:21;SPECI CYQG 111521Z 19015G20KT 6SM -SHRA BR SCT030 BKN060 OVC150 RMK CU3SC2AC2=

CYQG;2006-10-11 16:00;METAR CYQG 111600Z 19014G24KT 9SM -SHRA FEW025 OVC082 17/15 A2945 RMK CU2AC6 SLP973=

CYQG;2006-10-11 16:40;SPECI CYQG 111640Z 20014G21KT 8SM SCT040 BKN088 RMK CU4AC3=

CYQG;2006-10-11 17:00;METAR CYQG 111700Z 19019G24KT 12SM FEW045 BKN110 BKN280 18/15 A2941 RMK CU2AC5CI0 SLP960=

CYQG;2006-10-11 17:52;SPECI CYQG 111752Z 19017G24KT 8SM -SHRA FEW020 BKN050 OVC100 RMK CU2CU3AC2=

CYQG;2006-10-11 18:00;METAR CYQG 111800Z 19013G21KT 8SM -SHRA FEW025 BKN037 OVC100 19/15 A2938 RMK CU2CU5AC2 SLP948=

CYQG;2006-10-11 19:00;METAR CYQG 111900Z 21016KT 7SM BKN036 BKN170 18/16 A2936 RERA RMK CU5AC2 OCNL -SHRA SLP941=

CYQG;2006-10-11 20:00;METAR CYQG 112000Z 21016G22KT 7SM BKN053 OVC100 19/15 A2933 RMK CU5AC3 SLP932=

CYQG;2006-10-11 20:06;SPECI CYQG 112006Z 21016G22KT 6SM -SHRA HZ BKN034 OVC077 RMK SC6AC2=

CYQG;2006-10-11 20:08;SPECI CYQG 112008Z 22015G20KT 2 1/2SM +SHRA HZ OVC019 RMK SC8=

CYQG;2006-10-11 20:22;SPECI CYQG 112022Z 23017G27KT 2 1/2SM SHRA BR SCT017 OVC042 RMK SC3SC5=

CYQG;2006-10-11 20:24;SPECI CYQG 112024Z 23013G24KT 6SM TSRA BR SCT017 OVC042 RMK SC3SC5 VIS NE 21/2 CB ASOCTD=

CYQG;2006-10-11 20:41;SPECI CYQG 112041Z 23012KT 10SM SCT017 OVC058 RETSRA RMK CF3SC5 OCNL -SHRA=

CYQG;2006-10-11 21:00;METAR CYQG 112100Z 24015G26KT 3SM -SHRA BR SCT017 OVC061 15/14 A2935 RETSRA RMK CF4SC4 SLP939=

CYQG;2006-10-11 21:33;SPECI CYQG 112133Z 22012G17KT 10SM FEW015 SCT050 BKN130 RMK CF2SC2AC3=

CYQG;2006-10-11 22:00;METAR CYQG 112200Z 21011G19KT 7SM FEW015 BKN081 OVC120 15/14 A2935 RMK CF2AC4AC2 SLP940=

CYQG;2006-10-11 22:44;SPECI CYQG 112244Z 26011G18KT 8SM -SHRA BKN018 OVC080 RMK SC6AC2=

CYQG;2006-10-11 23:00;METAR CYQG 112300Z 26015G22KT 7SM -SHRA BKN020 OVC069 15/12 A2937 RMK SC6AC2 SLP944=

CYQG;2006-10-11 23:46;SPECI CYQG 112346Z 25014G20KT 15SM FEW020 BKN047 OVC090 RMK SC2SC4AC2=

CYQG;2006-10-12 00:00;METAR CYQG 120000Z 25014G20KT 15SM BKN027 OVC120 14/10 A2938 RMK SC5AC3 SLP950=

CYQG;2006-10-12 00:41;SPECI CYQG 120041Z 27019G27KT 5SM -SHRA BR BKN017 OVC060 RMK SC6SC2=

CYQG;2006-10-12 01:00;METAR CYQG 120100Z 27013G25KT 12SM -SHRA FEW012 OVC034 11/09 A2942 RMK SF2SC6 SLP963=

CYQG;2006-10-12 01:28;SPECI CYQG 120128Z 26009G16KT 15SM FEW014 OVC047 RMK CF2SC6=

CYQG;2006-10-12 02:00;METAR CYQG 120200Z 26014G19KT 15SM FEW015 OVC082 11/08 A2944 RMK CF2AC6 SLP970=

CYQG;2006-10-12 02:34;SPECI CYQG 120234Z 26010G16KT 12SM -SHRA BKN022 OVC070 RMK SC6AC2=

CYQG;2006-10-12 03:00;METAR CYQG 120300Z 27016G21KT 7SM -SHRA BKN026 OVC070 10/06 A2947 RMK SC6AC2 SLP979=

CYQG;2006-10-12 05:00;METAR CYQG 120500Z 26011KT 15SM -SHRA FEW038 OVC080 08/03 A2949 RMK SC1AC7 SLP988=

CYQG;2006-10-12 06:00;METAR CYQG 120600Z 24013KT 15SM -SHRA FEW035 OVC042 07/03 A2949 RMK CF1SC7 SLP989=

CYQG;2006-10-12 07:00;METAR CYQG 120700Z 29013G25KT 6SM -SHRA BR OVC031 05/01 A2952 RMK SC8 SLP999=

CYQG;2006-10-12 07:45;SPECI CYQG 120745Z 25007KT 15SM FEW080 RMK AC2=

CYQG;2006-10-12 08:00;METAR CYQG 120800Z 24007KT 15SM FEW030 SCT076 04/02 A2953 RMK CF1AC3 SLP002=

CYQG;2006-10-12 08:29;SPECI CYQG 120829Z 25010KT 15SM -SHRA FEW020 BKN030 RMK CF2SC4=

CYQG;2006-10-12 09:00;METAR CYQG 120900Z 28007KT 15SM -SHRASN FEW006 OVC060 02/M00 A2956 RMK CF1SC7 SLP013=

CYQG;2006-10-12 10:00;METAR CYQG 121000Z 25007KT 15SM FEW010 BKN074 03/01 A2957 RMK CF1AC5 SLP017=

CYQG;2006-10-12 11:00;METAR CYQG 121100Z 26007KT 6SM -SHRA BKN025 BKN057 03/02 A2957 RMK SC6SC1 SLP016=

CYQG;2006-10-12 11:25;SPECI CYQG 121125Z 26010G18KT 7SM -SHRASN SCT008 OVC065 RMK SF3CU5=

CYQG;2006-10-12 11:46;SPECI CYQG 121146Z 26011G17KT 6SM -SHRASN BKN013 OVC058 RMK SF6SC2=

CYQG;2006-10-12 12:00;METAR CYQG 121200Z 28009G16KT 15SM BKN011 BKN060 02/00 A2959 RMK SC6SC2 OCNL -SHRA -SHSN SLP024=

CYQG;2006-10-12 13:00;METAR CYQG 121300Z 25011G19KT 15SM BKN016 02/M00 A2961 RMK CU7 SLP029=

CYQG;2006-10-12 14:00;METAR CYQG 121400Z 27019G27KT 12SM -SHSN BKN018 03/M01 A2961 RMK CU7 SLP030=

CYQG;2006-10-12 15:00;METAR CYQG 121500Z 25019G24KT 15SM BKN032 04/M03 A2961 RMK CU7 SLP031=

CYQG;2006-10-12 16:00;METAR CYQG 121600Z 25017G26KT 15SM VCSH BKN045 04/M04 A2961 RMK CU7 SLP032=

CYQG;2006-10-12 16:18;SPECI CYQG 121618Z 25024G30KT 15SM -SHSN BKN046 RMK CU7=

CYQG;2006-10-12 17:00;METAR CYQG 121700Z 26022G30KT 15SM VCSH BKN045 05/M06 A2962 RMK CU6 OCNL -SHSN SLP034=

CYQG;2006-10-12 18:00;METAR CYQG 121800Z 26014G20KT 15SM VCSH BKN062 06/M05 A2962 RMK CU6 SLP035=

CYQG;2006-10-12 19:00;METAR CYQG 121900Z 28013G27KT 15SM VCSH BKN062 06/M07 A2961 RMK CU6 SLP031=

CYQG;2006-10-12 19:47;SPECI CYQG 121947Z 25017G37KT 7SM -SHSN BKN055 RMK SC7=

CYQG;2006-10-12 20:00;METAR CYQG 122000Z 26019G32KT 12SM -SHSN BKN043 04/M04 A2964 RMK SC7 TCU ASOCTD SLP041=

CYQG;2006-10-12 21:00;METAR CYQG 122100Z 27022G31KT 10SM -SHSN BKN042TCU 03/M04 A2967 RMK TCU7 PRESRR SLP052=

CYQG;2006-10-12 21:09;SPECI CYQG 122109Z 27021G30KT 1SM -SHSN FEW022 OVC042 RMK SN2SC1SC6=

CYQG;2006-10-12 21:18;SPECI CYQG 122118Z 26019G30KT 3/4SM -SHSN BKN002 OVC040 RMK SN3SC2SC3=

CYQG;2006-10-12 21:23;SPECI CYQG 122123Z 25015G29KT 10SM -SHSN FEW022 BKN045TCU RMK SC2TCU4=

CYQG;2006-10-12 21:49;SPECI CYQG 122149Z 24013G19KT 12SM VCSH SCT040 RMK CU3=

CYQG;2006-10-12 22:00;METAR CYQG 122200Z 25012G19KT 15SM VCSH FEW045 03/M02 A2967 RMK CU2 SLP054=

CYQG;2006-10-12 23:00;METAR CYQG 122300Z 25010KT 15SM VCSH FEW048 03/M04 A2968 RMK CU2 SLP057=

CYQG;2006-10-13 00:00;METAR CYQG 130000Z 24006KT 15SM FEW050 02/M03 A2969 RMK SC1 SLP060=

CYQG;2006-10-13 01:00;METAR CYQG 130100Z 24010KT 15SM SCT130 03/M05 A2970 RMK AC1 SLP062=

CYQG;2006-10-13 02:00;METAR CYQG 130200Z 24010KT 15SM FEW140 03/M05 A2970 RMK AC1 SLP064=

CYQG;2006-10-13 03:00;METAR CYQG 130300Z 23010G17KT 15SM SKC 03/M06 A2969 RMK SLP060=

CYQG;2006-10-13 04:00;METAR CYQG 130400Z 24012KT 15SM FEW260 03/M06 A2969 RMK CI1 SLP059=

CYQG;2006-10-13 05:00;METAR CYQG 130500Z 22009KT 15SM FEW260 02/M05 A2968 RMK CI1 SLP057=

CYQG;2006-10-13 06:00;METAR CYQG 130600Z 23011G16KT 15SM FEW260 02/M05 A2967 RMK CI1 SLP053=

CYQG;2006-10-13 07:00;METAR CYQG 130700Z 23014G22KT 15SM FEW260 03/M05 A2968 RMK CI1 SLP055=

CYQG;2006-10-13 08:00;METAR CYQG 130800Z 23012G21KT 15SM FEW260 03/M05 A2967 RMK CI1 SLP051=

CYQG;2006-10-13 09:00;METAR CYQG 130900Z 23017G26KT 15SM FEW260 03/M05 A2965 RMK CI1 SLP046=

CYQG;2006-10-13 10:00;METAR CYQG 131000Z 23016G24KT 15SM FEW260 02/M05 A2965 RMK CI1 SLP046=

CYQG;2006-10-13 11:00;METAR CYQG 131100Z 23014G21KT 15SM FEW020 FEW260 02/M05 A2965 RMK CU1CI1 SLP045=

CYQG;2006-10-13 12:00;METAR CYQG 131200Z 23018G25KT 15SM FEW020 FEW120 BKN280 02/M05 A2964 RMK CU1AC1CI2 SLP042=

CYQG;2006-10-13 13:00;METAR CYQG 131300Z 23020G26KT 15SM FEW020 FEW170 BKN280 03/M05 A2963 RMK CU1AC1CI1 SLP040=

CYQG;2006-10-13 14:00;METAR CYQG 131400Z 23024G30KT 15SM FEW025 SCT160 BKN280 04/M05 A2963 RMK CU1AC2CI2 SLP039=

CYQG;2006-10-13 15:00;METAR CYQG 131500Z 23023G31KT 15SM FEW040 FEW120 BKN160 04/M05 A2962 RMK SC1AC2AS4 SLP035=

CYQG;2006-10-13 16:00;METAR CYQG 131600Z 22019G28KT 15SM SCT045 OVC170 05/M05 A2961 RMK SC4AS3 SLP032=

CYQG;2006-10-13 17:00;METAR CYQG 131700Z 24019G30KT 15SM SCT045 BKN110 BKN280 06/M05 A2961 RMK SC4AC2CI2 SLP034=

CYQG;2006-10-13 18:00;METAR CYQG 131800Z 23022G28KT 15SM BKN059 BKN110 07/M05 A2961 RMK SC6AC2 SLP031=

CYQG;2006-10-13 19:00;METAR CYQG 131900Z 25017G22KT 15SM BKN058 07/M04 A2961 RMK SC7 SLP031=

CYQG;2006-10-13 20:00;METAR CYQG 132000Z 25016G26KT 15SM OVC052 07/M04 A2961 RMK SC8 SLP033=

CYQG;2006-10-13 21:00;METAR CYQG 132100Z 26014G20KT 15SM OVC058 08/M03 A2962 RMK SC8 SLP035=

CYQG;2006-10-13 22:00;METAR CYQG 132200Z 27006KT 15SM BKN064 08/M03 A2963 RMK SC7 SLP038=

CYQG;2006-10-13 23:00;METAR CYQG 132300Z 25010KT 15SM BKN070 09/M03 A2964 RMK AC7 SLP040=

CYQG;2006-10-14 00:00;METAR CYQG 140000Z 24008KT 15SM OVC080 08/M03 A2965 RMK AC8 SLP045=

CYQG;2006-10-14 01:00;METAR CYQG 140100Z 24010KT 15SM OVC075 09/M03 A2966 RMK AC8 SLP049=

CYQG;2006-10-14 02:00;METAR CYQG 140200Z 24013KT 15SM OVC080 08/M03 A2965 RMK AC8 SLP046=

CYQG;2006-10-14 03:00;METAR CYQG 140300Z 23014KT 15SM OVC070 08/M04 A2965 RMK AC8 SLP044=

CYQG;2006-10-14 04:00;METAR CYQG 140400Z 23016KT 15SM OVC080 08/M04 A2964 RMK AC8 SLP040=

CYQG;2006-10-14 05:00;METAR CYQG 140500Z 23015KT 15SM OVC075 08/M04 A2963 RMK AC8 SLP039=

CYQG;2006-10-14 06:00;METAR CYQG 140600Z 23013G18KT 15SM OVC063 08/M04 A2964 RMK SC8 SLP039=

CYQG;2006-10-14 07:00;METAR CYQG 140700Z 24011G16KT 15SM OVC062 07/M03 A2965 RMK SC8 SLP044=

CYQG;2006-10-14 08:00;METAR CYQG 140800Z 24012KT 15SM OVC060 07/M03 A2965 RMK SC8 SLP044=

CYQG;2006-10-14 09:00;METAR CYQG 140900Z 24012KT 15SM OVC060 06/M03 A2967 RMK SC8 SLP050=

CYQG;2006-10-14 10:00;METAR CYQG 141000Z 25010G17KT 15SM OVC060 06/M03 A2969 RMK SC8 SLP058=

CYQG;2006-10-14 10:22;SPECI CYQG 141022Z 25010KT 15SM -SHGS OVC050 RMK SC8=

CYQG;2006-10-14 10:43;SPECI CYQG 141043Z 25009KT 15SM OVC060 RMK SC8=

CYQG;2006-10-14 11:00;METAR CYQG 141100Z 25009KT 15SM -SHRA OVC050 05/M01 A2971 RMK SC8 SLP066=

CYQG;2006-10-14 11:20;SPECI CYQG 141120Z 26008KT 8SM -SHRASN OVC036 RMK CU8=

CYQG;2006-10-14 11:49;SPECI CYQG 141149Z 27014KT 10SM SCT047 BKN110 RMK CU4AC3=

CYQG;2006-10-14 12:00;METAR CYQG 141200Z 26010G15KT 15SM VCSH SCT039 BKN110 05/M00 A2975 RMK CU3AC4 SLP077=

CYQG;2006-10-14 13:00;METAR CYQG 141300Z 29014G20KT 15SM FEW050 FEW110 06/M01 A2978 RMK CU2AC1 SLP089=

CYQG;2006-10-14 14:00;METAR CYQG 141400Z 28018G24KT 15SM FEW040 06/M02 A2981 RMK SC2 SLP099=

CYQG;2006-10-14 15:00;METAR CYQG 141500Z 29018G24KT 15SM FEW040 BKN280 07/M03 A2984 RMK SC2CI2 SLP109=

CYQG;2006-10-14 16:00;METAR CYQG 141600Z 30014G21KT 15SM SCT050 BKN280 08/M04 A2987 RMK SC3CI1 SLP118=

CYQG;2006-10-14 17:00;METAR CYQG 141700Z 29012G18KT 15SM FEW052 SCT280 09/M03 A2990 RMK SC2CI1 SLP128=

CYQG;2006-10-14 18:00;METAR CYQG 141800Z 27014G19KT 15SM FEW055 FEW280 09/M04 A2989 RMK SC2CI1 SLP125=

CYQG;2006-10-14 19:00;METAR CYQG 141900Z 26011G17KT 15SM FEW055 BKN280 09/M04 A2987 RMK SC1CI2 SLP119=

CYQG;2006-10-14 20:00;METAR CYQG 142000Z 27009G17KT 15SM FEW055 FEW280 10/M03 A2986 RMK SC1CI1 SLP117=

CYQG;2006-10-14 21:00;METAR CYQG 142100Z 27009KT 15SM FEW055 11/M03 A2987 RMK SC1 SLP117=

CYQG;2006-10-14 22:00;METAR CYQG 142200Z 25013KT 15SM FEW062 10/M03 A2988 RMK SC2 SLP122=

CYQG;2006-10-14 23:00;METAR CYQG 142300Z 27011KT 15SM BKN070 09/M04 A2990 RMK AC5 SLP127=

CYQG;2006-10-15 00:00;METAR CYQG 150000Z 28013KT 15SM SCT064 09/M03 A2992 RMK SC3 SLP138=

CYQG;2006-10-15 01:00;METAR CYQG 150100Z 30009KT 15SM FEW070 07/M03 A2995 RMK AC1 SLP148=

CYQG;2006-10-15 02:00;METAR CYQG 150200Z 28006KT 15SM FEW060 06/M04 A2996 RMK SC1 SLP149=

CYQG;2006-10-15 03:00;METAR CYQG 150300Z 26004KT 15SM FEW060 05/M03 A2996 RMK SC1 SLP149=

CYQG;2006-10-15 04:00;METAR CYQG 150400Z 24003KT 15SM BKN060 05/M02 A2997 RMK SC7 SLP152=

CYQG;2006-10-15 05:00;METAR CYQG 150500Z 24005KT 15SM OVC060 05/M02 A2997 RMK SC8 SLP153=

CYQG;2006-10-15 06:00;METAR CYQG 150600Z 31008KT 15SM OVC060 06/M02 A2999 RMK SC8 SLP159=

CYQG;2006-10-15 07:00;METAR CYQG 150700Z 28005KT 15SM FEW060 04/M02 A3000 RMK SC2 SLP163=

CYQG;2006-10-15 08:00;METAR CYQG 150800Z 26005KT 15SM FEW043 04/M02 A3000 RMK SC2 SLP163=

CYQG;2006-10-15 09:00;METAR CYQG 150900Z 25005KT 15SM SCT240 03/M02 A3001 RMK CI2 SLP167=

CYQG;2006-10-15 10:00;METAR CYQG 151000Z 24005KT 15SM BKN240 03/M01 A3001 RMK CI2 SLP168=

CYQG;2006-10-15 11:00;METAR CYQG 151100Z 25006KT 15SM FEW240 03/M01 A3004 RMK CI1 SLP177=

CYQG;2006-10-15 12:00;METAR CYQG 151200Z 25006KT 15SM BKN250 03/M01 A3005 RMK CI2 SLP182=

CYQG;2006-10-15 13:00;METAR CYQG 151300Z 25005KT 15SM SCT250 04/M01 A3008 RMK CI1 SLP190=

CYQG;2006-10-15 14:00;METAR CYQG 151400Z 23008KT 15SM FEW040 FEW270 06/M00 A3010 RMK SC1CI1 SLP196=

CYQG;2006-10-15 15:00;METAR CYQG 151500Z 23007KT 15SM FEW040 FEW280 08/M01 A3011 RMK SC1CI1 SLP199=

CYQG;2006-10-15 16:00;METAR CYQG 151600Z 27012G17KT 15SM FEW030 FEW280 09/M01 A3010 RMK CF1CI0 SLP198=

CYQG;2006-10-15 17:00;METAR CYQG 151700Z 27009G15KT 15SM FEW040 10/M00 A3009 RMK SC2 SLP195=

CYQG;2006-10-15 18:00;METAR CYQG 151800Z 23008KT 15SM FEW045 BKN280 11/00 A3006 RMK SC1CI2 SLP184=

CYQG;2006-10-15 19:00;METAR CYQG 151900Z 23009KT 15SM BKN280 11/00 A3005 RMK CI2 CC ASOCTD SLP180=

CYQG;2006-10-15 20:00;METAR CYQG 152000Z 22008KT 15SM BKN280 12/01 A3004 RMK CC2 SLP177=

CYQG;2006-10-15 21:00;METAR CYQG 152100Z 21011KT 15SM SCT280 12/01 A3004 RMK CC2 SLP176=

CYQG;2006-10-15 22:00;METAR CYQG 152200Z 21011KT 15SM FEW050 SCT280 11/M00 A3004 RMK SC1CI2 SLP176=

CYQG;2006-10-15 23:00;METAR CYQG 152300Z 19005KT 15SM SCT260 10/00 A3004 RMK CI2 SLP175=

CYQG;2006-10-16 00:00;METAR CYQG 160000Z 18005KT 15SM FEW260 08/01 A3005 RMK CI1 SLP180=

CYQG;2006-10-16 01:00;METAR CYQG 160100Z 19006KT 15SM SKC 07/01 A3007 RMK SLP186=

CYQG;2006-10-16 02:00;METAR CYQG 160200Z 23008KT 15SM SKC 09/M01 A3007 RMK SLP189=

CYQG;2006-10-16 03:00;METAR CYQG 160300Z 26007KT 15SM SKC 09/M03 A3008 RMK SLP189=

CYQG;2006-10-16 04:00;METAR CYQG 160400Z 23006KT 15SM SKC 07/M02 A3009 RMK SLP194=

CYQG;2006-10-16 05:00;METAR CYQG 160500Z 23004KT 15SM FEW098 06/M01 A3010 RMK AC2 SLP197=

CYQG;2006-10-16 06:00;METAR CYQG 160600Z 22003KT 15SM BKN099 06/M00 A3011 RMK AC6 SLP199=

CYQG;2006-10-16 07:00;METAR CYQG 160700Z 13003KT 15SM BKN110 06/M00 A3011 RMK AC7 SLP198=

CYQG;2006-10-16 08:00;METAR CYQG 160800Z 18003KT 15SM OVC078 05/00 A3012 RMK AC8 SLP203=

CYQG;2006-10-16 09:00;METAR CYQG 160900Z 00000KT 15SM FEW071 BKN110 06/01 A3011 RMK AC2AC5 SLP201=

CYQG;2006-10-16 10:00;METAR CYQG 161000Z 00000KT 15SM BKN064 BKN100 06/01 A3013 RMK SC6AC2 SLP205=

CYQG;2006-10-16 11:00;METAR CYQG 161100Z 14002KT 15SM BKN054 BKN077 07/03 A3011 RMK SC6AC2 SLP201=

CYQG;2006-10-16 12:00;METAR CYQG 161200Z 19003KT 15SM BKN054 08/04 A3014 RMK SC7 SLP209=

CYQG;2006-10-16 13:00;METAR CYQG 161300Z 06003KT 15SM BKN045 09/05 A3014 RMK SC7 SLP210=

CYQG;2006-10-16 14:00;METAR CYQG 161400Z 18006KT 15SM OVC053 11/05 A3014 RMK SC8 SLP211=

CYQG;2006-10-16 15:00;METAR CYQG 161500Z 19005KT 15SM OVC054 11/04 A3014 RMK SC8 SLP210=

CYQG;2006-10-16 16:00;METAR CYQG 161600Z 18008KT 15SM OVC060 13/04 A3013 RMK SC8 SLP205=

CYQG;2006-10-16 18:00;METAR CYQG 161800Z 16006KT 15SM OVC063 13/03 A3011 RMK SC8 SLP199=

CYQG;2006-10-16 19:00;METAR CYQG 161900Z 14006KT 15SM OVC073 14/04 A3007 RMK AC8 SLP185=

CYQG;2006-10-16 20:00;METAR CYQG 162000Z 14005KT 15SM OVC077 13/05 A3007 RMK AC8 SLP186=

CYQG;2006-10-16 21:00;METAR CYQG 162100Z 14007KT 15SM -SHRA OVC077 13/05 A3006 RMK AC8 SLP181=

CYQG;2006-10-16 21:47;SPECI CYQG 162147Z 15006KT 15SM OVC100 RMK AC8=

CYQG;2006-10-16 22:00;METAR CYQG 162200Z 14005KT 15SM SCT080 OVC100 13/05 A3005 RMK AC3AC5 SLP179=

CYQG;2006-10-16 23:00;METAR CYQG 162300Z 16005KT 15SM BKN071 OVC100 12/05 A3005 RMK AC5AC3 SLP179=

CYQG;2006-10-16 23:16;SPECI CYQG 162316Z 15006KT 10SM -SHRA BKN069 OVC100 RMK AC6AC2=

CYQG;2006-10-17 00:00;METAR CYQG 170000Z 17004KT 10SM -SHRA BKN084 OVC120 12/07 A3004 RMK AC6AC2 SLP174=

CYQG;2006-10-17 01:00;METAR CYQG 170100Z 15004KT 8SM -SHRA BKN076 OVC110 11/07 A3003 RMK AC6AC2 SLP172=

CYQG;2006-10-17 02:00;METAR CYQG 170200Z 15006KT 8SM -SHRA OVC091 11/08 A3001 RMK AC8 SLP166=

CYQG;2006-10-17 03:00;METAR CYQG 170300Z 15008KT 9SM -SHRA OVC089 11/08 A2999 RMK AC8 SLP157=

CYQG;2006-10-17 04:00;METAR CYQG 170400Z 15008KT 8SM -RA SCT054 OVC091 10/08 A2994 RMK SC3AC5 SLP142=

CYQG;2006-10-17 05:00;METAR CYQG 170500Z 15009KT 5SM -RA BR FEW011 OVC077 10/09 A2990 RMK SF2AC6 SLP127=

CYQG;2006-10-17 06:00;METAR CYQG 170600Z 13010G16KT 5SM -RA BR FEW011 OVC054 10/09 A2984 RMK SF2SC6 PRESFR SLP107=

CYQG;2006-10-17 06:38;SPECI CYQG 170638Z 13013KT 4SM RA BR FEW007 OVC036 RMK SF2SC6=

CYQG;2006-10-17 07:00;METAR CYQG 170700Z 13013G18KT 3SM RA BR SCT009 OVC031 11/10 A2977 RMK SF3SC5 PRESFR SLP085=

CYQG;2006-10-17 08:00;METAR CYQG 170800Z 13014KT 3SM +RA BR SCT006 OVC019 11/10 A2973 RMK SF3SC5 SLP071=

CYQG;2006-10-17 08:54;SPECI CYQG 170854Z 15013KT 4SM RA BR BKN008 OVC015 RMK SF5SC3=

CYQG;2006-10-17 09:00;METAR CYQG 170900Z 15012G17KT 4SM RA BR BKN008 OVC015 10/10 A2970 RMK SF5SC3 SLP059=

CYQG;2006-10-17 10:00;METAR CYQG 171000Z 15013G18KT 4SM -RA BR BKN008 OVC029 11/10 A2965 RERA RMK SF5SC3 SLP044=

CYQG;2006-10-17 11:00;METAR CYQG 171100Z 16015KT 3SM -RA BR BKN007 OVC018 11/10 A2962 RMK SF6SC2 SLP032=

CYQG;2006-10-17 12:00;METAR CYQG 171200Z 16018G26KT 6SM -RA BR SCT009 OVC040 12/11 A2958 RERA RMK SF4SC4 SLP017=

CYQG;2006-10-17 12:47;SPECI CYQG 171247Z 15016G22KT 5SM RA BR BKN007 OVC040 RMK SF6SC2=

CYQG;2006-10-17 13:00;METAR CYQG 171300Z 16016G22KT 3SM RA BR BKN007 OVC030 11/11 A2955 RMK SF6SC2 SLP010=

CYQG;2006-10-17 13:38;SPECI CYQG 171338Z 16018G24KT 2 1/2SM -RA BR BKN005 OVC020 RERA RMK SF6SC2=

CYQG;2006-10-17 14:00;METAR CYQG 171400Z 16018G25KT 2 1/2SM -RA BR BKN005 OVC011 12/11 A2952 RERA RMK SF6SC2 SLP998=

CYQG;2006-10-17 14:26;SPECI CYQG 171426Z 17015G22KT 2SM -RA BR BKN005 OVC010 RERA RMK SF7SC1=

CYQG;2006-10-17 15:00;METAR CYQG 171500Z 18015G20KT 2 1/2SM RA BR OVC005 12/12 A2950 RMK SF8 SLP990=

CYQG;2006-10-17 15:24;SPECI CYQG 171524Z 18013G19KT 3SM -DZ OVC005 RERA RMK SF8=

CYQG;2006-10-17 15:41;SPECI CYQG 171541Z 17014G20KT 1 1/2SM -DZ OVC005 RERA RMK SF8=

CYQG;2006-10-17 15:46;SPECI CYQG 171546Z 18013G20KT 2 1/2SM -DZ BR OVC005 RERA RMK SF8=

CYQG;2006-10-17 16:00;METAR CYQG 171600Z 18014KT 2 1/2SM -DZ BR OVC005 13/12 A2947 RERA RMK SF8 SLP980=

CYQG;2006-10-17 16:08;SPECI CYQG 171608Z 18011G18KT 2 1/2SM -RA BR OVC005 RMK SF8=

CYQG;2006-10-17 16:22;SPECI CYQG 171622Z 18013KT 2SM -RA BR OVC005 RMK SF8=

CYQG;2006-10-17 17:00;METAR CYQG 171700Z 18014G20KT 2 1/2SM -RA BR OVC050 14/13 A2945 RMK SF8 SLP974=

CYQG;2006-10-17 17:44;SPECI CYQG 171744Z 20014G19KT 2SM -RA BR OVC005 RMK SC8=

CYQG;2006-10-17 18:00;METAR CYQG 171800Z 20011G17KT 2 1/2SM -RA BR OVC003 14/14 A2944 RMK SC8 SLP969=

CYQG;2006-10-17 18:07;SPECI CYQG 171807Z 21011G16KT 1 1/2SM -RA BR OVC003 RMK SC8=

CYQG;2006-10-17 18:23;SPECI CYQG 171823Z 22011G16KT 2 1/2SM -RA BR BKN007 OVC015 RMK SF6SC2=

CYQG;2006-10-17 18:34;SPECI CYQG 171834Z 23012G18KT 6SM -RA BR BKN021 OVC040 RMK SF6SC2=

CYQG;2006-10-17 19:00;METAR CYQG 171900Z 24014G21KT 8SM -RA FEW010 BKN014 15/14 A2946 RMK SF1SC7 SLP977=

CYQG;2006-10-17 19:19;SPECI CYQG 171919Z 24013KT 15SM SCT018 OVC036 RMK CU3SC5=

CYQG;2006-10-17 20:00;METAR CYQG 172000Z 24015G21KT 15SM BKN021 OVC036 15/13 A2950 RMK CU5SC3 SLP989=

CYQG;2006-10-17 20:06;SPECI CYQG 172006Z 24015G21KT 15SM -DZ BKN020 OVC035 RMK CU6SC2=

CYQG;2006-10-17 21:00;METAR CYQG 172100Z 24014G21KT 15SM -DZ SCT012 BKN022 OVC040 14/12 A2954 RMK CU3CU3SC2 SLP005=

CYQG;2006-10-17 21:08;SPECI CYQG 172108Z 24013G20KT 7SM -SHRA SCT008 BKN015 OVC040 RMK SF3CU4SC1=

CYQG;2006-10-17 21:28;SPECI CYQG 172128Z 24013G20KT 15SM FEW008 BKN021 RMK SF2CU5=

CYQG;2006-10-17 22:00;METAR CYQG 172200Z 24014KT 15SM BKN019 BKN035 14/12 A2959 RMK CU5SC2 SLP020=

CYQG;2006-10-17 23:00;METAR CYQG 172300Z 25013KT 15SM BKN024 BKN037 14/11 A2962 RMK CU6SC2 SLP031=

CYQG;2006-10-18 00:00;METAR CYQG 180000Z 26013KT 15SM FEW020 BKN044 13/10 A2966 RMK CU2SC5 SLP046=

CYQG;2006-10-18 01:00;METAR CYQG 180100Z 26009G16KT 15SM FEW020 BKN040 13/10 A2970 RMK SF1SC7 SLP057=

CYQG;2006-10-18 02:00;METAR CYQG 180200Z 25010KT 15SM FEW020 BKN031 13/10 A2972 RMK SC2SC6 SLP066=

CYQG;2006-10-18 03:00;METAR CYQG 180300Z 24007KT 15SM BKN024 13/10 A2975 RMK SC7 SLP075=

CYQG;2006-10-18 04:00;METAR CYQG 180400Z 25005KT 15SM BKN027 12/10 A2976 RMK SC7 SLP078=

CYQG;2006-10-18 05:00;METAR CYQG 180500Z 24007KT 15SM BKN030 12/10 A2978 RMK SC7 SLP085=

CYQG;2006-10-18 06:00;METAR CYQG 180600Z 23006KT 15SM BKN029 12/10 A2979 RMK SC7 SLP089=

CYQG;2006-10-18 07:00;METAR CYQG 180700Z 24005KT 15SM OVC028 12/10 A2980 RMK SC8 SLP093=

CYQG;2006-10-18 08:00;METAR CYQG 180800Z 23005KT 15SM OVC022 12/10 A2981 RMK SC8 SLP096=

CYQG;2006-10-18 09:00;METAR CYQG 180900Z 22004KT 12SM OVC021 12/10 A2981 RMK SC8 SLP097=

CYQG;2006-10-18 10:00;METAR CYQG 181000Z 22005KT 12SM OVC024 12/10 A2983 RMK SC8 SLP104=

CYQG;2006-10-18 11:00;METAR CYQG 181100Z 21005KT 8SM OVC026 12/10 A2983 RMK SC8 SLP104=

CYQG;2006-10-18 12:00;METAR CYQG 181200Z 21005KT 7SM OVC032 12/10 A2985 RMK SC8 SLP110=

CYQG;2006-10-18 13:00;METAR CYQG 181300Z 22006KT 7SM OVC033 13/11 A2987 RMK SC8 SLP115=

CYQG;2006-10-18 14:00;METAR CYQG 181400Z 21006KT 7SM OVC036 13/11 A2987 RMK SC8 SLP117=

CYQG;2006-10-18 15:00;METAR CYQG 181500Z 22007KT 7SM OVC040 13/12 A2988 RMK SC8 SLP119=

CYQG;2006-10-18 16:00;METAR CYQG 181600Z 22007KT 7SM FEW012 OVC038 14/12 A2988 RMK SC1SC7 SLP120=

CYQG;2006-10-18 17:00;METAR CYQG 181700Z 21007KT 8SM FEW012 OVC039 15/13 A2987 RMK SC2SC6 SLP116=

CYQG;2006-10-18 18:00;METAR CYQG 181800Z 21006KT 10SM BKN040 17/13 A2985 RMK SC7 SLP110=

CYQG;2006-10-18 19:00;METAR CYQG 181900Z 18011KT 10SM FEW017 BKN038 18/14 A2983 RMK SC1SC5 SLP103=

CYQG;2006-10-18 20:00;METAR CYQG 182000Z 21011G16KT 7SM BKN039 16/13 A2984 RMK SC7 SLP106=

CYQG;2006-10-18 21:00;METAR CYQG 182100Z 20011KT 7SM OVC040 16/13 A2983 RMK SC8 SLP104=

CYQG;2006-10-18 22:00;METAR CYQG 182200Z 20009KT 8SM FEW030 OVC040 16/13 A2983 RMK CF2SC6 SLP103=

CYQG;2006-10-18 23:00;METAR CYQG 182300Z 20004KT 7SM OVC037 15/12 A2982 RMK SF8 SLP100=

CYQG;2006-10-19 00:00;METAR CYQG 190000Z 20009KT 7SM OVC044 15/13 A2982 RMK SC8 SLP100=

CYQG;2006-10-19 01:00;METAR CYQG 190100Z 20009KT 7SM BKN042 15/12 A2981 RMK SC7 SLP096=

CYQG;2006-10-19 02:00;METAR CYQG 190200Z 20009KT 8SM SKC 14/12 A2981 RMK SLP095=

CYQG;2006-10-19 03:00;METAR CYQG 190300Z 20007KT 8SM SCT067 SCT280 13/12 A2982 RMK AC1CS2 SLP098=

CYQG;2006-10-19 04:00;METAR CYQG 190400Z 20009KT 6SM BR BKN031 14/12 A2978 RMK SC6 SLP086=

CYQG;2006-10-19 05:00;METAR CYQG 190500Z 20007G15KT 6SM BR BKN038 14/13 A2977 RMK SC7 SLP081=

CYQG;2006-10-19 06:00;METAR CYQG 190600Z 19010KT 6SM BR BKN026 OVC059 14/13 A2974 RMK SC6SC2 SLP072=

CYQG;2006-10-19 06:46;SPECI CYQG 190646Z 21010KT 5SM -SHRA BR OVC017 RMK SC8=

CYQG;2006-10-19 07:00;METAR CYQG 190700Z 21009KT 5SM -SHRA BR OVC015 15/13 A2974 RMK SC8 SLP072=

CYQG;2006-10-19 07:34;SPECI CYQG 190734Z 21008KT 5SM BR FEW020 BKN077 OVC140 RMK SC2AC4AC2=

CYQG;2006-10-19 08:00;METAR CYQG 190800Z 21009KT 5SM BR BKN015 OVC070 14/13 A2972 RMK SC5AC3 SLP064=

CYQG;2006-10-19 09:00;METAR CYQG 190900Z 23008KT 5SM BR OVC013 15/14 A2971 RMK SC8 SLP061=

CYQG;2006-10-19 09:52;SPECI CYQG 190952Z 30007G15KT 12SM BKN016 RMK SC7=

CYQG;2006-10-19 10:00;METAR CYQG 191000Z 29007KT 12SM BKN015 13/11 A2973 RMK SC7 SLP067=

CYQG;2006-10-19 10:39;SPECI CYQG 191039Z 29010KT 8SM -DZ BKN009 OVC015 RMK SF6SC2=

CYQG;2006-10-19 11:00;METAR CYQG 191100Z 31007KT 12SM -RA OVC008 12/11 A2975 RMK SF8 SLP075=

CYQG;2006-10-19 11:48;SPECI CYQG 191148Z 32008KT 15SM BKN012 OVC030 RMK SC7SC1=

CYQG;2006-10-19 12:00;METAR CYQG 191200Z 31010KT 15SM BKN013 OVC035 11/09 A2977 RMK SC6SC2 SLP081=

CYQG;2006-10-19 12:50;SPECI CYQG 191250Z 31007KT 15SM BKN017 OVC037 RMK SC6SC2=

CYQG;2006-10-19 13:00;METAR CYQG 191300Z 32007KT 15SM BKN018 OVC038 11/07 A2977 RMK SC5SC3 SLP083=

CYQG;2006-10-19 14:00;METAR CYQG 191400Z 30011KT 15SM BKN018 OVC042 11/07 A2980 RMK SC7SC1 SLP094=

CYQG;2006-10-19 15:00;METAR CYQG 191500Z 29007KT 15SM BKN019 OVC045 11/07 A2981 RMK SC7SC1 SLP096=

CYQG;2006-10-19 16:00;METAR CYQG 191600Z 30006KT 15SM BKN022 OVC140 11/06 A2981 RMK SC6AC2 SLP097=

CYQG;2006-10-19 17:00;METAR CYQG 191700Z 29011KT 15SM BKN023 OVC110 11/05 A2980 RMK SC7AC1 SLP094=

CYQG;2006-10-19 18:00;METAR CYQG 191800Z 31010KT 15SM BKN029 OVC110 11/05 A2977 RMK SC7AC1 SLP084=

CYQG;2006-10-19 19:00;METAR CYQG 191900Z 33007KT 15SM OVC029 11/05 A2977 RMK SC8 SLP082=

CYQG;2006-10-19 20:00;METAR CYQG 192000Z 35009KT 15SM OVC027 10/04 A2977 RMK SC8 SLP084=

CYQG;2006-10-19 21:00;METAR CYQG 192100Z 34008KT 15SM OVC025 10/04 A2979 RMK SC8 SLP089=

CYQG;2006-10-19 22:00;METAR CYQG 192200Z 34010KT 15SM OVC027 09/04 A2980 RMK SC8 SLP091=

CYQG;2006-10-19 23:00;METAR CYQG 192300Z 33007KT 15SM OVC031 09/03 A2977 RMK SC8 SLP084=

CYQG;2006-10-20 00:00;METAR CYQG 200000Z 33004KT 15SM BKN028 09/03 A2979 RMK SC7 SLP091=

CYQG;2006-10-20 01:00;METAR CYQG 200100Z 33005KT 15SM OVC037 09/02 A2981 RMK SC8 SLP098=

CYQG;2006-10-20 02:00;METAR CYQG 200200Z 35006KT 15SM OVC032 08/03 A2980 RMK SC8 SLP092=

CYQG;2006-10-20 04:00;METAR CYQG 200400Z 34004KT 15SM OVC034 08/03 A2980 RMK SC8 SLP092=

CYQG;2006-10-20 05:00;METAR CYQG 200500Z 33007KT 15SM OVC039 08/03 A2977 RMK SC8 SLP082=

CYQG;2006-10-20 06:00;METAR CYQG 200600Z 35005KT 15SM BKN044 OVC097 07/03 A2976 RMK SC6AC2 SLP079=

CYQG;2006-10-20 07:00;METAR CYQG 200700Z 35004KT 15SM OVC042 07/03 A2975 RMK SC8 SLP076=

CYQG;2006-10-20 07:26;SPECI CYQG 200726Z 35004KT 15SM -SHRA OVC039 RMK SC8=

CYQG;2006-10-20 08:00;METAR CYQG 200800Z 34005KT 12SM -SHRA OVC031 07/04 A2973 RMK SC8 SLP071=

CYQG;2006-10-20 09:00;METAR CYQG 200900Z 34006KT 12SM -SHRA OVC038 06/04 A2972 RMK SC8 SLP068=

CYQG;2006-10-20 10:00;METAR CYQG 201000Z 34005KT 12SM -SHRA OVC034 06/05 A2973 RMK SC8 SLP070=

CYQG;2006-10-20 10:52;SPECI CYQG 201052Z 32005KT 15SM FEW010 OVC038 RMK CF1SC7=

CYQG;2006-10-20 11:00;METAR CYQG 201100Z 32004KT 15SM FEW010 OVC036 06/05 A2974 RMK CF1SC7 SLP074=

CYQG;2006-10-20 12:00;METAR CYQG 201200Z 32009KT 15SM FEW012 BKN025 OVC040 06/04 A2976 RMK SC1SC6SC2 SLP082=

CYQG;2006-10-20 13:00;METAR CYQG 201300Z 31006KT 15SM FEW013 BKN037 BKN058 07/05 A2978 RMK SC1SC6SC1 SLP089=

CYQG;2006-10-20 14:00;METAR CYQG 201400Z 31004KT 15SM FEW015 BKN026 BKN035 07/05 A2980 RMK SC2SC3SC2 SLP094=

CYQG;2006-10-20 15:00;METAR CYQG 201500Z 29008KT 15SM FEW014 OVC027 07/05 A2981 RMK SC2SC6 SLP098=

CYQG;2006-10-20 15:38;SPECI CYQG 201538Z 28012KT 12SM -SHRA BKN016 OVC027 RMK SC6SC2=

CYQG;2006-10-20 16:00;METAR CYQG 201600Z 30006KT 15SM -SHRA SCT016 BKN055 07/05 A2983 RMK SC3SC4 SLP103=

CYQG;2006-10-20 16:35;SPECI CYQG 201635Z 31008KT 15SM SCT021 BKN058 RMK SC3SC4=

CYQG;2006-10-20 17:00;METAR CYQG 201700Z 31009KT 15SM BKN027 BKN056 08/03 A2983 RMK SC5SC2 SLP104=

CYQG;2006-10-20 18:00;METAR CYQG 201800Z 30008KT 15SM BKN057 09/02 A2982 RMK SC7 SLP100=

CYQG;2006-10-20 19:00;METAR CYQG 201900Z 29010KT 15SM BKN042 09/00 A2982 RMK SC7 SLP102=

CYQG;2006-10-20 20:00;METAR CYQG 202000Z 28010KT 15SM BKN040 10/00 A2983 RMK SC7 SLP106=

CYQG;2006-10-20 21:00;METAR CYQG 202100Z 25008KT 15SM BKN060 10/M00 A2984 RMK SC7 SLP109=

CYQG;2006-10-20 22:00;METAR CYQG 202200Z 27008KT 15SM BKN060 10/00 A2985 RMK SC6 SLP110=

CYQG;2006-10-20 23:00;METAR CYQG 202300Z 23004KT 15SM BKN060 09/01 A2986 RMK SC6 SLP114=

CYQG;2006-10-21 00:00;METAR CYQG 210000Z 20004KT 15SM BKN045 07/01 A2986 RMK SC6 SLP117=

CYQG;2006-10-21 01:00;METAR CYQG 210100Z 22003KT 15SM BKN075 07/02 A2988 RMK AC6 SLP121=

CYQG;2006-10-21 02:00;METAR CYQG 210200Z 25004KT 15SM BKN060 08/02 A2989 RMK SC7 SLP126=

CYQG;2006-10-21 03:00;METAR CYQG 210300Z 30005KT 15SM BKN057 08/02 A2990 RMK SC7 SLP130=

CYQG;2006-10-21 04:00;METAR CYQG 210400Z 28006KT 12SM OVC053 08/02 A2992 RMK SC8 SLP134=

CYQG;2006-10-21 05:00;METAR CYQG 210500Z 29003KT 12SM OVC053 08/02 A2992 RMK SC8 SLP136=

CYQG;2006-10-21 06:00;METAR CYQG 210600Z 20003KT 15SM OVC054 08/03 A2992 RMK SC8 SLP136=

CYQG;2006-10-21 07:00;METAR CYQG 210700Z 20004KT 15SM SCT055 OVC093 07/03 A2992 RMK SC3AC5 SLP137=

CYQG;2006-10-21 08:00;METAR CYQG 210800Z 18004KT 15SM SCT047 OVC081 08/03 A2992 RMK SC4AC4 SLP136=

CYQG;2006-10-21 09:00;METAR CYQG 210900Z 21005KT 15SM BKN048 OVC078 08/03 A2992 RMK SC6AC2 SLP137=

CYQG;2006-10-21 10:00;METAR CYQG 211000Z 21005KT 15SM SCT050 OVC079 08/03 A2993 RMK SC3AC5 SLP140=

CYQG;2006-10-21 11:00;METAR CYQG 211100Z 22006KT 15SM FEW050 BKN079 OVC110 08/03 A2994 RMK SC2AC5AC2 SLP142=

CYQG;2006-10-21 12:00;METAR CYQG 211200Z 22006KT 12SM BKN063 OVC100 08/04 A2995 RMK SC6AC2 SLP147=

CYQG;2006-10-21 13:00;METAR CYQG 211300Z 24008KT 12SM -SHRA OVC056 08/04 A2998 RMK SC8 SLP154=

CYQG;2006-10-21 14:00;METAR CYQG 211400Z 24007KT 10SM -SHRA BKN058 OVC075 08/05 A3000 RMK SC5AC3 SLP161=

CYQG;2006-10-21 15:00;METAR CYQG 211500Z 23009KT 12SM -SHRA OVC068 08/05 A2999 RMK AC8 SLP160=

CYQG;2006-10-21 16:00;METAR CYQG 211600Z 23010KT 10SM -SHRA OVC063 09/05 A3000 RMK SC8 SLP161=

CYQG;2006-10-21 16:51;SPECI CYQG 211651Z 23008KT 12SM BKN057 OVC070 RMK SC5AC3=

CYQG;2006-10-21 17:00;METAR CYQG 211700Z 22007KT 15SM FEW057 OVC070 10/06 A2999 RMK SC2AC6 SLP158=

CYQG;2006-10-21 18:00;METAR CYQG 211800Z 20008KT 12SM OVC064 10/06 A2997 RMK SC8 SLP153=

CYQG;2006-10-21 19:00;METAR CYQG 211900Z 21010KT 15SM FEW067 OVC090 11/06 A2995 RMK AC2AC6 SLP146=

CYQG;2006-10-21 20:00;METAR CYQG 212000Z 21010G15KT 15SM FEW068 SCT120 13/07 A2994 RMK AC2AC1 SLP142=

CYQG;2006-10-21 21:00;METAR CYQG 212100Z 21008KT 12SM FEW067 BKN120 14/07 A2994 RMK AC1AC4 SLP140=

CYQG;2006-10-21 22:00;METAR CYQG 212200Z 20006KT 15SM BKN120 BKN240 14/07 A2992 RMK AC4CI0 SLP134=

CYQG;2006-10-21 23:00;METAR CYQG 212300Z 19007KT 15SM SCT120 13/06 A2992 RMK AC3 SLP133=

CYQG;2006-10-22 00:00;METAR CYQG 220000Z 19005KT 15SM BKN110 12/07 A2991 RMK AC7 SLP132=

CYQG;2006-10-22 01:00;METAR CYQG 220100Z 18005KT 15SM BKN140 12/06 A2990 RMK AC7 SLP129=

CYQG;2006-10-22 02:00;METAR CYQG 220200Z 18007KT 15SM OVC120 12/06 A2990 RMK AC8 SLP128=

CYQG;2006-10-22 03:00;METAR CYQG 220300Z 19009KT 15SM OVC062 12/06 A2989 RMK SC8 SLP125=

CYQG;2006-10-22 03:17;SPECI CYQG 220317Z 19007KT 15SM -SHRA OVC062 RMK SC8=

CYQG;2006-10-22 04:00;METAR CYQG 220400Z 20005KT 15SM -SHRA OVC072 11/06 A2988 RMK AC8 SLP122=

CYQG;2006-10-22 05:00;METAR CYQG 220500Z 10002KT 15SM -SHRA OVC088 10/07 A2985 RMK AC8 SLP111=

CYQG;2006-10-22 06:00;METAR CYQG 220600Z 00000KT 15SM OVC083 10/07 A2984 RMK AC8 SLP108=

CYQG;2006-10-22 07:00;METAR CYQG 220700Z 08002KT 15SM OVC057 10/07 A2981 RMK SC8 SLP097=

CYQG;2006-10-22 07:07;SPECI CYQG 220707Z 00000KT 15SM -SHRA OVC048 RMK SC8=

CYQG;2006-10-22 08:00;METAR CYQG 220800Z 06004KT 12SM -SHRA OVC036 09/07 A2977 RMK SC8 SLP082=

CYQG;2006-10-22 09:00;METAR CYQG 220900Z 08004KT 12SM -SHRA OVC048 09/08 A2974 RMK SC8 SLP071=

CYQG;2006-10-22 10:00;METAR CYQG 221000Z 15003KT 12SM -RA OVC031 09/08 A2972 RMK SC8 SLP065=

CYQG;2006-10-22 11:00;METAR CYQG 221100Z 16004KT 6SM -RA BR OVC049 09/08 A2969 RMK SC8 SLP057=

CYQG;2006-10-22 12:00;METAR CYQG 221200Z 18003KT 5SM -RA BR BKN020 OVC040 09/08 A2967 RMK SC5SC3 SLP050=

CYQG;2006-10-22 13:00;METAR CYQG 221300Z 21007KT 4SM -RA BR BKN016 OVC035 09/08 A2967 RMK SC6SC2 SLP049=

CYQG;2006-10-22 13:51;SPECI CYQG 221351Z 22007KT 4SM -RA BR BKN011 OVC035 RMK SC6SC2=

CYQG;2006-10-22 14:00;METAR CYQG 221400Z 22007KT 4SM -RA BR BKN011 OVC024 09/08 A2967 RMK SC7SC1 SLP048=

CYQG;2006-10-22 14:45;SPECI CYQG 221445Z 23009KT 5SM -RA BR FEW008 OVC011 RMK SF2SC6=

CYQG;2006-10-22 15:00;METAR CYQG 221500Z 23009KT 4SM -RA BR SCT008 OVC011 09/08 A2965 RMK SF3SC5 SLP044=

CYQG;2006-10-22 15:40;SPECI CYQG 221540Z 24009KT 4SM -RA BR BKN008 OVC012 RMK SF6SC2=

CYQG;2006-10-22 16:00;METAR CYQG 221600Z 24010KT 5SM -RA BR BKN008 BKN013 OVC048 09/08 A2965 RMK SF5SC2SC2 SLP043=

CYQG;2006-10-22 16:18;SPECI CYQG 221618Z 24011G16KT 6SM -RA BR SCT008 BKN012 OVC048 RMK SF3SC3SC2=

CYQG;2006-10-22 16:44;SPECI CYQG 221644Z 24008KT 7SM -RA FEW008 OVC017 RMK SF2SC6=

CYQG;2006-10-22 17:00;METAR CYQG 221700Z 24010G17KT 8SM -RA FEW008 BKN017 OVC024 10/08 A2964 RMK SF1SC6SC2 SLP041=

CYQG;2006-10-22 17:27;SPECI CYQG 221727Z 24012KT 7SM -RA BKN012 OVC023 RMK SF6SC2=

CYQG;2006-10-22 18:00;METAR CYQG 221800Z 24010G17KT 8SM -RA SCT012 OVC032 09/08 A2964 RMK SF3SC5 SLP040=

CYQG;2006-10-22 19:00;METAR CYQG 221900Z 26014G19KT 15SM -RA OVC021 10/07 A2964 RMK SC8 SLP040=

CYQG;2006-10-22 20:00;METAR CYQG 222000Z 26014G22KT 15SM -RA OVC018 09/06 A2966 RMK SC8 SLP045=

CYQG;2006-10-22 21:00;METAR CYQG 222100Z 28018G25KT 15SM -RA OVC017 07/04 A2971 RMK SC8 SLP062=

CYQG;2006-10-22 22:00;METAR CYQG 222200Z 28019G28KT 10SM -RA OVC018 05/02 A2975 RMK SC8 SLP077=

CYQG;2006-10-22 23:00;METAR CYQG 222300Z 30020KT 12SM -RA SCT015 OVC022 05/02 A2979 RMK SC3SC5 SLP091=

CYQG;2006-10-22 23:46;SPECI CYQG 222346Z 30015G21KT 15SM SCT019 OVC070 RMK SC3AC5=

CYQG;2006-10-22 23:54;SPECI CYQG 222354Z 30012G17KT 15SM -RA BKN018 OVC060 RMK SC5SC3=

CYQG;2006-10-23 00:00;METAR CYQG 230000Z 30013KT 15SM -RA BKN018 OVC060 05/02 A2983 RMK SC6SC2 SLP107=

CYQG;2006-10-23 00:42;SPECI CYQG 230042Z 29010G17KT 15SM FEW018 OVC047 RMK SC2SC6=

CYQG;2006-10-23 01:00;METAR CYQG 230100Z 30012KT 15SM FEW020 OVC050 05/02 A2986 RMK SC2SC6 SLP115=

CYQG;2006-10-23 01:33;SPECI CYQG 230133Z 29012KT 12SM -RA OVC015 RMK SC8=

CYQG;2006-10-23 02:00;METAR CYQG 230200Z 30011G19KT 15SM -SHRA BKN019 OVC035 05/02 A2988 RMK SC5SC3 SLP122=

CYQG;2006-10-23 02:48;SPECI CYQG 230248Z 31011G18KT 15SM FEW022 OVC058 RMK SC2SC6=

CYQG;2006-10-23 03:00;METAR CYQG 230300Z 30014G19KT 15SM FEW022 OVC057 05/01 A2989 RMK SC1SC7 SLP126=

CYQG;2006-10-23 04:00;METAR CYQG 230400Z 28009KT 15SM FEW020 OVC067 05/M00 A2990 RMK SC1AC7 SLP128=

CYQG;2006-10-23 05:00;METAR CYQG 230500Z 28008KT 15SM OVC058 04/M00 A2989 RMK SC8 SLP126=

CYQG;2006-10-23 06:00;METAR CYQG 230600Z 28011KT 15SM OVC055 04/M01 A2989 RMK SC8 SLP124=

CYQG;2006-10-23 07:00;METAR CYQG 230700Z 28011G17KT 15SM OVC061 04/M02 A2988 RMK SC8 SLP123=

CYQG;2006-10-23 08:00;METAR CYQG 230800Z 28009G16KT 15SM OVC063 04/M01 A2989 RMK SC8 SLP124=

CYQG;2006-10-23 09:00;METAR CYQG 230900Z 28013G18KT 15SM FEW026 BKN073 04/M02 A2989 RMK CU2AC5 SLP125=

CYQG;2006-10-23 10:00;METAR CYQG 231000Z 27013KT 15SM FEW026 BKN070 04/M02 A2989 RMK CU2AC5 SLP128=

CYQG;2006-10-23 11:00;METAR CYQG 231100Z 27010KT 15SM FEW025 BKN073 03/M02 A2990 RMK CU1AC6 SLP131=

CYQG;2006-10-23 12:00;METAR CYQG 231200Z 27011KT 15SM FEW029 BKN073 03/M02 A2991 RMK CU1AC7 SLP135=

CYQG;2006-10-23 13:00;METAR CYQG 231300Z 26010KT 15SM FEW029 BKN073 03/M01 A2992 RMK CF1AC7 SLP139=

CYQG;2006-10-23 14:00;METAR CYQG 231400Z 27009KT 15SM FEW025 BKN070 04/M01 A2993 RMK CF1AC7 SLP141=

CYQG;2006-10-23 15:00;METAR CYQG 231500Z 27012G17KT 15SM FEW030 OVC067 05/M03 A2992 RMK CU1AC7 SLP138=

CYQG;2006-10-23 16:00;METAR CYQG 231600Z 27009KT 15SM BKN029 OVC069 05/M02 A2992 RMK SC6AC2 SLP137=

CYQG;2006-10-23 17:00;METAR CYQG 231700Z 27008KT 15SM BKN030 OVC065 05/M02 A2991 RMK SC6SC2 SLP134=

CYQG;2006-10-23 18:00;METAR CYQG 231800Z 29013G19KT 15SM BKN035 OVC060 06/M03 A2990 RMK SC7SC1 SLP130=

CYQG;2006-10-23 19:00;METAR CYQG 231900Z 28012KT 15SM SCT033 OVC046 05/M02 A2990 RMK SC4SC4 SLP129=

CYQG;2006-10-23 19:02;SPECI CYQG 231902Z 27012KT 15SM -SHRA SCT033 OVC046 RMK SC4SC4=

CYQG;2006-10-23 19:27;SPECI CYQG 231927Z 27010KT 15SM SCT032 OVC046 RMK SC3SC5=

CYQG;2006-10-23 20:00;METAR CYQG 232000Z 27013KT 15SM SCT032 OVC047 05/M02 A2990 RMK SC4SC4 SLP130=

CYQG;2006-10-23 21:00;METAR CYQG 232100Z 28012KT 15SM FEW036 OVC060 05/M02 A2990 RMK SC2SC6 SLP131=

CYQG;2006-10-23 22:00;METAR CYQG 232200Z 27011G16KT 15SM FEW040 OVC060 05/M02 A2991 RMK SC1SC7 SLP134=

CYQG;2006-10-23 23:00;METAR CYQG 232300Z 28009KT 15SM FEW036 OVC062 05/M02 A2992 RMK SC2SC6 SLP137=

CYQG;2006-10-24 00:00;METAR CYQG 240000Z 27009KT 15SM -SHRA FEW030 OVC062 04/M00 A2993 RMK SF2SC6 SLP141=

CYQG;2006-10-24 00:05;SPECI CYQG 240005Z 28008KT 15SM FEW030 OVC062 RMK SF1SC7=

CYQG;2006-10-24 01:00;METAR CYQG 240100Z 27011KT 15SM FEW030 OVC060 04/M00 A2993 RMK SC2SC6 SLP142=

CYQG;2006-10-24 02:00;METAR CYQG 240200Z 28008KT 15SM FEW030 OVC061 04/M01 A2994 RMK SC2SC6 SLP143=

CYQG;2006-10-24 03:00;METAR CYQG 240300Z 29009KT 15SM BKN067 OVC120 04/M01 A2994 RMK AC7AC1 SLP143=

CYQG;2006-10-24 04:00;METAR CYQG 240400Z 28012KT 15SM BKN070 04/M01 A2993 RMK AC7 SLP142=

CYQG;2006-10-24 05:00;METAR CYQG 240500Z 29009KT 15SM FEW070 03/M01 A2993 RMK AC1 SLP140=

CYQG;2006-10-24 06:00;METAR CYQG 240600Z 28010KT 15SM FEW018 03/M01 A2993 RMK SC1 SLP141=

CYQG;2006-10-24 07:00;METAR CYQG 240700Z 28009KT 15SM FEW018 02/M01 A2993 RMK SC1 SLP142=

CYQG;2006-10-24 08:00;METAR CYQG 240800Z 29008KT 15SM FEW015 02/M01 A2994 RMK SC1 SLP143=

CYQG;2006-10-24 09:00;METAR CYQG 240900Z 29009KT 15SM FEW013 02/M01 A2994 RMK SC1 SLP144=

CYQG;2006-10-24 10:00;METAR CYQG 241000Z 29010KT 15SM SKC 01/M01 A2995 RMK SLP148=

CYQG;2006-10-24 11:00;METAR CYQG 241100Z 30008KT 15SM SCT023 01/M01 A2997 RMK SC3 SLP153=

CYQG;2006-10-24 11:21;SPECI CYQG 241121Z 30010KT 15SM BKN015 RMK SC7=

CYQG;2006-10-24 12:00;METAR CYQG 241200Z 31011KT 15SM OVC015 02/M01 A2998 RMK SC8 SLP159=

CYQG;2006-10-24 12:20;SPECI CYQG 241220Z 31009KT 15SM BKN017 RMK SF6=

CYQG;2006-10-24 13:00;METAR CYQG 241300Z 31010G16KT 15SM BKN019 02/M01 A3001 RMK SC7 SLP167=

CYQG;2006-10-24 14:00;METAR CYQG 241400Z 31015G20KT 15SM BKN019 03/M01 A3002 RMK SF6 SLP171=

CYQG;2006-10-24 15:00;METAR CYQG 241500Z 30012KT 15SM FEW019 04/M01 A3003 RMK CF2 SLP175=

CYQG;2006-10-24 16:00;METAR CYQG 241600Z 29012G17KT 15SM BKN021 05/M01 A3004 RMK CF6 SLP178=

CYQG;2006-10-24 17:00;METAR CYQG 241700Z 31011G16KT 15SM BKN025 07/M01 A3004 RMK SC6 SLP177=

CYQG;2006-10-24 18:00;METAR CYQG 241800Z 32014G21KT 15SM BKN039 07/M02 A3004 RMK SC7 SLP176=

CYQG;2006-10-24 19:00;METAR CYQG 241900Z 31013G22KT 15SM BKN048 07/M02 A3004 RMK SC7 SLP179=

CYQG;2006-10-24 20:00;METAR CYQG 242000Z 33013KT 15SM BKN047 06/M02 A3005 RMK SC7 SLP181=

CYQG;2006-10-24 21:00;METAR CYQG 242100Z 32010KT 15SM BKN056 07/M01 A3006 RMK SC7 SLP185=

CYQG;2006-10-24 22:00;METAR CYQG 242200Z 35010KT 15SM BKN041 07/M02 A3007 RMK SC7 SLP189=

CYQG;2006-10-24 23:00;METAR CYQG 242300Z 34006KT 15SM BKN052 07/M03 A3008 RMK SC7 SLP193=

CYQG;2006-10-25 00:00;METAR CYQG 250000Z 33008KT 15SM BKN062 06/M03 A3010 RMK SC7 SLP198=

CYQG;2006-10-25 01:00;METAR CYQG 250100Z 32009KT 15SM BKN057 06/M04 A3011 RMK SC7 SLP201=

CYQG;2006-10-25 02:00;METAR CYQG 250200Z 34007KT 15SM BKN061 06/M04 A3011 RMK SC7 SLP202=

CYQG;2006-10-25 03:00;METAR CYQG 250300Z 31005KT 15SM BKN062 06/M03 A3011 RMK SC7 SLP203=

CYQG;2006-10-25 04:00;METAR CYQG 250400Z 32009KT 15SM OVC057 06/M03 A3012 RMK SC8 SLP206=

CYQG;2006-10-25 05:00;METAR CYQG 250500Z 33006KT 15SM OVC058 06/M03 A3013 RMK SC8 SLP208=

CYQG;2006-10-25 06:00;METAR CYQG 250600Z 29005KT 15SM OVC057 05/M02 A3014 RMK SC8 SLP212=

CYQG;2006-10-25 07:00;METAR CYQG 250700Z 32005KT 15SM OVC053 05/M02 A3015 RMK SC8 SLP214=

CYQG;2006-10-25 08:00;METAR CYQG 250800Z 31007KT 15SM OVC054 05/M01 A3015 RMK SC8 SLP215=

CYQG;2006-10-25 09:00;METAR CYQG 250900Z 30004KT 15SM OVC056 05/M02 A3015 RMK SC8 SLP216=

CYQG;2006-10-25 10:00;METAR CYQG 251000Z 29005KT 15SM OVC056 05/M01 A3017 RMK SC8 SLP221=

CYQG;2006-10-25 11:00;METAR CYQG 251100Z 30007KT 15SM BKN056 04/M01 A3018 RMK SC7 SLP226=

CYQG;2006-10-25 12:00;METAR CYQG 251200Z 30006KT 15SM BKN061 04/M01 A3020 RMK SC7 SLP230=

CYQG;2006-10-25 13:00;METAR CYQG 251300Z 29004KT 15SM BKN060 05/M00 A3021 RMK SC6 SLP236=

CYQG;2006-10-25 14:00;METAR CYQG 251400Z 32006KT 15SM BKN060 06/M00 A3022 RMK SC4 SLP238=

CYQG;2006-10-25 15:00;METAR CYQG 251500Z 32007KT 15SM FEW035 BKN060 07/M02 A3022 RMK CF1SC5 SLP239=

CYQG;2006-10-25 16:00;METAR CYQG 251600Z 32005KT 15SM FEW041 BKN058 07/M02 A3022 RMK CF2SC6 SLP239=

CYQG;2006-10-25 17:00;METAR CYQG 251700Z 35005KT 15SM BKN044 BKN060 08/M02 A3022 RMK CU5SC2 SLP237=

CYQG;2006-10-25 18:00;METAR CYQG 251800Z 29005KT 15SM BKN053 08/M03 A3021 RMK SC7 SLP235=

CYQG;2006-10-25 19:00;METAR CYQG 251900Z 32009KT 15SM BKN051 08/M03 A3020 RMK SC7 SLP232=

CYQG;2006-10-25 20:00;METAR CYQG 252000Z 33005KT 15SM OVC052 08/M04 A3019 RMK SC8 SLP229=

CYQG;2006-10-25 21:00;METAR CYQG 252100Z 29004KT 15SM OVC057 08/M03 A3020 RMK SC8 SLP230=

CYQG;2006-10-25 22:00;METAR CYQG 252200Z 35004KT 15SM BKN055 08/M03 A3020 RMK SC7 SLP230=

CYQG;2006-10-25 23:00;METAR CYQG 252300Z 33002KT 15SM OVC055 08/M03 A3020 RMK SC8 SLP231=

CYQG;2006-10-26 00:00;METAR CYQG 260000Z 08004KT 15SM OVC058 06/M01 A3021 RMK SC8 SLP234=

CYQG;2006-10-26 01:00;METAR CYQG 260100Z 00000KT 15SM OVC057 06/M00 A3022 RMK SC8 SLP237=

CYQG;2006-10-26 02:00;METAR CYQG 260200Z 00000KT 15SM OVC056 06/00 A3023 RMK SC8 SLP240=

CYQG;2006-10-26 03:00;METAR CYQG 260300Z 19003KT 15SM BKN058 06/M00 A3023 RMK SC7 SLP241=

CYQG;2006-10-26 04:00;METAR CYQG 260400Z 00000KT 15SM FEW057 05/M01 A3023 RMK SC2 SLP242=

CYQG;2006-10-26 05:00;METAR CYQG 260500Z 19002KT 15SM BKN056 04/M00 A3023 RMK SC7 SLP242=

CYQG;2006-10-26 06:00;METAR CYQG 260600Z 17002KT 15SM BKN056 04/M00 A3023 RMK SC7 SLP243=

CYQG;2006-10-26 07:00;METAR CYQG 260700Z 17002KT 15SM SCT054 02/M00 A3023 RMK SC3 SLP243=

CYQG;2006-10-26 08:00;METAR CYQG 260800Z 00000KT 15SM SKC 02/M01 A3023 RMK SLP242=

CYQG;2006-10-26 09:00;METAR CYQG 260900Z 00000KT 15SM SKC 01/M01 A3023 RMK SLP242=

CYQG;2006-10-26 10:00;METAR CYQG 261000Z 00000KT 15SM FEW050 01/M01 A3023 RMK SC1 SLP244=

CYQG;2006-10-26 11:00;METAR CYQG 261100Z 00000KT 15SM FEW050 01/M02 A3024 RMK SC1 SLP246=

CYQG;2006-10-26 12:00;METAR CYQG 261200Z 00000KT 15SM FEW050 01/M02 A3024 RMK SC1 SLP248=

CYQG;2006-10-26 13:00;METAR CYQG 261300Z 05002KT 15SM FEW050 02/M01 A3025 RMK SC2 SLP250=

CYQG;2006-10-26 14:00;METAR CYQG 261400Z 15003KT 15SM FEW040 FEW280 06/M01 A3026 RMK SC2CI1 SLP253=

CYQG;2006-10-26 16:00;METAR CYQG 261600Z 15004KT 15SM SCT040 SCT250 09/01 A3024 RMK SC2CI1 SLP246=

CYQG;2006-10-26 17:00;METAR CYQG 261700Z 21004KT 15SM SCT038 SCT250 09/01 A3023 RMK SC3CI1 SLP241=

CYQG;2006-10-26 18:00;METAR CYQG 261800Z 16007KT 15SM BKN038 BKN250 09/01 A3021 RMK SC5CI1 SLP235=

CYQG;2006-10-26 19:00;METAR CYQG 261900Z 19005KT 15SM SCT042 BKN250 09/M00 A3020 RMK SC4CI2 SLP231=

CYQG;2006-10-26 20:00;METAR CYQG 262000Z 16003KT 15SM BKN041 BKN240 09/00 A3018 RMK SC6CI2 SLP226=

CYQG;2006-10-26 21:00;METAR CYQG 262100Z 14006KT 15SM SCT037 BKN078 OVC210 09/00 A3016 RMK SC3AC2CI2 SLP219=

CYQG;2006-10-26 22:00;METAR CYQG 262200Z 14005KT 15SM FEW035 BKN077 OVC210 08/01 A3016 RMK SC2AC3CI2 SLP217=

CYQG;2006-10-26 23:00;METAR CYQG 262300Z 11004KT 15SM BKN070 OVC210 08/01 A3016 RMK AC6CI2 SLP218=

CYQG;2006-10-27 00:00;METAR CYQG 270000Z 10004KT 15SM OVC071 08/01 A3014 RMK AC8 SLP213=

CYQG;2006-10-27 01:00;METAR CYQG 270100Z 11004KT 15SM -SHRA OVC079 07/01 A3014 RMK AC8 SLP213=

CYQG;2006-10-27 02:00;METAR CYQG 270200Z 10004KT 15SM -SHRA OVC081 07/01 A3013 RMK AC8 SLP208=

CYQG;2006-10-27 03:00;METAR CYQG 270300Z 09005KT 15SM -SHRA BKN050 OVC079 07/01 A3012 RMK SC6AC2 SLP203=

CYQG;2006-10-27 04:00;METAR CYQG 270400Z 11004KT 15SM -SHRA OVC050 06/02 A3011 RMK SC8 SLP202=

CYQG;2006-10-27 05:00;METAR CYQG 270500Z 08005KT 12SM -RA OVC035 06/03 A3009 RMK SC8 SLP195=

CYQG;2006-10-27 06:00;METAR CYQG 270600Z 10006KT 15SM -RA SCT023 OVC033 07/04 A3007 RMK SC3SC5 SLP187=

CYQG;2006-10-27 07:00;METAR CYQG 270700Z 11005KT 15SM -SHRA OVC037 06/04 A3006 RMK SC8 SLP183=

CYQG;2006-10-27 08:00;METAR CYQG 270800Z 08005KT 10SM -SHRA OVC027 06/05 A3003 RMK SC8 SLP174=

CYQG;2006-10-27 09:00;METAR CYQG 270900Z 08005KT 10SM -SHRA OVC033 06/05 A3002 RMK SC8 SLP169=

CYQG;2006-10-27 10:00;METAR CYQG 271000Z 09006KT 10SM -RA OVC025 06/05 A3001 RMK SC8 SLP167=

CYQG;2006-10-27 11:00;METAR CYQG 271100Z 08006KT 12SM -RA OVC034 06/05 A3000 RMK SC8 SLP162=

CYQG;2006-10-27 12:00;METAR CYQG 271200Z 08006KT 12SM -RA OVC024 06/05 A2998 RMK SC8 SLP158=

CYQG;2006-10-27 12:21;SPECI CYQG 271221Z 07007KT 11SM OVC023 RMK SC8=

CYQG;2006-10-27 13:00;METAR CYQG 271300Z 08008G15KT 12SM OVC027 07/05 A2995 RMK SC8 SLP148=

CYQG;2006-10-27 14:00;METAR CYQG 271400Z 07009KT 15SM OVC026 07/04 A2993 RMK SC8 SLP141=

CYQG;2006-10-27 15:00;METAR CYQG 271500Z 08010KT 15SM OVC026 07/04 A2992 RMK SC8 SLP137=

CYQG;2006-10-27 16:00;METAR CYQG 271600Z 07010KT 15SM OVC026 07/04 A2989 RMK SC8 SLP127=

CYQG;2006-10-27 17:00;METAR CYQG 271700Z 05008KT 15SM OVC023 07/04 A2985 RMK SC8 SLP114=

CYQG;2006-10-27 18:00;METAR CYQG 271800Z 06011KT 15SM OVC020 07/04 A2980 RMK SC8 SLP097=

CYQG;2006-10-27 18:35;SPECI CYQG 271835Z 07011G16KT 8SM -SHRA OVC012 RMK SC8=

CYQG;2006-10-27 19:00;METAR CYQG 271900Z 06009G17KT 3SM -SHRA OVC011 06/05 A2977 RMK SC8 SLP084=

CYQG;2006-10-27 19:06;SPECI CYQG 271906Z 06011KT 1 1/2SM SHRA BR OVC008 RMK SC8=

CYQG;2006-10-27 20:00;METAR CYQG 272000Z 06010G16KT 1SM SHRA BR OVC006 06/05 A2973 RMK SF8 SLP073=

CYQG;2006-10-27 20:52;SPECI CYQG 272052Z 05010G15KT 1 1/2SM -SHRA BR OVC005 RERA RMK SF8=

CYQG;2006-10-27 21:00;METAR CYQG 272100Z 05011KT 1 1/2SM -RA BR OVC005 06/05 A2971 RERA RMK SF8 SLP063=

CYQG;2006-10-27 21:21;SPECI CYQG 272121Z 06014KT 2SM RA BR OVC004 RMK SF8=

CYQG;2006-10-27 22:00;METAR CYQG 272200Z 05011G17KT 2SM RA BR OVC005 06/05 A2967 RMK SF8 SLP051=

CYQG;2006-10-27 23:00;METAR CYQG 272300Z 04014G19KT 2 1/2SM RA BR OVC005 06/05 A2964 RMK SF8 SLP040=

CYQG;2006-10-28 00:00;METAR CYQG 280000Z 05011G17KT 2 1/2SM RA BR OVC005 06/05 A2962 RMK SF8 SLP035=

CYQG;2006-10-28 01:00;METAR CYQG 280100Z 03011KT 3SM RA BR OVC005 06/05 A2959 RMK SF8 SLP024=

CYQG;2006-10-28 02:00;METAR CYQG 280200Z 04011G16KT 3SM -RA BR OVC006 06/05 A2955 RERA RMK SF8 SLP011=

CYQG;2006-10-28 03:00;METAR CYQG 280300Z 36009KT 3SM -RA BR OVC005 05/05 A2951 RMK SF8 SLP997=

CYQG;2006-10-28 04:00;METAR CYQG 280400Z 36008KT 4SM -RA BR OVC005 05/04 A2948 RMK SF8 SLP988=

CYQG;2006-10-28 05:00;METAR CYQG 280500Z 36008KT 4SM -RA BR OVC005 05/04 A2946 RMK SF8 SLP980=

CYQG;2006-10-28 06:00;METAR CYQG 280600Z 35008KT 4SM -RA BR OVC008 05/05 A2944 RMK SF8 SLP972=

CYQG;2006-10-28 07:00;METAR CYQG 280700Z 34009KT 6SM -RA BR OVC009 05/05 A2942 RMK SF8 SLP967=

CYQG;2006-10-28 08:00;METAR CYQG 280800Z 33009G15KT 6SM -RA BR OVC008 05/04 A2940 RMK SF8 SLP961=

CYQG;2006-10-28 08:50;SPECI CYQG 280850Z 33011G18KT 8SM OVC010 RMK SF8=

CYQG;2006-10-28 09:00;METAR CYQG 280900Z 32011KT 8SM SCT010 OVC014 05/03 A2940 RMK SF4SC4 SLP958=

CYQG;2006-10-28 10:00;METAR CYQG 281000Z 32010G15KT 8SM OVC012 05/03 A2939 RMK SF8 SLP957=

CYQG;2006-10-28 11:00;METAR CYQG 281100Z 29011KT 6SM BR FEW010 FEW040 FEW060 BKN250 05/03 A2940 RMK CF1CF1SC1CC4 SLP959=

CYQG;2006-10-28 12:00;METAR CYQG 281200Z 27009KT 6SM BR SCT100 BKN230 04/02 A2940 RMK AC4CI1 SLP959=

CYQG;2006-10-28 12:54;SPECI CYQG 281254Z 26010KT 6SM -SHRA BR OVC012 RMK SC8=

CYQG;2006-10-28 13:00;METAR CYQG 281300Z 26012KT 6SM -SHRA BR OVC012 05/03 A2939 RMK SC8 SLP957=

CYQG;2006-10-28 14:00;METAR CYQG 281400Z 26011KT 6SM -SHRA BR OVC011 04/02 A2938 RMK SC8 SLP954=

CYQG;2006-10-28 14:46;SPECI CYQG 281446Z 25011KT 8SM OVC011 RMK SC8=

CYQG;2006-10-28 15:00;METAR CYQG 281500Z 25011KT 8SM OVC012 04/03 A2937 RMK SC8 SLP948=

CYQG;2006-10-28 15:52;SPECI CYQG 281552Z 27021G26KT 10SM -SHRA OVC010 RMK SC8=

CYQG;2006-10-28 16:00;METAR CYQG 281600Z 27020G26KT 12SM -SHRA OVC011 04/02 A2935 RMK SC8 SLP944=

CYQG;2006-10-28 17:00;METAR CYQG 281700Z 27013G20KT 7SM -SHRA OVC011 05/03 A2934 RMK SC8 SLP938=

CYQG;2006-10-28 18:00;METAR CYQG 281800Z 29021G30KT 7SM -SHRA OVC013 05/03 A2934 RMK SC8 SLP938=

CYQG;2006-10-28 19:00;METAR CYQG 281900Z 30021G30KT 8SM -SHRA OVC013 05/03 A2936 RMK SC8 SLP946=

CYQG;2006-10-28 19:43;SPECI CYQG 281943Z 30018G27KT 7SM -SHRA OVC018 RMK SC8=

CYQG;2006-10-28 20:00;METAR CYQG 282000Z 30022G28KT 7SM -SHRA BKN018 OVC036 05/02 A2940 RMK SC6SC2 PRESRR SLP958=

CYQG;2006-10-28 20:10;SPECI CYQG 282010Z 30028G35KT 5SM -SHRA BR BKN012 OVC023 RMK SC6SC2=

CYQG;2006-10-28 20:27;SPECI CYQG 282027Z 28021G40KT 12SM -SHRA BKN021 BKN039 BKN210 RERA RMK SC5SC2CI1=

CYQG;2006-10-28 20:50;SPECI CYQG 282050Z 28014G21KT 15SM FEW024 BKN077 BKN170 RERA RMK SC2AC2AC2=

CYQG;2006-10-28 21:00;METAR CYQG 282100Z 29013G20KT 15SM SCT027 BKN080 BKN170 06/03 A2941 RERA RMK SC3AC2AC1 SLP963=

CYQG;2006-10-28 23:00;METAR CYQG 282300Z 29019G24KT 15SM FEW057 SCT190 07/M02 A2949 RMK SC2AC2 SLP988=

CYQG;2006-10-29 00:00;METAR CYQG 290000Z 29018G31KT 15SM FEW059 BKN081 07/M02 A2951 RMK SC2AC4 SLP996=

CYQG;2006-10-29 01:00;METAR CYQG 290100Z 29015G21KT 15SM FEW055 SCT089 BKN190 06/M03 A2952 RMK SC2AC2AC1 SLP002=

CYQG;2006-10-29 02:00;METAR CYQG 290200Z 29014G26KT 15SM SCT054 06/M03 A2955 RMK SC4 SLP009=

CYQG;2006-10-29 03:00;METAR CYQG 290300Z 29012G19KT 15SM FEW040 06/M03 A2955 RMK SC1 SLP012=

CYQG;2006-10-29 04:00;METAR CYQG 290400Z 27011KT 15SM FEW060 05/M03 A2955 RMK SC1 SLP013=

CYQG;2006-10-29 05:00;METAR CYQG 290500Z 27012G20KT 15SM SKC 04/M04 A2956 RMK SLP014=

CYQG;2006-10-29 06:00;METAR CYQG 290600Z 22011G16KT 15SM SKC 04/M03 A2957 RMK SLP017=

CYQG;2006-10-29 07:00;METAR CYQG 290700Z 27011KT 15SM SKC 04/M04 A2958 RMK SLP020=

CYQG;2006-10-29 08:00;METAR CYQG 290800Z 27012G17KT 15SM FEW060 04/M05 A2959 RMK SC1 SLP025=

CYQG;2006-10-29 09:00;METAR CYQG 290900Z 27011G16KT 15SM SKC 04/M04 A2960 RMK SLP029=

CYQG;2006-10-29 10:00;METAR CYQG 291000Z 27011G19KT 15SM SKC 04/M04 A2962 RMK SLP036=

CYQG;2006-10-29 11:00;METAR CYQG 291100Z 29009KT 15SM SKC 03/M04 A2964 RMK SLP042=

CYQG;2006-10-29 12:00;METAR CYQG 291200Z 27013KT 15SM FEW040 03/M04 A2967 RMK SC1 SLP054=

CYQG;2006-10-29 13:00;METAR CYQG 291300Z 27012KT 15SM FEW040 04/M04 A2970 RMK SC1 SLP063=

CYQG;2006-10-29 14:00;METAR CYQG 291400Z 28017G26KT 15SM SKC 06/M04 A2972 RMK SLP070=

CYQG;2006-10-29 15:00;METAR CYQG 291500Z 30018G26KT 15SM FEW044 07/M04 A2974 RMK CU1 SLP076=

CYQG;2006-10-29 16:00;METAR CYQG 291600Z 28020G30KT 15SM FEW065 FEW300 08/M04 A2977 RMK CU1CI1 SLP084=

CYQG;2006-10-29 17:00;METAR CYQG 291700Z 29019G27KT 15SM FEW065 FEW300 09/M05 A2979 RMK CU1CI0 SLP090=

CYQG;2006-10-29 18:00;METAR CYQG 291800Z 28020G27KT 15SM FEW060 10/M05 A2979 RMK CU1 SLP091=

CYQG;2006-10-29 19:00;METAR CYQG 291900Z 28020G30KT 15SM FEW060 FEW290 11/M05 A2979 RMK CU1CI1 SLP092=

CYQG;2006-10-29 20:00;METAR CYQG 292000Z 27015G26KT 15SM FEW060 FEW100 11/M05 A2981 RMK CU1AC1 CONTRAILS SLP099=

CYQG;2006-10-29 21:00;METAR CYQG 292100Z 27012G17KT 15SM SKC 11/M06 A2984 RMK SLP108=

CYQG;2006-10-29 22:00;METAR CYQG 292200Z 27016KT 15SM SKC 10/M06 A2986 RMK SLP115=

CYQG;2006-10-29 23:00;METAR CYQG 292300Z 27008KT 15SM SKC 09/M06 A2989 RMK SLP124=

CYQG;2006-10-30 00:00;METAR CYQG 300000Z 26008KT 15SM SKC 08/M05 A2991 RMK SLP133=

CYQG;2006-10-30 01:00;METAR CYQG 300100Z 25006KT 15SM FEW160 08/M05 A2993 RMK AC2 SLP139=

CYQG;2006-10-30 02:00;METAR CYQG 300200Z 25006KT 15SM FEW160 07/M05 A2994 RMK AC2 SLP143=

CYQG;2006-10-30 03:00;METAR CYQG 300300Z 26004KT 15SM SKC 06/M05 A2995 RMK SLP146=

CYQG;2006-10-30 04:00;METAR CYQG 300400Z 23007KT 15SM SKC 05/M05 A2995 RMK SLP148=

CYQG;2006-10-30 05:00;METAR CYQG 300500Z 21006KT 15SM SKC 04/M04 A2995 RMK SLP147=

CYQG;2006-10-30 06:00;METAR CYQG 300600Z 18003KT 15SM SKC 02/M04 A2995 RMK SLP148=

CYQG;2006-10-30 07:00;METAR CYQG 300700Z 19003KT 15SM SKC 02/M03 A2995 RMK SLP148=

CYQG;2006-10-30 08:00;METAR CYQG 300800Z 18002KT 15SM SKC 03/M03 A2995 RMK SLP147=

CYQG;2006-10-30 09:00;METAR CYQG 300900Z 18003KT 15SM SKC 01/M03 A2995 RMK SLP148=

CYQG;2006-10-30 10:00;METAR CYQG 301000Z 18004KT 15SM SKC 02/M00 A2996 RMK SLP151=

CYQG;2006-10-30 11:00;METAR CYQG 301100Z 17004KT 15SM SKC 04/01 A2996 RMK SLP149=

CYQG;2006-10-30 13:00;METAR CYQG 301300Z 18006KT 15SM BKN280 06/03 A2996 RMK CI2 SLP150=

CYQG;2006-10-30 14:00;METAR CYQG 301400Z 18009KT 15SM BKN280 09/04 A2995 RMK CI2 CONTRAILS SLP145=

CYQG;2006-10-30 15:00;METAR CYQG 301500Z 19012KT 15SM BKN280 12/06 A2994 RMK CI3 SLP141=

CYQG;2006-10-30 16:00;METAR CYQG 301600Z 21014KT 15SM BKN300 13/06 A2992 RMK CI4 SLP136=

CYQG;2006-10-30 17:00;METAR CYQG 301700Z 22013KT 15SM BKN300 14/07 A2990 RMK CI4 SLP128=

CYQG;2006-10-30 18:00;METAR CYQG 301800Z 21012G17KT 15SM BKN300 17/09 A2987 RMK CI3 SLP117=

CYQG;2006-10-30 19:00;METAR CYQG 301900Z 21008G17KT 15SM BKN300 19/10 A2984 RMK CI3 SLP108=

CYQG;2006-10-30 20:00;METAR CYQG 302000Z 20011G18KT 15SM BKN300 20/10 A2982 RMK CI4 SLP102=

CYQG;2006-10-30 21:00;METAR CYQG 302100Z 20013KT 15SM BKN300 19/09 A2981 RMK CI4 SLP096=

CYQG;2006-10-30 22:00;METAR CYQG 302200Z 20010KT 15SM BKN290 18/09 A2980 RMK CS6 SLP092=

CYQG;2006-10-30 23:00;METAR CYQG 302300Z 20011KT 15SM BKN270 17/08 A2979 RMK CS6 SLP090=

CYQG;2006-10-31 00:00;METAR CYQG 310000Z 19010KT 15SM BKN250 16/08 A2978 RMK CS6 SLP088=

CYQG;2006-10-31 01:00;METAR CYQG 310100Z 19012KT 15SM BKN220 16/08 A2977 RMK CI6 SLP083=

CYQG;2006-10-31 02:00;METAR CYQG 310200Z 20016KT 15SM BKN220 16/09 A2977 RMK CI6 SLP085=

CYQG;2006-10-31 03:00;METAR CYQG 310300Z 20012G18KT 15SM OVC230 16/08 A2977 RMK CS6 SLP081=

CYQG;2006-10-31 04:00;METAR CYQG 310400Z 21009KT 15SM OVC210 15/08 A2977 RMK CS7 SLP081=

CYQG;2006-10-31 05:00;METAR CYQG 310500Z 21011KT 15SM OVC210 15/07 A2976 RMK CS8 SLP079=

CYQG;2006-10-31 06:00;METAR CYQG 310600Z 21013G18KT 15SM OVC140 15/07 A2975 RMK AC8 SLP074=

CYQG;2006-10-31 07:00;METAR CYQG 310700Z 21014KT 15SM OVC160 15/07 A2974 RMK AC8 SLP072=

CYQG;2006-10-31 08:00;METAR CYQG 310800Z 21012G17KT 15SM OVC150 15/07 A2974 RMK AC8 SLP070=

CYQG;2006-10-31 09:00;METAR CYQG 310900Z 22012KT 15SM OVC150 15/07 A2974 RMK AC8 SLP071=

CYQG;2006-10-31 10:00;METAR CYQG 311000Z 24011G21KT 15SM OVC120 16/08 A2974 RMK AC8 SLP072=

CYQG;2006-10-31 11:00;METAR CYQG 311100Z 23014KT 15SM FEW060 OVC110 16/09 A2975 RMK SC2AC6 SLP074=

CYQG;2006-10-31 12:00;METAR CYQG 311200Z 22012G17KT 15SM FEW060 BKN110 BKN230 15/09 A2974 RMK SC1AC4CI1 SLP072=

CYQG;2006-10-31 13:00;METAR CYQG 311300Z 22010G16KT 15SM FEW090 OVC160 15/09 A2976 RMK AC2AC6 SLP077=

CYQG;2006-10-31 14:00;METAR CYQG 311400Z 22010KT 15SM BKN028 OVC110 15/10 A2977 RMK SC6AC2 SLP082=

CYQG;2006-10-31 15:00;METAR CYQG 311500Z 23016G22KT 15SM SCT035 OVC120 16/11 A2977 RMK SC3AC5 SLP080=

CYQG;2006-10-31 16:00;METAR CYQG 311600Z 22013G20KT 15SM BKN027 OVC120 16/11 A2979 RMK SC6AC2 SLP086=

CYQG;2006-10-31 17:00;METAR CYQG 311700Z 23014KT 15SM BKN024 OVC110 16/12 A2979 RMK SC6AC2 SLP088=

CYQG;2006-10-31 18:00;METAR CYQG 311800Z 28016G24KT 15SM SCT024 OVC190 16/09 A2980 RMK SC3AS4 SLP090=

CYQG;2006-10-31 19:00;METAR CYQG 311900Z 29011G17KT 15SM FEW025 FEW110 OVC190 14/05 A2983 RMK SC1AC2AS6 SLP102=

CYQG;2006-10-31 20:00;METAR CYQG 312000Z 29011G17KT 15SM BKN190 BKN270 13/02 A2985 RMK AC6CI1 SLP109=

CYQG;2006-10-31 21:00;METAR CYQG 312100Z 29012KT 15SM BKN250 12/02 A2988 RMK CI5 SLP119=

CYQG;2006-10-31 22:00;METAR CYQG 312200Z 28009KT 15SM FEW260 12/M02 A2991 RMK CI1 SLP129=

CYQG;2006-10-31 23:00;METAR CYQG 312300Z 28011KT 15SM FEW260 11/M04 A2995 RMK CI1 SLP141=

CYQG;2006-11-01 00:00;METAR CYQG 010000Z 29008KT 15SM SKC 09/M04 A2998 RMK SLP154=

CYQG;2006-11-01 01:00;METAR CYQG 010100Z 31011KT 15SM FEW150 08/M03 A3001 RMK AC2 SLP164=

CYQG;2006-11-01 02:00;METAR CYQG 010200Z 30013KT 15SM FEW140 07/M03 A3003 RMK AC2 SLP172=

CYQG;2006-11-01 03:00;METAR CYQG 010300Z 29007KT 15SM FEW150 BKN270 06/M03 A3005 RMK AC2CI1 SLP178=

CYQG;2006-11-01 04:00;METAR CYQG 010400Z 30008KT 15SM FEW160 FEW270 05/M03 A3006 RMK AC1CI1 SLP182=

CYQG;2006-11-01 05:00;METAR CYQG 010500Z 29006KT 15SM FEW160 04/M03 A3007 RMK AC2 SLP184=

CYQG;2006-11-01 06:00;METAR CYQG 010600Z 28006KT 15SM FEW160 FEW230 03/M02 A3008 RMK AC2CI1 SLP189=

CYQG;2006-11-01 07:00;METAR CYQG 010700Z 29006KT 15SM SCT140 SCT230 03/M03 A3008 RMK AC4CI1 SLP190=

CYQG;2006-11-01 08:00;METAR CYQG 010800Z 28005KT 15SM BKN150 03/M03 A3009 RMK AC6 SLP192=

CYQG;2006-11-01 09:00;METAR CYQG 010900Z 31003KT 15SM OVC130 03/M03 A3008 RMK AC8 SLP191=

CYQG;2006-11-01 10:00;METAR CYQG 011000Z 31007KT 15SM OVC120 03/M04 A3010 RMK AC8 SLP196=

CYQG;2006-11-01 11:00;METAR CYQG 011100Z 25002KT 15SM BKN120 BKN230 03/M03 A3011 RMK AC6CI0 SLP199=

CYQG;2006-11-01 12:00;METAR CYQG 011200Z 24004KT 15SM FEW120 SCT230 02/M03 A3012 RMK AC2CI0 SLP204=

CYQG;2006-11-01 15:00;METAR CYQG 011500Z 24003KT 15SM BKN280 05/M04 A3012 RMK CI3 CONTRAILS SLP206=

CYQG;2006-11-01 16:00;METAR CYQG 011600Z 24008KT 15SM BKN280 06/M03 A3012 RMK CI4 CONTRAILS SLP205=

CYQG;2006-11-01 17:00;METAR CYQG 011700Z 25010KT 15SM BKN280 07/M03 A3010 RMK CI4 CONTRAILS SLP197=

CYQG;2006-11-01 18:00;METAR CYQG 011800Z 26011G16KT 15SM BKN260 07/M04 A3007 RMK CS5 CI ASOCTD CONTRAILS SLP186=

CYQG;2006-11-01 19:00;METAR CYQG 011900Z 26009G15KT 15SM FEW030 FEW120 BKN240 08/M04 A3005 RMK CF1AC1CS5 SLP180=

CYQG;2006-11-01 20:00;METAR CYQG 012000Z 26013KT 15SM FEW120 BKN240 08/M05 A3004 RMK AC1CS6 SLP177=

CYQG;2006-11-01 21:00;METAR CYQG 012100Z 26009KT 15SM BKN140 OVC230 08/M05 A3004 RMK AC5CS2 SLP177=

CYQG;2006-11-01 22:00;METAR CYQG 012200Z 30009KT 15SM BKN140 OVC230 07/M05 A3004 RMK AC7CS1 SLP178=

CYQG;2006-11-01 23:00;METAR CYQG 012300Z 29010KT 15SM BKN130 06/M05 A3006 RMK AC7 SLP184=

CYQG;2006-11-02 00:00;METAR CYQG 020000Z 29008KT 15SM SCT130 BKN230 06/M05 A3006 RMK AC4CI2 SLP186=

CYQG;2006-11-02 01:00;METAR CYQG 020100Z 30011KT 15SM BKN130 BKN240 05/M05 A3007 RMK AC6CI1 SLP190=

CYQG;2006-11-02 02:00;METAR CYQG 020200Z 30012G18KT 15SM FEW140 FEW250 03/M07 A3009 RMK AC1CI1 SLP195=

CYQG;2006-11-02 03:00;METAR CYQG 020300Z 29011KT 15SM FEW140 03/M07 A3011 RMK AC1 SLP201=

CYQG;2006-11-02 04:00;METAR CYQG 020400Z 30009KT 15SM SKC 02/M06 A3011 RMK SLP200=

CYQG;2006-11-02 05:00;METAR CYQG 020500Z 29007KT 15SM SKC 01/M06 A3011 RMK SLP201=

CYQG;2006-11-02 06:00;METAR CYQG 020600Z 27005KT 15SM SKC 00/M06 A3011 RMK SLP200=

CYQG;2006-11-02 07:00;METAR CYQG 020700Z 24006KT 15SM SKC 00/M06 A3010 RMK SLP198=

CYQG;2006-11-02 08:00;METAR CYQG 020800Z 24006KT 15SM SCT120 M01/M06 A3009 RMK AC3 SLP195=

CYQG;2006-11-02 09:00;METAR CYQG 020900Z 26005KT 15SM FEW120 M00/M06 A3008 RMK AC1 SLP192=

CYQG;2006-11-02 10:00;METAR CYQG 021000Z 24006KT 15SM FEW230 M01/M06 A3008 RMK CI1 SLP192=

CYQG;2006-11-02 11:00;METAR CYQG 021100Z 26006KT 15SM FEW230 M01/M07 A3009 RMK CI1 SLP194=

CYQG;2006-11-02 12:00;METAR CYQG 021200Z 26006KT 15SM FEW140 FEW230 M01/M07 A3009 RMK AC1CI1 SLP195=

CYQG;2006-11-02 13:00;METAR CYQG 021300Z 27008KT 15SM FEW060 SCT140 M00/M06 A3011 RMK SC2AC1 SLP202=

CYQG;2006-11-02 14:00;METAR CYQG 021400Z 28005KT 15SM BKN059 01/M06 A3012 RMK SC7 SLP205=

CYQG;2006-11-02 15:00;METAR CYQG 021500Z 29009KT 15SM FEW030 BKN069 02/M06 A3012 RMK CF1AC6 SLP205=

CYQG;2006-11-02 16:00;METAR CYQG 021600Z 28010G15KT 15SM BKN036 BKN070 03/M06 A3012 RMK CU5AC2 SLP206=

CYQG;2006-11-02 17:00;METAR CYQG 021700Z 29007KT 15SM VCSH BKN031 02/M05 A3012 RMK CU7 SLP206=

CYQG;2006-11-02 17:46;SPECI CYQG 021746Z 31008KT 12SM -SHSN OVC031 RMK CU8=

CYQG;2006-11-02 18:00;METAR CYQG 021800Z 31007KT 10SM -SHSN OVC031 02/M05 A3012 RMK CU8 SLP206=

CYQG;2006-11-02 18:54;SPECI CYQG 021854Z 28010KT 1SM -SHSN SCT006 OVC015 RMK SN2SF2CU4=

CYQG;2006-11-02 19:00;METAR CYQG 021900Z 29006KT 1/2SM SHSN OVC013 00/M03 A3013 RESN RMK SN3CU5 SLP210=

CYQG;2006-11-02 19:11;SPECI CYQG 021911Z 28005KT 2SM -SHSN BKN016 OVC030 RMK CU6SC2=

CYQG;2006-11-02 19:15;SPECI CYQG 021915Z 29007KT 1 1/4SM -SHSN OVC015 RMK SN2CU6=

CYQG;2006-11-02 19:21;SPECI CYQG 021921Z 27005KT 6SM -SHSN SCT016 OVC026 RMK CU4SC4=

CYQG;2006-11-02 19:34;SPECI CYQG 021934Z 25006KT 2 1/2SM -SHSN SCT017 OVC034 RMK CU4SC4=

CYQG;2006-11-02 19:51;SPECI CYQG 021951Z 26008KT 5SM -SHSN SCT015 OVC045 RMK CU3SC5=

CYQG;2006-11-02 20:00;METAR CYQG 022000Z 26009G15KT 5SM -SHSN FEW015 SCT030 BKN072 01/M02 A3014 RMK CU2SC2AC3 SLP214=

CYQG;2006-11-02 20:40;SPECI CYQG 022040Z 32016KT 2 1/2SM -SHSN SCT015 OVC028 RMK SC3SC5=

CYQG;2006-11-02 20:46;SPECI CYQG 022046Z 30012G20KT 1 1/2SM -SHSN SCT015 OVC029 RMK SN2SC2SC5=

CYQG;2006-11-02 21:00;METAR CYQG 022100Z 27006KT 3SM -SHSN FEW015 BKN030 M00/M03 A3016 RMK SC2SC6 SLP222=

CYQG;2006-11-02 22:00;METAR CYQG 022200Z 27011KT 15SM -SHSN FEW035 BKN090 00/M04 A3018 RMK SC2AC6 SLP229=

CYQG;2006-11-02 22:37;SPECI CYQG 022237Z 27009G17KT 15SM FEW020 FEW045 SCT090 RMK SC1SC1AC2=

CYQG;2006-11-02 23:00;METAR CYQG 022300Z 28009G17KT 15SM FEW023 FEW090 M00/M05 A3021 RMK SC1AC2 SLP239=

CYQG;2006-11-03 00:00;METAR CYQG 030000Z 28009KT 15SM FEW090 M01/M05 A3024 RMK AC1 SLP249=

CYQG;2006-11-03 01:00;METAR CYQG 030100Z 27008KT 15SM FEW060 M01/M05 A3026 RMK SC1 SLP254=

CYQG;2006-11-03 02:00;METAR CYQG 030200Z 27009KT 15SM FEW020 M01/M05 A3027 RMK SC1 SLP258=

CYQG;2006-11-03 03:00;METAR CYQG 030300Z 28008KT 15SM SKC M02/M06 A3029 RMK SLP265=

CYQG;2006-11-03 04:00;METAR CYQG 030400Z 27008KT 15SM SKC M02/M06 A3030 RMK SLP268=

CYQG;2006-11-03 05:00;METAR CYQG 030500Z 26008KT 15SM SKC M02/M06 A3030 RMK SLP270=

CYQG;2006-11-03 06:00;METAR CYQG 030600Z 25007KT 15SM SKC M03/M06 A3031 RMK SLP273=

CYQG;2006-11-03 07:00;METAR CYQG 030700Z 24006KT 15SM SKC M03/M06 A3031 RMK SLP273=

CYQG;2006-11-03 08:00;METAR CYQG 030800Z 25008KT 15SM SKC M03/M06 A3032 RMK SLP277=

CYQG;2006-11-03 09:00;METAR CYQG 030900Z 26006KT 15SM SKC M03/M06 A3033 RMK SLP279=

CYQG;2006-11-03 10:00;METAR CYQG 031000Z 26007KT 15SM SKC M03/M06 A3034 RMK SLP282=

CYQG;2006-11-03 11:00;METAR CYQG 031100Z 25005KT 15SM FEW063 M03/M06 A3034 RMK SC2 SLP284=

CYQG;2006-11-03 12:00;METAR CYQG 031200Z 26006KT 10SM BKN057 M02/M05 A3035 RMK SC6 SLP286=

CYQG;2006-11-03 13:00;METAR CYQG 031300Z 25006KT 15SM VCSH FEW030 BKN060 M01/M04 A3037 RMK CF1SC7 SLP292=

CYQG;2006-11-03 14:00;METAR CYQG 031400Z 25008KT 15SM FEW040 BKN059 M00/M04 A3038 RMK CU2SC5 SLP297=

CYQG;2006-11-03 15:00;METAR CYQG 031500Z 26010KT 15SM FEW040 BKN060 00/M05 A3038 RMK CU2SC6 SLP296=

CYQG;2006-11-03 16:00;METAR CYQG 031600Z 27013KT 15SM BKN029 BKN060 02/M04 A3038 RMK CU6SC2 SLP296=

CYQG;2006-11-03 17:00;METAR CYQG 031700Z 27011KT 15SM VCSH SCT040 BKN053 02/M06 A3038 RMK CU3SC4 SLP295=

CYQG;2006-11-03 18:00;METAR CYQG 031800Z 26015G20KT 15SM VCSH SCT038 BKN051 03/M06 A3036 RMK CU4SC3 SLP290=

CYQG;2006-11-03 18:20;SPECI CYQG 031820Z 28014KT 15SM -SHSN BKN043 OVC060 RMK CU6SC2=

CYQG;2006-11-03 19:00;METAR CYQG 031900Z 27011KT 15SM -SHSN BKN045 03/M07 A3036 RMK CU7 SLP290=

CYQG;2006-11-03 20:00;METAR CYQG 032000Z 30008KT 15SM -SHSN BKN041 BKN070 03/M07 A3037 RMK CU6AC2 SLP291=

CYQG;2006-11-03 20:36;SPECI CYQG 032036Z 25010KT 15SM FEW060 BKN070 RMK CU2AC5=

CYQG;2006-11-03 21:00;METAR CYQG 032100Z 28012KT 15SM SCT040 BKN070 03/M06 A3037 RMK CU3AC4 SLP294=

CYQG;2006-11-03 22:00;METAR CYQG 032200Z 26006KT 15SM BKN038 BKN070 02/M06 A3038 RMK SC6AC1 SLP298=

CYQG;2006-11-03 22:05;SPECI CYQG 032205Z 27009KT 15SM -SHSN BKN038 BKN070 RMK SC6AC1=

CYQG;2006-11-03 23:00;METAR CYQG 032300Z 28005KT 15SM BKN060 01/M05 A3040 RMK SC6 SLP304=

CYQG;2006-11-04 00:00;METAR CYQG 040000Z 25003KT 15SM BKN040 OVC050 02/M05 A3041 RMK SC6SC2 SLP308=

CYQG;2006-11-04 01:00;METAR CYQG 040100Z 25004KT 15SM BKN050 02/M05 A3042 RMK SC7 SLP309=

CYQG;2006-11-04 02:00;METAR CYQG 040200Z 23004KT 15SM BKN045 01/M05 A3042 RMK SC7 SLP310=

CYQG;2006-11-04 03:00;METAR CYQG 040300Z 23004KT 15SM FEW043 01/M06 A3043 RMK SC2 SLP314=

CYQG;2006-11-04 04:00;METAR CYQG 040400Z 25004KT 15SM FEW040 M00/M06 A3043 RMK SC1 SLP314=

CYQG;2006-11-04 05:00;METAR CYQG 040500Z 24004KT 15SM SKC M01/M06 A3044 RMK SLP315=

CYQG;2006-11-04 06:00;METAR CYQG 040600Z 23002KT 15SM SKC M02/M06 A3044 RMK SLP316=

CYQG;2006-11-04 07:00;METAR CYQG 040700Z 23004KT 15SM SKC M02/M07 A3045 RMK SLP319=

CYQG;2006-11-04 08:00;METAR CYQG 040800Z 23003KT 15SM SKC M03/M06 A3045 RMK SLP320=

CYQG;2006-11-04 09:00;METAR CYQG 040900Z 25002KT 15SM SKC M03/M06 A3046 RMK SLP324=

CYQG;2006-11-04 10:00;METAR CYQG 041000Z 20002KT 15SM FEW210 M04/M07 A3048 RMK CI1 SLP329=

CYQG;2006-11-04 11:00;METAR CYQG 041100Z 00000KT 15SM SCT090 M04/M06 A3048 RMK AC3 SLP331=

CYQG;2006-11-04 12:00;METAR CYQG 041200Z 00000KT 8SM BKN084 OVC240 M03/M05 A3048 RMK AC6CI2 SLP331=

CYQG;2006-11-04 13:00;METAR CYQG 041300Z 00000KT 10SM BKN088 M01/M05 A3049 RMK AC7 SLP334=

CYQG;2006-11-04 14:00;METAR CYQG 041400Z 18002KT 15SM FEW110 BKN190 BKN260 01/M03 A3050 RMK AC2AC3CI2 SLP337=

CYQG;2006-11-04 15:00;METAR CYQG 041500Z 20006KT 15SM SCT180 BKN280 04/M03 A3049 RMK AC2CI2 SLP332=

CYQG;2006-11-04 16:00;METAR CYQG 041600Z 19011KT 15SM FEW120 BKN280 05/M04 A3048 RMK AC2CI2 SLP328=

CYQG;2006-11-04 17:00;METAR CYQG 041700Z 19010KT 15SM BKN280 05/M05 A3045 RMK CS5 CC ASOCTD SLP320=

CYQG;2006-11-04 18:00;METAR CYQG 041800Z 19012KT 15SM FEW120 BKN260 06/M04 A3043 RMK AC2CS4 SLP312=

CYQG;2006-11-04 19:00;METAR CYQG 041900Z 20008KT 15SM BKN260 07/M04 A3042 RMK CS6 SLP309=

CYQG;2006-11-04 21:00;METAR CYQG 042100Z 18011KT 15SM FEW100 OVC260 07/M03 A3041 RMK AC2CS6 SLP304=

CYQG;2006-11-04 22:00;METAR CYQG 042200Z 18006KT 15SM SCT100 OVC260 06/M02 A3041 RMK AC4CS3 SLP304=

CYQG;2006-11-04 23:00;METAR CYQG 042300Z 18005KT 15SM FEW090 BKN140 OVC260 05/M02 A3041 RMK AC2AC2CS2 SLP305=

CYQG;2006-11-05 00:00;METAR CYQG 050000Z 18005KT 15SM OVC080 06/M01 A3042 RMK AS8 SLP309=

CYQG;2006-11-05 00:21;SPECI CYQG 050021Z 20008KT 15SM -SHRA OVC080 RMK AS8=

CYQG;2006-11-05 00:51;SPECI CYQG 050051Z 18008KT 12SM OVC040 RMK SC8=

CYQG;2006-11-05 01:00;METAR CYQG 050100Z 18008KT 15SM OVC066 07/M02 A3041 RMK AS8 SLP304=

CYQG;2006-11-05 02:00;METAR CYQG 050200Z 18006KT 15SM OVC083 06/M01 A3040 RMK AS8 SLP303=

CYQG;2006-11-05 03:00;METAR CYQG 050300Z 16007KT 15SM FEW063 OVC084 06/M01 A3039 RMK SC2AS6 SLP297=

CYQG;2006-11-05 04:00;METAR CYQG 050400Z 19005KT 15SM OVC074 06/M00 A3039 RMK AS8 SLP297=

CYQG;2006-11-05 05:00;METAR CYQG 050500Z 20003KT 15SM OVC083 06/M00 A3039 RMK AC8 SLP296=

CYQG;2006-11-05 06:00;METAR CYQG 050600Z 18005KT 15SM OVC077 05/M01 A3038 RMK AC8 SLP295=

CYQG;2006-11-05 07:00;METAR CYQG 050700Z 19005KT 15SM OVC076 05/M01 A3038 RMK AC8 SLP293=

CYQG;2006-11-05 08:00;METAR CYQG 050800Z 20005KT 15SM OVC085 05/M01 A3037 RMK AC8 SLP291=

CYQG;2006-11-05 09:00;METAR CYQG 050900Z 18007KT 15SM OVC081 05/M01 A3036 RMK AC8 SLP287=

CYQG;2006-11-05 10:00;METAR CYQG 051000Z 20006KT 15SM SCT077 OVC100 05/M02 A3036 RMK AC4AC3 SLP286=

CYQG;2006-11-05 11:00;METAR CYQG 051100Z 20006KT 15SM BKN062 OVC100 05/M02 A3036 RMK SC6AC2 SLP286=

CYQG;2006-11-05 12:00;METAR CYQG 051200Z 20006KT 10SM BKN064 BKN110 05/M02 A3035 RMK SC5AC2 SLP284=

CYQG;2006-11-05 13:00;METAR CYQG 051300Z 20007KT 15SM BKN058 BKN110 06/M02 A3036 RMK SC6AC1 SLP286=

CYQG;2006-11-05 14:00;METAR CYQG 051400Z 20010KT 15SM BKN060 BKN100 06/M01 A3036 RMK SC6AC1 SLP287=

CYQG;2006-11-05 15:00;METAR CYQG 051500Z 21007KT 15SM BKN110 07/M01 A3036 RMK AC6 SLP285=

CYQG;2006-11-05 16:00;METAR CYQG 051600Z 19008KT 15SM FEW058 FEW110 FEW280 09/M00 A3035 RMK SC1AC1CI0 SLP281=

CYQG;2006-11-05 17:00;METAR CYQG 051700Z 21009KT 15SM FEW110 FEW280 10/M00 A3033 RMK AC1CI0 SLP275=

CYQG;2006-11-05 18:00;METAR CYQG 051800Z 21009KT 15SM FEW060 SCT110 SCT280 10/M01 A3031 RMK SC2AC2CI0 SLP268=

CYQG;2006-11-05 19:00;METAR CYQG 051900Z 21009KT 15SM BKN060 11/M00 A3029 RMK SC7 SLP263=

CYQG;2006-11-05 20:00;METAR CYQG 052000Z 20007KT 15SM BKN058 10/M00 A3028 RMK SC7 SLP258=

CYQG;2006-11-05 21:00;METAR CYQG 052100Z 19004KT 15SM BKN059 10/00 A3030 RMK SC7 SLP265=

CYQG;2006-11-05 23:00;METAR CYQG 052300Z 21004KT 15SM OVC058 10/02 A3028 RMK SC8 SLP257=

CYQG;2006-11-06 00:00;METAR CYQG 060000Z 20005KT 15SM OVC060 09/02 A3028 RMK SC8 SLP258=

CYQG;2006-11-06 01:00;METAR CYQG 060100Z 20004KT 15SM BKN064 09/02 A3028 RMK SC7 SLP257=

CYQG;2006-11-06 02:00;METAR CYQG 060200Z 19004KT 15SM BKN065 08/02 A3028 RMK SC6 SLP258=

CYQG;2006-11-06 03:00;METAR CYQG 060300Z 19005KT 15SM FEW065 07/02 A3028 RMK SC1 SLP259=

CYQG;2006-11-06 04:00;METAR CYQG 060400Z 18003KT 15SM FEW250 06/02 A3029 RMK CI1 SLP260=

CYQG;2006-11-06 05:00;METAR CYQG 060500Z 18003KT 15SM SKC 05/01 A3029 RMK SLP261=

CYQG;2006-11-06 06:00;METAR CYQG 060600Z 20005KT 15SM SKC 06/02 A3029 RMK SLP261=

CYQG;2006-11-06 07:00;METAR CYQG 060700Z 21006KT 15SM SKC 06/03 A3029 RMK SLP262=

CYQG;2006-11-06 08:00;METAR CYQG 060800Z 21003KT 15SM FEW042 FEW260 06/02 A3031 RMK SC2CI1 SLP268=

CYQG;2006-11-06 09:00;METAR CYQG 060900Z 20003KT 15SM SCT057 BKN097 06/03 A3031 RMK SC3AC3 SLP267=

CYQG;2006-11-06 10:00;METAR CYQG 061000Z 16002KT 15SM SCT067 BKN097 07/04 A3030 RMK AC3AC4 SLP265=

CYQG;2006-11-06 11:00;METAR CYQG 061100Z 17003KT 15SM BKN100 06/03 A3030 RMK AC7 SLP264=

CYQG;2006-11-06 12:00;METAR CYQG 061200Z 17004KT 8SM FEW072 BKN110 05/03 A3029 RMK AC2AC3 SLP263=

CYQG;2006-11-06 13:00;METAR CYQG 061300Z 20007KT 10SM BKN100 06/03 A3031 RMK AC7 SLP269=

CYQG;2006-11-06 14:00;METAR CYQG 061400Z 18004KT 12SM BKN062 BKN100 08/04 A3031 RMK SC6AC1 SLP269=

CYQG;2006-11-06 15:00;METAR CYQG 061500Z 19008KT 10SM BKN069 09/05 A3031 RMK AC7 SLP268=

CYQG;2006-11-06 16:00;METAR CYQG 061600Z 18008KT 15SM FEW110 FEW280 13/05 A3029 RMK AC1CI0 SLP263=

CYQG;2006-11-06 17:00;METAR CYQG 061700Z 19011KT 15SM FEW230 15/04 A3025 RMK CI1 SLP249=

CYQG;2006-11-06 18:00;METAR CYQG 061800Z 20013KT 15SM FEW230 15/04 A3023 RMK CI1 SLP241=

CYQG;2006-11-06 19:00;METAR CYQG 061900Z 18010KT 15SM BKN230 16/04 A3022 RMK CI2 SLP235=

CYQG;2006-11-06 20:00;METAR CYQG 062000Z 19010KT 15SM FEW140 BKN230 15/05 A3020 RMK AC1CI1 SLP228=

CYQG;2006-11-06 21:00;METAR CYQG 062100Z 16007KT 15SM FEW140 BKN240 14/05 A3019 RMK AC1CS5 SLP227=

CYQG;2006-11-06 22:00;METAR CYQG 062200Z 16005KT 15SM FEW150 BKN250 12/05 A3018 RMK AC2CS4 SLP224=

CYQG;2006-11-06 23:00;METAR CYQG 062300Z 15005KT 15SM BKN110 BKN260 11/05 A3017 RMK AC6CS1 SLP220=

CYQG;2006-11-07 00:00;METAR CYQG 070000Z 16004KT 15SM BKN100 OVC260 11/05 A3016 RMK AC6CS1 SLP217=

CYQG;2006-11-07 01:00;METAR CYQG 070100Z 18003KT 15SM BKN100 OVC260 10/05 A3015 RMK AC7CS1 SLP214=

CYQG;2006-11-07 02:00;METAR CYQG 070200Z 20005KT 15SM OVC090 11/04 A3014 RMK AC8 SLP210=

CYQG;2006-11-07 03:00;METAR CYQG 070300Z 20007KT 15SM BKN100 BKN150 OVC240 12/02 A3013 RMK AC5AC2CS2 SLP204=

CYQG;2006-11-07 04:00;METAR CYQG 070400Z 17004KT 15SM OVC110 11/02 A3010 RMK AC8 SLP196=

CYQG;2006-11-07 05:00;METAR CYQG 070500Z 17008KT 15SM OVC090 10/03 A3010 RMK AC8 SLP196=

CYQG;2006-11-07 06:00;METAR CYQG 070600Z 18005KT 15SM OVC092 11/04 A3009 RMK AC8 SLP191=

CYQG;2006-11-07 07:00;METAR CYQG 070700Z 15003KT 15SM OVC096 11/04 A3008 RMK AC8 SLP187=

CYQG;2006-11-07 08:00;METAR CYQG 070800Z 17005KT 15SM OVC120 10/04 A3008 RMK AC6 SLP187=

CYQG;2006-11-07 09:00;METAR CYQG 070900Z 20006KT 15SM OVC098 11/05 A3007 RMK AC8 SLP183=

CYQG;2006-11-07 10:00;METAR CYQG 071000Z 22010KT 15SM BKN058 OVC100 11/06 A3005 RMK SC6AC2 SLP178=

CYQG;2006-11-07 11:00;METAR CYQG 071100Z 21007KT 12SM SCT050 OVC073 11/07 A3004 RMK SC3AC5 SLP175=

CYQG;2006-11-07 11:08;SPECI CYQG 071108Z 20007KT 12SM -SHRA SCT063 OVC089 RMK SC4AC4=

CYQG;2006-11-07 12:00;METAR CYQG 071200Z 19006KT 8SM -RA OVC064 10/07 A3003 RMK SC8 SLP173=

CYQG;2006-11-07 13:00;METAR CYQG 071300Z 16006KT 5SM -RA FEW031 OVC045 09/07 A3003 RMK SC2SC6 SLP172=

CYQG;2006-11-07 14:00;METAR CYQG 071400Z 17003KT 2 1/2SM -RA BR OVC020 09/07 A3002 RMK SC8 SLP169=

CYQG;2006-11-07 14:23;SPECI CYQG 071423Z 16004KT 2 1/4SM -RA BR OVC014 RMK SC8=

CYQG;2006-11-07 14:41;SPECI CYQG 071441Z 14006KT 2SM -RA BR FEW007 BKN013 OVC026 RMK SF2SC4SC2=

CYQG;2006-11-07 14:51;SPECI CYQG 071451Z 14007KT 2 1/2SM -RA BR BKN006 OVC022 RMK SF6SC2=

CYQG;2006-11-07 15:00;METAR CYQG 071500Z 15008KT 3SM -RA BR BKN006 OVC019 09/08 A3000 RMK SF6SC2 SLP161=

CYQG;2006-11-07 16:00;METAR CYQG 071600Z 16006KT 4SM -RA BR BKN008 OVC017 09/08 A2997 RMK SF6SC2 SLP152=

CYQG;2006-11-07 17:00;METAR CYQG 071700Z 17006KT 4SM -RA BR BKN008 OVC027 09/08 A2995 RMK SF6SC2 SLP144=

CYQG;2006-11-07 18:00;METAR CYQG 071800Z 18007KT 4SM RA BR BKN007 OVC017 09/08 A2991 RMK SF6SC2 SLP132=

CYQG;2006-11-07 19:45;SPECI CYQG 071945Z 16005KT 3SM -RA BR OVC005 RMK SF8=

CYQG;2006-11-07 20:00;METAR CYQG 072000Z 15005KT 4SM -RA BR OVC005 09/09 A2987 RMK SF8 SLP119=

CYQG;2006-11-07 20:25;SPECI CYQG 072025Z 15004KT 1SM -RA BR OVC006 RMK SF8=

CYQG;2006-11-07 21:00;METAR CYQG 072100Z 14003KT 1 1/2SM -RA BR OVC007 09/09 A2986 RMK SF8 SLP116=

CYQG;2006-11-07 22:00;METAR CYQG 072200Z 14008KT 2SM -RA BR OVC006 09/08 A2984 RMK NS8 SLP109=

CYQG;2006-11-07 23:00;METAR CYQG 072300Z 15005KT 4SM -RA BR OVC004 09/09 A2984 RMK NS8 SLP109=

CYQG;2006-11-08 01:00;METAR CYQG 080100Z 17002KT 4SM BR OVC003 09/09 A2983 RMK SC8 SLP106=

CYQG;2006-11-08 02:00;METAR CYQG 080200Z 16003KT 3SM BR OVC003 09/09 A2982 RMK SC8 SLP101=

CYQG;2006-11-08 03:00;METAR CYQG 080300Z 17002KT 3SM BR OVC002 10/09 A2980 RMK SC8 SLP095=

CYQG;2006-11-08 04:41;SPECI CYQG 080441Z 18002KT 1 1/4SM BR OVC002 RMK SC8=

CYQG;2006-11-08 05:38;SPECI CYQG 080538Z 00000KT 1/2SM FG VV002 RMK FG8=

CYQG;2006-11-08 06:00;METAR CYQG 080600Z 00000KT 1/4SM FG VV001 10/10 A2977 RMK FG8 SLP083=

CYQG;2006-11-08 07:00;METAR CYQG 080700Z 16002KT 0SM FG VV001 10/10 A2976 RMK FG8 SLP080=

CYQG;2006-11-08 08:00;METAR CYQG 080800Z 18003KT 0SM FG VV001 09/09 A2973 RMK FG8 SLP071=

CYQG;2006-11-08 09:00;METAR CYQG 080900Z 00000KT 0SM FG VV000 09/09 A2973 RMK FG8 SLP069=

CYQG;2006-11-08 10:00;METAR CYQG 081000Z 24002KT 0SM FG VV000 09/09 A2973 RMK FG8 SLP070=

CYQG;2006-11-08 10:45;SPECI CYQG 081045Z 00000KT 1/4SM FG VV002 RMK FG8=

CYQG;2006-11-08 10:53;SPECI CYQG 081053Z 00000KT 3/8SM FG VV003 RMK FG8=

CYQG;2006-11-08 11:00;METAR CYQG 081100Z 00000KT 3/8SM FG VV003 10/10 A2973 RMK FG8 SLP071=

CYQG;2006-11-08 11:24;SPECI CYQG 081124Z 00000KT 1/4SM FG VV002 RMK FG8=

CYQG;2006-11-08 12:00;METAR CYQG 081200Z 12004KT 1/4SM FG VV002 09/09 A2972 RMK FG8 SLP068=

CYQG;2006-11-08 12:52;SPECI CYQG 081252Z 16003KT 0SM FG VV001 RMK FG8=

CYQG;2006-11-08 13:00;METAR CYQG 081300Z 17002KT 0SM FG VV001 09/09 A2973 RMK FG8 SLP069=

CYQG;2006-11-08 14:00;METAR CYQG 081400Z 24002KT 1/4SM FG VV001 10/10 A2973 RMK FG8 SLP071=

CYQG;2006-11-08 14:35;SPECI CYQG 081435Z 00000KT 1/4SM FG VV002 RMK FG8=

CYQG;2006-11-08 14:46;SPECI CYQG 081446Z 23002KT 1/2SM FG OVC003 RMK FG3ST5=

CYQG;2006-11-08 15:00;METAR CYQG 081500Z 19002KT 3/4SM BR OVC003 10/10 A2972 RMK FG2ST6 SLP066=

CYQG;2006-11-08 15:25;SPECI CYQG 081525Z 00000KT 1 1/2SM BR BKN003 OVC024 RMK FG2SF3SC3=

CYQG;2006-11-08 16:00;METAR CYQG 081600Z 21002KT 3SM BR FEW007 OVC024 12/11 A2970 RMK SF2SC6 SLP059=

CYQG;2006-11-08 17:00;METAR CYQG 081700Z 20003KT 7SM SCT013 OVC023 12/11 A2967 RMK SC3SC5 SLP051=

CYQG;2006-11-08 18:00;METAR CYQG 081800Z 23004KT 12SM FEW014 BKN022 13/10 A2967 RMK SC2SC6 SLP048=

CYQG;2006-11-08 19:00;METAR CYQG 081900Z 25007KT 15SM SCT014 OVC020 13/09 A2966 RMK SC3SC5 SLP045=

CYQG;2006-11-08 20:00;METAR CYQG 082000Z 25006KT 15SM OVC016 13/09 A2965 RMK SC8 SLP042=

CYQG;2006-11-08 21:00;METAR CYQG 082100Z 24007KT 15SM BKN016 12/09 A2965 RMK CU7 SLP044=

CYQG;2006-11-08 21:47;SPECI CYQG 082147Z 26008KT 15SM OVC013 RMK SC8=

CYQG;2006-11-08 22:00;METAR CYQG 082200Z 23007KT 12SM OVC013 11/08 A2966 RMK SC8 SLP045=

CYQG;2006-11-08 23:00;METAR CYQG 082300Z 22008KT 12SM OVC010 10/08 A2967 RMK SC8 SLP048=

CYQG;2006-11-08 23:26;SPECI CYQG 082326Z 25009KT 8SM OVC009 RMK SC8=

CYQG;2006-11-09 00:00;METAR CYQG 090000Z 25008KT 8SM OVC007 10/08 A2967 RMK SF8 SLP048=

CYQG;2006-11-09 01:00;METAR CYQG 090100Z 22010KT 8SM OVC008 10/08 A2967 RMK SF8 SLP048=

CYQG;2006-11-09 01:17;SPECI CYQG 090117Z 24008KT 8SM OVC011 RMK SF8=

CYQG;2006-11-09 02:00;METAR CYQG 090200Z 24005KT 8SM OVC012 10/08 A2967 RMK SC8 SLP048=

CYQG;2006-11-09 03:00;METAR CYQG 090300Z 22009KT 7SM BKN014 10/08 A2965 RMK SC7 SLP043=

CYQG;2006-11-09 04:00;METAR CYQG 090400Z 22010KT 7SM BKN013 10/08 A2964 RMK SC7 SLP039=

CYQG;2006-11-09 05:00;METAR CYQG 090500Z 23009KT 7SM SCT011 BKN110 10/08 A2963 RMK SC4AC1 SLP035=

CYQG;2006-11-09 06:00;METAR CYQG 090600Z 21008KT 6SM BR FEW012 BKN110 09/08 A2963 RMK SC2AC4 SLP035=

CYQG;2006-11-09 07:00;METAR CYQG 090700Z 22008KT 6SM BR BKN110 09/08 A2961 RMK AC5 SLP030=

CYQG;2006-11-09 08:00;METAR CYQG 090800Z 22007KT 4SM BR FEW110 08/07 A2961 RMK AC2 SLP029=

CYQG;2006-11-09 09:00;METAR CYQG 090900Z 21006KT 4SM BR FEW100 08/07 A2960 RMK AC1 SLP027=

CYQG;2006-11-09 10:00;METAR CYQG 091000Z 22007KT 3SM BR SKC 08/07 A2961 RMK SLP031=

CYQG;2006-11-09 11:00;METAR CYQG 091100Z 20008KT 3SM BR SKC 08/07 A2960 RMK SLP025=

CYQG;2006-11-09 11:43;SPECI CYQG 091143Z 22009KT 2SM BR SCT110 RMK AC3=

CYQG;2006-11-09 12:34;SPECI CYQG 091234Z 22007KT 1 1/2SM BR FEW110 RMK AC2=

CYQG;2006-11-09 13:00;METAR CYQG 091300Z 21011KT 1 1/2SM BR FEW110 08/07 A2961 RMK AC2 SLP030=

CYQG;2006-11-09 13:49;SPECI CYQG 091349Z 22012KT 2SM BR BKN130 RMK AC6=

CYQG;2006-11-09 14:00;METAR CYQG 091400Z 22012KT 2SM BR FEW130 SCT260 10/08 A2960 RMK AC2CC1 SLP027=

CYQG;2006-11-09 15:00;METAR CYQG 091500Z 24012G17KT 3SM HZ FEW012 FEW120 FEW260 12/09 A2961 RMK CF1AC2CC1 PRES UNSDY SLP030=

CYQG;2006-11-09 15:30;SPECI CYQG 091530Z 24013KT 5SM HZ FEW012 RMK CF1=

CYQG;2006-11-09 16:00;METAR CYQG 091600Z 24010G15KT 5SM HZ FEW013 14/10 A2961 RMK CF1 SLP029=

CYQG;2006-11-09 17:00;METAR CYQG 091700Z 25011G17KT 6SM HZ SKC 15/10 A2960 RMK SLP025=

CYQG;2006-11-09 18:00;METAR CYQG 091800Z 26014KT 6SM HZ SKC 17/11 A2961 RMK PRES UNSTDY SLP027=

CYQG;2006-11-09 19:00;METAR CYQG 091900Z 23010KT 7SM SKC 18/12 A2961 RMK SLP028=

CYQG;2006-11-09 20:00;METAR CYQG 092000Z 25006KT 8SM SKC 19/12 A2962 RMK SLP031=

CYQG;2006-11-09 21:00;METAR CYQG 092100Z 27009KT 15SM SKC 20/11 A2965 RMK SLP040=

CYQG;2006-11-09 23:00;METAR CYQG 092300Z 31006KT 15SM SKC 17/07 A2973 RMK SLP066=

CYQG;2006-11-10 00:00;METAR CYQG 100000Z 31003KT 15SM SKC 16/07 A2975 RMK SLP077=

CYQG;2006-11-10 01:00;METAR CYQG 100100Z 30007KT 15SM SKC 14/07 A2979 RMK SLP089=

CYQG;2006-11-10 02:00;METAR CYQG 100200Z 04011KT 15SM SKC 09/07 A2983 RMK SLP103=

CYQG;2006-11-10 03:00;METAR CYQG 100300Z 03010KT 15SM SKC 09/07 A2986 RMK SLP116=

CYQG;2006-11-10 04:00;METAR CYQG 100400Z 02008KT 15SM SKC 08/06 A2989 RMK SLP126=

CYQG;2006-11-10 05:00;METAR CYQG 100500Z 01006KT 15SM SKC 07/05 A2992 RMK SLP135=

CYQG;2006-11-10 06:00;METAR CYQG 100600Z 36004KT 15SM SKC 07/05 A2994 RMK SLP142=

CYQG;2006-11-10 07:00;METAR CYQG 100700Z 36006KT 15SM FEW017 07/05 A2996 RMK SC1 SLP148=

CYQG;2006-11-10 08:00;METAR CYQG 100800Z 01004KT 15SM SKC 06/04 A2999 RMK SLP157=

CYQG;2006-11-10 09:00;METAR CYQG 100900Z 03004KT 15SM SKC 06/03 A3000 RMK SLP160=

CYQG;2006-11-10 10:00;METAR CYQG 101000Z 04003KT 15SM SKC 04/02 A3002 RMK SLP167=

CYQG;2006-11-10 11:00;METAR CYQG 101100Z 04004KT 15SM SKC 04/01 A3003 RMK SLP169=

CYQG;2006-11-10 12:00;METAR CYQG 101200Z 06005KT 15SM FEW020 BKN280 03/01 A3003 RMK SC1CI2 SLP173=

CYQG;2006-11-10 13:00;METAR CYQG 101300Z 06005KT 15SM FEW100 BKN260 04/02 A3004 RMK AC1CS1 CONTRAILS ASOCTD SLP177=

CYQG;2006-11-10 14:00;METAR CYQG 101400Z 07010KT 15SM FEW013 BKN260 06/03 A3006 RMK CU1CS2 SLP183=

CYQG;2006-11-10 15:00;METAR CYQG 101500Z 09009KT 15SM BKN016 BKN260 06/03 A3006 RMK SC6CS1 SLP182=

CYQG;2006-11-10 17:00;METAR CYQG 101700Z 09009KT 15SM FEW016 BKN260 08/03 A3002 RMK CU2CS2 SC CI ASOCTED SLP171=

CYQG;2006-11-10 18:00;METAR CYQG 101800Z 06009KT 15SM FEW017 OVC260 08/04 A3000 RMK SC1CS2 CI ASOCTD SLP162=

CYQG;2006-11-10 19:00;METAR CYQG 101900Z 04009KT 15SM FEW018 OVC260 08/04 A2998 RMK SC1CS2 SLP156=

CYQG;2006-11-10 20:00;METAR CYQG 102000Z 06012KT 15SM FEW018 OVC260 08/04 A2994 RMK SC1CS4 SLP143=

CYQG;2006-11-10 21:00;METAR CYQG 102100Z 05009KT 15SM FEW020 BKN053 BKN260 08/04 A2995 RMK CU1SC5CS2 SLP145=

CYQG;2006-11-10 23:00;METAR CYQG 102300Z 09010KT 15SM BKN028 OVC065 08/04 A2988 RMK CU5SC3 SLP124=

CYQG;2006-11-11 00:00;METAR CYQG 110000Z 09009G15KT 15SM OVC030 07/04 A2986 RMK CU8 SLP115=

CYQG;2006-11-11 01:00;METAR CYQG 110100Z 07013KT 15SM FEW012 OVC035 07/04 A2983 RMK CU2SC6 SLP108=

CYQG;2006-11-11 02:00;METAR CYQG 110200Z 09009KT 15SM FEW035 BKN082 07/05 A2979 RMK SC2AC5 SLP092=

CYQG;2006-11-11 03:00;METAR CYQG 110300Z 11010KT 15SM FEW033 BKN060 08/07 A2974 RMK SC2SC5 SLP074=

CYQG;2006-11-11 04:35;SPECI CYQG 110435Z 02008KT 15SM -SHRA OVC048 RMK SC8=

CYQG;2006-11-11 05:00;METAR CYQG 110500Z 01017KT 6SM SHRA BR OVC044 09/08 A2968 RMK SC8 CB EMBD LTNGIC W SLP056=

CYQG;2006-11-11 05:13;SPECI CYQG 110513Z 01013G18KT 7SM -TSRA SCT015 OVC044 RMK SF3SC5 CB EMBD LTNGIC OVRHD=

CYQG;2006-11-11 05:20;SPECI CYQG 110520Z 36012KT 2SM +TSRA OVC015 RMK SF8 CB EMBD LTGICCG=

CYQG;2006-11-11 05:26;SPECI CYQG 110526Z 33016KT 3SM TSRA FEW010 OVC015CB RMK SF2CB6 LTGICCG=

CYQG;2006-11-11 05:43;SPECI CYQG 110543Z 34016G21KT 4SM -SHRA FEW010 OVC015 RMK SF2SC6=

CYQG;2006-11-11 06:00;METAR CYQG 110600Z 35016KT 4SM -SHRA FEW010 OVC018 06/05 A2973 RERA RMK SF2SC6 SLP072=

CYQG;2006-11-11 06:48;SPECI CYQG 110648Z 04016KT 15SM FEW010 SCT096 BKN240 RMK CF2AC2CI1=

CYQG;2006-11-11 07:00;METAR CYQG 110700Z 03016KT 12SM SCT008 OVC096 06/05 A2970 RMK SF4AC4 SLP060=

CYQG;2006-11-11 07:32;SPECI CYQG 110732Z 03010KT 15SM BKN008 RMK SC7=

CYQG;2006-11-11 08:00;METAR CYQG 110800Z 03010KT 15SM OVC008 07/06 A2972 RMK SC8 SLP068=

CYQG;2006-11-11 09:00;METAR CYQG 110900Z 35009KT 15SM OVC009 07/06 A2974 RMK SC8 SLP073=

CYQG;2006-11-11 09:55;SPECI CYQG 110955Z 35013G18KT 7SM -SHRA OVC010 RMK SC8=

CYQG;2006-11-11 10:00;METAR CYQG 111000Z 36009G16KT 6SM -SHRA OVC010 07/06 A2977 RMK SC8 SLP083=

CYQG;2006-11-11 11:00;METAR CYQG 111100Z 36008KT 5SM -SHRA BR OVC010 06/05 A2980 RMK SF8 SLP094=

CYQG;2006-11-11 11:43;SPECI CYQG 111143Z 36012KT 12SM -SHRA OVC012 RMK SF8=

CYQG;2006-11-11 12:00;METAR CYQG 111200Z 32012KT 7SM -SHRA OVC013 06/05 A2979 RMK SF8 SLP091=

CYQG;2006-11-11 13:00;METAR CYQG 111300Z 35012G18KT 8SM -SHRA OVC009 06/05 A2983 RMK SF8 SLP104=

CYQG;2006-11-11 13:40;SPECI CYQG 111340Z 34013KT 8SM OVC012 RMK SF8=

CYQG;2006-11-11 14:37;SPECI CYQG 111437Z 36013KT 8SM OVC013 RMK SF8=

CYQG;2006-11-11 15:00;METAR CYQG 111500Z 35012G17KT 15SM OVC015 06/04 A2988 RMK SF8 SLP122=

CYQG;2006-11-11 15:17;SPECI CYQG 111517Z 35014G19KT 15SM -SHRA OVC015 RMK SF8=

CYQG;2006-11-11 15:43;SPECI CYQG 111543Z 35015KT 15SM OVC015 RMK SF8=

CYQG;2006-11-11 16:00;METAR CYQG 111600Z 35013KT 15SM -SHRA BKN015 OVC037 06/04 A2989 RMK SF7SC1 SLP125=

CYQG;2006-11-11 16:46;SPECI CYQG 111646Z 35013G18KT 15SM OVC015 RMK SC8=

CYQG;2006-11-11 17:00;METAR CYQG 111700Z 35011G17KT 15SM OVC015 06/03 A2991 RMK SC8 SLP133=

CYQG;2006-11-11 18:00;METAR CYQG 111800Z 36011G18KT 15SM OVC018 06/03 A2991 RMK SC8 SLP134=

CYQG;2006-11-11 18:46;SPECI CYQG 111846Z 36011G20KT 10SM -SHRA OVC018 RMK SC8=

CYQG;2006-11-11 19:00;METAR CYQG 111900Z 36014KT 12SM -SHRA OVC020 05/03 A2994 RMK SC8 SLP144=

CYQG;2006-11-11 19:22;SPECI CYQG 111922Z 36009G21KT 15SM OVC015 RMK SC8=

CYQG;2006-11-11 19:37;SPECI CYQG 111937Z 35015G21KT 12SM -SHRA OVC017 RMK SC8=

CYQG;2006-11-11 20:00;METAR CYQG 112000Z 34010G15KT 12SM -SHRA OVC017 05/03 A2997 RMK SC8 SLP153=

CYQG;2006-11-11 20:30;SPECI CYQG 112030Z 35009G21KT 15SM -SHRA BKN016 OVC050 RMK CU6SC2=

CYQG;2006-11-11 21:00;METAR CYQG 112100Z 36019G24KT 15SM -SHRA BKN022 OVC050 05/02 A3000 RMK CU6SC2 SLP165=

CYQG;2006-11-11 21:30;SPECI CYQG 112130Z 36017G22KT 15SM BKN027 RMK CU7=

CYQG;2006-11-11 22:00;METAR CYQG 112200Z 35019G25KT 15SM BKN019 BKN120 05/02 A3004 RMK CU6AC1 SLP178=

CYQG;2006-11-11 23:00;METAR CYQG 112300Z 35012G18KT 15SM SCT020 OVC035 04/01 A3008 RMK CU3SC5 SLP192=

CYQG;2006-11-12 00:00;METAR CYQG 120000Z 34012G18KT 15SM FEW022 BKN036 04/00 A3012 RMK CU2SC5 SLP204=

CYQG;2006-11-12 01:00;METAR CYQG 120100Z 35014KT 15SM BKN021 04/00 A3014 RMK SC7 SLP213=

CYQG;2006-11-12 02:00;METAR CYQG 120200Z 35012KT 15SM BKN019 04/M00 A3017 RMK SC7 SLP220=

CYQG;2006-11-12 03:00;METAR CYQG 120300Z 35012G18KT 15SM BKN025 04/M00 A3018 RMK SC7 SLP226=

CYQG;2006-11-12 04:00;METAR CYQG 120400Z 36010G15KT 15SM BKN023 03/M00 A3018 RMK SC7 SLP225=

CYQG;2006-11-12 05:00;METAR CYQG 120500Z 36009KT 15SM BKN017 03/M00 A3018 RMK SC7 SLP227=

CYQG;2006-11-12 06:00;METAR CYQG 120600Z 34013KT 15SM FEW016 FEW029 03/M00 A3020 RMK SC2SC1 SLP232=

CYQG;2006-11-12 07:00;METAR CYQG 120700Z 35014KT 15SM BKN032 03/M00 A3021 RMK SC7 SLP236=

CYQG;2006-11-12 08:00;METAR CYQG 120800Z 36010G19KT 15SM BKN031 03/M01 A3022 RMK SC5 SLP240=

CYQG;2006-11-12 09:00;METAR CYQG 120900Z 35009KT 15SM FEW016 SCT030 02/M01 A3023 RMK SC2SC1 SLP244=

CYQG;2006-11-12 10:00;METAR CYQG 121000Z 36008KT 15SM FEW016 FEW027 02/M01 A3025 RMK SC1SC1 SLP250=

CYQG;2006-11-12 11:00;METAR CYQG 121100Z 35006KT 15SM FEW018 BKN028 02/M01 A3027 RMK SC2SC6 SLP256=

CYQG;2006-11-12 12:00;METAR CYQG 121200Z 36008KT 15SM FEW015 OVC020 02/M01 A3028 RMK SC2SC6 SLP261=

CYQG;2006-11-12 13:00;METAR CYQG 121300Z 36007KT 15SM BKN020 02/M00 A3030 RMK SC7 SLP266=

CYQG;2006-11-12 14:00;METAR CYQG 121400Z 35006KT 15SM OVC015 03/M00 A3032 RMK SC8 SLP273=

CYQG;2006-11-12 15:00;METAR CYQG 121500Z 35005KT 15SM OVC014 03/00 A3034 RMK SC8 SLP280=

CYQG;2006-11-12 16:00;METAR CYQG 121600Z 36007KT 15SM OVC017 04/01 A3034 RMK SC8 SLP280=

CYQG;2006-11-12 17:00;METAR CYQG 121700Z 36007KT 15SM OVC020 04/01 A3033 RMK SC8 SLP276=

CYQG;2006-11-12 18:00;METAR CYQG 121800Z 34003KT 15SM OVC020 05/M00 A3032 RMK SC8 SLP274=

CYQG;2006-11-12 19:00;METAR CYQG 121900Z 04004KT 15SM OVC020 05/M00 A3029 RMK SC8 SLP265=

CYQG;2006-11-12 20:00;METAR CYQG 122000Z 05007KT 15SM BKN022 06/00 A3028 RMK SC7 SLP261=

CYQG;2006-11-12 21:00;METAR CYQG 122100Z 08007KT 15SM BKN027 05/00 A3028 RMK SC7 SLP261=

CYQG;2006-11-12 22:00;METAR CYQG 122200Z 09007KT 15SM BKN027 05/00 A3029 RMK SC7 SLP265=

CYQG;2006-11-12 23:00;METAR CYQG 122300Z 07004KT 15SM BKN025 05/M00 A3029 RMK SC7 SLP264=

CYQG;2006-11-13 00:00;METAR CYQG 130000Z 08003KT 15SM BKN022 04/M00 A3030 RMK SC7 SLP267=

CYQG;2006-11-13 01:00;METAR CYQG 130100Z 14003KT 15SM OVC019 04/00 A3029 RMK SC8 SLP263=

CYQG;2006-11-13 02:00;METAR CYQG 130200Z 13004KT 15SM OVC018 04/00 A3029 RMK SC8 SLP263=

CYQG;2006-11-13 03:00;METAR CYQG 130300Z 11007KT 15SM OVC016 04/M00 A3027 RMK SC8 SLP257=

CYQG;2006-11-13 04:00;METAR CYQG 130400Z 12007KT 15SM OVC016 03/M00 A3026 RMK SC8 SLP255=

CYQG;2006-11-13 05:00;METAR CYQG 130500Z 09002KT 15SM OVC015 03/M00 A3024 RMK SC8 SLP248=

CYQG;2006-11-13 05:45;SPECI CYQG 130545Z 00000KT 15SM OVC014 RMK SC8=

CYQG;2006-11-13 06:00;METAR CYQG 130600Z 13002KT 15SM OVC014 03/M00 A3023 RMK SC8 SLP244=

CYQG;2006-11-13 07:00;METAR CYQG 130700Z 00000KT 15SM OVC014 03/01 A3022 RMK SC8 SLP239=

CYQG;2006-11-13 08:00;METAR CYQG 130800Z 18004KT 15SM OVC013 04/01 A3021 RMK SC8 SLP235=

CYQG;2006-11-13 09:00;METAR CYQG 130900Z 13003KT 15SM OVC013 03/01 A3017 RMK SC8 SLP223=

CYQG;2006-11-13 10:00;METAR CYQG 131000Z 15004KT 15SM OVC013 03/01 A3017 RMK SC8 SLP224=

CYQG;2006-11-13 11:00;METAR CYQG 131100Z 20003KT 15SM OVC012 04/01 A3017 RMK SC8 SLP223=

CYQG;2006-11-13 12:00;METAR CYQG 131200Z 19007KT 15SM OVC011 04/01 A3016 RMK SC8 SLP219=

CYQG;2006-11-13 13:00;METAR CYQG 131300Z 18005KT 15SM OVC012 04/01 A3014 RMK SC8 SLP212=

CYQG;2006-11-13 14:00;METAR CYQG 131400Z 20009KT 15SM OVC012 04/02 A3014 RMK SC8 SLP212=

CYQG;2006-11-13 15:00;METAR CYQG 131500Z 18006KT 15SM OVC013 04/02 A3011 RMK SC8 SLP200=

CYQG;2006-11-13 16:00;METAR CYQG 131600Z 19009KT 10SM OVC014 05/02 A3010 RMK SC8 SLP199=

CYQG;2006-11-13 17:00;METAR CYQG 131700Z 17009KT 12SM OVC014 05/02 A3007 RMK SC8 SLP188=

CYQG;2006-11-13 18:00;METAR CYQG 131800Z 17010KT 12SM OVC014 05/02 A3002 RMK SC8 SLP173=

CYQG;2006-11-13 19:00;METAR CYQG 131900Z 18008KT 12SM OVC015 05/02 A3000 RMK SC8 SLP165=

CYQG;2006-11-13 20:00;METAR CYQG 132000Z 21007KT 10SM OVC015 05/02 A3000 RMK SC8 SLP164=

CYQG;2006-11-13 21:00;METAR CYQG 132100Z 20008KT 10SM OVC014 05/01 A3000 RMK SC8 SLP163=

CYQG;2006-11-13 22:00;METAR CYQG 132200Z 23007KT 7SM OVC014 05/01 A3001 RMK SC8 SLP168=

CYQG;2006-11-13 22:53;SPECI CYQG 132253Z 25006KT 8SM -DZ OVC017 RMK SC8=

CYQG;2006-11-13 23:00;METAR CYQG 132300Z 25006KT 8SM -DZ OVC019 05/01 A3000 RMK SC8 SLP163=

CYQG;2006-11-14 00:00;METAR CYQG 140000Z 26005KT 12SM -DZ BKN019 OVC140 04/01 A3000 RMK SC6AC2 SLP164=

CYQG;2006-11-14 00:39;SPECI CYQG 140039Z 25002KT 15SM SCT020 OVC130 RMK SC3AC5=

CYQG;2006-11-14 01:00;METAR CYQG 140100Z 23003KT 15SM FEW020 OVC140 04/01 A3001 RMK SC2AC6 SLP166=

CYQG;2006-11-14 02:00;METAR CYQG 140200Z 21003KT 15SM FEW020 OVC110 04/01 A3000 RMK SC2AC6 SLP165=

CYQG;2006-11-14 03:00;METAR CYQG 140300Z 26004KT 15SM FEW084 OVC130 04/01 A3001 RMK AC2AC6 SLP166=

CYQG;2006-11-14 04:00;METAR CYQG 140400Z 27004KT 15SM FEW080 OVC130 04/01 A2999 RMK AC2AC6 SLP161=

CYQG;2006-11-14 05:00;METAR CYQG 140500Z 27003KT 10SM BKN080 03/01 A2997 RMK AC6 SLP155=

CYQG;2006-11-14 06:00;METAR CYQG 140600Z 00000KT 8SM FEW080 02/00 A2996 RMK AC1 SLP151=

CYQG;2006-11-14 07:00;METAR CYQG 140700Z 00000KT 6SM BR SKC 02/M00 A2996 RMK SLP151=

CYQG;2006-11-14 08:00;METAR CYQG 140800Z 28003KT 5SM BR SCT075 01/M01 A2996 RMK AC3 SLP150=

CYQG;2006-11-14 09:00;METAR CYQG 140900Z 27005KT 5SM BR BKN070 03/01 A2995 RMK AC7 SLP149=

CYQG;2006-11-14 10:00;METAR CYQG 141000Z 27004KT 6SM HZ SCT036 OVC070 03/01 A2997 RMK SC3AC5 SLP153=

CYQG;2006-11-14 11:00;METAR CYQG 141100Z 32002KT 6SM HZ FEW018 BKN035 OVC070 03/01 A2995 RMK SC1SC5AC2 SLP148=

CYQG;2006-11-14 12:00;METAR CYQG 141200Z 00000KT 5SM HZ BKN035 OVC070 03/01 A2995 RMK SC5AC3 SLP147=

CYQG;2006-11-14 13:00;METAR CYQG 141300Z 00000KT 6SM HZ OVC038 04/01 A2995 RMK SC8 SLP149=

CYQG;2006-11-14 14:00;METAR CYQG 141400Z 35002KT 6SM HZ OVC034 04/01 A2996 RMK SC8 SLP151=

CYQG;2006-11-14 15:00;METAR CYQG 141500Z 07004KT 6SM HZ BKN037 05/01 A2994 RMK SC7 SLP144=

CYQG;2006-11-14 16:00;METAR CYQG 141600Z 08003KT 6SM HZ FEW062 SCT230 06/02 A2991 RMK SC2CI1 SLP135=

CYQG;2006-11-14 17:00;METAR CYQG 141700Z 09002KT 6SM HZ SCT018 BKN038 07/02 A2989 RMK SC3SC4 SLP127=

CYQG;2006-11-14 18:00;METAR CYQG 141800Z 09002KT 8SM BKN018 07/02 A2987 RMK SC7 SLP121=

CYQG;2006-11-14 19:00;METAR CYQG 141900Z 19002KT 10SM OVC018 06/02 A2986 RMK SC8 SLP118=

CYQG;2006-11-14 20:00;METAR CYQG 142000Z 20007KT 6SM HZ OVC018 06/02 A2986 RMK SC8 SLP116=

CYQG;2006-11-14 21:00;METAR CYQG 142100Z 23008KT 6SM HZ OVC028 06/02 A2987 RMK SC8 SLP120=

CYQG;2006-11-14 22:00;METAR CYQG 142200Z 00000KT 6SM HZ FEW028 BKN200 06/02 A2986 RMK SC2CI3 SLP115=

CYQG;2006-11-14 23:00;METAR CYQG 142300Z 19002KT 6SM HZ OVC200 05/02 A2986 RMK CI8 SLP118=

CYQG;2006-11-15 00:00;METAR CYQG 150000Z 20003KT 6SM HZ BKN034 OVC190 04/02 A2987 RMK SC6AC2 SLP121=

CYQG;2006-11-15 01:00;METAR CYQG 150100Z 20003KT 6SM HZ FEW021 OVC061 05/02 A2987 RMK SC2SC6 SLP122=

CYQG;2006-11-15 02:00;METAR CYQG 150200Z 00000KT 7SM BKN059 OVC240 04/02 A2988 RMK SC5CI3 SLP123=

CYQG;2006-11-15 03:00;METAR CYQG 150300Z 17003KT 7SM BKN070 OVC200 04/02 A2988 RMK AC5CI3 SLP123=

CYQG;2006-11-15 04:00;METAR CYQG 150400Z 14002KT 7SM BKN069 OVC210 03/02 A2988 RMK AC6CI2 SLP122=

CYQG;2006-11-15 05:00;METAR CYQG 150500Z 00000KT 7SM FEW070 FEW210 02/01 A2989 RMK AC1CC1 SLP125=

CYQG;2006-11-15 06:00;METAR CYQG 150600Z 00000KT 7SM FEW210 02/01 A2988 RMK CS1 SLP122=

CYQG;2006-11-15 07:00;METAR CYQG 150700Z 00000KT 7SM BKN210 02/00 A2988 RMK CS3 CC ASOCTD SLP124=

CYQG;2006-11-15 08:00;METAR CYQG 150800Z 00000KT 6SM BR OVC080 02/01 A2989 RMK AC8 SLP127=

CYQG;2006-11-15 09:00;METAR CYQG 150900Z 12002KT 6SM BR BKN160 02/01 A2988 RMK AC7 SLP122=

CYQG;2006-11-15 10:00;METAR CYQG 151000Z 16002KT 6SM BR OVC075 03/01 A2989 RMK AC8 SLP125=

CYQG;2006-11-15 11:00;METAR CYQG 151100Z 06003KT 6SM BR OVC085 03/02 A2988 RMK AC8 SLP123=

CYQG;2006-11-15 12:00;METAR CYQG 151200Z 07002KT 5SM BR BKN066 03/02 A2989 RMK AC7 SLP126=

CYQG;2006-11-15 13:00;METAR CYQG 151300Z 08005KT 4SM BR BKN074 04/03 A2990 RMK AC7 SLP131=

CYQG;2006-11-15 14:00;METAR CYQG 151400Z 09003KT 4SM BR BKN015 OVC075 05/04 A2993 RMK SC6AC2 SLP140=

CYQG;2006-11-15 14:45;SPECI CYQG 151445Z 08007KT 6SM BR BKN014 BKN022 RMK SC5SC2=

CYQG;2006-11-15 15:00;METAR CYQG 151500Z 07006KT 8SM BKN014 OVC022 07/05 A2992 RMK SC6SC2 SLP137=

CYQG;2006-11-15 15:53;SPECI CYQG 151553Z 08008KT 8SM SCT014 OVC025 RMK SC3SC5=

CYQG;2006-11-15 16:00;METAR CYQG 151600Z 07010KT 10SM FEW014 BKN023 07/04 A2992 RMK SC2SC6 SLP135=

CYQG;2006-11-15 17:00;METAR CYQG 151700Z 08012KT 6SM HZ FEW025 BKN270 08/05 A2990 RMK SC2CI4 CONTRAILS SLP129=

CYQG;2006-11-15 18:00;METAR CYQG 151800Z 05012KT 6SM HZ OVC027 08/05 A2989 RMK SC8 SLP127=

CYQG;2006-11-15 19:00;METAR CYQG 151900Z 05010KT 6SM HZ SCT025 OVC075 08/05 A2986 RMK SC4AC4 SLP115=

CYQG;2006-11-15 20:00;METAR CYQG 152000Z 06009KT 6SM HZ BKN023 OVC068 08/05 A2985 RMK SC5AC3 SLP112=

CYQG;2006-11-15 21:00;METAR CYQG 152100Z 07012KT 6SM HZ FEW020 OVC059 08/04 A2984 RMK SC2SC6 SLP109=

CYQG;2006-11-15 21:32;SPECI CYQG 152132Z 07010KT 6SM HZ FEW020 OVC058 RMK SC2SC6=

CYQG;2006-11-15 21:42;SPECI CYQG 152142Z 07011KT 6SM -SHRA HZ FEW020 OVC056 RMK SC2SC6=

CYQG;2006-11-15 22:00;METAR CYQG 152200Z 07012KT 5SM -SHRA HZ BKN056 OVC069 07/04 A2982 RMK SC6AC2 SLP103=

CYQG;2006-11-15 23:00;METAR CYQG 152300Z 07013KT 4SM -SHRA BR OVC056 06/04 A2981 RMK SC8 SLP099=

CYQG;2006-11-16 00:00;METAR CYQG 160000Z 05013KT 3SM -RA BR OVC056 07/05 A2979 RMK SC8 SLP092=

CYQG;2006-11-16 01:00;METAR CYQG 160100Z 05016KT 4SM -RA BR OVC043 07/05 A2977 RMK SC8 SLP085=

CYQG;2006-11-16 02:00;METAR CYQG 160200Z 04017G26KT 3SM -RA BR FEW014 OVC029 06/05 A2975 RMK SF2SC6 SLP078=

CYQG;2006-11-16 02:16;SPECI CYQG 160216Z 04016G22KT 2 1/2SM -RA BR OVC013 RMK SF8=

CYQG;2006-11-16 03:00;METAR CYQG 160300Z 04021G27KT 2 1/2SM -RA BR OVC014 06/05 A2972 RMK SF8 SLP067=

CYQG;2006-11-16 03:34;SPECI CYQG 160334Z 05018KT 2 1/2SM -RA BR FEW009 OVC013 RMK SF2SF6=

CYQG;2006-11-16 04:00;METAR CYQG 160400Z 05018G25KT 2 1/2SM -RA BR FEW008 OVC011 06/05 A2968 RMK SF2SF6 SLP055=

CYQG;2006-11-16 05:00;METAR CYQG 160500Z 05018G24KT 2 1/2SM -RA BR OVC007 06/03 A2964 RMK SF8 SLP041=

CYQG;2006-11-16 06:00;METAR CYQG 160600Z 05014G21KT 2 1/2SM -RA BR OVC007 06/05 A2961 RMK SF8 SLP032=

CYQG;2006-11-16 07:00;METAR CYQG 160700Z 04013G18KT 2 1/2SM -RA BR OVC005 06/05 A2960 RMK SF8 SLP027=

CYQG;2006-11-16 07:26;SPECI CYQG 160726Z 03015G20KT 2SM -RA BR OVC005 RMK SF8=

CYQG;2006-11-16 08:00;METAR CYQG 160800Z 02015G20KT 2SM -RA BR OVC005 06/05 A2957 RMK SF8 SLP018=

CYQG;2006-11-16 09:00;METAR CYQG 160900Z 03015G20KT 2SM -RA BR OVC005 06/05 A2955 RMK SF8 SLP010=

CYQG;2006-11-16 10:00;METAR CYQG 161000Z 03017KT 2SM -RA BR OVC005 07/06 A2952 RMK SF8 SLP000=

CYQG;2006-11-16 11:00;METAR CYQG 161100Z 02015KT 2 1/2SM -RA BR OVC005 07/06 A2950 RMK SF8 SLP993=

CYQG;2006-11-16 12:00;METAR CYQG 161200Z 02013G18KT 2 1/2SM -RA BR OVC005 07/06 A2947 RMK SF8 SLP983=

CYQG;2006-11-16 12:33;SPECI CYQG 161233Z 02015KT 4SM -RA BR OVC006 RMK SF8=

CYQG;2006-11-16 13:00;METAR CYQG 161300Z 02014KT 5SM -RA BR OVC005 07/06 A2947 RMK SF8 SLP982=

CYQG;2006-11-16 14:00;METAR CYQG 161400Z 02014G20KT 2SM -RA BR OVC007 07/06 A2945 RMK FG1SF7 SLP977=

CYQG;2006-11-16 14:49;SPECI CYQG 161449Z 02013KT 3SM -SHRA BR BKN005 OVC011 RERA RMK SF6SC2=

CYQG;2006-11-16 15:00;METAR CYQG 161500Z 02012KT 6SM -SHRA BR BKN005 OVC012 07/07 A2944 RERA RMK SF6SC2 SLP972=

CYQG;2006-11-16 16:00;METAR CYQG 161600Z 02017KT 8SM -SHRA BKN008 OVC012 08/07 A2940 RMK SF6SC2 SLP959=

CYQG;2006-11-16 17:00;METAR CYQG 161700Z 01008G15KT 7SM -RA BKN008 OVC012 08/07 A2940 RMK SF7SC1 SLP959=

CYQG;2006-11-16 17:43;SPECI CYQG 161743Z 01017KT 7SM -RA SCT008 BKN014 BKN070 RMK SF3SC2AC2=

CYQG;2006-11-16 18:00;METAR CYQG 161800Z 35016G27KT 10SM -RA SCT008 BKN013 BKN075 07/07 A2928 RMK SF3SC2AC2 PRESFR SLP918=

CYQG;2006-11-16 18:18;SPECI CYQG 161818Z 02009G19KT 15SM BKN008 BKN075 RMK SF6AC2=

CYQG;2006-11-16 19:00;METAR CYQG 161900Z 01009KT 15SM OVC009 08/07 A2936 RMK SF8 PRESRR SLP945=

CYQG;2006-11-16 19:23;SPECI CYQG 161923Z 36011KT 15SM OVC010 RMK SF8=

CYQG;2006-11-16 20:00;METAR CYQG 162000Z 36009KT 15SM OVC011 08/06 A2937 RMK SC8 SLP948=

CYQG;2006-11-16 21:00;METAR CYQG 162100Z 36009KT 2SM -RA BR OVC013 07/06 A2940 RMK SC8 SLP960=

CYQG;2006-11-16 21:17;SPECI CYQG 162117Z 36010KT 3SM -RA BR OVC014 RMK SC8=

CYQG;2006-11-16 22:00;METAR CYQG 162200Z 35013KT 8SM -RA OVC014 07/05 A2941 RMK SC8 SLP963=

CYQG;2006-11-16 22:14;SPECI CYQG 162214Z 36009G20KT 12SM FEW009 OVC014 RMK SF1SC7=

CYQG;2006-11-16 23:00;METAR CYQG 162300Z 35015KT 15SM OVC011 06/04 A2945 RMK SC8 SLP975=

CYQG;2006-11-16 23:30;SPECI CYQG 162330Z 35013G18KT 15SM SCT011 OVC016 RMK SC4SC4=

CYQG;2006-11-16 23:43;SPECI CYQG 162343Z 34013KT 12SM -SHRA SCT011 OVC015 RMK SC4SC4=

CYQG;2006-11-16 23:53;SPECI CYQG 162353Z 35009G15KT 12SM -SHRA OVC014 RMK SC8=

CYQG;2006-11-17 00:00;METAR CYQG 170000Z 35010G15KT 12SM -SHRA OVC014 05/04 A2946 RMK SC8 SLP981=

CYQG;2006-11-17 01:00;METAR CYQG 170100Z 34006KT 10SM -SHRA BKN014 OVC021 05/03 A2949 RMK SC6SC2 SLP989=

CYQG;2006-11-17 02:00;METAR CYQG 170200Z 34009KT 3SM -RA BR OVC013 04/03 A2951 RMK SC8 SLP997=

CYQG;2006-11-17 03:00;METAR CYQG 170300Z 32010KT 3SM -RA BR BKN007 OVC013 04/03 A2953 RMK SF5SC3 SLP005=

CYQG;2006-11-17 03:47;SPECI CYQG 170347Z 33015G20KT 6SM -RA BR FEW007 BKN013 OVC026 RMK SF2SC3SC2=

CYQG;2006-11-17 04:00;METAR CYQG 170400Z 31010G17KT 6SM -RA BR FEW007 BKN014 OVC023 03/02 A2956 RMK SF2SC4SC2 SLP014=

CYQG;2006-11-17 05:00;METAR CYQG 170500Z 32013G18KT 6SM -RA BR FEW010 OVC015 03/01 A2958 RMK SF2SC6 SLP022=

CYQG;2006-11-17 05:30;SPECI CYQG 170530Z 31010KT 6SM -RASN BR SCT010 OVC015 RMK SF4SC4=

CYQG;2006-11-17 06:00;METAR CYQG 170600Z 30011G17KT 6SM -RASN BR SCT005 OVC015 03/01 A2961 RMK SF3SC5 SLP031=

CYQG;2006-11-17 07:00;METAR CYQG 170700Z 30011KT 4SM -RASN BR OVC005 02/01 A2964 RMK SF8 SLP041=

CYQG;2006-11-17 08:00;METAR CYQG 170800Z 29006KT 5SM -RASN BR FEW007 OVC020 02/01 A2967 RMK SF1SC8 SLP052=

CYQG;2006-11-17 08:25;SPECI CYQG 170825Z 30009KT 6SM -DZ BR FEW007 OVC020 RMK SF1SC7=

CYQG;2006-11-17 09:00;METAR CYQG 170900Z 29010KT 8SM -DZ OVC020 03/01 A2970 RMK SF8 SLP063=

CYQG;2006-11-17 09:14;SPECI CYQG 170914Z 29011KT 8SM OVC015 RMK SF8=

CYQG;2006-11-17 10:00;METAR CYQG 171000Z 27009KT 15SM FEW020 OVC030 03/01 A2973 RMK CF1SC8 SLP071=

CYQG;2006-11-17 11:00;METAR CYQG 171100Z 28014KT 15SM FEW020 SCT030 OVC035 03/M00 A2976 RMK CF1SC3SC4 SLP083=

CYQG;2006-11-17 12:00;METAR CYQG 171200Z 29012KT 15SM OVC026 03/M01 A2980 RMK SC8 SLP098=

CYQG;2006-11-17 13:00;METAR CYQG 171300Z 28011KT 15SM OVC027 03/M01 A2983 RMK SC8 SLP108=

CYQG;2006-11-17 14:00;METAR CYQG 171400Z 29009G18KT 15SM OVC024 03/M01 A2986 RMK SC8 SLP118=

CYQG;2006-11-17 15:00;METAR CYQG 171500Z 29013G18KT 15SM OVC026 03/M02 A2989 RMK SC8 SLP128=

CYQG;2006-11-17 16:00;METAR CYQG 171600Z 29010G15KT 15SM OVC028 04/M02 A2990 RMK SC8 SLP131=

CYQG;2006-11-17 17:00;METAR CYQG 171700Z 29011KT 15SM OVC028 04/M02 A2991 RMK SC8 SLP133=

CYQG;2006-11-17 18:00;METAR CYQG 171800Z 29012G17KT 15SM BKN030 05/M02 A2990 RMK SC7 SLP132=

CYQG;2006-11-17 19:00;METAR CYQG 171900Z 29009G15KT 15SM BKN033 05/M02 A2991 RMK SC7 SLP134=

CYQG;2006-11-17 20:00;METAR CYQG 172000Z 29010G15KT 15SM BKN034 05/M02 A2993 RMK SC7 SLP142=

CYQG;2006-11-17 21:00;METAR CYQG 172100Z 27009KT 15SM OVC033 05/M02 A2995 RMK SC8 SLP149=

CYQG;2006-11-17 22:00;METAR CYQG 172200Z 27006KT 15SM OVC033 05/M02 A2998 RMK SC8 SLP158=

CYQG;2006-11-17 23:00;METAR CYQG 172300Z 28005KT 15SM OVC033 05/M01 A3000 RMK SC8 SLP163=

CYQG;2006-11-18 00:00;METAR CYQG 180000Z 30005KT 15SM OVC032 05/M02 A3001 RMK SC8 SLP167=

CYQG;2006-11-18 01:00;METAR CYQG 180100Z 29005KT 15SM OVC032 05/M01 A3001 RMK SC8 SLP170=

CYQG;2006-11-18 02:00;METAR CYQG 180200Z 31003KT 15SM OVC032 05/M01 A3003 RMK SC8 SLP174=

CYQG;2006-11-18 03:00;METAR CYQG 180300Z 00000KT 15SM OVC031 05/M01 A3004 RMK SC8 SLP179=

CYQG;2006-11-18 05:00;METAR CYQG 180500Z 22004KT 15SM OVC030 04/00 A3004 RMK SC8 SLP179=

CYQG;2006-11-18 06:00;METAR CYQG 180600Z 00000KT 15SM OVC029 04/01 A3004 RMK SC8 SLP179=

CYQG;2006-11-18 07:00;METAR CYQG 180700Z 23003KT 15SM OVC029 04/00 A3004 RMK SC8 SLP179=

CYQG;2006-11-18 08:00;METAR CYQG 180800Z 26003KT 15SM OVC031 04/01 A3004 RMK SC8 SLP180=

CYQG;2006-11-18 09:00;METAR CYQG 180900Z 27002KT 15SM BKN031 04/01 A3003 RMK SC7 SLP174=

CYQG;2006-11-18 10:00;METAR CYQG 181000Z 25002KT 15SM BKN031 OVC100 03/01 A3003 RMK SC6AC2 SLP175=

CYQG;2006-11-18 11:00;METAR CYQG 181100Z 22002KT 15SM BKN031 OVC100 04/01 A3004 RMK SC6AC2 SLP177=

CYQG;2006-11-18 12:00;METAR CYQG 181200Z 00000KT 15SM OVC030 04/01 A3005 RMK SC8 SLP181=

CYQG;2006-11-18 13:00;METAR CYQG 181300Z 01003KT 8SM SCT035 BKN120 04/01 A3005 RMK SC3AC4 SLP182=

CYQG;2006-11-18 14:00;METAR CYQG 181400Z 04004KT 10SM OVC035 05/01 A3007 RMK SC8 SLP187=

CYQG;2006-11-18 15:00;METAR CYQG 181500Z 02006KT 8SM OVC032 05/M00 A3007 RMK SC8 SLP188=

CYQG;2006-11-18 16:00;METAR CYQG 181600Z 07004KT 12SM OVC035 05/M00 A3008 RMK SC8 SLP191=

CYQG;2006-11-18 17:00;METAR CYQG 181700Z 02004KT 12SM FEW024 OVC033 06/00 A3006 RMK CU2SC6 SLP184=

CYQG;2006-11-18 18:00;METAR CYQG 181800Z 04006KT 15SM OVC034 06/M00 A3005 RMK SC8 SLP180=

CYQG;2006-11-18 19:00;METAR CYQG 181900Z 02005KT 15SM BKN037 06/M01 A3004 RMK SC7 SLP179=

CYQG;2006-11-18 20:00;METAR CYQG 182000Z 02005KT 15SM OVC037 06/M01 A3004 RMK SC8 SLP178=

CYQG;2006-11-18 21:00;METAR CYQG 182100Z 05003KT 15SM OVC036 06/M01 A3005 RMK SC8 SLP183=

CYQG;2006-11-18 22:00;METAR CYQG 182200Z 05004KT 15SM OVC034 05/M01 A3007 RMK SC8 SLP187=

CYQG;2006-11-18 23:00;METAR CYQG 182300Z 09003KT 15SM OVC034 05/M00 A3007 RMK SC8 SLP188=

CYQG;2006-11-19 00:00;METAR CYQG 190000Z 03007KT 15SM OVC035 05/M00 A3007 RMK SC8 SLP190=

CYQG;2006-11-19 01:00;METAR CYQG 190100Z 36004KT 15SM OVC036 05/M01 A3009 RMK SC8 SLP194=

CYQG;2006-11-19 02:00;METAR CYQG 190200Z 36004KT 15SM OVC038 05/M01 A3008 RMK SC8 SLP193=

CYQG;2006-11-19 03:00;METAR CYQG 190300Z 36003KT 15SM OVC042 05/M02 A3008 RMK SC8 SLP193=

CYQG;2006-11-19 04:00;METAR CYQG 190400Z 35004KT 15SM OVC041 04/M02 A3007 RMK SC8 SLP190=

CYQG;2006-11-19 05:00;METAR CYQG 190500Z 35005KT 15SM BKN041 OVC110 04/M01 A3007 RMK SC6AC2 SLP190=

CYQG;2006-11-19 06:00;METAR CYQG 190600Z 34006KT 15SM BKN043 OVC110 04/M01 A3007 RMK SC6AC2 SLP190=

CYQG;2006-11-19 07:00;METAR CYQG 190700Z 35006KT 15SM BKN042 OVC110 04/M00 A3007 RMK SC6AC2 SLP189=

CYQG;2006-11-19 08:00;METAR CYQG 190800Z 33005KT 15SM OVC042 04/M00 A3008 RMK SC8 SLP191=

CYQG;2006-11-19 09:00;METAR CYQG 190900Z 34006KT 15SM OVC042 04/M00 A3007 RMK SC8 SLP189=

CYQG;2006-11-19 10:00;METAR CYQG 191000Z 34006KT 15SM OVC039 04/00 A3007 RMK SC8 SLP190=

CYQG;2006-11-19 11:00;METAR CYQG 191100Z 35009KT 15SM BKN017 OVC034 04/01 A3008 RMK SC6SC2 SLP192=

CYQG;2006-11-19 12:00;METAR CYQG 191200Z 34006KT 15SM BKN017 OVC033 04/00 A3009 RMK SC7SC1 SLP195=

CYQG;2006-11-19 13:00;METAR CYQG 191300Z 34007KT 15SM BKN017 OVC035 04/00 A3010 RMK SC6SC2 SLP199=

CYQG;2006-11-19 14:00;METAR CYQG 191400Z 34007KT 15SM OVC016 04/00 A3011 RMK SC8 SLP203=

CYQG;2006-11-19 14:48;SPECI CYQG 191448Z 35007KT 15SM -SHSN OVC015 RMK SC8=

CYQG;2006-11-19 15:00;METAR CYQG 191500Z 34010KT 15SM -SHSN OVC017 04/00 A3012 RMK SC8 SLP206=

CYQG;2006-11-19 15:29;SPECI CYQG 191529Z 36010G15KT 15SM -SHSN OVC013 RMK SC8=

CYQG;2006-11-19 15:46;SPECI CYQG 191546Z 35009KT 15SM VCSH SCT012 OVC035 RMK SC4SC4=

CYQG;2006-11-19 16:00;METAR CYQG 191600Z 36009KT 15SM VCSH FEW019 OVC036 04/00 A3013 RMK SC2SC6 SLP209=

CYQG;2006-11-19 16:35;SPECI CYQG 191635Z 35011KT 12SM -SHRA BKN014 OVC035 RMK SC5SC3=

CYQG;2006-11-19 17:00;METAR CYQG 191700Z 33008KT 15SM -SHRA SCT015 OVC029 03/00 A3012 RMK SC3SC5 SLP206=

CYQG;2006-11-19 18:00;METAR CYQG 191800Z 34012KT 10SM -SHRA SCT015 OVC026 03/00 A3012 RMK SC3SC5 SLP205=

CYQG;2006-11-19 19:00;METAR CYQG 191900Z 35009KT 12SM -SHRA FEW018 OVC042 03/M00 A3011 RMK SC2SC6 SLP204=

CYQG;2006-11-19 19:40;SPECI CYQG 191940Z 36008KT 8SM -SHSN BKN023 OVC040 RMK SC5SC3=

CYQG;2006-11-19 19:45;SPECI CYQG 191945Z 36010KT 8SM -SG BKN028 OVC040 RMK SC6SC2=

CYQG;2006-11-19 20:00;METAR CYQG 192000Z 36009KT 8SM -SN OVC029 03/M00 A3011 RMK SC8 SLP204=

CYQG;2006-11-19 21:00;METAR CYQG 192100Z 34010KT 7SM -SN BKN020 OVC039 02/M01 A3012 RMK SC6SC2 SLP207=

CYQG;2006-11-19 22:00;METAR CYQG 192200Z 34008KT 8SM -SN FEW016 OVC040 02/M01 A3013 RMK SC2SC6 SLP209=

CYQG;2006-11-19 23:00;METAR CYQG 192300Z 35009KT 10SM -SN FEW016 OVC033 02/M01 A3014 RMK SC1SC7 SLP213=

CYQG;2006-11-20 00:00;METAR CYQG 200000Z 34013KT 15SM -SN FEW019 BKN030 OVC070 02/M02 A3015 RMK SC1SC6AC2 SLP216=

CYQG;2006-11-20 01:00;METAR CYQG 200100Z 35011KT 12SM -SN SCT020 OVC075 02/M02 A3017 RMK SC3AC5 SLP221=

CYQG;2006-11-20 02:00;METAR CYQG 200200Z 34010KT 15SM -SN FEW018 BKN053 OVC075 02/M02 A3017 RMK SC1SC5AC2 SLP222=

CYQG;2006-11-20 03:00;METAR CYQG 200300Z 35008KT 15SM -SN FEW055 OVC070 02/M03 A3017 RMK SC2AC6 SLP223=

CYQG;2006-11-20 03:41;SPECI CYQG 200341Z 36010KT 15SM OVC058 RMK SC8=

CYQG;2006-11-20 04:00;METAR CYQG 200400Z 35009KT 15SM OVC059 02/M03 A3017 RMK SC8 SLP222=

CYQG;2006-11-20 05:00;METAR CYQG 200500Z 34008G15KT 15SM OVC060 02/M03 A3018 RMK SC8 SLP226=

CYQG;2006-11-20 06:00;METAR CYQG 200600Z 33010KT 15SM OVC058 02/M03 A3018 RMK SC8 SLP226=

CYQG;2006-11-20 07:00;METAR CYQG 200700Z 33011G17KT 15SM OVC056 02/M03 A3017 RMK SC8 SLP224=

CYQG;2006-11-20 08:00;METAR CYQG 200800Z 35010KT 15SM OVC062 01/M04 A3019 RMK SC8 SLP229=

CYQG;2006-11-20 09:00;METAR CYQG 200900Z 34008KT 15SM BKN058 01/M04 A3019 RMK SC6 SLP231=

CYQG;2006-11-20 10:00;METAR CYQG 201000Z 34012KT 15SM BKN060 01/M04 A3020 RMK SC6 SLP232=

CYQG;2006-11-20 11:00;METAR CYQG 201100Z 36011G17KT 15SM FEW120 M00/M05 A3022 RMK AC1 SLP239=

CYQG;2006-11-20 12:00;METAR CYQG 201200Z 34008KT 15SM FEW120 M01/M05 A3023 RMK AC1 SLP244=

CYQG;2006-11-20 13:00;METAR CYQG 201300Z 33008KT 15SM FEW050 M00/M05 A3024 RMK SC1 SLP249=

CYQG;2006-11-20 14:00;METAR CYQG 201400Z 35005KT 15SM FEW050 01/M05 A3025 RMK SC1 SLP251=

CYQG;2006-11-20 15:00;METAR CYQG 201500Z 36006KT 15SM FEW050 02/M05 A3026 RMK SC1 SLP256=

CYQG;2006-11-20 16:00;METAR CYQG 201600Z 34007KT 15SM FEW030 FEW050 03/M05 A3029 RMK CF1SC1 SLP264=

CYQG;2006-11-20 17:00;METAR CYQG 201700Z 01008KT 15SM BKN035 BKN050 04/M04 A3028 RMK CU5SC1 SLP262=

CYQG;2006-11-20 18:00;METAR CYQG 201800Z 02008KT 15SM BKN036 04/M04 A3029 RMK SC5 SLP262=

CYQG;2006-11-20 19:00;METAR CYQG 201900Z 01005KT 15SM SCT035 04/M04 A3029 RMK SC3 SLP262=

CYQG;2006-11-20 20:00;METAR CYQG 202000Z 34004KT 15SM SCT040 05/M05 A3029 RMK SC3 SLP264=

CYQG;2006-11-20 21:00;METAR CYQG 202100Z 09005KT 15SM BKN038 04/M04 A3031 RMK SC5 SLP270=

CYQG;2006-11-20 22:00;METAR CYQG 202200Z 13002KT 15SM BKN042 04/M03 A3033 RMK SC7 SLP278=

CYQG;2006-11-20 23:00;METAR CYQG 202300Z 20003KT 15SM BKN042 03/M03 A3034 RMK SC7 SLP281=

CYQG;2006-11-21 00:00;METAR CYQG 210000Z 16002KT 15SM OVC040 03/M02 A3036 RMK SC8 SLP289=

CYQG;2006-11-21 01:00;METAR CYQG 210100Z 00000KT 15SM OVC039 03/M02 A3038 RMK SC8 SLP297=

CYQG;2006-11-21 02:00;METAR CYQG 210200Z 00000KT 15SM OVC039 04/M03 A3040 RMK SC8 SLP302=

CYQG;2006-11-21 03:00;METAR CYQG 210300Z 00000KT 15SM BKN040 04/M02 A3040 RMK SC7 SLP302=

CYQG;2006-11-21 04:00;METAR CYQG 210400Z 30002KT 15SM BKN037 03/M02 A3041 RMK SC7 SLP304=

CYQG;2006-11-21 05:00;METAR CYQG 210500Z 21002KT 15SM BKN034 02/M02 A3041 RMK SC6 SLP306=

CYQG;2006-11-21 06:00;METAR CYQG 210600Z 18005KT 15SM BKN035 01/M03 A3040 RMK SC5 SLP302=

CYQG;2006-11-21 07:00;METAR CYQG 210700Z 25005KT 15SM BKN032 02/M03 A3041 RMK SC7 SLP305=

CYQG;2006-11-21 08:00;METAR CYQG 210800Z 23006KT 15SM SCT030 02/M03 A3043 RMK SC4 SLP310=

CYQG;2006-11-21 09:00;METAR CYQG 210900Z 25006KT 15SM FEW030 01/M04 A3043 RMK SC2 SLP311=

CYQG;2006-11-21 10:00;METAR CYQG 211000Z 25004KT 15SM FEW030 00/M04 A3043 RMK SC1 SLP313=

CYQG;2006-11-21 11:00;METAR CYQG 211100Z 21004KT 15SM FEW030 M01/M04 A3043 RMK SC1 SLP312=

CYQG;2006-11-21 12:00;METAR CYQG 211200Z 23004KT 15SM FEW030 SCT260 M01/M04 A3044 RMK SC1CI1 SLP317=

CYQG;2006-11-21 13:00;METAR CYQG 211300Z 00000KT 15SM FEW180 OVC280 M00/M03 A3047 RMK AC2CI2 SLP327=

CYQG;2006-11-21 14:00;METAR CYQG 211400Z 23008KT 15SM FEW120 SCT180 BKN280 02/M03 A3049 RMK AC1AC1CI2 SLP332=

CYQG;2006-11-21 15:00;METAR CYQG 211500Z 22009KT 15SM FEW120 BKN280 03/M03 A3050 RMK AC1CI3 SLP337=

CYQG;2006-11-21 16:00;METAR CYQG 211600Z 23009KT 15SM FEW030 FEW120 BKN300 04/M02 A3051 RMK CF1AC1CI3 CONTRAILS SLP338=

CYQG;2006-11-21 17:00;METAR CYQG 211700Z 19014KT 15SM FEW040 FEW150 BKN300 05/M03 A3049 RMK SC1AC1CI3 CONTRAILS SLP332=

CYQG;2006-11-21 18:00;METAR CYQG 211800Z 22010G15KT 15SM FEW050 FEW150 BKN240 BKN300 05/M03 A3047 RMK SC1AC1CC2CI2 CONTRAILS SLP325=

CYQG;2006-11-21 19:00;METAR CYQG 211900Z 20010G15KT 15SM FEW150 BKN240 BKN280 05/M02 A3045 RMK AC1CC4CI1 SLP319=

CYQG;2006-11-21 20:00;METAR CYQG 212000Z 20011KT 15SM FEW120 SCT180 BKN240 05/M02 A3044 RMK AC1AC2CC2 CONTRAILS CI ASOCTD SLP316=

CYQG;2006-11-21 21:00;METAR CYQG 212100Z 21009KT 15SM FEW120 SCT190 BKN250 05/M02 A3044 RMK AC2AC2CI2 SLP313=

CYQG;2006-11-21 22:00;METAR CYQG 212200Z 20005KT 15SM SCT190 BKN250 04/M02 A3044 RMK AC2CI2 SLP313=

CYQG;2006-11-21 23:00;METAR CYQG 212300Z 17006KT 15SM SCT230 03/M02 A3042 RMK CI2 SLP309=

CYQG;2006-11-22 00:00;METAR CYQG 220000Z 18005KT 15SM FEW140 02/M02 A3043 RMK AC1 SLP312=

CYQG;2006-11-22 01:00;METAR CYQG 220100Z 17006KT 15SM FEW160 01/M02 A3043 RMK AC2 SLP313=

CYQG;2006-11-22 02:00;METAR CYQG 220200Z 18005KT 15SM FEW160 02/M02 A3042 RMK AC1 SLP309=

CYQG;2006-11-22 03:00;METAR CYQG 220300Z 17005KT 15SM SKC 01/M02 A3042 RMK SLP308=

CYQG;2006-11-22 04:00;METAR CYQG 220400Z 00000KT 15SM FEW230 M00/M03 A3042 RMK CI1 SLP308=

CYQG;2006-11-22 05:00;METAR CYQG 220500Z 00000KT 15SM SKC M01/M03 A3041 RMK SLP305=

CYQG;2006-11-22 06:00;METAR CYQG 220600Z 00000KT 15SM SKC M01/M03 A3040 RMK SLP303=

CYQG;2006-11-22 07:00;METAR CYQG 220700Z 00000KT 15SM SKC M01/M03 A3040 RMK SLP302=

CYQG;2006-11-22 08:00;METAR CYQG 220800Z 12002KT 15SM SKC M02/M04 A3041 RMK SLP305=

CYQG;2006-11-22 09:00;METAR CYQG 220900Z 00000KT 15SM SKC M02/M03 A3043 RMK SLP311=

CYQG;2006-11-22 10:00;METAR CYQG 221000Z 00000KT 15SM SKC M02/M03 A3043 RMK SLP313=

CYQG;2006-11-22 11:00;METAR CYQG 221100Z 05002KT 15SM FEW030 M01/M03 A3042 RMK SC1 SLP309=

CYQG;2006-11-22 12:00;METAR CYQG 221200Z 00000KT 10SM SKC M02/M03 A3041 RMK SLP308=

CYQG;2006-11-22 12:40;SPECI CYQG 221240Z 00000KT 5/8SM BR SKC RMK FG2=

CYQG;2006-11-22 12:48;SPECI CYQG 221248Z 36003KT 1/2SM FZFG SKC RMK FG2=

CYQG;2006-11-22 13:00;METAR CYQG 221300Z 01002KT 1/8SM FZFG SKC M01/M03 A3041 RMK FG6 FROIN SLP307=

CYQG;2006-11-22 14:00;METAR CYQG 221400Z 00000KT 1/8SM FZFG SKC M01/M01 A3041 RMK FG7 SLP306=

CYQG;2006-11-22 15:00;METAR CYQG 221500Z 00000KT 3/8SM FG SKC 02/01 A3041 RMK FG4 SLP307=

CYQG;2006-11-22 15:10;SPECI CYQG 221510Z 00000KT 5/8SM BR SKC RMK FG3=

CYQG;2006-11-22 15:18;SPECI CYQG 221518Z 00000KT 3/4SM BR SKC RMK FG2=

CYQG;2006-11-22 15:20;SPECI CYQG 221520Z 00000KT 1SM BR FEW005 RMK FG1SF1=

CYQG;2006-11-22 15:25;SPECI CYQG 221525Z 00000KT 2SM BR FEW005 RMK FG1SF1=

CYQG;2006-11-22 15:30;SPECI CYQG 221530Z 07002KT 3SM BR FEW005 RMK SF1=

CYQG;2006-11-22 16:00;METAR CYQG 221600Z 10005KT 7SM FEW280 05/04 A3041 RMK CI1 SLP306=

CYQG;2006-11-22 17:00;METAR CYQG 221700Z 10007KT 15SM FEW280 07/01 A3038 RMK CI1 SLP297=

CYQG;2006-11-22 18:00;METAR CYQG 221800Z 12007KT 15SM FEW040 SCT280 09/02 A3038 RMK SC1CI1 SLP293=

CYQG;2006-11-22 19:00;METAR CYQG 221900Z 12005KT 15SM BKN280 09/03 A3036 RMK CI2 SLP286=

CYQG;2006-11-22 20:00;METAR CYQG 222000Z 15002KT 15SM BKN280 09/02 A3034 RMK CI3 SLP281=

CYQG;2006-11-22 21:00;METAR CYQG 222100Z 06005KT 15SM FEW280 09/02 A3034 RMK CS1 SLP281=

CYQG;2006-11-22 22:00;METAR CYQG 222200Z 08005KT 12SM FEW280 07/02 A3035 RMK CS1 SLP285=

CYQG;2006-11-22 23:00;METAR CYQG 222300Z 08005KT 12SM FEW280 05/02 A3036 RMK CS1 SLP286=

CYQG;2006-11-23 00:00;METAR CYQG 230000Z 03003KT 12SM SKC 04/01 A3035 RMK SLP286=

CYQG;2006-11-23 01:00;METAR CYQG 230100Z 00000KT 15SM SKC 02/01 A3035 RMK SLP285=

CYQG;2006-11-23 02:00;METAR CYQG 230200Z 00000KT 15SM SKC 02/00 A3034 RMK SLP283=

CYQG;2006-11-23 03:00;METAR CYQG 230300Z 00000KT 15SM SKC 01/M00 A3032 RMK SLP276=

CYQG;2006-11-23 03:46;SPECI CYQG 230346Z 00000KT 12SM SKC RMK MIFG ON AERODROME=

CYQG;2006-11-23 04:00;METAR CYQG 230400Z 00000KT 12SM PRFG SKC M00/M01 A3031 RMK SLP270=

CYQG;2006-11-23 04:14;SPECI CYQG 230414Z 08002KT 1/4SM FZFG SKC RMK FG1 VIS SW 11/2=

CYQG;2006-11-23 04:24;SPECI CYQG 230424Z 04002KT 10SM MIFG PRFG SKC RMK VIS E 1/2=

CYQG;2006-11-23 05:00;METAR CYQG 230500Z 00000KT 15SM SKC 01/M00 A3030 RMK SLP269=

CYQG;2006-11-23 06:00;METAR CYQG 230600Z 36003KT 12SM SKC 02/01 A3030 RMK SLP266=

CYQG;2006-11-23 06:28;SPECI CYQG 230628Z 00000KT 1/4SM FG SKC RMK VIS SW 2=

CYQG;2006-11-23 06:52;SPECI CYQG 230652Z 00000KT 0SM FG VV000 RMK FG8=

CYQG;2006-11-23 07:00;METAR CYQG 230700Z 00000KT 0SM FZFG VV000 M00/M00 A3029 RMK FG8 SLP263=

CYQG;2006-11-23 07:13;SPECI CYQG 230713Z 00000KT 1/8SM FZFG SKC RMK FG7=

CYQG;2006-11-23 07:48;SPECI CYQG 230748Z 36003KT 2SM BR SKC RMK FG2=

CYQG;2006-11-23 08:00;METAR CYQG 230800Z 36003KT 2 1/2SM BR SKC 01/M00 A3031 RMK SLP268=

CYQG;2006-11-23 08:06;SPECI CYQG 230806Z 36003KT 3SM BR SKC=

CYQG;2006-11-23 09:00;METAR CYQG 230900Z 01005KT 4SM BR SKC 00/M00 A3030 RMK SLP267=

CYQG;2006-11-23 10:00;METAR CYQG 231000Z 05002KT 3SM BR PRFG SKC M00/M01 A3029 RMK SLP264=

CYQG;2006-11-23 10:17;SPECI CYQG 231017Z 06002KT 2SM BR SKC=

CYQG;2006-11-23 10:29;SPECI CYQG 231029Z 00000KT 1SM BR SKC=

CYQG;2006-11-23 11:00;METAR CYQG 231100Z 35003KT 2SM BR SCT006 M00/M01 A3030 RMK SF3 SLP267=

CYQG;2006-11-23 11:13;SPECI CYQG 231113Z 00000KT 2 1/4SM BR BKN003 RMK SF5=

CYQG;2006-11-23 11:47;SPECI CYQG 231147Z 34003KT 2 1/2SM BR BKN002 RMK SF7=

CYQG;2006-11-23 12:00;METAR CYQG 231200Z 35003KT 2 1/2SM BR OVC004 02/01 A3030 RMK SF8 SLP268=

CYQG;2006-11-23 12:14;SPECI CYQG 231214Z 35003KT 2 1/4SM BR OVC003 RMK FG1ST7=

CYQG;2006-11-23 12:52;SPECI CYQG 231252Z 02002KT 1 1/4SM BR OVC002 RMK FG2ST6=

CYQG;2006-11-23 13:00;METAR CYQG 231300Z 36002KT 1 1/2SM BR OVC002 02/01 A3031 RMK FG2ST6 SLP269=

CYQG;2006-11-23 13:46;SPECI CYQG 231346Z 00000KT 1SM BR OVC002 RMK FG2ST6=

CYQG;2006-11-23 14:00;METAR CYQG 231400Z 32004KT 1/4SM FG VV001 03/02 A3032 RMK FG8 SLP273=

CYQG;2006-11-23 15:00;METAR CYQG 231500Z 33002KT 0SM FG VV001 03/02 A3032 RMK FG8 SLP273=

CYQG;2006-11-23 16:00;METAR CYQG 231600Z 00000KT 0SM FG VV001 03/03 A3032 RMK FG8 SLP275=

CYQG;2006-11-23 17:00;METAR CYQG 231700Z 14002KT 0SM FG VV001 04/04 A3031 RMK FG8 SLP272=

CYQG;2006-11-23 18:00;METAR CYQG 231800Z 00000KT 1/4SM FG VV002 04/04 A3029 RMK FG8 SLP265=

CYQG;2006-11-23 18:16;SPECI CYQG 231816Z 00000KT 1SM BR OVC004 RMK FG2SF6=

CYQG;2006-11-23 18:30;SPECI CYQG 231830Z 00000KT 2SM BR FEW004 RMK FG1SF2=

CYQG;2006-11-23 18:53;SPECI CYQG 231853Z 00000KT 3SM BR FEW005 RMK SF1=

CYQG;2006-11-23 19:00;METAR CYQG 231900Z 00000KT 4SM BR FEW005 06/06 A3028 RMK SF1 SLP260=

CYQG;2006-11-23 20:00;METAR CYQG 232000Z 00000KT 5SM HZ FEW280 09/06 A3027 RMK CI1 SLP258=

CYQG;2006-11-23 21:00;METAR CYQG 232100Z 16003KT 5SM HZ FEW280 09/04 A3027 RMK CI1 SLP257=

CYQG;2006-11-23 22:00;METAR CYQG 232200Z 22003KT 5SM HZ FEW280 07/04 A3027 RMK CI1 SLP257=

CYQG;2006-11-23 23:00;METAR CYQG 232300Z 25004KT 5SM HZ FEW280 05/03 A3028 RMK CI1 SLP258=

CYQG;2006-11-24 00:00;METAR CYQG 240000Z 22004KT 5SM BR SKC 04/02 A3029 RMK SLP262=

CYQG;2006-11-24 00:34;SPECI CYQG 240034Z 24005KT 2 1/2SM BR SKC=

CYQG;2006-11-24 01:00;METAR CYQG 240100Z 22002KT 1 3/4SM BR SKC 03/01 A3029 RMK SLP262=

CYQG;2006-11-24 01:07;SPECI CYQG 240107Z 21004KT 1/8SM FG SKC RMK FG7=

CYQG;2006-11-24 02:00;METAR CYQG 240200Z 23003KT 1/8SM FZFG VV002 00/M01 A3029 RMK FG8 SLP265=

CYQG;2006-11-24 02:12;SPECI CYQG 240212Z 25002KT 0SM FZFG VV002 RMK FG8=

CYQG;2006-11-24 03:00;METAR CYQG 240300Z 22002KT 0SM FZFG VV001 M00/M01 A3029 RMK FG8 FROIN SLP265=

CYQG;2006-11-24 04:00;METAR CYQG 240400Z 20002KT 1/8SM FZFG SKC M01/M01 A3028 RMK FG7 SLP261=

CYQG;2006-11-24 04:37;SPECI CYQG 240437Z 19002KT 3/8SM FZFG SKC RMK FG7 VIS SW 3/4=

CYQG;2006-11-24 04:52;SPECI CYQG 240452Z 00000KT 1/2SM FZFG SKC RMK FG7 VIS SW 1=

CYQG;2006-11-24 05:00;METAR CYQG 240500Z 00000KT 5/8SM BR SKC M01/M01 A3028 RMK FG6 VIS SW 1 FROIN SLP260=

CYQG;2006-11-24 05:09;SPECI CYQG 240509Z 11002KT 2SM BR MIFG SKC RMK FROIN=

CYQG;2006-11-24 05:44;SPECI CYQG 240544Z 18002KT 3SM BR FEW002 RMK ST1 FROIN=

CYQG;2006-11-24 06:00;METAR CYQG 240600Z 20002KT 5SM BR FEW001 M02/M02 A3028 RMK ST2 FROIN SLP261=

CYQG;2006-11-24 06:34;SPECI CYQG 240634Z 25003KT 4SM BR BKN001 RMK ST6=

CYQG;2006-11-24 07:00;METAR CYQG 240700Z 27005KT 3SM BR BKN001 M01/M02 A3028 RMK ST6 SLP262=

CYQG;2006-11-24 07:07;SPECI CYQG 240707Z 26005KT 1/4SM FZFG SKC RMK FG6=

CYQG;2006-11-24 07:39;SPECI CYQG 240739Z 26004KT 1/8SM FZFG VV001 RMK FG8=

CYQG;2006-11-24 08:00;METAR CYQG 240800Z 00000KT 1/8SM FZFG VV001 M01/M02 A3028 RMK FG8 SLP260=

CYQG;2006-11-24 08:27;SPECI CYQG 240827Z 18002KT 3/4SM BR SKC RMK FG6=

CYQG;2006-11-24 08:39;SPECI CYQG 240839Z 00000KT 2SM BR PRFG FEW001 RMK ST2=

CYQG;2006-11-24 09:00;METAR CYQG 240900Z 00000KT 2SM BR PRFG SCT001 M02/M03 A3027 RMK ST3 SLP258=

CYQG;2006-11-24 10:00;METAR CYQG 241000Z 18002KT 2 1/2SM BR SCT001 M03/M04 A3027 RMK ST4 SLP258=

CYQG;2006-11-24 10:19;SPECI CYQG 241019Z 14002KT 2SM BR BKN001 RMK ST6=

CYQG;2006-11-24 10:40;SPECI CYQG 241040Z 17002KT 1/4SM FZFG VV001 RMK FG8=

CYQG;2006-11-24 11:00;METAR CYQG 241100Z 18002KT 1/8SM FZFG VV001 M02/M03 A3029 RMK FG8 SLP263=

CYQG;2006-11-24 12:00;METAR CYQG 241200Z 21003KT 0SM FZFG VV001 M01/M02 A3030 RMK FG8 SLP269=

CYQG;2006-11-24 13:00;METAR CYQG 241300Z 20004KT 0SM FZFG VV001 M01/M01 A3031 RMK FG8 SLP271=

CYQG;2006-11-24 14:00;METAR CYQG 241400Z 22005KT 0SM FZFG VV001 M00/M01 A3032 RMK FG8 SLP275=

CYQG;2006-11-24 15:00;METAR CYQG 241500Z 19005KT 0SM FG VV001 01/00 A3032 RMK FG8 SLP277=

CYQG;2006-11-24 16:00;METAR CYQG 241600Z 20005KT 1/4SM FG VV002 03/02 A3032 RMK FG8 SLP275=

CYQG;2006-11-24 16:08;SPECI CYQG 241608Z 18007KT 1/2SM FG OVC002 RMK FG3ST5=

CYQG;2006-11-24 16:12;SPECI CYQG 241612Z 19006KT 3/4SM BR BKN003 RMK FG2SF6=

CYQG;2006-11-24 16:38;SPECI CYQG 241638Z 21006KT 2SM BR BKN003 RMK FG1SF6=

CYQG;2006-11-24 17:00;METAR CYQG 241700Z 17003KT 2 1/2SM BR BKN004 05/04 A3029 RMK FG1SF4 SLP265=

CYQG;2006-11-24 17:18;SPECI CYQG 241718Z 17005KT 4SM BR FEW006 RMK SF2=

CYQG;2006-11-24 18:00;METAR CYQG 241800Z 16004KT 7SM FEW007 FEW280 07/06 A3027 RMK SF1CI1 SLP256=

CYQG;2006-11-24 19:00;METAR CYQG 241900Z 16004KT 12SM FEW280 09/04 A3024 RMK CI1 SLP246=

CYQG;2006-11-24 20:00;METAR CYQG 242000Z 18004KT 15SM FEW280 10/02 A3023 RMK CI1 SLP242=

CYQG;2006-11-24 21:00;METAR CYQG 242100Z 16006KT 15SM FEW280 09/02 A3021 RMK CI1 SLP235=

CYQG;2006-11-24 22:00;METAR CYQG 242200Z 16005KT 15SM FEW280 07/02 A3021 RMK CI1 CONTRAILS SLP236=

CYQG;2006-11-24 23:00;METAR CYQG 242300Z 15004KT 15SM FEW280 05/01 A3021 RMK CI1 SLP235=

CYQG;2006-11-25 00:00;METAR CYQG 250000Z 13004KT 5SM BR SKC 04/02 A3021 RMK SLP237=

CYQG;2006-11-25 00:16;SPECI CYQG 250016Z 13004KT 1 1/2SM BR SKC=

CYQG;2006-11-25 00:52;SPECI CYQG 250052Z 13003KT 5SM BR SKC=

CYQG;2006-11-25 01:00;METAR CYQG 250100Z 13005KT 5SM BR SKC 03/02 A3020 RMK SLP236=

CYQG;2006-11-25 02:00;METAR CYQG 250200Z 14007KT 5SM BR SKC 03/02 A3019 RMK SLP230=

CYQG;2006-11-25 03:00;METAR CYQG 250300Z 00000KT 7SM SKC 03/03 A3018 RMK SLP227=

CYQG;2006-11-25 04:00;METAR CYQG 250400Z 15004KT 7SM FEW280 02/01 A3017 RMK CI1 CONTRAILS SLP224=

CYQG;2006-11-25 05:00;METAR CYQG 250500Z 18004KT 15SM SKC 02/01 A3017 RMK SLP224=

CYQG;2006-11-25 06:00;METAR CYQG 250600Z 18004KT 15SM SKC 04/02 A3016 RMK SLP217=

CYQG;2006-11-25 07:00;METAR CYQG 250700Z 19003KT 15SM SKC 04/M00 A3016 RMK SLP217=

CYQG;2006-11-25 08:00;METAR CYQG 250800Z 18002KT 15SM SKC 01/M01 A3018 RMK SLP224=

CYQG;2006-11-25 09:00;METAR CYQG 250900Z 17004KT 15SM SKC 00/M02 A3018 RMK SLP226=

CYQG;2006-11-25 10:00;METAR CYQG 251000Z 17003KT 15SM SKC 00/M02 A3017 RMK SLP223=

CYQG;2006-11-25 11:00;METAR CYQG 251100Z 20002KT 15SM SKC 00/M01 A3017 RMK SLP222=

CYQG;2006-11-25 12:00;METAR CYQG 251200Z 20006KT 15SM BKN260 04/M01 A3017 RMK CI1 SLP221=

CYQG;2006-11-25 13:00;METAR CYQG 251300Z 21003KT 15SM BKN270 05/M01 A3017 RMK CI2 SLP224=

CYQG;2006-11-25 14:00;METAR CYQG 251400Z 20006KT 15SM BKN270 06/00 A3017 RMK CI2 SLP224=

CYQG;2006-11-25 15:00;METAR CYQG 251500Z 20008KT 15SM BKN280 08/01 A3017 RMK CI2 SLP223=

CYQG;2006-11-25 16:00;METAR CYQG 251600Z 21009KT 15SM BKN280 09/02 A3017 RMK CI3 SLP222=

CYQG;2006-11-25 17:00;METAR CYQG 251700Z 19007KT 15SM BKN280 11/03 A3014 RMK CI5 SLP213=

CYQG;2006-11-25 18:00;METAR CYQG 251800Z 21010KT 15SM BKN270 12/03 A3012 RMK CS6 SLP203=

CYQG;2006-11-25 19:00;METAR CYQG 251900Z 20008KT 15SM OVC270 13/03 A3010 RMK CS6 SLP197=

CYQG;2006-11-25 20:00;METAR CYQG 252000Z 20007KT 15SM OVC260 13/03 A3009 RMK CS7 SLP194=

CYQG;2006-11-25 21:00;METAR CYQG 252100Z 19006KT 15SM OVC250 13/04 A3009 RMK CS6 SLP195=

CYQG;2006-11-25 22:00;METAR CYQG 252200Z 19005KT 15SM OVC240 11/04 A3010 RMK CS6 SLP198=

CYQG;2006-11-25 23:00;METAR CYQG 252300Z 21007KT 15SM OVC240 11/04 A3010 RMK CS6 SLP198=

CYQG;2006-11-26 00:00;METAR CYQG 260000Z 21008KT 15SM OVC240 12/04 A3012 RMK CS6 SLP203=

CYQG;2006-11-26 01:00;METAR CYQG 260100Z 21009KT 15SM OVC230 12/04 A3012 RMK CS6 SLP204=

CYQG;2006-11-26 02:00;METAR CYQG 260200Z 21008KT 15SM SCT230 11/04 A3012 RMK CS2 SLP205=

CYQG;2006-11-26 03:00;METAR CYQG 260300Z 22010KT 15SM SCT230 11/03 A3013 RMK CS2 SLP207=

CYQG;2006-11-26 04:00;METAR CYQG 260400Z 22007KT 15SM FEW057 SCT230 10/04 A3014 RMK SC1CS1 SLP208=

CYQG;2006-11-26 05:00;METAR CYQG 260500Z 21005KT 15SM BKN042 BKN230 10/04 A3014 RMK SC5CS2 SLP211=

CYQG;2006-11-26 06:00;METAR CYQG 260600Z 22005KT 15SM OVC047 10/04 A3014 RMK SC8 SLP210=

CYQG;2006-11-26 07:00;METAR CYQG 260700Z 19004KT 15SM SCT043 OVC190 09/05 A3014 RMK SC3AC5 SLP209=

CYQG;2006-11-26 08:00;METAR CYQG 260800Z 20005KT 15SM FEW045 OVC190 09/04 A3015 RMK SC2AC6 SLP211=

CYQG;2006-11-26 09:00;METAR CYQG 260900Z 19003KT 15SM FEW040 BKN220 08/04 A3015 RMK SC1CI3 SLP213=

CYQG;2006-11-26 10:00;METAR CYQG 261000Z 21003KT 15SM FEW040 BKN210 08/04 A3016 RMK SC1CI4 SLP215=

CYQG;2006-11-26 11:00;METAR CYQG 261100Z 21006KT 15SM BKN240 08/03 A3017 RMK CI2 SLP219=

CYQG;2006-11-26 12:00;METAR CYQG 261200Z 21005KT 15SM BKN240 08/03 A3017 RMK CI2 SLP221=

CYQG;2006-11-26 13:00;METAR CYQG 261300Z 21006KT 12SM FEW045 BKN250 07/03 A3019 RMK SC2CI2 SLP227=

CYQG;2006-11-26 14:00;METAR CYQG 261400Z 21008KT 15SM BKN048 BKN260 09/04 A3021 RMK SC6CI1 SLP232=

CYQG;2006-11-26 15:00;METAR CYQG 261500Z 21009KT 12SM FEW050 BKN260 10/04 A3022 RMK SC2CI4 SLP235=

CYQG;2006-11-26 16:00;METAR CYQG 261600Z 22011KT 15SM FEW053 OVC270 12/05 A3022 RMK SC1CS6 SLP235=

CYQG;2006-11-26 17:00;METAR CYQG 261700Z 21009KT 15SM OVC270 13/06 A3020 RMK CS6 SLP230=

CYQG;2006-11-26 18:00;METAR CYQG 261800Z 22010KT 12SM OVC280 14/07 A3018 RMK CS6 SLP223=

CYQG;2006-11-26 19:00;METAR CYQG 261900Z 21007KT 12SM OVC280 15/07 A3019 RMK CS6 SLP225=

CYQG;2006-11-26 20:00;METAR CYQG 262000Z 21008KT 12SM OVC270 15/08 A3019 RMK CS6 SLP224=

CYQG;2006-11-26 21:00;METAR CYQG 262100Z 21006KT 10SM BKN270 14/08 A3020 RMK CI4 SLP228=

CYQG;2006-11-26 22:00;METAR CYQG 262200Z 21007KT 12SM SCT260 13/08 A3020 RMK CI2 SLP231=

CYQG;2006-11-26 23:00;METAR CYQG 262300Z 20006KT 15SM FEW270 12/07 A3021 RMK CI2 SLP233=

CYQG;2006-11-27 00:00;METAR CYQG 270000Z 20004KT 15SM FEW270 10/07 A3022 RMK CI1 SLP236=

CYQG;2006-11-27 01:00;METAR CYQG 270100Z 18004KT 15SM BKN270 09/06 A3022 RMK CI2 SLP236=

CYQG;2006-11-27 02:00;METAR CYQG 270200Z 21004KT 15SM OVC270 09/06 A3022 RMK CI2 SLP237=

CYQG;2006-11-27 03:00;METAR CYQG 270300Z 21007KT 15SM FEW270 09/06 A3022 RMK CI1 SLP236=

CYQG;2006-11-27 04:00;METAR CYQG 270400Z 21005KT 15SM SKC 09/06 A3021 RMK SLP235=

CYQG;2006-11-27 05:00;METAR CYQG 270500Z 20006KT 10SM BKN240 09/06 A3021 RMK CI2 SLP234=

CYQG;2006-11-27 06:00;METAR CYQG 270600Z 19006KT 10SM OVC220 09/06 A3021 RMK CI6 SLP232=

CYQG;2006-11-27 07:00;METAR CYQG 270700Z 21005KT 8SM OVC220 09/06 A3021 RMK CI7 SLP233=

CYQG;2006-11-27 08:00;METAR CYQG 270800Z 21004KT 8SM OVC210 09/06 A3022 RMK CI7 SLP235=

CYQG;2006-11-27 09:00;METAR CYQG 270900Z 20006KT 6SM HZ OVC170 09/06 A3021 RMK AS8 SLP232=

CYQG;2006-11-27 10:00;METAR CYQG 271000Z 21005KT 6SM HZ BKN049 OVC160 09/07 A3021 RMK SC6AS2 SLP232=

CYQG;2006-11-27 11:00;METAR CYQG 271100Z 21004KT 6SM HZ SCT050 OVC210 09/07 A3020 RMK SC3CI5 SLP231=

CYQG;2006-11-27 12:00;METAR CYQG 271200Z 20005KT 6SM BR BKN050 OVC220 09/07 A3020 RMK SC5CI3 SLP230=

CYQG;2006-11-27 13:00;METAR CYQG 271300Z 20005KT 5SM BR OVC220 09/07 A3020 RMK CS6 SLP231=

CYQG;2006-11-27 14:00;METAR CYQG 271400Z 21007KT 5SM HZ FEW190 OVC240 09/07 A3022 RMK AC1CS6 SLP235=

CYQG;2006-11-27 15:00;METAR CYQG 271500Z 21010KT 5SM HZ SCT220 BKN280 11/08 A3022 RMK CC3CS3 SLP235=

CYQG;2006-11-27 16:00;METAR CYQG 271600Z 22010KT 6SM HZ BKN250 12/08 A3021 RMK CS6 CC ASOCTD CONTRAILS SLP234=

CYQG;2006-11-27 17:00;METAR CYQG 271700Z 23009KT 6SM HZ OVC200 12/08 A3019 RMK CS7 SLP225=

CYQG;2006-11-27 18:00;METAR CYQG 271800Z 21010KT 6SM HZ OVC220 14/09 A3016 RMK CS6 SLP215=

CYQG;2006-11-27 19:00;METAR CYQG 271900Z 21011KT 7SM FEW220 OVC240 15/10 A3016 RMK CC2CS3 SLP214=

CYQG;2006-11-27 20:00;METAR CYQG 272000Z 22011KT 8SM FEW180 OVC240 14/10 A3016 RMK AC2CS5 CONTRIALS SLP214=

CYQG;2006-11-27 21:00;METAR CYQG 272100Z 21008KT 10SM FEW080 SCT150 BKN240 14/10 A3017 RMK AC1AC2CS4 SLP218=

CYQG;2006-11-27 22:00;METAR CYQG 272200Z 21006KT 8SM BKN170 OVC240 13/10 A3018 RMK AC5CI2 SLP222=

CYQG;2006-11-27 23:00;METAR CYQG 272300Z 21007KT 8SM BKN180 BKN240 12/09 A3019 RMK AC6CI2 SLP226=

CYQG;2006-11-28 00:00;METAR CYQG 280000Z 20007KT 15SM BKN073 BKN150 13/10 A3019 RMK AC5AC2 SLP225=

CYQG;2006-11-28 01:00;METAR CYQG 280100Z 23004KT 12SM SCT075 BKN240 12/10 A3019 RMK AC3CI3 SLP227=

CYQG;2006-11-28 02:00;METAR CYQG 280200Z 23004KT 12SM SCT240 11/09 A3019 RMK CI2 SLP226=

CYQG;2006-11-28 03:00;METAR CYQG 280300Z 20006KT 12SM FEW040 BKN250 11/09 A3019 RMK SC1CI2 SLP227=

CYQG;2006-11-28 04:00;METAR CYQG 280400Z 21007KT 15SM BKN040 OVC240 11/09 A3018 RMK SC6CI2 SLP223=

CYQG;2006-11-28 05:00;METAR CYQG 280500Z 21007KT 10SM BKN042 11/08 A3019 RMK SC7 SLP227=

CYQG;2006-11-28 06:00;METAR CYQG 280600Z 21005KT 8SM BKN042 OVC064 11/08 A3019 RMK SC7SC1 SLP225=

CYQG;2006-11-28 07:00;METAR CYQG 280700Z 20003KT 10SM SCT041 OVC070 11/08 A3018 RMK SC3AC5 SLP221=

CYQG;2006-11-28 08:00;METAR CYQG 280800Z 19004KT 10SM BKN043 OVC067 11/08 A3019 RMK SC6AC2 SLP224=

CYQG;2006-11-28 09:00;METAR CYQG 280900Z 20005KT 8SM BKN047 OVC070 11/08 A3018 RMK SC7AC1 SLP221=

CYQG;2006-11-28 10:00;METAR CYQG 281000Z 18006KT 8SM OVC044 11/08 A3017 RMK SC8 SLP218=

CYQG;2006-11-28 11:00;METAR CYQG 281100Z 17004KT 10SM FEW038 BKN060 OVC270 10/07 A3017 RMK SC2SC3CI2 SLP217=

CYQG;2006-11-28 12:00;METAR CYQG 281200Z 18006KT 8SM FEW040 BKN059 10/07 A3017 RMK SC2SC6 SLP217=

CYQG;2006-11-28 13:00;METAR CYQG 281300Z 18008KT 8SM BKN040 OVC260 10/07 A3017 RMK SC6CS2 SLP220=

CYQG;2006-11-28 14:00;METAR CYQG 281400Z 18006KT 8SM SCT060 BKN260 10/06 A3017 RMK SC3CS3 SLP220=

CYQG;2006-11-28 15:00;METAR CYQG 281500Z 18007KT 8SM SCT041 BKN060 OVC260 11/07 A3017 RMK SC4SC2CS1 SLP218=

CYQG;2006-11-28 17:00;METAR CYQG 281700Z 21010KT 15SM SCT130 13/05 A3012 RMK AC4 SLP204=

CYQG;2006-11-28 18:00;METAR CYQG 281800Z 19011KT 15SM FEW130 15/05 A3010 RMK AC1 SLP195=

CYQG;2006-11-28 19:00;METAR CYQG 281900Z 20012KT 15SM FEW130 FEW260 15/05 A3009 RMK AC1CI1 SLP192=

CYQG;2006-11-28 20:00;METAR CYQG 282000Z 20009KT 15SM FEW130 FEW260 15/05 A3006 RMK AC1CI1 SLP182=

CYQG;2006-11-28 21:00;METAR CYQG 282100Z 20009KT 15SM SCT170 14/05 A3007 RMK AC3 SLP183=

CYQG;2006-11-28 22:00;METAR CYQG 282200Z 18009KT 15SM BKN180 13/06 A3007 RMK AC5 SLP185=

CYQG;2006-11-28 23:00;METAR CYQG 282300Z 19008KT 15SM BKN120 13/06 A3008 RMK AC6 SLP187=

CYQG;2006-11-29 01:00;METAR CYQG 290100Z 19012KT 15SM BKN110 14/07 A3007 RMK AC7 SLP187=

CYQG;2006-11-29 02:00;METAR CYQG 290200Z 20014KT 15SM BKN110 14/08 A3008 RMK AC7 SLP189=

CYQG;2006-11-29 03:00;METAR CYQG 290300Z 20013KT 15SM BKN110 13/08 A3008 RMK AC6 SLP189=

CYQG;2006-11-29 04:00;METAR CYQG 290400Z 21011KT 15SM BKN150 12/07 A3008 RMK AC6 SLP187=

CYQG;2006-11-29 05:00;METAR CYQG 290500Z 21011KT 15SM BKN120 BKN280 12/07 A3007 RMK AC5CI2 SLP184=

CYQG;2006-11-29 06:00;METAR CYQG 290600Z 21014KT 15SM OVC150 13/08 A3007 RMK AS7 SLP184=

CYQG;2006-11-29 07:00;METAR CYQG 290700Z 20014KT 15SM FEW043 OVC160 13/09 A3006 RMK SC2AS6 SLP182=

CYQG;2006-11-29 08:00;METAR CYQG 290800Z 20013KT 15SM SCT040 BKN160 13/09 A3007 RMK SC4AC3 SLP184=

CYQG;2006-11-29 09:00;METAR CYQG 290900Z 20014KT 15SM OVC032 14/10 A3006 RMK SC8 SLP181=

CYQG;2006-11-29 10:00;METAR CYQG 291000Z 20013KT 15SM OVC053 14/11 A3005 RMK SC8 SLP178=

CYQG;2006-11-29 11:00;METAR CYQG 291100Z 20014KT 15SM BKN055 14/11 A3006 RMK SC7 SLP179=

CYQG;2006-11-29 12:00;METAR CYQG 291200Z 20009KT 12SM OVC016 13/11 A3006 RMK SC8 SLP182=

CYQG;2006-11-29 12:50;SPECI CYQG 291250Z 21011KT 4SM -SHRA OVC012 RMK SC8=

CYQG;2006-11-29 13:00;METAR CYQG 291300Z 21010G15KT 4SM -SHRA OVC012 14/12 A3007 RMK SC8 SLP184=

CYQG;2006-11-29 13:25;SPECI CYQG 291325Z 21010KT 4SM HZ OVC006 RMK SC8=

CYQG;2006-11-29 14:00;METAR CYQG 291400Z 20012KT 4SM HZ OVC006 13/12 A3007 RMK SC8 SLP184=

CYQG;2006-11-29 15:00;METAR CYQG 291500Z 21012KT 4SM HZ OVC008 14/13 A3008 RMK SC8 SLP187=

CYQG;2006-11-29 15:32;SPECI CYQG 291532Z 19014KT 4SM -DZ HZ SCT007 OVC014 RMK SC4SC4=

CYQG;2006-11-29 16:00;METAR CYQG 291600Z 20013KT 3SM HZ SCT007 OVC011 15/13 A3008 RMK SC4SC4 SLP187=

CYQG;2006-11-29 17:00;METAR CYQG 291700Z 21014KT 3SM HZ FEW010 OVC033 16/14 A3006 RMK SF1SC7 SLP180=

CYQG;2006-11-29 17:19;SPECI CYQG 291719Z 20015KT 5SM HZ FEW012 BKN020 OVC030 RMK SF2SC2SC3=

CYQG;2006-11-29 18:00;METAR CYQG 291800Z 20014KT 5SM HZ OVC033 16/14 A3003 RMK SC8 SLP170=

CYQG;2006-11-29 19:00;METAR CYQG 291900Z 21014KT 5SM HZ FEW012 BKN038 17/14 A3002 RMK SC2SC5 SLP167=

CYQG;2006-11-29 20:00;METAR CYQG 292000Z 20013KT 6SM HZ BKN032 OVC120 18/15 A3002 RMK SC7AC1 SLP166=

CYQG;2006-11-29 21:00;METAR CYQG 292100Z 20011G16KT 8SM OVC020 17/14 A3002 RMK SC8 SLP166=

CYQG;2006-11-29 22:00;METAR CYQG 292200Z 19012G17KT 8SM OVC020 17/14 A3002 RMK SC8 SLP166=

CYQG;2006-11-29 23:00;METAR CYQG 292300Z 21013G19KT 7SM -SHRA OVC038 17/14 A3002 RMK SC8 SLP166=

CYQG;2006-11-30 01:00;METAR CYQG 300100Z 20013KT 5SM -SHRA BR BKN030 OVC075 17/14 A3001 RMK SC6AC2 SLP165=

CYQG;2006-11-30 02:00;METAR CYQG 300200Z 20012G18KT 7SM -SHRA OVC028 16/15 A3001 RMK SC8 SLP163=

CYQG;2006-11-30 03:00;METAR CYQG 300300Z 20012G17KT 8SM SCT060 BKN110 16/14 A3000 RMK SC4AC3 SLP160=

CYQG;2006-11-30 04:00;METAR CYQG 300400Z 21010KT 10SM BKN090 16/14 A2999 RMK AC7 SLP157=

CYQG;2006-11-30 05:00;METAR CYQG 300500Z 20009KT 10SM SCT040 BKN090 16/14 A2998 RMK SC3AC4 SLP153=

CYQG;2006-11-30 06:00;METAR CYQG 300600Z 20012KT 10SM -SHRA BKN040 OVC075 16/14 A2997 RMK SC6AC2 SLP148=

CYQG;2006-11-30 07:00;METAR CYQG 300700Z 21012G18KT 10SM -SHRA FEW031 OVC100 16/14 A2994 RMK SC2AC6 SLP139=

CYQG;2006-11-30 08:00;METAR CYQG 300800Z 20012KT 12SM BKN080 BKN120 OVC250 16/14 A2993 RMK AC5AC1CS2 SLP135=

CYQG;2006-11-30 09:00;METAR CYQG 300900Z 20014KT 8SM -SHRA OVC040 15/13 A2992 RERA RMK SC8 SLP131=

CYQG;2006-11-30 10:00;METAR CYQG 301000Z 21012KT 8SM -SHRA BKN040 OVC080 15/13 A2991 RMK SC6AC2 SLP128=

CYQG;2006-11-30 11:00;METAR CYQG 301100Z 20011KT 10SM -SHRA OVC032 15/13 A2989 RMK SC8 SLP122=

CYQG;2006-11-30 12:00;METAR CYQG 301200Z 20012G17KT 10SM OVC017 15/13 A2988 RMK SC8 SLP119=

CYQG;2006-11-30 13:00;METAR CYQG 301300Z 24010KT 5SM -SHRA BR OVC012 15/14 A2989 RMK SC8 SLP121=

CYQG;2006-11-30 13:43;SPECI CYQG 301343Z 36012G17KT 5SM -SHRA BR OVC007 RMK SC8=

CYQG;2006-11-30 14:00;METAR CYQG 301400Z 36014KT 5SM -SHRA BR OVC005 12/11 A2991 RMK SC8 SLP128=

CYQG;2006-11-30 15:00;METAR CYQG 301500Z 02012KT 4SM -SHRA BR OVC005 09/08 A2993 RMK SC8 SLP138=

CYQG;2006-11-30 17:00;METAR CYQG 301700Z 01010G15KT 7SM -SHRA OVC006 07/06 A2994 RMK SC8 SLP140=

CYQG;2006-11-30 18:00;METAR CYQG 301800Z 36009KT 8SM -SHRA OVC006 06/05 A2994 RMK SC8 SLP141=

CYQG;2006-11-30 19:00;METAR CYQG 301900Z 36009KT 6SM -SHRA BR OVC010 06/04 A2996 RMK SC8 SLP148=

CYQG;2006-11-30 20:00;METAR CYQG 302000Z 01010KT 6SM -SHRA BR OVC007 05/04 A2996 RMK SC8 SLP147=

CYQG;2006-11-30 20:30;SPECI CYQG 302030Z 03011KT 6SM -RA BR FEW008 BKN013 OVC023 RMK SF2SC3SC2=

CYQG;2006-11-30 20:50;SPECI CYQG 302050Z 01011KT 6SM -RA BR FEW008 SCT013 OVC021 RMK SF2SC2SC4=

CYQG;2006-11-30 21:00;METAR CYQG 302100Z 03011KT 6SM -RA BR FEW009 SCT013 OVC025 05/04 A2995 RMK SF2SC2SC4 SLP146=

CYQG;2006-11-30 21:09;SPECI CYQG 302109Z 04011KT 6SM -RA BR FEW008 BKN012 OVC022 RMK SF2SC3SC3=

CYQG;2006-11-30 22:43;SPECI CYQG 302243Z 02011G17KT 12SM -RA FEW008 SCT011 OVC020 RMK SF1SC2SC5=

CYQG;2006-11-30 23:00;METAR CYQG 302300Z 02010G16KT 15SM -RA SCT012 OVC020 05/03 A3001 RMK SF4SC4 SLP163=

CYQG;2006-11-30 23:45;SPECI CYQG 302345Z 03010G16KT 10SM -RA FEW007 BKN011 OVC025 RMK SF2SC4SC2=

CYQG;2006-12-01 00:00;METAR CYQG 010000Z 04011KT 15SM -RA SCT013 OVC030 04/03 A3002 RMK SC4SC4 SLP168=

CYQG;2006-12-01 00:10;SPECI CYQG 010010Z 03011KT 15SM -RA BKN011 OVC030 RMK SC6SC2=

CYQG;2006-12-01 00:53;SPECI CYQG 010053Z 02013G18KT 6SM -RA BR BKN006 OVC013 RMK SF5SC3=

CYQG;2006-12-01 01:00;METAR CYQG 010100Z 03012G17KT 8SM -RA BKN007 OVC012 03/02 A3001 RMK SF6SC2 SLP167=

CYQG;2006-12-01 01:49;SPECI CYQG 010149Z 01010G15KT 15SM OVC009 RMK SF8=

CYQG;2006-12-01 02:00;METAR CYQG 010200Z 02013KT 15SM OVC009 04/03 A3001 RMK SF8 SLP165=

CYQG;2006-12-01 02:15;SPECI CYQG 010215Z 01010G16KT 15SM -SHRA OVC009 RMK SF8=

CYQG;2006-12-01 03:00;METAR CYQG 010300Z 04012G19KT 10SM -SHRA BKN007 OVC012 04/03 A2998 RERA RMK SF6SC2 SLP156=

CYQG;2006-12-01 04:00;METAR CYQG 010400Z 05014G22KT 7SM SHRA BKN008 OVC012 04/03 A2995 RMK SF6SC2 SLP145=

CYQG;2006-12-01 05:00;METAR CYQG 010500Z 04017G24KT 10SM -SHRA BKN009 OVC016 03/02 A2992 RERA RMK SF5SC3 SLP135=

CYQG;2006-12-01 06:00;METAR CYQG 010600Z 03015KT 7SM -SHRA OVC007 03/01 A2989 RERA RMK SF8 PRESFR SLP127=

CYQG;2006-12-01 07:00;METAR CYQG 010700Z 02013KT 8SM -RA OVC008 03/02 A2988 RMK SF8 SLP125=

CYQG;2006-12-01 08:00;METAR CYQG 010800Z 03012G21KT 5SM -RA BR OVC006 02/01 A2983 RMK SF8 SLP109=

CYQG;2006-12-01 11:00;METAR CYQG 011100Z 05022G29KT 4SM RA BR OVC008 01/00 A2963 RMK SF8 /R14/ SLP040=

CYQG;2006-12-01 11:36;SPECI CYQG 011136Z 05020G27KT 2 1/2SM RA BR OVC008 RMK SF8=

CYQG;2006-12-01 12:00;METAR CYQG 011200Z 05018G28KT 4SM -RA BR BKN008 OVC014 02/00 A2957 RERA RMK SF7SC1 /R23/ PRESFR SLP019=

CYQG;2006-12-01 14:00;METAR CYQG 011400Z 06017KT 4SM RA BR BKN008 OVC015 03/02 A2942 RMK SF7SC1 SLP969=

CYQG;2006-12-01 14:41;SPECI CYQG 011441Z 07017G26KT 15SM OVC008 RERA RMK SC8=

CYQG;2006-12-01 15:00;METAR CYQG 011500Z 07012G17KT 15SM OVC008 04/03 A2939 RERA RMK SC8 SLP956=

CYQG;2006-12-01 16:00;METAR CYQG 011600Z 05007KT 15SM BKN008 BKN030 04/04 A2934 RMK SC6SC1 SLP941=

CYQG;2006-12-01 17:00;METAR CYQG 011700Z 24031G36KT 12SM BKN020 OVC070 07/06 A2935 RMK SC7AC1 SLP943=

CYQG;2006-12-01 18:00;METAR CYQG 011800Z 23030G41KT 8SM OVC020 04/03 A2939 RMK SC8 SLP957=

CYQG;2006-12-01 19:00;METAR CYQG 011900Z 23025G39KT 15SM OVC035 04/01 A2942 RMK SC8 SLP968=

CYQG;2006-12-01 20:00;METAR CYQG 012000Z 23029G35KT 15SM OVC020 02/M03 A2947 RMK SC8 SLP983=

CYQG;2006-12-01 21:00;METAR CYQG 012100Z 24022G28KT 15SM OVC021 02/M02 A2952 RMK SC8 SLP000=

CYQG;2006-12-01 22:00;METAR CYQG 012200Z 26022G32KT 8SM VCSH OVC019 03/M01 A2958 RMK SC8 PRESRR SLP021=

CYQG;2006-12-01 22:15;SPECI CYQG 012215Z 28025G32KT 12SM -SHSN BKN019 OVC043 RMK SC6SC2=

CYQG;2006-12-01 23:00;METAR CYQG 012300Z 28021G29KT 15SM BKN019 BKN029 02/M03 A2970 RMK SC5SC2 OCNL -SHSN PRESRR SLP061=

CYQG;2006-12-01 23:18;SPECI CYQG 012318Z 28023G33KT 10SM -SHSN OVC020 RMK SC8=

CYQG;2006-12-02 00:00;METAR CYQG 020000Z 28024G31KT 15SM -SHSN OVC017 01/M03 A2978 RMK SC8 PRESRR SLP091=

CYQG;2006-12-02 01:51;SPECI CYQG 020151Z 27021G32KT 15SM FEW025 BKN051 RMK SC2SC4 PRESRR=

CYQG;2006-12-02 02:00;METAR CYQG 020200Z 27019G28KT 15SM SCT029 BKN053 01/M05 A2993 RMK SC4SC3 SLP141=

CYQG;2006-12-02 03:00;METAR CYQG 020300Z 27018G28KT 15SM SCT021 BKN039 02/M03 A2997 RMK SC4SC3 SLP155=

CYQG;2006-12-02 04:00;METAR CYQG 020400Z 28024G31KT 15SM SCT021 BKN037 02/M03 A3001 RMK SC4SC3 SLP168=

CYQG;2006-12-02 05:00;METAR CYQG 020500Z 29022G33KT 15SM OVC033 01/M06 A3005 RMK SC8 SLP183=

CYQG;2006-12-02 06:00;METAR CYQG 020600Z 27014G21KT 15SM -SHSN OVC034 01/M06 A3007 RMK SC8 SLP191=

CYQG;2006-12-02 07:00;METAR CYQG 020700Z 27016G25KT 15SM -SHSN OVC041 01/M07 A3009 RMK SC8 SLP197=

CYQG;2006-12-02 08:00;METAR CYQG 020800Z 26019KT 15SM -SHSN OVC032 01/M06 A3014 RMK SC8 SLP211=

CYQG;2006-12-02 09:00;METAR CYQG 020900Z 26015G20KT 15SM -SHSN OVC028 00/M06 A3015 RMK SC8 SLP218=

CYQG;2006-12-02 10:00;METAR CYQG 021000Z 27016KT 15SM -SHSN BKN035 00/M06 A3019 RMK SC7 SLP229=

CYQG;2006-12-02 10:35;SPECI CYQG 021035Z 27020G27KT 15SM BKN035 RMK SC7=

CYQG;2006-12-02 11:00;METAR CYQG 021100Z 27016G25KT 15SM OVC035 00/M07 A3021 RMK SC8 SLP236=

CYQG;2006-12-02 12:00;METAR CYQG 021200Z 27014G19KT 15SM OVC033 00/M07 A3023 RMK SC8 SLP243=

CYQG;2006-12-02 13:00;METAR CYQG 021300Z 26012G20KT 15SM OVC032 M00/M06 A3026 RMK SC8 SLP254=

CYQG;2006-12-02 14:00;METAR CYQG 021400Z 26011KT 15SM OVC023 M00/M06 A3029 RMK SC8 SLP264=

CYQG;2006-12-02 15:00;METAR CYQG 021500Z 26012KT 15SM OVC022 00/M06 A3032 RMK SC8 SLP275=

CYQG;2006-12-02 16:00;METAR CYQG 021600Z 25009KT 15SM OVC022 00/M06 A3034 RMK SC8 SLP281=

CYQG;2006-12-02 17:00;METAR CYQG 021700Z 24013KT 15SM OVC023 M00/M05 A3034 RMK SC8 SLP282=

CYQG;2006-12-02 18:00;METAR CYQG 021800Z 24009G15KT 15SM BKN022 00/M05 A3034 RMK SC7 SLP282=

CYQG;2006-12-02 19:00;METAR CYQG 021900Z 23012KT 15SM BKN022 01/M05 A3033 RMK SC6 SLP280=

CYQG;2006-12-02 20:00;METAR CYQG 022000Z 23011KT 15SM FEW022 01/M05 A3033 RMK CF1 SLP278=

CYQG;2006-12-02 21:00;METAR CYQG 022100Z 24008KT 15SM FEW020 01/M05 A3033 RMK CF1 SLP278=

CYQG;2006-12-02 22:00;METAR CYQG 022200Z 22010KT 10SM FEW020 01/M05 A3034 RMK CF1 SLP281=

CYQG;2006-12-02 23:00;METAR CYQG 022300Z 23007KT 12SM FEW020 00/M05 A3034 RMK SC1 SLP283=

CYQG;2006-12-03 00:00;METAR CYQG 030000Z 23008KT 15SM SKC M00/M05 A3034 RMK SLP282=

CYQG;2006-12-03 01:00;METAR CYQG 030100Z 22012KT 15SM SKC 00/M05 A3033 RMK SLP280=

CYQG;2006-12-03 02:00;METAR CYQG 030200Z 23011G17KT 15SM FEW082 00/M05 A3035 RMK AC1 SLP284=

CYQG;2006-12-03 03:00;METAR CYQG 030300Z 21010KT 15SM SKC M00/M05 A3033 RMK SLP279=

CYQG;2006-12-03 04:00;METAR CYQG 030400Z 24009KT 15SM SKC M00/M05 A3034 RMK SLP281=

CYQG;2006-12-03 05:00;METAR CYQG 030500Z 25010G15KT 15SM FEW220 M00/M05 A3033 RMK CI1 SLP279=

CYQG;2006-12-03 06:00;METAR CYQG 030600Z 24011KT 15SM BKN200 M01/M05 A3034 RMK CI1 SLP281=

CYQG;2006-12-03 07:00;METAR CYQG 030700Z 23009KT 15SM FEW100 BKN200 M01/M05 A3033 RMK AC1CS1 SLP279=

CYQG;2006-12-03 08:00;METAR CYQG 030800Z 24010KT 15SM FEW200 M01/M05 A3034 RMK CI1 SLP281=

CYQG;2006-12-03 09:00;METAR CYQG 030900Z 24008KT 15SM FEW025 SCT160 M02/M06 A3033 RMK SC1AC1 SLP279=

CYQG;2006-12-03 10:00;METAR CYQG 031000Z 26007KT 15SM FEW020 FEW160 M02/M06 A3033 RMK CF1AC1 SLP279=

CYQG;2006-12-03 11:00;METAR CYQG 031100Z 27012G17KT 15SM FEW160 FEW260 M03/M09 A3034 RMK AC1CI1 SLP282=

CYQG;2006-12-03 12:00;METAR CYQG 031200Z 25009KT 15SM BKN029 M03/M09 A3035 RMK SC6 SLP285=

CYQG;2006-12-03 13:00;METAR CYQG 031300Z 25011KT 15SM BKN030 M03/M09 A3035 RMK SC7 SLP287=

CYQG;2006-12-03 14:00;METAR CYQG 031400Z 24010KT 15SM BKN031 M03/M09 A3035 RMK SC7 SLP288=

CYQG;2006-12-03 15:00;METAR CYQG 031500Z 25012G17KT 15SM BKN033 M02/M10 A3036 RMK SC7 SLP289=

CYQG;2006-12-03 16:00;METAR CYQG 031600Z 26017KT 15SM BKN034 M02/M10 A3036 RMK SC7 SLP291=

CYQG;2006-12-03 17:00;METAR CYQG 031700Z 24016KT 15SM BKN035 BKN260 M02/M11 A3034 RMK SC5CI1 SLP284=

CYQG;2006-12-03 18:00;METAR CYQG 031800Z 25014KT 15SM BKN030 BKN220 M02/M10 A3032 RMK SC5CC2 SLP278=

CYQG;2006-12-03 19:00;METAR CYQG 031900Z 26015G21KT 15SM BKN036 BKN220 M02/M10 A3031 RMK SC6CC1 SLP274=

CYQG;2006-12-03 20:00;METAR CYQG 032000Z 26013KT 15SM -SHSN BKN030 M02/M10 A3031 RMK SC7 SLP274=

CYQG;2006-12-03 21:00;METAR CYQG 032100Z 26014G19KT 15SM -SHSN FEW030 BKN041 M03/M11 A3031 RMK SC2SC4 SLP273=

CYQG;2006-12-03 21:40;SPECI CYQG 032140Z 25013G18KT 15SM BKN034 RMK SC7=

CYQG;2006-12-03 22:00;METAR CYQG 032200Z 28012G18KT 12SM BKN031 M03/M10 A3032 RMK SC7 SLP275=

CYQG;2006-12-03 22:32;SPECI CYQG 032232Z 26012G18KT 12SM -SHSN BKN035 RMK SC7=

CYQG;2006-12-03 23:00;METAR CYQG 032300Z 28013G19KT 12SM BKN035 M03/M10 A3032 RMK SC7 OCNL -SHSN SLP276=

CYQG;2006-12-04 00:00;METAR CYQG 040000Z 28015G20KT 10SM -SHSN OVC041 M03/M09 A3032 RMK SC8 SLP278=

CYQG;2006-12-04 01:00;METAR CYQG 040100Z 28016KT 15SM -SHSN OVC043 M04/M11 A3033 RMK SC8 SLP281=

CYQG;2006-12-04 02:00;METAR CYQG 040200Z 28012G18KT 15SM -SHSN OVC039 M04/M12 A3034 RMK SC8 SLP283=

CYQG;2006-12-04 03:00;METAR CYQG 040300Z 28018KT 15SM BKN035 M05/M11 A3034 RMK SC6 OCNL -SHSN SLP285=

CYQG;2006-12-04 04:00;METAR CYQG 040400Z 28015KT 15SM -SHSN BKN030 M05/M11 A3034 RMK SC7 SLP283=

CYQG;2006-12-04 05:00;METAR CYQG 040500Z 29013G18KT 15SM -SHSN BKN025 M05/M10 A3034 RMK SC7 SLP285=

CYQG;2006-12-04 06:00;METAR CYQG 040600Z 27012G17KT 15SM -SHSN BKN022 M05/M10 A3034 RMK SC7 SLP283=

CYQG;2006-12-04 07:00;METAR CYQG 040700Z 27014KT 15SM -SHSN BKN022 M05/M09 A3033 RMK SC7 SLP280=

CYQG;2006-12-04 08:00;METAR CYQG 040800Z 27010G15KT 15SM -SHSN BKN020 M05/M09 A3034 RMK SC7 SLP284=

CYQG;2006-12-04 09:00;METAR CYQG 040900Z 25008KT 8SM -SHSN BKN020 M05/M09 A3034 RMK SC7 SLP283=

CYQG;2006-12-04 10:00;METAR CYQG 041000Z 24010KT 15SM -SHSN OVC018 M05/M09 A3033 RMK SC8 SLP282=

CYQG;2006-12-04 11:00;METAR CYQG 041100Z 25011KT 15SM -SHSN OVC016 M05/M09 A3033 RMK SC8 SLP281=

CYQG;2006-12-04 12:00;METAR CYQG 041200Z 25011KT 15SM -SHSN OVC016 M05/M09 A3033 RMK SC8 SLP281=

CYQG;2006-12-04 12:53;SPECI CYQG 041253Z 24010KT 15SM -SHSN OVC014 RMK SC8=

CYQG;2006-12-04 13:00;METAR CYQG 041300Z 24010KT 15SM -SHSN OVC014 M05/M09 A3033 RMK SC8 SLP280=

CYQG;2006-12-04 13:52;SPECI CYQG 041352Z 24013KT 15SM -SHSN OVC017 RMK SC8=

CYQG;2006-12-04 14:00;METAR CYQG 041400Z 24011KT 15SM -SHSN OVC015 M05/M09 A3033 RMK SC8 SLP280=

CYQG;2006-12-04 15:00;METAR CYQG 041500Z 24015KT 15SM -SHSN BKN016 M05/M10 A3032 RMK SC7 SLP278=

CYQG;2006-12-04 16:00;METAR CYQG 041600Z 22015KT 15SM -SHSN OVC015 M06/M10 A3030 RMK SC8 SLP272=

CYQG;2006-12-04 16:36;SPECI CYQG 041636Z 23013KT 15SM SCT015 BKN110 RMK SC4AC3=

CYQG;2006-12-04 17:00;METAR CYQG 041700Z 24014KT 15SM FEW018 BKN110 M05/M10 A3025 RMK SC2AC4 PRESFR SLP255=

CYQG;2006-12-04 18:00;METAR CYQG 041800Z 22019G24KT 15SM BKN025 BKN100 M04/M10 A3022 RMK CU5AC2 SLP243=

CYQG;2006-12-04 19:00;METAR CYQG 041900Z 22015KT 15SM BKN024 OVC120 M04/M10 A3017 RMK CU6AS2 SLP229=

CYQG;2006-12-04 19:48;SPECI CYQG 041948Z 22015KT 15SM -SHSN BKN022 OVC100 RMK CU6AC2=

CYQG;2006-12-04 20:00;METAR CYQG 042000Z 23017G24KT 15SM -SHSN OVC027 M04/M10 A3013 RMK CU8 SLP214=

CYQG;2006-12-04 20:21;SPECI CYQG 042021Z 22018KT 1SM -SHSN OVC011 RMK SC8=

CYQG;2006-12-04 20:52;SPECI CYQG 042052Z 23014G20KT 3/4SM -SHSN OVC011 RMK SC8=

CYQG;2006-12-04 21:00;METAR CYQG 042100Z 23015KT 3/4SM -SHSN OVC012 M05/M09 A3012 RMK SN2SC6 SLP210=

CYQG;2006-12-04 21:24;SPECI CYQG 042124Z 23013G18KT 1SM -SHSN SCT011 OVC016 RMK SN1SF3SC4=

CYQG;2006-12-04 21:35;SPECI CYQG 042135Z 22017KT 1SM -SHSN BKN013 OVC023 RMK SN1SF6SC2=

CYQG;2006-12-04 22:00;METAR CYQG 042200Z 23013KT 1 1/4SM -SN BKN013 OVC029 M06/M09 A3013 RMK SF6SC2 /S01/ SLP214=

CYQG;2006-12-04 22:12;SPECI CYQG 042212Z 23010KT 1 1/2SM -SN SCT013 OVC020 RMK SF3SC5=

CYQG;2006-12-04 22:24;SPECI CYQG 042224Z 23013KT 2SM -SN SCT019 OVC058 RMK SC4SC4=

CYQG;2006-12-04 22:53;SPECI CYQG 042253Z 23014KT 3SM -SN SCT020 OVC056 RMK SC3SC5=

CYQG;2006-12-04 23:00;METAR CYQG 042300Z 23014KT 3SM -SN SCT017 OVC053 M06/M09 A3012 RMK SC3SC5 SLP209=

CYQG;2006-12-05 00:00;METAR CYQG 050000Z 23017KT 5SM -SN FEW016 BKN052 M05/M09 A3011 RMK SC2SC4 /S02/ SLP206=

CYQG;2006-12-05 00:46;SPECI CYQG 050046Z 24014KT 2 1/2SM -SN FEW009 OVC020 RMK SF2SC6=

CYQG;2006-12-05 00:53;SPECI CYQG 050053Z 24016KT 1 1/2SM -SN BKN009 OVC022 RMK SF6SC2=

CYQG;2006-12-05 01:00;METAR CYQG 050100Z 24015KT 1 3/4SM -SN BKN009 OVC030 M05/M08 A3011 RMK SF5SC3 SLP206=

CYQG;2006-12-05 01:04;SPECI CYQG 050104Z 23013G19KT 2 1/2SM -SN SCT009 OVC056 RMK SF3SC5=

CYQG;2006-12-05 01:08;SPECI CYQG 050108Z 25014KT 3SM -SN FEW009 OVC071 RMK SF2AC6=

CYQG;2006-12-05 01:44;SPECI CYQG 050144Z 24012KT 2 1/2SM -SN SCT013 OVC024 RMK SC3SC4=

CYQG;2006-12-05 02:00;METAR CYQG 050200Z 24013KT 2 1/4SM -SN BKN016 OVC024 M04/M07 A3011 RMK SC6SC2 SLP205=

CYQG;2006-12-05 02:46;SPECI CYQG 050246Z 25012G18KT 4SM -SN SCT020 OVC075 RMK SC3AC4=

CYQG;2006-12-05 03:00;METAR CYQG 050300Z 25011G17KT 5SM -SN FEW016 SCT031 OVC074 M04/M07 A3011 RMK SC2SC2AC4 /S01/ SLP205=

CYQG;2006-12-05 04:00;METAR CYQG 050400Z 27009KT 6SM -SN FEW013 BKN021 OVC074 M04/M06 A3011 RMK SC2SC4AC2 SLP206=

CYQG;2006-12-05 05:00;METAR CYQG 050500Z 26011KT 6SM -SN BKN014 BKN038 M04/M06 A3011 RMK SC6SC1 SLP208=

CYQG;2006-12-05 06:00;METAR CYQG 050600Z 27007KT 5SM -SN BKN025 OVC080 M04/M06 A3012 RMK SC7AC1 SLP211=

CYQG;2006-12-05 06:32;SPECI CYQG 050632Z 26007KT 3SM -SN BKN016 RMK SC7=

CYQG;2006-12-05 07:00;METAR CYQG 050700Z 27005KT 6SM -SN FEW010 OVC040 M04/M06 A3013 RMK SF1SC6 SLP214=

CYQG;2006-12-05 07:34;SPECI CYQG 050734Z 29008KT 8SM FEW010 OVC040 RMK SF1SC6=

CYQG;2006-12-05 07:51;SPECI CYQG 050751Z 29008KT 8SM FEW010 OVC040 RMK SF1SC6=

CYQG;2006-12-05 08:00;METAR CYQG 050800Z 29007KT 10SM FEW012 BKN060 BKN071 M04/M07 A3016 RMK SF1SC6AC1 SLP222=

CYQG;2006-12-05 09:00;METAR CYQG 050900Z 29009KT 10SM FEW012 OVC070 M04/M08 A3017 RMK CF1AC7 SLP226=

CYQG;2006-12-05 10:00;METAR CYQG 051000Z 30009KT 15SM OVC066 M04/M10 A3019 RMK AC8 SLP233=

CYQG;2006-12-05 11:00;METAR CYQG 051100Z 30010KT 15SM SCT060 M05/M10 A3022 RMK SC3 SLP244=

CYQG;2006-12-05 12:00;METAR CYQG 051200Z 29008KT 15SM FEW010 SCT039 BKN040 M05/M10 A3025 RMK CF1SC2SC2 SLP254=

CYQG;2006-12-05 13:00;METAR CYQG 051300Z 28007KT 15SM BKN039 M05/M10 A3027 RMK SC6 SLP260=

CYQG;2006-12-05 14:00;METAR CYQG 051400Z 28011KT 15SM FEW025 M05/M10 A3029 RMK SC1 SLP267=

CYQG;2006-12-05 15:00;METAR CYQG 051500Z 26009KT 15SM FEW025 FEW100 M04/M09 A3032 RMK CF1AC1 SLP276=

CYQG;2006-12-05 16:00;METAR CYQG 051600Z 27010KT 15SM BKN031 M03/M10 A3032 RMK CU5 SLP276=

CYQG;2006-12-05 17:00;METAR CYQG 051700Z 30009KT 15SM BKN036 M03/M10 A3031 RMK SC6 SLP273=

CYQG;2006-12-05 18:00;METAR CYQG 051800Z 25010G15KT 15SM BKN035 M03/M10 A3030 RMK SC6 SLP270=

CYQG;2006-12-05 19:00;METAR CYQG 051900Z 25013KT 15SM BKN029 M03/M09 A3029 RMK SC7 SLP265=

CYQG;2006-12-05 20:00;METAR CYQG 052000Z 24010G15KT 15SM BKN029 M02/M09 A3027 RMK SC7 SLP259=

CYQG;2006-12-05 21:00;METAR CYQG 052100Z 24009KT 15SM BKN028 BKN110 M02/M08 A3026 RMK SC6AC1 SLP255=

CYQG;2006-12-05 22:00;METAR CYQG 052200Z 23007KT 15SM BKN023 BKN120 M02/M08 A3024 RMK SC6AC1 SLP250=

CYQG;2006-12-05 23:00;METAR CYQG 052300Z 21006KT 15SM BKN023 M02/M07 A3024 RMK SC7 SLP250=

CYQG;2006-12-06 00:00;METAR CYQG 060000Z 21012KT 15SM BKN023 OVC130 M02/M07 A3023 RMK SC5AC3 SLP245=

CYQG;2006-12-06 01:00;METAR CYQG 060100Z 20010KT 15SM FEW023 OVC110 M01/M06 A3020 RMK SC2AC6 SLP236=

CYQG;2006-12-06 02:00;METAR CYQG 060200Z 20012KT 15SM FEW060 OVC110 M01/M06 A3019 RMK SC1AC7 SLP234=

CYQG;2006-12-06 03:00;METAR CYQG 060300Z 20011KT 15SM OVC090 M00/M06 A3015 RMK AS8 SLP219=

CYQG;2006-12-06 04:00;METAR CYQG 060400Z 20015G20KT 15SM OVC070 00/M06 A3011 RMK AS8 SLP207=

CYQG;2006-12-06 05:00;METAR CYQG 060500Z 21016G21KT 15SM OVC120 01/M07 A3006 RMK AS8 SLP190=

CYQG;2006-12-06 06:00;METAR CYQG 060600Z 21016KT 15SM OVC130 01/M06 A3003 RMK AS8 SLP178=

CYQG;2006-12-06 07:00;METAR CYQG 060700Z 21019G25KT 15SM OVC120 01/M06 A2999 RMK AC8 SLP164=

CYQG;2006-12-06 08:00;METAR CYQG 060800Z 21019KT 15SM OVC120 01/M06 A2997 RMK AC8 SLP158=

CYQG;2006-12-06 09:00;METAR CYQG 060900Z 21016G22KT 15SM OVC120 02/M04 A2993 RMK AC8 SLP142=

CYQG;2006-12-06 10:00;METAR CYQG 061000Z 22015KT 15SM OVC110 03/M04 A2990 RMK AC8 SLP132=

CYQG;2006-12-06 11:00;METAR CYQG 061100Z 22016KT 15SM OVC120 03/M03 A2989 RMK AC8 SLP128=

CYQG;2006-12-06 12:00;METAR CYQG 061200Z 22018KT 15SM OVC120 03/M04 A2986 RMK AC8 SLP120=

CYQG;2006-12-06 13:00;METAR CYQG 061300Z 22015G20KT 15SM BKN043 BKN150 03/M03 A2986 RMK SC5AC2 SLP118=

CYQG;2006-12-06 14:00;METAR CYQG 061400Z 22017KT 15SM BKN040 OVC150 03/M03 A2985 RMK SC7AC1 SLP116=

CYQG;2006-12-06 15:00;METAR CYQG 061500Z 24016G21KT 15SM BKN050 OVC150 03/M03 A2985 RMK SC7AC1 SLP116=

CYQG;2006-12-06 16:00;METAR CYQG 061600Z 23016KT 15SM SCT060 BKN150 04/M03 A2986 RMK SC4AC3 SLP117=

CYQG;2006-12-06 17:00;METAR CYQG 061700Z 24016G21KT 15SM SCT071 BKN160 04/M03 A2984 RMK AC3AC4 SLP113=

CYQG;2006-12-06 18:00;METAR CYQG 061800Z 24016KT 15SM SCT030 BKN075 04/M02 A2983 RMK SC3AC2 SLP108=

CYQG;2006-12-06 19:00;METAR CYQG 061900Z 23015KT 15SM BKN029 BKN070 05/M02 A2982 RMK SC6AC2 SLP104=

CYQG;2006-12-06 20:00;METAR CYQG 062000Z 22014KT 15SM BKN039 05/M01 A2981 RMK SC7 SLP101=

CYQG;2006-12-06 21:00;METAR CYQG 062100Z 24011KT 15SM OVC034 05/M01 A2983 RMK SC8 SLP106=

CYQG;2006-12-06 22:00;METAR CYQG 062200Z 23010KT 15SM OVC038 05/M01 A2984 RMK SC8 SLP111=

CYQG;2006-12-06 23:00;METAR CYQG 062300Z 29008KT 15SM OVC035 05/M01 A2986 RMK SC8 SLP118=

CYQG;2006-12-07 00:00;METAR CYQG 070000Z 26013G19KT 15SM FEW032 OVC054 04/M01 A2987 RMK SC2SC6 SLP120=

CYQG;2006-12-07 00:49;SPECI CYQG 070049Z 27013G18KT 15SM -SHRASN BKN032 OVC060 RMK SC5SC3=

CYQG;2006-12-07 01:00;METAR CYQG 070100Z 26012KT 12SM -SHSN BKN032 OVC060 04/M02 A2988 RMK SC6SC2 SLP125=

CYQG;2006-12-07 02:00;METAR CYQG 070200Z 33016KT 5SM -SN BR SCT014 OVC026 01/M01 A2991 RMK SC3SC5 SLP134=

CYQG;2006-12-07 03:00;METAR CYQG 070300Z 30011KT 10SM -SN FEW023 OVC045 01/M03 A2993 RMK SC2SC6 SLP141=

CYQG;2006-12-07 04:00;METAR CYQG 070400Z 29011KT 4SM -SN FEW020 OVC039 00/M03 A2995 RMK SC1SC7 SLP147=

CYQG;2006-12-07 04:52;SPECI CYQG 070452Z 28009KT 12SM OVC060 RMK SC8=

CYQG;2006-12-07 05:00;METAR CYQG 070500Z 28008KT 15SM OVC060 M00/M03 A2995 RMK SC8 SLP149=

CYQG;2006-12-07 06:00;METAR CYQG 070600Z 30014G21KT 15SM SCT021 OVC120 M01/M05 A2997 RMK SC3AC5 SLP154=

CYQG;2006-12-07 07:00;METAR CYQG 070700Z 31010G15KT 15SM FEW021 BKN120 OVC140 M01/M06 A2998 RMK SC2AC3AC2 SLP159=

CYQG;2006-12-07 08:00;METAR CYQG 070800Z 29012KT 15SM FEW021 OVC120 M02/M07 A3001 RMK SC2AC6 SLP167=

CYQG;2006-12-07 08:18;SPECI CYQG 070818Z 32009G18KT 15SM -SN OVC020 RMK SC8=

CYQG;2006-12-07 09:00;METAR CYQG 070900Z 31009G15KT 6SM -SN OVC020 M02/M07 A3002 RMK SC8 SLP172=

CYQG;2006-12-07 10:00;METAR CYQG 071000Z 34015KT 5SM -SHSN OVC020 M04/M08 A3004 RMK SC8 SLP180=

CYQG;2006-12-07 11:00;METAR CYQG 071100Z 32011KT 3SM -SHSN OVC040 M05/M08 A3007 RMK SN7SC1 SLP188=

CYQG;2006-12-07 12:00;METAR CYQG 071200Z 32016G21KT 4SM -SHSN OVC011 M05/M08 A3011 RMK SC8 SLP206=

CYQG;2006-12-07 12:15;SPECI CYQG 071215Z 31012KT 1SM -SN OVC019 RMK SN2SC6=

CYQG;2006-12-07 12:25;SPECI CYQG 071225Z 33014KT 2SM -SN SCT015 OVC031 RMK SC3SC5=

CYQG;2006-12-07 12:43;SPECI CYQG 071243Z 32012G18KT 1SM -SN SCT014 OVC020 RMK SN2SC2SC4=

CYQG;2006-12-07 13:00;METAR CYQG 071300Z 31013KT 1SM -SN OVC017 M06/M09 A3014 RMK SN2SC6 SLP216=

CYQG;2006-12-07 13:21;SPECI CYQG 071321Z 35013KT 1/2SM SN OVC011 RMK SN4SC4=

CYQG;2006-12-07 13:35;SPECI CYQG 071335Z 33012KT 1/4SM +SN OVC010 RMK SN5SC3=

CYQG;2006-12-07 13:45;SPECI CYQG 071345Z 33012G17KT 5SM -SN FEW009 OVC020 RESN RMK SF2SC6=

CYQG;2006-12-07 15:00;METAR CYQG 071500Z 33012G17KT 6SM -SN SCT015 OVC024 M06/M10 A3023 RMK CU3SC5 SLP245=

CYQG;2006-12-07 16:00;METAR CYQG 071600Z 33012G21KT 15SM -SN BKN033 M06/M12 A3026 RMK CU7 SLP256=

CYQG;2006-12-07 16:39;SPECI CYQG 071639Z 34013G19KT 15SM BKN035 RMK CU6=

CYQG;2006-12-07 17:00;METAR CYQG 071700Z 32020G26KT 15SM SCT040 BKN150 M06/M13 A3028 RMK CU4AC1 SLP262=

CYQG;2006-12-07 19:00;METAR CYQG 071900Z 32019G24KT 15SM FEW045 M06/M16 A3030 RMK CF2 SLP271=

CYQG;2006-12-07 20:00;METAR CYQG 072000Z 32018KT 15SM VCSH BKN055 M05/M16 A3032 RMK SC6 SLP276=

CYQG;2006-12-07 21:00;METAR CYQG 072100Z 30016KT 15SM VCSH BKN047 M05/M15 A3033 RMK SC6 SLP282=

CYQG;2006-12-07 22:00;METAR CYQG 072200Z 30017KT 15SM VCSH BKN052 M05/M14 A3035 RMK SC6 SLP288=

CYQG;2006-12-07 23:00;METAR CYQG 072300Z 29015G22KT 15SM FEW030 FEW090 M06/M12 A3037 RMK SC2AC1 SLP294=

CYQG;2006-12-08 00:00;METAR CYQG 080000Z 30012G17KT 15SM FEW045 FEW090 M06/M11 A3038 RMK SC1AC1 SLP299=

CYQG;2006-12-08 01:00;METAR CYQG 080100Z 29012G18KT 15SM FEW050 M06/M13 A3039 RMK SC1 SLP303=

CYQG;2006-12-08 02:00;METAR CYQG 080200Z 30014G21KT 15SM FEW035 FEW090 M06/M13 A3040 RMK SC1AC1 SLP306=

CYQG;2006-12-08 03:00;METAR CYQG 080300Z 30017KT 15SM FEW030 FEW090 M07/M13 A3040 RMK SC1AC1 SLP307=

CYQG;2006-12-08 04:00;METAR CYQG 080400Z 30009G18KT 15SM BKN060 M07/M13 A3041 RMK SC5 SLP309=

CYQG;2006-12-08 05:00;METAR CYQG 080500Z 29010KT 15SM BKN057 M06/M12 A3042 RMK SC6 SLP312=

CYQG;2006-12-08 06:00;METAR CYQG 080600Z 29013KT 15SM BKN052 M06/M12 A3041 RMK SC7 SLP310=

CYQG;2006-12-08 07:00;METAR CYQG 080700Z 29013G18KT 15SM OVC042 M06/M12 A3041 RMK SC8 SLP311=

CYQG;2006-12-08 08:00;METAR CYQG 080800Z 29012G17KT 15SM OVC041 M06/M12 A3043 RMK SC8 SLP316=

CYQG;2006-12-08 09:00;METAR CYQG 080900Z 29014KT 15SM OVC040 M05/M12 A3043 RMK SC8 SLP317=

CYQG;2006-12-08 10:00;METAR CYQG 081000Z 29011G18KT 15SM OVC040 M05/M12 A3044 RMK SC8 SLP318=

CYQG;2006-12-08 10:54;SPECI CYQG 081054Z 28013KT 15SM -SN OVC039 RMK SC8=

CYQG;2006-12-08 11:00;METAR CYQG 081100Z 29010G16KT 15SM -SN OVC039 M06/M12 A3044 RMK SC8 SLP321=

CYQG;2006-12-08 11:45;SPECI CYQG 081145Z 28012KT 15SM OVC038 RMK SC8=

CYQG;2006-12-08 12:00;METAR CYQG 081200Z 27013KT 15SM -SN OVC038 M06/M12 A3045 RMK SC8 SLP322=

CYQG;2006-12-08 13:00;METAR CYQG 081300Z 28013KT 15SM -SHSN BKN039 M06/M13 A3046 RMK SC6 SLP326=

CYQG;2006-12-08 14:00;METAR CYQG 081400Z 28010G15KT 15SM -SHSN BKN033 BKN060 M06/M12 A3047 RMK SC5SC2 SLP329=

CYQG;2006-12-08 14:47;SPECI CYQG 081447Z 29010G16KT 15SM VCSH BKN028 RMK SC6=

CYQG;2006-12-08 15:00;METAR CYQG 081500Z 29009KT 15SM VCSH BKN029 M05/M12 A3047 RMK SC5 SLP331=

CYQG;2006-12-08 16:00;METAR CYQG 081600Z 29011G17KT 15SM FEW030 M04/M12 A3047 RMK SC1 SLP330=

CYQG;2006-12-08 17:00;METAR CYQG 081700Z 26014KT 15SM FEW030 M03/M11 A3044 RMK CF1 SLP321=

CYQG;2006-12-08 18:00;METAR CYQG 081800Z 26013G18KT 15SM FEW030 M03/M11 A3041 RMK CF1 SLP309=

CYQG;2006-12-08 19:00;METAR CYQG 081900Z 27015G21KT 15SM FEW030 M02/M11 A3040 RMK SC1 SLP304=

CYQG;2006-12-08 20:00;METAR CYQG 082000Z 23015G20KT 15SM FEW040 SCT280 M02/M10 A3037 RMK SC1CI1 CONTRAILS SLP295=

CYQG;2006-12-08 21:00;METAR CYQG 082100Z 23015G20KT 15SM FEW040 SCT280 M02/M12 A3036 RMK SC1CI1 CONTRAILS SLP290=

CYQG;2006-12-08 22:00;METAR CYQG 082200Z 23013KT 15SM FEW180 SCT280 M03/M12 A3036 RMK AC2CI1 SLP290=

CYQG;2006-12-08 23:00;METAR CYQG 082300Z 23019KT 15SM FEW110 BKN250 M04/M14 A3035 RMK AC2CS4 SLP288=

CYQG;2006-12-09 00:00;METAR CYQG 090000Z 24021KT 15SM OVC230 M05/M14 A3036 RMK CS6 SLP291=

CYQG;2006-12-09 01:00;METAR CYQG 090100Z 24016G24KT 15SM SCT120 OVC220 M05/M14 A3034 RMK AC4CS3 SLP286=

CYQG;2006-12-09 02:00;METAR CYQG 090200Z 24017G24KT 15SM FEW080 OVC110 M05/M13 A3033 RMK AC1AC7 SLP283=

CYQG;2006-12-09 03:00;METAR CYQG 090300Z 23019G24KT 15SM BKN080 OVC120 M04/M12 A3031 RMK AC6AC2 SLP275=

CYQG;2006-12-09 04:00;METAR CYQG 090400Z 24015G22KT 15SM FEW080 BKN120 M04/M13 A3030 RMK AC2AC2 SLP270=

CYQG;2006-12-09 05:00;METAR CYQG 090500Z 23016G25KT 15SM BKN067 BKN120 M04/M13 A3028 RMK AC5AC1 SLP265=

CYQG;2006-12-09 06:00;METAR CYQG 090600Z 23019KT 15SM FEW060 M04/M13 A3028 RMK SC2 SLP263=

CYQG;2006-12-09 07:00;METAR CYQG 090700Z 24015G25KT 15SM FEW060 SCT100 M04/M13 A3029 RMK SC1AC2 SLP267=

CYQG;2006-12-09 08:00;METAR CYQG 090800Z 23016KT 15SM BKN110 M04/M12 A3029 RMK AC3 SLP268=

CYQG;2006-12-09 09:00;METAR CYQG 090900Z 24016G21KT 15SM BKN110 M04/M12 A3029 RMK AC6 SLP267=

CYQG;2006-12-09 10:00;METAR CYQG 091000Z 24013KT 15SM SCT110 M04/M12 A3029 RMK AC2 SLP267=

CYQG;2006-12-09 11:00;METAR CYQG 091100Z 23015KT 15SM FEW110 M05/M12 A3029 RMK AC2 SLP266=

CYQG;2006-12-09 12:00;METAR CYQG 091200Z 23014G19KT 15SM FEW110 M05/M12 A3029 RMK AC2 SLP266=

CYQG;2006-12-09 13:00;METAR CYQG 091300Z 23015KT 15SM SCT120 M04/M11 A3027 RMK AC3 SLP262=

CYQG;2006-12-09 14:00;METAR CYQG 091400Z 22018G24KT 15SM SCT120 M03/M11 A3027 RMK AC2 SLP261=

CYQG;2006-12-09 15:00;METAR CYQG 091500Z 23016KT 15SM FEW120 FEW280 M03/M11 A3027 RMK AC1CI1 SLP259=

CYQG;2006-12-09 16:00;METAR CYQG 091600Z 23017KT 15SM SCT280 M01/M10 A3026 RMK CI1 SLP256=

CYQG;2006-12-09 17:00;METAR CYQG 091700Z 24017G22KT 15SM SCT280 01/M09 A3024 RMK CI1 SLP249=

CYQG;2006-12-09 18:00;METAR CYQG 091800Z 21016KT 15SM BKN280 01/M09 A3021 RMK CI2 CONTRAILS SLP239=

CYQG;2006-12-09 19:00;METAR CYQG 091900Z 22020G25KT 15SM BKN280 03/M09 A3018 RMK CI2 CONTRAILS SLP230=

CYQG;2006-12-09 20:00;METAR CYQG 092000Z 22015G20KT 15SM BKN280 03/M08 A3017 RMK CI4 CONTRAILS SLP226=

CYQG;2006-12-09 21:00;METAR CYQG 092100Z 23016G24KT 15SM FEW170 BKN280 04/M09 A3016 RMK AC2CI2 CONTRAILS SLP221=

CYQG;2006-12-09 22:00;METAR CYQG 092200Z 23019KT 15SM FEW180 BKN280 04/M09 A3017 RMK AC1CI1 CONTRAILS SLP224=

CYQG;2006-12-09 23:00;METAR CYQG 092300Z 23012KT 15SM SCT280 03/M09 A3018 RMK CI1 CONTRAILS SLP227=

CYQG;2006-12-10 00:00;METAR CYQG 100000Z 22014KT 15SM SKC 03/M08 A3018 RMK SLP227=

CYQG;2006-12-10 01:00;METAR CYQG 100100Z 22017KT 15SM SKC 02/M06 A3017 RMK SLP224=

CYQG;2006-12-10 02:00;METAR CYQG 100200Z 22014KT 15SM SKC 02/M06 A3017 RMK SLP224=

CYQG;2006-12-10 03:00;METAR CYQG 100300Z 23013KT 15SM FEW280 02/M08 A3016 RMK CI1 SLP222=

CYQG;2006-12-10 04:00;METAR CYQG 100400Z 23020G26KT 15SM SKC 03/M09 A3017 RMK SLP223=

CYQG;2006-12-10 05:00;METAR CYQG 100500Z 24017G25KT 15SM SKC 02/M09 A3016 RMK SLP221=

CYQG;2006-12-10 06:00;METAR CYQG 100600Z 24016KT 15SM SKC 02/M08 A3016 RMK SLP221=

CYQG;2006-12-10 07:00;METAR CYQG 100700Z 24016KT 15SM SKC 02/M08 A3017 RMK SLP223=

CYQG;2006-12-10 08:00;METAR CYQG 100800Z 23017KT 15SM SKC 02/M08 A3018 RMK SLP226=

CYQG;2006-12-10 09:00;METAR CYQG 100900Z 23014G19KT 15SM SKC 01/M08 A3017 RMK SLP225=

CYQG;2006-12-10 10:00;METAR CYQG 101000Z 23016KT 15SM SKC 01/M08 A3019 RMK SLP229=

CYQG;2006-12-10 11:00;METAR CYQG 101100Z 23012G17KT 15SM SKC 01/M07 A3020 RMK SLP235=

CYQG;2006-12-10 12:00;METAR CYQG 101200Z 23013KT 15SM SKC 01/M07 A3021 RMK SLP238=

CYQG;2006-12-10 13:00;METAR CYQG 101300Z 23013KT 15SM FEW280 01/M07 A3023 RMK CI1 SLP243=

CYQG;2006-12-10 14:00;METAR CYQG 101400Z 23014KT 15SM FEW280 02/M07 A3025 RMK CI1 CONTRAILS SLP249=

CYQG;2006-12-10 15:00;METAR CYQG 101500Z 23016G21KT 15SM FEW280 04/M06 A3026 RMK CI1 CONTRAILS SLP252=

CYQG;2006-12-10 16:00;METAR CYQG 101600Z 23017KT 15SM FEW280 05/M06 A3026 RMK CI1 SLP255=

CYQG;2006-12-10 17:00;METAR CYQG 101700Z 23014KT 15SM FEW280 07/M05 A3024 RMK CI1 SLP248=

CYQG;2006-12-10 18:00;METAR CYQG 101800Z 22014KT 15SM FEW280 08/M04 A3023 RMK CI1 SLP241=

CYQG;2006-12-10 19:00;METAR CYQG 101900Z 22015KT 15SM FEW280 09/M03 A3022 RMK CI1 SLP238=

CYQG;2006-12-10 20:00;METAR CYQG 102000Z 22012KT 15SM BKN280 09/M04 A3022 RMK CS4 SLP239=

CYQG;2006-12-10 21:00;METAR CYQG 102100Z 21011KT 15SM BKN220 09/M04 A3022 RMK CS6 SLP239=

CYQG;2006-12-10 22:00;METAR CYQG 102200Z 22009KT 15SM SCT250 BKN280 07/M06 A3023 RMK CC4CS2 SLP243=

CYQG;2006-12-10 23:00;METAR CYQG 102300Z 22011KT 15SM OVC250 07/M06 A3023 RMK CS6 SLP244=

CYQG;2006-12-11 00:00;METAR CYQG 110000Z 21009KT 15SM SCT095 BKN200 BKN250 07/M06 A3024 RMK AC4CC2CS2 SLP245=

CYQG;2006-12-11 01:00;METAR CYQG 110100Z 21013KT 15SM OVC069 07/M06 A3025 RMK AC8 SLP248=

CYQG;2006-12-11 01:10;SPECI CYQG 110110Z 22014KT 15SM -RA OVC079 RMK AC8=

CYQG;2006-12-11 02:00;METAR CYQG 110200Z 22010KT 15SM -RA OVC080 06/M04 A3025 RMK AC8 SLP249=

CYQG;2006-12-11 03:00;METAR CYQG 110300Z 22012KT 15SM OVC044 06/M06 A3025 RMK SC8 SLP248=

CYQG;2006-12-11 04:00;METAR CYQG 110400Z 22012KT 15SM BKN057 OVC078 06/M06 A3025 RMK SC6AC2 SLP248=

CYQG;2006-12-11 04:41;SPECI CYQG 110441Z 22014KT 12SM -SHRA SCT049 OVC074 RMK SC4AC4=

CYQG;2006-12-11 05:00;METAR CYQG 110500Z 22009KT 15SM -SHRA SCT040 OVC069 04/M03 A3025 RMK SC4AC4 SLP248=

CYQG;2006-12-11 06:00;METAR CYQG 110600Z 22010KT 15SM -SHRA FEW035 OVC060 04/M02 A3026 RMK SC2SC6 SLP250=

CYQG;2006-12-11 07:00;METAR CYQG 110700Z 22008KT 15SM OVC052 04/M02 A3027 RMK SC8 OCNL -SHRAM SLP254=

CYQG;2006-12-11 08:00;METAR CYQG 110800Z 23007KT 15SM BKN040 OVC075 04/M02 A3029 RMK SC6AC2 SLP261=

CYQG;2006-12-11 09:00;METAR CYQG 110900Z 22006KT 15SM OVC035 04/M02 A3030 RMK SC8 SLP266=

CYQG;2006-12-11 10:00;METAR CYQG 111000Z 24005KT 15SM OVC029 05/M03 A3032 RMK SC8 SLP273=

CYQG;2006-12-11 11:00;METAR CYQG 111100Z 21004KT 15SM OVC039 05/M03 A3032 RMK SC8 SLP274=

CYQG;2006-12-11 12:00;METAR CYQG 111200Z 21005KT 15SM OVC036 05/M03 A3034 RMK SC8 SLP278=

CYQG;2006-12-11 13:00;METAR CYQG 111300Z 19006KT 15SM BKN040 BKN080 05/M02 A3035 RMK SC6AC2 SLP282=

CYQG;2006-12-11 14:00;METAR CYQG 111400Z 20007KT 15SM BKN035 BKN080 04/01 A3037 RMK SC5AC2 SLP288=

CYQG;2006-12-11 15:00;METAR CYQG 111500Z 19007KT 15SM BKN033 BKN050 BKN080 05/02 A3037 RMK SC5SC2AC1 SLP290=

CYQG;2006-12-11 16:00;METAR CYQG 111600Z 21008KT 15SM SCT034 BKN050 BKN120 08/M01 A3039 RMK SC3SC2AC2 SLP297=

CYQG;2006-12-11 17:00;METAR CYQG 111700Z 20007KT 15SM BKN033 OVC050 08/M03 A3038 RMK SC6SC2 SLP292=

CYQG;2006-12-11 18:00;METAR CYQG 111800Z 21007KT 15SM FEW034 BKN050 BKN110 08/M02 A3035 RMK SC2SC3AC2 SLP284=

CYQG;2006-12-11 19:00;METAR CYQG 111900Z 18008KT 15SM SCT034 BKN067 BKN120 10/M01 A3035 RMK SC4AC2AC1 SLP283=

CYQG;2006-12-11 20:00;METAR CYQG 112000Z 22008KT 15SM BKN032 BKN063 BKN100 09/M03 A3037 RMK SC6SC1AC1 SLP288=

CYQG;2006-12-11 21:00;METAR CYQG 112100Z 19005KT 15SM -SHRA SCT070 BKN081 09/M02 A3037 RMK AC4AC2 SLP289=

CYQG;2006-12-11 21:20;SPECI CYQG 112120Z 17005KT 15SM BKN070 BKN081 RMK AC5AC2=

CYQG;2006-12-11 21:41;SPECI CYQG 112141Z 16002KT 15SM -SHRA BKN070 BKN110 RMK AC5AC2=

CYQG;2006-12-11 22:00;METAR CYQG 112200Z 14005KT 15SM FEW080 BKN110 08/M01 A3037 RMK AC1AC6 SLP288=

CYQG;2006-12-11 23:00;METAR CYQG 112300Z 15004KT 15SM OVC100 07/M01 A3038 RMK AC8 SLP292=

CYQG;2006-12-12 00:00;METAR CYQG 120000Z 16002KT 15SM BKN079 OVC090 07/M01 A3039 RMK AC7AC1 SLP297=

CYQG;2006-12-12 01:00;METAR CYQG 120100Z 17003KT 15SM OVC082 07/M01 A3040 RMK AC8 SLP299=

CYQG;2006-12-12 01:05;SPECI CYQG 120105Z 16003KT 15SM -SHRA OVC081 RMK AC8=

CYQG;2006-12-12 02:00;METAR CYQG 120200Z 09002KT 15SM -SHRA OVC067 07/00 A3041 RMK AC8 SLP303=

CYQG;2006-12-12 03:00;METAR CYQG 120300Z 13007KT 12SM -SHRA OVC062 05/02 A3039 RMK SC8 SLP296=

CYQG;2006-12-12 03:33;SPECI CYQG 120333Z 14006KT 12SM BKN080 BKN160 RMK AC5AC2=

CYQG;2006-12-12 04:00;METAR CYQG 120400Z 13005KT 12SM FEW065 SCT095 05/02 A3039 RMK SC2AC2 SLP296=

CYQG;2006-12-12 05:00;METAR CYQG 120500Z 14004KT 12SM SCT063 OVC130 05/02 A3037 RMK SC4AC4 SLP291=

CYQG;2006-12-12 06:00;METAR CYQG 120600Z 12004KT 12SM SCT060 OVC110 05/02 A3035 RMK SC3AC5 SLP283=

CYQG;2006-12-12 07:00;METAR CYQG 120700Z 00000KT 15SM OVC076 06/02 A3035 RMK AC8 SLP282=

CYQG;2006-12-12 08:00;METAR CYQG 120800Z 12005KT 15SM SCT075 BKN110 06/02 A3033 RMK AC3AC3 SLP277=

CYQG;2006-12-12 09:00;METAR CYQG 120900Z 11003KT 15SM FEW070 SCT100 BKN210 05/01 A3032 RMK AC1AC2CI2 SLP273=

CYQG;2006-12-12 10:00;METAR CYQG 121000Z 13006KT 15SM FEW090 BKN210 04/01 A3030 RMK AC2CI2 SLP265=

CYQG;2006-12-12 11:00;METAR CYQG 121100Z 13005KT 15SM FEW090 BKN160 05/00 A3029 RMK AC1AC4 SLP262=

CYQG;2006-12-12 12:00;METAR CYQG 121200Z 14005KT 15SM FEW090 BKN140 05/M00 A3028 RMK AC1AC5 SLP260=

CYQG;2006-12-12 13:00;METAR CYQG 121300Z 16007KT 15SM FEW090 BKN130 06/00 A3029 RMK AC2AC6 SLP263=

CYQG;2006-12-12 13:36;SPECI CYQG 121336Z 15007KT 15SM -SHRA BKN080 BKN130 RMK AC5AC2=

CYQG;2006-12-12 14:00;METAR CYQG 121400Z 15006KT 15SM FEW080 BKN120 06/01 A3028 RMK AC2AC5 SLP260=

CYQG;2006-12-12 15:00;METAR CYQG 121500Z 16010KT 15SM FEW080 BKN120 BKN220 09/M01 A3026 RMK AC2AC2CI1 SLP252=

CYQG;2006-12-12 16:00;METAR CYQG 121600Z 18007KT 15SM BKN120 BKN240 10/M01 A3024 RMK AC6CI1 SLP246=

CYQG;2006-12-12 17:00;METAR CYQG 121700Z 17010KT 15SM BKN120 OVC180 11/01 A3019 RMK AC6AC2 SLP229=

CYQG;2006-12-12 18:00;METAR CYQG 121800Z 16008KT 15SM BKN051 OVC110 10/00 A3015 RMK SC6AS2 SLP213=

CYQG;2006-12-12 18:51;SPECI CYQG 121851Z 16007KT 15SM -SHRA OVC039 RMK SC8=

CYQG;2006-12-12 19:00;METAR CYQG 121900Z 16007KT 15SM -SHRA OVC034 09/01 A3010 RMK SC8 SLP198=

CYQG;2006-12-12 20:00;METAR CYQG 122000Z 17007KT 10SM -RA OVC030 09/03 A3008 RMK SC8 SLP191=

CYQG;2006-12-12 21:00;METAR CYQG 122100Z 18009KT 6SM -RA BR OVC020 08/05 A3007 RMK SC8 SLP189=

CYQG;2006-12-12 22:00;METAR CYQG 122200Z 17010G15KT 6SM RA BR OVC020 08/06 A3005 RMK SC8 SLP181=

CYQG;2006-12-12 23:00;METAR CYQG 122300Z 17012KT 6SM RA BR BKN020 OVC038 08/06 A3002 RMK SC6SC2 SLP172=

CYQG;2006-12-13 00:00;METAR CYQG 130000Z 18017G22KT 8SM RA OVC020 08/06 A3001 RMK SC8 SLP168=

CYQG;2006-12-13 01:00;METAR CYQG 130100Z 18014G19KT 10SM -RA OVC020 07/05 A2999 RERA RMK SC8 SLP162=

CYQG;2006-12-13 03:00;METAR CYQG 130300Z 20015G21KT 5SM RA BR OVC022 07/06 A2998 RMK SC8 SLP156=

CYQG;2006-12-13 04:00;METAR CYQG 130400Z 20015KT 10SM -RA BKN022 OVC040 08/06 A2996 RERA RMK SC6SC2 SLP150=

CYQG;2006-12-13 04:29;SPECI CYQG 130429Z 20017KT 10SM BKN014 OVC030 RMK SC5SC3=

CYQG;2006-12-13 05:00;METAR CYQG 130500Z 21016G22KT 12SM BKN014 OVC042 08/06 A2995 RMK SC6SC2 SLP145=

CYQG;2006-12-13 06:00;METAR CYQG 130600Z 20016G24KT 15SM OVC012 08/06 A2993 RMK SC8 SLP139=

CYQG;2006-12-13 06:49;SPECI CYQG 130649Z 21015G21KT 6SM -SHRA BR SCT013 OVC024 RMK SC3SC5=

CYQG;2006-12-13 07:00;METAR CYQG 130700Z 20016KT 5SM -SHRA BR SCT014 BKN025 OVC067 08/07 A2992 RMK SC4SC3AC1 SLP137=

CYQG;2006-12-13 07:22;SPECI CYQG 130722Z 20015G20KT 5SM BR SCT014 BKN026 BKN070 RMK SC3SC3AC1=

CYQG;2006-12-13 08:00;METAR CYQG 130800Z 20015KT 5SM BR FEW014 BKN020 OVC070 09/08 A2993 RMK SC2SC5AC2 SLP140=

CYQG;2006-12-13 09:00;METAR CYQG 130900Z 20012G17KT 8SM BKN035 BKN130 09/08 A2993 RMK SC5AC2 SLP139=

CYQG;2006-12-13 10:00;METAR CYQG 131000Z 23012KT 10SM BKN025 09/08 A2993 RMK SC7 SLP139=

CYQG;2006-12-13 11:00;METAR CYQG 131100Z 23012G17KT 12SM BKN032 08/04 A2994 RMK SC6 SLP141=

CYQG;2006-12-13 12:00;METAR CYQG 131200Z 23022G30KT 15SM BKN031 07/03 A2995 RMK SC7 SLP146=

CYQG;2006-12-13 13:00;METAR CYQG 131300Z 23013G18KT 15SM OVC032 07/02 A2996 RMK SC7 SLP149=

CYQG;2006-12-13 14:00;METAR CYQG 131400Z 23015G22KT 15SM BKN033 06/02 A2997 RMK SC7 SLP153=

CYQG;2006-12-13 15:00;METAR CYQG 131500Z 24017KT 15SM BKN033 06/00 A2998 RMK SC7 SLP156=

CYQG;2006-12-13 16:00;METAR CYQG 131600Z 24018G24KT 15SM OVC027 06/00 A2998 RMK SC8 SLP157=

CYQG;2006-12-13 17:00;METAR CYQG 131700Z 24019G25KT 15SM OVC024 05/00 A2998 RMK SC8 SLP155=

CYQG;2006-12-13 18:00;METAR CYQG 131800Z 24014G25KT 15SM BKN025 05/M00 A2996 RMK SC7 SLP151=

CYQG;2006-12-13 19:00;METAR CYQG 131900Z 26016KT 15SM SCT029 06/M00 A2996 RMK SC3 SLP149=

CYQG;2006-12-13 20:00;METAR CYQG 132000Z 24014G21KT 15SM FEW027 FEW270 07/00 A2995 RMK SC1CI1 SLP148=

CYQG;2006-12-13 21:00;METAR CYQG 132100Z 24013G19KT 15SM SCT270 07/01 A2996 RMK CI2 SLP149=

CYQG;2006-12-13 22:00;METAR CYQG 132200Z 24012KT 15SM BKN200 07/01 A2997 RMK CI2 SLP151=

CYQG;2006-12-13 23:00;METAR CYQG 132300Z 24007KT 15SM BKN200 06/02 A2998 RMK CI6 SLP154=

CYQG;2006-12-14 00:00;METAR CYQG 140000Z 22007KT 15SM FEW200 05/02 A2997 RMK CI1 SLP154=

CYQG;2006-12-14 01:00;METAR CYQG 140100Z 21006KT 15SM SKC 05/02 A2997 RMK SLP154=

CYQG;2006-12-14 02:00;METAR CYQG 140200Z 21003KT 15SM SKC 04/02 A2997 RMK SLP152=

CYQG;2006-12-14 03:00;METAR CYQG 140300Z 21004KT 15SM SKC 04/02 A2996 RMK SLP151=

CYQG;2006-12-14 04:00;METAR CYQG 140400Z 20009KT 15SM FEW250 04/03 A2995 RMK CI1 SLP147=

CYQG;2006-12-14 05:00;METAR CYQG 140500Z 22007KT 8SM BKN240 04/03 A2992 RMK CI2 SLP138=

CYQG;2006-12-14 06:00;METAR CYQG 140600Z 22008KT 6SM BR SCT170 04/03 A2991 RMK AC2 SLP135=

CYQG;2006-12-14 07:00;METAR CYQG 140700Z 22008KT 6SM BR FEW150 04/03 A2989 RMK AC1 SLP129=

CYQG;2006-12-14 08:00;METAR CYQG 140800Z 22009KT 6SM BR FEW150 04/02 A2990 RMK AC1 SLP131=

CYQG;2006-12-14 09:00;METAR CYQG 140900Z 21008KT 7SM FEW140 04/02 A2989 RMK AC2 SLP126=

CYQG;2006-12-14 10:00;METAR CYQG 141000Z 21007KT 6SM BR FEW120 04/02 A2988 RMK AC2 SLP122=

CYQG;2006-12-14 11:00;METAR CYQG 141100Z 20008KT 6SM BR FEW120 03/02 A2987 RMK AC2 SLP119=

CYQG;2006-12-14 12:00;METAR CYQG 141200Z 21010KT 7SM FEW120 04/02 A2987 RMK AC1 SLP119=

CYQG;2006-12-14 13:00;METAR CYQG 141300Z 22009KT 6SM BR FEW030 FEW150 SCT270 04/02 A2986 RMK SC1AC1CI1 SLP115=

CYQG;2006-12-14 14:00;METAR CYQG 141400Z 20011KT 6SM BR FEW160 BKN240 04/02 A2983 RMK AC1CS5 SLP108=

CYQG;2006-12-14 15:00;METAR CYQG 141500Z 20011KT 8SM OVC220 05/03 A2983 RMK CS7 SLP105=

CYQG;2006-12-14 16:00;METAR CYQG 141600Z 21014G19KT 10SM OVC230 06/04 A2980 RMK CS8 SLP098=

CYQG;2006-12-14 17:00;METAR CYQG 141700Z 22010KT 12SM BKN230 08/04 A2978 RMK CS6 SLP089=

CYQG;2006-12-14 18:00;METAR CYQG 141800Z 22014KT 15SM OVC170 09/04 A2975 RMK AS8 SLP077=

CYQG;2006-12-14 19:00;METAR CYQG 141900Z 20014KT 15SM OVC100 09/04 A2971 RMK AS8 SLP063=

CYQG;2006-12-14 20:00;METAR CYQG 142000Z 20016KT 15SM OVC110 09/04 A2967 RMK AS8 SLP050=

CYQG;2006-12-14 21:00;METAR CYQG 142100Z 19014KT 15SM OVC110 10/05 A2964 RMK AS8 SLP040=

CYQG;2006-12-14 22:00;METAR CYQG 142200Z 20015G22KT 15SM BKN140 10/04 A2963 RMK AC7 SLP036=

CYQG;2006-12-14 23:00;METAR CYQG 142300Z 21016G24KT 15SM FEW140 10/04 A2963 RMK AC2 SLP037=

CYQG;2006-12-15 00:00;METAR CYQG 150000Z 21017KT 15SM FEW100 10/03 A2963 RMK AC2 SLP036=

CYQG;2006-12-15 01:00;METAR CYQG 150100Z 21016KT 15SM FEW060 09/03 A2963 RMK SC2 SLP038=

CYQG;2006-12-15 02:00;METAR CYQG 150200Z 22014KT 15SM FEW060 08/03 A2963 RMK SC2 SLP036=

CYQG;2006-12-15 03:00;METAR CYQG 150300Z 22008KT 15SM SKC 08/04 A2962 RMK SLP033=

CYQG;2006-12-15 04:00;METAR CYQG 150400Z 23014KT 15SM SKC 09/05 A2961 RMK SLP031=

CYQG;2006-12-15 05:00;METAR CYQG 150500Z 23013KT 15SM FEW190 09/04 A2961 RMK AC2 SLP030=

CYQG;2006-12-15 06:00;METAR CYQG 150600Z 23012G17KT 15SM FEW190 08/04 A2961 RMK AC2 SLP029=

CYQG;2006-12-15 07:00;METAR CYQG 150700Z 21010KT 15SM FEW190 07/03 A2960 RMK AC1 SLP025=

CYQG;2006-12-15 08:00;METAR CYQG 150800Z 22012KT 15SM BKN088 07/04 A2960 RMK AC6 SLP025=

CYQG;2006-12-15 09:00;METAR CYQG 150900Z 23013KT 15SM FEW061 SCT180 08/03 A2958 RMK SC1AC2 SLP020=

CYQG;2006-12-15 10:00;METAR CYQG 151000Z 23012KT 15SM FEW180 07/03 A2958 RMK AC1 SLP020=

CYQG;2006-12-15 11:00;METAR CYQG 151100Z 24014G19KT 15SM SKC 08/02 A2958 RMK SLP020=

CYQG;2006-12-15 12:00;METAR CYQG 151200Z 24018KT 15SM SKC 07/01 A2958 RMK SLP021=

CYQG;2006-12-15 13:00;METAR CYQG 151300Z 24013KT 15SM FEW070 06/01 A2960 RMK AC1 SLP027=

CYQG;2006-12-15 14:00;METAR CYQG 151400Z 24011KT 15SM FEW042 06/01 A2962 RMK SC2 SLP033=

CYQG;2006-12-15 16:00;METAR CYQG 151600Z 25017G24KT 15SM BKN032 07/00 A2966 RMK SC7 SLP047=

CYQG;2006-12-15 17:00;METAR CYQG 151700Z 28014G22KT 12SM SCT032 OVC049 07/M00 A2967 RMK CF4SC4 SLP050=

CYQG;2006-12-15 18:00;METAR CYQG 151800Z 29016G22KT 12SM FEW038 BKN040 OVC050 07/M01 A2969 RMK SC2SC6SC1 SLP057=

CYQG;2006-12-15 19:00;METAR CYQG 151900Z 28020G28KT 12SM OVC055 07/M01 A2971 RMK SC8 SLP065=

CYQG;2006-12-15 20:00;METAR CYQG 152000Z 28018G24KT 15SM FEW035 FEW050 07/M01 A2974 RMK CF1SC2 SLP073=

CYQG;2006-12-15 21:00;METAR CYQG 152100Z 28016G22KT 15SM SCT034 BKN050 07/M01 A2978 RMK CU3SC4 SLP087=

CYQG;2006-12-15 22:00;METAR CYQG 152200Z 29013G18KT 15SM FEW035 BKN049 06/M01 A2983 RMK CU2SC6 SLP104=

CYQG;2006-12-16 00:00;METAR CYQG 160000Z 29011G16KT 15SM BKN038 06/M00 A2992 RMK SC7 SLP135=

CYQG;2006-12-16 02:00;METAR CYQG 160200Z 32012G18KT 15SM BKN034 05/M05 A2997 RMK SC6 SLP154=

CYQG;2006-12-16 03:00;METAR CYQG 160300Z 32012G17KT 15SM BKN030 04/M03 A2998 RMK SC5 SLP158=

CYQG;2006-12-16 04:00;METAR CYQG 160400Z 28005KT 15SM FEW040 03/M03 A3001 RMK SC2 SLP166=

CYQG;2006-12-16 05:00;METAR CYQG 160500Z 28005KT 15SM FEW040 03/M03 A3003 RMK SC2 SLP175=

CYQG;2006-12-16 06:00;METAR CYQG 160600Z 25006KT 15SM FEW040 FEW180 02/M02 A3005 RMK SC2AC1 SLP181=

CYQG;2006-12-16 07:00;METAR CYQG 160700Z 22003KT 15SM FEW040 FEW180 01/M03 A3005 RMK SC2AC1 SLP183=

CYQG;2006-12-16 08:00;METAR CYQG 160800Z 22004KT 15SM FEW040 FEW180 00/M03 A3007 RMK SC2AC1 SLP187=

CYQG;2006-12-16 09:00;METAR CYQG 160900Z 00000KT 15SM FEW230 00/M02 A3007 RMK CI2 SLP189=

CYQG;2006-12-16 10:00;METAR CYQG 161000Z 22002KT 15SM SCT230 M00/M02 A3008 RMK CI2 SLP193=

CYQG;2006-12-16 11:00;METAR CYQG 161100Z 00000KT 15SM BKN230 M01/M03 A3009 RMK CI3 SLP195=

CYQG;2006-12-16 12:00;METAR CYQG 161200Z 13004KT 15SM BKN240 M00/M03 A3009 RMK CI5 SLP197=

CYQG;2006-12-16 13:00;METAR CYQG 161300Z 15004KT 15SM BKN250 M00/M02 A3011 RMK CS4 SLP202=

CYQG;2006-12-16 14:00;METAR CYQG 161400Z 17004KT 15SM OVC250 01/M02 A3012 RMK CS3 SLP207=

CYQG;2006-12-16 15:00;METAR CYQG 161500Z 15006KT 15SM OVC250 03/M01 A3011 RMK CS3 SLP204=

CYQG;2006-12-16 17:00;METAR CYQG 161700Z 18014KT 12SM OVC250 05/M00 A3009 RMK CS4 SLP195=

CYQG;2006-12-16 18:00;METAR CYQG 161800Z 14013KT 12SM OVC250 06/M00 A3006 RMK CS2 SLP185=

CYQG;2006-12-16 19:00;METAR CYQG 161900Z 18013KT 12SM OVC250 06/00 A3004 RMK CS6 SLP179=

CYQG;2006-12-16 20:00;METAR CYQG 162000Z 18010G16KT 12SM OVC250 07/01 A3001 RMK CS6 SLP170=

CYQG;2006-12-16 22:00;METAR CYQG 162200Z 16005KT 15SM OVC230 05/01 A2999 RMK CS7 CI ASOCTD SLP161=

CYQG;2006-12-16 23:00;METAR CYQG 162300Z 16008KT 15SM FEW050 OVC240 04/01 A2996 RMK SC2CS6 SLP153=

CYQG;2006-12-17 00:00;METAR CYQG 170000Z 16006KT 15SM BKN036 06/01 A2996 RMK SC7 SLP153=

CYQG;2006-12-17 01:00;METAR CYQG 170100Z 18010KT 15SM BKN032 07/01 A2995 RMK SC7 SLP150=

CYQG;2006-12-17 02:00;METAR CYQG 170200Z 19011KT 15SM FEW024 BKN036 07/02 A2994 RMK CU2SC6 SLP145=

CYQG;2006-12-17 03:00;METAR CYQG 170300Z 19011KT 15SM OVC022 08/02 A2994 RMK SC8 SLP143=

CYQG;2006-12-17 04:00;METAR CYQG 170400Z 20007KT 15SM BKN019 OVC032 08/03 A2995 RMK SC5SC3 SLP146=

CYQG;2006-12-17 05:00;METAR CYQG 170500Z 22011KT 12SM BKN018 OVC040 09/05 A2994 RMK SC6SC2 SLP143=

CYQG;2006-12-17 06:00;METAR CYQG 170600Z 20011KT 10SM OVC017 09/06 A2993 RMK SC8 SLP138=

CYQG;2006-12-17 07:00;METAR CYQG 170700Z 21009KT 12SM FEW015 OVC021 09/06 A2992 RMK SC2SC6 SLP136=

CYQG;2006-12-17 08:00;METAR CYQG 170800Z 21012KT 12SM SCT019 OVC045 10/07 A2992 RMK SC4SC4 SLP137=

CYQG;2006-12-17 09:00;METAR CYQG 170900Z 22009KT 6SM HZ BKN018 OVC042 10/08 A2993 RMK SC5SC3 SLP139=

CYQG;2006-12-17 09:07;SPECI CYQG 170907Z 22008KT 6SM -SHRA HZ BKN018 OVC041 RMK SC7SC1=

CYQG;2006-12-17 09:48;SPECI CYQG 170948Z 22009KT 7SM OVC016 RMK SC8=

CYQG;2006-12-17 10:00;METAR CYQG 171000Z 21009KT 7SM OVC016 10/08 A2993 RMK SC8 SLP138=

CYQG;2006-12-17 10:28;SPECI CYQG 171028Z 21009KT 5SM -SHRA BR OVC016 RMK SC8=

CYQG;2006-12-17 11:00;METAR CYQG 171100Z 21008KT 5SM -SHRA BR OVC015 10/08 A2994 RMK SC8 SLP142=

CYQG;2006-12-17 11:22;SPECI CYQG 171122Z 22008KT 6SM BR OVC016 RMK SC8=

CYQG;2006-12-17 12:00;METAR CYQG 171200Z 22008KT 5SM BR SCT014 OVC026 11/09 A2995 RMK SC4SC4 SLP147=

CYQG;2006-12-17 12:32;SPECI CYQG 171232Z 22009KT 5SM BR BKN014 OVC023 RMK SC6SC2=

CYQG;2006-12-17 12:37;SPECI CYQG 171237Z 23010KT 3SM -SHRA BR OVC012 RMK SC8=

CYQG;2006-12-17 13:00;METAR CYQG 171300Z 23010KT 3SM BR BKN012 OVC037 12/11 A2996 RMK SC7SC1 SLP150=

CYQG;2006-12-17 13:03;SPECI CYQG 171303Z 23008KT 3SM -SHRA BR BKN013 OVC028 RMK SC5SC3=

CYQG;2006-12-17 13:31;SPECI CYQG 171331Z 22007KT 2 1/2SM BR OVC012 RMK SC8=

CYQG;2006-12-17 14:00;METAR CYQG 171400Z 24007KT 2 1/2SM BR BKN012 OVC017 12/11 A2998 RMK SC6SC2 SLP156=

CYQG;2006-12-17 15:00;METAR CYQG 171500Z 26008KT 2 1/2SM BR OVC012 13/12 A3001 RMK SC8 SLP165=

CYQG;2006-12-17 15:27;SPECI CYQG 171527Z 26009KT 2 1/2SM BR OVC010 RMK SC8=

CYQG;2006-12-17 16:00;METAR CYQG 171600Z 28008KT 2 1/2SM -DZ BR OVC008 13/12 A3003 RMK SC8 SLP171=

CYQG;2006-12-17 16:52;SPECI CYQG 171652Z 33007KT 5SM BR OVC015 RMK SC8=

CYQG;2006-12-17 17:00;METAR CYQG 171700Z 32006KT 5SM BR OVC010 12/11 A3001 RMK SC8 SLP167=

CYQG;2006-12-17 17:15;SPECI CYQG 171715Z 32005KT 5SM BR OVC007 RMK SC8=

CYQG;2006-12-17 18:00;METAR CYQG 171800Z 35005KT 4SM BR SCT008 OVC018 11/10 A3001 RMK SC4SC4 SLP167=

CYQG;2006-12-17 19:00;METAR CYQG 171900Z 29006KT 4SM BR OVC022 12/10 A3002 RMK SC8 SLP168=

CYQG;2006-12-17 20:00;METAR CYQG 172000Z 29005KT 6SM HZ OVC029 12/09 A3002 RMK SC8 SLP170=

CYQG;2006-12-17 21:00;METAR CYQG 172100Z 28005KT 7SM OVC034 11/06 A3004 RMK SC8 SLP176=

CYQG;2006-12-17 22:00;METAR CYQG 172200Z 31004KT 15SM FEW035 OVC067 11/04 A3006 RMK SC2AC6 SLP181=

CYQG;2006-12-17 23:00;METAR CYQG 172300Z 28004KT 15SM SCT034 OVC065 10/03 A3007 RMK SC3SC5 SLP187=

CYQG;2006-12-18 00:00;METAR CYQG 180000Z 27003KT 15SM BKN034 OVC090 10/05 A3007 RMK SC6AC2 SLP187=

CYQG;2006-12-18 01:00;METAR CYQG 180100Z 28006KT 15SM BKN034 OVC080 10/03 A3009 RMK SC6AC2 SLP192=

CYQG;2006-12-18 02:00;METAR CYQG 180200Z 29005KT 15SM SCT036 OVC048 10/03 A3009 RMK SC4SC4 SLP191=

CYQG;2006-12-18 03:00;METAR CYQG 180300Z 28003KT 15SM OVC041 09/03 A3008 RMK SC8 SLP190=

CYQG;2006-12-18 04:00;METAR CYQG 180400Z 30005KT 15SM BKN046 OVC110 09/02 A3009 RMK SC6AC2 SLP192=

CYQG;2006-12-18 05:00;METAR CYQG 180500Z 34005KT 15SM OVC043 09/00 A3008 RMK SC8 SLP188=

CYQG;2006-12-18 05:44;SPECI CYQG 180544Z 34006KT 15SM -SHRA BKN046 OVC090 RMK SC6AC2=

CYQG;2006-12-18 06:00;METAR CYQG 180600Z 36004KT 15SM -SHRA BKN046 OVC080 08/01 A3007 RMK SC6AC2 SLP187=

CYQG;2006-12-18 06:29;SPECI CYQG 180629Z 33004KT 15SM SCT045 OVC070 RMK SC3AC5=

CYQG;2006-12-18 07:00;METAR CYQG 180700Z 33002KT 15SM FEW045 OVC100 08/M00 A3007 RMK SC2AC6 SLP186=

CYQG;2006-12-18 07:44;SPECI CYQG 180744Z 32005KT 15SM -SHRA OVC058 RMK SC8=

CYQG;2006-12-18 08:00;METAR CYQG 180800Z 32006KT 15SM -SHRA OVC053 07/M00 A3011 RMK SC8 SLP200=

CYQG;2006-12-18 09:00;METAR CYQG 180900Z 32004KT 15SM -SHRA OVC053 07/M00 A3013 RMK SC8 SLP205=

CYQG;2006-12-18 09:42;SPECI CYQG 180942Z 34004KT 15SM OVC051 RMK SC8=

CYQG;2006-12-18 10:00;METAR CYQG 181000Z 32005KT 15SM OVC050 06/M00 A3013 RMK SC8 SLP206=

CYQG;2006-12-18 11:00;METAR CYQG 181100Z 31005KT 15SM OVC062 06/M01 A3016 RMK SC8 SLP217=

CYQG;2006-12-18 12:00;METAR CYQG 181200Z 32006KT 15SM BKN070 BKN110 05/M03 A3018 RMK AC6AC2 SLP225=

CYQG;2006-12-18 13:00;METAR CYQG 181300Z 32008KT 15SM BKN070 BKN110 05/M03 A3021 RMK AC6AC2 SLP235=

CYQG;2006-12-18 14:00;METAR CYQG 181400Z 32008KT 15SM BKN100 05/M03 A3025 RMK AC7 SLP246=

CYQG;2006-12-18 15:00;METAR CYQG 181500Z 33008KT 15SM BKN095 05/M03 A3027 RMK AC7 SLP255=

CYQG;2006-12-18 16:00;METAR CYQG 181600Z 33009KT 15SM BKN090 05/M03 A3029 RMK AC4 SLP263=

CYQG;2006-12-18 17:00;METAR CYQG 181700Z 34008KT 15SM BKN230 05/M03 A3029 RMK CI2 SLP260=

CYQG;2006-12-18 18:00;METAR CYQG 181800Z 33012KT 15SM BKN230 05/M04 A3029 RMK CI2 SLP263=

CYQG;2006-12-18 19:00;METAR CYQG 181900Z 33007KT 15SM BKN230 06/M04 A3029 RMK CI2 SLP263=

CYQG;2006-12-18 21:00;METAR CYQG 182100Z 32008KT 15SM BKN280 05/M04 A3033 RMK CI4 CONTRAILS SLP276=

CYQG;2006-12-18 22:00;METAR CYQG 182200Z 35005KT 15SM BKN280 04/M04 A3035 RMK CI4 CONTRAILS SLP282=

CYQG;2006-12-18 23:00;METAR CYQG 182300Z 35005KT 15SM SCT280 04/M04 A3036 RMK CI2 SLP285=

CYQG;2006-12-19 00:00;METAR CYQG 190000Z 35004KT 15SM SCT280 03/M04 A3037 RMK CI1 SLP290=

CYQG;2006-12-19 01:00;METAR CYQG 190100Z 36004KT 15SM BKN140 BKN280 02/M04 A3037 RMK AC6CI2 SLP291=

CYQG;2006-12-19 02:00;METAR CYQG 190200Z 35002KT 15SM SCT170 BKN280 02/M04 A3038 RMK AC3CI3 SLP294=

CYQG;2006-12-19 03:00;METAR CYQG 190300Z 00000KT 15SM SCT120 BKN280 01/M04 A3038 RMK AC4CI2 SLP293=

CYQG;2006-12-19 04:00;METAR CYQG 190400Z 36002KT 15SM BKN160 01/M04 A3038 RMK AC6 SLP293=

CYQG;2006-12-19 05:00;METAR CYQG 190500Z 00000KT 15SM BKN150 00/M04 A3037 RMK AC7 SLP291=

CYQG;2006-12-19 06:00;METAR CYQG 190600Z 18004KT 15SM FEW140 M01/M04 A3036 RMK AC2 SLP287=

CYQG;2006-12-19 07:00;METAR CYQG 190700Z 23003KT 15SM FEW140 M01/M04 A3036 RMK AC1 SLP288=

CYQG;2006-12-19 08:00;METAR CYQG 190800Z 26003KT 15SM SKC M02/M04 A3037 RMK SLP292=

CYQG;2006-12-19 09:00;METAR CYQG 190900Z 23004KT 15SM FEW015 M02/M05 A3036 RMK SC1 SLP287=

CYQG;2006-12-19 10:00;METAR CYQG 191000Z 29006KT 15SM FEW150 M02/M05 A3036 RMK AC1 SLP289=

CYQG;2006-12-19 11:00;METAR CYQG 191100Z 27005KT 15SM SKC M02/M04 A3037 RMK SLP292=

CYQG;2006-12-19 12:00;METAR CYQG 191200Z 28004KT 15SM BKN024 M02/M05 A3039 RMK SC6 SLP299=

CYQG;2006-12-19 13:00;METAR CYQG 191300Z 26005KT 15SM FEW024 FEW260 M02/M05 A3038 RMK SC1CI0 SLP296=

CYQG;2006-12-19 14:00;METAR CYQG 191400Z 26005KT 10SM BKN260 M01/M04 A3039 RMK CS2 SLP298=

CYQG;2006-12-19 15:00;METAR CYQG 191500Z 26006KT 15SM BKN240 00/M03 A3041 RMK CS3 SLP305=

CYQG;2006-12-19 16:00;METAR CYQG 191600Z 29010KT 15SM FEW240 02/M03 A3041 RMK CI1 SLP307=

CYQG;2006-12-19 17:00;METAR CYQG 191700Z 28010KT 15SM FEW230 03/M03 A3040 RMK CI1 SLP302=

CYQG;2006-12-19 18:00;METAR CYQG 191800Z 27012KT 15SM FEW230 04/M04 A3038 RMK CI1 SLP295=

CYQG;2006-12-19 19:00;METAR CYQG 191900Z 28011G17KT 15SM FEW230 05/M04 A3036 RMK CI1 SLP289=

CYQG;2006-12-19 20:00;METAR CYQG 192000Z 29012G17KT 15SM FEW230 06/M05 A3035 RMK CI1 SLP287=

CYQG;2006-12-19 21:00;METAR CYQG 192100Z 29010KT 15SM SKC 06/M05 A3036 RMK SLP288=

CYQG;2006-12-19 22:00;METAR CYQG 192200Z 28007KT 15SM SKC 05/M05 A3038 RMK SLP293=

CYQG;2006-12-19 23:00;METAR CYQG 192300Z 25006KT 15SM SKC 04/M05 A3039 RMK SLP297=

CYQG;2006-12-20 00:00;METAR CYQG 200000Z 23005KT 15SM SKC 03/M05 A3040 RMK SLP301=

CYQG;2006-12-20 01:00;METAR CYQG 200100Z 21005KT 15SM SKC 02/M05 A3039 RMK SLP300=

CYQG;2006-12-20 02:00;METAR CYQG 200200Z 22006KT 15SM SKC 02/M04 A3040 RMK SLP302=

CYQG;2006-12-20 03:00;METAR CYQG 200300Z 23006KT 15SM SKC 01/M04 A3038 RMK SLP297=

CYQG;2006-12-20 04:00;METAR CYQG 200400Z 24006KT 15SM SKC 01/M04 A3038 RMK SLP297=

CYQG;2006-12-20 05:00;METAR CYQG 200500Z 25007KT 15SM SKC 01/M04 A3038 RMK SLP295=

CYQG;2006-12-20 06:00;METAR CYQG 200600Z 25006KT 15SM SKC 01/M04 A3036 RMK SLP289=

CYQG;2006-12-20 07:00;METAR CYQG 200700Z 23007KT 15SM SKC M00/M04 A3035 RMK SLP286=

CYQG;2006-12-20 08:00;METAR CYQG 200800Z 25005KT 15SM SKC M00/M04 A3037 RMK SLP290=

CYQG;2006-12-20 09:00;METAR CYQG 200900Z 26006KT 15SM SKC M00/M04 A3036 RMK SLP287=

CYQG;2006-12-20 10:00;METAR CYQG 201000Z 24006KT 15SM SKC M01/M04 A3036 RMK SLP287=

CYQG;2006-12-20 11:00;METAR CYQG 201100Z 22005KT 15SM SKC M01/M05 A3035 RMK SLP286=

CYQG;2006-12-20 12:00;METAR CYQG 201200Z 22006KT 12SM SKC M01/M05 A3036 RMK SLP289=

CYQG;2006-12-20 13:00;METAR CYQG 201300Z 23007KT 8SM FEW250 M01/M04 A3035 RMK CI1 SLP285=

CYQG;2006-12-20 14:00;METAR CYQG 201400Z 24005KT 15SM FEW250 M00/M04 A3035 RMK CI1 SLP286=

CYQG;2006-12-20 15:00;METAR CYQG 201500Z 23009KT 15SM FEW250 01/M04 A3037 RMK CI1 SLP291=

CYQG;2006-12-20 16:00;METAR CYQG 201600Z 22013KT 15SM FEW250 03/M04 A3034 RMK CC1 SLP283=

CYQG;2006-12-20 17:00;METAR CYQG 201700Z 23015KT 15SM FEW250 04/M04 A3031 RMK CI1 SLP273=

CYQG;2006-12-20 18:00;METAR CYQG 201800Z 23014KT 15SM BKN250 05/M04 A3026 RMK CI2 SLP255=

CYQG;2006-12-20 19:00;METAR CYQG 201900Z 23012KT 15SM BKN250 06/M05 A3024 RMK CS2 SLP248=

CYQG;2006-12-20 20:00;METAR CYQG 202000Z 23011KT 12SM BKN190 06/M04 A3024 RMK AC6 SLP248=

CYQG;2006-12-20 21:00;METAR CYQG 202100Z 20009KT 10SM OVC190 05/M02 A3024 RMK AC6 SLP247=

CYQG;2006-12-20 22:00;METAR CYQG 202200Z 19007KT 7SM OVC170 04/M02 A3024 RMK AC7 SLP247=

CYQG;2006-12-20 23:00;METAR CYQG 202300Z 21006KT 8SM OVC150 04/M01 A3026 RMK AC8 SLP252=

CYQG;2006-12-21 00:00;METAR CYQG 210000Z 23006KT 10SM FEW120 OVC150 04/M01 A3026 RMK AC2AC6 SLP255=

CYQG;2006-12-21 01:00;METAR CYQG 210100Z 23006KT 10SM OVC091 04/M01 A3028 RMK AC8 SLP261=

CYQG;2006-12-21 01:29;SPECI CYQG 210129Z 23005KT 10SM -RA OVC069 RMK AC8=

CYQG;2006-12-21 02:00;METAR CYQG 210200Z 22005KT 10SM -RA OVC064 04/M00 A3028 RMK SC8 SLP260=

CYQG;2006-12-21 03:00;METAR CYQG 210300Z 23004KT 8SM -RA OVC082 04/00 A3027 RMK AC8 SLP256=

CYQG;2006-12-21 03:41;SPECI CYQG 210341Z 25006KT 7SM OVC092 RMK AC8=

CYQG;2006-12-21 04:00;METAR CYQG 210400Z 24006KT 7SM OVC088 04/00 A3026 RMK AC8 SLP255=

CYQG;2006-12-21 05:23;SPECI CYQG 210523Z 23005KT 8SM -RA OVC062 RMK SC8=

CYQG;2006-12-21 06:00;METAR CYQG 210600Z 25005KT 8SM -RA OVC056 04/M01 A3027 RMK SC8 SLP255=

CYQG;2006-12-21 06:36;SPECI CYQG 210636Z 26006KT 8SM OVC041 RMK SC8=

CYQG;2006-12-21 07:00;METAR CYQG 210700Z 23008KT 8SM OVC039 04/M02 A3025 RMK SC8 SLP249=

CYQG;2006-12-21 09:00;METAR CYQG 210900Z 28003KT 10SM BKN035 OVC073 04/M02 A3026 RMK SC5AC3 SLP254=

CYQG;2006-12-21 10:00;METAR CYQG 211000Z 27003KT 10SM -RA OVC065 04/M02 A3027 RMK SC8 SLP255=

CYQG;2006-12-21 11:00;METAR CYQG 211100Z 25004KT 10SM -RA OVC033 04/M01 A3029 RMK SC8 SLP262=

CYQG;2006-12-21 12:00;METAR CYQG 211200Z 21005KT 10SM -RA FEW028 BKN032 OVC038 04/00 A3030 RMK SC2SC5SC1 SLP267=

CYQG;2006-12-21 13:00;METAR CYQG 211300Z 30003KT 7SM -RA OVC028 03/M00 A3032 RMK SC8 SLP275=

CYQG;2006-12-21 14:00;METAR CYQG 211400Z 00000KT 8SM -RA FEW020 OVC027 03/01 A3034 RMK SC2SC6 SLP281=

CYQG;2006-12-21 14:49;SPECI CYQG 211449Z 13003KT 8SM FEW020 OVC025 RMK SC2SC6=

CYQG;2006-12-21 15:00;METAR CYQG 211500Z 14003KT 12SM BKN025 OVC080 04/01 A3034 RMK SC6AC2 SLP279=

CYQG;2006-12-21 16:00;METAR CYQG 211600Z 11004KT 15SM BKN023 OVC080 05/01 A3032 RMK SC7AC1 SLP274=

CYQG;2006-12-21 17:00;METAR CYQG 211700Z 15006KT 15SM OVC024 05/01 A3030 RMK SC8 SLP267=

CYQG;2006-12-21 18:00;METAR CYQG 211800Z 15005KT 15SM OVC024 05/02 A3028 RMK SC8 SLP259=

CYQG;2006-12-21 19:00;METAR CYQG 211900Z 16006KT 15SM OVC023 05/01 A3027 RMK SC8 SLP257=

CYQG;2006-12-21 20:00;METAR CYQG 212000Z 14004KT 15SM OVC023 05/00 A3026 RMK SC8 SLP253=

CYQG;2006-12-21 21:00;METAR CYQG 212100Z 09003KT 15SM OVC019 05/M00 A3026 RMK SC8 SLP252=

CYQG;2006-12-21 22:00;METAR CYQG 212200Z 10005KT 8SM -RA OVC019 05/M01 A3025 RMK SC8 SLP250=

CYQG;2006-12-21 23:00;METAR CYQG 212300Z 08007KT 8SM -RA BKN017 OVC026 04/01 A3026 RMK SC6SC2 SLP251=

CYQG;2006-12-22 00:00;METAR CYQG 220000Z 08007KT 5SM -RA BR OVC015 04/02 A3025 RMK SC8 SLP251=

CYQG;2006-12-22 01:00;METAR CYQG 220100Z 09008KT 5SM -RA BR OVC015 04/03 A3023 RMK SC8 SLP244=

CYQG;2006-12-22 01:47;SPECI CYQG 220147Z 10007KT 4SM -RA BR FEW006 OVC013 RMK SF2SC6=

CYQG;2006-12-22 02:00;METAR CYQG 220200Z 10007KT 3SM -RA BR SCT006 OVC014 05/03 A3022 RMK SF4SC4 SLP241=

CYQG;2006-12-22 03:00;METAR CYQG 220300Z 09008KT 3SM -RA BR SCT006 OVC013 05/04 A3020 RMK SF3SC5 SLP232=

CYQG;2006-12-22 04:00;METAR CYQG 220400Z 09008KT 3SM -RA BR SCT004 OVC013 05/04 A3017 RMK SF3SC5 SLP222=

CYQG;2006-12-22 04:41;SPECI CYQG 220441Z 11010KT 3SM -DZ BR SCT004 OVC013 RMK SF3SC5=

CYQG;2006-12-22 05:00;METAR CYQG 220500Z 11009KT 2SM -DZ BR OVC006 05/04 A3015 RMK SC8 SLP216=

CYQG;2006-12-22 06:37;SPECI CYQG 220637Z 11008KT 1 1/2SM -DZ BR OVC003 RMK SC8=

CYQG;2006-12-22 07:00;METAR CYQG 220700Z 11009KT 2SM -DZ BR OVC003 06/05 A3010 RMK SC8 SLP199=

CYQG;2006-12-22 07:15;SPECI CYQG 220715Z 11010KT 2SM -RADZ BR OVC003 RMK SC8=

CYQG;2006-12-22 08:00;METAR CYQG 220800Z 10008KT 2SM -RADZ BR OVC003 06/05 A3009 RMK SF8 SLP195=

CYQG;2006-12-22 09:00;METAR CYQG 220900Z 11008KT 2 1/2SM -RADZ BR OVC003 06/05 A3007 RMK SF8 SLP188=

CYQG;2006-12-22 10:00;METAR CYQG 221000Z 12010KT 2SM RA BR OVC003 06/06 A3004 RMK SF8 SLP178=

CYQG;2006-12-22 11:00;METAR CYQG 221100Z 12008KT 3SM -RA BR OVC003 06/06 A3003 RERA RMK SF8 SLP174=

CYQG;2006-12-22 12:00;METAR CYQG 221200Z CCA 13008KT 4SM -RA BR OVC003 07/07 A3001 RMK SF8 /R11/ SLP167=

CYQG;2006-12-22 13:00;METAR CYQG 221300Z 13010KT 2SM -RA BR OVC003 07/07 A2998 RMK FG2SF6 SLP157=

CYQG;2006-12-22 13:31;SPECI CYQG 221331Z 13010KT 1 1/4SM -RA BR OVC002 RMK FG2SF6=

CYQG;2006-12-22 13:53;SPECI CYQG 221353Z 13011KT 1 1/2SM -RA BR OVC003 RMK FG2SF6=

CYQG;2006-12-22 14:00;METAR CYQG 221400Z 13010KT 1 1/2SM -RA BR OVC003 08/08 A2995 RMK FG2SF6 SLP148=

CYQG;2006-12-22 14:07;SPECI CYQG 221407Z 13009KT 2SM -RA BR OVC003 RMK FG2SF6=

CYQG;2006-12-22 14:23;SPECI CYQG 221423Z 13011KT 2SM -DZ BR OVC003 RMK FG2SF6=

CYQG;2006-12-22 14:41;SPECI CYQG 221441Z 13009KT 2SM BR OVC004 RMK FG1SF7=

CYQG;2006-12-22 15:00;METAR CYQG 221500Z 13008KT 2 1/2SM BR OVC004 09/09 A2993 RMK FG1SF7 SLP140=

CYQG;2006-12-22 15:23;SPECI CYQG 221523Z 13012KT 2 1/2SM BR BKN006 OVC065 RMK FG1SF6SC2=

CYQG;2006-12-22 15:38;SPECI CYQG 221538Z 13013KT 3SM BR BKN007 OVC037 RMK SF6SC2=

CYQG;2006-12-22 16:10;SPECI CYQG 221610Z 13012G17KT 3SM BR SCT007 OVC034 RMK SF4SC4=

CYQG;2006-12-22 16:15;SPECI CYQG 221615Z 13011G17KT 4SM -SHRA BR SCT007 OVC033 RMK SF3SC5=

CYQG;2006-12-22 16:41;SPECI CYQG 221641Z 14010KT 2 1/2SM -SHRA BR BKN007 OVC026 RMK SF5SC3=

CYQG;2006-12-22 17:00;METAR CYQG 221700Z 13012KT 2SM SHRA BR BKN006 OVC014 10/10 A2984 RMK FG1SF5SC2 PRESFR SLP109=

CYQG;2006-12-22 17:23;SPECI CYQG 221723Z 14013KT 3SM -SHRA BR BKN007 OVC020 RERA RMK SF6SC2=

CYQG;2006-12-22 18:00;METAR CYQG 221800Z 14012G18KT 1 1/2SM -SHRA BR OVC005 10/10 A2980 RERA RMK FG2SF6 SLP093=

CYQG;2006-12-22 18:18;SPECI CYQG 221818Z 15014KT 2SM -SHRA BR OVC006 RMK FG2SF6=

CYQG;2006-12-22 18:30;SPECI CYQG 221830Z 15014KT 3SM -SHRA BR OVC003 RMK FG1SF7=

CYQG;2006-12-22 19:00;METAR CYQG 221900Z 16012G18KT 3SM -SHRA BR OVC004 10/10 A2975 RMK FG2SF6 SLP079=

CYQG;2006-12-22 20:00;METAR CYQG 222000Z 17012KT 3SM -SHRA BR OVC004 12/11 A2974 RMK FG2SF6 SLP073=

CYQG;2006-12-22 20:29;SPECI CYQG 222029Z 17013G18KT 2 1/2SM -SHRA BR OVC005 RMK FG2SF6=

CYQG;2006-12-22 20:38;SPECI CYQG 222038Z 17013KT 3SM -SHRA BR OVC006 RMK SF8=

CYQG;2006-12-22 21:00;METAR CYQG 222100Z 17014KT 3SM -SHRA BR OVC007 12/12 A2973 RMK SF8 SLP069=

CYQG;2006-12-22 21:11;SPECI CYQG 222111Z 17014KT 2SM -SHRA BR OVC005 RMK FG1SF7=

CYQG;2006-12-22 21:21;SPECI CYQG 222121Z 17014G19KT 1SM -SHRA BR OVC005 RMK FG2SF6=

CYQG;2006-12-22 21:33;SPECI CYQG 222133Z 18014KT 3SM -SHRA BR OVC006 RMK FG1SF7=

CYQG;2006-12-22 22:00;METAR CYQG 222200Z 18017KT 3SM -SHRA BR OVC005 12/12 A2972 RMK SF8 SLP068=

CYQG;2006-12-22 23:00;METAR CYQG 222300Z 20028G35KT 3SM -SHRA BR BKN005 OVC011 13/12 A2974 RMK SF6SC2 SLP073=

CYQG;2006-12-22 23:08;SPECI CYQG 222308Z 22024G35KT 6SM -SHRA BR SCT005 OVC029 RMK SF3SC5=

CYQG;2006-12-23 00:00;METAR CYQG 230000Z 21010G15KT 8SM -SHRA FEW008 OVC042 11/09 A2975 RMK SF2SC6 SLP076=

CYQG;2006-12-23 01:00;METAR CYQG 230100Z 22010KT 15SM FEW009 BKN072 10/08 A2974 RMK CF1AC6 SLP074=

CYQG;2006-12-23 02:00;METAR CYQG 230200Z 24015KT 15SM FEW009 FEW080 09/08 A2975 RMK CF1AC2 SLP078=

CYQG;2006-12-23 04:00;METAR CYQG 230400Z 25015KT 15SM FEW015 08/03 A2977 RMK CF1 SLP085=

CYQG;2006-12-23 05:00;METAR CYQG 230500Z 24013KT 15SM SKC 07/03 A2977 RMK SLP085=

CYQG;2006-12-23 06:00;METAR CYQG 230600Z 23012KT 15SM SCT034 06/03 A2978 RMK SC4 SLP087=

CYQG;2006-12-23 07:00;METAR CYQG 230700Z 23015KT 15SM SCT026 OVC030 07/03 A2978 RMK SF3SC5 SLP088=

CYQG;2006-12-23 08:00;METAR CYQG 230800Z 22013KT 15SM OVC029 06/03 A2979 RMK SC8 SLP090=

CYQG;2006-12-23 09:00;METAR CYQG 230900Z 23015G20KT 15SM BKN030 07/03 A2977 RMK SC7 SLP085=

CYQG;2006-12-23 10:00;METAR CYQG 231000Z 24015G21KT 15SM FEW019 BKN028 07/03 A2977 RMK CF2SC6 SLP084=

CYQG;2006-12-23 11:00;METAR CYQG 231100Z 25017G25KT 15SM OVC026 07/02 A2978 RMK SC8 SLP087=

CYQG;2006-12-23 12:00;METAR CYQG 231200Z 24014G19KT 15SM OVC029 06/02 A2978 RMK SC8 SLP087=

CYQG;2006-12-23 13:00;METAR CYQG 231300Z 24018G27KT 15SM OVC031 06/02 A2979 RMK SC8 SLP090=

CYQG;2006-12-23 14:00;METAR CYQG 231400Z 24017G22KT 15SM OVC023 06/01 A2980 RMK SC8 SLP096=

CYQG;2006-12-23 15:00;METAR CYQG 231500Z 24016G21KT 15SM OVC024 06/02 A2981 RMK SC8 SLP100=

CYQG;2006-12-23 16:00;METAR CYQG 231600Z 24016G22KT 15SM OVC020 06/02 A2982 RMK SC8 SLP101=

CYQG;2006-12-23 17:00;METAR CYQG 231700Z 25022G29KT 15SM OVC018 06/01 A2983 RMK SC8 SLP105=

CYQG;2006-12-23 18:00;METAR CYQG 231800Z 25016G24KT 15SM OVC016 05/02 A2982 RMK SC8 SLP102=

CYQG;2006-12-23 19:00;METAR CYQG 231900Z 25019G24KT 15SM OVC019 05/02 A2983 RMK SC8 SLP106=

CYQG;2006-12-23 20:00;METAR CYQG 232000Z 26018G25KT 15SM OVC015 05/02 A2985 RMK SC8 SLP112=

CYQG;2006-12-23 21:00;METAR CYQG 232100Z 25011G17KT 8SM OVC015 05/02 A2987 RMK SC8 SLP120=

CYQG;2006-12-23 21:38;SPECI CYQG 232138Z 25011KT 7SM -SHRA OVC014 RMK SC8=

CYQG;2006-12-23 22:00;METAR CYQG 232200Z 25014KT 8SM -SHRA OVC014 04/02 A2989 RMK SC8 SLP126=

CYQG;2006-12-23 23:00;METAR CYQG 232300Z 26014KT 5SM -DZ HZ OVC015 04/02 A2992 RMK SC8 SLP137=

CYQG;2006-12-23 23:46;SPECI CYQG 232346Z 25012KT 5SM -DZ BR OVC014 RMK SC8=

CYQG;2006-12-24 00:00;METAR CYQG 240000Z 25010KT 5SM -RA BR OVC013 04/02 A2994 RMK SC8 SLP142=

CYQG;2006-12-24 01:00;METAR CYQG 240100Z 24012KT 5SM -RA BR OVC011 04/02 A2995 RMK SC8 SLP146=

CYQG;2006-12-24 02:00;METAR CYQG 240200Z 24010KT 4SM -RA BR OVC010 04/02 A2995 RMK SC8 SLP148=

CYQG;2006-12-24 02:38;SPECI CYQG 240238Z 25009KT 4SM -RA BR OVC008 RMK SF8=

CYQG;2006-12-24 03:00;METAR CYQG 240300Z 24011KT 4SM -RA BR OVC008 04/02 A2996 RMK SF8 SLP151=

CYQG;2006-12-24 04:00;METAR CYQG 240400Z 25012KT 6SM -RA BR OVC007 04/02 A2995 RMK SF8 SLP149=

CYQG;2006-12-24 05:00;METAR CYQG 240500Z 25010KT 6SM -RA BR OVC008 04/02 A2996 RMK SF8 SLP152=

CYQG;2006-12-24 05:34;SPECI CYQG 240534Z 26012KT 6SM BR OVC008 RMK SC8=

CYQG;2006-12-24 06:00;METAR CYQG 240600Z 26011KT 6SM BR OVC011 04/02 A2997 RMK SC8 SLP155=

CYQG;2006-12-24 06:48;SPECI CYQG 240648Z 26011KT 6SM -RA BR OVC012 RMK SC8=

CYQG;2006-12-24 07:00;METAR CYQG 240700Z 26011KT 6SM -RA BR OVC012 04/02 A3000 RMK SC8 SLP165=

CYQG;2006-12-24 08:00;METAR CYQG 240800Z 27010KT 6SM -RA BR OVC012 04/02 A3004 RMK SC8 SLP176=

CYQG;2006-12-24 09:00;METAR CYQG 240900Z 27007KT 6SM -RA BR OVC010 04/02 A3006 RMK SC8 SLP184=

CYQG;2006-12-24 10:00;METAR CYQG 241000Z 29011G16KT 10SM -RA OVC012 04/02 A3007 RMK SC8 SLP189=

CYQG;2006-12-24 10:12;SPECI CYQG 241012Z 30012KT 12SM OVC012 RMK SC8=

CYQG;2006-12-24 11:00;METAR CYQG 241100Z 30011KT 12SM OVC012 03/01 A3009 RMK SC8 SLP195=

CYQG;2006-12-24 12:00;METAR CYQG 241200Z 28009KT 15SM OVC015 03/01 A3011 RMK SC8 SLP204=

CYQG;2006-12-24 13:00;METAR CYQG 241300Z 30007KT 15SM OVC013 03/00 A3012 RMK SC8 SLP207=

CYQG;2006-12-24 14:00;METAR CYQG 241400Z 27008KT 15SM OVC012 03/00 A3015 RMK SC7 SLP217=

CYQG;2006-12-24 15:00;METAR CYQG 241500Z 26011G17KT 15SM OVC012 03/01 A3020 RMK SC8 PRESRR SLP233=

CYQG;2006-12-24 16:00;METAR CYQG 241600Z 25012G18KT 15SM OVC012 03/01 A3025 RMK SC8 SLP249=

CYQG;2006-12-24 17:00;METAR CYQG 241700Z 26015KT 15SM OVC013 03/01 A3025 RMK SC8 SLP249=

CYQG;2006-12-24 17:22;SPECI CYQG 241722Z 26012KT 15SM BKN016 RMK SC7=

CYQG;2006-12-24 18:00;METAR CYQG 241800Z 28009KT 15SM BKN018 05/01 A3022 RMK SC6 SLP239=

CYQG;2006-12-24 19:00;METAR CYQG 241900Z 25003KT 15SM BKN280 06/01 A3020 RMK CI2 SLP231=

CYQG;2006-12-24 20:00;METAR CYQG 242000Z 24004KT 15SM BKN280 06/01 A3019 RMK CI3 SLP230=

CYQG;2006-12-24 21:00;METAR CYQG 242100Z 20008KT 15SM BKN280 06/01 A3020 RMK CI3 SLP232=

CYQG;2006-12-24 22:00;METAR CYQG 242200Z 20007KT 12SM BKN280 04/01 A3022 RMK CI2 SLP238=

CYQG;2006-12-24 23:00;METAR CYQG 242300Z 21006KT 15SM FEW280 03/01 A3023 RMK CI1 SLP242=

CYQG;2006-12-25 00:00;METAR CYQG 250000Z 21006KT 15SM FEW280 03/00 A3023 RMK CI1 SLP243=

CYQG;2006-12-25 01:00;METAR CYQG 250100Z 21006KT 10SM SKC 02/M00 A3024 RMK SLP247=

CYQG;2006-12-25 02:00;METAR CYQG 250200Z 20004KT 10SM SKC 02/01 A3022 RMK SLP240=

CYQG;2006-12-25 03:00;METAR CYQG 250300Z 22006KT 10SM SKC 03/01 A3021 RMK SLP238=

CYQG;2006-12-25 04:00;METAR CYQG 250400Z 20005KT 7SM SCT220 02/01 A3020 RMK CI1 FROIN SLP235=

CYQG;2006-12-25 05:00;METAR CYQG 250500Z 22005KT 15SM FEW230 02/01 A3019 RMK CI1 SLP229=

CYQG;2006-12-25 06:00;METAR CYQG 250600Z 23002KT 8SM FEW230 02/01 A3017 RMK CI1 SLP223=

CYQG;2006-12-25 07:00;METAR CYQG 250700Z 19004KT 7SM BKN230 02/01 A3015 RMK CS4 SLP215=

CYQG;2006-12-25 08:00;METAR CYQG 250800Z 18002KT 7SM BKN200 02/01 A3013 RMK CS6 SLP210=

CYQG;2006-12-25 10:00;METAR CYQG 251000Z 35004KT 4SM BR OVC180 01/00 A3008 RMK AC8 FROIN SLP193=

CYQG;2006-12-25 11:00;METAR CYQG 251100Z 00000KT 4SM BR OVC180 01/00 A3006 RMK AC8 FROIN SLP186=

CYQG;2006-12-25 12:00;METAR CYQG 251200Z 07002KT 4SM BR OVC160 01/M00 A3002 RMK AC8 SLP174=

CYQG;2006-12-25 12:12;SPECI CYQG 251212Z 12005KT 1 1/2SM BR BKN160 RMK AC6=

CYQG;2006-12-25 13:00;METAR CYQG 251300Z 12004KT 3SM BR BKN130 01/01 A2999 RMK AC7 SLP162=

CYQG;2006-12-25 14:00;METAR CYQG 251400Z 00000KT 6SM BR OVC110 02/01 A3000 RMK AC8 SLP166=

CYQG;2006-12-25 15:00;METAR CYQG 251500Z 03004KT 6SM BR OVC120 02/02 A2997 RMK AC8 SLP154=

CYQG;2006-12-25 16:00;METAR CYQG 251600Z 02003KT 6SM BR OVC110 04/03 A2995 RMK AC8 SLP150=

CYQG;2006-12-25 18:00;METAR CYQG 251800Z 05008KT 6SM BR FEW040 OVC130 04/03 A2983 RMK CU2AC6 PRESFR SLP107=

CYQG;2006-12-25 18:23;SPECI CYQG 251823Z 06010KT 6SM BR FEW008 OVC130 RMK SF2AC6=

CYQG;2006-12-25 18:47;SPECI CYQG 251847Z 07008KT 6SM BR BKN008 OVC070 RMK SF5AC3=

CYQG;2006-12-25 19:00;METAR CYQG 251900Z 06008KT 6SM BR BKN007 OVC070 04/03 A2980 RMK SF6AC2 SLP096=

CYQG;2006-12-25 20:00;METAR CYQG 252000Z 05011KT 6SM BR OVC006 04/03 A2975 RMK SC8 SLP082=

CYQG;2006-12-25 20:26;SPECI CYQG 252026Z 04012KT 2SM -SHRA BR OVC006 RMK SC8=

CYQG;2006-12-25 21:00;METAR CYQG 252100Z 02010KT 3SM -SHRA BR BKN005 OVC040 04/03 A2974 RMK SF7SC1 SLP077=

CYQG;2006-12-25 22:00;METAR CYQG 252200Z 03011KT 2SM -SHRA BR OVC007 04/03 A2975 RMK SF8 SLP080=

CYQG;2006-12-25 23:00;METAR CYQG 252300Z 04010KT 3SM -SHRA BR BKN008 OVC032 04/03 A2974 RMK SF6SC2 SLP077=

CYQG;2006-12-26 00:00;METAR CYQG 260000Z 07008KT 3SM -SHRA BR BKN008 OVC043 03/02 A2973 RMK SF7SC1 SLP074=

CYQG;2006-12-26 01:00;METAR CYQG 260100Z 05010KT 3SM -SHRA BR SCT007 OVC037 03/02 A2971 RMK SF3SC5 SLP068=

CYQG;2006-12-26 02:00;METAR CYQG 260200Z 04009KT 3SM -SHRA BR BKN008 OVC040 04/02 A2970 RMK SF6SC2 SLP062=

CYQG;2006-12-26 02:48;SPECI CYQG 260248Z 04011G17KT 3SM -SHRA BR FEW008 OVC060 RMK CF2SC6=

CYQG;2006-12-26 03:00;METAR CYQG 260300Z 04009KT 5SM -SHRA BR FEW008 OVC050 03/02 A2966 RMK CF1SC7 SLP049=

CYQG;2006-12-26 03:20;SPECI CYQG 260320Z 03010KT 6SM BR SCT008 OVC034 RMK CF3SC5=

CYQG;2006-12-26 04:00;METAR CYQG 260400Z 03011G17KT 6SM BR SCT013 OVC038 04/02 A2963 RMK CF4SC4 SLP039=

CYQG;2006-12-26 05:00;METAR CYQG 260500Z 02011G16KT 6SM BR SCT014 OVC031 03/02 A2960 RMK SF3SC5 SLP030=

CYQG;2006-12-26 05:19;SPECI CYQG 260519Z 02014KT 6SM -SHRA BR SCT014 OVC031 RMK SF3SC5=

CYQG;2006-12-26 06:00;METAR CYQG 260600Z 01011KT 6SM -SHRA BR OVC020 03/02 A2960 RMK SF8 SLP027=

CYQG;2006-12-26 07:00;METAR CYQG 260700Z 01011G17KT 6SM -SHRA BR SCT020 OVC080 03/02 A2958 RMK SF4AC4 SLP023=

CYQG;2006-12-26 08:00;METAR CYQG 260800Z 36010KT 6SM -SHRA BR FEW060 OVC080 03/01 A2958 RMK SC2AC6 SLP020=

CYQG;2006-12-26 08:45;SPECI CYQG 260845Z 36013G18KT 6SM BR OVC008 RMK ST8=

CYQG;2006-12-26 08:54;SPECI CYQG 260854Z 36014KT 6SM -SHRA BR OVC009 RMK ST8=

CYQG;2006-12-26 09:00;METAR CYQG 260900Z 36015KT 6SM -SHRA BR OVC009 03/02 A2957 RMK SC8 SLP018=

CYQG;2006-12-26 10:00;METAR CYQG 261000Z 35015G20KT 5SM -SHRA BR OVC009 02/01 A2959 RMK SC8 SLP025=

CYQG;2006-12-26 11:00;METAR CYQG 261100Z 33012KT 5SM -SHRA BR OVC007 03/01 A2961 RMK SC8 SLP033=

CYQG;2006-12-26 12:00;METAR CYQG 261200Z 32011G17KT 5SM -SHRA BR OVC008 03/01 A2964 RMK SC8 SLP041=

CYQG;2006-12-26 13:00;METAR CYQG 261300Z 32012G19KT 6SM -SHRA BR BKN010 OVC016 03/01 A2965 RMK SF5SC3 SLP046=

CYQG;2006-12-26 14:00;METAR CYQG 261400Z 33012KT 8SM OVC013 03/01 A2967 RMK SC8 OCNL -SHRA SLP051=

CYQG;2006-12-26 15:00;METAR CYQG 261500Z 33014G20KT 10SM BKN013 OVC022 03/00 A2970 RMK SC5SC3 SLP062=

CYQG;2006-12-26 15:44;SPECI CYQG 261544Z 34011G17KT 12SM BKN015 OVC035 RMK SC6SC2=

CYQG;2006-12-26 16:00;METAR CYQG 261600Z 33011KT 12SM BKN016 OVC035 03/00 A2972 RMK SC6SC2 SLP070=

CYQG;2006-12-26 17:00;METAR CYQG 261700Z 32010KT 15SM BKN023 OVC045 04/00 A2973 RMK SC6SC2 SLP072=

CYQG;2006-12-26 18:00;METAR CYQG 261800Z 32011G16KT 15SM BKN020 OVC027 04/M00 A2973 RMK SC5SC3 SLP074=

CYQG;2006-12-26 19:00;METAR CYQG 261900Z 33012G17KT 15SM SCT025 OVC050 04/M01 A2974 RMK SC3SC5 SLP077=

CYQG;2006-12-26 20:00;METAR CYQG 262000Z 33011KT 15SM FEW023 OVC045 04/M01 A2976 RMK SC2SC6 SLP084=

CYQG;2006-12-26 21:00;METAR CYQG 262100Z 33010KT 15SM FEW030 OVC045 03/M02 A2979 RMK CF2SC6 SLP092=

CYQG;2006-12-26 21:40;SPECI CYQG 262140Z 32010KT 15SM -DZ OVC025 RMK SC8=

CYQG;2006-12-26 22:00;METAR CYQG 262200Z 32012KT 15SM FEW018 BKN025 OVC048 03/M01 A2981 RMK SF1SC6SC1 SLP100=

CYQG;2006-12-26 22:14;SPECI CYQG 262214Z 32010G15KT 15SM -SHRA FEW018 BKN025 OVC048 RMK SF1SC7SC1=

CYQG;2006-12-26 22:26;SPECI CYQG 262226Z 34010G15KT 15SM -SHRASN FEW018 OVC020 RMK SF1SC7=

CYQG;2006-12-26 22:31;SPECI CYQG 262231Z 34008KT 15SM -SHSN FEW018 OVC020 RMK SF1SC7=

CYQG;2006-12-26 23:00;METAR CYQG 262300Z 32006KT 15SM -SHSN FEW018 OVC045 03/M01 A2983 RMK SF1SC8 SLP106=

CYQG;2006-12-27 00:00;METAR CYQG 270000Z 33005KT 15SM -SHSN BKN018 OVC040 02/M01 A2984 RMK SC6SC2 SLP110=

CYQG;2006-12-27 01:00;METAR CYQG 270100Z 31008KT 15SM -SHSN SCT020 OVC045 03/M02 A2985 RMK CF3SC5 SLP115=

CYQG;2006-12-27 01:26;SPECI CYQG 270126Z 30008KT 15SM FEW020 OVC049 RMK CF2SC6=

CYQG;2006-12-27 02:00;METAR CYQG 270200Z 29011KT 15SM FEW020 OVC049 02/M02 A2986 RMK CF1SC8 SLP117=

CYQG;2006-12-27 03:00;METAR CYQG 270300Z 29014KT 15SM FEW020 OVC049 02/M03 A2987 RMK CF1SC8 SLP121=

CYQG;2006-12-27 04:00;METAR CYQG 270400Z 29008KT 15SM BKN040 OVC130 01/M04 A2987 RMK SC7AC1 SLP122=

CYQG;2006-12-27 05:00;METAR CYQG 270500Z 29009KT 15SM OVC035 02/M04 A2989 RMK SC8 SLP126=

CYQG;2006-12-27 06:00;METAR CYQG 270600Z 29010G17KT 15SM OVC035 01/M05 A2989 RMK SC8 SLP127=

CYQG;2006-12-27 07:00;METAR CYQG 270700Z 27008KT 15SM OVC030 01/M04 A2989 RMK SC8 SLP129=

CYQG;2006-12-27 08:00;METAR CYQG 270800Z 29014KT 15SM OVC028 01/M04 A2991 RMK SC8 SLP133=

CYQG;2006-12-27 09:00;METAR CYQG 270900Z 27011KT 15SM OVC028 01/M04 A2990 RMK SC8 SLP133=

CYQG;2006-12-27 10:00;METAR CYQG 271000Z 27010G17KT 15SM BKN030 01/M05 A2989 RMK SC7 SLP130=

CYQG;2006-12-27 11:00;METAR CYQG 271100Z 26010KT 15SM BKN029 01/M05 A2992 RMK SC5 SLP137=

CYQG;2006-12-27 12:00;METAR CYQG 271200Z 24010KT 15SM BKN032 01/M05 A2993 RMK SC7 SLP142=

CYQG;2006-12-27 13:00;METAR CYQG 271300Z 24010G15KT 12SM OVC031 00/M04 A2995 RMK SC8 SLP150=

CYQG;2006-12-27 14:00;METAR CYQG 271400Z 24012KT 12SM OVC023 00/M03 A2997 RMK SC8 SLP156=

CYQG;2006-12-27 15:00;METAR CYQG 271500Z 23011KT 12SM BKN027 00/M03 A2999 RMK SC7 SLP164=

CYQG;2006-12-27 16:00;METAR CYQG 271600Z 26014KT 15SM SCT018 BKN023 01/M03 A3001 RMK SC3SC4 SLP168=

CYQG;2006-12-27 17:00;METAR CYQG 271700Z 26014KT 15SM BKN023 BKN160 02/M03 A3000 RMK SC5AC1 SLP167=

CYQG;2006-12-27 18:00;METAR CYQG 271800Z 25012KT 15SM FEW023 BKN160 03/M02 A3000 RMK SC2AC3 SLP165=

CYQG;2006-12-27 19:00;METAR CYQG 271900Z 25011KT 15SM FEW020 BKN160 03/M02 A3000 RMK SC1AC6 SLP167=

CYQG;2006-12-27 20:00;METAR CYQG 272000Z 24011KT 15SM BKN160 04/M02 A3001 RMK AC7 SLP170=

CYQG;2006-12-27 21:00;METAR CYQG 272100Z 24008KT 15SM BKN130 BKN160 04/M01 A3004 RMK AC5AC2 SLP178=

CYQG;2006-12-27 22:00;METAR CYQG 272200Z 22007KT 10SM FEW140 BKN160 03/M01 A3005 RMK AC2AC6 SLP183=

CYQG;2006-12-27 23:00;METAR CYQG 272300Z 22009KT 10SM BKN110 03/M01 A3007 RMK AC7 SLP188=

CYQG;2006-12-28 00:00;METAR CYQG 280000Z 22009KT 12SM SCT097 BKN110 03/M01 A3008 RMK AC4AC3 SLP193=

CYQG;2006-12-28 01:00;METAR CYQG 280100Z 23012KT 12SM OVC087 03/M01 A3009 RMK AC7 SLP196=

CYQG;2006-12-28 02:00;METAR CYQG 280200Z 23012KT 12SM OVC080 04/M01 A3011 RMK AS8 SLP201=

CYQG;2006-12-28 03:00;METAR CYQG 280300Z 23009KT 12SM OVC093 04/M01 A3011 RMK AS8 SLP204=

CYQG;2006-12-28 04:00;METAR CYQG 280400Z 24007KT 12SM OVC160 04/M01 A3013 RMK AC7 SLP208=

CYQG;2006-12-28 05:00;METAR CYQG 280500Z 22007KT 15SM OVC090 04/M01 A3013 RMK AC8 SLP210=

CYQG;2006-12-28 06:00;METAR CYQG 280600Z 24006KT 15SM OVC080 04/M01 A3015 RMK AC8 SLP217=

CYQG;2006-12-28 07:00;METAR CYQG 280700Z 24008KT 15SM OVC090 04/M01 A3017 RMK AC8 SLP223=

CYQG;2006-12-28 08:00;METAR CYQG 280800Z 23006KT 15SM OVC100 04/M01 A3019 RMK AC8 SLP229=

CYQG;2006-12-28 09:00;METAR CYQG 280900Z 22005KT 15SM OVC160 03/M01 A3020 RMK AC8 SLP233=

CYQG;2006-12-28 10:00;METAR CYQG 281000Z 24004KT 15SM BKN110 OVC170 03/M01 A3022 RMK AC6AC2 SLP238=

CYQG;2006-12-28 11:00;METAR CYQG 281100Z 00000KT 15SM OVC090 03/M01 A3024 RMK AC8 SLP247=

CYQG;2006-12-28 12:00;METAR CYQG 281200Z 15002KT 15SM OVC110 03/M01 A3026 RMK AC8 SLP255=

CYQG;2006-12-28 13:00;METAR CYQG 281300Z 14004KT 10SM BKN120 OVC250 02/M00 A3028 RMK AC6CI2 SLP259=

CYQG;2006-12-28 14:00;METAR CYQG 281400Z 12004KT 10SM FEW080 OVC095 03/00 A3028 RMK AC2AC6 SLP259=

CYQG;2006-12-28 15:00;METAR CYQG 281500Z 10003KT 8SM OVC080 03/01 A3030 RMK AC8 SLP266=

CYQG;2006-12-28 16:00;METAR CYQG 281600Z 17003KT 8SM OVC095 04/01 A3031 RMK AC8 SLP270=

CYQG;2006-12-28 17:00;METAR CYQG 281700Z 15004KT 8SM SCT095 OVC110 05/01 A3028 RMK AC4AC4 SLP260=

CYQG;2006-12-28 19:00;METAR CYQG 281900Z 17003KT 10SM OVC100 06/00 A3027 RMK AC8 SLP257=

CYQG;2006-12-28 20:00;METAR CYQG 282000Z 17006KT 12SM FEW110 BKN130 06/M00 A3028 RMK AC2AC5 SLP259=

CYQG;2006-12-28 21:00;METAR CYQG 282100Z 14005KT 12SM BKN180 05/00 A3029 RMK AC6 SLP265=

CYQG;2006-12-28 22:00;METAR CYQG 282200Z 09004KT 12SM BKN160 BKN250 05/01 A3032 RMK AC5CC1 SLP273=

CYQG;2006-12-28 23:00;METAR CYQG 282300Z 10004KT 12SM SCT170 BKN190 04/01 A3033 RMK AC4AC2 SLP277=

CYQG;2006-12-29 00:00;METAR CYQG 290000Z 12005KT 12SM FEW120 FEW170 BKN190 04/01 A3034 RMK AC1AC2AC4 SLP282=

CYQG;2006-12-29 01:00;METAR CYQG 290100Z 05004KT 12SM SCT160 OVC270 03/01 A3037 RMK AC4CS2 SLP291=

CYQG;2006-12-29 02:00;METAR CYQG 290200Z 09004KT 12SM BKN160 OVC260 03/01 A3038 RMK AC6CS1 CONTRAILS SLP295=

CYQG;2006-12-29 03:00;METAR CYQG 290300Z 00000KT 12SM FEW160 03/02 A3039 RMK AC2 SLP299=

CYQG;2006-12-29 04:00;METAR CYQG 290400Z 06003KT 10SM SKC 02/00 A3041 RMK SLP303=

CYQG;2006-12-29 05:00;METAR CYQG 290500Z 03003KT 8SM SKC 02/00 A3042 RMK SLP307=

CYQG;2006-12-29 06:00;METAR CYQG 290600Z 05004KT 6SM BR FEW240 01/01 A3042 RMK CI1 SLP307=

CYQG;2006-12-29 07:00;METAR CYQG 290700Z 05006KT 5SM BR FEW220 01/00 A3044 RMK CI2 SLP313=

CYQG;2006-12-29 08:00;METAR CYQG 290800Z 07004KT 4SM BR FEW150 BKN190 01/00 A3045 RMK AC2AC4 SLP317=

CYQG;2006-12-29 09:00;METAR CYQG 290900Z 05005KT 3SM BR BKN160 01/00 A3046 RMK AC7 SLP321=

CYQG;2006-12-29 10:00;METAR CYQG 291000Z 05004KT 3SM BR BKN180 01/00 A3047 RMK AC7 SLP323=

CYQG;2006-12-29 11:00;METAR CYQG 291100Z 07005KT 3SM BR OVC140 02/01 A3048 RMK AC8 SLP329=

CYQG;2006-12-29 11:53;SPECI CYQG 291153Z 07007KT 3SM BR FEW004 OVC140 RMK SF2AC6=

CYQG;2006-12-29 12:00;METAR CYQG 291200Z 07008KT 3SM BR SCT004 OVC140 03/02 A3050 RMK SF3AC5 SLP335=

CYQG;2006-12-29 12:18;SPECI CYQG 291218Z 09008KT 2 1/2SM BR BKN004 OVC120 RMK SF6AC2=

CYQG;2006-12-29 13:00;METAR CYQG 291300Z 10007KT 1 1/2SM BR OVC004 03/02 A3053 RMK FG2SF6 SLP344=

CYQG;2006-12-29 13:18;SPECI CYQG 291318Z 11006KT 1 1/2SM BR BKN006 OVC010 RMK FG2SF5SC2=

CYQG;2006-12-29 13:25;SPECI CYQG 291325Z 11005KT 1 1/2SM BR OVC009 RMK FG2SF6=

CYQG;2006-12-29 13:48;SPECI CYQG 291348Z 08005KT 2SM BR SCT006 OVC010 RMK FG1SF3SC3=

CYQG;2006-12-29 14:00;METAR CYQG 291400Z 09005KT 2SM BR BKN010 BKN140 04/03 A3054 RMK SF5AC2 SLP350=

CYQG;2006-12-29 14:13;SPECI CYQG 291413Z 09007KT 3SM BR SCT010 SCT070 BKN140 RMK SC3AC1AC3=

CYQG;2006-12-29 14:50;SPECI CYQG 291450Z 10009KT 3SM BR FEW008 OVC068 RMK SF2AC6=

CYQG;2006-12-29 15:00;METAR CYQG 291500Z 11007KT 3SM BR SCT008 OVC068 04/03 A3055 RMK SF4AC4 SLP353=

CYQG;2006-12-29 15:13;SPECI CYQG 291513Z 12009KT 4SM BR BKN009 OVC058 RMK SF6SC2=

CYQG;2006-12-29 16:00;METAR CYQG 291600Z 09009G15KT 4SM BR BKN009 OVC060 05/04 A3056 RMK SF6SC2 SLP356=

CYQG;2006-12-29 16:52;SPECI CYQG 291652Z 10011KT 6SM BR BKN012 RMK SC7=

CYQG;2006-12-29 17:00;METAR CYQG 291700Z 10011KT 6SM BR BKN012 05/03 A3054 RMK SC7 SLP347=

CYQG;2006-12-29 18:00;METAR CYQG 291800Z 12009KT 12SM BKN012 05/03 A3052 RMK SC7 SLP341=

CYQG;2006-12-29 19:00;METAR CYQG 291900Z 09011KT 15SM BKN013 OVC050 05/02 A3051 RMK SC7SC1 SLP340=

CYQG;2006-12-29 20:00;METAR CYQG 292000Z 09011KT 15SM OVC011 05/02 A3052 RMK SC8 SLP343=

CYQG;2006-12-29 21:00;METAR CYQG 292100Z 09008KT 10SM BKN013 OVC052 04/02 A3051 RMK SC5SC3 SLP340=

CYQG;2006-12-29 22:00;METAR CYQG 292200Z 09010KT 12SM BKN010 OVC048 04/01 A3051 RMK SC6SC2 SLP338=

CYQG;2006-12-29 23:00;METAR CYQG 292300Z 09008KT 15SM BKN010 OVC048 03/01 A3052 RMK SC7SC1 SLP341=

CYQG;2006-12-30 00:00;METAR CYQG 300000Z 10009KT 15SM OVC010 03/01 A3050 RMK SC7 SLP335=

CYQG;2006-12-30 01:00;METAR CYQG 300100Z 09010KT 15SM OVC010 03/01 A3050 RMK SC8 SLP337=

CYQG;2006-12-30 01:45;SPECI CYQG 300145Z 09008KT 15SM OVC007 RMK SC8=

CYQG;2006-12-30 02:00;METAR CYQG 300200Z 09007KT 15SM OVC007 03/01 A3049 RMK SC8 SLP331=

CYQG;2006-12-30 03:00;METAR CYQG 300300Z 10005KT 15SM OVC007 03/01 A3048 RMK SC8 SLP330=

CYQG;2006-12-30 04:00;METAR CYQG 300400Z 09005KT 7SM OVC006 03/02 A3047 RMK SC8 SLP325=

CYQG;2006-12-30 05:00;METAR CYQG 300500Z 06003KT 3SM BR OVC005 03/02 A3047 RMK SC8 SLP324=

CYQG;2006-12-30 06:00;METAR CYQG 300600Z 07004KT 3SM BR OVC005 03/01 A3047 RMK SC8 SLP323=

CYQG;2006-12-30 06:43;SPECI CYQG 300643Z 08002KT 3SM BR OVC004 RMK SC8=

CYQG;2006-12-30 07:00;METAR CYQG 300700Z 06002KT 3SM BR OVC005 02/02 A3044 RMK SC8 SLP313=

CYQG;2006-12-30 08:00;METAR CYQG 300800Z 15004KT 2 1/2SM BR OVC004 02/01 A3041 RMK SC8 SLP306=

CYQG;2006-12-30 09:00;METAR CYQG 300900Z 06002KT 2SM BR OVC004 02/01 A3041 RMK SC8 SLP305=

CYQG;2006-12-30 09:18;SPECI CYQG 300918Z 09002KT 1SM BR OVC003 RMK FG2ST6=

CYQG;2006-12-30 09:31;SPECI CYQG 300931Z 07003KT 1/2SM FG VV002 RMK FG8=

CYQG;2006-12-30 10:00;METAR CYQG 301000Z 11002KT 1/2SM FG VV002 02/01 A3041 RMK FG8 SLP306=

CYQG;2006-12-30 10:36;SPECI CYQG 301036Z 16007KT 1/4SM FG VV001 RMK FG8=

CYQG;2006-12-30 11:00;METAR CYQG 301100Z 20007KT 1/4SM FG VV001 02/01 A3041 RMK FG8 SLP305=

CYQG;2006-12-30 11:52;SPECI CYQG 301152Z 32002KT 1/8SM FG VV001 RMK FG8=

CYQG;2006-12-30 12:00;METAR CYQG 301200Z 31003KT 1/8SM FG VV001 02/01 A3043 RMK FG8 SLP313=

CYQG;2006-12-30 13:00;METAR CYQG 301300Z 23005KT 1/8SM FG VV001 02/01 A3044 RMK FG8 SLP314=

CYQG;2006-12-30 14:00;METAR CYQG 301400Z 27003KT 1/8SM FG VV001 03/02 A3044 RMK FG8 SLP317=

CYQG;2006-12-30 15:00;METAR CYQG 301500Z 27004KT 1/8SM FG VV001 03/02 A3047 RMK FG8 SLP325=

CYQG;2006-12-30 15:09;SPECI CYQG 301509Z 27003KT 1/4SM FG VV002 RMK FG8=

CYQG;2006-12-30 15:14;SPECI CYQG 301514Z 28005KT 3/8SM FG OVC002 RMK FG6SF2=

CYQG;2006-12-30 15:20;SPECI CYQG 301520Z 32005KT 5/8SM BR OVC002 RMK FG4SF4=

CYQG;2006-12-30 15:28;SPECI CYQG 301528Z 32002KT 3/4SM BR OVC002 RMK FG3SF5=

CYQG;2006-12-30 15:40;SPECI CYQG 301540Z 33003KT 1 1/2SM BR BKN003 RMK FG2SF5=

CYQG;2006-12-30 15:43;SPECI CYQG 301543Z 34003KT 2SM BR BKN004 RMK FG2SF6=

CYQG;2006-12-30 15:52;SPECI CYQG 301552Z 32003KT 2 1/2SM BR BKN005 RMK FG2SF6=

CYQG;2006-12-30 16:00;METAR CYQG 301600Z 32002KT 2 1/2SM BR BKN005 04/03 A3047 RMK FG1SF6 SLP324=

CYQG;2006-12-30 16:11;SPECI CYQG 301611Z 32002KT 3SM BR BKN006 RMK SF6=

CYQG;2006-12-30 16:22;SPECI CYQG 301622Z 30002KT 3SM BR BKN006 RMK SF4=

CYQG;2006-12-30 17:00;METAR CYQG 301700Z 00000KT 5SM BR FEW008 06/06 A3044 RMK SF2 SLP316=

CYQG;2006-12-30 18:00;METAR CYQG 301800Z 21003KT 6SM HZ SCT010 07/04 A3043 RMK SF2 SLP309=

CYQG;2006-12-30 19:00;METAR CYQG 301900Z 14002KT 6SM HZ FEW270 07/04 A3041 RMK CI1 CONTRAILS SLP305=

CYQG;2006-12-30 20:00;METAR CYQG 302000Z 18004KT 5SM HZ BKN280 06/04 A3043 RMK CI4 CONTRAILS SLP309=

CYQG;2006-12-30 21:00;METAR CYQG 302100Z 16003KT 5SM HZ BKN270 06/04 A3044 RMK CS3 SLP316=

CYQG;2006-12-30 22:00;METAR CYQG 302200Z 07008KT 6SM HZ FEW016 BKN240 05/03 A3045 RMK SC2CI2 SLP319=

CYQG;2006-12-30 22:49;SPECI CYQG 302249Z 08010KT 6SM HZ SCT009 BKN230 RMK SC3CI0=

CYQG;2006-12-30 23:00;METAR CYQG 302300Z 08011KT 6SM HZ SCT009 BKN230 05/03 A3044 RMK SC3CI0 SLP315=

CYQG;2006-12-31 00:00;METAR CYQG 310000Z 08010KT 5SM HZ BKN008 OVC020 04/02 A3044 RMK SC5SC3 SLP316=

CYQG;2006-12-31 01:00;METAR CYQG 310100Z 07010KT 5SM HZ OVC012 04/02 A3045 RMK SC8 SLP319=

CYQG;2006-12-31 02:00;METAR CYQG 310200Z 06010KT 5SM HZ OVC009 04/02 A3046 RMK SC8 SLP320=

CYQG;2006-12-31 03:00;METAR CYQG 310300Z 07009KT 6SM HZ OVC008 04/02 A3046 RMK SC8 SLP322=

CYQG;2006-12-31 04:00;METAR CYQG 310400Z 08007KT 6SM HZ OVC008 04/02 A3045 RMK SC8 SLP318=

CYQG;2006-12-31 05:00;METAR CYQG 310500Z 07010KT 5SM HZ OVC007 04/02 A3042 RMK SC8 SLP309=

CYQG;2006-12-31 06:00;METAR CYQG 310600Z 09009KT 4SM BR OVC006 03/02 A3040 RMK SC8 SLP301=

CYQG;2006-12-31 06:41;SPECI CYQG 310641Z 08008KT 2SM BR OVC003 RMK SC8=

CYQG;2006-12-31 07:00;METAR CYQG 310700Z 09006KT 1 1/2SM BR OVC003 03/02 A3039 RMK FG2ST6 SLP298=

CYQG;2006-12-31 08:00;METAR CYQG 310800Z 08006KT 2SM BR OVC004 03/02 A3038 RMK FG1ST7 SLP292=

CYQG;2006-12-31 09:00;METAR CYQG 310900Z 11010G15KT 4SM BR OVC008 03/02 A3034 RMK SF8 SLP281=

CYQG;2006-12-31 10:00;METAR CYQG 311000Z 11009KT 7SM OVC009 03/02 A3031 RMK SF8 SLP271=

CYQG;2006-12-31 11:00;METAR CYQG 311100Z 10012KT 8SM OVC009 03/01 A3029 RMK SF8 SLP263=

CYQG;2006-12-31 12:00;METAR CYQG 311200Z 10010G15KT 7SM OVC008 03/01 A3027 RMK SC8 SLP256=

CYQG;2006-12-31 13:00;METAR CYQG 311300Z 11010G15KT 6SM BR OVC006 03/02 A3023 RMK SC8 SLP245=

CYQG;2006-12-31 13:46;SPECI CYQG 311346Z 11010KT 6SM -SHRA BR OVC006 RMK SF8=

CYQG;2006-12-31 14:00;METAR CYQG 311400Z 11012KT 6SM -SHRA BR OVC006 04/02 A3020 RMK SF8 SLP233=

CYQG;2006-12-31 14:37;SPECI CYQG 311437Z 11011KT 5SM -RA BR OVC005 RMK SF8=

CYQG;2006-12-31 15:00;METAR CYQG 311500Z 11011KT 5SM -RA BR OVC005 04/03 A3017 RMK SF8 SLP221=

CYQG;2006-12-31 16:00;METAR CYQG 311600Z 09011KT 4SM -RA BR OVC005 04/03 A3010 RMK SF8 PRESFR SLP200=

CYQG;2006-12-31 17:00;METAR CYQG 311700Z 11013KT 5SM -RA BR BKN005 OVC032 05/04 A3004 RMK SF6SC2 PRESFR SLP180=

CYQG;2006-12-31 17:34;SPECI CYQG 311734Z 11013KT 5SM -RA BR SCT006 OVC030 RMK SF3SC5=

CYQG;2006-12-31 18:00;METAR CYQG 311800Z 11014G19KT 5SM -RA BR SCT006 OVC023 05/04 A2997 RMK SF3SC5 PRESFR SLP153=

CYQG;2006-12-31 18:44;SPECI CYQG 311844Z 12015KT 2 1/2SM -RA BR FEW005 OVC016 RMK SF2SC6=

CYQG;2006-12-31 18:52;SPECI CYQG 311852Z 12014G19KT 2SM -RA BR FEW005 OVC013 RMK SF1SC7=

CYQG;2006-12-31 19:00;METAR CYQG 311900Z 11015KT 2 1/4SM -RA BR FEW005 OVC014 05/04 A2991 RMK SF2SC6 SLP134=

CYQG;2006-12-31 19:30;SPECI CYQG 311930Z 13013KT 3SM -RA BR SCT005 OVC011 RMK SF3SC5=

CYQG;2006-12-31 19:47;SPECI CYQG 311947Z 12012G17KT 2SM -RA BR BKN006 OVC011 RMK SF6SC2=

CYQG;2006-12-31 20:00;METAR CYQG 312000Z 15010G19KT 3SM -RA BR OVC005 06/05 A2987 RERA RMK SF8 SLP122=

CYQG;2006-12-31 21:00;METAR CYQG 312100Z 13009G16KT 3SM -RA BR OVC005 07/06 A2983 RMK SF8 SLP106=

CYQG;2006-12-31 22:00;METAR CYQG 312200Z 13007KT 3SM -RA BR OVC004 08/07 A2980 RMK SF8 SLP097=

CYQG;2006-12-31 22:13;SPECI CYQG 312213Z 12008KT 3SM BR OVC004 RMK SC8=

CYQG;2006-12-31 23:00;METAR CYQG 312300Z 13011KT 5SM BR OVC024 08/08 A2973 RMK SC8 SLP074=

