CYQG;2013-01-01 00:00;CYQG 010000Z 23011KT 15SM OVC025 00/M02 A2995 RMK SC8 SLP149

CYQG;2013-01-01 01:00;CYQG 010100Z 24009KT 7SM OVC024 00/M02 A2996 RMK SC8 SLP154

CYQG;2013-01-01 02:00;CYQG 010200Z 27007KT 7SM -SN BKN018 OVC035 00/M02 A2997 RMK SC6SC2 SLP156

CYQG;2013-01-01 03:00;CYQG 010300Z 30007KT 7SM -SN OVC029 00/M04 A2999 RMK SC8 SLP163

CYQG;2013-01-01 03:13;CYQG 010313Z 31012KT 8SM OVC030 RMK SC8

CYQG;2013-01-01 04:00;CYQG 010400Z 31010G15KT 10SM BKN033 M00/M07 A2999 RMK SC7 SLP165

CYQG;2013-01-01 06:00;CYQG 010600Z 31010KT 10SM BKN036 OVC090 M01/M07 A3001 RMK SC7AC1 SLP170

CYQG;2013-01-01 07:00;CYQG 010700Z 30007KT 8SM OVC038 M01/M07 A3001 RMK SC8 SLP169

CYQG;2013-01-01 08:00;CYQG 010800Z 34008KT 10SM OVC031 M02/M09 A3001 RMK SC8 SLP172

CYQG;2013-01-01 09:00;CYQG 010900Z 32009KT 12SM OVC032 M03/M08 A3002 RMK SC8 SLP174

CYQG;2013-01-01 10:00;CYQG 011000Z 33007KT 12SM OVC036 M03/M08 A3003 RMK SC8 SLP178

CYQG;2013-01-01 11:00;CYQG 011100Z 35007KT 12SM BKN028 OVC110 M03/M09 A3004 RMK SC6AC2 SLP181

CYQG;2013-01-01 12:00;CYQG 011200Z 03008KT 12SM BKN032 OVC100 M04/M09 A3005 RMK SC7AC1 SLP185

CYQG;2013-01-01 13:00;CYQG 011300Z 01008KT 15SM BKN033 M05/M10 A3007 RMK SC7 SLP192

CYQG;2013-01-01 14:00;CYQG 011400Z 36008KT 15SM BKN031 M05/M10 A3010 RMK SC7 SLP201

CYQG;2013-01-01 14:41;CYQG 011441Z 01006KT 15SM -SN OVC030 RMK SC8

CYQG;2013-01-01 15:00;CYQG 011500Z 34007KT 15SM -SN OVC031 M05/M11 A3012 RMK SC8 SLP210

CYQG;2013-01-01 16:00;CYQG 011600Z 35005KT 15SM -SN OVC028 M05/M11 A3013 RMK SC8 SLP213

CYQG;2013-01-01 17:00;CYQG 011700Z 34009KT 15SM BKN032 M05/M12 A3008 RMK SC7 SLP195

CYQG;2013-01-01 18:00;CYQG 011800Z 02005KT 15SM BKN032 M05/M12 A3008 RMK SC7 SLP196

CYQG;2013-01-01 19:00;CYQG 011900Z 30002KT 15SM BKN036 M04/M12 A3008 RMK SC6 SLP196

CYQG;2013-01-01 20:00;CYQG 012000Z 01006KT 15SM BKN038 M04/M12 A3007 RMK SC6 SLP192

CYQG;2013-01-01 21:00;CYQG 012100Z 27006KT 15SM BKN037 M04/M13 A3008 RMK SC5 SLP196

CYQG;2013-01-01 22:00;CYQG 012200Z 28007KT 15SM FEW037 M05/M13 A3009 RMK SC2 SLP198

CYQG;2013-01-01 23:00;CYQG 012300Z 29005KT 15SM FEW035 M06/M13 A3009 RMK SC1 SLP198

CYQG;2013-01-02 00:00;CYQG 020000Z 32002KT 15SM SKC M07/M13 A3009 RMK SLP199

CYQG;2013-01-02 01:00;CYQG 020100Z 00000KT 15SM SKC M09/M13 A3008 RMK SLP197

CYQG;2013-01-02 02:00;CYQG 020200Z 21005KT 15SM FEW035 M09/M13 A3009 RMK SC2 SLP199

CYQG;2013-01-02 03:00;CYQG 020300Z 23006KT 15SM FEW035 M09/M13 A3009 RMK SC2 SLP200

CYQG;2013-01-02 04:00;CYQG 020400Z 24005KT 15SM FEW032 M08/M13 A3009 RMK SC2 SLP200

CYQG;2013-01-02 05:00;CYQG 020500Z 22006KT 15SM BKN027 M08/M12 A3008 RMK SC5 SLP199

CYQG;2013-01-02 06:00;CYQG 020600Z 25006KT 15SM FEW025 M08/M12 A3007 RMK SC2 SLP195

CYQG;2013-01-02 07:00;CYQG 020700Z 26007KT 15SM FEW025 M08/M12 A3008 RMK SC2 SLP196

CYQG;2013-01-02 08:00;CYQG 020800Z 27008KT 15SM SCT020 M08/M12 A3008 RMK SC3 SLP198

CYQG;2013-01-02 09:00;CYQG 020900Z 26008KT 15SM BKN020 M08/M12 A3009 RMK SC5 SLP201

CYQG;2013-01-02 10:00;CYQG 021000Z 29011KT 15SM SCT021 M08/M12 A3010 RMK SC4 SLP204

CYQG;2013-01-02 11:00;CYQG 021100Z 29006KT 15SM SCT021 M09/M13 A3011 RMK SC4 SLP206

CYQG;2013-01-02 12:00;CYQG 021200Z 26003KT 15SM FEW020 M10/M12 A3012 RMK SC1 SLP212

CYQG;2013-01-02 13:00;CYQG 021300Z 23005KT 15SM FEW025 FEW140 M10/M12 A3013 RMK CF1AC2 SLP215

CYQG;2013-01-02 14:00;CYQG 021400Z 21002KT 15SM FEW100 FEW160 M10/M11 A3013 RMK AC1AC2 SLP214

CYQG;2013-01-02 15:00;CYQG 021500Z 22008KT 15SM BKN023 M09/M11 A3015 RMK SC7 SLP223

CYQG;2013-01-02 16:00;CYQG 021600Z 22010KT 15SM OVC024 M07/M10 A3019 RMK SC8 SLP234

CYQG;2013-01-02 17:00;CYQG 021700Z 20005KT 15SM OVC025 M06/M10 A3017 RMK SC8 SLP228

CYQG;2013-01-02 18:00;CYQG 021800Z 22006KT 15SM OVC026 M05/M09 A3015 RMK SC8 SLP222

CYQG;2013-01-02 19:00;CYQG 021900Z 22007KT 15SM OVC026 M05/M09 A3015 RMK SC8 SLP222

CYQG;2013-01-02 20:00;CYQG 022000Z 21005KT 12SM -SHSN OVC026 M04/M09 A3015 RMK SC8 SLP220

CYQG;2013-01-02 21:00;CYQG 022100Z 20006KT 12SM -SHSN OVC027 M04/M09 A3015 RMK SC8 SLP222

CYQG;2013-01-02 22:00;CYQG 022200Z 21008KT 15SM -SHSN OVC026 M04/M08 A3016 RMK SC8 SLP223

CYQG;2013-01-02 23:00;CYQG 022300Z 22005KT 12SM -SHSN OVC027 M04/M08 A3017 RMK SC8 SLP227

CYQG;2013-01-02 23:49;CYQG 022349Z 23006KT 15SM OVC025 RMK SC8

CYQG;2013-01-03 00:00;CYQG 030000Z 22006KT 15SM OVC025 M04/M08 A3019 RMK SC8 SLP234

CYQG;2013-01-03 00:50;CYQG 030050Z 21006KT 15SM -SHSN OVC026 RMK SC8

CYQG;2013-01-03 01:00;CYQG 030100Z 22006KT 15SM -SHSN OVC026 M04/M08 A3019 RMK SC8 SLP235

CYQG;2013-01-03 02:00;CYQG 030200Z 23009KT 12SM -SHSN OVC026 M05/M08 A3018 RMK SC8 SLP231

CYQG;2013-01-03 03:00;CYQG 030300Z 22008KT 15SM OVC024 M05/M08 A3017 RMK SC8 SLP228

CYQG;2013-01-03 04:00;CYQG 030400Z 22008KT 15SM OVC023 M05/M08 A3017 RMK SC8 SLP227

CYQG;2013-01-03 05:00;CYQG 030500Z 22009KT 15SM OVC021 M05/M08 A3016 RMK SC8 SLP225

CYQG;2013-01-03 06:00;CYQG 030600Z 22006KT 12SM OVC020 M05/M08 A3016 RMK SC8 SLP223

CYQG;2013-01-03 07:00;CYQG 030700Z 23008KT 12SM BKN028 M05/M08 A3015 RMK SC6 SLP221

CYQG;2013-01-03 08:00;CYQG 030800Z 23008KT 12SM FEW025 SCT140 M06/M09 A3016 RMK SC2AC2 SLP224

CYQG;2013-01-03 09:00;CYQG 030900Z 22007KT 12SM FEW025 BKN130 M07/M11 A3014 RMK SC1AC5 SLP217

CYQG;2013-01-03 10:00;CYQG 031000Z 22008KT 15SM FEW030 BKN120 M08/M13 A3012 RMK SC2AC5 SLP212

CYQG;2013-01-03 11:00;CYQG 031100Z 23010KT 15SM FEW030 BKN075 M07/M14 A3011 RMK SC2AC6 SLP208

CYQG;2013-01-03 11:32;CYQG 031132Z 23013KT 15SM -SHSN FEW030 BKN081 RMK SC2AC6

CYQG;2013-01-03 11:32;CYQG 031132Z 23013KT 15SM -SHSN FEW030 BKN081 RMK SC2AC6

CYQG;2013-01-03 12:00;CYQG 031200Z 23011KT 15SM -SHSN FEW030 BKN085 M08/M14 A3011 RMK SC1AC6 SLP205

CYQG;2013-01-03 12:18;CYQG 031218Z 23011KT 15SM BKN082 RMK AC7

CYQG;2013-01-03 12:18;CYQG 031218Z 23011KT 15SM BKN082 RMK AC7

CYQG;2013-01-03 13:00;CYQG 031300Z 23013KT 12SM FEW022 BKN081 M08/M14 A3009 RMK CU1AC7 TR CU SLP200

CYQG;2013-01-03 13:40;CYQG 031340Z 25011KT 8SM -SHSN BKN081 RMK AC7

CYQG;2013-01-03 14:00;CYQG 031400Z 23013KT 8SM OVC083 M08/M13 A3009 RMK AC8 OCNL -SHSN SLP201

CYQG;2013-01-03 14:00;CYQG 031400Z 23013KT 8SM OVC083 M08/M13 A3009 RMK AC8 OCNL -SHSN SLP201

CYQG;2013-01-03 14:05;CYQG 031405Z 23012KT 8SM OVC083 RMK AC8

CYQG;2013-01-03 14:37;CYQG 031437Z 25012KT 8SM -SHSN BKN084 RMK AC7

CYQG;2013-01-03 15:00;CYQG 031500Z 25013KT 8SM -SHSN FEW058 OVC085 M07/M13 A3010 RMK SC2AC6 SLP204

CYQG;2013-01-03 16:00;CYQG 031600Z 25010KT 7SM -SHSN FEW062 BKN085 M06/M11 A3011 RMK SC2AC6 SLP205

CYQG;2013-01-03 17:00;CYQG 031700Z 25010KT 7SM SCT013 OVC028 M05/M10 A3008 RMK SC3SC5 OCNL -SHSN SLP196

CYQG;2013-01-03 17:20;CYQG 031720Z 23010KT 7SM BKN014 OVC030 RMK ST6SC2

CYQG;2013-01-03 17:42;CYQG 031742Z 25013KT 6SM HZ OVC015 RMK ST8

CYQG;2013-01-03 18:00;CYQG 031800Z 24013KT 6SM HZ OVC014 M05/M09 A3006 RMK ST8 SLP188

CYQG;2013-01-03 18:23;CYQG 031823Z 25012KT 6SM HZ OVC016 RMK ST8

CYQG;2013-01-03 19:00;CYQG 031900Z 25012KT 6SM HZ OVC015 M04/M08 A3005 RMK ST8 SLP187

CYQG;2013-01-03 20:00;CYQG 032000Z 25013KT 6SM HZ OVC015 M03/M07 A3006 RMK ST8 SLP190

CYQG;2013-01-03 20:38;CYQG 032038Z 25013KT 5SM -SN HZ OVC015 RMK ST8

CYQG;2013-01-03 21:00;CYQG 032100Z 25013KT 5SM -SN HZ OVC015 M03/M06 A3007 RMK ST8 SLP195

CYQG;2013-01-03 22:00;CYQG 032200Z 24013KT 4SM -SN HZ OVC013 M02/M05 A3009 RMK ST8 SLP201

CYQG;2013-01-03 23:00;CYQG 032300Z 25012KT 4SM -SN HZ OVC013 M02/M04 A3011 RMK ST8 SLP207

CYQG;2013-01-04 00:00;CYQG 040000Z 25011KT 5SM -SN HZ OVC014 M02/M04 A3013 RMK SC8 SLP213

CYQG;2013-01-04 01:00;CYQG 040100Z 25010G15KT 5SM -SN HZ OVC015 M02/M04 A3014 RMK SC8 SLP216

CYQG;2013-01-04 02:00;CYQG 040200Z 24010KT 5SM -SN HZ OVC017 M02/M04 A3014 RMK SC8 SLP218

CYQG;2013-01-04 03:00;CYQG 040300Z 27007KT 6SM -SN HZ OVC017 M01/M04 A3014 RMK SC8 SLP217

CYQG;2013-01-04 04:00;CYQG 040400Z 27013KT 8SM -SN OVC028 M01/M06 A3015 RMK SC8 SLP219

CYQG;2013-01-04 05:00;CYQG 040500Z 25008KT 12SM -SN OVC034 M01/M06 A3014 RMK SC8 SLP215

CYQG;2013-01-04 06:00;CYQG 040600Z 23009KT 7SM -SN FEW019 OVC033 M02/M04 A3013 RMK SC2SC6 SLP211

CYQG;2013-01-04 07:00;CYQG 040700Z 24015KT 7SM -SN FEW019 OVC033 M02/M05 A3011 RMK SC2SC6 SLP206

CYQG;2013-01-04 08:00;CYQG 040800Z 24013KT 7SM -SN FEW020 OVC035 M02/M05 A3011 RMK SC1SC7 SLP204

CYQG;2013-01-04 09:00;CYQG 040900Z 24013G18KT 7SM -SN OVC026 M02/M06 A3009 RMK SC8 SLP199

CYQG;2013-01-04 10:00;CYQG 041000Z 23016G21KT 8SM -SN OVC027 M02/M06 A3008 RMK SC8 SLP195

CYQG;2013-01-04 11:00;CYQG 041100Z 23017KT 10SM -SN OVC022 M02/M06 A3008 RMK SC8 SLP195

CYQG;2013-01-04 12:00;CYQG 041200Z 24016G22KT 10SM -SN OVC023 M03/M06 A3008 RMK SC8 SLP195

CYQG;2013-01-04 12:17;CYQG 041217Z 24015G20KT 10SM BKN021 RMK SC7

CYQG;2013-01-04 13:00;CYQG 041300Z 23018KT 8SM FEW020 FEW260 M04/M07 A3009 RMK SC1CI1 SLP198

CYQG;2013-01-04 14:00;CYQG 041400Z 23021KT 12SM FEW020 M05/M08 A3008 RMK SC1 SLP195

CYQG;2013-01-04 15:00;CYQG 041500Z 24017G22KT 15SM FEW020 M05/M09 A3009 RMK SC1 TR SC SLP199

CYQG;2013-01-04 16:00;CYQG 041600Z 25016G21KT 15SM SKC M05/M09 A3009 RMK SLP199

CYQG;2013-01-04 17:00;CYQG 041700Z 25018KT 15SM SKC M04/M09 A3007 RMK SLP192

CYQG;2013-01-04 18:00;CYQG 041800Z 23018KT 15SM SKC M04/M09 A3004 RMK SLP181

CYQG;2013-01-04 19:00;CYQG 041900Z 23021G26KT 15SM SKC M03/M09 A3002 RMK SLP175

CYQG;2013-01-04 20:00;CYQG 042000Z 24020G27KT 15SM SKC M03/M08 A3002 RMK SLP174

CYQG;2013-01-04 21:00;CYQG 042100Z 24019G24KT 15SM SKC M03/M08 A3004 RMK SLP180

CYQG;2013-01-04 23:00;CYQG 042300Z 24015G21KT 15SM SKC M03/M08 A3007 RMK SLP192

CYQG;2013-01-05 00:00;CYQG 050000Z 25013KT 15SM SKC M03/M08 A3010 RMK SLP202

CYQG;2013-01-05 01:00;CYQG 050100Z 24014KT 15SM SKC M04/M08 A3012 RMK SLP208

CYQG;2013-01-05 02:00;CYQG 050200Z 25016KT 15SM SKC M04/M08 A3012 RMK SLP210

CYQG;2013-01-05 03:00;CYQG 050300Z 25012KT 15SM SKC M04/M08 A3014 RMK SLP217

CYQG;2013-01-05 04:00;CYQG 050400Z 26012KT 15SM SKC M04/M07 A3016 RMK SLP223

CYQG;2013-01-05 05:00;CYQG 050500Z 26010KT 15SM SKC M05/M07 A3017 RMK SLP227

CYQG;2013-01-05 06:00;CYQG 050600Z 27008KT 15SM SKC M04/M07 A3018 RMK SLP230

CYQG;2013-01-05 07:00;CYQG 050700Z 26008KT 15SM SKC M05/M07 A3020 RMK SLP236

CYQG;2013-01-05 08:00;CYQG 050800Z 23008KT 15SM SKC M05/M07 A3023 RMK SLP245

CYQG;2013-01-05 09:00;CYQG 050900Z 22006KT 15SM SKC M06/M08 A3024 RMK SLP252

CYQG;2013-01-05 10:00;CYQG 051000Z 26006KT 15SM SKC M06/M08 A3024 RMK SLP250

CYQG;2013-01-05 11:00;CYQG 051100Z 21007KT 15SM SKC M07/M08 A3025 RMK SLP255

CYQG;2013-01-05 12:00;CYQG 051200Z 22005KT 6SM BR SKC M07/M08 A3026 RMK SLP257

CYQG;2013-01-05 13:00;CYQG 051300Z 23008KT 5SM BR FEW270 M07/M08 A3027 RMK CI1 FROIN SLP262

CYQG;2013-01-05 14:00;CYQG 051400Z 22006KT 5SM BR BKN260 M06/M08 A3028 RMK CI5 SLP263

CYQG;2013-01-05 15:00;CYQG 051500Z 22006KT 6SM BR FEW013 BKN250 M05/M07 A3029 RMK SC1CI4 SLP266

CYQG;2013-01-05 15:25;CYQG 051525Z 23008KT 6SM BR BKN013 RMK SC7

CYQG;2013-01-05 16:00;CYQG 051600Z 23008KT 6SM HZ OVC014 M04/M06 A3028 RMK SC8 SLP265

CYQG;2013-01-05 16:35;CYQG 051635Z 22006KT 6SM HZ OVC015 RMK SC8

CYQG;2013-01-05 17:00;CYQG 051700Z 22006KT 6SM HZ OVC016 M02/M05 A3024 RMK SC8 SLP252

CYQG;2013-01-05 18:00;CYQG 051800Z 20011KT 7SM FEW016 FEW260 M02/M05 A3020 RMK SC1CI1 SLP237

CYQG;2013-01-05 19:00;CYQG 051900Z 20012KT 8SM BKN210 M02/M04 A3016 RMK CC6 SLP224

CYQG;2013-01-05 20:00;CYQG 052000Z 20015KT 8SM BKN160 M01/M05 A3015 RMK AC6 SLP221

CYQG;2013-01-05 21:00;CYQG 052100Z 19011KT 6SM HZ BKN170 M01/M05 A3013 RMK AC7 SLP212

CYQG;2013-01-05 22:00;CYQG 052200Z 20010KT 6SM HZ BKN170 BKN190 M02/M05 A3011 RMK AC6AC1 SLP206

CYQG;2013-01-05 23:00;CYQG 052300Z 19010KT 8SM OVC120 M01/M04 A3010 RMK AC8 SLP201

CYQG;2013-01-06 00:00;CYQG 060000Z 20012KT 8SM OVC081 M01/M04 A3010 RMK AC8 SLP203

CYQG;2013-01-06 01:00;CYQG 060100Z 22011KT 7SM OVC096 00/M03 A3008 RMK AC8 SLP195

CYQG;2013-01-06 01:19;CYQG 060119Z 22011KT 7SM -SN OVC056 RMK SC8

CYQG;2013-01-06 02:00;CYQG 060200Z 23011KT 7SM -SN OVC063 00/M03 A3007 RMK SC8 SLP192

CYQG;2013-01-06 02:22;CYQG 060222Z 24011KT 2 1/2SM -SN OVC015 RMK SC8

CYQG;2013-01-06 02:30;CYQG 060230Z 24012KT 1/2SM SN FG OVC003 RMK SN5SF3

CYQG;2013-01-06 02:36;CYQG 060236Z 23010KT 1SM -SN BR OVC020 RMK SN2SF6

CYQG;2013-01-06 02:47;CYQG 060247Z 23009KT 2SM -SN BR OVC008 RMK SF8

CYQG;2013-01-06 03:00;CYQG 060300Z 23008KT 2SM -SN BR OVC010 M00/M01 A3006 RMK SF8 /S01/ SLP189

CYQG;2013-01-06 03:15;CYQG 060315Z 23008KT 1 1/2SM -SN BR OVC005 RMK SF8

CYQG;2013-01-06 04:00;CYQG 060400Z 22009KT 2SM -SN BR OVC009 00/M00 A3005 RMK SF8 /S02/ SLP184

CYQG;2013-01-06 05:00;CYQG 060500Z 22010KT 2 1/2SM -SN BR OVC006 00/M00 A3004 RMK SF8 SLP181

CYQG;2013-01-06 05:46;CYQG 060546Z 22009KT 3SM -SN BR OVC010 RMK SF8

CYQG;2013-01-06 06:00;CYQG 060600Z 22011KT 3SM -SN BR OVC010 00/M01 A3001 RMK SF8 SLP170

CYQG;2013-01-06 06:41;CYQG 060641Z 22011KT 4SM BR BKN015 OVC044 RMK SC6SC2

CYQG;2013-01-06 07:00;CYQG 060700Z 22011KT 4SM BR SCT016 OVC043 01/M01 A2999 RMK SC4SC4 SLP164

CYQG;2013-01-06 08:00;CYQG 060800Z 22009KT 7SM BKN049 OVC082 01/M01 A2998 RMK SC5AC3 SLP160

CYQG;2013-01-06 09:00;CYQG 060900Z 21009KT 8SM FEW019 BKN044 OVC079 01/M01 A2995 RMK SC2SC5AC2 SLP151

CYQG;2013-01-06 10:00;CYQG 061000Z 23013KT 6SM -SN BKN018 OVC045 02/M01 A2994 RMK SC6SC2 SLP146

CYQG;2013-01-06 11:00;CYQG 061100Z 23011KT 8SM -SN BKN016 OVC061 01/M01 A2993 RMK SC6SC2 SLP142

CYQG;2013-01-06 12:00;CYQG 061200Z 22010KT 7SM -SN BKN018 OVC057 01/M01 A2993 RMK SC5SC3 SLP143

CYQG;2013-01-06 13:00;CYQG 061300Z 21009KT 8SM -SN OVC020 01/M01 A2992 RMK SC8 SLP139

CYQG;2013-01-06 13:39;CYQG 061339Z 23010KT 8SM OVC019 RMK SC8

CYQG;2013-01-06 14:00;CYQG 061400Z 23010KT 8SM OVC019 02/M01 A2993 RMK SC8 SLP143

CYQG;2013-01-06 15:00;CYQG 061500Z 21008KT 10SM OVC019 02/M01 A2994 RMK SC8 SLP146

CYQG;2013-01-06 16:00;CYQG 061600Z 21011KT 7SM -SHSN FEW016 OVC047 02/M01 A2994 RMK SC2SC6 SLP145

CYQG;2013-01-06 17:00;CYQG 061700Z 22010KT 7SM -SHSN OVC017 02/M00 A2992 RMK SC8 SLP140

CYQG;2013-01-06 18:00;CYQG 061800Z 23011KT 6SM -SHSN OVC017 02/M01 A2991 RMK SC8 SLP136

CYQG;2013-01-06 19:00;CYQG 061900Z 25014KT 6SM -SN BKN015 OVC039 02/00 A2992 RMK SC5SC3 SLP138

CYQG;2013-01-06 19:17;CYQG 061917Z 25013KT 6SM -RASN FEW014 OVC046 RMK SC2SC6

CYQG;2013-01-06 20:00;CYQG 062000Z 25013KT 6SM -RASN FEW014 OVC038 02/00 A2994 RMK SC2SC6 SLP144

CYQG;2013-01-06 20:26;CYQG 062026Z 25013KT 6SM -SN BKN011 OVC045 RMK SC6SC2

CYQG;2013-01-06 21:00;CYQG 062100Z 27013KT 4SM -SN BR OVC012 02/M00 A2998 RMK SC8 SLP159

CYQG;2013-01-06 21:28;CYQG 062128Z 27012KT 2 1/2SM -SHSN BR OVC011 RMK SC8

CYQG;2013-01-06 22:00;CYQG 062200Z 27013KT 5SM -SHSN BR BKN012 OVC025 01/M00 A3002 RMK SC5SC3 SLP172

CYQG;2013-01-06 22:44;CYQG 062244Z 28010KT 6SM BR SCT012 OVC044 RMK SC3SC5

CYQG;2013-01-06 23:00;CYQG 062300Z 28009KT 7SM FEW010 OVC047 01/M01 A3006 RMK SF2SC6 SLP185

CYQG;2013-01-07 00:00;CYQG 070000Z 29011G16KT 6SM -SHSN OVC031 01/M02 A3010 RMK SC8 SLP201

CYQG;2013-01-07 01:00;CYQG 070100Z 32009KT 10SM OVC032 01/M04 A3014 RMK SC8 SLP212

CYQG;2013-01-07 02:00;CYQG 070200Z 31007KT 12SM OVC028 01/M03 A3016 RMK SC8 SLP219

CYQG;2013-01-07 03:00;CYQG 070300Z 31008KT 10SM SCT018 OVC041 01/M03 A3018 RMK CU3SC5 SLP228

CYQG;2013-01-07 04:00;CYQG 070400Z 32009KT 10SM FEW018 OVC037 01/M03 A3021 RMK CU1SC7 SLP237

CYQG;2013-01-07 05:00;CYQG 070500Z 32007KT 8SM BKN017 OVC039 01/M03 A3025 RMK SC5SC3 SLP249

CYQG;2013-01-07 06:00;CYQG 070600Z 31005KT 10SM OVC029 01/M03 A3026 RMK SC8 SLP255

CYQG;2013-01-07 07:00;CYQG 070700Z 35003KT 10SM BKN016 OVC032 00/M02 A3029 RMK SC5SC3 SLP264

CYQG;2013-01-07 08:00;CYQG 070800Z 00000KT 10SM SCT018 OVC034 00/M03 A3031 RMK SC3SC5 SLP272

CYQG;2013-01-07 09:00;CYQG 070900Z 00000KT 10SM FEW018 OVC032 M00/M03 A3031 RMK SC2SC6 SLP270

CYQG;2013-01-07 10:00;CYQG 071000Z 25005KT 10SM FEW016 OVC031 M00/M03 A3032 RMK SC2SC6 SLP276

CYQG;2013-01-07 11:00;CYQG 071100Z 25004KT 10SM BKN031 M00/M04 A3034 RMK SC7 SLP280

CYQG;2013-01-07 12:00;CYQG 071200Z 25006KT 15SM BKN030 M00/M06 A3034 RMK SC7 SLP283

CYQG;2013-01-07 13:00;CYQG 071300Z 23005KT 12SM BKN029 BKN120 M00/M05 A3036 RMK SC7AC1 TR AC SLP288

CYQG;2013-01-07 14:00;CYQG 071400Z 24009KT 15SM BKN029 BKN260 00/M05 A3038 RMK SC7CI1 TR CI SLP295

CYQG;2013-01-07 15:00;CYQG 071500Z 23011KT 15SM FEW028 SCT250 00/M05 A3039 RMK SC1CS1 SLP298

CYQG;2013-01-07 16:00;CYQG 071600Z 23013G18KT 15SM FEW028 BKN260 01/M05 A3038 RMK SC1CI1 TR SC CONTRAILS SLP294

CYQG;2013-01-07 17:00;CYQG 071700Z 22016KT 15SM FEW022 SCT260 01/M04 A3035 RMK CU1CI1 TR CU SLP284

CYQG;2013-01-07 18:00;CYQG 071800Z 22018KT 15SM FEW020 SCT260 01/M04 A3031 RMK CU1CI1 SLP271

CYQG;2013-01-07 19:00;CYQG 071900Z 21016G21KT 15SM FEW020 FEW260 01/M03 A3029 RMK CU1CI0 CONTRAILS SLP264

CYQG;2013-01-07 20:00;CYQG 072000Z 21019G24KT 15SM FEW280 01/M04 A3025 RMK CI0 CONTRAILS SLP252

CYQG;2013-01-07 21:00;CYQG 072100Z 21019G25KT 15SM FEW280 01/M04 A3025 RMK CI1 CONTRAILS SLP250

CYQG;2013-01-07 22:00;CYQG 072200Z 21018G26KT 15SM FEW280 00/M04 A3023 RMK CI2 SLP245

CYQG;2013-01-07 23:00;CYQG 072300Z 21016G21KT 15SM FEW280 M00/M04 A3023 RMK CI1 SLP243

CYQG;2013-01-08 00:00;CYQG 080000Z 21016KT 15SM SKC M00/M04 A3022 RMK SLP241

CYQG;2013-01-08 01:00;CYQG 080100Z 21015KT 15SM SKC M01/M04 A3021 RMK SLP237

CYQG;2013-01-08 02:00;CYQG 080200Z 21013KT 15SM SKC M01/M04 A3020 RMK SLP234

CYQG;2013-01-08 03:00;CYQG 080300Z 21015KT 8SM SKC M01/M04 A3018 RMK SLP229

CYQG;2013-01-08 04:00;CYQG 080400Z 21017KT 15SM SKC M01/M04 A3016 RMK SLP220

CYQG;2013-01-08 05:00;CYQG 080500Z 22014KT 15SM SKC M01/M04 A3016 RMK SLP222

CYQG;2013-01-08 06:00;CYQG 080600Z 23012KT 15SM SKC M01/M04 A3017 RMK SLP226

CYQG;2013-01-08 07:00;CYQG 080700Z 23009KT 15SM SKC M02/M05 A3017 RMK SLP225

CYQG;2013-01-08 08:00;CYQG 080800Z 23008KT 15SM SKC M02/M05 A3018 RMK SLP227

CYQG;2013-01-08 09:00;CYQG 080900Z 23010KT 15SM SKC M02/M05 A3018 RMK SLP227

CYQG;2013-01-08 10:00;CYQG 081000Z 22007KT 15SM SKC M03/M05 A3018 RMK SLP229

CYQG;2013-01-08 11:00;CYQG 081100Z 23007KT 10SM FEW240 M03/M05 A3019 RMK CI2 SLP230

CYQG;2013-01-08 12:00;CYQG 081200Z 21006KT 8SM SCT240 M03/M06 A3020 RMK CI2 SLP235

CYQG;2013-01-08 13:00;CYQG 081300Z 22005KT 4SM HZ SCT230 BKN260 M03/M05 A3022 RMK CS1CI1 CONTRAILS SLP242

CYQG;2013-01-08 14:00;CYQG 081400Z 22005KT 4SM HZ FEW230 BKN260 M02/M04 A3024 RMK CS1CI2 CC ASOCTD SLP249

CYQG;2013-01-08 15:00;CYQG 081500Z 23005KT 5SM HZ FEW230 BKN260 M02/M04 A3024 RMK CS2CI4 SLP249

CYQG;2013-01-08 16:00;CYQG 081600Z 23008KT 5SM HZ SCT230 BKN260 M01/M04 A3025 RMK CS2CI3 SLP252

CYQG;2013-01-08 17:00;CYQG 081700Z 22009KT 5SM HZ FEW230 BKN260 00/M04 A3025 RMK CS1CI4 SLP252

CYQG;2013-01-08 18:00;CYQG 081800Z 22009KT 5SM HZ SCT230 BKN260 01/M04 A3023 RMK CS2CI3 CONTRAILS SLP243

CYQG;2013-01-08 19:00;CYQG 081900Z 20007KT 5SM HZ FEW240 OVC270 01/M03 A3022 RMK CS1CI4 CONTRAILS SLP242

CYQG;2013-01-08 20:00;CYQG 082000Z 19008KT 5SM HZ BKN240 OVC270 01/M03 A3023 RMK CS5CI2 SLP245

CYQG;2013-01-08 21:00;CYQG 082100Z 19008KT 6SM HZ OVC240 01/M03 A3023 RMK CS7 SLP245

CYQG;2013-01-08 22:00;CYQG 082200Z 19007KT 8SM BKN220 BKN250 01/M03 A3023 RMK CS4CI2 SLP245

CYQG;2013-01-08 23:00;CYQG 082300Z 19009KT 10SM BKN250 00/M03 A3023 RMK CI5 SLP245

CYQG;2013-01-09 00:00;CYQG 090000Z 21006KT 12SM BKN260 00/M03 A3023 RMK CI4 SLP247

CYQG;2013-01-09 01:00;CYQG 090100Z 19007KT 10SM BKN230 00/M03 A3023 RMK CI6 SLP245

CYQG;2013-01-09 02:00;CYQG 090200Z 20009KT 10SM SCT230 01/M03 A3022 RMK CI2 SLP242

CYQG;2013-01-09 03:00;CYQG 090300Z 18005KT 12SM FEW230 M00/M03 A3020 RMK CI1 SLP233

CYQG;2013-01-09 04:00;CYQG 090400Z 20006KT 12SM FEW230 M00/M03 A3019 RMK CI1 SLP232

CYQG;2013-01-09 05:00;CYQG 090500Z 19008KT 12SM SKC 01/M02 A3017 RMK SLP226

CYQG;2013-01-09 06:00;CYQG 090600Z 20008KT 12SM SKC 01/M02 A3016 RMK SLP221

CYQG;2013-01-09 07:00;CYQG 090700Z 19010KT 12SM SKC 00/M02 A3014 RMK SLP213

CYQG;2013-01-09 08:00;CYQG 090800Z 20009KT 10SM SKC 01/M02 A3012 RMK SLP208

CYQG;2013-01-09 09:00;CYQG 090900Z 21011KT 12SM BKN100 01/M02 A3011 RMK AC6 SLP205

CYQG;2013-01-09 10:00;CYQG 091000Z 20012KT 15SM BKN110 01/M01 A3007 RMK AC7 SLP192

CYQG;2013-01-09 11:00;CYQG 091100Z 21015KT 15SM FEW042 OVC080 03/M01 A3007 RMK SC1AC7 SLP189

CYQG;2013-01-09 11:14;CYQG 091114Z 22014KT 12SM -SHRA OVC070 RMK AC8

CYQG;2013-01-09 12:00;CYQG 091200Z 19012KT 12SM -SHRA OVC075 03/M00 A3003 RMK AC8 SLP177

CYQG;2013-01-09 12:31;CYQG 091231Z 22013KT 12SM FEW075 BKN110 BKN250 RMK AC2AC3CI1

CYQG;2013-01-09 13:00;CYQG 091300Z 21013KT 7SM FEW110 BKN230 BKN260 03/00 A3006 RMK AC2CS3CI2 SLP187

CYQG;2013-01-09 14:00;CYQG 091400Z 23013KT 10SM FEW230 FEW260 04/01 A3007 RMK CS1CI0 SLP188

CYQG;2013-01-09 15:00;CYQG 091500Z 24017G22KT 15SM FEW260 05/01 A3008 RMK CI1 TR CI SLP194

CYQG;2013-01-09 16:00;CYQG 091600Z 25018G24KT 15SM FEW260 06/01 A3010 RMK CI1 TR CI SLP200

CYQG;2013-01-09 17:00;CYQG 091700Z 26020KT 15SM FEW270 07/M00 A3011 RMK CI1 TR CI SLP202

CYQG;2013-01-09 18:00;CYQG 091800Z 25019KT 15SM FEW270 07/M01 A3010 RMK CI1 TR CI SLP197

CYQG;2013-01-09 19:00;CYQG 091900Z 25017G26KT 15SM FEW270 08/M02 A3011 RMK CI1 TR CI SLP201

CYQG;2013-01-09 20:00;CYQG 092000Z 26020G26KT 15SM FEW270 08/M02 A3014 RMK CI1 TR CI SLP210

CYQG;2013-01-09 21:00;CYQG 092100Z 27022G27KT 15SM FEW270 08/M04 A3016 RMK CI1 SLP219

CYQG;2013-01-09 22:00;CYQG 092200Z 27022KT 15SM SCT270 08/M05 A3020 RMK CI1 SLP230

CYQG;2013-01-09 23:00;CYQG 092300Z 27012KT 15SM BKN280 06/M04 A3023 RMK CI1 SLP240

CYQG;2013-01-10 00:00;CYQG 100000Z 28016G22KT 15SM SCT280 06/M05 A3028 RMK CI1 SLP260

CYQG;2013-01-10 01:00;CYQG 100100Z 29013G22KT 15SM FEW280 05/M05 A3032 RMK CI1 SLP274

CYQG;2013-01-10 02:00;CYQG 100200Z 31014G22KT 15SM SKC 04/M04 A3036 RMK SLP286

CYQG;2013-01-10 03:00;CYQG 100300Z 32007KT 15SM SKC 04/M04 A3039 RMK SLP296

CYQG;2013-01-10 04:00;CYQG 100400Z 29004KT 15SM SKC 02/M04 A3042 RMK SLP307

CYQG;2013-01-10 05:00;CYQG 100500Z 22005KT 15SM SKC 00/M04 A3045 RMK SLP316

CYQG;2013-01-10 06:00;CYQG 100600Z 22007KT 15SM SKC 00/M04 A3048 RMK SLP328

CYQG;2013-01-10 07:00;CYQG 100700Z 23007KT 15SM SKC M00/M04 A3051 RMK SLP337

CYQG;2013-01-10 08:00;CYQG 100800Z 26004KT 15SM SKC M00/M04 A3053 RMK SLP344

CYQG;2013-01-10 09:00;CYQG 100900Z 27004KT 15SM FEW270 M00/M04 A3052 RMK CI1 SLP342

CYQG;2013-01-10 10:00;CYQG 101000Z 27004KT 15SM SKC M01/M04 A3051 RMK SLP338

CYQG;2013-01-10 11:00;CYQG 101100Z 27003KT 15SM SKC M01/M04 A3053 RMK SLP344

CYQG;2013-01-10 12:00;CYQG 101200Z 00000KT 15SM FEW270 M03/M05 A3055 RMK CI1 SLP353

CYQG;2013-01-10 13:00;CYQG 101300Z 08002KT 10SM BKN270 M03/M05 A3055 RMK CI2 SLP353

CYQG;2013-01-10 14:00;CYQG 101400Z 14002KT 10SM BKN280 M03/M04 A3057 RMK CI6 CC ASOCTD SLP360

CYQG;2013-01-10 15:00;CYQG 101500Z 08002KT 12SM BKN200 BKN280 M00/M03 A3058 RMK CC5CS2 SLP364

CYQG;2013-01-10 16:00;CYQG 101600Z 11003KT 15SM BKN280 01/M02 A3058 RMK CS6 SLP363

CYQG;2013-01-10 17:00;CYQG 101700Z 08007KT 15SM BKN280 03/M01 A3053 RMK CI6 SLP347

CYQG;2013-01-10 18:00;CYQG 101800Z 11006KT 15SM FEW210 BKN280 04/M02 A3050 RMK CC2CI3 SLP337

CYQG;2013-01-10 19:00;CYQG 101900Z 13007KT 15SM BKN230 04/M01 A3048 RMK CC7 SLP328

CYQG;2013-01-10 20:00;CYQG 102000Z 13008KT 15SM BKN230 04/M02 A3047 RMK CC7 SLP324

CYQG;2013-01-10 21:00;CYQG 102100Z 12007KT 15SM BKN210 BKN260 03/M01 A3044 RMK CC6CS2 SLP316

CYQG;2013-01-10 22:00;CYQG 102200Z 10007KT 15SM BKN230 BKN260 03/M01 A3041 RMK CC6CS1 SLP307

CYQG;2013-01-10 23:00;CYQG 102300Z 10004KT 15SM SCT190 BKN230 02/M00 A3040 RMK AC4CC3 SLP303

CYQG;2013-01-11 00:00;CYQG 110000Z 09006KT 15SM OVC170 02/M00 A3038 RMK AC8 SLP295

CYQG;2013-01-11 01:00;CYQG 110100Z 11004KT 15SM OVC150 02/M00 A3036 RMK AC8 SLP291

CYQG;2013-01-11 02:00;CYQG 110200Z 09004KT 15SM -SHRA OVC110 03/00 A3033 RMK AC8 SLP279

CYQG;2013-01-11 03:00;CYQG 110300Z 08007KT 15SM -SHRA OVC094 03/00 A3028 RMK AC8 SLP262

CYQG;2013-01-11 04:00;CYQG 110400Z 08008KT 15SM BKN080 OVC110 02/00 A3023 RMK AC6AC2 OCNL -SHRA SLP244

CYQG;2013-01-11 05:00;CYQG 110500Z 09007KT 15SM -SHRA OVC052 03/00 A3019 RMK SC8 SLP232

CYQG;2013-01-11 06:00;CYQG 110600Z 14008KT 5SM -SHRA BR OVC026 03/01 A3017 RMK SC8 SLP222

CYQG;2013-01-11 07:00;CYQG 110700Z 09008KT 10SM -RA OVC043 03/01 A3012 RMK SC8 SLP207

CYQG;2013-01-11 08:00;CYQG 110800Z 10007KT 5SM -RA BR OVC032 03/02 A3010 RMK SC8 SLP200

CYQG;2013-01-11 08:08;CYQG 110808Z 10006KT 5SM RA BR OVC038 RMK SC8

CYQG;2013-01-11 08:50;CYQG 110850Z 08006KT 8SM -RA FEW024 OVC046 RMK SC1SC7

CYQG;2013-01-11 09:00;CYQG 110900Z 09006KT 12SM -RA FEW024 OVC042 03/02 A3005 RMK SC2SC6 SLP183

CYQG;2013-01-11 09:11;CYQG 110911Z 08006KT 5SM RA BR FEW024 OVC038 RMK SC1SC7

CYQG;2013-01-11 09:31;CYQG 110931Z 08006KT 12SM -RA OVC041 RMK SC8

CYQG;2013-01-11 10:00;CYQG 111000Z 09005KT 15SM OVC041 03/01 A3000 RMK SC8 SLP164

CYQG;2013-01-11 10:20;CYQG 111020Z 09007KT 15SM -RA FEW018 OVC043 RMK SC2SC6

CYQG;2013-01-11 11:00;CYQG 111100Z 10007KT 15SM -RA OVC042 03/02 A2996 RMK SC8 SLP152

CYQG;2013-01-11 12:00;CYQG 111200Z 10006KT 15SM -RA FEW036 OVC050 03/02 A2994 RMK SC2SC6 SLP145

CYQG;2013-01-11 12:35;CYQG 111235Z 13005KT 5SM RA BR OVC030 RMK SC8

CYQG;2013-01-11 13:00;CYQG 111300Z 14004KT 4SM RA BR OVC020 04/04 A2993 RMK SC8 SLP143

CYQG;2013-01-11 13:15;CYQG 111315Z 15004KT 3SM -RA BR OVC014 RMK SF8

CYQG;2013-01-11 14:00;CYQG 111400Z 14005KT 2SM -RA BR OVC005 05/05 A2990 RMK SF8 SLP132

CYQG;2013-01-11 14:24;CYQG 111424Z 15007KT 3SM BR OVC006 RMK SF8

CYQG;2013-01-11 15:00;CYQG 111500Z 14017KT 3SM BR OVC002 07/07 A2978 RMK SF8 PRESFR SLP088

CYQG;2013-01-11 15:20;CYQG 111520Z 19014G20KT 4SM BR OVC004 RMK SF8

CYQG;2013-01-11 16:00;CYQG 111600Z 19014G19KT 6SM BR OVC006 09/09 A2983 RMK SF8 SLP106

CYQG;2013-01-11 16:50;CYQG 111650Z 21010G15KT 5SM BR OVC002 RMK SF8

CYQG;2013-01-11 17:00;CYQG 111700Z 21008KT 5SM BR BKN002 OVC011 08/08 A2982 RMK SF7SC1 SLP103

CYQG;2013-01-11 17:44;CYQG 111744Z 19007KT 6SM BR FEW002 OVC013 RMK SF1SC7

CYQG;2013-01-11 18:00;CYQG 111800Z 19008KT 6SM BR OVC013 09/08 A2979 RMK SC8 SLP092

CYQG;2013-01-11 19:00;CYQG 111900Z 22011KT 8SM BKN017 12/10 A2978 RMK SC7 SLP090

CYQG;2013-01-11 20:00;CYQG 112000Z 24012G18KT 12SM BKN020 BKN250 13/11 A2980 RMK SC6CI1 SLP096

CYQG;2013-01-11 21:00;CYQG 112100Z 23017KT 12SM SCT062 BKN250 14/11 A2981 RMK SC4CI1 SLP097

CYQG;2013-01-11 22:00;CYQG 112200Z 22012KT 12SM FEW016 FEW061 BKN260 13/10 A2984 RMK CF1SC2CI1 SLP107

CYQG;2013-01-11 23:00;CYQG 112300Z 22008KT 15SM FEW015 FEW060 SCT260 11/09 A2986 RMK CF1SC2CI1 SLP113

CYQG;2013-01-12 00:00;CYQG 120000Z 21008KT 15SM FEW060 SCT260 10/08 A2987 RMK SC1CI1 SLP120

CYQG;2013-01-12 01:00;CYQG 120100Z 21008KT 15SM FEW060 BKN260 09/08 A2989 RMK SC2CI2 SLP125

CYQG;2013-01-12 02:00;CYQG 120200Z 22008KT 15SM FEW060 BKN240 08/07 A2988 RMK SC2CI2 SLP123

CYQG;2013-01-12 03:00;CYQG 120300Z 21009KT 15SM FEW060 BKN190 09/08 A2989 RMK SC2AC4 SLP126

CYQG;2013-01-12 05:00;CYQG 120500Z 20009KT 12SM BKN240 09/08 A2987 RMK CI6 SLP118

CYQG;2013-01-12 06:00;CYQG 120600Z 19008KT 12SM BKN250 08/07 A2986 RMK CI5 SLP113

CYQG;2013-01-12 07:00;CYQG 120700Z 20009KT 15SM SCT260 08/07 A2986 RMK CI2 SLP116

CYQG;2013-01-12 08:00;CYQG 120800Z 21010KT 15SM FEW250 09/07 A2987 RMK CI1 SLP117

CYQG;2013-01-12 09:00;CYQG 120900Z 21010KT 15SM OVC240 08/06 A2987 RMK CS7 SLP117

CYQG;2013-01-12 10:00;CYQG 121000Z 20009KT 15SM OVC240 08/06 A2986 RMK CS8 SLP113

CYQG;2013-01-12 11:00;CYQG 121100Z 21010KT 15SM BKN240 08/06 A2987 RMK CS6 SLP117

CYQG;2013-01-12 12:00;CYQG 121200Z 21010KT 15SM BKN240 08/07 A2987 RMK CS7 SLP117

CYQG;2013-01-12 13:00;CYQG 121300Z 22008KT 12SM FEW240 BKN280 08/07 A2989 RMK CC2CS5 SLP123

CYQG;2013-01-12 14:00;CYQG 121400Z 22010KT 12SM OVC200 08/07 A2992 RMK CS8 SLP135

CYQG;2013-01-12 15:00;CYQG 121500Z 22005KT 12SM BKN200 OVC280 09/08 A2993 RMK CS7CI1 SLP139

CYQG;2013-01-12 16:00;CYQG 121600Z 20006KT 12SM FEW220 OVC280 10/08 A2995 RMK CC2CI6 SLP144

CYQG;2013-01-12 17:00;CYQG 121700Z 22010KT 15SM OVC280 11/09 A2991 RMK CS7 CC ASOCTD SLP133

CYQG;2013-01-12 18:00;CYQG 121800Z 21009KT 15SM BKN200 OVC280 12/09 A2991 RMK CC6CS2 SLP130

CYQG;2013-01-12 19:00;CYQG 121900Z 22009KT 15SM BKN200 OVC280 13/10 A2991 RMK CC6CS2 SLP131

CYQG;2013-01-12 20:00;CYQG 122000Z 22011KT 15SM SCT190 BKN280 14/10 A2993 RMK AC4CS2 SLP139

CYQG;2013-01-12 21:00;CYQG 122100Z 21010KT 15SM SCT180 BKN260 13/11 A2994 RMK AC4CI2 SLP140

CYQG;2013-01-12 22:00;CYQG 122200Z 21010KT 12SM FEW160 BKN220 12/10 A2993 RMK AC2CI5 SLP138

CYQG;2013-01-12 23:00;CYQG 122300Z 21009KT 15SM FEW150 BKN210 12/10 A2995 RMK AC2CI6 SLP143

CYQG;2013-01-13 00:00;CYQG 130000Z 19007KT 12SM FEW150 OVC220 11/10 A2993 RMK AC2CI6 SLP139

CYQG;2013-01-13 01:00;CYQG 130100Z 17003KT 12SM OVC160 10/10 A2992 RMK AC8 SLP135

CYQG;2013-01-13 02:00;CYQG 130200Z 18002KT 8SM OVC170 09/09 A2992 RMK AC8 SLP134

CYQG;2013-01-13 03:00;CYQG 130300Z 15002KT 7SM FEW016 OVC140 09/09 A2992 RMK SC2AC6 SLP133

CYQG;2013-01-13 03:23;CYQG 130323Z 15002KT 2SM BR FEW016 OVC140 RMK SC2AC6

CYQG;2013-01-13 03:32;CYQG 130332Z 00000KT 1SM BR BKN130 RMK FG2AC5

CYQG;2013-01-13 03:45;CYQG 130345Z 00000KT 3/8SM FG BKN150 RMK FG5AC2

CYQG;2013-01-13 04:00;CYQG 130400Z 07003KT 1/4SM FG BKN026 08/08 A2987 RMK FG6SC1 SLP119

CYQG;2013-01-13 05:00;CYQG 130500Z 07005KT 1/8SM -RA FG BKN007 OVC023 09/09 A2985 RMK FG5SF1SC2 SLP112

CYQG;2013-01-13 05:11;CYQG 130511Z 02003KT 1/2SM -RA FG OVC024 RMK FG5SC3

CYQG;2013-01-13 05:22;CYQG 130522Z 01004KT 2SM -RA BR BKN024 OVC038 RMK FG4SC2SC2

CYQG;2013-01-13 06:00;CYQG 130600Z 05006KT 2SM RA BR SCT009 OVC020 09/09 A2980 RMK FG3SF1SC4 PRESFR SLP092

CYQG;2013-01-13 06:41;CYQG 130641Z 04010KT 4SM RA SCT002 OVC017 RMK SF3SC5

CYQG;2013-01-13 07:00;CYQG 130700Z 03005KT 4SM RA SCT002 OVC018 08/08 A2977 RMK SF3SC5 SLP085

CYQG;2013-01-13 07:24;CYQG 130724Z 04014KT 5SM RA BR OVC003 RMK SF8

CYQG;2013-01-13 07:45;CYQG 130745Z 03015KT 3SM RA BR OVC002 RMK SF8

CYQG;2013-01-13 08:00;CYQG 130800Z 03017KT 5SM RA BR OVC007 08/08 A2975 RMK SF8 /R10/ SLP077

CYQG;2013-01-13 08:47;CYQG 130847Z 01023G28KT 6SM -RA BR BKN010 OVC020 RERA RMK SF5SC3

CYQG;2013-01-13 09:00;CYQG 130900Z 02018G25KT 6SM -RA BR BKN012 OVC024 07/06 A2974 RERA RMK SF5SC3 SLP072

CYQG;2013-01-13 10:00;CYQG 131000Z 36014G19KT 6SM -RA BR OVC013 06/05 A2974 RMK SC8 SLP073

CYQG;2013-01-13 10:36;CYQG 131036Z 36012KT 6SM -RA BR SCT007 OVC014 RMK SF3SC5

CYQG;2013-01-13 11:00;CYQG 131100Z 35011G16KT 8SM -RA FEW007 OVC012 05/04 A2974 RMK SF2SC6 /R20/ SLP074

CYQG;2013-01-13 11:35;CYQG 131135Z 35009KT 10SM OVC015 RMK SC8

CYQG;2013-01-13 12:00;CYQG 131200Z 36008KT 15SM OVC016 05/04 A2978 RMK SC8 PRESRR SLP089

CYQG;2013-01-13 13:00;CYQG 131300Z 34005KT 15SM FEW010 OVC018 05/04 A2980 RMK SF1SC8 SLP096

CYQG;2013-01-13 14:00;CYQG 131400Z 32006KT 15SM FEW010 OVC018 05/04 A2985 RMK SF1SC7 SLP110

CYQG;2013-01-13 15:00;CYQG 131500Z 30003KT 15SM FEW010 BKN018 OVC035 05/04 A2985 RMK SF1SC6SC2 SLP113

CYQG;2013-01-13 16:00;CYQG 131600Z 21005KT 15SM OVC015 06/04 A2985 RMK SC8 SLP112

CYQG;2013-01-13 16:20;CYQG 131620Z 25006KT 6SM -DZ BR OVC013 RMK SC8

CYQG;2013-01-13 16:29;CYQG 131629Z 25007KT 3SM -DZ BR FEW008 OVC014 RMK SF2SC6

CYQG;2013-01-13 17:00;CYQG 131700Z 25007KT 4SM -DZ BR SCT008 OVC012 05/05 A2986 RMK SF4SC4 SLP114

CYQG;2013-01-13 17:18;CYQG 131718Z 27009KT 3SM -DZ BR BKN006 OVC012 RMK SF6SC2

CYQG;2013-01-13 18:00;CYQG 131800Z 33006KT 4SM -DZ BR BKN008 OVC013 05/05 A2981 RMK SF6SC2 PRESFR SLP100

CYQG;2013-01-13 18:44;CYQG 131844Z 28006KT 7SM OVC009 RMK SF8

CYQG;2013-01-13 19:00;CYQG 131900Z CCA 31008KT 7SM OVC009 05/04 A2987 RMK SF8 PRESRR SLP119

CYQG;2013-01-13 19:46;CYQG 131946Z 33006KT 7SM SCT009 OVC026 RMK SF3SC5

CYQG;2013-01-13 20:00;CYQG 132000Z 01003KT 7SM SCT008 OVC026 05/04 A2983 RMK SF4SC4 SLP106

CYQG;2013-01-13 21:00;CYQG 132100Z 33006KT 7SM OVC008 05/04 A2989 RMK SF8 PRESRR SLP126

CYQG;2013-01-13 21:26;CYQG 132126Z 33007KT 2 1/2SM -RA BR OVC008 RMK SF8

CYQG;2013-01-13 21:31;CYQG 132131Z 31007KT 1 1/2SM -RA BR OVC008 RMK SF8

CYQG;2013-01-13 22:00;CYQG 132200Z 34008KT 1 1/2SM -RA BR OVC008 05/04 A2991 RMK SF8 SLP133

CYQG;2013-01-13 22:28;CYQG 132228Z 33006KT 2 1/2SM -RA BR BKN008 OVC013 RMK SF5SC3

CYQG;2013-01-13 23:00;CYQG 132300Z 33009KT 4SM -RA BR SCT008 OVC012 04/03 A2992 RMK SF4SC4 SLP137

CYQG;2013-01-14 00:00;CYQG 140000Z 34002KT 6SM -RA BR FEW008 BKN014 OVC049 04/03 A2990 RMK SF2SC4SC2 SLP129

CYQG;2013-01-14 00:42;CYQG 140042Z 32004KT 4SM -RA BR BKN006 OVC022 RMK SF5SC3

CYQG;2013-01-14 01:00;CYQG 140100Z 32004KT 4SM -RA BR BKN006 BKN029 OVC056 03/03 A2989 RMK SF5SC2SC2 SLP128

CYQG;2013-01-14 01:32;CYQG 140132Z 28008KT 4SM -RA BR SCT008 OVC024 RMK SF3SC5

CYQG;2013-01-14 01:50;CYQG 140150Z 29007KT 3SM -RA BR BKN003 OVC029 RMK SF5SC3

CYQG;2013-01-14 02:00;CYQG 140200Z 29010KT 3SM -RA BR OVC003 03/03 A2992 RMK SF8 SLP137

CYQG;2013-01-14 02:39;CYQG 140239Z 29016KT 2 1/2SM -RA BR OVC006 RMK SF8

CYQG;2013-01-14 03:00;CYQG 140300Z 29016KT 2 1/2SM -RA BR OVC007 03/01 A2995 RMK SF8 SLP148

CYQG;2013-01-14 03:21;CYQG 140321Z 30016G21KT 2 1/4SM -RASN BR BKN007 OVC018 RMK SF6SC2

CYQG;2013-01-14 03:28;CYQG 140328Z 29013G18KT 6SM -RASN BR SCT007 BKN018 OVC041 RMK SF3SC3SC2

CYQG;2013-01-14 04:00;CYQG 140400Z 29011KT 15SM -RASN SCT026 OVC069 02/M00 A2998 RMK SC3AC5 SLP156

CYQG;2013-01-14 04:17;CYQG 140417Z 28009KT 15SM SCT014 BKN062 RMK CU3SC4

CYQG;2013-01-14 05:00;CYQG 140500Z 28013G21KT 15SM BKN015 OVC062 01/M01 A3001 RMK SC6SC2 SLP169

CYQG;2013-01-14 06:00;CYQG 140600Z 29016KT 15SM BKN016 OVC062 00/M03 A3004 RMK SC7SC1 CU ASOCTD SLP179

CYQG;2013-01-14 07:00;CYQG 140700Z 28014G21KT 15SM BKN020 M01/M05 A3008 RMK SC6 SLP191

CYQG;2013-01-14 08:00;CYQG 140800Z 27018KT 15SM BKN022 M01/M06 A3013 RMK SC7 PRESRR SLP209

CYQG;2013-01-14 09:00;CYQG 140900Z 27015G20KT 15SM BKN021 M02/M06 A3016 RMK SC7 SLP221

CYQG;2013-01-14 10:00;CYQG 141000Z 31016KT 15SM OVC019 M03/M07 A3019 RMK SC8 SLP229

CYQG;2013-01-14 11:05;CYQG 141105Z 29014G21KT 15SM -SHSN BKN020 RMK SC7

CYQG;2013-01-14 12:00;CYQG 141200Z 28012G17KT 15SM -SHSN OVC019 M04/M08 A3026 RMK SC8 SLP257

CYQG;2013-01-14 12:52;CYQG 141252Z 31008G15KT 15SM OVC021 RMK SC8

CYQG;2013-01-14 13:00;CYQG 141300Z 29010KT 15SM OVC021 M03/M08 A3029 RMK SC8 SLP265

CYQG;2013-01-14 14:00;CYQG 141400Z CCA 32009G15KT 15SM BKN020 M04/M08 A3034 RMK SC7 PRESRR SLP282

CYQG;2013-01-14 15:00;CYQG 141500Z 28009KT 15SM BKN020 M04/M08 A3037 RMK SC7 SLP293

CYQG;2013-01-14 16:00;CYQG 141600Z 30005KT 15SM BKN023 M03/M09 A3038 RMK CU7 SLP297

CYQG;2013-01-14 17:00;CYQG 141700Z 31007KT 15SM BKN024 M04/M09 A3036 RMK SC7 SLP289

CYQG;2013-01-14 18:00;CYQG 141800Z 26005KT 15SM BKN025 M03/M10 A3034 RMK SC6 SLP283

CYQG;2013-01-14 19:00;CYQG 141900Z 26005KT 15SM BKN030 M03/M09 A3034 RMK SC6 SLP284

CYQG;2013-01-14 20:00;CYQG 142000Z 27007KT 15SM BKN030 BKN250 M02/M09 A3037 RMK SC5CI1 SLP292

CYQG;2013-01-14 21:00;CYQG 142100Z 25008KT 15SM BKN033 BKN190 M02/M10 A3038 RMK SC5AC1 SLP296

CYQG;2013-01-14 22:00;CYQG 142200Z 27005KT 12SM SCT033 BKN160 M02/M10 A3041 RMK SC4AC3 SLP306

CYQG;2013-01-14 23:00;CYQG 142300Z 25008KT 15SM SCT032 OVC150 M03/M09 A3041 RMK SC3AC5 SLP307

CYQG;2013-01-15 00:00;CYQG 150000Z 27007KT 15SM BKN029 OVC150 M03/M09 A3041 RMK SC6AC2 SLP307

CYQG;2013-01-15 01:00;CYQG 150100Z 32005KT 15SM BKN025 OVC140 M03/M09 A3039 RMK SC6AC2 SLP300

CYQG;2013-01-15 02:00;CYQG 150200Z 32007KT 15SM SCT023 BKN120 M04/M09 A3039 RMK SC3AC3 SLP300

CYQG;2013-01-15 03:00;CYQG 150300Z 32005KT 15SM FEW025 SCT120 M04/M09 A3038 RMK SC2AC2 SLP300

CYQG;2013-01-15 04:00;CYQG 150400Z 36003KT 15SM FEW025 FEW120 M05/M09 A3038 RMK SC1AC1 SLP297

CYQG;2013-01-15 05:00;CYQG 150500Z 35003KT 15SM FEW120 M05/M09 A3039 RMK AC1 TR AC SLP302

CYQG;2013-01-15 06:00;CYQG 150600Z 34004KT 15SM SKC M05/M09 A3039 RMK SLP301

CYQG;2013-01-15 07:00;CYQG 150700Z 33003KT 15SM FEW100 M06/M09 A3039 RMK AC1 TR AC FROIN SLP303

CYQG;2013-01-15 08:00;CYQG 150800Z 32002KT 15SM SKC M06/M10 A3040 RMK FROIN SLP306

CYQG;2013-01-15 09:00;CYQG 150900Z 34002KT 15SM SKC M06/M10 A3040 RMK SLP304

CYQG;2013-01-15 10:00;CYQG 151000Z 33003KT 15SM SKC M06/M10 A3039 RMK FROIN SLP301

CYQG;2013-01-15 11:00;CYQG 151100Z 00000KT 12SM SKC M07/M10 A3039 RMK FROIN SLP303

CYQG;2013-01-15 12:00;CYQG 151200Z 25003KT 15SM FEW250 M07/M09 A3041 RMK CI1 TR CI FROIN SLP308

CYQG;2013-01-15 13:00;CYQG 151300Z 28003KT 15SM FEW140 FEW260 M07/M09 A3043 RMK AC1CI1 SLP314

CYQG;2013-01-15 14:00;CYQG 151400Z CCA 25003KT 15SM FEW260 M06/M09 A3043 RMK CI1 FROIN SLP316

CYQG;2013-01-15 15:00;CYQG 151500Z 00000KT 15SM BKN270 M04/M08 A3042 RMK CI2 SLP313

CYQG;2013-01-15 16:00;CYQG 151600Z 11002KT 15SM FEW025 BKN270 M03/M08 A3040 RMK CF1CI2 SLP305

CYQG;2013-01-15 17:00;CYQG 151700Z 16003KT 15SM FEW030 BKN270 M02/M08 A3040 RMK CU2CI2 SLP304

CYQG;2013-01-15 18:00;CYQG 151800Z 00000KT 15SM FEW030 BKN270 M01/M08 A3036 RMK CU2CI2 CONTRAILS SLP290

CYQG;2013-01-15 19:00;CYQG 151900Z 00000KT 15SM FEW025 OVC240 M01/M08 A3034 RMK CU2CS4 HALO SLP284

CYQG;2013-01-15 20:00;CYQG 152000Z 00000KT 15SM FEW030 FEW190 BKN240 OVC270 M01/M08 A3032 RMK SC2AC1CS3CI1 CONTRAILS SLP276

CYQG;2013-01-15 21:00;CYQG 152100Z 15004KT 15SM FEW026 OVC210 M02/M08 A3031 RMK SC1CS5 SLP275

CYQG;2013-01-15 22:00;CYQG 152200Z 15005KT 15SM FEW025 OVC140 M02/M08 A3029 RMK SC1AS7 SLP267

CYQG;2013-01-15 23:00;CYQG 152300Z 21006KT 15SM SCT120 OVC240 M02/M07 A3030 RMK AC3CS4 SLP270

CYQG;2013-01-16 00:00;CYQG 160000Z 26003KT 15SM OVC140 M02/M07 A3028 RMK AC8 SLP263

CYQG;2013-01-16 01:00;CYQG 160100Z 26003KT 15SM OVC140 M02/M07 A3027 RMK AC8 SLP260

CYQG;2013-01-16 02:00;CYQG 160200Z 00000KT 15SM OVC140 M03/M07 A3023 RMK AC8 SLP249

CYQG;2013-01-16 03:00;CYQG 160300Z 00000KT 15SM BKN140 OVC240 M03/M07 A3021 RMK AC7CS1 SLP240

CYQG;2013-01-16 04:00;CYQG 160400Z 00000KT 15SM BKN140 OVC240 M03/M07 A3017 RMK AC7CS1 SLP226

CYQG;2013-01-16 05:00;CYQG 160500Z 00000KT 15SM SCT240 M04/M06 A3014 RMK CS3 SLP215

CYQG;2013-01-16 06:00;CYQG 160600Z 00000KT 15SM FEW260 M04/M07 A3012 RMK CI2 SLP208

CYQG;2013-01-16 07:00;CYQG 160700Z 00000KT 15SM SCT240 M04/M07 A3009 RMK CI2 FROIN SLP199

CYQG;2013-01-16 08:00;CYQG 160800Z 00000KT 15SM OVC260 M04/M07 A3007 RMK CI6 FROIN SLP193

CYQG;2013-01-16 09:00;CYQG 160900Z 00000KT 15SM BKN260 M04/M07 A3005 RMK CS7 SLP185

CYQG;2013-01-16 10:00;CYQG 161000Z 00000KT 15SM BKN110 M04/M06 A3003 RMK AC7 SLP178

CYQG;2013-01-16 11:00;CYQG 161100Z 00000KT 15SM BKN120 M04/M06 A3000 RMK AC7 SLP169

CYQG;2013-01-16 12:00;CYQG 161200Z 00000KT 15SM BKN120 M03/M06 A2998 RMK AC7 BRKSINC SLP162

CYQG;2013-01-16 13:00;CYQG 161300Z 19002KT 12SM BKN120 M04/M06 A2996 RMK AC6 SLP156

CYQG;2013-01-16 14:00;CYQG 161400Z 26003KT 15SM FEW110 M03/M06 A2996 RMK AC2 SLP154

CYQG;2013-01-16 15:00;CYQG 161500Z 27004KT 15SM FEW110 FEW270 M02/M06 A2994 RMK AC1CI1 SLP146

CYQG;2013-01-16 16:00;CYQG 161600Z 25011KT 15SM FEW280 M01/M05 A2994 RMK CI1 CONTRAILS SLP146

CYQG;2013-01-16 17:00;CYQG 161700Z 25012KT 15SM FEW020 FEW280 00/M05 A2989 RMK CF1CI1 SLP132

CYQG;2013-01-16 18:00;CYQG 161800Z 23013KT 15SM FEW020 FEW280 01/M06 A2985 RMK CF1CI2 SLP115

CYQG;2013-01-16 19:00;CYQG 161900Z 24014G19KT 15SM FEW280 02/M07 A2983 RMK CI2 SLP108

CYQG;2013-01-16 20:00;CYQG 162000Z 24017G22KT 15SM FEW280 03/M08 A2982 RMK CI2 SLP105

CYQG;2013-01-16 21:00;CYQG 162100Z 24015KT 15SM FEW150 FEW280 03/M08 A2982 RMK AC1CI1 SLP105

CYQG;2013-01-16 22:00;CYQG 162200Z 24015G20KT 15SM FEW110 FEW270 02/M08 A2983 RMK AC1CI1 SLP108

CYQG;2013-01-16 23:00;CYQG 162300Z 23013G18KT 15SM BKN049 BKN080 02/M06 A2984 RMK SC6AC2 SLP113

CYQG;2013-01-17 00:00;CYQG 170000Z 23015G21KT 15SM BKN039 OVC075 02/M06 A2985 RMK SC6AC2 SLP117

CYQG;2013-01-17 01:00;CYQG 170100Z 24014G19KT 15SM BKN040 OVC070 01/M06 A2987 RMK SC6AC1 SLP124

CYQG;2013-01-17 02:00;CYQG 170200Z 25012KT 15SM OVC038 01/M06 A2990 RMK SC8 SLP132

CYQG;2013-01-17 03:00;CYQG 170300Z 25013G22KT 15SM OVC033 02/M06 A2991 RMK SC8 SLP137

CYQG;2013-01-17 04:00;CYQG 170400Z 27014KT 15SM OVC026 02/M05 A2992 RMK SC8 SLP139

CYQG;2013-01-17 05:00;CYQG 170500Z 28014G19KT 15SM OVC022 02/M04 A2994 RMK SC8 SLP147

CYQG;2013-01-17 07:00;CYQG 170700Z 28010KT 15SM OVC037 02/M03 A2999 RMK SC8 SLP164

CYQG;2013-01-17 08:00;CYQG 170800Z 27008G15KT 15SM OVC030 02/M03 A3002 RMK SC8 SLP174

CYQG;2013-01-17 09:00;CYQG 170900Z 29008KT 15SM OVC031 02/M03 A3003 RMK SC8 SLP177

CYQG;2013-01-17 10:00;CYQG 171000Z 30010KT 15SM OVC040 02/M03 A3005 RMK SC8 SLP183

CYQG;2013-01-17 11:00;CYQG 171100Z 30008KT 15SM BKN042 01/M04 A3008 RMK SC7 BRKSINC SLP193

CYQG;2013-01-17 12:00;CYQG 171200Z 32008KT 15SM FEW042 BKN280 01/M04 A3010 RMK SC1CI5 SLP201

CYQG;2013-01-17 13:00;CYQG 171300Z 32004KT 15SM FEW025 FEW045 BKN280 00/M04 A3012 RMK CF1SC1CI5 SLP206

CYQG;2013-01-17 14:00;CYQG 171400Z 34005KT 15SM FEW029 FEW045 BKN280 M00/M04 A3014 RMK CF1SC1CI5 TR CF SLP215

CYQG;2013-01-17 15:00;CYQG 171500Z 04006KT 15SM FEW045 FEW120 SCT270 M00/M05 A3017 RMK SC1AC2CI2 TR SC SLP222

CYQG;2013-01-17 16:00;CYQG 171600Z 35006KT 15SM BKN028 BKN270 00/M06 A3018 RMK SC6CI1 SLP227

CYQG;2013-01-17 17:00;CYQG 171700Z 31008KT 15SM BKN036 01/M07 A3016 RMK SC6 SLP221

CYQG;2013-01-17 18:00;CYQG 171800Z 31009KT 15SM SCT040 BKN280 02/M07 A3013 RMK SC4CI1 CONTRAILS SLP210

CYQG;2013-01-17 19:00;CYQG 171900Z 28007KT 15SM BKN046 01/M08 A3011 RMK SC7 SLP205

CYQG;2013-01-17 20:00;CYQG 172000Z CCA 32012KT 15SM FEW043 02/M07 A3009 RMK SC2 SLP198

CYQG;2013-01-17 21:00;CYQG 172100Z 31014G20KT 15SM FEW042 02/M08 A3010 RMK SC2 SLP200

CYQG;2013-01-17 22:00;CYQG 172200Z 33014KT 15SM BKN042 01/M07 A3013 RMK SC5 SLP208

CYQG;2013-01-17 23:00;CYQG 172300Z 33010KT 15SM SCT043 M00/M09 A3016 RMK SC4 SLP219

CYQG;2013-01-18 00:00;CYQG 180000Z 32014G21KT 15SM BKN037 M01/M09 A3020 RMK SC6 SLP233

CYQG;2013-01-18 00:06;CYQG 180006Z 32014G21KT 15SM -SHSN BKN038 RMK SC6

CYQG;2013-01-18 01:00;CYQG 180100Z 32018KT 15SM -SHSN BKN029 M02/M09 A3023 RMK SC6 SLP244

CYQG;2013-01-18 02:00;CYQG 180200Z 32019KT 15SM -SHSN BKN038 M04/M11 A3026 RMK SC7 SLP254

CYQG;2013-01-18 02:52;CYQG 180252Z 33014G21KT 15SM FEW041 RMK SC1

CYQG;2013-01-18 03:00;CYQG 180300Z 32014G21KT 15SM FEW041 M06/M15 A3029 RMK SC1 SLP265

CYQG;2013-01-18 04:00;CYQG 180400Z 32017G24KT 15SM FEW041 M06/M16 A3030 RMK SC1 SLP269

CYQG;2013-01-18 05:00;CYQG 180500Z 33011G24KT 15SM FEW050 M07/M15 A3030 RMK SC1 SLP271

CYQG;2013-01-18 06:00;CYQG 180600Z 33009KT 15SM FEW040 M07/M15 A3033 RMK SC1 SLP281

CYQG;2013-01-18 07:00;CYQG 180700Z 32010G15KT 15SM BKN047 M07/M14 A3037 RMK SC6 SLP294

CYQG;2013-01-18 08:00;CYQG 180800Z 31005G15KT 15SM SCT040 M08/M14 A3040 RMK SC3 SLP302

CYQG;2013-01-18 09:00;CYQG 180900Z 34003KT 15SM SCT042 M08/M13 A3041 RMK SC3 SLP306

CYQG;2013-01-18 10:00;CYQG 181000Z 00000KT 15SM BKN043 M08/M13 A3041 RMK SC7 SLP307

CYQG;2013-01-18 11:00;CYQG 181100Z 00000KT 15SM FEW040 M08/M13 A3042 RMK SC2 SLP311

CYQG;2013-01-18 12:00;CYQG 181200Z 19003KT 15SM FEW040 M08/M12 A3043 RMK SC2 SLP315

CYQG;2013-01-18 13:00;CYQG 181300Z 00000KT 15SM SCT038 BKN270 M07/M12 A3043 RMK SC3CI1 SLP316

CYQG;2013-01-18 14:00;CYQG 181400Z 21002KT 15SM FEW040 SCT180 BKN270 M06/M13 A3043 RMK SC1AC2CI1 CONTRAILS SLP316

CYQG;2013-01-18 15:00;CYQG 181500Z 20005KT 15SM BKN150 M05/M13 A3044 RMK AC7 SLP320

CYQG;2013-01-18 16:00;CYQG 181600Z 20010G15KT 15SM FEW040 SCT150 BKN280 M03/M10 A3042 RMK SC1AC4CI2 TR SC SLP312

CYQG;2013-01-18 17:00;CYQG 181700Z 21014KT 15SM BKN022 BKN130 OVC280 M02/M08 A3037 RMK SC5AC2CI2 SLP296

CYQG;2013-01-18 18:00;CYQG 181800Z 22013G19KT 12SM -SHSN FEW032 BKN065 OVC270 M02/M07 A3031 RMK CU2SC3CI2 PRESFR SLP275

CYQG;2013-01-18 18:39;CYQG 181839Z 21016KT 15SM FEW035 FEW070 SCT200 BKN280 RMK CU1AC1CC2CI2

CYQG;2013-01-18 19:00;CYQG 181900Z 21014G20KT 15SM FEW070 OVC280 M01/M08 A3026 RMK AC2CI5 PRESFR SLP258

CYQG;2013-01-18 20:00;CYQG 182000Z 21021KT 15SM BKN130 BKN280 M01/M07 A3022 RMK AC5CI1 SLP245

CYQG;2013-01-18 21:00;CYQG 182100Z 21018G30KT 15SM FEW042 FEW150 SCT280 00/M07 A3018 RMK SC1AC1CI1 SLP230

CYQG;2013-01-18 22:00;CYQG 182200Z 21019G28KT 15SM BKN150 BKN280 00/M07 A3016 RMK AC6CI1 SLP222

CYQG;2013-01-18 23:00;CYQG 182300Z 21019G24KT 15SM BKN150 01/M06 A3012 RMK AC7 SLP210

CYQG;2013-01-19 00:00;CYQG 190000Z 21021G28KT 15SM BKN160 01/M06 A3009 RMK AC7 SLP200

CYQG;2013-01-19 00:08;CYQG 190008Z 21020G32KT 15SM -SHSN BKN160 RMK AC7

CYQG;2013-01-19 01:00;CYQG 190100Z 21022G28KT 15SM -SHSN SCT100 BKN180 01/M07 A3007 RMK AC3AC4 SLP192

CYQG;2013-01-19 02:00;CYQG 190200Z 21023KT 15SM -SHSN FEW100 SCT180 01/M06 A3003 RMK AC2AC2 SLP180

CYQG;2013-01-19 02:33;CYQG 190233Z 22020G25KT 15SM FEW100 RMK AC2

CYQG;2013-01-19 03:00;CYQG 190300Z 22020G27KT 15SM FEW100 01/M06 A3003 RMK AC1 SLP179

CYQG;2013-01-19 04:00;CYQG 190400Z 22018G24KT 15SM SKC 02/M06 A3001 RMK SLP170

CYQG;2013-01-19 05:00;CYQG 190500Z 22020KT 15SM SKC 02/M06 A2998 RMK SLP162

CYQG;2013-01-19 06:00;CYQG 190600Z 22018G25KT 15SM SKC 02/M05 A2996 RMK SLP154

CYQG;2013-01-19 07:00;CYQG 190700Z 22019KT 15SM SKC 03/M05 A2995 RMK SLP151

CYQG;2013-01-19 08:00;CYQG 190800Z 22017KT 15SM SKC 03/M05 A2995 RMK SLP149

CYQG;2013-01-19 09:00;CYQG 190900Z 23016KT 15SM SKC 03/M04 A2995 RMK SLP148

CYQG;2013-01-19 10:00;CYQG 191000Z 23016G21KT 15SM SKC 03/M04 A2994 RMK SLP144

CYQG;2013-01-19 11:00;CYQG 191100Z 23019KT 15SM SKC 03/M04 A2994 RMK SLP145

CYQG;2013-01-19 12:00;CYQG 191200Z 22015G20KT 15SM SCT210 03/M04 A2994 RMK CI2 SLP146

CYQG;2013-01-19 13:00;CYQG 191300Z 23013G19KT 15SM BKN200 03/M04 A2994 RMK CC6 SLP145

CYQG;2013-01-19 14:00;CYQG 191400Z 23016KT 15SM BKN210 04/M04 A2995 RMK CC6 SLP148

CYQG;2013-01-19 15:00;CYQG 191500Z 23017KT 15SM BKN230 04/M03 A2995 RMK CC6 SLP150

CYQG;2013-01-19 16:00;CYQG 191600Z 23018KT 15SM BKN170 BKN230 05/M03 A2994 RMK AC5CC2 SLP145

CYQG;2013-01-19 17:00;CYQG 191700Z 23013G21KT 15SM FEW170 BKN210 06/M02 A2990 RMK AC2CC5 CONTRAILS SLP132

CYQG;2013-01-19 18:00;CYQG 191800Z 23020KT 15SM FEW170 BKN220 07/M02 A2985 RMK AC2CC4 PRESFR SLP112

CYQG;2013-01-19 19:00;CYQG 191900Z 21015G20KT 15SM SCT170 BKN220 07/M01 A2981 RMK AC3CC4 SLP101

CYQG;2013-01-19 20:00;CYQG 192000Z 22016G22KT 15SM FEW160 BKN220 BKN280 08/M01 A2979 RMK AC2CC2CI2 CONTRAILS SLP093

CYQG;2013-01-19 21:00;CYQG 192100Z 22015KT 15SM SCT160 BKN220 BKN280 07/M00 A2975 RMK AC3CC2CI1 SLP079

CYQG;2013-01-19 22:00;CYQG 192200Z 22013G19KT 15SM BKN160 BKN270 07/M00 A2974 RMK AC6CI1 SLP076

CYQG;2013-01-19 23:00;CYQG 192300Z 22010KT 15SM OVC150 07/M00 A2975 RMK AC8 SLP078

CYQG;2013-01-20 00:00;CYQG 200000Z 23020G26KT 15SM SCT100 OVC140 08/00 A2972 RMK AC3AS5 SLP068

CYQG;2013-01-20 00:35;CYQG 200035Z 23023KT 15SM -SHSN BKN100 OVC140 RMK AC6AS2

CYQG;2013-01-20 01:00;CYQG 200100Z 23026G33KT 15SM -SHSN SCT100 BKN150 08/00 A2970 RMK AC3AS3 SLP063

CYQG;2013-01-20 01:48;CYQG 200148Z 23023G28KT 15SM SCT150 BKN260 RMK AS3CI2

CYQG;2013-01-20 02:00;CYQG 200200Z 22023G33KT 15SM FEW150 SCT260 08/00 A2964 RMK AS2CI0 PRESFR SLP044

CYQG;2013-01-20 03:00;CYQG 200300Z 23022G31KT 15SM FEW100 07/01 A2963 RMK AC1 SLP037

CYQG;2013-01-20 04:00;CYQG 200400Z 24018G24KT 15SM FEW100 07/01 A2960 RMK AC1 SLP028

CYQG;2013-01-20 05:00;CYQG 200500Z 23019G25KT 15SM FEW100 06/01 A2958 RMK AC1 SLP020

CYQG;2013-01-20 06:00;CYQG 200600Z 24019KT 15SM BKN097 06/01 A2956 RMK AC5 SLP014

CYQG;2013-01-20 07:00;CYQG 200700Z 27036G41KT 15SM BKN057 06/M05 A2958 RMK SC5 SLP019

CYQG;2013-01-20 08:00;CYQG 200800Z 27037G46KT 15SM SCT064 04/M08 A2963 RMK SC4 PRESRR SLP036

CYQG;2013-01-20 09:00;CYQG 200900Z 28029G41KT 15SM FEW067 04/M08 A2973 RMK AC2 PRESRR SLP073

CYQG;2013-01-20 10:00;CYQG 201000Z 30022G33KT 15SM SCT035 M04/M13 A2981 RMK SC3 PRESRR SLP101

CYQG;2013-01-20 11:00;CYQG 201100Z 29030G35KT 15SM FEW041 M05/M14 A2985 RMK SC2 SLP114

CYQG;2013-01-20 12:00;CYQG 201200Z 29028G38KT 15SM BKN039 M06/M14 A2992 RMK SC6 SLP139

CYQG;2013-01-20 13:00;CYQG 201300Z 30016G26KT 15SM OVC039 M06/M14 A2999 RMK SC8 SLP161

CYQG;2013-01-20 14:00;CYQG 201400Z 29017G30KT 15SM VCSH BKN042 M07/M15 A3005 RMK SC6 PRESRR SLP181

CYQG;2013-01-20 15:00;CYQG 201500Z 29021G26KT 15SM FEW035 SCT280 M07/M16 A3009 RMK SC1CI2 SLP197

CYQG;2013-01-20 16:00;CYQG 201600Z 29013G22KT 15SM FEW035 SCT280 M06/M16 A3011 RMK SC1CI1 SLP203

CYQG;2013-01-20 17:00;CYQG 201700Z 27015G22KT 15SM FEW020 FEW035 SCT280 M05/M15 A3011 RMK CF1SC2CI1 TR CF SLP205

CYQG;2013-01-20 18:00;CYQG 201800Z 29015G20KT 15SM BKN039 BKN280 M05/M14 A3012 RMK SC5CI1 SLP206

CYQG;2013-01-20 19:00;CYQG 201900Z 30013KT 15SM BKN039 BKN280 M05/M14 A3010 RMK SC5CI1 SLP200

CYQG;2013-01-20 20:00;CYQG 202000Z 27009G15KT 15SM BKN042 BKN280 M05/M14 A3012 RMK SC5CI2 SLP206

CYQG;2013-01-20 21:00;CYQG 202100Z 29015KT 15SM BKN043 BKN270 M05/M14 A3013 RMK SC5CI2 SLP212

CYQG;2013-01-20 22:00;CYQG 202200Z 30012KT 15SM BKN037 BKN270 M06/M15 A3014 RMK SC6CI0 SLP215

CYQG;2013-01-20 23:00;CYQG 202300Z 27014KT 15SM BKN040 M06/M15 A3016 RMK SC6 SLP221

CYQG;2013-01-21 00:00;CYQG 210000Z 29013KT 15SM BKN037 M06/M15 A3016 RMK SC7 SLP224

CYQG;2013-01-21 01:00;CYQG 210100Z 30014KT 15SM BKN035 M07/M15 A3017 RMK SC7 SLP227

CYQG;2013-01-21 01:23;CYQG 210123Z 30013KT 15SM -SHSN BKN038 RMK SC7

CYQG;2013-01-21 02:00;CYQG 210200Z 30010KT 15SM -SHSN BKN035 M07/M15 A3017 RMK SC7 SLP226

CYQG;2013-01-21 03:00;CYQG 210300Z 27013KT 15SM -SHSN BKN039 M07/M16 A3017 RMK SC7 SLP227

CYQG;2013-01-21 03:24;CYQG 210324Z 31010G15KT 15SM BKN038 RMK SC7

CYQG;2013-01-21 03:40;CYQG 210340Z 31012KT 15SM -SHSN BKN036 RMK SC7

CYQG;2013-01-21 04:00;CYQG 210400Z 32011KT 15SM -SHSN BKN035 M08/M15 A3016 RMK SC7 SLP225

CYQG;2013-01-21 05:00;CYQG 210500Z 30009KT 15SM -SHSN BKN035 M08/M15 A3014 RMK SC7 SLP220

CYQG;2013-01-21 06:00;CYQG 210600Z 31007KT 15SM BKN037 M08/M15 A3011 RMK SC6 OCNL -SHSN SLP209

CYQG;2013-01-21 07:00;CYQG 210700Z 28005KT 15SM BKN042 BKN110 M08/M15 A3010 RMK SC5AC2 SLP204

CYQG;2013-01-21 08:00;CYQG 210800Z 28006KT 15SM BKN044 M08/M15 A3010 RMK SC7 SLP203

CYQG;2013-01-21 09:00;CYQG 210900Z 00000KT 15SM BKN052 BKN096 M08/M15 A3007 RMK SC6AC2 SLP194

CYQG;2013-01-21 10:00;CYQG 211000Z 00000KT 15SM SCT050 BKN091 M08/M14 A3004 RMK SC3AC4 SLP186

CYQG;2013-01-21 11:00;CYQG 211100Z 20006KT 15SM -SHSN SCT031 OVC057 M08/M14 A3002 RMK SC3SC5 SLP179

CYQG;2013-01-21 12:00;CYQG 211200Z 22008KT 15SM -SHSN SCT031 OVC059 M07/M12 A3001 RMK SC3SC5 SLP173

CYQG;2013-01-21 13:00;CYQG 211300Z 23009KT 8SM -SHSN SCT024 OVC058 M07/M11 A3000 RMK SC3SC5 SLP169

CYQG;2013-01-21 14:00;CYQG 211400Z 25011KT 6SM -SHSN BKN025 OVC060 M07/M10 A2998 RMK SC6SC2 SLP164

CYQG;2013-01-21 14:23;CYQG 211423Z 24012KT 2 1/4SM -SN OVC016 RMK SN1SC7

CYQG;2013-01-21 14:51;CYQG 211451Z 24013KT 3SM -SN BKN017 RMK SC7

CYQG;2013-01-21 15:00;CYQG 211500Z 24011KT 2SM -SN OVC016 M07/M10 A2998 RMK SN1SC7 SLP163

CYQG;2013-01-21 15:27;CYQG 211527Z 30015KT 1/2SM SN OVC013 RMK SN5SC3

CYQG;2013-01-21 15:40;CYQG 211540Z 30011KT 1SM -SN FEW006 BKN013 RMK SN1SF2SC5

CYQG;2013-01-21 15:50;CYQG 211550Z 31011KT 2 1/2SM -SN FEW006 SCT016 RMK SN1SF2SC2

CYQG;2013-01-21 16:05;CYQG 211605Z 32009KT 8SM -SN FEW006 BKN016 RMK SF1SC6

CYQG;2013-01-21 17:00;CYQG 211700Z 29009KT 6SM -SN OVC022 M08/M12 A2995 RMK SC8 SLP155

CYQG;2013-01-21 17:11;CYQG 211711Z 32011KT 2 1/4SM -SN OVC022 RMK SN1SC7

CYQG;2013-01-21 17:33;CYQG 211733Z 29012KT 1SM -SN OVC021 RMK SN2SC6

CYQG;2013-01-21 17:51;CYQG 211751Z 30013KT 1 1/2SM -SN OVC017 RMK SN2SC6

CYQG;2013-01-21 18:00;CYQG 211800Z 29012KT 3SM -SN OVC018 M09/M12 A2994 RMK SC8 /S02/ SLP151

CYQG;2013-01-21 18:28;CYQG 211828Z 31013KT 1SM -SN OVC024 RMK SN2SC6

CYQG;2013-01-21 18:36;CYQG 211836Z 30011G17KT 7SM -SN OVC024 RMK SC8

CYQG;2013-01-21 19:00;CYQG 211900Z 30012G17KT 10SM -SN BKN028 M08/M14 A2994 RMK SC6 SLP150

CYQG;2013-01-21 19:41;CYQG 211941Z 31009G17KT 1 1/2SM -SN OVC024 RMK SN2SC6

CYQG;2013-01-21 19:50;CYQG 211950Z 31011KT 3SM -SN OVC023 RMK SC8

CYQG;2013-01-21 20:00;CYQG 212000Z 31013KT 8SM -SN BKN024 BKN036 M09/M14 A2995 RMK SC6SC2 SLP153

CYQG;2013-01-21 20:35;CYQG 212035Z 31013G18KT 12SM BKN036 RMK SC7 CU ASOCTD

CYQG;2013-01-21 21:00;CYQG 212100Z 30012G21KT 10SM -SHSN BKN031 BKN063 BKN250 M09/M14 A2998 RMK SC5SC1CI1 CU ASOCTD SLP164

CYQG;2013-01-21 21:24;CYQG 212124Z 29017G22KT 10SM BKN038 BKN079 BKN250 RMK SC5AC1CI0

CYQG;2013-01-21 22:00;CYQG 212200Z 29014KT 15SM SCT039 SCT250 M10/M17 A3001 RMK SC3CI1 SLP173

CYQG;2013-01-21 23:00;CYQG 212300Z 27017KT 15SM FEW044 FEW250 M11/M18 A3001 RMK SC2CI0 CU ASOCTD SLP176

CYQG;2013-01-21 23:16;CYQG 212316Z 28020KT 5SM -SHSN BKN040 BKN250 RMK SC5CI1 VIS E 12

CYQG;2013-01-21 23:50;CYQG 212350Z 28012G20KT 12SM FEW040 BKN250 RMK SC2CI1

CYQG;2013-01-22 00:00;CYQG 220000Z 28012G20KT 15SM FEW040 SCT250 M11/M18 A3003 RMK SC2CI1 SLP182

CYQG;2013-01-22 01:00;CYQG 220100Z 28016G26KT 10SM FEW036 SCT250 M12/M18 A3005 RMK SC2CI1 SLP188

CYQG;2013-01-22 01:30;CYQG 220130Z 27013KT 10SM -SHSN BKN033 RMK SC5

CYQG;2013-01-22 02:00;CYQG 220200Z 28012G20KT 12SM FEW035 M13/M19 A3007 RMK SC2 OCNL -SHSN SLP194

CYQG;2013-01-22 02:08;CYQG 220208Z 29016G22KT 15SM FEW035 RMK SC2

CYQG;2013-01-22 03:00;CYQG 220300Z 31014KT 12SM SCT038 M13/M19 A3008 RMK SC4 SLP201

CYQG;2013-01-22 03:07;CYQG 220307Z 30013KT 8SM -SHSN BKN039 RMK SC6

CYQG;2013-01-22 03:52;CYQG 220352Z 29016KT 15SM FEW039 RMK SC2

CYQG;2013-01-22 04:00;CYQG 220400Z 30016KT 15SM FEW039 M14/M20 A3009 RMK SC2 SLP204

CYQG;2013-01-22 05:00;CYQG 220500Z 29012G20KT 15SM FEW039 BKN210 M14/M22 A3010 RMK SC2CI2 SLP206

CYQG;2013-01-22 06:00;CYQG 220600Z 28012G21KT 15SM FEW047 SCT210 M15/M23 A3010 RMK SC1CI2 SLP207

CYQG;2013-01-22 07:00;CYQG 220700Z 28014G21KT 15SM FEW045 BKN210 M15/M24 A3012 RMK SC1CI5 SLP213

CYQG;2013-01-22 08:00;CYQG 220800Z 28012G17KT 15SM BKN210 M15/M24 A3013 RMK CI6 SLP217

CYQG;2013-01-22 09:00;CYQG 220900Z 29015G20KT 15SM FEW030 BKN210 M16/M25 A3014 RMK SC2CI6 SLP221

CYQG;2013-01-22 10:00;CYQG 221000Z 29013KT 15SM SCT028 BKN210 M16/M23 A3017 RMK SC3CI2 SLP229

CYQG;2013-01-22 11:00;CYQG 221100Z 29017KT 15SM FEW023 BKN210 M17/M27 A3019 RMK SC2CI3 SLP236

CYQG;2013-01-22 12:00;CYQG 221200Z 29013G18KT 15SM FEW025 BKN210 M17/M27 A3021 RMK SC2CI3 SLP245

CYQG;2013-01-22 13:00;CYQG 221300Z 28009KT 15SM FEW046 FEW210 M17/M26 A3023 RMK SC1CI1 SLP252

CYQG;2013-01-22 14:00;CYQG 221400Z 28011KT 15SM FEW046 FEW220 M17/M25 A3025 RMK SC1CI1 SLP259

CYQG;2013-01-22 15:00;CYQG 221500Z 29013KT 15SM FEW046 SCT220 M16/M25 A3027 RMK SC2CI1 SLP266

CYQG;2013-01-22 16:00;CYQG 221600Z 30011KT 15SM FEW045 SCT250 M15/M24 A3028 RMK SC2CI1 SLP269

CYQG;2013-01-22 17:00;CYQG 221700Z 29016KT 15SM FEW040 BKN260 M14/M24 A3026 RMK CU2CI2 SLP263

CYQG;2013-01-22 18:00;CYQG 221800Z 27014G21KT 15SM SCT034 BKN260 M13/M23 A3024 RMK CU4CI2 SLP255

CYQG;2013-01-22 19:00;CYQG 221900Z 26017KT 15SM VCSH BKN038 M13/M22 A3022 RMK CU6 SLP250

CYQG;2013-01-22 19:53;CYQG 221953Z 27019G26KT 12SM -SHSN BKN036 BKN270 RMK SC6CI1

CYQG;2013-01-22 20:00;CYQG 222000Z 28018G26KT 12SM -SHSN BKN035 M13/M21 A3023 RMK SC7 SLP254

CYQG;2013-01-22 21:00;CYQG 222100Z 27014G20KT 12SM -SHSN BKN035 M12/M21 A3023 RMK SC6 SLP254

CYQG;2013-01-22 22:00;CYQG 222200Z 27012G17KT 12SM FEW036 BKN053 M12/M21 A3023 RMK SC2SC3 OCNL -SHSN SLP254

CYQG;2013-01-22 23:00;CYQG 222300Z 27006KT 12SM -SHSN BKN046 M12/M19 A3024 RMK SC7 SLP257

CYQG;2013-01-23 00:00;CYQG 230000Z 26009KT 12SM -SHSN OVC046 M12/M19 A3025 RMK SC8 SLP260

CYQG;2013-01-23 01:00;CYQG 230100Z 28011G17KT 7SM -SHSN OVC035 M12/M18 A3026 RMK SF8 SLP261

CYQG;2013-01-23 02:00;CYQG 230200Z 28011G17KT 10SM -SHSN BKN035 M13/M19 A3025 RMK SF6 SLP260

CYQG;2013-01-23 03:00;CYQG 230300Z 29012KT 7SM -SHSN BKN028 OVC050 M12/M18 A3025 RMK SF7SC1 SLP259

CYQG;2013-01-23 03:48;CYQG 230348Z 29008KT 2SM -SHSN OVC013 RMK SC8

CYQG;2013-01-23 03:56;CYQG 230356Z 29008KT 1SM -SHSN OVC005 RMK SC8

CYQG;2013-01-23 04:00;CYQG 230400Z 25008KT 1/2SM SHSN OVC004 M13/M16 A3025 RMK SN4SF4 SLP260

CYQG;2013-01-23 04:24;CYQG 230424Z 26008KT 3/8SM SHSN VV003 RMK SN8

CYQG;2013-01-23 04:51;CYQG 230451Z 29010KT 3SM -SHSN OVC016 RESN RMK SC8

CYQG;2013-01-23 05:00;CYQG 230500Z 29008KT 3SM -SHSN OVC016 M14/M16 A3026 RESN RMK SC8 SLP263

CYQG;2013-01-23 05:48;CYQG 230548Z 28007KT 1 1/2SM -SHSN OVC005 RMK SF8

CYQG;2013-01-23 06:00;CYQG 230600Z 28008KT 2SM -SHSN OVC007 M13/M16 A3026 RMK SC8 /S03/ SLP264

CYQG;2013-01-23 07:00;CYQG 230700Z 29010KT 2 1/2SM -SHSN OVC009 M14/M17 A3026 RMK SC8 SLP264

CYQG;2013-01-23 07:18;CYQG 230718Z 28007KT 8SM -SHSN OVC054 RMK SC8

CYQG;2013-01-23 08:00;CYQG 230800Z 29008KT 12SM -SHSN OVC051 M14/M19 A3027 RMK SC8 SLP266

CYQG;2013-01-23 09:00;CYQG 230900Z 29005KT 15SM -SHSN OVC048 M16/M21 A3026 RMK SC8 SLP264

CYQG;2013-01-23 09:21;CYQG 230921Z 28006KT 15SM OVC046 RMK SC8

CYQG;2013-01-23 10:00;CYQG 231000Z 26005KT 15SM FEW045 M17/M21 A3026 RMK SC2 SLP262

CYQG;2013-01-23 11:00;CYQG 231100Z 25004KT 15SM FEW045 BKN160 M16/M20 A3026 RMK SC1AC5 SLP263

CYQG;2013-01-23 12:00;CYQG 231200Z 24005KT 15SM BKN150 M16/M19 A3026 RMK AC5 SLP263

CYQG;2013-01-23 13:00;CYQG 231300Z 24006KT 15SM BKN130 M15/M18 A3026 RMK AC6 SLP262

CYQG;2013-01-23 14:00;CYQG 231400Z 24006KT 12SM SCT049 BKN130 M14/M18 A3026 RMK SC3AC3 SLP261

CYQG;2013-01-23 15:00;CYQG 231500Z 23007KT 15SM BKN052 BKN130 M13/M19 A3026 RMK SC6AC1 SLP262

CYQG;2013-01-23 16:00;CYQG 231600Z 24006KT 15SM BKN056 M12/M19 A3025 RMK SC7 SLP259

CYQG;2013-01-23 17:00;CYQG 231700Z 22009KT 7SM -SHSN BKN054 M11/M17 A3023 RMK SC7 SLP253

CYQG;2013-01-23 18:00;CYQG 231800Z 23009KT 5SM -SHSN FEW018 OVC034 M10/M19 A3018 RMK SC2SC6 SLP233

CYQG;2013-01-23 19:00;CYQG 231900Z 24012KT 5SM -SHSN FEW019 OVC031 M10/M13 A3014 RMK SC2SC6 SLP222

CYQG;2013-01-23 19:06;CYQG 231906Z 23011KT 2 1/2SM -SHSN OVC021 RMK SC8

CYQG;2013-01-23 19:42;CYQG 231942Z 22009KT 1 1/2SM -SHSN OVC017 RMK SN1SC7

CYQG;2013-01-23 20:00;CYQG 232000Z 22010KT 2 1/4SM -SHSN BKN016 OVC030 M09/M12 A3013 RMK SN1SC4SC3 SLP216

CYQG;2013-01-23 20:42;CYQG 232042Z 23012KT 4SM -SHSN BKN019 BKN035 RMK SC6SC2

CYQG;2013-01-23 21:00;CYQG 232100Z 23013KT 5SM -SHSN FEW035 OVC200 M09/M13 A3011 RMK SC2CI2 SLP210

CYQG;2013-01-23 21:53;CYQG 232153Z 24011KT 8SM SCT035 BKN200 RMK SC3CC2

CYQG;2013-01-23 22:00;CYQG 232200Z 23010KT 8SM SCT035 BKN200 M09/M14 A3010 RMK SC3CC2 SLP206

CYQG;2013-01-23 23:00;CYQG 232300Z 23008KT 15SM FEW042 BKN120 M09/M14 A3009 RMK SC2AC6 SLP204

CYQG;2013-01-24 00:00;CYQG 240000Z 23008KT 15SM OVC120 M09/M14 A3009 RMK AC8 SLP204

CYQG;2013-01-24 00:29;CYQG 240029Z 23010KT 5SM -SHSN OVC020 RMK SC8

CYQG;2013-01-24 01:00;CYQG 240100Z 25009KT 5SM -SHSN OVC021 M09/M14 A3009 RMK SF8 SLP203

CYQG;2013-01-24 02:00;CYQG 240200Z 23008KT 4SM -SHSN OVC030 M10/M12 A3008 RMK SF8 SLP201

CYQG;2013-01-24 03:00;CYQG 240300Z 25007KT 3SM -SHSN OVC039 M10/M11 A3008 RMK SF8 /S01/ SLP200

CYQG;2013-01-24 04:00;CYQG 240400Z 26005KT 3SM -SHSN FEW013 OVC027 M10/M11 A3008 RMK SF2SC6 SLP199

CYQG;2013-01-24 05:00;CYQG 240500Z 30008KT 3SM -SHSN BKN018 OVC039 M09/M11 A3009 RMK SC5SC3 SLP204

CYQG;2013-01-24 05:11;CYQG 240511Z 30007KT 2 1/2SM -SN BKN012 OVC027 RMK SF5SC3

CYQG;2013-01-24 05:29;CYQG 240529Z 32008KT 3SM -SN BKN016 OVC039 RMK SF5SC3

CYQG;2013-01-24 06:00;CYQG 240600Z 33009KT 3SM -SN BKN016 OVC040 M10/M12 A3010 RMK SC5SC3 SLP207

CYQG;2013-01-24 07:00;CYQG 240700Z 34008KT 5SM -SN SCT020 OVC051 M10/M12 A3014 RMK SC3SC5 SLP221

CYQG;2013-01-24 07:44;CYQG 240744Z 35009KT 12SM FEW020 SCT050 RMK SC1SC3

CYQG;2013-01-24 08:00;CYQG 240800Z 34009KT 12SM FEW050 M10/M13 A3019 RMK SC2 SLP236

CYQG;2013-01-24 09:00;CYQG 240900Z 33010G18KT 15SM FEW050 SCT200 M10/M14 A3023 RMK SC1CI2 SLP251

CYQG;2013-01-24 10:00;CYQG 241000Z 34012G17KT 15SM SCT200 M11/M14 A3027 RMK CI3 SLP264

CYQG;2013-01-24 10:31;CYQG 241031Z 32010G16KT 12SM -SHSN BKN044 BKN190 RMK SC5AC1

CYQG;2013-01-24 11:00;CYQG 241100Z 33010G17KT 6SM -SHSN BKN020 BKN048 M11/M14 A3032 RMK SC6SC2 SLP279

CYQG;2013-01-24 11:37;CYQG 241137Z 34009KT 2 1/2SM -SHSN OVC034 RMK SC8

CYQG;2013-01-24 11:47;CYQG 241147Z 34009KT 1SM -SHSN BKN007 OVC019 RMK SF6SC2

CYQG;2013-01-24 12:00;CYQG 241200Z 34009KT 1SM -SHSN OVC006 M10/M12 A3037 RMK SF8 SLP297

CYQG;2013-01-24 12:11;CYQG 241211Z 34008KT 2SM -SHSN FEW006 OVC020 RMK SN2SF1SC6

CYQG;2013-01-24 12:32;CYQG 241232Z 36011KT 6SM -SHSN FEW007 BKN035 RMK SF2SC5

CYQG;2013-01-24 13:00;CYQG 241300Z 01010KT 4SM -SHSN FEW018 BKN041 M10/M13 A3042 RMK SC2SC6 VIS E-S 1 SLP316

CYQG;2013-01-24 13:48;CYQG 241348Z 34007KT 15SM VCSH FEW041 SCT260 RMK SC2CI2

CYQG;2013-01-24 14:00;CYQG 241400Z 34010KT 15SM VCSH FEW023 FEW038 SCT260 M11/M14 A3047 RMK SC1SC2CI1 SLP331

CYQG;2013-01-24 15:00;CYQG 241500Z 01009KT 15SM FEW022 FEW035 M10/M14 A3050 RMK SC1SC1 SLP344

CYQG;2013-01-24 16:00;CYQG 241600Z 34011KT 15SM FEW037 FEW150 M09/M15 A3055 RMK SC1AC1 SLP359

CYQG;2013-01-24 17:00;CYQG 241700Z 36009KT 15SM FEW040 FEW180 M08/M16 A3056 RMK CU1AC1 SLP361

CYQG;2013-01-24 18:00;CYQG 241800Z 01007KT 15SM FEW038 FEW190 M08/M15 A3054 RMK CU2AC1 SLP355

CYQG;2013-01-24 19:00;CYQG 241900Z 36004KT 15SM FEW041 FEW190 M07/M17 A3054 RMK CU1AC1 SLP354

CYQG;2013-01-24 20:00;CYQG 242000Z 31007KT 15SM FEW043 FEW210 M07/M18 A3054 RMK CF1CI1 CONTRAILS SLP354

CYQG;2013-01-24 21:00;CYQG 242100Z 29005KT 15SM FEW043 FEW210 M07/M18 A3054 RMK CF1CI1 TRACE CF SLP356

CYQG;2013-01-24 22:00;CYQG 242200Z 10007KT 15SM SCT280 M09/M15 A3055 RMK CI3 SLP359

CYQG;2013-01-24 23:00;CYQG 242300Z 09004KT 15SM BKN280 M10/M16 A3056 RMK CI2 SLP360

CYQG;2013-01-25 00:00;CYQG 250000Z 10003KT 15SM BKN280 M11/M16 A3056 RMK CI2 SLP363

CYQG;2013-01-25 01:00;CYQG 250100Z 08003KT 15SM OVC280 M11/M16 A3055 RMK CS2 HALO SLP359

CYQG;2013-01-25 02:00;CYQG 250200Z 09004KT 15SM OVC280 M10/M15 A3053 RMK CS8 MOON VSBL SLP353

CYQG;2013-01-25 03:00;CYQG 250300Z 12003KT 15SM OVC200 M11/M16 A3052 RMK CS8 SLP350

CYQG;2013-01-25 04:00;CYQG 250400Z 09004KT 15SM OVC160 M11/M15 A3051 RMK AC8 SLP347

CYQG;2013-01-25 05:00;CYQG 250500Z 12003KT 15SM OVC150 M10/M15 A3050 RMK AC8 SLP343

CYQG;2013-01-25 06:00;CYQG 250600Z 10003KT 15SM OVC130 M10/M14 A3048 RMK AC8 SLP335

CYQG;2013-01-25 07:00;CYQG 250700Z 09004KT 15SM OVC100 M10/M15 A3046 RMK AC8 SLP327

CYQG;2013-01-25 08:00;CYQG 250800Z 12003KT 15SM OVC097 M10/M14 A3044 RMK AC8 SLP321

CYQG;2013-01-25 09:00;CYQG 250900Z 14003KT 15SM OVC100 M10/M13 A3040 RMK AC8 SLP307

CYQG;2013-01-25 10:00;CYQG 251000Z 13003KT 15SM OVC054 M10/M16 A3036 RMK SC8 SLP295

CYQG;2013-01-25 11:00;CYQG 251100Z 12005KT 15SM OVC057 M09/M12 A3031 RMK SC8 PRESFR SLP277

CYQG;2013-01-25 12:00;CYQG 251200Z 11004KT 15SM OVC046 M09/M13 A3029 RMK SC8 SLP270

CYQG;2013-01-25 13:00;CYQG 251300Z 15004KT 12SM OVC080 M08/M12 A3026 RMK AS8 SLP259

CYQG;2013-01-25 14:05;CYQG 251405Z 14004KT 7SM -SN OVC060 RMK SC8

CYQG;2013-01-25 15:00;CYQG 251500Z 16009KT 8SM -SN FEW060 OVC080 M07/M13 A3020 RMK SC2AS6 -SN INTMT SLP241

CYQG;2013-01-25 16:00;CYQG 251600Z 16010KT 1SM -SN OVC025 M08/M10 A3018 RMK SN2SC6 VIS SE 3 SLP234

CYQG;2013-01-25 16:15;CYQG 251615Z 17010KT 3/4SM -SN OVC027 RMK SN2SC6

CYQG;2013-01-25 17:00;CYQG 251700Z 18009KT 3/4SM -SN OVC027 M08/M09 A3015 RMK SN2SC6 /S01/ SLP223

CYQG;2013-01-25 18:00;CYQG 251800Z 18011KT 3/4SM -SN SCT012 OVC022 M08/M09 A3011 RMK SN2SF2SC5 PRESFR /S02/ SLP209

CYQG;2013-01-25 18:30;CYQG 251830Z 17009KT 1SM -SN OVC030 RMK SN2SC6

CYQG;2013-01-25 18:50;CYQG 251850Z 15009KT 3SM -SN BKN016 OVC033 RMK SC6SC2

CYQG;2013-01-25 19:00;CYQG 251900Z 16009KT 3SM -SN BKN014 OVC035 M07/M10 A3006 RMK SC5SC2 PRESFR SLP192

CYQG;2013-01-25 20:00;CYQG 252000Z 17006KT 5SM -SN BKN013 BKN080 M07/M10 A3005 RMK SC6AS1 /S01/ SLP188

CYQG;2013-01-25 21:00;CYQG 252100Z 19007KT 15SM -SN BKN018 OVC070 M07/M10 A3004 RMK SC6AC2 SLP183

CYQG;2013-01-25 22:00;CYQG 252200Z 19007KT 2SM -SN BKN016 OVC035 M08/M10 A3003 RMK SN2SC5SC2 SLP180

CYQG;2013-01-25 22:07;CYQG 252207Z 18006KT 1 1/2SM -SN BKN012 OVC030 RMK SN2SC6SC1

CYQG;2013-01-25 22:27;CYQG 252227Z 18005KT 4SM -SN SCT012 OVC056 RMK SC3SC5

CYQG;2013-01-25 23:00;CYQG 252300Z 18006KT 5SM -SN FEW012 OVC057 M08/M10 A3003 RMK SC2SC6 SLP180

CYQG;2013-01-26 00:00;CYQG 260000Z 19004KT 1SM -SN OVC011 M08/M09 A3004 RMK SN4SC4 /S02/ SLP184

CYQG;2013-01-26 00:45;CYQG 260045Z 18003KT 1 1/4SM -SN OVC016 RMK SN2SC6

CYQG;2013-01-26 01:00;CYQG 260100Z 18004KT 2SM -SN FEW012 BKN065 OVC075 M08/M09 A3004 RMK SN1SC2SC4AC2 SLP185

CYQG;2013-01-26 01:28;CYQG 260128Z 18003KT 5SM -SN SCT040 OVC075 RMK SC3AC5

CYQG;2013-01-26 01:48;CYQG 260148Z 18002KT 3/4SM -SN BKN012 OVC040 RMK SN2SC3SC2

CYQG;2013-01-26 02:00;CYQG 260200Z 18003KT 3/4SM -SN BKN012 OVC030 M08/M09 A3004 RMK SN3SC3SC2 /S01/ SLP185

CYQG;2013-01-26 02:27;CYQG 260227Z 18003KT 1 1/4SM -SN OVC016 RMK SN3SC5

CYQG;2013-01-26 02:51;CYQG 260251Z 17004KT 2SM -SN SCT020 OVC076 RMK SN2SC2AC4

CYQG;2013-01-26 03:00;CYQG 260300Z 18002KT 4SM -SN FEW020 OVC075 M07/M09 A3004 RMK SC2AC6 SLP186

CYQG;2013-01-26 04:00;CYQG 260400Z 18003KT 7SM -SN OVC071 M08/M09 A3004 RMK AC8 SLP185

CYQG;2013-01-26 05:00;CYQG 260500Z 19003KT 5SM -SN BR OVC068 M07/M08 A3005 RMK AC8 SLP188

CYQG;2013-01-26 06:00;CYQG 260600Z 19003KT 5SM -SN BR OVC067 M07/M08 A3005 RMK AC8 SLP188

CYQG;2013-01-26 07:00;CYQG 260700Z 20003KT 5SM -SN BR OVC067 M07/M08 A3006 RMK AC8 SLP190

CYQG;2013-01-26 08:00;CYQG 260800Z 22002KT 5SM -SN BR OVC060 M07/M08 A3007 RMK SC8 SLP196

CYQG;2013-01-26 09:00;CYQG 260900Z 25003KT 5SM -SN BR OVC054 M06/M08 A3009 RMK SC8 SLP200

CYQG;2013-01-26 10:00;CYQG 261000Z 28005KT 6SM -SN BR OVC057 M06/M08 A3010 RMK SC8 SLP204

CYQG;2013-01-26 11:00;CYQG 261100Z 29005KT 6SM -SN BR OVC055 M06/M08 A3012 RMK SC8 SLP211

CYQG;2013-01-26 12:00;CYQG 261200Z 32007KT 7SM -SN OVC055 M06/M08 A3015 RMK SC8 /S01/ SLP220

CYQG;2013-01-26 13:00;CYQG 261300Z 32007KT 5SM -SN HZ SCT013 OVC057 M06/M08 A3018 RMK SC3SC5 -SN INTMT SLP230

CYQG;2013-01-26 13:45;CYQG 261345Z 31007KT 6SM HZ FEW016 SCT057 BKN250 RMK SC2SC2CI1

CYQG;2013-01-26 14:00;CYQG 261400Z 32006KT 6SM HZ FEW016 FEW056 BKN250 M06/M09 A3019 RMK SC1SC1CI2 CONTRAILS SLP235

CYQG;2013-01-26 15:00;CYQG 261500Z 30008KT 10SM SCT018 SCT250 M06/M09 A3023 RMK CU3CI1 TR CI CONTRAILS SLP247

CYQG;2013-01-26 16:00;CYQG 261600Z 32007KT 8SM BKN019 BKN260 M05/M09 A3025 RMK SC6CI1 CU ASOCTD TR CI SLP255

CYQG;2013-01-26 17:00;CYQG 261700Z 32009KT 12SM BKN028 BKN260 M04/M09 A3026 RMK CU6CI1 TR CI CONTRAILS SLP260

CYQG;2013-01-26 18:00;CYQG 261800Z 29008KT 15SM BKN033 BKN260 M04/M10 A3027 RMK SC6CI1 CU ASOCTD TR CI CONTRAILS SLP261

CYQG;2013-01-26 19:00;CYQG 261900Z 30009KT 15SM BKN037 BKN240 M03/M11 A3028 RMK SC6CS1 SLP264

CYQG;2013-01-26 20:00;CYQG 262000Z 31007KT 15SM BKN039 BKN270 M03/M10 A3029 RMK SC7CI1 TR CI SLP269

CYQG;2013-01-26 21:00;CYQG 262100Z 34008KT 15SM BKN036 BKN270 M03/M11 A3032 RMK SC5CI2 SLP278

CYQG;2013-01-26 22:00;CYQG 262200Z 34006KT 15SM BKN044 M03/M11 A3034 RMK SC7 SLP284

CYQG;2013-01-26 23:00;CYQG 262300Z 34005KT 15SM BKN042 M03/M11 A3036 RMK SC7 SLP292

CYQG;2013-01-27 00:00;CYQG 270000Z 33006KT 15SM BKN042 M03/M10 A3040 RMK SC7 SLP305

CYQG;2013-01-27 01:00;CYQG 270100Z 34003KT 15SM FEW036 BKN200 M05/M11 A3041 RMK SC2CI2 CONTRAILS SLP307

CYQG;2013-01-27 02:00;CYQG 270200Z 00000KT 15SM FEW170 BKN220 M07/M11 A3040 RMK AC2CI2 CONTRAILS SLP305

CYQG;2013-01-27 03:00;CYQG 270300Z 00000KT 15SM FEW170 BKN210 M07/M11 A3042 RMK AC2CI4 SLP313

CYQG;2013-01-27 04:00;CYQG 270400Z 09002KT 15SM BKN210 BKN230 M08/M11 A3042 RMK CC5CI2 SLP312

CYQG;2013-01-27 05:00;CYQG 270500Z 00000KT 15SM BKN210 M08/M11 A3044 RMK CI7 SLP320

CYQG;2013-01-27 06:00;CYQG 270600Z 16002KT 15SM OVC170 M09/M11 A3045 RMK AS7 SLP323

CYQG;2013-01-27 07:00;CYQG 270700Z 00000KT 15SM FEW160 SCT260 M09/M11 A3045 RMK AC2CI1 SLP323

CYQG;2013-01-27 08:00;CYQG 270800Z 17003KT 15SM FEW150 SCT260 M11/M12 A3045 RMK AC2CI1 SLP322

CYQG;2013-01-27 09:00;CYQG 270900Z 16003KT 15SM FEW270 M10/M11 A3045 RMK CI1 SLP323

CYQG;2013-01-27 10:00;CYQG 271000Z 14002KT 15SM FEW160 BKN210 M12/M13 A3045 RMK AC1CS4 SLP324

CYQG;2013-01-27 11:00;CYQG 271100Z 00000KT 12SM BKN140 OVC260 M12/M13 A3047 RMK AC6CI2 SLP329

CYQG;2013-01-27 12:00;CYQG 271200Z 17002KT 12SM BKN120 BKN260 M10/M11 A3047 RMK AC5CI1 SLP332

CYQG;2013-01-27 13:00;CYQG 271300Z 19003KT 12SM FEW100 FEW260 M11/M12 A3047 RMK AC1CI1 FROIN CONTRAILS SLP331

CYQG;2013-01-27 14:00;CYQG 271400Z 18005KT 15SM FEW100 SCT260 M08/M10 A3047 RMK AC1CI1 CONTRAILS SLP331

CYQG;2013-01-27 15:00;CYQG 271500Z 18004KT 15SM FEW150 BKN260 M06/M10 A3047 RMK AC1CI2 CONTRAILS SLP332

CYQG;2013-01-27 16:00;CYQG 271600Z 19006KT 15SM BKN230 BKN260 M04/M09 A3048 RMK CS2CI1 CONTRAILS SLP334

CYQG;2013-01-27 17:00;CYQG 271700Z 18011KT 15SM FEW150 BKN230 BKN260 M04/M10 A3047 RMK AC1CS4CI0 HALO PRESFR SLP329

CYQG;2013-01-27 18:00;CYQG 271800Z 18007KT 15SM BKN100 BKN230 M04/M10 A3044 RMK AC6CS1 SLP321

CYQG;2013-01-27 19:00;CYQG 271900Z 18009KT 12SM BKN110 OVC230 M03/M09 A3041 RMK AS6CS2 SUN DIMLY VISBL SLP311

CYQG;2013-01-27 20:00;CYQG 272000Z 16008KT 8SM OVC110 M03/M09 A3038 RMK AS7 AC ASOCTD SLP298

CYQG;2013-01-27 21:00;CYQG 272100Z 15010KT 10SM OVC090 M03/M08 A3034 RMK AC8 SLP286

CYQG;2013-01-27 22:00;CYQG 272200Z 15008KT 10SM OVC090 M03/M07 A3034 RMK AC8 SLP285

CYQG;2013-01-27 23:00;CYQG 272300Z 15007KT 10SM BKN060 OVC090 M03/M07 A3035 RMK SC5AC3 SLP289

CYQG;2013-01-27 23:47;CYQG 272347Z 18005KT 8SM -SN OVC039 RMK SC8

CYQG;2013-01-28 00:00;CYQG 280000Z 15006KT 3SM -SN OVC038 M03/M07 A3035 RMK SC8 SLP289

CYQG;2013-01-28 00:09;CYQG 280009Z 15006KT 1SM -SN OVC027 RMK SN3SC5

CYQG;2013-01-28 00:31;CYQG 280031Z 15009KT 3/4SM -SN OVC023 RMK SN5SC3

CYQG;2013-01-28 01:00;CYQG 280100Z 16008KT 5/8SM -SN OVC027 M04/M05 A3032 RMK SN4SC4 /S01/ SLP279

CYQG;2013-01-28 01:09;CYQG 280109Z 15008KT 1SM -SN OVC027 RMK SN3SC5

CYQG;2013-01-28 01:15;CYQG 280115Z 14009KT 3/4SM -SN OVC027 RMK SN4SC4

CYQG;2013-01-28 01:49;CYQG 280149Z 14006KT 5/8SM -SN OVC023 RMK SN6SC2

CYQG;2013-01-28 02:00;CYQG 280200Z 13008KT 1/2SM SN OVC020 M03/M04 A3029 RMK SN6SC2 /S04/ SLP268

CYQG;2013-01-28 02:07;CYQG 280207Z 13009KT 3/4SM -SNSG OVC020 RMK SN2SC6

CYQG;2013-01-28 02:17;CYQG 280217Z 11008KT 1 1/4SM -SN -FZRA SCT009 OVC020 RMK SN2SF2SC4

CYQG;2013-01-28 02:25;CYQG 280225Z 14011KT 5/8SM -SN BKN007 OVC017 REFZRA RMK SN3SF3SC2

CYQG;2013-01-28 02:42;CYQG 280242Z 15013KT 4SM -SN BKN006 OVC030 REFZRA RMK SF6SC2

CYQG;2013-01-28 03:00;CYQG 280300Z 15014KT 2SM -SN -FZRA BKN004 OVC040 M02/M03 A3023 RMK SN2SF5SC2 /S06/ PRESFR SLP245

CYQG;2013-01-28 03:20;CYQG 280320Z 17013G18KT 4SM -SN -FZRA BKN005 OVC050 RMK SF6SC2

CYQG;2013-01-28 03:41;CYQG 280341Z 16010KT 4SM -SN -FZRA SCT004 SCT012 OVC045 RMK SF3SC1SC4

CYQG;2013-01-28 04:00;CYQG 280400Z 16014KT 5SM -SN -FZRA FEW005 OVC054 M02/M03 A3019 RMK SF2SC6 SLP234

CYQG;2013-01-28 04:45;CYQG 280445Z 16018KT 5SM -PL -FZRA BR OVC045 RMK SC8

CYQG;2013-01-28 05:00;CYQG 280500Z 16014G22KT 5SM -FZRA BR OVC047 M01/M03 A3014 RMK SC8 SLP216

CYQG;2013-01-28 06:00;CYQG 280600Z 16009KT 5SM -FZRA BR OVC042 M01/M02 A3014 RMK SC8 SLP217

CYQG;2013-01-28 06:27;CYQG 280627Z 16011KT 5SM FZRA BR OVC024 RMK SC8

CYQG;2013-01-28 06:53;CYQG 280653Z 15010KT 5SM -FZRA BR OVC023 RMK SC8

CYQG;2013-01-28 07:00;CYQG 280700Z 15008KT 6SM -FZRA BR OVC021 M00/M02 A3011 RMK SC8 RERA SLP204

CYQG;2013-01-28 07:27;CYQG 280727Z 15011KT 6SM -FZRA BR OVC014 RMK SC8

CYQG;2013-01-28 08:00;CYQG 280800Z 16010KT 5SM -FZRA BR OVC011 M00/M01 A3005 RMK SC8 SLP186

CYQG;2013-01-28 08:32;CYQG 280832Z 18010KT 5SM -FZRA BR OVC009 RMK SF8

CYQG;2013-01-28 08:42;CYQG 280842Z 18007KT 4SM -RA BR OVC008 REFZRA RMK SF8

CYQG;2013-01-28 09:00;CYQG 280900Z 19009KT 4SM -RA BR OVC007 01/M00 A3003 REFZRA RMK SF8 SLP176

CYQG;2013-01-28 09:30;CYQG 280930Z 18007KT 2 1/2SM -DZ BR OVC005 RMK SF8

CYQG;2013-01-28 10:00;CYQG 281000Z 18007KT 2SM -DZ BR OVC003 01/00 A3000 RMK FG1SF7 SLP166

CYQG;2013-01-28 10:46;CYQG 281046Z 19008KT 1 1/4SM -RA BR OVC003 RMK FG2SF6

CYQG;2013-01-28 11:00;CYQG 281100Z 20009KT 1 1/2SM -RA BR OVC003 01/01 A2996 RMK FG2SF6 SLP153

CYQG;2013-01-28 11:52;CYQG 281152Z 20011KT 1 1/4SM -RA BR OVC003 RMK FG2SF6

CYQG;2013-01-28 12:00;CYQG 281200Z 20013KT 1 1/4SM -RA BR OVC002 02/02 A2994 RMK FG2SF6 SLP145

CYQG;2013-01-28 12:29;CYQG 281229Z 20012KT 1 1/4SM -DZ BR OVC002 RMK FG2SF6

CYQG;2013-01-28 12:50;CYQG 281250Z 20012KT 3/4SM -DZ BR OVC002 RMK FG2SF6

CYQG;2013-01-28 13:00;CYQG 281300Z 21013KT 1/2SM -DZ FG OVC002 02/02 A2992 RMK FG2SF6 SLP139

CYQG;2013-01-28 14:00;CYQG 281400Z 21009KT 1/2SM -DZ FG OVC002 03/03 A2991 RMK FG3SF5 SLP135

CYQG;2013-01-28 14:12;CYQG 281412Z 21010KT 3/4SM -DZ BR OVC002 RMK FG2SF6

CYQG;2013-01-28 15:00;CYQG 281500Z CCA 22013KT 3/4SM -DZ BR OVC002 03/03 A2989 RMK FG2SF6 SLP130

CYQG;2013-01-28 16:00;CYQG 281600Z 21011KT 3/4SM -DZ BR OVC002 04/04 A2990 RMK SF8 SLP131

CYQG;2013-01-28 17:00;CYQG 281700Z 23010KT 1SM -DZ BR BKN002 OVC006 05/05 A2989 RMK SF7SC1 SLP127

CYQG;2013-01-28 18:00;CYQG 281800Z 23013G18KT 1SM -DZ BR OVC003 06/06 A2986 RMK SF8 SLP119

CYQG;2013-01-28 19:00;CYQG 281900Z 23013KT 1SM -DZ BR OVC003 07/07 A2985 RMK SF8 SLP115

CYQG;2013-01-28 20:00;CYQG 282000Z 24012G17KT 1SM -DZ BR OVC003 07/07 A2986 RMK SF8 SLP117

CYQG;2013-01-28 21:00;CYQG 282100Z 23011KT 1SM -DZ BR OVC003 08/08 A2988 RMK FG2SF6 SLP123

CYQG;2013-01-28 21:50;CYQG 282150Z 25009KT 1 1/2SM -DZ BR OVC005 RMK FG1SF7

CYQG;2013-01-28 22:00;CYQG 282200Z 24009KT 1 3/4SM -DZ BR OVC004 08/08 A2990 RMK FG1SF7 SLP130

CYQG;2013-01-28 22:30;CYQG 282230Z 26007KT 2SM -DZ BR OVC006 RMK FG1SF7

CYQG;2013-01-28 23:00;CYQG 282300Z 26009KT 2SM BR BKN006 OVC011 08/07 A2993 RMK SF5SC3 SLP140

CYQG;2013-01-28 23:22;CYQG 282322Z 27008KT 3SM -DZ BR BKN007 OVC023 RMK SF6SC2

CYQG;2013-01-28 23:52;CYQG 282352Z 29008KT 3SM -DZ BR BKN006 OVC012 RMK SF6SC2

CYQG;2013-01-29 00:00;CYQG 290000Z 30007KT 3SM BR BKN007 OVC012 07/07 A2995 RMK SF6SC2 SLP149

CYQG;2013-01-29 01:00;CYQG 290100Z 32006KT 6SM BR OVC009 05/05 A2998 RMK SF8 SLP159

CYQG;2013-01-29 01:23;CYQG 290123Z 32008KT 3SM -DZ BR SCT008 OVC013 RMK SF3SC5

CYQG;2013-01-29 01:43;CYQG 290143Z 32008KT 3SM -DZ BR OVC005 RMK SF8

CYQG;2013-01-29 02:00;CYQG 290200Z 32009KT 2 1/2SM -DZ BR OVC007 04/04 A3001 RMK SF8 SLP166

CYQG;2013-01-29 02:44;CYQG 290244Z 31007KT 5SM -DZ BR OVC008 RMK SF8

CYQG;2013-01-29 03:00;CYQG 290300Z 29004KT 7SM -DZ BKN008 OVC015 04/03 A3001 RMK SF5SC3 SLP170

CYQG;2013-01-29 03:17;CYQG 290317Z 31005KT 7SM FEW008 OVC012 RMK SF2SC6

CYQG;2013-01-29 04:00;CYQG 290400Z 34004KT 7SM OVC013 03/02 A3001 RMK SC8 SLP170

CYQG;2013-01-29 05:00;CYQG 290500Z 02003KT 7SM OVC012 03/02 A3002 RMK SC8 SLP173

CYQG;2013-01-29 06:00;CYQG 290600Z 00000KT 7SM OVC009 03/02 A3001 RMK SF8 SLP168

CYQG;2013-01-29 07:00;CYQG 290700Z 12005KT 6SM BR BKN006 OVC011 02/02 A2999 RMK SF5SC3 SLP161

CYQG;2013-01-29 08:00;CYQG 290800Z 12003KT 5SM BR OVC007 02/02 A2999 RMK SF8 SLP161

CYQG;2013-01-29 08:35;CYQG 290835Z 12005KT 4SM -DZ BR OVC006 RMK SF8

CYQG;2013-01-29 09:00;CYQG 290900Z 13005KT 3SM -DZ BR OVC005 02/02 A2997 RMK SF8 SLP155

CYQG;2013-01-29 09:15;CYQG 290915Z 13007KT 1SM -DZ BR OVC002 RMK FG2SF6

CYQG;2013-01-29 09:38;CYQG 290938Z 12005KT 1/2SM -DZ FG VV002 RMK FG8

CYQG;2013-01-29 10:00;CYQG 291000Z 13007KT 1/2SM -DZ FG VV002 02/02 A2993 RMK FG8 SLP141

CYQG;2013-01-29 10:27;CYQG 291027Z 13005KT 1/2SM -RA FG VV002 RMK FG8

CYQG;2013-01-29 10:41;CYQG 291041Z 13005KT 3/4SM RA BR OVC003 RMK FG3SF5

CYQG;2013-01-29 11:00;CYQG 291100Z 14013KT 1SM -RA BR OVC003 02/02 A2988 RMK FG2SF6 SLP124

CYQG;2013-01-29 11:19;CYQG 291119Z 15009KT 2 1/2SM -RA BR OVC002 RMK SF8

CYQG;2013-01-29 11:27;CYQG 291127Z 02002KT 4SM -RA BR OVC003 RMK SF8

CYQG;2013-01-29 11:48;CYQG 291148Z 15006KT 4SM BR OVC003 RMK SF8

CYQG;2013-01-29 12:00;CYQG 291200Z 14007KT 5SM BR OVC003 03/03 A2986 RMK SF8 SLP118

CYQG;2013-01-29 12:08;CYQG 291208Z 14007KT 2 1/2SM -DZ BR OVC002 RMK SF8

CYQG;2013-01-29 12:27;CYQG 291227Z 14006KT 1SM -DZ BR OVC002 RMK SF8

CYQG;2013-01-29 12:44;CYQG 291244Z 14005KT 1/2SM -DZ FG OVC002 RMK SF8

CYQG;2013-01-29 13:00;CYQG 291300Z 16008KT 3/8SM -DZ FG OVC002 05/05 A2984 RMK SF8 SLP111

CYQG;2013-01-29 13:26;CYQG 291326Z 17010KT 3/8SM -RADZ FG OVC002 RMK SF8

CYQG;2013-01-29 13:40;CYQG 291340Z 19011KT 1/2SM -RADZ FG OVC002 RMK SF8 -RA INTMT

CYQG;2013-01-29 14:02;CYQG 291402Z 20013G18KT 1SM -RA BR OVC020 RMK SF8 -RA INTMT

CYQG;2013-01-29 14:29;CYQG 291429Z 21011G16KT 1 1/2SM -RADZ BR OVC020 RMK SF8 -RA INTMT

CYQG;2013-01-29 14:52;CYQG 291452Z 21011KT 1 1/2SM BR OVC020 RMK SF8

CYQG;2013-01-29 15:00;CYQG 291500Z 21011KT 1 1/2SM BR OVC020 09/09 A2981 RMK SF8 SLP100

CYQG;2013-01-29 15:47;CYQG 291547Z 21016KT 1 1/2SM -RA BR OVC003 RMK SF8

CYQG;2013-01-29 16:00;CYQG 291600Z 21016KT 1 1/2SM -RA BR OVC003 10/10 A2981 RMK SF8 -RA INTMT SLP099

CYQG;2013-01-29 16:28;CYQG 291628Z 21015G20KT 1/2SM FG OVC002 RMK SF8 INTMT -RA

CYQG;2013-01-29 17:00;CYQG 291700Z 22014G19KT 1/2SM -RA FG OVC002 10/10 A2979 RMK SF8 -RA INTMT SLP093

CYQG;2013-01-29 18:00;CYQG 291800Z 20014G19KT 5/8SM -RA BR OVC002 11/11 A2976 RMK SF8 -RA INTMT SLP082

CYQG;2013-01-29 19:00;CYQG 291900Z 22014G20KT 2SM BR OVC005 12/11 A2975 RMK SF8 INTMT -RA SLP078

CYQG;2013-01-29 19:24;CYQG 291924Z 21011KT 3SM BR OVC012 RMK SF8 INTMT -RA

CYQG;2013-01-29 19:44;CYQG 291944Z 21011KT 3SM BR OVC013 RMK SF8

CYQG;2013-01-29 20:00;CYQG 292000Z 20011KT 3SM BR OVC013 11/11 A2973 RMK SF8 SLP072

CYQG;2013-01-29 20:14;CYQG 292014Z 21013KT 2 1/2SM BR OVC014 RMK SC8

CYQG;2013-01-29 20:26;CYQG 292026Z 21016KT 2 1/2SM BR OVC017 RMK SC8

CYQG;2013-01-29 21:00;CYQG 292100Z 21012KT 2 1/2SM BR BKN022 OVC044 12/11 A2972 RMK SC7SC1 SLP069

CYQG;2013-01-29 21:24;CYQG 292124Z 21012KT 2SM -SHRA BR OVC017 RMK SC8

CYQG;2013-01-29 22:00;CYQG 292200Z 22011KT 1 1/4SM -RA BR OVC017 11/11 A2973 RMK SC8 SLP071

CYQG;2013-01-29 23:00;CYQG 292300Z 20011KT 3SM -RA BR OVC021 11/11 A2972 RMK SC8 SLP069

CYQG;2013-01-29 23:38;CYQG 292338Z 20013KT 3SM BR OVC034 RMK SC8

CYQG;2013-01-29 23:54;CYQG 292354Z 21011G16KT 3SM -RA BR OVC034 RMK SC8 -RA INTMT

CYQG;2013-01-30 00:00;CYQG 300000Z 21013KT 3SM -RA BR OVC034 12/11 A2971 RMK SC8 -RA INTMT SLP062

CYQG;2013-01-30 01:00;CYQG 300100Z 19012KT 6SM -RA BR BKN030 OVC082 12/11 A2968 RMK SC5AC3 SLP055

CYQG;2013-01-30 02:00;CYQG 300200Z 18010KT 7SM OVC026 12/11 A2965 RMK SC8 PRESFR SLP043

CYQG;2013-01-30 02:47;CYQG 300247Z 18012KT 7SM -RA OVC024 RMK SC8 -RA INTMT

CYQG;2013-01-30 03:00;CYQG 300300Z 18012KT 7SM OVC027 12/11 A2960 RMK SC8 INTMT -RA SLP026

CYQG;2013-01-30 04:00;CYQG 300400Z 18013KT 10SM BKN036 12/11 A2955 RMK SC7 INTNT -RA SLP007

CYQG;2013-01-30 04:21;CYQG 300421Z 18010KT 12SM BKN036 RMK SC7

CYQG;2013-01-30 05:00;CYQG 300500Z 18013KT 15SM BKN031 12/11 A2951 RMK SC7 SLP994

CYQG;2013-01-30 06:00;CYQG 300600Z 20017G24KT 15SM FEW028 BKN140 14/12 A2945 RMK SC2AC6 SLP974

CYQG;2013-01-30 06:16;CYQG 300616Z 19019G24KT 15SM -SHRA OVC090 RMK AC8

CYQG;2013-01-30 07:00;CYQG 300700Z 19018KT 15SM FEW070 BKN100 13/12 A2939 RMK AC1AC6 PRESFR SLP953

CYQG;2013-01-30 08:00;CYQG 300800Z 20021G26KT 15SM OVC110 14/12 A2935 RMK AC8 SLP939

CYQG;2013-01-30 08:25;CYQG 300825Z 20017G22KT 15SM -SHRA OVC110 RMK AC8

CYQG;2013-01-30 09:00;CYQG 300900Z 20024G31KT 15SM FEW060 OVC120 15/12 A2929 RMK SC1AC7 SLP920

CYQG;2013-01-30 10:00;CYQG 301000Z 20027G32KT 15SM -SHRA BKN032 OVC110 15/12 A2927 RMK SC5AC3 SLP912

CYQG;2013-01-30 10:46;CYQG 301046Z 25008G17KT 6SM -RA BR FEW008 OVC026 RMK SF2SC6

CYQG;2013-01-30 11:00;CYQG 301100Z 27008KT 4SM -RA BR FEW008 OVC024 13/13 A2931 RMK SF1SC7 SLP926

CYQG;2013-01-30 12:00;CYQG 301200Z 29008KT 12SM -RA FEW006 BKN040 OVC080 12/11 A2933 RMK SF2SC5AS2 SLP934

CYQG;2013-01-30 13:00;CYQG 301300Z 23004KT 7SM -RA FEW040 OVC082 11/11 A2933 RMK SF2AS6 SLP933

CYQG;2013-01-30 14:00;CYQG 301400Z 16007KT 12SM OVC120 10/10 A2927 RMK AC8 SLP913

CYQG;2013-01-30 14:29;CYQG 301429Z 18008KT 12SM OVC120 RMK AC8

CYQG;2013-01-30 15:00;CYQG 301500Z 18011G16KT 15SM FEW020 OVC120 11/10 A2928 RMK CF1AC8 SLP916

CYQG;2013-01-30 16:00;CYQG 301600Z 22015KT 15SM FEW010 FEW040 OVC160 10/09 A2933 RMK CF1SC1AC8 SLP932

CYQG;2013-01-30 16:22;CYQG 301622Z 20012KT 15SM BKN003 OVC160 RMK SF7AC1

CYQG;2013-01-30 17:00;CYQG 301700Z 20008KT 6SM BR OVC003 09/09 A2927 RMK SF8 SLP913

CYQG;2013-01-30 17:51;CYQG 301751Z 20008KT 10SM BKN021 OVC160 RMK SF7AS1

CYQG;2013-01-30 18:00;CYQG 301800Z 22006KT 10SM BKN021 OVC160 11/10 A2924 RMK SF7AS1 SLP904

CYQG;2013-01-30 19:00;CYQG 301900Z 21015KT 10SM OVC019 11/10 A2924 RMK SF8 SLP904

CYQG;2013-01-30 20:00;CYQG 302000Z 22012KT 10SM OVC019 11/10 A2923 RMK SF8 SLP899

CYQG;2013-01-30 21:00;CYQG 302100Z 21015G20KT 8SM OVC033 11/10 A2918 RMK SC8 SLP881

CYQG;2013-01-30 21:44;CYQG 302144Z 22017KT 5SM -SHRA BR OVC022 RMK SC8

CYQG;2013-01-30 22:00;CYQG 302200Z 21015G20KT 10SM SCT025 OVC044 10/09 A2919 RMK SC3SC5 OCNL -SHRA SLP885

CYQG;2013-01-30 23:00;CYQG 302300Z 21012G17KT 12SM FEW025 OVC051 10/09 A2916 RMK SC2SC6 SLP876

CYQG;2013-01-31 00:00;CYQG 310000Z 20013KT 12SM FEW018 OVC069 10/09 A2913 RMK SC2AC6 SLP865

CYQG;2013-01-31 01:00;CYQG 310100Z 26016KT 12SM -SHRA FEW018 OVC077 08/06 A2914 RMK SC2AC6 SLP869

CYQG;2013-01-31 02:00;CYQG 310200Z 26018G25KT 12SM -SHRA SCT012 OVC037 06/05 A2915 RMK SF4SC4 SLP871

CYQG;2013-01-31 03:00;CYQG 310300Z 25017G27KT 12SM -RA SCT012 OVC018 04/02 A2916 RMK SF4SC4 SLP876

CYQG;2013-01-31 03:24;CYQG 310324Z 24016KT 15SM FEW012 OVC022 RMK SF2SC6

CYQG;2013-01-31 04:00;CYQG 310400Z 24017G24KT 15SM FEW012 OVC022 04/01 A2915 RMK SF2SC6 SLP875

CYQG;2013-01-31 04:22;CYQG 310422Z 24018G26KT 8SM -SHRA OVC014 RMK SF8

CYQG;2013-01-31 04:47;CYQG 310447Z 29023G31KT 12SM -SHRA SCT015 OVC026 RMK SF3SC5

CYQG;2013-01-31 05:05;CYQG 310505Z 28022G34KT 8SM -SHSN BKN024 RMK SC7

CYQG;2013-01-31 06:00;CYQG 310600Z 27034G39KT 12SM -SHSN FEW019 OVC032 01/M04 A2927 RMK SF2SC6 SLP914

CYQG;2013-01-31 07:00;CYQG 310700Z 27029G36KT 15SM -SHSN BKN035 M01/M08 A2933 RMK SC6 PRESRR SLP936

CYQG;2013-01-31 08:00;CYQG 310800Z 28016G24KT 12SM -SHSN OVC037 M01/M08 A2938 RMK SC8 SLP952

CYQG;2013-01-31 09:00;CYQG 310900Z 28024G34KT 15SM -SHSN OVC037 M02/M09 A2940 RMK SC8 SLP962

CYQG;2013-01-31 10:00;CYQG 311000Z 27022G35KT 15SM -SHSN BKN047 M02/M09 A2944 RMK SC7 SLP974

CYQG;2013-01-31 11:00;CYQG 311100Z 27025G36KT 15SM -SHSN OVC046 M03/M10 A2948 RMK SC8 SLP988

CYQG;2013-01-31 12:00;CYQG 311200Z 28027G33KT 15SM -SHSN OVC040 M03/M10 A2951 RMK SC8 SLP997

CYQG;2013-01-31 13:00;CYQG 311300Z 28023G31KT 12SM -SHSN SCT028 BKN060 M04/M10 A2955 RMK SC3SC4 SLP012

CYQG;2013-01-31 14:00;CYQG 311400Z 27018G26KT 10SM -SHSN FEW030 BKN067 M04/M10 A2959 RMK SC2AC5 SLP024

CYQG;2013-01-31 14:15;CYQG 311415Z 26021KT 1 1/4SM -SHSN SCT028 BKN067 RMK SN2SC2AC3

CYQG;2013-01-31 14:19;CYQG 311419Z 25017G25KT 5/8SM -SHSN DRSN BKN018 OVC067 RMK SN3SC2AC2

CYQG;2013-01-31 14:22;CYQG 311422Z 26021G27KT 1/8SM +SHSN DRSN OVC013 RMK SN4SC4

CYQG;2013-01-31 14:33;CYQG 311433Z 27020G27KT 3/8SM SHSN DRSN OVC019 RMK SN3SC5

CYQG;2013-01-31 14:37;CYQG 311437Z 27019G26KT 3/4SM -SHSN DRSN OVC024 RESN RMK SN2SC6

CYQG;2013-01-31 15:00;CYQG 311500Z CCA 26011G17KT 2SM -SHSN DRSN OVC030 M05/M08 A2961 RESN RMK SN1SC7 /S01/ VIS 5 N SLP036

CYQG;2013-01-31 15:12;CYQG 311512Z 27020KT 5SM -SHSN DRSN OVC027 RMK SC8

CYQG;2013-01-31 16:00;CYQG 311600Z 27020G30KT 10SM -SHSN SCT035 OVC056 M04/M10 A2964 RMK CU3SC5 /S02/ SLP046

CYQG;2013-01-31 17:00;CYQG 311700Z 27023G31KT 8SM -SHSN BKN034 BKN055 M05/M10 A2966 RMK CU5SC2 SLP052

CYQG;2013-01-31 17:33;CYQG 311733Z 26025G33KT 3/4SM -SHSN DRSN BKN018 OVC035 RMK SN2CU4SC2

CYQG;2013-01-31 17:40;CYQG 311740Z 27020G33KT 8SM -SHSN SCT018 BKN050 RMK CU4SC3

CYQG;2013-01-31 18:00;CYQG 311800Z 26019G28KT 7SM -SHSN SCT017 OVC045 M05/M10 A2968 RMK CU3SC5 /SO3/ SLP058

CYQG;2013-01-31 19:00;CYQG 311900Z 25017G22KT 15SM -SHSN SCT035 OVC049 M05/M11 A2969 RMK CU4SC4 SLP061

CYQG;2013-01-31 19:15;CYQG 311915Z 27022G29KT 1 1/2SM -SHSN BKN026 OVC055 RMK CU6SC2

CYQG;2013-01-31 19:22;CYQG 311922Z 27020G28KT 3/4SM -SHSN BKN025 OVC050 RMK SN2CU3SC2

CYQG;2013-01-31 19:25;CYQG 311925Z 27016G26KT 8SM -SHSN SCT025 OVC054 RMK CU4SC4

CYQG;2013-01-31 20:00;CYQG 312000Z 27021G29KT 12SM -SHSN SCT030 BKN056 M05/M10 A2971 RMK CU3SC4 SLP067

CYQG;2013-01-31 20:38;CYQG 312038Z 27023KT 3/4SM -SHSN OVC023 RMK SN6SC2

CYQG;2013-01-31 20:45;CYQG 312045Z 26020G27KT 1/2SM SHSN VV006 RMK SN8

CYQG;2013-01-31 20:49;CYQG 312049Z 26016G24KT 1 1/2SM -SHSN BKN026 BKN061 RESN RMK SN1CU6SC1

CYQG;2013-01-31 20:53;CYQG 312053Z 26016G24KT 4SM -SHSN SCT025 BKN051 RESN RMK CU4SC3

CYQG;2013-01-31 21:05;CYQG 312105Z 26015KT 3/8SM SHSN VV005 RMK SN8

CYQG;2013-01-31 21:16;CYQG 312116Z 27014G22KT 1 1/4SM -SHSN OVC021 RESN RMK SN3SC5

CYQG;2013-01-31 21:20;CYQG 312120Z 27016KT 3SM -SHSN BKN020 OVC039 RESN RMK SC6SC2

CYQG;2013-01-31 21:26;CYQG 312126Z 27018KT 1/4SM +SHSN VV004 RMK SN8

CYQG;2013-01-31 21:35;CYQG 312135Z 27021G26KT 3/8SM SHSN DRSN VV006 RESN RMK SN8

CYQG;2013-01-31 21:42;CYQG 312142Z 27016G24KT 2SM -SHSN DRSN BKN020 OVC056 RESN RMK SC6SC2

CYQG;2013-01-31 21:46;CYQG 312146Z 26016G22KT 4SM -SHSN DRSN SCT020 OVC051 RESN RMK SC4SC4

CYQG;2013-01-31 22:00;CYQG 312200Z 27016G22KT 3SM -SHSN BKN026 BKN054 M06/M10 A2974 RESN RMK SC5SC2 /S02/ SLP080

CYQG;2013-01-31 22:32;CYQG 312232Z 28013KT 2 1/4SM -SHSN OVC026 RMK SC8

CYQG;2013-01-31 23:00;CYQG 312300Z 27016KT 1 1/4SM -SHSN OVC016 M06/M09 A2976 RMK SC8 SLP087

CYQG;2013-01-31 23:06;CYQG 312306Z 27016KT 10SM -SHSN FEW016 SCT026 OVC051 RMK SC2SC2SC5

CYQG;2013-02-01 00:00;CYQG 010000Z 27014G19KT 15SM -SHSN FEW026 OVC053 M06/M11 A2979 RMK SC2SC6 /S03/ SLP096

CYQG;2013-02-01 01:00;CYQG 010100Z 26014KT 8SM -SHSN BKN038 OVC061 M07/M11 A2982 RMK SC6SC2 SLP107

CYQG;2013-02-01 02:00;CYQG 010200Z 25013G21KT 6SM -SHSN OVC036 M07/M10 A2983 RMK SC8 SLP110

CYQG;2013-02-01 03:04;CYQG 010304Z 27015KT 1SM -SHSN VV009 RMK SN8

CYQG;2013-02-01 03:15;CYQG 010315Z 29014KT 3/4SM -SHSN VV007 RMK SN8

CYQG;2013-02-01 03:34;CYQG 010334Z 29015KT 1/2SM SHSN VV005 RMK SN8

CYQG;2013-02-01 03:47;CYQG 010347Z 28017KT 3/4SM -SHSN VV006 RESN RMK SN8

CYQG;2013-02-01 03:51;CYQG 010351Z 28016G21KT 2SM -SHSN OVC021 RESN RMK SC8

CYQG;2013-02-01 04:00;CYQG 010400Z 27014G19KT 6SM -SHSN BKN039 OVC057 M08/M11 A2986 RESN RMK SC6SC2 /S02/ SLP121

CYQG;2013-02-01 05:00;CYQG 010500Z 28012KT 8SM -SHSN BKN018 BKN082 M09/M11 A2986 RMK CU5AC2 SLP123

CYQG;2013-02-01 05:47;CYQG 010547Z 28012G28KT 12SM FEW020 SCT081 BKN150 RMK CU1AC1AS1

CYQG;2013-02-01 06:00;CYQG 010600Z 29013KT 12SM FEW020 FEW081 BKN150 M09/M13 A2988 RMK CU1AC1AS1 SLP128

CYQG;2013-02-01 07:00;CYQG 010700Z 28013KT 15SM FEW020 FEW250 M09/M13 A2990 RMK CU1CI1 TR CU SLP135

CYQG;2013-02-01 08:00;CYQG 010800Z 29016G21KT 15SM FEW020 BKN140 M09/M13 A2993 RMK CU2AS2 SLP145

CYQG;2013-02-01 08:50;CYQG 010850Z 29013G19KT 12SM -SHSN FEW020 SCT100 BKN140 RMK CU1AC2AS1

CYQG;2013-02-01 09:00;CYQG 010900Z 28015KT 12SM -SHSN FEW019 FEW100 BKN140 M09/M13 A2995 RMK CU1AC2AS2 SLP155

CYQG;2013-02-01 09:47;CYQG 010947Z 28011KT 15SM FEW018 FEW100 BKN140 RMK CU1AC1AS2

CYQG;2013-02-01 10:00;CYQG 011000Z 28012KT 15SM FEW018 FEW095 BKN130 M09/M13 A2998 RMK CU1AC1AS2 SLP164

CYQG;2013-02-01 11:00;CYQG 011100Z 28013KT 15SM FEW020 SCT120 M09/M13 A3002 RMK SC2AS1 SLP176

CYQG;2013-02-01 12:00;CYQG 011200Z 28014KT 15SM FEW020 M09/M13 A3005 RMK SC2 SLP189

CYQG;2013-02-01 13:00;CYQG 011300Z 29017KT 15SM FEW020 FEW050 SCT240 BKN270 M10/M14 A3009 RMK CF1SC2CC1CI2 SLP202

CYQG;2013-02-01 14:00;CYQG 011400Z 28015KT 15SM BKN022 BKN280 M09/M13 A3013 RMK SC5CI1 SLP214

CYQG;2013-02-01 15:00;CYQG 011500Z 29018KT 15SM SCT026 BKN270 M08/M14 A3015 RMK CU3CI1 SLP222

CYQG;2013-02-01 16:00;CYQG 011600Z 30019G25KT 15SM BKN035 BKN270 M08/M15 A3018 RMK CU6CI0 SLP231

CYQG;2013-02-01 17:00;CYQG 011700Z 25013KT 12SM VCSH BKN030 M08/M12 A3018 RMK CU7 SLP232

CYQG;2013-02-01 18:00;CYQG 011800Z 25016KT 15SM VCSH BKN037 M08/M12 A3019 RMK CU7 SLP234

CYQG;2013-02-01 18:55;CYQG 011855Z 26014KT 12SM -SHSN BKN037 RMK CU7

CYQG;2013-02-01 19:00;CYQG 011900Z 26015KT 7SM -SHSN BKN028 M08/M12 A3019 RMK CU7 SLP235

CYQG;2013-02-01 20:00;CYQG 012000Z 26014G21KT 10SM -SHSN OVC036 M08/M13 A3020 RMK CU8 SLP237

CYQG;2013-02-01 21:00;CYQG 012100Z 25017KT 8SM -SHSN OVC037 M08/M14 A3021 RMK CU8 SLP244

CYQG;2013-02-01 22:00;CYQG 012200Z 25018KT 12SM -SHSN BKN036 M08/M15 A3022 RMK CU7 SLP247

CYQG;2013-02-01 23:00;CYQG 012300Z 26016KT 12SM -SHSN BKN031 M09/M15 A3023 RMK SC7 SLP248

CYQG;2013-02-02 00:00;CYQG 020000Z 25017G24KT 15SM -SHSN BKN032 M10/M16 A3025 RMK SC7 SLP255

CYQG;2013-02-02 00:29;CYQG 020029Z 26015G21KT 15SM BKN029 RMK SC7

CYQG;2013-02-02 01:00;CYQG 020100Z 26016G22KT 15SM BKN030 M11/M16 A3025 RMK SC7 SLP257

CYQG;2013-02-02 02:00;CYQG 020200Z 26018KT 15SM SCT030 M11/M16 A3026 RMK SC4 SLP260

CYQG;2013-02-02 03:00;CYQG 020300Z 25012KT 15SM FEW030 BKN160 M12/M16 A3026 RMK SC2AC2 SLP261

CYQG;2013-02-02 04:00;CYQG 020400Z 24008KT 15SM BKN034 BKN160 BKN210 M11/M16 A3025 RMK SC5AC2CI1 SLP257

CYQG;2013-02-02 05:00;CYQG 020500Z 22012KT 15SM BKN032 M10/M15 A3023 RMK SC7 SLP250

CYQG;2013-02-02 06:00;CYQG 020600Z 23014KT 15SM BKN033 M10/M14 A3021 RMK SC7 SLP243

CYQG;2013-02-02 07:05;CYQG 020705Z 24015G20KT 12SM -SHSN BKN032 RMK SC7

CYQG;2013-02-02 08:00;CYQG 020800Z 23013KT 12SM FEW030 OVC130 M09/M14 A3018 RMK CU1AS7 OCNL -SHSN SLP234

CYQG;2013-02-02 08:10;CYQG 020810Z 24012G21KT 12SM FEW030 OVC130 RMK CU1AS7

CYQG;2013-02-02 09:00;CYQG 020900Z 23011KT 15SM FEW030 OVC120 M09/M14 A3016 RMK CU1AS8 TR CU SLP224

CYQG;2013-02-02 09:32;CYQG 020932Z 23013KT 12SM -SHSN OVC100 RMK AS8

CYQG;2013-02-02 10:00;CYQG 021000Z 23011G17KT 7SM -SHSN OVC085 M09/M13 A3014 RMK AS8 SLP217

CYQG;2013-02-02 10:17;CYQG 021017Z 23011G16KT 2SM -SHSN OVC040 RMK SN2SC6

CYQG;2013-02-02 11:00;CYQG 021100Z 22011KT 2SM -SHSN OVC025 M10/M12 A3011 RMK SN2SC6 SLP208

CYQG;2013-02-02 12:00;CYQG 021200Z 22009G16KT 3SM -SHSN OVC040 M09/M11 A3009 RMK SC8 /S01/ SLP203

CYQG;2013-02-02 12:40;CYQG 021240Z 23010KT 2SM -SN OVC016 RMK SN2SC6

CYQG;2013-02-02 13:00;CYQG 021300Z 22010KT 1SM -SN OVC012 M08/M11 A3007 RMK SN3SC5 SLP196

CYQG;2013-02-02 13:14;CYQG 021314Z 22010KT 3/4SM -SN OVC012 RMK SN4SC4

CYQG;2013-02-02 13:54;CYQG 021354Z 22010KT 5/8SM -SN VV006 RMK SN8

CYQG;2013-02-02 14:00;CYQG 021400Z 22009KT 3/4SM -SN OVC007 M08/M10 A3006 RMK SN4SF4 /S01/ SLP191

CYQG;2013-02-02 14:26;CYQG 021426Z 22011KT 1SM -SN OVC009 RMK SN3SC5

CYQG;2013-02-02 15:00;CYQG 021500Z 22012KT 1SM -SN OVC012 M07/M09 A3004 RMK SN2SF6 /S02/ SLP185

CYQG;2013-02-02 15:16;CYQG 021516Z 20010KT 1 1/2SM -SN BKN005 OVC014 RMK SN2SF2SC3

CYQG;2013-02-02 15:33;CYQG 021533Z 21010G15KT 2SM -SN OVC013 RMK SN2SC6

CYQG;2013-02-02 15:37;CYQG 021537Z 21010G15KT 4SM -SN OVC014 RMK SC8

CYQG;2013-02-02 16:00;CYQG 021600Z 21012KT 5SM -SN OVC013 M07/M09 A3001 RMK SC8 SLP177

CYQG;2013-02-02 17:00;CYQG 021700Z 22012KT 3SM -SN OVC019 M07/M10 A2999 RMK SC8 SLP170

CYQG;2013-02-02 18:00;CYQG 021800Z 23009KT 5SM -SN OVC019 M06/M09 A2996 RMK SC8 SLP157

CYQG;2013-02-02 19:00;CYQG 021900Z 23007KT 4SM -SN OVC020 M06/M09 A2995 RMK SC8 SLP153

CYQG;2013-02-02 20:00;CYQG 022000Z 24008KT 4SM -SN SCT016 OVC057 M06/M08 A2994 RMK SC3SC5 SLP151

CYQG;2013-02-02 21:00;CYQG 022100Z 25004KT 4SM -SN SCT014 BKN024 OVC060 M05/M08 A2994 RMK SC3SC3SC2 SLP151

CYQG;2013-02-02 22:00;CYQG 022200Z 26002KT 4SM -SN SCT014 BKN022 OVC070 M05/M08 A2995 RMK SC3SC2AC2 SLP153

CYQG;2013-02-02 22:50;CYQG 022250Z 00000KT 2 1/2SM -SN BKN015 OVC032 RMK SC6SC2

CYQG;2013-02-02 23:00;CYQG 022300Z 00000KT 1SM -SN BKN013 OVC025 M05/M07 A2996 RMK SN2SC5SC2 /S01/ SLP156

CYQG;2013-02-02 23:33;CYQG 022333Z 36013KT 3/4SM -SN OVC015 RMK SN3SC5

CYQG;2013-02-02 23:53;CYQG 022353Z 36008KT 1SM -SN BKN015 OVC024 RMK SN2SC5SC2

CYQG;2013-02-03 00:00;CYQG 030000Z 01009KT 1 1/4SM -SN SCT015 OVC023 M07/M09 A2998 RMK SN2SC2SC4 SLP165

CYQG;2013-02-03 00:13;CYQG 030013Z 01008KT 1 1/2SM -SN FEW015 OVC024 RMK SN1SC2SC6

CYQG;2013-02-03 00:43;CYQG 030043Z 01007KT 2SM -SN FEW015 OVC027 RMK SN1SC2SC6

CYQG;2013-02-03 01:00;CYQG 030100Z 02008KT 2 1/2SM -SN FEW017 BKN024 OVC055 M07/M09 A3000 RMK SN1SC1SC5SC2 SLP170

CYQG;2013-02-03 02:00;CYQG 030200Z 36012KT 2 1/4SM -SN FEW015 SCT044 OVC058 M09/M12 A3001 RMK SN1SC1SC2SC4 SLP173

CYQG;2013-02-03 02:20;CYQG 030220Z 01007KT 3SM -SN FEW035 OVC058 RMK SC2SC6

CYQG;2013-02-03 03:00;CYQG 030300Z 02009KT 8SM -SN OVC056 M10/M14 A3001 RMK SC8 /S01/ SLP174

CYQG;2013-02-03 04:00;CYQG 030400Z 35006KT 12SM -SN OVC055 M10/M14 A3001 RMK SC8 SLP173

CYQG;2013-02-03 05:00;CYQG 030500Z 36005KT 12SM -SN OVC045 M10/M14 A3000 RMK SF8 SLP171

CYQG;2013-02-03 06:00;CYQG 030600Z 34005KT 12SM -SN OVC040 M10/M15 A2999 RMK SF8 SLP169

CYQG;2013-02-03 08:00;CYQG 030800Z 35003KT 15SM -SN FEW042 OVC100 M11/M15 A2996 RMK SC1AS7 SLP159

CYQG;2013-02-03 09:00;CYQG 030900Z 34003KT 15SM -SN FEW042 OVC080 M11/M15 A2994 RMK SC2AS6 SLP150

CYQG;2013-02-03 09:56;CYQG 030956Z 31003KT 15SM BKN031 OVC080 RMK SC7AS1

CYQG;2013-02-03 10:00;CYQG 031000Z 31003KT 15SM BKN031 OVC080 M11/M15 A2993 RMK SC7AS1 SLP147

CYQG;2013-02-03 11:00;CYQG 031100Z 32002KT 15SM OVC028 M11/M15 A2992 RMK SC8 SLP143

CYQG;2013-02-03 11:19;CYQG 031119Z 32003KT 15SM -SN OVC025 RMK SC8

CYQG;2013-02-03 12:00;CYQG 031200Z 27005KT 15SM -SN BKN027 M11/M15 A2991 RMK SC7 SLP140

CYQG;2013-02-03 12:15;CYQG 031215Z 28007KT 15SM SCT030 OVC097 RMK SC3AC5

CYQG;2013-02-03 13:00;CYQG 031300Z 29004KT 15SM FEW030 BKN093 M11/M15 A2992 RMK SC2AC6 SLP144

CYQG;2013-02-03 14:00;CYQG 031400Z 27003KT 15SM SCT090 BKN240 M11/M15 A2991 RMK AC3CI3 SLP141

CYQG;2013-02-03 15:00;CYQG 031500Z 27007KT 15SM SCT089 BKN260 M10/M15 A2992 RMK AC3CI3 SLP143

CYQG;2013-02-03 16:00;CYQG 031600Z 26009KT 15SM BKN150 BKN260 M09/M15 A2990 RMK AC6CI1 SLP139

CYQG;2013-02-03 17:00;CYQG 031700Z 26009KT 15SM BKN120 BKN260 M08/M14 A2989 RMK AC5CI1 SLP134

CYQG;2013-02-03 18:00;CYQG 031800Z 26010KT 12SM -SHSN FEW045 BKN110 M07/M12 A2987 RMK SC2AC5 SLP127

CYQG;2013-02-03 19:00;CYQG 031900Z 22009KT 15SM -SHSN SCT025 BKN110 M06/M11 A2985 RMK SC4AC3 SLP121

CYQG;2013-02-03 20:00;CYQG 032000Z 22012KT 15SM -SHSN BKN022 OVC110 M06/M11 A2984 RMK SC6AC2 SLP118

CYQG;2013-02-03 21:00;CYQG 032100Z 23012KT 3SM -SN OVC023 M06/M10 A2986 RMK SC8 SLP124

CYQG;2013-02-03 21:11;CYQG 032111Z 24012KT 2 1/4SM -SN OVC017 RMK SN1SC7

CYQG;2013-02-03 21:20;CYQG 032120Z 24011KT 1 1/2SM -SN OVC016 RMK SN2SC6

CYQG;2013-02-03 21:41;CYQG 032141Z 23011KT 1SM -SN OVC008 RMK SN3SF5

CYQG;2013-02-03 21:53;CYQG 032153Z 23009KT 1 1/4SM -SN OVC011 RMK SN2SC6

CYQG;2013-02-03 22:00;CYQG 032200Z 23010KT 1 1/4SM -SN OVC014 M07/M08 A2987 RMK SN2SC6 SLP127

CYQG;2013-02-03 22:35;CYQG 032235Z 24011KT 3/4SM -SN SCT011 OVC019 RMK SN2SC2SC4

CYQG;2013-02-03 22:50;CYQG 032250Z 25010KT 1SM -SN SCT012 OVC027 RMK SN2SC2SC5

CYQG;2013-02-03 23:00;CYQG 032300Z 26011KT 3SM -SN FEW014 BKN022 OVC055 M06/M08 A2989 RMK SC1SC6SC2 SLP132

CYQG;2013-02-04 00:00;CYQG 040000Z 29020G25KT 10SM -SN DRSN FEW016 OVC043 M06/M11 A2992 RMK SC2SC6 SLP142

CYQG;2013-02-04 01:00;CYQG 040100Z 29014G19KT 15SM -SN DRSN BKN038 M07/M13 A2994 RMK SC7 SLP150

CYQG;2013-02-04 02:00;CYQG 040200Z 29014G19KT 15SM -SN DRSN BKN039 M07/M14 A2996 RMK SC7 SLP158

CYQG;2013-02-04 03:00;CYQG 040300Z 29014KT 12SM -SN BKN036 M08/M13 A2999 RMK SC7 SLP168

CYQG;2013-02-04 03:40;CYQG 040340Z 29009KT 15SM FEW038 RMK SC2

CYQG;2013-02-04 04:00;CYQG 040400Z 29010KT 15SM FEW035 M08/M14 A3000 RMK SC2 SLP172

CYQG;2013-02-04 05:00;CYQG 040500Z 31009KT 15SM BKN042 M08/M14 A3000 RMK SC6 SLP171

CYQG;2013-02-04 06:00;CYQG 040600Z 29008KT 15SM OVC044 M08/M14 A3001 RMK SC8 SLP174

CYQG;2013-02-04 07:01;CYQG 040701Z 25006KT 15SM -SN BKN047 RMK SC7

CYQG;2013-02-04 08:00;CYQG 040800Z 27007KT 15SM -SN OVC048 M08/M12 A3002 RMK SC8 SLP177

CYQG;2013-02-04 09:00;CYQG 040900Z 25004KT 15SM -SN OVC048 M08/M11 A3001 RMK SC8 SLP175

CYQG;2013-02-04 10:00;CYQG 041000Z 24004KT 15SM -SN OVC027 M08/M11 A3001 RMK SC8 SLP172

CYQG;2013-02-04 11:00;CYQG 041100Z 23003KT 15SM -SN OVC027 M08/M11 A3000 RMK SC8 SLP170

CYQG;2013-02-04 12:00;CYQG 041200Z 00000KT 7SM -SN OVC022 M08/M11 A2999 RMK SC8 SLP166

CYQG;2013-02-04 13:00;CYQG 041300Z 16003KT 8SM -SN BKN018 OVC087 M08/M11 A2998 RMK SC6AC2 SLP165

CYQG;2013-02-04 13:14;CYQG 041314Z 15002KT 1SM -SN OVC015 RMK SN3SC5

CYQG;2013-02-04 14:00;CYQG 041400Z 00000KT 3/4SM -SN BKN011 OVC023 M08/M10 A2999 RMK SN3SC3SC2 SLP168

CYQG;2013-02-04 15:00;CYQG 041500Z 12002KT 3/4SM -SN OVC020 M08/M10 A2999 RMK SN3SC5 /S02/ SLP169

CYQG;2013-02-04 16:00;CYQG 041600Z 11002KT 3/4SM -SN OVC020 M07/M09 A2998 RMK SN3SC5 /S03/ SLP166

CYQG;2013-02-04 16:52;CYQG 041652Z 11003KT 1SM -SN OVC016 RMK SN2SC6

CYQG;2013-02-04 17:00;CYQG 041700Z 10003KT 1SM -SN OVC017 M07/M09 A2996 RMK SN2SC6 SLP159

CYQG;2013-02-04 17:18;CYQG 041718Z 11003KT 1 1/2SM -SN SCT009 OVC020 RMK SN2SF2SC4

CYQG;2013-02-04 17:33;CYQG 041733Z 11003KT 1SM -SN BKN008 OVC020 RMK SN2SF3SC2

CYQG;2013-02-04 18:00;CYQG 041800Z 12004KT 1SM -SN BKN008 OVC020 M07/M09 A2993 RMK SN2SF2SC3 /S04/ SLP147

CYQG;2013-02-04 19:00;CYQG 041900Z 10003KT 1SM -SN SCT008 OVC015 M06/M09 A2991 RMK SN2SF2SC4 /S01/ SLP141

CYQG;2013-02-04 19:38;CYQG 041938Z 08003KT 1 1/2SM -SN SCT008 OVC016 RMK SN2SF2SC5

CYQG;2013-02-04 20:00;CYQG 042000Z 07003KT 2SM -SN FEW016 OVC028 M06/M08 A2989 RMK SN1SC2SC6 SLP135

CYQG;2013-02-04 21:00;CYQG 042100Z 07005KT 2 1/2SM -SN OVC032 M07/M08 A2989 RMK SN1SC7 SLP133

CYQG;2013-02-04 21:35;CYQG 042135Z 09004KT 3SM -SN FEW009 OVC053 RMK SF1SC7

CYQG;2013-02-04 22:00;CYQG 042200Z 07005KT 3SM -SN OVC052 M07/M08 A2988 RMK SC8 SLP130

CYQG;2013-02-04 22:27;CYQG 042227Z 08005KT 2 1/2SM -SN FEW012 OVC052 RMK SC2SC6

CYQG;2013-02-04 23:00;CYQG 042300Z 08006KT 2 1/4SM -SN SCT012 OVC048 M07/M09 A2989 RMK SN1SC2SC5 SLP131

CYQG;2013-02-04 23:22;CYQG 042322Z 07007KT 3SM -SN BKN048 OVC070 RMK SC6AS2

CYQG;2013-02-05 00:00;CYQG 050000Z 08007KT 4SM -SN BKN049 OVC070 M08/M09 A2988 RMK SC6AS2 SLP131

CYQG;2013-02-05 01:00;CYQG 050100Z 06006KT 5SM -SN OVC037 M08/M09 A2989 RMK SC8 SLP135

CYQG;2013-02-05 02:00;CYQG 050200Z 04006KT 6SM -SN OVC040 M08/M09 A2991 RMK SC8 SLP141

CYQG;2013-02-05 03:00;CYQG 050300Z 05004KT 6SM -SN FEW014 OVC052 M08/M09 A2992 RMK SC1SC7 SLP145

CYQG;2013-02-05 04:00;CYQG 050400Z 05005KT 7SM -SN OVC050 M09/M10 A2991 RMK SC8 SLP140

CYQG;2013-02-05 05:00;CYQG 050500Z 03004KT 8SM -SN BKN047 OVC200 M09/M10 A2992 RMK SC6CS2 SLP144

CYQG;2013-02-05 06:00;CYQG 050600Z 04004KT 8SM -SN OVC013 M09/M10 A2993 RMK SC8 SLP146

CYQG;2013-02-05 07:00;CYQG 050700Z 05004KT 10SM -SN OVC020 M09/M10 A2992 RMK SC8 SLP142

CYQG;2013-02-05 08:00;CYQG 050800Z 03003KT 15SM OVC190 M10/M11 A2991 RMK AS8 INTMT -SN SLP141

CYQG;2013-02-05 09:00;CYQG 050900Z 02002KT 15SM -SN BKN021 OVC030 M09/M11 A2992 RMK SC7SC1 -SN INTMT SLP144

CYQG;2013-02-05 10:00;CYQG 051000Z 13002KT 15SM -SN SCT019 OVC029 M10/M11 A2992 RMK SC3SC5 -SN INTMT SLP142

CYQG;2013-02-05 11:00;CYQG 051100Z 00000KT 15SM -SN OVC016 M10/M12 A2992 RMK SC8 -SN INTMT SLP142

CYQG;2013-02-05 12:00;CYQG 051200Z 00000KT 12SM -SN OVC019 M09/M11 A2992 RMK SC8 -SN INTMT SLP142

CYQG;2013-02-05 13:00;CYQG 051300Z 00000KT 12SM -SHSN OVC021 M09/M10 A2993 RMK SC8 SLP147

CYQG;2013-02-05 14:00;CYQG 051400Z 00000KT 8SM -SN OVC025 M08/M10 A2993 RMK SC8 SLP148

CYQG;2013-02-05 15:00;CYQG 051500Z 19003KT 8SM -SN SCT025 OVC220 M08/M10 A2993 RMK SC3CI4 SLP147

CYQG;2013-02-05 16:00;CYQG 051600Z 18005KT 12SM FEW025 OVC140 M07/M09 A2991 RMK SC2AS5 SLP140

CYQG;2013-02-05 17:00;CYQG 051700Z 18007KT 12SM SCT011 OVC120 M06/M08 A2988 RMK CU3AS4 SLP129

CYQG;2013-02-05 17:12;CYQG 051712Z 19008KT 12SM BKN013 OVC120 RMK CU5AS3

CYQG;2013-02-05 17:49;CYQG 051749Z 20011G16KT 15SM BKN009 BKN120 RMK CU6AS2

CYQG;2013-02-05 18:00;CYQG 051800Z 22009KT 15SM BKN012 BKN021 M05/M08 A2986 RMK CF5CU2 SLP124

CYQG;2013-02-05 18:29;CYQG 051829Z 20009KT 15SM SCT012 BKN019 OVC068 RMK CF3CU2AS2

CYQG;2013-02-05 19:00;CYQG 051900Z 20010KT 15SM SCT015 BKN064 M04/M07 A2983 RMK CU3SC4 SLP113

CYQG;2013-02-05 20:00;CYQG 052000Z 20011KT 12SM FEW015 OVC051 M04/M07 A2983 RMK CU2SC6 SLP112

CYQG;2013-02-05 21:00;CYQG 052100Z 20010KT 12SM OVC045 M04/M06 A2983 RMK SC8 SLP111

CYQG;2013-02-05 21:45;CYQG 052145Z 21010KT 7SM -SN OVC040 RMK SC8

CYQG;2013-02-05 22:00;CYQG 052200Z 20009KT 2 1/2SM -SN OVC027 M04/M06 A2982 RMK SC8 SLP109

CYQG;2013-02-05 22:53;CYQG 052253Z 21009KT 1SM -SN OVC022 RMK SN2SC6

CYQG;2013-02-05 23:00;CYQG 052300Z 22010KT 3/4SM -SN OVC020 M04/M06 A2984 RMK SN3SC5 SLP114

CYQG;2013-02-05 23:07;CYQG 052307Z 21010KT 1 1/2SM -SN OVC022 RMK SN2SC6

CYQG;2013-02-05 23:48;CYQG 052348Z 22012KT 2SM -SN OVC026 RMK SN2SC6

CYQG;2013-02-06 00:00;CYQG 060000Z 22011KT 2 1/2SM -SN BKN029 OVC070 M04/M05 A2984 RMK SN1SC6AS1 SLP117

CYQG;2013-02-06 00:09;CYQG 060009Z 22012KT 3SM -SN FEW018 OVC055 RMK SC1SC7

CYQG;2013-02-06 00:50;CYQG 060050Z 23011KT 5SM BR FEW015 OVC032 RMK SC1SC7

CYQG;2013-02-06 01:00;CYQG 060100Z 22010KT 5SM BR FEW015 OVC031 M04/M05 A2986 RMK SC1SC7 SLP124

CYQG;2013-02-06 02:00;CYQG 060200Z 23012KT 5SM BR OVC017 M03/M05 A2987 RMK SC8 SLP127

CYQG;2013-02-06 03:00;CYQG 060300Z 25009KT 5SM BR FEW009 OVC014 M03/M05 A2989 RMK SF1SC7 SLP132

CYQG;2013-02-06 04:00;CYQG 060400Z 25008KT 5SM BR FEW009 OVC014 M03/M04 A2991 RMK SF1SC7 SLP137

CYQG;2013-02-06 05:00;CYQG 060500Z 26008KT 3SM -SHSN BR FEW007 OVC011 M02/M04 A2993 RMK SF1SC7 SLP145

CYQG;2013-02-06 06:00;CYQG 060600Z 31010KT 5SM -SHSN OVC011 M02/M04 A2995 RMK SF8 SLP153

CYQG;2013-02-06 06:34;CYQG 060634Z 32013G18KT 8SM -SHSN OVC017 RMK SC8

CYQG;2013-02-06 07:00;CYQG 060700Z 32012KT 6SM -SHSN OVC026 M03/M06 A3000 RMK SC8 SLP167

CYQG;2013-02-06 08:00;CYQG 060800Z CCA 34011KT 6SM -SHSN OVC038 M04/M08 A3005 RMK SC8 SLP184

CYQG;2013-02-06 09:00;CYQG 060900Z 34009KT 12SM -SHSN BKN040 M05/M10 A3007 RMK SC5 SLP193

CYQG;2013-02-06 10:00;CYQG 061000Z 32003KT 15SM SCT040 M07/M11 A3012 RMK SC3 OCNL -SHSN SLP208

CYQG;2013-02-06 11:00;CYQG 061100Z 00000KT 15SM FEW040 BKN250 M08/M11 A3014 RMK SC2CI2 SLP217

CYQG;2013-02-06 12:00;CYQG 061200Z 27003KT 15SM FEW040 SCT250 M08/M11 A3017 RMK SC2CI0 SLP229

CYQG;2013-02-06 13:00;CYQG 061300Z 27005KT 15SM BKN260 M08/M11 A3021 RMK CI3 CONTRAILS SLP241

CYQG;2013-02-06 14:00;CYQG 061400Z 22002KT 15SM FEW260 M07/M10 A3025 RMK CI1 SLP253

CYQG;2013-02-06 15:00;CYQG 061500Z 00000KT 15SM FEW020 FEW260 M04/M09 A3026 RMK CF1CI1 TR CF SLP255

CYQG;2013-02-06 16:00;CYQG 061600Z 11003KT 15SM FEW020 FEW260 M04/M11 A3027 RMK CF1CI1 TR CF SLP260

CYQG;2013-02-06 17:00;CYQG 061700Z 13005KT 15SM FEW020 FEW270 M04/M10 A3026 RMK CF1CI1 TR CF SLP258

CYQG;2013-02-06 18:00;CYQG 061800Z 13005KT 15SM FEW020 SCT280 M04/M09 A3027 RMK CF1CI1 CONTRAILS SLP259

CYQG;2013-02-06 19:00;CYQG 061900Z 13005KT 15SM FEW020 BKN280 M03/M09 A3026 RMK CF1CI1 TR CF CONTRAILS SLP258

CYQG;2013-02-06 20:00;CYQG 062000Z 15009KT 15SM FEW030 FEW280 M03/M09 A3026 RMK SC1CI1 SLP258

CYQG;2013-02-06 21:00;CYQG 062100Z 16009KT 15SM FEW170 M03/M09 A3026 RMK AC1 SLP258

CYQG;2013-02-06 22:00;CYQG 062200Z 18010KT 15SM FEW270 M04/M10 A3024 RMK CI1 TR CI SLP252

CYQG;2013-02-06 23:00;CYQG 062300Z 20007KT 15SM FEW270 M05/M10 A3029 RMK CI1 TR CI SLP268

CYQG;2013-02-07 00:00;CYQG 070000Z 18008KT 15SM FEW260 M06/M11 A3031 RMK CI1 TR CI SLP275

CYQG;2013-02-07 01:00;CYQG 070100Z 17005KT 15SM FEW120 M08/M11 A3031 RMK AC1 SLP276

CYQG;2013-02-07 02:00;CYQG 070200Z 16008KT 15SM SCT210 M08/M10 A3029 RMK CC2 SLP271

CYQG;2013-02-07 03:00;CYQG 070300Z 16007KT 15SM FEW210 FEW250 M07/M10 A3027 RMK CC1CI1 SLP263

CYQG;2013-02-07 04:00;CYQG 070400Z 14006KT 15SM FEW150 M08/M10 A3025 RMK AS1 SLP255

CYQG;2013-02-07 05:00;CYQG 070500Z 14004KT 15SM OVC063 M06/M09 A3026 RMK SC8 SLP258

CYQG;2013-02-07 06:00;CYQG 070600Z 00000KT 15SM OVC043 M05/M08 A3029 RMK SC8 SLP267

CYQG;2013-02-07 07:00;CYQG 070700Z 09003KT 15SM OVC066 M05/M08 A3027 RMK AC8 SLP261

CYQG;2013-02-07 08:00;CYQG 070800Z 10004KT 15SM OVC057 M04/M08 A3027 RMK SC8 SLP260

CYQG;2013-02-07 09:00;CYQG 070900Z 12005KT 15SM OVC067 M04/M07 A3026 RMK AC8 SLP257

CYQG;2013-02-07 10:00;CYQG 071000Z 10003KT 15SM OVC083 M03/M06 A3026 RMK AC8 SLP255

CYQG;2013-02-07 11:00;CYQG 071100Z 12008KT 15SM OVC054 M03/M06 A3023 RMK SC8 SLP248

CYQG;2013-02-07 11:47;CYQG 071147Z 15009KT 12SM -SHSN OVC057 RMK SC8

CYQG;2013-02-07 12:00;CYQG 071200Z 15008KT 12SM -SHSN OVC064 M03/M06 A3023 RMK SC8 SLP249

CYQG;2013-02-07 12:20;CYQG 071220Z 15008KT 12SM OVC047 RMK SC8

CYQG;2013-02-07 13:00;CYQG 071300Z 15008KT 12SM SCT047 OVC270 M02/M06 A3022 RMK SC4CI4 SLP245

CYQG;2013-02-07 14:00;CYQG 071400Z 14006KT 12SM FEW050 OVC110 M02/M06 A3021 RMK SC2AS6 SLP242

CYQG;2013-02-07 15:00;CYQG 071500Z 15006KT 15SM FEW050 OVC100 M01/M05 A3020 RMK SC2AS6 SLP237

CYQG;2013-02-07 16:00;CYQG 071600Z 12006KT 15SM SCT080 BKN120 M00/M05 A3019 RMK AC3AS4 SLP232

CYQG;2013-02-07 17:00;CYQG 071700Z 12006KT 15SM SCT100 BKN270 01/M04 A3017 RMK AC3CI3 SLP226

CYQG;2013-02-07 18:00;CYQG 071800Z 10008KT 15SM FEW095 BKN270 01/M04 A3013 RMK AC2CI2 SLP211

CYQG;2013-02-07 19:00;CYQG 071900Z 08009KT 15SM BKN170 BKN270 01/M04 A3010 RMK AC6CI0 SLP202

CYQG;2013-02-07 20:00;CYQG 072000Z 11012KT 15SM BKN130 BKN240 01/M04 A3007 RMK AC4CC1 CONTRAILS SLP193

CYQG;2013-02-07 21:00;CYQG 072100Z 10010G15KT 12SM SCT130 BKN260 01/M04 A3005 RMK AC2CI1 CONTRAILS SLP186

CYQG;2013-02-07 22:00;CYQG 072200Z 09013KT 12SM BKN160 BKN220 BKN260 00/M04 A3002 RMK AC5CC1CI1 CONTRAILS SLP176

CYQG;2013-02-07 23:00;CYQG 072300Z 08010G16KT 10SM BKN160 BKN260 M01/M04 A3001 RMK AC6CI1 SLP172

CYQG;2013-02-08 00:00;CYQG 080000Z 09010KT 15SM OVC160 M01/M04 A3000 RMK AC8 SLP166

CYQG;2013-02-08 01:00;CYQG 080100Z 09012KT 15SM BKN150 OVC260 M01/M05 A2997 RMK AC6CI2 PRESFR SLP156

CYQG;2013-02-08 02:00;CYQG 080200Z 08010KT 15SM OVC110 M01/M05 A2995 RMK AC8 SLP149

CYQG;2013-02-08 03:00;CYQG 080300Z 07010KT 15SM OVC130 M01/M04 A2992 RMK AC8 SLP139

CYQG;2013-02-08 04:00;CYQG 080400Z 06009KT 15SM OVC070 M01/M04 A2989 RMK AC8 SLP131

CYQG;2013-02-08 05:00;CYQG 080500Z 05012KT 12SM OVC056 M01/M03 A2987 RMK SC8 SLP124

CYQG;2013-02-08 05:13;CYQG 080513Z 05012KT 10SM -SHPL OVC034 RMK SC8

CYQG;2013-02-08 05:24;CYQG 080524Z 05011KT 4SM -SHSN BKN018 OVC038 RMK SC5SC3 OCNL -SHPL

CYQG;2013-02-08 05:31;CYQG 080531Z 05012KT 1 1/2SM -SHSN OVC013 RMK SC8 OCNL -SHPL

CYQG;2013-02-08 05:37;CYQG 080537Z 04013KT 1SM -SHSN BKN005 OVC011 RMK SN2SF5SC2 OCNL -SHPL

CYQG;2013-02-08 05:43;CYQG 080543Z 05013KT 3/8SM SHSN VV004 RMK SN8

CYQG;2013-02-08 05:48;CYQG 080548Z 05014KT 3/8SM -SHSNPL BKN008 OVC041 REFZRASN RMK SN2SF6SC1

CYQG;2013-02-08 05:55;CYQG 080555Z 05016KT 3SM -SHSNPL FEW008 OVC038 REFZRASN RMK SF2SC6

CYQG;2013-02-08 06:00;CYQG 080600Z 05015KT 3SM -SHSNPL FEW008 OVC040 M01/M02 A2984 REFZRASN RMK SF2SC6 SLP113

CYQG;2013-02-08 06:17;CYQG 080617Z 06015KT 3SM -SHSN -FZRA SCT008 OVC046 RMK SF3SC5

CYQG;2013-02-08 06:36;CYQG 080636Z 06015KT 3SM -FZRA BR SCT008 OVC044 RMK SF3SC5 OCNL -SHPL

CYQG;2013-02-08 07:00;CYQG 080700Z 07015KT 4SM -FZRA BR SCT008 OVC040 M01/M02 A2980 RMK SF3SC5 SLP099

CYQG;2013-02-08 07:18;CYQG 080718Z 08013G19KT 2 1/2SM -SN -FZRA BR SCT007 OVC043 RMK SF4SC4

CYQG;2013-02-08 07:46;CYQG 080746Z 08010KT 2 1/2SM -SN BR BKN007 OVC028 REFZRA RMK SF6SC2

CYQG;2013-02-08 08:00;CYQG 080800Z 08007KT 2 1/2SM -SN BR OVC009 M00/M01 A2977 REFZRA RMK SF8 SLP091

CYQG;2013-02-08 08:18;CYQG 080818Z 09009KT 1SM -SN BR OVC007 RMK SN2SF6

CYQG;2013-02-08 08:37;CYQG 080837Z 07007KT 1 1/2SM -SN BR OVC008 RMK SF8

CYQG;2013-02-08 09:00;CYQG 080900Z 05006KT 1 1/2SM -SN BR OVC006 M00/M01 A2975 RMK SF8 SLP081

CYQG;2013-02-08 09:49;CYQG 080949Z 03009KT 1 1/4SM -SN BR OVC004 RMK SF8

CYQG;2013-02-08 10:00;CYQG 081000Z 03009KT 1 1/4SM -SN BR OVC003 M00/M01 A2975 RMK SF8 /S03/ SLP080

CYQG;2013-02-08 10:33;CYQG 081033Z 36008KT 2 1/4SM -SN BR OVC005 RMK SF8

CYQG;2013-02-08 11:00;CYQG 081100Z 36009KT 2 1/2SM -SN BR OVC007 M01/M02 A2976 RMK SF8 SLP085

CYQG;2013-02-08 11:48;CYQG 081148Z 36009KT 3SM -SN BR OVC007 RMK SF8

CYQG;2013-02-08 12:00;CYQG 081200Z 35009KT 3SM -SN BR OVC007 M01/M02 A2978 RMK SF8 /S05/ SLP092

CYQG;2013-02-08 12:44;CYQG 081244Z 35014KT 2 1/2SM -SN BR OVC009 RMK SF8

CYQG;2013-02-08 13:00;CYQG 081300Z 35012KT 2SM -SN BR OVC010 M01/M02 A2983 RMK SN1SC7 SLP107

CYQG;2013-02-08 13:35;CYQG 081335Z 35016G21KT 3/4SM -SN BR OVC014 RMK SN2SC6

CYQG;2013-02-08 14:00;CYQG 081400Z 35016KT 1SM -SN BR SCT009 OVC015 M02/M03 A2986 RMK SN2SF2SC5 /S01/ SLP120

CYQG;2013-02-08 14:18;CYQG 081418Z 35018KT 1SM -SN DRSN BR SCT009 OVC013 RMK SN2SF1SC5

CYQG;2013-02-08 14:42;CYQG 081442Z 35016KT 1 1/2SM -SN BR OVC014 RMK SN2SC6

CYQG;2013-02-08 14:52;CYQG 081452Z 35013G25KT 2SM -SN BR OVC016 RMK SN1SC7

CYQG;2013-02-08 15:00;CYQG 081500Z 35014G21KT 1SM -SN BKN014 OVC027 M03/M04 A2990 RMK SN2SC5SC1 /SO2/ SLP133

CYQG;2013-02-08 15:20;CYQG 081520Z 35014G21KT 2SM -SN BKN014 OVC022 RMK SN1SC6SC2

CYQG;2013-02-08 15:44;CYQG 081544Z 35017G22KT 4SM -SN DRSN BKN015 BKN023 RMK SC6SC2

CYQG;2013-02-08 16:00;CYQG 081600Z 35017G26KT 10SM -SN DRSN BKN022 BKN100 M02/M05 A2995 RMK SC6AC2 SLP149

CYQG;2013-02-08 17:00;CYQG 081700Z 35017G26KT 15SM -SHSN DRSN OVC021 M02/M06 A2999 RMK SC8 SLP163

CYQG;2013-02-08 18:00;CYQG 081800Z 35017G26KT 15SM -SHSN DRSN OVC026 M02/M07 A3002 RMK SC8 SLP175

CYQG;2013-02-08 19:00;CYQG 081900Z 34013G22KT 15SM OVC018 M03/M06 A3005 RMK SC8 0CNL -SHSN SLP186

CYQG;2013-02-08 20:00;CYQG 082000Z 34016G24KT 12SM OVC018 M03/M07 A3007 RMK SC8 OCNL -SHSN SLP193

CYQG;2013-02-08 20:10;CYQG 082010Z 35017G24KT 15SM OVC020 RMK SC8

CYQG;2013-02-08 21:00;CYQG 082100Z 35015G20KT 8SM OVC021 M03/M06 A3011 RMK SC8 SLP206

CYQG;2013-02-08 22:00;CYQG 082200Z 34011G18KT 10SM OVC019 M03/M06 A3014 RMK SC8 SLP216

CYQG;2013-02-08 23:00;CYQG 082300Z 34018G24KT 10SM OVC021 M04/M07 A3019 RMK SC8 SLP231

CYQG;2013-02-09 00:00;CYQG 090000Z 34012G24KT 12SM OVC022 M04/M08 A3022 RMK SC8 SLP242

CYQG;2013-02-09 01:00;CYQG 090100Z 35011G20KT 15SM OVC025 M04/M08 A3024 RMK SC8 SLP249

CYQG;2013-02-09 02:00;CYQG 090200Z 35014G19KT 15SM -SHSN OVC023 M04/M08 A3027 RMK SC8 SLP258

CYQG;2013-02-09 03:00;CYQG 090300Z 36010G15KT 12SM -SHSN OVC022 M04/M08 A3029 RMK SC8 SLP266

CYQG;2013-02-09 04:00;CYQG 090400Z 34011KT 15SM -SHSN OVC024 M04/M08 A3030 RMK SC8 SLP270

CYQG;2013-02-09 05:00;CYQG 090500Z 33011KT 15SM -SHSN OVC027 M04/M08 A3032 RMK SC8 SLP276

CYQG;2013-02-09 06:00;CYQG 090600Z 34009KT 15SM -SHSN OVC029 M04/M09 A3033 RMK SC8 SLP280

CYQG;2013-02-09 07:00;CYQG 090700Z 32009KT 15SM BKN030 M05/M09 A3034 RMK SC5 OCNL -SHSN SLP283

CYQG;2013-02-09 08:00;CYQG 090800Z 32007KT 15SM FEW030 M06/M09 A3035 RMK SC2 SLP288

CYQG;2013-02-09 09:00;CYQG 090900Z 32007KT 15SM FEW030 M07/M10 A3036 RMK SC2 SLP293

CYQG;2013-02-09 10:00;CYQG 091000Z 34004KT 15SM FEW030 M08/M11 A3038 RMK SC1 SLP297

CYQG;2013-02-09 11:00;CYQG 091100Z 33004KT 15SM FEW030 M08/M10 A3040 RMK SC1 SLP304

CYQG;2013-02-09 12:00;CYQG 091200Z 35003KT 15SM FEW030 M09/M11 A3040 RMK SC1 SLP305

CYQG;2013-02-09 13:00;CYQG 091300Z 36004KT 15SM SKC M09/M10 A3042 RMK SLP313

CYQG;2013-02-09 14:00;CYQG 091400Z 35002KT 15SM FEW220 M08/M10 A3043 RMK CI1 SLP316

CYQG;2013-02-09 15:00;CYQG 091500Z 08002KT 15SM FEW220 M05/M09 A3043 RMK CI1 SLP315

CYQG;2013-02-09 16:00;CYQG 091600Z 00000KT 15SM SKC M04/M09 A3044 RMK SLP318

CYQG;2013-02-09 17:00;CYQG 091700Z 15002KT 15SM FEW025 FEW230 M03/M08 A3043 RMK SC1CI1 SLP315

CYQG;2013-02-09 18:00;CYQG 091800Z 15002KT 15SM FEW025 FEW230 M02/M08 A3041 RMK CF1CI1 SLP308

CYQG;2013-02-09 19:00;CYQG 091900Z 14006KT 15SM FEW025 M03/M08 A3040 RMK CF1 SLP303

CYQG;2013-02-09 20:00;CYQG 092000Z 20004KT 15SM FEW022 M02/M07 A3038 RMK SC2 SLP297

CYQG;2013-02-09 21:00;CYQG 092100Z 21007KT 15SM FEW022 M02/M08 A3037 RMK SC1 SLP294

CYQG;2013-02-09 22:00;CYQG 092200Z 18008KT 15SM FEW022 M03/M07 A3035 RMK SC1 SLP290

CYQG;2013-02-09 23:00;CYQG 092300Z 16004KT 15SM FEW022 FEW100 M04/M08 A3036 RMK SC1AC1 SLP292

CYQG;2013-02-10 00:00;CYQG 100000Z 15004KT 15SM FEW160 M05/M08 A3036 RMK AC1 SLP292

CYQG;2013-02-10 01:00;CYQG 100100Z 14006KT 15SM FEW160 M06/M08 A3034 RMK AC2 SLP286

CYQG;2013-02-10 02:00;CYQG 100200Z 14006KT 15SM FEW160 M07/M09 A3034 RMK AC2 FROIN SLP285

CYQG;2013-02-10 03:00;CYQG 100300Z 14006KT 15SM FEW160 M07/M09 A3032 RMK AC1 SLP280

CYQG;2013-02-10 04:00;CYQG 100400Z 14004KT 15SM SKC M07/M09 A3031 RMK SLP275

CYQG;2013-02-10 05:00;CYQG 100500Z 14004KT 15SM FEW160 M08/M08 A3030 RMK AC2 SLP272

CYQG;2013-02-10 06:00;CYQG 100600Z 00000KT 10SM SCT160 M07/M08 A3028 RMK AC3 SLP264

CYQG;2013-02-10 07:00;CYQG 100700Z 11005KT 12SM SCT160 M07/M08 A3025 RMK AC4 SLP255

CYQG;2013-02-10 08:00;CYQG 100800Z 11003KT 12SM FEW160 M07/M08 A3025 RMK AC2 SLP254

CYQG;2013-02-10 09:00;CYQG 100900Z 11005KT 12SM FEW160 M06/M09 A3022 RMK AC2 SLP244

CYQG;2013-02-10 10:00;CYQG 101000Z 14004KT 10SM SCT170 M05/M08 A3023 RMK AC3 SLP246

CYQG;2013-02-10 11:00;CYQG 101100Z 13005KT 10SM BKN150 M05/M08 A3022 RMK AC6 SLP244

CYQG;2013-02-10 12:00;CYQG 101200Z 17003KT 10SM BKN140 BKN240 M06/M08 A3023 RMK AC5CI2 SLP246

CYQG;2013-02-10 13:00;CYQG 101300Z 11004KT 12SM FEW150 BKN240 M05/M08 A3021 RMK AC2CI4 SLP241

CYQG;2013-02-10 14:00;CYQG 101400Z 11009KT 12SM BKN110 BKN240 M03/M06 A3014 RMK AC6CI1 SLP219

CYQG;2013-02-10 15:00;CYQG 101500Z 17007KT 15SM BKN110 M02/M05 A3016 RMK AC7 SLP222

CYQG;2013-02-10 16:00;CYQG 101600Z 13006KT 15SM BKN110 OVC250 M00/M05 A3014 RMK AC7CI1 SLP218

CYQG;2013-02-10 17:00;CYQG 101700Z 15007KT 15SM BKN120 BKN250 01/M05 A3012 RMK AC5CI2 SLP211

CYQG;2013-02-10 18:00;CYQG 101800Z 12007KT 15SM BKN110 OVC250 02/M04 A3005 RMK AC6CI1 PRESFR SLP186

CYQG;2013-02-10 19:00;CYQG 101900Z 13006KT 15SM BKN090 OVC260 02/M04 A3003 RMK AC7CS1 SLP178

CYQG;2013-02-10 20:00;CYQG 102000Z 09007KT 15SM FEW063 OVC080 03/M02 A2999 RMK SC2AC6 SLP165

CYQG;2013-02-10 21:00;CYQG 102100Z 11008KT 15SM OVC054 02/M03 A2996 RMK SC8 SLP155

CYQG;2013-02-10 22:00;CYQG 102200Z 11006KT 15SM OVC068 02/M02 A2994 RMK AC8 SLP147

CYQG;2013-02-10 23:00;CYQG 102300Z 13010KT 15SM OVC091 03/M02 A2989 RMK AC8 SLP131

CYQG;2013-02-11 00:00;CYQG 110000Z 13006KT 8SM OVC052 04/M02 A2987 RMK SC8 SLP124

CYQG;2013-02-11 00:06;CYQG 110006Z 12004KT 8SM -RA OVC052 RMK SC8

CYQG;2013-02-11 01:00;CYQG 110100Z 15012KT 12SM OVC061 04/M03 A2985 RMK SC8 INTMT -RA SLP116

CYQG;2013-02-11 02:00;CYQG 110200Z 16011KT 6SM -RA BR OVC032 04/M00 A2981 RMK SC8 -RA INTMT SLP102

CYQG;2013-02-11 03:00;CYQG 110300Z 16013KT 8SM -RA OVC031 04/00 A2977 RMK SC8 -RA INTMT SLP086

CYQG;2013-02-11 04:00;CYQG 110400Z 16011KT 8SM -RA OVC027 04/00 A2974 RMK SC8 SLP076

CYQG;2013-02-11 05:00;CYQG 110500Z 18012KT 12SM OVC027 04/01 A2971 RMK SC8 SLP068

CYQG;2013-02-11 06:00;CYQG 110600Z 20013KT 15SM OVC017 06/04 A2970 RMK SC8 SLP061

CYQG;2013-02-11 07:00;CYQG 110700Z 20013G18KT 15SM OVC015 05/04 A2967 RMK SC8 SLP053

CYQG;2013-02-11 08:00;CYQG 110800Z 21012KT 15SM OVC013 06/04 A2965 RMK SC8 SLP047

CYQG;2013-02-11 09:00;CYQG 110900Z 20015KT 15SM OVC011 06/05 A2963 RMK SC8 SLP039

CYQG;2013-02-11 09:43;CYQG 110943Z 20014KT 15SM FEW007 OVC013 RMK SF2SC6

CYQG;2013-02-11 10:00;CYQG 111000Z 20015KT 8SM FEW006 OVC012 05/05 A2960 RMK SF2SC6 SLP029

CYQG;2013-02-11 11:00;CYQG 111100Z 20016KT 6SM BR FEW006 BKN013 06/05 A2958 RMK SF2SC3 SLP021

CYQG;2013-02-11 11:39;CYQG 111139Z 21014KT 6SM BR FEW005 BKN046 RMK SF2SC6

CYQG;2013-02-11 12:00;CYQG 111200Z 21017KT 7SM FEW005 BKN055 06/05 A2958 RMK SF2SC6 SLP020

CYQG;2013-02-11 12:52;CYQG 111252Z 26015G21KT 12SM -SHRA FEW018 BKN050 RMK SC2SC6

CYQG;2013-02-11 13:00;CYQG 111300Z 26015G21KT 15SM FEW018 SCT051 07/04 A2958 RMK SC2SC2 OCNL -SHRA SLP023

CYQG;2013-02-11 13:21;CYQG 111321Z 24028G34KT 15SM FEW018 BKN039 RMK SC1SC6

CYQG;2013-02-11 14:00;CYQG 111400Z 24024G34KT 15SM FEW054 FEW075 06/M01 A2960 RMK CU1AC1 SLP028

CYQG;2013-02-11 15:00;CYQG 111500Z 24023G30KT 15SM OVC032 05/M01 A2960 RMK SC8 SLP029

CYQG;2013-02-11 16:00;CYQG 111600Z 24028G38KT 15SM OVC031 04/M03 A2963 RMK SC8 SLP038

CYQG;2013-02-11 17:00;CYQG 111700Z 25029G40KT 15SM OVC034 03/M04 A2964 RMK SC8 SLP042

CYQG;2013-02-11 18:00;CYQG 111800Z 25027G36KT 15SM OVC037 03/M04 A2964 RMK SC8 SLP044

CYQG;2013-02-11 19:00;CYQG 111900Z 24026G32KT 15SM OVC042 03/M04 A2966 RMK SC8 SLP048

CYQG;2013-02-11 20:00;CYQG 112000Z 25024G34KT 15SM OVC034 02/M04 A2967 RMK SC8 SLP053

CYQG;2013-02-11 21:00;CYQG 112100Z 25020G31KT 12SM OVC033 02/M04 A2970 RMK SC8 SLP061

CYQG;2013-02-11 22:00;CYQG 112200Z 25024G36KT 12SM OVC031 02/M04 A2973 RMK SC8 SLP071

CYQG;2013-02-11 23:00;CYQG 112300Z 25020G28KT 12SM OVC028 02/M04 A2974 RMK SC8 SLP076

CYQG;2013-02-12 00:00;CYQG 120000Z 25016G25KT 12SM OVC028 02/M04 A2978 RMK SC8 SLP089

CYQG;2013-02-12 01:00;CYQG 120100Z 26017G24KT 15SM OVC025 02/M04 A2980 RMK SF8 SLP096

CYQG;2013-02-12 02:00;CYQG 120200Z 26021KT 15SM OVC027 01/M04 A2982 RMK SF8 SLP103

CYQG;2013-02-12 03:00;CYQG 120300Z 27020G25KT 15SM OVC028 01/M05 A2983 RMK SF8 SLP107

CYQG;2013-02-12 04:00;CYQG 120400Z 26016G21KT 15SM OVC028 01/M05 A2984 RMK SC8 SLP111

CYQG;2013-02-12 05:00;CYQG 120500Z 27019G26KT 15SM OVC024 01/M05 A2987 RMK SC8 SLP121

CYQG;2013-02-12 06:00;CYQG 120600Z 25015G20KT 15SM OVC023 00/M04 A2989 RMK SC8 SLP127

CYQG;2013-02-12 07:00;CYQG 120700Z 26013G18KT 15SM OVC023 M00/M04 A2990 RMK SC8 SLP133

CYQG;2013-02-12 08:00;CYQG 120800Z 29017KT 15SM OVC026 00/M05 A2993 RMK SC8 SLP142

CYQG;2013-02-12 09:00;CYQG 120900Z 28016G22KT 15SM OVC026 00/M06 A2994 RMK SC8 SLP144

CYQG;2013-02-12 10:00;CYQG 121000Z 27015G20KT 15SM OVC029 M00/M06 A2995 RMK SC8 SLP150

CYQG;2013-02-12 11:00;CYQG 121100Z 28015G22KT 15SM BKN023 M00/M06 A2998 RMK SC7 SLP158

CYQG;2013-02-12 11:49;CYQG 121149Z 29015KT 12SM -SHSN OVC021 RMK SC8

CYQG;2013-02-12 12:00;CYQG 121200Z 29015KT 12SM -SHSN OVC021 M00/M05 A2999 RMK SC8 SLP164

CYQG;2013-02-12 13:00;CYQG 121300Z 28011KT 10SM -SHSN OVC020 M00/M05 A3001 RMK SC8 SLP171

CYQG;2013-02-12 14:00;CYQG 121400Z 28008KT 8SM -SHSNGS OVC017 M00/M04 A3003 RMK SC8 SLP175

CYQG;2013-02-12 14:46;CYQG 121446Z 28005KT 8SM -SHSN OVC021 RMK SC8

CYQG;2013-02-12 15:00;CYQG 121500Z 29005KT 8SM -SHSN OVC020 M00/M05 A3003 RMK SC8 SLP178

CYQG;2013-02-12 15:20;CYQG 121520Z 26012KT 10SM OVC021 RMK SC8

CYQG;2013-02-12 16:00;CYQG 121600Z 25012KT 12SM OVC022 M00/M05 A3004 RMK SC8 SLP181

CYQG;2013-02-12 17:00;CYQG 121700Z 25011KT 12SM OVC023 M00/M05 A3001 RMK SC8 SLP172

CYQG;2013-02-12 18:00;CYQG 121800Z 25012G17KT 12SM OVC028 00/M05 A3002 RMK SC8 SLP172

CYQG;2013-02-12 19:00;CYQG 121900Z 27010KT 15SM OVC027 01/M06 A2995 RMK SC8 PRESFR SLP151

CYQG;2013-02-12 20:00;CYQG 122000Z 25011KT 15SM BKN028 01/M06 A2995 RMK SC7 SLP149

CYQG;2013-02-12 22:00;CYQG 122200Z 25010KT 15SM BKN030 01/M06 A2996 RMK SC7 SLP153

CYQG;2013-02-12 23:00;CYQG 122300Z 27007KT 15SM OVC032 00/M06 A2997 RMK SC8 SLP155

CYQG;2013-02-13 00:00;CYQG 130000Z 27006KT 15SM OVC026 00/M05 A2997 RMK SC8 SLP155

CYQG;2013-02-13 01:00;CYQG 130100Z 27005KT 15SM BKN034 00/M05 A2995 RMK SC7 SLP151

CYQG;2013-02-13 02:00;CYQG 130200Z 28010KT 15SM BKN034 M00/M06 A2994 RMK SC7 SLP146

CYQG;2013-02-13 03:00;CYQG 130300Z 29011KT 15SM BKN028 M01/M06 A2993 RMK SC7 SLP142

CYQG;2013-02-13 04:00;CYQG 130400Z 29010KT 15SM BKN023 M01/M07 A2992 RMK SC6 SLP140

CYQG;2013-02-13 05:00;CYQG 130500Z 30006KT 15SM BKN024 M02/M07 A2991 RMK SC6 SLP137

CYQG;2013-02-13 06:00;CYQG 130600Z 29006KT 15SM BKN023 M02/M07 A2992 RMK SC6 SLP139

CYQG;2013-02-13 07:00;CYQG 130700Z 32006KT 15SM BKN021 M02/M07 A2990 RMK SC7 SLP134

CYQG;2013-02-13 08:00;CYQG 130800Z 29006KT 15SM BKN020 M02/M07 A2989 RMK SC7 SLP130

CYQG;2013-02-13 09:00;CYQG 130900Z 29003KT 15SM BKN021 M02/M07 A2988 RMK SC7 SLP127

CYQG;2013-02-13 10:00;CYQG 131000Z 28004KT 15SM BKN019 M03/M07 A2988 RMK SC7 SLP125

CYQG;2013-02-13 11:00;CYQG 131100Z 30003KT 15SM OVC020 M03/M07 A2987 RMK SC8 SLP124

CYQG;2013-02-13 12:00;CYQG 131200Z 00000KT 12SM OVC020 M03/M07 A2986 RMK SC8 SLP120

CYQG;2013-02-13 13:00;CYQG 131300Z 11002KT 10SM BKN019 M03/M07 A2984 RMK SC7 SLP114

CYQG;2013-02-13 14:00;CYQG 131400Z 20003KT 15SM BKN019 M03/M07 A2983 RMK SC7 SLP111

CYQG;2013-02-13 15:00;CYQG 131500Z 00000KT 12SM BKN018 M03/M07 A2982 RMK SC7 SLP106

CYQG;2013-02-13 16:00;CYQG 131600Z 16004KT 15SM BKN017 M02/M06 A2983 RMK SC7 SLP109

CYQG;2013-02-13 17:00;CYQG 131700Z 26003KT 15SM BKN016 M02/M06 A2982 RMK SC6 SLP106

CYQG;2013-02-13 18:00;CYQG 131800Z 26003KT 15SM FEW017 SCT260 00/M05 A2979 RMK SC1CI1 SLP096

CYQG;2013-02-13 19:00;CYQG 131900Z 26002KT 15SM FEW019 FEW270 02/M05 A2977 RMK SC1CI1 TR SC SLP087

CYQG;2013-02-13 20:00;CYQG 132000Z 20008KT 15SM FEW019 FEW270 02/M04 A2975 RMK SC1CI1 TR SC SLP081

CYQG;2013-02-13 21:00;CYQG 132100Z 20008KT 15SM FEW270 01/M04 A2974 RMK CI1 SLP080

CYQG;2013-02-13 22:00;CYQG 132200Z 18006KT 15SM SCT270 00/M04 A2974 RMK CI2 SLP080

CYQG;2013-02-13 23:00;CYQG 132300Z 21005KT 15SM FEW270 M00/M04 A2976 RMK CI1 SLP084

CYQG;2013-02-14 00:00;CYQG 140000Z 19006KT 15SM FEW270 M02/M04 A2977 RMK CI1 SLP088

CYQG;2013-02-14 01:00;CYQG 140100Z 19008KT 15SM SCT270 M02/M04 A2978 RMK CI2 SLP092

CYQG;2013-02-14 02:00;CYQG 140200Z 21007KT 15SM BKN120 BKN270 M01/M04 A2979 RMK AC5CI1 SLP095

CYQG;2013-02-14 03:00;CYQG 140300Z 21008KT 15SM FEW120 M01/M03 A2979 RMK AC2 SLP097

CYQG;2013-02-14 04:00;CYQG 140400Z 22008KT 15SM BKN110 M01/M03 A2980 RMK AC6 SLP098

CYQG;2013-02-14 05:00;CYQG 140500Z 21009KT 10SM FEW110 M01/M03 A2979 RMK AC2 SLP096

CYQG;2013-02-14 06:00;CYQG 140600Z 20009KT 7SM SKC M01/M03 A2979 RMK SLP094

CYQG;2013-02-14 07:00;CYQG 140700Z 20009KT 7SM SKC M01/M03 A2978 RMK SLP093

CYQG;2013-02-14 08:00;CYQG 140800Z 20007KT 6SM BR FEW080 M01/M03 A2977 RMK AC1 SLP090

CYQG;2013-02-14 09:00;CYQG 140900Z 20008KT 6SM BR SKC M01/M03 A2977 RMK SLP089

CYQG;2013-02-14 10:00;CYQG 141000Z 21009KT 7SM SCT190 M01/M03 A2977 RMK AC2 SLP088

CYQG;2013-02-14 11:00;CYQG 141100Z 21008KT 7SM BKN210 M01/M02 A2977 RMK CI2 SLP088

CYQG;2013-02-14 12:00;CYQG 141200Z 21010KT 7SM SCT033 BKN210 M00/M02 A2977 RMK SC3CI1 SLP088

CYQG;2013-02-14 13:00;CYQG 141300Z 22010KT 5SM BR SCT120 BKN230 BKN260 00/M01 A2977 RMK AS4CS2CI0 FROIN HALO SLP090

CYQG;2013-02-14 14:00;CYQG 141400Z 21012KT 5SM BR FEW080 OVC110 01/M01 A2978 RMK AC2AS6 SUN DIMLY VISBL SLP093

CYQG;2013-02-14 15:00;CYQG 141500Z 21012KT 5SM BR SCT080 OVC110 02/M00 A2978 RMK AC3AS5 SLP092

CYQG;2013-02-14 15:10;CYQG 141510Z 21013KT 5SM BR SCT008 OVC100 RMK SF3AS5

CYQG;2013-02-14 15:28;CYQG 141528Z 20015G20KT 5SM BR BKN009 OVC072 RMK SF5AS3

CYQG;2013-02-14 16:00;CYQG 141600Z 21016G21KT 5SM BR BKN009 OVC072 02/00 A2977 RMK SF7AS1 SLP087

CYQG;2013-02-14 16:30;CYQG 141630Z 20016KT 4SM -RASN BR OVC008 RMK SF8

CYQG;2013-02-14 17:00;CYQG 141700Z 20014KT 3SM -RASN BR OVC008 02/00 A2976 RMK SF8 SLP084

CYQG;2013-02-14 17:50;CYQG 141750Z 18015KT 4SM BR OVC007 RMK SF8

CYQG;2013-02-14 18:00;CYQG 141800Z 18016KT 5SM BR BKN007 OVC020 02/01 A2973 RMK SF6SC2 PRESFR SLP073

CYQG;2013-02-14 18:40;CYQG 141840Z 20018KT 5SM BR SCT012 OVC054 RMK SF4SC4

CYQG;2013-02-14 19:00;CYQG 141900Z 19015KT 5SM BR FEW012 BKN019 OVC080 03/01 A2971 RMK SF2SC5AC2 SLP066

CYQG;2013-02-14 19:15;CYQG 141915Z 19014G19KT 4SM -SHRA BKN026 OVC077 RMK SC6AC2

CYQG;2013-02-14 19:42;CYQG 141942Z 20018KT 4SM -SHRA BR FEW009 OVC014 RMK SF2SC6

CYQG;2013-02-14 20:00;CYQG 142000Z 20017KT 4SM -SHRA BR OVC015 03/01 A2970 RMK SC8 SLP064

CYQG;2013-02-14 21:00;CYQG 142100Z 21013KT 6SM -RA BR OVC018 03/01 A2970 RMK SC8 SLP064

CYQG;2013-02-14 22:00;CYQG 142200Z 20013KT 5SM -RA BR SCT020 OVC040 03/01 A2970 RMK SC3SC5 SLP065

CYQG;2013-02-14 23:00;CYQG 142300Z 23012KT 6SM -RA BR SCT025 OVC037 04/02 A2971 RMK CU3SC5 SLP068

CYQG;2013-02-14 23:28;CYQG 142328Z 24015G21KT 12SM SCT026 OVC043 RMK CU4SC4

CYQG;2013-02-15 00:00;CYQG 150000Z 25015KT 15SM FEW030 BKN056 04/M01 A2974 RMK CU2SC5 SLP076

CYQG;2013-02-15 01:00;CYQG 150100Z 24012KT 15SM BKN036 04/M01 A2976 RMK SC7 SLP082

CYQG;2013-02-15 02:00;CYQG 150200Z CCA 26015KT 15SM OVC035 04/M01 A2977 RMK SC8 SLP085

CYQG;2013-02-15 03:00;CYQG 150300Z 27024G31KT 15SM SCT035 BKN049 03/M03 A2980 RMK CU3SC4 SLP096

CYQG;2013-02-15 04:00;CYQG 150400Z 26019G26KT 15SM SCT028 BKN048 02/M03 A2980 RMK CU3SC4 SLP097

CYQG;2013-02-15 05:00;CYQG 150500Z 27016G25KT 15SM BKN028 02/M03 A2983 RMK SC7 SLP106

CYQG;2013-02-15 05:28;CYQG 150528Z 27019G25KT 15SM -SHSN BKN032 RMK SC7

CYQG;2013-02-15 05:52;CYQG 150552Z 27015G24KT 15SM BKN032 RMK SC5

CYQG;2013-02-15 06:00;CYQG 150600Z 27016G21KT 15SM FEW030 BKN048 02/M03 A2984 RMK SC2SC4 SLP111

CYQG;2013-02-15 07:00;CYQG 150700Z 28013G18KT 15SM FEW031 BKN045 01/M04 A2986 RMK SC2SC3 SLP117

CYQG;2013-02-15 08:00;CYQG 150800Z 29013G21KT 15SM FEW027 00/M05 A2988 RMK SC2 SLP125

CYQG;2013-02-15 09:00;CYQG 150900Z 29008KT 15SM FEW025 M00/M05 A2989 RMK SC1 SLP128

CYQG;2013-02-15 10:00;CYQG 151000Z 27007KT 15SM FEW024 M01/M05 A2992 RMK SC2 SLP137

CYQG;2013-02-15 11:00;CYQG 151100Z 29008KT 15SM FEW025 M01/M06 A2995 RMK SC1 SLP148

CYQG;2013-02-15 12:00;CYQG 151200Z 28009KT 15SM FEW050 BKN062 M02/M07 A2998 RMK SC1SC6 SLP159

CYQG;2013-02-15 13:00;CYQG 151300Z 29010KT 15SM FEW050 BKN060 M02/M07 A3000 RMK SC1SC7 DIST SHSN SLP166

CYQG;2013-02-15 13:14;CYQG 151314Z 29008KT 15SM -SHSN FEW050 BKN060 RMK SC1SC7

CYQG;2013-02-15 14:00;CYQG 151400Z 31009G15KT 15SM FEW030 BKN065 M02/M08 A3002 RMK SC1SC7 OCNL -SHSN SLP173

CYQG;2013-02-15 15:00;CYQG 151500Z 32011G16KT 15SM FEW020 BKN067 M02/M11 A3004 RMK SC1AC7 OCNL -SHSN SLP180

CYQG;2013-02-15 15:38;CYQG 151538Z 30013KT 15SM FEW020 BKN071 RMK SC1AC7

CYQG;2013-02-15 16:00;CYQG 151600Z 31010G15KT 15SM BKN071 M02/M11 A3005 RMK AC6 SLP185

CYQG;2013-02-15 17:00;CYQG 151700Z 29010G15KT 15SM FEW036 BKN071 M02/M10 A3005 RMK CF1AC6 SLP185

CYQG;2013-02-15 18:00;CYQG 151800Z 29011G17KT 15SM BKN042 BKN070 M00/M09 A3004 RMK SC5AC1 SLP179

CYQG;2013-02-15 19:00;CYQG 151900Z 29016KT 15SM BKN042 M01/M11 A3004 RMK SC7 SLP179

CYQG;2013-02-15 20:00;CYQG 152000Z 30012KT 15SM BKN045 M01/M11 A3004 RMK SC7 -SHSN DIST E SLP179

CYQG;2013-02-15 21:00;CYQG 152100Z 29012G17KT 15SM BKN048 M01/M12 A3005 RMK SC7 SLP184

CYQG;2013-02-15 22:00;CYQG 152200Z 31011G17KT 15SM BKN045 BKN260 M02/M12 A3007 RMK SC5CI1 SLP190

CYQG;2013-02-15 23:00;CYQG 152300Z 29007KT 15SM BKN045 BKN260 M02/M12 A3008 RMK SC6CI1 SLP194

CYQG;2013-02-16 00:00;CYQG 160000Z CCB 31009KT 15SM BKN046 M03/M12 A3010 RMK SC7 SLP200

CYQG;2013-02-16 01:00;CYQG 160100Z 32007KT 15SM BKN044 M03/M12 A3010 RMK SC7 SLP201

CYQG;2013-02-16 02:00;CYQG 160200Z 29005KT 15SM BKN043 M03/M12 A3010 RMK SC7 SLP202

CYQG;2013-02-16 03:00;CYQG 160300Z 29005KT 15SM BKN043 M03/M12 A3011 RMK SC7 SLP204

CYQG;2013-02-16 04:00;CYQG 160400Z 29010KT 15SM BKN048 M03/M12 A3010 RMK SC7 SLP201

CYQG;2013-02-16 04:49;CYQG 160449Z 29007KT 15SM -SHSN BKN049 RMK SC7

CYQG;2013-02-16 05:00;CYQG 160500Z 29008KT 15SM -SHSN BKN049 M03/M11 A3009 RMK SC7 SLP198

CYQG;2013-02-16 05:25;CYQG 160525Z 29009KT 15SM BKN051 RMK SC7

CYQG;2013-02-16 06:00;CYQG 160600Z 29007KT 15SM BKN050 BKN075 M04/M11 A3008 RMK SC5AC2 SLP196

CYQG;2013-02-16 07:00;CYQG 160700Z 31008KT 15SM BKN051 M04/M10 A3007 RMK SC7 SLP192

CYQG;2013-02-16 08:00;CYQG 160800Z 30004KT 15SM FEW055 M05/M12 A3007 RMK SC2 SLP190

CYQG;2013-02-16 09:00;CYQG 160900Z 29004KT 15SM FEW060 M06/M12 A3005 RMK SC2 SLP187

CYQG;2013-02-16 10:00;CYQG 161000Z 29005KT 15SM FEW060 M06/M12 A3005 RMK SC1 SLP186

CYQG;2013-02-16 11:00;CYQG 161100Z 28005KT 15SM FEW067 M07/M11 A3005 RMK AC2 SLP187

CYQG;2013-02-16 12:00;CYQG 161200Z 00000KT 15SM BKN064 M07/M11 A3004 RMK SC6 SLP182

CYQG;2013-02-16 13:00;CYQG 161300Z 27003KT 15SM FEW052 BKN069 M06/M11 A3004 RMK SC2AC2 SLP183

CYQG;2013-02-16 14:00;CYQG 161400Z 28002KT 15SM BKN071 M06/M11 A3004 RMK AC4 SLP182

CYQG;2013-02-16 15:00;CYQG 161500Z 23002KT 15SM BKN073 M05/M11 A3003 RMK AC4 SLP180

CYQG;2013-02-16 16:00;CYQG 161600Z 24007KT 15SM VCSH BKN040 BKN070 M03/M10 A3002 RMK CU3AC2 VCSH VIS 6SM SE N SLP177

CYQG;2013-02-16 16:12;CYQG 161612Z 21004KT 15SM -SHSN SCT040 BKN070 RMK CU3AC4 VIS 6SM SW N

CYQG;2013-02-16 16:23;CYQG 161623Z 26003KT 3SM -SHSN SCT020 BKN060 RMK CU4SC3 VIS 6SM SW N

CYQG;2013-02-16 16:33;CYQG 161633Z 21004KT 5SM -SHSN BKN020 BKN150 RMK CU6AC2

CYQG;2013-02-16 17:00;CYQG 161700Z 22003KT 5SM -SHSN BKN020 M04/M09 A3001 RMK CU7 SLP174

CYQG;2013-02-16 18:00;CYQG 161800Z 19006KT 5SM -SHSN FEW020 BKN041 M04/M08 A2999 RMK CU2SC6 SLP164

CYQG;2013-02-16 19:00;CYQG 161900Z 31007KT 3SM -SHSN FEW012 OVC020 M04/M07 A2997 RMK CU2SC6 SLP159

CYQG;2013-02-16 19:35;CYQG 161935Z 33007KT 3/4SM -SHSN OVC009 RMK SN2SC6

CYQG;2013-02-16 20:00;CYQG 162000Z CCA 29010KT 1/2SM SHSN VV004 M05/M07 A2997 RMK SN8 /S01/ SLP157

CYQG;2013-02-16 20:41;CYQG 162041Z 36004KT 3/4SM -SHSN OVC011 RESN RMK SN6SF2

CYQG;2013-02-16 20:49;CYQG 162049Z 35003KT 1 1/4SM -SHSN OVC014 RESN RMK SN1SF7

CYQG;2013-02-16 21:00;CYQG 162100Z 32006KT 1 1/4SM -SHSN OVC011 M05/M06 A2995 RESN RMK SF7 SLP152

CYQG;2013-02-16 21:21;CYQG 162121Z 31007KT 3/8SM SHSN VV005 RMK SN8

CYQG;2013-02-16 21:35;CYQG 162135Z 32009KT 1 1/4SM -SHSN OVC017 RESN RMK SC8

CYQG;2013-02-16 21:44;CYQG 162144Z 33006KT 2SM -SHSN BKN037 BKN058 RESN RMK SC6SC1

CYQG;2013-02-16 22:00;CYQG 162200Z 35005KT 1 3/4SM -SHSN OVC013 M05/M07 A2998 RESN RMK SC7 SLP163

CYQG;2013-02-16 22:11;CYQG 162211Z 36005KT 7SM FEW015 BKN058 RMK SC2SC4 OCNL -

CYQG;2013-02-16 22:37;CYQG 162237Z 35003KT 2 1/2SM -SHSN OVC012 RMK SC8

CYQG;2013-02-16 22:42;CYQG 162242Z 35003KT 3/4SM -SHSN BKN013 OVC023 RMK SN2SC5SC2

CYQG;2013-02-16 22:48;CYQG 162248Z 35004KT 1/2SM SHSN VV005 RMK SN8

CYQG;2013-02-16 22:51;CYQG 162251Z 32007KT 1/4SM +SHSN VV002 RMK SN8

CYQG;2013-02-16 23:00;CYQG 162300Z 32009KT 3/4SM -SHSN VV006 M06/M08 A3000 RESN RMK SN8 SLP169

CYQG;2013-02-16 23:10;CYQG 162310Z 34008KT 3/4SM -SHSN OVC011 RMK SN3SC5

CYQG;2013-02-16 23:19;CYQG 162319Z 34008KT 1/2SM SHSN VV005 RMK SN8

CYQG;2013-02-16 23:37;CYQG 162337Z 32008KT 1 1/2SM -SHSN OVC012 RESN RMK SC8

CYQG;2013-02-16 23:48;CYQG 162348Z 32007KT 6SM -SHSN OVC022 RESN RMK SC8 VIS NE 21/2

CYQG;2013-02-17 00:00;CYQG 170000Z 34007KT 7SM -SHSN OVC032 M06/M09 A3001 RESN RMK SC8 VIS NE 21/2 /S04/ SLP175

CYQG;2013-02-17 01:00;CYQG 170100Z 32009KT 10SM -SHSN OVC022 M06/M11 A3003 RMK SC8 SLP179

CYQG;2013-02-17 01:36;CYQG 170136Z 33006KT 12SM FEW032 BKN058 RMK SC2SC4

CYQG;2013-02-17 02:00;CYQG 170200Z 32006KT 12SM FEW030 SCT066 SCT080 M07/M12 A3003 RMK SC1AC2AC1 SLP180

CYQG;2013-02-17 03:00;CYQG 170300Z 31005KT 15SM FEW030 BKN070 M08/M12 A3004 RMK SC1AC5 SLP182

CYQG;2013-02-17 04:00;CYQG 170400Z 30005KT 15SM FEW030 BKN068 M08/M11 A3003 RMK SC1AC6 SLP180

CYQG;2013-02-17 05:00;CYQG 170500Z 31006KT 15SM FEW030 FEW070 BKN100 M08/M12 A3002 RMK SC1AC2AC4 SLP178

CYQG;2013-02-17 06:00;CYQG 170600Z 31007KT 15SM FEW012 FEW027 BKN100 M09/M12 A3003 RMK SC1SC2AC3 SLP180

CYQG;2013-02-17 06:32;CYQG 170632Z 32009KT 6SM -SHSN FEW017 OVC036 RMK SC2SC6

CYQG;2013-02-17 07:00;CYQG 170700Z 33008KT 5SM -SHSN FEW017 OVC036 M08/M10 A3004 RMK SC2SC6 SLP182

CYQG;2013-02-17 08:00;CYQG 170800Z 34010KT 4SM -SHSN FEW021 OVC037 M08/M11 A3004 RMK SC2SC6 SLP185

CYQG;2013-02-17 09:00;CYQG 170900Z 34009KT 6SM -SHSN FEW038 BKN050 OVC075 M09/M11 A3006 RMK SC2SC4AC2 /S01/ SLP190

CYQG;2013-02-17 09:53;CYQG 170953Z 36008KT 15SM FEW045 BKN070 RMK SC2AC4

CYQG;2013-02-17 10:00;CYQG 171000Z 35006KT 15SM FEW045 BKN070 M10/M13 A3007 RMK SC2AC4 SLP194

CYQG;2013-02-17 11:00;CYQG 171100Z 33005KT 15SM BKN067 M10/M14 A3009 RMK AC6 SLP201

CYQG;2013-02-17 12:00;CYQG 171200Z 34007KT 15SM FEW053 SCT070 M11/M15 A3011 RMK SC1AC2 SLP209

CYQG;2013-02-17 13:00;CYQG 171300Z 30003KT 15SM FEW053 FEW070 M12/M15 A3013 RMK SC1AC1 SLP215

CYQG;2013-02-17 14:00;CYQG 171400Z 32007KT 15SM FEW053 M11/M15 A3014 RMK SC1 SLP220

CYQG;2013-02-17 15:00;CYQG 171500Z 33009KT 15SM FEW053 M10/M16 A3015 RMK SC1 SLP223

CYQG;2013-02-17 16:00;CYQG 171600Z 29009KT 15SM FEW050 M09/M15 A3017 RMK SC1 SLP228

CYQG;2013-02-17 17:00;CYQG 171700Z 33008KT 15SM FEW050 M08/M15 A3018 RMK SC1 SLP231

CYQG;2013-02-17 18:00;CYQG 171800Z 33007KT 15SM FEW030 M07/M14 A3017 RMK SC1 SLP227

CYQG;2013-02-17 19:00;CYQG 171900Z 31006KT 15SM FEW040 M06/M15 A3016 RMK SC1 SLP226

CYQG;2013-02-17 20:00;CYQG 172000Z 28010KT 15SM BKN042 M06/M15 A3016 RMK SC5 SLP224

CYQG;2013-02-17 21:00;CYQG 172100Z 28009KT 15SM BKN046 M06/M15 A3017 RMK SC6 SLP227

CYQG;2013-02-17 22:00;CYQG 172200Z 28008KT 15SM SCT048 M06/M15 A3017 RMK SC4 SLP230

CYQG;2013-02-17 23:00;CYQG 172300Z 29004KT 15SM FEW043 M06/M16 A3019 RMK SC2 SLP235

CYQG;2013-02-18 00:00;CYQG 180000Z 35002KT 15SM FEW040 M06/M15 A3020 RMK SC2 SLP238

CYQG;2013-02-18 01:00;CYQG 180100Z 16004KT 15SM FEW040 M10/M15 A3020 RMK SC1 SLP239

CYQG;2013-02-18 02:00;CYQG 180200Z 16005KT 15SM FEW040 M11/M15 A3021 RMK SC1 SLP242

CYQG;2013-02-18 03:00;CYQG 180300Z 16003KT 15SM SKC M10/M15 A3021 RMK SLP245

CYQG;2013-02-18 04:00;CYQG 180400Z 11003KT 15SM SKC M11/M16 A3021 RMK SLP243

CYQG;2013-02-18 05:00;CYQG 180500Z 14004KT 15SM SKC M12/M16 A3021 RMK SLP244

CYQG;2013-02-18 06:00;CYQG 180600Z 14006KT 15SM SCT250 M12/M16 A3022 RMK CI1 SLP246

CYQG;2013-02-18 07:00;CYQG 180700Z 14005KT 15SM FEW180 BKN250 M11/M15 A3021 RMK AC2CI1 SLP243

CYQG;2013-02-18 08:00;CYQG 180800Z 16004KT 15SM FEW180 BKN250 M10/M14 A3020 RMK AC1CI1 SLP241

CYQG;2013-02-18 09:00;CYQG 180900Z 15004KT 15SM FEW250 M09/M13 A3019 RMK CI2 SLP235

CYQG;2013-02-18 10:00;CYQG 181000Z 13006KT 15SM FEW180 FEW250 M09/M12 A3017 RMK AC2CI0 SLP230

CYQG;2013-02-18 11:00;CYQG 181100Z 14005KT 15SM FEW180 FEW250 M08/M11 A3016 RMK AC2CI0 SLP226

CYQG;2013-02-18 12:00;CYQG 181200Z 14005KT 12SM BKN110 BKN250 M07/M10 A3014 RMK AC5CS1 SLP219

CYQG;2013-02-18 13:00;CYQG 181300Z 16011KT 15SM BKN110 M05/M10 A3012 RMK AC7 SLP210

CYQG;2013-02-18 14:00;CYQG 181400Z 16011KT 15SM BKN092 BKN260 M04/M10 A3010 RMK AC6CI1 SLP205

CYQG;2013-02-18 15:00;CYQG 181500Z 16011KT 15SM FEW090 BKN260 M03/M09 A3006 RMK AC1CI4 CONTRAILS SLP191

CYQG;2013-02-18 16:00;CYQG 181600Z 16013KT 15SM FEW046 BKN260 M03/M08 A3004 RMK SC1CI4 TR SC SLP184

CYQG;2013-02-18 17:00;CYQG 181700Z 15011KT 15SM OVC260 M01/M07 A3000 RMK CS6 CONTRAILS SLP171

CYQG;2013-02-18 18:00;CYQG 181800Z 17014KT 15SM OVC260 00/M07 A2996 RMK CS6 CONTRAILS SLP157

CYQG;2013-02-18 19:00;CYQG 181900Z 16011G16KT 15SM OVC260 01/M05 A2992 RMK CS7 SLP142

CYQG;2013-02-18 20:00;CYQG 182000Z 17012G17KT 15SM OVC260 03/M04 A2989 RMK CS6 CONTRAILS HALO SLP133

CYQG;2013-02-18 21:00;CYQG 182100Z 15009KT 15SM OVC260 03/M02 A2986 RMK CS8 SLP122

CYQG;2013-02-18 22:00;CYQG 182200Z 16010KT 12SM OVC230 03/M02 A2983 RMK CI8 SLP110

CYQG;2013-02-18 23:00;CYQG 182300Z 15011KT 12SM BKN048 OVC220 03/M01 A2980 RMK SC5CI2 SLP100

CYQG;2013-02-19 00:00;CYQG 190000Z 16009KT 12SM BKN038 OVC081 04/M01 A2979 RMK SC6AC2 SLP095

CYQG;2013-02-19 01:00;CYQG 190100Z 18005KT 12SM SCT040 OVC110 04/M00 A2977 RMK SC3AC5 SLP089

CYQG;2013-02-19 02:00;CYQG 190200Z 18011KT 12SM SCT040 OVC081 06/M00 A2972 RMK SC3AC5 SLP074

CYQG;2013-02-19 03:00;CYQG 190300Z 18015KT 12SM OVC084 07/M00 A2969 RMK AC8 SLP059

CYQG;2013-02-19 03:39;CYQG 190339Z 18015G21KT 12SM -SHRA OVC062 RMK SC8

CYQG;2013-02-19 04:00;CYQG 190400Z 18016KT 12SM -SHRA OVC069 07/00 A2966 RMK AC8 SLP050

CYQG;2013-02-19 05:00;CYQG 190500Z 18011KT 12SM FEW070 BKN095 06/01 A2963 RMK AC2AC5 OCNL -SHRA SLP040

CYQG;2013-02-19 05:05;CYQG 190505Z 18012KT 15SM SCT070 BKN100 RMK AC4AC3

CYQG;2013-02-19 05:33;CYQG 190533Z 18014KT 12SM -RA BKN054 OVC085 RMK SC6AC2

CYQG;2013-02-19 06:00;CYQG 190600Z 18017KT 10SM -RA OVC044 07/01 A2960 RMK SC8 SLP030

CYQG;2013-02-19 07:00;CYQG 190700Z 19020KT 8SM -RA OVC035 06/03 A2956 RMK SC8 CU ASOCTD SLP017

CYQG;2013-02-19 08:00;CYQG 190800Z 19021G31KT 10SM -RA OVC024 05/03 A2952 RMK SC8 PRESFR SLP002

CYQG;2013-02-19 09:00;CYQG 190900Z 18020G26KT 7SM -RA FEW017 OVC025 05/03 A2947 RMK CU2SC6 PRESFR SLP983

CYQG;2013-02-19 10:00;CYQG 191000Z 19023G29KT 7SM -RA FEW011 OVC017 05/04 A2944 RMK SF2SC6 SLP974

CYQG;2013-02-19 11:00;CYQG 191100Z 25025G30KT 15SM -RA FEW009 OVC016 05/04 A2946 RMK SF2SC6 SLP981

CYQG;2013-02-19 11:20;CYQG 191120Z 26024G33KT 15SM FEW012 BKN018 RMK SF1SC6

CYQG;2013-02-19 12:00;CYQG 191200Z 25019G25KT 10SM BKN015 03/01 A2952 RMK SC7 PRESRR SLP002

CYQG;2013-02-19 12:49;CYQG 191249Z 25020G28KT 6SM -DZ BR OVC013 RMK SC8

CYQG;2013-02-19 13:00;CYQG 191300Z 25017G25KT 5SM -DZ BR OVC011 02/00 A2954 RMK SC8 SLP009

CYQG;2013-02-19 13:50;CYQG 191350Z 24023G30KT 5SM BR OVC011 RMK SC8

CYQG;2013-02-19 14:00;CYQG 191400Z 23024G31KT 6SM BR OVC010 M00/M02 A2958 RMK SC8 SLP020

CYQG;2013-02-19 14:14;CYQG 191414Z 23023G32KT 6SM BR OVC009 RMK ST8

CYQG;2013-02-19 14:29;CYQG 191429Z 24026G36KT 8SM OVC012 RMK SC8

CYQG;2013-02-19 15:00;CYQG 191500Z 23025G32KT 10SM OVC014 M02/M05 A2961 RMK SC8 SLP031

CYQG;2013-02-19 15:19;CYQG 191519Z 24024G32KT 10SM OVC015 RMK SC8

CYQG;2013-02-19 16:00;CYQG 191600Z 25021G33KT 15SM OVC034 M02/M07 A2963 RMK CU8 SLP038

CYQG;2013-02-19 16:41;CYQG 191641Z 24022G32KT 15SM -SN OVC037 RMK CU8

CYQG;2013-02-19 17:00;CYQG 191700Z 24021G29KT 2 1/2SM -SN OVC027 M03/M06 A2964 RMK SN2CU6 SLP043

CYQG;2013-02-19 17:10;CYQG 191710Z 24025G31KT 4SM -SN OVC024 RMK CU8

CYQG;2013-02-19 18:00;CYQG 191800Z 25025G32KT 8SM -SN BKN030 OVC056 M03/M09 A2965 RMK CU6SC2 SLP047

CYQG;2013-02-19 19:00;CYQG 191900Z 27024G30KT 8SM -SHSN OVC032 M04/M10 A2967 RMK CU8 SLP054

CYQG;2013-02-19 19:16;CYQG 191916Z 27018G26KT 2SM -SHSN OVC020 RMK SN2CU6

CYQG;2013-02-19 19:23;CYQG 191923Z 26022G28KT 6SM -SHSN OVC036 RMK CU8

CYQG;2013-02-19 20:00;CYQG 192000Z 25026G32KT 12SM -SHSN BKN027 M04/M11 A2969 RMK CU7 SLP061

CYQG;2013-02-19 21:00;CYQG 192100Z 25025G31KT 12SM -SHSN OVC031 M04/M11 A2973 RMK SC8 SLP075

CYQG;2013-02-19 22:00;CYQG 192200Z 25022G27KT 10SM OVC033 M05/M11 A2977 RMK SC8 OCNL -SHSN SLP088

CYQG;2013-02-19 23:00;CYQG 192300Z 25021G31KT 10SM BKN040 BKN120 M05/M11 A2980 RMK SC5AC2 SLP098

CYQG;2013-02-19 23:23;CYQG 192323Z 25022G30KT 2 1/2SM -SHSN OVC014 RMK SC8

CYQG;2013-02-19 23:44;CYQG 192344Z 26019G29KT 3SM -SHSN OVC018 RMK SC8

CYQG;2013-02-20 00:00;CYQG 200000Z 25020G26KT 3SM -SN OVC016 M06/M10 A2984 RMK SC8 SLP112

CYQG;2013-02-20 01:00;CYQG 200100Z 26022KT 6SM -SN OVC039 M07/M10 A2986 RMK SC8 SLP119

CYQG;2013-02-20 01:41;CYQG 200141Z 27020G27KT 2SM -SN OVC013 RMK SC8

CYQG;2013-02-20 02:00;CYQG 200200Z 27019G28KT 1 3/4SM -SN OVC009 M07/M10 A2988 RMK SF8 SLP127

CYQG;2013-02-20 02:14;CYQG 200214Z 27016KT 7SM -SN OVC016 RMK SF8

CYQG;2013-02-20 03:00;CYQG 200300Z 26016G22KT 10SM -SN SCT012 OVC039 M07/M10 A2990 RMK SF3SC5 SLP134

CYQG;2013-02-20 03:37;CYQG 200337Z 27019G26KT 15SM BKN040 BKN130 RMK SC5AC2

CYQG;2013-02-20 04:00;CYQG 200400Z 27021G30KT 15SM FEW052 SCT081 BKN130 M07/M13 A2991 RMK SC2AC2AC2 SLP138

CYQG;2013-02-20 04:44;CYQG 200444Z 27016G27KT 15SM -SHSN SCT038 BKN160 RMK SC3AC4

CYQG;2013-02-20 05:00;CYQG 200500Z 26015G24KT 15SM -SHSN BKN036 BKN160 M07/M11 A2992 RMK SC6AC2 CU ASOCTD SLP140

CYQG;2013-02-20 06:00;CYQG 200600Z 28015G20KT 15SM -SHSN BKN032 BKN160 M07/M13 A2993 RMK SC6AC1 SLP144

CYQG;2013-02-20 07:00;CYQG 200700Z 28014G22KT 15SM -SHSN BKN027 M07/M13 A2995 RMK SC7 SLP150

CYQG;2013-02-20 08:00;CYQG 200800Z 27014G22KT 15SM SCT028 BKN048 M07/M12 A2996 RMK CU3SC2 OCNL -SHSN SLP154

CYQG;2013-02-20 09:00;CYQG 200900Z 28017G25KT 10SM -SHSN BKN028 BKN048 M07/M13 A2997 RMK CU5SC2 SLP158

CYQG;2013-02-20 10:00;CYQG 201000Z 28017G24KT 7SM -SHSN OVC044 M07/M12 A2999 RMK SC8 CU ASOCTD SLP167

CYQG;2013-02-20 11:00;CYQG 201100Z 29015G21KT 8SM -SHSN OVC044 M08/M13 A3002 RMK SC8 SLP176

CYQG;2013-02-20 12:00;CYQG 201200Z 28012G17KT 12SM -SHSN FEW026 BKN045 M08/M14 A3004 RMK CU2SC6 SLP183

CYQG;2013-02-20 12:41;CYQG 201241Z 27018G24KT 15SM BKN028 RMK SC7

CYQG;2013-02-20 13:00;CYQG 201300Z 27017KT 15SM -SHSN BKN038 M08/M14 A3005 RMK SC7 SLP188

CYQG;2013-02-20 14:00;CYQG 201400Z 31017G24KT 15SM BKN035 M07/M14 A3007 RMK CU7 SLP193

CYQG;2013-02-20 15:00;CYQG 201500Z 30016KT 15SM BKN036 M07/M15 A3008 RMK CU7 SLP198

CYQG;2013-02-20 16:00;CYQG 201600Z 32017G24KT 15SM VCSH OVC039 M06/M14 A3010 RMK CU8 SLP203

CYQG;2013-02-20 17:00;CYQG 201700Z 30015G22KT 15SM VCSH OVC042 M06/M14 A3011 RMK CU8 SLP206

CYQG;2013-02-20 18:00;CYQG 201800Z 31016G22KT 15SM VCSH BKN038 M06/M14 A3012 RMK CU7 SLP211

CYQG;2013-02-20 18:10;CYQG 201810Z 29011G17KT 12SM -SHSN BKN033 RMK CU7

CYQG;2013-02-20 19:00;CYQG 201900Z 29016KT 15SM -SHSN OVC033 M05/M13 A3013 RMK CU8 SLP214

CYQG;2013-02-20 20:00;CYQG 202000Z 29013G19KT 15SM OVC038 M05/M13 A3014 RMK CU8 SLP216

CYQG;2013-02-20 21:00;CYQG 202100Z 29014KT 15SM OVC037 M05/M13 A3015 RMK SC8 OCNL -SHSN SLP222

CYQG;2013-02-20 22:00;CYQG 202200Z 28013G18KT 15SM -SHSN OVC034 M05/M13 A3020 RMK SC8 SLP236

CYQG;2013-02-20 23:00;CYQG 202300Z 27014KT 15SM -SHSN OVC037 M05/M12 A3019 RMK SC8 SLP235

CYQG;2013-02-21 00:00;CYQG 210000Z 29011KT 15SM -SHSN OVC038 M05/M12 A3019 RMK SC8 SLP234

CYQG;2013-02-21 01:00;CYQG 210100Z 29009KT 15SM -SHSN OVC033 M05/M11 A3019 RMK SC8 SLP235

CYQG;2013-02-21 02:00;CYQG 210200Z 29010KT 10SM -SN OVC032 M05/M11 A3020 RMK SC8 SLP237

CYQG;2013-02-21 03:00;CYQG 210300Z 33011KT 15SM -SN OVC032 M05/M12 A3020 RMK SC8 SLP239

CYQG;2013-02-21 04:00;CYQG 210400Z 32012KT 12SM -SN OVC030 M05/M11 A3021 RMK SC8 SLP240

CYQG;2013-02-21 06:00;CYQG 210600Z 32010KT 7SM -SN OVC030 M06/M10 A3022 RMK SC8 SLP244

CYQG;2013-02-21 07:00;CYQG 210700Z 34011G17KT 7SM -SN OVC027 M06/M12 A3024 RMK SC8 SLP252

CYQG;2013-02-21 08:00;CYQG 210800Z 34010G16KT 15SM -SN OVC026 M07/M12 A3026 RMK SC8 SLP257

CYQG;2013-02-21 09:00;CYQG 210900Z 32010G17KT 15SM -SN OVC026 M07/M12 A3025 RMK SC8 SLP255

CYQG;2013-02-21 11:00;CYQG 211100Z 34006KT 8SM -SN OVC026 M07/M11 A3029 RMK SC8 SLP268

CYQG;2013-02-21 12:00;CYQG 211200Z 35005KT 8SM -SN OVC026 M07/M11 A3030 RMK SC8 SLP272

CYQG;2013-02-21 13:00;CYQG 211300Z CCA 34008KT 12SM -SN OVC026 M07/M11 A3035 RMK SC8 PRESRR SLP289

CYQG;2013-02-21 14:00;CYQG 211400Z 01010KT 10SM -SN OVC023 M07/M11 A3035 RMK SC8 SLP287

CYQG;2013-02-21 15:00;CYQG 211500Z CCA 36008KT 15SM -SN BKN024 M07/M12 A3035 RMK SC7 SLP289

CYQG;2013-02-21 16:00;CYQG 211600Z 02007KT 15SM -SN OVC024 M07/M12 A3037 RMK SC8 SLP296

CYQG;2013-02-21 17:00;CYQG 211700Z 06008KT 15SM -SHSN BKN023 M07/M12 A3037 RMK SC7 SLP296

CYQG;2013-02-21 18:00;CYQG 211800Z 04006KT 15SM BKN027 M06/M12 A3035 RMK SC7 SLP288

CYQG;2013-02-21 19:00;CYQG 211900Z 06003KT 15SM BKN028 M06/M12 A3037 RMK SC7 SLP295

CYQG;2013-02-21 20:00;CYQG 212000Z 05005KT 15SM FEW028 BKN250 M05/M11 A3034 RMK SC2CI2 SLP286

CYQG;2013-02-21 21:00;CYQG 212100Z 05014KT 15SM FEW025 BKN260 M05/M11 A3029 RMK SC2CI1 SLP269

CYQG;2013-02-21 22:00;CYQG 212200Z 08006KT 15SM BKN024 M06/M11 A3036 RMK SC7 SLP292

CYQG;2013-02-21 23:00;CYQG 212300Z 05005KT 15SM BKN022 M05/M10 A3037 RMK SC7 SLP296

CYQG;2013-02-22 00:00;CYQG 220000Z 08009KT 15SM OVC021 M06/M10 A3036 RMK SC8 SLP292

CYQG;2013-02-22 01:00;CYQG 220100Z 09012KT 15SM OVC017 M05/M09 A3035 RMK SC8 SLP288

CYQG;2013-02-22 02:00;CYQG 220200Z 08015KT 15SM OVC016 M05/M09 A3032 RMK SC8 SLP279

CYQG;2013-02-22 03:00;CYQG 220300Z 08015KT 15SM OVC015 M05/M09 A3031 RMK SC8 SLP275

CYQG;2013-02-22 04:00;CYQG 220400Z 09011KT 15SM BKN015 M05/M09 A3030 RMK SC7 SLP271

CYQG;2013-02-22 05:00;CYQG 220500Z 09011KT 15SM OVC015 M05/M09 A3028 RMK SC8 SLP266

CYQG;2013-02-22 06:00;CYQG 220600Z 08011KT 15SM OVC016 M05/M08 A3026 RMK SC8 SLP256

CYQG;2013-02-22 07:00;CYQG 220700Z 09010KT 15SM FEW016 OVC150 M05/M08 A3026 RMK SC1AC7 SLP256

CYQG;2013-02-22 08:00;CYQG 220800Z 09012KT 15SM FEW016 OVC120 M05/M08 A3023 RMK SC1AC7 SLP247

CYQG;2013-02-22 09:00;CYQG 220900Z 09015G20KT 15SM FEW016 OVC110 M05/M08 A3017 RMK SC1AC7 SLP225

CYQG;2013-02-22 10:00;CYQG 221000Z 10016G22KT 15SM FEW016 OVC087 M05/M08 A3011 RMK SC1AC8 SLP205

CYQG;2013-02-22 11:00;CYQG 221100Z 10016KT 15SM FEW016 OVC085 M04/M07 A3009 RMK SC1AC8 PRESFR SLP200

CYQG;2013-02-22 11:11;CYQG 221111Z 10013G21KT 15SM -SN FEW012 OVC066 RMK SC1AC8

CYQG;2013-02-22 12:04;CYQG 221204Z 11018G24KT 3/4SM -SN DRSN OVC019 RMK SN3SC5

CYQG;2013-02-22 12:15;CYQG 221215Z 10016G24KT 1/4SM +SN DRSN OVC015 RMK SN5SC3

CYQG;2013-02-22 12:27;CYQG 221227Z 10016G22KT 5/8SM -SN DRSN OVC021 RESN RMK SN3SC5

CYQG;2013-02-22 12:45;CYQG 221245Z 09014KT 3/8SM SN DRSN OVC025 RMK SN4SC4

CYQG;2013-02-22 13:00;CYQG 221300Z 09017KT 3/4SM -SNSG DRSN OVC021 M05/M06 A3003 RESN RMK SN2SC6 SLP179

CYQG;2013-02-22 13:11;CYQG 221311Z 09017G24KT 3/8SM SN DRSN OVC020 RMK SN3SC5

CYQG;2013-02-22 13:50;CYQG 221350Z 10012G17KT 1/2SM SN DRSN OVC020 RMK SN2SC6

CYQG;2013-02-22 14:00;CYQG 221400Z 09014KT 1/2SM SN DRSN OVC020 M05/M06 A3001 RMK SN2SC6 /S02/ SLP173

CYQG;2013-02-22 14:09;CYQG 221409Z 09013KT 3/8SM SN DRSN OVC020 RMK SN4SC4

CYQG;2013-02-22 14:21;CYQG 221421Z 09013G19KT 1/2SM SN DRSN OVC020 RMK SN3SC5

CYQG;2013-02-22 14:42;CYQG 221442Z 10012KT 5/8SM -SN DRSN OVC021 RESN RMK SN2SC6

CYQG;2013-02-22 15:00;CYQG 221500Z 10013KT 5/8SM -SN DRSN OVC023 M04/M05 A3000 RESN RMK SN2SC6 /S04/ SLP169

CYQG;2013-02-22 15:37;CYQG 221537Z 10012KT 1/2SM SN DRSN OVC013 RMK SN3SC5

CYQG;2013-02-22 15:49;CYQG 221549Z 10011KT 3/4SM -SN DRSN BKN013 OVC027 RESN RMK SN2SC4SC2

CYQG;2013-02-22 16:00;CYQG 221600Z 11013KT 1SM -SN DRSN SCT013 OVC026 M03/M05 A2996 RESN RMK SN2SC2SC4 /S05/ SLP156

CYQG;2013-02-22 16:17;CYQG 221617Z 11013G18KT 1 1/2SM -SN DRSN BKN011 OVC026 RMK SN2SC4SC2

CYQG;2013-02-22 16:33;CYQG 221633Z 11015KT 6SM -SN BR BKN010 OVC015 RMK SC5SC3

CYQG;2013-02-22 16:46;CYQG 221646Z 11015KT 6SM -SN BR BKN009 OVC015 RMK SF5SC3

CYQG;2013-02-22 17:00;CYQG 221700Z 11011G16KT 6SM BR OVC009 M02/M04 A2994 RMK SF8 /S07/ SLP150

CYQG;2013-02-22 18:00;CYQG 221800Z 13010KT 4SM BR OVC008 M02/M03 A2992 RMK SF8 /S08/ SLP143

CYQG;2013-02-22 18:34;CYQG 221834Z 13008KT 2SM -FZDZ BR OVC006 RMK FG1SF7

CYQG;2013-02-22 18:52;CYQG 221852Z 13008KT 2 1/2SM -FZDZ BR OVC005 RMK FG1SF7

CYQG;2013-02-22 19:00;CYQG 221900Z 13009KT 2 1/2SM -FZDZ BR OVC005 M01/M02 A2990 RMK FG1SF7 SLP134

CYQG;2013-02-22 19:36;CYQG 221936Z 14006KT 1 1/4SM -FZDZ BR OVC004 RMK FG2SF6

CYQG;2013-02-22 19:50;CYQG 221950Z 16007KT 1 1/4SM -FZDZ BR OVC003 RMK FG2SF6

CYQG;2013-02-22 20:00;CYQG 222000Z 14008KT 1 1/4SM -FZDZ BR OVC003 M00/M01 A2989 RMK FG2SF6 SLP133

CYQG;2013-02-22 20:30;CYQG 222030Z 15007KT 1 1/4SM -FZDZ BR OVC002 RMK FG2SF6

CYQG;2013-02-22 21:00;CYQG 222100Z 16007KT 1 1/4SM -FZDZ BR OVC002 M00/M00 A2990 RMK FG2SF6 SLP133

CYQG;2013-02-22 21:35;CYQG 222135Z 16006KT 3/4SM -DZ BR OVC002 REFZDZ RMK FG3SF5

CYQG;2013-02-22 22:00;CYQG 222200Z 17006KT 1/2SM -DZ FG OVC002 00/M00 A2990 REFZDZ RMK FG4SF4 SLP133

CYQG;2013-02-22 22:34;CYQG 222234Z 18005KT 3/8SM -DZ FG VV001 RMK FG8

CYQG;2013-02-22 23:00;CYQG 222300Z 19007KT 1/4SM -DZ FG VV001 00/00 A2990 RMK FG8 SLP133

CYQG;2013-02-22 23:51;CYQG 222351Z 20007KT 1/4SM FG VV002 RMK FG8

CYQG;2013-02-23 00:00;CYQG 230000Z 20007KT 3/8SM FG VV002 01/01 A2991 RMK FG8 SLP136

CYQG;2013-02-23 00:18;CYQG 230018Z 22011KT 2 1/4SM BR OVC004 RMK FG2SF6

CYQG;2013-02-23 01:00;CYQG 230100Z 22009KT 3SM BR BKN004 OVC016 01/01 A2991 RMK SF7SC1 SLP136

CYQG;2013-02-23 01:48;CYQG 230148Z 22010KT 4SM BR FEW005 SCT016 OVC042 RMK SF2SC2SC5

CYQG;2013-02-23 02:00;CYQG 230200Z 22010KT 4SM BR FEW005 FEW015 OVC042 02/01 A2991 RMK SF1SC1SC6 SLP136

CYQG;2013-02-23 03:00;CYQG 230300Z 21011KT 7SM FEW015 OVC053 02/00 A2991 RMK SC2SC6 SLP136

CYQG;2013-02-23 04:00;CYQG 230400Z 22011KT 10SM FEW015 OVC053 02/M00 A2991 RMK SC1SC7 SLP136

CYQG;2013-02-23 05:00;CYQG 230500Z 22010KT 10SM FEW015 OVC047 01/M01 A2990 RMK SC1SC7 SLP133

CYQG;2013-02-23 06:00;CYQG 230600Z 22010G15KT 10SM OVC037 01/M01 A2990 RMK SC8 SLP132

CYQG;2013-02-23 06:54;CYQG 230654Z 20006KT 6SM -SN OVC016 RMK SC8

CYQG;2013-02-23 07:00;CYQG 230700Z 20007KT 6SM -SN OVC016 01/M01 A2989 RMK SC8 SLP130

CYQG;2013-02-23 08:00;CYQG 230800Z 22006KT 8SM -SN FEW020 OVC040 01/M00 A2989 RMK SC2SC6 SLP128

CYQG;2013-02-23 08:20;CYQG 230820Z 22008KT 8SM BKN025 OVC040 RMK SC5SC3

CYQG;2013-02-23 09:00;CYQG 230900Z CCA 22009KT 10SM SCT025 OVC040 01/M01 A2987 RMK SC3SC5 SLP122

CYQG;2013-02-23 10:00;CYQG 231000Z 24009KT 10SM OVC043 01/M03 A2988 RMK SC8 SLP124

CYQG;2013-02-23 11:00;CYQG 231100Z 26015KT 10SM OVC019 00/M04 A2989 RMK SC8 SLP128

CYQG;2013-02-23 12:00;CYQG 231200Z 25012KT 15SM OVC032 M01/M07 A2990 RMK SC8 SLP132

CYQG;2013-02-23 13:00;CYQG 231300Z 24012G18KT 15SM BKN044 M02/M07 A2992 RMK SC7 SLP138

CYQG;2013-02-23 14:00;CYQG 231400Z 23011KT 15SM BKN047 M01/M06 A2991 RMK SC7 SLP137

CYQG;2013-02-23 15:00;CYQG 231500Z 23015KT 15SM BKN025 BKN045 M01/M06 A2990 RMK CU5SC2 SLP134

CYQG;2013-02-23 16:00;CYQG 231600Z 23016KT 15SM BKN030 00/M06 A2990 RMK CU5 SLP132

CYQG;2013-02-23 17:00;CYQG 231700Z 26012KT 15SM BKN029 00/M05 A2990 RMK CU7 SLP132

CYQG;2013-02-23 18:00;CYQG 231800Z 24011KT 15SM BKN034 01/M06 A2989 RMK CU7 SLP128

CYQG;2013-02-23 19:00;CYQG 231900Z 23008KT 15SM OVC033 00/M06 A2987 RMK SC8 SLP122

CYQG;2013-02-23 20:00;CYQG 232000Z 23012KT 15SM OVC036 00/M07 A2988 RMK SC8 SLP126

CYQG;2013-02-23 21:00;CYQG 232100Z 23012KT 15SM OVC036 00/M06 A2987 RMK SC8 SLP122

CYQG;2013-02-23 22:00;CYQG 232200Z 23012G17KT 15SM OVC039 M01/M07 A2988 RMK SC8 SLP125

CYQG;2013-02-23 23:00;CYQG 232300Z 24010KT 15SM OVC037 M01/M07 A2989 RMK SC8 SLP130

CYQG;2013-02-24 00:00;CYQG 240000Z 23008KT 15SM OVC039 M01/M07 A2991 RMK SC8 SLP136

CYQG;2013-02-24 01:00;CYQG 240100Z 25011KT 15SM OVC040 M01/M08 A2991 RMK SC8 SLP136

CYQG;2013-02-24 02:00;CYQG 240200Z 26008KT 15SM BKN045 M02/M08 A2992 RMK SC6 SLP138

CYQG;2013-02-24 03:00;CYQG 240300Z 26008KT 15SM SKC M03/M08 A2991 RMK SLP137

CYQG;2013-02-24 04:00;CYQG 240400Z 24004KT 15SM FEW045 M04/M08 A2990 RMK SC1 SLP134

CYQG;2013-02-24 05:00;CYQG 240500Z 25005KT 15SM BKN052 M03/M08 A2989 RMK SC6 SLP132

CYQG;2013-02-24 06:00;CYQG 240600Z 26008KT 12SM BKN051 M03/M07 A2990 RMK SC7 SLP132

CYQG;2013-02-24 07:00;CYQG 240700Z 25008KT 12SM SCT050 OVC170 M03/M07 A2991 RMK SC3AC5 SLP137

CYQG;2013-02-24 08:00;CYQG 240800Z 25010KT 12SM FEW045 BKN069 OVC150 M03/M08 A2992 RMK SC2AC3AC2 SLP141

CYQG;2013-02-24 08:41;CYQG 240841Z 27008KT 10SM -SHSN OVC058 RMK SC8

CYQG;2013-02-24 09:00;CYQG 240900Z 27010KT 3SM -SHSN OVC017 M04/M07 A2992 RMK SC8 SLP142

CYQG;2013-02-24 09:24;CYQG 240924Z 27007KT 1 1/2SM -SHSN OVC007 RMK SN1SF7

CYQG;2013-02-24 09:44;CYQG 240944Z CCA 26010KT 4SM -SHSN FEW025 OVC062 RMK SC2SC6

CYQG;2013-02-24 10:00;CYQG 241000Z 27008KT 6SM -SHSN FEW020 OVC056 M04/M07 A2993 RMK SC1SC7 SLP143

CYQG;2013-02-24 11:00;CYQG 241100Z 26010KT 10SM -SHSN FEW020 OVC076 M04/M07 A2994 RMK SC1AC7 SLP147

CYQG;2013-02-24 11:47;CYQG 241147Z 26010KT 10SM OVC073 RMK AC8

CYQG;2013-02-24 12:00;CYQG 241200Z 26009KT 10SM FEW039 OVC066 M04/M07 A2995 RMK SC2AC6 SLP152

CYQG;2013-02-24 12:17;CYQG 241217Z 26008KT 4SM -SHSN OVC040 RMK SC8

CYQG;2013-02-24 12:29;CYQG 241229Z 26009KT 1 1/4SM -SHSN OVC035 RMK SN2SC6

CYQG;2013-02-24 12:46;CYQG 241246Z 27010KT 6SM -SHSN BKN050 BKN260 RMK SC5CI2

CYQG;2013-02-24 13:00;CYQG 241300Z 27010KT 8SM -SHSN FEW045 BKN110 M04/M07 A2997 RMK SC2AC3 SLP158

CYQG;2013-02-24 13:16;CYQG 241316Z 26009KT 8SM SCT110 RMK AC3

CYQG;2013-02-24 14:00;CYQG 241400Z 26009KT 12SM FEW110 M03/M07 A2998 RMK AC1 SLP161

CYQG;2013-02-24 15:00;CYQG 241500Z 27009KT 15SM FEW050 M02/M06 A2999 RMK SC2 SLP163

CYQG;2013-02-24 16:00;CYQG 241600Z 27009KT 15SM BKN019 BKN070 M00/M05 A3000 RMK CU6AC2 SLP167

CYQG;2013-02-24 16:33;CYQG 241633Z 27009KT 15SM -SHSN OVC020 RMK CU8

CYQG;2013-02-24 17:00;CYQG 241700Z 26011KT 15SM -SHSN OVC019 M00/M05 A3001 RMK CU8 SLP170

CYQG;2013-02-24 18:00;CYQG 241800Z 28009KT 15SM -SHSN BKN022 00/M04 A3001 RMK CU7 SLP171

CYQG;2013-02-24 18:22;CYQG 241822Z 28011KT 15SM BKN027 BKN045 RMK CU6SC2

CYQG;2013-02-24 19:00;CYQG 241900Z 28010KT 15SM BKN038 02/M04 A3001 RMK CU7 SLP172

CYQG;2013-02-24 20:00;CYQG 242000Z 30008KT 15SM VCSH OVC053 02/M04 A3002 RMK SC8 SLP175

CYQG;2013-02-24 21:00;CYQG 242100Z 29009KT 12SM -SHSN OVC037 02/M05 A3004 RMK SC8 CU ASOCTD SLP180

CYQG;2013-02-24 21:26;CYQG 242126Z 29009KT 12SM OVC054 RMK SC8 CU ASOCTD

CYQG;2013-02-24 22:00;CYQG 242200Z 30010KT 15SM OVC052 02/M05 A3006 RMK SC8 CU ASOCTD SLP187

CYQG;2013-02-24 23:00;CYQG 242300Z 30006KT 15SM -SHSN BKN050 02/M05 A3008 RMK SC7 CU ASOCTD SLP194

CYQG;2013-02-24 23:25;CYQG 242325Z 29005KT 15SM BKN057 RMK SC7

CYQG;2013-02-25 00:00;CYQG 250000Z 29004KT 15SM BKN054 01/M05 A3010 RMK SC6 SLP201

CYQG;2013-02-25 01:00;CYQG 250100Z 28004KT 15SM BKN050 00/M05 A3012 RMK SC5 SLP207

CYQG;2013-02-25 02:00;CYQG 250200Z 27003KT 15SM BKN049 M00/M05 A3013 RMK SC6 SLP212

CYQG;2013-02-25 03:00;CYQG 250300Z 27003KT 15SM FEW048 M03/M05 A3013 RMK SC1 SLP211

CYQG;2013-02-25 04:00;CYQG 250400Z 24003KT 15SM SKC M03/M06 A3014 RMK SLP215

CYQG;2013-02-25 05:00;CYQG 250500Z 25003KT 15SM SKC M03/M05 A3014 RMK SLP215

CYQG;2013-02-25 06:00;CYQG 250600Z 25004KT 15SM SKC M04/M06 A3015 RMK SLP219

CYQG;2013-02-25 07:00;CYQG 250700Z 27003KT 15SM SKC M04/M06 A3016 RMK SLP221

CYQG;2013-02-25 08:00;CYQG 250800Z 28004KT 12SM SCT260 M05/M07 A3016 RMK CI1 SLP221

CYQG;2013-02-25 09:00;CYQG 250900Z 00000KT 12SM SCT260 M04/M06 A3015 RMK CI1 SLP217

CYQG;2013-02-25 10:00;CYQG 251000Z 00000KT 15SM SCT260 M06/M07 A3017 RMK CI1 SLP223

CYQG;2013-02-25 11:00;CYQG 251100Z 00000KT 15SM FEW260 M06/M07 A3017 RMK CI1 SLP226

CYQG;2013-02-25 12:00;CYQG 251200Z 00000KT 8SM MIFG SKC M07/M08 A3020 RMK SLP235

CYQG;2013-02-25 13:00;CYQG 251300Z 00000KT 8SM MIFG FEW260 M05/M06 A3021 RMK CI1 FROIN SLP240

CYQG;2013-02-25 14:00;CYQG 251400Z 00000KT 15SM FEW270 M01/M05 A3022 RMK CI1 SLP244

CYQG;2013-02-25 15:00;CYQG 251500Z 09002KT 15SM BKN260 M00/M05 A3022 RMK CC3 SLP243

CYQG;2013-02-25 16:00;CYQG 251600Z 13003KT 15SM SCT260 BKN280 01/M05 A3020 RMK CC2CI2 SLP237

CYQG;2013-02-25 17:00;CYQG 251700Z 15003KT 15SM FEW020 BKN270 02/M05 A3022 RMK CF1CI2 SLP241

CYQG;2013-02-25 18:00;CYQG 251800Z 16003KT 15SM FEW035 BKN280 03/M05 A3020 RMK SC2CI2 SLP233

CYQG;2013-02-25 19:00;CYQG 251900Z 11004KT 15SM SCT035 OVC280 03/M05 A3017 RMK SC3CI2 CONTRAILS SLP224

CYQG;2013-02-25 20:00;CYQG 252000Z 13003KT 15SM BKN035 03/M05 A3015 RMK SC5 SLP219

CYQG;2013-02-25 21:00;CYQG 252100Z 08007KT 15SM BKN032 03/M03 A3016 RMK SC6 SLP222

CYQG;2013-02-25 22:00;CYQG 252200Z 08005KT 15SM BKN033 BKN270 02/M03 A3016 RMK SC5CI1 TR CI CONTRAILS SLP220

CYQG;2013-02-25 23:00;CYQG 252300Z 11006KT 15SM FEW270 01/M04 A3015 RMK CI1 CONTRAILS SLP217

CYQG;2013-02-26 00:00;CYQG 260000Z 11006KT 15SM FEW260 00/M05 A3015 RMK CI1 SLP219

CYQG;2013-02-26 01:00;CYQG 260100Z 11006KT 15SM FEW260 M01/M05 A3017 RMK CI1 SLP225

CYQG;2013-02-26 02:00;CYQG 260200Z 09008KT 15SM FEW260 M01/M05 A3014 RMK CI1 SLP214

CYQG;2013-02-26 03:00;CYQG 260300Z 09009KT 15SM FEW260 M01/M05 A3011 RMK CI1 SLP203

CYQG;2013-02-26 04:00;CYQG 260400Z 09007KT 15SM FEW260 M01/M06 A3013 RMK CI1 TR CI SLP211

CYQG;2013-02-26 05:00;CYQG 260500Z 09004KT 15SM SKC M02/M06 A3013 RMK SLP212

CYQG;2013-02-26 06:00;CYQG 260600Z 06007KT 15SM SKC M02/M06 A3010 RMK SLP199

CYQG;2013-02-26 07:00;CYQG 260700Z 04008KT 15SM SKC M03/M05 A3009 RMK SLP198

CYQG;2013-02-26 08:00;CYQG 260800Z 05011KT 15SM SKC M02/M05 A3008 RMK SLP193

CYQG;2013-02-26 09:00;CYQG 260900Z 06011KT 15SM SCT170 M02/M05 A3005 RMK AC4 SLP183

CYQG;2013-02-26 10:00;CYQG 261000Z 06014KT 15SM FEW160 BKN240 M02/M05 A3000 RMK AC2CI5 SLP167

CYQG;2013-02-26 11:00;CYQG 261100Z 07015G20KT 15SM FEW150 OVC240 M02/M05 A2997 RMK AC2CI6 SLP157

CYQG;2013-02-26 12:00;CYQG 261200Z 07012KT 15SM FEW150 OVC240 M02/M05 A2999 RMK AC2CI6 SLP163

CYQG;2013-02-26 13:00;CYQG 261300Z 07013KT 15SM OVC230 M01/M05 A2997 RMK CS8 SLP158

CYQG;2013-02-26 14:00;CYQG 261400Z 07015KT 15SM FEW150 OVC210 M01/M05 A2995 RMK AC2CS6 SLP151

CYQG;2013-02-26 15:00;CYQG 261500Z 06017G22KT 15SM BKN150 OVC210 M01/M04 A2990 RMK AS6CS2 SLP132

CYQG;2013-02-26 16:00;CYQG 261600Z 07015G22KT 15SM FEW140 OVC210 01/M04 A2988 RMK AC2CS6 SLP126

CYQG;2013-02-26 16:53;CYQG 261653Z 08019G24KT 12SM -RA FEW058 BKN080 OVC150 RMK SC2AC3AS2

CYQG;2013-02-26 17:00;CYQG 261700Z 07019G25KT 12SM -RA FEW058 BKN080 OVC150 01/M03 A2984 RMK SC2AC6AS1 SLP113

CYQG;2013-02-26 18:00;CYQG 261800Z 08017G22KT 10SM -RA BKN043 OVC060 01/M02 A2980 RMK SC6SC2 SLP099

CYQG;2013-02-26 19:00;CYQG 261900Z 07017G24KT 7SM -RA SCT048 OVC064 01/M02 A2973 RMK SC3SC5 PRESFR SLP074

CYQG;2013-02-26 20:00;CYQG 262000Z 07019G26KT 6SM -RA BR OVC035 01/M01 A2968 RMK SC8 SLP060

CYQG;2013-02-26 20:47;CYQG 262047Z 08015KT 3SM RA BR OVC025 RMK SC8

CYQG;2013-02-26 21:00;CYQG 262100Z 08018KT 2 1/2SM RA BR OVC024 01/M00 A2968 RMK SC8 SLP059

CYQG;2013-02-26 21:43;CYQG 262143Z 09015G21KT 1SM RA BR FEW008 OVC019 RMK RA2SF1SC6

CYQG;2013-02-26 22:00;CYQG 262200Z 09020KT 1SM RASN BR SCT009 OVC021 01/00 A2966 RMK RA2SF2SC5 /R11/ SLP051

CYQG;2013-02-26 22:09;CYQG 262209Z 09019G27KT 1SM -RAPL BR SCT008 OVC020 RMK RA2SF2SC5

CYQG;2013-02-26 22:21;CYQG 262221Z 09020G25KT 1SM -RASN BR BKN008 OVC016 RERA RMK SN2SF4SC2

CYQG;2013-02-26 22:32;CYQG 262232Z 09021G27KT 1SM RASN BR BKN009 OVC022 RMK RA2SF3SC3

CYQG;2013-02-26 22:51;CYQG 262251Z 09021KT 2 1/2SM -RASN BR OVC009 RERA RMK SF8

CYQG;2013-02-26 23:00;CYQG 262300Z 09021KT 2 1/2SM -RASN BR OVC008 01/00 A2963 RERA RMK SF8 SLP040

CYQG;2013-02-26 23:30;CYQG 262330Z 09020G25KT 1SM -SN BR OVC009 RMK SN2SC6

CYQG;2013-02-27 00:00;CYQG 270000Z 09020G25KT 2 1/2SM -SN BR OVC007 01/00 A2961 RMK SC8 /S02/ SLP034

CYQG;2013-02-27 00:18;CYQG 270018Z 09019G24KT 1SM -SN OVC008 RMK SN2SC6

CYQG;2013-02-27 01:00;CYQG 270100Z 09017G24KT 1/2SM SN OVC004 00/00 A2960 RMK SN4SC4 /S02/ SLP030

CYQG;2013-02-27 01:20;CYQG 270120Z 08018KT 1SM -SN OVC004 RESN RMK SN3SF5

CYQG;2013-02-27 02:00;CYQG 270200Z 09018G24KT 1SM -SN OVC004 00/00 A2958 RESN RMK SN3SC5 /S04/ SLP023

CYQG;2013-02-27 03:00;CYQG 270300Z 09017KT 3SM -SN OVC005 01/00 A2955 RESN RMK SC8 /S05/ SLP013

CYQG;2013-02-27 04:00;CYQG 270400Z 10017G22KT 1SM -SN OVC005 01/01 A2953 RMK SN3SC5 /S06/ SLP006

CYQG;2013-02-27 04:33;CYQG 270433Z 09017KT 3SM -SN OVC005 RMK SF8

CYQG;2013-02-27 05:00;CYQG 270500Z 10017KT 3SM -SN OVC006 01/01 A2950 RMK SF8 SLP998

CYQG;2013-02-27 06:00;CYQG 270600Z 09017KT 3SM -SN OVC006 01/01 A2948 RMK SF8 /S09/ SLP990

CYQG;2013-02-27 07:00;CYQG 270700Z 09017G22KT 3SM -SN OVC005 01/01 A2948 RMK SF8 SLP988

CYQG;2013-02-27 07:06;CYQG 270706Z 10016KT 1 1/2SM -SN OVC005 RMK SF8

CYQG;2013-02-27 08:00;CYQG 270800Z 10014KT 2 1/2SM -SN OVC006 01/01 A2946 RMK SF8 SLP982

CYQG;2013-02-27 08:24;CYQG 270824Z 10012KT 3SM -RASN BR BKN006 OVC013 RMK SF6SC2

CYQG;2013-02-27 09:00;CYQG 270900Z 11011KT 4SM -RASN BR OVC005 01/01 A2944 RMK SF8 SLP977

CYQG;2013-02-27 10:00;CYQG 271000Z 11008KT 3SM -RA BR OVC004 01/01 A2945 RMK SF8 SLP979

CYQG;2013-02-27 10:18;CYQG 271018Z 13008KT 2 1/2SM -RASN BR OVC003 RMK SF8 -SN INTMT

CYQG;2013-02-27 10:46;CYQG 271046Z 16008KT 3/4SM -RASN BR OVC002 RMK FG6SF2 -SN INTMT

CYQG;2013-02-27 10:53;CYQG 271053Z 17007KT 1/2SM FG VV002 RMK FG8

CYQG;2013-02-27 11:00;CYQG 271100Z 18007KT 1/2SM FG VV002 02/02 A2946 RMK FG8 SLP982

CYQG;2013-02-27 11:38;CYQG 271138Z 20010KT 1SM BR OVC002 RMK FG6SF2

CYQG;2013-02-27 12:00;CYQG 271200Z 21010KT 1 1/2SM BR OVC002 02/02 A2948 RMK FG3SF5 SLP988

CYQG;2013-02-27 12:19;CYQG 271219Z 20008KT 2SM BR OVC005 RMK FG2SF6

CYQG;2013-02-27 12:27;CYQG 271227Z 20010KT 3SM BR OVC007 RMK SF8

CYQG;2013-02-27 13:00;CYQG 271300Z 22008KT 4SM BR BKN006 OVC031 02/01 A2950 RMK SF6SC2 SLP995

CYQG;2013-02-27 14:00;CYQG 271400Z 22010KT 7SM BKN006 BKN049 02/02 A2952 RMK SF5SC2 SLP003

CYQG;2013-02-27 14:11;CYQG 271411Z 22010KT 8SM FEW006 OVC052 RMK SF2SC6

CYQG;2013-02-27 15:00;CYQG 271500Z 21008KT 8SM BKN006 OVC053 02/02 A2952 RMK SF6SC2 SLP004

CYQG;2013-02-27 16:00;CYQG 271600Z 22014KT 12SM BKN008 BKN041 03/02 A2953 RMK SF6SC1 SLP005

CYQG;2013-02-27 17:00;CYQG 271700Z 22012KT 15SM BKN010 BKN090 03/02 A2954 RMK SC6AC1 SLP010

CYQG;2013-02-27 18:00;CYQG 271800Z 24013KT 15SM OVC013 03/00 A2954 RMK SC8 SLP010

CYQG;2013-02-27 18:50;CYQG 271850Z 23013KT 15SM OVC015 RMK SC8

CYQG;2013-02-27 19:00;CYQG 271900Z 23016KT 15SM OVC017 03/M00 A2954 RMK SC8 SLP008

CYQG;2013-02-27 19:22;CYQG 271922Z 23011KT 15SM -RA OVC016 RMK SC8

CYQG;2013-02-27 19:33;CYQG 271933Z 23011G17KT 12SM -RA OVC013 RMK SC8

CYQG;2013-02-27 19:47;CYQG 271947Z 21010KT 10SM -RASN BKN008 OVC015 RMK SF5SC3

CYQG;2013-02-27 20:00;CYQG 272000Z 21010KT 7SM -SN BKN007 OVC015 02/01 A2955 RMK SF6SC2 SLP012

CYQG;2013-02-27 20:26;CYQG 272026Z 21009KT 4SM -SN BKN003 OVC015 RMK SF6SC2

CYQG;2013-02-27 20:48;CYQG 272048Z 21010KT 2 1/2SM -SN BR BKN003 OVC015 RMK SF7SC1

CYQG;2013-02-27 21:00;CYQG 272100Z 21010KT 1 1/4SM -SN BR OVC003 01/00 A2956 RMK SF8 SLP016

CYQG;2013-02-27 21:06;CYQG 272106Z 21010KT 3/4SM -SN BR OVC003 RMK SN2SF6

CYQG;2013-02-27 21:36;CYQG 272136Z 21010KT 1/2SM SN FG OVC003 RMK SN3SF5

CYQG;2013-02-27 21:43;CYQG 272143Z 20010KT 3/8SM SN FG OVC003 RMK SN5SF3

CYQG;2013-02-27 22:00;CYQG 272200Z CCA 20009KT 5/8SM -SN BR OVC003 01/M00 A2957 RESN RMK SN2SF6 SLP018

CYQG;2013-02-27 22:32;CYQG 272232Z 21009KT 1/2SM SN FG OVC002 RESN RMK SN3SF5

CYQG;2013-02-27 23:00;CYQG 272300Z CCA 21010KT 3/4SM -SN BR OVC003 00/M00 A2958 RESN RMK SN2SF6 SLP021

CYQG;2013-02-28 00:00;CYQG 280000Z 21009KT 1 1/4SM -SN BR OVC003 01/M00 A2959 RMK SF8 SLP026

CYQG;2013-02-28 01:00;CYQG 280100Z 22009KT 1 1/2SM -SN BR OVC003 00/M00 A2957 RMK SF8 SLP019

CYQG;2013-02-28 03:00;CYQG 280300Z 23007KT 4SM -SN BR BKN005 OVC010 00/M00 A2958 RMK SF7SC1 SLP021

CYQG;2013-02-28 04:00;CYQG 280400Z 22007KT 4SM BR OVC007 00/M00 A2957 RMK SF8 SLP019

CYQG;2013-02-28 05:00;CYQG 280500Z 21007KT 4SM BR OVC009 01/M00 A2955 RMK SF8 SLP014

CYQG;2013-02-28 06:00;CYQG 280600Z 22008KT 4SM BR OVC007 01/M00 A2955 RMK SF8 SLP012

CYQG;2013-02-28 07:00;CYQG 280700Z 25006KT 4SM BR OVC007 01/M00 A2956 RMK SF8 SLP015

CYQG;2013-02-28 08:00;CYQG 280800Z 24007KT 4SM BR OVC006 00/M00 A2955 RMK SF8 SLP012

CYQG;2013-02-28 09:00;CYQG 280900Z 24008KT 3SM -SN BR OVC005 00/M00 A2954 RMK SF8 SLP011

CYQG;2013-02-28 09:19;CYQG 280919Z 25006KT 2SM -SN BR OVC003 RMK SF8

CYQG;2013-02-28 10:00;CYQG 281000Z 25006KT 2SM -SN BR OVC003 00/M00 A2955 RMK SF8 SLP012

CYQG;2013-02-28 11:00;CYQG 281100Z 27005KT 2SM -SN BR OVC003 01/M00 A2956 RMK SF8 SLP017

CYQG;2013-02-28 11:46;CYQG 281146Z 31006KT 2 1/2SM -SN BR BKN006 OVC011 RMK SF6SC2

CYQG;2013-02-28 12:00;CYQG 281200Z 31007KT 2SM -SN BR OVC006 01/M00 A2957 RMK SF8 SLP021

CYQG;2013-02-28 12:51;CYQG 281251Z 32007KT 1 1/4SM -SN BR OVC006 RMK SF8

CYQG;2013-02-28 13:00;CYQG 281300Z 32007KT 1SM -SN OVC006 01/M00 A2959 RMK SN2SF6 SLP027

CYQG;2013-02-28 13:25;CYQG 281325Z 33009KT 2SM -SN BKN006 OVC014 RMK SN2SF6SC1

CYQG;2013-02-28 13:46;CYQG 281346Z 34009KT 3SM -SN BKN006 OVC014 RMK SF6SC2

CYQG;2013-02-28 14:00;CYQG 281400Z 34010KT 4SM -SN BKN006 OVC014 01/00 A2962 RMK SF6SC2 SLP036

CYQG;2013-02-28 14:30;CYQG 281430Z 34011KT 5SM -RASN BKN008 OVC015 RMK SF5SC3

CYQG;2013-02-28 15:00;CYQG 281500Z 34012KT 10SM -RASN BKN007 OVC016 01/00 A2964 RMK SF6SC2 SLP043

CYQG;2013-02-28 15:22;CYQG 281522Z 36012G18KT 15SM -SHRA FEW008 BKN015 BKN050 RMK SF2SC4SC1

CYQG;2013-02-28 16:00;CYQG 281600Z 36011KT 15SM -SHRA SCT015 BKN026 BKN045 02/M00 A2966 RMK SC3SC2SC2 SLP050

CYQG;2013-02-28 17:00;CYQG 281700Z 36015G20KT 15SM BKN017 BKN046 03/M00 A2969 RMK SC6SC1 OCNL -SHRA SLP060

CYQG;2013-02-28 17:27;CYQG 281727Z 36012G18KT 15SM BKN022 BKN039 RMK SC6SC1

CYQG;2013-02-28 18:00;CYQG 281800Z 36014KT 15SM SCT023 BKN055 03/M01 A2970 RMK SC4SC3 SLP063

CYQG;2013-02-28 19:00;CYQG 281900Z 36014G19KT 15SM OVC023 03/M02 A2972 RMK SC8 SLP070

CYQG;2013-02-28 19:31;CYQG 281931Z 35012G18KT 15SM -SHRA BKN023 OVC053 RMK SC6SC2

CYQG;2013-02-28 19:48;CYQG 281948Z 35011G21KT 8SM -SHRASN OVC021 OVC052 RMK SC7SC1

CYQG;2013-02-28 20:00;CYQG 282000Z 36014KT 15SM -SHRASN BKN021 OVC054 02/M00 A2974 RMK SC6SC2 SLP077

CYQG;2013-02-28 21:00;CYQG 282100Z CCA 34011G16KT 15SM VCSH BKN021 OVC053 02/M01 A2977 RMK SC6SC2 OCNL -SHRA -SHSN SLP087

CYQG;2013-02-28 21:38;CYQG 282138Z 36012G18KT 15SM VCSH BKN027 OVC053 RMK SC6SC2 OCNL -SHSN

CYQG;2013-02-28 22:00;CYQG 282200Z 36010G18KT 15SM -SHSN BKN030 OVC042 01/M02 A2980 RMK SC7SC1 SLP099

CYQG;2013-02-28 23:00;CYQG 282300Z 35013KT 15SM -SHSN BKN019 OVC042 01/M03 A2984 RMK SC7SC1 SLP110

CYQG;2013-03-01 00:00;CYQG 010000Z 36011G16KT 15SM -SHSN OVC021 00/M03 A2987 RMK SC8 SLP122

CYQG;2013-03-01 01:00;CYQG 010100Z 36013G19KT 15SM -SHSN OVC031 M00/M04 A2990 RMK SC8 SLP131

CYQG;2013-03-01 02:00;CYQG 010200Z 35010KT 15SM -SHSN OVC032 M00/M04 A2992 RMK SC8 SLP138

CYQG;2013-03-01 03:00;CYQG 010300Z 36006KT 15SM -SHSN OVC020 M00/M05 A2993 RMK SC8 SLP144

CYQG;2013-03-01 04:00;CYQG 010400Z 35009KT 15SM -SHSN OVC021 M01/M04 A2994 RMK SC8 SLP145

CYQG;2013-03-01 05:00;CYQG 010500Z 33008G18KT 15SM -SHSN OVC017 M01/M04 A2994 RMK SC8 SLP145

CYQG;2013-03-01 06:00;CYQG 010600Z 35011G16KT 15SM -SHSN OVC020 M01/M05 A2994 RMK SC8 SLP145

CYQG;2013-03-01 07:00;CYQG 010700Z 36014KT 15SM -SHSN OVC016 M01/M04 A2995 RMK SC8 SLP147

CYQG;2013-03-01 08:00;CYQG 010800Z 01012KT 15SM -SHSN OVC017 M01/M05 A2995 RMK SC8 SLP148

CYQG;2013-03-01 09:00;CYQG 010900Z 36011KT 15SM -SHSN OVC017 M02/M05 A2995 RMK SC8 SLP151

CYQG;2013-03-01 10:00;CYQG 011000Z 01010KT 15SM -SHSN OVC017 M02/M06 A2997 RMK SC8 SLP155

CYQG;2013-03-01 11:00;CYQG 011100Z 36012KT 15SM -SHSN OVC020 M02/M07 A2997 RMK SC8 SLP156

CYQG;2013-03-01 12:00;CYQG 011200Z 36011G16KT 15SM -SHSN BKN021 M02/M07 A2998 RMK SC7 SLP161

CYQG;2013-03-01 12:35;CYQG 011235Z 01013KT 15SM OVC023 RMK SC8

CYQG;2013-03-01 13:00;CYQG 011300Z 35014G21KT 15SM OVC020 M03/M07 A3001 RMK SC8 SLP170

CYQG;2013-03-01 13:08;CYQG 011308Z 35013G20KT 15SM -FZDZ OVC020 RMK SC8

CYQG;2013-03-01 13:26;CYQG 011326Z 01010KT 15SM -SHSN OVC019 REFZDZ RMK SC8

CYQG;2013-03-01 14:00;CYQG 011400Z 36014G19KT 15SM -SHSN OVC019 M03/M07 A3003 RMK SC8 SLP176

CYQG;2013-03-01 15:00;CYQG 011500Z 35013G18KT 15SM -SHSN OVC020 M03/M07 A3004 RMK SC8 SLP181

CYQG;2013-03-01 16:00;CYQG 011600Z 01011G18KT 15SM -SHSN OVC020 M03/M08 A3004 RMK SC8 SLP182

CYQG;2013-03-01 17:00;CYQG 011700Z 36015KT 15SM -SHSN OVC022 M03/M08 A3004 RMK SC8 SLP183

CYQG;2013-03-01 18:00;CYQG 011800Z 35015KT 15SM -SHSN OVC021 M03/M07 A3004 RMK SC8 SLP182

CYQG;2013-03-01 19:00;CYQG 011900Z 35011KT 15SM -SHSN OVC021 M02/M07 A3003 RMK SC8 SLP179

CYQG;2013-03-01 20:00;CYQG 012000Z 01014KT 15SM -SHSN OVC024 M02/M07 A3003 RMK SC8 SLP177

CYQG;2013-03-01 21:00;CYQG 012100Z 01011KT 15SM OVC020 M02/M07 A3003 RMK SC8 OCNL -SHSN SLP177

CYQG;2013-03-01 22:00;CYQG 012200Z 01014KT 15SM OVC021 M03/M07 A3004 RMK SC8 OCNL -SHSN SLP182

CYQG;2013-03-01 23:00;CYQG 012300Z 35011KT 15SM OVC020 M03/M07 A3006 RMK SC8 OCNL -SHSN SLP188

CYQG;2013-03-02 00:00;CYQG 020000Z 36013KT 15SM -SHSN OVC018 M03/M07 A3007 RMK SC8 SLP191

CYQG;2013-03-02 01:00;CYQG 020100Z 01011G18KT 15SM -SHSN OVC020 M03/M07 A3008 RMK SC8 SLP194

CYQG;2013-03-02 02:00;CYQG 020200Z 36010G16KT 12SM -SHSN OVC018 M03/M07 A3008 RMK SC8 SLP194

CYQG;2013-03-02 03:00;CYQG 020300Z 35013G19KT 12SM -SHSN OVC016 M03/M07 A3008 RMK SC8 SLP196

CYQG;2013-03-02 04:00;CYQG 020400Z 34008G15KT 15SM -SHSN OVC020 M03/M07 A3007 RMK SC8 SLP191

CYQG;2013-03-02 05:00;CYQG 020500Z 34010KT 15SM -SHSN OVC021 M03/M07 A3005 RMK SC8 SLP187

CYQG;2013-03-02 06:00;CYQG 020600Z 34009G15KT 15SM -SHSN OVC024 M03/M07 A3004 RMK SC8 SLP182

CYQG;2013-03-02 07:00;CYQG 020700Z 33010KT 15SM -SHSN OVC020 M03/M07 A3005 RMK SC8 SLP184

CYQG;2013-03-02 08:00;CYQG 020800Z 33009KT 15SM -SHSN OVC021 M03/M07 A3003 RMK SC8 SLP179

CYQG;2013-03-02 09:00;CYQG 020900Z 33008KT 15SM -SHSN OVC019 M03/M07 A3002 RMK SC8 SLP176

CYQG;2013-03-02 10:00;CYQG 021000Z 34008KT 15SM -SHSN OVC018 M03/M07 A3003 RMK SC8 SLP178

CYQG;2013-03-02 11:00;CYQG 021100Z 34007KT 15SM -SHSN OVC020 M03/M07 A3003 RMK SC8 SLP177

CYQG;2013-03-02 12:00;CYQG 021200Z 34009KT 15SM -SHSN BKN022 M03/M07 A3004 RMK SC7 SLP180

CYQG;2013-03-02 13:00;CYQG 021300Z 34006KT 4SM -SHSN FEW018 BKN034 M03/M07 A3004 RMK CU2SC6 VIS SE 8 SLP182

CYQG;2013-03-02 14:00;CYQG 021400Z 34010G15KT 6SM -SHSN SCT018 BKN030 M03/M07 A3004 RMK CU3SC4 SLP183

CYQG;2013-03-02 15:00;CYQG 021500Z 36009KT 15SM -SHSN BKN027 M02/M08 A3004 RMK SC6 SLP182

CYQG;2013-03-02 15:50;CYQG 021550Z 35010G16KT 15SM BKN032 RMK SC6

CYQG;2013-03-02 16:00;CYQG 021600Z 36013KT 15SM FEW022 BKN033 M02/M08 A3004 RMK CU1SC6 SLP181

CYQG;2013-03-02 16:40;CYQG 021640Z 34014KT 15SM -SHSN BKN032 BKN260 RMK SC7CI1 TR CI

CYQG;2013-03-02 17:00;CYQG 021700Z 32013KT 15SM -SHSN BKN031 M02/M08 A3004 RMK SC7 CU ASOCTD SLP181

CYQG;2013-03-02 18:00;CYQG 021800Z 35008KT 15SM -SHSN FEW023 OVC034 M02/M08 A3003 RMK CU2SC6 SLP177

CYQG;2013-03-02 19:00;CYQG 021900Z 34009G16KT 12SM -SHSN OVC027 M02/M07 A3002 RMK SC8 SLP174

CYQG;2013-03-02 20:00;CYQG 022000Z 34013KT 15SM -SHSN BKN019 OVC035 M03/M07 A3003 RMK SC7SC1 SLP177

CYQG;2013-03-02 21:00;CYQG 022100Z 34008KT 15SM -SHSN OVC021 M03/M07 A3003 RMK SC8 SLP177

CYQG;2013-03-02 22:00;CYQG 022200Z 34014KT 15SM -SHSN BKN021 OVC040 M03/M08 A3003 RMK SC5SC2 SLP177

CYQG;2013-03-02 23:00;CYQG 022300Z 33011KT 15SM -SHSN SCT024 OVC032 M03/M08 A3004 RMK SC3SC4 SLP182

CYQG;2013-03-03 00:00;CYQG 030000Z 34011KT 15SM -SHSN FEW022 OVC037 M03/M08 A3005 RMK SC2SC6 SLP185

CYQG;2013-03-03 01:00;CYQG 030100Z 35010KT 15SM -SHSN OVC022 M04/M08 A3005 RMK SC8 SLP187

CYQG;2013-03-03 02:00;CYQG 030200Z 36008KT 15SM -SN OVC024 M04/M09 A3005 RMK SC8 SLP187

CYQG;2013-03-03 03:00;CYQG 030300Z 34011KT 15SM -SN OVC028 M04/M10 A3005 RMK SC8 SLP186

CYQG;2013-03-03 04:00;CYQG 030400Z 34006KT 15SM -SN OVC031 M04/M10 A3004 RMK SC8 SLP183

CYQG;2013-03-03 05:00;CYQG 030500Z 34007KT 15SM -SN OVC031 M04/M10 A3004 RMK SC8 SLP181

CYQG;2013-03-03 06:00;CYQG 030600Z 34006KT 15SM -SN OVC031 M04/M09 A3004 RMK SC8 SLP180

CYQG;2013-03-03 07:00;CYQG 030700Z 34007KT 15SM -SN OVC029 M04/M08 A3003 RMK SC8 SLP177

CYQG;2013-03-03 08:00;CYQG 030800Z 32011KT 10SM -SN FEW016 OVC037 M04/M08 A3001 RMK SC2SC6 SLP172

CYQG;2013-03-03 09:00;CYQG 030900Z 33009KT 12SM -SN FEW016 OVC031 M05/M09 A3000 RMK SC2SC6 SLP167

CYQG;2013-03-03 10:00;CYQG 031000Z 32008KT 15SM -SN FEW019 OVC031 M05/M09 A3000 RMK SC2SC6 SLP169

CYQG;2013-03-03 11:00;CYQG 031100Z 30009KT 15SM -SN OVC028 M05/M09 A3001 RMK SC8 SLP171

CYQG;2013-03-03 12:00;CYQG 031200Z 30007KT 7SM -SN OVC030 M05/M09 A3001 RMK SC8 SLP173

CYQG;2013-03-03 13:00;CYQG 031300Z 31010KT 12SM -SN FEW017 OVC032 M05/M10 A3002 RMK CU1SC7 SLP177

CYQG;2013-03-03 14:00;CYQG 031400Z 31010KT 15SM -SN BKN039 BKN260 M06/M11 A3002 RMK SC7CI1 TR CI SLP177

CYQG;2013-03-03 14:40;CYQG 031440Z 31012KT 15SM BKN041 BKN260 RMK SC6CI1 TR CI

CYQG;2013-03-03 15:00;CYQG 031500Z 32010G16KT 15SM BKN039 BKN260 M05/M11 A3002 RMK SC3CI1 TR CI SLP176

CYQG;2013-03-03 16:00;CYQG 031600Z 33010KT 15SM FEW038 SCT260 M04/M10 A3002 RMK SC2CI0 SLP175

CYQG;2013-03-03 17:00;CYQG 031700Z 31012KT 15SM SCT026 M02/M10 A3001 RMK SC4 SLP173

CYQG;2013-03-03 18:00;CYQG 031800Z 30009G15KT 15SM SCT030 M02/M10 A3000 RMK SC4 SLP169

CYQG;2013-03-03 19:00;CYQG 031900Z 31005KT 15SM FEW035 FEW270 M02/M10 A2998 RMK CU2CI1 TR CI SLP162

CYQG;2013-03-03 20:00;CYQG 032000Z 29011KT 15SM FEW038 FEW270 M01/M10 A2998 RMK CU2CI1 TR CI SLP160

CYQG;2013-03-03 21:00;CYQG 032100Z 35012KT 15SM BKN039 M01/M10 A2998 RMK SC7 SLP161

CYQG;2013-03-03 22:00;CYQG 032200Z 33011KT 15SM BKN036 M03/M09 A2999 RMK SC7 SLP166

CYQG;2013-03-03 23:00;CYQG 032300Z 34010KT 15SM BKN032 M03/M09 A3001 RMK SC7 SLP172

CYQG;2013-03-04 00:00;CYQG 040000Z 34010KT 15SM BKN028 M04/M10 A3003 RMK SC7 SLP179

CYQG;2013-03-04 01:00;CYQG 040100Z 31007KT 15SM FEW030 M04/M10 A3004 RMK SC2 SLP182

CYQG;2013-03-04 02:00;CYQG 040200Z 27005KT 15SM SKC M04/M10 A3004 RMK SLP182

CYQG;2013-03-04 03:00;CYQG 040300Z 27004KT 15SM FEW050 M05/M10 A3004 RMK SC1 SLP182

CYQG;2013-03-04 04:00;CYQG 040400Z 26003KT 15SM BKN041 M05/M10 A3004 RMK SC6 SLP181

CYQG;2013-03-04 05:00;CYQG 040500Z 26004KT 15SM BKN039 M05/M10 A3004 RMK SC6 SLP181

CYQG;2013-03-04 06:00;CYQG 040600Z 29006KT 15SM FEW040 M05/M10 A3005 RMK SC1 SLP185

CYQG;2013-03-04 07:00;CYQG 040700Z 28007KT 15SM SKC M05/M10 A3007 RMK SLP192

CYQG;2013-03-04 08:00;CYQG 040800Z 31006KT 15SM SKC M06/M10 A3007 RMK SLP192

CYQG;2013-03-04 09:00;CYQG 040900Z 36003KT 15SM SKC M07/M10 A3006 RMK SLP189

CYQG;2013-03-04 10:00;CYQG 041000Z 32002KT 15SM SKC M07/M10 A3008 RMK SLP196

CYQG;2013-03-04 11:00;CYQG 041100Z 31002KT 15SM SKC M07/M10 A3011 RMK SLP205

CYQG;2013-03-04 12:00;CYQG 041200Z 30003KT 15SM SKC M07/M10 A3012 RMK SLP210

CYQG;2013-03-04 13:00;CYQG 041300Z 28003KT 15SM FEW018 FEW260 M07/M10 A3013 RMK SC1CI1 TR SC TR CI SLP212

CYQG;2013-03-04 14:00;CYQG 041400Z 28005KT 15SM FEW020 M05/M09 A3013 RMK SC1 TR SC SLP213

CYQG;2013-03-04 15:00;CYQG 041500Z 27007KT 15SM FEW022 FEW270 M04/M09 A3014 RMK CU1CI1 TR CU TR CI SLP215

CYQG;2013-03-04 16:00;CYQG 041600Z 27007KT 15SM FEW028 FEW110 M03/M10 A3013 RMK CU1AC1 TR CU TR AC SLP212

CYQG;2013-03-04 17:00;CYQG 041700Z 30003KT 15SM FEW032 FEW270 M02/M10 A3012 RMK CU1CI1 TR CU SLP210

CYQG;2013-03-04 18:00;CYQG 041800Z 26007KT 15SM FEW034 FEW270 M01/M10 A3011 RMK CU1CI1 TR CU SLP205

CYQG;2013-03-04 19:00;CYQG 041900Z 29004KT 15SM FEW270 01/M10 A3009 RMK CI1 SLP198

CYQG;2013-03-04 20:00;CYQG 042000Z 00000KT 15SM SCT270 02/M10 A3008 RMK CI1 CONTRAILS SLP195

CYQG;2013-03-04 21:00;CYQG 042100Z CCA 01003KT 15SM BKN280 03/M10 A3007 RMK CI2 CONTRAILS SLP192

CYQG;2013-03-04 22:00;CYQG 042200Z 08003KT 15SM BKN280 03/M11 A3007 RMK CI2 SLP192

CYQG;2013-03-04 23:00;CYQG 042300Z 09007KT 15SM SCT280 01/M07 A3007 RMK CI2 SLP193

CYQG;2013-03-05 00:00;CYQG 050000Z 10004KT 15SM BKN280 M01/M07 A3008 RMK CI2 SLP196

CYQG;2013-03-05 01:00;CYQG 050100Z 10005KT 15SM FEW280 M02/M06 A3009 RMK CI1 SLP198

CYQG;2013-03-05 02:00;CYQG 050200Z 09002KT 15SM FEW280 M02/M07 A3009 RMK CI1 SLP200

CYQG;2013-03-05 03:00;CYQG 050300Z 07007KT 15SM SCT280 M03/M06 A3010 RMK CI2 SLP202

CYQG;2013-03-05 04:00;CYQG 050400Z 06006KT 15SM SCT280 M03/M07 A3011 RMK CI2 SLP205

CYQG;2013-03-05 05:00;CYQG 050500Z 05006KT 15SM SCT230 M04/M07 A3012 RMK CI1 SLP210

CYQG;2013-03-05 06:00;CYQG 050600Z 05005KT 15SM FEW220 M05/M07 A3013 RMK CI1 SLP212

CYQG;2013-03-05 07:00;CYQG 050700Z 05007KT 15SM SKC M05/M07 A3012 RMK SLP210

CYQG;2013-03-05 08:00;CYQG 050800Z 06007KT 15SM SKC M05/M07 A3011 RMK SLP206

CYQG;2013-03-05 09:00;CYQG 050900Z 06006KT 15SM SKC M05/M07 A3009 RMK SLP199

CYQG;2013-03-05 10:00;CYQG 051000Z 07007KT 15SM FEW230 M05/M07 A3008 RMK CI1 SLP196

CYQG;2013-03-05 10:40;CYQG 051040Z 07007KT 15SM BKN013 RMK SC6

CYQG;2013-03-05 11:00;CYQG 051100Z 08007KT 15SM BKN012 M05/M07 A3008 RMK SC6 SLP194

CYQG;2013-03-05 12:00;CYQG 051200Z 09007KT 15SM BKN014 M04/M07 A3007 RMK SC7 SLP192

CYQG;2013-03-05 13:00;CYQG 051300Z 10010KT 15SM BKN012 M04/M06 A3006 RMK SC7 SLP189

CYQG;2013-03-05 14:00;CYQG 051400Z 09010KT 15SM FEW012 FEW280 M03/M06 A3006 RMK SC2CI1 SLP188

CYQG;2013-03-05 15:00;CYQG 051500Z CCA 11011KT 15SM FEW016 FEW280 M02/M07 A3005 RMK SC2CI1 SLP186

CYQG;2013-03-05 16:00;CYQG 051600Z 08003KT 15SM BKN017 BKN280 M01/M05 A3003 RMK SC6CI1 SLP178

CYQG;2013-03-05 17:00;CYQG 051700Z 12009G16KT 15SM BKN017 M01/M05 A3002 RMK SC7 SLP174

CYQG;2013-03-05 18:00;CYQG 051800Z 08010KT 15SM BKN020 M00/M05 A2998 RMK SC7 SLP163

CYQG;2013-03-05 19:00;CYQG 051900Z 08015KT 15SM FEW020 SCT280 00/M05 A3007 RMK SC2CI1 SLP191

CYQG;2013-03-05 20:00;CYQG 052000Z 08017KT 15SM FEW020 FEW280 00/M05 A2991 RMK SC2CI1 SLP139

CYQG;2013-03-05 21:00;CYQG 052100Z 08017KT 15SM FEW020 BKN280 00/M05 A2988 RMK SC1CI2 SLP128

CYQG;2013-03-05 22:00;CYQG 052200Z 09013G19KT 15SM FEW020 FEW080 BKN280 M01/M05 A2986 RMK SC1AC2CI2 SLP119

CYQG;2013-03-05 23:00;CYQG 052300Z 08014KT 15SM FEW020 SCT140 BKN270 M00/M05 A2985 RMK SC1AC3CI2 SLP117

CYQG;2013-03-06 00:00;CYQG 060000Z 08014KT 15SM BKN150 BKN270 M01/M05 A2985 RMK AC6CI1 SLP116

CYQG;2013-03-06 01:00;CYQG 060100Z 05014KT 15SM FEW050 OVC160 M01/M04 A2984 RMK SC1AC7 SLP113

CYQG;2013-03-06 02:00;CYQG 060200Z 05016G21KT 15SM OVC150 M01/M04 A2982 RMK AC8 SLP107

CYQG;2013-03-06 03:00;CYQG 060300Z 04015G21KT 15SM OVC160 M01/M05 A2982 RMK AC8 SLP106

CYQG;2013-03-06 04:00;CYQG 060400Z 05016KT 15SM OVC170 M02/M05 A2982 RMK AC8 SLP106

CYQG;2013-03-06 05:00;CYQG 060500Z 03017G22KT 15SM FEW170 BKN240 M02/M05 A2982 RMK AC1CS6 SLP105

CYQG;2013-03-06 06:00;CYQG 060600Z 03019G24KT 15SM SCT016 OVC180 M02/M05 A2982 RMK SC3AC5 SLP106

CYQG;2013-03-06 07:00;CYQG 060700Z 03015G20KT 15SM FEW016 SCT240 M02/M04 A2983 RMK SC2CI1 SLP110

CYQG;2013-03-06 08:00;CYQG 060800Z 02016KT 15SM FEW016 SCT220 M02/M04 A2983 RMK SC1CI1 SLP111

CYQG;2013-03-06 09:00;CYQG 060900Z 03016KT 15SM FEW220 M02/M04 A2985 RMK CI1 SLP115

CYQG;2013-03-06 10:00;CYQG 061000Z 02013KT 15SM SKC M02/M04 A2988 RMK SLP125

CYQG;2013-03-06 11:00;CYQG 061100Z 03012KT 15SM SKC M02/M04 A2992 RMK SLP140

CYQG;2013-03-06 12:00;CYQG 061200Z 03012KT 12SM FEW240 M02/M04 A2995 RMK CI1 SLP151

CYQG;2013-03-06 13:00;CYQG 061300Z 03012KT 12SM BKN240 M01/M03 A3000 RMK CI1 SLP166

CYQG;2013-03-06 14:00;CYQG 061400Z 03012KT 12SM FEW012 SCT280 00/M03 A3003 RMK SC1CI1 SLP176

CYQG;2013-03-06 15:00;CYQG 061500Z 05011KT 12SM FEW012 FEW280 01/M02 A3005 RMK CF1CI1 SLP183

CYQG;2013-03-06 16:00;CYQG 061600Z 04012KT 12SM FEW012 03/M02 A3007 RMK CF2 SLP191

CYQG;2013-03-06 17:00;CYQG 061700Z 04010KT 12SM FEW012 BKN040 03/M02 A3008 RMK CF2SC5 SLP194

CYQG;2013-03-06 18:00;CYQG 061800Z 04010KT 12SM FEW012 BKN040 04/M01 A3009 RMK CU1SC6 SLP197

CYQG;2013-03-06 19:00;CYQG 061900Z 03006KT 12SM FEW024 BKN042 05/M01 A3010 RMK CU2SC6 BRKSINC SLP201

CYQG;2013-03-06 20:00;CYQG 062000Z 02004KT 12SM FEW024 BKN043 05/M02 A3010 RMK CU1SC6 SLP201

CYQG;2013-03-06 21:00;CYQG 062100Z 05006KT 12SM BKN048 BKN080 06/M02 A3011 RMK SC6AC1 SLP203

CYQG;2013-03-06 22:00;CYQG 062200Z 03002KT 12SM BKN042 BKN100 05/M02 A3012 RMK SC5AC1 SLP206

CYQG;2013-03-06 23:00;CYQG 062300Z 04005KT 12SM BKN044 BKN100 04/M02 A3014 RMK SC7AC1 SLP213

CYQG;2013-03-07 00:00;CYQG 070000Z 20006KT 12SM OVC031 03/M01 A3015 RMK SC8 SLP218

CYQG;2013-03-07 01:00;CYQG 070100Z 16003KT 12SM OVC030 02/M01 A3017 RMK SC8 SLP223

CYQG;2013-03-07 02:00;CYQG 070200Z 13003KT 12SM OVC030 02/M01 A3018 RMK SC8 SLP228

CYQG;2013-03-07 03:00;CYQG 070300Z CCA 07005KT 12SM -SHSN OVC028 01/M00 A3020 RMK SC8 SLP232

CYQG;2013-03-07 05:00;CYQG 070500Z 36002KT 8SM -SHSN FEW018 OVC039 01/M01 A3019 RMK SC1SC7 SLP231

CYQG;2013-03-07 06:00;CYQG 070600Z 00000KT 8SM -SHSN OVC041 01/M00 A3018 RMK SC8 SLP228

CYQG;2013-03-07 07:00;CYQG 070700Z 02002KT 10SM -SN FEW015 FEW025 OVC038 01/M01 A3020 RMK SC2SC1SC6 SLP232

CYQG;2013-03-07 08:00;CYQG 070800Z 36002KT 12SM -SN OVC034 01/M01 A3019 RMK SC8 SLP231

CYQG;2013-03-07 09:00;CYQG 070900Z 30002KT 10SM -SN BKN041 OVC060 01/M01 A3020 RMK SC6SC2 SLP231

CYQG;2013-03-07 10:00;CYQG 071000Z 32005KT 12SM -SN OVC063 01/M01 A3021 RMK SC8 SLP235

CYQG;2013-03-07 11:00;CYQG 071100Z 33006KT 15SM -SN OVC064 01/M01 A3022 RMK SC8 SLP239

CYQG;2013-03-07 11:35;CYQG 071135Z 33005KT 15SM BKN045 OVC070 RMK SC6AC2

CYQG;2013-03-07 12:00;CYQG 071200Z 33005KT 12SM BKN045 OVC075 01/M02 A3024 RMK SC6AC2 SLP246

CYQG;2013-03-07 13:00;CYQG 071300Z 34005KT 6SM HZ BKN080 01/M02 A3026 RMK AC7 SLP252

CYQG;2013-03-07 14:00;CYQG 071400Z 34006KT 7SM FEW048 BKN058 01/M02 A3028 RMK SC1SC6 SLP260

CYQG;2013-03-07 14:44;CYQG 071444Z 33009KT 7SM BKN016 OVC024 RMK CU7SC1

CYQG;2013-03-07 15:00;CYQG 071500Z 33009KT 7SM -SHSN OVC016 02/M01 A3029 RMK CU8 SLP265

CYQG;2013-03-07 16:00;CYQG 071600Z 36006KT 6SM HZ BKN011 OVC029 02/M01 A3029 RMK SC6SC2 OCNL -SHSN SLP266

CYQG;2013-03-07 16:28;CYQG 071628Z 33007KT 8SM OVC012 RMK SC8

CYQG;2013-03-07 17:00;CYQG 071700Z 34006KT 8SM OVC013 02/M01 A3030 RMK SC8 SLP269

CYQG;2013-03-07 18:00;CYQG 071800Z 36007KT 12SM OVC014 02/M01 A3030 RMK SC8 SLP268

CYQG;2013-03-07 19:00;CYQG 071900Z 35008KT 12SM SCT019 OVC025 03/M02 A3030 RMK SC3SC5 SLP267

CYQG;2013-03-07 19:03;CYQG 071903Z 36007KT 12SM -SHSN SCT019 OVC025 RMK SC3SC5

CYQG;2013-03-07 20:00;CYQG 072000Z 04005KT 12SM -SHSN SCT019 OVC035 02/M02 A3031 RMK SC3SC5 SLP270

CYQG;2013-03-07 21:00;CYQG 072100Z 04004KT 12SM -SHSN OVC029 02/M04 A3032 RMK SC8 SLP273

CYQG;2013-03-07 22:00;CYQG 072200Z 34007KT 12SM OVC036 02/M04 A3033 RMK SC8 OCNL -SHSN SLP277

CYQG;2013-03-07 23:00;CYQG 072300Z 35007KT 12SM BKN029 OVC052 01/M04 A3034 RMK SC6SC2 SLP280

CYQG;2013-03-08 00:00;CYQG 080000Z 34005KT 15SM BKN037 01/M05 A3036 RMK SC7 SLP289

CYQG;2013-03-08 01:00;CYQG 080100Z 33009KT 15SM BKN040 01/M05 A3038 RMK SC6 SLP295

CYQG;2013-03-08 02:00;CYQG 080200Z 33006KT 15SM BKN040 01/M05 A3038 RMK SC6 SLP294

CYQG;2013-03-08 03:00;CYQG 080300Z 34006KT 15SM BKN043 00/M06 A3038 RMK SC7 SLP295

CYQG;2013-03-08 04:00;CYQG 080400Z 35004KT 15SM BKN039 00/M08 A3038 RMK SC6 SLP296

CYQG;2013-03-08 05:00;CYQG 080500Z 35004KT 15SM FEW038 FEW260 M01/M07 A3038 RMK SC1CI1 TR CI SLP296

CYQG;2013-03-08 06:00;CYQG 080600Z 36003KT 15SM FEW038 M01/M07 A3038 RMK SC1 TR SC SLP297

CYQG;2013-03-08 07:00;CYQG 080700Z 34002KT 15SM SKC M02/M07 A3040 RMK SLP303

CYQG;2013-03-08 08:00;CYQG 080800Z 32004KT 15SM SKC M02/M07 A3041 RMK SLP306

CYQG;2013-03-08 09:00;CYQG 080900Z 31005KT 15SM SKC M03/M07 A3041 RMK SLP308

CYQG;2013-03-08 10:00;CYQG 081000Z 34006KT 15SM SKC M03/M08 A3042 RMK SLP310

CYQG;2013-03-08 11:00;CYQG 081100Z 35006KT 15SM FEW260 M04/M08 A3044 RMK CI1 TR CI FROIN SLP317

CYQG;2013-03-08 12:00;CYQG 081200Z 35006KT 15SM FEW260 M04/M08 A3045 RMK CI1 TR CI SLP320

CYQG;2013-03-08 13:00;CYQG 081300Z 36006KT 15SM FEW025 FEW270 M02/M06 A3047 RMK SC1CI0 TR SC SLP327

CYQG;2013-03-08 14:00;CYQG 081400Z 03005KT 15SM FEW030 M00/M06 A3047 RMK SC1 TR SC SLP329

CYQG;2013-03-08 15:00;CYQG 081500Z 03005KT 15SM SKC 01/M05 A3048 RMK SLP331

CYQG;2013-03-08 16:00;CYQG 081600Z 29003KT 15SM FEW035 SCT260 03/M05 A3048 RMK SC1CI2 SLP330

CYQG;2013-03-08 17:00;CYQG 081700Z 05006KT 15SM FEW030 FEW270 04/M04 A3047 RMK SC1CI2 TR SC SLP328

CYQG;2013-03-08 18:00;CYQG 081800Z 04007KT 15SM FEW030 SCT280 05/M03 A3045 RMK SC1CI1 TR SC SLP320

CYQG;2013-03-08 19:00;CYQG 081900Z 04005KT 15SM FEW030 SCT280 05/M03 A3043 RMK SC1CI1 SLP312

CYQG;2013-03-08 20:00;CYQG 082000Z 09006KT 15SM FEW030 SCT280 05/M03 A3043 RMK SC2CI1 SLP312

CYQG;2013-03-08 21:00;CYQG 082100Z 10004KT 15SM FEW030 SCT280 06/M03 A3042 RMK SC2CI1 SLP310

CYQG;2013-03-08 22:00;CYQG 082200Z 12003KT 15SM FEW030 FEW280 05/M02 A3043 RMK SC1CI0 SLP312

CYQG;2013-03-08 23:00;CYQG 082300Z 11005KT 12SM FEW030 FEW280 05/M02 A3042 RMK SC1CI0 SLP309

CYQG;2013-03-09 00:00;CYQG 090000Z 20004KT 15SM SKC 02/M03 A3043 RMK SLP312

CYQG;2013-03-09 01:00;CYQG 090100Z 16003KT 15SM SKC 01/M03 A3042 RMK SLP310

CYQG;2013-03-09 02:00;CYQG 090200Z 21002KT 15SM SKC 00/M03 A3043 RMK SLP313

CYQG;2013-03-09 03:00;CYQG 090300Z 16002KT 15SM SKC M01/M04 A3044 RMK SLP316

CYQG;2013-03-09 04:00;CYQG 090400Z 06003KT 15SM SKC M01/M04 A3044 RMK SLP316

CYQG;2013-03-09 05:00;CYQG 090500Z 00000KT 15SM SKC M02/M04 A3043 RMK FROIN SLP313

CYQG;2013-03-09 06:00;CYQG 090600Z 11002KT 15SM SKC M02/M04 A3040 RMK FROIN SLP303

CYQG;2013-03-09 07:00;CYQG 090700Z 14002KT 12SM SKC M02/M04 A3040 RMK FROIN SLP301

CYQG;2013-03-09 08:00;CYQG 090800Z 00000KT 12SM SCT260 M02/M04 A3038 RMK CI1 FROIN SLP297

CYQG;2013-03-09 09:00;CYQG 090900Z 00000KT 12SM SKC M03/M04 A3037 RMK FROIN SLP291

CYQG;2013-03-09 10:00;CYQG 091000Z 00000KT 12SM SKC M03/M05 A3037 RMK FROIN SLP291

CYQG;2013-03-09 11:00;CYQG 091100Z 09002KT 12SM SKC M03/M04 A3036 RMK FROIN SLP290

CYQG;2013-03-09 12:00;CYQG 091200Z 00000KT 8SM BKN260 M03/M04 A3038 RMK CS2 CI ASOCTD FROIN SLP297

CYQG;2013-03-09 13:00;CYQG 091300Z 14002KT 12SM BKN270 M01/M03 A3037 RMK CI6 CONTRAILS SLP293

CYQG;2013-03-09 14:00;CYQG 091400Z 15004KT 15SM FEW250 BKN270 01/M02 A3037 RMK CC2CI4 CONTRAILS SLP294

CYQG;2013-03-09 15:00;CYQG 091500Z 18008KT 15SM FEW250 BKN270 03/M01 A3037 RMK CC2CI3 SLP292

CYQG;2013-03-09 16:00;CYQG 091600Z 16009KT 15SM FEW020 BKN240 BKN270 04/M01 A3034 RMK CF1CS5CI2 TR CF SLP282

CYQG;2013-03-09 17:00;CYQG 091700Z 16009KT 15SM BKN240 04/M01 A3033 RMK CS6 HALO SLP278

CYQG;2013-03-09 18:00;CYQG 091800Z 16007KT 15SM FEW240 BKN280 05/M01 A3030 RMK CS2CI2 CONTRAILS SLP268

CYQG;2013-03-09 19:00;CYQG 091900Z 16009KT 15SM FEW240 BKN280 05/M02 A3027 RMK CS2CI2 CONTRAILS SLP259

CYQG;2013-03-09 20:00;CYQG 092000Z 15010KT 15SM SCT150 BKN240 05/M02 A3023 RMK AC3CI2 SLP244

CYQG;2013-03-09 21:00;CYQG 092100Z 14010KT 15SM BKN130 BKN240 06/M01 A3020 RMK AC6CI1 SLP233

CYQG;2013-03-09 22:00;CYQG 092200Z 12011KT 15SM BKN150 BKN240 05/M00 A3018 RMK AC5CI1 SLP227

CYQG;2013-03-09 23:00;CYQG 092300Z 12008KT 15SM SCT150 BKN240 04/M01 A3017 RMK AC4CI1 SLP224

CYQG;2013-03-10 00:00;CYQG 100000Z 12010KT 10SM SCT150 BKN240 03/M01 A3016 RMK AC3CI1 SLP221

CYQG;2013-03-10 01:00;CYQG 100100Z 11009KT 12SM BKN120 02/M01 A3013 RMK AC7 SLP212

CYQG;2013-03-10 02:00;CYQG 100200Z 12008KT 12SM -SHRA OVC079 02/M01 A3012 RMK AC8 SLP208

CYQG;2013-03-10 02:49;CYQG 100249Z 11006KT 12SM OVC083 RMK AC8

CYQG;2013-03-10 03:00;CYQG 100300Z 11006KT 12SM OVC091 03/M00 A3011 RMK AC8 SLP201

CYQG;2013-03-10 04:00;CYQG 100400Z 11003KT 15SM OVC095 03/00 A3008 RMK AC8 SLP194

CYQG;2013-03-10 05:00;CYQG 100500Z 13004KT 15SM FEW080 BKN120 03/00 A3005 RMK AC2AC4 SLP184

CYQG;2013-03-10 06:00;CYQG 100600Z 13004KT 12SM BKN130 03/00 A3004 RMK AC5 SLP178

CYQG;2013-03-10 07:00;CYQG 100700Z 14003KT 15SM BKN150 BKN260 03/M00 A3002 RMK AC5CI1 SLP173

CYQG;2013-03-10 08:00;CYQG 100800Z 16003KT 15SM BKN180 04/M00 A2999 RMK AC6 SLP163

CYQG;2013-03-10 09:00;CYQG 100900Z 17005KT 15SM SCT180 BKN240 05/M00 A2998 RMK AC4CC1 SLP158

CYQG;2013-03-10 10:00;CYQG 101000Z 17007KT 15SM BKN100 05/M00 A2998 RMK AC6 SLP158

CYQG;2013-03-10 11:00;CYQG 101100Z 18006KT 15SM BKN100 BKN260 06/M01 A2997 RMK AC5CI2 SLP154

CYQG;2013-03-10 11:32;CYQG 101132Z 18012KT 12SM -SHRA OVC092 RMK AC8

CYQG;2013-03-10 12:00;CYQG 101200Z 18011KT 15SM BKN095 BKN260 06/01 A2997 RMK AC6CI2 SLP155

CYQG;2013-03-10 13:00;CYQG 101300Z 18009KT 15SM FEW100 SCT150 BKN260 07/01 A2998 RMK AC2AC2CI1 SLP158

CYQG;2013-03-10 14:00;CYQG 101400Z 20012KT 15SM FEW150 BKN270 10/03 A2997 RMK AC2CI2 CONTRAILS SLP155

CYQG;2013-03-10 15:00;CYQG 101500Z 20017KT 15SM FEW130 BKN280 12/03 A2996 RMK AC1CI3 CONTRAILS TR AC SLP149

CYQG;2013-03-10 16:00;CYQG 101600Z 20014KT 15SM FEW130 SCT240 BKN280 14/04 A2995 RMK AC1CC2CI2 CONTRAILS SLP146

CYQG;2013-03-10 17:00;CYQG 101700Z 22014G19KT 15SM BKN130 OVC280 13/03 A2994 RMK AC6CI2 SLP144

CYQG;2013-03-10 18:00;CYQG 101800Z 20013G19KT 15SM BKN110 OVC260 15/05 A2992 RMK AC5CS2 SLP134

CYQG;2013-03-10 19:00;CYQG 101900Z 21014KT 15SM FEW160 SCT260 BKN280 16/05 A2990 RMK AC2CS2CI2 SLP130

CYQG;2013-03-10 20:00;CYQG 102000Z 21014KT 10SM OVC034 16/06 A2991 RMK SC7 SLP133

CYQG;2013-03-10 21:00;CYQG 102100Z 19014KT 10SM FEW034 BKN280 16/07 A2989 RMK SC1CS6 SLP126

CYQG;2013-03-10 22:00;CYQG 102200Z 18009KT 10SM FEW051 BKN280 15/07 A2988 RMK SC1CS6 SLP122

CYQG;2013-03-10 23:00;CYQG 102300Z 19010KT 10SM FEW160 BKN280 14/06 A2989 RMK AC1CS6 SLP123

CYQG;2013-03-11 00:00;CYQG 110000Z 18007KT 10SM FEW160 BKN280 13/04 A2987 RMK AC2CS5 SLP118

CYQG;2013-03-11 01:00;CYQG 110100Z 18005KT 12SM OVC240 11/04 A2986 RMK CS8 SLP116

CYQG;2013-03-11 02:00;CYQG 110200Z 17005KT 15SM OVC240 10/04 A2986 RMK CS8 SLP113

CYQG;2013-03-11 03:00;CYQG 110300Z 14007KT 15SM OVC120 10/03 A2983 RMK AC8 SLP105

CYQG;2013-03-11 04:00;CYQG 110400Z 16007KT 12SM BKN160 BKN250 10/03 A2981 RMK AC6CC2 SLP097

CYQG;2013-03-11 04:36;CYQG 110436Z 21008KT 12SM -RA BKN090 OVC140 RMK AC6AC2

CYQG;2013-03-11 05:00;CYQG 110500Z 20006KT 12SM -RA OVC092 11/03 A2982 RMK AC8 -RA INTMT SLP100

CYQG;2013-03-11 06:00;CYQG 110600Z 19007KT 12SM -RA BKN082 OVC110 11/03 A2980 RMK AC6AC2 -RA INTMT SLP092

CYQG;2013-03-11 07:00;CYQG 110700Z 20009KT 12SM BKN048 OVC082 12/04 A2979 RMK SC6AC2 INTMT -RA SLP089

CYQG;2013-03-11 08:00;CYQG 110800Z 20020G26KT 10SM -RA OVC054 11/07 A2977 RMK SC8 -RA INTMT SLP083

CYQG;2013-03-11 09:00;CYQG 110900Z 19017KT 6SM -RA OVC033 10/08 A2976 RMK SC8 SLP078

CYQG;2013-03-11 10:00;CYQG 111000Z 18019G24KT 12SM OVC045 11/08 A2974 RMK SC8 INTMT -RA SLP073

CYQG;2013-03-11 10:30;CYQG 111030Z 18016G21KT 15SM BKN027 OVC044 RMK SC6SC2

CYQG;2013-03-11 11:00;CYQG 111100Z 19015KT 15SM FEW025 OVC043 10/08 A2975 RMK CU1SC7 SLP076

CYQG;2013-03-11 11:23;CYQG 111123Z 18010G16KT 15SM -SHRA OVC036 OVC043 RMK CU6SC2

CYQG;2013-03-11 12:00;CYQG 111200Z 18013G19KT 12SM -SHRA FEW036 OVC042 09/08 A2974 RMK CF2SC6 SLP071

CYQG;2013-03-11 12:46;CYQG 111246Z 19019G26KT 10SM BKN052 OVC100 RMK SC7AC1

CYQG;2013-03-11 13:00;CYQG 111300Z 19020KT 12SM BKN045 OVC160 10/08 A2973 RMK SC6AC2 SLP070

CYQG;2013-03-11 14:00;CYQG 111400Z 19018G24KT 12SM FEW015 FEW060 OVC160 10/08 A2973 RMK CF1SC2AC6 SLP069

CYQG;2013-03-11 15:00;CYQG 111500Z 18020G25KT 12SM FEW035 OVC052 11/07 A2971 RMK SC1SC8 SLP063

CYQG;2013-03-11 16:00;CYQG 111600Z 17020G25KT 12SM FEW080 OVC180 11/07 A2967 RMK AC2AC6 SLP048

CYQG;2013-03-11 16:55;CYQG 111655Z 16017KT 12SM -SHRA FEW080 OVC180 RMK AC1AC8

CYQG;2013-03-11 17:00;CYQG 111700Z 17015KT 12SM -SHRA SCT060 OVC180 11/06 A2964 RMK SC3AC5 SLP039

CYQG;2013-03-11 17:53;CYQG 111753Z 17015KT 8SM -RA OVC062 RMK SC8

CYQG;2013-03-11 18:00;CYQG 111800Z 17015KT 8SM -RA OVC065 09/08 A2960 RMK SC8 SLP025

CYQG;2013-03-11 19:00;CYQG 111900Z 17016KT 6SM -RA BR OVC035 09/08 A2956 RMK SF8 SLP013

CYQG;2013-03-11 19:06;CYQG 111906Z 16017KT 4SM RA BR OVC026 RMK SC8

CYQG;2013-03-11 19:26;CYQG 111926Z 15012KT 5SM -RA BR SCT025 OVC042 RERA RMK SC3SC5

CYQG;2013-03-11 20:00;CYQG 112000Z 16017KT 8SM -RA OVC033 10/08 A2950 RERA RMK SC8 SLP992

CYQG;2013-03-11 21:00;CYQG 112100Z 18018G27KT 4SM -RA BR SCT016 OVC027 10/09 A2948 RMK CU4SC4 SLP985

CYQG;2013-03-11 21:07;CYQG 112107Z 22019G29KT 8SM -RA SCT008 OVC022 RMK SF3SC5

CYQG;2013-03-11 22:00;CYQG 112200Z 25015G21KT 15SM -RA SCT020 BKN054 10/08 A2952 RMK CU3SC4 SLP999

CYQG;2013-03-11 22:30;CYQG 112230Z 26015G22KT 15SM FEW020 SCT050 BKN095 RMK CU2SC2AC2

CYQG;2013-03-11 23:00;CYQG 112300Z 24013G18KT 15SM FEW025 BKN052 BKN280 09/07 A2957 RMK CF1SC6CI2 TR CF SLP014

CYQG;2013-03-12 00:00;CYQG 120000Z 23017KT 15SM FEW025 BKN052 08/03 A2959 RMK CF1SC6 SLP024

CYQG;2013-03-12 01:00;CYQG 120100Z 24020G27KT 15SM BKN030 BKN045 07/03 A2960 RMK CU5SC2 SLP027

CYQG;2013-03-12 02:00;CYQG 120200Z 24019G26KT 15SM BKN038 06/01 A2964 RMK SC7 SLP041

CYQG;2013-03-12 03:00;CYQG 120300Z 23020G25KT 15SM SCT022 OVC035 04/00 A2968 RMK SC3SC5 SLP054

CYQG;2013-03-12 03:15;CYQG 120315Z 24022G27KT 15SM -DZ BKN021 OVC035 RMK SC5SC3

CYQG;2013-03-12 03:45;CYQG 120345Z 25016KT 15SM OVC024 RMK SC8

CYQG;2013-03-12 04:00;CYQG 120400Z 23015G20KT 15SM OVC019 04/M00 A2971 RMK SC8 SLP062

CYQG;2013-03-12 05:00;CYQG 120500Z 24015G20KT 15SM OVC020 04/M00 A2971 RMK SC8 SLP064

CYQG;2013-03-12 06:00;CYQG 120600Z 23014KT 15SM OVC017 03/M00 A2972 RMK SC8 SLP068

CYQG;2013-03-12 07:00;CYQG 120700Z 24013KT 15SM OVC018 03/M00 A2974 RMK SC8 SLP074

CYQG;2013-03-12 08:00;CYQG 120800Z 23014G19KT 15SM OVC021 03/M01 A2974 RMK SC8 SLP076

CYQG;2013-03-12 09:00;CYQG 120900Z 25016KT 12SM OVC016 03/M01 A2975 RMK SC8 SLP080

CYQG;2013-03-12 10:00;CYQG 121000Z 25009KT 8SM OVC017 02/M01 A2977 RMK SC8 SLP087

CYQG;2013-03-12 10:10;CYQG 121010Z 25009KT 6SM -DZ OVC015 RMK SC8

CYQG;2013-03-12 10:28;CYQG 121028Z 25010KT 6SM -DZSN OVC014 RMK SC8

CYQG;2013-03-12 11:00;CYQG 121100Z 25013KT 7SM -DZSN OVC013 02/M01 A2980 RMK SC8 SLP094

CYQG;2013-03-12 11:23;CYQG 121123Z 23011G16KT 10SM OVC018 RMK SC8

CYQG;2013-03-12 12:00;CYQG 121200Z 23010G15KT 12SM -SN OVC019 02/M01 A2980 RMK SC8 SLP098

CYQG;2013-03-12 12:38;CYQG 121238Z 23011KT 15SM BKN023 BKN070 OVC260 RMK SC5AC2CI1

CYQG;2013-03-12 13:00;CYQG 121300Z 25011KT 15SM SCT025 BKN073 02/M01 A2982 RMK SC3AC4 SLP103

CYQG;2013-03-12 14:00;CYQG 121400Z 24011G16KT 8SM -SHSN SCT014 OVC022 02/M01 A2983 RMK CU3SC5 SLP108

CYQG;2013-03-12 15:00;CYQG 121500Z 25013KT 6SM -SHSN SCT015 OVC031 02/M01 A2984 RMK CU4SC4 SLP111

CYQG;2013-03-12 16:00;CYQG 121600Z 24014KT 8SM -SHSN SCT018 OVC035 03/M01 A2985 RMK CU3SC5 SLP113

CYQG;2013-03-12 17:00;CYQG 121700Z 22015G22KT 12SM -SHSN SCT025 OVC034 03/M02 A2985 RMK CU4SC4 SLP114

CYQG;2013-03-12 17:52;CYQG 121752Z 23020G25KT 15SM SCT017 BKN039 RMK CU3SC4

CYQG;2013-03-12 18:00;CYQG 121800Z 23018G25KT 12SM VCSH FEW018 BKN046 03/M01 A2985 RMK CU2SC5 SLP115

CYQG;2013-03-12 18:06;CYQG 121806Z 24016G21KT 12SM -SN SCT024 BKN046 RMK CU3SC4

CYQG;2013-03-12 19:00;CYQG 121900Z 23020G25KT 8SM -SN BKN033 BKN060 03/M02 A2985 RMK CU5SC2 SLP114

CYQG;2013-03-12 19:35;CYQG 121935Z 23018G25KT 8SM BKN037 BKN060 RMK CU6SC1

CYQG;2013-03-12 20:00;CYQG 122000Z 24016G22KT 10SM BKN037 BKN057 03/M03 A2985 RMK CU6SC1 SLP114

CYQG;2013-03-12 21:00;CYQG 122100Z 24017KT 12SM OVC043 02/M04 A2986 RMK SC8 SLP119

CYQG;2013-03-12 22:00;CYQG 122200Z 23014G19KT 12SM OVC045 02/M04 A2988 RMK SC8 SLP123

CYQG;2013-03-12 23:00;CYQG 122300Z 25015KT 12SM OVC042 02/M04 A2989 RMK SC8 SLP128

CYQG;2013-03-13 00:00;CYQG 130000Z 24010KT 12SM OVC052 02/M05 A2990 RMK SC8 SLP133

CYQG;2013-03-13 00:35;CYQG 130035Z 25011G16KT 12SM -SN OVC047 RMK SC8

CYQG;2013-03-13 01:00;CYQG 130100Z 25010KT 12SM -SN OVC057 01/M04 A2991 RMK SC8 SLP135

CYQG;2013-03-13 01:55;CYQG 130155Z 26009KT 15SM FEW057 RMK SC1

CYQG;2013-03-13 02:00;CYQG 130200Z 26009KT 15SM FEW057 01/M03 A2992 RMK SC1 SLP138

CYQG;2013-03-13 03:00;CYQG 130300Z 24007KT 15SM FEW180 00/M04 A2992 RMK AS0 SLP138

CYQG;2013-03-13 04:00;CYQG 130400Z 22006KT 12SM FEW040 SCT250 M01/M03 A2992 RMK SC2CS1 SLP137

CYQG;2013-03-13 04:34;CYQG 130434Z 21005KT 10SM -SHSN FEW060 BKN090 RMK SC2AS6

CYQG;2013-03-13 05:00;CYQG 130500Z 22006KT 10SM -SHSN FEW060 OVC100 00/M04 A2990 RMK SC2AS6 SLP131

CYQG;2013-03-13 06:00;CYQG 130600Z 22010KT 5SM -SHSN OVC032 M00/M03 A2988 RMK SC8 SLP126

CYQG;2013-03-13 07:00;CYQG 130700Z 23010KT 6SM -SHSN FEW014 BKN030 BKN140 M00/M03 A2987 RMK SC2SC4AC2 SLP123

CYQG;2013-03-13 08:00;CYQG 130800Z 23010KT 10SM FEW050 BKN092 M01/M03 A2986 RMK SC2AC6 OCNL -SHSN SLP118

CYQG;2013-03-13 09:00;CYQG 130900Z 23012KT 10SM -SHSN FEW056 OVC100 M01/M04 A2985 RMK SC2AC6 SLP114

CYQG;2013-03-13 10:00;CYQG 131000Z 31016KT 4SM -SHSN FEW011 OVC031 M01/M04 A2986 RMK SF2SC6 SLP118

CYQG;2013-03-13 11:00;CYQG 131100Z 29014KT 15SM -SHSN FEW011 OVC080 M01/M06 A2988 RMK SF2AS6 SLP126

CYQG;2013-03-13 12:00;CYQG 131200Z 28013KT 15SM -SHSN SCT025 BKN076 M01/M06 A2990 RMK CU3AC4 SLP133

CYQG;2013-03-13 13:00;CYQG 131300Z 29011G18KT 2SM -SHSN OVC018 M02/M05 A2992 RMK SN2CU6 SLP139

CYQG;2013-03-13 13:10;CYQG 131310Z 29012KT 1 1/2SM -SHSN OVC018 RMK SN2CU6

CYQG;2013-03-13 13:20;CYQG 131320Z 28017KT 15SM -SHSN BKN024 BKN080 RMK CU5AC2

CYQG;2013-03-13 13:35;CYQG 131335Z 29017G22KT 15SM FEW025 SCT080 BKN270 RMK CU2AC2CI1

CYQG;2013-03-13 13:36;CYQG 131336Z CCA 29017G22KT 15SM FEW025 SCT080 BKN270 RMK CU2AC2CI1

CYQG;2013-03-13 14:00;CYQG 131400Z 29021KT 15SM FEW025 BKN070 M02/M10 A2995 RMK CU2AC3 SLP148

CYQG;2013-03-13 15:00;CYQG 131500Z 29019G24KT 15SM BKN035 BKN080 M02/M10 A2997 RMK CU6AC1 SLP156

CYQG;2013-03-13 16:00;CYQG 131600Z 28016G22KT 15SM VCSH BKN045 BKN090 M02/M10 A2998 RMK CU6AC1 SLP162

CYQG;2013-03-13 16:18;CYQG 131618Z 30016G25KT 8SM -SHSN BKN036 RMK CU7

CYQG;2013-03-13 17:00;CYQG 131700Z 29019G24KT 15SM -SHSN BKN034 OVC260 M02/M09 A3000 RMK CU5CS2 SLP166

CYQG;2013-03-13 18:00;CYQG 131800Z 30016G26KT 8SM -SHSN BKN026 M02/M08 A3001 RMK CU7 SLP171

CYQG;2013-03-13 19:00;CYQG 131900Z 30016KT 6SM -SHSN BKN035 M02/M07 A3002 RMK CU7 VIS 11/2 S SLP174

CYQG;2013-03-13 20:00;CYQG 132000Z 30019G24KT 12SM -SHSN SCT037 OVC045 M00/M08 A3003 RMK CU4SC4 SLP178

CYQG;2013-03-13 21:00;CYQG 132100Z 31018G24KT 12SM -SHSN BKN038 BKN047 M00/M09 A3006 RMK CU6SC1 SLP186

CYQG;2013-03-13 21:57;CYQG 132157Z 28015G20KT 15SM BKN038 BKN280 RMK CU6CI1

CYQG;2013-03-13 22:00;CYQG 132200Z 28015G20KT 15SM BKN038 BKN280 M00/M08 A3007 RMK CU6CI1 SLP190

CYQG;2013-03-13 23:00;CYQG 132300Z 29012G17KT 15SM SCT042 SCT280 00/M09 A3008 RMK CU3CI1 SLP194

CYQG;2013-03-14 00:00;CYQG 140000Z 30011G25KT 15SM FEW042 FEW280 M00/M11 A3010 RMK CU1CI1 SLP201

CYQG;2013-03-14 01:00;CYQG 140100Z 29014G20KT 15SM SKC M01/M10 A3012 RMK SLP209

CYQG;2013-03-14 02:00;CYQG 140200Z 28013G20KT 15SM FEW280 M01/M10 A3014 RMK CI1 SLP213

CYQG;2013-03-14 03:00;CYQG 140300Z 30015KT 15SM SKC M01/M10 A3016 RMK SLP221

CYQG;2013-03-14 04:00;CYQG 140400Z 30011G16KT 15SM FEW170 M02/M10 A3017 RMK AC1 SLP224

CYQG;2013-03-14 05:00;CYQG 140500Z 31014KT 15SM SKC M02/M11 A3018 RMK SLP228

CYQG;2013-03-14 06:00;CYQG 140600Z 31009KT 15SM SKC M03/M12 A3018 RMK SLP230

CYQG;2013-03-14 07:00;CYQG 140700Z 29008KT 15SM SKC M03/M11 A3019 RMK SLP233

CYQG;2013-03-14 08:00;CYQG 140800Z CCB 29008KT 15SM SKC M03/M11 A3020 RMK SLP234

CYQG;2013-03-14 09:00;CYQG 140900Z 29008KT 15SM SKC M04/M11 A3020 RMK SLP235

CYQG;2013-03-14 10:00;CYQG 141000Z 29008KT 15SM SKC M04/M11 A3020 RMK SLP236

CYQG;2013-03-14 11:00;CYQG 141100Z 29007KT 15SM FEW020 M04/M10 A3021 RMK CF1 SLP238

CYQG;2013-03-14 12:00;CYQG 141200Z 28007KT 15SM FEW020 M04/M10 A3022 RMK SC1 SLP242

CYQG;2013-03-14 13:00;CYQG 141300Z 29010KT 15SM FEW020 FEW120 M03/M09 A3023 RMK SC1AC1 SLP247

CYQG;2013-03-14 14:00;CYQG 141400Z CCA 31007KT 15SM FEW020 FEW120 M02/M09 A3024 RMK SC1AC1 TR SC SLP250

CYQG;2013-03-14 15:00;CYQG 141500Z 32012KT 15SM FEW025 M01/M09 A3024 RMK SC1 SLP249

CYQG;2013-03-14 16:00;CYQG 141600Z 29009G16KT 15SM FEW030 00/M10 A3023 RMK SC2 SLP245

CYQG;2013-03-14 17:00;CYQG 141700Z 33012KT 15SM FEW040 02/M09 A3022 RMK SC1 SLP241

CYQG;2013-03-14 18:00;CYQG 141800Z 32006G15KT 15SM FEW040 BKN280 03/M09 A3021 RMK SC1CI1 SLP238

CYQG;2013-03-14 19:00;CYQG 141900Z 29012KT 15SM FEW040 BKN280 04/M10 A3017 RMK SC1CI2 CONTRAILS SLP224

CYQG;2013-03-14 20:00;CYQG 142000Z 27010G16KT 15SM FEW040 BKN280 04/M10 A3015 RMK SC1CI2 CONTRAILS SLP219

CYQG;2013-03-14 21:00;CYQG 142100Z 26008KT 15SM FEW040 FEW280 04/M10 A3014 RMK SC1CI1 SLP214

CYQG;2013-03-14 22:00;CYQG 142200Z 27006KT 15SM FEW040 FEW280 05/M09 A3014 RMK SC1CI1 SLP212

CYQG;2013-03-14 23:00;CYQG 142300Z 27005KT 15SM FEW280 04/M08 A3012 RMK CS1 SLP206

CYQG;2013-03-15 00:00;CYQG 150000Z 28007KT 15SM FEW280 03/M09 A3012 RMK CS1 SLP207

CYQG;2013-03-15 01:00;CYQG 150100Z 24003KT 15SM SKC 02/M08 A3011 RMK SLP206

CYQG;2013-03-15 02:00;CYQG 150200Z 21006KT 15SM SKC 01/M07 A3010 RMK SLP202

CYQG;2013-03-15 03:00;CYQG 150300Z 23007KT 15SM SKC 01/M06 A3009 RMK SLP196

CYQG;2013-03-15 04:00;CYQG 150400Z 25009KT 15SM SCT240 01/M06 A3007 RMK CI2 SLP190

CYQG;2013-03-15 05:00;CYQG 150500Z 24007KT 15SM SCT240 00/M07 A3006 RMK CI2 SLP186

CYQG;2013-03-15 06:00;CYQG 150600Z 23007KT 15SM FEW046 BKN200 00/M06 A3004 RMK SC2CI5 SLP181

CYQG;2013-03-15 07:00;CYQG 150700Z 25008KT 15SM BKN044 01/M06 A3002 RMK SC7 SLP173

CYQG;2013-03-15 08:00;CYQG 150800Z 24007KT 15SM BKN047 01/M06 A2999 RMK SC7 SLP163

CYQG;2013-03-15 09:00;CYQG 150900Z 24008KT 15SM BKN039 OVC170 01/M05 A2997 RMK SC7AC1 SLP155

CYQG;2013-03-15 10:00;CYQG 151000Z 24008KT 15SM SCT040 OVC210 00/M04 A2995 RMK SC3CI5 SLP149

CYQG;2013-03-15 11:00;CYQG 151100Z 25011KT 15SM BKN017 OVC160 00/M03 A2993 RMK SC6AC2 SLP143

CYQG;2013-03-15 12:00;CYQG 151200Z 24007KT 8SM OVC017 01/M03 A2992 RMK SC8 SLP137

CYQG;2013-03-15 13:00;CYQG 151300Z 26010KT 8SM OVC017 01/M02 A2992 RMK SC8 SLP140

CYQG;2013-03-15 14:00;CYQG 151400Z 28012G18KT 8SM OVC017 02/M02 A2991 RMK SC8 SLP135

CYQG;2013-03-15 15:00;CYQG 151500Z 29010KT 8SM OVC016 02/M02 A2990 RMK SC8 SLP132

CYQG;2013-03-15 16:00;CYQG 151600Z 28011KT 8SM OVC018 03/M02 A2990 RMK SC8 SLP131

CYQG;2013-03-15 17:00;CYQG 151700Z 28011KT 8SM OVC020 03/M01 A2990 RMK SC8 SLP131

CYQG;2013-03-15 18:00;CYQG 151800Z 29012KT 10SM OVC019 04/M01 A2989 RMK SC8 SLP129

CYQG;2013-03-15 19:00;CYQG 151900Z 29006KT 10SM OVC021 04/M01 A2986 RMK SC8 SLP120

CYQG;2013-03-15 20:00;CYQG 152000Z 28007KT 6SM HZ BKN020 OVC035 04/M01 A2986 RMK SC6SC2 SLP118

CYQG;2013-03-15 20:30;CYQG 152030Z 29009KT 4SM -DZ HZ BKN024 OVC042 RMK SC6SC2

CYQG;2013-03-15 21:00;CYQG 152100Z 29007KT 5SM -DZ HZ BKN025 OVC055 04/00 A2986 RMK SC6SC2 SLP118

CYQG;2013-03-15 22:00;CYQG 152200Z 33006KT 4SM -DZ HZ BKN018 OVC050 04/01 A2987 RMK SC7SC1 SLP120

CYQG;2013-03-15 22:40;CYQG 152240Z 35006KT 4SM -RA HZ SCT012 OVC017 RMK SF3SC5

CYQG;2013-03-15 23:00;CYQG 152300Z 35005KT 3SM -RA BR SCT009 OVC017 03/01 A2987 RMK SF3SC5 SLP122

CYQG;2013-03-16 00:00;CYQG 160000Z 36003KT 3SM -RA BR BKN019 OVC078 03/01 A2988 RMK SC5AS3 SLP124

CYQG;2013-03-16 00:10;CYQG 160010Z 36003KT 3SM -RA BR FEW008 OVC017 RMK SF2SC6

CYQG;2013-03-16 01:00;CYQG 160100Z 33003KT 3SM -RA BR FEW007 OVC042 03/01 A2987 RMK SF2SC6 SLP123

CYQG;2013-03-16 02:00;CYQG 160200Z 36003KT 3SM -RA BR FEW007 OVC040 02/01 A2988 RMK SF2SC6 SLP124

CYQG;2013-03-16 02:48;CYQG 160248Z 05003KT 3SM -RASN FEW006 OVC038 RMK SF2SC6

CYQG;2013-03-16 03:00;CYQG 160300Z 05003KT 3SM -RASN FEW005 OVC038 02/01 A2986 RMK SF2SC6 SLP119

CYQG;2013-03-16 03:08;CYQG 160308Z 07008KT 3SM -RASN BR BKN004 OVC025 RMK SF6SC2

CYQG;2013-03-16 03:41;CYQG 160341Z 07010KT 4SM -SN BR OVC004 RMK SF8

CYQG;2013-03-16 04:00;CYQG 160400Z 07009KT 4SM -SN BR OVC004 00/M01 A2986 RMK SF8 SLP118

CYQG;2013-03-16 04:44;CYQG 160444Z 07010KT 3SM -SN BR OVC008 RMK SF8

CYQG;2013-03-16 05:00;CYQG 160500Z 06011KT 3SM -SN BR OVC007 M01/M02 A2984 RMK SF8 SLP112

CYQG;2013-03-16 06:00;CYQG 160600Z 06012KT 2 1/2SM -SN BR OVC009 M01/M02 A2984 RMK SF8 /S01/ SLP111

CYQG;2013-03-16 07:00;CYQG 160700Z 06012KT 3/4SM -SN VV005 M01/M02 A2982 RMK SN8 SLP106

CYQG;2013-03-16 07:17;CYQG 160717Z 06012KT 1/2SM SN VV004 RMK SN8

CYQG;2013-03-16 07:23;CYQG 160723Z 06012KT 1SM -SN VV005 RESN RMK SN8

CYQG;2013-03-16 08:00;CYQG 160800Z 06014KT 2SM -SN OVC011 M02/M03 A2979 RESN RMK SF8 SLP096

CYQG;2013-03-16 08:36;CYQG 160836Z 05010KT 1SM -SN VV007 RMK SN8

CYQG;2013-03-16 09:00;CYQG 160900Z 05011KT 3/4SM -SN VV007 M02/M03 A2979 RMK SN8 SLP093

CYQG;2013-03-16 09:24;CYQG 160924Z 05010KT 1/2SM SN VV004 RMK SN8

CYQG;2013-03-16 09:50;CYQG 160950Z 06014KT 3/4SM -SN VV005 RESN RMK SN8

CYQG;2013-03-16 10:00;CYQG 161000Z 05015KT 1 1/4SM -SN VV007 M02/M03 A2978 RESN RMK SN8 /S02/ SLP091

CYQG;2013-03-16 10:19;CYQG 161019Z 07015KT 1 3/4SM -SN VV007 RMK SN8

CYQG;2013-03-16 10:36;CYQG 161036Z 06013KT 2 1/4SM -SN OVC007 RMK SN3SF5

CYQG;2013-03-16 11:00;CYQG 161100Z 07012KT 4SM -SN BKN007 OVC040 M02/M03 A2977 RMK SF6SC2 SLP088

CYQG;2013-03-16 12:00;CYQG 161200Z 07014KT 1SM -SN OVC008 M02/M03 A2977 RMK SF8 SLP089

CYQG;2013-03-16 13:00;CYQG 161300Z 07011KT 1 1/2SM -SN SCT008 OVC021 M02/M03 A2978 RMK SF3SC5 SLP092

CYQG;2013-03-16 13:44;CYQG 161344Z 06012KT 3SM -SN BKN008 OVC020 RMK SF6SC2

CYQG;2013-03-16 14:00;CYQG 161400Z 06014KT 5SM -SN BKN009 OVC025 M02/M04 A2978 RMK SF6SC2 SLP091

CYQG;2013-03-16 15:00;CYQG 161500Z 04014KT 6SM -SN OVC008 M02/M04 A2978 RMK SF8 SLP092

CYQG;2013-03-16 15:38;CYQG 161538Z 04014KT 2SM -SN -FZRA OVC010 RMK SF8

CYQG;2013-03-16 16:00;CYQG 161600Z 04012G17KT 2 1/2SM -SN -FZRA OVC009 M02/M03 A2979 RMK SF8 SLP094

CYQG;2013-03-16 16:26;CYQG 161626Z 04011KT 6SM -SN OVC008 RMK SF8 REFZRA

CYQG;2013-03-16 17:00;CYQG 161700Z 03013KT 5SM -SN OVC009 M02/M03 A2982 RMK SF8 REFZRA SLP105

CYQG;2013-03-16 18:00;CYQG 161800Z 02010G15KT 5SM -SN OVC009 M01/M03 A2985 RMK SF8 SLP116

CYQG;2013-03-16 19:00;CYQG 161900Z 02009KT 6SM -SN OVC015 M01/M03 A2986 RMK SF8 SLP120

CYQG;2013-03-16 19:20;CYQG 161920Z 02009KT 7SM OVC017 RMK SC8

CYQG;2013-03-16 20:00;CYQG 162000Z 36009KT 8SM BKN018 OVC032 M00/M04 A2987 RMK SC6SC2 SLP124

CYQG;2013-03-16 21:00;CYQG 162100Z 36006KT 10SM OVC020 M00/M04 A2990 RMK SC8 SLP132

CYQG;2013-03-16 22:00;CYQG 162200Z 36005KT 12SM OVC027 M00/M05 A2993 RMK SC8 SLP142

CYQG;2013-03-16 23:00;CYQG 162300Z 05004KT 10SM OVC030 M00/M04 A2995 RMK SC8 SLP150

CYQG;2013-03-17 00:00;CYQG 170000Z 08005KT 10SM OVC024 M01/M04 A2997 RMK SC8 SLP156

CYQG;2013-03-17 00:45;CYQG 170045Z 13005KT 12SM -SHSN OVC020 RMK SC8

CYQG;2013-03-17 01:00;CYQG 170100Z 13005KT 10SM -SHSN BKN020 OVC039 M01/M04 A2998 RMK SC6SC2 SLP162

CYQG;2013-03-17 02:00;CYQG 170200Z 18005KT 8SM -SHSN OVC018 M01/M04 A3000 RMK SC8 SLP168

CYQG;2013-03-17 03:00;CYQG 170300Z 31003KT 15SM -SHSN OVC027 M01/M05 A3002 RMK SC8 SLP174

CYQG;2013-03-17 03:52;CYQG 170352Z 27004KT 15SM OVC034 RMK SC8

CYQG;2013-03-17 04:00;CYQG 170400Z 29006KT 15SM OVC037 M01/M06 A3003 RMK SC8 SLP176

CYQG;2013-03-17 05:00;CYQG 170500Z 22005KT 15SM OVC042 M01/M06 A3004 RMK SC8 SLP180

CYQG;2013-03-17 06:00;CYQG 170600Z 24006KT 15SM OVC041 M01/M06 A3004 RMK SC8 SLP180

CYQG;2013-03-17 07:00;CYQG 170700Z 27009KT 15SM OVC041 M01/M06 A3006 RMK SC8 SLP188

CYQG;2013-03-17 08:00;CYQG 170800Z 30012G18KT 15SM OVC040 M01/M06 A3006 RMK SC8 SLP188

CYQG;2013-03-17 09:00;CYQG 170900Z 31007KT 15SM OVC038 M02/M07 A3008 RMK SC8 SLP194

CYQG;2013-03-17 10:00;CYQG 171000Z 35010KT 15SM FEW026 OVC033 M02/M07 A3010 RMK SC2SC6 SLP202

CYQG;2013-03-17 11:00;CYQG 171100Z 35006KT 15SM FEW020 FEW040 FEW280 M04/M08 A3013 RMK CU1SC1CI2 SLP212

CYQG;2013-03-17 12:00;CYQG 171200Z 35009KT 15SM FEW020 FEW280 M04/M09 A3017 RMK SC1CS1 SLP224

CYQG;2013-03-17 13:00;CYQG 171300Z 02014KT 15SM BKN021 BKN280 M04/M09 A3017 RMK SC5CS2 SLP224

CYQG;2013-03-17 14:00;CYQG 171400Z 01014KT 15SM FEW021 BKN280 M04/M10 A3024 RMK SC1CS6 SLP248

CYQG;2013-03-17 15:00;CYQG 171500Z 01008G15KT 15SM FEW025 BKN280 M03/M10 A3025 RMK SC1CS5 SLP252

CYQG;2013-03-17 16:00;CYQG 171600Z 05012KT 15SM FEW025 BKN280 M02/M09 A3026 RMK SC1CS6 SLP255

CYQG;2013-03-17 17:00;CYQG 171700Z 03012KT 15SM FEW025 BKN280 M02/M09 A3026 RMK SC1CS6 SLP255

CYQG;2013-03-17 18:00;CYQG 171800Z 03013KT 15SM FEW025 BKN280 M02/M08 A3025 RMK SC1CS4 SLP253

CYQG;2013-03-17 19:00;CYQG 171900Z 05010KT 15SM FEW028 BKN280 M02/M08 A3024 RMK SC2CS3 SLP248

CYQG;2013-03-17 20:00;CYQG 172000Z 06013KT 15SM SCT031 BKN280 M01/M09 A3023 RMK SC4CS2 SLP247

CYQG;2013-03-17 21:00;CYQG 172100Z 07012KT 15SM SCT034 BKN280 M02/M10 A3023 RMK SC4CS1 SLP247

CYQG;2013-03-17 22:00;CYQG 172200Z 09011KT 15SM SCT034 BKN280 M02/M10 A3024 RMK SC3CS1 SLP248

CYQG;2013-03-17 23:00;CYQG 172300Z 07015KT 15SM FEW030 BKN250 M02/M09 A3023 RMK SC2CI1 CONTRAILS SLP244

CYQG;2013-03-18 00:00;CYQG 180000Z 05012KT 15SM FEW100 SCT250 M03/M08 A3024 RMK AC2CI1 SLP251

CYQG;2013-03-18 01:00;CYQG 180100Z 06010KT 15SM BKN031 M03/M09 A3026 RMK SC7 SLP256

CYQG;2013-03-18 02:00;CYQG 180200Z 05011KT 15SM FEW030 FEW250 M04/M09 A3025 RMK SC1CI0 SLP253

CYQG;2013-03-18 03:00;CYQG 180300Z 06012KT 15SM FEW250 M04/M08 A3023 RMK CI1 SLP246

CYQG;2013-03-18 04:00;CYQG 180400Z 07009KT 15SM FEW250 M04/M07 A3020 RMK CI1 SLP235

CYQG;2013-03-18 05:00;CYQG 180500Z 08009KT 15SM BKN250 M03/M06 A3017 RMK CI5 SLP226

CYQG;2013-03-18 06:00;CYQG 180600Z 08011KT 15SM BKN240 M03/M08 A3014 RMK CI6 SLP217

CYQG;2013-03-18 07:00;CYQG 180700Z 09010KT 15SM OVC230 M03/M08 A3013 RMK CI8 SLP213

CYQG;2013-03-18 08:00;CYQG 180800Z 09011KT 15SM OVC220 M03/M07 A3010 RMK CI8 SLP201

CYQG;2013-03-18 09:00;CYQG 180900Z 09014KT 15SM OVC210 M02/M06 A3004 RMK CI8 PRESFR SLP182

CYQG;2013-03-18 10:00;CYQG 181000Z 09012G19KT 15SM OVC190 M02/M06 A3001 RMK AC8 SLP172

CYQG;2013-03-18 11:00;CYQG 181100Z 09015KT 15SM OVC140 M02/M05 A2998 RMK AC8 SLP163

CYQG;2013-03-18 12:00;CYQG 181200Z 08017KT 15SM SCT070 OVC140 M01/M05 A2995 RMK AC4AC4 SLP150

CYQG;2013-03-18 13:00;CYQG 181300Z 09016G22KT 15SM OVC023 M01/M05 A2992 RMK SC8 SLP141

CYQG;2013-03-18 13:23;CYQG 181323Z 09013G19KT 12SM -SN OVC022 RMK SC8

CYQG;2013-03-18 13:48;CYQG 181348Z 09013G19KT 12SM -PL OVC021 RMK SC8

CYQG;2013-03-18 14:05;CYQG 181405Z 09017KT 12SM -SN OVC023 RMK SC8

CYQG;2013-03-18 15:00;CYQG 181500Z 09019G24KT 5SM -SN OVC019 M00/M04 A2984 REPL RMK SC8 SLP114

CYQG;2013-03-18 15:28;CYQG 181528Z 09019KT 5SM -RASN OVC017 RMK SC8

CYQG;2013-03-18 15:41;CYQG 181541Z 09019KT 6SM -DZ OVC016 RMK SC8

CYQG;2013-03-18 15:56;CYQG 181556Z 09018G27KT 6SM -DZSN OVC014 RMK SC8

CYQG;2013-03-18 16:00;CYQG 181600Z 10017G27KT 6SM -DZSN OVC014 M00/M03 A2980 RMK SC8 SLP100

CYQG;2013-03-18 16:43;CYQG 181643Z 10016G22KT 6SM -DZ BR OVC010 RMK SC8

CYQG;2013-03-18 17:00;CYQG 181700Z 10018KT 5SM -DZ BR OVC009 00/M02 A2978 RMK SF8 SLP092

CYQG;2013-03-18 17:41;CYQG 181741Z 10019KT 1 1/2SM -DZ BR OVC006 RMK SF8

CYQG;2013-03-18 18:00;CYQG 181800Z 10016G22KT 1 1/4SM -DZ BR OVC006 00/M01 A2973 RMK SF8 SLP076

CYQG;2013-03-18 19:00;CYQG 181900Z 10015G20KT 1 1/2SM -DZ BR OVC006 01/M00 A2968 RMK SF8 SLP058

CYQG;2013-03-18 19:12;CYQG 181912Z 11016KT 2SM -DZ BR OVC006 RMK SF8

CYQG;2013-03-18 19:23;CYQG 181923Z 11013G18KT 2 1/2SM -SHRA BR OVC006 RMK SF8

CYQG;2013-03-18 20:00;CYQG 182000Z 11018KT 2 1/2SM -SHRA BR OVC006 01/00 A2962 RMK SF8 SLP039

CYQG;2013-03-18 20:23;CYQG 182023Z 11015G21KT 1 3/4SM -DZ BR OVC006 RMK SF8

CYQG;2013-03-18 20:48;CYQG 182048Z 11015G20KT 2SM -DZ BR OVC006 RMK SF8

CYQG;2013-03-18 21:03;CYQG 182103Z 12014G20KT 2SM -SHRA BR OVC006 RMK SF8

CYQG;2013-03-18 21:04;CYQG 182104Z 12014G20KT 1 3/4SM -SHRA BR OVC006 RMK SF8

CYQG;2013-03-18 21:29;CYQG 182129Z 11012KT 2SM -DZ BR OVC006 RMK SF8

CYQG;2013-03-18 22:00;CYQG 182200Z 11012G19KT 2SM -DZ BR OVC005 01/01 A2956 RMK SF8 SLP017

CYQG;2013-03-18 22:05;CYQG 182205Z 11012KT 2 1/2SM -DZ BR OVC005 RMK SF8

CYQG;2013-03-18 23:00;CYQG 182300Z 14007KT 2SM -DZ BR BKN006 OVC011 01/01 A2955 RMK SF7SC1 SLP016

CYQG;2013-03-19 00:00;CYQG 190000Z 18007KT 3SM -DZ BR BKN006 OVC010 02/02 A2955 RMK SF6SC2 SLP014

CYQG;2013-03-19 01:00;CYQG 190100Z 24012G18KT 5SM -DZ BR BKN006 OVC010 03/02 A2957 RMK SF6SC2 SLP019

CYQG;2013-03-19 01:17;CYQG 190117Z 24017KT 8SM OVC009 RMK SF8

CYQG;2013-03-19 01:53;CYQG 190153Z 25016KT 8SM OVC011 RMK SF8

CYQG;2013-03-19 02:00;CYQG 190200Z 24017G24KT 15SM OVC011 03/01 A2960 RMK SF8 SLP029

CYQG;2013-03-19 03:00;CYQG 190300Z 25016G22KT 15SM OVC014 02/00 A2961 RMK SF8 SLP034

CYQG;2013-03-19 03:52;CYQG 190352Z 25013G21KT 15SM OVC015 RMK SC8

CYQG;2013-03-19 04:00;CYQG 190400Z 24012G17KT 15SM OVC017 02/M00 A2963 RMK SC8 SLP040

CYQG;2013-03-19 05:00;CYQG 190500Z 25013G19KT 15SM BKN018 OVC041 02/M01 A2963 RMK SC7SC1 SLP041

CYQG;2013-03-19 06:00;CYQG 190600Z 23011KT 15SM OVC023 02/M01 A2963 RMK SC8 SLP040

CYQG;2013-03-19 07:00;CYQG 190700Z 23017G25KT 15SM OVC022 01/M04 A2963 RMK SC8 SLP039

CYQG;2013-03-19 08:00;CYQG 190800Z 26020G27KT 15SM OVC020 00/M04 A2964 RMK SC8 SLP045

CYQG;2013-03-19 09:00;CYQG 190900Z 25025G31KT 15SM OVC032 M01/M07 A2967 RMK SC8 SLP056

CYQG;2013-03-19 10:00;CYQG 191000Z 28021G26KT 15SM OVC026 M02/M09 A2970 RMK SC8 SLP065

CYQG;2013-03-19 10:24;CYQG 191024Z 26016KT 8SM -SHSN OVC026 RMK SC8

CYQG;2013-03-19 11:00;CYQG 191100Z 25018KT 6SM -SHSN OVC030 M03/M07 A2971 RMK SC8 SLP069

CYQG;2013-03-19 12:00;CYQG 191200Z 25020G29KT 8SM -SHSN FEW025 OVC033 M03/M10 A2974 RMK CF1SC8 SLP079

CYQG;2013-03-19 13:00;CYQG 191300Z 24020G25KT 3SM -SHSN BKN019 OVC027 M04/M08 A2974 RMK CF6SC2 SLP079

CYQG;2013-03-19 13:14;CYQG 191314Z 24019G25KT 5SM -SHSN FEW019 OVC047 RMK CF1SC8

CYQG;2013-03-19 14:00;CYQG 191400Z 25018G26KT 8SM FEW033 OVC044 M03/M10 A2974 RMK CU1SC7 OCNL -SHSN SLP079

CYQG;2013-03-19 15:00;CYQG 191500Z 26020G26KT 12SM BKN034 OVC046 M03/M11 A2975 RMK CU7SC1 OCNL -SHSN SLP083

CYQG;2013-03-19 16:00;CYQG 191600Z 26017G24KT 1 1/4SM -SHSN OVC021 M04/M08 A2977 RMK CU8 SLP089

CYQG;2013-03-19 16:32;CYQG 191632Z 24019KT 5SM -SHSN BKN021 OVC031 RMK CU7SC1

CYQG;2013-03-19 17:00;CYQG 191700Z 25020G27KT 5SM -SHSN FEW021 OVC035 M03/M10 A2978 RMK CU2SC6 SLP093

CYQG;2013-03-19 17:18;CYQG 191718Z 25020G26KT 2 1/2SM -SHSN BKN021 OVC035 RMK CU6SC2

CYQG;2013-03-19 17:29;CYQG 191729Z 25016G24KT 8SM -SHSN BKN021 OVC035 RMK CU6SC2

CYQG;2013-03-19 18:00;CYQG 191800Z 26019G25KT 5SM -SHSN BKN019 OVC029 M03/M09 A2979 RMK CU6SC2 SLP096

CYQG;2013-03-19 18:18;CYQG 191818Z CCA 25020G27KT 2SM -SHSN BKN012 OVC029 RMK CU6SC2

CYQG;2013-03-19 18:29;CYQG 191829Z 25018G25KT 8SM -SHSN SCT030 OVC038 RMK CU3SC5

CYQG;2013-03-19 19:00;CYQG 191900Z 26024G30KT 8SM -SHSN OVC031 M02/M10 A2980 RMK CU8 SLP098

CYQG;2013-03-19 20:00;CYQG 192000Z 26023G29KT 8SM -SHSN SCT030 OVC040 M03/M10 A2983 RMK SC4SC4 SLP107

CYQG;2013-03-19 21:00;CYQG 192100Z 26023G33KT 15SM -SHSN BKN044 M02/M10 A2984 RMK SC7 SLP114

CYQG;2013-03-19 22:00;CYQG 192200Z 27022G28KT 15SM -SHSN OVC040 M02/M09 A2986 RMK SC8 SLP120

CYQG;2013-03-19 23:00;CYQG 192300Z 27020G27KT 15SM -SHSN BKN038 M02/M09 A2988 RMK SC6 SLP125

CYQG;2013-03-20 00:00;CYQG 200000Z 27019G27KT 15SM -SHSN BKN040 M02/M09 A2990 RMK SC6 SLP133

CYQG;2013-03-20 01:00;CYQG 200100Z 27017G24KT 15SM -SHSN BKN040 M02/M09 A2992 RMK SC7 SLP139

CYQG;2013-03-20 02:00;CYQG 200200Z 27020KT 15SM -SHSN BKN042 M02/M10 A2992 RMK SC6 SLP142

CYQG;2013-03-20 03:00;CYQG 200300Z 27017G26KT 15SM -SHSN BKN043 M02/M10 A2992 RMK SC6 SLP142

CYQG;2013-03-20 04:00;CYQG 200400Z 28017KT 15SM SCT045 M02/M10 A2992 RMK SC3 OCNL -SHSN SLP142

CYQG;2013-03-20 05:00;CYQG 200500Z 28014G22KT 15SM FEW045 M02/M10 A2992 RMK SC2 SLP140

CYQG;2013-03-20 06:00;CYQG 200600Z 28012G18KT 15SM FEW045 M02/M10 A2991 RMK SC1 SLP138

CYQG;2013-03-20 07:00;CYQG 200700Z 28009KT 15SM FEW040 M03/M10 A2992 RMK SC1 SLP139

CYQG;2013-03-20 08:00;CYQG 200800Z 27011G19KT 15SM SCT042 M03/M10 A2991 RMK SC4 SLP137

CYQG;2013-03-20 09:00;CYQG 200900Z 29012KT 15SM BKN038 M03/M10 A2991 RMK SC6 SLP137

CYQG;2013-03-20 10:00;CYQG 201000Z 29007KT 15SM BKN032 M03/M10 A2990 RMK SC7 SLP135

CYQG;2013-03-20 10:21;CYQG 201021Z 32009KT 15SM -SHSN BKN032 RMK SC7

CYQG;2013-03-20 11:00;CYQG 201100Z 27006KT 15SM -SHSN BKN029 M03/M10 A2991 RMK SC6 SLP136

CYQG;2013-03-20 11:45;CYQG 201145Z 30013KT 15SM BKN034 BKN260 RMK SC7CI1

CYQG;2013-03-20 12:00;CYQG 201200Z 29010G16KT 15SM BKN036 BKN260 M03/M11 A2991 RMK SC7CI1 TR CI SLP136

CYQG;2013-03-20 12:20;CYQG 201220Z 27010G15KT 12SM -SHSN BKN035 RMK SC7

CYQG;2013-03-20 13:00;CYQG 201300Z 29013KT 15SM FEW030 BKN048 BKN260 M03/M10 A2991 RMK CU2SC6CI1 TR CI SLP137

CYQG;2013-03-20 14:00;CYQG 201400Z 29015KT 15SM -SHSN BKN036 M03/M11 A2992 RMK SC7 SLP139

CYQG;2013-03-20 15:00;CYQG 201500Z 27015G20KT 6SM -SHSN BKN040 M03/M09 A2991 RMK SC7 VIS 2 E-SW SLP138

CYQG;2013-03-20 16:00;CYQG 201600Z 30012KT 10SM BKN038 M01/M10 A2990 RMK SC6 VIS 4 SW SLP135

CYQG;2013-03-20 16:43;CYQG 201643Z 28012G19KT 10SM -SHSN BKN040 RMK SC7

CYQG;2013-03-20 17:00;CYQG 201700Z 29012KT 10SM -SHSN BKN045 M02/M10 A2990 RMK SC7 SLP135

CYQG;2013-03-20 18:00;CYQG 201800Z 29016KT 10SM -SHSN BKN042 M01/M10 A2989 RMK SC7 VIS 4 SW SLP132

CYQG;2013-03-20 19:00;CYQG 201900Z 27017KT 15SM -SHSN BKN050 M01/M10 A2988 RMK SC7 CU ASOCTD SLP127

CYQG;2013-03-20 20:00;CYQG 202000Z 28016KT 15SM -SHSN BKN044 M01/M11 A2987 RMK CU7 SLP125

CYQG;2013-03-20 21:00;CYQG 202100Z 26015G21KT 15SM -SHSN BKN029 M02/M09 A2989 RMK CU7 SLP129

CYQG;2013-03-20 22:00;CYQG 202200Z 29013KT 15SM -SHSN SCT035 BKN063 M02/M11 A2989 RMK CU4SC3 SLP130

CYQG;2013-03-20 23:00;CYQG 202300Z 28014G19KT 15SM VCSH BKN038 BKN062 M03/M11 A2990 RMK CU5SC2 0CNL -SHSN SLP134

CYQG;2013-03-21 00:00;CYQG 210000Z 29012G20KT 15SM -SHSN BKN039 M04/M12 A2991 RMK CU7 SLP139

CYQG;2013-03-21 01:00;CYQG 210100Z 31010G16KT 15SM BKN041 M04/M14 A2992 RMK CU7 SLP143

CYQG;2013-03-21 02:00;CYQG 210200Z 30014KT 15SM -SHSN BKN048 M05/M13 A2992 RMK CU7 SLP143

CYQG;2013-03-21 02:32;CYQG 210232Z 29013G19KT 15SM SCT050 RMK SC3

CYQG;2013-03-21 03:00;CYQG 210300Z 29013KT 15SM FEW030 M06/M13 A2992 RMK SC2 SLP143

CYQG;2013-03-21 04:00;CYQG 210400Z 29011KT 15SM FEW030 M07/M13 A2992 RMK SC2 SLP141

CYQG;2013-03-21 05:00;CYQG 210500Z 20010KT 15SM FEW030 FEW190 M07/M13 A2991 RMK CU2AC1 SLP139

CYQG;2013-03-21 06:00;CYQG 210600Z 29010KT 15SM FEW030 SCT210 M08/M13 A2990 RMK CU1CI1 SLP135

CYQG;2013-03-21 07:00;CYQG 210700Z 28007KT 15SM FEW030 BKN210 M08/M12 A2989 RMK CU1CI2 SLP133

CYQG;2013-03-21 08:00;CYQG 210800Z 27010KT 15SM BKN210 M08/M12 A2988 RMK CI2 SLP128

CYQG;2013-03-21 09:00;CYQG 210900Z 26011KT 15SM BKN062 M08/M12 A2986 RMK SC6 SLP123

CYQG;2013-03-21 10:00;CYQG 211000Z 25010KT 15SM BKN064 M08/M11 A2985 RMK SC6 SLP119

CYQG;2013-03-21 11:00;CYQG 211100Z 25012KT 15SM SCT070 M08/M11 A2985 RMK AC3 SLP119

CYQG;2013-03-21 12:00;CYQG 211200Z 27011KT 15SM FEW070 FEW260 M08/M11 A2985 RMK AC1CI1 TR CI SLP117

CYQG;2013-03-21 12:42;CYQG 211242Z 27012KT 12SM -SHSN FEW022 BKN078 BKN260 RMK SC2AC2CI0

CYQG;2013-03-21 13:00;CYQG 211300Z 27011KT 12SM -SHSN FEW023 SCT078 SCT260 M07/M10 A2984 RMK SC2AC2CI1 TR CI SLP116

CYQG;2013-03-21 14:00;CYQG 211400Z 29015KT 6SM -SHSN BKN022 BKN078 M04/M09 A2985 RMK SC6AC2 SLP118

CYQG;2013-03-21 15:00;CYQG 211500Z 27014KT 10SM -SHSN BKN022 BKN068 M04/M08 A2985 RMK SC6AC2 SLP119

CYQG;2013-03-21 16:00;CYQG 211600Z 29012KT 5SM -SHSN BKN018 OVC068 M03/M08 A2986 RMK SC5AC2 SLP122

CYQG;2013-03-21 17:00;CYQG 211700Z 30012G17KT 12SM -SHSN BKN022 BKN041 M01/M07 A2985 RMK SC5SC2 SLP119

CYQG;2013-03-21 18:00;CYQG 211800Z 29014G21KT 15SM -SHSN OVC031 M00/M07 A2985 RMK SC8 SLP117

CYQG;2013-03-21 19:00;CYQG 211900Z 29016G21KT 15SM -SHSN OVC033 M00/M07 A2985 RMK SC8 SLP116

CYQG;2013-03-21 20:00;CYQG 212000Z 29017KT 6SM -SHSN OVC026 M01/M06 A2985 RMK SC8 SLP117

CYQG;2013-03-21 21:00;CYQG 212100Z 29018G24KT 6SM -SHSN BKN021 M00/M05 A2986 RMK CU7 SLP120

CYQG;2013-03-21 22:00;CYQG 212200Z 29015KT 15SM BKN030 BKN046 00/M07 A2986 RMK CU5SC2 OCNL -SHSN SLP120

CYQG;2013-03-21 23:00;CYQG 212300Z 30011G20KT 15SM -SHSN SCT035 BKN052 M00/M07 A2986 RMK CU3SC4 SLP122

CYQG;2013-03-22 00:00;CYQG 220000Z 31014G19KT 15SM -SHSN SCT032 OVC049 M00/M07 A2987 RMK CU3SC5 SLP125

CYQG;2013-03-22 01:00;CYQG 220100Z 28011G17KT 15SM -SHSN FEW030 OVC049 M01/M05 A2988 RMK CU2SC6 SLP128

CYQG;2013-03-22 02:00;CYQG 220200Z 29013G19KT 12SM -SHSN FEW025 OVC044 M01/M05 A2989 RMK CF2SC6 SLP132

CYQG;2013-03-22 03:00;CYQG 220300Z 31011G18KT 15SM -SHSN FEW025 BKN052 M01/M07 A2990 RMK CU2SC6 SLP134

CYQG;2013-03-22 04:00;CYQG 220400Z 30012G19KT 15SM -SHSN FEW025 OVC046 M02/M08 A2991 RMK CU1SC8 SLP137

CYQG;2013-03-22 05:00;CYQG 220500Z 30012G17KT 15SM -SHSN FEW025 OVC037 M02/M08 A2991 RMK CU1SC8 SLP136

CYQG;2013-03-22 06:00;CYQG 220600Z 29010G15KT 15SM -SHSN OVC041 M02/M08 A2991 RMK SC8 SLP137

CYQG;2013-03-22 07:00;CYQG 220700Z 29015KT 15SM OVC041 M02/M10 A2992 RMK SC8 OCNL -SHSN SLP139

CYQG;2013-03-22 08:00;CYQG 220800Z 31011G17KT 15SM -SHSN OVC033 M02/M10 A2992 RMK SC8 SLP141

CYQG;2013-03-22 09:00;CYQG 220900Z 30012G19KT 15SM -SHSN OVC029 M03/M09 A2992 RMK SC8 SLP142

CYQG;2013-03-22 10:00;CYQG 221000Z 31008KT 15SM -SHSN OVC027 M03/M09 A2993 RMK SC8 SLP144

CYQG;2013-03-22 11:00;CYQG 221100Z 31011KT 15SM OVC026 M03/M09 A2995 RMK SC8 OCNL -SHSN SLP151

CYQG;2013-03-22 11:20;CYQG 221120Z 30008G17KT 15SM OVC027 RMK SC8

CYQG;2013-03-22 12:00;CYQG 221200Z 33013KT 15SM OVC026 M03/M09 A2997 RMK SC8 SLP156

CYQG;2013-03-22 13:00;CYQG 221300Z 30012G17KT 15SM OVC029 M03/M09 A2997 RMK SC8 SLP156

CYQG;2013-03-22 14:00;CYQG 221400Z 30014KT 15SM BKN028 M02/M09 A2997 RMK SC7 SLP157

CYQG;2013-03-22 15:00;CYQG 221500Z 29010KT 15SM BKN028 M02/M09 A2997 RMK SC7 SLP156

CYQG;2013-03-22 16:00;CYQG 221600Z 27011KT 15SM BKN031 M00/M08 A2997 RMK SC7 SLP157

CYQG;2013-03-22 17:00;CYQG 221700Z 28008KT 15SM BKN035 01/M08 A2997 RMK SC7 SLP156

CYQG;2013-03-22 18:00;CYQG 221800Z 29010KT 15SM OVC034 01/M07 A2997 RMK SC8 SLP157

CYQG;2013-03-22 19:00;CYQG 221900Z 29008G17KT 15SM SCT035 BKN260 02/M07 A2996 RMK SC3CI1 CONTRAILS SLP154

CYQG;2013-03-22 20:00;CYQG 222000Z 29007G15KT 15SM FEW035 BKN270 03/M07 A2995 RMK SC2CI2 SLP148

CYQG;2013-03-22 21:00;CYQG 222100Z 31010KT 15SM FEW040 BKN280 04/M07 A2994 RMK SC2CI2 SLP147

CYQG;2013-03-22 22:00;CYQG 222200Z 27009KT 15SM FEW040 BKN280 04/M07 A2995 RMK SC2CI2 SLP148

CYQG;2013-03-22 23:00;CYQG 222300Z 28009KT 15SM FEW045 SCT280 04/M07 A2995 RMK SC1CI2 CONTRAILS SLP151

CYQG;2013-03-23 00:00;CYQG 230000Z 32006KT 15SM FEW280 03/M07 A2997 RMK CI1 SLP156

CYQG;2013-03-23 01:00;CYQG 230100Z 32004KT 15SM FEW280 02/M07 A2999 RMK CI1 SLP163

CYQG;2013-03-23 02:00;CYQG 230200Z 10003KT 15SM FEW280 M00/M06 A3001 RMK CI1 SLP169

CYQG;2013-03-23 03:00;CYQG 230300Z 00000KT 15SM BKN043 M01/M06 A3001 RMK SC7 SLP172

CYQG;2013-03-23 04:00;CYQG 230400Z 13003KT 15SM FEW043 M01/M06 A3001 RMK SC1 SLP171

CYQG;2013-03-23 05:00;CYQG 230500Z 18002KT 15SM SKC M02/M06 A3001 RMK SLP172

CYQG;2013-03-23 06:00;CYQG 230600Z 00000KT 15SM SKC M02/M06 A3001 RMK FROIN SLP171

CYQG;2013-03-23 07:00;CYQG 230700Z 26002KT 15SM SKC M03/M06 A3002 RMK SLP173

CYQG;2013-03-23 08:00;CYQG 230800Z 00000KT 15SM SKC M04/M07 A3001 RMK SLP170

CYQG;2013-03-23 09:00;CYQG 230900Z 34004KT 15SM SKC M03/M07 A3001 RMK SLP169

CYQG;2013-03-23 10:00;CYQG 231000Z 31002KT 15SM SKC M04/M07 A3001 RMK SLP171

CYQG;2013-03-23 11:00;CYQG 231100Z 35004KT 15SM FEW280 M03/M06 A3003 RMK CS1 SLP175

CYQG;2013-03-23 12:00;CYQG 231200Z 34004KT 15SM FEW080 FEW280 M03/M06 A3004 RMK AC1CI1 SLP182

CYQG;2013-03-23 13:00;CYQG 231300Z 35006KT 15SM FEW080 SCT280 M01/M06 A3006 RMK AC1CI0 SLP186

CYQG;2013-03-23 14:00;CYQG 231400Z 36007KT 15SM SCT025 BKN280 00/M01 A3007 RMK SC4CI0 SLP190

CYQG;2013-03-23 15:00;CYQG 231500Z 36005KT 15SM BKN028 BKN280 00/M06 A3008 RMK SC7CI1 SLP195

CYQG;2013-03-23 16:00;CYQG 231600Z 33003KT 15SM BKN031 01/M06 A3009 RMK SC7 SLP197

CYQG;2013-03-23 17:00;CYQG 231700Z 00000KT 15SM BKN033 02/M06 A3009 RMK SC7 SLP196

CYQG;2013-03-23 18:00;CYQG 231800Z 36005KT 15SM BKN034 BKN280 03/M05 A3008 RMK SC6CI1 SLP194

CYQG;2013-03-23 19:00;CYQG 231900Z 00000KT 15SM SCT036 BKN280 03/M05 A3007 RMK CU3CI1 SLP189

CYQG;2013-03-23 20:00;CYQG 232000Z 12005KT 15SM SCT040 BKN280 04/M05 A3005 RMK CU3CI1 SLP183

CYQG;2013-03-23 21:00;CYQG 232100Z 13004KT 15SM BKN043 04/M05 A3007 RMK SC5 SLP189

CYQG;2013-03-23 22:00;CYQG 232200Z 13004KT 15SM SCT042 04/M05 A3007 RMK SC4 SLP189

CYQG;2013-03-23 23:00;CYQG 232300Z 08007KT 15SM FEW043 03/M05 A3005 RMK SC1 SLP185

CYQG;2013-03-24 00:00;CYQG 240000Z 09005KT 15SM FEW055 01/M05 A3006 RMK SC1 SLP188

CYQG;2013-03-24 01:00;CYQG 240100Z 05005KT 15SM SKC M01/M05 A3006 RMK SLP189

CYQG;2013-03-24 02:00;CYQG 240200Z 06006KT 15SM SKC M01/M05 A3008 RMK SLP196

CYQG;2013-03-24 03:00;CYQG 240300Z 09005KT 15SM FEW036 M01/M05 A3007 RMK SC2 SLP191

CYQG;2013-03-24 04:00;CYQG 240400Z 06006KT 15SM SKC M02/M05 A3005 RMK SLP184

CYQG;2013-03-24 05:00;CYQG 240500Z 09006KT 15SM SKC M02/M04 A3002 RMK FROIN SLP174

CYQG;2013-03-24 06:00;CYQG 240600Z 14002KT 15SM SKC M03/M05 A3001 RMK FROIN SLP169

CYQG;2013-03-24 07:00;CYQG 240700Z 18002KT 15SM SKC M03/M05 A3002 RMK SLP174

CYQG;2013-03-24 08:00;CYQG 240800Z 02002KT 15SM BKN280 M04/M06 A3001 RMK CI1 SLP171

CYQG;2013-03-24 09:00;CYQG 240900Z 36002KT 15SM OVC220 M03/M05 A3001 RMK CS5 SLP170

CYQG;2013-03-24 10:00;CYQG 241000Z 03003KT 15SM OVC210 M03/M05 A2999 RMK CS8 SLP162

CYQG;2013-03-24 11:00;CYQG 241100Z 02003KT 15SM BKN210 M03/M05 A3000 RMK CS7 SLP165

CYQG;2013-03-24 12:00;CYQG 241200Z 05004KT 15SM BKN200 M03/M04 A2998 RMK CS7 SLP161

CYQG;2013-03-24 13:00;CYQG 241300Z 07006KT 15SM OVC170 M01/M04 A2997 RMK AS8 SLP156

CYQG;2013-03-24 14:00;CYQG 241400Z 07009KT 15SM OVC160 M01/M04 A2996 RMK AS8 AC ASOCTD SLP154

CYQG;2013-03-24 15:00;CYQG 241500Z 05014KT 15SM OVC160 M01/M03 A2992 RMK AS8 SLP139

CYQG;2013-03-24 16:00;CYQG 241600Z 06013KT 15SM FEW012 BKN130 01/M03 A2989 RMK CU2AC5 SLP131

CYQG;2013-03-24 17:00;CYQG 241700Z 05016KT 15SM SCT015 OVC130 01/M03 A2986 RMK CU3AC5 SLP121

CYQG;2013-03-24 18:00;CYQG 241800Z 05016KT 15SM FEW015 BKN160 OVC280 02/M04 A2981 RMK SC1AS4CS2 SLP102

CYQG;2013-03-24 19:00;CYQG 241900Z 07019KT 15SM SCT035 OVC140 03/M05 A2979 RMK SC4AS4 SLP094

CYQG;2013-03-24 20:00;CYQG 242000Z 07015G21KT 15SM SCT038 OVC097 02/M05 A2978 RMK SC3AC5 SLP091

CYQG;2013-03-24 21:00;CYQG 242100Z 04015G20KT 15SM SCT038 OVC061 02/M05 A2974 RMK SC3SC5 SLP078

CYQG;2013-03-24 22:00;CYQG 242200Z 04020KT 15SM FEW032 OVC110 01/M06 A2971 RMK SC2AC6 SLP068

CYQG;2013-03-24 23:00;CYQG 242300Z 04018G26KT 12SM FEW030 OVC100 01/M05 A2968 RMK SC2AC6 SLP060

CYQG;2013-03-25 00:00;CYQG 250000Z 04016G22KT 12SM FEW030 BKN120 01/M05 A2968 RMK SC2AC6 SLP059

CYQG;2013-03-25 01:00;CYQG 250100Z 04015KT 12SM BKN110 03/M04 A2967 RMK AC7 SLP054

CYQG;2013-03-25 02:00;CYQG 250200Z 04013G19KT 12SM BKN110 00/M04 A2965 RMK AC7 SLP050

CYQG;2013-03-25 03:00;CYQG 250300Z 04015G21KT 12SM -SHSN OVC091 00/M04 A2963 RMK AC7 SLP042

CYQG;2013-03-25 03:27;CYQG 250327Z 04015KT 15SM OVC090 RMK AC8

CYQG;2013-03-25 04:00;CYQG 250400Z 04014G19KT 15SM OVC086 01/M05 A2962 RMK AC8 SLP037

CYQG;2013-03-25 05:00;CYQG 250500Z 04014G19KT 15SM OVC090 00/M04 A2961 RMK AC8 SLP033

CYQG;2013-03-25 06:00;CYQG 250600Z 03015G20KT 15SM OVC090 00/M04 A2959 RMK AC8 SLP027

CYQG;2013-03-25 07:00;CYQG 250700Z 04018KT 15SM OVC150 00/M04 A2958 RMK AC8 SLP022

CYQG;2013-03-25 08:00;CYQG 250800Z 04015KT 12SM BKN045 BKN150 00/M04 A2956 RMK SC5AC2 SLP018

CYQG;2013-03-25 08:48;CYQG 250848Z 05017G22KT 15SM -SHSN OVC051 RMK SC8

CYQG;2013-03-25 09:00;CYQG 250900Z 05015G21KT 15SM OVC050 00/M04 A2955 RMK SC8 OCNL -SHSN SLP013

CYQG;2013-03-25 09:42;CYQG 250942Z 06016G25KT 2SM -SHSN SCT009 OVC021 RMK SN2SF2SC5

CYQG;2013-03-25 10:00;CYQG 251000Z 05016KT 3SM -SHSN FEW008 OVC017 M01/M02 A2956 RMK SF2SC6 SLP015

CYQG;2013-03-25 11:00;CYQG 251100Z 04015KT 2 1/2SM -SHSN SCT006 OVC012 M01/M02 A2956 RMK SN2SF2SC5 SLP015

CYQG;2013-03-25 11:21;CYQG 251121Z 04014G19KT 1 1/4SM -SN BKN005 OVC013 RMK SN2SF3SC2

CYQG;2013-03-25 12:00;CYQG 251200Z 03016KT 1 1/2SM -SN BKN005 OVC014 M01/M02 A2957 RMK SN2SF4SC2 /S02/ SLP019

CYQG;2013-03-25 12:17;CYQG 251217Z 04016KT 2 1/2SM -SN OVC008 RMK SN2SF6

CYQG;2013-03-25 12:30;CYQG 251230Z 03014G20KT 4SM -SN OVC009 RMK SF8

CYQG;2013-03-25 12:48;CYQG 251248Z 04015G20KT 6SM -SN FEW009 OVC014 RMK SF2SC6

CYQG;2013-03-25 13:00;CYQG 251300Z 03012G20KT 6SM -SN FEW009 OVC014 M00/M02 A2958 RMK SF2SC6 SLP022

CYQG;2013-03-25 13:39;CYQG 251339Z 03016KT 1 1/4SM -SN OVC015 RMK SN2SC6

CYQG;2013-03-25 13:49;CYQG 251349Z 03017KT 5SM -SN OVC016 RMK SC8

CYQG;2013-03-25 14:00;CYQG 251400Z 03017G22KT 5SM -SN OVC017 00/M03 A2959 RMK SC8 /S01/ SLP026

CYQG;2013-03-25 15:00;CYQG 251500Z 03017G24KT 8SM -SN OVC020 00/M04 A2960 RMK SC8 SLP030

CYQG;2013-03-25 16:00;CYQG 251600Z 02015G20KT 8SM -SN OVC022 01/M03 A2961 RMK SC8 VIS 4 N SLP035

CYQG;2013-03-25 17:00;CYQG 251700Z 03017KT 8SM -SN OVC022 00/M03 A2964 RMK SC8 SLP042

CYQG;2013-03-25 18:00;CYQG 251800Z 01015KT 8SM -SN OVC026 02/M02 A2965 RMK SC8 SLP046

CYQG;2013-03-25 19:00;CYQG 251900Z 02016KT 15SM FEW025 OVC034 03/M03 A2966 RMK CU2SC6 SLP049

CYQG;2013-03-25 20:00;CYQG 252000Z 02011G19KT 15SM FEW031 OVC044 03/M03 A2967 RMK CU2SC6 SLP055

CYQG;2013-03-25 21:00;CYQG 252100Z 03011KT 15SM OVC033 03/M03 A2970 RMK SC8 SLP062

CYQG;2013-03-25 22:00;CYQG 252200Z 03013KT 15SM SCT030 OVC042 04/M03 A2972 RMK SC3SC5 SLP071

CYQG;2013-03-25 23:00;CYQG 252300Z 01013KT 15SM FEW025 OVC049 03/M03 A2976 RMK CU1SC7 SLP083

CYQG;2013-03-26 00:00;CYQG 260000Z 36013KT 15SM BKN062 03/M03 A2980 RMK SC7 SLP096

CYQG;2013-03-26 01:00;CYQG 260100Z 36008G15KT 15SM BKN064 03/M03 A2983 RMK SC7 SLP107

CYQG;2013-03-26 02:00;CYQG 260200Z 35008G15KT 15SM BKN058 03/M03 A2985 RMK SC7 SLP115

CYQG;2013-03-26 03:00;CYQG 260300Z 35010KT 15SM BKN057 03/M02 A2986 RMK SC7 SLP120

CYQG;2013-03-26 04:00;CYQG 260400Z 35009KT 15SM OVC067 03/M02 A2988 RMK AC8 SLP124

CYQG;2013-03-26 05:00;CYQG 260500Z 34010G17KT 15SM BKN073 02/M03 A2988 RMK AC7 SLP125

CYQG;2013-03-26 06:00;CYQG 260600Z 34008KT 15SM BKN076 02/M03 A2989 RMK AC7 SLP129

CYQG;2013-03-26 07:00;CYQG 260700Z 33009KT 15SM FEW022 BKN079 02/M03 A2990 RMK SC1AC6 SLP132

CYQG;2013-03-26 08:00;CYQG 260800Z 33009KT 15SM FEW050 BKN093 02/M04 A2990 RMK SC2AC6 SLP133

CYQG;2013-03-26 09:00;CYQG 260900Z 33008KT 15SM FEW050 BKN082 02/M03 A2991 RMK SC1AC6 SLP136

CYQG;2013-03-26 10:00;CYQG 261000Z 33010KT 15SM FEW052 BKN084 02/M03 A2992 RMK SC2AC6 SLP140

CYQG;2013-03-26 11:00;CYQG 261100Z 33009KT 15SM FEW052 BKN083 02/M03 A2994 RMK SC2AC5 SLP146

CYQG;2013-03-26 12:00;CYQG 261200Z 32011KT 15SM FEW050 BKN084 02/M03 A2997 RMK SC2AC6 SLP155

CYQG;2013-03-26 13:00;CYQG 261300Z 32010KT 15SM FEW051 OVC085 02/M02 A2999 RMK SC2AC6 SLP162

CYQG;2013-03-26 14:00;CYQG 261400Z 32011KT 15SM FEW050 OVC078 03/M02 A3000 RMK SC1AC7 SLP165

CYQG;2013-03-26 15:00;CYQG 261500Z 32010KT 15SM FEW050 BKN086 03/M02 A3001 RMK SC1AC6 SLP168

CYQG;2013-03-26 16:00;CYQG 261600Z 31011KT 15SM FEW028 BKN092 05/M02 A3002 RMK CU2AC5 SLP172

CYQG;2013-03-26 17:00;CYQG 261700Z 31012KT 15SM SCT037 BKN094 BKN260 06/M02 A3001 RMK CU3AC2CI1 SLP170

CYQG;2013-03-26 18:00;CYQG 261800Z 30012KT 15SM BKN044 BKN098 BKN260 07/M02 A3001 RMK CU5AC1CI1 SLP167

CYQG;2013-03-26 19:00;CYQG 261900Z 32011KT 15SM VCSH SCT046 BKN081 07/M05 A3001 RMK CU4AC3 VIRGA SLP166

CYQG;2013-03-26 20:00;CYQG 262000Z 30009KT 15SM VCSH BKN044 OVC060 06/M03 A3001 RMK CU5SC3 SLP168

CYQG;2013-03-26 21:00;CYQG 262100Z 33011KT 15SM VCSH BKN045 OVC077 06/M04 A3002 RMK CU5AC3 SLP172

CYQG;2013-03-26 21:27;CYQG 262127Z 31011G18KT 15SM -SHSN SCT025 OVC060 RMK CU4SC4

CYQG;2013-03-26 22:00;CYQG 262200Z 31012KT 15SM VCSH SCT040 OVC086 05/M03 A3003 RMK CU3AC5 SLP175

CYQG;2013-03-26 23:00;CYQG 262300Z 31009G15KT 15SM SCT040 OVC075 05/M03 A3004 RMK CU3AC4 SLP180

CYQG;2013-03-26 23:52;CYQG 262352Z 32009KT 15SM -SHSN BKN044 OVC090 RMK CU6AC2

CYQG;2013-03-27 00:00;CYQG 270000Z 32007KT 15SM -SHSN BKN048 OVC090 04/M02 A3006 RMK CU6AC2 SLP187

CYQG;2013-03-27 00:42;CYQG 270042Z 30008KT 15SM FEW045 OVC094 RMK CU2AC6

CYQG;2013-03-27 01:00;CYQG 270100Z 30008KT 15SM FEW050 OVC093 04/M02 A3007 RMK SC2AC6 SLP191

CYQG;2013-03-27 02:00;CYQG 270200Z 28006KT 15SM BKN053 OVC096 04/M02 A3008 RMK SC6AC2 SLP194

CYQG;2013-03-27 03:00;CYQG 270300Z 29010KT 15SM SCT055 OVC099 03/M02 A3009 RMK SC3AC5 SLP194

CYQG;2013-03-27 04:00;CYQG 270400Z 29008KT 15SM FEW048 OVC100 03/M01 A3009 RMK SC2AC6 SLP195

CYQG;2013-03-27 05:00;CYQG 270500Z 30011KT 15SM OVC096 03/M02 A3009 RMK AC8 SLP195

CYQG;2013-03-27 06:00;CYQG 270600Z 31009KT 15SM OVC100 03/M03 A3009 RMK AC8 SLP196

CYQG;2013-03-27 07:00;CYQG 270700Z 31008KT 15SM OVC110 02/M04 A3009 RMK AC8 SLP196

CYQG;2013-03-27 08:00;CYQG 270800Z 31009KT 15SM BKN110 02/M05 A3009 RMK AC7 SLP196

CYQG;2013-03-27 09:00;CYQG 270900Z 31009KT 15SM FEW110 01/M05 A3010 RMK AC1 SLP199

CYQG;2013-03-27 10:00;CYQG 271000Z 29008G15KT 15SM FEW110 00/M05 A3011 RMK AC1 SLP201

CYQG;2013-03-27 11:00;CYQG 271100Z 29010KT 15SM FEW110 FEW260 M00/M04 A3011 RMK AC1CI1 SLP204

CYQG;2013-03-27 12:00;CYQG 271200Z 29009KT 15SM FEW110 M00/M04 A3013 RMK AC2 SLP209

CYQG;2013-03-27 13:00;CYQG 271300Z 31011G16KT 15SM FEW110 01/M04 A3014 RMK AC2 SLP212

CYQG;2013-03-27 14:00;CYQG 271400Z 30011KT 15SM FEW020 SCT120 02/M04 A3014 RMK CF1AC3 TR CF SLP213

CYQG;2013-03-27 15:00;CYQG 271500Z 31012KT 15SM FEW025 BKN079 04/M04 A3014 RMK CF1AC7 TR CF SLP212

CYQG;2013-03-27 16:00;CYQG 271600Z 31012G18KT 15SM BKN080 06/M04 A3014 RMK AC7 SLP214

CYQG;2013-03-27 17:00;CYQG 271700Z 29011G16KT 15SM FEW030 BKN076 07/M04 A3014 RMK CF1AC6 SLP212

CYQG;2013-03-27 18:00;CYQG 271800Z 32011G17KT 15SM BKN050 BKN067 07/M04 A3013 RMK CU5AC2 SLP208

CYQG;2013-03-27 19:00;CYQG 271900Z 29014KT 15SM BKN058 07/M05 A3012 RMK SC7 SLP206

CYQG;2013-03-27 20:00;CYQG 272000Z 30011G17KT 15SM BKN060 08/M05 A3011 RMK SC7 SLP203

CYQG;2013-03-27 21:00;CYQG 272100Z 29015KT 15SM BKN061 08/M05 A3011 RMK SC7 SLP202

CYQG;2013-03-27 22:00;CYQG 272200Z 29011G16KT 15SM OVC059 07/M05 A3012 RMK SC8 SLP205

CYQG;2013-03-27 23:00;CYQG 272300Z 31009G19KT 15SM VCSH OVC054 07/M04 A3013 RMK SC8 SHRA SE SLP207

CYQG;2013-03-28 00:00;CYQG 280000Z 30016KT 15SM BKN055 BKN110 07/M05 A3013 RMK SC5AC2 SLP209

CYQG;2013-03-28 01:00;CYQG 280100Z 28010G16KT 15SM BKN058 BKN110 06/M04 A3015 RMK SC6AC2 SLP215

CYQG;2013-03-28 02:00;CYQG 280200Z 29012G17KT 15SM BKN057 06/M03 A3016 RMK SC7 SLP219

CYQG;2013-03-28 03:00;CYQG 280300Z 28013KT 15SM BKN063 05/M04 A3016 RMK SC7 SLP220

CYQG;2013-03-28 04:00;CYQG 280400Z 30011KT 15SM OVC062 05/M04 A3017 RMK SC8 SLP223

CYQG;2013-03-28 05:00;CYQG 280500Z 30011KT 15SM OVC048 04/M04 A3018 RMK SC8 SLP225

CYQG;2013-03-28 06:00;CYQG 280600Z 29011KT 15SM OVC043 04/M05 A3018 RMK SC8 SLP226

CYQG;2013-03-28 07:00;CYQG 280700Z 30008KT 15SM BKN045 04/M05 A3018 RMK SC7 SLP226

CYQG;2013-03-28 08:00;CYQG 280800Z 30009KT 15SM BKN055 03/M05 A3018 RMK SC7 SLP224

CYQG;2013-03-28 09:00;CYQG 280900Z 29008KT 15SM FEW055 02/M06 A3018 RMK SC2 SLP227

CYQG;2013-03-28 10:00;CYQG 281000Z 31007KT 15SM BKN070 01/M06 A3019 RMK AC7 SLP229

CYQG;2013-03-28 11:00;CYQG 281100Z 30009KT 15SM BKN064 01/M05 A3020 RMK SC7 SLP233

CYQG;2013-03-28 12:00;CYQG 281200Z 31009KT 15SM BKN058 01/M05 A3022 RMK SC7 SLP238

CYQG;2013-03-28 13:00;CYQG 281300Z 31009KT 15SM BKN056 02/M04 A3023 RMK SC7 SLP242

CYQG;2013-03-28 14:00;CYQG 281400Z 33010KT 15SM BKN054 03/M04 A3024 RMK SC7 SLP245

CYQG;2013-03-28 15:00;CYQG 281500Z 31006KT 15SM BKN066 04/M03 A3025 RMK SC6 SLP249

CYQG;2013-03-28 16:00;CYQG 281600Z 32007KT 15SM FEW060 BKN075 05/M03 A3025 RMK SC2AC6 SLP250

CYQG;2013-03-28 17:00;CYQG 281700Z 34008KT 15SM BKN047 BKN075 07/M03 A3025 RMK SC5AC2 SLP249

CYQG;2013-03-28 18:00;CYQG 281800Z 31007KT 15SM FEW030 BKN050 BKN070 08/M03 A3024 RMK CU2SC5AC1 SLP247

CYQG;2013-03-28 19:00;CYQG 281900Z 34008KT 15SM FEW030 BKN053 08/M04 A3023 RMK CU2SC4 SLP242

CYQG;2013-03-28 20:00;CYQG 282000Z 02003KT 15SM BKN056 BKN080 10/M04 A3021 RMK SC6AC1 SLP236

CYQG;2013-03-28 21:00;CYQG 282100Z 31004KT 15SM BKN065 10/M05 A3021 RMK SC7 SLP235

CYQG;2013-03-28 22:00;CYQG 282200Z 02002KT 15SM BKN064 09/M03 A3021 RMK SC7 SLP234

CYQG;2013-03-28 23:00;CYQG 282300Z 18005KT 15SM BKN066 09/M03 A3022 RMK AC7 SLP238

CYQG;2013-03-29 00:00;CYQG 290000Z 20006KT 15SM BKN072 08/M03 A3023 RMK AC7 SLP241

CYQG;2013-03-29 01:00;CYQG 290100Z 20006KT 15SM BKN072 06/M03 A3023 RMK AC7 SLP244

CYQG;2013-03-29 02:00;CYQG 290200Z 21003KT 15SM OVC073 06/M03 A3024 RMK AC8 SLP247

CYQG;2013-03-29 03:00;CYQG 290300Z 23003KT 15SM BKN073 05/M02 A3025 RMK AC7 SLP248

CYQG;2013-03-29 04:00;CYQG 290400Z 25003KT 15SM BKN067 05/M02 A3024 RMK AC7 SLP247

CYQG;2013-03-29 05:00;CYQG 290500Z 30006KT 15SM BKN066 05/M03 A3025 RMK AC6 SLP248

CYQG;2013-03-29 06:00;CYQG 290600Z 32006KT 15SM FEW063 BKN190 04/M05 A3025 RMK SC1AC5 SLP250

CYQG;2013-03-29 07:00;CYQG 290700Z 31007KT 15SM BKN180 04/M05 A3026 RMK AC6 SLP251

CYQG;2013-03-29 08:00;CYQG 290800Z 31006KT 15SM FEW160 03/M05 A3025 RMK AC2 SLP249

CYQG;2013-03-29 09:00;CYQG 290900Z 29006KT 15SM FEW170 02/M05 A3025 RMK AC1 SLP249

CYQG;2013-03-29 10:00;CYQG 291000Z 29005KT 15SM FEW160 01/M05 A3025 RMK AC1 SLP249

CYQG;2013-03-29 11:00;CYQG 291100Z 29007KT 15SM FEW180 FEW270 01/M06 A3026 RMK AC1CI1 SLP251

CYQG;2013-03-29 12:00;CYQG 291200Z 29006KT 15SM FEW270 01/M06 A3027 RMK CI1 SLP255

CYQG;2013-03-29 13:00;CYQG 291300Z 32009KT 15SM FEW270 03/M06 A3027 RMK CI1 TR CI SLP256

CYQG;2013-03-29 14:00;CYQG 291400Z 32009KT 15SM SKC 05/M06 A3027 RMK SLP257

CYQG;2013-03-29 15:00;CYQG 291500Z 33006KT 15SM SKC 07/M06 A3027 RMK SLP256

CYQG;2013-03-29 16:00;CYQG 291600Z 31008KT 15SM SKC 08/M05 A3027 RMK SLP256

CYQG;2013-03-29 17:00;CYQG 291700Z 26006KT 15SM FEW025 08/M05 A3026 RMK CF1 TR CF SLP251

CYQG;2013-03-29 18:00;CYQG 291800Z 17002KT 15SM FEW025 09/M06 A3024 RMK CF1 TR CF SLP244

CYQG;2013-03-29 19:00;CYQG 291900Z 28009KT 15SM FEW030 10/M06 A3022 RMK SC2 SLP238

CYQG;2013-03-29 20:00;CYQG 292000Z 25006KT 15SM FEW074 10/M07 A3021 RMK CU2 SLP236

CYQG;2013-03-29 21:00;CYQG 292100Z 32006KT 15SM SCT076 11/M06 A3019 RMK CU3 SLP227

CYQG;2013-03-29 22:00;CYQG 292200Z 09006KT 15SM FEW076 10/M05 A3019 RMK CU2 SLP227

CYQG;2013-03-29 23:00;CYQG 292300Z 12004KT 15SM FEW072 11/M05 A3019 RMK AC2 SLP228

CYQG;2013-03-30 00:00;CYQG 300000Z 12004KT 15SM SCT072 08/M05 A3020 RMK AC3 SLP231

CYQG;2013-03-30 01:00;CYQG 300100Z 16002KT 15SM SCT086 07/M05 A3020 RMK AC3 SLP234

CYQG;2013-03-30 02:00;CYQG 300200Z 06008KT 15SM FEW080 05/M05 A3021 RMK AC1 SLP237

CYQG;2013-03-30 03:00;CYQG 300300Z 10003KT 15SM SKC 04/M05 A3022 RMK SLP239

CYQG;2013-03-30 04:00;CYQG 300400Z 00000KT 15SM SKC 02/M05 A3021 RMK SLP237

CYQG;2013-03-30 05:00;CYQG 300500Z 14004KT 15SM SKC 01/M06 A3020 RMK SLP233

CYQG;2013-03-30 06:00;CYQG 300600Z 20002KT 15SM SKC 00/M05 A3020 RMK SLP233

CYQG;2013-03-30 07:00;CYQG 300700Z 27004KT 15SM SKC 01/M05 A3021 RMK SLP235

CYQG;2013-03-30 08:00;CYQG 300800Z 27002KT 15SM SKC 00/M05 A3020 RMK SLP231

CYQG;2013-03-30 09:00;CYQG 300900Z 30003KT 15SM SKC 00/M05 A3019 RMK SLP228

CYQG;2013-03-30 10:00;CYQG 301000Z 00000KT 15SM SKC M01/M05 A3019 RMK SLP229

CYQG;2013-03-30 11:00;CYQG 301100Z 00000KT 15SM SKC M02/M05 A3019 RMK SLP229

CYQG;2013-03-30 12:00;CYQG 301200Z 17002KT 15SM FEW280 M01/M04 A3020 RMK CI1 SLP233

CYQG;2013-03-30 13:00;CYQG 301300Z 00000KT 15SM FEW280 03/M03 A3021 RMK CI0 SLP236

CYQG;2013-03-30 14:00;CYQG 301400Z 17003KT 15SM SKC 05/M03 A3019 RMK SLP230

CYQG;2013-03-30 15:00;CYQG 301500Z 21003KT 15SM SKC 08/M02 A3017 RMK SLP222

CYQG;2013-03-30 16:00;CYQG 301600Z 18007KT 15SM FEW280 10/M02 A3016 RMK CI1 SLP218

CYQG;2013-03-30 17:00;CYQG 301700Z 20006KT 15SM SCT280 11/M04 A3014 RMK CI2 CONTRAILS SLP210

CYQG;2013-03-30 18:00;CYQG 301800Z 20013KT 15SM BKN280 11/M04 A3011 RMK CI3 CONTRAILS SLP203

CYQG;2013-03-30 19:00;CYQG 301900Z 20009KT 15SM BKN300 11/M06 A3009 RMK CI2 CONTRAILS SLP196

CYQG;2013-03-30 20:00;CYQG 302000Z 22011G16KT 15SM OVC300 12/M05 A3007 RMK CI5 CONTRAILS SLP187

CYQG;2013-03-30 21:00;CYQG 302100Z 20009KT 15SM OVC300 12/M06 A3004 RMK CS7 HALO SLP177

CYQG;2013-03-30 22:00;CYQG 302200Z 19011KT 15SM OVC300 11/M05 A3002 RMK CS8 SLP170

CYQG;2013-03-30 23:00;CYQG 302300Z 19009KT 15SM OVC300 11/M04 A3001 RMK CS7 CONTRAILS SLP166

CYQG;2013-03-31 00:00;CYQG 310000Z 18007KT 15SM OVC240 08/M03 A3000 RMK CS7 SLP166

CYQG;2013-03-31 01:00;CYQG 310100Z 17007KT 15SM OVC240 06/M03 A2999 RMK CS6 SLP163

CYQG;2013-03-31 02:00;CYQG 310200Z 17007KT 15SM OVC160 05/M03 A2998 RMK AS6 SLP160

CYQG;2013-03-31 03:00;CYQG 310300Z 16009KT 15SM OVC140 04/M02 A2996 RMK AS6 SLP151

CYQG;2013-03-31 04:00;CYQG 310400Z 16007KT 15SM BKN160 04/M02 A2994 RMK AC6 SLP143

CYQG;2013-03-31 05:00;CYQG 310500Z 16008KT 15SM BKN140 04/M02 A2992 RMK AS6 SLP137

CYQG;2013-03-31 06:00;CYQG 310600Z 16005KT 15SM BKN150 04/M02 A2989 RMK AS5 SLP126

CYQG;2013-03-31 07:00;CYQG 310700Z 18008KT 15SM BKN130 03/M02 A2986 RMK AC7 SLP115

CYQG;2013-03-31 08:00;CYQG 310800Z 18005KT 15SM BKN130 04/M01 A2983 RMK AC6 SLP105

CYQG;2013-03-31 09:00;CYQG 310900Z 18006KT 15SM BKN130 04/M02 A2980 RMK AC5 SLP094

CYQG;2013-03-31 10:00;CYQG 311000Z 19008KT 15SM FEW070 SCT090 BKN120 05/M02 A2977 RMK AC2AC2AS3 SLP086

CYQG;2013-03-31 11:00;CYQG 311100Z 20008KT 15SM FEW063 OVC090 06/M01 A2976 RMK SC2AC6 SLP082

CYQG;2013-03-31 11:25;CYQG 311125Z 21010KT 15SM -SHRA BKN074 OVC100 RMK AC6AC2

CYQG;2013-03-31 12:00;CYQG 311200Z 20009KT 15SM -SHRA SCT059 OVC090 06/M00 A2974 RMK SC4AC4 SLP076

CYQG;2013-03-31 13:00;CYQG 311300Z 21009KT 15SM -SHRA SCT050 OVC078 06/01 A2974 RMK SC3AC5 SLP074

CYQG;2013-03-31 14:00;CYQG 311400Z 23007KT 10SM -SHRA BKN040 OVC090 07/02 A2972 RMK SC6AC2 SLP069

CYQG;2013-03-31 15:00;CYQG 311500Z 23006KT 7SM -RA OVC048 07/04 A2971 RMK SC8 SLP067

CYQG;2013-03-31 16:00;CYQG 311600Z 24010KT 6SM HZ OVC029 08/05 A2970 RMK SC8 SLP063

CYQG;2013-03-31 17:00;CYQG 311700Z 26013G18KT 7SM BKN017 OVC030 09/06 A2970 RMK CU6SC2 SLP061

CYQG;2013-03-31 18:00;CYQG 311800Z 26013KT 8SM BKN021 11/06 A2967 RMK CU7 SLP052

CYQG;2013-03-31 19:00;CYQG 311900Z 27014G19KT 15SM BKN040 13/04 A2965 RMK CU6 SLP045

CYQG;2013-03-31 20:00;CYQG 312000Z 25011G20KT 12SM SCT051 14/02 A2963 RMK CU4 SLP038

CYQG;2013-03-31 21:00;CYQG 312100Z 27014G20KT 12SM SCT061 15/00 A2962 RMK CU3 SLP032

CYQG;2013-03-31 22:00;CYQG 312200Z 27015KT 15SM SCT070 BKN280 14/M01 A2961 RMK CU3CI2 SLP030

CYQG;2013-03-31 23:00;CYQG 312300Z 27015G20KT 15SM BKN070 OVC280 14/M01 A2961 RMK AC6CI2 SLP031

CYQG;2013-04-01 00:00;CYQG 010000Z 27013G20KT 15SM BKN070 OVC280 13/M02 A2962 RMK AC6CI2 SLP033

CYQG;2013-04-01 01:00;CYQG 010100Z 29012KT 15SM BKN073 12/M01 A2964 RMK AC7 SLP038

CYQG;2013-04-01 02:00;CYQG 010200Z 30008KT 15SM FEW060 BKN080 BKN280 11/01 A2965 RMK CU1AC6CS1 TR CU SLP042

CYQG;2013-04-01 03:00;CYQG 010300Z 29009KT 15SM BKN054 OVC250 09/02 A2965 RMK SC6CI2 SLP044

CYQG;2013-04-01 04:00;CYQG 010400Z 30009KT 15SM BKN041 OVC250 07/02 A2967 RMK SC6CI2 SLP050

CYQG;2013-04-01 05:00;CYQG 010500Z 28019G25KT 15SM BKN036 BKN110 07/M00 A2968 RMK SC6AC2 SLP053

CYQG;2013-04-01 07:00;CYQG 010700Z 33018G24KT 10SM -SHRASN BKN038 03/M03 A2973 RMK SC6 SLP071

CYQG;2013-04-01 07:42;CYQG 010742Z 32014G20KT 15SM BKN021 RMK SC5

CYQG;2013-04-01 08:00;CYQG 010800Z 32014KT 15SM BKN019 02/M03 A2976 RMK SC6 SLP082

CYQG;2013-04-01 08:49;CYQG 010849Z 33012G18KT 12SM -SHSN OVC026 RMK SC8

CYQG;2013-04-01 09:00;CYQG 010900Z 32015KT 15SM -SHSN FEW025 OVC051 02/M06 A2980 RMK SC2SC6 SLP093

CYQG;2013-04-01 09:39;CYQG 010939Z 33015G24KT 15SM FEW025 FEW055 RMK SC1SC2

CYQG;2013-04-01 10:00;CYQG 011000Z 33012G18KT 15SM FEW025 FEW055 00/M08 A2983 RMK SC1SC2 SLP106

CYQG;2013-04-01 11:00;CYQG 011100Z 33018KT 15SM FEW025 M01/M11 A2988 RMK SC2 SLP120

CYQG;2013-04-01 12:00;CYQG 011200Z 32014KT 15SM FEW045 M01/M10 A2991 RMK SC2 SLP133

CYQG;2013-04-01 13:00;CYQG 011300Z 30013G19KT 15SM SCT045 M00/M10 A2993 RMK SC4 SLP140

CYQG;2013-04-01 14:00;CYQG 011400Z 29013G18KT 15SM SCT040 00/M09 A2995 RMK CU4 SLP145

CYQG;2013-04-01 15:00;CYQG 011500Z 30010G20KT 15SM BKN050 01/M09 A2996 RMK CU6 SLP150

CYQG;2013-04-01 15:36;CYQG 011536Z 30014G21KT 15SM -SHSN BKN045 RMK CU6

CYQG;2013-04-01 16:00;CYQG 011600Z 28016G25KT 15SM BKN048 01/M11 A2998 RMK CU6 OCNL -SHSN SLP156

CYQG;2013-04-01 16:50;CYQG 011650Z 29017G22KT 15SM BKN055 RMK CU6

CYQG;2013-04-01 17:00;CYQG 011700Z 30017G25KT 15SM BKN057 03/M11 A2998 RMK SC6 SLP159

CYQG;2013-04-01 18:00;CYQG 011800Z 29014G21KT 15SM BKN060 02/M11 A2998 RMK SC6 SLP160

CYQG;2013-04-01 19:00;CYQG 011900Z 29014G21KT 15SM BKN064 04/M12 A2998 RMK SC6 SLP158

CYQG;2013-04-01 20:00;CYQG 012000Z 31010G24KT 15SM BKN071 04/M12 A2998 RMK AC6 SLP159

CYQG;2013-04-01 21:00;CYQG 012100Z 30014G19KT 15SM BKN073 03/M12 A2999 RMK AC6 SLP161

CYQG;2013-04-01 22:00;CYQG 012200Z 31014G25KT 15SM BKN072 02/M12 A3000 RMK AC6 SLP165

CYQG;2013-04-01 23:00;CYQG 012300Z 31014KT 15SM VCSH BKN059 02/M11 A3002 RMK SC6 SH NE SLP171

CYQG;2013-04-02 00:00;CYQG 020000Z 31018KT 15SM VCSH BKN064 01/M10 A3004 RMK SC6 SH NE AND SW SLP179

CYQG;2013-04-02 00:35;CYQG 020035Z 30012G18KT 15SM -SHSN BKN069 RMK AC6

CYQG;2013-04-02 01:00;CYQG 020100Z 29016KT 15SM BKN067 M00/M11 A3006 RMK AC6 OCNL -SHSN SLP186

CYQG;2013-04-02 01:05;CYQG 020105Z 31011G18KT 15SM BKN064 RMK SC6

CYQG;2013-04-02 02:00;CYQG 020200Z 29013KT 15SM SCT064 M01/M10 A3007 RMK SC3 SLP192

CYQG;2013-04-02 03:00;CYQG 020300Z 32013KT 15SM SCT061 M01/M12 A3008 RMK SC3 SLP195

CYQG;2013-04-02 04:00;CYQG 020400Z 30011G16KT 15SM SCT060 M02/M12 A3009 RMK SC3 SLP196

CYQG;2013-04-02 05:00;CYQG 020500Z 30006KT 15SM FEW060 M02/M11 A3009 RMK SC2 SLP198

CYQG;2013-04-02 06:00;CYQG 020600Z 29007KT 15SM FEW060 M02/M11 A3009 RMK SC2 SLP198

CYQG;2013-04-02 07:00;CYQG 020700Z 28007KT 15SM FEW060 M03/M11 A3009 RMK SC2 SLP196

CYQG;2013-04-02 08:00;CYQG 020800Z 25007KT 15SM FEW060 M03/M11 A3009 RMK SC2 SLP196

CYQG;2013-04-02 09:00;CYQG 020900Z 28006KT 15SM FEW060 M04/M10 A3009 RMK SC2 SLP198

CYQG;2013-04-02 10:00;CYQG 021000Z 29010KT 15SM FEW060 M03/M09 A3011 RMK SC1 SLP202

CYQG;2013-04-02 11:00;CYQG 021100Z 29010KT 15SM FEW020 M04/M09 A3012 RMK SC1 SLP207

CYQG;2013-04-02 12:00;CYQG 021200Z 29007KT 15SM FEW020 M03/M08 A3015 RMK CF1 SLP217

CYQG;2013-04-02 13:00;CYQG 021300Z 32007KT 15SM FEW020 M02/M10 A3017 RMK CF1 TR CF WIND ESTIMATED SLP223

CYQG;2013-04-02 14:00;CYQG 021400Z 32005KT 15SM FEW015 M00/M12 A3017 RMK CF1 TR CF WIND ESTIMATED SLP223

CYQG;2013-04-02 15:00;CYQG 021500Z 27008KT 15SM BKN053 00/M11 A3017 RMK SC6 WIND ESTIMATED SLP224

CYQG;2013-04-02 16:00;CYQG 021600Z 27008KT 15SM BKN057 02/M12 A3017 RMK SC6 WIND ESTIMATED SLP223

CYQG;2013-04-02 17:00;CYQG 021700Z 27014G25KT 15SM BKN060 03/M11 A3015 RMK SC6 SLP219

CYQG;2013-04-02 18:00;CYQG 021800Z 30017KT 15SM BKN060 03/M11 A3014 RMK SC6 SLP214

CYQG;2013-04-02 19:00;CYQG 021900Z 30014G20KT 15SM BKN063 04/M11 A3013 RMK SC6 SLP209

CYQG;2013-04-02 20:00;CYQG 022000Z 29014G19KT 15SM BKN069 04/M12 A3012 RMK AC7 SLP206

CYQG;2013-04-02 21:00;CYQG 022100Z 31015KT 15SM BKN072 04/M11 A3012 RMK AC7 SLP206

CYQG;2013-04-02 22:00;CYQG 022200Z 30017KT 15SM BKN073 04/M12 A3012 RMK AC6 SLP208

CYQG;2013-04-02 23:00;CYQG 022300Z 30015G21KT 15SM BKN080 BKN260 04/M12 A3014 RMK AC5CI1 SLP213

CYQG;2013-04-03 00:00;CYQG 030000Z 31012KT 15SM SCT072 BKN120 04/M12 A3015 RMK AC4AS1 DIST SH N-NE SLP219

CYQG;2013-04-03 01:00;CYQG 030100Z 30010G15KT 15SM FEW071 03/M12 A3017 RMK AC2 SLP226

CYQG;2013-04-03 02:00;CYQG 030200Z 32014KT 15SM FEW072 02/M12 A3020 RMK AC1 SLP235

CYQG;2013-04-03 03:00;CYQG 030300Z 33010G16KT 15SM SKC 01/M12 A3022 RMK SLP240

CYQG;2013-04-03 04:00;CYQG 030400Z 32008G18KT 15SM SKC 00/M13 A3023 RMK SLP244

CYQG;2013-04-03 05:00;CYQG 030500Z 34005KT 15SM SKC M02/M12 A3023 RMK SLP246

CYQG;2013-04-03 06:00;CYQG 030600Z 32004KT 15SM SKC M01/M12 A3025 RMK SLP250

CYQG;2013-04-03 07:00;CYQG 030700Z 29004KT 15SM SKC M02/M12 A3024 RMK SLP248

CYQG;2013-04-03 08:00;CYQG 030800Z 27006KT 15SM SKC M02/M11 A3025 RMK SLP252

CYQG;2013-04-03 09:00;CYQG 030900Z 25006KT 15SM SKC M03/M11 A3026 RMK SLP255

CYQG;2013-04-03 10:00;CYQG 031000Z 29003KT 15SM SKC M03/M10 A3028 RMK SLP261

CYQG;2013-04-03 11:00;CYQG 031100Z 31004KT 15SM FEW060 M03/M10 A3030 RMK SC1 SLP268

CYQG;2013-04-03 12:00;CYQG 031200Z 33007KT 15SM FEW025 M03/M09 A3033 RMK SC1 SLP278

CYQG;2013-04-03 13:00;CYQG 031300Z 33008KT 15SM FEW030 M02/M11 A3034 RMK SC1 SLP282

CYQG;2013-04-03 14:00;CYQG 031400Z 35013KT 15SM FEW040 M01/M12 A3036 RMK CF1 SLP290

CYQG;2013-04-03 15:00;CYQG 031500Z 32013G20KT 15SM FEW050 01/M11 A3038 RMK CU2 SLP297

CYQG;2013-04-03 16:00;CYQG 031600Z 34012G18KT 15SM BKN052 01/M12 A3039 RMK CU5 SLP300

CYQG;2013-04-03 17:00;CYQG 031700Z 33014G20KT 15SM SCT058 03/M12 A3041 RMK CU3 SLP306

CYQG;2013-04-03 18:00;CYQG 031800Z 34013KT 15SM FEW060 03/M13 A3040 RMK CF1 SLP301

CYQG;2013-04-03 19:00;CYQG 031900Z 35011G18KT 15SM FEW270 04/M13 A3039 RMK CI1 SLP299

CYQG;2013-04-03 20:00;CYQG 032000Z 34008G15KT 15SM FEW270 04/M13 A3039 RMK CI1 SLP299

CYQG;2013-04-03 21:00;CYQG 032100Z 02008KT 15SM FEW270 05/M13 A3039 RMK CI1 SLP299

CYQG;2013-04-03 22:00;CYQG 032200Z 12002KT 15SM FEW270 04/M11 A3039 RMK CI1 SLP299

CYQG;2013-04-03 23:00;CYQG 032300Z 13006KT 15SM FEW270 04/M12 A3041 RMK CI1 SLP304

CYQG;2013-04-04 00:00;CYQG 040000Z 14005KT 15SM FEW260 02/M10 A3039 RMK CI1 SLP301

CYQG;2013-04-04 01:00;CYQG 040100Z 14007KT 15SM FEW260 M00/M09 A3037 RMK CI1 TR CI SLP294

CYQG;2013-04-04 02:00;CYQG 040200Z 19006KT 15SM SKC M01/M07 A3038 RMK SLP298

CYQG;2013-04-04 03:00;CYQG 040300Z 21004KT 15SM SKC M01/M07 A3038 RMK SLP294

CYQG;2013-04-04 04:00;CYQG 040400Z 20004KT 15SM SKC M01/M07 A3035 RMK SLP284

CYQG;2013-04-04 05:00;CYQG 040500Z 20005KT 15SM SKC M01/M08 A3036 RMK SLP289

CYQG;2013-04-04 06:00;CYQG 040600Z 19005KT 15SM SKC M02/M08 A3035 RMK SLP287

CYQG;2013-04-04 07:00;CYQG 040700Z 19003KT 15SM SKC M02/M08 A3034 RMK SLP282

CYQG;2013-04-04 08:00;CYQG 040800Z 19006KT 15SM SKC M02/M08 A3033 RMK SLP280

CYQG;2013-04-04 09:00;CYQG 040900Z 20007KT 15SM SKC M02/M07 A3032 RMK SLP275

CYQG;2013-04-04 10:00;CYQG 041000Z 20007KT 15SM SKC M02/M08 A3031 RMK SLP270

CYQG;2013-04-04 11:00;CYQG 041100Z 20004KT 12SM FEW150 BKN260 M02/M07 A3029 RMK AC2CI1 SLP266

CYQG;2013-04-04 12:00;CYQG 041200Z 18003KT 15SM SCT260 M01/M07 A3028 RMK CI1 SLP261

CYQG;2013-04-04 13:00;CYQG 041300Z 22007KT 15SM BKN270 01/M06 A3027 RMK CI2 SLP258

CYQG;2013-04-04 14:00;CYQG 041400Z 22008KT 15SM BKN270 03/M07 A3023 RMK CS2 SLP246

CYQG;2013-04-04 15:00;CYQG 041500Z 20009KT 15SM BKN280 05/M07 A3021 RMK CS2 SLP237

CYQG;2013-04-04 16:00;CYQG 041600Z 21009KT 15SM BKN280 06/M08 A3019 RMK CS2 SLP229

CYQG;2013-04-04 17:00;CYQG 041700Z 20013KT 15SM BKN280 07/M08 A3015 RMK CS2 SLP216

CYQG;2013-04-04 18:00;CYQG 041800Z 21012G17KT 15SM BKN280 08/M10 A3011 RMK CI2 SLP201

CYQG;2013-04-04 19:00;CYQG 041900Z 23014KT 15SM SCT280 09/M11 A3007 RMK CI2 SLP190

CYQG;2013-04-04 20:00;CYQG 042000Z 21013G18KT 15SM FEW280 10/M10 A3004 RMK CI1 SLP178

CYQG;2013-04-04 21:00;CYQG 042100Z 21011G16KT 15SM FEW280 11/M10 A3000 RMK CI1 SLP165

CYQG;2013-04-04 22:00;CYQG 042200Z 21011KT 15SM SCT280 11/M11 A2998 RMK CI2 SLP156

CYQG;2013-04-04 23:00;CYQG 042300Z 22011KT 15SM FEW180 BKN280 11/M11 A2997 RMK AC2CI2 SLP154

CYQG;2013-04-05 00:00;CYQG 050000Z 21010KT 15SM FEW180 BKN280 09/M11 A2997 RMK AC1CI2 SLP154

CYQG;2013-04-05 01:00;CYQG 050100Z 20008KT 15SM FEW180 05/M08 A2996 RMK AC1 SLP151

CYQG;2013-04-05 02:00;CYQG 050200Z 21005KT 15SM SKC 05/M07 A2996 RMK SLP152

CYQG;2013-04-05 03:00;CYQG 050300Z 23006KT 15SM FEW140 03/M05 A2995 RMK AC2 SLP149

CYQG;2013-04-05 04:00;CYQG 050400Z 26004KT 15SM BKN096 04/M03 A2995 RMK AC6 SLP146

CYQG;2013-04-05 05:00;CYQG 050500Z 27004KT 15SM BKN110 05/M03 A2993 RMK AC6 SLP142

CYQG;2013-04-05 06:00;CYQG 050600Z 00000KT 15SM BKN061 06/M03 A2993 RMK SC7 SLP141

CYQG;2013-04-05 07:00;CYQG 050700Z 34004KT 15SM BKN078 07/M05 A2993 RMK AC7 SLP141

CYQG;2013-04-05 08:00;CYQG 050800Z 04008KT 15SM SCT075 04/M00 A2996 RMK AC4 SLP149

CYQG;2013-04-05 09:00;CYQG 050900Z 03010KT 15SM BKN066 04/00 A2998 RMK AC6 SLP157

CYQG;2013-04-05 10:00;CYQG 051000Z 04009KT 10SM -SHSN BKN019 03/00 A3001 RMK SC6 SLP168

CYQG;2013-04-05 11:00;CYQG 051100Z 03010G15KT 7SM -SHSN OVC020 04/01 A3004 RMK SC8 SLP178

CYQG;2013-04-05 11:29;CYQG 051129Z 36007KT 8SM FEW018 RMK SC1

CYQG;2013-04-05 12:00;CYQG 051200Z 01007KT 8SM FEW017 03/M01 A3008 RMK SC1 SLP190

CYQG;2013-04-05 13:00;CYQG 051300Z 36012KT 12SM FEW017 SCT037 04/M04 A3010 RMK SC1SC3 SLP198

CYQG;2013-04-05 14:00;CYQG 051400Z 36009KT 15SM FEW038 04/M07 A3010 RMK SC1 SLP197

CYQG;2013-04-05 15:00;CYQG 051500Z 34008KT 15SM FEW044 05/M06 A3011 RMK SC2 SLP203

CYQG;2013-04-05 16:00;CYQG 051600Z 01009KT 15SM FEW045 06/M07 A3012 RMK SC1 SLP205

CYQG;2013-04-05 17:00;CYQG 051700Z 36008G18KT 15SM FEW055 07/M08 A3012 RMK SC1 SLP205

CYQG;2013-04-05 18:00;CYQG 051800Z 06011KT 15SM FEW060 07/M05 A3011 RMK CU1 SLP202

CYQG;2013-04-05 19:00;CYQG 051900Z 06010G18KT 15SM FEW055 08/M05 A3011 RMK CU1 SLP201

CYQG;2013-04-05 20:00;CYQG 052000Z 06016KT 15SM FEW055 08/M05 A3010 RMK CU1 SLP197

CYQG;2013-04-05 21:00;CYQG 052100Z 06013G18KT 15SM FEW055 06/M05 A3011 RMK CU1 SLP200

CYQG;2013-04-05 22:00;CYQG 052200Z 08014KT 15SM FEW055 FEW280 05/M04 A3012 RMK CU1CI1 SLP206

CYQG;2013-04-05 23:00;CYQG 052300Z 07012KT 15SM SCT300 04/M05 A3015 RMK CI2 CONTRAILS SLP215

CYQG;2013-04-06 00:00;CYQG 060000Z 07010KT 15SM BKN300 03/M05 A3017 RMK CI2 SLP221

CYQG;2013-04-06 01:00;CYQG 060100Z 07005KT 15SM BKN240 02/M05 A3019 RMK CI1 SLP230

CYQG;2013-04-06 02:00;CYQG 060200Z 08007KT 15SM SKC 01/M05 A3021 RMK SLP237

CYQG;2013-04-06 03:00;CYQG 060300Z 07004KT 15SM SKC M00/M06 A3022 RMK SLP240

CYQG;2013-04-06 04:00;CYQG 060400Z 10005KT 15SM SKC M01/M07 A3022 RMK SLP240

CYQG;2013-04-06 05:00;CYQG 060500Z 10006KT 15SM SKC M01/M10 A3022 RMK SLP241

CYQG;2013-04-06 06:00;CYQG 060600Z 10005KT 15SM FEW230 M02/M11 A3023 RMK CI1 SLP242

CYQG;2013-04-06 07:00;CYQG 060700Z 10003KT 15SM FEW110 M02/M11 A3024 RMK AC2 SLP246

CYQG;2013-04-06 08:00;CYQG 060800Z 12002KT 15SM BKN099 M02/M10 A3024 RMK AC7 SLP248

CYQG;2013-04-06 09:00;CYQG 060900Z 08005KT 15SM OVC099 M01/M10 A3024 RMK AC8 SLP246

CYQG;2013-04-06 10:00;CYQG 061000Z 10005KT 15SM BKN086 M01/M10 A3024 RMK AC7 SLP247

CYQG;2013-04-06 11:00;CYQG 061100Z 11002KT 15SM BKN077 M00/M09 A3026 RMK AC7 SLP252

CYQG;2013-04-06 12:00;CYQG 061200Z 13004KT 15SM BKN070 00/M08 A3027 RMK AC7 SLP258

CYQG;2013-04-06 13:00;CYQG 061300Z 13009KT 15SM BKN085 01/M07 A3026 RMK AC7 SLP256

CYQG;2013-04-06 14:00;CYQG 061400Z 14012KT 15SM OVC080 02/M09 A3027 RMK AC8 SLP257

CYQG;2013-04-06 15:00;CYQG 061500Z 14013KT 15SM FEW061 BKN075 03/M09 A3024 RMK SC1AC6 SLP247

CYQG;2013-04-06 16:00;CYQG 061600Z 15014G19KT 15SM OVC067 04/M08 A3023 RMK AC7 SLP244

CYQG;2013-04-06 17:00;CYQG 061700Z 15015G21KT 15SM SCT070 OVC210 06/M08 A3020 RMK AC3CS4 SLP235

CYQG;2013-04-06 18:00;CYQG 061800Z 17010KT 15SM FEW130 OVC220 07/M07 A3016 RMK AC2CS6 SLP220

CYQG;2013-04-06 19:00;CYQG 061900Z 16015KT 15SM OVC130 08/M07 A3012 RMK AS8 SLP205

CYQG;2013-04-06 20:00;CYQG 062000Z 16014KT 15SM OVC120 08/M07 A3007 RMK AS8 SLP189

CYQG;2013-04-06 21:00;CYQG 062100Z 14015KT 15SM BKN140 OVC280 09/M06 A3002 RMK AS5CI3 SLP171

CYQG;2013-04-06 23:00;CYQG 062300Z 13011KT 15SM BKN140 OVC280 07/M05 A2997 RMK AS7CI1 SLP155

CYQG;2013-04-07 00:00;CYQG 070000Z 13011KT 15SM FEW120 OVC140 05/M04 A2994 RMK AS2AC6 SLP145

CYQG;2013-04-07 01:00;CYQG 070100Z 10005KT 15SM OVC140 05/M03 A2992 RMK AS8 SLP139

CYQG;2013-04-07 02:00;CYQG 070200Z 13006KT 15SM OVC140 04/M03 A2989 RMK AS8 SLP130

CYQG;2013-04-07 03:00;CYQG 070300Z 14005KT 15SM OVC140 06/M02 A2985 RMK AS8 PRESFR SLP113

CYQG;2013-04-07 04:00;CYQG 070400Z 18011KT 15SM OVC140 09/M04 A2981 RMK AS8 SLP099

CYQG;2013-04-07 05:00;CYQG 070500Z 19013KT 15SM OVC089 11/M05 A2978 RMK AC8 SLP090

CYQG;2013-04-07 06:00;CYQG 070600Z 19014G21KT 15SM OVC091 12/M03 A2975 RMK AC8 SLP077

CYQG;2013-04-07 07:00;CYQG 070700Z 20015KT 15SM OVC096 13/M01 A2970 RMK AC8 PRESFR SLP060

CYQG;2013-04-07 08:00;CYQG 070800Z 20018G25KT 15SM OVC084 13/00 A2966 RMK AC8 SLP048

CYQG;2013-04-07 09:00;CYQG 070900Z 20018G26KT 15SM FEW080 BKN150 13/01 A2965 RMK AC2AC4 SLP043

CYQG;2013-04-07 10:00;CYQG 071000Z 21012KT 15SM BKN057 12/03 A2964 RMK SC5 SLP041

CYQG;2013-04-07 11:00;CYQG 071100Z 21015G20KT 15SM FEW055 12/04 A2964 RMK SC2 SLP041

CYQG;2013-04-07 12:00;CYQG 071200Z 24026G33KT 15SM BKN040 BKN260 15/06 A2967 RMK SC6CI1 SLP048

CYQG;2013-04-07 13:00;CYQG 071300Z 25021G27KT 15SM BKN036 BKN260 14/07 A2969 RMK SC6CI1 SLP057

CYQG;2013-04-07 14:00;CYQG 071400Z 26017G29KT 15SM BKN032 BKN240 14/07 A2972 RMK SC5CS2 CI ASOCTD SLP065

CYQG;2013-04-07 15:00;CYQG 071500Z 27019G25KT 15SM SCT032 BKN240 14/06 A2976 RMK SC4CS2 SLP080

CYQG;2013-04-07 16:00;CYQG 071600Z 27023G29KT 10SM BKN031 BKN270 14/05 A2980 RMK SC6CI1 TR CI SLP094

CYQG;2013-04-07 17:00;CYQG 071700Z 30014G26KT 12SM BKN034 BKN270 13/04 A2983 RMK SC7CI1 TR CI CONTRAILS SLP102

CYQG;2013-04-07 18:00;CYQG 071800Z 30015KT 15SM BKN035 13/04 A2986 RMK SC7 SLP114

CYQG;2013-04-07 19:00;CYQG 071900Z 29014G20KT 15SM FEW038 BKN270 13/03 A2989 RMK SC2CI1 CONTRAILS SLP125

CYQG;2013-04-07 20:00;CYQG 072000Z 28014G20KT 15SM FEW043 BKN270 13/03 A2992 RMK SC2CI2 CONTRAILS SLP132

CYQG;2013-04-07 21:00;CYQG 072100Z 31015G21KT 15SM FEW043 BKN280 12/02 A2994 RMK SC2CI2 CONTRAILS SLP139

CYQG;2013-04-07 22:00;CYQG 072200Z 31011G17KT 15SM FEW025 FEW280 12/02 A2995 RMK CF1CI1 TR CF SLP145

CYQG;2013-04-07 23:00;CYQG 072300Z 31009KT 15SM FEW280 11/01 A2997 RMK CI1 SLP151

CYQG;2013-04-08 00:00;CYQG 080000Z 35006KT 15SM BKN280 09/01 A2998 RMK CI4 CONTRAILS SLP155

CYQG;2013-04-08 01:00;CYQG 080100Z 02008KT 15SM SCT280 07/00 A3000 RMK CI2 SLP161

CYQG;2013-04-08 02:00;CYQG 080200Z 02006KT 15SM OVC280 07/M00 A3002 RMK CI6 SLP167

CYQG;2013-04-08 03:00;CYQG 080300Z 04006KT 15SM OVC280 05/00 A3002 RMK CI6 SLP170

CYQG;2013-04-08 04:00;CYQG 080400Z 06006KT 15SM OVC210 05/00 A3004 RMK CI6 SLP174

CYQG;2013-04-08 05:00;CYQG 080500Z 06003KT 15SM BKN250 04/00 A3006 RMK CI5 SLP182

CYQG;2013-04-08 06:00;CYQG 080600Z 09005KT 15SM FEW250 04/00 A3005 RMK CI1 SLP180

CYQG;2013-04-08 07:00;CYQG 080700Z 09005KT 15SM FEW250 03/00 A3004 RMK CI1 SLP176

CYQG;2013-04-08 08:00;CYQG 080800Z CCB 12003KT 15SM SKC 02/M01 A3003 RMK SLP174

CYQG;2013-04-08 09:00;CYQG 080900Z 09002KT 15SM FEW220 01/M01 A3002 RMK CI2 SLP171

CYQG;2013-04-08 10:00;CYQG 081000Z 08004KT 15SM FEW180 01/M02 A3001 RMK AC2 SLP168

CYQG;2013-04-08 11:00;CYQG 081100Z 13003KT 10SM BKN260 02/M01 A3001 RMK CI3 CONTRAILS SLP167

CYQG;2013-04-08 12:00;CYQG 081200Z 09007KT 12SM BKN240 03/00 A2998 RMK CS2 PRESFR SLP157

CYQG;2013-04-08 13:00;CYQG 081300Z 12011KT 12SM SCT240 BKN270 06/02 A2999 RMK CS2CI1 SLP159

CYQG;2013-04-08 14:00;CYQG 081400Z 13011G17KT 12SM FEW072 SCT200 BKN240 09/03 A2996 RMK AC2CC2CS2 SLP150

CYQG;2013-04-08 15:00;CYQG 081500Z 13012KT 9SM FEW072 BKN160 OVC250 11/04 A2992 RMK AC2AS3CS3 SLP137

CYQG;2013-04-08 15:31;CYQG 081531Z 13010KT 4SM -SHRA BKN062 OVC160 RMK SC5AS3

CYQG;2013-04-08 16:00;CYQG 081600Z 13009KT 6SM -SHRA BKN062 OVC160 11/06 A2989 RMK SC6AS2 SLP125

CYQG;2013-04-08 17:00;CYQG 081700Z 12009KT 6SM -SHRA SCT048 OVC078 10/05 A2986 RMK SC4AC4 SLP114

CYQG;2013-04-08 17:30;CYQG 081730Z 13011KT 6SM HZ FEW048 OVC100 RMK SC2AC6

CYQG;2013-04-08 17:50;CYQG 081750Z 12005KT 5SM -SHRA HZ FEW063 OVC100 RMK SC2AC6

CYQG;2013-04-08 18:00;CYQG 081800Z 12005KT 5SM -SHRA HZ FEW064 OVC100 10/06 A2982 RMK SC2AC6 PRESFR SLP103

CYQG;2013-04-08 19:00;CYQG 081900Z 14008KT 5SM -SHRA BR BKN039 OVC090 09/07 A2980 RMK SC6AC2 SLP094

CYQG;2013-04-08 19:18;CYQG 081918Z 14008KT 6SM BR OVC042 RMK SC8

CYQG;2013-04-08 20:00;CYQG 082000Z 15008KT 6SM -SHRA BR BKN049 OVC070 11/09 A2975 RMK SC6AC2 SLP079

CYQG;2013-04-08 20:48;CYQG 082048Z 16010KT 12SM SCT045 BKN086 RMK CU3AC4

CYQG;2013-04-08 21:00;CYQG 082100Z 17008KT 15SM FEW045 BKN085 13/11 A2972 RMK CU2AC5 SLP067

CYQG;2013-04-08 21:21;CYQG 082121Z 19011KT 12SM -SHRA BKN048 OVC085 RMK CU5AC3

CYQG;2013-04-08 21:44;CYQG 082144Z 20012KT 15SM SCT048 BKN085 RMK CU3AC4

CYQG;2013-04-08 22:00;CYQG 082200Z 21019G26KT 15SM FEW045 BKN072 BKN280 18/13 A2971 RMK CU2AC4CI1 SLP063

CYQG;2013-04-08 23:00;CYQG 082300Z 23012KT 15SM BKN042 BKN085 19/13 A2972 RMK CU6AC2 SLP068

CYQG;2013-04-09 00:00;CYQG 090000Z 26015G21KT 15SM FEW062 19/11 A2977 RMK CU2 SLP082

CYQG;2013-04-09 01:00;CYQG 090100Z 27026G31KT 15SM FEW060 17/09 A2981 RMK SC2 SLP097

CYQG;2013-04-09 02:00;CYQG 090200Z 27019G31KT 15SM FEW065 14/07 A2987 RMK SC1 SLP118

CYQG;2013-04-09 03:00;CYQG 090300Z 28017G25KT 15SM FEW270 10/06 A2992 RMK CI1 SLP135

CYQG;2013-04-09 04:00;CYQG 090400Z 29010KT 15SM BKN270 09/06 A2994 RMK CS2 SLP142

CYQG;2013-04-09 05:00;CYQG 090500Z 30007KT 15SM BKN270 09/06 A2998 RMK CS6 SLP156

CYQG;2013-04-09 06:00;CYQG 090600Z 34012KT 15SM BKN270 08/05 A3000 RMK CS2 SLP162

CYQG;2013-04-09 07:00;CYQG 090700Z 36005KT 12SM FEW015 BKN270 08/05 A3002 RMK SC2CS2 SLP168

CYQG;2013-04-09 07:42;CYQG 090742Z 36004KT 12SM BKN013 BKN270 RMK SC6CS1

CYQG;2013-04-09 08:00;CYQG 090800Z 35007KT 15SM BKN013 BKN260 07/05 A3004 RMK SC6CI1 SLP176

CYQG;2013-04-09 08:53;CYQG 090853Z 02002KT 15SM BKN009 BKN260 RMK SC6CI1

CYQG;2013-04-09 09:00;CYQG 090900Z 04002KT 15SM BKN009 BKN260 06/04 A3006 RMK SF5CI2 SLP182

CYQG;2013-04-09 09:17;CYQG 090917Z 00000KT 15SM FEW008 SCT270 RMK SF2CI1

CYQG;2013-04-09 10:00;CYQG 091000Z 02002KT 15SM FEW008 BKN270 05/04 A3008 RMK SF1CI2 SLP188

CYQG;2013-04-09 11:00;CYQG 091100Z 05005KT 8SM SCT051 BKN250 04/03 A3010 RMK SC4CI1 SLP194

CYQG;2013-04-09 11:15;CYQG 091115Z 07003KT 6SM BR FEW008 BKN050 OVC250 RMK SF2SC5CI2

CYQG;2013-04-09 11:35;CYQG 091135Z 07007KT 6SM BR BKN007 OVC050 RMK SF5SC3

CYQG;2013-04-09 12:00;CYQG 091200Z 08006KT 6SM BR OVC007 05/04 A3011 RMK SC8 SLP200

CYQG;2013-04-09 12:13;CYQG 091213Z 08009KT 5SM BR OVC004 RMK SC8

CYQG;2013-04-09 12:28;CYQG 091228Z 08009KT 3SM BR OVC003 RMK FG2SC6

CYQG;2013-04-09 13:00;CYQG 091300Z 09007KT 3SM BR OVC004 05/04 A3011 RMK FG2SC6 SLP198

CYQG;2013-04-09 13:25;CYQG 091325Z 09008KT 2 1/2SM BR OVC004 RMK FG2SC6

CYQG;2013-04-09 14:00;CYQG 091400Z 12008KT 2SM BR OVC004 06/04 A3009 RMK FG2SC6 SLP191

CYQG;2013-04-09 14:40;CYQG 091440Z 11006KT 3SM BR BKN008 RMK SC7

CYQG;2013-04-09 15:00;CYQG 091500Z 12006KT 4SM HZ BKN008 08/06 A3009 RMK SC7 SLP194

CYQG;2013-04-09 15:15;CYQG 091515Z 13007KT 5SM HZ BKN011 BKN260 RMK SC7CI1

CYQG;2013-04-09 16:00;CYQG 091600Z 14007KT 5SM HZ SCT012 BKN037 OVC260 10/07 A3007 RMK SC3SC3CI2 SUN DIMLY VISBL SLP188

CYQG;2013-04-09 16:38;CYQG 091638Z 09008KT 5SM -SHRA HZ BKN044 OVC081 RMK SC5AC3

CYQG;2013-04-09 17:00;CYQG 091700Z 12008KT 5SM HZ BKN044 OVC069 10/06 A3003 RMK SC5AC3 OCNL -SHRA SLP174

CYQG;2013-04-09 17:10;CYQG 091710Z 11008KT 6SM HZ SCT044 OVC064 RMK SC3SC5

CYQG;2013-04-09 18:00;CYQG 091800Z 09007KT 5SM HZ BKN042 OVC077 09/06 A2999 RMK SC6AC2 PRESFR SLP160

CYQG;2013-04-09 19:00;CYQG 091900Z 06005KT 6SM HZ BKN062 OVC110 10/06 A2996 RMK SC6AC2 SLP149

CYQG;2013-04-09 20:00;CYQG 092000Z 07009KT 8SM SCT045 OVC110 10/07 A2992 RMK CU4AC4 SLP135

CYQG;2013-04-09 21:00;CYQG 092100Z 04008KT 8SM SCT085 OVC110 09/06 A2990 RMK AC3AC5 SLP130

CYQG;2013-04-09 21:24;CYQG 092124Z 03009KT 8SM -SHRA FEW090 OVC110 RMK AC2AC6

CYQG;2013-04-09 22:00;CYQG 092200Z 03011KT 8SM FEW070 OVC084 08/07 A2991 RMK AC2AC6 SLP131

CYQG;2013-04-09 22:54;CYQG 092254Z 03009KT 6SM -SHRA BR BKN064 OVC090 RMK CU6AC2

CYQG;2013-04-09 23:00;CYQG 092300Z 03008KT 4SM SHRA BR BKN062 OVC090 08/07 A2991 RMK CU6AC2 SLP132

CYQG;2013-04-09 23:07;CYQG 092307Z 04008KT 4SM -SHRA BR BKN062 OVC082 RERA RMK CU6AC2

CYQG;2013-04-09 23:44;CYQG 092344Z 01006KT 2SM -SHRA BR OVC074 RERA RMK AC8

CYQG;2013-04-10 00:00;CYQG 100000Z 01008KT 3SM -SHRA BR OVC072 08/07 A2993 RERA RMK AC8 SLP140

CYQG;2013-04-10 00:24;CYQG 100024Z 06005KT 5SM BR SCT080 OVC140 RMK AC3AC5

CYQG;2013-04-10 01:00;CYQG 100100Z 07004KT 8SM OVC081 08/07 A2990 RMK AC8 SLP130

CYQG;2013-04-10 02:00;CYQG 100200Z 03007KT 8SM SCT050 OVC075 09/07 A2995 RMK CU3AC5 LTGIC DIST NE SLP145

CYQG;2013-04-10 02:52;CYQG 100252Z 04009KT 5SM BR SCT008 OVC052 RMK SF3SC5

CYQG;2013-04-10 03:00;CYQG 100300Z 03010KT 4SM BR BKN009 OVC052 09/08 A2997 RMK SF5SC3 SLP152

CYQG;2013-04-10 03:32;CYQG 100332Z 04009KT 5SM BR OVC004 RMK SF8

CYQG;2013-04-10 04:00;CYQG 100400Z 04009KT 6SM BR OVC005 07/07 A2997 RMK SF8 SLP153

CYQG;2013-04-10 04:34;CYQG 100434Z 02008KT 12SM BKN006 OVC012 RMK SF6SC2

CYQG;2013-04-10 05:00;CYQG 100500Z 01006KT 15SM OVC007 07/06 A2998 RMK SF8 SLP157

CYQG;2013-04-10 06:00;CYQG 100600Z 05007KT 15SM BKN007 OVC013 07/05 A2997 RMK SF6SC2 SLP153

CYQG;2013-04-10 07:00;CYQG 100700Z 02008KT 12SM OVC006 07/06 A2997 RMK ST8 SLP153

CYQG;2013-04-10 08:00;CYQG 100800Z 04011KT 7SM OVC006 06/05 A2995 RMK ST8 SLP145

CYQG;2013-04-10 08:47;CYQG 100847Z 04007KT 7SM OVC005 RMK ST8

CYQG;2013-04-10 09:00;CYQG 100900Z 04008KT 7SM OVC005 06/05 A2995 RMK ST8 SLP145

CYQG;2013-04-10 09:14;CYQG 100914Z 04010KT 6SM -SHRA BR OVC005 RMK SF8

CYQG;2013-04-10 09:49;CYQG 100949Z 04010KT 5SM -SHRA BR OVC003 RMK SF8

CYQG;2013-04-10 10:00;CYQG 101000Z CCA 04008KT 5SM -SHRA BR OVC003 05/05 A2992 RMK SF8 SLP135

CYQG;2013-04-10 10:24;CYQG 101024Z 03009KT 4SM -SHRA BR OVC002 RMK SF8

CYQG;2013-04-10 10:43;CYQG 101043Z 04009KT 2SM -SHRA BR OVC002 RMK FG1SF7

CYQG;2013-04-10 10:53;CYQG 101053Z 04008KT 1SM -SHRA BR OVC002 RMK FG2SF6

CYQG;2013-04-10 11:00;CYQG 101100Z 03009KT 3/4SM -SHRA BR OVC002 05/04 A2994 RMK FG2SF6 SLP141

CYQG;2013-04-10 11:50;CYQG 101150Z 01008KT 3SM BR OVC004 RMK FG1SF7 OCNL -SHRA

CYQG;2013-04-10 12:00;CYQG 101200Z 01011KT 3SM BR OVC004 05/05 A2995 RMK SF8 OCNL -SHRA SLP147

CYQG;2013-04-10 13:00;CYQG 101300Z 04014KT 4SM BR OVC003 05/04 A2995 RMK SF8 OCNL -SHRA SLP145

CYQG;2013-04-10 14:00;CYQG 101400Z 03015KT 2 1/4SM -SHRA BR OVC003 05/04 A2995 RMK SF8 SLP148

CYQG;2013-04-10 14:07;CYQG 101407Z 03017KT 1 1/2SM -SHRA BR OVC003 RMK SF8

CYQG;2013-04-10 15:00;CYQG 101500Z 06010KT 1 1/2SM BR OVC003 05/04 A2992 RMK SF8 OCNL -SHRA SLP136

CYQG;2013-04-10 16:00;CYQG 101600Z 05004KT 1 1/2SM -SHRA BR OVC003 06/06 A2991 RMK SF8 SLP134

CYQG;2013-04-10 17:00;CYQG 101700Z 34014G22KT 1 1/4SM -SHRA BR OVC005 07/06 A2998 RMK SF8 SLP156

CYQG;2013-04-10 17:15;CYQG 101715Z 08006G15KT 5SM -SHRA BR FEW005 SCT010 OVC028 RMK SF1SC3SC4

CYQG;2013-04-10 17:28;CYQG 101728Z 06005KT 3SM -TSRA BR OVC025 RMK SC8 CB EMBD

CYQG;2013-04-10 17:52;CYQG 101752Z 08011KT 4SM -SHRA BR BKN005 OVC025 RETS RMK SF7SC1

CYQG;2013-04-10 18:00;CYQG 101800Z 10011KT 4SM -SHRA BR OVC005 06/06 A2986 RETS RMK SF8 SLP117

CYQG;2013-04-10 18:27;CYQG 101827Z 03009KT 4SM -TSRA BR OVC005 RMK SF8 EMBD CB

CYQG;2013-04-10 19:00;CYQG 101900Z 08009KT 3SM -TSRA BR OVC002 06/06 A2985 RMK SF8 EMBD CB SLP111

CYQG;2013-04-10 19:24;CYQG 101924Z 03015KT 4SM -SHRA BR OVC003 RETS RMK SF8

CYQG;2013-04-10 19:34;CYQG 101934Z 04010G15KT 5SM BR OVC003 RETS RMK SF8

CYQG;2013-04-10 19:50;CYQG 101950Z 02017KT 5SM BR OVC008 RETS RMK SF8

CYQG;2013-04-10 20:00;CYQG 102000Z CCA 02010G21KT 6SM BR OVC006 06/05 A2991 RETS RMK SF8 PRESRR SLP132

CYQG;2013-04-10 20:23;CYQG 102023Z 01009KT 6SM BR BKN005 OVC012 RMK SF6SC2

CYQG;2013-04-10 20:44;CYQG 102044Z 36010KT 5SM -SHRA BR SCT008 OVC012 RMK SF3SC5

CYQG;2013-04-10 21:00;CYQG 102100Z 36009KT 1 3/4SM -SHRA BR BKN006 OVC012 06/06 A2994 RMK FG2SF6SC1 SLP143

CYQG;2013-04-10 21:13;CYQG 102113Z 36008KT 3SM -SHRA BR BKN009 OVC012 RMK SF6SC2

CYQG;2013-04-10 21:53;CYQG 102153Z 01009G17KT 5SM -DZ BR OVC007 RMK SF8

CYQG;2013-04-10 22:00;CYQG 102200Z 02010KT 6SM -DZ BR OVC007 06/05 A2994 RMK SF8 SLP142

CYQG;2013-04-10 22:20;CYQG 102220Z 04009G15KT 6SM BR OVC008 RMK SF8

CYQG;2013-04-10 23:00;CYQG 102300Z 03014G19KT 6SM -SHRA BR OVC006 05/04 A2994 RMK SF8 SLP144

CYQG;2013-04-11 00:00;CYQG 110000Z 04014KT 6SM -SHRA BR OVC006 05/04 A2997 RMK SF8 SLP153

CYQG;2013-04-11 00:24;CYQG 110024Z 04016KT 6SM BR BKN004 OVC018 RMK SF6SC2

CYQG;2013-04-11 01:00;CYQG 110100Z 03012G17KT 4SM -DZ BR BKN004 OVC010 05/04 A2995 RMK SF6SC2 SLP149

CYQG;2013-04-11 01:34;CYQG 110134Z 03009G15KT 6SM BR OVC007 RMK SF8

CYQG;2013-04-11 02:00;CYQG 110200Z 03012KT 6SM BR OVC006 05/04 A2995 RMK SF8 SLP148

CYQG;2013-04-11 02:13;CYQG 110213Z 04014KT 4SM -DZ BR OVC005 RMK SF8

CYQG;2013-04-11 02:31;CYQG 110231Z 04011G17KT 2 1/2SM -DZ BR OVC004 RMK FG1SF7

CYQG;2013-04-11 03:00;CYQG 110300Z 04012KT 2SM -DZ BR OVC004 04/03 A2996 RMK FG1SF7 SLP151

CYQG;2013-04-11 04:00;CYQG 110400Z 03012KT 2 1/4SM -DZ BR OVC004 04/03 A2997 RMK FG1SF7 SLP155

CYQG;2013-04-11 05:00;CYQG 110500Z 04011KT 2 1/2SM -DZ BR OVC004 04/04 A2997 RMK FG1SF7 SLP155

CYQG;2013-04-11 05:50;CYQG 110550Z 03012KT 3SM -DZ BR OVC005 RMK SF8

CYQG;2013-04-11 06:00;CYQG 110600Z 04012KT 4SM -DZ BR OVC006 04/04 A2995 RMK SF8 SLP147

CYQG;2013-04-11 06:26;CYQG 110626Z 04012KT 7SM OVC010 RMK SC8

CYQG;2013-04-11 06:42;CYQG 110642Z 04013KT 8SM FEW009 OVC017 RMK SF2SC6

CYQG;2013-04-11 06:51;CYQG 110651Z 04010G21KT 7SM -SHRA FEW009 OVC017 RMK SF1SC7

CYQG;2013-04-11 07:00;CYQG 110700Z 04013KT 7SM -SHRA FEW008 BKN018 OVC035 04/04 A2993 RMK SF1SC6SC2 SLP142

CYQG;2013-04-11 08:00;CYQG 110800Z 04015KT 6SM -SHRA BR FEW007 SCT013 OVC034 04/04 A2989 RMK SF2SC2SC4 SLP126

CYQG;2013-04-11 08:24;CYQG 110824Z 05015KT 5SM SHRA BR BKN008 OVC014 RMK SF6SC2

CYQG;2013-04-11 08:27;CYQG 110827Z 06009G18KT 5SM TSRA BR BKN008 OVC014CB RMK SF6CB2

CYQG;2013-04-11 09:00;CYQG 110900Z 03009KT 4SM TSRA BR BKN007 OVC013CB 04/04 A2992 RMK SF7CB1 SLP137

CYQG;2013-04-11 09:23;CYQG 110923Z 01011KT 4SM SHRA BR OVC004 RETS RMK SF8

CYQG;2013-04-11 10:00;CYQG 111000Z 35010G19KT 5SM SHRA BR OVC004 04/03 A2996 RETS RMK SF8 /R17/ SLP150

CYQG;2013-04-11 10:47;CYQG 111047Z 08013KT 5SM SHRA BR OVC005 RMK SF8

CYQG;2013-04-11 11:00;CYQG 111100Z 08014KT 4SM -SHRA BR OVC006 04/03 A2990 RERA RMK SF8 PRESFR SLP129

CYQG;2013-04-11 11:26;CYQG 111126Z 06012G20KT 4SM -SHRA BR OVC011 RERA RMK SF8

CYQG;2013-04-11 12:00;CYQG 111200Z 09013G20KT 5SM -SHRA BR OVC008 04/03 A2992 RERA RMK SF8 SLP137

CYQG;2013-04-11 13:00;CYQG 111300Z 06014G20KT 6SM BR OVC008 04/03 A2992 RMK SF8 OCNL -SHRA SLP138

CYQG;2013-04-11 13:36;CYQG 111336Z 06017G27KT 8SM OVC011 RMK SF8

CYQG;2013-04-11 13:58;CYQG 111358Z 06015G21KT 8SM -SHRA OVC009 RMK SF8

CYQG;2013-04-11 14:00;CYQG 111400Z 06013G21KT 8SM -SHRA OVC009 04/02 A2993 RMK SF8 SLP142

CYQG;2013-04-11 14:10;CYQG 111410Z 07020G28KT 3SM -SHRA BR OVC010 RMK SF8

CYQG;2013-04-11 15:00;CYQG 111500Z 07019G25KT 6SM -SHRA BR OVC007 03/02 A2991 RMK SF8 SLP134

CYQG;2013-04-11 16:00;CYQG 111600Z 08022KT 6SM -SHRA BR OVC010 03/02 A2993 RMK SF8 SLP140

CYQG;2013-04-11 17:00;CYQG 111700Z 07019G25KT 5SM -SHRA BR OVC008 03/02 A2990 RMK SF8 SLP132

CYQG;2013-04-11 18:00;CYQG 111800Z 07016G27KT 6SM -SHRA BR OVC009 03/02 A2991 RMK SF8 SLP134

CYQG;2013-04-11 19:00;CYQG 111900Z 08017G22KT 8SM -SHRA OVC010 03/01 A2989 RMK SF8 SLP127

CYQG;2013-04-11 20:00;CYQG 112000Z 09015G22KT 12SM OVC014 04/01 A2985 RMK SF8 OCNL -SHRA SLP114

CYQG;2013-04-11 20:20;CYQG 112020Z 09021G28KT 12SM OVC012 RMK SC8

CYQG;2013-04-11 21:00;CYQG 112100Z 09015G21KT 15SM OVC011 04/01 A2984 RMK SC8 SLP109

CYQG;2013-04-11 21:24;CYQG 112124Z 09014G25KT 15SM -SHRA OVC011 RMK SC8

CYQG;2013-04-11 22:00;CYQG 112200Z 09018G24KT 12SM -SHRA OVC011 04/01 A2982 RMK SC8 SLP102

CYQG;2013-04-11 22:28;CYQG 112228Z 09019G24KT 8SM -SHRA BKN009 OVC012 RMK SF5SC3

CYQG;2013-04-11 23:00;CYQG 112300Z 09018G26KT 7SM -RA OVC007 03/02 A2980 RMK SF8 SLP095

CYQG;2013-04-12 00:00;CYQG 120000Z 09017G22KT 6SM -RA BR OVC009 03/02 A2977 RMK SF8 SLP086

CYQG;2013-04-12 01:00;CYQG 120100Z 08019KT 6SM -RA BR OVC007 03/02 A2974 RMK SF8 SLP077

CYQG;2013-04-12 02:00;CYQG 120200Z 08017KT 6SM -RA BR OVC006 03/02 A2973 RMK SF8 SLP073

CYQG;2013-04-12 03:00;CYQG 120300Z 09014G21KT 5SM -RA BR BKN008 OVC013 03/02 A2971 RMK SF6SC2 SLP066

CYQG;2013-04-12 04:00;CYQG 120400Z 09019G24KT 6SM -RA BR OVC009 02/01 A2965 RMK SF8 SLP047

CYQG;2013-04-12 04:25;CYQG 120425Z 08020G25KT 5SM RA BR OVC007 RMK SF8

CYQG;2013-04-12 04:41;CYQG 120441Z 08019G24KT 6SM -RA BR OVC007 RERA RMK SF8

CYQG;2013-04-12 05:00;CYQG 120500Z 08019G25KT 7SM -RA OVC007 02/02 A2960 RERA RMK SF8 SLP030

CYQG;2013-04-12 06:00;CYQG 120600Z 08008G20KT 8SM -RA OVC007 03/02 A2960 RMK SF8 SLP028

CYQG;2013-04-12 06:23;CYQG 120623Z 08017KT 5SM RA BR BKN007 OVC013 RMK SF6SC2

CYQG;2013-04-12 07:00;CYQG 120700Z 09013KT 7SM -RA SCT007 OVC013 03/02 A2955 RERA RMK SF3SC5 SLP012

CYQG;2013-04-12 07:35;CYQG 120735Z 08007KT 10SM -RA OVC009 RMK SF8

CYQG;2013-04-12 08:00;CYQG 120800Z 07009KT 8SM -RA OVC008 03/02 A2954 RMK SF8 SLP008

CYQG;2013-04-12 08:52;CYQG 120852Z 08009KT 2 1/2SM RA BR OVC008 RMK SF8

CYQG;2013-04-12 09:00;CYQG 120900Z 08008KT 2 1/2SM RA BR OVC005 03/02 A2954 RMK SF8 SLP007

CYQG;2013-04-12 09:15;CYQG 120915Z 04008KT 4SM RA BR OVC004 RMK SF8

CYQG;2013-04-12 10:00;CYQG 121000Z 36007KT 5SM -RA BR BKN004 OVC011 03/02 A2955 RERA RMK SF5SC3 SLP010

CYQG;2013-04-12 10:49;CYQG 121049Z 02008KT 6SM -RA BR BKN005 OVC015 RMK SF6SC2

CYQG;2013-04-12 11:00;CYQG 121100Z 01009KT 6SM -RA BR BKN005 OVC015 03/02 A2951 RMK SF7SC1 SLP999

CYQG;2013-04-12 12:00;CYQG 121200Z 34006KT 6SM -RA BR OVC008 03/02 A2955 RMK SF8 SLP013

CYQG;2013-04-12 12:37;CYQG 121237Z 31003KT 6SM BR BKN008 OVC015 RMK SF7SC1

CYQG;2013-04-12 12:58;CYQG 121258Z 30003KT 1 1/2SM -DZ BR OVC007 RMK SF8

CYQG;2013-04-12 13:00;CYQG 121300Z 31003KT 1 1/2SM -DZ BR OVC007 03/02 A2958 RMK SF8 SLP021

CYQG;2013-04-12 14:00;CYQG 121400Z 25006KT 2 1/2SM -DZ BR OVC005 04/03 A2958 RMK SF8 SLP023

CYQG;2013-04-12 15:00;CYQG 121500Z 25007KT 2 1/2SM -DZ BR OVC005 04/03 A2960 RMK SF8 SLP029

CYQG;2013-04-12 15:22;CYQG 121522Z 24011KT 6SM BR OVC006 RMK SF8

CYQG;2013-04-12 16:00;CYQG 121600Z 24010KT 10SM OVC016 05/04 A2961 RMK SF8 SLP034

CYQG;2013-04-12 16:34;CYQG 121634Z 25010G15KT 6SM -DZ OVC013 RMK SF8

CYQG;2013-04-12 17:00;CYQG 121700Z 24015G22KT 6SM -DZ OVC018 05/04 A2963 RMK SF8 -DZ INTMT SLP039

CYQG;2013-04-12 18:00;CYQG 121800Z 25017G22KT 6SM -DZ BKN017 OVC020 06/03 A2965 RMK SF6SC2 -DZ INTMT SLP045

CYQG;2013-04-12 19:00;CYQG 121900Z 23013KT 10SM FEW017 BKN046 06/01 A2967 RMK SC2SC5 SLP052

CYQG;2013-04-12 20:00;CYQG 122000Z 25018G24KT 12SM FEW017 OVC040 05/M01 A2968 RMK SC1SC7 SLP057

CYQG;2013-04-12 21:00;CYQG 122100Z 24012G19KT 12SM FEW017 OVC043 05/00 A2971 RMK SC2SC6 SLP064

CYQG;2013-04-12 22:00;CYQG 122200Z 23015G20KT 12SM SCT022 OVC037 05/00 A2973 RMK SC3SC5 SLP072

CYQG;2013-04-12 23:00;CYQG 122300Z 24010G16KT 12SM BKN025 OVC039 05/01 A2974 RMK SC5SC3 SLP077

CYQG;2013-04-13 00:00;CYQG 130000Z 23012KT 12SM SCT025 OVC042 05/01 A2975 RMK SC3SC5 SLP079

CYQG;2013-04-13 01:00;CYQG 130100Z 23014KT 15SM FEW022 OVC058 05/01 A2976 RMK SC2SC6 SLP083

CYQG;2013-04-13 02:00;CYQG 130200Z 23011KT 15SM FEW025 OVC049 05/01 A2977 RMK SC2SC6 SLP088

CYQG;2013-04-13 03:00;CYQG 130300Z 23012KT 15SM FEW025 OVC059 05/02 A2978 RMK SC2SC6 SLP089

CYQG;2013-04-13 04:00;CYQG 130400Z 23014KT 12SM BKN017 OVC062 05/02 A2978 RMK SC5SC3 SLP090

CYQG;2013-04-13 04:25;CYQG 130425Z 24013KT 12SM -DZ BKN017 BKN034 RMK SC6SC2

CYQG;2013-04-13 05:00;CYQG 130500Z 24014G19KT 10SM -DZ OVC016 05/03 A2979 RMK SC8 -DZ INTMT SLP093

CYQG;2013-04-13 05:40;CYQG 130540Z 24014G19KT 12SM BKN029 OVC062 RMK SC6SC2

CYQG;2013-04-13 06:00;CYQG 130600Z 25013KT 12SM SCT030 OVC062 05/02 A2979 RMK SC3SC5 SLP093

CYQG;2013-04-13 06:35;CYQG 130635Z 25014G19KT 8SM -SHRA OVC028 RMK SC8

CYQG;2013-04-13 07:00;CYQG 130700Z 25016KT 8SM -DZ BKN019 OVC043 05/02 A2979 RMK SC5SC3 SLP093

CYQG;2013-04-13 07:28;CYQG 130728Z 26014KT 8SM BKN017 OVC050 RMK SC7SC1

CYQG;2013-04-13 08:00;CYQG 130800Z 25011G19KT 8SM FEW018 OVC042 04/02 A2980 RMK SC2SC6 SLP097

CYQG;2013-04-13 09:00;CYQG 130900Z 26013G18KT 8SM OVC029 04/01 A2982 RMK SC8 SLP102

CYQG;2013-04-13 09:05;CYQG 130905Z 26014KT 8SM -SHRA OVC030 RMK SC8

CYQG;2013-04-13 09:50;CYQG 130950Z 26012KT 12SM BKN042 RMK SC7

CYQG;2013-04-13 10:00;CYQG 131000Z 25012KT 15SM BKN045 03/01 A2981 RMK SC7 SLP101

CYQG;2013-04-13 11:00;CYQG 131100Z 25011KT 12SM FEW020 OVC051 04/M01 A2981 RMK SC1SC7 SLP101

CYQG;2013-04-13 12:00;CYQG 131200Z 23009KT 15SM SCT025 BKN049 04/M01 A2982 RMK SC3SC4 SLP103

CYQG;2013-04-13 12:44;CYQG 131244Z 24011KT 15SM -RA SCT025 OVC050 RMK SC3SC5

CYQG;2013-04-13 13:00;CYQG 131300Z 23014KT 15SM FEW020 OVC047 04/00 A2983 RMK SC2SC6 SLP105

CYQG;2013-04-13 13:10;CYQG 131310Z 24012KT 15SM -SHRA SCT016 OVC050 RMK CU4SC4

CYQG;2013-04-13 13:44;CYQG 131344Z 23015G21KT 15SM FEW020 OVC049 RMK CU2SC6

CYQG;2013-04-13 14:00;CYQG 131400Z 25016G22KT 15SM SCT025 OVC048 04/01 A2983 RMK CU3SC5 SLP105

CYQG;2013-04-13 15:00;CYQG 131500Z 25013G20KT 15SM -SHRA BKN036 OVC050 05/M02 A2984 RMK CU7SC1 SLP109

CYQG;2013-04-13 15:47;CYQG 131547Z 27012KT 15SM SCT035 OVC047 RMK CU3SC5

CYQG;2013-04-13 16:00;CYQG 131600Z 26011KT 15SM FEW035 OVC043 05/M00 A2985 RMK CU2SC6 SLP112

CYQG;2013-04-13 17:00;CYQG 131700Z 28010G16KT 15SM -SHRA BKN031 OVC045 05/M01 A2985 RMK CU7SC1 SLP112

CYQG;2013-04-13 17:35;CYQG 131735Z 27018KT 15SM VCSH FEW025 OVC041 RMK CU2CU6

CYQG;2013-04-13 17:52;CYQG 131752Z 26018KT 15SM -SHRA FEW030 OVC049 RMK CU2CU6

CYQG;2013-04-13 18:00;CYQG 131800Z 26018G25KT 15SM -SHRASN FEW030 OVC045 04/M01 A2986 RMK CU2CU6 SLP117

CYQG;2013-04-13 18:20;CYQG 131820Z 25016G22KT 15SM -SHRA SCT040 OVC061 RMK CU3SC5

CYQG;2013-04-13 18:44;CYQG 131844Z 23018KT 15SM SCT034 BKN062 RMK CU4SC3

CYQG;2013-04-13 19:00;CYQG 131900Z 24018G24KT 12SM VCSH SCT035 BKN070 06/M01 A2985 RMK CU3AC4 SHWRS NW SLP114

CYQG;2013-04-13 20:00;CYQG 132000Z 26019KT 12SM SCT035 BKN069 06/M02 A2986 RMK CU3AC4 SLP117

CYQG;2013-04-13 21:00;CYQG 132100Z 26019G25KT 15SM VCSH SCT035 BKN074 05/M02 A2988 RMK CU3AC4 SH + VIRGO SE SLP122

CYQG;2013-04-13 22:00;CYQG 132200Z 26019G24KT 15SM VCSH FEW035 BKN067 06/M02 A2990 RMK CU2AC4 SH NW + NE SLP130

CYQG;2013-04-13 23:00;CYQG 132300Z 28016G22KT 15SM FEW036 OVC047 05/M04 A2993 RMK CU1SC7 SLP139

CYQG;2013-04-14 00:00;CYQG 140000Z 27008G16KT 15SM BKN058 05/M04 A2994 RMK SC7 SLP143

CYQG;2013-04-14 01:00;CYQG 140100Z 27009KT 15SM BKN056 04/M03 A2996 RMK SC7 SLP150

CYQG;2013-04-14 02:00;CYQG 140200Z 26007KT 15SM BKN056 04/M03 A2997 RMK SC7 SLP155

CYQG;2013-04-14 03:00;CYQG 140300Z 24007KT 15SM OVC062 04/M03 A2999 RMK SC8 SLP160

CYQG;2013-04-14 04:00;CYQG 140400Z 25009G15KT 15SM OVC067 04/M03 A2999 RMK AC8 SLP162

CYQG;2013-04-14 05:00;CYQG 140500Z 24006KT 15SM OVC061 04/M01 A3000 RMK SC8 SLP163

CYQG;2013-04-14 06:00;CYQG 140600Z 24005KT 15SM OVC052 04/M01 A3001 RMK SC8 SLP168

CYQG;2013-04-14 07:00;CYQG 140700Z 23006KT 15SM OVC061 04/M01 A3001 RMK SC8 SLP167

CYQG;2013-04-14 08:00;CYQG 140800Z 25005KT 15SM BKN056 04/M02 A3001 RMK SC7 SLP169

CYQG;2013-04-14 09:00;CYQG 140900Z 25003KT 15SM SCT046 03/M02 A3003 RMK SC3 SLP175

CYQG;2013-04-14 10:00;CYQG 141000Z 24003KT 15SM FEW050 01/M02 A3004 RMK SC1 SLP177

CYQG;2013-04-14 11:00;CYQG 141100Z 24004KT 15SM SCT054 BKN110 BKN260 02/M02 A3007 RMK SC4AC3CI1 TR CI SLP187

CYQG;2013-04-14 12:00;CYQG 141200Z 24002KT 15SM SCT050 BKN090 03/M01 A3009 RMK SC3AC4 SLP194

CYQG;2013-04-14 13:00;CYQG 141300Z 32005KT 15SM BKN056 BKN090 04/M03 A3008 RMK SC6AC2 SLP192

CYQG;2013-04-14 14:00;CYQG 141400Z 26003KT 15SM SCT055 BKN073 04/M03 A3008 RMK SC3AC4 SLP193

CYQG;2013-04-14 15:00;CYQG 141500Z 19005KT 15SM -SHRA FEW025 BKN061 BKN080 04/M02 A3011 RMK CF1SC6AC2 TR CF SLP201

CYQG;2013-04-14 16:00;CYQG 141600Z 19006KT 15SM -SHRA FEW025 BKN045 OVC065 04/M01 A3013 RMK CF2SC3SC2 SLP207

CYQG;2013-04-14 17:00;CYQG 141700Z 19002KT 15SM -RA FEW030 OVC060 04/M00 A3011 RMK CU2SC6 SLP202

CYQG;2013-04-14 18:00;CYQG 141800Z 13002KT 12SM -RA FEW030 OVC070 04/01 A3009 RMK CU2AC6 SLP196

CYQG;2013-04-14 19:00;CYQG 141900Z 12006KT 12SM FEW030 BKN078 06/02 A3008 RMK CU2AC6 SLP192

CYQG;2013-04-14 20:00;CYQG 142000Z 11007KT 12SM FEW030 BKN074 07/02 A3006 RMK CU1AC6 SLP185

CYQG;2013-04-14 21:00;CYQG 142100Z 07010KT 12SM FEW018 SCT074 08/03 A3003 RMK CU1AC2 SLP175

CYQG;2013-04-14 22:00;CYQG 142200Z 11011KT 10SM FEW017 FEW075 SCT230 08/02 A3004 RMK CU1AC1CI1 SLP177

CYQG;2013-04-14 23:00;CYQG 142300Z 11010KT 12SM FEW080 BKN230 07/01 A3004 RMK AC1CI3 SLP176

CYQG;2013-04-15 00:00;CYQG 150000Z 08010KT 12SM FEW080 BKN230 06/01 A3003 RMK AC1CI3 SLP175

CYQG;2013-04-15 01:00;CYQG 150100Z 08009KT 15SM FEW070 SCT170 05/01 A3002 RMK AC1AC3 SLP171

CYQG;2013-04-15 02:00;CYQG 150200Z 09011KT 15SM FEW070 FEW170 04/01 A3001 RMK AC1AC2 SLP168

CYQG;2013-04-15 03:00;CYQG 150300Z 08009KT 15SM FEW070 FEW170 04/00 A2998 RMK AC1AC1 SLP157

CYQG;2013-04-15 04:00;CYQG 150400Z 09006KT 15SM SKC 04/01 A2996 RMK SLP151

CYQG;2013-04-15 05:00;CYQG 150500Z 11009KT 15SM SKC 05/01 A2994 RMK SLP144

CYQG;2013-04-15 06:00;CYQG 150600Z 10010KT 15SM SKC 05/01 A2993 RMK SLP141

CYQG;2013-04-15 07:00;CYQG 150700Z 11006KT 15SM SKC 04/01 A2992 RMK SLP137

CYQG;2013-04-15 08:00;CYQG 150800Z 09007KT 15SM FEW260 05/01 A2992 RMK CI1 SLP136

CYQG;2013-04-15 09:00;CYQG 150900Z 00000KT 15SM FEW250 04/01 A2994 RMK CI1 SLP144

CYQG;2013-04-15 10:00;CYQG 151000Z 08004KT 15SM FEW180 FEW250 03/01 A2996 RMK AC1CI1 SLP149

CYQG;2013-04-15 11:00;CYQG 151100Z 10004KT 12SM FEW140 FEW250 03/01 A2997 RMK AC1CI1 SLP154

CYQG;2013-04-15 12:00;CYQG 151200Z 11003KT 15SM BKN270 05/02 A2998 RMK CI4 CONTRAILS SLP157

CYQG;2013-04-15 13:00;CYQG 151300Z 14005KT 15SM BKN280 10/05 A2997 RMK CI4 CONTRAILS SLP155

CYQG;2013-04-15 14:00;CYQG 151400Z 16009KT 15SM FEW120 BKN260 13/07 A2997 RMK AC1CC4 SLP153

CYQG;2013-04-15 15:00;CYQG 151500Z 20010G17KT 15SM FEW120 FEW240 BKN260 15/08 A2999 RMK AC1CS2CC2 CONTRAILS SLP158

CYQG;2013-04-15 16:00;CYQG 151600Z 20014G20KT 15SM FEW120 SCT260 BKN280 17/09 A2997 RMK AC1CC2CI2 TR AC SLP151

CYQG;2013-04-15 17:00;CYQG 151700Z 19019G24KT 15SM FEW120 BKN280 19/10 A2996 RMK AC1CI3 SLP148

CYQG;2013-04-15 18:00;CYQG 151800Z 20020G27KT 15SM FEW046 SCT120 BKN260 20/11 A2995 RMK CU2AC1CS2 HALO SLP143

CYQG;2013-04-15 19:00;CYQG 151900Z 20019G24KT 15SM FEW030 FEW045 BKN260 20/11 A2993 RMK CU2SC1CS3 HALO SLP138

CYQG;2013-04-15 20:00;CYQG 152000Z 18018G25KT 15SM FEW030 SCT045 BKN260 19/11 A2991 RMK CU2SC2CS4 SLP130

CYQG;2013-04-15 21:00;CYQG 152100Z 18013G19KT 15SM FEW055 BKN260 19/11 A2989 RMK SC2CS5 SLP125

CYQG;2013-04-15 22:00;CYQG 152200Z 18012G18KT 15SM SCT051 BKN160 OVC260 19/11 A2989 RMK SC4AS2CS2 SLP124

CYQG;2013-04-15 23:00;CYQG 152300Z 19007KT 15SM BKN047 18/11 A2992 RMK SC7 SLP135

CYQG;2013-04-16 00:00;CYQG 160000Z 18009KT 15SM BKN060 17/11 A2992 RMK SC7 SLP134

CYQG;2013-04-16 01:00;CYQG 160100Z 18008KT 15SM OVC054 16/11 A2993 RMK SC8 SLP139

CYQG;2013-04-16 01:30;CYQG 160130Z 17009KT 15SM -SHRA BKN060 OVC110 RMK SC6AC2

CYQG;2013-04-16 02:00;CYQG 160200Z 18010KT 15SM SCT060 OVC110 16/12 A2995 RMK SC4AC4 OCNL -SHRA SLP144

CYQG;2013-04-16 02:09;CYQG 160209Z 18011KT 15SM SCT060 OVC110 RMK SC3AC5

CYQG;2013-04-16 03:00;CYQG 160300Z 18009KT 15SM -SHRA OVC054 16/11 A2995 RMK SC8 SLP143

CYQG;2013-04-16 03:41;CYQG 160341Z 16010KT 15SM OVC110 RMK AC8

CYQG;2013-04-16 04:00;CYQG 160400Z 16010KT 15SM BKN060 OVC110 14/11 A2993 RMK SC6AC2 SLP136

CYQG;2013-04-16 05:00;CYQG 160500Z 17012KT 15SM BKN120 15/11 A2991 RMK AC6 SLP130

CYQG;2013-04-16 06:00;CYQG 160600Z 18013KT 15SM BKN120 15/11 A2989 RMK AC6 SLP123

CYQG;2013-04-16 07:00;CYQG 160700Z CCA 18013KT 15SM BKN073 16/11 A2988 RMK AC7 SLP119

CYQG;2013-04-16 08:00;CYQG 160800Z 22013KT 15SM OVC049 14/11 A2990 RMK SC8 SLP126

CYQG;2013-04-16 09:00;CYQG 160900Z 21009KT 15SM OVC048 14/11 A2990 RMK SC8 SLP126

CYQG;2013-04-16 10:00;CYQG 161000Z 33011KT 15SM OVC048 13/10 A2994 RMK SC8 SLP137

CYQG;2013-04-16 10:50;CYQG 161050Z 31007KT 6SM -SHRA OVC028 RMK SF8

CYQG;2013-04-16 11:03;CYQG 161103Z 26006KT 1 1/2SM -TSRA BR OVC020 RMK SF8 EMBD CB

CYQG;2013-04-16 11:26;CYQG 161126Z 20005KT 3SM TSRA BR SCT025 OVC050CB RMK CU3CB5

CYQG;2013-04-16 11:33;CYQG 161133Z 28007KT 2SM TSRA BR SCT021 OVC037CB RMK CU4CB4 LTGIC S

CYQG;2013-04-16 12:00;CYQG 161200Z 08003KT 3SM -SHRA BR FEW005 BKN035 OVC064 11/10 A2996 RETSRA RMK CF2CU4SC2 PRESFR SLP147

CYQG;2013-04-16 12:21;CYQG 161221Z 31016KT 6SM -SHRA BR BKN002 OVC040 RMK SF6CU2

CYQG;2013-04-16 12:32;CYQG 161232Z 31014G24KT 7SM -SHRA FEW003 BKN013 OVC050 RMK SF2CU4SC2

CYQG;2013-04-16 12:53;CYQG 161253Z 33006KT 10SM FEW004 BKN016 OVC050 RMK SF2CU6SC1

CYQG;2013-04-16 13:00;CYQG 161300Z 34006KT 10SM FEW005 BKN018 OVC060 11/09 A2999 RMK SF2CU6SC1 SLP158

CYQG;2013-04-16 14:00;CYQG 161400Z 29007KT 12SM SCT009 OVC021 11/09 A3003 RMK SF4CU4 SLP170

CYQG;2013-04-16 15:00;CYQG 161500Z 29007KT 12SM FEW012 OVC021 11/09 A3005 RMK SF2SC6 SLP179

CYQG;2013-04-16 15:39;CYQG 161539Z 27007KT 7SM -DZ BKN014 OVC022 RMK SC6SC2

CYQG;2013-04-16 15:50;CYQG 161550Z 28007KT 6SM -DZ BR BKN007 OVC020 RMK SF6SC2

CYQG;2013-04-16 16:00;CYQG 161600Z 29006KT 2 1/2SM -DZ BR SCT005 OVC011 11/10 A3007 RMK SF4SC4 SLP185

CYQG;2013-04-16 16:11;CYQG 161611Z 29006KT 5SM -DZ BR OVC007 RMK SF8

CYQG;2013-04-16 16:32;CYQG 161632Z 28007KT 6SM BR SCT008 OVC011 RMK SF4SC4

CYQG;2013-04-16 16:53;CYQG 161653Z 31006KT 10SM BKN020 BKN035 RMK CU5SC2

CYQG;2013-04-16 17:00;CYQG 161700Z 29008KT 12SM SCT022 BKN032 12/09 A3006 RMK CU3SC4 SLP182

CYQG;2013-04-16 18:00;CYQG 161800Z 28012KT 15SM FEW020 BKN030 14/08 A3006 RMK CF2SC5 SLP181

CYQG;2013-04-16 19:00;CYQG 161900Z 29010G20KT 15SM FEW035 SCT280 15/07 A3009 RMK SC2CI1 SLP189

CYQG;2013-04-16 20:00;CYQG 162000Z 30010KT 15SM FEW035 FEW180 BKN280 16/05 A3010 RMK SC2AS1CI2 AS TR CS ASOCTD SLP193

CYQG;2013-04-16 21:00;CYQG 162100Z 29010KT 15SM FEW045 SCT150 OVC280 16/03 A3012 RMK SC2AS2CS2 SLP201

CYQG;2013-04-16 22:00;CYQG 162200Z 29010KT 15SM SCT073 BKN280 16/02 A3013 RMK AC3CS2 SLP202

CYQG;2013-04-16 23:00;CYQG 162300Z 32009KT 15SM BKN070 OVC280 15/02 A3014 RMK AC6CI2 SLP205

CYQG;2013-04-17 00:00;CYQG 170000Z 29006KT 15SM FEW070 BKN090 BKN280 15/01 A3015 RMK AC2AC2CI0 SLP213

CYQG;2013-04-17 01:00;CYQG 170100Z 32004KT 15SM BKN070 14/02 A3017 RMK AC6 SLP219

CYQG;2013-04-17 02:00;CYQG 170200Z 36003KT 15SM BKN081 13/02 A3020 RMK AC7 SLP229

CYQG;2013-04-17 03:00;CYQG 170300Z 05006KT 15SM FEW080 BKN140 10/05 A3021 RMK AC1AC4 SLP232

CYQG;2013-04-17 04:00;CYQG 170400Z 03008KT 15SM FEW140 08/05 A3023 RMK AC2 SLP238

CYQG;2013-04-17 05:00;CYQG 170500Z 03010KT 15SM FEW120 08/04 A3024 RMK AC1 SLP243

CYQG;2013-04-17 06:00;CYQG 170600Z 03014KT 15SM FEW110 07/02 A3026 RMK AC2 SLP250

CYQG;2013-04-17 07:00;CYQG 170700Z 03016KT 15SM BKN084 06/01 A3028 RMK AC7 BRKSINC SLP256

CYQG;2013-04-17 08:00;CYQG 170800Z 03014KT 15SM OVC084 06/01 A3031 RMK AC8 SLP266

CYQG;2013-04-17 09:00;CYQG 170900Z 04015KT 15SM BKN088 06/01 A3031 RMK AC7 BRKSINC SLP266

CYQG;2013-04-17 10:00;CYQG 171000Z 04012KT 15SM BKN087 05/01 A3032 RMK AC6 SLP270

CYQG;2013-04-17 11:00;CYQG 171100Z 05011G17KT 15SM FEW092 FEW280 05/00 A3034 RMK AC2CI1 SLP277

CYQG;2013-04-17 12:00;CYQG 171200Z 05014KT 15SM FEW090 06/00 A3034 RMK AC1 SLP278

CYQG;2013-04-17 13:00;CYQG 171300Z 05011G17KT 15SM FEW100 SCT280 06/M00 A3035 RMK AC1CI1 SLP279

CYQG;2013-04-17 14:00;CYQG 171400Z 06013KT 15SM BKN280 07/00 A3034 RMK CI2 SLP276

CYQG;2013-04-17 15:00;CYQG 171500Z 05015KT 15SM BKN280 08/01 A3033 RMK CI2 SLP276

CYQG;2013-04-17 16:00;CYQG 171600Z 07010KT 15SM SCT280 09/01 A3033 RMK CI2 SLP275

CYQG;2013-04-17 17:00;CYQG 171700Z 06010KT 15SM SCT280 11/02 A3031 RMK CI2 SLP268

CYQG;2013-04-17 18:00;CYQG 171800Z 04010KT 15SM SCT130 BKN280 11/03 A3031 RMK AC2CI1 SLP266

CYQG;2013-04-17 19:00;CYQG 171900Z 07012KT 15SM FEW130 BKN280 12/04 A3026 RMK AC1CI3 TR AC SLP249

CYQG;2013-04-17 20:00;CYQG 172000Z 08009KT 15SM SCT057 BKN280 13/04 A3023 RMK SC3CI2 SLP240

CYQG;2013-04-17 21:00;CYQG 172100Z 12014KT 15SM BKN053 OVC280 11/03 A3019 RMK SC6CI2 SLP228

CYQG;2013-04-17 21:37;CYQG 172137Z 11009KT 15SM -SHRA OVC048 RMK SC8

CYQG;2013-04-17 22:01;CYQG 172201Z 10009G15KT 15SM -TSRA OVC047 RMK SC8 CB EMBD

CYQG;2013-04-17 22:09;CYQG 172209Z 10016KT 8SM +TSRA OVC047 RMK SC8 CB EMBD

CYQG;2013-04-17 22:11;CYQG 172211Z 10018KT 8SM TSRA OVC047 RMK SC8 CB EMBD

CYQG;2013-04-17 22:14;CYQG 172214Z 10017KT 8SM -TSRA OVC047 RMK SC8 CB EMBD RERA

CYQG;2013-04-17 22:33;CYQG 172233Z 10015KT 15SM OVC038 RMK SC8 RETS RERA PRESFR

CYQG;2013-04-17 23:00;CYQG 172300Z 10013G20KT 15SM OVC039 10/03 A3014 RMK SC8 RETS RERA SLP211

CYQG;2013-04-18 00:00;CYQG 180000Z 10011G16KT 15SM OVC040 09/02 A3011 RMK SC8 SLP202

CYQG;2013-04-18 00:20;CYQG 180020Z 10014G20KT 15SM -TSRA OVC037 RMK SC8 CB EMBD

CYQG;2013-04-18 00:28;CYQG 180028Z 32009G20KT 15SM TSRA OVC047 RMK SC8 CB EMBD PRESRR

CYQG;2013-04-18 00:31;CYQG 180031Z 01006KT 15SM -TSRA OVC045 RMK SC8 CB EMBD

CYQG;2013-04-18 00:44;CYQG 180044Z 04009G15KT 15SM TSRA OVC045 RMK SC8 CB EMBD

CYQG;2013-04-18 00:54;CYQG 180054Z 04010G15KT 15SM -TSRA OVC045 RMK SC8 CB EMBD RERA

CYQG;2013-04-18 01:00;CYQG 180100Z 05011KT 15SM -TSRA OVC042 08/04 A3015 RMK SC8 CB EMBD RERA SLP215

CYQG;2013-04-18 01:46;CYQG 180146Z 04013KT 15SM OVC038 RMK SC8 RETS RERA

CYQG;2013-04-18 02:00;CYQG 180200Z 03013G18KT 15SM -SHRA OVC039 07/05 A3014 RMK SC8 RETS RERA SLP212

CYQG;2013-04-18 02:42;CYQG 180242Z 02012KT 15SM OVC035 RMK SC8

CYQG;2013-04-18 02:50;CYQG 180250Z 02012KT 15SM -TSRA OVC035 RMK SC8 CB EMBD

CYQG;2013-04-18 03:00;CYQG 180300Z 01009KT 10SM +TSRA OVC036 07/05 A3015 RMK SC8 CB EMBD SLP213

CYQG;2013-04-18 03:12;CYQG 180312Z 02010KT 10SM -TSRA OVC034 RMK SC8 CB EMBD

CYQG;2013-04-18 04:00;CYQG 180400Z 02010KT 7SM -TSRA OVC034 07/05 A3007 RERA RMK SC8 CB EMBD LTGCCIC SLP189

CYQG;2013-04-18 04:13;CYQG 180413Z 07012G18KT 5SM TSRA OVC032 RMK SC8 CB EMBD LTGIC

CYQG;2013-04-18 04:22;CYQG 180422Z 09014KT 10SM -TSRA OVC036 RERA RMK SC8 CB EMBD LTGIC

CYQG;2013-04-18 04:52;CYQG 180452Z 09010KT 10SM -SHRA OVC028 RETSRA RMK SC8

CYQG;2013-04-18 05:00;CYQG 180500Z 09010KT 10SM -SHRA OVC028 07/06 A3011 RETSRA RMK SC8 SLP202

CYQG;2013-04-18 05:05;CYQG 180505Z 10008KT 6SM TSRA SCT028 OVC052CB RMK SC4CB4

CYQG;2013-04-18 05:12;CYQG 180512Z 11006KT 1SM +TSRA OVC028 RMK SC8 EMBD CB

CYQG;2013-04-18 05:17;CYQG 180517Z 11013KT 6SM -TSRA OVC026 RERA RMK SC8 EMBD CB

CYQG;2013-04-18 06:00;CYQG 180600Z 12013KT 10SM -TSRA BKN026 OVC058CB 08/06 A2996 RERA RMK SC6CB2 PRESFR SLP149

CYQG;2013-04-18 06:21;CYQG 180621Z 12008KT 12SM BKN045 OVC090 RETS RMK SC6AC2

CYQG;2013-04-18 07:00;CYQG 180700Z 12008KT 15SM BKN077 OVC250 08/05 A2993 RMK AC7CI1 SLP139

CYQG;2013-04-18 08:00;CYQG 180800Z 12010KT 15SM OVC066 08/05 A2990 RMK AC8 SLP128

CYQG;2013-04-18 09:00;CYQG 180900Z 12008KT 15SM SCT054 OVC190 08/05 A2986 RMK SC4AC4 LTGIC DIST E SLP114

CYQG;2013-04-18 10:00;CYQG 181000Z 13007KT 15SM OVC190 08/07 A2983 RMK AC8 LTGIC DIST E SLP105

CYQG;2013-04-18 11:00;CYQG 181100Z 15006KT 6SM BR FEW060 BKN190 OVC270 09/08 A2980 RMK SC1AC5CS3 SLP096

CYQG;2013-04-18 12:00;CYQG 181200Z 18011KT 10SM SCT190 OVC270 13/11 A2979 RMK AC3CI4 SLP089

CYQG;2013-04-18 13:00;CYQG 181300Z 19014G20KT 15SM FEW059 SCT180 OVC270 17/14 A2977 RMK SC2AC2CI3 SLP083

CYQG;2013-04-18 14:00;CYQG 181400Z 20017G22KT 15SM BKN280 19/15 A2975 RMK CI5 SLP077

CYQG;2013-04-18 15:00;CYQG 181500Z 20020G26KT 15SM BKN280 21/16 A2971 RMK CI5 SLP062

CYQG;2013-04-18 16:00;CYQG 181600Z 20021G31KT 15SM BKN280 23/17 A2969 RMK CI5 SLP055

CYQG;2013-04-18 17:00;CYQG 181700Z 20026G34KT 15SM BKN280 23/17 A2967 RMK CI6 SLP047

CYQG;2013-04-18 18:00;CYQG 181800Z 20026G31KT 15SM SCT058 OVC280 24/17 A2964 RMK CU3CI3 SLP036

CYQG;2013-04-18 19:00;CYQG 181900Z 20025G34KT 15SM FEW042CB OVC280 26/16 A2961 RMK CB2CI2 SLP027

CYQG;2013-04-18 19:53;CYQG 181953Z 26019G27KT 15SM -SHRA BKN050CB OVC280 RMK CB7CI1

CYQG;2013-04-18 20:00;CYQG 182000Z 26022KT 15SM -SHRA OVC051 21/15 A2967 RMK SC8 CB EMBD SLP047

CYQG;2013-04-18 20:31;CYQG 182031Z 25012KT 3SM SHRA BR OVC050 RMK SC8

CYQG;2013-04-18 20:34;CYQG 182034Z 25013KT 3SM -SHRA BR OVC050 RMK SC8

CYQG;2013-04-18 20:47;CYQG 182047Z 24012G18KT 5SM SHRA BR OVC050 RMK SC8

CYQG;2013-04-18 20:49;CYQG 182049Z 23013G18KT 8SM -SHRA OVC050 RMK SC8 RERA

CYQG;2013-04-18 21:00;CYQG 182100Z 25009G15KT 15SM -SHRA BKN050 OVC080 18/16 A2966 RMK SC6AC2 TCU ASOCTD RERA SLP046

CYQG;2013-04-18 22:00;CYQG 182200Z 24010KT 15SM BKN050 BKN150 18/15 A2965 RMK SC5AC2 TCU ASOCTD SLP042

CYQG;2013-04-18 23:00;CYQG 182300Z 22007KT 12SM -SHRA BKN050 OVC070 17/15 A2966 RMK SC6AC2 SLP044

CYQG;2013-04-18 23:50;CYQG 182350Z 23015KT 2 1/2SM SHRA BR FEW012 OVC050 RMK CF1SF7

CYQG;2013-04-19 00:00;CYQG 190000Z CCA 23014G20KT 6SM -SHRA BR FEW012 OVC060 16/15 A2967 RMK CF1SC7 RERA SLP046

CYQG;2013-04-19 00:09;CYQG 190009Z 21013KT 5SM SHRA BR OVC060 RMK SC8

CYQG;2013-04-19 00:29;CYQG 190029Z 22015KT 12SM +SHRA OVC064 RMK SC8

CYQG;2013-04-19 00:50;CYQG 190050Z 22014G19KT 15SM -SHRA OVC070 RMK AC8 RERA

CYQG;2013-04-19 01:00;CYQG 190100Z 22013KT 12SM SHRA OVC077 16/14 A2967 RMK AC8 SLP048

CYQG;2013-04-19 01:23;CYQG 190123Z 22014KT 12SM -SHRA OVC071 RMK AC8 RERA

CYQG;2013-04-19 01:28;CYQG 190128Z 22015KT 12SM +SHRA OVC071 RMK AC8

CYQG;2013-04-19 01:39;CYQG 190139Z 21014KT 15SM -SHRA OVC071 RMK AC8 RERA

CYQG;2013-04-19 02:00;CYQG 190200Z 22015KT 15SM -SHRA OVC073 16/14 A2969 RMK AC8 SLP055

CYQG;2013-04-19 03:00;CYQG 190300Z 29008KT 15SM -SHRA OVC067 15/14 A2966 RMK AC8 SLP043

CYQG;2013-04-19 04:00;CYQG 190400Z CCA 15004KT 15SM -SHRA OVC082 15/14 A2961 RMK AC8 PRESFR SLP025

CYQG;2013-04-19 05:00;CYQG 190500Z 16006KT 15SM OVC083 15/14 A2956 RMK AC8 SLP011

CYQG;2013-04-19 06:00;CYQG 190600Z 17007KT 15SM OVC078 14/13 A2953 RMK AC8 SLP998

CYQG;2013-04-19 06:06;CYQG 190606Z 17006KT 15SM -SHRA OVC074 RMK AC8

CYQG;2013-04-19 07:00;CYQG 190700Z 15010KT 15SM -SHRA BKN058 OVC074 14/13 A2949 RMK SC5AC3 SLP983

CYQG;2013-04-19 08:00;CYQG 190800Z 16009KT 15SM -SHRA OVC053 15/13 A2943 RMK SC8 PRESFR SLP966

CYQG;2013-04-19 09:00;CYQG 190900Z 16014KT 15SM -SHRA OVC052 15/13 A2938 RMK SC8 PRESFR SLP947

CYQG;2013-04-19 10:00;CYQG 191000Z 18017G25KT 8SM SHRA BKN043 OVC092 17/13 A2935 RMK SC6AC2 SLP939

CYQG;2013-04-19 11:00;CYQG 191100Z 20020G26KT 12SM SHRA OVC017 15/13 A2934 RERA RMK SC8 SLP934

CYQG;2013-04-19 11:07;CYQG 191107Z 21019G24KT 10SM -SHRA OVC011 RMK SC8

CYQG;2013-04-19 11:44;CYQG 191144Z 27017G27KT 12SM -SHRA SCT012 OVC023 RMK CU3SC5

CYQG;2013-04-19 12:00;CYQG 191200Z 25018G25KT 6SM -SHRA BR SCT012 OVC028 11/09 A2940 RMK CU3SC5 VIS 10 S PRESRR SLP955

CYQG;2013-04-19 12:10;CYQG 191210Z 25021G26KT 1 1/2SM -SHRA BR SCT012 OVC031 RMK FG2CU2SC4

CYQG;2013-04-19 12:18;CYQG 191218Z 25024G30KT 5SM -SHRA BR SCT012 OVC034 RMK CU3SC5

CYQG;2013-04-19 13:00;CYQG 191300Z 25017G24KT 8SM -SHRA FEW012 OVC044 07/06 A2943 RMK CF2SC6 SLP967

CYQG;2013-04-19 13:33;CYQG 191333Z 25019G24KT 15SM BKN014 OVC048 RMK CU5SC3

CYQG;2013-04-19 14:00;CYQG 191400Z 25019G25KT 15SM BKN012 OVC050 07/05 A2944 RMK CU6SC2 SLP970

CYQG;2013-04-19 14:21;CYQG 191421Z 25018G27KT 15SM BKN016 OVC055 RMK CU6SC2

CYQG;2013-04-19 15:00;CYQG 191500Z 26025G32KT 15SM BKN028 06/01 A2949 RMK CU7 PRESRR SLP987

CYQG;2013-04-19 16:00;CYQG 191600Z 25026G34KT 15SM BKN026 06/M00 A2954 RMK SC7 SLP004

CYQG;2013-04-19 17:00;CYQG 191700Z 26024G33KT 15SM OVC032 06/M01 A2955 RMK SC8 SLP007

CYQG;2013-04-19 18:00;CYQG 191800Z 24026G32KT 15SM BKN035 06/M01 A2955 RMK SC7 SLP010

CYQG;2013-04-19 19:00;CYQG 191900Z 24028G33KT 15SM BKN038 06/M01 A2957 RMK SC7 SLP016

CYQG;2013-04-19 20:00;CYQG 192000Z 25027G36KT 15SM OVC031 06/M01 A2960 RMK SC8 SLP025

CYQG;2013-04-19 20:45;CYQG 192045Z 23028G33KT 15SM -SHRA OVC032 RMK SC8

CYQG;2013-04-19 21:00;CYQG 192100Z 24026G34KT 15SM OVC033 06/M01 A2963 RMK SC8 OCNL -SHRA SLP035

CYQG;2013-04-19 22:00;CYQG 192200Z 24020G31KT 15SM BKN030 OVC053 05/M01 A2967 RMK SC6SC2 SLP051

CYQG;2013-04-19 22:42;CYQG 192242Z 23021KT 15SM -SHRA OVC032 RMK SC8

CYQG;2013-04-19 23:00;CYQG 192300Z 24023G29KT 15SM -SHRA SCT028 OVC048 05/M01 A2969 RMK SC3SC5 SLP057

CYQG;2013-04-20 00:00;CYQG 200000Z 24015G24KT 15SM -SHRA BKN027 OVC050 05/M01 A2971 RMK SC6SC2 SLP064

CYQG;2013-04-20 01:00;CYQG 200100Z 23021G27KT 15SM -SHRA OVC043 04/M01 A2974 RMK SC8 SLP072

CYQG;2013-04-20 01:53;CYQG 200153Z 25017G27KT 15SM BKN062 RMK SC7

CYQG;2013-04-20 02:00;CYQG 200200Z 25016G27KT 15SM BKN061 04/M02 A2975 RMK SC7 SLP078

CYQG;2013-04-20 03:00;CYQG 200300Z 24022G29KT 15SM FEW028 BKN068 04/M02 A2975 RMK SC2AC6 SLP080

CYQG;2013-04-20 04:00;CYQG 200400Z 25021G26KT 15SM BKN032 BKN078 04/M02 A2976 RMK SC5AC1 SLP082

CYQG;2013-04-20 05:00;CYQG 200500Z 24019G24KT 15SM BKN041 03/M02 A2977 RMK SC6 SLP086

CYQG;2013-04-20 06:00;CYQG 200600Z 24019G30KT 15SM BKN058 03/M01 A2979 RMK SC7 SLP092

CYQG;2013-04-20 06:19;CYQG 200619Z 27023G32KT 8SM -SHSN OVC014 RMK SC8

CYQG;2013-04-20 06:23;CYQG 200623Z 28025G33KT 2SM -SHSN OVC006 RMK SF8

CYQG;2013-04-20 06:32;CYQG 200632Z 27016G24KT 2SM -SHSN OVC013 RMK SF8

CYQG;2013-04-20 06:39;CYQG 200639Z 27014G20KT 8SM -SHSN OVC048 RMK SC8

CYQG;2013-04-20 07:00;CYQG 200700Z 27013KT 12SM -SHSN OVC053 01/M02 A2981 RMK SC8 SLP100

CYQG;2013-04-20 07:36;CYQG 200736Z 25011KT 15SM OVC081 RMK AC8

CYQG;2013-04-20 08:00;CYQG 200800Z 26014KT 15SM BKN038 02/M02 A2984 RMK SC7 SLP109

CYQG;2013-04-20 08:49;CYQG 200849Z 27019G25KT 12SM -SHSN OVC031 RMK SC8

CYQG;2013-04-20 09:00;CYQG 200900Z 27020G25KT 12SM -SHSN OVC026 01/M03 A2987 RMK SC8 SLP121

CYQG;2013-04-20 10:00;CYQG 201000Z 29015KT 15SM SCT030 01/M05 A2990 RMK SC4 SLP130

CYQG;2013-04-20 11:00;CYQG 201100Z 29015G22KT 15SM SCT033 SCT075 01/M06 A2994 RMK SC4AC1 SLP144

CYQG;2013-04-20 12:00;CYQG 201200Z 28018G25KT 15SM BKN040 00/M08 A2999 RMK SC5 SLP161

CYQG;2013-04-20 13:00;CYQG 201300Z 29018G28KT 15SM FEW040 00/M10 A3004 RMK SC2 SLP178

CYQG;2013-04-20 14:00;CYQG 201400Z 28015G26KT 15SM FEW040 01/M09 A3007 RMK SC2 SLP190

CYQG;2013-04-20 15:00;CYQG 201500Z 30014G21KT 15SM BKN044 02/M08 A3011 RMK SC5 SLP203

CYQG;2013-04-20 16:00;CYQG 201600Z 28014G19KT 15SM BKN044 02/M08 A3014 RMK SC6 SLP214

CYQG;2013-04-20 17:00;CYQG 201700Z 30012G18KT 15SM BKN050 03/M08 A3017 RMK SC7 SLP222

CYQG;2013-04-20 18:00;CYQG 201800Z 29014KT 15SM BKN055 04/M07 A3022 RMK SC7 SLP238

CYQG;2013-04-20 19:00;CYQG 201900Z 30015KT 15SM BKN056 05/M07 A3021 RMK SC7 SLP237

CYQG;2013-04-20 20:00;CYQG 202000Z 29012G17KT 15SM BKN057 04/M07 A3023 RMK SC7 SLP244

CYQG;2013-04-20 21:00;CYQG 202100Z 29014G20KT 15SM BKN057 05/M07 A3026 RMK SC7 SLP253

CYQG;2013-04-20 22:00;CYQG 202200Z 31015KT 15SM BKN065 04/M07 A3029 RMK SC7 SLP262

CYQG;2013-04-20 23:00;CYQG 202300Z 30011G17KT 15SM BKN056 04/M07 A3031 RMK SC6 SLP269

CYQG;2013-04-21 00:00;CYQG 210000Z 32014KT 15SM SCT062 03/M08 A3033 RMK SC4 SLP278

CYQG;2013-04-21 01:00;CYQG 210100Z 31008KT 15SM FEW063 03/M08 A3036 RMK SC2 SLP289

CYQG;2013-04-21 02:00;CYQG 210200Z 34007KT 15SM FEW060 02/M07 A3040 RMK CF1 SLP301

CYQG;2013-04-21 03:00;CYQG 210300Z 34005KT 15SM SKC 01/M06 A3042 RMK SLP310

CYQG;2013-04-21 04:00;CYQG 210400Z 35004KT 15SM SKC 01/M06 A3044 RMK SLP316

CYQG;2013-04-21 05:00;CYQG 210500Z 01003KT 15SM SKC 00/M06 A3046 RMK SLP321

CYQG;2013-04-21 06:00;CYQG 210600Z 00000KT 15SM SKC M01/M05 A3047 RMK SLP326

CYQG;2013-04-21 07:00;CYQG 210700Z 35002KT 15SM SKC M01/M05 A3048 RMK SLP330

CYQG;2013-04-21 08:00;CYQG 210800Z 01002KT 15SM SKC M01/M06 A3050 RMK SLP334

CYQG;2013-04-21 09:00;CYQG 210900Z 14003KT 15SM SKC M01/M05 A3052 RMK SLP344

CYQG;2013-04-21 10:00;CYQG 211000Z 12003KT 15SM FEW020 M01/M06 A3054 RMK CF1 SLP348

CYQG;2013-04-21 11:00;CYQG 211100Z 14002KT 15SM FEW020 M01/M05 A3056 RMK CF1 SLP357

CYQG;2013-04-21 12:00;CYQG 211200Z 11002KT 15SM FEW020 00/M05 A3059 RMK CF1 SLP367

CYQG;2013-04-21 13:00;CYQG 211300Z 11005KT 15SM FEW025 FEW270 02/M05 A3062 RMK CF1CI1 SLP375

CYQG;2013-04-21 14:00;CYQG 211400Z 12006KT 15SM FEW030 FEW270 03/M05 A3063 RMK CU1CI1 SLP379

CYQG;2013-04-21 15:00;CYQG 211500Z 11005KT 15SM FEW034 SCT270 05/M05 A3063 RMK CU1CI1 SLP380

CYQG;2013-04-21 16:00;CYQG 211600Z 10007KT 15SM FEW039 BKN270 05/M04 A3063 RMK CU2CI1 SLP380

CYQG;2013-04-21 17:00;CYQG 211700Z 07007KT 15SM FEW040 BKN280 06/M03 A3061 RMK CU2CI1 SLP374

CYQG;2013-04-21 18:00;CYQG 211800Z 10004KT 15SM FEW038 BKN280 06/M03 A3060 RMK CU1CI1 SLP368

CYQG;2013-04-21 19:00;CYQG 211900Z 13009KT 15SM FEW040 BKN280 07/M02 A3057 RMK CF1CI3 TR CF SLP361

CYQG;2013-04-21 20:00;CYQG 212000Z 12011KT 15SM BKN280 06/M03 A3055 RMK CI3 SLP354

CYQG;2013-04-21 21:00;CYQG 212100Z 10010KT 15SM BKN280 07/M04 A3053 RMK CI3 SLP346

CYQG;2013-04-21 22:00;CYQG 212200Z 11010KT 15SM BKN280 07/M07 A3052 RMK CI2 SLP342

CYQG;2013-04-21 23:00;CYQG 212300Z 13008KT 15SM BKN280 06/M06 A3051 RMK CI3 SLP340

CYQG;2013-04-22 00:00;CYQG 220000Z 13010KT 15SM BKN280 05/M04 A3051 RMK CI4 CONTRAILS SLP338

CYQG;2013-04-22 01:00;CYQG 220100Z 12007KT 15SM BKN280 03/M04 A3051 RMK CI2 CONTRAILS SLP340

CYQG;2013-04-22 02:00;CYQG 220200Z 11006KT 15SM FEW280 02/M04 A3051 RMK CI1 SLP340

CYQG;2013-04-22 03:00;CYQG 220300Z 11006KT 15SM SKC 02/M03 A3050 RMK SLP336

CYQG;2013-04-22 04:00;CYQG 220400Z 13006KT 15SM SKC 02/M02 A3048 RMK SLP329

CYQG;2013-04-22 05:00;CYQG 220500Z 13005KT 15SM SKC 02/M03 A3047 RMK SLP324

CYQG;2013-04-22 06:00;CYQG 220600Z 12006KT 15SM SKC 02/M02 A3045 RMK SLP317

CYQG;2013-04-22 07:00;CYQG 220700Z 12005KT 15SM SKC 02/M01 A3043 RMK SLP311

CYQG;2013-04-22 08:00;CYQG 220800Z 12006KT 15SM SKC 02/M01 A3041 RMK SLP305

CYQG;2013-04-22 09:00;CYQG 220900Z 08002KT 15SM SKC 02/M01 A3040 RMK SLP300

CYQG;2013-04-22 10:00;CYQG 221000Z 05003KT 15SM FEW025 02/M01 A3039 RMK SC1 SLP298

CYQG;2013-04-22 11:00;CYQG 221100Z 06003KT 15SM FEW025 FEW250 01/M01 A3039 RMK SC1CI1 SLP298

CYQG;2013-04-22 12:00;CYQG 221200Z 09003KT 15SM FEW260 03/00 A3040 RMK CI1 SLP302

CYQG;2013-04-22 13:00;CYQG 221300Z 13005KT 15SM FEW270 06/01 A3040 RMK CI1 SLP301

CYQG;2013-04-22 14:00;CYQG 221400Z 10002KT 15SM FEW270 08/01 A3039 RMK CI1 CONTRAILS SLP299

CYQG;2013-04-22 15:00;CYQG 221500Z 00000KT 15SM FEW270 10/01 A3038 RMK CI1 CONTRAILS SLP294

CYQG;2013-04-22 16:00;CYQG 221600Z 12004KT 15SM FEW280 11/01 A3037 RMK CI1 SLP291

CYQG;2013-04-22 17:00;CYQG 221700Z 08003KT 15SM FEW280 13/00 A3036 RMK CI1 SLP287

CYQG;2013-04-22 18:00;CYQG 221800Z 04008KT 15SM FEW280 14/02 A3033 RMK CI1 SLP275

CYQG;2013-04-22 19:00;CYQG 221900Z 05008KT 15SM FEW290 14/M01 A3030 RMK CI1 SLP266

CYQG;2013-04-22 20:00;CYQG 222000Z 17006KT 15SM FEW290 15/M03 A3028 RMK CI1 SLP258

CYQG;2013-04-22 21:00;CYQG 222100Z 14009KT 15SM FEW290 15/M04 A3026 RMK CI1 SLP252

CYQG;2013-04-22 22:00;CYQG 222200Z 15005KT 15SM FEW290 15/M01 A3024 RMK CI1 SLP246

CYQG;2013-04-22 23:00;CYQG 222300Z 13013KT 15SM FEW290 14/M02 A3023 RMK CI1 SLP241

CYQG;2013-04-23 00:00;CYQG 230000Z 13012KT 15SM FEW290 11/02 A3022 RMK CI1 SLP238

CYQG;2013-04-23 01:00;CYQG 230100Z 12008KT 15SM FEW280 09/01 A3023 RMK CI1 SLP241

CYQG;2013-04-23 02:00;CYQG 230200Z 11007KT 15SM SKC 08/01 A3023 RMK SLP240

CYQG;2013-04-23 03:00;CYQG 230300Z 11006KT 15SM SKC 08/01 A3022 RMK SLP236

CYQG;2013-04-23 04:00;CYQG 230400Z 11005KT 15SM SKC 08/01 A3020 RMK SLP231

CYQG;2013-04-23 05:00;CYQG 230500Z 11005KT 15SM SKC 07/01 A3019 RMK SLP226

CYQG;2013-04-23 06:00;CYQG 230600Z 13005KT 15SM SKC 06/02 A3017 RMK SLP219

CYQG;2013-04-23 07:00;CYQG 230700Z 14003KT 15SM SKC 06/02 A3015 RMK SLP213

CYQG;2013-04-23 08:00;CYQG 230800Z 16007KT 15SM SKC 08/01 A3014 RMK SLP210

CYQG;2013-04-23 09:00;CYQG 230900Z 16009KT 15SM SKC 08/01 A3012 RMK SLP203

CYQG;2013-04-23 10:00;CYQG 231000Z 16007KT 15SM FEW250 07/01 A3011 RMK CI0 CONTRAILS SLP199

CYQG;2013-04-23 11:00;CYQG 231100Z 16007KT 15SM BKN250 07/01 A3009 RMK CI2 CONTRAILS SLP193

CYQG;2013-04-23 12:00;CYQG 231200Z 18009KT 15SM BKN260 09/02 A3011 RMK CI3 SLP200

CYQG;2013-04-23 13:00;CYQG 231300Z 17010KT 15SM FEW030 FEW270 10/02 A3010 RMK CF1CI1 SLP197

CYQG;2013-04-23 14:00;CYQG 231400Z 18012KT 15SM FEW120 BKN270 13/03 A3009 RMK AC1CI3 SLP193

CYQG;2013-04-23 15:00;CYQG 231500Z 20014KT 15SM FEW140 BKN280 15/03 A3007 RMK AC1CI2 SLP184

CYQG;2013-04-23 16:00;CYQG 231600Z 20011KT 15SM BKN280 17/05 A3005 RMK CI2 SLP179

CYQG;2013-04-23 17:00;CYQG 231700Z 19011G18KT 15SM FEW170 OVC280 18/05 A3003 RMK AC1CS3 SLP171

CYQG;2013-04-23 18:00;CYQG 231800Z 19014KT 15SM BKN075 OVC280 19/06 A2999 RMK AC6CS2 SLP158

CYQG;2013-04-23 19:00;CYQG 231900Z 18015KT 15SM FEW075 OVC280 20/07 A2996 RMK AC2CS6 SLP147

CYQG;2013-04-23 20:00;CYQG 232000Z 18016KT 15SM FEW080 OVC280 21/06 A2993 RMK AC2CS6 SLP137

CYQG;2013-04-23 21:00;CYQG 232100Z 18014KT 15SM SCT080 OVC280 20/07 A2990 RMK AC3CS5 SLP126

CYQG;2013-04-23 22:00;CYQG 232200Z 19013G18KT 15SM FEW075 OVC140 20/07 A2988 RMK AC2AS6 SLP119

CYQG;2013-04-23 22:56;CYQG 232256Z 21013KT 15SM -RA OVC068 RMK AC8

CYQG;2013-04-23 23:00;CYQG 232300Z 21013KT 8SM -RA OVC068 19/08 A2988 RMK AC8 SLP119

CYQG;2013-04-24 00:00;CYQG 240000Z 25012KT 6SM -RA OVC029 14/12 A2991 RMK SC8 SLP129

CYQG;2013-04-24 01:00;CYQG 240100Z 18005KT 8SM -RA OVC074 14/13 A2990 RMK AC8 SLP126

CYQG;2013-04-24 02:00;CYQG 240200Z 19006KT 7SM -RA OVC084 13/12 A2989 RMK AC8 SLP122

CYQG;2013-04-24 03:00;CYQG 240300Z 16003KT 6SM -RA BR OVC067 13/12 A2985 RMK AC8 SLP109

CYQG;2013-04-24 04:00;CYQG 240400Z 15004KT 6SM -RA BR OVC057 13/12 A2982 RMK SC8 SLP099

CYQG;2013-04-24 05:00;CYQG 240500Z 15003KT 5SM -RA BR OVC051 13/12 A2980 RMK SC8 SLP092

CYQG;2013-04-24 06:00;CYQG 240600Z 19013KT 4SM -RA BR OVC042 13/12 A2978 RMK SC8 SLP085

CYQG;2013-04-24 07:00;CYQG 240700Z 19013KT 6SM -RA BR OVC032 13/12 A2973 RMK SC8 PRESFR SLP066

CYQG;2013-04-24 08:00;CYQG 240800Z 20013KT 8SM -RA OVC021 13/11 A2971 RMK SC8 SLP062

CYQG;2013-04-24 09:00;CYQG 240900Z 34013KT 6SM -RA BR FEW008 OVC017 09/08 A2974 RMK SF2SC6 SLP070

CYQG;2013-04-24 09:07;CYQG 240907Z 35013KT 4SM RA BR OVC007 RMK SF8

CYQG;2013-04-24 09:27;CYQG 240927Z 35011G17KT 4SM -RA BR OVC007 RERA RMK SF8

CYQG;2013-04-24 09:54;CYQG 240954Z 35012G20KT 4SM -RA BR OVC012 RERA RMK SF8

CYQG;2013-04-24 10:09;CYQG 241009Z 36011G16KT 3SM -RA BR BKN007 OVC013 RMK SF6SC2

CYQG;2013-04-24 10:40;CYQG 241040Z 01011G16KT 2 1/2SM -RA BR SCT007 OVC013 RMK SF3SC5

CYQG;2013-04-24 11:00;CYQG 241100Z 36014G19KT 2 1/2SM -RA BR BKN010 OVC017 06/04 A2979 RMK SF6SC2 SLP090

CYQG;2013-04-24 11:33;CYQG 241133Z 36012G19KT 3SM -RA BR BKN010 OVC018 RMK SC5SC3

CYQG;2013-04-24 12:00;CYQG 241200Z 01010KT 3SM -RA BR BKN009 OVC019 04/03 A2981 RMK SF6SC2 SLP097

CYQG;2013-04-24 13:00;CYQG 241300Z 34010KT 4SM -RA BR BKN006 OVC015 04/02 A2982 RMK SF5SC3 SLP100

CYQG;2013-04-24 13:41;CYQG 241341Z 01011KT 8SM -RA FEW006 OVC013 RMK SF2SC6

CYQG;2013-04-24 14:00;CYQG 241400Z 36010KT 12SM -RA OVC010 04/02 A2981 RMK SC8 SLP098

CYQG;2013-04-24 14:18;CYQG 241418Z 35009KT 6SM -RA BR OVC009 RMK SF8

CYQG;2013-04-24 15:00;CYQG 241500Z 34009KT 7SM -RA OVC009 04/02 A2981 RMK SF8 SLP098

CYQG;2013-04-24 15:33;CYQG 241533Z 35009KT 6SM RA BR OVC010 RMK SF8

CYQG;2013-04-24 16:00;CYQG 241600Z 33009KT 7SM -RA BKN008 OVC016 03/02 A2984 RERA RMK SF6SC2 SLP108

CYQG;2013-04-24 17:00;CYQG 241700Z 33010KT 10SM -RA BKN009 OVC024 03/02 A2983 RMK SF7SC1 SLP104

CYQG;2013-04-24 17:38;CYQG 241738Z 31015KT 7SM -RA OVC012 RMK SC8

CYQG;2013-04-24 17:47;CYQG 241747Z 32013G20KT 5SM -RASN BKN012 OVC026 RMK SC6SC2

CYQG;2013-04-24 18:00;CYQG 241800Z 32015KT 5SM -RASN BR BKN012 OVC027 03/01 A2986 RMK SC6SC2 SLP116

CYQG;2013-04-24 19:00;CYQG 241900Z 31010KT 5SM -RASN BR OVC012 03/01 A2988 RMK SC8 SLP122

CYQG;2013-04-24 19:37;CYQG 241937Z 31012G17KT 7SM -RA OVC016 RMK SF8

CYQG;2013-04-24 20:00;CYQG 242000Z 31014KT 7SM -RA OVC012 03/01 A2991 RMK SF8 SLP131

CYQG;2013-04-24 21:00;CYQG 242100Z 29013KT 6SM -RA BR OVC016 03/02 A2995 RMK SF8 SLP145

CYQG;2013-04-24 22:00;CYQG 242200Z 29011KT 8SM -RA BKN016 OVC034 04/02 A2997 RMK SF6SC2 SLP153

CYQG;2013-04-24 22:43;CYQG 242243Z 28011KT 12SM FEW016 OVC100 RMK SF2AC6

CYQG;2013-04-24 23:00;CYQG 242300Z 27011KT 12SM FEW016 FEW035 OVC120 05/02 A3000 RMK SC2SC1AC6 SLP163

CYQG;2013-04-25 00:00;CYQG 250000Z 26014KT 12SM FEW016 FEW035 SCT280 06/01 A3003 RMK SC1SC1CI3 SLP173

CYQG;2013-04-25 01:00;CYQG 250100Z 26006KT 15SM FEW040 05/01 A3006 RMK SC1 SLP183

CYQG;2013-04-25 02:00;CYQG 250200Z 24009KT 15SM SKC 05/00 A3010 RMK SLP197

CYQG;2013-04-25 03:00;CYQG 250300Z 25010KT 15SM SKC 04/M02 A3011 RMK SLP203

CYQG;2013-04-25 04:00;CYQG 250400Z 25010KT 15SM SKC 04/M02 A3014 RMK SLP212

CYQG;2013-04-25 05:00;CYQG 250500Z 25007KT 15SM SKC 03/M03 A3014 RMK SLP211

CYQG;2013-04-25 06:00;CYQG 250600Z 23007KT 15SM SKC 02/M03 A3014 RMK SLP213

CYQG;2013-04-25 07:00;CYQG 250700Z 24006KT 15SM SKC 02/M03 A3013 RMK SLP210

CYQG;2013-04-25 08:00;CYQG 250800Z 23006KT 15SM SKC 02/M03 A3013 RMK SLP209

CYQG;2013-04-25 09:00;CYQG 250900Z 24007KT 15SM SKC 02/M03 A3014 RMK SLP211

CYQG;2013-04-25 10:00;CYQG 251000Z 23006KT 15SM SKC 02/M02 A3014 RMK SLP211

CYQG;2013-04-25 11:00;CYQG 251100Z 23007KT 12SM SCT250 02/M01 A3015 RMK CI2 SLP217

CYQG;2013-04-25 12:00;CYQG 251200Z 21008KT 15SM BKN270 04/M00 A3014 RMK CI2 SLP213

CYQG;2013-04-25 13:00;CYQG 251300Z 22012G17KT 15SM BKN270 06/01 A3014 RMK CI4 SLP210

CYQG;2013-04-25 14:00;CYQG 251400Z 22017G22KT 15SM FEW040 BKN280 08/02 A3013 RMK CU1CI3 SLP208

CYQG;2013-04-25 15:00;CYQG 251500Z 21017G24KT 15SM FEW045 SCT110 BKN280 09/03 A3012 RMK CU2AC2CI2 SLP205

CYQG;2013-04-25 15:34;CYQG 251534Z 21019G24KT 12SM -SHRA BKN045 BKN110 RMK CU6AC1

CYQG;2013-04-25 16:00;CYQG 251600Z 25019G26KT 7SM -SHRA OVC031 07/02 A3014 RMK CU8 SLP211

CYQG;2013-04-25 17:00;CYQG 251700Z 24013G20KT 8SM -SHRA BKN016 OVC044 06/03 A3016 RMK CU5SC3 SLP217

CYQG;2013-04-25 17:26;CYQG 251726Z 24015G21KT 10SM BKN016 BKN040 RMK CU5SC2

CYQG;2013-04-25 18:00;CYQG 251800Z 25015KT 15SM BKN028 08/03 A3015 RMK CU6 SLP216

CYQG;2013-04-25 18:34;CYQG 251834Z 27015KT 12SM -SHRA BKN034 RMK CU7

CYQG;2013-04-25 19:00;CYQG 251900Z 25014G24KT 10SM BKN035 06/03 A3017 RMK CU7 OCNL -SHRA TCU ASOCTD SLP220

CYQG;2013-04-25 19:40;CYQG 251940Z 26015KT 15SM FEW018 FEW071 SCT260 RMK CU2AC1CI1 TCU EMBD

CYQG;2013-04-25 20:00;CYQG 252000Z 26015KT 15SM FEW020 FEW110 FEW260 09/04 A3016 RMK CU1AC2CI1 TCU EMBD TR CI SLP218

CYQG;2013-04-25 21:00;CYQG 252100Z 31009G16KT 15SM VCSH SCT038 SCT260 09/02 A3017 RMK CU4CI1 TCU ASCOCTD TR CI SHRA NE SLP223

CYQG;2013-04-25 22:00;CYQG 252200Z 29010G17KT 15SM FEW053 10/00 A3019 RMK CU2 TCU ASOCTD SLP229

CYQG;2013-04-25 23:00;CYQG 252300Z 31015G20KT 15SM SCT063 10/M03 A3022 RMK CU3 SLP239

CYQG;2013-04-26 00:00;CYQG 260000Z 29008G17KT 15SM FEW060 10/M03 A3025 RMK CU2 SLP248

CYQG;2013-04-26 01:00;CYQG 260100Z 28008KT 15SM FEW060 FEW260 08/M02 A3028 RMK CU1CI1 TR CI SLP258

CYQG;2013-04-26 02:00;CYQG 260200Z 29007KT 15SM SKC 07/M03 A3032 RMK SLP270

CYQG;2013-04-26 03:00;CYQG 260300Z 29006KT 15SM SKC 06/M02 A3034 RMK SLP277

CYQG;2013-04-26 04:00;CYQG 260400Z 27006KT 15SM SKC 06/M03 A3035 RMK SLP281

CYQG;2013-04-26 05:00;CYQG 260500Z 28003KT 15SM SKC 04/M02 A3036 RMK SLP284

CYQG;2013-04-26 06:00;CYQG 260600Z 27005KT 15SM SKC 05/M03 A3037 RMK SLP290

CYQG;2013-04-26 07:00;CYQG 260700Z 26005KT 15SM SKC 04/M03 A3038 RMK SLP291

CYQG;2013-04-26 08:00;CYQG 260800Z 00000KT 15SM SKC 01/M03 A3038 RMK SLP292

CYQG;2013-04-26 09:00;CYQG 260900Z 00000KT 15SM SKC 01/M03 A3040 RMK SLP299

CYQG;2013-04-26 10:00;CYQG 261000Z 00000KT 15SM FEW250 01/M03 A3040 RMK CI1 SLP301

CYQG;2013-04-26 11:00;CYQG 261100Z 21003KT 15SM BKN250 01/M02 A3042 RMK CI2 CONTRAILS SLP308

CYQG;2013-04-26 12:00;CYQG 261200Z 20002KT 15SM FEW260 03/M02 A3044 RMK CI1 CONTRAILS SLP312

CYQG;2013-04-26 13:00;CYQG 261300Z 21004KT 15SM SCT260 06/M00 A3046 RMK CI1 CONTRAILS SLP320

CYQG;2013-04-26 14:00;CYQG 261400Z 18004KT 15SM BKN260 08/01 A3046 RMK CI1 CONTRAILS SLP321

CYQG;2013-04-26 15:00;CYQG 261500Z 19005KT 15SM FEW036 SCT270 09/01 A3047 RMK CU1CI1 CONTRAILS SLP323

CYQG;2013-04-26 16:00;CYQG 261600Z 21007KT 15SM FEW042 SCT270 11/01 A3047 RMK CU2CI1 SLP322

CYQG;2013-04-26 17:00;CYQG 261700Z 22009KT 15SM FEW044 FEW270 11/00 A3046 RMK CU1CI1 TR CU CONTRAILS SLP319

CYQG;2013-04-26 18:00;CYQG 261800Z 17010KT 15SM FEW045 SCT270 12/M01 A3045 RMK CU1CI1 TR CU CONTRAILS SLP315

CYQG;2013-04-26 19:00;CYQG 261900Z 20013KT 15SM BKN280 12/00 A3042 RMK CI3 SLP307

CYQG;2013-04-26 20:00;CYQG 262000Z 18012G17KT 15SM BKN260 12/01 A3040 RMK CS4 HALO SLP300

CYQG;2013-04-26 21:00;CYQG 262100Z 19009G16KT 15SM BKN280 13/02 A3038 RMK CI2 SLP293

CYQG;2013-04-26 22:00;CYQG 262200Z 20007KT 15SM FEW280 13/02 A3037 RMK CI2 SLP289

CYQG;2013-04-26 23:00;CYQG 262300Z 18010KT 15SM BKN280 12/02 A3037 RMK CI3 SLP290

CYQG;2013-04-27 00:00;CYQG 270000Z 17007KT 15SM BKN280 11/02 A3036 RMK CI2 SLP285

CYQG;2013-04-27 01:00;CYQG 270100Z 16005KT 15SM FEW150 SCT280 09/02 A3037 RMK AC2CI1 SLP289

CYQG;2013-04-27 02:00;CYQG 270200Z 16010KT 15SM FEW280 07/01 A3038 RMK CI1 SLP293

CYQG;2013-04-27 03:00;CYQG 270300Z 16007KT 15SM SKC 06/01 A3038 RMK SLP292

CYQG;2013-04-27 04:00;CYQG 270400Z 15003KT 15SM FEW140 06/01 A3038 RMK AC1 SLP293

CYQG;2013-04-27 05:00;CYQG 270500Z 00000KT 15SM SKC 05/01 A3038 RMK SLP291

CYQG;2013-04-27 06:00;CYQG 270600Z 00000KT 15SM SKC 05/01 A3036 RMK SLP284

CYQG;2013-04-27 07:00;CYQG 270700Z 16003KT 15SM SKC 04/01 A3035 RMK SLP282

CYQG;2013-04-27 08:00;CYQG 270800Z 18003KT 15SM SKC 05/01 A3034 RMK SLP279

CYQG;2013-04-27 09:00;CYQG 270900Z 00000KT 15SM SKC 05/02 A3034 RMK SLP279

CYQG;2013-04-27 10:00;CYQG 271000Z 00000KT 15SM FEW270 04/02 A3033 RMK CI1 SLP276

CYQG;2013-04-27 11:00;CYQG 271100Z 00000KT 15SM FEW270 03/02 A3033 RMK CI1 SLP275

CYQG;2013-04-27 12:00;CYQG 271200Z 18004KT 15SM FEW270 07/04 A3035 RMK CI1 TR CI SLP282

CYQG;2013-04-27 13:00;CYQG 271300Z 19005KT 15SM SKC 11/05 A3036 RMK SLP284

CYQG;2013-04-27 14:00;CYQG 271400Z 20003KT 15SM SKC 13/05 A3034 RMK SLP278

CYQG;2013-04-27 15:00;CYQG 271500Z 19004KT 15SM FEW280 15/04 A3033 RMK CI1 TR CI SLP274

CYQG;2013-04-27 16:00;CYQG 271600Z 16005KT 15SM FEW280 16/04 A3032 RMK CI1 TR CI SLP270

CYQG;2013-04-27 17:00;CYQG 271700Z 18004KT 15SM FEW280 17/03 A3029 RMK CI1 SLP261

CYQG;2013-04-27 18:00;CYQG 271800Z 21007KT 15SM FEW280 18/02 A3027 RMK CI1 SLP254

CYQG;2013-04-27 19:00;CYQG 271900Z 18008KT 15SM SCT280 18/02 A3026 RMK CI2 CONTRAILS SLP249

CYQG;2013-04-27 20:00;CYQG 272000Z 13008KT 15SM BKN280 19/02 A3024 RMK CI3 SLP242

CYQG;2013-04-27 21:00;CYQG 272100Z 16006KT 15SM BKN280 19/03 A3021 RMK CI4 SLP233

CYQG;2013-04-27 22:00;CYQG 272200Z 14006KT 15SM BKN280 18/03 A3020 RMK CI5 CONTRAILS SLP227

CYQG;2013-04-27 23:00;CYQG 272300Z 11007KT 15SM BKN280 18/04 A3018 RMK CI5 CONTRAILS SLP221

CYQG;2013-04-28 00:00;CYQG 280000Z 12007KT 15SM BKN280 16/04 A3016 RMK CI4 SLP216

CYQG;2013-04-28 01:00;CYQG 280100Z 12006KT 15SM BKN280 13/03 A3016 RMK CI2 CONTRAILS SLP214

CYQG;2013-04-28 02:00;CYQG 280200Z 11006KT 15SM SKC 11/02 A3016 RMK SLP214

CYQG;2013-04-28 03:00;CYQG 280300Z 11006KT 15SM SKC 11/02 A3014 RMK SLP210

CYQG;2013-04-28 04:00;CYQG 280400Z 07004KT 15SM FEW280 10/01 A3011 RMK CI1 SLP199

CYQG;2013-04-28 05:00;CYQG 280500Z 09003KT 15SM FEW280 09/02 A3010 RMK CI1 SLP195

CYQG;2013-04-28 06:00;CYQG 280600Z 08004KT 15SM FEW090 BKN280 09/02 A3009 RMK AC2CI1 SLP190

CYQG;2013-04-28 07:00;CYQG 280700Z 09005KT 15SM BKN100 09/03 A3005 RMK AC7 SLP178

CYQG;2013-04-28 08:00;CYQG 280800Z 10003KT 15SM BKN100 09/03 A3003 RMK AC7 SLP172

CYQG;2013-04-28 09:00;CYQG 280900Z 00000KT 15SM BKN100 OVC250 09/03 A3002 RMK AC6CS2 SLP168

CYQG;2013-04-28 10:00;CYQG 281000Z 07002KT 15SM BKN090 08/04 A3002 RMK AC7 SLP167

CYQG;2013-04-28 11:00;CYQG 281100Z 08003KT 15SM BKN100 OVC250 09/05 A3001 RMK AC7CS1 SLP164

CYQG;2013-04-28 12:00;CYQG 281200Z 07005KT 15SM OVC095 09/06 A3002 RMK AC8 SLP167

CYQG;2013-04-28 12:56;CYQG 281256Z 12004KT 10SM -RA OVC076 RMK AC8

CYQG;2013-04-28 13:00;CYQG 281300Z 12005KT 10SM -RA OVC077 11/07 A3001 RMK AC8 SLP163

CYQG;2013-04-28 14:00;CYQG 281400Z 12004KT 10SM -RA OVC070 13/09 A2999 RMK AC8 -RA INTMT SLP158

CYQG;2013-04-28 15:00;CYQG 281500Z 14009KT 6SM -RA BR OVC040 12/09 A2998 RMK SC8 -RA INTMT SLP153

CYQG;2013-04-28 16:00;CYQG 281600Z 14012KT 6SM -RA BR BKN021 OVC040 12/10 A2996 RMK SF6SC2 SLP149

CYQG;2013-04-28 17:00;CYQG 281700Z 13010KT 5SM -RA BR OVC011 11/10 A2995 RMK SF8 SLP144

CYQG;2013-04-28 17:15;CYQG 281715Z 13011KT 4SM -RA BR BKN007 OVC011 RMK SF7SC1

CYQG;2013-04-28 18:00;CYQG 281800Z 13009KT 5SM -RA BR OVC006 12/11 A2993 RMK SF8 SLP137

CYQG;2013-04-28 18:35;CYQG 281835Z 14010KT 6SM BR OVC007 RMK SF8

CYQG;2013-04-28 19:00;CYQG 281900Z 14012KT 6SM BR OVC007 12/11 A2991 RMK SF8 SLP132

CYQG;2013-04-28 19:05;CYQG 281905Z 14012KT 2SM -SHRA BR OVC005 RMK FG1SF7

CYQG;2013-04-28 19:22;CYQG 281922Z 15012KT 4SM -SHRA BR SCT007 OVC011 RMK SF3SC5

CYQG;2013-04-28 20:00;CYQG 282000Z 14009KT 5SM -SHRA BR FEW007 OVC016 12/12 A2990 RMK SF2SC6 SLP127

CYQG;2013-04-28 20:23;CYQG 282023Z 13006KT 5SM BR FEW008 OVC013 RMK SF2SC6 OCNL -SHRA

CYQG;2013-04-28 20:33;CYQG 282033Z 13007KT 5SM BR FEW006 OVC009 RMK SF2SC6

CYQG;2013-04-28 21:00;CYQG 282100Z 12008KT 6SM BR OVC008 13/12 A2988 RMK SC8 SLP121

CYQG;2013-04-28 21:48;CYQG 282148Z 12009KT 5SM -SHRA BR OVC008 RMK SC8

CYQG;2013-04-28 22:00;CYQG 282200Z 10006KT 5SM -SHRA BR BKN008 OVC025 13/12 A2987 RMK SC7SC1 SLP116

CYQG;2013-04-28 22:17;CYQG 282217Z 12007KT 2SM -SHRA BR SCT006 OVC009 RMK CF3SC5

CYQG;2013-04-28 22:35;CYQG 282235Z 12008KT 1SM -SHRA BR SCT003 OVC009 RMK CF4SC4

CYQG;2013-04-28 23:00;CYQG 282300Z 12005KT 1 1/4SM -SHRA BR BKN004 OVC012 12/12 A2986 RMK CF5SC3 SLP114

CYQG;2013-04-28 23:40;CYQG 282340Z 12007KT 1 1/4SM -SHRA BR OVC003 RMK CF8

CYQG;2013-04-29 00:00;CYQG 290000Z 11006KT 1SM -SHRA BR OVC004 12/12 A2985 RMK CF8 SLP111

CYQG;2013-04-29 00:20;CYQG 290020Z 12005KT 1SM -SHRA BR OVC003 RMK CF8

CYQG;2013-04-29 01:00;CYQG 290100Z 12005KT 1SM -SHRA BR BKN003 OVC017 12/11 A2986 RMK CF6SC2 SLP113

CYQG;2013-04-29 01:35;CYQG 290135Z 12004KT 3SM -DZ BR BKN005 OVC017 RMK CF6SC2

CYQG;2013-04-29 02:00;CYQG 290200Z 11004KT 3SM -DZ BR BKN003 OVC013 12/12 A2986 RMK CF6SC2 SLP112

CYQG;2013-04-29 02:35;CYQG 290235Z 10002KT 4SM -DZ BR OVC005 RMK SC8

CYQG;2013-04-29 03:00;CYQG 290300Z 09002KT 3SM -DZ BR OVC004 12/12 A2985 RMK SC8 SLP111

CYQG;2013-04-29 03:15;CYQG 290315Z 10003KT 2 1/2SM -RA BR OVC004 RMK SF8

CYQG;2013-04-29 04:00;CYQG 290400Z 16006KT 2SM -RA BR BKN004 OVC017 13/12 A2984 RMK SF7SC1 SLP107

CYQG;2013-04-29 04:22;CYQG 290422Z 17006KT 3SM -RA BR OVC008 RMK SF8

CYQG;2013-04-29 05:00;CYQG 290500Z 18007KT 3SM -RA BR OVC007 13/12 A2984 RMK SF8 SLP106

CYQG;2013-04-29 05:30;CYQG 290530Z 20003KT 3SM -RA BR OVC004 RMK SF8

CYQG;2013-04-29 06:00;CYQG 290600Z 20006KT 2SM -RA BR OVC003 13/12 A2984 RMK FG1SF7 SLP107

CYQG;2013-04-29 06:13;CYQG 290613Z 21007KT 1/8SM FG VV001 RMK FG8

CYQG;2013-04-29 07:00;CYQG 290700Z 23004KT 1/8SM FG VV001 12/12 A2984 RMK FG8 SLP107

CYQG;2013-04-29 07:45;CYQG 290745Z 24004KT 1/4SM FG OVC012 RMK FG5SC3

CYQG;2013-04-29 07:48;CYQG 290748Z 25004KT 1/2SM FG OVC012 RMK FG4SC4

CYQG;2013-04-29 08:00;CYQG 290800Z 26004KT 5/8SM BR OVC014 12/12 A2985 RMK FG2SC6 SLP109

CYQG;2013-04-29 08:16;CYQG 290816Z 27003KT 5/8SM BR OVC002 RMK FG3SF5

CYQG;2013-04-29 08:32;CYQG 290832Z 26004KT 3/8SM FG OVC002 RMK FG5SF3

CYQG;2013-04-29 09:00;CYQG 290900Z 27004KT 3/8SM FG OVC002 12/12 A2986 RMK FG5SF3 SLP112

CYQG;2013-04-29 09:40;CYQG 290940Z 27003KT 1/2SM FG OVC002 RMK FG4SF4

CYQG;2013-04-29 10:00;CYQG 291000Z 27004KT 1/2SM FG OVC002 12/12 A2987 RMK FG4SF4 SLP116

CYQG;2013-04-29 10:40;CYQG 291040Z 29005KT 3/4SM -DZ BR BKN002 OVC016 RMK FG2SF2SC3

CYQG;2013-04-29 10:49;CYQG 291049Z 28006KT 1SM -DZ BR SCT002 OVC016 RMK FG2SF2SC5

CYQG;2013-04-29 10:52;CYQG 291052Z 28006KT 1 1/2SM -DZ BR FEW002 OVC017 RMK FG1SF2SC6

CYQG;2013-04-29 11:00;CYQG 291100Z 29005KT 2SM -DZ BR FEW002 OVC018 12/12 A2989 RMK FG1SF2SC6 SLP124

CYQG;2013-04-29 12:00;CYQG 291200Z CCA 29004KT 5SM -DZ BR BKN010 OVC024 13/12 A2991 RMK SF7SC1 SLP131

CYQG;2013-04-29 13:00;CYQG 291300Z 29005KT 6SM BR FEW010 FEW024 BKN050 13/12 A2992 RMK CF1SC1SC6 INTMT -DZ SLP134

CYQG;2013-04-29 13:19;CYQG 291319Z 28006KT 7SM FEW012 BKN050 RMK CF2SC5

CYQG;2013-04-29 14:00;CYQG 291400Z 28005KT 12SM BKN012 BKN050 14/12 A2992 RMK CU6SC1 SLP135

CYQG;2013-04-29 15:00;CYQG 291500Z 28008KT 8SM FEW010 OVC018 14/12 A2994 RMK CF1SC8 SLP139

CYQG;2013-04-29 16:00;CYQG 291600Z 27006KT 12SM OVC026 15/11 A2994 RMK SC8 SLP141

CYQG;2013-04-29 17:00;CYQG 291700Z 25004KT 12SM BKN025 16/11 A2993 RMK CU7 SLP138

CYQG;2013-04-29 18:00;CYQG 291800Z 26003KT 12SM BKN038 17/11 A2993 RMK SC7 SLP137

CYQG;2013-04-29 19:00;CYQG 291900Z 24005KT 12SM BKN031 17/11 A2993 RMK SC7 SLP135

CYQG;2013-04-29 20:00;CYQG 292000Z 20003KT 12SM SCT026 SCT190 BKN250 18/12 A2991 RMK CU3AC1CI1 SLP130

CYQG;2013-04-29 21:00;CYQG 292100Z 20009KT 12SM BKN033 BKN250 18/13 A2992 RMK CU5CI1 SLP131

CYQG;2013-04-29 22:00;CYQG 292200Z 20003KT 12SM FEW030 BKN260 18/13 A2992 RMK CU2CI4 SLP131

CYQG;2013-04-29 23:00;CYQG 292300Z 18007KT 12SM FEW030 BKN260 18/12 A2992 RMK CU1CI6 SLP132

CYQG;2013-04-30 00:00;CYQG 300000Z 16005KT 10SM FEW180 BKN260 17/12 A2992 RMK AC2CI4 SLP132

CYQG;2013-04-30 01:00;CYQG 300100Z 16006KT 12SM FEW160 BKN220 15/12 A2994 RMK AC1CI5 SLP138

CYQG;2013-04-30 02:00;CYQG 300200Z 15006KT 15SM BKN240 14/11 A2994 RMK CI4 SLP139

CYQG;2013-04-30 03:00;CYQG 300300Z 16008KT 15SM BKN160 13/10 A2995 RMK AC6 SLP143

CYQG;2013-04-30 04:00;CYQG 300400Z 16007KT 15SM BKN140 13/11 A2996 RMK AC6 SLP147

CYQG;2013-04-30 05:00;CYQG 300500Z 18005KT 15SM BKN120 13/11 A2996 RMK AC7 SLP148

CYQG;2013-04-30 06:00;CYQG 300600Z 19007KT 12SM BKN120 13/12 A2997 RMK AC7 SLP150

CYQG;2013-04-30 07:00;CYQG 300700Z 20005KT 12SM BKN130 14/12 A2998 RMK AC7 SLP152

CYQG;2013-04-30 08:00;CYQG 300800Z 17004KT 10SM BKN120 13/11 A2998 RMK AC6 SLP154

CYQG;2013-04-30 09:00;CYQG 300900Z 16004KT 10SM BKN130 12/11 A3000 RMK AC6 SLP159

CYQG;2013-04-30 10:00;CYQG 301000Z 18005KT 7SM FEW130 11/11 A3000 RMK AC2 SLP160

CYQG;2013-04-30 11:00;CYQG 301100Z 16007KT 5SM BR SKC 11/11 A3000 RMK SLP159

CYQG;2013-04-30 12:00;CYQG 301200Z 18007KT 5SM BR SCT100 13/12 A3004 RMK AC2 SLP173

CYQG;2013-04-30 13:00;CYQG 301300Z 20009KT 6SM HZ FEW100 FEW280 15/12 A3005 RMK AC1CS1 SLP176

CYQG;2013-04-30 14:00;CYQG 301400Z 20010KT 8SM SCT250 17/13 A3007 RMK CS3 SLP184

CYQG;2013-04-30 15:00;CYQG 301500Z 20014KT 8SM BKN110 18/13 A3008 RMK AC7 SLP187

CYQG;2013-04-30 16:00;CYQG 301600Z 22011KT 8SM OVC150 18/12 A3011 RMK AC8 SLP196

CYQG;2013-04-30 17:00;CYQG 301700Z 19005KT 8SM OVC120 18/13 A3011 RMK AS8 AC ASOCTD SLP196

CYQG;2013-04-30 18:00;CYQG 301800Z 16012KT 10SM OVC150 18/13 A3004 RMK AC8 PRESFR SLP171

CYQG;2013-04-30 19:00;CYQG 301900Z 18017G24KT 12SM SCT150 OVC220 18/13 A3002 RMK AC3CI3 SLP166

CYQG;2013-04-30 20:00;CYQG 302000Z 17017KT 12SM FEW150 BKN220 21/14 A3002 RMK AC1CI5 SLP166

CYQG;2013-04-30 21:00;CYQG 302100Z 18015KT 12SM FEW150 BKN240 20/13 A3001 RMK AC1CI3 SLP164

CYQG;2013-04-30 22:00;CYQG 302200Z 16014KT 12SM FEW150 BKN240 20/13 A3002 RMK AC1CI4 SLP166

CYQG;2013-04-30 23:00;CYQG 302300Z 15009KT 12SM BKN250 20/13 A3003 RMK CI2 SLP168

CYQG;2013-05-01 00:00;CYQG 010000Z 16008KT 10SM FEW250 18/13 A3003 RMK CI1 SLP170

CYQG;2013-05-01 01:00;CYQG 010100Z 14006KT 12SM FEW250 16/13 A3005 RMK CI1 SLP176

CYQG;2013-05-01 02:00;CYQG 010200Z 14002KT 15SM SKC 15/12 A3008 RMK SLP185

CYQG;2013-05-01 03:00;CYQG 010300Z 13002KT 15SM SKC 14/11 A3008 RMK SLP188

CYQG;2013-05-01 04:00;CYQG 010400Z 12003KT 15SM SKC 14/11 A3009 RMK SLP190

CYQG;2013-05-01 05:00;CYQG 010500Z 00000KT 15SM SKC 13/11 A3009 RMK SLP191

CYQG;2013-05-01 06:00;CYQG 010600Z 17004KT 15SM SKC 13/10 A3010 RMK SLP193

CYQG;2013-05-01 07:00;CYQG 010700Z 15004KT 15SM SKC 13/10 A3010 RMK SLP194

CYQG;2013-05-01 08:00;CYQG 010800Z 15003KT 15SM FEW260 13/10 A3011 RMK CI1 SLP197

CYQG;2013-05-01 09:00;CYQG 010900Z 16004KT 15SM FEW260 13/10 A3013 RMK CI1 SLP204

CYQG;2013-05-01 10:00;CYQG 011000Z 16008KT 15SM FEW260 13/11 A3014 RMK CI1 SLP208

CYQG;2013-05-01 11:00;CYQG 011100Z 15003KT 15SM FEW230 FEW260 13/10 A3018 RMK CC1CI1 SLP219

CYQG;2013-05-01 12:00;CYQG 011200Z 15006KT 15SM SCT180 SCT280 14/11 A3021 RMK AC3CI1 TR CI SLP230

CYQG;2013-05-01 13:00;CYQG 011300Z 16007KT 15SM FEW170 FEW280 17/12 A3022 RMK AC1CI1 TR AC SLP235

CYQG;2013-05-01 14:00;CYQG 011400Z 17007KT 15SM FEW280 18/13 A3023 RMK CI1 SLP237

CYQG;2013-05-01 15:00;CYQG 011500Z 18007KT 15SM FEW280 20/13 A3023 RMK CI1 TR CI SLP238

CYQG;2013-05-01 16:00;CYQG 011600Z 16006KT 15SM FEW280 21/14 A3023 RMK CI1 TR CI SLP237

CYQG;2013-05-01 17:00;CYQG 011700Z 15006KT 15SM SKC 23/15 A3023 RMK SLP237

CYQG;2013-05-01 18:00;CYQG 011800Z 18007KT 15SM FEW280 24/15 A3022 RMK CI1 TR CI SLP233

CYQG;2013-05-01 19:00;CYQG 011900Z 14008KT 15SM SKC 25/14 A3022 RMK SLP233

CYQG;2013-05-01 20:00;CYQG 012000Z 15009KT 15SM SKC 25/13 A3021 RMK SLP231

CYQG;2013-05-01 21:00;CYQG 012100Z 15010KT 15SM SKC 25/14 A3022 RMK SLP231

CYQG;2013-05-01 22:00;CYQG 012200Z 15007KT 15SM SKC 25/13 A3023 RMK SLP234

CYQG;2013-05-01 23:00;CYQG 012300Z 14008KT 15SM SKC 23/14 A3023 RMK SLP236

CYQG;2013-05-02 00:00;CYQG 020000Z 11007KT 15SM SKC 21/14 A3023 RMK SLP237

CYQG;2013-05-02 01:00;CYQG 020100Z 12007KT 15SM SKC 18/13 A3024 RMK SLP239

CYQG;2013-05-02 02:00;CYQG 020200Z 12007KT 15SM SKC 16/11 A3025 RMK SLP242

CYQG;2013-05-02 03:00;CYQG 020300Z 11010KT 15SM SKC 16/10 A3025 RMK SLP243

CYQG;2013-05-02 04:00;CYQG 020400Z 11008KT 15SM SKC 15/09 A3025 RMK SLP242

CYQG;2013-05-02 05:00;CYQG 020500Z 11007KT 15SM SKC 14/09 A3025 RMK SLP242

CYQG;2013-05-02 06:00;CYQG 020600Z 10002KT 15SM SKC 13/09 A3025 RMK SLP242

CYQG;2013-05-02 07:00;CYQG 020700Z 07005KT 15SM SKC 12/09 A3023 RMK SLP238

CYQG;2013-05-02 08:00;CYQG 020800Z 10004KT 15SM SKC 12/09 A3023 RMK SLP238

CYQG;2013-05-02 09:00;CYQG 020900Z 11003KT 15SM FEW260 12/08 A3024 RMK CI1 CONTRAILS SLP239

CYQG;2013-05-02 10:00;CYQG 021000Z 07004KT 15SM FEW260 11/08 A3024 RMK CI1 CONTRAILS SLP241

CYQG;2013-05-02 11:00;CYQG 021100Z 10004KT 15SM BKN260 12/08 A3025 RMK CI1 CONTRAILS SLP244

CYQG;2013-05-02 12:00;CYQG 021200Z 13005KT 15SM BKN280 15/08 A3027 RMK CI3 CONTRAILS SLP249

CYQG;2013-05-02 13:00;CYQG 021300Z 15008KT 15SM BKN280 17/08 A3027 RMK CI3 CONTRAILS SLP251

CYQG;2013-05-02 14:00;CYQG 021400Z 16010KT 15SM BKN280 19/10 A3028 RMK CI4 CONTRAILS SLP252

CYQG;2013-05-02 15:00;CYQG 021500Z 18010KT 15SM BKN280 20/11 A3028 RMK CI4 CONTRAILS SLP252

CYQG;2013-05-02 16:00;CYQG 021600Z 18011KT 15SM BKN280 21/12 A3027 RMK CI4 SLP251

CYQG;2013-05-02 17:00;CYQG 021700Z 18007KT 15SM BKN280 23/12 A3025 RMK CI3 SLP243

CYQG;2013-05-02 18:00;CYQG 021800Z 17009KT 15SM BKN280 23/13 A3024 RMK CI3 SLP240

CYQG;2013-05-02 19:00;CYQG 021900Z 14007KT 15SM FEW025 BKN280 24/13 A3023 RMK CF1CI4 TR CF CONTRAILS SLP236

CYQG;2013-05-02 20:00;CYQG 022000Z 12010G15KT 15SM FEW025 BKN280 24/12 A3021 RMK CF1CI5 SLP229

CYQG;2013-05-02 21:00;CYQG 022100Z 12013KT 15SM BKN280 24/11 A3020 RMK CI4 SLP226

CYQG;2013-05-02 22:00;CYQG 022200Z 12013G18KT 15SM BKN280 23/11 A3019 RMK CI4 CONTRAILS SLP222

CYQG;2013-05-02 23:00;CYQG 022300Z 11011KT 15SM BKN280 21/09 A3017 RMK CI6 CONTRAILS SLP217

CYQG;2013-05-03 00:00;CYQG 030000Z 13006KT 15SM BKN260 20/09 A3017 RMK CI6 SLP216

CYQG;2013-05-03 01:00;CYQG 030100Z 12006KT 15SM BKN260 18/09 A3017 RMK CI6 SLP216

CYQG;2013-05-03 02:00;CYQG 030200Z 12007KT 15SM BKN260 16/08 A3017 RMK CI5 SLP217

CYQG;2013-05-03 03:00;CYQG 030300Z 12007KT 15SM FEW260 15/05 A3017 RMK CI1 SLP215

CYQG;2013-05-03 04:00;CYQG 030400Z 11005KT 15SM BKN260 14/04 A3016 RMK CI2 SLP212

CYQG;2013-05-03 05:00;CYQG 030500Z 09004KT 15SM BKN260 13/05 A3015 RMK CI5 SLP209

CYQG;2013-05-03 06:00;CYQG 030600Z 11006KT 15SM OVC260 13/05 A3014 RMK CI6 SLP205

CYQG;2013-05-03 07:00;CYQG 030700Z 12005KT 15SM OVC240 13/05 A3013 RMK CI6 SLP202

CYQG;2013-05-03 08:00;CYQG 030800Z 13006KT 15SM FEW080 OVC240 13/05 A3013 RMK AC2CS2 SLP201

CYQG;2013-05-03 09:00;CYQG 030900Z 12006KT 15SM FEW080 OVC240 13/05 A3013 RMK AC2CS1 SLP201

CYQG;2013-05-03 10:00;CYQG 031000Z 13002KT 15SM BKN080 BKN240 13/05 A3014 RMK AC5CS1 SLP204

CYQG;2013-05-03 11:00;CYQG 031100Z 16006KT 15SM BKN100 BKN240 14/06 A3014 RMK AC6CI1 SLP206

CYQG;2013-05-03 12:00;CYQG 031200Z 14004KT 15SM FEW065 SCT090 BKN280 16/08 A3015 RMK CU2AC2CI2 CONTRAILS SLP209

CYQG;2013-05-03 13:00;CYQG 031300Z 16005KT 15SM FEW060 BKN280 18/10 A3015 RMK CU2CI2 CONTRAILS SLP210

CYQG;2013-05-03 14:00;CYQG 031400Z 16007KT 15SM FEW090 BKN280 20/11 A3014 RMK AC1CI3 CONTRAILS SLP208

CYQG;2013-05-03 15:00;CYQG 031500Z 15008KT 15SM FEW045 BKN280 20/11 A3015 RMK CU1CI4 CONTRAILS SLP210

CYQG;2013-05-03 16:00;CYQG 031600Z 14012KT 15SM FEW080 BKN280 20/12 A3015 RMK AC1CI3 SLP209

CYQG;2013-05-03 17:00;CYQG 031700Z 14012KT 15SM FEW080 BKN280 22/12 A3014 RMK AC1CI4 TR AC SLP206

CYQG;2013-05-03 18:00;CYQG 031800Z CCA 14011G17KT 15SM FEW030 BKN270 22/09 A3013 RMK CF1CS5 TR CF CI ASOCTD HALO SLP202

CYQG;2013-05-03 19:00;CYQG 031900Z 11012G19KT 15SM BKN280 22/08 A3013 RMK CI3 CS ASOCTD SLP201

CYQG;2013-05-03 20:00;CYQG 032000Z 13015KT 15SM FEW066 BKN280 23/04 A3010 RMK CU1CI2 TR CU SLP193

CYQG;2013-05-03 21:00;CYQG 032100Z 13015KT 15SM BKN280 23/03 A3009 RMK CI2 CONTRAILS SLP189

CYQG;2013-05-03 22:00;CYQG 032200Z 12016KT 15SM BKN280 23/03 A3009 RMK CI2 CONTRAILS SLP188

CYQG;2013-05-03 23:00;CYQG 032300Z 11012KT 15SM FEW100 BKN280 23/05 A3009 RMK AC1CI2 TR AC CONTRAILS SLP188

CYQG;2013-05-04 00:00;CYQG 040000Z 10009KT 15SM FEW100 BKN280 21/06 A3009 RMK AC1CI2 TR AC CONTRAILS SLP190

CYQG;2013-05-04 01:00;CYQG 040100Z 09007KT 15SM FEW240 BKN280 18/07 A3010 RMK CS1CI2 CONTRAILS SLP191

CYQG;2013-05-04 02:00;CYQG 040200Z 09007KT 15SM FEW270 16/07 A3010 RMK CI0 SLP193

CYQG;2013-05-04 03:00;CYQG 040300Z 10007KT 15SM FEW270 15/07 A3011 RMK CI1 CONTRAILS SLP194

CYQG;2013-05-04 04:00;CYQG 040400Z 11005KT 15SM FEW270 14/07 A3010 RMK CI1 SLP193

CYQG;2013-05-04 05:00;CYQG 040500Z 09007KT 15SM FEW270 15/07 A3011 RMK CI1 SLP194

CYQG;2013-05-04 06:00;CYQG 040600Z 11009KT 15SM FEW270 15/07 A3011 RMK CI1 SLP195

CYQG;2013-05-04 07:00;CYQG 040700Z 13007KT 15SM FEW270 14/08 A3011 RMK CI1 SLP194

CYQG;2013-05-04 08:00;CYQG 040800Z 13005KT 15SM BKN270 13/08 A3011 RMK CI1 SLP196

CYQG;2013-05-04 09:00;CYQG 040900Z 13005KT 15SM BKN270 14/08 A3011 RMK CI2 SLP197

CYQG;2013-05-04 10:00;CYQG 041000Z 13006KT 15SM BKN270 13/07 A3012 RMK CI2 SLP200

CYQG;2013-05-04 11:00;CYQG 041100Z CCA 12005KT 15SM OVC270 13/07 A3014 RMK CI3 SLP204

CYQG;2013-05-04 12:00;CYQG 041200Z 13009KT 15SM BKN280 14/07 A3015 RMK CI4 CONTRAILS SLP209

CYQG;2013-05-04 13:00;CYQG 041300Z 12013KT 15SM BKN280 15/06 A3015 RMK CI5 CONTRAILS SLP210

CYQG;2013-05-04 14:00;CYQG 041400Z 15012KT 15SM OVC280 16/05 A3015 RMK CI6 SLP210

CYQG;2013-05-04 15:00;CYQG 041500Z 12008KT 15SM BKN270 17/04 A3015 RMK CS6 HALO SLP210

CYQG;2013-05-04 16:00;CYQG 041600Z 11011KT 15SM BKN270 17/05 A3014 RMK CS6 SLP207

CYQG;2013-05-04 17:00;CYQG 041700Z 11008KT 15SM BKN270 18/05 A3014 RMK CS5 HALO SLP206

CYQG;2013-05-04 18:00;CYQG 041800Z 11012G17KT 15SM BKN270 19/04 A3013 RMK CI4 CONTRAILS HALO SLP203

CYQG;2013-05-04 19:00;CYQG 041900Z 11011KT 15SM FEW270 BKN300 20/05 A3012 RMK CS2CI2 CONTRAILS SLP199

CYQG;2013-05-04 20:00;CYQG 042000Z 11011G16KT 15SM FEW270 BKN300 20/05 A3010 RMK CS1CI2 CONTRAILS SLP193

CYQG;2013-05-04 21:00;CYQG 042100Z 09011G17KT 15SM FEW260 BKN290 20/04 A3009 RMK CS1CI2 CONTRAILS SLP190

CYQG;2013-05-04 22:00;CYQG 042200Z 10013KT 15SM SCT260 BKN290 21/05 A3008 RMK CS2CI2 CONTRAILS SLP187

CYQG;2013-05-04 23:00;CYQG 042300Z 09009G15KT 15SM SCT260 BKN290 20/05 A3008 RMK CS2CI2 CONTRAILS SLP187

CYQG;2013-05-05 00:00;CYQG 050000Z 09008KT 15SM SCT260 BKN290 19/05 A3008 RMK CS2CI2 CONTRAILS SLP186

CYQG;2013-05-05 01:00;CYQG 050100Z 09008KT 15SM FEW250 BKN280 17/04 A3009 RMK CS2CI1 CONTRAILS SLP190

CYQG;2013-05-05 02:00;CYQG 050200Z 09008KT 15SM SCT270 15/05 A3011 RMK CI2 SLP195

CYQG;2013-05-05 03:00;CYQG 050300Z 10004KT 15SM BKN270 14/04 A3011 RMK CI2 SLP197

CYQG;2013-05-05 04:00;CYQG 050400Z 11011KT 15SM BKN270 14/05 A3011 RMK CI3 SLP196

CYQG;2013-05-05 05:00;CYQG 050500Z 10010KT 15SM BKN270 13/05 A3010 RMK CI3 SLP194

CYQG;2013-05-05 06:00;CYQG 050600Z 10008KT 15SM BKN280 13/05 A3010 RMK CI2 SLP193

CYQG;2013-05-05 07:00;CYQG 050700Z 09006KT 15SM BKN280 12/05 A3009 RMK CI4 SLP191

CYQG;2013-05-05 08:00;CYQG 050800Z 10006KT 15SM BKN280 11/06 A3009 RMK CI4 SLP190

CYQG;2013-05-05 09:00;CYQG 050900Z 09003KT 15SM SCT280 10/06 A3010 RMK CI2 SLP192

CYQG;2013-05-05 10:00;CYQG 051000Z 09004KT 15SM BKN280 10/06 A3009 RMK CI2 SLP191

CYQG;2013-05-05 11:00;CYQG 051100Z 11008KT 15SM BKN280 10/06 A3011 RMK CI4 SLP196

CYQG;2013-05-05 12:00;CYQG 051200Z 11009KT 15SM BKN280 14/07 A3012 RMK CI5 CONTRAILS SLP199

CYQG;2013-05-05 13:00;CYQG 051300Z 14007KT 15SM BKN280 16/06 A3013 RMK CI5 CONTRAILS SLP203

CYQG;2013-05-05 14:00;CYQG 051400Z 16012KT 15SM BKN280 17/04 A3013 RMK CS6 CI ASOCTD CONTRAILS HALO SLP202

CYQG;2013-05-05 15:00;CYQG 051500Z 14009KT 15SM BKN280 17/05 A3012 RMK CS6 CONTRAILS HALO SLP201

CYQG;2013-05-05 16:00;CYQG 051600Z 13011KT 15SM BKN280 18/06 A3012 RMK CS5 CI ASOCTD SLP200

CYQG;2013-05-05 17:00;CYQG 051700Z 11012KT 15SM SCT270 BKN300 19/07 A3010 RMK CS2CI2 CONTRAILS SLP194

CYQG;2013-05-05 18:00;CYQG 051800Z 07015KT 15SM SCT270 BKN300 21/06 A3007 RMK CS2CI1 CONTRAILS SLP184

CYQG;2013-05-05 19:00;CYQG 051900Z 07014KT 15SM SCT270 BKN300 21/04 A3007 RMK CS2CI1 CONTRAILS SLP184

CYQG;2013-05-05 20:00;CYQG 052000Z CCA 07014KT 15SM FEW270 21/04 A3006 RMK CI1 CONTRAILS SLP178

CYQG;2013-05-05 21:00;CYQG 052100Z 10013KT 15SM BKN280 22/03 A3004 RMK CI2 SLP173

CYQG;2013-05-05 22:00;CYQG 052200Z 08009KT 15SM BKN280 22/04 A3004 RMK CI1 SLP173

CYQG;2013-05-05 23:00;CYQG 052300Z 07011KT 15SM BKN280 21/04 A3003 RMK CI1 SLP169

CYQG;2013-05-06 00:00;CYQG 060000Z 08007KT 15SM BKN280 20/06 A3003 RMK CI1 SLP170

CYQG;2013-05-06 01:00;CYQG 060100Z 07005KT 15SM BKN280 17/06 A3003 RMK CI1 SLP170

CYQG;2013-05-06 02:00;CYQG 060200Z 03012KT 15SM BKN280 15/08 A3005 RMK CI1 SLP175

CYQG;2013-05-06 03:00;CYQG 060300Z 04008KT 15SM BKN280 13/07 A3005 RMK CI2 SLP177

CYQG;2013-05-06 04:00;CYQG 060400Z 04007KT 15SM BKN280 12/07 A3005 RMK CI3 SLP177

CYQG;2013-05-06 05:00;CYQG 060500Z 05006KT 15SM BKN280 11/08 A3004 RMK CI3 SLP173

CYQG;2013-05-06 06:00;CYQG 060600Z 05005KT 12SM FEW280 11/08 A3004 RMK CI1 SLP172

CYQG;2013-05-06 07:00;CYQG 060700Z 05005KT 12SM FEW280 11/08 A3003 RMK CI1 SLP169

CYQG;2013-05-06 08:00;CYQG 060800Z 07006KT 12SM FEW280 11/06 A3002 RMK CI1 SLP168

CYQG;2013-05-06 09:00;CYQG 060900Z 07006KT 15SM FEW280 10/04 A3003 RMK CI1 SLP169

CYQG;2013-05-06 10:00;CYQG 061000Z 08007KT 15SM SCT280 09/03 A3004 RMK CI2 CONTRAILS SLP172

CYQG;2013-05-06 11:00;CYQG 061100Z 08005KT 15SM OVC280 10/03 A3005 RMK CS6 SLP176

CYQG;2013-05-06 12:00;CYQG 061200Z 11007KT 15SM FEW180 OVC280 12/05 A3007 RMK AC1CI5 CONTRAILS SLP183

CYQG;2013-05-06 13:00;CYQG 061300Z 09005KT 15SM FEW180 OVC280 14/05 A3007 RMK AC1CI5 TR AC CONTRAILS SLP185

CYQG;2013-05-06 14:00;CYQG 061400Z 10007KT 15SM FEW180 BKN280 16/06 A3008 RMK AC1CI5 TR AC CONTRAILS SLP188

CYQG;2013-05-06 15:00;CYQG 061500Z 08006KT 15SM SCT260 BKN280 17/07 A3008 RMK CS3CI2 CONTRAILS SLP186

CYQG;2013-05-06 16:00;CYQG 061600Z 07004KT 15SM SCT260 BKN280 18/08 A3007 RMK CS2CI2 CONTRAILS SLP184

CYQG;2013-05-06 17:00;CYQG 061700Z 05010KT 15SM BKN270 18/08 A3006 RMK CS6 HALO CONTRAILS SLP179

CYQG;2013-05-06 18:00;CYQG 061800Z 07011KT 15SM SCT270 BKN300 19/09 A3004 RMK CS2CI2 HALO CONTRAILS SLP174

CYQG;2013-05-06 19:00;CYQG 061900Z 06012KT 15SM SCT270 BKN300 21/10 A3003 RMK CS2CI2 CONTRAILS SLP170

CYQG;2013-05-06 20:00;CYQG 062000Z 10011KT 15SM BKN280 22/10 A3001 RMK CS2 CONTRAILS SLP164

CYQG;2013-05-06 21:00;CYQG 062100Z 11010KT 15SM BKN290 22/09 A3000 RMK CS2 CONTRAILS SLP158

CYQG;2013-05-06 22:00;CYQG 062200Z 10010KT 15SM FEW130 BKN290 22/08 A2999 RMK AC1CS2 CONTRAILS SLP157

CYQG;2013-05-06 23:00;CYQG 062300Z 10006KT 15SM FEW130 BKN290 21/07 A2999 RMK AC2CS1 CONTRAILS SLP157

CYQG;2013-05-07 00:00;CYQG 070000Z 11006KT 15SM FEW130 BKN290 20/06 A3000 RMK AC2CS2 CONTRAILS SLP160

CYQG;2013-05-07 01:00;CYQG 070100Z 09004KT 15SM FEW130 SCT280 17/06 A3001 RMK AC1CI1 SLP162

CYQG;2013-05-07 02:00;CYQG 070200Z 11005KT 15SM SKC 17/05 A3002 RMK SLP166

CYQG;2013-05-07 03:00;CYQG 070300Z 13003KT 15SM SKC 14/05 A3003 RMK SLP171

CYQG;2013-05-07 04:00;CYQG 070400Z 04005KT 15SM SKC 13/04 A3003 RMK SLP169

CYQG;2013-05-07 05:00;CYQG 070500Z 05005KT 15SM SKC 13/04 A3003 RMK SLP169

CYQG;2013-05-07 06:00;CYQG 070600Z 06006KT 15SM SKC 13/07 A3002 RMK SLP167

CYQG;2013-05-07 07:00;CYQG 070700Z 05004KT 15SM SKC 12/08 A3001 RMK SLP164

CYQG;2013-05-07 08:00;CYQG 070800Z 04006KT 15SM SKC 12/09 A3002 RMK SLP165

CYQG;2013-05-07 09:00;CYQG 070900Z 06003KT 15SM SKC 12/08 A3003 RMK SLP168

CYQG;2013-05-07 10:00;CYQG 071000Z 07004KT 15SM SCT260 12/08 A3004 RMK CI1 SLP171

CYQG;2013-05-07 11:00;CYQG 071100Z 07003KT 15SM BKN260 12/08 A3004 RMK CI2 CONTRAILS SLP174

CYQG;2013-05-07 12:00;CYQG 071200Z 04004KT 15SM FEW180 BKN270 14/11 A3006 RMK AC2CI2 CONTRAILS SLP180

CYQG;2013-05-07 13:00;CYQG 071300Z 05006KT 15SM FEW180 BKN280 16/12 A3007 RMK AC1CI3 CONTRAILS SLP184

CYQG;2013-05-07 14:00;CYQG 071400Z 07006KT 15SM SCT080 BKN280 18/12 A3007 RMK AC2CI2 CONTRAILS SLP183

CYQG;2013-05-07 15:00;CYQG 071500Z 05007KT 15SM SCT180 BKN270 18/12 A3007 RMK AC2CS2 CONTRAILS SLP184

CYQG;2013-05-07 16:00;CYQG 071600Z 06008KT 15SM FEW030 BKN270 20/13 A3006 RMK CF1CS4 TR CF CONTRAILS SLP181

CYQG;2013-05-07 17:00;CYQG 071700Z 06010G15KT 15SM FEW030 BKN290 21/13 A3004 RMK CF1CI2 TR CF CONTRAILS SLP175

CYQG;2013-05-07 18:00;CYQG 071800Z 07014KT 15SM FEW030 BKN300 22/12 A3004 RMK CF1CI2 CONTRAISL SLP171

CYQG;2013-05-07 19:00;CYQG 071900Z 07014G19KT 15SM FEW030 BKN300 22/11 A3002 RMK CU1CI2 CONTRAILS SLP167

CYQG;2013-05-07 20:00;CYQG 072000Z 06013G20KT 15SM FEW050 FEW250 BKN300 23/10 A3001 RMK CU1CC1CI2 CONTRAILS SLP163

CYQG;2013-05-07 21:00;CYQG 072100Z 07013KT 15SM FEW061 FEW130 BKN300 23/10 A3000 RMK CU1AC1CI2 CONTRAILS SLP159

CYQG;2013-05-07 22:00;CYQG 072200Z 07009KT 15SM FEW060 FEW140 BKN300 23/09 A3000 RMK CU1AC2CI2 TR CU CONTRAILS SLP158

CYQG;2013-05-07 23:00;CYQG 072300Z 09009KT 15SM FEW060 FEW140 BKN300 23/10 A3000 RMK CU1AC1CI2 TR CU CONTRAILS SLP158

CYQG;2013-05-08 00:00;CYQG 080000Z 15008KT 15SM FEW140 BKN290 22/09 A3000 RMK AC1CI2 TR AC CONTRAILS SLP159

CYQG;2013-05-08 01:00;CYQG 080100Z 08005KT 15SM FEW130 BKN290 20/10 A3001 RMK AC1CI1 SLP162

CYQG;2013-05-08 02:00;CYQG 080200Z 04007KT 15SM FEW130 FEW280 16/12 A3003 RMK AC1CI1 SLP169

CYQG;2013-05-08 03:00;CYQG 080300Z 03005KT 15SM FEW110 FEW280 15/08 A3004 RMK AC1CI1 SLP172

CYQG;2013-05-08 04:00;CYQG 080400Z 03004KT 15SM BKN260 15/05 A3003 RMK CS2 SLP169

CYQG;2013-05-08 05:00;CYQG 080500Z 36005KT 15SM SCT100 BKN260 15/05 A3002 RMK AC3CS2 SLP165

CYQG;2013-05-08 06:00;CYQG 080600Z 01002KT 15SM SCT093 BKN260 15/04 A3000 RMK AC3CS3 SLP159

CYQG;2013-05-08 07:00;CYQG 080700Z 36003KT 15SM BKN078 BKN260 15/05 A2999 RMK AC5CI1 SLP155

CYQG;2013-05-08 08:00;CYQG 080800Z 35004KT 15SM BKN100 BKN260 14/05 A2998 RMK AC6CI1 SLP153

CYQG;2013-05-08 09:00;CYQG 080900Z 02004KT 15SM BKN110 15/04 A2998 RMK AC6 SLP151

CYQG;2013-05-08 10:00;CYQG 081000Z 09004KT 15SM BKN110 14/06 A2998 RMK AC6 SLP153

CYQG;2013-05-08 11:00;CYQG 081100Z 04006KT 15SM SCT120 BKN280 14/07 A2999 RMK AC4CI1 CONTRAILS SLP155

CYQG;2013-05-08 12:00;CYQG 081200Z 05005KT 15SM BKN120 BKN280 14/09 A3001 RMK AC6CI0 CONTRAILS SLP163

CYQG;2013-05-08 13:00;CYQG 081300Z 06007KT 15SM BKN120 BKN280 15/10 A3002 RMK AC6CI1 CONTRAILS SLP165

CYQG;2013-05-08 14:00;CYQG 081400Z 03004KT 15SM BKN100 BKN280 16/10 A3002 RMK AC6CI1 CONTRAILS SLP166

CYQG;2013-05-08 15:00;CYQG 081500Z 04003KT 15SM BKN110 BKN280 19/11 A3002 RMK AC4CI1 CONTRAILS SLP165

CYQG;2013-05-08 16:00;CYQG 081600Z 09003KT 15SM FEW100 BKN280 20/12 A3001 RMK AC2CI2 CONTRAILS SLP164

CYQG;2013-05-08 17:00;CYQG 081700Z 06003KT 15SM FEW030 FEW120 BKN280 22/13 A3000 RMK CU1AC1CI2 TR CU CONTRAILS SLP158

CYQG;2013-05-08 18:00;CYQG 081800Z 02003KT 15SM FEW030 SCT260 BKN280 23/13 A2999 RMK CU1CC2CI1 CONTRAILS SLP155

CYQG;2013-05-08 19:00;CYQG 081900Z 07005KT 15SM FEW040TCU SCT260 BKN280 24/13 A2998 RMK TCU2CC1CI1 CB TOPS DIST NE SLP150

CYQG;2013-05-08 20:00;CYQG 082000Z 08007KT 15SM FEW040TCU SCT260 BKN280 25/11 A2996 RMK TCU2CC1CI2 SLP144

CYQG;2013-05-08 21:00;CYQG 082100Z 07010KT 15SM FEW040CB SCT130 BKN280 24/11 A2995 RMK CB2AC2CI2 CB N AND E CB W TOPS VISBL CONTRAILS SLP142

CYQG;2013-05-08 22:00;CYQG 082200Z 10009G15KT 15SM FEW040 BKN091 BKN280 21/12 A2996 RMK CU2AC5CI1 TR CI TCU ASOCTD SLP143

CYQG;2013-05-08 23:00;CYQG 082300Z 17004KT 15SM FEW040 BKN120 BKN280 21/11 A2995 RMK CU1AC6CI1 TR CI CONTRAILS SLP141

CYQG;2013-05-09 00:00;CYQG 090000Z 23005KT 15SM FEW038 BKN130 BKN280 21/13 A2995 RMK CU1AC6CI2 TR CU SLP142

CYQG;2013-05-09 01:00;CYQG 090100Z 24002KT 15SM FEW140 BKN280 20/12 A2995 RMK AC2CI2 SLP143

CYQG;2013-05-09 02:00;CYQG 090200Z 10005KT 15SM FEW120 SCT270 18/12 A2998 RMK AC1CI1 SLP153

CYQG;2013-05-09 03:00;CYQG 090300Z 00000KT 15SM FEW240 SCT270 16/12 A2998 RMK CS1CI1 SLP153

CYQG;2013-05-09 04:00;CYQG 090400Z 22007KT 15SM FEW240 16/12 A2998 RMK CI1 SLP150

CYQG;2013-05-09 05:00;CYQG 090500Z 23007KT 15SM SCT240 16/11 A2996 RMK CI2 SLP146

CYQG;2013-05-09 06:00;CYQG 090600Z 25007KT 15SM SCT240 16/11 A2995 RMK CI2 SLP142

CYQG;2013-05-09 07:00;CYQG 090700Z 25006KT 15SM FEW160 SCT240 15/11 A2994 RMK AC1CI2 SLP137

CYQG;2013-05-09 08:00;CYQG 090800Z 27003KT 15SM FEW160 FEW240 15/11 A2993 RMK AC1CI1 SLP133

CYQG;2013-05-09 09:00;CYQG 090900Z 27004KT 15SM FEW160 BKN240 14/11 A2992 RMK AC1CI2 SLP132

CYQG;2013-05-09 10:00;CYQG 091000Z 27004KT 10SM FEW160 BKN240 14/11 A2993 RMK AC1CI2 SLP135

CYQG;2013-05-09 11:00;CYQG 091100Z 27005KT 10SM FEW160 BKN240 15/12 A2996 RMK AC1CI2 SLP144

CYQG;2013-05-09 12:00;CYQG 091200Z 00000KT 15SM FEW160 FEW250 17/12 A2997 RMK AC1CI1 SLP148

CYQG;2013-05-09 13:00;CYQG 091300Z 09004KT 15SM FEW160 19/13 A2998 RMK AC1 SLP150

CYQG;2013-05-09 14:00;CYQG 091400Z 00000KT 15SM FEW270 20/14 A2998 RMK CI1 SLP151

CYQG;2013-05-09 15:00;CYQG 091500Z 07004KT 15SM FEW290 22/12 A2998 RMK CI1 CONTRAILS SLP150

CYQG;2013-05-09 16:00;CYQG 091600Z 10004KT 15SM FEW050 FEW290 23/10 A2998 RMK CF1CI1 SLP151

CYQG;2013-05-09 17:00;CYQG 091700Z 05003KT 15SM FEW055 FEW300 25/07 A2998 RMK CU1CI1 SLP151

CYQG;2013-05-09 18:00;CYQG 091800Z 06003KT 15SM FEW060 BKN300 25/09 A2996 RMK CU1CI1 SLP145

CYQG;2013-05-09 19:00;CYQG 091900Z 19007KT 15SM SCT070 BKN300 25/11 A2995 RMK CU3CI2 SLP141

CYQG;2013-05-09 20:00;CYQG 092000Z 21006KT 12SM SCT070 BKN300 25/09 A2995 RMK CU3CI3 TCU ASOCTD CONTRAILS SLP139

CYQG;2013-05-09 21:00;CYQG 092100Z 17009KT 15SM FEW070 BKN130 BKN300 25/10 A2993 RMK CU2AC3CI2 TCU ASOCTD CONTRAILS SLP134

CYQG;2013-05-09 22:00;CYQG 092200Z 17009KT 15SM FEW070 BKN120 BKN300 25/10 A2992 RMK CU1AC4CI2 CONTRAILS SLP130

CYQG;2013-05-09 23:00;CYQG 092300Z 15007KT 12SM SCT100 BKN220 BKN290 24/07 A2992 RMK AC4CC1CI1 CONTRAILS SLP131

CYQG;2013-05-10 00:00;CYQG 100000Z 15006KT 15SM FEW130 BKN280 22/09 A2992 RMK AC2CI5 CONTRAILS SLP130

CYQG;2013-05-10 01:00;CYQG 100100Z 16006KT 15SM FEW130 OVC260 20/07 A2992 RMK AC2CI6 SLP130

CYQG;2013-05-10 02:00;CYQG 100200Z 16007KT 15SM FEW110 OVC240 19/05 A2992 RMK AC2CS6 SLP131

CYQG;2013-05-10 03:00;CYQG 100300Z 20006KT 15SM FEW095 BKN250 18/06 A2993 RMK AC2CS4 SLP134

CYQG;2013-05-10 04:00;CYQG 100400Z 18009KT 15SM SCT094 BKN160 18/07 A2992 RMK AC3AC4 SLP130

CYQG;2013-05-10 05:00;CYQG 100500Z 19006KT 15SM -SHRA OVC088 19/09 A2992 RMK AC8 SLP131

CYQG;2013-05-10 05:49;CYQG 100549Z 25012KT 15SM OVC120 RMK AC8

CYQG;2013-05-10 06:00;CYQG 100600Z 25014KT 15SM OVC110 20/12 A2991 RMK AC8 SLP126

CYQG;2013-05-10 07:00;CYQG 100700Z 30003KT 15SM OVC077 19/12 A2987 RMK AC8 SLP113

CYQG;2013-05-10 08:00;CYQG 100800Z 30003KT 15SM OVC096 17/14 A2986 RMK AC8 SLP109

CYQG;2013-05-10 08:22;CYQG 100822Z 19007KT 15SM -SHRA OVC071 RMK AC8

CYQG;2013-05-10 09:00;CYQG 100900Z 18005KT 12SM -SHRA OVC088 16/14 A2984 RMK AC8 SLP102

CYQG;2013-05-10 10:00;CYQG 101000Z 17004KT 5SM -SHRA BR OVC027 16/14 A2982 RMK SC8 SLP097

CYQG;2013-05-10 10:19;CYQG 101019Z 15003KT 2SM -SHRA BR OVC007 RMK SF8

CYQG;2013-05-10 10:29;CYQG 101029Z 13004KT 1 1/2SM -SHRA BR OVC003 RMK SF8

CYQG;2013-05-10 10:54;CYQG 101054Z 18006KT 1SM -SHRA BR BKN006 OVC015 RMK SF5SC3

CYQG;2013-05-10 11:00;CYQG 101100Z 16006KT 1SM -SHRA BR BKN006 OVC015 15/15 A2981 RMK SF5SC3 SLP092

CYQG;2013-05-10 11:08;CYQG 101108Z 17006KT 3SM -SHRA BR FEW006 OVC013 RMK SF2SC6

CYQG;2013-05-10 11:48;CYQG 101148Z 20010KT 3SM BR FEW010 OVC021 RMK SC2SC6

CYQG;2013-05-10 12:00;CYQG 101200Z 20011KT 5SM BR SCT010 OVC018 17/15 A2980 RMK SC3SC5 SLP089

CYQG;2013-05-10 13:00;CYQG 101300Z 21014KT 10SM FEW010 BKN036 18/15 A2980 RMK SC1SC6 SLP090

CYQG;2013-05-10 14:00;CYQG 101400Z 20013KT 12SM BKN019 BKN110 BKN290 19/16 A2979 RMK SC5AC2CI1 SLP087

CYQG;2013-05-10 15:00;CYQG 101500Z 22016G21KT 12SM SCT020 BKN110 19/16 A2978 RMK SC3AC4 SLP082

CYQG;2013-05-10 16:00;CYQG 101600Z 23014G22KT 15SM BKN021 BKN290 20/15 A2978 RMK SC6CI1 SLP082

CYQG;2013-05-10 17:00;CYQG 101700Z 23019G25KT 15SM BKN028 BKN045 22/15 A2978 RMK SC5SC2 SLP082

CYQG;2013-05-10 18:00;CYQG 101800Z 23020G26KT 15SM FEW036 BKN055 BKN280 23/14 A2976 RMK CU2SC2CI1 SLP076

CYQG;2013-05-10 19:00;CYQG 101900Z 24017G22KT 15SM BKN047 BKN280 23/14 A2976 RMK CU6CI2 SLP074

CYQG;2013-05-10 20:00;CYQG 102000Z 27006G17KT 15SM SCT040 OVC280 23/14 A2974 RMK CU4CS4 SLP070

CYQG;2013-05-10 21:00;CYQG 102100Z 05008KT 15SM BKN040 BKN280 17/13 A2975 RMK CU6CS1 SLP075

CYQG;2013-05-10 22:00;CYQG 102200Z 34012KT 15SM BKN020 OVC040 16/11 A2977 RMK SC6SC2 SLP079

CYQG;2013-05-10 23:00;CYQG 102300Z 36010KT 15SM OVC027 15/10 A2977 RMK SC8 SLP081

CYQG;2013-05-11 00:00;CYQG 110000Z 34008KT 15SM OVC025 13/08 A2977 RMK SC8 SLP081

CYQG;2013-05-11 01:00;CYQG 110100Z 35011KT 15SM BKN024 OVC048 11/06 A2981 RMK SC7SC1 SLP095

CYQG;2013-05-11 02:00;CYQG 110200Z 36013KT 15SM OVC015 09/05 A2984 RMK SC8 SLP104

CYQG;2013-05-11 03:00;CYQG 110300Z 36009KT 15SM OVC013 08/04 A2985 RMK SC8 SLP109

CYQG;2013-05-11 04:00;CYQG 110400Z 34011KT 15SM OVC012 07/04 A2985 RMK SC8 SLP110

CYQG;2013-05-11 05:00;CYQG 110500Z 33007KT 15SM OVC014 07/04 A2986 RMK SC8 SLP112

CYQG;2013-05-11 05:48;CYQG 110548Z 34007KT 15SM OVC016 RMK SC8

CYQG;2013-05-11 07:00;CYQG 110700Z 34008KT 15SM OVC015 07/04 A2986 RMK SC8 SLP114

CYQG;2013-05-11 07:43;CYQG 110743Z 34006KT 15SM OVC013 RMK SC8

CYQG;2013-05-11 08:00;CYQG 110800Z 34005KT 15SM OVC013 07/04 A2987 RMK SC8 SLP117

CYQG;2013-05-11 09:00;CYQG 110900Z 32005KT 15SM OVC011 07/04 A2987 RMK SC8 SLP116

CYQG;2013-05-11 10:00;CYQG 111000Z 32005KT 15SM OVC011 07/04 A2987 RMK SC8 SLP117

CYQG;2013-05-11 11:00;CYQG 111100Z 31009KT 15SM OVC011 07/05 A2987 RMK SC8 SLP117

CYQG;2013-05-11 12:00;CYQG 111200Z 31005KT 15SM OVC010 07/05 A2988 RMK SC8 SLP120

CYQG;2013-05-11 13:00;CYQG 111300Z 28006KT 15SM OVC011 08/05 A2986 RMK SC8 SLP115

CYQG;2013-05-11 14:00;CYQG 111400Z 26006KT 15SM OVC012 08/05 A2986 RMK SC8 SLP113

CYQG;2013-05-11 14:46;CYQG 111446Z 30010KT 15SM OVC015 RMK SC8

CYQG;2013-05-11 15:00;CYQG 111500Z 31009KT 15SM OVC013 09/05 A2986 RMK SC8 SLP113

CYQG;2013-05-11 15:43;CYQG 111543Z 30009KT 15SM OVC015 RMK SC8

CYQG;2013-05-11 16:00;CYQG 111600Z 29006KT 15SM OVC015 10/06 A2986 RMK SC8 SLP113

CYQG;2013-05-11 17:00;CYQG 111700Z 23006KT 15SM OVC018 11/06 A2984 RMK SC8 SLP108

CYQG;2013-05-11 18:00;CYQG 111800Z 24009KT 15SM BKN023 12/07 A2981 RMK SC7 SLP098

CYQG;2013-05-11 19:00;CYQG 111900Z 23012KT 15SM OVC027 12/07 A2981 RMK SC8 SLP098

CYQG;2013-05-11 20:00;CYQG 112000Z 23014KT 15SM BKN023 BKN140 13/07 A2979 RMK SC6AC2 SLP091

CYQG;2013-05-11 21:00;CYQG 112100Z 22011KT 15SM FEW023 BKN096 BKN140 13/07 A2976 RMK SC1AC4AC2 SLP081

CYQG;2013-05-11 22:00;CYQG 112200Z 22016KT 15SM SCT040 BKN074 14/08 A2975 RMK SC4AC2 SLP078

CYQG;2013-05-11 23:00;CYQG 112300Z 26016G22KT 15SM BKN042 OVC074 14/08 A2975 RMK CU6AC2 SLP077

CYQG;2013-05-11 23:10;CYQG 112310Z 26015G20KT 12SM -SHRA BKN036 OVC074 RMK CU6AC2

CYQG;2013-05-11 23:33;CYQG 112333Z 27020G26KT 5SM -SHRA OVC061CB RMK CB8

CYQG;2013-05-11 23:40;CYQG 112340Z 27021KT 2SM -SHRA SCT045 OVC060CB RMK CF3CB5

CYQG;2013-05-12 00:00;CYQG 120000Z 29016G22KT 7SM -SHRA SCT023 OVC060CB 11/08 A2979 RMK CF3CB5 SLP091

CYQG;2013-05-12 00:22;CYQG 120022Z 30013G21KT 12SM BKN060 OVC067 RMK CU6AC2

CYQG;2013-05-12 01:00;CYQG 120100Z 32021G29KT 12SM BKN025 OVC080 09/03 A2983 RMK SC7AC1 SLP103

CYQG;2013-05-12 02:00;CYQG 120200Z 32012G19KT 15SM FEW025 06/M00 A2988 RMK CF1 SLP121

CYQG;2013-05-12 03:00;CYQG 120300Z 31010KT 15SM SKC 06/M01 A2990 RMK SLP128

CYQG;2013-05-12 04:00;CYQG 120400Z 29007KT 15SM SKC 05/M00 A2990 RMK SLP129

CYQG;2013-05-12 05:00;CYQG 120500Z 25007KT 15SM SKC 05/00 A2991 RMK SLP131

CYQG;2013-05-12 06:00;CYQG 120600Z 25007KT 15SM FEW034 05/00 A2990 RMK SC1 SLP130

CYQG;2013-05-12 07:00;CYQG 120700Z 25009KT 15SM SKC 04/01 A2989 RMK SLP125

CYQG;2013-05-12 08:00;CYQG 120800Z 25011KT 15SM FEW030 04/00 A2988 RMK SC1 SLP122

CYQG;2013-05-12 09:00;CYQG 120900Z 27014KT 15SM FEW030 04/M01 A2987 RMK SC1 SLP119

CYQG;2013-05-12 10:00;CYQG 121000Z 26011KT 15SM FEW020 04/M00 A2988 RMK SC1 SLP120

CYQG;2013-05-12 11:00;CYQG 121100Z 27013G18KT 15SM BKN029 04/M00 A2989 RMK SC6 SLP124

CYQG;2013-05-12 12:00;CYQG 121200Z 28015G21KT 15SM BKN031 05/M02 A2990 RMK SC6 SLP128

CYQG;2013-05-12 13:00;CYQG 121300Z 29019G28KT 15SM BKN034 05/M03 A2991 RMK SC7 SLP133

CYQG;2013-05-12 14:00;CYQG 121400Z 30017G26KT 15SM BKN037 06/M02 A2992 RMK SC7 SLP136

CYQG;2013-05-12 15:00;CYQG 121500Z 28020G27KT 15SM BKN041 07/M03 A2993 RMK SC7 SLP140

CYQG;2013-05-12 16:00;CYQG 121600Z 29020G25KT 15SM BKN047 08/M02 A2994 RMK SC7 SLP143

CYQG;2013-05-12 17:00;CYQG 121700Z 29016G26KT 15SM BKN045 08/M02 A2994 RMK SC7 SLP144

CYQG;2013-05-12 18:00;CYQG 121800Z 29013G20KT 15SM BKN048 BKN270 09/M02 A2995 RMK SC6CI1 SLP146

CYQG;2013-05-12 19:00;CYQG 121900Z 28017G25KT 15SM BKN053 09/M03 A2995 RMK SC7 SLP147

CYQG;2013-05-12 20:00;CYQG 122000Z 29018G24KT 15SM VCSH BKN053 10/M03 A2996 RMK SC7 SLP149

CYQG;2013-05-12 21:00;CYQG 122100Z 28020G27KT 15SM VCSH BKN052 09/M03 A2997 RMK SC7 SLP153

CYQG;2013-05-12 22:00;CYQG 122200Z 30022G27KT 15SM BKN045 08/M03 A2999 RMK SC7 SLP161

CYQG;2013-05-12 23:00;CYQG 122300Z 31020G25KT 15SM BKN050 07/M04 A3002 RMK SC7 SLP169

CYQG;2013-05-13 00:00;CYQG 130000Z 30014G22KT 15SM BKN050 07/M04 A3004 RMK SC7 SLP176

CYQG;2013-05-13 01:00;CYQG 130100Z 32018KT 15SM BKN043 06/M04 A3005 RMK SC7 SLP182

CYQG;2013-05-13 02:00;CYQG 130200Z 33011KT 15SM FEW043 05/M06 A3008 RMK SC1 SLP190

CYQG;2013-05-13 03:00;CYQG 130300Z 31007KT 15SM SCT051 05/M05 A3009 RMK SC3 SLP194

CYQG;2013-05-13 04:00;CYQG 130400Z 32005KT 15SM FEW050 04/M05 A3009 RMK SC2 SLP193

CYQG;2013-05-13 05:00;CYQG 130500Z 33004KT 15SM FEW050 03/M04 A3009 RMK SC1 SLP195

CYQG;2013-05-13 06:00;CYQG 130600Z 29003KT 15SM FEW050 02/M04 A3009 RMK SC1 SLP193

CYQG;2013-05-13 07:00;CYQG 130700Z 31010KT 15SM FEW050 03/M05 A3009 RMK SC1 SLP193

CYQG;2013-05-13 08:00;CYQG 130800Z 31005KT 15SM FEW050 02/M05 A3009 RMK SC1 SLP195

CYQG;2013-05-13 09:00;CYQG 130900Z 32006KT 15SM FEW050 02/M05 A3009 RMK SC1 SLP196

CYQG;2013-05-13 10:00;CYQG 131000Z 29004KT 15SM FEW030 01/M05 A3009 RMK SC1 SLP196

CYQG;2013-05-13 11:00;CYQG 131100Z 28003KT 15SM FEW030 01/M05 A3011 RMK SC1 SLP201

CYQG;2013-05-13 12:00;CYQG 131200Z 31010KT 15SM FEW032 03/M05 A3013 RMK SC1 TR SC SLP207

CYQG;2013-05-13 13:00;CYQG 131300Z 32011G16KT 15SM FEW036 04/M05 A3015 RMK SC1 TR SC SLP214

CYQG;2013-05-13 14:00;CYQG 131400Z 29007KT 15SM FEW040 05/M05 A3016 RMK CU1 TR CU SLP217

CYQG;2013-05-13 15:00;CYQG 131500Z 32012KT 15SM FEW050 07/M05 A3017 RMK CU1 SLP221

CYQG;2013-05-13 16:00;CYQG 131600Z 30008KT 15SM FEW050 08/M04 A3017 RMK CU2 SLP221

CYQG;2013-05-13 17:00;CYQG 131700Z 30010KT 15SM SCT058 09/M05 A3017 RMK CU4 SLP222

CYQG;2013-05-13 18:00;CYQG 131800Z 30011KT 15SM BKN070 10/M04 A3017 RMK CU6 SLP220

CYQG;2013-05-13 19:00;CYQG 131900Z 29004KT 15SM BKN075 10/M04 A3017 RMK AC7 SLP220

CYQG;2013-05-13 20:00;CYQG 132000Z 25004KT 15SM BKN072 11/M04 A3015 RMK CU6 SLP214

CYQG;2013-05-13 21:00;CYQG 132100Z 30008KT 15SM BKN068 12/M05 A3013 RMK CU6 SLP207

CYQG;2013-05-13 22:00;CYQG 132200Z 27005KT 15SM SCT070 BKN280 12/M05 A3012 RMK AC3CI2 SLP204

CYQG;2013-05-13 23:00;CYQG 132300Z 32009KT 15SM FEW070 BKN280 11/M06 A3012 RMK AC1CI4 TR AC SLP205

CYQG;2013-05-14 00:00;CYQG 140000Z 08005KT 15SM BKN280 10/M04 A3012 RMK CI4 CONTRAILS SLP205

CYQG;2013-05-14 01:00;CYQG 140100Z 13006KT 15SM OVC240 08/M02 A3013 RMK CS6 SLP207

CYQG;2013-05-14 02:00;CYQG 140200Z 14006KT 15SM OVC220 08/M02 A3013 RMK CS5 SLP206

CYQG;2013-05-14 03:00;CYQG 140300Z 16006KT 15SM BKN220 06/00 A3012 RMK CS3 SLP205

CYQG;2013-05-14 04:00;CYQG 140400Z 16006KT 15SM BKN220 06/01 A3012 RMK CS3 SLP205

CYQG;2013-05-14 05:00;CYQG 140500Z 16008KT 15SM SCT180 06/00 A3011 RMK AC2 SLP201

CYQG;2013-05-14 06:00;CYQG 140600Z 16008KT 15SM BKN140 06/00 A3010 RMK AC6 SLP196

CYQG;2013-05-14 07:00;CYQG 140700Z 18005KT 15SM BKN130 07/00 A3008 RMK AC6 SLP191

CYQG;2013-05-14 08:00;CYQG 140800Z 18006KT 15SM BKN120 08/01 A3007 RMK AC6 SLP188

CYQG;2013-05-14 09:00;CYQG 140900Z 17003KT 15SM OVC087 08/02 A3008 RMK AC8 SLP189

CYQG;2013-05-14 10:00;CYQG 141000Z 18006KT 15SM OVC110 08/03 A3007 RMK AC8 SLP186

CYQG;2013-05-14 11:00;CYQG 141100Z 18007KT 12SM OVC091 09/03 A3006 RMK AC8 SLP183

CYQG;2013-05-14 11:11;CYQG 141111Z 18008KT 12SM -SHRA OVC088 RMK AC8

CYQG;2013-05-14 11:37;CYQG 141137Z 18009KT 15SM OVC081 RMK AC8

CYQG;2013-05-14 12:00;CYQG 141200Z 16009KT 15SM BKN084 09/03 A3004 RMK AC7 SLP177

CYQG;2013-05-14 13:00;CYQG 141300Z 16013KT 15SM SCT092 BKN140 BKN270 11/04 A3001 RMK AC4AC2CI0 CONTRAILS SLP166

CYQG;2013-05-14 14:00;CYQG 141400Z 18012KT 15SM SCT082 BKN140 13/05 A3000 RMK AC4AC3 SLP161

CYQG;2013-05-14 15:00;CYQG 141500Z 18014KT 15SM SCT078 BKN120 BKN270 14/05 A2995 RMK AC4AC3CI1 TR CI PRESFR SLP146

CYQG;2013-05-14 16:00;CYQG 141600Z 18012G18KT 15SM OVC077 15/04 A2994 RMK AC8 SLP141

CYQG;2013-05-14 17:00;CYQG 141700Z 17013G18KT 15SM OVC069 16/05 A2991 RMK AC8 PRESFR 15 MINUTES AGO SLP132

CYQG;2013-05-14 18:00;CYQG 141800Z 15017KT 15SM FEW063 SCT140 BKN270 19/06 A2989 RMK CU2AS2CI0 SLP124

CYQG;2013-05-14 19:00;CYQG 141900Z 16016G22KT 15SM FEW080 BKN270 19/07 A2985 RMK AC2CI1 SLP110

CYQG;2013-05-14 20:00;CYQG 142000Z 17014G20KT 15SM SCT065 OVC270 20/08 A2983 RMK SC3CI3 CONTRAILS SLP103

CYQG;2013-05-14 21:00;CYQG 142100Z 17014KT 15SM FEW080 BKN240 20/08 A2980 RMK AC1CS6 SLP093

CYQG;2013-05-14 22:00;CYQG 142200Z 15011G16KT 15SM FEW120 OVC240 20/08 A2980 RMK AC2CS6 SLP091

CYQG;2013-05-14 23:00;CYQG 142300Z 12010KT 15SM BKN160 BKN240 19/09 A2976 RMK AC6CS2 SLP078

CYQG;2013-05-15 00:00;CYQG 150000Z 07006KT 15SM FEW160 BKN270 17/08 A2978 RMK AC2CI2 SLP086

CYQG;2013-05-15 01:00;CYQG 150100Z 09006KT 15SM SCT150 BKN270 15/08 A2977 RMK AC3CI2 SLP083

CYQG;2013-05-15 02:00;CYQG 150200Z 09005KT 15SM BKN270 14/08 A2976 RMK CI2 SLP080

CYQG;2013-05-15 03:00;CYQG 150300Z 12004KT 15SM BKN150 14/08 A2974 RMK AC7 SLP072

CYQG;2013-05-15 03:53;CYQG 150353Z 36004KT 15SM -SHRA OVC120 RMK AC8

CYQG;2013-05-15 04:00;CYQG 150400Z 01005KT 15SM -SHRA OVC120 14/09 A2976 RMK AC8 SLP077

CYQG;2013-05-15 05:00;CYQG 150500Z 16004KT 15SM -SHRA BKN110 14/10 A2974 RMK AC6 SLP072

CYQG;2013-05-15 05:21;CYQG 150521Z 11003KT 15SM BKN130 RMK AC7

CYQG;2013-05-15 06:00;CYQG 150600Z 04003KT 15SM BKN130 13/11 A2973 RMK AC7 SLP066

CYQG;2013-05-15 06:22;CYQG 150622Z 04005KT 15SM -SHRA OVC120 RMK AC8

CYQG;2013-05-15 07:00;CYQG 150700Z 11003KT 15SM BKN120 14/12 A2969 RMK AC7 OCNL -SHRA SLP053

CYQG;2013-05-15 08:00;CYQG 150800Z 14004KT 15SM BKN130 15/13 A2965 RMK AC7 OCNL -SHRA SLP041

CYQG;2013-05-15 08:31;CYQG 150831Z 17006KT 15SM BKN140 RMK AC6

CYQG;2013-05-15 09:00;CYQG 150900Z 20012KT 15SM BKN120 18/14 A2962 RMK AC5 SLP028

CYQG;2013-05-15 10:00;CYQG 151000Z 21010KT 15SM FEW130 18/15 A2960 RMK AC2 SLP022

CYQG;2013-05-15 11:00;CYQG 151100Z 22009KT 15SM FEW130 FEW280 18/15 A2960 RMK ACC1CI1 CONTRAILS SLP022

CYQG;2013-05-15 12:00;CYQG 151200Z 24013KT 15SM FEW160 SCT280 22/15 A2961 RMK ACC2CI1 CONTRAILS SLP024

CYQG;2013-05-15 13:00;CYQG 151300Z 26016KT 15SM SCT170 SCT290 24/14 A2962 RMK AC3CI0 SLP028

CYQG;2013-05-15 14:00;CYQG 151400Z 28020G26KT 15SM FEW170 FEW290 26/13 A2963 RMK AC2CI0 ACC ASOCTD SLP033

CYQG;2013-05-15 15:00;CYQG 151500Z 30016G24KT 15SM FEW180 FEW250 FEW290 27/11 A2965 RMK ACC1CC1CI0 CONTRAILS SLP039

CYQG;2013-05-15 16:00;CYQG 151600Z 29016G22KT 15SM FEW180 FEW300 27/11 A2968 RMK AC1CI0 CONTRAILS SLP048

CYQG;2013-05-15 17:00;CYQG 151700Z 29015G21KT 15SM FEW180 FEW300 28/10 A2971 RMK AC1CI1 TR AC SLP058

CYQG;2013-05-15 18:00;CYQG 151800Z 27017G22KT 15SM FEW300 28/09 A2972 RMK CI1 SLP062

CYQG;2013-05-15 19:00;CYQG 151900Z 31017G24KT 15SM FEW300 28/09 A2972 RMK CI1 SLP063

CYQG;2013-05-15 20:00;CYQG 152000Z 32018KT 15SM SCT300 28/10 A2972 RMK CI2 SLP063

CYQG;2013-05-15 21:00;CYQG 152100Z 31013G19KT 15SM BKN300 28/09 A2972 RMK CI2 CONTRAILS SLP062

CYQG;2013-05-15 22:00;CYQG 152200Z CCA 29013KT 15SM BKN300 28/09 A2973 RMK CI2 CC ASOCTD CONTRAILS SLP064

CYQG;2013-05-15 23:00;CYQG 152300Z 31010G17KT 15SM FEW180 BKN270 28/09 A2973 RMK AC1CC3 CONTRAILS SLP065

CYQG;2013-05-16 00:00;CYQG 160000Z 27011G16KT 15SM FEW150 BKN250 BKN270 26/09 A2974 RMK ACC2CS2CC2 CONTRAILS SLP066

CYQG;2013-05-16 01:00;CYQG 160100Z 30008KT 15SM BKN160 BKN250 25/07 A2976 RMK AC5CS2 SLP075

CYQG;2013-05-16 02:00;CYQG 160200Z 28008KT 15SM BKN160 24/06 A2978 RMK AC7 SLP080

CYQG;2013-05-16 03:00;CYQG 160300Z 28006KT 15SM BKN160 23/06 A2979 RMK AC7 SLP084

CYQG;2013-05-16 04:00;CYQG 160400Z 30007KT 15SM BKN140 22/07 A2978 RMK AC7 SLP082

CYQG;2013-05-16 05:00;CYQG 160500Z 33007KT 15SM FEW130 20/08 A2979 RMK AC1 SLP083

CYQG;2013-05-16 06:00;CYQG 160600Z 33003KT 15SM SKC 18/06 A2980 RMK SLP088

CYQG;2013-05-16 07:00;CYQG 160700Z 32002KT 15SM SKC 17/06 A2980 RMK SLP090

CYQG;2013-05-16 08:00;CYQG 160800Z 27005KT 15SM SKC 15/07 A2981 RMK SLP093

CYQG;2013-05-16 09:00;CYQG 160900Z 27002KT 15SM FEW130 14/07 A2983 RMK AC1 SLP100

CYQG;2013-05-16 10:00;CYQG 161000Z 26005KT 15SM FEW270 14/07 A2984 RMK CI1 SLP104

CYQG;2013-05-16 11:00;CYQG 161100Z 27007KT 15SM FEW130 FEW280 15/08 A2986 RMK AC1CI1 SLP108

CYQG;2013-05-16 12:00;CYQG 161200Z 26007KT 15SM FEW130 17/08 A2987 RMK AC1 SLP114

CYQG;2013-05-16 13:00;CYQG 161300Z 29007KT 15SM FEW140 19/08 A2988 RMK AC1 SLP117

CYQG;2013-05-16 14:00;CYQG 161400Z 31008KT 15SM FEW140 22/08 A2989 RMK AC1 SLP118

CYQG;2013-05-16 15:00;CYQG 161500Z 29009KT 15SM FEW150 24/09 A2989 RMK AC1 SLP121

CYQG;2013-05-16 16:00;CYQG 161600Z 28014G19KT 15SM FEW140 SCT280 26/09 A2989 RMK AC1CI1 SLP119

CYQG;2013-05-16 17:00;CYQG 161700Z 30015G20KT 15SM FEW060 BKN280 26/07 A2988 RMK CU2CI1 SLP116

CYQG;2013-05-16 18:00;CYQG 161800Z 06011G16KT 15SM FEW070 BKN280 25/09 A2989 RMK CU2CI1 CONTRAILS SLP118

CYQG;2013-05-16 19:00;CYQG 161900Z 06013KT 15SM FEW080 SCT280 25/10 A2989 RMK CU2CI1 CONTRAILS SLP120

CYQG;2013-05-16 20:00;CYQG 162000Z 07010G16KT 15SM FEW085 FEW280 24/09 A2989 RMK CU2CI1 SLP120

CYQG;2013-05-16 21:00;CYQG 162100Z 05013KT 15SM FEW085 24/09 A2990 RMK CU2 SLP123

CYQG;2013-05-16 22:00;CYQG 162200Z 07011KT 15SM FEW100 24/08 A2990 RMK CU1 SLP125

CYQG;2013-05-16 23:00;CYQG 162300Z 07010KT 15SM FEW100 FEW280 23/07 A2991 RMK CU1CI1 SLP127

CYQG;2013-05-17 00:00;CYQG 170000Z 04012KT 15SM FEW100 FEW280 19/08 A2993 RMK CU1CI2 SLP134

CYQG;2013-05-17 01:00;CYQG 170100Z 04016G21KT 15SM FEW100 FEW280 15/05 A2996 RMK CU1CI1 SLP146

CYQG;2013-05-17 02:00;CYQG 170200Z 04014G20KT 15SM FEW080 13/04 A3000 RMK AC1 SLP158

CYQG;2013-05-17 03:00;CYQG 170300Z 03014KT 15SM SKC 12/04 A3001 RMK SLP163

CYQG;2013-05-17 04:00;CYQG 170400Z 04009KT 15SM SKC 12/05 A3004 RMK SLP171

CYQG;2013-05-17 05:00;CYQG 170500Z 04011KT 15SM SKC 12/05 A3005 RMK SLP175

CYQG;2013-05-17 06:00;CYQG 170600Z 03009KT 15SM SKC 11/05 A3005 RMK SLP176

CYQG;2013-05-17 07:00;CYQG 170700Z 04010KT 15SM SKC 10/05 A3006 RMK SLP178

CYQG;2013-05-17 08:00;CYQG 170800Z 04008KT 15SM SKC 10/06 A3006 RMK SLP180

CYQG;2013-05-17 09:00;CYQG 170900Z 04008KT 15SM FEW270 09/06 A3007 RMK CI1 SLP184

CYQG;2013-05-17 10:00;CYQG 171000Z 05006KT 15SM FEW270 09/06 A3011 RMK CI1 SLP194

CYQG;2013-05-17 11:00;CYQG 171100Z 05006KT 15SM FEW170 FEW280 10/07 A3011 RMK AC1CI1 SLP197

CYQG;2013-05-17 12:00;CYQG 171200Z 08008KT 15SM BKN280 13/06 A3013 RMK CI5 SLP203

CYQG;2013-05-17 13:00;CYQG 171300Z 05010KT 15SM BKN280 14/06 A3015 RMK CI5 SLP209

CYQG;2013-05-17 14:00;CYQG 171400Z 05008KT 15SM BKN280 14/08 A3016 RMK CI6 SLP212

CYQG;2013-05-17 15:00;CYQG 171500Z 06008KT 15SM BKN280 16/08 A3015 RMK CI4 SLP212

CYQG;2013-05-17 16:00;CYQG 171600Z 05011KT 15SM BKN280 17/08 A3015 RMK CI2 SLP212

CYQG;2013-05-17 17:00;CYQG 171700Z 04011KT 15SM SCT280 18/07 A3015 RMK CI2 SLP212

CYQG;2013-05-17 18:00;CYQG 171800Z 07011G18KT 15SM FEW100 SCT280 19/07 A3015 RMK AC2CI1 SLP210

CYQG;2013-05-17 19:00;CYQG 171900Z 06012G17KT 15SM FEW100 BKN280 20/06 A3015 RMK AC1CI2 SLP210

CYQG;2013-05-17 20:00;CYQG 172000Z 07014KT 15SM FEW120 BKN280 21/05 A3013 RMK AC2CI2 SLP204

CYQG;2013-05-17 21:00;CYQG 172100Z 08014KT 15SM SCT120 BKN280 21/05 A3012 RMK AC3CI2 SLP200

CYQG;2013-05-17 22:00;CYQG 172200Z 06011KT 15SM FEW120 BKN280 21/05 A3012 RMK AC2CI1 SLP200

CYQG;2013-05-17 23:00;CYQG 172300Z 04011KT 15SM FEW120 BKN280 18/08 A3013 RMK AC2CI1 SLP203

CYQG;2013-05-18 00:00;CYQG 180000Z 04010KT 15SM FEW120 BKN180 BKN260 16/08 A3014 RMK AC1AC4CI1 SLP208

CYQG;2013-05-18 01:00;CYQG 180100Z 10006KT 15SM BKN120 OVC220 16/03 A3016 RMK AC6CI1 SLP215

CYQG;2013-05-18 02:00;CYQG 180200Z 09008KT 15SM OVC120 16/02 A3017 RMK AC8 SLP219

CYQG;2013-05-18 03:00;CYQG 180300Z 09008KT 15SM OVC110 15/04 A3017 RMK AC8 SLP216

CYQG;2013-05-18 04:00;CYQG 180400Z 09008KT 15SM OVC110 15/06 A3017 RMK AC8 SLP216

CYQG;2013-05-18 05:00;CYQG 180500Z 08006KT 15SM OVC120 15/06 A3015 RMK AC8 SLP212

CYQG;2013-05-18 06:00;CYQG 180600Z 10009KT 15SM BKN130 15/06 A3014 RMK AC7 SLP205

CYQG;2013-05-18 07:00;CYQG 180700Z 09005KT 15SM BKN150 14/06 A3012 RMK AC7 SLP199

CYQG;2013-05-18 08:00;CYQG 180800Z 04005KT 15SM SCT160 13/06 A3012 RMK AC3 SLP201

CYQG;2013-05-18 09:00;CYQG 180900Z 04004KT 15SM BKN090 13/08 A3013 RMK AC7 SLP203

CYQG;2013-05-18 10:00;CYQG 181000Z 04005KT 15SM OVC090 14/08 A3014 RMK AC8 SLP207

CYQG;2013-05-18 11:00;CYQG 181100Z 04007KT 15SM FEW060 OVC100 14/08 A3016 RMK SC2AC6 SLP213

CYQG;2013-05-18 12:00;CYQG 181200Z 05008KT 15SM BKN093 BKN150 14/08 A3015 RMK AC6AC2 SLP212

CYQG;2013-05-18 13:00;CYQG 181300Z 06011KT 12SM FEW090 BKN110 16/09 A3016 RMK AC1AC4 SLP213

CYQG;2013-05-18 14:00;CYQG 181400Z 09009KT 12SM BKN160 17/08 A3015 RMK AC6 SLP210

CYQG;2013-05-18 15:00;CYQG 181500Z 05010KT 15SM FEW062 BKN160 18/09 A3015 RMK SC2AC4 SLP210

CYQG;2013-05-18 16:00;CYQG 181600Z 05009KT 12SM FEW078 SCT160 20/09 A3015 RMK AC2AC1 SLP209

CYQG;2013-05-18 17:00;CYQG 181700Z 05012KT 10SM FEW065 FEW280 22/10 A3013 RMK SC1CI2 SLP203

CYQG;2013-05-18 18:00;CYQG 181800Z 05012KT 10SM SCT280 23/09 A3011 RMK CI2 SLP195

CYQG;2013-05-18 19:00;CYQG 181900Z 05012KT 10SM SKC 25/09 A3009 RMK SLP190

CYQG;2013-05-18 20:00;CYQG 182000Z 09011G17KT 12SM FEW220 26/09 A3007 RMK CI1 SLP184

CYQG;2013-05-18 21:00;CYQG 182100Z 13009G16KT 15SM BKN250 25/07 A3007 RMK CI2 SLP181

CYQG;2013-05-18 22:00;CYQG 182200Z 12012KT 15SM FEW120 BKN250 24/08 A3006 RMK AC1CI2 SLP179

CYQG;2013-05-18 23:00;CYQG 182300Z 10009KT 15SM FEW120 BKN250 23/08 A3006 RMK AC1CI2 SLP177

CYQG;2013-05-19 00:00;CYQG 190000Z 10008KT 15SM FEW120 SCT250 21/06 A3007 RMK AC1CI1 SLP182

CYQG;2013-05-19 01:00;CYQG 190100Z 11006KT 15SM FEW120 SCT250 19/07 A3007 RMK AC2CI1 SLP183

CYQG;2013-05-19 02:00;CYQG 190200Z 07004KT 15SM FEW120 BKN250 17/06 A3007 RMK AC2CI1 SLP183

CYQG;2013-05-19 03:00;CYQG 190300Z 06002KT 15SM FEW120 SCT250 17/07 A3006 RMK AC1CI1 SLP180

CYQG;2013-05-19 04:00;CYQG 190400Z 05004KT 15SM SKC 16/07 A3006 RMK SLP179

CYQG;2013-05-19 05:00;CYQG 190500Z 05003KT 15SM SKC 15/07 A3005 RMK SLP177

CYQG;2013-05-19 06:00;CYQG 190600Z 03004KT 15SM FEW080 15/08 A3004 RMK AC2 SLP172

CYQG;2013-05-19 07:00;CYQG 190700Z 08006KT 15SM FEW130 14/09 A3001 RMK AC2 SLP163

CYQG;2013-05-19 08:00;CYQG 190800Z 08005KT 15SM SKC 15/09 A3001 RMK SLP160

CYQG;2013-05-19 09:00;CYQG 190900Z 08004KT 15SM FEW120 15/08 A3002 RMK AC1 SLP165

CYQG;2013-05-19 10:00;CYQG 191000Z 09004KT 15SM SCT130 BKN260 14/09 A3001 RMK AC3CS1 SLP163

CYQG;2013-05-19 11:00;CYQG 191100Z 08002KT 15SM BKN130 BKN260 14/09 A3004 RMK AC5CS1 SLP172

CYQG;2013-05-19 12:00;CYQG 191200Z 10002KT 15SM BKN130 16/11 A3004 RMK AC5 SLP172

CYQG;2013-05-19 13:00;CYQG 191300Z 16003KT 15SM FEW130 20/15 A3003 RMK AC1 SLP167

CYQG;2013-05-19 14:00;CYQG 191400Z 18005KT 15SM SKC 22/16 A3002 RMK SLP166

CYQG;2013-05-19 15:00;CYQG 191500Z 20005KT 15SM SKC 24/17 A3002 RMK SLP164

CYQG;2013-05-19 16:00;CYQG 191600Z 15007KT 15SM FEW030 FEW300 25/17 A3001 RMK CF1CI0 TR CF SLP161

CYQG;2013-05-19 17:00;CYQG 191700Z 19006KT 15SM FEW030 BKN300 27/17 A3000 RMK CF1CI1 SLP157

CYQG;2013-05-19 18:00;CYQG 191800Z 21006KT 15SM FEW045 SCT300 27/17 A2997 RMK CF2CI1 SLP147

CYQG;2013-05-19 19:00;CYQG 191900Z 18010KT 15SM FEW045 SCT300 28/17 A2995 RMK CU2CI1 SLP142

CYQG;2013-05-19 20:00;CYQG 192000Z 20005KT 15SM SCT048 29/17 A2996 RMK CU3 SLP143

CYQG;2013-05-19 21:00;CYQG 192100Z 00000KT 12SM FEW048 FEW260 28/16 A2994 RMK CU2CI1 SLP135

CYQG;2013-05-19 22:00;CYQG 192200Z 13008KT 12SM FEW044 FEW260 28/17 A2992 RMK CU1CI1 SLP128

CYQG;2013-05-19 23:00;CYQG 192300Z 17010KT 12SM FEW040 FEW260 27/17 A2992 RMK CF1CI1 TR CF SLP129

CYQG;2013-05-20 00:00;CYQG 200000Z 15011KT 12SM FEW260 26/17 A2992 RMK CI1 SLP131

CYQG;2013-05-20 01:00;CYQG 200100Z 15010KT 12SM FEW260 23/16 A2993 RMK CI1 SLP133

CYQG;2013-05-20 02:00;CYQG 200200Z 14011KT 15SM SKC 21/16 A2994 RMK SLP136

CYQG;2013-05-20 03:00;CYQG 200300Z 13008KT 15SM SKC 20/15 A2993 RMK SLP134

CYQG;2013-05-20 04:00;CYQG 200400Z 12005KT 15SM SKC 19/14 A2994 RMK SLP135

CYQG;2013-05-20 05:00;CYQG 200500Z 18004KT 15SM SKC 18/15 A2995 RMK SLP138

CYQG;2013-05-20 06:00;CYQG 200600Z 15003KT 15SM FEW270 19/15 A2994 RMK CI1 SLP135

CYQG;2013-05-20 07:00;CYQG 200700Z 15002KT 15SM FEW270 18/15 A2993 RMK CI1 TR CI SLP134

CYQG;2013-05-20 08:00;CYQG 200800Z 15003KT 15SM SCT270 18/16 A2995 RMK CI2 SLP138

CYQG;2013-05-20 09:00;CYQG 200900Z 15004KT 15SM BKN270 18/16 A2993 RMK CI5 SLP134

CYQG;2013-05-20 10:00;CYQG 201000Z 15005KT 12SM SCT270 18/16 A2995 RMK CI2 SLP138

CYQG;2013-05-20 11:00;CYQG 201100Z 11003KT 10SM FEW240 SCT270 18/16 A2995 RMK CS1CI1 SLP139

CYQG;2013-05-20 12:00;CYQG 201200Z 15007KT 12SM BKN280 20/17 A2993 RMK CI2 CONTRAILS SLP132

CYQG;2013-05-20 13:00;CYQG 201300Z 18007KT 15SM FEW030 BKN280 23/18 A2993 RMK CU1CI3 TR CU SLP133

CYQG;2013-05-20 14:00;CYQG 201400Z 21010KT 15SM SCT055 OVC280 25/19 A2995 RMK CU3CI2 TCU ASOCTD SLP140

CYQG;2013-05-20 15:00;CYQG 201500Z 22007KT 10SM BKN024 24/19 A2995 RMK CU7 SLP139

CYQG;2013-05-20 16:00;CYQG 201600Z 17011KT 10SM FEW025 BKN280 25/20 A2993 RMK CU2CI4 CONTRAILS SLP133

CYQG;2013-05-20 17:00;CYQG 201700Z 22011KT 8SM BKN025 28/21 A2992 RMK CU6 SLP129

CYQG;2013-05-20 18:00;CYQG 201800Z 20014G20KT 10SM FEW035 BKN140 BKN280 29/21 A2989 RMK CU2AC3CI0 SLP120

CYQG;2013-05-20 19:00;CYQG 201900Z 18016G21KT 10SM FEW033 BKN280 29/21 A2988 RMK CU2CI2 SLP114

CYQG;2013-05-20 20:00;CYQG 202000Z 17017G22KT 8SM BKN280 30/21 A2983 RMK CI2 PRESFR SLP099

CYQG;2013-05-20 21:00;CYQG 202100Z 18016G22KT 8SM BKN280 30/20 A2981 RMK CI3 SLP090

CYQG;2013-05-20 22:00;CYQG 202200Z 18013G19KT 8SM BKN240 30/19 A2981 RMK CI4 SLP090

CYQG;2013-05-20 23:00;CYQG 202300Z 20012G18KT 7SM FEW048 BKN240 30/18 A2980 RMK CU2CI2 TCU ASOCTD SLP089

CYQG;2013-05-21 00:00;CYQG 210000Z 22009KT 7SM SCT069 BKN240 30/17 A2982 RMK AC3CI2 ACC ASOCTD SLP093

CYQG;2013-05-21 01:00;CYQG 210100Z 22007KT 8SM SCT070 BKN240 28/17 A2982 RMK AC3CI2 SLP094

CYQG;2013-05-21 02:00;CYQG 210200Z 20007KT 15SM FEW070 BKN260 26/17 A2984 RMK AC1CI2 SLP100

CYQG;2013-05-21 03:00;CYQG 210300Z 20008KT 15SM FEW060 BKN260 26/18 A2985 RMK SC2CI1 SLP103

CYQG;2013-05-21 04:00;CYQG 210400Z 20008KT 15SM FEW057 24/18 A2984 RMK SC2 SLP102

CYQG;2013-05-21 05:00;CYQG 210500Z 21009KT 12SM FEW280 24/18 A2984 RMK CI1 SLP101

CYQG;2013-05-21 06:00;CYQG 210600Z 20007KT 10SM FEW280 23/18 A2984 RMK CI1 SLP100

CYQG;2013-05-21 07:00;CYQG 210700Z 20007KT 8SM SCT280 23/18 A2982 RMK CI1 SLP095

CYQG;2013-05-21 08:00;CYQG 210800Z 20008KT 8SM FEW100 FEW280 22/18 A2982 RMK AC1CI1 TR AC SLP094

CYQG;2013-05-21 09:00;CYQG 210900Z 20007KT 8SM BKN150 BKN280 22/17 A2982 RMK AC5CI1 SLP094

CYQG;2013-05-21 10:00;CYQG 211000Z 20007KT 7SM SCT077 BKN140 BKN280 21/18 A2983 RMK AC3AC3CI1 SLP097

CYQG;2013-05-21 11:00;CYQG 211100Z 19007KT 7SM SCT059 BKN140 BKN280 22/18 A2982 RMK CU4AC1CI1 TCU ASOCTD SLP094

CYQG;2013-05-21 12:00;CYQG 211200Z 21009KT 10SM BKN028 22/18 A2981 RMK CU7 SLP092

CYQG;2013-05-21 13:00;CYQG 211300Z 18010KT 10SM SCT030 BKN280 23/19 A2978 RMK CU3CI1 SLP082

CYQG;2013-05-21 14:00;CYQG 211400Z 22017G24KT 12SM FEW030 BKN220 25/19 A2982 RMK CU2CC2 SLP093

CYQG;2013-05-21 15:00;CYQG 211500Z 21013KT 15SM FEW035 BKN270 27/19 A2981 RMK CF1CI1 CC ASOCTD SLP091

CYQG;2013-05-21 16:00;CYQG 211600Z 24012KT 15SM FEW040 BKN140 BKN280 29/16 A2980 RMK CU2AC2CI1 SLP087

CYQG;2013-05-21 17:00;CYQG 211700Z 24016KT 15SM FEW040 BKN180 29/15 A2978 RMK CU1AC6 SLP080

CYQG;2013-05-21 18:00;CYQG 211800Z 22015G21KT 15SM BKN080 BKN280 28/15 A2977 RMK CU6CI1 SLP078

CYQG;2013-05-21 18:27;CYQG 211827Z 24012G19KT 15SM -SHRA BKN069 OVC280 RMK CU6CI2

CYQG;2013-05-21 18:51;CYQG 211851Z 22008KT 15SM SCT068TCU BKN110 RMK TCU4AC3

CYQG;2013-05-21 19:00;CYQG 211900Z 23010KT 15SM FEW067TCU BKN110 27/17 A2977 RMK TCU2AC5 SLP078

CYQG;2013-05-21 20:00;CYQG 212000Z CCA 22016KT 15SM FEW015 FEW057 FEW160 BKN280 29/15 A2975 RMK FU1CU1AC1CI1 SLP071

CYQG;2013-05-21 21:00;CYQG 212100Z 22014KT 15SM FEW012 FEW060 BKN280 30/15 A2974 RMK FU1CU2CI2 FIRE 6 W SLP067

CYQG;2013-05-21 22:00;CYQG 212200Z 26015G21KT 15SM FEW080 BKN290 30/15 A2974 RMK AC2CI3 FIRE 6 W SLP067

CYQG;2013-05-21 23:00;CYQG 212300Z 25010G18KT 15SM FEW075 BKN300 30/15 A2973 RMK CU1CI4 SLP063

CYQG;2013-05-22 00:00;CYQG 220000Z 25008KT 15SM FEW075 BKN300 29/15 A2974 RMK ACC2CI3 SLP068

CYQG;2013-05-22 01:00;CYQG 220100Z 23002KT 15SM FEW070TCU BKN300 28/15 A2974 RMK TCU1CS3 SLP066

CYQG;2013-05-22 02:00;CYQG 220200Z 15007KT 15SM SCT070 BKN160 25/16 A2975 RMK AC3AC4 SLP071

CYQG;2013-05-22 02:35;CYQG 220235Z 19004KT 15SM -SHRA BKN064TCU OVC140 RMK TCU6AC2

CYQG;2013-05-22 03:00;CYQG 220300Z 16003KT 10SM -SHRA BKN062 OVC140 22/18 A2976 RMK SC6AC2 SLP074

CYQG;2013-05-22 03:22;CYQG 220322Z 00000KT 15SM OVC087 RMK AC8

CYQG;2013-05-22 04:00;CYQG 220400Z 16007KT 12SM FEW087 BKN280 21/18 A2977 RMK AC2CI3 SLP077

CYQG;2013-05-22 05:00;CYQG 220500Z 18004KT 12SM FEW080 BKN280 21/17 A2976 RMK AC2CI3 SLP074

CYQG;2013-05-22 06:00;CYQG 220600Z 22007KT 12SM FEW060 OVC280 22/17 A2975 RMK SC2CI4 SLP072

CYQG;2013-05-22 07:00;CYQG 220700Z 21007KT 12SM BKN280 22/17 A2975 RMK CC7 SLP070

CYQG;2013-05-22 08:00;CYQG 220800Z 21007KT 12SM OVC240 21/17 A2974 RMK CC8 SLP069

CYQG;2013-05-22 09:00;CYQG 220900Z 22009KT 15SM BKN240 21/16 A2974 RMK CC6 SLP068

CYQG;2013-05-22 10:00;CYQG 221000Z 21008KT 15SM BKN120 OVC240 21/16 A2975 RMK AC7CC1 SLP071

CYQG;2013-05-22 11:00;CYQG 221100Z CCA 21009KT 12SM BKN110 OVC240 21/16 A2976 RMK AC7CC1 SLP073

CYQG;2013-05-22 11:31;CYQG 221131Z 20007KT 12SM -SHRA OVC049 RMK CU8

CYQG;2013-05-22 12:00;CYQG 221200Z 21012KT 10SM -SHRA SCT050 OVC084 20/17 A2977 RMK CU4AC4 SLP079

CYQG;2013-05-22 13:00;CYQG 221300Z 20013KT 15SM SCT042 OVC075 20/17 A2977 RMK CU3AC5 OCNL -SHRA SLP079

CYQG;2013-05-22 13:29;CYQG 221329Z 20013G18KT 15SM FEW042 OVC082 RMK CU2AC6

CYQG;2013-05-22 14:00;CYQG 221400Z 20014KT 15SM SCT085 BKN140 20/17 A2975 RMK AC3AC4 SLP070

CYQG;2013-05-22 15:00;CYQG 221500Z 21014G20KT 15SM FEW085 BKN110 22/17 A2974 RMK AC2AC5 SLP070

CYQG;2013-05-22 16:00;CYQG 221600Z 20018KT 15SM FEW030 FEW110 BKN280 24/18 A2972 RMK CU1AC1CI2 SLP062

CYQG;2013-05-22 17:00;CYQG 221700Z 22017KT 15SM SCT058 BKN090 25/17 A2971 RMK CU4AC3 SLP059

CYQG;2013-05-22 17:28;CYQG 221728Z 20013G19KT 15SM -SHRA SCT060 OVC090 RMK CU3AC5

CYQG;2013-05-22 18:00;CYQG 221800Z 18014KT 15SM -SHRA FEW050 BKN077 23/18 A2969 RMK CU2AC5 SLP051

CYQG;2013-05-22 18:27;CYQG 221827Z 22015G21KT 15SM SCT059 BKN110 RMK CU3AC4

CYQG;2013-05-22 19:00;CYQG 221900Z 21020G27KT 15SM SCT045 BKN080 BKN270 25/17 A2969 RMK CU4AC2CI2 SLP051

CYQG;2013-05-22 20:00;CYQG 222000Z 22023G28KT 15SM FEW052 FEW280 27/16 A2966 RMK CU1CI1 SLP041

CYQG;2013-05-22 21:00;CYQG 222100Z 22019G26KT 15SM FEW054TCU FEW080 FEW290 28/15 A2964 RMK TCU1AC1CI1 SLP033

CYQG;2013-05-22 22:00;CYQG 222200Z 27021G27KT 12SM -SHRA BKN056TCU 23/16 A2967 RMK TCU7 SLP045

CYQG;2013-05-22 22:51;CYQG 222251Z 24011KT 15SM BKN058TCU BKN290 RMK TCU6CI1

CYQG;2013-05-22 23:00;CYQG 222300Z 23011G17KT 15SM VCSH BKN059TCU BKN080 BKN290 22/16 A2968 RMK TCU5AC2CI1 SLP046

CYQG;2013-05-23 00:00;CYQG 230000Z 24012G22KT 15SM FEW060TCU FEW120 BKN290 23/16 A2967 RMK TCU1AC1CI1 SLP047

CYQG;2013-05-23 01:00;CYQG 230100Z 25009KT 15SM FEW055 FEW130 BKN290 22/16 A2969 RMK SC2AC1CI1 SLP053

CYQG;2013-05-23 01:45;CYQG 230145Z 26015G25KT 15SM -TSRA FEW030 SCT060CB BKN110 RMK SC1CB3AC4 OCNL LTGIC S

CYQG;2013-05-23 02:00;CYQG 230200Z 25011KT 15SM TS SCT060CB BKN100 20/14 A2970 RMK CB3AC4 OCNL LTGCC SE OCNL -SHRA SLP056

CYQG;2013-05-23 02:30;CYQG 230230Z 23009KT 15SM FEW060 BKN100 RMK SC1AC6 RETS

CYQG;2013-05-23 03:00;CYQG 230300Z 24010KT 15SM BKN100 19/14 A2971 RETS RMK AC7 SLP058

CYQG;2013-05-23 04:00;CYQG 230400Z 26011KT 15SM BKN110 19/15 A2970 RMK AC7 SLP056

CYQG;2013-05-23 05:00;CYQG 230500Z 26011KT 15SM FEW120 SCT230 18/15 A2971 RMK AC2CI2 SLP058

CYQG;2013-05-23 06:00;CYQG 230600Z 25007KT 15SM FEW120 FEW230 18/15 A2971 RMK AC1CI1 SLP060

CYQG;2013-05-23 07:00;CYQG 230700Z 23007KT 15SM FEW130 17/15 A2972 RMK AC2 SLP061

CYQG;2013-05-23 08:00;CYQG 230800Z 23006KT 7SM FEW090 17/15 A2971 RMK AC2 SLP060

CYQG;2013-05-23 09:00;CYQG 230900Z 23006KT 6SM BR FEW090 17/15 A2973 RMK AC2 SLP064

CYQG;2013-05-23 10:00;CYQG 231000Z 24005KT 5SM BR BKN080 BKN130 17/15 A2974 RMK AC6AC1 SLP067

CYQG;2013-05-23 11:00;CYQG 231100Z 24006KT 6SM HZ FEW080 BKN110 18/15 A2974 RMK AC1AC5 SLP070

CYQG;2013-05-23 12:00;CYQG 231200Z 24008KT 6SM HZ BKN072 BKN130 18/15 A2976 RMK AC5AC2 SLP074

CYQG;2013-05-23 12:11;CYQG 231211Z 25009KT 6SM -SHRA HZ BKN071 BKN130 RMK AC6AC2

CYQG;2013-05-23 12:54;CYQG 231254Z 25007KT 8SM BKN088 RMK AC7

CYQG;2013-05-23 13:00;CYQG 231300Z 25009KT 8SM SCT057 OVC088 18/15 A2977 RMK SC3AC5 SLP079

CYQG;2013-05-23 14:00;CYQG 231400Z 25007KT 10SM FEW015 BKN082 19/15 A2978 RMK CF2AC6 SLP082

CYQG;2013-05-23 15:00;CYQG 231500Z 28004KT 12SM BKN028 BKN080 20/15 A2978 RMK CU5AC2 SLP084

CYQG;2013-05-23 15:22;CYQG 231522Z 30007KT 10SM -SHRA BKN028 OVC080 RMK CU6AC2 VIS 4 N

CYQG;2013-05-23 15:36;CYQG 231536Z 04015KT 7SM -SHRA SCT008 OVC020 RMK CF3CU5 WND SHIFT 1535

CYQG;2013-05-23 15:41;CYQG 231541Z 04013G19KT 1 1/4SM SHRA BR BKN008 OVC014 RMK FG2CF5CU2

CYQG;2013-05-23 15:48;CYQG 231548Z 03012KT 3/4SM SHRA BR BKN006 OVC014 RMK FG3CF4CU1

CYQG;2013-05-23 16:00;CYQG 231600Z 05009KT 1 1/2SM SHRA BR BKN008 OVC014 14/13 A2981 RMK FG2CF5CU1 SLP094

CYQG;2013-05-23 16:16;CYQG 231616Z 04017KT 2SM -SHRA BR BKN006 OVC025 RERA RMK FG2CF6CU1

CYQG;2013-05-23 16:22;CYQG 231622Z 04017KT 2SM -SHRA BR SCT007 OVC013 RERA RMK FG1CF3CU4

CYQG;2013-05-23 16:47;CYQG 231647Z 02016G21KT 6SM -SHRA BR SCT008 OVC011 RERA RMK CF4CU4

CYQG;2013-05-23 17:00;CYQG 231700Z 02014G20KT 6SM -SHRA BR SCT007 OVC012 12/10 A2984 RERA RMK CF3CU5 SLP102

CYQG;2013-05-23 18:00;CYQG 231800Z 01010G19KT 8SM -SHRA OVC013 10/08 A2986 RMK CU8 SLP114

CYQG;2013-05-23 18:28;CYQG 231828Z 01014KT 7SM -SHRA SCT010 OVC019 RMK CF3CU5

CYQG;2013-05-23 19:00;CYQG 231900Z 02011G20KT 5SM -SHRA BR FEW010 OVC017 08/07 A2989 RMK CF2CU6 SLP122

CYQG;2013-05-23 20:00;CYQG 232000Z 36015G24KT 7SM -SHRA FEW013 OVC020 08/06 A2992 RMK SC2SC6 SLP131

CYQG;2013-05-23 21:00;CYQG 232100Z 36015KT 8SM -RA FEW014 OVC020 08/06 A2994 RMK SC2SC6 SLP139

CYQG;2013-05-23 21:30;CYQG 232130Z 36014G26KT 10SM -RA OVC013 RMK SC8

CYQG;2013-05-23 22:00;CYQG 232200Z 36013G25KT 15SM -RA BKN013 OVC055 07/06 A2997 RMK SC7SC1 SLP150

CYQG;2013-05-23 22:33;CYQG 232233Z 36016G22KT 15SM -RA OVC015 RMK SC8

CYQG;2013-05-23 23:00;CYQG 232300Z 01014G19KT 12SM -RA OVC015 07/05 A3000 RMK SC8 SLP159

CYQG;2013-05-23 23:35;CYQG 232335Z 35014G27KT 12SM -RA OVC014 RMK SC8

CYQG;2013-05-24 00:00;CYQG 240000Z 35017G24KT 15SM -RA OVC015 06/04 A3005 RMK SC8 SLP177

CYQG;2013-05-24 01:00;CYQG 240100Z 36014KT 15SM -RA FEW016 BKN028 06/03 A3007 RMK SC2SC5 SLP185

CYQG;2013-05-24 01:46;CYQG 240146Z 36013KT 15SM FEW028 BKN060 BKN110 RMK SC2SC4AC2

CYQG;2013-05-24 02:00;CYQG 240200Z 36012G18KT 15SM FEW028 BKN070 BKN100 06/03 A3010 RMK SC2AC3AC2 SLP195

CYQG;2013-05-24 03:00;CYQG 240300Z 35011KT 15SM BKN040 07/02 A3012 RMK SC7 SLP202

CYQG;2013-05-24 04:00;CYQG 240400Z 34009KT 15SM FEW040 06/02 A3014 RMK SC1 SLP206

CYQG;2013-05-24 06:00;CYQG 240600Z 36011KT 15SM SKC 06/01 A3015 RMK SLP215

CYQG;2013-05-24 07:00;CYQG 240700Z 36008KT 15SM FEW030 06/01 A3016 RMK CU1 SLP218

CYQG;2013-05-24 08:00;CYQG 240800Z 36011KT 15SM FEW030 05/01 A3017 RMK SC1 SLP222

CYQG;2013-05-24 09:00;CYQG 240900Z 35007KT 15SM FEW022 05/01 A3020 RMK SC2 SLP231

CYQG;2013-05-24 10:00;CYQG 241000Z 35012KT 15SM FEW019 04/01 A3023 RMK SC2 SLP241

CYQG;2013-05-24 11:00;CYQG 241100Z 34011KT 15SM SCT032 04/01 A3025 RMK SC3 SLP247

CYQG;2013-05-24 12:00;CYQG 241200Z 36011G17KT 15SM BKN023 05/M00 A3026 RMK CU7 SLP253

CYQG;2013-05-24 13:00;CYQG 241300Z 01014G20KT 15SM BKN028 06/M01 A3030 RMK SC6 SLP266

CYQG;2013-05-24 14:00;CYQG 241400Z 36016KT 15SM BKN031 07/M01 A3031 RMK SC6 SLP270

CYQG;2013-05-24 15:00;CYQG 241500Z 02013KT 15SM BKN032 07/M01 A3032 RMK SC6 SLP274

CYQG;2013-05-24 16:00;CYQG 241600Z 35012G19KT 15SM BKN034 08/M01 A3034 RMK SC6 SLP278

CYQG;2013-05-24 17:00;CYQG 241700Z 36013G18KT 15SM BKN038 09/M00 A3035 RMK SC6 SLP281

CYQG;2013-05-24 18:00;CYQG 241800Z 02011G16KT 15SM BKN039 09/01 A3035 RMK SC6 SLP282

CYQG;2013-05-24 19:00;CYQG 241900Z 02010G15KT 15SM FEW040 10/01 A3033 RMK SC2 SLP277

CYQG;2013-05-24 20:00;CYQG 242000Z 36009KT 15SM FEW040 12/01 A3034 RMK SC1 SLP278

CYQG;2013-05-24 21:00;CYQG 242100Z 35009G15KT 15SM FEW040 12/01 A3034 RMK SC1 TR SC SLP277

CYQG;2013-05-24 22:00;CYQG 242200Z 01007G15KT 15SM FEW040 FEW270 12/00 A3032 RMK SC1CI1 TR SC TR CI SLP271

CYQG;2013-05-24 23:00;CYQG 242300Z 02010KT 15SM FEW270 12/00 A3031 RMK CI1 TR CI SLP269

CYQG;2013-05-25 00:00;CYQG 250000Z 36008KT 15SM FEW270 12/00 A3030 RMK CI1 TR CI SLP266

CYQG;2013-05-25 01:00;CYQG 250100Z 09007KT 15SM FEW270 10/04 A3030 RMK CI1 TR CI SLP265

CYQG;2013-05-25 02:00;CYQG 250200Z 09006KT 15SM FEW260 08/03 A3031 RMK CI1 SLP268

CYQG;2013-05-25 03:00;CYQG 250300Z 05007KT 15SM FEW260 07/03 A3034 RMK CI1 CONTRAILS SLP278

CYQG;2013-05-25 04:00;CYQG 250400Z 05005KT 15SM FEW230 06/01 A3035 RMK CI1 SLP283

CYQG;2013-05-25 05:00;CYQG 250500Z 35002KT 15SM SKC 06/01 A3035 RMK SLP284

CYQG;2013-05-25 06:00;CYQG 250600Z 35002KT 15SM SKC 05/01 A3035 RMK SLP281

CYQG;2013-05-25 07:00;CYQG 250700Z 36002KT 15SM SKC 05/00 A3034 RMK SLP280

CYQG;2013-05-25 08:00;CYQG 250800Z 31005KT 15SM SKC 04/00 A3035 RMK SLP283

CYQG;2013-05-25 09:00;CYQG 250900Z 00000KT 15SM FEW230 04/M01 A3035 RMK CI1 SLP282

CYQG;2013-05-25 10:00;CYQG 251000Z 00000KT 15SM SCT250 03/M00 A3034 RMK CI1 SLP279

CYQG;2013-05-25 11:00;CYQG 251100Z 00000KT 15SM SCT270 05/00 A3035 RMK CI1 SLP283

CYQG;2013-05-25 12:00;CYQG 251200Z 34002KT 15SM FEW044 BKN270 08/01 A3037 RMK SC2CC2 SLP288

CYQG;2013-05-25 13:00;CYQG 251300Z 36005KT 15SM FEW045 10/00 A3040 RMK SC1 SLP298

CYQG;2013-05-25 14:00;CYQG 251400Z 09003KT 15SM SCT280 12/01 A3040 RMK CI1 CONTRAILS SLP299

CYQG;2013-05-25 15:00;CYQG 251500Z 31006KT 15SM FEW025 FEW280 13/01 A3038 RMK CF1CI1 TR CF SLP293

CYQG;2013-05-25 16:00;CYQG 251600Z 31004KT 15SM FEW025 SCT280 13/02 A3037 RMK CF1CI2 TR CF SLP289

CYQG;2013-05-25 17:00;CYQG 251700Z 01006KT 15SM FEW030 BKN280 15/01 A3037 RMK SC1CI2 SLP287

CYQG;2013-05-25 18:00;CYQG 251800Z 04007KT 15SM FEW040 BKN280 16/03 A3035 RMK SC1CI3 SLP280

CYQG;2013-05-25 19:00;CYQG 251900Z 05006KT 15SM FEW040 BKN280 16/03 A3033 RMK SC1CI3 SLP274

CYQG;2013-05-25 20:00;CYQG 252000Z 09003KT 15SM FEW065 BKN280 17/03 A3032 RMK SC1CI2 SLP269

CYQG;2013-05-25 21:00;CYQG 252100Z 08008KT 15SM FEW065 BKN280 17/03 A3031 RMK SC1CI2 TR SC SLP266

CYQG;2013-05-25 22:00;CYQG 252200Z 07011KT 15SM FEW065 BKN280 16/04 A3029 RMK SC1CI2 TR SC SLP262

CYQG;2013-05-25 23:00;CYQG 252300Z 07011G16KT 15SM FEW060 BKN280 15/04 A3030 RMK SC1CI2 TR SC SLP263

CYQG;2013-05-26 00:00;CYQG 260000Z 06013KT 15SM FEW100 BKN270 13/03 A3031 RMK AC1CI2 TR AC CONTRAILS SLP266

CYQG;2013-05-26 01:00;CYQG 260100Z 05009KT 15SM BKN270 11/04 A3029 RMK CI2 SLP262

CYQG;2013-05-26 02:00;CYQG 260200Z 05007KT 15SM BKN270 10/03 A3031 RMK CI1 SLP268

CYQG;2013-05-26 03:00;CYQG 260300Z 04006KT 15SM FEW270 08/01 A3032 RMK CI1 SLP271

CYQG;2013-05-26 04:00;CYQG 260400Z 35004KT 15SM FEW270 09/00 A3032 RMK CI1 SLP271

CYQG;2013-05-26 05:00;CYQG 260500Z 35004KT 15SM FEW270 08/M03 A3032 RMK CI1 SLP270

CYQG;2013-05-26 06:00;CYQG 260600Z 34003KT 15SM BKN270 07/M02 A3031 RMK CI2 SLP265

CYQG;2013-05-26 07:00;CYQG 260700Z 32002KT 15SM SCT270 07/M01 A3030 RMK CI1 SLP264

CYQG;2013-05-26 08:00;CYQG 260800Z 00000KT 15SM BKN270 06/M01 A3031 RMK CI1 SLP265

CYQG;2013-05-26 09:00;CYQG 260900Z 00000KT 15SM FEW270 04/M00 A3031 RMK CI1 SLP267

CYQG;2013-05-26 10:00;CYQG 261000Z 00000KT 15SM FEW270 04/00 A3032 RMK CI1 SLP270

CYQG;2013-05-26 11:00;CYQG 261100Z 25002KT 15SM SKC 07/02 A3034 RMK SLP276

CYQG;2013-05-26 12:00;CYQG 261200Z 28002KT 15SM SKC 10/01 A3033 RMK FU DIST N SLP274

CYQG;2013-05-26 13:00;CYQG 261300Z 31003KT 15SM FEW280 13/01 A3033 RMK CI1 SLP273

CYQG;2013-05-26 14:00;CYQG 261400Z 35007KT 15SM FEW280 15/M01 A3035 RMK CI1 SLP279

CYQG;2013-05-26 15:00;CYQG 261500Z 00000KT 15SM BKN280 16/01 A3033 RMK CI2 SLP272

CYQG;2013-05-26 16:00;CYQG 261600Z 34003KT 15SM BKN280 17/00 A3032 RMK CI2 SLP268

CYQG;2013-05-26 17:00;CYQG 261700Z 04007KT 15SM BKN280 18/01 A3032 RMK CI2 SLP269

CYQG;2013-05-26 18:00;CYQG 261800Z 09007KT 15SM BKN270 18/02 A3031 RMK CS4 CI ASOCTD HALO SLP265

CYQG;2013-05-26 19:00;CYQG 261900Z 08006KT 15SM BKN270 19/03 A3029 RMK CI4 HALO CONTRAILS SLP260

CYQG;2013-05-26 20:00;CYQG 262000Z 09008KT 15SM BKN270 BKN300 19/03 A3028 RMK CS2CI1 HALO CONTRAILS SLP257

CYQG;2013-05-26 21:00;CYQG 262100Z 07007KT 15SM BKN270 18/02 A3027 RMK CS5 HALO SLP253

CYQG;2013-05-26 22:00;CYQG 262200Z 08008KT 15SM FEW260 BKN290 18/03 A3026 RMK CS1CI3 CONTRAILS SLP250

CYQG;2013-05-26 23:00;CYQG 262300Z 07009KT 15SM BKN250 BKN280 17/03 A3026 RMK CS5CI2 SLP249

CYQG;2013-05-27 00:00;CYQG 270000Z 06010KT 15SM BKN250 BKN280 16/03 A3026 RMK CS5CI2 CONTRAILS SLP247

CYQG;2013-05-27 01:00;CYQG 270100Z 06007KT 15SM BKN250 BKN280 14/03 A3025 RMK CS5CI2 CONTRAILS SLP246

CYQG;2013-05-27 02:00;CYQG 270200Z 07005KT 15SM BKN250 13/03 A3027 RMK CS4 SLP251

CYQG;2013-05-27 03:00;CYQG 270300Z 08005KT 15SM BKN270 12/02 A3027 RMK CI2 SLP253

CYQG;2013-05-27 04:00;CYQG 270400Z 00000KT 15SM BKN270 11/02 A3028 RMK CI3 SLP254

CYQG;2013-05-27 05:00;CYQG 270500Z 00000KT 15SM BKN270 11/02 A3028 RMK CI3 SLP255

CYQG;2013-05-27 06:00;CYQG 270600Z 00000KT 15SM SCT270 09/02 A3026 RMK CI2 SLP250

CYQG;2013-05-27 07:00;CYQG 270700Z 06003KT 15SM BKN270 08/03 A3026 RMK CI2 SLP247

CYQG;2013-05-27 08:00;CYQG 270800Z 09002KT 15SM BKN250 08/01 A3025 RMK CS4 SLP244

CYQG;2013-05-27 09:00;CYQG 270900Z 09003KT 15SM BKN250 08/01 A3025 RMK CS2 SLP245

CYQG;2013-05-27 10:00;CYQG 271000Z 11003KT 15SM BKN250 07/01 A3025 RMK CI4 CONTRAILS SLP244

CYQG;2013-05-27 11:00;CYQG 271100Z 11003KT 15SM FEW140 BKN250 08/01 A3026 RMK AC1CI5 CONTRAILS SLP247

CYQG;2013-05-27 12:00;CYQG 271200Z 09003KT 15SM FEW180 OVC270 09/M00 A3026 RMK AC2CS4 SLP249

CYQG;2013-05-27 13:00;CYQG 271300Z 11004KT 15SM FEW180 SCT260 OVC280 13/01 A3025 RMK AC1CS2CI2 SLP246

CYQG;2013-05-27 14:00;CYQG 271400Z 13004KT 15SM FEW160 SCT260 BKN280 16/04 A3025 RMK AC2CS1CI2 SLP246

CYQG;2013-05-27 15:00;CYQG 271500Z 15006KT 15SM FEW100 BKN140 BKN280 17/03 A3023 RMK AC1AC5CI1 SLP238

CYQG;2013-05-27 16:00;CYQG 271600Z 17009KT 15SM FEW100 BKN140 OVC280 17/03 A3022 RMK AC2AC5CI1 SLP234

CYQG;2013-05-27 17:00;CYQG 271700Z 20010G16KT 15SM BKN100 BKN140 BKN280 15/07 A3019 RMK AC5AC2CI1 SLP224

CYQG;2013-05-27 17:12;CYQG 271712Z 20013KT 15SM -SHRA BKN100 BKN140 RMK AC5AC2

CYQG;2013-05-27 18:00;CYQG 271800Z 20008KT 15SM -SHRA SCT056 OVC095 13/08 A3020 RMK SC3AC5 SLP228

CYQG;2013-05-27 19:00;CYQG 271900Z 20010KT 15SM -SHRA FEW030 BKN045 OVC095 13/09 A3020 RMK CU1SC4AC3 SLP230

CYQG;2013-05-27 20:00;CYQG 272000Z 17008KT 7SM -RA FEW018 SCT042 OVC064 12/10 A3019 RMK SF1CU2SC5 SLP227

CYQG;2013-05-27 21:00;CYQG 272100Z 13008KT 7SM -RA OVC077 12/09 A3015 RMK AS8 SLP212

CYQG;2013-05-27 22:00;CYQG 272200Z 08007KT 6SM -RA OVC047 11/09 A3013 RMK NS8 SLP205

CYQG;2013-05-27 23:00;CYQG 272300Z 10006KT 10SM -RA FEW030 SCT050 OVC100 11/09 A3010 RMK SC1NS2AS5 SLP195

CYQG;2013-05-28 00:00;CYQG 280000Z 12005KT 7SM -RA SCT028 OVC090 11/09 A3008 RMK SC3AS5 SLP189

CYQG;2013-05-28 01:00;CYQG 280100Z 11006KT 5SM -RA BR BKN032 OVC090 11/10 A3007 RMK SC6AS2 SLP187

CYQG;2013-05-28 02:00;CYQG 280200Z 10010G16KT 3SM RA BR OVC048 10/10 A3005 RMK NS8 SLP179

CYQG;2013-05-28 03:00;CYQG 280300Z 09005KT 3SM RA BR FEW007 OVC019 10/10 A3005 RMK SF2SC6 SLP177

CYQG;2013-05-28 03:17;CYQG 280317Z 07005KT 3SM RA BR BKN006 OVC019 RMK SF5SC3

CYQG;2013-05-28 03:37;CYQG 280337Z 06006KT 3SM -RA BR SCT008 OVC013 RERA RMK SF3SC5

CYQG;2013-05-28 04:00;CYQG 280400Z 08006KT 6SM -RA BR BKN007 OVC016 11/11 A3004 RERA RMK SF6SC2 /R12/ SLP172

CYQG;2013-05-28 04:49;CYQG 280449Z 08007KT 8SM -RA FEW008 OVC029 RMK SF2SC6

CYQG;2013-05-28 05:00;CYQG 280500Z 08007KT 10SM FEW008 OVC028 11/11 A3001 RMK SF2SC6 SLP165

CYQG;2013-05-28 06:00;CYQG 280600Z 09007KT 6SM BR FEW008 OVC021 11/11 A2998 RMK SF2SC6 SLP156

CYQG;2013-05-28 07:00;CYQG 280700Z 09006KT 5SM BR FEW007 OVC017 12/12 A2996 RMK SF2SC6 SLP148

CYQG;2013-05-28 08:00;CYQG 280800Z 09005KT 5SM BR OVC013 12/12 A2995 RMK SC8 SLP143

CYQG;2013-05-28 08:29;CYQG 280829Z 09004KT 4SM -SHRA BR FEW004 OVC011 RMK SF2SC6

CYQG;2013-05-28 09:00;CYQG 280900Z 09003KT 4SM -SHRA BR SCT004 OVC009 12/12 A2994 RMK SF4SC4 SLP142

CYQG;2013-05-28 09:39;CYQG 280939Z 09004KT 3SM BR OVC008 RMK SF8

CYQG;2013-05-28 10:00;CYQG 281000Z 11002KT 2 1/2SM BR OVC007 12/12 A2995 RMK SF8 SLP146

CYQG;2013-05-28 11:00;CYQG 281100Z 09002KT 2SM BR OVC005 12/12 A2995 RMK SF8 SLP144

CYQG;2013-05-28 11:53;CYQG 281153Z 15002KT 2 1/2SM -SHRA BR OVC004 RMK SF8

CYQG;2013-05-28 12:00;CYQG 281200Z 14002KT 2 1/4SM -SHRA BR OVC004 13/12 A2997 RMK FG1SF7 SLP150

CYQG;2013-05-28 13:00;CYQG 281300Z 00000KT 2 1/2SM -SHRA BR BKN004 OVC025 14/13 A2997 RMK FG1SF5SC2 SLP152

CYQG;2013-05-28 14:00;CYQG 281400Z 17007KT 2 1/2SM -SHRA BR SCT004 BKN040 OVC080 14/14 A2996 RMK FG1SF2SC2AC3 SLP148

CYQG;2013-05-28 14:28;CYQG 281428Z 17008KT 4SM BR FEW004 OVC080 RMK SF2AC6 OCNL -SHRA

CYQG;2013-05-28 15:00;CYQG 281500Z 18006KT 4SM -TSRA FEW006 SCT033CB OVC070 17/16 A2995 RMK SF1CB3AC4 SLP145

CYQG;2013-05-28 15:39;CYQG 281539Z 08004KT 4SM BR BKN006 OVC037 RMK SF6SC2 OCNL -SHRA

CYQG;2013-05-28 15:47;CYQG 281547Z 06006KT 5SM BR BKN004 OVC037 RETS RMK SF6SC2

CYQG;2013-05-28 16:00;CYQG 281600Z 08007KT 5SM BR OVC005 18/16 A2995 RETS RMK SF8 SLP144

CYQG;2013-05-28 17:00;CYQG 281700Z 13008KT 6SM BR OVC010 19/18 A2991 RMK SC8 SLP131

CYQG;2013-05-28 18:00;CYQG 281800Z 16010KT 7SM BKN013 OVC030 22/19 A2990 RMK SC6SC2 SLP125

CYQG;2013-05-28 18:33;CYQG 281833Z 15007KT 6SM -SHRA BR FEW014 BKN034 OVC050TCU RMK SC2SC3TCU2

CYQG;2013-05-28 18:39;CYQG 281839Z 14009KT 7SM -TSRA FEW014 SCT034 OVC055CB RMK SC1SC3CB4

CYQG;2013-05-28 19:00;CYQG 281900Z 20006KT 7SM -TSRA FEW027 BKN040CB OVC090 22/20 A2988 RMK SC2CB5AC2 SLP117

CYQG;2013-05-28 19:24;CYQG 281924Z 16007KT 7SM -SHRA FEW090 OVC140 RETS RMK AC2AC6

CYQG;2013-05-28 20:00;CYQG 282000Z 19006KT 8SM -SHRA BKN034 OVC060 23/20 A2987 RETS RMK SC7SC1 SLP116

CYQG;2013-05-28 21:00;CYQG 282100Z 22008KT 8SM BKN029 BKN130 24/20 A2986 RMK SC5AC2 OCNL -SHRA SLP110

CYQG;2013-05-28 22:00;CYQG 282200Z 24007KT 8SM BKN042 25/20 A2986 RMK CU7 OCNL -SHRA SLP111

CYQG;2013-05-28 22:55;CYQG 282255Z 22012KT 6SM -TSRA OVC028CB RMK CB8

CYQG;2013-05-28 23:00;CYQG 282300Z 21013KT 1 1/2SM -TSRA BR OVC028CB 23/20 A2986 RMK CB8 SLP112

CYQG;2013-05-28 23:05;CYQG 282305Z 25007G16KT 6SM -TSRA BR OVC040CB RMK CB8

CYQG;2013-05-28 23:18;CYQG 282318Z 24008KT 6SM -SHRA BR OVC040 RETS RMK SC8

CYQG;2013-05-28 23:52;CYQG 282352Z 21008KT 8SM FEW040 FEW050 BKN280 RETS RMK CU1SC2CS5

CYQG;2013-05-29 00:00;CYQG 290000Z 21008KT 8SM FEW040 FEW050 BKN280 25/21 A2986 RETS RMK CU1SC2CS5 SLP110

CYQG;2013-05-29 01:00;CYQG 290100Z 21008KT 8SM FEW120 OVC280 21/19 A2985 RMK AC2CS4 SLP107

CYQG;2013-05-29 02:00;CYQG 290200Z 20009KT 10SM BKN062 22/19 A2984 RMK SC7 SLP105

CYQG;2013-05-29 03:00;CYQG 290300Z 20008KT 10SM BKN076 22/19 A2986 RMK AC7 SLP109

CYQG;2013-05-29 04:00;CYQG 290400Z 21012KT 12SM BKN110 23/18 A2984 RMK AC7 SLP105

CYQG;2013-05-29 05:00;CYQG 290500Z 22017G22KT 12SM FEW064 BKN100 23/17 A2986 RMK SC2AC4 SLP110

CYQG;2013-05-29 06:00;CYQG 290600Z 22014G19KT 15SM BKN058 22/17 A2983 RMK SC7 SLP100

CYQG;2013-05-29 07:00;CYQG 290700Z 21017KT 15SM SCT060 BKN230 22/17 A2981 RMK SC3CI3 SLP091

CYQG;2013-05-29 08:00;CYQG 290800Z 23010G16KT 15SM BKN036 BKN250 22/17 A2986 RMK SC5CI1 SLP107

CYQG;2013-05-29 09:00;CYQG 290900Z 25011KT 15SM BKN046 22/17 A2990 RMK SC7 SLP121

CYQG;2013-05-29 10:00;CYQG 291000Z 24004KT 15SM FEW045 BKN220 21/17 A2991 RMK SC2CI2 SLP126

CYQG;2013-05-29 11:00;CYQG 291100Z 23007KT 15SM FEW045 BKN220 22/17 A2992 RMK SC2CI2 SLP128

CYQG;2013-05-29 12:00;CYQG 291200Z 22010KT 15SM BKN100 OVC230 22/17 A2992 RMK AC6CS2 SLP130

CYQG;2013-05-29 13:00;CYQG 291300Z 22007KT 15SM BKN110 BKN240 22/17 A2993 RMK AC6CI1 SLP133

CYQG;2013-05-29 14:00;CYQG 291400Z 23012KT 15SM FEW100 FEW170 BKN250 24/17 A2994 RMK AC1AC2CI3 SLP135

CYQG;2013-05-29 15:00;CYQG 291500Z 26013G21KT 15SM FEW030 FEW140 BKN260 25/17 A2993 RMK CU1AC1CS4 SLP132

CYQG;2013-05-29 16:00;CYQG 291600Z 24012G18KT 15SM FEW035 SCT160 BKN270 26/18 A2994 RMK CU1AC2CI2 SLP135

CYQG;2013-05-29 17:00;CYQG 291700Z 26017KT 15SM FEW040 SCT150 BKN280 27/17 A2997 RMK CU2AC2CI1 SLP144

CYQG;2013-05-29 18:00;CYQG 291800Z 24019KT 15SM FEW041 FEW150 BKN290 28/17 A2998 RMK CU1AC2CI1 SLP148

CYQG;2013-05-29 19:00;CYQG 291900Z 27014KT 15SM FEW045 FEW120 BKN290 29/17 A2998 RMK CU1AC1CI1 SLP149

CYQG;2013-05-29 20:00;CYQG 292000Z 24009G15KT 15SM FEW040 FEW120 SCT280 30/17 A2997 RMK CU1AC1CI1 SLP145

CYQG;2013-05-29 21:00;CYQG 292100Z CCA 24012KT 15SM SCT060 BKN080 BKN280 29/15 A2997 RMK CU3AC2CI1 SLP146

CYQG;2013-05-29 22:00;CYQG 292200Z 24009KT 15SM BKN057 BKN080 28/17 A2998 RMK CU6AC1 SLP149

CYQG;2013-05-29 23:00;CYQG 292300Z 26011KT 15SM BKN076 BKN080 28/17 A2999 RMK CU6AC1 SLP151

CYQG;2013-05-30 00:00;CYQG 300000Z 26005KT 10SM FEW082 SCT280 27/18 A2998 RMK AC2CI2 SLP149

CYQG;2013-05-30 01:00;CYQG 300100Z 25003KT 10SM FEW060TCU FEW082 SCT280 26/18 A2998 RMK TCU1AC2CI2 SLP149

CYQG;2013-05-30 02:00;CYQG 300200Z 10003KT 12SM FEW082 SCT280 23/18 A2999 RMK AC2CI2 SLP152

CYQG;2013-05-30 03:00;CYQG 300300Z 16006KT 12SM FEW080 FEW280 22/18 A3001 RMK AC1CI1 SLP160

CYQG;2013-05-30 04:00;CYQG 300400Z 18005KT 12SM FEW080 FEW280 20/18 A3001 RMK AC1CI1 SLP161

CYQG;2013-05-30 05:00;CYQG 300500Z 18005KT 12SM SKC 20/17 A3002 RMK SLP163

CYQG;2013-05-30 06:00;CYQG 300600Z 19006KT 12SM SKC 20/17 A3004 RMK SLP168

CYQG;2013-05-30 07:00;CYQG 300700Z 19005KT 12SM SKC 20/16 A3004 RMK SLP169

CYQG;2013-05-30 08:00;CYQG 300800Z 19006KT 12SM SKC 20/16 A3004 RMK SLP171

CYQG;2013-05-30 09:00;CYQG 300900Z CCA 20007KT 15SM FEW120 SCT230 20/16 A3005 RMK AC1CI1 SLP172

CYQG;2013-05-30 10:00;CYQG 301000Z 20008KT 15SM FEW120 BKN250 19/16 A3005 RMK AC1CI3 SLP174

CYQG;2013-05-30 11:00;CYQG 301100Z 20004KT 15SM BKN250 20/16 A3007 RMK CI4 SLP179

CYQG;2013-05-30 12:00;CYQG 301200Z 21009KT 12SM FEW160 BKN260 22/17 A3008 RMK AC1CI4 SLP183

CYQG;2013-05-30 13:00;CYQG 301300Z 22010KT 15SM FEW080 BKN270 24/18 A3009 RMK AC1CI2 SLP185

CYQG;2013-05-30 14:00;CYQG 301400Z 21011KT 15SM FEW070 FEW280 25/19 A3009 RMK AC1CI1 SLP186

CYQG;2013-05-30 15:00;CYQG 301500Z 21009KT 15SM FEW100 BKN290 26/20 A3008 RMK AC1CI1 SLP184

CYQG;2013-05-30 16:00;CYQG 301600Z 22013KT 15SM FEW035 BKN290 28/20 A3007 RMK CU1CI2 SLP182

CYQG;2013-05-30 17:00;CYQG 301700Z 19013KT 15SM FEW040TCU FEW300 29/20 A3007 RMK TCU1CI1 SLP179

CYQG;2013-05-30 18:00;CYQG 301800Z 19014KT 15SM FEW045TCU FEW300 30/20 A3004 RMK TCU1CI1 SLP170

CYQG;2013-05-30 18:48;CYQG 301848Z 20013G19KT 12SM TS SCT045CB BKN090 RMK CB3AC3 OCNL LTGCG W

CYQG;2013-05-30 19:00;CYQG 301900Z CCB 20011G18KT 12SM -TSRA BKN053CB BKN080 29/19 A3005 RMK CB5AC2 FRQ LTGCG NW SLP174

CYQG;2013-05-30 19:30;CYQG 301930Z 24003KT 12SM SCT048CB OVC300 RETS RMK CB3CS4

CYQG;2013-05-30 20:00;CYQG 302000Z 15004KT 12SM FEW048TCU OVC300 28/22 A3003 RETS RMK TCU2CS5 SLP167

CYQG;2013-05-30 21:00;CYQG 302100Z 15010KT 12SM FEW050CB BKN300 29/20 A3000 RMK CB2CS2 SLP155

CYQG;2013-05-30 21:50;CYQG 302150Z 27018KT 8SM -TSRA BKN040CB BKN300 RMK CB5CS2

CYQG;2013-05-30 22:02;CYQG 302202Z 26006G22KT 3SM -TSRA OVC040CB RERA RMK CB8 LTGICCC

CYQG;2013-05-30 22:10;CYQG 302210Z 36007KT 8SM -TSRA BKN040CB BKN280 RERA RMK CB6CS2

CYQG;2013-05-30 22:35;CYQG 302235Z 07002KT 15SM SCT060CB BKN240 RETSRA RMK CB3CS4

CYQG;2013-05-30 23:00;CYQG 302300Z 07005KT 15SM BKN060CB BKN240 24/20 A3000 RETSRA RMK CB5CS2 SLP157

CYQG;2013-05-30 23:48;CYQG 302348Z 00000KT 15SM TS BKN060CB BKN140 BKN280 RMK CB5AC2CI1 OCNL LTGCG S

CYQG;2013-05-31 00:00;CYQG 310000Z 22006KT 15SM TS BKN060CB BKN140 BKN280 24/20 A3003 RMK CB6AC1CI1 OCNL LTGCGCC SE TO SW SLP166

CYQG;2013-05-31 00:10;CYQG 310010Z 06007KT 8SM -TSRA OVC060CB RMK CB8 LTGICCG

CYQG;2013-05-31 00:52;CYQG 310052Z 12005KT 12SM OVC080 RETS RMK AC8

CYQG;2013-05-31 01:00;CYQG 310100Z CCA 11005KT 12SM BKN110 22/19 A3001 RETS RMK AC7 CB EMBD SLP162

CYQG;2013-05-31 01:42;CYQG 310142Z 17008KT 7SM -TSRA OVC060 RMK SC8 CB EMBD

CYQG;2013-05-31 01:45;CYQG 310145Z 17008KT 7SM TSRA OVC060 RMK SC8 CB EMBD

CYQG;2013-05-31 01:47;CYQG 310147Z 16011G18KT 7SM -TSRA OVC040 RERA RMK SC8 CB EMBD

CYQG;2013-05-31 02:00;CYQG 310200Z 13006KT 7SM -TSRA OVC060CB 21/19 A3002 RERA RMK CB8 SLP165

CYQG;2013-05-31 02:22;CYQG 310222Z 00000KT 12SM FEW060CB BKN110 RETSRA RMK CB2AC4

CYQG;2013-05-31 03:00;CYQG 310300Z 16005KT 12SM FEW060CB BKN110 21/19 A3002 RETSRA RMK CB2AC3 FQT LTGICCG NW SLP162

CYQG;2013-05-31 04:00;CYQG 310400Z 15006KT 12SM FEW100 BKN260 22/19 A3001 RMK AC2CI5 SLP161

CYQG;2013-05-31 05:00;CYQG 310500Z 19006KT 15SM BKN260 22/18 A3002 RMK CI3 SLP163

CYQG;2013-05-31 06:00;CYQG 310600Z 18005KT 15SM SCT260 20/18 A3001 RMK CI2 SLP160

CYQG;2013-05-31 07:00;CYQG 310700Z 18007KT 15SM FEW130 SCT260 20/17 A3000 RMK AC1CI1 SLP156

CYQG;2013-05-31 08:00;CYQG 310800Z 20009KT 15SM FEW140 BKN260 21/17 A2999 RMK AC2CI1 SLP154

CYQG;2013-05-31 09:00;CYQG 310900Z 19007KT 15SM FEW140 BKN260 21/17 A2999 RMK AC1CI2 SLP153

CYQG;2013-05-31 10:00;CYQG 311000Z 19008KT 15SM SCT120 BKN260 21/17 A2998 RMK AC3CI1 SLP151

CYQG;2013-05-31 11:00;CYQG 311100Z 19010KT 15SM FEW120 BKN280 21/18 A2999 RMK AC1CI3 SLP153

CYQG;2013-05-31 12:00;CYQG 311200Z 20011KT 15SM BKN280 23/18 A2999 RMK CI2 SLP153

CYQG;2013-05-31 13:00;CYQG 311300Z 21013KT 15SM BKN290 24/18 A2999 RMK CI2 SLP153

CYQG;2013-05-31 14:00;CYQG 311400Z 20015KT 15SM SCT260 BKN290 25/19 A2998 RMK CS1CI2 CONTRAILS SLP149

CYQG;2013-05-31 15:00;CYQG 311500Z 21018KT 12SM FEW032 SCT260 BKN290 27/20 A2997 RMK CU2CS1CI1 TCU ASOCTD CONTRAILS SLP146

CYQG;2013-05-31 16:00;CYQG 311600Z 20021G27KT 12SM FEW035 OVC270 28/20 A2996 RMK CU2CS1 TCU ASOCTD SLP144

CYQG;2013-05-31 17:00;CYQG 311700Z 20019G27KT 12SM FEW045 BKN270 OVC300 28/19 A2994 RMK CU2CS1CI0 TCU ASOCTD SLP136

CYQG;2013-05-31 18:00;CYQG 311800Z 21021G29KT 8SM FEW052 BKN090 OVC300 28/19 A2993 RMK CU2AC2CI1 TCU ASOCTD SLP132

CYQG;2013-05-31 19:00;CYQG 311900Z 26014KT 7SM BKN044 BKN250 26/19 A2994 RMK CU6CC1 TCU EMBD SLP134

CYQG;2013-05-31 20:00;CYQG 312000Z 24014G20KT 15SM SCT030 BKN110 26/18 A2992 RMK SC3AC4 SLP129

CYQG;2013-05-31 21:00;CYQG 312100Z CCA 25013G19KT 15SM FEW030 BKN150 BKN270 26/18 A2993 RMK SC1AC5CI1 TUC ASOCTD SLP132

CYQG;2013-05-31 22:00;CYQG 312200Z 23010KT 15SM FEW040 BKN090 BKN150 25/18 A2992 RMK SC2AC2AC2 SLP128

CYQG;2013-05-31 22:46;CYQG 312246Z 21010KT 15SM -SHRA SCT030 BKN150 RMK SC4AC3

CYQG;2013-05-31 23:00;CYQG 312300Z 21012KT 12SM -SHRA FEW030 BKN040 23/19 A2992 RMK CU1SC6 SLP131

CYQG;2013-06-01 00:00;CYQG 010000Z 20013KT 15SM -SHRA BKN030 BKN090 22/19 A2992 RMK SC6AC2 SLP129

CYQG;2013-06-01 00:42;CYQG 010042Z 21012G17KT 15SM BKN027 BKN150 BKN270 RMK SC6AC2CI0

CYQG;2013-06-01 01:00;CYQG 010100Z 21010KT 15SM BKN023 BKN150 BKN270 21/19 A2991 RMK SC6AC2CI0 SLP127

CYQG;2013-06-01 02:00;CYQG 010200Z 20007KT 15SM FEW025 BKN270 21/19 A2990 RMK SC2CI0 SLP123

CYQG;2013-06-01 03:00;CYQG 010300Z 20009KT 15SM SCT100 BKN210 BKN270 20/19 A2992 RMK AC4CI1CI0 SLP127

CYQG;2013-06-01 04:00;CYQG 010400Z 20012KT 15SM FEW019 OVC190 21/19 A2992 RMK SC1AC7 SLP127

CYQG;2013-06-01 05:00;CYQG 010500Z 19015G20KT 15SM SCT160 OVC260 20/19 A2987 RMK AC3CI5 PRESFR SLP112

CYQG;2013-06-01 06:00;CYQG 010600Z 21018G26KT 15SM FEW120 OVC200 21/19 A2983 RMK AC2CI6 PRESFR SLP098

CYQG;2013-06-01 07:00;CYQG 010700Z 20012KT 15SM OVC130 21/18 A2980 RMK AC8 SLP089

CYQG;2013-06-01 08:00;CYQG 010800Z 20012KT 15SM OVC140 20/16 A2981 RMK AC8 SLP092

CYQG;2013-06-01 08:12;CYQG 010812Z 22013KT 15SM -SHRA OVC140 RMK AC8

CYQG;2013-06-01 09:00;CYQG 010900Z 23010KT 12SM -SHRA OVC053 19/16 A2985 RMK SC8 PRES UNSTDY NOW FALG SLP105

CYQG;2013-06-01 10:00;CYQG 011000Z 23010KT 6SM -SHRA BR FEW011 OVC064 18/17 A2987 RMK SF2SC6 SLP112

CYQG;2013-06-01 10:49;CYQG 011049Z 16007KT 12SM VCSH FEW070 BKN130 BKN270 RMK AC2AC3CI2 -SHRA NE OCNL SHRA

CYQG;2013-06-01 11:00;CYQG 011100Z CCA 13010KT 12SM VCSH FEW070 BKN130 BKN270 18/17 A2979 RMK AC2AC3CI2 -SHRA NE + SE PRESFR SLP086

CYQG;2013-06-01 12:00;CYQG 011200Z 21013KT 15SM FEW094 BKN130 BKN270 19/17 A2983 RMK AC2AC5CI1 SLP098

CYQG;2013-06-01 13:00;CYQG 011300Z 20012KT 15SM FEW009 SCT130 BKN250 20/17 A2980 RMK CF1AC3CS1 TR CF SLP091

CYQG;2013-06-01 14:00;CYQG 011400Z 21020G25KT 15SM FEW009 BKN160 BKN250 22/18 A2979 RMK CF1AC5CI1 TR CF SLP087

CYQG;2013-06-01 15:00;CYQG 011500Z 22015G20KT 15SM FEW025 BKN096 BKN160 BKN280 23/18 A2978 RMK CU1AC5AC1CI1 TR CU SLP083

CYQG;2013-06-01 16:00;CYQG 011600Z 22019G24KT 15SM FEW028 FEW120 BKN280 24/18 A2980 RMK CU1AC2CI1 SLP087

CYQG;2013-06-01 17:00;CYQG 011700Z 21015KT 15SM FEW028 BKN180 BKN280 25/18 A2981 RMK CU1AC5CI1 SLP091

CYQG;2013-06-01 18:00;CYQG 011800Z 21013KT 15SM FEW028 BKN110 BKN280 25/18 A2980 RMK CU1AC4CI1 SLP088

CYQG;2013-06-01 19:00;CYQG 011900Z 25016G21KT 15SM FEW030 SCT110 BKN220 BKN280 27/18 A2980 RMK CU2AC2CC1CI0 SLP089

CYQG;2013-06-01 20:00;CYQG 012000Z 25018KT 15SM SCT042 BKN092 BKN260 27/17 A2979 RMK CU4AC2CI1 SLP085

CYQG;2013-06-01 21:00;CYQG 012100Z 24017G22KT 15SM FEW045 BKN130 BKN270 26/17 A2979 RMK CU2AC3CI2 SLP086

CYQG;2013-06-01 22:00;CYQG 012200Z 24014KT 15SM FEW050 BKN110 OVC280 25/16 A2979 RMK CU2AC4CI2 SLP084

CYQG;2013-06-01 22:10;CYQG 012210Z 24015KT 15SM -SHRA FEW050 BKN110 OVC280 RMK CU2AC5CI2

CYQG;2013-06-01 23:00;CYQG 012300Z 25009KT 15SM FEW062 BKN110 24/16 A2978 RMK CU2AC5 OCNL -SHRA SLP083

CYQG;2013-06-02 00:00;CYQG 020000Z 24004KT 15SM -SHRA FEW055 BKN110 23/16 A2977 RMK CU2AC5 SLP080

CYQG;2013-06-02 01:00;CYQG 020100Z 19003KT 15SM -SHRA BKN052 OVC090 22/18 A2977 RMK CU6AC2 SLP078

CYQG;2013-06-02 01:51;CYQG 020151Z 11003KT 15SM FEW055 BKN140 RMK CU2AC5

CYQG;2013-06-02 02:00;CYQG 020200Z 12002KT 15SM FEW060 BKN160 20/19 A2975 RMK CU2AC5 SLP072

CYQG;2013-06-02 02:18;CYQG 020218Z 18002KT 12SM -SHRA SCT063 OVC120 RMK CU3AC5

CYQG;2013-06-02 03:00;CYQG 020300Z 00000KT 15SM FEW070 SCT120 BKN170 20/18 A2972 RMK CU2AC2AC3 SLP061

CYQG;2013-06-02 04:00;CYQG 020400Z 19005KT 15SM FEW030 OVC120 20/18 A2972 RMK SC2AC6 SLP061

CYQG;2013-06-02 05:03;CYQG 020503Z 19007KT 12SM -SHRA BKN036 OVC090 RMK SC6AC2

CYQG;2013-06-02 05:12;CYQG 020512Z 18009KT 10SM SHRA BKN032TCU OVC080 RMK TCU6AC2

CYQG;2013-06-02 05:19;CYQG 020519Z 17007KT 12SM -SHRA BKN033TCU OVC090 RMK TCU6AC2

CYQG;2013-06-02 06:00;CYQG 020600Z 19005KT 8SM -SHRA OVC026TCU 19/18 A2969 RERA RMK TCU8 SLP051

CYQG;2013-06-02 07:00;CYQG 020700Z 18006KT 15SM BKN023 BKN060 19/18 A2968 RMK CU5SC1 SLP048

CYQG;2013-06-02 08:00;CYQG 020800Z 23008KT 15SM FEW028 19/18 A2968 RMK CU2 SLP048

CYQG;2013-06-02 09:00;CYQG 020900Z 22010KT 15SM FEW018 BKN120 BKN290 19/17 A2968 RMK SC1AC6CI1 SLP049

CYQG;2013-06-02 10:00;CYQG 021000Z 23013KT 15SM FEW080 FEW120 19/17 A2969 RMK AC2AC1 SLP052

CYQG;2013-06-02 11:00;CYQG 021100Z 23015G20KT 15SM FEW045TCU FEW080 19/16 A2971 RMK TCU1AC1 SLP057

CYQG;2013-06-02 12:00;CYQG 021200Z 24018KT 15SM FEW019 FEW080 SCT280 19/15 A2973 RMK CU1AC1CI1 TCU ASOCTD SLP065

CYQG;2013-06-02 13:00;CYQG 021300Z 25017KT 15SM BKN024 BKN085 20/15 A2974 RMK CU6AC1 TR AC SLP070

CYQG;2013-06-02 14:00;CYQG 021400Z 24013G18KT 15SM BKN030 20/15 A2975 RMK CU7 SLP073

CYQG;2013-06-02 15:00;CYQG 021500Z 25015KT 15SM BKN029 21/14 A2977 RMK CU6 TCU ASOCTD SLP080

CYQG;2013-06-02 16:00;CYQG 021600Z 26017KT 15SM BKN037TCU 22/14 A2978 RMK TCU6 CU ASOCTD SLP083

CYQG;2013-06-02 17:00;CYQG 021700Z 26014KT 15SM FEW038 BKN068TCU 22/14 A2980 RMK CU2TCU5 SLP090

CYQG;2013-06-02 18:00;CYQG 021800Z 27011G18KT 15SM FEW035 BKN065TCU 22/14 A2982 RMK CU2TCU5 SLP095

CYQG;2013-06-02 19:00;CYQG 021900Z 27014KT 15SM SCT038 BKN075 22/14 A2983 RMK CU3AC4 TCU EMBD SLP100

CYQG;2013-06-02 20:00;CYQG 022000Z 27013KT 15SM BKN074 22/13 A2985 RMK CU7 SLP105

CYQG;2013-06-02 21:00;CYQG 022100Z 29012G17KT 15SM BKN039 BKN075 21/13 A2985 RMK CU5AC2 SLP107

CYQG;2013-06-02 22:00;CYQG 022200Z 28012G17KT 15SM FEW040 BKN072 21/12 A2986 RMK CU2AC4 SLP108

CYQG;2013-06-02 23:00;CYQG 022300Z 32012G18KT 15SM FEW040 SCT070 SCT280 20/12 A2987 RMK SC2AC1CI0 SLP113

CYQG;2013-06-03 00:00;CYQG 030000Z 32011G18KT 15SM FEW035 SCT075 BKN280 17/10 A2989 RMK SC2AC2CI0 SLP122

CYQG;2013-06-03 01:00;CYQG 030100Z 35009KT 15SM BKN027 BKN280 16/10 A2991 RMK SC5CI0 SLP128

CYQG;2013-06-03 02:00;CYQG 030200Z 34007KT 15SM BKN029 15/09 A2995 RMK SC7 SLP139

CYQG;2013-06-03 03:00;CYQG 030300Z 35009KT 15SM BKN030 14/08 A2997 RMK SC7 SLP147

CYQG;2013-06-03 04:00;CYQG 030400Z 35008KT 15SM OVC031 14/07 A2998 RMK SC8 SLP150

CYQG;2013-06-03 05:00;CYQG 030500Z 35008KT 15SM OVC031 13/07 A2998 RMK SC8 SLP153

CYQG;2013-06-03 06:00;CYQG 030600Z 36008KT 15SM OVC029 13/06 A2999 RMK SC8 SLP156

CYQG;2013-06-03 07:00;CYQG 030700Z 35007KT 15SM OVC030 12/05 A2999 RMK SC8 SLP156

CYQG;2013-06-03 08:00;CYQG 030800Z 34009KT 15SM OVC030 11/05 A3000 RMK SC8 SLP159

CYQG;2013-06-03 09:00;CYQG 030900Z 32007KT 15SM BKN030 11/05 A3002 RMK SC7 SLP166

CYQG;2013-06-03 10:00;CYQG 031000Z 01006KT 15SM FEW025 FEW120 10/05 A3004 RMK SC2AC1 SLP171

CYQG;2013-06-03 11:00;CYQG 031100Z 35005KT 15SM FEW025 FEW120 10/04 A3005 RMK SC1AC1 SLP175

CYQG;2013-06-03 12:00;CYQG 031200Z 34003KT 15SM FEW025 10/04 A3006 RMK SC1 SLP180

CYQG;2013-06-03 13:00;CYQG 031300Z 31002KT 15SM FEW025 11/04 A3007 RMK SC1 SLP183

CYQG;2013-06-03 14:00;CYQG 031400Z 34006KT 15SM FEW036 12/04 A3007 RMK CU1 SLP185

CYQG;2013-06-03 15:00;CYQG 031500Z 05005KT 15SM FEW036 13/05 A3007 RMK CU1 SLP186

CYQG;2013-06-03 16:00;CYQG 031600Z 03003KT 15SM FEW040 14/04 A3008 RMK CU1 SLP189

CYQG;2013-06-03 17:00;CYQG 031700Z 03004KT 15SM FEW044 15/03 A3007 RMK CU1 SLP185

CYQG;2013-06-03 18:00;CYQG 031800Z 07002KT 15SM FEW044 16/05 A3006 RMK CU1 SLP180

CYQG;2013-06-03 19:00;CYQG 031900Z 10007KT 15SM FEW040 17/06 A3004 RMK CU1 SLP175

CYQG;2013-06-03 20:00;CYQG 032000Z 11005KT 15SM FEW050 17/05 A3002 RMK SC1 SLP166

CYQG;2013-06-03 21:00;CYQG 032100Z 20004KT 15SM FEW050 18/06 A3002 RMK SC1 SLP166

CYQG;2013-06-03 22:00;CYQG 032200Z 12003KT 15SM FEW050 FEW280 19/07 A3001 RMK SC1CI1 SLP162

CYQG;2013-06-03 23:00;CYQG 032300Z 20007KT 15SM FEW050 BKN280 18/06 A3002 RMK SC1CI2 SLP166

CYQG;2013-06-04 00:00;CYQG 040000Z 19007KT 15SM FEW050 BKN280 17/06 A3004 RMK SC1CI3 SLP174

CYQG;2013-06-04 01:00;CYQG 040100Z 20004KT 15SM FEW050 BKN280 16/06 A3004 RMK SC1CI2 FU DIST NE SLP176

CYQG;2013-06-04 02:00;CYQG 040200Z 20005KT 15SM FEW050 BKN280 15/06 A3005 RMK SC1CI3 SLP179

CYQG;2013-06-04 03:00;CYQG 040300Z 21006KT 15SM FEW280 15/06 A3007 RMK CI1 SLP186

CYQG;2013-06-04 04:00;CYQG 040400Z 21006KT 15SM FEW080 FEW280 14/07 A3009 RMK AC1CI1 SLP190

CYQG;2013-06-04 05:00;CYQG 040500Z 22006KT 15SM FEW080 13/08 A3009 RMK AC1 SLP190

CYQG;2013-06-04 06:00;CYQG 040600Z 31004KT 15SM SKC 12/08 A3011 RMK SLP196

CYQG;2013-06-04 07:00;CYQG 040700Z 33003KT 15SM SKC 13/08 A3011 RMK SLP196

CYQG;2013-06-04 08:00;CYQG 040800Z 34005KT 15SM SKC 12/07 A3011 RMK SLP198

CYQG;2013-06-04 09:00;CYQG 040900Z 36006KT 15SM SKC 11/07 A3012 RMK SLP201

CYQG;2013-06-04 10:00;CYQG 041000Z 05010KT 15SM FEW150 10/08 A3015 RMK AC1 SLP210

CYQG;2013-06-04 11:00;CYQG 041100Z 05007KT 15SM FEW160 FEW280 12/08 A3017 RMK AC1CI1 SLP216

CYQG;2013-06-04 12:00;CYQG 041200Z 07008KT 15SM FEW280 13/07 A3019 RMK CI1 SLP223

CYQG;2013-06-04 13:00;CYQG 041300Z 05005KT 15SM SCT280 13/06 A3021 RMK CI1 SLP230

CYQG;2013-06-04 14:00;CYQG 041400Z 05006KT 15SM SCT280 14/05 A3020 RMK CI2 SLP227

CYQG;2013-06-04 15:00;CYQG 041500Z 06006KT 15SM BKN280 15/06 A3020 RMK CI2 SLP228

CYQG;2013-06-04 16:00;CYQG 041600Z 04004KT 15SM BKN280 16/06 A3021 RMK CI2 SLP232

CYQG;2013-06-04 17:00;CYQG 041700Z 09007KT 15SM SCT280 18/08 A3020 RMK CI1 SLP226

CYQG;2013-06-04 18:00;CYQG 041800Z 10006KT 15SM FEW040 BKN280 18/07 A3019 RMK CU1CI2 SLP224

CYQG;2013-06-04 19:00;CYQG 041900Z 06008KT 15SM FEW040 BKN280 18/08 A3018 RMK CU1CI2 SLP222

CYQG;2013-06-04 20:00;CYQG 042000Z 08007KT 15SM FEW040 SCT280 19/08 A3018 RMK CU1CI0 SLP221

CYQG;2013-06-04 21:00;CYQG 042100Z 09009KT 15SM FEW060 SCT280 19/07 A3017 RMK CU1CI1 CU TR SLP217

CYQG;2013-06-04 22:00;CYQG 042200Z 08010KT 15SM FEW060 BKN280 19/07 A3018 RMK CU1CI2 SLP221

CYQG;2013-06-04 23:00;CYQG 042300Z 08007KT 15SM FEW060 BKN280 18/06 A3017 RMK CU1CI2 SLP217

CYQG;2013-06-05 00:00;CYQG 050000Z 06009G15KT 15SM BKN280 18/04 A3017 RMK CI2 SLP216

CYQG;2013-06-05 01:00;CYQG 050100Z 06008KT 15SM FEW075 BKN280 16/01 A3018 RMK AC1CI1 SLP222

CYQG;2013-06-05 02:00;CYQG 050200Z 06006KT 15SM FEW180 BKN280 15/01 A3019 RMK AC1CI2 SLP224

CYQG;2013-06-05 03:00;CYQG 050300Z 09004KT 15SM BKN240 14/02 A3020 RMK CI2 SLP226

CYQG;2013-06-05 04:00;CYQG 050400Z 03003KT 15SM FEW170 13/04 A3019 RMK AC2 SLP223

CYQG;2013-06-05 05:00;CYQG 050500Z 11003KT 15SM FEW180 13/03 A3018 RMK AC2 SLP220

CYQG;2013-06-05 06:00;CYQG 050600Z 00000KT 15SM FEW180 SCT280 12/03 A3018 RMK AC2CI1 SLP222

CYQG;2013-06-05 07:00;CYQG 050700Z 05002KT 15SM FEW180 BKN260 12/03 A3017 RMK AC2CI5 SLP219

CYQG;2013-06-05 08:00;CYQG 050800Z 05003KT 15SM BKN210 12/04 A3017 RMK CS7 SLP216

CYQG;2013-06-05 09:00;CYQG 050900Z 04007KT 15SM BKN190 12/07 A3017 RMK AC7 SLP216

CYQG;2013-06-05 10:00;CYQG 051000Z 06008KT 15SM BKN190 12/06 A3017 RMK AC7 SLP218

CYQG;2013-06-05 11:00;CYQG 051100Z 07005KT 15SM BKN180 BKN280 13/08 A3017 RMK AC6CI1 SLP217

CYQG;2013-06-05 12:00;CYQG 051200Z 08008KT 15SM BKN160 14/06 A3017 RMK AC7 SLP218

CYQG;2013-06-05 13:00;CYQG 051300Z 08006KT 15SM SCT140 BKN190 15/07 A3017 RMK AC3AC4 SLP218

CYQG;2013-06-05 14:00;CYQG 051400Z 07007KT 15SM FEW160 BKN280 16/08 A3017 RMK AC2CI2 CONTRAILS SLP218

CYQG;2013-06-05 15:00;CYQG 051500Z 07006KT 15SM FEW160 BKN280 17/10 A3015 RMK AC1CI2 SLP210

CYQG;2013-06-05 16:00;CYQG 051600Z 04007KT 15SM FEW160 FEW280 18/10 A3013 RMK AC1CI1 SLP203

CYQG;2013-06-05 17:00;CYQG 051700Z 05009KT 15SM FEW140 BKN270 19/11 A3011 RMK AC1CC4 SLP198

CYQG;2013-06-05 18:00;CYQG 051800Z CCA 07009KT 15SM SCT140 BKN270 21/09 A3010 RMK AC3CC1 SLP192

CYQG;2013-06-05 19:00;CYQG 051900Z 06014G19KT 15SM FEW140 BKN240 21/08 A3008 RMK AC2CC2 SLP187

CYQG;2013-06-05 20:00;CYQG 052000Z 06014G19KT 15SM FEW140 SCT240 22/08 A3005 RMK ACC2CC1 SLP177

CYQG;2013-06-05 21:00;CYQG 052100Z 05012G18KT 15SM FEW140 BKN240 21/05 A3004 RMK AC2CC2 SLP174

CYQG;2013-06-05 22:00;CYQG 052200Z CCA 05014KT 15SM FEW140 BKN280 21/03 A3004 RMK AC1CC5 SLP171

CYQG;2013-06-05 23:00;CYQG 052300Z 08010KT 15SM FEW140 OVC280 21/04 A3002 RMK AC2CC6 SLP167

CYQG;2013-06-06 00:00;CYQG 060000Z 04009KT 15SM FEW140 OVC280 20/08 A3001 RMK AC1CC6 SLP163

CYQG;2013-06-06 02:00;CYQG 060200Z 07006KT 15SM FEW190 SCT280 16/09 A3001 RMK AC2CI2 SLP163

CYQG;2013-06-06 03:00;CYQG 060300Z 04006KT 15SM FEW190 SCT280 15/10 A3002 RMK AC2CI2 SLP165

CYQG;2013-06-06 04:00;CYQG 060400Z 08004KT 15SM FEW170 BKN280 15/11 A3000 RMK AC1CI2 SLP160

CYQG;2013-06-06 05:00;CYQG 060500Z 08010KT 15SM SCT180 BKN280 16/07 A3000 RMK AC3CI2 SLP160

CYQG;2013-06-06 06:00;CYQG 060600Z 04008KT 15SM FEW180 BKN240 BKN280 15/07 A2998 RMK AC2CS2CI1 SLP153

CYQG;2013-06-06 07:00;CYQG 060700Z 04010KT 15SM SCT240 BKN280 14/06 A2997 RMK CS3CI1 SLP149

CYQG;2013-06-06 08:00;CYQG 060800Z 04010KT 15SM BKN280 14/06 A2995 RMK CI5 SLP141

CYQG;2013-06-06 09:00;CYQG 060900Z 04009KT 15SM FEW160 BKN240 BKN280 14/06 A2994 RMK AC2CS3CI0 SLP138

CYQG;2013-06-06 10:00;CYQG 061000Z 03012G18KT 15SM FEW160 BKN240 14/07 A2992 RMK AC1CS6 SLP132

CYQG;2013-06-06 11:00;CYQG 061100Z 04011G17KT 15SM FEW160 BKN280 14/08 A2993 RMK AC2CI6 CONTRAILS SLP134

CYQG;2013-06-06 12:00;CYQG 061200Z 04013G18KT 15SM FEW160 OVC260 14/08 A2990 RMK AC2CS5 SLP125

CYQG;2013-06-06 13:00;CYQG 061300Z 04011G16KT 15SM FEW160 OVC260 15/08 A2990 RMK AC2CS6 SLP125

CYQG;2013-06-06 14:00;CYQG 061400Z 05014KT 15SM SCT160 OVC260 15/08 A2989 RMK AC3CS5 SLP122

CYQG;2013-06-06 15:00;CYQG 061500Z 06012KT 15SM SCT150 OVC260 15/09 A2990 RMK AC4CS4 SLP125

CYQG;2013-06-06 16:00;CYQG 061600Z 04007KT 15SM BKN160 OVC260 16/09 A2992 RMK AC5CS3 SLP131

CYQG;2013-06-06 17:00;CYQG 061700Z 03011KT 15SM BKN020 OVC150 16/10 A2990 RMK SC6AC2 SLP127

CYQG;2013-06-06 18:00;CYQG 061800Z 04011G17KT 15SM BKN018 BKN140 17/10 A2988 RMK SC5AC2 SLP117

CYQG;2013-06-06 19:00;CYQG 061900Z 04012KT 15SM BKN023 OVC140 18/11 A2988 RMK SC6AC2 SLP118

CYQG;2013-06-06 20:00;CYQG 062000Z 04013G18KT 15SM OVC026 17/11 A2987 RMK SC8 SLP116

CYQG;2013-06-06 21:00;CYQG 062100Z 02015KT 15SM BKN029 17/11 A2988 RMK SC7 SLP117

CYQG;2013-06-06 22:00;CYQG 062200Z 02014KT 15SM BKN031 17/11 A2988 RMK SC7 SLP118

CYQG;2013-06-06 23:00;CYQG 062300Z 04013G18KT 15SM BKN033 BKN140 16/11 A2988 RMK SC5AC1 SLP117

CYQG;2013-06-07 00:00;CYQG 070000Z 03013G19KT 15SM BKN027 16/10 A2988 RMK SC7 SLP119

CYQG;2013-06-07 01:00;CYQG 070100Z 04011KT 15SM BKN025 15/10 A2989 RMK SC7 SLP124

CYQG;2013-06-07 02:00;CYQG 070200Z 03010KT 15SM OVC020 15/10 A2990 RMK SC8 SLP126

CYQG;2013-06-07 03:00;CYQG 070300Z 04007KT 15SM OVC018 15/10 A2991 RMK SC8 SLP128

CYQG;2013-06-07 04:00;CYQG 070400Z 02006KT 15SM OVC021 15/11 A2989 RMK SC8 SLP124

CYQG;2013-06-07 05:00;CYQG 070500Z 36005KT 15SM OVC021 15/10 A2989 RMK SC8 SLP122

CYQG;2013-06-07 06:00;CYQG 070600Z 36006KT 15SM OVC019 14/10 A2989 RMK SC8 SLP120

CYQG;2013-06-07 07:00;CYQG 070700Z 01006KT 15SM SCT020 SCT280 13/10 A2989 RMK SC3CI1 SLP121

CYQG;2013-06-07 08:00;CYQG 070800Z 36005KT 15SM FEW012 12/10 A2987 RMK SC1 SLP115

CYQG;2013-06-07 09:00;CYQG 070900Z 36006KT 15SM FEW017 FEW280 11/10 A2988 RMK SC2CI0 CONTRAILS SLP118

CYQG;2013-06-07 09:16;CYQG 070916Z 36007KT 15SM BKN014 BKN280 RMK SC6CI0 CONTRAILS

CYQG;2013-06-07 10:00;CYQG 071000Z 35009KT 10SM OVC009 12/10 A2989 RMK SC8 SLP121

CYQG;2013-06-07 10:45;CYQG 071045Z 01006KT 12SM OVC012 RMK SC8

CYQG;2013-06-07 11:00;CYQG 071100Z 01007KT 12SM OVC011 12/10 A2989 RMK SC8 SLP123

CYQG;2013-06-07 12:00;CYQG 071200Z 01009KT 15SM OVC012 13/10 A2990 RMK SC8 SLP125

CYQG;2013-06-07 13:00;CYQG 071300Z 36007KT 15SM OVC013 13/10 A2990 RMK SC8 SLP127

CYQG;2013-06-07 14:00;CYQG 071400Z 36004KT 15SM OVC011 13/10 A2991 RMK SC8 SLP130

CYQG;2013-06-07 15:00;CYQG 071500Z 03006KT 12SM -DZ OVC012 13/11 A2991 RMK SC8 SLP129

CYQG;2013-06-07 16:00;CYQG 071600Z 01006KT 12SM -DZ OVC013 14/11 A2991 RMK SC8 SLP130

CYQG;2013-06-07 16:36;CYQG 071636Z 02007KT 15SM OVC012 RMK SC8

CYQG;2013-06-07 17:00;CYQG 071700Z 35007KT 15SM OVC012 14/11 A2991 RMK SC8 SLP128

CYQG;2013-06-07 18:00;CYQG 071800Z 35007KT 15SM OVC014 14/11 A2990 RMK SC8 SLP125

CYQG;2013-06-07 19:00;CYQG 071900Z 02007KT 15SM OVC016 15/11 A2990 RMK SC8 SLP126

CYQG;2013-06-07 20:00;CYQG 072000Z 36006KT 15SM OVC017 15/11 A2989 RMK SC8 SLP123

CYQG;2013-06-07 21:00;CYQG 072100Z 36008KT 15SM OVC020 16/11 A2989 RMK SC8 SLP122

CYQG;2013-06-07 22:00;CYQG 072200Z 04007KT 15SM OVC022 16/11 A2989 RMK SC8 SLP121

CYQG;2013-06-07 23:00;CYQG 072300Z 05005KT 15SM OVC028 15/12 A2988 RMK SC8 SLP120

CYQG;2013-06-08 00:00;CYQG 080000Z 05006KT 15SM OVC030 15/11 A2989 RMK SC8 SLP122

CYQG;2013-06-08 01:00;CYQG 080100Z 05004KT 15SM OVC024 15/11 A2990 RMK SC8 SLP127

CYQG;2013-06-08 02:00;CYQG 080200Z 05004KT 15SM OVC038 15/11 A2991 RMK SC8 SLP129

CYQG;2013-06-08 03:00;CYQG 080300Z 04007KT 15SM OVC036 15/12 A2992 RMK SC8 SLP131

CYQG;2013-06-08 04:00;CYQG 080400Z 07003KT 15SM SCT026 OVC038 14/12 A2992 RMK CU3SC5 SLP131

CYQG;2013-06-08 05:00;CYQG 080500Z 35002KT 15SM OVC025 14/11 A2991 RMK SC8 SLP130

CYQG;2013-06-08 06:00;CYQG 080600Z 35003KT 15SM OVC023 14/10 A2991 RMK SC8 CU ASOCTD SLP130

CYQG;2013-06-08 07:00;CYQG 080700Z 01004KT 15SM OVC028 14/10 A2991 RMK SC8 SLP130

CYQG;2013-06-08 08:00;CYQG 080800Z 36004KT 15SM OVC027 14/10 A2991 RMK SC8 SLP130

CYQG;2013-06-08 09:00;CYQG 080900Z 35003KT 15SM OVC034 14/11 A2992 RMK SC8 SLP131

CYQG;2013-06-08 10:00;CYQG 081000Z 36002KT 15SM FEW025 BKN038 14/11 A2994 RMK CU1SC6 SLP138

CYQG;2013-06-08 11:00;CYQG 081100Z 35003KT 15SM FEW022 BKN039 14/11 A2996 RMK CU1SC7 TR CU SLP147

CYQG;2013-06-08 12:00;CYQG 081200Z 33003KT 15SM BKN036 15/11 A2998 RMK SC7 SLP151

CYQG;2013-06-08 13:00;CYQG 081300Z 32004KT 15SM FEW020 OVC038 15/11 A2999 RMK CF1SC7 SLP157

CYQG;2013-06-08 14:00;CYQG 081400Z 36003KT 15SM FEW020 OVC038 15/11 A3001 RMK CF1SC8 TR CF SLP161

CYQG;2013-06-08 15:00;CYQG 081500Z 04002KT 15SM FEW025 OVC042 16/11 A3001 RMK CU1SC7 SLP163

CYQG;2013-06-08 16:00;CYQG 081600Z 06002KT 15SM FEW025 BKN044 17/12 A3002 RMK CU2SC5 SLP167

CYQG;2013-06-08 17:00;CYQG 081700Z 30002KT 15SM SCT025 OVC047 18/11 A3003 RMK CU3SC5 SLP169

CYQG;2013-06-08 18:00;CYQG 081800Z 00000KT 15SM BKN030 BKN048 19/12 A3001 RMK CU5SC2 SLP162

CYQG;2013-06-08 19:00;CYQG 081900Z 17003KT 15SM BKN047 BKN080 BKN290 19/11 A3001 RMK CU6AC1CI1 SLP163

CYQG;2013-06-08 20:00;CYQG 082000Z 23004KT 15SM BKN052 BKN090 BKN290 20/11 A3001 RMK CU6AC1CI1 SLP162

CYQG;2013-06-08 21:00;CYQG 082100Z 00000KT 15SM BKN050 BKN290 21/12 A3001 RMK CU6CI1 SLP161

CYQG;2013-06-08 22:00;CYQG 082200Z 18005KT 15SM SCT052 BKN280 20/12 A3002 RMK CU3CS4 SLP164

CYQG;2013-06-08 23:00;CYQG 082300Z 16006KT 15SM FEW050 BKN280 21/12 A3002 RMK CU1CS5 SLP165

CYQG;2013-06-09 00:00;CYQG 090000Z 17005KT 15SM FEW045 BKN280 19/12 A3004 RMK CU1CI5 SLP172

CYQG;2013-06-09 01:00;CYQG 090100Z 16004KT 15SM FEW045 BKN280 18/12 A3005 RMK SC2CI3 SLP175

CYQG;2013-06-09 02:00;CYQG 090200Z 15005KT 15SM BKN280 17/12 A3007 RMK CI3 SLP181

CYQG;2013-06-09 03:00;CYQG 090300Z 17004KT 15SM FEW040 SCT280 16/12 A3009 RMK SC2CI1 SLP191

CYQG;2013-06-09 04:00;CYQG 090400Z 18003KT 15SM SCT280 15/12 A3009 RMK CI2 SLP189

CYQG;2013-06-09 05:00;CYQG 090500Z 13002KT 15SM FEW093 SCT280 15/12 A3010 RMK AC1CI2 SLP192

CYQG;2013-06-09 06:00;CYQG 090600Z 07005KT 12SM SCT200 14/11 A3010 RMK CI3 SLP194

CYQG;2013-06-09 07:00;CYQG 090700Z 09003KT 12SM FEW100 14/11 A3010 RMK AC2 SLP194

CYQG;2013-06-09 08:00;CYQG 090800Z 13004KT 12SM SCT100 14/11 A3011 RMK AC3 SLP195

CYQG;2013-06-09 09:00;CYQG 090900Z 07002KT 12SM BKN110 14/11 A3011 RMK AC7 SLP196

CYQG;2013-06-09 10:00;CYQG 091000Z 09004KT 10SM BKN110 14/11 A3012 RMK AC7 SLP199

CYQG;2013-06-09 11:00;CYQG 091100Z 09003KT 10SM BKN110 OVC250 16/12 A3012 RMK AC6CI0 SLP200

CYQG;2013-06-09 12:00;CYQG 091200Z 09005KT 15SM BKN110 17/12 A3014 RMK AC7 SLP204

CYQG;2013-06-09 13:00;CYQG 091300Z 12008KT 15SM BKN110 BKN270 19/12 A3014 RMK AC5CI0 SLP205

CYQG;2013-06-09 14:00;CYQG 091400Z 11008KT 15SM FEW100 BKN110 20/13 A3013 RMK AC2AC5 SLP203

CYQG;2013-06-09 15:00;CYQG 091500Z 13010G16KT 15SM SCT060 BKN110 22/13 A3012 RMK SC3AC3 SLP200

CYQG;2013-06-09 16:00;CYQG 091600Z 13013KT 15SM SCT058 BKN110 OVC270 23/13 A3013 RMK SC3AC2CI0 SLP201

CYQG;2013-06-09 17:00;CYQG 091700Z 11013G19KT 15SM FEW054 SCT110 OVC270 23/13 A3011 RMK SC2AC2CI2 SLP195

CYQG;2013-06-09 18:00;CYQG 091800Z 11010G17KT 15SM OVC058 22/13 A3010 RMK SC8 SLP191

CYQG;2013-06-09 19:00;CYQG 091900Z 12011G16KT 15SM BKN052 OVC061 22/13 A3008 RMK SC6SC2 SLP185

CYQG;2013-06-09 20:00;CYQG 092000Z 11009KT 15SM SCT048 BKN090 BKN280 24/13 A3006 RMK SC3AC2CI2 SLP179

CYQG;2013-06-09 21:00;CYQG 092100Z 12013G21KT 15SM FEW046 BKN110 OVC270 24/13 A3003 RMK SC2AC4CI2 SLP169

CYQG;2013-06-09 22:00;CYQG 092200Z 11016G22KT 15SM BKN070 OVC270 23/13 A3002 RMK AC6CS2 SLP165

CYQG;2013-06-09 23:00;CYQG 092300Z 10015KT 15SM BKN064 OVC270 23/13 A3001 RMK SC5CS2 SLP162

CYQG;2013-06-10 00:00;CYQG 100000Z 11013G19KT 15SM FEW062 OVC260 22/11 A3001 RMK SC1CS7 SLP160

CYQG;2013-06-10 01:00;CYQG 100100Z 11012KT 15SM FEW070 OVC250 20/09 A3000 RMK AC2CS6 SLP158

CYQG;2013-06-10 02:00;CYQG 100200Z 10012KT 15SM FEW070 OVC240 19/10 A3001 RMK AC2CS6 SLP160

CYQG;2013-06-10 03:00;CYQG 100300Z 11011KT 15SM FEW090 OVC170 19/10 A3000 RMK AC1AS7 SLP157

CYQG;2013-06-10 03:20;CYQG 100320Z CCA 11010G19KT 15SM -RA OVC110 RMK AC8

CYQG;2013-06-10 04:00;CYQG 100400Z 12012KT 15SM -RA OVC110 17/12 A2998 RMK AC8 SLP151

CYQG;2013-06-10 05:00;CYQG 100500Z 13006KT 6SM -RA OVC041 16/14 A2997 RMK SC8 SLP148

CYQG;2013-06-10 05:38;CYQG 100538Z 06008KT 12SM OVC048 RMK SC8

CYQG;2013-06-10 06:00;CYQG 100600Z 06008KT 10SM OVC043 16/15 A2994 RMK SC8 SLP137

CYQG;2013-06-10 07:00;CYQG 100700Z 06005KT 15SM OVC078 17/14 A2993 RMK AC8 SLP133

CYQG;2013-06-10 08:03;CYQG 100803Z 06004KT 15SM -RA OVC052 RMK SC8

CYQG;2013-06-10 09:00;CYQG 100900Z 02004KT 12SM -RA OVC048 17/15 A2989 RMK SC8 SLP120

CYQG;2013-06-10 10:00;CYQG 101000Z 04006KT 7SM -RA BKN048 OVC110 17/15 A2988 RMK SC7AC1 -RA INTMT SLP117

CYQG;2013-06-10 11:00;CYQG 101100Z 05005KT 5SM -RA BR OVC080 17/16 A2987 RMK AC8 -RA INTMT SLP113

CYQG;2013-06-10 12:00;CYQG 101200Z 04004KT 6SM -RA BR BKN030 OVC090 17/16 A2986 RMK SC6AC2 SLP111

CYQG;2013-06-10 13:00;CYQG 101300Z 09004KT 4SM -RA BR OVC022 18/17 A2985 RMK SC8 SLP107

CYQG;2013-06-10 13:28;CYQG 101328Z 09004KT 3SM -RA BR SCT009 OVC014 RMK SF3SC5

CYQG;2013-06-10 13:42;CYQG 101342Z 12003KT 3SM -RA BR BKN008 OVC014 RMK SF6SC2

CYQG;2013-06-10 14:00;CYQG 101400Z 15006KT 2 1/2SM -RA BR BKN005 OVC013 19/18 A2984 RMK FG1SF6SC2 SLP103

CYQG;2013-06-10 14:36;CYQG 101436Z 15008KT 3SM -RA BR BKN006 OVC019 RMK SF5SC3

CYQG;2013-06-10 15:00;CYQG 101500Z 16007KT 4SM -RA BR BKN006 OVC020 19/18 A2983 RMK SF6SC2 SLP099

CYQG;2013-06-10 15:49;CYQG 101549Z 14007KT 4SM -RA BR BKN004 OVC024 RMK SF6SC2

CYQG;2013-06-10 16:00;CYQG 101600Z 13007KT 4SM -RA BR BKN005 OVC020 19/18 A2982 RMK SF6SC2 SLP097

CYQG;2013-06-10 17:00;CYQG 101700Z 12004KT 6SM -RA BR BKN004 OVC020 20/19 A2980 RMK SF6SC2 SLP089

CYQG;2013-06-10 17:36;CYQG 101736Z 16002KT 7SM -RA BKN008 OVC012 RMK SF6SC2

CYQG;2013-06-10 17:51;CYQG 101751Z 17002KT 7SM -RA SCT008 OVC022 RMK SF4SC4

CYQG;2013-06-10 18:00;CYQG 101800Z 12002KT 12SM -RA SCT008 BKN022 20/19 A2979 RMK SF3SC4 SLP087

CYQG;2013-06-10 19:00;CYQG 101900Z 00000KT 15SM -RA SCT006 OVC028 21/19 A2977 RMK SF4SC4 SLP081

CYQG;2013-06-10 19:45;CYQG 101945Z 36004KT 6SM RA BR BKN005 OVC021 RMK SF6SC2

CYQG;2013-06-10 20:00;CYQG 102000Z 31012KT 5SM RA BR BKN004 OVC024 19/18 A2977 RMK SF5SC3 SLP082

CYQG;2013-06-10 20:08;CYQG 102008Z 33007KT 5SM -RA BR SCT004 OVC030 RERA RMK SF3SC5

CYQG;2013-06-10 21:00;CYQG 102100Z 00000KT 5SM -RA BR FEW005 OVC035 19/18 A2977 RERA RMK SF2SC6 SLP081

CYQG;2013-06-10 22:00;CYQG 102200Z 00000KT 6SM -RA BR FEW006 BKN040 OVC090 19/18 A2975 RMK SF2SC5AS2 SLP075

CYQG;2013-06-10 23:00;CYQG 102300Z 29003KT 8SM -RA FEW006 SCT040 BKN100 19/18 A2975 RMK SF1SC3AC3 SLP073

CYQG;2013-06-11 00:00;CYQG 110000Z 20002KT 8SM -RA FEW007 BKN050 BKN120 19/18 A2976 RMK SF2SC4AC2 SLP077

CYQG;2013-06-11 01:00;CYQG 110100Z 00000KT 7SM -RA FEW005 SCT050 BKN110 19/18 A2977 RMK SF2SC2AC3 SLP078

CYQG;2013-06-11 02:00;CYQG 110200Z 21004KT 6SM -RA BR FEW006 BKN055 OVC120 19/18 A2976 RMK SF2SC4AS2 SLP077

CYQG;2013-06-11 02:46;CYQG 110246Z 28003KT 7SM SCT018 OVC120 RMK SC3AS5

CYQG;2013-06-11 03:00;CYQG 110300Z 29002KT 8SM FEW020 FEW075 OVC110 18/17 A2976 RMK SC2AC1AS6 SLP077

CYQG;2013-06-11 04:00;CYQG 110400Z 24002KT 7SM SCT100 18/17 A2977 RMK AC3 SLP078

CYQG;2013-06-11 05:00;CYQG 110500Z 24004KT 5SM BR SCT045 18/17 A2978 RMK SC4 SLP082

CYQG;2013-06-11 06:00;CYQG 110600Z 27003KT 4SM BR SCT023 18/17 A2978 RMK SC4 SLP084

CYQG;2013-06-11 06:45;CYQG 110645Z 29003KT 2 1/2SM BR FEW090 RMK AC1

CYQG;2013-06-11 07:00;CYQG 110700Z 29002KT 2SM BR FEW090 17/17 A2978 RMK AC1 SLP084

CYQG;2013-06-11 08:00;CYQG 110800Z 32005KT 6SM BR OVC013 18/17 A2980 RMK SC8 SLP088

CYQG;2013-06-11 09:00;CYQG 110900Z 33007KT 8SM BKN012 19/17 A2980 RMK SC7 SLP090

CYQG;2013-06-11 10:00;CYQG 111000Z 29006KT 7SM BKN013 18/17 A2983 RMK SC7 SLP100

CYQG;2013-06-11 11:00;CYQG 111100Z 29007KT 8SM FEW005 SCT012 BKN057 18/17 A2985 RMK CF1CF3SC2 SLP106

CYQG;2013-06-11 12:00;CYQG 111200Z 32006KT 7SM SCT010 BKN047 19/17 A2986 RMK CU3SC4 VIS 5 N SLP112

CYQG;2013-06-11 13:00;CYQG 111300Z 30008KT 8SM FEW015 OVC028 19/17 A2988 RMK CF2SC6 SLP118

CYQG;2013-06-11 14:00;CYQG 111400Z 29007KT 8SM BKN025 BKN280 20/17 A2988 RMK CU6CI0 SLP118

CYQG;2013-06-11 15:00;CYQG 111500Z 32008KT 10SM BKN032 22/18 A2987 RMK CU7 SLP115

CYQG;2013-06-11 16:00;CYQG 111600Z 31010KT 12SM BKN040 24/18 A2988 RMK CU6 SLP118

CYQG;2013-06-11 17:00;CYQG 111700Z 31011G16KT 15SM BKN038 25/16 A2989 RMK CU6 SLP119

CYQG;2013-06-11 18:00;CYQG 111800Z 32011KT 15SM FEW038 BKN280 26/17 A2988 RMK CU2CI3 SLP116

CYQG;2013-06-11 19:00;CYQG 111900Z 28009KT 15SM FEW040 BKN280 25/17 A2986 RMK CU1CI5 TR CU SLP111

CYQG;2013-06-11 20:00;CYQG 112000Z 25008KT 15SM FEW043 BKN280 27/17 A2985 RMK CU1CI1 SLP106

CYQG;2013-06-11 21:00;CYQG 112100Z 28006KT 15SM FEW047 FEW120 BKN290 28/17 A2984 RMK CU1AC1CI2 SLP102

CYQG;2013-06-11 22:00;CYQG 112200Z 28009KT 15SM FEW053 FEW100 BKN290 27/16 A2984 RMK CU2AC1CI3 SLP103

CYQG;2013-06-11 23:00;CYQG 112300Z 28008KT 15SM FEW051 BKN160 BKN280 27/17 A2983 RMK SC2AC5CI1 SLP098

CYQG;2013-06-12 00:00;CYQG 120000Z 28006KT 15SM FEW047 OVC130 26/17 A2984 RMK SC2AC6 SLP102

CYQG;2013-06-12 01:00;CYQG 120100Z 08005KT 15SM BKN049 OVC130 26/17 A2984 RMK SC6AC2 SLP102

CYQG;2013-06-12 02:00;CYQG 120200Z 07006KT 15SM BKN044 BKN130 23/18 A2985 RMK SC5AC2 SLP106

CYQG;2013-06-12 03:00;CYQG 120300Z 07003KT 15SM SCT046 SCT130 BKN280 22/18 A2986 RMK SC3AC1CI2 SLP111

CYQG;2013-06-12 04:00;CYQG 120400Z 22002KT 15SM SKC 21/18 A2986 RMK SLP109

CYQG;2013-06-12 05:00;CYQG 120500Z 27004KT 15SM SKC 22/17 A2986 RMK SLP110

CYQG;2013-06-12 06:00;CYQG 120600Z 31005KT 15SM SKC 22/17 A2986 RMK SLP109

CYQG;2013-06-12 07:00;CYQG 120700Z 32005KT 15SM SKC 21/16 A2985 RMK SLP106

CYQG;2013-06-12 08:00;CYQG 120800Z 32003KT 15SM SKC 19/16 A2986 RMK SLP107

CYQG;2013-06-12 09:00;CYQG 120900Z 34003KT 15SM FEW100 19/16 A2987 RMK AC1 SLP113

CYQG;2013-06-12 10:00;CYQG 121000Z 31002KT 12SM SCT280 18/16 A2990 RMK CI3 CC ASOCTD SLP121

CYQG;2013-06-12 11:00;CYQG 121100Z 09002KT 8SM BKN280 19/16 A2990 RMK CI4 CC ASOCTD SLP121

CYQG;2013-06-12 12:00;CYQG 121200Z 24002KT 10SM SCT280 20/17 A2991 RMK CI2 SLP125

CYQG;2013-06-12 13:00;CYQG 121300Z 05003KT 10SM BKN280 22/18 A2989 RMK CI3 SLP121

CYQG;2013-06-12 14:00;CYQG 121400Z 00000KT 6SM HZ FEW160 OVC260 21/18 A2992 RMK AC2CS6 SLP129

CYQG;2013-06-12 15:00;CYQG 121500Z 13003KT 6SM HZ SCT140 OVC260 22/19 A2990 RMK AC3CS5 SUN DIMLY VISBL SLP123

CYQG;2013-06-12 16:00;CYQG 121600Z 23005KT 6SM HZ BKN140 OVC260 23/19 A2994 RMK AC6CS2 SLP137

CYQG;2013-06-12 17:00;CYQG 121700Z 10004KT 6SM HZ FEW030 BKN130 OVC260 23/19 A2986 RMK CU2AC5CI2 SLP110

CYQG;2013-06-12 18:00;CYQG 121800Z 18009KT 6SM HZ BKN015 OVC130 23/19 A2984 RMK CU6AC2 SLP102

CYQG;2013-06-12 18:43;CYQG 121843Z 16004KT 6SM -SHRA HZ FEW020 BKN130 OVC260 RMK CU2AC5CS2

CYQG;2013-06-12 19:00;CYQG 121900Z 18004KT 6SM -SHRA HZ FEW020 BKN130 OVC260 22/18 A2986 RMK CU2AC5CS2 SLP110

CYQG;2013-06-12 19:40;CYQG 121940Z 22002KT 6SM HZ FEW020 BKN180 OVC260 RMK CU1AC6CS2

CYQG;2013-06-12 20:00;CYQG 122000Z 18002KT 6SM HZ FEW030 BKN180 OVC260 23/18 A2986 RMK CU2AC5CS2 SLP107

CYQG;2013-06-12 20:14;CYQG 122014Z 17005KT 6SM -SHRA HZ FEW032 BKN160 OVC260 RMK CU2AC4CS2

CYQG;2013-06-12 21:00;CYQG 122100Z 00000KT 5SM HZ FEW032 BKN130 OVC180 23/18 A2984 RMK CU2AC4AC2 OCNL -SHRA SLP102

CYQG;2013-06-12 21:35;CYQG 122135Z 09002KT 5SM HZ BKN110 OVC180 RMK AC5AC3

CYQG;2013-06-12 22:04;CYQG 122204Z 10002KT 5SM -SHRA HZ BKN100 OVC180 RMK AC6AC2

CYQG;2013-06-12 22:30;CYQG 122230Z 11004KT 3SM SHRA BR OVC100 RMK AC8

CYQG;2013-06-12 23:00;CYQG 122300Z 12006KT 4SM -SHRA BR BKN110 OVC180 21/20 A2981 RERA RMK AC7AC1 PRESFR SLP093

CYQG;2013-06-13 00:00;CYQG 130000Z 05010KT 4SM -SHRA BR BKN100 BKN140 BKN260 20/19 A2978 RMK AC5AC2CS1 SLP083

CYQG;2013-06-13 00:21;CYQG 130021Z 13005KT 4SM BR VCSH FEW100 BKN140 BKN260 RMK AC2AC3CS2

CYQG;2013-06-13 00:50;CYQG 130050Z 08006KT 4SM TS BR BKN060CB BKN100 OVC260 RMK CB5AC2CS1

CYQG;2013-06-13 01:00;CYQG 130100Z 09003KT 3SM -TSRA BR BKN060CB OVC100 20/19 A2977 RMK CB6AC2 CB SW-W MOVG E SLP078

CYQG;2013-06-13 01:28;CYQG 130128Z 11003KT 4SM BR BKN052 BKN060CB OVC140 RMK CU5CB1AC2 OCNL -SHRA

CYQG;2013-06-13 02:00;CYQG 130200Z 10006KT 4SM BR BKN082 OVC180 19/18 A2975 RMK AC6AC2 DIST LTGIC E SLP073

CYQG;2013-06-13 02:22;CYQG 130222Z 10006KT 5SM BR FEW060 BKN170 RMK CU2AC5

CYQG;2013-06-13 03:00;CYQG 130300Z 10008KT 5SM BR BKN052 BKN170 18/17 A2970 RMK CU5AC2 PRESFR SLP056

CYQG;2013-06-13 03:57;CYQG 130357Z 09002KT 6SM -TSRA BR OVC046CB RMK CB8

CYQG;2013-06-13 04:00;CYQG 130400Z 00000KT 6SM -TSRA BR OVC046CB 18/16 A2967 RMK CB8 SLP047

CYQG;2013-06-13 04:29;CYQG 130429Z 13002KT 1 1/2SM +TSRA BR OVC027CB RMK CB8

CYQG;2013-06-13 04:35;CYQG 130435Z 04005KT 3SM -TSRA BR OVC020CB RERA RMK CB8 LTGICCCCG

CYQG;2013-06-13 05:00;CYQG 130500Z 03009KT 6SM -TSRA BR OVC060CB 18/17 A2964 RERA RMK CB8 LTGICCCCG SLP034

CYQG;2013-06-13 06:00;CYQG 130600Z 04010G15KT 3SM -TSRA BR OVC020 18/17 A2961 RMK SC8 CB EMBD SLP023

CYQG;2013-06-13 06:15;CYQG 130615Z 05010KT 1 1/2SM TSRA BR OVC005 RMK SC8 CB EMBD

CYQG;2013-06-13 06:31;CYQG 130631Z 35005KT 3SM -TSRA BR OVC004 RERA RMK SC8 CB EMBD

CYQG;2013-06-13 06:55;CYQG 130655Z 35009KT 3SM -SHRA BR OVC010 RETS RMK SC8

CYQG;2013-06-13 07:00;CYQG 130700Z 36008KT 3SM -SHRA BR OVC010 17/17 A2959 RETS RMK SC8 SLP017

CYQG;2013-06-13 07:23;CYQG 130723Z 02009KT 1 1/2SM SHRA BR OVC010 RETS RMK SC8

CYQG;2013-06-13 08:00;CYQG 130800Z 03013G30KT 3SM -SHRA BR OVC071CB 17/16 A2955 RERA RMK CB8 SLP003

CYQG;2013-06-13 08:49;CYQG 130849Z 03013G19KT 5SM -SHRA BR FEW018 OVC072 RERA RMK CF1AC8

CYQG;2013-06-13 10:00;CYQG 131000Z 36010KT 3SM -SHRA BR FEW009 OVC110 17/16 A2960 RMK CF1AC7 SLP023

CYQG;2013-06-13 10:09;CYQG 131009Z 36009KT 3SM -SHRA BR BKN007 OVC018 RMK CF6SC2

CYQG;2013-06-13 11:00;CYQG 131100Z 36011KT 5SM -SHRA BR BKN007 OVC021 18/16 A2963 RMK CF6SC2 SLP033

CYQG;2013-06-13 11:17;CYQG 131117Z 36010G15KT 7SM -RA SCT007 OVC036 RMK SF3SC5

CYQG;2013-06-13 12:00;CYQG 131200Z 35009KT 7SM -RA FEW007 OVC047 17/15 A2967 RMK SF2SC6 /47/ SLP044

CYQG;2013-06-13 13:00;CYQG 131300Z 36010KT 15SM BKN059 17/15 A2969 RMK SC7 SLP052

CYQG;2013-06-13 14:00;CYQG 131400Z 34009KT 15SM FEW060 BKN085 BKN270 18/14 A2971 RMK SC2AC4CI2 SLP059

CYQG;2013-06-13 15:00;CYQG 131500Z 02012G17KT 15SM FEW020 FEW090 SCT180 BKN270 20/14 A2971 RMK CF1AC1AC2CI2 TR CF SLP060

CYQG;2013-06-13 16:00;CYQG 131600Z 01011KT 15SM FEW020 BKN280 21/14 A2975 RMK CF1CI2 SLP072

CYQG;2013-06-13 17:00;CYQG 131700Z 33012G17KT 15SM FEW025 BKN280 23/14 A2975 RMK CU2CI2 SLP073

CYQG;2013-06-13 18:00;CYQG 131800Z 02014G19KT 15SM SCT061 BKN280 24/14 A2975 RMK CU4CI1 SLP073

CYQG;2013-06-13 19:00;CYQG 131900Z 01013KT 15SM BKN060 BKN280 25/14 A2978 RMK CU6CI1 SLP082

CYQG;2013-06-13 20:00;CYQG 132000Z 35013G20KT 15SM SCT048 24/13 A2980 RMK CU3 SLP087

CYQG;2013-06-13 21:00;CYQG 132100Z 36015G21KT 15SM FEW048 24/13 A2980 RMK CU2 SLP090

CYQG;2013-06-13 22:00;CYQG 132200Z 34014G22KT 15SM FEW050 24/12 A2982 RMK CU2 SLP095

CYQG;2013-06-13 23:00;CYQG 132300Z 02013G20KT 15SM FEW050 24/13 A2982 RMK CU2 SLP097

CYQG;2013-06-14 00:00;CYQG 140000Z 01015KT 15SM FEW052 23/11 A2985 RMK CU1 SLP107

CYQG;2013-06-14 01:00;CYQG 140100Z 01009G15KT 15SM FEW050 21/12 A2987 RMK CU1 SLP113

CYQG;2013-06-14 02:00;CYQG 140200Z 36007KT 15SM FEW045 21/11 A2989 RMK CU1 TR CU SLP118

CYQG;2013-06-14 03:00;CYQG 140300Z 01008KT 15SM FEW100 20/12 A2991 RMK AC1 TR AC SLP127

CYQG;2013-06-14 04:00;CYQG 140400Z 36008KT 15SM FEW100 19/12 A2992 RMK AC1 SLP129

CYQG;2013-06-14 05:00;CYQG 140500Z 35009KT 15SM FEW100 18/12 A2992 RMK AC1 SLP132

CYQG;2013-06-14 06:00;CYQG 140600Z 33009KT 15SM FEW100 18/12 A2994 RMK AC1 SLP136

CYQG;2013-06-14 07:00;CYQG 140700Z 36008KT 15SM FEW100 17/12 A2993 RMK AC1 SLP134

CYQG;2013-06-14 08:00;CYQG 140800Z 35008KT 15SM FEW120 16/13 A2994 RMK AC1 SLP136

CYQG;2013-06-14 09:00;CYQG 140900Z 35007KT 15SM FEW120 16/12 A2994 RMK AC1 SLP137

CYQG;2013-06-14 10:00;CYQG 141000Z 36007KT 15SM SKC 16/12 A2996 RMK SLP143

CYQG;2013-06-14 11:00;CYQG 141100Z 36009KT 15SM SKC 16/12 A2998 RMK SLP152

CYQG;2013-06-14 12:00;CYQG 141200Z 01007KT 15SM SKC 16/11 A3001 RMK SLP160

CYQG;2013-06-14 13:00;CYQG 141300Z 01009KT 15SM SKC 17/12 A3004 RMK SLP171

CYQG;2013-06-14 14:00;CYQG 141400Z 34009KT 15SM FEW030 18/12 A3004 RMK CF1 SLP173

CYQG;2013-06-14 15:00;CYQG 141500Z 34009KT 15SM FEW030 19/12 A3006 RMK CF1 SLP178

CYQG;2013-06-14 16:00;CYQG 141600Z 34012KT 15SM FEW035 21/12 A3006 RMK CF1 SLP179

CYQG;2013-06-14 17:00;CYQG 141700Z 01008KT 15SM FEW035 21/12 A3007 RMK CF1 SLP180

CYQG;2013-06-14 18:00;CYQG 141800Z 04007KT 15SM FEW035 22/12 A3006 RMK CF1 SLP178

CYQG;2013-06-14 19:00;CYQG 141900Z CCA 05010KT 15SM FEW040 23/13 A3005 RMK CU1 SLP175

CYQG;2013-06-14 20:00;CYQG 142000Z 06010KT 15SM FEW040 FEW290 22/13 A3005 RMK CU1CI1 TR CI SLP174

CYQG;2013-06-14 21:00;CYQG 142100Z 05010KT 12SM FEW040 FEW290 22/12 A3004 RMK CU1CI0 SLP171

CYQG;2013-06-14 22:00;CYQG 142200Z 08009KT 12SM FEW040 FEW290 23/12 A3004 RMK CU1CI0 SLP172

CYQG;2013-06-14 23:00;CYQG 142300Z 07007KT 15SM FEW061 FEW290 22/12 A3005 RMK CU2CI0 SLP174

CYQG;2013-06-15 00:00;CYQG 150000Z 08006KT 15SM FEW060 20/13 A3005 RMK CU1 SLP177

CYQG;2013-06-15 01:00;CYQG 150100Z 09004KT 15SM FEW055 FEW280 19/13 A3005 RMK CU1CI1 TR CU TR CI SLP175

CYQG;2013-06-15 02:00;CYQG 150200Z 07004KT 15SM FEW280 18/13 A3007 RMK CI1 TR CI SLP182

CYQG;2013-06-15 03:00;CYQG 150300Z 08002KT 15SM SKC 17/12 A3009 RMK SLP188

CYQG;2013-06-15 04:00;CYQG 150400Z 18002KT 15SM SKC 15/12 A3008 RMK SLP185

CYQG;2013-06-15 05:00;CYQG 150500Z 14002KT 15SM SKC 15/12 A3006 RMK SLP179

CYQG;2013-06-15 06:00;CYQG 150600Z 11004KT 15SM SKC 14/12 A3004 RMK SLP173

CYQG;2013-06-15 07:00;CYQG 150700Z 00000KT 15SM SKC 14/12 A3005 RMK SLP177

CYQG;2013-06-15 08:00;CYQG 150800Z 00000KT 15SM SKC 14/11 A3006 RMK SLP180

CYQG;2013-06-15 09:00;CYQG 150900Z 00000KT 15SM FEW260 13/11 A3007 RMK CI1 SLP181

CYQG;2013-06-15 10:00;CYQG 151000Z 00000KT 15SM FEW100 BKN260 13/11 A3007 RMK AC1CI2 SLP182

CYQG;2013-06-15 11:00;CYQG 151100Z 00000KT 10SM SCT190 BKN260 15/13 A3009 RMK AC4CI2 SLP189

CYQG;2013-06-15 12:00;CYQG 151200Z 27002KT 15SM BKN140 BKN260 18/14 A3010 RMK AC6CI1 SLP191

CYQG;2013-06-15 13:00;CYQG 151300Z 25010KT 15SM SCT063 BKN150 19/14 A3010 RMK SC3AC4 SLP192

CYQG;2013-06-15 14:00;CYQG 151400Z 24008KT 15SM FEW063 BKN150 BKN270 22/15 A3008 RMK SC1AC4CI1 SLP186

CYQG;2013-06-15 15:00;CYQG 151500Z 23008KT 15SM FEW150 BKN280 23/15 A3006 RMK AC2CI3 SLP177

CYQG;2013-06-15 16:00;CYQG 151600Z 24007KT 15SM FEW035 FEW160 OVC280 24/16 A3004 RMK CF1AC1CI3 SLP173

CYQG;2013-06-15 17:00;CYQG 151700Z 20008KT 15SM FEW035 FEW150 BKN280 24/16 A3002 RMK CU2AC1CI3 SLP164

CYQG;2013-06-15 18:00;CYQG 151800Z 23009KT 15SM FEW042 SCT120 BKN280 25/15 A3001 RMK CU2AC1CI3 SLP163

CYQG;2013-06-15 19:00;CYQG 151900Z 19009KT 15SM FEW042 BKN140 24/16 A3001 RMK CU2AC5 SLP161

CYQG;2013-06-15 20:00;CYQG 152000Z 22013G18KT 12SM FEW060 BKN150 25/14 A3001 RMK CU2AC6 SLP163

CYQG;2013-06-15 21:00;CYQG 152100Z 21011G17KT 15SM FEW055 BKN150 BKN250 25/15 A3000 RMK CU1AC4CS2 SLP159

CYQG;2013-06-15 21:34;CYQG 152134Z 23010KT 12SM -SHRA FEW055 BKN150 OVC250 RMK CU2AC5CS2

CYQG;2013-06-15 22:00;CYQG 152200Z 21010KT 12SM -SHRA FEW055 SCT098 OVC150 24/16 A2999 RMK CU2AC2AC5 SLP156

CYQG;2013-06-15 23:00;CYQG 152300Z 23015KT 10SM -SHRA SCT076 OVC150 22/16 A2999 RMK AC3AC5 SLP154

CYQG;2013-06-15 23:25;CYQG 152325Z 24011KT 10SM FEW045 BKN072 BKN150 OVC280 RMK CU1AC5AC2CI0 CONTRAILS

CYQG;2013-06-16 00:00;CYQG 160000Z 23009KT 12SM FEW072 BKN140 BKN250 22/14 A2997 RMK AC2AC2CS1 SLP148

CYQG;2013-06-16 01:00;CYQG 160100Z 24005KT 12SM FEW072 SCT120 BKN240 22/15 A2996 RMK AC1AC3CS1 CONTRAILS SLP144

CYQG;2013-06-16 02:00;CYQG 160200Z 23004KT 15SM SCT075 BKN130 BKN250 21/16 A2997 RMK AC3AC2CS1 SLP147

CYQG;2013-06-16 03:00;CYQG 160300Z 19006KT 15SM SCT100 BKN250 20/16 A2997 RMK AC3CI2 SLP146

CYQG;2013-06-16 04:00;CYQG 160400Z 16006KT 15SM FEW097 SCT140 BKN250 20/16 A2993 RMK AC1AC3CI2 SLP135

CYQG;2013-06-16 05:00;CYQG 160500Z 20005KT 15SM SCT140 BKN250 19/17 A2992 RMK AC4CI2 SLP129

CYQG;2013-06-16 06:00;CYQG 160600Z 20004KT 12SM BKN059 BKN120 BKN250 19/17 A2989 RMK SC5AC2CI1 SLP120

CYQG;2013-06-16 07:00;CYQG 160700Z 19007KT 12SM SCT060 BKN130 BKN250 19/17 A2985 RMK SC4AC2CI1 SLP107

CYQG;2013-06-16 07:49;CYQG 160749Z 21008KT 12SM -SHRA SCT060 BKN130 OVC220 RMK SC4AC3CI1

CYQG;2013-06-16 08:00;CYQG 160800Z 21008KT 12SM -SHRA SCT060 OVC120 20/17 A2985 RMK SC4AC4 SLP107

CYQG;2013-06-16 09:00;CYQG 160900Z 22011KT 4SM TSRA BR SCT021 OVC049CB 20/17 A2984 RMK SC4CB4 LTGCG SLP102

CYQG;2013-06-16 09:24;CYQG 160924Z 22010KT 4SM BR BKN011 OVC026 RETSRA RMK SF5SC3 OCNL -SHRA

CYQG;2013-06-16 10:00;CYQG 161000Z 23015KT 4SM BR FEW011 BKN040 BKN220 19/18 A2980 RETSRA RMK SF2SC3CI1 SLP087

CYQG;2013-06-16 11:00;CYQG 161100Z 24011KT 5SM BR SCT011 BKN040 BKN180 19/18 A2979 RMK SF3SC3AC1 SLP086

CYQG;2013-06-16 12:00;CYQG 161200Z 26012KT 12SM BKN017 BKN150 20/18 A2980 RMK SC6AC2 SLP090

CYQG;2013-06-16 13:00;CYQG 161300Z 28015G20KT 15SM OVC017 21/18 A2982 RMK SC8 SLP097

CYQG;2013-06-16 14:00;CYQG 161400Z 29015KT 15SM BKN019 BKN032 21/17 A2984 RMK SC6SC1 SLP102

CYQG;2013-06-16 15:00;CYQG 161500Z 29011G17KT 15SM BKN020 22/17 A2985 RMK SC7 SLP106

CYQG;2013-06-16 16:00;CYQG 161600Z 28010G19KT 15SM BKN026 BKN280 23/17 A2985 RMK CU5CI1 SLP105

CYQG;2013-06-16 17:00;CYQG 161700Z 30010KT 15SM BKN031 BKN290 25/17 A2986 RMK CU5CI1 SLP108

CYQG;2013-06-16 18:00;CYQG 161800Z 28009KT 15SM BKN034 BKN290 25/17 A2986 RMK CU5CI1 SLP110

CYQG;2013-06-16 19:00;CYQG 161900Z 25011KT 15SM FEW037 FEW290 27/18 A2986 RMK CU2CI1 SLP108

CYQG;2013-06-16 20:00;CYQG 162000Z 25011KT 15SM SCT044 BKN290 27/17 A2985 RMK CU3CI0 SLP107

CYQG;2013-06-16 21:00;CYQG 162100Z 29010G15KT 15SM SCT048 BKN290 27/17 A2986 RMK CU3CI1 SLP107

CYQG;2013-06-16 22:00;CYQG 162200Z 25012KT 15SM SCT048 BKN290 28/18 A2984 RMK CU3CI1 CONTRAILS SLP103

CYQG;2013-06-16 23:00;CYQG 162300Z 27012G17KT 15SM FEW048 SCT290 27/17 A2984 RMK CU2CI1 CONTRAILS SLP101

CYQG;2013-06-17 00:00;CYQG 170000Z 30016G21KT 15SM FEW055 FEW290 27/15 A2985 RMK CU1CI1 SLP106

CYQG;2013-06-17 01:00;CYQG 170100Z 29011G16KT 15SM FEW055 FEW290 26/10 A2987 RMK CU1CI0 TCU ASOCTD SLP112

CYQG;2013-06-17 02:00;CYQG 170200Z 29008KT 15SM FEW050 FEW280 24/11 A2988 RMK CU1CI1 TR CU TR CI SLP115

CYQG;2013-06-17 03:00;CYQG 170300Z 28006KT 15SM SKC 23/11 A2989 RMK SLP120

CYQG;2013-06-17 04:00;CYQG 170400Z 25004KT 15SM SKC 21/11 A2990 RMK SLP123

CYQG;2013-06-17 05:00;CYQG 170500Z 25006KT 15SM SKC 21/11 A2990 RMK SLP123

CYQG;2013-06-17 06:00;CYQG 170600Z 25007KT 15SM SKC 20/12 A2991 RMK SLP125

CYQG;2013-06-17 07:00;CYQG 170700Z 25006KT 15SM SKC 19/12 A2989 RMK SLP121

CYQG;2013-06-17 08:00;CYQG 170800Z 25006KT 15SM SKC 19/12 A2989 RMK SLP120

CYQG;2013-06-17 09:00;CYQG 170900Z 24006KT 15SM FEW100 18/13 A2989 RMK AC1 SLP120

CYQG;2013-06-17 10:00;CYQG 171000Z 25006KT 15SM FEW160 FEW250 18/13 A2991 RMK AC2CI1 SLP126

CYQG;2013-06-17 11:00;CYQG 171100Z 27005KT 15SM FEW160 FEW250 19/13 A2993 RMK AC1CI1 SLP132

CYQG;2013-06-17 12:00;CYQG 171200Z 27006KT 15SM SKC 21/14 A2993 RMK SLP131

CYQG;2013-06-17 13:00;CYQG 171300Z 20004KT 15SM FEW150 23/14 A2992 RMK AC1 SLP130

CYQG;2013-06-17 14:00;CYQG 171400Z 26006KT 15SM FEW120 FEW290 24/15 A2993 RMK ACC1CI1 SLP132

CYQG;2013-06-17 15:00;CYQG 171500Z 31009KT 15SM FEW050 FEW110 FEW290 26/17 A2993 RMK CU1ACC1CI1 SLP131

CYQG;2013-06-17 16:00;CYQG 171600Z 24003KT 15SM FEW045 FEW290 26/16 A2993 RMK CU2CI1 SLP131

CYQG;2013-06-17 17:00;CYQG 171700Z 08007KT 15SM BKN053 BKN300 26/17 A2992 RMK CU5CI1 TCU ASOCTD SLP130

CYQG;2013-06-17 18:00;CYQG 171800Z 09007KT 15SM SCT063TCU SCT300 27/17 A2991 RMK TCU3CI1 SLP126

CYQG;2013-06-17 19:00;CYQG 171900Z 08007KT 15SM FEW075 BKN300 27/16 A2990 RMK CU2CI2 CONTRAILS TCU ASOCTD SLP122

CYQG;2013-06-17 20:00;CYQG 172000Z 08004KT 15SM SCT075 BKN320 27/16 A2989 RMK CU3CI2 CONTRAILS CB TPS DIST S SLP119

CYQG;2013-06-17 21:00;CYQG 172100Z 13006KT 15SM BKN075CB BKN320 28/16 A2986 RMK CB5CI2 CONTRAILS SLP110

CYQG;2013-06-17 22:00;CYQG 172200Z 05009G17KT 15SM BKN079TCU BKN320 27/19 A2986 RMK TCU5CI2 CB TOPS DIST N AND E SLP110

CYQG;2013-06-17 23:00;CYQG 172300Z 09011G16KT 15SM SCT080 BKN300 22/16 A2988 RMK CU3CI3 TCU TOPS DIST E SLP115

CYQG;2013-06-18 00:00;CYQG 180000Z 11009KT 15SM FEW090 BKN130 BKN300 22/16 A2986 RMK CU2AC3CI2 TCU ASOCTD SLP111

CYQG;2013-06-18 01:00;CYQG 180100Z 04015G22KT 15SM -SHRA SCT075 BKN130 BKN300 20/16 A2991 RMK CU3AC2CI2 CB TOPS DIST E SLP126

CYQG;2013-06-18 01:37;CYQG 180137Z 05012KT 15SM FEW080 BKN130 BKN280 RMK CU2AC3CI1 LTGIC DIST E

CYQG;2013-06-18 02:00;CYQG 180200Z 09009G15KT 15SM FEW080 BKN120 BKN280 18/15 A2990 RMK CU2AC2CI2 SLP123

CYQG;2013-06-18 03:00;CYQG 180300Z 11004KT 15SM FEW120 OVC280 18/14 A2992 RMK AC2CI5 SLP128

CYQG;2013-06-18 04:00;CYQG 180400Z 04007KT 15SM FEW100 BKN280 17/14 A2993 RMK AC2CI2 SLP132

CYQG;2013-06-18 05:00;CYQG 180500Z 06007KT 15SM SCT086 BKN140 17/15 A2992 RMK AC4AC3 SLP129

CYQG;2013-06-18 05:34;CYQG 180534Z 36012KT 6SM -TSRA BR BKN034CB OVC091 RMK CB6AC2

CYQG;2013-06-18 06:00;CYQG 180600Z 36012G17KT 8SM -TSRA SCT031CB OVC098 16/14 A2992 RMK CB3AC5 LTGICCG SLP131

CYQG;2013-06-18 06:21;CYQG 180621Z 09006KT 12SM -SHRA FEW030 SCT100 BKN180 RETS RMK SC2AC2AC4 LTGIC E

CYQG;2013-06-18 06:51;CYQG 180651Z 04005KT 12SM BKN110 BKN260 RMK AC5CI2

CYQG;2013-06-18 07:00;CYQG 180700Z CCA 04005KT 12SM SCT110 BKN260 16/15 A2991 RETS RMK AC3CI2 SLP127

CYQG;2013-06-18 08:00;CYQG 180800Z 03009KT 12SM FEW010 BKN150 15/14 A2992 RMK SF2AC4 SLP130

CYQG;2013-06-18 09:00;CYQG 180900Z 01006KT 12SM FEW012 BKN130 15/13 A2993 RMK SF1AC5 SLP132

CYQG;2013-06-18 10:00;CYQG 181000Z 02009KT 15SM SCT010 BKN130 14/13 A2993 RMK SF2AC3 SLP134

CYQG;2013-06-18 11:00;CYQG 181100Z 01011KT 15SM FEW010 FEW130 BKN260 14/12 A2995 RMK SF1AC1CI1 SLP140

CYQG;2013-06-18 12:00;CYQG 181200Z 02013KT 15SM FEW020 FEW280 15/12 A2997 RMK CU1CI1 TR CU SLP148

CYQG;2013-06-18 13:00;CYQG 181300Z 04011KT 15SM FEW014 FEW280 17/13 A2999 RMK CU1CI1 TR CU SLP154

CYQG;2013-06-18 14:00;CYQG 181400Z 03012G17KT 15SM FEW020 FEW090 FEW280 18/13 A3000 RMK CU1AC2CI1 TR CU TR CI SLP157

CYQG;2013-06-18 15:00;CYQG 181500Z 04013G18KT 15SM FEW052 FEW280 19/13 A3000 RMK SC1CI1 SLP158

CYQG;2013-06-18 16:00;CYQG 181600Z 03014KT 15SM FEW052 FEW090 20/13 A3000 RMK SC1AC1 TR AC SLP159

CYQG;2013-06-18 17:00;CYQG 181700Z 04016KT 15SM FEW057 FEW290 20/13 A3001 RMK SC2CI1 TR CI SLP160

CYQG;2013-06-18 18:00;CYQG 181800Z 05014G19KT 15SM SCT058 SCT290 20/13 A3001 RMK SC3CI1 SLP162

CYQG;2013-06-18 19:00;CYQG 181900Z 05016KT 15SM SCT059 SCT290 20/12 A3001 RMK SC4CI1 TR CI SLP162

CYQG;2013-06-18 20:00;CYQG 182000Z 03013G18KT 15SM BKN062 21/11 A3001 RMK SC6 SLP162

CYQG;2013-06-18 21:00;CYQG 182100Z 04015G21KT 15SM FEW064 BKN280 21/12 A3001 RMK SC2CI1 SLP161

CYQG;2013-06-18 22:00;CYQG 182200Z 05017KT 15SM SCT039 BKN070 BKN270 20/11 A3001 RMK SC3AC2CC1 SLP162

CYQG;2013-06-18 23:00;CYQG 182300Z 05014KT 15SM BKN045 19/10 A3002 RMK SC6 SLP164

CYQG;2013-06-19 00:00;CYQG 190000Z 05015KT 15SM BKN048 19/09 A3004 RMK SC6 SLP171

CYQG;2013-06-19 01:00;CYQG 190100Z 04012G17KT 15SM FEW050 FEW280 17/08 A3005 RMK SC2CI0 SLP175

CYQG;2013-06-19 02:00;CYQG 190200Z 02010G16KT 15SM FEW280 16/05 A3007 RMK CI1 SLP181

CYQG;2013-06-19 03:00;CYQG 190300Z 01007KT 15SM SKC 15/05 A3008 RMK SLP187

CYQG;2013-06-19 04:00;CYQG 190400Z 02006KT 15SM SKC 14/04 A3008 RMK SLP186

CYQG;2013-06-19 05:00;CYQG 190500Z 04011KT 15SM SKC 14/07 A3008 RMK SLP186

CYQG;2013-06-19 06:00;CYQG 190600Z 04010KT 15SM SKC 14/08 A3008 RMK SLP186

CYQG;2013-06-19 07:00;CYQG 190700Z 03009KT 15SM SKC 14/08 A3009 RMK SLP190

CYQG;2013-06-19 08:00;CYQG 190800Z 05008KT 15SM SKC 13/08 A3010 RMK SLP191

CYQG;2013-06-19 09:00;CYQG 190900Z 01002KT 15SM FEW100 FEW260 11/07 A3011 RMK AC1CI1 SLP195

CYQG;2013-06-19 10:00;CYQG 191000Z 05006KT 15SM FEW100 FEW260 11/08 A3012 RMK AC1CI1 SLP200

CYQG;2013-06-19 11:00;CYQG 191100Z 04006KT 15SM FEW260 12/09 A3014 RMK CI1 SLP208

CYQG;2013-06-19 12:00;CYQG 191200Z 05009KT 15SM SKC 15/08 A3016 RMK SLP214

CYQG;2013-06-19 13:00;CYQG 191300Z 06008KT 15SM SKC 16/09 A3017 RMK SLP218

CYQG;2013-06-19 14:00;CYQG 191400Z 05006KT 15SM SKC 17/10 A3018 RMK SLP220

CYQG;2013-06-19 15:00;CYQG 191500Z 10004KT 15SM SKC 18/10 A3017 RMK SLP217

CYQG;2013-06-19 16:00;CYQG 191600Z 04006KT 15SM FEW032 FEW280 19/11 A3018 RMK CU1CI1 TR CU TR CI SLP220

CYQG;2013-06-19 17:00;CYQG 191700Z 05006KT 15SM FEW040 FEW100 20/10 A3018 RMK CU1AC1 TR AC SLP220

CYQG;2013-06-19 18:00;CYQG 191800Z 09008KT 15SM FEW044 21/09 A3017 RMK SC1 SLP218

CYQG;2013-06-19 19:00;CYQG 191900Z 04004KT 15SM FEW048 FEW290 21/08 A3016 RMK CU1CI1 TR CI SLP212

CYQG;2013-06-19 20:00;CYQG 192000Z 07007KT 15SM FEW045 21/08 A3015 RMK CU2 SLP210

CYQG;2013-06-19 21:00;CYQG 192100Z 09004KT 15SM FEW045 21/09 A3014 RMK CU2 SLP207

CYQG;2013-06-19 22:00;CYQG 192200Z 12004KT 15SM FEW050 22/09 A3013 RMK SC2 SLP204

CYQG;2013-06-19 23:00;CYQG 192300Z 15005KT 15SM FEW050 20/11 A3013 RMK SC2 SLP203

CYQG;2013-06-20 00:00;CYQG 200000Z CCA 18007KT 15SM FEW050 FEW120 20/10 A3014 RMK SC1AC1 TR SC TR AC SLP208

CYQG;2013-06-20 01:00;CYQG 200100Z 19005KT 15SM FEW140 18/10 A3014 RMK AC1 SLP208

CYQG;2013-06-20 02:00;CYQG 200200Z 18004KT 15SM FEW140 17/09 A3016 RMK AC1 SLP214

CYQG;2013-06-20 03:00;CYQG 200300Z 18004KT 15SM SKC 16/10 A3018 RMK SLP220

CYQG;2013-06-20 04:00;CYQG 200400Z 16003KT 15SM SKC 15/10 A3018 RMK SLP221

CYQG;2013-06-20 05:00;CYQG 200500Z 12006KT 15SM SKC 15/10 A3018 RMK SLP219

CYQG;2013-06-20 06:00;CYQG 200600Z 13005KT 15SM SKC 14/11 A3018 RMK SLP219

CYQG;2013-06-20 07:00;CYQG 200700Z 13003KT 15SM SKC 14/10 A3018 RMK SLP220

CYQG;2013-06-20 08:00;CYQG 200800Z 11005KT 15SM SKC 14/10 A3017 RMK SLP218

CYQG;2013-06-20 09:00;CYQG 200900Z 11002KT 15SM SKC 13/10 A3018 RMK SLP220

CYQG;2013-06-20 10:00;CYQG 201000Z 24003KT 15SM FEW280 13/10 A3019 RMK CI1 SLP223

CYQG;2013-06-20 11:00;CYQG 201100Z 28002KT 15SM FEW280 14/11 A3020 RMK CI1 SLP228

CYQG;2013-06-20 12:00;CYQG 201200Z 00000KT 15SM FEW280 17/12 A3022 RMK CI1 CONTRAILS SLP233

CYQG;2013-06-20 13:00;CYQG 201300Z 17002KT 15SM FEW290 19/14 A3023 RMK CI1 SLP238

CYQG;2013-06-20 14:00;CYQG 201400Z 18007KT 15SM SCT290 21/13 A3023 RMK CI1 SLP236

CYQG;2013-06-20 15:00;CYQG 201500Z 18006KT 15SM FEW290 22/13 A3022 RMK CI1 SLP233

CYQG;2013-06-20 16:00;CYQG 201600Z 22006KT 15SM FEW044 FEW260 24/12 A3022 RMK CU1CS1 TR CU SLP232

CYQG;2013-06-20 17:00;CYQG 201700Z 19005KT 15SM FEW050 FEW300 24/11 A3022 RMK CU1CI1 SLP231

CYQG;2013-06-20 18:00;CYQG 201800Z 24008KT 15SM FEW052 FEW300 25/12 A3022 RMK CU1CI1 SLP231

CYQG;2013-06-20 19:00;CYQG 201900Z 00000KT 15SM FEW052 FEW300 25/12 A3020 RMK CU1CI1 SLP226

CYQG;2013-06-20 20:00;CYQG 202000Z 15008KT 15SM FEW050 BKN280 26/13 A3020 RMK CU2CI1 SLP225

CYQG;2013-06-20 21:00;CYQG 202100Z 16009KT 15SM FEW050 BKN280 25/12 A3019 RMK SC2CI1 SLP223

CYQG;2013-06-20 22:00;CYQG 202200Z 16010KT 15SM FEW065 BKN280 25/12 A3018 RMK SC2CI1 SLP220

CYQG;2013-06-20 23:00;CYQG 202300Z 15009KT 15SM FEW065 BKN280 24/12 A3017 RMK SC1CI2 TR SC SLP217

CYQG;2013-06-21 00:00;CYQG 210000Z 14007KT 15SM BKN280 23/12 A3018 RMK CI2 SLP219

CYQG;2013-06-21 01:00;CYQG 210100Z 16007KT 15SM FEW070 BKN280 21/11 A3019 RMK AC2CI2 SLP221

CYQG;2013-06-21 02:00;CYQG 210200Z 12003KT 15SM FEW070 BKN270 20/11 A3020 RMK AC1CI2 SLP225

CYQG;2013-06-21 03:00;CYQG 210300Z 09002KT 15SM SCT280 19/11 A3020 RMK CI2 SLP227

CYQG;2013-06-21 04:00;CYQG 210400Z 12002KT 15SM SKC 18/11 A3021 RMK SLP229

CYQG;2013-06-21 05:00;CYQG 210500Z 00000KT 15SM FEW280 17/11 A3022 RMK CI1 SLP233

CYQG;2013-06-21 06:00;CYQG 210600Z 00000KT 15SM FEW280 17/11 A3022 RMK CI1 SLP232

CYQG;2013-06-21 07:00;CYQG 210700Z 15003KT 15SM SKC 17/11 A3020 RMK SLP227

CYQG;2013-06-21 08:00;CYQG 210800Z 15004KT 15SM SKC 18/12 A3020 RMK SLP224

CYQG;2013-06-21 09:00;CYQG 210900Z 16005KT 15SM FEW280 17/12 A3019 RMK CI1 SLP222

CYQG;2013-06-21 10:00;CYQG 211000Z 14005KT 15SM FEW090 SCT280 18/12 A3020 RMK AC2CI1 SLP223

CYQG;2013-06-21 11:00;CYQG 211100Z 15004KT 15SM FEW090 19/14 A3020 RMK AC2 SLP226

CYQG;2013-06-21 12:00;CYQG 211200Z 16006KT 15SM FEW056 SCT250 21/15 A3019 RMK CU2CS2 SLP222

CYQG;2013-06-21 13:00;CYQG 211300Z 19005KT 12SM BKN063 22/16 A3022 RMK CU6 SLP232

CYQG;2013-06-21 14:00;CYQG 211400Z CCA 19006KT 12SM BKN060 BKN100 23/17 A3020 RMK CU5AC1 TCU ASOCTD PRESFR SLP225

CYQG;2013-06-21 15:00;CYQG 211500Z 20006KT 12SM FEW100 SCT260 25/17 A3020 RMK AC2CS1 SLP224

CYQG;2013-06-21 16:00;CYQG 211600Z 26004KT 10SM FEW050 BKN082 26/17 A3022 RMK CU2AC3 TCU ASOCTD SLP230

CYQG;2013-06-21 17:00;CYQG 211700Z 17007KT 10SM FEW085 FEW120 BKN260 27/18 A3020 RMK AC1AC1CS1 SLP226

CYQG;2013-06-21 18:00;CYQG 211800Z 17007KT 10SM FEW070 BKN260 28/17 A3018 RMK CU1CS2 TCU EMBD SLP219

CYQG;2013-06-21 19:00;CYQG 211900Z CCA 20010G15KT 10SM FEW070 OVC260 29/16 A3018 RMK CU1CS4 CI ASOCTD SLP217

CYQG;2013-06-21 20:00;CYQG 212000Z 17012KT 12SM FEW070 BKN260 28/18 A3016 RMK CU1CC7 TR CU SLP212

CYQG;2013-06-21 21:00;CYQG 212100Z 18010KT 15SM SCT083 BKN260 28/18 A3015 RMK AC4CC3 SLP207

CYQG;2013-06-21 22:00;CYQG 212200Z 17010KT 12SM SCT085 BKN260 28/18 A3013 RMK AC4CC3 SLP200

CYQG;2013-06-21 23:00;CYQG 212300Z 17009KT 15SM FEW085 BKN260 26/17 A3011 RMK AC2CS5 SLP193

CYQG;2013-06-22 00:00;CYQG 220000Z 16007KT 15SM SCT075 BKN270 25/17 A3011 RMK AC3CI3 SLP192

CYQG;2013-06-22 01:00;CYQG 220100Z 16008KT 15SM FEW080 SCT160 BKN270 24/16 A3009 RMK AC2AC2CI2 SLP187

CYQG;2013-06-22 02:00;CYQG 220200Z 15008KT 15SM SCT150 BKN210 24/17 A3009 RMK AC3CC4 SLP186

CYQG;2013-06-22 03:00;CYQG 220300Z 17004KT 15SM BKN180 23/17 A3011 RMK AC5 SLP194

CYQG;2013-06-22 04:00;CYQG 220400Z 18005KT 15SM BKN190 22/16 A3012 RMK AC5 SLP196

CYQG;2013-06-22 05:00;CYQG 220500Z 19006KT 15SM FEW190 22/16 A3011 RMK AC2 SLP195

CYQG;2013-06-22 06:00;CYQG 220600Z 20006KT 15SM FEW240 22/16 A3010 RMK CI1 SLP188

CYQG;2013-06-22 07:00;CYQG 220700Z 20008KT 15SM FEW250 23/16 A3008 RMK CI1 SLP183

CYQG;2013-06-22 08:00;CYQG 220800Z 20009KT 15SM BKN260 22/16 A3006 RMK CI2 SLP175

CYQG;2013-06-22 09:00;CYQG 220900Z 21009KT 15SM SCT090 BKN260 22/17 A3005 RMK AC3CI1 SLP173

CYQG;2013-06-22 10:00;CYQG 221000Z 21008KT 12SM FEW090 BKN270 22/17 A3005 RMK AC1CI1 SLP173

CYQG;2013-06-22 11:00;CYQG 221100Z 21007KT 12SM FEW120 BKN270 22/17 A3006 RMK AC1CI2 SLP176

CYQG;2013-06-22 12:00;CYQG 221200Z 22007KT 12SM FEW110 OVC270 23/18 A3007 RMK AC2CI1 SLP181

CYQG;2013-06-22 13:00;CYQG 221300Z 22011KT 12SM FEW120 BKN270 25/19 A3008 RMK AC1CI2 SLP184

CYQG;2013-06-22 14:00;CYQG 221400Z 24011KT 12SM FEW080 SCT120 OVC270 27/20 A3010 RMK AC1AC3CI1 SLP189

CYQG;2013-06-22 15:00;CYQG 221500Z 23011KT 12SM SCT032 SCT084 OVC270 28/20 A3009 RMK CU3AC1CI1 TCU ASOCTD SLP185

CYQG;2013-06-22 16:00;CYQG 221600Z 25008G15KT 12SM FEW084 BKN270 29/20 A3008 RMK AC2CI2 SLP182

CYQG;2013-06-22 17:00;CYQG 221700Z 26011KT 12SM FEW080 BKN270 30/21 A3008 RMK AC2CI1 SLP183

CYQG;2013-06-22 18:00;CYQG 221800Z 22007G15KT 12SM FEW120 BKN270 30/22 A3007 RMK AC1CI3 SLP180

CYQG;2013-06-22 19:00;CYQG 221900Z 20009G15KT 8SM FEW033 BKN140 BKN250 30/22 A3005 RMK CU2AC3CI1 SLP174

CYQG;2013-06-22 20:00;CYQG 222000Z 23008G18KT 7SM BKN040TCU BKN120 BKN250 30/22 A3003 RMK TCU5AC1CI2 SLP166

CYQG;2013-06-22 20:34;CYQG 222034Z 26010KT 4SM TSRA BKN037CB BKN100 RMK CB6AC2

CYQG;2013-06-22 20:46;CYQG 222046Z 26010G21KT 4SM -TSRA SCT016CB BKN110 RERA RMK CB4AC3

CYQG;2013-06-22 21:00;CYQG 222100Z 24023G28KT 10SM -TSRA FEW020CB BKN055 23/20 A3006 RERA RMK CB2SC5 TSTM S MVG E LTGICCG SLP176

CYQG;2013-06-22 21:37;CYQG 222137Z 23008KT 12SM TS SCT061 BKN180 RMK SC3AC4 OCNL -SHRA CB ASOCTD

CYQG;2013-06-22 22:00;CYQG 222200Z 28005KT 12SM TS SCT060 BKN170 24/20 A3003 RMK SC4AC3 OCNL LTGCG S CB ASOCTD SLP166

CYQG;2013-06-22 22:43;CYQG 222243Z 25008KT 12SM FEW060 BKN180 RETS RMK SC2AC4

CYQG;2013-06-22 23:00;CYQG 222300Z 25005KT 12SM FEW060TCU BKN150 23/20 A3000 RETS RMK TCU2AC5 CB ASOCTD SLP158

CYQG;2013-06-22 23:35;CYQG 222335Z 23005KT 12SM -SHRA FEW044TCU BKN170 RMK TCU2AC5 CB ASOCTD

CYQG;2013-06-23 00:00;CYQG 230000Z 27004KT 10SM -SHRA BKN041TCU BKN160 23/20 A3001 RMK TCU5AC2 CB ASOCTD SLP159

CYQG;2013-06-23 00:42;CYQG 230042Z 29005KT 12SM FEW045 BKN130 OVC260 RMK CU2AC4CI2

CYQG;2013-06-23 01:00;CYQG 230100Z 23006KT 12SM FEW045 BKN170 BKN260 24/20 A3002 RMK CU1AC4CI1 CB ASOCTD N SLP163

CYQG;2013-06-23 02:00;CYQG 230200Z 22008KT 15SM FEW045 OVC140 23/20 A3004 RMK CU1AC7 SLP170

CYQG;2013-06-23 03:00;CYQG 230300Z 22006KT 15SM OVC140 23/20 A3005 RMK AC8 SLP173

CYQG;2013-06-23 04:00;CYQG 230400Z 23006KT 12SM SCT180 23/20 A3004 RMK AC3 OCNL LTNG DIST NE SLP171

CYQG;2013-06-23 05:00;CYQG 230500Z 19002KT 12SM SCT180 22/20 A3006 RMK AC3 SLP177

CYQG;2013-06-23 06:00;CYQG 230600Z 21004KT 12SM FEW180 22/20 A3005 RMK AC2 SLP174

CYQG;2013-06-23 07:00;CYQG 230700Z 22006KT 12SM FEW110 22/20 A3004 RMK AC2 SLP171

CYQG;2013-06-23 08:00;CYQG 230800Z 22005KT 12SM SCT130 BKN230 22/20 A3004 RMK AC3CI2 SLP171

CYQG;2013-06-23 09:00;CYQG 230900Z 20004KT 8SM FEW140 BKN240 22/20 A3004 RMK AC2CI3 SLP172

CYQG;2013-06-23 10:00;CYQG 231000Z 20006KT 6SM BR BKN120 BKN250 22/20 A3006 RMK AC6CI1 SLP176

CYQG;2013-06-23 11:00;CYQG 231100Z 23006KT 6SM BR SCT120 BKN250 22/20 A3007 RMK AC4CI1 SLP181

CYQG;2013-06-23 12:00;CYQG 231200Z 23009KT 6SM HZ BKN110 BKN250 23/20 A3008 RMK AC5CI1 SLP184

CYQG;2013-06-23 13:00;CYQG 231300Z 23009KT 10SM FEW042 SCT120 BKN180 BKN260 23/20 A3008 RMK CU1AC3AC2CI1 SLP184

CYQG;2013-06-23 14:00;CYQG 231400Z 23008KT 12SM FEW120 BKN280 25/20 A3007 RMK AC2CI1 SLP182

CYQG;2013-06-23 15:00;CYQG 231500Z 21013KT 12SM FEW160 BKN280 26/21 A3007 RMK AC1CI1 SLP180

CYQG;2013-06-23 16:00;CYQG 231600Z 23012KT 12SM FEW030 BKN280 28/20 A3007 RMK CF1CI1 SLP179

CYQG;2013-06-23 17:00;CYQG 231700Z 24013G19KT 12SM FEW120 29/20 A3006 RMK AC1 SLP177

CYQG;2013-06-23 18:00;CYQG 231800Z 22014G19KT 12SM FEW036 FEW120 30/21 A3006 RMK CF1AC1 SLP176

CYQG;2013-06-23 19:00;CYQG 231900Z 22011KT 12SM FEW040 SCT120 30/21 A3005 RMK CU2AC1 SLP173

CYQG;2013-06-23 20:00;CYQG 232000Z 24013KT 15SM FEW040 FEW120 31/21 A3003 RMK CU1AC1 AC TR SLP166

CYQG;2013-06-23 21:00;CYQG 232100Z 22013KT 15SM FEW040 FEW240 31/20 A3001 RMK CU1CI0 SLP159

CYQG;2013-06-23 22:00;CYQG 232200Z 25010G15KT 15SM FEW040 31/20 A3000 RMK CU1 SLP155

CYQG;2013-06-23 23:00;CYQG 232300Z 22010KT 15SM FEW040 31/20 A2999 RMK CU1 SLP151

CYQG;2013-06-24 00:00;CYQG 240000Z 20009KT 12SM SKC 30/21 A2999 RMK SLP152

CYQG;2013-06-24 01:00;CYQG 240100Z 20008KT 12SM FEW270 28/21 A3000 RMK CI0 SLP155

CYQG;2013-06-24 02:00;CYQG 240200Z 21006KT 15SM SCT270 27/20 A3003 RMK CI0 SLP164

CYQG;2013-06-24 03:00;CYQG 240300Z 24016G22KT 15SM FEW054 BKN130 26/19 A3004 RMK CU2AC2 SLP171

CYQG;2013-06-24 04:00;CYQG 240400Z 27006KT 15SM FEW130 BKN280 25/17 A3003 RMK AC2CI3 SLP165

CYQG;2013-06-24 05:00;CYQG 240500Z 17005KT 15SM FEW230 FEW270 23/17 A3001 RMK CC1CI1 SLP159

CYQG;2013-06-24 06:00;CYQG 240600Z 24015G21KT 15SM FEW150 FEW270 23/17 A3006 RMK AC1CI1 PRESRR SLP174

CYQG;2013-06-24 07:00;CYQG 240700Z 24005KT 15SM FEW270 22/18 A3006 RMK CI1 SLP176

CYQG;2013-06-24 08:00;CYQG 240800Z 21003KT 12SM FEW270 21/18 A3006 RMK CI2 SLP174

CYQG;2013-06-24 09:00;CYQG 240900Z 23006KT 12SM FEW270 21/18 A3006 RMK CI2 SLP177

CYQG;2013-06-24 10:00;CYQG 241000Z 21008KT 7SM FEW270 21/18 A3006 RMK CI2 CC ASOCTD SLP177

CYQG;2013-06-24 11:00;CYQG 241100Z 22008KT 7SM FEW220 FEW270 22/19 A3006 RMK CC1CI1 TR CI SLP177

CYQG;2013-06-24 12:00;CYQG 241200Z 23008KT 15SM FEW230 23/19 A3007 RMK CC1 SLP179

CYQG;2013-06-24 13:00;CYQG 241300Z 24011KT 15SM FEW230 24/20 A3008 RMK CC1 SLP184

CYQG;2013-06-24 14:00;CYQG 241400Z 24013KT 15SM FEW230 26/20 A3008 RMK CC1 SLP184

CYQG;2013-06-24 15:00;CYQG 241500Z 23013KT 15SM FEW040 FEW230 28/21 A3008 RMK CF1CC2 TR CF SLP182

CYQG;2013-06-24 16:00;CYQG 241600Z 24015G20KT 15SM FEW035 BKN280 28/21 A3007 RMK CU2CI2 CC ASOCTD SLP180

CYQG;2013-06-24 17:00;CYQG 241700Z 22014G21KT 15SM SCT035 BKN170 BKN280 29/20 A3006 RMK CU3AC2CI0 SLP176

CYQG;2013-06-24 18:00;CYQG 241800Z 22012G20KT 15SM BKN035TCU BKN300 30/20 A3004 RMK TCU5CI1 CONTRAILS SLP167

CYQG;2013-06-24 19:00;CYQG 241900Z 24012G18KT 15SM BKN050TCU BKN300 30/21 A3001 RMK TCU6CI1 CONTRAILS SLP159

CYQG;2013-06-24 20:00;CYQG 242000Z 22010G17KT 15SM BKN041 BKN300 30/21 A2998 RMK CU5CI1 TCU ASOCTD SLP149

CYQG;2013-06-24 21:00;CYQG 242100Z 22013KT 8SM FEW040 BKN300 30/21 A2998 RMK CU2CI1 SLP147

CYQG;2013-06-24 22:00;CYQG 242200Z 21012KT 7SM FEW040 SCT270 30/21 A2995 RMK CU1CI1 SLP137

CYQG;2013-06-24 23:00;CYQG 242300Z 21012KT 8SM FEW035 FEW270 29/20 A2995 RMK CU1CI1 SLP139

CYQG;2013-06-25 00:00;CYQG 250000Z 24009KT 7SM FEW030 BKN250 29/21 A2996 RMK CU1CI1 SLP141

CYQG;2013-06-25 01:00;CYQG 250100Z 22008KT 7SM FEW028 BKN250 28/20 A2995 RMK CU2CI2 TCU ASOCTD SLP138

CYQG;2013-06-25 02:00;CYQG 250200Z 22006KT 12SM FEW028 BKN250 27/20 A2995 RMK CU2CI2 SLP138

CYQG;2013-06-25 03:00;CYQG 250300Z 22007KT 12SM FEW025 BKN250 26/20 A2995 RMK CU2CI2 LTGIC N SLP139

CYQG;2013-06-25 04:00;CYQG 250400Z 21007KT 10SM BKN130 BKN280 26/20 A2995 RMK AC6CI1 SLP137

CYQG;2013-06-25 04:21;CYQG 250421Z 22009KT 10SM -SHRA BKN130 OVC280 RMK AC6CI2

CYQG;2013-06-25 05:00;CYQG 250500Z 22015KT 10SM -SHRA BKN140 BKN180 BKN230 26/20 A2992 RMK AC5AC2CC1 SLP128

CYQG;2013-06-25 05:22;CYQG 250522Z 24010KT 12SM BKN140 BKN180 RMK AC6AC2

CYQG;2013-06-25 06:00;CYQG 250600Z 24013KT 12SM BKN150 BKN180 BKN220 25/20 A2992 RMK AC5AC2CC1 SLP129

CYQG;2013-06-25 07:00;CYQG 250700Z 26010KT 15SM FEW150 FEW270 24/18 A2992 RMK AC1CI1 SLP128

CYQG;2013-06-25 08:00;CYQG 250800Z 26013KT 15SM SCT130 23/17 A2992 RMK AC3 SLP128

CYQG;2013-06-25 09:00;CYQG 250900Z 25015KT 15SM BKN130 22/17 A2993 RMK AC6 SLP133

CYQG;2013-06-25 10:00;CYQG 251000Z 26009KT 15SM BKN140 BKN270 21/17 A2995 RMK AC5CI1 TR CI SLP139

CYQG;2013-06-25 11:00;CYQG 251100Z 24009KT 15SM FEW050 SCT082 BKN140 BKN250 21/18 A2996 RMK SC2AC2AC2CC1 SLP141

CYQG;2013-06-25 12:00;CYQG 251200Z 25011KT 15SM SCT018 BKN085 22/18 A2998 RMK CU4AC3 SLP150

CYQG;2013-06-25 12:24;CYQG 251224Z 27014KT 15SM -TSRA BKN021 OVC090 RMK CU6AC2 CB EMBD

CYQG;2013-06-25 13:00;CYQG 251300Z 29004KT 6SM -SHRA BR SCT020 BKN052 OVC120 21/19 A2996 RETS RMK CU3SC2AC3 SLP141

CYQG;2013-06-25 14:00;CYQG 251400Z 26006KT 10SM -SHRA SCT040 OVC130 21/19 A2996 RERA RMK CU3AC5 SLP142

CYQG;2013-06-25 14:39;CYQG 251439Z 25007KT 15SM FEW050 BKN140 RMK SC2AC5

CYQG;2013-06-25 15:00;CYQG 251500Z 21008KT 15SM FEW090 BKN180 BKN280 21/19 A2992 RMK AC2AC3CI2 PRESFR SLP128

CYQG;2013-06-25 16:00;CYQG 251600Z 24010KT 15SM BKN120 BKN280 23/20 A2994 RMK AC5CI2 SLP135

CYQG;2013-06-25 17:00;CYQG 251700Z 24011KT 15SM BKN100 BKN160 BKN280 25/21 A2994 RMK AC5AC2CI1 SLP135

CYQG;2013-06-25 17:35;CYQG 251735Z 26012KT 10SM -SHRA BKN041 BKN090 RMK CU6AC2

CYQG;2013-06-25 17:46;CYQG 251746Z 23011KT 5SM +TSRA BKN030CB OVC090 RMK CB6AC2 LTGIC

CYQG;2013-06-25 18:00;CYQG 251800Z 25009G15KT 10SM -TSRA SCT050 BKN090 BKN280 24/21 A2992 RERA RMK CU4AC2CI2 CB EMBD SLP130

CYQG;2013-06-25 18:10;CYQG 251810Z 25007KT 15SM -SHRA SCT060 BKN130 BKN280 RETS RMK CU4AC2CI2

CYQG;2013-06-25 18:21;CYQG 251821Z 26012KT 15SM SCT048 BKN090 BKN280 RETS RMK CU4AC2CI2

CYQG;2013-06-25 19:00;CYQG 251900Z 26009KT 15SM BKN040 OVC280 27/21 A2991 RETS RMK CU6CI2 SLP124

CYQG;2013-06-25 20:00;CYQG 252000Z 19007KT 15SM SCT040 BKN220 27/22 A2985 RMK CU3CI2 PRESFR SLP104

CYQG;2013-06-25 21:00;CYQG 252100Z 27006KT 8SM BKN026 BKN250 30/23 A2986 RMK CU6CI2 TCU ASOCTD SLP109

CYQG;2013-06-25 22:00;CYQG 252200Z 27006KT 7SM BKN032TCU BKN250 30/22 A2983 RMK TCU6CI2 CB ASOCTD SLP099

CYQG;2013-06-25 23:00;CYQG 252300Z 04006KT 10SM SCT039 BKN250 27/21 A2984 RMK CU4CI2 TCU ASOCTD SLP100

CYQG;2013-06-26 00:00;CYQG 260000Z 04009KT 10SM BKN041TCU 26/21 A2985 RMK TCU7 CB ASOCTD SLP106

CYQG;2013-06-26 01:00;CYQG 260100Z 10003KT 12SM BKN041TCU BKN260 25/21 A2984 RMK TCU6CI1 CB ASOCTD SLP103

CYQG;2013-06-26 01:46;CYQG 260146Z 09002KT 12SM TS OVC042TCU RMK TCU8 LTGICCG S CB ASOCTD

CYQG;2013-06-26 01:53;CYQG 260153Z 10002KT 12SM -TSRA OVC044TCU RMK TCU8 LTGICCG S CB ASOCTD

CYQG;2013-06-26 02:00;CYQG 260200Z 00000KT 12SM -TSRA OVC039TCU 24/21 A2986 RMK TCU8 LTGICCG S + E CB ASOCTD SLP108

CYQG;2013-06-26 02:44;CYQG 260244Z 00000KT 12SM -SHRA SCT040TCU BKN120 OVC260 RETS RMK TCU3AC2CI2 OCNL LTGIC SE

CYQG;2013-06-26 03:00;CYQG 260300Z 21005KT 10SM -SHRA FEW040TCU BKN130 OVC260 23/22 A2987 RETS RMK TCU2AC3CI2 LTGIC SE SLP113

CYQG;2013-06-26 03:08;CYQG 260308Z 22004KT 5SM -TSRA BKN038CB OVC130 RMK CB5AC3 OCNL LTGIC

CYQG;2013-06-26 04:00;CYQG 260400Z 23006KT 5SM -TSRA SCT038CB OVC120 23/22 A2989 RMK CB3AC5 OCNL LTGCG SLP119

CYQG;2013-06-26 04:15;CYQG 260415Z 23008KT 4SM TSRA SCT038CB OVC110 RMK CB4AC4 FRQ LTGIC

CYQG;2013-06-26 04:32;CYQG 260432Z 23011KT 4SM -TSRA FEW009 BKN022 BKN040CB OVC130 RERA RMK CF2CU3CB2AC2 OCNL LTGIC

CYQG;2013-06-26 05:00;CYQG 260500Z 25014G20KT 5SM TSRA FEW026 OVC110 23/21 A2988 RMK CU2AC6 CB EMBD OCNL LTGIC E SLP116

CYQG;2013-06-26 05:18;CYQG 260518Z 24018KT 6SM SHRA FEW009 OVC140 RETS RMK CF1AC7

CYQG;2013-06-26 05:30;CYQG 260530Z 26014KT 7SM -SHRA OVC160 RETSRA RMK AC8

CYQG;2013-06-26 06:00;CYQG 260600Z 27011KT 10SM -SHRA BKN160 OVC260 21/19 A2985 RETSRA RMK AC6CI2 SLP104

CYQG;2013-06-26 06:25;CYQG 260625Z 28005KT 10SM SCT140 BKN180 OVC260 RMK AC3AS3CI2

CYQG;2013-06-26 07:00;CYQG 260700Z 34005KT 10SM BKN140 OVC180 20/19 A2983 RMK AC5AS3 SLP099

CYQG;2013-06-26 07:33;CYQG 260733Z 06006KT 7SM -SHRA BKN130 OVC250 RMK AC6CS2

CYQG;2013-06-26 08:00;CYQG 260800Z 12005KT 8SM -SHRA SCT070 OVC130 20/19 A2985 RMK AC3AS5 SLP105

CYQG;2013-06-26 08:40;CYQG 260840Z 17006KT 7SM BKN150 BKN210 RMK AS5CC2

CYQG;2013-06-26 09:00;CYQG 260900Z 15004KT 8SM FEW130 FEW160 SCT210 20/19 A2985 RMK AC2AS1CC2 SLP104

CYQG;2013-06-26 10:00;CYQG 261000Z 20005KT 12SM FEW070 SCT210 BKN270 20/18 A2985 RMK AC2CC2CI1 SLP106

CYQG;2013-06-26 11:00;CYQG 261100Z 22006KT 8SM SCT063 BKN130 BKN270 20/19 A2986 RMK CU4AC2CI2 SLP109

CYQG;2013-06-26 12:00;CYQG 261200Z 22008KT 15SM SCT070 BKN240 21/19 A2987 RMK AC3CI3 SLP111

CYQG;2013-06-26 13:00;CYQG 261300Z 23009KT 15SM FEW030 BKN270 22/20 A2987 RMK CF1CI4 TR CF SLP113

CYQG;2013-06-26 14:00;CYQG 261400Z 23010KT 15SM FEW035 FEW100 BKN270 24/19 A2987 RMK CU2AC1CI2 SLP113

CYQG;2013-06-26 15:00;CYQG 261500Z 26009KT 15SM SCT020 BKN270 24/19 A2986 RMK CU3CI2 SLP107

CYQG;2013-06-26 16:00;CYQG 261600Z 28007KT 15SM BKN024 BKN280 25/20 A2987 RMK CU5CI2 SLP112

CYQG;2013-06-26 17:00;CYQG 261700Z 25006KT 15SM BKN029 BKN280 26/20 A2986 RMK CU5CI2 SLP109

CYQG;2013-06-26 18:00;CYQG 261800Z 23008KT 15SM BKN030 BKN280 27/20 A2985 RMK CU6CI1 SLP105

CYQG;2013-06-26 19:00;CYQG 261900Z CCA 10004KT 15SM FEW030 SCT210 BKN280 28/20 A2982 RMK CF1CC3CI1 TR CF SLP096

CYQG;2013-06-26 20:00;CYQG 262000Z 14003KT 15SM FEW034 FEW210 BKN290 28/21 A2982 RMK CU2CC1CI1 SLP094

CYQG;2013-06-26 21:00;CYQG 262100Z 20006KT 15SM FEW031 SCT210 BKN290 27/21 A2980 RMK CU2CC2CI1 SLP090

CYQG;2013-06-26 22:00;CYQG 262200Z 19008KT 15SM FEW024TCU SCT160 BKN290 27/21 A2980 RMK TCU1AC3CI1 SLP088

CYQG;2013-06-26 23:00;CYQG 262300Z 17007KT 15SM FEW024TCU FEW170 SCT290 27/20 A2978 RMK TCU1AC1CI1 SLP082

CYQG;2013-06-27 00:00;CYQG 270000Z 18005KT 15SM FEW025TCU FEW170 FEW290 26/20 A2977 RMK TCU1AC1CI1 SLP079

CYQG;2013-06-27 01:00;CYQG 270100Z 17003KT 15SM FEW030CB FEW085 BKN290 25/21 A2978 RMK CB1AC2CI1 CB TOPS DIST S SLP081

CYQG;2013-06-27 02:00;CYQG 270200Z 11002KT 15SM FEW035TCU FEW090 BKN210 BKN280 25/21 A2978 RMK TCU1AC2CI2CI1 SLP080

CYQG;2013-06-27 03:00;CYQG 270300Z 17005KT 15SM SCT038TCU OVC150 24/20 A2978 RMK TCU4AC4 SLP080

CYQG;2013-06-27 03:50;CYQG 270350Z 12004KT 10SM BKN048 OVC130 RMK CU6AC2

CYQG;2013-06-27 04:00;CYQG 270400Z 12004KT 10SM BKN048 OVC130 23/21 A2977 RMK CU5AC3 SLP079

CYQG;2013-06-27 05:00;CYQG 270500Z 16006KT 8SM FEW030 OVC130 23/21 A2978 RMK SC1AC7 SLP080

CYQG;2013-06-27 05:10;CYQG 270510Z 17004KT 7SM -SHRA FEW030 OVC130 RMK SC1AC7

CYQG;2013-06-27 06:00;CYQG 270600Z 19004KT 8SM -SHRA BKN057 OVC130 22/21 A2977 RMK CU6AC2 SLP077

CYQG;2013-06-27 07:00;CYQG 270700Z 19006KT 7SM FEW050 OVC120 22/21 A2975 RMK CU2AC6 OCNL -SHRA SLP072

CYQG;2013-06-27 08:00;CYQG 270800Z 17003KT 6SM -SHRA FEW050 OVC120 22/21 A2974 RMK CU1AC8 TR CU SLP069

CYQG;2013-06-27 09:00;CYQG 270900Z 14002KT 4SM -SHRA FEW008 OVC120 22/21 A2975 RMK CF1AC8 SLP072

CYQG;2013-06-27 10:00;CYQG 271000Z 00000KT 3SM -SHRA BR FEW008 BKN032 BKN075 OVC160 22/21 A2975 RMK CF1CU5AC2AC2 SLP071

CYQG;2013-06-27 10:50;CYQG 271050Z 09002KT 5SM BR FEW009 FEW032 BKN077 OVC120 RMK CF1CU1AC5AC2

CYQG;2013-06-27 11:00;CYQG 271100Z 00000KT 5SM BR FEW009 SCT032 BKN078 OVC110 22/21 A2975 RMK CF1CU2AC4AC2 SLP072

CYQG;2013-06-27 11:44;CYQG 271144Z 00000KT 5SM BR BKN005 BKN084 RMK SF5AC2

CYQG;2013-06-27 12:00;CYQG 271200Z 00000KT 6SM BR BKN005 BKN085 OVC270 22/21 A2975 RMK SF5AC1CI2 SLP072

CYQG;2013-06-27 12:44;CYQG 271244Z 09003KT 5SM BR SCT008 BKN280 RMK CF3CI2

CYQG;2013-06-27 13:00;CYQG 271300Z 10002KT 5SM HZ SCT008 SCT120 BKN280 23/21 A2974 RMK CF3AC1CI2 SLP068

CYQG;2013-06-27 14:00;CYQG 271400Z 06003KT 10SM SCT012 BKN280 24/21 A2975 RMK CU3CI2 SLP070

CYQG;2013-06-27 15:00;CYQG 271500Z 10006KT 15SM BKN018 BKN280 25/20 A2974 RMK CU5CI2 SLP067

CYQG;2013-06-27 16:00;CYQG 271600Z 09005KT 15SM BKN035 BKN280 25/20 A2975 RMK CU6CI1 SLP070

CYQG;2013-06-27 17:00;CYQG 271700Z 16003KT 15SM BKN033 BKN280 26/20 A2974 RMK CU6CI1 SLP069

CYQG;2013-06-27 18:00;CYQG 271800Z 18006KT 15SM BKN045 BKN280 27/20 A2973 RMK CU5CI1 CB TOPS DIST N SLP063

CYQG;2013-06-27 19:00;CYQG 271900Z 17010KT 15SM BKN042 27/20 A2971 RMK CU5 CB TOPS DIST N SLP058

CYQG;2013-06-27 20:00;CYQG 272000Z 17010KT 15SM FEW032TCU BKN150 26/19 A2971 RMK TCU2AC5 SLP057

CYQG;2013-06-27 20:53;CYQG 272053Z 18010KT 15SM -SHRA FEW035TCU BKN130 RMK TCU2AC6

CYQG;2013-06-27 21:00;CYQG 272100Z 17009KT 15SM -SHRA FEW035TCU BKN130 24/19 A2969 RMK TCU2AC6 CB TOPS DIST S SLP050

CYQG;2013-06-27 22:00;CYQG 272200Z 28002KT 7SM -TSRA FEW032CB OVC090 23/20 A2974 RMK CB2AC6 SLP066

CYQG;2013-06-27 22:43;CYQG 272243Z 28007KT 2 1/2SM TSRA BR OVC025CB RMK FG1CB7

CYQG;2013-06-27 23:00;CYQG 272300Z 24004KT 4SM TSRA BR OVC028CB 20/19 A2976 RMK CB8 OCNL LTGIC ALQDS SLP073

CYQG;2013-06-27 23:12;CYQG 272312Z 16002KT 5SM -TSRA BR OVC036CB RERA RMK CB8

CYQG;2013-06-27 23:26;CYQG 272326Z 16005KT 5SM TSRA BR BKN040CB OVC090 RMK CB6AC2

CYQG;2013-06-27 23:47;CYQG 272347Z 13003KT 6SM SHRA BR BKN045TCU OVC100 RETS RMK TCU7AC1

CYQG;2013-06-28 00:00;CYQG 280000Z 13003KT 8SM -SHRA BKN050TCU OVC120 20/19 A2971 RETSRA RMK TCU6AC2 SLP057

CYQG;2013-06-28 01:00;CYQG 280100Z 22007KT 12SM FEW048 BKN120 BKN280 20/19 A2966 RMK SC2AC2CI1 OCNL -SHRA SLP043

CYQG;2013-06-28 01:12;CYQG 280112Z 27006KT 15SM FEW050 SCT120 BKN290 RMK SC2AC2CI1 CB TOPS DIST S

CYQG;2013-06-28 02:00;CYQG 280200Z 29007KT 15SM SCT130 SCT290 20/18 A2967 RMK AC3CI1 SLP046

CYQG;2013-06-28 03:00;CYQG 280300Z 27003KT 15SM BKN130 BKN240 20/18 A2967 RMK AC5CI2 SLP043

CYQG;2013-06-28 04:00;CYQG 280400Z 16003KT 8SM BKN140 BKN240 20/19 A2965 RMK AC6CI2 SLP039

CYQG;2013-06-28 05:00;CYQG 280500Z 06004KT 5SM BR BKN120 BKN240 19/19 A2965 RMK AC6CI2 SLP037

CYQG;2013-06-28 05:17;CYQG 280517Z 07002KT 5SM BR BKN009 OVC120 RMK SC5AC3 VIS E-SE 2 MILES

CYQG;2013-06-28 05:35;CYQG 280535Z 07002KT 4SM BR BKN016 OVC120 RMK SC5AC3

CYQG;2013-06-28 06:00;CYQG 280600Z 03003KT 5SM BR BKN018 BKN120 OVC240 19/19 A2965 RMK SC5AC2CI2 SLP037

CYQG;2013-06-28 07:00;CYQG 280700Z 25003KT 5SM BR FEW110 BKN210 20/19 A2964 RMK AC1CC6 SLP034

CYQG;2013-06-28 08:00;CYQG 280800Z 24003KT 5SM BR FEW110 BKN220 20/18 A2962 RMK AC2CC4 SLP029

CYQG;2013-06-28 09:00;CYQG 280900Z 27004KT 4SM BR FEW110 BKN140 BKN220 19/18 A2961 RMK AC2AC4CC1 SLP026

CYQG;2013-06-28 10:00;CYQG 281000Z 32005KT 3SM BR SCT017 BKN100 19/18 A2961 RMK SC3AC2 SLP024

CYQG;2013-06-28 11:00;CYQG 281100Z 26004KT 3SM BR BKN080 BKN250 20/18 A2960 RMK AC5CI1 SLP021

CYQG;2013-06-28 12:00;CYQG 281200Z 32005KT 10SM FEW030 SCT080 21/19 A2960 RMK CU1AC3 SLP021

CYQG;2013-06-28 13:00;CYQG 281300Z 31007KT 15SM FEW015 SCT080 BKN280 22/18 A2959 RMK CU1AC3CI1 SLP017

CYQG;2013-06-28 14:00;CYQG 281400Z 34006KT 15SM FEW020 BKN130 23/19 A2958 RMK CU2AC3 SLP014

CYQG;2013-06-28 15:00;CYQG 281500Z 30005KT 15SM BKN024 BKN095 24/18 A2958 RMK CU6AC2 SLP013

CYQG;2013-06-28 15:53;CYQG 281553Z 32006KT 15SM TS BKN050CB BKN100 RMK CB6AC2 LTGIC W

CYQG;2013-06-28 16:00;CYQG 281600Z 31007KT 15SM TS BKN045CB BKN110 24/17 A2957 RMK CB6AC1 LTGIC NW - SW SHRA DIST NW - SW SLP011

CYQG;2013-06-28 16:17;CYQG 281617Z 23008KT 15SM -TSRA FEW027 BKN065CB RMK CU2CB5

CYQG;2013-06-28 16:48;CYQG 281648Z 33005KT 12SM TS BKN045CB BKN120 RMK CB6AC2 SHRA N - E VIS 4 N

CYQG;2013-06-28 17:02;CYQG 281702Z 30022G31KT 5/8SM +TSRA OVC035CB RMK RA4CB4

CYQG;2013-06-28 17:07;CYQG 281707Z 34014G31KT 3/4SM +TSRA SCT020 OVC039CB RMK RA2CU2CB4

CYQG;2013-06-28 17:10;CYQG 281710Z 33014G25KT 1 1/4SM TSRA SCT017 OVC039CB RMK CU3CB5 VIS 6 N LTGIC ALQDS

CYQG;2013-06-28 17:15;CYQG 281715Z 33009G17KT 5SM -TSRA FEW020 BKN045CB OVC090 RERA RMK CU2CB5AC2 LTGIC OVHD - E

CYQG;2013-06-28 18:00;CYQG 281800Z 21002KT 8SM -TSRA FEW025 BKN044CB BKN280 18/16 A2958 RERA RMK CU2CB5CI1 SLP014

CYQG;2013-06-28 18:42;CYQG 281842Z 20004KT 15SM -SHRA BKN045TCU BKN280 RETS RMK TCU6CI2

CYQG;2013-06-28 19:00;CYQG 281900Z 21006KT 15SM -SHRA BKN040TCU BKN280 19/17 A2956 RETS RMK TCU6CI2 CB TOPS DIST N - E SLP010

CYQG;2013-06-28 19:25;CYQG 281925Z 21006KT 15SM SCT040TCU BKN140 BKN280 RMK TCU3AC3CI1 CB TOPS DIST N

CYQG;2013-06-28 20:00;CYQG 282000Z 27002KT 15SM FEW045TCU BKN180 21/19 A2955 RMK TCU2AC6 SLP005

CYQG;2013-06-28 21:00;CYQG 282100Z 36005KT 15SM FEW028TCU BKN110 OVC190 21/16 A2954 RMK TCU1AC6AC1 SLP001

CYQG;2013-06-28 22:00;CYQG 282200Z 36003KT 15SM FEW030TCU SCT110 BKN190 21/17 A2955 RMK TCU1AC3AC3 SLP003

CYQG;2013-06-28 23:00;CYQG 282300Z 27007KT 15SM -SHRA FEW040TCU BKN110 OVC180 21/17 A2957 RMK TCU2AC6AC1 SLP010

CYQG;2013-06-28 23:45;CYQG 282345Z 27009KT 15SM FEW060TCU BKN090 BKN110 RMK TCU2AC4AC1

CYQG;2013-06-28 23:54;CYQG 282354Z 26008KT 12SM -SHRA BKN062TCU BKN090 BKN280 RMK TCU5AC2CI1

CYQG;2013-06-29 00:00;CYQG 290000Z 27008KT 10SM -SHRA BKN065TCU BKN090 20/17 A2957 RMK TCU6AC2 SLP011

CYQG;2013-06-29 00:47;CYQG 290047Z 34006KT 12SM -TSRA BKN060CB OVC110 RMK CB6AC2

CYQG;2013-06-29 01:00;CYQG 290100Z 02004KT 15SM -TSRA BKN065CB OVC110 19/18 A2957 RMK CB6AC2 OCNL LTGIC E-SE SLP012

CYQG;2013-06-29 01:47;CYQG 290147Z 00000KT 12SM -SHRA FEW019 SCT060TCU OVC090 RETS RMK SC1TCU2AC5

CYQG;2013-06-29 02:00;CYQG 290200Z 00000KT 12SM -SHRA FEW060TCU OVC100 19/18 A2957 RETS RMK TCU2AC6 SLP012

CYQG;2013-06-29 02:46;CYQG 290246Z 34004KT 15SM -SHRA FEW009 BKN022 OVC110 RMK SF1SC4AC3

CYQG;2013-06-29 03:00;CYQG 290300Z 35003KT 15SM -SHRA FEW009 BKN023 OVC130 19/18 A2957 RMK SF1SC5AC2 SLP012

CYQG;2013-06-29 04:00;CYQG 290400Z 31003KT 12SM -SHRA FEW009 BKN031 OVC130 18/17 A2956 RMK SF1SC6AC1 SLP009

CYQG;2013-06-29 05:00;CYQG 290500Z 36005KT 12SM SCT030 OVC097 18/17 A2956 RMK SC3AC5 OCNL -SHRA SLP007

CYQG;2013-06-29 06:00;CYQG 290600Z 34004KT 15SM FEW019 FEW030 OVC096 18/17 A2955 RMK SC1SC2AC6 SLP007

CYQG;2013-06-29 07:00;CYQG 290700Z 34003KT 15SM SCT025 OVC092 18/17 A2955 RMK SC3AC5 SLP006

CYQG;2013-06-29 08:00;CYQG 290800Z 35005KT 12SM BKN026 OVC110 18/17 A2955 RMK SC5AC3 SLP005

CYQG;2013-06-29 09:00;CYQG 290900Z 34003KT 12SM FEW025 BKN069 OVC110 18/17 A2955 RMK SC2AC3AC2 SLP006

CYQG;2013-06-29 10:00;CYQG 291000Z 33004KT 10SM FEW010 BKN043 OVC077 18/17 A2957 RMK SF2SC4AC2 SLP011

CYQG;2013-06-29 11:00;CYQG 291100Z 34004KT 12SM FEW012 BKN071 18/17 A2958 RMK CU2AC5 SLP014

CYQG;2013-06-29 12:00;CYQG 291200Z 35005KT 10SM SCT009 BKN070 19/17 A2959 RMK SF4AC3 SLP018

CYQG;2013-06-29 12:10;CYQG 291210Z 36004KT 10SM BKN009 OVC070 RMK SF6AC2

CYQG;2013-06-29 13:00;CYQG 291300Z 01004KT 10SM OVC008 19/17 A2959 RMK ST8 SLP020

CYQG;2013-06-29 13:49;CYQG 291349Z 36006KT 10SM BKN010 OVC110 RMK CU6AC2

CYQG;2013-06-29 14:00;CYQG 291400Z 04006KT 10SM BKN011 BKN110 20/17 A2960 RMK CU5AC2 SLP023

CYQG;2013-06-29 15:00;CYQG 291500Z 04005KT 15SM BKN017 BKN130 21/17 A2961 RMK CU5AC2 SLP024

CYQG;2013-06-29 16:00;CYQG 291600Z 06005KT 15SM SCT025 BKN120 22/17 A2962 RMK CU4AC3 SLP028

CYQG;2013-06-29 17:00;CYQG 291700Z 05011KT 15SM FEW050 BKN130 22/15 A2962 RMK CU2AC5 SLP029

CYQG;2013-06-29 18:00;CYQG 291800Z 04009KT 15SM FEW050 BKN140 22/16 A2962 RMK CU2AC6 SLP028

CYQG;2013-06-29 19:00;CYQG 291900Z 07010KT 15SM FEW050 BKN140 BKN240 23/16 A2963 RMK CU2AC4CC1 CB TOPS DIST E CI ASOCTD SLP031

CYQG;2013-06-29 20:00;CYQG 292000Z CCA 06010KT 15SM FEW040 SCT140 BKN260 23/16 A2964 RMK CU2AC2CI1 CB TOPS DIST S SLP034

CYQG;2013-06-29 21:00;CYQG 292100Z 04013KT 15SM FEW030TCU FEW170 BKN280 23/16 A2965 RMK TCU1AC2CC2 SLP039

CYQG;2013-06-29 22:00;CYQG 292200Z 05014KT 15SM FEW030TCU FEW180 FEW280 22/15 A2965 RMK TCU1AC1CI1 SLP038

CYQG;2013-06-29 23:00;CYQG 292300Z 05016KT 15SM FEW030 SCT190 BKN280 22/14 A2967 RMK CU1AC2CC2 SLP046

CYQG;2013-06-30 00:00;CYQG 300000Z 05013G19KT 15SM FEW030 BKN140 BKN280 21/15 A2969 RMK SC1AC6CI1 SLP053

CYQG;2013-06-30 01:00;CYQG 300100Z 04012G17KT 15SM FEW110 BKN140 20/13 A2971 RMK AC1AC6 SLP059

CYQG;2013-06-30 02:00;CYQG 300200Z 05012G17KT 15SM FEW110 BKN150 20/13 A2973 RMK AC2AC6 SLP065

CYQG;2013-06-30 03:00;CYQG 300300Z 04009KT 15SM BKN150 19/14 A2974 RMK AC6 SLP069

CYQG;2013-06-30 04:00;CYQG 300400Z 04012KT 15SM BKN087 BKN140 19/15 A2974 RMK AC6AC2 SLP069

CYQG;2013-06-30 05:00;CYQG 300500Z 04011G16KT 15SM SCT097 BKN150 18/15 A2975 RMK AC4AC3 SLP072

CYQG;2013-06-30 06:00;CYQG 300600Z 05012KT 15SM FEW090 BKN130 18/15 A2976 RMK AC2AC5 SLP075

CYQG;2013-06-30 07:00;CYQG 300700Z 05007KT 15SM BKN130 18/15 A2977 RMK AC6 SLP078

CYQG;2013-06-30 08:00;CYQG 300800Z 04008KT 15SM BKN099 18/15 A2977 RMK AC7 SLP080

CYQG;2013-06-30 09:00;CYQG 300900Z 03007KT 15SM BKN140 18/15 A2977 RMK AC6 SLP079

CYQG;2013-06-30 10:00;CYQG 301000Z 04003KT 15SM BKN120 18/15 A2979 RMK AC6 SLP085

CYQG;2013-06-30 11:00;CYQG 301100Z 36007KT 15SM -SHRA BKN120 18/16 A2979 RMK AC6 SLP087

CYQG;2013-06-30 12:00;CYQG 301200Z 36003KT 15SM BKN110 18/16 A2981 RMK AC7 SLP094

CYQG;2013-06-30 12:23;CYQG 301223Z 36003KT 15SM -SHRA BKN130 RMK AC7

CYQG;2013-06-30 13:00;CYQG 301300Z 04007KT 15SM BKN110 20/15 A2983 RMK AC7 OCNL -SHRA SLP100

CYQG;2013-06-30 13:10;CYQG 301310Z 04010KT 15SM BKN110 RMK AC7

CYQG;2013-06-30 14:00;CYQG 301400Z 05011KT 15SM BKN120 OVC270 20/15 A2984 RMK AC6CS2 SLP104

CYQG;2013-06-30 15:00;CYQG 301500Z 04009KT 15SM -SHRA FEW020 BKN120 OVC260 20/15 A2986 RMK CF1AC5CS3 TR CF SLP109

CYQG;2013-06-30 15:25;CYQG 301525Z 05012KT 15SM FEW020 SCT120 BKN260 RMK CF1AC3CS3 TR CF

CYQG;2013-06-30 16:00;CYQG 301600Z 08011KT 15SM FEW020 BKN110 BKN270 21/15 A2987 RMK CU2AC3CI1 SLP114

CYQG;2013-06-30 17:00;CYQG 301700Z 06011KT 15SM FEW025 BKN130 BKN270 21/14 A2987 RMK CF1AC5CI1 TR CF SLP115

CYQG;2013-06-30 18:00;CYQG 301800Z 07009KT 15SM FEW025 BKN130 22/16 A2987 RMK CU1AC6 SLP114

CYQG;2013-06-30 19:00;CYQG 301900Z 05007KT 15SM FEW030 BKN130 23/16 A2987 RMK CU1AC6 SLP114

CYQG;2013-06-30 20:00;CYQG 302000Z 04012KT 15SM FEW030 SCT140 SCT280 23/16 A2987 RMK CU1AC2CI1 TR CI SLP112

CYQG;2013-06-30 21:00;CYQG 302100Z 03017KT 15SM FEW032 FEW140 FEW280 24/16 A2987 RMK CU1AC1CI1 TR CI SLP113

CYQG;2013-06-30 22:00;CYQG 302200Z 03016KT 15SM FEW036 SCT250 SCT280 24/15 A2988 RMK CU1CS1CI0 SLP117

CYQG;2013-06-30 23:00;CYQG 302300Z 04014G20KT 15SM FEW032 BKN280 23/15 A2989 RMK CU1CI1 CONTRAILS SLP119

CYQG;2013-07-01 00:00;CYQG 010000Z 04016KT 15SM FEW030TCU FEW250 BKN280 22/15 A2991 RMK TCU1CS1CI2 TR TCU CONTRAILS SLP126

CYQG;2013-07-01 01:00;CYQG 010100Z 04013KT 12SM FEW210 BKN250 BKN280 22/14 A2991 RMK CC1CS1CI2 CONTRAILS SLP128

CYQG;2013-07-01 02:00;CYQG 010200Z 04013KT 15SM FEW220 BKN280 19/13 A2993 RMK CC2CI1 CONTRAILS SLP135

CYQG;2013-07-01 03:00;CYQG 010300Z 02011G16KT 15SM BKN050 BKN200 20/11 A2995 RMK CU5CC2 SLP139

CYQG;2013-07-01 04:00;CYQG 010400Z 02009KT 15SM BKN056 BKN200 18/11 A2995 RMK CU5CI2 SLP139

CYQG;2013-07-01 05:00;CYQG 010500Z 01008KT 15SM SCT057 BKN220 18/11 A2995 RMK SC3CI1 SLP140

CYQG;2013-07-01 06:00;CYQG 010600Z 01006KT 15SM FEW055 BKN260 17/12 A2995 RMK SC2CI6 SLP139

CYQG;2013-07-01 07:00;CYQG 010700Z 02007KT 15SM BKN063 BKN260 18/13 A2994 RMK SC5CI2 SLP138

CYQG;2013-07-01 08:00;CYQG 010800Z 03011KT 15SM FEW060 BKN160 OVC260 18/15 A2993 RMK SC2AC3CI2 SLP135

CYQG;2013-07-01 09:00;CYQG 010900Z 02008KT 15SM FEW060 BKN170 BKN260 17/14 A2995 RMK SC2AC4CI2 SLP139

CYQG;2013-07-01 10:00;CYQG 011000Z 36007KT 15SM FEW060 BKN170 BKN260 17/13 A2996 RMK SC2AC4CI2 SLP145

CYQG;2013-07-01 11:00;CYQG 011100Z 01006KT 15SM BKN140 OVC220 17/13 A2997 RMK AC6CI2 SLP146

CYQG;2013-07-01 12:00;CYQG 011200Z 04012G17KT 15SM OVC140 19/13 A2998 RMK AC8 SLP149

CYQG;2013-07-01 13:00;CYQG 011300Z 04011G16KT 15SM BKN160 OVC180 19/14 A2998 RMK AC6AC2 SLP150

CYQG;2013-07-01 13:52;CYQG 011352Z 04013KT 8SM -SHRA FEW080 BKN120 OVC160 RMK AC2AC5AC2

CYQG;2013-07-01 14:00;CYQG 011400Z 04013KT 8SM -SHRA FEW040 BKN120 OVC160 20/14 A2999 RMK SC1AC6AC2 SLP153

CYQG;2013-07-01 15:00;CYQG 011500Z CCA 03014G20KT 10SM SCT060 OVC120 20/14 A2999 RMK SC4AC4 OCNL -SHRA SLP153

CYQG;2013-07-01 15:24;CYQG 011524Z 03013KT 12SM BKN057 OVC120 RMK SC5AC3

CYQG;2013-07-01 16:00;CYQG 011600Z 04016KT 10SM BKN065 OVC110 20/14 A2999 RMK SC5AC3 SLP155

CYQG;2013-07-01 16:07;CYQG 011607Z 04013G19KT 10SM -SHRA SCT065 OVC110 RMK SC4AC4

CYQG;2013-07-01 17:00;CYQG 011700Z 03013G18KT 7SM -RA BKN065 OVC110 20/15 A3001 RMK SC6AC2 SLP161

CYQG;2013-07-01 18:00;CYQG 011800Z 01011KT 7SM -RA OVC065 19/14 A3004 RMK SC8 SLP172

CYQG;2013-07-01 19:00;CYQG 011900Z 03010KT 6SM -RA HZ OVC058 18/14 A3004 RMK SC8 SLP171

CYQG;2013-07-01 20:00;CYQG 012000Z 36006KT 5SM -RA HZ OVC063 17/14 A3003 RMK SC8 SLP170

CYQG;2013-07-01 20:28;CYQG 012028Z 35005KT 4SM -TSRA HZ OVC063CB RMK CB8 OCNL LTGIC

CYQG;2013-07-01 21:00;CYQG 012100Z 34002KT 4SM TSRA BR SCT048CB OVC065 17/15 A3003 RMK CB4SC4 OCNL LTGIC SLP170

CYQG;2013-07-01 21:22;CYQG 012122Z 03009KT 4SM SHRA BR FEW048CB OVC065 RETS RMK CB1SC7

CYQG;2013-07-01 21:38;CYQG 012138Z 01010KT 3SM +RA BR OVC065 RETS RMK SC8

CYQG;2013-07-01 22:00;CYQG 012200Z CCA 01007KT 5SM RA BR BKN036 OVC072 17/15 A3004 RETSRA RMK CU5AC3 /R15/ SLP173

CYQG;2013-07-01 22:28;CYQG 012228Z 01005KT 3SM +RA BR OVC040 RMK CU8

CYQG;2013-07-01 22:48;CYQG 012248Z 02008KT 2SM +RA BR OVC045 RMK CU8

CYQG;2013-07-01 23:00;CYQG 012300Z 01010KT 2SM +RA BR BKN041 OVC075 17/15 A3004 RMK CU6AC2 SLP173

CYQG;2013-07-01 23:10;CYQG 012310Z 36008KT 5SM -RA BR SCT040 OVC061 RERA RMK CU3SC5

CYQG;2013-07-02 00:00;CYQG 020000Z 01008KT 7SM -RA OVC045 17/15 A3004 RERA RMK SC8 SLP174

CYQG;2013-07-02 00:30;CYQG 020030Z 01009KT 8SM OVC042 RMK SC8

CYQG;2013-07-02 00:48;CYQG 020048Z 02010KT 7SM -SHRA OVC042 RMK SC8

CYQG;2013-07-02 01:00;CYQG 020100Z 01009KT 7SM -SHRA OVC042 17/15 A3004 RMK SC8 SLP173

CYQG;2013-07-02 01:30;CYQG 020130Z 01008KT 10SM OVC042 RMK SC8

CYQG;2013-07-02 01:47;CYQG 020147Z 36008KT 7SM -SHRA OVC043 RMK SC8

CYQG;2013-07-02 02:00;CYQG 020200Z 01008KT 7SM -SHRA OVC043 18/15 A3005 RMK SC8 SLP176

CYQG;2013-07-02 02:25;CYQG 020225Z 01011KT 12SM OVC041 RMK SC8

CYQG;2013-07-02 03:00;CYQG 020300Z 01009KT 12SM -SHRA OVC043 18/14 A3005 RMK SC8 SLP174

CYQG;2013-07-02 04:00;CYQG 020400Z 03012KT 15SM -SHRA BKN052 18/15 A3003 RMK SC7 SLP169

CYQG;2013-07-02 05:00;CYQG 020500Z 05012KT 15SM -SHRA FEW031 BKN046 18/15 A3002 RMK SC2SC5 SLP166

CYQG;2013-07-02 06:00;CYQG 020600Z 07008KT 15SM -SHRA FEW024 BKN039 19/15 A3005 RMK SC2SC6 -SHRA VRY LGT SLP174

CYQG;2013-07-02 07:00;CYQG 020700Z 07008KT 15SM -SHRA BKN029 OVC120 18/14 A3003 RMK SC5AC3 SLP167

CYQG;2013-07-02 07:38;CYQG 020738Z 06010KT 15SM FEW027 BKN120 RMK SC2AC5

CYQG;2013-07-02 08:00;CYQG 020800Z 06009KT 15SM FEW022 BKN140 18/14 A3002 RMK SC2AC5 SLP165

CYQG;2013-07-02 09:00;CYQG 020900Z 07005KT 12SM OVC018 18/14 A3003 RMK SC8 SLP169

CYQG;2013-07-02 10:00;CYQG 021000Z 06011KT 12SM OVC017 18/14 A3003 RMK SC8 SLP169

CYQG;2013-07-02 11:00;CYQG 021100Z 06010KT 12SM OVC017 18/14 A3005 RMK SC8 SLP175

CYQG;2013-07-02 12:00;CYQG 021200Z 06009KT 15SM OVC016 17/14 A3005 RMK SC8 SLP177

CYQG;2013-07-02 13:00;CYQG 021300Z 05010KT 12SM OVC016 18/14 A3006 RMK SC8 SLP180

CYQG;2013-07-02 14:00;CYQG 021400Z 06010KT 12SM OVC015 18/14 A3007 RMK SC8 SLP181

CYQG;2013-07-02 15:00;CYQG 021500Z 05008KT 12SM OVC016 18/15 A3007 RMK SC8 SLP183

CYQG;2013-07-02 16:00;CYQG 021600Z 07007KT 10SM OVC017 19/15 A3008 RMK SC8 SLP187

CYQG;2013-07-02 17:00;CYQG 021700Z 07007KT 12SM BKN020 BKN100 20/15 A3007 RMK SC6AC1 SLP184

CYQG;2013-07-02 18:00;CYQG 021800Z 08006KT 15SM BKN017 20/16 A3007 RMK SC7 CU ASOCTD SLP182

CYQG;2013-07-02 19:00;CYQG 021900Z 11006KT 10SM BKN020 21/16 A3006 RMK SC7 CU ASOCTD SLP179

CYQG;2013-07-02 20:00;CYQG 022000Z 10005KT 15SM OVC022 21/16 A3006 RMK SC8 SLP178

CYQG;2013-07-02 21:00;CYQG 022100Z 06006KT 15SM BKN025 21/16 A3005 RMK SC7 SLP176

CYQG;2013-07-02 22:00;CYQG 022200Z 05006KT 15SM BKN025 BKN051 22/16 A3005 RMK SC6SC2 SLP176

CYQG;2013-07-02 23:00;CYQG 022300Z 06010KT 15SM BKN025 BKN050 22/16 A3005 RMK SC6SC1 SLP176

CYQG;2013-07-03 00:00;CYQG 030000Z 05009KT 12SM FEW026 BKN140 21/16 A3006 RMK SC2AC2 SLP177

CYQG;2013-07-03 01:00;CYQG 030100Z 05010KT 15SM FEW025 SCT140 BKN240 20/17 A3006 RMK SC1AC2CI3 SLP178

CYQG;2013-07-03 02:00;CYQG 030200Z 04008KT 15SM FEW150 SCT210 19/16 A3006 RMK AC2CI2 SLP178

CYQG;2013-07-03 03:00;CYQG 030300Z 05006KT 15SM FEW140 BKN220 19/16 A3007 RMK AC2CI3 SLP184

CYQG;2013-07-03 04:00;CYQG 030400Z 03007KT 12SM OVC016 19/16 A3008 RMK SC8 SLP187

CYQG;2013-07-03 05:00;CYQG 030500Z 08006KT 12SM SCT016 OVC071 19/17 A3008 RMK SC4AC4 SLP187

CYQG;2013-07-03 06:00;CYQG 030600Z 05004KT 10SM OVC033 19/17 A3008 RMK SC8 SLP184

CYQG;2013-07-03 07:00;CYQG 030700Z 02004KT 10SM BKN030 18/17 A3005 RMK SC5 SLP176

CYQG;2013-07-03 08:00;CYQG 030800Z CCA 07004KT 8SM SCT030 18/16 A3006 RMK SC3 SLP177

CYQG;2013-07-03 09:00;CYQG 030900Z 02003KT 7SM FEW030 SCT260 17/16 A3005 RMK SC2CI1 SLP176

CYQG;2013-07-03 10:00;CYQG 031000Z 07004KT 4SM BR FEW030 BKN260 18/17 A3007 RMK SC1CI3 CONTRAILS SLP181

CYQG;2013-07-03 11:00;CYQG 031100Z 08003KT 3SM BR SCT130 BKN260 19/18 A3008 RMK AC4CI2 SLP186

CYQG;2013-07-03 12:00;CYQG 031200Z 10005KT 4SM HZ FEW130 BKN270 21/18 A3010 RMK AC2CS1 SLP190

CYQG;2013-07-03 13:00;CYQG 031300Z 13003KT 5SM HZ FEW130 OVC260 21/19 A3011 RMK AC1CS7 SLP193

CYQG;2013-07-03 14:00;CYQG 031400Z 16003KT 6SM HZ FEW090 OVC260 23/20 A3011 RMK AC1CS7 SLP196

CYQG;2013-07-03 15:00;CYQG 031500Z 15004KT 6SM HZ BKN050 OVC260 24/21 A3011 RMK SC7CS0 SLP196

CYQG;2013-07-03 16:00;CYQG 031600Z 17007KT 8SM FEW012 BKN044 BKN260 26/22 A3011 RMK CU1SC5CI1 SLP195

CYQG;2013-07-03 17:00;CYQG 031700Z 21008KT 15SM SCT043 27/20 A3011 RMK CU3 CB TOP DIST NE SLP194

CYQG;2013-07-03 18:00;CYQG 031800Z 19011KT 15SM FEW030TCU FEW140 SCT270 27/19 A3010 RMK TCU1AC1CI1 SLP191

CYQG;2013-07-03 19:00;CYQG 031900Z 20012KT 15SM FEW035TCU FEW150 BKN280 27/18 A3009 RMK TCU1AC1CI1 CB TOPS DIST N-NE SLP187

CYQG;2013-07-03 20:00;CYQG 032000Z CCA 21009G15KT 15SM FEW035TCU FEW150 BKN280 27/18 A3009 RMK TCU1AC1CS6 SLP186

CYQG;2013-07-03 21:00;CYQG 032100Z 19010G15KT 15SM FEW035TCU FEW150 OVC280 27/19 A3008 RMK TCU1AC1CS7 SLP184

CYQG;2013-07-03 23:00;CYQG 032300Z 20007KT 12SM FEW150 OVC280 27/19 A3008 RMK AC1CC8 SLP185

CYQG;2013-07-04 00:00;CYQG 040000Z 15004KT 12SM FEW150 OVC280 26/20 A3008 RMK AC1CC8 SLP183

CYQG;2013-07-04 01:00;CYQG 040100Z 16005KT 12SM FEW100 OVC280 24/21 A3008 RMK AC1CS8 SLP183

CYQG;2013-07-04 02:00;CYQG 040200Z 16005KT 12SM OVC240 23/20 A3010 RMK CS7 SLP189

CYQG;2013-07-04 03:00;CYQG 040300Z 15005KT 12SM OVC250 23/20 A3010 RMK CS7 SLP190

CYQG;2013-07-04 04:00;CYQG 040400Z 15005KT 12SM BKN120 BKN250 23/20 A3010 RMK AC5CI2 SLP190

CYQG;2013-07-04 05:00;CYQG 040500Z 16007KT 12SM BKN120 BKN250 23/20 A3010 RMK AC5CI2 SLP190

CYQG;2013-07-04 06:00;CYQG 040600Z 17004KT 15SM FEW084 BKN120 OVC240 22/21 A3010 RMK AC1AC5CI2 SLP189

CYQG;2013-07-04 07:00;CYQG 040700Z 18006KT 12SM -SHRA OVC097 23/21 A3010 RMK AC8 SLP189

CYQG;2013-07-04 08:00;CYQG 040800Z 19008KT 8SM -SHRA OVC110 22/20 A3010 RMK AC8 SLP190

CYQG;2013-07-04 09:00;CYQG 040900Z 18009KT 10SM OVC100 21/20 A3011 RMK AC8 OCNL -SHRA SLP194

CYQG;2013-07-04 10:00;CYQG 041000Z 19006KT 6SM BR OVC130 21/20 A3011 RMK AC8 SLP195

CYQG;2013-07-04 11:00;CYQG 041100Z 20006KT 6SM BR OVC130 21/20 A3012 RMK AC8 SLP198

CYQG;2013-07-04 12:00;CYQG 041200Z 20008KT 6SM BR FEW015 BKN150 22/20 A3014 RMK CF1AC6 SLP203

CYQG;2013-07-04 13:00;CYQG 041300Z 19010KT 7SM FEW010 BKN031 BKN150 23/20 A3014 RMK SC2CU5AC1 SLP203

CYQG;2013-07-04 14:00;CYQG 041400Z 23009KT 10SM FEW011 SCT031 OVC270 23/20 A3015 RMK SC2SC2CS3 SLP207

CYQG;2013-07-04 15:00;CYQG 041500Z 22006KT 10SM FEW011 FEW030 BKN280 25/21 A3014 RMK SC1CU2CI1 SLP203

CYQG;2013-07-04 16:00;CYQG 041600Z 20006KT 12SM BKN022 BKN280 25/20 A3014 RMK CU5CI1 SLP205

CYQG;2013-07-04 17:00;CYQG 041700Z 21009KT 12SM BKN027 BKN280 26/19 A3014 RMK CU6CI1 SLP203

CYQG;2013-07-04 18:00;CYQG 041800Z 23007KT 12SM BKN027 BKN280 26/19 A3013 RMK CU5CI2 TCU ASOCTD SLP201

CYQG;2013-07-04 19:00;CYQG 041900Z 19005KT 12SM BKN031 BKN280 27/19 A3012 RMK CU6CI1 SLP198

CYQG;2013-07-04 20:00;CYQG 042000Z 23007KT 10SM SCT031 BKN150 BKN280 27/19 A3011 RMK CU4AC2CI1 SLP194

CYQG;2013-07-04 21:00;CYQG 042100Z 18007KT 10SM FEW031 BKN150 BKN280 26/19 A3011 RMK CU2AC2CS2 SLP192

CYQG;2013-07-04 22:00;CYQG 042200Z 20008KT 8SM BKN110 OVC280 27/20 A3011 RMK AC6CS2 SLP193

CYQG;2013-07-04 23:00;CYQG 042300Z 22008KT 8SM VCSH FEW020 SCT050 OVC280 24/20 A3010 RMK CU1CU4CS4 -SHRA W SLP189

CYQG;2013-07-05 00:00;CYQG 050000Z 22007KT 10SM BKN049 OVC280 23/20 A3010 RMK SC7CS1 SLP191

CYQG;2013-07-05 01:00;CYQG 050100Z 20007KT 10SM BKN160 OVC280 23/20 A3011 RMK AC6CS2 SLP192

CYQG;2013-07-05 02:00;CYQG 050200Z 09006KT 10SM BKN055 OVC180 23/20 A3011 RMK CU6AC2 SLP194

CYQG;2013-07-05 03:00;CYQG 050300Z 24002KT 10SM SCT072 BKN110 23/20 A3011 RMK AC3AC4 SLP195

CYQG;2013-07-05 04:00;CYQG 050400Z 19005KT 10SM FEW060 BKN099 22/20 A3012 RMK SC2AC6 SLP196

CYQG;2013-07-05 05:00;CYQG 050500Z 20007KT 12SM BKN037 22/20 A3012 RMK SC7 SLP198

CYQG;2013-07-05 06:00;CYQG 050600Z 18005KT 12SM FEW035 BKN086 22/20 A3011 RMK SC2AC5 SLP192

CYQG;2013-07-05 07:00;CYQG 050700Z 20004KT 12SM FEW030 BKN073 22/20 A3010 RMK SC2AC5 SLP191

CYQG;2013-07-05 07:16;CYQG 050716Z 20004KT 12SM -SHRA OVC048 RMK SC8

CYQG;2013-07-05 08:00;CYQG 050800Z 17002KT 6SM -SHRA BR OVC058 22/21 A3009 RMK SC8 SLP188

CYQG;2013-07-05 09:00;CYQG 050900Z 00000KT 5SM -SHRA BR OVC059 21/21 A3008 RMK SC8 SLP184

CYQG;2013-07-05 10:00;CYQG 051000Z 16003KT 5SM -SHRA BR BKN058 OVC077 21/20 A3009 RMK SC6AC2 SLP186

CYQG;2013-07-05 10:16;CYQG 051016Z 16004KT 5SM -SHRA BR FEW007 OVC073 RMK SF2AC6

CYQG;2013-07-05 10:36;CYQG 051036Z 16004KT 4SM -SHRA BR BKN006 OVC021 RMK SF5SC3

CYQG;2013-07-05 11:00;CYQG 051100Z 15004KT 2 1/2SM -SHRA BR BKN006 OVC019 21/20 A3010 RMK SF5SC3 SLP189

CYQG;2013-07-05 11:50;CYQG 051150Z 09002KT 3SM -RA BR BKN008 OVC016 RMK SF6SC2

CYQG;2013-07-05 12:00;CYQG 051200Z 12003KT 4SM -RA BR BKN008 OVC016 20/20 A3010 RMK SF6SC2 SLP192

CYQG;2013-07-05 12:44;CYQG 051244Z 05002KT 4SM -RA BR FEW003 BKN018 OVC070 RMK SF2SC5AC1

CYQG;2013-07-05 13:00;CYQG 051300Z 08002KT 4SM -RA BR FEW003 BKN016 OVC070 20/20 A3011 RMK SF2SC6AS1 SLP193

CYQG;2013-07-05 13:35;CYQG 051335Z 05003KT 6SM -RA BR SCT004 BKN058 OVC110 RMK SF3SC4AS1

CYQG;2013-07-05 14:00;CYQG 051400Z 03002KT 6SM -SHRA BR FEW006 BKN039 OVC110 22/20 A3011 RMK SF2SC5AC2 SLP196

CYQG;2013-07-05 14:48;CYQG 051448Z 24003KT 7SM SCT008 OVC063 RMK SF3SC5

CYQG;2013-07-05 15:00;CYQG 051500Z 24003KT 7SM FEW006 OVC070 22/20 A3013 RMK SF2AC6 SLP200

CYQG;2013-07-05 16:00;CYQG 051600Z 28003KT 8SM BKN014 OVC060 23/21 A3013 RMK SC6SC2 SLP202

CYQG;2013-07-05 16:15;CYQG 051615Z 25002KT 8SM BKN015 OVC063 RMK SC6SC2

CYQG;2013-07-05 17:00;CYQG 051700Z 00000KT 8SM FEW016 BKN027 BKN080 25/20 A3013 RMK SC1SC6AC1 SLP201

CYQG;2013-07-05 18:00;CYQG 051800Z 23002KT 8SM FEW018 BKN055TCU 25/20 A3012 RMK SC2TCU5 SLP197

CYQG;2013-07-05 19:00;CYQG 051900Z 20002KT 10SM SCT030 BKN058TCU BKN270 26/19 A3011 RMK CU3TCU2CI1 SLP194

CYQG;2013-07-05 20:00;CYQG 052000Z 17004KT 10SM FEW070 SCT120 SCT280 27/19 A3010 RMK CU1AC2CI1 SLP191

CYQG;2013-07-05 21:00;CYQG 052100Z CCA 17007KT 10SM FEW035TCU FEW120 SCT280 27/20 A3008 RMK TCU2AC1CI2 SLP184

CYQG;2013-07-05 22:00;CYQG 052200Z 19009KT 10SM FEW035TCU BKN280 27/20 A3008 RMK TCU2CC3 SLP184

CYQG;2013-07-05 23:00;CYQG 052300Z 17008KT 8SM OVC300 25/19 A3008 RMK CS6 CC ASOCTD SLP182

CYQG;2013-07-06 00:00;CYQG 060000Z 17008KT 10SM OVC300 25/19 A3008 RMK CS6 CC ASOCTD SLP185

CYQG;2013-07-06 01:00;CYQG 060100Z CCA 18004KT 10SM BKN280 23/20 A3009 RMK CS6 SLP187

CYQG;2013-07-06 02:00;CYQG 060200Z 18003KT 10SM BKN280 22/20 A3011 RMK CS6 SLP192

CYQG;2013-07-06 03:00;CYQG 060300Z 18003KT 12SM BKN260 22/20 A3011 RMK CI6 SLP195

CYQG;2013-07-06 04:00;CYQG 060400Z 18004KT 12SM BKN250 22/20 A3012 RMK CI6 SLP198

CYQG;2013-07-06 05:00;CYQG 060500Z 17004KT 12SM OVC250 22/20 A3011 RMK CI7 SLP196

CYQG;2013-07-06 06:00;CYQG 060600Z 19004KT 12SM OVC230 22/20 A3011 RMK CI8 SLP194

CYQG;2013-07-06 07:00;CYQG 060700Z 19004KT 12SM OVC240 22/21 A3011 RMK CI8 SLP194

CYQG;2013-07-06 08:00;CYQG 060800Z 21004KT 12SM OVC220 22/21 A3011 RMK CI8 SLP194

CYQG;2013-07-06 09:00;CYQG 060900Z 20003KT 12SM OVC200 22/20 A3011 RMK CI8 SLP194

CYQG;2013-07-06 10:00;CYQG 061000Z 24003KT 6SM BR OVC210 22/20 A3012 RMK CI7 SLP196

CYQG;2013-07-06 11:00;CYQG 061100Z 24003KT 6SM BR BKN210 22/20 A3013 RMK CI5 SLP199

CYQG;2013-07-06 12:00;CYQG 061200Z 21002KT 7SM BKN130 23/20 A3013 RMK AC6 SLP201

CYQG;2013-07-06 13:00;CYQG 061300Z 22003KT 6SM HZ FEW073 BKN130 24/21 A3014 RMK AC2AC5 SLP202

CYQG;2013-07-06 14:00;CYQG 061400Z 21004KT 8SM BKN130 25/21 A3013 RMK AC7 SLP200

CYQG;2013-07-06 15:00;CYQG 061500Z 19004KT 8SM FEW030 BKN130 25/21 A3012 RMK CU1AC6 SLP198

CYQG;2013-07-06 16:00;CYQG 061600Z 19004KT 10SM SCT016 BKN130 26/22 A3012 RMK CU4AC3 SLP198

CYQG;2013-07-06 17:00;CYQG 061700Z 17007KT 12SM BKN044 BKN130 26/21 A3011 RMK CU5AC2 SLP195

CYQG;2013-07-06 18:00;CYQG 061800Z 20007KT 12SM SCT028 BKN110 27/21 A3010 RMK CU3AC3 SLP189

CYQG;2013-07-06 19:00;CYQG 061900Z 16007KT 12SM FEW028 BKN120 27/21 A3007 RMK CU1AC5 TCU ASOCTD SLP181

CYQG;2013-07-06 20:00;CYQG 062000Z CCA 15012KT 12SM SCT028CB BKN120 27/22 A3006 RMK CB3AC3 CB SW CU ASOCTD SLP178

CYQG;2013-07-06 20:30;CYQG 062030Z 15008KT 12SM -SHRA FEW028TCU BKN080 RMK TCU1AC6

CYQG;2013-07-06 21:00;CYQG 062100Z 18006KT 12SM FEW028TCU OVC080 25/21 A3006 RMK TCU1AC8 OCNL -SHRA SLP176

CYQG;2013-07-06 22:00;CYQG 062200Z 16002KT 12SM FEW028CB OVC060 24/20 A3004 RMK CB2SC6 OCNL -SHRA SLP171

CYQG;2013-07-06 23:00;CYQG 062300Z 28003KT 6SM -SHRA BR OVC040 23/21 A3003 RMK SC8 SLP166

CYQG;2013-07-07 00:00;CYQG 070000Z 36002KT 6SM -SHRA BR BKN050 OVC090 22/21 A3002 RMK SC6AC2 SLP163

CYQG;2013-07-07 01:00;CYQG 070100Z 24004KT 4SM -SHRA BR OVC020 22/21 A3003 RMK SC8 SLP166

CYQG;2013-07-07 01:55;CYQG 070155Z 00000KT 5SM BR OVC040 RMK SC8

CYQG;2013-07-07 02:00;CYQG 070200Z 00000KT 5SM BR OVC040 22/21 A3003 RMK SC8 SLP166

CYQG;2013-07-07 03:00;CYQG 070300Z 00000KT 5SM BR FEW004 BKN038 BKN079 22/21 A3004 RMK SF2SC3AC2 SLP169

CYQG;2013-07-07 03:16;CYQG 070316Z 00000KT 7SM BKN005 OVC040 RMK SF5SC3

CYQG;2013-07-07 04:00;CYQG 070400Z 24002KT 7SM BKN006 OVC029 22/21 A3005 RMK SF6SC2 SLP172

CYQG;2013-07-07 05:00;CYQG 070500Z 24003KT 7SM BKN009 BKN091 22/21 A3004 RMK SF5AC2 SLP171

CYQG;2013-07-07 05:38;CYQG 070538Z 24004KT 6SM BR FEW013 SCT041 OVC110 RMK SF2SC2AC4

CYQG;2013-07-07 06:00;CYQG 070600Z 24004KT 6SM BR BKN023 OVC120 22/21 A3003 RMK SC5AC3 SLP167

CYQG;2013-07-07 07:00;CYQG 070700Z 25005KT 6SM BR FEW011 BKN038 OVC210 22/21 A3002 RMK SF2SC4CI2 SLP163

CYQG;2013-07-07 07:52;CYQG 070752Z 26005KT 6SM BR BKN008 OVC040 RMK SF6SC2

CYQG;2013-07-07 08:00;CYQG 070800Z 25005KT 6SM BR OVC009 22/21 A3002 RMK SF8 SLP162

CYQG;2013-07-07 09:00;CYQG 070900Z 23005KT 6SM BR BKN008 OVC014 22/21 A3001 RMK SF6SC2 SLP159

CYQG;2013-07-07 10:00;CYQG 071000Z 24008KT 8SM BKN008 OVC033 22/20 A3001 RMK SF5SC3 SLP161

CYQG;2013-07-07 10:13;CYQG 071013Z 24007KT 8SM SCT009 BKN037 RMK SF3SC4

CYQG;2013-07-07 11:00;CYQG 071100Z 24006KT 10SM SCT017 BKN067 22/20 A3003 RMK SC3AC4 SLP166

CYQG;2013-07-07 11:51;CYQG 071151Z 23007KT 10SM SCT006 BKN090 RMK CU4AC3

CYQG;2013-07-07 12:00;CYQG 071200Z 23008KT 10SM SCT006 BKN011 BKN090 22/21 A3004 RMK CF3CU3AC1 SLP170

CYQG;2013-07-07 13:00;CYQG 071300Z 25010KT 10SM FEW008 BKN010 BKN035 23/20 A3004 RMK CF2CU4SC1 SLP172

CYQG;2013-07-07 13:52;CYQG 071352Z 25008KT 10SM SCT012 BKN022 RMK CU3CU4

CYQG;2013-07-07 14:00;CYQG 071400Z 25009KT 10SM SCT014 BKN022 24/21 A3004 RMK CU3CU4 SLP171

CYQG;2013-07-07 15:00;CYQG 071500Z 23008KT 10SM BKN015 BKN025 23/20 A3004 RMK CU6CU2 SLP170

CYQG;2013-07-07 15:14;CYQG 071514Z 22008KT 8SM BKN012 OVC025 RMK CU5CU2

CYQG;2013-07-07 15:43;CYQG 071543Z 22010KT 8SM VCSH SCT014 BKN029 RMK CU3CU4

CYQG;2013-07-07 15:49;CYQG 071549Z 22010KT 7SM -SHRA SCT014 OVC031 RMK CU3CU5 VIS 4 N

CYQG;2013-07-07 16:00;CYQG 071600Z 22010KT 8SM -SHRA SCT016 OVC034 24/20 A3004 RMK CU3CU5 SLP170

CYQG;2013-07-07 16:35;CYQG 071635Z 22011KT 8SM VCSH FEW015 BKN035 OVC052 RMK CU2CU3SC2

CYQG;2013-07-07 17:00;CYQG 071700Z 25010KT 7SM -SHRA FEW015 BKN038 OVC055 24/20 A3004 RMK CF2CU4SC2 SLP171

CYQG;2013-07-07 17:39;CYQG 071739Z 25010KT 8SM FEW025 BKN046 BKN065 RMK CU2CU4SC2

CYQG;2013-07-07 18:00;CYQG 071800Z 24008KT 8SM VCSH FEW025 BKN052 25/20 A3003 RMK CU2CU5 SLP166

CYQG;2013-07-07 18:26;CYQG 071826Z 22007KT 8SM -SHRA FEW025 OVC059 RMK CU2CU6

CYQG;2013-07-07 19:00;CYQG 071900Z 32003KT 10SM BKN025 OVC060 25/21 A3002 RMK CU6SC2 OCNL -SHRA SLP162

CYQG;2013-07-07 20:00;CYQG 072000Z 29002KT 12SM SCT024 BKN058 25/20 A3001 RMK CU3SC4 OCNL -SHRA SLP158

CYQG;2013-07-07 20:45;CYQG 072045Z 24006KT 12SM FEW024 BKN058 RMK CU2SC4

CYQG;2013-07-07 21:00;CYQG 072100Z 23006KT 15SM FEW024 BKN068 BKN270 26/20 A2998 RMK CU2AC3CI1 SLP151

CYQG;2013-07-07 22:00;CYQG 072200Z 23005KT 15SM FEW026 BKN270 27/19 A2997 RMK CU1CI2 SLP147

CYQG;2013-07-07 23:00;CYQG 072300Z 27011KT 15SM FEW035 FEW090 SCT270 26/19 A2998 RMK CU2AC1CI0 SLP148

CYQG;2013-07-08 00:00;CYQG 080000Z 26007KT 15SM FEW040 SCT110 BKN270 26/19 A2998 RMK CU1AC2CI0 SLP150

CYQG;2013-07-08 01:00;CYQG 080100Z 24006KT 15SM BKN100 BKN270 25/19 A3000 RMK AC5CI0 SLP157

CYQG;2013-07-08 02:00;CYQG 080200Z 24010KT 15SM BKN087 24/19 A3002 RMK AC6 SLP163

CYQG;2013-07-08 03:00;CYQG 080300Z 25008KT 15SM FEW040 BKN100 BKN120 24/19 A3002 RMK CU1AC4AC2 SLP164

CYQG;2013-07-08 03:12;CYQG 080312Z 22006KT 12SM -SHRA FEW035 OVC100 RMK CU2AC6

CYQG;2013-07-08 04:00;CYQG 080400Z 25006KT 15SM BKN090 OVC120 23/19 A3004 RMK AC6AC2 OCNL LTGIG DIST E SLP169

CYQG;2013-07-08 05:00;CYQG 080500Z 23005KT 15SM FEW050 OVC070 22/19 A3005 RMK SC2AC6 SLP173

CYQG;2013-07-08 05:24;CYQG 080524Z 17002KT 15SM -TSRA FEW048CB BKN075 OVC140 RMK CB2AC5AC2 OCNL LTGIC E-SE

CYQG;2013-07-08 06:00;CYQG 080600Z 18006KT 15SM TS FEW030 SCT050CB OVC075 21/19 A3005 RMK SC2CB2AC5 OCNL -SHRA SLP173

CYQG;2013-07-08 06:22;CYQG 080622Z 19007KT 15SM FEW030 FEW075 OVC170 RETS RMK SC2AC1AC6

CYQG;2013-07-08 07:00;CYQG 080700Z 22007KT 15SM BKN170 21/19 A3004 RETS RMK AC6 SLP170

CYQG;2013-07-08 08:00;CYQG 080800Z 26007KT 15SM BKN150 22/19 A3003 RMK AC7 SLP167

CYQG;2013-07-08 09:00;CYQG 080900Z 24007KT 15SM -SHRA OVC110 22/19 A3004 RMK AC8 SLP168

CYQG;2013-07-08 10:00;CYQG 081000Z 22003KT 15SM FEW110 BKN150 22/19 A3004 RMK AC2AC5 SLP169

CYQG;2013-07-08 11:00;CYQG 081100Z 22005KT 12SM FEW150 FEW280 22/19 A3004 RMK AC2CI1 CB TOPS DIST W SLP168

CYQG;2013-07-08 12:00;CYQG 081200Z 23008KT 7SM BKN110 BKN230 BKN270 23/20 A3005 RMK AC5CC1CI0 SLP174

CYQG;2013-07-08 13:00;CYQG 081300Z 20007KT 9SM SCT140 SCT210 SCT280 24/20 A3004 RMK AC3CC1CI1 TR CI SLP170

CYQG;2013-07-08 14:00;CYQG 081400Z 22006KT 8SM FEW019 BKN140 BKN280 24/20 A3005 RMK CU1AC7CI1 TR CU TR CI SLP173

CYQG;2013-07-08 15:00;CYQG 081500Z 22009KT 8SM BKN160 25/21 A3005 RMK AC7 SLP174

CYQG;2013-07-08 16:00;CYQG 081600Z 22011KT 8SM FEW100 BKN160 BKN290 26/22 A3005 RMK AC1AC6CI0 CONTRAILS SLP172

CYQG;2013-07-08 17:00;CYQG 081700Z 19011KT 9SM FEW160 FEW220 OVC260 27/22 A3004 RMK AC1CC1CS5 CONTRAILS HALO SLP171

CYQG;2013-07-08 18:00;CYQG 081800Z 19012KT 8SM FEW030 FEW130 OVC260 28/22 A3001 RMK CU1AC1CS5 CONTRAILS HALO SLP161

CYQG;2013-07-08 19:02;CYQG 081902Z 21019G24KT 1/2SM +TSRA OVC018CB RMK RA2CB6 FRQ LTGIC

CYQG;2013-07-08 19:19;CYQG 081919Z 17009G28KT 7SM -TSRA SCT020CB OVC100 RERA RMK CB4AC4

CYQG;2013-07-08 19:42;CYQG 081942Z 18006KT 6SM BR SCT020 OVC120 RETSRA RMK CU4AC4

CYQG;2013-07-08 20:00;CYQG 082000Z 20005KT 10SM FEW030 OVC120 23/21 A3001 RETSRA RMK CU2AC6 /R27/ SLP160

CYQG;2013-07-08 20:13;CYQG 082013Z 20007KT 10SM -SHRA FEW065 OVC130 RMK CU2AC6

CYQG;2013-07-08 20:32;CYQG 082032Z 31007KT 4SM -TSRA BR BKN023CB OVC130 RMK CB6AC2

CYQG;2013-07-08 20:38;CYQG 082038Z 33014KT 1SM +TSRA BR OVC023CB RMK RA4CB4

CYQG;2013-07-08 20:45;CYQG 082045Z 32006G16KT 2SM TSRA BR OVC029CB RMK FG2CB6

CYQG;2013-07-08 21:00;CYQG 082100Z 31004KT 3SM +TSRA BR OVC024CB 22/20 A3004 RMK FG2CB6 SLP171

CYQG;2013-07-08 21:06;CYQG 082106Z 27020KT 3/4SM +TSRA BR OVC024CB RMK RA3CB5

CYQG;2013-07-08 21:08;CYQG 082108Z 27013G24KT 5/8SM +TSRA BR OVC016CB RMK RA4CB4

CYQG;2013-07-08 21:16;CYQG 082116Z 27006G17KT 1 1/2SM TSRA BR OVC018CB RERA RMK FG2CB6

CYQG;2013-07-08 21:31;CYQG 082131Z 30002KT 4SM -SHRA BR BKN006 OVC024 RETSRA RMK CF5CU3

CYQG;2013-07-08 22:00;CYQG 082200Z 00000KT 6SM -SHRA BR SCT006 OVC033 21/21 A3003 RETSRA RMK CF3CU5 SLP166

CYQG;2013-07-08 22:37;CYQG 082237Z 21004KT 1SM +SHRA BR BKN015 OVC038 RMK RA2CU2CU3

CYQG;2013-07-08 23:00;CYQG 082300Z 15008KT 7SM -SHRA SCT030 OVC100 21/21 A3002 RERA RMK CU3AC5 SLP164

CYQG;2013-07-08 23:49;CYQG 082349Z 15003KT 10SM BKN055 OVC100 RMK SC6AC2

CYQG;2013-07-09 00:00;CYQG 090000Z 17004KT 10SM BKN065 OVC100 22/21 A3001 RMK SC6AC2 SLP159

CYQG;2013-07-09 01:00;CYQG 090100Z 18006KT 6SM BR VCSH OVC039 21/21 A3001 RMK SC8 SLP162

CYQG;2013-07-09 01:14;CYQG 090114Z 19009KT 6SM -SHRA BR FEW005 OVC046 RMK SF2SC6

CYQG;2013-07-09 01:52;CYQG 090152Z 18005KT 6SM BR FEW005 BKN042 OVC070 RMK SF2SC5AC2

CYQG;2013-07-09 02:00;CYQG 090200Z 18006KT 8SM BKN041 OVC070 22/21 A3001 RMK SC6AC2 SLP162

CYQG;2013-07-09 03:00;CYQG 090300Z 20009KT 10SM FEW050 SCT280 22/21 A3001 RMK SC2CI2 SLP160

CYQG;2013-07-09 04:00;CYQG 090400Z 18007KT 12SM SCT032 BKN070 22/21 A3001 RMK SC3AC4 SLP160

CYQG;2013-07-09 05:00;CYQG 090500Z 19007KT 8SM SCT026 OVC045 22/21 A3000 RMK SC3SC5 SLP156

CYQG;2013-07-09 06:00;CYQG 090600Z 20007KT 7SM SCT029 BKN040 22/22 A2999 RMK SC4SC3 SLP151

CYQG;2013-07-09 06:50;CYQG 090650Z 20005KT 5SM BR BKN006 OVC038 RMK SF5SC3

CYQG;2013-07-09 07:00;CYQG 090700Z 20005KT 5SM BR BKN006 OVC037 22/21 A2998 RMK SF7SC1 SLP149

CYQG;2013-07-09 07:28;CYQG 090728Z 21005KT 5SM BR BKN005 OVC038 RMK SF6SC2

CYQG;2013-07-09 08:00;CYQG 090800Z 21004KT 5SM BR BKN004 OVC028 22/21 A2998 RMK SF6SC2 SLP149

CYQG;2013-07-09 09:00;CYQG 090900Z 23002KT 4SM BR BKN004 OVC033 22/22 A2998 RMK SF5SC3 SLP150

CYQG;2013-07-09 09:22;CYQG 090922Z 23003KT 4SM BR FEW010 OVC036 RMK SC2SC6

CYQG;2013-07-09 10:00;CYQG 091000Z 24003KT 3SM BR BKN010 OVC036 22/22 A2998 RMK SC6SC2 SLP150

CYQG;2013-07-09 10:15;CYQG 091015Z 27003KT 2 1/2SM BR OVC007 RMK SF8

CYQG;2013-07-09 10:48;CYQG 091048Z 25003KT 2 1/2SM BR BKN005 OVC028 RMK SF7SC1

CYQG;2013-07-09 11:00;CYQG 091100Z 26003KT 2 1/2SM BR OVC005 23/22 A2998 RMK SF8 SLP152

CYQG;2013-07-09 11:26;CYQG 091126Z 30003KT 4SM BR OVC003 RMK SF8

CYQG;2013-07-09 12:00;CYQG 091200Z 29004KT 3SM BR OVC005 23/22 A2999 RMK SF8 SLP153

CYQG;2013-07-09 12:28;CYQG 091228Z 27004KT 4SM BR OVC005 RMK SF8

CYQG;2013-07-09 13:00;CYQG 091300Z 26003KT 4SM BR OVC004 23/22 A2999 RMK SF8 SLP155

CYQG;2013-07-09 13:39;CYQG 091339Z 30003KT 4SM BR OVC007 RMK SF8

CYQG;2013-07-09 14:00;CYQG 091400Z 29003KT 4SM BR OVC009 24/22 A2999 RMK SF8 SLP155

CYQG;2013-07-09 14:19;CYQG 091419Z 25002KT 4SM HZ OVC014 RMK SF8

CYQG;2013-07-09 15:00;CYQG 091500Z 23003KT 4SM HZ BKN013 25/22 A2999 RMK CU7 BRKSINC SLP153

CYQG;2013-07-09 16:00;CYQG 091600Z 26007KT 5SM HZ BKN016 26/22 A2998 RMK CU6 SLP151

CYQG;2013-07-09 17:00;CYQG 091700Z 26007KT 6SM HZ BKN022 27/22 A2998 RMK CU6 SLP150

CYQG;2013-07-09 18:00;CYQG 091800Z 24009KT 8SM BKN032 29/22 A2996 RMK CU6 SLP143

CYQG;2013-07-09 19:00;CYQG 091900Z 22012KT 12SM SCT030 BKN280 30/23 A2995 RMK CU3CI1 SLP139

CYQG;2013-07-09 20:00;CYQG 092000Z 20008KT 15SM BKN032 BKN280 29/24 A2993 RMK CU5CI1 SLP132

CYQG;2013-07-09 21:00;CYQG 092100Z 25006KT 15SM FEW035 BKN300 30/23 A2992 RMK CU2CI2 CONTRAILS SLP127

CYQG;2013-07-09 22:00;CYQG 092200Z 21010G15KT 12SM BKN042TCU BKN300 30/24 A2991 RMK TCU6CI1 SLP125

CYQG;2013-07-09 22:11;CYQG 092211Z 22017G22KT 12SM -SHRA BKN049TCU RMK TCU7

CYQG;2013-07-09 23:00;CYQG 092300Z 29009G18KT 12SM SCT050 BKN170 BKN300 25/20 A2990 RMK CU4AC2CI2 OCNL -SHRA SLP122

CYQG;2013-07-10 00:00;CYQG 100000Z 26006KT 12SM -SHRA SCT060 OVC140 25/21 A2990 RMK CU4AC4 SLP123

CYQG;2013-07-10 01:00;CYQG 100100Z 24005KT 10SM FEW040 BKN066 BKN150 24/22 A2991 RMK CU2SC4AC2 OCNL -SHRA SLP124

CYQG;2013-07-10 01:22;CYQG 100122Z 24006KT 15SM BKN096 RMK AC7

CYQG;2013-07-10 02:00;CYQG 100200Z 22006KT 15SM SCT090 OVC140 24/22 A2992 RMK AC3AC5 SLP129

CYQG;2013-07-10 03:00;CYQG 100300Z CCA 21010KT 15SM SCT065 OVC160 24/22 A2992 RMK SC3AC5 SLP129

CYQG;2013-07-10 03:45;CYQG 100345Z 21008KT 12SM -SHRA SCT060 OVC100 RMK SC3AC5

CYQG;2013-07-10 04:00;CYQG 100400Z 20007KT 12SM -SHRA FEW060 BKN140 23/22 A2990 RMK SC2AC6 SLP122

CYQG;2013-07-10 04:33;CYQG 100433Z 21010G19KT 2SM TSRA BR FEW037 BKN070CB OVC140 RMK SC2CB4AC2

CYQG;2013-07-10 05:00;CYQG 100500Z 24008G24KT 1 1/4SM +TSRA BR OVC025CB 21/21 A2989 RMK FG2CB6 SLP119

CYQG;2013-07-10 05:05;CYQG 100505Z 28004G17KT 2SM TSRA BR OVC026CB RERA RMK FG1CB7

CYQG;2013-07-10 05:40;CYQG 100540Z 14007KT 10SM OVC021 RETSRA RMK SC8 OCNL -SHRA

CYQG;2013-07-10 05:53;CYQG 100553Z 19006KT 12SM OVC012 RETSRA RMK SC8 OCNL LTGIC N-E

CYQG;2013-07-10 06:00;CYQG 100600Z 20007KT 15SM FEW011 OVC024 22/21 A2986 RETSRA RMK SC2SC6 OCNL LTGIC N-E /R31/ SLP107

CYQG;2013-07-10 07:00;CYQG 100700Z 20008KT 12SM FEW016 OVC027 23/22 A2986 RMK SC2SC6 SLP109

CYQG;2013-07-10 08:00;CYQG 100800Z 21006KT 12SM BKN028 23/22 A2985 RMK SC5 SLP104

CYQG;2013-07-10 09:00;CYQG 100900Z 23008KT 8SM FEW018 23/22 A2983 RMK SC1 SLP098

CYQG;2013-07-10 10:00;CYQG 101000Z 23006KT 5SM BR FEW022 23/22 A2983 RMK SC1 SLP099

CYQG;2013-07-10 11:00;CYQG 101100Z 24005KT 5SM BR FEW022 24/23 A2985 RMK SC1 SLP103

CYQG;2013-07-10 12:00;CYQG 101200Z 25008KT 5SM BR FEW022 FEW120 25/23 A2984 RMK CU1AC2 SLP101

CYQG;2013-07-10 13:00;CYQG 101300Z 25008KT 6SM HZ FEW012 FEW140 26/24 A2984 RMK CF1AC2 SLP101

CYQG;2013-07-10 14:00;CYQG 101400Z 26009KT 7SM BKN016 BKN160 27/23 A2985 RMK CU6AC1 SLP103

CYQG;2013-07-10 15:00;CYQG 101500Z 26007KT 7SM BKN016 BKN160 28/23 A2984 RMK CU5AC1 SLP100

CYQG;2013-07-10 16:00;CYQG 101600Z 23008KT 8SM SCT020 SCT160 SCT280 29/24 A2982 RMK CU3AC1CI1 SLP093

CYQG;2013-07-10 17:00;CYQG 101700Z 19012KT 7SM SCT022 SCT280 30/25 A2980 RMK CU4CI1 SLP087

CYQG;2013-07-10 17:25;CYQG 101725Z 21014KT 8SM -SHRA BKN023CB RMK CB7 TCU ASOCTD

CYQG;2013-07-10 17:46;CYQG 101746Z 21011KT 8SM -TSRA OVC020CB RMK CB8

CYQG;2013-07-10 18:00;CYQG 101800Z 21011KT 8SM TS BKN020CB OVC280 29/24 A2978 RMK CB7CI1 OCNL -SHRA CI ASOCTD W/CB SLP081

CYQG;2013-07-10 18:23;CYQG 101823Z 23007KT 8SM BKN020CB OVC280 RMK CB6CI2 OCNL -SHRA

CYQG;2013-07-10 19:00;CYQG 101900Z 25014G20KT 8SM SCT020CB BKN180 27/21 A2979 RETS RMK CB4AC2 OCNL -SHRA SLP083

CYQG;2013-07-10 19:47;CYQG 101947Z 29012KT 8SM SCT020CB BKN180 RMK CB4AC2

CYQG;2013-07-10 20:00;CYQG 102000Z 28015KT 12SM FEW028CB BKN180 BKN220 25/17 A2978 RMK CB2AC2CI2 SLP081

CYQG;2013-07-10 21:00;CYQG 102100Z 25013G18KT 12SM FEW028 BKN180 BKN220 25/19 A2978 RMK CU2AC3CI2 CB ASOCTD SLP082

CYQG;2013-07-10 22:00;CYQG 102200Z 25010KT 12SM SCT042 BKN180 BKN220 26/21 A2978 RMK CU3AC2CI2 SLP081

CYQG;2013-07-10 23:00;CYQG 102300Z 27008KT 12SM BKN045TCU BKN180 BKN220 27/22 A2980 RMK TCU5AC1CI2 CB ASOCTD SLP087

CYQG;2013-07-11 00:00;CYQG 110000Z 35010G17KT 12SM VCSH BKN043TCU BKN220 27/19 A2983 RMK TCU6CI1 CB ASOCTD SLP097

CYQG;2013-07-11 01:00;CYQG 110100Z 05011KT 12SM BKN038 BKN220 24/18 A2988 RMK CU6CI1 TCU ASOCTD SLP115

CYQG;2013-07-11 02:00;CYQG 110200Z 03009G15KT 15SM BKN053 BKN220 23/15 A2991 RMK CU6CI1 SLP123

CYQG;2013-07-11 03:00;CYQG 110300Z 01007KT 15SM BKN051 23/14 A2993 RMK SC6 SLP133

CYQG;2013-07-11 04:00;CYQG 110400Z 07005KT 15SM BKN057 21/18 A2995 RMK SC7 SLP138

CYQG;2013-07-11 05:00;CYQG 110500Z 05002KT 15SM SCT062 20/17 A2996 RMK SC3 SLP141

CYQG;2013-07-11 06:00;CYQG 110600Z 35005KT 15SM FEW067 20/17 A2996 RMK AC2 SLP142

CYQG;2013-07-11 07:00;CYQG 110700Z 34003KT 15SM FEW064 19/14 A2996 RMK SC2 SLP144

CYQG;2013-07-11 08:00;CYQG 110800Z 35004KT 15SM BKN068 19/14 A2998 RMK AC6 SLP150

CYQG;2013-07-11 09:00;CYQG 110900Z 35004KT 15SM SCT068 18/14 A2999 RMK AC3 SLP153

CYQG;2013-07-11 10:00;CYQG 111000Z 33002KT 15SM BKN070 18/14 A3001 RMK AC7 SLP160

CYQG;2013-07-11 11:00;CYQG 111100Z 36007KT 15SM BKN072 18/13 A3003 RMK AC5 SLP167

CYQG;2013-07-11 12:00;CYQG 111200Z 35004KT 15SM FEW070 19/12 A3004 RMK AC2 SLP171

CYQG;2013-07-11 13:00;CYQG 111300Z 36008KT 15SM FEW032 FEW070 20/12 A3005 RMK CU1AC1 SLP174

CYQG;2013-07-11 14:00;CYQG 111400Z 36006KT 15SM FEW036 21/12 A3006 RMK CF1 SLP176

CYQG;2013-07-11 15:00;CYQG 111500Z 36011KT 15SM SCT039 22/12 A3005 RMK CU3 SLP175

CYQG;2013-07-11 16:00;CYQG 111600Z 36009KT 15SM BKN049 23/13 A3006 RMK CU5 SLP176

CYQG;2013-07-11 17:00;CYQG 111700Z 05009KT 15SM BKN050 23/14 A3006 RMK CU5 SLP176

CYQG;2013-07-11 18:00;CYQG 111800Z 03007KT 15SM BKN050 24/13 A3005 RMK CU5 SLP174

CYQG;2013-07-11 19:00;CYQG 111900Z 04004KT 15SM SCT050 SCT090 24/13 A3004 RMK CU3AC1 SLP172

CYQG;2013-07-11 20:00;CYQG 112000Z 03004KT 15SM SCT050 SCT090 SCT280 25/14 A3004 RMK CU4AC1CI1 SLP172

CYQG;2013-07-11 21:00;CYQG 112100Z 06009KT 15SM FEW050 FEW090 25/13 A3004 RMK CU2AC1 SLP170

CYQG;2013-07-11 22:00;CYQG 112200Z 06012KT 15SM FEW050 FEW090 24/15 A3004 RMK CU2AC1 SLP170

CYQG;2013-07-11 23:00;CYQG 112300Z 05014KT 15SM FEW050 FEW090 FEW280 23/15 A3005 RMK CU1AC1CI1 SLP173

CYQG;2013-07-12 00:00;CYQG 120000Z 06011KT 15SM FEW050 FEW280 22/14 A3005 RMK CU1CI1 SLP175

CYQG;2013-07-12 01:00;CYQG 120100Z 06008KT 15SM FEW050 FEW280 20/14 A3005 RMK CU1CI1 SLP175

CYQG;2013-07-12 02:00;CYQG 120200Z 05008KT 15SM FEW280 19/14 A3006 RMK CI1 SLP178

CYQG;2013-07-12 03:00;CYQG 120300Z 05008KT 15SM SKC 18/14 A3007 RMK SLP183

CYQG;2013-07-12 04:00;CYQG 120400Z 05007KT 15SM SKC 18/14 A3008 RMK SLP185

CYQG;2013-07-12 05:00;CYQG 120500Z 01004KT 15SM FEW020 FEW260 17/14 A3009 RMK CU1CI1 TR CU SLP187

CYQG;2013-07-12 06:00;CYQG 120600Z 36005KT 15SM FEW020 FEW260 16/13 A3009 RMK CU1CI1 TR CU TR CI SLP187

CYQG;2013-07-12 07:00;CYQG 120700Z 35005KT 15SM FEW020 16/13 A3009 RMK CU1 TR CU SLP188

CYQG;2013-07-12 08:00;CYQG 120800Z 34005KT 15SM FEW020 15/13 A3008 RMK CU1 TR CU SLP186

CYQG;2013-07-12 09:00;CYQG 120900Z 34004KT 12SM FEW020 15/13 A3010 RMK CU1 TR CU SLP191

CYQG;2013-07-12 10:00;CYQG 121000Z 35006KT 12SM FEW030 15/13 A3012 RMK SC1 TR SC SLP199

CYQG;2013-07-12 11:00;CYQG 121100Z 36006KT 15SM FEW030 16/14 A3014 RMK SC1 TR SC SLP204

CYQG;2013-07-12 12:00;CYQG 121200Z 02007KT 15SM FEW015 18/14 A3015 RMK CF1 SLP209

CYQG;2013-07-12 13:00;CYQG 121300Z 02007KT 15SM FEW025 19/15 A3016 RMK CU2 SLP211

CYQG;2013-07-12 14:00;CYQG 121400Z 04009KT 15SM FEW025 21/16 A3016 RMK CF1 TR CF SLP213

CYQG;2013-07-12 15:00;CYQG 121500Z 07005KT 15SM FEW025 22/17 A3017 RMK CF1 SLP215

CYQG;2013-07-12 16:00;CYQG 121600Z 05006KT 15SM FEW030 23/17 A3016 RMK CU1 SLP211

CYQG;2013-07-12 17:00;CYQG 121700Z 04007KT 15SM FEW030 24/17 A3015 RMK CU2 SLP209

CYQG;2013-07-12 18:00;CYQG 121800Z 06007KT 15SM FEW040 25/15 A3014 RMK CU2 SLP203

CYQG;2013-07-12 19:00;CYQG 121900Z 06007KT 15SM FEW040 25/15 A3014 RMK CU2 SLP204

CYQG;2013-07-12 20:00;CYQG 122000Z 05007KT 15SM FEW040 26/15 A3013 RMK CU2 SLP200

CYQG;2013-07-12 21:00;CYQG 122100Z 04010KT 15SM FEW040 SCT070 26/16 A3013 RMK CU2AC2 SLP200

CYQG;2013-07-12 22:00;CYQG 122200Z CCA 05006KT 15SM FEW040 FEW076 26/16 A3012 RMK CU2AC1 SLP198

CYQG;2013-07-12 23:00;CYQG 122300Z 05007KT 15SM FEW040 FEW080 26/16 A3012 RMK CU2AC1 SLP199

CYQG;2013-07-13 00:00;CYQG 130000Z 07010KT 15SM FEW040 FEW080 25/16 A3013 RMK CU1AC1 SLP200

CYQG;2013-07-13 01:00;CYQG 130100Z 09006KT 15SM FEW040 FEW070 FEW280 24/17 A3014 RMK SC1AC1CI1 TR AC SLP203

CYQG;2013-07-13 02:00;CYQG 130200Z 08007KT 15SM FEW280 22/17 A3014 RMK CS1 SLP206

CYQG;2013-07-13 03:00;CYQG 130300Z 08007KT 15SM SKC 22/17 A3018 RMK SLP218

CYQG;2013-07-13 04:00;CYQG 130400Z 06005KT 15SM FEW280 21/17 A3016 RMK CI1 SLP211

CYQG;2013-07-13 05:00;CYQG 130500Z 05005KT 15SM FEW280 20/17 A3015 RMK CI1 SLP209

CYQG;2013-07-13 06:00;CYQG 130600Z 04005KT 15SM FEW270 19/17 A3015 RMK CI1 SLP209

CYQG;2013-07-13 07:00;CYQG 130700Z 06004KT 15SM FEW270 19/16 A3015 RMK CI1 TR CI SLP209

CYQG;2013-07-13 08:00;CYQG 130800Z 06005KT 15SM SKC 19/17 A3016 RMK SLP211

CYQG;2013-07-13 09:00;CYQG 130900Z 07005KT 15SM FEW270 19/17 A3017 RMK CI1 TR CI SLP214

CYQG;2013-07-13 10:00;CYQG 131000Z 08006KT 12SM FEW015 FEW270 19/17 A3017 RMK CU1CI1 TR CU SLP216

CYQG;2013-07-13 11:00;CYQG 131100Z 04005KT 15SM FEW015 FEW120 19/18 A3019 RMK CU1AC1 TR CU TR AC SLP222

CYQG;2013-07-13 12:00;CYQG 131200Z 07008KT 15SM FEW015 FEW120 22/19 A3020 RMK CU1AC1 SLP223

CYQG;2013-07-13 13:00;CYQG 131300Z 08008KT 15SM FEW015 FEW120 22/18 A3021 RMK CF1AC1 SLP227

CYQG;2013-07-13 14:00;CYQG 131400Z 10007KT 15SM FEW020 FEW120 23/16 A3021 RMK CU1AC1 TR AC SLP228

CYQG;2013-07-13 15:00;CYQG 131500Z 07006KT 15SM FEW025 FEW120 24/16 A3021 RMK CU1AC1 SLP227

CYQG;2013-07-13 16:00;CYQG 131600Z 03006KT 15SM FEW030 FEW280 25/18 A3021 RMK CU2CI1 TR CI SLP228

CYQG;2013-07-13 17:00;CYQG 131700Z 05008KT 15SM FEW035 FEW280 25/18 A3021 RMK CU2CI1 TR CI SLP229

CYQG;2013-07-13 18:00;CYQG 131800Z 05008KT 15SM FEW030 BKN280 26/19 A3021 RMK CU2CI1 SLP229

CYQG;2013-07-13 19:00;CYQG 131900Z 06006KT 15SM FEW030 BKN280 26/19 A3021 RMK CU2CI1 SLP228

CYQG;2013-07-13 20:00;CYQG 132000Z 07008KT 15SM FEW032 27/19 A3020 RMK CU2 SLP224

CYQG;2013-07-13 21:00;CYQG 132100Z 06007KT 15SM FEW034 FEW290 27/19 A3019 RMK CU2CI0 SLP221

CYQG;2013-07-13 22:00;CYQG 132200Z 07007KT 15SM FEW034 FEW290 27/19 A3019 RMK CU2CI1 SLP222

CYQG;2013-07-13 23:00;CYQG 132300Z 07007KT 15SM FEW035 FEW290 27/19 A3019 RMK CU2CI1 SLP220

CYQG;2013-07-14 00:00;CYQG 140000Z 07008KT 15SM FEW035 FEW290 26/19 A3019 RMK CU1CI1 SLP221

CYQG;2013-07-14 01:00;CYQG 140100Z 13005KT 15SM FEW290 24/19 A3020 RMK CI1 SLP223

CYQG;2013-07-14 02:00;CYQG 140200Z 08002KT 15SM FEW290 23/18 A3022 RMK CI1 SLP229

CYQG;2013-07-14 03:00;CYQG 140300Z 09003KT 15SM SKC 22/17 A3023 RMK SLP235

CYQG;2013-07-14 04:00;CYQG 140400Z 00000KT 15SM SKC 22/17 A3023 RMK SLP236

CYQG;2013-07-14 05:00;CYQG 140500Z 09003KT 15SM SKC 21/17 A3023 RMK SLP236

CYQG;2013-07-14 06:00;CYQG 140600Z 05004KT 15SM SKC 20/17 A3023 RMK SLP235

CYQG;2013-07-14 07:00;CYQG 140700Z 07002KT 15SM SKC 21/18 A3023 RMK SLP234

CYQG;2013-07-14 08:00;CYQG 140800Z 13003KT 15SM SKC 21/19 A3023 RMK SLP233

CYQG;2013-07-14 09:00;CYQG 140900Z 07002KT 12SM SKC 21/19 A3023 RMK SLP236

CYQG;2013-07-14 10:00;CYQG 141000Z 04004KT 10SM FEW270 20/18 A3026 RMK CI1 SLP243

CYQG;2013-07-14 11:00;CYQG 141100Z 06002KT 12SM FEW270 22/20 A3026 RMK CI1 TR CI SLP245

CYQG;2013-07-14 12:00;CYQG 141200Z 07005KT 15SM FEW020 24/21 A3027 RMK SC1 SLP247

CYQG;2013-07-14 13:00;CYQG 141300Z 07005KT 15SM FEW020 25/21 A3027 RMK SC1 TR SC SLP249

CYQG;2013-07-14 14:00;CYQG 141400Z 09004KT 15SM SKC 27/21 A3027 RMK SLP247

CYQG;2013-07-14 15:00;CYQG 141500Z 07004KT 15SM FEW024 28/21 A3026 RMK CU1 SLP246

CYQG;2013-07-14 16:00;CYQG 141600Z 06006KT 15SM BKN025 28/22 A3027 RMK CU5 SLP248

CYQG;2013-07-14 17:00;CYQG 141700Z 04003KT 15SM SCT030 29/21 A3027 RMK CU3 SLP247

CYQG;2013-07-14 18:00;CYQG 141800Z 04009KT 15SM FEW030 29/22 A3026 RMK CU2 SLP246

CYQG;2013-07-14 19:00;CYQG 141900Z 05007KT 15SM SCT035 30/22 A3026 RMK CU3 SLP244

CYQG;2013-07-14 20:00;CYQG 142000Z 06009KT 15SM FEW035 SCT050 30/22 A3025 RMK CU1SC3 SLP241

CYQG;2013-07-14 21:00;CYQG 142100Z 05007KT 15SM FEW035 BKN067 30/22 A3024 RMK CU1AC6 SLP238

CYQG;2013-07-14 22:00;CYQG 142200Z 06006KT 15SM FEW035TCU BKN068 30/21 A3024 RMK TCU1AC6 SLP238

CYQG;2013-07-14 23:00;CYQG 142300Z 13007KT 15SM FEW035TCU BKN070 30/22 A3024 RMK TCU1AC6 SLP237

CYQG;2013-07-15 00:00;CYQG 150000Z 13005KT 15SM FEW035 FEW070 29/21 A3024 RMK CU1AC1 SLP236

CYQG;2013-07-15 01:00;CYQG 150100Z 12005KT 15SM FEW075 27/21 A3025 RMK AC1 SLP239

CYQG;2013-07-15 02:00;CYQG 150200Z 13004KT 15SM FEW080 25/20 A3026 RMK AC1 SLP245

CYQG;2013-07-15 03:00;CYQG 150300Z 13003KT 15SM SKC 24/21 A3027 RMK SLP247

CYQG;2013-07-15 04:00;CYQG 150400Z 00000KT 15SM SKC 23/21 A3028 RMK SLP249

CYQG;2013-07-15 05:00;CYQG 150500Z 04002KT 15SM SKC 23/21 A3028 RMK SLP249

CYQG;2013-07-15 06:00;CYQG 150600Z 06002KT 15SM SKC 23/21 A3027 RMK SLP247

CYQG;2013-07-15 07:00;CYQG 150700Z 00000KT 15SM SKC 23/21 A3026 RMK SLP244

CYQG;2013-07-15 08:00;CYQG 150800Z 36002KT 15SM SKC 24/21 A3027 RMK SLP246

CYQG;2013-07-15 09:00;CYQG 150900Z 05003KT 12SM BKN080 23/21 A3027 RMK AC6 SLP248

CYQG;2013-07-15 10:00;CYQG 151000Z 08002KT 12SM BKN080 24/22 A3029 RMK AC7 SLP252

CYQG;2013-07-15 11:00;CYQG 151100Z 08003KT 12SM BKN082 24/22 A3030 RMK AC7 SLP257

CYQG;2013-07-15 12:00;CYQG 151200Z 08003KT 15SM FEW030 BKN087 25/22 A3031 RMK CU1AC6 SLP260

CYQG;2013-07-15 13:00;CYQG 151300Z 09003KT 15SM FEW040TCU BKN090 25/23 A3032 RMK TCU1AC6 ACC ASOCTD SLP262

CYQG;2013-07-15 14:00;CYQG 151400Z 12003KT 15SM FEW040TCU BKN093 26/23 A3032 RMK TCU1AC6 ACC ASOCTD TCU DIST N SLP262

CYQG;2013-07-15 15:00;CYQG 151500Z 00000KT 15SM FEW040 BKN095 28/24 A3032 RMK CU1AC5 SLP263

CYQG;2013-07-15 16:00;CYQG 151600Z 02002KT 15SM FEW040TCU SCT095 30/25 A3031 RMK TCU2AC1 SLP262

CYQG;2013-07-15 17:00;CYQG 151700Z 07007KT 15SM BKN035 30/23 A3030 RMK CU6 TCU ASOCTD SLP259

CYQG;2013-07-15 18:00;CYQG 151800Z 10004KT 15SM SCT060TCU 31/23 A3029 RMK TCU4 SLP253

CYQG;2013-07-15 19:00;CYQG 151900Z 17005KT 15SM BKN036 31/25 A3028 RMK CU6 TCU ASOCTD SLP250

CYQG;2013-07-15 20:00;CYQG 152000Z 14005KT 15SM BKN035TCU 32/24 A3026 RMK TCU5 SLP244

CYQG;2013-07-15 21:00;CYQG 152100Z 04009KT 15SM BKN042TCU BKN170 31/25 A3026 RMK TCU5AC1 SLP242

CYQG;2013-07-15 22:00;CYQG 152200Z 17005KT 15SM FEW042TCU SCT080 BKN180 30/22 A3025 RMK TCU2AC2AC2 SLP240

CYQG;2013-07-15 23:00;CYQG 152300Z 13004KT 15SM FEW052TCU BKN090 BKN190 30/22 A3025 RMK TCU2AC3AC2 SLP241

CYQG;2013-07-16 00:00;CYQG 160000Z 36007KT 15SM BKN040 BKN090 29/24 A3027 RMK SC6AC2 CB TOP DIST S SLP247

CYQG;2013-07-16 01:00;CYQG 160100Z 36004KT 15SM -SHRA BKN045TCU BKN080 27/23 A3026 RMK TCU6AC1 SLP245

CYQG;2013-07-16 02:00;CYQG 160200Z 33004KT 7SM -SHRA FEW023 OVC040 26/24 A3028 RMK CU2SC6 SLP250

CYQG;2013-07-16 02:14;CYQG 160214Z 31007KT 4SM TSRA BR OVC033CB RMK CB8

CYQG;2013-07-16 02:30;CYQG 160230Z 26014KT 1SM +TSRA BR OVC018CB RMK FG2CB6 FREQ LTGICCG ALQDS

CYQG;2013-07-16 02:40;CYQG 160240Z 17006KT 2SM TSRA BR OVC016CB RERA RMK FG1CB7

CYQG;2013-07-16 03:00;CYQG 160300Z 12008KT 2 1/2SM TSRA BR OVC028CB 24/23 A3031 RERA RMK FG1CB7 FREQ LTGICCG E SLP262

CYQG;2013-07-16 03:35;CYQG 160335Z 18006KT 4SM -TSRA BR OVC028CB RERA RMK CB8 LTGIC E

CYQG;2013-07-16 04:00;CYQG 160400Z 19005KT 5SM -TSRA BR OVC038CB 24/23 A3030 RERA RMK CB8 LTGIC E SLP258

CYQG;2013-07-16 04:46;CYQG 160446Z 21009KT 6SM -SHRA BR FEW038CB OVC110 RETS RMK CB2AC6

CYQG;2013-07-16 05:00;CYQG 160500Z 21007KT 8SM -SHRA FEW038CB OVC110 24/23 A3027 RETS RMK CB1AC7 /R60/ SLP249

CYQG;2013-07-16 05:38;CYQG 160538Z 19002KT 8SM OVC140 RMK AC8

CYQG;2013-07-16 06:00;CYQG 160600Z 00000KT 8SM OVC140 24/23 A3026 RMK AC8 SLP245

CYQG;2013-07-16 07:00;CYQG 160700Z 35003KT 12SM OVC098 25/24 A3028 RMK AC8 SLP250

CYQG;2013-07-16 08:00;CYQG 160800Z 00000KT 12SM OVC095 25/24 A3028 RMK AC8 SLP250

CYQG;2013-07-16 09:00;CYQG 160900Z 00000KT 12SM BKN120 OVC160 25/24 A3028 RMK AC7AC1 SLP251

CYQG;2013-07-16 10:00;CYQG 161000Z 00000KT 8SM SCT120 BKN160 BKN280 25/23 A3029 RMK AC4AC2CI1 SLP254

CYQG;2013-07-16 11:00;CYQG 161100Z 00000KT 6SM BR SCT130 BKN170 BKN280 25/24 A3031 RMK AC3AC2CI1 SLP259

CYQG;2013-07-16 12:00;CYQG 161200Z 11002KT 6SM BR SCT060 BKN170 26/24 A3032 RMK CU3AC4 SLP262

CYQG;2013-07-16 13:00;CYQG 161300Z 00000KT 6SM HZ SCT050 BKN110 BKN170 27/24 A3032 RMK CU4AC2AC2 SLP265

CYQG;2013-07-16 14:00;CYQG 161400Z 21002KT 7SM BKN051 BKN120 28/25 A3033 RMK CU6AC2 SLP266

CYQG;2013-07-16 15:00;CYQG 161500Z 34005KT 10SM BKN034 BKN170 30/24 A3032 RMK CU6AC2 SLP263

CYQG;2013-07-16 15:39;CYQG 161539Z 30005KT 10SM TS BKN029 BKN120 RMK CU5AC2 CB EMBD TS DIST SW

CYQG;2013-07-16 16:00;CYQG 161600Z 32004KT 10SM TS BKN050 BKN140 30/24 A3031 RMK CU6AC2 CB EMBD TS SW - S SLP260

CYQG;2013-07-16 16:30;CYQG 161630Z 35003KT 12SM SCT055 BKN300 RMK CU4CS2 CB TOPS OVHD

CYQG;2013-07-16 17:00;CYQG 161700Z 25003KT 12SM BKN034TCU BKN130 30/23 A3030 RETS RMK TCU6AC2 CB TOPS S SLP257

CYQG;2013-07-16 18:00;CYQG 161800Z 18009KT 12SM BKN037TCU BKN300 29/25 A3030 RMK TCU5CI2 CB TOPS ALQDS SLP256

CYQG;2013-07-16 19:00;CYQG 161900Z 27014KT 15SM TS VCSH BKN047CB BKN300 28/23 A3031 RMK CB6CI2 LTGCG N WIS 6 N SLP259

CYQG;2013-07-16 19:17;CYQG 161917Z 27009KT 8SM -TSRA BKN045CB BKN060 OVC300 RMK CB5SC2CI2 OCNL LTGICCG W-NW

CYQG;2013-07-16 19:50;CYQG 161950Z 27002KT 15SM -SHRA SCT045CB BKN090 BKN300 RETS RMK CB3AC2CI2

CYQG;2013-07-16 20:00;CYQG 162000Z 24003KT 15SM FEW045CB BKN090 BKN300 27/24 A3029 RETS RMK CB2AC3CI2 OCNL -SHRA SLP253

CYQG;2013-07-16 20:26;CYQG 162026Z 23004KT 15SM FEW045CB BKN075 BKN300 RMK CB2AC2CI2

CYQG;2013-07-16 21:00;CYQG 162100Z 23006KT 15SM FEW045CB SCT090 BKN290 28/25 A3027 RMK CB1AC3CI2 SLP247

CYQG;2013-07-16 22:00;CYQG 162200Z 23005KT 15SM FEW110 BKN290 28/25 A3026 RMK AC2CI4 CB TOPS DIST N-E SLP244

CYQG;2013-07-16 23:00;CYQG 162300Z 23005KT 15SM FEW100 BKN300 29/25 A3026 RMK AC2CI3 CB TOPS DIST N SLP243

CYQG;2013-07-17 00:00;CYQG 170000Z 22005KT 15SM FEW130 BKN300 29/25 A3026 RMK AC1CI4 SLP242

CYQG;2013-07-17 01:00;CYQG 170100Z 22003KT 15SM FEW140 BKN300 28/25 A3026 RMK AC1CI3 SLP244

CYQG;2013-07-17 02:00;CYQG 170200Z 00000KT 15SM BKN290 28/24 A3026 RMK CI3 SLP244

CYQG;2013-07-17 03:00;CYQG 170300Z 22003KT 15SM SCT290 27/24 A3026 RMK CI1 SLP244

CYQG;2013-07-17 04:00;CYQG 170400Z 22005KT 15SM FEW290 27/24 A3026 RMK CI1 SLP242

CYQG;2013-07-17 05:00;CYQG 170500Z 20003KT 15SM SKC 26/24 A3026 RMK SLP244

CYQG;2013-07-17 06:00;CYQG 170600Z 25002KT 15SM SKC 26/24 A3027 RMK SLP246

CYQG;2013-07-17 07:00;CYQG 170700Z 26006KT 15SM SKC 26/23 A3027 RMK SLP246

CYQG;2013-07-17 08:00;CYQG 170800Z CCA 27005KT 12SM SKC 26/23 A3026 RMK SLP244

CYQG;2013-07-17 09:00;CYQG 170900Z 25004KT 12SM FEW290 25/22 A3027 RMK CI1 SLP246

CYQG;2013-07-17 10:00;CYQG 171000Z 28003KT 8SM BKN290 25/22 A3028 RMK CI2 SLP249

CYQG;2013-07-17 11:00;CYQG 171100Z 25002KT 8SM FEW290 25/22 A3029 RMK CI1 SLP254

CYQG;2013-07-17 12:00;CYQG 171200Z 25004KT 8SM SCT290 27/23 A3029 RMK CI1 SLP255

CYQG;2013-07-17 13:00;CYQG 171300Z 29007KT 8SM FEW300 28/23 A3029 RMK CI1 SLP255

CYQG;2013-07-17 14:00;CYQG 171400Z 29006KT 15SM FEW300 30/24 A3028 RMK CI1 SLP251

CYQG;2013-07-17 15:00;CYQG 171500Z 29006KT 15SM FEW030 31/24 A3027 RMK CF1 TR CF SLP247

CYQG;2013-07-17 16:00;CYQG 171600Z 31004KT 15SM BKN037TCU 32/23 A3026 RMK TCU7 SLP244

CYQG;2013-07-17 16:50;CYQG 171650Z 24007KT 15SM -SHRA BKN039TCU RMK TCU7

CYQG;2013-07-17 17:00;CYQG 171700Z 23005KT 15SM -SHRA BKN040TCU 30/22 A3026 RMK TCU6 SLP241

CYQG;2013-07-17 17:18;CYQG 171718Z 23006KT 15SM BKN050TCU RMK TCU6

CYQG;2013-07-17 18:00;CYQG 171800Z 18006KT 15SM BKN040TCU 32/25 A3024 RMK TCU6 CB TOPS E SLP236

CYQG;2013-07-17 19:00;CYQG 171900Z 17007KT 15SM BKN050TCU 31/26 A3022 RMK TCU6 SLP230

CYQG;2013-07-17 20:00;CYQG 172000Z 20011KT 15SM FEW045TCU SCT300 33/25 A3020 RMK TCU2CI1 CB TOPS DIST N AND S SLP222

CYQG;2013-07-17 21:00;CYQG 172100Z 22008KT 15SM FEW050TCU SCT300 33/25 A3017 RMK TCU2CI1 CB TOP DIST S SLP213

CYQG;2013-07-17 22:00;CYQG 172200Z 22007KT 15SM BKN043TCU BKN300 32/25 A3017 RMK TCU6CI1 SLP210

CYQG;2013-07-17 23:00;CYQG 172300Z 30010KT 15SM FEW045TCU SCT300 33/24 A3016 RMK TCU1CI2 CB TOPS DIST N AND S SLP208

CYQG;2013-07-18 00:00;CYQG 180000Z 27007KT 15SM FEW045TCU SCT300 32/24 A3016 RMK TCU1CI2 CB TOPS DIST N SLP208

CYQG;2013-07-18 01:00;CYQG 180100Z 29005KT 15SM FEW050TCU FEW300 31/22 A3017 RMK TCU1CI2 CB TOP DIST NE SLP211

CYQG;2013-07-18 02:00;CYQG 180200Z 28007KT 15SM FEW300 30/23 A3017 RMK CI1 SLP212

CYQG;2013-07-18 03:00;CYQG 180300Z 28004KT 15SM SKC 29/23 A3017 RMK SLP210

CYQG;2013-07-18 04:00;CYQG 180400Z 22006KT 15SM SKC 28/23 A3017 RMK SLP212

CYQG;2013-07-18 05:00;CYQG 180500Z 25004KT 15SM SKC 27/23 A3017 RMK SLP210

CYQG;2013-07-18 06:00;CYQG 180600Z 25003KT 15SM SKC 27/23 A3016 RMK SLP207

CYQG;2013-07-18 07:00;CYQG 180700Z 27006KT 15SM SKC 26/23 A3015 RMK SLP205

CYQG;2013-07-18 08:00;CYQG 180800Z 27005KT 15SM SKC 26/23 A3015 RMK SLP205

CYQG;2013-07-18 09:00;CYQG 180900Z 26005KT 15SM SKC 26/22 A3015 RMK SLP204

CYQG;2013-07-18 10:00;CYQG 181000Z 24003KT 10SM FEW140 25/22 A3014 RMK AC1 SLP203

CYQG;2013-07-18 11:00;CYQG 181100Z 22004KT 10SM FEW140 FEW280 25/22 A3015 RMK AC1CI0 SLP206

CYQG;2013-07-18 12:00;CYQG 181200Z CCA 23005KT 12SM FEW280 26/23 A3015 RMK CI1 SLP205

CYQG;2013-07-18 13:00;CYQG 181300Z 24003KT 12SM FEW280 28/23 A3015 RMK CI1 SLP205

CYQG;2013-07-18 14:00;CYQG 181400Z 25003KT 15SM FEW300 29/23 A3014 RMK CI1 SLP200

CYQG;2013-07-18 15:00;CYQG 181500Z 22004KT 15SM FEW090 FEW300 31/24 A3013 RMK AC1CI1 TR AC TR CI SLP199

CYQG;2013-07-18 16:00;CYQG 181600Z 23007KT 15SM SCT040 32/24 A3013 RMK CU3 TCU ASOCTD SLP197

CYQG;2013-07-18 17:00;CYQG 181700Z 20006KT 15SM BKN070 32/25 A3011 RMK CU5 TCU ASOCTD SLP191

CYQG;2013-07-18 17:12;CYQG 181712Z 23006KT 12SM -TSRA BKN043 RMK CU6 CB EMBD

CYQG;2013-07-18 17:30;CYQG 181730Z 29015G30KT 3/4SM +TSRA BKN034CB RMK RA3CB4 VIS 8 SE

CYQG;2013-07-18 17:33;CYQG 181733Z 28017G30KT 1/2SM +TSRA OVC025CB RMK RA4CB4 FQT LTGIC ALQDS

CYQG;2013-07-18 17:40;CYQG 181740Z 24006G18KT 3SM TSRA SCT027 BKN047CB RERA RMK CU3CB4 LTGICCG

CYQG;2013-07-18 17:49;CYQG 181749Z 16004KT 8SM -TSRA BKN045CB RERA RMK CB7

CYQG;2013-07-18 18:00;CYQG 181800Z 16007KT 10SM -TSRA BKN044TCU BKN300 24/21 A3010 RERA RMK TCU6CI2 CB EMBD /R13/ PRESFR SLP190

CYQG;2013-07-18 18:22;CYQG 181822Z 17007KT 12SM BKN050TCU BKN300 RETS RMK TCU5CI2 MAMMATUS OVHD

CYQG;2013-07-18 19:00;CYQG 181900Z 20007KT 15SM SCT050TCU BKN280 26/24 A3009 RETS RMK TCU4CI2 SLP185

CYQG;2013-07-18 20:00;CYQG 182000Z 20009KT 12SM FEW050TCU BKN290 30/24 A3006 RMK TCU1CI2 CONTRAILS SLP176

CYQG;2013-07-18 21:00;CYQG 182100Z 20011KT 10SM FEW050TCU BKN290 32/25 A3003 RMK TCU2CI2 SLP165

CYQG;2013-07-18 22:00;CYQG 182200Z 19007KT 10SM TS SCT030CB BKN055TCU BKN290 30/24 A3000 RMK CB3TCU2CI1 CB W MOVG E OCNL LTGCG SLP155

CYQG;2013-07-18 22:12;CYQG 182212Z 22007KT 12SM -TSRA SCT030CB BKN055TCU BKN290 RMK CB4TCU1CI1 CB N AND CB W OCNL LTGCG

CYQG;2013-07-18 22:52;CYQG 182252Z 20008KT 12SM -SHRA FEW030CB SCT060TCU BKN130 BKN290 RETS RMK CB1TCU3AC2CI1 CB SE MOVG E

CYQG;2013-07-18 23:00;CYQG 182300Z 20006KT 12SM -SHRA FEW030CB FEW060TCU SCT130 BKN290 26/23 A3001 RETS RMK CB1TCU1AC2CI3 CB E MOVG E SLP157

CYQG;2013-07-18 23:25;CYQG 182325Z 22006KT 12SM FEW060TCU BKN280 RMK TCU2CI5 CU ASOCTD

CYQG;2013-07-19 00:00;CYQG 190000Z 22006KT 10SM FEW060TCU BKN280 29/23 A2999 RMK TCU1CI6 SLP153

CYQG;2013-07-19 01:00;CYQG 190100Z 20006KT 12SM FEW060TCU BKN280 28/24 A2998 RMK TCU1CI2 TR TCU SLP148

CYQG;2013-07-19 02:00;CYQG 190200Z 20006KT 15SM FEW280 28/24 A2998 RMK CI1 SLP150

CYQG;2013-07-19 03:00;CYQG 190300Z 21006KT 15SM SKC 27/24 A2999 RMK SLP150

CYQG;2013-07-19 04:00;CYQG 190400Z 20006KT 15SM SKC 27/24 A2998 RMK SLP148

CYQG;2013-07-19 05:00;CYQG 190500Z 23006KT 15SM SKC 27/23 A2998 RMK SLP147

CYQG;2013-07-19 06:00;CYQG 190600Z 23007KT 15SM SKC 27/23 A2996 RMK SLP142

CYQG;2013-07-19 07:00;CYQG 190700Z 24007KT 15SM SKC 27/23 A2995 RMK SLP137

CYQG;2013-07-19 08:00;CYQG 190800Z 23008KT 12SM SKC 26/23 A2993 RMK SLP131

CYQG;2013-07-19 09:00;CYQG 190900Z 23006KT 12SM SKC 25/22 A2992 RMK SLP126

CYQG;2013-07-19 10:00;CYQG 191000Z 23008KT 6SM HZ FEW020 25/22 A2992 RMK SC1 SLP126

CYQG;2013-07-19 11:00;CYQG 191100Z 23009KT 10SM SKC 26/23 A2992 RMK SLP127

CYQG;2013-07-19 12:00;CYQG 191200Z 23008KT 10SM SKC 27/23 A2992 RMK SLP127

CYQG;2013-07-19 13:00;CYQG 191300Z 25013KT 15SM SKC 28/23 A2992 RMK SLP128

CYQG;2013-07-19 14:00;CYQG 191400Z 23014KT 15SM SKC 29/23 A2992 RMK SLP126

CYQG;2013-07-19 15:00;CYQG 191500Z 25012G18KT 15SM FEW030 30/24 A2990 RMK CF1 TR CF SLP122

CYQG;2013-07-19 16:00;CYQG 191600Z 23016KT 15SM FEW030 31/24 A2989 RMK CU2 SLP117

CYQG;2013-07-19 17:00;CYQG 191700Z 24014G20KT 15SM BKN043 32/24 A2986 RMK CU5 SLP109

CYQG;2013-07-19 18:00;CYQG 191800Z 24018G24KT 15SM BKN055 33/23 A2984 RMK CU5 SLP099

CYQG;2013-07-19 19:00;CYQG 191900Z 25017G24KT 15SM SCT050 BKN300 34/22 A2980 RMK CU4CI1 SLP087

CYQG;2013-07-19 20:00;CYQG 192000Z 24019G24KT 15SM FEW052 SCT300 34/22 A2978 RMK CU2CI1 SLP079

CYQG;2013-07-19 21:00;CYQG 192100Z 24014G25KT 12SM SCT052 SCT300 34/22 A2977 RMK CU4CI1 TR CI SLP075

CYQG;2013-07-19 22:00;CYQG 192200Z 24015G21KT 12SM SCT056 SCT300 33/22 A2976 RMK CU4CI1 TCU ASOCTD TR CI SLP072

CYQG;2013-07-19 23:00;CYQG 192300Z 24014G19KT 12SM SCT058 SCT300 33/22 A2975 RMK CU4CI1 DIST SHRA N-NE TR CI SLP070

CYQG;2013-07-19 23:16;CYQG 192316Z 34010KT 10SM TS FEW035CB BKN058 RMK CB2CU4 CB W MOVG E CB NE MOVG E FRQ LTGCG

CYQG;2013-07-19 23:48;CYQG 192348Z 25005KT 8SM -SHRA SCT035CB BKN060 BKN300 RETS RMK CB3CU2CI1 CB E MOVG E

CYQG;2013-07-20 00:00;CYQG 200000Z 27005KT 10SM -SHRA FEW035CB BKN060 BKN300 31/22 A2976 RETS RMK CB2CU3CI2 CB E MOVG E SLP074

CYQG;2013-07-20 00:05;CYQG 200005Z 25003KT 10SM -TSRA SCT035CB BKN058 BKN280 RMK CB4CU2CI1 CB N MOVG E

CYQG;2013-07-20 00:22;CYQG 200022Z 28006KT 2SM +TSRA OVC038CB RMK CB8 FRQ LTGCG

CYQG;2013-07-20 00:32;CYQG 200032Z 22017KT 8SM -TSRA BKN040CB BKN280 RERA RMK CB6CI1 CB NE MOVG E

CYQG;2013-07-20 01:00;CYQG 200100Z 21020G28KT 3SM TSRA OVC040CB 28/22 A2975 RERA RMK CB8 CB ALL QUADS FRQ LTGCG SLP070

CYQG;2013-07-20 01:13;CYQG 200113Z 27016G25KT 1/2SM +TSRA OVC040CB RMK RA4CB4 CB ALL QUADS FRQ LTGIC

CYQG;2013-07-20 01:22;CYQG 200122Z 22023G34KT 3SM -TSRA OVC035CB RERA RMK CB8 CB ALL QUADS FRQ LTGCG VIS 1/2 MILE E-SE

CYQG;2013-07-20 02:00;CYQG 200200Z 21009G18KT 12SM -TSRA BKN050CB 24/22 A2975 RERA RMK CB7 FRQ LTGIC NE-W /R26/ SLP071

CYQG;2013-07-20 02:20;CYQG 200220Z 21012G21KT 12SM TS OVC042CB RMK CB8 FRQ LTGIC E-SW

CYQG;2013-07-20 02:52;CYQG 200252Z 20004KT 15SM FEW042CB SCT062 OVC240 RETS RMK CB1CU2CI5 DIST LTGIC E-SE

CYQG;2013-07-20 03:00;CYQG 200300Z 20003KT 15SM FEW042CB SCT062 OVC240 23/22 A2975 RETS RMK CB1CU2CI5 DIST FRQ LTGIC E-SE SLP071

CYQG;2013-07-20 04:00;CYQG 200400Z 20007KT 15SM FEW040 BKN084 24/21 A2975 RMK SC1AC5 DIST FRQ LTGIC E-SE OCNL LTGCG E CB ASOCTD SLP070

CYQG;2013-07-20 04:54;CYQG 200454Z 28018KT 12SM -TSRA BKN021 OVC071 RMK SC6AC2 LTGICCG CB ASOCTD

CYQG;2013-07-20 05:08;CYQG 200508Z 27025G32KT 4SM +TSRA OVC023CB RMK CB8 FQT LTGICCG

CYQG;2013-07-20 05:24;CYQG 200524Z 23017G22KT 7SM TSRA SCT019 OVC031CB RERA RMK SC3CB5 FQT LTGICCG ALQDS

CYQG;2013-07-20 06:00;CYQG 200600Z 28009G18KT 8SM TSRA BKN051 OVC091 22/21 A2977 RERA RMK SC5AC3 FQT LTGICCG ALQDS CB ASOCTD SLP076

CYQG;2013-07-20 06:14;CYQG 200614Z 25011KT 7SM -TSRA OVC053 RERA RMK SC8 LTGICCG CB ASOCTD

CYQG;2013-07-20 07:00;CYQG 200700Z 27006KT 7SM -TSRA BKN054 OVC140 22/20 A2976 RERA RMK SC7AC1 LTGICCG CB ASOCTD SLP073

CYQG;2013-07-20 08:00;CYQG 200800Z 25002KT 10SM -TSRA BKN036 OVC150 22/20 A2976 RMK SC7AC1 LTGICCG CB ASOCTD SLP073

CYQG;2013-07-20 09:00;CYQG 200900Z 20005KT 10SM TS SCT035 BKN150 22/21 A2976 RMK SC3AC3 OCNL LTGIC CB ASOCTD OCNL -SHRA SLP074

CYQG;2013-07-20 09:21;CYQG 200921Z 20004KT 10SM FEW035 BKN097 RETS RMK SC2AC4

CYQG;2013-07-20 10:00;CYQG 201000Z 26002KT 12SM BKN016 OVC038 22/21 A2977 RETS RMK SC6SC2 SLP077

CYQG;2013-07-20 11:00;CYQG 201100Z 25002KT 10SM OVC016 22/21 A2981 RMK SC8 SLP090

CYQG;2013-07-20 11:19;CYQG 201119Z 00000KT 12SM OVC012 RMK SC8

CYQG;2013-07-20 12:00;CYQG 201200Z 02003KT 15SM OVC011 23/21 A2983 RMK SC8 SLP097

CYQG;2013-07-20 12:40;CYQG 201240Z 36002KT 15SM OVC016 RMK SC8

CYQG;2013-07-20 13:00;CYQG 201300Z 03004KT 15SM OVC019 23/20 A2984 RMK SC8 SLP102

CYQG;2013-07-20 14:00;CYQG 201400Z 00000KT 15SM BKN026 23/19 A2986 RMK SC7 SLP106

CYQG;2013-07-20 15:00;CYQG 201500Z 00000KT 15SM FEW026 SCT300 25/20 A2985 RMK SC2CI1 SLP105

CYQG;2013-07-20 16:00;CYQG 201600Z 32004KT 15SM FEW028 FEW050 BKN300 26/19 A2985 RMK CU1SC1CI1 SLP105

CYQG;2013-07-20 17:00;CYQG 201700Z 19002KT 15SM FEW039 SCT220 BKN290 28/19 A2985 RMK CU1CI3CI1 SLP104

CYQG;2013-07-20 18:00;CYQG 201800Z 30007KT 15SM FEW050 BKN280 29/18 A2985 RMK CU2CI1 SLP104

CYQG;2013-07-20 19:00;CYQG 201900Z 35005KT 15SM FEW053 BKN280 30/17 A2984 RMK CU2CI1 SLP101

CYQG;2013-07-20 20:00;CYQG 202000Z 09008KT 15SM SCT060 BKN300 28/18 A2983 RMK CU3CI2 SLP098

CYQG;2013-07-20 21:00;CYQG 202100Z 10006KT 15SM BKN065 BKN300 28/18 A2984 RMK CU5CI2 SLP103

CYQG;2013-07-20 22:00;CYQG 202200Z 10006KT 15SM BKN062 BKN100 BKN300 28/19 A2985 RMK CU5AC1CI2 SLP105

CYQG;2013-07-20 23:00;CYQG 202300Z 09004KT 15SM BKN080 BKN300 27/19 A2985 RMK CU5CI2 SLP104

CYQG;2013-07-21 00:00;CYQG 210000Z 14002KT 15SM BKN094 BKN300 27/20 A2986 RMK AC6CI1 SLP109

CYQG;2013-07-21 00:48;CYQG 210048Z 03010KT 15SM -SHRA BKN055 BKN095 RMK CU6AC2

CYQG;2013-07-21 01:00;CYQG 210100Z 05007KT 12SM -SHRA BKN059 BKN095 25/19 A2989 RMK CU6AC2 SLP119

CYQG;2013-07-21 01:32;CYQG 210132Z 17005KT 12SM SCT060 BKN130 RMK CU3AC3 ACC ASOCTD N

CYQG;2013-07-21 02:00;CYQG 210200Z 16004KT 15SM SCT064 BKN110 BKN300 21/19 A2991 RMK CU4AC2CI1 SLP126

CYQG;2013-07-21 03:00;CYQG 210300Z 00000KT 15SM SCT120 BKN300 21/18 A2993 RMK AC3CI2 SLP132

CYQG;2013-07-21 04:00;CYQG 210400Z 05005KT 15SM FEW120 22/19 A2994 RMK AC1 SLP135

CYQG;2013-07-21 05:00;CYQG 210500Z 05008KT 15SM FEW120 21/19 A2994 RMK AC2 SLP136

CYQG;2013-07-21 06:00;CYQG 210600Z 04007KT 15SM FEW120 SCT270 20/17 A2995 RMK AC1CI2 SLP139

CYQG;2013-07-21 07:00;CYQG 210700Z 05009KT 15SM FEW120 BKN270 20/16 A2995 RMK AC1CI5 SLP137

CYQG;2013-07-21 08:00;CYQG 210800Z 05008KT 15SM FEW120 BKN270 20/15 A2995 RMK AC1CI5 SLP138

CYQG;2013-07-21 09:00;CYQG 210900Z 05007KT 15SM SCT160 BKN270 20/14 A2995 RMK AC4CI1 SLP141

CYQG;2013-07-21 10:00;CYQG 211000Z 04007KT 15SM FEW110 SCT170 BKN270 19/15 A2997 RMK AC1AC3CI1 SLP146

CYQG;2013-07-21 11:00;CYQG 211100Z 02004KT 15SM SCT120 SCT170 BKN270 19/15 A2998 RMK AC3AC1CI1 SLP149

CYQG;2013-07-21 12:00;CYQG 211200Z 36003KT 15SM FEW120 BKN150 19/14 A3001 RMK AC2AC5 SLP158

CYQG;2013-07-21 13:00;CYQG 211300Z 06007KT 15SM FEW080 FEW160 21/15 A3000 RMK AC1AC1 SLP157

CYQG;2013-07-21 14:00;CYQG 211400Z 06008KT 15SM FEW160 FEW290 22/15 A3001 RMK AC1CI1 SLP158

CYQG;2013-07-21 15:00;CYQG 211500Z 05006KT 15SM BKN290 23/15 A3002 RMK CI2 SLP163

CYQG;2013-07-21 16:00;CYQG 211600Z 05005KT 15SM FEW030 BKN300 23/16 A3002 RMK CU1CI2 SLP165

CYQG;2013-07-21 17:00;CYQG 211700Z 03003KT 15SM FEW030 BKN300 24/18 A3001 RMK CU1CI3 SLP161

CYQG;2013-07-21 18:00;CYQG 211800Z 04005KT 15SM FEW035 BKN300 25/18 A3000 RMK CU1CI2 SLP157

CYQG;2013-07-21 19:00;CYQG 211900Z 11005KT 15SM FEW035 BKN300 26/18 A2999 RMK CU1CI2 SLP154

CYQG;2013-07-21 20:00;CYQG 212000Z 06006KT 15SM FEW035 BKN300 26/17 A2998 RMK CU1CI2 SLP151

CYQG;2013-07-21 21:00;CYQG 212100Z 08004KT 15SM FEW035 BKN300 26/17 A2997 RMK CU1CI4 SLP146

CYQG;2013-07-21 22:00;CYQG 212200Z 09007KT 15SM FEW035 BKN300 26/17 A2995 RMK CU1CI4 SLP140

CYQG;2013-07-21 23:00;CYQG 212300Z 07006KT 15SM FEW035 SCT300 25/17 A2995 RMK CU1CI3 SLP139

CYQG;2013-07-22 00:00;CYQG 220000Z 09005KT 15SM FEW035 FEW300 25/17 A2995 RMK CU1CI2 SLP139

CYQG;2013-07-22 01:00;CYQG 220100Z 09003KT 15SM FEW150 BKN300 24/17 A2996 RMK AC2CI2 SLP142

CYQG;2013-07-22 02:00;CYQG 220200Z 09002KT 15SM FEW280 SCT300 23/17 A2997 RMK CC1CI2 SLP145

CYQG;2013-07-22 03:00;CYQG 220300Z 14003KT 15SM SCT280 21/18 A2997 RMK CI2 SLP147

CYQG;2013-07-22 04:00;CYQG 220400Z 13003KT 15SM BKN190 21/18 A2998 RMK AC6 SLP148

CYQG;2013-07-22 05:00;CYQG 220500Z 09003KT 15SM BKN190 21/18 A2997 RMK AC7 SLP146

CYQG;2013-07-22 06:00;CYQG 220600Z 07003KT 15SM BKN190 21/18 A2996 RMK AC7 SLP144

CYQG;2013-07-22 07:00;CYQG 220700Z 09005KT 15SM FEW120 OVC190 21/18 A2995 RMK AC1AC7 SLP138

CYQG;2013-07-22 08:00;CYQG 220800Z 08003KT 15SM FEW120 OVC220 21/18 A2993 RMK AC1CI7 SLP134

CYQG;2013-07-22 09:00;CYQG 220900Z 09004KT 15SM FEW100 BKN160 20/18 A2991 RMK AC1AC6 SLP127

CYQG;2013-07-22 10:00;CYQG 221000Z 00000KT 15SM FEW012 BKN130 20/18 A2992 RMK CF1AC7 SLP131

CYQG;2013-07-22 11:00;CYQG 221100Z 09002KT 15SM FEW012 BKN140 BKN260 20/18 A2992 RMK CF1AC6CI1 SLP130

CYQG;2013-07-22 11:42;CYQG 221142Z 07003KT 15SM -SHRA BKN120 OVC190 RMK AC6AC2

CYQG;2013-07-22 12:00;CYQG 221200Z 09003KT 15SM -SHRA BKN120 OVC190 21/19 A2992 RMK AC6AC2 SLP129

CYQG;2013-07-22 12:25;CYQG 221225Z 11003KT 15SM BKN130 BKN210 RMK AC6CI2

CYQG;2013-07-22 13:00;CYQG 221300Z 13002KT 15SM FEW025 BKN130 22/20 A2991 RMK CF1AC7 SLP127

CYQG;2013-07-22 14:00;CYQG 221400Z 12008KT 15SM OVC120 23/20 A2989 RMK AC8 SLP121

CYQG;2013-07-22 14:47;CYQG 221447Z 13007KT 15SM -SHRA FEW025 OVC120 RMK CF1AC7

CYQG;2013-07-22 15:00;CYQG 221500Z 13007KT 15SM -SHRA FEW025 SCT050 OVC120 23/21 A2990 RMK CF1SC2AC5 SLP122

CYQG;2013-07-22 16:00;CYQG 221600Z 14006KT 15SM -SHRA FEW025 SCT036 OVC130 24/21 A2990 RMK CU1SC4AC4 SLP122

CYQG;2013-07-22 17:00;CYQG 221700Z 16005KT 15SM -SHRA FEW016 BKN042 OVC110 24/20 A2989 RMK CF1SC5AC2 SLP121

CYQG;2013-07-22 18:00;CYQG 221800Z 16002KT 15SM -SHRA FEW017 BKN048 OVC110 23/20 A2989 RMK CF1SC6AC2 SLP119

CYQG;2013-07-22 19:00;CYQG 221900Z 11005KT 15SM -SHRA FEW017 BKN040 OVC110 24/20 A2986 RMK CF1SC6AC1 SLP111

CYQG;2013-07-22 19:25;CYQG 221925Z 12005KT 15SM FEW017 OVC120 RMK CU1AC8

CYQG;2013-07-22 20:00;CYQG 222000Z 17004KT 15SM FEW120 BKN180 25/17 A2985 RMK AC2AC6 SLP105

CYQG;2013-07-22 21:00;CYQG 222100Z 00000KT 15SM FEW020 FEW120 FEW200 BKN280 25/19 A2983 RMK CU1AC1CC2CI3 SLP099

CYQG;2013-07-22 22:00;CYQG 222200Z 09003KT 15SM FEW020 FEW120 FEW200 BKN280 26/17 A2981 RMK CU1AC1CC2CI2 SLP093

CYQG;2013-07-22 23:00;CYQG 222300Z 10005KT 15SM FEW020TCU FEW200 FEW280 26/18 A2980 RMK TCU1CC1CI1 SLP087

CYQG;2013-07-23 00:00;CYQG 230000Z 09003KT 15SM FEW020TCU FEW280 25/20 A2979 RMK TCU1CI2 TCU TOPS DIST E SLP086

CYQG;2013-07-23 01:00;CYQG 230100Z CCA 14004KT 10SM FEW020 FEW280 23/19 A2979 RMK CU1CI1 SLP084

CYQG;2013-07-23 02:00;CYQG 230200Z 09004KT 10SM SKC 22/20 A2980 RMK SLP090

CYQG;2013-07-23 03:00;CYQG 230300Z 16003KT 12SM SKC 21/19 A2980 RMK SLP090

CYQG;2013-07-23 04:00;CYQG 230400Z 00000KT 12SM SKC 21/19 A2980 RMK SLP089

CYQG;2013-07-23 05:00;CYQG 230500Z 22003KT 12SM SKC 21/19 A2980 RMK SLP089

CYQG;2013-07-23 06:00;CYQG 230600Z 00000KT 12SM SCT270 21/19 A2979 RMK CI1 SLP086

CYQG;2013-07-23 07:00;CYQG 230700Z 25003KT 10SM FEW270 21/19 A2978 RMK CI0 SLP081

CYQG;2013-07-23 08:00;CYQG 230800Z 20005KT 8SM FEW270 20/19 A2974 RMK CI0 SLP069

CYQG;2013-07-23 09:00;CYQG 230900Z 23004KT 7SM SCT270 20/19 A2974 RMK CI1 SLP067

CYQG;2013-07-23 10:00;CYQG 231000Z 21003KT 5SM BR SCT043 BKN270 21/19 A2974 RMK CU3CI2 SLP068

CYQG;2013-07-23 11:00;CYQG 231100Z 21004KT 7SM FEW040 SCT120 BKN260 21/19 A2974 RMK CU2AC2CI1 SLP066

CYQG;2013-07-23 12:00;CYQG 231200Z 22007KT 10SM FEW045 FEW120 22/19 A2973 RMK CU1AC1 SLP064

CYQG;2013-07-23 13:00;CYQG 231300Z 26010KT 10SM -TSRA FEW024 BKN047CB BKN130 23/19 A2975 RMK CU2CB6AC1 SLP071

CYQG;2013-07-23 13:17;CYQG 231317Z 27010KT 5SM TSRA BR FEW023 OVC045CB RMK SC1CB7 OCNL LTGIC

CYQG;2013-07-23 13:28;CYQG 231328Z 21008KT 10SM -TSRA FEW023 BKN045CB OVC110 RERA RMK SC1CB6AC2 OCNL LTGICCG ALQDS

CYQG;2013-07-23 13:38;CYQG 231338Z 21008KT 2SM TSRA BR FEW022 OVC045CB RMK SC2CB6

CYQG;2013-07-23 13:51;CYQG 231351Z 18009KT 8SM -TSRA FEW023 BKN043CB OVC110 RERA RMK SC1CB6AC1 OCNL LTGICCG E

CYQG;2013-07-23 14:00;CYQG 231400Z 13008KT 10SM -TSRA FEW023 BKN045CB OVC100 20/18 A2972 RERA RMK SC1CB6AC2 OCNL LTGIC E-SE SLP061

CYQG;2013-07-23 14:45;CYQG 231445Z 18008KT 15SM FEW047TCU BKN090 RETS RMK TCU2AC5

CYQG;2013-07-23 15:00;CYQG 231500Z 21006KT 15SM FEW048TCU BKN090 BKN120 21/18 A2972 RETS RMK TCU1AC5AC2 SLP062

CYQG;2013-07-23 15:46;CYQG 231546Z 22007KT 15SM -SHRA FEW030 BKN110 BKN290 RMK SC1AC6CI1 CB TOPS DIST W

CYQG;2013-07-23 16:00;CYQG 231600Z 22009KT 15SM FEW030 BKN100 BKN290 23/21 A2973 RMK CU1AC6CI1 OCNL -SHRA CB TOPS DIST WNW SLP064

CYQG;2013-07-23 16:18;CYQG 231618Z 22012KT 15SM FEW011 BKN110 BKN290 RMK CU1AC5CI1 CB TOPS DIST NW

CYQG;2013-07-23 17:00;CYQG 231700Z 22011KT 15SM FEW016 FEW110 SCT300 26/21 A2971 RMK CU2AC1CI1 SLP059

CYQG;2013-07-23 18:00;CYQG 231800Z 25009KT 15SM FEW019 FEW110 BKN300 27/21 A2970 RMK CU1AC2CI3 CB TOPS DIST E SLP053

CYQG;2013-07-23 19:00;CYQG 231900Z 24003KT 15SM FEW026TCU SCT110 BKN300 28/21 A2969 RMK TCU2AC1CI3 SLP052

CYQG;2013-07-23 19:26;CYQG 231926Z 27009KT 15SM -TSRA SCT040CB BKN110 OVC300 RMK CB3AC3CI2

CYQG;2013-07-23 20:00;CYQG 232000Z 27009KT 3SM -TSRA BKN020 OVC040CB 20/18 A2971 RMK SC7CB1 SLP057

CYQG;2013-07-23 20:13;CYQG 232013Z 32005KT 15SM TS FEW020 SCT040CB BKN110 BKN300 RMK SC2CB2AC2CI1

CYQG;2013-07-23 20:28;CYQG 232028Z 30005KT 15SM FEW020 SCT040CB BKN110 BKN300 RETS RMK SC2CB2AC2CI1

CYQG;2013-07-23 21:00;CYQG 232100Z 34005KT 15SM FEW020 FEW040CB BKN110 BKN300 24/20 A2971 RETS RMK SC1CB1AC4CI1 CI ACOCTD W/ CB DIST E SLP058

CYQG;2013-07-23 22:00;CYQG 232200Z 35013G19KT 15SM SCT030 BKN120 BKN300 25/19 A2971 RMK CU4AC2CI1 SLP056

CYQG;2013-07-23 23:00;CYQG 232300Z 35010G15KT 15SM SCT060 BKN120 BKN300 25/17 A2972 RMK CU3AC2CI1 SLP060

CYQG;2013-07-24 00:00;CYQG 240000Z 36011G17KT 15SM FEW032 SCT040 SCT300 24/16 A2974 RMK CU1SC3CS1 SLP067

CYQG;2013-07-24 01:00;CYQG 240100Z 01006G21KT 15SM FEW032 FEW040 FEW300 22/15 A2974 RMK CU1SC2CS1 TR CI SLP067

CYQG;2013-07-24 02:00;CYQG 240200Z 36011G22KT 15SM FEW045 19/13 A2981 RMK SC1 SLP092

CYQG;2013-07-24 03:00;CYQG 240300Z 35012G18KT 15SM FEW045 18/12 A2985 RMK SC1 SLP106

CYQG;2013-07-24 04:00;CYQG 240400Z 35011G18KT 15SM BKN043 17/11 A2988 RMK SC5 SLP118

CYQG;2013-07-24 05:00;CYQG 240500Z 36009G18KT 15SM BKN041 17/10 A2990 RMK SC6 SLP124

CYQG;2013-07-24 06:00;CYQG 240600Z 34010KT 15SM BKN044 16/10 A2990 RMK SC6 SLP123

CYQG;2013-07-24 07:00;CYQG 240700Z 35010KT 15SM FEW045 16/10 A2990 RMK SC2 SLP123

CYQG;2013-07-24 08:00;CYQG 240800Z 36010KT 15SM FEW045 16/10 A2991 RMK SC2 SLP125

CYQG;2013-07-24 09:00;CYQG 240900Z 36009KT 15SM FEW039 15/09 A2992 RMK SC2 SLP129

CYQG;2013-07-24 10:00;CYQG 241000Z 36007KT 15SM FEW040 14/09 A2993 RMK SC2 SLP134

CYQG;2013-07-24 11:00;CYQG 241100Z 35007KT 15SM SCT041 14/09 A2995 RMK SC4 SLP142

CYQG;2013-07-24 12:00;CYQG 241200Z 35011KT 15SM FEW042 14/09 A2997 RMK SC2 SLP149

CYQG;2013-07-24 13:00;CYQG 241300Z 36012KT 15SM FEW040 16/09 A3000 RMK SC1 SLP157

CYQG;2013-07-24 14:00;CYQG 241400Z 36011KT 15SM FEW040 FEW260 17/09 A3000 RMK SC1CI1 TR CI SLP159

CYQG;2013-07-24 15:00;CYQG 241500Z 02011KT 15SM FEW040 FEW260 18/09 A3002 RMK SC1CI1 TR CI SLP165

CYQG;2013-07-24 16:00;CYQG 241600Z 04013KT 15SM FEW035 FEW270 18/10 A3002 RMK SC1CI1 TR CI SLP167

CYQG;2013-07-24 17:00;CYQG 241700Z 04014KT 15SM FEW035 FEW270 19/11 A3003 RMK SC2CI1 TR CI SLP170

CYQG;2013-07-24 18:00;CYQG 241800Z 04013KT 15SM FEW035 FEW270 19/11 A3003 RMK SC2CI1 TR CI SLP170

CYQG;2013-07-24 19:00;CYQG 241900Z 05012KT 15SM FEW035 FEW270 20/12 A3003 RMK SC1CI1 TR CI SLP170

CYQG;2013-07-24 20:00;CYQG 242000Z 04010G16KT 15SM FEW035 FEW300 21/12 A3003 RMK SC1CI1 SLP168

CYQG;2013-07-24 21:00;CYQG 242100Z 05013KT 15SM FEW035 FEW300 21/12 A3002 RMK SC1CI2 SLP166

CYQG;2013-07-24 22:00;CYQG 242200Z 05009KT 15SM FEW035 FEW300 20/11 A3002 RMK SC1CI2 SLP166

CYQG;2013-07-24 23:00;CYQG 242300Z 06012KT 15SM FEW035 FEW300 20/11 A3002 RMK SC1CI2 SLP166

CYQG;2013-07-25 00:00;CYQG 250000Z 05010KT 15SM FEW035 SCT300 19/10 A3004 RMK SC1CI3 CC ASOCTD SLP171

CYQG;2013-07-25 01:00;CYQG 250100Z 06008KT 15SM FEW035 FEW300 18/10 A3004 RMK SC1CI2 CONTRAILS SLP174

CYQG;2013-07-25 02:00;CYQG 250200Z 06007KT 15SM FEW280 17/09 A3005 RMK CI1 SLP177

CYQG;2013-07-25 03:00;CYQG 250300Z 05007KT 15SM SCT220 16/10 A3005 RMK CI2 SLP177

CYQG;2013-07-25 04:00;CYQG 250400Z 04006KT 15SM SCT250 16/10 A3006 RMK CI1 SLP178

CYQG;2013-07-25 05:00;CYQG 250500Z 06003KT 15SM SCT250 15/10 A3006 RMK CI1 SLP179

CYQG;2013-07-25 06:00;CYQG 250600Z 00000KT 15SM SCT250 14/10 A3006 RMK CI1 SLP179

CYQG;2013-07-25 07:00;CYQG 250700Z 20002KT 15SM FEW250 13/11 A3006 RMK CI0 SLP180

CYQG;2013-07-25 08:00;CYQG 250800Z 32004KT 15SM SKC 14/11 A3007 RMK SLP181

CYQG;2013-07-25 09:00;CYQG 250900Z 33002KT 15SM SKC 14/11 A3007 RMK SLP182

CYQG;2013-07-25 10:00;CYQG 251000Z 32002KT 15SM FEW020 FEW250 13/11 A3008 RMK CF1CI1 SLP187

CYQG;2013-07-25 11:00;CYQG 251100Z 35003KT 15SM FEW020 FEW250 14/11 A3009 RMK CU1CI1 SLP188

CYQG;2013-07-25 12:00;CYQG 251200Z 35003KT 15SM FEW018 FEW260 15/12 A3010 RMK CU1CI1 TR CU TR CI SLP193

CYQG;2013-07-25 13:00;CYQG 251300Z 02006KT 15SM FEW020 FEW260 17/12 A3011 RMK SC1CI1 TR SC TR CI SLP196

CYQG;2013-07-25 14:00;CYQG 251400Z 03007KT 15SM FEW022 FEW260 19/13 A3011 RMK SC1CI1 TR CI SLP196

CYQG;2013-07-25 15:00;CYQG 251500Z 05005KT 15SM FEW027 FEW270 20/13 A3012 RMK SC2CI1 SLP198

CYQG;2013-07-25 16:00;CYQG 251600Z 04004KT 15SM BKN032 BKN270 21/13 A3012 RMK SC5CI1 TR CI SLP199

CYQG;2013-07-25 17:00;CYQG 251700Z 07004KT 15SM BKN033 22/14 A3012 RMK SC6 SLP198

CYQG;2013-07-25 18:00;CYQG 251800Z 13003KT 15SM BKN042 21/14 A3011 RMK CU6 TCU ASOCTD SLP197

CYQG;2013-07-25 19:00;CYQG 251900Z 19002KT 15SM BKN040 22/13 A3011 RMK CU5 SLP196

CYQG;2013-07-25 20:00;CYQG 252000Z 19003KT 15SM SCT040 23/14 A3011 RMK CU4 SLP195

CYQG;2013-07-25 21:00;CYQG 252100Z 14006KT 15SM SCT043 24/15 A3009 RMK CU3 SLP190

CYQG;2013-07-25 22:00;CYQG 252200Z 20006KT 15SM SCT042 24/14 A3009 RMK CU3 SLP189

CYQG;2013-07-25 23:00;CYQG 252300Z 21009KT 15SM FEW042 22/13 A3010 RMK CU1 SLP191

CYQG;2013-07-26 00:00;CYQG 260000Z 17006KT 15SM FEW042 FEW280 21/13 A3010 RMK SC1CS1 SLP191

CYQG;2013-07-26 01:00;CYQG 260100Z 18004KT 15SM FEW042 FEW280 19/14 A3011 RMK SC1CS1 SLP194

CYQG;2013-07-26 02:00;CYQG 260200Z 17005KT 15SM FEW280 18/14 A3011 RMK CS1 SLP195

CYQG;2013-07-26 03:00;CYQG 260300Z 16002KT 15SM FEW280 17/14 A3011 RMK CS1 SLP195

CYQG;2013-07-26 04:00;CYQG 260400Z 17002KT 15SM FEW280 16/14 A3011 RMK CI1 SLP196

CYQG;2013-07-26 05:00;CYQG 260500Z 00000KT 15SM FEW280 16/14 A3012 RMK CI1 SLP198

CYQG;2013-07-26 06:00;CYQG 260600Z 16003KT 15SM FEW280 15/13 A3010 RMK CI1 SLP193

CYQG;2013-07-26 07:00;CYQG 260700Z 00000KT 15SM BKN280 16/14 A3009 RMK CI2 SLP190

CYQG;2013-07-26 08:00;CYQG 260800Z 00000KT 15SM FEW280 15/14 A3008 RMK CI2 SLP186

CYQG;2013-07-26 09:00;CYQG 260900Z 00000KT 15SM FEW280 15/13 A3008 RMK CI1 SLP186

CYQG;2013-07-26 10:00;CYQG 261000Z 27002KT 15SM FEW280 15/13 A3009 RMK CI1 SLP187

CYQG;2013-07-26 11:00;CYQG 261100Z 00000KT 15SM FEW080 FEW280 15/13 A3009 RMK AC1CI1 SLP188

CYQG;2013-07-26 12:00;CYQG 261200Z 00000KT 15SM FEW017 SCT270 18/14 A3009 RMK CU1CI2 TR CU SLP189

CYQG;2013-07-26 13:00;CYQG 261300Z 00000KT 15SM FEW020 BKN270 21/15 A3010 RMK CU1CI2 SLP191

CYQG;2013-07-26 14:00;CYQG 261400Z 13003KT 15SM FEW025 BKN270 22/15 A3009 RMK CU1CI2 TR CU SLP189

CYQG;2013-07-26 15:00;CYQG 261500Z 15002KT 15SM FEW028 BKN280 23/16 A3009 RMK CU2CI2 SLP188

CYQG;2013-07-26 16:00;CYQG 261600Z 16006KT 15SM SCT036 BKN170 BKN280 23/15 A3008 RMK CU4AC1CI1 SLP186

CYQG;2013-07-26 17:00;CYQG 261700Z 18007KT 15SM SCT041 BKN250 BKN290 24/15 A3007 RMK CU3CC2CI2 SLP180

CYQG;2013-07-26 18:00;CYQG 261800Z 19006KT 15SM BKN040 BKN250 BKN290 24/15 A3005 RMK CU5CC1CI1 TR CC SLP175

CYQG;2013-07-26 19:00;CYQG 261900Z 18010KT 15SM SCT045 BKN260 24/14 A3003 RMK CU3CC2 SLP167

CYQG;2013-07-26 20:00;CYQG 262000Z 22006KT 15SM FEW045 SCT260 BKN280 24/14 A3000 RMK CU2CC2CI1 SLP159

CYQG;2013-07-26 21:00;CYQG 262100Z 20009KT 15SM FEW045 SCT130 BKN280 25/13 A2999 RMK CF1AC2CI1 SLP156

CYQG;2013-07-26 22:00;CYQG 262200Z 21008KT 15SM FEW045 SCT180 BKN280 24/14 A2998 RMK CU1AC2CI3 CS ASOCTD SLP152

CYQG;2013-07-26 23:00;CYQG 262300Z 20009KT 15SM SCT180 BKN270 24/14 A2997 RMK AC3CS2 CI ASOCTD SLP149

CYQG;2013-07-27 00:00;CYQG 270000Z 18004KT 15SM BKN150 BKN270 23/15 A2997 RMK AC6CI1 SLP148

CYQG;2013-07-27 01:00;CYQG 270100Z 16003KT 15SM BKN180 OVC270 22/15 A2997 RMK AC6CI2 SLP146

CYQG;2013-07-27 02:00;CYQG 270200Z 14004KT 15SM BKN150 21/16 A2996 RMK AC7 SLP144

CYQG;2013-07-27 03:00;CYQG 270300Z 13003KT 15SM BKN160 20/16 A2995 RMK AC7 SLP139

CYQG;2013-07-27 04:00;CYQG 270400Z 13005KT 15SM SCT054 BKN090 OVC130 20/16 A2993 RMK SC3AC3AC2 SLP134

CYQG;2013-07-27 05:00;CYQG 270500Z 14006KT 15SM BKN054 OVC075 20/17 A2991 RMK SC5AC3 SLP128

CYQG;2013-07-27 06:00;CYQG 270600Z 17004KT 15SM FEW050 BKN070 OVC100 21/17 A2989 RMK SC2AC5AC2 SLP120

CYQG;2013-07-27 07:00;CYQG 270700Z 28010KT 15SM BKN064 OVC130 21/17 A2989 RMK SC6AC2 SLP120

CYQG;2013-07-27 07:11;CYQG 270711Z 29006KT 15SM -SHRA BKN063 OVC080 RMK SC5AC3

CYQG;2013-07-27 08:00;CYQG 270800Z 26007KT 15SM -SHRA OVC058 19/17 A2989 RMK SC8 SLP120

CYQG;2013-07-27 08:37;CYQG 270837Z 23004KT 15SM OVC061 RMK SC8

CYQG;2013-07-27 09:00;CYQG 270900Z 23004KT 15SM OVC050 19/17 A2989 RMK SC8 SLP118

CYQG;2013-07-27 10:00;CYQG 271000Z 18003KT 15SM OVC027 19/17 A2988 RMK SC8 SLP117

CYQG;2013-07-27 10:53;CYQG 271053Z 18004KT 15SM FEW007 OVC025 RMK SF1SC7

CYQG;2013-07-27 11:00;CYQG 271100Z 19005KT 10SM FEW007 OVC024 19/17 A2989 RMK SF1SC7 SLP118

CYQG;2013-07-27 11:43;CYQG 271143Z 18008KT 5SM -DZ OVC018 RMK SC8

CYQG;2013-07-27 12:00;CYQG 271200Z 18008KT 3SM -DZ OVC014 18/12 A2989 RMK SF8 SLP119

CYQG;2013-07-27 12:10;CYQG 271210Z 19008KT 5SM -DZ OVC019 RMK SF8

CYQG;2013-07-27 12:35;CYQG 271235Z 18011G16KT 5SM -RADZ OVC008 RMK SF8

CYQG;2013-07-27 12:40;CYQG 271240Z 18014KT 2SM -RADZ BR OVC004 RMK SF8

CYQG;2013-07-27 12:48;CYQG 271248Z 18007G19KT 4SM -RA BR OVC015 RMK SF8

CYQG;2013-07-27 13:00;CYQG 271300Z 17011KT 4SM -RA BR FEW004 OVC013 18/17 A2988 RMK CF2SF6 SLP116

CYQG;2013-07-27 13:45;CYQG 271345Z 17007KT 6SM BR OVC012 RMK SC8

CYQG;2013-07-27 14:00;CYQG 271400Z 16006KT 6SM BR OVC011 18/17 A2986 RMK SC8 SLP109

CYQG;2013-07-27 15:00;CYQG 271500Z 17005KT 5SM BR OVC009 19/18 A2986 RMK SC8 SLP109

CYQG;2013-07-27 16:00;CYQG 271600Z 19007KT 6SM BR OVC018 20/18 A2984 RMK SF8 SLP104

CYQG;2013-07-27 16:31;CYQG 271631Z 20007KT 6SM -SHRA OVC016 RMK SF8

CYQG;2013-07-27 17:00;CYQG 271700Z 18014G19KT 6SM BR OVC012 20/19 A2982 RMK SC8 OCNL -SHRA SLP097

CYQG;2013-07-27 17:20;CYQG 271720Z 19005KT 6SM BR OVC009 RMK SC8

CYQG;2013-07-27 18:00;CYQG 271800Z 20014KT 6SM BR OVC010 20/18 A2982 RMK SC8 SLP096

CYQG;2013-07-27 19:00;CYQG 271900Z 18011KT 6SM BR BKN009 BKN080 20/18 A2979 RMK SC6AC1 SLP085

CYQG;2013-07-27 19:45;CYQG 271945Z 21013KT 12SM BKN014 OVC085 RMK SC6AC2

CYQG;2013-07-27 20:00;CYQG 272000Z 21013KT 12SM BKN012 OVC021 21/18 A2978 RMK CU6SC2 SLP082

CYQG;2013-07-27 20:37;CYQG 272037Z 21010KT 15SM BKN016 OVC026 RMK CU5SC3

CYQG;2013-07-27 21:00;CYQG 272100Z 20006KT 12SM BKN013 OVC270 22/19 A2977 RMK CU6CI2 SLP078

CYQG;2013-07-27 22:00;CYQG 272200Z 21012KT 15SM BKN025 23/18 A2975 RMK CU6 SLP074

CYQG;2013-07-27 23:00;CYQG 272300Z 30015G21KT 15SM VCSH BKN029TCU 21/15 A2977 RMK TCU7 SLP078

CYQG;2013-07-27 23:07;CYQG 272307Z 29015KT 8SM SHRA BKN030TCU RMK TCU7 VIS 5 N

CYQG;2013-07-27 23:13;CYQG 272313Z 30008G19KT 10SM -SHRA BKN035TCU BKN070 RERA RMK TCU5AC2

CYQG;2013-07-27 23:19;CYQG 272319Z 32008KT 10SM -TSRA BKN040TCU BKN094 RERA RMK TCU5AC2 CB EMBD TS E

CYQG;2013-07-27 23:43;CYQG 272343Z 29005KT 15SM SCT060 BKN130 RETSRA RMK CU3AC4 TS MVD E

CYQG;2013-07-28 00:00;CYQG 280000Z 28005KT 15SM SCT060 BKN120 18/16 A2979 RETSRA RMK CU3AC4 SLP088

CYQG;2013-07-28 01:00;CYQG 280100Z 31013G19KT 15SM FEW015 BKN053 BKN110 18/16 A2981 RMK CF2CU4AC2 SLP095

CYQG;2013-07-28 02:00;CYQG 280200Z 30010G15KT 15SM SCT077 BKN110 17/13 A2984 RMK AC3AC2 SLP103

CYQG;2013-07-28 03:00;CYQG 280300Z 28009G15KT 15SM SCT073 17/12 A2985 RMK AC4 SLP107

CYQG;2013-07-28 04:00;CYQG 280400Z 28008KT 15SM FEW080 16/12 A2985 RMK AC1 SLP106

CYQG;2013-07-28 05:00;CYQG 280500Z 27008KT 15SM SKC 15/11 A2986 RMK SLP110

CYQG;2013-07-28 06:00;CYQG 280600Z 27008KT 15SM FEW080 14/10 A2986 RMK AC1 SLP112

CYQG;2013-07-28 07:00;CYQG 280700Z 24004KT 15SM FEW210 13/10 A2985 RMK CC2 SLP109

CYQG;2013-07-28 08:00;CYQG 280800Z 19004KT 15SM SKC 12/10 A2986 RMK SLP112

CYQG;2013-07-28 09:00;CYQG 280900Z 23004KT 15SM SKC 12/11 A2987 RMK SLP115

CYQG;2013-07-28 10:00;CYQG 281000Z 23005KT 15SM FEW060 12/11 A2988 RMK SC1 SLP117

CYQG;2013-07-28 11:00;CYQG 281100Z 20004KT 15SM FEW055 FEW090 FEW250 12/10 A2989 RMK CU1AC1CI1 SLP123

CYQG;2013-07-28 12:00;CYQG 281200Z 22008KT 15SM FEW025 FEW070 FEW280 14/11 A2990 RMK CU1AC1CC1 SLP124

CYQG;2013-07-28 13:00;CYQG 281300Z 23010KT 15SM FEW025TCU BKN070 BKN280 14/11 A2991 RMK TCU1AC5CC1 SLP127

CYQG;2013-07-28 14:00;CYQG 281400Z 23011G17KT 15SM FEW050TCU SCT070 BKN280 17/11 A2990 RMK TCU1AC3CS1 SLP124

CYQG;2013-07-28 15:00;CYQG 281500Z 22014KT 15SM SCT035 BKN070 18/10 A2989 RMK CU4AC1 SLP123

CYQG;2013-07-28 16:00;CYQG 281600Z 25013G18KT 15SM BKN035 BKN110 18/10 A2989 RMK CU6AC1 SLP122

CYQG;2013-07-28 17:00;CYQG 281700Z 23014KT 15SM BKN035 BKN110 18/10 A2989 RMK CU6AC1 SLP123

CYQG;2013-07-28 18:00;CYQG 281800Z 23014KT 15SM BKN045 BKN110 18/10 A2989 RMK CU7AC1 SLP123

CYQG;2013-07-28 19:00;CYQG 281900Z 25011G17KT 15SM BKN042 BKN076 19/11 A2990 RMK CU5AC2 SLP126

CYQG;2013-07-28 20:00;CYQG 282000Z 23014G21KT 15SM SCT042 BKN075 20/11 A2990 RMK CU4AC2 SLP124

CYQG;2013-07-28 20:52;CYQG 282052Z 24018G27KT 12SM -SHRA BKN036 RMK CU6 TCU ASOCTD

CYQG;2013-07-28 21:00;CYQG 282100Z 23015G27KT 10SM -SHRA BKN041 16/13 A2992 RMK CU6 TCU ASOCTD SLP133

CYQG;2013-07-28 21:37;CYQG 282137Z 25012KT 15SM VCSH SCT050 BKN097 RMK CU3AC4 TCU ASOCTD

CYQG;2013-07-28 22:00;CYQG 282200Z 25013KT 15SM FEW050 BKN110 18/12 A2992 RMK CU2AC2 SLP134

CYQG;2013-07-28 23:00;CYQG 282300Z 25012KT 15SM SCT040 BKN090 18/11 A2993 RMK CU3AC2 TCU ASOCTD SLP137

CYQG;2013-07-29 00:00;CYQG 290000Z 25013KT 15SM FEW035 BKN076 18/11 A2995 RMK CU2AC2 TCU ASOCTD SLP142

CYQG;2013-07-29 01:00;CYQG 290100Z 26009KT 15SM FEW035 BKN088 17/11 A2996 RMK CU2AC5 SLP147

CYQG;2013-07-29 02:00;CYQG 290200Z 26007KT 15SM FEW035 BKN094 17/11 A2998 RMK CU1AC5 SLP153

CYQG;2013-07-29 03:00;CYQG 290300Z 25005KT 15SM BKN094 16/11 A2999 RMK AC6 SLP156

CYQG;2013-07-29 04:00;CYQG 290400Z 23006KT 15SM SCT090 BKN220 16/12 A2999 RMK AC3CI2 SLP157

CYQG;2013-07-29 05:00;CYQG 290500Z 26007KT 15SM FEW110 BKN160 15/11 A3000 RMK AC2AC4 SLP160

CYQG;2013-07-29 06:00;CYQG 290600Z 25006KT 15SM FEW090 BKN130 15/11 A3000 RMK AC2AC6 SLP160

CYQG;2013-07-29 07:00;CYQG 290700Z 23005KT 15SM BKN130 14/11 A3000 RMK AC6 SLP160

CYQG;2013-07-29 08:00;CYQG 290800Z 22006KT 15SM OVC110 15/11 A3000 RMK AC8 SLP160

CYQG;2013-07-29 09:00;CYQG 290900Z 23006KT 15SM BKN100 15/11 A3000 RMK AC7 SLP160

CYQG;2013-07-29 09:33;CYQG 290933Z 24008KT 15SM -SHRA BKN100 RMK AC7

CYQG;2013-07-29 10:00;CYQG 291000Z 23010KT 15SM FEW090 BKN120 16/11 A3001 RMK AC2AC6 SLP162

CYQG;2013-07-29 11:00;CYQG 291100Z 26008KT 15SM BKN090 BKN120 16/11 A3002 RMK AC6AC2 SLP165

CYQG;2013-07-29 12:00;CYQG 291200Z 25007KT 15SM SCT050 OVC080 16/11 A3003 RMK SC4AC4 SLP169

CYQG;2013-07-29 13:00;CYQG 291300Z 26008KT 15SM FEW035 OVC080 16/12 A3005 RMK SC1AC8 SLP175

CYQG;2013-07-29 14:00;CYQG 291400Z 27009KT 15SM FEW035 OVC057 17/12 A3006 RMK CU1SC8 SLP179

CYQG;2013-07-29 15:00;CYQG 291500Z CCA 27011KT 15SM SCT022 BKN049 18/12 A3007 RMK CU3SC4 SLP182

CYQG;2013-07-29 16:00;CYQG 291600Z 29011KT 15SM BKN030 OVC049 19/13 A3008 RMK CU6SC2 SLP185

CYQG;2013-07-29 17:00;CYQG 291700Z 27012KT 15SM BKN033 OVC049 18/13 A3010 RMK CU6SC2 SLP192

CYQG;2013-07-29 18:00;CYQG 291800Z 29009KT 15SM OVC033 18/13 A3011 RMK CU8 SLP195

CYQG;2013-07-29 19:00;CYQG 291900Z 28009KT 15SM FEW026 BKN045 20/13 A3011 RMK CU2SC5 SLP196

CYQG;2013-07-29 20:00;CYQG 292000Z 29011KT 15SM SCT031 BKN049 20/13 A3012 RMK CU4SC3 SLP199

CYQG;2013-07-29 21:00;CYQG 292100Z 27012G17KT 15SM SCT039 BKN055 22/12 A3012 RMK CU4SC2 SLP200

CYQG;2013-07-29 22:00;CYQG 292200Z 28006KT 15SM SCT037 BKN059 21/11 A3012 RMK CU3SC2 SLP200

CYQG;2013-07-29 23:00;CYQG 292300Z 33008KT 15SM SCT035 SCT055 21/12 A3014 RMK CU3SC1 SLP207

CYQG;2013-07-30 00:00;CYQG 300000Z 29006KT 15SM FEW030 FEW055 BKN250 21/12 A3015 RMK CU2SC1CI1 SLP209

CYQG;2013-07-30 01:00;CYQG 300100Z 30006KT 15SM FEW030 BKN250 19/12 A3016 RMK CU1CI2 SLP213

CYQG;2013-07-30 02:00;CYQG 300200Z 26004KT 15SM SCT250 18/12 A3018 RMK CI1 SLP218

CYQG;2013-07-30 03:00;CYQG 300300Z 24005KT 15SM FEW250 18/12 A3019 RMK CI1 SLP222

CYQG;2013-07-30 04:00;CYQG 300400Z 27004KT 15SM SKC 17/12 A3019 RMK SLP224

CYQG;2013-07-30 05:00;CYQG 300500Z 27002KT 15SM SKC 16/12 A3020 RMK SLP225

CYQG;2013-07-30 06:00;CYQG 300600Z 32004KT 15SM FEW250 16/12 A3020 RMK CI0 SLP226

CYQG;2013-07-30 07:00;CYQG 300700Z 31002KT 15SM FEW250 15/12 A3019 RMK CI0 SLP224

CYQG;2013-07-30 08:00;CYQG 300800Z 22004KT 15SM FEW250 15/12 A3020 RMK CI0 SLP227

CYQG;2013-07-30 09:00;CYQG 300900Z 00000KT 15SM FEW250 14/12 A3020 RMK CI0 SLP227

CYQG;2013-07-30 10:00;CYQG 301000Z 25003KT 15SM FEW250 14/12 A3021 RMK CI1 SLP230

CYQG;2013-07-30 11:00;CYQG 301100Z 26002KT 15SM FEW020 FEW250 14/12 A3023 RMK CU1CI1 TR CU SLP235

CYQG;2013-07-30 12:00;CYQG 301200Z 00000KT 15SM FEW180 SCT280 16/14 A3023 RMK AC2CI0 SLP237

CYQG;2013-07-30 13:00;CYQG 301300Z 09002KT 15SM FEW280 19/15 A3024 RMK CI1 SLP241

CYQG;2013-07-30 14:00;CYQG 301400Z 00000KT 15SM FEW030 FEW280 20/14 A3024 RMK CF1CI1 SLP240

CYQG;2013-07-30 15:00;CYQG 301500Z 27003KT 15SM FEW035 FEW280 21/13 A3023 RMK CU2CI1 SLP237

CYQG;2013-07-30 16:00;CYQG 301600Z 18006KT 15SM FEW035 SCT280 22/14 A3023 RMK CU2CI1 SLP235

CYQG;2013-07-30 17:00;CYQG 301700Z 09002KT 15SM SCT040 SCT280 23/14 A3021 RMK CU3CI1 SLP230

CYQG;2013-07-30 18:00;CYQG 301800Z 09002KT 15SM BKN042 BKN280 23/14 A3020 RMK CU5CI1 SLP227

CYQG;2013-07-30 19:00;CYQG 301900Z 15007KT 15SM BKN044 BKN280 23/15 A3019 RMK CU5CI1 SLP222

CYQG;2013-07-30 20:00;CYQG 302000Z 14003KT 15SM SCT044 BKN280 24/15 A3017 RMK CU3CI2 SLP215

CYQG;2013-07-30 21:00;CYQG 302100Z 12004KT 15SM SCT038 BKN280 24/15 A3016 RMK CU4CI2 SLP213

CYQG;2013-07-30 22:00;CYQG 302200Z 15006KT 15SM BKN038 BKN280 23/17 A3016 RMK CU5CI1 SLP213

CYQG;2013-07-30 23:00;CYQG 302300Z 14007KT 15SM FEW035 BKN280 22/15 A3016 RMK CU2CI3 SLP211

CYQG;2013-07-31 00:00;CYQG 310000Z 17006KT 15SM FEW035 BKN260 21/15 A3016 RMK CU2CI5 SLP211

CYQG;2013-07-31 01:00;CYQG 310100Z 18004KT 12SM FEW030 OVC260 20/15 A3015 RMK CU1CI6 SLP208

CYQG;2013-07-31 02:00;CYQG 310200Z 14002KT 15SM FEW030 OVC260 19/15 A3016 RMK CU1CI6 SLP211

CYQG;2013-07-31 03:00;CYQG 310300Z 14002KT 15SM OVC260 18/15 A3015 RMK CI6 SLP210

CYQG;2013-07-31 04:00;CYQG 310400Z 00000KT 15SM OVC260 18/15 A3015 RMK CI7 SLP208

CYQG;2013-07-31 05:00;CYQG 310500Z 18002KT 15SM BKN260 17/14 A3014 RMK CI6 SLP205

CYQG;2013-07-31 06:00;CYQG 310600Z 00000KT 12SM SCT160 BKN260 17/14 A3014 RMK AC3CI2 SLP204

CYQG;2013-07-31 07:00;CYQG 310700Z 17002KT 10SM BKN150 17/15 A3013 RMK AC7 SLP201

CYQG;2013-07-31 08:00;CYQG 310800Z 00000KT 10SM BKN140 BKN260 17/15 A3012 RMK AC6CI1 SLP199

CYQG;2013-07-31 09:00;CYQG 310900Z 17002KT 10SM SCT150 BKN180 18/15 A3011 RMK AC3AC2 SLP194

CYQG;2013-07-31 10:00;CYQG 311000Z 12002KT 8SM FEW110 SCT150 BKN260 17/16 A3010 RMK AC2AC1CI1 CONTRAILS SLP192

CYQG;2013-07-31 11:00;CYQG 311100Z 12002KT 10SM BKN078 BKN110 BKN260 18/16 A3010 RMK AC5AC1CI1 CONTRAILS SLP192

CYQG;2013-07-31 12:00;CYQG 311200Z 14004KT 10SM SCT050 BKN100 BKN280 20/18 A3010 RMK SC4AC2CI1 ACC ASOCTD SLP192

CYQG;2013-07-31 13:00;CYQG 311300Z 17004KT 15SM FEW050 SCT100 BKN150 22/18 A3009 RMK SC2AC2AC3 SLP189

CYQG;2013-07-31 14:00;CYQG 311400Z 19007KT 15SM FEW020 BKN070 BKN130 23/17 A3008 RMK CF1AC5AC2 SLP186

CYQG;2013-07-31 15:00;CYQG 311500Z 19008KT 15SM BKN069 BKN130 23/17 A3008 RMK AC6AC2 SLP185

CYQG;2013-07-31 16:00;CYQG 311600Z 21007KT 15SM FEW022 SCT052 BKN097 24/18 A3007 RMK CU2SC2AC3 SLP180

CYQG;2013-07-31 17:00;CYQG 311700Z 18003KT 15SM FEW020 SCT055 BKN072 24/17 A3005 RMK CF1SC2AC4 SLP175

CYQG;2013-07-31 18:00;CYQG 311800Z 18006KT 15SM -SHRA SCT030 BKN080 24/17 A3003 RMK CU4AC3 SLP167

CYQG;2013-07-31 18:26;CYQG 311826Z 17006KT 15SM SCT030 BKN069 RMK CU3AC4

CYQG;2013-07-31 19:00;CYQG 311900Z 16005KT 15SM SCT040 BKN066 BKN140 25/17 A3001 RMK CU3AC2AC2 SLP161

CYQG;2013-07-31 20:00;CYQG 312000Z 17008KT 15SM BKN041 BKN070 OVC150 24/16 A2999 RMK CU5AC2AC2 SLP154

CYQG;2013-07-31 21:00;CYQG 312100Z 15007KT 15SM BKN057 OVC120 23/17 A2997 RMK SC6AC2 SLP147

CYQG;2013-07-31 21:28;CYQG 312128Z 14006KT 8SM -SHRA BKN039 OVC120 RMK SC6AC2

CYQG;2013-07-31 22:00;CYQG 312200Z 14005KT 8SM -SHRA BKN048 OVC120 23/18 A2996 RMK SC6AC2 SLP144

CYQG;2013-07-31 22:52;CYQG 312252Z 15006KT 6SM HZ BKN057 OVC100 RMK SC6AC2

CYQG;2013-07-31 23:00;CYQG 312300Z 16006KT 6SM HZ BKN058 OVC100 23/19 A2993 RMK SC6AC2 SLP134

CYQG;2013-07-31 23:36;CYQG 312336Z 17004KT 6SM -SHRA HZ BKN019 OVC060 RMK SC6SC2

CYQG;2013-08-01 00:00;CYQG 010000Z CCA 19005KT 5SM HZ BKN031 OVC060 22/19 A2992 RMK SC5SC3 OCNL -SHRA SLP130

CYQG;2013-08-01 00:13;CYQG 010013Z 21006KT 3SM -SHRA HZ OVC028 RMK SC8

CYQG;2013-08-01 00:39;CYQG 010039Z 20006KT 1 1/4SM -SHRA BR OVC021 RMK SC8

CYQG;2013-08-01 01:00;CYQG 010100Z 21004KT 2 1/2SM -SHRA BR BKN020 OVC051 21/20 A2992 RMK SC6SC2 SLP128

CYQG;2013-08-01 02:00;CYQG 010200Z 24008KT 3SM -SHRA BR SCT011 OVC033 21/19 A2992 RMK SF4SC4 SLP128

CYQG;2013-08-01 02:41;CYQG 010241Z 23008KT 3SM -SHRA BR FEW007 BKN011 OVC021 RMK SF1SF5SC2

CYQG;2013-08-01 03:00;CYQG 010300Z 23009KT 4SM -DZ BR OVC008 20/19 A2990 RMK SF8 SLP123

CYQG;2013-08-01 03:12;CYQG 010312Z 23008KT 3SM -RADZ BR OVC005 RMK SF8

CYQG;2013-08-01 03:48;CYQG 010348Z 24008KT 6SM BR OVC009 RMK SF8

CYQG;2013-08-01 04:00;CYQG 010400Z 25006KT 6SM BR BKN005 OVC016 20/20 A2988 RMK SF6SC2 SLP116

CYQG;2013-08-01 05:00;CYQG 010500Z CCA 29008KT 8SM OVC017 20/19 A2989 RMK SF8 SLP120

CYQG;2013-08-01 06:00;CYQG 010600Z 29009KT 8SM OVC019 20/18 A2988 RMK SF8 SLP116

CYQG;2013-08-01 07:00;CYQG 010700Z 31008KT 8SM BKN007 OVC019 19/18 A2988 RMK SF7SC1 SLP116

CYQG;2013-08-01 08:00;CYQG 010800Z 31006KT 12SM FEW120 19/17 A2988 RMK AC2 SLP116

CYQG;2013-08-01 09:00;CYQG 010900Z 29007KT 12SM FEW120 19/17 A2988 RMK AC2 SLP117

CYQG;2013-08-01 10:00;CYQG 011000Z 28007KT 7SM BKN029 19/17 A2989 RMK SC7 SLP121

CYQG;2013-08-01 11:00;CYQG 011100Z 28006KT 6SM BR FEW023 19/17 A2990 RMK SC1 SLP123

CYQG;2013-08-01 12:00;CYQG 011200Z 29010KT 7SM FEW013 19/16 A2991 RMK CU2 SLP127

CYQG;2013-08-01 12:42;CYQG 011242Z 29012KT 8SM BKN010 RMK SC5

CYQG;2013-08-01 13:00;CYQG 011300Z 27011KT 8SM FEW010 19/16 A2991 RMK SC2 SLP127

CYQG;2013-08-01 14:00;CYQG 011400Z 27010KT 9SM FEW014 FEW140 20/17 A2991 RMK SC1AS0 SLP127

CYQG;2013-08-01 15:00;CYQG 011500Z 29010KT 10SM FEW018 FEW230 22/17 A2992 RMK SC2CS0 SLP128

CYQG;2013-08-01 16:00;CYQG 011600Z 29009KT 10SM FEW022 FEW240 23/17 A2991 RMK SC1CS1 TR CS SLP127

CYQG;2013-08-01 17:00;CYQG 011700Z 30010KT 15SM FEW028 FEW280 25/17 A2991 RMK SC1CI1 TR CI SLP127

CYQG;2013-08-01 18:00;CYQG 011800Z 31007KT 15SM BKN038 25/15 A2990 RMK CU6 LRG CU SLP124

CYQG;2013-08-01 19:00;CYQG 011900Z 28011G16KT 15SM BKN050 BKN091 25/14 A2990 RMK CU5AC1 TCU ASOCTD SLP122

CYQG;2013-08-01 20:00;CYQG 012000Z 29008KT 15SM FEW053TCU FEW110 27/14 A2989 RMK TCU2AC1 SLP119

CYQG;2013-08-01 21:00;CYQG 012100Z 31010KT 15SM FEW058TCU FEW100 SCT290 26/14 A2988 RMK TCU2AC1CI1 SLP117

CYQG;2013-08-01 22:00;CYQG 012200Z 34014KT 15SM SCT059TCU SCT110 BKN290 25/13 A2990 RMK TCU3AC1CI2 CB TOPS DIST NW SLP122

CYQG;2013-08-01 22:28;CYQG 012228Z 32011KT 15SM -SHRA SCT060TCU BKN140 RMK TCU4AC3

CYQG;2013-08-01 23:00;CYQG 012300Z 32007KT 15SM -SHRA SCT060TCU BKN140 BKN290 23/14 A2990 RMK TCU3AC2CI1 SLP124

CYQG;2013-08-01 23:26;CYQG 012326Z 30010KT 15SM FEW060TCU FEW150 SCT300 RMK TCU1AC1CI1 CB TOPS DIST NW AND SE

CYQG;2013-08-02 00:00;CYQG 020000Z 28005KT 15SM FEW060CB FEW120 FEW300 22/14 A2990 RMK CB1AC1CI1 CB DIST SE SLP122

CYQG;2013-08-02 01:00;CYQG 020100Z 24005KT 15SM FEW120 FEW300 21/14 A2989 RMK AC1CI1 CB TOPS DIST NNE SLP121

CYQG;2013-08-02 02:00;CYQG 020200Z 19004KT 15SM FEW140 20/15 A2992 RMK AC1 SLP129

CYQG;2013-08-02 03:00;CYQG 020300Z 25005KT 15SM SKC 20/15 A2992 RMK SLP132

CYQG;2013-08-02 04:00;CYQG 020400Z 28006KT 15SM SKC 20/13 A2992 RMK SLP130

CYQG;2013-08-02 05:00;CYQG 020500Z 29007KT 15SM SKC 19/12 A2992 RMK SLP131

CYQG;2013-08-02 06:00;CYQG 020600Z 28007KT 15SM SKC 18/12 A2992 RMK SLP128

CYQG;2013-08-02 07:00;CYQG 020700Z 27006KT 15SM SKC 18/12 A2990 RMK SLP122

CYQG;2013-08-02 08:00;CYQG 020800Z 27008KT 15SM SKC 17/12 A2991 RMK SLP126

CYQG;2013-08-02 09:00;CYQG 020900Z 27005KT 15SM SKC 16/12 A2992 RMK SLP131

CYQG;2013-08-02 10:00;CYQG 021000Z 26004KT 15SM SKC 16/12 A2994 RMK SLP136

CYQG;2013-08-02 11:00;CYQG 021100Z 25004KT 15SM FEW120 16/12 A2994 RMK AC1 SLP138

CYQG;2013-08-02 12:00;CYQG 021200Z 27004KT 15SM FEW050 BKN120 18/13 A2994 RMK CU1AC3 SLP136

CYQG;2013-08-02 13:00;CYQG 021300Z 27007KT 15SM BKN190 19/13 A2994 RMK AC6 SLP137

CYQG;2013-08-02 14:00;CYQG 021400Z 26007KT 15SM BKN150 21/14 A2994 RMK AC6 SLP138

CYQG;2013-08-02 15:00;CYQG 021500Z 22011KT 15SM BKN130 21/14 A2994 RMK AC7 SLP136

CYQG;2013-08-02 16:00;CYQG 021600Z 23011KT 15SM FEW030 FEW130 BKN180 22/15 A2993 RMK CF1AC2AC5 TR CF SLP135

CYQG;2013-08-02 17:00;CYQG 021700Z 24016G21KT 15SM FEW030 SCT180 BKN280 23/15 A2992 RMK CU1AC2CI1 SLP132

CYQG;2013-08-02 18:00;CYQG 021800Z 23013G20KT 15SM FEW030 SCT170 BKN280 23/15 A2991 RMK CU2AC2CI1 SLP128

CYQG;2013-08-02 19:00;CYQG 021900Z 25015G20KT 15SM SCT040 BKN180 BKN280 23/15 A2990 RMK CU3AC2CI2 SLP124

CYQG;2013-08-02 20:00;CYQG 022000Z 23014G19KT 15SM BKN043 BKN180 22/16 A2989 RMK SC6AC1 SLP121

CYQG;2013-08-02 21:00;CYQG 022100Z 24015G21KT 15SM OVC025 21/16 A2987 RMK SC8 SLP115

CYQG;2013-08-02 22:00;CYQG 022200Z 24012KT 15SM OVC031 22/16 A2986 RMK SC8 SLP110

CYQG;2013-08-02 23:00;CYQG 022300Z 26012KT 15SM FEW037 OVC270 22/17 A2986 RMK SC2CI5 SLP112

CYQG;2013-08-03 00:00;CYQG 030000Z 25006KT 15SM BKN032 BKN270 22/17 A2987 RMK SC5CI2 SLP115

CYQG;2013-08-03 01:00;CYQG 030100Z 26005KT 15SM BKN032 OVC280 22/17 A2988 RMK SC5CS3 SLP116

CYQG;2013-08-03 02:00;CYQG 030200Z 25005KT 15SM BKN028 BKN250 21/17 A2990 RMK SC5CS2 SLP123

CYQG;2013-08-03 03:00;CYQG 030300Z 25006KT 15SM FEW027 BKN240 21/17 A2990 RMK SC2CS6 SLP124

CYQG;2013-08-03 04:00;CYQG 030400Z 26005KT 15SM OVC220 21/17 A2990 RMK CC8 SLP124

CYQG;2013-08-03 05:00;CYQG 030500Z 28006KT 15SM OVC190 21/18 A2992 RMK AC8 SLP129

CYQG;2013-08-03 06:00;CYQG 030600Z 30006KT 15SM OVC220 21/17 A2993 RMK CC8 SLP133

CYQG;2013-08-03 07:00;CYQG 030700Z 30006KT 15SM BKN220 20/17 A2993 RMK CC7 SLP134

CYQG;2013-08-03 08:00;CYQG 030800Z 28004KT 15SM BKN220 19/17 A2994 RMK CC6 SLP135

CYQG;2013-08-03 09:00;CYQG 030900Z 30003KT 15SM SKC 18/16 A2995 RMK SLP139

CYQG;2013-08-03 10:00;CYQG 031000Z 33005KT 15SM FEW190 18/15 A2996 RMK AC1 SLP144

CYQG;2013-08-03 11:00;CYQG 031100Z 32005KT 15SM FEW090 FEW250 17/14 A2997 RMK AC1CI0 AC TR SLP146

CYQG;2013-08-03 12:00;CYQG 031200Z 33005KT 15SM SKC 19/15 A2998 RMK SLP152

CYQG;2013-08-03 13:00;CYQG 031300Z 36004KT 15SM SKC 20/15 A2998 RMK SLP152

CYQG;2013-08-03 14:00;CYQG 031400Z 02002KT 15SM FEW028 21/14 A3000 RMK CU1 SLP156

CYQG;2013-08-03 15:00;CYQG 031500Z 04003KT 15SM FEW028 22/14 A2999 RMK CU1 SLP154

CYQG;2013-08-03 16:00;CYQG 031600Z 34006KT 15SM SCT042 24/15 A3000 RMK CU3 SLP157

CYQG;2013-08-03 17:00;CYQG 031700Z 00000KT 15SM SCT052 25/13 A2999 RMK CU3 SLP155

CYQG;2013-08-03 18:00;CYQG 031800Z 34004KT 15SM SCT060 25/13 A3000 RMK CU3 SLP155

CYQG;2013-08-03 19:00;CYQG 031900Z 36007KT 15SM FEW065 25/13 A3000 RMK CU2 SLP156

CYQG;2013-08-03 20:00;CYQG 032000Z 31005KT 15SM SCT067 SCT290 26/12 A2999 RMK CU3CI1 SLP153

CYQG;2013-08-03 21:00;CYQG 032100Z 32011KT 15SM SCT066 BKN290 25/11 A3000 RMK CU4CI1 SLP156

CYQG;2013-08-03 22:00;CYQG 032200Z 35010KT 15SM FEW064 FEW290 25/11 A2999 RMK CU2CI1 SLP154

CYQG;2013-08-03 23:00;CYQG 032300Z 31008KT 15SM FEW065 FEW280 25/11 A2999 RMK CU2CI1 SLP153

CYQG;2013-08-04 00:00;CYQG 040000Z 33009KT 15SM FEW062 FEW090 FEW280 24/11 A2999 RMK CU1AC1CI1 SLP155

CYQG;2013-08-04 01:00;CYQG 040100Z 33007KT 15SM BKN090 BKN210 23/12 A3000 RMK AC5CI1 SLP158

CYQG;2013-08-04 02:00;CYQG 040200Z 34004KT 15SM FEW070 FEW180 22/12 A3001 RMK AC2AC1 SLP162

CYQG;2013-08-04 03:00;CYQG 040300Z 36011KT 15SM FEW080 21/13 A3003 RMK AC2 SLP167

CYQG;2013-08-04 04:00;CYQG 040400Z 03009KT 15SM FEW012 BKN078 19/13 A3005 RMK CF1AC5 SLP174

CYQG;2013-08-04 05:00;CYQG 040500Z 02009KT 15SM FEW012 18/15 A3006 RMK CF1 SLP177

CYQG;2013-08-04 06:00;CYQG 040600Z 36006KT 15SM SKC 17/14 A3007 RMK SLP180

CYQG;2013-08-04 07:00;CYQG 040700Z 35005KT 15SM SKC 17/14 A3007 RMK SLP181

CYQG;2013-08-04 08:00;CYQG 040800Z 35006KT 15SM SKC 16/12 A3008 RMK SLP185

CYQG;2013-08-04 09:00;CYQG 040900Z 34005KT 15SM SKC 15/12 A3009 RMK SLP189

CYQG;2013-08-04 10:00;CYQG 041000Z 34005KT 15SM FEW016 FEW280 15/12 A3010 RMK CF1CS1 TR CF SLP190

CYQG;2013-08-04 11:00;CYQG 041100Z 33004KT 15SM FEW016 FEW280 15/12 A3010 RMK CF1CS1 TR CF SLP191

CYQG;2013-08-04 12:00;CYQG 041200Z 34007KT 15SM FEW028 FEW070 16/12 A3012 RMK CU1AC1 CU TR SLP197

CYQG;2013-08-04 13:00;CYQG 041300Z 33009KT 15SM FEW028 FEW270 17/12 A3013 RMK CU1CI0 SLP200

CYQG;2013-08-04 15:00;CYQG 041500Z 35009KT 15SM FEW030 18/12 A3014 RMK CU1 SLP206

CYQG;2013-08-04 16:00;CYQG 041600Z 35008KT 15SM FEW034 20/12 A3015 RMK CU2 SLP210

CYQG;2013-08-04 17:00;CYQG 041700Z 34006KT 15SM FEW036 21/13 A3015 RMK CU2 SLP209

CYQG;2013-08-04 18:00;CYQG 041800Z 01007KT 15SM SCT050 21/12 A3014 RMK CU3 SLP206

CYQG;2013-08-04 19:00;CYQG 041900Z 35005KT 15SM FEW036 SCT270 22/12 A3014 RMK CU2CI0 CONTRAILS SLP205

CYQG;2013-08-04 20:00;CYQG 042000Z 33006KT 15SM FEW050 BKN280 22/11 A3012 RMK CU2CI1 SLP200

CYQG;2013-08-04 21:00;CYQG 042100Z 02005KT 15SM BKN063 BKN280 23/12 A3012 RMK CU6CI1 TCU ASOCTD SLP199

CYQG;2013-08-04 22:00;CYQG 042200Z 06006KT 15SM BKN042 BKN280 21/13 A3013 RMK CU6CI1 SLP201

CYQG;2013-08-04 23:00;CYQG 042300Z 07011KT 15SM BKN046 BKN280 20/13 A3012 RMK CU6CI1 SLP200

CYQG;2013-08-05 00:00;CYQG 050000Z 07008KT 15SM FEW046 BKN070 BKN280 20/11 A3014 RMK CU2AC3CI1 SLP204

CYQG;2013-08-05 01:00;CYQG 050100Z 09005KT 15SM FEW070 BKN280 18/10 A3014 RMK AC2CI1 SLP206

CYQG;2013-08-05 02:00;CYQG 050200Z 13003KT 15SM FEW070 SCT240 BKN280 17/09 A3015 RMK AC1CC2CI1 SLP209

CYQG;2013-08-05 03:00;CYQG 050300Z 00000KT 15SM BKN240 16/10 A3014 RMK CC6 SLP206

CYQG;2013-08-05 04:00;CYQG 050400Z 18003KT 15SM SCT240 15/09 A3013 RMK CI3 SLP204

CYQG;2013-08-05 05:00;CYQG 050500Z 00000KT 15SM SCT072 15/08 A3014 RMK AC4 SLP205

CYQG;2013-08-05 06:00;CYQG 050600Z 00000KT 15SM BKN073 15/09 A3013 RMK AC6 SLP202

CYQG;2013-08-05 07:00;CYQG 050700Z 16002KT 15SM BKN075 14/10 A3013 RMK AC6 SLP201

CYQG;2013-08-05 08:00;CYQG 050800Z 00000KT 15SM BKN075 15/09 A3013 RMK AC6 SLP202

CYQG;2013-08-05 09:00;CYQG 050900Z 00000KT 15SM FEW039 BKN074 15/09 A3012 RMK CU2AC6 SLP200

CYQG;2013-08-05 10:00;CYQG 051000Z 17004KT 15SM BKN053 BKN080 BKN240 15/09 A3013 RMK SC5AC2CI1 SLP203

CYQG;2013-08-05 11:00;CYQG 051100Z 15004KT 15SM SCT050 BKN078 16/09 A3013 RMK SC3AC3 SLP203

CYQG;2013-08-05 12:00;CYQG 051200Z 11002KT 15SM BKN043 16/11 A3013 RMK SC7 SLP203

CYQG;2013-08-05 13:00;CYQG 051300Z 12005KT 15SM SCT043 SCT080 BKN260 17/11 A3013 RMK SC3AC1CI1 SLP201

CYQG;2013-08-05 14:00;CYQG 051400Z 13006KT 15SM FEW043 FEW070 BKN270 20/12 A3013 RMK SC2AC1CI2 SLP201

CYQG;2013-08-05 15:00;CYQG 051500Z 14008KT 15SM FEW043 OVC270 20/12 A3011 RMK CU2CI2 SLP195

CYQG;2013-08-05 16:00;CYQG 051600Z 18008KT 15SM SCT035 OVC270 21/13 A3010 RMK SC4CI3 SLP192

CYQG;2013-08-05 17:00;CYQG 051700Z 19009KT 15SM FEW035 OVC260 21/13 A3008 RMK CU1CS6 SLP186

CYQG;2013-08-05 18:00;CYQG 051800Z 19009KT 15SM FEW038 OVC180 21/14 A3006 RMK CU1AS6 SLP179

CYQG;2013-08-05 19:00;CYQG 051900Z 18006KT 15SM FEW038 SCT140 OVC180 21/14 A3006 RMK CU1AC3AS3 SLP179

CYQG;2013-08-05 20:00;CYQG 052000Z 18010KT 15SM FEW030 BKN055 OVC160 21/14 A3004 RMK CU1CU5AC2 SLP173

CYQG;2013-08-05 21:00;CYQG 052100Z 21005KT 15SM -SHRA FEW063 OVC130 21/14 A3004 RMK CU2AC6 SLP174

CYQG;2013-08-05 21:52;CYQG 052152Z 22004KT 15SM FEW070 OVC120 RMK AC1AC7

CYQG;2013-08-05 22:00;CYQG 052200Z 22004KT 15SM FEW070 OVC120 21/14 A3004 RMK AC1AC7 SLP173

CYQG;2013-08-05 23:00;CYQG 052300Z 16005KT 15SM BKN130 BKN260 21/15 A3003 RMK AC6CI1 SLP168

CYQG;2013-08-06 00:00;CYQG 060000Z 16003KT 15SM BKN130 BKN260 20/15 A3002 RMK AC6CI1 SLP165

CYQG;2013-08-06 01:00;CYQG 060100Z 13003KT 15SM BKN120 19/15 A3001 RMK AC7 SLP160

CYQG;2013-08-06 02:00;CYQG 060200Z 11004KT 15SM BKN110 19/15 A3000 RMK AC7 SLP158

CYQG;2013-08-06 03:00;CYQG 060300Z 13004KT 15SM SCT053 BKN120 18/15 A2999 RMK SC3AC4 SLP156

CYQG;2013-08-06 04:00;CYQG 060400Z 14004KT 15SM FEW042 BKN096 17/15 A2999 RMK SC2AC5 SLP155

CYQG;2013-08-06 05:00;CYQG 060500Z 13002KT 15SM FEW040 BKN097 18/15 A2999 RMK SC2AC6 SLP154

CYQG;2013-08-06 06:00;CYQG 060600Z 00000KT 15SM BKN049 18/15 A2999 RMK SC7 SLP153

CYQG;2013-08-06 07:00;CYQG 060700Z 17005KT 15SM BKN046 OVC092 19/15 A2997 RMK SC5AC3 SLP148

CYQG;2013-08-06 07:41;CYQG 060741Z 19004KT 15SM -SHRA OVC053 RMK SC8

CYQG;2013-08-06 08:00;CYQG 060800Z 18004KT 15SM OVC061 19/16 A2997 RMK SC8 OCNL -SHRA SLP147

CYQG;2013-08-06 09:00;CYQG 060900Z 16004KT 15SM OVC057 19/16 A2997 RMK SC8 SLP146

CYQG;2013-08-06 10:00;CYQG 061000Z 20007KT 12SM OVC052 19/16 A2997 RMK SC8 SLP148

CYQG;2013-08-06 10:39;CYQG 061039Z 19004KT 12SM -SHRA BKN052 BKN120 RMK SC6AC2

CYQG;2013-08-06 11:00;CYQG 061100Z 18004KT 8SM -SHRA BKN056 OVC089 19/17 A2997 RMK SC6AC2 SLP146

CYQG;2013-08-06 11:35;CYQG 061135Z 17005KT 12SM BKN060 BKN100 RMK SC6AC1

CYQG;2013-08-06 12:00;CYQG 061200Z 16004KT 15SM FEW062 BKN090 19/17 A2997 RMK SC2AC5 SLP147

CYQG;2013-08-06 13:00;CYQG 061300Z 18007KT 15SM FEW070 BKN120 21/17 A2997 RMK AC2AC4 SLP147

CYQG;2013-08-06 14:00;CYQG 061400Z 19008KT 15SM FEW050 BKN110 21/17 A2998 RMK SC2AC6 SLP149

CYQG;2013-08-06 15:00;CYQG 061500Z 19010KT 15SM FEW053 BKN090 23/17 A2998 RMK SC2AC6 SLP150

CYQG;2013-08-06 16:00;CYQG 061600Z 19009KT 15SM FEW063 BKN090 BKN130 23/16 A2997 RMK CU1AC5AC2 SLP148

CYQG;2013-08-06 16:26;CYQG 061626Z 22014KT 12SM -SHRA FEW062 OVC090 RMK CU2AC6

CYQG;2013-08-06 17:00;CYQG 061700Z 18008KT 15SM SCT063 BKN090 22/16 A2996 RMK SC4AC3 SLP145

CYQG;2013-08-06 18:00;CYQG 061800Z 16006KT 15SM OVC061 22/17 A2998 RMK SC8 SLP149

CYQG;2013-08-06 19:00;CYQG 061900Z 18008KT 15SM BKN059 BKN270 23/17 A2996 RMK SC6CI1 SLP145

CYQG;2013-08-06 20:00;CYQG 062000Z 18007KT 15SM FEW060 SCT270 25/17 A2994 RMK SC2CI1 SLP138

CYQG;2013-08-06 21:00;CYQG 062100Z 17009G15KT 15SM FEW040 BKN065 BKN270 25/17 A2993 RMK CU1SC4CI1 SLP133

CYQG;2013-08-06 22:00;CYQG 062200Z 16008KT 15SM SCT045 BKN270 25/18 A2992 RMK SC3CI3 SLP130

CYQG;2013-08-06 23:00;CYQG 062300Z CCA 16008KT 12SM BKN045 BKN110 BKN270 24/17 A2992 RMK SC5AC2CI1 CU ASOCTD SLP131

CYQG;2013-08-07 00:00;CYQG 070000Z 16008KT 12SM BKN043 BKN270 23/17 A2993 RMK SC6CI2 CU ASOCTD SLP132

CYQG;2013-08-07 01:00;CYQG 070100Z 17005KT 12SM BKN054 BKN260 23/18 A2992 RMK SC6CI1 CONTRAILS SLP131

CYQG;2013-08-07 02:00;CYQG 070200Z 16004KT 15SM SCT055 22/19 A2992 RMK CU3 SLP131

CYQG;2013-08-07 03:00;CYQG 070300Z 18004KT 12SM SCT056 SCT260 22/18 A2992 RMK SC3CI1 TR CI SLP130

CYQG;2013-08-07 04:00;CYQG 070400Z 18005KT 12SM SCT260 22/18 A2992 RMK CI2 SLP128

CYQG;2013-08-07 05:00;CYQG 070500Z 20005KT 12SM BKN260 21/19 A2992 RMK CI2 SLP129

CYQG;2013-08-07 06:00;CYQG 070600Z 19005KT 12SM BKN260 21/18 A2991 RMK CI2 SLP125

CYQG;2013-08-07 07:00;CYQG 070700Z 19006KT 10SM FEW042 BKN260 21/18 A2990 RMK SC2CI2 SLP122

CYQG;2013-08-07 08:00;CYQG 070800Z 20006KT 12SM FEW040 BKN260 21/19 A2989 RMK SC2CI3 SLP121

CYQG;2013-08-07 09:00;CYQG 070900Z 20007KT 7SM FEW040 BKN260 20/18 A2987 RMK SC1CI3 SLP112

CYQG;2013-08-07 10:00;CYQG 071000Z 21004KT 8SM FEW040 BKN260 20/19 A2988 RMK SC1CI3 SLP115

CYQG;2013-08-07 11:00;CYQG 071100Z 20007KT 5SM BR FEW034 SCT120 BKN260 20/19 A2987 RMK CF2AC2CI1 SLP112

CYQG;2013-08-07 12:00;CYQG 071200Z 26003KT 6SM BR FEW030 SCT120 BKN270 21/19 A2990 RMK CF2AC2CI2 SLP122

CYQG;2013-08-07 13:00;CYQG 071300Z 02004KT 10SM SCT015 BKN040 BKN095 22/17 A2991 RMK CU4SC1AC2 SLP126

CYQG;2013-08-07 14:00;CYQG 071400Z 31003KT 15SM BKN051 BKN100 BKN240 23/16 A2991 RMK CU5AC2CI1 SLP126

CYQG;2013-08-07 15:00;CYQG 071500Z 28006KT 15SM FEW050 BKN240 23/17 A2991 RMK CU2CS5 SLP127

CYQG;2013-08-07 16:03;CYQG 071603Z 23007KT 15SM -SHRA SCT060 BKN110 BKN240 RMK CU3AC2CS2

CYQG;2013-08-07 17:00;CYQG 071700Z CCA 22006KT 15SM FEW060 BKN140 BKN260 23/18 A2985 RMK CU2AC3CI2 PRESFR SLP105

CYQG;2013-08-07 18:00;CYQG 071800Z 22014KT 15SM SCT140 BKN170 24/18 A2986 RMK AC3AC4 SLP111

CYQG;2013-08-07 19:00;CYQG 071900Z 21011G16KT 15SM BKN120 BKN170 25/18 A2987 RMK AC5AC2 SLP113

CYQG;2013-08-07 20:00;CYQG 072000Z 21013KT 15SM FEW030 FEW110 SCT270 26/19 A2987 RMK CU1AC2CI1 TR CU SLP113

CYQG;2013-08-07 21:00;CYQG 072100Z 23009KT 15SM FEW030 FEW110 BKN250 27/20 A2986 RMK CU1AC1CS1 SLP108

CYQG;2013-08-07 22:00;CYQG 072200Z CCA 20006KT 12SM FEW030 SCT280 28/21 A2985 RMK CU2CI1 TCU EMBD CONTRAILS SLP106

CYQG;2013-08-07 23:00;CYQG 072300Z 21008KT 12SM FEW038 SCT280 28/21 A2984 RMK CU1CI1 TCU EMBD SLP103

CYQG;2013-08-08 00:00;CYQG 080000Z 23008KT 12SM FEW038 FEW110 SCT280 27/21 A2986 RMK CU1AC1CI1 TCU EMBD TR AC SLP107

CYQG;2013-08-08 01:00;CYQG 080100Z 20005KT 12SM FEW035TCU SCT280 25/21 A2986 RMK TCU1CI1 CU ASOCTD CONTRAILS SLP110

CYQG;2013-08-08 02:00;CYQG 080200Z 21006KT 8SM FEW035 FEW280 24/21 A2989 RMK CU1CI1 DIST FRQ LTGIC N-NE SLP117

CYQG;2013-08-08 03:00;CYQG 080300Z 22005KT 8SM FEW087 FEW130 SCT270 24/21 A2991 RMK AC1AC1CI1 SLP126

CYQG;2013-08-08 04:00;CYQG 080400Z 00000KT 8SM FEW082 FEW130 BKN270 23/21 A2990 RMK AC2AC1CI1 SLP123

CYQG;2013-08-08 05:00;CYQG 080500Z 30009KT 8SM SCT024 BKN110 23/22 A2991 RMK SC3AC3 SLP124

CYQG;2013-08-08 06:00;CYQG 080600Z 00000KT 8SM FEW022 FEW120 23/21 A2990 RMK SC1AC2 SLP123

CYQG;2013-08-08 07:00;CYQG 080700Z 02003KT 8SM FEW120 22/21 A2991 RMK AC1 SLP126

CYQG;2013-08-08 08:00;CYQG 080800Z 36006KT 15SM BKN088 22/20 A2992 RMK AC6 SLP129

CYQG;2013-08-08 09:00;CYQG 080900Z 03009KT 15SM BKN009 OVC041 21/19 A2993 RMK ST5SC3 SLP134

CYQG;2013-08-08 09:47;CYQG 080947Z 03007KT 15SM FEW011 BKN038 RMK SF2SC2

CYQG;2013-08-08 10:00;CYQG 081000Z 04009KT 15SM FEW012 BKN039 20/17 A2995 RMK SF2SC2 SLP141

CYQG;2013-08-08 10:39;CYQG 081039Z 03010KT 12SM BKN013 BKN040 RMK SC6SC1

CYQG;2013-08-08 11:00;CYQG 081100Z 03011KT 12SM BKN012 BKN043 20/17 A2997 RMK SC6SC1 SLP146

CYQG;2013-08-08 12:00;CYQG 081200Z 03012KT 15SM BKN012 BKN051 20/17 A2998 RMK SC5SC2 SLP151

CYQG;2013-08-08 13:00;CYQG 081300Z 03013KT 15SM BKN011 BKN025 20/17 A2998 RMK CU6SC2 SLP151

CYQG;2013-08-08 14:00;CYQG 081400Z 04011G18KT 15SM BKN014 BKN024 21/17 A2999 RMK CU6SC2 SLP154

CYQG;2013-08-08 15:00;CYQG 081500Z 04011G16KT 15SM SCT014 BKN026 21/17 A3001 RMK CU3SC4 SLP161

CYQG;2013-08-08 16:00;CYQG 081600Z 04009KT 15SM SCT016 BKN025 22/17 A3002 RMK CU4SC3 SLP164

CYQG;2013-08-08 17:00;CYQG 081700Z 03009KT 15SM SCT018 OVC025 22/17 A3000 RMK CU3SC4 SLP158

CYQG;2013-08-08 18:00;CYQG 081800Z 04010KT 15SM FEW018 OVC025 23/18 A3001 RMK CF2SC6 SLP159

CYQG;2013-08-08 19:00;CYQG 081900Z 04007KT 15SM FEW018 OVC027 23/18 A2999 RMK CU2SC6 SLP152

CYQG;2013-08-08 20:00;CYQG 082000Z 06008KT 15SM FEW018 OVC027 23/18 A2998 RMK CU1SC8 SLP149

CYQG;2013-08-08 21:00;CYQG 082100Z 07009KT 15SM FEW024 BKN036 23/18 A2997 RMK CU1SC6 SLP145

CYQG;2013-08-08 22:00;CYQG 082200Z 07011KT 15SM FEW024 BKN036 BKN120 BKN280 23/17 A2996 RMK CU1SC5AC1CI1 TR CI SLP143

CYQG;2013-08-08 23:00;CYQG 082300Z 06009KT 15SM FEW024 FEW036 BKN190 23/17 A2997 RMK CU1SC2AC4 TR CU SLP145

CYQG;2013-08-09 00:00;CYQG 090000Z 05010KT 15SM FEW070 SCT190 OVC280 22/17 A2998 RMK AC1AC4CS2 SLP149

CYQG;2013-08-09 01:00;CYQG 090100Z 04011KT 15SM FEW070 BKN190 OVC280 21/16 A2998 RMK AC2AC2CS2 SLP150

CYQG;2013-08-09 02:00;CYQG 090200Z 04009G19KT 15SM BKN120 20/14 A2999 RMK AC6 SLP155

CYQG;2013-08-09 03:00;CYQG 090300Z 03010G16KT 15SM FEW066 BKN120 BKN220 19/14 A3000 RMK AC1AC4CI2 SLP156

CYQG;2013-08-09 04:00;CYQG 090400Z 04007KT 15SM FEW073 SCT120 BKN220 19/14 A2999 RMK AC2AC2CI2 SLP154

CYQG;2013-08-09 05:00;CYQG 090500Z 36005KT 15SM BKN066 BKN100 19/14 A2998 RMK AC5AC2 SLP151

CYQG;2013-08-09 06:00;CYQG 090600Z 35006KT 15SM BKN075 BKN110 BKN180 18/14 A2997 RMK AC5AC2AC1 SLP147

CYQG;2013-08-09 07:00;CYQG 090700Z 35005KT 15SM BKN062 18/14 A2997 RMK SC7 SLP146

CYQG;2013-08-09 08:00;CYQG 090800Z 01004KT 15SM BKN073 18/14 A2996 RMK AC7 SLP143

CYQG;2013-08-09 09:00;CYQG 090900Z 34004KT 15SM BKN074 BKN220 18/14 A2996 RMK AC5CI1 SLP144

CYQG;2013-08-09 10:00;CYQG 091000Z 35004KT 15SM BKN073 18/14 A2996 RMK AC6 SLP144

CYQG;2013-08-09 11:00;CYQG 091100Z 36005KT 15SM SCT070 BKN180 17/14 A2998 RMK AC3AC3 SLP150

CYQG;2013-08-09 12:00;CYQG 091200Z 36003KT 15SM FEW080 BKN230 18/15 A2998 RMK AC2CC4 SLP152

CYQG;2013-08-09 13:00;CYQG 091300Z 01007KT 15SM FEW020 BKN200 20/15 A2998 RMK CF1AC6 TR CF SLP152

CYQG;2013-08-09 14:00;CYQG 091400Z 02007KT 15SM BKN210 21/14 A2998 RMK CC6 SLP152

CYQG;2013-08-09 15:00;CYQG 091500Z 36006KT 15SM FEW140 SCT210 BKN280 22/13 A2999 RMK AC1CC2CI1 SLP153

CYQG;2013-08-09 16:00;CYQG 091600Z 03003KT 15SM BKN280 23/12 A2999 RMK CI2 SLP155

CYQG;2013-08-09 17:00;CYQG 091700Z 00000KT 15SM BKN300 24/11 A2998 RMK CI3 CONTRAILS SLP150

CYQG;2013-08-09 18:00;CYQG 091800Z 29007KT 15SM BKN300 25/12 A2997 RMK CI3 CONTRAILS SLP148

CYQG;2013-08-09 19:00;CYQG 091900Z 27004KT 15SM FEW040 BKN300 27/12 A2997 RMK SC1CI3 TR SC SLP148

CYQG;2013-08-09 20:00;CYQG 092000Z 23011KT 15SM FEW052 BKN300 27/13 A2996 RMK SC1CI5 SLP143

CYQG;2013-08-09 21:00;CYQG 092100Z 27006KT 15SM FEW052 BKN300 27/14 A2995 RMK SC1CI3 SLP140

CYQG;2013-08-09 22:00;CYQG 092200Z 24007KT 15SM FEW052 BKN300 27/15 A2995 RMK SC1CI5 SLP141

CYQG;2013-08-09 23:00;CYQG 092300Z 26007KT 15SM FEW052 BKN300 26/13 A2995 RMK SC1CI6 SLP141

CYQG;2013-08-10 00:00;CYQG 100000Z 27002KT 15SM FEW052 BKN300 25/15 A2996 RMK SC1CI6 SLP145

CYQG;2013-08-10 01:00;CYQG 100100Z 24007KT 15SM FEW052 BKN300 25/15 A2998 RMK SC1CI4 SLP149

CYQG;2013-08-10 02:00;CYQG 100200Z 25005KT 15SM BKN280 23/15 A2999 RMK CI5 SLP155

CYQG;2013-08-10 03:00;CYQG 100300Z 25007KT 15SM SCT051 23/16 A3000 RMK SC4 SLP157

CYQG;2013-08-10 04:00;CYQG 100400Z 29007KT 15SM FEW050 BKN260 23/16 A3001 RMK SC1CI2 SLP160

CYQG;2013-08-10 05:00;CYQG 100500Z 31008KT 15SM BKN250 22/16 A3003 RMK CI2 SLP166

CYQG;2013-08-10 06:00;CYQG 100600Z 31005KT 15SM BKN250 22/16 A3004 RMK CI5 SLP170

CYQG;2013-08-10 07:00;CYQG 100700Z 36005KT 15SM BKN250 21/15 A3005 RMK CI5 SLP174

CYQG;2013-08-10 08:00;CYQG 100800Z 05005KT 15SM BKN250 19/16 A3007 RMK CI5 SLP180

CYQG;2013-08-10 09:00;CYQG 100900Z 07004KT 15SM FEW050 BKN250 19/15 A3007 RMK SC1CI4 SLP180

CYQG;2013-08-10 10:00;CYQG 101000Z 07004KT 15SM FEW050 BKN260 18/15 A3008 RMK SC1CI2 SLP184

CYQG;2013-08-10 11:00;CYQG 101100Z 08003KT 15SM FEW020 BKN074 BKN260 18/15 A3010 RMK CF1AC5CI1 SLP190

CYQG;2013-08-10 12:00;CYQG 101200Z 09004KT 15SM FEW030 BKN076 19/15 A3011 RMK SC1AC7 TR SC SLP193

CYQG;2013-08-10 13:00;CYQG 101300Z 05008KT 15SM SCT017 BKN075 20/15 A3011 RMK CU4AC2 SLP195

CYQG;2013-08-10 14:00;CYQG 101400Z 05008KT 15SM FEW018 BKN075 20/15 A3012 RMK CU2AC5 SLP198

CYQG;2013-08-10 15:00;CYQG 101500Z 08005KT 15SM SCT019 BKN070 20/15 A3014 RMK CU4AC3 SLP205

CYQG;2013-08-10 16:00;CYQG 101600Z 09004KT 15SM FEW024 BKN062 21/15 A3015 RMK CF2SC6 SLP209

CYQG;2013-08-10 17:00;CYQG 101700Z 09004KT 15SM FEW025 BKN066 21/15 A3015 RMK CU2SC5 SLP209

CYQG;2013-08-10 18:00;CYQG 101800Z 09003KT 15SM FEW025 BKN062 22/14 A3014 RMK CU2SC5 SLP204

CYQG;2013-08-10 19:00;CYQG 101900Z 11003KT 15SM FEW025 BKN075 23/14 A3013 RMK CU2AC4 SLP201

CYQG;2013-08-10 20:00;CYQG 102000Z 12002KT 15SM FEW040 SCT080 SCT280 24/15 A3011 RMK CU1AC3CI1 TR CI SLP196

CYQG;2013-08-10 21:00;CYQG 102100Z 07003KT 15SM SCT080 24/14 A3010 RMK AC4 SLP192

CYQG;2013-08-10 22:00;CYQG 102200Z 10005KT 15SM BKN050 23/14 A3010 RMK SC6 SLP192

CYQG;2013-08-10 23:00;CYQG 102300Z 06006KT 15SM BKN048 22/14 A3010 RMK SC5 SLP191

CYQG;2013-08-11 00:00;CYQG 110000Z 07006KT 15SM SCT062 22/14 A3010 RMK SC4 SLP191

CYQG;2013-08-11 01:00;CYQG 110100Z 07008KT 15SM SCT048 20/15 A3011 RMK SC4 SLP194

CYQG;2013-08-11 02:00;CYQG 110200Z 07007KT 15SM FEW048 19/14 A3013 RMK SC1 SLP202

CYQG;2013-08-11 03:00;CYQG 110300Z 13004KT 15SM SKC 18/14 A3014 RMK SLP204

CYQG;2013-08-11 04:00;CYQG 110400Z 11003KT 15SM SKC 17/13 A3014 RMK SLP205

CYQG;2013-08-11 05:00;CYQG 110500Z 12004KT 15SM SKC 17/12 A3013 RMK SLP203

CYQG;2013-08-11 06:00;CYQG 110600Z 00000KT 15SM SKC 16/12 A3013 RMK SLP202

CYQG;2013-08-11 07:00;CYQG 110700Z 00000KT 15SM FEW040 15/12 A3013 RMK SC1 SLP202

CYQG;2013-08-11 08:00;CYQG 110800Z 00000KT 15SM FEW040 15/11 A3013 RMK SC2 SLP203

CYQG;2013-08-11 09:00;CYQG 110900Z 00000KT 15SM FEW030 15/10 A3013 RMK SC2 SLP201

CYQG;2013-08-11 10:00;CYQG 111000Z 00000KT 15SM FEW030 15/10 A3012 RMK SC2 SLP200

CYQG;2013-08-11 11:00;CYQG 111100Z 01003KT 15SM SCT050 BKN260 15/11 A3014 RMK SC3CI1 SLP204

CYQG;2013-08-11 12:00;CYQG 111200Z 10003KT 15SM BKN070 17/13 A3014 RMK AC6 SLP205

CYQG;2013-08-11 13:00;CYQG 111300Z 12003KT 15SM BKN071 BKN240 20/15 A3013 RMK AC4CC1 SLP203

CYQG;2013-08-11 14:00;CYQG 111400Z 16003KT 15SM FEW030 BKN074 23/18 A3013 RMK CU2AC5 SLP203

CYQG;2013-08-11 15:00;CYQG 111500Z 26006KT 15SM BKN025 BKN075 23/17 A3013 RMK CU5AC2 TCU ASOCTD SLP201

CYQG;2013-08-11 16:00;CYQG 111600Z 19008KT 15SM BKN030 BKN072 23/16 A3012 RMK CU6AC1 SLP197

CYQG;2013-08-11 17:00;CYQG 111700Z 23007KT 15SM BKN040 BKN075 24/16 A3011 RMK CU6AC1 SLP194

CYQG;2013-08-11 18:00;CYQG 111800Z 22009KT 15SM BKN060 BKN080 24/15 A3010 RMK CU6AC1 SLP191

CYQG;2013-08-11 19:00;CYQG 111900Z 22006KT 15SM SCT060 BKN075 25/15 A3009 RMK CU4AC2 SLP188

CYQG;2013-08-11 20:00;CYQG 112000Z 24010KT 15SM SCT048 BKN083 25/15 A3008 RMK CU3AC2 TCU ASOCTD SLP186

CYQG;2013-08-11 21:00;CYQG 112100Z 28003KT 15SM SCT062 BKN088 25/15 A3006 RMK CU4AC2 SLP179

CYQG;2013-08-11 22:00;CYQG 112200Z 22006KT 15SM FEW053 SCT082 SCT210 25/15 A3005 RMK CU2AC2CC1 TR CC SLP175

CYQG;2013-08-11 23:00;CYQG 112300Z 25003KT 15SM SCT053 SCT120 25/16 A3004 RMK CU3AC1 SLP170

CYQG;2013-08-12 00:00;CYQG 120000Z 24008KT 15SM SCT052 BKN110 24/15 A3004 RMK CU3AC2 SLP170

CYQG;2013-08-12 01:00;CYQG 120100Z 23003KT 15SM FEW052 BKN092 BKN160 23/16 A3005 RMK CU2AC2AC1 SLP173

CYQG;2013-08-12 02:00;CYQG 120200Z 00000KT 15SM BKN057 23/16 A3007 RMK SC6 SLP179

CYQG;2013-08-12 03:00;CYQG 120300Z 08002KT 15SM BKN070 22/16 A3007 RMK AC6 SLP182

CYQG;2013-08-12 04:00;CYQG 120400Z 08002KT 15SM BKN066 22/16 A3006 RMK AC7 SLP178

CYQG;2013-08-12 05:00;CYQG 120500Z 00000KT 15SM BKN066 21/16 A3007 RMK AC5 SLP179

CYQG;2013-08-12 06:00;CYQG 120600Z 00000KT 15SM BKN069 20/16 A3006 RMK AC6 SLP177

CYQG;2013-08-12 07:00;CYQG 120700Z 00000KT 10SM BKN066 20/16 A3005 RMK AC7 SLP174

CYQG;2013-08-12 08:00;CYQG 120800Z 20003KT 10SM BKN067 20/17 A3004 RMK AC7 SLP171

CYQG;2013-08-12 09:00;CYQG 120900Z 00000KT 12SM OVC074 21/16 A3004 RMK AC8 SLP169

CYQG;2013-08-12 10:00;CYQG 121000Z 23002KT 15SM FEW046 OVC076 21/16 A3003 RMK SC2AC6 SLP166

CYQG;2013-08-12 11:00;CYQG 121100Z 23002KT 12SM OVC047 21/16 A3003 RMK SC8 SLP167

CYQG;2013-08-12 11:08;CYQG 121108Z 20002KT 10SM -SHRA OVC047 RMK SC8

CYQG;2013-08-12 12:00;CYQG 121200Z 24003KT 8SM -SHRA OVC039 20/17 A3003 RMK SC8 SLP168

CYQG;2013-08-12 13:00;CYQG 121300Z 25003KT 5SM -SHRA HZ FEW033 BKN063 OVC095 20/17 A3002 RMK CU2SC5AC2 SLP165

CYQG;2013-08-12 14:00;CYQG 121400Z 24005KT 6SM -SHRA HZ FEW021 SCT042 OVC083 19/17 A3004 RMK CF1CU3AS4 SLP169

CYQG;2013-08-12 14:47;CYQG 121447Z 21008KT 5SM -SHRA BR FEW004 SCT042 OVC110 RMK SF1CU2AS5

CYQG;2013-08-12 15:00;CYQG 121500Z 21005KT 5SM BR FEW004 SCT042 BKN110 19/18 A3000 RMK SF1CU1AS6 OCNL -SHRA SLP157

CYQG;2013-08-12 16:00;CYQG 121600Z 25007KT 4SM -SHRA BR FEW008 FEW040 OVC110 19/18 A3003 RMK CF1CU1AS6 SLP166

CYQG;2013-08-12 17:00;CYQG 121700Z 24008KT 5SM -RA BR FEW007 OVC095 19/18 A3001 RMK CF2AS6 SLP160

CYQG;2013-08-12 18:00;CYQG 121800Z 24008KT 4SM -RA BR FEW007 OVC110 19/18 A3000 RMK CF1AS7 SLP158

CYQG;2013-08-12 18:26;CYQG 121826Z 24005KT 4SM RA BR FEW008 OVC100 RMK CF1AS8 TR CF

CYQG;2013-08-12 19:00;CYQG 121900Z 23009KT 3SM RA BR FEW008 BKN060 OVC100 19/18 A2999 RMK CF1SC5AS2 SLP155

CYQG;2013-08-12 19:20;CYQG 121920Z 23009KT 6SM -RA BR FEW008 OVC050 RERA RMK SF2SC6

CYQG;2013-08-12 20:00;CYQG 122000Z 25008KT 4SM -RA BR FEW020 BKN065 OVC080 20/18 A2997 RERA RMK CU1SC6AC2 TR CU SLP147

CYQG;2013-08-12 20:52;CYQG 122052Z 24004KT 6SM BR FEW010 OVC044 RMK SF1SC7

CYQG;2013-08-12 21:00;CYQG 122100Z 24004KT 6SM BR FEW010 OVC044 20/19 A2994 RMK SF1SC7 SLP137

CYQG;2013-08-12 22:00;CYQG 122200Z 19004KT 10SM SCT045 BKN078 OVC110 22/20 A2991 RMK SC3AC2AC2 SLP128

CYQG;2013-08-12 23:00;CYQG 122300Z 18002KT 12SM FEW045 BKN080 OVC150 22/19 A2989 RMK SC2AC3AC2 SLP120

CYQG;2013-08-13 00:00;CYQG 130000Z 08002KT 15SM BKN062 OVC150 21/19 A2987 RMK SC6AC2 SLP113

CYQG;2013-08-13 00:34;CYQG 130034Z 10004KT 12SM -SHRA SCT050 BKN080 OVC150 RMK CU3AC3AC2 VIS 6 N

CYQG;2013-08-13 01:00;CYQG 130100Z 00000KT 8SM -SHRA BKN043 OVC080 21/19 A2986 RMK CU6AC2 LTGIC DIST N SLP109

CYQG;2013-08-13 01:06;CYQG 130106Z 30002KT 3SM -TSRA BR BKN041CB OVC080 RMK CB6AC2 LTGIC ALQDS

CYQG;2013-08-13 01:12;CYQG 130112Z 24010KT 5/8SM +TSRA BR OVC040CB RMK RA4CB4 LTGIC ALQDS

CYQG;2013-08-13 01:18;CYQG 130118Z 26004KT 6SM -TSRA BR OVC040CB RERA RMK CB8 FRQ LTGIC ALQDS

CYQG;2013-08-13 02:00;CYQG 130200Z 00000KT 10SM -SHRA SCT040 BKN120 OVC210 20/19 A2988 RETSRA RMK CU3AC3CI2 FRQ LTGIC S - E SLP115

CYQG;2013-08-13 02:25;CYQG 130225Z 19004KT 15SM SCT035 OVC120 RMK CU3AC5 LTGIC DIST S

CYQG;2013-08-13 03:00;CYQG 130300Z 20003KT 15SM FEW065 SCT110 OVC150 19/18 A2986 RMK CU2AC2AC4 LTGICCG DIST S SLP112

CYQG;2013-08-13 03:18;CYQG 130318Z 23008KT 12SM -SHRA BKN058CB OVC110 RMK CB5AC3 LTGIC DIST SE

CYQG;2013-08-13 03:27;CYQG 130327Z 22007KT 10SM -TSRA BKN053CB OVC110 RMK CB6AC2 LTGIC S-SE

CYQG;2013-08-13 04:00;CYQG 130400Z 27005KT 10SM -TSRA BKN054CB OVC120 19/18 A2986 RMK CB6AC2 OCNL LTGIC ALQDS SLP111

CYQG;2013-08-13 04:28;CYQG 130428Z 27007KT 5SM TSRA BR OVC044CB RMK CB8

CYQG;2013-08-13 04:46;CYQG 130446Z 21004KT 8SM -TSRA BKN041CB BKN110 RERA RMK CB6AC2

CYQG;2013-08-13 05:00;CYQG 130500Z 26002KT 8SM -SHRA SCT040CB OVC110 19/18 A2985 RETSRA RMK CB4AC4 OCNL LTGIC DIST SE /R16/ SLP107

CYQG;2013-08-13 05:40;CYQG 130540Z 29002KT 5SM BR FEW040 BKN100 RMK CU2AC6

CYQG;2013-08-13 06:00;CYQG 130600Z 27003KT 5SM BR BKN028 OVC110 19/18 A2984 RMK SC6AC2 SLP104

CYQG;2013-08-13 07:00;CYQG 130700Z 30004KT 5SM BR FEW024 SCT080 19/18 A2982 RMK SC1AC3 SLP098

CYQG;2013-08-13 08:00;CYQG 130800Z 34007KT 8SM FEW025 18/17 A2983 RMK SC1 SLP100

CYQG;2013-08-13 09:00;CYQG 130900Z 34006KT 7SM FEW020 18/17 A2985 RMK SC1 SLP107

CYQG;2013-08-13 10:00;CYQG 131000Z 01007KT 10SM FEW012 SCT023 18/16 A2987 RMK SC2SC1 SLP113

CYQG;2013-08-13 10:35;CYQG 131035Z 01006KT 12SM BKN012 RMK SC7

CYQG;2013-08-13 10:53;CYQG 131053Z 36006KT 15SM OVC016 RMK SC8

CYQG;2013-08-13 11:00;CYQG 131100Z 36007KT 15SM OVC018 17/16 A2988 RMK SC8 SLP118

CYQG;2013-08-13 11:22;CYQG 131122Z 01005KT 10SM FEW009 BKN014 RMK SF1SC6

CYQG;2013-08-13 12:00;CYQG 131200Z 33009KT 10SM FEW009 BKN014 17/15 A2990 RMK SF1SC6 SLP123

CYQG;2013-08-13 13:00;CYQG 131300Z 33010G17KT 12SM OVC013 16/13 A2992 RMK SC8 SLP131

CYQG;2013-08-13 14:00;CYQG 131400Z 34006KT 15SM BKN013 15/13 A2995 RMK SC7 SLP141

CYQG;2013-08-13 14:24;CYQG 131424Z 34010KT 15SM BKN019 RMK SC7

CYQG;2013-08-13 15:00;CYQG 131500Z 34010G15KT 15SM BKN023 16/12 A2996 RMK SC6 SLP144

CYQG;2013-08-13 16:00;CYQG 131600Z 35010G16KT 15SM BKN034 18/11 A2996 RMK SC6 SLP146

CYQG;2013-08-13 17:00;CYQG 131700Z 32010KT 15SM SCT034 19/10 A2998 RMK SC3 SLP150

CYQG;2013-08-13 18:00;CYQG 131800Z 34013G21KT 15SM SCT043 19/10 A2998 RMK SC4 SLP151

CYQG;2013-08-13 20:00;CYQG 132000Z 34013G19KT 15SM BKN050 19/09 A2999 RMK SC6 SLP154

CYQG;2013-08-13 21:00;CYQG 132100Z 34012KT 15SM BKN058 19/08 A2999 RMK SC7 SLP156

CYQG;2013-08-13 22:00;CYQG 132200Z 34007KT 15SM BKN062 19/08 A2999 RMK SC7 SLP156

CYQG;2013-08-13 23:00;CYQG 132300Z 34011G17KT 15SM FEW040 BKN077 19/08 A2999 RMK CU2AC6 SLP155

CYQG;2013-08-14 00:00;CYQG 140000Z 32012KT 15SM FEW030 BKN079 18/07 A3000 RMK CU2AC6 SLP158

CYQG;2013-08-14 01:00;CYQG 140100Z 36010KT 15SM SCT050 BKN080 17/07 A3000 RMK CU3AC2 SLP159

CYQG;2013-08-14 02:00;CYQG 140200Z 35010KT 15SM FEW055 16/07 A3003 RMK SC2 SLP167

CYQG;2013-08-14 03:00;CYQG 140300Z 35007KT 15SM SKC 15/07 A3004 RMK SLP173

CYQG;2013-08-14 04:00;CYQG 140400Z 34007KT 15SM FEW060 14/07 A3005 RMK SC1 SLP176

CYQG;2013-08-14 05:00;CYQG 140500Z 33010KT 15SM SKC 14/07 A3006 RMK SLP180

CYQG;2013-08-14 06:00;CYQG 140600Z 33007KT 15SM SKC 13/07 A3007 RMK SLP181

CYQG;2013-08-14 07:00;CYQG 140700Z 33007KT 15SM FEW080 13/08 A3007 RMK AC1 SLP182

CYQG;2013-08-14 08:00;CYQG 140800Z 32009KT 15SM FEW060 12/08 A3007 RMK SC1 SLP183

CYQG;2013-08-14 09:00;CYQG 140900Z 32011KT 15SM FEW060 12/08 A3007 RMK SC1 SLP182

CYQG;2013-08-14 10:00;CYQG 141000Z 32010KT 15SM FEW070 12/08 A3008 RMK AC1 SLP186

CYQG;2013-08-14 11:00;CYQG 141100Z 33009KT 15SM FEW080 12/09 A3010 RMK AC1 SLP194

CYQG;2013-08-14 12:00;CYQG 141200Z 32009KT 15SM BKN053 13/09 A3012 RMK SC5 SLP199

CYQG;2013-08-14 13:00;CYQG 141300Z 34012KT 15SM BKN051 14/10 A3013 RMK SC6 SLP204

CYQG;2013-08-14 14:00;CYQG 141400Z 34008KT 15SM FEW051 15/10 A3014 RMK SC1 SLP207

CYQG;2013-08-14 15:00;CYQG 141500Z 34011KT 15SM FEW028 17/11 A3015 RMK CU1 SLP209

CYQG;2013-08-14 16:00;CYQG 141600Z 36010KT 15SM SCT034 18/10 A3016 RMK CU4 SLP213

CYQG;2013-08-14 17:00;CYQG 141700Z 36008KT 15SM SCT040 19/10 A3016 RMK SC4 SLP213

CYQG;2013-08-14 18:00;CYQG 141800Z 31008KT 15SM SCT048 BKN059 19/09 A3015 RMK CU4SC2 SLP211

CYQG;2013-08-14 19:00;CYQG 141900Z 33002KT 15SM SCT048 SCT059 20/09 A3014 RMK CU3SC1 SLP208

CYQG;2013-08-14 20:00;CYQG 142000Z 01005KT 15SM FEW050 BKN072 20/10 A3014 RMK CU2AC4 SLP205

CYQG;2013-08-14 21:00;CYQG 142100Z 00000KT 15SM FEW060 BKN075 20/09 A3014 RMK CU2AC5 SLP205

CYQG;2013-08-14 22:00;CYQG 142200Z 00000KT 15SM BKN073 21/12 A3014 RMK CU6 SLP205

CYQG;2013-08-14 23:00;CYQG 142300Z 11003KT 15SM BKN060 20/11 A3013 RMK CU7 SLP203

CYQG;2013-08-15 00:00;CYQG 150000Z 16003KT 15SM BKN062 19/12 A3013 RMK SC5 SLP203

CYQG;2013-08-15 01:00;CYQG 150100Z 20004KT 15SM BKN068 18/12 A3014 RMK AC6 SLP205

CYQG;2013-08-15 02:00;CYQG 150200Z 00000KT 15SM BKN068 18/12 A3015 RMK AC6 SLP211

CYQG;2013-08-15 03:00;CYQG 150300Z 27003KT 15SM FEW070 17/10 A3015 RMK AC2 SLP210

CYQG;2013-08-15 04:00;CYQG 150400Z 27002KT 15SM SKC 15/10 A3015 RMK SLP210

CYQG;2013-08-15 05:00;CYQG 150500Z 23005KT 15SM SKC 15/11 A3016 RMK SLP212

CYQG;2013-08-15 06:00;CYQG 150600Z 27005KT 15SM SKC 15/10 A3015 RMK SLP211

CYQG;2013-08-15 07:00;CYQG 150700Z 29005KT 15SM SKC 14/10 A3015 RMK SLP209

CYQG;2013-08-15 08:00;CYQG 150800Z 27004KT 15SM SKC 14/10 A3015 RMK SLP211

CYQG;2013-08-15 09:00;CYQG 150900Z 22004KT 15SM SKC 13/10 A3016 RMK SLP212

CYQG;2013-08-15 10:00;CYQG 151000Z 00000KT 15SM SKC 12/10 A3016 RMK SLP213

CYQG;2013-08-15 11:00;CYQG 151100Z 00000KT 15SM FEW280 12/10 A3017 RMK CI0 SLP217

CYQG;2013-08-15 12:00;CYQG 151200Z 27004KT 15SM FEW280 14/12 A3018 RMK CI1 SLP219

CYQG;2013-08-15 13:00;CYQG 151300Z 27003KT 15SM FEW120 FEW280 17/11 A3019 RMK AC1CI1 SLP222

CYQG;2013-08-15 14:00;CYQG 151400Z 31004KT 15SM FEW120 FEW280 18/11 A3018 RMK AC1CI1 SLP221

CYQG;2013-08-15 15:00;CYQG 151500Z 24008KT 15SM FEW035 SCT280 20/11 A3019 RMK CU1CI2 SLP222

CYQG;2013-08-15 16:00;CYQG 151600Z 27007KT 15SM FEW040 SCT280 20/11 A3017 RMK CU2CI2 SLP218

CYQG;2013-08-15 17:00;CYQG 151700Z 23007KT 15SM FEW040 SCT280 21/12 A3016 RMK CU2CI2 SLP214

CYQG;2013-08-15 18:00;CYQG 151800Z 24004KT 15SM FEW040 SCT280 21/11 A3014 RMK CU2CI2 SLP207

CYQG;2013-08-15 19:00;CYQG 151900Z 23006KT 15SM BKN058 BKN280 23/11 A3013 RMK CU5CI1 SLP201

CYQG;2013-08-15 20:00;CYQG 152000Z 19005KT 15SM SCT058 BKN280 22/11 A3011 RMK CU3CI1 SLP197

CYQG;2013-08-15 21:00;CYQG 152100Z 20008KT 15SM BKN078 BKN280 22/11 A3011 RMK AC5CI1 SLP195

CYQG;2013-08-15 22:00;CYQG 152200Z 20010KT 15SM FEW040 BKN078 BKN280 22/12 A3011 RMK CU1AC5CI1 SLP196

CYQG;2013-08-15 23:00;CYQG 152300Z 20008KT 15SM FEW038 SCT075 BKN280 21/11 A3011 RMK CU1AC3CI1 SLP195

CYQG;2013-08-16 00:00;CYQG 160000Z 18005KT 15SM SCT077 BKN260 20/12 A3012 RMK AC3CI1 SLP198

CYQG;2013-08-16 01:00;CYQG 160100Z 19006KT 15SM FEW075 BKN260 19/12 A3013 RMK AC2CI0 SLP201

CYQG;2013-08-16 02:00;CYQG 160200Z 19005KT 15SM FEW075 SCT260 18/12 A3014 RMK AC2CI0 SLP205

CYQG;2013-08-16 03:00;CYQG 160300Z 20005KT 15SM FEW075 SCT260 18/12 A3014 RMK AC2CI0 SLP204

CYQG;2013-08-16 04:00;CYQG 160400Z 21004KT 15SM FEW260 17/12 A3014 RMK CI1 SLP204

CYQG;2013-08-16 05:00;CYQG 160500Z 20004KT 15SM FEW260 17/12 A3013 RMK CI1 SLP202

CYQG;2013-08-16 06:00;CYQG 160600Z 21004KT 15SM FEW260 16/12 A3013 RMK CI1 SLP202

CYQG;2013-08-16 07:00;CYQG 160700Z 27006KT 15SM FEW270 17/13 A3013 RMK CI1 SLP202

CYQG;2013-08-16 08:00;CYQG 160800Z 20003KT 15SM FEW270 16/12 A3014 RMK CI1 SLP204

CYQG;2013-08-16 09:00;CYQG 160900Z 24004KT 15SM FEW070 15/12 A3014 RMK AC1 SLP205

CYQG;2013-08-16 10:00;CYQG 161000Z 22004KT 15SM FEW080 FEW270 14/12 A3015 RMK AC1CI1 SLP208

CYQG;2013-08-16 11:00;CYQG 161100Z 22004KT 15SM FEW070 BKN270 14/12 A3015 RMK AC1CI1 SLP209

CYQG;2013-08-16 12:00;CYQG 161200Z 26002KT 15SM FEW070 FEW270 16/12 A3016 RMK AC1CS1 SLP214

CYQG;2013-08-16 13:00;CYQG 161300Z 32002KT 12SM FEW070 FEW270 17/13 A3017 RMK AC1CS1 SLP216

CYQG;2013-08-16 14:00;CYQG 161400Z 00000KT 12SM FEW280 20/13 A3017 RMK CS1 SLP217

CYQG;2013-08-16 15:00;CYQG 161500Z 24003KT 15SM FEW280 22/13 A3018 RMK CS1 SLP219

CYQG;2013-08-16 16:00;CYQG 161600Z 21004KT 15SM FEW036 FEW280 23/13 A3018 RMK CU1CS1 SLP219

CYQG;2013-08-16 17:00;CYQG 161700Z 26004KT 15SM FEW065 FEW280 23/12 A3018 RMK CU2CS1 SLP218

CYQG;2013-08-16 18:00;CYQG 161800Z 22002KT 15SM BKN061 BKN280 24/12 A3017 RMK CU5CS1 SLP217

CYQG;2013-08-16 19:00;CYQG 161900Z 00000KT 15SM BKN058 BKN280 25/12 A3017 RMK CU5CI1 SLP216

CYQG;2013-08-16 20:00;CYQG 162000Z 08007KT 15SM SCT064 SCT180 25/11 A3017 RMK CU3AC1 SLP214

CYQG;2013-08-16 21:00;CYQG 162100Z 09008KT 15SM FEW057 25/11 A3017 RMK CU2 SLP214

CYQG;2013-08-16 22:00;CYQG 162200Z 08008KT 15SM FEW052 25/12 A3017 RMK CU1 SLP216

CYQG;2013-08-16 23:00;CYQG 162300Z 11005KT 15SM FEW050 24/11 A3017 RMK CU1 SLP217

CYQG;2013-08-17 00:00;CYQG 170000Z 17005KT 12SM FEW048 22/12 A3018 RMK CU1 SLP220

CYQG;2013-08-17 01:00;CYQG 170100Z 14003KT 15SM FEW045 20/12 A3019 RMK CU1 SLP223

CYQG;2013-08-17 02:00;CYQG 170200Z 18003KT 15SM SKC 19/12 A3021 RMK SLP228

CYQG;2013-08-17 03:00;CYQG 170300Z 00000KT 15SM SKC 18/13 A3021 RMK SLP229

CYQG;2013-08-17 04:00;CYQG 170400Z 00000KT 15SM SKC 17/13 A3022 RMK SLP232

CYQG;2013-08-17 05:00;CYQG 170500Z 00000KT 15SM FEW270 17/13 A3023 RMK CI0 SLP234

CYQG;2013-08-17 06:00;CYQG 170600Z 00000KT 15SM SKC 16/13 A3023 RMK SLP234

CYQG;2013-08-17 07:00;CYQG 170700Z 00000KT 15SM SKC 15/13 A3023 RMK SLP234

CYQG;2013-08-17 08:00;CYQG 170800Z 00000KT 15SM SKC 15/13 A3023 RMK SLP234

CYQG;2013-08-17 09:00;CYQG 170900Z 00000KT 12SM FEW260 15/13 A3023 RMK CI1 SLP237

CYQG;2013-08-17 10:00;CYQG 171000Z 00000KT 15SM FEW260 14/12 A3025 RMK CI1 SLP243

CYQG;2013-08-17 11:00;CYQG 171100Z 00000KT 10SM FEW100 FEW260 14/13 A3026 RMK AC1CI1 TR AC SLP247

CYQG;2013-08-17 12:00;CYQG 171200Z 00000KT 15SM SCT280 16/14 A3026 RMK CI3 SLP248

CYQG;2013-08-17 13:00;CYQG 171300Z 08002KT 15SM BKN280 19/15 A3027 RMK CI3 SLP251

CYQG;2013-08-17 14:00;CYQG 171400Z 08003KT 15SM BKN280 22/16 A3028 RMK CI3 SLP253

CYQG;2013-08-17 15:00;CYQG 171500Z 04005KT 15SM BKN280 23/15 A3027 RMK CI4 SLP250

CYQG;2013-08-17 16:00;CYQG 171600Z 05007KT 15SM FEW020 BKN280 23/14 A3026 RMK CF1CI4 TR CF SLP247

CYQG;2013-08-17 17:00;CYQG 171700Z 09005KT 15SM FEW020 BKN280 24/14 A3026 RMK CF1CI4 SLP247

CYQG;2013-08-17 18:00;CYQG 171800Z 05006KT 15SM FEW030 BKN280 24/12 A3025 RMK CU1CI4 SLP243

CYQG;2013-08-17 19:00;CYQG 171900Z 08006KT 15SM FEW030 BKN280 25/14 A3024 RMK CU1CI3 SLP239

CYQG;2013-08-17 20:00;CYQG 172000Z 09004KT 15SM FEW030 BKN280 25/14 A3023 RMK CU1CI3 SLP235

CYQG;2013-08-17 21:00;CYQG 172100Z 05009KT 15SM FEW044 BKN280 25/14 A3023 RMK CU2CI1 SLP234

CYQG;2013-08-17 22:00;CYQG 172200Z 11007KT 15SM FEW043 BKN280 25/14 A3022 RMK CU2CI2 SLP232

CYQG;2013-08-17 23:00;CYQG 172300Z 11006KT 15SM FEW040 SCT280 24/14 A3021 RMK CU1CI2 SLP229

CYQG;2013-08-18 00:00;CYQG 180000Z 12002KT 12SM FEW040 BKN260 23/15 A3021 RMK SC1CI3 CONTRAILS SLP230

CYQG;2013-08-18 01:00;CYQG 180100Z 09003KT 15SM SCT260 21/15 A3022 RMK CI2 SLP231

CYQG;2013-08-18 02:00;CYQG 180200Z 07002KT 15SM SCT260 19/15 A3022 RMK CI2 SLP233

CYQG;2013-08-18 03:00;CYQG 180300Z 07002KT 15SM SCT260 19/15 A3023 RMK CI2 SLP234

CYQG;2013-08-18 04:00;CYQG 180400Z 06002KT 15SM SKC 18/15 A3022 RMK SLP231

CYQG;2013-08-18 05:00;CYQG 180500Z 05003KT 12SM FEW260 18/16 A3021 RMK CI1 SLP230

CYQG;2013-08-18 06:00;CYQG 180600Z 05002KT 12SM FEW058 FEW260 18/16 A3021 RMK SC2CI1 TR CI SLP228

CYQG;2013-08-18 07:00;CYQG 180700Z 05003KT 10SM FEW058 18/16 A3021 RMK SC2 SLP228

CYQG;2013-08-18 08:00;CYQG 180800Z 02002KT 10SM FEW058 17/16 A3020 RMK SC1 SLP225

CYQG;2013-08-18 09:00;CYQG 180900Z CCA 06004KT 12SM SKC 17/16 A3019 RMK SLP222

CYQG;2013-08-18 10:00;CYQG 181000Z 02005KT 10SM FEW058 16/15 A3020 RMK SC1 SLP226

CYQG;2013-08-18 11:00;CYQG 181100Z 03004KT 5SM BR PRFG FEW058 FEW260 17/17 A3022 RMK SC1CI1 TR SC SLP230

CYQG;2013-08-18 12:00;CYQG 181200Z 36003KT 6SM BR FEW260 18/17 A3022 RMK CI2 SLP231

CYQG;2013-08-18 13:00;CYQG 181300Z 06005KT 6SM BR SCT006 21/19 A3023 RMK SF4 SLP236

CYQG;2013-08-18 14:00;CYQG 181400Z 08004KT 12SM FEW008 FEW280 22/19 A3023 RMK SF1CI1 TR SF SLP234

CYQG;2013-08-18 15:00;CYQG 181500Z 06006KT 15SM FEW015 FEW280 24/18 A3023 RMK CF1CI1 TR CF SLP234

CYQG;2013-08-18 16:00;CYQG 181600Z 06006KT 15SM FEW030 SCT280 25/16 A3021 RMK CU2CI1 SLP230

CYQG;2013-08-18 17:00;CYQG 181700Z 05008KT 15SM SCT035 SCT280 25/15 A3020 RMK CU4CI1 TR CI SLP226

CYQG;2013-08-18 18:00;CYQG 181800Z 05009KT 15SM SCT040 BKN280 26/14 A3019 RMK CU4CI0 SLP221

CYQG;2013-08-18 19:00;CYQG 181900Z 09005KT 15SM BKN048 25/16 A3018 RMK CU6 SLP217

CYQG;2013-08-18 20:00;CYQG 182000Z 15004KT 15SM BKN055 26/16 A3016 RMK CU6 SLP211

CYQG;2013-08-18 21:00;CYQG 182100Z 13003KT 15SM BKN058 25/15 A3015 RMK CU6 SLP207

CYQG;2013-08-18 22:00;CYQG 182200Z 18004KT 15SM SCT055 25/15 A3014 RMK CU4 SLP205

CYQG;2013-08-18 23:00;CYQG 182300Z 17006KT 12SM FEW050 24/15 A3014 RMK CU2 SLP204

CYQG;2013-08-19 00:00;CYQG 190000Z 18004KT 10SM FEW050 23/14 A3014 RMK CU1 SLP203

CYQG;2013-08-19 01:00;CYQG 190100Z 24003KT 15SM FEW050 22/14 A3014 RMK SC1 SLP203

CYQG;2013-08-19 02:00;CYQG 190200Z 22003KT 15SM SKC 21/15 A3015 RMK SLP208

CYQG;2013-08-19 03:00;CYQG 190300Z 00000KT 15SM SKC 20/15 A3014 RMK SLP205

CYQG;2013-08-19 04:00;CYQG 190400Z 14004KT 15SM SKC 18/15 A3014 RMK SLP204

CYQG;2013-08-19 05:00;CYQG 190500Z 17002KT 15SM SKC 17/15 A3014 RMK SLP203

CYQG;2013-08-19 06:00;CYQG 190600Z 00000KT 15SM SKC 17/14 A3013 RMK SLP201

CYQG;2013-08-19 07:00;CYQG 190700Z 00000KT 15SM FEW270 17/14 A3012 RMK CI1 SLP199

CYQG;2013-08-19 08:00;CYQG 190800Z 00000KT 15SM FEW270 16/14 A3012 RMK CI1 SLP198

CYQG;2013-08-19 09:00;CYQG 190900Z 27003KT 12SM FEW060 16/14 A3012 RMK SC1 TR SC SLP197

CYQG;2013-08-19 10:00;CYQG 191000Z 00000KT 10SM FEW058 FEW270 16/14 A3012 RMK SC1CI1 TR CI SLP199

CYQG;2013-08-19 11:00;CYQG 191100Z 00000KT 6SM BR BKN062 BKN270 16/15 A3014 RMK SC5CI1 TR CI SLP204

CYQG;2013-08-19 12:00;CYQG 191200Z 25002KT 8SM BKN063 19/16 A3014 RMK SC6 SLP205

CYQG;2013-08-19 13:00;CYQG 191300Z 26005KT 8SM SCT064 20/16 A3014 RMK SC4 SLP204

CYQG;2013-08-19 14:00;CYQG 191400Z 22004KT 15SM FEW065 22/16 A3014 RMK SC2 SLP203

CYQG;2013-08-19 15:00;CYQG 191500Z 22005KT 15SM FEW050 24/15 A3013 RMK CF1 TR CF SLP202

CYQG;2013-08-19 16:00;CYQG 191600Z 21004KT 15SM FEW040 25/16 A3011 RMK CU1 SLP195

CYQG;2013-08-19 17:00;CYQG 191700Z 17004KT 15SM SCT040 26/16 A3011 RMK CU3 SLP195

CYQG;2013-08-19 18:00;CYQG 191800Z 20010KT 15SM SCT050 27/15 A3010 RMK CU3 SLP192

CYQG;2013-08-19 19:00;CYQG 191900Z 21003KT 15SM SCT050 27/16 A3009 RMK CU4 SLP187

CYQG;2013-08-19 20:00;CYQG 192000Z 21007KT 15SM FEW048 28/17 A3007 RMK CU2 SLP182

CYQG;2013-08-19 21:00;CYQG 192100Z 25009KT 15SM FEW049 28/15 A3006 RMK CU1 SLP178

CYQG;2013-08-19 22:00;CYQG 192200Z 24008KT 15SM FEW050 28/15 A3006 RMK CF1 SLP176

CYQG;2013-08-19 23:00;CYQG 192300Z 22008KT 15SM FEW050 26/17 A3005 RMK CF1 SLP175

CYQG;2013-08-20 00:00;CYQG 200000Z 19007KT 15SM SKC 25/17 A3005 RMK SLP174

CYQG;2013-08-20 01:00;CYQG 200100Z 20006KT 15SM SKC 23/17 A3006 RMK SLP177

CYQG;2013-08-20 02:00;CYQG 200200Z 20006KT 15SM SKC 22/17 A3008 RMK SLP183

CYQG;2013-08-20 03:00;CYQG 200300Z 20005KT 15SM SKC 22/18 A3008 RMK SLP183

CYQG;2013-08-20 04:00;CYQG 200400Z 19004KT 15SM FEW058 22/18 A3008 RMK SC1 SLP183

CYQG;2013-08-20 05:00;CYQG 200500Z 20006KT 10SM FEW059 21/18 A3008 RMK SC1 SLP184

CYQG;2013-08-20 06:00;CYQG 200600Z 21006KT 10SM SKC 21/18 A3008 RMK SLP183

CYQG;2013-08-20 07:00;CYQG 200700Z 25002KT 8SM FEW051 20/18 A3008 RMK SC2 SLP185

CYQG;2013-08-20 08:00;CYQG 200800Z 29004KT 8SM SKC 20/18 A3009 RMK SLP186

CYQG;2013-08-20 09:00;CYQG 200900Z 27003KT 8SM FEW051 20/17 A3010 RMK SC1 SLP191

CYQG;2013-08-20 10:00;CYQG 201000Z 26003KT 8SM FEW048 18/16 A3011 RMK SC1 SLP193

CYQG;2013-08-20 11:00;CYQG 201100Z 20002KT 8SM FEW048 18/16 A3012 RMK SC1 SLP197

CYQG;2013-08-20 12:00;CYQG 201200Z 22002KT 10SM FEW050 20/16 A3014 RMK SC1 SLP204

CYQG;2013-08-20 13:00;CYQG 201300Z 24003KT 10SM SKC 22/17 A3015 RMK SLP208

CYQG;2013-08-20 14:00;CYQG 201400Z 24006KT 15SM SKC 23/17 A3016 RMK SLP211

CYQG;2013-08-20 15:00;CYQG 201500Z 23009KT 15SM SKC 25/18 A3016 RMK SLP211

CYQG;2013-08-20 16:00;CYQG 201600Z 23008KT 15SM FEW030 27/18 A3016 RMK CU1 SLP211

CYQG;2013-08-20 17:00;CYQG 201700Z 23008KT 15SM FEW035 27/18 A3015 RMK CU2 SLP208

CYQG;2013-08-20 18:00;CYQG 201800Z 20005KT 15SM BKN042 29/18 A3014 RMK CU5 SLP203

CYQG;2013-08-20 19:00;CYQG 201900Z 25006KT 15SM BKN049 29/18 A3013 RMK CU5 SLP199

CYQG;2013-08-20 20:00;CYQG 202000Z 21010KT 15SM FEW060 28/18 A3011 RMK CU2 SLP195

CYQG;2013-08-20 21:00;CYQG 202100Z 20008KT 15SM FEW060 29/18 A3010 RMK CU1 SLP191

CYQG;2013-08-20 22:00;CYQG 202200Z 20010KT 15SM FEW055 28/17 A3010 RMK CU1 SLP189

CYQG;2013-08-20 23:00;CYQG 202300Z 20007KT 15SM FEW055 27/18 A3010 RMK CU1 SLP190

CYQG;2013-08-21 00:00;CYQG 210000Z 19006KT 15SM FEW055 FEW290 26/18 A3010 RMK CF1CI1 SLP191

CYQG;2013-08-21 01:00;CYQG 210100Z 18006KT 15SM SKC 24/18 A3011 RMK SLP194

CYQG;2013-08-21 02:00;CYQG 210200Z 18006KT 15SM SKC 23/18 A3012 RMK SLP198

CYQG;2013-08-21 03:00;CYQG 210300Z 18005KT 15SM FEW060 23/19 A3013 RMK SC2 SLP199

CYQG;2013-08-21 04:00;CYQG 210400Z 09005KT 12SM SKC 23/19 A3013 RMK SLP200

CYQG;2013-08-21 05:00;CYQG 210500Z 21006KT 12SM SKC 23/19 A3013 RMK SLP201

CYQG;2013-08-21 06:00;CYQG 210600Z 19004KT 12SM SKC 22/18 A3013 RMK SLP200

CYQG;2013-08-21 07:00;CYQG 210700Z 20006KT 12SM FEW280 22/19 A3013 RMK CI1 SLP199

CYQG;2013-08-21 08:00;CYQG 210800Z 21003KT 10SM FEW280 22/19 A3013 RMK CI1 SLP199

CYQG;2013-08-21 09:00;CYQG 210900Z 20004KT 10SM FEW280 21/18 A3012 RMK CI1 SLP198

CYQG;2013-08-21 10:00;CYQG 211000Z 00000KT 12SM FEW280 21/19 A3013 RMK CI1 SLP199

CYQG;2013-08-21 11:00;CYQG 211100Z 23002KT 6SM HZ FEW280 21/19 A3014 RMK CI1 SLP203

CYQG;2013-08-21 12:00;CYQG 211200Z 23006KT 7SM BKN280 22/18 A3016 RMK CI2 SLP210

CYQG;2013-08-21 13:00;CYQG 211300Z 24006KT 8SM BKN280 24/18 A3016 RMK CI2 SLP211

CYQG;2013-08-21 14:00;CYQG 211400Z 25007KT 10SM BKN300 24/18 A3016 RMK CI2 SLP211

CYQG;2013-08-21 15:00;CYQG 211500Z 23010KT 12SM BKN300 27/19 A3015 RMK CI2 SLP207

CYQG;2013-08-21 16:00;CYQG 211600Z 25009KT 10SM SCT300 28/20 A3015 RMK CI2 SLP208

CYQG;2013-08-21 17:00;CYQG 211700Z 20009KT 12SM FEW030 BKN300 28/19 A3013 RMK CU1CI2 SLP200

CYQG;2013-08-21 18:00;CYQG 211800Z 21010G15KT 12SM FEW030 SCT300 29/19 A3011 RMK CU1CI1 SLP194

CYQG;2013-08-21 19:00;CYQG 211900Z 20009KT 12SM FEW035 BKN300 29/18 A3010 RMK CU1CI2 TCU ASOCT DIST W SLP188

CYQG;2013-08-21 20:00;CYQG 212000Z CCA 19010KT 12SM FEW040 SCT300 29/19 A3007 RMK CU1CI1 SLP180

CYQG;2013-08-21 21:00;CYQG 212100Z 22009KT 10SM FEW040 FEW300 29/19 A3006 RMK CU1CI1 SLP175

CYQG;2013-08-21 22:00;CYQG 212200Z 19010KT 10SM BKN090 28/18 A3005 RMK AC6 SLP174

CYQG;2013-08-21 23:00;CYQG 212300Z 18009KT 12SM SCT090 27/19 A3003 RMK AC3 SLP166

CYQG;2013-08-22 00:00;CYQG 220000Z 19006KT 12SM FEW090 26/19 A3002 RMK AC1 SLP164

CYQG;2013-08-22 01:00;CYQG 220100Z 18004KT 12SM FEW300 25/19 A3002 RMK CI1 SLP162

CYQG;2013-08-22 02:00;CYQG 220200Z 19005KT 12SM SKC 24/20 A3005 RMK SLP173

CYQG;2013-08-22 03:00;CYQG 220300Z 21005KT 12SM FEW300 24/20 A3006 RMK CI1 SLP175

CYQG;2013-08-22 04:00;CYQG 220400Z 23006KT 12SM FEW300 23/21 A3005 RMK CI1 SLP174

CYQG;2013-08-22 05:00;CYQG 220500Z 20005KT 12SM FEW300 23/20 A3003 RMK CS2 SLP167

CYQG;2013-08-22 06:00;CYQG 220600Z 23008KT 10SM BKN300 23/20 A3003 RMK CS7 SLP167

CYQG;2013-08-22 07:00;CYQG 220700Z 23007KT 12SM BKN074 OVC300 23/20 A3002 RMK AC5CS3 SLP164

CYQG;2013-08-22 08:00;CYQG 220800Z CCA 26010KT 12SM OVC280 23/20 A3001 RMK CC8 SLP160

CYQG;2013-08-22 09:00;CYQG 220900Z 21007KT 12SM SCT260 OVC300 22/19 A2998 RMK CC4CS4 SLP147

CYQG;2013-08-22 10:00;CYQG 221000Z 03007KT 12SM BKN092 OVC300 22/19 A2998 RMK AC7CS1 SLP150

CYQG;2013-08-22 10:32;CYQG 221032Z 27009KT 8SM -SHRA BKN081 OVC300 RMK AC7CS1

CYQG;2013-08-22 10:52;CYQG 221052Z 28006KT 8SM FEW081 BKN120 BKN280 RMK AC1AC6CS1

CYQG;2013-08-22 11:00;CYQG 221100Z 29005KT 8SM FEW081 BKN120 BKN280 22/20 A3001 RMK AC1AC6CS1 SLP158

CYQG;2013-08-22 12:00;CYQG 221200Z 23004KT 6SM BR BKN096 BKN120 22/20 A3003 RMK AC5AC2 SLP165

CYQG;2013-08-22 13:00;CYQG 221300Z 26006KT 6SM BR SCT110 BKN280 22/20 A3006 RMK AC3CI2 SLP175

CYQG;2013-08-22 14:00;CYQG 221400Z 30006KT 8SM FEW110 BKN280 24/20 A3004 RMK AC1CI2 SLP170

CYQG;2013-08-22 15:00;CYQG 221500Z CCA 27009KT 12SM FEW030 BKN300 26/19 A3004 RMK CF1CI2 TR CF CONTRAILS SLP171

CYQG;2013-08-22 16:00;CYQG 221600Z 27008KT 15SM BKN300 27/18 A3004 RMK CI2 CONTRAILS SLP169

CYQG;2013-08-22 17:00;CYQG 221700Z 28009KT 15SM BKN300 28/18 A3003 RMK CI5 SLP166

CYQG;2013-08-22 18:00;CYQG 221800Z 26006KT 15SM FEW030 BKN270 BKN300 28/19 A3002 RMK CF1CS5CI2 HALO TR CF SLP163

CYQG;2013-08-22 19:00;CYQG 221900Z 24008KT 12SM FEW030 OVC270 28/19 A3002 RMK CU1CS6 SLP162

CYQG;2013-08-22 20:00;CYQG 222000Z 27007KT 15SM SCT045 OVC250 28/19 A3000 RMK CU3CS5 SLP156

CYQG;2013-08-22 21:00;CYQG 222100Z 27009KT 15SM BKN046 OVC260 29/20 A3000 RMK CU5CS2 SLP154

CYQG;2013-08-22 22:00;CYQG 222200Z 31009KT 15SM FEW047 BKN140 OVC260 28/18 A3000 RMK CU2AC4CS2 SLP155

CYQG;2013-08-23 00:00;CYQG 230000Z 31008KT 15SM FEW038 BKN140 OVC260 26/19 A3000 RMK CU2AC4CS2 SLP157

CYQG;2013-08-23 03:00;CYQG 230300Z 01004KT 15SM SCT140 BKN260 24/19 A3003 RMK AC3CS3 SLP165

CYQG;2013-08-23 04:00;CYQG 230400Z 06009KT 12SM FEW033 BKN130 22/19 A3004 RMK SC2AC6 SLP171

CYQG;2013-08-23 05:00;CYQG 230500Z 05006KT 15SM FEW026 BKN130 22/17 A3006 RMK SC1AC6 SLP177

CYQG;2013-08-23 06:00;CYQG 230600Z 02005KT 15SM FEW029 BKN140 22/17 A3007 RMK SC2AC5 SLP180

CYQG;2013-08-23 07:00;CYQG 230700Z 36005KT 15SM BKN037 BKN130 21/16 A3007 RMK SC5AC2 SLP180

CYQG;2013-08-23 08:00;CYQG 230800Z 36007KT 15SM BKN041 BKN130 20/16 A3007 RMK SC5AC2 SLP181

CYQG;2013-08-23 09:00;CYQG 230900Z 36006KT 15SM FEW040 19/15 A3007 RMK SC2 SLP182

CYQG;2013-08-23 10:00;CYQG 231000Z 36006KT 15SM FEW040 18/15 A3008 RMK SC2 SLP185

CYQG;2013-08-23 11:00;CYQG 231100Z 36004KT 15SM FEW040 FEW130 18/15 A3011 RMK SC1AC1 SLP193

CYQG;2013-08-23 12:00;CYQG 231200Z 01006KT 15SM FEW040 19/15 A3013 RMK CU1 CU DIST S SLP200

CYQG;2013-08-23 13:00;CYQG 231300Z 02007KT 15SM FEW050 20/15 A3014 RMK SC1 SLP204

CYQG;2013-08-23 14:00;CYQG 231400Z 04006KT 15SM FEW035 23/15 A3014 RMK CU1 CU DIST S SLP205

CYQG;2013-08-23 15:00;CYQG 231500Z 06008KT 15SM FEW035 24/15 A3014 RMK CU1 SLP205

CYQG;2013-08-23 16:00;CYQG 231600Z CCA 04006KT 15SM FEW030 25/14 A3015 RMK CU1 TR CU SLP206

CYQG;2013-08-23 17:00;CYQG 231700Z 04008KT 15SM FEW030 26/12 A3014 RMK CU1 SLP205

CYQG;2013-08-23 18:00;CYQG 231800Z 05007KT 15SM FEW030 26/12 A3014 RMK CU1 SLP205

CYQG;2013-08-23 19:00;CYQG 231900Z 04009KT 15SM FEW030 27/11 A3014 RMK CU1 SLP204

CYQG;2013-08-23 20:00;CYQG 232000Z 08010KT 15SM FEW062 26/10 A3014 RMK SC1 CU ASOCTD SLP202

CYQG;2013-08-23 21:00;CYQG 232100Z 09009KT 15SM FEW060 27/14 A3013 RMK SC1 CU ASOCTD SLP201

CYQG;2013-08-23 22:00;CYQG 232200Z 07007KT 15SM FEW052 26/13 A3013 RMK CU1 SLP200

CYQG;2013-08-23 23:00;CYQG 232300Z 05010G15KT 15SM FEW046 25/14 A3014 RMK CU1 SLP203

CYQG;2013-08-24 00:00;CYQG 240000Z 04009KT 15SM FEW038 FEW280 23/14 A3015 RMK CU1CI1 TR CU TR CI SLP207

CYQG;2013-08-24 01:00;CYQG 240100Z 05007KT 15SM FEW032 21/13 A3017 RMK CU1 TR CU SLP214

CYQG;2013-08-24 02:00;CYQG 240200Z 06007KT 15SM SKC 20/14 A3019 RMK SLP222

CYQG;2013-08-24 03:00;CYQG 240300Z 05006KT 15SM FEW270 19/14 A3021 RMK CI1 SLP228

CYQG;2013-08-24 04:00;CYQG 240400Z 04004KT 15SM FEW060 SCT270 18/14 A3022 RMK SC2CI1 SLP232

CYQG;2013-08-24 05:00;CYQG 240500Z 07003KT 15SM FEW063 SCT270 18/14 A3023 RMK SC2CI1 SLP234

CYQG;2013-08-24 06:00;CYQG 240600Z 06003KT 15SM FEW060 18/15 A3023 RMK SC1 SLP233

CYQG;2013-08-24 07:00;CYQG 240700Z 35003KT 15SM SKC 17/14 A3023 RMK SLP234

CYQG;2013-08-24 08:00;CYQG 240800Z 36003KT 15SM SKC 17/15 A3024 RMK SLP238

CYQG;2013-08-24 09:00;CYQG 240900Z 36002KT 15SM SKC 16/14 A3025 RMK SLP242

CYQG;2013-08-24 10:00;CYQG 241000Z 36002KT 15SM FEW050 16/14 A3026 RMK SC1 SLP247

CYQG;2013-08-24 11:00;CYQG 241100Z 36002KT 15SM FEW050 FEW270 16/14 A3029 RMK SC1CI1 SLP255

CYQG;2013-08-24 12:00;CYQG 241200Z 00000KT 15SM FEW270 17/15 A3031 RMK CI1 SLP262

CYQG;2013-08-24 13:00;CYQG 241300Z 07003KT 15SM FEW280 20/17 A3032 RMK CI1 SLP267

CYQG;2013-08-24 14:00;CYQG 241400Z 11005KT 15SM FEW020 FEW280 23/16 A3032 RMK CF1CI1 TR CF SLP268

CYQG;2013-08-24 15:00;CYQG 241500Z 16004KT 15SM FEW020 FEW280 24/16 A3033 RMK CF1CI1 SLP269

CYQG;2013-08-24 16:00;CYQG 241600Z 13004KT 15SM SCT030 SCT280 25/14 A3032 RMK CU3CI1 SLP267

CYQG;2013-08-24 17:00;CYQG 241700Z 15007KT 15SM SCT050 BKN280 26/14 A3032 RMK CU3CI1 SLP264

CYQG;2013-08-24 18:00;CYQG 241800Z 16005KT 15SM BKN055 BKN280 25/13 A3030 RMK CU5CI1 SLP258

CYQG;2013-08-24 19:00;CYQG 241900Z 17007KT 15SM SCT060 BKN280 26/15 A3030 RMK CU3CI1 SLP258

CYQG;2013-08-24 20:00;CYQG 242000Z 14009KT 15SM FEW058 SCT280 25/14 A3029 RMK CU2CI1 SLP256

CYQG;2013-08-24 21:00;CYQG 242100Z 14006KT 15SM FEW050 SCT280 25/14 A3029 RMK CU2CI1 SLP256

CYQG;2013-08-24 22:00;CYQG 242200Z 16007KT 15SM FEW050 FEW280 25/14 A3029 RMK CU1CI1 TR CU SLP255

CYQG;2013-08-24 23:00;CYQG 242300Z 17007KT 15SM FEW280 24/14 A3029 RMK CI1 SLP255

CYQG;2013-08-25 00:00;CYQG 250000Z 15004KT 15SM SCT270 23/14 A3029 RMK CI1 CONTRAILS SLP258

CYQG;2013-08-25 01:00;CYQG 250100Z 13005KT 15SM FEW270 20/14 A3031 RMK CI1 SLP262

CYQG;2013-08-25 02:00;CYQG 250200Z 12003KT 15SM SKC 19/14 A3031 RMK SLP262

CYQG;2013-08-25 03:00;CYQG 250300Z 14003KT 15SM FEW270 18/14 A3030 RMK CI1 TR CI SLP259

CYQG;2013-08-25 04:00;CYQG 250400Z 00000KT 15SM FEW270 17/14 A3030 RMK CI1 SLP258

CYQG;2013-08-25 05:00;CYQG 250500Z 00000KT 15SM FEW270 17/14 A3029 RMK CI1 SLP257

CYQG;2013-08-25 06:00;CYQG 250600Z 00000KT 15SM SKC 16/14 A3029 RMK SLP256

CYQG;2013-08-25 07:00;CYQG 250700Z 00000KT 15SM SKC 15/13 A3030 RMK SLP258

CYQG;2013-08-25 08:00;CYQG 250800Z 00000KT 15SM SKC 16/14 A3029 RMK SLP257

CYQG;2013-08-25 09:00;CYQG 250900Z 00000KT 15SM SKC 15/13 A3031 RMK SLP262

CYQG;2013-08-25 10:00;CYQG 251000Z 00000KT 15SM BKN270 15/14 A3031 RMK CI2 SLP263

CYQG;2013-08-25 11:00;CYQG 251100Z 12002KT 15SM BKN270 15/14 A3032 RMK CI4 SLP266

CYQG;2013-08-25 12:00;CYQG 251200Z 00000KT 15SM BKN270 16/14 A3032 RMK CI2 SLP265

CYQG;2013-08-25 13:00;CYQG 251300Z 21004KT 15SM SCT270 21/17 A3031 RMK CI1 SLP264

CYQG;2013-08-25 14:00;CYQG 251400Z 22010KT 15SM FEW280 23/16 A3031 RMK CI1 SLP262

CYQG;2013-08-25 15:00;CYQG 251500Z 22008KT 15SM FEW280 25/17 A3031 RMK CI1 SLP261

CYQG;2013-08-25 16:00;CYQG 251600Z 24007KT 15SM FEW280 26/17 A3028 RMK CI0 CONTRAILS SLP253

CYQG;2013-08-25 17:00;CYQG 251700Z 22010G15KT 15SM FEW280 28/17 A3027 RMK CI1 SLP248

CYQG;2013-08-25 18:00;CYQG 251800Z 26016KT 15SM FEW290 28/17 A3026 RMK CI1 SLP245

CYQG;2013-08-25 19:00;CYQG 251900Z 23009KT 15SM FEW290 30/17 A3023 RMK CI0 SLP236

CYQG;2013-08-25 20:00;CYQG 252000Z 24011KT 15SM FEW160 30/16 A3021 RMK AC1 SLP229

CYQG;2013-08-25 21:00;CYQG 252100Z 20013KT 15SM FEW170 FEW300 29/17 A3019 RMK AC1CI1 CONTRAILS SLP220

CYQG;2013-08-25 22:00;CYQG 252200Z 22012KT 15SM FEW180 FEW300 30/17 A3019 RMK AC1CI1 CONTRAILS SLP220

CYQG;2013-08-25 23:00;CYQG 252300Z 21010KT 15SM FEW300 28/17 A3017 RMK CI1 CONTRAILS SLP216

CYQG;2013-08-26 00:00;CYQG 260000Z 21007KT 15SM SCT300 27/17 A3017 RMK CI1 CONTRAILS SLP213

CYQG;2013-08-26 01:00;CYQG 260100Z 19004KT 15SM SKC 25/18 A3018 RMK SLP218

CYQG;2013-08-26 02:00;CYQG 260200Z 21005KT 15SM SKC 24/18 A3019 RMK SLP221

CYQG;2013-08-26 03:00;CYQG 260300Z 23008KT 15SM SKC 25/17 A3019 RMK SLP219

CYQG;2013-08-26 04:00;CYQG 260400Z 23008KT 15SM SKC 25/17 A3018 RMK SLP216

CYQG;2013-08-26 05:00;CYQG 260500Z 24007KT 15SM SKC 24/17 A3017 RMK SLP214

CYQG;2013-08-26 06:00;CYQG 260600Z 22007KT 15SM SKC 23/17 A3015 RMK SLP206

CYQG;2013-08-26 07:00;CYQG 260700Z 23007KT 15SM SKC 22/17 A3014 RMK SLP202

CYQG;2013-08-26 08:00;CYQG 260800Z 24006KT 15SM SKC 22/17 A3014 RMK SLP202

CYQG;2013-08-26 09:00;CYQG 260900Z 24008KT 15SM SKC 22/17 A3014 RMK SLP203

CYQG;2013-08-26 10:00;CYQG 261000Z 22009KT 15SM SCT270 21/17 A3014 RMK CI2 SLP203

CYQG;2013-08-26 11:00;CYQG 261100Z 22006KT 8SM BKN270 20/17 A3016 RMK CI5 CONTRAILS SLP209

CYQG;2013-08-26 12:00;CYQG 261200Z 25006KT 12SM BKN280 21/17 A3016 RMK CI2 SLP210

CYQG;2013-08-26 13:00;CYQG 261300Z 25010KT 15SM BKN280 23/17 A3013 RMK CI2 SLP201

CYQG;2013-08-26 14:00;CYQG 261400Z 26014G20KT 15SM BKN290 26/17 A3013 RMK CS5 CONTRAILS SLP199

CYQG;2013-08-26 15:00;CYQG 261500Z 26013KT 15SM OVC290 27/18 A3013 RMK CS6 SLP198

CYQG;2013-08-26 16:00;CYQG 261600Z 26011KT 15SM FEW100 OVC270 28/18 A3011 RMK AC1CS6 SLP192

CYQG;2013-08-26 17:00;CYQG 261700Z 24009KT 15SM FEW080 OVC270 29/19 A3009 RMK AC1CS6 SLP185

CYQG;2013-08-26 18:00;CYQG 261800Z 25009KT 15SM FEW160 OVC260 30/20 A3005 RMK AC2CS6 SLP172

CYQG;2013-08-26 19:00;CYQG 261900Z 24012KT 15SM BKN260 30/20 A3002 RMK CI6 SLP164

CYQG;2013-08-26 20:00;CYQG 262000Z 25011G17KT 15SM BKN260 30/21 A3000 RMK CI6 SLP156

CYQG;2013-08-26 21:00;CYQG 262100Z 26013KT 15SM BKN080 BKN300 31/21 A3000 RMK AC5CC2 SLP154

CYQG;2013-08-26 22:00;CYQG 262200Z 25011KT 15SM BKN080 OVC300 30/21 A2999 RMK AC5CI3 SLP153

CYQG;2013-08-26 23:00;CYQG 262300Z 25010G15KT 8SM FEW080 FEW140 OVC300 30/22 A2998 RMK CU1AC2CS6 SLP150

CYQG;2013-08-27 00:00;CYQG 270000Z 27011KT 8SM FEW040 BKN093 OVC300 29/21 A2999 RMK CU1AC6CS2 SLP153

CYQG;2013-08-27 01:00;CYQG 270100Z 26008KT 8SM BKN080 BKN280 28/22 A3000 RMK AC6CC1 SLP155

CYQG;2013-08-27 02:00;CYQG 270200Z 26007KT 8SM BKN082 27/22 A3000 RMK AC6 SLP155

CYQG;2013-08-27 03:00;CYQG 270300Z 26006KT 8SM BKN096 27/22 A2999 RMK AC5 SLP152

CYQG;2013-08-27 04:00;CYQG 270400Z 27006KT 8SM BKN076 26/22 A2999 RMK AC7 SLP152

CYQG;2013-08-27 05:00;CYQG 270500Z 28006KT 8SM BKN082 26/22 A2999 RMK AC7 SLP152

CYQG;2013-08-27 06:00;CYQG 270600Z 29005KT 8SM BKN080 26/22 A2998 RMK AC5 SLP148

CYQG;2013-08-27 07:00;CYQG 270700Z 25007KT 8SM SCT063 25/21 A2997 RMK SC4 SLP144

CYQG;2013-08-27 08:00;CYQG 270800Z 26007KT 8SM SCT061 25/21 A2996 RMK SC4 SLP143

CYQG;2013-08-27 09:00;CYQG 270900Z 23005KT 10SM BKN072 25/21 A2995 RMK AC6 SLP139

CYQG;2013-08-27 10:00;CYQG 271000Z 25005KT 8SM SCT061 BKN081 25/21 A2995 RMK SC4AC3 SLP139

CYQG;2013-08-27 11:00;CYQG 271100Z 27005KT 7SM -SHRA OVC038 24/21 A2995 RMK SC8 SLP139

CYQG;2013-08-27 12:00;CYQG 271200Z 28009KT 7SM -SHRA BKN020 OVC059 24/22 A2999 RMK SC6SC2 SLP151

CYQG;2013-08-27 13:00;CYQG 271300Z 31014G20KT 10SM -SHRA FEW018 OVC058 23/20 A3001 RMK SC2SC6 SLP157

CYQG;2013-08-27 14:00;CYQG 271400Z 21004KT 15SM OVC048 22/20 A2996 RMK SC8 OCNL -SHRA SLP142

CYQG;2013-08-27 14:08;CYQG 271408Z 22005KT 15SM BKN048 OVC150 RMK SC6AC2

CYQG;2013-08-27 15:00;CYQG 271500Z 23004KT 10SM FEW050 SCT110 OVC150 23/21 A2996 RMK SC2AC2AC5 SLP141

CYQG;2013-08-27 15:42;CYQG 271542Z 24006KT 12SM -SHRA FEW050 OVC120 RMK SC2AC6

CYQG;2013-08-27 16:00;CYQG 271600Z 24008KT 12SM -SHRA FEW050 OVC120 24/22 A2998 RMK SC2AC6 SLP150

CYQG;2013-08-27 16:06;CYQG 271606Z 25008KT 12SM FEW008 FEW050 OVC120 RMK SF1SC2AC6 OCNL -SHRA

CYQG;2013-08-27 16:19;CYQG 271619Z 22010KT 10SM FEW007 OVC130 RMK SF2AC6

CYQG;2013-08-27 17:00;CYQG 271700Z 23010KT 12SM SCT009 OVC150 24/21 A2998 RMK SF3AC5 SLP148

CYQG;2013-08-27 18:00;CYQG 271800Z 25007KT 15SM FEW012 BKN160 25/22 A2995 RMK SC2AC5 SLP140

CYQG;2013-08-27 19:00;CYQG 271900Z 24007KT 15SM FEW014 BKN170 27/22 A2994 RMK SC1AC6 SLP135

CYQG;2013-08-27 20:00;CYQG 272000Z 21006KT 8SM BKN063 OVC160 27/23 A2992 RMK SC6AC2 SLP127

CYQG;2013-08-27 21:00;CYQG 272100Z 20003KT 8SM SCT070 OVC130 27/23 A2991 RMK CU3AC5 SLP126

CYQG;2013-08-27 22:00;CYQG 272200Z 20005KT 6SM HZ BKN120 OVC260 27/23 A2991 RMK AC6CS2 SLP124

CYQG;2013-08-27 23:00;CYQG 272300Z 18004KT 6SM HZ BKN130 OVC260 26/23 A2989 RMK AC6CS2 SLP119

CYQG;2013-08-27 23:42;CYQG 272342Z 20004KT 6SM -SHRA HZ FEW060 OVC130 RMK CU2AC6

CYQG;2013-08-28 00:00;CYQG 280000Z 19003KT 6SM -SHRA HZ FEW060 OVC110 25/23 A2990 RMK CU2AC6 SLP123

CYQG;2013-08-28 01:05;CYQG 280105Z 21005KT 4SM -TSRA BR FEW050 OVC100 RMK CU2AC6 CB EMBD

CYQG;2013-08-28 01:35;CYQG 280135Z 24007KT 5SM -SHRA BR SCT030 OVC150 RETS RMK CU3AC5

CYQG;2013-08-28 02:00;CYQG 280200Z 23004KT 6SM -SHRA BR FEW030 OVC098 25/24 A2990 RETS RMK CU2AC6 SLP123

CYQG;2013-08-28 02:47;CYQG 280247Z 10007KT 4SM SHRA BR BKN066 OVC100 RMK CU5AC3

CYQG;2013-08-28 03:00;CYQG 280300Z 11005KT 6SM SHRA BR BKN046 OVC100 24/23 A2989 RMK CU6AC2 SLP117

CYQG;2013-08-28 04:00;CYQG 280400Z 14006KT 6SM TSRA BR SCT042CB OVC140 24/22 A2986 RMK CB3AC5 LTGICCG SLP110

CYQG;2013-08-28 04:32;CYQG 280432Z 21004KT 8SM -SHRA FEW040 OVC150 RETSRA RMK SC2AC6

CYQG;2013-08-28 05:00;CYQG 280500Z 18007KT 7SM -SHRA BKN056 OVC170 25/23 A2984 RETSRA RMK SC5AC3 SLP103

CYQG;2013-08-28 06:00;CYQG 280600Z 21006KT 7SM -SHRA FEW012 BKN038 OVC054 25/23 A2984 RMK SF1SC6SC2 SLP100

CYQG;2013-08-28 07:00;CYQG 280700Z 24010KT 12SM BKN019 OVC034 25/23 A2981 RMK SC6SC2 OCNL -SHRA SLP090

CYQG;2013-08-28 08:00;CYQG 280800Z 24009KT 10SM SCT031 BKN057 OVC076 25/23 A2980 RMK SC3SC3AC2 SLP088

CYQG;2013-08-28 09:00;CYQG 280900Z 26008KT 8SM -SHRA SCT011 OVC022 24/23 A2980 RMK SC3SC5 SLP089

CYQG;2013-08-28 09:38;CYQG 280938Z 27007KT 8SM BKN013 OVC024 RMK SC6SC2

CYQG;2013-08-28 10:00;CYQG 281000Z 27007KT 7SM -SHRA SCT011 OVC022 24/23 A2981 RMK SC4SC4 SLP091

CYQG;2013-08-28 10:43;CYQG 281043Z 30006KT 7SM OVC013 RMK SC8

CYQG;2013-08-28 11:00;CYQG 281100Z 31010KT 7SM OVC015 24/23 A2982 RMK SC8 SLP095

CYQG;2013-08-28 11:36;CYQG 281136Z 33005KT 10SM BKN010 BKN025 BKN060 RMK SC5SC2SC1

CYQG;2013-08-28 12:00;CYQG 281200Z 34004KT 12SM BKN010 BKN062 25/23 A2984 RMK SC5SC2 SLP100

CYQG;2013-08-28 12:42;CYQG 281242Z 35007KT 12SM FEW011 BKN061 RMK SC2SC6

CYQG;2013-08-28 13:00;CYQG 281300Z 34008KT 12SM FEW011 OVC061 24/22 A2985 RMK SC2SC6 SLP103

CYQG;2013-08-28 13:28;CYQG 281328Z 36010KT 8SM OVC010 RMK SC8

CYQG;2013-08-28 14:00;CYQG 281400Z 02010KT 6SM HZ OVC012 25/22 A2986 RMK SC8 SLP109

CYQG;2013-08-28 14:50;CYQG 281450Z 02011KT 10SM FEW012 BKN062 RMK CU2SC4

CYQG;2013-08-28 15:00;CYQG 281500Z 04009KT 12SM FEW013 BKN062 26/22 A2987 RMK CU2SC5 SLP113

CYQG;2013-08-28 16:00;CYQG 281600Z 02010KT 15SM FEW012 BKN062 26/22 A2989 RMK CU2SC6 SLP117

CYQG;2013-08-28 17:00;CYQG 281700Z 04010KT 15SM BKN018 BKN062 27/22 A2989 RMK SC6SC1 SLP120

CYQG;2013-08-28 18:00;CYQG 281800Z 04010KT 15SM BKN034 27/22 A2991 RMK SC7 SLP125

CYQG;2013-08-28 19:00;CYQG 281900Z 04011G16KT 12SM FEW025 OVC032 27/21 A2992 RMK CU2CU6 SLP129

CYQG;2013-08-28 20:00;CYQG 282000Z 04010KT 15SM BKN051 27/21 A2993 RMK CU7 SLP131

CYQG;2013-08-28 21:00;CYQG 282100Z 04010KT 15SM SCT060 28/20 A2993 RMK CU4 SLP132

CYQG;2013-08-28 22:00;CYQG 282200Z 05011KT 15SM FEW060 28/20 A2994 RMK CU2 SLP135

CYQG;2013-08-28 23:00;CYQG 282300Z 04010KT 15SM FEW060 27/20 A2995 RMK SC2 SLP137

CYQG;2013-08-29 00:00;CYQG 290000Z 03007KT 15SM FEW060 BKN280 25/20 A2995 RMK SC1CI2 SLP139

CYQG;2013-08-29 01:00;CYQG 290100Z 04005KT 15SM SCT280 24/20 A2997 RMK CI1 SLP144

CYQG;2013-08-29 02:00;CYQG 290200Z 03006KT 15SM SKC 23/21 A2999 RMK SLP152

CYQG;2013-08-29 03:00;CYQG 290300Z 04006KT 15SM SKC 22/20 A3000 RMK SLP156

CYQG;2013-08-29 04:00;CYQG 290400Z 04006KT 15SM SKC 22/20 A3001 RMK SLP161

CYQG;2013-08-29 05:00;CYQG 290500Z 01003KT 15SM SKC 22/20 A3001 RMK SLP161

CYQG;2013-08-29 06:00;CYQG 290600Z 36004KT 15SM SKC 22/19 A3002 RMK SLP162

CYQG;2013-08-29 07:00;CYQG 290700Z 02005KT 15SM SKC 21/19 A3001 RMK SLP159

CYQG;2013-08-29 08:00;CYQG 290800Z 05005KT 15SM SKC 21/20 A3001 RMK SLP161

CYQG;2013-08-29 09:00;CYQG 290900Z 35002KT 15SM SKC 21/19 A3002 RMK SLP162

CYQG;2013-08-29 10:00;CYQG 291000Z 01003KT 12SM FEW020 20/19 A3003 RMK SC1 SLP166

CYQG;2013-08-29 11:00;CYQG 291100Z 35003KT 8SM MIFG SKC 20/19 A3004 RMK SLP170

CYQG;2013-08-29 12:00;CYQG 291200Z 36004KT 7SM SKC 20/19 A3006 RMK SLP177

CYQG;2013-08-29 13:00;CYQG 291300Z 04005KT 12SM SKC 23/20 A3007 RMK SLP182

CYQG;2013-08-29 14:00;CYQG 291400Z 04006KT 15SM FEW020 FEW270 24/21 A3009 RMK CU1CI1 TR CU TR CI SLP186

CYQG;2013-08-29 15:00;CYQG 291500Z 08002KT 15SM FEW280 26/21 A3008 RMK CI1 SLP183

CYQG;2013-08-29 16:00;CYQG 291600Z 13003KT 15SM FEW026 SCT280 27/21 A3009 RMK CU2CI1 SLP187

CYQG;2013-08-29 17:00;CYQG 291700Z 05005KT 15SM SCT030 SCT290 28/21 A3007 RMK CU4CI1 TR CI MDT CU SLP181

CYQG;2013-08-29 18:00;CYQG 291800Z 06004KT 15SM FEW030 FEW290 29/21 A3007 RMK CU2CI1 TR CI MDT CU SLP179

CYQG;2013-08-29 19:00;CYQG 291900Z 09005KT 15SM FEW032 FEW290 29/21 A3006 RMK CU2CI1 TR CI LRG CU SLP175

CYQG;2013-08-29 20:00;CYQG 292000Z 09003KT 15SM SCT035 29/21 A3005 RMK CU3 SLP173

CYQG;2013-08-29 21:00;CYQG 292100Z 08005KT 15SM FEW035TCU SCT280 30/21 A3004 RMK TCU2CI1 CONTRAILS SLP170

CYQG;2013-08-29 22:00;CYQG 292200Z 12004KT 15SM FEW036 SCT280 29/21 A3004 RMK CU2CI1 SLP168

CYQG;2013-08-29 23:00;CYQG 292300Z 16005KT 15SM FEW035 FEW280 28/21 A3003 RMK CU2CI1 SLP166

CYQG;2013-08-30 00:00;CYQG 300000Z 22004KT 15SM FEW050 FEW280 26/21 A3004 RMK SC1CI2 SLP170

CYQG;2013-08-30 01:00;CYQG 300100Z 27003KT 15SM SCT280 25/21 A3005 RMK CI1 SLP174

CYQG;2013-08-30 02:00;CYQG 300200Z 00000KT 15SM FEW280 24/21 A3005 RMK CI1 SLP175

CYQG;2013-08-30 06:00;CYQG 300600Z 00000KT 12SM SCT280 21/20 A3001 RMK CI1 SLP161

CYQG;2013-08-30 07:00;CYQG 300700Z 00000KT 12SM SCT280 21/20 A3001 RMK CI1 SLP158

CYQG;2013-08-30 08:00;CYQG 300800Z 00000KT 12SM FEW280 19/18 A3000 RMK CI1 SLP155

CYQG;2013-08-30 09:00;CYQG 300900Z 00000KT 8SM FEW280 20/19 A2998 RMK CI1 SLP150

CYQG;2013-08-30 10:00;CYQG 301000Z 00000KT 6SM BR BCFG BKN250 19/18 A2999 RMK CI2 SLP151

CYQG;2013-08-30 10:39;CYQG 301039Z 00000KT 3SM BR PRFG BKN250 RMK CI2 VIS NE 1/2

CYQG;2013-08-30 11:00;CYQG 301100Z 17003KT 2SM BR PRFG BKN250 19/18 A2998 RMK CI3 VIS E 1/2 SLP148

CYQG;2013-08-30 11:28;CYQG 301128Z 18003KT 1/2SM FG FEW100 BKN260 RMK FG1AC2CI1

CYQG;2013-08-30 11:44;CYQG 301144Z 20003KT 3SM BR SCT100 BKN260 RMK AC3CI1 CC ASOCTD

CYQG;2013-08-30 12:00;CYQG 301200Z 20002KT 4SM BR SCT160 BKN260 21/20 A2998 RMK AC4CI1 VIS NE 1 1/2 CC ASOCTD SLP148

CYQG;2013-08-30 13:00;CYQG 301300Z 23004KT 5SM HZ BKN180 BKN270 23/21 A2998 RMK AC6CI1 SLP148

CYQG;2013-08-30 14:00;CYQG 301400Z 24008KT 9SM FEW180 BKN270 25/21 A2996 RMK AC1CI1 CONTRAILS SLP142

CYQG;2013-08-30 15:00;CYQG 301500Z 23010KT 12SM FEW022 FEW210 SCT280 26/21 A2994 RMK CU1CC1CI1 TR CU CONTRAILS SLP134

CYQG;2013-08-30 16:00;CYQG 301600Z 22011KT 15SM FEW028 FEW220 SCT280 28/21 A2992 RMK CU1CC1CI1 CONTRAILS SLP130

CYQG;2013-08-30 17:00;CYQG 301700Z 24012G17KT 15SM FEW028 BKN180 BKN280 28/21 A2990 RMK CU2AC3CI1 SLP121

CYQG;2013-08-30 18:00;CYQG 301800Z 24010G15KT 15SM FEW030 FEW180 SCT290 29/22 A2989 RMK CU2AC1CI1 CONTRAILS SLP120

CYQG;2013-08-30 19:00;CYQG 301900Z 21010G16KT 15SM BKN042 30/20 A2987 RMK CU6 SLP111

CYQG;2013-08-30 20:00;CYQG 302000Z 23016KT 15SM FEW042 FEW280 30/20 A2982 RMK CF1CI1 SLP096

CYQG;2013-08-30 21:00;CYQG 302100Z 24014G19KT 15SM FEW045 30/21 A2981 RMK CU2 SLP091

CYQG;2013-08-30 22:00;CYQG 302200Z 24014KT 15SM SCT280 30/20 A2979 RMK CI1 SLP083

CYQG;2013-08-30 23:00;CYQG 302300Z 23008KT 15SM FEW050 BKN280 30/20 A2978 RMK SC1CI3 CONTRAILS SLP082

CYQG;2013-08-31 00:00;CYQG 310000Z 22009KT 15SM FEW070 BKN280 28/21 A2978 RMK AC2CI3 SLP081

CYQG;2013-08-31 01:00;CYQG 310100Z 21005KT 15SM FEW070 BKN098 BKN280 27/20 A2980 RMK AC2AC4CI1 LTGIC DIST NE SLP087

CYQG;2013-08-31 02:00;CYQG 310200Z 21007KT 15SM SCT070 OVC130 27/21 A2978 RMK AC3AC5 FQT LTGICCC N-NE SLP081

CYQG;2013-08-31 02:10;CYQG 310210Z 21007KT 12SM -TSRA SCT070 OVC130 RMK AC4AC4 FQT LTGICCC N-NE CB EMBD

CYQG;2013-08-31 02:47;CYQG 310247Z 35017G34KT 4SM -TSRA BKN042 OVC070CB RMK SC7CB1 CB EMBD LTGCG

CYQG;2013-08-31 03:00;CYQG 310300Z 28012G34KT 3SM -TSRA OVC040 23/21 A2983 RMK SC8 CB EMBD LTGCG SLP097

CYQG;2013-08-31 04:00;CYQG 310400Z 28020G32KT 6SM -TSRA OVC040 22/20 A2977 RMK SC8 CB EMBD LTGICCC SLP078

CYQG;2013-08-31 04:27;CYQG 310427Z 26008G16KT 12SM BKN040CB RETS RMK CB5 CI ASOCTD LTG DIST SSW

CYQG;2013-08-31 05:00;CYQG 310500Z 02005KT 12SM FEW040CB BKN250 21/20 A2977 RETS RMK CB2CI5 LTG DIST SW SLP078

CYQG;2013-08-31 06:00;CYQG 310600Z 15003KT 15SM FEW042 OVC280 22/20 A2977 RMK CF1CS8 SLP078

CYQG;2013-08-31 07:00;CYQG 310700Z 21002KT 15SM FEW042 OVC280 22/20 A2978 RMK CF1CS8 SLP081

CYQG;2013-08-31 08:00;CYQG 310800Z 00000KT 8SM SCT280 21/21 A2978 RMK CI2 SLP080

CYQG;2013-08-31 09:00;CYQG 310900Z 00000KT 7SM OVC280 22/21 A2978 RMK CI8 SLP079

CYQG;2013-08-31 10:00;CYQG 311000Z 31004KT 7SM OVC280 23/21 A2977 RMK CI8 SLP077

CYQG;2013-08-31 10:24;CYQG 311024Z 35004KT 7SM OVC012 RMK SC8

CYQG;2013-08-31 10:51;CYQG 311051Z 33004KT 6SM BR OVC008 RMK SC8

CYQG;2013-08-31 11:00;CYQG 311100Z 32003KT 6SM BR OVC008 23/22 A2979 RMK SC8 SLP083

CYQG;2013-08-31 11:04;CYQG 311104Z 31004KT 5SM -DZ BR OVC008 RMK SC8

CYQG;2013-08-31 11:35;CYQG 311135Z 36003KT 4SM BR FEW009 BKN030 RMK SC2SC5

CYQG;2013-08-31 12:00;CYQG 311200Z 35003KT 4SM BR SCT019 BKN040 23/22 A2982 RMK SC3SC4 SLP094

CYQG;2013-08-31 12:28;CYQG 311228Z 04007KT 4SM BR FEW006 OVC018 RMK SF2SC6

CYQG;2013-08-31 12:43;CYQG 311243Z 05006KT 5SM BR BKN007 OVC016 RMK SC5SC3

CYQG;2013-08-31 13:00;CYQG 311300Z 07006KT 5SM -SHRA BR FEW007 OVC012 23/21 A2984 RMK SF2SC6 SLP101

CYQG;2013-08-31 14:00;CYQG 311400Z 04005KT 6SM -SHRA BR BKN008 OVC030 22/21 A2984 RMK SC6SC2 SLP102

CYQG;2013-08-31 14:20;CYQG 311420Z 04007KT 6SM BR BKN008 OVC030 RMK SC6SC2

CYQG;2013-08-31 15:00;CYQG 311500Z 03007KT 6SM BR FEW009 OVC014 23/21 A2985 RMK SF2SC6 SLP106

CYQG;2013-08-31 15:18;CYQG 311518Z 02008KT 8SM SCT010 OVC019 RMK CU3SC5

CYQG;2013-08-31 16:00;CYQG 311600Z 02008KT 10SM FEW014 OVC025 23/20 A2985 RMK CU2SC6 SLP106

CYQG;2013-08-31 17:00;CYQG 311700Z 07005KT 15SM SCT018 BKN028 24/20 A2983 RMK CU3SC4 SLP099

CYQG;2013-08-31 18:00;CYQG 311800Z 07003KT 15SM SCT018 OVC030 25/20 A2984 RMK CU4SC4 SLP102

CYQG;2013-08-31 19:00;CYQG 311900Z 08003KT 15SM BKN048 25/20 A2984 RMK SC7 SLP101

CYQG;2013-08-31 20:00;CYQG 312000Z 10003KT 15SM SCT031 BKN045 25/20 A2983 RMK CU3SC4 SLP099

CYQG;2013-08-31 21:00;CYQG 312100Z 06007KT 15SM SCT035 BKN049 25/20 A2982 RMK CU3SC4 SLP096

CYQG;2013-08-31 22:00;CYQG 312200Z 05009KT 15SM BKN040 BKN055 25/20 A2982 RMK CU5SC2 SLP096

CYQG;2013-08-31 23:00;CYQG 312300Z 07007KT 15SM BKN031 BKN042 24/20 A2981 RMK CU6SC2 SLP093

CYQG;2013-09-01 00:00;CYQG 010000Z 06006KT 15SM BKN021 BKN038 BKN280 23/20 A2983 RMK CU6SC2CI1 TR CI SLP097

CYQG;2013-09-01 01:00;CYQG 010100Z 07007KT 15SM BKN039 BKN280 22/19 A2984 RMK CU5CI1 SLP102

CYQG;2013-09-01 02:00;CYQG 010200Z 06006KT 15SM FEW050 21/19 A2985 RMK SC2 SLP104

CYQG;2013-09-01 03:00;CYQG 010300Z 06007KT 15SM FEW012 20/18 A2984 RMK SC2 SLP103

CYQG;2013-09-01 04:00;CYQG 010400Z 04005KT 15SM FEW018 SCT280 20/18 A2985 RMK SC1CS2 SLP107

CYQG;2013-09-01 05:00;CYQG 010500Z 05008KT 15SM BKN037 21/19 A2987 RMK SC7 BRKSINC SLP113

CYQG;2013-09-01 06:00;CYQG 010600Z 07007KT 15SM BKN040 OVC120 21/19 A2986 RMK SC7AC1 SLP108

CYQG;2013-09-01 07:00;CYQG 010700Z 05005KT 12SM OVC054 20/18 A2984 RMK SC8 SLP101

CYQG;2013-09-01 08:00;CYQG 010800Z 07003KT 12SM BKN040 20/18 A2982 RMK SC7 SLP095

CYQG;2013-09-01 09:00;CYQG 010900Z 00000KT 12SM FEW040 BKN060 20/19 A2980 RMK SC1SC6 SLP089

CYQG;2013-09-01 10:00;CYQG 011000Z 03004KT 12SM OVC036 21/19 A2980 RMK SC8 SLP090

CYQG;2013-09-01 11:00;CYQG 011100Z 04002KT 8SM OVC030 21/19 A2982 RMK SC8 SLP095

CYQG;2013-09-01 12:00;CYQG 011200Z 06003KT 6SM -DZ BR BKN030 20/19 A2982 RMK SC7 CU ASOCTD SLP094

CYQG;2013-09-01 12:35;CYQG 011235Z 06007KT 6SM HZ FEW014 OVC026 RMK CU1SC8 TR CU

CYQG;2013-09-01 13:00;CYQG 011300Z 11003KT 7SM FEW014 OVC028 21/19 A2982 RMK CU1SC8 TR CU SLP095

CYQG;2013-09-01 14:00;CYQG 011400Z 10005KT 7SM FEW016 BKN021 OVC052 21/19 A2981 RMK CF2SC4SC2 SLP093

CYQG;2013-09-01 15:00;CYQG 011500Z 10006KT 9SM FEW012 OVC020 22/19 A2982 RMK CU1SC7 SLP097

CYQG;2013-09-01 16:00;CYQG 011600Z 10003KT 12SM OVC017 22/18 A2982 RMK SC8 SLP096

CYQG;2013-09-01 16:10;CYQG 011610Z 12006KT 4SM -DZ OVC016 RMK ST8

CYQG;2013-09-01 17:00;CYQG 011700Z 09003KT 8SM BKN014 OVC026 22/20 A2981 RMK ST6SC2 INTMT -DZ SLP094

CYQG;2013-09-01 17:05;CYQG 011705Z 00000KT 10SM BKN013 OVC026 RMK ST5SC3

CYQG;2013-09-01 18:00;CYQG 011800Z 14003KT 8SM OVC012 23/21 A2980 RMK ST8 SLP090

CYQG;2013-09-01 18:40;CYQG 011840Z 09003KT 8SM OVC015 RMK SC8

CYQG;2013-09-01 19:00;CYQG 011900Z 07003KT 7SM OVC016 25/21 A2978 RMK SC8 SLP082

CYQG;2013-09-01 20:00;CYQG 012000Z 02003KT 8SM -SHRA BKN023 BKN050 25/21 A2977 RMK CU5SC2 SLP079

CYQG;2013-09-01 20:39;CYQG 012039Z 08005KT 8SM SCT025 BKN065 RMK CU3SC2

CYQG;2013-09-01 21:00;CYQG 012100Z 00000KT 8SM BKN022 BKN065 25/23 A2976 RMK CU6SC1 SLP076

CYQG;2013-09-01 22:00;CYQG 012200Z 11004KT 10SM BKN020 BKN040 25/23 A2975 RMK CU6SC2 SLP073

CYQG;2013-09-01 23:00;CYQG 012300Z 10003KT 12SM SCT030 BKN280 25/22 A2975 RMK CU3CI2 SLP071

CYQG;2013-09-02 00:00;CYQG 020000Z 14003KT 12SM FEW280 24/22 A2974 RMK CI2 SLP069

CYQG;2013-09-02 01:00;CYQG 020100Z 09003KT 12SM BKN140 23/22 A2976 RMK AC7 SLP075

CYQG;2013-09-02 02:00;CYQG 020200Z 13003KT 8SM SCT025 22/21 A2977 RMK SC3 SLP078

CYQG;2013-09-02 03:00;CYQG 020300Z CCA 19003KT 10SM FEW025 22/21 A2977 RMK SC2 SLP077

CYQG;2013-09-02 04:00;CYQG 020400Z 23007KT 10SM FEW025CB 23/21 A2976 RMK CB1 LTGIC DIST NW SLP074

CYQG;2013-09-02 05:02;CYQG 020502Z 23004KT 8SM TS SCT025CB RMK CB4 LTGICCC CU ASOCTD

CYQG;2013-09-02 05:10;CYQG 020510Z 26007KT 8SM -TSRA BKN040CB RMK CB5 LTGICCC

CYQG;2013-09-02 05:49;CYQG 020549Z 21007KT 8SM FEW040CB SCT120 BKN280 RMK CB2AC2CI2

CYQG;2013-09-02 06:00;CYQG 020600Z 21007KT 8SM FEW040CB SCT120 BKN280 22/20 A2976 RETS RMK CB2AC2CI2 SLP074

CYQG;2013-09-02 07:00;CYQG 020700Z 25007KT 6SM BR FEW120 22/20 A2974 RMK AC1 SLP068

CYQG;2013-09-02 08:00;CYQG 020800Z 27005KT 6SM BR SCT240 22/21 A2972 RMK CI3 SLP063

CYQG;2013-09-02 09:00;CYQG 020900Z 29005KT 8SM SCT140 22/20 A2973 RMK AC3 SLP065

CYQG;2013-09-02 10:00;CYQG 021000Z 30006KT 8SM SCT140 21/19 A2975 RMK AC3 SLP070

CYQG;2013-09-02 10:46;CYQG 021046Z 32005KT 6SM BR BKN011 OVC090 RMK SC7AC1

CYQG;2013-09-02 11:00;CYQG 021100Z 30004KT 6SM BR BKN011 OVC100 21/19 A2977 RMK SC7AC1 SLP079

CYQG;2013-09-02 11:33;CYQG 021133Z 32004KT 6SM BR SCT012 BKN075 RMK SC3AC2

CYQG;2013-09-02 12:00;CYQG 021200Z 00000KT 6SM BR SCT020 BKN080 21/20 A2979 RMK CU3AC2 SLP085

CYQG;2013-09-02 13:00;CYQG 021300Z 33009KT 6SM HZ BKN016 22/20 A2980 RMK CU7 SLP087

CYQG;2013-09-02 13:26;CYQG 021326Z 33008KT 6SM HZ BKN012 RMK CU7

CYQG;2013-09-02 13:53;CYQG 021353Z 33012KT 10SM BKN016 RMK CU7

CYQG;2013-09-02 14:00;CYQG 021400Z 34011KT 10SM BKN015 21/18 A2981 RMK CU7 SLP093

CYQG;2013-09-02 15:00;CYQG 021500Z 34007KT 15SM BKN025 22/17 A2983 RMK CU5 SLP099

CYQG;2013-09-02 16:00;CYQG 021600Z 36009KT 15SM BKN021 23/17 A2984 RMK CU6 SLP101

CYQG;2013-09-02 17:00;CYQG 021700Z 31009KT 15SM SCT030 23/16 A2984 RMK SC4 SLP101

CYQG;2013-09-02 18:00;CYQG 021800Z 30008G16KT 15SM SCT039 24/16 A2983 RMK SC3 SLP099

CYQG;2013-09-02 19:00;CYQG 021900Z 32007G15KT 15SM SCT040 25/16 A2982 RMK SC3 SLP096

CYQG;2013-09-02 20:00;CYQG 022000Z 23008G15KT 15SM BKN047 24/15 A2982 RMK CU6 SLP095

CYQG;2013-09-02 21:00;CYQG 022100Z 32014KT 15SM BKN054 24/15 A2982 RMK CU6 SLP094

CYQG;2013-09-02 22:00;CYQG 022200Z 32019KT 15SM BKN058 23/14 A2983 RMK SC5 SLP097

CYQG;2013-09-02 23:00;CYQG 022300Z 32011G19KT 15SM BKN051 24/15 A2984 RMK SC5 SLP102

CYQG;2013-09-03 00:00;CYQG 030000Z 32016KT 15SM BKN049 21/13 A2986 RMK SC5 SLP109

CYQG;2013-09-03 01:00;CYQG 030100Z 33008G15KT 15SM BKN044 20/12 A2988 RMK SC6 SLP115

CYQG;2013-09-03 02:00;CYQG 030200Z 33012KT 15SM BKN040 19/11 A2989 RMK SC7 SLP120

CYQG;2013-09-03 03:00;CYQG 030300Z 32011KT 15SM OVC039 18/11 A2990 RMK SC8 SLP125

CYQG;2013-09-03 04:00;CYQG 030400Z 35010KT 15SM OVC032 17/11 A2990 RMK SC8 SLP125

CYQG;2013-09-03 05:00;CYQG 030500Z 34011KT 15SM OVC031 16/12 A2991 RMK SC8 SLP128

CYQG;2013-09-03 06:00;CYQG 030600Z 32011KT 15SM OVC020 16/11 A2992 RMK SC8 SLP132

CYQG;2013-09-03 06:42;CYQG 030642Z 31010G15KT 8SM -DZ OVC017 RMK SC8

CYQG;2013-09-03 07:00;CYQG 030700Z 33010G15KT 8SM -DZ OVC025 14/12 A2993 RMK SC8 SLP133

CYQG;2013-09-03 07:23;CYQG 030723Z 32007KT 15SM OVC032 RMK SC8

CYQG;2013-09-03 08:00;CYQG 030800Z 31009KT 15SM OVC031 15/11 A2993 RMK SC8 SLP133

CYQG;2013-09-03 09:00;CYQG 030900Z 32006KT 15SM OVC029 15/10 A2993 RMK SC8 SLP134

CYQG;2013-09-03 10:00;CYQG 031000Z 33010KT 15SM OVC033 15/11 A2994 RMK SC8 SLP137

CYQG;2013-09-03 11:00;CYQG 031100Z 32011KT 15SM FEW020 OVC030 15/11 A2995 RMK SC2SC6 SLP142

CYQG;2013-09-03 12:00;CYQG 031200Z 32008KT 15SM OVC022 15/11 A2998 RMK SC8 SLP152

CYQG;2013-09-03 13:00;CYQG 031300Z 31007KT 15SM OVC025 16/11 A3000 RMK SC8 SLP157

CYQG;2013-09-03 14:00;CYQG 031400Z 31007KT 15SM OVC021 16/11 A3001 RMK SC8 SLP160

CYQG;2013-09-03 15:00;CYQG 031500Z 31009KT 15SM BKN020 17/12 A3001 RMK SC7 SLP163

CYQG;2013-09-03 16:00;CYQG 031600Z 32007KT 15SM BKN027 18/12 A3001 RMK SC7 SLP163

CYQG;2013-09-03 17:00;CYQG 031700Z 33005KT 15SM BKN034 19/12 A3001 RMK SC7 SLP162

CYQG;2013-09-03 18:00;CYQG 031800Z 31009KT 15SM BKN042 20/12 A3000 RMK SC6 SLP159

CYQG;2013-09-03 19:00;CYQG 031900Z 31007KT 15SM BKN041 BKN280 21/12 A2999 RMK SC6CI1 TR CI SLP156

CYQG;2013-09-03 20:00;CYQG 032000Z 30008KT 15SM FEW041 23/12 A2998 RMK SC2 SLP150

CYQG;2013-09-03 21:00;CYQG 032100Z 27008KT 15SM FEW047 BKN260 23/12 A2998 RMK CF1CI1 SLP151

CYQG;2013-09-03 22:00;CYQG 032200Z 33005KT 15SM FEW045 SCT260 23/12 A2998 RMK CF1CI2 SLP150

CYQG;2013-09-03 23:00;CYQG 032300Z 31005KT 15SM FEW045 FEW260 23/12 A2998 RMK CF1CI1 SLP151

CYQG;2013-09-04 00:00;CYQG 040000Z 30005KT 15SM FEW260 22/11 A2999 RMK CI0 SLP154

CYQG;2013-09-04 01:00;CYQG 040100Z 30003KT 15SM SKC 21/12 A3001 RMK SLP160

CYQG;2013-09-04 02:00;CYQG 040200Z 28004KT 15SM SKC 20/12 A3001 RMK SLP162

CYQG;2013-09-04 03:00;CYQG 040300Z 23005KT 15SM SKC 18/12 A3001 RMK SLP164

CYQG;2013-09-04 04:00;CYQG 040400Z 23006KT 15SM SKC 18/13 A3002 RMK SLP167

CYQG;2013-09-04 05:00;CYQG 040500Z 29004KT 15SM SKC 18/12 A3003 RMK SLP168

CYQG;2013-09-04 06:00;CYQG 040600Z 28006KT 15SM SKC 17/12 A3003 RMK SLP169

CYQG;2013-09-04 07:00;CYQG 040700Z 27004KT 15SM SKC 17/12 A3003 RMK SLP169

CYQG;2013-09-04 08:00;CYQG 040800Z 22004KT 15SM SKC 14/12 A3004 RMK SLP171

CYQG;2013-09-04 10:00;CYQG 041000Z 00000KT 15SM SKC 15/13 A3006 RMK SLP178

CYQG;2013-09-04 11:00;CYQG 041100Z 26002KT 15SM FEW018 14/13 A3007 RMK CU1 SLP181

CYQG;2013-09-04 12:00;CYQG 041200Z 27004KT 15SM SKC 15/13 A3009 RMK SLP189

CYQG;2013-09-04 13:00;CYQG 041300Z 26008KT 15SM SKC 17/13 A3008 RMK SLP186

CYQG;2013-09-04 14:00;CYQG 041400Z 27009KT 15SM SKC 20/14 A3008 RMK SLP185

CYQG;2013-09-04 15:00;CYQG 041500Z CCA 26011G16KT 15SM FEW020 21/15 A3007 RMK CF1 TR CF SLP183

CYQG;2013-09-04 16:00;CYQG 041600Z 29012KT 15SM FEW020 23/15 A3007 RMK CF1 SLP181

CYQG;2013-09-04 17:00;CYQG 041700Z 27011KT 15SM FEW025 24/15 A3006 RMK CF1 TR CF SLP179

CYQG;2013-09-04 18:00;CYQG 041800Z 29012G17KT 15SM FEW025 FEW280 25/15 A3006 RMK CF1CI1 TR CF CI SLP177

CYQG;2013-09-04 19:00;CYQG 041900Z 26011G16KT 15SM FEW280 26/14 A3004 RMK CI1 TR CI SLP172

CYQG;2013-09-04 20:00;CYQG 042000Z 27012KT 15SM FEW280 27/14 A3003 RMK CI1 SLP167

CYQG;2013-09-04 21:00;CYQG 042100Z 26008G17KT 15SM FEW280 27/15 A3001 RMK CI1 SLP162

CYQG;2013-09-04 22:00;CYQG 042200Z 28013KT 15SM FEW050 SCT280 27/15 A3002 RMK SC2CI1 SLP163

CYQG;2013-09-04 23:00;CYQG 042300Z 26010KT 15SM FEW058 SCT280 26/15 A3001 RMK CF1CI1 SLP160

CYQG;2013-09-05 00:00;CYQG 050000Z 27008KT 15SM FEW050 FEW280 25/16 A3002 RMK CU1CI1 SLP165

CYQG;2013-09-05 01:00;CYQG 050100Z 28011KT 15SM FEW080 SCT280 24/15 A3004 RMK AC2CI1 SLP171

CYQG;2013-09-05 02:00;CYQG 050200Z 27011KT 15SM BKN082 24/15 A3004 RMK AC5 SLP173

CYQG;2013-09-05 03:00;CYQG 050300Z 30009KT 15SM BKN066 23/15 A3006 RMK AC5 SLP176

CYQG;2013-09-05 04:00;CYQG 050400Z 04007KT 15SM BKN028 BKN068 20/17 A3008 RMK SC6AC2 SLP183

CYQG;2013-09-05 05:00;CYQG 050500Z 35003KT 15SM FEW019 FEW043 19/17 A3008 RMK CU1SC1 SLP184

CYQG;2013-09-05 06:00;CYQG 050600Z 36005KT 15SM SCT035 19/17 A3009 RMK SC3 SLP186

CYQG;2013-09-05 07:00;CYQG 050700Z 01006KT 15SM FEW042 SCT270 18/16 A3010 RMK SC2CI1 SLP191

CYQG;2013-09-05 08:00;CYQG 050800Z 01005KT 15SM FEW270 17/15 A3012 RMK CI1 SLP196

CYQG;2013-09-05 09:00;CYQG 050900Z 36004KT 15SM FEW020 FEW270 17/14 A3014 RMK SC2CI1 TR CI SLP204

CYQG;2013-09-05 10:00;CYQG 051000Z 36006KT 15SM FEW020 FEW270 16/13 A3016 RMK SC1CI1 TR SC SLP211

CYQG;2013-09-05 11:00;CYQG 051100Z 01013G18KT 15SM FEW025 BKN250 15/10 A3019 RMK SC2CS1 CONTRAILS SLP221

CYQG;2013-09-05 12:00;CYQG 051200Z 36008KT 15SM FEW025 BKN270 14/08 A3021 RMK SC1CI1 CONTRAILS SLP228

CYQG;2013-09-05 13:00;CYQG 051300Z 35007KT 15SM BKN270 15/09 A3022 RMK CI2 CONTRAILS SLP231

CYQG;2013-09-05 14:00;CYQG 051400Z 36009KT 15SM BKN280 16/09 A3023 RMK CI1 CONTRAILS SLP234

CYQG;2013-09-05 15:00;CYQG 051500Z 36010KT 15SM FEW030 BKN280 17/09 A3023 RMK CF1CI1 CONTRAILS SLP237

CYQG;2013-09-05 16:00;CYQG 051600Z 36008KT 15SM FEW035 BKN280 18/08 A3024 RMK CU1CI1 CONTRAILS SLP239

CYQG;2013-09-05 17:00;CYQG 051700Z 35007KT 15SM FEW040 BKN290 19/08 A3024 RMK CU1CI1 CONTRAILS SLP240

CYQG;2013-09-05 18:00;CYQG 051800Z 07007KT 15SM FEW045 BKN290 20/10 A3024 RMK CU1CI1 CONTRAILS SLP239

CYQG;2013-09-05 19:00;CYQG 051900Z 07008KT 15SM FEW045 BKN290 20/10 A3023 RMK CU1CI1 CONTRAILS SLP238

CYQG;2013-09-05 20:00;CYQG 052000Z 06009KT 15SM FEW045 BKN290 20/11 A3023 RMK CU1CI1 CONTRAILS SLP235

CYQG;2013-09-05 21:00;CYQG 052100Z 10008KT 15SM FEW040 FEW290 20/10 A3023 RMK CU1CI1 SLP235

CYQG;2013-09-05 22:00;CYQG 052200Z 08009KT 15SM FEW040 FEW290 20/11 A3023 RMK CU1CI0 SLP238

CYQG;2013-09-05 23:00;CYQG 052300Z 05011KT 15SM FEW260 19/11 A3023 RMK CI1 SLP237

CYQG;2013-09-06 00:00;CYQG 060000Z 07010KT 15SM FEW020 17/10 A3024 RMK SC1 SLP240

CYQG;2013-09-06 01:00;CYQG 060100Z 06009KT 15SM SKC 15/10 A3026 RMK SLP247

CYQG;2013-09-06 02:00;CYQG 060200Z 07007KT 15SM SKC 14/09 A3027 RMK SLP250

CYQG;2013-09-06 03:00;CYQG 060300Z 08003KT 15SM SKC 14/09 A3027 RMK SLP252

CYQG;2013-09-06 04:00;CYQG 060400Z 08004KT 15SM SKC 13/09 A3027 RMK SLP251

CYQG;2013-09-06 05:00;CYQG 060500Z 13002KT 15SM SKC 11/08 A3027 RMK SLP252

CYQG;2013-09-06 06:00;CYQG 060600Z 00000KT 15SM SKC 11/08 A3027 RMK SLP251

CYQG;2013-09-06 07:00;CYQG 060700Z 00000KT 15SM SKC 10/07 A3027 RMK SLP252

CYQG;2013-09-06 08:00;CYQG 060800Z 00000KT 15SM SKC 11/07 A3028 RMK SLP253

CYQG;2013-09-06 09:00;CYQG 060900Z 00000KT 15SM SKC 10/07 A3027 RMK SLP253

CYQG;2013-09-06 10:00;CYQG 061000Z 00000KT 15SM SKC 09/06 A3027 RMK SLP253

CYQG;2013-09-06 11:00;CYQG 061100Z 00000KT 15SM FEW260 08/06 A3029 RMK CI1 TR CI SLP259

CYQG;2013-09-06 12:00;CYQG 061200Z 25002KT 15SM FEW270 11/05 A3029 RMK CI1 CONTRAILS SLP258

CYQG;2013-09-06 13:00;CYQG 061300Z 00000KT 15SM BKN270 14/08 A3029 RMK CI2 CONTRAILS SLP258

CYQG;2013-09-06 14:00;CYQG 061400Z 11002KT 15SM BKN280 17/06 A3029 RMK CI2 CONTRAILS SLP257

CYQG;2013-09-06 15:00;CYQG 061500Z 17004KT 15SM BKN280 18/05 A3027 RMK CI2 CONTRAILS SLP252

CYQG;2013-09-06 16:00;CYQG 061600Z 19003KT 15SM BKN280 20/06 A3026 RMK CI2 CONTRAILS SLP249

CYQG;2013-09-06 17:00;CYQG 061700Z 17003KT 15SM BKN290 21/06 A3025 RMK CI2 CONTRAILS SLP243

CYQG;2013-09-06 18:00;CYQG 061800Z 23004KT 15SM BKN290 22/08 A3022 RMK CI2 CONTRAILS SLP235

CYQG;2013-09-06 19:00;CYQG 061900Z 21005KT 15SM BKN290 22/10 A3020 RMK CI2 CONTRAILS SLP227

CYQG;2013-09-06 20:00;CYQG 062000Z 22006KT 15SM BKN290 22/11 A3018 RMK CI2 CONTRAILS SLP220

CYQG;2013-09-06 21:00;CYQG 062100Z 20007KT 15SM BKN290 22/10 A3017 RMK CI3 CONTRAILS SLP218

CYQG;2013-09-06 22:00;CYQG 062200Z 20006KT 15SM BKN270 21/09 A3017 RMK CI4 CONTRAILS SLP217

CYQG;2013-09-06 23:00;CYQG 062300Z 19005KT 15SM BKN260 20/07 A3015 RMK CI5 CONTRAILS SLP209

CYQG;2013-09-07 00:00;CYQG 070000Z 18004KT 15SM BKN260 18/08 A3014 RMK CI4 CONTRAILS SLP209

CYQG;2013-09-07 01:00;CYQG 070100Z 17006KT 15SM BKN260 16/10 A3012 RMK CI4 SLP202

CYQG;2013-09-07 02:00;CYQG 070200Z 00000KT 15SM BKN250 17/10 A3012 RMK CI4 SLP200

CYQG;2013-09-07 03:00;CYQG 070300Z 18003KT 15SM BKN250 17/11 A3010 RMK CI2 SLP193

CYQG;2013-09-07 04:00;CYQG 070400Z 17004KT 15SM FEW190 SCT260 16/11 A3009 RMK AC2CI1 SLP189

CYQG;2013-09-07 05:00;CYQG 070500Z 19004KT 15SM FEW260 17/11 A3008 RMK CI1 SLP185

CYQG;2013-09-07 06:00;CYQG 070600Z 20002KT 15SM SKC 17/12 A3008 RMK SLP186

CYQG;2013-09-07 07:00;CYQG 070700Z 21005KT 15SM FEW130 16/12 A3007 RMK AC1 SLP181

CYQG;2013-09-07 08:00;CYQG 070800Z 22003KT 15SM FEW150 16/13 A3007 RMK AC2 SLP180

CYQG;2013-09-07 09:00;CYQG 070900Z 21006KT 15SM SCT140 17/12 A3004 RMK AC4 SLP173

CYQG;2013-09-07 10:00;CYQG 071000Z 24004KT 15SM SCT044 SCT140 16/12 A3004 RMK SC3AC1 SLP172

CYQG;2013-09-07 11:00;CYQG 071100Z 23006KT 15SM FEW055 BKN260 17/10 A3004 RMK SC2CI2 SLP172

CYQG;2013-09-07 12:00;CYQG 071200Z 22005KT 15SM FEW057 SCT170 BKN260 17/11 A3003 RMK SC2AC1CI1 SLP170

CYQG;2013-09-07 13:00;CYQG 071300Z 23007KT 15SM FEW048 BKN270 18/11 A3002 RMK SC2CI1 SLP167

CYQG;2013-09-07 14:00;CYQG 071400Z 25008KT 15SM FEW140 BKN270 20/12 A3001 RMK AC1CI2 SLP162

CYQG;2013-09-07 15:00;CYQG 071500Z 24007KT 15SM FEW048 BKN270 22/14 A3000 RMK SC2CI1 SLP158

CYQG;2013-09-07 16:00;CYQG 071600Z 24009KT 15SM SCT048 BKN120 BKN270 24/17 A3000 RMK SC4AC2CI0 SLP159

CYQG;2013-09-07 17:00;CYQG 071700Z 25009KT 15SM FEW048 SCT110 SCT160 BKN270 26/18 A2998 RMK SC2AC2AC1CI0 SLP153

CYQG;2013-09-07 18:00;CYQG 071800Z 22009KT 15SM SCT040 BKN110 BKN160 27/19 A2997 RMK SC4AC2AC2 TCU ASOCTD SLP148

CYQG;2013-09-07 18:41;CYQG 071841Z 23007KT 12SM -SHRA BKN040 OVC110 RMK SC6AC2

CYQG;2013-09-07 19:00;CYQG 071900Z 24007KT 8SM -SHRA FEW030 BKN040 OVC110 25/20 A2995 RMK SC2SC5AC1 SLP141

CYQG;2013-09-07 19:43;CYQG 071943Z 19005KT 12SM FEW040 OVC120 RMK SC2AC6

CYQG;2013-09-07 20:00;CYQG 072000Z 22007KT 12SM FEW045 SCT080 OVC120 25/20 A2994 RMK CU2AC2AC5 SLP137

CYQG;2013-09-07 21:00;CYQG 072100Z 24007KT 15SM FEW045 BKN090 OVC130 25/19 A2993 RMK CU1AC6AC2 SLP133

CYQG;2013-09-07 21:08;CYQG 072108Z 23008KT 15SM -SHRA BKN070 OVC120 RMK AC5AC3

CYQG;2013-09-07 21:40;CYQG 072140Z 25004KT 12SM FEW070 BKN130 BKN280 RMK AC2AC3CI1

CYQG;2013-09-07 22:00;CYQG 072200Z 26010KT 12SM SCT090 BKN140 BKN280 26/19 A2993 RMK AC4AC2CI1 SLP134

CYQG;2013-09-07 23:00;CYQG 072300Z 24006KT 15SM BKN100 BKN280 25/16 A2992 RMK AC6CI1 SLP131

CYQG;2013-09-07 23:06;CYQG 072306Z 23005KT 15SM -SHRA BKN090 BKN280 RMK AC6CI1

CYQG;2013-09-07 23:42;CYQG 072342Z 23004KT 15SM BKN140 BKN290 RMK AC6CI1

CYQG;2013-09-08 00:00;CYQG 080000Z 23005KT 15SM BKN140 BKN240 BKN290 23/18 A2991 RMK AC5CI2CI1 SLP127

CYQG;2013-09-08 01:00;CYQG 080100Z 00000KT 15SM BKN090 BKN140 23/18 A2992 RMK AC6AC2 SLP130

CYQG;2013-09-08 02:00;CYQG 080200Z 27004KT 15SM BKN080 OVC140 23/18 A2992 RMK AC6AC2 SLP132

CYQG;2013-09-08 03:00;CYQG 080300Z 26006KT 15SM BKN090 23/17 A2993 RMK AC7 SLP132

CYQG;2013-09-08 04:00;CYQG 080400Z 28005KT 12SM BKN079 BKN110 23/18 A2993 RMK AC6AC2 SLP132

CYQG;2013-09-08 05:00;CYQG 080500Z 29006KT 12SM BKN082 BKN110 23/18 A2992 RMK AC5AC1 SLP130

CYQG;2013-09-08 06:00;CYQG 080600Z 31012KT 12SM BKN048 23/18 A2993 RMK SC6 SLP132

CYQG;2013-09-08 07:00;CYQG 080700Z 35009KT 10SM FEW015 BKN056 22/19 A2993 RMK CU2SC6 SLP132

CYQG;2013-09-08 08:00;CYQG 080800Z 01009KT 10SM OVC014 22/19 A2993 RMK SC8 SLP133

CYQG;2013-09-08 09:00;CYQG 080900Z 03011KT 8SM OVC013 22/19 A2995 RMK SC8 SLP141

CYQG;2013-09-08 10:00;CYQG 081000Z 04014KT 8SM OVC011 20/18 A2998 RMK SC8 SLP149

CYQG;2013-09-08 10:08;CYQG 081008Z 03008KT 7SM -DZ OVC012 RMK SC8

CYQG;2013-09-08 10:30;CYQG 081030Z 02010KT 15SM OVC012 RMK SC8

CYQG;2013-09-08 11:00;CYQG 081100Z 02008KT 12SM OVC013 20/17 A3001 RMK SC8 SLP158

CYQG;2013-09-08 12:00;CYQG 081200Z 01008KT 12SM OVC021 20/17 A3003 RMK SC8 SLP167

CYQG;2013-09-08 13:00;CYQG 081300Z 03011KT 7SM BKN016 OVC026 20/17 A3004 RMK SC6SC2 SLP170

CYQG;2013-09-08 14:00;CYQG 081400Z 04018KT 7SM FEW016 OVC026 20/17 A3006 RMK SC1SC7 SLP177

CYQG;2013-09-08 15:00;CYQG 081500Z 03014G19KT 15SM BKN026 20/15 A3008 RMK SC7 SLP184

CYQG;2013-09-08 16:00;CYQG 081600Z 03012G18KT 15SM BKN021 BKN280 20/15 A3010 RMK SC5CI1 SLP189

CYQG;2013-09-08 17:00;CYQG 081700Z 03013G18KT 15SM FEW021 FEW280 21/14 A3010 RMK SC1CI2 SLP190

CYQG;2013-09-08 18:00;CYQG 081800Z 03013G18KT 15SM FEW026 SCT280 22/12 A3010 RMK SC1CI2 TR SC SLP191

CYQG;2013-09-08 19:00;CYQG 081900Z 04013KT 15SM FEW026 BKN280 22/13 A3008 RMK SC1CS5 TR SC SLP184

CYQG;2013-09-08 20:00;CYQG 082000Z 02011KT 15SM FEW035 BKN280 21/11 A3008 RMK CU1CS4 SLP184

CYQG;2013-09-08 21:00;CYQG 082100Z 03011KT 15SM FEW040 BKN280 21/11 A3007 RMK CU1CS6 SLP182

CYQG;2013-09-08 22:00;CYQG 082200Z 04012KT 15SM FEW040 BKN280 21/11 A3007 RMK CU1CS5 SLP183

CYQG;2013-09-08 23:00;CYQG 082300Z 04009KT 15SM FEW040 BKN280 19/11 A3007 RMK CU1CS4 SLP183

CYQG;2013-09-09 00:00;CYQG 090000Z 05008KT 15SM FEW035 BKN280 18/11 A3008 RMK SC1CI4 SLP185

CYQG;2013-09-09 01:00;CYQG 090100Z 05005KT 15SM BKN280 17/11 A3009 RMK CI3 SLP189

CYQG;2013-09-09 02:00;CYQG 090200Z 08004KT 15SM FEW130 BKN280 16/12 A3009 RMK AC2CI1 SLP188

CYQG;2013-09-09 03:00;CYQG 090300Z 08004KT 15SM FEW240 BKN280 16/12 A3008 RMK CI1CI2 SLP186

CYQG;2013-09-09 04:00;CYQG 090400Z 07004KT 15SM FEW240 BKN280 15/12 A3007 RMK CI1CI2 SLP184

CYQG;2013-09-09 05:00;CYQG 090500Z 12003KT 15SM BKN240 15/11 A3007 RMK CI5 SLP183

CYQG;2013-09-09 06:00;CYQG 090600Z 05002KT 15SM BKN240 14/12 A3008 RMK CI3 SLP187

CYQG;2013-09-09 07:00;CYQG 090700Z 09002KT 15SM FEW240 14/11 A3008 RMK CI1 SLP186

CYQG;2013-09-09 08:00;CYQG 090800Z 00000KT 15SM FEW120 BKN230 13/11 A3008 RMK AC2CI3 SLP185

CYQG;2013-09-09 09:00;CYQG 090900Z 07002KT 15SM FEW120 BKN210 14/12 A3008 RMK AC2CI5 SLP185

CYQG;2013-09-09 10:00;CYQG 091000Z 00000KT 15SM OVC170 14/12 A3007 RMK AC7 SLP181

CYQG;2013-09-09 11:00;CYQG 091100Z 09002KT 15SM BKN160 14/12 A3005 RMK AC7 SLP177

CYQG;2013-09-09 13:00;CYQG 091300Z 17002KT 15SM BKN130 16/13 A3005 RMK AC7 SLP176

CYQG;2013-09-09 14:00;CYQG 091400Z 14003KT 15SM BKN120 18/14 A3004 RMK AC7 SLP171

CYQG;2013-09-09 15:00;CYQG 091500Z 11003KT 15SM OVC026 20/16 A3005 RMK SC8 SLP175

CYQG;2013-09-09 16:00;CYQG 091600Z 15003KT 15SM OVC021 21/17 A3004 RMK SC8 SLP173

CYQG;2013-09-09 16:56;CYQG 091656Z 25004KT 15SM -RA OVC016 RMK SC8

CYQG;2013-09-09 17:00;CYQG 091700Z CCA 21003KT 8SM -RA OVC016 22/18 A3004 RMK SC8 SLP172

CYQG;2013-09-09 18:00;CYQG 091800Z 12006KT 8SM -RA FEW016 OVC042 21/18 A3000 RMK SC1SC7 SLP159

CYQG;2013-09-09 18:53;CYQG 091853Z 16005KT 8SM FEW042 OVC140 RMK SC1AC7

CYQG;2013-09-09 19:00;CYQG 091900Z 16004KT 8SM FEW042 OVC140 21/19 A2999 RMK SC1AC7 SLP156

CYQG;2013-09-09 19:05;CYQG 091905Z 18005KT 8SM -SHRA FEW010 FEW042 OVC140 RMK SC1SC1AC6

CYQG;2013-09-09 19:33;CYQG 091933Z 18005KT 10SM BKN011 OVC140 RMK SC6AC2

CYQG;2013-09-09 20:00;CYQG 092000Z 18006KT 8SM OVC010 22/19 A2998 RMK SC8 SLP152

CYQG;2013-09-09 20:10;CYQG 092010Z 17005KT 7SM OVC009 RMK SF8

CYQG;2013-09-09 20:51;CYQG 092051Z 14005KT 7SM FEW009 BKN280 RMK SF2CI1

CYQG;2013-09-09 21:00;CYQG 092100Z 13004KT 7SM SCT009 BKN280 22/20 A2997 RMK SF3CI1 SLP147

CYQG;2013-09-09 22:00;CYQG 092200Z 18005KT 8SM FEW010 SCT290 24/20 A2995 RMK SC1CI1 SLP143

CYQG;2013-09-09 23:00;CYQG 092300Z 17004KT 10SM FEW015 FEW290 24/20 A2994 RMK SC1CI1 SLP138

CYQG;2013-09-10 00:00;CYQG 100000Z 16005KT 8SM FEW150 22/20 A2994 RMK AC1 SLP136

CYQG;2013-09-10 01:00;CYQG 100100Z 13003KT 7SM FEW140 21/19 A2994 RMK AC1 SLP138

CYQG;2013-09-10 02:00;CYQG 100200Z 09003KT 6SM BR SCT280 21/19 A2994 RMK CI2 SLP138

CYQG;2013-09-10 03:00;CYQG 100300Z 18002KT 6SM BR BKN067 21/19 A2993 RMK AC6 SLP135

CYQG;2013-09-10 04:00;CYQG 100400Z 19007KT 8SM FEW070 BKN260 23/21 A2992 RMK AC2CI2 SLP131

CYQG;2013-09-10 05:00;CYQG 100500Z 21011G17KT 8SM FEW070 BKN260 24/20 A2991 RMK AC2CI2 SLP127

CYQG;2013-09-10 06:00;CYQG 100600Z 22011KT 10SM FEW140 BKN260 24/20 A2991 RMK AC1CI2 SLP125

CYQG;2013-09-10 07:00;CYQG 100700Z 22010KT 10SM SCT150 BKN260 24/20 A2992 RMK AC3CI1 SLP129

CYQG;2013-09-10 08:00;CYQG 100800Z 22007KT 8SM BKN190 23/20 A2993 RMK AC5 SLP132

CYQG;2013-09-10 09:00;CYQG 100900Z 22006KT 8SM BKN190 23/21 A2993 RMK AC7 SLP134

CYQG;2013-09-10 10:00;CYQG 101000Z 22006KT 8SM SCT190 23/21 A2995 RMK AC3 SLP138

CYQG;2013-09-10 11:00;CYQG 101100Z 23008KT 6SM HZ FEW190 FEW280 24/21 A2995 RMK AC1CI2 SLP141

CYQG;2013-09-10 12:00;CYQG 101200Z 24010KT 6SM HZ FEW190 FEW280 24/22 A2998 RMK AC1CI2 SLP148

CYQG;2013-09-10 13:00;CYQG 101300Z 25010G15KT 8SM FEW190 25/22 A2998 RMK AC1 SLP148

CYQG;2013-09-10 14:00;CYQG 101400Z 25013KT 8SM SKC 27/22 A2999 RMK SLP152

CYQG;2013-09-10 15:00;CYQG 101500Z 24013KT 8SM FEW300 29/22 A2999 RMK CI1 CONTRAILS SLP154

CYQG;2013-09-10 16:00;CYQG 101600Z 25009KT 10SM FEW300 30/22 A3000 RMK CI1 SLP155

CYQG;2013-09-10 17:00;CYQG 101700Z 25011KT 10SM FEW300 32/22 A3000 RMK CI1 SLP155

CYQG;2013-09-10 18:00;CYQG 101800Z 25012KT 12SM FEW300 33/23 A2999 RMK CI1 SLP152

CYQG;2013-09-10 19:00;CYQG 101900Z 24014KT 12SM FEW300 34/22 A2999 RMK CI1 SLP152

CYQG;2013-09-10 20:00;CYQG 102000Z 23013KT 15SM SKC 34/21 A2998 RMK SLP149

CYQG;2013-09-10 21:00;CYQG 102100Z 26015G20KT 15SM SKC 34/20 A2999 RMK SLP150

CYQG;2013-09-10 22:00;CYQG 102200Z 25012KT 15SM SKC 34/20 A2998 RMK SLP148

CYQG;2013-09-10 23:00;CYQG 102300Z 24006KT 15SM SKC 33/20 A2998 RMK SLP149

CYQG;2013-09-11 00:00;CYQG 110000Z 21005KT 15SM SKC 30/21 A2999 RMK SLP153

CYQG;2013-09-11 01:00;CYQG 110100Z 21006KT 15SM SKC 29/21 A3002 RMK SLP161

CYQG;2013-09-11 02:00;CYQG 110200Z 21006KT 15SM SKC 28/21 A3003 RMK SLP164

CYQG;2013-09-11 03:00;CYQG 110300Z 22005KT 15SM SKC 27/20 A3002 RMK SLP163

CYQG;2013-09-11 04:00;CYQG 110400Z 22007KT 15SM SKC 27/19 A3002 RMK SLP163

CYQG;2013-09-11 05:00;CYQG 110500Z 21009KT 15SM SKC 26/19 A3003 RMK SLP164

CYQG;2013-09-11 06:00;CYQG 110600Z 22008KT 15SM SKC 25/19 A3003 RMK SLP163

CYQG;2013-09-11 07:00;CYQG 110700Z 25005KT 15SM SKC 25/19 A3003 RMK SLP164

CYQG;2013-09-11 08:00;CYQG 110800Z 25006KT 15SM FEW140 25/19 A3003 RMK AC2 SLP163

CYQG;2013-09-11 09:00;CYQG 110900Z 23007KT 15SM FEW160 24/19 A3003 RMK AC2 SLP163

CYQG;2013-09-11 10:00;CYQG 111000Z 23006KT 15SM FEW180 23/20 A3003 RMK AC2 SLP164

CYQG;2013-09-11 11:00;CYQG 111100Z 22007KT 7SM FEW180 23/20 A3004 RMK AC2 SLP166

CYQG;2013-09-11 12:00;CYQG 111200Z 22006KT 7SM BKN170 24/20 A3004 RMK AC6 SLP170

CYQG;2013-09-11 13:00;CYQG 111300Z 24009KT 6SM HZ BKN170 25/21 A3005 RMK AC7 SLP171

CYQG;2013-09-11 14:00;CYQG 111400Z 23010KT 8SM BKN170 26/21 A3005 RMK AC5 SLP172

CYQG;2013-09-11 16:00;CYQG 111600Z 22008KT 8SM FEW170 FEW300 28/22 A3003 RMK AC1CI2 SLP166

CYQG;2013-09-11 17:00;CYQG 111700Z 22011KT 10SM FEW070 BKN300 30/21 A3001 RMK CU2CI2 SLP160

CYQG;2013-09-11 18:00;CYQG 111800Z 22011KT 10SM FEW070 BKN300 31/21 A3000 RMK CU1CI2 SLP154

CYQG;2013-09-11 19:00;CYQG 111900Z 22009KT 10SM FEW070TCU BKN300 32/20 A2999 RMK TCU1CI2 SLP151

CYQG;2013-09-11 20:00;CYQG 112000Z 25007KT 10SM FEW050TCU BKN300 33/23 A2997 RMK TCU1CI2 CONTRAILS SLP145

CYQG;2013-09-11 21:00;CYQG 112100Z CCA 23007KT 12SM FEW050 BKN300 33/22 A2993 RMK CU1CI2 TCU ASOCTD SLP132

CYQG;2013-09-11 22:00;CYQG 112200Z 23008KT 10SM FEW050 FEW090 BKN290 32/21 A2991 RMK CU1AC2CI2 TCU EMBD SLP125

CYQG;2013-09-11 23:00;CYQG 112300Z 21008KT 8SM SCT050 BKN130 BKN290 30/21 A2994 RMK CU3AC2CI2 TCU EMBD SLP133

CYQG;2013-09-11 23:27;CYQG 112327Z 33023G38KT 6SM TS BR VCSH BKN044CB BKN290 RMK CB6CI2 FRQ LTGIC SE-N SHRA SE-N

CYQG;2013-09-11 23:34;CYQG 112334Z 31021G38KT 4SM TSRA BR BKN041CB BKN290 RMK CB6CI1 FRQ LTGCG N- NE SE-N

CYQG;2013-09-11 23:40;CYQG 112340Z 28016G33KT 2SM +TSRA OVC039CB RMK CB8 LTGCG ALL QUADS CB MOVING E

CYQG;2013-09-12 00:00;CYQG 120000Z 20012KT 7SM -TSRA BKN042CB OVC100 22/20 A3000 RERA RMK CB7AC1 FRQ LTGCG N-SW CB MOVG E PRESRR SLP156

CYQG;2013-09-12 00:32;CYQG 120032Z 04004KT 8SM -SHRA FEW042CB OVC140 RETS RMK CB2AC6 DIST LTGIC E

CYQG;2013-09-12 00:42;CYQG 120042Z 02004KT 8SM -TSRA SCT042CB OVC130 RMK CB3AC5 OCNL LTGIC SE-S CB SE MOVG E

CYQG;2013-09-12 01:00;CYQG 120100Z 36006KT 12SM TS FEW042CB BKN130 OVC240 22/20 A2997 RMK CB2AC5CS2 DIST LTGIC E OCNL -SHRA SLP146

CYQG;2013-09-12 01:10;CYQG 120110Z 27004KT 12SM FEW040 SCT130 OVC240 RETS RMK CU1AC2CS5

CYQG;2013-09-12 02:00;CYQG 120200Z 21007KT 8SM FEW083 BKN120 OVC240 22/20 A2998 RMK AC1AC5CS2 PRESFR SLP151

CYQG;2013-09-12 03:00;CYQG 120300Z 27007KT 12SM BKN075 BKN150 22/21 A2999 RMK AC6AC2 SLP153

CYQG;2013-09-12 03:07;CYQG 120307Z 25008KT 10SM -SHRA BKN040 OVC110 RMK SC6AC2 FQT LTGICCG CB ASOCTD

CYQG;2013-09-12 03:25;CYQG 120325Z 26004KT 10SM FEW040 BKN110 OVC170 RMK SC2AC5AC1 OCNL LTGIC SE

CYQG;2013-09-12 04:00;CYQG 120400Z 29004KT 12SM SCT089 BKN160 22/21 A2995 RMK AC3AC4 SLP141

CYQG;2013-09-12 05:00;CYQG 120500Z 22004KT 12SM BKN120 22/20 A2995 RMK AC7 SLP138

CYQG;2013-09-12 06:00;CYQG 120600Z 21003KT 12SM BKN091 21/20 A2994 RMK AC7 SLP134

CYQG;2013-09-12 07:00;CYQG 120700Z 26004KT 12SM BKN110 21/20 A2994 RMK AC7 SLP134

CYQG;2013-09-12 08:00;CYQG 120800Z 25005KT 12SM BKN150 21/20 A2992 RMK AC7 SLP129

CYQG;2013-09-12 09:00;CYQG 120900Z 23007KT 12SM SCT077 BKN110 21/20 A2992 RMK AC3AC4 SLP127

CYQG;2013-09-12 10:00;CYQG 121000Z 26007KT 15SM FEW080 SCT160 BKN240 21/19 A2992 RMK AC2AC2CI2 SLP126

CYQG;2013-09-12 11:00;CYQG 121100Z 26007KT 15SM FEW140 BKN240 21/19 A2991 RMK AC2CI3 SLP125

CYQG;2013-09-12 12:00;CYQG 121200Z 25005KT 15SM FEW025 FEW140 BKN210 BKN280 21/19 A2991 RMK CU1AC1CI5CI1 SLP126

CYQG;2013-09-12 13:00;CYQG 121300Z 27006KT 12SM BKN015 OVC220 21/20 A2991 RMK SC6CI2 SLP125

CYQG;2013-09-12 13:12;CYQG 121312Z 30012KT 12SM OVC013 RMK SC8

CYQG;2013-09-12 14:00;CYQG 121400Z 31009KT 15SM OVC012 21/19 A2991 RMK SC8 SLP126

CYQG;2013-09-12 14:32;CYQG 121432Z 29006KT 15SM BKN018 OVC220 RMK SC6CI2

CYQG;2013-09-12 15:00;CYQG 121500Z 32010KT 15SM BKN017 BKN230 22/19 A2991 RMK SC6CI1 SLP126

CYQG;2013-09-12 16:00;CYQG 121600Z 34007KT 15SM SCT022 BKN240 BKN280 22/16 A2991 RMK SC3CI2CI1 SLP126

CYQG;2013-09-12 17:00;CYQG 121700Z 32009KT 15SM FEW023 BKN240 BKN290 23/14 A2991 RMK SC1CI5CI1 SLP127

CYQG;2013-09-12 18:00;CYQG 121800Z 31008KT 15SM FEW040 FEW240 25/14 A2990 RMK CU1CI1 SLP122

CYQG;2013-09-12 19:00;CYQG 121900Z 29006KT 15SM FEW045 FEW240 FEW290 25/14 A2987 RMK CU1CI1CI1 SLP114

CYQG;2013-09-12 20:00;CYQG 122000Z 31009KT 15SM FEW054 FEW290 26/14 A2986 RMK CU2CI1 SLP110

CYQG;2013-09-12 21:00;CYQG 122100Z 32016KT 15SM FEW060 FEW150 FEW290 26/12 A2985 RMK CU2AC1CI1 TR AC TR CI SLP104

CYQG;2013-09-12 22:00;CYQG 122200Z 33010G15KT 15SM FEW060 FEW098 FEW290 25/13 A2983 RMK CU2AC1CI1 TR CI LRG CU SLP100

CYQG;2013-09-12 23:00;CYQG 122300Z 32025G36KT 4SM -TSRA BKN044CB BKN080 18/13 A2989 RMK CB5AC2 CB NW-NE MOVG E PRESRR SLP119

CYQG;2013-09-12 23:18;CYQG 122318Z 35016G26KT 7SM -SHRA FEW044CB BKN064 BKN080 RETS RMK CB1CU5AC2 CB NE MOVG E RAINBOW

CYQG;2013-09-12 23:40;CYQG 122340Z 35011G17KT 12SM FEW044CB FEW064 SCT150 RETS RMK CB1CU2AC2 CB NE MOVG E VIS 5 MILES N-E

CYQG;2013-09-13 00:00;CYQG 130000Z 35013G19KT 15SM FEW062 FEW150 17/14 A2989 RETS RMK CU2AC1 TCU ASOCTD SLP121

CYQG;2013-09-13 00:39;CYQG 130039Z 33012KT 12SM -SHRA BKN080 BKN150 RMK AC6AC2

CYQG;2013-09-13 01:00;CYQG 130100Z 01012KT 15SM BKN085 17/13 A2988 RMK AC5 SLP118

CYQG;2013-09-13 02:00;CYQG 130200Z 36011G16KT 15SM FEW090 FEW120 17/12 A2993 RMK AC1AC1 SLP134

CYQG;2013-09-13 03:00;CYQG 130300Z 35008G17KT 15SM FEW062 16/10 A2995 RMK SC2 SLP141

CYQG;2013-09-13 04:00;CYQG 130400Z 35007KT 15SM FEW060 15/08 A2996 RMK SC2 SLP145

CYQG;2013-09-13 05:00;CYQG 130500Z 34013KT 15SM BKN046 15/08 A2995 RMK SC5 SLP143

CYQG;2013-09-13 06:00;CYQG 130600Z 33008KT 15SM BKN049 14/08 A2995 RMK SC5 SLP140

CYQG;2013-09-13 07:00;CYQG 130700Z 33013KT 15SM FEW050 14/07 A2995 RMK SC2 SLP139

CYQG;2013-09-13 08:00;CYQG 130800Z 33010KT 15SM SCT050 13/07 A2995 RMK SC4 SLP142

CYQG;2013-09-13 09:00;CYQG 130900Z 32011KT 15SM BKN059 13/07 A2996 RMK SC6 SLP144

CYQG;2013-09-13 10:00;CYQG 131000Z 33008KT 15SM BKN029 BKN061 13/08 A2998 RMK SC5SC2 SLP151

CYQG;2013-09-13 11:00;CYQG 131100Z 36010G17KT 15SM BKN017 12/09 A2999 RMK SC7 SLP154

CYQG;2013-09-13 12:00;CYQG 131200Z 35011KT 15SM FEW018 BKN067 12/09 A3001 RMK SC2AC5 SLP162

CYQG;2013-09-13 13:00;CYQG 131300Z 35012G19KT 15SM BKN022 BKN068 13/08 A3002 RMK SC5AC2 SLP166

CYQG;2013-09-13 14:00;CYQG 131400Z 36013KT 15SM BKN023 BKN070 13/08 A3003 RMK SC5AC2 SLP171

CYQG;2013-09-13 15:00;CYQG 131500Z 36016KT 15SM FEW021 BKN035 BKN070 14/09 A3005 RMK SC2SC3AC2 SLP177

CYQG;2013-09-13 16:00;CYQG 131600Z 35015KT 15SM FEW026 BKN038 BKN070 14/08 A3006 RMK SC1CU6AC1 SLP181

CYQG;2013-09-13 17:00;CYQG 131700Z 36011KT 15SM FEW032 BKN063 BKN100 15/06 A3006 RMK CU2SC4AC1 SLP180

CYQG;2013-09-13 18:00;CYQG 131800Z 33012G18KT 15SM FEW035 BKN070 15/06 A3006 RMK CU2AC5 SLP180

CYQG;2013-09-13 19:00;CYQG 131900Z 36013KT 15SM FEW039 BKN068 15/07 A3006 RMK CU2AC5 SLP181

CYQG;2013-09-13 20:00;CYQG 132000Z 36013G18KT 15SM FEW035 BKN065 15/07 A3006 RMK CU2SC4 SLP181

CYQG;2013-09-13 21:00;CYQG 132100Z 01006G22KT 15SM BKN037 BKN065 BKN280 15/06 A3007 RMK CU5SC1CI1 SLP183

CYQG;2013-09-13 22:00;CYQG 132200Z 01016KT 15SM FEW030 14/05 A3008 RMK SC2 SLP188

CYQG;2013-09-13 23:00;CYQG 132300Z 36012KT 15SM FEW041 13/03 A3010 RMK SC2 SLP192

CYQG;2013-09-14 00:00;CYQG 140000Z 01007G15KT 15SM FEW041 12/03 A3011 RMK SC1 SLP200

CYQG;2013-09-14 01:00;CYQG 140100Z 01009G15KT 15SM FEW030 11/03 A3013 RMK SC1 SLP206

CYQG;2013-09-14 02:00;CYQG 140200Z 36007KT 15SM SKC 10/04 A3014 RMK SLP208

CYQG;2013-09-14 03:00;CYQG 140300Z 35005KT 15SM FEW030 09/04 A3014 RMK CF1 SLP208

CYQG;2013-09-14 04:00;CYQG 140400Z 34005KT 15SM SKC 09/04 A3013 RMK SLP206

CYQG;2013-09-14 05:00;CYQG 140500Z 35004KT 15SM SKC 08/04 A3013 RMK SLP206

CYQG;2013-09-14 06:00;CYQG 140600Z 34004KT 15SM SKC 08/04 A3014 RMK SLP207

CYQG;2013-09-14 07:00;CYQG 140700Z 33004KT 15SM SKC 08/05 A3014 RMK SLP207

CYQG;2013-09-14 08:00;CYQG 140800Z 21003KT 15SM SKC 07/04 A3015 RMK SLP211

CYQG;2013-09-14 09:00;CYQG 140900Z 29003KT 15SM SKC 07/05 A3015 RMK SLP212

CYQG;2013-09-14 10:00;CYQG 141000Z 27002KT 15SM FEW030 07/05 A3016 RMK SC1 SLP214

CYQG;2013-09-14 11:00;CYQG 141100Z 26004KT 15SM FEW030 07/04 A3017 RMK SC1 SLP217

CYQG;2013-09-14 12:00;CYQG 141200Z 28004KT 15SM FEW025 08/05 A3018 RMK SC1 SLP222

CYQG;2013-09-14 13:00;CYQG 141300Z 26003KT 15SM FEW025 10/06 A3019 RMK SC1 SLP225

CYQG;2013-09-14 14:00;CYQG 141400Z 30004KT 15SM FEW027 FEW270 12/07 A3019 RMK SC1CI1 SLP227

CYQG;2013-09-14 15:00;CYQG 141500Z 28004KT 15SM FEW030 FEW280 14/06 A3019 RMK CU1CI1 SLP227

CYQG;2013-09-14 16:00;CYQG 141600Z 24002KT 15SM FEW035 FEW280 15/07 A3019 RMK CF1CI1 SLP226

CYQG;2013-09-14 17:00;CYQG 141700Z 25005KT 15SM FEW038 FEW280 16/07 A3018 RMK CF1CI1 SLP224

CYQG;2013-09-14 18:00;CYQG 141800Z 20005KT 15SM FEW040 SCT280 17/07 A3016 RMK CU1CI1 SLP216

CYQG;2013-09-14 19:00;CYQG 141900Z 22006KT 15SM FEW045 SCT280 18/06 A3014 RMK CU1CI1 SLP207

CYQG;2013-09-14 20:00;CYQG 142000Z 24004KT 15SM FEW045 SCT280 18/06 A3012 RMK CU1CI2 SLP203

CYQG;2013-09-14 21:00;CYQG 142100Z 23005KT 15SM FEW045 BKN280 19/06 A3012 RMK CU1CI5 SLP201

CYQG;2013-09-14 22:00;CYQG 142200Z 22008KT 15SM FEW045 BKN280 18/07 A3011 RMK CU1CI4 SLP197

CYQG;2013-09-14 23:00;CYQG 142300Z 21007KT 15SM BKN280 17/08 A3011 RMK CI4 SLP196

CYQG;2013-09-15 00:00;CYQG 150000Z 19005KT 15SM BKN280 15/08 A3011 RMK CI4 SLP200

CYQG;2013-09-15 01:00;CYQG 150100Z 18004KT 15SM FEW280 14/08 A3013 RMK CI1 SLP204

CYQG;2013-09-15 02:00;CYQG 150200Z 18006KT 15SM SCT280 13/08 A3012 RMK CI2 SLP203

CYQG;2013-09-15 03:00;CYQG 150300Z 18004KT 15SM BKN260 13/08 A3011 RMK CI5 SLP199

CYQG;2013-09-15 04:00;CYQG 150400Z 18005KT 15SM BKN260 13/09 A3010 RMK CI3 SLP195

CYQG;2013-09-15 05:00;CYQG 150500Z 15002KT 15SM BKN250 13/09 A3011 RMK CI3 SLP196

CYQG;2013-09-15 06:00;CYQG 150600Z 00000KT 15SM BKN250 12/09 A3010 RMK CI3 SLP195

CYQG;2013-09-15 07:00;CYQG 150700Z 00000KT 15SM SCT250 11/09 A3009 RMK CI1 SLP192

CYQG;2013-09-15 08:00;CYQG 150800Z 21004KT 15SM SCT230 13/10 A3009 RMK CI2 SLP191

CYQG;2013-09-15 09:00;CYQG 150900Z 22003KT 15SM BKN250 12/10 A3010 RMK CI4 SLP194

CYQG;2013-09-15 10:00;CYQG 151000Z 00000KT 15SM BKN230 12/10 A3011 RMK CI5 SLP197

CYQG;2013-09-15 11:00;CYQG 151100Z 24006KT 15SM OVC220 14/08 A3012 RMK CI6 SLP201

CYQG;2013-09-15 12:00;CYQG 151200Z 24006KT 15SM BKN190 BKN280 13/08 A3013 RMK AC6CI2 SLP205

CYQG;2013-09-15 13:00;CYQG 151300Z 23006KT 15SM BKN190 BKN280 14/09 A3012 RMK AC5CI2 SLP202

CYQG;2013-09-15 14:00;CYQG 151400Z 22007KT 15SM BKN160 OVC270 15/09 A3012 RMK AC7CS1 SLP202

CYQG;2013-09-15 15:00;CYQG 151500Z 21007KT 15SM OVC140 16/09 A3011 RMK AC8 SLP196

CYQG;2013-09-15 16:00;CYQG 151600Z 22006KT 15SM OVC140 17/09 A3010 RMK AC8 SLP195

CYQG;2013-09-15 16:45;CYQG 151645Z 24007KT 15SM -SHRA FEW080 OVC120 RMK AC1AC7

CYQG;2013-09-15 17:00;CYQG 151700Z 23007KT 15SM -SHRA FEW090 OVC120 18/09 A3010 RMK AC2AC6 SLP194

CYQG;2013-09-15 17:36;CYQG 151736Z 25005KT 15SM OVC120 RMK AC8

CYQG;2013-09-15 18:00;CYQG 151800Z 27004KT 15SM OVC110 18/10 A3009 RMK AC8 SLP191

CYQG;2013-09-15 19:00;CYQG 151900Z 26004KT 15SM OVC110 18/10 A3009 RMK AC8 SLP189

CYQG;2013-09-15 20:00;CYQG 152000Z 24004KT 15SM OVC100 18/10 A3008 RMK AC8 SLP187

CYQG;2013-09-15 20:52;CYQG 152052Z 32002KT 12SM -SHRA OVC090 RMK AC8

CYQG;2013-09-15 21:00;CYQG 152100Z 31003KT 12SM -SHRA OVC090 18/11 A3007 RMK AC8 SLP182

CYQG;2013-09-15 22:00;CYQG 152200Z 35006KT 12SM -SHRA OVC088 17/11 A3008 RMK AC8 SLP188

CYQG;2013-09-15 23:00;CYQG 152300Z 35006KT 12SM -SHRA FEW060 OVC082 15/12 A3011 RMK CF1NS8 SLP198

CYQG;2013-09-16 00:00;CYQG 160000Z 34002KT 12SM -SHRA FEW060 OVC077 14/12 A3011 RMK SF1AC8 SLP198

CYQG;2013-09-16 01:00;CYQG 160100Z 33004KT 12SM -SHRA OVC066 15/12 A3012 RMK AC8 SLP201

CYQG;2013-09-16 02:00;CYQG 160200Z 00000KT 15SM -SHRA OVC054 14/12 A3012 RMK SC8 SLP201

CYQG;2013-09-16 02:44;CYQG 160244Z 00000KT 15SM OVC062 RMK SC8

CYQG;2013-09-16 03:00;CYQG 160300Z 00000KT 15SM OVC063 14/13 A3013 RMK SC8 SLP202

CYQG;2013-09-16 04:00;CYQG 160400Z 29002KT 15SM SCT048 OVC093 14/12 A3013 RMK SC3AC5 SLP203

CYQG;2013-09-16 05:00;CYQG 160500Z 27002KT 15SM BKN035 OVC080 15/12 A3013 RMK SC6AC2 SLP204

CYQG;2013-09-16 06:00;CYQG 160600Z 29004KT 15SM BKN040 BKN080 14/11 A3014 RMK SC5AC1 SLP206

CYQG;2013-09-16 07:00;CYQG 160700Z 33007KT 15SM SCT040 14/11 A3014 RMK SC4 SLP206

CYQG;2013-09-16 08:00;CYQG 160800Z 33007KT 15SM FEW040 13/11 A3015 RMK SC2 SLP209

CYQG;2013-09-16 09:00;CYQG 160900Z 33010KT 15SM FEW012 FEW040 13/11 A3016 RMK CF1SC1 SLP215

CYQG;2013-09-16 10:00;CYQG 161000Z 35004KT 15SM SCT012 13/11 A3018 RMK CF4 SLP220

CYQG;2013-09-16 11:00;CYQG 161100Z 35012KT 15SM SCT015 13/11 A3021 RMK SC4 SLP230

CYQG;2013-09-16 11:15;CYQG 161115Z 35009KT 15SM BKN012 RMK SC7

CYQG;2013-09-16 12:00;CYQG 161200Z 35010G17KT 15SM BKN012 13/11 A3022 RMK SC7 SLP235

CYQG;2013-09-16 13:00;CYQG 161300Z 36011G16KT 15SM BKN016 14/11 A3024 RMK SC7 SLP243

CYQG;2013-09-16 14:00;CYQG 161400Z 36008KT 15SM BKN016 14/11 A3027 RMK SC7 SLP251

CYQG;2013-09-16 15:00;CYQG 161500Z 01012G17KT 15SM BKN018 BKN031 15/10 A3029 RMK SC6SC2 SLP260

CYQG;2013-09-16 16:00;CYQG 161600Z 36011KT 15SM BKN026 BKN100 15/09 A3030 RMK SC7AC1 TR AC SLP263

CYQG;2013-09-16 17:00;CYQG 161700Z 03012KT 15SM BKN031 15/08 A3032 RMK SC7 SLP267

CYQG;2013-09-16 18:00;CYQG 161800Z 34008KT 15SM BKN042 BKN260 16/08 A3033 RMK SC6CI1 SLP271

CYQG;2013-09-16 19:00;CYQG 161900Z 05014KT 15SM BKN045 BKN260 17/08 A3032 RMK SC6CI1 TR CI SLP268

CYQG;2013-09-16 20:00;CYQG 162000Z 04014G19KT 15SM SCT040 16/07 A3032 RMK SC3 SLP268

CYQG;2013-09-16 21:00;CYQG 162100Z 05013KT 15SM FEW040 16/07 A3032 RMK SC2 SLP269

CYQG;2013-09-16 22:00;CYQG 162200Z 05013G18KT 15SM FEW040 15/07 A3033 RMK SC2 SLP271

CYQG;2013-09-16 23:00;CYQG 162300Z 04013KT 15SM FEW040 14/07 A3033 RMK SC1 SLP272

CYQG;2013-09-17 00:00;CYQG 170000Z 04008G15KT 15SM FEW040 13/07 A3034 RMK SC1 SLP276

CYQG;2013-09-17 01:00;CYQG 170100Z 04010KT 15SM FEW040 12/07 A3036 RMK SC1 SLP284

CYQG;2013-09-17 02:00;CYQG 170200Z 05009KT 15SM FEW040 11/06 A3037 RMK SC1 SLP285

CYQG;2013-09-17 03:00;CYQG 170300Z 02007KT 15SM FEW030 10/06 A3038 RMK SC1 SLP290

CYQG;2013-09-17 04:00;CYQG 170400Z 36005KT 15SM FEW030 09/05 A3038 RMK SC1 SLP289

CYQG;2013-09-17 05:00;CYQG 170500Z 01005KT 15SM FEW030 08/05 A3038 RMK SC1 SLP290

CYQG;2013-09-17 06:00;CYQG 170600Z 02006KT 15SM FEW030 08/05 A3038 RMK SC1 SLP291

CYQG;2013-09-17 07:00;CYQG 170700Z 35004KT 15SM SKC 08/05 A3038 RMK SLP292

CYQG;2013-09-17 08:00;CYQG 170800Z 36004KT 15SM SKC 07/05 A3039 RMK SLP293

CYQG;2013-09-17 09:00;CYQG 170900Z 34004KT 15SM FEW030 07/05 A3039 RMK SC1 SLP293

CYQG;2013-09-17 10:00;CYQG 171000Z 36005KT 15SM FEW030 07/06 A3039 RMK SC2 SLP295

CYQG;2013-09-17 11:00;CYQG 171100Z 02003KT 15SM BKN029 08/07 A3039 RMK SC5 SLP295

CYQG;2013-09-17 12:00;CYQG 171200Z 00000KT 15SM BKN024 09/08 A3041 RMK SC6 SLP301

CYQG;2013-09-17 13:00;CYQG 171300Z 08003KT 15SM FEW026 FEW260 11/09 A3041 RMK SC2CI1 TR CI SLP300

CYQG;2013-09-17 14:00;CYQG 171400Z 13007KT 15SM FEW030 FEW270 15/10 A3040 RMK SC1CI1 TR CI SLP299

CYQG;2013-09-17 15:00;CYQG 171500Z 11009KT 15SM FEW032 17/09 A3040 RMK SC1 SLP295

CYQG;2013-09-17 16:00;CYQG 171600Z 09004KT 15SM FEW032 17/09 A3040 RMK SC1 SLP295

CYQG;2013-09-17 17:00;CYQG 171700Z 11008KT 15SM FEW032 FEW270 18/07 A3038 RMK SC1CI1 TR SC TR CI SLP288

CYQG;2013-09-17 18:00;CYQG 171800Z 10006KT 15SM FEW040 FEW270 19/07 A3035 RMK SC1CI1 TR SC TR CI SLP281

CYQG;2013-09-17 19:00;CYQG 171900Z 13009G17KT 15SM FEW270 19/07 A3033 RMK CI1 SLP274

CYQG;2013-09-17 20:00;CYQG 172000Z 12007KT 15SM FEW280 19/05 A3031 RMK CI2 SLP267

CYQG;2013-09-17 21:00;CYQG 172100Z 13007KT 15SM BKN280 19/06 A3030 RMK CI2 SLP262

CYQG;2013-09-17 22:00;CYQG 172200Z 11007KT 15SM BKN280 18/05 A3029 RMK CI3 SLP259

CYQG;2013-09-17 23:00;CYQG 172300Z 11005KT 15SM BKN280 16/06 A3028 RMK CI4 SLP255

CYQG;2013-09-18 00:00;CYQG 180000Z 09004KT 15SM SCT260 BKN280 14/07 A3026 RMK CI2CI2 SLP251

CYQG;2013-09-18 01:00;CYQG 180100Z 09003KT 15SM BKN280 13/07 A3026 RMK CI4 SLP250

CYQG;2013-09-18 02:00;CYQG 180200Z 10004KT 15SM BKN280 12/08 A3025 RMK CI4 CONTRAILS SLP246

CYQG;2013-09-18 03:00;CYQG 180300Z 11004KT 15SM BKN280 12/08 A3024 RMK CI4 CONTRAILS SLP241

CYQG;2013-09-18 04:00;CYQG 180400Z 12003KT 15SM FEW280 12/08 A3023 RMK CI1 SLP238

CYQG;2013-09-18 05:00;CYQG 180500Z 08002KT 15SM FEW280 11/08 A3021 RMK CI1 SLP233

CYQG;2013-09-18 06:00;CYQG 180600Z 05002KT 15SM FEW280 10/08 A3021 RMK CI2 SLP231

CYQG;2013-09-18 07:00;CYQG 180700Z 11002KT 15SM SCT270 10/08 A3020 RMK CI2 SLP227

CYQG;2013-09-18 08:00;CYQG 180800Z 00000KT 15SM BKN240 10/08 A3019 RMK CI3 SLP224

CYQG;2013-09-18 09:00;CYQG 180900Z 00000KT 15SM SCT240 10/08 A3018 RMK CI2 SLP221

CYQG;2013-09-18 10:00;CYQG 181000Z 00000KT 15SM SCT240 10/08 A3018 RMK CI2 SLP222

CYQG;2013-09-18 11:00;CYQG 181100Z 00000KT 15SM BKN230 09/08 A3019 RMK CI2 SLP224

CYQG;2013-09-18 12:00;CYQG 181200Z 00000KT 8SM BKN280 11/09 A3019 RMK CI4 SLP226

CYQG;2013-09-18 13:00;CYQG 181300Z 15002KT 10SM BKN280 16/13 A3019 RMK CI4 SLP224

CYQG;2013-09-18 14:00;CYQG 181400Z 21002KT 10SM BKN280 19/14 A3019 RMK CI5 SLP224

CYQG;2013-09-18 15:00;CYQG 181500Z CCA 21002KT 15SM BKN280 19/14 A3018 RMK CI5 SLP222

CYQG;2013-09-18 16:00;CYQG 181600Z 15004KT 15SM FEW024 BKN280 21/14 A3017 RMK CU1CI5 CC ASOCTD SLP217

CYQG;2013-09-18 17:00;CYQG 181700Z 18004KT 15SM FEW024 BKN260 22/15 A3015 RMK CU1CI5 CC ASOCTD SLP210

CYQG;2013-09-18 18:00;CYQG 181800Z 22007KT 15SM FEW035 FEW180 BKN260 22/14 A3013 RMK CU1AC1CC6 SLP204

CYQG;2013-09-18 19:00;CYQG 181900Z 17007KT 15SM BKN190 BKN270 23/12 A3011 RMK AC6CI0 SLP197

CYQG;2013-09-18 20:00;CYQG 182000Z 18007KT 15SM FEW035TCU BKN170 23/13 A3009 RMK TCU1AC6 TCU DIST E SLP189

CYQG;2013-09-18 21:00;CYQG 182100Z 20009KT 15SM SCT170 22/13 A3008 RMK AC3 SLP186

CYQG;2013-09-18 22:00;CYQG 182200Z 16008KT 15SM FEW170 22/13 A3007 RMK AC2 SLP183

CYQG;2013-09-18 23:00;CYQG 182300Z 15005KT 15SM FEW170 FEW280 21/13 A3007 RMK AC1CI1 SLP182

CYQG;2013-09-19 00:00;CYQG 190000Z 17004KT 15SM FEW160 FEW280 18/13 A3007 RMK AC1CI1 SLP183

CYQG;2013-09-19 01:00;CYQG 190100Z 14007KT 15SM FEW160 17/12 A3008 RMK AC1 SLP186

CYQG;2013-09-19 02:00;CYQG 190200Z 14002KT 15SM FEW180 16/13 A3008 RMK AC1 SLP186

CYQG;2013-09-19 03:00;CYQG 190300Z 12004KT 15SM FEW180 15/14 A3007 RMK AC1 SLP182

CYQG;2013-09-19 04:00;CYQG 190400Z 13003KT 15SM FEW180 15/14 A3007 RMK AC1 SLP181

CYQG;2013-09-19 05:00;CYQG 190500Z 17006KT 12SM FEW140 16/14 A3006 RMK AC2 SLP178

CYQG;2013-09-19 06:00;CYQG 190600Z 18004KT 10SM BKN110 17/16 A3006 RMK AC6 SLP178

CYQG;2013-09-19 07:00;CYQG 190700Z 18002KT 8SM BKN120 18/16 A3005 RMK AC7 SLP176

CYQG;2013-09-19 08:00;CYQG 190800Z CCA 17003KT 7SM BKN120 18/16 A3004 RMK AC7 SLP172

CYQG;2013-09-19 09:00;CYQG 190900Z 16004KT 5SM BR BKN120 17/16 A3003 RMK AC6 SLP169

CYQG;2013-09-19 10:00;CYQG 191000Z 17003KT 4SM BR FEW140 16/16 A3003 RMK AC2 SLP167

CYQG;2013-09-19 10:52;CYQG 191052Z 19003KT 2 1/2SM BR BKN140 RMK AC6

CYQG;2013-09-19 11:00;CYQG 191100Z 19003KT 2 1/4SM BR BKN140 17/16 A3005 RMK FG1AC6 SLP174

CYQG;2013-09-19 12:00;CYQG 191200Z 22003KT 2 1/2SM BR FEW140 OVC280 18/17 A3005 RMK AC2CI4 SLP176

CYQG;2013-09-19 13:00;CYQG 191300Z 22007KT 4SM BR FEW140 OVC280 19/17 A3006 RMK AC1CI7 SUN VSBL SLP179

CYQG;2013-09-19 14:00;CYQG 191400Z 22007KT 5SM HZ SCT007 OVC280 21/18 A3005 RMK CF4CI4 SLP177

CYQG;2013-09-19 15:00;CYQG 191500Z 21011KT 5SM HZ OVC007 21/19 A3005 RMK SF8 SLP176

CYQG;2013-09-19 16:00;CYQG 191600Z 21010KT 5SM HZ BKN009 BKN280 23/19 A3004 RMK CF5CI2 SLP172

CYQG;2013-09-19 16:40;CYQG 191640Z 21008KT 5SM HZ BKN016 BKN280 RMK CF6CI1

CYQG;2013-09-19 17:00;CYQG 191700Z 20009G15KT 6SM HZ SCT017 BKN280 24/19 A3003 RMK CF4CI2 SLP169

CYQG;2013-09-19 18:00;CYQG 191800Z 21010KT 5SM HZ BKN019 OVC280 24/19 A3001 RMK CU6CI1 SLP162

CYQG;2013-09-19 19:00;CYQG 191900Z 20011KT 6SM HZ SCT020 BKN140 BKN280 25/19 A3001 RMK CU3AC3CI1 SLP159

CYQG;2013-09-19 20:00;CYQG 192000Z 19012KT 6SM HZ FEW025 SCT170 BKN280 25/19 A3000 RMK CU2AC2CI2 SLP156

CYQG;2013-09-19 21:00;CYQG 192100Z 19008KT 6SM HZ FEW025 SCT055 OVC270 24/19 A2999 RMK CU2SC2CI4 CONTRAILS SLP154

CYQG;2013-09-19 22:00;CYQG 192200Z 16009KT 6SM HZ FEW060 SCT160 OVC270 24/19 A2997 RMK SC2AC2CI4 CONTRAILS SLP148

CYQG;2013-09-19 23:00;CYQG 192300Z 16011KT 6SM HZ SCT160 BKN260 23/19 A2995 RMK AC4CS2 SLP141

CYQG;2013-09-20 00:00;CYQG 200000Z 16008KT 6SM HZ BKN150 BKN260 22/19 A2994 RMK AC5CS2 ACC ASOCTD DIST W SLP138

CYQG;2013-09-20 01:00;CYQG 200100Z 17008KT 7SM BKN130 22/19 A2995 RMK AC6 SLP141

CYQG;2013-09-20 02:00;CYQG 200200Z 18009KT 7SM BKN150 22/18 A2996 RMK AC6 SLP143

CYQG;2013-09-20 03:00;CYQG 200300Z 20010KT 7SM FEW063 SCT110 BKN160 21/19 A2997 RMK SC2AC2AC3 SLP147

CYQG;2013-09-20 03:08;CYQG 200308Z 19009KT 7SM -SHRA SCT063 BKN110 BKN160 RMK SC4AC2AC2

CYQG;2013-09-20 04:00;CYQG 200400Z 19009KT 7SM -SHRA SCT060 OVC120 21/19 A2996 RMK SC3AC5 SLP144

CYQG;2013-09-20 04:50;CYQG 200450Z 19007KT 6SM BR SCT064 BKN110 RMK SC3AC4

CYQG;2013-09-20 05:00;CYQG 200500Z 19008KT 6SM BR FEW067 BKN110 20/19 A2994 RMK AC2AC6 SLP136

CYQG;2013-09-20 06:00;CYQG 200600Z 19009KT 5SM BR BKN075 20/18 A2993 RMK AC5 SLP134

CYQG;2013-09-20 07:00;CYQG 200700Z 20008KT 5SM BR BKN050 BKN110 20/19 A2992 RMK SC6AC2 SLP129

CYQG;2013-09-20 07:35;CYQG 200735Z 20009KT 6SM -SHRA BR FEW026 BKN047 OVC090 RMK SC2SC4AC2

CYQG;2013-09-20 08:00;CYQG 200800Z 20012G18KT 5SM -SHRA BR FEW011 OVC042 20/19 A2990 RMK SC2SC6 SLP124

CYQG;2013-09-20 08:07;CYQG 200807Z 21009KT 5SM -TSRA BR FEW011 SCT045CB OVC080 RMK SC1CB3AC4 OCNL LTGIC S

CYQG;2013-09-20 09:00;CYQG 200900Z 27012KT 2 1/2SM TSRA BR OVC018CB 20/19 A2992 RMK FG2CB6 OCNL LTGICCC N-NW SLP131

CYQG;2013-09-20 09:32;CYQG 200932Z 17008KT 3SM -TSRA BR OVC021CB RMK CB8

CYQG;2013-09-20 10:00;CYQG 201000Z 18007KT 5SM -SHRA BR OVC017 20/19 A2989 RETSRA RMK SC8 /R15/ SLP119

CYQG;2013-09-20 10:25;CYQG 201025Z 18009KT 4SM BR OVC018 RMK SC8

CYQG;2013-09-20 11:04;CYQG 201104Z 17008KT 3SM BR OVC013 RMK SC8

CYQG;2013-09-20 11:41;CYQG 201141Z 18008KT 2SM BR OVC015 RMK SC8

CYQG;2013-09-20 12:00;CYQG 201200Z 18007KT 2SM BR OVC017 21/20 A2987 RMK SC8 SLP114

CYQG;2013-09-20 12:35;CYQG 201235Z 20006KT 4SM BR OVC013 RMK SC8

CYQG;2013-09-20 13:00;CYQG 201300Z 18009KT 4SM BR OVC011 21/20 A2986 RMK CU8 SLP110

CYQG;2013-09-20 13:25;CYQG 201325Z 20008KT 4SM BR BKN007 OVC011 RMK CF5SC3

CYQG;2013-09-20 14:00;CYQG 201400Z 20010KT 4SM BR BKN007 22/21 A2986 RMK CF7 BRKSINC SLP111

CYQG;2013-09-20 14:49;CYQG 201449Z 22011KT 4SM BR OVC012 RMK CF8

CYQG;2013-09-20 15:00;CYQG 201500Z 22009KT 5SM HZ BKN015 23/21 A2986 RMK CF7 SLP109

CYQG;2013-09-20 16:00;CYQG 201600Z 21007KT 6SM HZ OVC017 24/21 A2985 RMK CU8 SLP107

CYQG;2013-09-20 17:00;CYQG 201700Z 20007KT 6SM HZ FEW020 SCT130 BKN280 26/21 A2983 RMK CU2AC2CI2 SLP099

CYQG;2013-09-20 18:00;CYQG 201800Z 20009G15KT 8SM FEW023 BKN280 27/21 A2980 RMK CU2CI2 SLP088

CYQG;2013-09-20 19:00;CYQG 201900Z 19012KT 10SM BKN034 BKN260 27/21 A2977 RMK CU5CI2 SLP079

CYQG;2013-09-20 20:00;CYQG 202000Z 22012KT 10SM -SHRA BKN037 BKN060 BKN260 27/21 A2976 RMK CU5SC2CI1 VIS W 4 SLP075

CYQG;2013-09-20 20:04;CYQG 202004Z 29014KT 1/2SM +SHRA BKN009 OVC020 RMK SF6SC2 VIS SE 8

CYQG;2013-09-20 20:13;CYQG 202013Z 21013KT 1 1/2SM SHRA BKN022 OVC055 RERA RMK CU5SC3 VIS W 7

CYQG;2013-09-20 20:18;CYQG 202018Z 23011G17KT 10SM -SHRA SCT027 OVC052 RERA RMK CU3SC5

CYQG;2013-09-20 20:52;CYQG 202052Z 21004KT 6SM HZ BKN033TCU BKN260 RERA RMK TCU5CI2

CYQG;2013-09-20 21:00;CYQG 202100Z 21005KT 6SM HZ BKN033TCU BKN260 25/22 A2974 RERA RMK TCU5CI2 SLP070

CYQG;2013-09-20 22:00;CYQG 202200Z 28009G15KT 10SM BKN041TCU BKN069 OVC150 25/20 A2976 RMK TCU5AC2AC2 SLP074

CYQG;2013-09-20 23:08;CYQG 202308Z 25008KT 8SM -SHRA BKN037 OVC068 RMK SC7AC1

CYQG;2013-09-21 00:00;CYQG 210000Z 22006KT 12SM -SHRA OVC042 21/19 A2976 RMK SC8 SLP075

CYQG;2013-09-21 01:00;CYQG 210100Z 22007KT 10SM -SHRA SCT058 OVC100 21/19 A2977 RMK SC4AC4 SLP078

CYQG;2013-09-21 02:00;CYQG 210200Z 23007KT 10SM -SHRA SCT060 OVC110 20/19 A2976 RMK SC3AC5 SLP076

CYQG;2013-09-21 03:00;CYQG 210300Z 22006KT 10SM -SHRA OVC012 20/20 A2976 RMK SC8 SLP076

CYQG;2013-09-21 03:14;CYQG 210314Z 24005KT 5SM -RA BR BKN005 OVC020 RMK SF6SC2

CYQG;2013-09-21 04:00;CYQG 210400Z 22006KT 4SM -RA BR OVC005 20/20 A2974 RMK SF8 SLP070

CYQG;2013-09-21 04:40;CYQG 210440Z 24006KT 6SM -RA BR OVC007 RMK SF8

CYQG;2013-09-21 05:00;CYQG 210500Z 31010KT 6SM -RA BR BKN008 BKN021 OVC042 19/18 A2974 RMK SF6SC2SC1 SLP068

CYQG;2013-09-21 05:24;CYQG 210524Z 31005KT 7SM -RA FEW012 OVC042 RMK SC2SC6

CYQG;2013-09-21 05:38;CYQG 210538Z 30004KT 7SM -RA OVC013 RMK SC8

CYQG;2013-09-21 05:53;CYQG 210553Z 29004KT 7SM -RA OVC017 RMK SC8

CYQG;2013-09-21 06:00;CYQG 210600Z 28003KT 7SM -RA OVC020 19/18 A2974 RMK SC8 SLP066

CYQG;2013-09-21 07:00;CYQG 210700Z 25004KT 8SM -RA OVC042 18/17 A2972 RMK SC8 SLP061

CYQG;2013-09-21 08:00;CYQG 210800Z 23006KT 5SM -RA BR SCT013 OVC039 18/17 A2971 RMK SC3SC5 SLP059

CYQG;2013-09-21 08:21;CYQG 210821Z 20005KT 4SM -RA BR FEW007 OVC017 RMK SF2SC6

CYQG;2013-09-21 08:42;CYQG 210842Z 23004KT 4SM -RA BR FEW004 BKN015 OVC040 RMK SF2SC5SC2

CYQG;2013-09-21 09:00;CYQG 210900Z 26004KT 4SM -RA BR SCT003 OVC015 18/17 A2968 RMK SF3SC5 SLP049

CYQG;2013-09-21 09:30;CYQG 210930Z 25003KT 5SM BR BKN008 OVC024 RMK SF6SC2

CYQG;2013-09-21 09:51;CYQG 210951Z 29011KT 7SM BKN011 OVC031 RMK SC6SC2

CYQG;2013-09-21 10:00;CYQG 211000Z 30004KT 7SM FEW011 BKN026 OVC130 18/17 A2967 RMK SC2SC6AC1 SLP043

CYQG;2013-09-21 11:00;CYQG 211100Z 29008KT 10SM FEW011 SCT028 BKN070 OVC140 17/16 A2968 RMK SC2SC2AC3AC1 SLP048

CYQG;2013-09-21 12:00;CYQG 211200Z CCA 28005KT 7SM FEW008 FEW030 BKN150 17/15 A2969 RMK SF1SC2AC5 SLP052

CYQG;2013-09-21 13:00;CYQG 211300Z 30011KT 8SM FEW005 BKN180 16/15 A2970 RMK SF1AC7 TR SF SLP055

CYQG;2013-09-21 13:39;CYQG 211339Z 30010G15KT 10SM BKN011 BKN160 RMK SF5AC2

CYQG;2013-09-21 14:00;CYQG 211400Z 30008KT 10SM FEW008 SCT014 BKN180 17/15 A2971 RMK SF1SC3AC4 TR SF SLP060

CYQG;2013-09-21 15:00;CYQG 211500Z 30008KT 12SM FEW020 BKN180 BKN280 17/14 A2971 RMK CU1AC4CI1 SLP060

CYQG;2013-09-21 16:00;CYQG 211600Z 31012G18KT 15SM BKN022 BKN280 19/14 A2971 RMK CU6CI1 SLP060

CYQG;2013-09-21 17:00;CYQG 211700Z 34011G17KT 15SM BKN039 19/14 A2972 RMK CU7 SLP062

CYQG;2013-09-21 18:00;CYQG 211800Z 33011G18KT 15SM BKN035 BKN083 18/12 A2973 RMK CU5AC2 TCU ASOCTD SLP065

CYQG;2013-09-21 19:00;CYQG 211900Z 33013KT 15SM BKN035 BKN076 19/13 A2974 RMK CU5AC2 SLP069

CYQG;2013-09-21 20:00;CYQG 212000Z 33013KT 15SM SCT035 BKN080 20/12 A2974 RMK CU4AC2 SLP069

CYQG;2013-09-21 21:00;CYQG 212100Z 32009KT 15SM FEW035 BKN077 20/10 A2974 RMK CU2AC5 SLP070

CYQG;2013-09-21 22:00;CYQG 212200Z 31013KT 15SM BKN075 19/10 A2976 RMK AC6 SLP076

CYQG;2013-09-21 23:00;CYQG 212300Z 31016KT 15SM SCT070 18/08 A2978 RMK AC4 SLP083

CYQG;2013-09-22 00:00;CYQG 220000Z 32010KT 15SM FEW070 17/08 A2979 RMK AC2 SLP087

CYQG;2013-09-22 01:00;CYQG 220100Z 32012G17KT 15SM SCT066 16/08 A2982 RMK AC3 SLP097

CYQG;2013-09-22 02:00;CYQG 220200Z 35010KT 15SM BKN059 15/09 A2984 RMK SC5 SLP103

CYQG;2013-09-22 03:00;CYQG 220300Z 33010KT 15SM BKN058 14/08 A2985 RMK SC6 SLP109

CYQG;2013-09-22 04:00;CYQG 220400Z 35008KT 15SM BKN057 14/07 A2987 RMK SC7 SLP114

CYQG;2013-09-22 05:00;CYQG 220500Z 34007KT 15SM BKN053 13/06 A2989 RMK SC7 SLP120

CYQG;2013-09-22 06:00;CYQG 220600Z 35007KT 15SM BKN046 13/06 A2990 RMK SC7 SLP125

CYQG;2013-09-22 07:00;CYQG 220700Z 35009KT 15SM OVC038 12/05 A2990 RMK SC8 SLP126

CYQG;2013-09-22 08:00;CYQG 220800Z 36012KT 15SM OVC037 12/05 A2991 RMK SC8 SLP128

CYQG;2013-09-22 09:00;CYQG 220900Z 33008KT 15SM BKN043 12/03 A2992 RMK SC7 SLP132

CYQG;2013-09-22 10:00;CYQG 221000Z 34011G17KT 15SM BKN040 11/05 A2993 RMK SC7 SLP136

CYQG;2013-09-22 11:00;CYQG 221100Z 35008KT 15SM FEW042 10/05 A2995 RMK SC2 SLP142

CYQG;2013-09-22 12:00;CYQG 221200Z CCA 34007KT 15SM FEW040 10/05 A2998 RMK SC2 SLP152

CYQG;2013-09-22 13:00;CYQG 221300Z 34009KT 15SM FEW030 10/04 A2999 RMK SC1 SLP157

CYQG;2013-09-22 14:00;CYQG 221400Z 36010KT 15SM FEW028 11/04 A2998 RMK CF2 SLP153

CYQG;2013-09-22 15:00;CYQG 221500Z 33010G16KT 15SM FEW032 12/04 A3001 RMK CF1 SLP162

CYQG;2013-09-22 16:00;CYQG 221600Z 32010KT 15SM FEW037 13/04 A3001 RMK CF1 SLP164

CYQG;2013-09-22 17:00;CYQG 221700Z 34005KT 15SM FEW038 14/05 A3001 RMK CF1 SLP165

CYQG;2013-09-22 18:00;CYQG 221800Z 34004KT 15SM SCT038 14/05 A3001 RMK CU3 SLP164

CYQG;2013-09-22 19:00;CYQG 221900Z 04005KT 15SM BKN044 16/07 A3000 RMK SC6 SLP159

CYQG;2013-09-22 20:00;CYQG 222000Z 09008KT 15SM BKN051 15/06 A3000 RMK SC7 SLP160

CYQG;2013-09-22 21:00;CYQG 222100Z 05008KT 15SM BKN046 15/07 A3001 RMK SC7 SLP163

CYQG;2013-09-22 22:00;CYQG 222200Z 04007KT 15SM BKN040 14/06 A3002 RMK SC7 SLP166

CYQG;2013-09-22 23:00;CYQG 222300Z 01007KT 15SM BKN045 13/05 A3003 RMK SC7 SLP170

CYQG;2013-09-23 00:00;CYQG 230000Z 02008KT 15SM BKN044 13/06 A3005 RMK SC7 SLP178

CYQG;2013-09-23 01:00;CYQG 230100Z 36008KT 15SM BKN043 12/05 A3006 RMK SC7 SLP183

CYQG;2013-09-23 02:00;CYQG 230200Z 01007KT 15SM BKN045 12/05 A3007 RMK SC7 SLP187

CYQG;2013-09-23 03:00;CYQG 230300Z 02004KT 15SM BKN043 12/05 A3008 RMK SC7 SLP187

CYQG;2013-09-23 04:00;CYQG 230400Z 35004KT 15SM BKN043 11/05 A3009 RMK SC5 SLP190

CYQG;2013-09-23 05:00;CYQG 230500Z 01004KT 15SM FEW043 10/05 A3010 RMK SC2 SLP193

CYQG;2013-09-23 06:00;CYQG 230600Z 35004KT 15SM FEW042 09/06 A3011 RMK SC2 SLP197

CYQG;2013-09-23 07:00;CYQG 230700Z 18002KT 15SM BKN034 09/07 A3011 RMK SC6 SLP198

CYQG;2013-09-23 08:00;CYQG 230800Z 19003KT 15SM BKN019 09/08 A3011 RMK SC7 SLP199

CYQG;2013-09-23 09:00;CYQG 230900Z 09002KT 15SM BKN034 09/07 A3011 RMK SC6 SLP200

CYQG;2013-09-23 10:00;CYQG 231000Z 11002KT 15SM BKN028 09/07 A3013 RMK SC6 SLP204

CYQG;2013-09-23 11:00;CYQG 231100Z 10005KT 15SM BKN033 10/06 A3014 RMK SC6 SLP208

CYQG;2013-09-23 12:00;CYQG 231200Z 13005KT 15SM BKN035 10/05 A3016 RMK SC6 SLP216

CYQG;2013-09-23 13:00;CYQG 231300Z 06011KT 15SM BKN036 12/05 A3018 RMK SC5 SLP221

CYQG;2013-09-23 14:00;CYQG 231400Z 07008KT 15SM SCT035 13/04 A3019 RMK SC3 SLP226

CYQG;2013-09-23 15:00;CYQG 231500Z 06008G15KT 15SM BKN038 13/04 A3020 RMK SC6 SLP227

CYQG;2013-09-23 16:00;CYQG 231600Z 08007KT 15SM BKN038 13/05 A3020 RMK SC6 SLP227

CYQG;2013-09-23 17:00;CYQG 231700Z 07005KT 15SM SCT040 14/05 A3018 RMK SC4 SLP223

CYQG;2013-09-23 18:00;CYQG 231800Z 00000KT 15SM BKN040 14/05 A3018 RMK SC6 SLP221

CYQG;2013-09-23 19:00;CYQG 231900Z 11005KT 15SM BKN038 15/06 A3017 RMK SC5 SLP219

CYQG;2013-09-23 20:00;CYQG 232000Z 08005KT 15SM SCT038 15/06 A3015 RMK SC3 SLP213

CYQG;2013-09-23 21:00;CYQG 232100Z 07004KT 15SM FEW035 16/07 A3015 RMK SC2 SLP213

CYQG;2013-09-23 22:00;CYQG 232200Z 09005KT 15SM FEW035 15/06 A3015 RMK SC1 SLP211

CYQG;2013-09-23 23:00;CYQG 232300Z 06003KT 15SM FEW035 15/06 A3014 RMK SC1 SLP209

CYQG;2013-09-24 00:00;CYQG 240000Z 08004KT 15SM FEW030 13/07 A3014 RMK SC1 SLP207

CYQG;2013-09-24 01:00;CYQG 240100Z 17003KT 15SM SKC 12/07 A3014 RMK SLP210

CYQG;2013-09-24 02:00;CYQG 240200Z 00000KT 15SM SKC 11/06 A3014 RMK SLP210

CYQG;2013-09-24 03:00;CYQG 240300Z 00000KT 15SM FEW040 11/07 A3015 RMK SC2 SLP211

CYQG;2013-09-24 04:00;CYQG 240400Z 07002KT 15SM FEW030 10/07 A3015 RMK SC1 SLP211

CYQG;2013-09-24 05:00;CYQG 240500Z 00000KT 15SM FEW030 09/06 A3014 RMK SC1 SLP210

CYQG;2013-09-24 06:00;CYQG 240600Z 00000KT 15SM FEW030 09/07 A3015 RMK SC1 SLP211

CYQG;2013-09-24 07:00;CYQG 240700Z 14004KT 15SM FEW030 09/07 A3015 RMK SC1 SLP211

CYQG;2013-09-24 08:00;CYQG 240800Z 11004KT 15SM FEW030 09/07 A3014 RMK SC1 SLP209

CYQG;2013-09-24 09:00;CYQG 240900Z 09002KT 15SM SCT032 10/07 A3014 RMK SC3 SLP210

CYQG;2013-09-24 10:00;CYQG 241000Z 06005KT 15SM FEW032 08/06 A3014 RMK SC1 SLP207

CYQG;2013-09-24 11:00;CYQG 241100Z 04002KT 15SM FEW032 09/06 A3015 RMK SC2 SLP211

CYQG;2013-09-24 12:00;CYQG 241200Z 02003KT 15SM BKN032 09/07 A3015 RMK SC6 SLP212

CYQG;2013-09-24 13:00;CYQG 241300Z 02004KT 15SM FEW015 BKN033 12/10 A3015 RMK CF1SC7 TR CF SLP213

CYQG;2013-09-24 14:00;CYQG 241400Z 06006KT 15SM BKN034 15/10 A3015 RMK SC6 SLP211

CYQG;2013-09-24 15:00;CYQG 241500Z 05007KT 15SM BKN032 15/10 A3014 RMK SC6 SLP208

CYQG;2013-09-24 16:00;CYQG 241600Z 07003KT 15SM BKN032 16/10 A3013 RMK SC6 SLP205

CYQG;2013-09-24 17:00;CYQG 241700Z 07007KT 15SM BKN034 16/10 A3011 RMK SC6 SLP198

CYQG;2013-09-24 18:00;CYQG 241800Z 06005KT 15SM BKN034 17/10 A3008 RMK SC6 SLP189

CYQG;2013-09-24 19:00;CYQG 241900Z 01009KT 15SM FEW034 17/10 A3007 RMK SC1 SLP183

CYQG;2013-09-24 20:00;CYQG 242000Z 08009KT 15SM FEW034 18/10 A3004 RMK CU1 SLP176

CYQG;2013-09-24 21:00;CYQG 242100Z 06004KT 15SM FEW045 18/10 A3004 RMK SC1 SLP172

CYQG;2013-09-24 22:00;CYQG 242200Z 05006KT 15SM FEW045 18/09 A3003 RMK SC1 SLP170

CYQG;2013-09-24 23:00;CYQG 242300Z 06006KT 15SM SKC 17/10 A3002 RMK SLP167

CYQG;2013-09-25 00:00;CYQG 250000Z 08005KT 15SM SKC 15/10 A3001 RMK SLP164

CYQG;2013-09-25 01:00;CYQG 250100Z 18003KT 15SM FEW030 13/09 A3002 RMK SC1 SLP167

CYQG;2013-09-25 02:00;CYQG 250200Z 00000KT 15SM FEW030 12/09 A3002 RMK SC1 SLP168

CYQG;2013-09-25 03:00;CYQG 250300Z 00000KT 15SM FEW035 11/09 A3001 RMK SC1 SLP165

CYQG;2013-09-25 04:00;CYQG 250400Z 00000KT 15SM FEW035 11/09 A3002 RMK SC1 SLP167

CYQG;2013-09-25 05:00;CYQG 250500Z 05004KT 15SM SCT280 11/09 A3002 RMK CI1 SLP166

CYQG;2013-09-25 06:00;CYQG 250600Z 05005KT 15SM SCT280 11/09 A3000 RMK CI2 SLP161

CYQG;2013-09-25 07:00;CYQG 250700Z 09002KT 15SM BKN280 11/09 A2999 RMK CI2 SLP158

CYQG;2013-09-25 08:00;CYQG 250800Z 00000KT 15SM FEW280 10/09 A2999 RMK CI1 SLP156

CYQG;2013-09-25 09:00;CYQG 250900Z 36002KT 15SM MIFG FEW280 10/09 A2998 RMK CI1 SLP154

CYQG;2013-09-25 10:00;CYQG 251000Z 36004KT 15SM MIFG FEW280 11/10 A2998 RMK CI1 SLP154

CYQG;2013-09-25 11:00;CYQG 251100Z 34002KT 15SM MIFG BKN280 11/10 A3000 RMK CI4 SLP159

CYQG;2013-09-25 12:00;CYQG 251200Z 04004KT 12SM MIFG BKN280 10/09 A3000 RMK CI3 SLP162

CYQG;2013-09-25 13:00;CYQG 251300Z 04006KT 12SM BKN280 14/13 A3000 RMK CI4 SLP160

CYQG;2013-09-25 14:00;CYQG 251400Z 07008KT 15SM BKN021 BKN280 15/11 A3001 RMK SC6CI1 SLP165

CYQG;2013-09-25 15:00;CYQG 251500Z 07008KT 15SM BKN018 BKN280 16/11 A3001 RMK SC6CI1 SLP164

CYQG;2013-09-25 16:00;CYQG 251600Z 05008KT 15SM FEW021 BKN280 18/12 A3001 RMK SC2CI2 SLP165

CYQG;2013-09-25 17:00;CYQG 251700Z 04006KT 15SM FEW025 FEW220 BKN290 19/13 A3000 RMK CU1CC1CI2 SLP160

CYQG;2013-09-25 18:00;CYQG 251800Z 02009KT 15SM FEW027 BKN290 19/13 A2998 RMK CU1CI2 SLP154

CYQG;2013-09-25 19:00;CYQG 251900Z 05006KT 15SM FEW030 BKN290 20/12 A2997 RMK CU1CI2 SLP149

CYQG;2013-09-25 20:00;CYQG 252000Z 03008KT 15SM FEW030 BKN290 20/11 A2996 RMK CU1CI2 SLP147

CYQG;2013-09-25 21:00;CYQG 252100Z 03008KT 15SM FEW220 BKN290 21/10 A2995 RMK CC2CI2 SLP144

CYQG;2013-09-25 22:00;CYQG 252200Z 03009KT 15SM FEW240 BKN290 20/09 A2996 RMK CC1CI2 SLP147

CYQG;2013-09-25 23:00;CYQG 252300Z 04006KT 15SM BKN280 18/09 A2997 RMK CI2 SLP149

CYQG;2013-09-26 00:00;CYQG 260000Z 04007KT 15SM SCT270 16/10 A2998 RMK CI2 SLP152

CYQG;2013-09-26 01:00;CYQG 260100Z 03006KT 15SM SCT270 15/11 A2998 RMK CI2 SLP154

CYQG;2013-09-26 02:00;CYQG 260200Z 05007KT 15SM FEW270 15/12 A3000 RMK CI1 SLP159

CYQG;2013-09-26 03:00;CYQG 260300Z 05008KT 15SM FEW270 14/12 A3000 RMK CI1 SLP158

CYQG;2013-09-26 04:00;CYQG 260400Z 04004KT 15SM FEW270 14/12 A3001 RMK CI1 SLP161

CYQG;2013-09-26 05:00;CYQG 260500Z 04006KT 15SM SKC 13/12 A3000 RMK SLP160

CYQG;2013-09-26 06:00;CYQG 260600Z 36004KT 15SM SKC 12/11 A3001 RMK SLP162

CYQG;2013-09-26 07:00;CYQG 260700Z 35006KT 15SM SKC 11/09 A3001 RMK SLP162

CYQG;2013-09-26 08:00;CYQG 260800Z 35003KT 15SM SKC 11/09 A3001 RMK SLP164

CYQG;2013-09-26 09:00;CYQG 260900Z 35003KT 12SM SKC 10/10 A3002 RMK SLP166

CYQG;2013-09-26 10:00;CYQG 261000Z 36005KT 10SM SKC 10/09 A3004 RMK SLP171

CYQG;2013-09-26 11:00;CYQG 261100Z CCA 34002KT 10SM MIFG FEW025 10/09 A3006 RMK SC1 SLP178

CYQG;2013-09-26 12:00;CYQG 261200Z 34004KT 12SM MIFG FEW280 11/10 A3007 RMK CI1 SLP186

CYQG;2013-09-26 13:00;CYQG 261300Z 01003KT 15SM FEW280 13/12 A3009 RMK CI1 SLP192

CYQG;2013-09-26 14:00;CYQG 261400Z 03006KT 15SM FEW280 16/13 A3011 RMK CI1 SLP196

CYQG;2013-09-26 15:00;CYQG 261500Z 03005KT 15SM FEW280 19/11 A3011 RMK CI1 SLP196

CYQG;2013-09-26 16:00;CYQG 261600Z 05006KT 15SM FEW280 20/10 A3011 RMK CI1 SLP196

CYQG;2013-09-26 17:00;CYQG 261700Z 06006KT 15SM FEW280 21/09 A3011 RMK CI1 TR CI SLP195

CYQG;2013-09-26 18:00;CYQG 261800Z 06006KT 15SM FEW280 21/09 A3010 RMK CI1 TR CI SLP191

CYQG;2013-09-26 19:00;CYQG 261900Z 04009KT 15SM FEW280 22/10 A3009 RMK CI1 TR CI SLP189

CYQG;2013-09-26 20:00;CYQG 262000Z 01008KT 15SM SKC 23/10 A3009 RMK SLP189

CYQG;2013-09-26 21:00;CYQG 262100Z 02006KT 15SM SKC 23/09 A3009 RMK SLP190

CYQG;2013-09-26 22:00;CYQG 262200Z 05005KT 15SM SKC 23/09 A3009 RMK SLP190

CYQG;2013-09-26 23:00;CYQG 262300Z 03003KT 15SM SKC 21/09 A3010 RMK SLP193

CYQG;2013-09-27 00:00;CYQG 270000Z 20005KT 15SM SKC 18/11 A3011 RMK SLP198

CYQG;2013-09-27 01:00;CYQG 270100Z 00000KT 15SM SKC 16/11 A3013 RMK SLP204

CYQG;2013-09-27 02:00;CYQG 270200Z 00000KT 15SM SKC 14/11 A3014 RMK SLP207

CYQG;2013-09-27 03:00;CYQG 270300Z 13003KT 15SM SKC 14/11 A3014 RMK SLP208

CYQG;2013-09-27 04:00;CYQG 270400Z 00000KT 15SM SKC 12/10 A3016 RMK SLP212

CYQG;2013-09-27 05:00;CYQG 270500Z 00000KT 15SM SKC 13/11 A3016 RMK SLP213

CYQG;2013-09-27 06:00;CYQG 270600Z 00000KT 15SM SKC 12/11 A3016 RMK SLP213

CYQG;2013-09-27 07:00;CYQG 270700Z 00000KT 15SM SKC 12/10 A3017 RMK SLP215

CYQG;2013-09-27 08:00;CYQG 270800Z 00000KT 15SM SKC 12/11 A3017 RMK SLP215

CYQG;2013-09-27 09:00;CYQG 270900Z 33003KT 12SM MIFG SKC 12/11 A3018 RMK SLP219

CYQG;2013-09-27 10:00;CYQG 271000Z 36003KT 8SM MIFG SKC 12/11 A3021 RMK SLP231

CYQG;2013-09-27 11:00;CYQG 271100Z 01003KT 8SM MIFG FEW280 12/11 A3021 RMK CI1 SLP229

CYQG;2013-09-27 12:00;CYQG 271200Z 04002KT 6SM BR MIFG SKC 11/11 A3022 RMK SLP233

CYQG;2013-09-27 13:00;CYQG 271300Z 00000KT 8SM SKC 15/14 A3023 RMK SLP238

CYQG;2013-09-27 14:00;CYQG 271400Z 06004KT 15SM SKC 18/14 A3024 RMK SLP242

CYQG;2013-09-27 15:00;CYQG 271500Z 05005KT 15SM FEW030 19/15 A3025 RMK CU1 SLP244

CYQG;2013-09-27 16:00;CYQG 271600Z CCA 05004KT 15SM FEW030 20/15 A3025 RMK CU2 SLP243

CYQG;2013-09-27 17:00;CYQG 271700Z 05008KT 15SM FEW030 22/14 A3024 RMK CU2 SLP241

CYQG;2013-09-27 18:00;CYQG 271800Z 05007KT 15SM FEW030 22/15 A3022 RMK CU2 SLP234

CYQG;2013-09-27 19:00;CYQG 271900Z 04007KT 15SM FEW030 22/14 A3021 RMK CU2 SLP230

CYQG;2013-09-27 20:00;CYQG 272000Z 04007KT 15SM FEW035 23/14 A3020 RMK CU2 SLP225

CYQG;2013-09-27 21:00;CYQG 272100Z 10005KT 15SM FEW037 22/14 A3019 RMK CU1 SLP223

CYQG;2013-09-27 22:00;CYQG 272200Z 13007KT 15SM FEW035 FEW290 21/14 A3019 RMK CF1CI1 SLP224

CYQG;2013-09-27 23:00;CYQG 272300Z 13005KT 15SM FEW290 19/14 A3020 RMK CI1 SLP226

CYQG;2013-09-28 00:00;CYQG 280000Z 13007KT 15SM FEW290 17/13 A3020 RMK CI1 SLP227

CYQG;2013-09-28 01:00;CYQG 280100Z 11003KT 15SM SKC 16/13 A3019 RMK SLP225

CYQG;2013-09-28 02:00;CYQG 280200Z 04003KT 15SM SKC 15/13 A3020 RMK SLP228

CYQG;2013-09-28 03:00;CYQG 280300Z 09003KT 15SM SKC 14/12 A3021 RMK SLP229

CYQG;2013-09-28 04:00;CYQG 280400Z 09002KT 15SM SKC 14/12 A3020 RMK SLP227

CYQG;2013-09-28 05:00;CYQG 280500Z 10002KT 15SM SKC 14/12 A3020 RMK SLP228

CYQG;2013-09-28 06:00;CYQG 280600Z 00000KT 15SM SKC 13/12 A3020 RMK SLP227

CYQG;2013-09-28 07:00;CYQG 280700Z 09002KT 15SM SKC 14/12 A3020 RMK SLP225

CYQG;2013-09-28 08:00;CYQG 280800Z 05002KT 15SM SKC 13/12 A3019 RMK SLP223

CYQG;2013-09-28 09:00;CYQG 280900Z 10003KT 1/4SM FG VV001 13/13 A3019 RMK FG8 SLP223

CYQG;2013-09-28 09:06;CYQG 280906Z 14002KT 1/4SM FG SKC RMK FG6 VIS SW 1

CYQG;2013-09-28 10:00;CYQG 281000Z 08003KT 3/8SM FG SKC 11/11 A3020 RMK FG7 VIS SW 1 SLP225

CYQG;2013-09-28 11:00;CYQG 281100Z 00000KT 3/8SM FG FEW120 11/11 A3020 RMK FG2AC1 VIS SW - SW 11/2 SLP227

CYQG;2013-09-28 11:10;CYQG 281110Z 00000KT 1/8SM FG SCT270 RMK FG3CI1

CYQG;2013-09-28 11:53;CYQG 281153Z 00000KT 1/4SM FG SCT270 RMK FG2CI2

CYQG;2013-09-28 12:00;CYQG 281200Z 00000KT 3/8SM FG FEW270 11/11 A3021 RMK FG2CI1 SLP232

CYQG;2013-09-28 12:09;CYQG 281209Z 10002KT 3/4SM BR FEW270 RMK FG1CI1

CYQG;2013-09-28 12:16;CYQG 281216Z 00000KT 1 1/2SM BR FEW270 RMK FG1CI1

CYQG;2013-09-28 12:37;CYQG 281237Z 00000KT 7SM FEW270 RMK CI1

CYQG;2013-09-28 13:00;CYQG 281300Z 00000KT 10SM FEW280 15/14 A3021 RMK CI0 SLP231

CYQG;2013-09-28 14:00;CYQG 281400Z 15005KT 15SM FEW030 FEW280 19/16 A3021 RMK CU1CI1 CU DIST N TR CI SLP231

CYQG;2013-09-28 15:00;CYQG 281500Z 21004KT 15SM FEW020 21/15 A3021 RMK CF1 SLP231

CYQG;2013-09-28 16:00;CYQG 281600Z 19004KT 15SM FEW025 FEW280 22/15 A3020 RMK CF1CI1 TR CF SLP228

CYQG;2013-09-28 17:00;CYQG 281700Z 20007KT 15SM FEW030 SCT280 23/13 A3018 RMK CU2CI1 SLP221

CYQG;2013-09-28 18:00;CYQG 281800Z 18008KT 15SM FEW040 BKN300 24/13 A3015 RMK CF1CI2 CONTRAILS TR CF SLP209

CYQG;2013-09-28 19:00;CYQG 281900Z 17011KT 15SM BKN300 24/12 A3012 RMK CI3 CONTRAILS SLP200

CYQG;2013-09-28 20:00;CYQG 282000Z 19011KT 15SM BKN300 24/12 A3011 RMK CI2 SLP194

CYQG;2013-09-28 21:00;CYQG 282100Z 17009KT 15SM BKN300 23/12 A3010 RMK CI2 CONTRAILS SLP191

CYQG;2013-09-28 22:00;CYQG 282200Z 16011KT 15SM BKN300 23/12 A3009 RMK CI1 CONTRAILS SLP189

CYQG;2013-09-28 23:00;CYQG 282300Z 13007KT 15SM BKN290 21/14 A3009 RMK CI2 CONTRAILS SLP188

CYQG;2013-09-29 00:00;CYQG 290000Z 13006KT 15SM BKN290 19/12 A3008 RMK CI2 SLP186

CYQG;2013-09-29 01:00;CYQG 290100Z 13008KT 15SM BKN290 18/13 A3007 RMK CI2 SLP185

CYQG;2013-09-29 02:00;CYQG 290200Z 13006KT 15SM SCT280 17/14 A3007 RMK CI1 SLP182

CYQG;2013-09-29 03:00;CYQG 290300Z 16005KT 15SM SCT280 17/14 A3005 RMK CI2 SLP176

CYQG;2013-09-29 04:00;CYQG 290400Z 16006KT 15SM SCT280 18/13 A3004 RMK CI2 SLP173

CYQG;2013-09-29 05:00;CYQG 290500Z 18006KT 15SM SCT280 18/13 A3004 RMK CI2 SLP173

CYQG;2013-09-29 06:00;CYQG 290600Z 19006KT 15SM SCT260 18/13 A3004 RMK CI2 SLP170

CYQG;2013-09-29 07:00;CYQG 290700Z 18006KT 15SM SCT260 17/14 A3002 RMK CI2 SLP164

CYQG;2013-09-29 08:00;CYQG 290800Z 19006KT 15SM FEW063 SCT250 17/14 A3001 RMK SC2CI0 SLP159

CYQG;2013-09-29 09:00;CYQG 290900Z 19007KT 15SM FEW066 BKN250 17/14 A3000 RMK AC2CI2 SLP157

CYQG;2013-09-29 10:00;CYQG 291000Z 19007KT 15SM SCT066 BKN250 17/13 A2999 RMK AC4CI2 SLP155

CYQG;2013-09-29 11:00;CYQG 291100Z 20007KT 15SM BKN068 BKN250 17/14 A3000 RMK AC6CI1 SLP156

CYQG;2013-09-29 12:00;CYQG 291200Z CCA 20006KT 10SM BKN075 17/14 A3000 RMK AC7 SLP157

CYQG;2013-09-29 13:00;CYQG 291300Z 21006KT 15SM FEW075 BKN250 19/14 A2999 RMK AC2CI4 SLP156

CYQG;2013-09-29 14:00;CYQG 291400Z 22008KT 15SM SCT084 BKN110 BKN250 19/14 A3000 RMK AC4AC2CI2 SLP158

CYQG;2013-09-29 15:00;CYQG 291500Z 23004KT 15SM BKN062 OVC110 19/15 A3001 RMK SC6AC2 SLP160

CYQG;2013-09-29 15:49;CYQG 291549Z 24008KT 12SM -SHRA SCT014 OVC060 RMK CU4SC4

CYQG;2013-09-29 16:00;CYQG 291600Z 23006KT 8SM -SHRA SCT014 OVC028 18/15 A3001 RMK CU3SC5 SLP161

CYQG;2013-09-29 16:32;CYQG 291632Z 21008KT 10SM SCT020 OVC057 RMK CU3SC5

CYQG;2013-09-29 17:00;CYQG 291700Z 21007KT 6SM -SHRA HZ BKN022 OVC040 18/15 A3001 RMK CU5SC3 SLP161

CYQG;2013-09-29 18:00;CYQG 291800Z 21007KT 4SM -RA BR FEW008 OVC025 17/16 A2999 RMK SF2CU6 SLP156

CYQG;2013-09-29 19:00;CYQG 291900Z 21003KT 4SM -RA BR SCT006 OVC017 18/16 A2998 RMK SF4CU4 SLP152

CYQG;2013-09-29 19:25;CYQG 291925Z 22002KT 5SM -RA BR BKN006 OVC016 RMK SF6SC2

CYQG;2013-09-29 19:53;CYQG 291953Z 20003KT 2 1/4SM -RA BR OVC005 RMK SF8

CYQG;2013-09-29 20:00;CYQG 292000Z 20003KT 1 1/2SM -RA BR OVC005 17/16 A2998 RMK FG1SF7 SLP150

CYQG;2013-09-29 20:15;CYQG 292015Z 22007KT 2SM -RA BR BKN004 OVC016 RMK FG1SF6SC2

CYQG;2013-09-29 20:42;CYQG 292042Z 23005KT 2SM -RA BR SCT005 OVC012 RMK FG1SF3SC4

CYQG;2013-09-29 21:00;CYQG 292100Z 25005KT 2 1/4SM -RA BR FEW004 OVC014 17/16 A2997 RMK FG1SF2SC6 SLP149

CYQG;2013-09-29 21:27;CYQG 292127Z 25003KT 1SM -RA BR SCT004 OVC015 RMK FG2SF2SC5

CYQG;2013-09-29 21:41;CYQG 292141Z 26003KT 3/4SM -RA BR SCT004 OVC016 RMK FG2SF2SC5

CYQG;2013-09-29 22:00;CYQG 292200Z 25002KT 3/4SM -RA BR BKN003 OVC016 17/17 A2998 RMK FG2SF4SC2 SLP152

CYQG;2013-09-29 22:23;CYQG 292223Z 26003KT 1SM -RA BR BKN002 OVC013 RMK FG2SF6SC1

CYQG;2013-09-29 22:47;CYQG 292247Z 24002KT 1 1/2SM -RA BR SCT003 OVC023 RMK FG2SF2SC5

CYQG;2013-09-29 23:00;CYQG 292300Z 24002KT 1 1/2SM -RA BR FEW003 BKN012 OVC024 17/16 A2998 RMK FG1SF2SC5SC1 SLP152

CYQG;2013-09-29 23:22;CYQG 292322Z 00000KT 2SM -RA BR FEW003 OVC016 RMK FG1SF1SC6

CYQG;2013-09-29 23:52;CYQG 292352Z 00000KT 2SM -RA BR SCT005 OVC012 RMK FG1SF2SC5

CYQG;2013-09-30 00:00;CYQG 300000Z 00000KT 2SM -RA BR BKN004 OVC014 17/16 A2998 RMK FG1SF5SC2 SLP153

CYQG;2013-09-30 00:27;CYQG 300027Z 04007KT 3SM -RA BR BKN003 OVC013 RMK SF6SC2

CYQG;2013-09-30 00:50;CYQG 300050Z 01004KT 5SM -RA BR OVC005 RMK SF8

CYQG;2013-09-30 01:00;CYQG 300100Z 02005KT 5SM -RA BR OVC004 16/15 A2999 RMK SF8 SLP156

CYQG;2013-09-30 02:00;CYQG 300200Z 01004KT 4SM -RA BR OVC005 16/15 A2999 RMK SF8 SLP155

CYQG;2013-09-30 03:00;CYQG 300300Z 02005KT 4SM -RA BR OVC005 16/15 A2998 RMK SF8 SLP152

CYQG;2013-09-30 04:00;CYQG 300400Z 04003KT 4SM BR OVC005 16/16 A2998 RMK SF8 SLP152

CYQG;2013-09-30 04:46;CYQG 300446Z 34004KT 4SM BR OVC003 RMK SF8

CYQG;2013-09-30 04:52;CYQG 300452Z 34004KT 3SM -DZ BR OVC003 RMK SF8

CYQG;2013-09-30 05:00;CYQG 300500Z 34003KT 3SM -DZ BR OVC003 16/15 A2998 RMK SF8 SLP152

CYQG;2013-09-30 05:42;CYQG 300542Z 35004KT 1 1/2SM -DZ BR OVC002 RMK FG2ST6

CYQG;2013-09-30 06:00;CYQG 300600Z 36003KT 1SM -DZ BR OVC002 16/15 A2998 RMK FG3ST5 SLP153

CYQG;2013-09-30 06:21;CYQG 300621Z 36004KT 2 1/2SM -DZ BR OVC002 RMK ST8

CYQG;2013-09-30 07:00;CYQG 300700Z 31003KT 3SM BR OVC003 16/15 A2998 RMK ST8 SLP152

CYQG;2013-09-30 07:51;CYQG 300751Z 31003KT 2 1/4SM BR OVC005 RMK ST8

CYQG;2013-09-30 08:00;CYQG 300800Z 32003KT 2SM -DZ BR OVC002 16/15 A2998 RMK ST8 SLP151

CYQG;2013-09-30 09:00;CYQG 300900Z 36004KT 3SM -DZ BR OVC003 15/15 A2997 RMK ST8 SLP150

CYQG;2013-09-30 10:00;CYQG 301000Z 30003KT 4SM -DZ BR OVC005 16/15 A2998 RMK ST8 SLP154

CYQG;2013-09-30 10:11;CYQG 301011Z 31003KT 7SM BKN008 BKN020 RMK SF6SC1

CYQG;2013-09-30 10:42;CYQG 301042Z 00000KT 10SM FEW009 BKN034 BKN250 RMK SF1SC4CI2

CYQG;2013-09-30 11:00;CYQG 301100Z 00000KT 8SM FEW009 BKN014 BKN035 OVC250 15/15 A3000 RMK SF1SC4SC2CI1 SLP158

CYQG;2013-09-30 12:00;CYQG 301200Z 35003KT 10SM BKN013 BKN042 15/14 A3001 RMK SC6SC2 SLP161

CYQG;2013-09-30 12:29;CYQG 301229Z 34003KT 10SM BKN009 BKN019 RMK SF6SC1

CYQG;2013-09-30 13:00;CYQG 301300Z 36003KT 12SM BKN009 BKN019 16/14 A3002 RMK SF6SC1 SLP166

CYQG;2013-09-30 13:25;CYQG 301325Z 36004KT 12SM BKN011 RMK SC7

CYQG;2013-09-30 14:00;CYQG 301400Z 36004KT 15SM BKN011 BKN043 16/14 A3002 RMK SC6SC1 SLP166

CYQG;2013-09-30 14:17;CYQG 301417Z 35002KT 15SM BKN008 BKN042 RMK SC6SC1

CYQG;2013-09-30 14:50;CYQG 301450Z 01002KT 15SM SCT009 RMK SF3

CYQG;2013-09-30 15:00;CYQG 301500Z 02003KT 15SM FEW009 SCT042 17/15 A3001 RMK SF2CU2 SLP163

CYQG;2013-09-30 16:00;CYQG 301600Z 00000KT 15SM BKN022 BKN280 18/14 A3000 RMK CU6CI1 SLP160

CYQG;2013-09-30 17:00;CYQG 301700Z 20004KT 15SM FEW023 SCT280 19/13 A2999 RMK CU2CI1 SLP155

CYQG;2013-09-30 18:00;CYQG 301800Z 23007KT 15SM FEW032 BKN290 21/12 A2998 RMK CU2CI1 SLP152

CYQG;2013-09-30 19:00;CYQG 301900Z 25006KT 15SM FEW039 BKN290 20/12 A2996 RMK CU2CI1 SLP146

CYQG;2013-09-30 20:00;CYQG 302000Z 24011KT 15SM FEW038 BKN290 21/12 A2995 RMK CU2CI1 SLP141

CYQG;2013-09-30 21:00;CYQG 302100Z 20008KT 15SM FEW057 BKN280 21/13 A2994 RMK SC1CI1 SLP138

CYQG;2013-09-30 22:00;CYQG 302200Z 21008KT 15SM FEW055 BKN270 20/13 A2995 RMK SC2CI0 SLP143

CYQG;2013-09-30 23:00;CYQG 302300Z CCA 20006KT 15SM FEW050 SCT270 20/13 A2995 RMK SC1CI1 SC TR SLP143

CYQG;2013-10-01 00:00;CYQG 010000Z 18005KT 15SM FEW270 17/13 A2996 RMK CI0 SLP147

CYQG;2013-10-01 01:00;CYQG 010100Z 18006KT 15SM FEW270 16/13 A2997 RMK CI0 SLP150

CYQG;2013-10-01 02:00;CYQG 010200Z 18005KT 15SM SCT270 16/13 A2997 RMK CI1 SLP150

CYQG;2013-10-01 03:00;CYQG 010300Z 18005KT 15SM SCT270 15/14 A2997 RMK CI1 SLP150

CYQG;2013-10-01 04:00;CYQG 010400Z 18003KT 15SM SCT270 16/14 A2998 RMK CI1 SLP151

CYQG;2013-10-01 05:00;CYQG 010500Z 18003KT 15SM SCT270 15/15 A2997 RMK CI1 SLP150

CYQG;2013-10-01 06:00;CYQG 010600Z 20005KT 8SM SCT270 15/15 A2997 RMK CI1 SLP148

CYQG;2013-10-01 06:21;CYQG 010621Z 23002KT 1/8SM FG VV001 RMK FG8

CYQG;2013-10-01 07:00;CYQG 010700Z 24002KT 1/2SM FG SKC 15/15 A2998 RMK FG7 SLP151

CYQG;2013-10-01 07:14;CYQG 010714Z 22003KT 7SM SCT270 RMK CI1

CYQG;2013-10-01 08:00;CYQG 010800Z 25005KT 12SM FEW270 15/15 A2998 RMK CI1 SLP152

CYQG;2013-10-01 09:00;CYQG 010900Z 22002KT 15SM FEW270 14/13 A2999 RMK CI1 SLP155

CYQG;2013-10-01 10:00;CYQG 011000Z 22003KT 15SM SCT270 14/13 A3000 RMK CI1 SLP158

CYQG;2013-10-01 11:00;CYQG 011100Z 23004KT 10SM FEW020 FEW270 14/13 A3001 RMK SC1CI0 SLP163

CYQG;2013-10-01 12:00;CYQG 011200Z 22004KT 7SM FEW270 14/13 A3002 RMK CI1 SLP167

CYQG;2013-10-01 13:00;CYQG 011300Z 23004KT 6SM BR FEW270 15/14 A3003 RMK CI1 SLP168

CYQG;2013-10-01 14:00;CYQG 011400Z 22007KT 7SM FEW020 FEW280 18/15 A3002 RMK CF1CI1 SLP167

CYQG;2013-10-01 14:49;CYQG 011449Z 21008KT 6SM BR BKN005 RMK SF7

CYQG;2013-10-01 15:00;CYQG 011500Z 24010KT 5SM BR OVC004 17/15 A3003 RMK SF8 SLP170

CYQG;2013-10-01 16:00;CYQG 011600Z 24011KT 5SM BR OVC005 17/15 A3003 RMK SF8 SLP168

CYQG;2013-10-01 16:13;CYQG 011613Z 25011KT 6SM BR OVC006 RMK SF8

CYQG;2013-10-01 17:00;CYQG 011700Z 23007KT 7SM OVC008 18/16 A3001 RMK SF8 SLP163

CYQG;2013-10-01 17:23;CYQG 011723Z 23010KT 7SM OVC010 RMK SC8

CYQG;2013-10-01 18:00;CYQG 011800Z 22010KT 10SM BKN014 20/16 A3000 RMK SC7 SLP157

CYQG;2013-10-01 18:07;CYQG 011807Z 25011KT 10SM BKN015 RMK SC7

CYQG;2013-10-01 19:00;CYQG 011900Z 24012KT 12SM BKN019 22/16 A2998 RMK CU6 SLP151

CYQG;2013-10-01 20:00;CYQG 012000Z 25011G16KT 12SM FEW028 23/16 A2996 RMK CU2 SLP146

CYQG;2013-10-01 21:00;CYQG 012100Z 25015G20KT 10SM FEW031 23/16 A2995 RMK CU1 SLP142

CYQG;2013-10-01 22:00;CYQG 012200Z 27011KT 10SM FEW031 22/16 A2995 RMK CU1 SLP142

CYQG;2013-10-01 23:00;CYQG 012300Z 25011KT 8SM FEW031 20/15 A2995 RMK CU1 SLP143

CYQG;2013-10-02 00:00;CYQG 020000Z 24007KT 10SM SKC 19/15 A2996 RMK SLP144

CYQG;2013-10-02 01:00;CYQG 020100Z 23006KT 12SM SKC 18/15 A2997 RMK SLP148

CYQG;2013-10-02 02:00;CYQG 020200Z 23006KT 12SM SKC 17/15 A2997 RMK SLP149

CYQG;2013-10-02 03:00;CYQG 020300Z 22007KT 12SM SKC 18/15 A2997 RMK SLP147

CYQG;2013-10-02 04:00;CYQG 020400Z 23008KT 12SM SKC 18/15 A2997 RMK SLP147

CYQG;2013-10-02 05:00;CYQG 020500Z 23006KT 15SM SKC 18/15 A2997 RMK SLP147

CYQG;2013-10-02 06:00;CYQG 020600Z 23006KT 15SM SKC 18/15 A2997 RMK SLP147

CYQG;2013-10-02 07:00;CYQG 020700Z 23006KT 15SM BKN170 18/15 A2998 RMK AC6 SLP150

CYQG;2013-10-02 08:00;CYQG 020800Z 24007KT 15SM BKN180 18/15 A2998 RMK AC5 SLP151

CYQG;2013-10-02 09:00;CYQG 020900Z 26008KT 15SM BKN170 18/15 A2999 RMK AC6 SLP155

CYQG;2013-10-02 10:00;CYQG 021000Z 27006KT 15SM SCT170 18/16 A3000 RMK AC3 SLP158

CYQG;2013-10-02 11:00;CYQG 021100Z 29005KT 15SM FEW170 17/15 A3002 RMK AC2 SLP163

CYQG;2013-10-02 12:00;CYQG 021200Z 28006KT 10SM FEW170 17/15 A3004 RMK AC1 SLP171

CYQG;2013-10-02 13:00;CYQG 021300Z 30005KT 10SM SKC 18/16 A3005 RMK SLP176

CYQG;2013-10-02 14:00;CYQG 021400Z 33007KT 15SM SKC 20/14 A3007 RMK SLP182

CYQG;2013-10-02 15:00;CYQG 021500Z 32004KT 15SM SKC 22/12 A3007 RMK SLP183

CYQG;2013-10-02 16:00;CYQG 021600Z 35003KT 15SM SKC 23/11 A3008 RMK SLP185

CYQG;2013-10-02 17:00;CYQG 021700Z 32003KT 15SM SKC 24/11 A3008 RMK SLP184

CYQG;2013-10-02 18:00;CYQG 021800Z 25004KT 15SM SKC 25/10 A3007 RMK SLP181

CYQG;2013-10-02 19:00;CYQG 021900Z 35003KT 15SM SKC 25/09 A3006 RMK SLP176

CYQG;2013-10-02 20:00;CYQG 022000Z 33006KT 15SM SKC 25/08 A3005 RMK SLP174

CYQG;2013-10-02 21:00;CYQG 022100Z 33005KT 15SM FEW300 26/08 A3004 RMK CI1 SLP172

CYQG;2013-10-02 22:00;CYQG 022200Z 03005KT 15SM FEW300 25/10 A3004 RMK CI1 SLP172

CYQG;2013-10-02 23:00;CYQG 022300Z 08004KT 15SM FEW300 22/10 A3005 RMK CI2 SLP174

CYQG;2013-10-03 00:00;CYQG 030000Z 09002KT 15SM FEW300 20/09 A3006 RMK CI1 SLP179

CYQG;2013-10-03 01:00;CYQG 030100Z 14003KT 15SM FEW280 18/10 A3007 RMK CI1 SLP181

CYQG;2013-10-03 02:00;CYQG 030200Z 00000KT 15SM FEW280 16/10 A3007 RMK CI1 SLP182

CYQG;2013-10-03 03:00;CYQG 030300Z 00000KT 15SM SCT280 16/10 A3007 RMK CI1 SLP180

CYQG;2013-10-03 04:00;CYQG 030400Z 07002KT 15SM SCT280 16/10 A3008 RMK CI1 SLP184

CYQG;2013-10-03 05:00;CYQG 030500Z 00000KT 15SM FEW280 15/11 A3007 RMK CI1 SLP181

CYQG;2013-10-03 06:00;CYQG 030600Z 00000KT 15SM SCT120 BKN270 14/11 A3007 RMK AC3CI0 SLP180

CYQG;2013-10-03 07:00;CYQG 030700Z 05002KT 15SM BKN044 15/11 A3007 RMK SC6 SLP180

CYQG;2013-10-03 08:00;CYQG 030800Z 05004KT 15SM BKN035 BKN082 14/12 A3005 RMK SC6AC1 SLP176

CYQG;2013-10-03 09:00;CYQG 030900Z 09003KT 15SM FEW033 BKN081 16/14 A3005 RMK SC2AC6 SLP174

CYQG;2013-10-03 10:00;CYQG 031000Z 08004KT 15SM FEW033 BKN100 16/14 A3005 RMK SC2AC5 SLP173

CYQG;2013-10-03 11:00;CYQG 031100Z 13004KT 15SM BKN063 BKN240 17/14 A3004 RMK SC5CI2 SLP172

CYQG;2013-10-03 12:00;CYQG 031200Z 12004KT 15SM SCT070 BKN230 17/14 A3004 RMK AC4CI3 SLP172

CYQG;2013-10-03 13:00;CYQG 031300Z 15005KT 15SM FEW030 BKN190 BKN240 19/15 A3004 RMK CU2AC4CI2 SLP172

CYQG;2013-10-03 14:00;CYQG 031400Z 15004KT 15SM SCT050 BKN100 BKN220 20/16 A3005 RMK CU3AC2CI2 SLP175

CYQG;2013-10-03 15:00;CYQG 031500Z 16004KT 15SM BKN037 BKN110 BKN240 21/17 A3004 RMK CU5AC1CI2 SLP173

CYQG;2013-10-03 16:00;CYQG 031600Z 21006KT 8SM FEW040 BKN099 23/19 A3003 RMK CU2AC5 SLP168

CYQG;2013-10-03 17:00;CYQG 031700Z 21007KT 6SM HZ FEW045 BKN100 OVC250 23/18 A3002 RMK CU2AC3CI2 SLP165

CYQG;2013-10-03 18:00;CYQG 031800Z 20008KT 6SM HZ BKN130 23/18 A2999 RMK AC7 SLP155

CYQG;2013-10-03 19:00;CYQG 031900Z 22014KT 8SM FEW017 BKN140 BKN280 24/19 A2998 RMK CU2AC2CI1 SLP150

CYQG;2013-10-03 20:00;CYQG 032000Z 25011G17KT 8SM BKN020 BKN280 24/19 A2997 RMK CU7CI1 SLP148

CYQG;2013-10-03 21:00;CYQG 032100Z 23005KT 8SM BKN025 BKN140 BKN280 25/20 A2997 RMK CU6AC1CI1 SLP147

CYQG;2013-10-03 22:00;CYQG 032200Z 21005KT 8SM FEW025TCU FEW140 BKN280 25/20 A2995 RMK TCU2AC1CI5 CU ASOCTD SLP140

CYQG;2013-10-03 23:00;CYQG 032300Z 19004KT 8SM BKN030TCU BKN140 BKN280 24/19 A2996 RMK TCU6AC1CI1 SLP144

CYQG;2013-10-04 00:00;CYQG 040000Z 18003KT 8SM BKN025 BKN140 BKN280 22/19 A2996 RMK SC5AC1CI2 SLP145

CYQG;2013-10-04 01:00;CYQG 040100Z 18004KT 10SM BKN025 22/19 A2998 RMK SC7 SLP150

CYQG;2013-10-04 02:00;CYQG 040200Z 20006KT 10SM SCT060 21/19 A2998 RMK SC3 SLP151

CYQG;2013-10-04 03:00;CYQG 040300Z 19005KT 12SM FEW055 21/18 A2999 RMK SC2 SLP153

CYQG;2013-10-04 04:00;CYQG 040400Z 20007KT 12SM FEW055 FEW270 21/19 A2998 RMK SC1CI1 SLP149

CYQG;2013-10-04 05:00;CYQG 040500Z 20007KT 12SM FEW055 FEW270 21/19 A2997 RMK SC1CI1 SLP146

CYQG;2013-10-04 06:00;CYQG 040600Z 21009KT 12SM BKN270 21/18 A2997 RMK CI2 SLP148

CYQG;2013-10-04 07:00;CYQG 040700Z 22005KT 12SM BKN120 BKN210 21/18 A2998 RMK AC5CI2 SLP151

CYQG;2013-10-04 08:00;CYQG 040800Z 21005KT 12SM SCT120 BKN210 20/18 A2998 RMK AC3CI1 SLP149

CYQG;2013-10-04 09:00;CYQG 040900Z 20006KT 12SM FEW080 BKN130 BKN200 20/18 A2997 RMK AC2AC3CI1 SLP146

CYQG;2013-10-04 10:00;CYQG 041000Z 19005KT 10SM FEW070 BKN130 BKN230 20/18 A2997 RMK AC2AC3CI1 SLP146

CYQG;2013-10-04 11:00;CYQG 041100Z 24006KT 10SM FEW080 BKN120 BKN230 20/18 A2999 RMK AC2AC3CI2 SLP153

CYQG;2013-10-04 11:34;CYQG 041134Z 23006KT 10SM -SHRA BKN150 OVC280 RMK AC6CI2

CYQG;2013-10-04 11:53;CYQG 041153Z 23007KT 8SM FEW025 BKN140 BKN280 RMK CU2AC5CI1

CYQG;2013-10-04 12:00;CYQG 041200Z 23007KT 8SM FEW025 BKN130 BKN280 20/18 A3001 RMK CU2AC5CI1 SLP159

CYQG;2013-10-04 13:00;CYQG 041300Z 23007KT 8SM FEW025 BKN120 BKN280 20/18 A3002 RMK CU1AC6CI1 SLP163

CYQG;2013-10-04 14:00;CYQG 041400Z 24008KT 10SM FEW030 BKN100 21/18 A3001 RMK CU2AC6 SLP162

CYQG;2013-10-04 15:00;CYQG 041500Z 26009KT 10SM FEW035 BKN100 22/18 A3002 RMK CU2AC6 SLP165

CYQG;2013-10-04 16:00;CYQG 041600Z 27007KT 15SM FEW060 SCT100 BKN280 23/19 A3002 RMK CU2AC1CI1 SLP163

CYQG;2013-10-04 17:00;CYQG 041700Z 26010KT 15SM BKN027 BKN120 25/19 A3003 RMK CU5AC2 SLP167

CYQG;2013-10-04 18:00;CYQG 041800Z 24010KT 15SM FEW030 SCT110 BKN280 26/19 A3001 RMK CU2AC2CI0 SLP160

CYQG;2013-10-04 19:00;CYQG 041900Z 24006KT 15SM FEW027 FEW110 BKN280 26/19 A3000 RMK CU2AC1CI2 TR AC CC ASOCTD SLP157

CYQG;2013-10-04 20:00;CYQG 042000Z 22009KT 15SM FEW028 SCT180 OVC280 25/19 A3000 RMK SC1AC2CS2 SLP156

CYQG;2013-10-04 21:00;CYQG 042100Z 21008KT 15SM FEW028 SCT180 BKN280 25/19 A3000 RMK SC1AC3CI0 TCU TOPS N-NE SLP157

CYQG;2013-10-04 22:00;CYQG 042200Z 22009KT 15SM BKN048 BKN170 BKN280 24/19 A3002 RMK SC5AC1CI0 SLP164

CYQG;2013-10-04 23:00;CYQG 042300Z 20005KT 15SM FEW048 BKN160 BKN280 23/19 A3001 RMK SC1AC6CI0 SLP161

CYQG;2013-10-05 00:00;CYQG 050000Z 20004KT 15SM BKN150 23/19 A3003 RMK AC7 SLP167

CYQG;2013-10-05 01:00;CYQG 050100Z 21006KT 15SM BKN140 22/19 A3003 RMK AC6 SLP166

CYQG;2013-10-05 02:00;CYQG 050200Z 20003KT 15SM BKN140 22/19 A3003 RMK AC7 SLP166

CYQG;2013-10-05 03:00;CYQG 050300Z 00000KT 12SM BKN170 21/19 A3003 RMK AC6 SLP168

CYQG;2013-10-05 04:00;CYQG 050400Z 21004KT 12SM SCT170 21/19 A3003 RMK AC3 SLP168

CYQG;2013-10-05 05:00;CYQG 050500Z 32002KT 12SM SKC 20/18 A3003 RMK SLP168

CYQG;2013-10-05 06:00;CYQG 050600Z 00000KT 12SM FEW040CB SCT170 19/18 A3004 RMK CB1AC4 TS DIST NE SLP172

CYQG;2013-10-05 07:00;CYQG 050700Z 04002KT 10SM FEW170 19/18 A3004 RMK AC2 SLP171

CYQG;2013-10-05 08:00;CYQG 050800Z 13003KT 6SM BR BKN180 18/18 A3002 RMK AC5 SLP165

CYQG;2013-10-05 08:32;CYQG 050832Z CCA 02002KT 2 1/2SM BR OVC002 RMK FG3SF5

CYQG;2013-10-05 09:00;CYQG 050900Z 05003KT 4SM BR OVC002 18/18 A3003 RMK SF8 SLP166

CYQG;2013-10-05 09:48;CYQG 050948Z 04004KT 1 1/2SM BR OVC002 RMK FG4SF4

CYQG;2013-10-05 10:00;CYQG 051000Z 05004KT 1 1/2SM BR OVC002 19/18 A3003 RMK FG4SF4 SLP168

CYQG;2013-10-05 10:18;CYQG 051018Z 08005KT 1SM BR OVC002 RMK FG4SF4

CYQG;2013-10-05 10:44;CYQG 051044Z 06004KT 1/2SM FG OVC002 RMK FG6SF2

CYQG;2013-10-05 10:50;CYQG 051050Z 05004KT 1/2SM -SHRA FG OVC002 RMK FG6SF2

CYQG;2013-10-05 10:56;CYQG 051056Z 00000KT 1/2SM -TSRA FG OVC002 RMK FG6SF2 CB EMBD

CYQG;2013-10-05 11:00;CYQG 051100Z 00000KT 1/2SM -TSRA FG OVC002 19/19 A3006 RMK FG6SF2 CB EMBD SLP176

CYQG;2013-10-05 11:09;CYQG 051109Z 34003KT 3/4SM -TSRA BR OVC002 RMK FG4SF4 CB EMBD

CYQG;2013-10-05 11:17;CYQG 051117Z 31007KT 1SM -TSRA BR OVC001 RMK FG3SF5 CB EMBD

CYQG;2013-10-05 11:35;CYQG 051135Z 02003KT 5/8SM -SHRA BR OVC002 RETS RMK FG4SF4

CYQG;2013-10-05 11:44;CYQG 051144Z 07004KT 1/2SM -SHRA FG OVC002 RMK FG4SF4

CYQG;2013-10-05 12:00;CYQG 051200Z 09004KT 1/2SM -SHRA FG OVC002 19/18 A3004 RETS RMK FG4SF4 SLP173

CYQG;2013-10-05 12:20;CYQG 051220Z 04002KT 1SM BR BKN002 RMK FG2SF6

CYQG;2013-10-05 12:45;CYQG 051245Z 14004KT 1SM -SHRA BR SCT002 BKN090 RMK FG2SF2AC3

CYQG;2013-10-05 13:00;CYQG 051300Z 14007KT 1SM -SHRA BR FEW002 BKN110 19/19 A3004 RMK FG1SF2AC5 SLP171

CYQG;2013-10-05 13:16;CYQG 051316Z 14005KT 1 1/2SM BR BKN130 RMK FG1AC6

CYQG;2013-10-05 13:24;CYQG 051324Z 14005KT 2 1/2SM BR FEW008 BKN130 RMK SF1AC6

CYQG;2013-10-05 13:34;CYQG 051334Z 14006KT 3SM BR FEW008 BKN130 RMK SF1AC6

CYQG;2013-10-05 14:00;CYQG 051400Z 15009KT 6SM BR FEW030 SCT130 BKN280 21/19 A3002 RMK CU1AC2CI1 SLP166

CYQG;2013-10-05 15:00;CYQG 051500Z 15007KT 10SM FEW015 BKN280 23/19 A3002 RMK CF1CI3 CONTRAILS SLP164

CYQG;2013-10-05 16:00;CYQG 051600Z 17010KT 12SM BKN022 BKN260 24/19 A3001 RMK CU5CS1 SLP162

CYQG;2013-10-05 17:00;CYQG 051700Z 16008KT 10SM FEW030 BKN170 23/19 A3001 RMK CU2AC5 SLP159

CYQG;2013-10-05 18:00;CYQG 051800Z 19007KT 6SM HZ OVC015 23/19 A2999 RMK CU8 SLP154

CYQG;2013-10-05 18:29;CYQG 051829Z 15007KT 6SM HZ OVC013 RMK SC8

CYQG;2013-10-05 19:00;CYQG 051900Z 20007KT 10SM OVC012 23/20 A2998 RMK CU7 SLP149

CYQG;2013-10-05 19:21;CYQG 051921Z 22008KT 15SM SCT012 BKN150 BKN270 RMK CU4AC1CI1

CYQG;2013-10-05 20:00;CYQG 052000Z 19008KT 15SM SCT012 BKN160 BKN270 22/19 A2996 RMK SC3AC3CI1 SLP144

CYQG;2013-10-05 21:00;CYQG 052100Z 20006KT 15SM FEW012 SCT080 BKN160 OVC270 22/18 A2994 RMK CU1AC2AS2CI2 SLP138

CYQG;2013-10-05 21:36;CYQG 052136Z 19008KT 15SM BKN014 RMK SC7

CYQG;2013-10-05 21:56;CYQG 052156Z 18005KT 15SM BKN017 BKN160 RMK SC6AC2

CYQG;2013-10-05 22:00;CYQG 052200Z 19005KT 15SM BKN017 BKN160 22/19 A2995 RMK SC6AC2 SLP141

CYQG;2013-10-05 23:00;CYQG 052300Z 13005KT 15SM FEW017 FEW160 BKN270 21/19 A2993 RMK SC1AC2CI2 SLP135

CYQG;2013-10-06 00:00;CYQG 060000Z 12005KT 15SM FEW010 FEW130 BKN270 20/19 A2994 RMK SC1AC2CI2 SLP136

CYQG;2013-10-06 00:43;CYQG 060043Z 14004KT 15SM BKN008 OVC130 RMK SC5AC3

CYQG;2013-10-06 01:00;CYQG 060100Z 13006KT 15SM BKN008 BKN130 20/19 A2994 RMK SC6AC2 SLP138

CYQG;2013-10-06 02:00;CYQG 060200Z 13007KT 15SM BKN007 OVC026 20/19 A2994 RMK SC7SC1 SLP137

CYQG;2013-10-06 02:24;CYQG 060224Z 11008KT 12SM -SHRA BKN006 OVC026 RMK SC7SC1

CYQG;2013-10-06 02:36;CYQG 060236Z 12008KT 12SM BKN004 OVC026 RMK SC6SC2 OCNL -SHRA

CYQG;2013-10-06 03:00;CYQG 060300Z CCA 12008KT 6SM -SHRA BR BKN004 OVC026 20/19 A2992 RMK SC7SC1 SLP131

CYQG;2013-10-06 04:00;CYQG 060400Z 13008KT 5SM BR BKN003 OVC026 20/19 A2989 RMK SC7SC1 OCNL -SHRA SLP119

CYQG;2013-10-06 04:26;CYQG 060426Z 13007KT 5SM BR BKN004 OVC017 RMK SC7SC1

CYQG;2013-10-06 05:00;CYQG 060500Z 14005KT 5SM BR FEW004 OVC016 20/20 A2987 RMK SC1SC7 SLP112

CYQG;2013-10-06 06:00;CYQG 060600Z 18005KT 5SM BR OVC016 21/20 A2987 RMK SC8 SLP113

CYQG;2013-10-06 07:00;CYQG 060700Z 20010G15KT 8SM FEW007 FEW150 OVC230 21/19 A2987 RMK CF2AC1CI6 SLP113

CYQG;2013-10-06 08:00;CYQG 060800Z 21011KT 8SM SCT110 OVC210 21/19 A2985 RMK AC3CS5 SLP105

CYQG;2013-10-06 09:00;CYQG 060900Z 20007KT 8SM FEW010 OVC160 21/19 A2984 RMK CF2AC6 SLP103

CYQG;2013-10-06 09:53;CYQG 060953Z 20009KT 8SM -SHRA FEW010 OVC110 RMK CF2AC6

CYQG;2013-10-06 10:00;CYQG 061000Z 20008KT 7SM -SHRA FEW010 OVC100 20/19 A2984 RMK CF2AC6 SLP102

CYQG;2013-10-06 11:00;CYQG 061100Z 20007KT 7SM -SHRA OVC045 20/19 A2983 RMK SC8 SLP100

CYQG;2013-10-06 12:00;CYQG 061200Z 18012KT 6SM -RA BR FEW005 OVC130 20/18 A2980 RMK SF1AC7 SLP091

CYQG;2013-10-06 13:00;CYQG 061300Z 20011KT 12SM SCT010 OVC130 19/18 A2981 RMK CU3AC5 SLP094

CYQG;2013-10-06 13:09;CYQG 061309Z 20010G16KT 12SM -SHRA SCT010 OVC120 RMK CU3AC5

CYQG;2013-10-06 14:00;CYQG 061400Z 19008KT 15SM -SHRA FEW010 BKN120 20/18 A2979 RMK CU2AC5 SLP085

CYQG;2013-10-06 14:47;CYQG 061447Z 20008KT 15SM -SHRA BKN010 BKN110 RMK CU6AC2

CYQG;2013-10-06 15:00;CYQG 061500Z 18006KT 15SM -SHRA BKN010 BKN130 20/19 A2978 RMK CU5AC2 SLP082

CYQG;2013-10-06 15:30;CYQG 061530Z 18006KT 15SM -SHRA FEW010 OVC150 RMK CU2AC6

CYQG;2013-10-06 16:00;CYQG 061600Z 19012G17KT 15SM -RA BKN011 OVC120 21/18 A2978 RMK CU5AC3 SLP083

CYQG;2013-10-06 17:00;CYQG 061700Z 21014G19KT 15SM -RA BKN012 OVC110 21/18 A2977 RMK CU7AC1 SLP080

CYQG;2013-10-06 17:16;CYQG 061716Z 22012G18KT 15SM -RA SCT011 OVC022 RMK CU3SC5

CYQG;2013-10-06 18:00;CYQG 061800Z 20008G17KT 15SM -RA BKN018 OVC035 21/18 A2974 RMK CU5SC3 SLP069

CYQG;2013-10-06 18:30;CYQG 061830Z 21012KT 15SM SCT018 BKN110 RMK CU4AC3

CYQG;2013-10-06 19:00;CYQG 061900Z 18012KT 15SM FEW020 BKN130 BKN280 22/18 A2971 RMK CU2AC2CI2 SLP057

CYQG;2013-10-06 20:00;CYQG 062000Z 18012KT 15SM FEW020 BKN071 OVC270 23/18 A2969 RMK CU1AC6CI1 SLP052

CYQG;2013-10-06 21:00;CYQG 062100Z 18012G18KT 15SM FEW020 BKN040 BKN071 23/18 A2967 RMK CU1SC6AC1 SLP045

CYQG;2013-10-06 21:19;CYQG 062119Z 18012KT 15SM -SHRA FEW020 BKN047 OVC071 RMK CU1SC6AC1

CYQG;2013-10-06 21:34;CYQG 062134Z 19013KT 3SM -SHRA BR FEW030 OVC047 RMK CF2SC6

CYQG;2013-10-06 22:00;CYQG 062200Z 18006KT 10SM -SHRA FEW030 OVC040 22/18 A2966 RMK CF2SC6 SLP040

CYQG;2013-10-06 22:12;CYQG 062212Z 20008KT 3SM SHRA BR OVC034 RMK SF8

CYQG;2013-10-06 22:14;CYQG 062214Z 19007KT 2 1/2SM SHRA BR OVC034 RMK SF8

CYQG;2013-10-06 22:18;CYQG 062218Z 19007KT 5SM -SHRA BR OVC034 RERA RMK SF8

CYQG;2013-10-06 22:31;CYQG 062231Z 21007KT 2SM +SHRA BR OVC034 RMK SF8

CYQG;2013-10-06 23:00;CYQG 062300Z 27012KT 15SM -SHRA FEW010 BKN045 OVC090 18/17 A2969 RERA RMK CF2SC6AC1 SLP050

CYQG;2013-10-07 00:00;CYQG 070000Z 23009KT 15SM -SHRA SCT016 OVC030 17/16 A2971 RMK CF3SC5 SLP058

CYQG;2013-10-07 01:00;CYQG 070100Z 24009G15KT 15SM -SHRA FEW017 OVC070 16/15 A2971 RMK SF2AC6 SLP061

CYQG;2013-10-07 01:29;CYQG 070129Z 24007KT 15SM FEW030 BKN076 RMK SC2AC6

CYQG;2013-10-07 02:00;CYQG 070200Z 25009KT 15SM -SHRA SCT016 OVC080 16/14 A2973 RMK SC4AC4 SLP066

CYQG;2013-10-07 03:00;CYQG 070300Z 25008KT 15SM -SHRA FEW030 OVC100 15/14 A2975 RMK SC2AC6 SLP072

CYQG;2013-10-07 04:00;CYQG 070400Z 27003KT 10SM -SHRA BKN011 OVC110 15/14 A2972 RMK SF5AC3 SLP063

CYQG;2013-10-07 04:34;CYQG 070434Z 25005KT 15SM FEW011 OVC120 RMK CU2AC6

CYQG;2013-10-07 05:00;CYQG 070500Z 22005KT 15SM FEW011 OVC130 14/13 A2971 RMK CU1AC8 SLP058

CYQG;2013-10-07 06:00;CYQG 070600Z 22006KT 15SM BKN005 OVC130 14/13 A2971 RMK SF7AC1 SLP060

CYQG;2013-10-07 06:45;CYQG 070645Z 23004KT 15SM BKN070 OVC240 RMK AC6CS2

CYQG;2013-10-07 07:00;CYQG 070700Z 23003KT 15SM SCT013 BKN075 13/12 A2971 RMK CF3AC3 SLP058

CYQG;2013-10-07 08:00;CYQG 070800Z 25012G17KT 15SM FEW011 OVC052 13/11 A2970 RMK CF2SC6 SLP056

CYQG;2013-10-07 09:00;CYQG 070900Z 24016KT 15SM SCT015 BKN069 11/07 A2973 RMK CF3AC2 SLP066

CYQG;2013-10-07 10:00;CYQG 071000Z 25011G18KT 15SM FEW075 10/06 A2974 RMK AC1 SLP071

CYQG;2013-10-07 11:00;CYQG 071100Z 25010G18KT 15SM FEW075 FEW250 09/05 A2976 RMK AC1CI1 TR CI SLP077

CYQG;2013-10-07 12:00;CYQG 071200Z 25011KT 15SM FEW030 FEW080 08/05 A2977 RMK CU1AC2 SLP081

CYQG;2013-10-07 13:00;CYQG 071300Z 26011G16KT 15SM FEW030 FEW090 FEW280 09/05 A2979 RMK CU1AC2CI1 TR CI SLP090

CYQG;2013-10-07 14:00;CYQG 071400Z 24010G17KT 15SM FEW030 SCT110 10/06 A2980 RMK CU1AC2 SLP092

CYQG;2013-10-07 15:00;CYQG 071500Z 25018KT 15SM FEW030 SCT120 11/06 A2980 RMK CU2AC2 SLP093

CYQG;2013-10-07 16:00;CYQG 071600Z 25016G22KT 15SM SCT030 BKN050 BKN075 13/06 A2981 RMK CU3SC2AC2 SLP096

CYQG;2013-10-07 16:19;CYQG 071619Z 26016G21KT 15SM -SHRA SCT030 BKN057 RMK CU3SC4

CYQG;2013-10-07 16:40;CYQG 071640Z 25014G20KT 15SM SCT025 BKN045 RMK CU3SC4

CYQG;2013-10-07 17:00;CYQG 071700Z 25013G20KT 15SM FEW025 BKN051 13/07 A2982 RMK CU2SC4 SLP100

CYQG;2013-10-07 18:00;CYQG 071800Z CCA 25017G25KT 15SM BKN034 BKN060 14/07 A2983 RMK CU6SC1 SLP101

CYQG;2013-10-07 19:00;CYQG 071900Z 26018G24KT 15SM BKN036 15/07 A2984 RMK CU7 SLP105

CYQG;2013-10-07 20:00;CYQG 072000Z 27018G27KT 15SM BKN037 14/08 A2988 RMK SC7 SLP118

CYQG;2013-10-07 21:00;CYQG 072100Z 26015KT 15SM FEW022 BKN025 14/09 A2990 RMK CU2SC6 SLP127

CYQG;2013-10-07 22:00;CYQG 072200Z 27011G16KT 15SM SCT034 15/10 A2993 RMK CU4 SLP137

CYQG;2013-10-07 23:00;CYQG 072300Z 30009G17KT 15SM FEW030 14/08 A2997 RMK CU2 SLP150

CYQG;2013-10-08 00:00;CYQG 080000Z 27005KT 15SM FEW030 13/06 A3001 RMK CU1 SLP164

CYQG;2013-10-08 01:00;CYQG 080100Z 25006KT 15SM SKC 12/07 A3004 RMK SLP175

CYQG;2013-10-08 02:00;CYQG 080200Z 26007KT 15SM SKC 12/07 A3007 RMK SLP186

CYQG;2013-10-08 03:00;CYQG 080300Z 25007KT 15SM SKC 11/07 A3010 RMK SLP196

CYQG;2013-10-08 04:00;CYQG 080400Z 26005KT 15SM SKC 10/07 A3012 RMK SLP203

CYQG;2013-10-08 05:00;CYQG 080500Z 27004KT 15SM SKC 10/07 A3014 RMK SLP208

CYQG;2013-10-08 06:00;CYQG 080600Z 22004KT 15SM SKC 08/07 A3015 RMK SLP212

CYQG;2013-10-08 07:00;CYQG 080700Z 23005KT 15SM SKC 08/07 A3016 RMK SLP215

CYQG;2013-10-08 08:00;CYQG 080800Z 24004KT 15SM SKC 08/07 A3017 RMK SLP219

CYQG;2013-10-08 09:00;CYQG 080900Z CCA 23004KT 15SM FEW280 08/07 A3019 RMK CI1 SLP226

CYQG;2013-10-08 10:00;CYQG 081000Z 20002KT 15SM FEW280 07/07 A3020 RMK CI1 SLP230

CYQG;2013-10-08 11:00;CYQG 081100Z 24003KT 15SM FEW080 FEW280 07/06 A3023 RMK AC1CI1 SLP238

CYQG;2013-10-08 12:00;CYQG 081200Z 22004KT 15SM FEW030 FEW080 FEW280 08/07 A3025 RMK CU1AC1CI1 TR AC CU DIST S SLP247

CYQG;2013-10-08 13:00;CYQG 081300Z 05002KT 15SM FEW030 FEW080 FEW280 10/08 A3028 RMK CU1AC1CI1 TR CU AC CI SLP257

CYQG;2013-10-08 14:00;CYQG 081400Z 00000KT 15SM FEW030 13/09 A3030 RMK CU1 TR CU SLP262

CYQG;2013-10-08 15:00;CYQG 081500Z 00000KT 15SM FEW030 15/09 A3030 RMK CU1 TR CU SLP262

CYQG;2013-10-08 16:00;CYQG 081600Z 18004KT 15SM FEW030 17/08 A3030 RMK CU1 SLP262

CYQG;2013-10-08 17:00;CYQG 081700Z 15005KT 15SM FEW030 18/07 A3029 RMK CU1 SLP260

CYQG;2013-10-08 18:00;CYQG 081800Z 14005KT 15SM FEW040 19/07 A3028 RMK SC1 TR SC SLP254

CYQG;2013-10-08 19:00;CYQG 081900Z 20005KT 15SM FEW040 19/07 A3027 RMK SC1 SLP251

CYQG;2013-10-08 20:00;CYQG 082000Z 17006KT 15SM SKC 18/07 A3026 RMK SLP248

CYQG;2013-10-08 21:00;CYQG 082100Z 18007KT 15SM SKC 18/08 A3026 RMK SLP249

CYQG;2013-10-08 22:00;CYQG 082200Z 18007KT 15SM SKC 17/07 A3026 RMK SLP250

CYQG;2013-10-08 23:00;CYQG 082300Z 14005KT 12SM SKC 15/08 A3027 RMK SLP252

CYQG;2013-10-09 00:00;CYQG 090000Z 12003KT 15SM SKC 13/08 A3028 RMK SLP255

CYQG;2013-10-09 01:00;CYQG 090100Z 12003KT 15SM SKC 13/07 A3029 RMK SLP258

CYQG;2013-10-09 02:00;CYQG 090200Z 14004KT 15SM SKC 11/07 A3029 RMK SLP260

CYQG;2013-10-09 03:00;CYQG 090300Z 00000KT 15SM SKC 10/07 A3029 RMK SLP259

CYQG;2013-10-09 04:00;CYQG 090400Z 15002KT 15SM SKC 10/07 A3028 RMK SLP257

CYQG;2013-10-09 05:00;CYQG 090500Z 00000KT 15SM SKC 09/07 A3028 RMK SLP255

CYQG;2013-10-09 06:00;CYQG 090600Z 11002KT 15SM SKC 09/07 A3027 RMK SLP253

CYQG;2013-10-09 07:00;CYQG 090700Z 11002KT 15SM SKC 09/07 A3027 RMK SLP251

CYQG;2013-10-09 08:00;CYQG 090800Z 00000KT 15SM SKC 10/08 A3028 RMK SLP254

CYQG;2013-10-09 09:00;CYQG 090900Z 00000KT 15SM SKC 09/07 A3029 RMK SLP257

CYQG;2013-10-09 10:00;CYQG 091000Z 00000KT 15SM SKC 08/07 A3029 RMK SLP257

CYQG;2013-10-09 11:00;CYQG 091100Z 00000KT 15SM SKC 08/07 A3029 RMK SLP260

CYQG;2013-10-09 12:00;CYQG 091200Z 04002KT 15SM MIFG SKC 08/08 A3030 RMK SLP264

CYQG;2013-10-09 13:00;CYQG 091300Z 07002KT 15SM SKC 11/10 A3032 RMK SLP269

CYQG;2013-10-09 14:00;CYQG 091400Z 13005KT 15SM SKC 17/12 A3032 RMK SLP272

CYQG;2013-10-09 15:00;CYQG 091500Z 15007KT 15SM FEW034 19/10 A3032 RMK CF1 SLP270

CYQG;2013-10-09 16:00;CYQG 091600Z 13007KT 15SM FEW040 20/10 A3032 RMK CF1 SLP268

CYQG;2013-10-09 17:00;CYQG 091700Z 17005KT 15SM SKC 20/10 A3031 RMK SLP265

CYQG;2013-10-09 18:00;CYQG 091800Z 14009KT 15SM SKC 20/09 A3029 RMK SLP259

CYQG;2013-10-09 19:00;CYQG 091900Z 12006G15KT 15SM SKC 20/07 A3027 RMK SLP253

CYQG;2013-10-09 20:00;CYQG 092000Z 13005KT 15SM FEW280 20/07 A3026 RMK CI1 TR CI SLP247

CYQG;2013-10-09 21:00;CYQG 092100Z 13012KT 15SM FEW280 20/07 A3025 RMK CI1 TR CI SLP245

CYQG;2013-10-09 22:00;CYQG 092200Z 12010KT 15SM FEW280 18/08 A3025 RMK CI1 TR CI SLP245

CYQG;2013-10-09 23:00;CYQG 092300Z 10005KT 15SM FEW280 16/08 A3024 RMK CI1 SLP243

CYQG;2013-10-10 00:00;CYQG 100000Z 09004KT 15SM SKC 14/08 A3024 RMK SLP242

CYQG;2013-10-10 01:00;CYQG 100100Z 09004KT 15SM SKC 13/08 A3024 RMK SLP242

CYQG;2013-10-10 02:00;CYQG 100200Z 08003KT 15SM SKC 12/08 A3024 RMK SLP243

CYQG;2013-10-10 03:00;CYQG 100300Z 09002KT 15SM SKC 11/08 A3024 RMK SLP242

CYQG;2013-10-10 04:00;CYQG 100400Z 00000KT 15SM SKC 11/08 A3023 RMK SLP239

CYQG;2013-10-10 05:00;CYQG 100500Z 05003KT 15SM SKC 11/09 A3022 RMK SLP235

CYQG;2013-10-10 06:00;CYQG 100600Z 03002KT 15SM SKC 11/10 A3022 RMK SLP234

CYQG;2013-10-10 07:00;CYQG 100700Z 05002KT 15SM SKC 10/09 A3022 RMK SLP234

CYQG;2013-10-10 08:00;CYQG 100800Z 00000KT 15SM BCFG SKC 10/09 A3021 RMK SLP232

CYQG;2013-10-10 09:00;CYQG 100900Z 00000KT 1/2SM FG SKC 09/09 A3022 RMK FG2 VIS S-SW 2 MILES SLP234

CYQG;2013-10-10 09:12;CYQG 100912Z 04002KT 1/4SM FG SKC RMK FG2 VIS SE-S 1 MILE

CYQG;2013-10-10 10:00;CYQG 101000Z 00000KT 1/4SM FG SKC 08/08 A3022 RMK FG2 VIS E-NE 12 MILES SLP235

CYQG;2013-10-10 10:50;CYQG 101050Z 05002KT 3SM BR FEW260 RMK FG1CI1 VIS 1/4 W-N

CYQG;2013-10-10 11:00;CYQG 101100Z 07003KT 8SM BCFG FEW260 08/08 A3022 RMK CI1 TR CI VIS W 1 MILE SLP235

CYQG;2013-10-10 12:00;CYQG 101200Z 00000KT 8SM PRFG FEW260 07/06 A3023 RMK CI1 VIS NW - NE 1/2 SLP239

CYQG;2013-10-10 12:13;CYQG 101213Z 00000KT 1/4SM FG FEW260 RMK FG1CI1 VIS SE - SW 10

CYQG;2013-10-10 12:25;CYQG 101225Z 09003KT 12SM FEW260 RMK CI1

CYQG;2013-10-10 13:00;CYQG 101300Z 00000KT 12SM FEW260 11/10 A3024 RMK CI1 SLP243

CYQG;2013-10-10 14:00;CYQG 101400Z 11006KT 15SM FEW260 16/12 A3024 RMK CI1 SLP242

CYQG;2013-10-10 15:00;CYQG 101500Z 11006KT 15SM FEW031 FEW260 18/10 A3023 RMK CF1CI1 TR CF SLP239

CYQG;2013-10-10 16:00;CYQG 101600Z 06004KT 15SM FEW041 FEW260 19/09 A3023 RMK CF1CI1 TR CF SLP236

CYQG;2013-10-10 17:00;CYQG 101700Z 08006KT 15SM FEW260 20/09 A3022 RMK CI1 SLP234

CYQG;2013-10-10 18:00;CYQG 101800Z 04007KT 15SM FEW260 19/08 A3020 RMK CI1 SLP227

CYQG;2013-10-10 19:00;CYQG 101900Z 04007KT 15SM FEW260 20/09 A3018 RMK CI1 SLP220

CYQG;2013-10-10 20:00;CYQG 102000Z 06007KT 15SM FEW260 21/08 A3017 RMK CI1 SLP218

CYQG;2013-10-10 21:00;CYQG 102100Z 09005KT 15SM FEW260 21/05 A3016 RMK CI1 SLP213

CYQG;2013-10-10 22:00;CYQG 102200Z 14010KT 15SM FEW260 19/05 A3016 RMK CI1 SLP213

CYQG;2013-10-10 23:00;CYQG 102300Z 14003KT 15SM FEW260 16/06 A3015 RMK CI1 SLP211

CYQG;2013-10-11 00:00;CYQG 110000Z 13003KT 15SM FEW260 14/06 A3015 RMK CI1 SLP212

CYQG;2013-10-11 01:00;CYQG 110100Z 27003KT 15SM SKC 13/07 A3015 RMK SLP212

CYQG;2013-10-11 02:00;CYQG 110200Z 00000KT 15SM SKC 12/06 A3016 RMK SLP215

CYQG;2013-10-11 03:00;CYQG 110300Z 07003KT 15SM SKC 10/06 A3014 RMK SLP206

CYQG;2013-10-11 04:00;CYQG 110400Z 33002KT 15SM SKC 10/06 A3014 RMK SLP206

CYQG;2013-10-11 05:00;CYQG 110500Z 00000KT 15SM SKC 10/06 A3013 RMK SLP203

CYQG;2013-10-11 06:00;CYQG 110600Z 36002KT 15SM SKC 11/07 A3013 RMK SLP204

CYQG;2013-10-11 07:00;CYQG 110700Z 02002KT 15SM SKC 10/08 A3012 RMK SLP201

CYQG;2013-10-11 08:00;CYQG 110800Z 36003KT 15SM FEW260 10/08 A3011 RMK CI1 TR CI SLP198

CYQG;2013-10-11 09:00;CYQG 110900Z 36003KT 15SM SKC 09/08 A3012 RMK SLP201

CYQG;2013-10-11 10:00;CYQG 111000Z 02005KT 15SM MIFG SKC 10/09 A3012 RMK SLP202

CYQG;2013-10-11 11:00;CYQG 111100Z 35004KT 15SM MIFG FEW260 10/08 A3015 RMK CI1 TR CI SLP211

CYQG;2013-10-11 12:00;CYQG 111200Z 01003KT 8SM MIFG SKC 09/08 A3015 RMK SLP211

CYQG;2013-10-11 13:00;CYQG 111300Z 36002KT 8SM SKC 10/09 A3016 RMK SLP216

CYQG;2013-10-11 14:00;CYQG 111400Z 07006KT 12SM FEW280 15/12 A3016 RMK CI1 TR CI SLP215

CYQG;2013-10-11 15:00;CYQG 111500Z 06006KT 15SM FEW280 17/10 A3015 RMK CI1 SLP211

CYQG;2013-10-11 16:00;CYQG 111600Z 04003KT 15SM FEW280 18/09 A3014 RMK CI1 SLP209

CYQG;2013-10-11 17:00;CYQG 111700Z 02004KT 15SM FEW280 20/09 A3013 RMK CI1 SLP205

CYQG;2013-10-11 18:00;CYQG 111800Z 02005KT 15SM FEW280 21/11 A3011 RMK CI1 SLP197

CYQG;2013-10-11 19:00;CYQG 111900Z 02005KT 15SM FEW280 21/10 A3010 RMK CI1 SLP192

CYQG;2013-10-11 20:00;CYQG 112000Z 05005KT 15SM FEW280 21/11 A3009 RMK CI1 SLP191

CYQG;2013-10-11 21:00;CYQG 112100Z 05005KT 15SM SCT260 22/10 A3009 RMK CI1 CONTRAILS SLP189

CYQG;2013-10-11 22:00;CYQG 112200Z 09007KT 12SM BKN260 21/11 A3009 RMK CI2 CONTRAILS SLP189

CYQG;2013-10-11 23:00;CYQG 112300Z 09006KT 12SM BKN260 18/11 A3009 RMK CI2 CONTRAILS SLP191

CYQG;2013-10-12 00:00;CYQG 120000Z 12006KT 15SM FEW260 16/12 A3011 RMK CI1 SLP196

CYQG;2013-10-12 01:00;CYQG 120100Z 10002KT 15SM SCT260 15/12 A3011 RMK CI1 SLP197

CYQG;2013-10-12 02:00;CYQG 120200Z 11002KT 15SM FEW260 14/12 A3011 RMK CI1 SLP196

CYQG;2013-10-12 03:00;CYQG 120300Z 05003KT 15SM FEW260 13/12 A3010 RMK CI1 SLP193

CYQG;2013-10-12 04:00;CYQG 120400Z 09004KT 15SM SKC 13/11 A3009 RMK SLP191

CYQG;2013-10-12 05:00;CYQG 120500Z 07002KT 15SM SKC 13/11 A3009 RMK SLP190

CYQG;2013-10-12 06:00;CYQG 120600Z 36002KT 15SM SKC 13/10 A3009 RMK SLP191

CYQG;2013-10-12 07:00;CYQG 120700Z 06002KT 15SM SKC 13/11 A3009 RMK SLP191

CYQG;2013-10-12 08:00;CYQG 120800Z 08002KT 12SM SKC 13/12 A3009 RMK SLP190

CYQG;2013-10-12 09:00;CYQG 120900Z 35002KT 12SM SKC 13/12 A3010 RMK SLP193

CYQG;2013-10-12 10:00;CYQG 121000Z 04003KT 7SM MIFG SKC 13/12 A3011 RMK SLP195

CYQG;2013-10-12 11:00;CYQG 121100Z 01002KT 6SM BR MIFG FEW100 12/12 A3011 RMK AC1 TR AC SLP196

CYQG;2013-10-12 12:00;CYQG 121200Z 09002KT 3SM BR PRFG FEW100 12/12 A3011 RMK FG2AC1 VIS 1/2 N OVR AD SLP198

CYQG;2013-10-12 12:17;CYQG 121217Z 00000KT 1/2SM FG FEW100 RMK FG2AC1

CYQG;2013-10-12 12:21;CYQG 121221Z 00000KT 1/2SM FG SCT003 SCT100 RMK FG2ST2AC1 TR AC

CYQG;2013-10-12 12:34;CYQG 121234Z 00000KT 3/4SM BR FEW003 FEW100 RMK FG1ST1AC1

CYQG;2013-10-12 12:39;CYQG 121239Z 07002KT 3SM BR FEW003 FEW110 RMK ST1AC2

CYQG;2013-10-12 13:00;CYQG 121300Z 09002KT 5SM BR PRFG FEW003 FEW120 14/13 A3011 RMK ST1AC2 SLP198

CYQG;2013-10-12 14:00;CYQG 121400Z 09004KT 12SM FEW110 17/15 A3011 RMK AC2 SLP199

CYQG;2013-10-12 15:00;CYQG 121500Z 14003KT 15SM FEW120 20/15 A3012 RMK AC2 SLP200

CYQG;2013-10-12 16:00;CYQG 121600Z 19005KT 15SM SCT040 22/13 A3011 RMK SC3 SLP197

CYQG;2013-10-12 17:00;CYQG 121700Z 20002KT 15SM FEW040 23/12 A3011 RMK SC1 SLP195

CYQG;2013-10-12 18:00;CYQG 121800Z 12005KT 15SM FEW040 25/11 A3008 RMK SC1 SLP185

CYQG;2013-10-12 19:00;CYQG 121900Z 14010KT 15SM FEW120 SCT240 24/11 A3006 RMK AC2CI1 SLP180

CYQG;2013-10-12 20:00;CYQG 122000Z 16009KT 15SM FEW120 SCT240 24/15 A3006 RMK AC2CI1 SLP180

CYQG;2013-10-12 21:00;CYQG 122100Z 16007KT 15SM BKN110 BKN240 23/15 A3006 RMK AC5CI1 SLP180

CYQG;2013-10-12 22:00;CYQG 122200Z 15008KT 15SM BKN071 BKN110 22/15 A3007 RMK AC5AC2 SLP181

CYQG;2013-10-12 23:00;CYQG 122300Z 14007KT 15SM FEW041 BKN068 BKN110 21/15 A3007 RMK SC1AC6AC1 SLP182

CYQG;2013-10-13 00:00;CYQG 130000Z 14005KT 15SM FEW070 FEW110 BKN260 18/15 A3008 RMK AC2AC1CI1 SLP186

CYQG;2013-10-13 01:00;CYQG 130100Z 14004KT 15SM OVC048 18/15 A3009 RMK SC8 SLP191

CYQG;2013-10-13 02:00;CYQG 130200Z 14006KT 15SM FEW049 BKN062 19/16 A3010 RMK SC2SC5 SLP193

CYQG;2013-10-13 03:00;CYQG 130300Z 14006KT 15SM BKN062 19/16 A3010 RMK SC6 SLP190

CYQG;2013-10-13 04:00;CYQG 130400Z 17004KT 15SM FEW100 FEW240 18/16 A3010 RMK AC2CC1 SLP191

CYQG;2013-10-13 05:00;CYQG 130500Z 20005KT 15SM FEW100 18/16 A3010 RMK AC1 SLP192

CYQG;2013-10-13 06:00;CYQG 130600Z 20005KT 15SM FEW094 18/15 A3011 RMK AC2 SLP193

CYQG;2013-10-13 07:00;CYQG 130700Z 23006KT 15SM FEW095 FEW270 17/15 A3013 RMK AC2CI0 SLP200

CYQG;2013-10-13 08:00;CYQG 130800Z 26005KT 10SM FEW095 FEW260 17/15 A3013 RMK AC1CI1 SLP201

CYQG;2013-10-13 09:00;CYQG 130900Z 27004KT 7SM SCT082 16/15 A3015 RMK AC4 SLP210

CYQG;2013-10-13 10:00;CYQG 131000Z 32005KT 7SM FEW077 16/15 A3017 RMK AC2 SLP215

CYQG;2013-10-13 11:00;CYQG 131100Z 33004KT 7SM FEW075 BKN110 16/14 A3020 RMK AC2AC3 SLP226

CYQG;2013-10-13 12:00;CYQG 131200Z 33007KT 15SM FEW015 FEW110 BKN280 15/11 A3022 RMK SC2AC1CI2 CONTRAILS SLP234

CYQG;2013-10-13 13:00;CYQG 131300Z 36007KT 15SM BKN035 BKN280 15/10 A3025 RMK SC6CI1 SLP244

CYQG;2013-10-13 14:00;CYQG 131400Z 35006KT 15SM BKN042 16/07 A3027 RMK SC7 SLP251

CYQG;2013-10-13 15:00;CYQG 131500Z 36007KT 15SM SCT040 BKN280 17/07 A3029 RMK SC2CI1 SLP256

CYQG;2013-10-13 16:00;CYQG 131600Z 36006KT 15SM FEW040 BKN280 18/06 A3029 RMK SC2CI1 CONTRAILS SLP259

CYQG;2013-10-13 17:00;CYQG 131700Z 34006KT 15SM FEW045 BKN280 19/06 A3029 RMK SC2CI1 CONTRAILS SLP257

CYQG;2013-10-13 18:00;CYQG 131800Z 33005KT 15SM FEW045 BKN280 20/06 A3027 RMK SC1CI2 CONTRAILS SLP250

CYQG;2013-10-13 19:00;CYQG 131900Z 31004KT 15SM FEW045 SCT280 20/06 A3026 RMK SC1CI1 SLP248

CYQG;2013-10-13 20:00;CYQG 132000Z 35003KT 15SM FEW045 21/05 A3026 RMK SC1 SLP248

CYQG;2013-10-13 21:00;CYQG 132100Z 33007KT 15SM FEW045 21/05 A3027 RMK SC1 SLP250

CYQG;2013-10-13 22:00;CYQG 132200Z 33008KT 15SM FEW280 19/03 A3027 RMK CI1 SLP251

CYQG;2013-10-13 23:00;CYQG 132300Z 34005KT 15SM FEW280 18/03 A3029 RMK CI1 SLP255

CYQG;2013-10-14 00:00;CYQG 140000Z 33006KT 15SM SKC 16/04 A3030 RMK SLP262

CYQG;2013-10-14 01:00;CYQG 140100Z 34005KT 15SM FEW280 14/05 A3032 RMK CI1 SLP267

CYQG;2013-10-14 02:00;CYQG 140200Z 01005KT 15SM SKC 13/05 A3033 RMK SLP272

CYQG;2013-10-14 03:00;CYQG 140300Z 36004KT 15SM SKC 13/05 A3034 RMK SLP274

CYQG;2013-10-14 04:00;CYQG 140400Z 36004KT 15SM FEW025 12/07 A3034 RMK SC1 TR SC SLP276

CYQG;2013-10-14 05:00;CYQG 140500Z 01004KT 15SM FEW020 11/06 A3035 RMK SC1 TR SC SLP277

CYQG;2013-10-14 06:00;CYQG 140600Z 36003KT 15SM FEW020 11/06 A3035 RMK SC1 TR SC SLP279

CYQG;2013-10-14 07:00;CYQG 140700Z 35003KT 15SM SKC 10/06 A3035 RMK SLP279

CYQG;2013-10-14 08:00;CYQG 140800Z 36005KT 15SM FEW260 09/06 A3036 RMK CI1 SLP282

CYQG;2013-10-14 09:00;CYQG 140900Z 01006KT 15SM FEW026 10/07 A3037 RMK SC2 SLP286

CYQG;2013-10-14 10:00;CYQG 141000Z 01007KT 15SM FEW026 10/07 A3038 RMK SC1 SLP288

CYQG;2013-10-14 11:00;CYQG 141100Z 01007KT 15SM FEW026 09/07 A3038 RMK SC1 TR SC SLP290

CYQG;2013-10-14 12:00;CYQG 141200Z 02006KT 15SM FEW030 09/07 A3039 RMK SC1 SLP294

CYQG;2013-10-14 13:00;CYQG 141300Z 03007KT 15SM FEW030 11/07 A3041 RMK SC1 SLP300

CYQG;2013-10-14 14:00;CYQG 141400Z 03009KT 15SM FEW030 12/06 A3040 RMK SC2 SLP298

CYQG;2013-10-14 15:00;CYQG 141500Z 03010KT 15SM SCT030 14/07 A3040 RMK SC3 SLP295

CYQG;2013-10-14 16:00;CYQG 141600Z 04010KT 15SM SCT035 15/08 A3039 RMK CU4 SLP292

CYQG;2013-10-14 17:00;CYQG 141700Z 02008KT 15SM BKN030 15/09 A3038 RMK CU6 SLP288

CYQG;2013-10-14 18:00;CYQG 141800Z 03006KT 15SM BKN030 BKN280 15/07 A3035 RMK CU5CI1 SLP279

CYQG;2013-10-14 19:00;CYQG 141900Z 36005KT 15SM FEW035 SCT280 16/07 A3033 RMK SC2CI1 SLP272

CYQG;2013-10-14 20:00;CYQG 142000Z 02005KT 15SM FEW035 FEW280 16/07 A3032 RMK SC1CI1 TR CI SLP270

CYQG;2013-10-14 21:00;CYQG 142100Z 06006KT 15SM FEW035 FEW280 16/06 A3031 RMK SC1CI1 SLP266

CYQG;2013-10-14 22:00;CYQG 142200Z 06004KT 15SM FEW035 FEW280 16/05 A3030 RMK SC1CI1 SLP264

CYQG;2013-10-14 23:00;CYQG 142300Z 10003KT 15SM FEW035 FEW280 14/06 A3030 RMK SC1CI1 SLP262

CYQG;2013-10-15 00:00;CYQG 150000Z 10003KT 15SM FEW280 12/06 A3030 RMK CI1 SLP263

CYQG;2013-10-15 01:00;CYQG 150100Z 06007KT 15SM SKC 12/08 A3029 RMK SLP260

CYQG;2013-10-15 02:00;CYQG 150200Z 09003KT 15SM SKC 10/07 A3030 RMK SLP263

CYQG;2013-10-15 03:00;CYQG 150300Z 09003KT 15SM SKC 10/07 A3028 RMK SLP257

CYQG;2013-10-15 04:00;CYQG 150400Z 00000KT 15SM SKC 09/06 A3028 RMK SLP255

CYQG;2013-10-15 05:00;CYQG 150500Z 11003KT 15SM SKC 09/06 A3026 RMK SLP251

CYQG;2013-10-15 06:00;CYQG 150600Z 10002KT 15SM SKC 08/06 A3024 RMK SLP244

CYQG;2013-10-15 07:00;CYQG 150700Z 00000KT 15SM FEW260 09/07 A3021 RMK CI1 TR CI SLP233

CYQG;2013-10-15 08:00;CYQG 150800Z 00000KT 15SM FEW260 08/06 A3020 RMK CI2 SLP228

CYQG;2013-10-15 09:00;CYQG 150900Z 00000KT 15SM FEW260 08/06 A3019 RMK CI1 SLP226

CYQG;2013-10-15 10:00;CYQG 151000Z 00000KT 15SM FEW260 07/06 A3017 RMK CI1 SLP220

CYQG;2013-10-15 11:00;CYQG 151100Z 09002KT 15SM FEW260 09/08 A3017 RMK CI1 SLP218

CYQG;2013-10-15 12:00;CYQG 151200Z 00000KT 15SM MIFG FEW150 BKN270 08/07 A3015 RMK AC2CI2 CONTRAILS SLP212

CYQG;2013-10-15 13:00;CYQG 151300Z 00000KT 15SM BKN021 BKN270 10/08 A3015 RMK SC5CI2 SLP212

CYQG;2013-10-15 14:00;CYQG 151400Z 11004KT 15SM FEW021 BKN280 13/10 A3013 RMK SC2CI3 SLP207

CYQG;2013-10-15 15:00;CYQG 151500Z 16007KT 15SM SCT038 BKN270 16/12 A3011 RMK SC3CI3 SLP198

CYQG;2013-10-15 16:00;CYQG 151600Z 17008KT 15SM BKN017 BKN042 17/13 A3009 RMK CU5SC2 SLP192

CYQG;2013-10-15 17:00;CYQG 151700Z 14010KT 15SM SCT017 BKN042 BKN220 17/13 A3006 RMK CU4SC1CS2 SLP181

CYQG;2013-10-15 18:00;CYQG 151800Z 16009KT 15SM BKN016 BKN036 BKN220 18/14 A3003 RMK CU5SC1CS2 SLP172

CYQG;2013-10-15 19:00;CYQG 151900Z 16009KT 10SM BKN014 OVC035 17/13 A3002 RMK CU6SC2 SLP169

CYQG;2013-10-15 20:00;CYQG 152000Z 18008KT 6SM HZ OVC013 16/14 A2999 RMK SC8 SLP159

CYQG;2013-10-15 21:00;CYQG 152100Z 16008KT 6SM HZ OVC007 16/14 A2997 RMK SC8 SLP149

CYQG;2013-10-15 23:00;CYQG 152300Z 18009KT 6SM HZ OVC012 17/14 A2993 RMK SC8 SLP136

CYQG;2013-10-16 00:00;CYQG 160000Z 17008KT 6SM HZ SCT016 OVC100 17/15 A2991 RMK SC3AC5 SLP131

CYQG;2013-10-16 01:00;CYQG 160100Z 17006KT 6SM HZ FEW016 OVC025 17/15 A2989 RMK SC1SC7 SLP124

CYQG;2013-10-16 02:00;CYQG 160200Z 17006KT 6SM BR FEW010 OVC080 17/15 A2989 RMK CF2AC6 SLP124

CYQG;2013-10-16 02:52;CYQG 160252Z 19009KT 5SM -SHRA BR SCT009 OVC039 RMK SF3SC5

CYQG;2013-10-16 03:00;CYQG 160300Z 19010KT 5SM -SHRA BR SCT009 OVC040 17/16 A2986 RMK SF3SC5 SLP113

CYQG;2013-10-16 03:48;CYQG 160348Z 20009KT 5SM -SHRA BR BKN011 OVC029 RMK SF5SC3

CYQG;2013-10-16 04:00;CYQG 160400Z 21013KT 4SM -SHRA BR BKN011 OVC030 17/16 A2985 RMK SF5SC3 SLP109

CYQG;2013-10-16 05:00;CYQG 160500Z 22012G17KT 6SM BR BKN007 OVC013 17/16 A2984 RMK SF6SC2 OCNL -SHRA SLP106

CYQG;2013-10-16 06:00;CYQG 160600Z 22008KT 8SM BKN012 OVC022 17/16 A2984 RMK SC5SC3 SLP104

CYQG;2013-10-16 06:39;CYQG 160639Z 23008KT 7SM OVC009 RMK SC8

CYQG;2013-10-16 07:00;CYQG 160700Z 24007KT 8SM SCT008 OVC016 17/16 A2985 RMK SF4SC4 SLP108

CYQG;2013-10-16 08:00;CYQG 160800Z 23007KT 8SM SCT020 17/15 A2983 RMK SC3 SLP101

CYQG;2013-10-16 09:00;CYQG 160900Z 21008KT 6SM BR FEW020 16/15 A2983 RMK SC2 SLP101

CYQG;2013-10-16 10:00;CYQG 161000Z 22007KT 7SM FEW013 16/15 A2983 RMK SC2 SLP102

CYQG;2013-10-16 11:00;CYQG 161100Z 23005KT 7SM FEW012 BKN018 16/15 A2983 RMK SC2SC3 SLP101

CYQG;2013-10-16 12:00;CYQG 161200Z 22008KT 4SM BR SCT012 16/15 A2983 RMK CU3 SLP100

CYQG;2013-10-16 13:00;CYQG 161300Z 22010KT 7SM FEW010 BKN046 17/15 A2984 RMK CF2CU4 SLP104

CYQG;2013-10-16 13:33;CYQG 161333Z 27011KT 8SM BKN013 BKN035 RMK CU6SC2

CYQG;2013-10-16 14:00;CYQG 161400Z 26013KT 15SM SCT013 BKN026 15/10 A2985 RMK CU3CU4 SLP107

CYQG;2013-10-16 15:00;CYQG 161500Z 26011G16KT 15SM BKN023 16/10 A2984 RMK CU6 SLP106

CYQG;2013-10-16 16:00;CYQG 161600Z 25016G21KT 15SM FEW030 17/09 A2984 RMK SC2 SLP104

CYQG;2013-10-16 17:00;CYQG 161700Z 26014G19KT 15SM FEW030 17/08 A2983 RMK SC1 SLP102

CYQG;2013-10-16 18:00;CYQG 161800Z 27012G17KT 15SM FEW040 BKN180 18/07 A2982 RMK SC1AC3 SLP098

CYQG;2013-10-16 19:00;CYQG 161900Z 28011G19KT 15SM FEW040 BKN140 17/08 A2982 RMK SC1AC3 SLP097

CYQG;2013-10-16 20:00;CYQG 162000Z 28013G20KT 15SM FEW040 FEW120 16/07 A2982 RMK SC2AC1 SLP098

CYQG;2013-10-16 21:00;CYQG 162100Z 28015KT 15SM FEW037 SCT120 16/07 A2984 RMK SC2AC1 SLP104

CYQG;2013-10-16 22:00;CYQG 162200Z 28011G16KT 15SM BKN037 15/07 A2985 RMK SC7 SLP109

CYQG;2013-10-16 23:00;CYQG 162300Z 27012KT 15SM OVC043 13/07 A2986 RMK SC8 SLP112

CYQG;2013-10-17 00:00;CYQG 170000Z 26014KT 15SM FEW028 OVC043 13/07 A2989 RMK CU1SC7 SLP121

CYQG;2013-10-17 01:00;CYQG 170100Z 26009KT 15SM OVC026 13/07 A2990 RMK SC8 SLP127

CYQG;2013-10-17 02:00;CYQG 170200Z 25010KT 15SM OVC024 12/07 A2992 RMK SC8 SLP131

CYQG;2013-10-17 03:00;CYQG 170300Z 25010KT 15SM SCT026 BKN048 12/08 A2992 RMK SC3SC4 SLP132

CYQG;2013-10-17 04:00;CYQG 170400Z 27010KT 15SM FEW025 BKN050 12/07 A2991 RMK SC2SC6 SLP129

CYQG;2013-10-17 05:00;CYQG 170500Z 26008KT 15SM FEW025 BKN050 12/08 A2990 RMK SC1SC6 SLP127

CYQG;2013-10-17 06:00;CYQG 170600Z 26010KT 15SM BKN051 12/08 A2991 RMK SC7 SLP128

CYQG;2013-10-17 07:00;CYQG 170700Z 26004KT 15SM OVC058 12/08 A2990 RMK SC8 SLP126

CYQG;2013-10-17 08:00;CYQG 170800Z 23005KT 15SM BKN062 11/08 A2989 RMK SC7 SLP123

CYQG;2013-10-17 09:00;CYQG 170900Z 23004KT 15SM BKN061 11/08 A2989 RMK SC7 SLP121

CYQG;2013-10-17 10:00;CYQG 171000Z 22004KT 15SM BKN063 10/08 A2989 RMK SC6 SLP122

CYQG;2013-10-17 11:00;CYQG 171100Z 22009KT 15SM SCT063 10/07 A2989 RMK SC4 SLP122

CYQG;2013-10-17 12:00;CYQG 171200Z 23004KT 15SM FEW025 BKN036 10/08 A2988 RMK SC2SC5 SLP121

CYQG;2013-10-17 13:00;CYQG 171300Z 25005KT 15SM FEW030 BKN049 11/08 A2989 RMK CU1SC6 SLP122

CYQG;2013-10-17 14:00;CYQG 171400Z 23005KT 12SM FEW025 OVC051 11/08 A2989 RMK CU2SC6 SLP123

CYQG;2013-10-17 14:41;CYQG 171441Z 23003KT 8SM BKN013 BKN050 RMK CU5SC2

CYQG;2013-10-17 15:00;CYQG 171500Z 28002KT 8SM BKN011 BKN050 BKN130 12/08 A2987 RMK CU5SC1AC2 VIS 6 N SLP118

CYQG;2013-10-17 15:11;CYQG 171511Z 30003KT 8SM SCT011 BKN140 RMK CU4AC3

CYQG;2013-10-17 16:00;CYQG 171600Z 22007KT 8SM FEW011 BKN100 OVC140 12/08 A2986 RMK SC2AC3AS2 SLP112

CYQG;2013-10-17 16:17;CYQG 171617Z 21005KT 8SM -SHRA FEW011 BKN097 OVC140 RMK SC2AC4AS2

CYQG;2013-10-17 17:00;CYQG 171700Z 23006KT 8SM FEW020 BKN096 OVC150 12/09 A2984 RMK SC2AC5AS2 OCNL -SHRA SLP107

CYQG;2013-10-17 18:00;CYQG 171800Z 23007KT 6SM -RA HZ SCT015 BKN063 OVC095 12/09 A2982 RMK CU3SC3AC2 SLP098

CYQG;2013-10-17 19:00;CYQG 171900Z 23008KT 4SM -RA BR FEW010 OVC050 11/10 A2979 RMK SF2SC6 SLP089

CYQG;2013-10-17 20:00;CYQG 172000Z 24013G18KT 4SM -RA BR FEW012 OVC043 11/09 A2978 RMK SF2SC6 SLP087

CYQG;2013-10-17 21:00;CYQG 172100Z 24011G16KT 6SM BR SCT012 BKN049 BKN100 11/09 A2977 RMK CU4SC2AC1 INTMT -RA SLP085

CYQG;2013-10-17 21:35;CYQG 172135Z 24011KT 7SM FEW014 BKN046 BKN100 RMK CU2SC3AC2

CYQG;2013-10-17 22:00;CYQG 172200Z 24009KT 7SM FEW017 BKN038 OVC100 11/09 A2977 RMK CU2SC6AC1 SLP084

CYQG;2013-10-17 22:17;CYQG 172217Z 23011G16KT 5SM -RA BR FEW009 OVC026 RMK SF2SC6

CYQG;2013-10-17 22:50;CYQG 172250Z 23007KT 6SM BR FEW017 BKN038 BKN260 RMK CU2SC5CI1 TR CI

CYQG;2013-10-17 23:00;CYQG 172300Z 23007KT 6SM BR FEW017 BKN038 BKN260 10/09 A2977 RMK CU2SC6CI1 TR CI SLP084

CYQG;2013-10-18 00:00;CYQG 180000Z 24008KT 12SM FEW013 BKN059 10/08 A2979 RMK CU1SC6 SLP090

CYQG;2013-10-18 01:00;CYQG 180100Z 24012KT 15SM FEW017 FEW025 BKN051 10/08 A2979 RMK CU1SC2SC5 SLP091

CYQG;2013-10-18 02:00;CYQG 180200Z 26017G22KT 12SM BKN017 OVC058 10/08 A2980 RMK SC6SC2 SLP094

CYQG;2013-10-18 03:00;CYQG 180300Z 27013KT 15SM SCT017 SCT034 10/07 A2983 RMK CU3SC1 SLP103

CYQG;2013-10-18 04:00;CYQG 180400Z 27011KT 15SM FEW012 BKN048 09/07 A2985 RMK CU1SC4 SLP109

CYQG;2013-10-18 05:00;CYQG 180500Z 26011KT 15SM FEW015 BKN048 09/07 A2985 RMK CU1SC6 SLP111

CYQG;2013-10-18 06:00;CYQG 180600Z 27011KT 15SM FEW015 BKN058 09/07 A2987 RMK CU1SC6 SLP117

CYQG;2013-10-18 07:00;CYQG 180700Z 25008KT 15SM BKN048 10/07 A2987 RMK SC7 SLP118

CYQG;2013-10-18 08:00;CYQG 180800Z 24006KT 15SM SCT048 09/06 A2986 RMK SC4 SLP115

CYQG;2013-10-18 09:00;CYQG 180900Z 23007KT 15SM SCT028 09/07 A2988 RMK SC3 SLP121

CYQG;2013-10-18 10:00;CYQG 181000Z 25007KT 15SM FEW025 08/06 A2989 RMK SC2 SLP125

CYQG;2013-10-18 11:00;CYQG 181100Z 24006KT 15SM SCT053 07/06 A2989 RMK SC4 SLP125

CYQG;2013-10-18 12:00;CYQG 181200Z 23005KT 8SM FEW053 07/05 A2991 RMK SC1 SLP131

CYQG;2013-10-18 13:00;CYQG 181300Z 22005KT 10SM SKC 07/05 A2992 RMK SLP135

CYQG;2013-10-18 14:00;CYQG 181400Z 22008KT 15SM SKC 09/06 A2992 RMK SLP136

CYQG;2013-10-18 15:00;CYQG 181500Z 21008KT 15SM FEW070 11/07 A2993 RMK AC2 SLP137

CYQG;2013-10-18 16:00;CYQG 181600Z 21007KT 15SM FEW070 13/07 A2992 RMK AC2 SLP133

CYQG;2013-10-18 17:00;CYQG 181700Z 21009KT 15SM FEW070 14/08 A2990 RMK AC2 SLP129

CYQG;2013-10-18 18:00;CYQG 181800Z 23013G19KT 15SM FEW035 16/07 A2988 RMK CF1 SLP119

CYQG;2013-10-18 19:00;CYQG 181900Z 22010G17KT 15SM FEW052 17/07 A2986 RMK CU2 SLP114

CYQG;2013-10-18 20:00;CYQG 182000Z 22009KT 15SM SCT062 17/08 A2986 RMK CU4 SLP112

CYQG;2013-10-18 21:00;CYQG 182100Z 25008G16KT 15SM FEW063 17/05 A2985 RMK CU2 SLP109

CYQG;2013-10-18 22:00;CYQG 182200Z 25011KT 15SM FEW062 17/05 A2985 RMK CU2 SLP109

CYQG;2013-10-18 23:00;CYQG 182300Z 24006KT 15SM FEW055 15/05 A2986 RMK SC1 TR SC SLP112

CYQG;2013-10-19 00:00;CYQG 190000Z 24006KT 15SM FEW090 14/05 A2987 RMK AC1 SLP119

CYQG;2013-10-19 01:00;CYQG 190100Z 24004KT 15SM FEW072 13/05 A2988 RMK AC2 SLP122

CYQG;2013-10-19 02:00;CYQG 190200Z 31005KT 15SM FEW062 12/05 A2990 RMK SC1 SLP128

CYQG;2013-10-19 03:00;CYQG 190300Z 30006KT 15SM FEW080 11/06 A2991 RMK AC1 TR AC SLP129

CYQG;2013-10-19 04:00;CYQG 190400Z 28005KT 15SM FEW080 10/06 A2990 RMK AC1 SLP128

CYQG;2013-10-19 05:00;CYQG 190500Z 27006KT 15SM FEW058 BKN160 09/05 A2989 RMK SC1AC5 SLP125

CYQG;2013-10-19 06:00;CYQG 190600Z 25005KT 15SM BKN160 09/05 A2989 RMK AC7 SLP123

CYQG;2013-10-19 07:00;CYQG 190700Z 22005KT 15SM SCT160 08/05 A2988 RMK AC3 SLP119

CYQG;2013-10-19 08:00;CYQG 190800Z 23005KT 15SM BKN190 07/05 A2988 RMK AC5 SLP121

CYQG;2013-10-19 09:00;CYQG 190900Z 22005KT 15SM BKN130 07/05 A2986 RMK AC6 SLP115

CYQG;2013-10-19 10:00;CYQG 191000Z 24005KT 15SM OVC130 07/04 A2986 RMK AC8 SLP112

CYQG;2013-10-19 11:00;CYQG 191100Z 22004KT 12SM OVC085 07/05 A2984 RMK AC8 SLP106

CYQG;2013-10-19 11:25;CYQG 191125Z CCA 22003KT 8SM -RA OVC045 RMK SC8

CYQG;2013-10-19 12:00;CYQG 191200Z 24004KT 5SM -RA BR FEW035 OVC045 07/05 A2983 RMK SF2SC6 SLP105

CYQG;2013-10-19 13:00;CYQG 191300Z 27002KT 4SM -RA BR OVC040 07/06 A2982 RMK SF8 SLP101

CYQG;2013-10-19 14:00;CYQG 191400Z 26005KT 5SM -RA BR SCT006 OVC020 07/06 A2982 RMK SF4SC4 SLP101

CYQG;2013-10-19 15:00;CYQG 191500Z 26005KT 5SM -RA BR SCT011 OVC029 07/06 A2981 RMK SF4SC4 SLP098

CYQG;2013-10-19 16:00;CYQG 191600Z CCA 26009KT 6SM -RA BR SCT010 OVC029 07/06 A2980 RMK SF4SC4 SLP096

CYQG;2013-10-19 17:00;CYQG 191700Z 25007KT 6SM -RA BR BKN015 OVC025 07/05 A2978 RMK SF6SC2 SLP089

CYQG;2013-10-19 18:00;CYQG 191800Z 26009KT 8SM -RA BKN011 OVC018 07/05 A2976 RMK SF7SC1 SLP082

CYQG;2013-10-19 19:00;CYQG 191900Z 27011KT 8SM -RA BKN010 OVC040 08/06 A2976 RMK SF7SC1 SLP082

CYQG;2013-10-19 19:30;CYQG 191930Z 29010KT 10SM -RA SCT010 OVC023 RMK SC3SC5

CYQG;2013-10-19 20:00;CYQG 192000Z 26010KT 12SM -RA FEW010 BKN032 07/05 A2977 RMK SC2SC6 SLP083

CYQG;2013-10-19 21:00;CYQG 192100Z 25011KT 15SM FEW022 FEW064 08/06 A2977 RMK CU1SC2 SLP084

CYQG;2013-10-19 21:41;CYQG 192141Z 25011KT 15SM -SHRA SCT062 BKN100 RMK CU3AC4

CYQG;2013-10-19 22:00;CYQG 192200Z 25010KT 15SM FEW045 BKN070 08/05 A2978 RMK SC2AC6 OCNL -SHRA SLP088

CYQG;2013-10-19 22:46;CYQG 192246Z 25009KT 15SM FEW070 FEW100 RMK AC2AC1

CYQG;2013-10-19 23:00;CYQG 192300Z 25007KT 15SM FEW070 FEW110 07/04 A2980 RMK AC2AC1 SLP094

CYQG;2013-10-20 00:00;CYQG 200000Z 23006KT 15SM FEW110 07/04 A2982 RMK AC1 SLP102

CYQG;2013-10-20 01:00;CYQG 200100Z 24005KT 15SM FEW100 07/03 A2983 RMK AC2 SLP105

CYQG;2013-10-20 01:36;CYQG 200136Z 29008KT 15SM -SHRA FEW023 BKN055 RMK SC2SC5

CYQG;2013-10-20 02:00;CYQG 200200Z 28005KT 15SM BKN070 06/04 A2985 RMK AC6 OCNL -SHRA SLP111

CYQG;2013-10-20 02:14;CYQG 200214Z 27005KT 15SM FEW057 BKN080 RMK SC2AC3

CYQG;2013-10-20 03:00;CYQG 200300Z 22005KT 15SM FEW070 06/03 A2985 RMK AC1 SLP113

CYQG;2013-10-20 04:00;CYQG 200400Z 27005KT 15SM SCT056 05/03 A2986 RMK SC3 SLP115

CYQG;2013-10-20 05:00;CYQG 200500Z 25008KT 15SM FEW060 BKN130 06/03 A2986 RMK SC2AC3 SLP116

CYQG;2013-10-20 06:00;CYQG 200600Z 23007KT 15SM FEW058 BKN096 06/03 A2986 RMK SC2AC3 SLP115

CYQG;2013-10-20 07:00;CYQG 200700Z 23006KT 15SM BKN120 06/03 A2986 RMK AC6 SLP114

CYQG;2013-10-20 08:00;CYQG 200800Z 22006KT 15SM BKN048 06/03 A2985 RMK SC5 SLP111

CYQG;2013-10-20 09:00;CYQG 200900Z 24007KT 15SM FEW060 BKN120 06/03 A2985 RMK SC2AC2 SLP111

CYQG;2013-10-20 10:00;CYQG 201000Z 25005KT 15SM FEW060 BKN110 06/03 A2985 RMK SC2AC3 SLP112

CYQG;2013-10-20 11:00;CYQG 201100Z 23004KT 15SM BKN099 06/03 A2986 RMK AC5 SLP115

CYQG;2013-10-20 12:00;CYQG 201200Z 23006KT 15SM FEW079 FEW095 06/03 A2987 RMK AC1AC2 SLP118

CYQG;2013-10-20 13:00;CYQG 201300Z 24010KT 15SM FEW079 FEW095 FEW280 07/03 A2989 RMK AC1AC1CS1 SLP127

CYQG;2013-10-20 14:00;CYQG 201400Z 24011KT 15SM FEW095 FEW280 08/03 A2991 RMK AC1CS2 SLP132

CYQG;2013-10-20 15:00;CYQG 201500Z 26011KT 15SM FEW095 SCT280 10/04 A2991 RMK AC1CS2 SLP133

CYQG;2013-10-20 16:00;CYQG 201600Z 25006KT 15SM FEW095 FEW280 11/04 A2992 RMK AC1CI1 SLP134

CYQG;2013-10-20 17:00;CYQG 201700Z 23008KT 15SM BKN029 12/05 A2992 RMK CU6 SLP136

CYQG;2013-10-20 18:00;CYQG 201800Z 24009KT 15SM FEW029 BKN041 BKN280 13/04 A2990 RMK CU1SC5CI1 SLP129

CYQG;2013-10-20 19:00;CYQG 201900Z 23006KT 15SM BKN053 BKN280 13/04 A2990 RMK SC6CI1 SLP127

CYQG;2013-10-20 20:00;CYQG 202000Z 26011KT 15SM BKN052 BKN075 14/05 A2990 RMK SC6AC1 SLP127

CYQG;2013-10-20 21:00;CYQG 202100Z 23009KT 15SM FEW052 FEW080 FEW280 15/04 A2989 RMK CF1AC1CI0 SLP125

CYQG;2013-10-20 22:00;CYQG 202200Z 21006KT 15SM BKN080 BKN280 14/04 A2990 RMK AC6CI1 SLP127

CYQG;2013-10-20 23:00;CYQG 202300Z 16005KT 15SM FEW060 BKN090 13/06 A2989 RMK SC1AC6 SLP125

CYQG;2013-10-21 00:00;CYQG 210000Z 16005KT 15SM FEW060 OVC090 12/06 A2989 RMK SC2AC6 SLP125

CYQG;2013-10-21 01:00;CYQG 210100Z 18005KT 15SM BKN090 12/07 A2988 RMK AC7 SLP122

CYQG;2013-10-21 02:00;CYQG 210200Z 20012KT 15SM BKN090 14/07 A2988 RMK AC6 SLP120

CYQG;2013-10-21 03:00;CYQG 210300Z 20012G20KT 15SM BKN090 14/07 A2988 RMK AC6 SLP120

CYQG;2013-10-21 04:00;CYQG 210400Z 21017KT 15SM BKN110 13/06 A2987 RMK AC7 SLP117

CYQG;2013-10-21 05:00;CYQG 210500Z 21014G21KT 15SM BKN110 13/07 A2986 RMK AC7 SLP113

CYQG;2013-10-21 06:00;CYQG 210600Z 22015G20KT 15SM OVC100 13/06 A2986 RMK AS8 SLP113

CYQG;2013-10-21 07:00;CYQG 210700Z 22015G20KT 15SM OVC110 13/06 A2986 RMK AS8 SLP114

CYQG;2013-10-21 08:00;CYQG 210800Z 22011KT 15SM OVC110 13/06 A2986 RMK AS7 SLP112

CYQG;2013-10-21 09:00;CYQG 210900Z 22013G19KT 15SM OVC110 12/06 A2986 RMK AS7 SLP112

CYQG;2013-10-21 10:00;CYQG 211000Z 22013G20KT 15SM BKN110 BKN220 12/06 A2985 RMK AC5CI2 SLP109

CYQG;2013-10-21 11:00;CYQG 211100Z 21015KT 15SM OVC160 14/06 A2986 RMK AS8 SLP111

CYQG;2013-10-21 12:00;CYQG 211200Z CCB 23014KT 15SM BKN130 OVC280 11/06 A2987 RMK AC7CS1 SLP116

CYQG;2013-10-21 13:00;CYQG 211300Z 23012G17KT 15SM FEW130 OVC280 11/06 A2988 RMK AC2CC5 SLP120

CYQG;2013-10-21 14:00;CYQG 211400Z 22012G17KT 15SM OVC130 12/06 A2988 RMK AC8 SLP120

CYQG;2013-10-21 15:00;CYQG 211500Z 22011G17KT 15SM OVC130 12/06 A2987 RMK AC8 SLP116

CYQG;2013-10-21 16:00;CYQG 211600Z CCA 22011KT 15SM FEW080 OVC110 13/07 A2987 RMK AC1AC7 LWR AC INVDG W SLP116

CYQG;2013-10-21 17:00;CYQG 211700Z 22011KT 15SM BKN053 OVC110 13/07 A2986 RMK SC6AC2 SLP112

CYQG;2013-10-21 17:09;CYQG 211709Z 23012KT 15SM -RA BKN053 OVC110 RMK SC6AC2 -RA INTMT

CYQG;2013-10-21 17:41;CYQG 211741Z 22010G15KT 15SM BKN063 OVC110 RMK SC7AC1

CYQG;2013-10-21 18:00;CYQG 211800Z 23009KT 15SM BKN066 OVC110 13/08 A2983 RMK AC7AC1 SLP104

CYQG;2013-10-21 18:19;CYQG 211819Z 22008KT 15SM -RA BKN066 OVC110 RMK AC7AC1

CYQG;2013-10-21 19:00;CYQG 211900Z 22007KT 15SM -RA FEW020 OVC066 13/09 A2982 RMK CF1AC8 SLP099

CYQG;2013-10-21 20:00;CYQG 212000Z 25008KT 12SM -RA FEW058 OVC080 13/09 A2981 RMK SC2AS6 SLP097

CYQG;2013-10-21 21:00;CYQG 212100Z 24006KT 7SM -RA FEW036 OVC070 12/09 A2981 RMK SC2AS6 SLP097

CYQG;2013-10-21 22:00;CYQG 212200Z 23010KT 12SM -RA FEW011 FEW035 OVC070 11/09 A2982 RMK SC1SC2AS6 SLP098

CYQG;2013-10-21 23:00;CYQG 212300Z 24010KT 12SM -RA SCT048 OVC090 11/09 A2983 RMK SC3AS5 SLP104

CYQG;2013-10-21 23:23;CYQG 212323Z 26010KT 15SM FEW016 OVC040 RMK SC2SC6

CYQG;2013-10-21 23:51;CYQG 212351Z 28007KT 15SM -RA FEW015 OVC044 RMK SC2SC6

CYQG;2013-10-22 00:00;CYQG 220000Z 28007KT 15SM -RA FEW015 OVC046 10/08 A2983 RMK SC2SC6 SLP105

CYQG;2013-10-22 00:38;CYQG 220038Z 29009KT 15SM BKN021 OVC045 RMK SC6SC2

CYQG;2013-10-22 01:00;CYQG 220100Z 29012G17KT 15SM BKN025 OVC040 09/06 A2984 RMK SC6SC2 SLP107

CYQG;2013-10-22 02:00;CYQG 220200Z 28014G20KT 15SM BKN048 08/02 A2985 RMK SC7 SLP111

CYQG;2013-10-22 03:00;CYQG 220300Z 25008KT 15SM FEW048 07/01 A2985 RMK SC2 SLP112

CYQG;2013-10-22 04:00;CYQG 220400Z 24007KT 15SM FEW048 06/01 A2985 RMK SC2 SLP110

CYQG;2013-10-22 05:00;CYQG 220500Z 25010KT 15SM FEW050 06/01 A2985 RMK SC2 SLP112

CYQG;2013-10-22 06:00;CYQG 220600Z 26008KT 15SM BKN038 06/01 A2986 RMK SC7 SLP116

CYQG;2013-10-22 07:00;CYQG 220700Z 28012KT 15SM BKN052 06/M02 A2988 RMK SC6 SLP120

CYQG;2013-10-22 08:00;CYQG 220800Z 28007KT 15SM FEW050 05/M03 A2988 RMK SC2 SLP122

CYQG;2013-10-22 09:00;CYQG 220900Z 27008KT 15SM FEW050 04/M04 A2989 RMK SC2 SLP125

CYQG;2013-10-22 10:00;CYQG 221000Z 23006KT 15SM FEW050 03/M02 A2990 RMK SC1 SLP128

CYQG;2013-10-22 11:00;CYQG 221100Z 25009KT 15SM FEW050 03/M02 A2990 RMK SC1 SLP130

CYQG;2013-10-22 12:00;CYQG 221200Z 25009KT 15SM FEW040 03/M02 A2991 RMK SC1 TR SC SLP132

CYQG;2013-10-22 13:00;CYQG 221300Z 24010KT 15SM FEW040 FEW100 03/M02 A2992 RMK SC1AC1 TR SC TR AC SLP137

CYQG;2013-10-22 14:00;CYQG 221400Z 24011KT 15SM FEW040 FEW100 SCT260 04/M01 A2993 RMK SC1AC1CI1 TR SC SLP141

CYQG;2013-10-22 15:00;CYQG 221500Z 25014G19KT 15SM FEW042 FEW260 06/M01 A2992 RMK SC1CI1 CC ASOCTD SLP137

CYQG;2013-10-22 16:00;CYQG 221600Z 27011G22KT 15SM BKN037 BKN260 07/M02 A2992 RMK SC6CI0 SLP138

CYQG;2013-10-22 17:00;CYQG 221700Z 27012G22KT 15SM BKN036 08/M01 A2992 RMK SC6 SLP135

CYQG;2013-10-22 18:00;CYQG 221800Z 24008G15KT 15SM BKN037 BKN260 08/M01 A2989 RMK SC7CI1 TR CI SLP127

CYQG;2013-10-22 19:00;CYQG 221900Z 30006KT 15SM BKN044 BKN260 09/M01 A2987 RMK SC5CI1 SLP120

CYQG;2013-10-22 20:00;CYQG 222000Z 25009G18KT 15SM BKN059 BKN270 10/M01 A2987 RMK SC5CI1 SLP119

CYQG;2013-10-22 21:00;CYQG 222100Z 26009KT 15SM SCT056 BKN250 BKN270 09/M02 A2987 RMK SC3CC2CI2 CONTRAILS SLP118

CYQG;2013-10-22 22:00;CYQG 222200Z 25008KT 15SM SCT062 OVC260 09/M02 A2987 RMK SC3CI4 SLP120

CYQG;2013-10-22 23:00;CYQG 222300Z 25004KT 15SM FEW060 OVC250 09/M01 A2986 RMK SC2CS6 SLP117

CYQG;2013-10-23 00:00;CYQG 230000Z 28003KT 15SM BKN050 OVC250 08/M01 A2987 RMK SC5CS3 SLP119

CYQG;2013-10-23 01:00;CYQG 230100Z 26005KT 15SM FEW050 OVC260 08/M01 A2987 RMK SC2CS6 SLP120

CYQG;2013-10-23 02:00;CYQG 230200Z 28007KT 15SM BKN150 07/M01 A2987 RMK AC7 SLP121

CYQG;2013-10-23 03:00;CYQG 230300Z 28007KT 15SM SCT051 BKN190 BKN270 07/M01 A2988 RMK SC3AC2CI2 SLP122

CYQG;2013-10-23 04:00;CYQG 230400Z 25010G15KT 15SM SCT051 BKN140 BKN270 05/00 A2987 RMK SC3AC2CI1 SLP120

CYQG;2013-10-23 05:00;CYQG 230500Z 25008KT 15SM BKN046 OVC120 05/01 A2986 RMK SC6AC2 SLP116

CYQG;2013-10-23 06:00;CYQG 230600Z 26006KT 15SM FEW049 BKN180 04/01 A2985 RMK SC2AC2 SLP112

CYQG;2013-10-23 07:00;CYQG 230700Z 26005KT 15SM OVC130 04/01 A2983 RMK AS5 SLP107

CYQG;2013-10-23 08:00;CYQG 230800Z 26005KT 15SM BKN180 03/01 A2982 RMK AC5 SLP101

CYQG;2013-10-23 09:00;CYQG 230900Z 27004KT 15SM SCT170 02/01 A2980 RMK AC2 SLP097

CYQG;2013-10-23 10:00;CYQG 231000Z 29005KT 15SM SCT170 02/00 A2981 RMK AC2 SLP099

CYQG;2013-10-23 11:00;CYQG 231100Z 33004KT 15SM FEW140 02/00 A2982 RMK AC2 SLP101

CYQG;2013-10-23 12:00;CYQG 231200Z 35004KT 15SM FEW025 FEW100 FEW260 02/00 A2982 RMK SC1AC1CI1 TR AC TR CI SLP104

CYQG;2013-10-23 13:00;CYQG 231300Z 35005KT 15SM FEW025 FEW260 03/01 A2984 RMK SC1CI1 TR SC TR CI SLP110

CYQG;2013-10-23 14:00;CYQG 231400Z 35008KT 15SM FEW025 FEW260 05/M00 A2985 RMK SC1CI1 TR SC TR CI SLP113

CYQG;2013-10-23 15:00;CYQG 231500Z 34008KT 15SM FEW028 FEW260 06/M01 A2985 RMK SC1CI1 TR CI SLP112

CYQG;2013-10-23 16:00;CYQG 231600Z 34007KT 15SM SCT030 SCT260 07/M01 A2985 RMK SC3CI1 TR CI SLP113

CYQG;2013-10-23 17:00;CYQG 231700Z 34007KT 15SM BKN039 07/M03 A2985 RMK SC6 SLP113

CYQG;2013-10-23 18:00;CYQG 231800Z 34010G15KT 15SM BKN042 08/M01 A2984 RMK SC6 SLP110

CYQG;2013-10-23 19:00;CYQG 231900Z 31011KT 15SM BKN061 08/M03 A2984 RMK SC6 SLP110

CYQG;2013-10-23 20:00;CYQG 232000Z 30010G19KT 15SM VCSH BKN065 08/M04 A2985 RMK CU6 SLP111

CYQG;2013-10-23 21:00;CYQG 232100Z 29011KT 15SM VCSH FEW030 BKN090 09/M05 A2986 RMK CF2AC5 SLP115

CYQG;2013-10-23 22:00;CYQG 232200Z 28012KT 15SM FEW030 BKN100 08/M05 A2987 RMK CU2AC5 SLP120

CYQG;2013-10-23 23:00;CYQG 232300Z 29011G16KT 15SM SCT050 BKN110 07/M04 A2989 RMK CU3AC3 SLP125

CYQG;2013-10-24 00:00;CYQG 240000Z 29010G16KT 15SM FEW050 BKN083 06/M03 A2991 RMK SC2AC5 SLP133

CYQG;2013-10-24 01:00;CYQG 240100Z 28011KT 15SM FEW071 BKN096 05/M03 A2991 RMK AC2AC4 SLP134

CYQG;2013-10-24 01:34;CYQG 240134Z 27010KT 15SM -SHRA SCT050 BKN110 RMK SC3AC4

CYQG;2013-10-24 02:00;CYQG 240200Z 26009KT 15SM -SHRA SCT065 BKN100 05/M01 A2992 RMK SC3AC4 SLP136

CYQG;2013-10-24 02:36;CYQG 240236Z 26008KT 15SM BKN100 RMK AC6

CYQG;2013-10-24 03:00;CYQG 240300Z 26008KT 15SM BKN100 04/M01 A2992 RMK AC6 SLP139

CYQG;2013-10-24 04:00;CYQG 240400Z 27007KT 15SM FEW090 04/M00 A2992 RMK AC2 SLP138

CYQG;2013-10-24 05:00;CYQG 240500Z 28007KT 15SM FEW090 03/M01 A2992 RMK AC1 SLP136

CYQG;2013-10-24 06:00;CYQG 240600Z 27007KT 15SM FEW100 02/M01 A2992 RMK AC1 SLP136

CYQG;2013-10-24 07:00;CYQG 240700Z 27009KT 15SM SKC 02/M02 A2993 RMK SLP139

CYQG;2013-10-24 08:00;CYQG 240800Z 27008KT 15SM SKC 02/M02 A2993 RMK SLP139

CYQG;2013-10-24 09:00;CYQG 240900Z 28011KT 15SM SKC 01/M02 A2993 RMK SLP142

CYQG;2013-10-24 10:00;CYQG 241000Z 26009KT 15SM SKC 01/M01 A2995 RMK SLP146

CYQG;2013-10-24 11:00;CYQG 241100Z 27006KT 15SM FEW100 01/M01 A2996 RMK AC2 SLP152

CYQG;2013-10-24 12:00;CYQG 241200Z 27006KT 12SM FEW025 BKN100 01/M01 A2997 RMK SC1AC7 TR SC SLP154

CYQG;2013-10-24 13:00;CYQG 241300Z 27006KT 10SM FEW025 BKN100 02/M00 A2999 RMK SC1AC7 TR SC SLP160

CYQG;2013-10-24 14:00;CYQG 241400Z 29008KT 12SM FEW025 BKN100 03/M00 A3000 RMK SC1AC6 TR SC SLP165

CYQG;2013-10-24 15:00;CYQG 241500Z 29009KT 15SM FEW025 SCT100 04/M00 A3001 RMK SC1AC2 SLP170

CYQG;2013-10-24 16:00;CYQG 241600Z 27013KT 15SM FEW025 SCT100 06/M00 A3002 RMK SC2AC2 SLP171

CYQG;2013-10-24 17:00;CYQG 241700Z 27010G15KT 15SM BKN032 BKN260 07/M02 A3002 RMK CU5CI1 TR CI SLP171

CYQG;2013-10-24 18:00;CYQG 241800Z 30011KT 15SM SCT040 SCT260 08/M02 A3001 RMK CU4CI1 TR CI MDT CU SLP167

CYQG;2013-10-24 19:00;CYQG 241900Z 29013KT 15SM BKN050 08/M03 A3001 RMK CU6 SLP168

CYQG;2013-10-24 21:00;CYQG 242100Z 29013KT 15SM SCT050 08/M03 A3004 RMK SC4 SLP177

CYQG;2013-10-24 22:00;CYQG 242200Z 28008KT 15SM FEW030 BKN089 08/M03 A3005 RMK CU2AC4 SLP182

CYQG;2013-10-24 23:00;CYQG 242300Z 29007KT 15SM FEW030 BKN074 07/M03 A3008 RMK SC1AC6 SLP190

CYQG;2013-10-25 00:00;CYQG 250000Z 28010G16KT 15SM FEW075 06/M02 A3011 RMK AC2 SLP200

CYQG;2013-10-25 01:00;CYQG 250100Z 28009KT 15SM FEW270 05/M01 A3012 RMK CI2 SLP205

CYQG;2013-10-25 02:00;CYQG 250200Z 28008KT 15SM FEW050 SCT270 04/M00 A3014 RMK SC1CI2 SLP211

CYQG;2013-10-25 03:00;CYQG 250300Z 28007KT 15SM FEW050 04/M00 A3015 RMK SC2 SLP216

CYQG;2013-10-25 04:00;CYQG 250400Z 29008KT 15SM SKC 03/M01 A3016 RMK SLP219

CYQG;2013-10-25 05:00;CYQG 250500Z 29008KT 15SM SKC 03/M01 A3017 RMK SLP223

CYQG;2013-10-25 06:00;CYQG 250600Z 28008KT 15SM SKC 02/M01 A3018 RMK SLP225

CYQG;2013-10-25 07:00;CYQG 250700Z 29008KT 15SM SKC 01/M01 A3020 RMK SLP231

CYQG;2013-10-25 08:00;CYQG 250800Z 29008KT 15SM SKC 01/M01 A3021 RMK SLP235

CYQG;2013-10-25 09:00;CYQG 250900Z 28007KT 15SM SKC 01/M01 A3022 RMK SLP238

CYQG;2013-10-25 10:00;CYQG 251000Z 28006KT 15SM SKC 01/M01 A3023 RMK SLP244

CYQG;2013-10-25 11:00;CYQG 251100Z 27006KT 15SM SKC 00/M02 A3026 RMK SLP251

CYQG;2013-10-25 12:00;CYQG 251200Z 31011KT 6SM BR BKN005 01/M01 A3027 RMK SC7 SLP258

CYQG;2013-10-25 13:00;CYQG 251300Z 31011G19KT 8SM OVC008 02/M00 A3030 RMK SC8 SLP268

CYQG;2013-10-25 14:00;CYQG 251400Z 29011G19KT 12SM BKN010 03/00 A3032 RMK SC6 SLP272

CYQG;2013-10-25 15:00;CYQG 251500Z CCA 29010KT 15SM BKN013 04/01 A3031 RMK SC5 SLP271

CYQG;2013-10-25 16:00;CYQG 251600Z 30012KT 15SM FEW020 06/01 A3031 RMK SC2 SLP269

CYQG;2013-10-25 17:00;CYQG 251700Z 29013KT 15SM BKN032 08/00 A3030 RMK SC6 SLP267

CYQG;2013-10-25 18:00;CYQG 251800Z 28012KT 15SM BKN046 08/M02 A3027 RMK SC7 SLP257

CYQG;2013-10-25 19:00;CYQG 251900Z 29010KT 15SM FEW044 BKN064 08/M03 A3026 RMK CU2SC5 SLP253

CYQG;2013-10-25 20:00;CYQG 252000Z 25013KT 15SM SCT048 BKN070 09/M03 A3025 RMK CU3AC2 SLP248

CYQG;2013-10-25 21:00;CYQG 252100Z 25014KT 15SM SCT041 BKN066 08/M02 A3024 RMK CU4AC3 SLP247

CYQG;2013-10-25 22:00;CYQG 252200Z 24009KT 15SM FEW040 BKN074 08/M02 A3022 RMK CU1AC6 SLP240

CYQG;2013-10-25 23:00;CYQG 252300Z 23009KT 15SM SCT074 06/M01 A3021 RMK AC4 SLP236

CYQG;2013-10-26 05:00;CYQG 260500Z 23014G20KT 15SM BKN090 05/M03 A3009 RMK AC7 SLP196

CYQG;2013-10-26 06:00;CYQG 260600Z 22016KT 15SM BKN090 BKN170 06/M03 A3005 RMK AC5AC2 SLP182

CYQG;2013-10-26 07:00;CYQG 260700Z 22018G24KT 15SM BKN070 06/M03 A3001 RMK AC7 SLP166

CYQG;2013-10-26 08:00;CYQG 260800Z 23021G27KT 15SM OVC060 06/M04 A2998 RMK SC8 SLP158

CYQG;2013-10-26 09:00;CYQG 260900Z 23023G29KT 15SM OVC061 06/M03 A2994 RMK SC8 SLP142

CYQG;2013-10-26 10:00;CYQG 261000Z 23022G27KT 15SM OVC070 06/M03 A2991 RMK AC8 SLP134

CYQG;2013-10-26 11:00;CYQG 261100Z 24023G33KT 15SM BKN063 OVC090 06/M04 A2989 RMK SC5AC3 SLP125

CYQG;2013-10-26 12:00;CYQG 261200Z 23021G29KT 15SM OVC068 06/M03 A2987 RMK AC8 SLP121

CYQG;2013-10-26 13:00;CYQG 261300Z 23020G25KT 15SM OVC062 06/M03 A2985 RMK SC8 SLP113

CYQG;2013-10-26 14:00;CYQG 261400Z 24020G26KT 15SM OVC063 06/M03 A2985 RMK SC8 SLP112

CYQG;2013-10-26 15:00;CYQG 261500Z 23019G26KT 15SM OVC069 06/M03 A2983 RMK AC8 SLP106

CYQG;2013-10-26 16:00;CYQG 261600Z 23018G25KT 15SM OVC054 07/M02 A2982 RMK SC8 SLP101

CYQG;2013-10-26 17:00;CYQG 261700Z 23019G26KT 15SM FEW054 BKN092 07/M02 A2981 RMK SC1AC6 SLP100

CYQG;2013-10-26 18:00;CYQG 261800Z 25020KT 15SM FEW068 BKN098 BKN280 09/M00 A2979 RMK AC1AC6CI1 TR CI SLP091

CYQG;2013-10-26 19:00;CYQG 261900Z 25017G24KT 15SM BKN043 09/M00 A2979 RMK SC7 SLP091

CYQG;2013-10-26 20:00;CYQG 262000Z 25014G24KT 15SM BKN039 09/00 A2980 RMK SC7 SLP095

CYQG;2013-10-26 21:00;CYQG 262100Z 24017G24KT 15SM FEW040 BKN100 10/01 A2980 RMK SC2AC3 SLP093

CYQG;2013-10-26 21:53;CYQG 262153Z 33016G28KT 8SM -SHRA OVC032 RMK SC8

CYQG;2013-10-26 22:00;CYQG 262200Z 33017G28KT 6SM -SHRA HZ OVC031 07/03 A2986 RMK SC8 SLP113

CYQG;2013-10-26 23:00;CYQG 262300Z 26007KT 15SM -SHRA FEW039 BKN078 06/04 A2987 RMK SC2AC5 SLP118

CYQG;2013-10-26 23:41;CYQG 262341Z 26008KT 15SM FEW040 BKN110 RMK SC2AC6

CYQG;2013-10-27 00:00;CYQG 270000Z 26007KT 15SM FEW040 BKN096 06/04 A2990 RMK SC2AC6 SLP130

CYQG;2013-10-27 03:00;CYQG 270300Z 28009KT 15SM SKC 05/01 A2997 RMK SLP155

CYQG;2013-10-27 04:00;CYQG 270400Z 28008KT 15SM SKC 04/01 A2998 RMK SLP159

CYQG;2013-10-27 05:00;CYQG 270500Z 28007KT 15SM SKC 04/01 A2999 RMK SLP162

CYQG;2013-10-27 06:00;CYQG 270600Z 28006KT 15SM FEW280 03/00 A3000 RMK CI1 SLP163

CYQG;2013-10-27 07:00;CYQG 270700Z 27004KT 15SM SKC 03/00 A3000 RMK SLP163

CYQG;2013-10-27 08:00;CYQG 270800Z 27004KT 15SM SKC 02/00 A2999 RMK SLP160

CYQG;2013-10-27 09:00;CYQG 270900Z 27006KT 15SM FEW280 02/M00 A3000 RMK CI1 SLP165

CYQG;2013-10-27 10:00;CYQG 271000Z 25005KT 15SM BKN180 BKN260 02/00 A3002 RMK AC6CI1 SLP170

CYQG;2013-10-27 11:00;CYQG 271100Z 30002KT 15SM BKN150 02/00 A3002 RMK AC7 SLP170

CYQG;2013-10-27 12:00;CYQG 271200Z 26006KT 15SM BKN058 BKN140 03/00 A3003 RMK SC6AC1 SLP176

CYQG;2013-10-27 13:00;CYQG 271300Z 24006KT 15SM BKN062 BKN140 03/01 A3005 RMK SC6AC1 SLP182

CYQG;2013-10-27 14:00;CYQG 271400Z 26007KT 15SM BKN057 04/01 A3007 RMK SC7 SLP187

CYQG;2013-10-27 15:00;CYQG 271500Z 25008KT 15SM FEW020 BKN061 06/00 A3007 RMK CU1SC7 SLP188

CYQG;2013-10-27 16:00;CYQG 271600Z 25006KT 15SM FEW020 FEW042 BKN061 07/M01 A3007 RMK CU1SC1SC6 TR CU SLP188

CYQG;2013-10-27 17:00;CYQG 271700Z 24006KT 15SM FEW042 BKN061 08/M02 A3006 RMK CU1SC6 SLP184

CYQG;2013-10-27 18:00;CYQG 271800Z 24008KT 15SM FEW042 BKN061 08/M01 A3004 RMK SC1SC7 SLP176

CYQG;2013-10-27 19:00;CYQG 271900Z 20008KT 15SM FEW038 BKN063 BKN260 10/00 A3001 RMK CU2SC3CI1 CONTRAILS SLP166

CYQG;2013-10-27 20:00;CYQG 272000Z 21008KT 15SM SCT039 SCT060 BKN260 10/01 A3001 RMK CU3SC1CI1 CONTRAILS SLP166

CYQG;2013-10-27 21:00;CYQG 272100Z 18007KT 15SM BKN052 BKN260 10/01 A3001 RMK SC5CI1 SLP166

CYQG;2013-10-27 22:00;CYQG 272200Z 20009KT 15SM FEW050 BKN260 10/01 A2999 RMK SC2CI2 SLP160

CYQG;2013-10-27 23:00;CYQG 272300Z 20007KT 15SM FEW050 SCT260 09/01 A3000 RMK SC1CI2 SLP165

CYQG;2013-10-28 00:00;CYQG 280000Z 21006KT 15SM SCT250 08/02 A3001 RMK CI2 SLP167

CYQG;2013-10-28 01:00;CYQG 280100Z 22007KT 15SM FEW250 07/01 A3001 RMK CI1 SLP167

CYQG;2013-10-28 02:00;CYQG 280200Z 22006KT 15SM FEW250 07/M00 A3001 RMK CI1 SLP169

CYQG;2013-10-28 03:00;CYQG 280300Z 23009KT 15SM FEW250 07/M01 A3003 RMK CI1 SLP172

CYQG;2013-10-28 04:00;CYQG 280400Z 24010KT 15SM SKC 08/M01 A3003 RMK SLP174

CYQG;2013-10-28 05:00;CYQG 280500Z 27008KT 15SM SKC 07/M01 A3006 RMK SLP183

CYQG;2013-10-28 06:00;CYQG 280600Z 25007KT 15SM SKC 06/M01 A3007 RMK SLP187

CYQG;2013-10-28 07:00;CYQG 280700Z 24006KT 15SM SKC 05/M01 A3008 RMK SLP190

CYQG;2013-10-28 08:00;CYQG 280800Z 25004KT 15SM SKC 04/M01 A3009 RMK SLP194

CYQG;2013-10-28 09:00;CYQG 280900Z 22005KT 15SM SKC 04/M01 A3011 RMK SLP199

CYQG;2013-10-28 10:00;CYQG 281000Z 23004KT 15SM FEW260 03/M01 A3013 RMK CI0 CONTRAILS SLP207

CYQG;2013-10-28 11:00;CYQG 281100Z 28003KT 15SM FEW260 03/M01 A3015 RMK CI1 CONTRAILS SLP214

CYQG;2013-10-28 12:00;CYQG 281200Z 32002KT 15SM BKN095 BKN270 04/M01 A3018 RMK AC6CI1 SLP224

CYQG;2013-10-28 13:00;CYQG 281300Z 03005KT 15SM BKN110 BKN270 05/01 A3021 RMK AC6CI1 CONTRAILS SLP236

CYQG;2013-10-28 14:00;CYQG 281400Z 02007KT 15SM SCT090 BKN110 BKN270 07/02 A3024 RMK AC3AC3CI1 SLP244

CYQG;2013-10-28 15:00;CYQG 281500Z 04010KT 15SM BKN110 BKN270 08/03 A3026 RMK AC6CI1 SLP250

CYQG;2013-10-28 16:00;CYQG 281600Z 06009KT 15SM BKN110 BKN270 09/04 A3029 RMK AC5CI2 SLP260

CYQG;2013-10-28 17:00;CYQG 281700Z 04009KT 15SM BKN030 BKN110 10/04 A3029 RMK SC6AC2 SLP263

CYQG;2013-10-28 18:00;CYQG 281800Z 02010KT 15SM FEW020 BKN034 10/05 A3029 RMK CU2SC5 SLP263

CYQG;2013-10-28 19:00;CYQG 281900Z 04013KT 15SM FEW020 BKN039 BKN270 10/04 A3029 RMK CU2SC3CI1 SLP263

CYQG;2013-10-28 20:00;CYQG 282000Z 04013KT 15SM FEW020 BKN034 BKN270 10/02 A3031 RMK CU1SC4CI1 SLP267

CYQG;2013-10-28 21:00;CYQG 282100Z 03012KT 15SM OVC034 08/02 A3032 RMK SC8 SLP271

CYQG;2013-10-28 22:00;CYQG 282200Z 03012KT 15SM BKN034 OVC077 08/01 A3032 RMK SC6AC2 SLP271

CYQG;2013-10-28 23:00;CYQG 282300Z 04012G17KT 15SM BKN032 BKN077 OVC260 07/01 A3033 RMK SC6AC2CI1 SLP276

CYQG;2013-10-29 00:00;CYQG 290000Z 04008KT 15SM FEW034 OVC077 07/00 A3035 RMK SC2AC6 SLP282

CYQG;2013-10-29 01:00;CYQG 290100Z 02008KT 15SM BKN081 06/01 A3035 RMK AC7 SLP285

CYQG;2013-10-29 02:00;CYQG 290200Z 02006KT 15SM FEW037 BKN079 06/00 A3037 RMK SC2AC5 SLP289

CYQG;2013-10-29 03:00;CYQG 290300Z 02007KT 15SM FEW040 BKN077 05/M00 A3038 RMK SC1AC6 SLP292

CYQG;2013-10-29 04:00;CYQG 290400Z 02006KT 15SM FEW035 BKN076 05/M00 A3038 RMK SC2AC6 SLP293

CYQG;2013-10-29 05:00;CYQG 290500Z 01007KT 15SM SCT036 BKN077 05/00 A3039 RMK SC3AC4 SLP295

CYQG;2013-10-29 06:00;CYQG 290600Z 02006KT 15SM FEW038 BKN076 05/00 A3038 RMK SC1AC6 SLP294

CYQG;2013-10-29 07:00;CYQG 290700Z 03007KT 15SM SCT076 BKN260 04/00 A3039 RMK AC3CI0 SLP295

CYQG;2013-10-29 08:00;CYQG 290800Z 03006KT 15SM BKN050 05/01 A3039 RMK SC7 SLP295

CYQG;2013-10-29 09:00;CYQG 290900Z 05008KT 15SM BKN054 06/M00 A3039 RMK SC7 SLP295

CYQG;2013-10-29 10:00;CYQG 291000Z 04007KT 15SM OVC054 06/00 A3040 RMK SC8 SLP300

CYQG;2013-10-29 11:00;CYQG 291100Z 06007KT 15SM OVC052 06/M00 A3041 RMK SC8 SLP302

CYQG;2013-10-29 12:00;CYQG 291200Z 05009KT 15SM BKN030 OVC050 06/M00 A3041 RMK SC7SC1 SLP303

CYQG;2013-10-29 13:00;CYQG 291300Z 06007KT 15SM BKN044 06/00 A3041 RMK SC7 SLP305

CYQG;2013-10-29 14:00;CYQG 291400Z 04008KT 15SM BKN023 BKN040 06/00 A3043 RMK SC5SC2 SLP310

CYQG;2013-10-29 15:00;CYQG 291500Z 07005KT 15SM BKN021 06/00 A3044 RMK SC7 SLP312

CYQG;2013-10-29 16:00;CYQG 291600Z 05006KT 15SM OVC021 07/01 A3043 RMK SC8 SLP311

CYQG;2013-10-29 17:00;CYQG 291700Z 03007KT 15SM BKN026 08/M01 A3041 RMK SC7 SLP302

CYQG;2013-10-29 18:00;CYQG 291800Z 07008KT 15SM FEW030 BKN270 08/00 A3037 RMK SC2CI4 SLP289

CYQG;2013-10-29 19:00;CYQG 291900Z 05005KT 15SM FEW030 BKN270 09/01 A3034 RMK SC1CI5 TR SC SLP280

CYQG;2013-10-29 20:00;CYQG 292000Z 05007KT 15SM SCT110 BKN270 09/01 A3034 RMK AC4CI2 SLP279

CYQG;2013-10-29 21:00;CYQG 292100Z 04007KT 15SM BKN110 BKN240 08/01 A3034 RMK AC5CI2 SLP279

CYQG;2013-10-29 22:00;CYQG 292200Z 04007KT 15SM BKN110 BKN240 08/02 A3032 RMK AC7CI1 SLP272

CYQG;2013-10-29 23:00;CYQG 292300Z 04007KT 15SM BKN110 08/02 A3032 RMK AC7 SLP271

CYQG;2013-10-30 00:00;CYQG 300000Z 06007KT 15SM BKN100 BKN160 07/04 A3031 RMK AC5AC2 SLP268

CYQG;2013-10-30 01:00;CYQG 300100Z 09004KT 15SM BKN100 BKN190 07/04 A3029 RMK AC5AC2 SLP263

CYQG;2013-10-30 02:00;CYQG 300200Z 00000KT 15SM SCT100 BKN190 06/04 A3029 RMK AC3AC2 SLP263

CYQG;2013-10-30 03:00;CYQG 300300Z 06003KT 15SM FEW100 BKN190 05/03 A3027 RMK AC2AC4 SLP256

CYQG;2013-10-30 04:00;CYQG 300400Z 03002KT 15SM BKN190 05/03 A3024 RMK AC6 SLP246

CYQG;2013-10-30 05:00;CYQG 300500Z 04002KT 15SM FEW190 05/03 A3023 RMK AC1 SLP243

CYQG;2013-10-30 06:00;CYQG 300600Z 04004KT 12SM FEW260 05/04 A3022 RMK CI1 SLP237

CYQG;2013-10-30 07:00;CYQG 300700Z 07003KT 10SM MIFG SCT260 05/04 A3020 RMK CI1 SLP232

CYQG;2013-10-30 08:00;CYQG 300800Z 00000KT 8SM MIFG FEW260 03/03 A3018 RMK CI1 SLP225

CYQG;2013-10-30 09:00;CYQG 300900Z 04002KT 6SM BR MIFG FEW260 03/03 A3018 RMK CI1 SLP224

CYQG;2013-10-30 10:00;CYQG 301000Z 04002KT 6SM BR MIFG FEW260 03/02 A3017 RMK CI1 TR CI SLP222

CYQG;2013-10-30 10:45;CYQG 301045Z 36003KT 1/2SM FG SKC RMK FG2 VIS 4 MILES SE-S

CYQG;2013-10-30 11:00;CYQG 301100Z 36002KT 3SM BR SKC 04/03 A3019 RMK FG1 VIS 1/2 MILE NE-E SLP227

CYQG;2013-10-30 12:00;CYQG 301200Z 00000KT 1SM BR PRFG FEW280 03/02 A3018 RMK FG1CI2 VIS 6 N SLP224

CYQG;2013-10-30 12:17;CYQG 301217Z 00000KT 1/2SM FG FEW280 RMK FG1CI2

CYQG;2013-10-30 12:35;CYQG 301235Z 00000KT 1/8SM FG SCT280 RMK FG2CI2

CYQG;2013-10-30 12:51;CYQG 301251Z 00000KT 1/4SM FG FEW280 RMK FG1CI1

CYQG;2013-10-30 13:00;CYQG 301300Z 00000KT 1/2SM FG FEW280 03/02 A3019 RMK FG1CI1 SLP229

CYQG;2013-10-30 13:06;CYQG 301306Z 00000KT 5/8SM BR FEW280 RMK FG1CI1

CYQG;2013-10-30 13:16;CYQG 301316Z 00000KT 2SM BR FEW280 RMK FG1CI1 VIS 6 DIST N

CYQG;2013-10-30 13:19;CYQG 301319Z 00000KT 6SM BR FEW280 RMK CI1

CYQG;2013-10-30 14:00;CYQG 301400Z 00000KT 7SM SCT280 08/07 A3021 RMK CI1 CONTRAILS SLP235

CYQG;2013-10-30 15:00;CYQG 301500Z 17002KT 8SM BKN280 12/07 A3019 RMK CI2 CONTRAILS SLP228

CYQG;2013-10-30 16:00;CYQG 301600Z 20004KT 10SM BKN280 14/07 A3018 RMK CI2 CONTRAILS SLP225

CYQG;2013-10-30 17:00;CYQG 301700Z 20005KT 15SM FEW280 16/07 A3017 RMK CI1 SLP219

CYQG;2013-10-30 18:00;CYQG 301800Z 18005KT 15SM SCT280 16/07 A3012 RMK CI2 SLP201

CYQG;2013-10-30 19:00;CYQG 301900Z 16005KT 15SM BKN280 17/06 A3010 RMK CI2 SLP196

CYQG;2013-10-30 20:00;CYQG 302000Z 18006KT 15SM BKN280 16/05 A3010 RMK CI2 SLP195

CYQG;2013-10-30 21:00;CYQG 302100Z 18006KT 15SM FEW010 BKN280 15/07 A3009 RMK FU1CI5 SLP192

CYQG;2013-10-30 22:00;CYQG 302200Z 13005KT 15SM BKN270 14/08 A3007 RMK CS6 SLP188

CYQG;2013-10-30 23:00;CYQG 302300Z 14003KT 15SM BKN040 OVC270 13/07 A3007 RMK SC7CS1 SLP188

CYQG;2013-10-31 00:00;CYQG 310000Z 13007KT 15SM OVC039 13/07 A3007 RMK SC8 SLP185

CYQG;2013-10-31 01:00;CYQG 310100Z 14006KT 15SM BKN033 OVC100 12/08 A3007 RMK SC6AC2 SLP186

CYQG;2013-10-31 02:00;CYQG 310200Z 14007KT 12SM OVC029 12/09 A3004 RMK SC8 SLP175

CYQG;2013-10-31 02:41;CYQG 310241Z 15005KT 8SM -RA OVC027 RMK SC8

CYQG;2013-10-31 03:00;CYQG 310300Z 15008KT 5SM -RA BR BKN024 OVC043 12/11 A3002 RMK SC5SC3 SLP167

CYQG;2013-10-31 04:00;CYQG 310400Z 15006KT 6SM BR OVC016 12/11 A2998 RMK SC8 INTMT -RA SLP153

CYQG;2013-10-31 05:00;CYQG 310500Z 18005KT 5SM -RA BR BKN008 OVC020 13/12 A2995 RMK SF7SC1 -RA INTMT SLP143

CYQG;2013-10-31 05:19;CYQG 310519Z 16006KT 3SM -TSRA BR BKN008 OVC020CB RMK SF7CB1 -RA INTMT

CYQG;2013-10-31 05:34;CYQG 310534Z 18006KT 3SM -RA BR OVC012 RMK SF8 RETS -RA INTMT

CYQG;2013-10-31 05:41;CYQG 310541Z 17004KT 3SM -TSRA BR BKN012 OVC021CB RMK SF7CB1 -RA INTMT

CYQG;2013-10-31 06:00;CYQG 310600Z 17004KT 3SM -TSRA BR BKN007 OVC017CB 13/13 A2992 RMK SF7CB1 -RA INTMT SLP133

CYQG;2013-10-31 06:18;CYQG 310618Z 16008KT 3SM -TSRA BR OVC024 RMK SC8 CB EMBD

CYQG;2013-10-31 06:48;CYQG 310648Z 16007KT 5SM -RA BR FEW006 BKN027 OVC038 RMK SF2SC5SC1 -RA INTMT

CYQG;2013-10-31 07:40;CYQG 310740Z 18009KT 5SM -RA BR OVC003 RMK SF8 -RA INTMT

CYQG;2013-10-31 08:00;CYQG 310800Z 18011KT 5SM -RA BR OVC003 15/14 A2983 RMK SF8 -RA INTMT SLP101

CYQG;2013-10-31 09:00;CYQG 310900Z 20014G19KT 4SM -RA BR OVC006 16/15 A2979 RMK SF8 SLP089

CYQG;2013-10-31 10:00;CYQG 311000Z 21014G20KT 5SM -RA BR SCT018 OVC100 16/15 A2978 RMK SF3AC5 SLP085

CYQG;2013-10-31 11:00;CYQG 311100Z 22014G20KT 5SM -RA BR SCT005 OVC012 16/15 A2977 RMK SF3SC5 SLP083

CYQG;2013-10-31 12:00;CYQG 311200Z CCA 21012G17KT 3SM -RA BR FEW008 SCT015 OVC090 16/15 A2976 RMK SF2SC2AC4 /R15/ SLP078

CYQG;2013-10-31 13:00;CYQG 311300Z 20010KT 4SM -RA BR BKN019 OVC110 15/15 A2974 RMK SC6AC2 SLP073

CYQG;2013-10-31 14:00;CYQG 311400Z 20013KT 6SM -RA BR OVC037 16/14 A2973 RMK SC8 SLP068

CYQG;2013-10-31 15:00;CYQG 311500Z 20013G18KT 6SM -RA BR FEW035 OVC081 16/14 A2970 RMK SC2AC6 SLP058

CYQG;2013-10-31 15:48;CYQG 311548Z 22018G24KT 2SM -RA BR BKN028 OVC080 RMK FG1SC6AC2

CYQG;2013-10-31 16:00;CYQG 311600Z 21015G22KT 1 1/2SM -RA BR OVC024 15/14 A2968 RMK FG2SC6 SLP053

CYQG;2013-10-31 16:17;CYQG 311617Z 21016G24KT 2SM -RA BR BKN025 OVC055 RMK FG1SC6SC2

CYQG;2013-10-31 17:00;CYQG 311700Z 22016G21KT 3SM -RA BR FEW008 SCT016 OVC055 15/14 A2965 RMK SF2SC2SC4 SLP042

CYQG;2013-10-31 17:49;CYQG 311749Z 19013G18KT 1 1/2SM -RA BR SCT008 OVC038 RMK FG2SF2SC4

CYQG;2013-10-31 18:00;CYQG 311800Z 20014KT 3SM -RA BR FEW008 OVC023 15/14 A2962 RMK SF2SC6 SLP030

CYQG;2013-10-31 19:00;CYQG 311900Z 20015G21KT 3SM -RA BR SCT008 OVC020 15/14 A2957 RMK SF4SC4 SLP014

CYQG;2013-10-31 20:00;CYQG 312000Z 19016KT 4SM -RA BR SCT008 OVC016 15/15 A2952 RMK SF4SC4 SLP999

CYQG;2013-10-31 20:11;CYQG 312011Z 19015KT 5SM -RA BR BKN008 OVC016 RMK SF6SC2

CYQG;2013-10-31 20:51;CYQG 312051Z 20015G24KT 4SM -RA BR SCT010 OVC020 RMK SC3SC5

CYQG;2013-10-31 21:00;CYQG 312100Z 20012G20KT 4SM -RA BR SCT010 OVC021 15/14 A2949 RMK SC3SC5 SLP986

CYQG;2013-10-31 21:15;CYQG 312115Z 19014G19KT 3SM -RA BR SCT009 OVC020 RMK SF4SC4

CYQG;2013-10-31 21:35;CYQG 312135Z 19015KT 4SM -RA BR OVC008 RMK SF8

CYQG;2013-10-31 22:00;CYQG 312200Z 19017G25KT 3SM -RA BR OVC007 15/14 A2944 RMK SF8 SLP970

CYQG;2013-10-31 22:14;CYQG 312214Z 18014G19KT 2 1/2SM -RA BR OVC006 RMK SF8

CYQG;2013-10-31 22:45;CYQG 312245Z 18017KT 2 1/2SM -RA BR OVC005 RMK SF8

CYQG;2013-10-31 23:00;CYQG 312300Z 18014G21KT 4SM -RA BR BKN005 OVC012 14/14 A2939 RMK SF6SC2 SLP952

CYQG;2013-10-31 23:19;CYQG 312319Z 20016G22KT 5SM -RA BR OVC007 RMK SF8

CYQG;2013-11-01 00:00;CYQG 010000Z 20022G27KT 10SM -RA OVC008 15/14 A2935 RMK SF8 SLP938

CYQG;2013-11-01 01:00;CYQG 010100Z 20015G21KT 4SM -RA BR BKN006 OVC032 15/15 A2931 RMK SF6SC2 SLP923

CYQG;2013-11-01 02:00;CYQG 010200Z CCA 18017KT 6SM -RA BR BKN009 OVC018 16/15 A2924 RMK SF5SC3 PRESFR SLP900

CYQG;2013-11-01 02:41;CYQG 010241Z 20020G30KT 4SM RA BR OVC007 RMK SF8

CYQG;2013-11-01 03:00;CYQG 010300Z 22014G25KT 7SM -RA OVC007 16/15 A2922 RERA RMK SF8 SLP894

CYQG;2013-11-01 04:00;CYQG 010400Z 20012G18KT 10SM -RA FEW007 OVC040 15/15 A2918 RMK SF2SC6 SLP881

CYQG;2013-11-01 05:00;CYQG 010500Z 23013G20KT 7SM -RA BKN005 OVC040 15/15 A2917 RMK SF6SC2 SLP878

CYQG;2013-11-01 06:00;CYQG 010600Z 23013G20KT 12SM -RA BKN009 BKN140 15/15 A2914 RMK SF6AC2 SLP868

CYQG;2013-11-01 06:44;CYQG 010644Z 24018G24KT 12SM BKN020 OVC080 RMK SF5AC3

CYQG;2013-11-01 07:00;CYQG 010700Z 23018G28KT 15SM OVC012 15/13 A2920 RMK SC8 SLP886

CYQG;2013-11-01 07:50;CYQG 010750Z 25016G22KT 15SM -RA OVC015 RMK SC8

CYQG;2013-11-01 08:00;CYQG 010800Z 25019G25KT 15SM BKN021 13/11 A2925 RMK SC7 INTMT -RA SLP903

CYQG;2013-11-01 08:34;CYQG 010834Z 25016G24KT 15SM OVC021 RMK SC8

CYQG;2013-11-01 09:00;CYQG 010900Z 25018G32KT 15SM BKN025 12/09 A2928 RMK SC7 SLP917

CYQG;2013-11-01 10:00;CYQG 011000Z 25020G29KT 15SM FEW031 12/07 A2933 RMK SC2 SLP933

CYQG;2013-11-01 11:00;CYQG 011100Z 24021G30KT 15SM OVC020 10/06 A2938 RMK SC8 SLP950

CYQG;2013-11-01 12:00;CYQG 011200Z 26022G34KT 15SM OVC025 10/05 A2943 RMK SC8 SLP966

CYQG;2013-11-01 13:00;CYQG 011300Z 25018G27KT 15SM BKN029 09/05 A2947 RMK SC7 SLP981

CYQG;2013-11-01 14:00;CYQG 011400Z 25022G29KT 15SM BKN030 09/04 A2951 RMK SC7 SLP994

CYQG;2013-11-01 15:00;CYQG 011500Z 26019G33KT 15SM BKN031 10/04 A2953 RMK SC7 SLP001

CYQG;2013-11-01 16:00;CYQG 011600Z 25015KT 15SM OVC029 10/05 A2955 RMK SC8 SLP009

CYQG;2013-11-01 17:00;CYQG 011700Z 25015KT 15SM OVC029 10/05 A2958 RMK SC8 SLP017

CYQG;2013-11-01 18:00;CYQG 011800Z 26013G19KT 15SM OVC024 10/05 A2958 RMK SC8 SLP019

CYQG;2013-11-01 19:00;CYQG 011900Z 25013G18KT 15SM OVC035 10/05 A2959 RMK SC8 SLP021

CYQG;2013-11-01 20:00;CYQG 012000Z 25012KT 15SM BKN029 OVC045 09/05 A2961 RMK SC5SC3 SLP027

CYQG;2013-11-01 21:00;CYQG 012100Z 25011G17KT 15SM FEW019 OVC036 09/05 A2962 RMK SC2SC6 SLP031

CYQG;2013-11-01 22:00;CYQG 012200Z 25009KT 15SM FEW032 BKN054 09/05 A2962 RMK SC1SC6 SLP031

CYQG;2013-11-01 23:00;CYQG 012300Z 25007KT 15SM OVC052 09/05 A2964 RMK SC8 SLP037

CYQG;2013-11-02 00:00;CYQG 020000Z 27011KT 15SM BKN058 09/05 A2965 RMK SC7 SLP043

CYQG;2013-11-02 01:00;CYQG 020100Z 25008KT 15SM BKN064 09/05 A2966 RMK SC7 SLP045

CYQG;2013-11-02 02:00;CYQG 020200Z 23008KT 15SM FEW034 OVC061 08/05 A2966 RMK SC1SC7 SLP046

CYQG;2013-11-02 03:00;CYQG 020300Z 24008KT 15SM BKN032 OVC063 08/05 A2967 RMK SC5SC3 SLP051

CYQG;2013-11-02 04:00;CYQG 020400Z 24005KT 15SM OVC069 08/05 A2967 RMK AC8 SLP050

CYQG;2013-11-02 05:00;CYQG 020500Z 24005KT 15SM FEW017 FEW035 OVC080 08/05 A2966 RMK CF1SC2AC6 SLP047

CYQG;2013-11-02 06:00;CYQG 020600Z 25006KT 10SM BKN017 OVC040 08/05 A2965 RMK SC6SC2 SLP045

CYQG;2013-11-02 07:00;CYQG 020700Z 26006KT 10SM BKN015 OVC037 08/05 A2965 RMK SC7SC1 SLP045

CYQG;2013-11-02 07:57;CYQG 020757Z 26006KT 10SM -RA OVC015 RMK SC8

CYQG;2013-11-02 08:00;CYQG 020800Z 26005KT 8SM OVC015 08/06 A2965 RMK SC8 SLP044

CYQG;2013-11-02 09:00;CYQG 020900Z 27006KT 6SM -RA BR SCT015 OVC036 08/06 A2966 RMK SC3SC5 SLP046

CYQG;2013-11-02 10:00;CYQG 021000Z 26005KT 5SM -RA BR FEW015 OVC036 08/07 A2967 RMK SC2SC6 SLP050

CYQG;2013-11-02 11:00;CYQG 021100Z 27007KT 5SM -RA BR FEW007 OVC036 08/07 A2968 RMK SF1SC7 SLP055

CYQG;2013-11-02 12:00;CYQG 021200Z 27006KT 6SM -RA BR SCT009 BKN015 OVC032 08/07 A2969 RMK SF4SC2SC2 SLP058

CYQG;2013-11-02 13:00;CYQG 021300Z 27008KT 5SM -RA BR FEW007 BKN018 OVC042 08/07 A2972 RMK SF2SC4SC2 SLP066

CYQG;2013-11-02 13:50;CYQG 021350Z 33007KT 6SM -RA BR BKN007 OVC035 RMK SF6SC2

CYQG;2013-11-02 14:00;CYQG 021400Z 34010G16KT 7SM -RA BKN007 OVC017 08/07 A2974 RMK SF5SC3 SLP073

CYQG;2013-11-02 14:25;CYQG 021425Z 34007KT 8SM -RA SCT008 OVC037 RMK SF3SC5

CYQG;2013-11-02 15:00;CYQG 021500Z 33009KT 12SM -RA FEW008 OVC048 08/06 A2976 RMK SF2SC6 SLP080

CYQG;2013-11-02 15:29;CYQG 021529Z 33010KT 15SM BKN020 BKN071 RMK CU5AC2

CYQG;2013-11-02 16:00;CYQG 021600Z 32011G16KT 15SM BKN020 08/05 A2978 RMK CU7 SLP089

CYQG;2013-11-02 17:00;CYQG 021700Z 33011KT 15SM BKN023 08/05 A2980 RMK CU7 SLP095

CYQG;2013-11-02 18:00;CYQG 021800Z 32010KT 15SM VCSH BKN028 09/05 A2980 RMK CU7 SLP096

CYQG;2013-11-02 18:47;CYQG 021847Z 36009G15KT 12SM -SHRA BKN019 RMK CU7

CYQG;2013-11-02 19:00;CYQG 021900Z 36010KT 12SM -SHRA BKN022 07/05 A2983 RMK CU7 SLP104

CYQG;2013-11-02 20:00;CYQG 022000Z 33006KT 7SM -RA OVC030 08/06 A2986 RMK SC8 SLP113

CYQG;2013-11-02 21:00;CYQG 022100Z 35011KT 7SM -RA BKN016 OVC035 07/06 A2989 RMK SC6SC2 SLP126

CYQG;2013-11-02 22:00;CYQG 022200Z 36008KT 8SM -RA BKN032 OVC061 07/04 A2992 RMK SC6SC2 SLP137

CYQG;2013-11-02 23:00;CYQG 022300Z 36009KT 15SM -RA FEW024 OVC070 06/03 A2996 RMK SC2AC6 SLP149

CYQG;2013-11-02 23:54;CYQG 022354Z 02012KT 15SM FEW022 OVC070 RMK SC1AC7

CYQG;2013-11-03 05:00;CYQG 030500Z 35007KT 15SM OVC022 04/00 A3010 RMK SC8 SLP198

CYQG;2013-11-03 06:00;CYQG 030600Z 36006KT 15SM OVC025 04/00 A3012 RMK SC8 SLP203

CYQG;2013-11-03 07:00;CYQG 030700Z 34002KT 15SM BKN032 03/M00 A3014 RMK SC5 SLP212

CYQG;2013-11-03 08:00;CYQG 030800Z 33005KT 15SM BKN032 BKN130 03/M00 A3017 RMK SC6AC2 SLP222

CYQG;2013-11-03 09:00;CYQG 030900Z 36003KT 15SM BKN032 BKN130 03/00 A3019 RMK SC5AC2 SLP229

CYQG;2013-11-03 10:00;CYQG 031000Z 36003KT 15SM BKN030 03/00 A3022 RMK SC6 SLP239

CYQG;2013-11-03 11:00;CYQG 031100Z 36006KT 15SM BKN032 03/00 A3024 RMK SC7 SLP246

CYQG;2013-11-03 12:00;CYQG 031200Z 36004KT 15SM BKN030 03/00 A3026 RMK SC7 SLP254

CYQG;2013-11-03 13:00;CYQG 031300Z 01002KT 15SM FEW030 03/00 A3031 RMK SC2 SLP269

CYQG;2013-11-03 14:00;CYQG 031400Z 13004KT 15SM BKN022 04/M01 A3034 RMK CU5 SLP280

CYQG;2013-11-03 15:00;CYQG 031500Z 11009KT 15SM BKN027 04/M02 A3035 RMK SC7 SLP284

CYQG;2013-11-03 16:00;CYQG 031600Z 12007KT 15SM BKN029 05/M02 A3038 RMK SC7 SLP293

CYQG;2013-11-03 17:00;CYQG 031700Z 12002KT 15SM BKN032 05/M01 A3038 RMK SC7 SLP295

CYQG;2013-11-03 18:00;CYQG 031800Z 08007KT 15SM BKN031 06/M00 A3038 RMK SC6 SLP292

CYQG;2013-11-03 19:00;CYQG 031900Z 05006KT 15SM BKN032 06/M01 A3038 RMK SC6 SLP292

CYQG;2013-11-03 20:00;CYQG 032000Z 08004KT 15SM BKN030 06/M01 A3038 RMK SC5 SLP295

CYQG;2013-11-03 21:00;CYQG 032100Z 06005KT 15SM BKN032 BKN260 05/M01 A3039 RMK SC6CI1 TR CI SLP299

CYQG;2013-11-03 22:00;CYQG 032200Z 07007KT 15SM SCT032 SCT260 05/M01 A3039 RMK SC3CI1 TR CI SLP299

CYQG;2013-11-03 23:00;CYQG 032300Z 07003KT 15SM FEW032 04/M01 A3041 RMK SC1 SLP304

CYQG;2013-11-04 00:00;CYQG 040000Z CCA 09003KT 15SM FEW032 04/M01 A3042 RMK SC1 SLP309

CYQG;2013-11-04 01:00;CYQG 040100Z 11003KT 15SM FEW030 03/M01 A3044 RMK SC1 TR SC SLP315

CYQG;2013-11-04 02:00;CYQG 040200Z 09006KT 15SM FEW030 02/M01 A3044 RMK SC1 TR SC SLP314

CYQG;2013-11-04 03:00;CYQG 040300Z 08005KT 15SM FEW260 02/M01 A3044 RMK CI1 SLP315

CYQG;2013-11-04 04:00;CYQG 040400Z 09008KT 15SM SCT260 02/M02 A3045 RMK CI2 SLP317

CYQG;2013-11-04 05:00;CYQG 040500Z 10004KT 15SM SCT260 02/M03 A3045 RMK CI2 SLP319

CYQG;2013-11-04 06:00;CYQG 040600Z 11002KT 15SM FEW260 01/M03 A3047 RMK CI1 SLP323

CYQG;2013-11-04 07:00;CYQG 040700Z 10004KT 15SM FEW260 01/M02 A3046 RMK CI1 SLP321

CYQG;2013-11-04 08:00;CYQG 040800Z 09002KT 15SM SCT240 01/M02 A3047 RMK CI2 SLP323

CYQG;2013-11-04 09:00;CYQG 040900Z 09003KT 15SM SCT240 M00/M02 A3047 RMK CI2 SLP326

CYQG;2013-11-04 10:00;CYQG 041000Z 12007KT 15SM SCT260 02/M01 A3048 RMK CI2 SLP328

CYQG;2013-11-04 11:00;CYQG 041100Z 12005KT 15SM FEW100 SCT260 02/M03 A3048 RMK AC1CI2 SLP328

CYQG;2013-11-04 12:00;CYQG 041200Z 12006KT 15SM FEW100 BKN260 02/M02 A3048 RMK AC1CI4 SLP328

CYQG;2013-11-04 13:00;CYQG 041300Z 14008KT 15SM OVC270 04/M01 A3049 RMK CI6 SLP331

CYQG;2013-11-04 14:00;CYQG 041400Z 14010KT 15SM BKN270 05/00 A3047 RMK CI6 SLP327

CYQG;2013-11-04 15:00;CYQG 041500Z 13013KT 15SM OVC260 05/00 A3047 RMK CS7 SLP326

CYQG;2013-11-04 17:00;CYQG 041700Z 14013KT 15SM BKN270 08/01 A3047 RMK CI4 SLP323

CYQG;2013-11-04 18:00;CYQG 041800Z 13012G17KT 15SM BKN280 09/M01 A3041 RMK CI5 SLP304

CYQG;2013-11-04 19:00;CYQG 041900Z 13012G17KT 15SM FEW140 BKN280 09/M01 A3039 RMK AC2CI4 SLP297

CYQG;2013-11-04 20:00;CYQG 042000Z 12014KT 15SM SCT190 BKN280 08/M00 A3037 RMK AC4CI2 SLP289

CYQG;2013-11-04 21:00;CYQG 042100Z 11012KT 15SM FEW032 BKN200 BKN270 08/M00 A3037 RMK SC1CC4CI2 SLP291

CYQG;2013-11-04 22:00;CYQG 042200Z 14007KT 15SM FEW190 BKN240 BKN270 07/00 A3037 RMK AC2CS2CI2 SLP290

CYQG;2013-11-04 23:00;CYQG 042300Z 12005KT 15SM FEW180 FEW230 BKN260 06/00 A3037 RMK AC1CS1CI1 SLP291

CYQG;2013-11-05 00:00;CYQG 050000Z 13006KT 15SM SCT150 BKN180 BKN260 05/00 A3035 RMK AC3AC2CI1 SLP283

CYQG;2013-11-05 01:00;CYQG 050100Z 17006KT 15SM BKN150 07/00 A3034 RMK AC7 SLP280

CYQG;2013-11-05 02:00;CYQG 050200Z 17008KT 15SM BKN150 07/01 A3033 RMK AC7 SLP278

CYQG;2013-11-05 03:00;CYQG 050300Z 16005KT 15SM FEW150 07/01 A3033 RMK AC2 SLP277

CYQG;2013-11-05 04:00;CYQG 050400Z 16005KT 15SM BKN140 06/02 A3033 RMK AC2 SLP276

CYQG;2013-11-05 05:00;CYQG 050500Z 18005KT 15SM BKN120 07/03 A3032 RMK AC6 SLP273

CYQG;2013-11-05 06:00;CYQG 050600Z 20008KT 15SM BKN120 08/04 A3032 RMK AC4 SLP270

CYQG;2013-11-05 07:00;CYQG 050700Z 20009KT 15SM BKN110 08/04 A3032 RMK AC6 SLP271

CYQG;2013-11-05 08:00;CYQG 050800Z 20008KT 15SM SCT100 08/04 A3032 RMK AC2 SLP273

CYQG;2013-11-05 09:00;CYQG 050900Z 20008KT 15SM FEW100 SCT260 08/04 A3032 RMK AC2CI1 SLP273

CYQG;2013-11-05 10:00;CYQG 051000Z 20009KT 15SM FEW100 SCT260 08/05 A3033 RMK AC2CI1 SLP276

CYQG;2013-11-05 11:00;CYQG 051100Z 20007KT 15SM BKN074 09/05 A3033 RMK AC7 SLP275

CYQG;2013-11-05 12:00;CYQG 051200Z 21008KT 15SM BKN081 09/04 A3034 RMK AC7 SLP280

CYQG;2013-11-05 13:00;CYQG 051300Z 21009KT 15SM BKN075 09/05 A3035 RMK AC7 SLP284

CYQG;2013-11-05 14:00;CYQG 051400Z 21007KT 15SM BKN080 09/06 A3036 RMK AC7 SLP286

CYQG;2013-11-05 15:00;CYQG 051500Z 21009KT 15SM BKN080 BKN130 10/06 A3036 RMK AC5AC2 SLP286

CYQG;2013-11-05 16:00;CYQG 051600Z 22011KT 15SM SCT080 BKN140 11/06 A3037 RMK AC3AC4 SLP288

CYQG;2013-11-05 17:00;CYQG 051700Z 20011KT 15SM FEW100 BKN140 BKN280 12/07 A3035 RMK AC2AC5CI1 SLP282

CYQG;2013-11-05 18:00;CYQG 051800Z 22009KT 15SM BKN090 OVC140 13/07 A3033 RMK AC7AC1 SLP274

CYQG;2013-11-05 19:00;CYQG 051900Z 18005KT 15SM OVC075 12/07 A3031 RMK AC8 SLP268

CYQG;2013-11-05 20:00;CYQG 052000Z 20009KT 15SM OVC063 12/08 A3032 RMK SC8 SLP271

CYQG;2013-11-05 21:00;CYQG 052100Z 19007KT 12SM BKN054 OVC095 12/08 A3031 RMK SC6AC2 SLP268

CYQG;2013-11-05 22:00;CYQG 052200Z 20008KT 10SM BKN055 OVC110 12/09 A3031 RMK SC6AC2 SLP266

CYQG;2013-11-05 23:00;CYQG 052300Z 17007KT 10SM BKN054 BKN130 OVC210 11/09 A3029 RMK SC5AC2CC1 SLP261

CYQG;2013-11-06 00:00;CYQG 060000Z 18005KT 12SM FEW055 SCT210 10/08 A3029 RMK SC2CC2 SLP260

CYQG;2013-11-06 01:00;CYQG 060100Z 18006KT 10SM SCT130 BKN210 10/08 A3027 RMK AC3CC2 SLP254

CYQG;2013-11-06 02:00;CYQG 060200Z 16006KT 12SM BKN130 11/08 A3026 RMK AC7 SLP250

CYQG;2013-11-06 03:00;CYQG 060300Z 18006KT 15SM BKN130 12/07 A3025 RMK AC6 SLP245

CYQG;2013-11-06 04:00;CYQG 060400Z 18008KT 15SM BKN130 11/07 A3022 RMK AC6 SLP236

CYQG;2013-11-06 05:00;CYQG 060500Z 18009KT 15SM SCT110 11/06 A3019 RMK AC4 SLP227

CYQG;2013-11-06 06:00;CYQG 060600Z 18009KT 15SM FEW120 BKN170 11/06 A3017 RMK AC1AC6 SLP220

CYQG;2013-11-06 07:00;CYQG 060700Z 18009KT 15SM BKN170 11/05 A3013 RMK AC6 SLP206

CYQG;2013-11-06 08:00;CYQG 060800Z 18009KT 15SM SCT056 BKN130 11/05 A3012 RMK SC3AC4 SLP202

CYQG;2013-11-06 09:00;CYQG 060900Z 19012KT 15SM OVC064 11/05 A3009 RMK SC8 SLP191

CYQG;2013-11-06 10:00;CYQG 061000Z 18011G16KT 15SM OVC059 11/05 A3007 RMK SC8 SLP184

CYQG;2013-11-06 11:00;CYQG 061100Z 18011KT 15SM OVC060 12/05 A3003 RMK SC8 SLP173

CYQG;2013-11-06 11:36;CYQG 061136Z 19012KT 15SM -SHRA OVC059 RMK SC8

CYQG;2013-11-06 11:55;CYQG 061155Z 19014KT 15SM OVC061 RMK SC8

CYQG;2013-11-06 12:00;CYQG 061200Z 19015KT 15SM OVC061 12/06 A3001 RMK SC8 SLP164

CYQG;2013-11-06 13:00;CYQG 061300Z 20015G20KT 15SM BKN075 OVC100 12/07 A2999 RMK AC5AC3 SLP157

CYQG;2013-11-06 13:27;CYQG 061327Z 20019KT 15SM -SHRA BKN068 OVC090 RMK AC6AC2

CYQG;2013-11-06 14:00;CYQG 061400Z 21017KT 15SM -SHRA OVC059 13/07 A2999 RMK SC8 SLP159

CYQG;2013-11-06 15:00;CYQG 061500Z 20012KT 15SM -SHRA OVC067 12/08 A2997 RMK AC8 SLP152

CYQG;2013-11-06 16:00;CYQG 061600Z 21015KT 12SM -RA OVC060 12/09 A2996 RMK SC8 SLP148

CYQG;2013-11-06 17:00;CYQG 061700Z 22012KT 15SM -RA FEW028 OVC100 13/10 A2993 RMK SC2AS6 SLP138

CYQG;2013-11-06 18:00;CYQG 061800Z 21017G22KT 15SM -RA FEW028 BKN060 OVC110 14/10 A2989 RMK SC2SC6AS1 SLP123

CYQG;2013-11-06 19:00;CYQG 061900Z 22021G31KT 12SM -RA OVC019 13/11 A2986 RMK SC8 SLP113

CYQG;2013-11-06 20:00;CYQG 062000Z 21017G22KT 10SM -RA FEW011 OVC018 12/11 A2985 RMK SC2SC6 SLP109

CYQG;2013-11-06 21:00;CYQG 062100Z 22016G25KT 10SM FEW012 OVC016 13/11 A2985 RMK SC2SC6 INTMT -RA SLP111

CYQG;2013-11-06 22:00;CYQG 062200Z 24019G27KT 10SM -RA OVC016 14/12 A2986 RMK SC8 -RA INTMT SLP112

CYQG;2013-11-06 23:00;CYQG 062300Z 23018G27KT 10SM OVC015 13/11 A2986 RMK SC8 INTMT -RA SLP112

CYQG;2013-11-07 00:00;CYQG 070000Z 22015KT 10SM OVC016 14/11 A2985 RMK SC8 INTMT -RA SLP108

CYQG;2013-11-07 00:48;CYQG 070048Z 23017KT 12SM OVC017 RMK SC8

CYQG;2013-11-07 01:00;CYQG 070100Z 23015KT 12SM OVC019 14/11 A2987 RMK SC8 SLP116

CYQG;2013-11-07 01:37;CYQG 070137Z 29016G22KT 7SM -RA OVC021 RMK SC8

CYQG;2013-11-07 02:00;CYQG 070200Z 30012G20KT 6SM -RA BR FEW021 OVC030 10/08 A2989 RMK SC1SC8 SLP124

CYQG;2013-11-07 03:00;CYQG 070300Z 30014G21KT 10SM BKN015 OVC090 09/06 A2992 RMK SC6AC2 INTMT -RA SLP133

CYQG;2013-11-07 03:36;CYQG 070336Z 30014G19KT 12SM BKN015 OVC090 RMK SC6AC2

CYQG;2013-11-07 04:00;CYQG 070400Z 31019G24KT 12SM BKN021 OVC093 09/06 A2995 RMK SC6AC2 SLP145

CYQG;2013-11-07 05:00;CYQG 070500Z 31013KT 15SM OVC018 08/04 A2997 RMK SC8 SLP152

CYQG;2013-11-07 06:00;CYQG 070600Z 31013KT 15SM FEW038 BKN130 BKN220 07/03 A2998 RMK SC2AC3CI2 SLP156

CYQG;2013-11-07 07:00;CYQG 070700Z 32010G16KT 15SM SCT022 BKN240 06/03 A3000 RMK SC3CI2 SLP162

CYQG;2013-11-07 08:00;CYQG 070800Z 33012KT 15SM BKN028 BKN230 06/02 A3002 RMK SC6CI1 SLP168

CYQG;2013-11-07 09:00;CYQG 070900Z 32003KT 15SM BKN022 OVC049 06/02 A3002 RMK SC5SC3 SLP169

CYQG;2013-11-07 10:00;CYQG 071000Z 28007KT 15SM SCT023 BKN053 06/02 A3004 RMK SC3SC4 SLP176

CYQG;2013-11-07 10:55;CYQG 071055Z 30006KT 15SM -DZ SCT025 OVC054 RMK SC4SC4

CYQG;2013-11-07 11:00;CYQG 071100Z 30008KT 15SM -DZ SCT025 OVC052 05/02 A3005 RMK SC4SC4 SLP180

CYQG;2013-11-07 11:43;CYQG 071143Z 29009KT 15SM SCT025 OVC054 RMK SC3SC5

CYQG;2013-11-07 12:00;CYQG 071200Z 31012KT 15SM SCT025 OVC054 05/01 A3007 RMK SC3SC5 SLP185

CYQG;2013-11-07 13:00;CYQG 071300Z 29014G20KT 15SM FEW022 BKN053 04/M03 A3009 RMK SC1SC5 SLP194

CYQG;2013-11-07 14:00;CYQG 071400Z 30015KT 15SM FEW022 FEW052 04/M03 A3010 RMK CF1SC1 SLP197

CYQG;2013-11-07 15:00;CYQG 071500Z 30013G20KT 15SM FEW033 04/M04 A3011 RMK CU2 SLP199

CYQG;2013-11-07 16:00;CYQG 071600Z 30013G19KT 15SM SCT041 05/M04 A3011 RMK CU3 SLP201

CYQG;2013-11-07 17:00;CYQG 071700Z 28013G20KT 15SM BKN047 06/M05 A3011 RMK CU6 SLP202

CYQG;2013-11-07 18:00;CYQG 071800Z 31014G22KT 15SM BKN050 06/M05 A3011 RMK SC7 SLP199

CYQG;2013-11-07 19:00;CYQG 071900Z 30017KT 15SM SCT054 05/M05 A3010 RMK SC3 SLP196

CYQG;2013-11-07 20:00;CYQG 072000Z 29016KT 15SM FEW053 07/M05 A3008 RMK CU2 SLP192

CYQG;2013-11-07 21:00;CYQG 072100Z 30011G16KT 15SM BKN057 06/M04 A3008 RMK CU6 SLP192

CYQG;2013-11-07 22:00;CYQG 072200Z 29012KT 15SM BKN065 07/M09 A3008 RMK CU6 SLP191

CYQG;2013-11-07 23:00;CYQG 072300Z 28007KT 15SM OVC052 06/M04 A3009 RMK SC8 SLP195

CYQG;2013-11-08 00:00;CYQG 080000Z 28011G17KT 15SM OVC071 06/M03 A3010 RMK AC8 SLP199

CYQG;2013-11-08 00:54;CYQG 080054Z 29015G22KT 15SM -RA OVC042 RMK SC8

CYQG;2013-11-08 01:00;CYQG 080100Z 28015KT 15SM -RA OVC041 06/M02 A3010 RMK SC8 SLP197

CYQG;2013-11-08 02:00;CYQG 080200Z 28010KT 7SM -RA OVC037 04/00 A3009 RMK SC8 SLP196

CYQG;2013-11-08 02:35;CYQG 080235Z 31013KT 5SM -SN OVC011 RMK SC8

CYQG;2013-11-08 03:00;CYQG 080300Z 28010G15KT 7SM -SN OVC012 02/00 A3010 RMK SF8 SLP200

CYQG;2013-11-08 03:06;CYQG 080306Z 28008KT 7SM -RA SCT012 OVC065 RMK SF4SC4

CYQG;2013-11-08 04:00;CYQG 080400Z 27008KT 7SM -RA FEW015 BKN092 02/01 A3010 RMK SC2AC4 SLP199

CYQG;2013-11-08 05:00;CYQG 080500Z 28009KT 8SM -RA FEW015 BKN081 03/01 A3010 RMK SC2AC5 SLP200

CYQG;2013-11-08 06:00;CYQG 080600Z 30007KT 8SM -RA FEW022 BKN080 02/M00 A3011 RMK SC2AC3 SLP203

CYQG;2013-11-08 07:00;CYQG 080700Z 27008KT 10SM FEW022 SCT080 02/M01 A3012 RMK SC1AC3 SLP205

CYQG;2013-11-08 08:00;CYQG 080800Z 28010KT 12SM FEW084 01/M02 A3014 RMK AC2 SLP210

CYQG;2013-11-08 09:00;CYQG 080900Z 27010KT 15SM BKN078 02/M02 A3015 RMK AC6 SLP217

CYQG;2013-11-08 10:00;CYQG 081000Z 29008KT 15SM BKN080 01/M02 A3016 RMK AC5 SLP220

CYQG;2013-11-08 11:00;CYQG 081100Z 28010KT 15SM SCT080 01/M02 A3018 RMK AC3 SLP226

CYQG;2013-11-08 12:00;CYQG 081200Z 28008KT 15SM FEW080 01/M02 A3021 RMK AC1 SLP235

CYQG;2013-11-08 13:00;CYQG 081300Z 27007KT 15SM FEW080 01/M02 A3024 RMK AC1 SLP245

CYQG;2013-11-08 14:00;CYQG 081400Z 29010KT 15SM FEW060 03/M02 A3026 RMK SC1 SLP252

CYQG;2013-11-08 15:00;CYQG 081500Z 29010KT 15SM FEW059 03/M02 A3026 RMK SC2 SLP255

CYQG;2013-11-08 16:00;CYQG 081600Z 29010KT 15SM FEW032 05/M02 A3028 RMK CU2 SLP260

CYQG;2013-11-08 17:00;CYQG 081700Z 31010G18KT 15SM SCT035 06/M03 A3027 RMK CU3 SLP256

CYQG;2013-11-08 18:00;CYQG 081800Z 28009KT 15SM BKN047 06/M04 A3026 RMK SC7 SLP253

CYQG;2013-11-08 19:00;CYQG 081900Z 28009KT 15SM BKN050 BKN280 06/M04 A3024 RMK SC6CI1 SLP248

CYQG;2013-11-08 20:00;CYQG 082000Z 27007KT 15SM BKN048 BKN280 07/M04 A3024 RMK SC6CI1 SLP247

CYQG;2013-11-08 21:00;CYQG 082100Z 22010KT 15SM FEW048 FEW280 07/M04 A3023 RMK SC2CI1 SLP244

CYQG;2013-11-08 22:00;CYQG 082200Z 20003KT 15SM FEW048 FEW280 06/M04 A3023 RMK SC2CI1 SLP244

CYQG;2013-11-08 23:00;CYQG 082300Z 23007KT 15SM FEW280 05/M04 A3023 RMK CI2 SLP244

CYQG;2013-11-09 00:00;CYQG 090000Z 22005KT 15SM SKC 04/M03 A3024 RMK SLP247

CYQG;2013-11-09 01:00;CYQG 090100Z 19004KT 15SM SKC 03/M03 A3023 RMK SLP244

CYQG;2013-11-09 02:00;CYQG 090200Z 19004KT 15SM SKC 02/M03 A3023 RMK SLP242

CYQG;2013-11-09 03:00;CYQG 090300Z 19004KT 15SM FEW280 02/M02 A3022 RMK CS1 SLP240

CYQG;2013-11-09 04:00;CYQG 090400Z 18004KT 15SM FEW160 03/M01 A3021 RMK AC2 SLP238

CYQG;2013-11-09 05:00;CYQG 090500Z 17005KT 15SM BKN091 03/M00 A3019 RMK AC6 SLP229

CYQG;2013-11-09 06:00;CYQG 090600Z 16005KT 15SM BKN120 04/00 A3018 RMK AC7 SLP226

CYQG;2013-11-09 07:00;CYQG 090700Z 17007KT 15SM FEW080 BKN130 OVC210 04/01 A3016 RMK AC1AC6CI1 SLP218

CYQG;2013-11-09 08:00;CYQG 090800Z 16007KT 15SM OVC130 04/01 A3013 RMK AC8 SLP209

CYQG;2013-11-09 09:00;CYQG 090900Z 17007KT 15SM OVC140 05/01 A3010 RMK AC8 SLP198

CYQG;2013-11-09 10:00;CYQG 091000Z 18008KT 15SM OVC120 05/01 A3007 RMK AC8 SLP189

CYQG;2013-11-09 11:00;CYQG 091100Z 18014KT 15SM OVC087 06/00 A3004 RMK AC8 SLP177

CYQG;2013-11-09 12:00;CYQG 091200Z 19016G21KT 15SM BKN150 06/00 A3001 RMK AC7 SLP166

CYQG;2013-11-09 13:00;CYQG 091300Z 20019G24KT 15SM BKN130 BKN260 07/M00 A2998 RMK AC7CI1 TR CI SLP158

CYQG;2013-11-09 14:00;CYQG 091400Z 21019G25KT 15SM FEW030 FEW120 SCT260 08/00 A2996 RMK SC1AC1CI1 SLP150

CYQG;2013-11-09 15:00;CYQG 091500Z 21025G30KT 15SM FEW100 FEW260 09/00 A2992 RMK AC1CI1 SLP135

CYQG;2013-11-09 16:00;CYQG 091600Z 22017G22KT 15SM FEW110 FEW260 10/02 A2988 RMK AC1CI1 TR AC SLP122

CYQG;2013-11-09 17:00;CYQG 091700Z 24024G30KT 15SM BKN200 BKN260 12/02 A2984 RMK CC5CI1 SLP109

CYQG;2013-11-09 18:00;CYQG 091800Z 24021G27KT 15SM FEW042 FEW270 12/03 A2982 RMK SC2CI1 SLP102

CYQG;2013-11-09 19:00;CYQG 091900Z 24019G26KT 15SM BKN047 13/03 A2980 RMK SC6 SLP096

CYQG;2013-11-09 20:00;CYQG 092000Z 24017KT 15SM BKN043 14/05 A2980 RMK SC7 SLP096

CYQG;2013-11-09 21:00;CYQG 092100Z 26020G25KT 15SM BKN058 14/05 A2981 RMK SC7 SLP098

CYQG;2013-11-09 22:00;CYQG 092200Z 25016KT 15SM BKN052 14/05 A2983 RMK SC7 SLP103

CYQG;2013-11-09 23:00;CYQG 092300Z 28021G29KT 15SM OVC059 13/03 A2986 RMK SC8 SLP116

CYQG;2013-11-10 00:00;CYQG 100000Z 27016G22KT 15SM BKN065 13/04 A2987 RMK SC7 SLP118

CYQG;2013-11-10 01:00;CYQG 100100Z 27014KT 15SM OVC072 13/04 A2987 RMK AC8 SLP117

CYQG;2013-11-10 02:00;CYQG 100200Z 27016G21KT 15SM SCT050 OVC067 12/04 A2987 RMK SC3AC5 SLP118

CYQG;2013-11-10 03:00;CYQG 100300Z 28020G25KT 15SM BKN046 BKN070 12/03 A2989 RMK SC5AC2 SLP123

CYQG;2013-11-10 04:00;CYQG 100400Z 29010KT 15SM -SHRA SCT040 BKN079 11/03 A2989 RMK SC3AC4 SLP123

CYQG;2013-11-10 04:34;CYQG 100434Z 28007KT 15SM -SHRA FEW040 BKN078 RMK SC2AC5

CYQG;2013-11-10 05:00;CYQG 100500Z 28007KT 15SM BKN050 BKN080 10/03 A2992 RMK SC5AC2 SLP133

CYQG;2013-11-10 05:15;CYQG 100515Z 28016KT 15SM -SHRA OVC049 RMK SC8

CYQG;2013-11-10 06:00;CYQG 100600Z CCC 28013KT 15SM OVC061 08/04 A2990 RMK SC8 OCNL -SHRA SLP129

CYQG;2013-11-10 07:00;CYQG 100700Z 27007KT 15SM BKN040 07/04 A2991 RMK SC5 SLP131

CYQG;2013-11-10 08:00;CYQG 100800Z 28017G24KT 15SM BKN042 08/03 A2991 RMK SC7 SLP132

CYQG;2013-11-10 09:00;CYQG 100900Z 28017G22KT 15SM BKN068 07/M01 A2993 RMK AC7 SLP139

CYQG;2013-11-10 10:00;CYQG 101000Z 29013G22KT 15SM BKN074 07/M02 A2995 RMK AC6 SLP144

CYQG;2013-11-10 11:00;CYQG 101100Z 29013G19KT 15SM BKN070 06/M04 A2999 RMK AC6 SLP157

CYQG;2013-11-10 12:00;CYQG 101200Z 29017KT 15SM BKN058 06/M03 A3001 RMK SC6 SLP164

CYQG;2013-11-10 13:00;CYQG 101300Z 28015KT 15SM OVC058 06/M02 A3004 RMK SC8 SLP177

CYQG;2013-11-10 14:00;CYQG 101400Z 29014G19KT 15SM OVC046 06/M02 A3008 RMK SC8 CU ASOCTD SLP188

CYQG;2013-11-10 15:00;CYQG 101500Z 28014G22KT 15SM BKN055 07/M02 A3008 RMK SC7 SLP191

CYQG;2013-11-10 16:00;CYQG 101600Z 29014G19KT 15SM BKN042 07/M02 A3012 RMK SC7 SLP204

CYQG;2013-11-10 17:00;CYQG 101700Z 31013G25KT 15SM BKN044 08/M02 A3013 RMK SC7 SLP207

CYQG;2013-11-10 18:00;CYQG 101800Z 31017KT 15SM BKN048 08/M02 A3014 RMK SC7 SLP211

CYQG;2013-11-10 19:00;CYQG 101900Z 29014G20KT 15SM BKN054 09/M02 A3015 RMK SC7 SLP215

CYQG;2013-11-10 20:00;CYQG 102000Z 31018KT 15SM BKN047 09/M02 A3017 RMK SC6 SLP222

CYQG;2013-11-10 21:00;CYQG 102100Z 29013G18KT 15SM BKN055 08/M02 A3020 RMK SC6 SLP230

CYQG;2013-11-10 22:00;CYQG 102200Z 29009KT 15SM BKN050 08/M02 A3022 RMK SC5 SLP236

CYQG;2013-11-10 23:00;CYQG 102300Z 29008KT 15SM BKN046 07/M02 A3023 RMK SC5 SLP240

CYQG;2013-11-11 00:00;CYQG 110000Z 28005KT 15SM FEW050 06/M02 A3025 RMK SC2 SLP248

CYQG;2013-11-11 01:00;CYQG 110100Z 25004KT 15SM FEW050 05/M02 A3025 RMK SC1 TR SC SLP248

CYQG;2013-11-11 02:00;CYQG 110200Z 26006KT 15SM SKC 05/M02 A3026 RMK SLP252

CYQG;2013-11-11 03:00;CYQG 110300Z 27005KT 15SM SKC 04/M02 A3026 RMK SLP254

CYQG;2013-11-11 04:00;CYQG 110400Z 26005KT 15SM BKN160 03/M02 A3026 RMK AC6 SLP253

CYQG;2013-11-11 05:00;CYQG 110500Z 22004KT 15SM BKN130 03/M02 A3024 RMK AC7 SLP247

CYQG;2013-11-11 06:00;CYQG 110600Z 22006KT 15SM BKN130 03/M02 A3023 RMK AC7 SLP242

CYQG;2013-11-11 07:00;CYQG 110700Z 22005KT 15SM BKN110 OVC150 03/M01 A3022 RMK AC5AC3 SLP238

CYQG;2013-11-11 08:00;CYQG 110800Z 21008KT 15SM OVC110 03/M01 A3019 RMK AC8 SLP230

CYQG;2013-11-11 09:00;CYQG 110900Z 22008KT 15SM OVC110 04/00 A3017 RMK AC8 SLP220

CYQG;2013-11-11 10:00;CYQG 111000Z 22008KT 15SM OVC090 05/01 A3014 RMK AC8 SLP212

CYQG;2013-11-11 11:00;CYQG 111100Z 22010KT 15SM OVC080 05/01 A3012 RMK AC8 SLP204

CYQG;2013-11-11 12:00;CYQG 111200Z 22016KT 15SM OVC075 05/M01 A3010 RMK AC8 SLP198

CYQG;2013-11-11 13:00;CYQG 111300Z 23014KT 15SM SCT055 OVC075 05/M00 A3009 RMK SC3AC5 SLP195

CYQG;2013-11-11 14:00;CYQG 111400Z 23015G20KT 15SM OVC071 06/M00 A3007 RMK AS8 SLP190

CYQG;2013-11-11 15:00;CYQG 111500Z 24015KT 12SM OVC070 06/00 A3007 RMK AS8 AC ASOCTD SLP187

CYQG;2013-11-11 16:00;CYQG 111600Z 24013G19KT 15SM BKN054 OVC071 06/00 A3006 RMK SC7AS1 SLP184

CYQG;2013-11-11 16:45;CYQG 111645Z 24011G16KT 12SM -DZ OVC051 RMK SC8

CYQG;2013-11-11 17:00;CYQG 111700Z 25010KT 12SM -DZ OVC046 07/01 A3005 RMK SC8 SLP181

CYQG;2013-11-11 17:08;CYQG 111708Z 24012KT 10SM -RA FEW028 OVC046 RMK CU1SC7

CYQG;2013-11-11 18:00;CYQG 111800Z 26009KT 12SM -RA FEW026 OVC059 06/02 A3002 RMK CU2SC6 SLP171

CYQG;2013-11-11 19:00;CYQG 111900Z 27009KT 7SM -RA BKN018 OVC060 06/03 A3002 RMK SC5SC3 SLP171

CYQG;2013-11-11 20:00;CYQG 112000Z 29010KT 5SM -RA BR BKN016 OVC060 06/04 A3003 RMK SC7SC1 SLP175

CYQG;2013-11-11 21:00;CYQG 112100Z 31012KT 8SM -RA SCT017 OVC028 04/02 A3006 RMK CU3SC5 SLP184

CYQG;2013-11-11 21:26;CYQG 112126Z 34013KT 7SM -RA BKN011 OVC025 RMK CU6SC2

CYQG;2013-11-11 21:42;CYQG 112142Z 35017G22KT 4SM -RA BR BKN007 OVC015 RMK SF5CU3

CYQG;2013-11-11 21:55;CYQG 112155Z 35013G20KT 1 1/4SM -RASN BR BKN009 OVC023 RMK SF6SC2

CYQG;2013-11-11 22:00;CYQG 112200Z CCA 35011G17KT 3/4SM -SN BR BKN007 OVC023 01/M01 A3011 RMK SN2SF5SC1 PRESRR SLP200

CYQG;2013-11-11 23:00;CYQG 112300Z 01012G17KT 3/4SM -SN OVC007 00/M01 A3014 RMK SN2SF6 SLP211

CYQG;2013-11-11 23:30;CYQG 112330Z 36011G17KT 3/4SM -SN OVC006 RMK SN4SF4

CYQG;2013-11-11 23:45;CYQG 112345Z 35012G19KT 1SM -SN BKN007 OVC023 RMK SN2SF3SC2

CYQG;2013-11-12 00:00;CYQG 120000Z 34010G20KT 1 1/4SM -SN BKN010 OVC023 M01/M02 A3018 RMK SN2SF3SC3 /S01/ SLP226

CYQG;2013-11-12 00:22;CYQG 120022Z 35011KT 2SM -SN SCT012 OVC021 RMK SF4SC4

CYQG;2013-11-12 01:00;CYQG 120100Z 32008KT 6SM -SN FEW012 OVC046 M01/M03 A3020 RMK SF2SC6 SLP233

CYQG;2013-11-12 01:24;CYQG 120124Z 34008KT 15SM FEW012 SCT023 BKN047 RMK SF2SC2SC3

CYQG;2013-11-12 02:00;CYQG 120200Z 36012KT 15SM FEW012 BKN035 OVC120 M01/M06 A3022 RMK SF2SC2AC3 SLP239

CYQG;2013-11-12 03:00;CYQG 120300Z 34010G17KT 15SM FEW035 OVC170 M01/M06 A3024 RMK SC2AS6 SLP247

CYQG;2013-11-12 04:00;CYQG 120400Z 34013G18KT 15SM FEW040 OVC180 M01/M07 A3026 RMK SC2AS6 SLP255

CYQG;2013-11-12 05:00;CYQG 120500Z 35012G18KT 15SM BKN044 BKN210 M02/M07 A3029 RMK SC6CI2 SLP262

CYQG;2013-11-12 06:00;CYQG 120600Z 33009KT 15SM FEW042 BKN230 M02/M07 A3031 RMK SC2CI5 SLP270

CYQG;2013-11-12 07:00;CYQG 120700Z 33009KT 15SM BKN043 BKN240 M02/M08 A3032 RMK SC5CI2 SLP275

CYQG;2013-11-12 08:00;CYQG 120800Z 34011KT 15SM BKN038 M03/M09 A3034 RMK SC6 SLP282

CYQG;2013-11-12 09:00;CYQG 120900Z 34010KT 15SM SKC M03/M09 A3036 RMK SLP289

CYQG;2013-11-12 10:00;CYQG 121000Z 33008KT 15SM SKC M04/M09 A3038 RMK SLP296

CYQG;2013-11-12 11:00;CYQG 121100Z 34013KT 15SM SKC M04/M09 A3040 RMK SLP303

CYQG;2013-11-12 12:00;CYQG 121200Z 32012G17KT 15SM FEW045 M04/M08 A3043 RMK SC1 SLP313

CYQG;2013-11-12 13:00;CYQG 121300Z 33012KT 15SM FEW045 M03/M08 A3045 RMK SC1 SLP322

CYQG;2013-11-12 14:00;CYQG 121400Z 33014KT 15SM FEW045 M02/M07 A3047 RMK CU1 SLP327

CYQG;2013-11-12 15:00;CYQG 121500Z 35015KT 15SM FEW045 M01/M07 A3049 RMK CU1 SLP333

CYQG;2013-11-12 16:00;CYQG 121600Z 33017KT 15SM FEW028 M00/M07 A3050 RMK CU1 SLP338

CYQG;2013-11-12 17:00;CYQG 121700Z 34015G20KT 15SM FEW032 01/M06 A3050 RMK SC2 SLP337

CYQG;2013-11-12 18:00;CYQG 121800Z 34011G17KT 15SM FEW032 00/M09 A3049 RMK SC2 SLP334

CYQG;2013-11-12 19:00;CYQG 121900Z 32012G19KT 15SM BKN042 00/M09 A3048 RMK SC5 SLP332

CYQG;2013-11-12 20:00;CYQG 122000Z 31014G19KT 15SM SCT042 SCT280 01/M09 A3051 RMK SC4CI1 SLP342

CYQG;2013-11-12 21:00;CYQG 122100Z 32012G18KT 15SM BKN049 BKN280 01/M10 A3048 RMK SC6CI1 CONTRAILS SLP332

CYQG;2013-11-12 22:00;CYQG 122200Z 31012KT 15SM BKN056 00/M10 A3048 RMK SC6 SLP332

CYQG;2013-11-12 23:00;CYQG 122300Z 30008KT 15SM SCT055 M00/M10 A3048 RMK SC3 SLP332

CYQG;2013-11-13 00:00;CYQG 130000Z 32007G15KT 15SM BKN061 M00/M09 A3049 RMK SC7 SLP334

CYQG;2013-11-13 01:00;CYQG 130100Z 31011KT 15SM BKN053 M00/M09 A3051 RMK SC7 SLP340

CYQG;2013-11-13 02:00;CYQG 130200Z 32013KT 15SM BKN052 M01/M10 A3049 RMK SC7 SLP334

CYQG;2013-11-13 03:00;CYQG 130300Z 33009G15KT 15SM BKN045 M01/M10 A3052 RMK SC7 SLP345

CYQG;2013-11-13 05:00;CYQG 130500Z 34005KT 15SM FEW034 M02/M10 A3052 RMK SC2 SLP345

CYQG;2013-11-13 06:00;CYQG 130600Z 29004KT 15SM FEW032 M03/M09 A3053 RMK SC2 SLP348

CYQG;2013-11-13 07:00;CYQG 130700Z 30004KT 15SM FEW032 M03/M09 A3052 RMK SC1 SLP343

CYQG;2013-11-13 08:00;CYQG 130800Z 28006KT 15SM SKC M04/M09 A3052 RMK SLP343

CYQG;2013-11-13 09:00;CYQG 130900Z 25005KT 15SM SKC M04/M09 A3051 RMK SLP342

CYQG;2013-11-13 10:00;CYQG 131000Z 24007KT 15SM SKC M04/M09 A3050 RMK SLP339

CYQG;2013-11-13 11:00;CYQG 131100Z 23005KT 15SM SKC M05/M09 A3050 RMK SLP337

CYQG;2013-11-13 12:00;CYQG 131200Z 23004KT 15SM FEW030 M05/M08 A3050 RMK SC1 SLP338

CYQG;2013-11-13 13:00;CYQG 131300Z 24007KT 15SM FEW280 M04/M07 A3050 RMK CI1 SLP339

CYQG;2013-11-13 14:00;CYQG 131400Z 24011KT 15SM FEW280 M03/M06 A3049 RMK CI1 SLP336

CYQG;2013-11-13 15:00;CYQG 131500Z 24011G16KT 15SM FEW280 M01/M06 A3047 RMK CI1 CONTRAILS SLP327

CYQG;2013-11-13 16:00;CYQG 131600Z 22013KT 15SM FEW280 01/M06 A3045 RMK CI2 CONTRAILS SLP322

CYQG;2013-11-13 17:00;CYQG 131700Z 24017KT 15SM FEW280 02/M07 A3042 RMK CI1 SLP311

CYQG;2013-11-13 18:00;CYQG 131800Z 22017KT 15SM FEW300 02/M07 A3039 RMK CI2 SLP300

CYQG;2013-11-13 19:00;CYQG 131900Z 24019G24KT 15SM FEW300 04/M07 A3035 RMK CI2 CONTRAILS SLP288

CYQG;2013-11-13 20:00;CYQG 132000Z 23020G25KT 15SM BKN300 04/M08 A3034 RMK CI3 SLP283

CYQG;2013-11-13 21:00;CYQG 132100Z 23015KT 15SM BKN300 03/M09 A3032 RMK CI4 CONTRAILS SLP276

CYQG;2013-11-13 22:00;CYQG 132200Z 23017G22KT 15SM SCT270 OVC300 02/M08 A3030 RMK CI3CI2 CONTRAILS SLP269

CYQG;2013-11-13 23:00;CYQG 132300Z 23021G26KT 15SM FEW170 BKN280 02/M08 A3029 RMK AC2CI3 CONTRAILS SLP264

CYQG;2013-11-14 00:00;CYQG 140000Z 23017G25KT 15SM BKN280 02/M07 A3027 RMK CI4 CONTRAILS SLP258

CYQG;2013-11-14 01:00;CYQG 140100Z 23020G25KT 15SM BKN280 01/M07 A3025 RMK CI4 CONTRAILS SLP251

CYQG;2013-11-14 02:00;CYQG 140200Z 23021G27KT 15SM SCT280 01/M07 A3022 RMK CI2 SLP242

CYQG;2013-11-14 03:00;CYQG 140300Z 23019G24KT 15SM FEW280 01/M07 A3020 RMK CI1 SLP235

CYQG;2013-11-14 04:00;CYQG 140400Z 23018G24KT 15SM SCT280 01/M07 A3017 RMK CI1 SLP226

CYQG;2013-11-14 05:00;CYQG 140500Z 23017G29KT 15SM FEW280 01/M08 A3015 RMK CI1 SLP218

CYQG;2013-11-14 06:00;CYQG 140600Z 24019G25KT 15SM FEW280 01/M08 A3017 RMK CI1 SLP223

CYQG;2013-11-14 07:00;CYQG 140700Z 24020G26KT 15SM FEW280 00/M08 A3017 RMK CI1 SLP222

CYQG;2013-11-14 08:00;CYQG 140800Z 24015KT 15SM SKC M00/M08 A3017 RMK SLP223

CYQG;2013-11-14 09:00;CYQG 140900Z 23015KT 15SM SKC M00/M08 A3017 RMK SLP222

CYQG;2013-11-14 10:00;CYQG 141000Z 23014G20KT 15SM SKC M00/M07 A3016 RMK SLP220

CYQG;2013-11-14 11:00;CYQG 141100Z 23015KT 15SM FEW280 M01/M07 A3015 RMK CI1 SLP217

CYQG;2013-11-14 12:00;CYQG 141200Z 23016KT 15SM BKN280 M00/M07 A3013 RMK CI2 SLP211

CYQG;2013-11-14 13:00;CYQG 141300Z 22015G20KT 15SM BKN280 M00/M07 A3013 RMK CI4 SLP211

CYQG;2013-11-14 14:00;CYQG 141400Z 23019G24KT 15SM SCT280 01/M07 A3013 RMK CI2 SLP211

CYQG;2013-11-14 15:00;CYQG 141500Z 23017G25KT 15SM FEW280 03/M06 A3013 RMK CI1 SLP209

CYQG;2013-11-14 16:00;CYQG 141600Z 23020G25KT 15SM FEW280 05/M05 A3011 RMK CI1 SLP204

CYQG;2013-11-14 17:00;CYQG 141700Z 22021KT 15SM FEW280 06/M05 A3007 RMK CI1 SLP191

CYQG;2013-11-14 18:00;CYQG 141800Z 21017G24KT 15SM FEW280 07/M04 A3005 RMK CI1 SLP182

CYQG;2013-11-14 19:00;CYQG 141900Z 21020G25KT 15SM FEW280 08/M03 A3002 RMK CI1 SLP172

CYQG;2013-11-14 20:00;CYQG 142000Z 22020KT 15SM SCT280 09/M04 A3001 RMK CI1 SLP170

CYQG;2013-11-14 21:00;CYQG 142100Z 21016KT 15SM SCT280 09/M03 A3001 RMK CI1 SLP169

CYQG;2013-11-14 22:00;CYQG 142200Z 21015KT 15SM SCT280 08/M03 A3001 RMK CI2 SLP166

CYQG;2013-11-14 23:00;CYQG 142300Z 22018KT 15SM FEW280 08/M04 A3000 RMK CI1 SLP165

CYQG;2013-11-15 00:00;CYQG 150000Z 21017G22KT 15SM FEW280 07/M03 A3000 RMK CI1 SLP166

CYQG;2013-11-15 01:00;CYQG 150100Z 22016KT 15SM SCT280 07/M03 A3001 RMK CI2 SLP169

CYQG;2013-11-15 02:00;CYQG 150200Z 22013KT 15SM BKN280 06/M03 A3002 RMK CI2 SLP173

CYQG;2013-11-15 03:00;CYQG 150300Z 22012KT 15SM SCT280 06/M03 A3003 RMK CI2 SLP176

CYQG;2013-11-15 04:00;CYQG 150400Z 22011KT 15SM FEW280 06/M05 A3004 RMK CI1 SLP178

CYQG;2013-11-15 05:00;CYQG 150500Z 22011KT 15SM BKN280 05/M05 A3004 RMK CI2 CONTRAILS SLP177

CYQG;2013-11-15 06:00;CYQG 150600Z 23010KT 15SM FEW100 SCT210 BKN260 05/M05 A3004 RMK AC1CS1CI1 HALO SLP177

CYQG;2013-11-15 07:00;CYQG 150700Z 22008KT 15SM SCT210 04/M03 A3004 RMK CS2 HALO SLP176

CYQG;2013-11-15 08:00;CYQG 150800Z 21009KT 15SM BKN240 04/M03 A3004 RMK CS2 HALO SLP179

CYQG;2013-11-15 09:00;CYQG 150900Z 22007KT 15SM BKN240 04/M03 A3003 RMK CS3 SLP174

CYQG;2013-11-15 10:00;CYQG 151000Z 21007KT 15SM OVC240 04/M03 A3003 RMK CS5 SLP175

CYQG;2013-11-15 11:00;CYQG 151100Z 21008KT 15SM BKN230 04/M02 A3003 RMK CS5 SLP175

CYQG;2013-11-15 12:00;CYQG 151200Z 21009KT 15SM BKN160 BKN260 05/M02 A3003 RMK AC5CI2 SLP175

CYQG;2013-11-15 13:00;CYQG 151300Z 22008KT 15SM BKN190 BKN260 05/M02 A3005 RMK AC6CI1 SLP182

CYQG;2013-11-15 14:00;CYQG 151400Z 22009KT 15SM BKN140 BKN270 06/M02 A3006 RMK AC6CI2 SLP183

CYQG;2013-11-15 15:00;CYQG 151500Z 23011KT 15SM SCT170 BKN280 07/M03 A3006 RMK AC4CI2 CONTRAILS SLP183

CYQG;2013-11-15 16:00;CYQG 151600Z 22011KT 15SM SCT170 BKN280 08/M02 A3006 RMK AC3CI2 SLP184

CYQG;2013-11-15 17:00;CYQG 151700Z 23012KT 15SM FEW160 BKN240 BKN280 09/M03 A3004 RMK AC2CS2CI2 SLP178

CYQG;2013-11-15 18:00;CYQG 151800Z 23012KT 15SM FEW160 OVC240 09/M03 A3003 RMK AC2CS5 SLP173

CYQG;2013-11-15 19:00;CYQG 151900Z 20014KT 15SM SCT140 OVC240 09/M02 A3002 RMK AC3CS4 SLP171

CYQG;2013-11-15 20:00;CYQG 152000Z 21012KT 15SM FEW150 BKN240 BKN280 09/M02 A3002 RMK AC2CS3CI2 SLP169

CYQG;2013-11-15 21:00;CYQG 152100Z 21014KT 15SM BKN130 09/M01 A3002 RMK AC7 SLP171

CYQG;2013-11-15 22:00;CYQG 152200Z 21013KT 15SM BKN130 BKN280 08/M01 A3002 RMK AC5CI1 SLP171

CYQG;2013-11-15 23:00;CYQG 152300Z 21010KT 15SM BKN058 BKN130 08/M01 A3003 RMK SC5AC2 SLP175

CYQG;2013-11-16 00:00;CYQG 160000Z 22010KT 15SM BKN054 BKN130 08/M01 A3004 RMK SC6AC1 SLP179

CYQG;2013-11-16 01:00;CYQG 160100Z 21007KT 15SM BKN068 BKN240 08/M01 A3004 RMK AC6CI1 SLP179

CYQG;2013-11-16 02:00;CYQG 160200Z 21007KT 15SM SCT063 BKN240 07/M01 A3006 RMK SC3CI2 SLP185

CYQG;2013-11-16 03:00;CYQG 160300Z 20006KT 15SM FEW060 BKN094 06/M01 A3007 RMK SC2AC4 SLP187

CYQG;2013-11-16 04:00;CYQG 160400Z 21008KT 15SM BKN043 06/M00 A3007 RMK SC6 SLP189

CYQG;2013-11-16 05:00;CYQG 160500Z 21008KT 15SM FEW061 BKN096 07/M00 A3008 RMK SC2AC6 SLP192

CYQG;2013-11-16 06:00;CYQG 160600Z 20008KT 15SM BKN096 07/00 A3009 RMK AC7 SLP192

CYQG;2013-11-16 07:00;CYQG 160700Z 19006KT 15SM FEW093 05/01 A3009 RMK AC1 SLP192

CYQG;2013-11-16 08:00;CYQG 160800Z 20003KT 15SM SKC 04/01 A3009 RMK SLP194

CYQG;2013-11-16 09:00;CYQG 160900Z 18005KT 15SM SKC 03/00 A3009 RMK SLP194

CYQG;2013-11-16 10:00;CYQG 161000Z 19005KT 12SM SKC 04/02 A3009 RMK SLP195

CYQG;2013-11-16 11:00;CYQG 161100Z 18006KT 12SM SKC 03/01 A3011 RMK SLP200

CYQG;2013-11-16 12:00;CYQG 161200Z 17005KT 10SM BKN042 03/01 A3011 RMK SC6 SLP203

CYQG;2013-11-16 13:00;CYQG 161300Z 17004KT 10SM BKN026 BKN041 05/03 A3011 RMK SC5SC2 SLP203

CYQG;2013-11-16 14:00;CYQG 161400Z 18005KT 10SM SCT026 OVC041 07/05 A3011 RMK SC3SC5 SLP202

CYQG;2013-11-16 15:00;CYQG 161500Z 17007KT 12SM BKN034 OVC045 08/06 A3011 RMK CU6SC2 SLP199

CYQG;2013-11-16 16:00;CYQG 161600Z 18009KT 15SM OVC036 09/06 A3009 RMK SC8 SLP195

CYQG;2013-11-16 17:00;CYQG 161700Z 18010KT 15SM FEW035 OVC053 10/07 A3007 RMK SC2SC6 SLP186

CYQG;2013-11-16 18:00;CYQG 161800Z 17010KT 15SM BKN054 10/08 A3002 RMK SC7 SLP171

CYQG;2013-11-16 19:00;CYQG 161900Z 18011G20KT 15SM FEW055 BKN260 12/08 A2999 RMK SC2CI4 SLP160

CYQG;2013-11-16 20:00;CYQG 162000Z 16013KT 15SM FEW070 BKN260 13/09 A2995 RMK AC2CI4 SLP147

CYQG;2013-11-16 21:00;CYQG 162100Z 19012KT 15SM BKN063 13/09 A2996 RMK SC7 SLP149

CYQG;2013-11-16 22:00;CYQG 162200Z 19014KT 15SM BKN061 13/09 A2995 RMK SC7 SLP146

CYQG;2013-11-16 23:00;CYQG 162300Z 19011G16KT 15SM SCT060 OVC240 12/09 A2995 RMK SC4CI3 SLP144

CYQG;2013-11-17 00:00;CYQG 170000Z 19013KT 15SM OVC063 12/09 A2994 RMK SC8 SLP143

CYQG;2013-11-17 01:00;CYQG 170100Z 19013G19KT 15SM BKN018 OVC074 12/09 A2992 RMK SC5AC3 SLP137

CYQG;2013-11-17 02:00;CYQG 170200Z 18011G17KT 15SM FEW018 OVC056 12/09 A2989 RMK SC2SC6 SLP127

CYQG;2013-11-17 03:00;CYQG 170300Z 18013G20KT 15SM FEW018 OVC060 13/10 A2986 RMK SC2SC6 SLP113

CYQG;2013-11-17 04:00;CYQG 170400Z 18013G19KT 15SM OVC023 13/10 A2984 RMK SC8 SLP106

CYQG;2013-11-17 05:00;CYQG 170500Z 20011KT 15SM BKN031 OVC098 13/10 A2984 RMK SC7AC1 SLP106

CYQG;2013-11-17 05:19;CYQG 170519Z 20012KT 12SM -RA BKN030 OVC100 RMK SC5AC3

CYQG;2013-11-17 05:45;CYQG 170545Z 20015KT 12SM FEW042 BKN130 BKN170 RMK SC2AC3AC2

CYQG;2013-11-17 06:00;CYQG 170600Z 20015KT 15SM FEW042 BKN130 BKN170 13/10 A2981 RMK SC2AC4AC2 PRESFR SLP098

CYQG;2013-11-17 06:43;CYQG 170643Z 20012KT 12SM -RA BKN021 OVC110 RMK SC6AC2

CYQG;2013-11-17 07:00;CYQG 170700Z 20014G20KT 12SM -RA BKN022 OVC110 14/11 A2979 RMK SC6AC2 SLP090

CYQG;2013-11-17 08:00;CYQG 170800Z 19017KT 10SM -RA FEW022 OVC076 14/12 A2976 RMK SC2AC6 SLP081

CYQG;2013-11-17 09:00;CYQG 170900Z 19016G22KT 12SM -RA FEW024 BKN033 OVC075 14/12 A2975 RMK CU1SC6AC2 -RA INTMT SLP075

CYQG;2013-11-17 10:00;CYQG 171000Z 20018KT 6SM -RA BR FEW016 BKN022 OVC072 14/12 A2974 RMK SF2SC5AC2 SLP071

CYQG;2013-11-17 10:25;CYQG 171025Z 20017KT 10SM -RA BKN013 OVC030 RMK SC6SC2

CYQG;2013-11-17 11:00;CYQG 171100Z 21013G18KT 8SM -RA SCT016 BKN084 13/12 A2973 RMK SC3AC3 -RA INTMT SLP067

CYQG;2013-11-17 11:20;CYQG 171120Z 20014KT 12SM FEW020 SCT092 RMK SC2AC2

CYQG;2013-11-17 12:00;CYQG 171200Z 20009KT 12SM FEW048 SCT099 13/12 A2971 RMK SC2AC2 SLP062

CYQG;2013-11-17 13:00;CYQG 171300Z 20014KT 15SM FEW020 BKN038 BKN100 14/12 A2971 RMK CU1SC5AC2 SLP063

CYQG;2013-11-17 14:00;CYQG 171400Z 20013G18KT 15SM -SHRA FEW020 SCT050 BKN096 14/12 A2971 RMK CU1SC2AC4 SLP060

CYQG;2013-11-17 15:00;CYQG 171500Z 19011KT 15SM SCT015 BKN054 14/12 A2969 RMK CU3SC4 SLP055

CYQG;2013-11-17 16:00;CYQG 171600Z 19016KT 15SM FEW035 SCT070 BKN140 BKN260 16/13 A2966 RMK CU2AC2AC2CI1 SLP044

CYQG;2013-11-17 16:45;CYQG 171645Z 20015KT 15SM -SHRA SCT025 BKN060 BKN100 RMK CU3SC2AC2

CYQG;2013-11-17 17:00;CYQG 171700Z 21015G20KT 15SM -SHRA SCT015 BKN057 BKN100 15/13 A2964 RMK CU3SC2AC2 SLP038

CYQG;2013-11-17 17:41;CYQG 171741Z 19015KT 15SM SCT028 BKN070 RMK CU4AC2

CYQG;2013-11-17 18:00;CYQG 171800Z 20019G26KT 12SM -SHRA SCT025 BKN039 BKN070 17/14 A2956 RMK CU3SC3AC1 TCU ASOCTD DIST E VIS 5 N PRESFR SLP011

CYQG;2013-11-17 18:38;CYQG 171838Z 19018G27KT 15SM FEW025 BKN040 RMK CU2SC5

CYQG;2013-11-17 19:00;CYQG 171900Z 19020G28KT 15SM FEW015 BKN027 BKN045 16/13 A2952 RMK CF1CU6SC2 TR CF SLP995

CYQG;2013-11-17 20:00;CYQG 172000Z 19019G26KT 15SM FEW015 BKN029 BKN100 16/13 A2947 RMK CF1CU6AC2 TR CF SLP980

CYQG;2013-11-17 21:00;CYQG 172100Z 19020G25KT 15SM OVC022 16/13 A2943 RMK SC8 SLP966

CYQG;2013-11-17 22:00;CYQG 172200Z 18020G27KT 15SM OVC026 16/13 A2935 RMK SC8 SLP939

CYQG;2013-11-17 22:10;CYQG 172210Z 18019G26KT 10SM -SHRA OVC021 RMK SC8

CYQG;2013-11-17 22:28;CYQG 172228Z 18021G27KT 7SM -TSRA OVC021CB RMK CB8

CYQG;2013-11-17 22:33;CYQG 172233Z 18018G27KT 6SM TSRA BR OVC021CB RMK CB8

CYQG;2013-11-17 22:53;CYQG 172253Z 18020G30KT 6SM -SHRA BR FEW012 OVC024CB RMK SF2CB6

CYQG;2013-11-17 23:04;CYQG 172304Z 19022G29KT 5SM TSRA BR FEW012 OVC025CB RMK SF1CB7

CYQG;2013-11-17 23:24;CYQG 172324Z 26019G25KT 4SM TSRA BR FEW009 OVC018CB RMK SF2CB6

CYQG;2013-11-17 23:47;CYQG 172347Z 21013G18KT 10SM -SHRA BKN018 OVC100 RMK SC6AC2

CYQG;2013-11-18 00:00;CYQG 180000Z 20021G29KT 15SM -SHRA FEW020 BKN033 OVC100 15/13 A2931 RMK SC2SC3AC2 /R13/ SLP925

CYQG;2013-11-18 00:21;CYQG 180021Z 21025G31KT 15SM FEW032 OVC130 RMK SC2AC6

CYQG;2013-11-18 01:00;CYQG 180100Z 21022G28KT 15SM FEW040 BKN160 14/12 A2927 RMK SC1AC6 SLP914

CYQG;2013-11-18 02:00;CYQG 180200Z 25036G44KT 15SM FEW035 13/07 A2930 RMK SC2 SLP923

CYQG;2013-11-18 03:00;CYQG 180300Z 26027G36KT 15SM -SHRA OVC033 12/06 A2938 RMK SC8 PRESRR SLP949

CYQG;2013-11-18 03:32;CYQG 180332Z 26027G39KT 15SM FEW026 BKN052 RMK SC2SC5

CYQG;2013-11-18 04:00;CYQG 180400Z 26028G39KT 15SM BKN026 BKN044 10/05 A2943 RMK SC5SC2 SLP965

CYQG;2013-11-18 05:00;CYQG 180500Z 26024G36KT 15SM BKN025 10/04 A2947 RMK SC7 SLP981

CYQG;2013-11-18 06:00;CYQG 180600Z 26024G35KT 15SM OVC024 09/04 A2952 RMK SC8 SLP999

CYQG;2013-11-18 07:00;CYQG 180700Z 27028G36KT 15SM OVC032 09/03 A2956 RMK SC8 SLP011

CYQG;2013-11-18 08:00;CYQG 180800Z 27023G30KT 15SM OVC036 09/02 A2960 RMK SC8 SLP024

CYQG;2013-11-18 09:00;CYQG 180900Z 25019G24KT 15SM BKN036 08/01 A2962 RMK SC6 SLP032

CYQG;2013-11-18 10:00;CYQG 181000Z 26016G27KT 15SM BKN034 08/01 A2964 RMK SC7 SLP040

CYQG;2013-11-18 11:00;CYQG 181100Z 26018G27KT 15SM BKN034 07/01 A2966 RMK SC7 SLP044

CYQG;2013-11-18 12:00;CYQG 181200Z 27019G25KT 15SM BKN035 07/01 A2966 RMK SC7 SLP045

CYQG;2013-11-18 13:00;CYQG 181300Z 27016G25KT 15SM BKN040 07/00 A2969 RMK SC7 SLP057

CYQG;2013-11-18 14:00;CYQG 181400Z 26023G30KT 15SM BKN039 07/00 A2971 RMK SC7 SLP061

CYQG;2013-11-18 15:00;CYQG 181500Z 27019G25KT 15SM BKN039 08/M00 A2972 RMK SC7 SLP068

CYQG;2013-11-18 16:00;CYQG 181600Z 26024G29KT 15SM BKN039 08/M01 A2974 RMK SC7 SLP075

CYQG;2013-11-18 17:00;CYQG 181700Z 27026G33KT 15SM BKN037 07/M01 A2976 RMK SC7 SLP080

CYQG;2013-11-18 18:00;CYQG 181800Z 29015G30KT 15SM BKN037 06/M02 A2979 RMK SC7 SLP092

CYQG;2013-11-18 19:00;CYQG 181900Z 28022KT 15SM OVC038 05/M02 A2982 RMK SC8 SLP102

CYQG;2013-11-18 20:00;CYQG 182000Z 27020G25KT 15SM OVC028 05/M02 A2985 RMK SC8 SLP111

CYQG;2013-11-18 21:00;CYQG 182100Z 29016G26KT 15SM OVC029 04/M03 A2990 RMK SC8 SLP130

CYQG;2013-11-18 22:00;CYQG 182200Z 30019G32KT 15SM OVC029 03/M04 A2994 RMK SC8 SLP144

CYQG;2013-11-18 23:00;CYQG 182300Z 31019G25KT 15SM -SHSN OVC030 03/M05 A2999 RMK SC8 SLP159

CYQG;2013-11-18 23:51;CYQG 182351Z 30020G26KT 15SM OVC035 RMK SC8

CYQG;2013-11-19 00:00;CYQG 190000Z 29015G26KT 15SM OVC037 02/M06 A3002 RMK SC8 SLP171

CYQG;2013-11-19 01:00;CYQG 190100Z 29018KT 15SM OVC041 02/M06 A3004 RMK SC8 SLP179

CYQG;2013-11-19 02:00;CYQG 190200Z 29014G20KT 15SM OVC038 02/M06 A3007 RMK SC8 SLP186

CYQG;2013-11-19 03:00;CYQG 190300Z 30012G18KT 15SM OVC038 02/M06 A3008 RMK SC8 SLP193

CYQG;2013-11-19 04:00;CYQG 190400Z 31012G19KT 15SM OVC038 02/M06 A3009 RMK SC8 SLP196

CYQG;2013-11-19 05:00;CYQG 190500Z 31008KT 15SM OVC038 03/M06 A3012 RMK SC8 SLP204

CYQG;2013-11-19 06:00;CYQG 190600Z 31012KT 15SM OVC038 02/M06 A3013 RMK SC8 SLP207

CYQG;2013-11-19 07:00;CYQG 190700Z 32008KT 15SM OVC034 02/M06 A3015 RMK SC8 SLP214

CYQG;2013-11-19 08:00;CYQG 190800Z 33012G17KT 15SM OVC035 02/M06 A3017 RMK SC8 SLP223

CYQG;2013-11-19 09:00;CYQG 190900Z 32011KT 15SM OVC034 02/M06 A3019 RMK SC8 SLP228

CYQG;2013-11-19 10:00;CYQG 191000Z 34012KT 15SM OVC033 02/M05 A3020 RMK SC8 SLP234

CYQG;2013-11-19 11:00;CYQG 191100Z 34008KT 15SM OVC037 02/M06 A3023 RMK SC8 SLP242

CYQG;2013-11-19 12:00;CYQG 191200Z 31009G16KT 15SM OVC039 02/M07 A3026 RMK SC8 SLP254

CYQG;2013-11-19 13:00;CYQG 191300Z 32010KT 15SM BKN039 02/M07 A3029 RMK SC7 SLP264

CYQG;2013-11-19 14:00;CYQG 191400Z 34010G16KT 15SM BKN036 01/M07 A3032 RMK SC6 SLP273

CYQG;2013-11-19 15:00;CYQG 191500Z 02009KT 15SM SCT040 02/M07 A3033 RMK SC3 SLP278

CYQG;2013-11-19 16:00;CYQG 191600Z 36006KT 15SM FEW040 03/M07 A3034 RMK SC2 SLP282

CYQG;2013-11-19 17:00;CYQG 191700Z 31004KT 15SM FEW040 03/M07 A3034 RMK SC1 SLP280

CYQG;2013-11-19 18:00;CYQG 191800Z 01004KT 15SM FEW045 04/M07 A3033 RMK SC1 SLP279

CYQG;2013-11-19 19:00;CYQG 191900Z 08005KT 15SM FEW045 FEW280 04/M06 A3033 RMK SC1CI1 SLP277

CYQG;2013-11-19 20:00;CYQG 192000Z 07007KT 15SM FEW045 FEW280 04/M06 A3033 RMK SC1CI1 TR SC SLP277

CYQG;2013-11-19 21:00;CYQG 192100Z 09006KT 15SM FEW280 04/M06 A3035 RMK CI1 SLP283

CYQG;2013-11-19 22:00;CYQG 192200Z 13003KT 15SM FEW280 03/M05 A3036 RMK CI1 SLP287

CYQG;2013-11-19 23:00;CYQG 192300Z 12002KT 15SM FEW280 02/M06 A3037 RMK CI1 SLP291

CYQG;2013-11-20 00:00;CYQG 200000Z 17004KT 15SM SKC 00/M05 A3039 RMK SLP298

CYQG;2013-11-20 01:00;CYQG 200100Z 08005KT 15SM SKC M00/M05 A3040 RMK SLP302

CYQG;2013-11-20 02:00;CYQG 200200Z 11005KT 15SM SKC M01/M05 A3041 RMK SLP305

CYQG;2013-11-20 03:00;CYQG 200300Z 09004KT 15SM FEW280 M01/M05 A3041 RMK CI1 SLP308

CYQG;2013-11-20 04:00;CYQG 200400Z 10007KT 15SM FEW280 M01/M05 A3041 RMK CI1 SLP305

CYQG;2013-11-20 05:00;CYQG 200500Z 10006KT 15SM FEW280 M01/M05 A3041 RMK CI0 SLP306

CYQG;2013-11-20 06:00;CYQG 200600Z 09005KT 15SM FEW280 M02/M05 A3041 RMK CI1 SLP306

CYQG;2013-11-20 07:00;CYQG 200700Z 09005KT 15SM FEW280 M01/M05 A3042 RMK CI0 SLP308

CYQG;2013-11-20 08:00;CYQG 200800Z CCA 09005KT 15SM FEW280 M02/M05 A3043 RMK CI1 FROIN SLP311

CYQG;2013-11-20 09:00;CYQG 200900Z 08004KT 15SM FEW280 M02/M05 A3042 RMK CI1 SLP310

CYQG;2013-11-20 10:00;CYQG 201000Z 09004KT 15SM FEW280 M01/M04 A3042 RMK CI1 SLP309

CYQG;2013-11-20 11:00;CYQG 201100Z 08002KT 15SM FEW100 FEW280 M01/M04 A3043 RMK AC1CI1 SLP311

CYQG;2013-11-20 12:00;CYQG 201200Z 00000KT 15SM BKN024 M01/M04 A3043 RMK SC6 SLP314

CYQG;2013-11-20 13:00;CYQG 201300Z 11004KT 15SM BKN024 BKN270 M00/M03 A3044 RMK SC6CI0 CONTRAILS SLP315

CYQG;2013-11-20 14:00;CYQG 201400Z 09004KT 15SM FEW025 BKN270 01/M02 A3045 RMK SC1CI2 CONTRAILS SLP320

CYQG;2013-11-20 15:00;CYQG 201500Z 12006KT 15SM FEW020 FEW030 BKN280 04/M01 A3043 RMK CF1SC1CI4 CONTRAILS TR CF TR SC SLP313

CYQG;2013-11-20 16:00;CYQG 201600Z 09010KT 15SM FEW020 OVC280 04/00 A3042 RMK CF1CI5 TR CF CONTRAILS SLP309

CYQG;2013-11-20 17:00;CYQG 201700Z 13013KT 15SM OVC280 06/M01 A3038 RMK CI5 CONTRAILS SLP297

CYQG;2013-11-20 18:00;CYQG 201800Z 12013KT 15SM BKN280 07/M03 A3035 RMK CI4 CONTRAILS SLP285

CYQG;2013-11-20 19:00;CYQG 201900Z 13015KT 15SM OVC280 07/M04 A3033 RMK CI4 CONTRAILS SLP277

CYQG;2013-11-20 20:00;CYQG 202000Z 13013KT 15SM FEW180 OVC280 07/M04 A3031 RMK AC1CI5 TR AC CONTRAILS SLP271

CYQG;2013-11-20 21:00;CYQG 202100Z 13011KT 15SM FEW180 BKN280 07/M04 A3029 RMK AC1CI4 CONTRAILS SLP265

CYQG;2013-11-20 22:00;CYQG 202200Z 12008KT 15SM FEW180 BKN280 06/M04 A3028 RMK AC1CI2 CONTRAILS SLP259

CYQG;2013-11-20 23:00;CYQG 202300Z 13005KT 15SM SCT280 04/M04 A3028 RMK CI2 SLP261

CYQG;2013-11-21 00:00;CYQG 210000Z 15004KT 15SM FEW280 03/M05 A3029 RMK CI1 SLP263

CYQG;2013-11-21 01:00;CYQG 210100Z 14003KT 15SM FEW280 03/M03 A3028 RMK CI1 SLP262

CYQG;2013-11-21 02:00;CYQG 210200Z 15004KT 15SM BKN280 03/M03 A3027 RMK CI2 SLP257

CYQG;2013-11-21 03:00;CYQG 210300Z 14005KT 15SM BKN280 03/M03 A3026 RMK CI3 SLP254

CYQG;2013-11-21 04:00;CYQG 210400Z 14004KT 15SM BKN180 03/M02 A3025 RMK AC6 SLP251

CYQG;2013-11-21 05:00;CYQG 210500Z 16005KT 15SM BKN140 04/M01 A3028 RMK AC7 SLP259

CYQG;2013-11-21 06:00;CYQG 210600Z 18004KT 15SM BKN098 04/M01 A3029 RMK AC7 SLP261

CYQG;2013-11-21 07:00;CYQG 210700Z 15003KT 15SM OVC110 04/M00 A3028 RMK AC8 SLP260

CYQG;2013-11-21 08:00;CYQG 210800Z 17003KT 15SM OVC097 04/M00 A3028 RMK AC8 SLP260

CYQG;2013-11-21 08:32;CYQG 210832Z 21002KT 15SM -SHRA OVC076 RMK AC8

CYQG;2013-11-21 09:00;CYQG 210900Z 17006KT 15SM -SHRA OVC070 05/M00 A3028 RMK AC8 SLP260

CYQG;2013-11-21 10:00;CYQG 211000Z 18006KT 15SM OVC058 05/M00 A3028 RMK SC8 OCNL -SHRA SLP260

CYQG;2013-11-21 11:00;CYQG 211100Z 16009KT 15SM OVC074 05/M00 A3028 RMK AC8 SLP259

CYQG;2013-11-21 12:00;CYQG 211200Z 17011KT 15SM OVC073 06/M00 A3027 RMK AC8 SLP258

CYQG;2013-11-21 13:00;CYQG 211300Z 16012KT 15SM BKN081 OVC120 06/00 A3026 RMK AC6AC2 SLP255

CYQG;2013-11-21 14:00;CYQG 211400Z 19012KT 15SM OVC080 06/01 A3028 RMK AC8 SLP260

CYQG;2013-11-21 15:00;CYQG 211500Z 20014KT 15SM OVC072 06/02 A3030 RMK AC8 SLP268

CYQG;2013-11-21 15:56;CYQG 211556Z 21017KT 10SM -SHRA BKN065 OVC075 RMK SC5AC3

CYQG;2013-11-21 16:00;CYQG 211600Z 22015G21KT 12SM -SHRA FEW025 BKN062 OVC075 07/04 A3029 RMK CF1SC6AC2 SLP264

CYQG;2013-11-21 16:38;CYQG 211638Z 22014G19KT 10SM -SHRA SCT009 OVC066 RMK SF3AC5

CYQG;2013-11-21 17:00;CYQG 211700Z 21010G16KT 10SM FEW009 OVC075 06/05 A3027 RMK SF2AC6 SLP257

CYQG;2013-11-21 17:53;CYQG 211753Z 21012KT 10SM -SHRA FEW010 OVC085 RMK SF2AC6

CYQG;2013-11-21 18:00;CYQG 211800Z 21011KT 10SM -SHRA FEW010 OVC072 07/05 A3026 RMK CF2AC6 SLP252

CYQG;2013-11-21 18:45;CYQG 211845Z 20012KT 10SM FEW020 BKN060 OVC075 RMK CU2SC5AC2

CYQG;2013-11-21 19:00;CYQG 211900Z 20012KT 10SM SCT006 OVC073 07/05 A3023 RMK CF3AC5 SLP242

CYQG;2013-11-21 20:00;CYQG 212000Z 19009KT 10SM SCT008 BKN060 OVC080 07/05 A3022 RMK CF3SC2AC2 SLP240

CYQG;2013-11-21 20:25;CYQG 212025Z 18009KT 8SM -SHRA FEW008 OVC052 RMK SF1SC7

CYQG;2013-11-21 21:00;CYQG 212100Z 18009KT 7SM -SHRA FEW008 OVC052 07/05 A3023 RMK SF1SC7 SLP241

CYQG;2013-11-21 22:00;CYQG 212200Z 18006KT 5SM -SHRA BR FEW006 OVC050 06/06 A3024 RMK CF2SC6 SLP246

CYQG;2013-11-21 23:00;CYQG 212300Z 17006KT 4SM -SHRA BR SCT021 OVC061 06/06 A3024 RMK SC3SC5 SLP244

CYQG;2013-11-22 00:00;CYQG 220000Z 18009KT 5SM -RA BR OVC022 06/06 A3023 RMK SC8 SLP241

CYQG;2013-11-22 01:00;CYQG 220100Z 18009KT 5SM -RA BR FEW022 OVC057 06/06 A3022 RMK SC2SC6 SLP237

CYQG;2013-11-22 01:33;CYQG 220133Z 20009KT 5SM -RA BR FEW005 BKN014 OVC023 RMK CF2SC5SC2

CYQG;2013-11-22 02:00;CYQG 220200Z 20009KT 5SM -RA BR SCT014 OVC035 07/06 A3022 RMK SC3SC5 SLP237

CYQG;2013-11-22 03:00;CYQG 220300Z 19009KT 5SM -RA BR FEW028 OVC056 07/06 A3020 RMK CU1SC7 SLP230

CYQG;2013-11-22 03:18;CYQG 220318Z 19005KT 4SM -RA BR FEW008 BKN012 OVC028 RMK CF1SC5SC2

CYQG;2013-11-22 04:00;CYQG 220400Z 20005KT 4SM -RA BR FEW008 OVC013 07/06 A3019 RMK CF2SC6 SLP228

CYQG;2013-11-22 05:00;CYQG 220500Z 20004KT 4SM -RA BR FEW005 OVC014 07/06 A3018 RMK CF2SC6 SLP224

CYQG;2013-11-22 05:39;CYQG 220539Z 19005KT 3SM -RA BR SCT003 OVC006 RMK SF3SF5

CYQG;2013-11-22 06:00;CYQG 220600Z 19006KT 2 1/2SM -RA BR SCT003 OVC008 07/07 A3016 RMK SF3SF5 SLP218

CYQG;2013-11-22 07:00;CYQG 220700Z 21004KT 1 1/2SM -RA BR OVC003 07/07 A3015 RMK SF8 SLP214

CYQG;2013-11-22 08:00;CYQG 220800Z 23003KT 2SM -RA BR OVC003 07/07 A3014 RMK SF8 SLP210

CYQG;2013-11-22 08:33;CYQG 220833Z 25004KT 3SM -RA BR OVC002 RMK SF8

CYQG;2013-11-22 09:00;CYQG 220900Z 24004KT 2 1/2SM -RA BR OVC002 07/07 A3014 RMK SF8 SLP210

CYQG;2013-11-22 10:00;CYQG 221000Z 25004KT 2 1/2SM BR OVC002 07/07 A3014 RMK SF8 SLP209

CYQG;2013-11-22 11:00;CYQG 221100Z 27003KT 3SM BR OVC004 07/07 A3013 RMK SF8 SLP208

CYQG;2013-11-22 12:00;CYQG 221200Z 27006KT 3SM BR OVC008 07/07 A3014 RMK SF8 SLP210

CYQG;2013-11-22 13:00;CYQG 221300Z 26005KT 4SM BR BKN008 OVC026 08/07 A3014 RMK SF6SC2 SLP209

CYQG;2013-11-22 13:32;CYQG 221332Z 27005KT 4SM BR SCT008 BKN059 OVC130 RMK SF3SC2AC2

CYQG;2013-11-22 14:00;CYQG 221400Z 29007KT 4SM BR BKN008 OVC060 08/07 A3014 RMK SF6SC2 SLP211

CYQG;2013-11-22 14:34;CYQG 221434Z 29005KT 5SM -RA BR OVC008 RMK SF8

CYQG;2013-11-22 15:00;CYQG 221500Z 28005KT 3SM -RA BR BKN008 OVC025 08/07 A3015 RMK SF6SC2 SLP214

CYQG;2013-11-22 16:00;CYQG 221600Z 28007KT 2SM -RA BR OVC007 08/08 A3016 RMK FG1SF7 SLP218

CYQG;2013-11-22 16:23;CYQG 221623Z 29007KT 3SM -RA BR SCT007 OVC013 RMK SF4SC4

CYQG;2013-11-22 16:39;CYQG 221639Z 29008KT 4SM -RA BR SCT007 OVC019 RMK SF3SC5

CYQG;2013-11-22 17:00;CYQG 221700Z 29010KT 2SM -DZ BR BKN007 OVC014 08/07 A3015 RMK SF6SC2 SLP213

CYQG;2013-11-22 17:42;CYQG 221742Z 31013G18KT 4SM BR BKN008 OVC012 RMK SF5SC3

CYQG;2013-11-22 18:00;CYQG 221800Z 32017KT 3SM BR BKN008 OVC014 07/05 A3016 RMK SF6SC2 SLP218

CYQG;2013-11-22 18:39;CYQG 221839Z 32019KT 8SM OVC010 RMK SF8

CYQG;2013-11-22 19:00;CYQG 221900Z 33016G24KT 12SM FEW009 OVC014 05/03 A3018 RMK SF2SC6 SLP225

CYQG;2013-11-22 20:00;CYQG 222000Z 32013G20KT 15SM OVC016 04/01 A3021 RMK SC8 SLP234

CYQG;2013-11-22 21:00;CYQG 222100Z 33015KT 15SM BKN016 BKN085 04/00 A3023 RMK SC6AC1 SLP243

CYQG;2013-11-22 22:00;CYQG 222200Z 34018G24KT 15SM BKN023 03/M02 A3027 RMK SC6 SLP255

CYQG;2013-11-22 23:00;CYQG 222300Z 34016KT 15SM FEW032 FEW260 02/M03 A3031 RMK SC2CI1 SLP269

CYQG;2013-11-23 00:00;CYQG 230000Z 34013KT 15SM FEW033 SCT260 02/M04 A3033 RMK SC2CI1 SLP276

CYQG;2013-11-23 01:00;CYQG 230100Z 33009KT 15SM SCT028 02/M04 A3034 RMK SC3 SLP280

CYQG;2013-11-23 02:00;CYQG 230200Z 33010KT 15SM FEW028 FEW260 01/M04 A3035 RMK SC1CI1 TR SC TR CI CONTRAILS SLP282

CYQG;2013-11-23 03:00;CYQG 230300Z 33005KT 15SM FEW025 01/M04 A3034 RMK SC1 TR SC SLP280

CYQG;2013-11-23 04:00;CYQG 230400Z 29005KT 15SM FEW025 M00/M04 A3034 RMK SC1 TR SC SLP280

CYQG;2013-11-23 05:00;CYQG 230500Z 28005KT 15SM FEW025 M01/M05 A3035 RMK SC1 SLP282

CYQG;2013-11-23 06:00;CYQG 230600Z 28005KT 15SM FEW025 M01/M05 A3035 RMK SC1 SLP284

CYQG;2013-11-23 07:00;CYQG 230700Z 28005KT 15SM FEW025 M02/M05 A3033 RMK SC1 SLP279

CYQG;2013-11-23 08:00;CYQG 230800Z 26005KT 15SM FEW025 M02/M05 A3031 RMK SC1 SLP271

CYQG;2013-11-23 09:00;CYQG 230900Z 23005KT 15SM SCT025 M03/M05 A3029 RMK SC4 SLP263

CYQG;2013-11-23 10:00;CYQG 231000Z 23007KT 15SM FEW025 M03/M05 A3027 RMK SC2 SLP257

CYQG;2013-11-23 11:00;CYQG 231100Z 25009KT 15SM FEW025 M02/M05 A3026 RMK SC2 SLP254

CYQG;2013-11-23 12:00;CYQG 231200Z 25010KT 15SM FEW025 FEW280 M02/M05 A3026 RMK SC1CI2 CONTRAILS SLP254

CYQG;2013-11-23 13:00;CYQG 231300Z 29009KT 15SM FEW025 FEW090 M02/M06 A3026 RMK SC1AC1 SLP255

CYQG;2013-11-23 14:00;CYQG 231400Z 31013KT 15SM FEW060 FEW090 M01/M07 A3026 RMK SC2AC1 SLP254

CYQG;2013-11-23 15:00;CYQG 231500Z 31017KT 15SM SCT030 BKN090 M01/M07 A3026 RMK CU4AC1 SLP256

CYQG;2013-11-23 15:32;CYQG 231532Z 31019KT 7SM -SHSN BKN029 RMK CU7

CYQG;2013-11-23 16:00;CYQG 231600Z 33015KT 15SM FEW027 SCT090 M01/M08 A3028 RMK CU2AC1 OCNL -SHSN SLP261

CYQG;2013-11-23 16:11;CYQG 231611Z 33013G22KT 15SM FEW030 SCT070 RMK CU2AC1

CYQG;2013-11-23 17:00;CYQG 231700Z 32019G26KT 15SM FEW035 SCT070 M01/M11 A3029 RMK CU2AC2 SLP264

CYQG;2013-11-23 18:00;CYQG 231800Z 32017G26KT 15SM VCSH SCT053 BKN075 M01/M12 A3028 RMK CU4AC1 SLP261

CYQG;2013-11-23 18:45;CYQG 231845Z 32017G29KT 12SM -SHSN BKN046 RMK SC7

CYQG;2013-11-23 19:00;CYQG 231900Z 30022G28KT 15SM -SHSN BKN050 M03/M12 A3030 RMK SC7 SLP268

CYQG;2013-11-23 20:00;CYQG 232000Z 34024KT 15SM -SHSN BKN047 M04/M11 A3032 RMK SC7 SLP276

CYQG;2013-11-23 20:47;CYQG 232047Z 32017G25KT 15SM SCT052 RMK SC3

CYQG;2013-11-23 21:00;CYQG 232100Z 33020KT 15SM VCSH BKN052 M04/M14 A3034 RMK SC5 SHSN W-N SLP285

CYQG;2013-11-23 22:00;CYQG 232200Z 31015G24KT 15SM VCSH SCT062 M04/M15 A3037 RMK SC3 SHSN E-SE SLP295

CYQG;2013-11-23 23:00;CYQG 232300Z 32017KT 15SM VCSH SCT063 M05/M15 A3039 RMK SC4 SHSN W-NW SLP302

CYQG;2013-11-23 23:07;CYQG 232307Z 34019G28KT 12SM -SHSN BKN049 RMK SC6 VIS W-NW 5 MILES

CYQG;2013-11-23 23:47;CYQG 232347Z 33016G25KT 15SM FEW052 RMK SC2

CYQG;2013-11-24 00:00;CYQG 240000Z 34018G25KT 15SM FEW052 M05/M14 A3042 RMK SC2 SLP311

CYQG;2013-11-24 01:00;CYQG 240100Z 32013G24KT 15SM FEW054 M06/M15 A3044 RMK SC2 SLP318

CYQG;2013-11-24 02:00;CYQG 240200Z 33018G25KT 15SM FEW036 M07/M14 A3046 RMK SC2 SLP325

CYQG;2013-11-24 03:00;CYQG 240300Z 34011G20KT 15SM SCT033 M07/M15 A3047 RMK SC3 SLP329

CYQG;2013-11-24 04:00;CYQG 240400Z 32013G18KT 15SM FEW040 M07/M16 A3048 RMK SC1 SLP332

CYQG;2013-11-24 05:00;CYQG 240500Z 31015KT 15SM FEW040 SCT210 M08/M15 A3049 RMK SC1CI1 SLP336

CYQG;2013-11-24 06:00;CYQG 240600Z 31015KT 15SM FEW040 BKN210 M08/M15 A3049 RMK SC1CI2 SLP335

CYQG;2013-11-24 07:00;CYQG 240700Z 30010G16KT 15SM FEW210 M08/M14 A3049 RMK CI1 SLP337

CYQG;2013-11-24 08:00;CYQG 240800Z 30011KT 15SM SCT038 M08/M13 A3050 RMK SC3 SLP340

CYQG;2013-11-24 09:00;CYQG 240900Z 29009KT 15SM FEW040 M08/M14 A3050 RMK SC2 SLP342

CYQG;2013-11-24 10:00;CYQG 241000Z 31011KT 15SM BKN026 M09/M14 A3052 RMK SC5 SLP346

CYQG;2013-11-24 11:00;CYQG 241100Z 30010KT 15SM FEW030 BKN190 M09/M14 A3053 RMK SC2AS1 SLP349

CYQG;2013-11-24 12:00;CYQG 241200Z 31011G16KT 15SM FEW030 FEW190 M09/M14 A3054 RMK SC1AS0 SLP353

CYQG;2013-11-24 13:00;CYQG 241300Z 32010KT 15SM FEW025 M09/M14 A3055 RMK SC1 SLP358

CYQG;2013-11-24 14:00;CYQG 241400Z 30010KT 15SM FEW025 M08/M13 A3057 RMK CU1 SLP362

CYQG;2013-11-24 15:00;CYQG 241500Z 30008KT 15SM SCT026 M06/M13 A3057 RMK CU3 SLP365

CYQG;2013-11-24 16:00;CYQG 241600Z 32012G17KT 15SM BKN034 M05/M14 A3057 RMK CU5 SLP363

CYQG;2013-11-24 17:00;CYQG 241700Z 30012KT 15SM BKN041 M06/M14 A3055 RMK SC6 SLP357

CYQG;2013-11-24 18:00;CYQG 241800Z 31009KT 15SM BKN043 M05/M15 A3053 RMK SC6 SLP351

CYQG;2013-11-24 19:00;CYQG 241900Z 28011G17KT 15SM BKN043 M05/M15 A3052 RMK SC6 SLP347

CYQG;2013-11-24 20:00;CYQG 242000Z 30011KT 15SM VCSH BKN044 M04/M15 A3051 RMK SC6 SLP345

CYQG;2013-11-24 21:00;CYQG 242100Z 29013KT 15SM BKN044 M04/M15 A3052 RMK SC6 SLP347

CYQG;2013-11-24 22:00;CYQG 242200Z 28008KT 15SM FEW044 M05/M15 A3051 RMK SC2 SLP344

CYQG;2013-11-24 23:00;CYQG 242300Z 28007KT 15SM FEW044 M05/M14 A3051 RMK SC1 SLP344

CYQG;2013-11-25 00:00;CYQG 250000Z 24002KT 15SM FEW280 M06/M14 A3051 RMK CC1 SLP343

CYQG;2013-11-25 01:00;CYQG 250100Z 18003KT 15SM SKC M07/M13 A3047 RMK SLP332

CYQG;2013-11-25 02:00;CYQG 250200Z 20006KT 15SM SKC M06/M13 A3047 RMK SLP331

CYQG;2013-11-25 03:00;CYQG 250300Z 22006KT 15SM FEW280 M07/M12 A3044 RMK CS2 SLP321

CYQG;2013-11-25 04:00;CYQG 250400Z 23008KT 15SM SCT280 M06/M10 A3043 RMK CI3 SLP316

CYQG;2013-11-25 05:00;CYQG 250500Z 24012KT 15SM FEW280 M06/M10 A3042 RMK CI2 SLP314

CYQG;2013-11-25 06:00;CYQG 250600Z 24012KT 15SM FEW280 M06/M11 A3041 RMK CI2 SLP307

CYQG;2013-11-25 07:00;CYQG 250700Z 23014KT 15SM FEW280 M06/M11 A3039 RMK CI2 SLP302

CYQG;2013-11-25 08:00;CYQG 250800Z 24014G19KT 15SM FEW250 M06/M12 A3038 RMK CI2 SLP300

CYQG;2013-11-25 09:00;CYQG 250900Z 24013KT 15SM FEW250 M06/M13 A3036 RMK CI2 SLP291

CYQG;2013-11-25 10:00;CYQG 251000Z 23016KT 15SM FEW250 M06/M13 A3034 RMK CI2 SLP286

CYQG;2013-11-25 11:00;CYQG 251100Z 23013KT 15SM FEW250 M06/M13 A3033 RMK CI2 SLP282

CYQG;2013-11-25 12:00;CYQG 251200Z 22013G19KT 15SM SCT230 M05/M12 A3030 RMK CI3 SLP272

CYQG;2013-11-25 13:00;CYQG 251300Z 23017G27KT 15SM SCT160 BKN230 M05/M12 A3028 RMK AC3CI3 SLP266

CYQG;2013-11-25 14:00;CYQG 251400Z 22017G24KT 15SM BKN150 BKN230 M04/M11 A3026 RMK AS6CI1 SLP258

CYQG;2013-11-25 15:00;CYQG 251500Z 24016KT 15SM OVC120 M03/M10 A3026 RMK AS8 SLP256

CYQG;2013-11-25 16:00;CYQG 251600Z 23015G21KT 15SM OVC090 M02/M10 A3023 RMK AS8 SLP247

CYQG;2013-11-25 17:00;CYQG 251700Z 23019G26KT 15SM OVC100 M02/M11 A3019 RMK AS8 SLP234

CYQG;2013-11-25 18:00;CYQG 251800Z 23019KT 15SM OVC110 M01/M11 A3016 RMK AS8 SLP224

CYQG;2013-11-25 19:00;CYQG 251900Z 23018KT 15SM OVC100 M01/M10 A3013 RMK AC8 SLP213

CYQG;2013-11-25 19:11;CYQG 251911Z 21017KT 15SM -SHSN OVC090 RMK AC8

CYQG;2013-11-25 19:51;CYQG 251951Z 22016G24KT 15SM FEW070 OVC100 RMK AC2AC6

CYQG;2013-11-25 20:00;CYQG 252000Z 22017G24KT 15SM FEW070 OVC090 M00/M10 A3011 RMK AC2AS6 SLP208

CYQG;2013-11-25 21:00;CYQG 252100Z 22015G24KT 15SM FEW080 OVC100 M00/M09 A3011 RMK AC1AS7 SLP205

CYQG;2013-11-25 22:00;CYQG 252200Z 23018G24KT 15SM OVC089 M00/M10 A3010 RMK AS8 SLP201

CYQG;2013-11-25 22:11;CYQG 252211Z 22019KT 15SM -SN OVC060 RMK SC8

CYQG;2013-11-25 23:00;CYQG 252300Z 22020G28KT 12SM -SN SCT041 OVC074 M00/M10 A3009 RMK SC4AS4 SLP198

CYQG;2013-11-26 00:00;CYQG 260000Z 24016KT 12SM -SN OVC070 M00/M09 A3011 RMK AC8 SLP206

CYQG;2013-11-26 00:48;CYQG 260048Z 24017G24KT 3SM -SN OVC014 RMK SC8

CYQG;2013-11-26 01:00;CYQG 260100Z 24012G20KT 4SM -SN OVC018 M01/M06 A3012 RMK SC8 SLP209

CYQG;2013-11-26 02:00;CYQG 260200Z 23016G24KT 8SM -SN FEW015 OVC040 M01/M05 A3011 RMK SF1SC7 SLP206

CYQG;2013-11-26 02:30;CYQG 260230Z 23016KT 8SM OVC035 RMK SC8

CYQG;2013-11-26 03:00;CYQG 260300Z 25014KT 10SM OVC042 M01/M06 A3011 RMK SC8 SLP204

CYQG;2013-11-26 04:00;CYQG 260400Z 23013G18KT 12SM OVC022 M01/M05 A3012 RMK SC8 SLP208

CYQG;2013-11-26 05:00;CYQG 260500Z 24015KT 12SM OVC020 M01/M06 A3011 RMK SC8 SLP204

CYQG;2013-11-26 06:00;CYQG 260600Z 24011KT 12SM OVC027 M01/M06 A3010 RMK SC8 SLP201

CYQG;2013-11-26 07:00;CYQG 260700Z 25011G16KT 12SM OVC022 M01/M06 A3010 RMK SC8 SLP201

CYQG;2013-11-26 08:00;CYQG 260800Z 23010G15KT 12SM OVC026 M01/M05 A3011 RMK SC8 SLP203

CYQG;2013-11-26 09:00;CYQG 260900Z 23013KT 12SM OVC033 M01/M05 A3008 RMK SC8 SLP195

CYQG;2013-11-26 10:00;CYQG 261000Z 23008KT 12SM OVC034 M01/M05 A3009 RMK SC8 SLP198

CYQG;2013-11-26 11:00;CYQG 261100Z 24010KT 12SM OVC031 M01/M05 A3009 RMK SC8 SLP197

CYQG;2013-11-26 11:46;CYQG 261146Z 24007KT 12SM -SHSN OVC036 RMK SC8

CYQG;2013-11-26 12:00;CYQG 261200Z 23006KT 12SM -SHSN OVC036 M01/M05 A3008 RMK SC8 SLP194

CYQG;2013-11-26 12:20;CYQG 261220Z 23008KT 15SM OVC032 RMK SC8

CYQG;2013-11-26 13:00;CYQG 261300Z 22008KT 12SM OVC032 M01/M04 A3008 RMK SC8 SLP194

CYQG;2013-11-26 14:00;CYQG 261400Z 23007KT 12SM OVC032 M01/M04 A3008 RMK SC8 SLP193

CYQG;2013-11-26 15:00;CYQG 261500Z 23009KT 12SM BKN040 OVC090 M00/M04 A3007 RMK SC7AC1 SLP189

CYQG;2013-11-26 16:00;CYQG 261600Z 21010KT 12SM FEW042 BKN190 01/M04 A3007 RMK SC2AC5 SLP190

CYQG;2013-11-26 17:00;CYQG 261700Z 23010KT 12SM FEW016 BKN190 01/M03 A3003 RMK SC2AC6 SLP177

CYQG;2013-11-26 18:00;CYQG 261800Z 23010KT 12SM BKN016 OVC120 01/M03 A3002 RMK SC6AC2 SLP174

CYQG;2013-11-26 19:00;CYQG 261900Z 19007KT 12SM FEW023 BKN046 OVC140 01/M03 A2998 RMK SC2SC4AC2 SLP159

CYQG;2013-11-26 20:00;CYQG 262000Z 21007KT 12SM OVC043 01/M03 A2997 RMK SC8 SLP156

CYQG;2013-11-26 21:00;CYQG 262100Z 22004KT 8SM OVC052 01/M04 A2995 RMK SC8 SLP149

CYQG;2013-11-26 22:00;CYQG 262200Z 22004KT 8SM OVC050 01/M03 A2995 RMK SC8 SLP149

CYQG;2013-11-26 23:00;CYQG 262300Z 18005KT 8SM OVC051 01/M03 A2994 RMK SC8 SLP147

CYQG;2013-11-27 00:00;CYQG 270000Z 21002KT 8SM OVC051 01/M03 A2992 RMK SC8 SLP140

CYQG;2013-11-27 01:00;CYQG 270100Z 27005KT 8SM BKN033 OVC051 01/M03 A2992 RMK SC5SC3 SLP141

CYQG;2013-11-27 02:03;CYQG 270203Z 29007KT 8SM -SHSN BKN024 OVC048 RMK SC6SC2

CYQG;2013-11-27 03:00;CYQG 270300Z 32009KT 8SM -SHSN OVC049 01/M03 A2990 RMK SC8 SLP134

CYQG;2013-11-27 04:00;CYQG 270400Z 31012KT 10SM -SHSN FEW017 OVC050 01/M03 A2989 RMK SC2SC6 SLP131

CYQG;2013-11-27 05:00;CYQG 270500Z 31014KT 7SM -SHSN BKN016 OVC050 00/M03 A2989 RMK SC6SC2 SLP131

CYQG;2013-11-27 06:00;CYQG 270600Z 32011G19KT 8SM -SHSN OVC017 M00/M04 A2988 RMK SC8 SLP126

CYQG;2013-11-27 07:00;CYQG 270700Z 32014G19KT 8SM -SHSN OVC016 M01/M05 A2987 RMK SC8 SLP121

CYQG;2013-11-27 08:00;CYQG 270800Z 34015G21KT 8SM -SHSN OVC019 M01/M06 A2989 RMK SC8 SLP129

CYQG;2013-11-27 09:00;CYQG 270900Z 34016KT 8SM -SHSN OVC021 M02/M07 A2989 RMK SC8 SLP130

CYQG;2013-11-27 10:00;CYQG 271000Z 34013G22KT 12SM -SHSN FEW020 OVC034 M03/M08 A2990 RMK CU2SC6 SLP133

CYQG;2013-11-27 11:00;CYQG 271100Z 34014G21KT 15SM -SHSN FEW020 BKN035 OVC066 M03/M10 A2992 RMK CU1SC5AC2 SLP139

CYQG;2013-11-27 12:00;CYQG 271200Z 32017G25KT 15SM -SHSN FEW035 OVC066 M04/M11 A2993 RMK SC2AC6 SLP144

CYQG;2013-11-27 12:17;CYQG 271217Z 34018KT 15SM OVC068 RMK AC8

CYQG;2013-11-27 13:00;CYQG 271300Z 32018KT 15SM BKN068 M04/M12 A2995 RMK AC7 SLP150

CYQG;2013-11-27 14:00;CYQG 271400Z 32013G21KT 15SM FEW026 SCT064 M05/M11 A2996 RMK CU1SC4 TR CU SLP154

CYQG;2013-11-27 15:00;CYQG 271500Z 32016G25KT 15SM FEW030 FEW064 M04/M12 A2996 RMK CU1SC1 TR CU SLP153

CYQG;2013-11-27 16:00;CYQG 271600Z 32021KT 15SM FEW032 FEW064 M03/M12 A2995 RMK CU1SC1 TR SC SLP151

CYQG;2013-11-27 17:00;CYQG 271700Z 32018G25KT 15SM SCT038 M03/M12 A2992 RMK SC4 SLP142

CYQG;2013-11-27 18:00;CYQG 271800Z 32015G24KT 15SM SCT038 M03/M12 A2992 RMK SC4 SLP142

CYQG;2013-11-27 19:00;CYQG 271900Z 33014G22KT 15SM BKN042 M03/M13 A2993 RMK SC5 SLP145

CYQG;2013-11-27 20:00;CYQG 272000Z 31017G25KT 15SM BKN042 M03/M13 A2995 RMK SC6 SLP152

CYQG;2013-11-27 21:00;CYQG 272100Z 21014G21KT 15SM BKN045 03/M13 A3000 RMK SC7 SLP165

CYQG;2013-11-27 22:00;CYQG 272200Z 33015KT 15SM BKN046 M04/M13 A3004 RMK SC6 SLP181

CYQG;2013-11-27 23:00;CYQG 272300Z 34008KT 15SM BKN041 M05/M13 A3006 RMK SC7 SLP189

CYQG;2013-11-28 00:00;CYQG 280000Z 33008KT 15SM FEW040 M04/M13 A3008 RMK SC2 SLP196

CYQG;2013-11-28 01:00;CYQG 280100Z 32013KT 15SM FEW040 M05/M13 A3010 RMK SC1 SLP201

CYQG;2013-11-28 02:00;CYQG 280200Z 33007KT 15SM SKC M05/M13 A3012 RMK SLP208

CYQG;2013-11-28 03:00;CYQG 280300Z 32008KT 15SM SKC M06/M14 A3013 RMK SLP213

CYQG;2013-11-28 04:00;CYQG 280400Z 31010G15KT 15SM SKC M06/M13 A3015 RMK SLP220

CYQG;2013-11-28 05:00;CYQG 280500Z 30008KT 15SM FEW220 M06/M13 A3017 RMK CI1 SLP227

CYQG;2013-11-28 06:00;CYQG 280600Z 29006KT 15SM SCT180 M06/M13 A3018 RMK AC4 SLP230

CYQG;2013-11-28 07:00;CYQG 280700Z 29008KT 15SM FEW160 BKN220 M07/M13 A3019 RMK AC2CI1 SLP234

CYQG;2013-11-28 08:00;CYQG 280800Z 29007KT 15SM FEW150 BKN220 M07/M13 A3022 RMK AC2CI1 SLP244

CYQG;2013-11-28 09:00;CYQG 280900Z 27005KT 15SM FEW160 BKN220 M07/M13 A3024 RMK AC2CI1 SLP251

CYQG;2013-11-28 10:00;CYQG 281000Z 27006KT 15SM BKN080 M06/M12 A3026 RMK AC6 SLP256

CYQG;2013-11-28 10:49;CYQG 281049Z 24005KT 12SM -SHSN OVC046 RMK SC8

CYQG;2013-11-28 11:00;CYQG 281100Z 25006KT 12SM -SHSN OVC045 M06/M12 A3027 RMK SC8 SLP261

CYQG;2013-11-28 12:00;CYQG 281200Z 25007KT 12SM -SHSN OVC022 M05/M11 A3029 RMK SC8 SLP269

CYQG;2013-11-28 12:32;CYQG 281232Z 25006KT 2SM -SHSN OVC050 RMK SN1SC7

CYQG;2013-11-28 13:00;CYQG 281300Z 25006KT 2SM -SN OVC038 M06/M08 A3032 RMK SC8 SLP278

CYQG;2013-11-28 13:30;CYQG 281330Z 23005KT 1 1/2SM -SN OVC033 RMK SN2SC6

CYQG;2013-11-28 13:45;CYQG 281345Z 22006KT 1SM -SN OVC033 RMK SN2SC6

CYQG;2013-11-28 14:00;CYQG 281400Z 21005KT 1SM -SN OVC038 M06/M08 A3034 RMK SN2SC6 SLP284

CYQG;2013-11-28 14:28;CYQG 281428Z 22004KT 2SM -SN OVC040 RMK SC8

CYQG;2013-11-28 15:00;CYQG 281500Z 19004KT 2SM -SN OVC038 M05/M07 A3034 RMK SC8 SLP284

CYQG;2013-11-28 15:23;CYQG 281523Z 16003KT 8SM -SN FEW020 OVC044 RMK CU1SC7

CYQG;2013-11-28 16:00;CYQG 281600Z 18005KT 10SM -SN FEW020 OVC060 M05/M07 A3032 RMK SC2SC6 -SN INTMT SLP278

CYQG;2013-11-28 17:00;CYQG 281700Z 18007KT 10SM FEW012 BKN019 OVC090 M04/M06 A3029 RMK CF1SC5AC2 INTMT -SN SLP268

CYQG;2013-11-28 17:10;CYQG 281710Z 18008KT 12SM FEW008 BKN017 OVC090 RMK CF1SC6AC2

CYQG;2013-11-28 18:00;CYQG 281800Z 19010KT 15SM BKN018 OVC097 M03/M07 A3026 RMK SC7AC1 SLP259

CYQG;2013-11-28 19:00;CYQG 281900Z 20012KT 12SM BKN026 OVC110 M02/M07 A3024 RMK SC6AC2 SLP252

CYQG;2013-11-28 20:00;CYQG 282000Z 22010KT 12SM FEW026 OVC072 M02/M09 A3025 RMK SC2AC6 SLP253

CYQG;2013-11-28 21:00;CYQG 282100Z 24009KT 15SM FEW025 OVC081 M02/M10 A3027 RMK SC2AC6 SLP262

CYQG;2013-11-28 22:00;CYQG 282200Z 24007KT 15SM FEW030 OVC083 M02/M10 A3029 RMK SC2AC6 SLP268

CYQG;2013-11-28 23:00;CYQG 282300Z 25008KT 15SM OVC087 M02/M10 A3032 RMK AC8 SLP279

CYQG;2013-11-29 00:00;CYQG 290000Z 23007KT 15SM BKN087 M02/M09 A3034 RMK AC7 SLP285

CYQG;2013-11-29 01:00;CYQG 290100Z 26007KT 15SM BKN087 M03/M09 A3036 RMK AC7 SLP290

CYQG;2013-11-29 02:00;CYQG 290200Z 25004KT 15SM FEW090 M04/M09 A3037 RMK AC2 SLP293

CYQG;2013-11-29 03:00;CYQG 290300Z 26003KT 15SM SCT280 M05/M09 A3038 RMK CI3 SLP298

CYQG;2013-11-29 04:00;CYQG 290400Z 00000KT 15SM FEW060 SCT280 M07/M10 A3039 RMK SC2CI2 SLP302

CYQG;2013-11-29 05:00;CYQG 290500Z 18003KT 15SM FEW280 M08/M11 A3041 RMK CI2 SLP310

CYQG;2013-11-29 06:00;CYQG 290600Z 00000KT 15SM SCT058 M08/M10 A3043 RMK SC3 SLP315

CYQG;2013-11-29 07:00;CYQG 290700Z 00000KT 15SM FEW060 M08/M10 A3044 RMK SC2 SLP320

CYQG;2013-11-29 08:00;CYQG 290800Z 00000KT 15SM BKN032 M07/M10 A3047 RMK SC7 SLP330

CYQG;2013-11-29 09:00;CYQG 290900Z 00000KT 15SM BKN030 M07/M09 A3049 RMK SC6 SLP335

CYQG;2013-11-29 10:00;CYQG 291000Z 31002KT 15SM BKN029 M07/M09 A3051 RMK SC7 SLP342

CYQG;2013-11-29 11:00;CYQG 291100Z 34004KT 15SM FEW028 BKN057 M06/M09 A3053 RMK SC2SC6 SLP350

CYQG;2013-11-29 12:00;CYQG 291200Z 36004KT 15SM FEW056 M06/M09 A3055 RMK SC2 SLP357

CYQG;2013-11-29 13:00;CYQG 291300Z 28002KT 12SM FEW056 M07/M09 A3059 RMK SC1 FROIN SLP368

CYQG;2013-11-29 14:00;CYQG 291400Z 36003KT 15SM FEW055 M05/M07 A3061 RMK SC1 SLP377

CYQG;2013-11-29 15:00;CYQG 291500Z 02004KT 15SM FEW055 FEW260 M03/M07 A3063 RMK SC1CI1 TR SC TR CI SLP385

CYQG;2013-11-29 16:00;CYQG 291600Z 05002KT 15SM FEW020 FEW260 M02/M07 A3065 RMK SC1CI1 TR CI CONTRAILS SLP390

CYQG;2013-11-29 17:00;CYQG 291700Z 17002KT 15SM FEW017 M01/M07 A3064 RMK SC2 SLP386

CYQG;2013-11-29 18:00;CYQG 291800Z 00000KT 12SM FEW020 00/M06 A3062 RMK SC2 SLP380

CYQG;2013-11-29 19:00;CYQG 291900Z 00000KT 12SM FEW028 00/M07 A3061 RMK SC2 SLP375

CYQG;2013-11-29 20:00;CYQG 292000Z 17003KT 12SM FEW030 FEW260 01/M07 A3061 RMK SC2CI1 TR CI SLP376

CYQG;2013-11-29 21:00;CYQG 292100Z 12003KT 15SM FEW030 BKN260 BKN280 00/M07 A3062 RMK SC2CC2CI1 SLP380

CYQG;2013-11-29 22:00;CYQG 292200Z 10007KT 12SM FEW030 FEW140 FEW260 BKN280 M02/M06 A3063 RMK SC1AC2CC1CI2 TR CC SLP382

CYQG;2013-11-29 23:00;CYQG 292300Z 13004KT 12SM BKN027 BKN190 M03/M06 A3064 RMK SC5AC2 SLP386

CYQG;2013-11-30 00:00;CYQG 300000Z 11006KT 12SM FEW025 BKN170 M03/M06 A3063 RMK SC2AC4 SLP383

CYQG;2013-11-30 01:00;CYQG 300100Z 10003KT 15SM BKN160 M03/M07 A3062 RMK AC6 SLP381

CYQG;2013-11-30 02:00;CYQG 300200Z 12004KT 12SM SCT170 M04/M07 A3061 RMK AC3 SLP376

CYQG;2013-11-30 03:00;CYQG 300300Z 13004KT 15SM SKC M04/M07 A3059 RMK SLP370

CYQG;2013-11-30 04:00;CYQG 300400Z 13003KT 15SM BKN260 M05/M07 A3058 RMK CI4 SLP366

CYQG;2013-11-30 05:00;CYQG 300500Z 13002KT 15SM BKN160 M04/M07 A3057 RMK AC7 SLP363

CYQG;2013-11-30 06:00;CYQG 300600Z 15005KT 15SM BKN160 M03/M06 A3054 RMK AS6 SLP352

CYQG;2013-11-30 07:00;CYQG 300700Z 16005KT 15SM BKN170 M02/M06 A3053 RMK AS6 SLP347

CYQG;2013-11-30 08:00;CYQG 300800Z 16006KT 15SM OVC140 M01/M05 A3051 RMK AS6 SLP340

CYQG;2013-11-30 09:00;CYQG 300900Z 16005KT 12SM OVC130 M01/M05 A3049 RMK AS7 SLP332

CYQG;2013-11-30 10:00;CYQG 301000Z 16007KT 12SM OVC120 M01/M04 A3047 RMK AS8 SLP325

CYQG;2013-11-30 11:00;CYQG 301100Z 17008KT 12SM OVC120 M01/M04 A3044 RMK AS7 SLP317

CYQG;2013-11-30 12:00;CYQG 301200Z 19007KT 12SM OVC100 M00/M04 A3043 RMK AC7 SLP314

CYQG;2013-11-30 13:00;CYQG 301300Z 18006KT 8SM FEW150 SCT260 M01/M04 A3041 RMK AS2CI1 CONTRAILS SLP309

CYQG;2013-11-30 14:00;CYQG 301400Z 20006KT 12SM SCT150 BKN260 00/M04 A3041 RMK AS2CI2 CONTRAILS SLP307

CYQG;2013-11-30 15:00;CYQG 301500Z 20013KT 15SM SCT150 BKN260 01/M04 A3038 RMK AS2CI2 CONTRAILS SLP297

CYQG;2013-11-30 16:00;CYQG 301600Z 20012G17KT 15SM FEW110 BKN260 02/M04 A3035 RMK AC1CI2 CONTRAILS SLP287

CYQG;2013-11-30 17:00;CYQG 301700Z 21013KT 15SM SCT170 BKN260 03/M04 A3030 RMK AC2CI2 PRESFR SLP270

CYQG;2013-11-30 18:00;CYQG 301800Z 20011KT 15SM FEW170 BKN260 04/M04 A3026 RMK AC1CI2 TR AC PRESFR SLP256

CYQG;2013-11-30 19:00;CYQG 301900Z 21011KT 15SM FEW150 FEW260 05/M03 A3023 RMK AC1CI1 TR AC SLP245

CYQG;2013-11-30 20:00;CYQG 302000Z 20012KT 12SM FEW140 FEW260 05/M03 A3020 RMK AC1CI1 TR AC SLP233

CYQG;2013-11-30 21:00;CYQG 302100Z 19012KT 15SM FEW140 BKN280 05/M03 A3017 RMK AC1CI2 SLP223

CYQG;2013-11-30 22:00;CYQG 302200Z 18007KT 15SM FEW140 BKN280 03/M03 A3016 RMK AC1CI3 SLP220

CYQG;2013-11-30 23:00;CYQG 302300Z 18004KT 15SM FEW140 BKN280 02/M03 A3015 RMK AC1CI3 SLP218

CYQG;2013-12-01 00:00;CYQG 010000Z 19007KT 15SM SCT170 OVC280 02/M03 A3015 RMK AC3CI2 SLP217

CYQG;2013-12-01 01:00;CYQG 010100Z 20009KT 15SM FEW170 OVC280 03/M02 A3014 RMK AC2CI4 SLP215

CYQG;2013-12-01 02:00;CYQG 010200Z 20011KT 15SM BKN280 03/M02 A3013 RMK CI5 SLP209

CYQG;2013-12-01 03:00;CYQG 010300Z 21011KT 15SM BKN280 02/M02 A3012 RMK CI6 SLP207

CYQG;2013-12-01 04:00;CYQG 010400Z 21007KT 12SM SCT260 01/M02 A3011 RMK CI2 SLP203

CYQG;2013-12-01 05:00;CYQG 010500Z 21009KT 15SM BKN180 01/M02 A3010 RMK AC6 SLP200

CYQG;2013-12-01 06:00;CYQG 010600Z 22010KT 15SM BKN180 01/M03 A3009 RMK AC5 SLP195

CYQG;2013-12-01 07:00;CYQG 010700Z 21008KT 15SM SCT180 01/M03 A3007 RMK AC4 SLP188

CYQG;2013-12-01 08:00;CYQG 010800Z 21007KT 12SM FEW180 BKN240 01/M03 A3006 RMK AC1CI2 SLP186

CYQG;2013-12-01 09:00;CYQG 010900Z 23007KT 12SM BKN220 00/M03 A3005 RMK CI2 SLP183

CYQG;2013-12-01 10:00;CYQG 011000Z 22004KT 12SM FEW110 BKN160 OVC220 00/M03 A3004 RMK AC1AC5CI2 SLP180

CYQG;2013-12-01 11:00;CYQG 011100Z 22005KT 12SM BKN064 OVC160 01/M02 A3003 RMK SC6AC2 SLP176

CYQG;2013-12-01 12:00;CYQG 011200Z 22009KT 10SM BKN060 OVC120 01/M02 A3003 RMK SC7AC1 SLP177

CYQG;2013-12-01 13:00;CYQG 011300Z 25006KT 7SM OVC038 02/M02 A3004 RMK SC8 SLP179

CYQG;2013-12-01 14:00;CYQG 011400Z 24004KT 7SM OVC042 02/M03 A3003 RMK SC8 SLP177

CYQG;2013-12-01 15:00;CYQG 011500Z 24006KT 8SM OVC040 02/M02 A3004 RMK SC8 SLP179

CYQG;2013-12-01 16:00;CYQG 011600Z 25005KT 8SM BKN040 OVC110 03/M02 A3004 RMK SC7AC1 SLP178

CYQG;2013-12-01 17:00;CYQG 011700Z 27005KT 7SM FEW110 BKN160 05/M01 A3002 RMK AC1AC6 SLP172

CYQG;2013-12-01 18:00;CYQG 011800Z 23003KT 7SM BKN160 06/M00 A3000 RMK AC7 SLP164

CYQG;2013-12-01 19:00;CYQG 011900Z 28005KT 7SM BKN180 06/00 A2998 RMK AC6 SLP159

CYQG;2013-12-01 20:00;CYQG 012000Z 33006KT 7SM BKN180 06/00 A2997 RMK AC5 SLP156

CYQG;2013-12-01 21:00;CYQG 012100Z 34005KT 7SM BKN028 OVC170 06/00 A2998 RMK SC7AC1 SLP157

CYQG;2013-12-01 22:00;CYQG 012200Z 36006KT 6SM HZ OVC029 05/M00 A2999 RMK SC8 SLP162

CYQG;2013-12-01 23:00;CYQG 012300Z 34008KT 6SM HZ OVC034 04/M01 A3000 RMK SC8 SLP164

CYQG;2013-12-02 00:00;CYQG 020000Z 34005KT 6SM HZ OVC036 04/M01 A3000 RMK SC8 SLP166

CYQG;2013-12-02 01:00;CYQG 020100Z 35007KT 6SM HZ OVC035 03/M01 A3001 RMK SC8 SLP167

CYQG;2013-12-02 02:00;CYQG 020200Z 35005KT 8SM BKN040 02/M01 A3000 RMK SC7 SLP165

CYQG;2013-12-02 03:00;CYQG 020300Z 35006KT 7SM SCT040 M00/M02 A2999 RMK SC4 SLP162

CYQG;2013-12-02 05:00;CYQG 020500Z 35004KT 10SM FEW016 BKN028 02/M01 A2998 RMK SC1SC6 SLP158

CYQG;2013-12-02 06:00;CYQG 020600Z 36003KT 10SM OVC015 02/M00 A2997 RMK SC8 SLP153

CYQG;2013-12-02 07:00;CYQG 020700Z 36005KT 12SM OVC017 02/M01 A2995 RMK SC8 SLP149

CYQG;2013-12-02 07:39;CYQG 020739Z 36004KT 8SM -SHSN OVC021 RMK SC8

CYQG;2013-12-02 08:00;CYQG 020800Z 36003KT 8SM -SHSN OVC019 01/M01 A2995 RMK SC8 SLP148

CYQG;2013-12-02 08:43;CYQG 020843Z 35004KT 12SM OVC025 RMK SC8

CYQG;2013-12-02 09:00;CYQG 020900Z 33003KT 15SM FEW018 OVC026 01/M02 A2995 RMK SC2SC6 SLP147

CYQG;2013-12-02 10:00;CYQG 021000Z 35005KT 15SM OVC026 01/M03 A2995 RMK SC8 SLP147

CYQG;2013-12-02 11:00;CYQG 021100Z 35004KT 15SM OVC033 01/M02 A2995 RMK SC8 SLP147

CYQG;2013-12-02 12:00;CYQG 021200Z 36005KT 15SM OVC034 01/M02 A2995 RMK SC8 SLP147

CYQG;2013-12-02 13:00;CYQG 021300Z 03003KT 10SM OVC044 01/M02 A2994 RMK SC8 SLP146

CYQG;2013-12-02 14:00;CYQG 021400Z 02006KT 12SM OVC045 02/M04 A2995 RMK SC8 SLP148

CYQG;2013-12-02 15:00;CYQG 021500Z 02006KT 12SM OVC045 02/M01 A2995 RMK SC8 SLP149

CYQG;2013-12-02 16:00;CYQG 021600Z 04004KT 15SM OVC045 03/M05 A2995 RMK SC8 SLP149

CYQG;2013-12-02 17:00;CYQG 021700Z 04004KT 15SM BKN045 03/M06 A2992 RMK SC7 BRKSINC SLP141

CYQG;2013-12-02 18:00;CYQG 021800Z 08006KT 15SM BKN045 03/M06 A2991 RMK SC7 BRKSINC SLP134

CYQG;2013-12-02 19:00;CYQG 021900Z 08005KT 15SM SCT045 BKN280 04/M05 A2989 RMK SC4CI2 BRKSINC SLP128

CYQG;2013-12-02 20:00;CYQG 022000Z 06005KT 15SM FEW042 BKN280 03/M05 A2989 RMK SC2CI2 SLP127

CYQG;2013-12-02 21:00;CYQG 022100Z 07006KT 15SM FEW040 BKN280 03/M05 A2989 RMK SC2CI4 SLP129

CYQG;2013-12-02 22:00;CYQG 022200Z 09004KT 15SM BKN190 01/M05 A2990 RMK AC6 SLP131

CYQG;2013-12-02 23:00;CYQG 022300Z 00000KT 15SM BKN190 01/M05 A2991 RMK AC7 SLP135

CYQG;2013-12-03 00:00;CYQG 030000Z 13002KT 15SM BKN210 M01/M06 A2991 RMK CI7 SLP135

CYQG;2013-12-03 01:00;CYQG 030100Z 16002KT 15SM OVC160 M01/M05 A2990 RMK AC8 SLP132

CYQG;2013-12-03 02:00;CYQG 030200Z 00000KT 15SM OVC160 M02/M06 A2991 RMK AC8 SLP137

CYQG;2013-12-03 03:00;CYQG 030300Z 07002KT 15SM BKN150 BKN220 M02/M06 A2991 RMK AC5CI1 SLP137

CYQG;2013-12-03 04:00;CYQG 030400Z 08002KT 15SM BKN170 M02/M06 A2992 RMK AC4 SLP139

CYQG;2013-12-03 05:00;CYQG 030500Z 08002KT 12SM FEW260 M02/M06 A2991 RMK CI1 SLP136

CYQG;2013-12-03 06:00;CYQG 030600Z 07004KT 12SM FEW260 M03/M05 A2990 RMK CI1 SLP134

CYQG;2013-12-03 07:00;CYQG 030700Z 06004KT 12SM FEW100 FEW260 M02/M04 A2990 RMK AC1CI1 FROIN SLP132

CYQG;2013-12-03 08:00;CYQG 030800Z 09004KT 10SM SCT068 BKN087 M01/M03 A2990 RMK AC4AC2 SLP132

CYQG;2013-12-03 09:00;CYQG 030900Z CCA 08005KT 10SM BKN056 OVC080 M00/M03 A2989 RMK SC6AC2 SLP130

CYQG;2013-12-03 10:00;CYQG 031000Z 07007KT 10SM OVC052 M00/M02 A2990 RMK SC8 SLP132

CYQG;2013-12-03 11:00;CYQG 031100Z 09008KT 12SM OVC052 00/M03 A2988 RMK SC8 SLP126

CYQG;2013-12-03 11:13;CYQG 031113Z 08008KT 10SM -SHSN OVC051 RMK SC8

CYQG;2013-12-03 12:00;CYQG 031200Z 08005KT 10SM -SHSN BKN023 OVC048 01/M03 A2990 RMK SC5SC3 SLP132

CYQG;2013-12-03 13:00;CYQG 031300Z 07009KT 10SM -SHSN BKN032 OVC110 01/M03 A2991 RMK SC6AC2 SLP136

CYQG;2013-12-03 13:24;CYQG 031324Z 09007KT 2 1/2SM -SHSN OVC030 RMK SN1SC7

CYQG;2013-12-03 13:38;CYQG 031338Z 08006KT 6SM -SHSN OVC031 RMK SC8

CYQG;2013-12-03 14:00;CYQG 031400Z 09008KT 7SM -SHSN OVC030 01/M02 A2991 RMK SC8 SLP135

CYQG;2013-12-03 15:00;CYQG 031500Z 09006KT 10SM BKN016 OVC030 01/M01 A2991 RMK SC6SC2 SLP135

CYQG;2013-12-03 16:00;CYQG 031600Z 10006KT 12SM SCT015 OVC030 02/M01 A2990 RMK SC3SC5 SLP134

CYQG;2013-12-03 17:00;CYQG 031700Z 12008KT 12SM FEW017 OVC022 04/00 A2990 RMK SC2SC6 SLP133

CYQG;2013-12-03 17:28;CYQG 031728Z 11006KT 10SM -SHRA OVC020 RMK SC8

CYQG;2013-12-03 18:00;CYQG 031800Z 09007KT 6SM -RA BR OVC023 03/01 A2989 RMK SC8 SLP127

CYQG;2013-12-03 19:00;CYQG 031900Z 10006KT 5SM -RA BR SCT022 OVC032 03/01 A2987 RMK SC3SC5 SLP122

CYQG;2013-12-03 20:00;CYQG 032000Z 09008KT 6SM -RA BR OVC025 03/02 A2986 RMK SC8 SLP117

CYQG;2013-12-03 21:00;CYQG 032100Z 09007KT 6SM -RA BR FEW016 OVC024 04/02 A2986 RMK SC2SC6 SLP120

CYQG;2013-12-03 22:00;CYQG 032200Z 09005KT 6SM -RA BR OVC028 03/02 A2987 RMK SC8 SLP121

CYQG;2013-12-03 22:23;CYQG 032223Z 08005KT 6SM BR OVC024 RMK SC8

CYQG;2013-12-03 23:00;CYQG 032300Z 07005KT 6SM BR FEW025 OVC071 03/01 A2987 RMK SC2AC6 SLP121

CYQG;2013-12-04 00:00;CYQG 040000Z 08007KT 8SM OVC110 03/01 A2986 RMK AC8 SLP120

CYQG;2013-12-04 01:00;CYQG 040100Z 08007KT 7SM OVC093 03/02 A2986 RMK AC8 SLP117

CYQG;2013-12-04 02:00;CYQG 040200Z 07005KT 6SM BR OVC130 03/02 A2984 RMK AC8 SLP113

CYQG;2013-12-04 03:00;CYQG 040300Z 00000KT 6SM BR OVC077 03/02 A2986 RMK AC8 SLP117

CYQG;2013-12-04 03:21;CYQG 040321Z 04002KT 6SM -SHRA BR OVC046 RMK SC8

CYQG;2013-12-04 04:00;CYQG 040400Z 04003KT 5SM BR BKN038 OVC110 04/03 A2986 RMK SC5AC3 OCNL -SHRA SLP116

CYQG;2013-12-04 05:00;CYQG 040500Z 09002KT 5SM -SHRA BR BKN029 OVC100 04/03 A2987 RMK SC6AC2 SLP120

CYQG;2013-12-04 05:45;CYQG 040545Z 11004KT 6SM BR OVC029 RMK SC8

CYQG;2013-12-04 06:00;CYQG 040600Z 11004KT 6SM BR OVC029 04/04 A2987 RMK SC8 SLP122

CYQG;2013-12-04 07:00;CYQG 040700Z 10004KT 5SM BR FEW022 BKN042 OVC091 05/04 A2985 RMK CU2SC4AC2 SLP115

CYQG;2013-12-04 08:00;CYQG 040800Z 13005KT 5SM BR FEW024 BKN042 05/04 A2984 RMK SC2SC5 SLP111

CYQG;2013-12-04 09:00;CYQG 040900Z 00000KT 5SM BR BKN040 05/04 A2986 RMK SC7 SLP117

CYQG;2013-12-04 10:00;CYQG 041000Z 05003KT 4SM BR FEW042 OVC095 04/04 A2987 RMK SC2AC6 SLP119

CYQG;2013-12-04 11:00;CYQG 041100Z 03004KT 4SM BR BKN039 BKN260 04/03 A2988 RMK SC6CI2 SLP123

CYQG;2013-12-04 12:00;CYQG 041200Z 09004KT 4SM BR BKN036 BKN110 04/03 A2988 RMK SC6AC1 SLP125

CYQG;2013-12-04 12:34;CYQG 041234Z 00000KT 1 1/4SM BR OVC036 RMK FG2SC6

CYQG;2013-12-04 13:00;CYQG 041300Z 12004KT 1 1/2SM BR BKN041 04/04 A2989 RMK FG2SC6 SLP127

CYQG;2013-12-04 13:20;CYQG 041320Z 13004KT 2SM BR BKN038 RMK FG1SC6

CYQG;2013-12-04 14:00;CYQG 041400Z 11003KT 4SM BR BKN040 06/05 A2990 RMK SC7 SLP130

CYQG;2013-12-04 15:00;CYQG 041500Z 12004KT 4SM BR BKN041 07/06 A2990 RMK SC7 SLP130

CYQG;2013-12-04 16:00;CYQG 041600Z 14005KT 5SM BR BKN038 BKN110 09/07 A2989 RMK SC5AC2 SLP125

CYQG;2013-12-04 17:00;CYQG 041700Z 15007KT 6SM HZ BKN038 BKN110 10/08 A2986 RMK SC6AC2 SLP115

CYQG;2013-12-04 18:00;CYQG 041800Z 15008KT 6SM HZ FEW037 OVC260 11/08 A2981 RMK SC2CS4 HALO SLP098

CYQG;2013-12-04 19:00;CYQG 041900Z 17010KT 6SM HZ SCT042 OVC260 11/09 A2980 RMK SC3CS4 SLP096

CYQG;2013-12-04 20:00;CYQG 042000Z 15009KT 6SM HZ FEW040 OVC130 11/08 A2979 RMK SC2AC6 SLP092

CYQG;2013-12-04 21:00;CYQG 042100Z 12007KT 6SM HZ SCT038 OVC130 11/08 A2978 RMK SC4AC4 SLP088

CYQG;2013-12-04 22:00;CYQG 042200Z 12008KT 6SM HZ BKN031 OVC130 10/08 A2976 RMK SC6AC2 SLP080

CYQG;2013-12-04 22:39;CYQG 042239Z 12007KT 6SM -SHRA HZ OVC024 RMK SC8

CYQG;2013-12-04 23:00;CYQG 042300Z 12007KT 6SM HZ OVC025 10/08 A2973 RMK SC8 OCNL -SHRA SLP072

CYQG;2013-12-04 23:47;CYQG 042347Z 15014KT 7SM OVC025 RMK SC8

CYQG;2013-12-05 00:00;CYQG 050000Z 15016KT 7SM OVC025 12/10 A2973 RMK SC8 SLP069

CYQG;2013-12-05 01:00;CYQG 050100Z 16014KT 8SM BKN029 OVC056 12/09 A2971 RMK SC6SC2 SLP063

CYQG;2013-12-05 02:00;CYQG 050200Z 17015G20KT 12SM BKN069 12/09 A2968 RMK AC7 SLP055

CYQG;2013-12-05 03:00;CYQG 050300Z 17016G21KT 12SM BKN073 13/09 A2967 RMK AC7 SLP051

CYQG;2013-12-05 04:00;CYQG 050400Z 18016KT 12SM FEW046 BKN069 13/10 A2965 RMK SC2AC5 SLP044

CYQG;2013-12-05 05:00;CYQG 050500Z 18013KT 8SM FEW036 BKN075 14/11 A2964 RMK SC2AC4 SLP040

CYQG;2013-12-05 09:00;CYQG 050900Z 21013KT 7SM SCT026 13/11 A2964 RMK SC3 SLP039

CYQG;2013-12-05 10:00;CYQG 051000Z 22011KT 7SM FEW017 BKN049 13/11 A2966 RMK SF1SC6 TR SF SLP045

CYQG;2013-12-05 11:00;CYQG 051100Z 22012KT 8SM FEW020 BKN044 13/11 A2968 RMK CU2SC6 SLP052

CYQG;2013-12-05 12:00;CYQG 051200Z 24018G34KT 10SM FEW028 BKN260 14/10 A2969 RMK CU2CI2 SLP055

CYQG;2013-12-05 13:00;CYQG 051300Z 26016G21KT 10SM FEW030 OVC260 11/07 A2974 RMK SC2CI5 SLP070

CYQG;2013-12-05 14:00;CYQG 051400Z 25016KT 12SM SCT025 OVC270 10/05 A2978 RMK SC3CI4 SLP084

CYQG;2013-12-05 15:00;CYQG 051500Z 25012G17KT 15SM FEW020 BKN250 BKN270 08/04 A2980 RMK SC2CC2CI2 CONTRAILS SLP093

CYQG;2013-12-05 16:00;CYQG 051600Z 25019G26KT 15SM BKN022 BKN270 07/02 A2985 RMK CU6CI2 PRESRR SLP109

CYQG;2013-12-05 17:00;CYQG 051700Z 26018KT 15SM FEW020 BKN280 06/M00 A2985 RMK CU2CI4 CONTRAILS SLP110

CYQG;2013-12-05 18:00;CYQG 051800Z CCA 25018G24KT 15SM SCT030 BKN150 BKN280 05/M02 A2988 RMK CU3AC2CI2 SLP121

CYQG;2013-12-05 19:00;CYQG 051900Z 26014G19KT 15SM SCT035 BKN130 BKN280 05/M02 A2989 RMK CU3AC3CI1 SLP125

CYQG;2013-12-05 20:00;CYQG 052000Z 27012G17KT 15SM SCT033 SCT150 BKN280 05/M03 A2990 RMK CU3AC1CI2 CONTRAILS SLP128

CYQG;2013-12-05 21:00;CYQG 052100Z 28009KT 15SM FEW034 FEW140 OVC280 04/M03 A2995 RMK SC1AC2CI5 SLP144

CYQG;2013-12-05 22:00;CYQG 052200Z 27010KT 15SM FEW034 BKN160 OVC280 04/M04 A2998 RMK SC2AC4CI2 SLP157

CYQG;2013-12-05 23:00;CYQG 052300Z 25010KT 15SM FEW034 OVC120 03/M04 A3002 RMK SC1AC7 SLP168

CYQG;2013-12-06 00:00;CYQG 060000Z 28011KT 15SM FEW035 OVC110 03/M05 A3002 RMK SC1AC7 SLP168

CYQG;2013-12-06 01:00;CYQG 060100Z 29009KT 15SM OVC100 03/M07 A3006 RMK AC8 SLP181

CYQG;2013-12-06 02:00;CYQG 060200Z 30010KT 15SM OVC075 02/M06 A3006 RMK AC8 SLP181

CYQG;2013-12-06 03:00;CYQG 060300Z 27012G17KT 15SM OVC080 01/M08 A3010 RMK AC8 SLP199

CYQG;2013-12-06 04:00;CYQG 060400Z 28012KT 15SM OVC110 01/M06 A3011 RMK AC8 SLP203

CYQG;2013-12-06 05:00;CYQG 060500Z 29011KT 15SM OVC110 00/M07 A3011 RMK AC8 SLP200

CYQG;2013-12-06 06:00;CYQG 060600Z CCA 29012KT 15SM OVC120 00/M07 A3012 RMK AC8 SLP206

CYQG;2013-12-06 08:00;CYQG 060800Z 30010KT 15SM BKN240 M01/M07 A3014 RMK CC7 BRKSINC SLP211

CYQG;2013-12-06 09:00;CYQG 060900Z 30009KT 15SM OVC120 M00/M07 A3014 RMK AC8 SLP213

CYQG;2013-12-06 10:00;CYQG 061000Z 29007KT 15SM OVC083 M01/M07 A3017 RMK AC8 SLP224

CYQG;2013-12-06 11:00;CYQG 061100Z 32005KT 15SM OVC092 M01/M07 A3017 RMK AC8 SLP225

CYQG;2013-12-06 12:00;CYQG 061200Z 29005KT 15SM OVC097 M01/M08 A3018 RMK AC8 SLP226

CYQG;2013-12-06 13:00;CYQG 061300Z 30010KT 15SM OVC086 M01/M09 A3021 RMK AC8 SLP238

CYQG;2013-12-06 14:00;CYQG 061400Z 29007KT 15SM OVC097 M01/M09 A3023 RMK AC8 SLP244

CYQG;2013-12-06 15:00;CYQG 061500Z 31006KT 15SM BKN087 OVC270 M01/M08 A3024 RMK AC6CI2 SLP247

CYQG;2013-12-06 16:00;CYQG 061600Z 29006KT 15SM OVC087 M01/M10 A3026 RMK AC8 SLP255

CYQG;2013-12-06 17:00;CYQG 061700Z 30006KT 15SM OVC095 M01/M10 A3025 RMK AC8 SLP252

CYQG;2013-12-06 18:00;CYQG 061800Z 31006KT 15SM OVC110 M01/M10 A3025 RMK AC8 SLP252

CYQG;2013-12-06 19:00;CYQG 061900Z 33009KT 15SM OVC100 M02/M10 A3023 RMK AC8 SLP246

CYQG;2013-12-06 20:00;CYQG 062000Z 34007KT 15SM BKN093 OVC260 M02/M10 A3023 RMK AC6CI2 SLP246

CYQG;2013-12-06 21:00;CYQG 062100Z 34007KT 15SM OVC090 M02/M10 A3026 RMK AC8 SLP254

CYQG;2013-12-06 22:00;CYQG 062200Z 32006KT 15SM OVC090 M02/M10 A3026 RMK AS8 SLP254

CYQG;2013-12-06 23:00;CYQG 062300Z 35009KT 15SM OVC080 M03/M10 A3026 RMK AS8 SLP257

CYQG;2013-12-07 00:00;CYQG 070000Z 34008KT 15SM OVC100 M03/M11 A3029 RMK AS8 SLP266

CYQG;2013-12-07 01:00;CYQG 070100Z 33007KT 15SM OVC100 M03/M11 A3030 RMK AS8 SLP270

CYQG;2013-12-07 02:00;CYQG 070200Z 29007KT 15SM OVC080 M03/M11 A3032 RMK AS8 SLP276

CYQG;2013-12-07 02:20;CYQG 070220Z 32006KT 15SM -SHSN OVC070 RMK AC8

CYQG;2013-12-07 03:00;CYQG 070300Z 34009KT 15SM -SHSN BKN070 BKN140 M04/M11 A3032 RMK AC6AC2 SLP277

CYQG;2013-12-07 03:32;CYQG 070332Z 33007KT 15SM FEW075 BKN130 RMK AC2AC3

CYQG;2013-12-07 04:00;CYQG 070400Z 30006KT 15SM FEW028 SCT130 M04/M11 A3036 RMK SC2AC2 SLP290

CYQG;2013-12-07 05:00;CYQG 070500Z 30010KT 15SM FEW130 M05/M11 A3037 RMK AC2 SLP294

CYQG;2013-12-07 06:00;CYQG 070600Z 29009KT 15SM FEW130 M05/M12 A3038 RMK AC2 SLP298

CYQG;2013-12-07 07:00;CYQG 070700Z 31012G17KT 15SM SCT030 BKN130 M06/M12 A3040 RMK SC3AC2 SLP303

CYQG;2013-12-07 08:00;CYQG 070800Z 29007KT 15SM FEW030 M07/M13 A3042 RMK SC2 SLP311

CYQG;2013-12-07 09:02;CYQG 070902Z 31010KT 15SM -SHSN BKN033 RMK SC6

CYQG;2013-12-07 09:33;CYQG 070933Z 32013KT 15SM BKN033 RMK SC5

CYQG;2013-12-07 10:00;CYQG 071000Z 32005KT 15SM FEW033 FEW110 M07/M14 A3046 RMK SC2AC1 SLP325

CYQG;2013-12-07 11:00;CYQG 071100Z 31009KT 15SM BKN037 M07/M14 A3048 RMK SC7 SLP331

CYQG;2013-12-07 12:00;CYQG 071200Z 28007KT 15SM BKN037 M07/M13 A3050 RMK SC7 SLP338

CYQG;2013-12-07 13:00;CYQG 071300Z 26006KT 15SM BKN035 BKN270 M07/M13 A3051 RMK SC6CI1 SLP342

CYQG;2013-12-07 14:00;CYQG 071400Z 28009KT 15SM SCT030 M06/M13 A3053 RMK SC4 SLP350

CYQG;2013-12-07 15:00;CYQG 071500Z 32009KT 15SM FEW030 M06/M14 A3055 RMK SC2 SLP355

CYQG;2013-12-07 16:00;CYQG 071600Z 29007KT 15SM FEW030 M05/M14 A3056 RMK SC1 SLP359

CYQG;2013-12-07 17:00;CYQG 071700Z 32009KT 15SM FEW035 M05/M14 A3055 RMK SC1 SLP357

CYQG;2013-12-07 18:00;CYQG 071800Z 29009KT 15SM FEW035 M04/M14 A3055 RMK SC1 SLP355

CYQG;2013-12-07 19:00;CYQG 071900Z 28010KT 15SM FEW035 FEW270 M03/M14 A3053 RMK SC1CI1 TR CI SLP350

CYQG;2013-12-07 20:00;CYQG 072000Z 29009KT 15SM FEW035 FEW270 M04/M15 A3053 RMK SC1CI1 TR SC SLP348

CYQG;2013-12-07 21:00;CYQG 072100Z 29005KT 15SM FEW270 M03/M15 A3054 RMK CI1 SLP353

CYQG;2013-12-07 22:00;CYQG 072200Z 28007KT 15SM FEW270 M04/M15 A3055 RMK CI1 SLP356

CYQG;2013-12-07 23:00;CYQG 072300Z 29007KT 15SM FEW270 M05/M14 A3056 RMK CI1 SLP360

CYQG;2013-12-08 00:00;CYQG 080000Z 29007KT 15SM FEW270 M06/M14 A3058 RMK CI1 SLP367

CYQG;2013-12-08 01:00;CYQG 080100Z 31006KT 15SM FEW280 M06/M14 A3059 RMK CI1 SLP371

CYQG;2013-12-08 02:00;CYQG 080200Z 28006KT 15SM FEW280 M06/M14 A3060 RMK CI1 SLP373

CYQG;2013-12-08 03:00;CYQG 080300Z 33004KT 15SM FEW280 M07/M14 A3059 RMK CI1 SLP371

CYQG;2013-12-08 04:00;CYQG 080400Z 35003KT 15SM SCT280 M07/M14 A3059 RMK CI2 SLP369

CYQG;2013-12-08 05:00;CYQG 080500Z 00000KT 15SM SKC M08/M14 A3059 RMK SLP370

CYQG;2013-12-08 06:00;CYQG 080600Z 26003KT 15SM SKC M08/M14 A3057 RMK SLP362

CYQG;2013-12-08 07:00;CYQG 080700Z 36002KT 15SM SKC M09/M14 A3056 RMK SLP359

CYQG;2013-12-08 08:00;CYQG 080800Z 36003KT 15SM FEW240 M09/M14 A3057 RMK CS2 SLP363

CYQG;2013-12-08 09:00;CYQG 080900Z 36005KT 15SM BKN240 M09/M13 A3056 RMK CS2 SLP359

CYQG;2013-12-08 10:00;CYQG 081000Z 36006KT 15SM OVC200 M08/M13 A3054 RMK CS8 SLP354

CYQG;2013-12-08 11:00;CYQG 081100Z 36006KT 15SM BKN180 OVC240 M09/M14 A3053 RMK AC6CS1 SLP351

CYQG;2013-12-08 12:00;CYQG 081200Z CCA 02006KT 15SM OVC170 M09/M14 A3053 RMK AC8 SLP350

CYQG;2013-12-08 13:00;CYQG 081300Z 02004KT 15SM BKN170 M08/M13 A3052 RMK AC7 SLP347

CYQG;2013-12-08 14:00;CYQG 081400Z 06008KT 15SM BKN190 BKN270 M07/M11 A3050 RMK AC6CI2 SLP340

CYQG;2013-12-08 15:00;CYQG 081500Z 05011KT 15SM SCT023 BKN170 OVC270 M06/M11 A3048 RMK CU3AC2CI2 SLP335

CYQG;2013-12-08 16:00;CYQG 081600Z 08011KT 15SM BKN024 OVC110 M06/M11 A3046 RMK CU6AC2 SLP326

CYQG;2013-12-08 17:00;CYQG 081700Z 05010KT 15SM OVC022 M05/M10 A3043 RMK CU8 SLP317

CYQG;2013-12-08 17:50;CYQG 081750Z 06012KT 15SM -SN OVC025 RMK SC8

CYQG;2013-12-08 18:00;CYQG 081800Z 07012KT 10SM -SN OVC034 M05/M09 A3038 RMK SC8 PRESFR SLP299

CYQG;2013-12-08 18:34;CYQG 081834Z 07011G16KT 1 3/4SM -SN OVC025 RMK SN2SC6

CYQG;2013-12-08 19:00;CYQG 081900Z 06011KT 2SM -SN OVC021 M04/M08 A3034 RMK SN2SC6 SLP287

CYQG;2013-12-08 19:37;CYQG 081937Z 07011KT 3SM -SN OVC023 RMK SC8

CYQG;2013-12-08 20:00;CYQG 082000Z 08012KT 5SM -SN BKN023 OVC044 M04/M07 A3030 RMK SC5SC3 SLP274

CYQG;2013-12-08 21:00;CYQG 082100Z 08014G19KT 8SM -SN FEW016 BKN023 OVC070 M03/M07 A3026 RMK SC2SC4AS2 SLP259

CYQG;2013-12-08 22:00;CYQG 082200Z 07012G17KT 10SM -SN SCT022 OVC057 M03/M06 A3023 RMK SC3SC5 SLP248

CYQG;2013-12-08 23:00;CYQG 082300Z 08012KT 10SM -SN FEW021 OVC047 M02/M05 A3020 RMK SC2SC6 SLP237

CYQG;2013-12-08 23:35;CYQG 082335Z 07010KT 12SM FEW020 OVC045 RMK SC1SC7

CYQG;2013-12-09 00:00;CYQG 090000Z 08012KT 12SM FEW020 OVC041 M02/M04 A3018 RMK SC1SC7 SLP230

CYQG;2013-12-09 00:13;CYQG 090013Z 08014KT 12SM -SN OVC035 RMK SC8

CYQG;2013-12-09 01:00;CYQG 090100Z 08010KT 12SM -SN OVC024 M01/M04 A3013 RMK SC8 SLP214

CYQG;2013-12-09 02:00;CYQG 090200Z 11011KT 4SM -SN BKN016 OVC028 M01/M03 A3009 RMK SC5SC3 SLP200

CYQG;2013-12-09 02:08;CYQG 090208Z 11009KT 4SM -SN BKN013 OVC021 RMK SC6SC2

CYQG;2013-12-09 02:37;CYQG 090237Z 11011G17KT 2 1/2SM -SN OVC009 RMK SF8

CYQG;2013-12-09 03:00;CYQG 090300Z 12013KT 2SM -SN BKN006 OVC018 M02/M03 A3005 RMK SN1SF6SC2 SLP187

CYQG;2013-12-09 03:24;CYQG 090324Z 12010KT 1 1/2SM -SN SCT007 OVC026 RMK SN2SF2SC5

CYQG;2013-12-09 03:52;CYQG 090352Z 13007KT 3SM -SN BKN006 OVC021 RMK SF6SC2

CYQG;2013-12-09 04:00;CYQG 090400Z 13007KT 2 1/2SM -SN OVC007 M02/M03 A3003 RMK SF8 /S01/ SLP178

CYQG;2013-12-09 05:00;CYQG 090500Z 14008KT 2 1/2SM -SN OVC007 M01/M02 A2998 RMK SF8 SLP164

CYQG;2013-12-09 05:16;CYQG 090516Z 14008KT 3SM -SN BKN004 OVC012 RMK SF6SC2

CYQG;2013-12-09 05:43;CYQG 090543Z 16008KT 3SM -SN -FZDZ FEW004 OVC009 RMK SF2SC6

CYQG;2013-12-09 06:00;CYQG 090600Z 16009KT 3SM -SN -FZDZ FEW004 OVC007 M01/M02 A2994 RMK SF1SC7 SLP148

CYQG;2013-12-09 06:29;CYQG 090629Z 17006KT 2 1/2SM -SN -FZDZ OVC004 RMK SF8

CYQG;2013-12-09 07:00;CYQG 090700Z 18008KT 2SM -SN -FZDZ OVC004 M01/M02 A2990 RMK SF8 SLP135

CYQG;2013-12-09 07:19;CYQG 090719Z 20008KT 1 1/2SM -SN OVC005 RMK SF8

CYQG;2013-12-09 08:00;CYQG 090800Z 20009KT 1 1/4SM -SN OVC005 M01/M02 A2989 RMK SF8 /S01/ SLP132

CYQG;2013-12-09 08:22;CYQG 090822Z 21009KT 1 1/4SM -SN FEW005 OVC012 RMK SF2SC6

CYQG;2013-12-09 08:46;CYQG 090846Z 22009KT 4SM -SN OVC010 RMK SC8

CYQG;2013-12-09 09:00;CYQG 090900Z 22013KT 4SM -SN OVC012 M01/M02 A2988 RMK SC8 SLP127

CYQG;2013-12-09 10:00;CYQG 091000Z 24013KT 4SM -SN OVC014 M01/M03 A2988 RMK SC8 SLP126

CYQG;2013-12-09 11:00;CYQG 091100Z 25012KT 4SM -SN OVC014 M01/M03 A2988 RMK SC8 SLP127

CYQG;2013-12-09 12:00;CYQG 091200Z 25012KT 6SM -SN OVC012 M01/M04 A2989 RMK SC8 SLP131

CYQG;2013-12-09 12:25;CYQG 091225Z 24016KT 8SM OVC013 RMK SC8

CYQG;2013-12-09 13:00;CYQG 091300Z 24015KT 7SM OVC014 M01/M04 A2991 RMK SC8 SLP137

CYQG;2013-12-09 14:00;CYQG 091400Z 24017G22KT 6SM HZ OVC013 M01/M04 A2992 RMK SC8 SLP141

CYQG;2013-12-09 15:00;CYQG 091500Z 24016G22KT 7SM DRSN OVC016 M02/M05 A2996 RMK SC8 SLP153

CYQG;2013-12-09 16:00;CYQG 091600Z 25017G22KT 8SM OVC019 M02/M05 A2999 RMK SC8 SLP163

CYQG;2013-12-09 17:00;CYQG 091700Z 25017G24KT 8SM -SHSN OVC019 M02/M06 A2998 RMK SC8 SLP162

CYQG;2013-12-09 17:42;CYQG 091742Z 25017G24KT 10SM BKN030 BKN280 RMK SC5CI2

CYQG;2013-12-09 18:00;CYQG 091800Z 24016KT 15SM BKN023 BKN280 M02/M06 A2996 RMK CU6CI1 SLP153

CYQG;2013-12-09 19:00;CYQG 091900Z 24019G25KT 10SM OVC025 M02/M06 A2997 RMK CU8 SLP158

CYQG;2013-12-09 20:00;CYQG 092000Z 26021G26KT 10SM OVC026 M02/M07 A2999 RMK CU8 SLP165

CYQG;2013-12-09 21:00;CYQG 092100Z 26018G26KT 10SM BKN026 BKN250 M02/M08 A3001 RMK CU7CI1 CONTRAILS SLP172

CYQG;2013-12-09 22:00;CYQG 092200Z 25019G24KT 8SM BKN027 BKN210 M03/M09 A3004 RMK CU6CC1 TR CC CONTRAILS SLP181

CYQG;2013-12-09 23:00;CYQG 092300Z 25017G25KT 8SM BKN030 BKN230 M04/M10 A3006 RMK CU5CS1 SLP186

CYQG;2013-12-10 00:00;CYQG 100000Z 26013G21KT 10SM FEW026 BKN230 M04/M10 A3006 RMK CU2CS2 CONTRAILS SLP189

CYQG;2013-12-10 01:00;CYQG 100100Z 25018KT 10SM FEW028 BKN240 M05/M11 A3009 RMK CU1CS2 SLP197

CYQG;2013-12-10 02:00;CYQG 100200Z 25021KT 8SM FEW028 BKN170 M06/M11 A3009 RMK CU1AS2 SLP197

CYQG;2013-12-10 03:00;CYQG 100300Z 25014G19KT 8SM FEW026 BKN180 M06/M11 A3008 RMK CU2AS1 SLP197

CYQG;2013-12-10 04:00;CYQG 100400Z 25016G21KT 7SM FEW026 OVC170 M06/M11 A3008 RMK CU1AS6 TR CU SLP196

CYQG;2013-12-10 05:00;CYQG 100500Z 26016KT 8SM FEW025 OVC150 M06/M11 A3007 RMK CU1AS7 SLP194

CYQG;2013-12-10 06:00;CYQG 100600Z 27010G19KT 8SM FEW022 OVC160 M06/M11 A3007 RMK SC2AC6 SLP193

CYQG;2013-12-10 07:00;CYQG 100700Z 27012KT 12SM BKN029 OVC150 M06/M11 A3011 RMK SC5AC3 SLP204

CYQG;2013-12-10 08:00;CYQG 100800Z 27012KT 12SM SCT031 BKN150 M07/M12 A3012 RMK SC4AC2 SLP208

CYQG;2013-12-10 09:00;CYQG 100900Z 29009KT 10SM BKN029 BKN150 M07/M13 A3009 RMK SC6AC2 SLP200

CYQG;2013-12-10 10:00;CYQG 101000Z 29010KT 12SM SCT029 BKN180 M08/M13 A3009 RMK SC3AC4 SLP199

CYQG;2013-12-10 11:00;CYQG 101100Z 29007KT 12SM BKN029 BKN180 M08/M15 A3008 RMK SC6AC1 SLP198

CYQG;2013-12-10 11:23;CYQG 101123Z 29009KT 12SM -SHSN OVC029 RMK SC8

CYQG;2013-12-10 11:47;CYQG 101147Z 28008KT 12SM BKN029 BKN180 RMK SC5AC2

CYQG;2013-12-10 12:00;CYQG 101200Z 28008KT 12SM SCT030 BKN180 M08/M15 A3009 RMK SC3AC2 SLP201

CYQG;2013-12-10 13:00;CYQG 101300Z 24011KT 12SM SCT024 BKN160 M09/M14 A3008 RMK SC4AC2 SLP198

CYQG;2013-12-10 14:00;CYQG 101400Z 25011G16KT 15SM FEW025 FEW160 M10/M14 A3008 RMK CU1AC1 SLP197

CYQG;2013-12-10 15:00;CYQG 101500Z 23015KT 15SM FEW025 BKN130 M09/M14 A3007 RMK CF1AC6 SLP194

CYQG;2013-12-10 16:00;CYQG 101600Z 23014KT 15SM BKN120 BKN260 M09/M15 A3004 RMK AC6CI1 SLP185

CYQG;2013-12-10 17:00;CYQG 101700Z 22018KT 15SM FEW050 SCT120 BKN270 M08/M16 A3001 RMK SC1AC2CI2 SLP174

CYQG;2013-12-10 18:00;CYQG 101800Z 23015G21KT 15SM BKN071 BKN270 M07/M17 A2998 RMK AC7CI1 TR CI SLP162

CYQG;2013-12-10 19:00;CYQG 101900Z 24018KT 15SM FEW075 FEW270 M06/M16 A2995 RMK AC1CI1 SLP152

CYQG;2013-12-10 20:00;CYQG 102000Z 24021G27KT 15SM FEW030 SCT075 SCT270 M05/M15 A2995 RMK SC2AC1CI1 SLP154

CYQG;2013-12-10 21:00;CYQG 102100Z 26023G28KT 15SM FEW045 FEW270 M05/M14 A2998 RMK SC2CI1 TR CI SLP164

CYQG;2013-12-10 22:00;CYQG 102200Z 26018G24KT 12SM BKN046 M06/M13 A3001 RMK SC5 SLP175

CYQG;2013-12-10 23:00;CYQG 102300Z 25016G21KT 15SM FEW043 M06/M13 A3005 RMK SC2 SLP186

CYQG;2013-12-11 00:00;CYQG 110000Z 24012G17KT 15SM FEW040 M06/M13 A3006 RMK SC1 SLP191

CYQG;2013-12-11 01:00;CYQG 110100Z 25015KT 12SM FEW038 M06/M13 A3009 RMK SC1 SLP201

CYQG;2013-12-11 02:00;CYQG 110200Z 24011KT 12SM FEW022 FEW047 SCT210 M06/M12 A3010 RMK CU1SC1CC2 SLP204

CYQG;2013-12-11 03:00;CYQG 110300Z 25012KT 12SM FEW032 SCT047 M06/M12 A3013 RMK CU2SC2 SLP213

CYQG;2013-12-11 03:45;CYQG 110345Z 25012KT 10SM -SHSN SCT045 SCT210 RMK SC3CC1

CYQG;2013-12-11 04:00;CYQG 110400Z 25013KT 12SM -SHSN BKN044 M06/M12 A3016 RMK SC6 SLP223

CYQG;2013-12-11 05:00;CYQG 110500Z 25011G16KT 12SM -SHSN BKN039 M06/M12 A3018 RMK SC7 SLP230

CYQG;2013-12-11 06:00;CYQG 110600Z 24011KT 12SM -SHSN BKN039 OVC110 M06/M11 A3019 RMK SC7AC1 SLP233

CYQG;2013-12-11 07:00;CYQG 110700Z 24014KT 12SM BKN036 M06/M11 A3022 RMK SC6 OCNL -SHSN SLP244

CYQG;2013-12-11 08:00;CYQG 110800Z 24012KT 12SM SCT083 BKN170 M07/M12 A3023 RMK AC3AC3 SLP247

CYQG;2013-12-11 09:00;CYQG 110900Z 24012KT 12SM FEW034 BKN160 M07/M12 A3023 RMK SC2AC4 SLP248

CYQG;2013-12-11 10:00;CYQG 111000Z 24011KT 12SM BKN033 BKN150 M07/M12 A3025 RMK SC6AC2 SLP255

CYQG;2013-12-11 11:00;CYQG 111100Z 24011KT 10SM SCT030 BKN076 M07/M12 A3025 RMK SC4AC3 SLP254

CYQG;2013-12-11 12:00;CYQG 111200Z 24008KT 10SM FEW030 BKN073 M08/M12 A3025 RMK SC2AC5 SLP255

CYQG;2013-12-11 13:00;CYQG 111300Z 24009KT 12SM OVC049 M07/M12 A3026 RMK SC8 SLP259

CYQG;2013-12-11 13:28;CYQG 111328Z 24012KT 5SM -SN OVC023 RMK SC8

CYQG;2013-12-11 14:00;CYQG 111400Z 25010KT 2 1/2SM -SN OVC021 M07/M11 A3028 RMK SC8 SLP265

CYQG;2013-12-11 15:00;CYQG 111500Z 24011KT 2 1/4SM -SN OVC015 M07/M10 A3029 RMK SN1SC7 SLP270

CYQG;2013-12-11 15:52;CYQG 111552Z 24010KT 1 1/2SM -SN OVC012 RMK SN2SC6

CYQG;2013-12-11 16:00;CYQG 111600Z 24011KT 1 1/2SM -SN OVC011 M07/M09 A3030 RMK SN2SC6 SLP271

CYQG;2013-12-11 16:08;CYQG 111608Z 25012KT 3SM -SN FEW011 OVC025 RMK SC2SC5

CYQG;2013-12-11 17:00;CYQG 111700Z 25011KT 6SM -SN FEW012 OVC032 M06/M09 A3027 RMK SC2SC6 SLP261

CYQG;2013-12-11 18:00;CYQG 111800Z 24011KT 10SM -SN BKN021 M05/M09 A3025 RMK SC7 /S01/ SLP253

CYQG;2013-12-11 19:00;CYQG 111900Z 25008KT 7SM -SHSN FEW018 BKN280 M05/M10 A3023 RMK SC2CI2 SLP247

CYQG;2013-12-11 20:00;CYQG 112000Z 28009KT 5SM -SHSN BKN026 M04/M09 A3023 RMK SC6 SLP246

CYQG;2013-12-11 20:18;CYQG 112018Z 31007KT 2SM -SHSN BKN024 RMK SC7 VIS SE-SW 9 MILES

CYQG;2013-12-11 20:30;CYQG 112030Z 31007KT 1/2SM SHSN OVC013 RMK SN2SC6

CYQG;2013-12-11 21:00;CYQG 112100Z CCA 32012KT 1SM -SHSN BKN018 BKN029 M06/M08 A3026 RMK SN1SC5SC2 VIS S-SW 3 /S02/ SLP258

CYQG;2013-12-11 21:12;CYQG 112112Z 32014KT 7SM -SHSN FEW018 BKN046 RMK SC2SC6

CYQG;2013-12-11 22:00;CYQG 112200Z 32009KT 12SM -SHSN BKN044 M06/M10 A3028 RMK SC7 SLP266

CYQG;2013-12-11 22:30;CYQG 112230Z 32010KT 12SM BKN040 RMK SC6

CYQG;2013-12-11 23:00;CYQG 112300Z 29012G17KT 15SM FEW042 M07/M13 A3031 RMK SC2 SLP275

CYQG;2013-12-12 00:00;CYQG 120000Z 29013KT 15SM FEW036 M08/M14 A3034 RMK SC2 SLP287

CYQG;2013-12-12 01:00;CYQG 120100Z CCA 31012G17KT 15SM FEW036 FEW250 M09/M14 A3038 RMK SC2CI1 TR CI SLP299

CYQG;2013-12-12 02:00;CYQG 120200Z 31013KT 15SM FEW036 M10/M15 A3040 RMK SC1 SLP306

CYQG;2013-12-12 03:00;CYQG 120300Z 30010G15KT 15SM FEW036 M11/M15 A3041 RMK SC1 TR SC SLP310

CYQG;2013-12-12 04:00;CYQG 120400Z 29011KT 15SM FEW036 M11/M16 A3043 RMK SC1 TR SC SLP319

CYQG;2013-12-12 05:00;CYQG 120500Z 32009KT 15SM FEW220 M12/M16 A3043 RMK CI2 SLP319

CYQG;2013-12-12 07:00;CYQG 120700Z 28005KT 15SM SKC M13/M16 A3042 RMK SLP313

CYQG;2013-12-12 08:00;CYQG 120800Z 24007KT 15SM SKC M13/M16 A3044 RMK SLP322

CYQG;2013-12-12 09:00;CYQG 120900Z 25006KT 15SM BKN028 M13/M15 A3044 RMK SC5 SLP320

CYQG;2013-12-12 09:51;CYQG 120951Z 25007KT 8SM -SHSN OVC032 RMK SC8

CYQG;2013-12-12 10:00;CYQG 121000Z 24006KT 8SM -SHSN OVC032 M12/M15 A3042 RMK SC8 SLP315

CYQG;2013-12-12 11:00;CYQG 121100Z 24006KT 7SM -SHSN OVC037 M11/M13 A3042 RMK SC8 SLP314

CYQG;2013-12-12 12:00;CYQG 121200Z 24008KT 10SM -SHSN BKN036 M11/M13 A3040 RMK SC7 SLP309

CYQG;2013-12-12 12:40;CYQG 121240Z 24008KT 15SM FEW034 RMK SC2

CYQG;2013-12-12 13:00;CYQG 121300Z 23009KT 15SM FEW035 BKN170 M11/M13 A3039 RMK SC1AC1 SLP306

CYQG;2013-12-12 14:00;CYQG 121400Z 25013G18KT 15SM FEW035 BKN150 M11/M14 A3040 RMK SC1AC2 SLP307

CYQG;2013-12-12 15:00;CYQG 121500Z 25014KT 15SM FEW023 BKN140 M10/M14 A3039 RMK SC1AC4 SLP304

CYQG;2013-12-12 16:00;CYQG 121600Z 24012G18KT 15SM FEW023 BKN090 M10/M14 A3037 RMK SC1AC6 SLP298

CYQG;2013-12-12 17:00;CYQG 121700Z 24020KT 15SM FEW025 BKN070 M10/M14 A3033 RMK SC1AC6 SLP286

CYQG;2013-12-12 18:00;CYQG 121800Z 24017G22KT 15SM BKN048 M09/M15 A3029 RMK SC7 SLP270

CYQG;2013-12-12 19:00;CYQG 121900Z 23017G22KT 15SM FEW047 BKN075 M10/M16 A3026 RMK SC1AC6 SLP262

CYQG;2013-12-12 20:00;CYQG 122000Z 24016KT 15SM FEW046 FEW070 M09/M17 A3024 RMK SC1AC1 SLP255

CYQG;2013-12-12 21:00;CYQG 122100Z 25018KT 15SM FEW046 FEW070 M09/M17 A3023 RMK SC1AC1 SLP251

CYQG;2013-12-12 22:00;CYQG 122200Z 24015KT 15SM FEW046 FEW070 FEW280 M09/M16 A3023 RMK SC1AC1CS1 SLP250

CYQG;2013-12-12 23:00;CYQG 122300Z 24015KT 15SM FEW046 M09/M16 A3022 RMK SC2 SLP248

CYQG;2013-12-13 00:00;CYQG 130000Z 25008KT 15SM FEW040 FEW280 M09/M16 A3023 RMK SC1CI1 SLP249

CYQG;2013-12-13 01:00;CYQG 130100Z 24009KT 15SM OVC028 M09/M15 A3023 RMK SC8 MOON VSBL SLP250

CYQG;2013-12-13 01:52;CYQG 130152Z 24009KT 15SM -SHSN OVC023 RMK SC8

CYQG;2013-12-13 02:00;CYQG 130200Z 25009KT 15SM -SHSN OVC023 M09/M14 A3022 RMK SC8 SLP246

CYQG;2013-12-13 03:00;CYQG 130300Z 26013KT 15SM -SHSN OVC022 M07/M11 A3020 RMK SC8 SLP239

CYQG;2013-12-13 03:51;CYQG 130351Z 23012G17KT 15SM OVC024 RMK SC8

CYQG;2013-12-13 04:00;CYQG 130400Z 24013KT 15SM OVC024 M08/M12 A3018 RMK SC8 SLP234

CYQG;2013-12-13 05:00;CYQG 130500Z 24011KT 15SM FEW025 OVC095 M08/M11 A3017 RMK SC2AC6 SLP231

CYQG;2013-12-13 06:00;CYQG 130600Z 24011KT 15SM FEW025 OVC090 M08/M11 A3016 RMK SC2AC6 SLP225

CYQG;2013-12-13 07:00;CYQG 130700Z 23011KT 15SM FEW025 OVC088 M07/M11 A3015 RMK SC1AC7 SLP221

CYQG;2013-12-13 08:00;CYQG 130800Z 23011KT 15SM OVC084 M07/M10 A3015 RMK AC8 SLP223

CYQG;2013-12-13 09:00;CYQG 130900Z 25009KT 15SM OVC059 OVC088 M06/M09 A3015 RMK SC5AC3 SLP223

CYQG;2013-12-13 10:00;CYQG 131000Z 23007KT 15SM OVC063 OVC084 M06/M09 A3014 RMK SC5AC3 SLP219

CYQG;2013-12-13 11:00;CYQG 131100Z 24008KT 15SM FEW058 BKN084 OVC160 M07/M10 A3015 RMK SC2AC4AC2 SLP223

CYQG;2013-12-13 12:00;CYQG 131200Z 24008KT 15SM FEW021 BKN086 OVC170 M07/M10 A3016 RMK SC2AC4AC2 SLP226

CYQG;2013-12-13 13:00;CYQG 131300Z 24011KT 15SM OVC018 M07/M10 A3018 RMK SC8 SLP231

CYQG;2013-12-13 14:00;CYQG 131400Z 23011KT 12SM OVC019 M07/M10 A3020 RMK SC8 SLP237

CYQG;2013-12-13 15:00;CYQG 131500Z 23009KT 15SM OVC017 M06/M10 A3021 RMK SC8 SLP243

CYQG;2013-12-13 16:00;CYQG 131600Z 27009KT 15SM SCT019 OVC070 M05/M09 A3022 RMK SC4AC4 SLP245

CYQG;2013-12-13 17:00;CYQG 131700Z 24006KT 12SM OVC067 M04/M08 A3020 RMK AC8 SLP239

CYQG;2013-12-13 18:00;CYQG 131800Z 27004KT 12SM FEW063 FEW160 M02/M07 A3019 RMK SC2AC1 SLP234

CYQG;2013-12-13 19:00;CYQG 131900Z 35004KT 12SM SCT023 OVC075 M02/M07 A3019 RMK SC3AC5 SLP233

CYQG;2013-12-13 20:00;CYQG 132000Z 00000KT 12SM FEW026 OVC080 M02/M07 A3018 RMK SC2AC6 SLP232

CYQG;2013-12-13 21:00;CYQG 132100Z 35004KT 8SM SCT026 OVC093 M02/M07 A3021 RMK SC4AC3 SLP239

CYQG;2013-12-13 22:00;CYQG 132200Z 08005KT 6SM HZ FEW026 OVC100 M02/M07 A3022 RMK SC2AC6 SLP244

CYQG;2013-12-13 23:00;CYQG 132300Z 06007KT 7SM FEW100 OVC200 M03/M06 A3022 RMK AC2CC6 SLP243

CYQG;2013-12-14 00:00;CYQG 140000Z 02010KT 7SM OVC019 M03/M06 A3024 RMK SC8 SLP252

CYQG;2013-12-14 01:00;CYQG 140100Z 09008KT 8SM OVC022 M04/M07 A3026 RMK SC8 SLP259

CYQG;2013-12-14 02:00;CYQG 140200Z 08009KT 12SM OVC024 M04/M07 A3027 RMK SC8 SLP261

CYQG;2013-12-14 03:00;CYQG 140300Z 06011KT 12SM OVC020 M05/M07 A3028 RMK CU8 SLP264

CYQG;2013-12-14 04:00;CYQG 140400Z 07014KT 12SM OVC019 M06/M09 A3028 RMK CU8 SLP265

CYQG;2013-12-14 05:00;CYQG 140500Z 06015KT 12SM OVC019 M06/M10 A3028 RMK SC8 SLP265

CYQG;2013-12-14 06:00;CYQG 140600Z 07015KT 12SM OVC018 M06/M10 A3025 RMK SC8 SLP255

CYQG;2013-12-14 06:46;CYQG 140646Z 06014KT 10SM -SN OVC014 RMK SC8

CYQG;2013-12-14 07:00;CYQG 140700Z 07011G17KT 4SM -SN OVC014 M06/M09 A3027 RMK SC8 SLP260

CYQG;2013-12-14 07:15;CYQG 140715Z 07015KT 2SM -SN OVC010 RMK SC8

CYQG;2013-12-14 07:48;CYQG 140748Z 07013KT 3SM -SN OVC032 RMK SC8

CYQG;2013-12-14 08:00;CYQG 140800Z 06015KT 3SM -SN OVC018 M07/M08 A3026 RMK SC8 SLP257

CYQG;2013-12-14 08:11;CYQG 140811Z 04013G18KT 1 1/2SM -SN OVC009 RMK SC8

CYQG;2013-12-14 09:00;CYQG 140900Z 05017KT 2SM -SN DRSN OVC011 M07/M08 A3024 RMK SC8 /S02/ SLP252

CYQG;2013-12-14 09:15;CYQG 140915Z 06013KT 4SM -SN DRSN SCT039 OVC071 RMK SC4AC4

CYQG;2013-12-14 10:00;CYQG 141000Z 06017KT 4SM -SN DRSN SCT011 OVC019 M07/M08 A3022 RMK SC4SC4 SLP245

CYQG;2013-12-14 10:44;CYQG 141044Z 06019G24KT 3SM -SN DRSN OVC009 RMK SC8

CYQG;2013-12-14 11:00;CYQG 141100Z 06016G22KT 2 1/2SM -SN DRSN BKN009 OVC017 M07/M08 A3021 RMK SC6SC2 /S04/ SLP241

CYQG;2013-12-14 11:24;CYQG 141124Z 07018G24KT 2 1/2SM -SN DRSN BKN015 OVC041 RMK SC6SC2

CYQG;2013-12-14 12:00;CYQG 141200Z 07019G26KT 2SM -SN DRSN SCT009 OVC023 M08/M09 A3021 RMK SC3SC5 /S05/ SLP241

CYQG;2013-12-14 12:17;CYQG 141217Z 06018G25KT 1 1/2SM -SN DRSN BKN009 OVC023 RMK SN2SF5SC2

CYQG;2013-12-14 12:47;CYQG 141247Z 06016G22KT 2SM -SN DRSN OVC013 RMK SN1SC7

CYQG;2013-12-14 13:00;CYQG 141300Z 07018KT 2 1/4SM -SN DRSN SCT013 OVC021 M08/M09 A3020 RMK SC3SC5 SLP236

CYQG;2013-12-14 13:47;CYQG 141347Z 06017KT 1 1/2SM -SN DRSN FEW010 OVC017 RMK SN2SC1SC6

CYQG;2013-12-14 14:00;CYQG 141400Z 06017G24KT 1SM -SN DRSN SCT012 OVC017 M08/M08 A3017 RMK SN2SC1SC5 SLP227

CYQG;2013-12-14 15:00;CYQG 141500Z 06018KT 3/4SM -SN DRSN OVC018 M07/M08 A3015 RMK SN3SC5 /S03/ SLP220

CYQG;2013-12-14 15:09;CYQG 141509Z 06018G24KT 3/4SM -SN DRSN BKN008 OVC018 RMK SN3SF2SC2

CYQG;2013-12-14 15:52;CYQG 141552Z 06016G22KT 1/2SM SN DRSN OVC005 RMK SN3SF5

CYQG;2013-12-14 16:00;CYQG 141600Z 06019G24KT 1/2SM -SN BLSN OVC005 M07/M08 A3011 RMK SN4SF4 /S05/ SLP206

CYQG;2013-12-14 16:28;CYQG 141628Z 06018KT 1/2SM -SN BLSN OVC006 RMK SN3SF5

CYQG;2013-12-14 17:00;CYQG 141700Z 06014G19KT 1/2SM -SN BLSN OVC005 M07/M08 A3007 RMK SN4SF4 /S06/ SLP193

CYQG;2013-12-14 17:37;CYQG 141737Z 06015KT 3/4SM -SN DRSN OVC007 RMK SN3SF5

CYQG;2013-12-14 18:00;CYQG 141800Z 06019KT 1/2SM -SN BLSN OVC006 M07/M07 A3000 RMK SN4SF4 SLP169

CYQG;2013-12-14 19:00;CYQG 141900Z 06015G24KT 5/8SM -SN BLSN OVC006 M06/M07 A2994 RMK SN3SF5 /S01/ SLP150

CYQG;2013-12-14 19:22;CYQG 141922Z 06016G24KT 3/4SM -SN DRSN OVC007 RMK SN3SF5

CYQG;2013-12-14 19:50;CYQG 141950Z 05018KT 5/8SM -SN BLSN OVC006 RMK SN4SF4

CYQG;2013-12-14 20:00;CYQG 142000Z 05017G22KT 1/2SM -SN BLSN OVC006 M06/M07 A2990 RMK SN4SF4 SLP137

CYQG;2013-12-14 21:00;CYQG 142100Z 05017KT 1/2SM -SN BLSN OVC006 M06/M06 A2988 RMK SN4SF4 /S03/ SLP130

CYQG;2013-12-14 22:00;CYQG 142200Z 05015KT 1/2SM -SN BLSN OVC006 M06/M06 A2986 RMK SN4SF4 /S04/ SLP124

CYQG;2013-12-14 22:32;CYQG 142232Z 04016KT 3/4SM -SN DRSN OVC007 RMK SN3SF5

CYQG;2013-12-14 23:00;CYQG 142300Z CCA 04013G18KT 1SM -SN DRSN OVC007 M06/M06 A2984 RMK SN3SF5 /S05/ SLP116

CYQG;2013-12-15 00:00;CYQG 150000Z 04014KT 1SM -SN DRSN OVC007 M06/M06 A2982 RMK SN3SF5 /S08/ SLP109

CYQG;2013-12-15 01:00;CYQG 150100Z 04012KT 1SM -SN DRSN OVC007 M06/M06 A2981 RMK SN2SF6 /S01/ SLP105

CYQG;2013-12-15 01:29;CYQG 150129Z 03012KT 5SM -SN DRSN OVC024 RMK SC8

CYQG;2013-12-15 02:00;CYQG 150200Z 02011KT 5SM -SN DRSN SCT023 OVC040 M05/M06 A2979 RMK SF4SC4 SLP100

CYQG;2013-12-15 03:00;CYQG 150300Z 36008KT 5SM -SN DRSN FEW008 OVC082 M06/M07 A2978 RMK SF2AC6 SLP096

CYQG;2013-12-15 03:27;CYQG 150327Z 36009KT 3SM -SN OVC010 RMK SF8

CYQG;2013-12-15 04:00;CYQG 150400Z 36008KT 3SM -SN OVC031 M06/M07 A2978 RMK SF8 SLP094

CYQG;2013-12-15 05:00;CYQG 150500Z 35008KT 3SM -SN OVC021 M06/M06 A2978 RMK SC8 SLP096

CYQG;2013-12-15 05:47;CYQG 150547Z 34006KT 12SM FEW021 BKN046 RMK CU2SC6

CYQG;2013-12-15 06:00;CYQG 150600Z 34006KT 12SM FEW021 BKN047 M05/M06 A2977 RMK CU2SC6 SLP093

CYQG;2013-12-15 07:00;CYQG 150700Z 33008KT 12SM FEW021 OVC048 M05/M06 A2978 RMK CU1SC8 SLP096

CYQG;2013-12-15 08:00;CYQG 150800Z 32007KT 10SM BKN046 OVC066 M05/M06 A2980 RMK SC6AC2 SLP102

CYQG;2013-12-15 09:00;CYQG 150900Z 29008KT 10SM BKN041 M06/M07 A2981 RMK SC7 SLP104

CYQG;2013-12-15 10:00;CYQG 151000Z 29007KT 10SM BKN026 OVC045 M06/M07 A2982 RMK SC5SC3 SLP107

CYQG;2013-12-15 11:00;CYQG 151100Z 29009KT 8SM -SHSN FEW011 OVC024 M06/M07 A2984 RMK SC2SC6 SLP114

CYQG;2013-12-15 12:00;CYQG 151200Z 26006KT 5SM -SHSN SCT019 OVC043 M06/M07 A2984 RMK SC3SC5 SLP114

CYQG;2013-12-15 13:00;CYQG 151300Z 25006KT 5SM -SHSN SCT038 OVC057 M06/M07 A2983 RMK SC3SC5 SLP110

CYQG;2013-12-15 13:42;CYQG 151342Z 24011KT 1 1/2SM -SN OVC034 RMK SN2SC6

CYQG;2013-12-15 14:00;CYQG 151400Z 25012KT 2SM -SN OVC029 M06/M07 A2983 RMK SN2SC6 SLP112

CYQG;2013-12-15 14:29;CYQG 151429Z 24011KT 2 1/2SM -SN OVC026 RMK SN1SC7

CYQG;2013-12-15 14:42;CYQG 151442Z 24011KT 1 1/2SM -SN OVC027 RMK SN2SC6

CYQG;2013-12-15 14:51;CYQG 151451Z 24010KT 3/4SM -SN OVC022 RMK SN3SC5

CYQG;2013-12-15 15:00;CYQG 151500Z 23011KT 1 1/4SM -SN OVC025 M05/M06 A2983 RMK SN2SC6 SLP111

CYQG;2013-12-15 15:38;CYQG 151538Z 24014KT 3SM -SN BKN013 OVC049 RMK SC5SC3

CYQG;2013-12-15 16:00;CYQG 151600Z 24017KT 4SM -SN BKN014 OVC050 M04/M05 A2981 RMK SC6SC2 /S01/ SLP106

CYQG;2013-12-15 17:00;CYQG 151700Z 25014G19KT 4SM -SN BKN017 BKN050 M04/M05 A2980 RMK SC6SC2 SLP100

CYQG;2013-12-15 17:37;CYQG 151737Z 24016G24KT 2 1/2SM -SN OVC018 RMK SC8

CYQG;2013-12-15 18:00;CYQG 151800Z 24017KT 4SM -SN SCT019 OVC042 M04/M06 A2978 RMK SC4SC4 SLP093

CYQG;2013-12-15 18:37;CYQG 151837Z 26018G24KT 2 1/2SM -SN SCT018 OVC032 RMK SC4SC4

CYQG;2013-12-15 19:00;CYQG 151900Z 26022G27KT 1 1/4SM -SN DRSN OVC026 M05/M07 A2979 RMK SN3SC5 SLP097

CYQG;2013-12-15 19:41;CYQG 151941Z 26016KT 2SM -SN DRSN OVC019 RMK SN1SC7

CYQG;2013-12-15 20:00;CYQG 152000Z CCA 27015G21KT 2SM -SN DRSN OVC020 M05/M07 A2981 RMK SN2SC6 /S01/ SLP105

CYQG;2013-12-15 20:20;CYQG 152020Z 26014KT 7SM -SHSN DRSN OVC023 RMK SC8 VIS SE-SW 3

CYQG;2013-12-15 21:00;CYQG 152100Z 27013G21KT 8SM -SN DRSN BKN027 BKN100 M05/M08 A2984 RMK SC6AC1 TR AC SLP115

CYQG;2013-12-15 22:00;CYQG 152200Z 28016G24KT 7SM -SN DRSN OVC030 M05/M09 A2987 RMK SC8 -SN INTMT SLP126

CYQG;2013-12-15 23:00;CYQG 152300Z 29019G24KT 6SM -SHSN DRSN BKN022 OVC042 M06/M10 A2990 RMK SC6SC2 SLP134

CYQG;2013-12-16 00:00;CYQG 160000Z CCA 29014G21KT 8SM -SHSN DRSN BKN044 M07/M12 A2993 RMK SC7 /S02/ SLP145

CYQG;2013-12-16 01:00;CYQG 160100Z 28013G18KT 6SM -SHSN DRSN FEW024 BKN037 M07/M11 A2996 RMK CU1SC6 SLP156

CYQG;2013-12-16 02:00;CYQG 160200Z 29009KT 12SM DRSN BKN041 M08/M12 A2998 RMK SC6 SLP162

CYQG;2013-12-16 02:10;CYQG 160210Z 29009KT 15SM BKN041 RMK SC5

CYQG;2013-12-16 03:00;CYQG 160300Z 28017KT 15SM FEW037 M08/M13 A3000 RMK SC2 SLP170

CYQG;2013-12-16 04:00;CYQG 160400Z 27010G18KT 15SM SCT037 M08/M13 A3000 RMK SC4 SLP171

CYQG;2013-12-16 05:00;CYQG 160500Z 26010G16KT 15SM BKN038 M09/M11 A3001 RMK SC5 SLP175

CYQG;2013-12-16 06:00;CYQG 160600Z 24010KT 15SM BKN038 M10/M11 A3001 RMK SC5 SLP174

CYQG;2013-12-16 07:00;CYQG 160700Z 25008KT 15SM SCT038 M10/M11 A3003 RMK SC4 SLP181

CYQG;2013-12-16 08:00;CYQG 160800Z 26009KT 15SM BKN027 M10/M12 A3005 RMK SC6 SLP186

CYQG;2013-12-16 08:24;CYQG 160824Z 26009KT 15SM -SHSN BKN029 RMK SC6

CYQG;2013-12-16 09:00;CYQG 160900Z 25010KT 15SM -SHSN BKN025 M11/M13 A3006 RMK SC5 SLP192

CYQG;2013-12-16 10:00;CYQG 161000Z 26009KT 8SM -SHSN BKN033 M12/M13 A3008 RMK SC5 SLP197

CYQG;2013-12-16 11:00;CYQG 161100Z 26009KT 10SM -SHSN SCT030 BKN210 M13/M13 A3009 RMK SC3CI2 SLP201

CYQG;2013-12-16 11:49;CYQG 161149Z 25008KT 12SM FEW030 BKN210 RMK SC2CI2

CYQG;2013-12-16 12:00;CYQG 161200Z 26007KT 12SM FEW030 BKN210 M13/M14 A3010 RMK SC2CI2 SLP205

CYQG;2013-12-16 13:00;CYQG 161300Z CCA 29006KT 6SM BR FEW110 M13/M14 A3010 RMK AC1 TR AC FROIN SLP207

CYQG;2013-12-16 14:00;CYQG 161400Z 25005KT 12SM FEW250 M12/M13 A3013 RMK CI1 TR CI SLP216

CYQG;2013-12-16 15:00;CYQG 161500Z 26004KT 15SM FEW250 M10/M12 A3015 RMK CI1 TR CI SLP222

CYQG;2013-12-16 17:00;CYQG 161700Z 16006KT 12SM FEW250 M08/M12 A3016 RMK CI1 SLP224

CYQG;2013-12-16 18:00;CYQG 161800Z 16006KT 12SM FEW210 SCT240 BKN270 M08/M12 A3013 RMK CC1CS1CI2 TR CC HALO SLP215

CYQG;2013-12-16 19:00;CYQG 161900Z 14004KT 10SM FEW096 BKN230 BKN270 M08/M12 A3011 RMK AC2CS1CI1 CONTRAILS SLP208

CYQG;2013-12-16 20:00;CYQG 162000Z CCA 16004KT 10SM FEW096 BKN270 M08/M12 A3011 RMK AC1CI2 CONTRAILS SLP210

CYQG;2013-12-16 21:00;CYQG 162100Z 14005KT 12SM FEW096 FEW270 M08/M12 A3011 RMK AC1CI2 SLP211

CYQG;2013-12-16 22:00;CYQG 162200Z 12004KT 11SM FEW270 M10/M13 A3011 RMK CI1 SLP208

CYQG;2013-12-16 23:00;CYQG 162300Z 10004KT 12SM SCT270 M12/M14 A3011 RMK CI1 SLP209

CYQG;2013-12-17 00:00;CYQG 170000Z 10004KT 12SM FEW280 M12/M13 A3011 RMK CI1 SLP209

CYQG;2013-12-17 01:00;CYQG 170100Z 00000KT 12SM BKN240 M13/M14 A3010 RMK CS2 SLP207

CYQG;2013-12-17 02:00;CYQG 170200Z 09002KT 12SM BKN088 M13/M14 A3007 RMK AC7 SLP196

CYQG;2013-12-17 02:21;CYQG 170221Z 09002KT 12SM -SN OVC085 RMK AC8

CYQG;2013-12-17 03:00;CYQG 170300Z 07003KT 8SM -SN OVC050 M12/M13 A3004 RMK SC8 SLP188

CYQG;2013-12-17 03:19;CYQG 170319Z 07004KT 1 1/2SM -SN OVC015 RMK SN2SF6

CYQG;2013-12-17 03:31;CYQG 170331Z 07043KT 1SM -SN OVC007 RMK SN3SF5

CYQG;2013-12-17 03:43;CYQG 170343Z 05004KT 1 1/2SM -SN OVC017 RMK SN2SF6

CYQG;2013-12-17 04:00;CYQG 170400Z 06004KT 1 1/2SM -SN OVC014 M10/M11 A3002 RMK SN2SF6 /S01/ SLP179

CYQG;2013-12-17 04:24;CYQG 170424Z 07003KT 3/4SM -SN OVC008 RMK SN3SF5

CYQG;2013-12-17 05:00;CYQG 170500Z 08002KT 3/4SM -SN OVC006 M09/M10 A2998 RMK SN3SF5 /S02/ SLP168

CYQG;2013-12-17 05:30;CYQG 170530Z 00000KT 1 1/4SM -SN OVC012 RMK SN2SC6

CYQG;2013-12-17 06:00;CYQG 170600Z 02003KT 1 1/2SM -SN OVC011 M08/M09 A2997 RMK SN2SC6 SLP160

CYQG;2013-12-17 06:45;CYQG 170645Z 35003KT 3SM -SN OVC013 RMK SC8

CYQG;2013-12-17 07:00;CYQG 170700Z 35003KT 4SM -SN OVC011 M07/M07 A2996 RMK SC8 SLP158

CYQG;2013-12-17 07:23;CYQG 170723Z 36003KT 5SM -SN OVC009 RMK SF8

CYQG;2013-12-17 08:00;CYQG 170800Z 00000KT 6SM -SN BKN007 OVC015 M07/M07 A2994 RMK SF5SC3 SLP150

CYQG;2013-12-17 08:36;CYQG 170836Z 00000KT 5SM BR SCT007 OVC014 RMK SF3SC5

CYQG;2013-12-17 09:00;CYQG 170900Z 27004KT 5SM -SHSN BR FEW006 OVC014 M07/M07 A2994 RMK SF2SC6 SLP150

CYQG;2013-12-17 09:32;CYQG 170932Z 28005KT 6SM BR FEW006 BKN012 OVC140 RMK SF1SC6AC1

CYQG;2013-12-17 10:00;CYQG 171000Z 28007KT 6SM BR SCT011 BKN160 M08/M08 A2994 RMK SC3AC4 SLP151

CYQG;2013-12-17 11:00;CYQG 171100Z 26005KT 7SM BKN026 M09/M10 A2995 RMK SC7 SLP154

CYQG;2013-12-17 11:22;CYQG 171122Z 26007KT 7SM -SHSN SCT016 OVC028 RMK SC3SC5

CYQG;2013-12-17 11:53;CYQG 171153Z 26009KT 7SM FEW007 OVC015 RMK SF2SC6

CYQG;2013-12-17 12:00;CYQG 171200Z 26010KT 5SM BR BKN008 OVC015 M08/M09 A2998 RMK SF6SC2 SLP164

CYQG;2013-12-17 12:16;CYQG 171216Z 26009KT 5SM -SHSN BR FEW008 SCT012 OVC031 RMK SF2SC2SC5

CYQG;2013-12-17 13:00;CYQG 171300Z 26011KT 4SM -SHSN BR OVC022 M07/M08 A2998 RMK SC8 SLP166

CYQG;2013-12-17 14:00;CYQG 171400Z 25006KT 4SM -SHSN BR OVC016 M07/M08 A2998 RMK SC8 SLP165

CYQG;2013-12-17 15:00;CYQG 171500Z 24009KT 4SM -SHSN BR OVC014 M06/M07 A2998 RMK SC8 SLP164

CYQG;2013-12-17 15:30;CYQG 171530Z 25010KT 5SM BR OVC012 RMK SC8

CYQG;2013-12-17 16:00;CYQG 171600Z 23009G15KT 5SM BR OVC011 M05/M06 A2996 RMK SC8 SLP157

CYQG;2013-12-17 16:40;CYQG 171640Z 22013KT 5SM -SHSN BR BKN013 OVC100 RMK SC6AC2

CYQG;2013-12-17 17:00;CYQG 171700Z CCA 20014KT 5SM -SHSN BR DRSN FEW007 BKN011 BKN150 M04/M06 A2992 RMK SF1SC5AC2 PRESFR SLP144

CYQG;2013-12-17 17:30;CYQG 171730Z 21013KT 5SM BR DRSN SCT012 BKN093 RMK SC3AC4

CYQG;2013-12-17 18:00;CYQG 171800Z 20018KT 4SM BR DRSN BKN011 OVC088 M04/M05 A2988 RMK SC6AC2 SLP130

CYQG;2013-12-17 18:20;CYQG 171820Z 21020KT 4SM -SHSN BR DRSN OVC008 RMK SC8

CYQG;2013-12-17 19:00;CYQG 171900Z 22015G21KT 5SM -SHSN BR DRSN OVC009 M05/M06 A2988 RMK SC8 SLP130

CYQG;2013-12-17 19:28;CYQG 171928Z 22015KT 1 1/4SM -SN OVC013 RMK SN2SC6

CYQG;2013-12-17 19:41;CYQG 171941Z 22016KT 5/8SM -SN BKN007 OVC021 RMK SN4SF2SC2

CYQG;2013-12-17 19:53;CYQG 171953Z 23014KT 3/4SM -SN BKN012 OVC025 RMK SN2SF3SC2

CYQG;2013-12-17 20:00;CYQG 172000Z 23015KT 3/4SM -SN BKN012 BKN027 M05/M05 A2989 RMK SN2SF3SC2 SLP131

CYQG;2013-12-17 20:09;CYQG 172009Z 22012G18KT 2 1/2SM -SN SCT012 OVC029 RMK SN2SF2SC4

CYQG;2013-12-17 21:00;CYQG 172100Z 24013KT 5SM -SN OVC018 M04/M05 A2990 RMK SC8 SLP137

CYQG;2013-12-17 21:37;CYQG 172137Z 23011G16KT 6SM BR OVC018 RMK SC8

CYQG;2013-12-17 22:00;CYQG 172200Z 23013KT 6SM BR SCT016 OVC032 M04/M06 A2990 RMK SC3SC5 SLP136

CYQG;2013-12-17 23:00;CYQG 172300Z 23011KT 5SM -SHSN BR BKN020 OVC046 M04/M06 A2991 RMK SC5SC3 SLP138

CYQG;2013-12-18 00:00;CYQG 180000Z 23011KT 7SM -SHSN SCT015 BKN067 M05/M06 A2992 RMK SC3AC4 SLP142

CYQG;2013-12-18 01:00;CYQG 180100Z 24012KT 7SM BKN020 OVC040 M04/M06 A2994 RMK SC6SC2 0CNL -SHSN SLP149

CYQG;2013-12-18 01:37;CYQG 180137Z 24010KT 6SM -SHSN BKN012 OVC042 RMK SC6SC2

CYQG;2013-12-18 01:52;CYQG 180152Z 24009KT 7SM -SHSN SCT022 OVC039 RMK CU4SC4

CYQG;2013-12-18 02:00;CYQG 180200Z 24009KT 5SM -SHSN SCT020 OVC030 M04/M05 A2995 RMK CU3SC5 SLP153

CYQG;2013-12-18 02:28;CYQG 180228Z 23008KT 7SM SCT018 RMK CU4

CYQG;2013-12-18 03:00;CYQG 180300Z 24010KT 8SM SCT025 M05/M06 A2997 RMK CU3 SLP160

CYQG;2013-12-18 04:00;CYQG 180400Z 23009KT 4SM BR FEW030 M06/M06 A2998 RMK SC2 SLP164

CYQG;2013-12-18 05:00;CYQG 180500Z 25008KT 5SM BR SCT035 M06/M06 A3000 RMK SC4 SLP168

CYQG;2013-12-18 06:00;CYQG 180600Z 24008KT 4SM -SHSN BKN046 M05/M06 A2999 RMK SC7 SLP165

CYQG;2013-12-18 06:28;CYQG 180628Z 23007KT 2SM -SHSN OVC024 RMK SN2SC6

CYQG;2013-12-18 07:00;CYQG 180700Z 24007KT 2 1/2SM -SHSN OVC021 M05/M05 A2999 RMK SN1SC7 SLP167

CYQG;2013-12-18 07:11;CYQG 180711Z 24007KT 3SM -SHSN OVC028 RMK SC8

CYQG;2013-12-18 08:00;CYQG 180800Z 24007KT 3SM -SHSN OVC031 M05/M05 A3000 RMK SC8 SLP169

CYQG;2013-12-18 09:00;CYQG 180900Z 24007KT 4SM -SN FEW021 OVC064 M05/M05 A3001 RMK SC2SC6 SLP173

CYQG;2013-12-18 10:00;CYQG 181000Z 25007KT 4SM -SN OVC061 M05/M05 A3001 RMK SC8 SLP173

CYQG;2013-12-18 10:46;CYQG 181046Z 25008KT 4SM BR OVC060 RMK SC8

CYQG;2013-12-18 11:00;CYQG 181100Z 26007KT 4SM BR OVC057 M04/M05 A3003 RMK SC8 SLP179

CYQG;2013-12-18 11:20;CYQG 181120Z 26006KT 4SM -SN BR FEW028 OVC053 RMK SC2SC6

CYQG;2013-12-18 12:00;CYQG 181200Z 25006KT 5SM -SN BR OVC058 M04/M04 A3004 RMK SC8 SLP181

CYQG;2013-12-18 13:00;CYQG 181300Z 22007KT 5SM -SN BR BKN052 M05/M06 A3005 RMK SC7 SLP187

CYQG;2013-12-18 14:00;CYQG 181400Z 23006KT 5SM -SN BR BKN051 M05/M06 A3007 RMK SC7 SLP194

CYQG;2013-12-18 15:00;CYQG 181500Z 24007KT 6SM -SN HZ OVC042 M04/M07 A3009 RMK SC8 SLP201

CYQG;2013-12-18 15:27;CYQG 181527Z 25007KT 7SM OVC039 RMK SC8

CYQG;2013-12-18 16:00;CYQG 181600Z 25011KT 7SM OVC038 M03/M06 A3010 RMK SC8 SLP204

CYQG;2013-12-18 17:00;CYQG 181700Z 25011KT 7SM BKN036 M02/M06 A3010 RMK SC7 BRKSINC SLP203

CYQG;2013-12-18 18:00;CYQG 181800Z 24013KT 7SM BKN033 BKN036 M02/M06 A3008 RMK SC5SC2 SLP197

CYQG;2013-12-18 19:00;CYQG 181900Z 23016KT 10SM BKN031 BKN120 M01/M06 A3008 RMK SC5AC2 SLP196

CYQG;2013-12-18 20:00;CYQG 182000Z 23016G21KT 15SM FEW030 SCT120 BKN180 BKN270 M02/M07 A3007 RMK SC2AC2AC2CI1 SLP193

CYQG;2013-12-18 21:00;CYQG 182100Z 22014KT 15SM BKN120 BKN180 M03/M07 A3007 RMK AC6AC2 SLP193

CYQG;2013-12-18 22:00;CYQG 182200Z 22012G17KT 15SM BKN140 M03/M06 A3006 RMK AC7 SLP188

CYQG;2013-12-18 23:00;CYQG 182300Z 21014KT 15SM BKN150 M05/M07 A3004 RMK AC7 SLP183

CYQG;2013-12-19 00:00;CYQG 190000Z 21014KT 15SM BKN160 M05/M08 A3001 RMK AC7 SLP174

CYQG;2013-12-19 01:00;CYQG 190100Z 21015KT 15SM BKN180 BKN210 M05/M08 A2998 RMK AC5CC2 SLP164

CYQG;2013-12-19 02:00;CYQG 190200Z 20015KT 15SM BKN190 OVC220 M04/M08 A2995 RMK AC5CI2 SLP152

CYQG;2013-12-19 03:00;CYQG 190300Z 21015G20KT 15SM SCT190 OVC220 M03/M08 A2993 RMK AC3CS4 HALO SLP145

CYQG;2013-12-19 04:00;CYQG 190400Z 21013G20KT 15SM DRSN SCT190 BKN240 M02/M07 A2993 RMK AC3CS3 HALO SLP144

CYQG;2013-12-19 05:00;CYQG 190500Z 22013KT 15SM BKN240 M02/M07 A2990 RMK CS6 SLP136

CYQG;2013-12-19 06:00;CYQG 190600Z 22010KT 15SM BKN240 M02/M07 A2988 RMK CS6 SLP127

CYQG;2013-12-19 07:00;CYQG 190700Z 23009KT 15SM OVC240 M02/M06 A2986 RMK CS7 SLP121

CYQG;2013-12-19 08:00;CYQG 190800Z 23011KT 15SM OVC170 M00/M05 A2986 RMK AS7 SLP122

CYQG;2013-12-19 09:00;CYQG 190900Z 23009KT 15SM BKN180 00/M05 A2987 RMK AC7 SLP123

CYQG;2013-12-19 10:00;CYQG 191000Z 23009KT 15SM BKN230 00/M05 A2987 RMK CI7 SLP122

CYQG;2013-12-19 11:00;CYQG 191100Z 23014KT 15SM BKN220 02/M04 A2988 RMK CI7 SLP125

CYQG;2013-12-19 12:00;CYQG 191200Z 23010KT 15SM BKN220 01/M04 A2989 RMK CI6 SLP131

CYQG;2013-12-19 13:00;CYQG 191300Z 22007KT 12SM FEW150 BKN220 M01/M04 A2991 RMK AC1CI2 SLP138

CYQG;2013-12-19 14:00;CYQG 191400Z 22007KT 12SM FEW150 OVC220 M00/M03 A2993 RMK AC1CI3 SLP145

CYQG;2013-12-19 15:00;CYQG 191500Z 23008KT 12SM FEW150 OVC260 01/M02 A2995 RMK AC1CS8 SLP152

CYQG;2013-12-19 16:00;CYQG 191600Z 21006KT 12SM OVC280 02/M02 A2998 RMK CS8 SLP160

CYQG;2013-12-19 17:00;CYQG 191700Z 22007KT 12SM OVC260 04/M00 A2995 RMK CS8 SLP152

CYQG;2013-12-19 18:00;CYQG 191800Z 23008KT 12SM OVC260 04/00 A2996 RMK CS8 SLP152

CYQG;2013-12-19 19:00;CYQG 191900Z 23007KT 12SM OVC260 05/01 A2995 RMK CS8 SLP151

CYQG;2013-12-19 20:00;CYQG 192000Z 22006KT 12SM OVC160 04/01 A2996 RMK AS8 SLP154

CYQG;2013-12-19 21:00;CYQG 192100Z CCB 21004KT 8SM OVC170 04/01 A2998 RMK AS8 SLP157

CYQG;2013-12-19 22:00;CYQG 192200Z 17003KT 10SM SCT082 OVC160 03/01 A2998 RMK AC3AS5 SLP157

CYQG;2013-12-19 23:00;CYQG 192300Z 00000KT 8SM SCT080 OVC180 02/01 A2997 RMK AC3AS5 SLP156

CYQG;2013-12-20 00:00;CYQG 200000Z 14003KT 12SM OVC024 02/01 A2997 RMK SC8 SLP154

CYQG;2013-12-20 01:00;CYQG 200100Z 13022KT 12SM OVC025 02/01 A2998 RMK SC8 SLP157

CYQG;2013-12-20 02:00;CYQG 200200Z 09003KT 8SM OVC028 02/01 A2995 RMK SC8 SLP150

CYQG;2013-12-20 03:00;CYQG 200300Z 14003KT 7SM OVC030 02/01 A2993 RMK SC8 SLP142

CYQG;2013-12-20 04:00;CYQG 200400Z 03003KT 6SM BR OVC022 02/01 A2992 RMK SC8 SLP138

CYQG;2013-12-20 04:26;CYQG 200426Z 03005KT 4SM -DZ BR OVC017 RMK SC8

CYQG;2013-12-20 05:00;CYQG 200500Z 05004KT 1 1/2SM -DZ BR OVC016 01/01 A2991 RMK FG2SC6 SLP135

CYQG;2013-12-20 05:19;CYQG 200519Z 03005KT 3/4SM -DZ BR OVC015 RMK FG3SC5

CYQG;2013-12-20 05:35;CYQG 200535Z 03006KT 1/2SM -DZ FG OVC009 RMK FG4SF4

CYQG;2013-12-20 06:00;CYQG 200600Z 06004KT 3/8SM -DZ FG OVC007 01/01 A2989 RMK FG5SF3 SLP128

CYQG;2013-12-20 06:11;CYQG 200611Z 03003KT 3/8SM -DZ FG OVC004 RMK FG5SF3

CYQG;2013-12-20 06:44;CYQG 200644Z 05004KT 3/8SM -DZ FG OVC002 RMK FG5SF3

CYQG;2013-12-20 07:00;CYQG 200700Z 06004KT 3/8SM -DZ FG OVC002 01/01 A2986 RMK FG5SF3 SLP119

CYQG;2013-12-20 08:00;CYQG 200800Z 09003KT 3/8SM -DZ FG BKN002 OVC022 01/01 A2985 RMK FG5SF2SC2 SLP115

CYQG;2013-12-20 08:16;CYQG 200816Z 00000KT 1/2SM FG OVC018 RMK FG4SC4

CYQG;2013-12-20 09:00;CYQG 200900Z 18002KT 3/4SM -DZ BR OVC015 01/01 A2984 RMK FG3SC5 SLP112

CYQG;2013-12-20 09:27;CYQG 200927Z 19002KT 3/4SM -DZ BR SCT008 OVC018 RMK FG3SF1SC4

CYQG;2013-12-20 10:00;CYQG 201000Z 21007KT 3/4SM -DZ BR SCT002 OVC018 03/03 A2981 RMK FG2SF2SC4 SLP101

CYQG;2013-12-20 10:23;CYQG 201023Z 21006KT 3/4SM -DZ BR BKN003 OVC016 RMK FG2SF3SC2

CYQG;2013-12-20 10:50;CYQG 201050Z 23005KT 1SM BR BKN002 OVC017 RMK FG2SF3SC3

CYQG;2013-12-20 11:00;CYQG 201100Z 22005KT 1 1/4SM BR BKN002 OVC016 04/04 A2980 RMK FG2SF3SC3 SLP096

CYQG;2013-12-20 11:21;CYQG 201121Z 22007KT 1 1/2SM -DZ BR OVC013 RMK FG2SC6

CYQG;2013-12-20 11:51;CYQG 201151Z 22007KT 2SM -RA BR OVC011 RMK FG2SC6

CYQG;2013-12-20 12:00;CYQG 201200Z 22007KT 2SM -RA BR OVC010 04/03 A2980 RMK FG2SC6 SLP097

CYQG;2013-12-20 12:40;CYQG 201240Z 22010KT 1SM -RA BR OVC002 RMK FG2SC6

CYQG;2013-12-20 13:00;CYQG 201300Z 22011KT 1SM -RA BR OVC002 04/04 A2980 RMK FG2SC6 SLP095

CYQG;2013-12-20 14:00;CYQG 201400Z 21010KT 3/4SM -RA BR OVC002 04/04 A2980 RMK FG2SC6 SLP096

CYQG;2013-12-20 15:00;CYQG 201500Z 21009KT 3/4SM -RA BR OVC002 04/04 A2981 RMK FG2SC6 SLP099

CYQG;2013-12-20 16:00;CYQG 201600Z CCA 23006KT 1SM -RA BR OVC002 04/04 A2982 RMK FG1SC7 SLP103

CYQG;2013-12-20 17:00;CYQG 201700Z 23007KT 1SM -DZ BR OVC002 05/04 A2980 RMK FG1SC7 SLP098

CYQG;2013-12-20 17:19;CYQG 201719Z 23005KT 1/2SM -DZ FG OVC002 RMK FG3SC5

CYQG;2013-12-20 18:00;CYQG 201800Z 00000KT 1/2SM -DZ FG OVC001 05/05 A2978 RMK FG3SC5 SLP089

CYQG;2013-12-20 18:09;CYQG 201809Z 00000KT 1/4SM -DZ FG OVC001 RMK FG6SC2

CYQG;2013-12-20 18:12;CYQG 201812Z 05006KT 1/4SM -DZRA FG OVC001 RMK FG3SC5

CYQG;2013-12-20 18:20;CYQG 201820Z 05005KT 1/2SM -DZRA FG OVC001 RMK FG3SC5

CYQG;2013-12-20 19:00;CYQG 201900Z 04008KT 1/2SM -DZRA FG OVC001 02/02 A2976 RMK FG3SC5 SLP083

CYQG;2013-12-20 19:40;CYQG 201940Z 05007KT 1/2SM -DZRA FG OVC003 RMK FG2SC6

CYQG;2013-12-20 20:00;CYQG 202000Z 06006KT 3/8SM -RA FG OVC002 02/02 A2976 RMK FG2SC6 SLP082

CYQG;2013-12-20 20:41;CYQG 202041Z 04005KT 5/8SM -RA BR OVC002 RMK FG2SC6

CYQG;2013-12-20 21:00;CYQG 202100Z 05006KT 5/8SM -RA BR OVC002 02/02 A2976 RMK FG2SC6 SLP083

CYQG;2013-12-20 21:23;CYQG 202123Z 05007KT 3/8SM -RA FG OVC002 RMK FG2SC6

CYQG;2013-12-20 22:00;CYQG 202200Z 03007KT 1/2SM -RA FG OVC002 01/01 A2976 RMK FG2SC6 SLP084

CYQG;2013-12-20 22:21;CYQG 202221Z 05007KT 3/4SM -RA BR OVC002 RMK FG2SC6

CYQG;2013-12-20 22:42;CYQG 202242Z 04009KT 1SM -RA BR BKN002 OVC005 RMK FG2SC4SF2

CYQG;2013-12-20 23:00;CYQG 202300Z 02007KT 1 1/2SM -RA BR OVC006 01/01 A2977 RMK FG1SC7 SLP086

CYQG;2013-12-20 23:32;CYQG 202332Z 05008KT 1 1/2SM -RA BR BKN002 OVC006 RMK FG1SF5SC2

CYQG;2013-12-21 00:00;CYQG 210000Z 05007KT 2SM -RA BR SCT002 OVC008 01/01 A2975 RMK SF4SC4 SLP081

CYQG;2013-12-21 01:00;CYQG 210100Z 02005KT 2SM -RA BR BKN002 OVC008 02/02 A2977 RMK SF6SC2 SLP085

CYQG;2013-12-21 02:00;CYQG 210200Z 06004KT 1 3/4SM -RA BR BKN002 OVC006 01/01 A2975 RMK SF6SC2 SLP081

CYQG;2013-12-21 03:00;CYQG 210300Z 03005KT 1 3/4SM -RA BR OVC002 01/01 A2975 RMK SF8 SLP081

CYQG;2013-12-21 03:49;CYQG 210349Z 05003KT 1SM -RA BR OVC002 RMK SF8

CYQG;2013-12-21 04:00;CYQG 210400Z 05004KT 3/4SM -RA BR OVC002 01/01 A2973 RMK FG2SF6 SLP074

CYQG;2013-12-21 04:12;CYQG 210412Z 06006KT 1/2SM -DZ FG OVC008 RMK FG4SF4

CYQG;2013-12-21 04:40;CYQG 210440Z 07004KT 1/4SM -DZ FG VV002 RMK FG8

CYQG;2013-12-21 05:00;CYQG 210500Z 08003KT 1/4SM -DZRA FG VV001 01/01 A2972 RMK FG8 SLP070

CYQG;2013-12-21 05:35;CYQG 210535Z 34008KT 1/4SM FG VV001 RMK FG8

CYQG;2013-12-21 05:45;CYQG 210545Z 01005KT 1/2SM FG VV001 RMK FG8

CYQG;2013-12-21 06:00;CYQG 210600Z 36003KT 1/2SM FG VV001 01/01 A2971 RMK FG8 SLP065

CYQG;2013-12-21 06:27;CYQG 210627Z 02003KT 1/4SM -DZ FG VV001 RMK FG8

CYQG;2013-12-21 07:00;CYQG 210700Z 11004KT 1/4SM -DZ FG VV002 01/01 A2970 RMK FG8 SLP064

CYQG;2013-12-21 07:17;CYQG 210717Z 34006KT 1SM BR OVC003 RMK FG3SF5 INTMT -DZ

CYQG;2013-12-21 07:40;CYQG 210740Z 00000KT 1/2SM -DZ FG VV002 RMK FG8

CYQG;2013-12-21 08:00;CYQG 210800Z 34005KT 1/4SM FG VV002 01/01 A2974 RMK FG8 INTMT -DZ SLP075

CYQG;2013-12-21 08:10;CYQG 210810Z 36004KT 1/4SM FG VV001 RMK FG8

CYQG;2013-12-21 09:00;CYQG 210900Z 00000KT 1/4SM FG VV002 01/01 A2973 RMK FG8 SLP073

CYQG;2013-12-21 10:00;CYQG 211000Z 00000KT 1/4SM FG VV001 01/01 A2975 RMK FG8 SLP081

CYQG;2013-12-21 11:00;CYQG 211100Z 34003KT 3/4SM BR OVC002 01/01 A2979 RMK FG5SF3 SLP093

CYQG;2013-12-21 11:15;CYQG 211115Z 34004KT 1SM BR OVC004 RMK FG2SF6

CYQG;2013-12-21 11:35;CYQG 211135Z 02004KT 3/4SM BR BKN004 OVC038 RMK FG2SF5SC2

CYQG;2013-12-21 11:45;CYQG 211145Z 06004KT 1/4SM FG VV001 RMK FG8

CYQG;2013-12-21 12:00;CYQG 211200Z 05003KT 1/4SM FG VV001 01/01 A2977 RMK FG8 SLP089

CYQG;2013-12-21 12:06;CYQG 211206Z 05004KT 1SM BR BKN002 OVC006 RMK FG2SF4SC2

CYQG;2013-12-21 12:28;CYQG 211228Z 03004KT 1SM -SHRA BR BKN003 RMK FG2SF6

CYQG;2013-12-21 12:47;CYQG 211247Z 36003KT 3/4SM -SHRA BR OVC003 RMK FG2SC6

CYQG;2013-12-21 13:00;CYQG 211300Z 01003KT 5/8SM -SHRA BR OVC003 01/01 A2980 RMK FG2SC6 SLP097

CYQG;2013-12-21 13:25;CYQG 211325Z 01004KT 1/2SM -SHRA FG OVC002 RMK FG2SC6

CYQG;2013-12-21 13:46;CYQG 211346Z 05003KT 3/4SM -SHRA BR OVC005 RMK FG2SC6

CYQG;2013-12-21 14:00;CYQG 211400Z 03004KT 1/2SM -SHRA FG OVC005 01/01 A2982 RMK FG4SC4 SLP103

CYQG;2013-12-21 14:11;CYQG 211411Z 36005KT 1SM -RA BR SCT005 OVC007 RMK FG2SF2SC5

CYQG;2013-12-21 14:25;CYQG 211425Z 35006KT 1 1/2SM -RA BR SCT003 OVC007 RMK FG2SF2SC4

CYQG;2013-12-21 14:33;CYQG 211433Z 36006KT 1 1/2SM RA BR SCT003 OVC007 RMK FG2SF2SC4

CYQG;2013-12-21 14:51;CYQG 211451Z 36005KT 2 1/2SM RA BR FEW003 BKN007 OVC027 RMK SC2SC6SC1

CYQG;2013-12-21 15:00;CYQG 211500Z 36005KT 2 1/2SM RA BR FEW003 BKN007 OVC027 01/01 A2985 RMK SF2SC6SC1 SLP116

CYQG;2013-12-21 15:32;CYQG 211532Z 36005KT 2 1/2SM -RA BR BKN005 OVC027 RMK SF6SC2

CYQG;2013-12-21 16:00;CYQG 211600Z 05004KT 2 1/2SM -RA BR SCT005 OVC035 01/01 A2984 RMK SF4SC4 SLP112

CYQG;2013-12-21 16:43;CYQG 211643Z 05007KT 2 1/2SM -RA BR BKN008 OVC035 RMK SF6SC2

CYQG;2013-12-21 17:00;CYQG 211700Z 04007KT 2 1/2SM -RA BR BKN007 OVC035 01/01 A2980 RMK SF6SC2 SLP098

CYQG;2013-12-21 18:00;CYQG 211800Z 04007KT 2 1/2SM -RA BR BKN007 BKN013 OVC018 01/01 A2981 RMK SF5SC2SC2 SLP100

CYQG;2013-12-21 18:49;CYQG 211849Z 03008KT 2 1/2SM -RA BR SCT007 OVC021 RMK SF3SC5

CYQG;2013-12-21 19:00;CYQG 211900Z 03008KT 2 1/4SM -RA BR SCT007 OVC020 02/02 A2980 RMK SF3SC5 SLP099

CYQG;2013-12-21 20:00;CYQG 212000Z 03009KT 2SM -RA BR BKN006 OVC020 02/02 A2981 RMK SF6SC2 SLP100

CYQG;2013-12-21 20:37;CYQG 212037Z 03009KT 2 1/2SM -RA BR SCT007 OVC033 RMK SF4SC4

CYQG;2013-12-21 20:50;CYQG 212050Z 03009KT 2 1/4SM -RA BR BKN007 OVC038 RMK SF6SC2

CYQG;2013-12-21 21:00;CYQG 212100Z 04010KT 2 1/4SM -RA BR BKN006 OVC040 01/01 A2980 RMK SF7SC1 SLP099

CYQG;2013-12-21 21:37;CYQG 212137Z 04010KT 2SM -RA BR BKN004 OVC011 RMK SF6SC2

CYQG;2013-12-21 22:00;CYQG 212200Z 04011KT 2 1/2SM -RA BR BKN005 OVC014 01/01 A2982 RMK SF6SC2 SLP103

CYQG;2013-12-21 22:13;CYQG 212213Z 04010KT 2 1/2SM RA BR OVC005 RMK SF8

CYQG;2013-12-21 22:47;CYQG 212247Z 04012KT 3SM -RA BR BKN004 OVC041 RMK SF6SC2

CYQG;2013-12-21 23:00;CYQG 212300Z 05012KT 3SM RA BR BKN004 OVC041 01/01 A2980 RMK SF5SC3 /R11/ SLP096

CYQG;2013-12-21 23:34;CYQG 212334Z 03010KT 3SM -RA BR OVC005 RMK SF8

CYQG;2013-12-21 23:44;CYQG 212344Z 03010KT 2 1/2SM RA BR OVC005 RMK SF8

CYQG;2013-12-22 00:00;CYQG 220000Z 03011KT 2 1/2SM RA BR OVC005 01/01 A2980 RMK SF8 SLP098

CYQG;2013-12-22 00:38;CYQG 220038Z 04013G18KT 3SM RA BR OVC004 RMK SF8

CYQG;2013-12-22 01:00;CYQG 220100Z 03012KT 3SM RA BR OVC005 01/01 A2981 RMK SF8 SLP100

CYQG;2013-12-22 02:00;CYQG 220200Z 03013G18KT 3SM RA BR OVC005 01/01 A2979 RMK SF8 SLP094

CYQG;2013-12-22 03:00;CYQG 220300Z 03015G20KT 3SM RA BR BKN005 OVC009 01/01 A2974 RMK SF6SC2 PRESFR SLP078

CYQG;2013-12-22 03:22;CYQG 220322Z 04017G22KT 2 1/2SM RASN OVC004 RMK SF8

CYQG;2013-12-22 03:36;CYQG 220336Z 03016G21KT 2 1/2SM -RASN BR OVC004 RMK SF8

CYQG;2013-12-22 03:46;CYQG 220346Z 04017G26KT 3SM -RA BR OVC003 RMK SF8

CYQG;2013-12-22 04:00;CYQG 220400Z 04020G26KT 3SM -RA BR OVC004 00/00 A2966 RMK SF8 PRESFR SLP051

CYQG;2013-12-22 04:35;CYQG 220435Z 04015KT 3SM RA BR OVC003 RMK SF8

CYQG;2013-12-22 05:00;CYQG 220500Z 03016G21KT 4SM -RA BR OVC004 01/01 A2965 RMK SF8 /R12/ SLP047

CYQG;2013-12-22 06:00;CYQG 220600Z 03015G20KT 4SM -RA BR OVC004 01/01 A2961 RMK SF8 PRESFR SLP033

CYQG;2013-12-22 07:00;CYQG 220700Z 06015KT 3SM -RA BR OVC005 01/01 A2956 RMK SF8 PRESFR SLP018

CYQG;2013-12-22 08:00;CYQG 220800Z 35005G15KT 5SM -RA BR OVC007 01/01 A2965 RMK SF8 PRESRR SLP048

CYQG;2013-12-22 08:20;CYQG 220820Z 02006KT 3SM -DZRA BR OVC005 RMK SF8

CYQG;2013-12-22 09:00;CYQG 220900Z 06012G17KT 3SM -DZRA BR OVC003 01/01 A2959 RMK SF8 PRESFR SLP028

CYQG;2013-12-22 10:00;CYQG 221000Z 05010G15KT 3SM -DZRA BR OVC003 01/01 A2957 RMK SF8 SLP019

CYQG;2013-12-22 11:00;CYQG 221100Z 04012KT 3SM -DZRA BR OVC004 01/01 A2955 RMK SF8 SLP014

CYQG;2013-12-22 11:21;CYQG 221121Z 04010G17KT 3SM -RA BR OVC004 RMK SF8

CYQG;2013-12-22 12:00;CYQG 221200Z 04008KT 4SM -RA BR OVC005 01/01 A2955 RMK SF8 SLP013

CYQG;2013-12-22 12:22;CYQG 221222Z 04008KT 1 1/2SM -RA BR BKN003 OVC011 RMK FG2SF5SC1

CYQG;2013-12-22 12:38;CYQG 221238Z 05007KT 1 1/4SM -RA BR BKN004 OVC012 RMK FG2SF4SC2

CYQG;2013-12-22 13:00;CYQG 221300Z 05005KT 1 1/4SM -DZ BR BKN003 OVC012 01/01 A2958 RMK FG2SF4SC2 SLP023

CYQG;2013-12-22 13:14;CYQG 221314Z 03004KT 1SM -DZ BR OVC002 RMK FG3SF5

CYQG;2013-12-22 13:26;CYQG 221326Z 33005KT 1 1/2SM -DZ BR OVC003 RMK FG2SF6

CYQG;2013-12-22 14:00;CYQG 221400Z 00000KT 1 1/2SM -DZ BR BKN003 OVC007 01/01 A2963 RMK FG2SF3SF3 SLP040

CYQG;2013-12-22 14:40;CYQG 221440Z 31003KT 2SM -DZ BR BKN006 OVC011 RMK FG1SF6SC2

CYQG;2013-12-22 14:53;CYQG 221453Z 00000KT 3SM -DZ BR OVC006 RMK FG1SF7

CYQG;2013-12-22 15:00;CYQG 221500Z 00000KT 3SM BR OVC007 01/01 A2964 RMK SF8 SLP042

CYQG;2013-12-22 15:42;CYQG 221542Z 21003KT 4SM BR BKN003 OVC009 RMK SF6SF2

CYQG;2013-12-22 16:00;CYQG 221600Z 22006KT 1SM -DZ BR BKN003 OVC006 02/02 A2967 RMK FG2SF3SF2 SLP053

CYQG;2013-12-22 16:44;CYQG 221644Z 24012G17KT 2 1/2SM BR OVC004 RMK SF8

CYQG;2013-12-22 17:00;CYQG 221700Z 24018KT 7SM OVC009 04/04 A2967 RMK SF8 SLP053

CYQG;2013-12-22 17:33;CYQG 221733Z 24020G26KT 15SM SCT008 OVC012 RMK SF3SC5

CYQG;2013-12-22 18:00;CYQG 221800Z 25018G27KT 15SM OVC012 04/04 A2969 RMK SC8 SLP059

CYQG;2013-12-22 19:00;CYQG 221900Z 25022G31KT 15SM OVC013 04/03 A2973 RMK SC8 SLP072

CYQG;2013-12-22 19:12;CYQG 221912Z 25022G27KT 15SM OVC018 RMK SC8

CYQG;2013-12-22 20:00;CYQG 222000Z 26024G29KT 15SM OVC018 04/02 A2975 RMK SC8 SLP079

CYQG;2013-12-22 21:00;CYQG 222100Z 26015G26KT 15SM BKN021 04/02 A2979 RMK SC7 SLP094

CYQG;2013-12-22 22:00;CYQG 222200Z 27014G20KT 15SM BKN021 OVC041 04/01 A2984 RMK SC5SC3 PRESRR SLP112

CYQG;2013-12-22 23:00;CYQG 222300Z 26009KT 15SM OVC027 04/01 A2988 RMK SC8 SLP124

CYQG;2013-12-23 00:00;CYQG 230000Z 24008KT 15SM OVC031 03/01 A2989 RMK SC8 SLP127

CYQG;2013-12-23 01:00;CYQG 230100Z 25012KT 15SM SCT032 OVC048 03/01 A2992 RMK SC3SC5 SLP137

CYQG;2013-12-23 02:00;CYQG 230200Z 23009KT 15SM FEW030 OVC041 03/01 A2992 RMK SC2SC6 SLP139

CYQG;2013-12-23 03:00;CYQG 230300Z 25007KT 15SM BKN018 OVC051 03/01 A2992 RMK SC5SC3 SLP139

CYQG;2013-12-23 04:00;CYQG 230400Z 24008KT 15SM FEW012 OVC044 02/01 A2994 RMK CF2SC6 SLP145

CYQG;2013-12-23 05:00;CYQG 230500Z 24007KT 10SM FEW017 OVC037 02/01 A2995 RMK CU1SC7 SLP149

CYQG;2013-12-23 06:00;CYQG 230600Z 24008KT 10SM BKN020 OVC049 02/01 A2997 RMK SC5SC3 SLP154

CYQG;2013-12-23 06:50;CYQG 230650Z 25008KT 5SM -SHSN FEW016 OVC043 RMK SC2SC6

CYQG;2013-12-23 07:00;CYQG 230700Z 24010KT 4SM -SHSN FEW017 OVC043 01/01 A2999 RMK SC2SC6 SLP161

CYQG;2013-12-23 08:00;CYQG 230800Z 28005KT 5SM -SHSN FEW010 OVC014 01/01 A3001 RMK CF1SC7 SLP168

CYQG;2013-12-23 09:00;CYQG 230900Z 29009KT 8SM -SHSN FEW013 BKN018 OVC029 01/M00 A3003 RMK CF1SC6SC2 SLP176

CYQG;2013-12-23 09:20;CYQG 230920Z 31011KT 6SM -SHSN OVC014 RMK SC8

CYQG;2013-12-23 10:00;CYQG 231000Z 29010KT 10SM -SHSN BKN016 OVC039 00/M01 A3005 RMK SC5SC3 SLP182

CYQG;2013-12-23 11:05;CYQG 231105Z 29009KT 12SM BKN042 RMK SC7

CYQG;2013-12-23 12:00;CYQG 231200Z 30013KT 15SM FEW021 BKN043 M00/M03 A3009 RMK CU2SC6 SLP195

CYQG;2013-12-23 13:00;CYQG 231300Z 30009G15KT 15SM VCSH FEW020 BKN047 M01/M04 A3012 RMK CF2SC6 SLP207

CYQG;2013-12-23 14:00;CYQG 231400Z 30009KT 15SM FEW020 SCT045 M01/M05 A3015 RMK CU1SC3 SLP217

CYQG;2013-12-23 15:00;CYQG 231500Z 30015G20KT 15SM VCSH BKN028 BKN039 M01/M05 A3019 RMK CU5SC2 SLP232

CYQG;2013-12-23 16:00;CYQG 231600Z 28017KT 15SM SCT025 BKN056 M00/M05 A3021 RMK CU3SC3 SLP239

CYQG;2013-12-23 16:24;CYQG 231624Z 27018KT 15SM -SHSN BKN044 RMK SC6

CYQG;2013-12-23 17:00;CYQG 231700Z 29012G17KT 15SM -SHSN BKN028 BKN045 M00/M04 A3021 RMK CU5SC2 SLP237

CYQG;2013-12-23 18:00;CYQG 231800Z 28013KT 12SM -SHSN BKN025 M01/M04 A3021 RMK CU7 VIS 7 N SLP239

CYQG;2013-12-23 19:00;CYQG 231900Z 27017G24KT 15SM -SHSN OVC035 M01/M06 A3023 RMK CU8 SLP243

CYQG;2013-12-23 20:00;CYQG 232000Z 26013G19KT 15SM -SHSN OVC034 M01/M06 A3024 RMK CU8 SLP247

CYQG;2013-12-23 21:00;CYQG 232100Z 26014KT 15SM -SHSN OVC035 M01/M07 A3025 RMK CU8 SLP251

CYQG;2013-12-23 22:00;CYQG 232200Z 26010KT 15SM -SHSN OVC044 M01/M07 A3026 RMK CU8 SLP255

CYQG;2013-12-23 23:00;CYQG 232300Z 26009KT 15SM -SHSN OVC044 M01/M07 A3027 RMK CU8 SLP258

CYQG;2013-12-24 00:00;CYQG 240000Z 26012KT 15SM -SHSN OVC048 M01/M06 A3028 RMK CU8 SLP263

CYQG;2013-12-24 01:00;CYQG 240100Z 26010G15KT 15SM -SHSN OVC042 M02/M06 A3029 RMK CU8 SLP265

CYQG;2013-12-24 02:00;CYQG 240200Z CCA 28009KT 15SM OVC033 M02/M07 A3028 RMK CU8 OCNL -SHRA SLP261

CYQG;2013-12-24 03:00;CYQG 240300Z 25012KT 15SM FEW033 OVC045 M02/M08 A3027 RMK CU2SC6 OCNL -SHRA SLP259

CYQG;2013-12-24 04:00;CYQG 240400Z 26015KT 15SM FEW045 OVC100 M03/M09 A3027 RMK SC2AC6 SLP260

CYQG;2013-12-24 05:00;CYQG 240500Z 25010KT 15SM SCT044 OVC087 M04/M11 A3028 RMK SC3AC5 SLP261

CYQG;2013-12-24 06:00;CYQG 240600Z 26013KT 15SM OVC022 M05/M09 A3027 RMK SC8 SLP260

CYQG;2013-12-24 06:34;CYQG 240634Z 30012KT 15SM -SHSN OVC025 RMK SC8

CYQG;2013-12-24 07:00;CYQG 240700Z 30011KT 15SM -SHSN OVC031 M06/M11 A3028 RMK SC8 SLP263

CYQG;2013-12-24 08:00;CYQG 240800Z 27013KT 15SM -SHSN OVC043 M07/M13 A3030 RMK SC8 SLP269

CYQG;2013-12-24 09:00;CYQG 240900Z 27013KT 15SM -SHSN BKN046 M08/M12 A3031 RMK SC6 SLP273

CYQG;2013-12-24 10:00;CYQG 241000Z 27011KT 7SM -SN OVC059 M08/M11 A3031 RMK SC8 SLP273

CYQG;2013-12-24 11:00;CYQG 241100Z 27015KT 5SM -SN OVC072 M08/M12 A3032 RMK AC8 SLP278

CYQG;2013-12-24 12:00;CYQG 241200Z 29012G18KT 5SM -SN BKN025 OVC075 M08/M11 A3034 RMK SC5AC3 SLP284

CYQG;2013-12-24 13:00;CYQG 241300Z 29015KT 10SM -SHSN SCT013 BKN035 M09/M12 A3036 RMK CU3SC4 SLP293

CYQG;2013-12-24 14:00;CYQG 241400Z 29012KT 10SM -SHSN FEW013 SCT025 M09/M13 A3038 RMK CF1SC2 SLP300

CYQG;2013-12-24 14:37;CYQG 241437Z 29012KT 15SM FEW020 SCT040 RMK CF1SC2

CYQG;2013-12-24 15:00;CYQG 241500Z 29012KT 15SM FEW020 BKN033 M09/M13 A3041 RMK CF2SC5 SLP309

CYQG;2013-12-24 16:00;CYQG 241600Z 31015KT 15SM FEW020 FEW035 M09/M14 A3042 RMK CF1SC1 SLP313

CYQG;2013-12-24 17:00;CYQG 241700Z 29012KT 15SM FEW025 M08/M14 A3041 RMK CF1 SLP311

CYQG;2013-12-24 18:00;CYQG 241800Z 32014G21KT 15SM FEW025 M06/M14 A3042 RMK CF1 SLP312

CYQG;2013-12-24 19:00;CYQG 241900Z 32017G22KT 15SM FEW030 M06/M15 A3042 RMK SC1 SLP313

CYQG;2013-12-24 20:00;CYQG 242000Z 32015KT 15SM FEW030 M07/M16 A3044 RMK SC1 SLP321

CYQG;2013-12-24 21:00;CYQG 242100Z 31010G17KT 15SM FEW030 M07/M15 A3047 RMK SC1 SLP331

CYQG;2013-12-24 22:00;CYQG 242200Z 33008KT 15SM FEW030 M08/M15 A3049 RMK SC1 SLP336

CYQG;2013-12-24 23:00;CYQG 242300Z 32007KT 15SM FEW030 M08/M15 A3052 RMK SC1 SLP346

CYQG;2013-12-25 00:00;CYQG 250000Z 32007KT 15SM SKC M09/M14 A3053 RMK SLP350

CYQG;2013-12-25 01:00;CYQG 250100Z 32002KT 15SM SKC M09/M14 A3054 RMK SLP356

CYQG;2013-12-25 02:00;CYQG 250200Z 11003KT 15SM SKC M10/M14 A3053 RMK SLP350

CYQG;2013-12-25 03:00;CYQG 250300Z 11002KT 15SM SKC M10/M13 A3051 RMK SLP346

CYQG;2013-12-25 04:00;CYQG 250400Z 18002KT 15SM SKC M10/M13 A3051 RMK SLP347

CYQG;2013-12-25 05:00;CYQG 250500Z 13002KT 15SM FEW170 M10/M13 A3050 RMK AC1 SLP341

CYQG;2013-12-25 06:00;CYQG 250600Z 16002KT 15SM FEW170 M10/M13 A3048 RMK AC1 SLP336

CYQG;2013-12-25 07:00;CYQG 250700Z 15003KT 15SM FEW170 M10/M13 A3046 RMK AC1 SLP329

CYQG;2013-12-25 08:00;CYQG 250800Z 14004KT 15SM FEW180 M10/M13 A3047 RMK AC2 SLP331

CYQG;2013-12-25 09:00;CYQG 250900Z 19005KT 15SM BKN022 M09/M13 A3046 RMK SC6 SLP327

CYQG;2013-12-25 10:00;CYQG 251000Z 17003KT 15SM OVC018 M09/M12 A3043 RMK SC8 SLP318

CYQG;2013-12-25 11:00;CYQG 251100Z 18006KT 15SM OVC021 M08/M10 A3043 RMK SC8 SLP317

CYQG;2013-12-25 12:00;CYQG 251200Z 19013KT 15SM FEW018 OVC064 M07/M10 A3039 RMK CU2SC6 SLP303

CYQG;2013-12-25 13:00;CYQG 251300Z 18012G19KT 15SM FEW025 BKN059 OVC070 M07/M10 A3038 RMK CF2SC5AC2 SLP302

CYQG;2013-12-25 14:00;CYQG 251400Z 20013KT 15SM FEW025 BKN070 BKN083 M07/M10 A3037 RMK CU2AC3AC2 SLP297

CYQG;2013-12-25 15:00;CYQG 251500Z 19013KT 15SM OVC070 M06/M10 A3038 RMK AC8 SLP300

CYQG;2013-12-25 16:00;CYQG 251600Z 19010G15KT 15SM BKN045 OVC070 M06/M10 A3035 RMK SC6AC2 SLP289

CYQG;2013-12-25 16:13;CYQG 251613Z 18014KT 7SM -SN OVC030 RMK SC8

CYQG;2013-12-25 16:35;CYQG 251635Z 19012KT 1 1/4SM -SN OVC030 RMK SN2SC6

CYQG;2013-12-25 17:00;CYQG 251700Z 20010G15KT 1SM -SN OVC016 M06/M08 A3032 RMK SN2SC6 SLP279

CYQG;2013-12-25 17:15;CYQG 251715Z 20013KT 1 1/2SM -SN OVC030 RMK SN2SC6

CYQG;2013-12-25 17:31;CYQG 251731Z 19015KT 4SM -SN BKN052 OVC071 RMK SC5AC3

CYQG;2013-12-25 18:00;CYQG 251800Z 20012KT 6SM -SN FEW010 OVC052 M06/M08 A3027 RMK CU2SC6 SLP262

CYQG;2013-12-25 19:00;CYQG 251900Z 19011KT 6SM -SN OVC016 M05/M07 A3024 RMK SC8 SLP254

CYQG;2013-12-25 20:00;CYQG 252000Z 20013KT 6SM -SN OVC018 M05/M07 A3022 RMK SC8 SLP246

CYQG;2013-12-25 21:00;CYQG 252100Z 21011KT 7SM -SN OVC015 M05/M06 A3021 RMK SC8 SLP243

CYQG;2013-12-25 22:00;CYQG 252200Z 22010KT 8SM -SN OVC016 M04/M07 A3022 RMK SC8 SLP244

CYQG;2013-12-25 23:00;CYQG 252300Z 21009KT 8SM -SN OVC016 M04/M06 A3021 RMK SC8 SLP241

CYQG;2013-12-26 00:00;CYQG 260000Z 22010KT 10SM -SN BKN017 OVC034 M04/M06 A3020 RMK SC6SC2 SLP237

CYQG;2013-12-26 01:00;CYQG 260100Z 22010KT 12SM -SN BKN018 OVC031 M04/M06 A3019 RMK SC6SC2 SLP233

CYQG;2013-12-26 02:00;CYQG 260200Z 23011KT 10SM -SN SCT017 OVC028 M04/M06 A3017 RMK SC3SC5 SLP228

CYQG;2013-12-26 03:00;CYQG 260300Z 23009KT 12SM -SN FEW015 OVC026 M03/M06 A3015 RMK SC2SC6 SLP221

CYQG;2013-12-26 04:00;CYQG 260400Z 22008KT 10SM -SN OVC025 M03/M05 A3014 RMK SC8 SLP215

CYQG;2013-12-26 05:00;CYQG 260500Z 24009KT 10SM -SN OVC015 M03/M05 A3012 RMK SC8 SLP209

CYQG;2013-12-26 06:00;CYQG 260600Z 22010KT 8SM -SN OVC023 M03/M05 A3008 RMK SC8 SLP198

CYQG;2013-12-26 07:00;CYQG 260700Z 22010KT 5SM -SN FEW013 OVC024 M03/M04 A3006 RMK SC2SC6 SLP191

CYQG;2013-12-26 07:44;CYQG 260744Z 22009KT 2 1/2SM -SN OVC013 RMK SC8

CYQG;2013-12-26 08:00;CYQG 260800Z 22010KT 1 1/4SM -SN OVC008 M03/M04 A3005 RMK SF8 /S01/ SLP188

CYQG;2013-12-26 08:17;CYQG 260817Z 21011KT 1/2SM SN VV004 RMK SN8

CYQG;2013-12-26 08:25;CYQG 260825Z 21009KT 3/4SM -SN OVC006 RMK SN3SF5

CYQG;2013-12-26 08:33;CYQG 260833Z 21008KT 1SM -SN OVC008 RMK SN3SF5

CYQG;2013-12-26 08:38;CYQG 260838Z 21010KT 1 3/4SM -SN OVC013 RMK SN1SC7

CYQG;2013-12-26 09:00;CYQG 260900Z 22010KT 1 1/2SM -SN OVC011 M03/M03 A3004 RMK SN1SC7 SLP182

CYQG;2013-12-26 09:18;CYQG 260918Z 22011KT 2 1/2SM -SN BKN008 OVC013 RMK SF6SC2

CYQG;2013-12-26 09:46;CYQG 260946Z 23013KT 4SM -SN OVC013 RMK SC8

CYQG;2013-12-26 10:00;CYQG 261000Z 23013KT 3SM -SN BKN014 OVC032 M03/M04 A3003 RMK SC6SC2 /S02/ SLP179

CYQG;2013-12-26 10:41;CYQG 261041Z 24010KT 1 1/4SM -SN OVC009 RMK SN2SF6

CYQG;2013-12-26 11:00;CYQG 261100Z 23011KT 2 1/4SM -SN OVC016 M03/M03 A3004 RMK SC8 SLP181

CYQG;2013-12-26 11:15;CYQG 261115Z 24014KT 1 1/2SM -SN OVC011 RMK SC8

CYQG;2013-12-26 11:36;CYQG 261136Z 24012KT 4SM -SN OVC018 RMK SC8

CYQG;2013-12-26 12:00;CYQG 261200Z 26013G18KT 4SM -SN OVC015 M02/M04 A3005 RMK SC8 /S04/ SLP187

CYQG;2013-12-26 13:00;CYQG 261300Z 25011KT 1 1/4SM -SN BKN022 OVC060 M03/M04 A3008 RMK SN2SC3SC2 SLP195

CYQG;2013-12-26 13:25;CYQG 261325Z 25008KT 2SM -SN BKN014 OVC040 RMK SN1SC6SC2

CYQG;2013-12-26 13:39;CYQG 261339Z 25012KT 4SM -SN BKN014 OVC040 RMK SC5SC3

CYQG;2013-12-26 14:00;CYQG 261400Z 25010KT 6SM -SN BKN022 M02/M04 A3011 RMK SC7 SLP205

CYQG;2013-12-26 14:22;CYQG 261422Z 26014KT 2SM -SN OVC021 RMK SC8

CYQG;2013-12-26 14:31;CYQG 261431Z 26012KT 1SM -SN OVC015 RMK SN2SC6

CYQG;2013-12-26 15:00;CYQG 261500Z 26011KT 2SM -SN OVC024 M02/M03 A3014 RMK SN1SC7 SLP214

CYQG;2013-12-26 15:20;CYQG 261520Z 26010KT 5/8SM -SNSG OVC013 RMK SN3SC5

CYQG;2013-12-26 15:24;CYQG 261524Z 26009KT 2 1/2SM -SNSG BKN013 OVC029 RMK SN2SC3SC3

CYQG;2013-12-26 15:45;CYQG 261545Z 27011KT 5SM -SN BKN017 BKN030 RMK SC6SC2

CYQG;2013-12-26 16:00;CYQG 261600Z 27012KT 6SM -SN BKN018 M02/M04 A3017 RMK SC7 /S02/ SLP224

CYQG;2013-12-26 17:00;CYQG 261700Z 30016G22KT 10SM -SN BKN028 M02/M07 A3018 RMK CU7 SLP228

CYQG;2013-12-26 17:47;CYQG 261747Z 28015G24KT 15SM DRSN BKN038 RMK CU5

CYQG;2013-12-26 18:00;CYQG 261800Z 29015G22KT 15SM DRSN BKN035 M03/M09 A3019 RMK CU6 SLP234

CYQG;2013-12-26 19:00;CYQG 261900Z 28016G21KT 10SM BKN037 BKN085 M03/M09 A3021 RMK CU5AC2 SLP239

CYQG;2013-12-26 19:53;CYQG 261953Z 28012G19KT 12SM -SHSN BKN036 RMK CU7

CYQG;2013-12-26 20:00;CYQG 262000Z 27016KT 10SM -SHSN BKN039 M03/M08 A3022 RMK CU7 SLP243

CYQG;2013-12-26 21:00;CYQG 262100Z 27009KT 12SM -SHSN BKN038 M03/M08 A3023 RMK SC6 SLP248

CYQG;2013-12-26 21:39;CYQG 262139Z 24010KT 12SM FEW025 RMK CU2

CYQG;2013-12-26 22:00;CYQG 262200Z 25011KT 12SM FEW026 FEW270 M03/M07 A3025 RMK SC1CI1 SLP254

CYQG;2013-12-26 23:00;CYQG 262300Z 24010KT 15SM FEW031 SCT060 BKN160 M04/M07 A3027 RMK SC1SC2AC4 SLP260

CYQG;2013-12-27 00:00;CYQG 270000Z 22009KT 15SM OVC062 M04/M08 A3028 RMK SC8 SLP262

CYQG;2013-12-27 01:00;CYQG 270100Z 23010KT 12SM OVC050 M04/M07 A3028 RMK SC8 SLP264

CYQG;2013-12-27 01:27;CYQG 270127Z 23008KT 12SM -SHSN OVC046 RMK SC8

CYQG;2013-12-27 02:00;CYQG 270200Z 23010KT 8SM -SHSN OVC040 M04/M07 A3028 RMK SC8 SLP263

CYQG;2013-12-27 03:00;CYQG 270300Z 23006KT 8SM -SN OVC057 M04/M07 A3027 RMK SC8 SLP260

CYQG;2013-12-27 04:00;CYQG 270400Z 20004KT 15SM -SN SCT052 OVC066 M03/M07 A3026 RMK SF3AC5 SLP255

CYQG;2013-12-27 05:00;CYQG 270500Z 19005KT 8SM -SN OVC060 M03/M05 A3025 RMK SC8 SLP253

CYQG;2013-12-27 06:00;CYQG 270600Z 21008KT 6SM -SN SCT030 OVC055 M02/M04 A3023 RMK SF3SC5 SLP246

CYQG;2013-12-27 07:00;CYQG 270700Z 20009KT 15SM -SN OVC037 M02/M04 A3022 RMK SC8 SLP242

CYQG;2013-12-27 08:00;CYQG 270800Z 23005KT 15SM -SN OVC049 M01/M04 A3022 RMK SC8 SLP242

CYQG;2013-12-27 09:00;CYQG 270900Z 24005KT 15SM -SN OVC025 M01/M03 A3022 RMK SC8 SLP241

CYQG;2013-12-27 10:00;CYQG 271000Z 24007KT 15SM -SN OVC020 M01/M04 A3021 RMK SC8 SLP239

CYQG;2013-12-27 11:00;CYQG 271100Z 26006KT 15SM -SN OVC019 M00/M03 A3023 RMK SC8 SLP244

CYQG;2013-12-27 12:00;CYQG 271200Z 27006KT 15SM -SN OVC017 M00/M03 A3024 RMK SC8 SLP249

CYQG;2013-12-27 13:00;CYQG 271300Z 27007KT 15SM OVC023 00/M03 A3026 RMK SC8 SLP256

CYQG;2013-12-27 14:00;CYQG 271400Z 30008KT 8SM BKN020 OVC040 00/M02 A3029 RMK SC7SC1 INTMT -SN SLP266

CYQG;2013-12-27 14:32;CYQG 271432Z 28006KT 6SM HZ BKN020 OVC040 RMK SC7SC1

CYQG;2013-12-27 15:00;CYQG 271500Z 28005KT 6SM HZ OVC016 00/M02 A3030 RMK SC8 SLP270

CYQG;2013-12-27 16:00;CYQG 271600Z 26005KT 7SM OVC015 01/M02 A3030 RMK SC8 SLP271

CYQG;2013-12-27 17:00;CYQG 271700Z 23006KT 8SM BKN016 BKN280 01/M02 A3028 RMK SC7CI1 SLP264

CYQG;2013-12-27 18:00;CYQG 271800Z 22008KT 8SM SCT017 BKN280 02/M01 A3026 RMK SC3CI1 SLP255

CYQG;2013-12-27 19:00;CYQG 271900Z 22007KT 12SM FEW017 OVC280 03/M01 A3024 RMK SC1CI4 SLP249

CYQG;2013-12-27 20:00;CYQG 272000Z 20008KT 12SM OVC180 03/M01 A3021 RMK AC8 SLP240

CYQG;2013-12-27 21:00;CYQG 272100Z 20008KT 8SM FEW180 BKN260 03/M00 A3021 RMK AC1CI2 SLP238

CYQG;2013-12-27 22:00;CYQG 272200Z 21011KT 10SM SCT140 BKN180 BKN260 02/M00 A3021 RMK AS2AC1CI1 SLP237

CYQG;2013-12-27 23:00;CYQG 272300Z 22008KT 10SM BKN180 02/M00 A3020 RMK AC6 SLP233

CYQG;2013-12-28 00:00;CYQG 280000Z 21009KT 10SM SCT170 02/M00 A3018 RMK AC4 SLP226

CYQG;2013-12-28 01:00;CYQG 280100Z 22009KT 10SM FEW140 02/M00 A3016 RMK AC2 SLP221

CYQG;2013-12-28 02:00;CYQG 280200Z 21012KT 8SM FEW130 02/M00 A3014 RMK AC2 SLP214

CYQG;2013-12-28 03:00;CYQG 280300Z 22013KT 8SM FEW240 02/M00 A3011 RMK CI1 SLP205

CYQG;2013-12-28 04:00;CYQG 280400Z 22012KT 8SM SCT110 BKN240 02/M00 A3009 RMK AC3CI1 SLP198

CYQG;2013-12-28 05:00;CYQG 280500Z 22014G19KT 15SM BKN100 03/M00 A3007 RMK AC7 SLP191

CYQG;2013-12-28 06:00;CYQG 280600Z 23015KT 15SM BKN100 04/M00 A3004 RMK AC7 SLP180

CYQG;2013-12-28 07:00;CYQG 280700Z 24015G21KT 15SM SCT100 04/M00 A3004 RMK AC4 SLP180

CYQG;2013-12-28 08:00;CYQG 280800Z 24015KT 15SM SCT100 BKN190 04/M00 A3004 RMK AC4AC1 SLP179

CYQG;2013-12-28 09:00;CYQG 280900Z 25014G19KT 15SM FEW100 SCT180 03/M00 A3004 RMK AC2AC2 SLP177

CYQG;2013-12-28 10:00;CYQG 281000Z 23012KT 15SM FEW190 03/M00 A3004 RMK AC1 SLP177

CYQG;2013-12-28 11:00;CYQG 281100Z 24008KT 15SM FEW190 02/M01 A3006 RMK AC1 SLP185

CYQG;2013-12-28 12:00;CYQG 281200Z 23009KT 15SM SKC 01/M01 A3008 RMK SLP192

CYQG;2013-12-28 13:00;CYQG 281300Z 23009KT 8SM SKC 01/M01 A3011 RMK SLP202

CYQG;2013-12-28 14:00;CYQG 281400Z 23008KT 10SM SKC 02/M00 A3012 RMK SLP205

CYQG;2013-12-28 15:00;CYQG 281500Z 23012KT 10SM SKC 03/00 A3011 RMK SLP201

CYQG;2013-12-28 16:00;CYQG 281600Z 24009KT 15SM SKC 05/00 A3009 RMK SLP197

CYQG;2013-12-28 17:00;CYQG 281700Z 24011KT 15SM SKC 06/01 A3007 RMK SLP189

CYQG;2013-12-28 18:00;CYQG 281800Z 21014KT 15SM SKC 07/01 A3004 RMK SLP177

CYQG;2013-12-28 19:00;CYQG 281900Z 22011KT 15SM FEW280 07/02 A3001 RMK CS1 SLP168

CYQG;2013-12-28 20:00;CYQG 282000Z 22011KT 15SM FEW280 07/02 A2998 RMK CS1 SLP159

CYQG;2013-12-28 21:00;CYQG 282100Z 22013G18KT 15SM FEW260 07/02 A3000 RMK CI1 CONTRAILS SLP164

CYQG;2013-12-28 22:00;CYQG 282200Z 21011KT 15SM BKN260 05/02 A3000 RMK CI2 CONTRAILS SLP165

CYQG;2013-12-28 23:00;CYQG 282300Z 22012KT 12SM BKN260 05/02 A2998 RMK CI2 SLP159

CYQG;2013-12-29 00:00;CYQG 290000Z 22009KT 12SM BKN260 05/02 A2998 RMK CI2 SLP159

CYQG;2013-12-29 01:00;CYQG 290100Z 22011KT 15SM BKN260 04/02 A2998 RMK CI2 SLP159

CYQG;2013-12-29 02:00;CYQG 290200Z 21012KT 15SM BKN260 04/01 A2996 RMK CI2 SLP153

CYQG;2013-12-29 03:00;CYQG 290300Z 21012KT 15SM BKN250 04/00 A2994 RMK CI2 SLP144

CYQG;2013-12-29 04:00;CYQG 290400Z 22010KT 15SM BKN250 04/00 A2992 RMK CI4 SLP139

CYQG;2013-12-29 05:00;CYQG 290500Z 21009KT 15SM BKN240 04/00 A2990 RMK CI2 SLP132

CYQG;2013-12-29 06:00;CYQG 290600Z 22009KT 15SM BKN240 03/00 A2989 RMK CI6 SLP127

CYQG;2013-12-29 07:00;CYQG 290700Z 22006KT 15SM BKN230 02/M00 A2988 RMK CS2 SLP123

CYQG;2013-12-29 08:00;CYQG 290800Z 21009KT 15SM BKN190 03/M00 A2988 RMK AC6 SLP124

CYQG;2013-12-29 09:00;CYQG 290900Z 22008KT 15SM BKN230 03/M01 A2984 RMK CI6 SLP111

CYQG;2013-12-29 10:00;CYQG 291000Z 23008KT 15SM OVC190 03/M01 A2983 RMK AC7 SLP105

CYQG;2013-12-29 11:00;CYQG 291100Z 22007KT 15SM OVC150 03/M01 A2981 RMK AC8 SLP100

CYQG;2013-12-29 12:00;CYQG 291200Z 20008KT 15SM OVC160 03/M01 A2980 RMK AC8 SLP095

CYQG;2013-12-29 13:00;CYQG 291300Z 21009KT 15SM OVC160 02/M01 A2978 RMK AC8 SLP090

CYQG;2013-12-29 14:00;CYQG 291400Z 21007KT 15SM OVC150 02/M01 A2976 RMK AC8 SLP083

CYQG;2013-12-29 15:00;CYQG 291500Z 23007KT 15SM OVC130 03/M01 A2975 RMK AS8 SLP080

CYQG;2013-12-29 16:00;CYQG 291600Z 23009KT 15SM OVC150 03/M01 A2974 RMK AS8 SLP078

CYQG;2013-12-29 17:00;CYQG 291700Z 25007KT 15SM OVC170 04/M01 A2971 RMK AS8 SLP068

CYQG;2013-12-29 18:00;CYQG 291800Z 26009KT 15SM BKN190 05/M01 A2969 RMK AC7 SLP060

CYQG;2013-12-29 19:00;CYQG 291900Z 29008KT 15SM FEW140 BKN190 BKN270 06/M00 A2968 RMK AC1AC5CI1 SLP056

CYQG;2013-12-29 20:00;CYQG 292000Z 27010KT 15SM FEW210 06/M01 A2968 RMK CI2 CC ASOCTD SLP056

CYQG;2013-12-29 21:00;CYQG 292100Z 30011KT 15SM OVC033 06/M00 A2970 RMK SC8 SLP063

CYQG;2013-12-29 22:00;CYQG 292200Z 29009KT 7SM OVC030 05/M00 A2972 RMK SC8 SLP069

CYQG;2013-12-29 23:00;CYQG 292300Z 35017G22KT 4SM -SHSN OVC014 01/M01 A2976 RMK SC8 PRESRR SLP083

CYQG;2013-12-29 23:10;CYQG 292310Z 36012G19KT 5SM -SHSN FEW008 OVC011 RMK CF1SC7

CYQG;2013-12-29 23:45;CYQG 292345Z 34014KT 5SM -FZDZ FEW006 OVC010 RMK CF1SC7

CYQG;2013-12-30 00:00;CYQG 300000Z 34012G17KT 4SM -FZDZ FEW005 OVC013 M01/M02 A2981 RMK CF1SC7 PRESRR SLP102

CYQG;2013-12-30 00:17;CYQG 300017Z 34012G20KT 5SM -FZDZ FEW009 OVC016 RMK CU2SC6

CYQG;2013-12-30 00:40;CYQG 300040Z 33015KT 7SM OVC015 RMK SC8

CYQG;2013-12-30 01:00;CYQG 300100Z 33018KT 7SM -FZDZ OVC016 M02/M04 A2986 RMK SC8 SLP118

CYQG;2013-12-30 01:30;CYQG 300130Z 33013KT 15SM OVC016 RMK SC8

CYQG;2013-12-30 02:00;CYQG 300200Z 35013KT 15SM OVC014 M03/M05 A2990 RMK SC8 SLP131

CYQG;2013-12-30 02:35;CYQG 300235Z 33009G16KT 15SM -SHSN OVC017 RMK SC8

CYQG;2013-12-30 03:00;CYQG 300300Z 33012KT 15SM OVC017 M03/M06 A2992 RMK SC8 OCNL -SHSN SLP140

CYQG;2013-12-30 03:30;CYQG 300330Z 31014KT 15SM OVC019 RMK SC8

CYQG;2013-12-30 04:00;CYQG 300400Z 33013KT 15SM BKN021 M04/M08 A2995 RMK SC7 SLP149

CYQG;2013-12-30 05:00;CYQG 300500Z 32016G21KT 15SM OVC023 M05/M09 A2998 RMK SC8 SLP160

CYQG;2013-12-30 05:26;CYQG 300526Z 32010G15KT 10SM -SHSN OVC031 RMK SC8

CYQG;2013-12-30 06:00;CYQG 300600Z 34015G21KT 15SM -SHSN OVC023 M05/M10 A3000 RMK SC8 SLP167

CYQG;2013-12-30 07:00;CYQG 300700Z 32013G18KT 15SM -SHSN OVC026 M06/M11 A3003 RMK SC8 SLP178

CYQG;2013-12-30 08:00;CYQG 300800Z 33011KT 15SM -SHSN OVC029 M06/M12 A3007 RMK SC8 SLP191

CYQG;2013-12-30 09:00;CYQG 300900Z 34012G17KT 15SM -SHSN OVC029 M07/M12 A3011 RMK SC8 SLP203

CYQG;2013-12-30 10:00;CYQG 301000Z 34012KT 15SM -SHSN OVC032 M07/M13 A3013 RMK SC8 SLP210

CYQG;2013-12-30 11:00;CYQG 301100Z 35011KT 15SM OVC033 M08/M14 A3015 RMK SC8 SLP218

CYQG;2013-12-30 12:00;CYQG 301200Z 35005KT 15SM OVC033 M08/M14 A3017 RMK SC8 SLP226

CYQG;2013-12-30 13:00;CYQG 301300Z 28006KT 15SM BKN037 M08/M15 A3020 RMK SC7 SLP235

CYQG;2013-12-30 14:00;CYQG 301400Z 27005KT 15SM BKN037 M08/M15 A3023 RMK SC7 SLP245

CYQG;2013-12-30 15:00;CYQG 301500Z 31007KT 15SM BKN032 M08/M15 A3026 RMK SC7 SLP260

CYQG;2013-12-30 16:00;CYQG 301600Z 31004KT 15SM SCT034 M07/M15 A3026 RMK SC3 SLP259

CYQG;2013-12-30 17:00;CYQG 301700Z 28005KT 15SM BKN036 M07/M15 A3025 RMK SC5 SLP254

CYQG;2013-12-30 18:00;CYQG 301800Z 31007KT 15SM SCT039 BKN270 M06/M15 A3022 RMK SC4CI1 SLP244

CYQG;2013-12-30 19:00;CYQG 301900Z 28005KT 15SM BKN033 BKN270 M07/M15 A3022 RMK SC5CI1 SLP244

CYQG;2013-12-30 20:00;CYQG 302000Z 18004KT 15SM BKN042 M07/M14 A3020 RMK SC7 SLP237

CYQG;2013-12-30 21:00;CYQG 302100Z 09002KT 15SM OVC040 M06/M14 A3020 RMK SC8 SLP239

CYQG;2013-12-30 22:00;CYQG 302200Z 09003KT 15SM OVC040 M07/M14 A3019 RMK SC8 SLP235

CYQG;2013-12-30 23:00;CYQG 302300Z 13006KT 15SM OVC040 M07/M13 A3018 RMK SC8 SLP231

CYQG;2013-12-31 00:00;CYQG 310000Z 18005KT 15SM OVC041 M07/M12 A3018 RMK SC8 SLP231

CYQG;2013-12-31 01:00;CYQG 310100Z 19009KT 15SM -SHSN SCT020 BKN046 M07/M11 A3017 RMK CU3SC4 SLP230

CYQG;2013-12-31 02:00;CYQG 310200Z 19008KT 15SM FEW020 BKN041 M07/M10 A3017 RMK CU2SC5 SLP227

CYQG;2013-12-31 02:47;CYQG 310247Z 18007KT 15SM -SHSN OVC048 RMK SC8

CYQG;2013-12-31 03:00;CYQG 310300Z 18006KT 10SM -SHSN FEW030 BKN044 M07/M10 A3015 RMK CU2SC6 SLP220

CYQG;2013-12-31 04:00;CYQG 310400Z 18006KT 8SM -SHSN FEW020 BKN040 M06/M09 A3012 RMK CU2SC6 SLP211

CYQG;2013-12-31 05:00;CYQG 310500Z 25007KT 8SM -SHSN OVC046 M06/M09 A3010 RMK SC8 SLP203

CYQG;2013-12-31 05:46;CYQG 310546Z 25006KT 12SM SCT045 BKN074 RMK SC4AC3

CYQG;2013-12-31 06:00;CYQG 310600Z 27008KT 12SM SCT045 BKN074 M06/M10 A3007 RMK SC4AC3 SLP195

CYQG;2013-12-31 06:33;CYQG 310633Z 25010KT 5SM -SHSN OVC018 RMK SC8

CYQG;2013-12-31 06:44;CYQG 310644Z 25010KT 3SM -SHSN OVC013 RMK SC8

CYQG;2013-12-31 07:00;CYQG 310700Z 25010KT 3SM -SN OVC014 M06/M08 A3006 RMK SC8 SLP190

CYQG;2013-12-31 07:41;CYQG 310741Z 25011G19KT 4SM -SN SCT012 OVC022 RMK SC3SC5

CYQG;2013-12-31 08:00;CYQG 310800Z 25011G16KT 4SM -SN OVC016 M07/M09 A3006 RMK SC8 /S01/ SLP190

CYQG;2013-12-31 08:49;CYQG 310849Z 25014KT 2 1/2SM -SN OVC009 RMK SC8

CYQG;2013-12-31 09:00;CYQG 310900Z CCA 25014KT 1SM -SN OVC006 M07/M09 A3005 RMK SN2SF6 /S02/ SLP187

CYQG;2013-12-31 09:29;CYQG 310929Z 28017KT 2SM -SN OVC014 RMK SC8

CYQG;2013-12-31 09:50;CYQG 310950Z 27013KT 3SM -SN OVC024 RMK SC8

CYQG;2013-12-31 10:00;CYQG 311000Z 27011KT 4SM -SN OVC024 M08/M11 A3004 RMK SC8 SLP185

CYQG;2013-12-31 11:00;CYQG 311100Z 27012G20KT 4SM -SN BKN025 OVC090 M08/M11 A3006 RMK SC7AC1 SLP191

CYQG;2013-12-31 11:16;CYQG 311116Z 27009KT 2 1/2SM -SN OVC012 RMK SC8

CYQG;2013-12-31 11:35;CYQG 311135Z 26016KT 2 1/2SM -SN OVC016 RMK SC8

CYQG;2013-12-31 11:47;CYQG 311147Z 26012G19KT 3SM -SN BKN016 OVC100 RMK SC7AC1

CYQG;2013-12-31 12:00;CYQG 311200Z 26013G18KT 4SM -SN SCT021 OVC087 M09/M11 A3007 RMK SC4AC4 /S03/ SLP196

CYQG;2013-12-31 13:00;CYQG 311300Z 27017KT 8SM BKN032 BKN070 M09/M12 A3009 RMK SC5AC2 SLP200

CYQG;2013-12-31 14:00;CYQG 311400Z 27015KT 15SM FEW026 SCT075 M09/M12 A3012 RMK SC2AC2 SLP210

CYQG;2013-12-31 15:00;CYQG 311500Z 28018G24KT 15SM FEW028 FEW075 M08/M13 A3016 RMK SC2AC1 SLP226

CYQG;2013-12-31 16:00;CYQG 311600Z 29018G24KT 15SM SCT033 M08/M14 A3020 RMK SC4 SLP237

CYQG;2013-12-31 17:00;CYQG 311700Z 30014KT 15SM BKN032 BKN052 M08/M13 A3021 RMK SC6SC1 SLP241

CYQG;2013-12-31 18:00;CYQG 311800Z 27018KT 15SM BKN053 M07/M13 A3023 RMK SC7 SLP247

CYQG;2013-12-31 18:28;CYQG 311828Z 27012G17KT 8SM -SHSN BKN028 RMK SC7

CYQG;2013-12-31 19:00;CYQG 311900Z 29010KT 4SM -SHSN OVC023 M07/M10 A3023 RMK SC8 SLP248

CYQG;2013-12-31 19:20;CYQG 311920Z 29008KT 1SM -SHSN OVC018 RMK SN1SC7

CYQG;2013-12-31 19:38;CYQG 311938Z 27008KT 1 1/2SM -SHSN OVC018 RMK SN1SC7

CYQG;2013-12-31 19:41;CYQG 311941Z 26007KT 1SM -SHSN OVC016 RMK SN2SC6

CYQG;2013-12-31 19:43;CYQG 311943Z 26007KT 3/4SM -SHSN OVC015 RMK SN2SC6

CYQG;2013-12-31 20:00;CYQG 312000Z 27007KT 3/4SM -SHSN OVC013 M08/M09 A3022 RMK SN2SC6 SLP246

CYQG;2013-12-31 20:09;CYQG 312009Z 25011KT 4SM -SHSN SCT013 BKN032 RMK SC3SC4

CYQG;2013-12-31 21:00;CYQG 312100Z 26014KT 12SM -SHSN BKN034 BKN130 M07/M12 A3023 RMK CU5AC2 SLP247

CYQG;2013-12-31 21:39;CYQG 312139Z 25015KT 15SM SCT035 BKN140 RMK CU4AC3

CYQG;2013-12-31 22:00;CYQG 312200Z 25010G15KT 15SM SCT035 BKN140 BKN260 M07/M13 A3023 RMK SC3AC2CI2 SLP248

CYQG;2013-12-31 23:00;CYQG 312300Z 25010G15KT 15SM SCT035 BKN140 M08/M12 A3025 RMK CU3AC2 SLP254

