CYQM;2005-01-01 00:00;METAR CYQM 010000Z 19021KT 15SM OVC018 03/M00 A3010 RMK SC8 SLP198=
CYQM;2005-01-01 01:00;METAR CYQM 010100Z 20024KT 15SM OVC018 04/01 A3010 RMK SC8 SLP198=
CYQM;2005-01-01 01:13;SPECI CYQM 010113Z 20019G31KT 15SM -SHRA OVC018 RMK SC8=
CYQM;2005-01-01 02:00;METAR CYQM 010200Z 20017G22KT 10SM -SHRA OVC017 04/02 A3008 RMK SC8 SLP191=
CYQM;2005-01-01 03:00;METAR CYQM 010300Z 20014G21KT 8SM -RA BKN012 OVC018 04/03 A3006 RMK SF5SC3 SLP183=
CYQM;2005-01-01 04:00;METAR CYQM 010400Z 19013KT 15SM -RA FEW012 OVC016 04/03 A3003 RMK SF2SC6 SLP172=
CYQM;2005-01-01 04:29;SPECI CYQM 010429Z 19015KT 12SM -RA BKN013 OVC017 RMK SF6SC2=
CYQM;2005-01-01 05:00;METAR CYQM 010500Z 19015KT 15SM -RA FEW008 BKN013 OVC017 05/04 A2998 RMK SF1SF6SC2 SLP156=
CYQM;2005-01-01 05:34;SPECI CYQM 010534Z 20017G22KT 12SM -DZ FEW008 OVC012 RMK SF2SF6=
CYQM;2005-01-01 06:00;METAR CYQM 010600Z 19015KT 15SM FEW008 OVC012 05/04 A2993 RMK SF1SC7 SLP139=
CYQM;2005-01-01 07:00;METAR CYQM 010700Z 20012G18KT 12SM BKN008 OVC010 06/05 A2990 RMK SF6SF2 SLP129=
CYQM;2005-01-01 08:47;SPECI CYQM 010847Z 23015G24KT 12SM OVC010 RMK SF8=
CYQM;2005-01-01 09:00;METAR CYQM 010900Z 23016KT 15SM OVC010 07/05 A2984 RMK SF8 SLP108=
CYQM;2005-01-01 10:00;METAR CYQM 011000Z 22009KT 15SM FEW010 SCT015 06/05 A2981 RMK SF2SC2 SLP099=
CYQM;2005-01-01 11:00;METAR CYQM 011100Z 21005KT 15SM SCT100 04/04 A2982 RMK AC3 SLP100=
CYQM;2005-01-01 12:00;METAR CYQM 011200Z 18005KT 12SM BKN100 05/04 A2981 RMK AC6 SLP097=
CYQM;2005-01-01 13:00;METAR CYQM 011300Z 18006KT 12SM FEW010 BKN030 BKN100 05/04 A2981 RMK SF1SC5AC2 SLP097=
CYQM;2005-01-01 13:35;SPECI CYQM 011335Z 22012KT 12SM FEW006 BKN030 BKN100 RMK SF1SC6AC1=
CYQM;2005-01-01 14:00;METAR CYQM 011400Z 23017G22KT 12SM FEW006 BKN030 BKN100 06/04 A2982 RMK SF1SC6AC1 SLP100=
CYQM;2005-01-01 15:00;METAR CYQM 011500Z 23017KT 15SM SCT030 BKN080 BKN120 BKN260 06/03 A2981 RMK SC3AS2AC1CI1 SLP099=
CYQM;2005-01-01 16:00;METAR CYQM 011600Z 23017G24KT 15SM SCT015 SCT030 BKN120 06/02 A2983 RMK CF3SC1AC2 SLP104=
CYQM;2005-01-01 17:00;METAR CYQM 011700Z 26015G22KT 15SM BKN025 06/01 A2983 RMK SC6 SLP105=
CYQM;2005-01-01 18:00;METAR CYQM 011800Z 26016G21KT 15SM BKN025 05/01 A2985 RMK SC7 SLP111=
CYQM;2005-01-01 19:00;METAR CYQM 011900Z 26012G18KT 15SM BKN025 06/01 A2988 RMK SC6 SLP120=
CYQM;2005-01-01 20:00;METAR CYQM 012000Z 29023G28KT 15SM BKN025 05/01 A2992 RMK SC5 SLP133=
CYQM;2005-01-01 20:20;SPECI CYQM 012020Z 29017KT 15SM SCT025 RMK SC3=
CYQM;2005-01-01 21:00;METAR CYQM 012100Z 29013KT 15SM FEW025 FEW120 03/M00 A2996 RMK SC2AC1 SLP148=
CYQM;2005-01-01 22:00;METAR CYQM 012200Z 31015G20KT 15SM SCT035 BKN120 02/M02 A3002 RMK SC3AC2 PRESRR SLP168=
CYQM;2005-01-01 23:00;METAR CYQM 012300Z 31017G25KT 15SM FEW020 BKN120 01/M04 A3009 RMK CF1AC5 PRESRR SLP192=
CYQM;2005-01-02 00:00;METAR CYQM 020000Z 31019G26KT 15SM BKN120 M00/M04 A3016 RMK AC7 SLP217=
CYQM;2005-01-02 01:00;METAR CYQM 020100Z 31015G21KT 15SM OVC140 M01/M10 A3021 RMK AC8 SLP233=
CYQM;2005-01-02 02:00;METAR CYQM 020200Z 31019G26KT 15SM FEW140 M02/M10 A3026 RMK AC1 SLP252=
CYQM;2005-01-02 03:00;METAR CYQM 020300Z 32020G27KT 15SM FEW140 M04/M12 A3030 RMK AC1 SLP265=
CYQM;2005-01-02 04:00;METAR CYQM 020400Z 32015G21KT 15SM SKC M06/M14 A3036 RMK PRESRR SLP286=
CYQM;2005-01-02 05:00;METAR CYQM 020500Z 32015G21KT 15SM SKC M07/M14 A3041 RMK SLP301=
CYQM;2005-01-02 06:00;METAR CYQM 020600Z 31016KT 15SM SKC M08/M15 A3044 RMK SLP314=
CYQM;2005-01-02 07:00;METAR CYQM 020700Z 31014G19KT 15SM SKC M09/M16 A3050 RMK SLP333=
CYQM;2005-01-02 08:00;METAR CYQM 020800Z 32014KT 15SM SKC M10/M16 A3054 RMK SLP346=
CYQM;2005-01-02 09:00;METAR CYQM 020900Z 32016KT 15SM SKC M11/M18 A3058 RMK SLP359=
CYQM;2005-01-02 12:00;METAR CYQM 021200Z 31011KT 15SM FEW120 M14/M19 A3070 RMK AC1 SLP402=
CYQM;2005-01-02 13:00;METAR CYQM 021300Z 32010G16KT 15SM FEW120 M14/M20 A3072 RMK AC1 SLP408=
CYQM;2005-01-02 14:00;METAR CYQM 021400Z 34010KT 15SM FEW120 M13/M19 A3073 RMK AC1 SLP413=
CYQM;2005-01-02 15:00;METAR CYQM 021500Z 34008KT 15SM FEW030 FEW220 M12/M19 A3073 RMK SC1CI1 SLP412=
CYQM;2005-01-02 16:00;METAR CYQM 021600Z 01008KT 15SM FEW030 FEW220 M12/M18 A3069 RMK SC1CI1 SLP398=
CYQM;2005-01-02 17:00;METAR CYQM 021700Z 01005KT 15SM FEW030 FEW220 M11/M17 A3069 RMK SC1CI1 SLP398=
CYQM;2005-01-02 18:00;METAR CYQM 021800Z 36003KT 15SM FEW030 SCT220 M10/M16 A3067 RMK SC1CI2 SLP392=
CYQM;2005-01-02 19:00;METAR CYQM 021900Z 08005KT 15SM FEW030 SCT220 M10/M16 A3065 RMK SC1CI2 SLP386=
CYQM;2005-01-02 20:00;METAR CYQM 022000Z 08005KT 15SM FEW030 FEW120 BKN220 M11/M15 A3066 RMK SC1AC1CI4 SLP388=
CYQM;2005-01-02 21:00;METAR CYQM 022100Z 10002KT 15SM FEW025 SCT100 OVC220 M11/M15 A3069 RMK SC1AC3CI3 SLP398=
CYQM;2005-01-02 22:00;METAR CYQM 022200Z 10004KT 15SM SCT025 BKN100 OVC220 M11/M14 A3066 RMK SC3AC3CI2 SLP388=
CYQM;2005-01-02 23:00;METAR CYQM 022300Z 12002KT 15SM SCT025 OVC100 M10/M14 A3066 RMK SC3AC5 SLP389=
CYQM;2005-01-03 00:00;METAR CYQM 030000Z 14006KT 15SM SCT025 OVC080 M09/M13 A3060 RMK SC3AC5 PRESFR SLP369=
CYQM;2005-01-03 01:00;METAR CYQM 030100Z 13007KT 15SM SCT025 OVC050 M08/M11 A3054 RMK SC3SC5 PRESFR SLP348=
CYQM;2005-01-03 03:00;METAR CYQM 030300Z 13005KT 15SM -SHSN SCT025 OVC050 M07/M09 A3046 RMK SC3SC5 SLP322=
CYQM;2005-01-03 04:00;METAR CYQM 030400Z 17014G19KT 15SM -SHSN SCT025 OVC040 M06/M08 A3041 RMK SC3SC5 SLP305=
CYQM;2005-01-03 04:10;SPECI CYQM 030410Z 17014KT 2SM -SHSN OVC007 RMK SF8=
CYQM;2005-01-03 04:31;SPECI CYQM 030431Z 17013KT 1 1/4SM -SHSN OVC007 RMK SF8=
CYQM;2005-01-03 05:00;METAR CYQM 030500Z 17015G21KT 1 1/4SM -SHSN OVC007 M05/M07 A3036 RMK SF8 SLP289=
CYQM;2005-01-03 05:32;SPECI CYQM 030532Z 17015KT 4SM -SHSN SCT007 OVC020 RMK SF3SC5=
CYQM;2005-01-03 05:47;SPECI CYQM 030547Z 17012G19KT 2SM -SHSN SCT007 OVC020 RMK SF3SC5=
CYQM;2005-01-03 06:00;METAR CYQM 030600Z 17016KT 2SM -SHSN SCT007 OVC020 M05/M07 A3031 RMK SF3SC5 /S01/ SLP270=
CYQM;2005-01-03 06:12;SPECI CYQM 030612Z 17014G19KT 10SM -SHSN DRSN FEW007 OVC025 RMK SF2SC6=
CYQM;2005-01-03 06:45;SPECI CYQM 030645Z 17015G22KT 1 1/2SM -SHSN DRSN VV012 RMK SN8=
CYQM;2005-01-03 07:00;METAR CYQM 030700Z 17017KT 1SM R29/6000FT/D R06/5000FT/D -SN DRSN VV008 M05/M06 A3026 RMK SN8 /S01/ SLP254=
CYQM;2005-01-03 07:16;SPECI CYQM 030716Z 17012G18KT 1 1/2SM -SN DRSN VV012 RMK SN8=
CYQM;2005-01-03 07:32;SPECI CYQM 030732Z 17011KT 10SM -SN DRSN FEW007 OVC030 RMK SF2SC6=
CYQM;2005-01-03 08:00;METAR CYQM 030800Z 17010KT 10SM -SN DRSN FEW007 OVC030 M04/M06 A3021 RMK SF2SC6 SLP236=
CYQM;2005-01-03 09:00;METAR CYQM 030900Z 18010KT 15SM -SN FEW007 OVC025 M02/M04 A3017 RMK SF2SC6 SLP223=
CYQM;2005-01-03 09:07;SPECI CYQM 030907Z 17011KT 15SM FEW007 OVC025 RMK SF2SC6=
CYQM;2005-01-03 10:00;METAR CYQM 031000Z 18012KT 15SM FEW007 OVC025 M00/M02 A3014 RMK SF1SC7 SLP210=
CYQM;2005-01-03 10:45;SPECI CYQM 031045Z 19007KT 10SM -SHSN FEW007 OVC025 RMK SF1SC7=
CYQM;2005-01-03 11:00;METAR CYQM 031100Z 19008KT 4SM -SHSN BR FEW007 BKN015 OVC025 01/M01 A3013 RMK SF1SC5SC2 SLP208=
CYQM;2005-01-03 11:12;SPECI CYQM 031112Z 19010KT 4SM -DZ BR FEW007 OVC012 RMK SF2ST6=
CYQM;2005-01-03 12:00;METAR CYQM 031200Z 19006KT 10SM -DZ SCT007 OVC012 01/01 A3010 RMK SF3ST5 PCPN VRY LGT SLP197=
CYQM;2005-01-03 12:18;SPECI CYQM 031218Z 18007KT 12SM BKN006 OVC012 RMK SF6SC2=
CYQM;2005-01-03 13:00;METAR CYQM 031300Z 19004KT 12SM BKN006 OVC012 01/01 A3008 RMK SF6SC2 SLP192=
CYQM;2005-01-03 14:00;METAR CYQM 031400Z 22008KT 12SM OVC005 02/02 A3007 RMK SF8 SLP187=
CYQM;2005-01-03 15:00;METAR CYQM 031500Z 23009KT 12SM OVC005 02/02 A3006 RMK SF8 SLP182=
CYQM;2005-01-03 16:00;METAR CYQM 031600Z 24009KT 15SM BKN005 OVC015 03/02 A3003 RMK SF7SC1 SLP174=
CYQM;2005-01-03 17:00;METAR CYQM 031700Z 25010G16KT 15SM OVC009 03/02 A3001 RMK SF8 SLP168=
CYQM;2005-01-03 17:36;SPECI CYQM 031736Z 26013KT 15SM SCT008 OVC012 RMK SF3SC5=
CYQM;2005-01-03 18:00;METAR CYQM 031800Z 26017G22KT 15SM FEW008 OVC012 03/01 A3002 RMK SF2SC6 SLP169=
CYQM;2005-01-03 19:00;METAR CYQM 031900Z 27015G22KT 15SM FEW008 BKN012 OVC030 03/M00 A3003 RMK SF1SC6SC1 BINOVC SLP174=
CYQM;2005-01-03 20:00;METAR CYQM 032000Z 27016G28KT 15SM FEW015 BKN025 BKN260 01/M03 A3006 RMK CU1SC5CI1 SLP183=
CYQM;2005-01-03 21:00;METAR CYQM 032100Z 27014KT 15SM FEW025 BKN160 BKN260 01/M03 A3008 RMK SC2AC2CI2 SLP189=
CYQM;2005-01-03 22:00;METAR CYQM 032200Z 27015G20KT 15SM FEW025 BKN160 BKN260 00/M03 A3010 RMK SC2AC2CI2 SLP197=
CYQM;2005-01-03 23:00;METAR CYQM 032300Z 27015KT 15SM SCT160 BKN220 M00/M03 A3013 RMK AC3CI2 SLP207=
CYQM;2005-01-04 00:00;METAR CYQM 040000Z 27008KT 15SM SCT160 BKN220 M00/M03 A3016 RMK AC3CI2 SLP218=
CYQM;2005-01-04 01:00;METAR CYQM 040100Z 27008KT 15SM BKN040 OVC100 M01/M04 A3018 RMK SC5AC3 SLP225=
CYQM;2005-01-04 02:00;METAR CYQM 040200Z 27003KT 15SM BKN040 BKN100 M02/M05 A3019 RMK SC5AC2 SLP226=
CYQM;2005-01-04 03:00;METAR CYQM 040300Z 27005KT 15SM FEW040 SCT120 M02/M06 A3019 RMK SC2AC2 SLP228=
CYQM;2005-01-04 04:00;METAR CYQM 040400Z 25006KT 15SM BKN022 BKN120 M02/M07 A3019 RMK SC6AC2 SLP227=
CYQM;2005-01-04 05:00;METAR CYQM 040500Z 27004KT 15SM BKN022 BKN120 M02/M07 A3018 RMK SC6AC2 SLP223=
CYQM;2005-01-04 06:00;METAR CYQM 040600Z 29002KT 15SM BKN018 OVC050 M02/M07 A3018 RMK SC6SC2 SLP223=
CYQM;2005-01-04 07:00;METAR CYQM 040700Z 03004KT 15SM BKN022 OVC050 M02/M08 A3019 RMK SC6SC2 SLP227=
CYQM;2005-01-04 08:00;METAR CYQM 040800Z 04004KT 15SM BKN022 OVC050 M03/M07 A3019 RMK SC6SC2 SLP229=
CYQM;2005-01-04 09:00;METAR CYQM 040900Z 05006KT 15SM BKN022 BKN050 M04/M08 A3019 RMK SC6SC2 SLP227=
CYQM;2005-01-04 10:00;METAR CYQM 041000Z 03008KT 15SM OVC021 M05/M07 A3019 RMK SC8 SLP226=
CYQM;2005-01-04 11:00;METAR CYQM 041100Z 03009KT 15SM OVC022 M05/M08 A3019 RMK SC8 SLP227=
CYQM;2005-01-04 12:00;METAR CYQM 041200Z 03007KT 15SM OVC022 M06/M08 A3019 RMK SC8 SLP230=
CYQM;2005-01-04 13:00;METAR CYQM 041300Z 01008KT 15SM OVC025 M06/M10 A3020 RMK SC8 SLP231=
CYQM;2005-01-04 15:00;METAR CYQM 041500Z 03004KT 15SM BKN030 BKN250 M06/M10 A3020 RMK SC6CI1 SLP232=
CYQM;2005-01-04 16:00;METAR CYQM 041600Z 01004KT 15SM OVC030 M06/M10 A3018 RMK SC7 SLP224=
CYQM;2005-01-04 17:00;METAR CYQM 041700Z 00000KT 15SM BKN030 BKN250 M04/M09 A3015 RMK SC5CI1 SLP214=
CYQM;2005-01-04 18:00;METAR CYQM 041800Z 00000KT 15SM FEW025 FEW100 SCT250 M04/M09 A3011 RMK CF2AC1CI1 SLP200=
CYQM;2005-01-04 20:00;METAR CYQM 042000Z 04005KT 15SM SCT027 SCT100 BKN250 M03/M08 A3007 RMK CU3AC1CI1 SLP188=
CYQM;2005-01-04 21:00;METAR CYQM 042100Z 06006KT 15SM BKN030 BKN120 BKN250 M06/M10 A3007 RMK SC5AC1CI1 SLP189=
CYQM;2005-01-04 22:00;METAR CYQM 042200Z 07002KT 15SM SCT030 BKN100 M07/M10 A3008 RMK SC4AC2 SLP191=
CYQM;2005-01-04 23:00;METAR CYQM 042300Z 17003KT 15SM BKN030 BKN100 M07/M11 A3008 RMK SC5AC2 SLP190=
CYQM;2005-01-05 00:00;METAR CYQM 050000Z 20004KT 15SM SCT030 BKN050 M08/M12 A3007 RMK SC3SC4 SLP189=
CYQM;2005-01-05 01:00;METAR CYQM 050100Z 25009KT 15SM FEW030 OVC060 M06/M10 A3008 RMK SC2SC6 SLP190=
CYQM;2005-01-05 02:00;METAR CYQM 050200Z 25010KT 15SM FEW030 SCT060 M05/M10 A3007 RMK SC2SC2 SLP188=
CYQM;2005-01-05 03:00;METAR CYQM 050300Z 25006KT 15SM FEW030 SCT060 M06/M10 A3005 RMK SC2SC2 SLP180=
CYQM;2005-01-05 04:00;METAR CYQM 050400Z 25006KT 15SM FEW030 FEW060 M06/M10 A3003 RMK SC2SC1 SLP174=
CYQM;2005-01-05 05:00;METAR CYQM 050500Z 27005KT 15SM FEW030 FEW060 M07/M11 A3001 RMK SC2SC1 SLP169=
CYQM;2005-01-05 06:00;METAR CYQM 050600Z 27006KT 15SM FEW060 M08/M12 A3001 RMK SC2 SLP168=
CYQM;2005-01-05 07:00;METAR CYQM 050700Z 25013KT 15SM BKN065 M08/M12 A3000 RMK SC5 SLP166=
CYQM;2005-01-05 07:27;SPECI CYQM 050727Z 25013KT 15SM -SHSN BKN065 RMK SC6=
CYQM;2005-01-05 08:00;METAR CYQM 050800Z 27014KT 15SM -SHSN BKN065 M08/M11 A3002 RMK SC6 SLP171=
CYQM;2005-01-05 09:00;METAR CYQM 050900Z 28012KT 15SM -SHSN FEW070 BKN230 M08/M11 A3000 RMK AC2CI2 SLP166=
CYQM;2005-01-05 09:06;SPECI CYQM 050906Z 28010G15KT 15SM FEW075 BKN230 RMK AC2CI2=
CYQM;2005-01-05 10:00;METAR CYQM 051000Z 29011G16KT 15SM FEW025 BKN070 OVC230 M08/M12 A3003 RMK SC1AC6CI1 SLP173=
CYQM;2005-01-05 11:00;METAR CYQM 051100Z 29011G16KT 15SM FEW020 FEW070 BKN230 M09/M13 A3004 RMK SC1AC2CI1 SLP179=
CYQM;2005-01-05 12:00;METAR CYQM 051200Z 26010KT 15SM FEW020 BKN120 BKN230 M10/M13 A3007 RMK SC2AC3CI1 SLP188=
CYQM;2005-01-05 14:00;METAR CYQM 051400Z 29012KT 15SM FEW025 BKN120 BKN230 M10/M16 A3010 RMK SC1AC4CI1 SLP198=
CYQM;2005-01-05 15:00;METAR CYQM 051500Z 30010KT 15SM FEW025 SCT150 BKN230 M10/M17 A3010 RMK SC1AC2CI2 SLP198=
CYQM;2005-01-05 16:00;METAR CYQM 051600Z 29010KT 15SM FEW030 FEW150 BKN230 M10/M17 A3008 RMK CU1AC2CI1 SLP192=
CYQM;2005-01-05 17:00;METAR CYQM 051700Z 27009KT 15SM FEW030 SCT250 M09/M18 A3006 RMK CU1CI2 SLP184=
CYQM;2005-01-05 18:00;METAR CYQM 051800Z 28013KT 15SM FEW030 FEW250 M09/M17 A3003 RMK CU1CI1 SLP176=
CYQM;2005-01-05 19:00;METAR CYQM 051900Z 27017KT 15SM FEW030 FEW250 M09/M18 A3004 RMK CU1CI1 SLP179=
CYQM;2005-01-05 20:00;METAR CYQM 052000Z 27010G17KT 15SM FEW030 FEW250 M09/M18 A3007 RMK CU1CI1 SLP187=
CYQM;2005-01-05 21:00;METAR CYQM 052100Z 27010KT 15SM FEW230 M10/M17 A3007 RMK CI1 SLP189=
CYQM;2005-01-05 22:00;METAR CYQM 052200Z 28010KT 15SM FEW230 M11/M19 A3010 RMK CI1 SLP199=
CYQM;2005-01-05 23:00;METAR CYQM 052300Z 28009KT 15SM SKC M12/M19 A3013 RMK SLP209=
CYQM;2005-01-06 00:00;METAR CYQM 060000Z 28013KT 15SM SKC M13/M19 A3015 RMK SLP215=
CYQM;2005-01-06 01:00;METAR CYQM 060100Z 29012KT 15SM SKC M14/M20 A3017 RMK SLP224=
CYQM;2005-01-06 02:00;METAR CYQM 060200Z 30011G16KT 15SM SKC M15/M21 A3017 RMK SLP224=
CYQM;2005-01-06 03:00;METAR CYQM 060300Z 29009KT 15SM SKC M16/M22 A3018 RMK SLP227=
CYQM;2005-01-06 04:00;METAR CYQM 060400Z 30005KT 15SM SKC M16/M22 A3017 RMK SLP224=
CYQM;2005-01-06 05:00;METAR CYQM 060500Z 27003KT 15SM SKC M17/M22 A3018 RMK SLP227=
CYQM;2005-01-06 06:00;METAR CYQM 060600Z 28009KT 15SM SKC M17/M22 A3017 RMK SLP225=
CYQM;2005-01-06 07:00;METAR CYQM 060700Z 28008KT 15SM SKC M17/M22 A3020 RMK SLP235=
CYQM;2005-01-06 08:00;METAR CYQM 060800Z 28006KT 15SM SKC M18/M23 A3020 RMK SLP233=
CYQM;2005-01-06 09:00;METAR CYQM 060900Z 29006KT 15SM FEW230 M18/M22 A3020 RMK CI2 SLP234=
CYQM;2005-01-06 10:00;METAR CYQM 061000Z 30004KT 15SM SCT140 OVC230 M18/M21 A3019 RMK AS3CS2 SLP231=
CYQM;2005-01-06 11:00;METAR CYQM 061100Z 26005KT 15SM SCT140 OVC230 M18/M22 A3020 RMK AS2CS2 SLP233=
CYQM;2005-01-06 12:00;METAR CYQM 061200Z 23004KT 15SM SCT140 BKN230 M18/M22 A3021 RMK AS3CS2 SLP237=
CYQM;2005-01-06 14:00;METAR CYQM 061400Z 24010KT 15SM SCT140 BKN230 M17/M21 A3024 RMK AS3CI2 SLP247=
CYQM;2005-01-06 15:00;METAR CYQM 061500Z 23012KT 15SM FEW120 FEW140 BKN230 M16/M21 A3023 RMK AC1AS2CI2 SLP243=
CYQM;2005-01-06 16:00;METAR CYQM 061600Z 23009KT 15SM FEW120 BKN230 M15/M22 A3019 RMK AC1CS4=
CYQM;2005-01-06 17:00;METAR CYQM 061700Z 24006KT 15SM FEW120 BKN230 M14/M21 A3016 RMK AS2CS3 SLP220=
CYQM;2005-01-06 18:00;METAR CYQM 061800Z 23007KT 15SM FEW120 OVC230 M12/M20 A3013 RMK AS2CS4 SLP211=
CYQM;2005-01-06 19:00;METAR CYQM 061900Z 23004KT 15SM FEW120 OVC230 M11/M20 A3010 RMK AS2CS5 SLP200=
CYQM;2005-01-06 20:00;METAR CYQM 062000Z 22005KT 15SM SCT120 OVC230 M11/M19 A3009 RMK AS2CS4 SLP198=
CYQM;2005-01-06 21:00;METAR CYQM 062100Z 21003KT 15SM BKN120 OVC230 M11/M18 A3009 RMK AS5CS2 SLP196=
CYQM;2005-01-06 22:00;METAR CYQM 062200Z 21002KT 15SM BKN120 OVC230 M11/M18 A3006 RMK AC5CI3 SLP187=
CYQM;2005-01-06 23:00;METAR CYQM 062300Z 00000KT 15SM FEW040 BKN120 BKN230 M11/M18 A3006 RMK SC1AC5CI2 SLP186=
CYQM;2005-01-07 00:00;METAR CYQM 070000Z 20003KT 15SM FEW040 BKN090 OVC230 M10/M16 A3003 RMK SC1AC6CI1 SLP176=
CYQM;2005-01-07 01:00;METAR CYQM 070100Z 18004KT 15SM OVC080 M09/M13 A3001 RMK AC8 SLP168=
CYQM;2005-01-07 02:00;METAR CYQM 070200Z 14004KT 15SM BKN050 OVC080 M07/M11 A2997 RMK SC5AC3 SLP157=
CYQM;2005-01-07 02:33;SPECI CYQM 070233Z 09005KT 15SM -SHSN OVC030 RMK SC8=
CYQM;2005-01-07 02:45;SPECI CYQM 070245Z 10006KT 2SM -SHSN OVC030 RMK SC8=
CYQM;2005-01-07 03:00;METAR CYQM 070300Z 13006KT 2SM -SN BKN015 OVC030 M08/M10 A2995 RMK SC5SC3 SLP148=
CYQM;2005-01-07 03:09;SPECI CYQM 070309Z 14006KT 1 1/4SM -SN VV009 RMK SN8=
CYQM;2005-01-07 04:41;SPECI CYQM 070441Z 02006KT 3/4SM R06/4000FT/D R29/5500FT/D -SN VV006 RMK SN8=
CYQM;2005-01-07 05:00;METAR CYQM 070500Z 04006KT 3/4SM R06/3000V5000FT/D R29/3500V5500FT/D -SN VV006 M08/M09 A2988 RMK SN8 /S03/ SLP126=
CYQM;2005-01-07 05:32;SPECI CYQM 070532Z 07007KT 1SM R06/4500VP6000FT/U R29/P6000FT/U -SN VV008 RMK SN8=
CYQM;2005-01-07 06:00;METAR CYQM 070600Z 06006KT 1SM R06/P6000FT/U R29/P6000FT/U -SN VV008 M08/M09 A2984 RMK SN8 /S04/ SLP111=
CYQM;2005-01-07 07:00;METAR CYQM 070700Z 07006KT 1 1/4SM -SN VV009 M09/M10 A2979 RMK SN8 /S01/ SLP095=
CYQM;2005-01-07 07:36;SPECI CYQM 070736Z 05006KT 1 3/4SM -SN VV012 RMK SN8=
CYQM;2005-01-07 08:00;METAR CYQM 070800Z 05005KT 2SM -SN OVC020 M09/M10 A2973 RMK SN6SC2 /S02/ PRESFR SLP074=
CYQM;2005-01-07 08:34;SPECI CYQM 070834Z 03006KT 3SM -SN OVC020 RMK SN2SC6=
CYQM;2005-01-07 09:00;METAR CYQM 070900Z 36005KT 2SM -SN OVC020 M08/M08 A2974 RMK SN2SC6 SLP075=
CYQM;2005-01-07 09:13;SPECI CYQM 070913Z 36004KT 1 1/4SM -SN VV009 RMK SN8=
CYQM;2005-01-07 09:38;SPECI CYQM 070938Z 36005KT 2SM -SN VV012 RMK SN8=
CYQM;2005-01-07 09:47;SPECI CYQM 070947Z 36005KT 1SM R06/P6000FT/N R29/P6000FT/N -SN VV006 RMK SN8=
CYQM;2005-01-07 10:00;METAR CYQM 071000Z 36005KT 1 1/2SM R06/P6000FT/N R29/P6000FT/N -SN VV010 M08/M09 A2970 RMK SN8 /SO3/ SLP064=
CYQM;2005-01-07 10:08;SPECI CYQM 071008Z 36007KT 4SM -SN FEW007 OVC012 RMK SF2SC6=
CYQM;2005-01-07 10:36;SPECI CYQM 071036Z 04005KT 10SM -SN FEW007 OVC025 RMK SF2SC6=
CYQM;2005-01-07 11:00;METAR CYQM 071100Z 04004KT 10SM -SN FEW007 OVC025 M07/M08 A2970 RMK SF2SC6 SLP062=
CYQM;2005-01-07 12:00;METAR CYQM 071200Z 04004KT 10SM -SN FEW007 OVC025 M07/M09 A2973 RMK SF2SC6 /S04/ SLP071=
CYQM;2005-01-07 13:54;SPECI CYQM 071354Z 31005KT 2SM -SN FEW007 OVC025 RMK SF2SC6=
CYQM;2005-01-07 14:00;METAR CYQM 071400Z 31004KT 2SM -SN FEW007 OVC020 M05/M05 A2975 RMK SF2SC6 SLP078=
CYQM;2005-01-07 14:17;SPECI CYQM 071417Z 30005KT 5SM -SN FEW007 OVC025 RMK SF2SC6=
CYQM;2005-01-07 15:00;METAR CYQM 071500Z 27005KT 3SM -SN FEW007 OVC025 M05/M06 A2977 RMK SF2SC6 SLP085=
CYQM;2005-01-07 17:00;METAR CYQM 071700Z 26009KT 12SM -SN FEW007 OVC020 M06/M08 A2978 RMK SF2SC6 SLP090=
CYQM;2005-01-07 17:16;SPECI CYQM 071716Z 25011KT 12SM FEW007 OVC030 RMK SF2SC6=
CYQM;2005-01-07 18:00;METAR CYQM 071800Z 26012KT 15SM FEW015 BKN110 M06/M08 A2980 RMK SF2AC2 SLP097=
CYQM;2005-01-07 19:00;METAR CYQM 071900Z 26013KT 15SM FEW020 FEW250 M05/M07 A2984 RMK CU2CI1 SLP111=
CYQM;2005-01-07 20:00;METAR CYQM 072000Z 27009KT 15SM SCT030 BKN100 M05/M08 A2990 RMK SC3AC2 SLP130=
CYQM;2005-01-07 20:16;SPECI CYQM 072016Z 27007KT 12SM BKN014 RMK SC6=
CYQM;2005-01-07 21:00;METAR CYQM 072100Z 25008KT 12SM BKN014 M04/M07 A2993 RMK SC6 SLP139=
CYQM;2005-01-07 21:14;SPECI CYQM 072114Z 25006KT 15SM SCT015 RMK SC4=
CYQM;2005-01-07 22:00;METAR CYQM 072200Z 26009KT 15SM SCT020 M04/M06 A2998 RMK SC4 SLP158=
CYQM;2005-01-07 23:00;METAR CYQM 072300Z 25014KT 15SM FEW020 M05/M07 A3004 RMK SC1 PRESRR SLP178=
CYQM;2005-01-08 00:00;METAR CYQM 080000Z 25014G20KT 15SM FEW020 M06/M08 A3010 RMK SC1 SLP198=
CYQM;2005-01-08 01:00;METAR CYQM 080100Z 22010KT 15SM SKC M07/M09 A3011 RMK SLP200=
CYQM;2005-01-08 02:00;METAR CYQM 080200Z 23013KT 15SM SKC M07/M09 A3011 RMK SLP203=
CYQM;2005-01-08 03:00;METAR CYQM 080300Z 25013KT 15SM SKC M07/M09 A3015 RMK SLP215=
CYQM;2005-01-08 04:00;METAR CYQM 080400Z 24012KT 15SM SKC M07/M08 A3017 RMK SLP220=
CYQM;2005-01-08 05:00;METAR CYQM 080500Z 25014KT 15SM SKC M07/M09 A3016 RMK SLP218=
CYQM;2005-01-08 06:00;METAR CYQM 080600Z 26010KT 15SM SKC M08/M10 A3018 RMK SLP225=
CYQM;2005-01-08 07:00;METAR CYQM 080700Z 25012KT 15SM SKC M08/M10 A3020 RMK SLP232=
CYQM;2005-01-08 08:00;METAR CYQM 080800Z 25010KT 15SM SKC M09/M11 A3022 RMK SLP239=
CYQM;2005-01-08 09:00;METAR CYQM 080900Z 25010KT 15SM SKC M09/M11 A3022 RMK SLP240=
CYQM;2005-01-08 10:00;METAR CYQM 081000Z 25009KT 15SM SKC M09/M12 A3023 RMK SLP243=
CYQM;2005-01-08 11:00;METAR CYQM 081100Z 24012G19KT 15SM BKN100 M08/M12 A3027 RMK AC6 SLP254=
CYQM;2005-01-08 12:00;METAR CYQM 081200Z 25009KT 15SM BKN100 M08/M12 A3026 RMK AC7 SLP254=
CYQM;2005-01-08 13:00;METAR CYQM 081300Z 24012KT 15SM BKN100 M08/M12 A3027 RMK AC7 SLP257=
CYQM;2005-01-08 14:00;METAR CYQM 081400Z 24010KT 15SM BKN100 M07/M12 A3027 RMK AC7 SLP257=
CYQM;2005-01-08 15:00;METAR CYQM 081500Z 24008KT 15SM BKN100 M04/M09 A3028 RMK AC7 SLP258=
CYQM;2005-01-08 16:00;METAR CYQM 081600Z 23009KT 15SM BKN100 M05/M08 A3023 RMK AC7 SLP242=
CYQM;2005-01-08 17:00;METAR CYQM 081700Z 24009KT 15SM BKN100 M04/M08 A3019 RMK AC5 SLP229=
CYQM;2005-01-08 18:00;METAR CYQM 081800Z 23008KT 15SM FEW100 BKN250 M04/M07 A3017 RMK AC2CI2 SLP223=
CYQM;2005-01-08 19:00;METAR CYQM 081900Z 23007KT 15SM FEW100 BKN250 M03/M08 A3017 RMK AC2CI2 SLP220=
CYQM;2005-01-09 01:00;METAR CYQM 090100Z 23005KT 15SM OVC120 M05/M07 A3016 RMK AC8 SLP218=
CYQM;2005-01-09 02:00;METAR CYQM 090200Z 26005KT 15SM OVC120 M05/M07 A3015 RMK AC8 SLP216=
CYQM;2005-01-09 03:00;METAR CYQM 090300Z 27003KT 15SM OVC120 M05/M07 A3014 RMK AC8 SLP211=
CYQM;2005-01-09 04:00;METAR CYQM 090400Z 27004KT 15SM BKN120 BKN250 M05/M07 A3015 RMK AC5CI2 SLP214=
CYQM;2005-01-09 07:00;METAR CYQM 090700Z 33011KT 15SM SCT120 BKN250 M05/M08 A3017 RMK AC3CI2 SLP220=
CYQM;2005-01-09 09:00;METAR CYQM 090900Z 34010KT 15SM FEW250 M07/M09 A3020 RMK CI1 SLP233=
CYQM;2005-01-09 10:00;METAR CYQM 091000Z 34012KT 15SM FEW250 M08/M10 A3022 RMK CI1 SLP237=
CYQM;2005-01-09 12:00;METAR CYQM 091200Z 34012KT 15SM FEW050 SCT250 M09/M11 A3028 RMK SC2CI2 SLP258=
CYQM;2005-01-09 13:00;METAR CYQM 091300Z 33010KT 15SM -SHSN SCT050 BKN250 M09/M10 A3031 RMK SC3CI1 SLP271=
CYQM;2005-01-09 14:00;METAR CYQM 091400Z 34011KT 15SM -SHSN FEW035 BKN250 M08/M09 A3035 RMK SC2CI1 SLP282=
CYQM;2005-01-09 14:41;SPECI CYQM 091441Z 35008KT 15SM FEW035 BKN250 RMK SC1CI1=
CYQM;2005-01-09 15:00;METAR CYQM 091500Z 35009KT 15SM FEW035 BKN250 M07/M09 A3039 RMK CU1CI1 SLP295=
CYQM;2005-01-09 15:42;SPECI CYQM 091542Z 36014KT 10SM -SHSN SCT035 BKN250 RMK CU3CI1=
CYQM;2005-01-09 16:00;METAR CYQM 091600Z 36013G18KT 8SM -SHSN SCT035 BKN250 M05/M07 A3038 RMK CU3CI1 SLP292=
CYQM;2005-01-09 17:00;METAR CYQM 091700Z 36016KT 8SM -SHSN BKN035 BKN250 M04/M07 A3037 RMK CU5CI2 SLP289=
CYQM;2005-01-09 18:00;METAR CYQM 091800Z 35009G16KT 12SM -SHSN BKN035 BKN250 M06/M08 A3039 RMK CU5CI2 SLP296=
CYQM;2005-01-09 20:50;SPECI CYQM 092050Z 01008KT 12SM FEW035 BKN250 RMK CU2CI2=
CYQM;2005-01-09 21:00;METAR CYQM 092100Z 01006KT 15SM FEW035 SCT150 BKN220 M08/M11 A3041 RMK CU2AC1CI2 SLP305=
CYQM;2005-01-09 21:30;SPECI CYQM 092130Z 36006KT 15SM -SHSN SCT035 SCT150 BKN250 RMK SC3AC1CI2=
CYQM;2005-01-09 22:00;METAR CYQM 092200Z 01005KT 15SM -SHSN SCT035 SCT150 BKN220 M10/M12 A3042 RMK SC3AC1CI2 SLP306=
CYQM;2005-01-09 22:21;SPECI CYQM 092221Z 04004KT 15SM FEW035 SCT150 BKN220 RMK SC2AC1CI3=
CYQM;2005-01-09 23:00;METAR CYQM 092300Z 35002KT 15SM FEW035 FEW150 BKN220 M09/M12 A3041 RMK SC1AC1CI2 SLP303=
CYQM;2005-01-10 00:00;METAR CYQM 100000Z 07003KT 15SM FEW035 BKN100 BKN220 M09/M12 A3041 RMK SC2AC5CI1 SLP306=
CYQM;2005-01-10 01:00;METAR CYQM 100100Z 09003KT 15SM FEW035 BKN100 M09/M12 A3040 RMK SC2AC5 SLP302=
CYQM;2005-01-10 03:00;METAR CYQM 100300Z 18004KT 15SM FEW035 BKN120 M10/M13 A3038 RMK SC2AC5 SLP294=
CYQM;2005-01-10 04:00;METAR CYQM 100400Z 15004KT 15SM FEW035 OVC120 M10/M13 A3037 RMK SC2AC6 SLP289=
CYQM;2005-01-10 06:00;METAR CYQM 100600Z 12004KT 15SM -SHSN BKN021 OVC120 M10/M12 A3034 RMK SC6AC2 SLP281=
CYQM;2005-01-10 10:00;METAR CYQM 101000Z 11005KT 15SM FEW020 OVC120 M09/M11 A3023 RMK SC2AC6 SLP243=
CYQM;2005-01-10 12:00;METAR CYQM 101200Z 12007KT 15SM BKN020 OVC120 M08/M11 A3017 RMK SC6AC2 SLP222=
CYQM;2005-01-10 13:00;METAR CYQM 101300Z 13009KT 15SM SCT020 BKN040 BKN120 M08/M10 A3013 RMK SC3SC2AC2 SLP208=
CYQM;2005-01-10 14:00;METAR CYQM 101400Z 14008KT 15SM VCSH FEW020 BKN040 BKN120 M07/M09 A3010 RMK SC2SC4AC1 SLP198=
CYQM;2005-01-10 15:00;METAR CYQM 101500Z 14011KT 15SM VCSH FEW020 BKN040 OVC120 M06/M08 A3007 RMK SC1SC6AC2 SLP189=
CYQM;2005-01-10 15:12;SPECI CYQM 101512Z 14012KT 12SM -SHSN FEW020 BKN040 OVC120 RMK SC1SC6AC2=
CYQM;2005-01-10 16:00;METAR CYQM 101600Z 14013KT 10SM -SHSN FEW020 BKN040 OVC120 M05/M07 A3000 RMK SC1SC6AC1 PRESFR SLP163=
CYQM;2005-01-10 17:00;METAR CYQM 101700Z 16011KT 12SM -SN FEW012 BKN040 OVC120 M03/M04 A2992 RMK SF1SC6AC1 PRESFR SLP136=
CYQM;2005-01-10 17:34;SPECI CYQM 101734Z 16018G24KT 2SM -SN DRSN OVC040 RMK SC8=
CYQM;2005-01-10 17:42;SPECI CYQM 101742Z 16015G24KT 1 1/4SM -SN DRSN OVC040 RMK SC8=
CYQM;2005-01-10 18:00;METAR CYQM 101800Z 16014G21KT 1SM R29/P6000FT/U R06/3500VP6000FT/U -SN=
CYQM;2005-01-10 18:09;SPECI CYQM 101809Z 17015G21KT 1 1/2SM -SN DRSN BKN020 OVC040 RMK SN2SC5SC2=
CYQM;2005-01-10 18:24;SPECI CYQM 101824Z 16016G22KT 3SM -SN DRSN BKN020 OVC040 RMK SC5SC3=
CYQM;2005-01-10 18:40;SPECI CYQM 101840Z 16017G25KT 1 1/4SM -SN DRSN OVC020 RMK SN3SC5=
CYQM;2005-01-10 19:00;METAR CYQM 101900Z 16016G21KT 2SM -SN DRSN FEW006 BKN020 OVC040 M02/M03 A2979 RMK SF2SC6SC1 SLP092=
CYQM;2005-01-10 19:34;SPECI CYQM 101934Z 16013G18KT 1 1/2SM -SN DRSN BKN006 OVC015 RMK SF5SC3=
CYQM;2005-01-10 20:00;METAR CYQM 102000Z 16014KT 1 1/4SM -SN DRSN OVC006 M01/M02 A2975 RMK SN3SF5 /S01/ SLP080=
CYQM;2005-01-10 20:25;SPECI CYQM 102025Z 16013G19KT 2SM -SN DRSN BKN006 OVC020 RMK SF6SC2=
CYQM;2005-01-10 20:29;SPECI CYQM 102029Z 16012G19KT 5SM -SN DRSN BKN006 OVC020 RMK SF6SC2 BINOVC=
CYQM;2005-01-10 21:00;METAR CYQM 102100Z 16012KT 12SM -SN DRSN BKN006 BKN020 OVC040 M01/M01 A2970 RMK SF6SC2SC1 BINOVC PCPN VRY LGT SLP063=
CYQM;2005-01-10 22:00;METAR CYQM 102200Z 18010KT 12SM -SN BKN005 OVC016 M00/M01 A2969 RMK SF6SC2 SLP058=
CYQM;2005-01-10 22:05;SPECI CYQM 102205Z 18010KT 10SM -SN FEW005 BKN017 OVC028 RMK SF2SC5SC2=
CYQM;2005-01-10 22:20;SPECI CYQM 102220Z 21010KT 5SM -SN FEW005 OVC013 RMK SF2SC6=
CYQM;2005-01-10 22:43;SPECI CYQM 102243Z 21007KT 10SM -SN BKN005 OVC013 RMK SF6SC2=
CYQM;2005-01-10 22:54;SPECI CYQM 102254Z 22006KT 15SM -SN SCT005 OVC016 RMK SF3SC5=
CYQM;2005-01-10 23:00;METAR CYQM 102300Z 21006KT 15SM -SN FEW005 OVC016 M00/M01 A2967 RMK SF2SC6 SLP053=
CYQM;2005-01-10 23:07;SPECI CYQM 102307Z 22007KT 15SM FEW005 BKN010 OVC016 RMK SF2SF5SC2 INTMT S-=
CYQM;2005-01-10 23:20;SPECI CYQM 102320Z 23010KT 15SM FEW005 BKN011 OVC018 RMK SF1SC6SC2=
CYQM;2005-01-11 00:00;METAR CYQM 110000Z 23011G16KT 15SM FEW005 BKN011 OVC016 01/M01 A2967 RMK SF1SC6SC2 SLP051=
CYQM;2005-01-11 01:00;METAR CYQM 110100Z 24011KT 15SM FEW008 BKN050 BKN250 00/00 A2967 RMK SF1SC5CI1 SLP050=
CYQM;2005-01-11 03:21;SPECI CYQM 110321Z 25015KT 8SM -SHSN DRSN BKN033 OVC050 RMK SC6SC2=
CYQM;2005-01-11 03:31;SPECI CYQM 110331Z 25021G27KT 15SM -SHSN DRSN FEW007 BKN028 OVC050 RMK SF1SC6SC2=
CYQM;2005-01-11 04:00;METAR CYQM 110400Z 27027G32KT 15SM DRSN FEW008 BKN050 M00/M04 A2967 RMK SF1SC4 SLP051=
CYQM;2005-01-11 05:00;METAR CYQM 110500Z 27017G27KT 15SM DRSN FEW020 FEW050 M01/M06 A2968 RMK CF1SC1 SLP056=
CYQM;2005-01-11 05:54;SPECI CYQM 110554Z 26019G24KT 15SM -SHSN DRSN FEW020 SCT050 RMK SC1SC3=
CYQM;2005-01-11 06:43;SPECI CYQM 110643Z 26020G27KT 15SM DRSN FEW020 RMK CF1 SH NE=
CYQM;2005-01-11 07:04;SPECI CYQM 110704Z 25020G27KT 10SM -SHSN DRSN FEW020 BKN040 RMK CF2SC4=
CYQM;2005-01-11 07:42;SPECI CYQM 110742Z 28022G32KT 15SM DRSN FEW020 BKN050 RMK CU2SC4 SHS E=
CYQM;2005-01-11 08:10;SPECI CYQM 110810Z 28030G38KT 15SM DRSN FEW020 FEW050 RMK CU1SC1=
CYQM;2005-01-11 09:00;METAR CYQM 110900Z 27021G35KT 15SM DRSN FEW050 M06/M13 A2977 RMK SC1 SLP086=
CYQM;2005-01-11 10:00;METAR CYQM 111000Z 27026G35KT 15SM DRSN SKC M08/M15 A2979 RMK SLP093=
CYQM;2005-01-11 12:00;METAR CYQM 111200Z 28016G22KT 15SM DRSN FEW030 M10/M16 A2989 RMK SC2 SLP126=
CYQM;2005-01-11 13:00;METAR CYQM 111300Z 28020G30KT 15SM DRSN FEW020 FEW030 M11/M16 A2992 RMK CF1SC1 SLP137=
CYQM;2005-01-11 14:00;METAR CYQM 111400Z 28019G34KT 15SM DRSN FEW020 M11/M17 A2997 RMK CF1 SLP152=
CYQM;2005-01-11 15:00;METAR CYQM 111500Z 28018G29KT 15SM DRSN FEW020 M11/M16 A3001 RMK CF1 SLP166=
CYQM;2005-01-11 16:00;METAR CYQM 111600Z 28021G27KT 15SM DRSN FEW020 M11/M17 A3000 RMK CF1 SLP164=
CYQM;2005-01-11 18:00;METAR CYQM 111800Z 26024KT 15SM DRSN FEW020 M10/M16 A3003 RMK CF1 SLP175=
CYQM;2005-01-11 21:00;METAR CYQM 112100Z 27020G27KT 15SM DRSN SKC M09/M16 A3013 RMK SLP207=
CYQM;2005-01-11 22:00;METAR CYQM 112200Z 27015G20KT 15SM DRSN SKC M10/M15 A3016 RMK SLP217=
CYQM;2005-01-12 00:00;METAR CYQM 120000Z 28013G19KT 15SM DRSN SKC M11/M15 A3022 RMK SLP240=
CYQM;2005-01-12 01:00;METAR CYQM 120100Z 28014G19KT 15SM DRSN SKC M11/M15 A3026 RMK SLP253=
CYQM;2005-01-12 04:00;METAR CYQM 120400Z 23008KT 15SM SKC M13/M18 A3035 RMK SLP285=
CYQM;2005-01-12 07:00;METAR CYQM 120700Z 24011KT 15SM SKC M15/M20 A3042 RMK SLP307=
CYQM;2005-01-12 11:00;METAR CYQM 121100Z 24009KT 15SM FEW120 M17/M21 A3049 RMK AC1 SLP330=
CYQM;2005-01-12 12:00;METAR CYQM 121200Z 25009KT 15SM FEW120 SCT230 M17/M22 A3052 RMK AC1CI2 SLP342=
CYQM;2005-01-12 13:00;METAR CYQM 121300Z 23010KT 15SM FEW120 BKN230 M17/M21 A3057 RMK AC2CI2 SLP359=
CYQM;2005-01-12 15:00;METAR CYQM 121500Z 27002KT 15SM FEW160 BKN230 M13/M19 A3056 RMK AC1CI2 SLP356=
CYQM;2005-01-12 16:00;METAR CYQM 121600Z 20005KT 15SM FEW160 FEW260 M12/M17 A3055 RMK AC1CI2 SLP353=
CYQM;2005-01-12 17:00;METAR CYQM 121700Z 00000KT 15SM FEW160 FEW260 M09/M16 A3053 RMK AC1CI1 TR AC SLP347=
CYQM;2005-01-12 18:00;METAR CYQM 121800Z 00000KT 15SM FEW100 FEW160 FEW260 M07/M15 A3053 RMK AC1AC1CI1 SLP344=
CYQM;2005-01-12 19:00;METAR CYQM 121900Z 22003KT 15SM FEW100 FEW120 SCT260 M08/M16 A3053 RMK AC1AC1CI1 SLP346=
CYQM;2005-01-12 20:00;METAR CYQM 122000Z 00000KT 15SM BKN100 BKN260 M08/M16 A3053 RMK AC5CI1 SLP346=
CYQM;2005-01-12 21:00;METAR CYQM 122100Z 17002KT 15SM BKN100 M08/M16 A3055 RMK AC7 SLP351=
CYQM;2005-01-12 22:00;METAR CYQM 122200Z 08006KT 15SM OVC075 M08/M13 A3053 RMK AC8 SLP346=
CYQM;2005-01-12 23:00;METAR CYQM 122300Z 07005KT 15SM OVC075 M08/M13 A3052 RMK AC8 SLP342=
CYQM;2005-01-13 00:00;METAR CYQM 130000Z 08006KT 15SM OVC075 M08/M13 A3051 RMK AC8 SLP339=
CYQM;2005-01-13 01:00;METAR CYQM 130100Z 10006KT 15SM OVC070 M08/M12 A3050 RMK AC8 SLP336=
CYQM;2005-01-13 04:00;METAR CYQM 130400Z 11005KT 15SM OVC065 M08/M11 A3048 RMK SC8 SLP327=
CYQM;2005-01-13 04:33;SPECI CYQM 130433Z 09005KT 15SM -SHSN OVC055 RMK SC8=
CYQM;2005-01-13 05:09;SPECI CYQM 130509Z 08005KT 2SM -SHSN VV015 RMK SN8=
CYQM;2005-01-13 05:44;SPECI CYQM 130544Z 07007KT 1 1/4SM -SHSN VV008 RMK SN8=
CYQM;2005-01-13 06:00;METAR CYQM 130600Z 08007KT 1 1/4SM -SHSN VV008 M08/M10 A3043 RMK SN8 /S01/ SLP310=
CYQM;2005-01-13 06:47;SPECI CYQM 130647Z 09007KT 2SM -SHSN VV012 RMK SN8=
CYQM;2005-01-13 07:00;METAR CYQM 130700Z 07007KT 2 1/2SM -SHSN VV015 M07/M10 A3042 RMK SN8 SLP306=
CYQM;2005-01-13 07:09;SPECI CYQM 130709Z 08008KT 3SM -SN OVC015 RMK SN4SC4=
CYQM;2005-01-13 07:35;SPECI CYQM 130735Z 09007KT 2 1/2SM -SN OVC015 RMK SN4SC4=
CYQM;2005-01-13 07:39;SPECI CYQM 130739Z 09009KT 1 1/4SM -SN VV007 RMK SN8=
CYQM;2005-01-13 08:03;SPECI CYQM 130803Z 09010KT 2SM -SN OVC020 RMK SN5SC3=
CYQM;2005-01-13 08:06;SPECI CYQM 130806Z 10010KT 4SM -SN OVC020 RMK SN2SC6=
CYQM;2005-01-13 10:00;METAR CYQM 131000Z 09008KT 10SM -SN FEW006 OVC035 M06/M07 A3033 RMK SF2SC6 SLP277=
CYQM;2005-01-13 10:10;SPECI CYQM 131010Z 10009KT 5SM -SN SCT005 BKN009 OVC035 RMK SF3SF3SC2=
CYQM;2005-01-13 10:54;SPECI CYQM 131054Z 10008KT 4SM -SN -FZDZ SCT004 OVC006 RMK SF3SF5=
CYQM;2005-01-13 11:00;METAR CYQM 131100Z 10008KT 4SM -SN -FZDZ SCT004 OVC006 M05/M06 A3032 RMK SF3SF5 SLP274=
CYQM;2005-01-13 11:10;SPECI CYQM 131110Z 10008KT 4SM -SN -FZDZ BKN003 OVC006 RMK SF5SF3=
CYQM;2005-01-13 11:54;SPECI CYQM 131154Z 12006KT 3SM -FZDZ BR OVC003 RMK SF8=
CYQM;2005-01-13 12:00;METAR CYQM 131200Z 12006KT 3SM -FZDZ BR OVC003 M05/M06 A3031 RMK SF8 SLP271=
CYQM;2005-01-13 12:09;SPECI CYQM 131209Z 13006KT 2SM -FZDZ BR OVC003 RMK SF8=
CYQM;2005-01-13 14:31;SPECI CYQM 131431Z 13009KT 12SM OVC004 REFZDZ RMK SF8=
CYQM;2005-01-13 15:00;METAR CYQM 131500Z 15006KT 12SM OVC004 M03/M04 A3026 REFZDZ RMK SF8 SLP253=
CYQM;2005-01-13 15:42;SPECI CYQM 131542Z 16012KT 15SM OVC005 RMK SF8=
CYQM;2005-01-13 16:00;METAR CYQM 131600Z 16015G20KT 15SM OVC005 M01/M01 A3021 RMK SF8 CIG RAG PRESFR SLP236=
CYQM;2005-01-13 18:00;METAR CYQM 131800Z 18012G18KT 15SM OVC006 01/M00 A3017 RMK SF8 SLP220=
CYQM;2005-01-13 19:00;METAR CYQM 131900Z 17009KT 15SM OVC008 01/01 A3014 RMK SF8 SLP213=
CYQM;2005-01-13 20:00;METAR CYQM 132000Z 17016KT 15SM FEW006 OVC008 02/01 A3011 RMK SF2SF6 SLP202=
CYQM;2005-01-13 20:32;SPECI CYQM 132032Z 16015KT 15SM BKN003 OVC008 RMK SF5SF3=
CYQM;2005-01-13 21:00;METAR CYQM 132100Z 18011KT 15SM BKN003 OVC008 02/01 A3011 RMK SF5SF3 SLP200=
CYQM;2005-01-13 21:35;SPECI CYQM 132135Z 17009KT 15SM FEW003 OVC011 RMK SF2SC6=
CYQM;2005-01-13 22:00;METAR CYQM 132200Z 17011KT 15SM FEW003 OVC010 02/01 A3009 RMK SF2SC6 SLP193=
CYQM;2005-01-13 23:28;SPECI CYQM 132328Z 18006KT 15SM FEW003 OVC009 RMK SF2SF6=
CYQM;2005-01-14 00:00;METAR CYQM 140000Z 17005KT 15SM FEW003 OVC008 03/03 A3004 RMK SF2SF6 SLP176=
CYQM;2005-01-14 01:00;METAR CYQM 140100Z 18007KT 15SM FEW003 OVC009 03/03 A3002 RMK SF2SF6 SLP171=
CYQM;2005-01-14 02:00;METAR CYQM 140200Z 20010KT 15SM FEW003 OVC009 05/04 A3000 RMK SF2SF6 SLP163=
CYQM;2005-01-14 02:42;SPECI CYQM 140242Z 21012G19KT 8SM OVC004 RMK SF8=
CYQM;2005-01-14 03:30;SPECI CYQM 140330Z 20014G19KT 10SM OVC006 RMK SF8=
CYQM;2005-01-14 04:00;METAR CYQM 140400Z 19010G16KT 15SM OVC007 08/07 A2995 RMK SF8 SLP145=
CYQM;2005-01-14 05:00;METAR CYQM 140500Z 20019G26KT 15SM BKN007 OVC015 10/10 A2992 RMK SF6SC2 SLP137=
CYQM;2005-01-14 05:19;SPECI CYQM 140519Z 21017G29KT 15SM BKN010 OVC015 RMK SC6SC2=
CYQM;2005-01-14 06:00;METAR CYQM 140600Z 20022G29KT 15SM FEW008 OVC014 11/10 A2992 RMK SF2SC6 SLP136=
CYQM;2005-01-14 08:00;METAR CYQM 140800Z 20019G26KT 15SM OVC014 11/11 A2988 RMK SC8 SLP121=
CYQM;2005-01-14 08:30;SPECI CYQM 140830Z 20020G29KT 15SM OVC016 RMK SC8=
CYQM;2005-01-14 12:00;METAR CYQM 141200Z 20017G27KT 15SM OVC017 13/11 A2981 RMK SC8 SLP098=
CYQM;2005-01-14 13:00;METAR CYQM 141300Z 19021G34KT 15SM OVC017 13/11 A2980 RMK SC8 SLP093=
CYQM;2005-01-14 13:41;SPECI CYQM 141341Z 20029G36KT 15SM BKN016 RMK SC7=
CYQM;2005-01-14 14:00;METAR CYQM 141400Z 20030G36KT 15SM BKN016 15/12 A2978 RMK SC7 SLP085=
CYQM;2005-01-14 15:00;METAR CYQM 141500Z 20032G42KT 15SM OVC016 15/12 A2975 RMK SC8 SLP075=
CYQM;2005-01-14 16:00;METAR CYQM 141600Z 20034G49KT 15SM BKN015 15/12 A2972 RMK SC7 SLP065=
CYQM;2005-01-14 17:00;METAR CYQM 141700Z 20035G43KT 15SM OVC015 15/12 A2969 RMK SC8 SHS W-NW SLP055=
CYQM;2005-01-14 17:44;SPECI CYQM 141744Z 21030G44KT 10SM -SHRA OVC013 RMK SC8 VIS SW-N 5=
CYQM;2005-01-14 18:00;METAR CYQM 141800Z 21024G41KT 8SM -SHRA BKN013 OVC030 14/12 A2968 RMK SC7SC1 SLP051=
CYQM;2005-01-14 18:05;SPECI CYQM 141805Z 22029G41KT 2SM R29/P6000FT/N R06/4500VP6000FT/D -SHRA BR OVC012 RMK SC8=
CYQM;2005-01-14 18:14;SPECI CYQM 141814Z 22022G36KT 3SM -SHRA BR OVC012 RMK SC8=
CYQM;2005-01-14 19:42;SPECI CYQM 141942Z 27012G17KT 2SM -SHRA BR BKN008 OVC012 RMK SF6SC2=
CYQM;2005-01-14 19:55;SPECI CYQM 141955Z 27011KT 3SM -DZ BR BKN007 OVC012 RMK SF6SF2=
CYQM;2005-01-14 20:00;METAR CYQM 142000Z 26011KT 3SM -DZ BR BKN007 OVC012 10/09 A2979 RMK SF6SF2 PRESRR SLP090=
CYQM;2005-01-14 20:06;SPECI CYQM 142006Z 26013KT 2SM -DZ BR BKN007 OVC012 RMK SF6SF2=
CYQM;2005-01-14 20:26;SPECI CYQM 142026Z 29010G16KT 10SM -DZ SCT007 OVC012 RMK SF3SC5=
CYQM;2005-01-14 20:44;SPECI CYQM 142044Z 29007KT 10SM -DZ BKN007 OVC012 RMK SF5SC3=
CYQM;2005-01-14 21:00;METAR CYQM 142100Z 28010G16KT 8SM -SHRA BKN007 OVC012 08/07 A2985 RMK SF7SC1 PRESRR SLP111=
CYQM;2005-01-14 23:28;SPECI CYQM 142328Z 27011KT 10SM -RASN SCT006 OVC020 RMK SF4SC4=
CYQM;2005-01-15 00:00;METAR CYQM 150000Z 25011KT 12SM -RASN SCT006 OVC020 01/01 A3000 RMK SF3SC5 SLP161=
CYQM;2005-01-15 00:38;SPECI CYQM 150038Z 23010KT 15SM SCT006 OVC025 RMK SF3SC5=
CYQM;2005-01-15 04:00;METAR CYQM 150400Z 25010KT 15SM FEW010 SCT025 OVC100 01/00 A3009 RMK SF2SC2AC4 SLP192=
CYQM;2005-01-15 05:00;METAR CYQM 150500Z 29015G21KT 2SM -SHSN BKN015 OVC100 01/M00 A3013 RMK SC5AC3 SLP206=
CYQM;2005-01-15 05:04;SPECI CYQM 150504Z 28017G26KT 12SM -SHSN BKN015 OVC100 RMK SC5AC3=
CYQM;2005-01-15 05:24;SPECI CYQM 150524Z 29015G25KT 15SM FEW015 BKN030 OVC100 RMK SC2SC4AC2=
CYQM;2005-01-15 07:00;METAR CYQM 150700Z 28018G28KT 15SM FEW030 BKN100 OVC220 M03/M08 A3027 RMK SC2AC5CI2 PRESRR SLP253=
CYQM;2005-01-15 09:48;SPECI CYQM 150948Z 29015KT 8SM -SHSN DRSN OVC025 RMK SC8=
CYQM;2005-01-15 10:19;SPECI CYQM 151019Z 31015KT 15SM FEW025 BKN120 OVC220 RMK SC2AC4CI2=
CYQM;2005-01-15 11:00;METAR CYQM 151100Z 31012KT 15SM FEW025 SCT120 OVC220 M07/M10 A3047 RMK SC2AC2CI3 PRESRR SLP321=
CYQM;2005-01-15 12:00;METAR CYQM 151200Z 31012KT 15SM FEW025 BKN130 OVC220 M08/M12 A3051 RMK SC1AS6CI1 SLP336=
CYQM;2005-01-15 13:00;METAR CYQM 151300Z 30013KT 15SM FEW025 BKN130 OVC220 M09/M14 A3055 RMK SC1AS6CI2 SLP352=
CYQM;2005-01-15 14:00;METAR CYQM 151400Z 29011KT 15SM FEW025 BKN130 BKN220 M09/M14 A3058 RMK CU1AS6CI1 SLP361=
CYQM;2005-01-15 16:00;METAR CYQM 151600Z 29013KT 15SM FEW030 SCT130 BKN220 M08/M15 A3060 RMK SC1AS2CS3 VIRGA NW SLP367=
CYQM;2005-01-15 17:00;METAR CYQM 151700Z 29010KT 15SM FEW030 FEW130 BKN250 M08/M16 A3060 RMK CU1AC1CI2 SLP366=
CYQM;2005-01-15 18:00;METAR CYQM 151800Z 28011KT 15SM FEW035 BKN250 M08/M19 A3060 RMK CU1CI2 SLP366=
CYQM;2005-01-15 19:00;METAR CYQM 151900Z 26008G15KT 15SM FEW035 FEW120 BKN250 M07/M15 A3061 RMK CU1AC1CI2 SLP371=
CYQM;2005-01-15 20:00;METAR CYQM 152000Z 27010KT 15SM FEW040 FEW160 BKN250 M08/M16 A3063 RMK SC1AS2CI2 SLP378=
CYQM;2005-01-15 22:00;METAR CYQM 152200Z 28008KT 15SM FEW150 BKN250 M09/M16 A3065 RMK AC1CI6 SLP384=
CYQM;2005-01-15 23:00;METAR CYQM 152300Z 27007KT 15SM BKN250 M09/M17 A3068 RMK CI4 SLP394=
CYQM;2005-01-16 00:00;METAR CYQM 160000Z 26006KT 15SM BKN250 M10/M17 A3070 RMK CI4 SLP401=
CYQM;2005-01-16 04:00;METAR CYQM 160400Z 20004KT 15SM SKC M12/M15 A3071 RMK SLP407=
CYQM;2005-01-16 05:00;METAR CYQM 160500Z 18003KT 15SM SKC M12/M15 A3070 RMK SLP404=
CYQM;2005-01-16 06:00;METAR CYQM 160600Z 18004KT 15SM SKC M12/M16 A3071 RMK SLP405=
CYQM;2005-01-16 07:00;METAR CYQM 160700Z 18004KT 15SM SKC M12/M15 A3070 RMK SLP404=
CYQM;2005-01-16 11:00;METAR CYQM 161100Z 16004KT 15SM FEW040 M11/M17 A3070 RMK SC2 SLP404=
CYQM;2005-01-16 12:00;METAR CYQM 161200Z 24004KT 15SM FEW120 BKN220 M10/M17 A3072 RMK AC2CI3 SLP408=
CYQM;2005-01-16 13:00;METAR CYQM 161300Z 23003KT 15SM FEW120 BKN220 M10/M16 A3071 RMK AC2CI3 SLP406=
CYQM;2005-01-16 14:00;METAR CYQM 161400Z 23002KT 15SM FEW120 BKN220 M08/M14 A3070 RMK AC2CI3 SLP402=
CYQM;2005-01-16 16:00;METAR CYQM 161600Z 23005KT 15SM FEW120 OVC200 M04/M10 A3068 RMK AC2CI5 SLP394=
CYQM;2005-01-16 17:00;METAR CYQM 161700Z 22003KT 15SM FEW030 SCT120 OVC200 M05/M10 A3067 RMK SC1AC2CI5 SLP393=
CYQM;2005-01-16 18:00;METAR CYQM 161800Z 00000KT 15SM FEW030 SCT120 OVC200 M05/M09 A3061 RMK SC1AC2CI5 PRESFR SLP372=
CYQM;2005-01-16 19:00;METAR CYQM 161900Z 26002KT 15SM FEW030 SCT120 OVC200 M05/M10 A3061 RMK SC1AC2CI5 SLP370=
CYQM;2005-01-16 20:00;METAR CYQM 162000Z 00000KT 15SM FEW030 BKN140 OVC200 M06/M10 A3062 RMK SC1AC4CI3 SLP374=
CYQM;2005-01-16 21:00;METAR CYQM 162100Z 04002KT 15SM FEW030 BKN100 OVC200 M06/M10 A3059 RMK SC1AC4CI3 SLP366=
CYQM;2005-01-16 22:00;METAR CYQM 162200Z 05006KT 15SM FEW030 BKN100 OVC200 M06/M10 A3058 RMK SC1AC5CI2 SLP360=
CYQM;2005-01-17 00:00;METAR CYQM 170000Z 06006KT 15SM BKN030 OVC100 M07/M11 A3055 RMK SC5AC3 SLP351=
CYQM;2005-01-17 01:00;METAR CYQM 170100Z 04008KT 15SM BKN030 OVC100 M07/M11 A3052 RMK SC5AC3 SLP341=
CYQM;2005-01-17 03:00;METAR CYQM 170300Z 04010G18KT 15SM BKN030 OVC090 M07/M11 A3045 RMK SC5AC3 SLP317=
CYQM;2005-01-17 04:00;METAR CYQM 170400Z 04009G18KT 15SM BKN030 OVC090 M07/M11 A3040 RMK SC5AC3 SLP301=
CYQM;2005-01-17 04:28;SPECI CYQM 170428Z 05014G19KT 15SM -SHSN BKN030 OVC090 RMK SC5AC3=
CYQM;2005-01-17 05:00;METAR CYQM 170500Z 03016G25KT 2SM -SN DRSN BKN015 OVC030 M07/M10 A3036 RMK SC6SC2 SLP285=
CYQM;2005-01-17 05:10;SPECI CYQM 170510Z 03016KT 1SM R06/2400VP6000FT/D R29/P6000FT/U -SN=
CYQM;2005-01-17 05:25;SPECI CYQM 170525Z 04020G25KT 5/8SM R06/1600V2200FT/N R29/1800VP6000FT/D -SN DRSN VV006 RMK SN8=
CYQM;2005-01-17 09:00;METAR CYQM 170900Z 03020G30KT 1/2SM R06/1600FT/N R29/1800FT/N SN DRSN VV005 M07/M08 A3010 RMK SN8 /S05/ PRESFR SLP198=
CYQM;2005-01-17 09:48;SPECI CYQM 170948Z 03020G27KT 3/8SM R06/1400FT/N R29/1800V4000FT/U -SN BLSN VV005 RESN RMK SN8=
CYQM;2005-01-17 10:00;METAR CYQM 171000Z 03029G34KT 3/8SM R06/1100FT/N R29/1200V3500FT/D -SN BLSN VV005 M07/M08 A3004 RESN RMK SN8 /S07/ PRESFR SLP177=
CYQM;2005-01-17 11:51;SPECI CYQM 171151Z 03025G36KT 5/8SM R06/2400FT/N R29/3200FT/N -SN BLSN VV005 RMK SN8=
CYQM;2005-01-17 12:00;METAR CYQM 171200Z 01028G38KT 5/8SM R06/2400FT/N R29/3200FT/N -SN BLSN VV005 M08/M08 A2991 RMK SN8 /S12/ PRESFR SLP134=
CYQM;2005-01-17 14:00;METAR CYQM 171400Z 01027G41KT 1/2SM R06/2000FT/N R29/2800V4000FT/N -SN BLSN VV005 M07/M09 A2981 RMK SN8 /S06/ PRESFR SLP099=
CYQM;2005-01-17 14:42;SPECI CYQM 171442Z 01030G44KT 3/8SM R06/1800V2600FT/N R29/2800V4000FT/N -SN BLSN VV005 RMK SN8=
CYQM;2005-01-17 16:00;METAR CYQM 171600Z 01033G40KT 1/2SM R06/2600FT/N R29/4000V5500FT/N -SN BLSN VV005 M07/M08 A2969 RMK SN8 /S10/ SLP058=
CYQM;2005-01-17 17:00;METAR CYQM 171700Z 36029G39KT 1/2SM R29/2600FT/N -SN BLSN VV005 M07/M08 A2965 RMK SN8 /S11/ SLP047=
CYQM;2005-01-17 18:00;METAR CYQM 171800Z 36030G38KT 1/2SM R29/3500V6000FT/U -SN BLSN VV005 M07/M08 A2964 RMK SN8 SLP041=
CYQM;2005-01-17 19:00;METAR CYQM 171900Z 36026G34KT 1/2SM -SN BLSN VV005 M08/M09 A2966 RMK SN8 RVR MISG /S01/ SLP048=
CYQM;2005-01-17 19:42;SPECI CYQM 171942Z 32024G31KT 5/8SM -SN BLSN OVC025 RMK BLSN6SC2 RVR MISG=
CYQM;2005-01-17 20:00;METAR CYQM 172000Z 32024G32KT 5/8SM -SN BLSN OVC025 M09/M10 A2968 RMK BLSN6SC2 RVR MISG SLP057=
CYQM;2005-01-17 20:13;SPECI CYQM 172013Z 32021G34KT 3/4SM -SN BLSN OVC025 RMK BLSN6SC2 RVR MISG=
CYQM;2005-01-17 20:44;SPECI CYQM 172044Z 31019G30KT 1SM R29/P6000FT -SN BLSN OVC020 RMK BLSN2SC6=
CYQM;2005-01-17 21:00;METAR CYQM 172100Z 32023G28KT 1 1/2SM -SN BLSN FEW012 OVC030 M11/M13 A2971 RMK SF2SC6 SLP066=
CYQM;2005-01-17 21:24;SPECI CYQM 172124Z 31015G26KT 6SM -SN BLSN FEW012 BKN030 OVC220 RMK SF2SC4CI1=
CYQM;2005-01-17 23:00;METAR CYQM 172300Z 31015KT 7SM -SHSN DRSN BKN050 M13/M16 A2974 RMK SC6 SLP077=
CYQM;2005-01-18 00:00;METAR CYQM 180000Z 28010KT 15SM -SHSN DRSN BKN050 BKN220 M13/M16 A2977 RMK SC5CI1 SLP086=
CYQM;2005-01-18 04:00;METAR CYQM 180400Z 27009KT 15SM -SHSN FEW020 BKN100 M15/M18 A2981 RMK SC1AC2 SLP099=
CYQM;2005-01-18 06:00;METAR CYQM 180600Z 23012KT 15SM -SHSN FEW050 BKN220 M17/M19 A2983 RMK SC1CI2 SLP107=
CYQM;2005-01-18 06:20;SPECI CYQM 180620Z 23014KT 15SM FEW050 BKN220 RMK SC1CI4=
CYQM;2005-01-18 06:55;SPECI CYQM 180655Z 24010KT 15SM -SHSN FEW050 BKN220 RMK SC2CI3=
CYQM;2005-01-18 07:00;METAR CYQM 180700Z 24010KT 15SM -SHSN FEW050 BKN220 M17/M20 A2984 RMK SC2CI3 SLP112=
CYQM;2005-01-18 08:00;METAR CYQM 180800Z 24012KT 15SM -SHSN FEW050 FEW100 BKN220 M17/M20 A2985 RMK SC2AC1CI2 SLP115=
CYQM;2005-01-18 11:39;SPECI CYQM 181139Z 25013KT 12SM -SHSN FEW008 SCT030 OVC050 RMK SF2SC2SC4=
CYQM;2005-01-18 12:00;METAR CYQM 181200Z 25013KT 10SM -SHSN FEW008 SCT030 OVC050 M16/M19 A2995 RMK SF2SC2SC4 SLP149=
CYQM;2005-01-18 13:00;METAR CYQM 181300Z 26010KT 15SM FEW100 BKN250 M16/M19 A2998 RMK AC1CI2 SLP159=
CYQM;2005-01-18 14:49;SPECI CYQM 181449Z 27012KT 8SM -SHSN SCT030 BKN250 RMK CU3CI4=
CYQM;2005-01-18 15:00;METAR CYQM 181500Z 29014KT 8SM -SHSN SCT030 BKN250 M15/M18 A3003 RMK CU3CI4 SLP176=
CYQM;2005-01-18 16:00;METAR CYQM 181600Z 29013KT 8SM -SHSN SCT030 OVC250 M14/M17 A3004 RMK CU4CI4 SLP179=
CYQM;2005-01-18 17:00;METAR CYQM 181700Z 28011G17KT 10SM -SHSN BKN030 OVC250 M14/M18 A3004 RMK CU5CI3 SLP180=
CYQM;2005-01-18 18:00;METAR CYQM 181800Z 29012G17KT 10SM -SHSN BKN030 OVC250 M14/M18 A3006 RMK CU5CI3 SLP185=
CYQM;2005-01-18 19:00;METAR CYQM 181900Z 28011KT 10SM -SHSN BKN025 OVC250 M14/M18 A3008 RMK CU6CI2 SLP195=
CYQM;2005-01-18 21:00;METAR CYQM 182100Z 30005KT 7SM -SHSN BKN025 M15/M20 A3014 RMK CU5 SLP212=
CYQM;2005-01-18 22:00;METAR CYQM 182200Z 30003KT 10SM -SHSN BKN031 M16/M18 A3017 RMK SC6 SLP223=
CYQM;2005-01-18 23:00;METAR CYQM 182300Z 31003KT 15SM -SHSN BKN035 M16/M18 A3020 RMK SC6 SLP234=
CYQM;2005-01-18 23:33;SPECI CYQM 182333Z 31006KT 15SM BKN035 RMK SC7=
CYQM;2005-01-19 00:00;METAR CYQM 190000Z 32006KT 15SM BKN035 M17/M20 A3023 RMK SC5 SLP246=
CYQM;2005-01-19 01:00;METAR CYQM 190100Z 31008KT 15SM FEW035 M18/M21 A3026 RMK SC1 SLP255=
CYQM;2005-01-19 02:00;METAR CYQM 190200Z 30005KT 15SM SKC M19/M21 A3028 RMK SLP261=
CYQM;2005-01-19 04:00;METAR CYQM 190400Z 25009KT 15SM SKC M21/M23 A3031 RMK SLP272=
CYQM;2005-01-19 05:00;METAR CYQM 190500Z 23008KT 15SM SKC M22/M24 A3031 RMK SLP273=
CYQM;2005-01-19 06:00;METAR CYQM 190600Z 24009KT 15SM SKC M22/M25 A3033 RMK SLP277=
CYQM;2005-01-19 10:00;METAR CYQM 191000Z 25010KT 15SM SKC M24/M27 A3037 RMK FROIN SLP292=
CYQM;2005-01-19 11:00;METAR CYQM 191100Z 24011KT 15SM SKC M24/M27 A3037 RMK FROIN SLP292=
CYQM;2005-01-19 12:00;METAR CYQM 191200Z 24008KT 15SM SKC M25/M27 A3038 RMK FROIN SLP297=
CYQM;2005-01-19 13:00;METAR CYQM 191300Z 23008KT 15SM FEW120 M24/M27 A3039 RMK AC1 FROIN SLP300=
CYQM;2005-01-19 14:00;METAR CYQM 191400Z 24008KT 15SM FEW220 M22/M25 A3039 RMK CI1 FROIN SLP300=
CYQM;2005-01-19 15:00;METAR CYQM 191500Z 21006KT 15SM FEW220 M21/M24 A3038 RMK CI1 SLP295=
CYQM;2005-01-19 16:00;METAR CYQM 191600Z 25005KT 15SM FEW220 M19/M23 A3034 RMK CI1 SLP284=
CYQM;2005-01-19 18:00;METAR CYQM 191800Z 00000KT 15SM FEW220 M15/M22 A3027 RMK CI1 SLP259=
CYQM;2005-01-19 19:00;METAR CYQM 191900Z 13007KT 15SM FEW220 M13/M19 A3025 RMK CI1 SLP252=
CYQM;2005-01-19 22:00;METAR CYQM 192200Z 19005KT 15SM FEW150 BKN220 M13/M15 A3021 RMK AC2CI2 SLP238=
CYQM;2005-01-20 00:00;METAR CYQM 200000Z 19003KT 15SM FEW035 FEW150 OVC240 M14/M18 A3020 RMK SC1AC2CS2 HALO SLP236=
CYQM;2005-01-20 04:00;METAR CYQM 200400Z 15005KT 15SM FEW040 BKN075 OVC220 M11/M13 A3010 RMK SC1AS5CS2 SLP200=
CYQM;2005-01-20 05:00;METAR CYQM 200500Z 17006KT 15SM FEW040 OVC080 M10/M13 A3007 RMK SC1AS7 SLP189=
CYQM;2005-01-20 06:00;METAR CYQM 200600Z 17013G18KT 15SM OVC070 M09/M12 A3003 RMK AS8 SLP176=
CYQM;2005-01-20 07:00;METAR CYQM 200700Z 16011KT 15SM BKN036 OVC070 M09/M12 A3001 RMK SC6AS2 SLP169=
CYQM;2005-01-20 07:17;SPECI CYQM 200717Z 16012KT 15SM -SN SCT035 OVC050 RMK SC3SC5=
CYQM;2005-01-20 08:20;SPECI CYQM 200820Z 12010KT 15SM FEW010 OVC035 RMK SF2SC6=
CYQM;2005-01-20 09:00;METAR CYQM 200900Z 11012KT 15SM FEW010 SCT035 OVC050 M09/M11 A2992 RMK SF2SC2SC5 SLP136=
CYQM;2005-01-20 10:00;METAR CYQM 201000Z 12007KT 15SM SCT030 BKN050 OVC100 M10/M11 A2989 RMK SC3SC2AC2 SLP129=
CYQM;2005-01-20 12:00;METAR CYQM 201200Z 10011KT 15SM FEW020 BKN050 OVC260 M10/M12 A2981 RMK SC1SC6CI1 SLP102=
CYQM;2005-01-20 13:00;METAR CYQM 201300Z 10009KT 15SM FEW015 FEW050 BKN100 BKN260 M09/M11 A2979 RMK SC1SC2AC3CI1 SLP093=
CYQM;2005-01-20 14:55;SPECI CYQM 201455Z 11013KT 2SM -SHSN BKN020 OVC100 RMK SC7AC1 VIS N QUAD 15=
CYQM;2005-01-20 15:00;METAR CYQM 201500Z 10015KT 2SM -SHSN DRSN BKN020 OVC100 M06/M08 A2969 RMK SC7AC1 SLP058=
CYQM;2005-01-20 15:12;SPECI CYQM 201512Z 11014KT 1 1/4SM -SN DRSN OVC020 RMK SC8=
CYQM;2005-01-20 15:33;SPECI CYQM 201533Z 10011G18KT 1SM R29/P6000FT/D R06/P6000FT/D -SN DRSN VV010 RMK SN8=
CYQM;2005-01-20 16:04;SPECI CYQM 201604Z 10014KT 1/2SM R29/3000V5000FT/D R06/4000FT/N SN=
CYQM;2005-01-20 17:45;SPECI CYQM 201745Z 06015G22KT 3/4SM R29/P6000FT/U R06/4000VP6000FT/U -SN DRSN VV008 RESN RMK SN8=
CYQM;2005-01-20 18:00;METAR CYQM 201800Z 06015G20KT 5/8SM R29/5000FT/N R06/4500FT/N -SN DRSN VV006 M05/M06 A2940 RESN RMK SN8 /S03/ PRESFR SLP961=
CYQM;2005-01-20 20:30;SPECI CYQM 202030Z 07015G28KT 1SM R29/P6000FT/U R06/P6000FT/U -SN DRSN VV010 RMK SN8=
CYQM;2005-01-20 21:18;SPECI CYQM 202118Z 07008KT 3/4SM R29/P6000FT/D R06/P6000FT/D -SN DRSN VV008 RMK SN8=
CYQM;2005-01-20 21:38;SPECI CYQM 202138Z 03013KT 1SM R29/P6000FT/N R06/P6000FT/D -SN DRSN VV008 RMK SN8=
CYQM;2005-01-20 21:51;SPECI CYQM 202151Z 03007KT 3/4SM R29/P6000FT/U R06/5500FT/D -SN DRSN VV008 RMK SN8=
CYQM;2005-01-20 22:00;METAR CYQM 202200Z 02006KT 3/4SM R29/P6000FT/D R06/5500FT/D -SN DRSN VV008 M04/M04 A2914 RMK SN8 /S06/ SLP872=
CYQM;2005-01-20 22:41;SPECI CYQM 202241Z 29005KT 1 1/4SM -SN VV010 RMK SN8=
CYQM;2005-01-20 22:53;SPECI CYQM 202253Z 29006KT 2SM -SN FEW004 VV008 RMK SF2SN6=
CYQM;2005-01-20 23:35;SPECI CYQM 202335Z 24012KT 5SM -SN FEW004 OVC008 RMK SF2SF6=
CYQM;2005-01-21 00:00;METAR CYQM 210000Z 27018KT 4SM -SN DRSN FEW004 OVC008 M04/M05 A2914 RMK SF2SF6 SLP873=
CYQM;2005-01-21 00:11;SPECI CYQM 210011Z 27020G25KT 2SM -SN BLSN FEW004 OVC008 RMK SF2SF6=
CYQM;2005-01-21 00:52;SPECI CYQM 210052Z 27023G29KT 1 1/4SM -SN BLSN FEW004 OVC008 RMK SF2SF6=
CYQM;2005-01-21 01:00;METAR CYQM 210100Z 27022G32KT 1 1/4SM -SN BLSN FEW004 OVC008 M05/M06 A2923 RMK SF2SF6 PRESRR SLP902=
CYQM;2005-01-21 01:22;SPECI CYQM 210122Z 26028KT 3/4SM -SN BLSN VV006 RMK SN8=
CYQM;2005-01-21 02:25;SPECI CYQM 210225Z 27024G33KT 1 1/2SM -SN BLSN FEW004 OVC011 RMK SF2SC6=
CYQM;2005-01-21 02:43;SPECI CYQM 210243Z 26023G32KT 7SM -SN FEW004 BKN011 REBLSN RMK SF2SC4=
CYQM;2005-01-21 04:00;METAR CYQM 210400Z 25023G31KT 10SM -SN DRSN SCT015 M09/M12 A2945 RMK SC4 PRESRR SLP978=
CYQM;2005-01-21 04:33;SPECI CYQM 210433Z 26021G28KT 12SM DRSN FEW030 RMK SC2=
CYQM;2005-01-21 05:00;METAR CYQM 210500Z 26023KT 12SM DRSN SCT020 M10/M12 A2948 RMK SC4 SLP987=
CYQM;2005-01-21 05:33;SPECI CYQM 210533Z 25022G30KT 10SM -SHSN DRSN SCT020 RMK SC4=
CYQM;2005-01-21 08:00;METAR CYQM 210800Z 26016G22KT 15SM DRSN FEW030 M13/M16 A2959 RMK SC2 SLP026=
CYQM;2005-01-21 08:42;SPECI CYQM 210842Z 24019G28KT 15SM -SHSN DRSN FEW030 RMK SC2=
CYQM;2005-01-21 09:00;METAR CYQM 210900Z 24019G28KT 15SM -SHSN DRSN FEW030 M14/M17 A2961 RMK SC2 SLP033=
CYQM;2005-01-21 10:33;SPECI CYQM 211033Z 28018G27KT 15SM -SHSN DRSN BKN030 RMK SC5=
CYQM;2005-01-21 12:00;METAR CYQM 211200Z 25021KT 15SM DRSN BKN030 M19/M22 A2968 RMK SC6 SLP056=
CYQM;2005-01-21 13:00;METAR CYQM 211300Z 25020G25KT 15SM DRSN SCT030 M21/M24 A2970 RMK SC3 SLP064=
CYQM;2005-01-21 14:00;METAR CYQM 211400Z 25019KT 15SM DRSN FEW030 M21/M25 A2972 RMK SC2 SLP070=
CYQM;2005-01-21 15:00;METAR CYQM 211500Z 25019KT 15SM DRSN FEW030 M20/M25 A2973 RMK SC1 SLP073=
CYQM;2005-01-21 16:00;METAR CYQM 211600Z 25016KT 15SM DRSN FEW030 FEW260 M19/M25 A2972 RMK SC1CI1 SLP071=
CYQM;2005-01-21 17:00;METAR CYQM 211700Z 25014G19KT 15SM DRSN FEW030 M19/M24 A2971 RMK SC1 SLP068=
CYQM;2005-01-21 19:00;METAR CYQM 211900Z 26014KT 12SM DRSN VCSH BKN030 BKN260 M18/M22 A2974 RMK SC5CI1 SLP079=
CYQM;2005-01-21 20:00;METAR CYQM 212000Z 26013KT 15SM DRSN VCSH FEW030 SCT260 M18/M22 A2976 RMK SC2CI1 PARHELIA SLP086=
CYQM;2005-01-21 21:00;METAR CYQM 212100Z 27013G18KT 15SM DRSN FEW030 M19/M23 A2980 RMK SC2 SLP098=
CYQM;2005-01-21 22:00;METAR CYQM 212200Z 27011KT 15SM DRSN FEW030 M19/M25 A2983 RMK SC2 SLP109=
CYQM;2005-01-22 00:00;METAR CYQM 220000Z 27012KT 15SM DRSN BKN040 M21/M26 A2988 RMK SC6 SLP125=
CYQM;2005-01-22 01:53;SPECI CYQM 220153Z 27013KT 15SM OVC040 RMK SC8=
CYQM;2005-01-22 04:00;METAR CYQM 220400Z 25013KT 12SM -SHSN DRSN FEW040 M21/M25 A2995 RMK SC2 SLP151=
CYQM;2005-01-22 04:19;SPECI CYQM 220419Z 25012KT 12SM DRSN FEW040 RMK SC2=
CYQM;2005-01-22 05:00;METAR CYQM 220500Z 25011KT 15SM DRSN FEW040 M22/M26 A2997 RMK SC2 SLP158=
CYQM;2005-01-22 06:00;METAR CYQM 220600Z 25009KT 15SM FEW040 M22/M25 A3000 RMK SC2 SLP169=
CYQM;2005-01-22 08:00;METAR CYQM 220800Z 26010KT 15SM FEW040 M23/M25 A3005 RMK SC2 SLP183=
CYQM;2005-01-22 11:00;METAR CYQM 221100Z 23010KT 15SM SKC M26/M27 A3013 RMK SLP211=
CYQM;2005-01-22 12:00;METAR CYQM 221200Z 24011KT 15SM SKC M26/M27 A3014 RMK SLP216=
CYQM;2005-01-22 13:00;METAR CYQM 221300Z 25010KT 15SM SKC M26/M26 A3014 RMK SLP217=
CYQM;2005-01-22 14:00;METAR CYQM 221400Z 26011KT 15SM SKC M24/M26 A3016 RMK SLP222=
CYQM;2005-01-22 15:00;METAR CYQM 221500Z 28007KT 15SM SKC M22/M26 A3016 RMK SLP221=
CYQM;2005-01-22 16:00;METAR CYQM 221600Z 29008KT 15SM FEW020 M20/M25 A3015 RMK SC1 SLP217=
CYQM;2005-01-22 17:00;METAR CYQM 221700Z 28007KT 15SM FEW020 M18/M23 A3015 RMK SC1 SLP218=
CYQM;2005-01-22 21:00;METAR CYQM 222100Z 29005KT 15SM BKN120 BKN250 M16/M21 A3016 RMK AS2CI0 SLP220=
CYQM;2005-01-22 22:00;METAR CYQM 222200Z 29004KT 15SM FEW140 FEW250 M16/M21 A3017 RMK AC1CI1 SLP224=
CYQM;2005-01-22 23:00;METAR CYQM 222300Z 28005KT 15SM FEW250 M17/M22 A3019 RMK CI1 SLP231=
CYQM;2005-01-23 00:00;METAR CYQM 230000Z 31004KT 15SM FEW250 M18/M22 A3019 RMK CI1 SLP231=
CYQM;2005-01-23 04:00;METAR CYQM 230400Z 35009KT 15SM FEW100 BKN160 OVC220 M19/M23 A3017 RMK AC1AS5CS2 SLP223=
CYQM;2005-01-23 06:42;SPECI CYQM 230642Z 33006KT 15SM -SHSN SCT130 OVC220 RMK AC3CS3=
CYQM;2005-01-23 09:00;METAR CYQM 230900Z 34008KT 15SM -SHSN FEW030 OVC130 M20/M22 A3011 RMK SC2AS6 SLP206=
CYQM;2005-01-23 10:00;METAR CYQM 231000Z 36007KT 15SM -SHSN FEW030 OVC130 M20/M23 A3010 RMK SC2AS6 SLP202=
CYQM;2005-01-23 11:00;METAR CYQM 231100Z 36007KT 15SM -SHSN FEW030 FEW090 OVC130 M20/M21 A3009 RMK SC1AC1AS7 SLP197=
CYQM;2005-01-23 12:00;METAR CYQM 231200Z 01008KT 10SM -SHSN FEW025 FEW080 OVC110 M19/M21 A3007 RMK SC1AC1AS8 SLP190=
CYQM;2005-01-23 12:43;SPECI CYQM 231243Z 01010KT 1 1/4SM -SHSN DRSN VV007 RMK SN8=
CYQM;2005-01-23 13:32;SPECI CYQM 231332Z 02012KT 3/4SM R06/5000FT/N R29/0600FT/N -SHSN DRSN VV006 RMK SN8=
CYQM;2005-01-23 14:07;SPECI CYQM 231407Z 02016G22KT 1SM R06/6000FT/U R29/6000FT/U -SHSN DRSN VV007 RMK SN8=
CYQM;2005-01-23 14:38;SPECI CYQM 231438Z 01014G20KT 3/4SM R06/5000FT/D R29/5500FT/D -SHSN=
CYQM;2005-01-23 14:45;SPECI CYQM 231445Z 02016G22KT 1/2SM R06/2800V4500FT/D R29/3500V5000FT/D SHSN DRSN VV005 RMK SN8=
CYQM;2005-01-23 22:00;METAR CYQM 232200Z 01027G32KT 1/8SM R29/1200V3000FT/N R06/1400FT/N SN +BLSN VV003 M13/M15 A2967 RMK SN8 /S08/ SLP055=
CYQM;2005-01-23 22:25;SPECI CYQM 232225Z 01029G38KT 0SM R29/1400V2600FT/D R06/1000FT/N SN +BLSN VV003 RMK SN8=
CYQM;2005-01-23 23:00;METAR CYQM 232300Z 01023G32KT 0SM R29/1600V3000FT/U R06/0900V1100FT/N SN +BLSN VV003 M12/M14 A2965 RMK SN8 /S11/ SLP047=
CYQM;2005-01-24 00:00;METAR CYQM 240000Z 01028G34KT 1/8SM R29/2000V5000FT/U R06/0800V1600FT/U SN +BLSN VV005 M12/M13 A2965 RMK SN8 /S15/ SLP049=
CYQM;2005-01-24 02:04;SPECI CYQM 240204Z 36034G39KT 1/8SM R29/1400V2600FT/N SN +BLSN VV004 RMK SN8=
CYQM;2005-01-24 04:00;METAR CYQM 240400Z 36028G43KT 1/8SM SN +BLSN VV005 M15/M16 A2954 RMK SN8 /S10/ SLP011=
CYQM;2005-01-24 06:17;SPECI CYQM 240617Z 35037G48KT 1/8SM R06/0700V1100FT/N -SN +BLSN BKN050 RMK BLSN4SC2=
CYQM;2005-01-24 07:00;METAR CYQM 240700Z 35031G40KT 1/4SM R06/1200V2600FT/U -SN +BLSN BKN050 M15/M17 A2948 RMK BLSN3SC2 SLP989=
CYQM;2005-01-24 08:39;SPECI CYQM 240839Z 34021G38KT 1 1/2SM R06/4000VP6000FT/D -SN BLSN OVC030 RMK BLSN3SC5 VSBY VRBL 1-2=
CYQM;2005-01-24 11:00;METAR CYQM 241100Z 34021G30KT 1SM R06/1600V4500FT/D -SN BLSN OVC035 M15/M17 A2948 RMK SN6SC2 VSBY VRBL 1/2-11/2 /S03/ SLP991=
CYQM;2005-01-24 11:18;SPECI CYQM 241118Z 34022G30KT 1 1/2SM R06/2200V6000FT/U -SN BLSN OVC035 RMK SN3SC5=
CYQM;2005-01-24 12:00;METAR CYQM 241200Z 34024G30KT 1 1/2SM R06/6000FT/U -SN BLSN BKN030 OVC130 M15/M17 A2948 RMK SN2SC6AS1 SLP989=
CYQM;2005-01-24 12:37;SPECI CYQM 241237Z 33022G29KT 1 1/2SM BLSN FEW030 BKN080 RMK BLSN1SC2AC3=
CYQM;2005-01-24 13:00;METAR CYQM 241300Z 33024G30KT 1 1/2SM BLSN SCT030 BKN080 M15/M18 A2946 RMK BLSN1SC2AC3 SLP984=
CYQM;2005-01-24 13:46;SPECI CYQM 241346Z 33022G28KT 3SM BLSN BKN030 BKN090 RMK SC6AC1=
CYQM;2005-01-24 14:00;METAR CYQM 241400Z 32023G29KT 3SM BLSN FEW020 BKN030 BKN090 M15/M18 A2945 RMK SC1SC6AC1 SLP981=
CYQM;2005-01-24 15:00;METAR CYQM 241500Z 34021G28KT 10SM R06/3500V6000FT/U R29/6000FT/N DRSN FEW020 BKN040 BKN100 M15/M18 A2945 RMK SC2SC4AC1 OCNL BS SLP981=
CYQM;2005-01-24 16:00;METAR CYQM 241600Z 33020G32KT 10SM DRSN FEW020 BKN040 BKN120 M14/M17 A2943 RMK SC1SC6AC1 OCNL BS SLP974=
CYQM;2005-01-24 17:00;METAR CYQM 241700Z 32021G28KT 15SM DRSN FEW020 FEW040 BKN110 M13/M17 A2940 RMK SC1SC1AS6 OCNL BS SLP964=
CYQM;2005-01-24 18:00;METAR CYQM 241800Z 32018G25KT 10SM DRSN OVC110 M11/M16 A2938 RMK AS7 AC ASOCTD SLP955=
CYQM;2005-01-24 23:00;METAR CYQM 242300Z 27015G22KT 15SM DRSN SCT100 M12/M16 A2935 RMK AC3 SLP944=
CYQM;2005-01-25 00:00;METAR CYQM 250000Z 26016G21KT 15SM DRSN FEW100 M13/M18 A2935 RMK AC2 SLP944=
CYQM;2005-01-25 02:00;METAR CYQM 250200Z 27012G18KT 15SM FEW100 M15/M20 A2934 RMK AC1 SLP940=
CYQM;2005-01-25 03:00;METAR CYQM 250300Z 25013G18KT 15SM FEW100 M15/M20 A2932 RMK AC1 SLP934=
CYQM;2005-01-25 04:00;METAR CYQM 250400Z 25012KT 15SM FEW100 M15/M19 A2931 RMK AC1 SLP932=
CYQM;2005-01-25 05:00;METAR CYQM 250500Z 25015KT 15SM FEW030 BKN100 M14/M18 A2930 RMK SC2AC3 SLP928=
CYQM;2005-01-25 06:00;METAR CYQM 250600Z 26015KT 15SM BKN100 M14/M17 A2930 RMK AC6 SLP929=
CYQM;2005-01-25 07:00;METAR CYQM 250700Z 26017KT 15SM SCT100 M14/M17 A2931 RMK AC3 SLP930=
CYQM;2005-01-25 08:35;SPECI CYQM 250835Z 25017KT 15SM SCT100 RMK AC3=
CYQM;2005-01-25 09:00;METAR CYQM 250900Z 25014KT 15SM SCT100 M14/M17 A2932 RMK AC3 SLP936=
CYQM;2005-01-25 10:00;METAR CYQM 251000Z 24014KT 15SM SCT100 M15/M17 A2934 RMK AC3 SLP940=
CYQM;2005-01-25 11:00;METAR CYQM 251100Z 24012KT 15SM SCT100 M15/M17 A2934 RMK AC3 SLP943=
CYQM;2005-01-25 12:00;METAR CYQM 251200Z 27014KT 12SM SCT100 M15/M17 A2935 RMK AC3 SLP944=
CYQM;2005-01-25 13:00;METAR CYQM 251300Z 25008KT 12SM SCT100 M15/M18 A2938 RMK AC3 SLP955=
CYQM;2005-01-25 14:00;METAR CYQM 251400Z 27010G17KT 15SM FEW030 FEW120 M14/M17 A2940 RMK CU1AC2 SLP960=
CYQM;2005-01-25 15:00;METAR CYQM 251500Z 27012G19KT 15SM SCT040 BKN100 M13/M18 A2941 RMK SC4AC1 SLP966=
CYQM;2005-01-25 16:00;METAR CYQM 251600Z 26014G19KT 15SM BKN035 BKN100 M12/M17 A2941 RMK SC5AC1 SLP967=
CYQM;2005-01-25 17:00;METAR CYQM 251700Z 26015G21KT 15SM BKN035 BKN100 M12/M16 A2942 RMK SC5AC1 SLP969=
CYQM;2005-01-25 18:00;METAR CYQM 251800Z 26011G17KT 15SM BKN045 BKN100 BKN250 M12/M18 A2942 RMK SC5AC1CI1 SLP969=
CYQM;2005-01-25 19:00;METAR CYQM 251900Z 27014G21KT 15SM SCT045 SCT100 BKN250 M12/M19 A2945 RMK SC3AC1CI1 SLP977=
CYQM;2005-01-25 21:00;METAR CYQM 252100Z 28012KT 15SM DRSN FEW100 SCT250 M13/M20 A2951 RMK AC1CI2 SLP001=
CYQM;2005-01-25 22:00;METAR CYQM 252200Z 27016G24KT 15SM DRSN FEW020 FEW100 SCT250 M14/M20 A2956 RMK SC1AC1CI1 CU ASOCTD SLP017=
CYQM;2005-01-25 23:00;METAR CYQM 252300Z 27011KT 15SM FEW020 FEW250 M15/M21 A2960 RMK SC1CI1 TR SC SLP030=
CYQM;2005-01-26 00:00;METAR CYQM 260000Z 27012KT 15SM FEW020 M16/M22 A2964 RMK SC1 SLP044=
CYQM;2005-01-26 03:00;METAR CYQM 260300Z 26010KT 15SM SKC M20/M23 A2972 RMK SLP071=
CYQM;2005-01-26 04:00;METAR CYQM 260400Z 24010KT 15SM SKC M20/M23 A2975 RMK SLP080=
CYQM;2005-01-26 05:00;METAR CYQM 260500Z 23008KT 15SM SKC M21/M24 A2977 RMK SLP087=
CYQM;2005-01-26 06:00;METAR CYQM 260600Z 23008KT 15SM SCT260 M21/M24 A2977 RMK CI2 SLP088=
CYQM;2005-01-26 07:00;METAR CYQM 260700Z 23008KT 15SM FEW260 M22/M24 A2981 RMK CI1 SLP100=
CYQM;2005-01-26 08:00;METAR CYQM 260800Z 24009KT 15SM FEW260 M22/M24 A2982 RMK CI1 SLP105=
CYQM;2005-01-26 10:00;METAR CYQM 261000Z 24008KT 15SM SCT250 M22/M25 A2985 RMK CI2 SLP115=
CYQM;2005-01-26 12:00;METAR CYQM 261200Z 25010KT 15SM SCT250 M22/M25 A2990 RMK CI2 SLP133=
CYQM;2005-01-26 13:00;METAR CYQM 261300Z 23008KT 15SM SCT250 M20/M23 A2992 RMK CI2 SLP141=
CYQM;2005-01-26 14:00;METAR CYQM 261400Z 23009KT 15SM SCT250 M20/M24 A2994 RMK CI2 SLP146=
CYQM;2005-01-26 15:00;METAR CYQM 261500Z 25008KT 15SM SCT250 M19/M23 A2994 RMK CI2 SLP147=
CYQM;2005-01-26 16:00;METAR CYQM 261600Z 24008KT 15SM FEW100 BKN250 M18/M23 A2994 RMK AC1CI2 SLP145=
CYQM;2005-01-26 17:00;METAR CYQM 261700Z 21005KT 15SM SCT120 BKN250 M15/M23 A2992 RMK AC3CI2 SLP141=
CYQM;2005-01-26 21:00;METAR CYQM 262100Z 23005KT 15SM BKN090 M15/M22 A2997 RMK AC6 SLP157=
CYQM;2005-01-26 22:00;METAR CYQM 262200Z 27005KT 15SM BKN090 M15/M19 A3000 RMK AC6 SLP165=
CYQM;2005-01-26 23:00;METAR CYQM 262300Z 28005KT 15SM BKN120 M15/M20 A3001 RMK AC6 SLP170=
CYQM;2005-01-27 00:00;METAR CYQM 270000Z 30004KT 15SM BKN120 M16/M21 A3003 RMK AC6 SLP175=
CYQM;2005-01-27 01:00;METAR CYQM 270100Z 00000KT 15SM FEW120 M17/M21 A3004 RMK AC2 SLP180=
CYQM;2005-01-27 03:00;METAR CYQM 270300Z 35007KT 15SM FEW120 M20/M22 A3007 RMK AC1 SLP190=
CYQM;2005-01-27 04:00;METAR CYQM 270400Z 35005KT 15SM FEW120 M21/M24 A3009 RMK AC1 SLP198=
CYQM;2005-01-27 05:00;METAR CYQM 270500Z 34011KT 15SM FEW120 M22/M25 A3008 RMK AC2 SLP196=
CYQM;2005-01-27 06:00;METAR CYQM 270600Z 34012KT 15SM FEW120 M22/M26 A3009 RMK AC2 SLP197=
CYQM;2005-01-27 09:00;METAR CYQM 270900Z 35008KT 15SM FEW020 FEW120 M25/M25 A3011 RMK SC1AC1 SLP204=
CYQM;2005-01-27 10:00;METAR CYQM 271000Z 34010KT 15SM FEW020 FEW120 M25/M26 A3011 RMK SC1AC1 SLP205=
CYQM;2005-01-27 11:00;METAR CYQM 271100Z 34011KT 15SM FEW120 M25/M28 A3013 RMK AC1 SLP210=
CYQM;2005-01-27 12:00;METAR CYQM 271200Z 34012KT 15SM BKN017 M25/M28 A3015 RMK SC5 SLP218=
CYQM;2005-01-27 15:00;METAR CYQM 271500Z 36013KT 15SM FEW025 M21/M25 A3022 RMK SC2 SLP244=
CYQM;2005-01-27 16:00;METAR CYQM 271600Z 34013KT 15SM FEW025 M20/M25 A3023 RMK SC2 SLP245=
CYQM;2005-01-27 19:00;METAR CYQM 271900Z 36014G19KT 15SM FEW025 M18/M26 A3023 RMK CU2 SLP244=
CYQM;2005-01-27 20:00;METAR CYQM 272000Z 36012KT 15SM FEW025 M18/M25 A3024 RMK CU2 SLP249=
CYQM;2005-01-28 19:00;METAR CYQM 281900Z 31011KT 15SM FEW020 M13/M21 A3046 RMK SC1 SLP323=
CYQM;2005-01-28 21:00;METAR CYQM 282100Z 33007KT 15SM FEW020 M13/M21 A3047 RMK SC1 SLP325=
CYQM;2005-01-28 22:00;METAR CYQM 282200Z 29005KT 15SM SKC M15/M19 A3047 RMK SLP327=
CYQM;2005-01-28 23:00;METAR CYQM 282300Z 30007KT 15SM SKC M16/M21 A3047 RMK SLP327=
CYQM;2005-01-29 00:00;METAR CYQM 290000Z 29009KT 15SM SKC M16/M22 A3047 RMK SLP328=
CYQM;2005-01-29 04:00;METAR CYQM 290400Z 30008KT 15SM SKC M16/M21 A3044 RMK SLP314=
CYQM;2005-01-29 05:00;METAR CYQM 290500Z 29005KT 15SM SKC M17/M21 A3042 RMK SLP310=
CYQM;2005-01-29 06:00;METAR CYQM 290600Z 24002KT 15SM SKC M20/M22 A3042 RMK SLP309=
CYQM;2005-01-29 07:00;METAR CYQM 290700Z 22008KT 15SM SKC M20/M23 A3041 RMK SLP304=
CYQM;2005-01-29 08:00;METAR CYQM 290800Z 24008KT 15SM SKC M21/M23 A3039 RMK SLP299=
CYQM;2005-01-29 09:00;METAR CYQM 290900Z 25008KT 15SM SKC M21/M24 A3038 RMK SLP294=
CYQM;2005-01-29 10:00;METAR CYQM 291000Z 25009KT 15SM SKC M21/M24 A3037 RMK FROIN SLP292=
CYQM;2005-01-29 12:00;METAR CYQM 291200Z 24009KT 15SM FEW100 M21/M23 A3036 RMK AC1 FROIN SLP287=
CYQM;2005-01-29 13:00;METAR CYQM 291300Z 26008KT 15SM FEW120 M20/M23 A3033 RMK AC1 SLP278=
CYQM;2005-01-29 14:00;METAR CYQM 291400Z 25012KT 15SM SCT120 M18/M22 A3030 RMK AC3 SLP270=
CYQM;2005-01-29 16:00;METAR CYQM 291600Z 23007KT 15SM BKN120 M15/M21 A3025 RMK AC7 SLP251=
CYQM;2005-01-29 17:00;METAR CYQM 291700Z 22004KT 15SM BKN120 M13/M19 A3020 RMK AC7 SLP235=
CYQM;2005-01-29 20:00;METAR CYQM 292000Z 22007KT 15SM SCT120 M10/M17 A3012 RMK AC4 SLP208=
CYQM;2005-01-29 21:00;METAR CYQM 292100Z 24007KT 15SM FEW120 FEW260 M11/M18 A3012 RMK AC1CI1 SLP206=
CYQM;2005-01-29 22:00;METAR CYQM 292200Z 22007KT 15SM FEW120 M12/M17 A3011 RMK AC1 SLP202=
CYQM;2005-01-29 23:00;METAR CYQM 292300Z 18005KT 15SM FEW120 M12/M17 A3008 RMK AC1 SLP195=
CYQM;2005-01-30 01:00;METAR CYQM 300100Z 22007KT 15SM OVC033 M12/M16 A3006 RMK SC8 SLP185=
CYQM;2005-01-30 03:00;METAR CYQM 300300Z 23007KT 15SM -SHSN OVC019 M11/M15 A3000 RMK SC8 SLP167=
CYQM;2005-01-30 04:00;METAR CYQM 300400Z 24007KT 15SM -SHSN BKN030 M11/M14 A3000 RMK SC6 SLP165=
CYQM;2005-01-30 04:40;SPECI CYQM 300440Z 24010KT 15SM OVC025 RMK SC7=
CYQM;2005-01-30 05:00;METAR CYQM 300500Z 23008KT 15SM OVC024 M11/M14 A2998 RMK SC8 SLP158=
CYQM;2005-01-30 07:00;METAR CYQM 300700Z 23008KT 15SM FEW120 M12/M15 A2996 RMK AC1 SLP151=
CYQM;2005-01-30 10:00;METAR CYQM 301000Z 23008KT 15SM FEW120 BKN220 M13/M16 A2995 RMK AC2CI2 SLP150=
CYQM;2005-01-30 12:00;METAR CYQM 301200Z 23009KT 15SM FEW120 BKN220 M13/M16 A2996 RMK AC2CI2 SLP153=
CYQM;2005-01-30 13:00;METAR CYQM 301300Z 23010KT 15SM FEW120 FEW220 M13/M16 A2997 RMK AC1CI1 SLP156=
CYQM;2005-01-30 14:00;METAR CYQM 301400Z 24008KT 15SM FEW120 FEW220 M12/M15 A2997 RMK AC1CI1 SLP157=
CYQM;2005-01-30 15:00;METAR CYQM 301500Z 23007KT 15SM FEW120 FEW220 M11/M15 A2998 RMK AC1CI1 SLP158=
CYQM;2005-01-30 16:00;METAR CYQM 301600Z 24005KT 15SM FEW250 M09/M12 A2997 RMK CI2 SLP157=
CYQM;2005-01-30 18:00;METAR CYQM 301800Z 35007KT 15SM SCT030 M04/M11 A2998 RMK CU3 SLP158=
CYQM;2005-01-30 19:00;METAR CYQM 301900Z 03013KT 15SM FEW040 SCT120 M04/M12 A3000 RMK CU2AC1 SLP164=
CYQM;2005-01-30 22:00;METAR CYQM 302200Z 05003KT 15SM SCT040 BKN120 BKN250 M07/M12 A3008 RMK SC3AC2CI0 SLP192=
CYQM;2005-01-30 23:00;METAR CYQM 302300Z 00000KT 15SM OVC039 M07/M10 A3010 RMK SC8 SLP199=
CYQM;2005-01-30 23:40;SPECI CYQM 302340Z 31003KT 15SM -SHSN BKN035 RMK SC6=
CYQM;2005-01-31 00:00;METAR CYQM 310000Z 34003KT 15SM -SHSN BKN030 M07/M10 A3013 RMK SC6 SLP209=
CYQM;2005-01-31 01:45;SPECI CYQM 310145Z 34004KT 15SM -SHSN BKN030 RMK SC6=
CYQM;2005-01-31 03:45;SPECI CYQM 310345Z 34007KT 2 1/2SM -SHSN OVC019 RMK SC8=
CYQM;2005-01-31 04:00;METAR CYQM 310400Z 35009KT 5SM -SHSN BKN017 M09/M10 A3020 RMK SC6 /S01/ SLP232=
CYQM;2005-01-31 05:04;SPECI CYQM 310504Z 36011KT 15SM FEW017 RMK SC1=
CYQM;2005-01-31 07:00;METAR CYQM 310700Z 34008KT 15SM SKC M13/M15 A3024 RMK SLP247=
CYQM;2005-01-31 09:00;METAR CYQM 310900Z 33007KT 15SM FEW020 M15/M16 A3028 RMK SC1 SLP260=
CYQM;2005-01-31 09:13;SPECI CYQM 310913Z 34007KT 15SM -SHSN FEW020 RMK SC1=
CYQM;2005-01-31 10:00;METAR CYQM 311000Z 34008KT 15SM -SHSN FEW020 SCT050 M15/M17 A3030 RMK SC1SC2 SLP266=
CYQM;2005-01-31 11:00;METAR CYQM 311100Z 33007KT 15SM -SHSN FEW020 BKN040 M14/M16 A3032 RMK SC2SC2 SLP274=
CYQM;2005-01-31 12:00;METAR CYQM 311200Z 32007KT 15SM -SHSN BKN030 M13/M16 A3035 RMK SC6 SLP285=
CYQM;2005-01-31 12:36;SPECI CYQM 311236Z 31004KT 15SM BKN030 RMK SC6=
CYQM;2005-01-31 13:00;METAR CYQM 311300Z 31006KT 15SM BKN030 M14/M16 A3038 RMK SC6 SLP294=
CYQM;2005-01-31 14:00;METAR CYQM 311400Z 33007KT 15SM FEW040 M13/M16 A3039 RMK SC2 SLP297=
CYQM;2005-01-31 15:00;METAR CYQM 311500Z 36010KT 15SM FEW040 M11/M14 A3039 RMK SC2 SLP298=
CYQM;2005-01-31 16:00;METAR CYQM 311600Z 02009KT 15SM FEW040 M10/M15 A3039 RMK SC2 SLP296=
CYQM;2005-01-31 17:00;METAR CYQM 311700Z 02008KT 15SM FEW040 M10/M17 A3038 RMK CU2 SLP293=
CYQM;2005-01-31 18:00;METAR CYQM 311800Z 03009KT 15SM FEW030 M10/M17 A3037 RMK CU1 SLP290=
CYQM;2005-01-31 21:00;METAR CYQM 312100Z 03007KT 15SM FEW030 M10/M17 A3038 RMK CU1 SLP295=
CYQM;2005-01-31 22:00;METAR CYQM 312200Z 03004KT 15SM FEW250 M13/M17 A3038 RMK CI1 SLP295=
CYQM;2005-02-01 00:00;METAR CYQM 010000Z 04002KT 15SM SKC M13/M16 A3039 RMK SLP299=
CYQM;2005-02-01 03:00;METAR CYQM 010300Z 22002KT 15SM SKC M16/M17 A3039 RMK SLP297=
CYQM;2005-02-01 05:00;METAR CYQM 010500Z 22006KT 15SM FEW011 M18/M20 A3038 RMK SF1 FROIN SLP294=
CYQM;2005-02-01 06:00;METAR CYQM 010600Z 22006KT 15SM SKC M19/M21 A3039 RMK FROIN SLP297=
CYQM;2005-02-01 09:00;METAR CYQM 010900Z 23005KT 15SM SKC M20/M21 A3037 RMK FROIN SLP292=
CYQM;2005-02-01 09:55;SPECI CYQM 010955Z 19006KT 15SM SCT001 RMK ST2 VIS LWR SE-W=
CYQM;2005-02-01 10:00;METAR CYQM 011000Z 19006KT 15SM SCT001 M20/M21 A3037 RMK ST2 VIS SE-W 6 FROIN SLP292=
CYQM;2005-02-01 11:00;METAR CYQM 011100Z 21007KT 15SM SCT001 M21/M21 A3038 RMK SF2 VIS S 11/2 FROIN SLP294=
CYQM;2005-02-01 12:00;METAR CYQM 011200Z 21005KT 15SM FEW030 BKN240 M21/M22 A3039 RMK SC1CI1 FROIN SLP298=
CYQM;2005-02-01 13:00;METAR CYQM 011300Z 20004KT 15SM FEW120 BKN240 M19/M21 A3040 RMK AC1CI2 SLP303=
CYQM;2005-02-01 14:00;METAR CYQM 011400Z 00000KT 15SM FEW120 BKN240 M16/M18 A3041 RMK AC1CI2 SLP306=
CYQM;2005-02-01 15:00;METAR CYQM 011500Z 24006KT 15SM FEW120 BKN240 M12/M17 A3043 RMK AC1CI2 SLP311=
CYQM;2005-02-01 16:00;METAR CYQM 011600Z 23010KT 15SM FEW120 SCT240 M08/M17 A3041 RMK AC1CI2 SLP307=
CYQM;2005-02-01 17:00;METAR CYQM 011700Z 22010G15KT 15SM FEW120 SCT240 M05/M15 A3039 RMK AC1CI1 SLP297=
CYQM;2005-02-01 18:00;METAR CYQM 011800Z 25011G16KT 15SM FEW120 SCT240 M03/M14 A3038 RMK AC1CI1 SLP293=
CYQM;2005-02-01 21:00;METAR CYQM 012100Z 22008KT 15SM FEW140 M03/M11 A3038 RMK AC1 SLP295=
CYQM;2005-02-01 22:00;METAR CYQM 012200Z 16004KT 15SM FEW140 M06/M11 A3041 RMK AC1 SLP304=
CYQM;2005-02-01 23:00;METAR CYQM 012300Z 19005KT 15SM SKC M05/M10 A3044 RMK SLP313=
CYQM;2005-02-02 00:00;METAR CYQM 020000Z 20005KT 15SM SKC M06/M09 A3046 RMK FROIN SLP321=
CYQM;2005-02-02 03:00;METAR CYQM 020300Z 27008KT 15SM SKC M09/M12 A3050 RMK SLP333=
CYQM;2005-02-02 04:00;METAR CYQM 020400Z 23007KT 15SM SKC M11/M14 A3050 RMK SLP334=
CYQM;2005-02-02 06:00;METAR CYQM 020600Z 22007KT 15SM SKC M14/M15 A3052 RMK FROIN SLP340=
CYQM;2005-02-02 07:00;METAR CYQM 020700Z 22009KT 15SM SKC M13/M15 A3052 RMK FROIN SLP342=
CYQM;2005-02-02 08:00;METAR CYQM 020800Z 24008KT 15SM SKC M14/M16 A3053 RMK FROIN SLP346=
CYQM;2005-02-02 10:00;METAR CYQM 021000Z 23006KT 15SM SKC M15/M16 A3055 RMK FROIN SLP353=
CYQM;2005-02-02 11:00;METAR CYQM 021100Z 23005KT 15SM FEW240 M17/M18 A3057 RMK CI1 FROIN SLP357=
CYQM;2005-02-02 12:00;METAR CYQM 021200Z 25006KT 15SM FEW220 M16/M19 A3059 RMK CI1 FROIN SLP365=
CYQM;2005-02-02 13:00;METAR CYQM 021300Z 21007KT 15SM FEW220 M17/M19 A3061 RMK CI1 SLP370=
CYQM;2005-02-02 16:00;METAR CYQM 021600Z 33002KT 15SM FEW250 M06/M12 A3060 RMK CI1 SLP369=
CYQM;2005-02-02 17:00;METAR CYQM 021700Z 01005KT 15SM FEW250 M03/M12 A3058 RMK CI1 SLP361=
CYQM;2005-02-02 18:00;METAR CYQM 021800Z 03005KT 15SM FEW250 M02/M12 A3057 RMK CI1 SLP359=
CYQM;2005-02-02 19:00;METAR CYQM 021900Z 05005KT 15SM FEW250 M02/M11 A3058 RMK CI1 SLP361=
CYQM;2005-02-02 20:00;METAR CYQM 022000Z 03007KT 15SM FEW250 M03/M11 A3058 RMK CI1 SLP361=
CYQM;2005-02-02 21:00;METAR CYQM 022100Z 04005KT 15SM FEW250 M04/M11 A3058 RMK CI1 SLP360=
CYQM;2005-02-02 22:00;METAR CYQM 022200Z 05004KT 15SM FEW250 M06/M13 A3058 RMK CI1 SLP361=
CYQM;2005-02-02 23:00;METAR CYQM 022300Z 08005KT 15SM SKC M07/M13 A3058 RMK SLP361=
CYQM;2005-02-03 00:00;METAR CYQM 030000Z 09004KT 15SM SKC M07/M13 A3058 RMK SLP364=
CYQM;2005-02-03 02:00;METAR CYQM 030200Z 05002KT 15SM FEW260 M10/M13 A3058 RMK CI2 SLP361=
CYQM;2005-02-03 04:00;METAR CYQM 030400Z 09003KT 15SM FEW260 M09/M11 A3056 RMK CI2 SLP356=
CYQM;2005-02-03 07:00;METAR CYQM 030700Z 00000KT 15SM SCT100 BKN260 M10/M13 A3053 RMK AC3CI1 SLP344=
CYQM;2005-02-03 09:00;METAR CYQM 030900Z 10006KT 15SM BKN100 M07/M11 A3050 RMK AC6 SLP334=
CYQM;2005-02-03 10:00;METAR CYQM 031000Z 10004KT 15SM BKN100 M07/M11 A3049 RMK AC6 SLP329=
CYQM;2005-02-03 12:00;METAR CYQM 031200Z 10006KT 15SM BKN100 M08/M13 A3047 RMK AC6 SLP325=
CYQM;2005-02-03 13:00;METAR CYQM 031300Z 08002KT 15SM FEW050 BKN110 BKN220 M07/M12 A3048 RMK SC2AC4CI1 SLP327=
CYQM;2005-02-03 15:00;METAR CYQM 031500Z 08004KT 15SM BKN090 BKN220 M02/M08 A3046 RMK AC5CI2 SLP321=
CYQM;2005-02-03 16:00;METAR CYQM 031600Z 08003KT 15SM BKN100 BKN220 M02/M09 A3044 RMK AC5CI2 SLP312=
CYQM;2005-02-03 17:00;METAR CYQM 031700Z 10004KT 15SM BKN100 BKN220 01/M07 A3042 RMK AC5CI2 SLP306=
CYQM;2005-02-03 18:00;METAR CYQM 031800Z 15005KT 15SM BKN100 BKN220 M01/M08 A3039 RMK AC6CI2 SLP295=
CYQM;2005-02-03 19:00;METAR CYQM 031900Z 12003KT 15SM FEW050 BKN080 OVC200 M02/M08 A3038 RMK SC2AC5CI2 SLP291=
CYQM;2005-02-03 22:00;METAR CYQM 032200Z 14005KT 15SM FEW050 BKN080 OVC220 M02/M08 A3036 RMK SC2AC6CI1 SLP287=
CYQM;2005-02-03 23:00;METAR CYQM 032300Z 10004KT 15SM SCT050 OVC080 M02/M06 A3036 RMK SC3AC5 SLP287=
CYQM;2005-02-04 00:00;METAR CYQM 040000Z 09004KT 15SM -SHSN BKN040 OVC080 M02/M04 A3037 RMK SC6AC2 SLP289=
CYQM;2005-02-04 00:55;SPECI CYQM 040055Z 09005KT 15SM BKN040 OVC080 RMK SC6AC2=
CYQM;2005-02-04 02:00;METAR CYQM 040200Z 12004KT 15SM SCT004 BKN090 OVC260 M03/M05 A3036 RMK SC4AC2CI1 SLP287=
CYQM;2005-02-04 04:00;METAR CYQM 040400Z 11005KT 15SM SCT040 BKN090 M04/M06 A3033 RMK SC3AC4 SLP274=
CYQM;2005-02-04 08:00;METAR CYQM 040800Z 02005KT 3/4SM R29/2200VP6000FT/D R06/2400VP6000FT/D BR VV004 M06/M07 A3031 RMK FG8 SLP268=
CYQM;2005-02-04 08:09;SPECI CYQM 040809Z 02004KT 1/2SM R29/1400V2400FT/D R06/1800V2800FT/N=
CYQM;2005-02-04 08:44;SPECI CYQM 040844Z 03006KT 1/4SM R29/2400FT/N R06/2000FT/N FZFG VV001 RMK FG8=
CYQM;2005-02-04 09:43;SPECI CYQM 040943Z 06003KT 1/2SM R29/2800V4500FT/U R06/2000FT/N FZFG VV002 RMK FG8 RIME ON INDICATOR=
CYQM;2005-02-04 10:00;METAR CYQM 041000Z 05003KT 3/4SM R29/4500VP6000FT/D R06/3500FT/U BR SKC M05/M06 A3031 RMK FG6 SLP270=
CYQM;2005-02-04 10:49;SPECI CYQM 041049Z 02004KT 1/2SM R29/3500FT/D R06/2200FT/N FZFG VV002 RMK FG8=
CYQM;2005-02-04 11:49;SPECI CYQM 041149Z 04004KT 3/4SM R29/5500FT/U R06/2800FT/U BR VV002 RMK FG8=
CYQM;2005-02-04 12:00;METAR CYQM 041200Z 04004KT 3/4SM R29/P6000FT/U R06/3000FT/U BR VV002 M05/M06 A3033 RMK FG8 SLP274=
CYQM;2005-02-04 12:38;SPECI CYQM 041238Z 05002KT 1SM R29/P6000FT/N R06/5500FT/D BR OVC002 RMK SF8=
CYQM;2005-02-04 13:00;METAR CYQM 041300Z 05004KT 1 1/4SM BR OVC002 M04/M05 A3034 RMK SF8 SLP280=
CYQM;2005-02-04 14:00;METAR CYQM 041400Z 07009KT 1 1/4SM BR OVC002 M03/M04 A3035 RMK SF8 SLP283=
CYQM;2005-02-04 15:00;METAR CYQM 041500Z 04006KT 1 1/4SM BR OVC002 M03/M04 A3036 RMK SF8 SLP286=
CYQM;2005-02-04 16:00;METAR CYQM 041600Z 02007KT 1 1/4SM BR OVC002 M02/M04 A3035 RMK SF8 SLP281=
CYQM;2005-02-04 16:13;SPECI CYQM 041613Z 02008KT 2SM BR OVC002 RMK SF8=
CYQM;2005-02-04 17:00;METAR CYQM 041700Z 04006KT 3SM BR OVC003 M02/M03 A3033 RMK SF8 SLP276=
CYQM;2005-02-04 18:00;METAR CYQM 041800Z 04007KT 7SM OVC004 M02/M03 A3031 RMK SF8 SLP268=
CYQM;2005-02-04 18:29;SPECI CYQM 041829Z 04010KT 8SM BKN005 RMK SF7=
CYQM;2005-02-04 18:55;SPECI CYQM 041855Z 01011KT 8SM SCT007 BKN012 RMK SF4SC2=
CYQM;2005-02-04 21:00;METAR CYQM 042100Z 02009KT 12SM FEW010 BKN220 M03/M07 A3029 RMK CF1CI3 SLP262=
CYQM;2005-02-04 21:31;SPECI CYQM 042131Z 36009KT 12SM BKN010 BKN250 RMK SF6CI2=
CYQM;2005-02-04 22:00;METAR CYQM 042200Z 01012KT 10SM BKN002 OVC250 M04/M05 A3029 RMK SF7CI1 VIS NE 2 SLP262=
CYQM;2005-02-04 22:40;SPECI CYQM 042240Z 36010KT 1 1/4SM BR OVC001 RMK ST8=
CYQM;2005-02-04 23:11;SPECI CYQM 042311Z 36012KT 3/4SM R29/P6000FT/U R06/P6000FT/D BR VV003 RMK FG8=
CYQM;2005-02-04 23:50;SPECI CYQM 042350Z 36014KT 1/2SM R29/P6000FT/D R06/P6000FT/U FZFG VV002 RMK FG8=
CYQM;2005-02-05 00:00;METAR CYQM 050000Z 36010KT 1/2SM R29/P6000FT/U R06/P6000FT/D FZFG VV002 M05/M05 A3029 RMK FG8 SLP262=
CYQM;2005-02-05 00:13;SPECI CYQM 050013Z 34008KT 3/4SM R29/4000VP6000FT/D R06/4000VP6000FT/D BR VV003 RMK FG8=
CYQM;2005-02-05 01:14;SPECI CYQM 050114Z 36007KT 1 1/4SM BR OVC002 RMK FG1ST7=
CYQM;2005-02-05 01:33;SPECI CYQM 050133Z 36008KT 1 3/4SM BR OVC002 RMK FG1ST7=
CYQM;2005-02-05 02:00;METAR CYQM 050200Z 02008KT 4SM BR OVC002 M05/M05 A3027 RMK ST8 FROIN SLP256=
CYQM;2005-02-05 02:51;SPECI CYQM 050251Z 35005KT 1SM R29/P6000FT/D R06/P6000FT/D BR OVC001 RMK ST8=
CYQM;2005-02-05 03:00;METAR CYQM 050300Z 35007KT 1 1/4SM BR OVC001 M05/M05 A3026 RMK ST8 FROIN SLP253=
CYQM;2005-02-05 04:00;METAR CYQM 050400Z 01007KT 1 1/2SM BR OVC001 M06/M06 A3025 RMK ST8 FROIN SLP248=
CYQM;2005-02-05 04:25;SPECI CYQM 050425Z 36009KT 5SM BR OVC001 RMK ST8=
CYQM;2005-02-05 05:00;METAR CYQM 050500Z 36007KT 6SM BR OVC002 M06/M07 A3025 RMK ST8 FROIN SLP249=
CYQM;2005-02-05 06:00;METAR CYQM 050600Z 36008KT 7SM BKN003 M06/M07 A3024 RMK SF7 FROIN SLP246=
CYQM;2005-02-05 06:21;SPECI CYQM 050621Z 34006KT 8SM OVC002 RMK ST8=
CYQM;2005-02-05 06:43;SPECI CYQM 050643Z 35005KT 6SM BR OVC001 RMK ST8=
CYQM;2005-02-05 07:32;SPECI CYQM 050732Z 35003KT 1 1/4SM BR OVC001 RMK ST8 VIS SE 3=
CYQM;2005-02-05 08:38;SPECI CYQM 050838Z 32007KT 2SM BR OVC001 RMK ST8=
CYQM;2005-02-05 09:00;METAR CYQM 050900Z 31006KT 3SM BR OVC001 M07/M07 A3023 RMK ST8 FROIN SLP243=
CYQM;2005-02-05 10:00;METAR CYQM 051000Z 33005KT 3SM BR OVC001 M06/M07 A3025 RMK ST8 FROIN SLP247=
CYQM;2005-02-05 10:13;SPECI CYQM 051013Z 33007KT 10SM OVC003 RMK ST8 FROIN=
CYQM;2005-02-05 11:44;SPECI CYQM 051144Z 31006KT 10SM SCT004 RMK SF4=
CYQM;2005-02-05 12:00;METAR CYQM 051200Z 32005KT 10SM SCT005 M07/M09 A3027 RMK SF3 SLP255=
CYQM;2005-02-05 13:00;METAR CYQM 051300Z 31004KT 15SM FEW007 M07/M09 A3028 RMK SF2 SLP257=
CYQM;2005-02-05 14:00;METAR CYQM 051400Z 34007KT 15SM FEW250 M06/M09 A3029 RMK CI1 SLP262=
CYQM;2005-02-05 16:00;METAR CYQM 051600Z 34014KT 15SM FEW025 SCT250 M02/M07 A3028 RMK CU1CI1 SLP259=
CYQM;2005-02-05 17:00;METAR CYQM 051700Z 01014G21KT 15SM FEW250 M01/M08 A3028 RMK CI1 SLP259=
CYQM;2005-02-05 18:00;METAR CYQM 051800Z 01016KT 15SM FEW250 00/M07 A3029 RMK CI1 SLP261=
CYQM;2005-02-05 19:00;METAR CYQM 051900Z 01012KT 15SM FEW250 M01/M08 A3031 RMK CI1 SLP270=
CYQM;2005-02-05 21:00;METAR CYQM 052100Z 04007KT 15SM SKC M01/M08 A3036 RMK SLP287=
CYQM;2005-02-05 22:00;METAR CYQM 052200Z 02009KT 15SM FEW250 M03/M07 A3038 RMK CI1 SLP293=
CYQM;2005-02-06 00:00;METAR CYQM 060000Z 01011KT 15SM SKC M04/M06 A3043 RMK SLP309=
CYQM;2005-02-06 01:00;METAR CYQM 060100Z 01012KT 15SM SKC M04/M07 A3045 RMK SLP317=
CYQM;2005-02-06 02:00;METAR CYQM 060200Z 02010KT 15SM SKC M04/M07 A3047 RMK SLP322=
CYQM;2005-02-06 04:00;METAR CYQM 060400Z 36011KT 15SM SKC M04/M07 A3049 RMK SLP331=
CYQM;2005-02-06 05:00;METAR CYQM 060500Z 01012KT 15SM SKC M04/M07 A3050 RMK SLP334=
CYQM;2005-02-06 06:00;METAR CYQM 060600Z 36010KT 15SM SKC M05/M07 A3052 RMK SLP339=
CYQM;2005-02-06 07:00;METAR CYQM 060700Z 01011KT 15SM SKC M06/M08 A3055 RMK SLP349=
CYQM;2005-02-06 12:00;METAR CYQM 061200Z 36007KT 15SM FEW020 FEW120 M09/M11 A3069 RMK SC1AC1 FROIN SLP397=
CYQM;2005-02-06 13:00;METAR CYQM 061300Z 02010KT 15SM FEW020 FEW260 M07/M09 A3069 RMK SC1CI1 SLP400=
CYQM;2005-02-06 15:00;METAR CYQM 061500Z 02013G18KT 15SM FEW260 M04/M08 A3071 RMK CI1 SLP403=
CYQM;2005-02-06 16:00;METAR CYQM 061600Z 02013KT 15SM FEW260 M04/M08 A3069 RMK CI1 SLP399=
CYQM;2005-02-06 17:00;METAR CYQM 061700Z 02010KT 15SM FEW260 M03/M07 A3068 RMK CI2 SLP395=
CYQM;2005-02-06 19:00;METAR CYQM 061900Z 02009KT 15SM BKN260 M02/M07 A3065 RMK CI3 SLP385=
CYQM;2005-02-06 21:00;METAR CYQM 062100Z 08004KT 15SM SCT260 M03/M08 A3064 RMK CI2 SLP380=
CYQM;2005-02-06 22:00;METAR CYQM 062200Z 36007KT 15SM SCT260 M05/M08 A3065 RMK CI2 SLP385=
CYQM;2005-02-07 00:00;METAR CYQM 070000Z 04005KT 15SM SKC M07/M09 A3063 RMK SLP380=
CYQM;2005-02-07 03:00;METAR CYQM 070300Z 13002KT 12SM SKC M08/M09 A3057 RMK FROIN SLP356=
CYQM;2005-02-07 03:32;SPECI CYQM 070332Z 00000KT 10SM R29/1800V3000FT/U R06/3000VP6000FT/D=
CYQM;2005-02-07 04:00;METAR CYQM 070400Z 13005KT 10SM R29/0900V1800FT/D R06/3500VP6000FT/U PRFG FEW001 M09/M09 A3053 RMK ST1 SLP345=
CYQM;2005-02-07 06:00;METAR CYQM 070600Z 00000KT 12SM SKC M08/M09 A3050 RMK FROIN SLP332=
CYQM;2005-02-07 06:17;SPECI CYQM 070617Z 00000KT 10SM R29/P6000FT/N R06/3500VP6000FT/U SCT001 RMK SF2=
CYQM;2005-02-07 07:00;METAR CYQM 070700Z 32002KT 4SM R29/P6000FT/N R06/2200V3000FT/N BR PRFG SCT001 M10/M11 A3048 RMK SF2 VIS N 3/4 VIS W 8 SLP328=
CYQM;2005-02-07 07:16;SPECI CYQM 070716Z 36003KT 1/2SM R29/2400VP6000FT/U R06/1800V3000FT/D=
CYQM;2005-02-07 07:38;SPECI CYQM 070738Z 00000KT 1SM R29/3000VP6000FT/D R06/2400V3500FT/U BR PRFG SKC RMK FG2 VIS S-W 5 VIS E1/2=
CYQM;2005-02-07 08:45;SPECI CYQM 070845Z 22006KT 1 1/2SM R29/3500VP6000FT/D R06/P6000FT/N BR PRFG OVC001 RMK ST6=
CYQM;2005-02-07 08:55;SPECI CYQM 070855Z 21006KT 1/4SM R29/1600V3500FT/D R06/4500VP6000FT/D=
CYQM;2005-02-07 09:07;SPECI CYQM 070907Z 21005KT 1/8SM R29/1600FT/N R06/1200V3000FT/D FZFG SKC RMK FG6=
CYQM;2005-02-07 09:28;SPECI CYQM 070928Z 22004KT 3/4SM R29/1100V1600FT/N R06/2600VP6000FT/U BR SKC RMK FG6=
CYQM;2005-02-07 09:33;SPECI CYQM 070933Z 22004KT 1 1/2SM R29/1100V4500FT/U R06/4000VP6000FT/U BR SKC RMK FG5=
CYQM;2005-02-07 09:37;SPECI CYQM 070937Z 22005KT 8SM PRFG SKC=
CYQM;2005-02-07 11:00;METAR CYQM 071100Z 23005KT 15SM VCFG FEW260 M13/M14 A3042 RMK CI1 FROIN SLP307=
CYQM;2005-02-07 12:00;METAR CYQM 071200Z 20004KT 15SM SCT260 M13/M15 A3041 RMK CI2 FROIN SLP304=
CYQM;2005-02-07 15:00;METAR CYQM 071500Z 19004KT 15SM FEW140 BKN260 M06/M08 A3036 RMK AC1CI4 SLP286=
CYQM;2005-02-07 16:00;METAR CYQM 071600Z 23007KT 15SM FEW140 BKN260 M01/M06 A3033 RMK AC1CI5 SLP278=
CYQM;2005-02-07 17:00;METAR CYQM 071700Z 23007KT 15SM FEW140 FEW220 BKN260 02/M03 A3029 RMK AC1CC1CI5 SLP264=
CYQM;2005-02-07 21:00;METAR CYQM 072100Z 19004KT 15SM FEW120 BKN260 05/M06 A3020 RMK AC2CI4 SLP231=
CYQM;2005-02-07 22:00;METAR CYQM 072200Z 18005KT 15SM FEW120 BKN260 01/M11 A3018 RMK AC2CI4 SLP226=
CYQM;2005-02-07 23:00;METAR CYQM 072300Z 17003KT 15SM SCT120 BKN260 00/M09 A3018 RMK AC3CI3 SLP226=
CYQM;2005-02-08 00:00;METAR CYQM 080000Z 18005KT 15SM SCT100 BKN220 00/M07 A3018 RMK AC4CI3 SLP224=
CYQM;2005-02-08 02:00;METAR CYQM 080200Z 17008KT 15SM FEW110 BKN220 M01/M07 A3017 RMK AC2CI3 SLP221=
CYQM;2005-02-08 03:00;METAR CYQM 080300Z 18005KT 15SM FEW110 BKN220 M02/M06 A3016 RMK AC2CI3 SLP217=
CYQM;2005-02-08 04:00;METAR CYQM 080400Z 20003KT 15SM FEW110 BKN220 M02/M06 A3012 RMK AC2CI2 SLP205=
CYQM;2005-02-08 06:00;METAR CYQM 080600Z 20008KT 15SM FEW110 SCT220 M03/M07 A3010 RMK AC2CI2 SLP198=
CYQM;2005-02-08 08:00;METAR CYQM 080800Z 18006KT 15SM SCT250 M04/M08 A3008 RMK CI2 SLP190=
CYQM;2005-02-08 09:00;METAR CYQM 080900Z 20008KT 15SM SCT250 M05/M08 A3008 RMK CI2 SLP189=
CYQM;2005-02-08 10:00;METAR CYQM 081000Z 18006KT 15SM BKN260 M04/M06 A3006 RMK CI2 FROIN SLP184=
CYQM;2005-02-08 11:00;METAR CYQM 081100Z 21009KT 15SM FEW120 BKN240 M05/M06 A3007 RMK AC2CI3 FROIN SLP186=
CYQM;2005-02-08 12:00;METAR CYQM 081200Z 20010KT 15SM BKN090 BKN140 BKN260 M03/M08 A3006 RMK AC5AC1CI1 VIRGA SLP185=
CYQM;2005-02-08 13:00;METAR CYQM 081300Z 22007KT 15SM FEW100 BKN240 M03/M07 A3006 RMK AC2CI3 SLP184=
CYQM;2005-02-08 14:00;METAR CYQM 081400Z 24003KT 15SM FEW100 BKN240 M02/M07 A3006 RMK AC2CI4 SLP184=
CYQM;2005-02-08 15:00;METAR CYQM 081500Z 23004KT 15SM BKN110 BKN260 01/M06 A3006 RMK AC6CI0 SLP183=
CYQM;2005-02-08 16:00;METAR CYQM 081600Z 22008KT 15SM BKN110 OVC240 03/M03 A3004 RMK AC7CI1 SLP178=
CYQM;2005-02-08 17:00;METAR CYQM 081700Z 26003KT 15SM SCT110 BKN250 05/M06 A3002 RMK AC4CI2 SLP170=
CYQM;2005-02-08 20:00;METAR CYQM 082000Z 02002KT 15SM FEW055 BKN090 OVC160 05/M03 A2998 RMK SC1AC6AS1 SLP157=
CYQM;2005-02-08 21:00;METAR CYQM 082100Z 00000KT 15SM FEW055 BKN085 OVC150 05/M03 A2997 RMK SC1AC6AC1 SLP152=
CYQM;2005-02-08 22:00;METAR CYQM 082200Z 05002KT 15SM BKN045 BKN070 OVC150 04/M02 A2996 RMK SC5AC2AC1 SLP149=
CYQM;2005-02-09 00:00;METAR CYQM 090000Z 04003KT 15SM BKN055 OVC100 02/M02 A2997 RMK SC6AC2 SLP153=
CYQM;2005-02-09 01:52;SPECI CYQM 090152Z 13003KT 12SM -SHRA BKN040 OVC100 RMK SC6AC2=
CYQM;2005-02-09 03:00;METAR CYQM 090300Z 00000KT 12SM -SHRA BKN040 OVC100 00/M02 A2993 RMK SC6AC2 SLP140=
CYQM;2005-02-09 03:40;SPECI CYQM 090340Z 01002KT 12SM BKN035 OVC100 RMK SC6AC2=
CYQM;2005-02-09 05:00;METAR CYQM 090500Z 05002KT 12SM -FZDZ OVC030 M01/M02 A2990 RMK SC8 SLP130=
CYQM;2005-02-09 05:28;SPECI CYQM 090528Z 00000KT 12SM OVC030 REFZDZ RMK SC8=
CYQM;2005-02-09 05:54;SPECI CYQM 090554Z 36002KT 12SM -FZDZ OVC037 RMK SC8=
CYQM;2005-02-09 06:00;METAR CYQM 090600Z 36002KT 12SM -FZDZ OVC037 M00/M01 A2990 RMK SC8 SLP129=
CYQM;2005-02-09 06:42;SPECI CYQM 090642Z 36002KT 12SM FEW035 BKN070 REFZDZ RMK SC2AC4=
CYQM;2005-02-09 07:00;METAR CYQM 090700Z 00000KT 12SM FEW040 BKN070 M00/M02 A2988 REFZDZ RMK SC2AC6 SLP121=
CYQM;2005-02-09 07:49;SPECI CYQM 090749Z 00000KT 12SM -FZDZ BKN035 OVC070 RMK SC5AC3=
CYQM;2005-02-09 08:00;METAR CYQM 090800Z 00000KT 12SM -FZDZ BKN035 OVC070 M00/M02 A2987 RMK SC5AC3 SLP118=
CYQM;2005-02-09 09:00;METAR CYQM 090900Z 00000KT 12SM FEW035 OVC070 M01/M02 A2986 REFZDZ RMK SC2AC6 SLP115=
CYQM;2005-02-09 10:00;METAR CYQM 091000Z 08002KT 12SM FEW035 BKN075 M01/M01 A2985 RMK SC2AC6 SLP112=
CYQM;2005-02-09 11:00;METAR CYQM 091100Z 00000KT 12SM FEW020 OVC075 M01/M01 A2986 RMK SC1AC7 SLP114=
CYQM;2005-02-09 12:00;METAR CYQM 091200Z 12003KT 15SM FEW035 BKN075 OVC120 M00/M01 A2986 RMK SC1AC5AC2 VIS W 8 SLP114=
CYQM;2005-02-09 13:00;METAR CYQM 091300Z 17003KT 15SM FEW035 SCT075 BKN120 00/M01 A2985 RMK SC1AC3AC4 VIS W 7 SLP113=
CYQM;2005-02-09 15:00;METAR CYQM 091500Z 23004KT 15SM FEW075 BKN120 BKN250 03/M01 A2986 RMK AC1AC5CI1 SLP114=
CYQM;2005-02-09 16:00;METAR CYQM 091600Z 26004KT 15SM FEW040 SCT075 OVC120 03/00 A2984 RMK SC1AC3AC4 SLP108=
CYQM;2005-02-09 17:00;METAR CYQM 091700Z 26003KT 15SM SCT075 OVC120 05/M00 A2982 RMK AC3AC5 SLP101=
CYQM;2005-02-09 18:00;METAR CYQM 091800Z 27002KT 15SM FEW070 BKN090 OVC120 04/00 A2980 RMK AC1AC6AC2 SLP095=
CYQM;2005-02-09 21:00;METAR CYQM 092100Z 30006KT 15SM OVC035 04/01 A2982 RMK SC8 SLP102=
CYQM;2005-02-09 22:00;METAR CYQM 092200Z 07002KT 15SM OVC035 03/M00 A2983 RMK SC8 SLP105=
CYQM;2005-02-09 23:00;METAR CYQM 092300Z 00000KT 15SM OVC025 02/M00 A2984 RMK SC8 SLP110=
CYQM;2005-02-10 00:00;METAR CYQM 100000Z 36002KT 15SM OVC025 02/M01 A2986 RMK SC8 SLP115=
CYQM;2005-02-10 00:55;SPECI CYQM 100055Z 06002KT 15SM OVC013 RMK SC8=
CYQM;2005-02-10 01:00;METAR CYQM 100100Z 05002KT 15SM OVC013 01/M01 A2985 RMK SC8 SLP113=
CYQM;2005-02-10 02:55;SPECI CYQM 100255Z 00000KT 15SM SCT013 OVC025 RMK SC3SC5=
CYQM;2005-02-10 03:00;METAR CYQM 100300Z 00000KT 15SM SCT013 OVC025 01/M01 A2986 RMK SC3SC5 SLP116=
CYQM;2005-02-10 04:00;METAR CYQM 100400Z 05002KT 15SM FEW013 OVC025 01/M00 A2986 RMK SC1SC7 SLP117=
CYQM;2005-02-10 04:51;SPECI CYQM 100451Z 03011KT 12SM -SHSN OVC018 RMK SC8=
CYQM;2005-02-10 05:00;METAR CYQM 100500Z 04010KT 12SM -SHSN OVC018 00/M01 A2986 RMK SC8 SLP117=
CYQM;2005-02-10 05:25;SPECI CYQM 100525Z 03012KT 15SM OVC018 RMK SC8=
CYQM;2005-02-10 06:00;METAR CYQM 100600Z 05006KT 15SM FEW018 OVC025 M00/M03 A2987 RMK SC2SC6 SLP118=
CYQM;2005-02-10 07:00;METAR CYQM 100700Z 01012KT 15SM FEW010 OVC025 M01/M03 A2989 RMK SF1SC7 SLP124=
CYQM;2005-02-10 07:16;SPECI CYQM 100716Z 03010G16KT 15SM -SHSN FEW010 OVC025 RMK SF1SC7=
CYQM;2005-02-10 08:00;METAR CYQM 100800Z 02011KT 12SM -SHSN FEW010 OVC025 M01/M03 A2988 RMK SF1SC7 SLP123=
CYQM;2005-02-10 08:53;SPECI CYQM 100853Z 02010KT 8SM -SHSN FEW007 OVC012 RMK SF2SC6=
CYQM;2005-02-10 09:00;METAR CYQM 100900Z 03008KT 8SM -SHSN FEW007 OVC012 M02/M03 A2988 RMK SF2SC6 SLP121=
CYQM;2005-02-10 09:26;SPECI CYQM 100926Z 01008KT 7SM -SN OVC005 RMK ST8=
CYQM;2005-02-10 10:00;METAR CYQM 101000Z 02010KT 4SM -SN OVC005 M02/M03 A2987 RMK ST8 SLP120=
CYQM;2005-02-10 11:00;METAR CYQM 101100Z 05009KT 10SM -SN BKN006 OVC013 M02/M03 A2988 RMK SF6SC2 SLP122=
CYQM;2005-02-10 11:53;SPECI CYQM 101153Z 05010KT 10SM -SN SCT006 OVC015 RMK SF4SC4=
CYQM;2005-02-10 12:00;METAR CYQM 101200Z 05006KT 10SM -SN SCT006 OVC015 M02/M03 A2989 RMK SF3SC5 SLP127=
CYQM;2005-02-10 13:00;METAR CYQM 101300Z 06007KT 12SM -SN FEW006 OVC020 M02/M03 A2992 RMK SF1SC7 SLP134=
CYQM;2005-02-10 14:47;SPECI CYQM 101447Z 05010KT 10SM -SN BKN008 OVC015 RMK SF6SC2=
CYQM;2005-02-10 15:00;METAR CYQM 101500Z 04011KT 10SM -SN BKN008 OVC015 M02/M04 A2989 RMK SF6SC2 SLP126=
CYQM;2005-02-10 16:00;METAR CYQM 101600Z 03011KT 15SM -SHSN BKN008 OVC015 M02/M04 A2986 RMK SC6SC2 SLP116=
CYQM;2005-02-10 17:04;SPECI CYQM 101704Z 05012KT 2 1/2SM -SHSN BKN009 OVC015 RMK SC7SC1=
CYQM;2005-02-10 17:36;SPECI CYQM 101736Z 06012G18KT 1 1/4SM -SHSN BKN009 OVC015 RMK SC7SC1=
CYQM;2005-02-10 18:00;METAR CYQM 101800Z 05012G17KT 1 1/4SM -SHSN BKN009 OVC015 M02/M04 A2980 RMK SC7SC1 SLP096=
CYQM;2005-02-10 18:05;SPECI CYQM 101805Z 06013KT 3/4SM R29/P6000FT/N R06/P6000FT/D -SN BKN008 OVC015 RMK SC7SC1=
CYQM;2005-02-10 18:24;SPECI CYQM 101824Z 05013G18KT 1SM R29/P6000FT/N R06/P6000FT/N -SN BKN008 OVC015 RMK SC7SC1=
CYQM;2005-02-10 18:48;SPECI CYQM 101848Z 04011G16KT 1 1/2SM -SN BKN008 OVC015 RMK SC6SC2=
CYQM;2005-02-10 19:00;METAR CYQM 101900Z 05010G18KT 1 1/2SM -SN DRSN BKN008 OVC015 M03/M04 A2978 RMK SC7SC1 SLP087=
CYQM;2005-02-10 20:00;METAR CYQM 102000Z 05013KT 1 1/4SM -SN DRSN OVC006 M03/M03 A2976 RMK SF8 SLP082=
CYQM;2005-02-10 20:05;SPECI CYQM 102005Z 05012G17KT 3/4SM R29/P6000FT/D R06/P6000FT/D -SN=
CYQM;2005-02-10 20:19;SPECI CYQM 102019Z 06011G16KT 5/8SM R29/5000FT/D R06/4000FT/D -SN DRSN OVC006 RMK SN3SF5=
CYQM;2005-02-10 20:35;SPECI CYQM 102035Z 05013KT 3/8SM R29/3500FT/N R06/3000FT/D SN DRSN OVC005 RMK SN5SF3=
CYQM;2005-02-10 21:30;SPECI CYQM 102130Z 05013G19KT 1SM R29/P6000FT/U R06/5000FT/U -SN DRSN OVC005 RMK SN5SF3=
CYQM;2005-02-10 22:00;METAR CYQM 102200Z 04018KT 5/8SM R29/4500VP6000FT/D R06/1800V5000FT/D -SN DRSN VV005 M03/M04 A2969 RMK SN8 /S03/ SLP058=
CYQM;2005-02-10 22:08;SPECI CYQM 102208Z 05017G24KT 3/8SM R29/2400V4500FT/D R06/2000FT/N SN DRSN VV003 RMK SN8=
CYQM;2005-02-10 22:47;SPECI CYQM 102247Z 05019G28KT 1/4SM R29/1400V3000FT/N R06/2200FT/U +SN DRSN VV001 RMK SN8=
CYQM;2005-02-10 23:00;METAR CYQM 102300Z 05014G25KT 1/4SM R29/1200FT/N R06/1800FT/N +SN DRSN VV001 M03/M04 A2966 RMK SN8 /S06/ SLP049=
CYQM;2005-02-10 23:37;SPECI CYQM 102337Z 05016G22KT 3/8SM R29/2200FT/N R06/2600FT/N SN DRSN VV003 RESN RMK SN8=
CYQM;2005-02-11 00:00;METAR CYQM 110000Z 04017KT 3/4SM R29/2800V4000FT/D R06/2800FT/N -SN DRSN VV006 M03/M04 A2964 RESN RMK SN8 /S10/ SLP040=
CYQM;2005-02-11 00:35;SPECI CYQM 110035Z 04017G27KT 3/8SM R29/1100V2800FT/D R06/0900V1400FT/N SN DRSN VV003 RMK SN8=
CYQM;2005-02-11 01:15;SPECI CYQM 110115Z 04019G30KT 1/4SM R29/1400V2000FT/N R06/1400V2000FT/N SN +BLSN VV002 RMK SN8=
CYQM;2005-02-11 01:42;SPECI CYQM 110142Z 04023G28KT 1SM R29/P6000FT/D R06/3500V6000FT/U -SNPL=
CYQM;2005-02-11 02:00;METAR CYQM 110200Z 05018G26KT 1 1/4SM -SNPL DRSN OVC008 M03/M04 A2950 RESN RMK SF8 /S04/ PRESFR SLP995=
CYQM;2005-02-11 03:10;SPECI CYQM 110310Z 04018G25KT 7SM -PL -FZRA BKN005 OVC020 RMK SF7NS1=
CYQM;2005-02-11 03:37;SPECI CYQM 110337Z 05015G22KT 8SM -FZRA BKN005 OVC020 RMK SF7NS1=
CYQM;2005-02-11 04:00;METAR CYQM 110400Z 06016G24KT 8SM -FZRA OVC005 M01/M01 A2936 RMK SF8 PRESFR SLP946=
CYQM;2005-02-11 05:00;METAR CYQM 110500Z 06009G20KT 4SM -FZRA BR OVC005 M01/M01 A2929 RMK SF8 PRESFR SLP922=
CYQM;2005-02-11 05:27;SPECI CYQM 110527Z 05009KT 6SM -RA BR OVC007 REFZRA RMK SF8 D.B. TEMP 0.1=
CYQM;2005-02-11 08:50;SPECI CYQM 110850Z 14003KT 3SM BR OVC003 RMK ST8 VIS W 12=
CYQM;2005-02-11 09:00;METAR CYQM 110900Z 12004KT 1 1/2SM BR OVC003 01/01 A2912 RMK ST8 VIS W 8 SLP866=
CYQM;2005-02-11 09:10;SPECI CYQM 110910Z 00000KT 1SM R29/5000FT/U R06/4000VP6000FT/D BR OVC003 RMK ST8=
CYQM;2005-02-11 09:41;SPECI CYQM 110941Z 35003KT 5/8SM R29/3000FT/N R06/3000FT/D BR OVC002 RMK ST8=
CYQM;2005-02-11 10:00;METAR CYQM 111000Z 00000KT 5/8SM R29/2200FT/N R06/2200FT/N BR OVC002 01/01 A2912 RMK ST8 SLP863=
CYQM;2005-02-11 10:05;SPECI CYQM 111005Z 00000KT 3/8SM R29/2000FT/N R06/2000FT/N FG OVC002 RMK ST8=
CYQM;2005-02-11 11:00;METAR CYQM 111100Z 02003KT 1/2SM R29/3000FT/N R06/2800FT/N FG OVC002 00/00 A2912 RMK ST8 SLP863=
CYQM;2005-02-11 12:00;METAR CYQM 111200Z 31003KT 1/2SM R29/1800V2800FT/N R06/2400FT/N FG OVC001 00/00 A2912 RMK ST8 SLP863=
CYQM;2005-02-11 13:00;METAR CYQM 111300Z 20005KT 1/2SM R29/2000FT/N R06/2400FT/N FG OVC001 01/01 A2914 RMK ST8 SLP870=
CYQM;2005-02-11 14:00;METAR CYQM 111400Z 23003KT 1/2SM R29/3200FT/N R06/2000FT/N FG OVC001 02/02 A2914 RMK ST8 SLP870=
CYQM;2005-02-11 14:07;SPECI CYQM 111407Z 17003KT 1/2SM R29/3200FT/N R06/2000FT/N -DZ FG OVC001 RMK ST8=
CYQM;2005-02-11 14:48;SPECI CYQM 111448Z 15002KT 3/4SM -DZ BR OVC002 RMK SF8=
CYQM;2005-02-11 15:00;METAR CYQM 111500Z 15002KT 3/4SM R29/P6000FT/N R06/1800V2800FT/U -DZ BR OVC002 02/02 A2912 RMK SF8 SLP863=
CYQM;2005-02-11 15:17;SPECI CYQM 111517Z 16004KT 1 1/4SM -DZ BR OVC004 RMK SF8=
CYQM;2005-02-11 15:34;SPECI CYQM 111534Z 17005KT 2SM -DZ BR OVC004 RMK SF8=
CYQM;2005-02-11 16:00;METAR CYQM 111600Z 16009KT 3SM -DZ BR OVC004 03/03 A2912 RMK SF8 SLP863=
CYQM;2005-02-11 17:23;SPECI CYQM 111723Z 15010KT 5SM BR OVC005 RMK SF8=
CYQM;2005-02-11 17:50;SPECI CYQM 111750Z 15008KT 5SM -SHRA BR OVC006 RMK SF8=
CYQM;2005-02-11 18:00;METAR CYQM 111800Z 15007KT 3SM -SHRA BR OVC006 02/01 A2906 RMK SF8 SLP844=
CYQM;2005-02-11 18:31;SPECI CYQM 111831Z 15007KT 6SM BR BKN008 BKN015 RMK SF6SC2=
CYQM;2005-02-11 18:34;SPECI CYQM 111834Z 15011KT 6SM -SHSN BKN008 BKN015 RMK SF6SC2=
CYQM;2005-02-11 19:00;METAR CYQM 111900Z 17011KT 6SM -SHSN BKN008 BKN015 02/01 A2906 RMK SF6SC2 SLP842=
CYQM;2005-02-11 19:28;SPECI CYQM 111928Z 18011KT 2SM -DZSN BR BKN006 OVC012 RMK SF6SC2=
CYQM;2005-02-11 19:49;SPECI CYQM 111949Z 19008KT 4SM -SN BR BKN007 OVC012 RMK SF6SC2=
CYQM;2005-02-11 20:20;SPECI CYQM 112020Z 18008KT 12SM BKN011 OVC020 RMK SC5SC3=
CYQM;2005-02-11 21:00;METAR CYQM 112100Z 19009KT 12SM -SHSN BKN011 OVC020 00/M00 A2906 RMK SC5SC3 SLP845=
CYQM;2005-02-11 22:00;METAR CYQM 112200Z 21005KT 12SM FEW008 BKN012 OVC030 M00/M02 A2906 RMK CU1SC6SC1 SH NE SLP844=
CYQM;2005-02-11 22:26;SPECI CYQM 112226Z 21007KT 15SM FEW015 BKN032 OVC045 RMK SC2SC4SC2 SH NE=
CYQM;2005-02-11 23:00;METAR CYQM 112300Z 22005KT 15SM FEW017 BKN035 M01/M02 A2904 RMK SC1SC6 SLP838=
CYQM;2005-02-12 00:00;METAR CYQM 120000Z 23003KT 15SM -SHSN BKN045 BKN070 M01/M03 A2904 RMK SC6AC1 SLP837=
CYQM;2005-02-12 00:30;SPECI CYQM 120030Z 22003KT 8SM -SHSN FEW008 BKN025 BKN045 RMK SF1SC6SC1=
CYQM;2005-02-12 00:43;SPECI CYQM 120043Z 23003KT 8SM -SHSNGS FEW008 BKN022 OVC045 RMK SF1SC6SC1=
CYQM;2005-02-12 01:00;METAR CYQM 120100Z 24008KT 8SM -SHSNGS FEW010 BKN025 OVC045 M01/M03 A2902 RMK SF1SC6SC1 SLP832=
CYQM;2005-02-12 01:25;SPECI CYQM 120125Z 23006KT 8SM -SHSN BKN025 OVC045 RMK SC7SC1=
CYQM;2005-02-12 02:15;SPECI CYQM 120215Z 22009KT 2 1/2SM -SN OVC022 RMK SN2SC6=
CYQM;2005-02-12 02:36;SPECI CYQM 120236Z 22008KT 1 1/2SM -SN VV013 RMK SN8=
CYQM;2005-02-12 03:00;METAR CYQM 120300Z 24012KT 2SM -SN OVC015 M02/M03 A2898 RMK SN6SC2 /S01/ SLP818=
CYQM;2005-02-12 04:00;METAR CYQM 120400Z 22010KT 1 3/4SM -SN VV013 M03/M04 A2897 RMK SN8 /S02/ SLP813=
CYQM;2005-02-12 04:35;SPECI CYQM 120435Z 22009KT 5SM -SN BKN020 OVC065 RMK SC6SC2=
CYQM;2005-02-12 05:00;METAR CYQM 120500Z 21007KT 8SM -SN FEW020 BKN060 M03/M04 A2896 RMK SC2SC6 SLP811=
CYQM;2005-02-12 05:24;SPECI CYQM 120524Z 20008KT 2 1/2SM -SN BKN017 OVC060 RMK SN1SC6SC2=
CYQM;2005-02-12 06:00;METAR CYQM 120600Z 23017G26KT 3SM -SN DRSN BKN009 BKN015 OVC060 M03/M04 A2897 RMK SC6SC1SC1 SLP815=
CYQM;2005-02-12 06:46;SPECI CYQM 120646Z 25017G24KT 1 1/2SM -SN DRSN VV013 RMK SN8=
CYQM;2005-02-12 07:00;METAR CYQM 120700Z 25015G21KT 1 1/4SM -SN DRSN VV012 M05/M06 A2899 RMK SN8 SLP820=
CYQM;2005-02-12 07:06;SPECI CYQM 120706Z 24017G22KT 3/4SM R06/P6000FT/U R29/P6000FT/D -SN=
CYQM;2005-02-12 08:45;SPECI CYQM 120845Z 25021G28KT 5SM -SN DRSN BKN017 BKN045 OVC100 RMK SC6SC1AC1=
CYQM;2005-02-12 09:00;METAR CYQM 120900Z 24023G30KT 8SM -SN DRSN BKN017 BKN100 M06/M08 A2904 RMK SC6AC1 SLP838=
CYQM;2005-02-12 11:00;METAR CYQM 121100Z 25022KT 12SM -SN DRSN SCT045 BKN100 M07/M09 A2912 RMK SC4AC2 SLP863=
CYQM;2005-02-12 11:17;SPECI CYQM 121117Z 25020G27KT 12SM DRSN FEW020 SCT045 BKN100 RMK SC2SC2AC2=
CYQM;2005-02-12 12:00;METAR CYQM 121200Z 24024KT 12SM DRSN FEW020 FEW045 SCT100 M08/M10 A2916 RMK CU2SC1AC1 SLP879=
CYQM;2005-02-12 13:00;METAR CYQM 121300Z 24023G32KT 12SM DRSN SCT025 M06/M08 A2919 RMK CU3 SLP890=
CYQM;2005-02-12 14:00;METAR CYQM 121400Z 25023G31KT 12SM DRSN FEW025 M06/M08 A2922 RMK CU1 SLP898=
CYQM;2005-02-12 15:00;METAR CYQM 121500Z 23022G29KT 12SM DRSN FEW025 M05/M09 A2926 RMK CU1 SLP912=
CYQM;2005-02-12 17:00;METAR CYQM 121700Z 24020G25KT 15SM FEW025 M04/M09 A2929 RMK CU1 SLP924=
CYQM;2005-02-12 18:00;METAR CYQM 121800Z 23022G27KT 15SM FEW025 M03/M09 A2932 RMK CU1 SLP932=
CYQM;2005-02-12 22:00;METAR CYQM 122200Z 24011KT 15SM FEW160 BKN250 M03/M07 A2946 RMK AC1CI2 SLP981=
CYQM;2005-02-13 00:00;METAR CYQM 130000Z 21006KT 15SM SCT250 M05/M08 A2953 RMK CI2 SLP006=
CYQM;2005-02-13 03:00;METAR CYQM 130300Z 23007KT 15SM SKC M06/M08 A2961 RMK FROIN SLP032=
CYQM;2005-02-13 04:00;METAR CYQM 130400Z 24005KT 15SM SKC M07/M08 A2962 RMK FROIN SLP036=
CYQM;2005-02-13 05:00;METAR CYQM 130500Z 23006KT 15SM SKC M09/M09 A2963 RMK FROIN SLP037=
CYQM;2005-02-13 07:00;METAR CYQM 130700Z 22007KT 15SM FEW035 FEW110 SCT260 M09/M09 A2966 RMK SC2AC1CI0 FROIN SLP048=
CYQM;2005-02-13 08:00;METAR CYQM 130800Z 21007KT 15SM SKC M10/M11 A2968 RMK FROIN SLP056=
CYQM;2005-02-13 10:00;METAR CYQM 131000Z 21004KT 15SM BKN035 BKN100 M10/M12 A2973 RMK SC5AC1 SLP073=
CYQM;2005-02-13 12:00;METAR CYQM 131200Z 27004KT 15SM BKN040 BKN100 M10/M11 A2980 RMK SC6AC1 SLP095=
CYQM;2005-02-13 13:00;METAR CYQM 131300Z 34006KT 15SM BKN040 BKN100 M07/M09 A2982 RMK SC6AC1 SLP103=
CYQM;2005-02-13 14:00;METAR CYQM 131400Z 32009KT 15SM BKN035 BKN100 M06/M11 A2984 RMK SC5AC2 SLP109=
CYQM;2005-02-13 15:00;METAR CYQM 131500Z 32013KT 15SM BKN045 BKN100 M05/M11 A2985 RMK SC5AC2 SLP112=
CYQM;2005-02-13 16:00;METAR CYQM 131600Z 32014KT 15SM BKN050 M04/M11 A2987 RMK SC6 SLP119=
CYQM;2005-02-13 17:00;METAR CYQM 131700Z 30012KT 15SM BKN050 M03/M10 A2987 RMK SC5 SLP119=
CYQM;2005-02-13 19:00;METAR CYQM 131900Z 33012KT 15SM SCT040 BKN070 M03/M10 A2992 RMK SC3AC2 SLP135=
CYQM;2005-02-13 21:00;METAR CYQM 132100Z 33011KT 15SM BKN045 M04/M10 A2998 RMK SC7 SLP159=
CYQM;2005-02-13 22:00;METAR CYQM 132200Z 32009KT 15SM -SHSN BKN035 BKN120 M04/M08 A3003 RMK SC7AC1 SLP174=
CYQM;2005-02-13 22:33;SPECI CYQM 132233Z 32008KT 15SM BKN035 RMK SC7 VIRGA=
CYQM;2005-02-13 23:00;METAR CYQM 132300Z 32011KT 15SM BKN035 M05/M10 A3008 RMK SC7 VIRGA W SLP190=
CYQM;2005-02-13 23:32;SPECI CYQM 132332Z 31006KT 15SM -SHSN BKN037 RMK SC7=
CYQM;2005-02-14 00:00;METAR CYQM 140000Z 29010KT 15SM BKN037 M05/M10 A3012 RMK SC7 SLP205=
CYQM;2005-02-14 01:00;METAR CYQM 140100Z 29012KT 15SM BKN037 BKN100 M06/M10 A3016 RMK SC6AC1 SLP217=
CYQM;2005-02-14 02:00;METAR CYQM 140200Z 27009KT 15SM SKC M08/M16 A3019 RMK SLP227=
CYQM;2005-02-14 03:00;METAR CYQM 140300Z 26009KT 15SM SKC M09/M12 A3021 RMK SLP235=
CYQM;2005-02-14 04:00;METAR CYQM 140400Z 23010KT 15SM SKC M11/M13 A3023 RMK SLP243=
CYQM;2005-02-14 05:00;METAR CYQM 140500Z 23007KT 15SM SKC M11/M13 A3027 RMK SLP255=
CYQM;2005-02-14 06:00;METAR CYQM 140600Z 24009KT 15SM SKC M12/M14 A3029 RMK SLP264=
CYQM;2005-02-15 09:00;METAR CYQM 150900Z 16012G17KT 15SM FEW040 BKN130 OVC230 M04/M06 A3033 RMK SC1AS6CI1 SLP277=
CYQM;2005-02-15 10:00;METAR CYQM 151000Z 16012G21KT 15SM FEW008 SCT040 OVC100 M04/M05 A3030 RMK SF1SC3AC5 SLP267=
CYQM;2005-02-15 12:00;METAR CYQM 151200Z 15012G17KT 15SM FEW025 BKN040 OVC100 M02/M04 A3027 RMK SC2SC4AC2 SLP255=
CYQM;2005-02-15 13:00;METAR CYQM 151300Z 16016G24KT 15SM FEW025 BKN040 OVC100 M01/M03 A3025 RMK SC2SC5AC2 SLP248=
CYQM;2005-02-15 14:17;SPECI CYQM 151417Z 15016G26KT 15SM -SHSN FEW025 BKN040 OVC100 RMK SC1SC4AC3 BINOVC=
CYQM;2005-02-15 15:00;METAR CYQM 151500Z 15021G29KT 8SM -SHSN DRSN BKN025 BKN040 OVC100 00/M02 A3016 RMK SC5SC2AC1 PRESFR SLP217=
CYQM;2005-02-15 16:00;METAR CYQM 151600Z 17017G24KT 3SM -SHSN DRSN BKN015 OVC025 01/M01 A3011 RMK SC5SC3 SLP202=
CYQM;2005-02-15 17:00;METAR CYQM 151700Z 16020G28KT 12SM -SN BKN015 OVC025 01/00 A3006 RMK SC5SC3 SLP185=
CYQM;2005-02-15 17:25;SPECI CYQM 151725Z 16014G25KT 15SM -RASN BKN015 OVC025 RMK SC5SC3=
CYQM;2005-02-15 18:00;METAR CYQM 151800Z 16019G25KT 15SM -RASN BKN015 OVC025 01/01 A3000 RMK SC6SC2 PRESFR SLP164=
CYQM;2005-02-15 18:08;SPECI CYQM 151808Z 15019G29KT 15SM -RA BKN015 OVC025 RMK SC6SC2=
CYQM;2005-02-15 18:26;SPECI CYQM 151826Z 16020G29KT 15SM -RA FEW008 BKN015 BKN100 RMK SF1SC6AC1 PCPN VRY LGT=
CYQM;2005-02-15 19:00;METAR CYQM 151900Z 16015G26KT 15SM -RA SCT008 BKN015 BKN120 02/01 A2996 RMK SF3SC3AC1 PCPN VRY LGT SLP151=
CYQM;2005-02-15 20:00;METAR CYQM 152000Z 16021G28KT 15SM -RA SCT008 BKN015 OVC120 03/02 A2994 RMK SF4SC3AC1 SLP142=
CYQM;2005-02-15 20:38;SPECI CYQM 152038Z 16020G29KT 15SM VCSH SCT008 BKN025 BKN120 RMK SF3SC2AC2=
CYQM;2005-02-15 21:00;METAR CYQM 152100Z 17018G28KT 15SM VCSH SCT008 BKN025 BKN120 04/03 A2992 RMK SF3SC3AC1 SLP137=
CYQM;2005-02-15 21:14;SPECI CYQM 152114Z 17017G25KT 15SM OVC007 RMK SF8=
CYQM;2005-02-15 22:00;METAR CYQM 152200Z 18012G18KT 15SM VCSH OVC007 04/04 A2994 RMK SF8 SLP142=
CYQM;2005-02-15 22:42;SPECI CYQM 152242Z 18012KT 15SM SCT008 BKN013 OVC024 RMK SF3SC3SC2=
CYQM;2005-02-15 23:00;METAR CYQM 152300Z 21010KT 15SM FEW008 SCT013 OVC021 05/03 A2995 RMK SF1SC3SC4 SLP145=
CYQM;2005-02-15 23:42;SPECI CYQM 152342Z 18009KT 15SM OVC012 RMK SC8=
CYQM;2005-02-16 00:00;METAR CYQM 160000Z 18009KT 15SM OVC010 05/04 A2995 RMK SC8 SLP145=
CYQM;2005-02-16 00:18;SPECI CYQM 160018Z 20006KT 15SM OVC009 RMK SC8=
CYQM;2005-02-16 01:00;METAR CYQM 160100Z 19010KT 15SM BKN009 OVC013 05/04 A2993 RMK SF6SC2 SLP140=
CYQM;2005-02-16 01:38;SPECI CYQM 160138Z 21007KT 10SM -DZ SCT008 OVC011 RMK SF3SC5=
CYQM;2005-02-16 02:25;SPECI CYQM 160225Z 25011KT 7SM -DZ BKN006 OVC009 RMK SF6SF2=
CYQM;2005-02-16 02:40;SPECI CYQM 160240Z 24012KT 8SM SCT006 OVC017 RMK SF3SC5 INTMT L-=
CYQM;2005-02-16 03:00;METAR CYQM 160300Z 22011G16KT 8SM -DZ FEW006 BKN012 OVC016 04/03 A2998 RMK SF2SF3SC3 L-INTMT SLP156=
CYQM;2005-02-16 03:25;SPECI CYQM 160325Z 22008KT 15SM FEW006 OVC013 RMK SF2SC6=
CYQM;2005-02-16 04:00;METAR CYQM 160400Z 23007KT 15SM FEW006 BKN008 OVC013 03/03 A2999 RMK SF1SF6SC1 SLP159=
CYQM;2005-02-16 04:21;SPECI CYQM 160421Z 23009KT 15SM SCT008 OVC021 RMK SF3SC5=
CYQM;2005-02-16 05:00;METAR CYQM 160500Z 26009KT 15SM BKN005 BKN008 OVC013 03/03 A3000 RMK SF6SF2SC1 SLP161=
CYQM;2005-02-16 05:10;SPECI CYQM 160510Z 26009KT 15SM FEW006 BKN018 OVC250 RMK SF1SC6CI1=
CYQM;2005-02-16 05:39;SPECI CYQM 160539Z 22004KT 15SM FEW008 SCT250 RMK SF1CI2=
CYQM;2005-02-16 06:00;METAR CYQM 160600Z 22005KT 12SM FEW008 SCT250 02/02 A2999 RMK SF1CI1 SLP160=
CYQM;2005-02-16 07:42;SPECI CYQM 160742Z 22004KT 1 1/4SM R29/P6000FT/N R06/2600VP6000FT/D BR VCFG BKN250 RMK FG2CI1 VIS NE 8=
CYQM;2005-02-16 07:46;SPECI CYQM 160746Z 20005KT 3/4SM R29/P6000FT/N R06/2400VP6000FT/D BR=
CYQM;2005-02-16 08:00;METAR CYQM 160800Z 21006KT 3/4SM R29/P6000FT/N R06/3000VP6000FT/U BR PRFG SKC 00/00 A2999 RMK FG6 VIS W 3/8 SLP160=
CYQM;2005-02-16 08:08;SPECI CYQM 160808Z 20006KT 3SM R29/P6000FT/N R06/3500VP6000FT/D BR=
CYQM;2005-02-16 09:00;METAR CYQM 160900Z 18007KT 8SM R29/3500VP6000FT/D R06/P6000FT/U VCFG FEW030 BKN250 00/00 A2999 RMK SC1CI2 VIS W-NW 21/2 SLP158=
CYQM;2005-02-16 09:44;SPECI CYQM 160944Z 19008KT 3/4SM R06/3500VP6000FT/D R29/P6000FT/N BR=
CYQM;2005-02-16 10:00;METAR CYQM 161000Z 18006KT 1/2SM R06/2200FT/D R29/P6000FT/N FZFG BKN130 M01/M01 A2998 RMK FG5AC2 VIS E 6 SLP157=
CYQM;2005-02-16 10:09;SPECI CYQM 161009Z 18005KT 1/8SM R06/1800FT/N R29/P6000FT/N FZFG SKC RMK FG6=
CYQM;2005-02-16 11:11;SPECI CYQM 161111Z 14003KT 3/4SM R06/2400VP6000FT/U R29/P6000FT/D BR FEW035 BKN160 OVC250 RMK SC1AC4CI2 VIS N -E 8=
CYQM;2005-02-16 11:21;SPECI CYQM 161121Z 14005KT 1 1/2SM BR FEW140 BKN240 RMK AC2CI4 VIS N - E 8=
CYQM;2005-02-16 11:37;SPECI CYQM 161137Z 00000KT 1SM R06/3500VP6000FT/D R29/P6000FT/N BR FEW140 BKN250 RMK AC2CI4 VIS NE - E 10=
CYQM;2005-02-16 12:00;METAR CYQM 161200Z 13003KT 1 1/2SM BR FEW008 FEW130 BKN240 M01/M01 A2998 RMK SF1AC2CI4 VIS N - E 10 SLP156=
CYQM;2005-02-16 12:23;SPECI CYQM 161223Z 14007KT 4SM BR FEW140 BKN240 RMK AC2CI4 VIS NW - N 11/2=
CYQM;2005-02-16 13:00;METAR CYQM 161300Z 17004KT 4SM BR VCFG FEW005 FEW120 BKN170 BKN240 01/01 A2998 RMK SF1AC2AC5CI1 VIS NW - N 11/2 SLP157=
CYQM;2005-02-16 14:00;METAR CYQM 161400Z 15008KT 7SM SCT120 BKN230 03/02 A2996 RMK AC3CI3 SLP149=
CYQM;2005-02-16 15:00;METAR CYQM 161500Z 14010KT 10SM FEW008 FEW120 BKN240 04/02 A2993 RMK SF1AC1CS5 HALO SLP140=
CYQM;2005-02-16 16:00;METAR CYQM 161600Z 13012G17KT 12SM FEW008 FEW120 BKN250 04/02 A2989 RMK CF1AC1CI3 SLP127=
CYQM;2005-02-16 17:00;METAR CYQM 161700Z 17012G17KT 15SM FEW007 SCT130 BKN260 05/02 A2987 RMK CF1AC3CI1 CC ASOCTD SLP119=
CYQM;2005-02-16 18:00;METAR CYQM 161800Z 16017G22KT 15SM FEW040 SCT130 BKN260 05/02 A2984 RMK SC1AC4CI1 SLP107=
CYQM;2005-02-16 19:00;METAR CYQM 161900Z 15011KT 15SM FEW040 SCT130 BKN270 05/02 A2982 RMK SC1AC4CI1 SLP100=
CYQM;2005-02-16 21:00;METAR CYQM 162100Z 15012KT 15SM BKN060 BKN110 BKN270 03/02 A2978 RMK SC6AC1CI0 VIRGA SLP086=
CYQM;2005-02-16 22:00;METAR CYQM 162200Z 14010KT 15SM BKN035 BKN110 BKN270 03/02 A2977 RMK SC6AC1CI0 SLP084=
CYQM;2005-02-17 00:00;METAR CYQM 170000Z 11008KT 15SM BKN045 BKN130 03/02 A2972 RMK SC5AC2 SLP067=
CYQM;2005-02-17 01:00;METAR CYQM 170100Z 11003KT 15SM SCT045 BKN130 02/01 A2972 RMK SC4AC2 SLP066=
CYQM;2005-02-17 02:00;METAR CYQM 170200Z 15009KT 15SM SCT025 BKN045 BKN130 02/01 A2970 RMK SC4SC2AC1 SLP059=
CYQM;2005-02-17 02:53;SPECI CYQM 170253Z 14008KT 15SM OVC015 RMK SC8=
CYQM;2005-02-17 03:31;SPECI CYQM 170331Z 12006KT 15SM OVC011 RMK SC8=
CYQM;2005-02-17 04:00;METAR CYQM 170400Z 15005KT 15SM OVC007 03/02 A2959 RMK SF8 SLP025=
CYQM;2005-02-17 04:21;SPECI CYQM 170421Z 18007KT 15SM OVC004 RMK SF8=
CYQM;2005-02-17 06:00;METAR CYQM 170600Z 18009KT 15SM OVC004 04/03 A2951 RMK SF8 CIG RAG SLP994=
CYQM;2005-02-17 08:25;SPECI CYQM 170825Z 19012G22KT 12SM -SHRA OVC004 RMK SF8 CIG RAG=
CYQM;2005-02-17 09:07;SPECI CYQM 170907Z 17013G19KT 15SM -SHRA FEW004 BKN016 OVC070 RMK SF2SC3AC3=
CYQM;2005-02-17 09:44;SPECI CYQM 170944Z 15015KT 8SM -SHRA BKN007 BKN017 OVC075 RMK SF6SC1AC1=
CYQM;2005-02-17 10:00;METAR CYQM 171000Z 17016G24KT 10SM -SHRA SCT007 OVC027 04/04 A2940 RMK SF4SC4 SLP957=
CYQM;2005-02-17 10:08;SPECI CYQM 171008Z 17015G20KT 8SM -DZ SCT005 BKN012 OVC018 RMK SF3SC2SC2=
CYQM;2005-02-17 10:30;SPECI CYQM 171030Z 17014G19KT 8SM -DZ FEW004 SCT006 OVC010 RMK SF2SF2SC4=
CYQM;2005-02-17 12:20;SPECI CYQM 171220Z 21009KT 10SM BKN012 OVC025 RMK SC6SC2=
CYQM;2005-02-17 13:00;METAR CYQM 171300Z 23018KT 3SM -SHRA BR BKN007 OVC020 04/03 A2944 RMK SF7SC1 SLP972=
CYQM;2005-02-17 13:14;SPECI CYQM 171314Z 23018G24KT 3SM -DZ BR BKN007 OVC020 RMK SF7SC1=
CYQM;2005-02-17 14:00;METAR CYQM 171400Z 24015G21KT 6SM BR BKN010 OVC022 01/01 A2946 RMK SC7SC1 SLP980=
CYQM;2005-02-17 15:00;METAR CYQM 171500Z 23014KT 1 1/2SM -SHSN OVC015 00/M00 A2948 RMK SN4SC4 SLP987=
CYQM;2005-02-17 15:05;SPECI CYQM 171505Z 23019KT 10SM -SHSN OVC015 RMK SC8=
CYQM;2005-02-17 15:16;SPECI CYQM 171516Z 23018KT 15SM OVC017 RMK SC8=
CYQM;2005-02-17 16:00;METAR CYQM 171600Z 27019G24KT 15SM OVC020 M01/M03 A2949 RMK SC8 SLP990=
CYQM;2005-02-17 18:00;METAR CYQM 171800Z 27018G26KT 15SM BKN030 BKN270 M01/M04 A2950 RMK SC7CI1 SLP992=
CYQM;2005-02-17 21:00;METAR CYQM 172100Z 29015KT 15SM FEW035 BKN260 M00/M04 A2954 RMK SC2CI2 SLP008=
CYQM;2005-02-17 22:00;METAR CYQM 172200Z 30012G17KT 15SM FEW035 BKN260 M02/M04 A2957 RMK SC2CI2 SLP017=
CYQM;2005-02-17 23:00;METAR CYQM 172300Z 29010KT 15SM FEW035 BKN260 M02/M06 A2961 RMK SC2CI2 SLP029=
CYQM;2005-02-18 00:00;METAR CYQM 180000Z 30013KT 15SM FEW030 BKN260 M03/M08 A2962 RMK CU1CI2 SLP033=
CYQM;2005-02-18 04:00;METAR CYQM 180400Z 32010G18KT 15SM BKN260 M05/M10 A2964 RMK CI2 SLP041=
CYQM;2005-02-18 05:00;METAR CYQM 180500Z 30008KT 15SM BKN230 M06/M11 A2964 RMK CI3 SLP041=
CYQM;2005-02-18 06:00;METAR CYQM 180600Z 32010KT 15SM BKN230 M07/M11 A2965 RMK CI3 SLP044=
CYQM;2005-02-18 07:00;METAR CYQM 180700Z 32012KT 15SM FEW040 BKN220 M07/M12 A2963 RMK SC2CI3 SLP039=
CYQM;2005-02-18 10:00;METAR CYQM 181000Z 31008KT 15SM BKN250 M08/M12 A2966 RMK CI3 SLP047=
CYQM;2005-02-18 11:00;METAR CYQM 181100Z 30009KT 15SM OVC230 M09/M12 A2966 RMK CI6 SLP047=
CYQM;2005-02-18 12:00;METAR CYQM 181200Z 30008KT 15SM SCT220 BKN260 M09/M12 A2966 RMK CI2CI1 SLP049=
CYQM;2005-02-18 13:00;METAR CYQM 181300Z 31012KT 15SM FEW220 BKN260 M08/M13 A2966 RMK CI2CI2 SLP049=
CYQM;2005-02-18 14:00;METAR CYQM 181400Z 35013KT 15SM FEW220 BKN260 M07/M14 A2967 RMK CI1CI2 SLP051=
CYQM;2005-02-18 16:00;METAR CYQM 181600Z 34012KT 15SM FEW260 M04/M13 A2964 RMK CI1 SLP043=
CYQM;2005-02-18 17:00;METAR CYQM 181700Z 31007G18KT 15SM FEW260 M03/M12 A2963 RMK CI1 SLP038=
CYQM;2005-02-18 19:00;METAR CYQM 181900Z 29008G15KT 15SM FEW030 FEW260 M02/M10 A2962 RMK CU1CI1 SLP036=
CYQM;2005-02-18 20:00;METAR CYQM 182000Z 30014G19KT 15SM BKN040 M01/M11 A2963 RMK CU5 VIRGA SLP039=
CYQM;2005-02-18 21:00;METAR CYQM 182100Z 30008KT 15SM SCT040 M02/M13 A2965 RMK CU4 VIRGA ALQDS SLP046=
CYQM;2005-02-18 22:00;METAR CYQM 182200Z 29009KT 15SM FEW040 FEW260 M03/M12 A2968 RMK CU1CI1 SLP054=
CYQM;2005-02-19 00:00;METAR CYQM 190000Z 29010KT 15SM SKC M05/M14 A2974 RMK SLP075=
CYQM;2005-02-19 01:00;METAR CYQM 190100Z 29009KT 15SM SKC M06/M14 A2976 RMK SLP084=
CYQM;2005-02-19 03:00;METAR CYQM 190300Z 30010KT 15SM FEW260 M08/M14 A2980 RMK CI1 SLP096=
CYQM;2005-02-19 04:00;METAR CYQM 190400Z 31006KT 15SM FEW260 M09/M14 A2982 RMK CI1 SLP102=
CYQM;2005-02-19 10:00;METAR CYQM 191000Z 32010KT 15SM SKC M14/M17 A2997 RMK SLP154=
CYQM;2005-02-19 12:00;METAR CYQM 191200Z 30006KT 15SM FEW130 FEW260 M15/M18 A3004 RMK AC1CI1 SLP178=
CYQM;2005-02-19 14:00;METAR CYQM 191400Z 27008KT 15SM FEW030 FEW130 FEW230 M14/M19 A3007 RMK CU1AC1CI1 SLP189=
CYQM;2005-02-19 15:00;METAR CYQM 191500Z 26006KT 15SM FEW230 M13/M18 A3007 RMK CI1 SLP189=
CYQM;2005-02-19 16:00;METAR CYQM 191600Z 27004KT 15SM FEW230 M12/M19 A3006 RMK CI1 SLP186=
CYQM;2005-02-19 17:00;METAR CYQM 191700Z 23005KT 15SM FEW230 M11/M18 A3006 RMK CI1 SLP185=
CYQM;2005-02-19 18:00;METAR CYQM 191800Z 21006KT 15SM FEW030 FEW230 M10/M18 A3004 RMK CU1CI1 SLP180=
CYQM;2005-02-19 19:00;METAR CYQM 191900Z 24007KT 15SM FEW030 M09/M19 A3004 RMK CU1 SLP180=
CYQM;2005-02-19 20:00;METAR CYQM 192000Z 23010KT 15SM FEW260 M08/M19 A3005 RMK CI1 SLP181=
CYQM;2005-02-19 21:00;METAR CYQM 192100Z 22011KT 15SM FEW260 M09/M19 A3005 RMK CI1 SLP183=
CYQM;2005-02-19 22:00;METAR CYQM 192200Z 23007KT 15SM FEW030 FEW260 M10/M18 A3006 RMK SC1CI1 SLP187=
CYQM;2005-02-20 00:00;METAR CYQM 200000Z 21005KT 15SM SCT260 M11/M19 A3010 RMK CI2 SLP198=
CYQM;2005-02-20 02:00;METAR CYQM 200200Z 22004KT 15SM BKN260 M12/M18 A3011 RMK CI4 SLP203=
CYQM;2005-02-20 03:00;METAR CYQM 200300Z 26006KT 15SM BKN260 M12/M17 A3012 RMK CI4 SLP205=
CYQM;2005-02-20 09:00;METAR CYQM 200900Z 24005KT 15SM FEW120 M15/M18 A3008 RMK AC1 SLP191=
CYQM;2005-02-20 10:00;METAR CYQM 201000Z 22005KT 15SM FEW120 SCT250 M16/M19 A3008 RMK AC1CI1 SLP191=
CYQM;2005-02-20 11:54;SPECI CYQM 201154Z 23011KT 12SM -SHSN FEW030 SCT120 BKN250 RMK SC2AC1CI1 VIS S-NW 5=
CYQM;2005-02-20 12:00;METAR CYQM 201200Z 23012KT 8SM -SHSN SCT030 BKN120 BKN250 M16/M20 A3009 RMK SC3AC2CI1 VIS S-NW 3 SLP195=
CYQM;2005-02-20 13:00;METAR CYQM 201300Z 25010KT 10SM -SHSN DRSN FEW030 FEW120 BKN250 M14/M16 A3009 RMK SC1AC2CI1 VIS LWR E SLP197=
CYQM;2005-02-20 13:17;SPECI CYQM 201317Z 27014KT 15SM FEW020 FEW120 SCT250 RMK CU1AC1CI1=
CYQM;2005-02-20 14:00;METAR CYQM 201400Z 30020G27KT 15SM FEW025 SCT100 BKN250 M12/M19 A3011 RMK CU1AC2CI1 SHS N-NE SLP202=
CYQM;2005-02-20 15:00;METAR CYQM 201500Z 27020G25KT 15SM FEW030 SCT250 M13/M20 A3011 RMK CU1CI1 SLP203=
CYQM;2005-02-20 16:00;METAR CYQM 201600Z 28021G29KT 15SM FEW030 M14/M25 A3012 RMK CU1 SHS E SLP206=
CYQM;2005-02-20 17:00;METAR CYQM 201700Z 27016G24KT 15SM FEW030 M14/M25 A3011 RMK CU1 SLP202=
CYQM;2005-02-20 18:00;METAR CYQM 201800Z 27021G27KT 15SM FEW035 M15/M27 A3013 RMK CU1 SLP209=
CYQM;2005-02-20 19:00;METAR CYQM 201900Z 30019G28KT 15SM FEW035 M15/M26 A3015 RMK CU1 SLP216=
CYQM;2005-02-20 20:00;METAR CYQM 202000Z 31014G25KT 15SM FEW035 M15/M26 A3018 RMK CU2 VIRGA ALQDS SLP228=
CYQM;2005-02-20 21:00;METAR CYQM 202100Z 31019G26KT 15SM FEW035 M15/M25 A3022 RMK CU2 VIRGA ALQDS SLP239=
CYQM;2005-02-20 22:00;METAR CYQM 202200Z 30014KT 15SM FEW035 M17/M25 A3026 RMK SC1 SLP254=
CYQM;2005-02-21 00:00;METAR CYQM 210000Z 28008KT 15SM SKC M17/M25 A3031 RMK SLP272=
CYQM;2005-02-21 01:00;METAR CYQM 210100Z 29009G15KT 15SM SKC M17/M25 A3033 RMK SLP279=
CYQM;2005-02-21 02:00;METAR CYQM 210200Z 29008KT 15SM SKC M18/M24 A3036 RMK SLP290=
CYQM;2005-02-21 03:00;METAR CYQM 210300Z 26008KT 15SM SKC M18/M24 A3038 RMK SLP296=
CYQM;2005-02-21 04:00;METAR CYQM 210400Z 26010KT 15SM SKC M19/M23 A3041 RMK SLP304=
CYQM;2005-02-21 05:00;METAR CYQM 210500Z 24009KT 15SM SKC M19/M24 A3043 RMK SLP313=
CYQM;2005-02-21 06:00;METAR CYQM 210600Z 28006KT 15SM SKC M19/M23 A3041 RMK SLP306=
CYQM;2005-02-21 10:00;METAR CYQM 211000Z 23008KT 15SM SKC M21/M23 A3045 RMK SLP321=
CYQM;2005-02-21 11:00;METAR CYQM 211100Z 24005KT 15SM SKC M20/M22 A3046 RMK SLP324=
CYQM;2005-02-21 12:00;METAR CYQM 211200Z 22005KT 15SM BKN250 M19/M22 A3047 RMK CI2 SLP327=
CYQM;2005-02-21 13:00;METAR CYQM 211300Z 28004KT 15SM BKN250 M18/M21 A3047 RMK CI2 SLP328=
CYQM;2005-02-21 14:00;METAR CYQM 211400Z 00000KT 15SM FEW100 BKN250 M16/M20 A3048 RMK AC1CI2 SLP330=
CYQM;2005-02-21 16:00;METAR CYQM 211600Z 01004KT 15SM BKN250 M11/M17 A3046 RMK CI2 SLP322=
CYQM;2005-02-21 18:00;METAR CYQM 211800Z 03003KT 15SM BKN230 M09/M16 A3041 RMK CI5 SLP305=
CYQM;2005-02-21 19:00;METAR CYQM 211900Z 02005KT 15SM BKN230 M09/M19 A3039 RMK CI5 SLP297=
CYQM;2005-02-23 00:00;METAR CYQM 230000Z 03003KT 15SM BKN130 OVC220 M09/M12 A3011 RMK AC7CI1 SLP203=
CYQM;2005-02-23 01:00;METAR CYQM 230100Z 07004KT 15SM BKN130 OVC230 M09/M13 A3010 RMK AC7CI1 SLP200=
CYQM;2005-02-23 02:00;METAR CYQM 230200Z 06004KT 15SM BKN140 BKN240 M10/M12 A3009 RMK AC7CI1 SLP195=
CYQM;2005-02-23 04:00;METAR CYQM 230400Z 08004KT 15SM BKN110 M10/M12 A3004 RMK AC7 SLP180=
CYQM;2005-02-23 05:00;METAR CYQM 230500Z 11002KT 15SM FEW055 BKN120 M10/M12 A3004 RMK SC1AC6 SLP180=
CYQM;2005-02-23 06:00;METAR CYQM 230600Z 00000KT 15SM OVC100 M10/M12 A3004 RMK AC8 SLP177=
CYQM;2005-02-23 07:00;METAR CYQM 230700Z 00000KT 15SM -SN OVC100 M10/M12 A3003 RMK AS8 SLP174=
CYQM;2005-02-23 07:36;SPECI CYQM 230736Z 00000KT 3SM -SN OVC100 RMK AS8=
CYQM;2005-02-23 08:00;METAR CYQM 230800Z 00000KT 4SM -SN OVC100 M10/M12 A3001 RMK AS8 SLP167=
CYQM;2005-02-23 09:06;SPECI CYQM 230906Z 09003KT 1 1/2SM -SN VV013 RMK SN8=
CYQM;2005-02-23 09:27;SPECI CYQM 230927Z 09003KT 3SM -SN BKN090 RMK AS7=
CYQM;2005-02-23 10:00;METAR CYQM 231000Z 11003KT 8SM -SN BKN090 M10/M11 A2998 RMK AS7 SLP159=
CYQM;2005-02-23 11:00;METAR CYQM 231100Z 10003KT 6SM -SN BKN090 M10/M11 A2997 RMK AS7 SLP156=
CYQM;2005-02-23 12:00;METAR CYQM 231200Z 09003KT 8SM -SN OVC090 M10/M11 A2998 RMK AS8 /S01/ SLP158=
CYQM;2005-02-23 13:00;METAR CYQM 231300Z 10002KT 4SM -SN OVC090 M09/M11 A2997 RMK AS8 SLP155=
CYQM;2005-02-23 14:00;METAR CYQM 231400Z 00000KT 15SM -SN FEW030 OVC090 M08/M10 A2995 RMK SC1AS7 SLP149=
CYQM;2005-02-23 15:00;METAR CYQM 231500Z 33002KT 15SM -SN FEW010 OVC090 M07/M09 A2994 RMK CF1AS8 SLP145=
CYQM;2005-02-23 16:00;METAR CYQM 231600Z 00000KT 15SM -SN FEW015 OVC090 M06/M10 A2993 RMK SC1AS7 SLP142=
CYQM;2005-02-23 17:00;METAR CYQM 231700Z 14002KT 15SM SCT020 OVC100 M05/M10 A2992 RMK SC3AS5 SLP138=
CYQM;2005-02-23 18:00;METAR CYQM 231800Z 00000KT 15SM SCT020 BKN100 OVC260 M04/M08 A2990 RMK SC4AS2CI1 SLP132=
CYQM;2005-02-23 18:48;SPECI CYQM 231848Z 00000KT 15SM -SHSN BKN020 BKN100 OVC260 RMK SC5AS2CI1=
CYQM;2005-02-23 19:00;METAR CYQM 231900Z 02006KT 15SM -SHSN BKN020 BKN100 OVC260 M04/M08 A2990 RMK SC5AS2CI1 SLP131=
CYQM;2005-02-23 20:00;METAR CYQM 232000Z 03006KT 15SM -SHSN SCT020 BKN100 BKN260 M05/M09 A2992 RMK SC3AC2CI1 VIS W-NW 4 SLP137=
CYQM;2005-02-23 21:42;SPECI CYQM 232142Z 03008KT 15SM FEW020 FEW100 FEW260 RMK SC1AC1CI1 VIS W 8=
CYQM;2005-02-23 22:00;METAR CYQM 232200Z 04006KT 15SM FEW020 FEW120 FEW260 M08/M10 A2995 RMK SC1AC1CI1 SLP149=
CYQM;2005-02-23 23:47;SPECI CYQM 232347Z 35002KT 15SM -SHSN BKN120 RMK AC7=
CYQM;2005-02-24 00:00;METAR CYQM 240000Z 36003KT 15SM -SHSN BKN120 BKN260 M09/M10 A2999 RMK AC6CI1 SLP162=
CYQM;2005-02-24 00:20;SPECI CYQM 240020Z 03002KT 15SM BKN120 BKN260 RMK AC5CI1=
CYQM;2005-02-24 01:00;METAR CYQM 240100Z 00000KT 15SM BKN075 M09/M10 A3001 RMK AC6 SLP167=
CYQM;2005-02-24 03:00;METAR CYQM 240300Z 36002KT 15SM FEW075 M11/M11 A3003 RMK AC1 FROIN SLP173=
CYQM;2005-02-24 04:00;METAR CYQM 240400Z 00000KT 12SM BKN007 M12/M12 A3004 RMK SF6 FROIN SLP178=
CYQM;2005-02-24 04:13;SPECI CYQM 240413Z 26002KT 15SM -SN OVC006 RMK SF6=
CYQM;2005-02-24 05:36;SPECI CYQM 240536Z 35004KT 12SM -SN OVC002 RMK ST7=
CYQM;2005-02-24 06:00;METAR CYQM 240600Z 36003KT 7SM -SN OVC002 M11/M12 A3008 RMK ST8 SLP190=
CYQM;2005-02-24 06:24;SPECI CYQM 240624Z 32004KT 7SM -SN FEW002 OVC006 RMK SF2SF5=
CYQM;2005-02-24 06:43;SPECI CYQM 240643Z 34003KT 6SM -SN SCT006 OVC012 RMK SF3SC4=
CYQM;2005-02-24 07:34;SPECI CYQM 240734Z 31005KT 8SM -SN SCT012 OVC020 RMK SF3SC5=
CYQM;2005-02-24 09:19;SPECI CYQM 240919Z 33009KT 15SM FEW030 SCT120 RMK SC2AC2=
CYQM;2005-02-24 10:00;METAR CYQM 241000Z 31009KT 15SM FEW050 FEW120 M12/M15 A3017 RMK SC2AC1 FROIN SLP221=
CYQM;2005-02-24 11:00;METAR CYQM 241100Z 30008KT 12SM BKN030 M13/M15 A3019 RMK SC7 FROIN SLP231=
CYQM;2005-02-24 11:12;SPECI CYQM 241112Z 32010KT 12SM -SHSN BKN030 RMK SC7=
CYQM;2005-02-24 12:16;SPECI CYQM 241216Z 31007KT 15SM VCSH FEW030 SCT120 RMK SC1AC2=
CYQM;2005-02-24 13:00;METAR CYQM 241300Z 32009KT 15SM FEW030 SCT120 M12/M16 A3024 RMK SC1AC2 SLP245=
CYQM;2005-02-24 14:00;METAR CYQM 241400Z 29006KT 15SM FEW030 FEW120 SCT160 M11/M16 A3024 RMK SC1AC2AC1 SLP246=
CYQM;2005-02-24 15:00;METAR CYQM 241500Z 29006KT 15SM FEW025 FEW040 M10/M16 A3025 RMK CU1SC1 SLP248=
CYQM;2005-02-24 16:00;METAR CYQM 241600Z 27008KT 15SM FEW025 M09/M16 A3025 RMK CU1 SLP248=
CYQM;2005-02-24 17:00;METAR CYQM 241700Z 25003KT 15SM FEW030 M08/M16 A3023 RMK CU1 SLP244=
CYQM;2005-02-24 18:00;METAR CYQM 241800Z 29005KT 15SM FEW030 M07/M15 A3023 RMK CU1 SLP242=
CYQM;2005-02-24 22:00;METAR CYQM 242200Z 06005KT 15SM FEW030 FEW260 M08/M14 A3028 RMK CU1CI1 SLP258=
CYQM;2005-02-24 23:00;METAR CYQM 242300Z 07006KT 15SM FEW260 M10/M15 A3030 RMK CI1 SLP265=
CYQM;2005-02-25 00:00;METAR CYQM 250000Z 09006KT 15SM SKC M10/M15 A3031 RMK SLP272=
CYQM;2005-02-25 02:00;METAR CYQM 250200Z 08005KT 15SM FEW260 M11/M16 A3029 RMK CI1 SLP264=
CYQM;2005-02-25 03:00;METAR CYQM 250300Z 13006KT 15SM SCT260 M13/M16 A3028 RMK CI2 SLP259=
CYQM;2005-02-25 04:00;METAR CYQM 250400Z 35003KT 15SM FEW260 M13/M16 A3026 RMK CI1 SLP255=
CYQM;2005-02-25 05:00;METAR CYQM 250500Z 04003KT 15SM BKN260 M15/M17 A3027 RMK CS2 HALO SLP257=
CYQM;2005-02-25 06:00;METAR CYQM 250600Z 05002KT 15SM OVC260 M14/M16 A3026 RMK CS3 HALO SLP254=
CYQM;2005-02-25 06:18;SPECI CYQM 250618Z 00000KT 15SM FEW007 OVC260 RMK SF1CS4 HALO=
CYQM;2005-02-25 09:00;METAR CYQM 250900Z 05004KT 15SM OVC140 M13/M15 A3019 RMK AS8 SLP231=
CYQM;2005-02-25 10:00;METAR CYQM 251000Z 04005KT 15SM OVC120 M13/M13 A3017 RMK AS8 FROIN SLP224=
CYQM;2005-02-25 11:00;METAR CYQM 251100Z 01003KT 12SM FEW020 BKN040 OVC120 M12/M13 A3017 RMK SC1SC6AS1 FROIN SLP223=
CYQM;2005-02-25 11:48;SPECI CYQM 251148Z 03005KT 12SM -SN BKN045 OVC130 RMK SC7AS1=
CYQM;2005-02-25 12:00;METAR CYQM 251200Z 02006KT 12SM -SN FEW020 BKN045 OVC130 M12/M14 A3016 RMK SC1SC6AS1 SLP218=
CYQM;2005-02-25 12:28;SPECI CYQM 251228Z 02006KT 3SM -SN BKN045 OVC120 RMK SC6AS2=
CYQM;2005-02-25 13:00;METAR CYQM 251300Z 04010KT 12SM -SN FEW012 BKN050 OVC120 M11/M13 A3013 RMK CF1SC6AS1 SLP210=
CYQM;2005-02-25 14:00;METAR CYQM 251400Z 03011KT 12SM -SN FEW012 BKN060 OVC140 M11/M14 A3011 RMK CF1SC6AS1 SLP201=
CYQM;2005-02-25 14:34;SPECI CYQM 251434Z 04011KT 2 1/2SM -SN BKN055 OVC130 RMK SN1SC6AS2=
CYQM;2005-02-25 14:42;SPECI CYQM 251442Z 02012KT 1 1/2SM -SN VV013 RMK SN8=
CYQM;2005-02-25 15:00;METAR CYQM 251500Z 03011KT 1 1/4SM -SN VV013 M10/M14 A3011 RMK SN8 PRES UNSTDY SLP202=
CYQM;2005-02-25 15:32;SPECI CYQM 251532Z 36010KT 1SM R06/P6000FT/N R29/P6000FT/N -SN VV010 RMK SN8=
CYQM;2005-02-25 16:00;METAR CYQM 251600Z 01009KT 1SM R06/P6000FT/N R29/P6000FT/N -SN VV010 M10/M13 A3008 RMK SN8 /S01/ SLP194=
CYQM;2005-02-25 17:00;METAR CYQM 251700Z 01012G17KT 1 1/4SM -SN VV012 M10/M13 A3003 RMK SN8 SLP175=
CYQM;2005-02-25 18:00;METAR CYQM 251800Z 01011G16KT 2SM -SN DRSN BKN025 OVC120 M09/M12 A3002 RMK SN1SC6AS1 /S02/ SLP171=
CYQM;2005-02-25 19:00;METAR CYQM 251900Z 36012KT 3SM -SN BKN025 OVC140 M09/M12 A3001 RMK SC5AS3 SLP168=
CYQM;2005-02-25 20:22;SPECI CYQM 252022Z 36014KT 1 1/4SM -SN VV012 RMK SN8=
CYQM;2005-02-25 21:15;SPECI CYQM 252115Z 36011KT 4SM -SN BKN030 OVC140 RMK SC5AS3=
CYQM;2005-02-25 22:00;METAR CYQM 252200Z 35010KT 15SM -SN BKN050 OVC140 M10/M13 A2994 RMK SC6AC2 SLP146=
CYQM;2005-02-26 00:00;METAR CYQM 260000Z 33009KT 4SM -SN OVC030 M10/M13 A2995 RMK SC8 /S01/ SLP148=
CYQM;2005-02-26 01:00;METAR CYQM 260100Z 29006KT 7SM -SN OVC040 M10/M13 A2996 RMK SC8 SLP152=
CYQM;2005-02-26 02:11;SPECI CYQM 260211Z 30007KT 15SM FEW040 RMK SC2=
CYQM;2005-02-26 03:00;METAR CYQM 260300Z 27007KT 15SM FEW040 M11/M16 A2992 RMK SC2 SLP139=
CYQM;2005-02-26 03:20;SPECI CYQM 260320Z 25010KT 15SM BKN030 RMK SC5=
CYQM;2005-02-26 04:00;METAR CYQM 260400Z 24009KT 15SM SCT040 BKN140 M11/M21 A2991 RMK SC3AC1 SLP135=
CYQM;2005-02-26 11:00;METAR CYQM 261100Z 24010KT 15SM FEW120 FEW250 M15/M18 A2985 RMK AC1CI1 SLP115=
CYQM;2005-02-26 12:00;METAR CYQM 261200Z 24013KT 15SM FEW120 FEW250 M15/M19 A2986 RMK AC1CI1 SLP118=
CYQM;2005-02-26 15:00;METAR CYQM 261500Z 23012KT 15SM FEW110 FEW260 M09/M15 A2980 RMK AC1CI0 SLP096=
CYQM;2005-02-26 16:00;METAR CYQM 261600Z 23017KT 15SM FEW260 M08/M13 A2976 RMK CI1 SLP084=
CYQM;2005-02-26 21:00;METAR CYQM 262100Z 26021G27KT 15SM DRSN FEW250 M04/M10 A2965 RMK CI1 SLP045=
CYQM;2005-02-26 22:00;METAR CYQM 262200Z 27017G22KT 15SM DRSN FEW250 M05/M11 A2964 RMK CI1 SLP044=
CYQM;2005-02-26 23:00;METAR CYQM 262300Z 27020G25KT 15SM DRSN FEW250 M07/M12 A2965 RMK CI1 SLP046=
CYQM;2005-02-27 00:00;METAR CYQM 270000Z 26020G29KT 15SM DRSN SKC M07/M11 A2964 RMK SLP043=
CYQM;2005-02-27 01:00;METAR CYQM 270100Z 26021G29KT 15SM DRSN SKC M07/M11 A2962 RMK SLP037=
CYQM;2005-02-27 02:00;METAR CYQM 270200Z 25020G28KT 15SM DRSN SKC M08/M11 A2961 RMK SLP034=
CYQM;2005-02-27 04:00;METAR CYQM 270400Z 25023G29KT 15SM DRSN SKC M09/M13 A2956 RMK SLP015=
CYQM;2005-02-27 06:00;METAR CYQM 270600Z 25022G30KT 15SM DRSN SKC M09/M13 A2950 RMK SLP994=
CYQM;2005-02-27 10:00;METAR CYQM 271000Z 26019G34KT 15SM FEW120 BKN250 M10/M12 A2944 RMK AC2CI1 SLP973=
CYQM;2005-02-27 10:21;SPECI CYQM 271021Z 26023G33KT 8SM -SHSN OVC050 RMK SC8=
CYQM;2005-02-27 12:00;METAR CYQM 271200Z 26024G29KT 15SM FEW020 FEW035 BKN060 OVC110 M10/M15 A2943 RMK CU1SC2SC6AC1 SLP970=
CYQM;2005-02-27 14:00;METAR CYQM 271400Z 26027G33KT 15SM FEW040 SCT100 OVC260 M08/M13 A2941 RMK SC2AC2CI2 SLP965=
CYQM;2005-02-27 16:00;METAR CYQM 271600Z 27026G39KT 15SM BKN045 BKN270 M07/M14 A2943 RMK SC6CI0 SLP970=
CYQM;2005-02-27 19:00;METAR CYQM 271900Z 28025G37KT 15SM BKN035 M04/M10 A2945 RMK SC7 SLP976=
CYQM;2005-02-27 22:00;METAR CYQM 272200Z 29016G24KT 15SM FEW035 SCT260 M05/M09 A2956 RMK SC2CI1 SLP013=
CYQM;2005-02-27 23:00;METAR CYQM 272300Z 29015G27KT 15SM FEW035 SCT260 M05/M09 A2961 RMK SC2CI1 SLP031=
CYQM;2005-02-28 00:00;METAR CYQM 280000Z 29017G27KT 15SM FEW035 SCT260 M06/M10 A2965 RMK SC2CI1 SLP047=
CYQM;2005-02-28 01:00;METAR CYQM 280100Z 29010G16KT 15SM FEW035 SCT260 M07/M10 A2970 RMK SC2CI1 SLP062=
CYQM;2005-02-28 03:00;METAR CYQM 280300Z 27014KT 15SM FEW035 M09/M13 A2976 RMK SC2 SLP082=
CYQM;2005-02-28 04:00;METAR CYQM 280400Z 25014KT 15SM FEW035 M09/M12 A2981 RMK SC1 SLP099=
CYQM;2005-02-28 05:00;METAR CYQM 280500Z 25012G17KT 15SM SKC M09/M12 A2983 RMK SLP107=
CYQM;2005-02-28 06:00;METAR CYQM 280600Z 25015KT 15SM SKC M09/M13 A2985 RMK SLP113=
CYQM;2005-02-28 09:00;METAR CYQM 280900Z 26013KT 15SM SKC M10/M14 A2990 RMK SLP132=
CYQM;2005-02-28 10:00;METAR CYQM 281000Z 26014G19KT 15SM SKC M10/M15 A2994 RMK SLP145=
CYQM;2005-02-28 11:00;METAR CYQM 281100Z 26016KT 15SM SKC M11/M18 A2998 RMK SLP157=
CYQM;2005-02-28 12:00;METAR CYQM 281200Z 26013G18KT 15SM FEW260 M10/M19 A2999 RMK CI1 SLP162=
CYQM;2005-02-28 13:00;METAR CYQM 281300Z 25017G22KT 15SM FEW260 M09/M19 A3000 RMK CI1 SLP165=
CYQM;2005-02-28 14:00;METAR CYQM 281400Z 25013KT 15SM FEW260 M08/M16 A3001 RMK CI1 SLP169=
CYQM;2005-02-28 15:00;METAR CYQM 281500Z 23016KT 15SM FEW260 M07/M16 A3003 RMK CI2 SLP174=
CYQM;2005-02-28 16:00;METAR CYQM 281600Z 23015KT 15SM BKN260 M05/M16 A3004 RMK CI2 SLP177=
CYQM;2005-02-28 19:00;METAR CYQM 281900Z 25007G18KT 15SM FEW160 OVC240 M02/M14 A3003 RMK AC1CI5 SLP176=
CYQM;2005-02-28 20:00;METAR CYQM 282000Z 23009KT 15SM SCT160 OVC240 M02/M13 A3004 RMK AC3CI3 SLP178=
CYQM;2005-02-28 21:00;METAR CYQM 282100Z 23007KT 15SM FEW160 OVC240 M02/M13 A3005 RMK AC2CI4 SLP180=
CYQM;2005-02-28 22:00;METAR CYQM 282200Z 22005KT 15SM FEW160 BKN240 M02/M14 A3005 RMK AC2CI4 SLP181=
CYQM;2005-02-28 23:00;METAR CYQM 282300Z 18004KT 15SM FEW150 BKN240 M03/M13 A3005 RMK AC2CI4 SLP181=
CYQM;2005-03-01 00:00;METAR CYQM 010000Z 23004KT 15SM SCT120 OVC240 M03/M13 A3004 RMK AC3CI4 SLP178=
CYQM;2005-03-01 01:00;METAR CYQM 010100Z 18002KT 15SM BKN120 OVC240 M03/M13 A3004 RMK AC5CI2 SLP177=
CYQM;2005-03-01 04:00;METAR CYQM 010400Z 08006KT 15SM FEW120 BKN240 M05/M10 A2999 RMK AC2CI2 SLP162=
CYQM;2005-03-01 06:00;METAR CYQM 010600Z 08008KT 15SM BKN120 OVC240 M06/M10 A2994 RMK AC5CI2 SLP144=
CYQM;2005-03-01 10:00;METAR CYQM 011000Z 06010KT 15SM OVC075 M05/M10 A2981 RMK AS8 SLP099=
CYQM;2005-03-01 11:12;SPECI CYQM 011112Z 06015G20KT 15SM -SN BKN035 OVC070 RMK SC7AS1 VIS S 4=
CYQM;2005-03-01 11:17;SPECI CYQM 011117Z 06013G20KT 1 1/4SM -SN DRSN OVC030 RMK SC8=
CYQM;2005-03-01 11:20;SPECI CYQM 011120Z 06015G20KT 3/4SM R29/P6000FT/D R06/P6000FT/D -SN=
CYQM;2005-03-01 11:25;SPECI CYQM 011125Z 06016G24KT 1/2SM R29/4500VP6000FT/D R06/4000VP6000FT/D SN DRSN VV007 RMK SN8=
CYQM;2005-03-01 11:39;SPECI CYQM 011139Z 05013G22KT 3/4SM R29/4000VP6000FT/U R06/P6000FT/U -SN DRSN OVC030 RESN RMK SN6SC2=
CYQM;2005-03-01 11:43;SPECI CYQM 011143Z 05014G22KT 1/2SM R29/4500VP6000FT/D R06/P6000FT/D SN DRSN OVC030 RMK SN6SC2=
CYQM;2005-03-01 12:00;METAR CYQM 011200Z 07021KT 3/8SM R29/5500FT/D R06/3500V5500FT/D SN DRSN VV005 M05/M06 A2970 RMK SN8 /S02/ SLP061=
CYQM;2005-03-01 12:45;SPECI CYQM 011245Z 05017G26KT 1/2SM R29/3000FT/N R06/3000FT/N -SN BLSN OVC012 RESN RMK SN5SC3 VSBY VRBL 1/4-3/4=
CYQM;2005-03-01 13:13;SPECI CYQM 011313Z 06020G29KT 3/8SM R29/1800FT/N R06/1400FT/N SN BLSN OVC012 RMK SN6SC2 VSBY VRBL 1/8-5/8 PRESFR=
CYQM;2005-03-01 13:29;SPECI CYQM 011329Z 06020G29KT 1/4SM R29/2000FT/N R06/1400V2000FT/N SN +BLSN VV007 RMK SN8=
CYQM;2005-03-01 14:00;METAR CYQM 011400Z 05022G28KT 1/4SM R29/1600FT/N R06/1200FT/N SN +BLSN VV007 M06/M07 A2956 RMK SN8 VSBY VRBL 1/8-3/8 /S07/ PRESFR SLP013=
CYQM;2005-03-01 15:08;SPECI CYQM 011508Z 05021G33KT 1/2SM R29/3500V6000FT/U R06/1400V4000FT/U -SN BLSN OVC008 RMK SN5SF3 VSBY VRBL 1/4-3/4 PRESFR=
CYQM;2005-03-01 15:45;SPECI CYQM 011545Z 05019G28KT 3/4SM R29/5500FT/N R06/1800V4000FT/U -SN BLSN OVC008 RESN RMK SN2SF6 VSBY VRBL 1/2-1=
CYQM;2005-03-01 16:00;METAR CYQM 011600Z 05021G29KT 3/4SM R29/5500FT/N R06/2200V4000FT/D -SN BLSN OVC008 M05/M06 A2942 RESN RMK SN2SF6 VSBY VRBL 1/2-1 PRESFR SLP968=
CYQM;2005-03-01 16:38;SPECI CYQM 011638Z 05017G24KT 1SM R29/P6000FT/N R06/4000FT/N -SN BLSN OVC008 RMK SN2SF6 VSBY VRBL 3/4-11/4 PRESFR=
CYQM;2005-03-01 17:00;METAR CYQM 011700Z 05016G26KT 1 1/4SM R29/P6000FT/U R06/4000VP6000FT/U -SN BLSN OVC008 M04/M06 A2935 RMK SF8 PRESFR PST HR SLP945=
CYQM;2005-03-01 17:41;SPECI CYQM 011741Z 05015G24KT 3/4SM R29/P6000FT/D R06/4000VP6000FT/D -SN BLSN OVC008 RMK SN2SF6 PRESFR=
CYQM;2005-03-01 18:00;METAR CYQM 011800Z 05014G22KT 3/4SM R29/5500FT/N R06/4000V5000FT/N -SN -FZDZ OVC008 M04/M04 A2929 REBLSN RMK SN2SF6 PRESFR SLP922=
CYQM;2005-03-01 18:46;SPECI CYQM 011846Z 05013G19KT 1SM R29/P6000FT/N R06/5000FT/D -SN -FZDZ OVC007 RMK SF8=
CYQM;2005-03-01 19:00;METAR CYQM 011900Z 05013G18KT 1 1/4SM R29/P6000FT/N R06/5000FT/N -SN -FZDZ BR FEW002 OVC004 M03/M03 A2922 RMK SF2SF6 PRESFR SLP900=
CYQM;2005-03-01 19:07;SPECI CYQM 011907Z 04013KT 1 1/4SM -SN -FZDZ BR FEW002 OVC005 RMK SF2SF6=
CYQM;2005-03-01 19:19;SPECI CYQM 011919Z 06015KT 1 1/2SM -FZDZ BR FEW002 OVC005 RMK SF2SF6=
CYQM;2005-03-01 19:35;SPECI CYQM 011935Z 05010G19KT 1 1/4SM R29/P6000FT/U R06/5500FT/N -FZDZ BR BKN002 OVC005 RMK SF6SF2 PRESFR=
CYQM;2005-03-01 20:00;METAR CYQM 012000Z 06010KT 1 1/2SM -FZDZ BR OVC002 M01/M01 A2918 RMK SF8 SLP887=
CYQM;2005-03-01 20:23;SPECI CYQM 012023Z 06007KT 1 1/4SM -FZDZ BR OVC002 RMK SF8=
CYQM;2005-03-01 20:43;SPECI CYQM 012043Z 05006KT 1 1/4SM -FZDZ BR SCT002 OVC004 RMK SF3SF5=
CYQM;2005-03-01 21:15;SPECI CYQM 012115Z 08006KT 1SM R29/P6000FT/N R06/3000VP6000FT/D -SN BR FEW002 OVC004 RMK SF2SF6=
CYQM;2005-03-01 21:42;SPECI CYQM 012142Z 09004KT 2 1/2SM -SN BR SCT004 OVC012 RMK SF3SC5=
CYQM;2005-03-01 22:33;SPECI CYQM 012233Z 15007KT 12SM BKN004 OVC012 RMK SF5SC3=
CYQM;2005-03-01 22:41;SPECI CYQM 012241Z 16009KT 12SM -SHSN BKN004 OVC025 RMK SF5SC3=
CYQM;2005-03-02 00:00;METAR CYQM 020000Z 18009KT 15SM FEW004 BKN030 01/M00 A2922 RMK SF2SC6 SLP898=
CYQM;2005-03-02 03:00;METAR CYQM 020300Z 18010KT 15SM BKN025 00/M02 A2923 RMK SC7 SLP904=
CYQM;2005-03-02 04:00;METAR CYQM 020400Z 17011KT 15SM OVC025 00/M02 A2921 RMK SC8 SLP896=
CYQM;2005-03-02 06:00;METAR CYQM 020600Z 18005KT 15SM OVC025 00/M02 A2920 RMK SC8 SLP890=
CYQM;2005-03-02 06:45;SPECI CYQM 020645Z 16003KT 15SM -SHSN OVC025 RMK SC8=
CYQM;2005-03-02 07:00;METAR CYQM 020700Z 17007KT 15SM -SHSN OVC025 M00/M02 A2918 RMK SC8 SLP884=
CYQM;2005-03-02 09:00;METAR CYQM 020900Z 06002KT 12SM -SHSN FEW010 OVC025 M01/M02 A2916 RMK SF2SC6 SLP879=
CYQM;2005-03-02 10:00;METAR CYQM 021000Z 09005KT 12SM -SHSN FEW010 OVC035 M01/M02 A2915 RMK SF2SC6 SLP875=
CYQM;2005-03-02 11:00;METAR CYQM 021100Z 11006KT 8SM -SHSN FEW010 OVC030 M01/M03 A2915 RMK SF2SC6 SLP873=
CYQM;2005-03-02 12:00;METAR CYQM 021200Z 00000KT 4SM -SHSN FEW010 OVC020 M00/M02 A2913 RMK SF2SC6 SLP869=
CYQM;2005-03-02 12:29;SPECI CYQM 021229Z 16005KT 2 1/2SM -SHSN FEW010 OVC020 RMK SF2SC6=
CYQM;2005-03-02 12:44;SPECI CYQM 021244Z 16006KT 4SM -SHSN FEW010 OVC035 RMK SF2SC6=
CYQM;2005-03-02 13:00;METAR CYQM 021300Z 16008KT 6SM -SHSN FEW010 OVC020 M00/M02 A2911 RMK SF2SC6 SLP862=
CYQM;2005-03-02 14:00;METAR CYQM 021400Z 17009G17KT 12SM -SHSN FEW012 BKN035 00/M04 A2910 RMK CU2SC3 SLP857=
CYQM;2005-03-02 14:29;SPECI CYQM 021429Z 18010G15KT 2 1/2SM -SHSN FEW012 BKN030 RMK CU2SC6=
CYQM;2005-03-02 14:52;SPECI CYQM 021452Z 21006KT 10SM -SHSN FEW012 BKN030 RMK CU2SC6=
CYQM;2005-03-02 15:00;METAR CYQM 021500Z 21008KT 10SM -SHSN FEW012 SCT030 BKN120 01/M01 A2908 RMK CU2SC2AC2 SLP851=
CYQM;2005-03-02 15:21;SPECI CYQM 021521Z 21008KT 10SM FEW012 FEW030 SCT120 BKN250 RMK CU2SC1AC2CI2=
CYQM;2005-03-02 15:51;SPECI CYQM 021551Z 18006KT 10SM -SHSN SCT025 BKN035 BKN100 RMK CU3SC2AC2=
CYQM;2005-03-02 16:00;METAR CYQM 021600Z 18005KT 10SM -SHSN SCT025 BKN035 BKN100 01/M03 A2907 RMK CU3SC2AC2 SLP847=
CYQM;2005-03-02 16:15;SPECI CYQM 021615Z 21006KT 2SM -SHSN SCT025 BKN035 BKN100 RMK CU3SC2AC2=
CYQM;2005-03-02 16:41;SPECI CYQM 021641Z 25007KT 5SM -SHSN SCT020 BKN030 BKN100 RMK CU3SC3AC1=
CYQM;2005-03-02 17:00;METAR CYQM 021700Z 25010KT 2SM -SHSN SCT020 OVC030 01/M02 A2905 RMK CU3SC5 VIS S QUAD 4 SLP842=
CYQM;2005-03-02 17:05;SPECI CYQM 021705Z 25008KT 5SM -SHSN SCT020 OVC030 RMK CU3SC5=
CYQM;2005-03-02 17:11;SPECI CYQM 021711Z 25006KT 1 1/2SM -SHSN SCT020 BKN030 BKN050 RMK CU3SC4SC1=
CYQM;2005-03-02 17:17;SPECI CYQM 021717Z 27004KT 10SM -SHSN SCT020 BKN030 BKN050 RMK CU3SC4SC1=
CYQM;2005-03-02 19:00;METAR CYQM 021900Z 00000KT 12SM -SHSN SCT020 BKN030 OVC070 01/M02 A2901 RMK CU3SC3AC2 SLP828=
CYQM;2005-03-02 19:37;SPECI CYQM 021937Z 33004KT 2SM -SHSN SCT020 BKN030 OVC070 RMK CU3SC3AC2=
CYQM;2005-03-02 20:28;SPECI CYQM 022028Z 10005KT 1 1/4SM -SHSN VV008 RMK SN8=
CYQM;2005-03-02 20:43;SPECI CYQM 022043Z 10004KT 3/4SM R29/4000V5000FT/N -SHSN VV008 RMK SN8=
CYQM;2005-03-02 21:00;METAR CYQM 022100Z 08003KT 1SM R29/P6000FT/U -SHSN VV010 00/M01 A2899 RMK SN8 SLP822=
CYQM;2005-03-02 22:00;METAR CYQM 022200Z 04008KT 1/4SM R29/3000V5000FT/D +SHSN VV003 M01/M01 A2899 RMK SN8 /S03/ SLP821=
CYQM;2005-03-02 23:16;SPECI CYQM 022316Z 02012KT 1/4SM R29/4000V5500FT/N +SHSN VV003 RMK SN8=
CYQM;2005-03-03 00:00;METAR CYQM 030000Z 35007KT 1/4SM R29/3500FT/N +SHSN VV003 M01/M02 A2899 RMK SN8 /S15/ SLP821=
CYQM;2005-03-03 00:19;SPECI CYQM 030019Z 34006KT 1/2SM R29/4500FT/U SHSN VV005 RESN RMK SN8=
CYQM;2005-03-03 00:32;SPECI CYQM 030032Z 34007KT 3/4SM R29/5000FT/N -SHSN VV007 RESN RMK SN8=
CYQM;2005-03-03 01:23;SPECI CYQM 030123Z 33010KT 1 1/2SM -SHSN VV013 RMK SN8=
CYQM;2005-03-03 03:00;METAR CYQM 030300Z 28009G16KT 5SM -SHSN BKN022 M02/M02 A2901 RMK SC7 /S07/ SLP827=
CYQM;2005-03-03 04:00;METAR CYQM 030400Z 26011KT 12SM -SHSN FEW010 BKN028 M03/M04 A2902 RMK CF1SC6 SLP831=
CYQM;2005-03-03 08:00;METAR CYQM 030800Z 24011KT 15SM FEW040 SCT120 BKN260 M07/M08 A2908 RMK SC1AC3CI0 SLP850=
CYQM;2005-03-03 09:00;METAR CYQM 030900Z 24009KT 15SM SKC M08/M10 A2909 RMK FROIN SLP855=
CYQM;2005-03-03 11:00;METAR CYQM 031100Z 25012G19KT 15SM BKN220 M09/M12 A2914 RMK CI5 SLP871=
CYQM;2005-03-03 12:00;METAR CYQM 031200Z 25013KT 15SM FEW035 SCT100 BKN220 M08/M12 A2916 RMK SC2AC1CI2 SLP880=
CYQM;2005-03-03 14:00;METAR CYQM 031400Z 26010G15KT 15SM SCT035 BKN220 M06/M12 A2918 RMK CU3CI1 SLP887=
CYQM;2005-03-03 14:41;SPECI CYQM 031441Z 26015KT 15SM -SHSN BKN030 RMK SC7=
CYQM;2005-03-03 15:00;METAR CYQM 031500Z 26012G19KT 8SM -SHSN BKN030 M04/M08 A2919 RMK SC7 SLP889=
CYQM;2005-03-03 16:00;METAR CYQM 031600Z 26015KT 8SM -SHSN BKN030 M04/M08 A2919 RMK SC7 SLP889=
CYQM;2005-03-03 17:00;METAR CYQM 031700Z 27018KT 10SM -SHSN BKN030 M04/M08 A2919 RMK SC7 SLP890=
CYQM;2005-03-03 17:42;SPECI CYQM 031742Z 26016G22KT 15SM BKN035 RMK SC7=
CYQM;2005-03-03 18:00;METAR CYQM 031800Z 27017G22KT 15SM BKN035 M04/M08 A2920 RMK SC6 SLP892=
CYQM;2005-03-03 19:00;METAR CYQM 031900Z 26019KT 15SM DRSN BKN035 M05/M10 A2921 RMK SC6 SLP895=
CYQM;2005-03-03 20:00;METAR CYQM 032000Z 27023KT 15SM DRSN BKN035 M06/M11 A2923 RMK SC6 SLP903=
CYQM;2005-03-04 00:00;METAR CYQM 040000Z 27009G15KT 15SM FEW040 M11/M16 A2940 RMK SC2 SLP960=
CYQM;2005-03-04 01:00;METAR CYQM 040100Z 27007KT 15SM FEW045 M13/M17 A2942 RMK SC1 SLP967=
CYQM;2005-03-04 03:00;METAR CYQM 040300Z 23008KT 15SM FEW260 M13/M18 A2943 RMK CI1 SLP971=
CYQM;2005-03-04 04:00;METAR CYQM 040400Z 24009KT 15SM SKC M14/M18 A2943 RMK SLP970=
CYQM;2005-03-04 05:00;METAR CYQM 040500Z 24011KT 15SM SKC M14/M17 A2944 RMK SLP974=
CYQM;2005-03-04 06:00;METAR CYQM 040600Z 25014KT 15SM DRSN SKC M13/M16 A2944 RMK SLP975=
CYQM;2005-03-04 07:00;METAR CYQM 040700Z 25013KT 15SM SKC M13/M16 A2945 RMK SLP976=
CYQM;2005-03-04 10:00;METAR CYQM 041000Z 24010KT 15SM FEW030 SCT080 M14/M17 A2948 RMK SC1AC3 SLP987=
CYQM;2005-03-04 11:00;METAR CYQM 041100Z 24013KT 15SM FEW080 FEW260 M15/M17 A2949 RMK AC1CI1 TR CI SLP993=
CYQM;2005-03-04 12:00;METAR CYQM 041200Z 24012KT 15SM FEW012 FEW100 FEW260 M15/M18 A2951 RMK CU1AC1CI1 TR CU TR CI SLP999=
CYQM;2005-03-04 13:00;METAR CYQM 041300Z 24014KT 15SM FEW015 FEW100 FEW260 M13/M17 A2950 RMK CU1AC1CI1 TR CU TR CI SLP997=
CYQM;2005-03-04 14:00;METAR CYQM 041400Z 26015G21KT 15SM FEW025 FEW100 M11/M17 A2950 RMK CU1AC1 TR AC SLP997=
CYQM;2005-03-04 15:00;METAR CYQM 041500Z 27013KT 15SM DRSN SCT025 M10/M16 A2950 RMK CU3 SLP995=
CYQM;2005-03-04 16:00;METAR CYQM 041600Z 23012G21KT 15SM DRSN BKN030 M09/M17 A2948 RMK SC6 SLP990=
CYQM;2005-03-04 17:00;METAR CYQM 041700Z 25016G21KT 15SM DRSN BKN030 M09/M15 A2948 RMK SC7 SLP988=
CYQM;2005-03-04 18:00;METAR CYQM 041800Z 25014G19KT 15SM DRSN BKN030 BKN140 BKN260 M08/M14 A2946 RMK SC5AC1CI1 SLP983=
CYQM;2005-03-04 18:10;SPECI CYQM 041810Z 24020G25KT 10SM -SHSN DRSN BKN030 BKN140 BKN260 RMK SC5AC1CI1=
CYQM;2005-03-04 19:00;METAR CYQM 041900Z 25019KT 6SM -SHSN DRSN BKN030 BKN140 BKN260 M09/M13 A2947 RMK SC5AC1CI1 VIS W-N 2 SLP985=
CYQM;2005-03-04 20:00;METAR CYQM 042000Z 27006KT 12SM -SHSN DRSN BKN030 BKN140 M08/M12 A2947 RMK SC6AC1 SLP985=
CYQM;2005-03-04 21:21;SPECI CYQM 042121Z 27011G18KT 15SM DRSN FEW030 BKN120 BKN250 RMK SC2AC2CI2 SHS E-SE=
CYQM;2005-03-04 22:00;METAR CYQM 042200Z 27010KT 15SM DRSN BKN030 BKN120 OVC250 M08/M13 A2948 RMK SC6AC1CI1 SHS W-NW SLP987=
CYQM;2005-03-04 22:39;SPECI CYQM 042239Z 27007KT 15SM -SHSN BKN030 OVC120 RMK SC7AC1=
CYQM;2005-03-04 23:00;METAR CYQM 042300Z 27007KT 12SM -SHSN BKN035 OVC120 M08/M11 A2949 RMK SC7AC1 SLP992=
CYQM;2005-03-05 01:00;METAR CYQM 050100Z 28006KT 15SM OVC050 M08/M12 A2952 RMK SC8 SLP001=
CYQM;2005-03-05 04:00;METAR CYQM 050400Z 26012KT 15SM FEW075 M10/M14 A2951 RMK AC2 SLP997=
CYQM;2005-03-05 05:00;METAR CYQM 050500Z 26009KT 15SM FEW080 BKN250 M10/M15 A2950 RMK AC2CI2 SLP995=
CYQM;2005-03-05 06:00;METAR CYQM 050600Z 26011KT 15SM FEW050 SCT250 M10/M15 A2950 RMK SC1CI1 SLP995=
CYQM;2005-03-05 10:00;METAR CYQM 051000Z 24009KT 15SM FEW250 M14/M18 A2949 RMK CI1 SLP993=
CYQM;2005-03-05 12:00;METAR CYQM 051200Z 25012G17KT 15SM FEW012 FEW120 FEW250 M13/M16 A2950 RMK CU1AC1CI1 TR CU TR AC SLP994=
CYQM;2005-03-05 13:00;METAR CYQM 051300Z 26013KT 15SM FEW015 FEW120 FEW250 M11/M14 A2950 RMK CU1AC1CI1 TR CU TR AC SLP996=
CYQM;2005-03-05 15:00;METAR CYQM 051500Z 26017KT 15SM SCT025 SCT120 M08/M15 A2948 RMK CU3AC1 SLP987=
CYQM;2005-03-05 16:00;METAR CYQM 051600Z 24015G22KT 15SM DRSN BKN030 M08/M14 A2947 RMK SC6 SLP983=
CYQM;2005-03-05 17:00;METAR CYQM 051700Z 26018KT 15SM DRSN BKN030 M07/M13 A2945 RMK SC6 SLP979=
CYQM;2005-03-05 21:00;METAR CYQM 052100Z 27017G24KT 15SM DRSN FEW035 FEW260 M04/M14 A2945 RMK CU1CI1 SLP978=
CYQM;2005-03-05 22:00;METAR CYQM 052200Z 27013KT 15SM DRSN FEW035 FEW260 M05/M12 A2947 RMK SC1CI1 SLP984=
CYQM;2005-03-05 23:00;METAR CYQM 052300Z 29010G15KT 15SM DRSN FEW120 FEW260 M05/M14 A2950 RMK AC1CI1 SLP994=
CYQM;2005-03-06 00:00;METAR CYQM 060000Z 27007KT 15SM SCT260 M07/M14 A2951 RMK CI2 SLP999=
CYQM;2005-03-06 04:00;METAR CYQM 060400Z 22007KT 15SM SCT260 M10/M16 A2954 RMK CI1 SLP010=
CYQM;2005-03-06 08:00;METAR CYQM 060800Z 24008KT 15SM BKN240 M11/M15 A2956 RMK CI2 SLP017=
CYQM;2005-03-06 11:00;METAR CYQM 061100Z 22006KT 15SM FEW050 BKN240 M12/M16 A2963 RMK SC1CI3 SLP038=
CYQM;2005-03-06 12:00;METAR CYQM 061200Z 22005KT 15SM SCT100 BKN240 M11/M15 A2964 RMK AC3CI3 SLP043=
CYQM;2005-03-06 13:00;METAR CYQM 061300Z 22003KT 15SM BKN100 BKN240 M09/M15 A2964 RMK AC5CI2 SLP044=
CYQM;2005-03-06 14:00;METAR CYQM 061400Z 23008KT 15SM FEW100 BKN240 M08/M15 A2964 RMK AC2CS4 SLP042=
CYQM;2005-03-06 15:00;METAR CYQM 061500Z 25007KT 15SM FEW100 BKN240 M06/M17 A2962 RMK AC2CS4 SLP034=
CYQM;2005-03-06 16:00;METAR CYQM 061600Z 22006KT 15SM FEW040 FEW100 BKN240 M04/M14 A2958 RMK CU1AC1CS5 TR CU SLP023=
CYQM;2005-03-06 19:00;METAR CYQM 061900Z 22018KT 15SM FEW030 BKN240 M00/M08 A2945 RMK CU2CS4 SLP979=
CYQM;2005-03-06 20:00;METAR CYQM 062000Z 19017G24KT 15SM DRSN SCT030 SCT100 BKN240 00/M07 A2944 RMK SC4AC1CS2 SLP973=
CYQM;2005-03-06 22:00;METAR CYQM 062200Z 20016KT 15SM FEW025 BKN120 OVC240 00/M04 A2942 RMK CU1AS5CS2 SLP966=
CYQM;2005-03-07 00:00;METAR CYQM 070000Z 20022G28KT 15SM DRSN BKN030 OVC080 00/M06 A2941 RMK SC6AS2 VIRGA W SLP965=
CYQM;2005-03-07 01:00;METAR CYQM 070100Z 19016KT 5SM -SHSN DRSN OVC019 M01/M04 A2941 RMK SC8 SLP965=
CYQM;2005-03-07 03:00;METAR CYQM 070300Z 19013G18KT 3SM -SN DRSN FEW020 OVC070 M01/M03 A2938 RMK SC2AC6 SLP953=
CYQM;2005-03-07 03:18;SPECI CYQM 070318Z 19012KT 3SM -SN DRSN BKN024 OVC070 RMK SC6AC2=
CYQM;2005-03-07 04:38;SPECI CYQM 070438Z 18006KT 2 1/2SM -SN OVC022 RMK SC8=
CYQM;2005-03-07 04:47;SPECI CYQM 070447Z 18008KT 4SM -SN OVC022 RMK SC8=
CYQM;2005-03-07 05:00;METAR CYQM 070500Z 18006KT 7SM -SN BKN014 OVC022 M01/M01 A2935 RMK SC6SC2 SLP943=
CYQM;2005-03-07 06:00;METAR CYQM 070600Z 20005KT 3SM -SN FEW008 BKN013 OVC020 M01/M01 A2935 RMK SF2SC6SC1 SLP943=
CYQM;2005-03-07 06:18;SPECI CYQM 070618Z 20006KT 2 1/2SM -SN SCT007 OVC010 RMK SF3SC5=
CYQM;2005-03-07 06:43;SPECI CYQM 070643Z 22008KT 2 1/2SM -SN FEW006 BKN008 OVC011 RMK SF2SF5SC2=
CYQM;2005-03-07 07:04;SPECI CYQM 070704Z 24014KT 7SM -SN BKN007 OVC012 RMK SF6SC2 VIS LWR E APRNT FROPA=
CYQM;2005-03-07 07:41;SPECI CYQM 070741Z 24010KT 8SM -SN FEW007 SCT010 OVC019 RMK SF2SF2SC4=
CYQM;2005-03-07 08:00;METAR CYQM 070800Z 24010KT 12SM -SN BKN008 OVC015 M01/M01 A2937 RMK SF6SC2 /S01/ SLP949=
CYQM;2005-03-07 08:29;SPECI CYQM 070829Z 27009KT 12SM -SN SCT008 OVC018 RMK SF3SC5=
CYQM;2005-03-07 08:47;SPECI CYQM 070847Z 33022G27KT 4SM -SN BLSN BKN007 OVC015 RMK SF7SC1 WND SHFT 0745Z APRNT FROPA=
CYQM;2005-03-07 10:00;METAR CYQM 071000Z 31020G26KT 2SM -SN DRSN FEW008 OVC020 M07/M08 A2952 REBLSN RMK SN1SF2SC6 PRESRR /S02/ SLP000=
CYQM;2005-03-07 10:12;SPECI CYQM 071012Z 32014G25KT 8SM -SN DRSN SCT008 BKN020 RMK SF3SC3 PRESRR=
CYQM;2005-03-07 10:30;SPECI CYQM 071030Z 31012G22KT 15SM DRSN SCT010 SCT025 BKN260 RMK SF3SC1CI1=
CYQM;2005-03-07 11:00;METAR CYQM 071100Z 31015G21KT 15SM DRSN FEW010 FEW025 SCT260 M09/M12 A2959 RMK SC2SC1CI0 PRESRR PCPN S SLP024=
CYQM;2005-03-07 12:00;METAR CYQM 071200Z 29010G15KT 15SM DRSN FEW012 FEW030 M10/M14 A2963 RMK SC1SC1 SLP039=
CYQM;2005-03-07 13:00;METAR CYQM 071300Z 29014G19KT 15SM DRSN FEW012 M10/M16 A2966 RMK SC1 SLP049=
CYQM;2005-03-07 14:00;METAR CYQM 071400Z 28012G19KT 15SM DRSN FEW015 FEW250 M10/M16 A2968 RMK SC1CI1 SLP056=
CYQM;2005-03-07 15:00;METAR CYQM 071500Z 27012G17KT 15SM DRSN FEW020 FEW260 M09/M16 A2970 RMK SC1CI0 SLP062=
CYQM;2005-03-07 16:00;METAR CYQM 071600Z 26015KT 15SM BKN270 M09/M18 A2971 RMK CI2 CONTRAILS SLP065=
CYQM;2005-03-07 17:00;METAR CYQM 071700Z 28012G17KT 15SM BKN270 M08/M15 A2972 RMK CI3 SLP070=
CYQM;2005-03-07 18:00;METAR CYQM 071800Z 27008KT 15SM FEW260 M07/M18 A2973 RMK CI1 SLP070=
CYQM;2005-03-07 22:00;METAR CYQM 072200Z 18004KT 15SM FEW060 BKN240 M05/M17 A2973 RMK SC2CI2 SLP073=
CYQM;2005-03-07 23:00;METAR CYQM 072300Z 14004KT 15SM OVC100 M05/M14 A2972 RMK AC8 SLP070=
CYQM;2005-03-08 00:00;METAR CYQM 080000Z 13006KT 15SM FEW050 OVC100 M05/M12 A2974 RMK SC2AC6 SLP075=
CYQM;2005-03-08 00:34;SPECI CYQM 080034Z 12006KT 3SM -SN SCT050 OVC100 RMK SC4AC4=
CYQM;2005-03-08 01:44;SPECI CYQM 080144Z 11007KT 2 1/2SM -SN SCT020 OVC050 RMK SC4SC4=
CYQM;2005-03-08 03:00;METAR CYQM 080300Z 11008KT 7SM -SN SCT020 OVC050 M07/M10 A2970 RMK SC4SC4 SLP063=
CYQM;2005-03-08 03:48;SPECI CYQM 080348Z 09009KT 15SM FEW020 OVC050 RMK SC2SC6=
CYQM;2005-03-08 04:00;METAR CYQM 080400Z 12009KT 15SM FEW020 OVC050 M07/M11 A2966 RMK SC2SC6 /S01/ SLP048=
CYQM;2005-03-08 04:03;SPECI CYQM 080403Z 12009KT 8SM -SN FEW020 OVC050 RMK SC2SC6=
CYQM;2005-03-08 04:09;SPECI CYQM 080409Z 11011KT 2 1/2SM -SN FEW020 OVC050 RMK SC2SC6=
CYQM;2005-03-08 05:13;SPECI CYQM 080513Z 12011G16KT 3SM -SN FEW020 OVC050 RMK SC2SC6=
CYQM;2005-03-08 05:40;SPECI CYQM 080540Z 12012KT 7SM -SN DRSN FEW008 OVC030 RMK SF2SC6=
CYQM;2005-03-08 06:00;METAR CYQM 080600Z 13006KT 10SM -SN FEW008 OVC030 M06/M09 A2955 RMK SF2SC6 /S02/ SLP011=
CYQM;2005-03-08 07:00;METAR CYQM 080700Z 16014G22KT 8SM -SN DRSN SCT008 OVC030 M04/M06 A2949 RMK SF3SC5 PRESFR SLP990=
CYQM;2005-03-08 08:39;SPECI CYQM 080839Z 16014KT 10SM -FZRA FEW008 OVC030 RMK SF2SC6=
CYQM;2005-03-08 08:49;SPECI CYQM 080849Z 18012G20KT 12SM FEW008 OVC015 REFZRA RMK SF2SC6=
CYQM;2005-03-08 10:00;METAR CYQM 081000Z 16012G18KT 15SM OVC011 01/M00 A2943 RMK SC8 SLP971=
CYQM;2005-03-08 11:00;METAR CYQM 081100Z 16013KT 8SM BKN011 OVC017 02/01 A2940 RMK SC6SC2 SLP961=
CYQM;2005-03-08 11:21;SPECI CYQM 081121Z 16008G18KT 8SM BKN006 OVC018 RMK SF7SC1=
CYQM;2005-03-08 12:00;METAR CYQM 081200Z 16009G16KT 8SM BKN006 OVC018 03/02 A2940 RMK SF7SC1 SLP959=
CYQM;2005-03-08 13:00;METAR CYQM 081300Z 15015G22KT 6SM BR BKN005 OVC017 03/03 A2937 RMK SF7SC1 SLP949=
CYQM;2005-03-08 15:00;METAR CYQM 081500Z 16012G17KT 5SM BR BKN006 OVC017 06/05 A2931 RMK SF7SC1 SLP928=
CYQM;2005-03-08 15:36;SPECI CYQM 081536Z 17019G27KT 8SM SCT008 BKN020 OVC100 RMK SF4SC2AS2=
CYQM;2005-03-08 16:00;METAR CYQM 081600Z 17021G29KT 8SM FEW008 SCT020 OVC100 07/06 A2929 RMK SF2SC2AS4 SLP923=
CYQM;2005-03-08 16:26;SPECI CYQM 081626Z 18019G24KT 10SM BKN008 BKN022 OVC100 RMK SF5SC1AS2=
CYQM;2005-03-08 17:00;METAR CYQM 081700Z 17019G28KT 8SM BKN009 OVC110 08/07 A2928 RMK SF7AS1 SLP919=
CYQM;2005-03-08 18:00;METAR CYQM 081800Z 17019G25KT 8SM -SHRA BKN010 OVC095 08/07 A2925 RMK SC5AC3 SLP909=
CYQM;2005-03-08 18:37;SPECI CYQM 081837Z 16017KT 2 1/2SM -SHRA BR BKN007 OVC090 RMK SC7AC1=
CYQM;2005-03-08 20:00;METAR CYQM 082000Z 15015G20KT 2SM -RA BR BKN010 BKN025 OVC095 07/06 A2921 RMK SC6SC1AS1 SLP894=
CYQM;2005-03-08 21:00;METAR CYQM 082100Z 14016KT 2SM -RA BR BKN010 OVC095 07/06 A2917 RMK SC7AS1 SLP880=
CYQM;2005-03-08 21:26;SPECI CYQM 082126Z 15015G20KT 2SM -RA BR BKN007 OVC095 RMK SF7AS1=
CYQM;2005-03-08 22:00;METAR CYQM 082200Z 15017KT 2 1/2SM -RA BR BKN007 OVC080 07/07 A2914 RMK SF7AS1 SLP871=
CYQM;2005-03-08 22:16;SPECI CYQM 082216Z 15015G25KT 5SM -RA BR SCT007 BKN012 OVC040 RMK SF3SC3SC2=
CYQM;2005-03-08 23:00;METAR CYQM 082300Z 15019G26KT 7SM -RA SCT007 BKN025 OVC050 07/06 A2913 RMK SF3SC2SC2 SLP866=
CYQM;2005-03-09 00:00;METAR CYQM 090000Z 16022G31KT 7SM -RA SCT007 BKN020 OVC050 08/07 A2910 RMK SF3SC2SC2 SLP857=
CYQM;2005-03-09 00:12;SPECI CYQM 090012Z 16022G30KT 7SM -RA BKN007 OVC020 RMK SF6SC2=
CYQM;2005-03-09 01:44;SPECI CYQM 090144Z 16018G26KT 10SM -RA BKN011 OVC025 RMK SC6SC2=
CYQM;2005-03-09 02:42;SPECI CYQM 090242Z 16021G35KT 10SM -RA BKN009 OVC020 RMK SF6SC2=
CYQM;2005-03-09 03:00;METAR CYQM 090300Z 14025G33KT 10SM -RA BKN009 OVC020 09/08 A2897 RMK SF6SC2 PRESFR SLP811=
CYQM;2005-03-09 04:00;METAR CYQM 090400Z 14023G30KT 7SM -RA BKN009 OVC020 09/08 A2890 RMK SF6SC2 PRESFR SLP787=
CYQM;2005-03-09 05:00;METAR CYQM 090500Z 14030G39KT 7SM -RA BKN009 OVC020 09/08 A2883 RMK SF6SC2 PRESFR SLP766=
CYQM;2005-03-09 06:15;SPECI CYQM 090615Z 13024G35KT 8SM -RA SCT009 OVC020 RMK SF3SC5=
CYQM;2005-03-09 07:00;METAR CYQM 090700Z 13032G37KT 8SM RA SCT009 OVC020 10/09 A2868 RMK SF3SC5 PRESFR SLP712=
CYQM;2005-03-09 08:06;SPECI CYQM 090806Z 14020G34KT 3SM RA BKN008 OVC016 RMK SF6SC2=
CYQM;2005-03-09 08:32;SPECI CYQM 090832Z 15030G43KT 12SM -RA FEW008 SCT020 OVC070 RERA RMK SF2SC2AC4=
CYQM;2005-03-09 08:52;SPECI CYQM 090852Z 15037G52KT 12SM FEW008 BKN028 OVC070 RERA RMK SF1SC5AC3=
CYQM;2005-03-09 09:26;SPECI CYQM 090926Z 15034G60KT 15SM FEW008 OVC023 RMK SF1SC7=
CYQM;2005-03-09 10:00;METAR CYQM 091000Z 15034G50KT 15SM FEW008 OVC014 03/01 A2863 RMK SF1SC7 SLP696=
CYQM;2005-03-09 10:09;SPECI CYQM 091009Z 14030G46KT 15SM -SHSN BKN013 OVC018 RMK SF6SC2 PRESRR=
CYQM;2005-03-09 11:00;METAR CYQM 091100Z 16030G51KT 15SM -SHSN BKN013 OVC022 01/M01 A2868 RMK SC6SC2 PRESRR SLP712=
CYQM;2005-03-09 11:20;SPECI CYQM 091120Z 17030G54KT 12SM -SHSN BKN015 OVC022 RMK SC6SC2=
CYQM;2005-03-09 12:00;METAR CYQM 091200Z 18033G62KT 12SM -SHSN BKN017 M00/M03 A2874 RMK SC6 PRESRR SLP735=
CYQM;2005-03-09 13:00;METAR CYQM 091300Z 18035G50KT 12SM -SHSN BKN017 BKN120 M02/M07 A2882 RMK CU6AC1 PRESRR SLP763=
CYQM;2005-03-09 13:53;SPECI CYQM 091353Z 18035G50KT 2 1/2SM -SHSN BKN015 BKN120 RMK CU6AC1 PRESRR VIS W 5=
CYQM;2005-03-09 14:05;SPECI CYQM 091405Z 18031G44KT 6SM -SHSN BKN015 RMK CU7 PRESRR VIS LWR SE=
CYQM;2005-03-09 14:16;SPECI CYQM 091416Z 18029G40KT 2SM -SHSN DRSN BKN015 RMK CU7 PRESRR=
CYQM;2005-03-09 14:45;SPECI CYQM 091445Z 18026G33KT 5SM -SHSN BKN015 RMK CU6 PRESRR=
CYQM;2005-03-09 15:00;METAR CYQM 091500Z 18030G42KT 3SM -SHSN BKN017 M04/M08 A2895 RMK CU6 VIS VRB 1-5 PRESRR SLP807=
CYQM;2005-03-09 16:00;METAR CYQM 091600Z 20031G37KT 4SM -SHSN BKN018 M04/M08 A2901 RMK CU7 VIS LWR NE-SE SLP825=
CYQM;2005-03-09 17:00;METAR CYQM 091700Z 20035G42KT 15SM -SHSN BKN025 BKN120 BKN250 M04/M10 A2903 RMK CU6AC1CI1 SLP834=
CYQM;2005-03-09 17:25;SPECI CYQM 091725Z 20029G37KT 15SM BKN027 BKN120 BKN250 RMK CU6AC1CI1 SHS DIST S=
CYQM;2005-03-09 18:00;METAR CYQM 091800Z 20030G41KT 15SM BKN030 BKN120 BKN250 M04/M12 A2906 RMK CU6AC1CI1 SHS DIST S SLP844=
CYQM;2005-03-09 19:00;METAR CYQM 091900Z 20029G37KT 15SM BKN035 OVC140 M05/M13 A2911 RMK SC5AS3 SHS DIST S SLP861=
CYQM;2005-03-09 19:27;SPECI CYQM 091927Z 20024G30KT 15SM -SHSN BKN035 BKN140 OVC250 RMK SC6AS2CI1=
CYQM;2005-03-09 21:00;METAR CYQM 092100Z 22022G28KT 15SM BKN035 BKN140 OVC250 M07/M14 A2921 RMK SC5AC2CI1 SLP894=
CYQM;2005-03-09 23:07;SPECI CYQM 092307Z 25019G26KT 15SM -SHSN FEW020 SCT035 BKN140 BKN250 RMK CF1SC3AC2CI1 PRESRR=
CYQM;2005-03-10 00:00;METAR CYQM 100000Z 24021G31KT 15SM -SHSN BKN030 M10/M16 A2940 RMK SC5 PRESRR SLP961=
CYQM;2005-03-10 00:20;SPECI CYQM 100020Z 24018G25KT 15SM BKN030 RMK SC5=
CYQM;2005-03-10 04:00;METAR CYQM 100400Z 23011KT 15SM FEW040 M12/M18 A2953 RMK SC1 SLP006=
CYQM;2005-03-10 06:00;METAR CYQM 100600Z 22011G16KT 15SM SKC M13/M18 A2958 RMK SLP022=
CYQM;2005-03-10 08:00;METAR CYQM 100800Z 22012KT 15SM SKC M13/M18 A2960 RMK SLP028=
CYQM;2005-03-10 09:00;METAR CYQM 100900Z 23012KT 15SM SKC M13/M19 A2961 RMK SLP032=
CYQM;2005-03-10 10:00;METAR CYQM 101000Z 23010KT 15SM FEW025 M14/M17 A2963 RMK SC1 SLP039=
CYQM;2005-03-10 11:00;METAR CYQM 101100Z 23009KT 15SM FEW025 M14/M19 A2965 RMK CU1 SLP045=
CYQM;2005-03-10 12:00;METAR CYQM 101200Z 23011G18KT 15SM SKC M13/M19 A2966 RMK SLP051=
CYQM;2005-03-10 15:00;METAR CYQM 101500Z 23007KT 15SM FEW035 FEW100 FEW260 M10/M17 A2966 RMK CU1AC1CI0 SLP051=
CYQM;2005-03-10 16:00;METAR CYQM 101600Z 25008KT 15SM BKN040 BKN260 M07/M16 A2964 RMK CU5CI1 SLP044=
CYQM;2005-03-10 17:28;SPECI CYQM 101728Z 19014KT 15SM -SHSN BKN040 OVC260 RMK CU6CI1=
CYQM;2005-03-10 18:00;METAR CYQM 101800Z 23011KT 15SM -SHSN BKN040 M07/M13 A2961 RMK CU7 VIS W 3 SLP032=
CYQM;2005-03-10 18:31;SPECI CYQM 101831Z 25009KT 15SM VCSH BKN040 RMK CU6=
CYQM;2005-03-10 19:00;METAR CYQM 101900Z 20009G17KT 15SM BKN035 M05/M12 A2959 RMK CU5 SHS ALQDS SLP026=
CYQM;2005-03-10 20:00;METAR CYQM 102000Z 24009G15KT 15SM BKN035 M05/M13 A2959 RMK CU6 SHS SW-NE SLP024=
CYQM;2005-03-10 21:00;METAR CYQM 102100Z 21009KT 15SM BKN035 M05/M14 A2958 RMK CU6 SHS ALQDS SLP023=
CYQM;2005-03-10 22:00;METAR CYQM 102200Z 22008KT 15SM FEW030 SCT120 M05/M13 A2959 RMK CU2AC2 SLP026=
CYQM;2005-03-11 00:00;METAR CYQM 110000Z 26005KT 15SM FEW020 M08/M13 A2962 RMK CF1 SLP035=
CYQM;2005-03-11 02:00;METAR CYQM 110200Z 31011KT 15SM SCT040 M08/M14 A2967 RMK SC3 SLP052=
CYQM;2005-03-11 04:00;METAR CYQM 110400Z 28005KT 15SM SCT040 M10/M14 A2970 RMK SC3 SLP061=
CYQM;2005-03-11 06:00;METAR CYQM 110600Z 27004KT 15SM SKC M12/M15 A2972 RMK SLP068=
CYQM;2005-03-11 07:00;METAR CYQM 110700Z 24006KT 15SM SKC M12/M15 A2971 RMK FROIN SLP065=
CYQM;2005-03-11 09:00;METAR CYQM 110900Z 23006KT 15SM SKC M14/M16 A2973 RMK FROIN SLP073=
CYQM;2005-03-11 10:00;METAR CYQM 111000Z 24004KT 15SM FEW015 FEW260 M14/M16 A2975 RMK CU1CI1 FROIN SLP079=
CYQM;2005-03-11 11:00;METAR CYQM 111100Z 23007KT 15SM FEW015 FEW140 FEW260 M15/M16 A2975 RMK CU1AC1CI1 FROIN SLP082=
CYQM;2005-03-11 12:00;METAR CYQM 111200Z 22007KT 15SM FEW260 M13/M16 A2978 RMK CI1 SLP092=
CYQM;2005-03-11 13:00;METAR CYQM 111300Z 22008KT 15SM FEW015 FEW260 M12/M15 A2979 RMK CU1CI1 SLP095=
CYQM;2005-03-11 14:00;METAR CYQM 111400Z 24009KT 15SM FEW025 FEW260 M09/M13 A2981 RMK CU1CI1 SLP099=
CYQM;2005-03-11 16:00;METAR CYQM 111600Z 26010G16KT 15SM FEW030 FEW260 M06/M16 A2980 RMK CU1CI1 SLP097=
CYQM;2005-03-11 17:00;METAR CYQM 111700Z 23008G15KT 15SM FEW030 FEW260 M05/M16 A2979 RMK CU1CI1 SLP094=
CYQM;2005-03-11 18:00;METAR CYQM 111800Z 27008G18KT 15SM FEW035 FEW260 M05/M17 A2979 RMK CU1CI1 SLP092=
CYQM;2005-03-11 19:00;METAR CYQM 111900Z 26009KT 15SM FEW035 FEW260 M04/M17 A2980 RMK CU1CI1 SLP095=
CYQM;2005-03-11 20:00;METAR CYQM 112000Z 24004KT 15SM FEW035 FEW260 M03/M16 A2980 RMK CU1CI1 SLP096=
CYQM;2005-03-11 21:00;METAR CYQM 112100Z 26004KT 15SM FEW035 FEW260 M03/M15 A2981 RMK CU1CI1 SLP100=
CYQM;2005-03-11 22:00;METAR CYQM 112200Z 12008KT 15SM FEW030 FEW250 M04/M13 A2982 RMK SC1CI1 CONTRAILS SLP103=
CYQM;2005-03-11 23:00;METAR CYQM 112300Z 12008KT 15SM FEW140 FEW250 M05/M13 A2983 RMK AC1CI1 SLP108=
CYQM;2005-03-12 00:00;METAR CYQM 120000Z 11006KT 15SM FEW250 M06/M12 A2984 RMK CI1 SLP111=
CYQM;2005-03-12 01:00;METAR CYQM 120100Z 10009KT 15SM SKC M07/M14 A2986 RMK SLP116=
CYQM;2005-03-12 02:00;METAR CYQM 120200Z 10009KT 15SM FEW240 M08/M15 A2986 RMK CI1 SLP119=
CYQM;2005-03-12 04:00;METAR CYQM 120400Z 08005KT 15SM FEW140 FEW260 M08/M14 A2986 RMK AC1CI1 SLP119=
CYQM;2005-03-12 05:00;METAR CYQM 120500Z 09009KT 15SM FEW140 FEW260 M09/M14 A2986 RMK AC1CI0 SLP116=
CYQM;2005-03-12 07:00;METAR CYQM 120700Z 09007KT 15SM SCT260 M09/M14 A2984 RMK CI2 SLP111=
CYQM;2005-03-12 12:00;METAR CYQM 121200Z 08012KT 15SM FEW017 FEW100 BKN260 M07/M09 A2977 RMK CF1AC2CI2 SLP086=
CYQM;2005-03-12 13:00;METAR CYQM 121300Z 08018KT 15SM FEW017 FEW100 BKN260 M05/M09 A2975 RMK CF1AC1CI2 SLP080=
CYQM;2005-03-12 14:00;METAR CYQM 121400Z 07017G26KT 15SM FEW020 FEW100 BKN260 M03/M13 A2975 RMK CU1AC1CI2 SLP078=
CYQM;2005-03-12 15:00;METAR CYQM 121500Z 08016G27KT 15SM FEW100 SCT260 M03/M13 A2972 RMK AC1CI2 SLP070=
CYQM;2005-03-12 16:00;METAR CYQM 121600Z 07018G25KT 15SM FEW100 SCT260 M03/M12 A2968 RMK AC1CI2 SLP055=
CYQM;2005-03-12 18:00;METAR CYQM 121800Z 04018G28KT 15SM FEW160 BKN240 M04/M12 A2959 RMK AS2CS2 SLP023=
CYQM;2005-03-12 19:00;METAR CYQM 121900Z 04022G29KT 15SM FEW030 BKN130 OVC240 M05/M10 A2956 RMK SC1AS5CS2 SLP013=
CYQM;2005-03-12 20:55;SPECI CYQM 122055Z 04020G28KT 15SM -SHSN BKN025 OVC130 RMK SC6AS2=
CYQM;2005-03-12 21:34;SPECI CYQM 122134Z 02020G29KT 2 1/2SM -SHSN DRSN BKN025 OVC120 RMK SC6AS2=
CYQM;2005-03-12 22:00;METAR CYQM 122200Z 02023G28KT 2SM -SHSN DRSN BKN020 OVC120 M06/M09 A2953 RMK SC5AS3 SLP003=
CYQM;2005-03-12 22:14;SPECI CYQM 122214Z 02023G28KT 3/4SM R06/P6000FT/N R29/P6000FT/N -SHSN=
CYQM;2005-03-13 00:00;METAR CYQM 130000Z 02017G22KT 1 1/2SM -SHSN DRSN VV013 M06/M07 A2950 RMK SN8 SLP993=
CYQM;2005-03-13 00:54;SPECI CYQM 130054Z 02017G25KT 3SM -SHSN DRSN BKN009 RMK SC7=
CYQM;2005-03-13 01:00;METAR CYQM 130100Z 02016G22KT 4SM -SHSN DRSN BKN009 M05/M06 A2949 RMK SC7 SLP990=
CYQM;2005-03-13 02:23;SPECI CYQM 130223Z 02020G27KT 2SM -SHSN DRSN BKN012 RMK SC7=
CYQM;2005-03-13 02:36;SPECI CYQM 130236Z 02018G28KT 6SM -SHSN DRSN BKN013 RMK SC7=
CYQM;2005-03-13 03:00;METAR CYQM 130300Z 02017G26KT 8SM -SHSN DRSN BKN016 M05/M07 A2948 RMK SC7 SLP987=
CYQM;2005-03-13 03:16;SPECI CYQM 130316Z 02019G31KT 15SM BKN016 RMK SC7=
CYQM;2005-03-13 04:00;METAR CYQM 130400Z 02019G25KT 15SM SCT020 BKN250 M05/M08 A2946 RMK CF3CI1 SLP981=
CYQM;2005-03-13 06:00;METAR CYQM 130600Z 36016G25KT 15SM SCT022 BKN260 M05/M09 A2946 RMK SC4CI1 SLP980=
CYQM;2005-03-13 07:06;SPECI CYQM 130706Z 35019G24KT 10SM -SHSN BKN021 RMK SC7=
CYQM;2005-03-13 10:00;METAR CYQM 131000Z 34016G24KT 15SM BKN020 M06/M10 A2948 RMK SC7 SLP986=
CYQM;2005-03-13 12:00;METAR CYQM 131200Z 33013G21KT 15SM SCT020 BKN100 OVC260 M06/M10 A2949 RMK SC3AC3CI1 SLP991=
CYQM;2005-03-13 15:00;METAR CYQM 131500Z 34019G25KT 15SM FEW025 SCT100 BKN160 BKN260 M03/M09 A2946 RMK CU1AC3AC2CS2 SLP982=
CYQM;2005-03-13 16:00;METAR CYQM 131600Z 30018KT 15SM FEW025 FEW100 BKN140 BKN260 M02/M08 A2944 RMK CF1AC2AC3CI2 SLP975=
CYQM;2005-03-13 17:00;METAR CYQM 131700Z 30016G21KT 15SM FEW030 FEW100 BKN140 BKN260 M01/M08 A2942 RMK CF1AC2AC2CI2 SLP966=
CYQM;2005-03-13 18:00;METAR CYQM 131800Z 34014G20KT 15SM FEW030 BKN120 BKN140 OVC260 M00/M07 A2942 RMK CF1AC5AC1CI1 SLP965=
CYQM;2005-03-13 20:00;METAR CYQM 132000Z 29012KT 15SM FEW030 BKN120 OVC260 01/M09 A2940 RMK SC1AC4CI3 SLP960=
CYQM;2005-03-13 21:00;METAR CYQM 132100Z 31012KT 15SM FEW100 BKN120 BKN260 01/M09 A2940 RMK AC2AS4CI1 SLP961=
CYQM;2005-03-13 23:00;METAR CYQM 132300Z 34006KT 15SM FEW055 BKN120 BKN250 00/M05 A2942 RMK SC1AS7CI1 SLP967=
CYQM;2005-03-14 00:00;METAR CYQM 140000Z 34006KT 15SM BKN150 BKN250 M00/M04 A2943 RMK AC6CI0 SLP971=
CYQM;2005-03-14 01:00;METAR CYQM 140100Z 33013KT 15SM BKN150 M01/M05 A2945 RMK AC7 SLP975=
CYQM;2005-03-14 03:00;METAR CYQM 140300Z 32009KT 15SM BKN130 BKN240 M03/M06 A2946 RMK AC7CI1 SLP981=
CYQM;2005-03-14 03:27;SPECI CYQM 140327Z 32013G19KT 10SM -SHSN BKN045 BKN130 BKN260 RMK SC6AC1CI1=
CYQM;2005-03-14 05:00;METAR CYQM 140500Z 29012G17KT 12SM FEW027 BKN060 M03/M07 A2948 RMK SC1SC6 SLP985=
CYQM;2005-03-14 07:00;METAR CYQM 140700Z 27007KT 15SM FEW030 BKN060 M03/M06 A2949 RMK SC1SC6 SLP991=
CYQM;2005-03-14 08:00;METAR CYQM 140800Z 29008KT 12SM -SHSN BKN025 M03/M07 A2950 RMK SC7 SLP994=
CYQM;2005-03-14 09:00;METAR CYQM 140900Z 28008KT 12SM -SHSN BKN018 M03/M06 A2951 RMK SC7 SLP997=
CYQM;2005-03-14 09:36;SPECI CYQM 140936Z 28012KT 15SM -SHSN BKN014 OVC050 RMK SC7SC1=
CYQM;2005-03-14 10:00;METAR CYQM 141000Z 28009KT 15SM -SHSN OVC013 M03/M06 A2952 RMK SC8 SLP000=
CYQM;2005-03-14 12:00;METAR CYQM 141200Z 29008KT 12SM -SHSN BKN011 OVC025 M03/M05 A2953 RMK SC6SC2 VIS LWR SW SLP002=
CYQM;2005-03-14 12:34;SPECI CYQM 141234Z 30008KT 15SM BKN012 OVC025 RMK SC6SC2=
CYQM;2005-03-14 12:45;SPECI CYQM 141245Z 30008KT 12SM -SHSN BKN011 OVC025 RMK SC6SC2=
CYQM;2005-03-14 13:00;METAR CYQM 141300Z 30010KT 12SM -SHSN BKN011 OVC025 M02/M04 A2953 RMK SC6SC2 SLP002=
CYQM;2005-03-14 13:40;SPECI CYQM 141340Z 29009KT 2 1/2SM -SHSN BKN011 OVC025 RMK SC6SC2=
CYQM;2005-03-14 14:00;METAR CYQM 141400Z 29008KT 2SM -SHSN BKN011 OVC025 M02/M03 A2953 RMK SC7SC1 SLP003=
CYQM;2005-03-14 14:42;SPECI CYQM 141442Z 29007KT 1 1/4SM -SHSN BKN011 OVC020 RMK SC6SC2=
CYQM;2005-03-14 15:00;METAR CYQM 141500Z 30008KT 1SM R29/P6000FT/D R06/P6000FT/D -SHSN BKN011 OVC020 M01/M02 A2953 RMK SC7SC1 SLP004=
CYQM;2005-03-14 15:13;SPECI CYQM 141513Z 30009KT 1SM R29/P6000FT/N R06/P6000FT/D -SHSN SCT006 BKN010 OVC020 RMK SF3SF4SC1=
CYQM;2005-03-14 15:24;SPECI CYQM 141524Z 29007KT 1 1/4SM -SN BR BKN006 OVC010 RMK SF6SC2=
CYQM;2005-03-14 16:00;METAR CYQM 141600Z 30007KT 1 1/4SM -SN BR BKN006 OVC011 M00/M01 A2953 RMK SF5SC3 SLP002=
CYQM;2005-03-14 16:39;SPECI CYQM 141639Z 33010KT 2SM -SN BR BKN005 OVC011 RMK SF6SC2=
CYQM;2005-03-14 17:00;METAR CYQM 141700Z 34011KT 1 3/4SM -SN BR BKN005 OVC011 00/M01 A2952 RMK SF6ST2 SLP000=
CYQM;2005-03-14 17:02;SPECI CYQM 141702Z 33009KT 1SM R29/P6000FT/D R06/P6000FT/N -SN BR BKN005 OVC011 RMK SF7ST1=
CYQM;2005-03-14 17:17;SPECI CYQM 141717Z 34012KT 1 1/2SM -SN BR BKN005 OVC011 RMK SF7ST1 VSBY VRBL 1-2=
CYQM;2005-03-14 17:45;SPECI CYQM 141745Z 34007KT 3/4SM R29/P6000FT/N R06/P6000FT/U -SN BR BKN005 OVC010 RMK SF6ST2=
CYQM;2005-03-14 18:00;METAR CYQM 141800Z 34008KT 3/4SM R29/P6000FT/U R06/P6000FT/U -SN BR OVC005 00/M00 A2951 RMK SF8 SLP997=
CYQM;2005-03-14 18:03;SPECI CYQM 141803Z 35009KT 1 1/2SM -SN BR OVC005 RMK SF8 VSBY VRBL 1-2=
CYQM;2005-03-14 18:19;SPECI CYQM 141819Z 35009KT 3/4SM R29/P6000FT/D R06/P6000FT/D -DZSN BR OVC004 RMK SF8=
CYQM;2005-03-14 18:30;SPECI CYQM 141830Z 36010G15KT 1SM R29/6000FT/U R06/5500FT/U -DZ BR OVC004 RMK SF8 VSBY VRBL 3/4-11/4=
CYQM;2005-03-14 18:40;SPECI CYQM 141840Z 36010KT 1SM R29/P6000FT/U R06/6000FT/N -SN BR OVC004 RMK SF8 VSBY VRBL 3/4-11/4=
CYQM;2005-03-14 19:00;METAR CYQM 141900Z 35010KT 1SM R29/P6000FT/U R06/P6000FT/D -SN BR OVC004 01/00 A2951 RMK SF8 VSBY VRBL 3/4-11/4 SLP997=
CYQM;2005-03-14 19:29;SPECI CYQM 141929Z 34008KT 1SM R29/P6000FT/D R06/P6000FT/U -SN BR BKN003 OVC010 RMK SF6ST2 VSBY VRBL 3/4-11/4=
CYQM;2005-03-14 19:54;SPECI CYQM 141954Z 35014KT 1 1/2SM -DZSN BR BKN003 OVC010 RMK SF6ST2=
CYQM;2005-03-14 20:10;SPECI CYQM 142010Z 35013KT 1 1/4SM -DZ BR OVC002 RMK SF8=
CYQM;2005-03-14 20:47;SPECI CYQM 142047Z 36014KT 1SM R29/P6000FT/D R06/P6000FT/D -SN BR OVC002 RMK SF8=
CYQM;2005-03-14 21:00;METAR CYQM 142100Z 36014KT 3/4SM R29/P6000FT/D R06/6000FT/D -SN BR OVC002 00/00 A2951 RMK SF8 SLP997=
CYQM;2005-03-14 21:07;SPECI CYQM 142107Z 35016KT 1 1/4SM -DZSN BR OVC001 RMK SF8=
CYQM;2005-03-14 21:35;SPECI CYQM 142135Z 36011KT 4SM -SN BR SCT001 OVC005 RMK SF3SF5=
CYQM;2005-03-14 22:00;METAR CYQM 142200Z 36012G17KT 6SM -SN BR SCT001 OVC005 00/00 A2952 RMK SF3SF5 SLP999=
CYQM;2005-03-14 22:16;SPECI CYQM 142216Z 36011KT 2SM -SN SCT001 OVC005 RMK SF3SF5=
CYQM;2005-03-14 23:00;METAR CYQM 142300Z 36010G15KT 2SM -SN OVC005 M00/M00 A2952 RMK SF8 SLP999=
CYQM;2005-03-14 23:27;SPECI CYQM 142327Z 36011KT 8SM -SN OVC005 RMK SF8=
CYQM;2005-03-15 00:00;METAR CYQM 150000Z 36011KT 8SM -SN FEW003 OVC006 M00/M00 A2951 RMK SF2SF6 /S01/ SLP998=
CYQM;2005-03-15 00:12;SPECI CYQM 150012Z 01009KT 1 1/2SM -SN BR SCT002 OVC060 RMK SF3SF5=
CYQM;2005-03-15 01:00;METAR CYQM 150100Z 36009KT 8SM -SN SCT002 OVC005 M00/M00 A2952 RMK SF3SF5 SLP000=
CYQM;2005-03-15 01:37;SPECI CYQM 150137Z 36011KT 2SM -SN FEW002 OVC005 RMK SF2SF6=
CYQM;2005-03-15 02:54;SPECI CYQM 150254Z 01011G17KT 4SM -SN FEW002 OVC006 RMK SF2SF6=
CYQM;2005-03-15 03:20;SPECI CYQM 150320Z 02013G20KT 2SM -SN DRSN FEW002 OVC006 RMK SF2SF6=
CYQM;2005-03-15 04:00;METAR CYQM 150400Z 02014G19KT 1 1/2SM -SN DRSN FEW002 OVC006 M00/M01 A2953 RMK SF2SF6 /S01/ SLP002=
CYQM;2005-03-15 07:00;METAR CYQM 150700Z 01018KT 2 1/2SM -SN DRSN OVC006 M01/M01 A2954 RMK SF8 SLP008=
CYQM;2005-03-15 09:00;METAR CYQM 150900Z 01015KT 1SM R29/4500VP6000FT/D R06/3500FT/N -SN DRSN OVC006 M01/M01 A2958 RMK SF8 SLP021=
CYQM;2005-03-15 09:40;SPECI CYQM 150940Z 01015KT 1 1/2SM -SN DRSN BKN007 OVC011 RMK SF6SF2=
CYQM;2005-03-15 10:00;METAR CYQM 151000Z 01016KT 2 1/2SM -SN DRSN BKN007 OVC011 M01/M01 A2960 RMK SF6SF2 SLP028=
CYQM;2005-03-15 10:12;SPECI CYQM 151012Z 01014G20KT 2SM -SN -FZDZ BKN007 OVC012 RMK SF6SF2=
CYQM;2005-03-15 10:22;SPECI CYQM 151022Z 01015KT 2SM -FZDZ BR BKN007 OVC012 RMK SF6SF2=
CYQM;2005-03-15 10:43;SPECI CYQM 151043Z 01013KT 3SM -FZDZ BR BKN006 OVC011 RMK SF7SF1=
CYQM;2005-03-15 11:00;METAR CYQM 151100Z 02015KT 3SM -FZDZ BR BKN006 OVC011 M01/M02 A2962 RMK SF7SF1 SLP033=
CYQM;2005-03-15 11:28;SPECI CYQM 151128Z 01014KT 5SM -SN -FZDZ BR BKN006 OVC011 RMK SF7SF1=
CYQM;2005-03-15 12:00;METAR CYQM 151200Z 01011G16KT 4SM -FZDZ BR BKN006 OVC011 M01/M02 A2962 RMK SF6SF2 /S02/ SLP035=
CYQM;2005-03-15 12:15;SPECI CYQM 151215Z 36012KT 6SM -SHSN BR SCT006 OVC010 REFZDZ RMK SF3SF5=
CYQM;2005-03-15 13:21;SPECI CYQM 151321Z 36012KT 15SM FEW006 BKN017 RMK SF2SC5=
CYQM;2005-03-15 14:00;METAR CYQM 151400Z 01013KT 15SM SCT007 BKN030 M01/M02 A2964 RMK CF4SC2 SLP039=
CYQM;2005-03-15 14:14;SPECI CYQM 151414Z 36015KT 15SM BKN008 BKN100 RMK CF5AC1=
CYQM;2005-03-15 15:00;METAR CYQM 151500Z 36014G20KT 15SM SCT008 SCT100 M01/M02 A2964 RMK CF3AC1 SLP039=
CYQM;2005-03-15 16:00;METAR CYQM 151600Z 01012G18KT 15SM FEW010 SCT120 M00/M01 A2962 RMK CF2AC1 SLP035=
CYQM;2005-03-15 17:00;METAR CYQM 151700Z 34011KT 15SM FEW017 SCT120 BKN250 00/M02 A2962 RMK CF2AC1CI1 SLP032=
CYQM;2005-03-15 18:00;METAR CYQM 151800Z 36010KT 15SM BKN022 BKN140 BKN250 02/M02 A2961 RMK CU5AC1CI1 SLP029=
CYQM;2005-03-15 22:00;METAR CYQM 152200Z 22004KT 15SM BKN035 OVC250 03/M02 A2956 RMK SC6CI2 SLP015=
CYQM;2005-03-15 22:54;SPECI CYQM 152254Z 31009KT 12SM -SHRA BKN035 OVC100 RMK SC6AS1=
CYQM;2005-03-15 23:19;SPECI CYQM 152319Z 32013KT 12SM -SHSN SCT011 OVC030 RMK SC3SC5=
CYQM;2005-03-16 00:00;METAR CYQM 160000Z 33010KT 12SM -RASN SCT014 OVC020 01/01 A2959 RMK SC3SC5 SLP025=
CYQM;2005-03-16 00:08;SPECI CYQM 160008Z 36009G21KT 2SM -SN FEW007 BKN014 OVC020 RMK SF2SC5SC2=
CYQM;2005-03-16 00:26;SPECI CYQM 160026Z 36009KT 4SM -SN SCT007 BKN014 BKN040 RMK SF3SC2SC2=
CYQM;2005-03-16 01:00;METAR CYQM 160100Z 34004KT 3SM -SN BKN006 BKN040 BKN080 00/00 A2960 RMK SF5SC2AC1 SLP028=
CYQM;2005-03-16 01:30;SPECI CYQM 160130Z 29003KT 15SM BKN006 BKN100 RMK SF6AC1=
CYQM;2005-03-16 02:00;METAR CYQM 160200Z 31005KT 15SM BKN008 BKN012 OVC100 00/M00 A2961 RMK SF5SC2AC1 SLP031=
CYQM;2005-03-16 02:42;SPECI CYQM 160242Z 35006KT 15SM -SHSN BKN006 OVC011 RMK SF6SC2=
CYQM;2005-03-16 03:19;SPECI CYQM 160319Z 36016KT 15SM BKN006 OVC011 RMK SF6SC2=
CYQM;2005-03-16 04:00;METAR CYQM 160400Z 36018KT 12SM -SHSN BKN007 OVC011 M01/M02 A2963 RMK SF6SC2 SLP037=
CYQM;2005-03-16 04:44;SPECI CYQM 160444Z 36012G17KT 4SM -SN DRSN BKN007 OVC016 RMK SF6SC2=
CYQM;2005-03-16 05:25;SPECI CYQM 160525Z 36008KT 15SM BKN007 BKN016 RMK SF5SC2=
CYQM;2005-03-16 07:00;METAR CYQM 160700Z 34008KT 15SM SCT007 M03/M05 A2968 RMK SF3 SLP056=
CYQM;2005-03-16 10:00;METAR CYQM 161000Z 32008KT 15SM FEW025 FEW140 FEW260 M04/M06 A2972 RMK SC1AC1CI0 SLP069=
CYQM;2005-03-16 11:00;METAR CYQM 161100Z 33010KT 15SM BKN015 M03/M05 A2974 RMK SC5 SLP074=
CYQM;2005-03-16 12:00;METAR CYQM 161200Z 34010KT 15SM BKN018 BKN100 M03/M05 A2975 RMK SC7AC1 SLP077=
CYQM;2005-03-16 13:00;METAR CYQM 161300Z 34011KT 15SM BKN025 M02/M04 A2975 RMK SC7 SLP079=
CYQM;2005-03-16 14:00;METAR CYQM 161400Z 35011KT 15SM FEW012 BKN028 M01/M03 A2975 RMK CF1SC6 SLP078=
CYQM;2005-03-16 15:00;METAR CYQM 161500Z 36015G20KT 15SM SCT013 BKN030 00/M04 A2974 RMK CU3SC4 SLP076=
CYQM;2005-03-16 16:00;METAR CYQM 161600Z 01020KT 15SM FEW015 BKN030 01/M04 A2974 RMK SC2SC5 SLP074=
CYQM;2005-03-16 17:00;METAR CYQM 161700Z 36015G21KT 15SM BKN018 BKN040 BKN100 01/M04 A2974 RMK SC6SC1AC1 SLP074=
CYQM;2005-03-16 18:00;METAR CYQM 161800Z 36016KT 15SM BKN022 BKN100 01/M03 A2974 RMK SC6AC1 SLP075=
CYQM;2005-03-16 19:00;METAR CYQM 161900Z 36014KT 15SM BKN027 BKN060 BKN100 02/M03 A2974 RMK SC5SC1AC1 SLP076=
CYQM;2005-03-16 20:00;METAR CYQM 162000Z 36014KT 15SM SCT030 SCT250 02/M03 A2974 RMK SC4CI1 SLP075=
CYQM;2005-03-16 21:00;METAR CYQM 162100Z 02009KT 15SM FEW035 FEW260 02/M04 A2974 RMK SC1CI1 SLP075=
CYQM;2005-03-16 22:00;METAR CYQM 162200Z 02005KT 15SM FEW035 FEW260 01/M04 A2974 RMK SC1CI1 SLP075=
CYQM;2005-03-16 23:00;METAR CYQM 162300Z 05002KT 15SM SCT050 00/M05 A2975 RMK SC3 SLP078=
CYQM;2005-03-17 00:00;METAR CYQM 170000Z 03003KT 15SM SCT050 M00/M06 A2975 RMK SC3 SLP080=
CYQM;2005-03-17 02:00;METAR CYQM 170200Z 33002KT 15SM BKN050 M01/M06 A2978 RMK SC5 SLP087=
CYQM;2005-03-17 03:00;METAR CYQM 170300Z 32003KT 15SM FEW050 M03/M07 A2977 RMK SC2 SLP086=
CYQM;2005-03-17 04:00;METAR CYQM 170400Z 00000KT 15SM FEW050 M03/M08 A2976 RMK SC2 SLP083=
CYQM;2005-03-17 05:00;METAR CYQM 170500Z 32004KT 15SM FEW050 M04/M08 A2976 RMK SC2 SLP082=
CYQM;2005-03-17 06:00;METAR CYQM 170600Z 27004KT 15SM SKC M04/M08 A2976 RMK SLP083=
CYQM;2005-03-17 09:00;METAR CYQM 170900Z 33007KT 15SM BKN045 BKN140 M02/M06 A2977 RMK SC6AC1 SLP085=
CYQM;2005-03-17 10:00;METAR CYQM 171000Z 32007KT 15SM BKN045 BKN140 M02/M06 A2977 RMK SC6AC1 SLP086=
CYQM;2005-03-17 11:00;METAR CYQM 171100Z 31007KT 15SM BKN040 BKN130 M03/M06 A2978 RMK SC7AC1 SLP090=
CYQM;2005-03-17 12:00;METAR CYQM 171200Z 32008KT 15SM BKN050 BKN130 M02/M06 A2980 RMK SC7AC1 SLP095=
CYQM;2005-03-17 13:00;METAR CYQM 171300Z 32007KT 15SM BKN060 BKN140 M01/M05 A2981 RMK SC7AC1 SLP097=
CYQM;2005-03-17 15:00;METAR CYQM 171500Z 29008KT 15SM OVC075 01/M03 A2979 RMK AC8 SLP093=
CYQM;2005-03-17 16:00;METAR CYQM 171600Z 35007KT 15SM BKN085 02/M03 A2979 RMK AC7 SLP092=
CYQM;2005-03-17 17:00;METAR CYQM 171700Z 36007KT 15SM FEW025 BKN085 02/M06 A2978 RMK CU1AC6 SLP089=
CYQM;2005-03-17 18:00;METAR CYQM 171800Z 33008KT 15SM FEW025 BKN085 02/M07 A2978 RMK CU1AC6 VIRGA SLP088=
CYQM;2005-03-17 19:00;METAR CYQM 171900Z 33005KT 15SM FEW025 BKN080 02/M06 A2978 RMK SC1AC6 VIRGA SLP088=
CYQM;2005-03-17 20:00;METAR CYQM 172000Z 02011G16KT 15SM FEW020 BKN075 01/M06 A2978 RMK SC1AC6 SLP089=
CYQM;2005-03-17 20:32;SPECI CYQM 172032Z 02011KT 15SM -SHSN FEW008 BKN025 BKN070 RMK SF2SC3AC2=
CYQM;2005-03-17 21:00;METAR CYQM 172100Z 36012KT 10SM -SHSN FEW008 BKN020 OVC070 M00/M02 A2980 RMK SF2SC4AC2 SLP095=
CYQM;2005-03-17 21:43;SPECI CYQM 172143Z 36012KT 6SM -SHSN SCT008 BKN015 OVC050 RMK SF3SC4SC1=
CYQM;2005-03-17 22:00;METAR CYQM 172200Z 01009KT 5SM -SHSN SCT008 BKN015 OVC050 M01/M02 A2981 RMK SF3SC4SC1 VIS SW 10 SLP099=
CYQM;2005-03-17 23:45;SPECI CYQM 172345Z 35007KT 6SM -SHSN FEW008 BKN025 BKN040 RMK SF1SC5SC1 MOON VISBL=
CYQM;2005-03-18 00:00;METAR CYQM 180000Z 34006KT 6SM -SHSN FEW008 SCT025 BKN040 M01/M03 A2981 RMK SF1SC3SC2 /S01/ SLP100=
CYQM;2005-03-18 01:41;SPECI CYQM 180141Z 30004KT 2 1/2SM -SHSN FEW008 BKN025 RMK SF2SC6=
CYQM;2005-03-18 02:00;METAR CYQM 180200Z 30006KT 2SM -SHSN FEW008 OVC025 M01/M02 A2983 RMK SF2SC6 SLP105=
CYQM;2005-03-18 02:30;SPECI CYQM 180230Z 29007KT 1 1/4SM -SHSN VV014 RMK SN8=
CYQM;2005-03-18 04:00;METAR CYQM 180400Z 29007KT 1 1/4SM -SHSN VV014 M01/M03 A2981 RMK SN8 /S02/ SLP098=
CYQM;2005-03-18 05:48;SPECI CYQM 180548Z 29007KT 1 1/4SM R29/P6000FT/U -SHSN VV008 RMK SN8=
CYQM;2005-03-18 07:00;METAR CYQM 180700Z 30008KT 1 1/2SM R29/P6000FT/U -SN VV012 M01/M02 A2978 RMK SN8 /S01/ SLP088=
CYQM;2005-03-18 09:00;METAR CYQM 180900Z 29006KT 1 1/2SM -SN VV012 M01/M02 A2977 RMK SN8 /S03/ SLP084=
CYQM;2005-03-18 10:00;METAR CYQM 181000Z 29006KT 1 3/4SM -SN OVC014 M01/M01 A2977 RMK SN4SC4 /S04/ SLP086=
CYQM;2005-03-18 10:25;SPECI CYQM 181025Z 28006KT 1SM R29/P6000FT/D R06/P6000FT/D -SN BR BKN006 OVC012 RMK SN3SF4SC1=
CYQM;2005-03-18 10:46;SPECI CYQM 181046Z 28005KT 1 1/2SM -SN BR BKN004 OVC008 RMK SN2SF3SF2=
CYQM;2005-03-18 11:00;METAR CYQM 181100Z 29005KT 1 1/2SM -SN BR BKN004 OVC008 M01/M01 A2977 RMK SN2SF4SF2 SLP086=
CYQM;2005-03-18 11:14;SPECI CYQM 181114Z 29005KT 1 1/4SM -SN BR BKN004 OVC008 RMK SN3SF3SF2=
CYQM;2005-03-18 11:29;SPECI CYQM 181129Z 30005KT 1 3/4SM -SN BR OVC005 RMK SF8=
CYQM;2005-03-18 11:53;SPECI CYQM 181153Z 30005KT 1 1/4SM -SN BR BKN005 OVC008 RMK SF6SF2=
CYQM;2005-03-18 12:00;METAR CYQM 181200Z 31005KT 1 1/4SM -SN BR BKN005 OVC008 M01/M01 A2977 RMK SF6SF2 SLP086=
CYQM;2005-03-18 12:47;SPECI CYQM 181247Z 32008KT 1 1/2SM -SN BR BKN005 OVC009 RMK SF6SF2=
CYQM;2005-03-18 13:10;SPECI CYQM 181310Z 32007KT 1SM R29/P6000FT/N R06/P6000FT/D -SN BR BKN005 OVC120 RMK SF6AS2=
CYQM;2005-03-18 14:38;SPECI CYQM 181438Z 34006KT 3/4SM R29/P6000FT/N R06/P6000FT/D -SN BR OVC006 RMK SF7=
CYQM;2005-03-18 15:00;METAR CYQM 181500Z 35007KT 1SM R29/P6000FT/U R06/P6000FT/U -SN BR BKN006 OVC120 00/M00 A2977 RMK SF6AS2 SLP085=
CYQM;2005-03-18 15:24;SPECI CYQM 181524Z 35005KT 2 1/2SM -SN BR BKN006 OVC100 RMK SF6AC2=
CYQM;2005-03-18 15:48;SPECI CYQM 181548Z 34003KT 4SM -SHSN BKN006 OVC100 RMK SF7AC1=
CYQM;2005-03-18 16:00;METAR CYQM 181600Z 35004KT 4SM -SHSN BR BKN006 OVC100 00/M00 A2976 RMK SF7AC1 SLP082=
CYQM;2005-03-18 17:00;METAR CYQM 181700Z 34006KT 2 1/2SM -SHSN BR BKN008 OVC120 01/M00 A2975 RMK SF6AS2 SLP078=
CYQM;2005-03-18 17:45;SPECI CYQM 181745Z 35006KT 1 1/4SM -SHSN BR BKN008 OVC120 RMK SF7AS1=
CYQM;2005-03-18 17:53;SPECI CYQM 181753Z 36007KT 3/4SM R29/P6000FT/D R06/P6000FT/D -SN BR BKN008 OVC120 RMK SN2SF5AS1=
CYQM;2005-03-18 18:00;METAR CYQM 181800Z 35006KT 5/8SM R29/P6000FT/D R06/4500VP6000FT/D -SHSN BR BKN008 OVC120 01/00 A2974 RMK SN2SF5AS1 SLP076=
CYQM;2005-03-18 18:19;SPECI CYQM 181819Z 02006KT 3/4SM R29/5000FT/D R06/5500FT/U -SHSN BR BKN008 OVC120 RMK SN2SF5AS1=
CYQM;2005-03-18 19:18;SPECI CYQM 181918Z 36006KT 3/4SM R29/P6000FT/D R06/P6000FT/D -SHSN BR BKN005 OVC007 RMK SF6SF2=
CYQM;2005-03-18 19:36;SPECI CYQM 181936Z 35005KT 1SM R29/P6000FT/U R06/P6000FT/U -SN BR BKN005 OVC017 RMK SF5SC3 VSBY VRBL 3/4-11/4=
CYQM;2005-03-18 20:12;SPECI CYQM 182012Z 02009KT 1SM R29/P6000FT/D R06/P6000FT/D -SN BR BKN006 OVC011 RMK SF6SF2 VSBY VRBL 3/4-11/4=
CYQM;2005-03-18 20:41;SPECI CYQM 182041Z 02007KT 1 1/2SM -SN BR BKN005 OVC008 RMK SF6SF2=
CYQM;2005-03-18 21:28;SPECI CYQM 182128Z 01007KT 3/4SM R29/P6000FT/D R06/P6000FT/D -SN VV006 RMK SN8=
CYQM;2005-03-18 23:00;METAR CYQM 182300Z 01007KT 1SM R29/P6000FT/N R06/P6000FT/D -SN VV008 M01/M01 A2974 RMK SN8 /S01/ SLP074=
CYQM;2005-03-18 23:14;SPECI CYQM 182314Z 01006KT 2SM -SN OVC007 RMK SF8=
CYQM;2005-03-18 23:36;SPECI CYQM 182336Z 36008KT 8SM -SN OVC006 RMK SF8=
CYQM;2005-03-19 01:29;SPECI CYQM 190129Z 34005KT 2 1/2SM -SN OVC005 RMK SF8=
CYQM;2005-03-19 03:00;METAR CYQM 190300Z 36007KT 1 1/2SM -SN FEW003 OVC006 M01/M01 A2971 RMK SF2SF6 SLP064=
CYQM;2005-03-19 04:00;METAR CYQM 190400Z 36008KT 1 1/2SM -SN FEW003 OVC006 M01/M01 A2970 RMK SF2SF6 SLP060=
CYQM;2005-03-19 04:23;SPECI CYQM 190423Z 36010KT 1SM R29/P6000FT/N R06/6000FT/D -SN VV008 RMK SN8=
CYQM;2005-03-19 07:00;METAR CYQM 190700Z 35016G21KT 2SM -SN DRSN OVC005 M01/M02 A2969 RMK SN5SF3 SLP059=
CYQM;2005-03-19 07:09;SPECI CYQM 190709Z 35015KT 6SM -SN DRSN OVC005 RMK SF8=
CYQM;2005-03-19 07:33;SPECI CYQM 190733Z 36014G19KT 1SM R29/P6000FT/N R06/4500VP6000FT/D -SN DRSN OVC005 RMK SF8=
CYQM;2005-03-19 09:00;METAR CYQM 190900Z 35016G24KT 1 1/4SM -SN DRSN BKN007 OVC015 M02/M02 A2972 RMK SF7SC1 SLP068=
CYQM;2005-03-19 09:17;SPECI CYQM 190917Z 35016KT 2 1/2SM -SN DRSN OVC007 RMK SF8=
CYQM;2005-03-19 09:35;SPECI CYQM 190935Z 35017G22KT 4SM -SN DRSN OVC007 RMK SF8=
CYQM;2005-03-19 10:00;METAR CYQM 191000Z 35018G25KT 2 1/2SM -SN DRSN OVC007 M02/M02 A2974 RMK SF8 /S02/ SLP075=
CYQM;2005-03-19 11:00;METAR CYQM 191100Z 35014G20KT 4SM -SN DRSN BKN007 OVC030 M01/M02 A2977 RMK SF7SC1 SLP085=
CYQM;2005-03-19 11:19;SPECI CYQM 191119Z 35016KT 6SM -SHSN DRSN FEW007 OVC030 RMK SF2SC5=
CYQM;2005-03-19 12:00;METAR CYQM 191200Z 34011G18KT 12SM -SHSN DRSN FEW007 BKN035 M01/M03 A2979 RMK SF1SC6 SLP092=
CYQM;2005-03-19 12:31;SPECI CYQM 191231Z 32011KT 15SM FEW008 OVC040 RMK SF1SC6=
CYQM;2005-03-19 13:00;METAR CYQM 191300Z 33011KT 15SM FEW008 OVC040 M01/M02 A2980 RMK CF1SC7 SLP096=
CYQM;2005-03-19 14:00;METAR CYQM 191400Z 32013KT 15SM FEW010 OVC050 00/M02 A2981 RMK CF1SC7 SLP098=
CYQM;2005-03-19 16:00;METAR CYQM 191600Z 31013KT 15SM SCT016 OVC075 01/M02 A2981 RMK CF3AC4 SLP098=
CYQM;2005-03-19 18:13;SPECI CYQM 191813Z 32015G22KT 8SM -SHGS DRSN BKN025 OVC060 RMK CU5SC3 VIS E 2=
CYQM;2005-03-19 18:25;SPECI CYQM 191825Z 31010KT 12SM -SHSN SCT025 OVC060 RMK CU3SC4=
CYQM;2005-03-19 20:00;METAR CYQM 192000Z 33008KT 10SM -SHSN FEW020 BKN035 OVC060 01/M02 A2982 RMK CU2SC4SC2 SLP102=
CYQM;2005-03-19 20:29;SPECI CYQM 192029Z 30008KT 15SM FEW012 BKN035 RMK CU2SC6 SHS N=
CYQM;2005-03-19 20:45;SPECI CYQM 192045Z 30009KT 12SM -SHSN FEW012 BKN035 RMK CU2SC6 VIS LWR N=
CYQM;2005-03-19 20:54;SPECI CYQM 192054Z 31015KT 3/8SM R29/4500VP6000FT/D R06/2000VP6000FT/D SHSN BKN012 OVC035 RMK SN2CU3SC2=
CYQM;2005-03-19 21:42;SPECI CYQM 192142Z 36007G16KT 3/4SM R26/3500VP6000FT/D R06/P6000FT/D -SHSN OVC030 RMK SN3SC5=
CYQM;2005-03-19 21:48;SPECI CYQM 192148Z 01004KT 4SM -SHSN BKN030 RMK SC7 VIS SE 3/4 VIS N QUAD 15=
CYQM;2005-03-19 22:00;METAR CYQM 192200Z 35004KT 12SM -SHSN FEW012 BKN030 BKN060 M01/M01 A2984 RMK CF1SC6SC1 VIS S-W 3/4 SLP107=
CYQM;2005-03-19 22:18;SPECI CYQM 192218Z 01008KT 3/4SM R29/P6000FT/D R06/4500VP6000FT/D -SHSN VV008 RMK SN8=
CYQM;2005-03-19 22:22;SPECI CYQM 192222Z 35007KT 3/8SM R29/P6000FT/D R06/3500VP6000FT/D SHSN VV006 RMK SN8=
CYQM;2005-03-19 22:26;SPECI CYQM 192226Z 34007KT 1 1/2SM R29/P6000FT/D R06/3500VP6000FT/U -SHSN OVC030 RESN RMK SN1SC7=
CYQM;2005-03-19 22:30;SPECI CYQM 192230Z 35008KT 8SM -SHSN FEW012 OVC030 RESN RMK CF1SC7 VIS S 1=
CYQM;2005-03-19 23:17;SPECI CYQM 192317Z 35005KT 1 1/4SM -SHSN BKN012 OVC030 RMK SC5SC3=
CYQM;2005-03-19 23:22;SPECI CYQM 192322Z 35007KT 15SM -SHSN FEW006 BKN012 BKN030 RMK SF1SC4SC2 VIS S 2=
CYQM;2005-03-19 23:33;SPECI CYQM 192333Z 34005KT 15SM -SHSN FEW006 BKN030 BKN060 RMK SF1SC4SC2=
CYQM;2005-03-20 00:00;METAR CYQM 200000Z 32012KT 15SM -SHSN BKN030 M01/M02 A2987 RMK SC7 SLP118=
CYQM;2005-03-20 02:00;METAR CYQM 200200Z 29006KT 15SM BKN050 M02/M04 A2988 RMK SC6 SLP122=
CYQM;2005-03-20 03:00;METAR CYQM 200300Z 27008KT 15SM FEW050 M03/M06 A2987 RMK SC2 SLP119=
CYQM;2005-03-20 04:00;METAR CYQM 200400Z 27008KT 15SM SKC M03/M06 A2986 RMK SLP115=
CYQM;2005-03-20 05:00;METAR CYQM 200500Z 26008KT 15SM SKC M04/M07 A2984 RMK SLP109=
CYQM;2005-03-20 07:00;METAR CYQM 200700Z 27011KT 15SM SKC M04/M07 A2982 RMK SLP102=
CYQM;2005-03-20 09:00;METAR CYQM 200900Z 27011G16KT 15SM SKC M04/M07 A2981 RMK SLP099=
CYQM;2005-03-20 10:00;METAR CYQM 201000Z 25011KT 15SM FEW240 M05/M07 A2981 RMK CI1 SLP099=
CYQM;2005-03-20 13:00;METAR CYQM 201300Z 29017KT 15SM FEW017 FEW240 M02/M07 A2980 RMK CF1CI1 SLP096=
CYQM;2005-03-20 14:00;METAR CYQM 201400Z 30011G22KT 15SM FEW022 FEW240 M01/M07 A2980 RMK CU1CI1 SLP096=
CYQM;2005-03-20 15:00;METAR CYQM 201500Z 29015KT 15SM FEW025 FEW240 M00/M07 A2979 RMK CU1CI1 SLP092=
CYQM;2005-03-20 16:00;METAR CYQM 201600Z 27012KT 15SM FEW025 FEW240 01/M06 A2978 RMK CU1CI1 SLP090=
CYQM;2005-03-20 17:00;METAR CYQM 201700Z 27012KT 15SM FEW030 FEW240 02/M05 A2978 RMK CU1CI1 SLP087=
CYQM;2005-03-20 22:00;METAR CYQM 202200Z 04006KT 15SM FEW040 FEW240 01/M07 A2982 RMK SC1CI1 SLP102=
CYQM;2005-03-20 23:00;METAR CYQM 202300Z 04003KT 15SM FEW040 FEW240 M01/M08 A2984 RMK SC1CI1 SLP108=
CYQM;2005-03-21 00:00;METAR CYQM 210000Z 35003KT 15SM FEW040 FEW240 M01/M07 A2986 RMK SC1CI1 SLP115=
CYQM;2005-03-21 03:00;METAR CYQM 210300Z 28002KT 15SM BKN050 M02/M06 A2988 RMK SC6 SLP121=
CYQM;2005-03-21 04:00;METAR CYQM 210400Z 32003KT 15SM SCT050 BKN100 M02/M06 A2988 RMK SC3AC3 SLP122=
CYQM;2005-03-21 05:00;METAR CYQM 210500Z 29002KT 15SM FEW050 BKN100 M03/M06 A2988 RMK SC1AC5 SLP121=
CYQM;2005-03-21 07:00;METAR CYQM 210700Z 23005KT 15SM FEW040 BKN100 M04/M07 A2987 RMK SC2AC5 SLP118=
CYQM;2005-03-21 09:00;METAR CYQM 210900Z 31003KT 15SM SCT025 BKN100 M03/M06 A2990 RMK SC3AC2 SLP129=
CYQM;2005-03-21 10:00;METAR CYQM 211000Z 33005KT 15SM BKN030 BKN050 M03/M05 A2991 RMK SC6SC2 SLP133=
CYQM;2005-03-21 10:05;SPECI CYQM 211005Z 35004KT 12SM -SHSN BKN030 BKN050 RMK SC6SC2=
CYQM;2005-03-21 10:44;SPECI CYQM 211044Z 32004KT 12SM BKN025 BKN050 RMK SC6SC2=
CYQM;2005-03-21 12:00;METAR CYQM 211200Z 34005KT 12SM BKN020 BKN050 M01/M05 A2994 RMK SC6SC2 SLP141=
CYQM;2005-03-21 12:06;SPECI CYQM 211206Z 34006KT 10SM -SHSN BKN020 BKN050 RMK SC6SC2=
CYQM;2005-03-21 13:28;SPECI CYQM 211328Z 36007KT 2 1/2SM -SHSN BKN020 BKN050 RMK SC6SC2=
CYQM;2005-03-21 14:27;SPECI CYQM 211427Z 36007KT 1 1/4SM -SHSN BKN012 OVC020 RMK SC6SC2=
CYQM;2005-03-21 15:17;SPECI CYQM 211517Z 03009KT 4SM -SHSN BKN010 OVC020 RMK SC6SC2=
CYQM;2005-03-21 15:41;SPECI CYQM 211541Z 05006KT 3SM BR VCSH BKN008 OVC020 RMK SC6SC2=
CYQM;2005-03-21 16:00;METAR CYQM 211600Z 04007KT 2SM BR VCSH BKN008 OVC020 01/M01 A2994 RMK SC6SC2 SLP142=
CYQM;2005-03-21 16:06;SPECI CYQM 211606Z 05006KT 2SM -SHSN BR BKN008 OVC020 RMK SC6SC2=
CYQM;2005-03-21 16:39;SPECI CYQM 211639Z 01003KT 1 1/4SM -SHSN BR BKN007 OVC020 RMK SC6SC2=
CYQM;2005-03-21 16:54;SPECI CYQM 211654Z 01003KT 4SM -SHSN BR BKN007 BKN020 RMK SC5SC2=
CYQM;2005-03-21 17:00;METAR CYQM 211700Z 00000KT 7SM -SHSN BKN010 BKN025 02/M01 A2994 RMK SC5SC2 SLP142=
CYQM;2005-03-21 18:00;METAR CYQM 211800Z 02004KT 10SM -SHSN BKN013 BKN025 01/M02 A2993 RMK SC5SC2 SLP138=
CYQM;2005-03-21 18:27;SPECI CYQM 211827Z 05006KT 12SM BKN015 BKN025 RMK SC5SC2=
CYQM;2005-03-21 19:00;METAR CYQM 211900Z 02005KT 12SM BKN015 BKN025 01/M03 A2992 RMK SC6SC2 SLP136=
CYQM;2005-03-21 19:40;SPECI CYQM 211940Z 04007KT 15SM -SHSN BKN014 BKN025 RMK SC6SC2=
CYQM;2005-03-21 20:45;SPECI CYQM 212045Z 02008KT 15SM BKN020 BKN030 BKN250 RMK SC5SC1CI1=
CYQM;2005-03-21 21:00;METAR CYQM 212100Z 36005KT 15SM BKN020 BKN030 BKN250 01/M04 A2992 RMK SC5SC1CI1 SLP137=
CYQM;2005-03-21 23:00;METAR CYQM 212300Z 07003KT 15SM SCT025 BKN050 BKN240 M00/M03 A2994 RMK SC4SC2CS1 SLP143=
CYQM;2005-03-21 23:27;SPECI CYQM 212327Z 05003KT 15SM -SHSN BKN025 BKN045 BKN240 RMK SC5SC1CI1=
CYQM;2005-03-22 01:00;METAR CYQM 220100Z 04002KT 8SM -SHSN SCT022 BKN110 BKN250 M01/M02 A2995 RMK SC3AC2CS0 VIS N 3 SLP146=
CYQM;2005-03-22 02:47;SPECI CYQM 220247Z 07004KT 4SM -SHSN BR BKN007 OVC110 RMK SC6AC1=
CYQM;2005-03-22 04:00;METAR CYQM 220400Z 06003KT 3SM -SHSN FEW005 BKN011 OVC110 M02/M03 A2996 RMK SF2SC6AC1 /S01/ SLP150=
CYQM;2005-03-22 05:00;METAR CYQM 220500Z 00000KT 5SM -SHSN BKN035 OVC120 M02/M04 A2996 RMK SC6AC2 SLP148=
CYQM;2005-03-22 05:36;SPECI CYQM 220536Z 26002KT 15SM BKN035 BKN240 RMK SC7CI1=
CYQM;2005-03-22 06:00;METAR CYQM 220600Z 00000KT 15SM BKN023 BKN250 M02/M03 A2995 RMK SC7CI1 SLP145=
CYQM;2005-03-22 07:52;SPECI CYQM 220752Z 36007KT 15SM BKN006 BKN025 BKN250 RMK SF6SC1CI1=
CYQM;2005-03-22 08:00;METAR CYQM 220800Z 36005KT 15SM BKN006 BKN025 BKN250 M02/M03 A2995 RMK SF6SC1CI1 SLP146=
CYQM;2005-03-22 08:22;SPECI CYQM 220822Z 01005KT 15SM BKN004 BKN007 BKN025 RMK SF6SF1SC1=
CYQM;2005-03-22 08:49;SPECI CYQM 220849Z 01007KT 15SM SCT005 BKN140 BKN250 RMK SF3AC4CI1=
CYQM;2005-03-22 09:00;METAR CYQM 220900Z 01005KT 15SM FEW007 SCT020 BKN140 M03/M04 A2996 RMK SC2SC1AC4 SLP151=
CYQM;2005-03-22 10:00;METAR CYQM 221000Z 01007KT 15SM FEW030 BKN140 BKN250 M03/M04 A2997 RMK SC2AC4CI1 SLP153=
CYQM;2005-03-22 11:00;METAR CYQM 221100Z 36004KT 15SM FEW030 BKN120 BKN250 M03/M04 A2998 RMK SC2AC4CI1 SLP158=
CYQM;2005-03-22 12:00;METAR CYQM 221200Z 02004KT 15SM FEW030 BKN120 BKN250 M04/M06 A3000 RMK SC1AC6CI1 SLP163=
CYQM;2005-03-22 13:00;METAR CYQM 221300Z 36007KT 15SM FEW030 FEW120 BKN250 M03/M07 A3001 RMK CU1AC1CI2 SLP166=
CYQM;2005-03-22 15:00;METAR CYQM 221500Z 36005KT 15SM FEW030 FEW120 SCT250 M00/M06 A3001 RMK CU1AC1CI1 SLP168=
CYQM;2005-03-22 16:00;METAR CYQM 221600Z 03006KT 15SM FEW030 SCT250 00/M06 A3002 RMK CU1CI1 SLP169=
CYQM;2005-03-22 17:00;METAR CYQM 221700Z 01003KT 15SM FEW030 SCT250 02/M06 A3001 RMK CU1CI1 SLP166=
CYQM;2005-03-22 21:00;METAR CYQM 222100Z 05005KT 15SM FEW040 FEW100 SCT250 02/M05 A3000 RMK CU1AC1CI1 SLP165=
CYQM;2005-03-22 22:00;METAR CYQM 222200Z 07005KT 15SM FEW030 FEW100 FEW250 02/M04 A3001 RMK SC1AC1CI0 SLP167=
CYQM;2005-03-22 23:00;METAR CYQM 222300Z 08006KT 15SM FEW030 FEW130 SCT260 00/M04 A3001 RMK SC1AC1CI1 SLP167=
CYQM;2005-03-23 00:00;METAR CYQM 230000Z 08006KT 15SM FEW025 FEW130 SCT260 M01/M07 A3002 RMK SC1AC1CI1 SLP170=
CYQM;2005-03-23 01:00;METAR CYQM 230100Z 11005KT 15SM BKN060 BKN250 M01/M07 A3003 RMK SC5CI0 SLP172=
CYQM;2005-03-23 02:00;METAR CYQM 230200Z 12008KT 15SM BKN060 BKN100 BKN250 M02/M07 A3000 RMK SC5AC1CI0 SLP164=
CYQM;2005-03-23 04:00;METAR CYQM 230400Z 19003KT 15SM SCT070 BKN240 M02/M06 A2998 RMK AC4CI1 SLP157=
CYQM;2005-03-23 08:00;METAR CYQM 230800Z 18004KT 15SM BKN085 BKN250 M02/M03 A2989 RMK AC7CI1 SLP127=
CYQM;2005-03-23 09:00;METAR CYQM 230900Z 18007KT 15SM BKN100 BKN240 M01/M04 A2988 RMK AC7CI1 SLP121=
CYQM;2005-03-23 10:00;METAR CYQM 231000Z 19007KT 15SM SCT100 BKN240 M01/M04 A2986 RMK AC3CI3 SLP116=
CYQM;2005-03-23 11:00;METAR CYQM 231100Z 25005KT 15SM BKN025 BKN100 BKN240 M02/M04 A2986 RMK SC5AC1CI1 SLP116=
CYQM;2005-03-23 12:00;METAR CYQM 231200Z 26008KT 15SM BKN025 BKN100 M01/M04 A2986 RMK SC6AC2 SH S QUAD SLP117=
CYQM;2005-03-23 13:00;METAR CYQM 231300Z 22007KT 15SM SCT025 BKN100 BKN240 00/M03 A2987 RMK SC3AC2CI1 SLP119=
CYQM;2005-03-23 14:00;METAR CYQM 231400Z 26010KT 15SM FEW020 FEW040 BKN100 BKN240 02/M05 A2988 RMK CF1SC2AC4CI1 TR CF SLP121=
CYQM;2005-03-23 15:00;METAR CYQM 231500Z 27013KT 15SM VCSH FEW020 BKN030 BKN100 BKN240 02/M04 A2988 RMK CU1SC4AC1CI2 VIS W-NW 3 SLP121=
CYQM;2005-03-23 15:09;SPECI CYQM 231509Z 30022KT 1SM R29/P6000FT/N R06/P6000FT/N -SHSN FEW020 BKN030 RMK CU1SC6 VIS E-S 15=
CYQM;2005-03-23 16:00;METAR CYQM 231600Z 30011G16KT 6SM -SHSN OVC015 01/M01 A2992 RMK SC8 SLP135=
CYQM;2005-03-23 16:25;SPECI CYQM 231625Z 31013G24KT 15SM BKN015 RMK SC7=
CYQM;2005-03-23 17:00;METAR CYQM 231700Z 32014G21KT 15SM OVC020 01/M01 A2995 RMK SC8 BINOVC SLP144=
CYQM;2005-03-23 18:00;METAR CYQM 231800Z 35015G21KT 15SM BKN020 01/M02 A2996 RMK SC7 SLP148=
CYQM;2005-03-23 19:00;METAR CYQM 231900Z 34014G20KT 15SM OVC020 01/M03 A2999 RMK SC8 BINOVC SLP160=
CYQM;2005-03-23 20:00;METAR CYQM 232000Z 01013KT 15SM BKN020 00/M03 A3001 RMK SC7 SLP166=
CYQM;2005-03-23 21:00;METAR CYQM 232100Z 36009G15KT 15SM FEW015 BKN025 00/M04 A3005 RMK CU1SC6 SLP180=
CYQM;2005-03-23 22:00;METAR CYQM 232200Z 03007KT 15SM FEW010 BKN025 BKN075 BKN240 M01/M04 A3009 RMK CF1SC6AC1CI1 VIRGA S SLP194=
CYQM;2005-03-23 23:00;METAR CYQM 232300Z 04006KT 15SM BKN030 BKN240 M01/M04 A3011 RMK SC7CI1 SHS SE - NW SLP199=
CYQM;2005-03-24 00:00;METAR CYQM 240000Z 06006KT 15SM BKN045 BKN120 M02/M05 A3011 RMK SC6AC1 SLP199=
CYQM;2005-03-24 02:00;METAR CYQM 240200Z 11003KT 15SM FEW035 M04/M06 A3009 RMK SC1 SLP194=
CYQM;2005-03-24 04:00;METAR CYQM 240400Z 13002KT 15SM BKN260 M05/M06 A3008 RMK CI2 FROIN SLP191=
CYQM;2005-03-24 06:00;METAR CYQM 240600Z 04002KT 15SM OVC250 M06/M06 A3007 RMK CS4 FROIN SLP187=
CYQM;2005-03-24 07:51;SPECI CYQM 240751Z 00000KT 8SM BKN008 BKN250 RMK SF7CS1=
CYQM;2005-03-24 08:31;SPECI CYQM 240831Z 10002KT 8SM OVC005 RMK ST8=
CYQM;2005-03-24 10:00;METAR CYQM 241000Z 04003KT 12SM BKN007 OVC015 M05/M06 A3006 RMK SF6SC2 SLP182=
CYQM;2005-03-24 12:00;METAR CYQM 241200Z 08003KT 15SM BKN007 OVC012 M05/M06 A3006 RMK SF6SC2 SLP183=
CYQM;2005-03-24 13:00;METAR CYQM 241300Z 08006KT 15SM BKN007 OVC012 M04/M05 A3005 RMK SF6SC2 SLP180=
CYQM;2005-03-24 14:00;METAR CYQM 241400Z 07006KT 15SM BKN007 OVC012 M04/M05 A3004 RMK SF6SC2 SLP177=
CYQM;2005-03-24 15:00;METAR CYQM 241500Z 08005KT 15SM BKN008 OVC015 M03/M04 A3004 RMK SF6SC2 SLP176=
CYQM;2005-03-24 16:00;METAR CYQM 241600Z 06003KT 15SM BKN008 OVC015 M02/M05 A3003 RMK SF6SC2 SLP173=
CYQM;2005-03-24 16:37;SPECI CYQM 241637Z 10002KT 15SM SCT007 OVC017 RMK SF3SC5=
CYQM;2005-03-24 17:00;METAR CYQM 241700Z 09002KT 15SM FEW007 OVC017 M01/M05 A3001 RMK SF2SC6 SLP166=
CYQM;2005-03-24 18:00;METAR CYQM 241800Z 13003KT 15SM BKN020 BKN120 OVC260 M00/M05 A2998 RMK SC5AC1CS2 SLP156=
CYQM;2005-03-24 19:00;METAR CYQM 241900Z 00000KT 15SM FEW020 SCT140 BKN220 OVC260 00/M04 A2996 RMK SC2AC2CS1CI2 SLP149=
CYQM;2005-03-24 20:00;METAR CYQM 242000Z 00000KT 15SM FEW020 SCT160 SCT220 BKN260 02/M03 A2995 RMK SC1AC2CS1CI2 SLP145=
CYQM;2005-03-24 21:00;METAR CYQM 242100Z 00000KT 15SM FEW025 SCT140 BKN260 02/M04 A2994 RMK CF1AC2CI2 SLP142=
CYQM;2005-03-24 22:00;METAR CYQM 242200Z 01006KT 15SM FEW140 BKN250 02/M04 A2993 RMK AC2CI3 SLP140=
CYQM;2005-03-25 00:00;METAR CYQM 250000Z 07004KT 15SM FEW140 BKN250 M02/M07 A2992 RMK AC2CI3 SLP138=
CYQM;2005-03-25 03:00;METAR CYQM 250300Z 15004KT 15SM FEW120 BKN250 M04/M09 A2990 RMK AC2CI3 SLP130=
CYQM;2005-03-25 04:00;METAR CYQM 250400Z 17004KT 15SM SCT120 BKN250 M04/M09 A2989 RMK AC3CI2 SLP126=
CYQM;2005-03-25 05:00;METAR CYQM 250500Z 18005KT 15SM FEW120 BKN250 M03/M07 A2988 RMK AC2CI2 SLP123=
CYQM;2005-03-25 08:00;METAR CYQM 250800Z 18005KT 8SM FEW030 FEW120 BKN250 M05/M06 A2983 RMK SC2AC1CI2 FROIN SLP106=
CYQM;2005-03-25 09:00;METAR CYQM 250900Z 18004KT 12SM FEW030 FEW120 BKN220 M04/M05 A2981 RMK SC2AC1CS3 FROIN SLP098=
CYQM;2005-03-25 10:00;METAR CYQM 251000Z 17005KT 8SM FEW025 BKN140 BKN220 M05/M05 A2979 RMK SC1AC6CS1 FROIN SLP093=
CYQM;2005-03-25 11:00;METAR CYQM 251100Z 17008KT 10SM FEW025 FEW140 BKN240 M02/M03 A2979 RMK SC1AC2CI4 SLP092=
CYQM;2005-03-25 12:00;METAR CYQM 251200Z 19009KT 8SM FEW025 SCT100 BKN220 M01/M03 A2978 RMK SC1AC2CI3 SLP088=
CYQM;2005-03-25 16:00;METAR CYQM 251600Z 24016G22KT 15SM BKN025 OVC250 04/M02 A2972 RMK SC7CI0 SLP069=
CYQM;2005-03-25 17:00;METAR CYQM 251700Z 23018KT 10SM -SHRA BKN030 OVC240 03/M01 A2971 RMK SC7CI1 SLP066=
CYQM;2005-03-25 17:40;SPECI CYQM 251740Z 23014G19KT 15SM BKN035 BKN250 RMK SC7CI1=
CYQM;2005-03-25 18:00;METAR CYQM 251800Z 23017G22KT 15SM BKN035 BKN250 04/M00 A2970 RMK SC7CI1 SLP061=
CYQM;2005-03-25 19:00;METAR CYQM 251900Z 23017KT 15SM FEW030 FEW140 04/M01 A2969 RMK SC2AC1 SLP058=
CYQM;2005-03-25 20:12;SPECI CYQM 252012Z 25010KT 15SM -SHRA BKN035 RMK SC7=
CYQM;2005-03-25 20:49;SPECI CYQM 252049Z 28007KT 12SM -SHRAPL BKN035 RMK SC7 VIS N 2=
CYQM;2005-03-25 21:27;SPECI CYQM 252127Z 29013G20KT 4SM -SHSN OVC030 RMK SC8=
CYQM;2005-03-25 21:36;SPECI CYQM 252136Z 30006G16KT 15SM SCT030 RMK SC4 VIS E 5=
CYQM;2005-03-25 22:00;METAR CYQM 252200Z 25002KT 15SM VCSH FEW030 SCT050 01/M02 A2973 RMK SC2SC2 SLP069=
CYQM;2005-03-25 23:00;METAR CYQM 252300Z 23007KT 15SM VCSH FEW030 SCT050 01/M02 A2975 RMK SC2SC2 SLP079=
CYQM;2005-03-26 00:00;METAR CYQM 260000Z 28007KT 15SM FEW040 SCT250 00/M04 A2980 RMK SC2CI1 SLP094=
CYQM;2005-03-26 01:00;METAR CYQM 260100Z 31008KT 15SM FEW040 SCT250 M01/M06 A2983 RMK SC1CI1 SLP106=
CYQM;2005-03-26 03:00;METAR CYQM 260300Z 31012KT 15SM FEW040 M02/M07 A2990 RMK SC1 SLP130=
CYQM;2005-03-26 05:00;METAR CYQM 260500Z 30008KT 15SM FEW040 M04/M08 A2996 RMK SC1 SLP148=
CYQM;2005-03-26 10:00;METAR CYQM 261000Z 31007KT 15SM FEW260 M07/M11 A3008 RMK CI0 SLP189=
CYQM;2005-03-26 12:00;METAR CYQM 261200Z 32011KT 15SM FEW260 M06/M12 A3013 RMK CI0 SLP208=
CYQM;2005-03-26 14:00;METAR CYQM 261400Z 01006KT 15SM SKC M03/M12 A3017 RMK SLP219=
CYQM;2005-03-26 15:00;METAR CYQM 261500Z 29002KT 15SM SKC M03/M12 A3018 RMK SLP223=
CYQM;2005-03-26 16:00;METAR CYQM 261600Z 32002KT 15SM SKC M01/M11 A3018 RMK SLP224=
CYQM;2005-03-26 19:00;METAR CYQM 261900Z 00000KT 15SM FEW270 01/M06 A3014 RMK CI0 SLP211=
CYQM;2005-03-26 20:00;METAR CYQM 262000Z 24005KT 15SM SCT270 02/M04 A3013 RMK CI1 SLP208=
CYQM;2005-03-26 21:00;METAR CYQM 262100Z 22009KT 15SM FEW270 02/M13 A3013 RMK CI0 SLP208=
CYQM;2005-03-26 22:00;METAR CYQM 262200Z 22006KT 15SM FEW270 02/M13 A3014 RMK CI0 SLP210=
CYQM;2005-03-26 23:00;METAR CYQM 262300Z 08004KT 15SM FEW270 M00/M09 A3016 RMK CI0 SLP216=
CYQM;2005-03-27 00:00;METAR CYQM 270000Z 11006KT 15SM FEW270 M01/M08 A3017 RMK CI0 SLP221=
CYQM;2005-03-27 04:00;METAR CYQM 270400Z 19006KT 15SM SKC M04/M07 A3019 RMK SLP229=
CYQM;2005-03-27 06:00;METAR CYQM 270600Z 18005KT 15SM SKC M05/M09 A3019 RMK SLP230=
CYQM;2005-03-27 08:00;METAR CYQM 270800Z 20006KT 15SM SKC M06/M09 A3019 RMK SLP228=
CYQM;2005-03-27 10:00;METAR CYQM 271000Z 18006KT 15SM FEW140 FEW260 M07/M09 A3019 RMK AC1CI0 FROIN SLP228=
CYQM;2005-03-27 12:00;METAR CYQM 271200Z 21005KT 15SM FEW260 M05/M09 A3020 RMK CI0 SLP232=
CYQM;2005-03-27 13:00;METAR CYQM 271300Z 23007KT 15SM FEW260 M01/M08 A3020 RMK CI1 SLP233=
CYQM;2005-03-27 14:00;METAR CYQM 271400Z 22012KT 15SM FEW260 02/M08 A3020 RMK CI1 SLP232=
CYQM;2005-03-27 16:00;METAR CYQM 271600Z 23016KT 15SM FEW260 05/M09 A3019 RMK CI1 SLP228=
CYQM;2005-03-27 22:00;METAR CYQM 272200Z 20011G16KT 15SM SCT250 04/M08 A3012 RMK CI2 SLP204=
CYQM;2005-03-28 00:00;METAR CYQM 280000Z 21011G16KT 15SM FEW220 02/M07 A3016 RMK CI2 SLP216=
CYQM;2005-03-28 02:00;METAR CYQM 280200Z 22010G16KT 15SM SKC 00/M06 A3019 RMK SLP226=
CYQM;2005-03-28 04:00;METAR CYQM 280400Z 20006KT 15SM SKC M01/M07 A3018 RMK SLP225=
CYQM;2005-03-28 08:00;METAR CYQM 280800Z 17007KT 15SM SKC M03/M08 A3017 RMK SLP219=
CYQM;2005-03-28 12:00;METAR CYQM 281200Z 19003KT 15SM FEW012 FEW240 M01/M04 A3019 RMK CF1CI1 SLP226=
CYQM;2005-03-28 16:00;METAR CYQM 281600Z 19009KT 15SM FEW030 FEW140 FEW240 07/M09 A3014 RMK CU1AC1CI2 SLP211=
CYQM;2005-03-28 17:00;METAR CYQM 281700Z 17014G19KT 15SM FEW030 FEW140 SCT240 07/M03 A3013 RMK CU1AC1CI2 SLP206=
CYQM;2005-03-28 18:00;METAR CYQM 281800Z 17015G21KT 15SM FEW030 BKN140 BKN240 07/M04 A3010 RMK CU1AC5CI2 SLP197=
CYQM;2005-03-28 19:00;METAR CYQM 281900Z 16009G16KT 15SM FEW040 FEW120 BKN140 OVC240 07/M05 A3008 RMK SC1AC2AS5CI1 SLP191=
CYQM;2005-03-28 19:54;SPECI CYQM 281954Z 17010KT 15SM -SHRA BKN050 OVC120 RMK SC6AC2=
CYQM;2005-03-28 21:00;METAR CYQM 282100Z 16010KT 7SM -RA BKN040 OVC070 04/03 A3006 RMK SC5AS3 SLP185=
CYQM;2005-03-28 23:00;METAR CYQM 282300Z 11012KT 6SM -RA BR FEW010 OVC030 03/03 A3001 RMK SF2SC6 SLP168=
CYQM;2005-03-28 23:35;SPECI CYQM 282335Z 10009G15KT 12SM -RA BKN007 OVC013 RMK SF5SC3=
CYQM;2005-03-29 00:00;METAR CYQM 290000Z 10009KT 10SM -RA BKN007 OVC013 03/03 A2999 RMK SF5SC3 SLP158=
CYQM;2005-03-29 01:00;METAR CYQM 290100Z 09008KT 8SM -RA SCT003 BKN007 OVC013 03/02 A2996 RMK SF3SF4SC1 SLP148=
CYQM;2005-03-29 03:00;METAR CYQM 290300Z 07003KT 3SM -RA BR BKN003 OVC007 02/02 A2992 RERA RMK SF6SF2 SLP134=
CYQM;2005-03-29 04:00;METAR CYQM 290400Z 13004KT 6SM -RA BR SCT003 BKN008 OVC013 04/04 A2989 RMK SF3SF4SC1 SLP126=
CYQM;2005-03-29 05:00;METAR CYQM 290500Z 15010G17KT 8SM -RA FEW003 BKN007 OVC015 06/05 A2988 RMK SF2SF5SC2 /20/ SLP120=
CYQM;2005-03-29 06:00;METAR CYQM 290600Z 15014G20KT 12SM -RA BKN007 OVC040 05/05 A2985 RMK SF5SC3 SLP112=
CYQM;2005-03-29 07:00;METAR CYQM 290700Z 15017G26KT 12SM -RA BKN007 OVC040 06/05 A2981 RMK SF5SC3 SLP099=
CYQM;2005-03-29 08:00;METAR CYQM 290800Z 14014KT 12SM -RA BKN007 OVC040 06/06 A2980 RMK SF6SC2 SLP093=
CYQM;2005-03-29 09:00;METAR CYQM 290900Z 13005KT 12SM -RA BKN007 OVC020 07/06 A2978 RMK SF6SC2 SLP087=
CYQM;2005-03-29 10:00;METAR CYQM 291000Z 14007KT 8SM -RA OVC005 07/06 A2976 RMK SF8 SLP080=
CYQM;2005-03-29 10:37;SPECI CYQM 291037Z 15012KT 4SM -RA BR OVC004 RERA RMK SF8=
CYQM;2005-03-29 11:24;SPECI CYQM 291124Z 14008KT 5SM -RA BR BKN002 OVC004 RMK SF6SF2=
CYQM;2005-03-29 12:00;METAR CYQM 291200Z 14008KT 5SM -RA BR BKN002 OVC004 07/07 A2971 RMK SF7SF1 SLP064=
CYQM;2005-03-29 12:17;SPECI CYQM 291217Z 14012G17KT 7SM -RA SCT002 BKN004 OVC020 RMK SF3SF4SC1=
CYQM;2005-03-29 13:45;SPECI CYQM 291345Z 13005KT 6SM -RA BR FEW002 BKN006 OVC012 RERA RMK SF2SF5SC2=
CYQM;2005-03-29 14:24;SPECI CYQM 291424Z 15008KT 2 1/2SM +RA BR FEW003 OVC005 RMK SF2SF6=
CYQM;2005-03-29 14:42;SPECI CYQM 291442Z 13005KT 5SM -RA BR SCT003 OVC006 RERA RMK SF3SF5=
CYQM;2005-03-29 15:00;METAR CYQM 291500Z 12007KT 5SM -RA BR BKN004 OVC006 08/08 A2967 RERA RMK SF5SF3 SLP049=
CYQM;2005-03-29 15:16;SPECI CYQM 291516Z 12003KT 6SM -RA BR BKN005 OVC012 RMK SF6SC2=
CYQM;2005-03-29 16:00;METAR CYQM 291600Z 15002KT 6SM -RA BR BKN005 OVC009 09/08 A2967 RMK SF7SF1 /R10/ SLP048=
CYQM;2005-03-29 16:36;SPECI CYQM 291636Z 01005KT 1/2SM R29/P6000FT/N R06/P6000FT/N RA FG BKN005 OVC010 RERA RMK FG2SF4SF2=
CYQM;2005-03-29 16:42;SPECI CYQM 291642Z 02006KT 1SM R29/P6000FT/N R06/P6000FT/N RA BR BKN005 OVC010 RERA RMK SF6SF2=
CYQM;2005-03-29 17:00;METAR CYQM 291700Z 03007KT 1 1/4SM R29/P6000FT/U R06/P6000FT/U -RA BR=
CYQM;2005-03-29 18:00;METAR CYQM 291800Z 02005KT 1SM R29/P6000FT/N R06/P6000FT/N -RA BR FEW006 OVC025 05/05 A2963 RMK SF2SC6 SLP037=
CYQM;2005-03-29 18:22;SPECI CYQM 291822Z 05007KT 3SM RA BR VCFG FEW006 OVC080 RMK SF2AS6 VIS W-N 11/2=
CYQM;2005-03-29 18:35;SPECI CYQM 291835Z 34010KT 3SM R29/4000VP6000FT/U R06/P6000FT/U RA BR VCFG BKN003 OVC080 RMK SF6AS2=
CYQM;2005-03-29 19:44;SPECI CYQM 291944Z 35016KT 8SM -RA BKN003 OVC040 RERA RMK SF7SC1=
CYQM;2005-03-29 20:44;SPECI CYQM 292044Z 35015KT 4SM -RADZ BR OVC003 RMK SF8=
CYQM;2005-03-29 21:00;METAR CYQM 292100Z 34015KT 2 1/2SM -RADZ BR OVC003 02/02 A2966 RMK SF8 SLP046=
CYQM;2005-03-29 21:35;SPECI CYQM 292135Z 34015G24KT 1SM R29/P6000FT/N R06/P6000FT/N -RADZ BR OVC003 RMK SF8=
CYQM;2005-03-29 22:00;METAR CYQM 292200Z 34017KT 1SM R29/P6000FT/U R06/P6000FT/N -DZ BR BKN003 OVC020 02/02 A2969 RMK SF6SC2 SLP056=
CYQM;2005-03-29 23:00;METAR CYQM 292300Z 34015G22KT 1SM R29/P6000FT/D R06/P6000FT/U -DZ BR BKN003 OVC020 01/01 A2970 RMK SF6SC2 SLP062=
CYQM;2005-03-30 01:00;METAR CYQM 300100Z 36020KT 1SM R29/P6000FT/U R06/P6000FT/U -DZ BR OVC002 00/00 A2974 RMK SF8 WND EST SLP075=
CYQM;2005-03-30 01:36;SPECI CYQM 300136Z 36020KT 6SM -DZ BR OVC003 RMK SF8 WND EST=
CYQM;2005-03-30 02:30;SPECI CYQM 300230Z 36015KT 12SM OVC005 RMK SF8 WND EST=
CYQM;2005-03-30 04:00;METAR CYQM 300400Z 32020KT 15SM OVC007 00/M00 A2976 RMK SF8 WND EST SLP080=
CYQM;2005-03-30 05:00;METAR CYQM 300500Z 36020KT 15SM OVC007 00/M00 A2977 RMK SF8 WND EST SLP084=
CYQM;2005-03-30 05:45;SPECI CYQM 300545Z 36020KT 12SM -DZ OVC007 RMK SF8 WND EST=
CYQM;2005-03-30 06:55;SPECI CYQM 300655Z 36025KT 4SM -FZDZ BR BKN007 OVC011 RMK SF6ST2 WND EST=
CYQM;2005-03-30 08:00;METAR CYQM 300800Z 36025KT 8SM -SHSN BKN008 OVC012 00/M00 A2979 REFZDZ RMK SF5SC3 WND EST SLP091=
CYQM;2005-03-30 10:00;METAR CYQM 301000Z 36031KT 12SM SCT007 OVC012 M00/M01 A2984 RMK SF3SC5 WND EST SLP109=
CYQM;2005-03-30 11:19;SPECI CYQM 301119Z 36025KT 6SM -FZDZ BR BKN007 OVC012 RMK SF6SC2 WND EST=
CYQM;2005-03-30 12:00;METAR CYQM 301200Z 36019KT 4SM -FZDZ BR BKN007 OVC012 M00/M02 A2991 RMK SF6SC2 WND EST SLP131=
CYQM;2005-03-30 12:09;SPECI CYQM 301209Z 36025KT 2SM -SHSN BR BKN007 OVC012 REFZDZ RMK SF6SC2 WND EST=
CYQM;2005-03-30 12:14;SPECI CYQM 301214Z 36025KT 4SM -SHSN BR BKN007 OVC012 REFZDZ RMK SF6SC2 WND EST=
CYQM;2005-03-30 13:00;METAR CYQM 301300Z 36019KT 2SM -SHSN BR BKN007 OVC012 M00/M02 A2993 REFZDZ RMK SF6SC2 WND EST SLP139=
CYQM;2005-03-30 13:21;SPECI CYQM 301321Z 36025KT 4SM -SHSN BR BKN007 OVC012 RMK SF6SC2 WND EST=
CYQM;2005-03-30 13:54;SPECI CYQM 301354Z 36025KT 5SM BR BKN007 OVC012 RMK SF6SC2 WND EST=
CYQM;2005-03-30 14:00;METAR CYQM 301400Z 36025KT 2SM -SHSN BKN007 OVC012 M00/M02 A2995 RMK SF6SC2 WND EST SLP145=
CYQM;2005-03-30 14:51;SPECI CYQM 301451Z 36025KT 12SM SCT007 BKN012 OVC025 RMK SF3SC4SC1 WND EST=
CYQM;2005-03-30 15:00;METAR CYQM 301500Z 36025KT 12SM SCT007 BKN012 OVC025 M00/M02 A2998 RMK SF3SC4SC1 WND EST SLP156=
CYQM;2005-03-30 15:25;SPECI CYQM 301525Z 36025KT 4SM -SHSN SCT007 BKN012 OVC025 RMK SF3SC4SC1 WND EST=
CYQM;2005-03-30 15:42;SPECI CYQM 301542Z 36025KT 2SM -SHSN BKN007 BKN012 OVC025 RMK SF5SC2SC1 WND EST=
CYQM;2005-03-30 15:53;SPECI CYQM 301553Z 36025KT 5SM -SHSN BKN007 BKN012 OVC025 RMK SF5SC2SC1 WND EST=
CYQM;2005-03-30 16:00;METAR CYQM 301600Z 36025KT 6SM -SHSN BKN007 BKN012 OVC025 M00/M02 A3000 RMK SF5SC2SC1 WND EST SLP162=
CYQM;2005-03-30 16:44;SPECI CYQM 301644Z 36019KT 10SM SCT007 BKN012 OVC025 RMK SF3SC4SC1 WND EST=
CYQM;2005-03-30 17:00;METAR CYQM 301700Z 36025KT 12SM SCT007 BKN012 OVC025 00/M02 A3001 RMK SF3SC4SC1 WND EST SLP166=
CYQM;2005-03-30 18:00;METAR CYQM 301800Z 36025KT 12SM FEW007 BKN012 OVC025 M00/M02 A3003 RMK SF2SC6SC1 WND EST SLP175=
CYQM;2005-03-30 19:00;METAR CYQM 301900Z 36025KT 12SM FEW007 BKN012 OVC025 00/M02 A3006 RMK SF2SC6SC1 WND EST SLP182=
CYQM;2005-03-30 19:26;SPECI CYQM 301926Z 36025KT 12SM -SHSN FEW007 BKN012 OVC025 RMK SF2SC6SC1 WND EST=
CYQM;2005-03-30 21:28;SPECI CYQM 302128Z 36019KT 12SM FEW008 BKN012 OVC025 RMK SF2SC4SC2 WND EST=
CYQM;2005-03-30 22:00;METAR CYQM 302200Z 36025KT 12SM BKN018 OVC030 M01/M03 A3010 RMK SC7SC1 SLP198=
CYQM;2005-03-30 23:14;SPECI CYQM 302314Z 36026G34KT 10SM -SHSN BKN015 OVC030 RMK SC7SC1=
CYQM;2005-03-31 00:00;METAR CYQM 310000Z 36020G36KT 12SM -SHSN OVC015 M01/M03 A3013 RMK SC8 SLP206=
CYQM;2005-03-31 01:00;METAR CYQM 310100Z 36022G32KT 12SM -SHSN OVC015 M01/M03 A3012 RMK SC8 SLP204=
CYQM;2005-03-31 03:00;METAR CYQM 310300Z 36025G35KT 12SM -SN BKN015 OVC030 M01/M03 A3013 RMK SC7SC1 SLP208=
CYQM;2005-03-31 04:00;METAR CYQM 310400Z 36020G28KT 12SM -SN OVC015 M01/M03 A3014 RMK SC8 SLP212=
CYQM;2005-03-31 05:00;METAR CYQM 310500Z 36026G32KT 12SM -SN OVC017 M01/M04 A3014 RMK SC8 SLP210=
CYQM;2005-03-31 06:00;METAR CYQM 310600Z 36022G33KT 15SM BKN017 M01/M04 A3012 RMK SC7 SLP205=
CYQM;2005-03-31 08:00;METAR CYQM 310800Z 36022G33KT 15SM SCT025 SCT250 M02/M05 A3012 RMK SC4CI1 SLP203=
CYQM;2005-03-31 10:00;METAR CYQM 311000Z 35025G31KT 15SM FEW025 SCT090 M03/M05 A3014 RMK CF2AC1 SLP211=
CYQM;2005-03-31 11:00;METAR CYQM 311100Z 35021G30KT 15SM SCT020 M03/M06 A3015 RMK CU3 SLP214=
CYQM;2005-03-31 12:00;METAR CYQM 311200Z 35025G32KT 15SM BKN020 M01/M06 A3017 RMK CU6 SLP219=
CYQM;2005-03-31 13:00;METAR CYQM 311300Z 36024G31KT 15SM BKN025 M01/M07 A3017 RMK CU6 SLP222=
CYQM;2005-03-31 14:00;METAR CYQM 311400Z 34024G36KT 15SM BKN030 00/M08 A3018 RMK CU5 SLP225=
CYQM;2005-03-31 16:00;METAR CYQM 311600Z 35025G34KT 12SM VCSH SCT012 BKN025 01/M09 A3018 RMK CU3SC4 SLP223=
CYQM;2005-03-31 17:00;METAR CYQM 311700Z 01022G32KT 10SM VCSH SCT010 OVC025 01/M07 A3019 RMK CU4SC4 SLP227=
CYQM;2005-03-31 17:07;SPECI CYQM 311707Z 01023G32KT 8SM -SHSN SCT008 OVC020 RMK CU4SC4=
CYQM;2005-03-31 17:26;SPECI CYQM 311726Z 36023G31KT 3SM -DZ BKN008 OVC020 RMK SF5SC3=
CYQM;2005-03-31 18:00;METAR CYQM 311800Z 36019G30KT 2SM -DZ BR BKN008 OVC020 00/M02 A3020 RMK SF5SC3 SLP232=
CYQM;2005-03-31 18:04;SPECI CYQM 311804Z 36024G30KT 3SM -DZ BR BKN007 OVC020 RMK SF5SC3=
CYQM;2005-03-31 19:25;SPECI CYQM 311925Z 01019G28KT 2 1/2SM -DZ BR BKN007 OVC020 RMK SF5SC3=
CYQM;2005-03-31 19:53;SPECI CYQM 311953Z 01019G28KT 2 1/2SM -FZDZ BR BKN007 OVC020 RMK SF5SC3 D.B. -0.4=
CYQM;2005-03-31 20:22;SPECI CYQM 312022Z 36015G28KT 5SM -FZDZ BR BKN007 OVC020 RMK SF5SC3=
CYQM;2005-03-31 22:00;METAR CYQM 312200Z 01015G20KT 4SM -FZDZ BR BKN008 OVC020 M01/M03 A3019 RMK SF6SC2 SLP229=
CYQM;2005-03-31 22:04;SPECI CYQM 312204Z 01017KT 2 1/2SM -FZDZ BR BKN006 OVC020 RMK SF6SC2=
CYQM;2005-03-31 22:45;SPECI CYQM 312245Z 36010KT 8SM -FZDZ BKN007 OVC022 RMK SF6SC2=
CYQM;2005-03-31 23:22;SPECI CYQM 312322Z 35011KT 8SM -FZDZ BKN008 OVC022 RMK SF7SC1=
CYQM;2005-04-01 00:00;METAR CYQM 010000Z 01011KT 3SM -FZDZ BR BKN007 OVC020 M01/M02 A3026 RMK SF7SC1 SLP251=
CYQM;2005-04-01 00:45;SPECI CYQM 010045Z 01011G16KT 6SM -FZDZ BR OVC004 RMK ST8=
CYQM;2005-04-01 01:00;METAR CYQM 010100Z 02012G17KT 8SM -FZDZ BKN004 OVC030 M02/M02 A3025 RMK SF7SC1 SLP246=
CYQM;2005-04-01 01:36;SPECI CYQM 010136Z 02011KT 10SM FEW003 OVC004 REFZDZ RMK SF2SF6=
CYQM;2005-04-01 03:00;METAR CYQM 010300Z 01011KT 10SM OVC005 M02/M02 A3022 RMK SF8 SLP239=
CYQM;2005-04-01 03:23;SPECI CYQM 010323Z 36009KT 10SM OVC004 RMK SF8=
CYQM;2005-04-01 05:00;METAR CYQM 010500Z 01007KT 10SM BKN005 OVC008 M02/M02 A3021 RMK SF6SF2 SLP235=
CYQM;2005-04-01 10:00;METAR CYQM 011000Z 01008KT 3SM -FZDZ BR OVC004 M01/M02 A3020 RMK SF8 PCPN VRY LGT SLP232=
CYQM;2005-04-01 10:20;SPECI CYQM 011020Z 01009KT 3SM BR OVC004 REFZDZ RMK SF8=
CYQM;2005-04-01 10:37;SPECI CYQM 011037Z 01008KT 4SM BR OVC006 REFZDZ RMK SF8=
CYQM;2005-04-01 11:00;METAR CYQM 011100Z 01007KT 4SM BR BKN006 OVC015 M01/M02 A3023 REFZDZ RMK SF7SC1 SLP241=
CYQM;2005-04-01 12:00;METAR CYQM 011200Z 02005KT 4SM BR OVC006 M01/M02 A3023 RMK SF8 SLP242=
CYQM;2005-04-01 13:00;METAR CYQM 011300Z 04006KT 8SM BKN007 OVC012 M01/M01 A3023 RMK SF7SC1 SLP240=
CYQM;2005-04-01 16:00;METAR CYQM 011600Z 09003KT 15SM FEW008 SCT020 OVC030 04/00 A3020 RMK SF1SC2SC5 SLP230=
CYQM;2005-04-01 17:00;METAR CYQM 011700Z 08006KT 15SM BKN030 OVC260 05/01 A3019 RMK SC6CI1 SLP226=
CYQM;2005-04-01 18:00;METAR CYQM 011800Z 12006KT 15SM BKN030 OVC260 06/01 A3017 RMK SC6CI1 SLP221=
CYQM;2005-04-01 19:14;SPECI CYQM 011914Z 01004KT 12SM -SHRA OVC030 RMK SC8=
CYQM;2005-04-01 21:00;METAR CYQM 012100Z 00000KT 12SM -SHRA FEW012 OVC025 03/02 A3017 RMK SC2SC6 PCPN VRY LGT SLP221=
CYQM;2005-04-01 21:26;SPECI CYQM 012126Z 09003KT 10SM -SHRA BKN010 OVC025 RMK SF6SC2 VIS=
CYQM;2005-04-01 22:00;METAR CYQM 012200Z 09005KT 12SM -SHRA SCT010 OVC025 04/03 A3015 RMK SF4SC4 SLP213=
CYQM;2005-04-01 22:19;SPECI CYQM 012219Z 09005KT 10SM -SHRA FEW007 BKN025 OVC120 RMK SF2SC4AC2=
CYQM;2005-04-01 22:38;SPECI CYQM 012238Z 09005KT 10SM FEW006 BKN030 OVC100 RMK SF2SC4AC2=
CYQM;2005-04-01 22:46;SPECI CYQM 012246Z 10004KT 10SM FEW006 BKN010 BKN025 OVC100 RMK SF2SF4SC1AC2=
CYQM;2005-04-01 23:00;METAR CYQM 012300Z 14004KT 10SM FEW006 BKN010 BKN025 OVC100 04/03 A3014 RMK SF2SF4SC2AC1 SLP209=
CYQM;2005-04-01 23:11;SPECI CYQM 012311Z 15004KT 10SM FEW005 BKN009 OVC025 RMK SF2SF5SC1=
CYQM;2005-04-01 23:28;SPECI CYQM 012328Z 17004KT 10SM BKN004 OVC009 RMK SF5SF3=
CYQM;2005-04-02 00:00;METAR CYQM 020000Z 19004KT 10SM OVC003 03/03 A3016 RMK ST8 SLP217=
CYQM;2005-04-02 00:26;SPECI CYQM 020026Z 20006KT 8SM SCT003 OVC008 RMK SF3SF5=
CYQM;2005-04-02 00:43;SPECI CYQM 020043Z 20004KT 6SM -DZ BR FEW003 OVC009 RMK SF2SF6=
CYQM;2005-04-02 01:31;SPECI CYQM 020131Z 19004KT 3SM -DZ BR FEW003 SCT006 OVC018 RMK SF2SF2SC4=
CYQM;2005-04-02 02:19;SPECI CYQM 020219Z 16003KT 8SM -DZ FEW002 BKN012 OVC018 RMK SF2SF5SC2=
CYQM;2005-04-02 02:42;SPECI CYQM 020242Z 18003KT 8SM -DZ FEW002 BKN006 OVC012 RMK SF2SF4SF2=
CYQM;2005-04-02 03:10;SPECI CYQM 020310Z 20003KT 6SM -SHRA BR SCT002 BKN006 OVC012 RMK SF3SF2SC2=
CYQM;2005-04-02 03:30;SPECI CYQM 020330Z 21004KT 3SM -SHRA BR BKN003 BKN007 OVC011 RMK SF6SF1SF2=
CYQM;2005-04-02 03:40;SPECI CYQM 020340Z 20003KT 1 1/4SM -SHRA BR BKN002 BKN007 OVC011 RMK SF6SF2SF1=
CYQM;2005-04-02 04:00;METAR CYQM 020400Z 23004KT 1 1/4SM -DZ BR BKN002 OVC005 03/03 A3017 RMK FG2SF4SF2 SLP222=
CYQM;2005-04-02 04:14;SPECI CYQM 020414Z 23005KT 1 1/4SM -DZ BR BKN001 OVC004 RMK SF6SF2=
CYQM;2005-04-02 04:24;SPECI CYQM 020424Z 22006KT 1 1/2SM -RADZ BR BKN001 BKN005 OVC014 RMK SF6SF1SC2=
CYQM;2005-04-02 04:39;SPECI CYQM 020439Z 22005KT 1 1/4SM -DZ BR BKN001 OVC006 RMK SF6SF2=
CYQM;2005-04-02 05:06;SPECI CYQM 020506Z 18007KT 5SM -DZ BR FEW001 SCT003 BKN006 OVC030 RMK SF2SF2SF3SC2=
CYQM;2005-04-02 06:00;METAR CYQM 020600Z 16005KT 7SM -DZ FEW001 BKN006 OVC028 02/02 A3017 RMK SF1SF6SC2 SLP218=
CYQM;2005-04-02 06:23;SPECI CYQM 020623Z 16005KT 8SM -DZ BKN002 BKN006 OVC040 RMK SF5SF2SC2=
CYQM;2005-04-02 06:43;SPECI CYQM 020643Z 16007KT 10SM BKN003 BKN015 OVC040 RMK SF6SF2SC1=
CYQM;2005-04-02 07:20;SPECI CYQM 020720Z 18005KT 15SM SCT003 BKN015 OVC040 RMK SF3SC4SC1=
CYQM;2005-04-02 07:38;SPECI CYQM 020738Z 18004KT 15SM SCT003 BKN013 OVC040 RMK SF3SC4SC1=
CYQM;2005-04-02 09:23;SPECI CYQM 020923Z 13005KT 15SM FEW003 BKN010 OVC040 RMK SF1SC6SC1=
CYQM;2005-04-02 09:37;SPECI CYQM 020937Z 12007KT 1 1/4SM BR BKN010 RMK FG2SC6=
CYQM;2005-04-02 09:41;SPECI CYQM 020941Z 13006KT 3/4SM R29/4500VP6000FT/D R06/4000VP6000FT/D BR BKN010 RMK FG5SC2=
CYQM;2005-04-02 09:48;SPECI CYQM 020948Z 14006KT 1/2SM R29/3000VP6000FT/D R06/4000FT/N FG SKC RMK FG7=
CYQM;2005-04-02 10:00;METAR CYQM 021000Z 15006KT 3/8SM R29/2800FT/N R06/3000FT/N FG SKC 00/00 A3018 RMK FG7 SLP223=
CYQM;2005-04-02 10:35;SPECI CYQM 021035Z 15004KT 1/4SM R29/2000FT/N R06/2400V4000FT/D FG VV001 RMK FG8=
CYQM;2005-04-02 11:00;METAR CYQM 021100Z 16005KT 1/4SM R29/2200V3000FT/D R06/2400FT/N FG VV001 00/00 A3019 RMK FG8 SLP228=
CYQM;2005-04-02 12:00;METAR CYQM 021200Z 12006KT 1/4SM R29/2000V3000FT/D R06/2000V3000FT/U FG VV001 01/01 A3017 RMK FG8 SLP222=
CYQM;2005-04-02 12:13;SPECI CYQM 021213Z 13004KT 3/8SM R29/2400VP6000FT/U R06/2200V3500FT/D FG VV002 RMK FG8=
CYQM;2005-04-02 12:18;SPECI CYQM 021218Z 16003KT 5/8SM R29/P6000FT/U R06/2200V3500FT/U BR VV004 RMK FG8=
CYQM;2005-04-02 12:30;SPECI CYQM 021230Z 12002KT 1SM R29/P6000FT/U R06/3000VP6000FT/D BR OVC030 RMK FG6SC2=
CYQM;2005-04-02 12:41;SPECI CYQM 021241Z 13003KT 3SM BR BKN004 OVC030 RMK SF6SC2 VIS W- NE 1=
CYQM;2005-04-02 13:00;METAR CYQM 021300Z 18002KT 8SM OVC004 01/01 A3017 RMK SF8 SLP222=
CYQM;2005-04-02 13:33;SPECI CYQM 021333Z 28002KT 12SM OVC006 RMK SF8=
CYQM;2005-04-02 14:00;METAR CYQM 021400Z 29004KT 12SM FEW002 OVC006 02/02 A3021 RMK SF2SF6 SLP234=
CYQM;2005-04-02 15:00;METAR CYQM 021500Z 11002KT 15SM BKN006 OVC015 03/02 A3018 RMK SF6SC2 SLP224=
CYQM;2005-04-02 16:00;METAR CYQM 021600Z 10003KT 15SM BKN008 OVC015 04/03 A3019 RMK SF6SC2 SLP226=
CYQM;2005-04-02 16:40;SPECI CYQM 021640Z 11003KT 15SM OVC010 RMK SC8=
CYQM;2005-04-02 18:00;METAR CYQM 021800Z 12006KT 15SM BKN011 OVC040 05/03 A3019 RMK SC7SC1 SLP227=
CYQM;2005-04-02 21:00;METAR CYQM 022100Z 15002KT 12SM FEW040 BKN080 OVC260 07/03 A3015 RMK SC2AS3CI2 SLP213=
CYQM;2005-04-02 22:00;METAR CYQM 022200Z 10004KT 15SM FEW110 OVC150 07/04 A3015 RMK AC2AS6 SLP212=
CYQM;2005-04-02 23:00;METAR CYQM 022300Z 07005KT 15SM FEW120 OVC160 07/03 A3015 RMK AC2AS6 SLP212=
CYQM;2005-04-03 00:00;METAR CYQM 030000Z 09008KT 15SM FEW120 SCT160 BKN240 04/02 A3016 RMK AC2AS2CI2 SLP216=
CYQM;2005-04-03 04:00;METAR CYQM 030400Z 14016G25KT 15SM OVC120 04/M03 A3011 RMK AC8 SLP198=
CYQM;2005-04-03 05:00;METAR CYQM 030500Z 13009KT 15SM OVC120 04/M03 A3010 RMK AC8 SLP195=
CYQM;2005-04-03 08:00;METAR CYQM 030800Z 13014KT 15SM OVC100 02/M01 A3004 RMK AC8 SLP177=
CYQM;2005-04-03 08:07;SPECI CYQM 030807Z 15009G18KT 15SM FEW008 OVC100 RMK SF1AC7=
CYQM;2005-04-03 10:00;METAR CYQM 031000Z 14012KT 15SM FEW008 SCT030 BKN100 01/M00 A3005 RMK SF1SC2AC4 SLP180=
CYQM;2005-04-03 11:20;SPECI CYQM 031120Z 13011G17KT 15SM BKN008 BKN012 OVC100 RMK SF5SC2AC2=
CYQM;2005-04-03 12:00;METAR CYQM 031200Z 13009G16KT 15SM BKN008 OVC100 03/01 A3001 RMK SF6AC2 SLP166=
CYQM;2005-04-03 13:00;METAR CYQM 031300Z 13016G22KT 15SM BKN008 OVC100 03/02 A2999 RMK SF7AC1 SLP160=
CYQM;2005-04-03 14:00;METAR CYQM 031400Z 16008KT 15SM BKN009 OVC100 05/02 A3000 RMK SF7AC1 SLP164=
CYQM;2005-04-03 16:00;METAR CYQM 031600Z 10010G15KT 15SM OVC009 06/03 A2995 RMK SF8 SLP145=
CYQM;2005-04-03 18:00;METAR CYQM 031800Z 13013KT 15SM BKN012 OVC100 09/06 A2987 RMK SC7AC1 SLP119=
CYQM;2005-04-03 19:00;METAR CYQM 031900Z 12013G20KT 15SM BKN012 OVC100 10/07 A2984 RMK SC7AC1 SLP109=
CYQM;2005-04-03 19:23;SPECI CYQM 031923Z 12015G24KT 15SM FEW008 BKN012 RMK SF1SC6=
CYQM;2005-04-03 21:00;METAR CYQM 032100Z 11015G20KT 15SM BKN010 BKN100 10/07 A2978 RMK SC6AC1 SLP086=
CYQM;2005-04-03 22:53;SPECI CYQM 032253Z 11019G25KT 12SM -SHRA OVC007 RMK SF8 VIS W 5=
CYQM;2005-04-03 23:00;METAR CYQM 032300Z 11019G25KT 8SM -SHRA OVC007 10/09 A2975 RMK SF8 SLP076=
CYQM;2005-04-03 23:20;SPECI CYQM 032320Z 09020G26KT 10SM -SHRA SCT008 OVC011 RMK SF3SF5=
CYQM;2005-04-03 23:34;SPECI CYQM 032334Z 10019G28KT 15SM -SHRA BKN008 OVC018 RMK SF6SC2=
CYQM;2005-04-04 00:00;METAR CYQM 040000Z 10020G30KT 10SM -SHRA BKN008 OVC012 10/08 A2972 RMK SF6SC2 SLP065=
CYQM;2005-04-04 03:27;SPECI CYQM 040327Z 09014KT 10SM -RA BKN002 BKN006 OVC045 RMK SF6SF1NS2=
CYQM;2005-04-04 03:42;SPECI CYQM 040342Z 09013KT 10SM -RA BKN001 OVC005 RMK SF6SF2=
CYQM;2005-04-04 04:00;METAR CYQM 040400Z 09012KT 8SM -RA BKN001 BKN005 OVC009 05/05 A2965 RMK SF6SF2SF1 /R10/ SLP043=
CYQM;2005-04-04 04:19;SPECI CYQM 040419Z 09016KT 2SM -RA BR OVC001 RMK ST8 VIS SW 6=
CYQM;2005-04-04 04:30;SPECI CYQM 040430Z 09015G20KT 1 1/4SM -RA BR OVC001 RMK ST8 VIS SW 4=
CYQM;2005-04-04 05:23;SPECI CYQM 040523Z 11011KT 12SM OVC002 RMK ST8=
CYQM;2005-04-04 05:44;SPECI CYQM 040544Z 12008KT 15SM SCT002 OVC005 RMK SF3SF5=
CYQM;2005-04-04 06:00;METAR CYQM 040600Z 13006KT 15SM SCT002 OVC005 06/06 A2962 RMK SF3SF5 SLP033=
CYQM;2005-04-04 06:45;SPECI CYQM 040645Z 10009KT 15SM BKN003 OVC006 RMK SF6SF2=
CYQM;2005-04-04 07:00;METAR CYQM 040700Z 10006KT 15SM BKN003 OVC006 08/07 A2960 RMK SF7SF1 SLP026=
CYQM;2005-04-04 07:17;SPECI CYQM 040717Z 10007KT 12SM -DZ SCT002 OVC006 RMK SF3SF5=
CYQM;2005-04-04 07:26;SPECI CYQM 040726Z 09006KT 15SM BKN002 OVC006 RMK SF5SF3 VIS N SE 11/2=
CYQM;2005-04-04 07:30;SPECI CYQM 040730Z 09005KT 15SM -SHRA BKN002 BKN006 OVC011 RMK SF5SF2SC1 VIS N-SE 11/2=
CYQM;2005-04-04 08:00;METAR CYQM 040800Z 09007KT 15SM SCT002 OVC005 06/06 A2961 RMK SF3SF5 VIS N 2 SLP028=
CYQM;2005-04-04 08:06;SPECI CYQM 040806Z 09009KT 8SM -SHRA OVC003 RMK SF8=
CYQM;2005-04-04 08:18;SPECI CYQM 040818Z 09007KT 8SM -SHRA FEW003 OVC006 RMK SF2SF6=
CYQM;2005-04-04 08:39;SPECI CYQM 040839Z 09008KT 10SM SCT003 OVC006 RMK SF4SF4 VIS N 2=
CYQM;2005-04-04 10:00;METAR CYQM 041000Z 11005KT 8SM MIFG BKN003 OVC020 07/07 A2960 RMK SF7SC1 VIS N 21/2 CIG RAG SLP026=
CYQM;2005-04-04 10:26;SPECI CYQM 041026Z 16008KT 8SM BKN004 OVC020 RMK SF7SC1 VIS N 21/2 CIG RAG=
CYQM;2005-04-04 10:54;SPECI CYQM 041054Z 15011KT 8SM BKN005 BKN025 RMK SF7SC1 VIS N 2=
CYQM;2005-04-04 12:00;METAR CYQM 041200Z 15008KT 12SM FEW009 BKN015 BKN250 08/07 A2962 RMK SF2CU3CI1 SLP032=
CYQM;2005-04-04 13:00;METAR CYQM 041300Z 15012G17KT 15SM BKN020 BKN250 08/06 A2963 RMK CU5CI1 SLP036=
CYQM;2005-04-04 14:00;METAR CYQM 041400Z 16016G24KT 15SM BKN025 BKN120 BKN250 09/05 A2963 RMK CU6AC1CC0 SLP035=
CYQM;2005-04-04 15:00;METAR CYQM 041500Z 15012G24KT 15SM -SHRA FEW020 BKN045 BKN200 08/05 A2963 RMK SC1SC6CI1 SLP035=
CYQM;2005-04-04 15:27;SPECI CYQM 041527Z 13014G20KT 15SM FEW020 BKN050 BKN200 RMK CU1SC6CI2=
CYQM;2005-04-04 16:00;METAR CYQM 041600Z 15018G24KT 12SM -SHRA FEW017 BKN050 BKN140 08/05 A2961 RMK SC1SC5CI2 SLP029=
CYQM;2005-04-04 16:29;SPECI CYQM 041629Z 15016G27KT 15SM FEW017 SCT045 BKN095 RMK SC1SC3AC3 SHS NW=
CYQM;2005-04-04 18:00;METAR CYQM 041800Z 16015G20KT 15SM BKN025 OVC095 08/03 A2961 RMK SC7AC1 SLP029=
CYQM;2005-04-04 19:00;METAR CYQM 041900Z 18011KT 15SM BKN030 OVC095 07/03 A2961 RMK SC7AC1 SLP030=
CYQM;2005-04-04 19:37;SPECI CYQM 041937Z 16008KT 15SM -SHRA BKN030 OVC100 RMK SC7AC1=
CYQM;2005-04-04 20:22;SPECI CYQM 042022Z 17005KT 12SM FEW010 BKN025 OVC100 RMK CF1SC6AC1=
CYQM;2005-04-04 20:33;SPECI CYQM 042033Z 20007KT 10SM -SHRA FEW010 BKN025 OVC080 RMK CF1SC7AC1=
CYQM;2005-04-04 21:00;METAR CYQM 042100Z 20007KT 10SM -SHRA FEW010 BKN025 OVC080 06/03 A2964 RMK CF1SC6AC2 SLP040=
CYQM;2005-04-04 21:17;SPECI CYQM 042117Z 18007KT 12SM FEW010 SCT025 OVC080 RMK CF1SC3AC4=
CYQM;2005-04-04 21:44;SPECI CYQM 042144Z 18008KT 15SM BKN011 BKN030 OVC080 RMK SC6SC2AC1=
CYQM;2005-04-04 22:00;METAR CYQM 042200Z 17007KT 15SM BKN012 BKN030 OVC080 05/02 A2966 RMK SC5SC2AC2 SLP047=
CYQM;2005-04-05 00:00;METAR CYQM 050000Z 16005KT 15SM BKN013 BKN035 03/01 A2970 RMK SC5SC2 SLP060=
CYQM;2005-04-05 00:45;SPECI CYQM 050045Z 15007KT 15SM SCT012 BKN040 RMK SC3SC3=
CYQM;2005-04-05 02:00;METAR CYQM 050200Z 14007KT 15SM OVC022 02/M01 A2972 RMK SC8 SLP066=
CYQM;2005-04-05 03:00;METAR CYQM 050300Z 16010KT 12SM BKN016 OVC030 03/01 A2972 RMK SC6SC2 SLP067=
CYQM;2005-04-05 03:18;SPECI CYQM 050318Z 15009KT 12SM BKN014 OVC030 RMK SC6SC2=
CYQM;2005-04-05 03:50;SPECI CYQM 050350Z 14011KT 12SM SCT014 OVC040 RMK SC3SC5=
CYQM;2005-04-05 04:00;METAR CYQM 050400Z 14010G16KT 12SM SCT011 OVC040 03/01 A2973 RMK SC3SC5 SLP070=
CYQM;2005-04-05 04:36;SPECI CYQM 050436Z 15007KT 12SM BKN013 OVC030 RMK SC5SC3=
CYQM;2005-04-05 05:00;METAR CYQM 050500Z 14008KT 12SM BKN011 OVC030 04/02 A2974 RMK SC6SC2 SLP073=
CYQM;2005-04-05 08:00;METAR CYQM 050800Z 16009KT 15SM SCT011 BKN016 03/01 A2973 RMK SC3SC3 SLP071=
CYQM;2005-04-05 09:37;SPECI CYQM 050937Z 15008KT 8SM -SHRA BKN035 OVC080 RMK SC7AC1 VIS N - NE 2=
CYQM;2005-04-05 10:00;METAR CYQM 051000Z 17006KT 8SM BKN032 OVC090 03/02 A2976 RMK SC7AC1 SLP080=
CYQM;2005-04-05 10:21;SPECI CYQM 051021Z 17006KT 8SM -SHRA FEW010 BKN030 OVC090 RMK CF1SC7AC1 VIS N 2=
CYQM;2005-04-05 12:00;METAR CYQM 051200Z 17005KT 8SM BKN008 OVC025 03/02 A2979 RMK SF7SC1 SLP091=
CYQM;2005-04-05 13:33;SPECI CYQM 051333Z 22010KT 12SM BKN011 BKN035 OVC090 RMK SC5SC2AC2=
CYQM;2005-04-05 16:00;METAR CYQM 051600Z 24015KT 15SM BKN020 07/03 A2983 RMK SC7 SLP103=
CYQM;2005-04-05 17:00;METAR CYQM 051700Z 23015KT 15SM OVC025 08/03 A2984 RMK SC8 SLP106=
CYQM;2005-04-05 18:00;METAR CYQM 051800Z 22015KT 15SM BKN025 BKN080 08/04 A2984 RMK SC7AC1 SLP108=
CYQM;2005-04-05 21:00;METAR CYQM 052100Z 23014KT 15SM SCT030 BKN080 07/02 A2988 RMK SC3AC2 SLP121=
CYQM;2005-04-05 22:00;METAR CYQM 052200Z 23013KT 15SM FEW030 BKN070 BKN220 07/02 A2990 RMK SC2AC2CI1 SLP129=
CYQM;2005-04-05 23:00;METAR CYQM 052300Z 23008KT 15SM FEW035 BKN090 06/01 A2992 RMK SC2AC3 SLP135=
CYQM;2005-04-06 00:00;METAR CYQM 060000Z 23007KT 15SM FEW035 BKN090 05/M00 A2995 RMK SC2AC3 SLP146=
CYQM;2005-04-06 02:00;METAR CYQM 060200Z 23009KT 15SM BKN040 05/01 A2999 RMK SC6 SLP158=
CYQM;2005-04-06 04:00;METAR CYQM 060400Z 22005KT 15SM OVC040 04/00 A3000 RMK SC8 SLP160=
CYQM;2005-04-06 05:00;METAR CYQM 060500Z 25006KT 15SM OVC042 04/01 A3000 RMK SC8 SLP161=
CYQM;2005-04-06 08:00;METAR CYQM 060800Z 24009KT 15SM FEW045 03/01 A3003 RMK SC2 SLP173=
CYQM;2005-04-06 10:00;METAR CYQM 061000Z 21006KT 15SM FEW120 FEW220 00/M01 A3008 RMK AC1CI1 SLP190=
CYQM;2005-04-06 11:00;METAR CYQM 061100Z 22009KT 15SM FEW260 01/M00 A3010 RMK CI1 SLP195=
CYQM;2005-04-06 12:00;METAR CYQM 061200Z 23012KT 15SM SKC 03/00 A3010 RMK SLP196=
CYQM;2005-04-06 13:00;METAR CYQM 061300Z 22010KT 15SM SKC 06/00 A3011 RMK SLP200=
CYQM;2005-04-06 14:00;METAR CYQM 061400Z 24009KT 15SM SKC 08/M00 A3010 RMK SLP197=
CYQM;2005-04-06 15:00;METAR CYQM 061500Z 22009G16KT 15SM SKC 10/M01 A3008 RMK SLP190=
CYQM;2005-04-06 16:00;METAR CYQM 061600Z 23017KT 15SM FEW030 12/M00 A3006 RMK CU1 SLP182=
CYQM;2005-04-06 19:00;METAR CYQM 061900Z 20020G25KT 15SM FEW040 14/M02 A2999 RMK CU1 SLP158=
CYQM;2005-04-06 21:00;METAR CYQM 062100Z 21020G26KT 15SM FEW040 FEW260 13/M03 A2997 RMK CU1CI1 SLP152=
CYQM;2005-04-06 22:00;METAR CYQM 062200Z 21021G26KT 15SM FEW040 FEW260 12/M03 A2998 RMK SC1CI1 SLP156=
CYQM;2005-04-06 23:00;METAR CYQM 062300Z 21012KT 15SM FEW040 FEW260 10/M04 A3000 RMK SC1CI1 SLP160=
CYQM;2005-04-07 21:32;SPECI CYQM 072132Z 09008KT 12SM -SHRA FEW020 OVC090 RMK SC2AC6=
CYQM;2005-04-07 22:16;SPECI CYQM 072216Z 09008KT 12SM -SHRA FEW008 OVC040 RMK SF1SC7=
CYQM;2005-04-07 23:22;SPECI CYQM 072322Z 08012KT 15SM OVC025 RMK SC8=
CYQM;2005-04-08 01:07;SPECI CYQM 080107Z 08010KT 15SM -SHRA BKN012 OVC020 RMK SC5SC3=
CYQM;2005-04-08 01:55;SPECI CYQM 080155Z 06005KT 15SM BKN007 OVC012 RMK SF5SC3=
CYQM;2005-04-08 03:27;SPECI CYQM 080327Z 06002KT 2SM BR SCT003 OVC006 RMK SF3SF5=
CYQM;2005-04-08 03:39;SPECI CYQM 080339Z 11003KT 1SM R29/P6000FT/N R06/5500FT BR VV008 RMK FG8=
CYQM;2005-04-08 04:12;SPECI CYQM 080412Z 00000KT 3/4SM R29/4500FT/U R06/4500FT/N BR VV006 RMK FG8=
CYQM;2005-04-08 06:22;SPECI CYQM 080622Z 00000KT 3/4SM R29/5000FT/U R06/4000FT/N BR OVC006 RMK FG5SF3=
CYQM;2005-04-08 07:14;SPECI CYQM 080714Z 36002KT 1SM R29/P6000FT/D R06/4500VP6000FT/U BR OVC008 RMK FG2SF6=
CYQM;2005-04-08 07:25;SPECI CYQM 080725Z 00000KT 3SM BR OVC007 RMK SF8=
CYQM;2005-04-08 07:33;SPECI CYQM 080733Z 36002KT 3SM -SHRA BR OVC008 RMK SF8=
CYQM;2005-04-08 08:20;SPECI CYQM 080820Z 29004KT 3SM -SHRA BR OVC006 RMK SF8=
CYQM;2005-04-08 09:00;METAR CYQM 080900Z 11003KT 4SM -SHRA BR FEW003 OVC006 02/01 A2960 RERA RMK SF2SF6 SLP027=
CYQM;2005-04-08 09:38;SPECI CYQM 080938Z 29003KT 4SM -SHRA BR BKN003 OVC006 RMK SF5SF3=
CYQM;2005-04-08 09:52;SPECI CYQM 080952Z 29002KT 2 1/2SM -SHRA BR BKN003 OVC006 RMK SF5SF3=
CYQM;2005-04-08 10:00;METAR CYQM 081000Z 30004KT 2 1/2SM -SHRA BR BKN003 OVC006 02/02 A2964 RMK SF5SF3 SLP041=
CYQM;2005-04-08 10:16;SPECI CYQM 081016Z 30002KT 2SM -DZ BR BKN003 OVC006 RMK SF5SF3=
CYQM;2005-04-08 12:00;METAR CYQM 081200Z 25009KT 4SM -DZ BR BKN003 OVC006 03/02 A2968 RMK SF5SF3 SLP053=
CYQM;2005-04-08 12:10;SPECI CYQM 081210Z 25011KT 7SM BKN003 OVC008 RMK SF5SF3=
CYQM;2005-04-08 13:00;METAR CYQM 081300Z 27011KT 10SM BKN005 OVC009 03/03 A2973 RMK SF5SF3 SLP070=
CYQM;2005-04-08 14:00;METAR CYQM 081400Z 28009KT 10SM BKN009 BKN020 04/02 A2975 RMK SF5SC2 SLP079=
CYQM;2005-04-08 14:28;SPECI CYQM 081428Z 29011KT 10SM BKN011 BKN020 RMK SC5SC2=
CYQM;2005-04-08 15:00;METAR CYQM 081500Z 28010G17KT 15SM BKN014 BKN025 04/02 A2977 RMK SC5SC2 SLP085=
CYQM;2005-04-08 16:00;METAR CYQM 081600Z 29010KT 15SM BKN015 BKN030 05/00 A2978 RMK SC6SC2 SLP089=
CYQM;2005-04-08 17:00;METAR CYQM 081700Z 29012KT 15SM BKN015 BKN030 05/M01 A2981 RMK SC6SC2 SLP097=
CYQM;2005-04-08 17:38;SPECI CYQM 081738Z 28011KT 15SM BKN018 OVC030 RMK SC6SC2=
CYQM;2005-04-08 18:00;METAR CYQM 081800Z 26010KT 15SM BKN020 OVC035 05/M00 A2983 RMK SC6SC2 SLP103=
CYQM;2005-04-08 19:00;METAR CYQM 081900Z 27010KT 15SM FEW020 SCT035 06/01 A2983 RMK SC2SC2 SLP105=
CYQM;2005-04-08 20:00;METAR CYQM 082000Z 24006KT 15SM FEW030 SCT250 07/01 A2983 RMK CU2CI2 SLP103=
CYQM;2005-04-08 21:00;METAR CYQM 082100Z 23010KT 15SM FEW035 FEW240 08/02 A2984 RMK CU2CI0 SLP106=
CYQM;2005-04-08 22:00;METAR CYQM 082200Z 22008KT 15SM FEW030 FEW250 08/01 A2984 RMK CU1CI0 SLP109=
CYQM;2005-04-08 23:00;METAR CYQM 082300Z 21004KT 15SM FEW025 FEW250 07/01 A2986 RMK SC1CI0 SLP114=
CYQM;2005-04-09 00:00;METAR CYQM 090000Z 20005KT 15SM FEW020 FEW250 06/01 A2988 RMK SC1CI0 SLP121=
CYQM;2005-04-09 03:00;METAR CYQM 090300Z 20008KT 15SM FEW040 01/M01 A2991 RMK SC2 SLP131=
CYQM;2005-04-09 06:00;METAR CYQM 090600Z 22008KT 15SM FEW250 01/M01 A2992 RMK CI0 SLP135=
CYQM;2005-04-09 08:00;METAR CYQM 090800Z 22009KT 15SM SKC M01/M02 A2994 RMK SLP143=
CYQM;2005-04-09 09:00;METAR CYQM 090900Z 22009KT 15SM FEW150 SCT250 M01/M02 A2996 RMK AC2CI1 SLP149=
CYQM;2005-04-09 10:00;METAR CYQM 091000Z 24007KT 15SM FEW150 FEW250 M02/M03 A2999 RMK AC1CI1 SLP159=
CYQM;2005-04-09 11:00;METAR CYQM 091100Z 23008KT 15SM FEW150 FEW250 M00/M04 A3002 RMK AC1CI1 SLP168=
CYQM;2005-04-09 12:00;METAR CYQM 091200Z 25010KT 15SM FEW150 00/M05 A3002 RMK AC1 SLP169=
CYQM;2005-04-09 13:00;METAR CYQM 091300Z 26012G17KT 15SM FEW150 01/M06 A3002 RMK AC1 SLP170=
CYQM;2005-04-09 16:00;METAR CYQM 091600Z 27015G24KT 15SM FEW040 06/M04 A3002 RMK CU2 SLP170=
CYQM;2005-04-09 18:00;METAR CYQM 091800Z 29017G22KT 15SM FEW040 FEW250 07/M04 A3002 RMK CU1CI1 SLP169=
CYQM;2005-04-09 21:00;METAR CYQM 092100Z 26007G15KT 15SM FEW035 FEW260 08/M06 A3004 RMK SC1CI0 SLP175=
CYQM;2005-04-09 22:00;METAR CYQM 092200Z 28010KT 15SM FEW035 FEW260 07/M08 A3004 RMK SC1CI0 SLP177=
CYQM;2005-04-09 23:00;METAR CYQM 092300Z 27005KT 15SM FEW260 05/M06 A3006 RMK CI0 SLP182=
CYQM;2005-04-10 00:00;METAR CYQM 100000Z 27003KT 15SM FEW080 FEW260 05/M07 A3008 RMK AC1CI0 SLP189=
CYQM;2005-04-10 06:00;METAR CYQM 100600Z 15004KT 15SM BKN170 BKN250 00/M04 A3002 RMK AC6CI0 SLP168=
CYQM;2005-04-10 10:00;METAR CYQM 101000Z 19005KT 15SM BKN150 00/M03 A2998 RMK AC7 SLP157=
CYQM;2005-04-10 12:00;METAR CYQM 101200Z 17009KT 15SM FEW150 SCT250 03/M02 A2995 RMK AC2CI2 SLP144=
CYQM;2005-04-10 13:00;METAR CYQM 101300Z 19016G22KT 15SM FEW150 SCT250 04/M02 A2992 RMK AC2CI2 SLP135=
CYQM;2005-04-10 14:00;METAR CYQM 101400Z 20021G28KT 15SM FEW150 SCT250 08/M03 A2990 RMK AC2CI2 SLP129=
CYQM;2005-04-10 15:00;METAR CYQM 101500Z 19016G28KT 15SM SCT110 BKN250 10/M02 A2988 RMK AC4CI1 SLP121=
CYQM;2005-04-10 17:00;METAR CYQM 101700Z 23017G29KT 15SM FEW035 SCT120 BKN210 12/M02 A2986 RMK SC2AC2CI2 SLP113=
CYQM;2005-04-10 18:00;METAR CYQM 101800Z 23022G29KT 15SM SCT045 SCT250 13/M02 A2985 RMK CU3CI0 SLP111=
CYQM;2005-04-10 21:00;METAR CYQM 102100Z 07005KT 15SM BKN040 BKN260 06/M04 A2992 RMK SC5CI0 SLP137=
CYQM;2005-04-10 22:00;METAR CYQM 102200Z 31014KT 15SM FEW040 FEW260 07/M08 A2995 RMK SC1CI0 SLP144=
CYQM;2005-04-11 00:00;METAR CYQM 110000Z 32014G26KT 15SM FEW030 FEW260 04/M06 A3000 RMK SC1CI0 SLP162=
CYQM;2005-04-11 03:00;METAR CYQM 110300Z 31005KT 15SM SKC 00/M06 A3003 RMK SLP174=
CYQM;2005-04-11 04:00;METAR CYQM 110400Z 31007KT 15SM FEW100 M02/M07 A3003 RMK AC1 SLP173=
CYQM;2005-04-11 05:00;METAR CYQM 110500Z 29006KT 15SM FEW100 M02/M07 A3002 RMK AC1 SLP170=
CYQM;2005-04-11 10:00;METAR CYQM 111000Z 32009KT 15SM FEW020 FEW040 M03/M06 A3000 RMK SC1SC2 SLP164=
CYQM;2005-04-11 12:00;METAR CYQM 111200Z 34015G20KT 15SM FEW020 SCT040 SCT140 M01/M05 A3001 RMK SC2SC2AC1 SLP166=
CYQM;2005-04-11 12:24;SPECI CYQM 111224Z 32010G17KT 15SM -SHSN BKN020 BKN040 BKN140 RMK SC5SC2AC1=
CYQM;2005-04-11 13:00;METAR CYQM 111300Z 34016G21KT 15SM -SHSN BKN020 BKN040 M01/M05 A3002 RMK SC5SC2 SLP168=
CYQM;2005-04-11 14:00;METAR CYQM 111400Z 32018G26KT 12SM -SHSN BKN020 OVC040 M00/M04 A3001 RMK SC6SC2 SLP166=
CYQM;2005-04-11 15:00;METAR CYQM 111500Z 34018G28KT 12SM -SHSN OVC015 00/M06 A3000 RMK SC8 SLP163=
CYQM;2005-04-11 15:15;SPECI CYQM 111515Z 32021G27KT 2SM -SHSN DRSN OVC015 RMK SC8=
CYQM;2005-04-11 15:20;SPECI CYQM 111520Z 32020G27KT 1SM R29/P6000FT/N R06/P6000FT/D -SHSN=
CYQM;2005-04-11 17:00;METAR CYQM 111700Z 32019KT 1SM R06/P6000FT/N R29/4000V5500FT/U -SN BKN015 OVC040 M00/M05 A2997 RMK SC6SC2 SLP154=
CYQM;2005-04-11 19:14;SPECI CYQM 111914Z 34016KT 1 1/2SM -SN BKN020 OVC040 RMK SC6SC2=
CYQM;2005-04-11 19:42;SPECI CYQM 111942Z 35018G24KT 1SM R06/P6000FT/N R29/P6000FT/D -SN BKN020 OVC040 RMK SC6SC2=
CYQM;2005-04-11 20:00;METAR CYQM 112000Z 36018KT 1SM R06/P6000FT/N R29/P6000FT/D -SN FEW012 OVC020 M01/M01 A2995 RMK SC2SC6 SLP147=
CYQM;2005-04-11 20:15;SPECI CYQM 112015Z 36014G21KT 1 1/2SM -SN FEW012 OVC020 RMK SC2SC6=
CYQM;2005-04-11 20:27;SPECI CYQM 112027Z 36017KT 2SM -SN BKN012 OVC020 RMK SC5SC3=
CYQM;2005-04-11 21:00;METAR CYQM 112100Z 01013KT 2SM -SN BKN009 OVC020 M01/M02 A2996 RMK SC6SC2 /S01/ SLP149=
CYQM;2005-04-11 21:29;SPECI CYQM 112129Z 01018G25KT 8SM -SN BKN010 OVC025 RMK SC6SC2=
CYQM;2005-04-11 22:26;SPECI CYQM 112226Z 36014KT 2SM -SN DRSN BKN009 OVC020 RMK SC7SC1=
CYQM;2005-04-11 22:38;SPECI CYQM 112238Z 36012G17KT 1SM R06/P6000FT/N R29/P6000FT/N -SN DRSN BKN009 OVC020 RMK SN1SC6SC1=
CYQM;2005-04-11 23:16;SPECI CYQM 112316Z 01020G26KT 1 1/2SM -SN DRSN BKN010 OVC022 RMK SC7SC1=
CYQM;2005-04-12 00:20;SPECI CYQM 120020Z 01016G24KT 3/4SM R06/2400V4000FT/U R29/P6000FT/U -SN DRSN VV005 RMK SN8=
CYQM;2005-04-12 01:13;SPECI CYQM 120113Z 01020KT 1 1/2SM -SN DRSN VV010 RMK SN8=
CYQM;2005-04-12 02:48;SPECI CYQM 120248Z 01025KT 1SM R29/P6000FT/D -SN BLSN VV007 RMK SN8=
CYQM;2005-04-12 03:00;METAR CYQM 120300Z 01019G26KT 1SM R06/P6000FT/U R29/3500V5500FT/U -SN BLSN VV007 M01/M02 A2994 RMK SN8 /S03/ SLP142=
CYQM;2005-04-12 03:28;SPECI CYQM 120328Z 01020G25KT 3/4SM R06/P6000FT/D R29/4000VP6000FT/D -SN BLSN VV005 RMK SN8=
CYQM;2005-04-12 04:20;SPECI CYQM 120420Z 36016G22KT 3/4SM R06/3000VP6000FT/D R29/4500VP6000FT/D -SN DRSN VV005 RMK SN8=
CYQM;2005-04-12 04:34;SPECI CYQM 120434Z 36020G26KT 5/8SM R06/2600V4000FT/N R29/2400VP6000FT/U -SN DRSN VV005 RMK SN8=
CYQM;2005-04-12 04:42;SPECI CYQM 120442Z 36017G26KT 1/2SM R06/2200V3000FT/U R29/1800V3500FT/N SN DRSN VV004 RMK SN8=
CYQM;2005-04-12 05:37;SPECI CYQM 120537Z 35021KT 3/8SM R06/3000FT/N R29/1600V2200FT/N SN=
CYQM;2005-04-12 06:00;METAR CYQM 120600Z 35020G26KT 3/8SM R29/2200FT/D SN BLSN VV004 M02/M02 A2984 RMK SN8 /S06/ SLP109=
CYQM;2005-04-12 08:00;METAR CYQM 120800Z 36021G26KT 1/2SM R06/2600V5500FT/N R29/2000V4500FT/U -SN BLSN VV004 M02/M02 A2979 RMK SN8 SLP091=
CYQM;2005-04-12 08:17;SPECI CYQM 120817Z 35019KT 3/8SM R06/2400FT/N R29/1200V3000FT/N -SN BLSN VV004 RMK SN8=
CYQM;2005-04-12 10:00;METAR CYQM 121000Z 35019G30KT 5/8SM R06/4000FT/D R29/3500FT/D -SN BLSN VV004 M02/M02 A2972 RMK SN8 /S06/ SLP069=
CYQM;2005-04-12 10:26;SPECI CYQM 121026Z 35020G29KT 1/2SM R06/3500VP6000FT/D R29/3000V5000FT/D -SN BLSN VV004 RMK SN8=
CYQM;2005-04-12 10:45;SPECI CYQM 121045Z 35019G26KT 3/4SM R06/4500V5500FT/N R29/4000FT/N -SN BLSN VV004 RMK SN8=
CYQM;2005-04-12 11:00;METAR CYQM 121100Z 35019G26KT 5/8SM R06/4000FT/N R29/3000FT/N -SN BLSN VV004 M02/M02 A2971 RMK SN8 /S08/ SLP064=
CYQM;2005-04-12 12:00;METAR CYQM 121200Z 35016G26KT 5/8SM R06/4500FT/N R29/3500FT/U -SN DRSN VV004 M02/M02 A2969 REBLSN RMK SN8 /S10/ SLP057=
CYQM;2005-04-12 12:13;SPECI CYQM 121213Z 36016G24KT 3/4SM R06/5000FT/U R29/2800V5000FT/U -SN DRSN OVC005 RMK SN6SF2=
CYQM;2005-04-12 12:42;SPECI CYQM 121242Z 36017G22KT 1SM R06/P6000FT/U R29/P6000FT/U -SN DRSN OVC005 RMK SN6SF2=
CYQM;2005-04-12 14:00;METAR CYQM 121400Z 35015G21KT 1SM R06/P6000FT/U R29/P6000FT/N -SN DRSN OVC008 M01/M02 A2966 RMK SN2SF6 SLP049=
CYQM;2005-04-12 14:27;SPECI CYQM 121427Z 36015G20KT 1 1/2SM -SN BKN007 OVC020 RMK SF6SC2=
CYQM;2005-04-12 15:00;METAR CYQM 121500Z 36011G18KT 1 1/2SM -SN OVC007 M00/M01 A2967 RMK SF8 SLP050=
CYQM;2005-04-12 15:45;SPECI CYQM 121545Z 36008KT 2SM -SN SCT007 BKN010 OVC020 RMK SF3SC4SC1=
CYQM;2005-04-12 16:00;METAR CYQM 121600Z 36006KT 3SM -SN SCT007 BKN010 OVC020 00/M01 A2967 RMK SF3SC4SC1 BINOVC SLP052=
CYQM;2005-04-12 16:43;SPECI CYQM 121643Z 05006KT 12SM -SN FEW007 OVC017 RMK SF1SC7=
CYQM;2005-04-12 17:50;SPECI CYQM 121750Z 11012KT 1 1/2SM -SHSN BKN017 RMK SC7 VIS HR W QUAD=
CYQM;2005-04-12 18:00;METAR CYQM 121800Z 12010KT 15SM VCSH BKN017 02/M01 A2972 RMK SC7 SLP067=
CYQM;2005-04-12 18:56;SPECI CYQM 121856Z 15012KT 15SM -SHSN FEW015 BKN025 RMK CU1SC6=
CYQM;2005-04-12 19:00;METAR CYQM 121900Z 15011KT 10SM -SHSN FEW015 BKN025 02/M02 A2973 RMK CU1SC6 VIS S 3 SLP072=
CYQM;2005-04-12 19:16;SPECI CYQM 121916Z 14007KT 15SM FEW015 BKN025 BKN040 RMK CU1SC6SC1=
CYQM;2005-04-12 20:00;METAR CYQM 122000Z 16008KT 15SM FEW012 BKN025 BKN040 02/M01 A2975 RMK CU2SC4SC1 SLP078=
CYQM;2005-04-12 21:00;METAR CYQM 122100Z 12009KT 15SM FEW012 BKN030 BKN045 02/M02 A2978 RMK CU2SC4SC1 SLP087=
CYQM;2005-04-12 22:00;METAR CYQM 122200Z 09005KT 15SM FEW012 BKN030 BKN045 03/M02 A2980 RMK CF2SC4SC1 SLP096=
CYQM;2005-04-12 23:00;METAR CYQM 122300Z 05004KT 15SM FEW012 SCT040 02/M02 A2982 RMK CF2SC2 SLP102=
CYQM;2005-04-13 00:00;METAR CYQM 130000Z 04004KT 15SM FEW015 SCT040 01/M05 A2985 RMK CU1SC2 SLP112=
CYQM;2005-04-13 01:00;METAR CYQM 130100Z 04005KT 15SM BKN045 00/M05 A2986 RMK SC6 SLP116=
CYQM;2005-04-13 02:00;METAR CYQM 130200Z 07006KT 15SM BKN045 M00/M04 A2986 RMK SC6 SLP115=
CYQM;2005-04-13 04:00;METAR CYQM 130400Z 35005KT 15SM FEW045 M01/M05 A2985 RMK SC2 SLP113=
CYQM;2005-04-13 05:39;SPECI CYQM 130539Z 34004KT 3/4SM R29/3500VP6000FT/D R06/1400V4000FT/D BR SKC RMK FG7=
CYQM;2005-04-13 05:53;SPECI CYQM 130553Z 35004KT 1/2SM R29/3000FT/D R06/1200V1600FT/N FZFG SKC RMK FG7=
CYQM;2005-04-13 06:18;SPECI CYQM 130618Z 00000KT 1/4SM R29/2200FT/N R06/1200FT/N FZFG SKC RMK FG7 FROIN=
CYQM;2005-04-13 06:37;SPECI CYQM 130637Z 36004KT 1/4SM R29/1800FT/N R06/1200V1800FT/N FZFG VV002 RMK FG8 FROIN=
CYQM;2005-04-13 06:52;SPECI CYQM 130652Z 36004KT 1/2SM R29/2400FT/U R06/2000V3000FT/U FZFG VV002 RMK FG8 FROIN=
CYQM;2005-04-13 07:00;METAR CYQM 130700Z 33004KT 1/2SM R29/2200V3000FT/N R06/1600V3000FT/D=
CYQM;2005-04-13 07:23;SPECI CYQM 130723Z 34006KT 3/4SM R29/3000FT/U R06/3500FT/U BR VV002 RMK FG8 FROIN=
CYQM;2005-04-13 07:35;SPECI CYQM 130735Z 34006KT 1SM R29/P6000FT/U R06/3500VP6000FT/U BR SKC RMK FG6 FROIN=
CYQM;2005-04-13 07:44;SPECI CYQM 130744Z 35006KT 5SM BR BKN003 RMK SF6=
CYQM;2005-04-13 09:35;SPECI CYQM 130935Z 26005KT 1/4SM R06/3000VP6000FT/D R29/P6000FT/D FZFG VV001 RMK FG8=
CYQM;2005-04-13 10:00;METAR CYQM 131000Z 30006KT 1/4SM R06/3000V5000FT/N R29/2400V5500FT/U=
CYQM;2005-04-13 11:44;SPECI CYQM 131144Z 29005KT 4SM -SG BR OVC003 RMK ST8=
CYQM;2005-04-13 12:00;METAR CYQM 131200Z 29005KT 4SM BR OVC003 M02/M02 A2986 RMK ST8 FROIN SLP116=
CYQM;2005-04-13 13:00;METAR CYQM 131300Z 25009KT 6SM BR OVC003 M02/M02 A2984 RMK ST8 SLP109=
CYQM;2005-04-13 13:19;SPECI CYQM 131319Z 23009KT 6SM BR BKN004 OVC030 RMK SF7SC1=
CYQM;2005-04-13 14:00;METAR CYQM 131400Z 23011KT 8SM BKN006 OVC030 M01/M01 A2983 RMK SC7SC1 SLP106=
CYQM;2005-04-13 14:22;SPECI CYQM 131422Z 22011G16KT 12SM BKN010 OVC035 RMK SC7SC1=
CYQM;2005-04-13 15:00;METAR CYQM 131500Z 22012G17KT 15SM SCT011 BKN040 BKN220 M00/M01 A2981 RMK SC4SC2CI1 SLP099=
CYQM;2005-04-13 16:00;METAR CYQM 131600Z 23015KT 15SM SCT015 BKN040 BKN220 02/M02 A2979 RMK CU3SC2CI2 VIA YQI SLP093=
CYQM;2005-04-13 17:00;METAR CYQM 131700Z 23016KT 15SM FEW020 BKN240 03/M03 A2977 RMK CU2CI4 VIA YQI SLP084=
CYQM;2005-04-13 19:00;METAR CYQM 131900Z 25020KT 15SM BKN030 BKN230 04/M03 A2977 RMK SC5CI2 SLP084=
CYQM;2005-04-13 20:00;METAR CYQM 132000Z 25014G19KT 15SM SCT030 BKN240 04/M02 A2976 RMK SC3CI2 SLP082=
CYQM;2005-04-13 21:00;METAR CYQM 132100Z 23016G21KT 15SM SCT030 BKN120 05/M03 A2975 RMK SC3AC4 SLP079=
CYQM;2005-04-13 22:00;METAR CYQM 132200Z 22011G17KT 15SM BKN040 BKN120 04/M02 A2975 RMK SC5AC2 SLP079=
CYQM;2005-04-14 00:00;METAR CYQM 140000Z 22009KT 15SM SCT040 BKN080 BKN220 03/M02 A2976 RMK SC3AC3CI1 SLP083=
CYQM;2005-04-14 02:00;METAR CYQM 140200Z 23012KT 15SM OVC035 02/M03 A2975 RMK SC8 SLP077=
CYQM;2005-04-14 04:00;METAR CYQM 140400Z 25011KT 15SM FEW012 OVC022 03/M01 A2975 RMK SC2SC6 SLP079=
CYQM;2005-04-14 05:00;METAR CYQM 140500Z 25006KT 15SM -SHRA SCT012 OVC020 02/M01 A2975 RMK SC3SC5 SLP079=
CYQM;2005-04-14 05:12;SPECI CYQM 140512Z 25005KT 12SM -SHRA BKN011 OVC025 RMK SC6SC2=
CYQM;2005-04-14 05:44;SPECI CYQM 140544Z 28006KT 12SM -SHRA OVC009 RMK SF8=
CYQM;2005-04-14 06:00;METAR CYQM 140600Z 32007KT 12SM -SHRA OVC008 01/00 A2977 RMK SF8 SLP085=
CYQM;2005-04-14 06:18;SPECI CYQM 140618Z 34007KT 15SM SCT009 OVC014 RMK SF3SC5=
CYQM;2005-04-14 07:00;METAR CYQM 140700Z 33007KT 15SM OVC017 01/M01 A2979 RMK SC8 SLP092=
CYQM;2005-04-14 08:22;SPECI CYQM 140822Z 34011KT 12SM -SHRA BKN008 OVC030 RMK SF6SC2=
CYQM;2005-04-14 08:46;SPECI CYQM 140846Z 36016KT 12SM FEW008 OVC040 RMK SF2SC6=
CYQM;2005-04-14 09:00;METAR CYQM 140900Z 36014G19KT 12SM BKN040 BKN120 BKN250 02/M01 A2985 RMK SC7AC1CI1 SLP111=
CYQM;2005-04-14 10:00;METAR CYQM 141000Z 36011G16KT 15SM FEW008 BKN015 BKN040 01/M02 A2990 RMK SF1SC6SC1 SLP128=
CYQM;2005-04-14 12:00;METAR CYQM 141200Z 36018G27KT 15SM FEW020 BKN040 BKN220 00/M03 A2998 RMK SC1SC6CI1 SLP157=
CYQM;2005-04-14 13:00;METAR CYQM 141300Z 36019G26KT 15SM FEW035 FEW250 00/M04 A3001 RMK SC2CI0 SLP166=
CYQM;2005-04-14 14:00;METAR CYQM 141400Z 32020G26KT 15SM FEW035 FEW260 01/M03 A3004 RMK CU1CI2 SLP176=
CYQM;2005-04-14 16:00;METAR CYQM 141600Z 33023KT 15SM SCT260 02/M02 A3006 RMK CI2 SLP184=
CYQM;2005-04-14 17:00;METAR CYQM 141700Z 36018G24KT 15SM FEW250 03/M07 A3009 RMK CI1 SLP193=
CYQM;2005-04-14 19:00;METAR CYQM 141900Z 01013G19KT 15SM BKN250 03/M08 A3013 RMK CI4 SLP205=
CYQM;2005-04-14 20:00;METAR CYQM 142000Z 36012G19KT 15SM BKN260 04/M07 A3014 RMK CI4 SLP211=
CYQM;2005-04-14 22:00;METAR CYQM 142200Z 35010G17KT 15SM SCT260 03/M07 A3019 RMK CI2 SLP226=
CYQM;2005-04-15 00:00;METAR CYQM 150000Z 35003KT 15SM SCT260 01/M10 A3024 RMK CI2 SLP243=
CYQM;2005-04-15 02:00;METAR CYQM 150200Z 29006KT 15SM FEW260 M01/M08 A3027 RMK CI1 SLP253=
CYQM;2005-04-15 04:00;METAR CYQM 150400Z 30009KT 15SM FEW250 M02/M07 A3029 RMK CI1 SLP262=
CYQM;2005-04-15 05:00;METAR CYQM 150500Z 29006KT 15SM FEW250 M01/M07 A3030 RMK CI1 SLP263=
CYQM;2005-04-15 06:00;METAR CYQM 150600Z 29007KT 15SM FEW250 M02/M10 A3029 RMK CI1 SLP261=
CYQM;2005-04-15 09:00;METAR CYQM 150900Z 33009KT 15SM FEW250 M03/M08 A3033 RMK CI1 SLP276=
CYQM;2005-04-15 10:00;METAR CYQM 151000Z 32008KT 15SM FEW250 M04/M08 A3037 RMK CI1 SLP288=
CYQM;2005-04-15 12:00;METAR CYQM 151200Z 34010G19KT 15SM FEW250 M01/M10 A3043 RMK CI0 SLP308=
CYQM;2005-04-15 13:00;METAR CYQM 151300Z 36013KT 15SM FEW030 FEW250 01/M08 A3045 RMK CU1CI1 SLP315=
CYQM;2005-04-15 14:00;METAR CYQM 151400Z 34011G17KT 15SM FEW030 FEW250 02/M07 A3046 RMK CU1CI1 SLP320=
CYQM;2005-04-15 15:00;METAR CYQM 151500Z 02009G16KT 15SM FEW250 02/M06 A3046 RMK CI1 SLP320=
CYQM;2005-04-15 16:00;METAR CYQM 151600Z 35010G15KT 15SM FEW250 03/M08 A3046 RMK CI1 SLP320=
CYQM;2005-04-15 17:00;METAR CYQM 151700Z 04010G18KT 15SM FEW250 03/M07 A3046 RMK CI1 SLP320=
CYQM;2005-04-15 21:00;METAR CYQM 152100Z 05007KT 15SM SKC 05/M10 A3046 RMK SLP318=
CYQM;2005-04-15 22:00;METAR CYQM 152200Z 04007KT 15SM SKC 05/M10 A3047 RMK SLP322=
CYQM;2005-04-16 00:00;METAR CYQM 160000Z 09002KT 15SM SKC 02/M12 A3052 RMK SLP338=
CYQM;2005-04-16 03:00;METAR CYQM 160300Z 11003KT 15SM SKC M01/M11 A3055 RMK SLP349=
CYQM;2005-04-16 04:00;METAR CYQM 160400Z 15003KT 15SM SKC M00/M09 A3055 RMK SLP348=
CYQM;2005-04-16 06:00;METAR CYQM 160600Z 20008KT 15SM SKC M03/M08 A3054 RMK SLP347=
CYQM;2005-04-16 07:00;METAR CYQM 160700Z 21006KT 15SM SKC M04/M07 A3055 RMK SLP348=
CYQM;2005-04-16 09:00;METAR CYQM 160900Z 21007KT 15SM FEW260 M04/M08 A3055 RMK CI0 SLP349=
CYQM;2005-04-16 10:00;METAR CYQM 161000Z 22007KT 15SM FEW260 M04/M07 A3056 RMK CI0 SLP353=
CYQM;2005-04-16 11:00;METAR CYQM 161100Z 21006KT 15SM SKC M03/M06 A3055 RMK SLP351=
CYQM;2005-04-16 12:00;METAR CYQM 161200Z 22008KT 15SM SKC 00/M07 A3056 RMK SLP353=
CYQM;2005-04-16 14:00;METAR CYQM 161400Z 23014KT 15SM SKC 08/M07 A3056 RMK SLP354=
CYQM;2005-04-16 16:00;METAR CYQM 161600Z 22009KT 15SM FEW260 12/M07 A3051 RMK CI0 SLP335=
CYQM;2005-04-16 17:00;METAR CYQM 161700Z 23013KT 15SM FEW260 14/M07 A3049 RMK CI1 SLP328=
CYQM;2005-04-16 18:00;METAR CYQM 161800Z 24010KT 15SM SKC 14/M06 A3046 RMK SLP317=
CYQM;2005-04-16 22:00;METAR CYQM 162200Z 15008KT 15SM FEW260 13/M01 A3034 RMK CI1 SLP279=
CYQM;2005-04-17 01:00;METAR CYQM 170100Z 18007KT 15SM SKC 05/M04 A3034 RMK SLP277=
CYQM;2005-04-17 04:00;METAR CYQM 170400Z 20008KT 15SM SKC 01/M02 A3029 RMK SLP260=
CYQM;2005-04-17 05:00;METAR CYQM 170500Z 18008KT 15SM SKC 00/M02 A3028 RMK SLP257=
CYQM;2005-04-17 06:00;METAR CYQM 170600Z 19008KT 15SM SKC M00/M02 A3026 RMK SLP251=
CYQM;2005-04-17 07:00;METAR CYQM 170700Z 20008KT 15SM SKC M01/M03 A3025 RMK SLP245=
CYQM;2005-04-17 09:00;METAR CYQM 170900Z 20008KT 15SM BKN260 M01/M03 A3021 RMK CI2 FROIN SLP232=
CYQM;2005-04-17 12:00;METAR CYQM 171200Z 23008KT 15SM BKN260 03/M00 A3015 RMK CI2 SLP212=
CYQM;2005-04-17 13:00;METAR CYQM 171300Z 23013KT 15SM BKN260 07/M01 A3012 RMK CI2 SLP202=
CYQM;2005-04-17 14:00;METAR CYQM 171400Z 23009KT 15SM BKN260 10/M01 A3008 RMK CI2 SLP191=
CYQM;2005-04-17 15:00;METAR CYQM 171500Z 25007KT 15SM BKN260 14/M01 A3005 RMK CI2 SLP177=
CYQM;2005-04-17 16:00;METAR CYQM 171600Z 24007KT 15SM BKN260 15/M01 A3002 RMK CI2 SLP167=
CYQM;2005-04-17 17:00;METAR CYQM 171700Z 25009G18KT 15SM BKN260 18/01 A2997 RMK CI2 SLP153=
CYQM;2005-04-17 18:00;METAR CYQM 171800Z 25014KT 15SM BKN260 19/M02 A2994 RMK CI2 SLP140=
CYQM;2005-04-17 19:00;METAR CYQM 171900Z 22010KT 15SM SCT260 19/M01 A2990 RMK CI1 SLP129=
CYQM;2005-04-17 21:00;METAR CYQM 172100Z 30006KT 15SM SCT260 19/M03 A2984 RMK CI2 SLP107=
CYQM;2005-04-17 22:00;METAR CYQM 172200Z 13010KT 15SM SCT260 14/01 A2983 RMK CI2 SLP102=
CYQM;2005-04-17 23:00;METAR CYQM 172300Z 14008KT 15SM FEW120 SCT260 10/00 A2981 RMK AC1CI2 SLP098=
CYQM;2005-04-18 00:00;METAR CYQM 180000Z 20005KT 15SM FEW120 FEW260 07/00 A2983 RMK AC1CI1 SLP103=
CYQM;2005-04-18 03:00;METAR CYQM 180300Z 25010KT 15SM SCT120 05/01 A2979 RMK AC3 SLP091=
CYQM;2005-04-18 04:00;METAR CYQM 180400Z 23009KT 15SM FEW120 BKN260 07/02 A2978 RMK AC2CI2 SLP088=
CYQM;2005-04-18 06:00;METAR CYQM 180600Z 29009G15KT 15SM BKN120 11/M01 A2977 RMK AC6 SLP082=
CYQM;2005-04-18 07:00;METAR CYQM 180700Z 32011KT 15SM SCT120 10/M02 A2977 RMK AC3 SLP081=
CYQM;2005-04-18 10:00;METAR CYQM 181000Z 32008G15KT 15SM FEW250 06/M03 A2982 RMK CI1 SLP101=
CYQM;2005-04-18 12:00;METAR CYQM 181200Z 33018KT 15SM FEW250 06/M04 A2986 RMK CI1 SLP114=
CYQM;2005-04-18 13:00;METAR CYQM 181300Z 35015G21KT 15SM FEW250 07/M05 A2986 RMK CI1 SLP114=
CYQM;2005-04-18 14:00;METAR CYQM 181400Z 32014G24KT 15SM FEW250 09/M02 A2986 RMK CI1 SLP113=
CYQM;2005-04-18 15:00;METAR CYQM 181500Z 32015G21KT 15SM FEW250 11/M02 A2984 RMK CI1 SLP109=
CYQM;2005-04-18 16:00;METAR CYQM 181600Z 30017KT 15SM SCT250 11/M02 A2981 RMK CI1 SLP099=
CYQM;2005-04-18 17:00;METAR CYQM 181700Z 29013G25KT 15SM SCT250 13/M01 A2978 RMK CI1 SLP089=
CYQM;2005-04-18 21:00;METAR CYQM 182100Z 02020G28KT 15SM FEW030 FEW260 08/M05 A2981 RMK CU1CI0 SLP095=
CYQM;2005-04-18 22:00;METAR CYQM 182200Z 01016KT 15SM FEW025 FEW260 06/M05 A2984 RMK CU1CI0 SLP108=
CYQM;2005-04-19 00:00;METAR CYQM 190000Z 01004KT 15SM FEW260 02/M05 A2989 RMK CI0 SLP125=
CYQM;2005-04-19 02:00;METAR CYQM 190200Z 25003KT 15SM SKC M00/M06 A2991 RMK SLP131=
CYQM;2005-04-19 04:00;METAR CYQM 190400Z 29006KT 15SM SKC M00/M06 A2992 RMK SLP134=
CYQM;2005-04-19 06:00;METAR CYQM 190600Z 29006KT 15SM FEW250 M01/M08 A2992 RMK CI0 SLP135=
CYQM;2005-04-19 07:00;METAR CYQM 190700Z 24008KT 15SM FEW220 M02/M07 A2992 RMK CI1 SLP134=
CYQM;2005-04-19 08:00;METAR CYQM 190800Z 28006KT 15SM FEW250 M02/M08 A2992 RMK CI0 SLP134=
CYQM;2005-04-19 09:00;METAR CYQM 190900Z 24005KT 15SM FEW250 M01/M08 A2993 RMK CI2 SLP139=
CYQM;2005-04-19 10:00;METAR CYQM 191000Z 25004KT 15SM BKN250 M00/M08 A2994 RMK CI2 SLP141=
CYQM;2005-04-19 11:00;METAR CYQM 191100Z 29008KT 15SM SCT250 01/M09 A2995 RMK CI2 SLP147=
CYQM;2005-04-19 12:00;METAR CYQM 191200Z 30011KT 15SM SCT250 03/M07 A2995 RMK CI2 SLP146=
CYQM;2005-04-19 15:00;METAR CYQM 191500Z 29010G16KT 15SM FEW250 08/M09 A2994 RMK CI1 SLP143=
CYQM;2005-04-19 16:00;METAR CYQM 191600Z 27013KT 15SM SCT250 10/M06 A2992 RMK CI1 SLP136=
CYQM;2005-04-19 17:00;METAR CYQM 191700Z 28011G16KT 15SM SCT250 11/M05 A2989 RMK CI1 SLP127=
CYQM;2005-04-19 18:00;METAR CYQM 191800Z 30012G17KT 15SM SCT250 13/M07 A2988 RMK CI1 SLP121=
CYQM;2005-04-19 19:00;METAR CYQM 191900Z 29007G17KT 15SM BKN250 13/M07 A2985 RMK CI2 SLP110=
CYQM;2005-04-19 22:00;METAR CYQM 192200Z 16005KT 15SM BKN140 BKN250 13/M01 A2979 RMK AC3CI1 SLP091=
CYQM;2005-04-20 00:00;METAR CYQM 200000Z 18006KT 15SM BKN110 BKN250 10/M01 A2978 RMK AC6CI1 SLP087=
CYQM;2005-04-20 01:00;METAR CYQM 200100Z 18006KT 15SM BKN140 BKN250 10/M02 A2977 RMK AC7CI1 SLP084=
CYQM;2005-04-20 04:00;METAR CYQM 200400Z 19005KT 15SM BKN060 10/M04 A2970 RMK SC7 SLP059=
CYQM;2005-04-20 05:00;METAR CYQM 200500Z 15007KT 15SM BKN060 09/M02 A2966 RMK SC7 SLP046=
CYQM;2005-04-20 09:00;METAR CYQM 200900Z 21006KT 15SM BKN140 OVC260 09/M00 A2958 RMK AC5CI3 SLP018=
CYQM;2005-04-20 10:00;METAR CYQM 201000Z 23009KT 15SM FEW090 FEW140 BKN260 10/02 A2958 RMK AC1AC2CI4 SLP018=
CYQM;2005-04-20 12:00;METAR CYQM 201200Z 23010KT 15SM SCT080 BKN140 OVC260 11/02 A2959 RMK AC3AC2CI2 SLP023=
CYQM;2005-04-20 12:45;SPECI CYQM 201245Z 23008KT 15SM -SHRA BKN080 BKN140 OVC260 RMK AC5AC2CI1=
CYQM;2005-04-20 13:00;METAR CYQM 201300Z 23007KT 15SM -SHRA BKN080 BKN140 OVC260 11/02 A2960 RMK AC5AC2CI1 SLP025=
CYQM;2005-04-20 13:48;SPECI CYQM 201348Z 26009KT 15SM SCT040 OVC100 RMK SC3AC5=
CYQM;2005-04-20 14:00;METAR CYQM 201400Z 26010KT 15SM BKN040 OVC100 12/04 A2962 RMK SC5AC3 SLP031=
CYQM;2005-04-20 15:00;METAR CYQM 201500Z 28009KT 15SM BKN040 BKN100 OVC260 13/04 A2963 RMK SC5AC2CI1 SLP036=
CYQM;2005-04-20 16:00;METAR CYQM 201600Z 31010KT 15SM FEW030 SCT040 SCT100 BKN260 15/06 A2962 RMK CU1SC2AC1CI3 TR AC SLP031=
CYQM;2005-04-20 17:00;METAR CYQM 201700Z 28013G18KT 15SM BKN035 BKN260 15/06 A2962 RMK CU6CI1 SLP033=
CYQM;2005-04-20 19:00;METAR CYQM 201900Z 29017KT 15SM FEW040 BKN260 16/05 A2962 RMK CU2CI4 SLP033=
CYQM;2005-04-20 21:00;METAR CYQM 202100Z 02016KT 15SM FEW040 FEW120 BKN140 BKN260 16/01 A2964 RMK CU1AC2AS3CI1 SLP039=
CYQM;2005-04-20 22:00;METAR CYQM 202200Z 03013KT 15SM FEW040 FEW100 BKN130 OVC260 10/00 A2967 RMK CU1AC1AS5CI1 SLP048=
CYQM;2005-04-21 00:00;METAR CYQM 210000Z 03005KT 15SM FEW100 BKN130 OVC260 08/M01 A2970 RMK AC1AS6CI1 SLP061=
CYQM;2005-04-21 01:00;METAR CYQM 210100Z 02003KT 15SM OVC120 07/M01 A2973 RMK AS7 SLP071=
CYQM;2005-04-21 03:37;SPECI CYQM 210337Z 04006KT 15SM -SHSN FEW013 OVC030 RMK SF2SC6=
CYQM;2005-04-21 04:00;METAR CYQM 210400Z 04007KT 12SM -SHSN FEW012 OVC024 05/M07 A2975 RMK SF2SC6 SLP077=
CYQM;2005-04-21 06:00;METAR CYQM 210600Z 02008KT 15SM -SHSN BKN020 OVC030 04/M05 A2972 RMK SC6SC2 SLP065=
CYQM;2005-04-21 06:47;SPECI CYQM 210647Z 33010G15KT 1 1/2SM -SHSN VV014 RMK SN8=
CYQM;2005-04-21 07:00;METAR CYQM 210700Z 35006KT 1 1/2SM -SHSN VV016 00/M01 A2972 RMK SN8 SLP066=
CYQM;2005-04-21 07:39;SPECI CYQM 210739Z 13004KT 3SM -SN OVC040 RMK SN2SC6=
CYQM;2005-04-21 08:00;METAR CYQM 210800Z 15005KT 15SM -SN FEW002 OVC045 00/00 A2970 RMK SF1SC7 SLP060=
CYQM;2005-04-21 08:09;SPECI CYQM 210809Z 16003KT 15SM FEW001 OVC048 RMK SF2SC6=
CYQM;2005-04-21 10:00;METAR CYQM 211000Z 27006KT 15SM FEW006 SCT020 BKN040 BKN100 00/M00 A2971 RMK SF1SC3SC2AC1 SLP063=
CYQM;2005-04-21 11:00;METAR CYQM 211100Z 28003KT 15SM FEW006 FEW020 BKN040 BKN100 01/M01 A2971 RMK SF1SC2SC3AC2 SLP064=
CYQM;2005-04-21 12:00;METAR CYQM 211200Z 34010G15KT 15SM FEW006 FEW020 BKN040 BKN120 02/M02 A2970 RMK SF1SC2SC2AC1 SLP060=
CYQM;2005-04-21 13:00;METAR CYQM 211300Z 34012KT 15SM BKN015 02/M00 A2971 RMK SC6 SLP063=
CYQM;2005-04-21 14:00;METAR CYQM 211400Z 01012KT 15SM BKN030 03/M05 A2973 RMK SC6 CU ASOCTD SLP070=
CYQM;2005-04-21 15:00;METAR CYQM 211500Z 32006G20KT 15SM BKN030 BKN040 04/M06 A2973 RMK CU5SC1 SLP070=
CYQM;2005-04-21 16:00;METAR CYQM 211600Z 30011G16KT 15SM SCT040 05/M07 A2972 RMK CU4 SLP066=
CYQM;2005-04-21 17:00;METAR CYQM 211700Z 04010G15KT 15SM FEW040 07/M04 A2972 RMK CU2 SLP067=
CYQM;2005-04-21 18:00;METAR CYQM 211800Z 05007KT 15SM FEW040 05/M06 A2971 RMK CU2 SLP065=
CYQM;2005-04-21 20:00;METAR CYQM 212000Z 06008KT 15SM FEW040 SCT050 06/M04 A2971 RMK CU2SC1 SLP064=
CYQM;2005-04-21 21:00;METAR CYQM 212100Z 02008KT 15SM FEW035 SCT050 06/M06 A2972 RMK CU1SC3 SLP068=
CYQM;2005-04-21 22:00;METAR CYQM 212200Z 04006KT 15SM FEW035 SCT045 04/M06 A2974 RMK CU1SC3 SLP074=
CYQM;2005-04-22 00:00;METAR CYQM 220000Z 00000KT 15SM FEW050 03/M06 A2979 RMK SC1 SLP091=
CYQM;2005-04-22 02:00;METAR CYQM 220200Z 28010KT 15SM FEW070 01/M07 A2982 RMK AC1 SLP102=
CYQM;2005-04-22 03:00;METAR CYQM 220300Z 25008KT 15SM SKC M00/M08 A2983 RMK SLP106=
CYQM;2005-04-22 04:00;METAR CYQM 220400Z 26009KT 15SM SKC M01/M07 A2984 RMK SLP108=
CYQM;2005-04-22 05:00;METAR CYQM 220500Z 23007KT 15SM SKC M02/M07 A2984 RMK SLP107=
CYQM;2005-04-22 06:00;METAR CYQM 220600Z 25009KT 15SM SKC M02/M08 A2983 RMK SLP106=
CYQM;2005-04-22 09:00;METAR CYQM 220900Z 26010KT 15SM FEW260 M02/M09 A2986 RMK CI0 SLP114=
CYQM;2005-04-22 10:00;METAR CYQM 221000Z 23010KT 15SM FEW120 FEW250 M02/M08 A2988 RMK AC1CI0 SLP123=
CYQM;2005-04-22 12:00;METAR CYQM 221200Z 26019G26KT 15SM SCT260 02/M06 A2990 RMK CI1 SLP128=
CYQM;2005-04-22 13:00;METAR CYQM 221300Z 26013G18KT 15SM SCT260 04/M08 A2989 RMK CI1 SLP126=
CYQM;2005-04-22 14:00;METAR CYQM 221400Z 23014KT 15SM FEW250 06/M08 A2989 RMK CI1 SLP125=
CYQM;2005-04-22 16:00;METAR CYQM 221600Z 23023G28KT 15SM FEW270 08/M10 A2986 RMK CI1 SLP115=
CYQM;2005-04-22 17:00;METAR CYQM 221700Z 24018G25KT 15SM FEW270 09/M08 A2986 RMK CI1 SLP114=
CYQM;2005-04-22 18:00;METAR CYQM 221800Z 24017G28KT 15SM FEW270 10/M06 A2984 RMK CI1 SLP109=
CYQM;2005-04-22 19:00;METAR CYQM 221900Z 23023G29KT 15SM FEW270 11/M05 A2984 RMK CI0 SLP109=
CYQM;2005-04-22 21:00;METAR CYQM 222100Z 25020G29KT 15SM SKC 11/M03 A2984 RMK SLP108=
CYQM;2005-04-22 22:00;METAR CYQM 222200Z 24020G26KT 15SM FEW270 11/M03 A2984 RMK CI1 SLP109=
CYQM;2005-04-22 23:00;METAR CYQM 222300Z 22012G19KT 15SM SCT270 10/M02 A2986 RMK CI2 SLP115=
CYQM;2005-04-23 00:00;METAR CYQM 230000Z 20007KT 15SM BKN270 08/M02 A2989 RMK CI2 SLP124=
CYQM;2005-04-23 01:00;METAR CYQM 230100Z 21008KT 15SM BKN270 06/M02 A2992 RMK CI2 SLP133=
CYQM;2005-04-23 05:00;METAR CYQM 230500Z 22007KT 15SM BKN250 03/M03 A2996 RMK CI3 SLP148=
CYQM;2005-04-23 06:00;METAR CYQM 230600Z 22006KT 15SM BKN250 01/M04 A2996 RMK CI3 SLP148=
CYQM;2005-04-23 07:00;METAR CYQM 230700Z 22006KT 15SM BKN250 01/M04 A2997 RMK CI3 SLP150=
CYQM;2005-04-23 08:00;METAR CYQM 230800Z 21007KT 15SM FEW150 BKN250 00/M03 A2997 RMK AS2CI2 SLP153=
CYQM;2005-04-23 09:00;METAR CYQM 230900Z 20004KT 15SM FEW100 SCT150 BKN250 00/M01 A2998 RMK AC1AS2CI2 SLP154=
CYQM;2005-04-23 10:00;METAR CYQM 231000Z 18003KT 15SM FEW100 BKN160 BKN240 01/M01 A2999 RMK AC1AC4CI2 SLP158=
CYQM;2005-04-23 12:00;METAR CYQM 231200Z 19004KT 15SM BKN140 BKN170 BKN250 04/M01 A3000 RMK AC7AC1CI1 SLP163=
CYQM;2005-04-23 13:00;METAR CYQM 231300Z 20002KT 15SM BKN100 OVC240 05/M00 A3001 RMK AC7CI1 SLP166=
CYQM;2005-04-23 14:00;METAR CYQM 231400Z 00000KT 15SM SCT060 BKN120 OVC250 07/M00 A3004 RMK SC3AS4CS1 SLP174=
CYQM;2005-04-23 15:00;METAR CYQM 231500Z 16003KT 15SM FEW055 BKN100 OVC230 08/M02 A3005 RMK SC1AS6CS1 SLP179=
CYQM;2005-04-23 16:00;METAR CYQM 231600Z 23003KT 15SM BKN055 OVC120 10/M03 A3003 RMK SC6AS2 SLP174=
CYQM;2005-04-23 22:00;METAR CYQM 232200Z 11006KT 15SM BKN040 OVC120 07/00 A3002 RMK SC6AS2 SLP170=
CYQM;2005-04-23 22:15;SPECI CYQM 232215Z 10005KT 10SM -SHRA BKN025 OVC070 RMK SC6AC2=
CYQM;2005-04-23 23:00;METAR CYQM 232300Z 09006KT 12SM -SHRA BKN030 OVC070 06/01 A3001 RMK SC6AC2 SLP166=
CYQM;2005-04-23 23:37;SPECI CYQM 232337Z 08007KT 12SM BKN030 OVC070 RMK SC6AC2=
CYQM;2005-04-24 00:29;SPECI CYQM 240029Z 08007KT 12SM BKN015 OVC040 RMK SC6SC2=
CYQM;2005-04-24 02:46;SPECI CYQM 240246Z 08007KT 15SM OVC008 RMK SF8=
CYQM;2005-04-24 04:00;METAR CYQM 240400Z 08003KT 15SM OVC007 06/04 A2998 RMK SF8 SLP156=
CYQM;2005-04-24 05:43;SPECI CYQM 240543Z 07003KT 15SM -SHRA OVC007 RMK SF8=
CYQM;2005-04-24 06:00;METAR CYQM 240600Z 06004KT 12SM -SHRA OVC007 06/05 A2995 RMK SF8 SLP145=
CYQM;2005-04-24 06:47;SPECI CYQM 240647Z 09008KT 12SM -SHRA FEW006 OVC014 RMK SF2SC6=
CYQM;2005-04-24 07:00;METAR CYQM 240700Z 08008KT 12SM -SHRA SCT006 BKN014 OVC040 06/05 A2995 RMK SF3SC3SC2 SLP143=
CYQM;2005-04-24 07:54;SPECI CYQM 240754Z 07009KT 4SM SHRA BR OVC006 RMK SF8=
CYQM;2005-04-24 08:06;SPECI CYQM 240806Z 09005KT 10SM -SHRA BKN003 OVC006 RERA RMK SF6SF2=
CYQM;2005-04-24 08:22;SPECI CYQM 240822Z 08005KT 10SM BKN003 OVC006 RERA RMK SF5SF3=
CYQM;2005-04-24 08:32;SPECI CYQM 240832Z 09006KT 10SM -DZ BKN003 OVC006 RERA RMK SF5SF3=
CYQM;2005-04-24 08:46;SPECI CYQM 240846Z 09005KT 8SM -SHRA BKN003 OVC006 RERA RMK SF6SF2 VIS N 3=
CYQM;2005-04-24 09:15;SPECI CYQM 240915Z 10008KT 6SM SHRA BR BKN005 OVC017 RMK SF7SC1=
CYQM;2005-04-24 09:44;SPECI CYQM 240944Z 10009KT 5SM -SHRA BR BKN008 BKN020 OVC045 RERA RMK SF6SC1SC2=
CYQM;2005-04-24 10:00;METAR CYQM 241000Z 11010KT 4SM -SHRA BR SCT003 BKN008 OVC030 08/08 A2994 RERA RMK SF3SC4SC1 SLP140=
CYQM;2005-04-24 10:15;SPECI CYQM 241015Z 10008KT 6SM BR BKN003 OVC025 RMK SF7SC1=
CYQM;2005-04-24 10:30;SPECI CYQM 241030Z 10007KT 3SM -SHRA BR BKN003 OVC025 RMK SF7SC1=
CYQM;2005-04-24 11:00;METAR CYQM 241100Z 09006KT 5SM -SHRA BR BKN004 BKN030 09/08 A2993 RMK SF6SC1 SLP139=
CYQM;2005-04-24 11:23;SPECI CYQM 241123Z 10008KT 6SM BR BKN003 OVC030 RMK SF7SC1=
CYQM;2005-04-24 12:00;METAR CYQM 241200Z 11008KT 8SM FEW003 BKN008 BKN040 09/08 A2993 RMK SF2SC6SC1 SLP137=
CYQM;2005-04-24 12:43;SPECI CYQM 241243Z 10005KT 10SM BKN005 BKN040 RMK SF6SC1=
CYQM;2005-04-24 13:20;SPECI CYQM 241320Z 15011G16KT 15SM BKN006 BKN030 RMK SF5SC2=
CYQM;2005-04-24 14:00;METAR CYQM 241400Z 14013G18KT 15SM BKN011 BKN035 12/10 A2992 RMK CF5SC2 SLP135=
CYQM;2005-04-24 15:00;METAR CYQM 241500Z 13012G20KT 15SM FEW011 SCT035 BKN080 15/09 A2991 RMK CF1SC2AC2 SLP129=
CYQM;2005-04-24 17:00;METAR CYQM 241700Z 13011KT 15SM SCT035 BKN080 17/11 A2989 RMK SC4AC2 SLP123=
CYQM;2005-04-24 18:00;METAR CYQM 241800Z 12020KT 15SM BKN030 BKN080 17/11 A2988 RMK SC7AC1 SLP121=
CYQM;2005-04-24 19:00;METAR CYQM 241900Z 14016G22KT 15SM OVC030 16/12 A2987 RMK SC8 SLP116=
CYQM;2005-04-24 19:03;SPECI CYQM 241903Z 13013G22KT 15SM -SHRA OVC030 RMK SC8=
CYQM;2005-04-24 19:21;SPECI CYQM 241921Z 13010G17KT 15SM OVC030 RMK SC8=
CYQM;2005-04-24 20:00;METAR CYQM 242000Z 12012KT 15SM OVC035 15/13 A2986 RMK SC8 SLP114=
CYQM;2005-04-24 21:00;METAR CYQM 242100Z 13010KT 15SM OVC020 15/12 A2986 RMK SC8 SLP114=
CYQM;2005-04-24 22:00;METAR CYQM 242200Z 13010G15KT 12SM SCT025 BKN050 15/12 A2986 RMK CU4SC3 SLP112=
CYQM;2005-04-24 23:56;SPECI CYQM 242356Z 14013G18KT 12SM BKN011 OVC025 RMK SC6SC2=
CYQM;2005-04-25 00:00;METAR CYQM 250000Z 13009G16KT 12SM BKN011 OVC025 13/11 A2987 RMK SC6SC2 SLP116=
CYQM;2005-04-25 01:00;METAR CYQM 250100Z 11008KT 12SM OVC011 13/11 A2986 RMK SC8 SLP113=
CYQM;2005-04-25 01:15;SPECI CYQM 250115Z 10010KT 12SM OVC009 RMK SF8=
CYQM;2005-04-25 02:32;SPECI CYQM 250232Z 07010KT 2 1/2SM -SHRA BR OVC006 RMK SF8=
CYQM;2005-04-25 02:49;SPECI CYQM 250249Z 08013KT 4SM -SHRA BR OVC006 RMK SF8=
CYQM;2005-04-25 03:00;METAR CYQM 250300Z 08013G18KT 3SM -SHRA BR OVC006 11/10 A2981 RMK SF8 SLP097=
CYQM;2005-04-25 03:25;SPECI CYQM 250325Z 09012KT 10SM OVC006 RMK SF8 CIG RAG=
CYQM;2005-04-25 03:51;SPECI CYQM 250351Z 09015G20KT 10SM -SHRA BKN006 OVC035 RMK SF6SC2 CIG RAG=
CYQM;2005-04-25 04:37;SPECI CYQM 250437Z 08013KT 10SM BKN006 OVC040 RMK SF6SC2=
CYQM;2005-04-25 05:00;METAR CYQM 250500Z 08014KT 10SM OVC005 10/09 A2978 RMK SF8 SLP086=
CYQM;2005-04-25 05:49;SPECI CYQM 250549Z 09013G18KT 10SM BKN003 OVC006 RMK SF6SF2=
CYQM;2005-04-25 06:13;SPECI CYQM 250613Z 08011G16KT 4SM -SHRA BR BKN003 OVC006 RMK SF6SF2=
CYQM;2005-04-25 07:00;METAR CYQM 250700Z 08016KT 10SM -SHRA BKN003 OVC006 09/08 A2972 RMK SF6SF2 SLP064=
CYQM;2005-04-25 07:20;SPECI CYQM 250720Z 09016KT 12SM BKN003 OVC006 RMK SF6SF2=
CYQM;2005-04-25 07:36;SPECI CYQM 250736Z 09018KT 12SM -SHRA BKN003 OVC006 RMK SF6SF2=
CYQM;2005-04-25 09:18;SPECI CYQM 250918Z 09017G25KT 2 1/2SM BR OVC001 RMK SF8 VIS N 1=
CYQM;2005-04-25 09:35;SPECI CYQM 250935Z 09015G21KT 1 1/4SM BR OVC001 RMK SF8=
CYQM;2005-04-25 09:43;SPECI CYQM 250943Z 08015G21KT 3/4SM R29/P6000FT/D R06/P6000FT/D BR OVC001 RMK SF8=
CYQM;2005-04-25 09:47;SPECI CYQM 250947Z 09013G18KT 1SM R29/P6000FT/D R06/P6000FT/D -SHRA BR OVC001 RMK SF8=
CYQM;2005-04-25 10:00;METAR CYQM 251000Z 09015KT 1 1/4SM BR OVC001 07/07 A2965 RMK SF8 OCNL RW- SLP042=
CYQM;2005-04-25 10:09;SPECI CYQM 251009Z 08013KT 1SM R29/P6000FT/U R06/P6000FT/N BR OVC001 RMK SF8=
CYQM;2005-04-25 10:21;SPECI CYQM 251021Z 08012KT 5SM BR SCT001 OVC002 RMK SF3SF5=
CYQM;2005-04-25 11:00;METAR CYQM 251100Z 09018KT 8SM -SHRA FEW001 OVC002 08/07 A2963 RMK SF2SF6 SLP035=
CYQM;2005-04-25 12:00;METAR CYQM 251200Z 09014KT 8SM -SHRA OVC002 09/09 A2960 RERA RMK SF8 SLP024=
CYQM;2005-04-25 13:32;SPECI CYQM 251332Z 09018G25KT 2SM -SHRA BR OVC002 RMK SF8=
CYQM;2005-04-25 13:43;SPECI CYQM 251343Z 09018G24KT 5SM -SHRA BR OVC002 RMK SF8=
CYQM;2005-04-25 14:00;METAR CYQM 251400Z 09015G25KT 5SM -SHRA BR BKN002 OVC004 10/10 A2955 RMK SF7SF1 SLP009=
CYQM;2005-04-25 14:16;SPECI CYQM 251416Z 09015KT 2SM -SHRA BR BKN002 OVC004 RMK SF6SF2=
CYQM;2005-04-25 14:24;SPECI CYQM 251424Z 09016KT 4SM -SHRA BR BKN002 OVC004 RMK SF6SF2=
CYQM;2005-04-25 14:32;SPECI CYQM 251432Z 09013G18KT 7SM -SHRA SCT002 BKN004 OVC012 RMK SF3SF3SC2=
CYQM;2005-04-25 15:00;METAR CYQM 251500Z 11010G15KT 4SM +SHRA BR FEW002 BKN004 OVC010 11/11 A2955 RMK SF2SF6SC1 SLP009=
CYQM;2005-04-25 15:08;SPECI CYQM 251508Z 10010KT 1 1/4SM R29/3500VP6000FT/D R06/4500VP6000FT/D +SHRA BR FEW002 OVC004 RMK SF2SF6=
CYQM;2005-04-25 15:18;SPECI CYQM 251518Z 12010KT 2SM +SHRA BR FEW002 SCT004 OVC008 RMK SF1SF2SF5=
CYQM;2005-04-25 15:43;SPECI CYQM 251543Z 08009KT 3SM +SHRA BR BKN004 OVC007 RMK SF5SF3=
CYQM;2005-04-25 16:00;METAR CYQM 251600Z 10008KT 3SM +SHRA BR BKN004 OVC007 11/11 A2956 RMK SF6SF2 /R13/ SLP012=
CYQM;2005-04-25 16:37;SPECI CYQM 251637Z 14013G21KT 6SM SHRA BR FEW002 BKN006 OVC012 RERA RMK SF2SF6SC1=
CYQM;2005-04-25 17:00;METAR CYQM 251700Z 12011KT 12SM -SHRA FEW002 BKN005 OVC060 13/13 A2953 RERA RMK SF1SF5SC2 SLP003=
CYQM;2005-04-25 17:17;SPECI CYQM 251717Z 11011KT 15SM BKN005 OVC050 RMK SF7SC1=
CYQM;2005-04-25 17:26;SPECI CYQM 251726Z 12015KT 15SM BKN003 OVC005 RMK SF6SF2=
CYQM;2005-04-25 17:38;SPECI CYQM 251738Z 13012G17KT 10SM -SHRA BKN003 OVC005 RMK SF7SF1=
CYQM;2005-04-25 18:00;METAR CYQM 251800Z 12014G20KT 12SM -SHRA BKN003 BKN005 OVC050 13/13 A2955 RMK SF6SF1SC1 SLP007=
CYQM;2005-04-25 18:41;SPECI CYQM 251841Z 14011G20KT 15SM FEW003 OVC005 RMK SF2SF6=
CYQM;2005-04-25 19:27;SPECI CYQM 251927Z 18013KT 12SM -SHRA SCT005 BKN009 OVC012 RMK SF3SF4SC1=
CYQM;2005-04-25 19:46;SPECI CYQM 251946Z 21015KT 15SM -SHRA FEW006 SCT012 OVC025 RMK SF1SF2SC5=
CYQM;2005-04-25 20:00;METAR CYQM 252000Z 21017KT 15SM FEW006 SCT012 OVC025 09/07 A2959 RMK SF2SF2SC5 OCNL RW- SLP020=
CYQM;2005-04-25 20:43;SPECI CYQM 252043Z 18009KT 15SM FEW006 SCT012 BKN025 RMK SF1SC2SC4=
CYQM;2005-04-25 21:00;METAR CYQM 252100Z 19012KT 15SM FEW006 SCT012 BKN025 09/06 A2960 RMK SF1SC2SC4 SLP025=
CYQM;2005-04-25 23:00;METAR CYQM 252300Z 22012G17KT 15SM FEW016 SCT030 BKN120 BKN260 08/04 A2965 RMK CU1SC3AC2CI2 SLP042=
CYQM;2005-04-26 00:00;METAR CYQM 260000Z 20005KT 15SM FEW016 FEW030 BKN120 BKN260 07/03 A2967 RMK CU1SC2AC2CI1 SLP051=
CYQM;2005-04-26 02:00;METAR CYQM 260200Z 20004KT 15SM BKN260 05/03 A2973 RMK CI4 SLP069=
CYQM;2005-04-26 03:00;METAR CYQM 260300Z 23010KT 15SM FEW100 BKN260 05/02 A2974 RMK AC1CI6 SLP072=
CYQM;2005-04-26 04:00;METAR CYQM 260400Z 23007KT 15SM FEW100 BKN260 05/02 A2975 RMK AC1CI5 SLP077=
CYQM;2005-04-26 06:00;METAR CYQM 260600Z 19005KT 15SM FEW030 BKN260 03/01 A2978 RMK SC2CI3 SLP088=
CYQM;2005-04-26 09:00;METAR CYQM 260900Z 14002KT 15SM BKN020 OVC260 02/01 A2983 RMK SC6CI1 SLP103=
CYQM;2005-04-26 10:00;METAR CYQM 261000Z 18003KT 15SM BKN015 OVC260 03/02 A2985 RMK SC6CI1 SLP110=
CYQM;2005-04-26 12:00;METAR CYQM 261200Z 22007KT 15SM BKN015 05/03 A2991 RMK SC7 SLP132=
CYQM;2005-04-26 13:00;METAR CYQM 261300Z 22008KT 15SM BKN015 BKN260 06/03 A2994 RMK SC5CI1 SLP140=
CYQM;2005-04-26 14:00;METAR CYQM 261400Z 24010KT 15SM FEW018 SCT260 09/05 A2995 RMK CU2CI1 SLP143=
CYQM;2005-04-26 15:00;METAR CYQM 261500Z 22010G15KT 15SM FEW022 FEW260 11/04 A2996 RMK CU2CI1 SLP147=
CYQM;2005-04-26 16:00;METAR CYQM 261600Z 23010G19KT 15SM BKN030 BKN260 12/02 A2997 RMK CU5CI1 SLP150=
CYQM;2005-04-26 17:00;METAR CYQM 261700Z 25010G19KT 15SM BKN035 BKN260 13/02 A2997 RMK CU6CI1 SLP153=
CYQM;2005-04-26 18:00;METAR CYQM 261800Z 23010G15KT 15SM BKN035 BKN260 14/02 A2998 RMK CU6CI1 SLP156=
CYQM;2005-04-26 19:00;METAR CYQM 261900Z 28010G15KT 15SM BKN040 BKN260 14/01 A3000 RMK CU5CI1 SLP161=
CYQM;2005-04-26 20:00;METAR CYQM 262000Z 35002KT 15SM BKN040 13/01 A3002 RMK SC7 CU ASOCTD SLP169=
CYQM;2005-04-26 21:00;METAR CYQM 262100Z 05007KT 15SM FEW025 BKN040 10/04 A3005 RMK CU1SC6 SLP179=
CYQM;2005-04-26 22:00;METAR CYQM 262200Z 03006KT 15SM FEW025 BKN040 10/04 A3007 RMK CU1SC7 SLP186=
CYQM;2005-04-27 00:00;METAR CYQM 270000Z 05004KT 15SM BKN060 08/04 A3011 RMK SC5 SLP198=
CYQM;2005-04-27 01:00;METAR CYQM 270100Z 10005KT 15SM BKN075 08/03 A3014 RMK AC5 SLP209=
CYQM;2005-04-27 04:00;METAR CYQM 270400Z 01003KT 15SM BKN075 06/04 A3019 RMK AC6 SLP224=
CYQM;2005-04-27 06:00;METAR CYQM 270600Z 09005KT 15SM SKC 05/03 A3020 RMK SLP228=
CYQM;2005-04-27 07:00;METAR CYQM 270700Z 02002KT 15SM SKC 03/02 A3021 RMK SLP231=
CYQM;2005-04-27 08:00;METAR CYQM 270800Z 08004KT 12SM SKC 03/02 A3022 RMK SLP235=
CYQM;2005-04-27 08:48;SPECI CYQM 270848Z 08003KT 3SM BR SKC RMK VIS W 1/2=
CYQM;2005-04-27 10:00;METAR CYQM 271000Z 04004KT 12SM SKC 04/03 A3024 RMK SLP242=
CYQM;2005-04-27 11:00;METAR CYQM 271100Z 09007KT 15SM SKC 07/04 A3025 RMK SLP248=
CYQM;2005-04-27 12:00;METAR CYQM 271200Z 05006KT 15SM SKC 08/03 A3025 RMK SLP248=
CYQM;2005-04-27 13:00;METAR CYQM 271300Z 08011KT 15SM FEW250 09/04 A3025 RMK CI1 SLP246=
CYQM;2005-04-27 14:00;METAR CYQM 271400Z 10006KT 15SM FEW030 FEW250 11/05 A3026 RMK CU1CI1 SLP250=
CYQM;2005-04-27 15:00;METAR CYQM 271500Z 02012KT 15SM FEW030 FEW250 11/06 A3025 RMK CU1CI1 SLP248=
CYQM;2005-04-27 16:00;METAR CYQM 271600Z 02012KT 15SM FEW035 FEW250 11/06 A3025 RMK CU1CI1 SLP246=
CYQM;2005-04-27 17:00;METAR CYQM 271700Z 03014KT 15SM FEW035 BKN250 12/07 A3025 RMK CU1CI2 SLP246=
CYQM;2005-04-27 18:00;METAR CYQM 271800Z 04015KT 15SM FEW035 BKN250 12/07 A3024 RMK CU1CI2 SLP243=
CYQM;2005-04-27 20:00;METAR CYQM 272000Z 04013G19KT 15SM FEW035 SCT250 11/07 A3022 RMK CU1CI2 SLP235=
CYQM;2005-04-27 22:00;METAR CYQM 272200Z 04010KT 15SM BKN080 BKN260 08/04 A3021 RMK AC6CI0 SLP234=
CYQM;2005-04-28 00:00;METAR CYQM 280000Z 03010KT 15SM FEW010 SCT075 BKN260 03/02 A3022 RMK CF1AC3CI1 SLP237=
CYQM;2005-04-28 01:00;METAR CYQM 280100Z 01009KT 12SM FEW008 BKN040 03/02 A3022 RMK CF1SC6 SLP238=
CYQM;2005-04-28 04:00;METAR CYQM 280400Z 04006KT 8SM FEW005 FEW045 BKN240 03/02 A3020 RMK CF1SC2CS2 SLP229=
CYQM;2005-04-28 06:00;METAR CYQM 280600Z 08006KT 15SM FEW015 OVC240 03/01 A3016 RMK SC1CS3 SLP215=
CYQM;2005-04-28 07:00;METAR CYQM 280700Z 09011KT 15SM FEW015 OVC220 03/01 A3014 RMK SC1CS4 SLP211=
CYQM;2005-04-28 07:53;SPECI CYQM 280753Z 09011KT 15SM BKN007 OVC220 RMK SC7CS1=
CYQM;2005-04-28 08:00;METAR CYQM 280800Z 09011KT 15SM BKN007 OVC220 02/01 A3014 RMK SC7CS1 SLP211=
CYQM;2005-04-28 09:00;METAR CYQM 280900Z 09012G17KT 15SM OVC007 03/01 A3014 RMK SC8 SLP209=
CYQM;2005-04-28 10:00;METAR CYQM 281000Z 10013KT 12SM OVC007 03/02 A3014 RMK SC8 SLP209=
CYQM;2005-04-28 12:00;METAR CYQM 281200Z 09013KT 12SM OVC007 04/03 A3011 RMK SF8 SLP201=
CYQM;2005-04-28 13:00;METAR CYQM 281300Z 09007KT 12SM OVC007 05/03 A3011 RMK SF8 SLP198=
CYQM;2005-04-28 14:00;METAR CYQM 281400Z 11012G25KT 15SM OVC008 05/02 A3009 RMK SF8 SLP193=
CYQM;2005-04-28 15:00;METAR CYQM 281500Z 10015G21KT 15SM OVC008 06/03 A3007 RMK SF8 SLP185=
CYQM;2005-04-28 16:00;METAR CYQM 281600Z 08016KT 15SM OVC008 07/03 A3005 RMK SF8 SLP179=
CYQM;2005-04-28 17:00;METAR CYQM 281700Z 08016G22KT 15SM OVC008 08/04 A3002 RMK SF8 SLP170=
CYQM;2005-04-28 18:26;SPECI CYQM 281826Z 08016G24KT 10SM -SHRA BKN008 BKN015 OVC040 RMK SF5SC2SC2=
CYQM;2005-04-28 19:35;SPECI CYQM 281935Z 09015G26KT 10SM -SHRA SCT008 OVC040 RMK SF4SC4=
CYQM;2005-04-28 20:00;METAR CYQM 282000Z 09014G24KT 8SM -SHRA BKN008 OVC040 06/04 A2994 RMK SF6SC2 SLP142=
CYQM;2005-04-28 21:15;SPECI CYQM 282115Z 08018KT 7SM -RA FEW010 BKN030 OVC100 RMK SF1SC6AC1=
CYQM;2005-04-28 21:36;SPECI CYQM 282136Z 07017G22KT 8SM -RA BKN010 BKN030 OVC100 RMK SC5SC2AC1=
CYQM;2005-04-28 22:00;METAR CYQM 282200Z 07015KT 8SM FEW008 BKN032 OVC100 05/03 A2992 RMK SF1SC7AC1 SLP133=
CYQM;2005-04-28 23:00;METAR CYQM 282300Z 08018KT 8SM BKN008 BKN035 OVC110 04/02 A2989 RMK SF5SC2AC1 SLP125=
CYQM;2005-04-29 00:00;METAR CYQM 290000Z 09020G26KT 10SM OVC022 04/02 A2988 RMK SC8 SLP122=
CYQM;2005-04-29 00:22;SPECI CYQM 290022Z 08015G21KT 8SM -SHRA SCT007 OVC019 RMK SF3SC5=
CYQM;2005-04-29 01:00;METAR CYQM 290100Z 08017KT 8SM -SHRA SCT006 OVC019 04/03 A2987 RMK SF3SC5 SLP119=
CYQM;2005-04-29 02:00;METAR CYQM 290200Z 08018G26KT 8SM -SHRA FEW005 SCT008 OVC016 03/03 A2985 RMK SF2SF2SC4 SLP112=
CYQM;2005-04-29 03:34;SPECI CYQM 290334Z 07016G27KT 7SM -SHRA OVC006 RMK SF8=
CYQM;2005-04-29 04:00;METAR CYQM 290400Z 08021G28KT 8SM -SHRA OVC006 03/02 A2978 RMK SF8 VIS N 3 SLP089=
CYQM;2005-04-29 05:00;METAR CYQM 290500Z 07019G26KT 8SM OVC005 03/03 A2973 RMK SF8 VIS N 21/2 SLP071=
CYQM;2005-04-29 05:32;SPECI CYQM 290532Z 07019G28KT 3SM -DZ BR OVC005 RMK SF8=
CYQM;2005-04-29 06:38;SPECI CYQM 290638Z 09022G29KT 5SM -DZ BR OVC006 RMK SF8=
CYQM;2005-04-29 07:00;METAR CYQM 290700Z 09017G27KT 3SM -DZ BR FEW004 OVC006 04/03 A2965 RMK SF2ST6 SLP042=
CYQM;2005-04-29 07:11;SPECI CYQM 290711Z 09016G21KT 3SM -RADZ BR OVC006 RMK ST8=
CYQM;2005-04-29 09:30;SPECI CYQM 290930Z 16014G20KT 15SM OVC008 RMK SF7=
CYQM;2005-04-29 10:00;METAR CYQM 291000Z 16014G19KT 15SM VCSH OVC008 07/06 A2968 RMK SF8 SLP054=
CYQM;2005-04-29 11:00;METAR CYQM 291100Z 16017G30KT 15SM BKN009 06/05 A2971 RMK SF7 SLP062=
CYQM;2005-04-29 11:36;SPECI CYQM 291136Z 17017G26KT 15SM BKN011 RMK SC7=
CYQM;2005-04-29 12:00;METAR CYQM 291200Z 18013G22KT 15SM BKN011 07/04 A2975 RMK SC7 SLP076=
CYQM;2005-04-29 19:00;METAR CYQM 291900Z 20028G33KT 15SM FEW040 BKN260 12/01 A2987 RMK CU2CI2 SLP119=
CYQM;2005-04-29 20:00;METAR CYQM 292000Z 20021G29KT 15SM FEW040 FEW140 SCT260 12/00 A2990 RMK CU2AC1CI2 SLP127=
CYQM;2005-04-29 21:00;METAR CYQM 292100Z 19023G31KT 15SM FEW040 FEW120 SCT260 11/M00 A2993 RMK CU1AC1CI1 ACSL ASOCTD SLP137=
CYQM;2005-04-29 22:00;METAR CYQM 292200Z 18016G26KT 15SM SCT050 BKN260 10/M01 A2996 RMK SC4CI2 CU ASOCTD SLP148=
CYQM;2005-04-29 23:00;METAR CYQM 292300Z 19013KT 15SM BKN027 BKN260 09/02 A3000 RMK SC5CI1 SLP160=
CYQM;2005-04-30 00:00;METAR CYQM 300000Z 19007KT 15SM SCT040 BKN260 08/02 A3005 RMK SC3CI1 SLP177=
CYQM;2005-04-30 03:00;METAR CYQM 300300Z 15005KT 15SM FEW260 04/00 A3011 RMK CI0 SLP198=
CYQM;2005-04-30 04:00;METAR CYQM 300400Z 16005KT 15SM SKC 04/01 A3013 RMK SLP206=
CYQM;2005-04-30 05:00;METAR CYQM 300500Z 15007KT 15SM SKC 04/00 A3014 RMK SLP210=
CYQM;2005-04-30 09:00;METAR CYQM 300900Z 15005KT 15SM FEW120 02/01 A3017 RMK AC1 SLP221=
CYQM;2005-04-30 10:00;METAR CYQM 301000Z 13004KT 15SM FEW120 FEW260 02/01 A3020 RMK AC1CI1 SLP230=
CYQM;2005-04-30 11:00;METAR CYQM 301100Z 14007KT 15SM FEW120 FEW260 05/03 A3020 RMK AC1CI1 SLP231=
CYQM;2005-04-30 13:00;METAR CYQM 301300Z 15005KT 15SM FEW030 FEW260 10/02 A3019 RMK SC1CI1 SLP228=
CYQM;2005-04-30 15:00;METAR CYQM 301500Z 11006KT 15SM FEW040 FEW120 SCT260 14/02 A3019 RMK CU1AC1CI2 SLP226=
CYQM;2005-04-30 16:00;METAR CYQM 301600Z 14012G18KT 15SM FEW040 FEW120 SCT260 16/05 A3017 RMK CU1AC1CI2 SLP219=
CYQM;2005-04-30 17:00;METAR CYQM 301700Z 15010KT 15SM FEW040 SCT140 BKN260 15/05 A3017 RMK CU1AC2CI2 SLP218=
CYQM;2005-04-30 18:00;METAR CYQM 301800Z 12014KT 15SM FEW035 BKN140 BKN260 15/05 A3015 RMK CU1AC5CI1 SLP212=
CYQM;2005-04-30 19:00;METAR CYQM 301900Z 16014G19KT 15SM FEW035 FEW100 BKN140 BKN260 15/05 A3015 RMK CU1AC2AC3CI1 SLP213=
CYQM;2005-04-30 21:00;METAR CYQM 302100Z 15011G16KT 15SM FEW035 BKN100 BKN260 11/07 A3015 RMK CU1AC6CI1 SLP213=
CYQM;2005-04-30 22:00;METAR CYQM 302200Z 15012G20KT 15SM FEW015 BKN060 BKN100 OVC260 10/07 A3014 RMK SC1SC4AC2CI1 VIRGA SLP208=
CYQM;2005-04-30 22:42;SPECI CYQM 302242Z 15012KT 15SM -SHRA FEW012 BKN060 OVC100 RMK SC1SC5AC2=
CYQM;2005-04-30 23:17;SPECI CYQM 302317Z 16010KT 7SM -SHRA BKN004 BKN060 OVC100 RMK SF5SC2AC2=
CYQM;2005-04-30 23:31;SPECI CYQM 302331Z 15011KT 12SM -SHRA FEW004 BKN060 OVC100 RMK SF2SC2AC3=
CYQM;2005-04-30 23:41;SPECI CYQM 302341Z 15009G16KT 10SM -RA FEW004 BKN006 OVC060 RMK SF1SF5SC2=
CYQM;2005-05-01 00:00;METAR CYQM 010000Z 15005KT 12SM -RA BKN005 OVC060 09/08 A3014 RMK SF6SC2 CIG RAG SLP208=
CYQM;2005-05-01 01:08;SPECI CYQM 010108Z 14007KT 15SM -SHRA FEW003 BKN004 OVC007 RMK SF2SF4SF2=
CYQM;2005-05-01 01:31;SPECI CYQM 010131Z 13007KT 12SM FEW003 OVC004 RMK SF2SF6=
CYQM;2005-05-01 02:00;METAR CYQM 010200Z 14009KT 12SM FEW003 OVC004 09/08 A3010 RMK SF2SF6 SLP194=
CYQM;2005-05-01 02:42;SPECI CYQM 010242Z 15011KT 10SM FEW003 OVC005 RMK SF2SF6=
CYQM;2005-05-01 03:00;METAR CYQM 010300Z 14009KT 12SM BKN003 OVC005 09/08 A3006 RMK SF5SF3 SLP182=
CYQM;2005-05-01 03:21;SPECI CYQM 010321Z 14013G19KT 12SM FEW003 BKN006 OVC010 RMK SF2SF5SF1=
CYQM;2005-05-01 04:00;METAR CYQM 010400Z 14013G20KT 15SM FEW003 BKN006 OVC075 09/08 A3003 RMK SF2SF4AC2 SLP173=
CYQM;2005-05-01 04:19;SPECI CYQM 010419Z 14013G18KT 12SM -DZ FEW003 BKN006 OVC010 RMK SF2SF5SF2=
CYQM;2005-05-01 05:00;METAR CYQM 010500Z 14014KT 12SM -RADZ SCT006 OVC009 09/08 A3002 RMK SF3SF5 SLP168=
CYQM;2005-05-01 06:00;METAR CYQM 010600Z 14018G26KT 15SM -RADZ SCT007 OVC080 09/08 A2997 RMK SF3AC5 SLP151=
CYQM;2005-05-01 06:26;SPECI CYQM 010626Z 15021G29KT 15SM -RA SCT006 OVC075 RMK SF3AC5=
CYQM;2005-05-01 08:10;SPECI CYQM 010810Z 15028G36KT 8SM -SHRA BKN008 OVC060 RMK SF6SC2=
CYQM;2005-05-01 10:00;METAR CYQM 011000Z 15025G41KT 12SM -SHRA BKN008 OVC012 10/08 A2982 RMK SF7SC1 SLP100=
CYQM;2005-05-01 10:43;SPECI CYQM 011043Z 15026G36KT 12SM -SHRA SCT008 BKN012 OVC040 RMK SF4SC3SC1=
CYQM;2005-05-01 11:00;METAR CYQM 011100Z 15024G33KT 12SM -SHRA SCT008 BKN012 OVC040 10/09 A2981 RMK SF3SC4SC1 SLP097=
CYQM;2005-05-01 12:00;METAR CYQM 011200Z 14024G35KT 10SM -SHRA SCT008 BKN012 OVC040 10/08 A2978 RMK SF3SC4SC1 SLP088=
CYQM;2005-05-01 13:00;METAR CYQM 011300Z 16023G31KT 4SM -SHRA BR SCT008 OVC012 10/09 A2978 RMK SF4SC4 SLP087=
CYQM;2005-05-01 14:00;METAR CYQM 011400Z 16020G27KT 12SM -SHRA SCT008 BKN012 OVC040 11/10 A2977 RMK SF4SC3SC1 SLP083=
CYQM;2005-05-01 14:21;SPECI CYQM 011421Z 16019G26KT 12SM -DZ SCT008 BKN012 OVC040 RMK SF3SC4SC1=
CYQM;2005-05-01 15:00;METAR CYQM 011500Z 15021G34KT 8SM -DZ SCT008 OVC012 12/11 A2973 RMK SF3SC5 SLP071=
CYQM;2005-05-01 15:30;SPECI CYQM 011530Z 16020G29KT 6SM BR FEW008 OVC012 RMK SF2SC6=
CYQM;2005-05-01 16:00;METAR CYQM 011600Z 16016G27KT 15SM FEW008 OVC012 12/11 A2971 RMK SF2SC6 SLP062=
CYQM;2005-05-01 17:36;SPECI CYQM 011736Z 17017G30KT 15SM -SHRA OVC012 RMK SC8=
CYQM;2005-05-01 19:00;METAR CYQM 011900Z 16012KT 15SM FEW006 BKN012 OVC020 13/12 A2964 RMK SF1SC6SC2 SLP039=
CYQM;2005-05-01 19:10;SPECI CYQM 011910Z 16011KT 12SM -SHRA FEW006 OVC012 RMK SF1SC7=
CYQM;2005-05-01 19:18;SPECI CYQM 011918Z 16010KT 1SM R29/P6000FT/D R06/4500VP6000FT/D -SHRA BR FEW006 OVC012 RMK SF1SC7=
CYQM;2005-05-01 19:23;SPECI CYQM 011923Z 16010KT 15SM -SHRA FEW006 BKN012 OVC020 RMK SF1SC6SC1 VIS W -NW 2=
CYQM;2005-05-01 20:10;SPECI CYQM 012010Z 16012KT 4SM -SHRA BR BKN006 OVC012 RMK SF5SC3=
CYQM;2005-05-01 20:39;SPECI CYQM 012039Z 17011G17KT 10SM -SHRA SCT006 OVC012 RMK SF3SC5=
CYQM;2005-05-01 21:00;METAR CYQM 012100Z 16007KT 10SM -SHRA SCT006 OVC012 13/12 A2959 RMK SF4SC4 SLP022=
CYQM;2005-05-01 22:00;METAR CYQM 012200Z 17009KT 12SM -SHRA SCT006 OVC012 12/12 A2958 RMK SF4SC4 SLP017=
CYQM;2005-05-01 22:17;SPECI CYQM 012217Z 18008KT 2SM -SHRA BR BKN005 OVC012 RMK SF6SC2=
CYQM;2005-05-01 22:27;SPECI CYQM 012227Z 18007KT 4SM -SHRA BR BKN005 OVC012 RMK SF5SC3=
CYQM;2005-05-01 23:32;SPECI CYQM 012332Z 21009KT 10SM -SHRA FEW006 BKN012 OVC050 RMK SF2SC5SC1=
CYQM;2005-05-02 00:00;METAR CYQM 020000Z 21010G16KT 12SM -SHRA FEW006 OVC013 12/11 A2958 RMK SF2SC6 SLP019=
CYQM;2005-05-02 00:37;SPECI CYQM 020037Z 24012KT 15SM BKN006 OVC012 RMK SF6SC2=
CYQM;2005-05-02 01:00;METAR CYQM 020100Z 24017KT 15SM OVC005 11/10 A2960 RMK SF8 CIG RAG SLP026=
CYQM;2005-05-02 01:17;SPECI CYQM 020117Z 23017KT 10SM -SHRA OVC005 RMK SF8=
CYQM;2005-05-02 01:43;SPECI CYQM 020143Z 23011KT 7SM -RADZ FEW003 BKN005 OVC011 RMK SF2SF5SC1=
CYQM;2005-05-02 02:24;SPECI CYQM 020224Z 23009G15KT 15SM -DZ SCT004 BKN007 OVC012 RMK SF3SF4SC1=
CYQM;2005-05-02 02:39;SPECI CYQM 020239Z 22011G16KT 15SM FEW004 OVC006 RMK SF2SF6=
CYQM;2005-05-02 03:00;METAR CYQM 020300Z 21008KT 15SM FEW004 OVC006 09/09 A2962 RMK SF1SF7 SLP031=
CYQM;2005-05-02 03:55;SPECI CYQM 020355Z 22009KT 12SM -DZ FEW003 BKN005 OVC007 RMK SF2SF4SF2=
CYQM;2005-05-02 04:00;METAR CYQM 020400Z 23008KT 12SM -DZ FEW003 BKN005 OVC007 09/09 A2963 RMK SF2SF4SF2 SLP036=
CYQM;2005-05-02 04:46;SPECI CYQM 020446Z 23016G21KT 5SM -RADZ BR BKN003 OVC006 RMK SF6SF2=
CYQM;2005-05-02 05:00;METAR CYQM 020500Z 24010G19KT 7SM -DZRA SCT003 OVC005 09/09 A2965 RMK SF3SF5 SLP042=
CYQM;2005-05-02 05:18;SPECI CYQM 020518Z 24014G20KT 15SM -DZ FEW003 BKN006 OVC009 RMK SF2SF4SF2=
CYQM;2005-05-02 05:35;SPECI CYQM 020535Z 23013KT 15SM FEW004 BKN008 OVC011 RMK SF2SF5SC2=
CYQM;2005-05-02 05:42;SPECI CYQM 020542Z 22016KT 10SM -SHRA FEW004 BKN008 OVC011 RMK SF1SF5SC2=
CYQM;2005-05-02 06:25;SPECI CYQM 020625Z 22009KT 15SM FEW006 BKN075 RMK SF2AC5=
CYQM;2005-05-02 08:00;METAR CYQM 020800Z 21007KT 15SM FEW007 FEW075 FEW260 06/05 A2971 RMK SF1AC1CI1 SLP062=
CYQM;2005-05-02 10:00;METAR CYQM 021000Z 23010KT 12SM FEW260 05/04 A2974 RMK CI0 SLP074=
CYQM;2005-05-02 12:00;METAR CYQM 021200Z 23013KT 15SM BKN015 BKN260 08/05 A2980 RMK CF5CI0 SLP093=
CYQM;2005-05-02 16:00;METAR CYQM 021600Z 24016G22KT 15SM BKN030 13/03 A2982 RMK CU6 SLP101=
CYQM;2005-05-02 17:00;METAR CYQM 021700Z 25017G22KT 15SM BKN035 15/03 A2982 RMK SC6 SLP099=
CYQM;2005-05-02 18:00;METAR CYQM 021800Z 24014G20KT 15SM BKN035 14/00 A2981 RMK CU6 SLP098=
CYQM;2005-05-02 19:00;METAR CYQM 021900Z 24018KT 15SM BKN040 BKN260 14/M00 A2981 RMK CU6CI1 SLP098=
CYQM;2005-05-02 20:00;METAR CYQM 022000Z 22015G20KT 15SM BKN035 BKN260 13/02 A2982 RMK CU6CI1 SLP099=
CYQM;2005-05-02 21:00;METAR CYQM 022100Z 25014KT 15SM FEW035 SCT260 13/M01 A2982 RMK CU2CI1 SLP099=
CYQM;2005-05-02 22:00;METAR CYQM 022200Z 24013G18KT 15SM FEW035 SCT260 13/M00 A2983 RMK CU1CI1 SLP104=
CYQM;2005-05-03 00:00;METAR CYQM 030000Z 22010KT 15SM BKN250 10/M01 A2986 RMK CI3 SLP115=
CYQM;2005-05-03 03:00;METAR CYQM 030300Z 19008KT 15SM FEW150 BKN220 07/00 A2990 RMK AC2CI4 SLP126=
CYQM;2005-05-03 04:00;METAR CYQM 030400Z 18006KT 15SM FEW150 BKN220 05/M01 A2990 RMK AC2CI4 SLP127=
CYQM;2005-05-03 05:00;METAR CYQM 030500Z 18005KT 15SM BKN220 05/M01 A2989 RMK CI6 SLP125=
CYQM;2005-05-03 07:00;METAR CYQM 030700Z 15005KT 15SM BKN220 03/M00 A2986 RMK CI6 SLP112=
CYQM;2005-05-03 09:00;METAR CYQM 030900Z 14007KT 15SM SCT250 03/00 A2986 RMK CI3 SLP114=
CYQM;2005-05-03 10:00;METAR CYQM 031000Z 00000KT 15SM FEW250 03/01 A2987 RMK CI2 SLP119=
CYQM;2005-05-03 11:00;METAR CYQM 031100Z 16007KT 15SM FEW250 06/02 A2988 RMK CI2 SLP121=
CYQM;2005-05-03 12:00;METAR CYQM 031200Z 18006KT 15SM FEW140 BKN250 08/03 A2988 RMK AC2CI2 SLP121=
CYQM;2005-05-03 13:00;METAR CYQM 031300Z 25008KT 15SM FEW030 BKN100 BKN250 11/04 A2988 RMK CF1AC4CI1 SLP119=
CYQM;2005-05-03 14:00;METAR CYQM 031400Z 22014G19KT 15SM BKN030 BKN110 BKN250 10/04 A2990 RMK SC6AC1CI0 SLP126=
CYQM;2005-05-03 14:31;SPECI CYQM 031431Z 25014KT 10SM -SHRA BKN030 OVC110 RMK SC7AC1=
CYQM;2005-05-03 15:00;METAR CYQM 031500Z 24015KT 8SM -SHRA BKN027 OVC100 08/05 A2992 RMK SC7AC1 SLP135=
CYQM;2005-05-03 15:34;SPECI CYQM 031534Z 24011KT 7SM -SHRA BKN013 BKN030 OVC100 RMK SC6SC1AC2=
CYQM;2005-05-03 16:00;METAR CYQM 031600Z 23009KT 6SM -SHRA BR BKN013 BKN030 OVC090 07/06 A2993 RMK SC6SC1AC1 SLP138=
CYQM;2005-05-03 17:40;SPECI CYQM 031740Z 22006KT 12SM BKN012 OVC095 RMK SC7AC1=
CYQM;2005-05-03 19:00;METAR CYQM 031900Z 18012KT 15SM BKN020 11/07 A2994 RMK CU7 SLP140=
CYQM;2005-05-03 21:12;SPECI CYQM 032112Z 26012G20KT 15SM -SHRA SCT040TCU BKN100 BKN220 RMK TCU3AC2CI1=
CYQM;2005-05-03 22:49;SPECI CYQM 032249Z 22007KT 15SM SCT040 BKN080 BKN220 RMK SC3AC2CI2=
CYQM;2005-05-04 07:32;SPECI CYQM 040732Z 22007KT 2SM BR FEW002 RMK SF2=
CYQM;2005-05-04 07:40;SPECI CYQM 040740Z 22006KT 5SM BR SKC=
CYQM;2005-05-04 07:52;SPECI CYQM 040752Z 21006KT 2SM BR SKC=
CYQM;2005-05-04 08:25;SPECI CYQM 040825Z 21008KT 5SM BR FEW040 FEW260 RMK SC1CI1=
CYQM;2005-05-04 09:37;SPECI CYQM 040937Z 22007KT 1/4SM R29/P6000FT/N R06/0700V1100FT/N FG SKC RMK FG2=
CYQM;2005-05-04 11:09;SPECI CYQM 041109Z 21003KT 3/4SM R29/P6000FT/N R06/1200V5500FT/U BR PRFG SCT260 RMK FG2CI1 VIS S-NW 1/4=
CYQM;2005-05-04 11:24;SPECI CYQM 041124Z 23004KT 5SM R29/P6000FT/N R06/3000VP6000FT/U BR=
CYQM;2005-05-04 16:02;SPECI CYQM 041602Z 16009KT 15SM -SHRA BKN032TCU BKN050 RMK TCU6SC1=
CYQM;2005-05-04 17:46;SPECI CYQM 041746Z 15007KT 15SM SCT035TCU BKN050 RMK TCU4SC3 SHS ALQDS=
CYQM;2005-05-04 18:53;SPECI CYQM 041853Z 26021KT 15SM -SHRA BKN035TCU BKN090 RMK TCU5AC2=
CYQM;2005-05-04 19:19;SPECI CYQM 041919Z 27008G16KT 15SM BKN040 BKN090 RMK SC5AC2 SHS SW-N TCU EMBD=
CYQM;2005-05-05 01:00;METAR CYQM 050100Z 17004KT 15SM FEW030 BKN070 08/04 A3029 RMK SC2AC4 SLP259=
CYQM;2005-05-05 03:00;METAR CYQM 050300Z 19005KT 15SM BKN075 06/04 A3030 RMK AC5 SLP265=
CYQM;2005-05-05 04:00;METAR CYQM 050400Z 21006KT 15SM BKN080 05/04 A3031 RMK AC5 SLP266=
CYQM;2005-05-05 07:00;METAR CYQM 050700Z 23009KT 15SM FEW090 04/01 A3032 RMK AC2 SLP270=
CYQM;2005-05-05 10:00;METAR CYQM 051000Z 24009KT 15SM FEW100 03/01 A3038 RMK AC2 SLP290=
CYQM;2005-05-05 11:00;METAR CYQM 051100Z 24005KT 15SM FEW100 05/02 A3040 RMK AC2 SLP297=
CYQM;2005-05-05 12:00;METAR CYQM 051200Z 30004KT 15SM FEW100 08/02 A3042 RMK AC2 SLP303=
CYQM;2005-05-05 13:00;METAR CYQM 051300Z 02009KT 15SM FEW100 12/01 A3042 RMK AC1 SLP304=
CYQM;2005-05-05 14:00;METAR CYQM 051400Z 02005KT 15SM FEW030 FEW100 13/M01 A3043 RMK CU1AC1 SLP306=
CYQM;2005-05-05 15:00;METAR CYQM 051500Z 36007KT 15SM FEW032 13/M01 A3043 RMK CU2 SLP306=
CYQM;2005-05-05 16:00;METAR CYQM 051600Z 04012KT 15SM SCT035 14/M02 A3042 RMK CU4 SLP304=
CYQM;2005-05-05 17:00;METAR CYQM 051700Z 07009G16KT 15SM SCT035 BKN050 13/M03 A3041 RMK CU3SC2 SHS N SLP302=
CYQM;2005-05-05 18:00;METAR CYQM 051800Z 36002KT 15SM FEW040 BKN055 14/M01 A3041 RMK CU2SC4 VIRGA S-N SLP301=
CYQM;2005-05-05 19:00;METAR CYQM 051900Z 06009KT 15SM FEW040 BKN055 14/M02 A3040 RMK CU1SC6 VIRGA SLP297=
CYQM;2005-05-05 20:00;METAR CYQM 052000Z 08005KT 15SM FEW040 BKN055 13/M02 A3040 RMK CU2SC6 VIRGA SLP298=
CYQM;2005-05-05 21:00;METAR CYQM 052100Z 18003KT 15SM FEW040 BKN055 13/M02 A3041 RMK CU2SC6 SLP300=
CYQM;2005-05-05 22:00;METAR CYQM 052200Z 09005KT 15SM FEW040 BKN050 13/M02 A3041 RMK CU2SC6 SLP300=
CYQM;2005-05-06 00:00;METAR CYQM 060000Z 12006KT 15SM BKN040 11/M01 A3043 RMK SC6 SLP307=
CYQM;2005-05-06 03:00;METAR CYQM 060300Z 15002KT 15SM FEW100 06/03 A3045 RMK AC2 SLP314=
CYQM;2005-05-06 05:00;METAR CYQM 060500Z 19006KT 15SM SKC 04/02 A3046 RMK SLP316=
CYQM;2005-05-06 07:00;METAR CYQM 060700Z 22008KT 15SM SKC 03/02 A3046 RMK SLP316=
CYQM;2005-05-06 10:00;METAR CYQM 061000Z 22007KT 15SM FEW260 02/00 A3047 RMK CI0 SLP322=
CYQM;2005-05-06 11:00;METAR CYQM 061100Z 22005KT 15SM FEW260 05/00 A3048 RMK CI0 SLP323=
CYQM;2005-05-06 12:00;METAR CYQM 061200Z 22006KT 15SM FEW260 09/00 A3048 RMK CI2 SLP324=
CYQM;2005-05-06 13:00;METAR CYQM 061300Z 00000KT 15SM FEW035 BKN250 12/02 A3048 RMK CU1CI2 SLP323=
CYQM;2005-05-06 14:00;METAR CYQM 061400Z 19002KT 15SM FEW045 BKN250 15/00 A3048 RMK CU1CI2 SLP325=
CYQM;2005-05-06 15:00;METAR CYQM 061500Z 24002KT 15SM FEW050 BKN250 15/M03 A3047 RMK CU1CI2 SLP320=
CYQM;2005-05-06 16:00;METAR CYQM 061600Z 18002KT 15SM FEW050 BKN250 16/M00 A3046 RMK CU2CI2 SLP316=
CYQM;2005-05-06 18:00;METAR CYQM 061800Z 18009KT 15SM FEW055 BKN250 17/M01 A3042 RMK CU2CI2 SLP305=
CYQM;2005-05-06 19:00;METAR CYQM 061900Z 18008G15KT 15SM FEW055 BKN250 17/M01 A3040 RMK CU2CI2 SLP298=
CYQM;2005-05-06 21:00;METAR CYQM 062100Z 15009KT 15SM SCT055 BKN260 16/M02 A3037 RMK SC4CI1 SLP287=
CYQM;2005-05-06 22:00;METAR CYQM 062200Z 14007KT 15SM SCT060 BKN260 16/M01 A3036 RMK SC4CI1 SLP285=
CYQM;2005-05-07 00:00;METAR CYQM 070000Z 16006KT 15SM FEW050 FEW170 BKN250 13/M00 A3037 RMK SC1AC2CI2 CONTRAILS SLP288=
CYQM;2005-05-07 03:00;METAR CYQM 070300Z 20004KT 15SM BKN250 07/02 A3037 RMK CI3 SLP286=
CYQM;2005-05-07 04:00;METAR CYQM 070400Z 16004KT 15SM BKN260 08/01 A3037 RMK CI2 SLP286=
CYQM;2005-05-07 05:00;METAR CYQM 070500Z 17004KT 15SM BKN260 09/M00 A3036 RMK CI2 SLP282=
CYQM;2005-05-07 07:00;METAR CYQM 070700Z 13005KT 15SM FEW170 BKN260 06/02 A3033 RMK AC2CI2 SLP273=
CYQM;2005-05-07 10:00;METAR CYQM 071000Z 00000KT 15SM FEW055 FEW120 BKN200 07/00 A3031 RMK SC1AC2CI3 SLP267=
CYQM;2005-05-07 12:00;METAR CYQM 071200Z 13004KT 15SM FEW055 SCT120 BKN200 10/03 A3031 RMK SC1AC2CI3 SLP267=
CYQM;2005-05-07 13:00;METAR CYQM 071300Z 09005KT 15SM FEW040 SCT120 OVC180 12/M00 A3030 RMK SC1AC2AC4 SLP262=
CYQM;2005-05-07 14:00;METAR CYQM 071400Z 10005KT 15SM FEW040 OVC150 12/02 A3028 RMK SC2AC6 SLP255=
CYQM;2005-05-07 16:00;METAR CYQM 071600Z 09014KT 15SM SCT040 OVC110 13/M02 A3022 RMK SC3AC5 SLP237=
CYQM;2005-05-07 17:00;METAR CYQM 071700Z 08016KT 15SM BKN040 OVC120 12/M02 A3019 RMK SC5AC3 SLP226=
CYQM;2005-05-07 18:09;SPECI CYQM 071809Z 11017G26KT 12SM -RA SCT020 BKN040 OVC080 RMK SC3SC4AC1=
CYQM;2005-05-07 18:32;SPECI CYQM 071832Z 07015G27KT 6SM -RA BR FEW008 OVC020 RMK SF2SC6=
CYQM;2005-05-07 19:00;METAR CYQM 071900Z 11011G18KT 4SM -RA BR FEW008 OVC020 07/04 A3021 RMK SF2SC6 SLP232=
CYQM;2005-05-07 20:21;SPECI CYQM 072021Z 08014G19KT 2 1/2SM -RA BR SCT006 OVC012 RMK SF4SC4=
CYQM;2005-05-07 20:29;SPECI CYQM 072029Z 07013G18KT 4SM RA BR SCT006 OVC012 RMK SF4SC4=
CYQM;2005-05-07 20:48;SPECI CYQM 072048Z 07012KT 4SM RA BR BKN009 OVC030 RMK SF6SC2=
CYQM;2005-05-07 21:00;METAR CYQM 072100Z 07014G25KT 4SM RA BR BKN009 OVC025 05/04 A3019 RMK SF5SC3 SLP225=
CYQM;2005-05-08 00:00;METAR CYQM 080000Z 05014G26KT 4SM -RA BR BKN007 OVC020 03/02 A3015 RMK SF7SC1 SLP214=
CYQM;2005-05-08 01:38;SPECI CYQM 080138Z 04017G25KT 8SM -RA BKN005 BKN007 OVC012 RMK SF5SF2SC1=
CYQM;2005-05-08 02:26;SPECI CYQM 080226Z 04019G26KT 8SM -RA SCT005 BKN008 OVC011 RMK SF4SF2SC2=
CYQM;2005-05-08 04:00;METAR CYQM 080400Z 05019G25KT 8SM -RA FEW005 BKN007 OVC014 04/03 A3004 RMK SF2SF3SC2 /R10/ SLP174=
CYQM;2005-05-08 05:00;METAR CYQM 080500Z 04018KT 8SM RA BKN008 OVC020 04/03 A3000 RMK SF6SC2 SLP162=
CYQM;2005-05-08 05:17;SPECI CYQM 080517Z 04018G27KT 8SM RA SCT008 OVC016 RMK SF4SC4=
CYQM;2005-05-08 07:00;METAR CYQM 080700Z 05019G27KT 4SM -RA BR SCT006 OVC009 04/03 A2996 RERA RMK SF3SC5 SLP149=
CYQM;2005-05-08 08:00;METAR CYQM 080800Z 04017G26KT 6SM RA BR OVC007 04/03 A2995 RMK SF8 CIG RAG SLP146=
CYQM;2005-05-08 08:36;SPECI CYQM 080836Z 05019G29KT 2 1/2SM RA BR BKN009 OVC020 RMK SF7SC1=
CYQM;2005-05-08 10:00;METAR CYQM 081000Z 05015G22KT 2 1/2SM -RA BR BKN009 OVC020 04/03 A2995 RERA RMK SF7SC1 /R12/ SLP145=
CYQM;2005-05-08 10:18;SPECI CYQM 081018Z 05017G22KT 3SM -RA BR BKN009 OVC020 RMK SF7SC1=
CYQM;2005-05-08 11:00;METAR CYQM 081100Z 04012G20KT 2 1/2SM RA BR BKN007 OVC020 04/04 A2997 RMK SF7SC1 SLP151=
CYQM;2005-05-08 12:00;METAR CYQM 081200Z 05017G25KT 1 1/2SM RA BR BKN006 OVC012 05/04 A2997 RMK SF7SC1 SLP152=
CYQM;2005-05-08 13:00;METAR CYQM 081300Z 04012G18KT 1 1/2SM RA BR BKN006 OVC012 05/04 A2998 RMK SF7SC1 SLP157=
CYQM;2005-05-08 13:06;SPECI CYQM 081306Z 04014KT 1SM R29/5500FT R06/P6000FT/U RA BR OVC005 RMK SF8=
CYQM;2005-05-08 13:18;SPECI CYQM 081318Z 04013G19KT 1 1/2SM RA BR OVC005 RMK SF8=
CYQM;2005-05-08 16:00;METAR CYQM 081600Z 04015G20KT 2SM -RA BR BKN005 OVC012 05/04 A3000 RERA RMK SF6SC2 SLP162=
CYQM;2005-05-08 16:22;SPECI CYQM 081622Z 04014G21KT 4SM -RA BR BKN005 OVC012 RMK SF6SC2=
CYQM;2005-05-08 18:00;METAR CYQM 081800Z 04013G19KT 4SM -RA BR BKN007 OVC015 06/05 A3002 RMK SF5SC3 SLP169=
CYQM;2005-05-08 19:00;METAR CYQM 081900Z 04015G22KT 4SM -RA BR BKN007 OVC015 05/04 A3002 RMK SF5SC3 SLP170=
CYQM;2005-05-08 19:51;SPECI CYQM 081951Z 04013G19KT 1 1/4SM -RA BR OVC006 RMK SF8=
CYQM;2005-05-08 20:00;METAR CYQM 082000Z 04013KT 1 1/4SM -RA BR OVC005 06/05 A3003 RMK SF8 SLP172=
CYQM;2005-05-08 20:06;SPECI CYQM 082006Z 04013G19KT 2 1/2SM -RA BR OVC005 RMK SF8=
CYQM;2005-05-08 20:28;SPECI CYQM 082028Z 04013G18KT 3SM -RA BR OVC007 RMK SF8=
CYQM;2005-05-08 20:39;SPECI CYQM 082039Z 04012KT 1SM R29/P6000FT/N R06/P6000FT/D -RADZ BR BKN007 OVC017 RMK SF7SC1=
CYQM;2005-05-08 21:00;METAR CYQM 082100Z 04010G19KT 1 1/4SM -RADZ BR BKN004 OVC015 05/05 A3003 RMK SF7SC1 SLP173=
CYQM;2005-05-08 21:36;SPECI CYQM 082136Z 04012G19KT 3/4SM R29/P6000FT/U R06/5500FT/N -DZ BR BKN004 OVC015 RMK SF7SC1=
CYQM;2005-05-08 21:53;SPECI CYQM 082153Z 04012G20KT 1 1/2SM -DZ BR OVC003 RMK SF8=
CYQM;2005-05-08 22:00;METAR CYQM 082200Z 04013G18KT 1 1/2SM -DZ BR OVC003 05/05 A3003 RMK SF8 SLP174=
CYQM;2005-05-08 22:19;SPECI CYQM 082219Z 04014KT 1 1/4SM -DZ BR OVC003 RMK SF8=
CYQM;2005-05-08 22:48;SPECI CYQM 082248Z 03013KT 1 1/4SM -RADZ BR OVC003 RMK SF8=
CYQM;2005-05-08 23:12;SPECI CYQM 082312Z 03013KT 3SM -DZ BR BKN004 OVC015 RMK SF7SC1=
CYQM;2005-05-09 00:00;METAR CYQM 090000Z 03015G22KT 8SM -SHRA BKN005 OVC017 05/04 A3005 RMK SF6SC2 SLP179=
CYQM;2005-05-09 00:20;SPECI CYQM 090020Z 03015G21KT 8SM SCT005 OVC022 RMK SF3SC5=
CYQM;2005-05-09 00:34;SPECI CYQM 090034Z 05016G24KT 8SM -SHRA BKN006 OVC022 RMK SF6SC2=
CYQM;2005-05-09 01:31;SPECI CYQM 090131Z 04017G24KT 8SM -SHRA OVC025 RMK SC8=
CYQM;2005-05-09 02:23;SPECI CYQM 090223Z 03011KT 10SM OVC035 RMK SC8=
CYQM;2005-05-09 03:29;SPECI CYQM 090329Z 03019G35KT 8SM -SHRA BKN006 OVC024 RMK SF5SC3=
CYQM;2005-05-09 04:00;METAR CYQM 090400Z 03013G20KT 15SM OVC050 05/03 A3005 RMK SC8 SLP178=
CYQM;2005-05-09 05:00;METAR CYQM 090500Z 04014KT 15SM OVC032 05/03 A3005 RMK SC8 SLP179=
CYQM;2005-05-09 06:00;METAR CYQM 090600Z 03016KT 15SM OVC024 05/03 A3003 RMK SC8 SLP174=
CYQM;2005-05-09 09:00;METAR CYQM 090900Z 04012KT 15SM OVC025 05/03 A3005 RMK SC8 SLP180=
CYQM;2005-05-09 10:00;METAR CYQM 091000Z 05007KT 10SM OVC025 05/04 A3006 RMK SC8 SLP184=
CYQM;2005-05-09 11:40;SPECI CYQM 091140Z 03011KT 2 1/2SM -SHRA BR OVC025 RMK SC8=
CYQM;2005-05-09 11:43;SPECI CYQM 091143Z 03011KT 1 1/4SM -SHRA BR OVC025 RMK SC8=
CYQM;2005-05-09 12:00;METAR CYQM 091200Z 04011G16KT 1 1/4SM -SHRA BR SCT012 OVC025 06/06 A3008 RMK SC3SC5 SLP191=
CYQM;2005-05-09 12:34;SPECI CYQM 091234Z 03013KT 1 1/4SM -SHRA BR BKN005 OVC012 RMK SF5SC3=
CYQM;2005-05-09 13:00;METAR CYQM 091300Z 03012KT 1 1/4SM -SHRA BR BKN005 OVC012 06/06 A3010 RMK SF6SC2 SLP196=
CYQM;2005-05-09 13:14;SPECI CYQM 091314Z 03012KT 2SM -SHRA BR BKN005 OVC012 RMK SF6SC2 PCPN VRY LGT=
CYQM;2005-05-09 13:17;SPECI CYQM 091317Z 03012KT 6SM BR BKN005 OVC012 RMK SF6SC2=
CYQM;2005-05-09 13:40;SPECI CYQM 091340Z 04010G16KT 15SM SCT005 BKN012 BKN120 RMK SF4SC2AC1=
CYQM;2005-05-09 14:30;SPECI CYQM 091430Z 04011KT 15SM SCT008 OVC012 RMK SF3SC5=
CYQM;2005-05-09 15:00;METAR CYQM 091500Z 04012KT 15SM SCT008 BKN012 OVC025 09/07 A3010 RMK SF3SC4SC1 SLP196=
CYQM;2005-05-09 16:00;METAR CYQM 091600Z 04009KT 15SM FEW008 SCT012 OVC030 09/08 A3010 RMK SF2SC2SC5 SLP195=
CYQM;2005-05-09 17:00;METAR CYQM 091700Z 01009KT 15SM FEW008 SCT015 BKN050 BKN250 11/08 A3009 RMK SF1SC3SC2CI1 SLP194=
CYQM;2005-05-09 18:00;METAR CYQM 091800Z 36010KT 15SM SCT012 BKN050 BKN260 11/08 A3008 RMK CU3SC2CI1 SLP187=
CYQM;2005-05-09 21:00;METAR CYQM 092100Z 36010G16KT 15SM FEW020 BKN270 11/07 A3006 RMK CU1CI2 SLP182=
CYQM;2005-05-09 22:00;METAR CYQM 092200Z 03013KT 15SM BKN012 BKN270 07/05 A3007 RMK SC5CI1 SLP186=
CYQM;2005-05-09 22:07;SPECI CYQM 092207Z 03012KT 15SM BKN009 BKN270 RMK SC5CI1=
CYQM;2005-05-09 22:29;SPECI CYQM 092229Z 02015KT 15SM BKN004 BKN020 BKN260 RMK SF7SC1CI1 CIG RAG=
CYQM;2005-05-09 23:00;METAR CYQM 092300Z 02008KT 15SM BKN002 BKN250 05/05 A3009 RMK SF7CI1 PCPN N - NE SLP191=
CYQM;2005-05-09 23:24;SPECI CYQM 092324Z 36010KT 3SM BR OVC002 RMK ST8 VIS N - NE 1=
CYQM;2005-05-09 23:31;SPECI CYQM 092331Z 01007KT 1SM R06/P6000FT/U R29/P6000FT/U BR OVC002 RMK FG2ST6 VIS S 3=
CYQM;2005-05-10 00:00;METAR CYQM 100000Z 02011KT 1SM R06/P6000FT/N R29/P6000FT/N BR OVC002 05/04 A3008 RMK FG2ST6 VIS S 3 SLP191=
CYQM;2005-05-10 00:19;SPECI CYQM 100019Z 01009KT 1 1/4SM BR OVC002 RMK FG2ST6 VIS S 4=
CYQM;2005-05-10 00:34;SPECI CYQM 100034Z 36009KT 1 1/4SM BR OVC001 RMK FG3ST5=
CYQM;2005-05-10 01:08;SPECI CYQM 100108Z 35009KT 1/2SM R06/3000VP6000FT/D R29/P6000FT/N FG VV001 RMK FG8=
CYQM;2005-05-10 04:00;METAR CYQM 100400Z 02007KT 3/4SM R06/P6000FT/D R29/2000V3000FT/N BR OVC001 04/04 A3009 RMK FG4ST4 SLP193=
CYQM;2005-05-10 04:05;SPECI CYQM 100405Z 01007KT 1/2SM R06/4500VP6000FT/D R29/2600FT/U FG OVC001 RMK FG6ST2=
CYQM;2005-05-10 04:23;SPECI CYQM 100423Z 36008KT 0SM R06/2600FT/N R29/2000V3000FT/D FG VV000 RMK FG8=
CYQM;2005-05-10 05:00;METAR CYQM 100500Z 36007KT 1/8SM R06/2200FT/N R29/2000V3000FT/N FG VV000 04/04 A3008 RMK FG8 SLP189=
CYQM;2005-05-10 06:35;SPECI CYQM 100635Z 36007KT 1/8SM R06/3500FT/N R29/3500FT/N -DZ FG VV000 RMK FG8=
CYQM;2005-05-10 07:00;METAR CYQM 100700Z 36008KT 1/8SM R06/3000FT/U R29/3000FT/N -DZ FG VV000 04/04 A3008 RMK FG8 SLP188=
CYQM;2005-05-10 07:20;SPECI CYQM 100720Z 01006KT 1/4SM R06/3500FT/D R29/4500FT/N FG VV001 RMK FG8=
CYQM;2005-05-10 08:39;SPECI CYQM 100839Z 33007KT 1/2SM R06/3000FT/U R29/2400FT/N FG VV001 RMK FG8=
CYQM;2005-05-10 09:00;METAR CYQM 100900Z 36005KT 1/2SM R06/3000FT/N R29/3000FT/N FG VV001 03/03 A3010 RMK FG8 SLP197=
CYQM;2005-05-10 09:24;SPECI CYQM 100924Z 35005KT 1/8SM R06/2200FT/N R29/2200FT/N FG VV000 RMK FG8=
CYQM;2005-05-10 10:00;METAR CYQM 101000Z 36004KT 1/8SM R06/2000FT/N R29/2200FT/N FG VV000 04/04 A3011 RMK FG8 SLP198=
CYQM;2005-05-10 10:25;SPECI CYQM 101025Z 03006KT 1/2SM R06/1800V3000FT/U R29/2600FT/N FG VV001 RMK FG8=
CYQM;2005-05-10 11:00;METAR CYQM 101100Z 35007KT 1/2SM R06/1800V2800FT/U R29/2400FT/D FG VV001 04/04 A3012 RMK FG8 SLP202=
CYQM;2005-05-10 12:00;METAR CYQM 101200Z 33007KT 5/8SM R06/2400V4500FT/D R29/4500VP6000FT/U BR VV003 04/04 A3013 RMK FG8 SLP207=
CYQM;2005-05-10 12:22;SPECI CYQM 101222Z 32004KT 3/4SM R06/2800V5500FT/D R29/4500VP6000FT/U BR VV004 RMK FG8=
CYQM;2005-05-10 13:00;METAR CYQM 101300Z 01008KT 1 1/2SM R06/4000V5500FT/U R29/P6000FT/U BR OVC004 05/05 A3014 RMK SF8 VIS IMPRG RPDLY SLP208=
CYQM;2005-05-10 13:12;SPECI CYQM 101312Z 01007KT 2 1/2SM BR OVC003 RMK SF8 VIS SW-W 15=
CYQM;2005-05-10 13:46;SPECI CYQM 101346Z 35006KT 6SM BR OVC004 RMK SF8=
CYQM;2005-05-10 14:30;SPECI CYQM 101430Z 36006KT 15SM BKN006 OVC030 RMK SF7SC1=
CYQM;2005-05-10 16:00;METAR CYQM 101600Z 02007KT 15SM BKN009 BKN020 10/08 A3012 RMK SF6SC1 SLP204=
CYQM;2005-05-10 16:39;SPECI CYQM 101639Z 02008KT 15SM BKN012 BKN020 RMK CU6SC1=
CYQM;2005-05-10 17:00;METAR CYQM 101700Z 03009KT 15SM BKN015 BKN025 12/09 A3008 RMK CU5SC2 SLP189=
CYQM;2005-05-10 21:00;METAR CYQM 102100Z 04012KT 15SM SCT020 12/08 A3008 RMK CU4 SLP188=
CYQM;2005-05-10 21:31;SPECI CYQM 102131Z 05013KT 15SM BKN012 RMK SC6=
CYQM;2005-05-10 22:00;METAR CYQM 102200Z 04008KT 15SM BKN012 10/07 A3008 RMK SC7 SLP187=
CYQM;2005-05-10 23:47;SPECI CYQM 102347Z 02006KT 15SM FEW012 RMK CU2=
CYQM;2005-05-11 00:00;METAR CYQM 110000Z 03007KT 15SM FEW012 SCT250 07/06 A3008 RMK CU2CI1 SLP190=
CYQM;2005-05-11 00:33;SPECI CYQM 110033Z 03009KT 15SM BKN006 RMK ST6=
CYQM;2005-05-11 01:38;SPECI CYQM 110138Z 06005KT 15SM OVC004 RMK ST8=
CYQM;2005-05-11 02:41;SPECI CYQM 110241Z 06008KT 15SM OVC003 RMK ST8=
CYQM;2005-05-11 04:00;METAR CYQM 110400Z 06004KT 12SM OVC003 07/07 A3006 RMK ST8 SLP181=
CYQM;2005-05-11 05:00;METAR CYQM 110500Z 02003KT 12SM OVC003 07/07 A3005 RMK ST8 SLP179=
CYQM;2005-05-11 05:12;SPECI CYQM 110512Z 03005KT 10SM OVC002 RMK ST8=
CYQM;2005-05-11 06:00;METAR CYQM 110600Z 02006KT 8SM OVC002 07/07 A3004 RMK ST8 SLP174=
CYQM;2005-05-11 06:28;SPECI CYQM 110628Z 04003KT 3SM BR OVC001 RMK ST8=
CYQM;2005-05-11 06:31;SPECI CYQM 110631Z 04003KT 2SM BR OVC001 RMK ST8=
CYQM;2005-05-11 06:44;SPECI CYQM 110644Z 02005KT 1SM R29/P6000FT/D R06/P6000FT/D BR OVC001 RMK ST8=
CYQM;2005-05-11 06:55;SPECI CYQM 110655Z 02005KT 3/4SM R29/P6000FT/D R06/P6000FT/U BR VV001 RMK FG8=
CYQM;2005-05-11 07:00;METAR CYQM 110700Z 01003KT 3/4SM R29/P6000FT/U R06/P6000FT/U BR VV001 06/06 A3003 RMK FG8 SLP171=
CYQM;2005-05-11 07:08;SPECI CYQM 110708Z 04002KT 1/2SM R29/P6000FT/U R06/P6000FT/D FG VV001 RMK FG8=
CYQM;2005-05-11 07:43;SPECI CYQM 110743Z 01004KT 1/4SM R29/1800V2800FT/N R06/2600VP6000FT/D FG VV001 RMK FG8=
CYQM;2005-05-11 10:00;METAR CYQM 111000Z 01005KT 1/2SM R06/4000V5500FT/U R29/2000V3000FT/U FG OVC001 06/06 A3003 RMK FG5ST3 BLN DSAPRD 4 HND FT SLP170=
CYQM;2005-05-11 10:17;SPECI CYQM 111017Z 35005KT 1/2SM R29/3500FT/U R06/5000FT/D -DZ FG OVC001 RMK FG5ST3=
CYQM;2005-05-11 10:52;SPECI CYQM 111052Z 02004KT 3/4SM R29/3500FT/U R06/4000VP6000FT/U BR OVC001 RMK FG4ST4=
CYQM;2005-05-11 11:14;SPECI CYQM 111114Z 35004KT 1SM R29/3000VP6000FT/U R06/3500VP6000FT/U -DZ BR OVC002 RMK FG2ST6=
CYQM;2005-05-11 12:00;METAR CYQM 111200Z 06002KT 1 1/2SM BR OVC002 07/07 A3002 RMK FG2ST6 SLP167=
CYQM;2005-05-11 12:17;SPECI CYQM 111217Z 35003KT 4SM BR OVC003 RMK ST8=
CYQM;2005-05-11 14:00;METAR CYQM 111400Z 00000KT 15SM OVC004 08/08 A3000 RMK SF8 SLP163=
CYQM;2005-05-11 14:20;SPECI CYQM 111420Z 01003KT 15SM BKN008 RMK SC7=
CYQM;2005-05-11 15:00;METAR CYQM 111500Z 06003KT 15SM BKN013 BKN260 11/09 A2998 RMK SC5CI0 SLP156=
CYQM;2005-05-11 15:15;SPECI CYQM 111515Z 00000KT 15SM SCT013 BKN260 RMK CF4CI1=
CYQM;2005-05-11 16:00;METAR CYQM 111600Z 33003KT 15SM FEW020 SCT260 14/10 A2995 RMK CF2CI1 SLP145=
CYQM;2005-05-11 17:00;METAR CYQM 111700Z 11006KT 15SM FEW025 BKN260 16/10 A2993 RMK CF1CI2 SLP137=
CYQM;2005-05-11 18:00;METAR CYQM 111800Z 05002KT 15SM FEW030 BKN270 17/11 A2990 RMK CF1CI3 SLP128=
CYQM;2005-05-11 21:00;METAR CYQM 112100Z 08009KT 15SM FEW035 BKN260 18/10 A2986 RMK CU1CI3 SLP114=
CYQM;2005-05-11 22:00;METAR CYQM 112200Z 09008KT 15SM FEW035 BKN260 18/10 A2985 RMK CU1CI3 SLP109=
CYQM;2005-05-12 02:00;METAR CYQM 120200Z 19005KT 15SM FEW070 BKN260 09/07 A2985 RMK AC1CI2 SLP110=
CYQM;2005-05-12 03:00;METAR CYQM 120300Z 19004KT 15SM FEW070 BKN260 08/07 A2984 RMK AC1CI2 SLP108=
CYQM;2005-05-12 04:00;METAR CYQM 120400Z 17004KT 15SM FEW250 06/05 A2983 RMK CI2 SLP104=
CYQM;2005-05-12 05:00;METAR CYQM 120500Z 16004KT 15SM FEW250 05/04 A2981 RMK CI2 SLP098=
CYQM;2005-05-12 06:00;METAR CYQM 120600Z 15007KT 15SM VCFG SKC 05/04 A2978 RMK SLP087=
CYQM;2005-05-12 08:00;METAR CYQM 120800Z 16005KT 15SM FEW002 BKN250 05/04 A2975 RMK SF1CI3 SLP076=
CYQM;2005-05-12 09:00;METAR CYQM 120900Z 17005KT 15SM FEW003 BKN100 BKN220 05/05 A2974 RMK CF1AC7CC1 SLP074=
CYQM;2005-05-12 10:00;METAR CYQM 121000Z 21007KT 12SM FEW040 BKN070 BKN230 07/06 A2977 RMK SC2AC6CI1 SLP082=
CYQM;2005-05-12 10:10;SPECI CYQM 121010Z 22005G17KT 10SM BKN010 BKN040 BKN070 BKN230 RMK SC5SC1AC1CI1=
CYQM;2005-05-12 11:00;METAR CYQM 121100Z 25009KT 12SM -SHRA BKN010 OVC030 08/07 A2979 RMK SC7SC1 SLP091=
CYQM;2005-05-12 11:37;SPECI CYQM 121137Z 29011KT 10SM -SHRA BKN008 OVC032 RMK SC7SC1=
CYQM;2005-05-12 12:00;METAR CYQM 121200Z 32012G20KT 12SM -SHRA BKN008 OVC032 08/08 A2983 RMK SC7SC1 SLP103=
CYQM;2005-05-12 12:32;SPECI CYQM 121232Z 30019G25KT 15SM FEW005 BKN011 OVC030 RMK SF1SC7SC1=
CYQM;2005-05-12 13:00;METAR CYQM 121300Z 31010G21KT 15SM -SHRA BKN011 OVC035 06/04 A2987 RMK SC7SC1 SLP116=
CYQM;2005-05-12 13:16;SPECI CYQM 121316Z 31016KT 15SM BKN009 BKN030 OVC070 RMK SF6SC2AC1=
CYQM;2005-05-12 13:25;SPECI CYQM 121325Z 30015G21KT 15SM -SHRA BKN009 OVC030 RMK SF5SC3=
CYQM;2005-05-12 14:00;METAR CYQM 121400Z 31015G21KT 15SM -SHRA BKN008 BKN025 OVC070 05/03 A2990 RMK SF5SC2AC2 SLP126=
CYQM;2005-05-12 14:13;SPECI CYQM 121413Z 31016G21KT 15SM -SHRA SCT007 BKN025 OVC070 RMK SF3SC4AC1=
CYQM;2005-05-12 15:00;METAR CYQM 121500Z 31019G26KT 15SM -SHRA BKN007 OVC027 05/03 A2992 RMK SF5SC3 SLP133=
CYQM;2005-05-12 15:34;SPECI CYQM 121534Z 32014KT 15SM BKN009 OVC030 RMK SC7SC1=
CYQM;2005-05-12 16:00;METAR CYQM 121600Z 29019G24KT 15SM BKN010 BKN040 05/01 A2994 RMK SC6SC1 SLP140=
CYQM;2005-05-12 17:00;METAR CYQM 121700Z 32022G29KT 15SM SCT018 BKN040 06/M01 A2995 RMK CU3SC4 SLP143=
CYQM;2005-05-12 18:00;METAR CYQM 121800Z 33024G31KT 15SM FEW030 FEW055 09/M03 A2993 RMK CU2SC1 SLP138=
CYQM;2005-05-12 19:00;METAR CYQM 121900Z 32024G30KT 15SM FEW040 09/M06 A2994 RMK SC1 SLP141=
CYQM;2005-05-12 20:00;METAR CYQM 122000Z 30023G31KT 15SM FEW040 08/M06 A2996 RMK SC1 SLP148=
CYQM;2005-05-12 21:00;METAR CYQM 122100Z 33025G33KT 15SM FEW040 FEW250 08/M08 A2998 RMK SC1CI1 SLP154=
CYQM;2005-05-12 22:00;METAR CYQM 122200Z 31023G29KT 15SM FEW040 FEW250 06/M09 A3000 RMK SC1CI1 SLP163=
CYQM;2005-05-13 00:00;METAR CYQM 130000Z 32013G19KT 15SM FEW250 03/M10 A3007 RMK CI1 SLP187=
CYQM;2005-05-13 03:00;METAR CYQM 130300Z 31015G21KT 15SM SKC 00/M11 A3012 RMK SLP203=
CYQM;2005-05-13 04:00;METAR CYQM 130400Z 31014G20KT 15SM SKC M01/M11 A3012 RMK SLP203=
CYQM;2005-05-13 08:00;METAR CYQM 130800Z 29011KT 15SM BKN035 M02/M11 A3009 RMK SC5 SLP193=
CYQM;2005-05-13 09:00;METAR CYQM 130900Z 29012G17KT 15SM FEW030 FEW045 M02/M11 A3010 RMK CU1SC1 SLP197=
CYQM;2005-05-13 10:00;METAR CYQM 131000Z 29014G19KT 15SM FEW035 M02/M11 A3011 RMK SC2 SLP200=
CYQM;2005-05-13 12:00;METAR CYQM 131200Z 29018G27KT 15SM BKN035 00/M10 A3008 RMK SC7 VIRGA ALQDS SLP191=
CYQM;2005-05-13 12:13;SPECI CYQM 131213Z 30014G20KT 15SM -SHSN BKN035 RMK SC7=
CYQM;2005-05-13 12:46;SPECI CYQM 131246Z 29017G26KT 15SM VCSH BKN035 RMK SC7=
CYQM;2005-05-13 13:00;METAR CYQM 131300Z 30012G22KT 15SM VCSH BKN035 00/M10 A3007 RMK SC7 SLP186=
CYQM;2005-05-13 14:00;METAR CYQM 131400Z 28018G26KT 15SM BKN035 03/M11 A3005 RMK SC6 SHS NE-SE CU ASOCTD SLP178=
CYQM;2005-05-13 15:00;METAR CYQM 131500Z 30022G30KT 15SM BKN040 03/M09 A3002 RMK CU6 SHS E SLP168=
CYQM;2005-05-13 16:00;METAR CYQM 131600Z 31016G29KT 15SM BKN040 05/M11 A2998 RMK CU7 VIRGA SLP157=
CYQM;2005-05-13 17:00;METAR CYQM 131700Z 30020G29KT 15SM BKN040 05/M09 A2996 RMK CU7 VIRGA ALQDS SLP148=
CYQM;2005-05-13 18:00;METAR CYQM 131800Z 27018G28KT 15SM BKN040 05/M10 A2993 RMK CU7 VIRGA ALQDS SLP138=
CYQM;2005-05-13 21:00;METAR CYQM 132100Z 31024G29KT 15SM BKN040 05/M10 A2990 RMK SC7 VIRGA ALQDS SLP130=
CYQM;2005-05-13 22:00;METAR CYQM 132200Z 32016G21KT 15SM BKN040 BKN120 05/M10 A2991 RMK SC6AC1 VIRGA N-SE SLP133=
CYQM;2005-05-14 00:00;METAR CYQM 140000Z 32012G19KT 15SM BKN030 04/M10 A2994 RMK SC6 SLP141=
CYQM;2005-05-14 03:00;METAR CYQM 140300Z 28008KT 15SM FEW070 01/M09 A2991 RMK AC1 SLP132=
CYQM;2005-05-14 04:00;METAR CYQM 140400Z 27008KT 15SM SKC M00/M09 A2989 RMK SLP124=
CYQM;2005-05-14 06:00;METAR CYQM 140600Z 29010KT 15SM FEW100 01/M09 A2988 RMK AC2 SLP122=
CYQM;2005-05-14 09:44;SPECI CYQM 140944Z 29009KT 15SM BKN020 RMK SC7=
CYQM;2005-05-14 12:00;METAR CYQM 141200Z 32015G21KT 15SM FEW030 FEW260 04/M05 A2992 RMK SC2CI1 SLP137=
CYQM;2005-05-14 15:00;METAR CYQM 141500Z 34011G16KT 15SM FEW030 FEW100 BKN260 07/M02 A2992 RMK CU1AC1CI1 SLP133=
CYQM;2005-05-14 16:00;METAR CYQM 141600Z 05008KT 15SM FEW030 SCT090 BKN260 08/M01 A2990 RMK CU1AC2CI1 SLP129=
CYQM;2005-05-14 17:00;METAR CYQM 141700Z 34006KT 15SM FEW030 BKN260 10/M00 A2988 RMK SC2CI1 SLP121=
CYQM;2005-05-14 18:00;METAR CYQM 141800Z 02009G16KT 15SM FEW035 BKN260 10/M00 A2987 RMK SC1CI2 SLP117=
CYQM;2005-05-14 21:00;METAR CYQM 142100Z 02006KT 15SM FEW070 BKN260 11/00 A2986 RMK AC1CI3 SLP116=
CYQM;2005-05-14 22:00;METAR CYQM 142200Z 02004KT 15SM FEW070 BKN260 11/00 A2987 RMK AC1CI5 SLP118=
CYQM;2005-05-15 00:00;METAR CYQM 150000Z 04006KT 15SM BKN080 OVC260 09/M01 A2988 RMK AC6CI2 SLP121=
CYQM;2005-05-15 02:00;METAR CYQM 150200Z 35003KT 15SM BKN050 07/00 A2989 RMK SC7 SLP124=
CYQM;2005-05-15 04:30;SPECI CYQM 150430Z 35016KT 12SM -SHRA OVC020 RMK SC8=
CYQM;2005-05-15 04:50;SPECI CYQM 150450Z 35012KT 15SM SCT006 OVC020 RMK SF3SC5=
CYQM;2005-05-15 05:11;SPECI CYQM 150511Z 35011G17KT 12SM -DZ OVC005 RMK SF8=
CYQM;2005-05-15 06:00;METAR CYQM 150600Z 02014KT 4SM -DZ BR FEW003 OVC005 06/06 A2989 RMK SF2SF6 SLP123=
CYQM;2005-05-15 06:43;SPECI CYQM 150643Z 36011G17KT 6SM -DZ BR SCT002 OVC004 RMK SF3SF5=
CYQM;2005-05-15 07:20;SPECI CYQM 150720Z 36008G15KT 12SM -DZ OVC003 RMK SF8=
CYQM;2005-05-15 07:40;SPECI CYQM 150740Z 36008KT 12SM OVC003 RMK SF8=
CYQM;2005-05-15 08:13;SPECI CYQM 150813Z 01013KT 12SM SCT003 OVC006 RMK SF3SF5=
CYQM;2005-05-15 08:21;SPECI CYQM 150821Z 36012KT 10SM -DZ BKN003 OVC006 RMK SF6SF2=
CYQM;2005-05-15 09:23;SPECI CYQM 150923Z 02012KT 2SM -DZ BR OVC003 RMK SF8=
CYQM;2005-05-15 09:33;SPECI CYQM 150933Z 01010G16KT 2SM -DZ BR BKN002 OVC004 RMK SF6SF2=
CYQM;2005-05-15 09:48;SPECI CYQM 150948Z 02011KT 3SM BR BKN002 OVC004 RMK SF6SF2=
CYQM;2005-05-15 10:00;METAR CYQM 151000Z 02010KT 3SM BR BKN002 OVC004 05/05 A2995 RMK SF6SF2 SLP145=
CYQM;2005-05-15 10:31;SPECI CYQM 151031Z 01008G15KT 4SM BR BKN003 OVC005 RMK SF6SF2=
CYQM;2005-05-15 10:48;SPECI CYQM 151048Z 02009KT 2 1/2SM -DZ BR OVC002 RMK ST8=
CYQM;2005-05-15 11:38;SPECI CYQM 151138Z 03011KT 3SM -DZ BR OVC003 RMK ST8=
CYQM;2005-05-15 12:00;METAR CYQM 151200Z 02011KT 4SM -DZ BR OVC003 05/04 A2997 RMK SF8 SLP153=
CYQM;2005-05-15 12:41;SPECI CYQM 151241Z 03011KT 7SM OVC003 RMK SF8=
CYQM;2005-05-15 12:53;SPECI CYQM 151253Z 04008KT 8SM SCT003 OVC005 RMK SF3SF5=
CYQM;2005-05-15 13:00;METAR CYQM 151300Z 01009KT 8SM SCT003 OVC005 05/04 A2999 RMK SF3SF5 SLP157=
CYQM;2005-05-15 15:00;METAR CYQM 151500Z 04005KT 15SM BKN008 OVC020 07/05 A2999 RMK SF6SC2 SLP159=
CYQM;2005-05-15 16:00;METAR CYQM 151600Z 05005KT 15SM BKN010 OVC020 08/05 A2998 RMK SF5SC3 SLP155=
CYQM;2005-05-15 16:52;SPECI CYQM 151652Z 02008KT 15SM SCT012 OVC035 RMK CF3SC5=
CYQM;2005-05-15 17:00;METAR CYQM 151700Z 01009KT 15SM SCT012 OVC035 10/06 A2998 RMK CF3SC5 SLP154=
CYQM;2005-05-15 18:00;METAR CYQM 151800Z 02007KT 15SM FEW016 OVC035 09/05 A2998 RMK CU2SC6 SLP154=
CYQM;2005-05-15 22:00;METAR CYQM 152200Z 03009KT 12SM BKN035 OVC100 08/04 A2998 RMK SC7AC1 SLP156=
CYQM;2005-05-15 23:00;METAR CYQM 152300Z 04008KT 12SM BKN035 OVC100 07/04 A2999 RMK SC6AC2 SLP159=
CYQM;2005-05-15 23:35;SPECI CYQM 152335Z 05007KT 12SM -SHRA BKN035 OVC100 RMK SC6AC2=
CYQM;2005-05-16 01:33;SPECI CYQM 160133Z 04007KT 15SM OVC030 RMK SC8=
CYQM;2005-05-16 03:30;SPECI CYQM 160330Z 04005KT 15SM OVC030 RMK SC8=
CYQM;2005-05-16 04:00;METAR CYQM 160400Z 04006KT 15SM OVC030 05/03 A3000 RMK SC8 SLP161=
CYQM;2005-05-16 05:00;METAR CYQM 160500Z 05006KT 15SM OVC030 05/03 A3000 RMK SC8 SLP161=
CYQM;2005-05-16 05:49;SPECI CYQM 160549Z 05005KT 15SM -SHRA OVC030 RMK SC8=
CYQM;2005-05-16 07:00;METAR CYQM 160700Z 05006KT 15SM -SHRA BKN016 OVC030 05/04 A2998 RMK SC5SC3 SLP156=
CYQM;2005-05-16 10:00;METAR CYQM 161000Z 04005KT 12SM -RA SCT012 OVC025 05/04 A2999 RMK SC4SC4 SLP158=
CYQM;2005-05-16 11:12;SPECI CYQM 161112Z 05004KT 10SM FEW006 BKN014 OVC020 RMK SF2SC4SC2=
CYQM;2005-05-16 12:00;METAR CYQM 161200Z 04006KT 10SM FEW006 BKN014 OVC020 05/04 A2998 RMK SF2SC4SC2 SLP156=
CYQM;2005-05-16 13:00;METAR CYQM 161300Z 03010KT 12SM FEW006 BKN015 OVC020 06/05 A2999 RMK SF2SC5SC2 SLP157=
CYQM;2005-05-16 14:00;METAR CYQM 161400Z 05008KT 12SM FEW008 BKN015 OVC020 06/05 A2998 RMK SF2SC5SC2 SLP155=
CYQM;2005-05-16 15:00;METAR CYQM 161500Z 04007KT 15SM FEW008 OVC020 07/05 A2998 RMK SF2SC6 SLP156=
CYQM;2005-05-16 16:00;METAR CYQM 161600Z 04009KT 15SM FEW010 OVC020 07/04 A2997 RMK SF2SC6 SLP152=
CYQM;2005-05-16 17:15;SPECI CYQM 161715Z 03010KT 15SM -SHRA SCT012 BKN025 OVC040 RMK SC3SC4SC1=
CYQM;2005-05-16 17:44;SPECI CYQM 161744Z 02009KT 15SM SCT008 BKN020 OVC040 RMK SF3SC4SC1=
CYQM;2005-05-16 18:00;METAR CYQM 161800Z 01008KT 15SM -SHRA SCT008 BKN020 OVC040 06/05 A2996 RMK SF3SC4SC1 SLP147=
CYQM;2005-05-16 19:00;METAR CYQM 161900Z 02008KT 15SM -SHRA SCT008 BKN020 OVC040 06/05 A2995 RMK SF3SC4SC1 SLP143=
CYQM;2005-05-16 19:27;SPECI CYQM 161927Z 04008KT 15SM -SHRA BKN009 OVC020 RMK SF5SC3=
CYQM;2005-05-16 20:47;SPECI CYQM 162047Z 03010KT 3SM -SHRA BR BKN002 BKN009 OVC020 RMK SF5SC2SC1=
CYQM;2005-05-16 21:00;METAR CYQM 162100Z 02007KT 3SM -SHRA BR BKN003 BKN009 OVC020 05/04 A2994 RMK SF5SC2SC1 SLP141=
CYQM;2005-05-16 21:34;SPECI CYQM 162134Z 02009KT 3SM BR BKN004 OVC018 RMK SF7SC1=
CYQM;2005-05-16 21:47;SPECI CYQM 162147Z 02009KT 4SM -SHRA BR BKN004 OVC018 RMK SF7SC1=
CYQM;2005-05-16 22:17;SPECI CYQM 162217Z 02009KT 1 1/4SM -DZ BR BKN003 OVC017 RMK SF7SC1=
CYQM;2005-05-16 23:08;SPECI CYQM 162308Z 03007KT 1 1/4SM -SHRA BR BKN004 OVC018 RMK SF6SC2=
CYQM;2005-05-17 00:00;METAR CYQM 170000Z 01008KT 2 1/2SM -SHRA BR BKN004 OVC018 04/04 A2996 RMK SF7SC1 SLP147=
CYQM;2005-05-17 00:35;SPECI CYQM 170035Z 36007KT 8SM OVC003 RMK SF8=
CYQM;2005-05-17 01:37;SPECI CYQM 170137Z 01006KT 8SM OVC002 RMK SF8=
CYQM;2005-05-17 02:00;METAR CYQM 170200Z 35006KT 8SM OVC001 04/04 A2996 RMK SF8 SLP148=
CYQM;2005-05-17 03:00;METAR CYQM 170300Z 36007KT 1 1/2SM BR OVC001 04/04 A2996 RMK SF8 VIS S - W 5 SLP149=
CYQM;2005-05-17 04:32;SPECI CYQM 170432Z 01005KT 3/4SM R06/4000VP6000FT/D R29/P6000FT/U BR OVC001 RMK ST8=
CYQM;2005-05-17 05:00;METAR CYQM 170500Z 35005KT 1/2SM R06/3500V5500FT/U R29/5000FT/D FG OVC001 04/04 A2996 RMK FG4ST4 SLP149=
CYQM;2005-05-17 05:15;SPECI CYQM 170515Z 01005KT 3/4SM R06/5500FT/N R29/4500FT/N BR OVC001 RMK FG2ST6=
CYQM;2005-05-17 05:37;SPECI CYQM 170537Z 36004KT 1/2SM R06/3000V5000FT/D R29/4500FT/U FG OVC001 RMK FG4ST4=
CYQM;2005-05-17 06:22;SPECI CYQM 170622Z 33006KT 3/4SM R06/3500VP6000FT/U R29/5000FT/N BR OVC001 RMK FG4ST4=
CYQM;2005-05-17 06:48;SPECI CYQM 170648Z 32007KT 1SM R06/P6000FT/D R29/5500FT/U BR OVC001 RMK ST8=
CYQM;2005-05-17 07:00;METAR CYQM 170700Z 32006KT 1 1/4SM BR OVC001 04/04 A2997 RMK ST8 SLP153=
CYQM;2005-05-17 07:21;SPECI CYQM 170721Z 32007KT 3SM BR OVC002 RMK ST8=
CYQM;2005-05-17 07:52;SPECI CYQM 170752Z 31006KT 1 1/4SM BR OVC002 RMK ST8=
CYQM;2005-05-17 08:09;SPECI CYQM 170809Z 33004KT 2 1/2SM BR OVC001 RMK ST8=
CYQM;2005-05-17 08:20;SPECI CYQM 170820Z 30004KT 1 1/2SM R06/P6000FT/N R29/5000FT/D BR OVC001 RMK ST8=
CYQM;2005-05-17 08:37;SPECI CYQM 170837Z 33006KT 3SM BR OVC002 RMK ST8=
CYQM;2005-05-17 09:39;SPECI CYQM 170939Z 32004KT 1 1/4SM BR OVC002 RMK ST8=
CYQM;2005-05-17 10:00;METAR CYQM 171000Z 31005KT 1 1/2SM BR OVC002 04/04 A3002 RMK ST8 SLP170=
CYQM;2005-05-17 10:49;SPECI CYQM 171049Z 29005KT 3SM BR OVC003 RMK ST8=
CYQM;2005-05-17 11:00;METAR CYQM 171100Z 29006KT 3SM BR OVC003 04/04 A3004 RMK ST8 SLP176=
CYQM;2005-05-17 11:48;SPECI CYQM 171148Z 27005KT 10SM OVC005 RMK ST8=
CYQM;2005-05-17 12:00;METAR CYQM 171200Z 27007KT 10SM OVC005 05/04 A3006 RMK ST8 SLP183=
CYQM;2005-05-17 12:18;SPECI CYQM 171218Z 30005KT 10SM FEW004 OVC007 RMK SF2SF6=
CYQM;2005-05-17 13:40;SPECI CYQM 171340Z 27006KT 10SM FEW005 OVC011 RMK SF2SC6=
CYQM;2005-05-17 15:00;METAR CYQM 171500Z 27003KT 15SM FEW007 BKN012 08/05 A3006 RMK SF2SC6 SLP184=
CYQM;2005-05-17 15:53;SPECI CYQM 171553Z 22005KT 15SM FEW009 BKN016 RMK SF1SC6=
CYQM;2005-05-17 16:00;METAR CYQM 171600Z 26004KT 15SM FEW009 BKN016 09/05 A3006 RMK SF1SC6 SLP183=
CYQM;2005-05-17 17:00;METAR CYQM 171700Z 22004KT 15SM FEW009 BKN016 10/05 A3006 RMK SF1SC6 SLP181=
CYQM;2005-05-17 18:00;METAR CYQM 171800Z 20007KT 15SM FEW009 BKN017 10/06 A3006 RMK SF1SC6 SLP181=
CYQM;2005-05-17 19:00;METAR CYQM 171900Z 26010KT 15SM FEW012 BKN020 11/06 A3005 RMK SC2SC6 SLP178=
CYQM;2005-05-17 21:00;METAR CYQM 172100Z 27005KT 15SM FEW012 BKN025 11/06 A3006 RMK SC1SC6 SLP181=
CYQM;2005-05-17 22:00;METAR CYQM 172200Z 05005KT 15SM BKN025 11/06 A3007 RMK SC7 SLP184=
CYQM;2005-05-18 00:00;METAR CYQM 180000Z 12006KT 15SM BKN028 09/06 A3009 RMK SC7 SLP193=
CYQM;2005-05-18 03:00;METAR CYQM 180300Z 09004KT 15SM FEW030 BKN075 08/06 A3009 RMK SC2AC6 SLP193=
CYQM;2005-05-18 04:00;METAR CYQM 180400Z 20004KT 15SM BKN038 07/06 A3010 RMK SC7 SLP196=
CYQM;2005-05-18 05:00;METAR CYQM 180500Z 18002KT 15SM BKN038 07/06 A3010 RMK SC7 SLP194=
CYQM;2005-05-18 06:00;METAR CYQM 180600Z 00000KT 15SM BKN038 07/06 A3010 RMK SC7 SLP194=
CYQM;2005-05-18 07:00;METAR CYQM 180700Z 17002KT 15SM BKN035 07/06 A3009 RMK SC7 SLP191=
CYQM;2005-05-18 10:00;METAR CYQM 181000Z 00000KT 15SM BKN035 BKN090 07/06 A3010 RMK SC7AC1 SLP196=
CYQM;2005-05-18 11:00;METAR CYQM 181100Z 06002KT 15SM BKN035 BKN090 08/06 A3012 RMK SC6AC1 SLP202=
CYQM;2005-05-18 11:45;SPECI CYQM 181145Z 10002KT 10SM -SHRA BKN025 BKN090 RMK SC6AC1=
CYQM;2005-05-18 12:00;METAR CYQM 181200Z 09002KT 15SM -SHRA BKN025 BKN090 08/08 A3013 RMK SC6AC1 VIS LWR W-NW SLP205=
CYQM;2005-05-18 13:00;METAR CYQM 181300Z 06002KT 15SM -SHRA FEW010 BKN025 OVC090 09/08 A3013 RMK CF2SC5AC2 PCPN VRY LGT SLP205=
CYQM;2005-05-18 13:17;SPECI CYQM 181317Z 00000KT 15SM BKN010 BKN025 OVC090 RMK CF5SC2AC1=
CYQM;2005-05-18 14:00;METAR CYQM 181400Z 11004KT 15SM BKN010 BKN025 OVC090 09/08 A3013 RMK CF5SC2AC1 SLP205=
CYQM;2005-05-18 15:00;METAR CYQM 181500Z 10004KT 15SM BKN012 BKN025 BKN090 11/08 A3012 RMK CU5SC1AC2 SLP202=
CYQM;2005-05-18 15:30;SPECI CYQM 181530Z 09004KT 15SM SCT015 SCT030 BKN100 RMK CU3SC1AC3=
CYQM;2005-05-18 16:00;METAR CYQM 181600Z 12002KT 15SM SCT020 BKN120 13/09 A3011 RMK CU3AC3 SLP197=
CYQM;2005-05-18 17:00;METAR CYQM 181700Z 03006KT 15SM SCT030 BKN120 BKN260 15/07 A3008 RMK CU4AC2CI1 SLP189=
CYQM;2005-05-18 19:00;METAR CYQM 181900Z 01010KT 15SM FEW030 BKN050 BKN260 13/06 A3006 RMK CU2SC4CI1 SH S-NW SLP181=
CYQM;2005-05-18 20:05;SPECI CYQM 182005Z 03007KT 15SM -SHRA FEW025 BKN040 BKN120 BKN260 RMK CU1SC5AC1CI1=
CYQM;2005-05-18 20:29;SPECI CYQM 182029Z 05006KT 15SM FEW025 BKN040 BKN120 BKN260 RMK CU1SC5AC1CI1 SHS E-NW=
CYQM;2005-05-18 22:00;METAR CYQM 182200Z 36007KT 15SM FEW030 SCT045 BKN100 BKN260 11/06 A3008 RMK CU1SC3AC2CI1 SHS SE-NW SLP188=
CYQM;2005-05-19 00:00;METAR CYQM 190000Z 05004KT 15SM FEW030 BKN060 BKN100 OVC260 09/06 A3008 RMK CU1SC5AC2CI1 SHS SW SLP187=
CYQM;2005-05-19 01:00;METAR CYQM 190100Z 03005KT 15SM FEW030 BKN060 BKN100 OVC260 08/06 A3008 RMK CU1SC5AC1CI1 SLP190=
CYQM;2005-05-19 02:22;SPECI CYQM 190222Z 04006KT 15SM FEW008 FEW035 OVC060 RMK SF1SC1SC6=
CYQM;2005-05-19 04:00;METAR CYQM 190400Z 02005KT 15SM FEW004 BKN024 OVC075 06/05 A3008 RMK SF2SC4AC2 SLP188=
CYQM;2005-05-19 04:23;SPECI CYQM 190423Z 01008KT 12SM BKN002 OVC025 RMK ST6SC2=
CYQM;2005-05-19 05:23;SPECI CYQM 190523Z 36010KT 3/4SM R29/P6000FT/D R06/P6000FT/D BR VV002 RMK FG8=
CYQM;2005-05-19 05:43;SPECI CYQM 190543Z 01008KT 1/2SM R29/6000FT/D R06/3500VP6000FT/U FG VV002 RMK FG8=
CYQM;2005-05-19 05:52;SPECI CYQM 190552Z 02010KT 3/4SM R29/5000FT/U R06/P6000FT/U BR VV003 RMK FG8=
CYQM;2005-05-19 06:48;SPECI CYQM 190648Z 03009KT 1/2SM R29/2600FT/U R06/3000FT/N FG VV002 RMK FG8=
CYQM;2005-05-19 07:00;METAR CYQM 190700Z 03006KT 3/8SM R29/3000FT/N R06/3500FT/U FG VV002 05/05 A3006 RMK FG8 SLP182=
CYQM;2005-05-19 07:28;SPECI CYQM 190728Z 03009KT 1/4SM R29/2400FT/N R06/2800FT/N FG VV001 RMK FG8=
CYQM;2005-05-19 08:00;METAR CYQM 190800Z 02009KT 1/4SM R29/2800FT/N R06/2600FT/U FG VV001 05/05 A3006 RMK FG8 SLP182=
CYQM;2005-05-19 08:05;SPECI CYQM 190805Z 03009KT 1/2SM R29/2800FT/N R06/3000FT/N FG VV003 RMK FG8=
CYQM;2005-05-19 08:53;SPECI CYQM 190853Z 03009KT 5/8SM R29/5000FT/U R06/2800FT/N BR VV003 RMK FG8=
CYQM;2005-05-19 09:50;SPECI CYQM 190950Z 01009KT 3/4SM R29/3000VP6000FT/U R06/3500V5500FT/N BR VV005 RMK FG8=
CYQM;2005-05-19 10:00;METAR CYQM 191000Z 02010KT 3/4SM R29/2200V4500FT/D R06/P6000FT/U BR VV004 04/04 A3008 RMK FG8 SLP188=
CYQM;2005-05-19 10:12;SPECI CYQM 191012Z 36007KT 1/2SM R29/1800V3500FT/N R06/4000VP6000FT/D FG VV003 RMK FG8=
CYQM;2005-05-19 11:00;METAR CYQM 191100Z 02010G15KT 3/4SM R29/2800V4500FT/D R06/3000VP6000FT/U BR VV004 04/04 A3009 RMK FG8 SLP191=
CYQM;2005-05-19 11:36;SPECI CYQM 191136Z 02008KT 1/2SM R29/2400FT/N R06/3500VP6000FT/U FG VV003 RMK FG8=
CYQM;2005-05-19 11:48;SPECI CYQM 191148Z 01009KT 3/4SM R29/2600V4000FT/U R06/P6000FT/U BR VV004 RMK FG8=
CYQM;2005-05-19 12:00;METAR CYQM 191200Z 02005KT 3/4SM R29/3500VP6000FT/U R06/P6000FT/D BR VV004 05/05 A3009 RMK FG8 SLP193=
CYQM;2005-05-19 12:42;SPECI CYQM 191242Z 01009KT 1 1/4SM BR OVC020 RMK FG6SC2=
CYQM;2005-05-19 13:00;METAR CYQM 191300Z 01009KT 1 1/2SM BR BKN002 OVC020 05/05 A3010 RMK FG5SF2SC1 VIS W 6 SLP194=
CYQM;2005-05-19 13:09;SPECI CYQM 191309Z 02010KT 6SM BR BKN004 OVC020 RMK SF7SC1 VIS E-S 11/2=
CYQM;2005-05-19 14:00;METAR CYQM 191400Z 36009KT 8SM OVC004 06/05 A3009 RMK SF8 SLP193=
CYQM;2005-05-19 14:43;SPECI CYQM 191443Z 01009KT 15SM OVC006 RMK SF8=
CYQM;2005-05-19 15:00;METAR CYQM 191500Z 35009KT 15SM BKN006 OVC015 06/05 A3008 RMK SF7SC1 SLP190=
CYQM;2005-05-19 15:35;SPECI CYQM 191535Z 35010KT 15SM OVC013 RMK SC8=
CYQM;2005-05-19 16:00;METAR CYQM 191600Z 01006KT 15SM BKN013 09/06 A3006 RMK SC7 SLP183=
CYQM;2005-05-19 16:35;SPECI CYQM 191635Z 03010KT 15SM OVC017 RMK SC8=
CYQM;2005-05-19 17:00;METAR CYQM 191700Z 02011G16KT 15SM OVC017 09/06 A3005 RMK SC8 SLP180=
CYQM;2005-05-19 18:00;METAR CYQM 191800Z 35009G16KT 15SM BKN020 10/06 A3004 RMK SC7 SLP174=
CYQM;2005-05-19 19:00;METAR CYQM 191900Z 02017KT 15SM BKN020 BKN100 10/06 A3003 RMK SC6AC1 SLP170=
CYQM;2005-05-19 20:39;SPECI CYQM 192039Z 36015KT 15SM BKN010 OVC035 RMK SC7SC1=
CYQM;2005-05-19 21:00;METAR CYQM 192100Z 02013G18KT 15SM BKN010 OVC035 08/05 A3002 RMK SC6SC2 SLP167=
CYQM;2005-05-19 21:18;SPECI CYQM 192118Z 36017KT 15SM -SHRA BKN010 OVC030 RMK SC7SC1=
CYQM;2005-05-19 22:00;METAR CYQM 192200Z 35014G19KT 12SM -RADZ OVC010 07/06 A3002 RMK SC8 VIS=
CYQM;2005-05-19 22:08;SPECI CYQM 192208Z 36014KT 2 1/2SM -RADZ BR BKN006 OVC010 RMK SF6SC2=
CYQM;2005-05-19 23:00;METAR CYQM 192300Z 36013KT 2SM -RADZ BR SCT002 BKN006 OVC010 06/05 A3002 RMK SF3SF4SC1 SLP168=
CYQM;2005-05-19 23:26;SPECI CYQM 192326Z 35010KT 2SM -DZ BR BKN002 OVC005 RMK SF6SF2=
CYQM;2005-05-19 23:31;SPECI CYQM 192331Z 35010KT 4SM BR BKN002 OVC005 RMK SF7SF1 INTMT L-=
CYQM;2005-05-19 23:45;SPECI CYQM 192345Z 35010KT 6SM BR OVC002 RMK SF8=
CYQM;2005-05-20 00:00;METAR CYQM 200000Z 35010KT 8SM BKN002 OVC004 06/05 A3002 RMK SF7SF1 SLP168=
CYQM;2005-05-20 00:10;SPECI CYQM 200010Z 35007KT 2SM -DZ BR BKN001 OVC002 RMK SF7SF1=
CYQM;2005-05-20 00:27;SPECI CYQM 200027Z 35007KT 2SM -DZ BR SCT001 OVC002 RMK SF3SF5=
CYQM;2005-05-20 00:43;SPECI CYQM 200043Z 35008KT 2SM -RADZ BR SCT001 OVC002 RMK SF3SF5=
CYQM;2005-05-20 00:53;SPECI CYQM 200053Z 35009KT 4SM -RADZ BR FEW001 BKN002 OVC004 RMK SF2SF4SF2=
CYQM;2005-05-20 01:00;METAR CYQM 200100Z 36010KT 4SM -RADZ BR FEW001 BKN002 OVC004 06/05 A3001 RMK SF2SF5SF1 SLP166=
CYQM;2005-05-20 01:24;SPECI CYQM 200124Z 34010KT 7SM -RA BKN002 OVC004 RMK SF7SF1=
CYQM;2005-05-20 02:19;SPECI CYQM 200219Z 34012KT 8SM -RA BKN003 OVC004 RMK SF6SF2=
CYQM;2005-05-20 02:49;SPECI CYQM 200249Z 33012KT 6SM -RADZ BR FEW002 BKN003 OVC005 RMK SF2SF6SF1=
CYQM;2005-05-20 04:18;SPECI CYQM 200418Z 34011G17KT 8SM -RA BKN003 OVC006 RMK SF6SF2=
CYQM;2005-05-20 05:00;METAR CYQM 200500Z 34015G21KT 10SM -RA SCT003 OVC005 05/04 A2994 RMK SF3SF5 SLP142=
CYQM;2005-05-20 07:00;METAR CYQM 200700Z 33014G19KT 12SM -RA FEW003 OVC006 05/04 A2990 RMK SF2SF6 SLP128=
CYQM;2005-05-20 11:21;SPECI CYQM 201121Z 34018G28KT 6SM -RADZ BR BKN006 OVC018 RMK SF7SC1=
CYQM;2005-05-20 12:37;SPECI CYQM 201237Z 34017G26KT 2SM -RADZ BR BKN005 OVC017 RMK SF7SC1=
CYQM;2005-05-20 13:17;SPECI CYQM 201317Z 34019G28KT 6SM -RADZ BR BKN006 OVC020 RMK SF6SC2=
CYQM;2005-05-20 13:40;SPECI CYQM 201340Z 34016G28KT 10SM -RA BKN006 OVC020 RMK SF7SC1=
CYQM;2005-05-20 14:39;SPECI CYQM 201439Z 33016G21KT 1 1/2SM -DZ BR BKN004 OVC018 RMK SF7SC1=
CYQM;2005-05-20 16:29;SPECI CYQM 201629Z 35018G24KT 3SM -DZ BR BKN004 OVC020 RMK SF7SC1=
CYQM;2005-05-20 16:45;SPECI CYQM 201645Z 35017G24KT 5SM BR BKN006 OVC020 RMK SF6SC2=
CYQM;2005-05-20 16:56;SPECI CYQM 201656Z 34017G25KT 2SM -DZ BR BKN005 OVC020 RMK SF7SC1=
CYQM;2005-05-20 17:25;SPECI CYQM 201725Z 33016KT 5SM -RADZ BR BKN005 OVC020 RMK SF6SC2=
CYQM;2005-05-20 17:50;SPECI CYQM 201750Z 33019G24KT 8SM -RA BKN006 OVC020 RMK SF6SC2=
CYQM;2005-05-20 18:24;SPECI CYQM 201824Z 32018G25KT 15SM BKN008 OVC022 RMK SC7SC1=
CYQM;2005-05-20 21:53;SPECI CYQM 202153Z 33016KT 6SM -DZ BR OVC007 RMK SC8=
CYQM;2005-05-20 23:36;SPECI CYQM 202336Z 31010G16KT 10SM OVC006 RMK SF8=
CYQM;2005-05-21 00:25;SPECI CYQM 210025Z 31011KT 7SM -DZ OVC005 RMK SF8=
CYQM;2005-05-21 00:51;SPECI CYQM 210051Z 30011KT 12SM OVC006 RMK SF8=
CYQM;2005-05-21 03:39;SPECI CYQM 210339Z 32014KT 12SM -DZ OVC007 RMK SF8=
CYQM;2005-05-21 05:32;SPECI CYQM 210532Z 33011KT 12SM OVC006 RMK SF8=
CYQM;2005-05-21 06:14;SPECI CYQM 210614Z 33012KT 10SM -DZ OVC006 RMK SF8=
CYQM;2005-05-21 07:38;SPECI CYQM 210738Z 33007KT 4SM -DZ BR OVC004 RMK SF8=
CYQM;2005-05-21 07:47;SPECI CYQM 210747Z 32007KT 2 1/2SM -DZ BR OVC004 RMK SF8=
CYQM;2005-05-21 08:22;SPECI CYQM 210822Z 32007KT 5SM -DZ BR OVC004 RMK SF8=
CYQM;2005-05-21 08:54;SPECI CYQM 210854Z 34009G15KT 2 1/2SM -DZ BR OVC002 RMK SF8=
CYQM;2005-05-21 09:26;SPECI CYQM 210926Z 34013KT 1 1/4SM BR OVC002 RMK SF8=
CYQM;2005-05-21 10:21;SPECI CYQM 211021Z 34011KT 1 1/4SM BR OVC001 RMK SF8=
CYQM;2005-05-21 11:34;SPECI CYQM 211134Z 34010KT 4SM BR OVC003 RMK ST8=
CYQM;2005-05-21 12:12;SPECI CYQM 211212Z 36008KT 1 1/2SM -DZ BR OVC003 RMK ST8=
CYQM;2005-05-21 12:52;SPECI CYQM 211252Z 36007KT 1 1/2SM -DZ BR OVC004 RMK ST8=
CYQM;2005-05-21 13:37;SPECI CYQM 211337Z 34009KT 3SM -DZ BR BKN005 OVC030 RMK SF7SC1=
CYQM;2005-05-21 14:21;SPECI CYQM 211421Z 36010KT 12SM OVC005 RMK SC8=
CYQM;2005-05-21 15:46;SPECI CYQM 211546Z 01011KT 15SM OVC008 RMK SC8=
CYQM;2005-05-21 16:00;METAR CYQM 211600Z 02016KT 15SM OVC008 08/05 A3003 RMK SC8 SLP173=
CYQM;2005-05-21 16:44;SPECI CYQM 211644Z 03016KT 3SM -DZ BR BKN006 OVC010 RMK SF6SC2=
CYQM;2005-05-21 17:00;METAR CYQM 211700Z 02016KT 8SM OVC006 07/06 A3005 RMK SF8 SLP178=
CYQM;2005-05-21 18:00;METAR CYQM 211800Z 01018KT 8SM BKN009 08/06 A3005 RMK SC7 SLP178=
CYQM;2005-05-21 21:00;METAR CYQM 212100Z 01012G18KT 7SM FEW006 OVC011 07/05 A3008 RMK SF2SC6 SLP188=
CYQM;2005-05-21 22:00;METAR CYQM 212200Z 03011G17KT 6SM BR FEW006 OVC011 06/04 A3008 RMK SF2SC6 SLP191=
CYQM;2005-05-21 22:41;SPECI CYQM 212241Z 01014G20KT 4SM BR BKN006 OVC012 RMK SF6SC2=
CYQM;2005-05-21 23:00;METAR CYQM 212300Z 02014KT 4SM BR BKN006 OVC012 05/04 A3009 RMK SF6SC2 SLP192=
CYQM;2005-05-21 23:29;SPECI CYQM 212329Z 03011KT 3SM BR BKN005 OVC012 RMK SF6SC2=
CYQM;2005-05-21 23:41;SPECI CYQM 212341Z 03009KT 2 1/2SM BR BKN005 OVC012 RMK SF6SC2=
CYQM;2005-05-21 23:57;SPECI CYQM 212357Z 03012KT 4SM BR BKN005 OVC012 RMK SF6SC2=
CYQM;2005-05-22 00:00;METAR CYQM 220000Z 03011KT 4SM BR BKN005 OVC012 05/04 A3010 RMK SF6SC2 SLP196=
CYQM;2005-05-22 00:32;SPECI CYQM 220032Z 02011KT 5SM BR BKN004 OVC012 RMK SF6SC2=
CYQM;2005-05-22 01:00;METAR CYQM 220100Z 02010G15KT 5SM BR BKN004 OVC012 05/04 A3010 RMK SF6SC2 SLP195=
CYQM;2005-05-22 03:00;METAR CYQM 220300Z 04010KT 7SM BKN004 OVC012 04/03 A3010 RMK SF6SC2 SLP195=
CYQM;2005-05-22 04:00;METAR CYQM 220400Z 04009KT 5SM BR BKN004 OVC012 04/04 A3008 RMK SF6SC2 SLP191=
CYQM;2005-05-22 05:00;METAR CYQM 220500Z 04010G16KT 8SM OVC004 04/04 A3007 RMK SF8 SLP186=
CYQM;2005-05-22 06:00;METAR CYQM 220600Z 04012KT 8SM OVC004 04/04 A3005 RMK ST8 SLP179=
CYQM;2005-05-22 07:41;SPECI CYQM 220741Z 03016KT 10SM -SHRA SCT004 OVC007 RMK SF3SF5=
CYQM;2005-05-22 08:00;METAR CYQM 220800Z 04013KT 10SM -SHRA SCT004 OVC007 05/04 A3002 RMK SF3SF5 SLP168=
CYQM;2005-05-22 08:44;SPECI CYQM 220844Z 04013G24KT 7SM -SHRA BKN004 OVC008 RMK SF6SC2=
CYQM;2005-05-22 09:34;SPECI CYQM 220934Z 05016KT 3SM -SHRA BR BKN003 OVC008 RMK SF7SC1=
CYQM;2005-05-22 10:00;METAR CYQM 221000Z 05015G21KT 2SM -RA BR BKN003 OVC008 05/05 A3002 RMK SF7SC1 SLP167=
CYQM;2005-05-22 11:00;METAR CYQM 221100Z 06014G22KT 1 1/2SM RA BR BKN004 OVC010 06/05 A3001 RMK SF7SC1 BLN EST SLP166=
CYQM;2005-05-22 12:00;METAR CYQM 221200Z 06015G22KT 1 1/2SM RA BR BKN005 OVC010 06/05 A3002 RMK SF7SC1 SLP170=
CYQM;2005-05-22 12:24;SPECI CYQM 221224Z 05015G22KT 1 1/2SM RA BR BKN004 OVC010 RMK SF7SC1=
CYQM;2005-05-22 12:52;SPECI CYQM 221252Z 05015G24KT 1 1/4SM RA BR BKN004 OVC011 RMK SF7SC1=
CYQM;2005-05-22 13:28;SPECI CYQM 221328Z 06022KT 1SM R06/6000FT/N R29/P6000FT/U +RA BR BKN004 OVC011 RMK SF7SC1 CIG RAG=
CYQM;2005-05-22 14:00;METAR CYQM 221400Z 05023G31KT 1 1/4SM +RA BR BKN004 OVC011 07/06 A3000 RMK SF7SC1 /R19/ SLP161=
CYQM;2005-05-22 14:42;SPECI CYQM 221442Z 06016G27KT 1 1/4SM +RA BR BKN003 OVC011 RMK SF6SC2=
CYQM;2005-05-22 15:52;SPECI CYQM 221552Z 06021G29KT 1 1/2SM +RA BR BKN005 OVC012 RMK SF6SC2=
CYQM;2005-05-22 16:00;METAR CYQM 221600Z 07023G31KT 3SM +RA BR BKN005 OVC012 07/07 A3000 RMK SF6SC2 /R42/ SLP160=
CYQM;2005-05-22 16:37;SPECI CYQM 221637Z 07029G35KT 1 1/4SM RA BR BKN004 OVC020 RERA RMK SF6SC2=
CYQM;2005-05-22 17:00;METAR CYQM 221700Z 07027G37KT 1 1/4SM RA BR BKN005 OVC020 08/07 A2998 RERA RMK SF6SC2 SLP155=
CYQM;2005-05-22 18:00;METAR CYQM 221800Z 07025G31KT 2SM RA BR OVC006 08/07 A2997 RMK SF8 /R52/ SLP153=
CYQM;2005-05-22 19:00;METAR CYQM 221900Z 07021G29KT 1 1/2SM RA BR BKN005 OVC020 08/08 A2998 RMK SF6SC2 SLP154=
CYQM;2005-05-22 19:37;SPECI CYQM 221937Z 07019G29KT 8SM +RA BKN005 OVC020 RMK SF6SC2=
CYQM;2005-05-22 20:20;SPECI CYQM 222020Z 07018G27KT 1 1/2SM RA BR BKN005 OVC020 RMK SF6SC2=
CYQM;2005-05-22 20:53;SPECI CYQM 222053Z 06015G27KT 7SM -RA SCT005 OVC012 RERA RMK SF4SC4=
CYQM;2005-05-22 21:00;METAR CYQM 222100Z 07018G25KT 7SM -RA SCT005 OVC012 07/07 A2999 RERA RMK SF4SC4 SLP158=
CYQM;2005-05-22 22:00;METAR CYQM 222200Z 07013G21KT 8SM -RA SCT005 OVC012 07/05 A3000 RMK SF3SC5 SLP162=
CYQM;2005-05-22 23:00;METAR CYQM 222300Z 07015KT 7SM -RA SCT005 OVC012 07/05 A3001 RMK SF3SC5 SLP166=
CYQM;2005-05-23 00:00;METAR CYQM 230000Z 06014G20KT 7SM -RA SCT005 OVC012 07/04 A3002 RMK SF3SC5 SLP167=
CYQM;2005-05-23 01:21;SPECI CYQM 230121Z 05017KT 2 1/2SM RA BR FEW007 OVC012 RMK SF2SC6=
CYQM;2005-05-23 01:53;SPECI CYQM 230153Z 06014G21KT 7SM -RA BKN006 OVC012 RERA RMK SF5SC3=
CYQM;2005-05-23 02:00;METAR CYQM 230200Z 06016KT 7SM -RA BKN007 OVC012 06/04 A3000 RERA RMK SF5SC3 SLP162=
CYQM;2005-05-23 04:00;METAR CYQM 230400Z 07014G24KT 10SM -RA BKN008 OVC015 06/03 A2998 RMK SF5SC3 SLP155=
CYQM;2005-05-23 06:00;METAR CYQM 230600Z 06014KT 10SM -RA BKN008 OVC015 06/02 A2997 RMK SF5SC3 /R10/ SLP150=
CYQM;2005-05-23 09:00;METAR CYQM 230900Z 06012KT 12SM -SHRA BKN005 OVC012 06/03 A2997 RMK SF7SC1 SLP151=
CYQM;2005-05-23 09:21;SPECI CYQM 230921Z 06006KT 15SM BKN005 OVC012 RMK SF7SC1=
CYQM;2005-05-23 09:36;SPECI CYQM 230936Z 06012G18KT 8SM -SHRA OVC005 RMK SF8=
CYQM;2005-05-23 10:00;METAR CYQM 231000Z 07009G21KT 15SM OVC005 06/02 A2999 RMK SF8 SLP157=
CYQM;2005-05-23 10:07;SPECI CYQM 231007Z 07010G15KT 15SM -SHRA OVC005 RMK SF8=
CYQM;2005-05-23 10:37;SPECI CYQM 231037Z 06012G20KT 15SM BKN005 OVC012 RMK SF7SC1=
CYQM;2005-05-23 12:00;METAR CYQM 231200Z 07017G25KT 15SM BKN006 BKN120 BKN250 07/03 A2999 RMK SF5AC1CI1 SLP159=
CYQM;2005-05-23 13:00;METAR CYQM 231300Z 07020KT 15SM BKN008 BKN220 08/03 A3000 RMK SF5CI2 SLP162=
CYQM;2005-05-23 14:00;METAR CYQM 231400Z 05018KT 15SM BKN009 BKN220 08/03 A3000 RMK SC6CI2 SLP163=
CYQM;2005-05-23 14:34;SPECI CYQM 231434Z 04016G22KT 15SM BKN010 BKN220 RMK SC6CI1=
CYQM;2005-05-23 15:00;METAR CYQM 231500Z 07013G22KT 15SM BKN010 BKN130 BKN220 09/04 A3000 RMK SC6AC1CI1 SLP163=
CYQM;2005-05-23 15:44;SPECI CYQM 231544Z 06015G22KT 15SM BKN015 BKN130 BKN250 RMK SC5AC1CI2=
CYQM;2005-05-23 16:00;METAR CYQM 231600Z 06016G26KT 15SM BKN016 BKN130 BKN250 11/04 A3000 RMK SC5AC2CI1 SLP160=
CYQM;2005-05-23 17:00;METAR CYQM 231700Z 03018G29KT 15SM FEW023 SCT130 BKN250 11/05 A2999 RMK CU2AC2CI2 SLP158=
CYQM;2005-05-23 18:00;METAR CYQM 231800Z 05016G25KT 15SM FEW027 SCT130 BKN250 11/05 A2999 RMK CU2AC2CI2 SLP159=
CYQM;2005-05-23 19:00;METAR CYQM 231900Z 04015G22KT 15SM FEW028 SCT130 BKN250 11/04 A2999 RMK CU2AC1CI3 SLP158=
CYQM;2005-05-23 20:00;METAR CYQM 232000Z 03017KT 15SM FEW030 FEW130 BKN250 11/04 A3000 RMK CU1AC1CI4 SLP160=
CYQM;2005-05-23 21:00;METAR CYQM 232100Z 03017G24KT 15SM FEW030 SCT130 BKN250 10/03 A3000 RMK CU1AC3CI3 SLP162=
CYQM;2005-05-23 22:00;METAR CYQM 232200Z 04012G20KT 15SM FEW030 FEW070 BKN120 BKN250 09/02 A3000 RMK CU1AC2AC3CI2 ACC ASOCTD SLP162=
CYQM;2005-05-24 00:00;METAR CYQM 240000Z 04009KT 15SM FEW030 BKN070 BKN100 BKN250 08/02 A3002 RMK SC1AC4AC1CI2 SLP167=
CYQM;2005-05-24 01:00;METAR CYQM 240100Z 03009KT 15SM SCT100 BKN250 07/02 A3003 RMK AC4CI2 SLP171=
CYQM;2005-05-24 02:00;METAR CYQM 240200Z 05007KT 15SM SCT100 BKN250 06/01 A3004 RMK AC4CI2 SLP175=
CYQM;2005-05-24 04:00;METAR CYQM 240400Z 08012KT 15SM BKN100 06/00 A3007 RMK AC5 SLP185=
CYQM;2005-05-24 05:00;METAR CYQM 240500Z 06011KT 15SM SCT015 BKN100 06/00 A3006 RMK SC3AC2 SLP183=
CYQM;2005-05-24 07:00;METAR CYQM 240700Z 07012KT 15SM OVC012 05/M00 A3006 RMK SC8 SLP182=
CYQM;2005-05-24 10:00;METAR CYQM 241000Z 06015G21KT 15SM OVC012 05/M01 A3009 RMK SC8 SLP191=
CYQM;2005-05-24 11:00;METAR CYQM 241100Z 06013G19KT 15SM OVC011 05/M01 A3010 RMK SC8 SLP196=
CYQM;2005-05-24 12:00;METAR CYQM 241200Z 08015G22KT 15SM OVC011 06/M01 A3013 RMK SC8 SLP206=
CYQM;2005-05-24 13:00;METAR CYQM 241300Z 07014G22KT 15SM OVC012 06/03 A3014 RMK SC8 SLP208=
CYQM;2005-05-24 14:00;METAR CYQM 241400Z 07012G19KT 15SM OVC012 07/03 A3014 RMK SC8 SLP211=
CYQM;2005-05-24 15:00;METAR CYQM 241500Z 05012G20KT 15SM OVC015 08/03 A3014 RMK SC8 SLP210=
CYQM;2005-05-24 16:00;METAR CYQM 241600Z 05015G21KT 15SM BKN017 OVC030 08/04 A3014 RMK SC6SC2 SLP211=
CYQM;2005-05-24 17:00;METAR CYQM 241700Z 05013G22KT 15SM BKN020 BKN250 09/05 A3014 RMK SC6CI1 SLP210=
CYQM;2005-05-24 20:00;METAR CYQM 242000Z 04012G17KT 15SM BKN020 BKN030 BKN250 09/05 A3014 RMK CU6SC1CI1 SLP209=
CYQM;2005-05-24 21:00;METAR CYQM 242100Z 03016G21KT 15SM BKN030 BKN120 BKN250 10/05 A3014 RMK SC5AC1CI1 SLP208=
CYQM;2005-05-24 22:00;METAR CYQM 242200Z 03012G17KT 15SM FEW012 SCT025 BKN250 08/05 A3014 RMK CU1SC3CI2 SLP209=
CYQM;2005-05-24 23:00;METAR CYQM 242300Z 04010KT 15SM FEW012 FEW025 BKN250 08/05 A3014 RMK CU1SC1CI2 SLP210=
CYQM;2005-05-25 00:00;METAR CYQM 250000Z 04009KT 15SM FEW012 FEW025 SCT250 07/05 A3014 RMK CU1SC1CI2 SLP211=
CYQM;2005-05-25 02:00;METAR CYQM 250200Z 05008KT 15SM FEW025 05/04 A3014 RMK SC1 SLP211=
CYQM;2005-05-25 04:00;METAR CYQM 250400Z 07012KT 15SM BKN020 06/04 A3015 RMK SC6 SLP212=
CYQM;2005-05-25 05:00;METAR CYQM 250500Z 08015KT 15SM OVC015 06/03 A3015 RMK SC8 SLP213=
CYQM;2005-05-25 07:00;METAR CYQM 250700Z 06011KT 15SM OVC018 05/03 A3014 RMK SC8 SLP208=
CYQM;2005-05-25 08:35;SPECI CYQM 250835Z 07014KT 12SM FEW009 OVC016 RMK SF2SC6=
CYQM;2005-05-25 10:00;METAR CYQM 251000Z 08011G22KT 12SM FEW009 OVC017 05/02 A3016 RMK SF2SC6 SLP217=
CYQM;2005-05-25 12:00;METAR CYQM 251200Z 06012KT 15SM FEW012 BKN020 06/03 A3017 RMK SC2SC6 SLP220=
CYQM;2005-05-25 13:00;METAR CYQM 251300Z 05009G16KT 15SM FEW012 BKN018 06/03 A3019 RMK SC2SC6 SLP225=
CYQM;2005-05-25 16:00;METAR CYQM 251600Z 07012G20KT 15SM SCT020 BKN250 10/05 A3018 RMK CU3CI2 SLP224=
CYQM;2005-05-25 17:00;METAR CYQM 251700Z 06012G17KT 15SM FEW020 BKN120 BKN250 11/05 A3018 RMK CU2AC3CI1 SLP222=
CYQM;2005-05-25 19:00;METAR CYQM 251900Z 03015G20KT 15SM FEW030 SCT150 BKN250 12/05 A3016 RMK CU1AC2CI2 SLP214=
CYQM;2005-05-25 20:00;METAR CYQM 252000Z 03012G20KT 15SM FEW030 FEW130 BKN250 12/05 A3015 RMK CU1AC2CI2 SLP212=
CYQM;2005-05-25 21:00;METAR CYQM 252100Z 04012G18KT 15SM FEW030 BKN130 BKN260 12/04 A3015 RMK CU1AC5CI1 SLP212=
CYQM;2005-05-25 23:00;METAR CYQM 252300Z 04013KT 15SM BKN120 BKN260 09/03 A3015 RMK AC5CI1 SLP213=
CYQM;2005-05-26 00:00;METAR CYQM 260000Z 04011KT 15SM SCT140 BKN260 08/03 A3015 RMK AC3CI2 CONTRAILS SLP212=
CYQM;2005-05-26 01:00;METAR CYQM 260100Z 05007KT 15SM FEW140 BKN260 07/03 A3014 RMK AC2CI2 SLP209=
CYQM;2005-05-26 02:00;METAR CYQM 260200Z 05009KT 15SM FEW120 BKN260 07/03 A3013 RMK AC2CI1 SLP206=
CYQM;2005-05-26 03:00;METAR CYQM 260300Z 05010KT 15SM FEW120 BKN260 07/02 A3013 RMK AC2CI1 SLP204=
CYQM;2005-05-26 04:00;METAR CYQM 260400Z 05009KT 15SM FEW040 BKN120 BKN260 06/M00 A3012 RMK SC1AC4CI1 SLP203=
CYQM;2005-05-26 06:00;METAR CYQM 260600Z 06010G15KT 15SM FEW020 BKN034 BKN260 06/02 A3010 RMK SC1SC7CI1 SLP194=
CYQM;2005-05-26 07:00;METAR CYQM 260700Z 05009KT 15SM -SHRA FEW030 BKN050 06/03 A3008 RMK SC2SC5 SLP190=
CYQM;2005-05-26 07:46;SPECI CYQM 260746Z 05009KT 15SM BKN035 RMK SC7=
CYQM;2005-05-26 08:00;METAR CYQM 260800Z 05010KT 15SM -SHRA BKN032 06/04 A3008 RMK SC7 SLP189=
CYQM;2005-05-26 08:20;SPECI CYQM 260820Z 05011KT 15SM BKN032 RMK SC7=
CYQM;2005-05-26 09:00;METAR CYQM 260900Z 06012KT 12SM BKN030 BKN250 06/04 A3008 RMK SC6CI1 SLP188=
CYQM;2005-05-26 09:04;SPECI CYQM 260904Z 05011KT 12SM -SHRA BKN030 BKN250 RMK SC6CI1=
CYQM;2005-05-26 10:00;METAR CYQM 261000Z 05010KT 12SM -SHRA BKN030 OVC100 05/04 A3008 RMK SC5AC3 SLP187=
CYQM;2005-05-26 10:31;SPECI CYQM 261031Z 06011KT 6SM -SHRA BR FEW008 BKN020 OVC100 RMK SF2SC3AC3=
CYQM;2005-05-26 11:00;METAR CYQM 261100Z 06012KT 4SM -SHRA BR FEW008 BKN020 OVC100 05/05 A3007 RMK SF2SC3AC3 SLP186=
CYQM;2005-05-26 11:37;SPECI CYQM 261137Z 05009KT 2 1/2SM -SHRA BR FEW008 BKN020 OVC100 RMK SF2SC3AC3=
CYQM;2005-05-26 11:42;SPECI CYQM 261142Z 05010KT 1 1/2SM -SHRA BR SCT005 BKN012 OVC020 RMK SF3SC3SC2=
CYQM;2005-05-26 11:46;SPECI CYQM 261146Z 05008KT 1 1/4SM -SHRA BR BKN005 OVC012 RMK SF6SC2=
CYQM;2005-05-26 11:51;SPECI CYQM 261151Z 05008KT 2SM -SHRA BR BKN005 OVC012 RMK SF6SC2=
CYQM;2005-05-26 12:00;METAR CYQM 261200Z 06010KT 2SM -SHRA BR BKN005 OVC012 06/06 A3008 RMK SF6SC2 SLP190=
CYQM;2005-05-26 12:10;SPECI CYQM 261210Z 06009KT 1 1/2SM -RADZ BR BKN005 OVC012 RMK SF6SC2=
CYQM;2005-05-26 13:00;METAR CYQM 261300Z 05011G17KT 2SM -RADZ BR BKN005 OVC012 06/06 A3007 RMK SF6SC2 SLP186=
CYQM;2005-05-26 13:23;SPECI CYQM 261323Z 05011KT 1 1/4SM -RADZ BR BKN005 OVC012 RMK SF6SC2=
CYQM;2005-05-26 13:26;SPECI CYQM 261326Z 05011KT 2 1/2SM -RADZ BR BKN005 OVC012 RMK SF6SC2=
CYQM;2005-05-26 14:00;METAR CYQM 261400Z 06014G19KT 3SM -RADZ BR BKN005 OVC012 07/06 A3006 RMK SF6SC2 SLP180=
CYQM;2005-05-26 14:53;SPECI CYQM 261453Z 06012G18KT 6SM -DZ BR BKN004 OVC012 RMK SF6SC2=
CYQM;2005-05-26 15:00;METAR CYQM 261500Z 06011G17KT 6SM -DZ BR BKN004 OVC012 08/07 A3005 RMK SF6SC2 SLP177=
CYQM;2005-05-26 15:28;SPECI CYQM 261528Z 05013G24KT 6SM BR BKN004 OVC012 RMK SF6SC2=
CYQM;2005-05-26 16:00;METAR CYQM 261600Z 04014KT 6SM BR BKN004 OVC012 07/07 A3003 RMK SF6SC2 SLP170=
CYQM;2005-05-26 16:09;SPECI CYQM 261609Z 03014KT 5SM -SHRA BR BKN004 OVC012 RMK SF6SC2=
CYQM;2005-05-26 16:50;SPECI CYQM 261650Z 04014KT 7SM BKN005 OVC012 RMK SF6SC2=
CYQM;2005-05-26 17:00;METAR CYQM 261700Z 04012G18KT 7SM BKN005 OVC012 07/07 A3001 RMK SF6SC2 SLP164=
CYQM;2005-05-26 17:45;SPECI CYQM 261745Z 04013KT 1 1/2SM -DZ BR BKN005 OVC012 RMK SF6SC2=
CYQM;2005-05-26 18:00;METAR CYQM 261800Z 04013G18KT 2 1/2SM -DZ BR BKN005 OVC012 08/07 A2998 RMK SF6SC2 SLP156=
CYQM;2005-05-26 18:05;SPECI CYQM 261805Z 04011G17KT 7SM -DZ BKN005 OVC012 RMK SF6SC2=
CYQM;2005-05-26 19:00;METAR CYQM 261900Z 04013KT 1 1/4SM -RADZ BR BKN005 OVC012 07/07 A2997 RMK SF6SC2 SLP150=
CYQM;2005-05-26 19:10;SPECI CYQM 261910Z 04011G16KT 3SM -RADZ BR BKN005 OVC011 RMK SF5SC3=
CYQM;2005-05-26 20:00;METAR CYQM 262000Z 04010KT 3SM -DZ BR BKN005 OVC011 08/08 A2994 RMK SF7SC1 SLP142=
CYQM;2005-05-26 20:45;SPECI CYQM 262045Z 05010G17KT 4SM BR BKN006 OVC015 RMK SF7SC1=
CYQM;2005-05-26 21:00;METAR CYQM 262100Z 05011KT 5SM BR BKN007 OVC020 09/08 A2991 RMK SF7SC1 SLP132=
CYQM;2005-05-26 21:37;SPECI CYQM 262137Z 05012KT 8SM -SHRA BKN007 OVC020 RMK SC7SC1=
CYQM;2005-05-26 22:00;METAR CYQM 262200Z 04010G17KT 3SM -SHRA BR FEW004 BKN007 OVC020 10/09 A2989 RMK SF2SC6SC1 SLP126=
CYQM;2005-05-26 22:26;SPECI CYQM 262226Z 04009KT 1 1/2SM SHRA BR BKN007 OVC018 RMK SF7SC1=
CYQM;2005-05-26 23:00;METAR CYQM 262300Z 05009KT 1 1/2SM SHRA BR BKN007 OVC020 10/10 A2988 RMK SF7SC1 SLP122=
CYQM;2005-05-26 23:24;SPECI CYQM 262324Z 04009G15KT 2SM -SHRA BR BKN006 OVC018 RERA RMK SF7SC1=
CYQM;2005-05-27 00:00;METAR CYQM 270000Z 04010KT 2SM SHRA BR BKN006 OVC018 09/09 A2986 RMK SF7SC1 SLP115=
CYQM;2005-05-27 00:33;SPECI CYQM 270033Z 04011G16KT 4SM RA BR BKN006 BKN009 OVC017 RMK SF6SF1SC1=
CYQM;2005-05-27 01:27;SPECI CYQM 270127Z 05013G18KT 8SM -RA BKN004 BKN006 OVC009 RMK SF5SF2SC2 CIG RAG=
CYQM;2005-05-27 01:50;SPECI CYQM 270150Z 06015G24KT 8SM -RA BKN006 OVC011 RMK SF7SC1=
CYQM;2005-05-27 02:00;METAR CYQM 270200Z 06013G19KT 8SM -RA BKN006 OVC011 10/09 A2983 RMK SF7SC1 SLP104=
CYQM;2005-05-27 03:00;METAR CYQM 270300Z 06014G21KT 5SM -RA BR OVC007 09/09 A2979 RMK SF8 SLP089=
CYQM;2005-05-27 03:14;SPECI CYQM 270314Z 05011G20KT 2 1/2SM +RA BR OVC007 RMK SF8=
CYQM;2005-05-27 03:49;SPECI CYQM 270349Z 05009G15KT 4SM RA BR BKN004 OVC007 RERA RMK SF6SC2=
CYQM;2005-05-27 04:00;METAR CYQM 270400Z 04008KT 8SM +RA BKN004 OVC007 09/09 A2978 RMK SF6SC2 /R12/ SLP087=
CYQM;2005-05-27 04:28;SPECI CYQM 270428Z 06008KT 8SM -RA OVC003 RERA RMK SF8=
CYQM;2005-05-27 05:27;SPECI CYQM 270527Z 05013KT 8SM -DZ OVC005 RMK SF8=
CYQM;2005-05-27 06:00;METAR CYQM 270600Z 08015KT 4SM -DZ BR OVC005 09/09 A2974 RMK ST8 SLP072=
CYQM;2005-05-27 06:32;SPECI CYQM 270632Z 06009G17KT 2 1/2SM -DZ BR OVC004 RMK ST8 CIG RAG=
CYQM;2005-05-27 07:00;METAR CYQM 270700Z 05010G15KT 8SM -SHRA OVC002 09/09 A2971 RMK ST8 SLP064=
CYQM;2005-05-27 07:28;SPECI CYQM 270728Z 05010KT 8SM OVC004 RMK ST8=
CYQM;2005-05-27 08:34;SPECI CYQM 270834Z 06009KT 1 1/2SM -DZ BR OVC003 RMK ST8=
CYQM;2005-05-27 08:49;SPECI CYQM 270849Z 05005KT 1 1/2SM -DZ BR OVC004 RMK ST8=
CYQM;2005-05-27 09:00;METAR CYQM 270900Z 05006KT 1 1/2SM -DZ BR OVC004 09/09 A2970 RMK ST8 SLP061=
CYQM;2005-05-27 09:05;SPECI CYQM 270905Z 05006KT 1SM R06/P6000FT/D R29/P6000FT/U -DZ BR OVC004 RMK ST8=
CYQM;2005-05-27 10:00;METAR CYQM 271000Z 05006KT 1SM R06/P6000FT/N R29/P6000FT/N -DZ BR OVC004 09/09 A2970 RMK ST8 SLP060=
CYQM;2005-05-27 10:33;SPECI CYQM 271033Z 02004KT 3/4SM R06/5500FT/D R29/6000FT/N -DZ BR VV004 RMK FG8=
CYQM;2005-05-27 10:53;SPECI CYQM 271053Z 01005KT 5/8SM R06/3000FT/N R29/P6000FT/U BR VV003 RMK FG8=
CYQM;2005-05-27 11:00;METAR CYQM 271100Z 02007KT 1/2SM R06/3000FT/N R29/P6000FT/U FG VV002 08/08 A2970 RMK FG8 SLP059=
CYQM;2005-05-27 11:29;SPECI CYQM 271129Z 36006KT 1/4SM R06/2200FT/N R29/3000FT/D FG VV001 RMK FG8=
CYQM;2005-05-27 12:00;METAR CYQM 271200Z 02008KT 1/4SM R06/2800FT/U R29/2400FT/N FG VV001 08/08 A2971 RMK FG8 SLP062=
CYQM;2005-05-27 12:34;SPECI CYQM 271234Z 01007KT 3/8SM R06/4000FT/D R29/2800FT/D -DZ FG VV002 RMK FG8=
CYQM;2005-05-27 13:00;METAR CYQM 271300Z 02011KT 3/8SM R06/2800FT/N R29/2200FT/N -DZ FG VV002 09/09 A2970 RMK FG8 SLP058=
CYQM;2005-05-27 13:40;SPECI CYQM 271340Z 02009KT 3/4SM R06/6000FT/N R29/4000V5500FT/U BR VV004 RMK FG8=
CYQM;2005-05-27 14:00;METAR CYQM 271400Z 03009KT 3/4SM R06/P6000FT/N R29/4000V5500FT/D BR VV004 09/09 A2970 RMK FG8 SLP059=
CYQM;2005-05-27 14:08;SPECI CYQM 271408Z 02009KT 5/8SM R06/P6000FT/D R29/3500FT/D BR VV003 RMK FG8=
CYQM;2005-05-27 15:00;METAR CYQM 271500Z 01010KT 5/8SM R06/5500FT/U R29/3500FT/N BR VV003 09/09 A2970 RMK FG8 SLP059=
CYQM;2005-05-27 15:20;SPECI CYQM 271520Z 02010KT 3/4SM R06/6000FT/U R29/5000FT/N BR VV004 RMK FG8=
CYQM;2005-05-27 15:45;SPECI CYQM 271545Z 03009KT 1SM R06/P6000FT/N R29/5500FT/U BR OVC004 RMK FG6SF2=
CYQM;2005-05-27 16:00;METAR CYQM 271600Z 35010KT 1SM R06/P6000FT/D R29/5500FT/D BR OVC004 10/10 A2970 RMK FG6SF2 SLP059=
CYQM;2005-05-27 16:33;SPECI CYQM 271633Z 35010KT 5/8SM R06/3500V5000FT/D R29/4000V5500FT/N BR VV003 RMK FG8=
CYQM;2005-05-27 16:46;SPECI CYQM 271646Z 36010KT 1SM R06/4000VP6000FT/U R29/5500FT/U BR OVC012 RMK FG6SC2=
CYQM;2005-05-27 17:00;METAR CYQM 271700Z 01010KT 1SM R06/P6000FT/D R29/5000FT/N BR OVC012 10/10 A2969 RMK FG7SC1 SLP057=
CYQM;2005-05-27 17:22;SPECI CYQM 271722Z 03010KT 1SM R06/P6000FT/U R29/5500FT/D BR BKN003 OVC012 RMK FG6SF2SC1=
CYQM;2005-05-27 17:34;SPECI CYQM 271734Z 02010KT 2 1/2SM BR OVC003 RMK FG2SF6=
CYQM;2005-05-27 17:43;SPECI CYQM 271743Z 36007KT 4SM BR OVC003 RMK SF8=
CYQM;2005-05-27 18:00;METAR CYQM 271800Z 36011KT 6SM BR OVC003 10/10 A2969 RMK SF8 SLP056=
CYQM;2005-05-27 18:33;SPECI CYQM 271833Z 36009KT 4SM BR OVC004 RMK SF8=
CYQM;2005-05-27 19:00;METAR CYQM 271900Z 36013KT 4SM BR OVC004 11/10 A2967 RMK SF8 SLP051=
CYQM;2005-05-27 20:00;METAR CYQM 272000Z 02011KT 5SM BR OVC004 10/09 A2969 RMK SF8 SLP057=
CYQM;2005-05-27 20:19;SPECI CYQM 272019Z 34012KT 4SM -DZ BR OVC003 RMK SF8=
CYQM;2005-05-27 20:44;SPECI CYQM 272044Z 35011KT 1 1/2SM -DZ BR OVC002 RMK SF8=
CYQM;2005-05-27 20:47;SPECI CYQM 272047Z 34011KT 1 1/4SM -DZ BR OVC001 RMK SF8=
CYQM;2005-05-27 21:00;METAR CYQM 272100Z 33013KT 1 1/4SM BR OVC001 09/09 A2968 RMK SF8 INTMT -DZ SLP054=
CYQM;2005-05-27 21:11;SPECI CYQM 272111Z 33011G16KT 1SM R29/P6000FT/N R06/P6000FT/U BR OVC001 RMK SF8=
CYQM;2005-05-27 21:21;SPECI CYQM 272121Z 34012KT 3/4SM R29/P6000FT/N R06/4500VP6000FT/D BR OVC001 RMK SF8=
CYQM;2005-05-27 21:38;SPECI CYQM 272138Z 33011KT 1SM R29/P6000FT/U R06/P6000FT/D BR OVC001 RMK SF8=
CYQM;2005-05-27 21:47;SPECI CYQM 272147Z 34010KT 3/4SM R29/P6000FT/N R06/P6000FT/U BR OVC001 RMK SF8=
CYQM;2005-05-27 22:00;METAR CYQM 272200Z 34010KT 3/4SM R29/4000VP6000FT/D R06/4500VP6000FT/D BR OVC001 08/08 A2969 RMK SF8 SLP057=
CYQM;2005-05-27 22:22;SPECI CYQM 272222Z 34010KT 1SM R29/P6000FT/D R06/P6000FT/U BR OVC001 RMK ST8 BLN VISBLTO300FT=
CYQM;2005-05-27 22:50;SPECI CYQM 272250Z 35011KT 3/4SM R29/P6000FT/D R06/P6000FT/U -SHRA BR OVC001 RMK ST8 BLN VISBL TO 200FT=
CYQM;2005-05-27 23:00;METAR CYQM 272300Z 35013KT 3/4SM R29/P6000FT/U R06/P6000FT/D -SHRA BR OVC001 07/07 A2969 RMK ST8 BLN VISBL TO 200FT SLP056=
CYQM;2005-05-27 23:21;SPECI CYQM 272321Z 34011KT 3/4SM R29/P6000FT/D R06/P6000FT/U BR OVC001 RMK ST8=
CYQM;2005-05-28 00:00;METAR CYQM 280000Z 34010G16KT 3/4SM R29/P6000FT/N R06/P6000FT/N BR OVC001 06/06 A2967 RMK ST8 SLP051=
CYQM;2005-05-28 00:39;SPECI CYQM 280039Z 34010KT 4SM BR OVC001 RMK SF8=
CYQM;2005-05-28 00:52;SPECI CYQM 280052Z 34013KT 6SM BR OVC002 RMK SF8=
CYQM;2005-05-28 01:00;METAR CYQM 280100Z 34009G15KT 7SM OVC002 06/06 A2969 RMK SF8 VIS LWR N SLP055=
CYQM;2005-05-28 01:12;SPECI CYQM 280112Z 33008KT 8SM OVC001 RMK ST8 BEAM VISBL TO 300 FT=
CYQM;2005-05-28 01:40;SPECI CYQM 280140Z 34011KT 8SM OVC002 RMK ST8=
CYQM;2005-05-28 02:00;METAR CYQM 280200Z 34007KT 8SM OVC002 06/06 A2969 RMK ST8 SLP057=
CYQM;2005-05-28 03:00;METAR CYQM 280300Z 31005KT 5SM -DZ BR OVC001 06/06 A2970 RMK ST8 SLP059=
CYQM;2005-05-28 03:15;SPECI CYQM 280315Z 32006KT 2SM -DZ BR OVC001 RMK ST8=
CYQM;2005-05-28 04:00;METAR CYQM 280400Z 31006KT 2SM -DZ BR OVC001 06/06 A2970 RMK ST8 BEAM VISBL TO 500FT SLP058=
CYQM;2005-05-28 04:36;SPECI CYQM 280436Z 31008KT 1 1/4SM -DZ BR BKN001 OVC005 RMK SF6SF2=
CYQM;2005-05-28 05:00;METAR CYQM 280500Z 29007KT 2SM -DZ BR BKN002 OVC005 06/06 A2968 RMK SF6SF2 SLP054=
CYQM;2005-05-28 06:00;METAR CYQM 280600Z 28005KT 2 1/2SM -DZ BR BKN002 OVC005 06/06 A2969 RMK SF6SF2 SLP055=
CYQM;2005-05-28 06:16;SPECI CYQM 280616Z 30005KT 4SM -DZ BR BKN002 OVC004 RMK SF6SF2=
CYQM;2005-05-28 07:00;METAR CYQM 280700Z 29008KT 5SM -DZ BR BKN002 OVC004 06/06 A2968 RMK SF6SF2 SLP053=
CYQM;2005-05-28 08:00;METAR CYQM 280800Z 30006KT 3SM -DZ BR BKN002 OVC004 06/06 A2968 RMK SF6SF2 SLP052=
CYQM;2005-05-28 08:08;SPECI CYQM 280808Z 30006KT 2 1/2SM -DZ BR BKN002 OVC004 RMK SF6SF2=
CYQM;2005-05-28 08:52;SPECI CYQM 280852Z 29005KT 2SM -DZ BR OVC004 RMK SF8=
CYQM;2005-05-28 09:00;METAR CYQM 280900Z 29005KT 2SM -DZ BR OVC004 06/06 A2968 RMK SF8 SLP053=
CYQM;2005-05-28 09:28;SPECI CYQM 280928Z 30005KT 6SM -SHRA BR OVC005 RMK SF8 VIS LWR E QUAD=
CYQM;2005-05-28 10:00;METAR CYQM 281000Z 28005KT 6SM -SHRA BR OVC005 06/06 A2968 RMK SF8 SLP052=
CYQM;2005-05-28 10:19;SPECI CYQM 281019Z 28004KT 2SM -SHRA BR OVC005 RMK SF8 VIS S-SW 6=
CYQM;2005-05-28 10:39;SPECI CYQM 281039Z 28005KT 6SM BR OVC005 RMK SF8=
CYQM;2005-05-28 11:00;METAR CYQM 281100Z 30005KT 10SM OVC005 07/07 A2969 RMK SF8 SLP055=
CYQM;2005-05-28 11:44;SPECI CYQM 281144Z 28006KT 2SM -DZ BR OVC005 RMK SF8=
CYQM;2005-05-28 12:00;METAR CYQM 281200Z 29005KT 3SM -DZ BR FEW002 OVC005 07/07 A2969 RMK SF1SF7 SLP055=
CYQM;2005-05-28 13:00;METAR CYQM 281300Z 29007KT 6SM -DZ BR FEW002 OVC005 07/07 A2969 RMK SF1SF7 SLP055=
CYQM;2005-05-28 13:26;SPECI CYQM 281326Z 27006KT 8SM OVC006 RMK SF8=
CYQM;2005-05-28 14:00;METAR CYQM 281400Z 30007KT 6SM BR OVC006 08/08 A2969 RMK SF8 SLP055=
CYQM;2005-05-28 14:24;SPECI CYQM 281424Z 31006KT 4SM -DZ BR OVC006 RMK SF8=
CYQM;2005-05-28 15:00;METAR CYQM 281500Z 32008KT 8SM OVC008 09/08 A2968 RMK SF8 SLP054=
CYQM;2005-05-28 16:00;METAR CYQM 281600Z 29007KT 15SM OVC007 10/09 A2969 RMK SF8 SLP055=
CYQM;2005-05-28 17:00;METAR CYQM 281700Z 28005KT 15SM OVC009 11/10 A2968 RMK SC8 SLP054=
CYQM;2005-05-28 18:00;METAR CYQM 281800Z 34005KT 15SM OVC009 11/09 A2969 RMK SC8 SLP057=
CYQM;2005-05-28 19:00;METAR CYQM 281900Z 33007KT 15SM OVC009 11/09 A2970 RMK SC8 SLP059=
CYQM;2005-05-28 20:00;METAR CYQM 282000Z 33006KT 15SM OVC006 11/10 A2970 RMK SF8 SLP061=
CYQM;2005-05-28 21:00;METAR CYQM 282100Z 34008KT 15SM OVC005 10/08 A2971 RMK SF8 SLP064=
CYQM;2005-05-28 22:00;METAR CYQM 282200Z 33008KT 15SM FEW002 BKN005 OVC007 08/07 A2973 RMK SF1SF6SF1 SLP068=
CYQM;2005-05-28 22:16;SPECI CYQM 282216Z 34006KT 12SM FEW002 OVC004 RMK SF2SF6=
CYQM;2005-05-28 22:35;SPECI CYQM 282235Z 32006KT 10SM -DZ OVC003 RMK SF8=
CYQM;2005-05-28 23:00;METAR CYQM 282300Z 34009KT 10SM OVC003 08/07 A2974 RMK SF8 SLP072=
CYQM;2005-05-28 23:19;SPECI CYQM 282319Z 33006KT 10SM OVC002 RMK ST8=
CYQM;2005-05-28 23:48;SPECI CYQM 282348Z 36005KT 2SM BR OVC002 RMK ST8 VIS N 1 VIS S 7=
CYQM;2005-05-28 23:51;SPECI CYQM 282351Z 36006KT 1 1/4SM BR OVC002 RMK ST8 VISLWR N=
CYQM;2005-05-29 00:00;METAR CYQM 290000Z 35006KT 3/4SM R29/P6000FT/D R06/P6000FT/U BR OVC002 07/07 A2975 RMK ST8 VIS HIER S SLP078=
CYQM;2005-05-29 00:09;SPECI CYQM 290009Z 35006KT 5/8SM R29/P6000FT/N R06/P6000FT/D -DZ BR OVC001 RMK FG2ST6=
CYQM;2005-05-29 00:34;SPECI CYQM 290034Z 34005KT 3/4SM R29/P6000FT/N R06/P6000FT/D -DZ BR OVC001 RMK FG2ST6=
CYQM;2005-05-29 01:00;METAR CYQM 290100Z 33004KT 3/4SM R29/P6000FT/D R06/P6000FT/N -DZ BR BKN001 OVC002 07/07 A2976 RMK SF6SF2 SLP081=
CYQM;2005-05-29 01:35;SPECI CYQM 290135Z 29004KT 1SM R29/P6000FT/U R06/P6000FT/N -DZ BR BKN001 BKN002 OVC006 RMK SF6SF2SF1=
CYQM;2005-05-29 02:00;METAR CYQM 290200Z 29002KT 2SM -DZ BR BKN001 BKN003 OVC005 07/07 A2977 RMK SF6SF2SF1 SLP083=
CYQM;2005-05-29 02:48;SPECI CYQM 290248Z 31005KT 1 1/4SM -DZ BR BKN001 OVC006 RMK SF5SF3=
CYQM;2005-05-29 03:00;METAR CYQM 290300Z 30003KT 1 1/4SM -DZ BR BKN001 OVC006 08/08 A2977 RMK SF6SF2 SLP082=
CYQM;2005-05-29 03:15;SPECI CYQM 290315Z 29003KT 6SM -DZ BR BKN001 OVC005 RMK SF6SF2=
CYQM;2005-05-29 03:28;SPECI CYQM 290328Z 28003KT 10SM SCT001 BKN003 OVC007 RMK SF4SF2SF2=
CYQM;2005-05-29 04:00;METAR CYQM 290400Z 29003KT 12SM BKN002 OVC008 07/07 A2976 RMK SF7SF1 SLP081=
CYQM;2005-05-29 04:24;SPECI CYQM 290424Z 28002KT 8SM -DZ OVC002 RMK SF8=
CYQM;2005-05-29 05:00;METAR CYQM 290500Z 27002KT 5SM BR BKN001 OVC004 08/08 A2976 RMK SF6SF2 SLP081=
CYQM;2005-05-29 05:10;SPECI CYQM 290510Z 29002KT 1 1/4SM -DZ BR FEW001 OVC003 RMK SF2SF6=
CYQM;2005-05-29 05:24;SPECI CYQM 290524Z 31003KT 2 1/2SM -DZ BR SCT001 OVC003 RMK SF3SF5=
CYQM;2005-05-29 05:42;SPECI CYQM 290542Z 32003KT 4SM BR SCT001 OVC003 RMK SF3SF5=
CYQM;2005-05-29 06:00;METAR CYQM 290600Z 32004KT 6SM BR BKN001 OVC003 08/08 A2975 RMK SF6SF2 SLP078=
CYQM;2005-05-29 06:12;SPECI CYQM 290612Z 33004KT 5/8SM R29/P6000FT/D R06/P6000FT/D BR VV003 RMK FG8=
CYQM;2005-05-29 06:22;SPECI CYQM 290622Z 35004KT 3/8SM R29/3500V5000FT/D R06/3500VP6000FT/D FG VV002 RMK FG8=
CYQM;2005-05-29 06:48;SPECI CYQM 290648Z 31002KT 1/2SM R29/3500FT/N R06/3000FT/D FG VV002 RMK FG8=
CYQM;2005-05-29 07:00;METAR CYQM 290700Z 33003KT 1/2SM R29/3500FT/N R06/3000FT/U FG VV002 08/08 A2976 RMK FG8 SLP081=
CYQM;2005-05-29 07:18;SPECI CYQM 290718Z 31002KT 5/8SM R29/3500V5000FT/U R06/3500FT/N BR VV004 RMK FG8=
CYQM;2005-05-29 07:53;SPECI CYQM 290753Z 29004KT 3/4SM R29/6000FT/D R06/P6000FT/N -DZ BR VV004 RMK FG8=
CYQM;2005-05-29 08:00;METAR CYQM 290800Z 29004KT 3/4SM R29/5500FT/N R06/P6000FT/U -DZ BR VV004 08/08 A2977 RMK FG8 SLP084=
CYQM;2005-05-29 08:15;SPECI CYQM 290815Z 31004KT 1SM R29/P6000FT/U R06/P6000FT/U -RADZ BR VV004 RMK FG8=
CYQM;2005-05-29 09:26;SPECI CYQM 290926Z 34004KT 1 1/2SM -RA BR BKN004 OVC015 RMK SF6SC2=
CYQM;2005-05-29 09:37;SPECI CYQM 290937Z 35004KT 3SM -RA BR BKN004 OVC015 RMK SF6SC2=
CYQM;2005-05-29 10:00;METAR CYQM 291000Z 35004KT 6SM -RA BR BKN004 OVC012 08/08 A2978 RMK SF6SC2 SLP088=
CYQM;2005-05-29 10:48;SPECI CYQM 291048Z 01004KT 6SM -RA BR BKN002 OVC004 RMK SF5SF3=
CYQM;2005-05-29 11:00;METAR CYQM 291100Z 02003KT 6SM -RA BR BKN002 OVC005 08/08 A2979 RMK SF6SF2 SLP090=
CYQM;2005-05-29 12:00;METAR CYQM 291200Z 03003KT 3SM -RA BR OVC003 08/08 A2980 RMK SF8 SLP093=
CYQM;2005-05-29 12:25;SPECI CYQM 291225Z 04002KT 8SM OVC004 RMK SF8=
CYQM;2005-05-29 13:00;METAR CYQM 291300Z 36004KT 12SM OVC004 08/08 A2980 RMK SF8 SLP094=
CYQM;2005-05-29 14:00;METAR CYQM 291400Z 36005KT 10SM OVC003 08/08 A2981 RMK SF8 SLP095=
CYQM;2005-05-29 14:11;SPECI CYQM 291411Z 35006KT 5SM -DZ BR OVC003 RMK SF8=
CYQM;2005-05-29 14:30;SPECI CYQM 291430Z 36006KT 1 1/2SM -DZ BR OVC003 RMK SF8=
CYQM;2005-05-29 14:45;SPECI CYQM 291445Z 04006KT 1 1/2SM -DZ BR OVC002 RMK SF8=
CYQM;2005-05-29 15:00;METAR CYQM 291500Z 04005KT 2SM -RA BR OVC002 08/08 A2981 RMK SF8 SLP099=
CYQM;2005-05-29 15:31;SPECI CYQM 291531Z 03003KT 3SM -RA BR OVC004 RMK SF8=
CYQM;2005-05-29 16:00;METAR CYQM 291600Z 08003KT 3SM -RA BR OVC004 08/08 A2982 RMK SF8 SLP100=
CYQM;2005-05-29 16:17;SPECI CYQM 291617Z 06003KT 1 1/2SM -RA BR OVC005 RMK SF8=
CYQM;2005-05-29 16:37;SPECI CYQM 291637Z 02003KT 1 3/4SM -RA BR OVC005 RMK SF8=
CYQM;2005-05-29 17:00;METAR CYQM 291700Z 03003KT 1 1/4SM -RA BR OVC003 09/08 A2981 RMK SF8 SLP098=
CYQM;2005-05-29 17:15;SPECI CYQM 291715Z 36003KT 3SM -RA BR BKN003 OVC005 RMK SF7SF1=
CYQM;2005-05-29 18:35;SPECI CYQM 291835Z 02005KT 1 3/4SM -DZ BR OVC004 RMK SF8=
CYQM;2005-05-29 19:00;METAR CYQM 291900Z 02006KT 1 3/4SM -DZ BR OVC004 09/09 A2980 RMK SF8 SLP092=
CYQM;2005-05-29 19:35;SPECI CYQM 291935Z 03004KT 12SM BKN004 OVC012 RMK SF7SC1 VIS NE-SE 2=
CYQM;2005-05-29 19:52;SPECI CYQM 291952Z 04005KT 12SM BKN003 OVC012 RMK SF7SC1 VIS NE-SE 2=
CYQM;2005-05-29 20:39;SPECI CYQM 292039Z 06004KT 12SM -DZ OVC003 RMK SF8=
CYQM;2005-05-29 20:44;SPECI CYQM 292044Z 06003KT 12SM -DZ OVC002 RMK SF8 BLN VISBL TO 500FT=
CYQM;2005-05-29 21:00;METAR CYQM 292100Z 05003KT 15SM OVC002 10/09 A2980 RMK SF8 INTMT -DZ SLP094=
CYQM;2005-05-29 21:06;SPECI CYQM 292106Z 05003KT 15SM OVC003 RMK SF8=
CYQM;2005-05-29 21:27;SPECI CYQM 292127Z 03004KT 6SM BR OVC002 RMK SF8 VIS LWR N-SE=
CYQM;2005-05-29 21:33;SPECI CYQM 292133Z 03005KT 2 1/2SM -DZ BR OVC002 RMK SF8=
CYQM;2005-05-29 22:00;METAR CYQM 292200Z 03005KT 2 1/2SM -DZ BR OVC002 10/09 A2981 RMK SF8 SLP095=
CYQM;2005-05-29 22:18;SPECI CYQM 292218Z 02005KT 4SM -DZ BR BKN002 OVC010 RMK SF7SC1=
CYQM;2005-05-29 22:45;SPECI CYQM 292245Z 02006KT 2SM -DZ BR OVC002 RMK SF8=
CYQM;2005-05-29 23:00;METAR CYQM 292300Z 03005KT 2SM -DZ BR OVC002 09/09 A2981 RMK SF8 SLP096=
CYQM;2005-05-29 23:22;SPECI CYQM 292322Z 02005KT 1 1/4SM -DZ BR OVC002 RMK SF8=
CYQM;2005-05-29 23:33;SPECI CYQM 292333Z 03004KT 3/4SM R29/6000FT/D R06/P6000FT/D -DZ BR OVC001 RMK SF8=
CYQM;2005-05-30 00:00;METAR CYQM 300000Z 04005KT 3/4SM R29/4500FT/N R06/4500FT/N -DZ BR OVC001 09/09 A2981 RMK SF8 SLP098=
CYQM;2005-05-30 00:43;SPECI CYQM 300043Z 04005KT 1SM R29/P6000FT/N R06/6000FT/N -DZ BR OVC001 RMK SF8=
CYQM;2005-05-30 01:00;METAR CYQM 300100Z 05004KT 1SM R29/P6000FT/D R06/P6000FT/N -DZ BR OVC001 09/09 A2983 RMK SF8 SLP102=
CYQM;2005-05-30 01:31;SPECI CYQM 300131Z 03005KT 3/4SM R29/5000FT/N R06/P6000FT/D BR VV002 RMK FG8=
CYQM;2005-05-30 01:36;SPECI CYQM 300136Z 04004KT 3/4SM R29/5500FT/U R06/5500FT/D BR BKN007 OVC010 RMK FG3SF3SC2=
CYQM;2005-05-30 01:52;SPECI CYQM 300152Z 04005KT 2 1/2SM -DZ BR BKN001 OVC006 RMK SF6SF2=
CYQM;2005-05-30 02:09;SPECI CYQM 300209Z 04004KT 3SM -DZ BR BKN001 BKN005 OVC011 RMK SF5SF2SC1=
CYQM;2005-05-30 02:20;SPECI CYQM 300220Z 04005KT 2SM -DZ BR BKN001 BKN005 OVC012 RMK SF6SF1SC2=
CYQM;2005-05-30 02:38;SPECI CYQM 300238Z 03004KT 5SM BR SCT001 OVC013 RMK SF3SC5=
CYQM;2005-05-30 03:00;METAR CYQM 300300Z 04004KT 7SM FEW001 OVC014 09/09 A2982 RMK SF2SC6 SLP101=
CYQM;2005-05-30 03:09;SPECI CYQM 300309Z 03003KT 8SM FEW001 OVC020 RMK SF2SC6=
CYQM;2005-05-30 03:37;SPECI CYQM 300337Z 01002KT 10SM FEW001 BKN005 OVC022 RMK SF2SF4SC2=
CYQM;2005-05-30 04:00;METAR CYQM 300400Z 36003KT 12SM FEW001 SCT005 BKN008 OVC022 09/09 A2982 RMK SF1SF3SF2SC2 SLP100=
CYQM;2005-05-30 04:26;SPECI CYQM 300426Z 02003KT 2SM BR SCT001 BKN005 BKN008 OVC013 RMK SF3SF2SF2SC1 VIS S-W 8=
CYQM;2005-05-30 05:00;METAR CYQM 300500Z 03004KT 5SM BR FEW001 BKN006 OVC009 09/09 A2983 RMK SF2SF6SC1 SLP102=
CYQM;2005-05-30 05:20;SPECI CYQM 300520Z 02003KT 8SM -DZ SCT001 OVC007 RMK SF3SF5=
CYQM;2005-05-30 05:33;SPECI CYQM 300533Z 06002KT 7SM -RA FEW002 OVC006 RMK SF2SF6=
CYQM;2005-05-30 05:52;SPECI CYQM 300552Z 03002KT 7SM -RADZ FEW002 BKN004 OVC008 RMK SF2SF5SF1=
CYQM;2005-05-30 06:00;METAR CYQM 300600Z 03003KT 6SM -RADZ BR FEW002 BKN004 OVC008 09/09 A2983 RMK SF2SF5SF1 SLP103=
CYQM;2005-05-30 06:20;SPECI CYQM 300620Z 07002KT 7SM -DZ OVC003 RMK ST8 BEAM VISBL TO 700FT=
CYQM;2005-05-30 06:30;SPECI CYQM 300630Z 04002KT 7SM -DZ BKN001 OVC004 RMK SF6SF2=
CYQM;2005-05-30 06:48;SPECI CYQM 300648Z 04003KT 7SM BKN001 OVC006 RMK SF6SF2=
CYQM;2005-05-30 07:00;METAR CYQM 300700Z 05004KT 1 1/4SM BR OVC006 09/09 A2983 RMK FG6SF2 SLP104=
CYQM;2005-05-30 07:02;SPECI CYQM 300702Z 06003KT 1/2SM R06/4500VP6000FT/D FG VV003 RMK FG8=
CYQM;2005-05-30 07:07;SPECI CYQM 300707Z 06003KT 3/8SM R06/2600V6000FT/D FG VV003 RMK FG8=
CYQM;2005-05-30 07:22;SPECI CYQM 300722Z 06004KT 3/8SM R06/2800FT/N FG OVC006 RMK FG6SF2=
CYQM;2005-05-30 07:46;SPECI CYQM 300746Z 07005KT 1/8SM R06/2400FT/D FG VV001 RMK FG8=
CYQM;2005-05-30 07:54;SPECI CYQM 300754Z 07004KT 1/8SM R06/2000FT/N FG SKC RMK FG6=
CYQM;2005-05-30 08:00;METAR CYQM 300800Z 06005KT 1/8SM R06/2000FT/N FG SKC 08/08 A2984 RMK FG6 SLP106=
CYQM;2005-05-30 08:24;SPECI CYQM 300824Z 05002KT 3/8SM R06/2000V3500FT/U FG OVC007 RMK FG5SF3=
CYQM;2005-05-30 08:52;SPECI CYQM 300852Z 04002KT 1/4SM R06/3500FT/N FG BKN002 OVC100 RMK FG2SF5AC2=
CYQM;2005-05-30 09:12;SPECI CYQM 300912Z 06002KT 1/2SM R06/5500FT/U FG OVC001 RMK FG1ST7=
CYQM;2005-05-30 09:22;SPECI CYQM 300922Z 06004KT 1/4SM R06/3000VP6000FT/D FG OVC001 RMK FG2ST6=
CYQM;2005-05-30 10:00;METAR CYQM 301000Z 09003KT 1/8SM R06/1200V2200FT/D FG VV001 08/08 A2986 RMK FG8 SLP115=
CYQM;2005-05-30 10:36;SPECI CYQM 301036Z 10004KT 1/4SM R06/1600V3000FT/U FG VV003 RMK FG8=
CYQM;2005-05-30 10:46;SPECI CYQM 301046Z 10004KT 5/8SM R06/3000VP6000FT/U BR BKN002 OVC020 RMK SF7SC1=
CYQM;2005-05-30 11:00;METAR CYQM 301100Z 07003KT 1SM R06/P6000FT/N BR BKN002 BKN015 09/09 A2988 RMK SF7SC1 SLP120=
CYQM;2005-05-30 11:08;SPECI CYQM 301108Z 08005KT 1 1/2SM BR BKN003 BKN012 RMK SF6SC1=
CYQM;2005-05-30 11:23;SPECI CYQM 301123Z 06002KT 4SM BR BKN005 RMK SC7=
CYQM;2005-05-30 13:00;METAR CYQM 301300Z 10005KT 15SM BKN012 11/10 A2990 RMK SC7 SLP128=
CYQM;2005-05-30 14:00;METAR CYQM 301400Z 09004KT 15SM BKN017 BKN250 14/10 A2990 RMK SC6CI1 SLP127=
CYQM;2005-05-30 15:00;METAR CYQM 301500Z 04003KT 15SM BKN025 BKN250 15/10 A2990 RMK CU6CI1 SLP127=
CYQM;2005-05-30 16:00;METAR CYQM 301600Z 03007KT 15SM BKN025 BKN250 16/11 A2990 RMK CU6CI1 SLP127=
CYQM;2005-05-30 17:00;METAR CYQM 301700Z 02010G15KT 15SM BKN030 BKN250 17/11 A2989 RMK CU6CI1 SLP125=
CYQM;2005-05-30 18:00;METAR CYQM 301800Z 02009G15KT 15SM BKN030 BKN250 17/10 A2990 RMK CU6CI0 SLP126=
CYQM;2005-05-30 19:00;METAR CYQM 301900Z 04009G16KT 15SM FEW030 FEW260 17/09 A2989 RMK CU1CI1 SLP124=
CYQM;2005-05-30 20:00;METAR CYQM 302000Z 05011G16KT 15SM FEW035 FEW250 17/08 A2989 RMK CU1CI1 SLP125=
CYQM;2005-05-30 21:00;METAR CYQM 302100Z 02011KT 15SM FEW035 FEW250 17/07 A2990 RMK CU1CI1 SLP126=
CYQM;2005-05-30 22:00;METAR CYQM 302200Z 05010KT 15SM FEW040 FEW250 16/07 A2991 RMK CU1CI1 SLP129=
CYQM;2005-05-30 23:00;METAR CYQM 302300Z 08007KT 15SM FEW040 FEW250 16/06 A2993 RMK SC1CI1 SLP137=
CYQM;2005-05-31 00:00;METAR CYQM 310000Z 14005KT 15SM FEW040 FEW120 FEW250 14/09 A2995 RMK SC1AC1CI1 SLP143=
CYQM;2005-05-31 01:00;METAR CYQM 310100Z 09003KT 15SM FEW040 FEW120 FEW250 12/09 A2997 RMK SC1AC1CI1 SLP151=
CYQM;2005-05-31 02:00;METAR CYQM 310200Z 16005KT 15SM FEW120 FEW250 11/08 A2998 RMK AC1CI1 SLP155=
CYQM;2005-05-31 03:00;METAR CYQM 310300Z 18002KT 15SM FEW250 10/08 A2999 RMK CI1 SLP158=
CYQM;2005-05-31 04:00;METAR CYQM 310400Z 19004KT 15SM FEW120 FEW250 09/08 A3000 RMK AC1CI1 SLP161=
CYQM;2005-05-31 06:00;METAR CYQM 310600Z 16005KT 15SM SCT090 08/07 A3001 RMK AC4 SLP163=
CYQM;2005-05-31 08:00;METAR CYQM 310800Z 18005KT 15SM MIFG FEW090 06/06 A3004 RMK AC2 SLP173=
CYQM;2005-05-31 08:16;SPECI CYQM 310816Z 19004KT 6SM BR PRFG FEW090 RMK AC2 VIS W 1/2=
CYQM;2005-05-31 08:20;SPECI CYQM 310820Z 18004KT 1 1/2SM R29/P6000FT/D R06/P6000FT/D BR PRFG SCT090 RMK AC3 VIS W 1/4=
CYQM;2005-05-31 08:28;SPECI CYQM 310828Z 18004KT 3/8SM R29/P6000FT/N R06/2800VP6000FT/D FG SCT090 RMK FG1AC3=
CYQM;2005-05-31 10:11;SPECI CYQM 311011Z 17002KT 1SM R06/3000VP6000FT/U R29/P6000FT/N BR PRFG BKN075 RMK AC7 VIS W 1/2=
CYQM;2005-05-31 11:00;METAR CYQM 311100Z 16002KT 1SM R06/P6000FT/N R29/P6000FT/N BR VCFG FEW080 FEW220 08/08 A3010 RMK AC2CC1 SLP194=
CYQM;2005-05-31 11:30;SPECI CYQM 311130Z 18002KT 1 1/4SM BR BCFG FEW005 FEW080 SCT230 RMK SF1AC2CC0=
CYQM;2005-05-31 12:00;METAR CYQM 311200Z 21003KT 2SM BR FEW005 SCT075 SCT230 10/09 A3011 RMK SF1AC2CI0 VIS N - NE 10 SLP197=
CYQM;2005-05-31 12:23;SPECI CYQM 311223Z 00000KT 4SM BR FEW005 SCT085 SCT230 RMK CF1AC2CI0=
CYQM;2005-05-31 14:00;METAR CYQM 311400Z 16004KT 15SM FEW010 BKN100 BKN250 16/09 A3011 RMK CF1AC4CI0 SLP199=
CYQM;2005-05-31 15:00;METAR CYQM 311500Z 16004KT 15SM FEW025 BKN060 BKN260 18/08 A3012 RMK CU1SC6CI1 SLP200=
CYQM;2005-05-31 16:00;METAR CYQM 311600Z 15003KT 15SM FEW030 BKN080 19/07 A3012 RMK CU1AC3 SLP201=
CYQM;2005-05-31 17:00;METAR CYQM 311700Z 16007KT 15SM FEW035 SCT085 19/07 A3011 RMK CU1AC2 SLP199=
CYQM;2005-05-31 18:00;METAR CYQM 311800Z 19004G15KT 15SM FEW040 BKN100 20/09 A3011 RMK CU2AC2 SLP197=
CYQM;2005-05-31 19:00;METAR CYQM 311900Z 36004KT 15SM SCT040 BKN110 20/10 A3011 RMK CU3AC2 SLP197=
CYQM;2005-05-31 20:00;METAR CYQM 312000Z 08005KT 15SM BKN035 BKN110 20/09 A3011 RMK CU6AC1 SLP197=
CYQM;2005-05-31 21:00;METAR CYQM 312100Z 13005KT 15SM FEW040 FEW100 21/08 A3011 RMK CU2AC1 SLP198=
CYQM;2005-05-31 22:00;METAR CYQM 312200Z 18009KT 15SM FEW040 FEW100 20/08 A3011 RMK CU1AC1 SLP199=
CYQM;2005-05-31 23:00;METAR CYQM 312300Z 18005KT 15SM FEW040 FEW100 19/08 A3011 RMK CU1AC1 SLP200=
CYQM;2005-06-01 00:00;METAR CYQM 010000Z 15004KT 15SM FEW100 18/07 A3012 RMK AC1 SLP201=
CYQM;2005-06-01 01:00;METAR CYQM 010100Z 09004KT 15SM FEW100 17/08 A3014 RMK AC1 SLP207=
CYQM;2005-06-01 02:00;METAR CYQM 010200Z 12007KT 15SM SKC 15/08 A3015 RMK SLP211=
CYQM;2005-06-01 03:00;METAR CYQM 010300Z 17004KT 15SM SKC 12/08 A3015 RMK SLP212=
CYQM;2005-06-01 04:00;METAR CYQM 010400Z 21007KT 15SM FEW100 10/07 A3016 RMK AC1 SLP213=
CYQM;2005-06-01 05:00;METAR CYQM 010500Z 20006KT 15SM FEW100 09/08 A3016 RMK AC1 SLP215=
CYQM;2005-06-01 06:00;METAR CYQM 010600Z 21005KT 15SM SKC 09/07 A3016 RMK SLP213=
CYQM;2005-06-01 09:00;METAR CYQM 010900Z 22006KT 15SM FEW260 07/06 A3016 RMK CI1 SLP216=
CYQM;2005-06-01 10:00;METAR CYQM 011000Z 21003KT 15SM FEW260 08/07 A3017 RMK CI1 SLP220=
CYQM;2005-06-01 11:00;METAR CYQM 011100Z 24007KT 15SM SKC 11/09 A3018 RMK SLP222=
CYQM;2005-06-01 12:00;METAR CYQM 011200Z 23006KT 15SM SKC 14/10 A3019 RMK SLP225=
CYQM;2005-06-01 13:00;METAR CYQM 011300Z 22006KT 15SM SKC 18/10 A3018 RMK SLP222=
CYQM;2005-06-01 14:00;METAR CYQM 011400Z 27005KT 15SM SKC 20/10 A3018 RMK SLP222=
CYQM;2005-06-01 15:00;METAR CYQM 011500Z 25003KT 15SM FEW030 21/09 A3018 RMK CU1 SLP220=
CYQM;2005-06-01 16:00;METAR CYQM 011600Z 25005KT 15SM FEW035 22/09 A3016 RMK CU1 SLP214=
CYQM;2005-06-01 17:00;METAR CYQM 011700Z 24008KT 15SM FEW035 24/10 A3014 RMK CU2 SLP209=
CYQM;2005-06-01 18:00;METAR CYQM 011800Z 23008KT 15SM FEW035 24/09 A3012 RMK CU2 SLP202=
CYQM;2005-06-01 19:00;METAR CYQM 011900Z 29004KT 15SM FEW040 24/09 A3012 RMK CU2 SLP200=
CYQM;2005-06-01 20:00;METAR CYQM 012000Z 24004KT 15SM FEW040 24/08 A3010 RMK CU2 SLP195=
CYQM;2005-06-01 21:00;METAR CYQM 012100Z 20007KT 15SM FEW040 24/09 A3010 RMK CU1 SLP195=
CYQM;2005-06-01 22:00;METAR CYQM 012200Z 19008KT 15SM FEW040 24/08 A3009 RMK CU1 SLP192=
CYQM;2005-06-01 23:00;METAR CYQM 012300Z 26010KT 15SM SKC 22/09 A3010 RMK SLP194=
CYQM;2005-06-02 00:00;METAR CYQM 020000Z 25009KT 15SM FEW120 21/07 A3011 RMK AC1 SLP196=
CYQM;2005-06-02 01:00;METAR CYQM 020100Z 22009G15KT 15SM FEW120 18/09 A3012 RMK AC1 SLP201=
CYQM;2005-06-02 02:00;METAR CYQM 020200Z 23010KT 15SM SKC 16/09 A3013 RMK SLP204=
CYQM;2005-06-02 03:00;METAR CYQM 020300Z 23012KT 15SM SKC 16/08 A3013 RMK SLP203=
CYQM;2005-06-02 04:00;METAR CYQM 020400Z 23015KT 15SM SKC 15/08 A3013 RMK SLP203=
CYQM;2005-06-02 05:00;METAR CYQM 020500Z 23016KT 15SM SKC 14/08 A3013 RMK SLP203=
CYQM;2005-06-02 06:00;METAR CYQM 020600Z 23014KT 15SM SKC 14/08 A3013 RMK SLP203=
CYQM;2005-06-02 07:00;METAR CYQM 020700Z 23014KT 15SM FEW120 13/07 A3012 RMK AC1 SLP202=
CYQM;2005-06-02 09:00;METAR CYQM 020900Z 23013KT 15SM FEW070 12/07 A3012 RMK AC1 SLP202=
CYQM;2005-06-02 10:00;METAR CYQM 021000Z 23013KT 15SM SKC 13/08 A3013 RMK SLP203=
CYQM;2005-06-02 11:00;METAR CYQM 021100Z 23013KT 15SM SKC 15/09 A3013 RMK SLP204=
CYQM;2005-06-02 12:00;METAR CYQM 021200Z 23013G20KT 15SM SKC 18/10 A3013 RMK SLP203=
CYQM;2005-06-02 13:00;METAR CYQM 021300Z 23015G20KT 15SM SKC 20/09 A3012 RMK SLP200=
CYQM;2005-06-02 14:00;METAR CYQM 021400Z 23017KT 15SM SKC 22/09 A3010 RMK SLP194=
CYQM;2005-06-02 15:00;METAR CYQM 021500Z 23014G20KT 15SM FEW030 25/11 A3008 RMK CU1 SLP188=
CYQM;2005-06-02 16:00;METAR CYQM 021600Z 23014KT 15SM FEW035 26/11 A3007 RMK CU1 SLP183=
CYQM;2005-06-02 17:00;METAR CYQM 021700Z 23009G19KT 15SM FEW035 28/11 A3005 RMK CU1 SLP175=
CYQM;2005-06-02 18:00;METAR CYQM 021800Z 24013G19KT 15SM FEW035 28/09 A3003 RMK CU1 SLP168=
CYQM;2005-06-02 19:00;METAR CYQM 021900Z 23013G19KT 15SM FEW050 28/09 A3001 RMK SC2 CU ASOCTD SLP162=
CYQM;2005-06-02 20:00;METAR CYQM 022000Z 22014G21KT 15SM FEW050 FEW260 29/08 A2999 RMK CU1CI1 SLP157=
CYQM;2005-06-02 22:00;METAR CYQM 022200Z 23011G22KT 15SM FEW050 FEW260 26/10 A2998 RMK CU1CI2 SLP152=
CYQM;2005-06-02 23:00;METAR CYQM 022300Z 20007G16KT 15SM FEW040 SCT260 24/11 A2999 RMK CU1CI2 SLP155=
CYQM;2005-06-03 00:00;METAR CYQM 030000Z 21008KT 15SM FEW040 FEW080 BKN260 19/09 A2999 RMK SC1AC2CI2 SLP157=
CYQM;2005-06-03 01:00;METAR CYQM 030100Z 20008KT 15SM FEW080 BKN260 13/09 A3001 RMK AC2CI2 SLP162=
CYQM;2005-06-03 02:00;METAR CYQM 030200Z 20008KT 15SM FEW260 11/08 A3002 RMK CI2 SLP165=
CYQM;2005-06-03 03:00;METAR CYQM 030300Z 21010KT 15SM FEW100 FEW260 11/08 A3002 RMK AC1CI2 SLP166=
CYQM;2005-06-03 04:00;METAR CYQM 030400Z 22012KT 15SM SKC 12/07 A3002 RMK SLP165=
CYQM;2005-06-03 05:00;METAR CYQM 030500Z 23013KT 15SM FEW030 12/07 A3001 RMK SC1 SLP164=
CYQM;2005-06-03 06:00;METAR CYQM 030600Z 22009KT 15SM FEW030 11/07 A3001 RMK SC1 SLP163=
CYQM;2005-06-03 07:00;METAR CYQM 030700Z 22012KT 15SM FEW030 12/07 A3000 RMK SC2 SLP158=
CYQM;2005-06-03 08:00;METAR CYQM 030800Z 23014KT 15SM FEW015 BKN260 13/09 A3000 RMK CF2CI2 SLP158=
CYQM;2005-06-03 09:00;METAR CYQM 030900Z 23014KT 15SM FEW015 BKN260 13/09 A3000 RMK CU1CI3 SLP159=
CYQM;2005-06-03 10:00;METAR CYQM 031000Z 23014KT 15SM FEW015 BKN260 14/09 A3001 RMK CU1CI3 SLP164=
CYQM;2005-06-03 11:00;METAR CYQM 031100Z 23013KT 15SM FEW030 FEW070 BKN260 15/10 A3000 RMK CU1AC2CI2 SLP159=
CYQM;2005-06-03 12:00;METAR CYQM 031200Z 23018KT 15SM FEW030 FEW080 BKN260 17/10 A3000 RMK CU1AC2CI2 SLP158=
CYQM;2005-06-03 13:00;METAR CYQM 031300Z 23016KT 15SM BKN260 19/12 A2997 RMK CI3 SLP149=
CYQM;2005-06-03 14:00;METAR CYQM 031400Z 22014KT 15SM BKN260 22/12 A2996 RMK CI3 SLP146=
CYQM;2005-06-03 15:00;METAR CYQM 031500Z 24013G19KT 15SM BKN260 24/12 A2995 RMK CI3 SLP141=
CYQM;2005-06-03 16:00;METAR CYQM 031600Z 23015KT 15SM BKN260 25/13 A2993 RMK CI3 SLP135=
CYQM;2005-06-03 17:00;METAR CYQM 031700Z 22016KT 15SM FEW040 BKN250 26/13 A2991 RMK CU1CI4 SLP128=
CYQM;2005-06-03 18:00;METAR CYQM 031800Z 23016G21KT 15SM FEW040 BKN250 27/12 A2988 RMK CU1CI4 SLP118=
CYQM;2005-06-03 19:00;METAR CYQM 031900Z 23016G25KT 15SM FEW040 BKN250 27/11 A2986 RMK CU1CI4 SLP112=
CYQM;2005-06-03 20:00;METAR CYQM 032000Z 23020G26KT 15SM BKN250 28/10 A2984 RMK CI2 SLP107=
CYQM;2005-06-03 21:00;METAR CYQM 032100Z 23019G25KT 15SM FEW040 FEW270 27/09 A2983 RMK CU1CI1 SLP102=
CYQM;2005-06-03 22:00;METAR CYQM 032200Z 23014G25KT 15SM FEW040 FEW260 26/09 A2983 RMK CU1CI1 SLP102=
CYQM;2005-06-03 23:00;METAR CYQM 032300Z 23014G19KT 15SM FEW035 FEW260 23/10 A2983 RMK CU1CI0 SLP102=
CYQM;2005-06-04 00:00;METAR CYQM 040000Z 20009KT 15SM FEW030 FEW260 19/10 A2983 RMK SC1CI1 SLP101=
CYQM;2005-06-04 01:00;METAR CYQM 040100Z 20006KT 15SM FEW030 FEW080 FEW260 14/09 A2984 RMK SC1AC1CI1 SLP105=
CYQM;2005-06-04 02:00;METAR CYQM 040200Z 19008KT 15SM FEW070 FEW260 12/09 A2984 RMK AC1CI1 SLP104=
CYQM;2005-06-04 03:00;METAR CYQM 040300Z 20009KT 15SM FEW025 FEW260 12/09 A2983 RMK SC2CI1 SLP101=
CYQM;2005-06-04 04:00;METAR CYQM 040400Z 23014KT 15SM FEW260 15/10 A2982 RMK CI0 SLP099=
CYQM;2005-06-04 05:00;METAR CYQM 040500Z 23014KT 15SM FEW260 15/09 A2981 RMK CI0 SLP095=
CYQM;2005-06-04 06:00;METAR CYQM 040600Z 23015KT 15SM FEW250 15/09 A2980 RMK CI0 SLP090=
CYQM;2005-06-04 07:00;METAR CYQM 040700Z 24012KT 15SM FEW070 SCT250 15/09 A2980 RMK AC2CI1 SLP090=
CYQM;2005-06-04 09:00;METAR CYQM 040900Z 23011G18KT 12SM SCT040 BKN260 15/09 A2980 RMK SC4CI2 SLP092=
CYQM;2005-06-04 10:00;METAR CYQM 041000Z 23011G18KT 12SM SCT040 BKN100 15/09 A2981 RMK SC4AC3 SLP094=
CYQM;2005-06-04 11:00;METAR CYQM 041100Z 25012KT 12SM SCT040 BKN100 BKN250 15/09 A2982 RMK SC4AC2CI1 SLP097=
CYQM;2005-06-04 12:00;METAR CYQM 041200Z 22008KT 12SM FEW040 BKN100 BKN250 15/10 A2981 RMK SC2AC2CI1 SLP097=
CYQM;2005-06-04 13:00;METAR CYQM 041300Z 21007KT 12SM FEW040 BKN100 BKN250 18/11 A2981 RMK SC2AC3CI1 SLP095=
CYQM;2005-06-04 14:00;METAR CYQM 041400Z 22004KT 12SM FEW040 BKN100 BKN250 19/12 A2981 RMK SC2AC3CI1 SLP097=
CYQM;2005-06-04 15:00;METAR CYQM 041500Z 00000KT 12SM FEW040 BKN100 BKN250 21/13 A2981 RMK SC2AC3CI1 SLP097=
CYQM;2005-06-04 16:00;METAR CYQM 041600Z 04012KT 12SM FEW040 SCT100 BKN250 19/12 A2982 RMK SC2AC2CI2 SLP099=
CYQM;2005-06-04 17:00;METAR CYQM 041700Z 03011G16KT 12SM FEW040 SCT100 BKN220 17/09 A2984 RMK SC2AC2CI2 SLP105=
CYQM;2005-06-04 18:00;METAR CYQM 041800Z 01012KT 12SM BKN220 17/08 A2984 RMK CI6 SLP107=
CYQM;2005-06-04 19:00;METAR CYQM 041900Z 36012KT 15SM FEW080 BKN220 16/08 A2985 RMK AC2CI3 SLP108=
CYQM;2005-06-04 20:00;METAR CYQM 042000Z 03012G17KT 15SM FEW080 BKN220 15/06 A2985 RMK AC2CI3 SLP110=
CYQM;2005-06-04 21:00;METAR CYQM 042100Z 05008KT 15SM SCT090 BKN220 15/07 A2986 RMK AC3CI3 SLP112=
CYQM;2005-06-04 22:00;METAR CYQM 042200Z 05007KT 15SM FEW090 BKN230 14/05 A2986 RMK AC2CI3 SLP112=
CYQM;2005-06-04 23:00;METAR CYQM 042300Z 04007KT 15SM FEW110 BKN260 14/05 A2987 RMK AC2CI2 SLP117=
CYQM;2005-06-05 00:00;METAR CYQM 050000Z 03005KT 15SM FEW110 BKN250 12/05 A2989 RMK AC2CI2 SLP122=
CYQM;2005-06-05 01:00;METAR CYQM 050100Z 03006KT 15SM FEW140 FEW250 10/06 A2990 RMK AC2CI0 SLP126=
CYQM;2005-06-05 02:00;METAR CYQM 050200Z 03007KT 15SM FEW250 10/05 A2991 RMK CI0 SLP129=
CYQM;2005-06-05 03:00;METAR CYQM 050300Z 05007KT 15SM FEW110 SCT250 10/05 A2990 RMK AC2CI0 SLP126=
CYQM;2005-06-05 04:00;METAR CYQM 050400Z 07006KT 15SM FEW110 FEW250 09/04 A2989 RMK AC1CI0 SLP123=
CYQM;2005-06-05 05:00;METAR CYQM 050500Z 08007KT 15SM BKN100 BKN250 09/03 A2988 RMK AC6CI1 SLP120=
CYQM;2005-06-05 06:00;METAR CYQM 050600Z 08006KT 15SM FEW030 SCT100 BKN250 09/03 A2986 RMK SC1AC3CI2 SLP115=
CYQM;2005-06-05 07:00;METAR CYQM 050700Z 02005KT 15SM BKN230 09/04 A2989 RMK CI6 SLP122=
CYQM;2005-06-05 08:00;METAR CYQM 050800Z 08007KT 15SM BKN045 BKN230 10/04 A2988 RMK SC6CI1 SLP120=
CYQM;2005-06-05 09:00;METAR CYQM 050900Z 09004KT 15SM SCT045 BKN230 09/03 A2989 RMK SC3CI2 SLP122=
CYQM;2005-06-05 10:00;METAR CYQM 051000Z 07007KT 15SM SCT045 BKN230 09/04 A2990 RMK SC3CI2 SLP126=
CYQM;2005-06-05 11:00;METAR CYQM 051100Z 08005KT 15SM FEW045 BKN230 10/06 A2991 RMK SC2CI4 SLP129=
CYQM;2005-06-05 11:06;SPECI CYQM 051106Z 10003KT 15SM BKN030 OVC200 RMK SC6CI2=
CYQM;2005-06-05 11:12;SPECI CYQM 051112Z 14003KT 15SM -SHRA BKN025 OVC200 RMK SC6CI2=
CYQM;2005-06-05 12:00;METAR CYQM 051200Z 04006KT 15SM -SHRA BKN025 OVC200 10/08 A2994 RMK SC6CI2 SLP139=
CYQM;2005-06-05 13:00;METAR CYQM 051300Z 12006KT 12SM -SHRA BKN025 BKN070 OVC200 09/08 A2993 RMK SC5AC2CI2 SLP137=
CYQM;2005-06-05 14:00;METAR CYQM 051400Z 13006KT 15SM -SHRA BKN022 BKN070 OVC200 10/09 A2993 RMK SC6AC2CI1 SLP136=
CYQM;2005-06-05 14:12;SPECI CYQM 051412Z 13007KT 15SM FEW012 BKN020 OVC040 RMK SC2SC5SC2=
CYQM;2005-06-05 14:43;SPECI CYQM 051443Z 11003KT 15SM BKN008 OVC020 RMK SF6SC2=
CYQM;2005-06-05 15:00;METAR CYQM 051500Z 10004KT 15SM BKN008 OVC020 11/09 A2995 RMK SF6SC2 SLP144=
CYQM;2005-06-05 16:00;METAR CYQM 051600Z 10003KT 15SM BKN009 OVC030 11/08 A2996 RMK SF5SC3 SLP148=
CYQM;2005-06-05 17:00;METAR CYQM 051700Z 03010KT 15SM BKN008 OVC030 11/09 A2997 RMK SF5SC3 SLP152=
CYQM;2005-06-05 18:00;METAR CYQM 051800Z 04011G17KT 15SM BKN009 OVC045 12/07 A2999 RMK SF5SC3 SLP158=
CYQM;2005-06-05 19:00;METAR CYQM 051900Z 01012G17KT 15SM BKN013 OVC045 12/07 A3002 RMK SC5SC3 SLP167=
CYQM;2005-06-05 19:23;SPECI CYQM 051923Z 04012KT 15SM BKN016 OVC030 RMK SC6SC2=
CYQM;2005-06-05 20:00;METAR CYQM 052000Z 02013KT 15SM BKN020 OVC045 13/06 A3003 RMK SC6SC2 SLP173=
CYQM;2005-06-05 21:00;METAR CYQM 052100Z 03014KT 15SM BKN050 BKN080 BKN250 14/03 A3005 RMK SC6AC1CI0 SLP179=
CYQM;2005-06-05 22:00;METAR CYQM 052200Z 04008KT 15SM SCT045 SCT075 BKN260 12/02 A3008 RMK SC3AC1CI1 SLP189=
CYQM;2005-06-05 23:00;METAR CYQM 052300Z 04008KT 15SM FEW080 BKN270 11/03 A3011 RMK AC1CI2 SLP197=
CYQM;2005-06-06 00:00;METAR CYQM 060000Z 03009KT 15SM FEW170 BKN250 09/05 A3012 RMK AC2CI2 SLP203=
CYQM;2005-06-06 01:00;METAR CYQM 060100Z 04006KT 15SM BKN250 08/03 A3014 RMK CI3 SLP210=
CYQM;2005-06-06 02:00;METAR CYQM 060200Z 08004KT 15SM BKN250 08/03 A3015 RMK CI3 SLP212=
CYQM;2005-06-06 03:00;METAR CYQM 060300Z 00000KT 15SM SCT250 06/03 A3017 RMK CI2 SLP220=
CYQM;2005-06-06 04:00;METAR CYQM 060400Z 01004KT 15SM BKN250 05/03 A3018 RMK CI2 SLP223=
CYQM;2005-06-06 05:00;METAR CYQM 060500Z 03004KT 15SM FEW250 05/03 A3018 RMK CI0 SLP222=
CYQM;2005-06-06 06:00;METAR CYQM 060600Z 04004KT 15SM FEW250 04/02 A3018 RMK CI0 SLP223=
CYQM;2005-06-06 07:00;METAR CYQM 060700Z 05002KT 15SM FEW240 05/02 A3020 RMK CI0 SLP229=
CYQM;2005-06-06 08:00;METAR CYQM 060800Z 06002KT 15SM SCT140 BKN240 04/02 A3020 RMK AC3CI2 SLP231=
CYQM;2005-06-06 08:41;SPECI CYQM 060841Z 22005KT 3/4SM R29/P6000FT/N R06/1400VP6000FT/D BR SCT140 BKN260 RMK AC3CI2 VIS E QUAD 15=
CYQM;2005-06-06 08:53;SPECI CYQM 060853Z 20003KT 12SM R29/P6000FT/N R06/1200VP6000FT/U SCT140 BKN260 RMK AC3CI2 VIS W-NW 1=
CYQM;2005-06-06 09:00;METAR CYQM 060900Z 22005KT 12SM SCT140 BKN260 03/02 A3022 RMK AC3CI2 SLP238=
CYQM;2005-06-06 10:00;METAR CYQM 061000Z 00000KT 15SM FEW140 BKN260 05/04 A3023 RMK AC2CI3 SLP240=
CYQM;2005-06-06 11:00;METAR CYQM 061100Z 13003KT 15SM FEW140 BKN260 08/04 A3025 RMK AC1CI5 SLP245=
CYQM;2005-06-06 12:00;METAR CYQM 061200Z 11007KT 15SM FEW080 FEW160 BKN260 10/01 A3024 RMK AC1AC1CI5 SLP243=
CYQM;2005-06-06 13:00;METAR CYQM 061300Z 10010KT 15SM FEW080 BKN260 12/01 A3022 RMK AC2CI3 SLP237=
CYQM;2005-06-06 14:00;METAR CYQM 061400Z 12008G15KT 15SM BKN100 BKN260 13/M00 A3020 RMK AC5CI2 SLP230=
CYQM;2005-06-06 15:00;METAR CYQM 061500Z 12005KT 15SM SCT100 BKN140 BKN260 14/01 A3020 RMK AC4AC1CI1 SLP229=
CYQM;2005-06-06 16:00;METAR CYQM 061600Z 17010KT 15SM BKN100 BKN260 14/02 A3018 RMK AC6CI1 SLP221=
CYQM;2005-06-06 17:00;METAR CYQM 061700Z 15008KT 15SM BKN100 OVC260 14/01 A3016 RMK AC6CI1 SLP216=
CYQM;2005-06-06 18:00;METAR CYQM 061800Z 16008G16KT 15SM BKN100 OVC260 14/00 A3014 RMK AC6CI1 SLP209=
CYQM;2005-06-06 19:00;METAR CYQM 061900Z 17008KT 15SM BKN090 OVC260 14/01 A3013 RMK AC7CI1 SLP204=
CYQM;2005-06-06 19:28;SPECI CYQM 061928Z 17007KT 15SM -SHRA OVC090 RMK AC8=
CYQM;2005-06-06 20:00;METAR CYQM 062000Z 17005KT 15SM OVC070 14/03 A3010 RMK AC8 SLP195=
CYQM;2005-06-06 21:00;METAR CYQM 062100Z 17006KT 15SM VCSH OVC070 13/04 A3008 RMK AC8 SLP190=
CYQM;2005-06-06 22:00;METAR CYQM 062200Z 17005KT 15SM -SHRA SCT060 OVC070 13/03 A3009 RMK SC3AC5 SLP191=
CYQM;2005-06-06 22:22;SPECI CYQM 062222Z 16009KT 15SM FEW060 OVC070 RMK SC1AC7=
CYQM;2005-06-06 22:27;SPECI CYQM 062227Z 17011KT 15SM -SHRA FEW060 OVC070 RMK SC1AC7=
CYQM;2005-06-06 23:00;METAR CYQM 062300Z 15011KT 15SM -SHRA BKN060 OVC070 11/04 A3004 RMK SC6AC2 PRESFR SLP175=
CYQM;2005-06-06 23:18;SPECI CYQM 062318Z 14016KT 15SM BKN060 OVC080 RMK SC6AC2 PRESFR=
CYQM;2005-06-07 00:00;METAR CYQM 070000Z 16016G21KT 15SM FEW060 OVC080 11/M00 A3001 RMK SC2AC6 SLP165=
CYQM;2005-06-07 01:00;METAR CYQM 070100Z 17012G18KT 15SM BKN050 OVC080 11/M01 A3001 RMK SC6AC2 SLP165=
CYQM;2005-06-07 02:00;METAR CYQM 070200Z 16014G20KT 15SM OVC032 10/M01 A2997 RMK SC8 SLP153=
CYQM;2005-06-07 04:00;METAR CYQM 070400Z 16015G24KT 15SM OVC021 11/M00 A2990 RMK SC8 SLP128=
CYQM;2005-06-07 04:12;SPECI CYQM 070412Z 17019G24KT 15SM -SHRA OVC019 RMK SC8=
CYQM;2005-06-07 04:30;SPECI CYQM 070430Z 17016G22KT 15SM OVC018 RMK SC8=
CYQM;2005-06-07 05:00;METAR CYQM 070500Z 17014G21KT 15SM OVC017 10/04 A2987 RMK SC8 LTNG DIST=
CYQM;2005-06-07 05:11;SPECI CYQM 070511Z 17013G19KT 15SM TS OVC017 RMK SC8 CB EMBDD FRQ LTGICCG SW-NW=
CYQM;2005-06-07 06:00;METAR CYQM 070600Z 15010KT 6SM TSRA BR OVC014CB 08/07 A2985 RERA RMK CB8 SLP110=
CYQM;2005-06-07 06:39;SPECI CYQM 070639Z 14011KT 12SM FEW004 OVC012 RETSRA RMK SF2SC6 LTGIC=
CYQM;2005-06-07 07:00;METAR CYQM 070700Z 15012KT 15SM FEW004 OVC013 09/09 A2981 RETSRA RMK SF2SC6 SLP097=
CYQM;2005-06-07 07:25;SPECI CYQM 070725Z 15012KT 15SM FEW004 OVC017 RMK SF2SC6=
CYQM;2005-06-07 08:00;METAR CYQM 070800Z 16011KT 15SM FEW004 BKN016 OVC050 10/09 A2978 RMK SF1SC6SC1 SLP088=
CYQM;2005-06-07 08:12;SPECI CYQM 070812Z 17010KT 15SM -SHRA FEW004 BKN015 OVC050 RMK SF1SC6SC1=
CYQM;2005-06-07 09:00;METAR CYQM 070900Z 17011KT 15SM -SHRA FEW004 BKN010 OVC050 11/10 A2975 RMK SF2SC5SC2 SLP075=
CYQM;2005-06-07 09:39;SPECI CYQM 070939Z 18009KT 15SM VCSH FEW004 BKN011 OVC050 RMK SF2SC5SC2=
CYQM;2005-06-07 10:00;METAR CYQM 071000Z 18010KT 15SM FEW004 BKN011 OVC050 13/12 A2975 RMK SF2SC6SC1 SLP076=
CYQM;2005-06-07 11:00;METAR CYQM 071100Z 18008KT 15SM VCSH FEW004 OVC011 14/13 A2973 RMK SF1SC7 SLP069=
CYQM;2005-06-07 11:36;SPECI CYQM 071136Z 19008KT 15SM VCSH FEW004 OVC009 RMK SF1SF7=
CYQM;2005-06-07 12:00;METAR CYQM 071200Z 20014KT 15SM VCSH FEW004 OVC009 15/14 A2970 RMK SF1SF7 SLP059=
CYQM;2005-06-07 13:00;METAR CYQM 071300Z 19015G22KT 15SM BKN008 OVC020 15/13 A2970 RMK SF7SC1 SLP057=
CYQM;2005-06-07 13:18;SPECI CYQM 071318Z 20018KT 15SM FEW005 BKN013 BKN260 RMK SF1SC6CI1 TR SF=
CYQM;2005-06-07 14:00;METAR CYQM 071400Z 19014KT 15SM BKN012 OVC260 17/14 A2969 RMK SC7CI1 SLP054=
CYQM;2005-06-07 15:00;METAR CYQM 071500Z 19015G21KT 15SM BKN012 17/14 A2968 RMK SC7 CU ASOCTD SLP052=
CYQM;2005-06-07 16:00;METAR CYQM 071600Z 20017KT 15SM SCT015 BKN260 20/16 A2965 RMK CU3CI1 SLP042=
CYQM;2005-06-07 17:00;METAR CYQM 071700Z 21015G21KT 15SM FEW025 SCT260 23/17 A2962 RMK CU2CI1 SLP031=
CYQM;2005-06-07 18:00;METAR CYQM 071800Z 19018KT 15SM FEW030 FEW260 23/16 A2960 RMK CU1CI1 SLP025=
CYQM;2005-06-07 19:00;METAR CYQM 071900Z 21018G27KT 15SM FEW035 FEW260 23/15 A2959 RMK CU1CI1 SLP021=
CYQM;2005-06-07 20:00;METAR CYQM 072000Z 19016G24KT 15SM FEW030 FEW080 23/15 A2957 RMK CU1AC2 TR CU SLP016=
CYQM;2005-06-07 21:00;METAR CYQM 072100Z 21013G20KT 15SM BKN040 22/14 A2957 RMK SC6 SLP013=
CYQM;2005-06-07 22:00;METAR CYQM 072200Z 20013G18KT 15SM FEW045 BKN075 22/14 A2956 RMK SC2AC3 SHS N SLP011=
CYQM;2005-06-07 23:00;METAR CYQM 072300Z 19010KT 15SM FEW045 BKN075 BKN250 19/14 A2957 RMK SC2AC2CI1 CB ASOCTD LTNG W SLP015=
CYQM;2005-06-07 23:29;SPECI CYQM 072329Z 15005G18KT 15SM TS SCT035CB BKN075 BKN250 RMK CB3AC2CI1 SHS SW-NE LTGICCG=
CYQM;2005-06-07 23:49;SPECI CYQM 072349Z 23016G21KT 15SM -TSRA FEW012 BKN035CB BKN075 BKN250 RMK SF1CB6AC1CI1 LTGICCG VIS W-N 7=
CYQM;2005-06-08 00:00;METAR CYQM 080000Z 22010G21KT 15SM TSRA FEW012 BKN035CB BKN075 OVC250 17/13 A2962 RMK SF1CB6AC1CI1 LTGICCG PRESRR SLP033=
CYQM;2005-06-08 01:00;METAR CYQM 080100Z 19010KT 12SM -TSRA FEW012 SCT035CB BKN075 16/14 A2962 RERA RMK SF1CB3AC4 SLP032=
CYQM;2005-06-08 01:20;SPECI CYQM 080120Z 20011KT 15SM -SHRA FEW012 SCT050 BKN090 RETS RMK SF1SC3AC3 CB EMBD OCNL LTNG E=
CYQM;2005-06-08 01:38;SPECI CYQM 080138Z 20009KT 15SM FEW050 BKN100 RETS RMK SC2AC6=
CYQM;2005-06-08 02:00;METAR CYQM 080200Z 21006KT 15SM FEW050 BKN100 15/14 A2961 RETS RMK SC2AC6 SLP028=
CYQM;2005-06-08 03:00;METAR CYQM 080300Z 18006KT 12SM BKN100 15/14 A2960 RMK AC7 SLP025=
CYQM;2005-06-08 04:00;METAR CYQM 080400Z 22005KT 12SM BKN045 OVC100 14/13 A2962 RMK SC5AC3 SLP032=
CYQM;2005-06-08 05:00;METAR CYQM 080500Z 20004KT 12SM FEW050 OVC120 14/13 A2962 RMK SC2AC6 SLP033=
CYQM;2005-06-08 06:00;METAR CYQM 080600Z 22007KT 15SM BKN120 15/14 A2961 RMK AC7 SLP027=
CYQM;2005-06-08 07:00;METAR CYQM 080700Z 23013KT 15SM BKN120 14/13 A2962 RMK AC6 SLP030=
CYQM;2005-06-08 08:00;METAR CYQM 080800Z 23011KT 12SM FEW050 BKN100 14/12 A2964 RMK SC2AC4 SLP037=
CYQM;2005-06-08 09:00;METAR CYQM 080900Z 24008KT 8SM BKN030 BKN095 BKN120 13/12 A2967 RMK SC5AC2AC1 SLP049=
CYQM;2005-06-08 11:00;METAR CYQM 081100Z 26014G19KT 12SM FEW012 BKN030 BKN050 16/13 A2974 RMK CF1SC4SC1 SLP071=
CYQM;2005-06-08 12:00;METAR CYQM 081200Z 28015KT 15SM BKN025 BKN050 16/12 A2975 RMK CU7SC1 SLP075=
CYQM;2005-06-08 13:00;METAR CYQM 081300Z 31012G19KT 15SM BKN030 17/11 A2977 RMK SC7 SLP083=
CYQM;2005-06-08 14:00;METAR CYQM 081400Z 31009KT 15SM BKN035 BKN270 18/11 A2979 RMK SC6CI0 SLP089=
CYQM;2005-06-08 15:00;METAR CYQM 081500Z 34007KT 15SM BKN030 BKN230 19/11 A2980 RMK CU6CI2 SLP093=
CYQM;2005-06-08 16:00;METAR CYQM 081600Z 32006KT 15SM BKN030 OVC220 19/12 A2982 RMK CU6CI2 SLP098=
CYQM;2005-06-08 18:00;METAR CYQM 081800Z 09003KT 10SM BKN035 OVC240 20/12 A2985 RMK CU5CI2 SLP108=
CYQM;2005-06-08 19:00;METAR CYQM 081900Z 09003KT 10SM BKN040 OVC240 20/10 A2985 RMK CU6CI1 TCU ASOCTD SLP110=
CYQM;2005-06-08 21:00;METAR CYQM 082100Z 22006KT 10SM BKN040 BKN140 OVC240 20/12 A2987 RMK CU6AC1CI1 SLP117=
CYQM;2005-06-08 22:00;METAR CYQM 082200Z 02003KT 10SM FEW040 SCT140 BKN240 20/12 A2989 RMK CU2AC2CI1 SLP123=
CYQM;2005-06-08 23:00;METAR CYQM 082300Z 28009KT 10SM FEW040 FEW140 BKN240 19/10 A2991 RMK CU1AC2CI2 SLP130=
CYQM;2005-06-09 00:00;METAR CYQM 090000Z 28004KT 10SM FEW040 FEW140 BKN240 16/10 A2993 RMK CU1AC1CI2 SLP137=
CYQM;2005-06-09 01:00;METAR CYQM 090100Z 26007KT 10SM FEW040 FEW140 BKN250 14/09 A2995 RMK CU1AC1CI2 SLP143=
CYQM;2005-06-09 03:00;METAR CYQM 090300Z 23006KT 10SM SCT250 12/09 A2999 RMK CI2 SLP157=
CYQM;2005-06-09 04:00;METAR CYQM 090400Z 25008KT 10SM FEW240 11/09 A3000 RMK CI2 SLP161=
CYQM;2005-06-09 05:00;METAR CYQM 090500Z 24008KT 10SM FEW240 11/09 A3002 RMK CI2 SLP166=
CYQM;2005-06-09 06:00;METAR CYQM 090600Z 23006KT 10SM FEW240 10/09 A3003 RMK CI2 SLP170=
CYQM;2005-06-09 07:00;METAR CYQM 090700Z 22009KT 12SM FEW220 10/09 A3005 RMK CI2 SLP178=
CYQM;2005-06-09 08:00;METAR CYQM 090800Z 22007KT 5SM BR FEW220 10/09 A3007 RMK CI2 SLP185=
CYQM;2005-06-09 09:00;METAR CYQM 090900Z 21007KT 3SM BR FEW170 BKN270 09/09 A3008 RMK AC1CI2 SLP189=
CYQM;2005-06-09 10:00;METAR CYQM 091000Z 24003KT 5SM BR BKN270 11/10 A3010 RMK CI2 SLP194=
CYQM;2005-06-09 12:00;METAR CYQM 091200Z 22003KT 7SM BKN260 16/12 A3012 RMK CI4 SLP202=
CYQM;2005-06-09 13:00;METAR CYQM 091300Z 00000KT 10SM BKN260 18/10 A3013 RMK CI4 SLP205=
CYQM;2005-06-09 14:00;METAR CYQM 091400Z 24003KT 15SM BKN260 20/09 A3014 RMK CI3 SLP206=
CYQM;2005-06-09 15:00;METAR CYQM 091500Z 27005KT 10SM FEW040 BKN300 21/10 A3015 RMK CU1CI2 SLP210=
CYQM;2005-06-09 16:00;METAR CYQM 091600Z 25004KT 10SM FEW045 BKN300 22/10 A3014 RMK CU1CI2 SLP207=
CYQM;2005-06-09 18:00;METAR CYQM 091800Z 21009KT 12SM FEW045 BKN300 24/11 A3012 RMK CU1CI2 SLP201=
CYQM;2005-06-09 19:00;METAR CYQM 091900Z 17006KT 12SM FEW045 FEW170 BKN300 24/10 A3011 RMK CU1AC2CI2 SLP198=
CYQM;2005-06-09 20:00;METAR CYQM 092000Z 12008KT 12SM FEW040 FEW170 BKN270 23/13 A3010 RMK CU1AC1CI3 SLP195=
CYQM;2005-06-09 21:00;METAR CYQM 092100Z 14009KT 10SM FEW040 FEW130 BKN270 24/13 A3010 RMK CU1AC1CI2 SLP193=
CYQM;2005-06-09 22:00;METAR CYQM 092200Z 13007KT 8SM FEW035 BKN220 22/13 A3010 RMK CU1CI2 SLP193=
CYQM;2005-06-09 23:00;METAR CYQM 092300Z 14007KT 8SM FEW130 BKN220 20/13 A3010 RMK AC1CI4 SLP193=
CYQM;2005-06-10 00:00;METAR CYQM 100000Z 10003KT 8SM FEW130 BKN220 19/13 A3010 RMK AC1CI4 SLP194=
CYQM;2005-06-10 01:00;METAR CYQM 100100Z 13006KT 10SM FEW130 BKN240 18/13 A3011 RMK AC1CI2 SLP198=
CYQM;2005-06-10 02:00;METAR CYQM 100200Z 12003KT 10SM FEW040 FEW100 BKN220 17/13 A3012 RMK SC1AC1CI3 SLP201=
CYQM;2005-06-10 03:00;METAR CYQM 100300Z 18003KT 12SM FEW040 BKN240 16/12 A3012 RMK SC1CI2 SLP201=
CYQM;2005-06-10 04:00;METAR CYQM 100400Z 19006KT 12SM FEW040 SCT240 15/12 A3013 RMK SC1CI2 SLP204=
CYQM;2005-06-10 05:00;METAR CYQM 100500Z 18005KT 12SM FEW040 SCT080 BKN220 14/12 A3012 RMK SC1AC3CI2 SLP202=
CYQM;2005-06-10 06:00;METAR CYQM 100600Z 18003KT 12SM FEW040 SCT080 BKN220 14/12 A3011 RMK SC1AC3CI2 SLP199=
CYQM;2005-06-10 07:00;METAR CYQM 100700Z 18004KT 12SM FEW040 BKN080 BKN220 14/12 A3010 RMK SC1AC4CI2 SLP195=
CYQM;2005-06-10 08:00;METAR CYQM 100800Z 14007KT 10SM FEW040 BKN080 BKN220 15/12 A3008 RMK SC2AC3CI2 SLP189=
CYQM;2005-06-10 09:00;METAR CYQM 100900Z 18004KT 10SM FEW050 BKN090 BKN260 13/12 A3008 RMK SC2AC2CI1 SLP188=
CYQM;2005-06-10 10:00;METAR CYQM 101000Z 17006KT 15SM SCT050 BKN090 BKN260 15/13 A3008 RMK SC3AC2CI1 SLP187=
CYQM;2005-06-10 11:00;METAR CYQM 101100Z 18003KT 15SM FEW050 SCT120 BKN260 16/13 A3006 RMK SC2AC1CI2 SLP182=
CYQM;2005-06-10 12:00;METAR CYQM 101200Z 23005KT 15SM BKN050 BKN120 BKN260 18/14 A3005 RMK SC5AC1CI1 SLP177=
CYQM;2005-06-10 13:00;METAR CYQM 101300Z 20007KT 15SM BKN260 20/16 A3003 RMK CI2 SLP169=
CYQM;2005-06-10 14:00;METAR CYQM 101400Z 20010KT 15SM FEW140 BKN260 24/17 A3001 RMK AC1CI2 SLP162=
CYQM;2005-06-10 15:00;METAR CYQM 101500Z 23017G27KT 15SM FEW030 FEW120 BKN260 26/17 A3000 RMK CU1AC2CI2 SLP158=
CYQM;2005-06-10 16:00;METAR CYQM 101600Z 22020KT 12SM SCT260 27/18 A2998 RMK CI2 SLP152=
CYQM;2005-06-10 17:00;METAR CYQM 101700Z 23017G22KT 15SM SCT260 28/17 A2995 RMK CI2 SLP142=
CYQM;2005-06-10 18:00;METAR CYQM 101800Z 24016G21KT 12SM FEW130 SCT260 28/18 A2992 RMK AC1CI1 SLP133=
CYQM;2005-06-10 19:00;METAR CYQM 101900Z 23018G25KT 12SM FEW160 BKN260 29/18 A2990 RMK AC2CI3 SLP126=
CYQM;2005-06-10 20:00;METAR CYQM 102000Z 23016G22KT 12SM FEW160 BKN260 28/18 A2988 RMK AC2CI3 CS ASOCTD SLP119=
CYQM;2005-06-10 22:00;METAR CYQM 102200Z 20011KT 12SM FEW100 FEW150 BKN260 25/17 A2986 RMK AC1AC2CI3 SLP113=
CYQM;2005-06-10 23:00;METAR CYQM 102300Z 23011G18KT 12SM FEW100 FEW150 BKN260 25/18 A2984 RMK AC1AC1CI2 SLP107=
CYQM;2005-06-11 00:00;METAR CYQM 110000Z 22017KT 12SM SCT100 SCT150 OVC260 23/17 A2986 RMK AC3AC1CI3 SLP113=
CYQM;2005-06-11 01:00;METAR CYQM 110100Z 23008KT 12SM FEW100 SCT150 BKN260 20/16 A2988 RMK AC2AC2CI2 SLP119=
CYQM;2005-06-11 02:00;METAR CYQM 110200Z 18005KT 12SM SCT150 BKN260 18/15 A2987 RMK AC3CI3 LTGIC N SLP117=
CYQM;2005-06-11 03:00;METAR CYQM 110300Z 22005KT 12SM SCT100 OVC260 16/14 A2989 RMK AC3CI4 LTGIC NE-E SLP122=
CYQM;2005-06-11 04:00;METAR CYQM 110400Z 02002KT 12SM BKN025 OVC100 20/17 A2991 RMK SC5AC3 SLP128=
CYQM;2005-06-11 06:00;METAR CYQM 110600Z 00000KT 15SM FEW100 SCT260 15/13 A2993 RMK AC1CI2 SLP135=
CYQM;2005-06-11 07:00;METAR CYQM 110700Z 04002KT 15SM BKN025 OVC075 15/13 A2995 RMK SC5AC3 SLP143=
CYQM;2005-06-11 07:36;SPECI CYQM 110736Z 04010G15KT 12SM SCT007 OVC025 RMK SF3SC5=
CYQM;2005-06-11 07:43;SPECI CYQM 110743Z 04010G16KT 12SM BKN006 OVC025 RMK SF6SC2=
CYQM;2005-06-11 08:00;METAR CYQM 110800Z 04012KT 10SM BKN006 OVC025 15/13 A2997 RMK SF7SC1 SLP151=
CYQM;2005-06-11 08:20;SPECI CYQM 110820Z 04011G18KT 5SM BR FEW006 OVC025 RMK SF2SC6=
CYQM;2005-06-11 08:40;SPECI CYQM 110840Z 03009G15KT 7SM BKN006 OVC025 RMK SF6SC2=
CYQM;2005-06-11 09:00;METAR CYQM 110900Z 03010KT 10SM BKN006 OVC025 14/12 A3000 RMK SF6SC2 SLP160=
CYQM;2005-06-11 09:40;SPECI CYQM 110940Z 03009G16KT 12SM SCT006 BKN025 OVC260 RMK SF4SC3CI0=
CYQM;2005-06-11 10:00;METAR CYQM 111000Z 04009KT 12SM FEW006 BKN020 OVC260 13/11 A3002 RMK SF2SC4CI1 SLP166=
CYQM;2005-06-11 11:00;METAR CYQM 111100Z 03008KT 15SM FEW007 BKN020 13/10 A3006 RMK SF2SC5 SLP179=
CYQM;2005-06-11 11:39;SPECI CYQM 111139Z 02010KT 15SM BKN008 BKN020 BKN260 RMK CF5SC1CI1=
CYQM;2005-06-11 11:52;SPECI CYQM 111152Z 04010G16KT 15SM SCT008 BKN020 BKN260 RMK CF4SC1CI1=
CYQM;2005-06-11 12:00;METAR CYQM 111200Z 03011KT 15SM SCT008 BKN020 BKN260 13/09 A3008 RMK CF4SC1CI1 SLP186=
CYQM;2005-06-11 13:00;METAR CYQM 111300Z 01014KT 15SM FEW012 FEW025 BKN260 14/09 A3009 RMK CU1SC1CI2 SLP192=
CYQM;2005-06-11 14:00;METAR CYQM 111400Z 02012G17KT 15SM FEW015 FEW120 BKN260 15/09 A3009 RMK CU1AC1CI2 SLP191=
CYQM;2005-06-11 15:00;METAR CYQM 111500Z 02011KT 15SM FEW025 BKN260 16/10 A3011 RMK CU2CI2 SLP197=
CYQM;2005-06-11 16:00;METAR CYQM 111600Z 06009KT 15SM FEW030 BKN260 16/10 A3010 RMK CU1CI2 SLP195=
CYQM;2005-06-11 17:00;METAR CYQM 111700Z 02008KT 15SM FEW030 BKN260 17/11 A3010 RMK CU1CI2 SLP195=
CYQM;2005-06-11 18:00;METAR CYQM 111800Z 02010KT 15SM BKN260 17/10 A3011 RMK CI2 SLP196=
CYQM;2005-06-11 19:00;METAR CYQM 111900Z 03011KT 15SM BKN260 17/10 A3011 RMK CI2 SLP198=
CYQM;2005-06-11 20:00;METAR CYQM 112000Z 02007KT 15SM BKN260 17/10 A3010 RMK CI2 SLP193=
CYQM;2005-06-11 21:00;METAR CYQM 112100Z 03007KT 15SM BKN260 17/10 A3009 RMK CI4 SLP192=
CYQM;2005-06-11 22:00;METAR CYQM 112200Z 05008KT 15SM BKN260 17/10 A3009 RMK CI3 SLP191=
CYQM;2005-06-11 23:00;METAR CYQM 112300Z 05007KT 15SM FEW030 FEW140 BKN260 15/09 A3010 RMK SC1AC1CI2 SLP193=
CYQM;2005-06-12 00:00;METAR CYQM 120000Z 06007KT 15SM FEW030 FEW120 BKN260 13/09 A3010 RMK SC1AC1CI2 SLP194=
CYQM;2005-06-12 01:00;METAR CYQM 120100Z 08007KT 15SM FEW120 BKN260 13/09 A3010 RMK AC1CI2 SLP195=
CYQM;2005-06-12 02:00;METAR CYQM 120200Z 10008KT 15SM BKN260 12/09 A3010 RMK CI2 SLP194=
CYQM;2005-06-12 03:00;METAR CYQM 120300Z 09007KT 15SM SCT260 11/09 A3009 RMK CI2 SLP192=
CYQM;2005-06-12 04:00;METAR CYQM 120400Z 07003KT 15SM FEW030 FEW260 11/09 A3010 RMK SC1CI1 SLP193=
CYQM;2005-06-12 05:00;METAR CYQM 120500Z 09005KT 15SM FEW030 11/09 A3006 RMK SC1 SLP182=
CYQM;2005-06-12 06:00;METAR CYQM 120600Z 09005KT 15SM FEW030 11/09 A3005 RMK SC2 SLP177=
CYQM;2005-06-12 07:00;METAR CYQM 120700Z 13006KT 15SM FEW030 10/09 A3003 RMK SC2 SLP169=
CYQM;2005-06-12 08:00;METAR CYQM 120800Z 15006KT 12SM FEW030 SCT120 11/10 A3001 RMK SC1AC2 SLP164=
CYQM;2005-06-12 09:00;METAR CYQM 120900Z 00000KT 15SM BKN027 BKN120 OVC260 13/11 A3003 RMK SC6AC1CI1 SLP169=
CYQM;2005-06-12 10:00;METAR CYQM 121000Z 16007KT 15SM FEW030TCU FEW120 BKN260 13/11 A3001 RMK TCU1AC2CI1 SLP163=
CYQM;2005-06-12 11:00;METAR CYQM 121100Z 17008KT 15SM SCT030 OVC100 15/11 A3000 RMK SC3AC5 SLP161=
CYQM;2005-06-12 12:00;METAR CYQM 121200Z 16010KT 15SM OVC035 15/11 A2998 RMK SC8 SLP153=
CYQM;2005-06-12 13:00;METAR CYQM 121300Z 16010KT 15SM FEW035 BKN100 OVC260 16/11 A2994 RMK SC2AC3CI2 SLP140=
CYQM;2005-06-12 14:00;METAR CYQM 121400Z 16008KT 15SM BKN035 OVC100 16/13 A2992 RMK SC6AC2 VIS N 5 OCNL RW- SLP133=
CYQM;2005-06-12 14:13;SPECI CYQM 121413Z 16008KT 15SM BKN035 BKN100 OVC260 RMK SC5AC2CI1=
CYQM;2005-06-12 14:43;SPECI CYQM 121443Z 18009KT 15SM -SHRA BKN035 OVC100 RMK SC6AC2 VIS W 6=
CYQM;2005-06-12 15:00;METAR CYQM 121500Z 17009KT 12SM -SHRA FEW012 SCT035 OVC080 16/14 A2990 RERA RMK CF1SC3AC5 SLP126=
CYQM;2005-06-12 15:20;SPECI CYQM 121520Z 18008KT 12SM -SHRA FEW005 FEW035 BKN080 OVC260 RMK SF1SC2AC6CI1=
CYQM;2005-06-12 16:00;METAR CYQM 121600Z 18006KT 12SM -SHRA FEW007 BKN080 OVC120 17/15 A2988 RMK SF1AC6AC2 SLP121=
CYQM;2005-06-12 17:00;METAR CYQM 121700Z 22016KT 12SM -SHRA SCT008 BKN030 OVC080 19/17 A2986 RMK SF4SC3AC1 SLP113=
CYQM;2005-06-12 17:45;SPECI CYQM 121745Z 22011KT 10SM -SHRA BKN006 BKN090 BKN260 RMK SF5AC2CI1=
CYQM;2005-06-12 18:00;METAR CYQM 121800Z 23010G16KT 10SM BKN006 BKN090 BKN260 19/17 A2983 RMK SF5AC2CI1 SLP102=
CYQM;2005-06-12 18:17;SPECI CYQM 121817Z 23015KT 10SM -SHRA BKN006 OVC100 RMK SF6AC2=
CYQM;2005-06-12 18:43;SPECI CYQM 121843Z 22014G19KT 8SM SCT006 OVC090 RMK SF3AC5 OCNL RW-=
CYQM;2005-06-12 19:00;METAR CYQM 121900Z 23013KT 10SM SCT006 OVC090 19/17 A2980 RMK SF2AC6 OCNL RW- SLP091=
CYQM;2005-06-12 19:09;SPECI CYQM 121909Z 22013KT 12SM FEW006 BKN090 BKN120 RMK SF2AC5AC1=
CYQM;2005-06-12 21:00;METAR CYQM 122100Z 25014G19KT 12SM FEW015 SCT120 BKN260 23/19 A2977 RMK CU1AC3CI1 SLP082=
CYQM;2005-06-12 22:00;METAR CYQM 122200Z 22011G16KT 12SM SCT090 BKN140 BKN260 22/18 A2976 RMK AC3AC2CI2 SLP080=
CYQM;2005-06-12 23:00;METAR CYQM 122300Z 23014KT 12SM FEW090 BKN140 OVC260 21/18 A2976 RMK AC1AC4CI2 SLP080=
CYQM;2005-06-13 00:00;METAR CYQM 130000Z 23008KT 10SM FEW090 SCT140 BKN260 20/18 A2975 RMK AC2AC2CI2 SLP077=
CYQM;2005-06-13 01:00;METAR CYQM 130100Z 20006KT 10SM SCT140 BKN260 17/16 A2976 RMK AC4CI2 SLP079=
CYQM;2005-06-13 02:00;METAR CYQM 130200Z 18004KT 12SM SCT050 BKN120 OVC260 15/14 A2975 RMK SC3AC2CI2 SLP076=
CYQM;2005-06-13 03:00;METAR CYQM 130300Z 17005KT 12SM BKN045 OVC260 15/14 A2975 RMK SC5CI2 SLP075=
CYQM;2005-06-13 04:00;METAR CYQM 130400Z 12003KT 12SM BKN030 BKN050 OVC260 15/13 A2975 RMK SC5SC2CI1 SLP076=
CYQM;2005-06-13 05:00;METAR CYQM 130500Z 15003KT 12SM BKN015 OVC030 15/13 A2974 RMK SC6SC2 SLP071=
CYQM;2005-06-13 06:00;METAR CYQM 130600Z 33002KT 12SM SCT005 OVC015 15/14 A2973 RMK SF3SC5 SLP069=
CYQM;2005-06-13 06:20;SPECI CYQM 130620Z 34008KT 1 1/4SM BR OVC005 RMK FG5SF3=
CYQM;2005-06-13 06:39;SPECI CYQM 130639Z 02009KT 3/4SM R06/4000VP6000FT/D R29/P6000FT/N BR VV003 RMK FG8=
CYQM;2005-06-13 06:50;SPECI CYQM 130650Z 02009KT 1SM R06/P6000FT/U R29/5000FT/U BR VV003 RMK FG8=
CYQM;2005-06-13 07:00;METAR CYQM 130700Z 01010KT 3/4SM R06/6000FT/D R29/4000VP6000FT/D BR VV003 14/13 A2972 RMK FG8 SLP065=
CYQM;2005-06-13 07:35;SPECI CYQM 130735Z 36010KT 3/4SM R06/6000FT/U R29/5500FT/N -DZ BR OVC002 RMK FG6SF2=
CYQM;2005-06-13 07:56;SPECI CYQM 130756Z 02009KT 3/4SM R06/6000FT/N R29/5500FT/U BR OVC002 RMK FG6SF2=
CYQM;2005-06-13 08:31;SPECI CYQM 130831Z 36005KT 3/4SM R06/P6000FT/N R29/P6000FT/N -DZ BR OVC002 RMK FG6SF2=
CYQM;2005-06-13 09:00;METAR CYQM 130900Z 35009KT 3/4SM R06/5500FT/D R29/5000FT/D -DZ BR OVC002 12/11 A2973 RMK FG6SF2 SLP070=
CYQM;2005-06-13 10:00;METAR CYQM 131000Z 35008KT 3/4SM R06/P6000FT/U R29/P6000FT/U -DZ BR OVC002 11/11 A2973 RMK FG4SF4 SLP070=
CYQM;2005-06-13 10:24;SPECI CYQM 131024Z 36005KT 1SM R06/P6000FT/U R29/P6000FT/U -DZ BR OVC002 RMK FG4SF4=
CYQM;2005-06-13 11:00;METAR CYQM 131100Z 35004KT 3/4SM R06/P6000FT/D R29/P6000FT/U -DZ BR OVC002 11/11 A2973 RMK FG3SF5 SLP070=
CYQM;2005-06-13 12:00;METAR CYQM 131200Z 35005KT 3/4SM R06/P6000FT/D R29/P6000FT/U -DZ BR OVC002 12/11 A2974 RMK FG3SF5 SLP071=
CYQM;2005-06-13 12:53;SPECI CYQM 131253Z 36007KT 1 1/4SM -DZ BR OVC003 RMK SF8=
CYQM;2005-06-13 13:00;METAR CYQM 131300Z 33009KT 1 1/4SM -DZ BR OVC003 12/11 A2975 RMK SF8 SLP074=
CYQM;2005-06-13 13:17;SPECI CYQM 131317Z 01006KT 2SM -DZ BR OVC003 RMK SF8=
CYQM;2005-06-13 14:00;METAR CYQM 131400Z 36005KT 3SM -DZ BR OVC003 12/11 A2974 RMK SF8 SLP072=
CYQM;2005-06-13 14:12;SPECI CYQM 131412Z 34008KT 4SM BR OVC003 RMK SF8=
CYQM;2005-06-13 15:14;SPECI CYQM 131514Z 34005KT 10SM OVC005 RMK SF8=
CYQM;2005-06-13 16:00;METAR CYQM 131600Z 34004KT 10SM OVC005 13/12 A2972 RMK ST8 SLP065=
CYQM;2005-06-13 17:00;METAR CYQM 131700Z 35006KT 10SM OVC008 13/11 A2971 RMK ST8 SLP063=
CYQM;2005-06-13 18:00;METAR CYQM 131800Z 35005KT 10SM OVC009 14/12 A2970 RMK ST8 SLP060=
CYQM;2005-06-13 19:00;METAR CYQM 131900Z 02005KT 12SM OVC009 14/12 A2969 RMK ST8 SLP055=
CYQM;2005-06-13 19:42;SPECI CYQM 131942Z 06002KT 12SM BKN010 OVC015 RMK SC6SC2=
CYQM;2005-06-13 20:00;METAR CYQM 132000Z 03005KT 15SM BKN010 OVC015 14/12 A2968 RMK SC6SC2 SLP051=
CYQM;2005-06-13 20:42;SPECI CYQM 132042Z 06003KT 15SM FEW008 BKN015 BKN080 RMK SF2SC6AC1=
CYQM;2005-06-13 21:00;METAR CYQM 132100Z 04005KT 15SM FEW012 SCT020 BKN080 BKN250 15/12 A2967 RMK CF1SC2AC4CI1 SLP048=
CYQM;2005-06-13 22:00;METAR CYQM 132200Z 03011KT 15SM OVC015 13/11 A2970 RMK SC8 SLP058=
CYQM;2005-06-13 22:41;SPECI CYQM 132241Z 03010KT 4SM -SHRA BR OVC015 RMK SC8=
CYQM;2005-06-13 23:17;SPECI CYQM 132317Z 01010KT 2SM -SHRA BR BKN004 OVC020 RMK SF7SC1=
CYQM;2005-06-14 00:00;METAR CYQM 140000Z 04003KT 7SM -SHRA BKN004 OVC020 11/10 A2972 RERA RMK SF7SC1 SLP067=
CYQM;2005-06-14 00:17;SPECI CYQM 140017Z 02005KT 3SM -DZ BR BKN004 OVC020 RMK SF7SC1=
CYQM;2005-06-14 00:42;SPECI CYQM 140042Z 02004KT 8SM OVC002 RMK SF8=
CYQM;2005-06-14 01:00;METAR CYQM 140100Z 36004KT 8SM OVC002 11/10 A2974 RMK SF8 SLP074=
CYQM;2005-06-14 01:43;SPECI CYQM 140143Z 01003KT 1 1/4SM BR OVC001 RMK FG2SF6=
CYQM;2005-06-14 02:00;METAR CYQM 140200Z 03003KT 1 1/4SM BR OVC001 11/11 A2974 RMK FG2ST6 SLP074=
CYQM;2005-06-14 03:00;METAR CYQM 140300Z 07012KT 1 1/4SM BR OVC001 12/11 A2973 RMK FG2ST6 SLP071=
CYQM;2005-06-14 03:18;SPECI CYQM 140318Z 08009G16KT 1 1/4SM -DZ BR OVC001 RMK FG2ST6=
CYQM;2005-06-14 04:00;METAR CYQM 140400Z 08010G15KT 1 1/4SM -DZ BR OVC001 12/11 A2975 RMK FG2ST6 SLP075=
CYQM;2005-06-14 04:06;SPECI CYQM 140406Z 08011KT 1 1/2SM -DZ BR OVC002 RMK ST8=
CYQM;2005-06-14 05:00;METAR CYQM 140500Z 09011KT 4SM BR BKN003 BKN005 OVC008 11/11 A2977 RMK SF5SF2SC2 SLP083=
CYQM;2005-06-14 06:36;SPECI CYQM 140636Z 06007KT 6SM -DZ BR SCT004 BKN006 OVC009 RMK SF3SF3SC2=
CYQM;2005-06-14 07:00;METAR CYQM 140700Z 07011KT 3SM -DZ BR BKN004 BKN006 OVC009 11/10 A2979 RMK SF5SF2SC2 SLP091=
CYQM;2005-06-14 07:36;SPECI CYQM 140736Z 09011KT 8SM OVC003 RMK ST8=
CYQM;2005-06-14 08:00;METAR CYQM 140800Z 08010KT 8SM BKN004 OVC012 11/10 A2982 RMK SF7SC1 SLP099=
CYQM;2005-06-14 09:00;METAR CYQM 140900Z 09012KT 8SM BKN004 OVC012 11/10 A2982 RMK SF7SC1 SLP101=
CYQM;2005-06-14 10:00;METAR CYQM 141000Z 07011G17KT 8SM BKN004 OVC010 11/10 A2983 RMK SF6SC2 SLP103=
CYQM;2005-06-14 10:25;SPECI CYQM 141025Z 08013KT 8SM BKN006 OVC010 RMK SF6SC2=
CYQM;2005-06-14 10:55;SPECI CYQM 141055Z 09011KT 10SM SCT006 BKN013 BKN025 RMK SF4SC2SC2=
CYQM;2005-06-14 11:00;METAR CYQM 141100Z 09013KT 10SM SCT006 BKN015 BKN025 11/09 A2984 RMK SF3SC2SC2 SLP107=
CYQM;2005-06-14 12:00;METAR CYQM 141200Z 08014KT 15SM FEW010 BKN015 BKN025 13/09 A2986 RMK CU2SC2SC2 SLP112=
CYQM;2005-06-14 13:00;METAR CYQM 141300Z 10010G18KT 15SM FEW012 BKN020 14/09 A2986 RMK CU2SC5 SLP113=
CYQM;2005-06-14 14:00;METAR CYQM 141400Z 10009G18KT 15SM FEW012 BKN020 14/09 A2986 RMK CU2SC5 SLP114=
CYQM;2005-06-14 15:00;METAR CYQM 141500Z 10009KT 15SM SCT016 BKN030 15/09 A2987 RMK CU3SC4 SLP116=
CYQM;2005-06-14 16:00;METAR CYQM 141600Z 09012KT 15SM FEW020 BKN035 16/10 A2986 RMK CU2SC5 SLP114=
CYQM;2005-06-14 17:00;METAR CYQM 141700Z 09013KT 15SM FEW020 SCT035 BKN050 17/09 A2986 RMK CU2SC2SC2 SLP112=
CYQM;2005-06-14 18:00;METAR CYQM 141800Z 08010G17KT 15SM FEW020 SCT035 BKN070 18/08 A2985 RMK CU1SC2AC4 SLP109=
CYQM;2005-06-14 19:00;METAR CYQM 141900Z 09010G17KT 15SM FEW020 SCT040 BKN070 18/06 A2985 RMK CU1SC2AC4 SLP109=
CYQM;2005-06-14 20:00;METAR CYQM 142000Z 09013KT 15SM FEW020 BKN045 OVC070 17/06 A2984 RMK CU1SC5AC2 SLP105=
CYQM;2005-06-14 21:00;METAR CYQM 142100Z 08015KT 15SM FEW020 BKN040 BKN075 16/05 A2984 RMK SC1SC6AC1 SLP106=
CYQM;2005-06-14 22:00;METAR CYQM 142200Z 08012G17KT 15SM FEW020 BKN040 BKN070 BKN220 16/05 A2984 RMK SC1SC6AC1CI1 SLP106=
CYQM;2005-06-14 23:00;METAR CYQM 142300Z 07011KT 15SM BKN035 BKN220 15/05 A2985 RMK SC6CI1 SLP109=
CYQM;2005-06-15 00:00;METAR CYQM 150000Z 07006KT 15SM BKN030 BKN070 BKN210 15/06 A2986 RMK SC6AC1CI1 SLP112=
CYQM;2005-06-15 02:00;METAR CYQM 150200Z 09009KT 15SM BKN100 BKN250 13/07 A2986 RMK AC6CI0 SLP113=
CYQM;2005-06-15 03:00;METAR CYQM 150300Z 07005KT 15SM BKN100 12/07 A2986 RMK AC7 SLP115=
CYQM;2005-06-15 04:00;METAR CYQM 150400Z 08006KT 15SM SCT140 BKN250 11/07 A2987 RMK AC4CI1 SLP116=
CYQM;2005-06-15 05:00;METAR CYQM 150500Z 08005KT 15SM SCT140 BKN250 11/07 A2987 RMK AC3CI1 SLP116=
CYQM;2005-06-15 06:00;METAR CYQM 150600Z 07004KT 15SM FEW050 SCT120 BKN250 09/07 A2987 RMK SC1AC3CI1 SLP117=
CYQM;2005-06-15 07:00;METAR CYQM 150700Z 07003KT 15SM FEW050 FEW110 BKN240 08/06 A2986 RMK SC1AC1CI2 SLP115=
CYQM;2005-06-15 08:00;METAR CYQM 150800Z 09004KT 15SM FEW050 BKN120 BKN250 08/05 A2987 RMK SC2AC5CI1 SLP116=
CYQM;2005-06-15 09:00;METAR CYQM 150900Z 05004KT 15SM FEW050 BKN090 BKN140 BKN260 08/05 A2987 RMK SC1AC4AC1CI1 SLP117=
CYQM;2005-06-15 11:00;METAR CYQM 151100Z 07007KT 15SM FEW020 BKN090 BKN140 11/05 A2988 RMK CU1AC5AC2 SLP119=
CYQM;2005-06-15 12:00;METAR CYQM 151200Z 09008KT 15SM FEW020 BKN090 BKN140 BKN260 11/06 A2987 RMK CU1AC5AC1CI1 TR CU SLP117=
CYQM;2005-06-15 13:00;METAR CYQM 151300Z 10006KT 15SM FEW025 BKN120 BKN260 13/06 A2987 RMK CU1AC6CI1 TR CU SLP118=
CYQM;2005-06-15 14:00;METAR CYQM 151400Z 10006KT 15SM FEW030 BKN120 BKN260 14/06 A2987 RMK CU1AC6CI1 TR CU SLP116=
CYQM;2005-06-15 15:00;METAR CYQM 151500Z 11010KT 15SM FEW030 BKN120 BKN260 15/05 A2986 RMK CU1AC6CI1 TR CU SLP114=
CYQM;2005-06-15 16:00;METAR CYQM 151600Z 11005KT 15SM FEW040 SCT120 BKN260 17/06 A2985 RMK CU1AC4CI2 SLP111=
CYQM;2005-06-15 17:00;METAR CYQM 151700Z 07010G15KT 15SM FEW040 SCT120 BKN260 18/07 A2984 RMK CU1AC4CI2 SLP106=
CYQM;2005-06-15 18:00;METAR CYQM 151800Z 11013G19KT 15SM FEW045 SCT120 BKN260 18/07 A2982 RMK CU1AC3CI2 SLP101=
CYQM;2005-06-15 19:00;METAR CYQM 151900Z 10009G16KT 15SM FEW045 SCT120 BKN260 18/07 A2983 RMK CU1AC3CI3 SLP102=
CYQM;2005-06-15 20:00;METAR CYQM 152000Z 09012KT 15SM FEW045 SCT120 BKN260 18/07 A2982 RMK CU1AC4CI2 SLP100=
CYQM;2005-06-15 21:00;METAR CYQM 152100Z 10012KT 15SM FEW040 SCT120 BKN260 18/07 A2982 RMK CU2AC2CI2 SLP101=
CYQM;2005-06-15 22:00;METAR CYQM 152200Z 08012KT 15SM FEW035 BKN120 BKN260 17/08 A2982 RMK SC2AC4CI1 SLP101=
CYQM;2005-06-15 23:00;METAR CYQM 152300Z 08006KT 15SM SCT035 BKN100 BKN260 17/09 A2983 RMK SC3AC2CI1 SLP102=
CYQM;2005-06-16 00:00;METAR CYQM 160000Z 13005KT 15SM FEW035 BKN100 BKN260 16/10 A2984 RMK SC2AC4CI1 SHS DIST NW SLP107=
CYQM;2005-06-16 00:50;SPECI CYQM 160050Z 14010G15KT 15SM -SHRA FEW035 BKN100 OVC260 RMK SC2AC6CI1=
CYQM;2005-06-16 01:00;METAR CYQM 160100Z 13009G15KT 15SM -SHRA FEW035 BKN090 OVC260 15/05 A2986 RMK SC2AC6CI0 SLP113=
CYQM;2005-06-16 01:21;SPECI CYQM 160121Z 13008KT 15SM BKN085 OVC260 RMK AC7CI0=
CYQM;2005-06-16 02:00;METAR CYQM 160200Z 13009KT 15SM FEW085 OVC120 14/05 A2986 RMK AC2AC6 SLP115=
CYQM;2005-06-16 02:05;SPECI CYQM 160205Z 14009KT 12SM -SHRA SCT085 OVC120 RMK AC3AC5=
CYQM;2005-06-16 03:00;METAR CYQM 160300Z 11006KT 15SM -SHRA FEW085 OVC120 12/08 A2986 RMK AC2AC6 SLP115=
CYQM;2005-06-16 04:00;METAR CYQM 160400Z 09005KT 15SM -RA OVC100 11/08 A2986 RMK AC8 SLP113=
CYQM;2005-06-16 05:00;METAR CYQM 160500Z 07003KT 15SM -RA OVC100 10/09 A2985 RMK AC8 SLP110=
CYQM;2005-06-16 05:40;SPECI CYQM 160540Z 00000KT 15SM OVC075 RMK AC8=
CYQM;2005-06-16 05:49;SPECI CYQM 160549Z 00000KT 15SM -SHRA OVC075 RMK AC8=
CYQM;2005-06-16 06:00;METAR CYQM 160600Z 06003KT 15SM -SHRA OVC075 10/08 A2985 RMK AC8 SLP109=
CYQM;2005-06-16 06:36;SPECI CYQM 160636Z 08005KT 15SM OVC070 RMK AC8=
CYQM;2005-06-16 06:53;SPECI CYQM 160653Z 09005KT 15SM -SHRA OVC075 RMK AC8=
CYQM;2005-06-16 07:00;METAR CYQM 160700Z 09006KT 15SM -SHRA OVC075 10/07 A2983 RMK AC8 SLP104=
CYQM;2005-06-16 07:49;SPECI CYQM 160749Z 08005KT 15SM OVC070 RMK AC8=
CYQM;2005-06-16 07:53;SPECI CYQM 160753Z 08004KT 15SM -SHRA OVC070 RMK AC8=
CYQM;2005-06-16 08:00;METAR CYQM 160800Z 08005KT 15SM -SHRA OVC070 09/07 A2984 RMK AC8 SLP105=
CYQM;2005-06-16 08:28;SPECI CYQM 160828Z 08005KT 12SM -SHRA BKN012 OVC070 RMK SC5AC3=
CYQM;2005-06-16 09:00;METAR CYQM 160900Z 07005KT 15SM -SHRA FEW012 BKN070 OVC100 09/08 A2985 RMK SC2AC4AC2 SLP109=
CYQM;2005-06-16 09:45;SPECI CYQM 160945Z 08009KT 15SM FEW008 FEW012 BKN070 RMK CF1SC2AC5=
CYQM;2005-06-16 10:00;METAR CYQM 161000Z 09010KT 15SM -SHRA FEW008 SCT012 BKN070 09/07 A2984 RMK CF1SC3AC3 SLP106=
CYQM;2005-06-16 10:40;SPECI CYQM 161040Z 09009KT 15SM FEW008 SCT012 OVC070 RMK CF1SC3AC4=
CYQM;2005-06-16 11:00;METAR CYQM 161100Z 09010KT 15SM FEW008 BKN015 BKN070 OVC100 09/07 A2984 RMK CF2SC3AC2AC1 SLP107=
CYQM;2005-06-16 12:00;METAR CYQM 161200Z 09010KT 15SM FEW008 BKN012 OVC070 09/08 A2984 RMK SF2SC6AC1 SLP106=
CYQM;2005-06-16 13:00;METAR CYQM 161300Z 09012KT 12SM VCSH FEW008 OVC012 10/08 A2984 RMK SF1SC7 SLP105=
CYQM;2005-06-16 13:20;SPECI CYQM 161320Z 09010KT 3SM -SHRA BR FEW008 OVC012 RMK SF1SC7=
CYQM;2005-06-16 13:33;SPECI CYQM 161333Z 08008KT 2SM -SHRA BR SCT006 OVC012 RMK SF3SC5=
CYQM;2005-06-16 13:42;SPECI CYQM 161342Z 08007KT 1 1/2SM -SHRA BR BKN006 OVC012 RMK SF5SC3=
CYQM;2005-06-16 14:00;METAR CYQM 161400Z 08010KT 1 1/2SM -SHRA BR BKN006 OVC012 10/09 A2983 RMK SF6SC2 SLP102=
CYQM;2005-06-16 15:00;METAR CYQM 161500Z 09013KT 2 1/2SM -SHRA BR BKN005 OVC012 10/09 A2982 RMK SF7SC1 SLP100=
CYQM;2005-06-16 15:23;SPECI CYQM 161523Z 07012G17KT 3SM -SHRA BR OVC007 RMK SF8=
CYQM;2005-06-16 15:49;SPECI CYQM 161549Z 07011KT 2 1/2SM -DZ BR OVC007 RMK SF8=
CYQM;2005-06-16 16:00;METAR CYQM 161600Z 08010G15KT 2 1/2SM -DZ BR OVC007 11/10 A2981 RMK SF8 SLP096=
CYQM;2005-06-16 16:36;SPECI CYQM 161636Z 09015KT 4SM -DZ BR OVC006 RMK SF8=
CYQM;2005-06-16 17:00;METAR CYQM 161700Z 09012G17KT 6SM -RADZ BR OVC006 11/10 A2980 RMK SF8 SLP093=
CYQM;2005-06-16 17:33;SPECI CYQM 161733Z 08012KT 6SM -DZ BR OVC008 RMK SF8=
CYQM;2005-06-16 18:00;METAR CYQM 161800Z 08012G17KT 3SM -DZ BR OVC008 11/10 A2979 RMK SF8 SLP090=
CYQM;2005-06-16 18:40;SPECI CYQM 161840Z 08011KT 3SM -RA BR OVC008 RMK SF8=
CYQM;2005-06-16 19:00;METAR CYQM 161900Z 09015G20KT 1 1/2SM -RA BR OVC008 11/10 A2978 RMK SF8 SLP085=
CYQM;2005-06-16 19:09;SPECI CYQM 161909Z 07014G20KT 6SM -RA BR OVC008 RMK SF8=
CYQM;2005-06-16 19:47;SPECI CYQM 161947Z 08014KT 2SM -DZ BR OVC008 RMK SF8=
CYQM;2005-06-16 20:00;METAR CYQM 162000Z 08010KT 1 1/2SM -DZ BR OVC007 11/10 A2977 RMK SF8 SLP084=
CYQM;2005-06-16 20:25;SPECI CYQM 162025Z 07012KT 1 1/2SM -RADZ BR BKN006 OVC012 RMK SF6SC2=
CYQM;2005-06-16 20:41;SPECI CYQM 162041Z 07009KT 4SM -RADZ BR BKN007 OVC012 RMK SF7SC1=
CYQM;2005-06-16 20:53;SPECI CYQM 162053Z 08012KT 3SM -RADZ BR BKN004 OVC012 RMK SF6SC2=
CYQM;2005-06-16 21:00;METAR CYQM 162100Z 08010G15KT 2SM -RADZ BR BKN004 OVC012 11/10 A2978 RMK SF6SC2 SLP085=
CYQM;2005-06-16 21:22;SPECI CYQM 162122Z 07010G16KT 1 1/2SM -DZ BR BKN003 OVC012 RMK SF7SC1=
CYQM;2005-06-16 22:00;METAR CYQM 162200Z 07010G15KT 1 1/4SM -DZ BR BKN003 OVC010 11/10 A2977 RMK SF7SC1 SLP084=
CYQM;2005-06-16 23:00;METAR CYQM 162300Z 07008KT 1 1/4SM -DZ BR OVC003 10/09 A2977 RMK SF8 SLP083=
CYQM;2005-06-17 00:00;METAR CYQM 170000Z 06008KT 1SM R29/P6000FT/U R06/P6000FT/N -DZ BR OVC003 10/09 A2977 RMK SF8 SLP084=
CYQM;2005-06-17 00:41;SPECI CYQM 170041Z 06009KT 1 1/2SM -DZ BR OVC003 RMK SF8=
CYQM;2005-06-17 01:00;METAR CYQM 170100Z 06009KT 1 3/4SM -DZ BR BKN003 OVC005 10/09 A2977 RMK SF6SF2 SLP082=
CYQM;2005-06-17 01:16;SPECI CYQM 170116Z 05009KT 2 1/2SM -DZ BR SCT003 OVC004 RMK SF3SF5=
CYQM;2005-06-17 02:00;METAR CYQM 170200Z 06008KT 1 1/2SM -DZ BR FEW003 BKN004 OVC008 09/09 A2977 RMK SF2SF4SF2 SLP083=
CYQM;2005-06-17 02:38;SPECI CYQM 170238Z 06010KT 3SM -DZ BR BKN004 OVC007 RMK SF6SF2=
CYQM;2005-06-17 02:50;SPECI CYQM 170250Z 06013KT 2 1/2SM -DZ BR FEW003 BKN004 OVC008 RMK SF2SF5SF2=
CYQM;2005-06-17 03:00;METAR CYQM 170300Z 07009G16KT 2 1/2SM -DZ BR FEW003 BKN005 OVC008 09/08 A2976 RMK SF2SF5SF1 SLP081=
CYQM;2005-06-17 03:22;SPECI CYQM 170322Z 06011G17KT 5SM -DZ BR SCT003 OVC007 RMK SF3SF5=
CYQM;2005-06-17 04:00;METAR CYQM 170400Z 07011KT 4SM -TSRA BR BKN004 OVC007 09/08 A2975 RMK SF6SF2 CB N SLP076=
CYQM;2005-06-17 04:12;SPECI CYQM 170412Z 06010G15KT 5SM TSRA BR BKN005 OVC025CB RMK SF6CB2 LTGICCG=
CYQM;2005-06-17 05:00;METAR CYQM 170500Z 05007KT 12SM -SHRA BKN004 OVC025 09/08 A2975 RETSRA RMK SF7SC1 CB EMBD OCNL LTNG NE AND S SLP075=
CYQM;2005-06-17 05:02;SPECI CYQM 170502Z 05006KT 12SM -SHRA BKN002 OVC004 RMK SF5SF3 OCNLLTNG NE CB EMBD=
CYQM;2005-06-17 05:27;SPECI CYQM 170527Z 04007KT 8SM -DZ SCT002 OVC005 RMK SF3SF5=
CYQM;2005-06-17 06:00;METAR CYQM 170600Z 06009KT 7SM -DZ FEW002 OVC004 09/08 A2974 RMK SF2SF6 SLP072=
CYQM;2005-06-17 06:15;SPECI CYQM 170615Z 05008KT 5SM -DZ BR FEW002 OVC003 RMK SF2SF6=
CYQM;2005-06-17 06:36;SPECI CYQM 170636Z 05007KT 5SM -DZ BR OVC002 RMK ST8=
CYQM;2005-06-17 06:52;SPECI CYQM 170652Z 05008KT 5SM -DZ BR SCT002 BKN003 OVC005 RMK SF3SF4SF1=
CYQM;2005-06-17 08:07;SPECI CYQM 170807Z 05007KT 2 1/2SM -DZ BR BKN003 OVC005 RMK SF6SF2=
CYQM;2005-06-17 08:26;SPECI CYQM 170826Z 05007KT 1 3/4SM -DZ BR BKN002 OVC005 RMK SF7SF1=
CYQM;2005-06-17 09:00;METAR CYQM 170900Z 04009KT 1 1/2SM -DZ BR BKN005 OVC010 09/08 A2974 RMK SF7SC1 SLP072=
CYQM;2005-06-17 09:18;SPECI CYQM 170918Z 04009KT 2SM BR BKN005 OVC010 RMK SF7SC1=
CYQM;2005-06-17 09:29;SPECI CYQM 170929Z 04008KT 4SM BR BKN004 OVC010 RMK SF7SC1=
CYQM;2005-06-17 10:00;METAR CYQM 171000Z 06007KT 12SM BKN004 OVC012 09/08 A2975 RMK SF7SC1 SLP078=
CYQM;2005-06-17 11:00;METAR CYQM 171100Z 05007KT 6SM BR OVC005 09/09 A2977 RMK SC8 SLP082=
CYQM;2005-06-17 11:39;SPECI CYQM 171139Z 06006KT 6SM BR OVC006 RMK SC8=
CYQM;2005-06-17 12:00;METAR CYQM 171200Z 07008KT 6SM BR OVC006 10/09 A2977 RMK SC8 SLP083=
CYQM;2005-06-17 13:00;METAR CYQM 171300Z 08006KT 8SM BKN007 OVC030 10/09 A2977 RMK SC7SC1 SLP082=
CYQM;2005-06-17 14:00;METAR CYQM 171400Z 08007KT 15SM BKN007 OVC030 11/09 A2978 RMK SC7SC1 SLP085=
CYQM;2005-06-17 14:39;SPECI CYQM 171439Z 05007KT 15SM OVC010 RMK SC8=
CYQM;2005-06-17 14:50;SPECI CYQM 171450Z 05010KT 12SM -SHRA BKN010 OVC035 RMK SC7SC1=
CYQM;2005-06-17 15:00;METAR CYQM 171500Z 05009KT 12SM -SHRA BKN009 OVC035 11/09 A2976 RMK SC7SC1 PRES UNSTDY CIG RAG SLP081=
CYQM;2005-06-17 16:00;METAR CYQM 171600Z 05007KT 12SM -SHRA BKN011 OVC035 11/10 A2978 RMK SC7SC1 SLP085=
CYQM;2005-06-17 16:38;SPECI CYQM 171638Z 05007KT 10SM -SHRA SCT008 BKN013 OVC035 RMK SF3SC4SC1=
CYQM;2005-06-17 17:00;METAR CYQM 171700Z 04011KT 4SM SHRA BR SCT008 SCT013 OVC030 11/10 A2975 RMK SF3SC1SC4 SLP077=
CYQM;2005-06-17 17:33;SPECI CYQM 171733Z 04010KT 1 1/2SM -SHRA BR BKN010 OVC025 RERA RMK SF7SC1=
CYQM;2005-06-17 17:50;SPECI CYQM 171750Z 04008G15KT 6SM -SHRA BR OVC003 RERA RMK SF8=
CYQM;2005-06-17 18:00;METAR CYQM 171800Z 04008KT 6SM -SHRA BR OVC003 11/10 A2977 RERA RMK SF8 SLP083=
CYQM;2005-06-17 18:38;SPECI CYQM 171838Z 04007KT 8SM -SHRA OVC002 RMK SF8=
CYQM;2005-06-17 18:45;SPECI CYQM 171845Z 04005KT 2SM -SHRA BR OVC002 RMK SF8=
CYQM;2005-06-17 19:00;METAR CYQM 171900Z 04010KT 1 1/2SM SHRA BR OVC002 11/10 A2978 RMK SF8 SLP087=
CYQM;2005-06-17 19:09;SPECI CYQM 171909Z 04011KT 7SM BKN003 OVC020 RERA RMK SF7SC1=
CYQM;2005-06-17 20:00;METAR CYQM 172000Z 03009KT 10SM BKN006 OVC020 11/10 A2977 RERA RMK SF7SC1 SLP084=
CYQM;2005-06-17 20:21;SPECI CYQM 172021Z 04009G15KT 10SM BKN004 OVC020 RMK SF7SC1=
CYQM;2005-06-17 21:00;METAR CYQM 172100Z 04012KT 10SM -DZ BKN004 OVC020 10/10 A2977 RMK SF7SC1 SLP082=
CYQM;2005-06-17 21:40;SPECI CYQM 172140Z 04009G20KT 10SM BKN004 OVC015 RMK SF6SC2=
CYQM;2005-06-17 22:00;METAR CYQM 172200Z 03013G18KT 10SM BKN004 OVC015 10/09 A2978 RMK SF6SC2 SLP086=
CYQM;2005-06-17 22:31;SPECI CYQM 172231Z 04012G17KT 10SM -SHRA BKN004 OVC015 RMK SF6SC2=
CYQM;2005-06-17 22:48;SPECI CYQM 172248Z 04012G17KT 2 1/2SM -SHRA BR BKN004 OVC015 RMK SF6SC2=
CYQM;2005-06-17 23:00;METAR CYQM 172300Z 04010KT 2 1/2SM -SHRA BR BKN004 OVC015 10/09 A2980 RMK SF6SC2 SLP092=
CYQM;2005-06-17 23:14;SPECI CYQM 172314Z 04009KT 1 1/4SM -SHRA BR BKN004 OVC015 RMK SF6SC2=
CYQM;2005-06-18 00:00;METAR CYQM 180000Z 04011KT 1 1/4SM -SHRA BR BKN004 OVC015 10/09 A2981 RMK SF6SC2 SLP095=
CYQM;2005-06-18 00:41;SPECI CYQM 180041Z 04009KT 2SM -DZ BR OVC004 RMK SF8=
CYQM;2005-06-18 01:00;METAR CYQM 180100Z 03009G15KT 2SM -DZ BR OVC004 09/09 A2982 RMK SF8 SLP099=
CYQM;2005-06-18 02:00;METAR CYQM 180200Z 03009KT 2SM -DZ BR OVC004 09/09 A2981 RMK SF8 SLP098=
CYQM;2005-06-18 03:00;METAR CYQM 180300Z 04011KT 2SM -DZ BR OVC004 09/09 A2982 RMK SF8 SLP100=
CYQM;2005-06-18 03:51;SPECI CYQM 180351Z 03009KT 2SM -DZ BR OVC003 RMK SF8=
CYQM;2005-06-18 04:00;METAR CYQM 180400Z 03011KT 2SM -DZ BR OVC003 09/09 A2981 RMK SF8 SLP097=
CYQM;2005-06-18 05:00;METAR CYQM 180500Z 04008G15KT 2SM -DZ BR OVC003 10/09 A2981 RMK SF8 SLP095=
CYQM;2005-06-18 06:00;METAR CYQM 180600Z 03009KT 2SM -DZ BR OVC003 10/09 A2979 RMK SF8 SLP091=
CYQM;2005-06-18 07:00;METAR CYQM 180700Z 03008KT 2SM -DZ BR OVC003 10/09 A2979 RMK SF8 SLP090=
CYQM;2005-06-18 08:00;METAR CYQM 180800Z 03010KT 2SM -DZ BR OVC003 10/09 A2979 RMK SF8 SLP091=
CYQM;2005-06-18 08:17;SPECI CYQM 180817Z 03009KT 1 1/4SM -DZ BR OVC003 RMK SF8=
CYQM;2005-06-18 08:28;SPECI CYQM 180828Z 02007KT 3/4SM R06/P6000FT/D -DZ BR OVC003 RMK SF8=
CYQM;2005-06-18 08:36;SPECI CYQM 180836Z 03009KT 1 1/4SM -DZ BR OVC003 RMK ST8=
CYQM;2005-06-18 09:00;METAR CYQM 180900Z 03009KT 1 1/4SM -DZ BR BKN002 OVC015 10/09 A2980 RMK SF7SC1 SLP094=
CYQM;2005-06-18 09:29;SPECI CYQM 180929Z 02009KT 1 1/4SM -DZ BR OVC003 RMK ST8=
CYQM;2005-06-18 09:45;SPECI CYQM 180945Z 03010KT 1SM R06/P6000FT/N R29/6000FT/N -DZ BR OVC003 RMK SF8=
CYQM;2005-06-18 10:00;METAR CYQM 181000Z 03013KT 1 1/4SM -DZ BR BKN003 OVC015 10/09 A2981 RMK SF7SC1 SLP098=
CYQM;2005-06-18 10:20;SPECI CYQM 181020Z 03011KT 1 1/4SM -DZ BR OVC002 RMK SF8=
CYQM;2005-06-18 10:50;SPECI CYQM 181050Z 03011KT 1 1/2SM -DZ BR BKN003 OVC017 RMK SF7SC1=
CYQM;2005-06-18 11:00;METAR CYQM 181100Z 03011KT 1 1/2SM -DZ BR BKN003 OVC017 10/10 A2982 RMK SF7SC1 SLP100=
CYQM;2005-06-18 12:09;SPECI CYQM 181209Z 01008KT 3/4SM R06/4500VP6000FT/U R29/P6000FT/N -DZ BR BKN003 OVC018 RMK SF7SC1=
CYQM;2005-06-18 12:15;SPECI CYQM 181215Z 02010KT 1 1/2SM -DZ BR BKN003 OVC018 RMK SF7SC1=
CYQM;2005-06-18 12:51;SPECI CYQM 181251Z 04012G17KT 4SM BR BKN005 OVC020 RMK SF7SC1=
CYQM;2005-06-18 13:00;METAR CYQM 181300Z 04012G17KT 4SM BR BKN005 OVC020 10/10 A2982 RMK SF7SC1 SLP100=
CYQM;2005-06-18 13:38;SPECI CYQM 181338Z 04007KT 2SM BR BKN004 OVC020 RMK SF7SC1=
CYQM;2005-06-18 13:51;SPECI CYQM 181351Z 03008KT 1 1/4SM -DZ BR OVC001 RMK ST8=
CYQM;2005-06-18 14:00;METAR CYQM 181400Z 02008KT 1 1/4SM -DZ BR OVC001 10/10 A2985 RMK SF8 SLP109=
CYQM;2005-06-18 14:41;SPECI CYQM 181441Z 02009KT 1 1/2SM -DZ BR OVC002 RMK SF8=
CYQM;2005-06-18 15:00;METAR CYQM 181500Z 36009KT 1 1/2SM -DZ BR OVC002 11/10 A2986 RMK SF8 SLP114=
CYQM;2005-06-18 15:08;SPECI CYQM 181508Z 01009KT 1 3/4SM BR BKN003 OVC025 RMK SF7SC1=
CYQM;2005-06-18 15:18;SPECI CYQM 181518Z 36011KT 1 3/4SM -DZ BR BKN003 OVC025 RMK SF7SC1=
CYQM;2005-06-18 15:46;SPECI CYQM 181546Z 36009KT 3SM -DZ BR BKN005 OVC025 RMK SF7SC1=
CYQM;2005-06-18 16:00;METAR CYQM 181600Z 36007KT 2SM -DZ BR BKN005 OVC025 11/10 A2986 RMK SF7SC1 SLP112=
CYQM;2005-06-18 16:30;SPECI CYQM 181630Z 01007KT 1 1/4SM -DZ BR OVC005 RMK SF8=
CYQM;2005-06-18 17:20;SPECI CYQM 181720Z 01009KT 6SM BR BKN005 OVC030 RMK SC7SC1=
CYQM;2005-06-18 17:43;SPECI CYQM 181743Z 35011KT 10SM BKN008 OVC030 RMK SC7SC1=
CYQM;2005-06-18 18:00;METAR CYQM 181800Z 36009KT 12SM BKN008 OVC030 11/10 A2986 RMK SC7SC1 SLP115=
CYQM;2005-06-18 19:52;SPECI CYQM 181952Z 34010KT 1 1/2SM BR BKN006 OVC025 RMK SF7SC1=
CYQM;2005-06-18 20:00;METAR CYQM 182000Z 32010KT 1 1/2SM -DZ BR BKN006 OVC025 10/10 A2991 RMK SF7SC1 SLP130=
CYQM;2005-06-18 20:23;SPECI CYQM 182023Z 33012KT 1 1/2SM -DZ BR BKN004 OVC020 RMK SF7SC1=
CYQM;2005-06-18 20:44;SPECI CYQM 182044Z 32010KT 3SM -DZ BR BKN004 OVC015 RMK SF7SC1=
CYQM;2005-06-18 21:00;METAR CYQM 182100Z 33011KT 3SM -DZ BR BKN004 OVC015 10/09 A2991 RMK SF7SC1 SLP131=
CYQM;2005-06-18 21:16;SPECI CYQM 182116Z 34010KT 5SM -DZ BR BKN006 OVC015 RMK SF6SC2=
CYQM;2005-06-18 21:45;SPECI CYQM 182145Z 34009KT 7SM BKN006 OVC015 RMK SF6SC2=
CYQM;2005-06-18 21:55;SPECI CYQM 182155Z 34012KT 7SM -DZ BKN006 OVC015 RMK SF6SC2=
CYQM;2005-06-18 22:00;METAR CYQM 182200Z 34011KT 7SM -DZ BKN006 OVC015 10/09 A2993 RMK SF6SC2 SLP136=
CYQM;2005-06-18 22:28;SPECI CYQM 182228Z 34010KT 7SM BKN006 OVC015 RMK SF6SC2=
CYQM;2005-06-18 23:00;METAR CYQM 182300Z 33007KT 5SM BR BKN006 OVC015 10/09 A2995 RMK SF6SC2 SLP144=
CYQM;2005-06-18 23:06;SPECI CYQM 182306Z 33007KT 2SM -DZ BR BKN004 OVC015 RMK SF6SC2=
CYQM;2005-06-18 23:53;SPECI CYQM 182353Z 35006KT 5SM -DZ BR BKN004 OVC015 RMK SF6SC2=
CYQM;2005-06-19 00:00;METAR CYQM 190000Z 36007KT 5SM -DZ BR BKN004 OVC015 09/09 A2996 RMK SF6SC2 SLP148=
CYQM;2005-06-19 00:51;SPECI CYQM 190051Z 36007KT 8SM -DZ BKN006 OVC015 RMK SF7SC1=
CYQM;2005-06-19 01:00;METAR CYQM 190100Z 33008KT 8SM -DZ BKN006 OVC015 09/09 A2998 RMK SF7SC1 SLP154=
CYQM;2005-06-19 01:35;SPECI CYQM 190135Z 34007KT 3SM -DZ BR BKN004 OVC015 RMK SF7SC1=
CYQM;2005-06-19 02:00;METAR CYQM 190200Z 35005KT 4SM -DZ BR BKN004 OVC007 09/08 A2998 RMK SF6SF2 SLP155=
CYQM;2005-06-19 02:40;SPECI CYQM 190240Z 32007KT 3SM -DZ BR BKN002 OVC007 RMK SF6SF2=
CYQM;2005-06-19 03:31;SPECI CYQM 190331Z 31008KT 2SM -DZ BR BKN002 OVC007 RMK SF6SF2=
CYQM;2005-06-19 04:00;METAR CYQM 190400Z 32007KT 1 1/2SM -DZ BR BKN002 OVC007 09/08 A3000 RMK SF6SF2 SLP162=
CYQM;2005-06-19 05:00;METAR CYQM 190500Z 35012KT 3SM -DZ BR BKN002 OVC007 09/08 A3000 RMK SF6SF2 SLP161=
CYQM;2005-06-19 05:15;SPECI CYQM 190515Z 36011KT 5SM -DZ BR BKN004 OVC007 RMK SF6SF2=
CYQM;2005-06-19 06:00;METAR CYQM 190600Z 36008KT 4SM -DZ BR OVC004 09/08 A3002 RMK SF8 SLP167=
CYQM;2005-06-19 06:29;SPECI CYQM 190629Z 36010KT 3SM -DZ BR FEW004 OVC006 RMK SF2SF6=
CYQM;2005-06-19 07:00;METAR CYQM 190700Z 35008G17KT 3SM -DZ BR FEW004 OVC006 09/08 A3002 RMK SF2SF6 SLP169=
CYQM;2005-06-19 08:00;METAR CYQM 190800Z 36011G19KT 3SM -DZ BR FEW004 OVC006 09/08 A3004 RMK SF2SF6 SLP174=
CYQM;2005-06-19 08:25;SPECI CYQM 190825Z 36011G17KT 1 1/2SM -DZ BR SCT004 OVC006 RMK SF3SF5=
CYQM;2005-06-19 09:31;SPECI CYQM 190931Z 36012KT 6SM BR BKN005 OVC020 RMK SF7SC1=
CYQM;2005-06-19 09:44;SPECI CYQM 190944Z 35014G19KT 2SM BR BKN004 OVC015 RMK SF7SC1=
CYQM;2005-06-19 09:47;SPECI CYQM 190947Z 36014G19KT 1 1/2SM -DZ BR BKN004 OVC015 RMK SF7SC1=
CYQM;2005-06-19 10:00;METAR CYQM 191000Z 36013KT 1 1/2SM -DZ BR BKN004 OVC015 09/09 A3008 RMK SF7SC1 SLP187=
CYQM;2005-06-19 10:33;SPECI CYQM 191033Z 36010G19KT 3SM -DZ BR BKN004 OVC015 RMK SF7SC1=
CYQM;2005-06-19 10:46;SPECI CYQM 191046Z 36013KT 2SM -DZ BR OVC004 RMK SF8=
CYQM;2005-06-19 12:00;METAR CYQM 191200Z 36013KT 8SM -DZ BKN004 OVC015 10/09 A3012 RMK SF7SC1 CIG RAG SLP202=
CYQM;2005-06-19 12:38;SPECI CYQM 191238Z 36012G19KT 15SM OVC006 RMK SF8=
CYQM;2005-06-19 13:00;METAR CYQM 191300Z 01012G18KT 15SM OVC006 10/09 A3014 RMK SC8 SLP209=
CYQM;2005-06-19 13:44;SPECI CYQM 191344Z 02011G16KT 15SM OVC010 RMK SC8=
CYQM;2005-06-19 14:00;METAR CYQM 191400Z 01010G19KT 15SM OVC010 11/09 A3015 RMK SC8 SLP213=
CYQM;2005-06-19 15:00;METAR CYQM 191500Z 02012G17KT 15SM BKN015 11/09 A3016 RMK SC7 SLP215=
CYQM;2005-06-19 16:00;METAR CYQM 191600Z 03014KT 15SM BKN017 12/09 A3016 RMK SC7 SLP216=
CYQM;2005-06-19 17:00;METAR CYQM 191700Z 02011G17KT 15SM BKN017 12/09 A3017 RMK SC7 SLP220=
CYQM;2005-06-19 18:00;METAR CYQM 191800Z 01011KT 15SM BKN025 12/09 A3018 RMK CU7 SLP223=
CYQM;2005-06-19 19:00;METAR CYQM 191900Z 02009G18KT 15SM BKN030 13/09 A3019 RMK CU6 SLP225=
CYQM;2005-06-19 21:00;METAR CYQM 192100Z 03007KT 15SM FEW030 SCT250 14/09 A3019 RMK CU2CI1 SLP224=
CYQM;2005-06-19 22:00;METAR CYQM 192200Z 02007KT 15SM FEW030 FEW250 13/08 A3019 RMK CU1CI1 SLP225=
CYQM;2005-06-19 23:00;METAR CYQM 192300Z 36005KT 15SM FEW250 13/08 A3021 RMK CI2 SLP231=
CYQM;2005-06-20 00:00;METAR CYQM 200000Z 02002KT 15SM FEW250 11/08 A3020 RMK CI2 SLP230=
CYQM;2005-06-20 04:00;METAR CYQM 200400Z 18004KT 15SM FEW140 FEW250 07/07 A3022 RMK AC1CI1 SLP235=
CYQM;2005-06-20 05:00;METAR CYQM 200500Z 19003KT 15SM MIFG FEW140 FEW250 06/05 A3021 RMK AC1CI1 SLP231=
CYQM;2005-06-20 05:24;SPECI CYQM 200524Z 21004KT 1/2SM R29/2400VP6000FT/D FG SKC RMK FG6=
CYQM;2005-06-20 06:00;METAR CYQM 200600Z 21005KT 3/8SM R29/2000FT/N R06/2000FT/N FG SKC 04/04 A3019 RMK FG7 SLP226=
CYQM;2005-06-20 06:40;SPECI CYQM 200640Z 19006KT 1SM R29/3500VP6000FT/U R06/P6000FT/U BR SKC RMK FG4=
CYQM;2005-06-20 06:50;SPECI CYQM 200650Z 20007KT 10SM BCFG FEW250 RMK CI2 VIS W QUAD 1=
CYQM;2005-06-20 07:00;METAR CYQM 200700Z 21006KT 10SM BCFG FEW250 04/04 A3019 RMK CI2 VIS W QUAD 1 SLP226=
CYQM;2005-06-20 07:11;SPECI CYQM 200711Z 21006KT 1SM R29/P6000FT/N R06/5000FT/D BR BKN250 RMK FG4CI2=
CYQM;2005-06-20 07:28;SPECI CYQM 200728Z 21007KT 1/2SM R06/1400V2000FT/N R29/3000VP6000FT/D FG BKN250 RMK FG6CI1=
CYQM;2005-06-20 07:46;SPECI CYQM 200746Z 21006KT 7SM BCFG FEW002 FEW250 RMK SF1CI2 VIS W 3/4=
CYQM;2005-06-20 08:11;SPECI CYQM 200811Z 20006KT 15SM PRFG FEW250 RMK FG1CI1 VIS SW-N 1/2=
CYQM;2005-06-20 09:00;METAR CYQM 200900Z 22008KT 10SM R29/P6000FT/N R06/3000VP6000FT/D PRFG FEW250 04/03 A3020 RMK FG1CI1 VIS S-NW 3/8 SLP228=
CYQM;2005-06-20 10:00;METAR CYQM 201000Z 23005KT 15SM FEW250 06/05 A3019 RMK CI1 FG IN VLY SLP227=
CYQM;2005-06-20 11:00;METAR CYQM 201100Z 22006KT 15SM FEW250 08/07 A3020 RMK CI1 FG IN VLY SLP229=
CYQM;2005-06-20 12:00;METAR CYQM 201200Z 23008KT 15SM FEW250 12/09 A3020 RMK CI1 SLP229=
CYQM;2005-06-20 13:00;METAR CYQM 201300Z 22011KT 15SM FEW250 16/10 A3018 RMK CI1 SLP223=
CYQM;2005-06-20 14:00;METAR CYQM 201400Z 22008KT 15SM SCT250 20/11 A3016 RMK CI2 SLP216=
CYQM;2005-06-20 15:00;METAR CYQM 201500Z 22010G15KT 15SM SCT250 21/11 A3014 RMK CI2 SLP208=
CYQM;2005-06-20 16:00;METAR CYQM 201600Z 24012G18KT 15SM FEW030 BKN250 22/11 A3012 RMK CU1CI2 SLP202=
CYQM;2005-06-20 17:00;METAR CYQM 201700Z 24012G18KT 15SM BKN250 23/11 A3010 RMK CI2 SLP195=
CYQM;2005-06-20 18:00;METAR CYQM 201800Z 21010G17KT 15SM FEW030 FEW250 24/10 A3007 RMK CU1CI2 SLP185=
CYQM;2005-06-20 19:00;METAR CYQM 201900Z 25017KT 15SM FEW250 25/10 A3004 RMK CI2 SLP175=
CYQM;2005-06-20 20:00;METAR CYQM 202000Z 22015G24KT 15SM BKN250 25/10 A3001 RMK CI2 SLP165=
CYQM;2005-06-20 21:00;METAR CYQM 202100Z 22017G25KT 15SM BKN250 24/09 A2998 RMK CI2 SLP154=
CYQM;2005-06-20 22:00;METAR CYQM 202200Z 21017G24KT 15SM SCT250 23/09 A2997 RMK CI2 SLP151=
CYQM;2005-06-20 23:00;METAR CYQM 202300Z 22013G19KT 15SM FEW250 21/09 A2996 RMK CI2 SLP148=
CYQM;2005-06-21 00:00;METAR CYQM 210000Z 22016KT 15SM FEW140 FEW250 19/09 A2996 RMK AC1CI1 TR AC SLP147=
CYQM;2005-06-21 01:00;METAR CYQM 210100Z 22015G20KT 15SM FEW140 FEW250 18/08 A2996 RMK AC1CI1 SLP147=
CYQM;2005-06-21 02:00;METAR CYQM 210200Z 22013G18KT 15SM FEW140 FEW250 17/07 A2995 RMK AC1CI1 SLP145=
CYQM;2005-06-21 03:00;METAR CYQM 210300Z 21009KT 15SM FEW250 15/08 A2995 RMK CI1 SLP141=
CYQM;2005-06-21 04:00;METAR CYQM 210400Z 21010KT 15SM SKC 15/08 A2993 RMK SLP135=
CYQM;2005-06-21 05:00;METAR CYQM 210500Z 22009KT 15SM SKC 13/08 A2992 RMK SLP132=
CYQM;2005-06-21 06:00;METAR CYQM 210600Z 22011KT 15SM FEW250 13/08 A2991 RMK CI1 SLP130=
CYQM;2005-06-21 07:00;METAR CYQM 210700Z 22012KT 15SM FEW100 FEW260 13/08 A2990 RMK AC1CI1 SLP126=
CYQM;2005-06-21 08:00;METAR CYQM 210800Z 22011KT 15SM FEW100 FEW260 13/08 A2990 RMK AC1CI1 SLP125=
CYQM;2005-06-21 10:00;METAR CYQM 211000Z 23012G17KT 15SM FEW120 FEW260 13/09 A2989 RMK AC1CI1 SLP123=
CYQM;2005-06-21 12:00;METAR CYQM 211200Z 23013G18KT 15SM FEW260 17/11 A2987 RMK CI1 SLP116=
CYQM;2005-06-21 13:00;METAR CYQM 211300Z 23014G19KT 15SM FEW260 20/13 A2986 RMK CI1 SLP111=
CYQM;2005-06-21 14:00;METAR CYQM 211400Z 24016KT 15SM FEW260 22/14 A2983 RMK CI1 SLP102=
CYQM;2005-06-21 15:00;METAR CYQM 211500Z 23013KT 15SM FEW260 24/15 A2981 RMK CI1 SLP095=
CYQM;2005-06-21 16:00;METAR CYQM 211600Z 23015G20KT 15SM FEW260 25/15 A2979 RMK CI1 SLP090=
CYQM;2005-06-21 17:00;METAR CYQM 211700Z 23016G26KT 15SM FEW260 26/15 A2978 RMK CI1 SLP084=
CYQM;2005-06-21 18:00;METAR CYQM 211800Z 24016G26KT 15SM FEW260 27/14 A2975 RMK CI1 SLP075=
CYQM;2005-06-21 19:00;METAR CYQM 211900Z 23014G24KT 15SM SCT260 27/14 A2973 RMK CI2 SLP069=
CYQM;2005-06-21 21:00;METAR CYQM 212100Z 22019G24KT 15SM SCT260 27/15 A2969 RMK CI2 SLP055=
CYQM;2005-06-21 22:00;METAR CYQM 212200Z 22014G24KT 15SM SCT260 26/14 A2967 RMK CI2 SLP048=
CYQM;2005-06-21 23:00;METAR CYQM 212300Z 22017KT 15SM SCT260 24/13 A2967 RMK CI2 SLP047=
CYQM;2005-06-22 00:00;METAR CYQM 220000Z 20009KT 15SM SCT260 21/13 A2966 RMK CI2 SLP045=
CYQM;2005-06-22 01:00;METAR CYQM 220100Z 21011G16KT 15SM BKN260 20/11 A2967 RMK CI4 SLP047=
CYQM;2005-06-22 02:00;METAR CYQM 220200Z 20009KT 15SM FEW100 BKN260 18/11 A2966 RMK AC1CI3 SLP045=
CYQM;2005-06-22 03:00;METAR CYQM 220300Z 18006KT 15SM FEW100 SCT260 14/11 A2966 RMK AC1CI2 SLP045=
CYQM;2005-06-22 04:00;METAR CYQM 220400Z 18006KT 15SM FEW012 FEW100 BKN260 14/10 A2966 RMK SC1AC1CI3 SLP043=
CYQM;2005-06-22 05:00;METAR CYQM 220500Z 24004KT 15SM FEW012 SCT075 BKN260 14/11 A2965 RMK SC1AC3CI2 SLP042=
CYQM;2005-06-22 06:00;METAR CYQM 220600Z 23009KT 15SM SCT120 15/11 A2965 RMK AC3 SLP042=
CYQM;2005-06-22 08:17;SPECI CYQM 220817Z 23007KT 15SM -SHRA BKN050 BKN100 OVC260 RMK SC5AC2CI1=
CYQM;2005-06-22 09:00;METAR CYQM 220900Z 25007KT 15SM -SHRA BKN050 BKN100 OVC260 14/12 A2967 RMK SC5AC2CI1 SLP046=
CYQM;2005-06-22 09:55;SPECI CYQM 220955Z 23005KT 15SM SCT050 BKN100 BKN260 RERA RMK SC3AC2CI1=
CYQM;2005-06-22 10:00;METAR CYQM 221000Z 23005KT 15SM SCT050 BKN100 BKN260 14/13 A2968 RERA RMK SC3AC2CI1 SLP052=
CYQM;2005-06-22 11:24;SPECI CYQM 221124Z 33004KT 12SM BKN045 BKN100 OVC260 RMK SC5AC2CI1=
CYQM;2005-06-22 12:00;METAR CYQM 221200Z 31007KT 8SM -SHRA BKN035 BKN080 OVC260 15/13 A2973 RMK SC5AC2CI1 SLP070=
CYQM;2005-06-22 12:44;SPECI CYQM 221244Z 32009KT 15SM BKN040 BKN080 OVC260 RMK SC5AC2CI1=
CYQM;2005-06-22 13:00;METAR CYQM 221300Z 32009KT 15SM BKN040 BKN080 OVC260 15/13 A2974 RMK SC5AC2CI1 SLP073=
CYQM;2005-06-22 13:11;SPECI CYQM 221311Z 32009KT 12SM -SHRA BKN040 BKN080 OVC260 RMK SC5AC2CI1=
CYQM;2005-06-22 13:52;SPECI CYQM 221352Z 32005KT 12SM BKN040 BKN080 OVC260 RMK SC5AC2CI1=
CYQM;2005-06-22 14:00;METAR CYQM 221400Z 32004KT 12SM -SHRA SCT040 BKN100 OVC260 15/13 A2975 RMK SC4AC3CI1 SLP076=
CYQM;2005-06-22 14:35;SPECI CYQM 221435Z 32003KT 15SM SCT040 BKN100 OVC260 RMK SC4AC2CI2=
CYQM;2005-06-22 15:00;METAR CYQM 221500Z 32006KT 15SM -SHRA SCT040 BKN100 OVC260 16/13 A2976 RMK SC4AC2CI2 SLP080=
CYQM;2005-06-22 15:54;SPECI CYQM 221554Z 34007KT 15SM SCT040 BKN100 BKN260 RMK SC3AC2CI2=
CYQM;2005-06-22 16:00;METAR CYQM 221600Z 33007KT 15SM SCT040 BKN100 BKN260 16/13 A2978 RMK SC3AC2CI2 SLP086=
CYQM;2005-06-22 16:32;SPECI CYQM 221632Z 32005KT 12SM -SHRA SCT030 BKN080 OVC260 RMK SC3AC3CI2=
CYQM;2005-06-22 17:00;METAR CYQM 221700Z 32006KT 10SM -SHRA BKN020 OVC080 16/12 A2979 RMK SC6AC2 SLP088=
CYQM;2005-06-22 18:00;METAR CYQM 221800Z 03009KT 15SM -SHRA BKN017 BKN080 OVC120 14/12 A2980 RMK SC5AC2AC1 SLP092=
CYQM;2005-06-22 18:37;SPECI CYQM 221837Z 04005KT 15SM SCT015 BKN050 OVC100 RMK CU3SC3AC2=
CYQM;2005-06-22 19:00;METAR CYQM 221900Z 02007KT 15SM FEW015 BKN040 OVC120 15/11 A2980 RMK CU2SC3AC2 SLP092=
CYQM;2005-06-22 20:00;METAR CYQM 222000Z 03005KT 15SM FEW020 BKN040 BKN100 15/10 A2981 RMK CU2SC4AC2 SLP096=
CYQM;2005-06-22 21:00;METAR CYQM 222100Z 02005KT 15SM FEW023 FEW045 SCT095 BKN250 16/11 A2982 RMK CU1SC2AC1CI2 SLP099=
CYQM;2005-06-22 22:00;METAR CYQM 222200Z 01009KT 15SM FEW025 FEW045 FEW100 BKN250 16/09 A2983 RMK CU1SC2AC1CI2 SLP103=
CYQM;2005-06-22 23:00;METAR CYQM 222300Z 36003KT 15SM SCT040 BKN070 BKN250 15/09 A2985 RMK SC3AC4CI1 SLP109=
CYQM;2005-06-23 00:00;METAR CYQM 230000Z 01003KT 15SM FEW040 FEW100 SCT260 13/09 A2986 RMK SC1AC1CI0 SLP115=
CYQM;2005-06-23 02:00;METAR CYQM 230200Z 33004KT 15SM BKN040 BKN110 11/09 A2991 RMK SC6AC1 SLP131=
CYQM;2005-06-23 03:00;METAR CYQM 230300Z 32007KT 15SM FEW110 FEW250 10/07 A2992 RMK AC1CI1 SLP135=
CYQM;2005-06-23 04:00;METAR CYQM 230400Z 36002KT 15SM FEW110 FEW250 09/06 A2993 RMK AC1CI1 SLP136=
CYQM;2005-06-23 05:00;METAR CYQM 230500Z 29002KT 15SM FEW100 09/05 A2993 RMK AC2 SLP138=
CYQM;2005-06-23 06:00;METAR CYQM 230600Z 34005KT 15SM FEW045 FEW120 FEW250 09/04 A2993 RMK SC1AC2CI1 SLP137=
CYQM;2005-06-23 07:00;METAR CYQM 230700Z 31005KT 15SM FEW040 FEW120 07/03 A2993 RMK SC1AC1 SLP137=
CYQM;2005-06-23 08:00;METAR CYQM 230800Z 27004KT 15SM FEW080 FEW250 06/04 A2994 RMK AC1CI1 SLP141=
CYQM;2005-06-23 09:00;METAR CYQM 230900Z 25004KT 15SM FEW080 06/04 A2996 RMK AC1 SLP146=
CYQM;2005-06-23 10:00;METAR CYQM 231000Z 28004KT 15SM FEW080 08/05 A2997 RMK AC1 SLP149=
CYQM;2005-06-23 11:00;METAR CYQM 231100Z 31005KT 15SM FEW080 11/06 A2998 RMK AC1 SLP153=
CYQM;2005-06-23 12:00;METAR CYQM 231200Z 32008KT 15SM FEW250 14/07 A2998 RMK CI1 SLP155=
CYQM;2005-06-23 13:00;METAR CYQM 231300Z 33007KT 15SM FEW250 16/08 A2999 RMK CI1 SLP156=
CYQM;2005-06-23 14:00;METAR CYQM 231400Z 34006KT 15SM FEW030 17/08 A2999 RMK CU1 SLP158=
CYQM;2005-06-23 15:00;METAR CYQM 231500Z 01008G15KT 15SM FEW040 18/07 A3000 RMK CU2 SLP159=
CYQM;2005-06-23 16:00;METAR CYQM 231600Z 01011KT 15SM FEW040 19/07 A2999 RMK CU2 SLP156=
CYQM;2005-06-23 17:00;METAR CYQM 231700Z 34006G17KT 15SM FEW040 19/06 A2997 RMK CU2 SLP150=
CYQM;2005-06-23 18:00;METAR CYQM 231800Z 01006G17KT 15SM FEW045 19/06 A2996 RMK CU2 SLP146=
CYQM;2005-06-23 19:00;METAR CYQM 231900Z 08006KT 15SM FEW045 20/07 A2995 RMK CU2 SLP142=
CYQM;2005-06-23 20:00;METAR CYQM 232000Z 07004KT 15SM FEW050 20/07 A2994 RMK CU2 SLP139=
CYQM;2005-06-23 21:00;METAR CYQM 232100Z 08003KT 15SM FEW050 FEW300 20/07 A2993 RMK CU1CI1 SLP136=
CYQM;2005-06-23 22:00;METAR CYQM 232200Z 10008KT 15SM FEW050 FEW300 21/06 A2992 RMK CU1CI1 SLP133=
CYQM;2005-06-23 23:00;METAR CYQM 232300Z 15011KT 15SM FEW140 FEW300 18/06 A2992 RMK AC1CI1 SLP135=
CYQM;2005-06-24 00:00;METAR CYQM 240000Z 14007KT 15SM FEW260 16/05 A2993 RMK CI2 SLP136=
CYQM;2005-06-24 01:00;METAR CYQM 240100Z 14006KT 15SM FEW140 FEW260 13/07 A2995 RMK AC1CI1 SLP142=
CYQM;2005-06-24 04:00;METAR CYQM 240400Z 22006KT 15SM FEW140 SCT260 10/07 A2995 RMK AC2CI1 SLP142=
CYQM;2005-06-24 05:00;METAR CYQM 240500Z 21007KT 15SM FEW120 FEW260 09/07 A2995 RMK AC2CI0 SLP143=
CYQM;2005-06-24 06:00;METAR CYQM 240600Z 21009KT 15SM FEW120 FEW260 09/07 A2995 RMK AC2CI0 SLP144=
CYQM;2005-06-24 09:00;METAR CYQM 240900Z 22008KT 15SM FEW120 FEW260 10/07 A2999 RMK AC1CI1 SLP156=
CYQM;2005-06-24 10:00;METAR CYQM 241000Z 23008KT 15SM FEW120 FEW260 11/08 A2999 RMK AC1CI1 SLP158=
CYQM;2005-06-24 11:00;METAR CYQM 241100Z 22010KT 15SM FEW120 FEW260 14/09 A3000 RMK AC1CI1 SLP160=
CYQM;2005-06-24 12:00;METAR CYQM 241200Z 25009KT 15SM FEW120 SCT260 17/10 A3001 RMK AC2CI1 SLP164=
CYQM;2005-06-24 13:00;METAR CYQM 241300Z 23009KT 15SM FEW120 BKN260 19/11 A2999 RMK AC2CI2 SLP158=
CYQM;2005-06-24 14:00;METAR CYQM 241400Z 22010KT 15SM SCT120 BKN260 20/12 A2998 RMK AC3CI2 SLP153=
CYQM;2005-06-24 15:00;METAR CYQM 241500Z 22014G20KT 15SM FEW080 FEW120 BKN260 21/12 A2997 RMK AC1AC1CI4 SLP151=
CYQM;2005-06-24 16:00;METAR CYQM 241600Z 23017G22KT 15SM FEW040 FEW100 BKN260 23/12 A2995 RMK CU1AC1CI4 SLP145=
CYQM;2005-06-24 17:00;METAR CYQM 241700Z 24016KT 15SM FEW100 BKN260 24/13 A2992 RMK AC1CI4 SLP133=
CYQM;2005-06-24 18:00;METAR CYQM 241800Z 24017G22KT 15SM FEW100 BKN260 25/12 A2990 RMK AC1CI3 SLP127=
CYQM;2005-06-24 19:00;METAR CYQM 241900Z 25013G21KT 15SM FEW070 FEW100 BKN260 25/11 A2989 RMK AC1AC1CI5 SLP121=
CYQM;2005-06-24 20:00;METAR CYQM 242000Z 23018KT 15SM SCT070 OVC260 24/11 A2988 RMK AC4CI2 SLP120=
CYQM;2005-06-24 21:00;METAR CYQM 242100Z 23015G22KT 15SM FEW040 BKN070 OVC260 22/10 A2988 RMK SC2AC5CI1 VIRGA SLP118=
CYQM;2005-06-24 21:09;SPECI CYQM 242109Z 23010G16KT 15SM -SHRA FEW040 BKN070 OVC260 RMK SC2AC6CI1=
CYQM;2005-06-24 22:00;METAR CYQM 242200Z 22018KT 15SM -SHRA SCT050 BKN080 OVC260 21/10 A2987 RMK SC3AC4CI1 TCU EMBD SLP115=
CYQM;2005-06-24 23:00;METAR CYQM 242300Z 18012KT 15SM -SHRA FEW050 BKN080 OVC260 19/10 A2984 RMK SC2AC6CI1 SLP104=
CYQM;2005-06-24 23:37;SPECI CYQM 242337Z 20014KT 15SM FEW045 BKN080 BKN120 OVC260 RMK SC2AC4AC1CI1=
CYQM;2005-06-25 00:00;METAR CYQM 250000Z 21013G18KT 15SM FEW045 BKN080 BKN120 BKN260 18/10 A2981 RMK SC2AC2AC1CI1 SLP094=
CYQM;2005-06-25 00:42;SPECI CYQM 250042Z 22017G22KT 15SM -SHRA BKN045 OVC080 RMK SC6AC2=
CYQM;2005-06-25 01:00;METAR CYQM 250100Z 22012G17KT 15SM BKN045 BKN080 BKN260 17/10 A2981 RERA RMK SC5AC1CI1 LTGICCG NE-E CB EMBD SLP096=
CYQM;2005-06-25 02:00;METAR CYQM 250200Z 22015KT 15SM OVC050 17/09 A2983 RMK SC8 SLP101=
CYQM;2005-06-25 03:00;METAR CYQM 250300Z 22012G17KT 15SM FEW050 BKN080 17/09 A2981 RMK SC2AC2 SLP097=
CYQM;2005-06-25 04:00;METAR CYQM 250400Z 23011KT 15SM FEW080 SCT120 17/10 A2982 RMK AC2AC2 SLP099=
CYQM;2005-06-25 05:00;METAR CYQM 250500Z 23012KT 15SM BKN100 17/11 A2981 RMK AC6 SLP095=
CYQM;2005-06-25 06:00;METAR CYQM 250600Z 23013KT 15SM FEW100 SCT260 16/11 A2980 RMK AC1CI1 SLP090=
CYQM;2005-06-25 07:00;METAR CYQM 250700Z 23012G17KT 15SM FEW100 SCT260 16/11 A2980 RMK AC1CI1 SLP090=
CYQM;2005-06-25 08:00;METAR CYQM 250800Z 22010KT 15SM SCT260 15/11 A2980 RMK CI2 SLP090=
CYQM;2005-06-25 10:00;METAR CYQM 251000Z 23009KT 15SM FEW100 FEW260 17/13 A2981 RMK AC1CI1 SLP095=
CYQM;2005-06-25 11:00;METAR CYQM 251100Z 22009KT 15SM FEW080 BKN120 BKN260 19/14 A2981 RMK AC1AC4CI1 SLP097=
CYQM;2005-06-25 12:00;METAR CYQM 251200Z 23007KT 15SM BKN060 BKN260 20/15 A2984 RMK SC5CI2 SLP104=
CYQM;2005-06-25 13:00;METAR CYQM 251300Z 22010KT 15SM FEW100 FEW260 22/16 A2982 RMK AC1CI1 SLP099=
CYQM;2005-06-25 14:00;METAR CYQM 251400Z 22008KT 15SM FEW100 FEW260 25/17 A2980 RMK AC1CI1 SLP093=
CYQM;2005-06-25 15:00;METAR CYQM 251500Z 21008KT 15SM FEW260 27/18 A2978 RMK CI1 SLP083=
CYQM;2005-06-25 16:00;METAR CYQM 251600Z 19009KT 15SM FEW260 28/19 A2976 RMK CI1 SLP078=
CYQM;2005-06-25 17:00;METAR CYQM 251700Z 23016KT 15SM SKC 30/20 A2976 RMK SLP077=
CYQM;2005-06-25 18:00;METAR CYQM 251800Z 22011G18KT 15SM FEW260 31/20 A2975 RMK CI1 SLP075=
CYQM;2005-06-25 19:00;METAR CYQM 251900Z 24017KT 15SM FEW045 FEW260 32/20 A2974 RMK CF1CI1 CB TOP N SLP072=
CYQM;2005-06-25 20:00;METAR CYQM 252000Z 25019G24KT 15SM SCT045 32/20 A2975 RMK CU4 CB TOPS N-NE SLP074=
CYQM;2005-06-25 21:00;METAR CYQM 252100Z 24016G21KT 12SM FEW045 32/20 A2974 RMK CU2 TCU ASOCTD SLP071=
CYQM;2005-06-25 21:37;SPECI CYQM 252137Z 28016G28KT 12SM FEW045 FEW120 RMK CU1AC2=
CYQM;2005-06-25 22:00;METAR CYQM 252200Z 27011G16KT 12SM FEW045CB SCT120 32/18 A2976 RMK CB1AC3 CB W MOVG E SLP077=
CYQM;2005-06-25 22:30;SPECI CYQM 252230Z 25010KT 12SM TS SCT040CB SCT120 BKN260 RMK CB3AC1CI1 CB WMOVG E LTGCG W=
CYQM;2005-06-25 22:41;SPECI CYQM 252241Z 25012KT 15SM -TSRA SCT040CB BKN120 BKN260 RMK CB4AC1CI1 LTGICCCCG VIS SW-NW 5=
CYQM;2005-06-25 22:47;SPECI CYQM 252247Z 25025KT 2SM +TSRA BKN040CB BKN120 BKN260 RMK CB5AC1CI1 LTGCG=
CYQM;2005-06-25 22:52;SPECI CYQM 252252Z 29008G33KT 4SM -TSRA BR SCT040CB BKN120 BKN260 RERA RMK CB4AC1CI2 VIS N-E 11/2 LTGCG=
CYQM;2005-06-25 23:10;SPECI CYQM 252310Z 22005KT 12SM SCT040 BKN120 BKN260 RETS RMK CU3AC2CI1 CB ASOCTD MOVG E=
CYQM;2005-06-25 23:28;SPECI CYQM 252328Z 21004KT 12SM TS SCT040CB BKN120 BKN260 RMK CB3AC2CI1 LTGCG SW CB E-W=
CYQM;2005-06-26 00:00;METAR CYQM 260000Z 22006KT 12SM TS SCT040CB BKN120 BKN260 26/20 A2978 RMK CB4AC2CI1 SLP086=
CYQM;2005-06-26 00:27;SPECI CYQM 260027Z 20009KT 12SM BKN040 BKN120 OVC260 RETS RMK SC6AC1CI1 CB EMBD E-S=
CYQM;2005-06-26 01:00;METAR CYQM 260100Z 19007KT 10SM BKN040 OVC120 22/19 A2983 RETS RMK SC6AC2 CB EMBD LTNG DIST SE SLP100=
CYQM;2005-06-26 01:39;SPECI CYQM 260139Z 00000KT 10SM TS BKN040 OVC120 RMK SC6AC2 CB EMBD=
CYQM;2005-06-26 01:44;SPECI CYQM 260144Z 35003KT 10SM -TSRA BKN040 OVC075 RMK SC5AC3 CB EMBD N=
CYQM;2005-06-26 02:00;METAR CYQM 260200Z 25002KT 10SM -TSRA SCT040CB BKN075 OVC120 22/19 A2985 RMK CB3AC3AC2 SLP107=
CYQM;2005-06-26 02:07;SPECI CYQM 260207Z 20004KT 12SM -SHRA FEW040 BKN075 OVC120 RETS RMK SC2AC5AC1 CB EMBDD OCNL LTNG DIST SW=
CYQM;2005-06-26 03:00;METAR CYQM 260300Z 24009KT 8SM -SHRA FEW040 OVC080 22/20 A2987 RETS RMK SC2AC6 SLP116=
CYQM;2005-06-26 03:44;SPECI CYQM 260344Z 24008KT 10SM SCT040 OVC080 RERA RMK SC3AC5=
CYQM;2005-06-26 04:00;METAR CYQM 260400Z 25006KT 10SM FEW040 OVC090 22/20 A2987 RERA RMK SC2AC6 SLP115=
CYQM;2005-06-26 04:12;SPECI CYQM 260412Z 26006KT 10SM -SHRA FEW040 OVC090 RMK SC2AC6=
CYQM;2005-06-26 04:38;SPECI CYQM 260438Z 23006KT 10SM FEW040 OVC090 RMK SC2AC6=
CYQM;2005-06-26 05:00;METAR CYQM 260500Z 25006KT 10SM BKN090 22/20 A2989 RMK AC6 SLP121=
CYQM;2005-06-26 06:00;METAR CYQM 260600Z 29003KT 15SM FEW100 21/19 A2990 RMK AC2 SLP124=
CYQM;2005-06-26 06:33;SPECI CYQM 260633Z 24004KT 4SM BR PRFG FEW120 RMK AC1 VIS W 3/8=
CYQM;2005-06-26 06:40;SPECI CYQM 260640Z 21006KT 3/8SM R29/P6000FT/N R06/P6000FT/D FG FEW120 RMK FG1AC1 VIS NE 4=
CYQM;2005-06-26 06:50;SPECI CYQM 260650Z 20005KT 1 1/4SM R29/P6000FT/U R06/1100VP6000FT/D BR MIFG FEW120 RMK AC2=
CYQM;2005-06-26 08:00;METAR CYQM 260800Z 09002KT 15SM MIFG SCT100 BKN260 20/17 A2995 RMK AC3CI1 SLP140=
CYQM;2005-06-26 10:00;METAR CYQM 261000Z 02007KT 15SM FEW070 SCT120 BKN260 19/14 A3001 RMK AC2AC2CI2 ACC ASOCTD SLP161=
CYQM;2005-06-26 11:00;METAR CYQM 261100Z 03010KT 15SM FEW070 FEW120 BKN260 20/14 A3003 RMK ACC1AC1CI3 TR ACC SLP170=
CYQM;2005-06-26 12:00;METAR CYQM 261200Z 36008KT 15SM FEW120 BKN260 20/15 A3007 RMK AC1CI3 SLP182=
CYQM;2005-06-26 13:00;METAR CYQM 261300Z 36008KT 15SM FEW140 SCT260 22/16 A3009 RMK AC1CI2 SLP189=
CYQM;2005-06-26 14:00;METAR CYQM 261400Z 05008KT 15SM FEW025 SCT260 22/17 A3010 RMK CU1CI2 SLP193=
CYQM;2005-06-26 15:00;METAR CYQM 261500Z 36009KT 15SM FEW025 SCT260 22/17 A3012 RMK CU1CI2 SLP200=
CYQM;2005-06-26 16:00;METAR CYQM 261600Z 02008KT 15SM FEW025 SCT260 22/17 A3013 RMK CU1CI2 SLP203=
CYQM;2005-06-26 17:00;METAR CYQM 261700Z 04009KT 15SM FEW025 FEW100 SCT260 22/16 A3014 RMK CU1AC1CI2 SLP208=
CYQM;2005-06-26 18:00;METAR CYQM 261800Z 02012KT 15SM FEW025 FEW100 SCT260 22/17 A3015 RMK CU1AC1CI2 SLP210=
CYQM;2005-06-26 19:00;METAR CYQM 261900Z 02014KT 15SM FEW025 FEW100 BKN260 22/16 A3017 RMK CU1AC1CI5 SLP218=
CYQM;2005-06-26 20:00;METAR CYQM 262000Z 02010KT 15SM FEW025 SCT200 BKN260 21/15 A3019 RMK CU1CS3CI2 SLP223=
CYQM;2005-06-26 21:00;METAR CYQM 262100Z 04009KT 15SM FEW035 FEW120 BKN150 BKN260 20/14 A3019 RMK CU1AC1AS6CI1 SLP224=
CYQM;2005-06-26 22:00;METAR CYQM 262200Z 04009KT 15SM FEW035 FEW080 OVC130 19/14 A3019 RMK CU1AC2AS6 SLP225=
CYQM;2005-06-26 23:00;METAR CYQM 262300Z 04006KT 15SM FEW035 FEW080 BKN130 BKN260 18/14 A3020 RMK CU1AC2AS5CI1 SLP229=
CYQM;2005-06-27 00:00;METAR CYQM 270000Z 05005KT 15SM BKN080 BKN260 17/13 A3022 RMK AC5CI1 SLP235=
CYQM;2005-06-27 01:00;METAR CYQM 270100Z 03005KT 15SM SCT100 BKN260 16/13 A3025 RMK AC3CI2 SLP245=
CYQM;2005-06-27 02:00;METAR CYQM 270200Z 07003KT 15SM BKN080 15/13 A3027 RMK AC6 SLP251=
CYQM;2005-06-27 03:00;METAR CYQM 270300Z 05005KT 15SM BKN060 15/13 A3028 RMK SC7 SLP253=
CYQM;2005-06-27 04:00;METAR CYQM 270400Z 09005KT 15SM OVC060 16/13 A3028 RMK SC8 SLP255=
CYQM;2005-06-27 05:00;METAR CYQM 270500Z 03003KT 15SM BKN060 16/13 A3029 RMK SC7 SLP258=
CYQM;2005-06-27 06:00;METAR CYQM 270600Z 10005KT 15SM OVC055 16/12 A3028 RMK SC8 SLP256=
CYQM;2005-06-27 07:00;METAR CYQM 270700Z 07004KT 15SM BKN050 16/11 A3029 RMK SC7 SLP257=
CYQM;2005-06-27 08:00;METAR CYQM 270800Z 08004KT 15SM BKN050 15/11 A3029 RMK SC6 SLP257=
CYQM;2005-06-27 10:00;METAR CYQM 271000Z 04004KT 15SM BKN045 15/12 A3034 RMK SC6 SLP274=
CYQM;2005-06-27 11:00;METAR CYQM 271100Z 10009KT 15SM FEW045 BKN270 17/13 A3034 RMK SC2CI1 SLP274=
CYQM;2005-06-27 12:00;METAR CYQM 271200Z 10007KT 15SM FEW050 BKN270 19/13 A3035 RMK SC1CI3 SLP277=
CYQM;2005-06-27 13:00;METAR CYQM 271300Z 13005KT 15SM FEW050 BKN280 21/13 A3034 RMK SC1CI3 SLP275=
CYQM;2005-06-27 14:00;METAR CYQM 271400Z 17012KT 15SM BKN300 22/13 A3033 RMK CI3 SLP271=
CYQM;2005-06-27 15:00;METAR CYQM 271500Z 15008KT 15SM SCT300 23/13 A3032 RMK CI2 SLP268=
CYQM;2005-06-27 16:00;METAR CYQM 271600Z 16009G15KT 15SM SCT300 25/14 A3030 RMK CI2 SLP263=
CYQM;2005-06-27 17:00;METAR CYQM 271700Z 16013G18KT 15SM FEW040 BKN300 26/14 A3030 RMK SC1CI3 SLP260=
CYQM;2005-06-27 18:00;METAR CYQM 271800Z 14012KT 15SM FEW045 FEW100 BKN300 26/15 A3028 RMK SC2AC1CI3 SLP255=
CYQM;2005-06-27 19:00;METAR CYQM 271900Z 15015KT 15SM FEW045 BKN300 27/15 A3026 RMK CU2CI3 SLP249=
CYQM;2005-06-27 20:00;METAR CYQM 272000Z 17015KT 15SM FEW050 BKN280 26/14 A3025 RMK CU1CI4 SLP244=
CYQM;2005-06-27 21:00;METAR CYQM 272100Z 18016KT 15SM FEW050 BKN280 26/14 A3023 RMK CU1CI2 SLP239=
CYQM;2005-06-27 22:00;METAR CYQM 272200Z 17015KT 15SM BKN270 25/13 A3023 RMK CI2 SLP238=
CYQM;2005-06-27 23:00;METAR CYQM 272300Z 16011G16KT 15SM SCT270 23/13 A3023 RMK CI1 SLP238=
CYQM;2005-06-28 00:00;METAR CYQM 280000Z 17011KT 15SM SCT270 21/11 A3022 RMK CI1 SLP234=
CYQM;2005-06-28 01:00;METAR CYQM 280100Z 17010KT 15SM SCT270 20/11 A3022 RMK CI2 SLP234=
CYQM;2005-06-28 02:00;METAR CYQM 280200Z 17008KT 15SM SCT270 18/11 A3021 RMK CI2 SLP231=
CYQM;2005-06-28 03:00;METAR CYQM 280300Z 16007KT 15SM FEW270 18/12 A3019 RMK CI1 SLP225=
CYQM;2005-06-28 04:00;METAR CYQM 280400Z 17007KT 15SM FEW250 17/12 A3018 RMK CI2 SLP220=
CYQM;2005-06-28 05:00;METAR CYQM 280500Z 17008KT 15SM FEW250 17/12 A3017 RMK CI2 SLP217=
CYQM;2005-06-28 06:00;METAR CYQM 280600Z 17009KT 15SM FEW250 16/12 A3016 RMK CI2 SLP213=
CYQM;2005-06-28 07:00;METAR CYQM 280700Z 17008KT 15SM FEW250 16/12 A3015 RMK CI2 SLP211=
CYQM;2005-06-28 08:00;METAR CYQM 280800Z 17007KT 15SM BKN220 16/13 A3015 RMK CI5 SLP210=
CYQM;2005-06-28 08:27;SPECI CYQM 280827Z 18008KT 10SM OVC010 RMK SC8=
CYQM;2005-06-28 08:48;SPECI CYQM 280848Z 18008KT 8SM OVC007 RMK SC8=
CYQM;2005-06-28 09:00;METAR CYQM 280900Z 17010KT 7SM OVC007 16/14 A3014 RMK SC8 VIS NW 3 SLP207=
CYQM;2005-06-28 10:00;METAR CYQM 281000Z 18010KT 5SM BR OVC007 16/14 A3014 RMK SC8 SLP206=
CYQM;2005-06-28 10:29;SPECI CYQM 281029Z 17010KT 5SM BR OVC010 RMK SC8=
CYQM;2005-06-28 11:00;METAR CYQM 281100Z 18009KT 5SM BR BKN010 OVC200 16/14 A3013 RMK SC7CI1 SLP202=
CYQM;2005-06-28 11:22;SPECI CYQM 281122Z 19007KT 7SM SCT012 BKN250 RMK SC3CI2=
CYQM;2005-06-28 12:00;METAR CYQM 281200Z 20008KT 7SM FEW015 BKN270 19/16 A3012 RMK CU1CI4 SLP199=
CYQM;2005-06-28 13:00;METAR CYQM 281300Z 24011KT 12SM FEW015 BKN260 22/18 A3010 RMK SC2CI2 SLP192=
CYQM;2005-06-28 14:00;METAR CYQM 281400Z 24013G18KT 15SM FEW020 FEW045 BKN300 23/19 A3007 RMK CU1SC1CI2 SLP184=
CYQM;2005-06-28 15:00;METAR CYQM 281500Z 23018KT 15SM SCT020 BKN300 25/20 A3006 RMK CU3CI1 SLP180=
CYQM;2005-06-28 16:00;METAR CYQM 281600Z 24018KT 15SM FEW020 27/21 A3004 RMK CU2 SLP173=
CYQM;2005-06-28 17:00;METAR CYQM 281700Z 22014G22KT 15SM FEW025 27/20 A3003 RMK CU1 SLP169=
CYQM;2005-06-28 18:00;METAR CYQM 281800Z 23014G24KT 15SM FEW025 28/21 A3000 RMK CU1 SLP160=
CYQM;2005-06-28 19:00;METAR CYQM 281900Z 24019G26KT 15SM FEW035 28/20 A2998 RMK CU1 SLP154=
CYQM;2005-06-28 20:00;METAR CYQM 282000Z 24017G27KT 12SM FEW035 28/19 A2997 RMK CU1 SLP149=
CYQM;2005-06-28 21:00;METAR CYQM 282100Z 23018G24KT 12SM FEW035 28/19 A2995 RMK CU1 SLP142=
CYQM;2005-06-28 22:00;METAR CYQM 282200Z 23016G24KT 12SM FEW035 26/19 A2994 RMK CU1 SLP140=
CYQM;2005-06-28 23:00;METAR CYQM 282300Z 20014G22KT 12SM FEW030 25/18 A2993 RMK CU1 SLP136=
CYQM;2005-06-29 00:00;METAR CYQM 290000Z 20016KT 12SM FEW030 SCT250 23/18 A2993 RMK CU1CI1 SLP135=
CYQM;2005-06-29 01:00;METAR CYQM 290100Z 20013KT 12SM FEW030 SCT250 22/18 A2993 RMK CU1CI1 SLP136=
CYQM;2005-06-29 02:00;METAR CYQM 290200Z 20014KT 12SM FEW020 FEW250 21/18 A2992 RMK CU2CI1 SLP134=
CYQM;2005-06-29 02:52;SPECI CYQM 290252Z 20013KT 15SM BKN012 RMK SC6=
CYQM;2005-06-29 03:00;METAR CYQM 290300Z 21016KT 15SM BKN012 BKN030 21/18 A2992 RMK SC6SC2 SLP133=
CYQM;2005-06-29 04:00;METAR CYQM 290400Z 21015KT 15SM BKN013 BKN030 22/19 A2992 RMK SC6SC2 SLP131=
CYQM;2005-06-29 05:00;METAR CYQM 290500Z 20010G15KT 15SM BKN013 BKN030 22/19 A2990 RMK SC6SC1 SLP126=
CYQM;2005-06-29 05:47;SPECI CYQM 290547Z 19010KT 15SM SCT012 RMK SC4=
CYQM;2005-06-29 06:00;METAR CYQM 290600Z 20008KT 15SM SCT012 21/19 A2989 RMK SC4 SLP121=
CYQM;2005-06-29 07:00;METAR CYQM 290700Z 20008KT 15SM FEW015 21/18 A2986 RMK CU2 SLP110=
CYQM;2005-06-29 07:29;SPECI CYQM 290729Z 20007KT 15SM BKN013 RMK SC5=
CYQM;2005-06-29 08:10;SPECI CYQM 290810Z 21008KT 15SM BKN012 RMK SC6=
CYQM;2005-06-29 09:14;SPECI CYQM 290914Z 18008KT 15SM FEW007 OVC010 RMK SF2SF6=
CYQM;2005-06-29 10:00;METAR CYQM 291000Z 17004KT 15SM FEW007 BKN010 BKN130 19/17 A2984 RMK SF1SF6AC1 SLP103=
CYQM;2005-06-29 10:37;SPECI CYQM 291037Z 21007KT 8SM FEW007 SCT010 BKN130 RMK SF1SF3AC3=
CYQM;2005-06-29 10:46;SPECI CYQM 291046Z 22008KT 7SM FEW007 BKN010 OVC130 RMK SF1SF6AC2=
CYQM;2005-06-29 11:00;METAR CYQM 291100Z 21008G15KT 6SM BR FEW007 BKN010 OVC130 23/19 A2984 RMK SF1SF6AC2 SLP104=
CYQM;2005-06-29 12:00;METAR CYQM 291200Z 23009KT 7SM BKN012 OVC120 21/19 A2984 RMK SF6AC2 SLP103=
CYQM;2005-06-29 12:41;SPECI CYQM 291241Z 24007KT 8SM -SHRA BKN012 OVC120 RMK SC7AC1=
CYQM;2005-06-29 13:00;METAR CYQM 291300Z 22009KT 10SM BKN012 BKN120 BKN260 22/20 A2982 RMK SC5AC2CI1 SLP099=
CYQM;2005-06-29 13:25;SPECI CYQM 291325Z 23009KT 12SM SCT012 BKN120 BKN260 RMK CU3AC2CI1=
CYQM;2005-06-29 14:00;METAR CYQM 291400Z 23016KT 12SM FEW015 SCT120 BKN260 24/20 A2981 RMK CU2AC1CI1 SLP093=
CYQM;2005-06-29 15:00;METAR CYQM 291500Z 23013G18KT 15SM FEW018 FEW260 25/20 A2980 RMK CU1CI1 SLP091=
CYQM;2005-06-29 16:00;METAR CYQM 291600Z 24011G16KT 15SM FEW025 FEW130 FEW260 25/20 A2980 RMK CU1AC1CI0 SLP092=
CYQM;2005-06-29 17:00;METAR CYQM 291700Z 25015G21KT 15SM FEW025 FEW260 27/21 A2980 RMK CU2CI1 SLP090=
CYQM;2005-06-29 18:00;METAR CYQM 291800Z 23011G16KT 15SM FEW028 28/21 A2979 RMK CU2 CB ASOCTD N SLP087=
CYQM;2005-06-29 18:52;SPECI CYQM 291852Z 22012G18KT 15SM TS BKN030 RMK CU6 CB ASOCTD N-NE=
CYQM;2005-06-29 19:00;METAR CYQM 291900Z 23011G18KT 15SM TS BKN030 29/21 A2978 RMK CU6 CB ASOCTD N-NE SLP085=
CYQM;2005-06-29 19:28;SPECI CYQM 291928Z 23007G15KT 15SM BKN032TCU RETS RMK TCU6 CB ASOCTD NW-SE=
CYQM;2005-06-29 19:44;SPECI CYQM 291944Z 07007KT 12SM TS BKN032TCU RMK TCU6 CB ASOCTD NW-SE SHS NE AND E LTGCG NE=
CYQM;2005-06-29 20:20;SPECI CYQM 292020Z 07018KT 12SM +TSRA FEW010 BKN032TCU RMK SF1TCU6 CB ASOCTD LTGCG=
CYQM;2005-06-29 21:45;SPECI CYQM 292145Z 15007KT 12SM -TSRA BKN030TCU RMK TCU7 CB ASOCTD=
CYQM;2005-06-29 22:16;SPECI CYQM 292216Z 08003KT 12SM VCSH BKN030 BKN120 BKN260 RETS RMK CU6AC1CI1 SHS SE-SW=
CYQM;2005-06-29 22:40;SPECI CYQM 292240Z 02017KT 15SM FEW005 BKN012 BKN030 RETS RMK CF1CU4SC2 SHS SE-SW=
CYQM;2005-06-30 00:32;SPECI CYQM 300032Z 03007KT 15SM -SHRA FEW005 BKN018 RMK SF1SC7=
CYQM;2005-06-30 00:51;SPECI CYQM 300051Z 02012KT 15SM BKN025 OVC100 RMK SC7AC1=
CYQM;2005-06-30 01:15;SPECI CYQM 300115Z 03014KT 15SM -SHRA BKN025 OVC100 RMK SC7AC1=
CYQM;2005-06-30 01:45;SPECI CYQM 300145Z 03007KT 15SM BKN025 OVC075 RMK SC5AC3=
CYQM;2005-06-30 05:45;SPECI CYQM 300545Z 05007KT 15SM -SHRA BKN025 OVC075 RMK SC5AC3=
CYQM;2005-06-30 06:55;SPECI CYQM 300655Z 06002KT 15SM SCT025 OVC075 RMK SC3AC5=
CYQM;2005-06-30 12:17;SPECI CYQM 301217Z 05006KT 15SM FEW010 FEW075 BKN100 RMK CF1AC1AC6=
CYQM;2005-07-01 01:00;METAR CYQM 010100Z 09005KT 15SM FEW030 BKN260 15/09 A3001 RMK SC2CI2 SLP165=
CYQM;2005-07-01 02:00;METAR CYQM 010200Z 10005KT 15SM FEW030 14/09 A3001 RMK SC1 SLP164=
CYQM;2005-07-01 03:00;METAR CYQM 010300Z 09004KT 15SM SKC 14/09 A3000 RMK SLP162=
CYQM;2005-07-01 04:00;METAR CYQM 010400Z 11005KT 15SM FEW100 13/09 A3000 RMK AC1 SLP160=
CYQM;2005-07-01 05:00;METAR CYQM 010500Z 12005KT 15SM SKC 12/10 A2998 RMK SLP154=
CYQM;2005-07-01 06:00;METAR CYQM 010600Z 14006KT 15SM SKC 11/09 A2997 RMK SLP151=
CYQM;2005-07-01 07:29;SPECI CYQM 010729Z 16005KT 15SM SCT008 SCT100 RMK SF3AC1=
CYQM;2005-07-01 08:00;METAR CYQM 010800Z 17005KT 15SM FEW008 FEW100 12/10 A2997 RMK SF2AC1 SLP149=
CYQM;2005-07-01 09:00;METAR CYQM 010900Z 11004KT 15SM FEW010 FEW100 12/11 A2996 RMK SC1AC1 SLP147=
CYQM;2005-07-01 10:00;METAR CYQM 011000Z 15004KT 12SM SCT030 13/12 A2996 RMK SC4 SLP147=
CYQM;2005-07-01 10:29;SPECI CYQM 011029Z 14007KT 10SM SCT007 BKN030 RMK SF3SC3=
CYQM;2005-07-01 11:00;METAR CYQM 011100Z 16007KT 10SM SCT007 BKN030 14/12 A2996 RMK SF3SC3 SLP146=
CYQM;2005-07-01 12:00;METAR CYQM 011200Z 16008KT 10SM SCT007 BKN030 15/12 A2995 RMK SF3SC3 SLP145=
CYQM;2005-07-01 13:00;METAR CYQM 011300Z 14008KT 12SM SCT011 BKN030 16/13 A2995 RMK SC3SC4 SLP142=
CYQM;2005-07-01 14:00;METAR CYQM 011400Z 14009KT 12SM SCT011 BKN030 16/13 A2994 RMK SC3SC4 SLP140=
CYQM;2005-07-01 15:00;METAR CYQM 011500Z 14008KT 15SM FEW015 BKN030 18/14 A2993 RMK CU1SC6 SLP136=
CYQM;2005-07-01 16:00;METAR CYQM 011600Z 13012KT 15SM BKN030 19/15 A2991 RMK SC5 SLP130=
CYQM;2005-07-01 18:00;METAR CYQM 011800Z 16013KT 15SM BKN025 20/16 A2987 RMK SC7 SLP117=
CYQM;2005-07-01 19:00;METAR CYQM 011900Z 15012KT 15SM BKN020 BKN030 20/16 A2986 RMK SC6SC2 SLP114=
CYQM;2005-07-01 20:00;METAR CYQM 012000Z 15010KT 12SM -SHRA SCT012 OVC025 19/17 A2985 RMK SC3SC5 SLP110=
CYQM;2005-07-01 20:15;SPECI CYQM 012015Z 15010KT 15SM FEW012 BKN030 BKN040 RMK SC2SC3SC2=
CYQM;2005-07-01 21:18;SPECI CYQM 012118Z 16010G15KT 12SM -SHRA BKN008 BKN020 BKN050 RMK SF6SC1SC1=
CYQM;2005-07-01 21:56;SPECI CYQM 012156Z 15008KT 10SM BKN006 OVC020 RMK SF7SC1=
CYQM;2005-07-01 22:00;METAR CYQM 012200Z 15012KT 10SM BKN006 OVC020 18/17 A2982 RMK SF7SC1 SLP098=
CYQM;2005-07-01 22:19;SPECI CYQM 012219Z 15009KT 10SM SCT008 BKN025 BKN080 RMK SF4SC1AC2=
CYQM;2005-07-01 23:00;METAR CYQM 012300Z 16010KT 12SM BKN008 BKN025 BKN080 19/17 A2981 RMK SF5SC1AC2 SLP096=
CYQM;2005-07-01 23:21;SPECI CYQM 012321Z 14011KT 10SM FEW008 FEW020 BKN085 RMK SF1SC2AC5=
CYQM;2005-07-01 23:44;SPECI CYQM 012344Z 16010G15KT 3SM -DZ BR BKN007 OVC020 RMK SF7SC1 VIS N - NE 10=
CYQM;2005-07-01 23:49;SPECI CYQM 012349Z 16010KT 1 1/2SM -DZ BR BKN006 OVC020 RMK SF7SC1=
CYQM;2005-07-02 00:00;METAR CYQM 020000Z 15011KT 5SM BR BKN006 BKN025 BKN095 19/18 A2980 RMK SF5SC1AC2 VIS SE - SW 10 SLP092=
CYQM;2005-07-02 00:20;SPECI CYQM 020020Z 16010G15KT 5SM BR SCT006 SCT020 BKN095 RMK SF3SC1AC1 VIS SE - SW 10=
CYQM;2005-07-02 01:00;METAR CYQM 020100Z 16011G17KT 8SM SCT040 BKN080 19/18 A2978 RMK SC3AC3 SLP086=
CYQM;2005-07-02 02:00;METAR CYQM 020200Z 16014G20KT 8SM SCT012 BKN050 19/18 A2976 RMK SC3SC4 SLP080=
CYQM;2005-07-02 02:28;SPECI CYQM 020228Z 16011G18KT 8SM BKN014 BKN050 RMK SC6SC1=
CYQM;2005-07-02 03:00;METAR CYQM 020300Z 16013KT 10SM BKN008 BKN014 20/18 A2975 RMK SF6SC1 SLP075=
CYQM;2005-07-02 03:20;SPECI CYQM 020320Z 16011KT 7SM SCT007 BKN011 RMK SF3SC4=
CYQM;2005-07-02 03:40;SPECI CYQM 020340Z 16010G15KT 7SM BKN007 BKN012 RMK SF6SC1=
CYQM;2005-07-02 03:51;SPECI CYQM 020351Z 15013KT 7SM -SHRA SCT007 OVC013 RMK SF3SC5=
CYQM;2005-07-02 04:00;METAR CYQM 020400Z 15013G18KT 7SM -SHRA SCT007 OVC013 19/18 A2972 RMK SF3SC5 SLP064=
CYQM;2005-07-02 04:20;SPECI CYQM 020420Z 15014G20KT 8SM -SHRA FEW006 OVC015 RMK SF2SC6=
CYQM;2005-07-02 04:48;SPECI CYQM 020448Z 16014G21KT 8SM BKN008 OVC013 RMK SF5SC3=
CYQM;2005-07-02 05:00;METAR CYQM 020500Z 16015KT 7SM BKN006 BKN012 19/18 A2969 RMK SF6SC2 SLP055=
CYQM;2005-07-02 05:08;SPECI CYQM 020508Z 16015G20KT 7SM -SHRA BKN006 BKN012 RMK SF6SC2=
CYQM;2005-07-02 06:00;METAR CYQM 020600Z 16016KT 8SM -SHRA BKN007 BKN015 19/18 A2967 RMK SF5SC2 VIS NW 3 SLP048=
CYQM;2005-07-02 06:31;SPECI CYQM 020631Z 16014G21KT 8SM FEW005 BKN008 OVC012 RMK SF2SF4SC2=
CYQM;2005-07-02 06:39;SPECI CYQM 020639Z 16016G21KT 8SM -SHRA FEW005 BKN008 OVC013 RMK SF2SF5SC2=
CYQM;2005-07-02 07:00;METAR CYQM 020700Z 16014KT 8SM -SHRA FEW008 OVC018 19/18 A2966 RERA RMK SF2SC6 SLP044=
CYQM;2005-07-02 07:22;SPECI CYQM 020722Z 17012G21KT 10SM OVC011 RMK SC8=
CYQM;2005-07-02 07:52;SPECI CYQM 020752Z 17012KT 8SM -SHRA OVC012 RMK SC8=
CYQM;2005-07-02 08:00;METAR CYQM 020800Z 16013G19KT 10SM OVC014 20/18 A2964 RMK SC8 SLP038=
CYQM;2005-07-02 08:41;SPECI CYQM 020841Z 16012KT 10SM -SHRA OVC014 RMK SC8=
CYQM;2005-07-02 08:48;SPECI CYQM 020848Z 16013G18KT 12SM -SHRA FEW008 OVC013 RMK SF2SC6=
CYQM;2005-07-02 09:00;METAR CYQM 020900Z 17011KT 12SM -SHRA FEW008 OVC013 20/18 A2964 RMK SF2SC6 SLP037=
CYQM;2005-07-02 09:48;SPECI CYQM 020948Z 18009KT 2SM +SHRA BR SCT008 OVC013 RMK SF4SC4 TCU EMBDD=
CYQM;2005-07-02 10:00;METAR CYQM 021000Z 19008KT 2SM +SHRA BR BKN007 OVC013 19/18 A2965 RMK SF5SC3 TCU EMBD SLP040=
CYQM;2005-07-02 10:32;SPECI CYQM 021032Z 17005KT 3SM -SHRA BR BKN004 OVC012 RERA RMK SF5SC3=
CYQM;2005-07-02 11:00;METAR CYQM 021100Z 17006KT 3SM -SHRA BR BKN004 OVC012 19/18 A2965 RERA RMK SF5SC3 SLP040=
CYQM;2005-07-02 11:19;SPECI CYQM 021119Z 16006KT 4SM -TSRA BR BKN004 OVC012 RMK SF5SC3 CB EMBD=
CYQM;2005-07-02 11:38;SPECI CYQM 021138Z 18006KT 1 1/4SM +TSRA BR BKN004 OVC012 RMK SF5SC3 CB EMBD=
CYQM;2005-07-02 12:00;METAR CYQM 021200Z 18008KT 2 1/2SM +TSRA BR BKN004 OVC012 19/18 A2965 RMK SF5SC3 CB EMBD /R12/ SLP041=
CYQM;2005-07-02 12:10;SPECI CYQM 021210Z 18007KT 7SM -TSRA BKN004 OVC012 RERA RMK SF5SC3 CB EMBD=
CYQM;2005-07-02 12:26;SPECI CYQM 021226Z 17007KT 12SM -SHRA BKN005 OVC012 RETSRA RMK SF5SC3=
CYQM;2005-07-02 13:00;METAR CYQM 021300Z 17006KT 7SM -SHRA BKN005 OVC012 19/18 A2967 RETSRA RMK SF5SC3 SLP046=
CYQM;2005-07-02 13:37;SPECI CYQM 021337Z 21009KT 7SM BKN005 OVC012 RMK SF5SC3=
CYQM;2005-07-02 14:00;METAR CYQM 021400Z 21011G16KT 8SM BKN005 OVC012 20/18 A2967 RMK SF5SC3 SLP048=
CYQM;2005-07-02 14:35;SPECI CYQM 021435Z 20010G15KT 15SM BKN010 OVC020 RMK SC6SC2=
CYQM;2005-07-02 15:00;METAR CYQM 021500Z 19008G15KT 15SM BKN011 OVC020 21/18 A2967 RMK SC6SC2 SLP049=
CYQM;2005-07-02 16:00;METAR CYQM 021600Z 23011G16KT 15SM BKN013 BKN020 21/19 A2968 RMK SC6SC2 SLP051=
CYQM;2005-07-02 16:38;SPECI CYQM 021638Z 19011KT 15SM BKN016 RMK SC6=
CYQM;2005-07-02 17:00;METAR CYQM 021700Z 23011KT 15SM BKN018 BKN030 24/19 A2967 RMK SC5SC2 SLP048=
CYQM;2005-07-02 18:00;METAR CYQM 021800Z 00000KT 15SM FEW025 BKN250 23/19 A2967 RMK CU2CI2 SLP049=
CYQM;2005-07-02 19:00;METAR CYQM 021900Z 24008G15KT 15SM FEW025 BKN250 25/18 A2967 RMK CU2CI2 SLP047=
CYQM;2005-07-02 20:00;METAR CYQM 022000Z 24015KT 15SM FEW030 BKN250 26/18 A2967 RMK CU2CI2 TCU ASOCTD SLP048=
CYQM;2005-07-02 21:00;METAR CYQM 022100Z 22015KT 15SM SCT028TCU BKN120 25/17 A2968 RMK TCU4AC1 SLP052=
CYQM;2005-07-02 22:00;METAR CYQM 022200Z 25012G17KT 15SM SCT028 SCT120 BKN250 24/18 A2970 RMK CU3AC1CI0 TCU ASOCTD SLP059=
CYQM;2005-07-02 23:00;METAR CYQM 022300Z 23010KT 15SM FEW025 FEW100 SCT250 23/17 A2973 RMK CU2AC1CI0 SLP069=
CYQM;2005-07-03 00:00;METAR CYQM 030000Z 23007KT 15SM FEW025 FEW050 FEW270 21/17 A2976 RMK SC1SC1CI0 SLP078=
CYQM;2005-07-03 01:00;METAR CYQM 030100Z 26008KT 15SM FEW020 FEW050 FEW270 19/13 A2981 RMK SC1SC1CI0 SLP095=
CYQM;2005-07-03 02:00;METAR CYQM 030200Z 27003KT 15SM FEW020 17/11 A2984 RMK SC1 SLP105=
CYQM;2005-07-03 05:00;METAR CYQM 030500Z 00000KT 15SM FEW100 FEW250 14/09 A2992 RMK AC1CI0 SLP131=
CYQM;2005-07-03 06:00;METAR CYQM 030600Z 19007KT 15SM SKC 12/10 A2993 RMK SLP136=
CYQM;2005-07-03 07:00;METAR CYQM 030700Z 19008KT 15SM FEW020 FEW250 11/09 A2994 RMK SC1CI0 SLP140=
CYQM;2005-07-03 09:00;METAR CYQM 030900Z 21007KT 15SM FEW250 10/08 A2999 RMK CI1 SLP155=
CYQM;2005-07-03 11:00;METAR CYQM 031100Z 22007KT 15SM FEW250 14/10 A3004 RMK CI1 SLP174=
CYQM;2005-07-03 12:00;METAR CYQM 031200Z 25007KT 15SM FEW250 16/11 A3006 RMK CI1 SLP181=
CYQM;2005-07-03 13:00;METAR CYQM 031300Z 28009KT 15SM FEW250 19/11 A3007 RMK CI1 SLP184=
CYQM;2005-07-03 14:00;METAR CYQM 031400Z 29010KT 15SM FEW250 20/09 A3008 RMK CI1 SLP188=
CYQM;2005-07-03 15:00;METAR CYQM 031500Z 30008KT 15SM FEW250 21/09 A3009 RMK CI1 SLP191=
CYQM;2005-07-03 16:00;METAR CYQM 031600Z 27002KT 15SM SKC 21/08 A3009 RMK SLP190=
CYQM;2005-07-03 17:00;METAR CYQM 031700Z 27003KT 15SM FEW250 22/10 A3009 RMK CI1 SLP191=
CYQM;2005-07-03 18:00;METAR CYQM 031800Z 32003KT 15SM FEW250 23/10 A3009 RMK CI1 SLP191=
CYQM;2005-07-03 19:00;METAR CYQM 031900Z 29005KT 15SM FEW250 23/09 A3010 RMK CI1 SLP195=
CYQM;2005-07-03 20:00;METAR CYQM 032000Z 29006KT 15SM FEW250 24/09 A3010 RMK CI1 SLP194=
CYQM;2005-07-03 21:00;METAR CYQM 032100Z 06006KT 15SM FEW270 23/11 A3009 RMK CI1 SLP192=
CYQM;2005-07-03 22:00;METAR CYQM 032200Z 09006KT 15SM FEW270 23/11 A3009 RMK CI1 SLP191=
CYQM;2005-07-03 23:00;METAR CYQM 032300Z 15006KT 15SM FEW280 21/12 A3010 RMK CI1 SLP194=
CYQM;2005-07-04 00:00;METAR CYQM 040000Z 13006KT 15SM FEW220 19/11 A3011 RMK CI1 SLP197=
CYQM;2005-07-04 01:00;METAR CYQM 040100Z 14005KT 15SM FEW260 17/11 A3013 RMK CI0 SLP203=
CYQM;2005-07-04 02:00;METAR CYQM 040200Z 18005KT 15SM FEW260 15/11 A3014 RMK CI0 SLP209=
CYQM;2005-07-04 03:00;METAR CYQM 040300Z 20005KT 15SM FEW260 15/11 A3015 RMK CI0 SLP210=
CYQM;2005-07-04 04:00;METAR CYQM 040400Z 18004KT 15SM SKC 14/11 A3016 RMK SLP213=
CYQM;2005-07-04 05:00;METAR CYQM 040500Z 18006KT 15SM SKC 12/09 A3015 RMK SLP210=
CYQM;2005-07-04 06:00;METAR CYQM 040600Z 19007KT 15SM SKC 11/10 A3014 RMK SLP209=
CYQM;2005-07-04 07:00;METAR CYQM 040700Z 19007KT 15SM FEW220 11/10 A3015 RMK CI1 SLP211=
CYQM;2005-07-04 08:00;METAR CYQM 040800Z 19007KT 15SM FEW220 11/10 A3015 RMK CI1 SLP212=
CYQM;2005-07-04 09:00;METAR CYQM 040900Z 21006KT 15SM FEW260 11/10 A3017 RMK CI1 SLP217=
CYQM;2005-07-04 10:00;METAR CYQM 041000Z 20006KT 15SM FEW260 12/10 A3018 RMK CI1 SLP220=
CYQM;2005-07-04 11:00;METAR CYQM 041100Z 23004KT 15SM FEW260 14/12 A3018 RMK CI1 SLP220=
CYQM;2005-07-04 12:00;METAR CYQM 041200Z 22006KT 15SM FEW260 18/12 A3019 RMK CI1 SLP224=
CYQM;2005-07-04 13:00;METAR CYQM 041300Z 23009KT 15SM FEW260 22/14 A3017 RMK CI1 SLP217=
CYQM;2005-07-04 14:00;METAR CYQM 041400Z 23011KT 15SM FEW040 FEW260 24/13 A3017 RMK CU1CI1 SLP218=
CYQM;2005-07-04 15:00;METAR CYQM 041500Z 23011KT 15SM FEW260 25/12 A3017 RMK CI1 SLP218=
CYQM;2005-07-04 16:00;METAR CYQM 041600Z 24011G16KT 15SM FEW260 26/12 A3015 RMK CI1 SLP212=
CYQM;2005-07-04 17:00;METAR CYQM 041700Z 22011G16KT 15SM FEW260 27/12 A3013 RMK CI1 SLP203=
CYQM;2005-07-04 18:00;METAR CYQM 041800Z 14011KT 15SM FEW260 27/13 A3010 RMK CI1 SLP193=
CYQM;2005-07-04 19:00;METAR CYQM 041900Z 16012G18KT 15SM FEW120 FEW260 26/11 A3007 RMK AC1CI2 SLP184=
CYQM;2005-07-04 20:00;METAR CYQM 042000Z 16011G18KT 15SM FEW260 26/08 A3007 RMK CI2 SLP183=
CYQM;2005-07-04 21:00;METAR CYQM 042100Z 18014G19KT 15SM BKN260 26/11 A3006 RMK CI2 SLP180=
CYQM;2005-07-04 22:00;METAR CYQM 042200Z 19011G16KT 15SM BKN260 24/07 A3006 RMK CI4 SLP179=
CYQM;2005-07-04 23:00;METAR CYQM 042300Z 18008KT 15SM BKN260 22/08 A3005 RMK CI3 SLP176=
CYQM;2005-07-05 00:00;METAR CYQM 050000Z 19006KT 15SM BKN260 20/07 A3006 RMK CI2 SLP179=
CYQM;2005-07-05 01:00;METAR CYQM 050100Z 19007KT 15SM SCT260 17/07 A3006 RMK CI1 SLP180=
CYQM;2005-07-05 02:00;METAR CYQM 050200Z 20008KT 15SM FEW260 15/07 A3007 RMK CI1 SLP182=
CYQM;2005-07-05 03:00;METAR CYQM 050300Z 21008KT 15SM SKC 15/06 A3006 RMK SLP179=
CYQM;2005-07-05 04:00;METAR CYQM 050400Z 22010KT 15SM SKC 14/06 A3005 RMK SLP176=
CYQM;2005-07-05 05:00;METAR CYQM 050500Z 20007KT 15SM SKC 13/07 A3004 RMK SLP172=
CYQM;2005-07-05 06:00;METAR CYQM 050600Z 22007KT 15SM SKC 12/07 A3004 RMK SLP173=
CYQM;2005-07-05 07:00;METAR CYQM 050700Z 22007KT 15SM FEW260 11/07 A3003 RMK CI1 SLP168=
CYQM;2005-07-05 08:00;METAR CYQM 050800Z 20005KT 15SM SCT260 11/07 A3003 RMK CI2 SLP168=
CYQM;2005-07-05 09:00;METAR CYQM 050900Z 20007KT 15SM SCT260 10/07 A3001 RMK CI2 SLP164=
CYQM;2005-07-05 10:00;METAR CYQM 051000Z 19005KT 15SM FEW120 BKN260 12/07 A3000 RMK AC1CI3 SLP161=
CYQM;2005-07-05 11:00;METAR CYQM 051100Z 20007KT 15SM FEW120 SCT260 15/09 A3001 RMK AC1CI2 SLP162=
CYQM;2005-07-05 12:00;METAR CYQM 051200Z 21010KT 15SM SCT260 18/10 A2998 RMK CI2 SLP154=
CYQM;2005-07-05 13:00;METAR CYQM 051300Z 23008KT 15SM BKN260 21/12 A2997 RMK CI3 SLP150=
CYQM;2005-07-05 14:00;METAR CYQM 051400Z 21010KT 15SM FEW120 BKN260 23/13 A2995 RMK AC1CI4 SLP144=
CYQM;2005-07-05 15:00;METAR CYQM 051500Z 18009KT 15SM FEW120 BKN260 24/14 A2994 RMK AC1CI5 SLP139=
CYQM;2005-07-05 16:00;METAR CYQM 051600Z 20007KT 15SM FEW120 BKN260 26/16 A2993 RMK AC1CI5 SLP136=
CYQM;2005-07-05 17:00;METAR CYQM 051700Z 22011G19KT 15SM FEW120 FEW220 BKN260 26/16 A2992 RMK AC1CS2CI3 SLP132=
CYQM;2005-07-05 18:00;METAR CYQM 051800Z 23012G22KT 15SM FEW120 BKN260 26/15 A2991 RMK AC1CI6 SLP130=
CYQM;2005-07-05 19:00;METAR CYQM 051900Z 22014G21KT 15SM FEW120 FEW220 OVC260 26/15 A2989 RMK AC1CS2CI4 SLP124=
CYQM;2005-07-05 20:00;METAR CYQM 052000Z 19014G20KT 15SM FEW120 OVC260 25/14 A2990 RMK AC1CI6 SLP125=
CYQM;2005-07-05 21:00;METAR CYQM 052100Z 20010G16KT 15SM FEW120 SCT160 OVC260 24/13 A2988 RMK AC1AS2CI4 SLP119=
CYQM;2005-07-05 22:00;METAR CYQM 052200Z 20016KT 15SM FEW120 SCT160 BKN260 23/12 A2988 RMK AC1AS2CI2 SLP118=
CYQM;2005-07-05 23:00;METAR CYQM 052300Z 19014KT 15SM FEW140 OVC260 22/11 A2987 RMK AC2CI5 SLP117=
CYQM;2005-07-06 00:00;METAR CYQM 060000Z 21011G17KT 15SM SCT120 OVC260 21/09 A2987 RMK AC3CI4 SLP117=
CYQM;2005-07-06 01:00;METAR CYQM 060100Z 21013G19KT 15SM FEW120 OVC260 20/07 A2989 RMK AC1CI6 SLP123=
CYQM;2005-07-06 02:00;METAR CYQM 060200Z 21012G17KT 15SM BKN260 19/06 A2989 RMK CI3 SLP122=
CYQM;2005-07-06 03:00;METAR CYQM 060300Z 21011KT 15SM BKN120 OVC260 18/06 A2989 RMK AC5CI2 SLP123=
CYQM;2005-07-06 05:00;METAR CYQM 060500Z 23009KT 15SM BKN050 OVC120 18/08 A2989 RMK SC5AC3 SLP123=
CYQM;2005-07-06 06:00;METAR CYQM 060600Z 22009KT 15SM BKN060 17/10 A2988 RMK SC7 SLP119=
CYQM;2005-07-06 08:00;METAR CYQM 060800Z 17005KT 15SM FEW060 FEW120 OVC260 15/10 A2987 RMK SC1AC2CI5 SLP115=
CYQM;2005-07-06 09:00;METAR CYQM 060900Z 21004KT 15SM FEW055 BKN140 OVC260 15/11 A2989 RMK SC2AC5CI1 SLP122=
CYQM;2005-07-06 09:54;SPECI CYQM 060954Z 25009KT 15SM -SHRA BKN040 OVC140 RMK SC6AC2 VIS NW 3=
CYQM;2005-07-06 10:00;METAR CYQM 061000Z 24008KT 6SM -SHRA BR BKN040 OVC140 16/12 A2991 RMK SC6AC2 SLP130=
CYQM;2005-07-06 10:11;SPECI CYQM 061011Z 24008KT 12SM +SHRA BKN032 OVC110 RMK SC7AC1=
CYQM;2005-07-06 10:52;SPECI CYQM 061052Z 24004KT 12SM FEW015 BKN035 BKN120 OVC250 RERA RMK CU1SC6AC1CI1=
CYQM;2005-07-06 11:00;METAR CYQM 061100Z 22003KT 12SM FEW015 BKN035 BKN120 OVC240 16/14 A2993 RERA RMK CU1SC6AC1CI1 SLP135=
CYQM;2005-07-06 12:00;METAR CYQM 061200Z 22006KT 12SM FEW012 BKN035 OVC120 16/14 A2994 RMK SC1SC6AC2 SLP138=
CYQM;2005-07-06 13:00;METAR CYQM 061300Z 30004KT 5SM BR BKN015 BKN040 OVC120 17/15 A2995 RMK SC5SC2AC2 SLP143=
CYQM;2005-07-06 13:11;SPECI CYQM 061311Z 30005KT 1 1/2SM BR BKN004 OVC030 RMK SF7SC1=
CYQM;2005-07-06 13:36;SPECI CYQM 061336Z 33011KT 1 1/4SM -DZ BR BKN004 OVC040 RMK SF7SC1=
CYQM;2005-07-06 14:00;METAR CYQM 061400Z 36011G18KT 1 1/4SM -DZ BR BKN004 OVC040 16/15 A2998 RMK SF7SC1 SLP153=
CYQM;2005-07-06 14:36;SPECI CYQM 061436Z 02014KT 1 3/4SM -RADZ BR BKN005 OVC035 RMK SF7SC1=
CYQM;2005-07-06 15:00;METAR CYQM 061500Z 01012G17KT 1 3/4SM -RADZ BR BKN005 OVC035 15/14 A3001 RMK SF7SC1 SLP163=
CYQM;2005-07-06 15:20;SPECI CYQM 061520Z 36015KT 3SM -RA BR BKN004 OVC035 RMK SF7SC1=
CYQM;2005-07-06 16:00;METAR CYQM 061600Z 01013KT 4SM -RA BR BKN005 OVC030 15/14 A3002 RMK SF7SC1 SLP168=
CYQM;2005-07-06 16:33;SPECI CYQM 061633Z 36020KT 1 1/2SM -RADZ BR BKN004 OVC030 RMK SF7SC1=
CYQM;2005-07-06 17:00;METAR CYQM 061700Z 36013G18KT 2SM -RADZ BR BKN005 OVC030 14/13 A3006 RMK SF7SC1 SLP180=
CYQM;2005-07-06 17:33;SPECI CYQM 061733Z 36014G19KT 1 3/4SM -DZ BR BKN005 OVC030 RMK SF7SC1=
CYQM;2005-07-06 18:00;METAR CYQM 061800Z 01012G17KT 3SM -DZ BR BKN006 OVC025 13/12 A3007 RMK SF6SC2 SLP184=
CYQM;2005-07-06 18:10;SPECI CYQM 061810Z 36015G21KT 3SM -RADZ BR BKN005 OVC025 RMK SF6SC2=
CYQM;2005-07-06 18:15;SPECI CYQM 061815Z 01012G19KT 1 1/4SM -RADZ BR BKN005 OVC020 RMK SF6SC2=
CYQM;2005-07-06 18:31;SPECI CYQM 061831Z 01013KT 1 1/4SM RA BR BKN005 OVC020 RMK SF6SC2=
CYQM;2005-07-06 19:00;METAR CYQM 061900Z 36012G17KT 1 1/4SM -RA BR BKN005 OVC020 13/12 A3010 RERA RMK SF7SC1 SLP194=
CYQM;2005-07-06 19:46;SPECI CYQM 061946Z 02012G17KT 1 1/2SM -DZ BR BKN004 OVC025 RMK SF6SC2=
CYQM;2005-07-06 20:00;METAR CYQM 062000Z 01013KT 1 1/2SM -DZ BR BKN004 OVC025 13/12 A3010 RMK SF7SC1 SLP195=
CYQM;2005-07-06 21:00;METAR CYQM 062100Z 02012G17KT 2SM -DZ BR BKN004 OVC025 13/12 A3010 RMK SF7SC1 SLP194=
CYQM;2005-07-06 21:15;SPECI CYQM 062115Z 02014KT 2 1/2SM -DZ BR BKN006 OVC025 RMK SF7SC1=
CYQM;2005-07-06 21:38;SPECI CYQM 062138Z 02012KT 3SM -DZ BR BKN005 OVC020 RMK SF6SC2=
CYQM;2005-07-06 22:00;METAR CYQM 062200Z 02014KT 4SM -DZ BR BKN007 OVC020 13/12 A3011 RMK SF6SC2 SLP198=
CYQM;2005-07-06 23:00;METAR CYQM 062300Z 03013G19KT 7SM BKN008 OVC020 13/12 A3011 RMK SF6SC2 SLP198=
CYQM;2005-07-07 00:00;METAR CYQM 070000Z 03010KT 10SM BKN008 OVC020 13/12 A3013 RMK SF6SC2 SLP204=
CYQM;2005-07-07 00:18;SPECI CYQM 070018Z 02010KT 5SM -DZ BR BKN008 OVC020 RMK SF6SC2=
CYQM;2005-07-07 00:51;SPECI CYQM 070051Z 02011KT 12SM -DZ BKN011 OVC020 RMK SC6SC2=
CYQM;2005-07-07 01:00;METAR CYQM 070100Z 02010KT 12SM -DZ BKN011 OVC020 13/11 A3014 RMK SC6SC2 SLP207=
CYQM;2005-07-07 01:21;SPECI CYQM 070121Z 02010G15KT 15SM BKN013 BKN020 RMK SC6SC2=
CYQM;2005-07-07 02:00;METAR CYQM 070200Z 02005KT 15SM BKN013 12/11 A3015 RMK SC6 SLP211=
CYQM;2005-07-07 02:23;SPECI CYQM 070223Z 02006KT 15SM FEW012 SCT100 RMK SC2AC2=
CYQM;2005-07-07 03:00;METAR CYQM 070300Z 02007KT 15SM FEW012 SCT100 12/10 A3016 RMK SC2AC2 SLP214=
CYQM;2005-07-07 04:00;METAR CYQM 070400Z 36007KT 15SM FEW012 SCT050 12/10 A3016 RMK SC1SC3 SLP216=
CYQM;2005-07-07 05:00;METAR CYQM 070500Z 36005KT 15SM FEW012 BKN045 12/11 A3016 RMK SC2SC5 SLP214=
CYQM;2005-07-07 06:00;METAR CYQM 070600Z 01005KT 15SM BKN045 12/11 A3016 RMK SC6 SLP216=
CYQM;2005-07-07 07:00;METAR CYQM 070700Z 01006KT 15SM SCT045 11/10 A3016 RMK SC3 SLP215=
CYQM;2005-07-07 08:00;METAR CYQM 070800Z 01007KT 15SM FEW012 FEW050 10/09 A3016 RMK SC1SC2 SLP215=
CYQM;2005-07-07 09:00;METAR CYQM 070900Z 01005KT 15SM FEW050 FEW080 10/09 A3017 RMK SC1AC2 SLP219=
CYQM;2005-07-07 10:00;METAR CYQM 071000Z 02005KT 15SM FEW040 FEW080 12/11 A3018 RMK SC1AC1 SLP221=
CYQM;2005-07-07 11:00;METAR CYQM 071100Z 03011KT 15SM FEW040 FEW085 FEW260 15/10 A3018 RMK SC1AC1CI0 SLP223=
CYQM;2005-07-07 12:00;METAR CYQM 071200Z 02014G20KT 15SM FEW040 FEW080 FEW260 16/10 A3019 RMK SC1AC1CI0 SLP224=
CYQM;2005-07-07 13:00;METAR CYQM 071300Z 03015G20KT 15SM FEW020 FEW045 FEW090 FEW270 17/10 A3019 RMK CF1SC1AC1CI0 SLP225=
CYQM;2005-07-07 14:00;METAR CYQM 071400Z 04014G19KT 15SM FEW030 FEW070 FEW270 17/10 A3019 RMK CF1AC1CI0 SLP225=
CYQM;2005-07-07 15:00;METAR CYQM 071500Z 02018KT 15SM FEW035 FEW075 FEW270 18/09 A3020 RMK CU1AC1CI1 SLP228=
CYQM;2005-07-07 16:00;METAR CYQM 071600Z 04015G20KT 15SM FEW035 FEW090 FEW270 19/09 A3020 RMK CU1AC1CI1 SLP228=
CYQM;2005-07-07 17:00;METAR CYQM 071700Z 05011G20KT 15SM FEW040 FEW120 FEW270 19/09 A3020 RMK CU1AC1CI0 SLP227=
CYQM;2005-07-07 18:00;METAR CYQM 071800Z 02015G20KT 15SM FEW040 FEW140 FEW270 20/10 A3019 RMK CU1AC1CI0 SLP226=
CYQM;2005-07-07 19:00;METAR CYQM 071900Z 04014G22KT 15SM FEW040 FEW250 19/09 A3019 RMK CU1CI0 SLP224=
CYQM;2005-07-07 21:00;METAR CYQM 072100Z 02013KT 15SM FEW040 FEW250 19/08 A3018 RMK SC1CI1 SLP223=
CYQM;2005-07-07 22:00;METAR CYQM 072200Z 01010KT 15SM FEW040 SCT250 18/09 A3018 RMK SC1CI2 SLP221=
CYQM;2005-07-07 23:00;METAR CYQM 072300Z 03008KT 15SM FEW040 SCT250 17/09 A3018 RMK SC1CI1 SLP221=
CYQM;2005-07-08 00:00;METAR CYQM 080000Z 03003KT 15SM FEW040 SCT250 15/09 A3019 RMK SC1CI1 SLP223=
CYQM;2005-07-08 01:00;METAR CYQM 080100Z 03004KT 15SM FEW250 13/09 A3019 RMK CI2 SLP225=
CYQM;2005-07-08 03:00;METAR CYQM 080300Z 02002KT 15SM FEW250 11/08 A3020 RMK CI2 SLP229=
CYQM;2005-07-08 04:00;METAR CYQM 080400Z 35003KT 15SM FEW250 10/08 A3020 RMK CI2 SLP229=
CYQM;2005-07-08 05:00;METAR CYQM 080500Z 21003KT 15SM SKC 09/07 A3020 RMK SLP228=
CYQM;2005-07-08 06:00;METAR CYQM 080600Z 26002KT 15SM SKC 09/08 A3020 RMK SLP228=
CYQM;2005-07-08 07:00;METAR CYQM 080700Z 25002KT 15SM FEW020 08/08 A3020 RMK SC1 SLP228=
CYQM;2005-07-08 07:46;SPECI CYQM 080746Z 20006KT 5/8SM BR SKC RMK FG6=
CYQM;2005-07-08 08:00;METAR CYQM 080800Z 20006KT 5/8SM R06/2400V5500FT/D R29/P6000FT/N BR BKN250 06/06 A3020 RMK FG4CI2 VIS NNE 5 SLP228=
CYQM;2005-07-08 08:36;SPECI CYQM 080836Z 21003KT 3SM BR VCFG FEW020 BKN250 RMK FG1SC1CI2 VIS W 1/2 NW-SE 10=
CYQM;2005-07-08 09:00;METAR CYQM 080900Z 22003KT 12SM VCFG FEW020 BKN250 06/06 A3021 RMK SC1CI2 VIS SW-W 1/2 SLP232=
CYQM;2005-07-08 10:00;METAR CYQM 081000Z 22002KT 15SM VCFG FEW020 FEW250 08/07 A3022 RMK SC1CI1 SLP236=
CYQM;2005-07-08 11:00;METAR CYQM 081100Z 00000KT 15SM FEW020 FEW250 10/09 A3023 RMK SC1CI1 VIS=
CYQM;2005-07-08 12:00;METAR CYQM 081200Z 00000KT 15SM FEW020 FEW250 13/11 A3023 RMK CU1CI1 SLP238=
CYQM;2005-07-08 13:00;METAR CYQM 081300Z 00000KT 15SM FEW025 FEW250 17/13 A3022 RMK CU2CI1 SLP236=
CYQM;2005-07-08 14:00;METAR CYQM 081400Z 09003KT 15SM FEW025 BKN250 18/13 A3019 RMK CU1CI1 SLP227=
CYQM;2005-07-08 15:00;METAR CYQM 081500Z 17004KT 15SM FEW030 BKN250 20/13 A3019 RMK CU1CI1 SLP223=
CYQM;2005-07-08 16:00;METAR CYQM 081600Z 10002KT 15SM FEW030 BKN250 21/14 A3017 RMK CU1CI2 SLP219=
CYQM;2005-07-08 17:00;METAR CYQM 081700Z 18007KT 15SM FEW030 SCT250 22/13 A3016 RMK CU1CI2 SLP214=
CYQM;2005-07-08 18:00;METAR CYQM 081800Z 20007KT 15SM FEW030 BKN250 23/13 A3015 RMK CU1CI2 SLP212=
CYQM;2005-07-08 19:00;METAR CYQM 081900Z 20006KT 15SM FEW035 BKN250 24/14 A3013 RMK CU1CI2 SLP205=
CYQM;2005-07-08 20:00;METAR CYQM 082000Z 14006KT 15SM FEW040 BKN250 24/15 A3012 RMK CU1CI4 SLP202=
CYQM;2005-07-08 21:00;METAR CYQM 082100Z 16009KT 15SM FEW030 BKN250 22/14 A3010 RMK CU1CI4 SLP195=
CYQM;2005-07-08 22:00;METAR CYQM 082200Z 13010KT 15SM FEW100 BKN250 21/13 A3009 RMK AC1CI6 SLP192=
CYQM;2005-07-08 23:00;METAR CYQM 082300Z 15007KT 15SM SCT080 BKN250 20/12 A3009 RMK AC3CI3 SLP190=
CYQM;2005-07-09 00:00;METAR CYQM 090000Z 17007KT 15SM FEW080 BKN250 18/12 A3009 RMK AC2CI4 SLP190=
CYQM;2005-07-09 01:00;METAR CYQM 090100Z 19005KT 15SM FEW080 BKN250 17/11 A3010 RMK AC2CI4 SLP195=
CYQM;2005-07-09 02:00;METAR CYQM 090200Z 20006KT 15SM BKN250 16/13 A3010 RMK CI6 SLP194=
CYQM;2005-07-09 03:00;METAR CYQM 090300Z 18004KT 15SM SCT250 15/12 A3009 RMK CI2 SLP192=
CYQM;2005-07-09 04:00;METAR CYQM 090400Z 19006KT 15SM SKC 14/12 A3009 RMK SLP192=
CYQM;2005-07-09 06:00;METAR CYQM 090600Z 20005KT 15SM SKC 13/12 A3007 RMK SLP185=
CYQM;2005-07-09 07:00;METAR CYQM 090700Z 21005KT 15SM FEW120 12/12 A3007 RMK AC2 SLP185=
CYQM;2005-07-09 08:00;METAR CYQM 090800Z 22005KT 10SM PRFG FEW120 FEW260 13/12 A3007 RMK AC1CI1 SLP184=
CYQM;2005-07-09 09:00;METAR CYQM 090900Z 19006KT 10SM MIFG FEW120 SCT260 13/12 A3007 RMK AC1CI2 VIS W 1 SLP184=
CYQM;2005-07-09 10:00;METAR CYQM 091000Z 18006KT 12SM VCFG FEW120 BKN260 14/13 A3007 RMK AC1CI5 VIS SW-W 2 SLP184=
CYQM;2005-07-09 11:00;METAR CYQM 091100Z 19004KT 15SM FEW120 BKN260 17/14 A3007 RMK AC1CI5 CS ASOCTD SLP183=
CYQM;2005-07-09 12:00;METAR CYQM 091200Z 15004KT 15SM FEW140 BKN260 18/15 A3006 RMK AC2CI4 SLP181=
CYQM;2005-07-09 13:00;METAR CYQM 091300Z 16005KT 15SM FEW100 BKN140 BKN260 20/16 A3005 RMK AC2AC4CI2 SLP177=
CYQM;2005-07-09 14:00;METAR CYQM 091400Z 11005KT 15SM FEW100 BKN130 BKN260 21/16 A3003 RMK AC1AC5CI2 SLP172=
CYQM;2005-07-09 15:00;METAR CYQM 091500Z 14009KT 15SM SCT100 BKN120 BKN260 21/15 A3002 RMK AC3AC3CI1 SLP165=
CYQM;2005-07-09 16:00;METAR CYQM 091600Z 13008KT 15SM BKN100 BKN120 OVC260 21/15 A3000 RMK AC6AC2CI1 SLP160=
CYQM;2005-07-09 17:00;METAR CYQM 091700Z 18008KT 15SM BKN100 OVC120 21/15 A3000 RMK AC6AC2 SLP158=
CYQM;2005-07-09 17:18;SPECI CYQM 091718Z 15007KT 15SM -SHRA BKN100 OVC120 RMK AC7AC1=
CYQM;2005-07-09 18:00;METAR CYQM 091800Z 16005KT 15SM -SHRA BKN100 OVC120 21/15 A2998 RMK AC6AC2 SLP153=
CYQM;2005-07-09 20:00;METAR CYQM 092000Z 13008KT 15SM SCT100 BKN130 OVC260 21/13 A2995 RMK AC4AC3CI1 SLP143=
CYQM;2005-07-09 21:00;METAR CYQM 092100Z 13007KT 15SM FEW020 BKN040 BKN100 OVC260 20/13 A2993 RMK SC1SC5AC2CI1 SH DIST SW-W TR SC SLP136=
CYQM;2005-07-09 22:00;METAR CYQM 092200Z 12005KT 15SM -SHRA BKN020 BKN100 OVC260 20/13 A2993 RMK SC5AC2CI1 SLP136=
CYQM;2005-07-09 23:00;METAR CYQM 092300Z 09004KT 15SM -SHRA BKN020 BKN100 OVC260 18/14 A2990 RMK SC5AC1CI2 SLP127=
CYQM;2005-07-10 00:00;METAR CYQM 100000Z 09006KT 15SM -SHRA FEW020 BKN040 OVC260 18/15 A2989 RMK SC2SC3CI2 SLP122=
CYQM;2005-07-10 00:22;SPECI CYQM 100022Z 09009KT 15SM -SHRA FEW020 BKN050 OVC260 RMK SC1SC6CI2=
CYQM;2005-07-10 02:00;METAR CYQM 100200Z 11006KT 15SM OVC025 16/14 A2988 RETS RMK SC8 SLP119=
CYQM;2005-07-10 03:00;METAR CYQM 100300Z 09005KT 15SM OVC020 17/13 A2986 RMK SC8 SLP111=
CYQM;2005-07-10 04:00;METAR CYQM 100400Z 10005KT 15SM OVC017 16/13 A2984 RMK SC8 SLP106=
CYQM;2005-07-10 05:00;METAR CYQM 100500Z 10006KT 15SM SCT012 OVC020 17/13 A2982 RMK SC3SC5 SLP099=
CYQM;2005-07-10 05:26;SPECI CYQM 100526Z 11007KT 15SM BKN009 OVC012 RMK SF5SC3=
CYQM;2005-07-10 05:54;SPECI CYQM 100554Z 11004KT 12SM -DZ OVC008 RMK SF8=
CYQM;2005-07-10 07:00;METAR CYQM 100700Z 17002KT 4SM -DZ BR OVC004 16/15 A2981 RMK SF8 SLP094=
CYQM;2005-07-10 07:23;SPECI CYQM 100723Z 22003KT 2SM -DZ BR OVC002 RMK SF8=
CYQM;2005-07-10 07:47;SPECI CYQM 100747Z 18008KT 10SM -DZ BKN002 OVC008 RMK SF5SF3=
CYQM;2005-07-10 07:55;SPECI CYQM 100755Z 22009KT 10SM -DZ FEW002 SCT008 OVC017 RMK SF2SF2SC4=
CYQM;2005-07-10 08:00;METAR CYQM 100800Z 22005KT 12SM -DZ FEW002 SCT008 BKN017 OVC025 16/15 A2981 RMK SF1SF2SC4SC1 PCPN VRY LGT SLP096=
CYQM;2005-07-10 08:17;SPECI CYQM 100817Z 19006KT 12SM SCT008 BKN017 OVC025 RMK SF3SC4SC1=
CYQM;2005-07-10 08:39;SPECI CYQM 100839Z 19007KT 15SM -DZ FEW002 BKN008 OVC030 RMK SF2SF6SC1=
CYQM;2005-07-10 09:00;METAR CYQM 100900Z 19005KT 15SM FEW002 BKN008 BKN030 BKN260 15/14 A2981 RMK SF1SF5SC1CI1 SLP095=
CYQM;2005-07-10 09:06;SPECI CYQM 100906Z 19004KT 15SM FEW002 SCT008 SCT030 BKN260 RMK SF1SF2SC1CI1=
CYQM;2005-07-10 10:00;METAR CYQM 101000Z 21005KT 15SM FEW004 FEW030 BKN260 15/13 A2980 RMK SF1SC2CI1 SLP093=
CYQM;2005-07-10 11:00;METAR CYQM 101100Z 20004KT 15SM SCT006 SCT030 BKN260 16/14 A2982 RMK SF3SC1CI1 SLP099=
CYQM;2005-07-10 11:06;SPECI CYQM 101106Z 23006KT 15SM BKN007 BKN260 RMK SF6CI1=
CYQM;2005-07-10 11:35;SPECI CYQM 101135Z 19004KT 15SM SCT008 SCT030 BKN260 RMK CF3SC1CI1=
CYQM;2005-07-10 12:00;METAR CYQM 101200Z 17004KT 15SM BKN011 BKN030 BKN260 17/14 A2981 RMK SF6SC1CI1 SLP095=
CYQM;2005-07-10 13:00;METAR CYQM 101300Z 15003KT 15SM BKN010 18/15 A2980 RMK SC7 SLP093=
CYQM;2005-07-10 14:00;METAR CYQM 101400Z 31005KT 15SM OVC011 17/15 A2981 RMK SC8 SLP095=
CYQM;2005-07-10 14:44;SPECI CYQM 101444Z 29002KT 15SM FEW008 OVC010 RMK SF2SC6=
CYQM;2005-07-10 15:00;METAR CYQM 101500Z 00000KT 15SM FEW008 OVC010 17/15 A2981 RMK SF2SC6 SLP094=
CYQM;2005-07-10 16:00;METAR CYQM 101600Z 17003KT 15SM BKN011 BKN025 18/15 A2979 RMK SC6SC1 SLP089=
CYQM;2005-07-10 17:00;METAR CYQM 101700Z 20006KT 15SM BKN010 OVC013 19/15 A2979 RMK SC6SC2 SLP088=
CYQM;2005-07-10 18:00;METAR CYQM 101800Z 26005KT 15SM OVC012 19/15 A2978 RMK SC8 SLP084=
CYQM;2005-07-10 19:00;METAR CYQM 101900Z 19004KT 15SM BKN013 20/16 A2976 RMK SC7 SLP079=
CYQM;2005-07-10 19:28;SPECI CYQM 101928Z 08002KT 15SM OVC016 RMK SC8=
CYQM;2005-07-10 20:00;METAR CYQM 102000Z 20004KT 15SM OVC018 20/16 A2975 RMK SC8 SLP076=
CYQM;2005-07-10 21:00;METAR CYQM 102100Z 19004KT 15SM FEW012 OVC018 19/16 A2975 RMK CU1SC7 BINOVC SLP076=
CYQM;2005-07-10 22:00;METAR CYQM 102200Z 27005KT 15SM FEW012 OVC018 19/15 A2975 RMK CU1SC7 SLP076=
CYQM;2005-07-10 23:00;METAR CYQM 102300Z 27005KT 15SM BKN018 BKN120 BKN260 19/16 A2974 RMK SC5AC1CI1 SLP073=
CYQM;2005-07-11 00:00;METAR CYQM 110000Z 30005KT 15SM BKN018 BKN120 BKN260 19/16 A2975 RMK SC5AC1CI1 SLP077=
CYQM;2005-07-11 01:00;METAR CYQM 110100Z 26002KT 15SM BKN017 BKN120 18/16 A2976 RMK SC6AC2 SLP078=
CYQM;2005-07-11 03:00;METAR CYQM 110300Z 25003KT 15SM FEW015 BKN020 16/15 A2975 RMK SC2SC4 SLP074=
CYQM;2005-07-11 04:00;METAR CYQM 110400Z 19003KT 15SM SCT100 17/15 A2974 RMK AC4 SLP072=
CYQM;2005-07-11 05:00;METAR CYQM 110500Z 20006KT 12SM FEW100 16/15 A2972 RMK AC2 SLP066=
CYQM;2005-07-11 07:00;METAR CYQM 110700Z 20005KT 12SM SCT050 15/14 A2973 RMK SC3 SLP069=
CYQM;2005-07-11 08:00;METAR CYQM 110800Z 00000KT 10SM VCFG FEW050 BKN090 15/14 A2973 RMK SC2AC3 ACC ASOCTD SLP067=
CYQM;2005-07-11 08:08;SPECI CYQM 110808Z 00000KT 2SM BR MIFG FEW050 BKN090 RMK SC2AC3=
CYQM;2005-07-11 08:23;SPECI CYQM 110823Z 17003KT 1 1/4SM BR PRFG FEW050 BKN090 RMK SC2AC3=
CYQM;2005-07-11 08:29;SPECI CYQM 110829Z 17003KT 3/4SM R06/1400VP6000FT/D R29/P6000FT/N BR FEW050 BKN090 RMK SC2AC3=
CYQM;2005-07-11 09:00;METAR CYQM 110900Z 16002KT 3/4SM R06/1600V2600FT/D R29/3500VP6000FT/U BR SCT040 BKN090 14/13 A2972 RMK SC3AC3 VIS E 5 SLP066=
CYQM;2005-07-11 09:26;SPECI CYQM 110926Z 22002KT 1 1/4SM BR SCT040 BKN090 BKN150 RMK SC3AC2AC1=
CYQM;2005-07-11 09:30;SPECI CYQM 110930Z 21002KT 4SM BR SCT040 BKN090 BKN150 RMK SC3AC2AC2=
CYQM;2005-07-11 09:55;SPECI CYQM 110955Z 20005KT 1 1/4SM BR SCT040 BKN090 BKN150 RMK SC3AC2AC2=
CYQM;2005-07-11 10:00;METAR CYQM 111000Z 20005KT 1 1/4SM BR FEW015 SCT040 BKN080 BKN150 14/13 A2973 RMK CU1SC3AC2AC1 SLP070=
CYQM;2005-07-11 10:22;SPECI CYQM 111022Z 20005KT 1 1/4SM TS BR VCSH FEW020 BKN040 BKN080 RMK CU1SC4AC2 CB EMBD=
CYQM;2005-07-11 10:44;SPECI CYQM 111044Z 35005KT 1 1/4SM -TSRA BR FEW020 OVC040 RMK SC2SC6 CB EMBD=
CYQM;2005-07-11 11:19;SPECI CYQM 111119Z 32007KT 1 1/4SM TSRA BR FEW015 OVC040CB RMK SC2CB6 CB EMBD FRQ LTGCCIC=
CYQM;2005-07-11 11:37;SPECI CYQM 111137Z 09002KT 3SM -TSRA BR SCT015 OVC040CB RERA RMK SC3CB5 LTGCCICCG=
CYQM;2005-07-11 12:00;METAR CYQM 111200Z 36010KT 5SM TSRA BR FEW015 SCT040CB OVC070 17/15 A2980 RERA RMK SC2CB2AC5 LTGCCICCG SLP091=
CYQM;2005-07-11 12:40;SPECI CYQM 111240Z 09009KT 10SM SHRA FEW015 SCT040 BKN070 BKN220 RETS RMK SC1SC2AC2CI1=
CYQM;2005-07-11 13:00;METAR CYQM 111300Z 32009KT 12SM -SHRA FEW015 SCT040 BKN090 BKN220 17/15 A2978 RETSRA RMK SC1SC2AC2CI1 SLP086=
CYQM;2005-07-11 13:18;SPECI CYQM 111318Z 00000KT 12SM FEW015 FEW040 BKN150 BKN220 RMK SC1SC2AC2CI1=
CYQM;2005-07-11 14:00;METAR CYQM 111400Z 31007KT 12SM FEW040 BKN150 BKN220 17/16 A2979 RMK SC2AC2CI1 SLP090=
CYQM;2005-07-11 15:00;METAR CYQM 111500Z 03009G15KT 12SM BKN020 BKN040 18/17 A2982 RMK SC6SC2 SLP098=
CYQM;2005-07-11 15:43;SPECI CYQM 111543Z 01011G16KT 12SM -SHRA BKN020 BKN040 RMK SC6SC2=
CYQM;2005-07-11 16:00;METAR CYQM 111600Z 01013KT 12SM -SHRA FEW012 BKN025 19/16 A2984 RMK CU2SC5 SLP104=
CYQM;2005-07-11 16:18;SPECI CYQM 111618Z 36012G18KT 12SM FEW012 BKN025 RMK CU2SC5=
CYQM;2005-07-11 17:00;METAR CYQM 111700Z 36013KT 12SM FEW012 BKN025 18/15 A2984 RMK CU2SC5 SLP107=
CYQM;2005-07-11 18:00;METAR CYQM 111800Z 01013KT 12SM FEW012 BKN025 18/16 A2986 RMK CU1SC6 SLP111=
CYQM;2005-07-11 19:00;METAR CYQM 111900Z 35016KT 15SM FEW014 BKN025 18/15 A2988 RMK CU2SC6 SLP119=
CYQM;2005-07-11 19:36;SPECI CYQM 111936Z 35013KT 15SM BKN013 RMK SC7=
CYQM;2005-07-11 20:00;METAR CYQM 112000Z 36014KT 15SM BKN011 16/14 A2990 RMK SC7 SLP125=
CYQM;2005-07-11 20:52;SPECI CYQM 112052Z 36008KT 12SM BKN005 OVC030 RMK SF7SC1=
CYQM;2005-07-11 21:00;METAR CYQM 112100Z 35011KT 12SM BKN005 OVC030 17/15 A2991 RMK SF7SC1 SLP130=
CYQM;2005-07-11 21:41;SPECI CYQM 112141Z 36014KT 15SM BKN006 OVC040 RMK SF7SC1=
CYQM;2005-07-11 22:00;METAR CYQM 112200Z 36012G17KT 15SM -SHRA BKN006 OVC040 16/14 A2993 RMK SF7SC1 SLP138=
CYQM;2005-07-11 22:22;SPECI CYQM 112222Z 36012KT 15SM BKN007 OVC040 RMK SF7SC1=
CYQM;2005-07-11 23:00;METAR CYQM 112300Z 36009KT 15SM BKN008 16/14 A2995 RMK SC7 SLP142=
CYQM;2005-07-11 23:26;SPECI CYQM 112326Z 36009KT 15SM FEW008 SCT011 SCT100 BKN250 RMK SF1SC2AC1CI1=
CYQM;2005-07-12 00:00;METAR CYQM 120000Z 36008KT 15SM FEW008 SCT012 SCT100 BKN250 15/13 A2997 RMK CF2SC1AC1CI0 CONTRAILS SLP149=
CYQM;2005-07-12 01:00;METAR CYQM 120100Z 36007KT 15SM BKN013 15/13 A2999 RMK SC7 SLP156=
CYQM;2005-07-12 02:00;METAR CYQM 120200Z 36009KT 15SM BKN015 15/13 A2998 RMK SC7 SLP154=
CYQM;2005-07-12 03:00;METAR CYQM 120300Z 36010KT 15SM SCT009 OVC012 15/13 A2999 RMK SF3SC5 SLP156=
CYQM;2005-07-12 04:00;METAR CYQM 120400Z 36012G17KT 15SM BKN018 15/13 A3000 RMK SC7 SLP159=
CYQM;2005-07-12 06:00;METAR CYQM 120600Z 35005KT 15SM SCT025 BKN100 13/12 A3002 RMK SC3AC3 SLP167=
CYQM;2005-07-12 07:00;METAR CYQM 120700Z 01007KT 15SM BKN035 14/13 A3003 RMK SC7 SLP171=
CYQM;2005-07-12 09:00;METAR CYQM 120900Z 01006KT 15SM BKN009 BKN032 15/13 A3004 RMK SF6SC1 SLP175=
CYQM;2005-07-12 10:00;METAR CYQM 121000Z 01009KT 15SM BKN008 BKN025 15/13 A3006 RMK SF6SC2 SLP181=
CYQM;2005-07-12 12:00;METAR CYQM 121200Z 01008KT 8SM -DZ BKN006 OVC020 15/13 A3008 RMK SF6SC2 SLP186=
CYQM;2005-07-12 13:00;METAR CYQM 121300Z 36007KT 8SM -DZ BKN006 OVC020 15/14 A3008 RMK SF6SC2 SLP186=
CYQM;2005-07-12 13:10;SPECI CYQM 121310Z 01005KT 8SM VCSH BKN006 OVC020 RMK SF6SC2=
CYQM;2005-07-12 14:00;METAR CYQM 121400Z 36011KT 12SM BKN008 OVC020 17/13 A3007 RMK SF6SC2 SLP184=
CYQM;2005-07-12 15:00;METAR CYQM 121500Z 01012KT 15SM BKN009 OVC025 17/13 A3008 RMK SF5SC3 SLP186=
CYQM;2005-07-12 15:28;SPECI CYQM 121528Z 35018KT 15SM BKN013 OVC025 RMK SC6SC2=
CYQM;2005-07-12 15:42;SPECI CYQM 121542Z 35013G21KT 15SM BKN016 OVC025 RMK SC6SC2=
CYQM;2005-07-12 16:00;METAR CYQM 121600Z 36016G24KT 15SM BKN016 OVC025 17/12 A3007 RMK SC6SC2 SLP183=
CYQM;2005-07-12 17:00;METAR CYQM 121700Z 01014G19KT 15SM BKN016 OVC025 17/13 A3006 RMK SC6SC2 SLP182=
CYQM;2005-07-12 18:00;METAR CYQM 121800Z 36015KT 15SM BKN017 BKN025 18/13 A3007 RMK SC6SC1 SLP183=
CYQM;2005-07-12 18:47;SPECI CYQM 121847Z 35014KT 15SM -SHRA BKN017 BKN025 RMK SC6SC1=
CYQM;2005-07-12 19:32;SPECI CYQM 121932Z 35015KT 12SM VCSH BKN016 BKN025 RMK SC6SC1=
CYQM;2005-07-12 20:00;METAR CYQM 122000Z 36012KT 12SM VCSH BKN016 BKN025 16/12 A3008 RMK SC6SC2 SLP188=
CYQM;2005-07-12 20:08;SPECI CYQM 122008Z 35013KT 12SM -SHRA BKN016 BKN025 RMK SC6SC2=
CYQM;2005-07-12 20:54;SPECI CYQM 122054Z 36009KT 15SM FEW008 BKN015 BKN140 BKN250 RMK CF1SC5AC2CI1=
CYQM;2005-07-12 21:00;METAR CYQM 122100Z 34012KT 15SM FEW008 BKN015 BKN150 BKN260 16/13 A3008 RMK CF1SC4AC2CI1 SLP187=
CYQM;2005-07-12 22:00;METAR CYQM 122200Z 02007KT 15SM FEW012 BKN020 BKN150 15/12 A3007 RMK CU1SC4AC2 SLP185=
CYQM;2005-07-12 22:16;SPECI CYQM 122216Z 34009KT 15SM -SHRA BKN020 BKN150 RMK SC7AC1=
CYQM;2005-07-12 22:36;SPECI CYQM 122236Z 36008KT 15SM BKN010 BKN080 RMK SC7AC1=
CYQM;2005-07-12 23:30;SPECI CYQM 122330Z 35009KT 12SM -SHRA BKN010 BKN150 RMK SC7AC1=
CYQM;2005-07-13 00:00;METAR CYQM 130000Z 04005KT 12SM -SHRA BKN009 BKN120 14/12 A3007 RMK SC6AC1 CIG RAG SLP185=
CYQM;2005-07-13 00:28;SPECI CYQM 130028Z 01004KT 10SM BKN010 BKN120 RMK SC7AC1=
CYQM;2005-07-13 01:00;METAR CYQM 130100Z 36003KT 15SM BKN011 14/13 A3008 RMK SC7 SLP186=
CYQM;2005-07-13 01:12;SPECI CYQM 130112Z 01004KT 10SM -DZ BKN006 RMK SF7=
CYQM;2005-07-13 01:32;SPECI CYQM 130132Z 36005KT 5SM -DZ BR BKN004 OVC007 RMK SF5SF3=
CYQM;2005-07-13 01:47;SPECI CYQM 130147Z 36004KT 2 1/2SM -DZ BR FEW004 BKN007 OVC012 RMK SF2SF5SC1 VIS W 5=
CYQM;2005-07-13 02:00;METAR CYQM 130200Z 32004KT 8SM -DZ BKN008 OVC014 13/13 A3008 RMK SF6SC2 SLP187=
CYQM;2005-07-13 02:20;SPECI CYQM 130220Z 27003KT 15SM BKN006 RMK SC7=
CYQM;2005-07-13 03:00;METAR CYQM 130300Z 30003KT 15SM FEW012 BKN075 13/12 A3008 RMK SC2AC5 SLP188=
CYQM;2005-07-13 04:00;METAR CYQM 130400Z 31004KT 15SM BKN010 BKN075 13/12 A3007 RMK SC7AC1 SLP185=
CYQM;2005-07-13 04:19;SPECI CYQM 130419Z 30007KT 8SM VCSH SCT010 BKN070 RMK SC3AC4 VIS N 3=
CYQM;2005-07-13 04:32;SPECI CYQM 130432Z 30003KT 8SM VCSH BKN010 BKN070 RMK SC6AC2=
CYQM;2005-07-13 06:00;METAR CYQM 130600Z 27003KT 8SM FEW002 SCT005 BKN080 13/12 A3006 RMK SF2SF2AC4 SLP181=
CYQM;2005-07-13 06:28;SPECI CYQM 130628Z 27003KT 8SM BKN003 BKN075 RMK SF5AC2=
CYQM;2005-07-13 07:00;METAR CYQM 130700Z 28005KT 8SM FEW005 BKN015 BKN080 13/12 A3005 RMK CF1SC6AC2 SLP177=
CYQM;2005-07-13 08:07;SPECI CYQM 130807Z 30004KT 8SM OVC005 RMK ST8=
CYQM;2005-07-13 09:00;METAR CYQM 130900Z 32002KT 12SM BKN005 OVC015 13/12 A3006 RMK SF7SC1 VIS E 3 SLP179=
CYQM;2005-07-13 09:43;SPECI CYQM 130943Z 00000KT 15SM SCT005 BKN011 OVC080 RMK SF4SC3AC1=
CYQM;2005-07-13 10:00;METAR CYQM 131000Z 00000KT 15SM SCT005 BKN011 OVC080 13/12 A3006 RMK SF3SC4AC1 SLP180=
CYQM;2005-07-13 10:19;SPECI CYQM 131019Z 28003KT 15SM BKN006 BKN012 OVC080 RMK SF6SC2AC1=
CYQM;2005-07-13 11:00;METAR CYQM 131100Z 27003KT 15SM BKN006 BKN012 OVC025 14/12 A3007 RMK SF6SC1SC1 BINOVC SLP183=
CYQM;2005-07-13 11:44;SPECI CYQM 131144Z 26004KT 15SM -SHRA BKN008 BKN012 OVC025 RMK SF6SC1SC1 BINOVC=
CYQM;2005-07-13 12:00;METAR CYQM 131200Z 26002KT 15SM BKN008 OVC025 15/12 A3006 RMK SF6SC2 BINOVC SLP182=
CYQM;2005-07-13 12:12;SPECI CYQM 131212Z 30003KT 15SM -SHRA BKN008 OVC025 RMK SF7SC1=
CYQM;2005-07-13 12:35;SPECI CYQM 131235Z 32003KT 15SM BKN008 BKN012 OVC025 RMK SF6SC2SC1=
CYQM;2005-07-13 13:00;METAR CYQM 131300Z 35003KT 15SM BKN008 OVC012 15/13 A3006 RMK SF6SC2 SLP182=
CYQM;2005-07-13 14:00;METAR CYQM 131400Z 00000KT 15SM BKN008 BKN012 OVC025 15/13 A3006 RMK SF5SC2SC1 SLP182=
CYQM;2005-07-13 14:30;SPECI CYQM 131430Z 00000KT 15SM SCT008 BKN012 OVC020 RMK SF3CU4SC1=
CYQM;2005-07-13 15:00;METAR CYQM 131500Z 00000KT 15SM BKN012 BKN020 17/13 A3006 RMK CU6SC1 SLP181=
CYQM;2005-07-13 16:00;METAR CYQM 131600Z 07003KT 15SM BKN012 BKN260 17/14 A3006 RMK CU7CI1 SLP179=
CYQM;2005-07-13 18:00;METAR CYQM 131800Z 16004KT 15SM BKN016 BKN260 18/14 A3004 RMK CU7CI1 SLP173=
CYQM;2005-07-13 19:00;METAR CYQM 131900Z 11004KT 15SM SCT020 BKN030 20/15 A3003 RMK CU3SC4 SLP171=
CYQM;2005-07-13 20:00;METAR CYQM 132000Z 12002KT 15SM FEW027 BKN040 21/15 A3002 RMK CU2SC4 SLP168=
CYQM;2005-07-13 21:00;METAR CYQM 132100Z 19007KT 15SM FEW030 SCT040 21/15 A3002 RMK CU2SC2 SLP166=
CYQM;2005-07-13 22:00;METAR CYQM 132200Z 14007KT 15SM FEW030 FEW045 FEW260 20/15 A3000 RMK CU1SC1CI1 SLP161=
CYQM;2005-07-13 23:00;METAR CYQM 132300Z 15007KT 15SM FEW040 FEW120 FEW260 19/14 A3000 RMK SC1AC1CI1 SLP160=
CYQM;2005-07-14 00:00;METAR CYQM 140000Z 15005KT 15SM FEW045 FEW120 FEW260 17/14 A3000 RMK SC1AC1CI1 SLP160=
CYQM;2005-07-14 02:00;METAR CYQM 140200Z 14006KT 15SM FEW260 13/12 A3002 RMK CI1 SLP166=
CYQM;2005-07-14 03:00;METAR CYQM 140300Z 19006KT 15SM SKC 13/12 A3003 RMK SLP169=
CYQM;2005-07-14 04:00;METAR CYQM 140400Z 19006KT 15SM SKC 13/12 A3001 RMK SLP163=
CYQM;2005-07-14 05:00;METAR CYQM 140500Z 17004KT 15SM SKC 12/11 A3000 RMK SLP162=
CYQM;2005-07-14 06:00;METAR CYQM 140600Z 14005KT 15SM SKC 11/10 A3000 RMK SLP160=
CYQM;2005-07-14 07:22;SPECI CYQM 140722Z 17005KT 15SM FEW003 SCT120 BKN260 RMK SF1AC3CI2 TR SF=
CYQM;2005-07-14 09:00;METAR CYQM 140900Z 18003KT 15SM FEW003 FEW120 SCT260 10/10 A2999 RMK SF1AC2CI1 TR SF SLP157=
CYQM;2005-07-14 10:00;METAR CYQM 141000Z 20004KT 15SM FEW006 FEW120 BKN260 12/11 A2999 RMK CF1AC2CI2 SLP157=
CYQM;2005-07-14 11:00;METAR CYQM 141100Z 22006KT 15SM FEW006 SCT120 BKN260 13/12 A2999 RMK CF1AC2CI2 SLP158=
CYQM;2005-07-14 12:00;METAR CYQM 141200Z 20005KT 15SM FEW120 OVC260 16/13 A2998 RMK AC2CI6 SLP155=
CYQM;2005-07-14 13:00;METAR CYQM 141300Z 19006KT 15SM FEW020 BKN090 OVC260 18/15 A2998 RMK SC2AC3CI3 SLP153=
CYQM;2005-07-14 14:00;METAR CYQM 141400Z 16008KT 15SM FEW016 FEW090 BKN140 BKN260 20/16 A2996 RMK CU1AC1AC4CI2 TR CU SLP148=
CYQM;2005-07-14 15:00;METAR CYQM 141500Z 18011G16KT 15SM FEW020 BKN140 BKN260 22/17 A2995 RMK CU2AC3CI2 SLP141=
CYQM;2005-07-14 15:20;SPECI CYQM 141520Z 19012KT 15SM -SHRA SCT015 BKN140 OVC260 RMK SC4AC2CI2=
CYQM;2005-07-14 15:55;SPECI CYQM 141555Z 19011G18KT 12SM BKN015 OVC260 RMK SC6CI2 SH W-NW=
CYQM;2005-07-14 16:00;METAR CYQM 141600Z 19012KT 12SM -SHRA BKN015 OVC260 21/17 A2994 RMK SC6CI2 SLP138=
CYQM;2005-07-14 16:32;SPECI CYQM 141632Z 20011G18KT 10SM -SHRA FEW008 BKN015 OVC260 RMK SF2SC5CI1=
CYQM;2005-07-14 17:00;METAR CYQM 141700Z 18011KT 12SM -SHRA FEW012 BKN025 BKN140 OVC260 21/18 A2993 RMK CU2SC4AC1CI2 SLP135=
CYQM;2005-07-14 19:29;SPECI CYQM 141929Z 21017G22KT 8SM -SHRA BKN006 OVC012 RMK SF5SC3=
CYQM;2005-07-14 20:00;METAR CYQM 142000Z 19011G16KT 7SM -SHRA BKN006 OVC012 18/17 A2994 RMK SF6SC2 SLP139=
CYQM;2005-07-14 20:41;SPECI CYQM 142041Z 20011G16KT 8SM -SHRA FEW008 OVC026 RMK SF2SC6=
CYQM;2005-07-14 21:00;METAR CYQM 142100Z 19012KT 8SM -SHRA FEW008 OVC015 18/16 A2992 RMK SF2SC6 SLP135=
CYQM;2005-07-14 22:00;METAR CYQM 142200Z 19009KT 10SM -SHRA FEW008 OVC016 18/16 A2992 RMK SF2SC6 SLP134=
CYQM;2005-07-14 22:41;SPECI CYQM 142241Z 19009KT 15SM -RA BKN013 OVC025 RMK SC6SC2=
CYQM;2005-07-14 23:00;METAR CYQM 142300Z 18008KT 12SM -RA BKN013 OVC025 18/16 A2992 RMK SC6SC2 SLP132=
CYQM;2005-07-14 23:21;SPECI CYQM 142321Z 19011KT 12SM -RA SCT013 BKN030 OVC070 RMK SC3SC3AC2=
CYQM;2005-07-15 00:00;METAR CYQM 150000Z 20011KT 12SM -SHRA FEW013 BKN030 BKN070 OVC120 18/16 A2989 RMK SF2SC3AC2AC1 SLP123=
CYQM;2005-07-15 01:00;METAR CYQM 150100Z 20006KT 15SM BKN013 OVC055 18/17 A2988 RMK SC5SC3 SLP120=
CYQM;2005-07-15 01:25;SPECI CYQM 150125Z 20008KT 12SM -SHRA OVC012 RMK SC8=
CYQM;2005-07-15 01:53;SPECI CYQM 150153Z 18010KT 12SM BKN013 BKN070 RMK SC6AC2=
CYQM;2005-07-15 02:00;METAR CYQM 150200Z 18008KT 12SM BKN013 BKN070 18/17 A2986 RMK SC6AC2 SLP114=
CYQM;2005-07-15 02:17;SPECI CYQM 150217Z 23010KT 12SM -SHRA BKN009 OVC013 RMK SF6SC2=
CYQM;2005-07-15 03:00;METAR CYQM 150300Z 23014KT 15SM -SHRA FEW004 FEW013 OVC100 18/17 A2987 RMK SF1SF2AC6 SLP115=
CYQM;2005-07-15 04:00;METAR CYQM 150400Z 21011KT 10SM -SHRA FEW004 OVC100 18/16 A2984 RMK SF1AC7 SLP105=
CYQM;2005-07-15 04:39;SPECI CYQM 150439Z 23007KT 15SM OVC100 RMK AC8=
CYQM;2005-07-15 05:00;METAR CYQM 150500Z 24007KT 15SM BKN100 18/16 A2984 RMK AC7 SLP104=
CYQM;2005-07-15 06:00;METAR CYQM 150600Z 19004KT 15SM BKN100 17/16 A2984 RMK AC6 SLP105=
CYQM;2005-07-15 06:43;SPECI CYQM 150643Z 19003KT 15SM FEW008 BKN040 OVC100 RMK SF2SC5AC1=
CYQM;2005-07-15 06:48;SPECI CYQM 150648Z 19003KT 12SM BKN006 BKN040 OVC100 RMK SF5SC2AC1=
CYQM;2005-07-15 07:00;METAR CYQM 150700Z 22004KT 10SM BKN005 OVC040 16/16 A2986 RMK SF6SC2 SLP111=
CYQM;2005-07-15 07:21;SPECI CYQM 150721Z 24009KT 8SM SCT002 OVC004 RMK SF3SF5=
CYQM;2005-07-15 07:33;SPECI CYQM 150733Z 25008KT 7SM OVC003 RMK SF8=
CYQM;2005-07-15 07:43;SPECI CYQM 150743Z 25008KT 6SM BR OVC002 RMK SF8=
CYQM;2005-07-15 08:00;METAR CYQM 150800Z 24008KT 5SM BR BKN002 OVC003 16/16 A2986 RMK SF6SF2 SLP112=
CYQM;2005-07-15 08:16;SPECI CYQM 150816Z 24008KT 2SM BR BKN002 OVC003 RMK SF7SF1=
CYQM;2005-07-15 08:20;SPECI CYQM 150820Z 24008KT 1 1/4SM BR OVC002 RMK SF8=
CYQM;2005-07-15 08:50;SPECI CYQM 150850Z 24008KT 5/8SM R06/5000FT/N R29/3500V5500FT/D BR OVC001 RMK SF8=
CYQM;2005-07-15 09:00;METAR CYQM 150900Z 22007KT 1SM R06/5500FT/U R29/4000VP6000FT/U BR OVC001 16/16 A2987 RMK SF8 SLP117=
CYQM;2005-07-15 09:50;SPECI CYQM 150950Z 24008KT 3/4SM R06/5500FT/D R29/P6000FT/D BR OVC001 RMK SF8=
CYQM;2005-07-15 10:00;METAR CYQM 151000Z 25009KT 5/8SM R06/4000VP6000FT/U R29/P6000FT/D BR OVC002 16/16 A2991 RMK SF8 SLP128=
CYQM;2005-07-15 10:08;SPECI CYQM 151008Z 25009KT 1SM R06/4000VP6000FT/U R29/P6000FT/U BR OVC001 RMK SF8=
CYQM;2005-07-15 10:14;SPECI CYQM 151014Z 24008KT 1 1/2SM BR OVC001 RMK SF8=
CYQM;2005-07-15 11:00;METAR CYQM 151100Z 24009KT 3SM BR BKN002 OVC030 17/16 A2992 RMK SF7SC1 SLP132=
CYQM;2005-07-15 11:18;SPECI CYQM 151118Z 23008KT 7SM BKN003 BKN030 RMK SF6SC1=
CYQM;2005-07-15 12:00;METAR CYQM 151200Z 25009KT 10SM BKN006 BKN025 18/16 A2993 RMK CF7SC1 SLP136=
CYQM;2005-07-15 13:00;METAR CYQM 151300Z 29010G15KT 15SM FEW005 BKN010 19/16 A2994 RMK CF1SC7 SLP138=
CYQM;2005-07-15 14:00;METAR CYQM 151400Z 28010KT 15SM SCT007 OVC015 19/16 A2995 RMK CF4SC4 SLP141=
CYQM;2005-07-15 15:00;METAR CYQM 151500Z 29007KT 15SM SCT015 BKN032 20/15 A2995 RMK CU3SC4 SLP142=
CYQM;2005-07-15 16:00;METAR CYQM 151600Z 29010G15KT 15SM BKN030 22/15 A2996 RMK CU6 SLP146=
CYQM;2005-07-15 17:00;METAR CYQM 151700Z 31011G17KT 15SM BKN035 23/14 A2995 RMK CU6 SLP144=
CYQM;2005-07-15 18:00;METAR CYQM 151800Z 32012KT 15SM SCT035 SCT270 25/15 A2995 RMK CU4CI1 SLP141=
CYQM;2005-07-15 19:00;METAR CYQM 151900Z 29009KT 15SM BKN040 BKN270 24/14 A2995 RMK CU6CI1 SLP144=
CYQM;2005-07-15 20:00;METAR CYQM 152000Z 32006KT 15SM BKN040 BKN270 25/15 A2996 RMK CU6CI0 SHS SW - NW SLP146=
CYQM;2005-07-15 21:00;METAR CYQM 152100Z 02013G18KT 15SM SCT035 SCT075 BKN250 22/13 A2998 RMK SC3AC1CI1 SLP152=
CYQM;2005-07-15 22:00;METAR CYQM 152200Z 02012G19KT 15SM BKN035 BKN075 BKN250 20/12 A3001 RMK SC5AC1CI1 TCU ASOCTD SLP162=
CYQM;2005-07-15 22:09;SPECI CYQM 152209Z 03009KT 15SM -SHRA BKN035 BKN075 BKN250 20/ RMK SC5AC1CI1 TCU ASOCTD=
CYQM;2005-07-15 22:32;SPECI CYQM 152232Z 04006KT 15SM SCT035 SCT075 BKN250 20/ RMK SC3AC1CI1 TCU ASOCTD=
CYQM;2005-07-15 23:00;METAR CYQM 152300Z 04007KT 15SM SCT035 SCT075 20/13 A3003 RMK SC3AC1 SLP170=
CYQM;2005-07-16 00:00;METAR CYQM 160000Z 05002KT 15SM SCT040 19/12 A3004 RMK SC3 SLP173=
CYQM;2005-07-16 01:00;METAR CYQM 160100Z 20004KT 15SM SCT040 17/12 A3005 RMK SC3 SLP175=
CYQM;2005-07-16 02:00;METAR CYQM 160200Z 22005KT 15SM FEW040 16/13 A3005 RMK SC2 SLP176=
CYQM;2005-07-16 03:00;METAR CYQM 160300Z 00000KT 15SM FEW040 16/12 A3005 RMK SC2 SLP178=
CYQM;2005-07-16 04:00;METAR CYQM 160400Z 20003KT 15SM FEW040 14/12 A3005 RMK SC2 SLP176=
CYQM;2005-07-16 05:00;METAR CYQM 160500Z 24005KT 15SM SKC 13/12 A3005 RMK SLP177=
CYQM;2005-07-16 06:00;METAR CYQM 160600Z 26004KT 15SM SKC 13/12 A3006 RMK SLP178=
CYQM;2005-07-16 09:00;METAR CYQM 160900Z 25007KT 15SM FEW060 12/11 A3008 RMK SC1 SLP189=
CYQM;2005-07-16 10:00;METAR CYQM 161000Z 24006KT 15SM FEW060 13/12 A3010 RMK SC1 SLP193=
CYQM;2005-07-16 11:00;METAR CYQM 161100Z 26004KT 15SM FEW080 FEW250 15/12 A3011 RMK AC1CI0 SLP197=
CYQM;2005-07-16 12:00;METAR CYQM 161200Z 32009KT 15SM FEW025 FEW080 FEW250 18/13 A3011 RMK CF1AC1CI1 SLP199=
CYQM;2005-07-16 13:00;METAR CYQM 161300Z 36009KT 15SM FEW030 FEW075 FEW260 19/13 A3012 RMK CU1AC1CI0 SLP200=
CYQM;2005-07-16 14:00;METAR CYQM 161400Z 36008KT 15SM SCT030 SCT260 19/13 A3013 RMK CU3CI0 SLP203=
CYQM;2005-07-16 15:00;METAR CYQM 161500Z 02016KT 15SM SCT030 SCT260 20/14 A3012 RMK CU3CI0 SLP202=
CYQM;2005-07-16 16:00;METAR CYQM 161600Z 35010G18KT 15SM SCT030 20/13 A3012 RMK CU3 SLP202=
CYQM;2005-07-16 17:00;METAR CYQM 161700Z 02009KT 15SM BKN035 20/15 A3012 RMK CU6 SLP202=
CYQM;2005-07-16 18:00;METAR CYQM 161800Z 03009KT 15SM SCT030 20/15 A3013 RMK CU4 SLP203=
CYQM;2005-07-16 19:00;METAR CYQM 161900Z 06011G16KT 15SM SCT030 SCT260 21/15 A3013 RMK CU3CI1 SLP205=
CYQM;2005-07-16 20:00;METAR CYQM 162000Z 04011KT 15SM FEW025 FEW260 20/14 A3014 RMK CU1CI0 SLP206=
CYQM;2005-07-16 21:00;METAR CYQM 162100Z 02011KT 15SM FEW025 FEW260 20/14 A3013 RMK CU1CI0 SLP204=
CYQM;2005-07-16 22:00;METAR CYQM 162200Z 04008KT 15SM FEW250 18/13 A3013 RMK CI1 SLP204=
CYQM;2005-07-16 23:00;METAR CYQM 162300Z 05004KT 15SM FEW250 18/13 A3013 RMK CI1 SLP205=
CYQM;2005-07-17 00:00;METAR CYQM 170000Z 08005KT 15SM SKC 17/12 A3013 RMK SLP204=
CYQM;2005-07-17 03:00;METAR CYQM 170300Z 12005KT 15SM FEW140 14/12 A3013 RMK AC1 SLP204=
CYQM;2005-07-17 04:00;METAR CYQM 170400Z 15005KT 15SM FEW120 14/12 A3012 RMK AC1 SLP201=
CYQM;2005-07-17 05:00;METAR CYQM 170500Z 12004KT 15SM FEW120 14/12 A3011 RMK AC1 SLP197=
CYQM;2005-07-17 06:00;METAR CYQM 170600Z 17004KT 15SM FEW120 13/12 A3010 RMK AC1 SLP195=
CYQM;2005-07-17 07:00;METAR CYQM 170700Z 10002KT 15SM SKC 14/12 A3010 RMK SLP194=
CYQM;2005-07-17 08:00;METAR CYQM 170800Z 11002KT 15SM FEW100 SCT250 13/12 A3010 RMK AC1CI2 SLP194=
CYQM;2005-07-17 09:00;METAR CYQM 170900Z 16004KT 15SM BKN100 BKN250 12/11 A3010 RMK AC6CI0 SLP193=
CYQM;2005-07-17 10:00;METAR CYQM 171000Z 20003KT 15SM FEW140 BKN260 13/12 A3010 RMK AC2CI2 SLP194=
CYQM;2005-07-17 11:00;METAR CYQM 171100Z 20003KT 15SM FEW140 BKN270 14/13 A3011 RMK AC1CI2 SLP198=
CYQM;2005-07-17 12:00;METAR CYQM 171200Z 22006KT 15SM FEW140 BKN270 18/14 A3011 RMK AC1CI4 SLP197=
CYQM;2005-07-17 13:00;METAR CYQM 171300Z 22008KT 15SM BKN270 21/17 A3009 RMK CI2 SLP192=
CYQM;2005-07-17 14:00;METAR CYQM 171400Z 20005KT 15SM BKN300 23/17 A3008 RMK CI3 CONTRAILS SLP189=
CYQM;2005-07-17 15:00;METAR CYQM 171500Z 18004KT 15SM FEW030 BKN300 26/18 A3008 RMK CU1CI2 CONTRAILS SLP185=
CYQM;2005-07-17 16:00;METAR CYQM 171600Z 22011KT 15SM FEW035 SCT280 28/17 A3006 RMK CU1CI1 SLP181=
CYQM;2005-07-17 17:00;METAR CYQM 171700Z 25009G16KT 15SM FEW040 FEW300 29/16 A3005 RMK CU2CI0 CONTRAILS SLP177=
CYQM;2005-07-17 18:00;METAR CYQM 171800Z 19009G15KT 15SM FEW040 FEW300 30/16 A3005 RMK CU2CI1 SLP176=
CYQM;2005-07-17 19:00;METAR CYQM 171900Z 21008G15KT 15SM FEW055 FEW300 30/15 A3004 RMK CU1CI0 SLP172=
CYQM;2005-07-17 20:00;METAR CYQM 172000Z 13007KT 15SM FEW050 FEW300 28/19 A3002 RMK CU1CI0 SLP166=
CYQM;2005-07-17 21:00;METAR CYQM 172100Z 12008KT 15SM FEW050 SCT300 26/19 A3001 RMK CU1CI2 SLP163=
CYQM;2005-07-17 22:00;METAR CYQM 172200Z 13007KT 12SM FEW035 SCT250 24/18 A3001 RMK CU2CI1 TCU ASOCTD SLP163=
CYQM;2005-07-17 23:00;METAR CYQM 172300Z 14009KT 10SM FEW035 BKN250 21/17 A3002 RMK CU1CI2 SLP166=
CYQM;2005-07-18 00:00;METAR CYQM 180000Z 15007KT 12SM FEW035 FEW140 BKN250 19/15 A3002 RMK CU1AC1CI2 SLP165=
CYQM;2005-07-18 03:00;METAR CYQM 180300Z 20008KT 12SM SCT220 18/14 A3004 RMK CI3 SLP173=
CYQM;2005-07-18 04:00;METAR CYQM 180400Z 23010KT 12SM FEW120 SCT220 20/14 A3004 RMK AC1CI2 SLP173=
CYQM;2005-07-18 05:00;METAR CYQM 180500Z 23010KT 15SM FEW220 20/12 A3004 RMK CI2 SLP173=
CYQM;2005-07-18 06:00;METAR CYQM 180600Z 23007KT 15SM FEW220 19/13 A3004 RMK CI2 SLP172=
CYQM;2005-07-18 07:00;METAR CYQM 180700Z 20005KT 15SM FEW220 17/13 A3002 RMK CI2 SLP166=
CYQM;2005-07-18 08:00;METAR CYQM 180800Z 21004KT 15SM BKN022 BKN260 17/13 A3002 RMK SC6CI1 SLP167=
CYQM;2005-07-18 10:00;METAR CYQM 181000Z 18007KT 12SM FEW012 BKN025 BKN260 17/14 A3003 RMK SF2SC4CI1 SLP168=
CYQM;2005-07-18 10:47;SPECI CYQM 181047Z 18007KT 12SM FEW008 BKN011 OVC025 18/ RMK SF1SF6SC1 VIS LWR W=
CYQM;2005-07-18 11:00;METAR CYQM 181100Z 18006KT 12SM FEW008 OVC011 18/15 A3003 RMK SF1SC6 SLP170=
CYQM;2005-07-18 12:00;METAR CYQM 181200Z 20007KT 12SM BKN011 21/18 A3003 RMK SC6 SLP170=
CYQM;2005-07-18 13:00;METAR CYQM 181300Z 21009KT 12SM BKN013 23/19 A3003 RMK SC6 SLP169=
CYQM;2005-07-18 14:00;METAR CYQM 181400Z 22017KT 12SM BKN013 25/20 A3002 RMK SC7 SLP167=
CYQM;2005-07-18 14:20;SPECI CYQM 181420Z 23016G22KT 15SM SCT015 BKN260 25/ RMK CU4CI1=
CYQM;2005-07-18 15:00;METAR CYQM 181500Z 23015G25KT 15SM FEW018 BKN260 26/21 A3000 RMK CU2CI2 SLP160=
CYQM;2005-07-18 16:00;METAR CYQM 181600Z 24018G24KT 15SM FEW025 BKN260 27/21 A3000 RMK CU2CI2 SLP158=
CYQM;2005-07-18 17:00;METAR CYQM 181700Z 23014G22KT 15SM BKN027 BKN260 27/21 A2999 RMK CU6CI1 SLP155=
CYQM;2005-07-18 18:00;METAR CYQM 181800Z 25013G20KT 15SM BKN027 BKN260 28/21 A2998 RMK CU6CI1 SLP153=
CYQM;2005-07-18 19:00;METAR CYQM 181900Z 23011G16KT 15SM BKN027 BKN260 28/21 A2996 RMK CU5CI1 SLP147=
CYQM;2005-07-18 20:00;METAR CYQM 182000Z 23011G18KT 15SM BKN027 BKN260 29/21 A2995 RMK CU5CI1 SLP141=
CYQM;2005-07-18 21:00;METAR CYQM 182100Z 23014KT 15SM BKN020 BKN030 BKN260 27/21 A2995 RMK CU5SC1CI1 SLP141=
CYQM;2005-07-18 22:00;METAR CYQM 182200Z 21014G20KT 15SM SCT025 BKN035 BKN260 26/20 A2995 RMK CU3SC2CI2 SLP141=
CYQM;2005-07-18 23:00;METAR CYQM 182300Z 21008G17KT 15SM FEW020 BKN030 BKN260 25/20 A2995 RMK CU2SC3CI1 SLP142=
CYQM;2005-07-19 00:00;METAR CYQM 190000Z 22007KT 15SM FEW010 BKN030 BKN260 25/20 A2995 RMK CF2SC3CI2 SLP141=
CYQM;2005-07-19 01:00;METAR CYQM 190100Z 20010G15KT 15SM FEW010 BKN260 24/20 A2995 RMK CF1CI2 SLP143=
CYQM;2005-07-19 02:00;METAR CYQM 190200Z 18007KT 15SM FEW260 22/19 A2994 RMK CI1 SLP139=
CYQM;2005-07-19 04:00;METAR CYQM 190400Z 15006KT 15SM BKN016 22/19 A2992 RMK SC5 SLP133=
CYQM;2005-07-19 06:00;METAR CYQM 190600Z 18006KT 15SM OVC016 22/20 A2990 RMK SC8 SLP125=
CYQM;2005-07-19 07:00;METAR CYQM 190700Z 18004KT 15SM OVC013 23/20 A2989 RMK SC8 SLP121=
CYQM;2005-07-19 08:00;METAR CYQM 190800Z 12004KT 15SM OVC013 20/18 A2988 RMK SC8 SLP119=
CYQM;2005-07-19 09:00;METAR CYQM 190900Z 15003KT 10SM FEW004 OVC011 20/18 A2988 RMK SF1SC7 SLP119=
CYQM;2005-07-19 09:22;SPECI CYQM 190922Z 15004KT 10SM BKN006 OVC010 20/ RMK SF6SC2=
CYQM;2005-07-19 10:00;METAR CYQM 191000Z 14005KT 10SM FEW003 BKN006 OVC010 20/18 A2988 RMK SF1SF6SC2 SLP119=
CYQM;2005-07-19 10:15;SPECI CYQM 191015Z 13004KT 12SM FEW003 OVC011 20/ RMK SF1SC7=
CYQM;2005-07-19 11:00;METAR CYQM 191100Z 19010KT 8SM OVC010 23/20 A2989 RMK SC8 SLP120=
CYQM;2005-07-19 12:00;METAR CYQM 191200Z 18006KT 7SM OVC010 23/21 A2989 RMK SC8 SLP120=
CYQM;2005-07-19 13:00;METAR CYQM 191300Z 21009KT 8SM BKN011 BKN140 BKN260 25/21 A2988 RMK SC5AC1CI1 SLP119=
CYQM;2005-07-19 13:18;SPECI CYQM 191318Z 20007KT 8SM OVC015 25/ RMK SC8=
CYQM;2005-07-19 14:00;METAR CYQM 191400Z 21009KT 10SM OVC015 26/22 A2988 RMK SC8 SLP117=
CYQM;2005-07-19 15:00;METAR CYQM 191500Z 25008KT 8SM OVC013 27/22 A2988 RMK SC8 SLP118=
CYQM;2005-07-19 16:00;METAR CYQM 191600Z 22008KT 7SM OVC014 25/22 A2986 RMK SC8 SLP113=
CYQM;2005-07-19 16:14;SPECI CYQM 191614Z 23007KT 5SM BR HZ SCT014 OVC018 25/ RMK SC4SC4=
CYQM;2005-07-19 17:00;METAR CYQM 191700Z 23007KT 6SM -SHRA BR HZ BKN015 BKN020 OVC140 25/22 A2984 RMK CU5SC1AC2 SLP105=
CYQM;2005-07-19 17:17;SPECI CYQM 191717Z 23007KT 7SM BKN017 OVC140 27/ RMK SC7AC1=
CYQM;2005-07-19 18:00;METAR CYQM 191800Z 23008KT 7SM BKN017 BKN140 27/23 A2983 RMK SC6AC1 SLP100=
CYQM;2005-07-19 19:00;METAR CYQM 191900Z 17008KT 8SM BKN020TCU BKN140 28/23 A2980 RMK TCU5AC1 SLP091=
CYQM;2005-07-19 20:00;METAR CYQM 192000Z 23012KT 7SM BKN025TCU 29/23 A2979 RMK TCU7 SLP089=
CYQM;2005-07-19 21:00;METAR CYQM 192100Z 20008KT 8SM BKN025TCU 28/22 A2978 RMK TCU6 SLP084=
CYQM;2005-07-19 22:00;METAR CYQM 192200Z 20010G16KT 10SM SCT025 28/22 A2977 RMK CU3 SLP082=
CYQM;2005-07-20 00:00;METAR CYQM 200000Z 20013KT 7SM FEW025 FEW140 SCT260 24/20 A2979 RMK SC1AC1CI2 TR AC SLP088=
CYQM;2005-07-20 01:00;METAR CYQM 200100Z 20013KT 10SM BKN015 BKN260 23/20 A2980 RMK SC5CI1 SLP092=
CYQM;2005-07-20 01:24;SPECI CYQM 200124Z 21010KT 10SM OVC012 23/ RMK SC8=
CYQM;2005-07-20 02:00;METAR CYQM 200200Z 21012KT 10SM BKN012 23/20 A2980 RMK SC7 SLP091=
CYQM;2005-07-20 03:00;METAR CYQM 200300Z 23015KT 10SM BKN012 22/20 A2981 RMK SC6 SLP094=
CYQM;2005-07-20 04:00;METAR CYQM 200400Z 22013KT 10SM SCT008 OVC012 22/20 A2979 RMK SF3SC5 SLP088=
CYQM;2005-07-20 04:43;SPECI CYQM 200443Z 23011KT 12SM BKN008 BKN012 22/ RMK SF5SC2=
CYQM;2005-07-20 05:00;METAR CYQM 200500Z 22007KT 12SM BKN008 BKN012 22/19 A2978 RMK SF5SC2 SLP085=
CYQM;2005-07-20 05:54;SPECI CYQM 200554Z 22008KT 12SM FEW008 SCT012 21/ RMK SF1SC2=
CYQM;2005-07-20 06:00;METAR CYQM 200600Z 22008KT 12SM FEW008 SCT012 21/19 A2978 RMK SF1SC2 SLP084=
CYQM;2005-07-20 07:00;METAR CYQM 200700Z 21005KT 10SM SCT012 BKN120 19/18 A2975 RMK SC3AC2 SLP074=
CYQM;2005-07-20 07:17;SPECI CYQM 200717Z 20006KT 10SM -SHRA FEW008 SCT012 BKN070 19/ RMK SF1SC3AC3=
CYQM;2005-07-20 07:47;SPECI CYQM 200747Z 22008KT 10SM FEW012 BKN070 20/ RMK SC1AC6=
CYQM;2005-07-20 08:00;METAR CYQM 200800Z 22009KT 10SM BKN070 20/18 A2978 RMK AC7 SLP085=
CYQM;2005-07-20 09:00;METAR CYQM 200900Z 23008KT 8SM FEW050 BKN075 20/18 A2978 RMK SC2AC3 SLP086=
CYQM;2005-07-20 10:00;METAR CYQM 201000Z 23007KT 8SM FEW050 BKN075 20/18 A2980 RMK SC2AC3 SLP091=
CYQM;2005-07-20 10:47;SPECI CYQM 201047Z 24011KT 8SM SCT008 BKN050 20/ RMK SF4SC3=
CYQM;2005-07-20 11:00;METAR CYQM 201100Z 23011KT 8SM SCT008 BKN050 21/19 A2981 RMK SF4SC3 SLP094=
CYQM;2005-07-20 12:00;METAR CYQM 201200Z 24010KT 8SM SCT008 BKN025 22/19 A2982 RMK SF4SC3 SLP099=
CYQM;2005-07-20 13:00;METAR CYQM 201300Z 25008KT 10SM FEW008 SCT025 24/20 A2981 RMK SF2CU2 SLP095=
CYQM;2005-07-20 14:00;METAR CYQM 201400Z 28004KT 12SM FEW025 SCT100 26/21 A2981 RMK CU1AC2 SLP093=
CYQM;2005-07-20 15:00;METAR CYQM 201500Z 28005KT 12SM FEW025 FEW100 28/20 A2980 RMK CU1AC2 SLP091=
CYQM;2005-07-20 17:00;METAR CYQM 201700Z 35007KT 15SM SCT044 30/18 A2979 RMK CU3 SLP088=
CYQM;2005-07-20 18:00;METAR CYQM 201800Z 04009KT 15SM SCT040 29/19 A2980 RMK CU3 SLP091=
CYQM;2005-07-20 19:00;METAR CYQM 201900Z 02011KT 15SM FEW040 FEW050 29/19 A2979 RMK CU2SC1 TCU ASOCTD SLP089=
CYQM;2005-07-20 20:00;METAR CYQM 202000Z 02012KT 15SM FEW035 FEW050 28/19 A2979 RMK CU2SC1 TCU ASOCTD SLP089=
CYQM;2005-07-20 21:00;METAR CYQM 202100Z 03007KT 15SM FEW025 BKN045 26/18 A2979 RMK CU1SC5=
CYQM;2005-07-20 22:00;METAR CYQM 202200Z 10002KT 15SM FEW025 BKN045 BKN100 26/18 A2981 RMK CU1SC4AC1 SLP094=
CYQM;2005-07-20 23:00;METAR CYQM 202300Z 07003KT 15SM FEW020 FEW040 SCT080 SCT270 26/18 A2981 RMK CU1SC2AC2CI1 SLP094=
CYQM;2005-07-21 00:00;METAR CYQM 210000Z 00000KT 15SM BKN040 BKN120 BKN270 25/18 A2982 RMK SC5AC1CI1 SLP097=
CYQM;2005-07-21 01:00;METAR CYQM 210100Z 00000KT 15SM BKN060 BKN270 23/19 A2984 RMK SC6CI1 SLP103=
CYQM;2005-07-21 02:00;METAR CYQM 210200Z 00000KT 15SM FEW020 BKN070 BKN270 22/19 A2984 RMK CU1AC5CI1 SLP104=
CYQM;2005-07-21 04:00;METAR CYQM 210400Z 29004KT 15SM BKN055 20/18 A2986 RMK SC6 SLP110=
CYQM;2005-07-21 05:00;METAR CYQM 210500Z 00000KT 15SM BKN060 21/18 A2984 RMK SC6 SLP106=
CYQM;2005-07-21 06:00;METAR CYQM 210600Z 35005KT 15SM FEW050 FEW100 FEW260 19/17 A2985 RMK SC2AC1CI1 SLP107=
CYQM;2005-07-21 07:00;METAR CYQM 210700Z 35007KT 15SM FEW240 19/17 A2985 RMK CI2 SLP107=
CYQM;2005-07-21 10:00;METAR CYQM 211000Z 30005KT 15SM FEW050 SCT270 17/13 A2988 RMK SC1CI1 SLP118=
CYQM;2005-07-21 11:00;METAR CYQM 211100Z 33006KT 15SM FEW050 FEW270 19/13 A2987 RMK SC1CI1 SLP117=
CYQM;2005-07-21 12:00;METAR CYQM 211200Z 34006KT 15SM FEW050 FEW270 20/14 A2988 RMK SC1CI1 SLP117=
CYQM;2005-07-21 13:00;METAR CYQM 211300Z 35004KT 15SM FEW050 BKN270 21/14 A2987 RMK SC1CI2 SLP114=
CYQM;2005-07-21 14:00;METAR CYQM 211400Z 28002KT 15SM BKN270 23/14 A2987 RMK CI2 SLP114=
CYQM;2005-07-21 15:00;METAR CYQM 211500Z 28003KT 15SM BKN270 24/14 A2986 RMK CI2 SLP113=
CYQM;2005-07-21 16:00;METAR CYQM 211600Z 26006KT 15SM BKN250 26/12 A2985 RMK CI3 SLP109=
CYQM;2005-07-21 17:00;METAR CYQM 211700Z 29004KT 15SM BKN250 27/11 A2984 RMK CI3 SLP104=
CYQM;2005-07-21 18:00;METAR CYQM 211800Z 26008KT 15SM BKN250 28/13 A2982 RMK CI2 SLP099=
CYQM;2005-07-21 19:00;METAR CYQM 211900Z 27003KT 15SM BKN250 28/12 A2982 RMK CI2 SLP097=
CYQM;2005-07-21 20:00;METAR CYQM 212000Z 05008KT 15SM FEW220 BKN280 27/15 A2981 RMK CC2CI1 SLP094=
CYQM;2005-07-21 21:00;METAR CYQM 212100Z 07006KT 15SM FEW180 BKN280 26/15 A2980 RMK AC2CI1 SLP091=
CYQM;2005-07-21 23:00;METAR CYQM 212300Z 13007KT 15SM BKN120 BKN180 BKN300 24/16 A2980 RMK AC5AC1CI1 SLP092=
CYQM;2005-07-22 00:00;METAR CYQM 220000Z 15006KT 15SM BKN120 BKN280 21/14 A2981 RMK AC5CI1 VIRGA SE SLP093=
CYQM;2005-07-22 01:00;METAR CYQM 220100Z 14007KT 15SM BKN120 20/14 A2981 RMK AC5 SLP096=
CYQM;2005-07-22 02:00;METAR CYQM 220200Z 17005KT 15SM BKN110 18/13 A2982 RMK AC6 SLP097=
CYQM;2005-07-22 03:00;METAR CYQM 220300Z 18006KT 15SM SCT120 BKN270 17/14 A2982 RMK AC4CI0 SLP097=
CYQM;2005-07-22 04:00;METAR CYQM 220400Z 18007KT 15SM FEW120 16/13 A2980 RMK AC2 SLP092=
CYQM;2005-07-22 05:00;METAR CYQM 220500Z 19006KT 15SM FEW120 FEW270 15/13 A2980 RMK AC1CI0 SLP092=
CYQM;2005-07-22 06:00;METAR CYQM 220600Z 20007KT 15SM SKC 15/13 A2981 RMK SLP094=
CYQM;2005-07-22 07:00;METAR CYQM 220700Z 20006KT 15SM SKC 15/13 A2979 RMK SLP089=
CYQM;2005-07-22 08:00;METAR CYQM 220800Z 19007KT 15SM FEW080 14/13 A2979 RMK AC1 SLP088=
CYQM;2005-07-22 09:00;METAR CYQM 220900Z 19008KT 15SM FEW100 14/13 A2980 RMK AC1 SLP090=
CYQM;2005-07-22 10:00;METAR CYQM 221000Z 18005KT 15SM FEW015 FEW100 15/13 A2981 RMK SC1AC1 SLP096=
CYQM;2005-07-22 11:00;METAR CYQM 221100Z 19005KT 15SM FEW260 17/15 A2981 RMK CI1 SLP095=
CYQM;2005-07-22 12:00;METAR CYQM 221200Z 20005KT 15SM FEW020 FEW260 20/15 A2981 RMK CU1CI2 SLP094=
CYQM;2005-07-22 13:00;METAR CYQM 221300Z 22008KT 15SM FEW260 23/17 A2981 RMK CI2 SLP096=
CYQM;2005-07-22 14:00;METAR CYQM 221400Z 23009KT 15SM FEW035 FEW260 26/17 A2981 RMK CU1CI2 SLP095=
CYQM;2005-07-22 15:00;METAR CYQM 221500Z 22007KT 15SM FEW045 FEW260 28/17 A2981 RMK CU1CI2 TCU ASOCTD NW SLP093=
CYQM;2005-07-22 16:00;METAR CYQM 221600Z 21011KT 15SM FEW050 FEW160 SCT260 29/16 A2979 RMK CU1AC1CI2 TCU ASOCTD NW TR AC SLP089=
CYQM;2005-07-22 17:00;METAR CYQM 221700Z 22010KT 15SM FEW050 BKN260 29/17 A2979 RMK CU2CI3 SLP088=
CYQM;2005-07-22 18:00;METAR CYQM 221800Z 23008KT 15SM SCT050 BKN260 30/17 A2978 RMK CU3CI2 SLP084=
CYQM;2005-07-22 19:00;METAR CYQM 221900Z 04013KT 15SM FEW025 SCT035TCU BKN260 26/18 A2978 RMK CF1TCU2CI2 SH W-N SLP085=
CYQM;2005-07-22 19:19;SPECI CYQM 221919Z 04009G15KT 15SM TS FEW025 SCT035TCU BKN260 25/ RMK CF1TCU2CI2 CB EMBD SH W-N=
CYQM;2005-07-22 19:41;SPECI CYQM 221941Z 29030G36KT 15SM -TSRA FEW010 BKN025CB BKN035TCU 21/ RMK SF1CB6TCU1 LTGCG VIS W-N 2=
CYQM;2005-07-22 20:00;METAR CYQM 222000Z 34023G36KT 1 1/2SM +TSRA FEW010 BKN025CB OVC035TCU 19/16 A2984 RMK SF1CB6TCU2 LTGCG VIS NW-NE 3 SLP104=
CYQM;2005-07-22 20:26;SPECI CYQM 222026Z 01012KT 8SM -SHRA FEW030CB BKN040TCU BKN120 OVC260 19/ RETSRA RMK CB2TCU3AC2CI1=
CYQM;2005-07-22 21:00;METAR CYQM 222100Z 07009KT 15SM -SHRA BKN040TCU BKN100 OVC260 19/17 A2982 RETSRA RMK TCU6AC1CI1 /R10/ SLP098=
CYQM;2005-07-22 21:35;SPECI CYQM 222135Z 02005KT 15SM FEW010 BKN050 BKN260 21/ RMK SF1SC6CI1 SHS NE-S TCU EMBD=
CYQM;2005-07-22 22:00;METAR CYQM 222200Z 35007KT 15SM FEW006 BKN050 BKN100 21/19 A2981 RMK SF1SC5AC2 SHS NE-SE TCU EMBD SLP096=
CYQM;2005-07-22 23:00;METAR CYQM 222300Z 02003KT 15SM FEW008 FEW050TCU SCT100 BKN260 21/19 A2982 RMK CF1TCU2AC1CI1 CB ASOCTD DIST NW SLP099=
CYQM;2005-07-23 00:00;METAR CYQM 230000Z 00000KT 15SM MIFG FEW010 FEW050CB FEW100 SCT260 20/19 A2982 RMK CF1CB1AC1CI1 CB SE-SW SLP099=
CYQM;2005-07-23 00:34;SPECI CYQM 230034Z 00000KT 12SM MIFG FEW007 FEW040CB FEW100 SCT260 19/ RMK SF1CB1AC1CI1 CB DIST S=
CYQM;2005-07-23 00:49;SPECI CYQM 230049Z 36003KT 12SM MIFG BKN006 BKN260 19/ RMK SF5CI1 VIS N-NE 11/2=
CYQM;2005-07-23 01:00;METAR CYQM 230100Z 00000KT 12SM MIFG OVC005 19/18 A2983 RMK SF6 CB EMBD OCNL LTNG DIST S SLP102=
CYQM;2005-07-23 01:28;SPECI CYQM 230128Z 36005KT 10SM BKN005 18/ RMK SF3=
CYQM;2005-07-23 02:00;METAR CYQM 230200Z 34002KT 12SM BKN006 BKN100 19/17 A2982 RMK SF3AC2 SLP099=
CYQM;2005-07-23 02:12;SPECI CYQM 230212Z 02003KT 12SM BKN005 18/ RMK SF5=
CYQM;2005-07-23 02:33;SPECI CYQM 230233Z 05004KT 10SM OVC003 19/ RMK ST8=
CYQM;2005-07-23 02:46;SPECI CYQM 230246Z 05004KT 10SM OVC002 19/ RMK ST8=
CYQM;2005-07-23 03:00;METAR CYQM 230300Z 04003KT 10SM OVC002 19/18 A2981 RMK SF8 SLP096=
CYQM;2005-07-23 03:19;SPECI CYQM 230319Z 03004KT 8SM SCT002 OVC005 19/ RMK SF3SF5=
CYQM;2005-07-23 03:40;SPECI CYQM 230340Z 01005KT 1 1/4SM BR BKN001 OVC003 19/ RMK SF6SF2 VIS S-W 5=
CYQM;2005-07-23 03:46;SPECI CYQM 230346Z 03004KT 3/8SM R06/3000VP6000FT/D FG VV003 19/ RMK FG8=
CYQM;2005-07-23 04:00;METAR CYQM 230400Z 07002KT 3/4SM R06/3000V5500FT/U BR VV005 19/18 A2981 RMK FG8 SLP096=
CYQM;2005-07-23 04:03;SPECI CYQM 230403Z 07002KT 1 1/4SM R06/3500VP6000FT/U BR SCT003 SCT120 BKN260 19/ RMK SF2AC2CI1=
CYQM;2005-07-23 04:23;SPECI CYQM 230423Z 03003KT 4SM BR FEW003 FEW120 BKN260 18/ RMK SF1AC2CI3 VIS SW-W 2=
CYQM;2005-07-23 05:00;METAR CYQM 230500Z 07003KT 10SM FEW003 FEW120 OVC260 18/17 A2980 RMK SF1AC1CI6 SLP091=
CYQM;2005-07-23 05:30;SPECI CYQM 230530Z 09005KT 2SM BR BKN001 OVC260 18/ RMK SF5CI2 VIS LWR E=
CYQM;2005-07-23 05:35;SPECI CYQM 230535Z 09005KT 1/2SM R06/P6000FT/N FG OVC260 18/ RMK FG5CI2=
CYQM;2005-07-23 06:25;SPECI CYQM 230625Z 01003KT 1/4SM R06/3000FT/U FG VV003 18/ RMK FG8=
CYQM;2005-07-23 06:32;SPECI CYQM 230632Z 02003KT 1/8SM R06/2000V3500FT/D FG VV001 18/ RMK FG8=
CYQM;2005-07-23 07:00;METAR CYQM 230700Z 01004KT 1/8SM R06/1600V2000FT/N FG VV001 18/17 A2978 RMK FG8 SLP084=
CYQM;2005-07-23 07:11;SPECI CYQM 230711Z 36004KT 1/8SM R06/1600FT/N TS FG VV001 17/ RMK FG8 OCNLLTNG N CB EMBD=
CYQM;2005-07-23 07:25;SPECI CYQM 230725Z 31005KT 1/8SM R06/1600FT/N -TSRA FG VV001 17/ RMK FG8 OCNL LTNG CB EMBD=
CYQM;2005-07-23 07:37;SPECI CYQM 230737Z 31013KT 3/8SM R06/1600V4000FT/U -TSRA FG VV002 17/ RMK FG8 LTGIGCG CB EMBD=
CYQM;2005-07-23 07:43;SPECI CYQM 230743Z 31012KT 3/4SM R06/2800VP6000FT/U -TSRA BR OVC002 18/ RMK SF8 LTGIC CB EMBD=
CYQM;2005-07-23 07:50;SPECI CYQM 230750Z 29011G16KT 3SM -TSRA BR OVC002 17/ RMK SF8 LTGICCC CB EMBD=
CYQM;2005-07-23 08:00;METAR CYQM 230800Z 28010G16KT 2SM +TSRA BR OVC003 17/17 A2981 RMK SF8 LTGICCC CB EMBD PRESRR SLP095=
CYQM;2005-07-23 08:46;SPECI CYQM 230846Z 34014G20KT 6SM -TSRA BR SCT003 BKN006 OVC020 17/ RERA RMK SF3SF3SC2 CB EMBD=
CYQM;2005-07-23 09:20;SPECI CYQM 230920Z 01013KT 8SM -SHRA FEW003 BKN006 OVC012 17/ RETSRA RMK SF2SF4SC2=
CYQM;2005-07-23 10:00;METAR CYQM 231000Z 03010KT 10SM -SHRA FEW003 BKN006 BKN012 OVC080 17/15 A2980 RETSRA RMK SF1SF4SC2AC1 SLP092=
CYQM;2005-07-23 10:39;SPECI CYQM 231039Z 02015KT 15SM FEW003 SCT006 BKN015 BKN080 17/ RMK SF1SF3SC2AC2=
CYQM;2005-07-23 11:00;METAR CYQM 231100Z 02011KT 15SM FEW003 SCT006 BKN015 BKN080 16/14 A2980 RMK SF1SF2SC2AC2 SLP091=
CYQM;2005-07-23 12:00;METAR CYQM 231200Z 36010KT 15SM SCT006 BKN015 OVC030 17/15 A2981 RMK SF3SC2SC3 SLP097=
CYQM;2005-07-23 13:00;METAR CYQM 231300Z 35009KT 15SM FEW006 SCT015 OVC030 17/15 A2983 RMK SF2SC2SC4 SLP101=
CYQM;2005-07-23 13:15;SPECI CYQM 231315Z 36010KT 15SM -SHRA FEW006 SCT015 OVC030 17/ RMK SF2SC2SC4=
CYQM;2005-07-23 14:00;METAR CYQM 231400Z 35006KT 12SM -SHRA SCT006 BKN015 OVC030 17/16 A2984 RMK SF3SC3SC2 SLP104=
CYQM;2005-07-23 14:52;SPECI CYQM 231452Z 36007KT 12SM SCT006 BKN015 OVC030 17/ RMK SF3SC3SC2=
CYQM;2005-07-23 15:00;METAR CYQM 231500Z 01008KT 12SM SCT006 BKN015 BKN030 OVC100 17/16 A2984 RMK SF3SC2SC2AC1 SLP104=
CYQM;2005-07-23 16:00;METAR CYQM 231600Z 02011G16KT 15SM VCSH FEW006 BKN015 BKN100 19/15 A2983 RMK SF1SC6AC1 SLP101=
CYQM;2005-07-23 16:09;SPECI CYQM 231609Z 02012KT 15SM -SHRA FEW006 BKN015 BKN100 18/ RMK SF1SC6AC1=
CYQM;2005-07-23 16:32;SPECI CYQM 231632Z 33007KT 15SM VCSH FEW008 SCT012 BKN030 BKN100 18/ RMK CF1CU3SC1AC2=
CYQM;2005-07-23 18:00;METAR CYQM 231800Z 31004KT 15SM BKN020 BKN030 BKN120 20/15 A2981 RMK CU5SC1AC2 SLP096=
CYQM;2005-07-23 19:00;METAR CYQM 231900Z 36005KT 15SM BKN020 BKN030 BKN120 21/16 A2981 RMK CU5SC1AC1 SLP094=
CYQM;2005-07-23 20:00;METAR CYQM 232000Z 36005KT 15SM SCT020 SCT030 BKN120 21/16 A2980 RMK CU3SC1AC1 TCU ASOCTD SLP093=
CYQM;2005-07-23 21:00;METAR CYQM 232100Z 05005KT 15SM FEW012 FEW030TCU SCT120 SCT260 21/16 A2979 RMK CF1TCU2AC1CI1 CB ASOCTD SW-N SHS W SLP090=
CYQM;2005-07-23 22:00;METAR CYQM 232200Z 04007KT 15SM BKN030TCU BKN100 20/15 A2980 RMK TCU5AC1 CB ASOCTD SHS SW-NW SLP093=
CYQM;2005-07-23 22:16;SPECI CYQM 232216Z 05007KT 15SM TS BKN030CB BKN100 19/ RMK CB5AC2 SHS S-N=
CYQM;2005-07-23 22:23;SPECI CYQM 232223Z 07005KT 15SM -TSRA BKN030CB BKN100 19/ RMK CB6AC2 VIS NW 7=
CYQM;2005-07-23 22:40;SPECI CYQM 232240Z 32022G30KT 2SM TSRA FEW010 BKN025CB BKN100 17/ RMK SF1CB6AC1 LTGICCCCG VIS E 15=
CYQM;2005-07-23 22:49;SPECI CYQM 232249Z 34010G28KT 5SM R06/3500VP6000FT/U +TSRA FEW010 BKN025CB OVC100 16/ RMK SF1CB6AC1 LTGICCCCG=
CYQM;2005-07-23 23:00;METAR CYQM 232300Z 00000KT 10SM TSRA FEW010 SCT025CB BKN050 OVC100 16/14 A2984 RERA RMK SF1CB3SC3AC1 SLP106=
CYQM;2005-07-23 23:29;SPECI CYQM 232329Z 11004KT 15SM -SHRA SCT025CB BKN040 16/ RETSRA RMK CB3SC4 VIS LWR SE=
CYQM;2005-07-23 23:45;SPECI CYQM 232345Z 17003KT 15SM FEW015 SCT030CB BKN040 BKN100 16/ RETSRA RMK SF1CB3SC3AC1 SHS NE-S OCNL LTNG DIST SE=
CYQM;2005-07-24 00:00;METAR CYQM 240000Z 19003KT 15SM FEW015 FEW030CB BKN040 BKN100 16/14 A2981 RETSRA RMK SF1CB2SC4AC1 SHS NE-SE OCNL LTNG DIST SE SLP096=
CYQM;2005-07-24 01:00;METAR CYQM 240100Z 27005KT 15SM FEW030CB SCT040 BKN120 14/13 A2982 RMK CB2SC2AC2 OCNL LTNG DIST W SHS NE-SE AND SW SLP100=
CYQM;2005-07-24 02:00;METAR CYQM 240200Z 27005KT 15SM SCT050 13/12 A2983 RMK SC3 SLP102=
CYQM;2005-07-24 03:00;METAR CYQM 240300Z 26005KT 15SM SCT120 13/12 A2982 RMK AC4 SLP100=
CYQM;2005-07-24 04:00;METAR CYQM 240400Z 22004KT 15SM FEW120 12/12 A2982 RMK AC2 SLP098=
CYQM;2005-07-24 06:00;METAR CYQM 240600Z 25005KT 15SM FEW100 12/11 A2981 RMK AC1 SLP094=
CYQM;2005-07-24 06:42;SPECI CYQM 240642Z 22005KT 15SM PRFG FEW100 11/ RMK AC1 VIS W 1/2=
CYQM;2005-07-24 09:00;METAR CYQM 240900Z 23007KT 15SM FEW050 12/11 A2981 RMK SC2 TCU EMBD W SLP097=
CYQM;2005-07-24 09:37;SPECI CYQM 240937Z 22006KT 15SM FEW050 FEW120 12/ RMK SC2AC1 CB EMBD W=
CYQM;2005-07-24 10:00;METAR CYQM 241000Z 23006KT 15SM FEW030 FEW080 FEW260 12/11 A2982 RMK SC2AC1CI0 CB EMBD W DSIPTG ACC ASOCTD S SLP098=
CYQM;2005-07-24 11:00;METAR CYQM 241100Z 24007KT 15SM FEW012 FEW030 FEW120 FEW260 13/12 A2983 RMK CU1SC2AC1CI0 CB EMBD SW SLP103=
CYQM;2005-07-24 12:00;METAR CYQM 241200Z 27006KT 15SM FEW012 FEW030 FEW120 FEW260 16/12 A2984 RMK CU1SC1AC1CI0 CB EMBD S SLP105=
CYQM;2005-07-24 13:00;METAR CYQM 241300Z 29009KT 15SM FEW015 FEW030 FEW120 17/13 A2983 RMK CU1SC1AC1 SLP101=
CYQM;2005-07-24 14:00;METAR CYQM 241400Z 32012G17KT 15SM FEW025 FEW035 FEW120 19/13 A2983 RMK CU2SC1AC1 SLP101=
CYQM;2005-07-24 15:00;METAR CYQM 241500Z 33010G15KT 15SM SCT025 SCT035 20/13 A2982 RMK CU3SC1 SLP100=
CYQM;2005-07-24 16:00;METAR CYQM 241600Z 33010KT 15SM SCT030TCU SCT040 21/14 A2982 RMK TCU4SC1 SLP100=
CYQM;2005-07-24 16:50;SPECI CYQM 241650Z 32015G21KT 15SM -SHRA SCT030TCU SCT040 20/ RMK TCU4SC1=
CYQM;2005-07-24 17:00;METAR CYQM 241700Z 29004G24KT 15SM -SHRA SCT030TCU SCT040 17/11 A2983 RERA RMK TCU4SC1 SLP102=
CYQM;2005-07-24 17:18;SPECI CYQM 241718Z 04006KT 15SM BKN020TCU BKN040 19/ RMK TCU5SC1=
CYQM;2005-07-24 18:00;METAR CYQM 241800Z 04006KT 15SM BKN020TCU 20/14 A2982 RMK TCU5 SH N-SE SLP100=
CYQM;2005-07-24 19:00;METAR CYQM 241900Z 03010KT 15SM BKN025 20/13 A2982 RMK CU5 TCU ASOCTD E SLP100=
CYQM;2005-07-24 20:00;METAR CYQM 242000Z 05006KT 15SM SCT025 20/13 A2982 RMK CU3 TCU ASOCTD E-SE SLP100=
CYQM;2005-07-24 21:00;METAR CYQM 242100Z 05005KT 15SM BKN035 21/13 A2982 RMK CU5 TCU ASOCTD SLP098=
CYQM;2005-07-24 22:00;METAR CYQM 242200Z 08005KT 15SM FEW040 21/12 A2982 RMK CU2 SLP098=
CYQM;2005-07-24 23:00;METAR CYQM 242300Z 09003KT 15SM BKN040 20/12 A2983 RMK SC6 SLP102=
CYQM;2005-07-25 00:00;METAR CYQM 250000Z 09002KT 15SM BKN040 19/11 A2984 RMK SC6 SLP104=
CYQM;2005-07-25 01:00;METAR CYQM 250100Z 22003KT 15SM BKN040 BKN260 17/11 A2985 RMK SC5CI1 SLP108=
CYQM;2005-07-25 03:00;METAR CYQM 250300Z 22006KT 15SM FEW080 14/12 A2985 RMK AC2 SLP109=
CYQM;2005-07-25 04:00;METAR CYQM 250400Z 23007KT 15SM FEW080 13/11 A2985 RMK AC1 SLP108=
CYQM;2005-07-25 05:00;METAR CYQM 250500Z 21008KT 15SM FEW080 12/09 A2984 RMK AC1 SLP106=
CYQM;2005-07-25 06:00;METAR CYQM 250600Z 21009KT 15SM FEW080 11/08 A2984 RMK AC1 SLP105=
CYQM;2005-07-25 07:00;METAR CYQM 250700Z 22009KT 15SM FEW080 FEW260 10/07 A2984 RMK AC1CI1 SLP105=
CYQM;2005-07-25 08:00;METAR CYQM 250800Z 22007KT 15SM FEW080 FEW260 10/07 A2984 RMK AC1CI1 SLP104=
CYQM;2005-07-25 09:00;METAR CYQM 250900Z 23007KT 15SM FEW060 FEW250 09/07 A2984 RMK SC1CI0 SLP105=
CYQM;2005-07-25 10:00;METAR CYQM 251000Z 22007KT 15SM FEW085 BKN260 10/08 A2984 RMK AC1CI3 SLP106=
CYQM;2005-07-25 11:00;METAR CYQM 251100Z 21006KT 15SM BKN095 BKN240 13/09 A2983 RMK AC6CI0 SLP103=
CYQM;2005-07-25 12:00;METAR CYQM 251200Z 22003KT 15SM BKN085 BKN140 BKN240 14/10 A2983 RMK AC5AC2CI0 SLP102=
CYQM;2005-07-25 13:00;METAR CYQM 251300Z 20006KT 15SM BKN070 OVC140 17/12 A2982 RMK AC6AC2 SLP099=
CYQM;2005-07-25 14:00;METAR CYQM 251400Z 21005KT 15SM BKN060 BKN140 OVC250 18/13 A2981 RMK SC6AC1CI0 SLP097=
CYQM;2005-07-25 14:31;SPECI CYQM 251431Z 17005KT 15SM -SHRA SCT040 BKN070 OVC240 18/ RMK SC4AC3CI0=
CYQM;2005-07-25 15:00;METAR CYQM 251500Z 16005KT 15SM BKN060 BKN140 OVC240 19/14 A2981 RMK SC6AC2CI0 SLP094=
CYQM;2005-07-25 15:40;SPECI CYQM 251540Z 14005KT 15SM -SHRA BKN040 OVC130 19/ RMK SC6AC2=
CYQM;2005-07-25 16:00;METAR CYQM 251600Z 15008KT 15SM BKN050 OVC140 19/14 A2978 RMK SC6AC2 SLP085=
CYQM;2005-07-25 16:25;SPECI CYQM 251625Z 19009KT 15SM -SHRA BKN045 OVC140 19/ RMK SC6AC2=
CYQM;2005-07-25 17:00;METAR CYQM 251700Z 15005KT 15SM BKN040 OVC150 18/14 A2976 RMK SC7AC1 SLP080=
CYQM;2005-07-25 17:14;SPECI CYQM 251714Z 14006KT 15SM -SHRA BKN040 OVC150 18/ RMK SC6AC2=
CYQM;2005-07-25 18:00;METAR CYQM 251800Z 14008KT 5SM -SHRA BR FEW020 BKN040 OVC120 16/14 A2975 RMK CF1SC7AC1 SLP075=
CYQM;2005-07-25 18:13;SPECI CYQM 251813Z 12006KT 2SM -SHRA BR BKN035 OVC120 15/ RMK SC7AC1=
CYQM;2005-07-25 19:00;METAR CYQM 251900Z 14008KT 12SM -SHRA FEW008 SCT020 BKN080 BKN250 16/14 A2972 RERA RMK CF1SC4AC2CI0 SLP064=
CYQM;2005-07-25 19:25;SPECI CYQM 251925Z 13009KT 15SM FEW005 OVC013 16/ RMK CF2SC6=
CYQM;2005-07-25 19:35;SPECI CYQM 251935Z 14007KT 1 1/2SM -SHRA BR FEW005 OVC015 16/ RMK CF2SC6=
CYQM;2005-07-25 20:15;SPECI CYQM 252015Z 15012KT 4SM -SHRA BR BKN007 BKN020 OVC080 15/ RMK SC5SC2AC1=
CYQM;2005-07-25 20:42;SPECI CYQM 252042Z 14009KT 7SM SCT007 BKN040 OVC080 15/ RMK SF3SC3AC2=
CYQM;2005-07-25 21:00;METAR CYQM 252100Z 12007KT 7SM FEW007 SCT013 OVC050 15/14 A2967 RMK SF2SC2SC4 SLP047=
CYQM;2005-07-25 21:21;SPECI CYQM 252121Z 11009KT 5SM BR FEW007 BKN013 OVC050 15/ RMK SF2SC4SC2=
CYQM;2005-07-25 21:29;SPECI CYQM 252129Z 12007KT 5SM -SHRA BR SCT007 BKN013 OVC050 15/ RMK SF3SC3SC2=
CYQM;2005-07-25 21:49;SPECI CYQM 252149Z 14007KT 5SM -DZ BR BKN006 OVC013 15/ RMK SF6SC2=
CYQM;2005-07-25 21:53;SPECI CYQM 252153Z 14006KT 2SM -DZ BR BKN006 OVC013 15/ RMK SF6SC2=
CYQM;2005-07-25 22:00;METAR CYQM 252200Z 15003KT 2SM -DZ BR BKN006 OVC013 15/14 A2965 RMK SF6SC2 SLP042=
CYQM;2005-07-25 22:47;SPECI CYQM 252247Z 17005KT 4SM -DZ BR SCT006 BKN013 OVC030 15/ RMK SF4SC3SC1=
CYQM;2005-07-25 23:00;METAR CYQM 252300Z 17005KT 5SM -DZ BR SCT006 BKN013 OVC030 15/14 A2963 RMK SF4SC3SC1 SLP036=
CYQM;2005-07-25 23:09;SPECI CYQM 252309Z 18004KT 4SM -DZ BR BKN006 OVC015 15/ RMK SF6SC2=
CYQM;2005-07-26 00:00;METAR CYQM 260000Z 19005KT 4SM -DZ BR BKN006 OVC020 15/15 A2965 RMK SF5SC3 SLP042=
CYQM;2005-07-26 00:18;SPECI CYQM 260018Z 22005KT 2 1/2SM -DZ BR BKN006 OVC020 15/ RMK SF6SC2=
CYQM;2005-07-26 00:26;SPECI CYQM 260026Z 23006KT 2 1/2SM -DZ BR BKN003 OVC007 15/ RMK SF6SF2=
CYQM;2005-07-26 00:47;SPECI CYQM 260047Z 24010KT 5SM -DZ BR BKN002 OVC007 16/ RMK SF6SF2=
CYQM;2005-07-26 01:00;METAR CYQM 260100Z 24009KT 5SM -DZ BR BKN002 OVC007 16/15 A2967 RMK SF6SF2 SLP048=
CYQM;2005-07-26 01:09;SPECI CYQM 260109Z 25012KT 8SM BKN004 OVC008 16/ RMK SF6SF2=
CYQM;2005-07-26 02:54;SPECI CYQM 260254Z 27010G16KT 10SM SCT004 OVC014 16/ RMK SF3SC5=
CYQM;2005-07-26 03:00;METAR CYQM 260300Z 27009KT 10SM SCT004 OVC014 16/15 A2970 RMK SF3SC5 SLP058=
CYQM;2005-07-26 03:28;SPECI CYQM 260328Z 27008KT 12SM SCT005 OVC016 16/ RMK SF3SC5=
CYQM;2005-07-26 03:49;SPECI CYQM 260349Z 27007KT 12SM FEW008 BKN013 OVC025 16/ RMK SF2SC5SC2=
CYQM;2005-07-26 04:00;METAR CYQM 260400Z 27010KT 12SM FEW008 OVC017 16/14 A2972 RMK SF2SC6 SLP064=
CYQM;2005-07-26 05:00;METAR CYQM 260500Z 27008KT 12SM FEW008 OVC017 16/14 A2972 RMK SF2SC6 SLP065=
CYQM;2005-07-26 06:00;METAR CYQM 260600Z 24008KT 15SM SCT017 15/14 A2972 RMK SC3 SLP065=
CYQM;2005-07-26 07:00;METAR CYQM 260700Z 23007KT 15SM BKN025 15/14 A2973 RMK SC6 SLP067=
CYQM;2005-07-26 08:00;METAR CYQM 260800Z 22009KT 15SM BKN025 15/14 A2973 RMK SC6 SLP068=
CYQM;2005-07-26 09:00;METAR CYQM 260900Z 22007KT 10SM BKN020 BKN100 15/14 A2973 RMK SC7AC1 SLP069=
CYQM;2005-07-26 10:00;METAR CYQM 261000Z 22005KT 8SM FEW020 FEW250 15/14 A2975 RMK SC1CI1 SLP074=
CYQM;2005-07-26 10:35;SPECI CYQM 261035Z 23007KT 10SM BKN012 16/ RMK SC6=
CYQM;2005-07-26 11:00;METAR CYQM 261100Z 23009KT 10SM BKN012 BKN250 17/15 A2976 RMK SC6CI1 SLP079=
CYQM;2005-07-26 11:07;SPECI CYQM 261107Z 23011KT 10SM BKN009 BKN270 17/ RMK SC6CI1=
CYQM;2005-07-26 13:00;METAR CYQM 261300Z 25011KT 10SM BKN008 BKN250 19/17 A2977 RMK SC6CI1 SLP081=
CYQM;2005-07-26 13:19;SPECI CYQM 261319Z 23009KT 12SM FEW008 BKN270 21/ RMK SC2CI2=
CYQM;2005-07-26 14:00;METAR CYQM 261400Z 24009KT 15SM SCT012 BKN270 21/18 A2978 RMK CU4CI1 CC ASOCTD SLP084=
CYQM;2005-07-26 15:00;METAR CYQM 261500Z 21009KT 15SM FEW015 BKN080 OVC270 23/18 A2978 RMK CU1AC5CI1 CONTRAILS SLP083=
CYQM;2005-07-26 16:00;METAR CYQM 261600Z 20006KT 15SM FEW020 OVC250 25/19 A2976 RMK CU2CI5 CONTRAILS SLP077=
CYQM;2005-07-26 17:00;METAR CYQM 261700Z 21013G18KT 15SM BKN025 BKN250 27/18 A2975 RMK CU6CI1 SLP076=
CYQM;2005-07-26 18:00;METAR CYQM 261800Z 24016G21KT 15SM BKN040 OVC260 28/18 A2974 RMK CU5CI2 SLP072=
CYQM;2005-07-26 19:00;METAR CYQM 261900Z 23019G25KT 15SM FEW040 OVC300 29/17 A2974 RMK CU2CI3 SLP072=
CYQM;2005-07-26 20:00;METAR CYQM 262000Z 25014G19KT 15SM FEW040 FEW100 OVC220 27/16 A2975 RMK CU1AC1CI6 SLP075=
CYQM;2005-07-26 21:00;METAR CYQM 262100Z 25007KT 15SM FEW100 OVC220 27/16 A2976 RMK AC1CI6 SLP077=
CYQM;2005-07-26 22:00;METAR CYQM 262200Z 21003KT 15SM FEW035 FEW110 BKN220 26/17 A2977 RMK CU1AC2CI5 SLP080=
CYQM;2005-07-26 23:00;METAR CYQM 262300Z 14005KT 15SM FEW020 SCT080 OVC200 22/18 A2976 RMK CU1AC2CI5 SLP078=
CYQM;2005-07-27 00:00;METAR CYQM 270000Z 14008KT 8SM FEW020 SCT080 OVC200 20/17 A2976 RMK CU1AC2CI5 SLP080=
CYQM;2005-07-27 01:00;METAR CYQM 270100Z 14005KT 8SM SCT035 SCT100 BKN200 18/16 A2977 RMK SC3AC1CI2 SLP081=
CYQM;2005-07-27 02:00;METAR CYQM 270200Z 15006KT 8SM FEW035 FEW100 BKN200 19/16 A2976 RMK SC2AC1CI5 SLP079=
CYQM;2005-07-27 03:00;METAR CYQM 270300Z 16007KT 12SM FEW100 OVC200 19/16 A2975 RMK AC2CI6 SLP076=
CYQM;2005-07-27 04:00;METAR CYQM 270400Z 14007KT 12SM FEW100 OVC200 18/15 A2975 RMK AC2CI6 SLP073=
CYQM;2005-07-27 06:00;METAR CYQM 270600Z 16007KT 12SM FEW050 BKN075 21/15 A2971 RMK SC2AC5 SLP062=
CYQM;2005-07-27 07:00;METAR CYQM 270700Z 18008KT 12SM FEW050 BKN075 21/15 A2970 RMK SC2AC5 SLP057=
CYQM;2005-07-27 08:00;METAR CYQM 270800Z 17009KT 12SM FEW050 BKN075 21/15 A2968 RMK SC2AC5 SLP050=
CYQM;2005-07-27 09:00;METAR CYQM 270900Z 16007KT 15SM FEW070 BKN100 OVC130 20/15 A2966 RMK AC2AC6AC1 SLP045=
CYQM;2005-07-27 10:00;METAR CYQM 271000Z 16006KT 12SM FEW070 BKN100 BKN130 19/15 A2966 RMK AC1AC5AC2 SLP044=
CYQM;2005-07-27 11:00;METAR CYQM 271100Z 18008KT 8SM FEW090 OVC120 21/17 A2965 RMK AC2AC6 SLP042=
CYQM;2005-07-27 12:00;METAR CYQM 271200Z 19007KT 8SM BKN020 OVC100 21/18 A2965 RMK SC6AC2 SLP040=
CYQM;2005-07-27 12:25;SPECI CYQM 271225Z 22011G18KT 6SM HZ BKN010 OVC020 22/ RMK SC7SC1=
CYQM;2005-07-27 13:00;METAR CYQM 271300Z 21014G20KT 5SM HZ OVC010 22/19 A2964 RMK SC8 OCNL -SHRA SLP039=
CYQM;2005-07-27 13:10;SPECI CYQM 271310Z 20011G19KT 5SM HZ BKN010 OVC020 22/ RMK SC7SC1=
CYQM;2005-07-27 13:41;SPECI CYQM 271341Z 22013G19KT 5SM -SHRA HZ BKN010 OVC020 22/ RMK SC6SC2=
CYQM;2005-07-27 13:44;SPECI CYQM 271344Z 21011G19KT 2SM +SHRA HZ BR BKN010 OVC020 21/ RMK SC6SC2 TCU EMBD=
CYQM;2005-07-27 14:00;METAR CYQM 271400Z 20009KT 5SM -SHRA HZ BR SCT010 BKN020 OVC100 21/19 A2964 RERA RMK SC3SC2AC2 TCU EMBD VIS LWR E SLP039=
CYQM;2005-07-27 14:09;SPECI CYQM 271409Z 22009KT 5SM BR FEW006 SCT010 BKN020 OVC120 21/ RMK SF2SC2SC2AC2 OCNL -SHRA=
CYQM;2005-07-27 14:18;SPECI CYQM 271418Z 19010KT 5SM BR BKN008 OVC020 21/ RMK SF6SC2=
CYQM;2005-07-27 15:00;METAR CYQM 271500Z 21014KT 7SM FEW006 OVC009 21/19 A2966 RMK SF1SF6 SLP044=
CYQM;2005-07-27 15:36;SPECI CYQM 271536Z 20011G16KT 8SM BKN010 23/ RMK CF7=
CYQM;2005-07-27 16:00;METAR CYQM 271600Z 20011KT 10SM SCT010 BKN120 BKN260 23/19 A2965 RMK CF4AC1CI1 SLP040=
CYQM;2005-07-27 17:00;METAR CYQM 271700Z 21011KT 10SM FEW017 SCT120 BKN260 25/20 A2964 RMK CF2AC2CI1 SLP039=
CYQM;2005-07-27 18:00;METAR CYQM 271800Z 24013G18KT 10SM SCT025 BKN120 BKN260 27/21 A2965 RMK CU3AC2CI1 SLP041=
CYQM;2005-07-27 19:00;METAR CYQM 271900Z 19009G16KT 10SM FEW025 FEW120 SCT260 26/20 A2965 RMK CU1AC1CI1 SLP040=
CYQM;2005-07-27 20:00;METAR CYQM 272000Z 21007KT 10SM FEW025 BKN075 BKN260 26/20 A2965 RMK CU1AC6CI1 SLP042=
CYQM;2005-07-27 21:00;METAR CYQM 272100Z 16005KT 10SM SCT025 BKN080 BKN120 OVC260 24/20 A2967 RMK SC4AC2AC1CI1 SH SW SH NW-NE SLP046=
CYQM;2005-07-27 22:00;METAR CYQM 272200Z 14007KT 10SM BKN025 OVC080 22/18 A2967 RMK SC6AC2 SH S-NE SLP047=
CYQM;2005-07-27 23:00;METAR CYQM 272300Z 11004KT 10SM BKN020 OVC080 20/18 A2969 RMK SC6AC2 SLP054=
CYQM;2005-07-28 00:00;METAR CYQM 280000Z 15005KT 10SM BKN020 OVC080 20/18 A2970 RMK SC7AC1 SLP057=
CYQM;2005-07-28 00:22;SPECI CYQM 280022Z 15004KT 10SM -SHRA OVC020 20/ RMK SC8=
CYQM;2005-07-28 00:50;SPECI CYQM 280050Z 00000KT 10SM OVC025 20/ RMK SC8=
CYQM;2005-07-28 00:54;SPECI CYQM 280054Z 11002KT 10SM -SHRA OVC025 20/ RMK SC8=
CYQM;2005-07-28 01:00;METAR CYQM 280100Z 11005KT 8SM -SHRA OVC025 20/18 A2971 RMK SC8 SLP061=
CYQM;2005-07-28 01:06;SPECI CYQM 280106Z 09005KT 8SM -TSRA OVC025 19/ RMK SC8 CB EMBD LTGCCCG=
CYQM;2005-07-28 01:45;SPECI CYQM 280145Z 04004KT 2SM -SHRA BR SCT006 OVC025 19/ RETSRA RMK SF3SC5=
CYQM;2005-07-28 02:00;METAR CYQM 280200Z 36002KT 2 1/2SM -SHRA BR BKN006 OVC025 19/18 A2971 RETSRA RMK SF6SC2 SLP061=
CYQM;2005-07-28 02:23;SPECI CYQM 280223Z 19003KT 1 1/2SM +TSRA BR BKN006 OVC025 19/ RMK SF6SC2 CB EMBD LTGIC=
CYQM;2005-07-28 02:40;SPECI CYQM 280240Z 00000KT 8SM -TSRA BKN006 OVC025 20/ RERA RMK SF6SC2 CB EMBD LTGIC=
CYQM;2005-07-28 03:35;SPECI CYQM 280335Z 30011KT 10SM FEW003 BKN006 OVC025 20/ RMK SF2SF4SC2=
CYQM;2005-07-28 03:52;SPECI CYQM 280352Z 34012KT 10SM -SHRA FEW003 BKN006 OVC025 20/ RMK SF2SF4SC2=
CYQM;2005-07-28 04:00;METAR CYQM 280400Z 36011KT 8SM -SHRA SCT003 BKN006 OVC025 19/18 A2974 RMK SF3SF4SC1 SLP071=
CYQM;2005-07-28 05:00;METAR CYQM 280500Z 35011KT 12SM -SHRA FEW003 SCT006 OVC012 18/17 A2977 RMK SF2SF2SC4 SLP081=
CYQM;2005-07-28 06:00;METAR CYQM 280600Z 35008G19KT 12SM -SHRA SCT006 BKN012 OVC025 16/15 A2979 RMK SF3SC3SC2 SLP088=
CYQM;2005-07-28 07:00;METAR CYQM 280700Z 31007KT 10SM -SHRA FEW006 OVC030 16/15 A2984 RMK SF2SC6 SLP106=
CYQM;2005-07-28 08:00;METAR CYQM 280800Z 27003KT 12SM -SHRA FEW006 OVC040 15/14 A2986 RMK SF1SC7 SLP113=
CYQM;2005-07-28 08:17;SPECI CYQM 280817Z 26003KT 15SM BKN040 BKN080 15/ RMK SC6AC1=
CYQM;2005-07-28 09:00;METAR CYQM 280900Z 24005KT 15SM FEW005 FEW040 BKN080 15/14 A2988 RMK SF1SC2AC5 SLP118=
CYQM;2005-07-28 10:00;METAR CYQM 281000Z 25006KT 15SM FEW005 FEW040 BKN070 BKN260 16/14 A2991 RMK SF1SC2AC4CI1 SLP130=
CYQM;2005-07-28 11:00;METAR CYQM 281100Z 30009KT 15SM FEW040 SCT070 BKN120 17/14 A2994 RMK SC1AC3AC2 SLP138=
CYQM;2005-07-28 12:00;METAR CYQM 281200Z 32007KT 15SM FEW016 FEW040 BKN140 BKN260 17/13 A2997 RMK CU1SC1AC3CI1 SLP150=
CYQM;2005-07-28 13:00;METAR CYQM 281300Z 33009KT 15SM FEW010 FEW040 FEW090 BKN140 BKN260 18/13 A2999 RMK CF1SC1AC2AC3CI1 SLP155=
CYQM;2005-07-28 14:00;METAR CYQM 281400Z 33008G15KT 15SM FEW020 FEW090 BKN140 BKN260 19/12 A3001 RMK CU1AC1AC4CI1 SLP162=
CYQM;2005-07-28 15:00;METAR CYQM 281500Z 32009KT 15SM FEW025 FEW090 BKN140 BKN260 20/12 A3002 RMK CU1AC1AC4CI1 SLP167=
CYQM;2005-07-28 16:00;METAR CYQM 281600Z 01008KT 15SM FEW030 FEW090 BKN140 BKN260 21/12 A3003 RMK CU1AC1AC5CI1 SLP169=
CYQM;2005-07-28 17:00;METAR CYQM 281700Z 36005KT 15SM FEW030 BKN140 BKN260 21/12 A3004 RMK CU1AC5CI1 SLP173=
CYQM;2005-07-28 18:00;METAR CYQM 281800Z 33004KT 15SM FEW030 BKN140 BKN260 21/12 A3004 RMK CU1AC4CI2 SLP173=
CYQM;2005-07-28 19:00;METAR CYQM 281900Z 09003KT 15SM FEW035 SCT140 BKN240 22/12 A3004 RMK CU1AC4CI2 SLP174=
CYQM;2005-07-28 20:00;METAR CYQM 282000Z 04006KT 15SM FEW035 BKN140 BKN240 22/12 A3005 RMK CU1AC5CI2 SLP176=
CYQM;2005-07-28 21:00;METAR CYQM 282100Z 06005KT 15SM FEW035 BKN140 BKN260 21/11 A3004 RMK CU1AC5CI1 TR CU SLP175=
CYQM;2005-07-28 22:00;METAR CYQM 282200Z 08006KT 15SM FEW035 BKN140 BKN260 20/10 A3005 RMK CU1AC6CI1 SLP177=
CYQM;2005-07-28 23:00;METAR CYQM 282300Z 10005KT 15SM FEW030 BKN140 BKN260 19/12 A3006 RMK CU1AC5CI2 TR CU SLP179=
CYQM;2005-07-29 00:00;METAR CYQM 290000Z 11006KT 15SM FEW025 SCT140 BKN260 18/13 A3006 RMK CU1AC4CI2 TR CU SLP182=
CYQM;2005-07-29 01:00;METAR CYQM 290100Z 10004KT 15SM SCT120 BKN260 17/12 A3007 RMK AC4CI2 SLP185=
CYQM;2005-07-29 02:00;METAR CYQM 290200Z 17005KT 15SM SKC 15/11 A3008 RMK SLP186=
CYQM;2005-07-29 03:00;METAR CYQM 290300Z 13005KT 15SM SKC 15/11 A3007 RMK SLP183=
CYQM;2005-07-29 04:00;METAR CYQM 290400Z 12004KT 15SM FEW140 15/12 A3007 RMK AC2 SLP183=
CYQM;2005-07-29 05:00;METAR CYQM 290500Z 00000KT 15SM BKN140 14/11 A3006 RMK AC5 SLP179=
CYQM;2005-07-29 06:00;METAR CYQM 290600Z 14004KT 15SM BKN140 15/13 A3005 RMK AC5 SLP178=
CYQM;2005-07-29 09:00;METAR CYQM 290900Z 02002KT 15SM R29/P6000FT/N R06/2600VP6000FT/D PRFG FEW090 FEW260 12/11 A3002 RMK AC1CI1 VIS NW 1/2 SLP168=
CYQM;2005-07-29 10:00;METAR CYQM 291000Z 05002KT 15SM R29/1400V2200FT/D R06/P6000FT/N PRFG FEW090 FEW260 12/11 A3003 RMK AC1CI1 VIS NW 3 NE-E 1/2 SLP170=
CYQM;2005-07-29 10:17;SPECI CYQM 291017Z 06002KT 3/8SM R29/1800V2800FT/N R06/P6000FT/N FG FEW030 SCT260 13/ RMK FG1CU1CI1 VIS S 15=
CYQM;2005-07-29 10:42;SPECI CYQM 291042Z 05002KT 3/4SM R29/1200V2000FT/D R06/P6000FT/N BR PRFG FEW030 FEW260 14/ RMK CU1CI1 VIS S 15VIS E 3/8=
CYQM;2005-07-29 12:00;METAR CYQM 291200Z 00000KT 15SM FEW016 FEW100 FEW260 17/15 A3004 RMK CU1AC1CI1 SLP175=
CYQM;2005-07-29 13:00;METAR CYQM 291300Z 00000KT 15SM FEW016 FEW260 19/15 A3003 RMK CU1CI1 SLP171=
CYQM;2005-07-29 14:00;METAR CYQM 291400Z 00000KT 15SM SCT020 21/16 A3001 RMK CU3 SLP165=
CYQM;2005-07-29 15:00;METAR CYQM 291500Z 00000KT 15SM BKN028 22/14 A3000 RMK CU5 SLP161=
CYQM;2005-07-29 16:00;METAR CYQM 291600Z 27007KT 15SM SCT030 23/15 A2999 RMK CU4 SLP155=
CYQM;2005-07-29 17:00;METAR CYQM 291700Z 21004KT 15SM SCT030 24/14 A2998 RMK CU3 SLP152=
CYQM;2005-07-29 18:00;METAR CYQM 291800Z 30004KT 15SM FEW030 SCT260 24/14 A2997 RMK CU2CI1 SLP148=
CYQM;2005-07-29 19:00;METAR CYQM 291900Z 22003KT 15SM FEW030 SCT260 25/14 A2995 RMK CU2CI1 SLP144=
CYQM;2005-07-29 20:00;METAR CYQM 292000Z 21013KT 15SM FEW035 SCT260 25/11 A2995 RMK CU1CI1 SLP142=
CYQM;2005-07-29 21:00;METAR CYQM 292100Z 24007KT 15SM FEW040 BKN300 25/14 A2995 RMK CU1CI2 SLP141=
CYQM;2005-07-29 22:00;METAR CYQM 292200Z 22008KT 15SM FEW040 BKN280 24/11 A2995 RMK CU1CI3 SLP144=
CYQM;2005-07-29 23:00;METAR CYQM 292300Z 21006KT 15SM FEW035 BKN280 23/12 A2996 RMK CU1CI3 SLP146=
CYQM;2005-07-30 00:00;METAR CYQM 300000Z 18004KT 15SM FEW030 BKN270 21/12 A2997 RMK SC1CI4 CONTRAILS SLP150=
CYQM;2005-07-30 01:00;METAR CYQM 300100Z 20007KT 15SM FEW020 BKN270 19/13 A3000 RMK SC1CI2 SLP158=
CYQM;2005-07-30 02:00;METAR CYQM 300200Z 23007KT 15SM SCT270 17/13 A3000 RMK CI1 SLP161=
CYQM;2005-07-30 03:00;METAR CYQM 300300Z 25010G17KT 15SM SCT270 18/14 A3002 RMK CI1 SLP166=
CYQM;2005-07-30 04:00;METAR CYQM 300400Z 23006KT 15SM FEW270 16/13 A3003 RMK CI1 SLP171=
CYQM;2005-07-30 05:00;METAR CYQM 300500Z 22008KT 15SM FEW120 BKN250 16/13 A3005 RMK AC1CI2 SLP176=
CYQM;2005-07-30 07:00;METAR CYQM 300700Z 22006KT 15SM BKN250 14/11 A3007 RMK CI2 SLP183=
CYQM;2005-07-30 08:00;METAR CYQM 300800Z 22006KT 15SM BKN250 13/10 A3009 RMK CI4 SLP190=
CYQM;2005-07-30 09:00;METAR CYQM 300900Z 22004KT 15SM FEW160 BKN250 12/09 A3011 RMK AC1CI2 SLP196=
CYQM;2005-07-30 10:00;METAR CYQM 301000Z 21006KT 15SM FEW160 BKN250 13/10 A3012 RMK AC2CI2 SLP202=
CYQM;2005-07-30 11:00;METAR CYQM 301100Z 26006KT 15SM SCT250 15/10 A3014 RMK CI3 SLP208=
CYQM;2005-07-30 12:00;METAR CYQM 301200Z 26006KT 15SM FEW120 SCT250 15/10 A3016 RMK AC1CI2 SLP214=
CYQM;2005-07-30 13:00;METAR CYQM 301300Z 30008KT 15SM FEW250 17/10 A3017 RMK CI2 SLP216=
CYQM;2005-07-30 14:00;METAR CYQM 301400Z 32009KT 15SM FEW030 SCT250 19/11 A3017 RMK CU1CI2 SLP216=
CYQM;2005-07-30 15:00;METAR CYQM 301500Z 29005KT 15SM FEW030 SCT250 21/10 A3016 RMK CU1CI2 SLP215=
CYQM;2005-07-30 16:00;METAR CYQM 301600Z 27010G15KT 15SM FEW030 FEW250 22/10 A3015 RMK CU1CI1 SLP211=
CYQM;2005-07-30 17:00;METAR CYQM 301700Z 27012KT 15SM FEW030 SCT250 23/09 A3014 RMK CU2CI1 SLP208=
CYQM;2005-07-30 18:00;METAR CYQM 301800Z 27011G18KT 15SM BKN035 BKN250 22/10 A3014 RMK CU6CI1 SLP208=
CYQM;2005-07-30 19:00;METAR CYQM 301900Z 26013G19KT 15SM BKN035 BKN250 22/09 A3014 RMK CU5CI1 SLP208=
CYQM;2005-07-30 20:00;METAR CYQM 302000Z 28011G17KT 15SM SCT035 BKN250 23/10 A3014 RMK CU4CI1 SLP207=
CYQM;2005-07-30 21:00;METAR CYQM 302100Z 27012KT 15SM SCT035 BKN080 BKN240 22/10 A3015 RMK CU4AC1CI1 SLP210=
CYQM;2005-07-30 22:00;METAR CYQM 302200Z 27010KT 15SM FEW030 FEW080 FEW240 22/09 A3015 RMK CU1AC1CI1 SLP211=
CYQM;2005-07-30 23:00;METAR CYQM 302300Z 27004KT 15SM BKN030 BKN075 21/10 A3016 RMK CU5AC1 SLP215=
CYQM;2005-07-31 00:00;METAR CYQM 310000Z 26005KT 15SM FEW030 SCT075 19/09 A3018 RMK CU2AC2 SLP220=
CYQM;2005-07-31 01:00;METAR CYQM 310100Z 27006KT 15SM FEW030 SCT075 17/10 A3019 RMK SC2AC2 SLP226=
CYQM;2005-07-31 02:00;METAR CYQM 310200Z 29006KT 15SM SKC 16/09 A3021 RMK SLP231=
CYQM;2005-07-31 03:00;METAR CYQM 310300Z 30006KT 15SM SKC 16/08 A3022 RMK SLP233=
CYQM;2005-07-31 04:00;METAR CYQM 310400Z 29008KT 15SM SKC 15/07 A3023 RMK SLP237=
CYQM;2005-07-31 05:00;METAR CYQM 310500Z 33009KT 15SM FEW020 14/07 A3024 RMK CU1 SLP241=
CYQM;2005-07-31 06:00;METAR CYQM 310600Z 33005KT 15SM SKC 13/07 A3025 RMK SLP244=
CYQM;2005-07-31 07:00;METAR CYQM 310700Z 21005KT 15SM FEW250 11/06 A3025 RMK CI1 SLP245=
CYQM;2005-07-31 09:00;METAR CYQM 310900Z 22008KT 15SM FEW080 FEW160 BKN260 10/07 A3028 RMK ACC1AC2CI2 TR ACC SE SLP255=
CYQM;2005-07-31 10:00;METAR CYQM 311000Z 22007KT 15SM FEW140 BKN260 11/08 A3029 RMK AC2CI2 SLP258=
CYQM;2005-07-31 11:00;METAR CYQM 311100Z 23007KT 15SM FEW140 SCT260 13/09 A3030 RMK AC1CI2 SLP264=
CYQM;2005-07-31 12:00;METAR CYQM 311200Z 24006KT 15SM FEW140 FEW260 15/08 A3031 RMK AC1CI1 SLP264=
CYQM;2005-07-31 13:00;METAR CYQM 311300Z 27004KT 15SM FEW140 FEW260 18/10 A3030 RMK AC1CI1 SLP263=
CYQM;2005-07-31 14:00;METAR CYQM 311400Z 22005KT 15SM FEW035 FEW260 19/10 A3030 RMK CU1CI1 SLP261=
CYQM;2005-07-31 15:00;METAR CYQM 311500Z 22003KT 15SM FEW040 FEW260 20/09 A3029 RMK CU1CI1 SLP257=
CYQM;2005-07-31 16:00;METAR CYQM 311600Z 24003KT 15SM FEW045 FEW260 22/09 A3028 RMK CU1CI1 SLP253=
CYQM;2005-07-31 17:00;METAR CYQM 311700Z 26006KT 15SM FEW045 FEW260 22/08 A3026 RMK CU1CI1 SLP249=
CYQM;2005-07-31 18:00;METAR CYQM 311800Z 27007KT 15SM FEW050 FEW260 22/08 A3025 RMK CU1CI1 SLP246=
CYQM;2005-07-31 19:00;METAR CYQM 311900Z 20006KT 15SM FEW050 FEW260 23/08 A3025 RMK CU1CI1 SLP244=
CYQM;2005-07-31 20:00;METAR CYQM 312000Z 22006KT 15SM FEW050 SCT260 23/08 A3024 RMK CU1CI2 SLP242=
CYQM;2005-07-31 21:00;METAR CYQM 312100Z 20008KT 15SM FEW045 BKN280 23/08 A3024 RMK CU1CI2 SLP241=
CYQM;2005-07-31 22:00;METAR CYQM 312200Z 16009KT 15SM FEW040 BKN260 21/09 A3024 RMK SC1CI4 SLP240=
CYQM;2005-07-31 23:00;METAR CYQM 312300Z 16009KT 15SM FEW040 BKN240 19/08 A3024 RMK CU1CI5 CC ASOCTD SLP240=
CYQM;2005-08-01 00:00;METAR CYQM 010000Z 18008KT 15SM FEW035 BKN230 18/07 A3023 RMK CU1CI6 SLP239=
CYQM;2005-08-01 01:00;METAR CYQM 010100Z 20004KT 15SM BKN230 17/08 A3025 RMK CI6 SLP244=
CYQM;2005-08-01 03:00;METAR CYQM 010300Z 21007KT 15SM FEW250 15/09 A3025 RMK CI1 SLP243=
CYQM;2005-08-01 04:00;METAR CYQM 010400Z 22006KT 15SM FEW250 14/08 A3024 RMK CI1 SLP242=
CYQM;2005-08-01 05:00;METAR CYQM 010500Z 23004KT 15SM SCT150 BKN250 14/08 A3023 RMK AC3CI1 SLP239=
CYQM;2005-08-01 06:00;METAR CYQM 010600Z 21006KT 15SM FEW150 SCT250 13/08 A3021 RMK AC2CI1 SLP232=
CYQM;2005-08-01 07:00;METAR CYQM 010700Z 18004KT 15SM FEW160 SCT250 12/08 A3021 RMK AC1CI2 SLP230=
CYQM;2005-08-01 08:00;METAR CYQM 010800Z 16005KT 15SM FEW150 FEW250 12/09 A3020 RMK AC1CI0 SLP227=
CYQM;2005-08-01 09:00;METAR CYQM 010900Z 22004KT 15SM FEW030 SCT100 BKN260 10/08 A3019 RMK SC2AC2CI2 SLP226=
CYQM;2005-08-01 10:00;METAR CYQM 011000Z 18004KT 15SM FEW030 SCT100 BKN260 11/09 A3019 RMK SC2AC2CI2 SLP224=
CYQM;2005-08-01 11:00;METAR CYQM 011100Z 16005KT 15SM BKN030 BKN120 BKN260 14/11 A3019 RMK SC5AC1CI1 SLP224=
CYQM;2005-08-01 12:00;METAR CYQM 011200Z 14006KT 15SM BKN030 OVC260 14/11 A3019 RMK SC6CI1 SLP223=
CYQM;2005-08-01 13:00;METAR CYQM 011300Z 15005KT 15SM BKN040 BKN100 OVC260 16/11 A3017 RMK SC5AC2CI1 SLP218=
CYQM;2005-08-01 14:00;METAR CYQM 011400Z 15006KT 15SM FEW030 SCT040 BKN100 BKN260 19/10 A3015 RMK CU1SC4AC2CI1 SLP212=
CYQM;2005-08-01 14:55;SPECI CYQM 011455Z 17006KT 15SM -SHRA BKN040 OVC100 18/ RMK SC6AC2=
CYQM;2005-08-01 15:00;METAR CYQM 011500Z 18006KT 15SM -SHRA BKN040 OVC100 18/10 A3017 RMK SC6AC2 SLP216=
CYQM;2005-08-01 16:00;METAR CYQM 011600Z 23013KT 3SM -RA BR FEW015 BKN040 OVC100 15/12 A3019 RMK SC2SC5AC1 SLP225=
CYQM;2005-08-01 17:00;METAR CYQM 011700Z 16007KT 8SM -RA SCT015 OVC040 14/12 A3016 RERA RMK SC3SC5 SLP213=
CYQM;2005-08-01 18:00;METAR CYQM 011800Z 14009KT 10SM -RA SCT015 OVC040 14/12 A3012 RMK SC3SC5 SLP202=
CYQM;2005-08-01 19:00;METAR CYQM 011900Z 16012KT 8SM -RA FEW015 OVC040 14/12 A3011 RMK SC2SC6 SLP198=
CYQM;2005-08-01 20:00;METAR CYQM 012000Z 15008KT 10SM -RA FEW015 BKN040 OVC080 13/12 A3007 RERA RMK SC1SC6AC1 SLP185=
CYQM;2005-08-01 20:43;SPECI CYQM 012043Z 15008KT 15SM OVC040 14/ RMK SC8=
CYQM;2005-08-01 21:00;METAR CYQM 012100Z 14009KT 15SM FEW004 OVC040 14/13 A3003 RMK SF1SC8 SLP172=
CYQM;2005-08-01 22:00;METAR CYQM 012200Z 17010KT 15SM FEW004 BKN040 15/13 A3003 RMK SF1SC7 SLP169=
CYQM;2005-08-01 22:10;SPECI CYQM 012210Z 17007KT 15SM FEW003 OVC020 15/ RMK SF1SC7=
CYQM;2005-08-01 23:00;METAR CYQM 012300Z 16008KT 15SM FEW003 BKN022 15/14 A3002 RMK SF1SC7 SLP167=
CYQM;2005-08-02 00:00;METAR CYQM 020000Z 16008KT 15SM BKN022 OVC050 15/14 A3002 RMK SC7SC1 SLP166=
CYQM;2005-08-02 01:00;METAR CYQM 020100Z 18005KT 15SM FEW020 OVC040 15/14 A3002 RMK SC2SC6 SLP166=
CYQM;2005-08-02 03:00;METAR CYQM 020300Z 18006KT 15SM OVC040 16/13 A3000 RMK SC8 SLP159=
CYQM;2005-08-02 03:54;SPECI CYQM 020354Z 20005KT 12SM -SHRA OVC040 16/ RMK SC8=
CYQM;2005-08-02 04:00;METAR CYQM 020400Z 19005KT 12SM -SHRA OVC040 15/13 A2997 RMK SC8 SLP152=
CYQM;2005-08-02 04:42;SPECI CYQM 020442Z 17006KT 15SM BKN040 OVC080 15/ RMK SC6AC2=
CYQM;2005-08-02 05:00;METAR CYQM 020500Z 18008KT 15SM BKN050 OVC080 15/13 A2995 RMK SC6AC2 SLP143=
CYQM;2005-08-02 06:00;METAR CYQM 020600Z 18008KT 15SM FEW050 OVC080 15/13 A2992 RMK SC2AC6 SLP135=
CYQM;2005-08-02 09:00;METAR CYQM 020900Z 22007KT 12SM SCT020 BKN040 BKN080 OVC260 15/14 A2990 RMK SC4SC2AC1CI1 SLP126=
CYQM;2005-08-02 10:00;METAR CYQM 021000Z 22009KT 12SM FEW010 FEW020 SCT140 BKN260 15/14 A2990 RMK CF1SC2AC1CI1 SLP126=
CYQM;2005-08-02 11:00;METAR CYQM 021100Z 23008KT 15SM FEW010 FEW020 SCT140 BKN260 16/14 A2990 RMK CF1SC2AC1CI1 SLP128=
CYQM;2005-08-02 12:00;METAR CYQM 021200Z 23012KT 15SM BKN015 OVC260 16/14 A2989 RMK SC7CI1 SLP124=
CYQM;2005-08-02 13:00;METAR CYQM 021300Z 24009KT 15SM BKN015 OVC260 16/15 A2989 RMK SC7CI1 SLP123=
CYQM;2005-08-02 13:52;SPECI CYQM 021352Z 21006KT 12SM BKN011 OVC030 17/ RMK SC7SC1=
CYQM;2005-08-02 14:00;METAR CYQM 021400Z 23007KT 12SM BKN011 OVC030 17/15 A2988 RMK SC7SC1 SLP119=
CYQM;2005-08-02 14:36;SPECI CYQM 021436Z 25007KT 12SM BKN008 18/ RMK SC7=
CYQM;2005-08-02 15:00;METAR CYQM 021500Z 22008KT 12SM OVC008 19/16 A2986 RMK SC8 SLP113=
CYQM;2005-08-02 15:40;SPECI CYQM 021540Z 25008KT 15SM BKN011 19/ RMK SC7=
CYQM;2005-08-02 16:00;METAR CYQM 021600Z 23008KT 15SM BKN011 BKN140 20/16 A2984 RMK SC6AC1 SLP106=
CYQM;2005-08-02 17:00;METAR CYQM 021700Z 21008KT 15SM BKN013 BKN140 20/18 A2981 RMK SC6AC1 SLP097=
CYQM;2005-08-02 18:00;METAR CYQM 021800Z 23007KT 15SM BKN015 OVC100 21/17 A2980 RMK CU7AC1 SLP091=
CYQM;2005-08-02 19:00;METAR CYQM 021900Z 20008KT 15SM FEW015 BKN030 OVC100 20/17 A2978 RMK CU1SC5AC2 TCU ASOCTD SLP084=
CYQM;2005-08-02 19:08;SPECI CYQM 021908Z 21005KT 15SM -SHRA FEW015 BKN030 OVC100 20/ RMK CU1SC5AC2 TCU ASOCTD=
CYQM;2005-08-02 20:00;METAR CYQM 022000Z 22010G15KT 12SM -SHRA BKN040 OVC100 20/17 A2979 RMK SC6AC2 TCU EMBD SLP089=
CYQM;2005-08-02 20:08;SPECI CYQM 022008Z 22008KT 12SM -SHRA FEW007 SCT040 OVC090 20/ RMK CF1SC3AC4 TCU EMBD=
CYQM;2005-08-02 21:00;METAR CYQM 022100Z 20013KT 15SM -SHRA FEW005 FEW030CB BKN040 BKN100 BKN260 19/17 A2974 RMK SF1CB1SC5AC1CI1 CB NW-NE VIS LWR SW PRESFR SLP072=
CYQM;2005-08-02 21:22;SPECI CYQM 022122Z 20018G26KT 15SM FEW005 FEW030CB BKN045 BKN100 BKN260 19/ RMK SF1CB2SC4AC1CI1 CB N-SE=
CYQM;2005-08-02 22:00;METAR CYQM 022200Z 22009G19KT 15SM FEW008 FEW030CB BKN050 BKN090 19/17 A2973 RMK CF1CB2SC3AC2 CB NW-E SLP068=
CYQM;2005-08-02 23:00;METAR CYQM 022300Z 25009G16KT 15SM FEW008 SCT050 BKN090 BKN260 20/17 A2975 RMK CF1SC4AC2CI1 CB ASOCTD DIST N-E SLP075=
CYQM;2005-08-03 00:00;METAR CYQM 030000Z 24011KT 15SM FEW030CB FEW090 SCT260 18/17 A2975 RMK CB2AC1CI1 CB W-NE SLP077=
CYQM;2005-08-03 00:03;SPECI CYQM 030003Z 24011KT 15SM FEW008 FEW030CB SCT260 18/ RMK SF1CB2CI1 CB N-NE=
CYQM;2005-08-03 01:00;METAR CYQM 030100Z 23009KT 12SM FEW008 SCT030CB SCT090 18/17 A2976 RMK SF1CB2AC1 CB N-NE SLP079=
CYQM;2005-08-03 01:13;SPECI CYQM 030113Z 22007KT 8SM BKN007 17/ RMK SF6=
CYQM;2005-08-03 02:00;METAR CYQM 030200Z 22008KT 7SM OVC005 17/16 A2976 RMK SF8 SLP078=
CYQM;2005-08-03 02:10;SPECI CYQM 030210Z 21006KT 7SM OVC003 17/ RMK SF8=
CYQM;2005-08-03 03:00;METAR CYQM 030300Z 25010KT 6SM BR OVC002 17/16 A2975 RMK SF8 SLP077=
CYQM;2005-08-03 03:11;SPECI CYQM 030311Z 24009KT 3SM BR OVC001 17/ RMK SF8 VIS W 11/2=
CYQM;2005-08-03 03:24;SPECI CYQM 030324Z 25008KT 2SM BR OVC001 17/ RMK SF8=
CYQM;2005-08-03 03:42;SPECI CYQM 030342Z 24007KT 1 1/4SM BR OVC001 17/ RMK SF8=
CYQM;2005-08-03 03:53;SPECI CYQM 030353Z 24009KT 3/4SM R29/P6000FT/U R06/P6000FT/D BR VV003 17/ RMK FG8=
CYQM;2005-08-03 04:00;METAR CYQM 030400Z 24009KT 3/4SM R29/P6000FT/D R06/P6000FT/D BR VV003 17/16 A2974 RMK FG8 SLP073=
CYQM;2005-08-03 04:23;SPECI CYQM 030423Z 23008KT 1 1/4SM -SHRA BR VV004 17/ RMK FG8=
CYQM;2005-08-03 04:31;SPECI CYQM 030431Z 23009KT 6SM -TSRA BR FEW001 OVC002 17/ RMK SF2SF6 LTGICCC CB EMBD=
CYQM;2005-08-03 04:50;SPECI CYQM 030450Z 25013KT 4SM +TSRA BR BKN003 OVC040 17/ RMK SF5SC3 CB EMBD LTG IC CC CG=
CYQM;2005-08-03 05:00;METAR CYQM 030500Z 22013G19KT 3SM TSRA BR FEW003 OVC040 17/16 A2973 RERA RMK SF2SC6 CB EMBD LTGICCCCG SLP070=
CYQM;2005-08-03 05:20;SPECI CYQM 030520Z 23007KT 15SM FEW002 FEW040 SCT080 16/ RETSRA RMK SF1SC2AC2 OCNL LTNG E-SE CB EMBD=
CYQM;2005-08-03 06:00;METAR CYQM 030600Z 22007KT 15SM FEW003 FEW040CB 15/14 A2973 RETSRA RMK SF1CB1 OCNL LTNG DIST SE SLP068=
CYQM;2005-08-03 07:23;SPECI CYQM 030723Z 23007KT 8SM FEW001 BKN003 16/ RMK SF2SF4=
CYQM;2005-08-03 07:44;SPECI CYQM 030744Z 24007KT 8SM BKN002 BKN007 16/ RMK SF6SF2=
CYQM;2005-08-03 09:30;SPECI CYQM 030930Z 21006KT 2SM BR MIFG FEW004 FEW025 FEW100 FEW250 14/ RMK SF1SC1AC1CI0 VIS E - SW 15=
CYQM;2005-08-03 10:00;METAR CYQM 031000Z 23006KT 7SM FEW005 FEW100 FEW250 14/14 A2974 RMK SF1AC1CI0 VIS W - N 3 SLP071=
CYQM;2005-08-03 12:00;METAR CYQM 031200Z 26008KT 15SM FEW005 BKN025 BKN095 16/14 A2976 RMK CF1SC7AC1 SLP078=
CYQM;2005-08-03 13:00;METAR CYQM 031300Z 27007KT 15SM FEW008 BKN025 BKN095 17/15 A2976 RMK CF1SC7AC1 SLP080=
CYQM;2005-08-03 14:00;METAR CYQM 031400Z 28010KT 15SM BKN018 BKN050 18/14 A2977 RMK SC6SC1 SLP083=
CYQM;2005-08-03 15:00;METAR CYQM 031500Z 30007KT 15SM BKN020 BKN050 20/15 A2977 RMK SC5SC1 SLP082=
CYQM;2005-08-03 16:00;METAR CYQM 031600Z 31013KT 15SM SCT020 BKN055 21/14 A2976 RMK CU4SC2 SLP080=
CYQM;2005-08-03 17:00;METAR CYQM 031700Z 33011G16KT 15SM SCT025 BKN055 22/14 A2977 RMK CU4SC2 SLP082=
CYQM;2005-08-03 18:00;METAR CYQM 031800Z 35007KT 15SM BKN025 BKN060 BKN250 21/13 A2978 RMK CU5SC2CI1 DIST SHS W SLP085=
CYQM;2005-08-03 19:00;METAR CYQM 031900Z 34029KT 15SM -TSRA BKN025CB BKN070 19/13 A2981 RMK CB6AC1 LTGCG CB NE MOVG E SLP094=
CYQM;2005-08-03 19:14;SPECI CYQM 031914Z 34019G31KT 15SM -TSRA FEW008 BKN027CB OVC080 17/ RMK CF1CB5AC2 LTGCG=
CYQM;2005-08-03 19:48;SPECI CYQM 031948Z 32012G17KT 15SM -SHRA BKN030 BKN100 17/ RETS RMK SC6AC1 DIST LTNG S=
CYQM;2005-08-03 20:00;METAR CYQM 032000Z 32008G15KT 15SM -SHRA BKN030 BKN100 17/14 A2984 RETS RMK SC6AC2 SLP104=
CYQM;2005-08-03 21:00;METAR CYQM 032100Z 34004KT 15SM SCT035 SCT100 BKN200 18/14 A2984 RMK SC3AC1CI1 SLP105=
CYQM;2005-08-03 22:00;METAR CYQM 032200Z 31008KT 15SM FEW025 SCT040CB BKN100 BKN220 19/14 A2985 RMK CU2CB2AC2CI1 SLP108=
CYQM;2005-08-03 22:23;SPECI CYQM 032223Z 31006KT 12SM -SHRA FEW025 SCT040CB BKN100 BKN220 18/ RMK CU2CB2AC2CI1=
CYQM;2005-08-03 23:00;METAR CYQM 032300Z 35004KT 12SM -SHRA FEW025 SCT040CB BKN100 BKN220 17/15 A2988 RMK CU2CB2AC2CI1 VIS LWR N IN HVY SH SLP119=
CYQM;2005-08-03 23:52;SPECI CYQM 032352Z 31008KT 15SM VCSH SCT015 BKN050 16/ RMK SC3SC2=
CYQM;2005-08-04 00:00;METAR CYQM 040000Z 31010KT 15SM -SHRA SCT020 BKN050 BKN080 16/13 A2990 RMK SC3SC2AC2 SLP126=
CYQM;2005-08-04 00:40;SPECI CYQM 040040Z 31005KT 15SM FEW025 SCT050 15/ RMK SC2SC2=
CYQM;2005-08-04 01:00;METAR CYQM 040100Z 30006KT 15SM FEW025 SCT050 15/13 A2992 RMK SC2SC2 SLP132=
CYQM;2005-08-04 02:00;METAR CYQM 040200Z 29005KT 15SM FEW025 FEW050 14/12 A2993 RMK SC2SC1 SLP137=
CYQM;2005-08-04 03:00;METAR CYQM 040300Z 23004KT 15SM FEW025 FEW050 13/12 A2994 RMK SC1SC1 SLP140=
CYQM;2005-08-04 04:00;METAR CYQM 040400Z 23004KT 15SM SCT035 13/12 A2995 RMK SC3 SLP141=
CYQM;2005-08-04 04:41;SPECI CYQM 040441Z 23004KT 10SM MIFG SCT035 13/ RMK SC3 VIS NNW 4=
CYQM;2005-08-04 05:00;METAR CYQM 040500Z 23005KT 10SM MIFG BKN040 13/12 A2995 RMK SC5 SLP144=
CYQM;2005-08-04 05:42;SPECI CYQM 040542Z 27005KT 12SM BKN035 14/ RERA RMK SC6=
CYQM;2005-08-04 06:00;METAR CYQM 040600Z 27005KT 15SM BKN035 13/13 A2997 RERA RMK SC6 SLP149=
CYQM;2005-08-04 07:00;METAR CYQM 040700Z 32008KT 15SM BKN035 13/12 A2998 RMK SC6 SLP154=
CYQM;2005-08-04 08:00;METAR CYQM 040800Z 31005KT 15SM SCT035 13/12 A2998 RMK SC3 SLP154=
CYQM;2005-08-04 09:28;SPECI CYQM 040928Z 30005KT 15SM BKN014 BKN220 13/ RMK SC6CI1=
CYQM;2005-08-04 10:00;METAR CYQM 041000Z 30003KT 15SM FEW009 BKN014 BKN220 14/13 A3002 RMK SF1SC7CI1 SLP167=
CYQM;2005-08-04 11:00;METAR CYQM 041100Z 28005KT 15SM FEW008 BKN015 15/13 A3004 RMK SF2SC5 SLP175=
CYQM;2005-08-04 12:00;METAR CYQM 041200Z 29003KT 15SM FEW010 BKN018 15/14 A3006 RMK SC1SC6 SLP182=
CYQM;2005-08-04 13:00;METAR CYQM 041300Z 32006KT 15SM SCT010 BKN020 17/15 A3007 RMK SC3SC4 SLP184=
CYQM;2005-08-04 14:00;METAR CYQM 041400Z 36006KT 15SM BKN025 17/13 A3007 RMK CU6 SLP185=
CYQM;2005-08-04 15:00;METAR CYQM 041500Z 02010KT 15SM BKN030 19/14 A3007 RMK CU5 SLP184=
CYQM;2005-08-04 16:00;METAR CYQM 041600Z 36011KT 15SM SCT030 20/13 A3006 RMK CU4 SLP181=
CYQM;2005-08-04 17:00;METAR CYQM 041700Z 02006G17KT 15SM SCT030 SCT250 20/13 A3007 RMK CU4CI1 CONTRAILS SLP183=
CYQM;2005-08-04 18:00;METAR CYQM 041800Z 02006KT 15SM FEW035 FEW250 20/12 A3006 RMK CU2CI0 SLP180=
CYQM;2005-08-04 20:00;METAR CYQM 042000Z 35007KT 15SM FEW035 SCT270 21/11 A3007 RMK CU1CI1 SLP183=
CYQM;2005-08-04 21:00;METAR CYQM 042100Z 02004KT 15SM FEW035 BKN270 21/12 A3007 RMK CU1CI2 SLP183=
CYQM;2005-08-04 22:00;METAR CYQM 042200Z 03005KT 15SM FEW035 BKN270 20/11 A3007 RMK CU1CI2 SLP184=
CYQM;2005-08-04 23:00;METAR CYQM 042300Z 08006KT 15SM FEW035 BKN250 19/11 A3006 RMK CU1CI2 SLP182=
CYQM;2005-08-05 00:00;METAR CYQM 050000Z 09006KT 15SM FEW030 BKN250 18/10 A3006 RMK CU1CI2 SLP182=
CYQM;2005-08-05 01:00;METAR CYQM 050100Z 10006KT 15SM FEW035 BKN250 17/11 A3007 RMK CU1CI2 SLP185=
CYQM;2005-08-05 02:00;METAR CYQM 050200Z 13006KT 15SM FEW035 BKN250 15/11 A3006 RMK SC1CI2 SLP181=
CYQM;2005-08-05 03:00;METAR CYQM 050300Z 19003KT 15SM FEW035 14/11 A3006 RMK SC2 SLP180=
CYQM;2005-08-05 04:00;METAR CYQM 050400Z 21007KT 15SM FEW035 13/12 A3006 RMK SC2 SLP181=
CYQM;2005-08-05 05:00;METAR CYQM 050500Z 20005KT 15SM FEW035 13/12 A3005 RMK SC2 SLP177=
CYQM;2005-08-05 06:00;METAR CYQM 050600Z 19004KT 15SM SKC 13/12 A3003 RMK SLP169=
CYQM;2005-08-05 09:00;METAR CYQM 050900Z 14006KT 15SM FEW140 BKN260 12/10 A3000 RMK AC2CI2 SLP162=
CYQM;2005-08-05 10:00;METAR CYQM 051000Z 16005KT 15SM BKN070 OVC260 14/12 A3001 RMK AC7CI1 SLP163=
CYQM;2005-08-05 11:00;METAR CYQM 051100Z 16004KT 15SM BKN060 BKN080 BKN260 15/13 A3000 RMK SC5ACC1CI1 SLP162=
CYQM;2005-08-05 12:00;METAR CYQM 051200Z 17010KT 15SM FEW060 FEW080 OVC260 19/14 A2998 RMK SC1AC2CI2 SLP152=
CYQM;2005-08-05 13:00;METAR CYQM 051300Z 17011KT 15SM BKN060 BKN080 OVC260 19/14 A2997 RMK SC6AC2CI0 SLP150=
CYQM;2005-08-05 14:00;METAR CYQM 051400Z 17013KT 15SM FEW050 FEW120 OVC260 20/14 A2994 RMK SC1AC1CI3 SLP140=
CYQM;2005-08-05 15:00;METAR CYQM 051500Z 20012KT 15SM BKN035 OVC260 22/14 A2993 RMK SC6CI1 SLP136=
CYQM;2005-08-05 15:48;SPECI CYQM 051548Z 20019G24KT 15SM -SHRA BKN030 OVC260 22/ RMK SC6CI1=
CYQM;2005-08-05 16:00;METAR CYQM 051600Z 20022G29KT 15SM -SHRA BKN030 OVC260 21/13 A2992 RMK SC7CI1 SLP131=
CYQM;2005-08-05 16:22;SPECI CYQM 051622Z 20013G21KT 15SM SCT030 OVC080 20/ RMK SC3AC5 SHS N-E=
CYQM;2005-08-05 17:00;METAR CYQM 051700Z 20018KT 15SM FEW030 BKN080 20/14 A2989 RMK SC2AC5 SHS=
CYQM;2005-08-05 17:42;SPECI CYQM 051742Z 19017KT 15SM -SHRA BKN035 OVC080 21/ RMK SC6AC2=
CYQM;2005-08-05 18:00;METAR CYQM 051800Z 20015G24KT 15SM BKN035 OVC080 21/15 A2986 RMK SC6AC2 SLP114=
CYQM;2005-08-05 19:00;METAR CYQM 051900Z 21023G32KT 15SM BKN022 23/17 A2985 RMK SC7 SLP108=
CYQM;2005-08-05 20:00;METAR CYQM 052000Z 21016G24KT 15SM OVC025 23/17 A2984 RMK SC8 SLP104=
CYQM;2005-08-05 21:00;METAR CYQM 052100Z 21017G24KT 8SM FEW020 BKN160 BKN260 23/18 A2982 RMK CF2AC4CI1 SLP099=
CYQM;2005-08-05 22:00;METAR CYQM 052200Z 21020G26KT 8SM FEW012 SCT040 BKN140 BKN260 23/19 A2981 RMK CF1SC3AC2CI1 SLP095=
CYQM;2005-08-05 23:00;METAR CYQM 052300Z 24013KT 8SM FEW012 BKN040 OVC260 22/19 A2984 RMK CF1SC5CI2 SH NE SLP104=
CYQM;2005-08-05 23:06;SPECI CYQM 052306Z 23012KT 8SM -SHRA FEW012 BKN040 OVC260 22/ RMK CF1SC5CI2=
CYQM;2005-08-05 23:50;SPECI CYQM 052350Z 21011G16KT 8SM BKN040 BKN080 OVC260 21/ RMK SC5AC2CI1 SH W-NE=
CYQM;2005-08-06 00:00;METAR CYQM 060000Z 21011KT 8SM BKN040 BKN080 OVC260 21/18 A2985 RMK SC5AC2CI1 SH W-NE SLP108=
CYQM;2005-08-06 00:13;SPECI CYQM 060013Z 19010KT 10SM -SHRA BKN040 OVC080 20/ RMK SC6AC2=
CYQM;2005-08-06 00:33;SPECI CYQM 060033Z 20007KT 10SM BKN040 OVC080 20/ RMK SC6AC2=
CYQM;2005-08-06 02:42;SPECI CYQM 060242Z 22004KT 12SM -SHRA BKN050 OVC080 19/ RMK SC6AC2=
CYQM;2005-08-06 04:00;METAR CYQM 060400Z 23008KT 12SM BKN050 18/17 A2987 RMK SC7 SLP117=
CYQM;2005-08-06 05:00;METAR CYQM 060500Z 23007KT 15SM SCT050 18/17 A2989 RMK SC4 SLP122=
CYQM;2005-08-06 05:47;SPECI CYQM 060547Z 23009KT 2SM BR SCT050 17/ RMK SC4=
CYQM;2005-08-06 06:00;METAR CYQM 060600Z 24011KT 3/4SM R06/5000FT/D R29/3000V4500FT/D BR VV004 17/17 A2990 RMK FG8 SLP127=
CYQM;2005-08-06 06:28;SPECI CYQM 060628Z 25008KT 5/8SM R06/3500FT/U R29/4000FT/U BR VV002 17/ RMK FG8=
CYQM;2005-08-06 06:39;SPECI CYQM 060639Z 25007KT 1SM R06/5000FT/U R29/5500FT/N BR OVC002 17/ RMK SF8=
CYQM;2005-08-06 06:51;SPECI CYQM 060651Z 24006KT 1 1/2SM BR BKN002 17/ RMK SF6=
CYQM;2005-08-06 07:26;SPECI CYQM 060726Z 23006KT 1 1/4SM BR OVC001 17/ RMK SF8=
CYQM;2005-08-06 07:51;SPECI CYQM 060751Z 23005KT 3SM BR FEW001 16/ RMK SF1 VIS LWR N-S=
CYQM;2005-08-06 08:11;SPECI CYQM 060811Z 23005KT 1 1/4SM BR BKN001 16/ RMK SF5=
CYQM;2005-08-06 08:21;SPECI CYQM 060821Z 23005KT 3SM BR SCT001 SCT260 16/ RMK SF2CI1=
CYQM;2005-08-06 08:46;SPECI CYQM 060846Z 23006KT 3SM BR VCFG FEW130 15/ RMK FG2AC1 VIS SE-W 1/2=
CYQM;2005-08-06 08:50;SPECI CYQM 060850Z 23005KT 1/2SM R29/P6000FT/D R06/P6000FT/D FG SCT130 16/ RMK FG2AC1=
CYQM;2005-08-06 09:00;METAR CYQM 060900Z 22006KT 1/2SM R29/P6000FT/D R06/P6000FT/D FG FEW130 SCT260 15/15 A2995 RMK FG2AC1CI1 VIS NE 4 SLP144=
CYQM;2005-08-06 10:00;METAR CYQM 061000Z 22008KT 15SM FEW020 FEW100 FEW260 16/15 A2997 RMK CU1AC1CI1 SLP151=
CYQM;2005-08-06 11:00;METAR CYQM 061100Z 23006KT 15SM SCT030 BKN260 18/15 A3000 RMK CU4CI1 SLP160=
CYQM;2005-08-06 12:00;METAR CYQM 061200Z 27008KT 15SM FEW030 SCT130 BKN260 18/14 A3002 RMK CU2AC2CI2 SLP166=
CYQM;2005-08-06 13:00;METAR CYQM 061300Z 31011KT 15SM FEW030 FEW130 BKN260 19/12 A3002 RMK CU1AC2CI2 SLP167=
CYQM;2005-08-06 14:00;METAR CYQM 061400Z 30008KT 15SM FEW025 FEW130 BKN240 19/12 A3003 RMK CU1AC1CI2 SLP171=
CYQM;2005-08-06 15:00;METAR CYQM 061500Z 27009KT 15SM FEW025 BKN240 22/13 A3003 RMK CU1CI2 SLP170=
CYQM;2005-08-06 16:00;METAR CYQM 061600Z 30010G15KT 15SM FEW030 SCT260 23/13 A3002 RMK CU1CI2 SLP166=
CYQM;2005-08-06 17:00;METAR CYQM 061700Z 29012KT 15SM FEW035 SCT260 24/12 A3001 RMK CU1CI1 SLP164=
CYQM;2005-08-06 18:00;METAR CYQM 061800Z 31010G17KT 15SM FEW040 FEW260 24/10 A3001 RMK CU1CI1 SLP164=
CYQM;2005-08-06 19:00;METAR CYQM 061900Z 33004KT 15SM FEW040 FEW260 25/10 A3001 RMK CU1CI1 SLP164=
CYQM;2005-08-06 20:00;METAR CYQM 062000Z 30010G15KT 15SM FEW040 FEW260 25/09 A3002 RMK CU1CI2 SLP165=
CYQM;2005-08-06 21:00;METAR CYQM 062100Z 30008KT 15SM FEW050 FEW260 25/09 A3002 RMK CU1CI2 SLP167=
CYQM;2005-08-06 22:00;METAR CYQM 062200Z 34007KT 15SM FEW050 FEW260 24/09 A3003 RMK CU1CI1 SLP169=
CYQM;2005-08-06 23:00;METAR CYQM 062300Z 07005KT 15SM FEW040 FEW260 22/12 A3004 RMK SC1CI1 SLP174=
CYQM;2005-08-07 00:00;METAR CYQM 070000Z 11006KT 15SM FEW260 20/11 A3006 RMK CI1 SLP181=
CYQM;2005-08-07 01:00;METAR CYQM 070100Z 14007KT 15SM SKC 18/12 A3008 RMK SLP186=
CYQM;2005-08-07 02:00;METAR CYQM 070200Z 13002KT 15SM SKC 16/12 A3009 RMK SLP190=
CYQM;2005-08-07 03:00;METAR CYQM 070300Z 16004KT 15SM SKC 14/12 A3009 RMK SLP192=
CYQM;2005-08-07 04:00;METAR CYQM 070400Z 17004KT 15SM SKC 14/12 A3010 RMK SLP195=
CYQM;2005-08-07 05:00;METAR CYQM 070500Z 18006KT 15SM SKC 13/12 A3011 RMK SLP196=
CYQM;2005-08-07 06:00;METAR CYQM 070600Z 20004KT 15SM SKC 12/11 A3011 RMK SLP196=
CYQM;2005-08-07 07:00;METAR CYQM 070700Z 20005KT 15SM SKC 12/11 A3011 RMK SLP196=
CYQM;2005-08-07 08:00;METAR CYQM 070800Z 21005KT 15SM FEW020 11/10 A3012 RMK SC1 SLP200=
CYQM;2005-08-07 09:00;METAR CYQM 070900Z 21008KT 15SM FEW260 11/10 A3013 RMK CI1 SLP203=
CYQM;2005-08-07 11:00;METAR CYQM 071100Z 22006KT 15SM FEW260 13/10 A3015 RMK CI1 SLP210=
CYQM;2005-08-07 12:00;METAR CYQM 071200Z 23007KT 15SM SCT260 16/12 A3015 RMK CI1 SLP212=
CYQM;2005-08-07 13:00;METAR CYQM 071300Z 21007KT 15SM SCT260 19/13 A3015 RMK CI1 SLP211=
CYQM;2005-08-07 14:00;METAR CYQM 071400Z 22006KT 15SM SCT260 23/14 A3015 RMK CI2 SLP210=
CYQM;2005-08-07 15:00;METAR CYQM 071500Z 25008KT 15SM FEW030 SCT260 25/12 A3014 RMK CU1CI2 SLP206=
CYQM;2005-08-07 16:00;METAR CYQM 071600Z 24009KT 15SM FEW035 FEW260 25/12 A3011 RMK CU1CI1 SLP198=
CYQM;2005-08-07 17:00;METAR CYQM 071700Z 22012KT 15SM FEW035 FEW260 26/12 A3010 RMK CU1CI1 SLP193=
CYQM;2005-08-07 18:00;METAR CYQM 071800Z 25009G15KT 15SM FEW040 FEW260 27/13 A3008 RMK CU1CI1 SLP187=
CYQM;2005-08-07 19:00;METAR CYQM 071900Z 23008KT 15SM FEW040 FEW260 27/12 A3006 RMK CU1CI1 SLP181=
CYQM;2005-08-07 20:00;METAR CYQM 072000Z 24012KT 15SM FEW040 FEW260 27/12 A3005 RMK CU1CI1 SLP176=
CYQM;2005-08-07 21:00;METAR CYQM 072100Z 22012G17KT 15SM FEW040 FEW260 26/12 A3004 RMK CU1CI1 SLP173=
CYQM;2005-08-07 22:00;METAR CYQM 072200Z 20014KT 15SM FEW040 FEW260 25/11 A3003 RMK CU1CI1 SLP169=
CYQM;2005-08-07 23:00;METAR CYQM 072300Z 21009KT 15SM FEW260 23/11 A3003 RMK CI2 SLP169=
CYQM;2005-08-08 00:00;METAR CYQM 080000Z 19007KT 15SM FEW260 21/11 A3003 RMK CI2 SLP169=
CYQM;2005-08-08 01:00;METAR CYQM 080100Z 20006KT 15SM FEW260 19/11 A3003 RMK CI2 SLP171=
CYQM;2005-08-08 03:00;METAR CYQM 080300Z 21008KT 15SM SKC 17/11 A3004 RMK SLP172=
CYQM;2005-08-08 04:00;METAR CYQM 080400Z 20008KT 15SM SKC 17/11 A3004 RMK SLP172=
CYQM;2005-08-08 05:00;METAR CYQM 080500Z 22008KT 15SM FEW120 16/10 A3003 RMK AC1 SLP169=
CYQM;2005-08-08 06:00;METAR CYQM 080600Z 21008KT 15SM FEW040 17/11 A3002 RMK SC2 SLP166=
CYQM;2005-08-08 07:00;METAR CYQM 080700Z 22006KT 15SM SKC 15/11 A3002 RMK SLP165=
CYQM;2005-08-08 09:00;METAR CYQM 080900Z 23008KT 15SM FEW040 FEW260 15/12 A3002 RMK SC1CI1 SLP166=
CYQM;2005-08-08 10:00;METAR CYQM 081000Z 22006KT 15SM FEW040 SCT260 15/12 A3003 RMK SC1CI2 SLP171=
CYQM;2005-08-08 11:00;METAR CYQM 081100Z 23010KT 15SM FEW040 SCT260 17/14 A3004 RMK SC1CI2 SLP172=
CYQM;2005-08-08 12:00;METAR CYQM 081200Z 23010KT 15SM FEW100 SCT250 19/15 A3006 RMK AC1CI2 SLP178=
CYQM;2005-08-08 13:00;METAR CYQM 081300Z 22011KT 15SM FEW100 SCT250 21/15 A3007 RMK AC1CI2 SLP183=
CYQM;2005-08-08 14:00;METAR CYQM 081400Z 21007KT 15SM FEW050 SCT250 23/17 A3007 RMK SC2CI1 SLP182=
CYQM;2005-08-08 15:00;METAR CYQM 081500Z 25005KT 15SM FEW100 FEW250 25/17 A3006 RMK AC1CI1 SLP181=
CYQM;2005-08-08 16:00;METAR CYQM 081600Z 26006KT 15SM FEW040 FEW250 26/17 A3006 RMK CU1CI1 SLP181=
CYQM;2005-08-08 17:00;METAR CYQM 081700Z 20007KT 15SM FEW040 FEW250 27/17 A3006 RMK CU1CI1 SLP178=
CYQM;2005-08-08 18:00;METAR CYQM 081800Z 26006KT 15SM FEW040 28/17 A3005 RMK CU2 SLP177=
CYQM;2005-08-08 19:00;METAR CYQM 081900Z 25008KT 15SM FEW040 27/17 A3005 RMK CU2 SLP177=
CYQM;2005-08-08 20:00;METAR CYQM 082000Z 21008KT 15SM FEW040 29/17 A3004 RMK CU2 SLP174=
CYQM;2005-08-08 21:00;METAR CYQM 082100Z 25009KT 15SM FEW045 SCT300 28/16 A3004 RMK CU2CI0 SLP172=
CYQM;2005-08-08 22:00;METAR CYQM 082200Z 19006KT 15SM SCT045 SCT300 27/17 A3004 RMK SC3CI0 SLP172=
CYQM;2005-08-08 23:00;METAR CYQM 082300Z 18005KT 15SM FEW040 FEW300 25/18 A3005 RMK SC1CI0 CONTRAILS SLP176=
CYQM;2005-08-09 00:00;METAR CYQM 090000Z 17005KT 15SM FEW040 FEW280 22/17 A3006 RMK SC1CI0 CONTRAILS SLP179=
CYQM;2005-08-09 01:00;METAR CYQM 090100Z 18007KT 15SM FEW030 FEW280 20/16 A3007 RMK SC1CI0 SLP184=
CYQM;2005-08-09 03:00;METAR CYQM 090300Z 22007KT 15SM SKC 18/15 A3008 RMK SLP185=
CYQM;2005-08-09 04:00;METAR CYQM 090400Z 21007KT 15SM FEW280 17/15 A3008 RMK CI1 SLP186=
CYQM;2005-08-09 06:00;METAR CYQM 090600Z 19006KT 15SM SKC 15/14 A3007 RMK SLP184=
CYQM;2005-08-09 07:00;METAR CYQM 090700Z 18006KT 15SM SKC 15/14 A3008 RMK SLP186=
CYQM;2005-08-09 08:00;METAR CYQM 090800Z 19007KT 15SM FEW025 FEW045 15/14 A3007 RMK CF1SC1 SLP184=
CYQM;2005-08-09 09:00;METAR CYQM 090900Z 20007KT 15SM FEW250 15/14 A3007 RMK CI1 SLP184=
CYQM;2005-08-09 10:00;METAR CYQM 091000Z 18008KT 15SM FEW250 15/14 A3008 RMK CI1 SLP185=
CYQM;2005-08-09 11:00;METAR CYQM 091100Z 18006KT 15SM FEW250 18/15 A3007 RMK CI1 SLP182=
CYQM;2005-08-09 12:00;METAR CYQM 091200Z 19005KT 15SM FEW250 21/16 A3006 RMK CI1 SLP181=
CYQM;2005-08-09 13:00;METAR CYQM 091300Z 19005KT 15SM FEW250 23/17 A3006 RMK CI1 SLP178=
CYQM;2005-08-09 14:00;METAR CYQM 091400Z 18006KT 15SM FEW250 25/17 A3005 RMK CI1 SLP177=
CYQM;2005-08-09 15:00;METAR CYQM 091500Z 18006KT 15SM FEW250 27/18 A3004 RMK CI2 SLP173=
CYQM;2005-08-09 16:00;METAR CYQM 091600Z 18007KT 15SM FEW250 28/18 A3003 RMK CI2 SLP168=
CYQM;2005-08-09 17:00;METAR CYQM 091700Z 16009KT 15SM FEW250 28/19 A3000 RMK CI2 SLP159=
CYQM;2005-08-09 18:00;METAR CYQM 091800Z 21014G19KT 15SM FEW250 30/16 A2998 RMK CI2 SLP153=
CYQM;2005-08-09 19:00;METAR CYQM 091900Z 21013G19KT 12SM FEW250 29/18 A2995 RMK CI1 SLP142=
CYQM;2005-08-09 20:00;METAR CYQM 092000Z 21014G20KT 12SM FEW030 28/19 A2995 RMK CF1 SLP142=
CYQM;2005-08-09 21:31;SPECI CYQM 092131Z 20015G22KT 3SM HZ FEW035 FEW270 25/ RMK CF1CI1=
CYQM;2005-08-09 22:00;METAR CYQM 092200Z 20017KT 3SM HZ FEW035 FEW270 25/19 A2995 RMK CF1CI1 SLP144=
CYQM;2005-08-09 23:00;METAR CYQM 092300Z 19011KT 3SM HZ FEW270 24/19 A2995 RMK CI1 SLP143=
CYQM;2005-08-10 00:00;METAR CYQM 100000Z 19010KT 3SM HZ FEW250 22/18 A2995 RMK CI1 SLP141=
CYQM;2005-08-10 00:23;SPECI CYQM 100023Z 19009KT 6SM HZ FEW250 22/ RMK CI1=
CYQM;2005-08-10 01:00;METAR CYQM 100100Z 19009KT 8SM FEW260 22/16 A2995 RMK CI1 SLP142=
CYQM;2005-08-10 02:00;METAR CYQM 100200Z 19006KT 10SM FEW260 21/14 A2996 RMK CI0 SLP146=
CYQM;2005-08-10 03:00;METAR CYQM 100300Z 18007KT 12SM SKC 20/14 A2995 RMK SLP143=
CYQM;2005-08-10 04:00;METAR CYQM 100400Z 23008KT 12SM FEW260 19/14 A2996 RMK CI1 SLP146=
CYQM;2005-08-10 05:00;METAR CYQM 100500Z 18005KT 15SM FEW260 18/15 A2995 RMK CI1 SLP140=
CYQM;2005-08-10 06:00;METAR CYQM 100600Z 19009KT 12SM FEW260 20/15 A2994 RMK CI1 SLP137=
CYQM;2005-08-10 07:00;METAR CYQM 100700Z 18010KT 15SM SKC 20/16 A2991 RMK SLP129=
CYQM;2005-08-10 09:00;METAR CYQM 100900Z 20008KT 10SM SCT260 19/16 A2991 RMK CI2 SLP128=
CYQM;2005-08-10 10:00;METAR CYQM 101000Z 22005KT 10SM FEW012 BKN260 19/16 A2993 RMK CU1CI6 SLP136=
CYQM;2005-08-10 11:00;METAR CYQM 101100Z 18008KT 10SM FEW012 BKN260 19/17 A2994 RMK CF1CI6 SLP137=
CYQM;2005-08-10 12:00;METAR CYQM 101200Z 21006KT 12SM BKN260 22/18 A2994 RMK CI6 SLP138=
CYQM;2005-08-10 13:00;METAR CYQM 101300Z 22008KT 12SM BKN260 24/19 A2992 RMK CI6 SLP131=
CYQM;2005-08-10 14:00;METAR CYQM 101400Z 19009KT 12SM FEW140 BKN260 26/20 A2991 RMK AC1CI5 SLP130=
CYQM;2005-08-10 15:00;METAR CYQM 101500Z 20011G17KT 12SM FEW030 FEW140 BKN260 28/20 A2990 RMK CU1AC1CI5 TR CU SLP126=
CYQM;2005-08-10 16:00;METAR CYQM 101600Z 20012G17KT 12SM FEW030 FEW140 BKN260 28/20 A2989 RMK CU1AC1CI3 TR CU SLP123=
CYQM;2005-08-10 17:00;METAR CYQM 101700Z 21012G19KT 12SM FEW035 FEW140 SCT260 29/20 A2988 RMK CU1AC1CI2 SLP119=
CYQM;2005-08-10 18:00;METAR CYQM 101800Z 22017G24KT 12SM FEW040 FEW140 SCT260 30/19 A2987 RMK CU1AC1CI1 SLP116=
CYQM;2005-08-10 21:00;METAR CYQM 102100Z 22013G19KT 12SM FEW140 29/18 A2985 RMK AC1 SLP107=
CYQM;2005-08-10 22:00;METAR CYQM 102200Z 21016G21KT 12SM FEW120 27/18 A2985 RMK AC1 SLP109=
CYQM;2005-08-10 23:00;METAR CYQM 102300Z 19013KT 12SM FEW260 25/17 A2986 RMK CI1 SLP112=
CYQM;2005-08-11 00:00;METAR CYQM 110000Z 20015G24KT 12SM FEW120 FEW260 23/16 A2987 RMK AC1CI2 SLP116=
CYQM;2005-08-11 00:31;SPECI CYQM 110031Z 20013G19KT 12SM FEW120 SCT260 23/ RMK AC2CI2 LTNG=
CYQM;2005-08-11 01:00;METAR CYQM 110100Z 20015KT 15SM FEW120 SCT260 22/15 A2990 RMK AC1CI2 SLP124=
CYQM;2005-08-11 03:00;METAR CYQM 110300Z 22010KT 15SM FEW030 BKN260 21/16 A2990 RMK SC2CI2 SLP125=
CYQM;2005-08-11 04:00;METAR CYQM 110400Z 20005KT 15SM FEW120 SCT260 21/16 A2989 RMK AC2CI1 SLP121=
CYQM;2005-08-11 05:00;METAR CYQM 110500Z 18007KT 15SM FEW260 20/16 A2988 RMK CI1 SLP117=
CYQM;2005-08-11 06:00;METAR CYQM 110600Z 17008KT 15SM FEW260 19/16 A2986 RMK CI1 SLP112=
CYQM;2005-08-11 07:20;SPECI CYQM 110720Z 18005KT 15SM BKN016 18/ RMK SC7=
CYQM;2005-08-11 07:41;SPECI CYQM 110741Z 21005KT 15SM OVC013 19/ RMK SC8=
CYQM;2005-08-11 09:00;METAR CYQM 110900Z 21007KT 15SM BKN012 BKN080 BKN140 20/17 A2984 RMK SC5AC2AC1 SLP106=
CYQM;2005-08-11 10:00;METAR CYQM 111000Z 21009KT 12SM BKN012 BKN080 BKN260 20/18 A2984 RMK SC5AC1CI1 SLP105=
CYQM;2005-08-11 10:37;SPECI CYQM 111037Z 19014KT 15SM FEW012 SCT020 BKN140 BKN260 21/ RMK CF1SC3AC2CI1 TR CF=
CYQM;2005-08-11 11:00;METAR CYQM 111100Z 20013KT 15SM FEW012 SCT020 BKN140 BKN260 21/18 A2984 RMK CF1SC3AC2CI1 SLP104=
CYQM;2005-08-11 12:00;METAR CYQM 111200Z 20018KT 15SM BKN015 BKN140 BKN260 22/18 A2983 RMK SC5AC1CI1 SLP101=
CYQM;2005-08-11 13:00;METAR CYQM 111300Z 18013KT 15SM SCT015 BKN120 BKN260 23/19 A2981 RMK SC3AC2CI2 SLP094=
CYQM;2005-08-11 14:00;METAR CYQM 111400Z 21013G18KT 15SM FEW020 BKN120 BKN260 24/18 A2980 RMK CU2AC3CI1 SLP092=
CYQM;2005-08-11 15:00;METAR CYQM 111500Z 20015KT 15SM BKN020 BKN120 24/19 A2981 RMK SC6AC1 SLP093=
CYQM;2005-08-11 16:00;METAR CYQM 111600Z 23014G19KT 15SM BKN020 BKN120 25/19 A2979 RMK SC6AC1 SLP089=
CYQM;2005-08-11 17:00;METAR CYQM 111700Z 25014G24KT 15SM BKN020 BKN120 OVC260 24/19 A2980 RMK SC6AC1CI1 SLP090=
CYQM;2005-08-11 18:00;METAR CYQM 111800Z 24014KT 15SM FEW025 SCT120 BKN260 25/19 A2978 RMK CF1AC2CI1 SLP083=
CYQM;2005-08-11 19:00;METAR CYQM 111900Z 27010G15KT 15SM SCT025 BKN120 26/19 A2978 RMK CU3AC2 SLP083=
CYQM;2005-08-11 20:00;METAR CYQM 112000Z 27013KT 15SM FEW030 SCT120 BKN260 26/19 A2978 RMK CU2AC1CI3 SLP085=
CYQM;2005-08-11 22:00;METAR CYQM 112200Z 23008KT 15SM FEW035 BKN260 26/19 A2980 RMK CU2CI2 TCU ASOCTD SLP090=
CYQM;2005-08-11 23:00;METAR CYQM 112300Z 28005KT 15SM SCT035 BKN260 24/16 A2982 RMK CU3CI1 TCU ASOCTD SLP099=
CYQM;2005-08-12 00:00;METAR CYQM 120000Z 30011G16KT 15SM FEW035 FEW120 23/13 A2986 RMK CU2AC1 SLP111=
CYQM;2005-08-12 01:00;METAR CYQM 120100Z 31006KT 15SM FEW120 20/10 A2988 RMK AC1 SLP119=
CYQM;2005-08-12 02:00;METAR CYQM 120200Z 31011KT 15SM FEW120 20/08 A2992 RMK AC1 SLP130=
CYQM;2005-08-12 03:00;METAR CYQM 120300Z 02008KT 15SM SKC 17/09 A2994 RMK SLP138=
CYQM;2005-08-12 04:00;METAR CYQM 120400Z 33005KT 15SM SKC 15/08 A2995 RMK SLP142=
CYQM;2005-08-12 05:00;METAR CYQM 120500Z 24002KT 15SM FEW260 16/08 A2996 RMK CI1 SLP145=
CYQM;2005-08-12 06:00;METAR CYQM 120600Z 22006KT 15SM SKC 13/09 A2996 RMK SLP146=
CYQM;2005-08-12 08:00;METAR CYQM 120800Z 22009KT 15SM FEW260 12/10 A2998 RMK CI1 SLP153=
CYQM;2005-08-12 09:00;METAR CYQM 120900Z 22008KT 15SM FEW180 BKN260 11/09 A2999 RMK AC1CI3 SLP156=
CYQM;2005-08-12 11:00;METAR CYQM 121100Z 23007KT 15SM BKN230 13/10 A3002 RMK CI5 SLP167=
CYQM;2005-08-12 12:00;METAR CYQM 121200Z 22008KT 15SM BKN250 15/10 A3003 RMK CI3 SLP169=
CYQM;2005-08-12 13:00;METAR CYQM 121300Z 22007KT 15SM BKN250 16/10 A3004 RMK CI3 SLP173=
CYQM;2005-08-12 14:00;METAR CYQM 121400Z 22007KT 15SM FEW220 BKN270 20/12 A3005 RMK CC2CI2 SLP175=
CYQM;2005-08-12 15:00;METAR CYQM 121500Z 23009KT 15SM FEW030 BKN270 22/12 A3004 RMK CF1CI3 SLP172=
CYQM;2005-08-12 16:00;METAR CYQM 121600Z 25012KT 15SM FEW030 SCT080 BKN270 24/11 A3002 RMK CU2AC1CI2 SLP167=
CYQM;2005-08-12 17:00;METAR CYQM 121700Z 23010G19KT 15SM FEW035 SCT160 BKN270 24/10 A3001 RMK CU2AC2CI2 SLP163=
CYQM;2005-08-12 18:00;METAR CYQM 121800Z 22011KT 15SM SCT040 SCT270 25/11 A3000 RMK CU3CI1 SLP161=
CYQM;2005-08-12 19:00;METAR CYQM 121900Z 26005KT 15SM FEW040 FEW270 25/12 A2998 RMK CU2CI1 SLP153=
CYQM;2005-08-12 20:00;METAR CYQM 122000Z 21012KT 15SM FEW045 SCT270 25/11 A2998 RMK CU2CI0 SLP154=
CYQM;2005-08-12 21:00;METAR CYQM 122100Z 22012KT 15SM FEW045 BKN220 24/11 A2998 RMK CU2CI3 SLP153=
CYQM;2005-08-12 22:00;METAR CYQM 122200Z 23008KT 15SM FEW045 BKN220 23/11 A2997 RMK CU1CI4 SLP150=
CYQM;2005-08-12 23:00;METAR CYQM 122300Z 20004KT 15SM FEW080 BKN220 21/12 A2997 RMK AC1CI4 SLP150=
CYQM;2005-08-13 00:00;METAR CYQM 130000Z 19005KT 15SM FEW080 BKN200 19/12 A2997 RMK AC1CI4 SLP151=
CYQM;2005-08-13 01:00;METAR CYQM 130100Z 20006KT 15SM FEW080 BKN230 18/11 A2998 RMK AC1CI2 SLP152=
CYQM;2005-08-13 02:00;METAR CYQM 130200Z 22006KT 15SM FEW120 BKN230 17/10 A2999 RMK AC2CI2 SLP156=
CYQM;2005-08-13 03:00;METAR CYQM 130300Z 20005KT 15SM FEW120 BKN230 17/10 A2998 RMK AC2CI2 SLP152=
CYQM;2005-08-13 04:00;METAR CYQM 130400Z 20006KT 15SM FEW100 SCT220 17/09 A2997 RMK AC2CI2 SLP149=
CYQM;2005-08-13 06:00;METAR CYQM 130600Z 15005KT 15SM SCT050 BKN080 15/10 A2994 RMK SC3AC4 SLP139=
CYQM;2005-08-13 07:00;METAR CYQM 130700Z 16005KT 15SM FEW050 BKN080 15/10 A2992 RMK SC2AC3 SLP134=
CYQM;2005-08-13 09:00;METAR CYQM 130900Z 14005KT 15SM -SHRA BKN045 BKN070 OVC120 16/11 A2989 RMK SC6AC1AC1 SLP123=
CYQM;2005-08-13 09:37;SPECI CYQM 130937Z 13004KT 15SM SCT035 BKN050 OVC090 16/ RMK SC3SC4AC1=
CYQM;2005-08-13 10:00;METAR CYQM 131000Z 15004KT 15SM FEW020 BKN045 BKN080 OVC140 16/12 A2988 RMK SC1SC4AC2AC1 DIST SHS N SLP119=
CYQM;2005-08-13 10:07;SPECI CYQM 131007Z 16006KT 15SM -SHRA FEW020 BKN045 OVC080 16/ RMK SC1SC6AC2=
CYQM;2005-08-13 10:26;SPECI CYQM 131026Z 17005KT 15SM BKN045 OVC120 16/ RMK SC6AC2=
CYQM;2005-08-13 10:46;SPECI CYQM 131046Z 16009KT 12SM -SHRA BKN040 OVC100 16/ RMK SC6AC2=
CYQM;2005-08-13 11:00;METAR CYQM 131100Z 15012KT 12SM -SHRA BKN035 OVC120 16/12 A2986 RMK SC6AC2 SLP111=
CYQM;2005-08-13 12:00;METAR CYQM 131200Z 16013G18KT 12SM -SHRA BKN035 OVC090 16/12 A2985 RMK SC7AC1 PRES UNSTDY SLP108=
CYQM;2005-08-13 12:33;SPECI CYQM 131233Z 17014G20KT 12SM -SHRA SCT008 BKN017 OVC050 15/ RMK SF3SC4SC1=
CYQM;2005-08-13 13:00;METAR CYQM 131300Z 16013G19KT 2SM +SHRA BR FEW005 BKN008 OVC020 15/13 A2982 RMK CF2SC6SC1 SLP098=
CYQM;2005-08-13 13:31;SPECI CYQM 131331Z 16012G19KT 7SM -SHRA FEW004 BKN008 OVC020 15/ RERA RMK SF1SC6SC1=
CYQM;2005-08-13 13:52;SPECI CYQM 131352Z 16014KT 8SM FEW005 BKN010 OVC040 16/ RERA RMK SF1SC6SC2=
CYQM;2005-08-13 14:00;METAR CYQM 131400Z 16015G21KT 8SM FEW005 BKN011 OVC040 16/14 A2978 RERA RMK SF1SC6SC1 SLP087=
CYQM;2005-08-13 15:00;METAR CYQM 131500Z 17012KT 15SM FEW008 BKN012 OVC050 17/15 A2977 RMK CF1SC7SC1 SLP083=
CYQM;2005-08-13 16:00;METAR CYQM 131600Z 18009KT 15SM FEW010 BKN017 OVC060 18/16 A2977 RMK CF1SC7SC1 SLP081=
CYQM;2005-08-13 17:00;METAR CYQM 131700Z 16009KT 15SM BKN020 21/18 A2974 RMK SC7 SLP071=
CYQM;2005-08-13 18:00;METAR CYQM 131800Z 18011KT 12SM BKN030 BKN270 23/18 A2973 RMK SC5CI1 SLP066=
CYQM;2005-08-13 19:00;METAR CYQM 131900Z 16006KT 10SM BKN030 BKN270 23/19 A2973 RMK SC7CI1 SLP066=
CYQM;2005-08-13 21:00;METAR CYQM 132100Z 22008KT 12SM FEW035 BKN250 25/19 A2973 RMK CU2CI3 SLP066=
CYQM;2005-08-13 22:00;METAR CYQM 132200Z 20007KT 12SM FEW035 BKN250 24/19 A2973 RMK CU2CI3 SLP068=
CYQM;2005-08-13 23:00;METAR CYQM 132300Z 13007KT 10SM FEW035 BKN250 20/18 A2973 RMK CU2CI3 SLP069=
CYQM;2005-08-14 00:00;METAR CYQM 140000Z 14007KT 10SM FEW100 BKN250 18/16 A2975 RMK AC2CI3 SLP077=
CYQM;2005-08-14 01:00;METAR CYQM 140100Z 16007KT 10SM FEW030 SCT080 BKN250 17/16 A2978 RMK CU2AC2CI1 SLP086=
CYQM;2005-08-14 03:00;METAR CYQM 140300Z 19005KT 10SM FEW030 FEW080 SCT250 18/17 A2980 RMK CU1AC2CI1 SLP091=
CYQM;2005-08-14 05:00;METAR CYQM 140500Z 21007KT 10SM FEW080 FEW220 18/16 A2981 RMK AC1CI2 SLP095=
CYQM;2005-08-14 06:00;METAR CYQM 140600Z 22007KT 10SM FEW080 FEW220 17/16 A2982 RMK AC1CI1 SLP100=
CYQM;2005-08-14 07:00;METAR CYQM 140700Z 24007KT 10SM FEW080 FEW220 17/16 A2983 RMK AC1CI1 SLP103=
CYQM;2005-08-14 08:00;METAR CYQM 140800Z 23007KT 10SM FEW080 BKN220 17/16 A2984 RMK AC2CI5 SLP105=
CYQM;2005-08-14 10:00;METAR CYQM 141000Z 22007KT 8SM BKN085 BKN140 BKN260 17/16 A2987 RMK AC6AC1CI1 SLP116=
CYQM;2005-08-14 11:00;METAR CYQM 141100Z 23007KT 10SM BKN090 BKN260 18/16 A2990 RMK AC7CI1 SLP125=
CYQM;2005-08-14 12:00;METAR CYQM 141200Z 23009KT 15SM FEW090 SCT140 SCT270 19/17 A2991 RMK AC2AC1CI1 SLP128=
CYQM;2005-08-14 13:00;METAR CYQM 141300Z 23006KT 15SM BKN100 BKN270 22/16 A2992 RMK AC6CI1 SLP131=
CYQM;2005-08-14 14:00;METAR CYQM 141400Z 24007KT 15SM FEW060 BKN090 BKN270 24/17 A2992 RMK SC1AC6CI1 SLP133=
CYQM;2005-08-14 15:00;METAR CYQM 141500Z 24002KT 15SM FEW060 BKN100 BKN270 25/17 A2992 RMK SC2AC3CI1 SLP133=
CYQM;2005-08-14 16:00;METAR CYQM 141600Z 22008KT 15SM FEW030 FEW060 BKN100 BKN270 26/15 A2992 RMK CU1SC1AC5CI1 SLP132=
CYQM;2005-08-14 17:00;METAR CYQM 141700Z 29003KT 15SM BKN035 BKN055 BKN100 25/16 A2991 RMK CU5SC1AC1 SLP130=
CYQM;2005-08-14 18:00;METAR CYQM 141800Z 28004KT 15SM BKN035 BKN090 26/15 A2991 RMK CU5AC2 SLP130=
CYQM;2005-08-14 20:00;METAR CYQM 142000Z 02006KT 15SM -SHRA BKN040 OVC080 21/16 A2996 RMK SC6AC2 SLP146=
CYQM;2005-08-14 20:33;SPECI CYQM 142033Z 02006KT 15SM BKN040 OVC080 21/ RMK SC6AC2=
CYQM;2005-08-14 21:00;METAR CYQM 142100Z 03005KT 15SM FEW040 OVC080 20/16 A2996 RMK SC2AC6 SLP145=
CYQM;2005-08-14 21:05;SPECI CYQM 142105Z 03005KT 15SM -SHRA FEW040 OVC080 20/ RMK SC2AC6=
CYQM;2005-08-14 21:44;SPECI CYQM 142144Z 04002KT 15SM FEW040 OVC090 20/ RMK SC2AC6=
CYQM;2005-08-14 22:00;METAR CYQM 142200Z 05002KT 15SM FEW040 OVC090 20/15 A2996 RMK SC1AC7 SLP146=
CYQM;2005-08-14 23:00;METAR CYQM 142300Z 00000KT 15SM FEW040 OVC090 19/15 A2998 RMK SC1AC7 SLP152=
CYQM;2005-08-15 00:00;METAR CYQM 150000Z 18005KT 15SM BKN090 18/15 A3000 RMK AC7 SLP159=
CYQM;2005-08-15 01:00;METAR CYQM 150100Z 19004KT 15SM OVC100 18/15 A3000 RMK AC8 SLP161=
CYQM;2005-08-15 02:41;SPECI CYQM 150241Z 26003KT 15SM -SHRA OVC090 18/ RMK AC8=
CYQM;2005-08-15 03:00;METAR CYQM 150300Z 27003KT 15SM -SHRA OVC090 18/15 A3001 RMK AC8 SLP163=
CYQM;2005-08-15 04:00;METAR CYQM 150400Z 32005KT 15SM -SHRA OVC090 17/15 A3002 RMK AC8 SLP167=
CYQM;2005-08-15 04:17;SPECI CYQM 150417Z 33004KT 15SM OVC100 17/ RMK AC8=
CYQM;2005-08-15 05:00;METAR CYQM 150500Z 34006KT 15SM OVC100 17/14 A3002 RMK AC8 SLP166=
CYQM;2005-08-15 05:08;SPECI CYQM 150508Z 34005KT 15SM -SHRA OVC100 17/ RMK AC8=
CYQM;2005-08-15 06:00;METAR CYQM 150600Z 35004KT 15SM -SHRA OVC100 16/14 A3001 RMK AC8 SLP164=
CYQM;2005-08-15 06:27;SPECI CYQM 150627Z 34003KT 15SM OVC100 16/ RMK AC8=
CYQM;2005-08-15 07:00;METAR CYQM 150700Z 33002KT 15SM OVC100 16/14 A3001 RMK AC8 SLP163=
CYQM;2005-08-15 07:13;SPECI CYQM 150713Z 30002KT 15SM -SHRA OVC090 16/ RMK AC8=
CYQM;2005-08-15 08:00;METAR CYQM 150800Z 32003KT 15SM -SHRA BKN055 OVC090 16/14 A3003 RMK SC5AC3 SLP168=
CYQM;2005-08-15 08:25;SPECI CYQM 150825Z 31004KT 15SM SCT055 BKN120 16/ RMK SC3AC4=
CYQM;2005-08-15 09:00;METAR CYQM 150900Z 00000KT 15SM BKN055 BKN120 16/13 A3004 RMK SC6AC2 SLP172=
CYQM;2005-08-15 10:00;METAR CYQM 151000Z 30005KT 15SM FEW018 SCT050 BKN120 16/14 A3006 RMK CU1SC2AC4 SLP181=
CYQM;2005-08-15 11:00;METAR CYQM 151100Z 24003KT 15SM FEW050 BKN100 16/14 A3007 RMK SC2AS6 SLP183=
CYQM;2005-08-15 12:00;METAR CYQM 151200Z 32004KT 15SM FEW050 BKN100 BKN220 17/12 A3009 RMK SC1AS6CI1 SLP190=
CYQM;2005-08-15 13:00;METAR CYQM 151300Z 31005KT 15SM FEW050 BKN120 BKN220 17/12 A3010 RMK SC1AC6CI1 AS ASOCTD SLP194=
CYQM;2005-08-15 14:00;METAR CYQM 151400Z 35005KT 15SM FEW020 BKN120 18/14 A3011 RMK CU1AS6 SLP196=
CYQM;2005-08-15 15:00;METAR CYQM 151500Z 03004KT 15SM FEW020 BKN120 19/15 A3010 RMK CU1AS6 SLP194=
CYQM;2005-08-15 16:00;METAR CYQM 151600Z 28002KT 15SM FEW030 BKN120 BKN260 19/15 A3011 RMK CU1AS5CI1 SLP196=
CYQM;2005-08-15 17:00;METAR CYQM 151700Z 01003KT 15SM FEW030 BKN120 BKN260 21/13 A3010 RMK CU1AS4CI1 SLP195=
CYQM;2005-08-15 18:00;METAR CYQM 151800Z 07006KT 15SM FEW030 FEW140 BKN260 22/12 A3011 RMK CU2AC1CI2 SLP196=
CYQM;2005-08-15 19:00;METAR CYQM 151900Z 03007KT 15SM FEW030 SCT140 BKN260 22/10 A3010 RMK CU2AC2CI2 SLP195=
CYQM;2005-08-15 20:00;METAR CYQM 152000Z 04007KT 15SM FEW035 FEW140 BKN260 22/11 A3011 RMK CU2AC1CI2 SLP196=
CYQM;2005-08-15 21:00;METAR CYQM 152100Z 04005KT 15SM FEW040 FEW140 SCT260 22/10 A3011 RMK CU1AC1CI2 TCU ASOCTD E SLP196=
CYQM;2005-08-15 22:00;METAR CYQM 152200Z 09005KT 15SM FEW040 SCT260 21/11 A3011 RMK CU1CI1 TCU ASOCTD E SLP197=
CYQM;2005-08-15 23:00;METAR CYQM 152300Z 11005KT 15SM FEW035 FEW260 20/12 A3012 RMK SC1CI1 CU ASOCTD SLP200=
CYQM;2005-08-16 00:00;METAR CYQM 160000Z 14005KT 15SM FEW030 FEW260 19/12 A3013 RMK SC1CI1 SLP203=
CYQM;2005-08-16 03:00;METAR CYQM 160300Z 20004KT 15SM SKC 14/11 A3014 RMK SLP208=
CYQM;2005-08-16 04:00;METAR CYQM 160400Z 21004KT 15SM SKC 13/11 A3014 RMK SLP208=
CYQM;2005-08-16 05:00;METAR CYQM 160500Z 22004KT 15SM SKC 12/11 A3013 RMK SLP204=
CYQM;2005-08-16 06:00;METAR CYQM 160600Z 22003KT 15SM SKC 11/11 A3013 RMK SLP203=
CYQM;2005-08-16 07:00;METAR CYQM 160700Z 21004KT 15SM SKC 11/10 A3012 RMK SLP202=
CYQM;2005-08-16 08:00;METAR CYQM 160800Z 22005KT 15SM FEW030 09/09 A3013 RMK SC1 SLP204=
CYQM;2005-08-16 10:00;METAR CYQM 161000Z 22006KT 15SM SKC 10/09 A3014 RMK SLP208=
CYQM;2005-08-16 11:00;METAR CYQM 161100Z 21003KT 15SM SKC 11/10 A3015 RMK SLP210=
CYQM;2005-08-16 12:00;METAR CYQM 161200Z 22005KT 15SM SKC 15/12 A3014 RMK SLP209=
CYQM;2005-08-16 13:00;METAR CYQM 161300Z 22006KT 15SM FEW260 19/14 A3014 RMK CI0 SLP206=
CYQM;2005-08-16 14:00;METAR CYQM 161400Z 24007KT 15SM FEW027 FEW260 22/14 A3012 RMK CU1CI1 SLP202=
CYQM;2005-08-16 15:00;METAR CYQM 161500Z 24009KT 15SM FEW027 FEW260 23/15 A3011 RMK CU1CI1 SLP197=
CYQM;2005-08-16 16:00;METAR CYQM 161600Z 23008KT 15SM FEW030 SCT260 24/14 A3008 RMK CU2CI1 SLP188=
CYQM;2005-08-16 17:00;METAR CYQM 161700Z 14004KT 15SM SCT030 BKN260 24/13 A3006 RMK CU3CI1 SLP182=
CYQM;2005-08-16 18:00;METAR CYQM 161800Z 20008KT 15SM FEW035 BKN260 24/13 A3004 RMK CU2CI2 SLP175=
CYQM;2005-08-16 19:00;METAR CYQM 161900Z 16011KT 15SM FEW035 BKN260 24/13 A3003 RMK CU2CI2 SLP170=
CYQM;2005-08-16 20:00;METAR CYQM 162000Z 16011G17KT 15SM FEW035 BKN260 24/12 A3002 RMK CU1CI3 SLP167=
CYQM;2005-08-16 21:00;METAR CYQM 162100Z 16012KT 15SM FEW040 BKN260 23/13 A3001 RMK CU1CI5 SLP164=
CYQM;2005-08-16 22:00;METAR CYQM 162200Z 17008KT 15SM FEW040 BKN260 22/12 A2999 RMK CU1CI5 SLP156=
CYQM;2005-08-16 23:00;METAR CYQM 162300Z 17007KT 15SM FEW030 SCT260 20/12 A2997 RMK SC1CI2 SLP151=
CYQM;2005-08-17 00:00;METAR CYQM 170000Z 18002KT 15SM FEW030 FEW260 18/11 A2997 RMK SC1CI2 SLP149=
CYQM;2005-08-17 01:00;METAR CYQM 170100Z 19005KT 15SM FEW260 17/12 A2997 RMK CI1 SLP149=
CYQM;2005-08-17 02:00;METAR CYQM 170200Z 15005KT 15SM FEW050 16/11 A2996 RMK SC1 SLP145=
CYQM;2005-08-17 03:00;METAR CYQM 170300Z 17005KT 15SM SKC 14/12 A2994 RMK SLP140=
CYQM;2005-08-17 04:00;METAR CYQM 170400Z 21007KT 15SM SKC 15/10 A2993 RMK SLP137=
CYQM;2005-08-17 05:00;METAR CYQM 170500Z 16006KT 15SM SKC 14/10 A2990 RMK SLP127=
CYQM;2005-08-17 06:00;METAR CYQM 170600Z 19006KT 15SM FEW100 13/10 A2989 RMK AC1 SLP123=
CYQM;2005-08-17 07:00;METAR CYQM 170700Z 17005KT 15SM FEW100 13/10 A2987 RMK AC2 SLP117=
CYQM;2005-08-17 08:00;METAR CYQM 170800Z 18005KT 15SM FEW100 13/11 A2985 RMK AC2 SLP108=
CYQM;2005-08-17 09:00;METAR CYQM 170900Z 18006KT 15SM SCT080 12/10 A2984 RMK AC4 SLP104=
CYQM;2005-08-17 10:00;METAR CYQM 171000Z 18005KT 15SM FEW040 BKN080 13/11 A2983 RMK SC2AC3 SLP102=
CYQM;2005-08-17 11:00;METAR CYQM 171100Z 19005KT 15SM FEW040 SCT080 14/12 A2981 RMK SC2AC2 SLP097=
CYQM;2005-08-17 12:00;METAR CYQM 171200Z 22007KT 15SM FEW020 SCT080 BKN200 16/13 A2981 RMK CU2AC2CI1 SLP095=
CYQM;2005-08-17 13:00;METAR CYQM 171300Z 23013KT 15SM FEW020 SCT080 BKN220 18/13 A2979 RMK CU2AC2CI1 SLP089=
CYQM;2005-08-17 14:00;METAR CYQM 171400Z 22008KT 15SM FEW020 SCT080 BKN220 18/14 A2978 RMK CU2AC2CI1 SLP085=
CYQM;2005-08-17 15:00;METAR CYQM 171500Z 28009KT 15SM FEW020 SCT080 BKN220 21/14 A2978 RMK CU2AC2CI1 SLP084=
CYQM;2005-08-17 16:00;METAR CYQM 171600Z 26009KT 15SM FEW020 SCT080 BKN220 19/14 A2977 RMK CU1AC2CI1 SLP081=
CYQM;2005-08-17 17:00;METAR CYQM 171700Z 23009KT 15SM FEW030 SCT080 BKN220 21/14 A2975 RMK CU2AC2CI1 SLP077=
CYQM;2005-08-17 18:00;METAR CYQM 171800Z 25015KT 15SM FEW030 SCT080 BKN220 23/14 A2974 RMK CU2AC2CI1 SLP072=
CYQM;2005-08-17 18:52;SPECI CYQM 171852Z 22014KT 15SM TS FEW030CB SCT080 BKN220 23/ RMK CB2AC2CI1=
CYQM;2005-08-17 19:00;METAR CYQM 171900Z 23011G18KT 15SM TS VCSH FEW030CB SCT080 22/14 A2972 RMK CB2AC2 VIS W 2 SLP065=
CYQM;2005-08-17 19:05;SPECI CYQM 171905Z 23012KT 15SM -TSRA SCT030CB BKN080 22/ RMK CB3AC2 VIS W 2=
CYQM;2005-08-17 19:12;SPECI CYQM 171912Z 28023G34KT 1SM +TSRA SCT030CB BKN080 22/ RMK CB3AC2=
CYQM;2005-08-17 19:14;SPECI CYQM 171914Z 26022G35KT 1SM +TSRA SCT030CB BKN080 14/ RMK CB3AC3=
CYQM;2005-08-17 19:17;SPECI CYQM 171917Z 17007G22KT 10SM -TSRA FEW030CB SCT040 BKN080 16/ RERA RMK CB2SC2AC2 CB MOVG E=
CYQM;2005-08-17 19:30;SPECI CYQM 171930Z 24004KT 10SM TS FEW030CB SCT040 BKN080 18/ RERA RMK CB1SC2AC2 CB MOVG E VIS LWR E IN SH=
CYQM;2005-08-17 19:46;SPECI CYQM 171946Z 26004KT 15SM FEW030 SCT050 BKN080 20/ RERA RMK CU2SC2AC1=
CYQM;2005-08-17 21:00;METAR CYQM 172100Z 26010G15KT 15SM BKN040 BKN100 23/15 A2973 RMK SC5AC1 SLP067=
CYQM;2005-08-17 22:00;METAR CYQM 172200Z 29010KT 15SM SCT030 SCT100 21/10 A2974 RMK CU3AC1 SLP072=
CYQM;2005-08-17 23:00;METAR CYQM 172300Z 30011G16KT 15SM FEW030 19/09 A2977 RMK CU1 SLP083=
CYQM;2005-08-18 00:00;METAR CYQM 180000Z 30008KT 15SM FEW030 17/08 A2980 RMK SC1 SLP092=
CYQM;2005-08-18 04:00;METAR CYQM 180400Z 26007KT 15SM SKC 13/07 A2985 RMK SLP109=
CYQM;2005-08-18 05:00;METAR CYQM 180500Z 24008KT 15SM SKC 11/07 A2986 RMK SLP112=
CYQM;2005-08-18 06:00;METAR CYQM 180600Z 25010KT 15SM SKC 11/07 A2987 RMK SLP116=
CYQM;2005-08-18 07:00;METAR CYQM 180700Z 22005KT 15SM FEW170 09/07 A2987 RMK AC1 SLP117=
CYQM;2005-08-18 08:00;METAR CYQM 180800Z 21006KT 15SM SKC 09/07 A2989 RMK SLP123=
CYQM;2005-08-18 09:00;METAR CYQM 180900Z 21006KT 15SM FEW020 08/07 A2990 RMK SC1 SLP127=
CYQM;2005-08-18 10:00;METAR CYQM 181000Z 24006KT 15SM SKC 09/07 A2992 RMK SLP132=
CYQM;2005-08-18 11:00;METAR CYQM 181100Z 25010KT 15SM SKC 11/08 A2994 RMK SLP139=
CYQM;2005-08-18 12:00;METAR CYQM 181200Z 25011KT 15SM SKC 13/09 A2996 RMK SLP146=
CYQM;2005-08-18 13:00;METAR CYQM 181300Z 27007KT 15SM FEW030 15/10 A2996 RMK CF1 SLP147=
CYQM;2005-08-18 14:00;METAR CYQM 181400Z 25005KT 15SM FEW030 17/10 A2996 RMK CF1 SLP147=
CYQM;2005-08-18 15:00;METAR CYQM 181500Z 22007KT 15SM FEW030 18/11 A2996 RMK CU2 SLP148=
CYQM;2005-08-18 16:00;METAR CYQM 181600Z 22013KT 15SM SCT030 19/10 A2995 RMK CU3 TCU ASOCTD SLP144=
CYQM;2005-08-18 17:00;METAR CYQM 181700Z 28009KT 15SM SCT040 20/09 A2995 RMK CU3 TCU ASOCTD SLP142=
CYQM;2005-08-18 18:00;METAR CYQM 181800Z 25012KT 15SM SCT040 21/10 A2995 RMK CU3 TCU ASOCTD SLP142=
CYQM;2005-08-18 19:00;METAR CYQM 181900Z 28014KT 15SM SCT040 21/10 A2994 RMK CU3 TCU ASOCTD SLP141=
CYQM;2005-08-18 20:00;METAR CYQM 182000Z 27009G19KT 15SM SCT040 20/08 A2995 RMK SC4 SLP144=
CYQM;2005-08-18 21:00;METAR CYQM 182100Z 27010G15KT 15SM FEW045 20/08 A2996 RMK CU2 SLP146=
CYQM;2005-08-18 22:00;METAR CYQM 182200Z 27012G18KT 15SM FEW040 FEW260 20/06 A2997 RMK SC1CI0 SLP151=
CYQM;2005-08-18 23:00;METAR CYQM 182300Z 27008KT 15SM FEW035 SCT270 18/06 A2999 RMK SC1CI1 SLP158=
CYQM;2005-08-19 00:00;METAR CYQM 190000Z 25007KT 15SM FEW030 BKN220 15/06 A3002 RMK SC1CI4 SLP167=
CYQM;2005-08-19 01:00;METAR CYQM 190100Z 26008KT 15SM FEW025 BKN230 14/06 A3004 RMK SC1CI3 SLP174=
CYQM;2005-08-19 02:00;METAR CYQM 190200Z 22007KT 15SM FEW240 12/06 A3005 RMK CI1 SLP177=
CYQM;2005-08-19 03:00;METAR CYQM 190300Z 23007KT 15SM FEW015 FEW120 FEW240 11/06 A3006 RMK CU1AC1CI0 SLP181=
CYQM;2005-08-19 04:00;METAR CYQM 190400Z 23004KT 15SM FEW015 FEW100 10/06 A3008 RMK CU1AC1 SLP186=
CYQM;2005-08-19 05:00;METAR CYQM 190500Z 20007KT 15SM FEW020 FEW080 FEW250 09/06 A3008 RMK CU1AC1CI0 SLP189=
CYQM;2005-08-19 06:00;METAR CYQM 190600Z 22008KT 15SM FEW020 FEW080 FEW250 08/05 A3010 RMK CU1AC1CI0 SLP194=
CYQM;2005-08-19 08:00;METAR CYQM 190800Z 22007KT 15SM FEW017 07/05 A3014 RMK SC1 SLP207=
CYQM;2005-08-19 10:00;METAR CYQM 191000Z 23007KT 15SM FEW020 06/05 A3017 RMK SC1 SLP217=
CYQM;2005-08-19 11:00;METAR CYQM 191100Z 22006KT 15SM FEW020 FEW220 08/06 A3018 RMK SC1CI1 SLP223=
CYQM;2005-08-19 12:00;METAR CYQM 191200Z 22006KT 15SM FEW220 11/08 A3019 RMK CI1 SLP226=
CYQM;2005-08-19 13:00;METAR CYQM 191300Z 21007KT 15SM FEW220 14/08 A3019 RMK CI1 SLP226=
CYQM;2005-08-19 14:00;METAR CYQM 191400Z 26004KT 15SM FEW030 FEW220 17/08 A3019 RMK CU1CI1 SLP227=
CYQM;2005-08-19 15:00;METAR CYQM 191500Z 26014KT 15SM FEW040 FEW250 19/07 A3019 RMK CU1CI1 SLP223=
CYQM;2005-08-19 16:00;METAR CYQM 191600Z 27008KT 15SM FEW040 FEW250 20/08 A3018 RMK CU1CI1 SLP220=
CYQM;2005-08-19 17:00;METAR CYQM 191700Z 27010KT 15SM FEW045 FEW250 21/07 A3017 RMK CU1CI1 SLP218=
CYQM;2005-08-19 18:00;METAR CYQM 191800Z 24005KT 15SM FEW045 FEW250 21/06 A3016 RMK CU1CI1 SLP215=
CYQM;2005-08-19 19:00;METAR CYQM 191900Z 20008KT 15SM FEW050 SCT250 21/07 A3015 RMK CU1CI2 SLP212=
CYQM;2005-08-19 20:00;METAR CYQM 192000Z 22008KT 15SM FEW050 FEW220 BKN250 21/06 A3015 RMK CU1CI2CI2 CC ASOCTD SLP210=
CYQM;2005-08-19 21:00;METAR CYQM 192100Z 22009G15KT 15SM FEW220 BKN260 21/07 A3014 RMK CI1CI2 SLP209=
CYQM;2005-08-19 22:00;METAR CYQM 192200Z 23010KT 15SM FEW220 BKN260 20/07 A3015 RMK CI1CI2 SLP211=
CYQM;2005-08-19 23:00;METAR CYQM 192300Z 22005KT 15SM SCT160 BKN260 18/06 A3016 RMK AS2CI2 SLP215=
CYQM;2005-08-20 00:00;METAR CYQM 200000Z 19005KT 15SM FEW160 BKN260 17/07 A3017 RMK AS2CI2 SLP219=
CYQM;2005-08-20 01:00;METAR CYQM 200100Z 21006KT 15SM FEW160 BKN260 15/07 A3019 RMK AS2CI2 SLP224=
CYQM;2005-08-20 02:00;METAR CYQM 200200Z 22007KT 15SM SCT160 OVC260 14/07 A3020 RMK AS3CI2 SLP228=
CYQM;2005-08-20 03:00;METAR CYQM 200300Z 20005KT 15SM FEW160 BKN260 13/07 A3020 RMK AS2CI2 SLP228=
CYQM;2005-08-20 04:00;METAR CYQM 200400Z 22006KT 15SM FEW160 BKN260 12/08 A3021 RMK AS2CI2 SLP230=
CYQM;2005-08-20 05:00;METAR CYQM 200500Z 22005KT 15SM BKN260 12/08 A3020 RMK CI2 SLP227=
CYQM;2005-08-20 06:00;METAR CYQM 200600Z 22004KT 15SM BKN260 11/08 A3019 RMK CI3 SLP226=
CYQM;2005-08-20 07:00;METAR CYQM 200700Z 19005KT 15SM FEW140 BKN260 09/07 A3020 RMK AC2CI2 SLP227=
CYQM;2005-08-20 08:00;METAR CYQM 200800Z 18004KT 15SM FEW120 SCT260 10/08 A3019 RMK AC2CI1 SLP225=
CYQM;2005-08-20 09:00;METAR CYQM 200900Z 18004KT 15SM FEW120 SCT260 09/08 A3020 RMK AC1CI2 SLP227=
CYQM;2005-08-20 10:00;METAR CYQM 201000Z 19002KT 15SM FEW120 SCT260 09/08 A3021 RMK AC1CI2 SLP232=
CYQM;2005-08-20 12:00;METAR CYQM 201200Z 19005KT 15SM FEW015 BKN120 BKN260 13/10 A3022 RMK SC1AC5CI2 SLP235=
CYQM;2005-08-20 13:00;METAR CYQM 201300Z 23003KT 15SM FEW020 BKN100 BKN260 16/11 A3023 RMK SC1AC6CI1 SLP239=
CYQM;2005-08-20 14:00;METAR CYQM 201400Z 00000KT 15SM BKN100 BKN260 18/11 A3022 RMK AC6CI1 SLP236=
CYQM;2005-08-20 15:00;METAR CYQM 201500Z 00000KT 15SM BKN100 OVC260 19/13 A3021 RMK AC6CI1 SLP232=
CYQM;2005-08-20 16:00;METAR CYQM 201600Z 14006KT 15SM FEW025 BKN100 19/13 A3020 RMK CU1AC7 SLP228=
CYQM;2005-08-20 17:00;METAR CYQM 201700Z 14012KT 15SM FEW025 BKN100 20/14 A3017 RMK CU1AC7 SLP219=
CYQM;2005-08-20 18:00;METAR CYQM 201800Z 15013KT 15SM FEW035 BKN100 BKN260 22/13 A3017 RMK CU1AC6CI1 SLP217=
CYQM;2005-08-20 20:00;METAR CYQM 202000Z 14012KT 15SM FEW035 BKN120 BKN260 22/14 A3013 RMK SC2AC2CI2 SLP204=
CYQM;2005-08-20 21:00;METAR CYQM 202100Z 14011KT 15SM FEW040 SCT120 BKN260 23/13 A3011 RMK SC2AC2CI1 SLP199=
CYQM;2005-08-20 22:00;METAR CYQM 202200Z 15009KT 15SM FEW040 SCT120 BKN260 21/13 A3010 RMK SC2AC2CI1 SLP194=
CYQM;2005-08-20 23:00;METAR CYQM 202300Z 16010KT 15SM FEW040 SCT120 BKN260 20/13 A3010 RMK SC1AC3CI1 SLP195=
CYQM;2005-08-21 00:00;METAR CYQM 210000Z 15013G18KT 15SM FEW045 BKN120 BKN260 20/14 A3011 RMK SC2AC4CI1 SLP196=
CYQM;2005-08-21 01:00;METAR CYQM 210100Z 14013G18KT 15SM FEW045 BKN120 BKN260 19/14 A3009 RMK SC1AC5CI1 SLP190=
CYQM;2005-08-21 02:00;METAR CYQM 210200Z 16011G16KT 15SM FEW045 OVC120 19/15 A3008 RMK SC1AC7 SLP187=
CYQM;2005-08-21 03:00;METAR CYQM 210300Z 17011KT 15SM BKN016 OVC120 18/15 A3007 RMK SC6AC2 SLP183=
CYQM;2005-08-21 03:31;SPECI CYQM 210331Z 16009KT 15SM FEW015 OVC040 18/ RMK SC2SC6=
CYQM;2005-08-21 04:00;METAR CYQM 210400Z 17013G18KT 15SM FEW015 OVC033 18/15 A3005 RMK SC2SC6 SLP175=
CYQM;2005-08-21 05:00;METAR CYQM 210500Z 15009KT 15SM OVC035 18/16 A3003 RMK SC8 SLP169=
CYQM;2005-08-21 06:00;METAR CYQM 210600Z 16014KT 15SM FEW010 FEW018 OVC035 18/16 A3000 RMK SF1SC2SC6 SLP160=
CYQM;2005-08-21 06:16;SPECI CYQM 210616Z 16014G19KT 15SM FEW008 SCT035 OVC100 18/ RMK SF1SC3AC4=
CYQM;2005-08-21 08:00;METAR CYQM 210800Z 17010G16KT 15SM FEW007 FEW012 BKN045 OVC100 18/16 A2996 RMK SF1SC2SC6AC1 SLP146=
CYQM;2005-08-21 09:00;METAR CYQM 210900Z 15012G19KT 15SM BKN045 OVC100 18/16 A2993 RMK SC5AC3 SLP136=
CYQM;2005-08-21 10:00;METAR CYQM 211000Z 17010KT 15SM FEW010 BKN020 BKN040 OVC100 18/16 A2992 RMK SF2SC5SC1AC1 SLP134=
CYQM;2005-08-21 10:22;SPECI CYQM 211022Z 17011KT 15SM -SHRA FEW008 BKN015 OVC100 19/ RMK SF2SC6AC1=
CYQM;2005-08-21 10:44;SPECI CYQM 211044Z 16013KT 15SM FEW008 BKN015 OVC100 19/ RMK SF2SC6AC1=
CYQM;2005-08-21 11:00;METAR CYQM 211100Z 16015KT 15SM FEW008 BKN015 BKN100 19/17 A2990 RMK SF1SC5AC2 SLP125=
CYQM;2005-08-21 12:00;METAR CYQM 211200Z 16011G20KT 15SM SCT008 BKN015 BKN100 19/17 A2988 RMK SF3SC2AC2 SLP119=
CYQM;2005-08-21 13:00;METAR CYQM 211300Z 18012G18KT 15SM SCT008 BKN015 OVC100 20/17 A2988 RMK SF3SC4AC1 SLP118=
CYQM;2005-08-21 14:00;METAR CYQM 211400Z 17013KT 15SM FEW008 BKN015 BKN040 BKN100 21/18 A2986 RMK SF2SC3SC1AC1 SLP112=
CYQM;2005-08-21 15:00;METAR CYQM 211500Z 17014KT 15SM FEW008 BKN015 BKN040 OVC100 22/18 A2985 RMK SF1SC5SC2AC1 SLP108=
CYQM;2005-08-21 16:00;METAR CYQM 211600Z 17015KT 15SM FEW008 BKN015 OVC100 22/19 A2982 RMK SF1SC6AC1 SH W-NW SLP098=
CYQM;2005-08-21 17:00;METAR CYQM 211700Z 18009KT 10SM -SHRA FEW008 BKN015 OVC100 22/19 A2981 RMK SF1SC6AC1 VIS W 2 SLP095=
CYQM;2005-08-21 18:00;METAR CYQM 211800Z 16007KT 12SM -SHRA FEW008 SCT015 BKN040 OVC100 21/19 A2978 RMK SF1SC3SC2AC2 SLP084=
CYQM;2005-08-21 19:00;METAR CYQM 211900Z 15011KT 15SM -SHRA FEW008 SCT040 BKN100 BKN260 22/20 A2973 RMK SF2SC2AC2CI1 PCPN VRY LGT SLP069=
CYQM;2005-08-21 19:19;SPECI CYQM 211919Z 17008KT 15SM FEW008 SCT040 BKN100 BKN260 23/ RMK SF2SC2AC2CI1=
CYQM;2005-08-21 19:42;SPECI CYQM 211942Z 18013KT 15SM FEW008 BKN013 BKN040 BKN100 22/ RMK SF1SC5SC1AC1=
CYQM;2005-08-21 20:00;METAR CYQM 212000Z 18008KT 15SM FEW008 BKN013 OVC100 22/20 A2972 RMK SF1SC6AC1 SLP066=
CYQM;2005-08-21 20:30;SPECI CYQM 212030Z 18010KT 15SM BKN016 OVC260 23/ RMK SC7CI1=
CYQM;2005-08-21 20:47;SPECI CYQM 212047Z 19009KT 15SM BKN013 OVC030 23/ RMK SC7SC1=
CYQM;2005-08-21 21:00;METAR CYQM 212100Z 18007KT 15SM BKN013 OVC030 22/20 A2971 RMK SC7SC1 SLP061=
CYQM;2005-08-21 22:00;METAR CYQM 212200Z 19005KT 15SM OVC013 22/20 A2969 RMK SC8 SLP055=
CYQM;2005-08-21 23:00;METAR CYQM 212300Z 20007KT 15SM BKN014 OVC100 22/19 A2969 RMK SC6AC2 SLP053=
CYQM;2005-08-21 23:14;SPECI CYQM 212314Z 20008KT 15SM SCT015 BKN090 OVC250 22/ RMK SC3AC4CI1=
CYQM;2005-08-21 23:52;SPECI CYQM 212352Z 20007KT 15SM -SHRA FEW015 BKN025 OVC080 21/ RMK SC2SC5AC1=
CYQM;2005-08-22 00:00;METAR CYQM 220000Z 20008KT 15SM -SHRA FEW015 OVC025 21/19 A2970 RMK SC2SC6 SLP056=
CYQM;2005-08-22 00:19;SPECI CYQM 220019Z 20009KT 15SM OVC019 21/ RMK SC8=
CYQM;2005-08-22 00:35;SPECI CYQM 220035Z 20008KT 15SM OVC014 21/ RMK SC8=
CYQM;2005-08-22 01:36;SPECI CYQM 220136Z 22008KT 15SM OVC009 21/ RMK SC8=
CYQM;2005-08-22 02:00;METAR CYQM 220200Z 23010KT 15SM OVC009 20/18 A2969 RMK SF8 SLP055=
CYQM;2005-08-22 03:00;METAR CYQM 220300Z 24015KT 15SM FEW007 OVC009 20/18 A2970 RMK SF2SF6 SLP059=
CYQM;2005-08-22 04:00;METAR CYQM 220400Z 22010KT 12SM SCT007 BKN018 19/17 A2971 RMK SF3SC2 SLP060=
CYQM;2005-08-22 04:32;SPECI CYQM 220432Z 23007KT 12SM OVC008 19/ RMK SF8=
CYQM;2005-08-22 05:00;METAR CYQM 220500Z 22011KT 12SM BKN008 19/17 A2971 RMK SF7 SLP061=
CYQM;2005-08-22 06:00;METAR CYQM 220600Z 23012G17KT 12SM OVC006 19/17 A2971 RMK SF8 SLP062=
CYQM;2005-08-22 06:24;SPECI CYQM 220624Z 25010KT 12SM FEW006 BKN100 19/ RMK SF2AC5=
CYQM;2005-08-22 07:00;METAR CYQM 220700Z 23008KT 12SM FEW006 FEW100 18/17 A2972 RMK SF1AC1 SLP063=
CYQM;2005-08-22 07:55;SPECI CYQM 220755Z 25011KT 10SM OVC004 18/ RMK SF6=
CYQM;2005-08-22 08:00;METAR CYQM 220800Z 24011KT 8SM OVC004 18/17 A2972 RMK SF7 SLP064=
CYQM;2005-08-22 08:04;SPECI CYQM 220804Z 24010G15KT 8SM OVC002 18/ RMK SF8=
CYQM;2005-08-22 08:41;SPECI CYQM 220841Z 22008KT 8SM SCT002 OVC004 18/ RMK SF4SF4=
CYQM;2005-08-22 09:00;METAR CYQM 220900Z 23007KT 1SM R29/P6000FT/N R06/P6000FT/N BR OVC002 18/17 A2973 RMK SF8 SLP066=
CYQM;2005-08-22 09:14;SPECI CYQM 220914Z 24008KT 1SM R29/P6000FT/N R06/P6000FT/N BR OVC001 17/ RMK SF8=
CYQM;2005-08-22 09:25;SPECI CYQM 220925Z 22007KT 1 1/2SM BR OVC001 17/ RMK SF8=
CYQM;2005-08-22 09:30;SPECI CYQM 220930Z 22007KT 3/4SM R29/P6000FT/N R06/P6000FT/D BR OVC001 17/ RMK SF8=
CYQM;2005-08-22 09:39;SPECI CYQM 220939Z 22009KT 1/4SM R29/3500VP6000FT/D R06/P6000FT/D FG VV002 17/ RMK FG8=
CYQM;2005-08-22 09:53;SPECI CYQM 220953Z 23011KT 3/4SM R29/2600FT/D R06/4000VP6000FT/U BR OVC001 17/ RMK SF8 VIS NE 11/2=
CYQM;2005-08-22 10:23;SPECI CYQM 221023Z 22006KT 3/4SM R29/P6000FT/D R06/P6000FT/N BR OVC001 17/ RMK SF8 VIS NW 1/4=
CYQM;2005-08-22 10:31;SPECI CYQM 221031Z 20006KT 1/2SM R29/6000FT/N R06/P6000FT/N FG OVC001 17/ RMK SF8=
CYQM;2005-08-22 10:38;SPECI CYQM 221038Z 21007KT 3/4SM R29/P6000FT/U R06/3000VP6000FT/D BR OVC001 17/ RMK SF8=
CYQM;2005-08-22 11:04;SPECI CYQM 221104Z 22006KT 1 1/2SM R29/2600VP6000FT/U R06/P6000FT/N BR OVC001 17/ RMK SF7 VIS NW 3/4=
CYQM;2005-08-22 11:23;SPECI CYQM 221123Z 19006KT 5/8SM R29/2000V3500FT/D R06/P6000FT/D BR OVC001 17/ RMK SF7=
CYQM;2005-08-22 11:29;SPECI CYQM 221129Z 18006KT 1/4SM R29/1800V3000FT/N R06/3500V6000FT/D FG VV002 17/ RMK FG8=
CYQM;2005-08-22 11:43;SPECI CYQM 221143Z 20007KT 1SM R29/2800VP6000FT/U R06/2400VP6000FT/U BR OVC002 17/ RMK SF7=
CYQM;2005-08-22 12:00;METAR CYQM 221200Z 21006KT 1SM R29/3000VP6000FT/U R06/P6000FT/N BR OVC001 17/16 A2977 RMK SF7 SLP082=
CYQM;2005-08-22 12:11;SPECI CYQM 221211Z 21005KT 4SM BR SCT003 SCT100 17/ RMK CF3AC1=
CYQM;2005-08-22 13:00;METAR CYQM 221300Z 21007KT 15SM FEW005 FEW100 FEW250 20/17 A2977 RMK CF1AC1CI1 SLP083=
CYQM;2005-08-22 14:00;METAR CYQM 221400Z 25004KT 15SM FEW120 23/17 A2976 RMK AC1 SLP080=
CYQM;2005-08-22 15:00;METAR CYQM 221500Z 25008KT 15SM FEW020 FEW120 25/17 A2977 RMK CF1AC1 SLP080=
CYQM;2005-08-22 16:00;METAR CYQM 221600Z 25010KT 15SM FEW020 26/16 A2976 RMK CU1 SLP077=
CYQM;2005-08-22 17:00;METAR CYQM 221700Z 24009KT 15SM FEW030 27/14 A2975 RMK CU1 SLP075=
CYQM;2005-08-22 18:00;METAR CYQM 221800Z 24008KT 15SM FEW030 FEW120 FEW270 27/15 A2975 RMK CU1AC1CI1 SLP074=
CYQM;2005-08-22 19:00;METAR CYQM 221900Z 25003KT 15SM FEW035 SCT120 26/15 A2974 RMK CU2AC1 SLP071=
CYQM;2005-08-22 20:00;METAR CYQM 222000Z 15006KT 15SM FEW035 BKN110 27/16 A2973 RMK CU2AC2 SLP068=
CYQM;2005-08-22 21:00;METAR CYQM 222100Z 14006KT 15SM FEW040 FEW050 SCT140 27/16 A2973 RMK CU1SC1AC2 SLP066=
CYQM;2005-08-22 22:00;METAR CYQM 222200Z 09010KT 15SM FEW030 FEW040 FEW140 25/16 A2972 RMK CU1SC1AC1 TCU ASOCTD SE SLP064=
CYQM;2005-08-22 23:00;METAR CYQM 222300Z 12011KT 15SM FEW025 FEW035 SCT090 22/15 A2973 RMK CU1SC1AC2 TCU ASOCTD W SLP068=
CYQM;2005-08-23 00:00;METAR CYQM 230000Z 14009KT 15SM SCT025 21/16 A2975 RMK SC4 CB EMBD LTGCG NW SLP075=
CYQM;2005-08-23 02:00;METAR CYQM 230200Z 34011KT 15SM FEW030 18/15 A2977 RMK SC2 SLP082=
CYQM;2005-08-23 03:00;METAR CYQM 230300Z 35005KT 15SM FEW030 17/15 A2977 RMK SC1 SLP081=
CYQM;2005-08-23 04:00;METAR CYQM 230400Z 00000KT 15SM SKC 16/15 A2976 RMK SLP079=
CYQM;2005-08-23 05:00;METAR CYQM 230500Z 22003KT 15SM SKC 15/14 A2977 RMK SLP082=
CYQM;2005-08-23 06:00;METAR CYQM 230600Z 22002KT 15SM FEW012 15/14 A2978 RMK SC1 SLP083=
CYQM;2005-08-23 07:00;METAR CYQM 230700Z 22005KT 15SM FEW012 14/13 A2978 RMK SC2 SLP084=
CYQM;2005-08-23 08:43;SPECI CYQM 230843Z 22003KT 8SM BKN001 BKN012 13/ RMK SF5SC1 VIS N 2=
CYQM;2005-08-23 09:08;SPECI CYQM 230908Z 21006KT 3SM BR BKN002 BKN100 13/ RMK SF6AC2 VIS N - NE 1=
CYQM;2005-08-23 09:21;SPECI CYQM 230921Z 23004KT 1SM R29/P6000FT/N R06/P6000FT/D BR BKN002 BKN010 BKN080 13/ RMK SF5SC1AC2=
CYQM;2005-08-23 09:32;SPECI CYQM 230932Z 22004KT 1 1/2SM BR FEW002 BKN080 13/ RMK SF2AC5=
CYQM;2005-08-23 09:41;SPECI CYQM 230941Z 24004KT 3/4SM R29/P6000FT/U R06/P6000FT/D BR BKN001 BKN010 OVC070 13/ RMK SF6SC1AC1=
CYQM;2005-08-23 09:51;SPECI CYQM 230951Z 26003KT 1/2SM R29/2400VP6000FT/D R06/P6000FT/N FG OVC001 13/ RMK SF8 VIS NE 11/2=
CYQM;2005-08-23 10:00;METAR CYQM 231000Z 21002KT 2 1/2SM R29/3000VP6000FT/U R06/P6000FT/N BR OVC002 13/12 A2981 RMK SF7 VIS W 6 SLP097=
CYQM;2005-08-23 10:15;SPECI CYQM 231015Z 23002KT 5SM BR OVC003 13/ RMK SF7=
CYQM;2005-08-23 10:29;SPECI CYQM 231029Z 22003KT 7SM SCT003 BKN050 14/ RMK SF4SC2 VIS NW 3=
CYQM;2005-08-23 11:00;METAR CYQM 231100Z 20004KT 7SM SCT004 BKN050 14/14 A2983 RMK SF3SC2 SLP103=
CYQM;2005-08-23 11:09;SPECI CYQM 231109Z 20004KT 10SM BKN004 BKN050 15/ RMK SF5SC2=
CYQM;2005-08-23 11:46;SPECI CYQM 231146Z 20003KT 12SM BKN007 BKN012 BKN040 15/ RMK SF5CF1SC1=
CYQM;2005-08-23 12:00;METAR CYQM 231200Z 21003KT 12SM BKN007 BKN040 16/14 A2984 RMK SF5SC1 SLP106=
CYQM;2005-08-23 12:07;SPECI CYQM 231207Z 21004KT 15SM FEW008 FEW030 16/ RMK CF2SC1=
CYQM;2005-08-23 13:00;METAR CYQM 231300Z 26003KT 15SM FEW008 FEW030 FEW120 19/16 A2985 RMK CF1SC1AC1 SLP108=
CYQM;2005-08-23 15:00;METAR CYQM 231500Z 21003KT 15SM BKN025 BKN100 23/16 A2986 RMK CU6AC1 SLP114=
CYQM;2005-08-23 16:00;METAR CYQM 231600Z 36006KT 15SM BKN025 BKN050 23/16 A2986 RMK CU6SC1 SLP112=
CYQM;2005-08-23 17:00;METAR CYQM 231700Z 36006KT 15SM BKN030 BKN070 22/16 A2986 RMK CU6AC1 TCU ASOCTD SLP114=
CYQM;2005-08-23 18:00;METAR CYQM 231800Z 06008KT 15SM BKN025 22/17 A2986 RMK CU6 TCU ASOCTD SLP114=
CYQM;2005-08-23 19:00;METAR CYQM 231900Z 07007KT 15SM BKN025 BKN250 22/16 A2987 RMK CU5CI1 SLP116=
CYQM;2005-08-23 20:08;SPECI CYQM 232008Z 06004KT 15SM -SHRA BKN030 22/ RMK SC7 VIS LWR NW IN HVY SH=
CYQM;2005-08-23 20:26;SPECI CYQM 232026Z 04007KT 15SM FEW015 BKN030 21/ RMK CF1SC7 SH N=
CYQM;2005-08-23 20:33;SPECI CYQM 232033Z 04006KT 15SM -SHRA FEW015 BKN030 21/ RMK CF1SC6=
CYQM;2005-08-23 20:54;SPECI CYQM 232054Z 04006KT 15SM FEW015 BKN030 21/ RMK CU1SC5=
CYQM;2005-08-23 21:00;METAR CYQM 232100Z 04005KT 15SM FEW015 BKN030 20/16 A2989 RMK CU1SC5 SLP124=
CYQM;2005-08-23 22:00;METAR CYQM 232200Z 35009KT 15SM FEW020 BKN030 20/16 A2991 RMK CU1SC4 SH=
CYQM;2005-08-23 22:53;SPECI CYQM 232253Z 35011KT 12SM -SHRA FEW020 BKN030 19/ RMK CU2SC5=
CYQM;2005-08-23 23:00;METAR CYQM 232300Z 36010KT 12SM -SHRA FEW020 BKN035 19/17 A2992 RMK CU2SC6 SLP133=
CYQM;2005-08-24 00:00;METAR CYQM 240000Z 35006KT 12SM -SHRA BKN012 BKN035 18/17 A2995 RERA RMK SC5SC2 SLP141=
CYQM;2005-08-24 00:11;SPECI CYQM 240011Z 01005KT 12SM -TSRA BKN012 BKN035 18/ RMK SC5SC2 CB EMBD=
CYQM;2005-08-24 00:31;SPECI CYQM 240031Z 01008KT 12SM -SHRA SCT007 OVC014 18/ RETS RMK SC3SC5=
CYQM;2005-08-24 00:43;SPECI CYQM 240043Z 02006KT 12SM -SHRA BKN005 OVC014 18/ RETS RMK SF6SC2=
CYQM;2005-08-24 01:33;SPECI CYQM 240133Z 36009KT 12SM BKN008 OVC014 18/ RMK SF6SC2=
CYQM;2005-08-24 01:52;SPECI CYQM 240152Z 01009KT 15SM FEW007 BKN013 OVC020 17/ RMK SF2SC5SC2=
CYQM;2005-08-24 02:00;METAR CYQM 240200Z 02008KT 15SM FEW007 BKN012 OVC020 17/16 A2996 RMK SF2SC5SC2 SLP146=
CYQM;2005-08-24 02:46;SPECI CYQM 240246Z 34008KT 15SM BKN007 BKN012 OVC020 17/ RMK SF6SC2SC1=
CYQM;2005-08-24 02:49;SPECI CYQM 240249Z 34008KT 15SM -SHRA BKN007 BKN012 OVC020 17/ RMK SF6SC2SC1=
CYQM;2005-08-24 02:52;SPECI CYQM 240252Z 34007KT 6SM -SHRA BR BKN004 OVC012 17/ RMK SF6SC2=
CYQM;2005-08-24 03:00;METAR CYQM 240300Z 36007KT 5SM -SHRA BR BKN004 OVC012 17/16 A2997 RMK SF6SC2 SLP151=
CYQM;2005-08-24 03:52;SPECI CYQM 240352Z 36010KT 2 1/2SM -DZ BR BKN004 OVC012 17/ RMK SF6SC2=
CYQM;2005-08-24 04:00;METAR CYQM 240400Z 01008KT 2 1/2SM -DZ BR BKN004 OVC012 17/16 A2998 RMK SF6SC2 SLP153=
CYQM;2005-08-24 04:18;SPECI CYQM 240418Z 36009KT 4SM -DZ BR BKN004 OVC012 17/ RMK SF6SC2=
CYQM;2005-08-24 04:46;SPECI CYQM 240446Z 36007KT 7SM -DZ BKN003 OVC012 16/ RMK SF6SC2=
CYQM;2005-08-24 05:00;METAR CYQM 240500Z 36008KT 7SM -DZ BKN003 OVC012 16/15 A2998 RMK SF6SC2 SLP154=
CYQM;2005-08-24 06:54;SPECI CYQM 240654Z 36010KT 7SM -DZ BKN004 OVC012 16/ RMK SF6SC2=
CYQM;2005-08-24 07:00;METAR CYQM 240700Z 36009KT 7SM -DZ BKN004 OVC012 16/15 A3000 RMK SF6SC2 SLP159=
CYQM;2005-08-24 07:43;SPECI CYQM 240743Z 36007KT 15SM -DZ FEW004 OVC007 15/ RMK SF2SF6=
CYQM;2005-08-24 08:11;SPECI CYQM 240811Z 36009KT 15SM BKN007 BKN030 15/ RMK SF6SC2=
CYQM;2005-08-24 08:38;SPECI CYQM 240838Z 35008KT 12SM BKN003 OVC005 15/ RMK SF6SF2=
CYQM;2005-08-24 08:53;SPECI CYQM 240853Z 36010KT 7SM -DZ SCT003 OVC005 15/ RMK SF3SF5=
CYQM;2005-08-24 09:00;METAR CYQM 240900Z 36009KT 7SM -DZ SCT003 OVC005 15/14 A3001 RMK SF3SF5 SLP163=
CYQM;2005-08-24 09:24;SPECI CYQM 240924Z 35009KT 8SM BKN003 OVC005 15/ RMK SF6SF2=
CYQM;2005-08-24 09:42;SPECI CYQM 240942Z 35010G15KT 6SM -DZ BR BKN003 OVC005 15/ RMK SF6SF2=
CYQM;2005-08-24 10:00;METAR CYQM 241000Z 35010KT 8SM -DZ OVC004 15/14 A3004 RMK SF8 SLP172=
CYQM;2005-08-24 11:00;METAR CYQM 241100Z 34007KT 5SM -DZ BR OVC004 15/14 A3005 RMK SF8 SLP176=
CYQM;2005-08-24 12:00;METAR CYQM 241200Z 34007KT 2SM -DZ BR OVC004 15/14 A3006 RMK SF8 SLP180=
CYQM;2005-08-24 12:47;SPECI CYQM 241247Z 35011KT 3SM -DZ BR FEW003 BKN004 OVC025 15/ RMK SF2SF5SC1=
CYQM;2005-08-24 13:00;METAR CYQM 241300Z 35011KT 5SM -DZ BR FEW003 BKN004 OVC020 15/14 A3006 RMK SF2SF5SC2 SLP182=
CYQM;2005-08-24 13:21;SPECI CYQM 241321Z 34011KT 8SM -DZ FEW003 BKN006 OVC020 16/ RMK SF2SF4SC2=
CYQM;2005-08-24 14:00;METAR CYQM 241400Z 35011KT 10SM -DZ FEW003 BKN009 OVC020 16/14 A3008 RMK SF1SF6SC1 SLP188=
CYQM;2005-08-24 15:00;METAR CYQM 241500Z 01011KT 12SM -DZ BKN008 OVC020 16/14 A3009 RMK CF6SC2 SLP191=
CYQM;2005-08-24 15:42;SPECI CYQM 241542Z 03014KT 15SM BKN008 OVC018 16/ RMK CF6SC2=
CYQM;2005-08-24 16:00;METAR CYQM 241600Z 02014KT 15SM BKN008 OVC018 16/13 A3009 RMK CF6SC2 SHS W-NW SLP190=
CYQM;2005-08-24 16:36;SPECI CYQM 241636Z 36011G16KT 15SM BKN010 BKN020 17/ RMK CF6SC2 SHS W-NW=
CYQM;2005-08-24 17:24;SPECI CYQM 241724Z 36009G15KT 15SM BKN015 BKN030 17/ RMK CU5SC2 SHS SW-NW=
CYQM;2005-08-24 18:00;METAR CYQM 241800Z 36012KT 15SM BKN017 BKN030 17/13 A3009 RMK CU6SC2 SHS W SLP190=
CYQM;2005-08-24 19:00;METAR CYQM 241900Z 34010KT 15SM BKN018 BKN120 17/13 A3009 RMK SC6AC1 SHS W-NW SLP190=
CYQM;2005-08-24 20:00;METAR CYQM 242000Z 36010KT 15SM BKN014 16/12 A3009 RMK SC7 SLP192=
CYQM;2005-08-24 20:27;SPECI CYQM 242027Z 34011KT 15SM FEW009 BKN016 16/ RMK SF1SC6=
CYQM;2005-08-24 21:00;METAR CYQM 242100Z 36012KT 15SM FEW009 BKN016 15/12 A3010 RMK SF1SC6 SLP193=
CYQM;2005-08-24 22:00;METAR CYQM 242200Z 02010KT 15SM FEW012 BKN020 BKN035 16/12 A3009 RMK SC1SC4SC1 SLP192=
CYQM;2005-08-24 23:00;METAR CYQM 242300Z 34007KT 15SM FEW012 BKN020 15/12 A3010 RMK SC2SC3 SLP194=
CYQM;2005-08-25 00:00;METAR CYQM 250000Z 35004KT 15SM FEW015 BKN030 13/11 A3011 RMK SC2SC2 SLP198=
CYQM;2005-08-25 01:00;METAR CYQM 250100Z 36006KT 15SM SCT020 12/10 A3012 RMK SC4 SLP200=
CYQM;2005-08-25 03:00;METAR CYQM 250300Z 33005KT 15SM BKN020 13/11 A3010 RMK SC7 SLP195=
CYQM;2005-08-25 04:00;METAR CYQM 250400Z 34006KT 15SM BKN020 13/11 A3009 RMK SC6 SLP192=
CYQM;2005-08-25 05:00;METAR CYQM 250500Z 30003KT 15SM SCT020 11/10 A3009 RMK SC4 SLP192=
CYQM;2005-08-25 06:00;METAR CYQM 250600Z 30006KT 15SM BKN025 13/11 A3009 RMK SC6 SLP190=
CYQM;2005-08-25 08:32;SPECI CYQM 250832Z 33009KT 15SM -DZ OVC018 13/ RMK SC8=
CYQM;2005-08-25 08:52;SPECI CYQM 250852Z 32008KT 15SM FEW017 OVC024 13/ RMK SC2SC6=
CYQM;2005-08-25 08:55;SPECI CYQM 250855Z 31009KT 15SM -SHRA SCT017 OVC024 13/ RMK SC3SC5=
CYQM;2005-08-25 09:00;METAR CYQM 250900Z 31010KT 15SM -SHRA SCT017 OVC024 13/11 A3008 RMK SC3SC5 SLP187=
CYQM;2005-08-25 09:23;SPECI CYQM 250923Z 32008KT 15SM BKN017 OVC024 13/ RMK SC5SC3=
CYQM;2005-08-25 10:00;METAR CYQM 251000Z 32009KT 15SM BKN017 BKN024 13/11 A3009 RMK SC6SC1 SLP191=
CYQM;2005-08-25 10:22;SPECI CYQM 251022Z 33010KT 15SM -DZ FEW007 BKN017 13/ RMK SF1SC6 VIS LWR N=
CYQM;2005-08-25 11:00;METAR CYQM 251100Z 32009KT 15SM FEW007 BKN015 13/11 A3009 RMK SF2SC6 SHS W-NW SLP190=
CYQM;2005-08-25 11:44;SPECI CYQM 251144Z 33009KT 15SM -DZ FEW007 BKN015 14/ RMK SF2SC5=
CYQM;2005-08-25 12:00;METAR CYQM 251200Z 33010G16KT 15SM -DZ SCT008 BKN015 14/12 A3009 RMK SF4SC3 SLP192=
CYQM;2005-08-25 12:20;SPECI CYQM 251220Z 33011G17KT 15SM BKN008 BKN015 15/ RMK CF6SC2=
CYQM;2005-08-25 12:46;SPECI CYQM 251246Z 33013KT 15SM -SHRA BKN010 OVC015 15/ RMK SC6SC2=
CYQM;2005-08-25 12:52;SPECI CYQM 251252Z 34012KT 15SM -SHRA BKN007 OVC013 15/ RMK SF6SC2=
CYQM;2005-08-25 13:00;METAR CYQM 251300Z 33013KT 12SM -SHRA BKN007 OVC013 15/12 A3009 RMK SF7SC1 VIS N 4 SLP190=
CYQM;2005-08-25 14:00;METAR CYQM 251400Z 34013KT 15SM -SHRA BKN008 OVC013 15/12 A3009 RMK SF6SC2 VIS W 7 SLP190=
CYQM;2005-08-25 14:38;SPECI CYQM 251438Z 34013G18KT 15SM -DZ OVC007 15/ RMK SF8=
CYQM;2005-08-25 15:00;METAR CYQM 251500Z 35013KT 15SM -DZ BKN007 OVC012 15/12 A3008 RMK SF7SC1 SLP187=
CYQM;2005-08-25 16:00;METAR CYQM 251600Z 31010G15KT 12SM -DZ BKN007 OVC015 15/13 A3007 RMK SF6SC2 SLP185=
CYQM;2005-08-25 17:00;METAR CYQM 251700Z 33010KT 12SM -DZ BKN007 OVC013 15/13 A3007 RMK SF7SC1 SLP185=
CYQM;2005-08-25 17:34;SPECI CYQM 251734Z 34009KT 15SM FEW008 BKN020 OVC035 15/ RMK SF2SC5SC1=
CYQM;2005-08-25 18:00;METAR CYQM 251800Z 33011KT 15SM SCT008 BKN020 OVC035 16/13 A3006 RMK CF3SC3SC2 SLP182=
CYQM;2005-08-25 18:17;SPECI CYQM 251817Z 36011KT 15SM -SHRA FEW010 BKN015 BKN030 16/ RMK CF2CU5SC1=
CYQM;2005-08-25 19:00;METAR CYQM 251900Z 35009KT 15SM SCT015 BKN030 16/13 A3005 RMK CU3SC4 SLP178=
CYQM;2005-08-25 20:00;METAR CYQM 252000Z 34008KT 15SM FEW016 BKN030 16/12 A3005 RMK CU2SC6 SLP177=
CYQM;2005-08-25 21:00;METAR CYQM 252100Z 35006KT 15SM FEW015 SCT030 BKN260 17/13 A3003 RMK CU1SC2CI1 SLP170=
CYQM;2005-08-25 22:00;METAR CYQM 252200Z 34004KT 15SM FEW015 FEW030 SCT260 17/12 A3003 RMK CU1SC1CI1 SLP169=
CYQM;2005-08-25 23:00;METAR CYQM 252300Z 00000KT 15SM FEW015 FEW030 FEW260 16/12 A3002 RMK CU1SC1CI1 SLP168=
CYQM;2005-08-26 00:00;METAR CYQM 260000Z 15003KT 15SM FEW030 FEW260 14/12 A3003 RMK SC1CI1 SLP170=
CYQM;2005-08-26 01:00;METAR CYQM 260100Z 18004KT 15SM FEW030 14/12 A3002 RMK SC1 SLP168=
CYQM;2005-08-26 02:00;METAR CYQM 260200Z 18003KT 15SM FEW030 13/12 A3001 RMK SC1 SLP165=
CYQM;2005-08-26 03:00;METAR CYQM 260300Z 21005KT 15SM FEW030 12/11 A3000 RMK SC1 SLP162=
CYQM;2005-08-26 05:00;METAR CYQM 260500Z 22008KT 15SM SKC 11/10 A2999 RMK SLP156=
CYQM;2005-08-26 06:00;METAR CYQM 260600Z 23008KT 15SM SKC 11/10 A2998 RMK SLP155=
CYQM;2005-08-26 07:00;METAR CYQM 260700Z 22007KT 15SM SKC 11/10 A2998 RMK SLP154=
CYQM;2005-08-26 09:00;METAR CYQM 260900Z 22008KT 12SM MIFG SKC 11/10 A2997 RMK SLP151=
CYQM;2005-08-26 10:00;METAR CYQM 261000Z 22008KT 15SM FEW080 11/10 A2998 RMK AC1 SLP155=
CYQM;2005-08-26 11:00;METAR CYQM 261100Z 23011KT 15SM FEW080 12/11 A2998 RMK AC1 SLP155=
CYQM;2005-08-26 12:00;METAR CYQM 261200Z 23010KT 15SM FEW080 14/12 A2999 RMK AC1 SLP156=
CYQM;2005-08-26 13:00;METAR CYQM 261300Z 25010KT 15SM FEW080 17/13 A2998 RMK AC1 SLP154=
CYQM;2005-08-26 16:00;METAR CYQM 261600Z 25008KT 15SM FEW080 FEW200 25/13 A2995 RMK AC1CI1 SLP143=
CYQM;2005-08-26 17:00;METAR CYQM 261700Z 27008G16KT 15SM FEW250 27/11 A2994 RMK CI1 SLP139=
CYQM;2005-08-26 20:00;METAR CYQM 262000Z 32007KT 15SM FEW250 27/09 A2991 RMK CI1 SLP130=
CYQM;2005-08-26 21:00;METAR CYQM 262100Z 06007KT 15SM BKN270 27/10 A2991 RMK CI3 SLP129=
CYQM;2005-08-26 22:00;METAR CYQM 262200Z 07006KT 15SM BKN250 25/08 A2992 RMK CI3 SLP133=
CYQM;2005-08-26 23:00;METAR CYQM 262300Z 12005KT 15SM BKN240 22/13 A2994 RMK CI6 CONTRAILS SLP138=
CYQM;2005-08-27 00:00;METAR CYQM 270000Z 08005KT 15SM BKN220 20/13 A2995 RMK CI6 CONTRAILS SLP143=
CYQM;2005-08-27 01:00;METAR CYQM 270100Z 09004KT 15SM BKN270 17/13 A2996 RMK CI2 SLP147=
CYQM;2005-08-27 02:00;METAR CYQM 270200Z 10007KT 15SM BKN270 16/12 A2997 RMK CI2 SLP151=
CYQM;2005-08-27 03:00;METAR CYQM 270300Z 14003KT 15SM SCT270 14/12 A2998 RMK CI1 SLP153=
CYQM;2005-08-27 04:00;METAR CYQM 270400Z 19008KT 15SM SKC 13/11 A2999 RMK SLP155=
CYQM;2005-08-27 05:00;METAR CYQM 270500Z 21004KT 15SM FEW270 12/11 A2999 RMK CI1 SLP155=
CYQM;2005-08-27 06:00;METAR CYQM 270600Z 21005KT 15SM FEW270 12/11 A2999 RMK CI1 SLP156=
CYQM;2005-08-27 07:00;METAR CYQM 270700Z 20007KT 15SM SCT270 11/11 A2999 RMK CI1 SLP156=
CYQM;2005-08-27 08:00;METAR CYQM 270800Z 21007KT 15SM FEW270 11/10 A3000 RMK CI1 SLP159=
CYQM;2005-08-27 10:00;METAR CYQM 271000Z 22005KT 15SM FEW250 11/10 A3002 RMK CI1 SLP167=
CYQM;2005-08-27 11:00;METAR CYQM 271100Z 22005KT 15SM FEW250 13/11 A3005 RMK CI1 SLP175=
CYQM;2005-08-27 12:00;METAR CYQM 271200Z 23003KT 15SM FEW250 15/11 A3006 RMK CI1 SLP181=
CYQM;2005-08-27 13:00;METAR CYQM 271300Z 00000KT 15SM FEW250 18/13 A3008 RMK CI1 SLP187=
CYQM;2005-08-27 14:00;METAR CYQM 271400Z 20004KT 15SM FEW250 22/13 A3008 RMK CI1 SLP189=
CYQM;2005-08-27 15:00;METAR CYQM 271500Z 00000KT 15SM FEW250 24/13 A3008 RMK CI1 SLP186=
CYQM;2005-08-27 16:00;METAR CYQM 271600Z 21002KT 15SM SCT250 26/14 A3008 RMK CI2 SLP185=
CYQM;2005-08-27 17:00;METAR CYQM 271700Z 00000KT 15SM BKN250 27/14 A3007 RMK CI2 SLP182=
CYQM;2005-08-27 18:00;METAR CYQM 271800Z 17006KT 15SM BKN250 28/13 A3006 RMK CC2 SLP178=
CYQM;2005-08-27 19:00;METAR CYQM 271900Z 15007KT 15SM BKN250 28/12 A3005 RMK CC3 SLP175=
CYQM;2005-08-27 20:00;METAR CYQM 272000Z 14007KT 15SM BKN250 27/13 A3004 RMK CI3 SLP173=
CYQM;2005-08-27 21:00;METAR CYQM 272100Z 13007KT 15SM BKN250 26/15 A3004 RMK CI5 SLP172=
CYQM;2005-08-27 22:00;METAR CYQM 272200Z 15006KT 15SM BKN250 24/16 A3004 RMK CI6 SLP174=
CYQM;2005-08-27 23:00;METAR CYQM 272300Z 17004KT 15SM BKN240 23/12 A3005 RMK CI6 CC ASOCTD SLP177=
CYQM;2005-08-28 00:00;METAR CYQM 280000Z 17005KT 15SM BKN230 20/12 A3007 RMK CI6 SLP183=
CYQM;2005-08-28 01:00;METAR CYQM 280100Z 17006KT 15SM BKN250 17/12 A3008 RMK CI5 SLP187=
CYQM;2005-08-28 03:00;METAR CYQM 280300Z 19006KT 15SM SCT260 15/12 A3010 RMK CI1 SLP192=
CYQM;2005-08-28 04:00;METAR CYQM 280400Z 20006KT 15SM FEW260 15/12 A3010 RMK CI1 SLP194=
CYQM;2005-08-28 05:00;METAR CYQM 280500Z 19006KT 15SM FEW250 15/10 A3010 RMK CI1 SLP193=
CYQM;2005-08-28 06:00;METAR CYQM 280600Z 21005KT 15SM SCT250 14/10 A3010 RMK CI2 SLP192=
CYQM;2005-08-28 08:00;METAR CYQM 280800Z 18007KT 15SM FEW250 13/09 A3009 RMK CI0 SLP189=
CYQM;2005-08-28 09:00;METAR CYQM 280900Z 19006KT 15SM FEW150 SCT250 11/10 A3009 RMK AC1CI1 SLP191=
CYQM;2005-08-28 10:00;METAR CYQM 281000Z 19007KT 15SM MIFG FEW150 SCT250 11/10 A3011 RMK AC1CI1 VIS W 2 SLP196=
CYQM;2005-08-28 11:00;METAR CYQM 281100Z 19005KT 15SM FEW003 FEW150 SCT250 13/12 A3012 RMK SF2AC1CI1 SLP200=
CYQM;2005-08-28 12:00;METAR CYQM 281200Z 19005KT 15SM FEW150 SCT250 17/14 A3011 RMK AC1CI1 SLP199=
CYQM;2005-08-28 13:00;METAR CYQM 281300Z 21008KT 15SM SCT250 20/15 A3012 RMK CI2 SLP201=
CYQM;2005-08-28 14:00;METAR CYQM 281400Z 24010KT 15SM SCT250 22/15 A3012 RMK CI2 SLP202=
CYQM;2005-08-28 15:00;METAR CYQM 281500Z 23020G25KT 15SM SCT250 24/14 A3012 RMK CI2 SLP199=
CYQM;2005-08-28 16:00;METAR CYQM 281600Z 22015G20KT 15SM SCT250 25/13 A3011 RMK CI2 SLP195=
CYQM;2005-08-28 17:00;METAR CYQM 281700Z 22016G21KT 15SM FEW050 BKN250 26/13 A3009 RMK SC1CI2 SLP189=
CYQM;2005-08-28 18:00;METAR CYQM 281800Z 20016G22KT 15SM FEW050 BKN250 26/14 A3008 RMK SC1CI2 SLP186=
CYQM;2005-08-28 19:00;METAR CYQM 281900Z 22020G27KT 15SM FEW050 BKN250 26/15 A3008 RMK SC1CI2 SLP185=
CYQM;2005-08-28 20:00;METAR CYQM 282000Z 21019G24KT 15SM FEW050 BKN250 25/14 A3007 RMK SC1CI2 SLP184=
CYQM;2005-08-28 21:00;METAR CYQM 282100Z 22018G25KT 15SM FEW045 BKN240 25/14 A3007 RMK SC1CI5 CC ASOCTD SLP185=
CYQM;2005-08-28 22:00;METAR CYQM 282200Z 20014G19KT 15SM FEW040 BKN240 24/14 A3007 RMK SC1CI5 SLP184=
CYQM;2005-08-28 23:00;METAR CYQM 282300Z 21007KT 15SM FEW030 FEW100 BKN240 22/13 A3008 RMK SC1AC1CI5 CONTRAILS SLP188=
CYQM;2005-08-29 01:00;METAR CYQM 290100Z 22007KT 15SM BKN270 19/13 A3011 RMK CI3 SLP197=
CYQM;2005-08-29 02:00;METAR CYQM 290200Z 24007KT 15SM FEW100 BKN270 18/14 A3011 RMK AC2CI2 SLP197=
CYQM;2005-08-29 03:00;METAR CYQM 290300Z 19004KT 15SM FEW040 SCT100 BKN270 17/13 A3011 RMK SC1AC2CI1 SLP195=
CYQM;2005-08-29 04:00;METAR CYQM 290400Z 14005KT 15SM FEW100 BKN220 17/13 A3011 RMK AC2CC4 SLP195=
CYQM;2005-08-29 05:00;METAR CYQM 290500Z 16004KT 15SM BKN050 BKN240 18/14 A3011 RMK SC6CI0 SLP195=
CYQM;2005-08-29 06:00;METAR CYQM 290600Z 15004KT 15SM BKN100 BKN250 18/15 A3010 RMK AC7CI1 SLP194=
CYQM;2005-08-29 07:00;METAR CYQM 290700Z 15004KT 15SM BKN100 BKN250 17/15 A3010 RMK AC7CI1 SLP194=
CYQM;2005-08-29 08:00;METAR CYQM 290800Z 18004KT 15SM FEW030 BKN090 BKN270 17/15 A3011 RMK SC1AC7CI1 SLP197=
CYQM;2005-08-29 09:04;SPECI CYQM 290904Z 17004KT 15SM -SHRA FEW030 BKN100 17/ RMK SC2AC6=
CYQM;2005-08-29 09:25;SPECI CYQM 290925Z 17005KT 15SM SCT030 BKN100 BKN260 17/ RMK SC3AC2CI1=
CYQM;2005-08-29 10:00;METAR CYQM 291000Z 16004KT 15SM FEW030 BKN100 BKN260 18/16 A3013 RMK SC2AC3CI1 SLP203=
CYQM;2005-08-29 11:00;METAR CYQM 291100Z 16003KT 15SM FEW010 SCT030 BKN100 BKN260 19/17 A3014 RMK CF1SC2AC2CI1 SLP206=
CYQM;2005-08-29 12:00;METAR CYQM 291200Z 18005KT 15SM FEW010 SCT030 BKN100 20/18 A3014 RMK CF1SC2AC4 SLP206=
CYQM;2005-08-29 13:00;METAR CYQM 291300Z 17006KT 15SM SCT015 BKN030 BKN100 23/19 A3014 RMK CU3SC2AC2 SLP206=
CYQM;2005-08-29 14:00;METAR CYQM 291400Z 17009KT 15SM FEW010 BKN015 BKN100 23/19 A3014 RMK CF1SC6AC1 SLP205=
CYQM;2005-08-29 15:00;METAR CYQM 291500Z 16007KT 15SM BKN015 BKN100 23/19 A3014 RMK SC6AC1 CU ASOCTD SLP206=
CYQM;2005-08-29 16:00;METAR CYQM 291600Z 20014KT 15SM BKN020 BKN100 25/19 A3012 RMK CU6AC1 SH N-NE SLP201=
CYQM;2005-08-29 17:00;METAR CYQM 291700Z 21012G20KT 15SM BKN025 BKN100 25/19 A3012 RMK CU6AC1 SLP199=
CYQM;2005-08-29 19:00;METAR CYQM 291900Z 21017KT 15SM SCT030 BKN040 BKN120 BKN260 26/18 A3012 RMK CU3SC2AC1CI1 TCU ASOCTD SH N SLP200=
CYQM;2005-08-29 20:43;SPECI CYQM 292043Z 26006KT 15SM FEW030TCU SCT100 BKN220 24/ RERA RMK TCU2AC2CI3 SHS NE=
CYQM;2005-08-29 21:00;METAR CYQM 292100Z 23006KT 15SM FEW030TCU SCT100 BKN150 OVC260 24/19 A3011 RERA RMK TCU1AC2AS3CI1 SLP197=
CYQM;2005-08-29 22:00;METAR CYQM 292200Z 22005KT 15SM FEW030 FEW050 SCT100 BKN150 OVC260 24/19 A3011 RMK CU1SC2AC2AS2CI2 SLP196=
CYQM;2005-08-29 23:00;METAR CYQM 292300Z 22005KT 15SM SCT100 BKN150 OVC260 23/17 A3011 RMK AC3AS3CI1 SLP197=
CYQM;2005-08-30 00:00;METAR CYQM 300000Z 13005KT 15SM BKN100 OVC260 20/18 A3012 RMK AC5CI2 SLP200=
CYQM;2005-08-30 00:39;SPECI CYQM 300039Z 16004KT 15SM -SHRA BKN100 OVC260 19/ RMK AC6CI2=
CYQM;2005-08-30 01:22;SPECI CYQM 300122Z 16005KT 15SM SCT090 OVC130 19/ RMK AC3AC5=
CYQM;2005-08-30 03:00;METAR CYQM 300300Z 15003KT 15SM SCT070 OVC130 19/17 A3013 RMK AC3AC5 SLP203=
CYQM;2005-08-30 04:00;METAR CYQM 300400Z 15004KT 15SM SCT070 BKN130 OVC260 19/17 A3012 RMK AC3AC2CI2 SLP200=
CYQM;2005-08-30 05:00;METAR CYQM 300500Z 15008KT 15SM FEW070 BKN100 BKN260 19/17 A3010 RMK AC2AC4CI1 SLP194=
CYQM;2005-08-30 06:00;METAR CYQM 300600Z 15007KT 15SM BKN100 OVC260 19/16 A3010 RMK AC6CI2 SLP192=
CYQM;2005-08-30 07:00;METAR CYQM 300700Z 17006KT 15SM BKN080 OVC260 19/16 A3008 RMK AC7CI1 SLP188=
CYQM;2005-08-30 08:00;METAR CYQM 300800Z 18007KT 15SM FEW080 OVC130 19/16 A3008 RMK AC2AS6 SLP187=
CYQM;2005-08-30 09:00;METAR CYQM 300900Z 18007KT 15SM FEW080 OVC260 19/17 A3006 RMK AC2CI5 SLP181=
CYQM;2005-08-30 10:00;METAR CYQM 301000Z 17008KT 15SM FEW012 SCT030 BKN080 OVC260 19/17 A3007 RMK SC1SC3AC2CI2 SLP184=
CYQM;2005-08-30 12:00;METAR CYQM 301200Z 17007KT 15SM FEW012 BKN030 BKN080 OVC260 20/17 A3007 RMK SC1SC4AC2CI1 SLP184=
CYQM;2005-08-30 13:00;METAR CYQM 301300Z 17007KT 15SM FEW012 BKN030 BKN080 OVC260 20/18 A3007 RMK SC1SC5AC2CI1 SLP184=
CYQM;2005-08-30 13:32;SPECI CYQM 301332Z 17007KT 15SM -SHRA FEW012 BKN030 OVC080 20/ RMK SC1SC6AC2=
CYQM;2005-08-30 13:50;SPECI CYQM 301350Z 17007KT 15SM FEW012 BKN030 OVC080 21/ RMK SC1SC6AC2=
CYQM;2005-08-30 14:00;METAR CYQM 301400Z 16007KT 15SM FEW012 BKN030 BKN080 OVC260 21/18 A3007 RMK SC1SC6AC1CI1 SLP184=
CYQM;2005-08-30 15:07;SPECI CYQM 301507Z 20009KT 15SM -SHRA SCT015 BKN080 OVC260 22/ RMK SC4AC2CI2=
CYQM;2005-08-30 16:00;METAR CYQM 301600Z 20007KT 15SM -SHRA FEW015 SCT030 BKN080 OVC260 22/18 A3004 RMK CU2SC1AC4CI1 SLP174=
CYQM;2005-08-30 17:00;METAR CYQM 301700Z 18007KT 12SM -SHRA FEW015 BKN030 BKN080 OVC260 22/18 A3004 RMK CU2SC5AC1CI1 SLP174=
CYQM;2005-08-30 18:00;METAR CYQM 301800Z 17006KT 15SM -SHRA FEW012 SCT030 BKN080 OVC260 21/19 A3003 RMK CF1SC2AC3CI2 SLP171=
CYQM;2005-08-30 19:00;METAR CYQM 301900Z 17006KT 15SM -SHRA SCT012 SCT030 OVC080 21/19 A3003 RMK CF3SC1AC4 SLP168=
CYQM;2005-08-30 20:00;METAR CYQM 302000Z 16005KT 15SM -SHRA FEW012 SCT030 BKN100 21/19 A3001 RMK CF1SC3AC3 SLP164=
CYQM;2005-08-30 21:00;METAR CYQM 302100Z 20002KT 15SM -SHRA SCT010 BKN040 OVC100 21/19 A3000 RMK CF3SC2AC2 SLP161=
CYQM;2005-08-30 21:51;SPECI CYQM 302151Z 16003KT 15SM SCT010 BKN050 20/ RERA RMK CF3SC4=
CYQM;2005-08-30 22:00;METAR CYQM 302200Z 15004KT 15SM FEW010 BKN050 20/19 A3000 RERA RMK CF2SC5 SLP160=
CYQM;2005-08-30 22:52;SPECI CYQM 302252Z 16006KT 15SM -SHRA FEW010 BKN025 OVC050 20/ RMK SF2SC4SC2 VIS SW-W 6=
CYQM;2005-08-30 23:00;METAR CYQM 302300Z 18007KT 12SM -SHRA FEW010 BKN025 BKN050 20/19 A3000 RMK SF2SC4SC1 VIS SW 4 SLP160=
CYQM;2005-08-30 23:27;SPECI CYQM 302327Z 21007KT 12SM -SHRA FEW005 BKN025 BKN050 20/ RMK SF2SC5SC1=
CYQM;2005-08-30 23:48;SPECI CYQM 302348Z 19004KT 15SM FEW005 FEW010 BKN025 BKN050 BKN120 19/ RMK SF1SF2SC2SC1AC1=
CYQM;2005-08-31 00:00;METAR CYQM 310000Z 18005KT 15SM FEW005 BKN018 BKN050 BKN120 19/18 A3000 RMK SF1SC4SC1AC1 SLP160=
CYQM;2005-08-31 00:41;SPECI CYQM 310041Z 18004KT 15SM FEW004 BKN014 OVC050 19/ RMK SF1SC6SC1=
CYQM;2005-08-31 01:00;METAR CYQM 310100Z 18005KT 15SM FEW004 FEW014 BKN090 19/17 A2999 RMK SF1SC2AC2 SLP157=
CYQM;2005-08-31 02:00;METAR CYQM 310200Z 19005KT 15SM SCT075 18/17 A2998 RMK AC3 SLP154=
CYQM;2005-08-31 03:00;METAR CYQM 310300Z 19005KT 15SM FEW022 FEW075 BKN260 18/17 A2998 RMK SC1AC2CI3 SLP153=
CYQM;2005-08-31 04:00;METAR CYQM 310400Z 16004KT 15SM FEW020 FEW075 OVC240 18/17 A2997 RMK SC1AC1CI6 SLP151=
CYQM;2005-08-31 04:25;SPECI CYQM 310425Z 15002KT 15SM FEW002 BKN018 OVC240 18/ RMK SF1SC6CI2=
CYQM;2005-08-31 05:00;METAR CYQM 310500Z 17003KT 15SM FEW002 OVC023 18/17 A2996 RMK SF1SC7 SLP147=
CYQM;2005-08-31 06:03;SPECI CYQM 310603Z 14003KT 12SM -RA FEW004 SCT020 OVC080 18/ RMK SF1SC2AC5=
CYQM;2005-08-31 06:27;SPECI CYQM 310627Z 16002KT 15SM FEW004 SCT020 BKN050 BKN080 18/ RMK SF1SC2SC3AC1=
CYQM;2005-08-31 07:00;METAR CYQM 310700Z 18004KT 15SM FEW004 SCT020 BKN050 BKN260 18/17 A2994 RMK SF2SC2SC3CI1 SLP140=
CYQM;2005-08-31 07:28;SPECI CYQM 310728Z 15004KT 15SM FEW004 BKN013 OVC024 19/ RMK SF2SC3SC2=
CYQM;2005-08-31 07:53;SPECI CYQM 310753Z 16005KT 12SM BKN004 BKN012 OVC050 19/ RMK SF5SC2SC2=
CYQM;2005-08-31 08:38;SPECI CYQM 310838Z 16005KT 7SM BKN002 BKN010 OVC030 19/ RMK SF6SC1SC1=
CYQM;2005-08-31 09:35;SPECI CYQM 310935Z 16005KT 7SM FEW003 BKN012 OVC030 19/ RMK SF2SC6SC1 VIS NW - N 2=
CYQM;2005-08-31 10:00;METAR CYQM 311000Z 15004KT 7SM FEW003 BKN012 BKN030 OVC080 19/18 A2994 RMK SF1SC6SC1AC1 VIS NW - N 2 SLP138=
CYQM;2005-08-31 11:00;METAR CYQM 311100Z 16005KT 7SM FEW003 BKN015 BKN040 OVC080 19/18 A2994 RMK SF1SC6SC1AC1 VIS NW - N 3 SLP140=
CYQM;2005-08-31 12:00;METAR CYQM 311200Z 14005KT 7SM FEW003 BKN015 OVC080 19/18 A2993 RMK SF2SC6AC1 SLP137=
CYQM;2005-08-31 12:21;SPECI CYQM 311221Z 14005KT 7SM -SHRA SCT005 BKN017 OVC080 19/ RMK SF3SC4AC1=
CYQM;2005-08-31 13:00;METAR CYQM 311300Z 14006KT 8SM -SHRA SCT005 BKN017 OVC075 20/18 A2994 RMK SF3SC4AC1 SLP138=
CYQM;2005-08-31 13:29;SPECI CYQM 311329Z 14009KT 12SM BKN005 BKN017 OVC075 20/ RMK SF6SC1AC1=
CYQM;2005-08-31 14:00;METAR CYQM 311400Z 14006KT 15SM -SHRA BKN005 OVC017 20/18 A2993 RMK SF7SC1 SLP135=
CYQM;2005-08-31 15:00;METAR CYQM 311500Z 14007KT 6SM -SHRA BR SCT006 BKN030 OVC080 20/18 A2990 RMK SF4SC2AC2 SLP127=
CYQM;2005-08-31 15:28;SPECI CYQM 311528Z 13006KT 10SM -SHRA BKN006 BKN030 OVC080 21/ RMK SC6SC2AC1=
CYQM;2005-08-31 16:00;METAR CYQM 311600Z 14009KT 8SM -SHRA BKN006 OVC080 21/19 A2988 RMK SC6AC2 SLP120=
CYQM;2005-08-31 17:00;METAR CYQM 311700Z 15007KT 3SM -SHRA BR BKN007 OVC040 21/19 A2989 RMK SC6SC2 SLP122=
CYQM;2005-08-31 17:38;SPECI CYQM 311738Z 13005KT 2SM SHRA BR BKN008 OVC035 21/ RMK SC6SC2=
CYQM;2005-08-31 18:42;SPECI CYQM 311842Z 11006KT 4SM -SHRA BR BKN009 OVC030 21/ RERA RMK SC6SC2=
CYQM;2005-08-31 19:00;METAR CYQM 311900Z 14008KT 8SM -SHRA BKN003 BKN008 OVC030 21/19 A2985 RERA RMK SF5SF2SC1 SLP109=
CYQM;2005-08-31 19:20;SPECI CYQM 311920Z 14007KT 4SM -SHRA BR FEW003 BKN008 OVC030 21/ RMK SF2SC5SC2=
CYQM;2005-08-31 20:57;SPECI CYQM 312057Z 12008KT 12SM BKN005 OVC030 22/ RMK SC7SC1=
CYQM;2005-08-31 21:00;METAR CYQM 312100Z 13010KT 12SM BKN005 OVC030 22/20 A2980 RMK SC7SC1 SLP091=
CYQM;2005-08-31 21:35;SPECI CYQM 312135Z 13009KT 12SM BKN011 OVC030 22/ RMK SC6SC2=
CYQM;2005-08-31 22:00;METAR CYQM 312200Z 13011KT 12SM -SHRA BKN011 OVC030 22/20 A2978 RMK SC6SC2 SLP085=
CYQM;2005-08-31 22:12;SPECI CYQM 312212Z 12010KT 12SM -SHRA BKN008 OVC020 22/ RMK SF5SC3=
CYQM;2005-08-31 23:00;METAR CYQM 312300Z 14010G15KT 12SM -SHRA BKN007 OVC020 22/20 A2977 RMK SF5SC3 SLP080=
CYQM;2005-08-31 23:16;SPECI CYQM 312316Z 15013G18KT 12SM BKN009 BKN020 OVC050 22/ RMK SF5SC2SC2=
CYQM;2005-09-01 00:00;METAR CYQM 010000Z 16018G26KT 12SM BKN008 BKN020 OVC050 22/20 A2976 RMK SF5SC2SC2 SLP078=
CYQM;2005-09-01 00:56;SPECI CYQM 010056Z 15017G24KT 15SM FEW008 SCT020 21/ RMK SF2SC2=
CYQM;2005-09-01 01:00;METAR CYQM 010100Z 16018G24KT 15SM FEW008 SCT020 21/19 A2973 RMK SF2SC2 SLP068=
CYQM;2005-09-01 01:22;SPECI CYQM 010122Z 15015G28KT 15SM SCT007 BKN020 21/ RMK SF4SC2=
CYQM;2005-09-01 01:45;SPECI CYQM 010145Z 16018G24KT 15SM BKN008 BKN020 21/ RMK SF5SC2=
CYQM;2005-09-01 02:54;SPECI CYQM 010254Z 16014G22KT 15SM -SHRA BKN007 BKN020 22/ RMK SF5SC2=
CYQM;2005-09-01 03:00;METAR CYQM 010300Z 16012G20KT 10SM -SHRA BKN007 BKN020 22/20 A2972 RMK SF5SC2 SLP064=
CYQM;2005-09-01 03:28;SPECI CYQM 010328Z 16014G22KT 15SM FEW008 OVC016 22/ RMK SF2SC6=
CYQM;2005-09-01 03:55;SPECI CYQM 010355Z 16017G22KT 15SM BKN012 OVC020 22/ RMK SC6SC2=
CYQM;2005-09-01 04:00;METAR CYQM 010400Z 16015G22KT 15SM BKN012 OVC020 22/19 A2970 RMK SC6SC2 SLP057=
CYQM;2005-09-01 05:00;METAR CYQM 010500Z 15019G29KT 15SM BKN012 BKN020 22/19 A2966 RMK SC5SC2 SLP043=
CYQM;2005-09-01 06:00;METAR CYQM 010600Z 17015G21KT 15SM BKN013 BKN020 22/19 A2963 RMK SC5SC2 SLP035=
CYQM;2005-09-01 06:32;SPECI CYQM 010632Z 16020G26KT 15SM FEW012 BKN020 OVC030 22/ RMK SC2SC4SC2=
CYQM;2005-09-01 07:00;METAR CYQM 010700Z 16018G27KT 15SM FEW012 BKN020 OVC030 22/19 A2962 RMK SC2SC6SC1 SLP029=
CYQM;2005-09-01 07:49;SPECI CYQM 010749Z 15016G21KT 12SM -SHRA BKN014 OVC025 22/ RMK SC6SC2=
CYQM;2005-09-01 08:14;SPECI CYQM 010814Z 15016G26KT 10SM -SHRA FEW007 OVC012 22/ RMK SF2SC6=
CYQM;2005-09-01 09:48;SPECI CYQM 010948Z 16015G22KT 15SM BKN005 BKN020 22/ RMK SF7SC1=
CYQM;2005-09-01 10:00;METAR CYQM 011000Z 16016G26KT 15SM BKN005 BKN020 23/20 A2957 RMK SF7SC1 SLP014=
CYQM;2005-09-01 10:21;SPECI CYQM 011021Z 16015KT 2SM SHRA BR BKN004 OVC015 22/ RMK SF7SC1=
CYQM;2005-09-01 10:33;SPECI CYQM 011033Z 16017G26KT 1 1/4SM SHRA BR BKN004 OVC015 22/ RMK SF7SC1=
CYQM;2005-09-01 10:43;SPECI CYQM 011043Z 16016G21KT 5SM -SHRA BR BKN008 OVC020 22/ RERA RMK SF7SC1=
CYQM;2005-09-01 11:00;METAR CYQM 011100Z 16018G28KT 5SM -SHRA BR SCT005 BKN008 BKN030 22/20 A2955 RERA RMK SF4SC3SC1 SLP008=
CYQM;2005-09-01 11:09;SPECI CYQM 011109Z 16018G27KT 1 1/4SM -SHRA BR BKN007 OVC030 22/ RMK SF7SC1=
CYQM;2005-09-01 11:16;SPECI CYQM 011116Z 16013G25KT 5SM -SHRA BR BKN007 OVC030 22/ RMK SF7SC1=
CYQM;2005-09-01 11:37;SPECI CYQM 011137Z 17013G21KT 1 1/2SM -SHRA BR OVC008 22/ RMK SF8=
CYQM;2005-09-01 12:00;METAR CYQM 011200Z 16015G24KT 1 1/2SM +SHRA BR BKN008 OVC020 22/20 A2955 RMK SF7SC1 SLP006=
CYQM;2005-09-01 13:00;METAR CYQM 011300Z 16018G25KT 15SM OVC008 23/21 A2954 RERA RMK SC8 SLP004=
CYQM;2005-09-01 13:36;SPECI CYQM 011336Z 17012G19KT 8SM -SHRA OVC008 23/ RMK SC8=
CYQM;2005-09-01 13:39;SPECI CYQM 011339Z 17013KT 1 1/2SM -SHRA BR OVC008 22/ RMK SC8=
CYQM;2005-09-01 14:26;SPECI CYQM 011426Z 20012G18KT 12SM BKN007 OVC012 23/ RMK SC7SC1=
CYQM;2005-09-01 15:20;SPECI CYQM 011520Z 23015KT 12SM -SHRA OVC008 21/ RMK SC8=
CYQM;2005-09-01 16:00;METAR CYQM 011600Z 23009G15KT 15SM BKN008 OVC020 21/19 A2955 RMK SC7SC1 SLP007=
CYQM;2005-09-01 16:42;SPECI CYQM 011642Z 22009G15KT 15SM -SHRA SCT007 BKN015 20/ RMK SC4SC3=
CYQM;2005-09-01 17:00;METAR CYQM 011700Z 23011G16KT 15SM BKN011 BKN030 20/18 A2957 RMK SC6SC1 SLP012=
CYQM;2005-09-01 18:00;METAR CYQM 011800Z 24011KT 15SM FEW010 BKN040 BKN080 21/18 A2957 RMK CF2SC2AC2 SLP013=
CYQM;2005-09-01 20:00;METAR CYQM 012000Z 23010KT 15SM SCT020 BKN045 BKN080 23/18 A2959 RMK CU3SC2AC1 SLP020=
CYQM;2005-09-01 21:00;METAR CYQM 012100Z 24012G19KT 15SM FEW020 FEW045 FEW080 24/18 A2960 RMK CU1SC1AC1 SLP024=
CYQM;2005-09-01 22:00;METAR CYQM 012200Z 23009KT 15SM FEW020 FEW045 FEW080 23/18 A2962 RMK CU1SC1AC1 SLP030=
CYQM;2005-09-01 23:00;METAR CYQM 012300Z 21006KT 15SM FEW020 FEW045 21/18 A2964 RMK CU1SC1 SLP036=
CYQM;2005-09-02 00:00;METAR CYQM 020000Z 23008KT 15SM FEW035 21/18 A2967 RMK SC2 SLP047=
CYQM;2005-09-02 01:00;METAR CYQM 020100Z 22006KT 15SM FEW035 20/18 A2969 RMK SC2 SLP054=
CYQM;2005-09-02 02:00;METAR CYQM 020200Z 22005KT 15SM FEW035 19/17 A2970 RMK SC1 SLP059=
CYQM;2005-09-02 03:00;METAR CYQM 020300Z 22007KT 15SM FEW035 18/16 A2972 RMK SC2 SLP064=
CYQM;2005-09-02 04:00;METAR CYQM 020400Z 23006KT 15SM FEW035 17/15 A2973 RMK SC1 SLP069=
CYQM;2005-09-02 05:00;METAR CYQM 020500Z 21007KT 15SM SKC 17/15 A2974 RMK SLP072=
CYQM;2005-09-02 06:00;METAR CYQM 020600Z 24006KT 15SM SKC 17/14 A2975 RMK SLP075=
CYQM;2005-09-02 07:00;METAR CYQM 020700Z 22008KT 15SM SKC 16/14 A2975 RMK SLP076=
CYQM;2005-09-02 08:00;METAR CYQM 020800Z 22008KT 15SM SKC 15/14 A2976 RMK SLP079=
CYQM;2005-09-02 09:00;METAR CYQM 020900Z 21006KT 15SM SKC 15/14 A2977 RMK SLP083=
CYQM;2005-09-02 10:00;METAR CYQM 021000Z 22007KT 15SM SKC 15/13 A2978 RMK SLP086=
CYQM;2005-09-02 11:00;METAR CYQM 021100Z 22006KT 15SM SKC 16/14 A2980 RMK SLP091=
CYQM;2005-09-02 12:00;METAR CYQM 021200Z 24012KT 15SM SKC 18/15 A2980 RMK SLP093=
CYQM;2005-09-02 13:00;METAR CYQM 021300Z 24011KT 15SM SKC 20/16 A2980 RMK SLP092=
CYQM;2005-09-02 16:00;METAR CYQM 021600Z 23010G15KT 15SM FEW030 24/16 A2977 RMK CU1 SLP081=
CYQM;2005-09-02 17:00;METAR CYQM 021700Z 23015KT 15SM FEW030 26/17 A2975 RMK CU1 SLP075=
CYQM;2005-09-02 18:00;METAR CYQM 021800Z 23014KT 15SM FEW035 26/16 A2973 RMK CU1 SLP069=
CYQM;2005-09-02 20:00;METAR CYQM 022000Z 22011G16KT 15SM SCT040 26/16 A2971 RMK CU4 SLP061=
CYQM;2005-09-02 21:00;METAR CYQM 022100Z 22012KT 15SM FEW040 26/16 A2970 RMK CU1 SLP056=
CYQM;2005-09-02 22:00;METAR CYQM 022200Z 19010G16KT 15SM FEW040 24/16 A2970 RMK CU1 SLP057=
CYQM;2005-09-02 23:00;METAR CYQM 022300Z 19007KT 15SM SKC 21/15 A2971 RMK SLP060=
CYQM;2005-09-03 00:00;METAR CYQM 030000Z 18006KT 15SM SKC 20/15 A2972 RMK SLP063=
CYQM;2005-09-03 01:00;METAR CYQM 030100Z 19006KT 15SM SKC 19/14 A2971 RMK SLP061=
CYQM;2005-09-03 02:00;METAR CYQM 030200Z 21008KT 15SM SKC 19/13 A2971 RMK SLP061=
CYQM;2005-09-03 03:00;METAR CYQM 030300Z 20007KT 15SM SKC 18/13 A2970 RMK SLP059=
CYQM;2005-09-03 04:00;METAR CYQM 030400Z 19005KT 15SM SKC 17/13 A2970 RMK SLP056=
CYQM;2005-09-03 05:00;METAR CYQM 030500Z 19006KT 15SM SKC 17/13 A2968 RMK SLP050=
CYQM;2005-09-03 06:00;METAR CYQM 030600Z 19007KT 15SM FEW050 17/13 A2966 RMK SC1 SLP045=
CYQM;2005-09-03 07:00;METAR CYQM 030700Z 22011KT 15SM FEW050 16/13 A2966 RMK SC1 SLP044=
CYQM;2005-09-03 08:00;METAR CYQM 030800Z 23010KT 15SM FEW050 17/14 A2967 RMK SC1 SLP047=
CYQM;2005-09-03 09:00;METAR CYQM 030900Z 23010KT 15SM FEW050 FEW120 16/13 A2967 RMK SC1AC1 SLP049=
CYQM;2005-09-03 10:00;METAR CYQM 031000Z 23011KT 15SM FEW050 FEW260 16/13 A2970 RMK SC1CI1 SLP057=
CYQM;2005-09-03 11:00;METAR CYQM 031100Z 23012KT 15SM FEW120 FEW260 16/13 A2971 RMK AC1CI1 SLP062=
CYQM;2005-09-03 12:00;METAR CYQM 031200Z 24012G17KT 15SM FEW015 FEW120 17/13 A2971 RMK CF1AC1 SLP063=
CYQM;2005-09-03 13:00;METAR CYQM 031300Z 24012G20KT 15SM FEW017 19/13 A2972 RMK CF1 SLP065=
CYQM;2005-09-03 15:00;METAR CYQM 031500Z 25015KT 15SM SCT028 21/14 A2973 RMK CU3 SLP067=
CYQM;2005-09-03 16:00;METAR CYQM 031600Z 23018KT 15SM FEW030 21/14 A2973 RMK CU2 SLP066=
CYQM;2005-09-03 18:00;METAR CYQM 031800Z 24012G19KT 15SM BKN035 23/13 A2972 RMK CU5 SLP064=
CYQM;2005-09-03 19:00;METAR CYQM 031900Z 26016KT 15SM SCT035 24/13 A2973 RMK CU4 SLP066=
CYQM;2005-09-03 21:00;METAR CYQM 032100Z 27010KT 15SM FEW040 23/12 A2975 RMK CU2 SLP074=
CYQM;2005-09-03 22:00;METAR CYQM 032200Z 26008G16KT 15SM FEW040 22/12 A2977 RMK CU2 SLP081=
CYQM;2005-09-03 23:00;METAR CYQM 032300Z 25008KT 15SM FEW030 FEW100 20/13 A2979 RMK SC1AC1 CU ASOCTD SLP087=
CYQM;2005-09-04 00:00;METAR CYQM 040000Z 23007KT 15SM FEW030 FEW100 18/13 A2981 RMK SC1AC1 SLP096=
CYQM;2005-09-04 01:00;METAR CYQM 040100Z 24007KT 15SM FEW030 17/13 A2984 RMK SC1 SLP105=
CYQM;2005-09-04 03:00;METAR CYQM 040300Z 25008KT 15SM FEW055 15/12 A2988 RMK SC1 SLP119=
CYQM;2005-09-04 04:00;METAR CYQM 040400Z 23006KT 15SM SKC 14/11 A2989 RMK SLP124=
CYQM;2005-09-04 05:00;METAR CYQM 040500Z 22006KT 15SM SKC 13/11 A2991 RMK SLP129=
CYQM;2005-09-04 06:00;METAR CYQM 040600Z 22007KT 15SM SKC 13/11 A2992 RMK SLP132=
CYQM;2005-09-04 08:00;METAR CYQM 040800Z 20008KT 15SM SKC 11/09 A2994 RMK SLP139=
CYQM;2005-09-04 09:00;METAR CYQM 040900Z 22007KT 15SM SKC 11/09 A2996 RMK SLP146=
CYQM;2005-09-04 10:00;METAR CYQM 041000Z 22007KT 15SM SKC 11/09 A2999 RMK SLP157=
CYQM;2005-09-04 11:00;METAR CYQM 041100Z 23006KT 15SM SKC 13/10 A3002 RMK SLP167=
CYQM;2005-09-04 12:00;METAR CYQM 041200Z 25010KT 15SM SKC 15/11 A3003 RMK SLP170=
CYQM;2005-09-04 13:00;METAR CYQM 041300Z 27004KT 15SM SKC 16/12 A3004 RMK SLP174=
CYQM;2005-09-04 14:00;METAR CYQM 041400Z 34002KT 15SM FEW025 19/12 A3006 RMK CU1 SLP180=
CYQM;2005-09-04 15:00;METAR CYQM 041500Z 27005KT 15SM FEW030 20/11 A3006 RMK CU2 SLP182=
CYQM;2005-09-04 16:00;METAR CYQM 041600Z 00000KT 15SM BKN033 20/12 A3006 RMK CU6 SLP181=
CYQM;2005-09-04 17:00;METAR CYQM 041700Z 26007KT 15SM BKN035 BKN130 21/11 A3007 RMK CU6AC1 SLP183=
CYQM;2005-09-04 18:00;METAR CYQM 041800Z 32007KT 15SM SCT040 BKN050 BKN130 21/12 A3008 RMK CU3SC3AC1 SLP186=
CYQM;2005-09-04 19:00;METAR CYQM 041900Z 06006KT 15SM FEW040 BKN050 BKN130 20/12 A3008 RMK CU2SC4AC1 SLP188=
CYQM;2005-09-04 20:00;METAR CYQM 042000Z 04006KT 15SM FEW040 BKN070 20/12 A3009 RMK CU2AC6 SLP192=
CYQM;2005-09-04 21:00;METAR CYQM 042100Z 02003KT 15SM FEW030 BKN045 BKN120 20/12 A3010 RMK CU1SC4AC1 SLP195=
CYQM;2005-09-04 22:00;METAR CYQM 042200Z 01002KT 15SM FEW025 BKN040 BKN120 19/13 A3012 RMK CU1SC5AC1 SLP200=
CYQM;2005-09-05 00:00;METAR CYQM 050000Z 09004KT 15SM SCT030 BKN070 18/12 A3016 RMK SC3AC2 SLP213=
CYQM;2005-09-05 01:00;METAR CYQM 050100Z 09002KT 15SM FEW030 BKN070 17/11 A3017 RMK SC2AC3 SLP219=
CYQM;2005-09-05 03:00;METAR CYQM 050300Z 31003KT 15SM SCT080 15/11 A3020 RMK AC3 SLP229=
CYQM;2005-09-05 04:00;METAR CYQM 050400Z 32003KT 15SM SCT080 13/11 A3021 RMK AC3 SLP232=
CYQM;2005-09-05 06:00;METAR CYQM 050600Z 23004KT 15SM SCT050 13/12 A3022 RMK SC4 SLP236=
CYQM;2005-09-05 07:00;METAR CYQM 050700Z 25005KT 15SM FEW050 12/11 A3024 RMK SC2 SLP241=
CYQM;2005-09-05 08:00;METAR CYQM 050800Z 23004KT 15SM FEW050 11/10 A3025 RMK SC1 SLP246=
CYQM;2005-09-05 09:00;METAR CYQM 050900Z 26005KT 15SM FEW050 10/09 A3027 RMK SC1 SLP253=
CYQM;2005-09-05 10:00;METAR CYQM 051000Z 25005KT 15SM FEW050 09/08 A3030 RMK SC1 SLP261=
CYQM;2005-09-05 11:00;METAR CYQM 051100Z 23004KT 15SM FEW050 10/08 A3031 RMK SC1 SLP266=
CYQM;2005-09-05 12:00;METAR CYQM 051200Z 27007KT 15SM SKC 13/08 A3032 RMK SLP270=
CYQM;2005-09-05 13:00;METAR CYQM 051300Z 32010KT 15SM FEW035 15/08 A3033 RMK CU1 SLP274=
CYQM;2005-09-05 14:00;METAR CYQM 051400Z 35007KT 15SM FEW035 17/09 A3034 RMK CU1 SLP277=
CYQM;2005-09-05 15:00;METAR CYQM 051500Z 34008G15KT 15SM FEW040 18/08 A3033 RMK CU1 SLP274=
CYQM;2005-09-05 16:00;METAR CYQM 051600Z 31011KT 15SM FEW040 18/08 A3033 RMK CU1 SLP274=
CYQM;2005-09-05 17:00;METAR CYQM 051700Z 30009KT 15SM FEW040 19/07 A3033 RMK CU1 SLP273=
CYQM;2005-09-05 18:00;METAR CYQM 051800Z 32007KT 15SM FEW040 FEW250 20/07 A3033 RMK CU1CI1 SLP271=
CYQM;2005-09-05 19:00;METAR CYQM 051900Z 03008KT 15SM FEW040 FEW250 19/09 A3032 RMK CU1CI1 SLP269=
CYQM;2005-09-05 20:00;METAR CYQM 052000Z 04007KT 15SM FEW040 FEW250 19/09 A3033 RMK CU1CI1 CU TR SLP271=
CYQM;2005-09-05 21:00;METAR CYQM 052100Z 02007KT 15SM FEW035 FEW250 18/08 A3035 RMK CU1CI1 SLP278=
CYQM;2005-09-05 22:00;METAR CYQM 052200Z 05003KT 15SM FEW240 17/08 A3036 RMK CI1 SLP281=
CYQM;2005-09-06 00:00;METAR CYQM 060000Z 11004KT 15SM FEW240 15/08 A3039 RMK CI1 SLP293=
CYQM;2005-09-06 02:00;METAR CYQM 060200Z 16004KT 15SM SKC 12/07 A3039 RMK SLP292=
CYQM;2005-09-06 03:00;METAR CYQM 060300Z 20005KT 15SM SKC 10/08 A3039 RMK SLP294=
CYQM;2005-09-06 04:00;METAR CYQM 060400Z 21007KT 15SM FEW260 09/08 A3039 RMK CI1 SLP291=
CYQM;2005-09-06 05:00;METAR CYQM 060500Z 22006KT 15SM FEW260 09/07 A3040 RMK CI1 SLP295=
CYQM;2005-09-06 06:00;METAR CYQM 060600Z 21007KT 15SM FEW260 08/07 A3040 RMK CI1 SLP295=
CYQM;2005-09-06 07:00;METAR CYQM 060700Z 22006KT 15SM SKC 08/07 A3040 RMK SLP297=
CYQM;2005-09-06 08:00;METAR CYQM 060800Z 22006KT 15SM SKC 08/07 A3041 RMK SLP298=
CYQM;2005-09-06 09:00;METAR CYQM 060900Z 21007KT 15SM FEW070 08/06 A3042 RMK AC1 SLP302=
CYQM;2005-09-06 11:00;METAR CYQM 061100Z 23010KT 15SM BKN070 09/08 A3044 RMK AC5 SLP311=
CYQM;2005-09-06 12:00;METAR CYQM 061200Z 22007KT 15SM BKN050 11/09 A3043 RMK SC6 SLP306=
CYQM;2005-09-06 13:00;METAR CYQM 061300Z 23008KT 15SM BKN070 14/10 A3044 RMK AC6 SLP308=
CYQM;2005-09-06 14:00;METAR CYQM 061400Z 22006KT 15SM FEW070 16/11 A3043 RMK AC2 SLP305=
CYQM;2005-09-06 15:00;METAR CYQM 061500Z 22007KT 15SM FEW070 19/10 A3041 RMK AC2 SLP301=
CYQM;2005-09-06 16:00;METAR CYQM 061600Z 22008KT 15SM FEW070 FEW250 21/11 A3040 RMK AC2CI1 SLP295=
CYQM;2005-09-06 17:00;METAR CYQM 061700Z 22008KT 15SM FEW070 FEW250 22/10 A3038 RMK AC2CI1 SLP288=
CYQM;2005-09-06 18:00;METAR CYQM 061800Z 23008KT 15SM FEW070 SCT250 24/10 A3035 RMK AC1CI1 SLP280=
CYQM;2005-09-06 19:00;METAR CYQM 061900Z 22011KT 15SM FEW070 SCT250 24/05 A3033 RMK AC1CI2 SLP273=
CYQM;2005-09-06 21:00;METAR CYQM 062100Z 23009KT 15SM BKN270 23/09 A3031 RMK CI4 SLP265=
CYQM;2005-09-06 22:00;METAR CYQM 062200Z 22008KT 15SM BKN270 22/09 A3031 RMK CI4 SLP265=
CYQM;2005-09-07 00:00;METAR CYQM 070000Z 19007KT 15SM BKN240 17/10 A3031 RMK CI5 SLP265=
CYQM;2005-09-07 02:00;METAR CYQM 070200Z 23009KT 15SM SCT250 16/10 A3029 RMK CI2 SLP258=
CYQM;2005-09-07 03:00;METAR CYQM 070300Z 25008KT 15SM SKC 15/10 A3028 RMK SLP255=
CYQM;2005-09-07 04:00;METAR CYQM 070400Z 27007KT 15SM SKC 15/10 A3029 RMK SLP257=
CYQM;2005-09-07 05:00;METAR CYQM 070500Z 22010KT 15SM SKC 14/10 A3028 RMK SLP254=
CYQM;2005-09-07 06:00;METAR CYQM 070600Z 22010KT 15SM SKC 13/10 A3027 RMK SLP251=
CYQM;2005-09-07 07:00;METAR CYQM 070700Z 24006KT 15SM SKC 13/10 A3026 RMK SLP248=
CYQM;2005-09-07 10:00;METAR CYQM 071000Z 23008KT 15SM FEW080 SCT260 12/10 A3024 RMK AC1CI2 SLP242=
CYQM;2005-09-07 11:00;METAR CYQM 071100Z 23007KT 15SM FEW080 SCT260 13/11 A3024 RMK AC1CI2 SLP240=
CYQM;2005-09-07 12:00;METAR CYQM 071200Z 24010G15KT 15SM SCT260 16/13 A3023 RMK CI2 SLP237=
CYQM;2005-09-07 13:00;METAR CYQM 071300Z 25013KT 15SM SCT260 18/13 A3022 RMK CI2 SLP233=
CYQM;2005-09-07 14:00;METAR CYQM 071400Z 23011KT 15SM FEW260 20/14 A3020 RMK CI2 SLP229=
CYQM;2005-09-07 15:00;METAR CYQM 071500Z 23011KT 15SM FEW260 23/15 A3019 RMK CI2 SLP225=
CYQM;2005-09-07 16:00;METAR CYQM 071600Z 22011G17KT 15SM FEW260 24/15 A3018 RMK CI1 SLP220=
CYQM;2005-09-07 17:00;METAR CYQM 071700Z 22015KT 15SM FEW260 25/14 A3016 RMK CI1 SLP214=
CYQM;2005-09-07 18:00;METAR CYQM 071800Z 23016KT 15SM FEW260 25/13 A3014 RMK CI1 SLP209=
CYQM;2005-09-07 19:00;METAR CYQM 071900Z 24015G20KT 15SM FEW260 26/13 A3013 RMK CI1 SLP203=
CYQM;2005-09-07 20:00;METAR CYQM 072000Z 23014KT 15SM FEW260 26/13 A3011 RMK CI1 SLP197=
CYQM;2005-09-07 21:00;METAR CYQM 072100Z 24014KT 15SM FEW270 25/14 A3009 RMK CI0 SLP190=
CYQM;2005-09-07 22:00;METAR CYQM 072200Z 24010KT 15SM FEW270 24/14 A3008 RMK CI0 SLP187=
CYQM;2005-09-07 23:00;METAR CYQM 072300Z 22009KT 15SM FEW260 22/15 A3008 RMK CI1 SLP188=
CYQM;2005-09-08 00:00;METAR CYQM 080000Z 22007KT 15SM FEW260 20/14 A3008 RMK CI1 SLP187=
CYQM;2005-09-08 01:00;METAR CYQM 080100Z 22009KT 15SM SKC 18/13 A3006 RMK SLP181=
CYQM;2005-09-08 03:00;METAR CYQM 080300Z 20005KT 15SM SKC 15/12 A3005 RMK SLP177=
CYQM;2005-09-08 04:00;METAR CYQM 080400Z 19005KT 15SM FEW260 15/11 A3005 RMK CI1 SLP176=
CYQM;2005-09-08 05:00;METAR CYQM 080500Z 22009KT 15SM FEW260 13/11 A3005 RMK CI1 SLP175=
CYQM;2005-09-08 06:00;METAR CYQM 080600Z 20008KT 15SM FEW260 14/11 A3004 RMK CI0 SLP172=
CYQM;2005-09-08 07:00;METAR CYQM 080700Z 21007KT 15SM FEW260 13/11 A3003 RMK CI0 SLP168=
CYQM;2005-09-08 10:00;METAR CYQM 081000Z 20006KT 6SM BR FEW260 12/11 A3002 RMK CI1 VIS S-NW 1 SLP165=
CYQM;2005-09-08 10:37;SPECI CYQM 081037Z 21006KT 10SM FEW260 12/ RMK CI1 VIS W 2=
CYQM;2005-09-08 11:00;METAR CYQM 081100Z 22006KT 12SM FEW260 13/12 A3001 RMK CI1 SLP163=
CYQM;2005-09-08 12:00;METAR CYQM 081200Z 23009KT 12SM FEW260 16/14 A3000 RMK CI1 SLP161=
CYQM;2005-09-08 13:00;METAR CYQM 081300Z 25013KT 15SM FEW260 20/15 A3001 RMK CI1 SLP162=
CYQM;2005-09-08 14:00;METAR CYQM 081400Z 21008KT 15SM FEW260 22/16 A3000 RMK CI1 SLP160=
CYQM;2005-09-08 15:00;METAR CYQM 081500Z 21009KT 15SM FEW260 24/17 A2999 RMK CI1 SLP155=
CYQM;2005-09-08 16:00;METAR CYQM 081600Z 20007G15KT 15SM FEW030 25/17 A2997 RMK CF1 SLP148=
CYQM;2005-09-08 17:00;METAR CYQM 081700Z 23011KT 15SM FEW030 26/17 A2995 RMK CF1 SLP144=
CYQM;2005-09-08 18:00;METAR CYQM 081800Z 21012KT 15SM FEW035 26/17 A2993 RMK CF1 SLP135=
CYQM;2005-09-08 19:00;METAR CYQM 081900Z 23006KT 15SM FEW040 27/17 A2992 RMK CF1 SLP131=
CYQM;2005-09-08 20:00;METAR CYQM 082000Z 23009G15KT 15SM FEW040 26/17 A2991 RMK CU1 SLP129=
CYQM;2005-09-08 21:00;METAR CYQM 082100Z 12007KT 15SM FEW040 23/17 A2991 RMK CU2 TCU ASOCTD SLP128=
CYQM;2005-09-08 22:00;METAR CYQM 082200Z 14006KT 10SM FEW040 SCT120 BKN250 22/17 A2990 RMK CU2AC2CI2 SLP127=
CYQM;2005-09-09 00:00;METAR CYQM 090000Z 18004KT 12SM FEW045 SCT120 BKN250 19/16 A2992 RMK SC2AC2CI1 SLP132=
CYQM;2005-09-09 01:00;METAR CYQM 090100Z 23005KT 12SM FEW045 SCT120 BKN250 18/15 A2992 RMK SC1AC2CI2 SLP133=
CYQM;2005-09-09 03:19;SPECI CYQM 090319Z 22005KT 12SM BKN035 BKN120 16/ RMK SC5AC2=
CYQM;2005-09-09 05:00;METAR CYQM 090500Z 35004KT 12SM BKN016 OVC030 17/15 A2989 RMK SC6SC2 SLP124=
CYQM;2005-09-09 06:00;METAR CYQM 090600Z 01011G16KT 12SM BKN024 OVC040 16/12 A2990 RMK SC6SC2 SLP125=
CYQM;2005-09-09 07:00;METAR CYQM 090700Z 02006KT 15SM BKN027 OVC040 16/12 A2988 RMK SC6SC2 SLP120=
CYQM;2005-09-09 09:00;METAR CYQM 090900Z 30011KT 15SM BKN025 OVC040 15/11 A2993 RMK SC6SC2 SLP135=
CYQM;2005-09-09 09:12;SPECI CYQM 090912Z 32010KT 15SM -SHRA BKN025 OVC040 14/ RMK SC6SC2=
CYQM;2005-09-09 10:00;METAR CYQM 091000Z 36006KT 12SM -SHRA FEW012 BKN025 BKN040 14/12 A2991 RERA RMK SC2SC3SC2 SLP130=
CYQM;2005-09-09 10:17;SPECI CYQM 091017Z 36010KT 15SM -SHRA FEW005 BKN025 BKN040 BKN100 13/ RMK SF2SC3SC2AC1=
CYQM;2005-09-09 10:33;SPECI CYQM 091033Z 35009KT 15SM BKN004 BKN040 BKN100 13/ RMK SF5SC2AC1=
CYQM;2005-09-09 11:00;METAR CYQM 091100Z 33007KT 15SM BKN004 BKN025 13/12 A2992 RMK SF5SC2 SLP131=
CYQM;2005-09-09 11:41;SPECI CYQM 091141Z 34011KT 15SM FEW004 BKN006 BKN025 14/ RMK SF2SF5SC1=
CYQM;2005-09-09 12:00;METAR CYQM 091200Z 33007KT 15SM FEW004 BKN006 BKN025 14/13 A2992 RMK SF2SF5SC1 SLP134=
CYQM;2005-09-09 13:00;METAR CYQM 091300Z 32008KT 15SM BKN006 OVC025 14/13 A2994 RMK SF7SC1 SLP139=
CYQM;2005-09-09 14:00;METAR CYQM 091400Z 34008KT 15SM BKN006 OVC015 15/13 A2995 RMK SF5SC3 SLP142=
CYQM;2005-09-09 15:26;SPECI CYQM 091526Z 31008KT 15SM -SHRA SCT007 OVC015 15/ RMK SF3SC5=
CYQM;2005-09-09 16:00;METAR CYQM 091600Z 33006KT 15SM FEW007 BKN015 15/13 A2995 RMK SF1SC6 SLP145=
CYQM;2005-09-09 17:00;METAR CYQM 091700Z 01005KT 15SM FEW007 BKN015 BKN100 17/13 A2995 RMK SF1SC6AC1 SLP142=
CYQM;2005-09-09 18:00;METAR CYQM 091800Z 32004KT 15SM BKN025 BKN100 18/12 A2994 RMK CU5AC2 SLP138=
CYQM;2005-09-09 19:00;METAR CYQM 091900Z 05005KT 15SM SCT025 BKN100 19/13 A2993 RMK CU3AC2 SLP136=
CYQM;2005-09-09 20:00;METAR CYQM 092000Z 05006KT 15SM FEW030 FEW050 SCT260 19/12 A2993 RMK CU2SC1CI1 SLP136=
CYQM;2005-09-09 21:00;METAR CYQM 092100Z 06004KT 15SM FEW030 FEW050 SCT260 19/11 A2993 RMK CU2SC1CI1 SLP137=
CYQM;2005-09-09 22:00;METAR CYQM 092200Z 09004KT 15SM FEW030 FEW050 18/11 A2994 RMK CU2SC1 SLP139=
CYQM;2005-09-09 23:00;METAR CYQM 092300Z 15004KT 15SM FEW035 SCT050 16/12 A2995 RMK CU2SC2 SLP141=
CYQM;2005-09-10 00:00;METAR CYQM 100000Z 14005KT 15SM FEW035 SCT050 15/12 A2995 RMK CU2SC2 SLP142=
CYQM;2005-09-10 01:00;METAR CYQM 100100Z 14002KT 15SM FEW035 FEW050 15/12 A2995 RMK CU1SC2 SLP145=
CYQM;2005-09-10 02:00;METAR CYQM 100200Z 35002KT 15SM FEW035 FEW050 13/11 A2997 RMK CU1SC1 SLP149=
CYQM;2005-09-10 03:00;METAR CYQM 100300Z 27002KT 15SM SCT030 12/10 A2997 RMK SC4 SLP149=
CYQM;2005-09-10 04:00;METAR CYQM 100400Z 31007KT 15SM FEW040 12/10 A2996 RMK SC2 SLP148=
CYQM;2005-09-10 05:00;METAR CYQM 100500Z 25008KT 15SM FEW040 11/09 A2996 RMK SC2 SLP146=
CYQM;2005-09-10 06:00;METAR CYQM 100600Z 28008KT 15SM FEW040 11/09 A2995 RMK SC2 SLP144=
CYQM;2005-09-10 09:00;METAR CYQM 100900Z 22008KT 15SM FEW020 FEW040 09/08 A2998 RMK CU1SC1 SLP154=
CYQM;2005-09-10 10:00;METAR CYQM 101000Z 24008KT 15SM FEW020TCU FEW070 08/07 A2998 RMK TCU1AC1 SLP155=
CYQM;2005-09-10 11:00;METAR CYQM 101100Z 24007KT 15SM FEW020 FEW070 09/07 A3000 RMK CU1AC1 SLP159=
CYQM;2005-09-10 12:00;METAR CYQM 101200Z 24008KT 15SM FEW020 FEW070 11/08 A3000 RMK CU1AC1 SLP159=
CYQM;2005-09-10 13:00;METAR CYQM 101300Z 29008KT 15SM FEW025 13/08 A3000 RMK CU1 SLP159=
CYQM;2005-09-10 14:00;METAR CYQM 101400Z 29012KT 15SM FEW030 15/08 A2999 RMK CU1 SLP158=
CYQM;2005-09-10 15:00;METAR CYQM 101500Z 33011G17KT 15SM FEW035 16/08 A3000 RMK CU1 SLP160=
CYQM;2005-09-10 16:00;METAR CYQM 101600Z 34013KT 15SM FEW035 17/09 A3000 RMK CU2 SLP160=
CYQM;2005-09-10 17:00;METAR CYQM 101700Z 32016KT 15SM BKN040 17/08 A3000 RMK CU6 SLP159=
CYQM;2005-09-10 18:00;METAR CYQM 101800Z 35012G18KT 15SM BKN040 17/07 A2999 RMK CU6 DIST SHS SW - NW TCU ASOCTD SLP158=
CYQM;2005-09-10 19:00;METAR CYQM 101900Z 02008G15KT 12SM BKN030TCU BKN100 BKN250 17/09 A3000 RMK TCU6AC1CI1 VIS LWR N IN HVY SH SLP160=
CYQM;2005-09-10 19:05;SPECI CYQM 101905Z 36012KT 7SM -SHRA BKN030TCU BKN100 16/ RMK TCU6AC1 VIS LWR N=
CYQM;2005-09-10 19:43;SPECI CYQM 101943Z 31009KT 15SM FEW010 BKN032TCU BKN110 15/ RERA RMK CF1TCU6AC1 SHS NE=
CYQM;2005-09-10 20:00;METAR CYQM 102000Z 34008KT 15SM -SHRA BKN030TCU BKN110 14/11 A3002 RERA RMK TCU5AC2 SLP168=
CYQM;2005-09-10 20:21;SPECI CYQM 102021Z 36004KT 15SM SCT030 BKN120 15/ RMK SC3AC2 SH NE=
CYQM;2005-09-10 20:32;SPECI CYQM 102032Z 36004KT 15SM TS FEW030CB SCT120 15/ RMK CB2AC2 CB NE=
CYQM;2005-09-10 20:55;SPECI CYQM 102055Z 01012G19KT 15SM -TSRA SCT030CB BKN070 15/ RMK CB3AC2=
CYQM;2005-09-10 21:22;SPECI CYQM 102122Z 34007KT 15SM -SHRA FEW035TCU SCT040 BKN070 13/ RETS RMK TCU2SC2AC2=
CYQM;2005-09-10 21:37;SPECI CYQM 102137Z 32007KT 15SM VCSH FEW035TCU SCT040 BKN070 13/ RETS RMK TCU2SC2AC2=
CYQM;2005-09-10 22:00;METAR CYQM 102200Z 32006KT 15SM FEW035TCU SCT050 BKN070 13/10 A3007 RETS RMK TCU2SC2AC2 SLP184=
CYQM;2005-09-10 22:33;SPECI CYQM 102233Z 31006KT 15SM -SHRA SCT035TCU BKN050 BKN070 13/ RMK TCU3SC2AC2 VIS N 3=
CYQM;2005-09-10 23:00;METAR CYQM 102300Z 34008KT 15SM -SHRA SCT030TCU BKN040 BKN070 11/09 A3009 RERA RMK TCU3SC2AC2 SLP193=
CYQM;2005-09-10 23:54;SPECI CYQM 102354Z 32004KT 15SM BKN040 BKN070 11/ RMK SC5AC2=
CYQM;2005-09-11 00:00;METAR CYQM 110000Z 32006KT 15SM BKN040 BKN070 11/09 A3010 RMK SC5AC2 SLP195=
CYQM;2005-09-11 01:00;METAR CYQM 110100Z 34005KT 15SM FEW040 10/09 A3011 RMK SC2 SLP198=
CYQM;2005-09-11 02:00;METAR CYQM 110200Z 29004KT 15SM FEW040 09/08 A3011 RMK SC2 SLP198=
CYQM;2005-09-11 03:00;METAR CYQM 110300Z 32009KT 15SM SCT040 10/07 A3011 RMK SC3 SLP200=
CYQM;2005-09-11 04:00;METAR CYQM 110400Z 32007KT 15SM FEW040 09/07 A3012 RMK SC2 SLP201=
CYQM;2005-09-11 05:00;METAR CYQM 110500Z 32012KT 15SM FEW040 09/06 A3013 RMK SC2 SLP206=
CYQM;2005-09-11 06:00;METAR CYQM 110600Z 32012KT 15SM SKC 09/06 A3014 RMK SLP209=
CYQM;2005-09-11 07:00;METAR CYQM 110700Z 32011KT 15SM SKC 08/06 A3015 RMK SLP212=
CYQM;2005-09-11 09:00;METAR CYQM 110900Z 31007KT 15SM FEW020 FEW050 07/05 A3019 RMK CU1SC1 SLP224=
CYQM;2005-09-11 10:00;METAR CYQM 111000Z 28004KT 15SM FEW020 FEW050 06/05 A3021 RMK CU1SC1 SLP233=
CYQM;2005-09-11 11:00;METAR CYQM 111100Z 22005KT 15SM FEW020 06/05 A3023 RMK CU1 SLP239=
CYQM;2005-09-11 12:00;METAR CYQM 111200Z 23005KT 15SM FEW020TCU 09/07 A3023 RMK TCU1 SLP239=
CYQM;2005-09-11 13:00;METAR CYQM 111300Z 30005KT 15SM FEW025TCU FEW270 12/08 A3022 RMK TCU1CI1 TCU E SLP237=
CYQM;2005-09-11 14:00;METAR CYQM 111400Z 30007KT 15SM FEW025 FEW270 15/07 A3022 RMK CU1CI0 SLP237=
CYQM;2005-09-11 16:00;METAR CYQM 111600Z 29009G15KT 15SM FEW035 FEW270 17/05 A3019 RMK CU1CI0 CONTRAILS SLP224=
CYQM;2005-09-11 17:00;METAR CYQM 111700Z 31007KT 15SM FEW035 FEW270 18/05 A3017 RMK CU1CI1 SLP220=
CYQM;2005-09-11 18:00;METAR CYQM 111800Z 27005KT 15SM BKN280 19/05 A3014 RMK CI2 SLP207=
CYQM;2005-09-11 19:00;METAR CYQM 111900Z 23008KT 15SM BKN280 19/04 A3010 RMK CI2 SLP195=
CYQM;2005-09-11 20:00;METAR CYQM 112000Z 22011KT 15SM BKN270 18/05 A3007 RMK CI4 SLP184=
CYQM;2005-09-11 21:00;METAR CYQM 112100Z 23010KT 15SM FEW120 BKN260 18/05 A3005 RMK AC1CI6 SLP178=
CYQM;2005-09-11 22:00;METAR CYQM 112200Z 22009KT 15SM FEW100 BKN260 17/06 A3004 RMK AC2CI5 SLP174=
CYQM;2005-09-11 23:00;METAR CYQM 112300Z 19005KT 15SM FEW040 SCT090 OVC260 15/07 A3000 RMK SC1AC2CI4 SLP160=
CYQM;2005-09-12 00:00;METAR CYQM 120000Z 21006KT 15SM SCT090 OVC260 15/07 A2997 RMK AC3CI5 SLP150=
CYQM;2005-09-12 01:00;METAR CYQM 120100Z 20009KT 15SM OVC090 14/07 A2992 RMK AC8 SLP134=
CYQM;2005-09-12 02:39;SPECI CYQM 120239Z 20012KT 15SM OVC090 14/ RMK AC8=
CYQM;2005-09-12 03:00;METAR CYQM 120300Z 20013KT 15SM OVC090 15/09 A2980 RMK AC8 PRESFR SLP093=
CYQM;2005-09-12 03:23;SPECI CYQM 120323Z 24012G17KT 15SM -SHRA OVC090 15/ RMK AC8=
CYQM;2005-09-12 04:35;SPECI CYQM 120435Z 20010KT 15SM OVC090 13/ RMK AC8=
CYQM;2005-09-12 04:54;SPECI CYQM 120454Z 20009G16KT 15SM -SHRA OVC090 13/ RMK AC8=
CYQM;2005-09-12 05:00;METAR CYQM 120500Z 20007KT 15SM -SHRA BKN090 OVC260 13/11 A2973 RMK AC7CI1 SLP067=
CYQM;2005-09-12 05:35;SPECI CYQM 120535Z 22017G24KT 15SM BKN090 OVC260 15/ RMK AC7CI1=
CYQM;2005-09-12 06:54;SPECI CYQM 120654Z 23021G28KT 15SM -SHRA OVC090 15/ RMK AC8=
CYQM;2005-09-12 07:00;METAR CYQM 120700Z 23019G27KT 15SM -SHRA OVC090 14/11 A2961 RERA RMK AC8 SLP027=
CYQM;2005-09-12 07:25;SPECI CYQM 120725Z 23018KT 15SM OVC090 14/ RERA RMK AC8=
CYQM;2005-09-12 07:31;SPECI CYQM 120731Z 23019G24KT 15SM -SHRA OVC090 14/ RMK AC8=
CYQM;2005-09-12 07:50;SPECI CYQM 120750Z 23019G24KT 15SM OVC090 14/ RMK AC8 FRQ LTGIC DIST=
CYQM;2005-09-12 08:00;METAR CYQM 120800Z 23020G27KT 15SM OVC090 14/10 A2958 RMK AC8 LTGIC DIST=
CYQM;2005-09-12 08:14;SPECI CYQM 120814Z 23019KT 15SM -SHRA BKN090 OVC260 14/ RMK AC7CI1 LTGIC DIST SE-S=
CYQM;2005-09-12 09:00;METAR CYQM 120900Z 23015G22KT 8SM -SHRA BKN050 BKN260 14/11 A2956 RMK SC7CI1 DIST LTNG S SLP010=
CYQM;2005-09-12 09:39;SPECI CYQM 120939Z 23016KT 15SM SCT050 BKN090 OVC250 14/ RMK SC3AC4CI1 VIRGA NE=
CYQM;2005-09-12 10:00;METAR CYQM 121000Z 23015G21KT 15SM FEW060 BKN100 BKN250 14/11 A2955 RMK SC2AC4CI0 SLP008=
CYQM;2005-09-12 11:00;METAR CYQM 121100Z 25019G25KT 15SM FEW015 FEW060 FEW100 BKN250 16/12 A2956 RMK SC1SC1AC1CI4 SLP009=
CYQM;2005-09-12 12:00;METAR CYQM 121200Z 26021G27KT 15SM BKN020 BKN100 BKN250 18/13 A2956 RMK SC5AC1CI1 SLP012=
CYQM;2005-09-12 13:00;METAR CYQM 121300Z 27013G21KT 15SM BKN025 BKN250 19/14 A2958 RMK SC7CI1 SLP017=
CYQM;2005-09-12 14:00;METAR CYQM 121400Z 30016KT 15SM BKN012 OVC030 21/15 A2961 RMK CU5SC3 SLP026=
CYQM;2005-09-12 15:20;SPECI CYQM 121520Z 34014G24KT 15SM FEW015 SCT040 21/ RMK CU2SC2=
CYQM;2005-09-12 16:00;METAR CYQM 121600Z 34016G22KT 15SM BKN020 21/15 A2966 RMK CU7 TCU ASOCTD SLP046=
CYQM;2005-09-12 17:00;METAR CYQM 121700Z 36014G20KT 15SM BKN025 20/14 A2970 RMK CU6 SLP057=
CYQM;2005-09-12 18:00;METAR CYQM 121800Z 33015G26KT 15SM BKN025 BKN050 21/13 A2971 RMK CU6SC1 SLP063=
CYQM;2005-09-12 20:00;METAR CYQM 122000Z 34018KT 15SM FEW030 FEW055 FEW270 21/12 A2977 RMK CU2SC1CI0 SLP082=
CYQM;2005-09-12 21:00;METAR CYQM 122100Z 01016G24KT 15SM FEW025 FEW040 SCT260 18/12 A2981 RMK CU1SC1CI1 SLP094=
CYQM;2005-09-12 22:00;METAR CYQM 122200Z 36013G20KT 15SM FEW025 FEW260 17/10 A2984 RMK SC1CI1 CU ASOCTD SLP105=
CYQM;2005-09-12 23:00;METAR CYQM 122300Z 36010KT 15SM FEW030 FEW260 15/10 A2988 RMK SC1CI1 SLP118=
CYQM;2005-09-13 00:00;METAR CYQM 130000Z 36008KT 15SM FEW030 14/10 A2991 RMK SC1 SLP128=
CYQM;2005-09-13 01:00;METAR CYQM 130100Z 36006KT 15SM SKC 11/08 A2992 RMK SLP132=
CYQM;2005-09-13 03:00;METAR CYQM 130300Z 31006KT 15SM FEW030 11/08 A2997 RMK SC1 SLP151=
CYQM;2005-09-13 04:00;METAR CYQM 130400Z 32006KT 15SM FEW030 10/07 A2998 RMK SC1 SLP154=
CYQM;2005-09-13 05:00;METAR CYQM 130500Z 31004KT 15SM SKC 09/07 A2998 RMK SLP153=
CYQM;2005-09-13 06:00;METAR CYQM 130600Z 32006KT 15SM FEW030 09/07 A2998 RMK SC1 SLP155=
CYQM;2005-09-13 07:00;METAR CYQM 130700Z 33006KT 15SM FEW025 08/06 A3000 RMK SC1 SLP160=
CYQM;2005-09-13 08:00;METAR CYQM 130800Z 30004KT 15SM FEW025 08/07 A3002 RMK SC1 SLP168=
CYQM;2005-09-13 09:00;METAR CYQM 130900Z 25002KT 15SM FEW025 07/06 A3004 RMK SC1 SLP174=
CYQM;2005-09-13 10:00;METAR CYQM 131000Z 22006KT 15SM FEW035 SCT250 07/06 A3005 RMK SC2CI1 SLP178=
CYQM;2005-09-13 11:00;METAR CYQM 131100Z 22005KT 15SM BKN045 08/07 A3008 RMK SC5 SLP186=
CYQM;2005-09-13 12:00;METAR CYQM 131200Z 23006KT 15SM BKN040 10/08 A3009 RMK SC6 SLP193=
CYQM;2005-09-13 13:00;METAR CYQM 131300Z 24005KT 15SM BKN030 BKN250 11/09 A3010 RMK SC6CI1 SLP194=
CYQM;2005-09-13 14:00;METAR CYQM 131400Z 22004KT 15SM FEW025 BKN035 BKN250 12/10 A3011 RMK CU2SC3CI1 SLP197=
CYQM;2005-09-13 15:00;METAR CYQM 131500Z 20004KT 15SM SCT025 BKN035 BKN250 16/11 A3011 RMK CU3SC2CI1 SLP197=
CYQM;2005-09-13 16:00;METAR CYQM 131600Z 21003KT 15SM FEW025 BKN040 BKN250 16/09 A3010 RMK CU2SC3CI1 SLP193=
CYQM;2005-09-13 17:00;METAR CYQM 131700Z 00000KT 15SM FEW025 SCT040 BKN250 18/10 A3008 RMK CU2SC2CI2 SLP186=
CYQM;2005-09-13 18:00;METAR CYQM 131800Z 23006KT 15SM FEW040 SCT250 18/09 A3006 RMK CU2CI2 SLP182=
CYQM;2005-09-13 19:00;METAR CYQM 131900Z 21003KT 15SM FEW040 SCT250 19/09 A3005 RMK CU1CI2 SLP178=
CYQM;2005-09-13 21:00;METAR CYQM 132100Z 17009KT 15SM FEW030 FEW040 FEW160 BKN260 18/10 A3005 RMK CU1SC1AC2CI3 SLP176=
CYQM;2005-09-13 22:00;METAR CYQM 132200Z 16006KT 15SM FEW040 FEW160 BKN260 16/10 A3004 RMK SC1AC2CI3 SLP174=
CYQM;2005-09-13 23:00;METAR CYQM 132300Z 16007KT 15SM FEW030 FEW120 BKN260 14/09 A3004 RMK SC1AC1CI3 SLP174=
CYQM;2005-09-14 00:00;METAR CYQM 140000Z 17005KT 15SM SCT260 13/09 A3006 RMK CI2 SLP181=
CYQM;2005-09-14 01:00;METAR CYQM 140100Z 18006KT 15SM SCT260 13/08 A3007 RMK CI2 SLP184=
CYQM;2005-09-14 02:00;METAR CYQM 140200Z 19005KT 15SM FEW260 13/08 A3007 RMK CI1 SLP184=
CYQM;2005-09-14 03:00;METAR CYQM 140300Z 12004KT 15SM FEW040 SCT260 12/08 A3006 RMK SC2CI1 SLP181=
CYQM;2005-09-14 04:00;METAR CYQM 140400Z 17005KT 15SM BKN040 12/09 A3006 RMK SC5 SLP180=
CYQM;2005-09-14 05:00;METAR CYQM 140500Z 18005KT 15SM BKN040 13/09 A3006 RMK SC7 SLP179=
CYQM;2005-09-14 06:00;METAR CYQM 140600Z 20006KT 15SM BKN040 13/09 A3005 RMK SC7 SLP178=
CYQM;2005-09-14 07:00;METAR CYQM 140700Z 20006KT 15SM BKN040 13/09 A3006 RMK SC6 SLP180=
CYQM;2005-09-14 08:00;METAR CYQM NIL=
CYQM;2005-09-14 09:00;METAR CYQM 140900Z 21010KT 15SM BKN050 12/08 A3004 RMK SC6 SLP173=
CYQM;2005-09-14 10:00;METAR CYQM 141000Z 20007KT 15SM FEW045 BKN200 12/09 A3003 RMK SC1CI5 SLP171=
CYQM;2005-09-14 11:00;METAR CYQM 141100Z 21007KT 15SM FEW045 BKN220 13/10 A3004 RMK SC1CI5 SLP173=
CYQM;2005-09-14 12:00;METAR CYQM 141200Z 20006KT 15SM FEW080 BKN220 15/11 A3004 RMK AC1CI3 SLP173=
CYQM;2005-09-14 13:00;METAR CYQM 141300Z 21008KT 15SM FEW060 BKN220 18/13 A3003 RMK SC2CI3 SLP172=
CYQM;2005-09-14 14:00;METAR CYQM 141400Z 23009KT 15SM FEW045 BKN220 21/15 A3003 RMK SC2CI3 SLP171=
CYQM;2005-09-14 15:00;METAR CYQM 141500Z 23012KT 15SM FEW045 BKN220 23/16 A3003 RMK SC2CI3 SLP170=
CYQM;2005-09-14 16:00;METAR CYQM 141600Z 24016KT 15SM FEW045 BKN250 24/16 A3002 RMK SC1CI2 SLP168=
CYQM;2005-09-14 17:00;METAR CYQM 141700Z 23016G21KT 15SM FEW045 BKN250 24/16 A3001 RMK SC1CI2 SLP165=
CYQM;2005-09-14 18:00;METAR CYQM 141800Z 24021KT 15SM FEW045 BKN250 24/17 A3002 RMK CU1CI2 SLP165=
CYQM;2005-09-14 19:00;METAR CYQM 141900Z 22017G25KT 12SM FEW045 BKN250 23/17 A3002 RMK CU2CI2 SLP165=
CYQM;2005-09-14 20:00;METAR CYQM 142000Z 21017G27KT 12SM FEW045 BKN250 22/17 A3001 RMK CU2CI2 SLP164=
CYQM;2005-09-14 21:00;METAR CYQM 142100Z 22014G20KT 4SM HZ SCT030 BKN250 22/17 A3001 RMK CU3CI2 SLP163=
CYQM;2005-09-14 22:30;SPECI CYQM 142230Z 19013KT 8SM BKN013 BKN240 21/ RMK SC7CI1=
CYQM;2005-09-14 23:00;METAR CYQM 142300Z 20013KT 8SM BKN012 BKN250 20/16 A3001 RMK SC6CI1 SLP165=
CYQM;2005-09-14 23:27;SPECI CYQM 142327Z 21015KT 8SM SCT012 BKN260 20/ RMK SC3CI1=
CYQM;2005-09-15 00:00;METAR CYQM 150000Z 21012KT 8SM FEW012 BKN260 19/16 A3002 RMK SC2CI1 SLP167=
CYQM;2005-09-15 01:00;METAR CYQM 150100Z 21009KT 8SM SCT015 BKN260 19/17 A3002 RMK CF4CI1 SLP166=
CYQM;2005-09-15 02:00;METAR CYQM 150200Z 21007KT 8SM FEW015 BKN260 19/16 A3002 RMK CF2CI1 SLP167=
CYQM;2005-09-15 03:00;METAR CYQM 150300Z 22009G16KT 8SM FEW260 19/16 A3002 RMK CI0 SLP166=
CYQM;2005-09-15 04:00;METAR CYQM 150400Z 21008KT 10SM FEW260 18/15 A3001 RMK CI0 SLP164=
CYQM;2005-09-15 06:00;METAR CYQM 150600Z 21006KT 8SM BKN260 16/14 A3002 RMK CI2 SLP166=
CYQM;2005-09-15 09:00;METAR CYQM 150900Z 23007KT 8SM BKN230 15/14 A3001 RMK CI2 SLP164=
CYQM;2005-09-15 09:33;SPECI CYQM 150933Z 22006KT 2 1/2SM BR BKN230 14/ RMK CI2=
CYQM;2005-09-15 09:49;SPECI CYQM 150949Z 21006KT 1SM R06/P6000FT/D BR BKN230 14/ RMK CI2=
CYQM;2005-09-15 10:00;METAR CYQM 151000Z 20006KT 1SM R29/P6000FT/N R06/P6000FT/D BR FEW090 BKN230 14/13 A3003 RMK AC2CI2 SLP170=
CYQM;2005-09-15 10:48;SPECI CYQM 151048Z 18007KT 7SM FEW090 BKN230 15/ RMK AC2CI2=
CYQM;2005-09-15 11:00;METAR CYQM 151100Z 25006KT 7SM FEW090 BKN230 15/14 A3004 RMK AC2CI2 SLP174=
CYQM;2005-09-15 12:00;METAR CYQM 151200Z 23009KT 7SM FEW090 FEW160 BKN230 17/15 A3006 RMK AC1AC1CI2 SLP179=
CYQM;2005-09-15 13:00;METAR CYQM 151300Z 25009KT 10SM FEW040 FEW120 BKN230 20/17 A3006 RMK SC1AC2CI2 SLP179=
CYQM;2005-09-15 14:00;METAR CYQM 151400Z 22010KT 10SM FEW040 FEW120 BKN230 22/18 A3006 RMK SC1AC2CI2 SLP179=
CYQM;2005-09-15 15:00;METAR CYQM 151500Z 24009KT 10SM FEW040 FEW120 BKN230 23/18 A3006 RMK SC1AC2CI2 SLP180=
CYQM;2005-09-15 16:00;METAR CYQM 151600Z 25007KT 12SM FEW040 FEW120 BKN230 24/19 A3006 RMK SC1AC2CI2 SLP181=
CYQM;2005-09-15 17:00;METAR CYQM 151700Z 25010KT 12SM FEW040 SCT100 BKN230 25/19 A3006 RMK SC2AC2CI2 SLP178=
CYQM;2005-09-15 18:00;METAR CYQM 151800Z 26010KT 12SM FEW040 BKN090 BKN230 23/17 A3007 RMK SC2AC2CI2 SLP183=
CYQM;2005-09-15 18:04;SPECI CYQM 151804Z 25009KT 10SM -SHRA SCT040 BKN090 BKN230 23/ RMK SC3AC2CI2=
CYQM;2005-09-15 19:00;METAR CYQM 151900Z 23004KT 7SM -SHRA SCT040 BKN090 BKN230 20/18 A3006 RMK SC3AC2CI2 SLP180=
CYQM;2005-09-15 19:49;SPECI CYQM 151949Z 22008KT 5SM BR SCT030 BKN080 OVC150 20/ RMK SC3AC2AC2=
CYQM;2005-09-15 20:00;METAR CYQM 152000Z 21007KT 5SM BR SCT030 BKN080 OVC150 20/18 A3008 RMK SC3AC2AC2 SLP186=
CYQM;2005-09-15 20:08;SPECI CYQM 152008Z 21006KT 5SM -SHRA BR SCT030 BKN080 OVC150 20/ RMK SC4AC2AC2=
CYQM;2005-09-15 21:00;METAR CYQM 152100Z 21005KT 2SM -SHRA BR FEW010 BKN030 OVC100 19/18 A3010 RMK CF1SC6AC2 SLP194=
CYQM;2005-09-15 21:13;SPECI CYQM 152113Z 21005KT 1 1/4SM -SHRA BR FEW010 BKN030 OVC100 19/ RMK CF1SC6AC2=
CYQM;2005-09-15 22:00;METAR CYQM 152200Z 21004KT 1 1/2SM -SHRA BR BKN030 OVC100 19/17 A3010 RERA RMK SC6AC2 SLP193=
CYQM;2005-09-15 23:00;METAR CYQM 152300Z 22004KT 1 1/2SM -SHRA BR BKN030 OVC100 18/17 A3010 RMK SC7AC1 SLP194=
CYQM;2005-09-15 23:22;SPECI CYQM 152322Z 22005KT 2SM -SHRA BR FEW005 BKN025 OVC085 18/ RMK CF2SC6AC1=
CYQM;2005-09-15 23:37;SPECI CYQM 152337Z 20005KT 1 1/2SM BR BKN002 OVC030 18/ RMK SF5SC3=
CYQM;2005-09-16 00:00;METAR CYQM 160000Z 22005KT 1 1/2SM -SHRA BR BKN002 BKN007 OVC020 18/17 A3011 RMK SF5SC2SC1 SLP198=
CYQM;2005-09-16 00:30;SPECI CYQM 160030Z 24006KT 1 1/2SM -SHRA BR SCT002 BKN007 OVC020 18/ RMK SF4SC3SC1=
CYQM;2005-09-16 01:00;METAR CYQM 160100Z 22005KT 1 1/2SM -SHRA BR OVC003 18/17 A3011 RMK SF8 SLP198=
CYQM;2005-09-16 01:13;SPECI CYQM 160113Z 22006KT 1SM R06/4500VP6000FT/D R29/P6000FT/D SHRA BR OVC002 18/ RMK SF8=
CYQM;2005-09-16 01:33;SPECI CYQM 160133Z 23006KT 1 1/2SM -SHRA BR BKN001 BKN003 OVC007 18/ RERA RMK SF6SF1SC1=
CYQM;2005-09-16 03:23;SPECI CYQM 160323Z 24007KT 2SM BR OVC002 18/ RMK SF8=
CYQM;2005-09-16 03:43;SPECI CYQM 160343Z 25008KT 2SM -SHRA OVC002 18/ RMK SF8=
CYQM;2005-09-16 04:00;METAR CYQM 160400Z 27007KT 7SM -SHRA BKN002 OVC008 18/17 A3013 RMK SF6SC2 SLP203=
CYQM;2005-09-16 04:22;SPECI CYQM 160422Z 26006KT 7SM OVC003 18/ RMK SF8=
CYQM;2005-09-16 04:43;SPECI CYQM 160443Z 26006KT 7SM -SHRA OVC005 18/ RMK SF8=
CYQM;2005-09-16 05:00;METAR CYQM 160500Z 27004KT 7SM -SHRA FEW002 OVC006 18/17 A3013 RMK SF2SF6 SLP203=
CYQM;2005-09-16 05:27;SPECI CYQM 160527Z 18003KT 8SM SCT050 SCT230 17/ RMK SC3CI1=
CYQM;2005-09-16 06:00;METAR CYQM 160600Z 33009KT 8SM BKN010 BKN050 17/15 A3014 RMK SC6SC1 SLP208=
CYQM;2005-09-16 07:00;METAR CYQM 160700Z 32004KT 10SM FEW010 FEW050 15/14 A3015 RMK CU1SC1 SLP210=
CYQM;2005-09-16 08:00;METAR CYQM 160800Z 28003KT 12SM FEW050 15/14 A3016 RMK SC2 SLP215=
CYQM;2005-09-16 09:00;METAR CYQM 160900Z 28004KT 15SM FEW040 14/13 A3017 RMK SC2 SLP219=
CYQM;2005-09-16 10:00;METAR CYQM 161000Z 29004KT 15SM BKN020 BKN080 OVC260 14/13 A3019 RMK SC6AC1CI1 SLP226=
CYQM;2005-09-16 12:00;METAR CYQM 161200Z 28002KT 15SM FEW020 FEW100 BKN260 15/13 A3022 RMK SC1AC1CI2 SLP233=
CYQM;2005-09-16 13:00;METAR CYQM 161300Z 34002KT 15SM FEW010 FEW120 BKN260 17/14 A3022 RMK CF1AC1CI2 SLP234=
CYQM;2005-09-16 14:00;METAR CYQM 161400Z 30003KT 15SM FEW012 FEW040 FEW120 BKN260 18/15 A3023 RMK CU1SC1AC1CI3 SLP237=
CYQM;2005-09-16 15:00;METAR CYQM 161500Z 33007KT 15SM FEW020 SCT220 BKN260 19/12 A3023 RMK CU1CS3CI2 SLP238=
CYQM;2005-09-16 17:00;METAR CYQM 161700Z 32007KT 15SM FEW030 FEW140 SCT260 21/10 A3023 RMK CU1AC1CI3 SLP238=
CYQM;2005-09-16 18:00;METAR CYQM 161800Z 34002KT 15SM FEW040 FEW140 SCT260 21/11 A3022 RMK CU1AC1CI2 SLP234=
CYQM;2005-09-16 19:00;METAR CYQM 161900Z 05007KT 15SM FEW040 FEW140 SCT260 21/12 A3021 RMK CU1AC1CI2 SLP232=
CYQM;2005-09-16 20:00;METAR CYQM 162000Z 04008KT 15SM FEW040 FEW120 BKN260 20/11 A3020 RMK CU1AC1CI4 SLP229=
CYQM;2005-09-16 21:00;METAR CYQM 162100Z 04009KT 15SM FEW045 FEW140 BKN260 18/11 A3021 RMK SC1AC2CI2 SLP232=
CYQM;2005-09-16 22:00;METAR CYQM 162200Z 02006KT 15SM FEW140 BKN260 17/10 A3021 RMK AC2CI2 SLP232=
CYQM;2005-09-16 23:00;METAR CYQM 162300Z 04006KT 15SM FEW140 BKN260 15/11 A3022 RMK AC2CI2 SLP234=
CYQM;2005-09-17 00:00;METAR CYQM 170000Z 07006KT 15SM FEW140 BKN260 14/12 A3022 RMK AC2CI4 SLP234=
CYQM;2005-09-17 01:00;METAR CYQM 170100Z 06004KT 15SM FEW140 BKN260 14/12 A3022 RMK AC1CI4 SLP235=
CYQM;2005-09-17 02:00;METAR CYQM 170200Z 04004KT 15SM BKN120 OVC260 14/12 A3022 RMK AC6CI1 SLP234=
CYQM;2005-09-17 03:00;METAR CYQM 170300Z 06002KT 15SM FEW030 SCT120 OVC240 13/12 A3022 RMK SC2AC2CI3 SLP234=
CYQM;2005-09-17 03:13;SPECI CYQM 170313Z 06002KT 15SM FEW011 BKN120 OVC240 13/ RMK SF2AC2CI2=
CYQM;2005-09-17 03:25;SPECI CYQM 170325Z 08002KT 15SM BKN012 OVC240 13/ RMK SF6CI1=
CYQM;2005-09-17 04:00;METAR CYQM 170400Z 11004KT 15SM OVC012 14/12 A3022 RMK SF8 SLP236=
CYQM;2005-09-17 06:00;METAR CYQM 170600Z 05005KT 15SM FEW012 OVC100 13/12 A3019 RMK SF2AC6 SLP223=
CYQM;2005-09-17 06:14;SPECI CYQM 170614Z 08005KT 15SM BKN014 BKN100 OVC240 14/ RMK SC5AC2CI1=
CYQM;2005-09-17 07:00;METAR CYQM 170700Z 05006KT 15SM OVC012 14/12 A3018 RMK SC8 SLP222=
CYQM;2005-09-17 09:50;SPECI CYQM 170950Z 07006KT 15SM -SHRA OVC012 14/ RMK SC8=
CYQM;2005-09-17 10:00;METAR CYQM 171000Z 06006KT 15SM -SHRA OVC012 14/13 A3017 RMK SC8 SLP216=
CYQM;2005-09-17 11:18;SPECI CYQM 171118Z 06007KT 15SM BKN012 OVC080 14/ RMK SC7AC1=
CYQM;2005-09-17 11:26;SPECI CYQM 171126Z 05007KT 15SM -SHRA BKN012 OVC080 14/ RMK SC7AC1=
CYQM;2005-09-17 11:50;SPECI CYQM 171150Z 05007KT 15SM BKN012 OVC080 14/ RMK SC7AC1=
CYQM;2005-09-17 12:00;METAR CYQM 171200Z 06008KT 15SM BKN012 OVC080 15/13 A3015 RMK SC7AC1 SLP210=
CYQM;2005-09-17 12:11;SPECI CYQM 171211Z 06009KT 15SM -SHRA BKN012 OVC080 15/ RMK SC7AC1=
CYQM;2005-09-17 13:00;METAR CYQM 171300Z 04006KT 15SM -SHRA BKN012 OVC080 15/13 A3015 RMK SC7AC1 SLP212=
CYQM;2005-09-17 14:00;METAR CYQM 171400Z 07009KT 8SM -RA OVC010 15/13 A3014 RMK SC8 SLP208=
CYQM;2005-09-17 14:27;SPECI CYQM 171427Z 07009KT 10SM -RA FEW006 BKN010 OVC015 14/ RMK SF2SC3SC2=
CYQM;2005-09-17 15:00;METAR CYQM 171500Z 08011KT 12SM -RA SCT006 OVC012 14/13 A3012 RMK SF3SC5 SLP201=
CYQM;2005-09-17 15:18;SPECI CYQM 171518Z 07010KT 8SM -RA BKN008 OVC012 14/ RMK SF5SC3=
CYQM;2005-09-17 16:00;METAR CYQM 171600Z 08010KT 10SM -RA BKN008 OVC012 14/13 A3010 RMK SF6SC2 SLP193=
CYQM;2005-09-17 17:00;METAR CYQM 171700Z 06011KT 12SM -RA BKN007 OVC012 14/13 A3007 RMK SF7SC1 SLP183=
CYQM;2005-09-17 18:00;METAR CYQM 171800Z 06009KT 15SM -RA BKN006 OVC012 15/13 A3004 RMK SF6SC2 SLP174=
CYQM;2005-09-17 19:00;METAR CYQM 171900Z 05010G15KT 8SM -RA BKN006 OVC011 14/13 A3001 RMK SF5SC3 SLP165=
CYQM;2005-09-17 20:00;METAR CYQM 172000Z 04012KT 8SM -RA BKN006 OVC011 14/13 A3000 RMK SF5SC3 SLP161=
CYQM;2005-09-17 20:17;SPECI CYQM 172017Z 05011G16KT 2 1/2SM -RADZ BR BKN006 OVC012 14/ RMK SF6SC2=
CYQM;2005-09-17 20:29;SPECI CYQM 172029Z 05011KT 3SM -RADZ BR BKN006 OVC012 14/ RMK SF6SC2=
CYQM;2005-09-17 21:00;METAR CYQM 172100Z 04008KT 5SM -RADZ BR BKN004 OVC010 14/13 A2999 RMK SF6SC2 SLP157=
CYQM;2005-09-17 21:19;SPECI CYQM 172119Z 04009KT 5SM -RADZ BR BKN003 OVC010 14/ RMK SF7SC1=
CYQM;2005-09-17 21:40;SPECI CYQM 172140Z 05012KT 12SM -RA OVC003 15/ RMK SF8=
CYQM;2005-09-17 22:00;METAR CYQM 172200Z 05010G16KT 15SM -RA OVC003 15/14 A2997 RMK SF8 SLP152=
CYQM;2005-09-17 23:00;METAR CYQM 172300Z 05010KT 10SM -RA BKN004 OVC006 15/14 A2995 RMK SF7SF1 SLP145=
CYQM;2005-09-18 00:00;METAR CYQM 180000Z 04010KT 15SM -RA FEW002 BKN004 OVC007 15/14 A2994 RMK SF2SF4SF2 SLP141=
CYQM;2005-09-18 01:00;METAR CYQM 180100Z 03010G16KT 12SM -RA FEW002 BKN004 OVC006 15/14 A2992 RMK SF2SF6SF1 SLP132=
CYQM;2005-09-18 01:17;SPECI CYQM 180117Z 03011KT 10SM -RA BKN002 OVC004 15/ RMK SF6SF2=
CYQM;2005-09-18 01:40;SPECI CYQM 180140Z 04010KT 10SM -RA SCT002 BKN004 OVC006 15/ RMK SF3SF3SF2=
CYQM;2005-09-18 02:00;METAR CYQM 180200Z 03011KT 8SM -RA SCT002 OVC004 15/14 A2990 RMK SF3SF5 SLP126=
CYQM;2005-09-18 03:00;METAR CYQM 180300Z 01012KT 7SM -RA SCT003 OVC005 15/14 A2989 RERA RMK SF3SF5 SLP123=
CYQM;2005-09-18 04:00;METAR CYQM 180400Z 02015KT 8SM -RA FEW003 OVC006 15/14 A2987 RERA RMK SF2SF6 SLP116=
CYQM;2005-09-18 05:23;SPECI CYQM 180523Z 04013G22KT 15SM -RA OVC004 15/ RMK SF8=
CYQM;2005-09-18 06:00;METAR CYQM 180600Z 01011G21KT 5SM -RA BR OVC004 15/14 A2984 RMK SF8 /R10/ SLP106=
CYQM;2005-09-18 06:30;SPECI CYQM 180630Z 01013KT 3SM -RADZ BR FEW003 OVC006 15/ RMK SF2SF6=
CYQM;2005-09-18 07:23;SPECI CYQM 180723Z 36010G15KT 5SM -DZ BR FEW002 BKN006 OVC015 15/ RMK SF2SF6SC1=
CYQM;2005-09-18 08:00;METAR CYQM 180800Z 34011KT 7SM -DZ BKN002 OVC005 14/14 A2984 RMK SF6SF2 SLP105=
CYQM;2005-09-18 09:00;METAR CYQM 180900Z 34010KT 15SM -DZ BKN003 OVC005 14/13 A2985 RMK SF5SF3 PCPN VRY LGT SLP109=
CYQM;2005-09-18 10:00;METAR CYQM 181000Z 34011KT 12SM -DZ BKN003 OVC005 15/14 A2986 RMK SF6SF2 SLP113=
CYQM;2005-09-18 10:08;SPECI CYQM 181008Z 33010KT 12SM -RADZ BKN003 OVC005 15/ RMK SF6SF2=
CYQM;2005-09-18 10:45;SPECI CYQM 181045Z 32005KT 15SM -RA FEW003 OVC005 15/ RMK SF2SF6=
CYQM;2005-09-18 11:00;METAR CYQM 181100Z 33008KT 15SM -RA FEW003 OVC005 15/14 A2988 RMK SF2SF6 SLP120=
CYQM;2005-09-18 11:30;SPECI CYQM 181130Z 32008KT 3SM -DZ BR SCT003 OVC005 15/ RMK SF3SF5=
CYQM;2005-09-18 12:00;METAR CYQM 181200Z 32009KT 4SM -DZ BR SCT003 OVC005 15/14 A2990 RMK SF3SF5 SLP126=
CYQM;2005-09-18 12:12;SPECI CYQM 181212Z 31006KT 2SM -DZ BR BKN002 OVC005 15/ RMK SF6SF2=
CYQM;2005-09-18 12:29;SPECI CYQM 181229Z 31008KT 1 1/4SM -DZ BR BKN003 OVC005 15/ RMK SF6SF2=
CYQM;2005-09-18 13:00;METAR CYQM 181300Z 31007KT 1 1/4SM -DZ BR OVC003 15/15 A2991 RMK SF8 SLP130=
CYQM;2005-09-18 14:00;METAR CYQM 181400Z 31005KT 1SM R06/P6000FT/U R29/5000FT/U -DZ BR OVC003 16/15 A2992 RMK SF8 SLP132=
CYQM;2005-09-18 14:33;SPECI CYQM 181433Z 33005KT 3SM BR SCT003 BKN005 OVC020 16/ RMK SF3SF4SC1=
CYQM;2005-09-18 15:00;METAR CYQM 181500Z 34008KT 6SM BR FEW003 BKN005 OVC020 17/16 A2990 RMK SF2SF5SC2 SLP127=
CYQM;2005-09-18 15:40;SPECI CYQM 181540Z 35005KT 15SM SCT005 OVC012 17/ RMK SF3SC5=
CYQM;2005-09-18 16:00;METAR CYQM 181600Z 32006KT 15SM SCT005 OVC012 17/16 A2992 RMK SF3SC5 SLP131=
CYQM;2005-09-18 16:23;SPECI CYQM 181623Z 33006KT 15SM -SHRA SCT005 OVC012 17/ RMK SF3SC5=
CYQM;2005-09-18 16:54;SPECI CYQM 181654Z 36008KT 3SM -SHRA BR BKN008 OVC012 17/ RMK SF5SC3=
CYQM;2005-09-18 17:00;METAR CYQM 181700Z 02009KT 1 1/4SM -SHRA BR BKN008 OVC012 17/16 A2991 RMK SF6SC2 SLP129=
CYQM;2005-09-18 17:30;SPECI CYQM 181730Z 03010KT 2 1/2SM -SHRA BR BKN008 OVC012 17/ RMK SF6SC2=
CYQM;2005-09-18 17:41;SPECI CYQM 181741Z 03008KT 5SM -SHRA BR BKN008 OVC012 16/ RMK SF6SC2=
CYQM;2005-09-18 18:00;METAR CYQM 181800Z 02010KT 2 1/2SM -SHRA BR OVC008 16/15 A2992 RMK SF8 SLP131=
CYQM;2005-09-18 18:24;SPECI CYQM 181824Z 03011KT 1 1/4SM -SHRA BR OVC008 16/ RMK SF8=
CYQM;2005-09-18 19:00;METAR CYQM 181900Z 02008KT 3SM -SHRA BR OVC008 16/15 A2992 RMK SF8 SLP133=
CYQM;2005-09-18 19:17;SPECI CYQM 181917Z 02010KT 6SM -DZ BR OVC008 16/ RMK SF8=
CYQM;2005-09-18 19:43;SPECI CYQM 181943Z 01008KT 1 1/2SM -DZ BR BKN008 OVC013 16/ RMK SF6ST2=
CYQM;2005-09-18 19:52;SPECI CYQM 181952Z 02008KT 1 1/4SM -DZ BR BKN008 OVC013 16/ RMK SF6ST2=
CYQM;2005-09-18 20:00;METAR CYQM 182000Z 03008KT 1 1/4SM -DZ BR BKN008 OVC013 16/15 A2993 RMK SF7ST1 SLP136=
CYQM;2005-09-18 20:17;SPECI CYQM 182017Z 03009KT 1 1/2SM -DZ BR BKN003 OVC008 16/ RMK SF6ST2=
CYQM;2005-09-18 21:00;METAR CYQM 182100Z 02009KT 2SM -DZ BR BKN003 OVC008 15/14 A2994 RMK SF7SF1 SLP140=
CYQM;2005-09-18 21:21;SPECI CYQM 182121Z 02007KT 1 1/4SM -DZ BR BKN003 OVC006 15/ RMK SF7SF1=
CYQM;2005-09-18 22:00;METAR CYQM 182200Z 03007KT 1 1/2SM -DZ BR BKN003 OVC010 15/14 A2995 RMK SF6ST2 SLP145=
CYQM;2005-09-18 22:26;SPECI CYQM 182226Z 03006KT 1SM R29/P6000FT/N R06/P6000FT/D -DZ BR BKN003 OVC010 15/ RMK SF7ST1=
CYQM;2005-09-19 00:00;METAR CYQM 190000Z 05007KT 2SM -DZ BR SCT003 OVC006 15/14 A2997 RMK SF3ST5 SLP150=
CYQM;2005-09-19 00:10;SPECI CYQM 190010Z 04006KT 3SM -DZ BR SCT003 OVC005 15/ RMK SF3ST5=
CYQM;2005-09-19 00:30;SPECI CYQM 190030Z 03007KT 4SM -DZ BR BKN003 OVC006 15/ RMK SF6ST2=
CYQM;2005-09-19 01:00;METAR CYQM 190100Z 02006KT 3SM -DZ BR BKN003 OVC005 15/14 A2997 RMK SF6SF2 SLP151=
CYQM;2005-09-19 02:02;SPECI CYQM 190202Z 03006KT 2SM -DZ BR BKN003 OVC007 15/ RMK SF6SF2=
CYQM;2005-09-19 02:18;SPECI CYQM 190218Z 03005KT 1 1/2SM -DZ BR BKN002 OVC006 14/ RMK SF6SF2=
CYQM;2005-09-19 02:43;SPECI CYQM 190243Z 04006KT 3SM -DZ BR BKN003 OVC006 14/ RMK SF7SF1=
CYQM;2005-09-19 03:00;METAR CYQM 190300Z 04005KT 3SM -DZ BR FEW002 BKN003 OVC006 14/14 A2997 RMK SF2SF6SF1 SLP151=
CYQM;2005-09-19 03:36;SPECI CYQM 190336Z 03005KT 2 1/2SM -DZ BR BKN003 OVC006 14/ RMK SF7SF1=
CYQM;2005-09-19 04:00;METAR CYQM 190400Z 03005KT 2 1/2SM -DZ BR FEW001 BKN003 OVC005 14/13 A2997 RMK SF2SF6SF1 SLP150=
CYQM;2005-09-19 04:34;SPECI CYQM 190434Z 02004KT 4SM -DZ BR FEW001 OVC003 14/ RMK SF2SF6=
CYQM;2005-09-19 05:00;METAR CYQM 190500Z 02003KT 4SM -DZ BR SCT003 OVC005 14/13 A2998 RMK SF3SF5 SLP155=
CYQM;2005-09-19 06:02;SPECI CYQM 190602Z 33005KT 1 3/4SM -DZ BR FEW003 OVC005 14/ RMK SF2SF6=
CYQM;2005-09-19 06:37;SPECI CYQM 190637Z 35005KT 4SM -DZ BR SCT002 OVC005 14/ RMK SF3SF5=
CYQM;2005-09-19 07:00;METAR CYQM 190700Z 35005KT 6SM -DZ BR SCT002 OVC006 14/13 A2998 RMK SF4SF4 SLP155=
CYQM;2005-09-19 07:05;SPECI CYQM 190705Z 36004KT 6SM -DZ BR BKN002 BKN006 OVC018 14/ RMK SF6SF2SC1=
CYQM;2005-09-19 07:31;SPECI CYQM 190731Z 34004KT 7SM -DZ BKN001 OVC006 14/ RMK SF6SF2=
CYQM;2005-09-19 07:38;SPECI CYQM 190738Z 33005KT 3/4SM R29/P6000FT/N R06/P6000FT/D BR VV003 14/ RMK FG8 VIS SW 4=
CYQM;2005-09-19 07:45;SPECI CYQM 190745Z 33005KT 5/8SM R29/P6000FT/N R06/P6000FT/D BR VV002 14/ RMK FG8=
CYQM;2005-09-19 07:53;SPECI CYQM 190753Z 34004KT 5/8SM R29/P6000FT/D R06/P6000FT/D -DZ BR VV002 14/ RMK FG8=
CYQM;2005-09-19 08:00;METAR CYQM 190800Z 34005KT 1/2SM R29/4000VP6000FT/D R06/P6000FT/D -DZ FG VV002 14/13 A2999 RMK FG8 SLP156=
CYQM;2005-09-19 08:09;SPECI CYQM 190809Z 34003KT 3/4SM R29/4000FT/D R06/P6000FT/D -DZ BR VV003 14/ RMK FG8=
CYQM;2005-09-19 08:46;SPECI CYQM 190846Z 32004KT 3/4SM R29/5500FT/D R06/4500VP6000FT/U BR VV002 14/ RMK FG8=
CYQM;2005-09-19 09:00;METAR CYQM 190900Z 35004KT 5/8SM R29/5000FT/N R06/P6000FT/U BR VV002 14/13 A3000 RMK FG8 SLP160=
CYQM;2005-09-19 10:00;METAR CYQM 191000Z 34005KT 5/8SM R29/P6000FT/D R06/P6000FT/D BR OVC002 14/13 A3001 RMK SF8 SLP164=
CYQM;2005-09-19 10:29;SPECI CYQM 191029Z 32004KT 1 1/4SM BR BKN003 OVC020 14/ RMK SF7SC1=
CYQM;2005-09-19 10:48;SPECI CYQM 191048Z 32004KT 2 1/2SM BR SCT004 OVC025 14/ RMK SF4SC4=
CYQM;2005-09-19 11:00;METAR CYQM 191100Z 31004KT 2 1/2SM BR SCT004 OVC025 14/13 A3002 RMK SF4SC4 SLP168=
CYQM;2005-09-19 11:16;SPECI CYQM 191116Z 29003KT 4SM BR BKN004 OVC025 14/ RMK SF6SC2=
CYQM;2005-09-19 12:00;METAR CYQM 191200Z 33004KT 7SM FEW002 BKN004 BKN025 BKN070 14/14 A3003 RMK SF2SF3SC2AC1 SLP172=
CYQM;2005-09-19 12:50;SPECI CYQM 191250Z 27003KT 2SM -DZ BR BKN004 OVC025 15/ RMK SF7SC1=
CYQM;2005-09-19 13:00;METAR CYQM 191300Z 24004KT 2SM -DZ BR BKN004 OVC025 15/14 A3005 RMK SF7SC1 SLP178=
CYQM;2005-09-19 13:31;SPECI CYQM 191331Z 22004KT 5SM -DZ BR SCT004 BKN015 15/ RMK SF4SC3=
CYQM;2005-09-19 14:00;METAR CYQM 191400Z 22006KT 15SM BKN005 BKN017 16/14 A3005 RMK SC6SC2 SLP176=
CYQM;2005-09-19 15:00;METAR CYQM 191500Z 23008KT 15SM BKN008 16/14 A3004 RMK SC7 SLP173=
CYQM;2005-09-19 16:00;METAR CYQM 191600Z 22010KT 15SM BKN015 BKN250 17/14 A3003 RMK CU7CI1 SLP171=
CYQM;2005-09-19 17:00;METAR CYQM 191700Z 22007KT 15SM BKN020 19/14 A3002 RMK CU5 SLP166=
CYQM;2005-09-19 18:00;METAR CYQM 191800Z 24011KT 15SM SCT025 20/14 A3000 RMK CU4 SLP162=
CYQM;2005-09-19 21:00;METAR CYQM 192100Z 25011KT 15SM BKN030 18/14 A3005 RMK CU5 SLP176=
CYQM;2005-09-19 22:00;METAR CYQM 192200Z 25007KT 15SM FEW035 17/14 A3004 RMK CU1 SLP174=
CYQM;2005-09-19 23:00;METAR CYQM 192300Z 18004KT 15SM FEW050 16/14 A3004 RMK SC2 SLP174=
CYQM;2005-09-20 00:00;METAR CYQM 200000Z 15004KT 15SM FEW050 15/14 A3004 RMK SC2 SLP173=
CYQM;2005-09-20 01:00;METAR CYQM 200100Z 20006KT 15SM FEW050 13/12 A3005 RMK SC2 SLP178=
CYQM;2005-09-20 02:00;METAR CYQM 200200Z 19006KT 15SM SCT050 14/13 A3006 RMK SC3 SLP179=
CYQM;2005-09-20 02:26;SPECI CYQM 200226Z 25006KT 10SM -DZ FEW008 BKN025 14/ RMK SF2SC5=
CYQM;2005-09-20 02:52;SPECI CYQM 200252Z 24007KT 15SM BKN040 15/ RMK SC5=
CYQM;2005-09-20 03:00;METAR CYQM 200300Z 24005KT 15SM BKN040 14/13 A3006 RMK SC5 SLP182=
CYQM;2005-09-20 04:00;METAR CYQM 200400Z 33006KT 15SM BKN045 14/11 A3008 RMK SC5 SLP186=
CYQM;2005-09-20 05:00;METAR CYQM 200500Z 31003KT 15SM FEW050 FEW250 11/10 A3008 RMK SC1CI1 SLP186=
CYQM;2005-09-20 06:00;METAR CYQM 200600Z 31004KT 15SM FEW050 BKN250 11/08 A3008 RMK SC1CI2 SLP188=
CYQM;2005-09-20 07:00;METAR CYQM 200700Z 25005KT 15SM FEW050 BKN250 11/08 A3009 RMK SC1CI2 SLP192=
CYQM;2005-09-20 08:00;METAR CYQM 200800Z 23003KT 15SM FEW050 BKN250 10/08 A3010 RMK SC1CI2 SLP194=
CYQM;2005-09-20 09:00;METAR CYQM 200900Z 29004KT 15SM FEW050 BKN100 BKN250 09/07 A3011 RMK SC2AC3CI0 SLP196=
CYQM;2005-09-20 10:00;METAR CYQM 201000Z 20003KT 15SM FEW020 FEW050 BKN250 09/07 A3012 RMK CU1SC1CI3 SLP200=
CYQM;2005-09-20 11:00;METAR CYQM 201100Z 00000KT 15SM FEW020 FEW050 BKN250 09/08 A3012 RMK CU1SC1CI3 SLP202=
CYQM;2005-09-20 12:00;METAR CYQM 201200Z 26002KT 15SM FEW020 FEW260 11/08 A3013 RMK CU1CI1 SLP205=
CYQM;2005-09-20 13:00;METAR CYQM 201300Z 32002KT 15SM FEW025 FEW260 13/09 A3013 RMK CU1CI1 SLP204=
CYQM;2005-09-20 14:00;METAR CYQM 201400Z 00000KT 15SM FEW025 FEW050 SCT080 BKN260 15/09 A3012 RMK CU1SC1AC3CI0 SLP203=
CYQM;2005-09-20 15:00;METAR CYQM 201500Z 00000KT 15SM FEW025 FEW050 BKN080 BKN260 16/09 A3010 RMK CU1SC1AC4CI0 SLP195=
CYQM;2005-09-20 16:00;METAR CYQM 201600Z 17004KT 15SM FEW030 FEW055 BKN090 BKN270 18/11 A3009 RMK CU1SC1AC5CI0 SLP190=
CYQM;2005-09-20 17:00;METAR CYQM 201700Z 12007KT 15SM FEW030 FEW090 BKN250 18/10 A3006 RMK CU1AC2CI3 SLP181=
CYQM;2005-09-20 18:00;METAR CYQM 201800Z 16009KT 15SM FEW030 BKN090 BKN260 18/09 A3003 RMK CU1AC6CI1 SLP170=
CYQM;2005-09-20 19:00;METAR CYQM 201900Z 14008KT 15SM FEW035 BKN095 OVC250 18/11 A3000 RMK CU1AC7CI1 SLP162=
CYQM;2005-09-20 20:00;METAR CYQM 202000Z 13007KT 15SM FEW030 BKN070 OVC230 18/11 A2997 RMK CU1AC5CI2 SLP151=
CYQM;2005-09-20 20:50;SPECI CYQM 202050Z 11007KT 12SM -RA BKN045 OVC100 17/ RMK SC6AS2=
CYQM;2005-09-20 21:00;METAR CYQM 202100Z 12007KT 12SM -RA FEW020 BKN045 OVC120 17/13 A2994 RMK CF1SC6AS2 SLP141=
CYQM;2005-09-20 21:53;SPECI CYQM 202153Z 11009KT 10SM -RA FEW009 BKN030 OVC120 15/ RMK SF2SC4AC2=
CYQM;2005-09-20 22:00;METAR CYQM 202200Z 12007KT 8SM -RA FEW009 BKN025 OVC120 15/14 A2992 RMK SF2SC4AC2 SLP133=
CYQM;2005-09-20 23:00;METAR CYQM 202300Z 15005KT 8SM -RA FEW009 BKN025 OVC120 15/13 A2989 RERA RMK SF2SC6AC1 SLP123=
CYQM;2005-09-21 00:00;METAR CYQM 210000Z 15009KT 8SM RA FEW009 BKN020 OVC045 15/14 A2986 RMK SF2SC6SC1 SLP112=
CYQM;2005-09-21 00:23;SPECI CYQM 210023Z 14014KT 4SM -RA BR BKN009 OVC020 15/ RERA RMK SF5SC3=
CYQM;2005-09-21 00:27;SPECI CYQM 210027Z 14013KT 2SM +RA BR BKN009 OVC020 15/ RMK SF5SC3=
CYQM;2005-09-21 00:43;SPECI CYQM 210043Z 14008G15KT 1 1/2SM +TSRA BR BKN009 OVC020 15/ RMK SF5SC3 CB EMBD FRQ LTGCCCG=
CYQM;2005-09-21 01:05;SPECI CYQM 210105Z 14014KT 1SM +TSRA BR BKN009 OVC020 15/ RMK SF5SC3 CB EMBD FRQ LTGCCCG RVR MISG=
CYQM;2005-09-21 01:19;SPECI CYQM 210119Z 15009G15KT 5SM TSRA BR SCT008 OVC018 16/ RERA RMK SF3SC5 CB EMBD FRQ LTGCCCG=
CYQM;2005-09-21 01:36;SPECI CYQM 210136Z 14009KT 7SM TSRA BKN007 OVC020 16/ RERA RMK SF6SC2 CB EMBD=
CYQM;2005-09-21 01:56;SPECI CYQM 210156Z 16008KT 7SM -RA SCT007 OVC020 16/ RETSRA RMK SF3SC5=
CYQM;2005-09-21 02:33;SPECI CYQM 210233Z 16009KT 10SM -TSRA SCT007 OVC017 RMK SF3SC5 LTGCC CB EMBD=
CYQM;2005-09-21 03:00;METAR CYQM 210300Z 20017KT 10SM -TSRA SCT007 OVC016 18/16 A2974 RMK SF3SC5 LTGCC CB EMBD /R21/ SLP071=
CYQM;2005-09-21 03:26;SPECI CYQM 210326Z 20013G19KT 15SM FEW007 OVC016 17/ RETS RMK SF2SC6=
CYQM;2005-09-21 03:55;SPECI CYQM 210355Z 20011G16KT 15SM FEW007 OVC013 17/ RETS RMK SF2SC6=
CYQM;2005-09-21 04:00;METAR CYQM 210400Z 19011G16KT 15SM FEW007 OVC013 17/15 A2972 RETS RMK SF2SC6 SLP066=
CYQM;2005-09-21 05:00;METAR CYQM 210500Z 20008G16KT 15SM FEW007 OVC012 17/15 A2972 RMK SF2SC6 SLP064=
CYQM;2005-09-21 05:17;SPECI CYQM 210517Z 21008KT 15SM FEW007 BKN020 17/ RMK SF2SC5=
CYQM;2005-09-21 05:46;SPECI CYQM 210546Z 19005KT 15SM BKN012 17/ RMK SC7=
CYQM;2005-09-21 06:00;METAR CYQM 210600Z 19008KT 15SM BKN012 17/15 A2969 RMK SC7 SLP056=
CYQM;2005-09-21 06:12;SPECI CYQM 210612Z 20006KT 15SM BKN020 17/ RMK SC6=
CYQM;2005-09-21 07:00;METAR CYQM 210700Z 21008KT 15SM SCT020 17/15 A2968 RMK SC3 SLP051=
CYQM;2005-09-21 09:00;METAR CYQM 210900Z 23012KT 15SM FEW090 16/14 A2967 RMK AC1 SLP050=
CYQM;2005-09-21 10:00;METAR CYQM 211000Z 23013KT 15SM SCT012 15/13 A2969 RMK SC3 SLP055=
CYQM;2005-09-21 11:00;METAR CYQM 211100Z 25017KT 15SM FEW012 BKN027 14/11 A2970 RMK CF2SC6 SLP060=
CYQM;2005-09-21 12:00;METAR CYQM 211200Z 25017G24KT 15SM FEW012 BKN027 14/11 A2972 RMK CF1SC6 SLP065=
CYQM;2005-09-21 13:00;METAR CYQM 211300Z 26019G27KT 15SM BKN017 BKN030 15/10 A2972 RMK CU5SC1 SLP066=
CYQM;2005-09-21 14:00;METAR CYQM 211400Z 25020G26KT 15SM BKN020 14/09 A2973 RMK SC7 SLP069=
CYQM;2005-09-21 15:00;METAR CYQM 211500Z 26013G24KT 15SM BKN024 16/10 A2973 RMK CU6 SLP070=
CYQM;2005-09-21 16:00;METAR CYQM 211600Z 27014G19KT 15SM BKN027 16/09 A2973 RMK CU7 SLP070=
CYQM;2005-09-21 17:00;METAR CYQM 211700Z 25021G27KT 15SM BKN030 18/09 A2973 RMK CU5 SLP069=
CYQM;2005-09-21 18:00;METAR CYQM 211800Z 26019G26KT 15SM BKN033 18/08 A2973 RMK CU5 SLP070=
CYQM;2005-09-21 19:00;METAR CYQM 211900Z 26020G27KT 15SM SCT035 18/09 A2974 RMK CU3 SLP072=
CYQM;2005-09-21 20:00;METAR CYQM 212000Z 25021G30KT 15SM FEW035 FEW050 19/09 A2974 RMK CU2SC1 SLP073=
CYQM;2005-09-21 21:00;METAR CYQM 212100Z 23010G15KT 15SM SCT030 BKN050 17/09 A2975 RMK CU3SC2 SLP075=
CYQM;2005-09-21 22:00;METAR CYQM 212200Z 24007KT 15SM SCT030 SCT050 16/10 A2977 RMK CU3SC1 SLP081=
CYQM;2005-09-21 23:00;METAR CYQM 212300Z 25008KT 15SM FEW030 FEW040 16/10 A2979 RMK CU2SC1 SLP090=
CYQM;2005-09-22 00:00;METAR CYQM 220000Z 22006KT 15SM FEW040 14/10 A2982 RMK SC1 SLP100=
CYQM;2005-09-22 01:00;METAR CYQM 220100Z 27011G17KT 15SM -SHRA BKN040 14/11 A2984 RMK SC5 SLP107=
CYQM;2005-09-22 01:35;SPECI CYQM 220135Z 26009KT 15SM SCT040 14/ RMK SC3=
CYQM;2005-09-22 02:00;METAR CYQM 220200Z 25007KT 15SM FEW040 13/09 A2985 RMK SC1 SLP111=
CYQM;2005-09-22 03:00;METAR CYQM 220300Z 22008KT 15SM FEW040 12/09 A2986 RMK SC1 SLP113=
CYQM;2005-09-22 04:00;METAR CYQM 220400Z 23009KT 15SM FEW040 11/09 A2986 RMK SC1 SLP115=
CYQM;2005-09-22 05:00;METAR CYQM 220500Z 23012KT 15SM SKC 12/09 A2988 RMK SLP120=
CYQM;2005-09-22 06:00;METAR CYQM 220600Z 24011KT 15SM FEW140 11/08 A2990 RMK AC1 SLP127=
CYQM;2005-09-22 07:00;METAR CYQM 220700Z 23010KT 15SM FEW140 11/08 A2991 RMK AC1 SLP130=
CYQM;2005-09-22 08:00;METAR CYQM 220800Z 24010KT 15SM SKC 11/08 A2992 RMK SLP135=
CYQM;2005-09-22 09:00;METAR CYQM 220900Z 24008KT 15SM FEW120 10/08 A2995 RMK AC1 SLP145=
CYQM;2005-09-22 10:00;METAR CYQM 221000Z 23008KT 15SM FEW120 FEW260 10/07 A2997 RMK AC1CI1 SLP151=
CYQM;2005-09-22 11:00;METAR CYQM 221100Z 24007KT 15SM FEW018 FEW120 FEW260 10/08 A2998 RMK CF1AC1CI1 SLP154=
CYQM;2005-09-22 12:00;METAR CYQM 221200Z 24013G18KT 15SM FEW140 SCT260 12/09 A3000 RMK AC2CI1 SLP161=
CYQM;2005-09-22 13:00;METAR CYQM 221300Z 25009KT 15SM BKN120 BKN260 13/09 A3000 RMK AC6CI1 SLP159=
CYQM;2005-09-22 14:00;METAR CYQM 221400Z 23013KT 15SM BKN120 OVC260 15/09 A3000 RMK AC7CI1 SLP161=
CYQM;2005-09-22 15:00;METAR CYQM 221500Z 24014KT 15SM FEW080 BKN120 OVC260 17/09 A3001 RMK AC2AC6CI1 SLP163=
CYQM;2005-09-22 16:00;METAR CYQM 221600Z 21007KT 15SM SCT080 BKN120 OVC260 18/09 A2998 RMK AC3AC3CI1 SLP153=
CYQM;2005-09-22 17:00;METAR CYQM 221700Z 19008KT 15SM BKN090 BKN260 18/10 A2995 RMK AC6CI1 SLP143=
CYQM;2005-09-22 18:00;METAR CYQM 221800Z 18007KT 15SM BKN080 OVC120 18/11 A2992 RMK AC6AC2 SLP135=
CYQM;2005-09-22 19:00;METAR CYQM 221900Z 18007KT 15SM BKN080 BKN120 18/12 A2992 RMK AC5AC2 SLP133=
CYQM;2005-09-22 19:23;SPECI CYQM 221923Z 19006KT 15SM -SHRA BKN080 OVC120 18/ RMK AC5AC3=
CYQM;2005-09-22 19:43;SPECI CYQM 221943Z 22010G15KT 15SM BKN080 BKN120 OVC260 19/ RMK AC5AC2CI1=
CYQM;2005-09-22 20:00;METAR CYQM 222000Z 21008G15KT 15SM BKN080 BKN120 BKN260 19/11 A2989 RMK AC5AC2CI1 SLP124=
CYQM;2005-09-22 21:00;METAR CYQM 222100Z 22016G24KT 15SM SCT080 BKN120 OVC260 20/09 A2989 RMK AC4AC2CI1 SLP124=
CYQM;2005-09-22 22:00;METAR CYQM 222200Z 21013G19KT 15SM SCT080 BKN120 OVC260 19/10 A2988 RMK AC4AC2CI1 SLP120=
CYQM;2005-09-22 23:00;METAR CYQM 222300Z 21008KT 15SM SCT080 BKN120 OVC260 18/10 A2987 RMK AC4AC2CI1 SLP118=
CYQM;2005-09-23 00:00;METAR CYQM 230000Z 22008KT 15SM SCT080 BKN120 18/11 A2987 RMK AC3AC4 SLP116=
CYQM;2005-09-23 01:00;METAR CYQM 230100Z 22011G16KT 15SM BKN120 18/12 A2986 RMK AC7 SLP114=
CYQM;2005-09-23 02:00;METAR CYQM 230200Z 21009KT 15SM BKN120 18/12 A2987 RMK AC7 SLP115=
CYQM;2005-09-23 03:00;METAR CYQM 230300Z 22009KT 15SM OVC120 18/10 A2985 RMK AC8 SLP108=
CYQM;2005-09-23 04:00;METAR CYQM 230400Z 22012KT 15SM OVC120 19/09 A2984 RMK AC8 SLP105=
CYQM;2005-09-23 05:00;METAR CYQM 230500Z 22007KT 15SM BKN120 18/09 A2983 RMK AC7 SLP103=
CYQM;2005-09-23 07:00;METAR CYQM 230700Z 22010KT 15SM BKN120 18/13 A2980 RMK AC6 SLP093=
CYQM;2005-09-23 08:00;METAR CYQM 230800Z 20008KT 15SM BKN120 17/13 A2979 RMK AC6 SLP088=
CYQM;2005-09-23 09:00;METAR CYQM 230900Z 20007KT 15SM SCT120 BKN200 17/13 A2978 RMK AC4CI2 SLP086=
CYQM;2005-09-23 10:00;METAR CYQM 231000Z 21009KT 15SM SCT030 BKN050 OVC080 17/12 A2978 RMK SC3SC2AC2 SLP087=
CYQM;2005-09-23 11:00;METAR CYQM 231100Z 23010KT 15SM SCT030 BKN050 OVC080 17/11 A2979 RMK SC3SC2AC2 SLP090=
CYQM;2005-09-23 11:32;SPECI CYQM 231132Z 23006KT 15SM -SHRA SCT020 BKN050 OVC080 16/ RMK SC3SC2AC2=
CYQM;2005-09-23 12:00;METAR CYQM 231200Z 22006KT 15SM -SHRA SCT020 BKN050 OVC080 16/11 A2980 RMK SC3SC2AC2 SLP091=
CYQM;2005-09-23 13:00;METAR CYQM 231300Z 17008KT 10SM -SHRA SCT020 BKN040 OVC070 15/12 A2979 RMK SC3SC2AC2 SLP088=
CYQM;2005-09-23 14:00;METAR CYQM 231400Z 20009KT 10SM -SHRA SCT015 OVC045 16/15 A2978 RMK SC3SC5 SLP084=
CYQM;2005-09-23 14:36;SPECI CYQM 231436Z 19008KT 10SM -SHRA FEW008 OVC020 16/ RMK SF2SC6=
CYQM;2005-09-23 14:53;SPECI CYQM 231453Z 23009KT 12SM -SHRA BKN008 OVC025 16/ RMK SF6SC2=
CYQM;2005-09-23 15:44;SPECI CYQM 231544Z 21007KT 12SM SCT008 OVC025 16/ RMK SF4SC4=
CYQM;2005-09-23 16:00;METAR CYQM 231600Z 21008KT 12SM SCT008 OVC025 16/15 A2975 RMK SF4SC4 SLP077=
CYQM;2005-09-23 17:00;METAR CYQM 231700Z 23009KT 15SM SCT008 OVC025 17/16 A2975 RMK SF3SC5 SLP074=
CYQM;2005-09-23 18:00;METAR CYQM 231800Z 23011G16KT 12SM SCT008 OVC025 17/15 A2976 RMK SF3SC5 SLP078=
CYQM;2005-09-23 18:55;SPECI CYQM 231855Z 23009KT 2 1/2SM -DZ BR BKN008 OVC025 17/ RMK SF6SC2=
CYQM;2005-09-23 19:00;METAR CYQM 231900Z 24008KT 2 1/2SM -DZ BR BKN008 OVC025 17/16 A2977 RMK SF6SC2 SLP083=
CYQM;2005-09-23 19:15;SPECI CYQM 231915Z 24009KT 5SM -DZ BR SCT008 OVC025 17/ RMK SF3SC5=
CYQM;2005-09-23 21:00;METAR CYQM 232100Z 31011KT 10SM FEW012 BKN025 BKN040 15/12 A2986 RMK SC1SC5SC1 SLP111=
CYQM;2005-09-23 22:00;METAR CYQM 232200Z 28007KT 15SM FEW020 FEW040 FEW250 14/11 A2989 RMK SC1SC1CI1 SLP122=
CYQM;2005-09-23 23:00;METAR CYQM 232300Z 29005KT 15SM FEW015 FEW035 12/10 A2992 RMK SC1SC1 SLP133=
CYQM;2005-09-24 00:00;METAR CYQM 240000Z 27007KT 15SM FEW020 FEW040 12/09 A2996 RMK CF1SC1 SLP146=
CYQM;2005-09-24 01:00;METAR CYQM 240100Z 28008KT 15SM BKN045 12/09 A2998 RMK SC7 SLP154=
CYQM;2005-09-24 02:00;METAR CYQM 240200Z 30006KT 15SM FEW045 12/08 A3000 RMK SC1 SLP161=
CYQM;2005-09-24 03:00;METAR CYQM 240300Z 25006KT 15SM FEW035 09/06 A3003 RMK SC1 SLP169=
CYQM;2005-09-24 04:00;METAR CYQM 240400Z 24006KT 15SM SKC 08/06 A3004 RMK SLP175=
CYQM;2005-09-24 05:00;METAR CYQM 240500Z 24008KT 15SM SKC 08/06 A3006 RMK SLP182=
CYQM;2005-09-24 06:00;METAR CYQM 240600Z 27009KT 15SM SKC 08/05 A3007 RMK SLP184=
CYQM;2005-09-24 08:00;METAR CYQM 240800Z 28011G16KT 15SM SKC 07/04 A3011 RMK SLP196=
CYQM;2005-09-24 09:00;METAR CYQM 240900Z 28013G18KT 15SM SKC 06/04 A3013 RMK SLP206=
CYQM;2005-09-24 10:00;METAR CYQM 241000Z 27012KT 15SM SKC 05/03 A3015 RMK SLP213=
CYQM;2005-09-24 11:00;METAR CYQM 241100Z 26014KT 15SM SKC 06/03 A3017 RMK SLP220=
CYQM;2005-09-24 12:00;METAR CYQM 241200Z 27013KT 15SM SKC 08/04 A3019 RMK SLP225=
CYQM;2005-09-24 13:00;METAR CYQM 241300Z 29014KT 15SM FEW020 10/04 A3020 RMK CF1 SLP230=
CYQM;2005-09-24 14:00;METAR CYQM 241400Z 31018KT 15SM FEW020 11/04 A3020 RMK CF1 SLP230=
CYQM;2005-09-24 15:00;METAR CYQM 241500Z 29013G21KT 15SM FEW020 13/05 A3021 RMK CF1 SLP232=
CYQM;2005-09-24 16:00;METAR CYQM 241600Z 32014G21KT 15SM FEW020 14/05 A3020 RMK CF1 SLP230=
CYQM;2005-09-24 17:00;METAR CYQM 241700Z 29014KT 15SM FEW035 15/05 A3019 RMK CU1 SLP226=
CYQM;2005-09-24 18:00;METAR CYQM 241800Z 29012G17KT 15SM FEW035 FEW250 16/05 A3019 RMK CU1CI1 SLP224=
CYQM;2005-09-24 19:00;METAR CYQM 241900Z 29008G19KT 15SM FEW045 FEW250 16/04 A3019 RMK CU1CI1 SLP225=
CYQM;2005-09-24 21:00;METAR CYQM 242100Z 29009KT 15SM FEW040 FEW080 FEW260 15/04 A3021 RMK CU1AC1CI1 SLP231=
CYQM;2005-09-24 22:00;METAR CYQM 242200Z 33007KT 15SM FEW030 FEW260 13/03 A3022 RMK CU1CI0 SLP235=
CYQM;2005-09-24 23:00;METAR CYQM 242300Z 31006KT 15SM FEW030 FEW260 11/03 A3024 RMK SC1CI0 SLP243=
CYQM;2005-09-25 00:00;METAR CYQM 250000Z 31007KT 15SM FEW260 09/03 A3027 RMK CI0 SLP254=
CYQM;2005-09-25 01:00;METAR CYQM 250100Z 30002KT 15SM FEW260 09/03 A3030 RMK CI0 SLP262=
CYQM;2005-09-25 04:00;METAR CYQM 250400Z 30004KT 15SM SKC 06/02 A3031 RMK SLP267=
CYQM;2005-09-25 05:00;METAR CYQM 250500Z 31007KT 15SM SKC 06/02 A3031 RMK SLP266=
CYQM;2005-09-25 06:00;METAR CYQM 250600Z 22006KT 15SM FEW250 04/02 A3031 RMK CI1 SLP267=
CYQM;2005-09-25 08:00;METAR CYQM 250800Z 22009KT 15SM FEW250 03/01 A3032 RMK CI1 SLP271=
CYQM;2005-09-25 09:00;METAR CYQM 250900Z 23009KT 15SM SKC 02/01 A3032 RMK SLP270=
CYQM;2005-09-25 11:00;METAR CYQM 251100Z 22008KT 15SM FEW220 02/01 A3032 RMK CI2 SLP271=
CYQM;2005-09-25 12:00;METAR CYQM 251200Z 22007KT 15SM FEW150 FEW220 05/03 A3032 RMK AC1CI2 SLP270=
CYQM;2005-09-25 13:00;METAR CYQM 251300Z 24007KT 15SM FEW150 BKN220 09/05 A3034 RMK AC2CI2 SLP278=
CYQM;2005-09-25 14:00;METAR CYQM 251400Z 18002KT 15SM SCT150 BKN220 11/05 A3033 RMK AC3CI2 SLP272=
CYQM;2005-09-25 15:00;METAR CYQM 251500Z 19004KT 15SM SCT150 BKN220 13/05 A3030 RMK AC3CI2 SLP264=
CYQM;2005-09-25 16:00;METAR CYQM 251600Z 23009KT 15SM FEW050 SCT120 BKN220 15/06 A3027 RMK SC2AC2CI2 SLP253=
CYQM;2005-09-25 17:00;METAR CYQM 251700Z 21010KT 15SM FEW050 SCT120 BKN220 16/05 A3023 RMK SC2AC2CI2 SLP238=
CYQM;2005-09-25 18:00;METAR CYQM 251800Z 25008KT 15SM FEW050 FEW120 BKN250 17/05 A3021 RMK SC1AC2CI2 SLP233=
CYQM;2005-09-25 19:00;METAR CYQM 251900Z 20008KT 15SM FEW050 FEW120 BKN250 18/07 A3019 RMK SC1AC2CI2 SLP224=
CYQM;2005-09-25 20:00;METAR CYQM 252000Z 19014G20KT 15SM FEW050 SCT130 BKN250 16/06 A3017 RMK SC2AC2CI2 SLP218=
CYQM;2005-09-25 21:00;METAR CYQM 252100Z 20012G19KT 15SM BKN050 BKN100 BKN250 15/05 A3016 RMK SC6AC1CI1 SLP216=
CYQM;2005-09-25 22:00;METAR CYQM 252200Z 18012KT 15SM SCT050 BKN110 BKN260 14/04 A3013 RMK SC4AC1CI0 SLP206=
CYQM;2005-09-25 23:00;METAR CYQM 252300Z 19009KT 15SM FEW045 FEW110 FEW260 12/04 A3012 RMK SC2AC1CI1 SLP202=
CYQM;2005-09-26 00:00;METAR CYQM 260000Z 20012G17KT 15SM FEW080 FEW260 12/03 A3010 RMK AC1CI1 SLP196=
CYQM;2005-09-26 01:00;METAR CYQM 260100Z 20014KT 15SM BKN045 BKN100 BKN260 12/06 A3008 RMK SC6AC1CI1 SLP189=
CYQM;2005-09-26 02:00;METAR CYQM 260200Z 20017G24KT 15SM BKN045 13/07 A3006 RMK SC7 SLP180=
CYQM;2005-09-26 03:00;METAR CYQM 260300Z 20015G21KT 15SM BKN040 13/07 A3002 RMK SC7 SLP167=
CYQM;2005-09-26 04:00;METAR CYQM 260400Z 20020G25KT 15SM -SHRA BKN032 13/09 A2999 RMK SC7 SLP157=
CYQM;2005-09-26 04:24;SPECI CYQM 260424Z 19020G25KT 15SM OVC032 13/ RMK SC8=
CYQM;2005-09-26 05:00;METAR CYQM 260500Z 20013G20KT 15SM -SHRA OVC032 13/09 A2998 RMK SC8 SLP155=
CYQM;2005-09-26 05:26;SPECI CYQM 260526Z 19014G19KT 15SM OVC032 13/ RMK SC8=
CYQM;2005-09-26 06:00;METAR CYQM 260600Z 20011G20KT 15SM OVC032 14/10 A2997 RMK SC8 SLP150=
CYQM;2005-09-26 06:50;SPECI CYQM 260650Z 21014G20KT 15SM OVC030 14/ RMK SC8=
CYQM;2005-09-26 08:37;SPECI CYQM 260837Z 22011KT 15SM BKN012 OVC025 13/ RMK SC5SC3=
CYQM;2005-09-26 09:00;METAR CYQM 260900Z 22010KT 15SM BKN011 OVC025 14/12 A2994 RMK SC5SC3 SLP139=
CYQM;2005-09-26 10:00;METAR CYQM 261000Z 22008KT 12SM BKN012 OVC025 14/12 A2993 RMK SC6SC2 SLP136=
CYQM;2005-09-26 11:36;SPECI CYQM 261136Z 18007KT 12SM SCT012 BKN025 BKN040 14/ RMK SC3SC2SC2=
CYQM;2005-09-26 12:00;METAR CYQM 261200Z 18002KT 12SM BKN012 BKN025 15/13 A2990 RMK SC5SC2 SLP128=
CYQM;2005-09-26 13:00;METAR CYQM 261300Z 18006KT 12SM BKN012 OVC025 16/14 A2988 RMK SC6SC2 SLP121=
CYQM;2005-09-26 13:43;SPECI CYQM 261343Z 19010KT 10SM -SHRA BKN012 OVC025 16/ RMK SC6SC2=
CYQM;2005-09-26 13:54;SPECI CYQM 261354Z 19009KT 8SM -TSRA BKN015 OVC030 16/ RMK SC6SC2 CB EMBD=
CYQM;2005-09-26 14:00;METAR CYQM 261400Z 19008KT 2SM +TSRA BR BKN015 OVC030 15/14 A2987 RMK SC6SC2 CB EMBD SLP118=
CYQM;2005-09-26 14:08;SPECI CYQM 261408Z 17011KT 4SM TSRA BR BKN015 OVC030 15/ RERA RMK SC6SC2 CB EMBD=
CYQM;2005-09-26 14:24;SPECI CYQM 261424Z 17006KT 8SM BKN015 OVC030 15/ RERATS RMK SC6SC2=
CYQM;2005-09-26 15:00;METAR CYQM 261500Z 18011KT 10SM -SHRA BKN012 OVC030 16/14 A2984 RERATS RMK SC7SC1 SLP104=
CYQM;2005-09-26 15:19;SPECI CYQM 261519Z 20010KT 10SM BKN012 OVC030 16/ RMK SC7SC1=
CYQM;2005-09-26 16:00;METAR CYQM 261600Z 22007KT 10SM -SHRA BKN012 OVC030 17/15 A2983 RMK SC7SC1 SLP101=
CYQM;2005-09-26 17:00;METAR CYQM 261700Z 22014KT 12SM BKN012 OVC030 17/15 A2979 RMK SC6SC2 SLP089=
CYQM;2005-09-26 18:00;METAR CYQM 261800Z 20013KT 12SM BKN012 OVC030 18/16 A2976 RMK SC5SC3 SLP078=
CYQM;2005-09-26 18:10;SPECI CYQM 261810Z 20010G19KT 12SM -SHRA BKN012 OVC030 18/ RMK SC5SC3=
CYQM;2005-09-26 18:30;SPECI CYQM 261830Z 20017G24KT 15SM SCT012 BKN025 OVC100 18/ RMK SC3SC3AC2=
CYQM;2005-09-26 19:00;METAR CYQM 261900Z 20018G24KT 15SM SCT012 BKN030 OVC100 18/15 A2973 RMK SC3SC3AC2 SLP067=
CYQM;2005-09-26 20:00;METAR CYQM 262000Z 20014G24KT 15SM FEW012 BKN030 OVC100 18/15 A2970 RMK CF2SC3AC2 SLP060=
CYQM;2005-09-26 20:23;SPECI CYQM 262023Z 20019G28KT 15SM BKN012 OVC120 18/ RMK SC6AC2=
CYQM;2005-09-26 20:38;SPECI CYQM 262038Z 20016G30KT 15SM FEW012 OVC120 18/ RMK SF2AC6=
CYQM;2005-09-26 21:00;METAR CYQM 262100Z 20022G29KT 15SM SCT012 OVC120 18/15 A2968 RMK SF3AC5 SLP051=
CYQM;2005-09-26 22:00;METAR CYQM 262200Z 20021G28KT 15SM SCT012 BKN120 OVC260 18/15 A2965 RMK SF3AC3CI1 SLP043=
CYQM;2005-09-26 22:10;SPECI CYQM 262210Z 21019G29KT 15SM BKN012 BKN120 OVC260 18/ RMK SC6AC2CI1=
CYQM;2005-09-26 22:48;SPECI CYQM 262248Z 21019G32KT 15SM BKN022 OVC120 18/ RMK SC6AC2=
CYQM;2005-09-26 23:00;METAR CYQM 262300Z 20018G27KT 15SM BKN020 OVC120 18/15 A2965 RMK SC7AC1 SLP041=
CYQM;2005-09-27 00:00;METAR CYQM 270000Z 21021G29KT 15SM BKN019 OVC100 18/15 A2964 RMK SC7AC1 SLP038=
CYQM;2005-09-27 00:47;SPECI CYQM 270047Z 20019G27KT 12SM -SHRA OVC017 18/ RMK SC8=
CYQM;2005-09-27 01:00;METAR CYQM 270100Z 20019G25KT 10SM -SHRA OVC014 18/15 A2962 RMK SC8 VIS W-NW 5 SLP030=
CYQM;2005-09-27 01:33;SPECI CYQM 270133Z 20018KT 10SM -RA FEW008 OVC014 17/ RERA RMK SF2SC6=
CYQM;2005-09-27 02:00;METAR CYQM 270200Z 20015G20KT 12SM -RA FEW008 OVC014 17/15 A2960 RERA RMK SF1SC7 SLP025=
CYQM;2005-09-27 02:46;SPECI CYQM 270246Z 20020G28KT 12SM -RA BKN016 OVC020 18/ RMK SC6SC2=
CYQM;2005-09-27 03:00;METAR CYQM 270300Z 19021G31KT 15SM -RA SCT016 OVC030 18/15 A2957 RMK SF4SC4 SLP014=
CYQM;2005-09-27 04:00;METAR CYQM 270400Z 20017G24KT 12SM -RA FEW016 OVC032 18/15 A2954 RMK SF2SC6 SLP004=
CYQM;2005-09-27 06:00;METAR CYQM 270600Z 20016G24KT 10SM -RA BKN013 OVC020 18/16 A2947 RERA RMK SF6SC2 SLP981=
CYQM;2005-09-27 06:45;SPECI CYQM 270645Z 19013G18KT 8SM -RA FEW008 BKN013 OVC018 18/ RMK SF2SF4SC2=
CYQM;2005-09-27 07:37;SPECI CYQM 270737Z 20013G19KT 5SM RA BKN006 BKN013 OVC018 18/ RMK SF5SF2SC2=
CYQM;2005-09-27 08:00;METAR CYQM 270800Z 21009G15KT 12SM -RA BKN006 OVC013 18/16 A2944 RERA RMK SF5SF3 SLP971=
CYQM;2005-09-27 08:43;SPECI CYQM 270843Z 20008KT 12SM BKN008 OVC013 18/ RMK SF5SF3=
CYQM;2005-09-27 09:00;METAR CYQM 270900Z 21007KT 15SM BKN008 OVC013 18/16 A2945 RMK SF5SC3 SLP972=
CYQM;2005-09-27 09:07;SPECI CYQM 270907Z 22012KT 15SM -SHRA BKN008 OVC013 18/ RMK SF5SC3=
CYQM;2005-09-27 09:52;SPECI CYQM 270952Z 26008KT 15SM -SHRA SCT008 OVC013 17/ RMK SF3SC5=
CYQM;2005-09-27 10:00;METAR CYQM 271000Z 27009KT 8SM -SHRA SCT008 OVC013 17/16 A2947 RMK SF3SC5 SLP979=
CYQM;2005-09-27 10:11;SPECI CYQM 271011Z 34015KT 3SM -SHRA BR BKN005 OVC013 14/ RMK SF6SC2=
CYQM;2005-09-27 10:46;SPECI CYQM 271046Z 32012KT 2 1/2SM -DZ BR BKN005 OVC013 12/ RMK SF6SC2=
CYQM;2005-09-27 10:53;SPECI CYQM 271053Z 34014KT 1 1/4SM -DZ BR OVC005 12/ RMK SF8=
CYQM;2005-09-27 11:00;METAR CYQM 271100Z 34017KT 1 3/4SM -DZ BR OVC005 12/11 A2949 RMK SF8 SLP987=
CYQM;2005-09-27 11:27;SPECI CYQM 271127Z 32012G19KT 1 1/4SM -DZ BR OVC003 12/ RMK SF8=
CYQM;2005-09-27 11:55;SPECI CYQM 271155Z 34014G19KT 1 1/4SM -RADZ BR OVC003 11/ RMK SF8=
CYQM;2005-09-27 12:00;METAR CYQM 271200Z 34016KT 1 1/4SM -RADZ BR OVC003 11/10 A2953 RMK SF8 SLP003=
CYQM;2005-09-27 12:14;SPECI CYQM 271214Z 33013G18KT 6SM -RA BR SCT003 OVC009 11/ RMK SF4SF4=
CYQM;2005-09-27 13:00;METAR CYQM 271300Z 33015G20KT 2 1/2SM -RADZ BR SCT003 OVC008 11/09 A2959 RMK SF4SF4 SLP022=
CYQM;2005-09-27 14:00;METAR CYQM 271400Z 33017G24KT 8SM -DZ FEW003 OVC006 10/09 A2963 RMK SF2SF6 SLP034=
CYQM;2005-09-27 14:26;SPECI CYQM 271426Z 33016G24KT 10SM FEW003 OVC008 10/ RMK SF2SF6=
CYQM;2005-09-27 15:00;METAR CYQM 271500Z 32014G20KT 12SM FEW003 OVC008 10/09 A2966 RMK SF2SF6 SLP045=
CYQM;2005-09-27 16:00;METAR CYQM 271600Z 34012G18KT 15SM FEW003 BKN008 OVC015 11/09 A2969 RMK SF1SF6SC1 SLP054=
CYQM;2005-09-27 17:00;METAR CYQM 271700Z 33015G21KT 15SM FEW003 BKN007 11/08 A2970 RMK SF1SF6 SLP059=
CYQM;2005-09-27 18:00;METAR CYQM 271800Z 32008KT 15SM SCT008 BKN012 11/09 A2972 RMK CF3SC4 SLP066=
CYQM;2005-09-27 20:00;METAR CYQM 272000Z 32011KT 15SM SCT025 SCT040 14/08 A2976 RMK CU3SC1 SLP080=
CYQM;2005-09-27 21:00;METAR CYQM 272100Z 34007KT 15SM FEW030 FEW050 14/08 A2978 RMK CU1SC2 SLP085=
CYQM;2005-09-27 23:00;METAR CYQM 272300Z 25005KT 15SM FEW070 10/08 A2983 RMK AC1 SLP103=
CYQM;2005-09-28 00:00;METAR CYQM 280000Z 27007KT 15SM SKC 10/07 A2985 RMK SLP109=
CYQM;2005-09-28 01:00;METAR CYQM 280100Z 21005KT 15SM SKC 08/07 A2986 RMK SLP115=
CYQM;2005-09-28 02:00;METAR CYQM 280200Z 22008KT 15SM SKC 07/06 A2988 RMK SLP121=
CYQM;2005-09-28 03:00;METAR CYQM 280300Z 21007KT 15SM SKC 07/06 A2990 RMK SLP128=
CYQM;2005-09-28 04:00;METAR CYQM 280400Z 22009KT 15SM FEW120 07/05 A2991 RMK AC2 SLP130=
CYQM;2005-09-28 05:00;METAR CYQM 280500Z 22008KT 15SM BKN090 07/06 A2992 RMK AC7 SLP135=
CYQM;2005-09-28 06:00;METAR CYQM 280600Z 23009KT 15SM BKN085 08/06 A2992 RMK AC6 SLP136=
CYQM;2005-09-28 07:00;METAR CYQM 280700Z 22008KT 15SM FEW085 06/05 A2995 RMK AC1 SLP144=
CYQM;2005-09-28 08:00;METAR CYQM 280800Z 19007KT 15SM SKC 06/05 A2998 RMK SLP155=
CYQM;2005-09-28 09:00;METAR CYQM 280900Z 21007KT 15SM SKC 05/04 A3000 RMK SLP163=
CYQM;2005-09-28 10:00;METAR CYQM 281000Z 23008KT 15SM FEW020 06/05 A3004 RMK CU1 SLP176=
CYQM;2005-09-28 11:00;METAR CYQM 281100Z 22008KT 15SM FEW020 06/05 A3007 RMK CU1 SLP186=
CYQM;2005-09-28 12:00;METAR CYQM 281200Z 23010KT 15SM FEW020 08/07 A3011 RMK CU1 SLP197=
CYQM;2005-09-28 13:00;METAR CYQM 281300Z 24006KT 15SM FEW025 11/08 A3016 RMK CF1 SLP216=
CYQM;2005-09-28 14:00;METAR CYQM 281400Z 24004KT 15SM FEW025 FEW250 13/09 A3015 RMK CF1CI0 SLP213=
CYQM;2005-09-28 15:00;METAR CYQM 281500Z 24008KT 15SM FEW025 FEW250 14/08 A3017 RMK CF1CI0 SLP217=
CYQM;2005-09-28 16:00;METAR CYQM 281600Z 21004KT 15SM FEW030 FEW260 16/09 A3016 RMK CU1CI1 SLP214=
CYQM;2005-09-28 17:00;METAR CYQM 281700Z 21006KT 15SM FEW030 FEW260 17/08 A3015 RMK CU1CI1 SLP211=
CYQM;2005-09-28 18:00;METAR CYQM 281800Z 22003KT 15SM FEW030 FEW260 18/08 A3014 RMK CU1CI1 SLP209=
CYQM;2005-09-28 19:00;METAR CYQM 281900Z 26004KT 15SM FEW035 SCT260 18/07 A3014 RMK CU2CI0 SLP210=
CYQM;2005-09-28 20:00;METAR CYQM 282000Z 19007KT 15SM FEW035 BKN260 18/08 A3015 RMK CU2CI1 SLP212=
CYQM;2005-09-28 21:00;METAR CYQM 282100Z 19007KT 15SM FEW035 BKN260 17/08 A3016 RMK CU2CI2 SLP214=
CYQM;2005-09-28 22:00;METAR CYQM 282200Z 17007KT 15SM FEW035 BKN260 14/09 A3019 RMK CU1CI2 SLP226=
CYQM;2005-09-28 23:00;METAR CYQM 282300Z 17007KT 15SM FEW035 BKN260 12/09 A3019 RMK CU1CI2 SLP227=
CYQM;2005-09-29 00:00;METAR CYQM 290000Z 21006KT 15SM BKN260 12/08 A3021 RMK CI2 SLP231=
CYQM;2005-09-29 01:00;METAR CYQM 290100Z 18005KT 15SM BKN260 11/07 A3021 RMK CI2 SLP233=
CYQM;2005-09-29 02:00;METAR CYQM 290200Z 19006KT 15SM BKN260 09/06 A3022 RMK CI2 SLP236=
CYQM;2005-09-29 03:00;METAR CYQM 290300Z 17006KT 15SM BKN260 09/07 A3021 RMK CI2 SLP231=
CYQM;2005-09-29 04:00;METAR CYQM 290400Z 15004KT 15SM BKN260 09/06 A3019 RMK CI2 SLP226=
CYQM;2005-09-29 05:00;METAR CYQM 290500Z 18004KT 15SM FEW250 09/06 A3020 RMK CI2 SLP229=
CYQM;2005-09-29 06:00;METAR CYQM 290600Z 18005KT 15SM FEW250 09/06 A3018 RMK CI2 SLP222=
CYQM;2005-09-29 08:00;METAR CYQM 290800Z 16007KT 15SM SCT250 09/07 A3017 RMK CI4 SLP217=
CYQM;2005-09-29 09:00;METAR CYQM 290900Z 15010KT 15SM FEW230 10/07 A3014 RMK CI2 SLP208=
CYQM;2005-09-29 10:00;METAR CYQM 291000Z 14008KT 15SM FEW150 BKN240 09/08 A3014 RMK AC2CI4 SLP208=
CYQM;2005-09-29 11:00;METAR CYQM 291100Z 15013KT 15SM BKN240 10/08 A3013 RMK CI6 SLP204=
CYQM;2005-09-29 12:00;METAR CYQM 291200Z 17015KT 15SM BKN240 11/08 A3011 RMK CI6 SLP198=
CYQM;2005-09-29 13:00;METAR CYQM 291300Z 16014KT 15SM BKN230 13/09 A3009 RMK CI6 SLP192=
CYQM;2005-09-29 14:00;METAR CYQM 291400Z 16011G20KT 15SM BKN230 15/09 A3006 RMK CI6 SLP183=
CYQM;2005-09-29 15:00;METAR CYQM 291500Z 18024G30KT 15SM FEW030 BKN250 17/10 A3004 RMK CU1CI4 SLP173=
CYQM;2005-09-29 16:00;METAR CYQM 291600Z 18023G32KT 15SM SCT035 BKN270 18/10 A3002 RMK CU3CI2 SLP166=
CYQM;2005-09-29 17:00;METAR CYQM 291700Z 17021G29KT 15SM BKN035 BKN270 19/11 A2997 RMK CU5CI1 SLP151=
CYQM;2005-09-29 18:00;METAR CYQM 291800Z 18026G33KT 15SM BKN035 BKN270 19/11 A2994 RMK CU5CI1 SLP139=
CYQM;2005-09-29 19:00;METAR CYQM 291900Z 16020G28KT 15SM SCT035 BKN080 BKN270 19/12 A2989 RMK CU3AC2CI1 SLP123=
CYQM;2005-09-29 20:00;METAR CYQM 292000Z 15016G30KT 15SM FEW030 FEW085 BKN270 19/12 A2983 RMK CU2AC1CI2 PRESFR SLP103=
CYQM;2005-09-29 21:00;METAR CYQM 292100Z 16024G35KT 15SM FEW030 FEW085 BKN270 18/13 A2978 RMK CU2AC1CI2 SLP086=
CYQM;2005-09-29 22:00;METAR CYQM 292200Z 16020G31KT 15SM FEW030 FEW085 BKN250 17/13 A2976 RMK CU2AC1CI2 SLP080=
CYQM;2005-09-29 22:47;SPECI CYQM 292247Z 16025G31KT 15SM FEW008 BKN030 BKN150 18/ RMK SF2SC3AC1=
CYQM;2005-09-29 23:00;METAR CYQM 292300Z 16025G35KT 15SM FEW008 BKN030 BKN050 18/13 A2972 RMK SF2SC3SC2 SLP066=
CYQM;2005-09-30 00:00;METAR CYQM 300000Z 16024G35KT 15SM FEW008 BKN022 OVC050 17/13 A2968 RMK SF2SC6SC1 SLP053=
CYQM;2005-09-30 01:00;METAR CYQM 300100Z 16027G34KT 15SM FEW008 OVC018 17/13 A2964 RMK SF2SC6 SLP038=
CYQM;2005-09-30 01:38;SPECI CYQM 300138Z 16033G40KT 15SM -RA FEW008 OVC020 18/ RMK SF2SC6=
CYQM;2005-09-30 02:00;METAR CYQM 300200Z 18025G36KT 15SM -RA FEW008 OVC020 17/15 A2960 RMK SF2SC6 SLP025=
CYQM;2005-09-30 02:03;SPECI CYQM 300203Z 19024G34KT 2 1/2SM -RA BR FEW008 OVC017 17/ RMK SF2SC6=
CYQM;2005-09-30 02:07;SPECI CYQM 300207Z 23030G42KT 1 1/2SM +RA BR BKN007 OVC017 13/ RMK SF6SC2=
CYQM;2005-09-30 02:16;SPECI CYQM 300216Z 24021G35KT 4SM +RA BR BKN006 OVC015 12/ RMK SF6SC2=
CYQM;2005-09-30 03:00;METAR CYQM 300300Z 23022G32KT 7SM -RA BKN006 OVC015 12/10 A2970 RERA RMK SF6SC2 UA /OV YQM /TM 0250 /TP DASH-8 /TB MDT /RM MDT TURB BLO 010 PRESRR SLP060=
CYQM;2005-09-30 03:18;SPECI CYQM 300318Z 23021G30KT 10SM -RA FEW008 BKN013 OVC030 11/ RMK SF2SC5SC2=
CYQM;2005-09-30 03:47;SPECI CYQM 300347Z 23021G28KT 10SM -RA FEW008 BKN020 OVC030 11/ RMK SF2SC5SC2=
CYQM;2005-09-30 04:00;METAR CYQM 300400Z 24015G30KT 12SM -RA FEW012 BKN022 OVC040 11/09 A2975 RMK SC2SC6SC1 SLP074=
CYQM;2005-09-30 04:28;SPECI CYQM 300428Z 23026G33KT 15SM BKN027 10/ RMK SC7=
CYQM;2005-09-30 04:54;SPECI CYQM 300454Z 25020G27KT 15SM -SHRA BKN030 09/ RMK SC7=
CYQM;2005-09-30 05:00;METAR CYQM 300500Z 24019G26KT 15SM -SHRA BKN030 09/06 A2979 RMK SC7 SLP090=
CYQM;2005-09-30 05:32;SPECI CYQM 300532Z 25018KT 15SM SCT050 09/ RMK SC4=
CYQM;2005-09-30 06:00;METAR CYQM 300600Z 23011G18KT 15SM SCT050 09/05 A2982 RMK SC3 SLP098=
CYQM;2005-09-30 07:00;METAR CYQM 300700Z 23013G19KT 15SM FEW050 08/04 A2983 RMK SC2 SLP103=
CYQM;2005-09-30 09:00;METAR CYQM 300900Z 24014G19KT 15SM FEW050 SCT240 07/03 A2989 RMK SC1CI1 SLP123=
CYQM;2005-09-30 10:00;METAR CYQM 301000Z 25011G18KT 15SM FEW025 FEW240 06/03 A2993 RMK CU1CI1 SLP136=
CYQM;2005-09-30 11:00;METAR CYQM 301100Z 23012KT 15SM FEW025 SCT240 06/03 A2995 RMK CU1CI2 SLP143=
CYQM;2005-09-30 12:00;METAR CYQM 301200Z 25014G19KT 15SM FEW025 BKN120 BKN240 07/03 A2998 RMK CU1AS6CI1 SLP153=
CYQM;2005-09-30 13:00;METAR CYQM 301300Z 25013G18KT 15SM BKN120 BKN240 07/04 A3002 RMK AS6CI1 SLP166=
CYQM;2005-09-30 14:00;METAR CYQM 301400Z 25013G19KT 15SM FEW025 SCT120 BKN240 09/04 A3002 RMK CU1AC3CI2 AS ASOCTD SLP167=
CYQM;2005-09-30 15:00;METAR CYQM 301500Z 25013KT 15SM FEW025 FEW120 BKN240 11/04 A3002 RMK CU1AC2CI3 SLP169=
CYQM;2005-09-30 16:00;METAR CYQM 301600Z 24010KT 15SM FEW030 BKN120 BKN240 11/04 A3004 RMK CU1AS6CI1 SLP174=
CYQM;2005-09-30 17:00;METAR CYQM 301700Z 23010KT 15SM FEW030 BKN120 BKN240 10/04 A3005 RMK CU1AS6CI1 SLP177=
CYQM;2005-09-30 18:00;METAR CYQM 301800Z 23012KT 15SM FEW030 BKN120 BKN240 10/05 A3005 RMK CU1AS6CI1 SLP179=
CYQM;2005-09-30 19:00;METAR CYQM 301900Z 23009KT 15SM FEW025 BKN120 BKN240 10/05 A3005 RMK CU1AS4CI2 SLP178=
CYQM;2005-09-30 20:00;METAR CYQM 302000Z 24011KT 15SM FEW030 FEW120 BKN240 11/05 A3005 RMK CU2AC1CI2 SLP179=
CYQM;2005-09-30 21:00;METAR CYQM 302100Z 25010G15KT 15SM FEW030 FEW120 FEW240 11/04 A3008 RMK CU1AC1CI0 SLP187=
CYQM;2005-09-30 22:00;METAR CYQM 302200Z 24006KT 15SM FEW020 FEW120 FEW240 09/04 A3009 RMK CU1AC1CI1 SLP192=
CYQM;2005-10-01 00:00;METAR CYQM 010000Z 21008KT 15SM SKC 07/04 A3014 RMK SLP209=
CYQM;2005-10-01 01:00;METAR CYQM 010100Z 22007KT 15SM SKC 06/03 A3015 RMK SLP213=
CYQM;2005-10-01 02:00;METAR CYQM 010200Z 22007KT 15SM SKC 05/04 A3017 RMK SLP220=
CYQM;2005-10-01 03:00;METAR CYQM 010300Z 23007KT 15SM SKC 05/03 A3019 RMK SLP227=
CYQM;2005-10-01 04:00;METAR CYQM 010400Z 26006KT 15SM SKC 05/03 A3019 RMK SLP228=
CYQM;2005-10-01 06:00;METAR CYQM 010600Z 18004KT 15SM SKC 04/03 A3022 RMK SLP235=
CYQM;2005-10-01 07:00;METAR CYQM 010700Z 22005KT 15SM SKC 04/03 A3022 RMK SLP238=
CYQM;2005-10-01 08:04;SPECI CYQM 010804Z 22004KT 2SM BR SKC 02/=
CYQM;2005-10-01 08:11;SPECI CYQM 010811Z 21005KT 1 1/4SM BR SKC 02/ RMK FG2=
CYQM;2005-10-01 08:15;SPECI CYQM 010815Z 21005KT 10SM SKC 02/=
CYQM;2005-10-01 09:00;METAR CYQM 010900Z 20008KT 15SM VCFG SKC 02/01 A3027 RMK VIS W-NW 11/4 SLP253=
CYQM;2005-10-01 10:00;METAR CYQM 011000Z 21006KT 15SM FEW220 02/01 A3028 RMK CI1 SLP258=
CYQM;2005-10-01 11:00;METAR CYQM 011100Z 22004KT 15SM FEW120 FEW220 02/01 A3030 RMK AC1CI1 SLP264=
CYQM;2005-10-01 12:00;METAR CYQM 011200Z 23004KT 15SM FEW130 SCT220 04/03 A3030 RMK AC2CI1 SLP265=
CYQM;2005-10-01 13:00;METAR CYQM 011300Z 23005KT 15SM FEW130 SCT240 07/05 A3032 RMK AC2CI1 SLP269=
CYQM;2005-10-01 14:00;METAR CYQM 011400Z 21006KT 15SM FEW130 SCT240 12/06 A3031 RMK AC2CI1 SLP268=
CYQM;2005-10-01 16:00;METAR CYQM 011600Z 23010G15KT 15SM FEW030 FEW130 FEW240 16/05 A3028 RMK CU1AC1CI1 SLP258=
CYQM;2005-10-01 17:00;METAR CYQM 011700Z 23009G15KT 15SM FEW130 FEW240 16/06 A3026 RMK AC2CI1 SLP249=
CYQM;2005-10-01 18:00;METAR CYQM 011800Z 20008KT 15SM FEW130 FEW240 17/06 A3022 RMK AC1CI1 SLP237=
CYQM;2005-10-01 19:00;METAR CYQM 011900Z 21014G19KT 15SM BKN260 17/07 A3022 RMK CI2 SLP234=
CYQM;2005-10-01 20:00;METAR CYQM 012000Z 19013G18KT 15SM BKN260 16/07 A3020 RMK CI2 SLP228=
CYQM;2005-10-01 21:00;METAR CYQM 012100Z 19010G15KT 15SM FEW030 BKN260 14/06 A3019 RMK SC1CI5 SLP227=
CYQM;2005-10-01 22:00;METAR CYQM 012200Z 20014G20KT 15SM FEW030 FEW080 BKN260 12/04 A3019 RMK SC1AS2CI2 SLP225=
CYQM;2005-10-01 23:00;METAR CYQM 012300Z 21013KT 15SM SCT260 12/04 A3019 RMK CI2 SLP225=
CYQM;2005-10-02 00:00;METAR CYQM 020000Z 22011G17KT 15SM SKC 11/05 A3018 RMK SLP224=
CYQM;2005-10-02 01:00;METAR CYQM 020100Z 21013KT 15SM SKC 11/05 A3018 RMK SLP223=
CYQM;2005-10-02 04:00;METAR CYQM 020400Z 23017KT 15SM SKC 11/08 A3018 RMK SLP222=
CYQM;2005-10-02 05:00;METAR CYQM 020500Z 23017KT 15SM SKC 11/08 A3019 RMK SLP225=
CYQM;2005-10-02 07:00;METAR CYQM 020700Z 23013KT 15SM SKC 11/08 A3019 RMK SLP226=
CYQM;2005-10-02 09:00;METAR CYQM 020900Z 22009KT 15SM SKC 10/08 A3022 RMK SLP234=
CYQM;2005-10-02 10:00;METAR CYQM 021000Z 22008KT 15SM FEW130 09/08 A3025 RMK AC1 SLP244=
CYQM;2005-10-02 11:00;METAR CYQM 021100Z 22008KT 15SM FEW260 10/08 A3027 RMK CI1 SLP251=
CYQM;2005-10-02 12:00;METAR CYQM 021200Z 23010KT 15SM FEW260 11/09 A3029 RMK CI1 SLP260=
CYQM;2005-10-02 13:00;METAR CYQM 021300Z 24007KT 15SM FEW260 13/10 A3031 RMK CI1 SLP266=
CYQM;2005-10-02 14:00;METAR CYQM 021400Z 23006KT 15SM FEW260 15/10 A3033 RMK CI1 SLP272=
CYQM;2005-10-02 15:00;METAR CYQM 021500Z 31009KT 15SM FEW260 18/10 A3033 RMK CI1 SLP272=
CYQM;2005-10-02 16:00;METAR CYQM 021600Z 33011KT 15SM FEW260 19/09 A3033 RMK CI1 SLP271=
CYQM;2005-10-02 17:00;METAR CYQM 021700Z 29008KT 15SM FEW260 19/09 A3031 RMK CI1 SLP267=
CYQM;2005-10-02 18:00;METAR CYQM 021800Z 29008KT 15SM FEW260 20/08 A3031 RMK CI2 SLP267=
CYQM;2005-10-02 19:00;METAR CYQM 021900Z 29008KT 15SM SCT260 20/08 A3032 RMK CI2 SLP270=
CYQM;2005-10-02 20:00;METAR CYQM 022000Z 31004KT 15SM BKN260 20/08 A3032 RMK CI2 SLP270=
CYQM;2005-10-02 21:00;METAR CYQM 022100Z 31004KT 15SM SCT260 19/09 A3033 RMK CI2 SLP272=
CYQM;2005-10-02 22:00;METAR CYQM 022200Z 00000KT 15SM FEW260 18/09 A3034 RMK CI1 SLP275=
CYQM;2005-10-02 23:00;METAR CYQM 022300Z 13006KT 15SM FEW260 15/10 A3035 RMK CI1 SLP279=
CYQM;2005-10-03 00:00;METAR CYQM 030000Z 17006KT 15SM SKC 13/10 A3036 RMK SLP283=
CYQM;2005-10-03 01:00;METAR CYQM 030100Z 18006KT 15SM SKC 11/10 A3037 RMK SLP286=
CYQM;2005-10-03 02:00;METAR CYQM 030200Z 20007KT 15SM SKC 10/09 A3038 RMK SLP289=
CYQM;2005-10-03 03:00;METAR CYQM 030300Z 23006KT 15SM SKC 09/09 A3039 RMK SLP291=
CYQM;2005-10-03 04:00;METAR CYQM 030400Z 21006KT 15SM SKC 09/08 A3039 RMK SLP291=
CYQM;2005-10-03 05:00;METAR CYQM 030500Z 23008KT 15SM SKC 09/08 A3040 RMK SLP295=
CYQM;2005-10-03 06:00;METAR CYQM 030600Z 22005KT 15SM SKC 08/07 A3040 RMK SLP296=
CYQM;2005-10-03 07:00;METAR CYQM 030700Z 22007KT 15SM SKC 08/07 A3040 RMK SLP297=
CYQM;2005-10-03 08:00;METAR CYQM 030800Z 22006KT 15SM SKC 07/06 A3041 RMK SLP300=
CYQM;2005-10-03 09:00;METAR CYQM 030900Z 20007KT 15SM SKC 07/06 A3042 RMK SLP302=
CYQM;2005-10-03 10:00;METAR CYQM 031000Z 20006KT 15SM FEW250 07/06 A3043 RMK CI1 SLP307=
CYQM;2005-10-03 11:00;METAR CYQM 031100Z 22007KT 15SM FEW250 08/07 A3044 RMK CI1 SLP310=
CYQM;2005-10-03 12:00;METAR CYQM 031200Z 22004KT 15SM FEW250 10/08 A3045 RMK CI1 SLP314=
CYQM;2005-10-03 13:00;METAR CYQM 031300Z 20004KT 15SM FEW250 13/10 A3045 RMK CI1 SLP314=
CYQM;2005-10-03 14:00;METAR CYQM 031400Z 19005KT 15SM FEW250 17/11 A3044 RMK CI1 SLP310=
CYQM;2005-10-03 15:00;METAR CYQM 031500Z 22006KT 15SM FEW250 20/12 A3042 RMK CI1 SLP304=
CYQM;2005-10-03 16:00;METAR CYQM 031600Z 20007KT 15SM FEW250 22/12 A3041 RMK CI1 SLP298=
CYQM;2005-10-03 17:00;METAR CYQM 031700Z 23009KT 15SM FEW250 24/14 A3039 RMK CI1 SLP291=
CYQM;2005-10-03 18:00;METAR CYQM 031800Z 24009KT 15SM FEW250 24/13 A3038 RMK CI1 SLP288=
CYQM;2005-10-03 19:00;METAR CYQM 031900Z 23012KT 15SM FEW250 24/14 A3036 RMK CI1 SLP283=
CYQM;2005-10-03 20:00;METAR CYQM 032000Z 24012KT 15SM FEW250 24/13 A3036 RMK CI1 SLP283=
CYQM;2005-10-03 21:00;METAR CYQM 032100Z 23012KT 15SM FEW250 22/13 A3036 RMK CI0 SLP282=
CYQM;2005-10-03 22:00;METAR CYQM 032200Z 23009KT 15SM FEW250 20/13 A3037 RMK CI0 SLP285=
CYQM;2005-10-03 23:00;METAR CYQM 032300Z 21008KT 15SM FEW250 18/12 A3037 RMK CI1 SLP286=
CYQM;2005-10-04 00:00;METAR CYQM 040000Z 20008KT 15SM SKC 16/12 A3037 RMK SLP285=
CYQM;2005-10-04 01:00;METAR CYQM 040100Z 20009KT 15SM SKC 15/11 A3036 RMK SLP283=
CYQM;2005-10-04 02:00;METAR CYQM 040200Z 20007KT 15SM SKC 15/11 A3037 RMK SLP285=
CYQM;2005-10-04 03:00;METAR CYQM 040300Z 21009KT 15SM SKC 14/10 A3037 RMK SLP285=
CYQM;2005-10-04 04:00;METAR CYQM 040400Z 20009KT 15SM SKC 14/10 A3036 RMK SLP281=
CYQM;2005-10-04 05:00;METAR CYQM 040500Z 19008KT 15SM SKC 13/09 A3034 RMK SLP277=
CYQM;2005-10-04 06:00;METAR CYQM 040600Z 22006KT 15SM SKC 12/09 A3034 RMK SLP274=
CYQM;2005-10-04 07:00;METAR CYQM 040700Z 21007KT 15SM SKC 10/09 A3033 RMK SLP271=
CYQM;2005-10-04 08:00;METAR CYQM 040800Z 23007KT 15SM SKC 10/09 A3033 RMK SLP271=
CYQM;2005-10-04 09:00;METAR CYQM 040900Z 23007KT 15SM SKC 10/09 A3032 RMK SLP269=
CYQM;2005-10-04 10:00;METAR CYQM 041000Z 22006KT 15SM FEW250 10/08 A3033 RMK CI1 SLP272=
CYQM;2005-10-04 11:00;METAR CYQM 041100Z 20009KT 15SM FEW250 10/08 A3032 RMK CI1 SLP270=
CYQM;2005-10-04 12:00;METAR CYQM 041200Z 20008KT 15SM FEW250 12/10 A3031 RMK CI1 SLP267=
CYQM;2005-10-04 13:00;METAR CYQM 041300Z 22009KT 15SM FEW250 16/11 A3031 RMK CI1 SLP267=
CYQM;2005-10-04 14:00;METAR CYQM 041400Z 23011KT 15SM SKC 19/12 A3030 RMK SLP263=
CYQM;2005-10-04 15:00;METAR CYQM 041500Z 23015G22KT 15SM SKC 21/10 A3028 RMK SLP256=
CYQM;2005-10-04 16:00;METAR CYQM 041600Z 23017G22KT 15SM SKC 22/12 A3027 RMK SLP251=
CYQM;2005-10-04 17:00;METAR CYQM 041700Z 23017G25KT 15SM FEW250 22/13 A3025 RMK CI1 SLP244=
CYQM;2005-10-04 18:00;METAR CYQM 041800Z 23014G26KT 15SM FEW250 23/13 A3023 RMK CI2 SLP237=
CYQM;2005-10-04 19:00;METAR CYQM 041900Z 23015G22KT 15SM FEW250 23/13 A3022 RMK CI2 SLP235=
CYQM;2005-10-04 20:00;METAR CYQM 042000Z 21018G24KT 15SM SCT250 22/12 A3021 RMK CI2 SLP230=
CYQM;2005-10-04 21:00;METAR CYQM 042100Z 22011G19KT 15SM BKN260 20/12 A3020 RMK CI2 SLP227=
CYQM;2005-10-04 22:00;METAR CYQM 042200Z 21010KT 15SM BKN270 18/12 A3020 RMK CI2 SLP228=
CYQM;2005-10-04 23:00;METAR CYQM 042300Z 21007KT 15SM BKN260 15/12 A3020 RMK CI2 SLP227=
CYQM;2005-10-05 00:00;METAR CYQM 050000Z 23009KT 15SM SCT260 15/12 A3021 RMK CI2 SLP231=
CYQM;2005-10-05 01:00;METAR CYQM 050100Z 22012G17KT 10SM FEW260 14/12 A3022 RMK CI1 SLP235=
CYQM;2005-10-05 03:00;METAR CYQM 050300Z 22012KT 12SM FEW080 FEW260 14/12 A3024 RMK AC2CI0 SLP241=
CYQM;2005-10-05 04:00;METAR CYQM 050400Z 22010KT 12SM SCT080 SCT260 14/12 A3024 RMK AC3CI0 SLP240=
CYQM;2005-10-05 05:00;METAR CYQM 050500Z 23012KT 12SM FEW080 14/12 A3025 RMK AC1 SLP243=
CYQM;2005-10-05 06:00;METAR CYQM 050600Z 23010KT 12SM FEW080 15/12 A3025 RMK AC2 SLP245=
CYQM;2005-10-05 07:00;METAR CYQM 050700Z 23010KT 12SM BKN090 15/12 A3026 RMK AC5 SLP248=
CYQM;2005-10-05 08:00;METAR CYQM 050800Z 23008KT 15SM BKN075 14/12 A3026 RMK AC6 SLP249=
CYQM;2005-10-05 09:00;METAR CYQM 050900Z 23008KT 15SM BKN075 14/12 A3028 RMK AC5 SLP254=
CYQM;2005-10-05 10:00;METAR CYQM 051000Z 23007KT 12SM SCT075 14/12 A3029 RMK AC3 SLP257=
CYQM;2005-10-05 11:00;METAR CYQM 051100Z 22005KT 12SM SCT075 13/12 A3030 RMK AC4 SLP262=
CYQM;2005-10-05 12:00;METAR CYQM 051200Z 27005KT 12SM SCT030 BKN075 15/13 A3032 RMK SC3AC4 SLP268=
CYQM;2005-10-05 13:00;METAR CYQM 051300Z 32002KT 10SM BKN030 OVC075 15/13 A3033 RMK SC5AC3 SLP273=
CYQM;2005-10-05 13:15;SPECI CYQM 051315Z 34004KT 8SM FEW008 BKN030 OVC075 15/ RMK SF2SC5AC1=
CYQM;2005-10-05 13:20;SPECI CYQM 051320Z 01004KT 8SM BKN005 OVC012 15/ RMK SF6SC2=
CYQM;2005-10-05 14:00;METAR CYQM 051400Z 34002KT 8SM OVC006 15/13 A3034 RMK SF8 SLP276=
CYQM;2005-10-05 15:00;METAR CYQM 051500Z 11003KT 10SM BKN006 OVC012 16/14 A3034 RMK SF5SC3 SLP275=
CYQM;2005-10-05 16:00;METAR CYQM 051600Z 14004KT 10SM BKN006 BKN012 17/15 A3032 RMK SF5SC2 SLP270=
CYQM;2005-10-05 17:00;METAR CYQM 051700Z 13004KT 10SM BKN008 17/15 A3029 RMK SF7 SLP258=
CYQM;2005-10-05 17:24;SPECI CYQM 051724Z 13004KT 12SM BKN012 18/ RMK CF6=
CYQM;2005-10-05 18:00;METAR CYQM 051800Z 10006KT 12SM FEW015 SCT260 19/16 A3027 RMK CU2CI1 SLP250=
CYQM;2005-10-05 21:00;METAR CYQM 052100Z 11007KT 15SM FEW260 17/14 A3023 RMK CI1 SLP239=
CYQM;2005-10-05 23:00;METAR CYQM 052300Z 15006KT 15SM FEW260 13/12 A3023 RMK CI1 SLP239=
CYQM;2005-10-06 00:00;METAR CYQM 060000Z 17009KT 15SM FEW260 12/11 A3023 RMK CI1 SLP240=
CYQM;2005-10-06 01:00;METAR CYQM 060100Z 17009KT 15SM SKC 11/09 A3023 RMK SLP239=
CYQM;2005-10-06 02:00;METAR CYQM 060200Z 16007KT 15SM SKC 11/09 A3022 RMK SLP235=
CYQM;2005-10-06 04:00;METAR CYQM 060400Z 22009KT 12SM SKC 09/08 A3022 RMK SLP235=
CYQM;2005-10-06 04:17;SPECI CYQM 060417Z 22011KT 12SM FEW008 10/ RMK SF1=
CYQM;2005-10-06 05:00;METAR CYQM 060500Z 20010KT 12SM FEW008 10/08 A3021 RMK SF1 SLP231=
CYQM;2005-10-06 06:00;METAR CYQM 060600Z 21008KT 12SM FEW012 11/10 A3020 RMK SC1 SLP229=
CYQM;2005-10-06 06:42;SPECI CYQM 060642Z 20007KT 15SM BKN010 12/ RMK SC5=
CYQM;2005-10-06 07:31;SPECI CYQM 060731Z 21006KT 15SM BKN006 OVC011 13/ RMK SF6SC2=
CYQM;2005-10-06 09:00;METAR CYQM 060900Z 24010KT 15SM OVC007 15/14 A3022 RMK SF8 SLP235=
CYQM;2005-10-06 10:00;METAR CYQM 061000Z 25008KT 15SM BKN009 16/14 A3023 RMK SF7 SLP239=
CYQM;2005-10-06 11:00;METAR CYQM 061100Z 26005KT 10SM OVC007 16/15 A3025 RMK SF8 SLP244=
CYQM;2005-10-06 12:00;METAR CYQM 061200Z 23004KT 8SM OVC007 16/15 A3025 RMK SF8 SLP245=
CYQM;2005-10-06 12:44;SPECI CYQM 061244Z 22003KT 3SM -DZ BR OVC005 16/ RMK SF8=
CYQM;2005-10-06 13:00;METAR CYQM 061300Z 21003KT 3SM -DZ BR OVC005 16/15 A3025 RMK SF8 SLP247=
CYQM;2005-10-06 14:00;METAR CYQM 061400Z 19003KT 3SM -DZ BR OVC005 16/15 A3025 RMK SF8 SLP247=
CYQM;2005-10-06 14:37;SPECI CYQM 061437Z 23003KT 8SM BKN006 OVC012 16/ RMK SF5SC3=
CYQM;2005-10-06 15:00;METAR CYQM 061500Z 22002KT 8SM BKN006 OVC012 17/15 A3025 RMK SF5SC3 SLP244=
CYQM;2005-10-06 15:36;SPECI CYQM 061536Z 04007KT 4SM -DZ BR FEW003 OVC006 15/ RMK SF2SF6=
CYQM;2005-10-06 15:52;SPECI CYQM 061552Z 04007KT 2SM -DZ BR FEW003 OVC006 15/ RMK SF2SF6=
CYQM;2005-10-06 16:00;METAR CYQM 061600Z 03007KT 1 1/4SM -DZ BR FEW003 OVC006 14/14 A3024 RMK SF2SF6 SLP243=
CYQM;2005-10-06 16:21;SPECI CYQM 061621Z 04007KT 1 1/4SM -DZ BR BKN003 OVC006 14/ RMK SF5SF3=
CYQM;2005-10-06 16:40;SPECI CYQM 061640Z 04007KT 3SM -DZ BR BKN003 OVC006 14/ RMK SF5SF3=
CYQM;2005-10-06 16:54;SPECI CYQM 061654Z 04006KT 2SM -DZ BR BKN003 OVC006 14/ RMK SF6SF2=
CYQM;2005-10-06 17:00;METAR CYQM 061700Z 04005KT 1 1/4SM -DZ BR BKN003 OVC006 14/13 A3023 RMK SF6SF2 SLP240=
CYQM;2005-10-06 18:00;METAR CYQM 061800Z 03008KT 1 1/4SM -DZ BR OVC003 14/13 A3022 RMK SF8 SLP237=
CYQM;2005-10-06 18:43;SPECI CYQM 061843Z 04006KT 2SM -DZ BR BKN003 OVC007 14/ RMK SF6SF2=
CYQM;2005-10-06 20:18;SPECI CYQM 062018Z 04005KT 2SM -DZ BR BKN003 OVC007 14/ RMK SF7SF1=
CYQM;2005-10-06 20:28;SPECI CYQM 062028Z 04005KT 5SM -DZ BR OVC003 14/ RMK SF8=
CYQM;2005-10-06 20:40;SPECI CYQM 062040Z 05005KT 1 1/2SM -DZ BR OVC003 14/ RMK SF8=
CYQM;2005-10-06 21:00;METAR CYQM 062100Z 04004KT 2 1/2SM -DZ BR OVC003 14/13 A3020 RMK SF8 SLP229=
CYQM;2005-10-06 21:05;SPECI CYQM 062105Z 05005KT 5SM -DZ BR OVC003 14/ RMK SF8=
CYQM;2005-10-06 21:20;SPECI CYQM 062120Z 05005KT 5SM BR OVC002 14/ RMK SF8=
CYQM;2005-10-06 21:45;SPECI CYQM 062145Z 06004KT 1 1/4SM BR OVC002 14/ RMK SF8=
CYQM;2005-10-06 22:00;METAR CYQM 062200Z 07004KT 1 1/4SM BR OVC002 14/13 A3018 RMK SF8 BLN VSBL TO 400FT SLP222=
CYQM;2005-10-06 22:02;SPECI CYQM 062202Z 08004KT 3/4SM R29/P6000FT/D R06/P6000FT/U BR OVC002 14/ RMK FG2SF6=
CYQM;2005-10-06 22:14;SPECI CYQM 062214Z 08005KT 3/4SM R29/3500V5500FT/D R06/4500VP6000FT/D -DZ BR OVC002 14/ RMK FG2SF6=
CYQM;2005-10-06 22:19;SPECI CYQM 062219Z 08004KT 5/8SM R29/3000V5000FT/U R06/3000VP6000FT/D -DZ BR OVC002 14/ RMK FG2SF6=
CYQM;2005-10-06 22:48;SPECI CYQM 062248Z 03002KT 5/8SM R29/5500FT/D R06/3000V4500FT/D -DZ BR BKN001 OVC003 14/ RMK SF6SF2=
CYQM;2005-10-06 23:00;METAR CYQM 062300Z 05004KT 5/8SM R29/5000FT/D R06/4000FT/U -DZ BR BKN001 OVC003 14/13 A3018 RMK SF6SF2 SLP222=
CYQM;2005-10-06 23:21;SPECI CYQM 062321Z 05003KT 3/4SM R29/6000FT/D R06/4000V5500FT/U -DZ BR BKN001 OVC003 14/ RMK SF6SF2=
CYQM;2005-10-06 23:40;SPECI CYQM 062340Z 05002KT 5/8SM R29/4000FT/D R06/5500FT/D BR VV002 14/ RMK FG8=
CYQM;2005-10-07 00:00;METAR CYQM 070000Z 09004KT 1/2SM R29/3500FT/N R06/4500FT/N FG VV002 14/13 A3017 RMK FG8 SLP219=
CYQM;2005-10-07 00:07;SPECI CYQM 070007Z 07002KT 1/2SM R29/2800FT/D R06/3500FT/D -DZ FG VV002 14/ RMK FG8=
CYQM;2005-10-07 00:51;SPECI CYQM 070051Z 00000KT 3/8SM R29/2600FT/N R06/3500FT/N FG VV002 14/ RMK FG8=
CYQM;2005-10-07 01:00;METAR CYQM 070100Z 00000KT 1/4SM R29/1800V2800FT/D R06/3000FT/D FG VV001 14/13 A3017 RMK FG8 SLP217=
CYQM;2005-10-07 01:44;SPECI CYQM 070144Z 09002KT 3/8SM R29/1600V2200FT/N R06/2000FT/U FG BKN002 OVC012 15/ RMK SF6SC2=
CYQM;2005-10-07 01:51;SPECI CYQM 070151Z 09003KT 3/4SM R29/1800V3000FT/U R06/2000V3000FT/U BR BKN002 BKN012 OVC018 15/ RMK SF5SC2SC1=
CYQM;2005-10-07 02:00;METAR CYQM 070200Z 09002KT 3/4SM R29/3000FT/U R06/2400V4000FT/U BR BKN002 OVC013 15/14 A3015 RMK SF6SC2 SLP211=
CYQM;2005-10-07 02:05;SPECI CYQM 070205Z 08002KT 3/4SM R29/3000V4500FT/U R06/3500VP6000FT/U -DZ BR BKN002 OVC013 15/ RMK SF5SC3=
CYQM;2005-10-07 02:29;SPECI CYQM 070229Z 14003KT 5SM BR FEW002 OVC014 15/ RMK SF2SC6 VIS W 21/2=
CYQM;2005-10-07 03:00;METAR CYQM 070300Z 16004KT 8SM VCFG FEW001 OVC013 15/15 A3014 RMK SF1SC7 VIS SW-NW 21/2 SLP206=
CYQM;2005-10-07 04:00;METAR CYQM 070400Z 18004KT 12SM BKN013 OVC019 17/16 A3013 RMK SC6SC2 VIS SW-NW 5 SLP205=
CYQM;2005-10-07 04:23;SPECI CYQM 070423Z 23003KT 8SM BKN001 BKN013 OVC027 16/ RMK SF5SC2SC1=
CYQM;2005-10-07 04:37;SPECI CYQM 070437Z 20004KT 3/4SM R29/P6000FT/D R06/P6000FT/N BR OVC012 16/ RMK FG5SC3=
CYQM;2005-10-07 04:43;SPECI CYQM 070443Z 19004KT 1/2SM R29/P6000FT/N R06/P6000FT/D FG OVC012 16/ RMK FG6SC2=
CYQM;2005-10-07 04:48;SPECI CYQM 070448Z 19004KT 3/8SM R29/P6000FT/U R06/2800VP6000FT/D FG OVC012 16/ RMK FG7SC1=
CYQM;2005-10-07 05:00;METAR CYQM 070500Z 18002KT 3/8SM R29/P6000FT/D R06/1600V3000FT/D FG BKN012 OVC021 16/15 A3011 RMK FG5SC2SC2 SLP199=
CYQM;2005-10-07 05:05;SPECI CYQM 070505Z 22002KT 3/8SM R29/2600V5000FT/D R06/1400FT/N FG BKN035 15/ RMK FG5SC2=
CYQM;2005-10-07 06:00;METAR CYQM NIL=
CYQM;2005-10-07 06:11;SPECI CYQM 070611Z 20004KT 1/4SM R29/P6000FT/N R06/2800FT/N FG OVC014 16/ RMK FG5SC3=
CYQM;2005-10-07 06:51;SPECI CYQM 070651Z 19005KT 12SM FEW001 BKN012 OVC025 16/ RMK SF1SC6SC1=
CYQM;2005-10-07 07:12;SPECI CYQM 070712Z 22004KT 3SM -DZ BR FEW001 BKN009 OVC012 17/ RMK SF2SF3SF2 VIS HIER NE-SE=
CYQM;2005-10-07 07:19;SPECI CYQM 070719Z 22004KT 1 1/4SM R29/P6000FT/N R06/P6000FT/D -DZ BR BKN005 OVC009 16/ RMK FG2SF5SF2=
CYQM;2005-10-07 07:27;SPECI CYQM 070727Z 22005KT 1 1/2SM -DZ BR BKN001 BKN005 OVC009 16/ RMK SF6SF1SF1=
CYQM;2005-10-07 08:20;SPECI CYQM 070820Z 22011KT 7SM -DZ BKN001 OVC016 16/ RMK SF6SC2=
CYQM;2005-10-07 08:25;SPECI CYQM 070825Z 22010KT 12SM FEW001 OVC017 16/ RMK SF2SC6 INTMT -DZ=
CYQM;2005-10-07 09:00;METAR CYQM 070900Z 21006KT 12SM FEW002 OVC018 16/16 A3009 RMK CF1SC7 SLP192=
CYQM;2005-10-07 10:00;METAR CYQM 071000Z 18010KT 8SM FEW003 FEW025 17/16 A3007 RMK CF1SC1 VIS LWR NW SLP185=
CYQM;2005-10-07 11:00;METAR CYQM 071100Z 16008KT 8SM FEW004 FEW015 FEW025 FEW250 16/15 A3008 RMK CF1SC1SC1CI1 SLP186=
CYQM;2005-10-07 11:17;SPECI CYQM 071117Z 16008KT 8SM BKN014 BKN250 17/ RMK SC7CI1=
CYQM;2005-10-07 12:00;METAR CYQM 071200Z 18008KT 15SM BKN015 18/16 A3008 RMK SC7 SLP186=
CYQM;2005-10-07 13:00;METAR CYQM 071300Z 20011G19KT 15SM BKN018 18/15 A3008 RMK SC7 SLP186=
CYQM;2005-10-07 14:00;METAR CYQM 071400Z 20017G22KT 15SM SCT018 SCT250 20/17 A3006 RMK SC3CI1 SLP180=
CYQM;2005-10-07 15:00;METAR CYQM 071500Z 20015G25KT 15SM SCT020 SCT250 22/17 A3003 RMK CU4CI1 SLP170=
CYQM;2005-10-07 16:00;METAR CYQM 071600Z 21016G26KT 15SM FEW025 SCT260 23/17 A3002 RMK CU2CI0 SLP166=
CYQM;2005-10-07 17:00;METAR CYQM 071700Z 22016G29KT 15SM SCT025 BKN260 24/18 A3000 RMK CU3CI1 SLP159=
CYQM;2005-10-07 18:00;METAR CYQM 071800Z 23015G24KT 15SM SCT030 BKN260 23/18 A2999 RMK CU3CI1 SLP155=
CYQM;2005-10-07 20:00;METAR CYQM 072000Z 21018G24KT 15SM SCT025 SCT085 BKN260 23/17 A2997 RMK CU4AC1CI0 SLP151=
CYQM;2005-10-07 21:00;METAR CYQM 072100Z 21016G26KT 15SM FEW020 SCT090 BKN260 22/17 A2999 RMK CU2AC1CI1 SLP156=
CYQM;2005-10-07 21:51;SPECI CYQM 072151Z 21017G26KT 15SM FEW009 BKN025 BKN260 21/ RMK SF2SC4CI1=
CYQM;2005-10-07 22:00;METAR CYQM 072200Z 21011G25KT 15SM FEW009 SCT025 BKN260 21/17 A2999 RMK SF1SC2CI2 SLP156=
CYQM;2005-10-07 23:00;METAR CYQM 072300Z 21015G20KT 15SM FEW009 BKN020 OVC050 21/17 A2999 RMK SF1SC6SC2 SLP157=
CYQM;2005-10-08 00:00;METAR CYQM 080000Z 20010KT 15SM FEW009 OVC021 21/17 A2999 RMK SF2SC6 SLP157=
CYQM;2005-10-08 00:30;SPECI CYQM 080030Z 21014G20KT 15SM SCT020 21/ RMK SC4=
CYQM;2005-10-08 01:00;METAR CYQM 080100Z 20018KT 15SM FEW020 21/17 A2999 RMK SC2 SLP156=
CYQM;2005-10-08 02:00;METAR CYQM 080200Z 20014G30KT 15SM FEW020 21/17 A2998 RMK SC2 SLP153=
CYQM;2005-10-08 03:00;METAR CYQM 080300Z 20009KT 15SM BKN020 20/17 A2998 RMK SC7 SLP153=
CYQM;2005-10-08 04:00;METAR CYQM 080400Z 22012G17KT 15SM BKN020 20/17 A2997 RMK SC7 SLP149=
CYQM;2005-10-08 05:00;METAR CYQM 080500Z 21012G17KT 15SM FEW020 BKN045 21/17 A2997 RMK SC2SC6 SLP148=
CYQM;2005-10-08 06:00;METAR CYQM 080600Z 24010G15KT 15SM OVC017 20/17 A2998 RMK SC8 SLP152=
CYQM;2005-10-08 06:12;SPECI CYQM 080612Z 25010KT 15SM OVC013 20/ RMK SC8=
CYQM;2005-10-08 07:00;METAR CYQM 080700Z 25009KT 15SM OVC012 19/17 A2997 RMK SC8 SLP149=
CYQM;2005-10-08 07:24;SPECI CYQM 080724Z 26006KT 15SM -SHRA OVC012 19/ RMK SC8=
CYQM;2005-10-08 07:48;SPECI CYQM 080748Z 02019KT 2SM +SHRA BR BKN007 OVC012 12/ RMK SF5SC3=
CYQM;2005-10-08 08:00;METAR CYQM 080800Z 02016G21KT 2SM +SHRA BR BKN007 OVC012 12/10 A2997 RMK SF5SC3 /R16/ SLP150=
CYQM;2005-10-08 08:27;SPECI CYQM 080827Z 03016KT 1SM +SHRA BR BKN005 OVC012 11/ RMK SF5SC3=
CYQM;2005-10-08 08:38;SPECI CYQM 080838Z 04009G18KT 3SM +SHRA BR BKN007 OVC012 11/ RMK SF5SC3 TCU EMBD=
CYQM;2005-10-08 09:00;METAR CYQM 080900Z 36011G19KT 2 1/2SM SHRA BR BKN007 OVC012 11/10 A3002 RERA RMK SF5SC3 TCU EMBD /R39/ SLP166=
CYQM;2005-10-08 09:39;SPECI CYQM 080939Z 36012KT 1 1/2SM R29/3500VP6000FT/U R06/2200V6000FT/U +SHRA BR BKN004 OVC006 10/ RMK SF5SF3 TCU EMBD=
CYQM;2005-10-08 10:00;METAR CYQM 081000Z 02013KT 1 1/2SM SHRA BR BKN003 OVC006 10/09 A3001 RERA RMK SF5SF3 TCU EMBD /R51/ SLP164=
CYQM;2005-10-08 10:16;SPECI CYQM 081016Z 01011G16KT 1 1/2SM R29/P6000FT/U R06/2600VP6000FT/U SHRA BR BKN005 OVC012 10/ RMK SF7SC1=
CYQM;2005-10-08 11:00;METAR CYQM 081100Z 01011KT 1 1/2SM RA BR OVC005 10/09 A3003 RMK SF8 SLP170=
CYQM;2005-10-08 13:00;METAR CYQM 081300Z 01008KT 4SM -RA BR BKN002 OVC012 10/09 A3003 RMK SF7SC1 SLP172=
CYQM;2005-10-08 14:00;METAR CYQM 081400Z 04008KT 4SM -RA BR BKN003 OVC012 11/10 A3001 RMK SF7SC1 SLP164=
CYQM;2005-10-08 14:25;SPECI CYQM 081425Z 05010G15KT 4SM -RA BR BKN004 OVC015 11/ RMK SF7SC1=
CYQM;2005-10-08 14:45;SPECI CYQM 081445Z 06012KT 1 1/2SM RA BR BKN004 OVC015 11/ RMK SF7SC1=
CYQM;2005-10-08 15:36;SPECI CYQM 081536Z 03014KT 1 1/4SM +RA BR BKN005 OVC015 10/ RMK SF7SC1=
CYQM;2005-10-08 16:10;SPECI CYQM 081610Z 04011G17KT 4SM RA BR SCT003 BKN005 OVC017 10/ RMK SF3SF4SC1=
CYQM;2005-10-08 17:00;METAR CYQM 081700Z 04014G20KT 2SM RA BR OVC005 10/09 A2999 RMK SF8 /R22/ SLP156=
CYQM;2005-10-08 18:00;METAR CYQM 081800Z 04012G17KT 2SM RA BR BKN005 OVC070 09/08 A3002 RMK SF6AS2 PRES UNSTDY SLP167=
CYQM;2005-10-08 19:00;METAR CYQM 081900Z 02013G18KT 2SM RA BR OVC005 09/08 A3003 RMK SF8 SLP170=
CYQM;2005-10-08 19:24;SPECI CYQM 081924Z 02013KT 1 1/2SM RA BR OVC006 09/ RMK SF8=
CYQM;2005-10-08 20:00;METAR CYQM 082000Z 01013G18KT 1 1/2SM -RA BR OVC006 09/08 A3004 RERA RMK SF8 /R12/ SLP175=
CYQM;2005-10-08 20:29;SPECI CYQM 082029Z 01014KT 1 1/2SM -RA BR BKN004 OVC008 08/ RMK SF6SF2=
CYQM;2005-10-08 21:53;SPECI CYQM 082153Z 01013G18KT 3SM -SHRA BR BKN006 OVC012 08/ RMK SF6SC2=
CYQM;2005-10-08 22:00;METAR CYQM 082200Z 01012KT 3SM -SHRA BR BKN006 OVC012 08/07 A3007 RMK SF6SC2 SLP186=
CYQM;2005-10-09 01:00;METAR CYQM 090100Z 04011G20KT 3SM -RA BR BKN005 OVC012 09/08 A3010 RERA RMK SF6SC2 SLP196=
CYQM;2005-10-09 02:00;METAR CYQM 090200Z 04011G18KT 4SM -RA BR OVC006 09/08 A3011 RMK SF8 SLP197=
CYQM;2005-10-09 03:00;METAR CYQM 090300Z 02010KT 5SM -RA BR OVC006 09/08 A3012 RMK SF8 SLP202=
CYQM;2005-10-09 03:28;SPECI CYQM 090328Z 03007KT 6SM -RA BR SCT006 OVC012 09/ RMK SF3SC5=
CYQM;2005-10-09 04:00;METAR CYQM 090400Z 02009KT 6SM -RA BR SCT006 OVC011 09/09 A3012 RMK SF3SC5 SLP202=
CYQM;2005-10-09 04:12;SPECI CYQM 090412Z 03010KT 4SM -RA BR BKN006 OVC012 10/ RMK SF6SC2=
CYQM;2005-10-09 05:00;METAR CYQM 090500Z 03012KT 4SM -RA BR BKN006 OVC012 10/09 A3014 RMK SF6SC2 SLP210=
CYQM;2005-10-09 06:00;METAR CYQM 090600Z 03013KT 10SM -RA BKN006 OVC012 09/08 A3015 RMK SF6SC2 SLP213=
CYQM;2005-10-09 06:24;SPECI CYQM 090624Z 03012KT 12SM -RA SCT006 OVC011 09/ RMK SF3SC5=
CYQM;2005-10-09 07:26;SPECI CYQM 090726Z 03007KT 10SM -RA FEW006 OVC016 09/ RMK SF2SC6=
CYQM;2005-10-09 07:46;SPECI CYQM 090746Z 04008KT 12SM FEW006 OVC017 09/ RMK SF2SC6=
CYQM;2005-10-09 08:00;METAR CYQM 090800Z 03008KT 12SM FEW006 OVC017 09/08 A3017 RMK SF2SC6 SLP217=
CYQM;2005-10-09 08:34;SPECI CYQM 090834Z 35006KT 15SM OVC012 09/ RMK SC8=
CYQM;2005-10-09 08:46;SPECI CYQM 090846Z 36011KT 15SM -SHRA OVC012 09/ RMK SC8=
CYQM;2005-10-09 08:49;SPECI CYQM 090849Z 01012KT 12SM -SHRA BKN008 OVC012 09/ RMK SF5SC3=
CYQM;2005-10-09 09:00;METAR CYQM 090900Z 36011KT 10SM -SHRA SCT006 OVC009 09/08 A3018 RMK SF3SC5 SLP222=
CYQM;2005-10-09 09:20;SPECI CYQM 090920Z 01009G15KT 10SM -SHRA SCT006 OVC011 09/ RMK SF3SC5=
CYQM;2005-10-09 10:00;METAR CYQM 091000Z 01011KT 10SM -SHRA SCT006 OVC012 09/07 A3019 RMK SF3SC5 SLP225=
CYQM;2005-10-09 11:00;METAR CYQM 091100Z 01007KT 4SM -SHRA BR BKN007 OVC012 09/08 A3019 RMK SC5SC3 SLP225=
CYQM;2005-10-09 11:22;SPECI CYQM 091122Z 01006KT 2 1/2SM -SHRA BR BKN006 OVC015 09/ RMK SF7SC1=
CYQM;2005-10-09 11:37;SPECI CYQM 091137Z 36006KT 2 1/2SM -DZ BR BKN006 OVC015 09/ RMK SF7SC1=
CYQM;2005-10-09 12:00;METAR CYQM 091200Z 36007KT 1 1/4SM -DZ BR BKN006 OVC015 09/09 A3022 RMK SF7SC1 SLP234=
CYQM;2005-10-09 12:24;SPECI CYQM 091224Z 02009KT 3SM -DZ BR BKN003 OVC012 10/ RMK SF7SC1=
CYQM;2005-10-09 13:00;METAR CYQM 091300Z 04012KT 2SM BR BKN003 OVC015 11/10 A3022 RMK SF7SC1 SLP235=
CYQM;2005-10-09 13:15;SPECI CYQM 091315Z 04011G16KT 5SM -SHRA BR BKN004 OVC020 11/ RMK SF7SC1=
CYQM;2005-10-09 13:41;SPECI CYQM 091341Z 04011KT 2SM -DZ BR FEW003 BKN005 OVC025 11/ RMK SF2SF6SC1=
CYQM;2005-10-09 14:00;METAR CYQM 091400Z 05009G15KT 1 1/4SM -DZ BR FEW003 BKN005 OVC025 11/10 A3023 RMK SF2SF6SC1 SLP240=
CYQM;2005-10-09 15:27;SPECI CYQM 091527Z 04014KT 1 1/4SM -DZ BR BKN004 OVC025 11/ RMK SF7SC1=
CYQM;2005-10-09 16:00;METAR CYQM 091600Z 04009G18KT 1 1/4SM -DZ BR OVC005 12/11 A3024 RMK SF8 SLP241=
CYQM;2005-10-09 16:21;SPECI CYQM 091621Z 04009KT 1SM R06/P6000FT/D R29/6000FT/D -DZ BR OVC004 12/ RMK SF8=
CYQM;2005-10-09 17:00;METAR CYQM 091700Z 05011KT 1 1/4SM -DZ BR OVC003 12/11 A3024 RMK SF8 SLP242=
CYQM;2005-10-09 18:00;METAR CYQM 091800Z 05009G16KT 1 1/2SM -RADZ BR BKN003 OVC025 12/11 A3024 RMK SF7SC1 SLP243=
CYQM;2005-10-09 19:00;METAR CYQM 091900Z 04011KT 1 1/2SM -DZ BR BKN004 OVC025 12/11 A3025 RMK SF7SC1 SLP247=
CYQM;2005-10-09 19:28;SPECI CYQM 091928Z 04009KT 1 1/2SM -RA BR BKN003 OVC025 12/ RMK SF7SC1=
CYQM;2005-10-09 20:00;METAR CYQM 092000Z 05010KT 3SM -RA BR BKN003 OVC025 12/11 A3025 RMK SF7SC1 SLP247=
CYQM;2005-10-09 21:00;METAR CYQM 092100Z 05011G17KT 3SM -RA BR BKN003 OVC025 11/11 A3025 RMK SF7SC1 SLP247=
CYQM;2005-10-09 21:06;SPECI CYQM 092106Z 05011KT 1 1/2SM -RA BR BKN003 OVC012 11/ RMK SF6SC2=
CYQM;2005-10-09 21:42;SPECI CYQM 092142Z 07010G15KT 4SM -RA BR BKN004 OVC012 12/ RMK SF6SC2=
CYQM;2005-10-09 22:00;METAR CYQM 092200Z 06011KT 4SM -RA BR BKN004 OVC012 11/10 A3027 RMK SF6SC2 SLP251=
CYQM;2005-10-09 22:14;SPECI CYQM 092214Z 06009KT 7SM -RA BKN006 OVC012 11/ RMK SF6SC2=
CYQM;2005-10-09 23:00;METAR CYQM 092300Z 05012KT 8SM -RA BKN006 OVC012 11/10 A3028 RMK SF6SC2 SLP255=
CYQM;2005-10-10 00:00;METAR CYQM 100000Z 05011KT 7SM -RA BKN006 OVC012 11/10 A3029 RMK SF6SC2 SLP259=
CYQM;2005-10-10 00:18;SPECI CYQM 100018Z 05012KT 8SM -RA SCT006 OVC011 11/ RMK SF3SC5=
CYQM;2005-10-10 00:44;SPECI CYQM 100044Z 05014KT 7SM -RA BKN007 OVC012 11/ RMK SF6SC2=
CYQM;2005-10-10 01:00;METAR CYQM 100100Z 05009G17KT 7SM -RA BKN007 OVC012 11/10 A3030 RMK SF6SC2 SLP261=
CYQM;2005-10-10 02:00;METAR CYQM 100200Z 06010KT 6SM RA BR BKN006 OVC012 11/10 A3029 RMK SF6SC2 SLP260=
CYQM;2005-10-10 04:00;METAR CYQM 100400Z 04010G15KT 7SM -RA BKN006 OVC012 11/10 A3029 RMK SF6SC2 SLP258=
CYQM;2005-10-10 05:00;METAR CYQM 100500Z 05010G16KT 8SM -RA BKN007 OVC012 11/10 A3028 RMK SF6SC2 SLP254=
CYQM;2005-10-10 05:16;SPECI CYQM 100516Z 06010G15KT 8SM -RA BKN004 OVC010 11/ RMK SF6SC2=
CYQM;2005-10-10 06:00;METAR CYQM 100600Z 04012KT 10SM -RA BKN004 OVC010 11/10 A3027 RMK SF6SC2 SLP252=
CYQM;2005-10-10 06:20;SPECI CYQM 100620Z 04009G16KT 10SM -DZ BKN003 OVC010 11/ RMK SF6SC2=
CYQM;2005-10-10 06:44;SPECI CYQM 100644Z 04012KT 2 1/2SM -DZ BR BKN003 OVC010 11/ RMK SF6SC2=
CYQM;2005-10-10 07:00;METAR CYQM 100700Z 05011KT 2 1/2SM -DZ BR OVC003 11/10 A3026 RMK SF8 SLP249=
CYQM;2005-10-10 07:30;SPECI CYQM 100730Z 05011KT 2SM -RADZ BR OVC003 11/ RMK SF8=
CYQM;2005-10-10 07:44;SPECI CYQM 100744Z 05010G18KT 7SM -RADZ OVC003 11/ RMK SF8=
CYQM;2005-10-10 08:24;SPECI CYQM 100824Z 04012G17KT 6SM -RADZ BR BKN003 OVC005 11/ RMK SF6SF2=
CYQM;2005-10-10 08:41;SPECI CYQM 100841Z 05012KT 2SM -DZRA BR BKN003 OVC006 11/ RMK SF6SF2=
CYQM;2005-10-10 09:00;METAR CYQM 100900Z 05013G18KT 2SM -DZRA BR BKN003 OVC005 11/10 A3025 RMK SF5SF3 SLP247=
CYQM;2005-10-10 09:45;SPECI CYQM 100945Z 05013KT 3SM -DZRA BR BKN003 OVC005 11/ RMK SF6SF2=
CYQM;2005-10-10 10:00;METAR CYQM 101000Z 05010G17KT 4SM -RADZ BR BKN003 OVC005 11/10 A3025 RMK SF6SF2 SLP246=
CYQM;2005-10-10 11:00;METAR CYQM 101100Z 05010G15KT 2 1/2SM -DZRA BR BKN003 OVC005 11/10 A3025 RMK SF6SF2 SLP246=
CYQM;2005-10-10 12:00;METAR CYQM 101200Z 04008KT 2SM -RADZ BR BKN003 OVC005 12/11 A3026 RMK SF6SF2 SLP249=
CYQM;2005-10-10 12:25;SPECI CYQM 101225Z 04010KT 2SM -RA BR BKN003 OVC005 12/ RMK SF5SF3=
CYQM;2005-10-10 12:44;SPECI CYQM 101244Z 04008KT 2SM -DZRA BR SCT003 OVC005 12/ RMK SF3SF5=
CYQM;2005-10-10 13:00;METAR CYQM 101300Z 05008KT 1 1/2SM -DZRA BR SCT003 OVC005 12/11 A3026 RMK SF3SF5 SLP249=
CYQM;2005-10-10 13:15;SPECI CYQM 101315Z 05009KT 1 1/2SM -DZ BR BKN003 OVC005 12/ RMK SF6SF2 INTMT -RA=
CYQM;2005-10-10 14:00;METAR CYQM 101400Z 05010KT 1 1/2SM -RADZ BR BKN003 OVC005 12/12 A3025 RMK SF6SF2 -RA INTMT SLP245=
CYQM;2005-10-10 14:38;SPECI CYQM 101438Z 05011KT 4SM -DZ BR BKN003 OVC005 13/ RMK SF6SF2=
CYQM;2005-10-10 14:50;SPECI CYQM 101450Z 05008KT 4SM -DZ BR FEW003 BKN005 OVC010 13/ RMK SF2SF5SF1=
CYQM;2005-10-10 15:00;METAR CYQM 101500Z 05009G15KT 4SM -DZ BR FEW003 BKN005 OVC010 13/12 A3023 RMK SF2SF4SF2 SLP240=
CYQM;2005-10-10 15:12;SPECI CYQM 101512Z 06009KT 1 3/4SM -DZ BR FEW003 BKN005 OVC010 13/ RMK SF2SF5SF1=
CYQM;2005-10-10 15:26;SPECI CYQM 101526Z 06008G15KT 1 1/4SM -RADZ BR FEW003 OVC005 13/ RMK SF2SF6=
CYQM;2005-10-10 15:53;SPECI CYQM 101553Z 06009KT 4SM -RADZ BR SCT003 OVC005 13/ RMK SF3SF5=
CYQM;2005-10-10 16:00;METAR CYQM 101600Z 05009KT 4SM -RADZ BR SCT003 OVC005 13/13 A3022 RMK SF3SF5 SLP234=
CYQM;2005-10-10 16:06;SPECI CYQM 101606Z 05011KT 1 1/4SM -DZRA BR FEW003 OVC006 13/ RMK SF2SF6 BLN VISBL TO 800 FT=
CYQM;2005-10-10 16:35;SPECI CYQM 101635Z 05009KT 1SM R29/5500FT/U R06/P6000FT/N -DZ BR FEW003 OVC006 13/ RMK SF2SF6=
CYQM;2005-10-10 17:00;METAR CYQM 101700Z 04009G16KT 1 1/4SM -RADZ BR FEW003 BKN006 OVC010 13/13 A3019 RMK SF2SF5SF2 SLP227=
CYQM;2005-10-10 17:18;SPECI CYQM 101718Z 05010G15KT 1 3/4SM -DZ BR FEW003 BKN006 OVC010 14/ RMK SF2SF5SF2 INTMT -RA=
CYQM;2005-10-10 17:33;SPECI CYQM 101733Z 05009KT 1 3/4SM -DZ BR FEW003 BKN006 OVC010 13/ RMK SF2SF6SF1=
CYQM;2005-10-10 17:40;SPECI CYQM 101740Z 06010KT 1 1/2SM -DZ BR BKN004 OVC010 14/ RMK SF6SF2=
CYQM;2005-10-10 17:50;SPECI CYQM 101750Z 05009KT 3SM -DZ BR BKN004 OVC010 14/ RMK SF6SF2=
CYQM;2005-10-10 18:00;METAR CYQM 101800Z 05010KT 3SM -DZ BR BKN004 OVC010 14/13 A3017 RMK SF6SF2 SLP220=
CYQM;2005-10-10 18:07;SPECI CYQM 101807Z 06010G16KT 1 3/4SM -DZ BR BKN004 OVC010 14/ RMK SF7SF1=
CYQM;2005-10-10 18:19;SPECI CYQM 101819Z 06010G16KT 1 1/4SM -DZ BR BKN004 OVC010 14/ RMK SF7SF1=
CYQM;2005-10-10 19:00;METAR CYQM 101900Z 06011G16KT 1SM R29/P6000FT/D R06/P6000FT/N -DZ BR BKN004 OVC008 13/13 A3016 RMK SF6SF2 SLP215=
CYQM;2005-10-10 19:25;SPECI CYQM 101925Z 05009KT 1SM R29/4500VP6000FT/U R06/P6000FT/U -DZ BR BKN003 OVC005 14/ RMK SF6SF2=
CYQM;2005-10-10 19:53;SPECI CYQM 101953Z 05009KT 3/4SM R29/P6000FT/D R06/P6000FT/D -RADZ BR BKN003 OVC005 13/ RMK SF6SF2=
CYQM;2005-10-10 20:08;SPECI CYQM 102008Z 05009KT 1 1/4SM R29/5500FT/U R06/5000FT/U -DZRA BR BKN003 OVC005 13/ RMK SF6SF2=
CYQM;2005-10-10 20:35;SPECI CYQM 102035Z 05006KT 2SM -DZ BR SCT003 OVC005 13/ RMK SF3SF5=
CYQM;2005-10-10 20:55;SPECI CYQM 102055Z 04007KT 1SM R06/P6000FT/D R29/P6000FT/D -DZ BR SCT003 OVC005 13/ RMK SF3SF5=
CYQM;2005-10-10 21:00;METAR CYQM 102100Z 05006KT 1SM R06/P6000FT/D R29/P6000FT/D -DZ BR SCT003 OVC005 13/13 A3013 RMK SF3SF5 SLP204=
CYQM;2005-10-10 22:23;SPECI CYQM 102223Z 04006KT 3SM -DZ BR SCT003 OVC006 13/ RMK SF3SF5=
CYQM;2005-10-10 23:00;METAR CYQM 102300Z 05005KT 3SM -DZ BR SCT003 OVC006 13/13 A3009 RMK SF3SF5 SLP192=
CYQM;2005-10-10 23:30;SPECI CYQM 102330Z 05004KT 1 1/2SM -DZ BR SCT003 OVC005 13/ RMK SF3SF5=
CYQM;2005-10-11 00:00;METAR CYQM 110000Z 03003KT 1 1/2SM -DZ BR BKN003 OVC005 13/13 A3008 RMK SF6SF2 SLP187=
CYQM;2005-10-11 01:00;METAR CYQM 110100Z 04004KT 1SM R06/5500FT/N R29/5500FT/N -DZ BR OVC003 13/13 A3006 RMK FG1SF7 SLP180=
CYQM;2005-10-11 01:50;SPECI CYQM 110150Z 01004KT 3/4SM R06/4000FT/D R29/3500FT/N -DZ BR OVC002 13/ RMK FG2SF6=
CYQM;2005-10-11 02:00;METAR CYQM 110200Z 01004KT 3/4SM R06/3500FT/N R29/3500FT/N -RADZ BR OVC002 13/13 A3004 RMK FG2SF6 SLP174=
CYQM;2005-10-11 02:29;SPECI CYQM 110229Z 03005KT 5/8SM R06/4500FT/N R29/3000FT/D -RADZ BR VV002 13/ RMK FG8=
CYQM;2005-10-11 02:45;SPECI CYQM 110245Z 01003KT 1SM R06/4000VP6000FT/U R29/3000V4500FT/U -RA BR OVC002 13/ RMK FG2SF6=
CYQM;2005-10-11 03:00;METAR CYQM 110300Z 35003KT 1SM R06/P6000FT/D R29/P6000FT/U -RA BR BKN002 OVC006 13/13 A3002 RMK FG1SF6SF1 SLP168=
CYQM;2005-10-11 03:15;SPECI CYQM 110315Z 34006KT 3SM -RA BR SCT002 OVC007 13/ RMK SF3SF5 VIS W 10=
CYQM;2005-10-11 04:00;METAR CYQM 110400Z 33007KT 8SM -RA FEW002 BKN007 OVC012 13/12 A3001 RMK SF2SF5SC2 SLP163=
CYQM;2005-10-11 05:27;SPECI CYQM 110527Z 32006KT 4SM -RA BR SCT002 OVC006 13/ RMK SF3SF5=
CYQM;2005-10-11 07:00;METAR CYQM 110700Z 33009KT 6SM -RA BR FEW002 OVC006 12/11 A2999 RMK SF2SF6 SLP158=
CYQM;2005-10-11 08:00;METAR CYQM 110800Z 34011KT 6SM -RA BR FEW003 BKN005 OVC009 11/10 A3000 RMK SF2SF5SF2 SLP160=
CYQM;2005-10-11 08:39;SPECI CYQM 110839Z 34010G15KT 8SM -DZ OVC004 11/ RMK SF8=
CYQM;2005-10-11 09:00;METAR CYQM 110900Z 33013KT 6SM -DZ BR OVC004 11/10 A3002 RMK SF8 SLP168=
CYQM;2005-10-11 10:00;METAR CYQM 111000Z 34010KT 5SM -DZ BR OVC004 10/10 A3004 RMK SF8 SLP173=
CYQM;2005-10-11 10:12;SPECI CYQM 111012Z 34010G15KT 3SM -DZ BR OVC005 10/ RMK SF8=
CYQM;2005-10-11 10:18;SPECI CYQM 111018Z 34009KT 2SM -DZ BR FEW003 OVC005 10/ RMK SF2SF6=
CYQM;2005-10-11 10:37;SPECI CYQM 111037Z 34010KT 3SM -DZ BR FEW003 OVC005 10/ RMK SF2SF6=
CYQM;2005-10-11 11:00;METAR CYQM 111100Z 35012KT 10SM FEW003 OVC005 10/09 A3006 RMK SF2SF6 SLP180=
CYQM;2005-10-11 12:00;METAR CYQM 111200Z 35013KT 10SM FEW003 BKN005 OVC025 10/09 A3008 RMK SF2SF6SC1 SHS W-NW SLP187=
CYQM;2005-10-11 12:17;SPECI CYQM 111217Z 35008KT 12SM -DZ FEW003 BKN005 OVC025 10/ RMK SF2SF6SC1=
CYQM;2005-10-11 12:34;SPECI CYQM 111234Z 34009KT 12SM -DZ BKN003 OVC005 10/ RMK SF6SF2=
CYQM;2005-10-11 13:00;METAR CYQM 111300Z 35010G16KT 10SM -DZ BKN003 OVC005 10/09 A3009 RMK SF6SF2 SLP192=
CYQM;2005-10-11 13:42;SPECI CYQM 111342Z 34011KT 3SM -DZ BR SCT003 OVC005 10/ RMK SF3SF5=
CYQM;2005-10-11 14:00;METAR CYQM 111400Z 34010KT 5SM -DZ BR FEW003 BKN005 OVC030 10/09 A3011 RMK SF2SF5SC2 SLP199=
CYQM;2005-10-11 15:00;METAR CYQM 111500Z 35013KT 8SM -DZ BKN006 OVC030 10/09 A3012 RMK SF7SC1 SLP203=
CYQM;2005-10-11 15:42;SPECI CYQM 111542Z 36013G19KT 12SM BKN006 OVC030 10/ RMK SF6SC2=
CYQM;2005-10-11 16:00;METAR CYQM 111600Z 35011KT 15SM BKN007 OVC030 10/09 A3014 RMK SF7SC1 SHS NW SLP208=
CYQM;2005-10-11 16:39;SPECI CYQM 111639Z 36013G18KT 12SM -DZ BKN008 OVC030 10/ RMK SF7SC1=
CYQM;2005-10-11 17:19;SPECI CYQM 111719Z 36014KT 1 3/4SM -DZ BR FEW005 BKN008 OVC030 09/ RMK SF2SF6SC1=
CYQM;2005-10-11 17:31;SPECI CYQM 111731Z 36012G21KT 4SM -DZ BR BKN007 OVC030 09/ RMK SF7SC1 VIS LWR S-W=
CYQM;2005-10-11 18:00;METAR CYQM 111800Z 36013G18KT 6SM -DZ BR BKN007 OVC030 09/08 A3017 RMK SF7SC1 SLP219=
CYQM;2005-10-11 18:29;SPECI CYQM 111829Z 34016G21KT 15SM BKN008 09/ RMK CF7=
CYQM;2005-10-11 18:42;SPECI CYQM 111842Z 35011G18KT 15SM SCT010 BKN260 09/ RMK CU4CI1=
CYQM;2005-10-11 19:00;METAR CYQM 111900Z 35014G19KT 15SM BKN015 BKN260 10/07 A3019 RMK CU6CI1 SLP227=
CYQM;2005-10-11 21:00;METAR CYQM 112100Z 01008KT 15SM FEW016 FEW120 BKN260 09/05 A3024 RMK CU1AC1CI2 SLP242=
CYQM;2005-10-11 22:00;METAR CYQM 112200Z 36006KT 15SM FEW015 FEW120 SCT260 07/04 A3026 RMK SC1AC1CI1 SLP248=
CYQM;2005-10-11 23:00;METAR CYQM 112300Z 01006KT 15SM FEW015 07/04 A3028 RMK SC1 SLP256=
CYQM;2005-10-12 00:00;METAR CYQM 120000Z 02009KT 15SM FEW260 08/05 A3031 RMK CI1 SLP267=
CYQM;2005-10-12 01:00;METAR CYQM 120100Z 03009KT 15SM FEW015 FEW260 08/06 A3034 RMK SC1CI1 SLP277=
CYQM;2005-10-12 02:00;METAR CYQM 120200Z 02010KT 15SM FEW015 FEW260 09/06 A3036 RMK SC1CI2 SLP283=
CYQM;2005-10-12 04:00;METAR CYQM 120400Z 02006KT 15SM SKC 07/04 A3039 RMK SLP293=
CYQM;2005-10-12 05:00;METAR CYQM 120500Z 01005KT 15SM SKC 06/03 A3039 RMK SLP295=
CYQM;2005-10-12 06:00;METAR CYQM 120600Z 30002KT 15SM SKC 05/03 A3041 RMK SLP300=
CYQM;2005-10-12 07:00;METAR CYQM 120700Z 35005KT 15SM SKC 05/03 A3040 RMK SLP298=
CYQM;2005-10-12 08:00;METAR CYQM 120800Z 34004KT 15SM SKC 03/02 A3042 RMK SLP304=
CYQM;2005-10-12 10:00;METAR CYQM 121000Z 34006KT 15SM FEW015 03/02 A3046 RMK CF1 SLP318=
CYQM;2005-10-12 11:00;METAR CYQM 121100Z 35006KT 15SM FEW020 04/03 A3049 RMK CF1 SLP327=
CYQM;2005-10-12 12:00;METAR CYQM 121200Z 36007KT 15SM FEW020 FEW250 07/05 A3051 RMK CU1CI1 SLP335=
CYQM;2005-10-12 13:00;METAR CYQM 121300Z 02011KT 15SM BKN020 BKN250 09/05 A3053 RMK CU5CI1 SLP341=
CYQM;2005-10-12 14:00;METAR CYQM 121400Z 03015KT 15SM SCT025 10/04 A3053 RMK CU4 SLP343=
CYQM;2005-10-12 15:00;METAR CYQM 121500Z 02019KT 15SM SCT025 10/05 A3052 RMK CU4 SLP338=
CYQM;2005-10-12 16:00;METAR CYQM 121600Z 03014G21KT 15SM SCT025 11/06 A3053 RMK CU3 SLP342=
CYQM;2005-10-12 17:00;METAR CYQM 121700Z 03017G24KT 15SM FEW025 10/04 A3053 RMK CU2 SLP342=
CYQM;2005-10-12 18:00;METAR CYQM 121800Z 05016G22KT 15SM FEW025 11/05 A3053 RMK CU2 SLP341=
CYQM;2005-10-12 19:00;METAR CYQM 121900Z 04016KT 15SM FEW025 11/05 A3052 RMK CU2 SLP338=
CYQM;2005-10-13 04:06;SPECI CYQM 130406Z 02005KT 15SM SCT250 02/ RMK CI1=
CYQM;2005-10-14 01:00;METAR CYQM 140100Z 11006KT 15SM BKN240 07/06 A3043 RMK CI5 SLP307=
CYQM;2005-10-14 02:00;METAR CYQM 140200Z 13004KT 15SM BKN240 07/06 A3043 RMK CI5 SLP306=
CYQM;2005-10-14 03:00;METAR CYQM 140300Z 00000KT 15SM BKN230 07/06 A3041 RMK CI5 SLP301=
CYQM;2005-10-14 04:00;METAR CYQM 140400Z 20003KT 15SM BKN220 06/06 A3040 RMK CI6 SLP296=
CYQM;2005-10-14 05:00;METAR CYQM 140500Z 18003KT 15SM BKN210 05/05 A3039 RMK CI6 VIS NW QUAD 5 SLP293=
CYQM;2005-10-14 05:30;SPECI CYQM 140530Z 20002KT 2SM BR BKN210 06/ RMK CI6=
CYQM;2005-10-14 06:00;METAR CYQM 140600Z 00000KT 1 1/2SM BR BKN250 05/05 A3038 RMK FG2CI3 VIS SE - W 5 SLP289=
CYQM;2005-10-14 06:09;SPECI CYQM 140609Z 00000KT 7SM BKN250 05/ RMK CI5 VIS N - NE 11/2=
CYQM;2005-10-14 06:27;SPECI CYQM 140627Z 27002KT 8SM R06/P6000FT/N R29/3000V5000FT/D BKN250 05/ RMK CI5 VIS N - NE 11/2=
CYQM;2005-10-14 09:00;METAR CYQM 140900Z 06004KT 15SM BKN210 06/05 A3034 RMK CI6 SLP277=
CYQM;2005-10-14 10:00;METAR CYQM 141000Z 08004KT 15SM FEW030 SCT100 BKN240 07/06 A3033 RMK SC2AC2CI2 SLP274=
CYQM;2005-10-14 11:00;METAR CYQM 141100Z 10002KT 15SM SCT030 BKN100 BKN240 08/07 A3033 RMK SC3AC2CI2 SLP275=
CYQM;2005-10-14 12:00;METAR CYQM 141200Z 09003KT 15SM FEW030 BKN100 BKN240 07/07 A3033 RMK SC2AC3CI1 SLP273=
CYQM;2005-10-14 13:00;METAR CYQM 141300Z 04002KT 15SM FEW030 BKN100 BKN240 09/08 A3033 RMK SC2AC3CI1 SLP274=
CYQM;2005-10-14 14:00;METAR CYQM 141400Z 10004KT 15SM FEW030 BKN100 BKN210 OVC240 11/08 A3032 RMK SC2AC3CS2CI1 SLP270=
CYQM;2005-10-14 15:00;METAR CYQM 141500Z 11002KT 15SM FEW012 FEW030 BKN100 OVC240 12/09 A3030 RMK CF1SC1AC4CI2 SLP265=
CYQM;2005-10-14 16:00;METAR CYQM 141600Z 08006KT 15SM FEW015 FEW030 BKN100 BKN260 13/09 A3028 RMK CU1SC1AC3CI2 SLP256=
CYQM;2005-10-14 17:00;METAR CYQM 141700Z 08007KT 15SM FEW020 SCT030 BKN100 OVC260 14/09 A3024 RMK CU1SC3AC2CI2 SLP244=
CYQM;2005-10-14 18:00;METAR CYQM 141800Z 13006KT 15SM FEW015 BKN030 BKN100 OVC260 14/09 A3022 RMK CU1SC4AC2CI1 SLP237=
CYQM;2005-10-14 20:00;METAR CYQM 142000Z 11004KT 15SM FEW015 FEW030 BKN100 BKN260 14/09 A3019 RMK CF1SC2AC3CI2 SLP225=
CYQM;2005-10-14 21:00;METAR CYQM 142100Z 10006KT 15SM FEW030 BKN100 13/10 A3019 RMK SC2AC5 SLP224=
CYQM;2005-10-14 22:00;METAR CYQM 142200Z 08005KT 15SM BKN030 OVC100 12/10 A3018 RMK SC7AC1 SLP222=
CYQM;2005-10-14 23:00;METAR CYQM 142300Z 08006KT 15SM FEW030 OVC040 12/10 A3017 RMK SC2SC6 SLP220=
CYQM;2005-10-15 00:00;METAR CYQM 150000Z 08004KT 15SM OVC038 12/10 A3016 RMK SC8 SLP215=
CYQM;2005-10-15 02:00;METAR CYQM 150200Z 13005KT 15SM OVC035 12/10 A3012 RMK SC8 SLP202=
CYQM;2005-10-15 03:00;METAR CYQM 150300Z 15005KT 15SM OVC035 12/10 A3011 RMK SC8 SLP199=
CYQM;2005-10-15 04:00;METAR CYQM 150400Z 13007KT 15SM OVC035 11/10 A3009 RMK SC8 SLP191=
CYQM;2005-10-15 05:00;METAR CYQM 150500Z 12005KT 15SM FEW035 BKN130 11/10 A3006 RMK SC2AC6 SLP182=
CYQM;2005-10-15 06:00;METAR CYQM 150600Z 11007KT 15SM FEW080 BKN130 10/10 A3002 RMK AC2AC6 SLP168=
CYQM;2005-10-15 06:18;SPECI CYQM 150618Z 10004KT 15SM FEW008 SCT050 OVC120 10/ RMK SF1SC2AC5=
CYQM;2005-10-15 07:00;METAR CYQM 150700Z 09005KT 15SM FEW008 FEW050 OVC120 10/10 A3000 RMK SF1SC2AC6 SLP162=
CYQM;2005-10-15 09:00;METAR CYQM 150900Z 10010KT 15SM BKN050 10/10 A2996 RMK SC7 SLP148=
CYQM;2005-10-15 10:00;METAR CYQM 151000Z 08005KT 15SM BKN050 10/10 A2995 RMK SC7 SLP142=
CYQM;2005-10-15 11:00;METAR CYQM 151100Z 09007KT 12SM FEW012 BKN040 OVC100 10/10 A2993 RMK SF1SC5AC2 SLP137=
CYQM;2005-10-15 12:00;METAR CYQM 151200Z 09007KT 12SM FEW012 BKN040 OVC100 11/11 A2991 RMK SF1SC6AC2 SLP131=
CYQM;2005-10-15 13:00;METAR CYQM 151300Z 09005KT 12SM SCT012 BKN040 OVC100 12/11 A2989 RMK SF3SC4AC1 SLP123=
CYQM;2005-10-15 13:26;SPECI CYQM 151326Z 10009KT 12SM BKN008 BKN040 OVC100 12/ RMK SF5SC2AC1=
CYQM;2005-10-15 14:00;METAR CYQM 151400Z 09010G16KT 15SM BKN009 BKN030 OVC100 13/11 A2985 RMK SF5SC2AC1 SLP110=
CYQM;2005-10-15 15:00;METAR CYQM 151500Z 09012KT 15SM BKN009 BKN030 OVC100 13/11 A2981 RMK SF5SC2AC1 SLP097=
CYQM;2005-10-15 16:00;METAR CYQM 151600Z 08018KT 15SM SCT008 BKN025 OVC100 13/11 A2975 RMK SF4SC2AC2 PRESFR SLP076=
CYQM;2005-10-15 17:00;METAR CYQM 151700Z 08018KT 15SM SCT008 BKN030 OVC100 13/11 A2970 RMK SF4SC3AC1 SLP061=
CYQM;2005-10-15 17:21;SPECI CYQM 151721Z 08016KT 15SM SCT008 BKN012 OVC030 13/ RMK SF3SC2SC3=
CYQM;2005-10-15 17:56;SPECI CYQM 151756Z 08014KT 12SM -SHRA FEW008 BKN012 OVC030 13/ RMK SF2SC5SC2=
CYQM;2005-10-15 18:00;METAR CYQM 151800Z 07016KT 12SM -SHRA FEW008 BKN012 OVC030 13/11 A2965 RMK SF2SC5SC2 SLP042=
CYQM;2005-10-15 18:51;SPECI CYQM 151851Z 07012G19KT 15SM OVC010 13/ RMK SC8=
CYQM;2005-10-15 19:00;METAR CYQM 151900Z 07015G20KT 15SM OVC010 13/11 A2961 RMK SC8 SLP029=
CYQM;2005-10-15 19:30;SPECI CYQM 151930Z 08017G26KT 12SM -SHRA OVC012 13/ RMK SC8=
CYQM;2005-10-15 20:18;SPECI CYQM 152018Z 08014G25KT 12SM -SHRA BKN009 OVC030 13/ RMK SF7SC1 PRESFR BLN ESTD=
CYQM;2005-10-15 21:00;METAR CYQM 152100Z 08019G28KT 15SM -SHRA BKN009 OVC030 13/11 A2951 RMK SF7SC1 BLN ESTD SLP995=
CYQM;2005-10-15 22:00;METAR CYQM 152200Z 07018KT 8SM -RA OVC007 12/11 A2948 RMK SF8 SLP984=
CYQM;2005-10-15 23:00;METAR CYQM 152300Z 07018G24KT 8SM -RA BKN008 OVC016 12/11 A2941 RMK SF6SC2 PRESFR SLP961=
CYQM;2005-10-16 00:00;METAR CYQM 160000Z 08018G27KT 5SM -RA BR BKN007 OVC012 12/11 A2937 RMK SF7SC1 SLP946=
CYQM;2005-10-16 01:00;METAR CYQM 160100Z 05012G19KT 4SM -RA BR OVC006 12/12 A2929 RMK SF8 PRESFR SLP920=
CYQM;2005-10-16 02:00;METAR CYQM 160200Z 06013G22KT 6SM -RA BR BKN007 OVC010 12/12 A2922 RMK SF7SF1 PRESFR SLP896=
CYQM;2005-10-16 02:22;SPECI CYQM 160222Z 07018G25KT 2 1/2SM -RA BR OVC006 13/ RMK SF8 PRESFR=
CYQM;2005-10-16 02:36;SPECI CYQM 160236Z 07015G25KT 4SM -TSRA BR BKN006 OVC012 13/ RMK SF6SC2 LTGIC CB EMBD NW=
CYQM;2005-10-16 02:48;SPECI CYQM 160248Z 07017G25KT 2 1/2SM -TSRA BR BKN006 OVC010 13/ RMK SF7SF1 CB EMBD PRESFR=
CYQM;2005-10-16 02:54;SPECI CYQM 160254Z 07010G22KT 3SM -RA BR BKN006 OVC010 13/ RETS RMK SF6SF2 CB EMBD PRESFR=
CYQM;2005-10-16 03:00;METAR CYQM 160300Z 06008G21KT 3SM -RA BR BKN006 OVC010 13/12 A2917 RETS RMK SF6SF2 PRESFR PST HR SLP880=
CYQM;2005-10-16 03:04;SPECI CYQM 160304Z 26015G21KT 3SM -RA BR BKN004 OVC010 13/ RMK SF7SF1 WND SHFT 0302Z=
CYQM;2005-10-16 03:08;SPECI CYQM 160308Z 27014KT 1 1/4SM TSRA BR OVC004 13/ RMK SF8 CB EMBD LTGIC PRESRR=
CYQM;2005-10-16 03:16;SPECI CYQM 160316Z 04011G18KT 1 1/2SM R29/3500VP6000FT/D R06/3000VP6000FT/U TSRA BR OVC005 13/ RERA RMK SF8 CB EMBD PRESFR=
CYQM;2005-10-16 03:35;SPECI CYQM 160335Z 05016G21KT 7SM SHRA BKN006 OVC030 13/ RETSRA RMK SF6SC2 PRESFR=
CYQM;2005-10-16 03:45;SPECI CYQM 160345Z 05010G22KT 12SM -SHRA FEW006 BKN040 13/ RETSRA RMK SF2SC5=
CYQM;2005-10-16 04:00;METAR CYQM 160400Z 05012G17KT 15SM -SHRA FEW003 BKN009 OVC040 13/12 A2907 RETSRA RMK SF2SF2SC3 /R16/ PRESFR PST HR SLP847=
CYQM;2005-10-16 04:52;SPECI CYQM 160452Z 06010G16KT 3SM -RADZ BR OVC005 13/ RMK SF8=
CYQM;2005-10-16 05:00;METAR CYQM 160500Z 06009G19KT 3SM -RADZ BR OVC005 13/13 A2900 RMK SF8 PRESFR SLP823=
CYQM;2005-10-16 05:15;SPECI CYQM 160515Z 07009G17KT 2SM -DZRA BR OVC005 13/ RMK SF8 PRESFR=
CYQM;2005-10-16 05:54;SPECI CYQM 160554Z 08012G17KT 3SM -DZ BR OVC003 13/ RMK ST8 PRESFR=
CYQM;2005-10-16 06:00;METAR CYQM 160600Z 08016KT 3SM -DZ BR OVC003 13/13 A2893 RMK ST8 PRESFR SLP798=
CYQM;2005-10-16 07:00;METAR CYQM 160700Z 09018KT 5SM -DZ BR OVC002 14/14 A2886 RMK ST8 PRESFR SLP773=
CYQM;2005-10-16 07:48;SPECI CYQM 160748Z 09018KT 5SM -RADZ BR BKN002 OVC005 14/ RMK SF6ST2 PRESFR=
CYQM;2005-10-16 08:00;METAR CYQM 160800Z 09015G22KT 6SM -RADZ BR BKN002 OVC005 14/14 A2880 RMK SF7ST1 PRESFR SLP753=
CYQM;2005-10-16 08:23;SPECI CYQM 160823Z 10015G21KT 2SM -RADZ BR OVC002 15/ RMK SF8=
CYQM;2005-10-16 08:41;SPECI CYQM 160841Z 13013G18KT 8SM -RADZ BKN002 BKN006 OVC015 15/ RMK SF5SF2SC1=
CYQM;2005-10-16 09:16;SPECI CYQM 160916Z 17023G30KT 15SM FEW002 FEW008 BKN020 15/ RMK SF1SF2SC2=
CYQM;2005-10-16 10:00;METAR CYQM 161000Z 16020G28KT 15SM SCT008 BKN020 13/12 A2878 RMK SF4SC2 SLP747=
CYQM;2005-10-16 10:44;SPECI CYQM 161044Z 16019G27KT 15SM BKN008 BKN020 12/ RMK SF6SC2=
CYQM;2005-10-16 11:00;METAR CYQM 161100Z 15019G25KT 15SM SCT008 BKN020 12/11 A2879 RMK SF3SC4 SLP749=
CYQM;2005-10-16 12:00;METAR CYQM 161200Z 16018G25KT 15SM SCT008 BKN020 BKN120 12/10 A2879 RMK SF3SC4AC1 SLP750=
CYQM;2005-10-16 13:00;METAR CYQM 161300Z 18016G25KT 15SM FEW008 BKN012 BKN020 13/10 A2880 RMK SF1SC6SC1 SLP754=
CYQM;2005-10-16 13:22;SPECI CYQM 161322Z 19017G27KT 15SM -SHRA FEW008 BKN012 BKN020 12/ RMK SF1SC6SC1=
CYQM;2005-10-16 13:40;SPECI CYQM 161340Z 19017G26KT 15SM FEW008 BKN012 BKN020 13/ RMK SF1SC6SC1=
CYQM;2005-10-16 14:00;METAR CYQM 161400Z 19021G28KT 15SM VCSH FEW008 BKN012 BKN120 12/09 A2881 RMK SF1SC6AC1 TR AC SLP758=
CYQM;2005-10-16 14:10;SPECI CYQM 161410Z 18020G25KT 15SM -SHRA FEW008 BKN012 BKN120 12/ RMK SF1SC6AC1 TR AC=
CYQM;2005-10-16 15:00;METAR CYQM 161500Z 18020G25KT 12SM FEW008 BKN012 12/09 A2882 RMK SF2SC6 SLP762=
CYQM;2005-10-16 15:06;SPECI CYQM 161506Z 18018G25KT 12SM -SHRA FEW008 BKN012 12/ RMK SF2SC6=
CYQM;2005-10-16 15:30;SPECI CYQM 161530Z 19018G25KT 15SM VCSH FEW008 BKN012 12/ RMK SF1SC6=
CYQM;2005-10-16 16:00;METAR CYQM 161600Z 17027G33KT 15SM FEW008 BKN012 12/08 A2882 RMK SF1SC6 SLP760=
CYQM;2005-10-16 17:00;METAR CYQM 161700Z 18025G30KT 15SM BKN012 BKN025 11/08 A2882 RMK SC5SC2 SLP761=
CYQM;2005-10-16 17:10;SPECI CYQM 161710Z 19019G31KT 15SM -SHRA BKN012 BKN025 11/ RMK SC5SC2=
CYQM;2005-10-16 17:37;SPECI CYQM 161737Z 18014G22KT 15SM BKN012 BKN025 11/ RMK SC5SC2=
CYQM;2005-10-16 17:49;SPECI CYQM 161749Z 19015G20KT 15SM FEW012 SCT025 BKN100 BKN260 11/ RMK CU2SC2AC2CI1=
CYQM;2005-10-16 18:05;SPECI CYQM 161805Z 19018G27KT 15SM -SHRA SCT012 BKN025 BKN100 BKN260 11/ RMK CU3SC2AC1CI1=
CYQM;2005-10-16 18:35;SPECI CYQM 161835Z 18015G24KT 15SM SCT012 BKN025 BKN100 11/ RMK SC4SC2AC2 CU ASOCTD=
CYQM;2005-10-16 18:42;SPECI CYQM 161842Z 18016G21KT 15SM BKN012 BKN025 11/ RMK SC6SC1=
CYQM;2005-10-16 20:17;SPECI CYQM 162017Z 18010G20KT 15SM BKN012 OVC090 10/ RMK SC7AC1 SHS W-N=
CYQM;2005-10-16 20:36;SPECI CYQM 162036Z 17015KT 15SM -SHRA BKN012 OVC040 09/ RMK SC7SC1=
CYQM;2005-10-16 21:00;METAR CYQM 162100Z 18012G19KT 15SM -SHRA SCT012 BKN120 09/07 A2884 RMK SC4AC3 SLP766=
CYQM;2005-10-16 21:28;SPECI CYQM 162128Z 20015G22KT 15SM -SHRA BKN012 OVC120 09/ RMK SC6AC2=
CYQM;2005-10-16 21:53;SPECI CYQM 162153Z 20013G18KT 15SM -SHRA SCT012 BKN030 OVC120 09/ RMK SC3SC2AC2=
CYQM;2005-10-16 22:00;METAR CYQM 162200Z 19012G17KT 15SM -SHRA SCT012 BKN030 OVC120 09/06 A2886 RMK SC3SC3AC2 SLP773=
CYQM;2005-10-16 22:18;SPECI CYQM 162218Z 18011KT 15SM FEW012 BKN050 OVC120 08/ RMK SC2SC4AC2 SHS W-NW=
CYQM;2005-10-16 23:00;METAR CYQM 162300Z 17009KT 15SM BKN020 OVC050 08/06 A2887 RMK SC6SC2 SLP776=
CYQM;2005-10-17 00:00;METAR CYQM 170000Z 19014KT 15SM SCT020 BKN050 08/06 A2888 RMK SC3SC4 SHS W SLP781=
CYQM;2005-10-17 01:00;METAR CYQM 170100Z 17008KT 15SM OVC022 08/05 A2888 RMK SC8 SLP782=
CYQM;2005-10-17 01:30;SPECI CYQM 170130Z 16007KT 15SM -SHRA OVC019 08/ RMK SC8=
CYQM;2005-10-17 02:00;METAR CYQM 170200Z 17007KT 12SM -SHRA BKN017 OVC140 07/06 A2889 RMK SC6AS2 SLP784=
CYQM;2005-10-17 03:00;METAR CYQM 170300Z 16008KT 15SM -RA BKN020 OVC120 07/06 A2889 RMK SC5AS3 SLP786=
CYQM;2005-10-17 04:00;METAR CYQM 170400Z 17008KT 12SM -RA OVC017 07/06 A2890 RMK SC8 SLP788=
CYQM;2005-10-17 05:00;METAR CYQM 170500Z 18007KT 10SM -RA OVC015 07/06 A2891 RMK SC8 SLP793=
CYQM;2005-10-17 05:21;SPECI CYQM 170521Z 18009KT 8SM -RA OVC013 07/ RMK SC8=
CYQM;2005-10-17 06:00;METAR CYQM 170600Z 19008KT 6SM -RA BR OVC011 07/06 A2892 RMK SC8 SLP795=
CYQM;2005-10-17 06:18;SPECI CYQM 170618Z 19009KT 5SM -RADZ BR BKN006 OVC010 07/ RMK SF6SF2=
CYQM;2005-10-17 07:13;SPECI CYQM 170713Z 21008KT 6SM -DZ BR OVC006 07/ RMK SF8=
CYQM;2005-10-17 08:00;METAR CYQM 170800Z 21010KT 5SM -DZ BR OVC006 07/07 A2894 RMK SF8 SLP803=
CYQM;2005-10-17 08:47;SPECI CYQM 170847Z 23012KT 5SM -DZ BR BKN002 BKN004 OVC006 07/ RMK SF5SF2SF2=
CYQM;2005-10-17 09:00;METAR CYQM 170900Z 23010KT 8SM SCT003 OVC005 07/07 A2897 RMK SF4SF4 SLP811=
CYQM;2005-10-17 09:15;SPECI CYQM 170915Z 24011KT 8SM BKN003 OVC005 07/ RMK SF5SF3=
CYQM;2005-10-17 09:43;SPECI CYQM 170943Z 25011KT 8SM OVC005 07/ RMK SF8=
CYQM;2005-10-17 10:00;METAR CYQM 171000Z 25011G16KT 8SM -DZ OVC004 07/06 A2898 RMK SF8 SLP817=
CYQM;2005-10-17 10:30;SPECI CYQM 171030Z 25011KT 7SM -DZ BKN005 OVC015 07/ RMK SF7SC1=
CYQM;2005-10-17 11:00;METAR CYQM 171100Z 25011KT 10SM -SHRA BKN005 OVC015 07/06 A2901 RMK SF7SC1 SLP827=
CYQM;2005-10-17 12:00;METAR CYQM 171200Z 23012KT 7SM -SHRA BKN004 OVC025 07/07 A2904 RMK SF6SC2 SLP834=
CYQM;2005-10-17 12:36;SPECI CYQM 171236Z 23012KT 2SM -SHRA BR OVC005 08/ RMK SF8=
CYQM;2005-10-17 13:00;METAR CYQM 171300Z 24010KT 1 1/2SM -DZ BR BKN005 OVC025 08/08 A2906 RMK SF7SC1 SLP841=
CYQM;2005-10-17 13:04;SPECI CYQM 171304Z 25012KT 2 1/2SM -SHRA BR BKN005 OVC025 08/ RMK SF7SC1=
CYQM;2005-10-17 13:38;SPECI CYQM 171338Z 26011G16KT 1 1/4SM -DZ BR BKN006 OVC020 08/ RMK SF7SC1=
CYQM;2005-10-17 14:14;SPECI CYQM 171414Z 27012KT 1 1/4SM R06/4000VP6000FT/D R29/P6000FT/N -RADZ BR OVC005 09/ RMK SF8=
CYQM;2005-10-17 14:27;SPECI CYQM 171427Z 28008KT 10SM R06/P6000FT/N R29/4000VP6000FT/D -RADZ BKN006 OVC030 09/ RMK SF6SC2=
CYQM;2005-10-17 15:00;METAR CYQM 171500Z 27013G18KT 12SM -SHRA BKN008 10/08 A2910 RMK CU7 TCU ASOCTD SLP856=
CYQM;2005-10-17 16:00;METAR CYQM 171600Z 26013KT 15SM -SHRA BKN015 OVC070 10/08 A2912 RMK SC7AC1 SLP862=
CYQM;2005-10-17 16:35;SPECI CYQM 171635Z 25016KT 1 1/2SM -SHRA BR OVC011 10/ RMK SC8=
CYQM;2005-10-17 17:00;METAR CYQM 171700Z 25013G20KT 4SM BR BKN006 OVC040 09/09 A2914 RMK SF7SC1 SLP869=
CYQM;2005-10-17 17:33;SPECI CYQM 171733Z 25012G21KT 2SM -SHRA BR BKN005 OVC040 10/ RMK SF7SC1=
CYQM;2005-10-17 18:00;METAR CYQM 171800Z 25015KT 5SM BR BKN006 OVC040 10/09 A2916 RMK SC7SC1 SLP876=
CYQM;2005-10-17 19:00;METAR CYQM 171900Z 25017KT 12SM BKN005 BKN040 10/08 A2918 RMK CF5SC2 SLP884=
CYQM;2005-10-17 20:00;METAR CYQM 172000Z 25013G19KT 15SM -SHRA BKN008 10/08 A2921 RMK SC7 SLP892=
CYQM;2005-10-17 20:20;SPECI CYQM 172020Z 25012G21KT 15SM BKN008 BKN035 10/ RMK SC6SC2=
CYQM;2005-10-17 21:00;METAR CYQM 172100Z 24009G16KT 15SM FEW008 BKN030 09/08 A2924 RMK CF1SC6 SLP903=
CYQM;2005-10-17 22:47;SPECI CYQM 172247Z 24008KT 12SM -DZ FEW008 BKN030 09/ RMK SF2SC6=
CYQM;2005-10-17 23:00;METAR CYQM 172300Z 25008KT 15SM FEW008 OVC030 09/08 A2929 RMK SF2SC6 SLP921=
CYQM;2005-10-18 00:00;METAR CYQM 180000Z 27011KT 15SM OVC023 09/07 A2931 RMK SC8 SLP929=
CYQM;2005-10-18 02:00;METAR CYQM 180200Z 25011G16KT 15SM FEW025 08/07 A2934 RMK SC2 SLP939=
CYQM;2005-10-18 04:00;METAR CYQM 180400Z 25010KT 15SM FEW120 SCT250 07/06 A2936 RMK AC2CI1 SLP944=
CYQM;2005-10-18 05:00;METAR CYQM 180500Z 24009KT 15SM BKN080 07/06 A2937 RMK AC6 SLP947=
CYQM;2005-10-18 06:00;METAR CYQM 180600Z 22007KT 15SM FEW050 BKN080 BKN120 07/06 A2938 RMK SC2AC4AC2 SLP950=
CYQM;2005-10-18 07:00;METAR CYQM 180700Z 21006KT 15SM FEW050 BKN090 07/06 A2938 RMK SC2AC6 SLP950=
CYQM;2005-10-18 08:00;METAR CYQM 180800Z 22009KT 15SM FEW008 BKN070 07/07 A2939 RMK CF1AC6 SLP954=
CYQM;2005-10-18 09:00;METAR CYQM 180900Z 22009KT 15SM BKN037 08/07 A2940 RMK SC7 SLP956=
CYQM;2005-10-18 10:00;METAR CYQM 181000Z 22007KT 15SM FEW050 BKN080 BKN200 07/07 A2940 RMK SC2AC3CI2 SLP958=
CYQM;2005-10-18 11:06;SPECI CYQM 181106Z 22007KT 15SM SCT005 BKN050 BKN100 08/ RMK SF4SC2AC1=
CYQM;2005-10-18 11:40;SPECI CYQM 181140Z 22008KT 15SM BKN007 BKN045 BKN095 08/ RMK SF6SC1AC1=
CYQM;2005-10-18 12:29;SPECI CYQM 181229Z 22012KT 15SM FEW010 FEW045 SCT080 BKN250 09/ RMK SC2SC1AC2CI1=
CYQM;2005-10-18 12:43;SPECI CYQM 181243Z 23012G17KT 15SM BKN011 BKN050 09/ RMK SC6SC1=
CYQM;2005-10-18 13:00;METAR CYQM 181300Z 23011KT 15SM BKN011 09/07 A2944 RMK SC7 SLP970=
CYQM;2005-10-18 15:00;METAR CYQM 181500Z 23016KT 15SM BKN015 BKN030 10/07 A2942 RMK CU6SC1 SLP965=
CYQM;2005-10-18 16:00;METAR CYQM 181600Z 23016KT 15SM SCT015 BKN032 11/07 A2941 RMK CU3SC4 SLP960=
CYQM;2005-10-18 17:00;METAR CYQM 181700Z 26016G22KT 15SM BKN017 BKN035 11/06 A2940 RMK SC6SC1 SLP958=
CYQM;2005-10-18 18:00;METAR CYQM 181800Z 23010KT 15SM BKN020 OVC035 11/06 A2940 RMK SC6SC2 SLP958=
CYQM;2005-10-18 19:00;METAR CYQM 181900Z 23011KT 15SM OVC020 11/06 A2940 RMK SC8 SLP958=
CYQM;2005-10-18 20:00;METAR CYQM 182000Z 23015KT 15SM OVC025 11/05 A2940 RMK SC8 SLP959=
CYQM;2005-10-18 21:00;METAR CYQM 182100Z 23013KT 15SM BKN025 BKN080 BKN200 10/06 A2942 RMK SC5AC2CI1 SLP964=
CYQM;2005-10-18 22:00;METAR CYQM 182200Z 22008KT 15SM SCT025 BKN080 BKN120 09/05 A2943 RMK SC3AC2AC2 SLP967=
CYQM;2005-10-18 23:00;METAR CYQM 182300Z 21007KT 15SM OVC038 09/06 A2943 RMK SC8 SLP967=
CYQM;2005-10-19 00:00;METAR CYQM 190000Z 22009KT 15SM OVC040 09/06 A2944 RMK SC8 SLP972=
CYQM;2005-10-19 01:00;METAR CYQM 190100Z 22008KT 15SM OVC040 09/06 A2945 RMK SC8 SLP974=
CYQM;2005-10-19 02:00;METAR CYQM 190200Z 23008KT 15SM OVC044 08/06 A2946 RMK SC8 SLP977=
CYQM;2005-10-19 03:00;METAR CYQM 190300Z 23009KT 15SM OVC044 08/06 A2946 RMK SC8 SLP978=
CYQM;2005-10-19 04:00;METAR CYQM 190400Z 22008KT 15SM BKN038 BKN070 08/06 A2946 RMK SC6AC1 SLP978=
CYQM;2005-10-19 05:00;METAR CYQM 190500Z 23010KT 15SM BKN038 BKN070 08/06 A2947 RMK SC6AC1 SLP981=
CYQM;2005-10-19 06:00;METAR CYQM 190600Z 23010KT 15SM SCT040 BKN070 08/06 A2949 RMK SC3AC2 SLP987=
CYQM;2005-10-19 07:00;METAR CYQM 190700Z 24009KT 15SM SCT040 BKN070 07/06 A2950 RMK SC3AC3 SLP991=
CYQM;2005-10-19 09:00;METAR CYQM 190900Z 23009KT 15SM FEW040 FEW070 05/05 A2953 RMK SC2AC1 SLP004=
CYQM;2005-10-19 10:00;METAR CYQM 191000Z 24011KT 15SM BKN050 BKN070 06/05 A2956 RMK SC6AC1 SLP012=
CYQM;2005-10-19 11:00;METAR CYQM 191100Z 24009KT 15SM FEW050 FEW250 06/04 A2957 RMK SC2CI1 SLP017=
CYQM;2005-10-19 12:00;METAR CYQM 191200Z 25011KT 15SM FEW050 FEW070 07/05 A2960 RMK SC1AC1 SLP026=
CYQM;2005-10-19 13:00;METAR CYQM 191300Z 26011G17KT 15SM BKN050 09/06 A2961 RMK SC6 SLP030=
CYQM;2005-10-19 14:00;METAR CYQM 191400Z 25014KT 15SM FEW030 BKN050 09/06 A2963 RMK CU1SC6 SLP035=
CYQM;2005-10-19 15:00;METAR CYQM 191500Z 24010G15KT 15SM FEW030 BKN050 11/06 A2963 RMK CU2SC5 SLP037=
CYQM;2005-10-19 16:00;METAR CYQM 191600Z 25016KT 15SM BKN035 12/04 A2962 RMK SC7 CU ASOCTD SLP033=
CYQM;2005-10-19 17:00;METAR CYQM 191700Z 26015G21KT 15SM BKN035 12/04 A2962 RMK SC7 SLP033=
CYQM;2005-10-19 18:00;METAR CYQM 191800Z 23013KT 15SM BKN035 12/05 A2962 RMK SC7 SLP031=
CYQM;2005-10-19 19:00;METAR CYQM 191900Z 25016KT 15SM FEW030 BKN040 12/04 A2962 RMK CU1SC6 SLP031=
CYQM;2005-10-19 20:00;METAR CYQM 192000Z 24014KT 15SM FEW030 BKN045 12/05 A2962 RMK CU1SC7 SLP031=
CYQM;2005-10-19 21:00;METAR CYQM 192100Z 25009KT 15SM BKN040 BKN260 11/05 A2963 RMK SC6CI1 SLP035=
CYQM;2005-10-19 22:00;METAR CYQM 192200Z 20003KT 15SM BKN040 BKN260 10/05 A2964 RMK SC5CI1 SLP038=
CYQM;2005-10-20 00:00;METAR CYQM 200000Z 18007KT 15SM OVC050 09/07 A2963 RMK SC8 SLP035=
CYQM;2005-10-20 01:00;METAR CYQM 200100Z 20007KT 15SM OVC050 10/06 A2962 RMK SC8 SLP033=
CYQM;2005-10-20 01:28;SPECI CYQM 200128Z 20007KT 15SM -SHRA OVC050 10/ RMK SC8=
CYQM;2005-10-20 02:00;METAR CYQM 200200Z 19005KT 12SM -SHRA OVC050 09/07 A2961 RMK SC8 SLP029=
CYQM;2005-10-20 04:00;METAR CYQM 200400Z 16007KT 15SM -SHRA OVC050 09/08 A2955 RMK SC8 SLP010=
CYQM;2005-10-20 05:53;SPECI CYQM 200553Z 15008KT 15SM BKN017 OVC040 10/ RMK SC5SC3=
CYQM;2005-10-20 06:00;METAR CYQM 200600Z 16008KT 15SM BKN017 OVC040 10/09 A2948 RMK SC5SC3 SLP985=
CYQM;2005-10-20 08:00;METAR CYQM 200800Z 17010KT 15SM FEW012 OVC026 10/09 A2941 RMK SF1SC7 SLP962=
CYQM;2005-10-20 09:00;METAR CYQM 200900Z 23021G28KT 15SM BKN021 OVC040 11/09 A2942 RMK SC6SC2 SLP963=
CYQM;2005-10-20 10:00;METAR CYQM 201000Z 25025G31KT 15SM BKN023 09/06 A2945 RMK SC6 PRESRR SLP974=
CYQM;2005-10-20 11:00;METAR CYQM 201100Z 26025G33KT 15SM SCT020 07/04 A2948 RMK CF3 SLP985=
CYQM;2005-10-20 12:00;METAR CYQM 201200Z 26023G33KT 15SM FEW020 FEW120 07/04 A2951 RMK CF2AC1 SLP995=
CYQM;2005-10-20 13:00;METAR CYQM 201300Z 27025G32KT 15SM BKN022 07/03 A2953 RMK CU6 SLP003=
CYQM;2005-10-20 14:00;METAR CYQM 201400Z 26023G32KT 15SM BKN025 08/03 A2955 RMK CU6 SLP008=
CYQM;2005-10-20 16:00;METAR CYQM 201600Z 26023G30KT 15SM BKN027 09/02 A2958 RMK CU7 SLP018=
CYQM;2005-10-20 17:00;METAR CYQM 201700Z 26021G28KT 15SM BKN030 09/02 A2958 RMK SC7 SLP019=
CYQM;2005-10-20 18:00;METAR CYQM 201800Z 26017G28KT 15SM OVC030 08/02 A2960 RMK SC8 SLP026=
CYQM;2005-10-20 19:00;METAR CYQM 201900Z 27018G30KT 15SM OVC028 09/01 A2962 RMK SC8 SHS SW SLP033=
CYQM;2005-10-20 20:00;METAR CYQM 202000Z 27014G24KT 15SM BKN028 09/01 A2963 RMK SC7 SHS DIST S-NW SLP037=
CYQM;2005-10-20 21:00;METAR CYQM 202100Z 27016G22KT 15SM FEW025 BKN030 08/01 A2967 RMK CF1SC7 VIRGA W SLP049=
CYQM;2005-10-20 22:00;METAR CYQM 202200Z 25014KT 15SM SCT030 06/00 A2969 RMK SC3 SLP056=
CYQM;2005-10-20 23:00;METAR CYQM 202300Z 25014KT 15SM FEW030 05/M00 A2971 RMK SC1 SLP062=
CYQM;2005-10-21 00:00;METAR CYQM 210000Z 25012KT 15SM FEW030 05/M00 A2973 RMK SC1 SLP072=
CYQM;2005-10-21 01:00;METAR CYQM 210100Z 24015KT 15SM FEW030 04/M01 A2975 RMK SC1 SLP078=
CYQM;2005-10-21 03:00;METAR CYQM 210300Z 24014G19KT 15SM FEW030 04/M00 A2976 RMK SC1 SLP082=
CYQM;2005-10-21 04:00;METAR CYQM 210400Z 23013G19KT 15SM FEW030 04/M00 A2978 RMK SC1 SLP086=
CYQM;2005-10-21 05:00;METAR CYQM 210500Z 25012KT 15SM SKC 03/00 A2977 RMK SLP084=
CYQM;2005-10-21 06:00;METAR CYQM 210600Z 25012KT 15SM SKC 03/00 A2978 RMK SLP086=
CYQM;2005-10-21 07:00;METAR CYQM 210700Z 25013KT 15SM SKC 02/00 A2978 RMK SLP088=
CYQM;2005-10-21 08:28;SPECI CYQM 210828Z 24012G17KT 15SM SKC 02/=
CYQM;2005-10-21 09:00;METAR CYQM 210900Z 24013KT 15SM SKC 02/00 A2980 RMK SLP094=
CYQM;2005-10-21 10:00;METAR CYQM 211000Z 24012G17KT 15SM SKC 02/00 A2980 RMK SLP095=
CYQM;2005-10-21 11:00;METAR CYQM 211100Z 24011G17KT 15SM SKC 01/00 A2981 RMK SLP096=
CYQM;2005-10-21 12:00;METAR CYQM 211200Z 24017KT 15SM FEW050 02/01 A2982 RMK SC2 SLP100=
CYQM;2005-10-21 13:00;METAR CYQM 211300Z 25015G21KT 15SM FEW015 FEW250 04/01 A2982 RMK SC2CI1 SLP101=
CYQM;2005-10-21 14:00;METAR CYQM 211400Z 26018KT 15SM FEW020 FEW250 06/01 A2982 RMK SC2CI1 SLP101=
CYQM;2005-10-21 15:00;METAR CYQM 211500Z 25014G20KT 15SM FEW020 SCT080 BKN200 07/01 A2981 RMK CU1AC3CI1 SLP099=
CYQM;2005-10-21 16:00;METAR CYQM 211600Z 24019KT 15SM FEW020 FEW080 SCT250 08/02 A2980 RMK CU1AC2CI1 SLP093=
CYQM;2005-10-21 17:00;METAR CYQM 211700Z 26019G24KT 15SM FEW020 FEW080 SCT250 10/02 A2978 RMK CU1AC2CI1 SLP087=
CYQM;2005-10-21 18:00;METAR CYQM 211800Z 26018G26KT 15SM FEW030 SCT250 09/01 A2978 RMK CU2CI1 SLP086=
CYQM;2005-10-21 21:00;METAR CYQM 212100Z 27012G18KT 15SM FEW025 SCT070 BKN250 07/01 A2981 RMK CU2AC1CI1 SLP097=
CYQM;2005-10-21 22:00;METAR CYQM 212200Z 26011KT 15SM FEW025 FEW070 06/01 A2982 RMK SC1AC1 SLP102=
CYQM;2005-10-21 23:00;METAR CYQM 212300Z 23011KT 15SM BKN040 06/01 A2984 RMK SC6 SLP106=
CYQM;2005-10-22 01:00;METAR CYQM 220100Z 23012KT 15SM FEW040 FEW070 05/01 A2985 RMK SC2AC1 SLP112=
CYQM;2005-10-22 02:00;METAR CYQM 220200Z 24012KT 15SM FEW070 04/01 A2985 RMK AC1 SLP112=
CYQM;2005-10-22 03:00;METAR CYQM 220300Z 25012KT 15SM SKC 04/01 A2985 RMK SLP112=
CYQM;2005-10-22 04:00;METAR CYQM 220400Z 24011KT 15SM SKC 03/01 A2986 RMK SLP113=
CYQM;2005-10-22 05:00;METAR CYQM 220500Z 24015KT 15SM SKC 03/01 A2986 RMK SLP115=
CYQM;2005-10-22 05:25;SPECI CYQM 220525Z 25013KT 15SM SKC 02/=
CYQM;2005-10-22 06:00;METAR CYQM 220600Z 24013G18KT 15SM SKC 02/00 A2986 RMK SLP115=
CYQM;2005-10-22 07:00;METAR CYQM 220700Z 23010KT 15SM SKC 02/00 A2986 RMK SLP114=
CYQM;2005-10-22 08:00;METAR CYQM 220800Z 24015KT 15SM SKC 01/00 A2986 RMK SLP116=
CYQM;2005-10-22 10:00;METAR CYQM 221000Z 23009KT 15SM SKC 01/M00 A2989 RMK SLP123=
CYQM;2005-10-22 11:00;METAR CYQM 221100Z 23010KT 15SM SKC 00/M00 A2989 RMK SLP124=
CYQM;2005-10-22 12:00;METAR CYQM 221200Z 25013KT 15SM FEW250 02/00 A2990 RMK CI1 SLP128=
CYQM;2005-10-22 13:00;METAR CYQM 221300Z 23010KT 15SM FEW250 04/01 A2991 RMK CI1 SLP130=
CYQM;2005-10-22 14:00;METAR CYQM 221400Z 23007KT 15SM FEW250 06/03 A2991 RMK CI1 SLP130=
CYQM;2005-10-22 15:00;METAR CYQM 221500Z 32006KT 15SM FEW020 FEW250 09/04 A2991 RMK CU1CI1 SLP131=
CYQM;2005-10-22 16:00;METAR CYQM 221600Z 27006KT 15SM FEW020 SCT250 09/04 A2990 RMK CU2CI1 SLP129=
CYQM;2005-10-22 17:00;METAR CYQM 221700Z 34006KT 15SM SCT025 SCT250 10/04 A2989 RMK CU3CI1 SLP126=
CYQM;2005-10-22 18:00;METAR CYQM 221800Z 04008KT 15SM BKN025 10/05 A2991 RMK SC6 SLP130=
CYQM;2005-10-22 20:00;METAR CYQM 222000Z 03008KT 15SM FEW020 BKN030 09/05 A2992 RMK CU1SC6 SLP136=
CYQM;2005-10-22 21:00;METAR CYQM 222100Z 04004KT 15SM FEW017 BKN035 08/06 A2993 RMK CU1SC7 SLP139=
CYQM;2005-10-22 22:00;METAR CYQM 222200Z 03005KT 15SM BKN042 08/06 A2994 RMK SC7 SLP142=
CYQM;2005-10-22 23:00;METAR CYQM 222300Z 04004KT 15SM BKN042 08/06 A2994 RMK SC7 SLP142=
CYQM;2005-10-23 00:00;METAR CYQM 230000Z 03002KT 15SM BKN039 08/05 A2996 RMK SC7 SLP147=
CYQM;2005-10-23 01:00;METAR CYQM 230100Z 03003KT 15SM BKN039 07/05 A2996 RMK SC7 SLP147=
CYQM;2005-10-23 03:00;METAR CYQM 230300Z 05004KT 15SM FEW017 SCT040 BKN070 06/05 A2995 RMK SC1SC2AC4 SLP144=
CYQM;2005-10-23 04:00;METAR CYQM 230400Z 05003KT 15SM BKN035 06/05 A2995 RMK SC7 SLP144=
CYQM;2005-10-23 04:38;SPECI CYQM 230438Z 08006KT 8SM -SHRA SCT008 OVC022 07/ RMK SF3SC5=
CYQM;2005-10-23 05:00;METAR CYQM 230500Z 07005KT 6SM -DZ BR BKN006 OVC022 07/06 A2995 RMK SF5SC3 SLP144=
CYQM;2005-10-23 05:24;SPECI CYQM 230524Z 06007KT 8SM -DZ SCT006 OVC027 06/ RMK SF3SC5=
CYQM;2005-10-23 05:50;SPECI CYQM 230550Z 04005KT 10SM FEW007 BKN030 06/ RMK SF2SC6=
CYQM;2005-10-23 06:00;METAR CYQM 230600Z 06005KT 12SM FEW007 BKN030 06/05 A2991 RMK SF1SC6 VIRGA W SLP131=
CYQM;2005-10-23 07:00;METAR CYQM 230700Z 06006KT 15SM BKN035 06/05 A2991 RMK SC7 SLP132=
CYQM;2005-10-23 08:00;METAR CYQM 230800Z 05007KT 15SM BKN035 06/05 A2988 RMK SC7 SLP121=
CYQM;2005-10-23 09:00;METAR CYQM 230900Z 05008KT 15SM SCT035 06/05 A2985 RMK SC4 SLP112=
CYQM;2005-10-23 11:00;METAR CYQM 231100Z 06012G17KT 15SM SCT035 BKN070 06/04 A2984 RMK SC4AC2 SLP108=
CYQM;2005-10-23 12:00;METAR CYQM 231200Z 06012G22KT 15SM BKN020 BKN070 07/04 A2981 RMK SC6AC2 SLP097=
CYQM;2005-10-23 12:41;SPECI CYQM 231241Z 06016G24KT 15SM FEW008 OVC020 07/ RMK SF2SC6=
CYQM;2005-10-23 13:00;METAR CYQM 231300Z 06013G19KT 15SM FEW008 OVC020 07/05 A2978 RMK SF2SC6 SLP088=
CYQM;2005-10-23 15:00;METAR CYQM 231500Z 06014G26KT 10SM -SHRA SCT008 OVC020 07/05 A2972 RMK SF3SC5 SLP066=
CYQM;2005-10-23 15:40;SPECI CYQM 231540Z 06015G26KT 10SM -SHRA BKN008 OVC020 07/ RMK SF5SC3=
CYQM;2005-10-23 16:00;METAR CYQM 231600Z 06012G22KT 6SM -SHRA BR BKN007 OVC020 07/05 A2969 RMK SF5SC3 SLP055=
CYQM;2005-10-23 16:49;SPECI CYQM 231649Z 06015KT 1 1/2SM SHRA BR BKN005 OVC020 06/ RMK SF5SC3=
CYQM;2005-10-23 17:00;METAR CYQM 231700Z 05012G18KT 2SM SHRA BR BKN005 OVC020 06/06 A2965 RMK SF5SC3 SLP044=
CYQM;2005-10-23 18:00;METAR CYQM 231800Z 05011G17KT 1 1/2SM SHRA BR BKN005 OVC012 06/05 A2965 RMK SF5SC3 /R12/ SLP042=
CYQM;2005-10-23 19:00;METAR CYQM 231900Z 04013G24KT 2SM SHRA BR BKN005 OVC012 06/05 A2964 RMK SF5SC3 SLP039=
CYQM;2005-10-23 20:00;METAR CYQM 232000Z 03013G24KT 2SM -SHRA BR BKN006 OVC012 06/05 A2964 RERA RMK SF6SC2 /R10/ SLP041=
CYQM;2005-10-23 21:00;METAR CYQM 232100Z 03014G21KT 3SM -SHRA BR BKN006 OVC015 06/05 A2965 RMK CF6SC2 SLP043=
CYQM;2005-10-23 21:26;SPECI CYQM 232126Z 03016G22KT 7SM -SHRA BKN005 OVC015 06/ RMK SF7SC1=
CYQM;2005-10-23 22:00;METAR CYQM 232200Z 04014G20KT 8SM -SHRA OVC005 06/05 A2967 RMK SF8 SLP050=
CYQM;2005-10-23 22:17;SPECI CYQM 232217Z 03013G21KT 8SM -SHRA OVC010 06/ RMK SC8 CIG RAG=
CYQM;2005-10-23 23:46;SPECI CYQM 232346Z 03019G26KT 8SM -RA SCT011 OVC019 06/ RMK SC3SC5=
CYQM;2005-10-24 00:00;METAR CYQM 240000Z 03016G21KT 8SM -RA BKN012 OVC022 06/06 A2967 RMK SC6SC2 SLP051=
CYQM;2005-10-24 01:00;METAR CYQM 240100Z 03018G28KT 8SM -RA BKN016 07/05 A2970 RMK SC7 SLP058=
CYQM;2005-10-24 01:34;SPECI CYQM 240134Z 03020G29KT 8SM -RA BKN013 07/ RMK SC7 CIG RAG=
CYQM;2005-10-24 02:46;SPECI CYQM 240246Z 03017G33KT 15SM BKN018 07/ RMK SC7=
CYQM;2005-10-24 03:00;METAR CYQM 240300Z 03020G28KT 15SM FEW008 BKN018 07/06 A2972 RMK CF1SC6 SLP067=
CYQM;2005-10-24 04:00;METAR CYQM 240400Z 03019G26KT 15SM BKN021 07/05 A2974 RMK CU7 SLP073=
CYQM;2005-10-24 04:33;SPECI CYQM 240433Z 03017G30KT 10SM -SHRA BKN017 07/ RMK SC7=
CYQM;2005-10-24 05:00;METAR CYQM 240500Z 03018G26KT 3SM -SHRA BR BKN008 OVC016 07/06 A2977 RMK SF5SC3 SLP082=
CYQM;2005-10-24 05:22;SPECI CYQM 240522Z 03016G24KT 8SM BKN008 BKN016 07/ RMK SF5SC2=
CYQM;2005-10-24 05:32;SPECI CYQM 240532Z 04020G27KT 8SM -SHRA SCT008 OVC020 07/ RMK SF3SC5=
CYQM;2005-10-24 06:00;METAR CYQM 240600Z 03017G25KT 10SM BKN022 07/06 A2978 RMK SC7 SLP088=
CYQM;2005-10-24 06:17;SPECI CYQM 240617Z 03013G22KT 8SM -SHRA BKN022 07/ RMK SC7=
CYQM;2005-10-24 07:00;METAR CYQM 240700Z 03015G27KT 12SM -SHRA BKN022 07/05 A2981 RMK SC7 SLP097=
CYQM;2005-10-24 07:29;SPECI CYQM 240729Z 02014G25KT 12SM BKN021 07/ RMK SC7=
CYQM;2005-10-24 07:33;SPECI CYQM 240733Z 03013G25KT 8SM -SHRA BKN021 07/ RMK SC7=
CYQM;2005-10-24 09:00;METAR CYQM 240900Z 04008KT 8SM -SHRA FEW006 OVC015 07/06 A2991 RMK SF2SC6 SLP130=
CYQM;2005-10-24 10:00;METAR CYQM 241000Z 03009KT 8SM -SHRA FEW006 BKN015 OVC030 07/06 A2993 RMK SF1SC6SC2 SLP139=
CYQM;2005-10-24 10:49;SPECI CYQM 241049Z 02010KT 10SM FEW006 OVC012 07/ RMK SF1SC7=
CYQM;2005-10-24 11:00;METAR CYQM 241100Z 03010G17KT 10SM FEW006 OVC012 07/06 A2996 RMK SF1SC7 SLP149=
CYQM;2005-10-24 12:00;METAR CYQM 241200Z 04009KT 10SM FEW006 BKN013 OVC030 07/06 A3000 RMK SF1SC6SC1 SLP161=
CYQM;2005-10-24 12:22;SPECI CYQM 241222Z 03006KT 8SM -SHRA FEW006 BKN013 OVC030 07/ RMK SF1SC6SC1=
CYQM;2005-10-24 12:50;SPECI CYQM 241250Z 03009KT 10SM FEW006 SCT010 OVC014 07/ RMK SF2SC2SC4=
CYQM;2005-10-24 12:55;SPECI CYQM 241255Z 02009KT 8SM -SHRA FEW006 SCT010 OVC014 07/ RMK SF2SC2SC4=
CYQM;2005-10-24 13:00;METAR CYQM 241300Z 02010G15KT 8SM -SHRA FEW002 SCT010 OVC014 07/06 A3003 RMK SF2SC2SC4 SLP170=
CYQM;2005-10-24 13:26;SPECI CYQM 241326Z 02014G19KT 8SM FEW006 BKN012 OVC030 07/ RMK SF2SC6SC1=
CYQM;2005-10-24 13:29;SPECI CYQM 241329Z 03012G19KT 8SM -SHRA FEW006 BKN012 OVC030 07/ RMK SF2SC6SC1=
CYQM;2005-10-24 14:00;METAR CYQM 241400Z 04007KT 10SM -SHRA FEW006 BKN012 OVC030 07/06 A3004 RMK SF2SC6SC1 SLP175=
CYQM;2005-10-24 14:35;SPECI CYQM 241435Z 04014G19KT 10SM FEW006 BKN012 OVC030 07/ RMK SF1SC6SC1=
CYQM;2005-10-24 15:00;METAR CYQM 241500Z 04013G19KT 12SM FEW006 BKN012 08/05 A3006 RMK SF1SC6 SLP183=
CYQM;2005-10-24 16:00;METAR CYQM 241600Z 03013KT 15SM BKN012 OVC030 08/04 A3009 RMK SC5SC3 SLP193=
CYQM;2005-10-24 16:41;SPECI CYQM 241641Z 36013KT 15SM SCT015 OVC018 08/ RMK SC3SC5=
CYQM;2005-10-24 17:00;METAR CYQM 241700Z 03011G20KT 15SM SCT015 OVC018 08/04 A3011 RMK CF3SC5 SLP199=
CYQM;2005-10-24 18:00;METAR CYQM 241800Z 03013KT 15SM FEW015 BKN025 BKN100 08/04 A3011 RMK CF2SC5AC1 SLP199=
CYQM;2005-10-24 21:00;METAR CYQM 242100Z 03011KT 15SM BKN020 BKN080 BKN260 07/05 A3015 RMK SC6AC1CI1 SHS NW SLP214=
CYQM;2005-10-24 22:00;METAR CYQM 242200Z 02010KT 15SM BKN017 BKN100 07/04 A3017 RMK SC6AC2 SLP220=
CYQM;2005-10-24 22:33;SPECI CYQM 242233Z 04010KT 15SM -DZ SCT017 BKN025 BKN100 07/ RMK SC4SC2AC1=
CYQM;2005-10-25 00:00;METAR CYQM 250000Z 04009KT 15SM FEW018 OVC033 06/04 A3019 RMK CF2SC6 SLP228=
CYQM;2005-10-25 01:00;METAR CYQM 250100Z 04007KT 15SM FEW018 OVC035 06/03 A3021 RMK SC2SC6 SLP232=
CYQM;2005-10-25 02:00;METAR CYQM 250200Z 05007KT 15SM FEW018 BKN038 OVC120 06/03 A3020 RMK SC1SC6AC1 SLP231=
CYQM;2005-10-25 03:00;METAR CYQM 250300Z 04005KT 15SM FEW020 FEW040 SCT260 05/03 A3020 RMK SC1SC2CI1 SLP231=
CYQM;2005-10-25 04:00;METAR CYQM 250400Z 04005KT 15SM FEW020 OVC037 05/04 A3020 RMK SC1SC7 SLP231=
CYQM;2005-10-25 05:04;SPECI CYQM 250504Z 04008KT 15SM -DZ SCT012 OVC026 06/ RMK SF3SC5=
CYQM;2005-10-25 06:00;METAR CYQM 250600Z 07007KT 12SM -DZ FEW012 OVC028 06/04 A3019 RMK SF2SC6 SLP227=
CYQM;2005-10-25 06:20;SPECI CYQM 250620Z 04006KT 12SM -DZ BKN012 OVC028 06/ RMK SF6SC2=
CYQM;2005-10-25 06:26;SPECI CYQM 250626Z 05006KT 12SM -RADZ BKN008 OVC025 06/ RMK SF6SC2=
CYQM;2005-10-25 07:00;METAR CYQM 250700Z 03006KT 5SM -RADZ BR FEW008 BKN012 OVC020 05/05 A3018 RMK SF2SF5SC1 SLP222=
CYQM;2005-10-25 07:26;SPECI CYQM 250726Z 05010KT 6SM -DZRA BR BKN006 OVC012 05/ RMK SF6SF2=
CYQM;2005-10-25 08:00;METAR CYQM 250800Z 04009KT 6SM -DZ BR SCT006 BKN009 OVC013 05/05 A3017 RMK SF3SF3SC2 SLP219=
CYQM;2005-10-25 08:53;SPECI CYQM 250853Z 04012KT 2SM -RADZ BR SCT006 BKN008 OVC013 05/ RMK SF3SF3SC2=
CYQM;2005-10-25 09:00;METAR CYQM 250900Z 04010G15KT 2SM -RADZ BR SCT006 OVC008 05/05 A3014 RMK SF3SF5 SLP209=
CYQM;2005-10-25 09:15;SPECI CYQM 250915Z 06007KT 4SM -RADZ BR SCT006 OVC008 05/ RMK SF3SF5=
CYQM;2005-10-25 09:38;SPECI CYQM 250938Z 04008KT 6SM -DZ BR SCT008 BKN010 OVC014 05/ RMK SF4SF2SC2=
CYQM;2005-10-25 10:00;METAR CYQM 251000Z 05008KT 6SM -DZ BR SCT006 OVC014 05/05 A3014 RMK SF4ST4 SLP211=
CYQM;2005-10-25 10:53;SPECI CYQM 251053Z 05009KT 12SM FEW006 BKN014 OVC030 05/ RMK SF2SC4SC2=
CYQM;2005-10-25 11:00;METAR CYQM 251100Z 05011G16KT 12SM SCT007 BKN014 OVC030 05/04 A3010 RMK SF3SC3SC2 SLP197=
CYQM;2005-10-25 12:00;METAR CYQM 251200Z 04012KT 15SM FEW007 BKN012 OVC030 06/04 A3010 RMK SF2SC4SC2 SLP196=
CYQM;2005-10-25 13:00;METAR CYQM 251300Z 04011G16KT 15SM FEW007 BKN012 OVC030 06/04 A3008 RMK SF2SC5SC2 SLP189=
CYQM;2005-10-25 14:00;METAR CYQM 251400Z 04008KT 15SM FEW008 BKN013 BKN030 OVC080 06/05 A3004 RMK CF1SC6SC1AC1 SLP177=
CYQM;2005-10-25 15:00;METAR CYQM 251500Z 06010KT 15SM FEW008 BKN013 OVC080 07/05 A3001 RMK CF1SC6AC1 SLP166=
CYQM;2005-10-25 15:25;SPECI CYQM 251525Z 05009KT 15SM -SHRA FEW008 BKN013 OVC080 07/ RMK CF1SC6AC1=
CYQM;2005-10-25 16:00;METAR CYQM 251600Z 04011KT 12SM -SHRA FEW008 BKN013 OVC030 07/05 A2996 RMK SF1SC6SC1 SLP148=
CYQM;2005-10-25 17:00;METAR CYQM 251700Z 05009G15KT 10SM -RA FEW008 OVC013 07/06 A2992 RMK SF2SC6 SLP133=
CYQM;2005-10-25 18:00;METAR CYQM 251800Z 05011G18KT 12SM -RA SCT008 OVC013 07/06 A2985 RMK SF3SC5 PRESFR SLP111=
CYQM;2005-10-25 18:16;SPECI CYQM 251816Z 05011G20KT 12SM -RA BKN008 OVC013 07/ RMK SF5SC3=
CYQM;2005-10-25 19:00;METAR CYQM 251900Z 05013G19KT 10SM -RA BKN008 OVC013 07/06 A2979 RMK SF5SC3 PRESFR SLP091=
CYQM;2005-10-25 20:00;METAR CYQM 252000Z 05015G20KT 6SM RA BR BKN008 OVC013 07/06 A2975 RMK SF6SC2 SLP078=
CYQM;2005-10-25 21:00;METAR CYQM 252100Z 04017G30KT 10SM -RA BKN008 OVC015 07/06 A2969 RERA RMK SF6SC2 PRESFR SLP057=
CYQM;2005-10-25 22:00;METAR CYQM 252200Z 05018G24KT 10SM -RA BKN007 BKN013 OVC030 07/06 A2966 RERA RMK SF6SF2NS1 /R11/ SLP047=
CYQM;2005-10-25 22:23;SPECI CYQM 252223Z 05013G24KT 10SM -RA SCT007 BKN013 OVC030 07/ RMK SF3SF2NS2=
CYQM;2005-10-25 23:00;METAR CYQM 252300Z 05017G22KT 8SM -RA BKN007 BKN012 OVC030 07/06 A2963 RMK SF5SF2NS1 SLP035=
CYQM;2005-10-26 00:00;METAR CYQM 260000Z 06021G31KT 6SM -RA BR BKN007 OVC013 06/05 A2959 RMK SF6SC2 SLP023=
CYQM;2005-10-26 01:00;METAR CYQM 260100Z 05022G33KT 4SM -RA BR BKN007 OVC013 06/05 A2956 RMK SF6SC2 SLP012=
CYQM;2005-10-26 01:51;SPECI CYQM 260151Z 05018G33KT 5SM -RA BR FEW006 BKN012 OVC020 06/ RERA RMK SF2SF4NS2=
CYQM;2005-10-26 02:00;METAR CYQM 260200Z 05017G31KT 5SM -RA BR BKN007 BKN012 OVC020 06/06 A2951 RERA RMK SF5SC2NS1 SLP997=
CYQM;2005-10-26 03:00;METAR CYQM 260300Z 04017G28KT 6SM RA BR BKN007 OVC012 06/06 A2956 RERA RMK SF6SC2 /R11/ PRES UNSTDY SLP013=
CYQM;2005-10-26 06:00;METAR CYQM 260600Z 04025G31KT 7SM -RA BKN007 OVC012 07/06 A2944 RMK SF7SC1 SLP971=
CYQM;2005-10-26 06:29;SPECI CYQM 260629Z 04018G26KT 2SM -RA BR BKN006 OVC010 07/ RMK SF6SF2=
CYQM;2005-10-26 08:00;METAR CYQM 260800Z 05018G31KT 3SM -RA BR BKN006 OVC012 06/06 A2937 RMK SF7SF1 SLP949=
CYQM;2005-10-26 08:03;SPECI CYQM 260803Z 06019G29KT 2SM -RA BR BKN006 OVC012 06/ RMK SF7SF1=
CYQM;2005-10-26 10:00;METAR CYQM 261000Z 05014G25KT 2SM -RA BR OVC006 07/06 A2933 RMK SF8 SLP933=
CYQM;2005-10-26 10:39;SPECI CYQM 261039Z 05015G27KT 1 1/2SM -RADZ BR BKN006 OVC013 07/ RMK SF7SC1=
CYQM;2005-10-26 11:00;METAR CYQM 261100Z 04017G25KT 1 1/4SM -RADZ BR BKN005 OVC013 07/06 A2930 RMK SF7SC1 SLP923=
CYQM;2005-10-26 11:35;SPECI CYQM 261135Z 05015G20KT 1 1/4SM -DZ BR BKN005 OVC013 07/ RMK SF7SC1=
CYQM;2005-10-26 12:00;METAR CYQM 261200Z 04018G26KT 1 1/4SM -RADZ BR BKN005 OVC013 07/07 A2927 RMK SF7SC1 SLP915=
CYQM;2005-10-26 13:00;METAR CYQM 261300Z 04011G19KT 1 1/2SM -RADZ BR BKN006 OVC015 08/07 A2925 RMK SF7SC1 SLP906=
CYQM;2005-10-26 14:00;METAR CYQM 261400Z 05015KT 1 1/4SM -RADZ BR BKN005 OVC020 08/08 A2921 RMK SF6SC2 SLP894=
CYQM;2005-10-26 14:29;SPECI CYQM 261429Z 04012KT 1 1/2SM -RADZ BR BKN004 OVC020 08/ RMK SF7SC1=
CYQM;2005-10-26 15:00;METAR CYQM 261500Z 03011KT 1 1/2SM -DZ BR BKN004 OVC020 08/08 A2918 RMK SF7SC1 SLP885=
CYQM;2005-10-26 15:12;SPECI CYQM 261512Z 03011KT 1 1/4SM -DZ BR BKN005 OVC020 08/ RMK SF7SC1=
CYQM;2005-10-26 15:26;SPECI CYQM 261526Z 03009KT 1SM R06/5500FT/D R29/6000FT/D -DZ BR BKN005 OVC020 08/ RMK SF7SC1=
CYQM;2005-10-26 16:00;METAR CYQM 261600Z 03008KT 1 1/4SM -DZ BR BKN005 OVC025 09/09 A2915 RMK SF7SC1 SLP873=
CYQM;2005-10-26 16:14;SPECI CYQM 261614Z 03008KT 1 1/2SM -DZ BR BKN004 OVC025 09/ RMK SF7SC1=
CYQM;2005-10-26 17:00;METAR CYQM 261700Z 36008KT 1 1/4SM -DZ BR OVC003 09/09 A2913 RMK SF8 SLP868=
CYQM;2005-10-26 18:00;METAR CYQM 261800Z 32003KT 1 1/4SM -DZ BR OVC004 09/09 A2914 RMK SF8 SLP869=
CYQM;2005-10-26 18:21;SPECI CYQM 261821Z 32005KT 3SM -DZ BR OVC004 09/ RMK SF8=
CYQM;2005-10-26 19:00;METAR CYQM 261900Z 31010KT 1 1/2SM -DZ BR OVC003 09/09 A2915 RMK SF8 SLP873=
CYQM;2005-10-26 19:13;SPECI CYQM 261913Z 32010KT 1 1/4SM -RADZ BR OVC003 09/ RMK ST8=
CYQM;2005-10-26 21:00;METAR CYQM 262100Z 35023G29KT 1 1/4SM -DZ BR BKN004 OVC025 07/06 A2920 RMK SF7SC1 SLP890=
CYQM;2005-10-26 21:45;SPECI CYQM 262145Z 34021G26KT 1 1/4SM -DZ BR BKN006 OVC012 06/ RMK SF7SC1=
CYQM;2005-10-26 22:12;SPECI CYQM 262212Z 34016G24KT 2SM -DZ BR BKN006 OVC012 06/ RMK SF7SC1=
CYQM;2005-10-26 23:00;METAR CYQM 262300Z 34017G22KT 2 1/2SM -DZ BR BKN006 OVC015 06/05 A2932 RMK SF6SC2 PRESRR SLP932=
CYQM;2005-10-27 00:00;METAR CYQM 270000Z 34017G22KT 2 1/2SM -DZ BR BKN006 OVC015 06/05 A2937 RMK SF6SC2 SLP946=
CYQM;2005-10-27 00:16;SPECI CYQM 270016Z 34018G26KT 3SM -DZ BR BKN006 OVC015 06/ RMK SF6SC2=
CYQM;2005-10-27 00:39;SPECI CYQM 270039Z 34017G22KT 2SM -DZ BR BKN006 OVC015 06/ RMK SF6SC2=
CYQM;2005-10-27 00:57;SPECI CYQM 270057Z 35017G22KT 5SM -DZ BR BKN006 OVC015 05/ RMK SF6SC2=
CYQM;2005-10-27 01:00;METAR CYQM 270100Z 35017G22KT 10SM -DZ BKN006 OVC015 05/05 A2940 RMK SF6SC2 SLP957=
CYQM;2005-10-27 01:29;SPECI CYQM 270129Z 33017KT 4SM -DZ BR BKN007 OVC015 05/ RMK SF6SC2=
CYQM;2005-10-27 02:00;METAR CYQM 270200Z 31019G25KT 3SM -DZ BR BKN007 OVC015 05/05 A2944 RMK SF6SC2 SLP970=
CYQM;2005-10-27 03:00;METAR CYQM 270300Z 32017G25KT 8SM -DZ BKN007 OVC015 04/03 A2948 RMK SF6SC2 SLP985=
CYQM;2005-10-27 04:00;METAR CYQM 270400Z 31015G20KT 10SM -DZ BKN007 OVC015 03/03 A2952 RMK SF6SC2 SLP998=
CYQM;2005-10-27 04:45;SPECI CYQM 270445Z 32017G25KT 12SM SCT007 OVC010 03/ RMK SF3SC5=
CYQM;2005-10-27 06:00;METAR CYQM 270600Z 30011G17KT 12SM FEW007 BKN011 03/02 A2959 RMK SF2SC5 SLP024=
CYQM;2005-10-27 07:00;METAR CYQM 270700Z 29012G18KT 15SM BKN012 03/02 A2962 RMK SC6 SLP033=
CYQM;2005-10-27 08:00;METAR CYQM 270800Z 28014G19KT 15SM BKN014 03/01 A2965 RMK SC7 SLP044=
CYQM;2005-10-27 08:23;SPECI CYQM 270823Z 27014KT 15SM OVC016 02/ RMK SC8=
CYQM;2005-10-27 09:00;METAR CYQM 270900Z 29011KT 15SM FEW009 BKN018 02/01 A2969 RMK CF1SC6 SLP057=
CYQM;2005-10-27 11:00;METAR CYQM 271100Z 27010KT 15SM FEW012 BKN025 02/01 A2975 RMK CF2SC6 SLP077=
CYQM;2005-10-27 12:00;METAR CYQM 271200Z 27012KT 15SM FEW015 BKN030 03/01 A2978 RMK CF2SC6 SLP089=
CYQM;2005-10-27 13:00;METAR CYQM 271300Z 28010KT 15SM BKN015 BKN032 03/01 A2981 RMK SC5SC2 SLP098=
CYQM;2005-10-27 14:00;METAR CYQM 271400Z 28009G15KT 15SM BKN017 OVC032 04/02 A2984 RMK SC5SC3 SLP106=
CYQM;2005-10-27 15:00;METAR CYQM 271500Z 31011KT 15SM -SHRA OVC017 05/03 A2986 RMK SC8 SLP114=
CYQM;2005-10-27 15:20;SPECI CYQM 271520Z 30011G16KT 15SM BKN017 OVC035 05/ RMK SC6SC2=
CYQM;2005-10-27 16:00;METAR CYQM 271600Z 29008KT 15SM BKN020 06/03 A2987 RMK SC7 SLP118=
CYQM;2005-10-27 18:00;METAR CYQM 271800Z 30010KT 15SM BKN025 OVC050 07/03 A2990 RMK SC7SC1 SLP129=
CYQM;2005-10-27 19:00;METAR CYQM NIL=
CYQM;2005-10-27 19:40;SPECI CYQM 271940Z 29008KT 15SM -SHRA FEW015 OVC025 06/ RMK CF1SC7=
CYQM;2005-10-27 20:00;METAR CYQM 272000Z 29005KT 15SM FEW015 BKN030 OVC080 06/04 A2996 RMK CF1SC4AC2 SLP148=
CYQM;2005-10-27 21:00;METAR CYQM 272100Z 30004KT 15SM FEW015 BKN030 BKN080 06/04 A2999 RMK CF1SC4AC2 SLP158=
CYQM;2005-10-27 21:06;SPECI CYQM 272106Z 30003KT 15SM -SHRA FEW015 BKN030 BKN080 06/ RMK CF1SC4AC2=
CYQM;2005-10-27 21:35;SPECI CYQM 272135Z 30003KT 15SM FEW015 BKN030 BKN080 05/ RMK CF1SC4AC2=
CYQM;2005-10-27 22:00;METAR CYQM 272200Z 31004KT 15SM FEW015 BKN035 BKN080 05/03 A3001 RMK CF1SC4AC2 SLP167=
CYQM;2005-10-28 00:00;METAR CYQM 280000Z 29005KT 15SM SCT035 BKN080 04/03 A3006 RMK SC3AC2 SLP183=
CYQM;2005-10-28 01:00;METAR CYQM 280100Z 30005KT 15SM SCT035 BKN080 04/03 A3008 RMK SC3AC2 SLP191=
CYQM;2005-10-28 02:00;METAR CYQM 280200Z 30006KT 15SM BKN035 BKN080 04/03 A3011 RMK SC5AC2 SLP198=
CYQM;2005-10-28 03:00;METAR CYQM 280300Z 23005KT 15SM OVC035 04/03 A3012 RMK SC8 SLP204=
CYQM;2005-10-28 04:00;METAR CYQM 280400Z 23006KT 15SM OVC035 03/02 A3014 RMK SC8 SLP209=
CYQM;2005-10-28 05:00;METAR CYQM 280500Z 22007KT 15SM SCT035 OVC080 02/02 A3015 RMK SC4AC4 SLP212=
CYQM;2005-10-28 06:00;METAR CYQM 280600Z 22006KT 15SM BKN038 OVC080 02/02 A3016 RMK SC6AC2 SLP216=
CYQM;2005-10-28 08:00;METAR CYQM 280800Z 24008KT 15SM OVC040 03/02 A3018 RMK SC8 SLP224=
CYQM;2005-10-28 09:00;METAR CYQM 280900Z 23005KT 15SM OVC038 02/02 A3019 RMK SC8 SLP227=
CYQM;2005-10-28 09:33;SPECI CYQM 280933Z 23006KT 15SM FEW008 OVC038 02/ RMK SF1SC8=
CYQM;2005-10-28 10:00;METAR CYQM 281000Z 24007KT 15SM OVC040 03/02 A3020 RMK SC8 SLP230=
CYQM;2005-10-28 11:00;METAR CYQM 281100Z 25007KT 15SM BKN040 03/02 A3021 RMK SC7 SLP234=
CYQM;2005-10-28 12:00;METAR CYQM 281200Z 25007KT 15SM FEW020 BKN040 03/01 A3023 RMK CU1SC6 SLP240=
CYQM;2005-10-28 13:00;METAR CYQM 281300Z 24006KT 15SM FEW020 BKN040 03/02 A3025 RMK CU1SC6 SLP245=
CYQM;2005-10-28 14:00;METAR CYQM 281400Z 25010KT 15SM FEW020 BKN040 05/02 A3025 RMK CU1SC5 SLP246=
CYQM;2005-10-28 15:00;METAR CYQM 281500Z 24008KT 15SM FEW020 BKN040 05/02 A3025 RMK CU2SC5 SLP245=
CYQM;2005-10-28 16:00;METAR CYQM 281600Z 23009KT 15SM SCT025 BKN040 05/02 A3023 RMK CU3SC3 SLP241=
CYQM;2005-10-28 17:00;METAR CYQM 281700Z 24011KT 15SM SCT030 BKN040 05/01 A3022 RMK CU3SC4 SLP238=
CYQM;2005-10-28 18:00;METAR CYQM 281800Z 24010KT 15SM FEW030 OVC040 05/M00 A3022 RMK CU2SC6 SLP236=
CYQM;2005-10-28 19:00;METAR CYQM 281900Z 24010KT 15SM OVC035 05/M00 A3022 RMK SC8 SLP237=
CYQM;2005-10-28 20:00;METAR CYQM 282000Z 24011KT 15SM FEW025 OVC035 05/00 A3021 RMK CU1SC7 SLP234=
CYQM;2005-10-28 21:00;METAR CYQM 282100Z 25009KT 15SM FEW015 BKN025 05/01 A3023 RMK CU1SC7 SLP239=
CYQM;2005-10-28 22:00;METAR CYQM 282200Z 27008KT 15SM BKN025 04/M00 A3022 RMK SC5 SLP238=
CYQM;2005-10-28 23:00;METAR CYQM 282300Z 26006KT 15SM BKN030 03/M00 A3022 RMK SC5 SLP238=
CYQM;2005-10-29 00:00;METAR CYQM 290000Z 24004KT 15SM BKN030 03/M00 A3022 RMK SC6 SLP237=
CYQM;2005-10-29 00:28;SPECI CYQM 290028Z 20006KT 15SM BKN030 02/ RMK SC6=
CYQM;2005-10-29 00:47;SPECI CYQM 290047Z 22005KT 15SM BKN030 03/ RMK SC6=
CYQM;2005-10-29 01:00;METAR CYQM 290100Z 24007KT 15SM BKN030 02/01 A3024 RMK SC5 SLP243=
CYQM;2005-10-29 02:00;METAR CYQM 290200Z 22007KT 15SM SCT030 02/01 A3023 RMK SC3 SLP240=
CYQM;2005-10-29 03:00;METAR CYQM 290300Z 22007KT 15SM SKC 01/00 A3022 RMK SLP239=
CYQM;2005-10-29 04:00;METAR CYQM 290400Z 23006KT 15SM SKC 01/M01 A3022 RMK SLP238=
CYQM;2005-10-29 05:00;METAR CYQM 290500Z 24005KT 15SM FEW030 M00/M01 A3020 RMK SC1 SLP231=
CYQM;2005-10-29 06:00;METAR CYQM 290600Z 22006KT 15SM FEW030 M01/M01 A3021 RMK SC1 SLP233=
CYQM;2005-10-29 09:00;METAR CYQM 290900Z 18002KT 15SM SKC M01/M02 A3017 RMK SLP219=
CYQM;2005-10-29 10:00;METAR CYQM 291000Z 23005KT 15SM SKC M02/M03 A3016 RMK FROIN SLP216=
CYQM;2005-10-29 12:00;METAR CYQM 291200Z 24006KT 15SM FEW120 SCT260 M02/M02 A3014 RMK AS2CI1 SLP209=
CYQM;2005-10-29 13:00;METAR CYQM 291300Z 20005KT 15SM FEW120 BKN260 M00/M01 A3014 RMK AC1CI2 SLP209=
CYQM;2005-10-29 14:00;METAR CYQM 291400Z 23007KT 15SM FEW120 BKN260 01/M01 A3011 RMK AS2CI1 SLP201=
CYQM;2005-10-29 15:00;METAR CYQM 291500Z 25008KT 15SM BKN120 BKN260 02/00 A3011 RMK AS5CI1 SLP198=
CYQM;2005-10-29 16:00;METAR CYQM 291600Z 24005KT 15SM FEW080 BKN120 BKN260 02/M01 A3008 RMK AC1AS6CI1 SLP189=
CYQM;2005-10-29 17:00;METAR CYQM 291700Z 24005KT 15SM FEW080 BKN120 BKN260 03/M00 A3003 RMK AC1AS6CI1 SLP173=
CYQM;2005-10-29 18:00;METAR CYQM 291800Z 21006KT 15SM FEW080 BKN120 BKN260 04/M00 A3001 RMK AC2AS3CI2 SLP166=
CYQM;2005-10-29 19:00;METAR CYQM 291900Z 26003KT 15SM BKN120 BKN260 06/M01 A2998 RMK AC5CI1 AS ASOCTD SLP155=
CYQM;2005-10-29 20:00;METAR CYQM 292000Z 00000KT 15SM SCT120 BKN260 07/01 A2996 RMK AC3CI2 AS ASOCTD SLP150=
CYQM;2005-10-29 21:00;METAR CYQM 292100Z 00000KT 15SM SCT100 BKN120 BKN260 05/00 A2995 RMK AC3AC2CI1 SLP144=
CYQM;2005-10-29 22:00;METAR CYQM 292200Z 18003KT 15SM FEW100 SCT260 04/00 A2993 RMK AC2CI1 SLP139=
CYQM;2005-10-29 23:00;METAR CYQM 292300Z 00000KT 15SM FEW100 03/M00 A2991 RMK AC1 SLP132=
CYQM;2005-10-30 00:00;METAR CYQM 300000Z 17002KT 15SM SKC 03/M00 A2989 RMK SLP125=
CYQM;2005-10-30 01:43;SPECI CYQM 300143Z 00000KT 15SM SKC 02/=
CYQM;2005-10-30 02:00;METAR CYQM 300200Z 00000KT 15SM SKC 01/M01 A2986 RMK SLP115=
CYQM;2005-10-30 04:00;METAR CYQM 300400Z 18007KT 12SM FEW100 M01/M02 A2984 RMK AC1 SLP108=
CYQM;2005-10-30 05:00;METAR CYQM 300500Z 22004KT 15SM FEW100 M00/M01 A2983 RMK AC1 SLP104=
CYQM;2005-10-30 06:00;METAR CYQM 300600Z 29007KT 15SM SKC M02/M02 A2979 RMK SLP092=
CYQM;2005-10-30 07:00;METAR CYQM 300700Z 26003KT 15SM SKC M01/M02 A2976 RMK FROIN SLP083=
CYQM;2005-10-30 08:00;METAR CYQM 300800Z 17003KT 15SM SKC M02/M02 A2976 RMK FROIN SLP082=
CYQM;2005-10-30 09:00;METAR CYQM 300900Z 20005KT 15SM FEW260 M01/M02 A2977 RMK CI1 FROIN SLP084=
CYQM;2005-10-30 10:00;METAR CYQM 301000Z 23006KT 15SM FEW120 FEW260 M02/M02 A2976 RMK AC1CI1 FROIN SLP081=
CYQM;2005-10-30 12:00;METAR CYQM 301200Z 23003KT 15SM FEW120 FEW260 M02/M02 A2978 RMK AC1CI1 SLP088=
CYQM;2005-10-30 13:00;METAR CYQM 301300Z 32006KT 15SM FEW025 FEW260 02/00 A2978 RMK CU1CI1 SLP089=
CYQM;2005-10-30 14:00;METAR CYQM 301400Z 33007KT 15SM FEW025 FEW260 05/02 A2977 RMK CU1CI1 SLP086=
CYQM;2005-10-30 15:00;METAR CYQM 301500Z 32005KT 15SM FEW025 FEW260 07/03 A2976 RMK CU1CI1 SLP080=
CYQM;2005-10-30 16:00;METAR CYQM 301600Z 33005KT 15SM FEW025 FEW260 09/03 A2974 RMK CU1CI1 SLP075=
CYQM;2005-10-30 17:00;METAR CYQM 301700Z 28006KT 15SM FEW030 FEW260 10/02 A2973 RMK CU1CI1 SLP070=
CYQM;2005-10-30 18:00;METAR CYQM 301800Z 31006KT 15SM FEW260 11/01 A2972 RMK CI1 SLP068=
CYQM;2005-10-30 19:00;METAR CYQM 301900Z 27008KT 15SM FEW260 12/02 A2973 RMK CI1 SLP072=
CYQM;2005-10-30 20:00;METAR CYQM 302000Z 26009KT 15SM FEW260 12/02 A2974 RMK CI1 SLP073=
CYQM;2005-10-30 21:00;METAR CYQM 302100Z 25007KT 15SM FEW260 10/01 A2975 RMK CI1 SLP078=
CYQM;2005-10-30 22:00;METAR CYQM 302200Z 23008KT 15SM FEW100 FEW260 08/02 A2977 RMK AC1CI1 SLP083=
CYQM;2005-10-31 00:00;METAR CYQM 310000Z 25011KT 15SM SKC 07/02 A2979 RMK SLP092=
CYQM;2005-10-31 01:00;METAR CYQM 310100Z 24012KT 15SM SKC 07/03 A2981 RMK SLP098=
CYQM;2005-10-31 02:00;METAR CYQM 310200Z 24012KT 15SM SKC 07/04 A2981 RMK SLP099=
CYQM;2005-10-31 03:00;METAR CYQM 310300Z 24010KT 15SM SCT050 08/04 A2982 RMK SC3 SLP100=
CYQM;2005-10-31 04:00;METAR CYQM 310400Z 25010KT 15SM BKN050 08/04 A2983 RMK SC6 SLP104=
CYQM;2005-10-31 06:00;METAR CYQM 310600Z 22006KT 15SM BKN050 07/05 A2986 RMK SC6 SLP112=
CYQM;2005-10-31 07:00;METAR CYQM 310700Z 23009KT 15SM BKN050 OVC100 08/05 A2987 RMK SC5AC3 SLP117=
CYQM;2005-10-31 08:00;METAR CYQM 310800Z 25009KT 15SM BKN050 BKN100 08/05 A2989 RMK SC5AC2 SLP122=
CYQM;2005-10-31 09:00;METAR CYQM 310900Z 24009KT 15SM FEW050 06/05 A2990 RMK SC2 SLP127=
CYQM;2005-10-31 10:00;METAR CYQM 311000Z 23007KT 15SM FEW050 06/04 A2991 RMK SC2 SLP131=
CYQM;2005-10-31 12:00;METAR CYQM 311200Z 24007KT 15SM BKN045 BKN270 07/05 A2995 RMK SC5CI0 SLP143=
CYQM;2005-10-31 13:00;METAR CYQM 311300Z 24011KT 15SM BKN045 BKN270 09/06 A2996 RMK SC5CI0 SLP147=
CYQM;2005-10-31 14:00;METAR CYQM 311400Z 24010KT 15SM BKN045 BKN120 10/07 A2996 RMK SC5AC2 SLP149=
CYQM;2005-10-31 15:00;METAR CYQM 311500Z 23010KT 15SM BKN045 BKN120 10/07 A2996 RMK SC5AC2 SLP148=
CYQM;2005-10-31 16:00;METAR CYQM 311600Z 22011KT 15SM BKN055 BKN120 11/07 A2995 RMK SC6AC2 SLP143=
CYQM;2005-10-31 17:00;METAR CYQM 311700Z 23009KT 15SM BKN055 BKN120 12/08 A2993 RMK SC6AC2 SLP139=
CYQM;2005-10-31 18:00;METAR CYQM 311800Z 24008KT 12SM FEW020 BKN040 OVC100 12/08 A2993 RMK SC2SC4AC2 SLP138=
CYQM;2005-10-31 19:00;METAR CYQM 311900Z 21006KT 12SM SCT020 BKN040 OVC100 12/08 A2993 RMK SC3SC3AC2 SLP137=
CYQM;2005-10-31 20:00;METAR CYQM 312000Z 19002KT 12SM FEW020 BKN045 OVC100 12/09 A2992 RMK SC2SC4AC2 SLP136=
CYQM;2005-10-31 21:00;METAR CYQM 312100Z 13004KT 10SM FEW020 BKN045 OVC100 12/09 A2993 RMK SC2SC4AC2 SLP137=
CYQM;2005-10-31 22:00;METAR CYQM 312200Z 16003KT 15SM BKN050 BKN140 BKN250 11/09 A2993 RMK SC5AC1CI0 SLP137=
CYQM;2005-10-31 23:00;METAR CYQM 312300Z 17004KT 15SM BKN050 10/08 A2992 RMK SC6 SLP133=
CYQM;2005-11-01 00:00;METAR CYQM 010000Z 19005KT 15SM FEW050 BKN090 BKN250 10/08 A2992 RMK SC2AC4CI1 SLP134=
CYQM;2005-11-01 01:00;METAR CYQM 010100Z 19007KT 15SM BKN090 BKN250 09/08 A2992 RMK AC5CI1 SLP135=
CYQM;2005-11-01 02:00;METAR CYQM 010200Z 23006KT 15SM BKN075 BKN250 09/08 A2992 RMK AC6CI1 SLP135=
CYQM;2005-11-01 03:00;METAR CYQM 010300Z 23006KT 15SM BKN080 BKN240 08/07 A2992 RMK AC6CI1 SLP134=
CYQM;2005-11-01 04:00;METAR CYQM 010400Z 23008KT 12SM BKN100 08/07 A2992 RMK AC6 SLP133=
CYQM;2005-11-01 06:00;METAR CYQM 010600Z 22006KT 15SM BKN120 08/06 A2991 RMK AC5 SLP129=
CYQM;2005-11-01 08:00;METAR CYQM 010800Z 24009KT 15SM BKN060 10/06 A2992 RMK SC7 SLP132=
CYQM;2005-11-01 09:00;METAR CYQM 010900Z 22004KT 15SM BKN060 09/06 A2991 RMK SC7 SLP131=
CYQM;2005-11-01 10:00;METAR CYQM 011000Z 23008KT 15SM SCT060 08/05 A2992 RMK SC3 SLP134=
CYQM;2005-11-01 11:00;METAR CYQM 011100Z 23009KT 15SM FEW060 SCT250 08/04 A2995 RMK SC2CI1 SLP143=
CYQM;2005-11-01 12:00;METAR CYQM 011200Z 22008KT 15SM FEW060 FEW250 08/05 A2996 RMK SC1CI1 SLP149=
CYQM;2005-11-01 13:00;METAR CYQM 011300Z 24011KT 15SM FEW060 SCT250 10/05 A2997 RMK SC1CI2 SLP151=
CYQM;2005-11-01 14:00;METAR CYQM 011400Z 24013KT 15SM FEW050 SCT250 12/07 A2998 RMK SC1CI2 SLP156=
CYQM;2005-11-01 15:00;METAR CYQM 011500Z 23018KT 15SM FEW030 BKN250 13/07 A2998 RMK CU1CI2 SLP153=
CYQM;2005-11-01 19:00;METAR CYQM 011900Z 22012G18KT 15SM FEW030 BKN250 16/08 A2990 RMK CU1CI2 SLP126=
CYQM;2005-11-01 20:00;METAR CYQM 012000Z 20009KT 15SM FEW070 BKN250 16/07 A2987 RMK AC1CI4 SLP118=
CYQM;2005-11-01 21:00;METAR CYQM 012100Z 18009KT 15SM FEW150 BKN250 14/08 A2986 RMK AC1CI4 SLP113=
CYQM;2005-11-01 22:00;METAR CYQM 012200Z 18007KT 15SM FEW150 BKN250 12/06 A2985 RMK AC2CI2 SLP110=
CYQM;2005-11-01 23:00;METAR CYQM 012300Z 18009KT 15SM SCT150 BKN250 12/05 A2982 RMK AC3CI1 SLP101=
CYQM;2005-11-02 00:00;METAR CYQM 020000Z 17010KT 15SM SCT250 13/06 A2980 RMK CI2 SLP093=
CYQM;2005-11-02 01:00;METAR CYQM 020100Z 18011G16KT 15SM FEW250 13/04 A2978 RMK CI1 SLP086=
CYQM;2005-11-02 02:00;METAR CYQM 020200Z 18008KT 15SM FEW250 12/04 A2975 RMK CI0 SLP076=
CYQM;2005-11-02 03:00;METAR CYQM 020300Z 21012G20KT 15SM FEW250 13/06 A2973 RMK CI0 SLP069=
CYQM;2005-11-02 04:00;METAR CYQM 020400Z 21011G17KT 15SM FEW250 12/06 A2971 RMK CI1 SLP061=
CYQM;2005-11-02 06:00;METAR CYQM 020600Z 21013G18KT 15SM FEW240 11/07 A2968 RMK CI2 SLP051=
CYQM;2005-11-02 08:00;METAR CYQM 020800Z 20008KT 15SM FEW150 FEW240 11/08 A2964 RMK AC1CI0 SLP037=
CYQM;2005-11-02 10:00;METAR CYQM 021000Z 20008KT 15SM FEW030 FEW260 09/08 A2962 RMK SC1CI1 SLP033=
CYQM;2005-11-02 11:00;METAR CYQM 021100Z 21006KT 10SM SCT120 BKN260 08/07 A2962 RMK AC4CI2 SLP030=
CYQM;2005-11-02 11:55;SPECI CYQM 021155Z 23007KT 12SM -SHRA FEW030 BKN120 OVC260 09/ RMK SC2AC5CI2=
CYQM;2005-11-02 12:00;METAR CYQM 021200Z 24008KT 12SM -SHRA FEW030 BKN120 OVC260 09/07 A2964 RMK SC2AC5CI2 SLP037=
CYQM;2005-11-02 13:00;METAR CYQM 021300Z 23009KT 12SM -SHRA SCT020 OVC120 08/07 A2963 RMK SC3AC5 SLP036=
CYQM;2005-11-02 13:45;SPECI CYQM 021345Z 23010KT 15SM FEW020 BKN030 OVC120 08/ RMK SC2SC5AC2=
CYQM;2005-11-02 14:00;METAR CYQM 021400Z 23009KT 15SM FEW020 BKN030 OVC120 08/07 A2963 RMK SC2SC6AC1 SLP035=
CYQM;2005-11-02 14:42;SPECI CYQM 021442Z 21008KT 15SM -SHRA FEW020 BKN030 OVC120 08/ RMK SC2SC6AC1=
CYQM;2005-11-02 15:00;METAR CYQM 021500Z 22007KT 15SM -SHRA FEW010 BKN025 08/07 A2962 RMK SF1SC7 CU TOPS W-N SLP032=
CYQM;2005-11-02 16:00;METAR CYQM 021600Z 24008KT 15SM -SHRA FEW010 BKN025 08/06 A2961 RMK SF1SC6 CU TOPS SW-N SLP027=
CYQM;2005-11-02 16:32;SPECI CYQM 021632Z 23011KT 15SM FEW012 SCT025 BKN120 08/ RMK CU1SC2AC4=
CYQM;2005-11-02 17:00;METAR CYQM 021700Z 24013KT 15SM FEW012 SCT025 BKN120 10/08 A2958 RMK CF2SC2AC2 SLP018=
CYQM;2005-11-02 18:00;METAR CYQM 021800Z 25014KT 15SM SCT015 BKN120 11/06 A2955 RMK CU4AC1 SLP009=
CYQM;2005-11-02 21:00;METAR CYQM 022100Z 29017G24KT 15SM FEW030 SCT120 08/M01 A2958 RMK SC2AC1 CU ASOCTD SLP018=
CYQM;2005-11-02 22:00;METAR CYQM 022200Z 29012G21KT 15SM FEW035 06/M01 A2962 RMK SC2 SLP031=
CYQM;2005-11-02 23:00;METAR CYQM 022300Z 28016G24KT 15SM BKN040 05/M03 A2965 RMK SC7 SLP044=
CYQM;2005-11-03 00:00;METAR CYQM 030000Z 27011KT 15SM BKN040 04/M04 A2967 RMK SC6 SLP051=
CYQM;2005-11-03 01:00;METAR CYQM 030100Z 26012KT 15SM SCT040 04/M04 A2971 RMK SC3 SLP063=
CYQM;2005-11-03 02:00;METAR CYQM 030200Z 26012KT 15SM FEW040 02/M04 A2972 RMK SC1 SLP067=
CYQM;2005-11-03 03:00;METAR CYQM 030300Z 27013G19KT 15SM FEW040 02/M04 A2973 RMK SC1 SLP070=
CYQM;2005-11-03 04:00;METAR CYQM 030400Z 25011KT 15SM FEW040 01/M04 A2975 RMK SC1 SLP076=
CYQM;2005-11-03 06:00;METAR CYQM 030600Z 25012G18KT 15SM BKN040 01/M04 A2978 RMK SC5 SLP087=
CYQM;2005-11-03 08:00;METAR CYQM 030800Z 25013KT 15SM SKC 00/M04 A2984 RMK SLP107=
CYQM;2005-11-03 09:00;METAR CYQM 030900Z 24012KT 15SM SKC 01/M04 A2988 RMK SLP120=
CYQM;2005-11-03 10:00;METAR CYQM 031000Z 24011KT 15SM FEW020 M00/M04 A2990 RMK SC1 SLP129=
CYQM;2005-11-03 12:00;METAR CYQM 031200Z 23011G16KT 15SM FEW020 BKN120 BKN260 00/M03 A2994 RMK SC1AC5CI2 SLP143=
CYQM;2005-11-03 13:00;METAR CYQM 031300Z 24014G21KT 15SM FEW020 BKN100 BKN260 01/M02 A2993 RMK SC1AC5CI2 SLP140=
CYQM;2005-11-03 14:00;METAR CYQM 031400Z 24016G21KT 15SM FEW025 FEW100 BKN260 03/M02 A2993 RMK CF1AC2CI2 SLP138=
CYQM;2005-11-03 15:00;METAR CYQM 031500Z 26015KT 15SM FEW025 FEW100 BKN260 05/M02 A2991 RMK CU1AC2CI2 SLP132=
CYQM;2005-11-03 16:00;METAR CYQM 031600Z 25017KT 15SM FEW025 BKN090 BKN120 OVC260 04/M02 A2989 RMK CF1AS5AC1CI2 TR CF SLP125=
CYQM;2005-11-03 19:00;METAR CYQM 031900Z 19010G15KT 15SM SCT020 OVC090 06/M02 A2980 RMK SC3AS5 SLP095=
CYQM;2005-11-03 19:44;SPECI CYQM 031944Z 20017G22KT 15SM -RA BKN020 OVC090 05/ RMK SC5AS3=
CYQM;2005-11-03 20:00;METAR CYQM 032000Z 22015G22KT 15SM -RA BKN020 OVC090 05/00 A2978 RMK SC6AS2 SLP089=
CYQM;2005-11-03 21:00;METAR CYQM 032100Z 21006KT 12SM -RA BKN015 OVC025 04/02 A2973 RMK SC6SC2 PRESFR SLP070=
CYQM;2005-11-04 00:00;METAR CYQM 040000Z 21007KT 8SM -RA SCT012 OVC018 06/05 A2962 RMK SF4SC4 SLP032=
CYQM;2005-11-04 01:00;METAR CYQM 040100Z 23007KT 12SM -RA FEW012 OVC028 07/06 A2962 RMK SF2SC6 SLP033=
CYQM;2005-11-04 01:23;SPECI CYQM 040123Z 26013G18KT 15SM -RA BKN012 OVC025 08/ RMK SF6SC2=
CYQM;2005-11-04 01:40;SPECI CYQM 040140Z 25017G28KT 15SM FEW012 OVC032 08/ RMK SF2SC6=
CYQM;2005-11-04 03:00;METAR CYQM 040300Z 28018G25KT 15SM BKN021 OVC035 07/04 A2967 RMK SC6SC2 SLP048=
CYQM;2005-11-04 05:00;METAR CYQM 040500Z 27011G16KT 15SM FEW025 BKN040 04/02 A2976 RMK SC2SC3 SLP079=
CYQM;2005-11-04 06:00;METAR CYQM 040600Z 29012G18KT 15SM BKN018 OVC040 04/02 A2982 RMK SC6SC2 PRESRR SLP101=
CYQM;2005-11-04 07:00;METAR CYQM 040700Z 30014KT 15SM FEW018 OVC040 03/01 A2987 RMK SC2SC6 SLP117=
CYQM;2005-11-04 07:52;SPECI CYQM 040752Z 29011KT 15SM FEW018 BKN040 02/ RMK SC1SC4=
CYQM;2005-11-04 08:00;METAR CYQM 040800Z 29008G15KT 15SM FEW018 BKN040 02/01 A2990 RMK SC1SC4 SLP128=
CYQM;2005-11-04 10:00;METAR CYQM 041000Z 27010KT 15SM FEW030 01/M00 A3000 RMK SC1 SLP162=
CYQM;2005-11-04 12:00;METAR CYQM 041200Z 22006KT 15SM FEW015 FEW040 BKN250 00/M01 A3008 RMK CU1SC1CI2 SLP191=
CYQM;2005-11-04 13:00;METAR CYQM 041300Z 29010KT 15SM FEW018 FEW040 BKN260 02/M01 A3011 RMK CU1SC1CI2 SLP199=
CYQM;2005-11-04 14:00;METAR CYQM 041400Z 33012KT 15SM FEW018 FEW045 BKN260 03/M01 A3012 RMK CF1SC1CI2 SLP203=
CYQM;2005-11-04 15:00;METAR CYQM 041500Z 34012KT 15SM FEW020 SCT120 BKN260 03/M02 A3014 RMK CU1AC3CI1 SLP208=
CYQM;2005-11-04 16:00;METAR CYQM 041600Z 31007KT 15SM FEW025 BKN120 BKN260 03/M02 A3014 RMK CU2AC4CI1 SLP209=
CYQM;2005-11-04 17:00;METAR CYQM 041700Z 31008KT 15SM FEW025 BKN120 OVC230 03/M02 A3015 RMK CU2AC5CI1 SLP213=
CYQM;2005-11-04 18:00;METAR CYQM 041800Z 03006KT 15SM SCT030 BKN110 OVC230 04/M02 A3016 RMK CU4AC2CI2 SLP217=
CYQM;2005-11-04 19:00;METAR CYQM 041900Z 02006KT 15SM SCT030 BKN110 03/M02 A3018 RMK SC3AC4 SLP222=
CYQM;2005-11-04 21:00;METAR CYQM 042100Z 06005KT 15SM FEW025 BKN060 02/M02 A3021 RMK SC1SC6 VIRGA SLP233=
CYQM;2005-11-04 22:00;METAR CYQM 042200Z 04003KT 15SM FEW025 BKN060 01/M02 A3021 RMK SC1SC6 VIRGA SLP233=
CYQM;2005-11-04 23:00;METAR CYQM 042300Z 08005KT 15SM FEW035 OVC090 02/M02 A3021 RMK SC2AC6 SLP233=
CYQM;2005-11-05 00:00;METAR CYQM 050000Z 09005KT 15SM FEW035 OVC090 02/M03 A3019 RMK SC2AC6 SLP229=
CYQM;2005-11-05 01:00;METAR CYQM 050100Z 07007KT 15SM FEW035 OVC080 02/M03 A3018 RMK SC2AC6 SLP224=
CYQM;2005-11-05 02:00;METAR CYQM 050200Z 07004KT 15SM FEW035 OVC060 02/M02 A3019 RMK SC2SC6 SLP226=
CYQM;2005-11-05 03:00;METAR CYQM 050300Z 08008KT 15SM FEW035 OVC055 02/M02 A3014 RMK SC2SC6 SLP209=
CYQM;2005-11-05 03:26;SPECI CYQM 050326Z 09006KT 15SM -SN OVC047 02/ RMK SC8=
CYQM;2005-11-05 04:00;METAR CYQM 050400Z 09007KT 15SM -SN OVC048 02/M01 A3013 RMK SC8 SLP205=
CYQM;2005-11-05 04:34;SPECI CYQM 050434Z 09008KT 15SM OVC048 02/ RMK SC8=
CYQM;2005-11-05 05:00;METAR CYQM 050500Z 09009KT 15SM OVC045 02/M01 A3010 RMK SC8 SLP195=
CYQM;2005-11-05 06:00;METAR CYQM 050600Z 09007KT 15SM OVC045 03/M01 A3008 RMK SC8 SLP190=
CYQM;2005-11-05 06:32;SPECI CYQM 050632Z 08008KT 15SM OVC015 03/ RMK SC8=
CYQM;2005-11-05 08:00;METAR CYQM 050800Z 10009KT 15SM OVC016 03/01 A3002 RMK SC8 SLP170=
CYQM;2005-11-05 09:00;METAR CYQM 050900Z 09006KT 15SM OVC016 03/01 A3000 RMK SC8 SLP162=
CYQM;2005-11-05 10:00;METAR CYQM 051000Z 08006KT 15SM OVC015 04/02 A2998 RMK SC8 SLP155=
CYQM;2005-11-05 10:16;SPECI CYQM 051016Z 07004KT 15SM OVC013 04/ RMK SC8=
CYQM;2005-11-05 11:00;METAR CYQM 051100Z 05003KT 15SM OVC015 04/02 A2999 RMK SC8 SLP158=
CYQM;2005-11-05 12:00;METAR CYQM 051200Z 09003KT 15SM BKN015 OVC040 04/03 A3000 RMK SC7SC1 SLP161=
CYQM;2005-11-05 13:00;METAR CYQM 051300Z 11002KT 15SM BKN015 OVC040 05/03 A3000 RMK SC7SC1 SLP164=
CYQM;2005-11-05 14:00;METAR CYQM 051400Z 19002KT 15SM OVC017 06/03 A3000 RMK SC8 SLP164=
CYQM;2005-11-05 15:00;METAR CYQM 051500Z 23003KT 15SM BKN017 OVC045 06/04 A3000 RMK SC7SC1 SLP164=
CYQM;2005-11-05 16:00;METAR CYQM 051600Z 22007KT 15SM BKN020 OVC045 07/05 A3001 RMK SC7SC1 SLP165=
CYQM;2005-11-05 17:00;METAR CYQM 051700Z 23006KT 15SM OVC020 08/06 A3000 RMK SC8 SLP163=
CYQM;2005-11-05 18:00;METAR CYQM 051800Z 22008KT 15SM BKN025 09/06 A3001 RMK SC7 SLP165=
CYQM;2005-11-05 19:00;METAR CYQM 051900Z 23007KT 15SM OVC025 10/07 A3003 RMK SC8 SLP171=
CYQM;2005-11-05 21:00;METAR CYQM 052100Z 29004KT 8SM BKN025 OVC250 09/07 A3006 RMK SC7CI1 SLP181=
CYQM;2005-11-05 21:52;SPECI CYQM 052152Z 04006KT 10SM BKN015 OVC025 08/ RMK SC6SC2=
CYQM;2005-11-05 22:00;METAR CYQM 052200Z 06006KT 10SM BKN015 OVC025 08/06 A3007 RMK SC6SC2 SLP185=
CYQM;2005-11-05 22:14;SPECI CYQM 052214Z 07006KT 10SM BKN013 OVC020 07/ RMK SC6SC2=
CYQM;2005-11-05 23:00;METAR CYQM 052300Z 08006KT 10SM BKN012 OVC020 07/06 A3006 RMK SC6SC2 SLP182=
CYQM;2005-11-06 00:00;METAR CYQM 060000Z 02005KT 10SM BKN013 OVC020 07/06 A3009 RMK SC6SC2 SLP192=
CYQM;2005-11-06 00:49;SPECI CYQM 060049Z 04005KT 10SM BKN006 OVC012 07/ RMK SF5SC3=
CYQM;2005-11-06 01:45;SPECI CYQM 060145Z 36010KT 8SM OVC004 06/ RMK SF8=
CYQM;2005-11-06 03:12;SPECI CYQM 060312Z 03003KT 10SM BKN006 OVC010 06/ RMK SF6SC2=
CYQM;2005-11-06 04:00;METAR CYQM 060400Z 36004KT 10SM BKN005 OVC010 06/05 A3015 RMK SF6SC2 SLP212=
CYQM;2005-11-06 05:00;METAR CYQM 060500Z 01005KT 10SM BKN004 OVC008 05/05 A3015 RMK SF6SF2 SLP214=
CYQM;2005-11-06 05:29;SPECI CYQM 060529Z 02005KT 10SM BKN002 OVC006 05/ RMK SF6SF2=
CYQM;2005-11-06 06:00;METAR CYQM 060600Z 01005KT 3SM BR BKN002 OVC006 05/05 A3014 RMK SF6SF2 SLP210=
CYQM;2005-11-06 06:23;SPECI CYQM 060623Z 36005KT 2 1/2SM BR BKN002 OVC006 05/ RMK SF6SF2=
CYQM;2005-11-06 06:44;SPECI CYQM 060644Z 35005KT 2 1/2SM BR BKN001 OVC005 05/ RMK SF6SF2=
CYQM;2005-11-06 07:31;SPECI CYQM 060731Z 35004KT 1SM R29/P6000FT/D BR BKN001 OVC005 05/ RMK SF6SF2=
CYQM;2005-11-06 07:45;SPECI CYQM 060745Z 35006KT 3/4SM R29/P6000FT/D BR VV001 05/ RMK FG8=
CYQM;2005-11-06 08:52;SPECI CYQM 060852Z 36005KT 1SM R29/P6000FT/N BR VV001 05/ RMK FG8=
CYQM;2005-11-06 08:56;SPECI CYQM 060856Z 35005KT 1SM R29/P6000FT/D -DZ BR VV001 05/ RMK FG8=
CYQM;2005-11-06 09:00;METAR CYQM 060900Z 35007KT 1SM R29/P6000FT/D -DZ BR BKN001 OVC004 06/06 A3020 RMK SF6SF2 SLP230=
CYQM;2005-11-06 09:25;SPECI CYQM 060925Z 05006KT 1 1/2SM -DZ BR BKN002 OVC004 06/ RMK SF6SF2=
CYQM;2005-11-06 10:00;METAR CYQM 061000Z 05009G15KT 2SM -DZ BR OVC002 06/06 A3020 RMK ST8 SLP230=
CYQM;2005-11-06 10:22;SPECI CYQM 061022Z 04007KT 1 1/2SM -DZ BR OVC001 06/ RMK ST8=
CYQM;2005-11-06 10:40;SPECI CYQM 061040Z 04011KT 1 1/2SM -DZ BR OVC002 06/ RMK ST8=
CYQM;2005-11-06 11:00;METAR CYQM 061100Z 04011KT 1 1/2SM -DZ BR OVC002 06/06 A3024 RMK ST8 SLP244=
CYQM;2005-11-06 11:12;SPECI CYQM 061112Z 03010KT 1 1/4SM -DZ BR OVC002 06/ RMK ST8=
CYQM;2005-11-06 11:39;SPECI CYQM 061139Z 04011G18KT 1 1/2SM -DZ BR OVC003 06/ RMK ST8=
CYQM;2005-11-06 12:00;METAR CYQM 061200Z 05009G15KT 1 1/2SM -DZ BR OVC003 06/05 A3027 RMK ST8 SLP253=
CYQM;2005-11-06 12:44;SPECI CYQM 061244Z 04012G17KT 1 1/2SM -DZ BR BKN004 OVC040 06/ RMK SF7SC1=
CYQM;2005-11-06 13:00;METAR CYQM 061300Z 05009G17KT 1 1/2SM -DZ BR BKN004 OVC040 06/05 A3028 RMK SF7SC1 SLP256=
CYQM;2005-11-06 14:00;METAR CYQM 061400Z 05011G17KT 1 1/2SM -DZ BR BKN004 OVC040 05/05 A3029 RMK SF7SC1 SLP259=
CYQM;2005-11-06 14:29;SPECI CYQM 061429Z 05012G17KT 1 1/4SM -DZ BR BKN002 OVC040 05/ RMK SF7SC1=
CYQM;2005-11-06 15:00;METAR CYQM 061500Z 05009KT 1 1/4SM -DZ BR OVC003 05/05 A3030 RMK ST8 SLP263=
CYQM;2005-11-06 15:36;SPECI CYQM 061536Z 05010KT 2SM -DZ BR OVC003 05/ RMK SF8=
CYQM;2005-11-06 16:00;METAR CYQM 061600Z 06010G15KT 3SM -DZ BR BKN005 OVC040 05/05 A3029 RMK SF7SC1 VIS N 6 CIG RAG SLP260=
CYQM;2005-11-06 16:25;SPECI CYQM 061625Z 05010G15KT 6SM BR BKN005 OVC040 06/ RMK SF7SC1=
CYQM;2005-11-06 17:00;METAR CYQM 061700Z 05011KT 4SM BR BKN004 OVC035 06/05 A3029 RMK SF7SC1 SLP260=
CYQM;2005-11-06 18:00;METAR CYQM 061800Z 05012KT 6SM BR BKN005 OVC035 05/05 A3028 RMK SF7SC1 SLP258=
CYQM;2005-11-06 18:24;SPECI CYQM 061824Z 05011KT 12SM OVC009 06/ RMK SC8=
CYQM;2005-11-06 20:00;METAR CYQM 062000Z 06008KT 15SM OVC010 06/04 A3027 RMK SC8 SLP254=
CYQM;2005-11-06 21:00;METAR CYQM 062100Z 07013KT 15SM BKN011 OVC030 06/04 A3025 RMK SC7SC1 SLP245=
CYQM;2005-11-06 22:00;METAR CYQM 062200Z 08012KT 15SM OVC010 06/04 A3023 RMK SC8 SLP240=
CYQM;2005-11-06 22:13;SPECI CYQM 062213Z 07012KT 15SM OVC009 05/ RMK SC8=
CYQM;2005-11-06 23:50;SPECI CYQM 062350Z 09010KT 15SM OVC004 06/ RMK SF8=
CYQM;2005-11-07 00:00;METAR CYQM 070000Z 08012KT 15SM OVC004 06/05 A3019 RMK SF8 SLP228=
CYQM;2005-11-07 00:12;SPECI CYQM 070012Z 09010KT 6SM BR OVC003 06/ RMK SF8=
CYQM;2005-11-07 00:28;SPECI CYQM 070028Z 09014KT 3SM -DZ BR OVC002 06/ RMK SF8=
CYQM;2005-11-07 00:31;SPECI CYQM 070031Z 09012G18KT 2SM -DZ BR OVC002 06/ RMK SF8=
CYQM;2005-11-07 01:00;METAR CYQM 070100Z 09011KT 3SM -DZ BR OVC002 07/06 A3016 RMK SF8 SLP215=
CYQM;2005-11-07 01:44;SPECI CYQM 070144Z 09011G16KT 2 1/2SM -DZ BR OVC002 07/ RMK SF8=
CYQM;2005-11-07 02:00;METAR CYQM 070200Z 09013KT 2SM -DZ BR OVC002 07/07 A3012 RMK SF8 SLP202=
CYQM;2005-11-07 02:15;SPECI CYQM 070215Z 10010G18KT 4SM -DZ BR OVC002 07/ RMK SF8=
CYQM;2005-11-07 02:54;SPECI CYQM 070254Z 11014KT 6SM BR BKN003 OVC008 08/ RMK SF6SF2=
CYQM;2005-11-07 03:00;METAR CYQM 070300Z 11012G17KT 6SM BR BKN003 OVC008 08/08 A3008 RMK SF6SF2 SLP189=
CYQM;2005-11-07 03:26;SPECI CYQM 070326Z 10011KT 6SM BR BKN004 OVC008 08/ RMK SF6SF2=
CYQM;2005-11-07 03:45;SPECI CYQM 070345Z 12008KT 8SM -DZ BKN005 OVC008 08/ RMK SF6SF2=
CYQM;2005-11-07 04:00;METAR CYQM 070400Z 12009G17KT 8SM -DZ BKN005 OVC008 08/08 A3006 RMK SF6SF2 SLP181=
CYQM;2005-11-07 05:00;METAR CYQM 070500Z 14022G29KT 10SM -DZ BKN005 OVC008 09/08 A2997 RMK SF6SF2 PRESFR SLP153=
CYQM;2005-11-07 05:50;SPECI CYQM 070550Z 14016KT 10SM BKN006 OVC008 09/ RMK SF6SF2=
CYQM;2005-11-07 06:00;METAR CYQM 070600Z 14015G20KT 12SM OVC005 09/08 A2995 RMK SF8 SLP145=
CYQM;2005-11-07 06:49;SPECI CYQM 070649Z 13016G26KT 12SM -SHRA OVC005 10/ RMK SF8=
CYQM;2005-11-07 07:00;METAR CYQM 070700Z 14014G25KT 12SM -SHRA OVC005 10/09 A2990 RMK SF8 SLP128=
CYQM;2005-11-07 07:25;SPECI CYQM 070725Z 13019G28KT 12SM OVC005 09/ RMK SF8=
CYQM;2005-11-07 08:54;SPECI CYQM 070854Z 14018KT 10SM -SHRA OVC005 11/ RMK SF8=
CYQM;2005-11-07 09:00;METAR CYQM 070900Z 14017G26KT 10SM -SHRA OVC005 11/10 A2981 RMK SF8 SLP095=
CYQM;2005-11-07 09:31;SPECI CYQM 070931Z 14015G20KT 15SM -SHRA SCT005 OVC025 11/ RMK SF4SC4=
CYQM;2005-11-07 09:54;SPECI CYQM 070954Z 14012G18KT 8SM -SHRA SCT004 BKN007 OVC023 12/ RMK SF3SF2SC2=
CYQM;2005-11-07 10:00;METAR CYQM 071000Z 14015KT 7SM -SHRA SCT004 BKN007 OVC023 12/11 A2975 RMK SF3SF3SC2 SLP077=
CYQM;2005-11-07 11:00;METAR CYQM 071100Z 14014KT 12SM -SHRA FEW005 BKN025 BKN040 OVC100 12/12 A2971 RERA RMK SF2SC3SC2AC1 SLP062=
CYQM;2005-11-07 11:24;SPECI CYQM 071124Z 14014G20KT 15SM FEW005 BKN030 BKN100 OVC260 13/ RMK SF2SC2AC2CI1=
CYQM;2005-11-07 11:40;SPECI CYQM 071140Z 18012KT 15SM BKN008 BKN100 13/ RMK SF5AC2=
CYQM;2005-11-07 11:48;SPECI CYQM 071148Z 17017KT 15SM FEW005 BKN011 OVC100 14/ RMK SF2SC6AC1 BLN ESTD=
CYQM;2005-11-07 12:00;METAR CYQM 071200Z 18012G18KT 15SM FEW005 BKN011 OVC100 14/13 A2970 RMK SF2SC5AC1 BLN ESTD SLP061=
CYQM;2005-11-07 12:36;SPECI CYQM 071236Z 18013G20KT 15SM FEW006 FEW012 BKN260 13/ RMK SF1SC2CI2=
CYQM;2005-11-07 13:00;METAR CYQM 071300Z 20011G16KT 15SM BKN012 BKN120 BKN260 13/11 A2969 RMK CF5AC1CI1 SLP055=
CYQM;2005-11-07 13:17;SPECI CYQM 071317Z 21015G21KT 15SM FEW012 SCT260 14/ RMK CF2CI1=
CYQM;2005-11-07 13:37;SPECI CYQM 071337Z 21015G25KT 15SM BKN015 BKN260 14/ RMK CU6CI1=
CYQM;2005-11-07 14:00;METAR CYQM 071400Z 21019G30KT 15SM BKN015 BKN260 13/10 A2967 RMK SC6CI1 SLP051=
CYQM;2005-11-07 16:00;METAR CYQM 071600Z 23016G27KT 15SM BKN025 BKN260 13/08 A2965 RMK CU5CI1 SLP043=
CYQM;2005-11-07 18:00;METAR CYQM 071800Z 25021G29KT 15SM BKN032 14/05 A2962 RMK CU6 SLP032=
CYQM;2005-11-07 20:00;METAR CYQM 072000Z 23016G21KT 15SM FEW030 FEW040 BKN260 12/02 A2960 RMK CU1SC2CI2 SHS N SLP026=
CYQM;2005-11-07 21:00;METAR CYQM 072100Z 23012G18KT 15SM FEW027 BKN035 10/01 A2961 RMK CU2SC4 SHS S-SW SLP027=
CYQM;2005-11-07 23:00;METAR CYQM 072300Z 27026G37KT 15SM BKN050 08/M01 A2964 RMK SC6 SLP038=
CYQM;2005-11-08 00:00;METAR CYQM 080000Z 25018G27KT 15SM BKN050 07/M01 A2963 RMK SC7 SLP035=
CYQM;2005-11-08 01:00;METAR CYQM 080100Z 26024G38KT 15SM OVC050 06/M03 A2964 RMK SC8 SLP041=
CYQM;2005-11-08 03:00;METAR CYQM 080300Z 25016G27KT 15SM SCT050 04/M04 A2966 RMK SC3 SLP046=
CYQM;2005-11-08 04:00;METAR CYQM 080400Z 24021G35KT 15SM BKN050 05/M04 A2965 RMK SC6 SLP044=
CYQM;2005-11-08 05:00;METAR CYQM 080500Z 24022G31KT 15SM BKN050 05/M05 A2965 RMK SC6 SLP044=
CYQM;2005-11-08 06:00;METAR CYQM 080600Z 25020G30KT 15SM BKN050 04/M05 A2966 RMK SC5 SLP045=
CYQM;2005-11-08 07:00;METAR CYQM 080700Z 24016G24KT 15SM BKN050 03/M04 A2965 RMK SC5 SLP044=
CYQM;2005-11-08 08:00;METAR CYQM 080800Z 24012G19KT 15SM FEW050 02/M04 A2966 RMK SC1 SLP046=
CYQM;2005-11-08 10:00;METAR CYQM 081000Z 24018KT 15SM FEW050 02/M05 A2965 RMK SC1 SLP044=
CYQM;2005-11-08 11:00;METAR CYQM 081100Z 25023G32KT 15SM FEW050 02/M05 A2966 RMK SC1 SLP045=
CYQM;2005-11-08 12:00;METAR CYQM 081200Z 25022G28KT 15SM FEW050 02/M05 A2968 RMK SC1 SLP054=
CYQM;2005-11-08 13:00;METAR CYQM 081300Z 25021G28KT 15SM FEW025 FEW050 03/M06 A2969 RMK CU1SC1 SLP056=
CYQM;2005-11-08 15:00;METAR CYQM 081500Z 24026G31KT 15SM FEW030 FEW240 05/M06 A2969 RMK CU1CI1 SLP056=
CYQM;2005-11-08 16:00;METAR CYQM 081600Z 25022G28KT 15SM FEW030 FEW240 05/M06 A2967 RMK CU2CI1 SLP052=
CYQM;2005-11-08 17:00;METAR CYQM 081700Z 27022G27KT 15SM BKN035 06/M06 A2967 RMK CU5 SLP052=
CYQM;2005-11-08 18:00;METAR CYQM 081800Z 26023G31KT 15SM BKN040 06/M06 A2969 RMK CU5 SLP056=
CYQM;2005-11-08 19:00;METAR CYQM 081900Z 28022G29KT 15SM BKN040 05/M06 A2971 RMK SC6 SHS DISTN SLP064=
CYQM;2005-11-08 20:00;METAR CYQM 082000Z 27016G22KT 15SM BKN035 05/M06 A2973 RMK SC7 SHS DIST N SLP072=
CYQM;2005-11-08 21:00;METAR CYQM 082100Z 29015G20KT 15SM BKN035 04/M06 A2977 RMK SC6 SHS N SLP084=
CYQM;2005-11-08 22:00;METAR CYQM 082200Z 27014KT 15SM BKN040 03/M07 A2980 RMK SC5 SLP095=
CYQM;2005-11-08 23:00;METAR CYQM 082300Z 26012G17KT 15SM BKN050 03/M06 A2983 RMK SC6 SLP103=
CYQM;2005-11-08 23:20;SPECI CYQM 082320Z 25010KT 15SM BKN050 02/ RMK SC6=
CYQM;2005-11-09 00:00;METAR CYQM 090000Z 26011G16KT 15SM BKN050 02/M07 A2983 RMK SC5 SLP106=
CYQM;2005-11-09 01:00;METAR CYQM 090100Z 26015G21KT 15SM BKN050 02/M06 A2985 RMK SC6 SLP113=
CYQM;2005-11-09 02:00;METAR CYQM 090200Z 27012G22KT 15SM SCT050 01/M05 A2987 RMK SC3 SLP118=
CYQM;2005-11-09 03:00;METAR CYQM 090300Z 25015KT 15SM SKC 00/M05 A2988 RMK SLP122=
CYQM;2005-11-09 04:00;METAR CYQM 090400Z 26014G19KT 15SM SKC M00/M05 A2990 RMK SLP129=
CYQM;2005-11-09 05:00;METAR CYQM 090500Z 26014KT 15SM SKC M01/M06 A2992 RMK SLP136=
CYQM;2005-11-09 07:00;METAR CYQM 090700Z 27014G19KT 15SM OVC025 00/M05 A2997 RMK SC8 SLP154=
CYQM;2005-11-09 08:00;METAR CYQM 090800Z 29011G17KT 15SM OVC025 00/M04 A3000 RMK SC8 SLP163=
CYQM;2005-11-09 08:27;SPECI CYQM 090827Z 29010G16KT 15SM -SHSN OVC025 01/ RMK SC8=
CYQM;2005-11-09 09:19;SPECI CYQM 090919Z 30010G17KT 15SM BKN025 00/ RMK SC6=
CYQM;2005-11-09 10:00;METAR CYQM 091000Z 28012G17KT 15SM BKN025 00/M03 A3006 RMK SC6 SLP182=
CYQM;2005-11-09 11:00;METAR CYQM 091100Z 30011G16KT 15SM BKN025 M00/M03 A3010 RMK SC5 SLP195=
CYQM;2005-11-09 12:00;METAR CYQM 091200Z 28007KT 15SM BKN025 M00/M03 A3014 RMK SC5 SLP211=
CYQM;2005-11-09 13:00;METAR CYQM 091300Z 29006KT 15SM BKN025 00/M02 A3015 RMK SC6 SLP215=
CYQM;2005-11-09 13:39;SPECI CYQM 091339Z 33008KT 12SM -SHSN BKN020 01/ RMK SC6=
CYQM;2005-11-09 14:00;METAR CYQM 091400Z 31007KT 12SM -SHSN BKN020 01/M00 A3017 RMK SC6 SLP220=
CYQM;2005-11-09 15:16;SPECI CYQM 091516Z 32005KT 12SM VCSH BKN017 03/ RMK SC6=
CYQM;2005-11-09 15:34;SPECI CYQM 091534Z 29005KT 8SM -SHSN BKN017 03/ RMK SC6=
CYQM;2005-11-09 15:39;SPECI CYQM 091539Z 33005KT 8SM -SHRA BKN017 03/ RMK SC6=
CYQM;2005-11-09 16:00;METAR CYQM 091600Z 34009G15KT 12SM VCSH FEW015 BKN025 03/01 A3022 RMK SC2SC3 SLP237=
CYQM;2005-11-09 17:00;METAR CYQM 091700Z 02007KT 12SM VCSH SCT015 BKN025 04/01 A3020 RMK CU3SC2 SLP231=
CYQM;2005-11-09 18:00;METAR CYQM 091800Z 02008KT 15SM SCT015 BKN025 03/01 A3019 RMK CU3SC2 TCU ASOCTD SLP227=
CYQM;2005-11-09 18:30;SPECI CYQM 091830Z 01010G16KT 12SM -SHRA SCT015 BKN025 04/ RMK CU3SC4 TCU ASOCTD=
CYQM;2005-11-09 20:00;METAR CYQM 092000Z 05006KT 15SM VCSH FEW015 BKN030 03/01 A3019 RMK CU2SC5 SLP229=
CYQM;2005-11-09 20:18;SPECI CYQM 092018Z 06006KT 15SM -SHRA SCT035 SCT250 02/ RMK SC3CI0=
CYQM;2005-11-09 20:45;SPECI CYQM 092045Z 04007KT 15SM SCT035 BKN250 02/ RMK SC3CI1=
CYQM;2005-11-09 21:00;METAR CYQM 092100Z 05005KT 15SM SCT035 BKN250 01/00 A3018 RMK SC3CI1 SLP225=
CYQM;2005-11-09 22:00;METAR CYQM 092200Z 07005KT 15SM BKN035 BKN150 BKN250 01/00 A3019 RMK SC5AC2CI0 SLP227=
CYQM;2005-11-09 23:00;METAR CYQM 092300Z 09006KT 15SM BKN038 BKN250 01/00 A3018 RMK SC6CI0 SLP223=
CYQM;2005-11-10 00:00;METAR CYQM 100000Z 11005KT 15SM BKN038 01/M00 A3017 RMK SC7 SLP219=
CYQM;2005-11-10 01:00;METAR CYQM 100100Z 10008KT 15SM OVC036 01/00 A3016 RMK SC8 SLP218=
CYQM;2005-11-10 02:00;METAR CYQM 100200Z 11007KT 15SM OVC036 02/00 A3012 RMK SC8 SLP204=
CYQM;2005-11-10 04:00;METAR CYQM 100400Z 12005KT 15SM FEW035 FEW150 BKN220 02/00 A3007 RMK SC2AC1CI5 SLP185=
CYQM;2005-11-10 05:00;METAR CYQM 100500Z 11006KT 15SM BKN036 BKN220 02/00 A3002 RMK SC6CI1 SLP168=
CYQM;2005-11-10 06:00;METAR CYQM 100600Z 13014G19KT 15SM -SHRA OVC032 03/01 A2997 RMK SC8 SLP152=
CYQM;2005-11-10 07:22;SPECI CYQM 100722Z 09015KT 8SM -SHRA OVC032 02/ RMK SC8=
CYQM;2005-11-10 09:00;METAR CYQM 100900Z 12012G24KT 15SM -SHRA BKN009 OVC017 04/03 A2972 RMK SC5SC3 PRESFR SLP066=
CYQM;2005-11-10 11:00;METAR CYQM 101100Z 14017G28KT 12SM -SHRA BKN008 OVC017 OVC035 06/05 A2957 RMK SF5SC2SC2 PRESFR SLP018=
CYQM;2005-11-10 12:00;METAR CYQM 101200Z 14031G40KT 12SM -SHRA BKN008 OVC017 OVC035 07/06 A2952 RMK SF5SC2SC2 SLP999=
CYQM;2005-11-10 12:51;SPECI CYQM 101251Z 14023G34KT 12SM -SHRA FEW008 BKN013 OVC040 08/ RMK SF2SC4SC2=
CYQM;2005-11-10 13:00;METAR CYQM 101300Z 15023G34KT 12SM -SHRA FEW008 BKN013 OVC040 08/08 A2948 RMK SF2SC4SC2 SLP984=
CYQM;2005-11-10 14:00;METAR CYQM 101400Z 15020G29KT 5SM -SHRA BR SCT008 OVC012 10/09 A2945 RMK SF4SC4 SLP975=
CYQM;2005-11-10 15:00;METAR CYQM 101500Z 15019G30KT 10SM -SHRA FEW008 OVC014 11/11 A2941 RMK SF2SC6 SLP961=
CYQM;2005-11-10 15:49;SPECI CYQM 101549Z 17015G25KT 10SM SCT007 OVC014 13/ RMK SF4SC4=
CYQM;2005-11-10 16:00;METAR CYQM 101600Z 17014G22KT 10SM SCT007 OVC014 13/12 A2942 RMK SF3SC5 SLP964=
CYQM;2005-11-10 16:25;SPECI CYQM 101625Z 20020G26KT 10SM -SHRA SCT007 OVC014 13/ RMK SF3SC5=
CYQM;2005-11-10 17:00;METAR CYQM 101700Z 18014G26KT 10SM -RA FEW007 BKN014 OVC040 14/13 A2940 RMK SF2SC3SC2 SLP958=
CYQM;2005-11-10 18:00;METAR CYQM 101800Z 18007KT 10SM -RA FEW007 BKN012 OVC040 13/13 A2938 RMK SF2SC3SC2 SLP950=
CYQM;2005-11-10 19:00;METAR CYQM 101900Z 25010G19KT 3SM -RA BR BKN007 OVC012 10/09 A2940 RMK SF5SC3 SLP958=
CYQM;2005-11-10 20:00;METAR CYQM 102000Z 25014G19KT 4SM -RA BR BKN007 OVC012 08/08 A2943 RMK SF5SC3 SLP967=
CYQM;2005-11-10 20:32;SPECI CYQM 102032Z 26008KT 6SM -RA BR SCT007 BKN012 OVC040 07/ RMK SF3SC3SC2=
CYQM;2005-11-10 21:00;METAR CYQM 102100Z 26009KT 10SM -RA SCT007 BKN014 OVC040 06/05 A2945 RMK SF3SC3SC2 SLP974=
CYQM;2005-11-10 21:41;SPECI CYQM 102141Z 25009KT 12SM -RA FEW007 SCT014 OVC032 06/ RMK SF2SC2SC5=
CYQM;2005-11-10 22:00;METAR CYQM 102200Z 25007KT 12SM -RA FEW007 BKN032 OVC140 06/06 A2946 RMK SF2SC6AC1 SLP979=
CYQM;2005-11-10 23:00;METAR CYQM 102300Z 25009KT 12SM -RA FEW005 OVC038 06/05 A2948 RMK SF2SC6 SLP986=
CYQM;2005-11-11 00:00;METAR CYQM 110000Z 22005KT 12SM -RA SCT005 OVC038 06/05 A2950 RMK SF3SC5 /R10/ SLP991=
CYQM;2005-11-11 01:28;SPECI CYQM 110128Z 23008KT 15SM FEW007 BKN045 05/ RMK SF2SC6=
CYQM;2005-11-11 02:00;METAR CYQM 110200Z 22007KT 15SM FEW010 OVC050 05/05 A2950 RMK SC1SC7 SLP993=
CYQM;2005-11-11 03:00;METAR CYQM 110300Z 22005KT 15SM FEW010 BKN050 05/05 A2950 RMK SF1SC6 SLP992=
CYQM;2005-11-11 04:00;METAR CYQM 110400Z 24009KT 15SM FEW012 BKN070 BKN150 05/04 A2950 RMK CF1AC6AC1 SLP992=
CYQM;2005-11-11 05:00;METAR CYQM 110500Z 24006KT 15SM BKN012 BKN070 04/03 A2950 RMK SC6AC2 SLP993=
CYQM;2005-11-11 05:21;SPECI CYQM 110521Z 22003KT 15SM SCT012 BKN070 03/ RMK SC4AC2=
CYQM;2005-11-11 07:00;METAR CYQM 110700Z 23010KT 15SM SCT007 BKN060 03/02 A2952 RMK SF3SC3 SLP998=
CYQM;2005-11-11 08:18;SPECI CYQM 110818Z 25013G20KT 15SM FEW008 BKN070 02/ RMK CF2AC5=
CYQM;2005-11-11 09:00;METAR CYQM 110900Z 25017KT 15SM FEW010 BKN070 02/01 A2955 RMK CF1AC6 SLP008=
CYQM;2005-11-11 10:00;METAR CYQM 111000Z 25014KT 15SM FEW010 BKN070 01/00 A2957 RMK CF1AC6 SLP015=
CYQM;2005-11-11 11:00;METAR CYQM 111100Z 25011KT 15SM FEW010 SCT015 BKN070 01/M00 A2959 RMK CF1SC3AC3 SLP024=
CYQM;2005-11-11 11:27;SPECI CYQM 111127Z 25009G15KT 15SM SCT005 BKN015 BKN070 01/ RMK SF3SC2AC2=
CYQM;2005-11-11 12:00;METAR CYQM 111200Z 25007KT 15SM FEW005 BKN015 BKN070 01/M01 A2963 RMK SF2SC4AC2 SLP037=
CYQM;2005-11-11 13:00;METAR CYQM 111300Z 26012G18KT 15SM FEW005 BKN015 BKN070 01/M01 A2966 RMK SF2SC3AC2 SLP047=
CYQM;2005-11-11 15:00;METAR CYQM 111500Z 29013KT 15SM BKN015 03/M02 A2968 RMK CU5 SLP055=
CYQM;2005-11-11 15:39;SPECI CYQM 111539Z 27015KT 15SM BKN020 02/ RMK CU6=
CYQM;2005-11-11 16:00;METAR CYQM 111600Z 25017KT 15SM BKN020 02/M04 A2968 RMK CU6 SLP054=
CYQM;2005-11-11 17:00;METAR CYQM 111700Z 27016KT 15SM BKN025 03/M04 A2968 RMK CU6 SLP055=
CYQM;2005-11-11 18:00;METAR CYQM 111800Z 26015KT 15SM BKN025 04/M04 A2969 RMK CU5 SLP057=
CYQM;2005-11-11 18:27;SPECI CYQM 111827Z 25013G18KT 15SM BKN025 02/ RMK CU5=
CYQM;2005-11-11 19:00;METAR CYQM 111900Z 27012KT 15SM BKN025 02/M05 A2971 RMK CU6 SLP063=
CYQM;2005-11-11 21:00;METAR CYQM 112100Z 25008KT 15SM FEW025 BKN035 01/M06 A2974 RMK CU1SC4 SLP075=
CYQM;2005-11-11 22:00;METAR CYQM 112200Z 23007KT 15SM FEW030 BKN050 01/M05 A2978 RMK CU1SC6 SHS SW SLP086=
CYQM;2005-11-11 23:00;METAR CYQM 112300Z 25008KT 15SM BKN050 01/M05 A2979 RMK SC6 SLP092=
CYQM;2005-11-12 00:00;METAR CYQM 120000Z 22008KT 15SM FEW050 00/M05 A2981 RMK SC2 SLP099=
CYQM;2005-11-12 01:00;METAR CYQM 120100Z 24006KT 15SM FEW050 M01/M05 A2983 RMK SC2 SLP106=
CYQM;2005-11-12 02:00;METAR CYQM 120200Z 24010KT 15SM SKC M01/M05 A2984 RMK SLP108=
CYQM;2005-11-12 03:00;METAR CYQM 120300Z 23008KT 15SM SKC M02/M05 A2984 RMK SLP109=
CYQM;2005-11-12 04:00;METAR CYQM 120400Z 23012KT 15SM SKC M02/M05 A2986 RMK SLP114=
CYQM;2005-11-12 05:00;METAR CYQM 120500Z 23009KT 15SM FEW100 M03/M05 A2987 RMK AC1 SLP118=
CYQM;2005-11-12 06:00;METAR CYQM 120600Z 24011KT 15SM FEW050 M03/M05 A2989 RMK SC1 SLP125=
CYQM;2005-11-12 08:00;METAR CYQM 120800Z 25008KT 15SM OVC040 M02/M05 A2992 RMK SC8 SLP134=
CYQM;2005-11-12 09:00;METAR CYQM 120900Z 25008KT 15SM OVC029 M02/M05 A2993 RMK SC8 SLP139=
CYQM;2005-11-12 10:00;METAR CYQM 121000Z 26006KT 15SM OVC030 M02/M05 A2995 RMK SC8 SLP144=
CYQM;2005-11-12 11:00;METAR CYQM 121100Z 27009KT 15SM FEW012 BKN030 M01/M05 A2997 RMK CF1SC7 SLP152=
CYQM;2005-11-12 12:00;METAR CYQM 121200Z 29009KT 15SM FEW015 BKN030 M01/M06 A3000 RMK CF1SC7 SLP162=
CYQM;2005-11-12 13:00;METAR CYQM 121300Z 28008KT 15SM FEW015 BKN030 M01/M06 A3001 RMK CF1SC7 SLP168=
CYQM;2005-11-12 14:00;METAR CYQM 121400Z 29011KT 15SM FEW020 BKN030 BKN080 M00/M06 A3003 RMK CF1SC6AC1 SLP172=
CYQM;2005-11-12 15:00;METAR CYQM 121500Z 29012KT 15SM BKN025 01/M06 A3003 RMK SC7 SLP174=
CYQM;2005-11-12 16:00;METAR CYQM 121600Z 28011KT 15SM OVC030 01/M06 A3003 RMK SC8 SLP173=
CYQM;2005-11-12 17:00;METAR CYQM 121700Z 29008KT 15SM OVC030 01/M06 A3003 RMK SC8 SLP175=
CYQM;2005-11-12 20:00;METAR CYQM 122000Z 30007KT 15SM BKN030 02/M06 A3010 RMK SC6 SLP198=
CYQM;2005-11-12 21:00;METAR CYQM 122100Z 26005KT 15SM SCT030 01/M06 A3013 RMK SC4 SLP207=
CYQM;2005-11-12 22:00;METAR CYQM 122200Z 24006KT 15SM BKN040 00/M06 A3014 RMK SC6 SLP212=
CYQM;2005-11-12 23:00;METAR CYQM 122300Z 22006KT 15SM FEW040 M01/M05 A3016 RMK SC2 SLP217=
CYQM;2005-11-13 00:00;METAR CYQM 130000Z 24006KT 15SM FEW040 M02/M05 A3018 RMK SC1 SLP225=
CYQM;2005-11-13 01:00;METAR CYQM 130100Z 24007KT 15SM FEW040 M03/M06 A3020 RMK SC1 SLP231=
CYQM;2005-11-13 02:00;METAR CYQM 130200Z 22007KT 15SM SKC M03/M06 A3021 RMK SLP233=
CYQM;2005-11-13 03:00;METAR CYQM 130300Z 23008KT 15SM SKC M03/M06 A3022 RMK SLP238=
CYQM;2005-11-13 04:00;METAR CYQM 130400Z 23008KT 15SM SKC M03/M06 A3023 RMK SLP242=
CYQM;2005-11-13 05:00;METAR CYQM 130500Z 23006KT 15SM FEW040 M04/M06 A3024 RMK SC1 SLP244=
CYQM;2005-11-13 06:00;METAR CYQM 130600Z 24006KT 15SM FEW040 M04/M06 A3025 RMK SC1 SLP248=
CYQM;2005-11-13 07:00;METAR CYQM 130700Z 24005KT 15SM FEW040 M04/M06 A3027 RMK SC1 SLP253=
CYQM;2005-11-13 08:00;METAR CYQM 130800Z 22006KT 15SM BKN070 M05/M06 A3028 RMK AC6 SLP257=
CYQM;2005-11-13 10:00;METAR CYQM 131000Z 21006KT 15SM FEW100 M04/M06 A3029 RMK AC1 SLP261=
CYQM;2005-11-13 11:00;METAR CYQM 131100Z 22005KT 15SM FEW100 M04/M05 A3031 RMK AC1 SLP268=
CYQM;2005-11-13 12:00;METAR CYQM 131200Z 21003KT 15SM FEW100 M04/M05 A3033 RMK AC1 SLP274=
CYQM;2005-11-13 13:00;METAR CYQM 131300Z 21003KT 15SM FEW100 FEW260 M02/M04 A3032 RMK AC1CI1 SLP273=
CYQM;2005-11-13 14:00;METAR CYQM 131400Z 21005KT 15SM FEW260 01/M03 A3032 RMK CI1 SLP273=
CYQM;2005-11-13 15:00;METAR CYQM 131500Z 22005KT 15SM FEW030 FEW260 04/M03 A3032 RMK SC1CI1 SLP270=
CYQM;2005-11-13 16:00;METAR CYQM 131600Z 25006KT 15SM FEW260 06/M03 A3030 RMK CI1 SLP263=
CYQM;2005-11-13 17:00;METAR CYQM 131700Z 22008KT 15SM FEW260 08/M03 A3028 RMK CI1 SLP257=
CYQM;2005-11-13 18:00;METAR CYQM 131800Z 17003KT 15SM FEW030 FEW260 09/M05 A3025 RMK SC1CI1 SLP248=
CYQM;2005-11-13 19:00;METAR CYQM 131900Z 14007KT 15SM FEW030 SCT260 09/M03 A3024 RMK SC1CI2 SLP243=
CYQM;2005-11-13 21:00;METAR CYQM 132100Z 17010KT 15SM SCT100 BKN260 07/02 A3023 RMK AC4CI2 SLP241=
CYQM;2005-11-13 23:00;METAR CYQM 132300Z 15005KT 15SM OVC120 05/02 A3020 RMK AC8 SLP231=
CYQM;2005-11-14 00:00;METAR CYQM 140000Z 17007KT 15SM OVC100 05/03 A3019 RMK AC8 SLP228=
CYQM;2005-11-14 01:00;METAR CYQM 140100Z 17008KT 15SM SCT120 OVC260 06/02 A3018 RMK AC3CS2 SLP225=
CYQM;2005-11-14 02:00;METAR CYQM 140200Z 18008KT 15SM FEW120 OVC260 06/03 A3017 RMK AC2CS2 SLP219=
CYQM;2005-11-14 03:00;METAR CYQM 140300Z 17007KT 15SM FEW120 OVC260 06/04 A3014 RMK AC2CI3 CS ASOCTD SLP211=
CYQM;2005-11-14 04:00;METAR CYQM 140400Z 18006KT 15SM FEW120 OVC240 06/04 A3013 RMK AC2CI5 CS ASOCTD SLP205=
CYQM;2005-11-14 05:00;METAR CYQM 140500Z 17007KT 15SM FEW120 OVC160 06/05 A3011 RMK AC2AS6 SLP198=
CYQM;2005-11-14 06:00;METAR CYQM 140600Z 17008KT 15SM FEW140 OVC260 07/05 A3009 RMK AC2CI3 SLP191=
CYQM;2005-11-14 07:00;METAR CYQM 140700Z 16009KT 15SM FEW100 SCT140 OVC260 07/05 A3007 RMK AC2AS2CI3 SLP186=
CYQM;2005-11-14 08:00;METAR CYQM 140800Z 18011KT 15SM SCT120 BKN260 08/06 A3006 RMK AC3CI2 SLP180=
CYQM;2005-11-14 09:00;METAR CYQM 140900Z 19010KT 15SM FEW050 BKN120 BKN260 08/06 A3004 RMK SC2AC4CI1 SLP174=
CYQM;2005-11-14 09:09;SPECI CYQM 140909Z 18010KT 15SM BKN020 OVC120 08/ RMK SC5AC3=
CYQM;2005-11-14 10:00;METAR CYQM 141000Z 17006KT 15SM BKN018 BKN120 08/06 A3003 RMK SC6AC1 SLP171=
CYQM;2005-11-14 11:00;METAR CYQM 141100Z 18006KT 12SM BKN018 OVC100 08/07 A3002 RMK SC7AC1 SLP169=
CYQM;2005-11-14 12:00;METAR CYQM 141200Z 18008KT 12SM BKN017 OVC100 09/08 A3002 RMK SC7AC1 SLP167=
CYQM;2005-11-14 12:21;SPECI CYQM 141221Z 18008KT 10SM -SHRA BKN015 OVC100 09/ RMK SC7AC1=
CYQM;2005-11-14 13:00;METAR CYQM 141300Z 18006KT 12SM SCT017 BKN100 BKN250 09/08 A3001 RMK SC3AC3CI1 SLP166=
CYQM;2005-11-14 14:00;METAR CYQM 141400Z 18008KT 12SM BKN020 BKN100 10/09 A3000 RMK SC7AC1 SLP160=
CYQM;2005-11-14 16:00;METAR CYQM 141600Z 21015KT 15SM FEW025 FEW250 15/09 A2993 RMK CU1CI1 SLP139=
CYQM;2005-11-14 19:00;METAR CYQM 141900Z 21011KT 15SM FEW030 BKN080 14/09 A2992 RMK CU1AC6 SLP132=
CYQM;2005-11-14 21:00;METAR CYQM 142100Z 27021G28KT 15SM FEW025 BKN040 12/05 A2999 RMK CF1SC6 TCU EMBD SLP157=
CYQM;2005-11-14 22:00;METAR CYQM 142200Z 26013KT 15SM FEW025 BKN050 10/02 A3003 RMK SC2SC3 SLP173=
CYQM;2005-11-14 23:00;METAR CYQM 142300Z 27018G25KT 15SM FEW040 09/M02 A3006 RMK SC2 SLP183=
CYQM;2005-11-15 00:00;METAR CYQM 150000Z 26012G18KT 15SM FEW040 08/M02 A3011 RMK SC2 SLP200=
CYQM;2005-11-15 01:00;METAR CYQM 150100Z 27012G18KT 15SM FEW040 07/M01 A3015 RMK SC2 SLP213=
CYQM;2005-11-15 03:00;METAR CYQM 150300Z 27013G20KT 15SM BKN040 05/M01 A3022 RMK SC5 SLP236=
CYQM;2005-11-15 04:00;METAR CYQM 150400Z 27013G19KT 15SM FEW040 04/M01 A3026 RMK SC2 SLP248=
CYQM;2005-11-15 05:33;SPECI CYQM 150533Z 27006KT 15SM FEW040 02/ RMK SC2=
CYQM;2005-11-15 06:00;METAR CYQM 150600Z 25006KT 15SM FEW040 02/M03 A3031 RMK SC2 SLP268=
CYQM;2005-11-15 07:00;METAR CYQM 150700Z 25008KT 15SM FEW070 00/M04 A3034 RMK AC2 SLP277=
CYQM;2005-11-15 09:00;METAR CYQM 150900Z 26013KT 15SM FEW070 00/M04 A3041 RMK AC2 SLP303=
CYQM;2005-11-15 10:00;METAR CYQM 151000Z 27010KT 15SM FEW080 M00/M04 A3043 RMK AC1 SLP309=
CYQM;2005-11-15 11:00;METAR CYQM 151100Z 26006KT 15SM FEW020 FEW080 SCT250 M02/M05 A3046 RMK CU1AC1CI1 SLP317=
CYQM;2005-11-15 12:00;METAR CYQM 151200Z 31008KT 15SM FEW020 FEW080 BKN260 M01/M06 A3045 RMK CU1AC1CI2 SLP316=
CYQM;2005-11-15 13:00;METAR CYQM 151300Z 29005KT 15SM FEW100 BKN240 01/M05 A3049 RMK AC1CI4 SLP327=
CYQM;2005-11-15 14:00;METAR CYQM 151400Z 32005KT 15SM FEW025 FEW120 BKN250 02/M05 A3050 RMK CU1AC1CI4 SLP332=
CYQM;2005-11-15 15:00;METAR CYQM 151500Z 27004KT 15SM FEW025 FEW120 BKN240 02/M05 A3049 RMK CU1AC1CI5 SLP329=
CYQM;2005-11-15 16:00;METAR CYQM 151600Z 00000KT 15SM FEW025 BKN220 03/M06 A3049 RMK CU1CI6 SLP329=
CYQM;2005-11-15 17:00;METAR CYQM 151700Z 00000KT 15SM OVC220 03/M06 A3049 RMK CI7 SLP327=
CYQM;2005-11-15 18:00;METAR CYQM 151800Z 33003KT 15SM BKN080 OVC220 03/M06 A3050 RMK AC5CI3 SLP331=
CYQM;2005-11-15 19:00;METAR CYQM 151900Z 00000KT 15SM BKN080 OVC200 03/M06 A3050 RMK AC6CI2 SLP330=
CYQM;2005-11-15 20:00;METAR CYQM 152000Z 01003KT 15SM BKN060 OVC200 02/M04 A3052 RMK SC7CI1 SLP340=
CYQM;2005-11-15 21:00;METAR CYQM 152100Z 36005KT 15SM BKN060 OVC200 01/M03 A3053 RMK SC6CI2 SLP344=
CYQM;2005-11-15 22:00;METAR CYQM 152200Z 36002KT 15SM BKN050 OVC180 01/M04 A3057 RMK SC6AC2 SLP357=
CYQM;2005-11-15 22:49;SPECI CYQM 152249Z 07004KT 12SM -SHSN BKN040 OVC120 01/ RMK SC6AC2=
CYQM;2005-11-15 23:00;METAR CYQM 152300Z 07004KT 12SM -SHSN BKN035 OVC120 00/M03 A3056 RMK SC6AC2 SLP353=
CYQM;2005-11-15 23:45;SPECI CYQM 152345Z 03006KT 2SM -SHSN BKN020 OVC050 M00/ RMK SC6SC2=
CYQM;2005-11-15 23:58;SPECI CYQM 152358Z 06004KT 1 1/4SM -SN VV010 M01/ RMK SN8=
CYQM;2005-11-16 00:00;METAR CYQM 160000Z 06003KT 1 1/4SM -SN VV010 M01/M02 A3056 RMK SN8 /S01/ SLP354=
CYQM;2005-11-16 01:00;METAR CYQM 160100Z 07005KT 1 1/4SM -SN VV010 M01/M01 A3054 RMK SN8 /S02/ SLP346=
CYQM;2005-11-16 02:00;METAR CYQM 160200Z 07004KT 1 1/4SM -SN VV010 M01/M01 A3054 RMK SN8 /S03/ SLP345=
CYQM;2005-11-16 02:13;SPECI CYQM 160213Z 07003KT 2SM -SN OVC040 M00/ RMK SN6SC2=
CYQM;2005-11-16 02:38;SPECI CYQM 160238Z 09004KT 1 1/4SM -SN VV010 M01/ RMK SN8=
CYQM;2005-11-16 02:54;SPECI CYQM 160254Z 09003KT 3/4SM R29/P6000FT/N -SN VV010 M00/ RMK SN8=
CYQM;2005-11-16 03:00;METAR CYQM 160300Z 10003KT 3/4SM R29/P6000FT/D R06/P6000FT/N -SN VV010 M00/M01 A3054 RMK SN8 SLP345=
CYQM;2005-11-16 03:39;SPECI CYQM 160339Z 08003KT 1 1/2SM -SN VV012 M00/ RMK SN8=
CYQM;2005-11-16 04:00;METAR CYQM 160400Z 09003KT 2SM -SN OVC025 M00/M01 A3053 RMK SN4SC4 SLP344=
CYQM;2005-11-16 04:28;SPECI CYQM 160428Z 09003KT 1 1/4SM -SN OVC020 M00/ RMK SN4SC4=
CYQM;2005-11-16 05:00;METAR CYQM 160500Z 09004KT 1 1/4SM -SN OVC020 M00/M00 A3052 RMK SN4SC4 /S05/ SLP341=
CYQM;2005-11-16 05:08;SPECI CYQM 160508Z 09004KT 3/4SM R29/P6000FT/U -SN VV008 M00/ RMK SN8=
CYQM;2005-11-16 05:37;SPECI CYQM 160537Z 07004KT 2SM -SN FEW008 OVC030 M00/ RMK SF2SC6=
CYQM;2005-11-16 05:46;SPECI CYQM 160546Z 08004KT 4SM -SN BKN006 OVC030 M00/ RMK SF6SC2=
CYQM;2005-11-16 06:00;METAR CYQM 160600Z 08004KT 4SM -SN BKN005 OVC012 M00/M00 A3051 RMK SF6SC2 SLP337=
CYQM;2005-11-16 06:10;SPECI CYQM 160610Z 07004KT 2 1/2SM -SN OVC004 00/ RMK SF8=
CYQM;2005-11-16 07:00;METAR CYQM 160700Z 08005KT 2SM -SN OVC004 00/M00 A3049 RMK SF8 SLP329=
CYQM;2005-11-16 07:13;SPECI CYQM 160713Z 07004KT 6SM -SN BKN004 OVC008 00/ RMK SF6SF2=
CYQM;2005-11-16 08:00;METAR CYQM 160800Z 07005KT 6SM -SN BR OVC003 00/00 A3048 RMK SF8 SLP327=
CYQM;2005-11-16 08:08;SPECI CYQM 160808Z 08005KT 6SM -RASN BR OVC003 00/ RMK SF8=
CYQM;2005-11-16 08:31;SPECI CYQM 160831Z 09007KT 6SM -DZSN BR BKN002 OVC008 00/ RMK SF6SF2=
CYQM;2005-11-16 08:52;SPECI CYQM 160852Z 09007KT 6SM -DZ BR BKN002 OVC008 00/ RMK SF6SF2=
CYQM;2005-11-16 09:00;METAR CYQM 160900Z 10007KT 6SM -DZ BR BKN002 OVC008 00/00 A3045 RMK SF6SF2 SLP316=
CYQM;2005-11-16 09:14;SPECI CYQM 160914Z 08007KT 8SM -RA BKN002 OVC008 00/ RMK SF7SF1=
CYQM;2005-11-16 09:41;SPECI CYQM 160941Z 08008KT 8SM -RA SCT002 BKN006 OVC025 01/ RMK SF3SF2SC2=
CYQM;2005-11-16 10:00;METAR CYQM 161000Z 09008KT 8SM -RA SCT004 BKN006 OVC030 01/00 A3043 RMK SF3SF3SC2 SLP310=
CYQM;2005-11-16 10:40;SPECI CYQM 161040Z 09010KT 8SM -RA BKN003 BKN006 OVC030 01/ RMK SF5SF2SC1=
CYQM;2005-11-16 10:51;SPECI CYQM 161051Z 09010KT 5SM -RADZ BR SCT003 OVC007 01/ RMK SF3SF5=
CYQM;2005-11-16 11:00;METAR CYQM 161100Z 09009KT 5SM -RADZ BR SCT003 OVC007 01/01 A3041 RMK SF3SF5 SLP304=
CYQM;2005-11-16 11:09;SPECI CYQM 161109Z 09010KT 1 3/4SM -DZRA BR BKN003 OVC007 01/ RMK SF6SF2=
CYQM;2005-11-16 11:17;SPECI CYQM 161117Z 10010KT 1 3/4SM -DZRA BR SCT003 OVC006 01/ RMK SF3SF5=
CYQM;2005-11-16 11:36;SPECI CYQM 161136Z 09011KT 3SM -RADZ BR FEW003 OVC006 01/ RMK SF2SF6=
CYQM;2005-11-16 12:00;METAR CYQM 161200Z 09010KT 5SM -RADZ BR FEW003 OVC006 01/01 A3039 RMK SF2SF6 SLP296=
CYQM;2005-11-16 12:06;SPECI CYQM 161206Z 09010KT 1 1/2SM -DZRA BR BKN002 OVC005 01/ RMK SF5SF3=
CYQM;2005-11-16 12:15;SPECI CYQM 161215Z 07009KT 1SM R29/P6000FT/D R06/4500VP6000FT/D -RADZ BR BKN002 OVC005 01/ RMK SF6SF2=
CYQM;2005-11-16 12:23;SPECI CYQM 161223Z 07010G15KT 1 1/2SM R29/5500FT/U R06/4500VP6000FT/U -RADZ BR FEW002 OVC004 01/ RMK SF2SF6=
CYQM;2005-11-16 12:49;SPECI CYQM 161249Z 08011KT 3SM -DZRA BR BKN002 OVC004 01/ RMK SF6SF2=
CYQM;2005-11-16 13:00;METAR CYQM 161300Z 08011KT 3SM -RADZ BR BKN002 OVC004 01/01 A3036 RMK SF6SF2 SLP287=
CYQM;2005-11-16 13:34;SPECI CYQM 161334Z 09008KT 5SM -RADZ BR OVC003 02/ RMK SF8=
CYQM;2005-11-16 13:50;SPECI CYQM 161350Z 09012KT 2SM -DZRA BR OVC003 02/ RMK SF8=
CYQM;2005-11-16 14:00;METAR CYQM 161400Z 10013KT 3SM -DZRA BR OVC003 02/02 A3033 RMK SF8 SLP277=
CYQM;2005-11-16 14:11;SPECI CYQM 161411Z 10015G20KT 1 3/4SM -RADZ BR OVC003 02/ RMK SF8=
CYQM;2005-11-16 14:21;SPECI CYQM 161421Z 10012G19KT 6SM -RADZ BR OVC004 02/ RMK SF8=
CYQM;2005-11-16 14:41;SPECI CYQM 161441Z 09011G20KT 10SM -DZ BKN005 OVC012 02/ RMK SF7SF1=
CYQM;2005-11-16 15:07;SPECI CYQM 161507Z 09014KT 8SM -DZ BKN003 OVC005 02/ RMK SF6SF2=
CYQM;2005-11-16 15:21;SPECI CYQM 161521Z 09014KT 4SM -RADZ BR BKN003 OVC005 03/ RMK SF6SF2=
CYQM;2005-11-16 16:00;METAR CYQM 161600Z 10012KT 10SM -DZ BKN003 OVC005 03/03 A3025 RMK SF6SF2 SLP249=
CYQM;2005-11-16 16:44;SPECI CYQM 161644Z 11010KT 6SM BR OVC003 03/ RMK SF8=
CYQM;2005-11-16 17:00;METAR CYQM 161700Z 11009KT 3SM -DZ BR OVC003 03/03 A3022 RMK SF8 SLP237=
CYQM;2005-11-16 17:21;SPECI CYQM 161721Z 11008KT 8SM OVC002 04/ RMK ST8=
CYQM;2005-11-16 18:00;METAR CYQM 161800Z 13006KT 8SM OVC002 05/05 A3019 RMK ST8 SLP226=
CYQM;2005-11-16 19:00;METAR CYQM 161900Z 14006KT 10SM OVC002 06/06 A3016 RMK ST8 SLP216=
CYQM;2005-11-16 19:24;SPECI CYQM 161924Z 14008KT 10SM OVC001 07/ RMK SF8=
CYQM;2005-11-16 19:48;SPECI CYQM 161948Z 15008KT 10SM OVC002 08/ RMK SF8=
CYQM;2005-11-16 21:00;METAR CYQM 162100Z 15009G15KT 6SM BR OVC002 09/09 A3010 RMK SF8 SLP197=
CYQM;2005-11-16 21:03;SPECI CYQM 162103Z 16011KT 2SM BR OVC001 09/ RMK ST8 VIS LWR S-W=
CYQM;2005-11-16 22:00;METAR CYQM 162200Z 15011KT 2SM BR OVC001 10/10 A3008 RMK ST8 SLP189=
CYQM;2005-11-16 22:12;SPECI CYQM 162212Z 16011KT 2SM BR BKN002 OVC004 11/ RMK SF6SF2=
CYQM;2005-11-16 22:37;SPECI CYQM 162237Z 16016G22KT 3SM BR BKN002 OVC004 11/ RMK SF6SF2=
CYQM;2005-11-16 23:00;METAR CYQM 162300Z 16016G21KT 3SM BR BKN002 OVC004 12/12 A3004 RMK SF6SF2 SLP175=
CYQM;2005-11-17 00:00;METAR CYQM 170000Z 16016G21KT 3SM BR BKN002 OVC004 13/13 A3003 RMK SF5SF3 SLP170=
CYQM;2005-11-17 00:37;SPECI CYQM 170037Z 16016KT 10SM SCT004 OVC025 13/ RMK SF3SC5=
CYQM;2005-11-17 00:48;SPECI CYQM 170048Z 15015G20KT 10SM -DZ SCT006 OVC025 13/ RMK SF3SC5=
CYQM;2005-11-17 01:00;METAR CYQM 170100Z 15013G19KT 10SM -DZ SCT006 OVC025 14/13 A2999 RMK SF3SC5 SLP159=
CYQM;2005-11-17 01:12;SPECI CYQM 170112Z 15013G21KT 10SM -DZ FEW007 OVC015 14/ RMK SF2SC6=
CYQM;2005-11-17 01:30;SPECI CYQM 170130Z 16015G20KT 10SM -RA FEW007 OVC015 14/ RMK SF2SC6=
CYQM;2005-11-17 01:38;SPECI CYQM 170138Z 17012G20KT 15SM FEW007 OVC022 14/ RMK SF2SC6=
CYQM;2005-11-17 02:00;METAR CYQM 170200Z 16018KT 15SM FEW007 OVC022 15/14 A2996 RMK SF2SC6 SLP148=
CYQM;2005-11-17 02:49;SPECI CYQM 170249Z 16014G19KT 15SM -DZ FEW007 OVC022 15/ RMK SF2SC6=
CYQM;2005-11-17 03:00;METAR CYQM 170300Z 17013G18KT 15SM -DZ FEW007 OVC022 15/14 A2994 RMK SF2SC6 SLP141=
CYQM;2005-11-17 03:44;SPECI CYQM 170344Z 17017G24KT 15SM FEW007 BKN018 16/ RMK SF2SC6=
CYQM;2005-11-17 04:00;METAR CYQM 170400Z 17018KT 15SM FEW007 BKN018 16/15 A2990 RMK SF2SC6 SLP128=
CYQM;2005-11-17 04:16;SPECI CYQM 170416Z 16019G24KT 15SM FEW007 BKN013 BKN020 16/ RMK SF2SC4SC2=
CYQM;2005-11-17 04:39;SPECI CYQM 170439Z 17018G24KT 15SM -DZ FEW007 BKN016 16/ RMK SF2SC6=
CYQM;2005-11-17 05:00;METAR CYQM 170500Z 17017G22KT 10SM -DZ FEW007 BKN016 16/15 A2987 RMK SF2SC6 SLP117=
CYQM;2005-11-17 05:48;SPECI CYQM 170548Z 18018G26KT 15SM FEW007 BKN016 16/ RMK SF2SC6=
CYQM;2005-11-17 06:00;METAR CYQM 170600Z 18020G30KT 15SM FEW007 OVC016 16/15 A2983 RMK SF2SC6 SLP104=
CYQM;2005-11-17 06:40;SPECI CYQM 170640Z 17019G28KT 15SM -DZ FEW007 OVC016 16/ RMK SF2SC6=
CYQM;2005-11-17 07:00;METAR CYQM 170700Z 17019G24KT 15SM -DZ FEW007 OVC020 16/15 A2980 RMK SF2SC6 SLP092=
CYQM;2005-11-17 08:35;SPECI CYQM 170835Z 18015G25KT 10SM -RA SCT007 OVC016 16/ RMK SF4SC4=
CYQM;2005-11-17 09:23;SPECI CYQM 170923Z 20015G20KT 6SM +SHRA BKN006 OVC012 16/ RMK SF6SC2=
CYQM;2005-11-17 09:49;SPECI CYQM 170949Z 21012G17KT 7SM -SHRA FEW006 BKN012 OVC025 16/ RERA RMK SF2SF5SC1=
CYQM;2005-11-17 10:00;METAR CYQM 171000Z 21014KT 6SM -SHRA BR FEW006 BKN012 OVC022 16/15 A2974 RERA RMK SF2SF5SC1 SLP072=
CYQM;2005-11-17 10:12;SPECI CYQM 171012Z 22013KT 4SM -SHRA BR SCT005 OVC009 16/ RMK SF3SF5=
CYQM;2005-11-17 10:47;SPECI CYQM 171047Z 28016G27KT 8SM -SHRA SCT006 OVC016 11/ RERA RMK SF3SC5=
CYQM;2005-11-17 11:00;METAR CYQM 171100Z 28012G21KT 8SM -SHRA SCT008 OVC021 11/10 A2978 RERA RMK SF3SC5 /R11/ PRESRR SLP087=
CYQM;2005-11-17 11:23;SPECI CYQM 171123Z 27007KT 3SM SHRA BR BKN008 OVC020 10/ RMK SF6SC2=
CYQM;2005-11-17 11:42;SPECI CYQM 171142Z 19002KT 10SM SHRA FEW008 BKN020 OVC050 10/ RERA RMK SF2SC4SC2=
CYQM;2005-11-17 12:00;METAR CYQM 171200Z 16006KT 10SM -SHRA SCT006 BKN020 OVC040 10/09 A2978 RERA RMK SF3SC4SC1 SLP086=
CYQM;2005-11-17 12:06;SPECI CYQM 171206Z 18005KT 10SM -SHRA BKN004 OVC020 10/ RMK SF6SC2=
CYQM;2005-11-17 12:18;SPECI CYQM 171218Z 25007KT 10SM -SHRA FEW003 BKN005 OVC020 10/ RMK SF2SF5SC1=
CYQM;2005-11-17 12:50;SPECI CYQM 171250Z 24012KT 10SM -SHRA FEW004 BKN018 OVC040 09/ RERA RMK SF2SC2SC3=
CYQM;2005-11-17 13:00;METAR CYQM 171300Z 25011KT 10SM -SHRA SCT004 BKN018 OVC040 09/08 A2981 RERA RMK SF3SC3SC2 SLP097=
CYQM;2005-11-17 13:09;SPECI CYQM 171309Z 27011KT 10SM -SHRA BKN007 BKN020 OVC040 09/ RMK SF6SC2SC1=
CYQM;2005-11-17 14:00;METAR CYQM 171400Z 28011G17KT 15SM -SHRA BKN007 OVC020 07/06 A2983 RMK SF7SC1 SLP104=
CYQM;2005-11-17 14:20;SPECI CYQM 171420Z 27011KT 15SM -SHRA FEW007 OVC028 07/ RMK SF2SC6=
CYQM;2005-11-17 14:49;SPECI CYQM 171449Z 27012KT 15SM FEW007 OVC035 07/ RMK SF2SC6=
CYQM;2005-11-17 15:00;METAR CYQM 171500Z 27013KT 15SM FEW007 OVC035 07/06 A2984 RMK SF2SC6 SLP105=
CYQM;2005-11-17 16:00;METAR CYQM 171600Z 23008KT 15SM FEW007 OVC022 07/05 A2984 RMK SF2SC6 SLP106=
CYQM;2005-11-17 17:00;METAR CYQM 171700Z 22008KT 15SM FEW007 OVC028 06/05 A2983 RMK SF1SC7 SLP103=
CYQM;2005-11-17 18:00;METAR CYQM 171800Z 26010KT 15SM FEW010 OVC035 07/06 A2981 RMK SF2SC6 SLP097=
CYQM;2005-11-17 19:00;METAR CYQM 171900Z 25009KT 15SM FEW012 BKN035 07/05 A2981 RMK CF2SC5 SLP096=
CYQM;2005-11-17 20:00;METAR CYQM 172000Z 23008KT 15SM FEW012 BKN035 07/05 A2981 RMK CF2SC6 SLP098=
CYQM;2005-11-17 21:00;METAR CYQM 172100Z 25010KT 15SM FEW020 BKN040 06/04 A2982 RMK CU2SC4 SLP100=
CYQM;2005-11-17 22:00;METAR CYQM 172200Z 23004KT 15SM BKN055 BKN100 05/04 A2982 RMK SC7AC1 SLP100=
CYQM;2005-11-17 23:00;METAR CYQM 172300Z 23005KT 15SM BKN055 05/04 A2981 RMK SC7 SLP098=
CYQM;2005-11-18 00:00;METAR CYQM 180000Z 26007KT 15SM BKN050 05/04 A2982 RMK SC7 SLP102=
CYQM;2005-11-18 01:00;METAR CYQM 180100Z 26008KT 15SM BKN050 04/02 A2982 RMK SC7 SLP101=
CYQM;2005-11-18 02:00;METAR CYQM 180200Z 25009KT 15SM BKN048 04/02 A2983 RMK SC7 SLP104=
CYQM;2005-11-18 03:00;METAR CYQM 180300Z 24009KT 15SM BKN052 03/01 A2983 RMK SC7 SLP105=
CYQM;2005-11-18 04:00;METAR CYQM 180400Z 25007KT 15SM BKN052 03/01 A2984 RMK SC7 SLP106=
CYQM;2005-11-18 04:06;SPECI CYQM 180406Z 24008KT 15SM BKN052 02/ RMK SC7=
CYQM;2005-11-18 05:00;METAR CYQM 180500Z 25008KT 15SM BKN017 02/01 A2984 RMK SC7 SLP106=
CYQM;2005-11-18 06:00;METAR CYQM 180600Z 28006KT 15SM OVC022 02/01 A2985 RMK SC8 SLP111=
CYQM;2005-11-18 06:08;SPECI CYQM 180608Z 27007KT 12SM -SHSN OVC022 02/ RMK SC8=
CYQM;2005-11-18 06:38;SPECI CYQM 180638Z 27007KT 15SM SCT012 OVC025 02/ RMK SC3SC5=
CYQM;2005-11-18 06:50;SPECI CYQM 180650Z 26007KT 12SM -SHSN SCT012 OVC025 02/ RMK SC3SC5=
CYQM;2005-11-18 07:00;METAR CYQM 180700Z 27006KT 15SM -SHSN FEW015 OVC032 02/01 A2987 RMK SC2SC6 SLP119=
CYQM;2005-11-18 08:28;SPECI CYQM 180828Z 29004KT 15SM BKN010 OVC035 01/ RMK SC5SC3=
CYQM;2005-11-18 09:00;METAR CYQM 180900Z 28009KT 15SM -SHSN BKN013 01/M00 A2990 RMK SC7 SLP128=
CYQM;2005-11-18 10:00;METAR CYQM 181000Z 28006KT 15SM -SHSN SCT013 BKN080 01/M01 A2993 RMK SC3AC4 SLP137=
CYQM;2005-11-18 10:21;SPECI CYQM 181021Z 26007KT 15SM BKN013 BKN080 01/ RMK SC5AC2=
CYQM;2005-11-18 10:37;SPECI CYQM 181037Z 27006KT 15SM FEW013 SCT050 BKN090 00/ RMK SC2SC2AC3=
CYQM;2005-11-18 11:00;METAR CYQM 181100Z 27006KT 15SM FEW013 SCT040 BKN090 M00/M02 A2996 RMK SC1SC2AC2 SLP148=
CYQM;2005-11-18 12:00;METAR CYQM 181200Z 28008KT 15SM FEW013 SCT040 M00/M02 A2997 RMK CU1SC2 SLP154=
CYQM;2005-11-18 13:00;METAR CYQM 181300Z 28013KT 15SM FEW018 FEW040 00/M03 A3000 RMK CU1SC1 SLP162=
CYQM;2005-11-18 14:00;METAR CYQM 181400Z 29017KT 15SM FEW020 FEW040 01/M04 A3001 RMK CU2SC1 SLP167=
CYQM;2005-11-18 15:00;METAR CYQM 181500Z 28015G20KT 15SM BKN022 01/M04 A3003 RMK CU5 SLP172=
CYQM;2005-11-18 16:00;METAR CYQM 181600Z 27015G20KT 15SM BKN025 02/M06 A3003 RMK CU6 SLP171=
CYQM;2005-11-18 17:00;METAR CYQM 181700Z 30016KT 15SM SCT027 03/M05 A3004 RMK CU4 SLP176=
CYQM;2005-11-18 18:00;METAR CYQM 181800Z 28010KT 15SM SCT032 00/M07 A3006 RMK CU4 SLP182=
CYQM;2005-11-18 19:00;METAR CYQM 181900Z 27012KT 15SM SCT035 01/M08 A3007 RMK CU3 SLP185=
CYQM;2005-11-18 20:00;METAR CYQM 182000Z 28007KT 15SM FEW035 00/M09 A3008 RMK CU2 SHS DIST W-N SLP188=
CYQM;2005-11-18 21:00;METAR CYQM 182100Z 28005KT 15SM SCT035 M01/M08 A3009 RMK SC4 VIRGA CU ASOCTD SLP194=
CYQM;2005-11-18 22:00;METAR CYQM 182200Z 28005KT 15SM BKN048 BKN100 M01/M07 A3011 RMK SC6AC1 SLP202=
CYQM;2005-11-18 23:00;METAR CYQM 182300Z 27004KT 15SM FEW048 M02/M08 A3012 RMK SC1 SLP204=
CYQM;2005-11-19 00:00;METAR CYQM 190000Z 27004KT 15SM FEW040 M03/M09 A3014 RMK SC1 SLP211=
CYQM;2005-11-19 01:00;METAR CYQM 190100Z 27005KT 15SM FEW030 FEW250 M04/M09 A3016 RMK SC1CI0 SLP217=
CYQM;2005-11-19 02:00;METAR CYQM 190200Z 27004KT 15SM BKN250 M04/M09 A3017 RMK CI4 SLP221=
CYQM;2005-11-19 03:00;METAR CYQM 190300Z 27003KT 15SM BKN250 M05/M09 A3017 RMK CI4 SLP219=
CYQM;2005-11-19 04:00;METAR CYQM 190400Z 23004KT 15SM BKN250 M05/M08 A3018 RMK CI3 SLP223=
CYQM;2005-11-19 06:00;METAR CYQM 190600Z 24005KT 15SM FEW250 M06/M08 A3021 RMK CI1 SLP234=
CYQM;2005-11-19 09:00;METAR CYQM 190900Z 23006KT 15SM SKC M08/M10 A3024 RMK SLP246=
CYQM;2005-11-19 11:00;METAR CYQM 191100Z 23007KT 15SM SKC M08/M11 A3028 RMK SLP257=
CYQM;2005-11-19 12:00;METAR CYQM 191200Z 24007KT 15SM SKC M08/M11 A3030 RMK SLP264=
CYQM;2005-11-19 13:00;METAR CYQM 191300Z 25009KT 15SM SKC M07/M10 A3030 RMK SLP267=
CYQM;2005-11-19 14:00;METAR CYQM 191400Z 28010KT 15SM SKC M05/M10 A3031 RMK SLP270=
CYQM;2005-11-19 15:00;METAR CYQM 191500Z 25011KT 15SM SKC M04/M11 A3031 RMK SLP269=
CYQM;2005-11-19 16:00;METAR CYQM 191600Z 29008KT 15SM FEW030 M03/M12 A3030 RMK CU1 SLP265=
CYQM;2005-11-19 17:00;METAR CYQM 191700Z 25008G15KT 15SM FEW030 M02/M11 A3029 RMK CU1 SLP263=
CYQM;2005-11-19 18:00;METAR CYQM 191800Z 26009KT 15SM FEW250 M02/M12 A3028 RMK CI1 SLP258=
CYQM;2005-11-19 19:00;METAR CYQM 191900Z 22008KT 15SM FEW250 M01/M11 A3028 RMK CI1 SLP258=
CYQM;2005-11-19 21:00;METAR CYQM 192100Z 23007KT 15SM SCT250 M03/M11 A3028 RMK CI2 SLP257=
CYQM;2005-11-19 22:00;METAR CYQM 192200Z 20004KT 15SM FEW140 FEW250 M04/M11 A3027 RMK AC1CI1 SLP255=
CYQM;2005-11-20 01:00;METAR CYQM 200100Z 21007KT 15SM FEW120 FEW250 M05/M11 A3026 RMK AC1CI1 SLP253=
CYQM;2005-11-20 02:00;METAR CYQM 200200Z 20007KT 15SM FEW120 FEW250 M05/M11 A3025 RMK AC1CI0 SLP249=
CYQM;2005-11-20 03:00;METAR CYQM 200300Z 19007KT 15SM BKN140 BKN250 M05/M11 A3023 RMK AC6CI1 SLP243=
CYQM;2005-11-20 04:00;METAR CYQM 200400Z 19006KT 15SM BKN140 BKN250 M03/M08 A3020 RMK AC6CI1 SLP231=
CYQM;2005-11-20 06:00;METAR CYQM 200600Z 20004KT 15SM FEW140 FEW250 M04/M08 A3016 RMK AC1CI1 SLP218=
CYQM;2005-11-20 07:00;METAR CYQM 200700Z 20006KT 15SM FEW140 FEW250 M04/M06 A3014 RMK AC1CI1 SLP210=
CYQM;2005-11-20 08:00;METAR CYQM 200800Z 21008KT 15SM FEW250 M02/M05 A3011 RMK CI1 SLP201=
CYQM;2005-11-20 10:00;METAR CYQM 201000Z 21009KT 15SM SKC M01/M04 A3008 RMK SLP192=
CYQM;2005-11-20 11:00;METAR CYQM 201100Z 21009KT 15SM FEW120 SCT250 M01/M05 A3008 RMK AC1CI2 SLP189=
CYQM;2005-11-20 12:00;METAR CYQM 201200Z 19006KT 15SM FEW140 BKN250 00/M05 A3007 RMK AC2CI2 SLP187=
CYQM;2005-11-20 13:00;METAR CYQM 201300Z 21010KT 15SM FEW140 BKN250 02/M04 A3005 RMK AC2CI2 SLP181=
CYQM;2005-11-20 14:00;METAR CYQM 201400Z 23010KT 15SM SCT100 BKN250 04/M04 A3005 RMK AC3CI2 SLP179=
CYQM;2005-11-20 15:00;METAR CYQM 201500Z 24011G16KT 15SM SCT090 BKN250 05/M04 A3002 RMK AC3CI2 SLP171=
CYQM;2005-11-20 16:00;METAR CYQM 201600Z 24013KT 15SM SCT090 BKN250 05/M04 A3000 RMK AC3CI2 SLP164=
CYQM;2005-11-20 17:00;METAR CYQM 201700Z 23012G18KT 15SM BKN090 BKN200 05/M04 A2999 RMK AC5CI2 SLP159=
CYQM;2005-11-20 18:00;METAR CYQM 201800Z 23008G18KT 15SM BKN090 BKN200 06/M03 A2997 RMK AC5CI2 SLP151=
CYQM;2005-11-20 21:00;METAR CYQM 202100Z 20005KT 15SM BKN080 OVC240 05/M03 A2997 RMK AC7CI1 SLP153=
CYQM;2005-11-20 22:00;METAR CYQM 202200Z 21005KT 15SM OVC075 04/M03 A2997 RMK AC8 SLP153=
CYQM;2005-11-20 23:00;METAR CYQM 202300Z 22006KT 15SM OVC075 04/M03 A2997 RMK AC8 SLP153=
CYQM;2005-11-20 23:38;SPECI CYQM 202338Z 22006KT 15SM BKN080 02/ RMK AC7=
CYQM;2005-11-21 00:00;METAR CYQM 210000Z 21005KT 15SM OVC080 02/M02 A2997 RMK AC8 SLP151=
CYQM;2005-11-21 01:00;METAR CYQM 210100Z 22006KT 15SM BKN085 03/M02 A2995 RMK AC7 SLP146=
CYQM;2005-11-21 01:50;SPECI CYQM 210150Z 23007KT 15SM SCT090 02/ RMK AC4=
CYQM;2005-11-21 02:00;METAR CYQM 210200Z 22008KT 15SM BKN090 02/M03 A2994 RMK AC5 SLP142=
CYQM;2005-11-21 03:00;METAR CYQM 210300Z 23007KT 15SM BKN070 02/M02 A2994 RMK AC7 SLP141=
CYQM;2005-11-21 04:00;METAR CYQM 210400Z 22008KT 15SM OVC070 02/M02 A2993 RMK AC8 SLP138=
CYQM;2005-11-21 05:00;METAR CYQM 210500Z 20004KT 15SM BKN075 02/M03 A2992 RMK AC7 SLP137=
CYQM;2005-11-21 06:00;METAR CYQM 210600Z 20007KT 15SM BKN055 02/M03 A2991 RMK SC6 SLP132=
CYQM;2005-11-21 08:00;METAR CYQM 210800Z 20005KT 15SM OVC048 03/M02 A2990 RMK SC8 SLP129=
CYQM;2005-11-21 09:00;METAR CYQM 210900Z 21006KT 15SM OVC048 03/M02 A2989 RMK SC8 SLP124=
CYQM;2005-11-21 10:00;METAR CYQM 211000Z 19005KT 15SM OVC045 04/M01 A2987 RMK SC8 SLP118=
CYQM;2005-11-21 11:00;METAR CYQM 211100Z 18005KT 15SM OVC045 05/M01 A2986 RMK SC8 SLP116=
CYQM;2005-11-21 12:00;METAR CYQM 211200Z 17004KT 15SM OVC045 05/M01 A2987 RMK SC8 SLP118=
CYQM;2005-11-21 13:00;METAR CYQM 211300Z 18005KT 15SM OVC045 05/00 A2987 RMK SC8 SLP117=
CYQM;2005-11-21 14:00;METAR CYQM 211400Z 20007KT 15SM OVC040 07/03 A2985 RMK SC8 SLP111=
CYQM;2005-11-21 15:00;METAR CYQM 211500Z 21003KT 15SM OVC040 07/03 A2984 RMK SC8 SLP108=
CYQM;2005-11-21 16:00;METAR CYQM 211600Z 17006KT 15SM OVC040 08/04 A2982 RMK SC8 SLP100=
CYQM;2005-11-21 17:00;METAR CYQM 211700Z 21013KT 15SM OVC040 10/04 A2981 RMK SC8 SLP097=
CYQM;2005-11-21 18:00;METAR CYQM 211800Z 20010G15KT 15SM OVC040 10/03 A2980 RMK SC8 SLP093=
CYQM;2005-11-21 19:00;METAR CYQM 211900Z 21009KT 15SM OVC040 10/03 A2980 RMK SC8 SLP094=
CYQM;2005-11-21 21:00;METAR CYQM 212100Z 17006KT 15SM BKN050 OVC220 09/03 A2978 RMK SC6CI1 SLP088=
CYQM;2005-11-21 22:00;METAR CYQM 212200Z 18004KT 15SM FEW050 07/03 A2979 RMK SC2 SLP090=
CYQM;2005-11-21 23:00;METAR CYQM 212300Z 20008KT 15SM FEW050 07/02 A2978 RMK SC1 SLP089=
CYQM;2005-11-22 00:00;METAR CYQM 220000Z 18004KT 15SM SKC 06/01 A2979 RMK SLP090=
CYQM;2005-11-22 01:00;METAR CYQM 220100Z 17007KT 15SM SKC 05/01 A2978 RMK SLP086=
CYQM;2005-11-22 02:00;METAR CYQM 220200Z 17005KT 15SM SKC 04/01 A2977 RMK SLP085=
CYQM;2005-11-22 03:00;METAR CYQM 220300Z 17006KT 15SM SKC 05/03 A2976 RMK SLP081=
CYQM;2005-11-22 04:00;METAR CYQM 220400Z 16005KT 15SM FEW260 05/03 A2975 RMK CI1 SLP077=
CYQM;2005-11-22 05:00;METAR CYQM 220500Z 14003KT 15SM FEW120 BKN160 OVC260 04/03 A2974 RMK AC2AS4CI2 SLP073=
CYQM;2005-11-22 06:00;METAR CYQM 220600Z 15006KT 15SM FEW120 OVC260 05/04 A2973 RMK AC2CS2=
CYQM;2005-11-22 07:00;METAR CYQM 220700Z 16011KT 12SM BKN150 OVC260 06/04 A2971 RMK AS6CS2 SLP064=
CYQM;2005-11-22 08:00;METAR CYQM 220800Z 14007KT 12SM OVC110 06/04 A2970 RMK AS8 SLP058=
CYQM;2005-11-22 09:03;SPECI CYQM 220903Z 15008KT 12SM -SHRA BKN050 OVC110 07/ RMK SC6AS2=
CYQM;2005-11-22 10:00;METAR CYQM 221000Z 14011KT 5SM -RA BR SCT006 OVC025 06/05 A2967 RMK SF4SC4 SLP048=
CYQM;2005-11-22 10:25;SPECI CYQM 221025Z 09008KT 8SM -RA OVC050 06/ RMK SC8=
CYQM;2005-11-22 11:00;METAR CYQM 221100Z 09007KT 8SM -RA SCT004 OVC045 06/06 A2963 RMK SF3SC5 SLP037=
CYQM;2005-11-22 11:20;SPECI CYQM 221120Z 09006KT 2 1/2SM -RA BR BKN002 OVC045 06/ RMK SF6SC2=
CYQM;2005-11-22 11:34;SPECI CYQM 221134Z 09008KT 1 1/2SM -RA BR OVC002 OVC045 06/ RMK SF6SC2=
CYQM;2005-11-22 12:00;METAR CYQM 221200Z 09008KT 2SM -RA BR BKN004 OVC040 06/06 A2960 RMK SF6SC2 SLP025=
CYQM;2005-11-22 12:33;SPECI CYQM 221233Z 08012KT 2SM -RA BR BKN003 OVC040 07/ RMK SF6SC2=
CYQM;2005-11-22 13:00;METAR CYQM 221300Z 09010KT 2SM -RA BR BKN004 OVC035 07/07 A2955 RMK SF6SC2 SLP008=
CYQM;2005-11-22 13:29;SPECI CYQM 221329Z 11011KT 5SM -RA BR BKN002 OVC030 08/ RMK SF7SC1=
CYQM;2005-11-22 14:00;METAR CYQM 221400Z 12013KT 5SM -RA BR BKN003 OVC030 09/09 A2950 RMK SF7SC1 SLP992=
CYQM;2005-11-22 15:00;METAR CYQM 221500Z 13013KT 4SM -RA BR BKN003 OVC030 11/10 A2944 RMK SF7SC1 PRESFR SLP971=
CYQM;2005-11-22 15:23;SPECI CYQM 221523Z 13014G24KT 3SM RA BR BKN002 OVC030 12/ RMK SF7SC1=
CYQM;2005-11-22 15:42;SPECI CYQM 221542Z 13016G22KT 2SM RA BR BKN002 OVC030 12/ RMK SF7SC1=
CYQM;2005-11-22 16:00;METAR CYQM 221600Z 12020G28KT 2SM -RA BR OVC003 12/11 A2935 RERA RMK SF8 PRESFR SLP940=
CYQM;2005-11-22 16:28;SPECI CYQM 221628Z 13021G32KT 1 1/4SM RA BR OVC003 13/ RMK SF8=
CYQM;2005-11-22 17:00;METAR CYQM 221700Z 13022G31KT 3SM -RA BR BKN004 OVC030 13/12 A2926 RERA RMK SF7SC1 PRESFR /R11/ SLP912=
CYQM;2005-11-22 18:00;METAR CYQM 221800Z 15026G36KT 4SM -RA BR OVC004 13/13 A2920 RMK SF8 PRESFR SLP890=
CYQM;2005-11-22 18:41;SPECI CYQM 221841Z 14026G33KT 4SM -RA BR OVC005 13/ RMK SF8=
CYQM;2005-11-22 19:42;SPECI CYQM 221942Z 14022G34KT 1 1/2SM -RA BR BKN003 OVC030 14/ RMK SF7SC1=
CYQM;2005-11-22 23:22;SPECI CYQM 222322Z 14040G53KT 2 1/2SM +SHRA SCT007 BKN012 OVC020 15/ RMK SF3SF4SC1=
CYQM;2005-11-22 23:27;SPECI CYQM 222327Z 15033G53KT 4SM +SHRA FEW007 BKN012 OVC022 15/ RMK SF2SF5SC2=
CYQM;2005-11-22 23:33;SPECI CYQM 222333Z 14031G41KT 2SM +SHRA FEW007 BKN012 OVC022 15/ RMK SF2SC5SC2=
CYQM;2005-11-23 00:51;SPECI CYQM 230051Z 15029G41KT 15SM BKN012 15/ RERA RMK SF6=
CYQM;2005-11-23 01:27;SPECI CYQM 230127Z 15025G37KT 7SM -SHRA BKN012 OVC025 15/ RMK SF6SC2=
CYQM;2005-11-23 02:45;SPECI CYQM 230245Z 17019G27KT 15SM FEW022 OVC075 15/ RMK SC2AC6=
CYQM;2005-11-23 05:37;SPECI CYQM 230537Z 15018G27KT 15SM FEW012 OVC022 14/ RMK SF2SC6=
CYQM;2005-11-23 06:09;SPECI CYQM 230609Z 17017G27KT 12SM -SHRA BKN014 OVC040 13/ RMK SC6SC2=
CYQM;2005-11-23 06:41;SPECI CYQM 230641Z 17020G28KT 15SM BKN018 BKN035 13/ RMK SC6SC2=
CYQM;2005-11-23 06:54;SPECI CYQM 230654Z 17024G33KT 15SM -SHRA OVC025 13/ RMK SC8=
CYQM;2005-11-23 07:40;SPECI CYQM 230740Z 17024G35KT 15SM FEW020 OVC038 11/ RMK SC2SC6=
CYQM;2005-11-23 08:22;SPECI CYQM 230822Z 18018G29KT 15SM -SHRA OVC016 10/ RMK SC8=
CYQM;2005-11-23 09:47;SPECI CYQM 230947Z 19023G36KT 15SM OVC024 09/ RMK SC8=
CYQM;2005-11-23 11:50;SPECI CYQM 231150Z 24022G28KT 15SM -SHRA FEW010 BKN020 BKN085 04/ RMK SC1SC6AC1=
CYQM;2005-11-23 12:29;SPECI CYQM 231229Z 22013G18KT 15SM FEW010 SCT022 BKN050 BKN120 03/ RMK SC1SC3SC2AC1=
CYQM;2005-11-23 13:28;SPECI CYQM 231328Z 23009G15KT 15SM -SHRA BKN020 04/ RMK SC7=
CYQM;2005-11-23 19:25;SPECI CYQM 231925Z 28003KT 10SM -SHRA OVC040 03/ RMK SC8 VIS NW 4=
CYQM;2005-11-23 19:48;SPECI CYQM 231948Z 27006KT 3SM -SHRA BR OVC030 02/ RMK SC8=
CYQM;2005-11-23 20:30;SPECI CYQM 232030Z 27005KT 12SM -SHRA FEW012 BKN040 OVC120 01/ RMK SC2SC6AC1=
CYQM;2005-11-23 21:12;SPECI CYQM 232112Z 27004KT 15SM FEW008 OVC012 01/ RMK SF1SC7=
CYQM;2005-11-23 21:17;SPECI CYQM 232117Z 27004KT 8SM -SHSN FEW008 OVC012 02/ RMK SF1SC7=
CYQM;2005-11-23 21:54;SPECI CYQM 232154Z 29002KT 8SM -DZ FEW006 OVC012 01/ RMK SF2SC6=
CYQM;2005-11-23 23:33;SPECI CYQM 232333Z 24004KT 4SM -DZ BR FEW004 OVC008 01/ RMK SF2SF6=
CYQM;2005-11-24 00:07;SPECI CYQM 240007Z 29005KT 10SM -DZSN FEW004 OVC008 01/ RMK SF2SF6=
CYQM;2005-11-24 00:29;SPECI CYQM 240029Z 27004KT 10SM -SN FEW006 OVC013 01/ RMK SF2SC6=
CYQM;2005-11-24 02:31;SPECI CYQM 240231Z 22008KT 5SM -SN BKN007 OVC015 00/ RMK SF6SC2=
CYQM;2005-11-24 03:39;SPECI CYQM 240339Z 23008KT 12SM BKN007 OVC015 00/ RMK SF6SC2=
CYQM;2005-11-24 03:54;SPECI CYQM 240354Z 22010KT 12SM -SHSN SCT006 OVC017 00/ RMK SF3SC5=
CYQM;2005-11-24 04:14;SPECI CYQM 240414Z 23012KT 3SM -SHSN OVC007 M00/ RMK SF8=
CYQM;2005-11-24 04:41;SPECI CYQM 240441Z 23012G19KT 12SM -SHSN FEW007 BKN016 M01/ RMK SF2SC3=
CYQM;2005-11-24 05:49;SPECI CYQM 240549Z 21010KT 12SM -SHSN BKN007 BKN016 M01/ RMK SF6SC2=
CYQM;2005-11-24 06:35;SPECI CYQM 240635Z 22014KT 12SM SCT007 BKN016 M01/ RMK SF3SC2=
CYQM;2005-11-24 07:00;METAR CYQM 240700Z 22016G22KT 15SM SCT007 BKN016 M01/M04 A2956 RMK SF4SC2 SLP014=
CYQM;2005-11-24 09:00;METAR CYQM 240900Z 22008KT 15SM FEW020 M03/M05 A2963 RMK SC2 SLP038=
CYQM;2005-11-24 11:00;METAR CYQM 241100Z 25002KT 15SM BKN030 BKN250 M03/M04 A2969 RMK SC7CI1 SLP059=
CYQM;2005-11-24 12:00;METAR CYQM 241200Z 12003KT 15SM BKN030 BKN250 M02/M04 A2971 RMK SC7CI1 SLP066=
CYQM;2005-11-24 13:00;METAR CYQM 241300Z 08006KT 15SM BKN030 BKN120 BKN250 M01/M04 A2972 RMK SC5AC1CI1 SLP068=
CYQM;2005-11-24 14:00;METAR CYQM 241400Z 07008KT 15SM BKN030 BKN090 BKN250 M00/M02 A2970 RMK SC5AC1CI1 SLP063=
CYQM;2005-11-24 15:00;METAR CYQM 241500Z 10006KT 15SM FEW030 FEW090 BKN180 02/00 A2970 RMK SC1AC1AC6 SLP061=
CYQM;2005-11-24 16:00;METAR CYQM 241600Z 13007KT 15SM BKN030 BKN090 03/00 A2968 RMK SC6AC1 SLP055=
CYQM;2005-11-24 16:45;SPECI CYQM 241645Z 10010KT 15SM BKN014 BKN040 OVC100 03/ RMK SC6SC1AC1=
CYQM;2005-11-24 17:00;METAR CYQM 241700Z 09009KT 15SM BKN014 OVC100 03/01 A2965 RMK SC7AC1 SLP045=
CYQM;2005-11-24 17:06;SPECI CYQM 241706Z 09009KT 15SM -RA BKN014 OVC100 03/ RMK SC7AC1=
CYQM;2005-11-24 17:51;SPECI CYQM 241751Z 09010KT 6SM -RASN OVC010 03/ RMK SC8=
CYQM;2005-11-24 18:00;METAR CYQM 241800Z 08010KT 6SM -RASN OVC010 02/02 A2961 RMK SC8 SLP029=
CYQM;2005-11-24 18:28;SPECI CYQM 241828Z 09014KT 2 1/2SM -SN BKN010 OVC080 02/ RMK SC6AS2=
CYQM;2005-11-24 18:31;SPECI CYQM 241831Z 09012G17KT 1 1/4SM -SN VV010 01/ RMK SN8=
CYQM;2005-11-24 19:00;METAR CYQM 241900Z 07013KT 1 1/2SM -SN VV012 01/01 A2956 RMK SN8 SLP015=
CYQM;2005-11-24 19:40;SPECI CYQM 241940Z 06011G17KT 4SM -RA BR OVC012 02/ RMK SC8=
CYQM;2005-11-24 20:00;METAR CYQM 242000Z 07020G27KT 4SM -RA BR BKN011 OVC080 03/02 A2948 RMK SC6AS2 PRESFR SLP986=
CYQM;2005-11-24 21:00;METAR CYQM 242100Z 05019G25KT 3SM RA BR BKN008 OVC075 04/04 A2936 RMK SC6AS2 PRESFR SLP944=
CYQM;2005-11-24 22:29;SPECI CYQM 242229Z 13017G22KT 4SM -RA BR FEW006 OVC010 07/ RMK SF2SC6=
CYQM;2005-11-24 22:56;SPECI CYQM 242256Z 16016G22KT 7SM -RA FEW006 BKN016 OVC045 08/ RMK SF2SC4SC2=
CYQM;2005-11-24 23:00;METAR CYQM 242300Z 16019KT 7SM -RA FEW006 BKN016 OVC045 09/08 A2932 RMK SF2SC4SC2 SLP931=
CYQM;2005-11-24 23:27;SPECI CYQM 242327Z 15011G24KT 7SM FEW006 SCT016 OVC060 09/ RMK SF2SC2SC5=
CYQM;2005-11-25 00:00;METAR CYQM 250000Z 16021G28KT 15SM FEW006 FEW016 SCT060 09/07 A2931 RMK SF2SC1SC2 /R10/ SLP929=
CYQM;2005-11-25 03:00;METAR CYQM 250300Z 18018G25KT 15SM FEW010 BKN075 07/04 A2944 RMK SC2AC5 SLP971=
CYQM;2005-11-25 04:00;METAR CYQM 250400Z 17015G21KT 15SM BKN075 07/03 A2944 RMK AC6 SLP973=
CYQM;2005-11-25 05:00;METAR CYQM 250500Z 17014G24KT 15SM BKN075 07/03 A2945 RMK AC6 SLP977=
CYQM;2005-11-25 06:00;METAR CYQM 250600Z 16017G28KT 15SM OVC075 07/03 A2947 RMK AC8 SLP982=
CYQM;2005-11-25 08:00;METAR CYQM 250800Z 15015G20KT 15SM FEW030 FEW075 07/04 A2945 RMK SC1AC1 SLP977=
CYQM;2005-11-25 09:00;METAR CYQM 250900Z 16010G15KT 15SM SCT030 07/04 A2947 RMK SC3 SLP983=
CYQM;2005-11-25 11:00;METAR CYQM 251100Z 18017KT 15SM BKN025 BKN040 08/04 A2950 RMK SC6SC2 SLP991=
CYQM;2005-11-25 12:00;METAR CYQM 251200Z 18020G27KT 15SM FEW025 BKN040 BKN090 07/02 A2952 RMK SC2SC2AC1 SLP998=
CYQM;2005-11-25 12:48;SPECI CYQM 251248Z 20026G35KT 10SM -SHRA OVC025 07/ RMK SC8=
CYQM;2005-11-25 13:00;METAR CYQM 251300Z 19017G32KT 12SM -SHRA OVC025 06/03 A2955 RMK SC8 SLP009=
CYQM;2005-11-25 13:25;SPECI CYQM 251325Z 25018G28KT 7SM -SHRA SCT012 OVC025 02/ RMK SF3SC5 WSHFT 1322 APRNT FROPA=
CYQM;2005-11-25 13:29;SPECI CYQM 251329Z 25021G26KT 5SM -SHSN SCT012 OVC025 02/ RMK SF4SC4=
CYQM;2005-11-25 14:00;METAR CYQM 251400Z 25019G27KT 10SM -SHSN FEW012 OVC020 01/M01 A2964 RMK SF2SC6 PRESRR SLP041=
CYQM;2005-11-25 15:00;METAR CYQM 251500Z 23017G32KT 10SM -SHSN SCT012 OVC035 M01/M04 A2970 RMK CF3SC5 PRESRR SLP062=
CYQM;2005-11-25 15:51;SPECI CYQM 251551Z 23025G30KT 15SM FEW017 SCT040 BKN230 M01/ RMK CU2SC2CI2=
CYQM;2005-11-25 16:00;METAR CYQM 251600Z 24023G31KT 15SM FEW017 SCT040 BKN230 M01/M09 A2975 RMK CU2SC2CI2 SLP077=
CYQM;2005-11-25 18:00;METAR CYQM 251800Z 23021G32KT 15SM FEW030 FEW045 BKN230 M01/M12 A2985 RMK CU1SC2CI2 SLP112=
CYQM;2005-11-25 19:00;METAR CYQM 251900Z 23020G29KT 15SM FEW030 FEW045 SCT230 M01/M14 A2991 RMK CU1SC1CI1 SLP131=
CYQM;2005-11-25 20:00;METAR CYQM 252000Z 23019G25KT 15SM FEW030 FEW230 M01/M14 A2994 RMK CU1CI1 SLP142=
CYQM;2005-11-25 21:00;METAR CYQM 252100Z 22012G18KT 15SM FEW030 FEW230 M02/M15 A3000 RMK CU1CI1 SLP162=
CYQM;2005-11-25 23:00;METAR CYQM 252300Z 22012KT 15SM SKC M03/M14 A3009 RMK SLP192=
CYQM;2005-11-26 01:00;METAR CYQM 260100Z 23011KT 15SM SKC M04/M12 A3018 RMK SLP224=
CYQM;2005-11-26 03:00;METAR CYQM 260300Z 23011KT 15SM SKC M05/M12 A3023 RMK SLP241=
CYQM;2005-11-26 04:00;METAR CYQM 260400Z 22008KT 15SM SKC M05/M12 A3025 RMK SLP249=
CYQM;2005-11-26 05:00;METAR CYQM 260500Z 23009KT 15SM SKC M06/M11 A3028 RMK SLP257=
CYQM;2005-11-26 06:00;METAR CYQM 260600Z 23010KT 15SM SKC M06/M11 A3029 RMK SLP262=
CYQM;2005-11-26 07:00;METAR CYQM 260700Z 23007KT 15SM SKC M06/M11 A3031 RMK SLP268=
CYQM;2005-11-26 08:00;METAR CYQM 260800Z 19005KT 15SM SKC M07/M11 A3033 RMK SLP276=
CYQM;2005-11-26 11:00;METAR CYQM 261100Z 23006KT 15SM FEW040 M08/M10 A3038 RMK SC1 SLP292=
CYQM;2005-11-26 12:00;METAR CYQM 261200Z 20005KT 15SM FEW230 M08/M10 A3040 RMK CI1 SLP299=
CYQM;2005-11-26 13:00;METAR CYQM 261300Z 22005KT 15SM FEW230 M06/M09 A3041 RMK CI1 SLP302=
CYQM;2005-11-26 14:00;METAR CYQM 261400Z 24006KT 15SM FEW230 M04/M08 A3041 RMK CI1 SLP303=
CYQM;2005-11-26 15:00;METAR CYQM 261500Z 25006KT 15SM FEW230 M02/M09 A3041 RMK CI1 SLP304=
CYQM;2005-11-26 16:00;METAR CYQM 261600Z 27009KT 15SM FEW040 FEW230 M01/M10 A3042 RMK SC1CI1 SLP305=
CYQM;2005-11-26 17:00;METAR CYQM 261700Z 22006KT 15SM FEW040 FEW120 BKN230 M02/M10 A3040 RMK SC1AC2CI2 SLP300=
CYQM;2005-11-26 18:00;METAR CYQM 261800Z 23005KT 15SM FEW030 BKN120 BKN230 M01/M10 A3040 RMK CU1AC6CI1 SLP299=
CYQM;2005-11-26 19:00;METAR CYQM 261900Z 25005KT 15SM FEW035 BKN120 BKN230 M00/M10 A3040 RMK CU1AC6CI1 SLP298=
CYQM;2005-11-26 20:00;METAR CYQM 262000Z 21002KT 15SM FEW035 FEW120 FEW230 M01/M10 A3038 RMK CU1AC2CI1 SLP291=
CYQM;2005-11-26 21:00;METAR CYQM 262100Z 00000KT 15SM FEW035 FEW120 SCT230 M01/M10 A3041 RMK SC1AC2CI1 CC ASOCTD SLP301=
CYQM;2005-11-26 22:00;METAR CYQM 262200Z 07004KT 15SM FEW100 BKN220 M02/M09 A3040 RMK AC2CC3 SLP300=
CYQM;2005-11-26 23:00;METAR CYQM 262300Z 08005KT 15SM BKN080 BKN220 M02/M08 A3040 RMK AC6CI1 SLP298=
CYQM;2005-11-27 00:00;METAR CYQM 270000Z 08005KT 15SM BKN080 BKN220 M02/M08 A3039 RMK AC6CI1 SLP298=
CYQM;2005-11-27 01:00;METAR CYQM 270100Z 10007KT 15SM BKN075 BKN230 M02/M08 A3038 RMK AC6CI1 SLP294=
CYQM;2005-11-27 02:35;SPECI CYQM 270235Z 10009KT 15SM FEW040 OVC070 M02/ RMK SC2AC6=
CYQM;2005-11-27 04:00;METAR CYQM 270400Z 09008KT 15SM OVC055 M01/M07 A3033 RMK SC8 SLP277=
CYQM;2005-11-27 05:00;METAR CYQM 270500Z 10005KT 15SM OVC030 M01/M06 A3032 RMK SC8 SLP273=
CYQM;2005-11-27 05:20;SPECI CYQM 270520Z 13008KT 12SM -SHSN OVC030 M01/ RMK SC8=
CYQM;2005-11-27 06:00;METAR CYQM 270600Z 13008KT 12SM -SHSN BKN030 OVC070 M00/M05 A3032 RMK SC6AC2 SLP271=
CYQM;2005-11-27 07:00;METAR CYQM 270700Z 12009KT 8SM -SN OVC032 M01/M04 A3031 RMK SC8 SLP268=
CYQM;2005-11-27 07:19;SPECI CYQM 270719Z 13009KT 2SM -SN VV012 M01/ RMK SN8=
CYQM;2005-11-27 08:49;SPECI CYQM 270849Z 15005KT 3/4SM R06/4000VP6000FT/D R29/P6000FT/D -SN VV008 M01/ RMK SN8=
CYQM;2005-11-27 09:00;METAR CYQM 270900Z 15005KT 3/4SM R06/4000V6000FT/U R29/5000FT/U -SN VV008 M01/M02 A3029 RMK SN8 /S01/ SLP263=
CYQM;2005-11-27 09:09;SPECI CYQM 270909Z 14009KT 1 1/4SM -SN VV010 M01/ RMK SN8=
CYQM;2005-11-27 09:26;SPECI CYQM 270926Z 20002KT 1 3/4SM -SN OVC006 M01/ RMK SN2SF6=
CYQM;2005-11-27 10:00;METAR CYQM 271000Z 14004KT 4SM -SN FEW002 OVC006 M01/M01 A3030 RMK SF2SF6 SLP264=
CYQM;2005-11-27 10:41;SPECI CYQM 271041Z 18003KT 12SM BKN004 BKN008 OVC030 M00/ RMK SF6SF2SC1=
CYQM;2005-11-27 11:00;METAR CYQM 271100Z 22004KT 12SM BKN004 BKN008 OVC013 M00/M00 A3031 RMK SF5SF2SC2 SLP269=
CYQM;2005-11-27 11:13;SPECI CYQM 271113Z 23005KT 12SM SCT003 OVC005 M00/ RMK SF3SF5=
CYQM;2005-11-27 12:00;METAR CYQM 271200Z 23006KT 15SM FEW003 BKN008 OVC030 M00/M01 A3033 RMK SF1SF4SC3 SLP275=
CYQM;2005-11-27 12:23;SPECI CYQM 271223Z 25010KT 15SM FEW003 BKN012 OVC030 M01/ RMK SF2SC3SC3=
CYQM;2005-11-27 13:00;METAR CYQM 271300Z 25012KT 15SM SCT008 BKN022 M01/M02 A3035 RMK CF4SC3 SLP281=
CYQM;2005-11-27 13:46;SPECI CYQM 271346Z 23012KT 15SM BKN008 BKN022 M01/ RMK CF6SC2=
CYQM;2005-11-27 15:00;METAR CYQM 271500Z 26010G18KT 15SM OVC011 M02/M04 A3038 RMK SC8 SLP292=
CYQM;2005-11-27 15:46;SPECI CYQM 271546Z 29008G15KT 15SM -SHSN OVC010 M02/ RMK SC8=
CYQM;2005-11-27 16:00;METAR CYQM 271600Z 30010KT 15SM -SHSN OVC010 M02/M04 A3039 RMK SC8 SLP294=
CYQM;2005-11-27 17:00;METAR CYQM 271700Z 30008KT 15SM -SHSN OVC012 M02/M04 A3039 RMK SC8 SLP294=
CYQM;2005-11-27 17:21;SPECI CYQM 271721Z 31010KT 15SM BKN012 M02/ RMK SC7=
CYQM;2005-11-27 18:00;METAR CYQM 271800Z 30009KT 15SM OVC013 M02/M04 A3040 RMK SC8 SLP298=
CYQM;2005-11-27 18:32;SPECI CYQM 271832Z 33005KT 15SM BKN017 M02/ RMK SC7 BLN ESTD=
CYQM;2005-11-27 19:00;METAR CYQM 271900Z 32003KT 15SM BKN018 M01/M04 A3041 RMK SC7 SLP304=
CYQM;2005-11-27 20:00;METAR CYQM 272000Z 27005KT 15SM FEW020 BKN035 M02/M05 A3044 RMK SC2SC5 SLP311=
CYQM;2005-11-27 21:00;METAR CYQM 272100Z 29003KT 15SM BKN025 M02/M05 A3044 RMK SC5 SLP314=
CYQM;2005-11-27 22:00;METAR CYQM 272200Z 30004KT 15SM FEW020 M03/M05 A3045 RMK SC2 SLP317=
CYQM;2005-11-27 23:00;METAR CYQM 272300Z 30006KT 15SM BKN018 M03/M05 A3046 RMK SC5 SLP318=
CYQM;2005-11-28 00:00;METAR CYQM 280000Z 28005KT 15SM FEW018 FEW250 M04/M06 A3047 RMK SC1CI1 SLP324=
CYQM;2005-11-28 01:00;METAR CYQM 280100Z 29003KT 15SM FEW015 M04/M06 A3048 RMK SC1 SLP326=
CYQM;2005-11-28 03:00;METAR CYQM 280300Z 23005KT 15SM FEW240 M06/M06 A3049 RMK CI1 SLP331=
CYQM;2005-11-28 04:00;METAR CYQM 280400Z 23006KT 15SM FEW020 FEW240 M06/M07 A3049 RMK SC1CI1 FROIN SLP331=
CYQM;2005-11-28 07:00;METAR CYQM 280700Z 22006KT 10SM FEW002 M07/M08 A3050 RMK SF1 FROIN VIS SE 4 SLP333=
CYQM;2005-11-28 08:00;METAR CYQM 280800Z 22006KT 10SM FEW002 M08/M08 A3051 RMK SF0 FROIN SLP336=
CYQM;2005-11-28 09:00;METAR CYQM 280900Z 23004KT 12SM SKC M08/M08 A3052 RMK FROIN SLP339=
CYQM;2005-11-28 10:00;METAR CYQM 281000Z 22005KT 12SM SKC M08/M09 A3052 RMK FROIN SLP342=
CYQM;2005-11-28 11:00;METAR CYQM 281100Z 19003KT 12SM SCT040 BKN250 M08/M09 A3052 RMK SC3CI2 FROIN SLP340=
CYQM;2005-11-28 12:00;METAR CYQM 281200Z 20004KT 12SM FEW040 BKN070 BKN250 M06/M07 A3052 RMK SC2AC3CI1 FROIN SLP341=
CYQM;2005-11-28 15:00;METAR CYQM 281500Z 23003KT 12SM SCT040 BKN070 BKN250 M03/M04 A3054 RMK SC3AC3CI1 WND EST SLP346=
CYQM;2005-11-28 16:00;METAR CYQM 281600Z 27005KT 12SM SCT040 BKN070 BKN250 M02/M03 A3052 RMK SC3AC3CI1 WND EST SLP341=
CYQM;2005-11-28 17:00;METAR CYQM 281700Z 27005KT 12SM SCT040 BKN070 OVC230 M01/M03 A3050 RMK SC3AC4CI1 WND EST SLP335=
CYQM;2005-11-28 18:00;METAR CYQM 281800Z 14004KT 12SM FEW025 BKN040 OVC100 M00/M02 A3050 RMK SC2SC3AC3 SLP335=
CYQM;2005-11-28 19:00;METAR CYQM 281900Z 13004KT 12SM FEW025 BKN040 OVC100 00/M02 A3052 RMK SC2SC3AC3 SLP340=
CYQM;2005-11-28 20:00;METAR CYQM 282000Z 14003KT 12SM FEW025 BKN040 OVC100 00/M02 A3053 RMK SC2SC3AC3 SLP343=
CYQM;2005-11-28 21:00;METAR CYQM 282100Z 14004KT 12SM FEW020 BKN040 OVC100 00/M01 A3053 RMK SC2SC4AC2 SLP343=
CYQM;2005-11-28 22:00;METAR CYQM 282200Z 13005KT 15SM BKN023 OVC100 01/M01 A3052 RMK SC6AC2 SLP339=
CYQM;2005-11-28 22:12;SPECI CYQM 282212Z 13005KT 15SM -SHRA OVC023 01/ RMK SC8=
CYQM;2005-11-28 22:41;SPECI CYQM 282241Z 14005KT 15SM SCT023 OVC050 01/ RMK SC3SC5=
CYQM;2005-11-28 23:00;METAR CYQM 282300Z 15006KT 15SM FEW023 SCT050 BKN070 01/M01 A3050 RMK SC2SC2AC4 SLP335=
CYQM;2005-11-29 00:00;METAR CYQM 290000Z 16008KT 15SM OVC024 02/M01 A3050 RMK SC8 SLP331=
CYQM;2005-11-29 01:00;METAR CYQM 290100Z 17008KT 15SM OVC019 02/M00 A3050 RMK SC8 SLP331=
CYQM;2005-11-29 03:16;SPECI CYQM 290316Z 18006KT 15SM BKN042 BKN250 02/ RMK SC7CI1=
CYQM;2005-11-29 04:00;METAR CYQM 290400Z 17006KT 15SM BKN040 BKN250 03/01 A3050 RMK SC7CI1 SLP332=
CYQM;2005-11-29 04:19;SPECI CYQM 290419Z 16007KT 15SM -SHRA BKN038 BKN250 03/ RMK SC7CI1=
CYQM;2005-11-29 04:47;SPECI CYQM 290447Z 16009KT 15SM BKN032 BKN120 03/ RMK SC7AC1=
CYQM;2005-11-29 05:00;METAR CYQM 290500Z 17007KT 15SM BKN032 BKN120 03/02 A3049 RMK SC7AC1 SLP328=
CYQM;2005-11-29 06:00;METAR CYQM 290600Z 15008KT 15SM BKN030 BKN250 04/02 A3048 RMK SC7CI1 SLP327=
CYQM;2005-11-29 06:48;SPECI CYQM 290648Z 16007KT 15SM -SHRA BKN030 BKN250 04/ RMK SC7CI1=
CYQM;2005-11-29 07:00;METAR CYQM 290700Z 16009G17KT 15SM -SHRA BKN045 BKN110 04/02 A3048 RMK SC7AC1 SLP325=
CYQM;2005-11-29 07:22;SPECI CYQM 290722Z 17007KT 15SM BKN045 BKN110 04/ RMK SC6AC1=
CYQM;2005-11-29 08:00;METAR CYQM 290800Z 16009KT 15SM FEW040 BKN090 04/02 A3048 RMK SC2AC6 SLP325=
CYQM;2005-11-29 09:00;METAR CYQM 290900Z 16008KT 15SM FEW040 BKN090 04/02 A3048 RMK SC2AC6 SLP325=
CYQM;2005-11-29 10:00;METAR CYQM 291000Z 15007KT 15SM FEW040 BKN075 04/02 A3047 RMK SC2AC6 SLP323=
CYQM;2005-11-29 11:00;METAR CYQM 291100Z 16010KT 15SM FEW040 OVC075 04/03 A3047 RMK SC2AC6 SLP320=
CYQM;2005-11-29 12:00;METAR CYQM 291200Z 16007KT 15SM FEW040 BKN075 04/03 A3045 RMK SC2AC6 SLP316=
CYQM;2005-11-29 13:00;METAR CYQM 291300Z 16009KT 15SM FEW040 BKN075 05/03 A3047 RMK SC1AC6 SLP320=
CYQM;2005-11-29 14:00;METAR CYQM 291400Z 16009KT 15SM FEW040 SCT075 BKN250 06/03 A3046 RMK SC1AC3CI1 SLP319=
CYQM;2005-11-29 15:00;METAR CYQM 291500Z 16011KT 15SM FEW040 FEW075 BKN250 08/04 A3045 RMK SC1AC2CI1 SLP316=
CYQM;2005-11-29 16:00;METAR CYQM 291600Z 16010KT 15SM FEW040 FEW075 BKN250 10/04 A3043 RMK SC1AC2CI1 SLP308=
CYQM;2005-11-29 17:00;METAR CYQM 291700Z 16009KT 15SM FEW040 FEW075 BKN250 10/04 A3040 RMK SC1AC1CI2 SLP299=
CYQM;2005-11-29 18:00;METAR CYQM 291800Z 16010KT 15SM FEW040 FEW075 BKN250 10/04 A3039 RMK SC1AC1CI2 SLP293=
CYQM;2005-11-29 19:00;METAR CYQM 291900Z 16012KT 15SM FEW040 FEW075 BKN250 09/04 A3038 RMK SC1AC1CI2 SLP290=
CYQM;2005-11-29 20:00;METAR CYQM 292000Z 17010G15KT 15SM BKN250 09/04 A3038 RMK CI4 SLP289=
CYQM;2005-11-29 21:00;METAR CYQM 292100Z 16011KT 15SM FEW050 BKN250 08/04 A3037 RMK SC1CI3 SLP288=
CYQM;2005-11-29 22:00;METAR CYQM 292200Z 16008KT 15SM SCT250 07/04 A3037 RMK CI2 SLP288=
CYQM;2005-11-29 23:00;METAR CYQM 292300Z 16007KT 15SM FEW250 07/04 A3037 RMK CI1 SLP286=
CYQM;2005-11-30 00:00;METAR CYQM 300000Z 16011G16KT 15SM FEW250 07/04 A3035 RMK CI1 SLP281=
CYQM;2005-11-30 01:00;METAR CYQM 300100Z 16011G17KT 15SM FEW250 06/04 A3033 RMK CI1 SLP275=
CYQM;2005-11-30 02:00;METAR CYQM 300200Z 17009KT 15SM FEW250 06/04 A3034 RMK CI1 SLP278=
CYQM;2005-11-30 03:00;METAR CYQM 300300Z 14010G17KT 15SM FEW250 06/04 A3033 RMK CI1 SLP274=
CYQM;2005-11-30 04:00;METAR CYQM 300400Z 15008KT 15SM FEW010 SCT250 06/04 A3031 RMK SF1CI1 SLP266=
CYQM;2005-11-30 04:38;SPECI CYQM 300438Z 18012G18KT 15SM BKN009 06/ RMK SF5=
CYQM;2005-11-30 05:00;METAR CYQM 300500Z 20008G20KT 15SM BKN009 06/05 A3029 RMK SF6 SLP260=
CYQM;2005-11-30 05:22;SPECI CYQM 300522Z 17014KT 15SM FEW009 06/ RMK SF2=
CYQM;2005-11-30 06:00;METAR CYQM 300600Z 17015G20KT 15SM FEW009 07/05 A3026 RMK SF1 SLP251=
CYQM;2005-11-30 07:00;METAR CYQM 300700Z 16010KT 15SM FEW009 07/06 A3026 RMK SF1 SLP249=
CYQM;2005-11-30 07:34;SPECI CYQM 300734Z 18005KT 15SM BKN008 07/ RMK SF6=
CYQM;2005-11-30 08:18;SPECI CYQM 300818Z 16011KT 15SM SCT009 07/ RMK SF3=
CYQM;2005-11-30 10:00;METAR CYQM 301000Z 15010G15KT 15SM FEW009 07/06 A3023 RMK SF1 SLP240=
CYQM;2005-11-30 11:36;SPECI CYQM 301136Z 15011KT 15SM FEW009 BKN012 BKN030 BKN120 08/ RMK SF1SC4SC1AC1=
CYQM;2005-11-30 12:00;METAR CYQM 301200Z 15015G22KT 15SM FEW009 BKN012 BKN120 08/07 A3021 RMK SF1SC6AC1 SLP232=
CYQM;2005-11-30 13:00;METAR CYQM 301300Z 16016G24KT 15SM FEW012 BKN030 OVC260 09/07 A3020 RMK SC2SC5CI1 SLP229=
CYQM;2005-11-30 14:00;METAR CYQM 301400Z 16018KT 15SM FEW012 BKN030 BKN260 09/08 A3018 RMK SC2SC4CI2 SLP224=
CYQM;2005-11-30 15:00;METAR CYQM 301500Z 17015G21KT 15SM FEW012 BKN030 OVC260 10/08 A3017 RMK SC1SC6CI1 SLP220=
CYQM;2005-11-30 16:00;METAR CYQM 301600Z 16017KT 15SM FEW012 BKN030 BKN120 BKN260 10/08 A3012 RMK SC1SC5AC1CI2 SLP203=
CYQM;2005-11-30 17:00;METAR CYQM 301700Z 17018G25KT 15SM FEW012 FEW040 BKN120 BKN260 11/09 A3010 RMK CF1SC2AC2CI2 SLP195=
CYQM;2005-11-30 18:00;METAR CYQM 301800Z 17013G25KT 15SM FEW012 FEW040 SCT120 BKN260 12/09 A3007 RMK CF1SC2AC1CI2 SLP186=
CYQM;2005-11-30 19:00;METAR CYQM 301900Z 18009G18KT 15SM FEW012 FEW050 FEW120 BKN260 11/09 A3008 RMK CF1SC1AC1CI3 SLP187=
CYQM;2005-11-30 20:00;METAR CYQM 302000Z 16012G18KT 15SM FEW012 FEW050 SCT120 BKN260 12/09 A3006 RMK CF1SC2AC2CI2 SLP183=
CYQM;2005-11-30 21:00;METAR CYQM 302100Z 14014KT 15SM FEW050 BKN120 OVC260 11/08 A3006 RMK SC1AC5CI1 SLP180=
CYQM;2005-11-30 22:00;METAR CYQM 302200Z 14011G16KT 15SM BKN050 OVC120 11/08 A3004 RMK SC7AC1 SLP176=
CYQM;2005-11-30 23:00;METAR CYQM 302300Z 14013G18KT 15SM BKN050 BKN260 10/08 A3003 RMK SC5CI1 SLP172=
CYQM;2005-12-01 00:00;METAR CYQM 010000Z 15015KT 15SM FEW050 BKN260 10/08 A3003 RMK SC2CI2 SLP170=
CYQM;2005-12-01 01:00;METAR CYQM 010100Z 15014G19KT 15SM OVC045 10/08 A3002 RMK SC8 SLP168=
CYQM;2005-12-01 02:00;METAR CYQM 010200Z 14016KT 15SM SCT050 OVC260 10/08 A3000 RMK SC3CI4 SLP160=
CYQM;2005-12-01 03:00;METAR CYQM 010300Z 15018KT 15SM FEW040 SCT120 OVC260 10/08 A2997 RMK SC1AC3CI2 SLP153=
CYQM;2005-12-01 04:00;METAR CYQM 010400Z 15017G26KT 15SM FEW025 FEW050 BKN260 10/08 A2994 RMK SC1SC2CI2 SLP142=
CYQM;2005-12-01 05:00;METAR CYQM 010500Z 16015G22KT 15SM FEW025 FEW080 BKN260 10/09 A2992 RMK SC1AC2CI1 SLP136=
CYQM;2005-12-01 06:00;METAR CYQM 010600Z 19012G19KT 15SM FEW020 BKN100 11/09 A2993 RMK SC1AC6 SLP137=
CYQM;2005-12-01 07:00;METAR CYQM 010700Z 18011G16KT 15SM FEW010 BKN060 11/09 A2993 RMK SF1SC6 SLP136=
CYQM;2005-12-01 08:00;METAR CYQM 010800Z 16015KT 15SM FEW010 OVC050 11/09 A2991 RMK SF1SC7 SLP131=
CYQM;2005-12-01 08:30;SPECI CYQM 010830Z 17011G16KT 15SM -SHRA FEW012 OVC050 11/ RMK SF1SC7=
CYQM;2005-12-01 08:47;SPECI CYQM 010847Z 16012KT 15SM FEW015 OVC050 11/ RMK SC2SC6=
CYQM;2005-12-01 09:00;METAR CYQM 010900Z 15012G17KT 15SM BKN030 OVC050 11/09 A2990 RMK SC5SC3 SLP128=
CYQM;2005-12-01 09:03;SPECI CYQM 010903Z 16010G17KT 12SM -SHRA BKN029 OVC050 11/ RMK SC6SC2=
CYQM;2005-12-01 10:06;SPECI CYQM 011006Z 17014KT 15SM -SHRA FEW008 OVC040 11/ RMK SF1SC7=
CYQM;2005-12-01 11:00;METAR CYQM 011100Z 19006KT 12SM -SHRA SCT005 OVC030 10/10 A2991 RMK SF3SC5 SLP131=
CYQM;2005-12-01 11:39;SPECI CYQM 011139Z 16007KT 10SM -SHRA FEW005 BKN012 OVC030 10/ RMK SF2SC3SC2=
CYQM;2005-12-01 11:51;SPECI CYQM 011151Z 16007KT 2 1/2SM -SHRA BR FEW005 BKN012 OVC030 10/ RMK SF2SC3SC2=
CYQM;2005-12-01 12:32;SPECI CYQM 011232Z 16006KT 3SM BR BKN005 OVC012 10/ RMK SF6SC2=
CYQM;2005-12-01 12:52;SPECI CYQM 011252Z 17005KT 3SM -SHRA BR BKN005 OVC012 10/ RMK SF6SC2=
CYQM;2005-12-01 13:00;METAR CYQM 011300Z 18004KT 2SM -SHRA BR BKN005 OVC012 10/10 A2992 RMK SF6SC2 SLP133=
CYQM;2005-12-01 13:44;SPECI CYQM 011344Z 34007KT 3SM -SHRA BR BKN005 OVC011 08/ RMK SF5SC3 VIS N 10=
CYQM;2005-12-01 14:00;METAR CYQM 011400Z 34008KT 4SM -SHRA BR SCT005 OVC011 08/07 A2993 RMK SF3SC5 SLP137=
CYQM;2005-12-01 14:45;SPECI CYQM 011445Z 33010KT 10SM FEW005 OVC011 07/ RMK SF1SC7=
CYQM;2005-12-01 15:00;METAR CYQM 011500Z 33008KT 8SM SCT005 OVC011 07/06 A2994 RMK SF3SC5 SLP140=
CYQM;2005-12-01 15:23;SPECI CYQM 011523Z 32007KT 2SM BR BKN008 OVC011 06/ RMK SF5SC3=
CYQM;2005-12-01 15:42;SPECI CYQM 011542Z 31005KT 2SM -DZ BR BKN008 OVC012 06/ RMK SF6SC2=
CYQM;2005-12-01 16:00;METAR CYQM 011600Z 34007KT 1 1/2SM -DZ BR OVC008 06/06 A2992 RMK SF8 SLP136=
CYQM;2005-12-01 16:18;SPECI CYQM 011618Z 34009KT 1 1/4SM -DZ BR BKN004 OVC008 07/ RMK SF5SF3=
CYQM;2005-12-01 17:00;METAR CYQM 011700Z 36006KT 1 1/4SM -DZ BR BKN003 OVC008 07/06 A2990 RMK SF6SF2 SLP129=
CYQM;2005-12-01 17:19;SPECI CYQM 011719Z 04008KT 1 1/4SM -RADZ BR BKN004 OVC008 06/ RMK SF6SF2=
CYQM;2005-12-01 17:43;SPECI CYQM 011743Z 04008KT 3SM -RADZ BR BKN004 OVC008 05/ RMK SF6SF2=
CYQM;2005-12-01 18:00;METAR CYQM 011800Z 03009KT 3SM -RADZ BR SCT004 OVC010 05/04 A2989 RMK SF4SF4 SLP126=
CYQM;2005-12-01 19:00;METAR CYQM 011900Z 02007KT 8SM -DZ SCT005 OVC012 04/04 A2989 RMK SF3SC5 SLP123=
CYQM;2005-12-01 19:10;SPECI CYQM 011910Z 02006KT 8SM -RA SCT005 OVC012 04/ RMK SF3SC5=
CYQM;2005-12-01 19:30;SPECI CYQM 011930Z 03009KT 10SM -RA BKN005 OVC012 04/ RMK SF5SC3=
CYQM;2005-12-01 20:00;METAR CYQM 012000Z 02007KT 8SM -RA BKN005 OVC012 04/04 A2987 RMK SF6SC2 SLP118=
CYQM;2005-12-01 20:07;SPECI CYQM 012007Z 03008KT 2 1/2SM -RA BR BKN005 OVC012 04/ RMK SF6SC2=
CYQM;2005-12-01 20:28;SPECI CYQM 012028Z 04006KT 1 1/4SM -RA BR OVC005 04/ RMK SF8=
CYQM;2005-12-01 20:48;SPECI CYQM 012048Z 03009KT 3SM -RA BR OVC005 04/ RMK SF8=
CYQM;2005-12-01 21:00;METAR CYQM 012100Z 02008KT 10SM -RA BKN005 OVC012 04/04 A2986 RMK SF6SC2 SLP115=
CYQM;2005-12-01 21:16;SPECI CYQM 012116Z 03008KT 2SM -RADZ BR FEW004 OVC006 04/ RMK SF2SF6=
CYQM;2005-12-01 21:30;SPECI CYQM 012130Z 02008KT 2 1/2SM -RADZ BR BKN003 OVC005 04/ RMK SF6SF2=
CYQM;2005-12-01 21:47;SPECI CYQM 012147Z 02011KT 3SM -RADZ BR BKN003 BKN006 OVC016 04/ RMK SF6SF2SC1=
CYQM;2005-12-01 22:00;METAR CYQM 012200Z 03010KT 5SM -RADZ BR SCT003 BKN006 OVC015 04/03 A2985 RMK SF3SF4SC1 SLP111=
CYQM;2005-12-01 22:14;SPECI CYQM 012214Z 03008KT 6SM -DZRA BR FEW002 BKN003 OVC013 04/ RMK SF2SF6SC1=
CYQM;2005-12-01 22:37;SPECI CYQM 012237Z 03008KT 6SM -DZ BR BKN003 OVC005 04/ RMK SF5SF3=
CYQM;2005-12-01 23:00;METAR CYQM 012300Z 02010KT 7SM -DZ FEW002 OVC003 04/03 A2984 RMK SF2SF6 SLP107=
CYQM;2005-12-01 23:16;SPECI CYQM 012316Z 02008KT 2 1/2SM -DZ BR BKN002 OVC003 04/ RMK SF6SF2=
CYQM;2005-12-01 23:31;SPECI CYQM 012331Z 02009KT 4SM -RADZ BR BKN002 OVC003 04/ RMK SF7SF1=
CYQM;2005-12-02 00:00;METAR CYQM 020000Z 03007KT 7SM -RADZ OVC002 04/04 A2982 RMK SF8 SLP102=
CYQM;2005-12-02 00:46;SPECI CYQM 020046Z 04012KT 8SM -DZRA OVC001 04/ RMK ST8=
CYQM;2005-12-02 01:00;METAR CYQM 020100Z 04009KT 8SM -RADZ OVC001 04/04 A2979 RMK ST8 SLP092=
CYQM;2005-12-02 02:07;SPECI CYQM 020207Z 04007KT 1SM R29/P6000FT/D R06/P6000FT/D BR OVC001 04/ RMK FG3ST5 INTMT -DZ=
CYQM;2005-12-02 02:44;SPECI CYQM 020244Z 05008KT 3/8SM R29/2600FT/N R06/3000FT/N FG VV001 04/ RMK FG8=
CYQM;2005-12-02 03:00;METAR CYQM 020300Z 05007KT 3/8SM R29/2200FT/N R06/2400FT/N FG VV001 04/04 A2973 RMK FG8 SLP072=
CYQM;2005-12-02 04:00;METAR CYQM 020400Z 05005KT 1/4SM R29/2000FT/N R06/2000V3000FT/D FG VV001 04/04 A2970 RMK FG8 SLP061=
CYQM;2005-12-02 05:00;METAR CYQM 020500Z 08006KT 1/4SM R29/1600V2200FT/U R06/2200FT/N FG VV001 05/05 A2967 RMK FG8 SLP049=
CYQM;2005-12-02 05:22;SPECI CYQM 020522Z 09007KT 1/2SM R29/1800FT/N R06/2800FT/U FG OVC005 05/ RMK FG5ST3=
CYQM;2005-12-02 05:46;SPECI CYQM 020546Z 10005KT 1 1/2SM R29/3000FT/U R06/4000VP6000FT/U BR OVC005 06/ RMK FG2SF6 VIS SW 5=
CYQM;2005-12-02 06:00;METAR CYQM 020600Z 10006KT 4SM BR SCT001 BKN003 OVC005 06/06 A2965 RMK SF3SF4SF1 SLP044=
CYQM;2005-12-02 06:46;SPECI CYQM 020646Z 11013KT 10SM SCT003 OVC005 07/ RMK SF3ST5=
CYQM;2005-12-02 09:00;METAR CYQM 020900Z 10012KT 15SM BKN005 OVC010 08/07 A2954 RMK SF6SF2 SLP005=
CYQM;2005-12-02 10:00;METAR CYQM 021000Z 09016KT 7SM SCT003 OVC006 08/08 A2950 RMK SF3SF5 VIS N 3 SLP991=
CYQM;2005-12-02 10:18;SPECI CYQM 021018Z 08013G18KT 8SM BKN003 BKN006 OVC008 08/ RMK SF5SF2SC1=
CYQM;2005-12-02 11:00;METAR CYQM 021100Z 10015G20KT 8SM BKN004 BKN006 OVC008 09/08 A2946 RMK SF5SF2SC1 SLP979=
CYQM;2005-12-02 11:07;SPECI CYQM 021107Z 10016KT 6SM -DZ BR BKN003 BKN006 OVC008 09/ RMK SF5SF2SC1=
CYQM;2005-12-02 11:38;SPECI CYQM 021138Z 11015G21KT 8SM BKN003 OVC010 09/ RMK SF7SC1=
CYQM;2005-12-02 12:00;METAR CYQM 021200Z 10017KT 7SM BKN003 OVC010 09/08 A2943 RMK SF7SC1 SLP969=
CYQM;2005-12-02 12:37;SPECI CYQM 021237Z 09017KT 10SM BKN004 OVC010 09/ RMK SF7SC1=
CYQM;2005-12-02 12:50;SPECI CYQM 021250Z 10017G22KT 6SM -SHRA BR BKN004 OVC015 09/ RMK SF7SC1=
CYQM;2005-12-02 13:00;METAR CYQM 021300Z 10019G28KT 6SM -SHRA BR BKN004 OVC015 09/09 A2940 RMK SF7SC1 SLP958=
CYQM;2005-12-02 14:00;METAR CYQM 021400Z 10018G24KT 10SM -RA BKN005 OVC015 09/08 A2935 RMK SF7SC1 SLP941=
CYQM;2005-12-02 14:22;SPECI CYQM 021422Z 10018G28KT 4SM -RA BR BKN004 OVC015 09/ RMK SF7SC1=
CYQM;2005-12-02 15:00;METAR CYQM 021500Z 10016G21KT 4SM -RA BR BKN004 OVC015 09/09 A2932 RMK SF7SC1 SLP930=
CYQM;2005-12-02 15:27;SPECI CYQM 021527Z 13013G20KT 5SM BR BKN008 OVC020 10/ RMK SF7SC1=
CYQM;2005-12-02 16:00;METAR CYQM 021600Z 14017G26KT 4SM BR OVC006 11/10 A2931 RMK SF8 SLP926=
CYQM;2005-12-02 16:11;SPECI CYQM 021611Z 14018G28KT 2 1/2SM -SHRA BR BKN006 OVC020 11/ RMK SF7SC1=
CYQM;2005-12-02 16:32;SPECI CYQM 021632Z 19018KT 12SM BKN008 OVC025 10/ RMK SC6SC2=
CYQM;2005-12-02 17:00;METAR CYQM 021700Z 21022G27KT 12SM -SHRA BKN008 OVC025 08/07 A2932 RMK SC6SC2 SLP931=
CYQM;2005-12-02 17:26;SPECI CYQM 021726Z 21014G24KT 15SM BKN008 BKN030 BKN080 07/ RMK SC6SC1AC1=
CYQM;2005-12-02 18:00;METAR CYQM 021800Z 19012G18KT 15SM FEW010 BKN030 08/05 A2932 RMK SC2SC6 SLP931=
CYQM;2005-12-02 18:35;SPECI CYQM 021835Z 18012G17KT 15SM BKN012 BKN035 08/ RMK SC6SC1=
CYQM;2005-12-02 19:00;METAR CYQM 021900Z 19010G17KT 15SM BKN020 BKN040 08/04 A2933 RMK SC6SC1 SLP934=
CYQM;2005-12-02 20:00;METAR CYQM 022000Z 18010G16KT 15SM FEW020 SCT045 07/04 A2934 RMK SC2SC2 SLP936=
CYQM;2005-12-02 21:00;METAR CYQM 022100Z 18007KT 15SM FEW015 BKN025 07/04 A2935 RMK CU1SC6 SLP940=
CYQM;2005-12-02 22:00;METAR CYQM 022200Z 18011G16KT 15SM FEW015 BKN055 06/02 A2936 RMK CU1SC6 SLP943=
CYQM;2005-12-02 23:00;METAR CYQM 022300Z 17007KT 12SM FEW020 OVC045 06/02 A2935 RMK CU2SC6 SLP942=
CYQM;2005-12-02 23:41;SPECI CYQM 022341Z 18006KT 10SM -SHRA OVC022 05/ RMK SC8=
CYQM;2005-12-03 00:00;METAR CYQM 030000Z 18005KT 4SM -SHRA BR OVC017 05/03 A2935 RMK SC8 SLP942=
CYQM;2005-12-03 00:51;SPECI CYQM 030051Z 19012G18KT 12SM OVC038 04/ RMK SC8=
CYQM;2005-12-03 01:00;METAR CYQM 030100Z 18010G17KT 12SM OVC038 04/03 A2937 RMK SC8 SLP946=
CYQM;2005-12-03 01:45;SPECI CYQM 030145Z 21005KT 12SM -SHRA OVC012 04/ RMK SC8=
CYQM;2005-12-03 02:00;METAR CYQM 030200Z 18013G21KT 12SM -SHRA SCT012 OVC035 04/02 A2937 RMK SC3SC5 SLP948=
CYQM;2005-12-03 03:00;METAR CYQM 030300Z 17009KT 12SM -SHRA FEW012 OVC035 03/02 A2938 RMK SC2SC6 SLP951=
CYQM;2005-12-03 03:49;SPECI CYQM 030349Z 17006KT 12SM FEW012 SCT035 03/ RMK SC2SC2=
CYQM;2005-12-03 04:00;METAR CYQM 030400Z 16007KT 12SM FEW012 SCT035 03/02 A2937 RMK SC2SC2 SLP948=
CYQM;2005-12-03 04:31;SPECI CYQM 030431Z 16009KT 12SM FEW012 BKN035 02/ RMK SC2SC5=
CYQM;2005-12-03 05:25;SPECI CYQM 030525Z 17010KT 12SM FEW012 BKN030 02/ RMK SC2SC3=
CYQM;2005-12-03 06:00;METAR CYQM 030600Z 15008KT 15SM FEW020 BKN070 01/01 A2936 RMK SC2AC3 SLP945=
CYQM;2005-12-03 07:00;METAR CYQM 030700Z 16007KT 15SM OVC070 01/00 A2937 RMK AC8 SLP948=
CYQM;2005-12-03 09:00;METAR CYQM 030900Z 19006KT 15SM FEW070 01/M00 A2935 RMK AC2 SLP943=
CYQM;2005-12-03 10:00;METAR CYQM 031000Z 20008KT 15SM FEW040 BKN080 01/M00 A2937 RMK SC1AC6 SLP948=
CYQM;2005-12-03 11:00;METAR CYQM 031100Z 23008KT 15SM BKN020 BKN080 00/M01 A2940 RMK SC6AC1 SLP958=
CYQM;2005-12-03 13:00;METAR CYQM 031300Z 20007KT 15SM FEW015 FEW040 00/M02 A2944 RMK CU1SC1 SLP971=
CYQM;2005-12-03 14:00;METAR CYQM 031400Z 24015KT 15SM BKN020 BKN045 BKN250 M00/M03 A2947 RMK SC6SC1CI1 SLP981=
CYQM;2005-12-03 15:00;METAR CYQM 031500Z 25014G19KT 15SM BKN025 M00/M03 A2947 RMK SC7 SLP984=
CYQM;2005-12-03 16:00;METAR CYQM 031600Z 24015G21KT 15SM BKN035 M01/M04 A2948 RMK SC7 SLP987=
CYQM;2005-12-03 16:52;SPECI CYQM 031652Z 24015KT 15SM -SHSN BKN035 M01/ RMK SC7=
CYQM;2005-12-03 17:00;METAR CYQM 031700Z 25015KT 15SM -SHSN BKN035 M01/M05 A2949 RMK SC7 SLP989=
CYQM;2005-12-03 17:45;SPECI CYQM 031745Z 24015G21KT 15SM BKN035 BKN250 M01/ RMK SC6CI0=
CYQM;2005-12-03 18:00;METAR CYQM 031800Z 23015G22KT 15SM BKN032 BKN250 M01/M06 A2950 RMK SC6CI0 SLP992=
CYQM;2005-12-03 19:00;METAR CYQM 031900Z 24021G28KT 15SM BKN032 BKN250 M01/M07 A2951 RMK CU5CI1 SLP995=
CYQM;2005-12-03 20:00;METAR CYQM 032000Z 25019G26KT 15SM BKN030 BKN250 M01/M08 A2953 RMK CU6CI1 SLP004=
CYQM;2005-12-03 21:00;METAR CYQM 032100Z 25017G22KT 15SM BKN030 BKN230 M02/M07 A2955 RMK CU6CC1 SLP011=
CYQM;2005-12-03 22:00;METAR CYQM 032200Z 25014KT 15SM SCT030 SCT230 M03/M08 A2957 RMK CU3CC1 SLP018=
CYQM;2005-12-04 00:00;METAR CYQM 040000Z 25013G19KT 15SM FEW040 M03/M09 A2962 RMK SC2 SLP035=
CYQM;2005-12-04 01:00;METAR CYQM 040100Z 25015G22KT 15SM FEW040 M04/M08 A2964 RMK SC2 SLP041=
CYQM;2005-12-04 01:47;SPECI CYQM 040147Z 25018KT 12SM -SHSN BKN040 M03/ RMK SC6=
CYQM;2005-12-04 02:00;METAR CYQM 040200Z 26018G29KT 12SM -SHSN BKN040 M04/M08 A2966 RMK SC5 SLP047=
CYQM;2005-12-04 03:00;METAR CYQM 040300Z 27013G22KT 15SM -SHSN BKN040 M05/M09 A2967 RMK SC5 SLP053=
CYQM;2005-12-04 04:00;METAR CYQM 040400Z 25010KT 15SM -SHSN BKN020 M05/M08 A2969 RMK SC5 SLP058=
CYQM;2005-12-04 06:00;METAR CYQM 040600Z 26019G26KT 15SM -SHSN BKN035 M04/M10 A2970 RMK SC7 SLP061=
CYQM;2005-12-04 07:42;SPECI CYQM 040742Z 25018G27KT 15SM BKN040 M05/ RMK SC5=
CYQM;2005-12-04 08:00;METAR CYQM 040800Z 23012G22KT 15SM FEW040 M05/M11 A2973 RMK SC2 SLP072=
CYQM;2005-12-04 09:00;METAR CYQM 040900Z 23015G20KT 15SM FEW040 M05/M11 A2974 RMK SC2 SLP076=
CYQM;2005-12-04 10:00;METAR CYQM 041000Z 23012G17KT 15SM FEW030 M06/M11 A2975 RMK SC1 SLP077=
CYQM;2005-12-04 11:00;METAR CYQM 041100Z 23012KT 15SM FEW030 FEW070 M06/M11 A2975 RMK SC1AC1 SLP079=
CYQM;2005-12-04 12:00;METAR CYQM 041200Z 23013KT 15SM FEW030 FEW100 FEW250 M06/M11 A2977 RMK CU1AC1CI0 SLP087=
CYQM;2005-12-04 13:00;METAR CYQM 041300Z 22012G21KT 15SM FEW030 FEW250 M05/M10 A2979 RMK CU1CI0 SLP093=
CYQM;2005-12-04 14:00;METAR CYQM 041400Z 23017G24KT 15SM BKN022 M04/M10 A2979 RMK CF6 SLP093=
CYQM;2005-12-04 15:00;METAR CYQM 041500Z 23020KT 15SM FEW025 FEW250 M03/M10 A2976 RMK CF1CI0 SLP083=
CYQM;2005-12-04 16:00;METAR CYQM 041600Z 25014G20KT 15SM FEW025 BKN260 M02/M10 A2974 RMK CF1CI2 SLP076=
CYQM;2005-12-04 17:00;METAR CYQM 041700Z 23017G25KT 15SM FEW030 BKN260 M02/M10 A2975 RMK CF1CI3 SLP077=
CYQM;2005-12-04 18:00;METAR CYQM 041800Z 23019KT 15SM FEW030 BKN230 M02/M10 A2974 RMK CF1CI6 SLP075=
CYQM;2005-12-04 19:00;METAR CYQM 041900Z 24012KT 15SM FEW030 BKN050 BKN230 M02/M11 A2974 RMK CF1SC6CI1 SLP074=
CYQM;2005-12-04 20:00;METAR CYQM 042000Z 22010G18KT 15SM FEW030 BKN080 BKN250 M01/M11 A2973 RMK CF1AC6CI1 SLP072=
CYQM;2005-12-04 21:00;METAR CYQM 042100Z 23007KT 15SM BKN080 BKN140 BKN250 M02/M11 A2972 RMK AC6AC1CI1 SLP069=
CYQM;2005-12-04 22:00;METAR CYQM 042200Z 22008KT 15SM SCT080 BKN140 BKN250 M02/M10 A2970 RMK AC4AC1CI1 SLP062=
CYQM;2005-12-04 23:00;METAR CYQM 042300Z 23008KT 15SM BKN075 M02/M10 A2970 RMK AC7 SLP061=
CYQM;2005-12-05 00:00;METAR CYQM 050000Z 23008KT 15SM BKN070 M03/M10 A2969 RMK AC7 SLP058=
CYQM;2005-12-05 01:00;METAR CYQM 050100Z 23010KT 15SM OVC075 M03/M10 A2968 RMK AC8 SLP056=
CYQM;2005-12-05 03:00;METAR CYQM 050300Z 25011KT 15SM OVC060 M03/M09 A2968 RMK SC8 SLP054=
CYQM;2005-12-05 04:00;METAR CYQM 050400Z 25011G16KT 15SM BKN075 M03/M09 A2967 RMK AC7 SLP051=
CYQM;2005-12-05 06:00;METAR CYQM 050600Z 25012G21KT 15SM BKN075 M04/M09 A2969 RMK AC5 SLP058=
CYQM;2005-12-05 08:00;METAR CYQM 050800Z 25015G20KT 15SM FEW075 M05/M09 A2971 RMK AC2 SLP064=
CYQM;2005-12-05 09:00;METAR CYQM 050900Z 24015KT 15SM FEW075 M05/M08 A2972 RMK AC2 SLP069=
CYQM;2005-12-05 10:00;METAR CYQM 051000Z 24019KT 15SM SKC M05/M08 A2972 RMK SLP069=
CYQM;2005-12-05 11:00;METAR CYQM 051100Z 25019G27KT 15SM FEW020 M05/M08 A2975 RMK CU1 SLP079=
CYQM;2005-12-05 12:00;METAR CYQM 051200Z 24019G27KT 15SM FEW020 FEW080 M05/M09 A2978 RMK CU1AC1 SLP088=
CYQM;2005-12-05 13:00;METAR CYQM 051300Z 25022G29KT 15SM FEW020 FEW080 M04/M09 A2980 RMK CU1AC1 SLP095=
CYQM;2005-12-05 14:00;METAR CYQM 051400Z 25027G37KT 15SM FEW025 M03/M10 A2980 RMK CU1 SLP097=
CYQM;2005-12-05 15:00;METAR CYQM 051500Z 25028G35KT 15SM FEW025 M02/M11 A2981 RMK CU2 SLP097=
CYQM;2005-12-05 16:00;METAR CYQM 051600Z 25024G36KT 15SM BKN030 M01/M12 A2981 RMK CU5 SLP100=
CYQM;2005-12-05 17:00;METAR CYQM 051700Z 26019G36KT 15SM SCT030 M01/M12 A2982 RMK CU4 SLP101=
CYQM;2005-12-05 18:00;METAR CYQM 051800Z 25030G38KT 15SM SCT032 M01/M12 A2982 RMK CU3 SLP101=
CYQM;2005-12-05 19:00;METAR CYQM 051900Z 24025G32KT 15SM FEW032 M01/M13 A2984 RMK CU2 SLP107=
CYQM;2005-12-05 20:00;METAR CYQM 052000Z 26021G27KT 15SM FEW032 M01/M13 A2986 RMK CU2 SLP115=
CYQM;2005-12-05 21:00;METAR CYQM 052100Z 24018G27KT 15SM FEW030 FEW240 M02/M13 A2988 RMK CU1CI1 SLP123=
CYQM;2005-12-05 22:00;METAR CYQM 052200Z 25015G20KT 15SM FEW220 M02/M13 A2990 RMK CI1 SLP130=
CYQM;2005-12-05 23:00;METAR CYQM 052300Z 25015KT 15SM SKC M03/M13 A2991 RMK SLP132=
CYQM;2005-12-06 00:00;METAR CYQM 060000Z 25011G17KT 15SM SKC M03/M13 A2993 RMK SLP140=
CYQM;2005-12-06 01:00;METAR CYQM 060100Z 25014KT 15SM SKC M04/M13 A2994 RMK SLP143=
CYQM;2005-12-06 02:00;METAR CYQM 060200Z 25014G20KT 15SM SKC M04/M12 A2997 RMK SLP152=
CYQM;2005-12-06 03:00;METAR CYQM 060300Z 25015G20KT 15SM SKC M04/M12 A2997 RMK SLP154=
CYQM;2005-12-06 04:00;METAR CYQM 060400Z 25012KT 15SM SKC M05/M12 A2997 RMK SLP153=
CYQM;2005-12-06 05:00;METAR CYQM 060500Z 24011KT 15SM SKC M05/M11 A2995 RMK SLP146=
CYQM;2005-12-06 06:00;METAR CYQM 060600Z 26009KT 15SM SKC M06/M11 A2994 RMK SLP143=
CYQM;2005-12-06 07:00;METAR CYQM 060700Z 23008KT 15SM FEW260 M06/M11 A2997 RMK CI2 SLP152=
CYQM;2005-12-06 08:00;METAR CYQM 060800Z 24007KT 15SM SKC M07/M12 A2995 RMK SLP147=
CYQM;2005-12-06 10:00;METAR CYQM 061000Z 25006KT 15SM SKC M08/M11 A2990 RMK SLP130=
CYQM;2005-12-06 11:00;METAR CYQM 061100Z 24008KT 15SM SCT130 BKN240 M08/M11 A2991 RMK AC3CI1 SLP132=
CYQM;2005-12-06 12:00;METAR CYQM 061200Z 24008KT 15SM FEW020 BKN120 M07/M10 A2991 RMK CU1AS7 SLP133=
CYQM;2005-12-06 13:00;METAR CYQM 061300Z 25008KT 15SM FEW020 BKN090 M06/M10 A2985 RMK CU1AC7 SLP114=
CYQM;2005-12-06 14:00;METAR CYQM 061400Z 25009KT 15SM FEW025 BKN090 M06/M10 A2988 RMK CU1AS7 SLP124=
CYQM;2005-12-06 15:00;METAR CYQM 061500Z 26011KT 15SM FEW025 BKN090 M06/M10 A2985 RMK CU1AS7 SLP112=
CYQM;2005-12-06 16:00;METAR CYQM 061600Z 30008KT 15SM FEW025 OVC100 M05/M12 A2980 RMK CU1AS8 SLP097=
CYQM;2005-12-06 18:00;METAR CYQM 061800Z 28008KT 15SM BKN120 M04/M13 A2971 RMK AS7 PRESFR SLP065=
CYQM;2005-12-06 19:00;METAR CYQM 061900Z 27004KT 15SM FEW030 BKN120 M04/M13 A2974 RMK CU1AS7 PRES UNSTDY SLP075=
CYQM;2005-12-06 20:00;METAR CYQM 062000Z 27008KT 15SM FEW030 BKN120 M05/M12 A2973 RMK CU1AS7 SLP072=
CYQM;2005-12-06 21:00;METAR CYQM 062100Z 28009KT 15SM FEW030 OVC100 M05/M13 A2973 RMK CU1AS8 SLP073=
CYQM;2005-12-06 22:00;METAR CYQM 062200Z 27008KT 15SM OVC100 M05/M13 A2973 RMK AS8 SLP073=
CYQM;2005-12-06 23:00;METAR CYQM 062300Z 27008KT 15SM OVC090 M05/M12 A2973 RMK AS8 SLP074=
CYQM;2005-12-07 00:00;METAR CYQM 070000Z 28011KT 15SM BKN090 M05/M13 A2973 RMK AS7 SLP074=
CYQM;2005-12-07 01:00;METAR CYQM 070100Z 28014KT 15SM BKN090 M06/M13 A2974 RMK AS6 SLP075=
CYQM;2005-12-07 03:00;METAR CYQM 070300Z 27012KT 15SM FEW090 M07/M13 A2975 RMK AS1 SLP078=
CYQM;2005-12-07 04:00;METAR CYQM 070400Z 26010KT 15SM SKC M08/M14 A2975 RMK SLP080=
CYQM;2005-12-07 05:00;METAR CYQM 070500Z 26009G15KT 15SM SKC M08/M14 A2975 RMK SLP079=
CYQM;2005-12-07 07:00;METAR CYQM 070700Z 24013KT 15SM SKC M09/M12 A2976 RMK SLP083=
CYQM;2005-12-07 08:00;METAR CYQM 070800Z 25011KT 15SM SKC M09/M12 A2976 RMK SLP084=
CYQM;2005-12-07 10:00;METAR CYQM 071000Z 24009KT 15SM SKC M09/M12 A2978 RMK SLP088=
CYQM;2005-12-07 11:00;METAR CYQM 071100Z 24010G15KT 15SM FEW250 M09/M11 A2979 RMK CI1 SLP093=
CYQM;2005-12-07 12:00;METAR CYQM 071200Z 26015KT 15SM FEW250 M09/M12 A2979 RMK CI1 SLP094=
CYQM;2005-12-07 13:00;METAR CYQM 071300Z 25015G21KT 15SM FEW250 M08/M12 A2981 RMK CI1 SLP098=
CYQM;2005-12-07 14:00;METAR CYQM 071400Z 26018KT 15SM FEW015 M07/M13 A2981 RMK CF1 SLP099=
CYQM;2005-12-07 15:00;METAR CYQM 071500Z 26018G24KT 15SM FEW015 M06/M14 A2980 RMK CU1 SLP096=
CYQM;2005-12-07 16:00;METAR CYQM 071600Z 27024KT 15SM FEW030 M06/M15 A2978 RMK CU2 SLP091=
CYQM;2005-12-07 17:00;METAR CYQM 071700Z 25021G30KT 15SM FEW030 M06/M15 A2977 RMK CU2 SLP086=
CYQM;2005-12-07 18:00;METAR CYQM 071800Z 26026G34KT 15SM FEW040 M06/M16 A2977 RMK CU2 SLP086=
CYQM;2005-12-07 19:00;METAR CYQM 071900Z 27022G34KT 15SM FEW040 M06/M17 A2978 RMK CU2 SLP091=
CYQM;2005-12-07 21:00;METAR CYQM 072100Z 27014G24KT 15SM FEW040 M08/M17 A2985 RMK CU1 SLP113=
CYQM;2005-12-07 22:00;METAR CYQM 072200Z 27014G20KT 15SM SKC M09/M17 A2988 RMK SLP123=
CYQM;2005-12-07 23:00;METAR CYQM 072300Z 26014KT 15SM SKC M09/M17 A2991 RMK SLP133=
CYQM;2005-12-08 00:00;METAR CYQM 080000Z 27010G16KT 15SM FEW030 M10/M17 A2993 RMK SC1 SLP141=
CYQM;2005-12-08 01:00;METAR CYQM 080100Z 26010KT 15SM BKN035 M10/M17 A2994 RMK SC7 SLP145=
CYQM;2005-12-08 02:00;METAR CYQM 080200Z 26014G19KT 15SM BKN035 M10/M17 A2996 RMK SC7 SLP150=
CYQM;2005-12-08 03:00;METAR CYQM 080300Z 27015KT 15SM BKN035 M10/M17 A2997 RMK SC7 SLP156=
CYQM;2005-12-08 04:00;METAR CYQM 080400Z 26014G19KT 15SM BKN035 M10/M17 A3000 RMK SC6 SLP163=
CYQM;2005-12-08 05:00;METAR CYQM 080500Z 26013G19KT 15SM BKN032 M10/M16 A3001 RMK SC7 SLP169=
CYQM;2005-12-08 05:39;SPECI CYQM 080539Z 26015KT 15SM -SHSN BKN032 M10/ RMK SC7=
CYQM;2005-12-08 06:00;METAR CYQM 080600Z 27013KT 15SM -SHSN BKN032 M10/M16 A3004 RMK SC7 SLP179=
CYQM;2005-12-08 09:00;METAR CYQM 080900Z 26010G15KT 15SM BKN032 BKN050 M09/M13 A3013 RMK SC6SC1 SLP208=
CYQM;2005-12-08 10:00;METAR CYQM 081000Z 25010KT 15SM BKN040 M09/M13 A3017 RMK SC6 SLP223=
CYQM;2005-12-08 11:00;METAR CYQM 081100Z 26010KT 15SM FEW040 M10/M13 A3020 RMK SC2 SLP232=
CYQM;2005-12-08 12:00;METAR CYQM 081200Z 27013KT 15SM FEW040 M10/M13 A3024 RMK SC1 SLP247=
CYQM;2005-12-08 13:00;METAR CYQM 081300Z 27014KT 15SM FEW040 M09/M13 A3027 RMK SC1 SLP255=
CYQM;2005-12-08 14:00;METAR CYQM 081400Z 27013KT 15SM FEW040 M08/M13 A3030 RMK SC1 SLP267=
CYQM;2005-12-08 15:00;METAR CYQM 081500Z 28014KT 15SM FEW040 M06/M14 A3032 RMK SC1 SLP272=
CYQM;2005-12-08 16:00;METAR CYQM 081600Z 27010G16KT 15SM FEW250 M05/M14 A3031 RMK CI1 SLP269=
CYQM;2005-12-08 17:00;METAR CYQM 081700Z 26013KT 15SM FEW250 M04/M14 A3029 RMK CI1 SLP263=
CYQM;2005-12-08 18:00;METAR CYQM 081800Z 25013KT 15SM FEW250 M03/M15 A3028 RMK CI1 SLP259=
CYQM;2005-12-08 19:00;METAR CYQM 081900Z 27008G15KT 15SM FEW250 M03/M16 A3029 RMK CI1 SLP263=
CYQM;2005-12-08 20:00;METAR CYQM 082000Z 24010G15KT 15SM FEW250 M03/M15 A3031 RMK CI1 SLP269=
CYQM;2005-12-08 21:00;METAR CYQM 082100Z 27011KT 15SM FEW250 M05/M16 A3032 RMK CI1 SLP273=
CYQM;2005-12-08 22:00;METAR CYQM 082200Z 27011KT 15SM SKC M06/M17 A3034 RMK SLP279=
CYQM;2005-12-08 23:00;METAR CYQM 082300Z 27013G18KT 15SM SKC M06/M17 A3035 RMK SLP282=
CYQM;2005-12-09 00:00;METAR CYQM 090000Z 27015KT 15SM SKC M07/M16 A3036 RMK SLP288=
CYQM;2005-12-09 01:00;METAR CYQM 090100Z 28014KT 15SM SKC M08/M16 A3036 RMK SLP286=
CYQM;2005-12-09 02:00;METAR CYQM 090200Z 28011G16KT 15SM FEW250 M09/M15 A3035 RMK CI0 SLP283=
CYQM;2005-12-09 03:00;METAR CYQM 090300Z 25008KT 15SM FEW250 M10/M15 A3035 RMK CI0 SLP282=
CYQM;2005-12-09 04:00;METAR CYQM 090400Z 25008KT 15SM SKC M11/M15 A3034 RMK SLP281=
CYQM;2005-12-09 05:00;METAR CYQM 090500Z 24008KT 15SM FEW250 M11/M15 A3034 RMK CI0 SLP279=
CYQM;2005-12-09 06:00;METAR CYQM 090600Z 23007KT 15SM FEW250 M12/M15 A3033 RMK CI0 SLP278=
CYQM;2005-12-09 09:00;METAR CYQM 090900Z 23013G20KT 15SM FEW025 M12/M14 A3029 RMK SC1 SLP264=
CYQM;2005-12-09 10:00;METAR CYQM 091000Z 22008KT 15SM SKC M13/M15 A3026 RMK SLP254=
CYQM;2005-12-09 11:00;METAR CYQM 091100Z 23007KT 15SM FEW220 M13/M15 A3026 RMK CI1 SLP252=
CYQM;2005-12-09 12:00;METAR CYQM 091200Z 21006KT 15SM SCT220 M13/M15 A3024 RMK CI2 SLP245=
CYQM;2005-12-09 13:00;METAR CYQM 091300Z 22006KT 15SM FEW120 SCT220 M11/M14 A3020 RMK AC1CI2 SLP234=
CYQM;2005-12-09 14:00;METAR CYQM 091400Z 22007KT 15SM SCT120 BKN220 M08/M13 A3017 RMK AC3CI2 SLP224=
CYQM;2005-12-09 15:00;METAR CYQM 091500Z 23008KT 15SM FEW030 BKN100 BKN220 M08/M13 A3017 RMK SC1AC5CI1 SLP223=
CYQM;2005-12-09 17:00;METAR CYQM 091700Z 16005KT 15SM SCT030 BKN100 OVC220 M06/M13 A3004 RMK SC3AC4CI1 PRESFR SLP178=
CYQM;2005-12-09 18:00;METAR CYQM 091800Z 00000KT 15SM FEW012 BKN030 OVC100 M05/M12 A2997 RMK SF1SC6AC1 PRESFR SLP156=
CYQM;2005-12-09 18:07;SPECI CYQM 091807Z 00000KT 15SM -SHSN FEW012 BKN030 OVC100 M05/ RMK SF1SC6AC1=
CYQM;2005-12-09 18:25;SPECI CYQM 091825Z 00000KT 2SM -SN VV015 M05/ RMK SN8=
CYQM;2005-12-09 18:32;SPECI CYQM 091832Z 00000KT 1 1/2SM -SN VV012 M05/ RMK SN8=
CYQM;2005-12-09 18:47;SPECI CYQM 091847Z 05002KT 1SM R06/P6000FT/N R29/P6000FT/N -SN VV010 M05/ RMK SN8=
CYQM;2005-12-09 19:22;SPECI CYQM 091922Z 11006KT 3SM -SN BKN012 OVC030 M03/ RMK SC5SC3=
CYQM;2005-12-09 20:00;METAR CYQM 092000Z 11004KT 4SM -SN BKN012 OVC030 M04/M05 A2986 RMK SC5SC3 PRESFR SLP117=
CYQM;2005-12-09 20:40;SPECI CYQM 092040Z 10005KT 2SM -SN BKN012 OVC030 M04/ RMK SC6SC2=
CYQM;2005-12-09 21:00;METAR CYQM 092100Z 09004KT 1 1/4SM -SN OVC012 M03/M04 A2982 RMK SC8 SLP104=
CYQM;2005-12-09 21:19;SPECI CYQM 092119Z 09005KT 1 3/4SM -SN FEW012 OVC023 M03/ RMK SF2SC6=
CYQM;2005-12-09 22:00;METAR CYQM 092200Z 10006KT 2SM -SN OVC022 M03/M04 A2979 RMK SC8 /S01/ SLP093=
CYQM;2005-12-09 23:00;METAR CYQM 092300Z 09004KT 2SM -SN BKN022 OVC120 M03/M03 A2975 RMK SC5AS3 /S02/ MOON DIMLY VISBL SLP079=
CYQM;2005-12-09 23:19;SPECI CYQM 092319Z 09006KT 3SM -SN SCT022 OVC100 M03/ RMK SC3AS5=
CYQM;2005-12-09 23:38;SPECI CYQM 092338Z 07004KT 8SM -SN FEW006 SCT022 OVC100 M03/ RMK SF2SC2AS4=
CYQM;2005-12-09 23:53;SPECI CYQM 092353Z 06004KT 7SM -SN BKN003 OVC100 M03/ RMK SF6AS2=
CYQM;2005-12-10 00:00;METAR CYQM 100000Z 08005KT 7SM -SN BKN003 OVC100 M03/M03 A2968 RMK SF6AS2 PRESFR SLP055=
CYQM;2005-12-10 00:20;SPECI CYQM 100020Z 08006KT 10SM -SN FEW003 BKN004 OVC020 M02/ RMK SF2SF6SC1=
CYQM;2005-12-10 00:38;SPECI CYQM 100038Z 06008KT 10SM -SN OVC002 M03/ RMK ST8=
CYQM;2005-12-10 01:00;METAR CYQM 100100Z 07005KT 10SM -SN OVC001 M03/M03 A2961 RMK ST8 PRESFR SLP033=
CYQM;2005-12-10 02:00;METAR CYQM 100200Z 05004KT 10SM -SN OVC001 M02/M03 A2960 RMK ST8 SLP028=
CYQM;2005-12-10 02:28;SPECI CYQM 100228Z 01006KT 2SM -SN OVC001 M02/ RMK ST8=
CYQM;2005-12-10 02:36;SPECI CYQM 100236Z 36006KT 1 1/4SM -SN OVC001 M02/ RMK ST8=
CYQM;2005-12-10 03:00;METAR CYQM 100300Z 36007KT 1 3/4SM -SN OVC001 M03/M03 A2957 RMK ST8 SLP017=
CYQM;2005-12-10 03:22;SPECI CYQM 100322Z 34010KT 1SM R29/P6000FT/D R06/P6000FT/D -SN OVC006 M03/ RMK SN5ST3=
CYQM;2005-12-10 03:33;SPECI CYQM 100333Z 34012KT 3/4SM R29/P6000FT/D R06/P6000FT/D -SN VV005 M03/ RMK SN8 PRESFR=
CYQM;2005-12-10 03:41;SPECI CYQM 100341Z 33012KT 1 1/4SM -SN OVC003 M03/ RMK SN3ST5=
CYQM;2005-12-10 03:45;SPECI CYQM 100345Z 34011G16KT 1 1/2SM -SN DRSN OVC003 M03/ RMK SN2ST6=
CYQM;2005-12-10 04:00;METAR CYQM 100400Z 34013KT 2 1/2SM -SN DRSN OVC003 M03/M03 A2953 RMK ST8 /S01/ SLP006=
CYQM;2005-12-10 04:17;SPECI CYQM 100417Z 34015KT 3SM -SN DRSN OVC004 M03/ RMK SF8=
CYQM;2005-12-10 04:38;SPECI CYQM 100438Z 33011G21KT 8SM -SN DRSN BKN005 OVC007 M03/ RMK SF6SF2=
CYQM;2005-12-10 06:00;METAR CYQM 100600Z 33019G24KT 15SM -SN DRSN BKN007 OVC018 M05/M06 A2957 RMK SF6SC2 SLP017=
CYQM;2005-12-10 06:16;SPECI CYQM 100616Z 33017KT 15SM DRSN FEW008 OVC018 M05/ RMK SF2SC6=
CYQM;2005-12-10 09:00;METAR CYQM 100900Z 30012KT 15SM FEW040 M09/M11 A2967 RMK SC1 SLP051=
CYQM;2005-12-10 10:00;METAR CYQM 101000Z 28008KT 15SM SKC M09/M11 A2970 RMK SLP061=
CYQM;2005-12-10 12:00;METAR CYQM 101200Z 27011KT 15SM FEW025 M10/M12 A2978 RMK SC1 SLP088=
CYQM;2005-12-10 13:00;METAR CYQM 101300Z 26012KT 15SM FEW012 M09/M12 A2981 RMK CU1 SLP098=
CYQM;2005-12-10 14:00;METAR CYQM 101400Z 25016KT 15SM FEW012 M08/M11 A2984 RMK CU1 SLP109=
CYQM;2005-12-10 15:00;METAR CYQM 101500Z 28010KT 15SM FEW012 FEW260 M06/M10 A2983 RMK CU1CI1 SLP105=
CYQM;2005-12-10 16:00;METAR CYQM 101600Z 28011KT 15SM FEW015 FEW260 M05/M09 A2980 RMK CU1CI2 SLP095=
CYQM;2005-12-10 17:00;METAR CYQM 101700Z 28009KT 15SM FEW020 SCT260 M04/M08 A2978 RMK CU1CI2 SLP090=
CYQM;2005-12-10 18:00;METAR CYQM 101800Z 25009KT 15SM FEW020 SCT260 M03/M09 A2980 RMK CU1CI2 SLP095=
CYQM;2005-12-10 19:00;METAR CYQM 101900Z 23009KT 15SM FEW025 SCT260 M03/M09 A2983 RMK CU1CI2 SLP106=
CYQM;2005-12-10 20:00;METAR CYQM 102000Z 22006KT 15SM FEW020 FEW100 FEW260 M04/M09 A2984 RMK SC1AC1CI2 SLP108=
CYQM;2005-12-10 21:00;METAR CYQM 102100Z 20006KT 15SM FEW020 SCT100 BKN260 M04/M08 A2986 RMK SC1AS2CI1 SLP115=
CYQM;2005-12-10 22:00;METAR CYQM 102200Z 21006KT 15SM FEW120 BKN260 M05/M09 A2987 RMK AC2CI2 SLP121=
CYQM;2005-12-11 00:00;METAR CYQM 110000Z 21008KT 15SM FEW260 M06/M09 A2985 RMK CI1 SLP114=
CYQM;2005-12-11 01:00;METAR CYQM 110100Z 20005KT 15SM FEW120 BKN260 M06/M08 A2984 RMK AC1CI2 SLP112=
CYQM;2005-12-11 02:00;METAR CYQM 110200Z 13005KT 15SM FEW050 BKN075 BKN230 M05/M08 A2981 RMK SC2AC4CI1 SLP100=
CYQM;2005-12-11 02:25;SPECI CYQM 110225Z 14005KT 15SM -SHSN BKN050 OVC075 M05/ RMK SC6AC2=
CYQM;2005-12-11 02:49;SPECI CYQM 110249Z 13006KT 15SM BKN040 OVC055 M04/ RMK SC6SC2=
CYQM;2005-12-11 03:00;METAR CYQM 110300Z 13005KT 15SM BKN039 OVC055 M04/M06 A2980 RMK SC6SC2 SLP095=
CYQM;2005-12-11 04:00;METAR CYQM 110400Z 12005KT 15SM OVC022 M03/M04 A2978 RMK SC8 SLP089=
CYQM;2005-12-11 05:00;METAR CYQM 110500Z 16013KT 15SM -SN FEW022 BKN040 OVC055 M00/M02 A2976 RMK SC2SC5SC2 SLP083=
CYQM;2005-12-11 06:00;METAR CYQM 110600Z 15013KT 15SM -SN OVC040 01/M01 A2973 RMK SC8 SLP071=
CYQM;2005-12-11 06:44;SPECI CYQM 110644Z 16012G18KT 15SM FEW030 BKN040 OVC050 01/ RMK SC1SC6SC2=
CYQM;2005-12-11 08:00;METAR CYQM 110800Z 15014KT 15SM SCT015 BKN020 01/M00 A2968 RMK SC4SC3 SLP054=
CYQM;2005-12-11 09:00;METAR CYQM 110900Z 16016KT 15SM FEW035 02/00 A2967 RMK SC2 SLP050=
CYQM;2005-12-11 10:00;METAR CYQM 111000Z 16010KT 15SM BKN020 OVC035 02/01 A2968 RMK SC5SC3 SLP054=
CYQM;2005-12-11 11:00;METAR CYQM 111100Z 16009KT 15SM BKN020 OVC050 02/01 A2967 RMK SC5SC3 SLP053=
CYQM;2005-12-11 12:00;METAR CYQM 111200Z 15013KT 15SM FEW020 SCT050 BKN090 BKN260 03/01 A2965 RMK SC1SC3AC2CI1 SLP045=
CYQM;2005-12-11 13:00;METAR CYQM 111300Z 15017KT 12SM FEW020 BKN050 BKN120 03/02 A2962 RMK SC2SC3AC1 SLP036=
CYQM;2005-12-11 14:00;METAR CYQM 111400Z 14012G17KT 12SM BKN020 BKN050 03/03 A2962 RMK SC6SC2 SLP034=
CYQM;2005-12-11 14:16;SPECI CYQM 111416Z 15009G15KT 12SM SCT008 OVC020 04/ RMK SF3SC5=
CYQM;2005-12-11 14:26;SPECI CYQM 111426Z 15012KT 10SM -RA BKN008 OVC020 04/ RMK SF5SC3=
CYQM;2005-12-11 15:00;METAR CYQM 111500Z 16016KT 12SM -RA BKN008 OVC020 04/04 A2959 RMK SF5SC3 PCPN VRY LGT SLP025=
CYQM;2005-12-11 16:00;METAR CYQM 111600Z 16012G17KT 12SM -RA BKN008 BKN020 OVC100 05/04 A2954 RMK SF5SC2AC1 SLP006=
CYQM;2005-12-11 17:00;METAR CYQM 111700Z 14010KT 8SM -RA BKN008 OVC020 05/04 A2949 RMK SF6SC2 SLP989=
CYQM;2005-12-11 19:42;SPECI CYQM 111942Z 15007KT 12SM -SHRA BKN007 OVC020 05/ RMK SF6SC2=
CYQM;2005-12-11 19:55;SPECI CYQM 111955Z 14007KT 12SM BKN007 BKN020 OVC120 05/ RMK SF5SC2AC1=
CYQM;2005-12-11 20:00;METAR CYQM 112000Z 13005KT 12SM BKN007 BKN020 OVC120 05/05 A2937 RMK SF5SC2AC1 SLP948=
CYQM;2005-12-11 20:34;SPECI CYQM 112034Z 14005KT 12SM SCT007 BKN020 05/ RMK SF3SC4=
CYQM;2005-12-11 21:00;METAR CYQM 112100Z 18004KT 12SM FEW002 FEW007 SCT020 05/04 A2935 RMK SF1SF2SC2 SLP943=
CYQM;2005-12-11 21:36;SPECI CYQM 112136Z 18006KT 10SM FEW002 FEW007 BKN014 BKN020 04/ RMK SF1SF2SC3SC2=
CYQM;2005-12-11 21:43;SPECI CYQM 112143Z 20006KT 1SM R29/P6000FT/N R06/2600VP6000FT/D BR BKN001 BKN007 BKN010 04/ RMK SF5SF2SC1 VIS DCRG RPDLY FM W=
CYQM;2005-12-11 22:00;METAR CYQM 112200Z 22006KT 3/8SM R29/4000VP6000FT/D R06/2200VP6000FT/U FG OVC005 04/04 A2937 RMK FG2SF6 SLP948=
CYQM;2005-12-11 22:22;SPECI CYQM 112222Z 22006KT 3/8SM R29/1600FT/N R06/1400V3000FT/D FG OVC012 04/ RMK FG4SF4=
CYQM;2005-12-11 22:39;SPECI CYQM 112239Z 23006KT 3SM R29/2800VP6000FT/U R06/2000V5000FT/U BR BKN002 OVC007 04/ RMK SF6SF2=
CYQM;2005-12-11 22:46;SPECI CYQM 112246Z 23008KT 5SM R29/P6000FT/N R06/3500VP6000FT/U BR FEW002 BKN023 04/ RMK SF2SC5=
CYQM;2005-12-12 00:00;METAR CYQM 120000Z 25006KT 12SM FEW023 OVC230 02/02 A2940 RMK SC2CS4=
CYQM;2005-12-12 01:39;SPECI CYQM 120139Z 22007KT 5SM BR SCT001 BKN025 OVC230 01/ RMK SF3SC2CS1=
CYQM;2005-12-12 02:00;METAR CYQM 120200Z 23008KT 8SM FEW001 BKN019 OVC025 01/01 A2941 RMK SF1SC5SC2 SLP961=
CYQM;2005-12-12 03:00;METAR CYQM 120300Z 25012KT 12SM FEW025 01/M00 A2943 RMK SC2 SLP968=
CYQM;2005-12-12 04:00;METAR CYQM 120400Z 24011KT 12SM FEW025 M01/M02 A2945 RMK SC1 SLP977=
CYQM;2005-12-12 05:00;METAR CYQM 120500Z 24007KT 10SM SKC M02/M02 A2947 RMK SLP982=
CYQM;2005-12-12 06:00;METAR CYQM 120600Z 23005KT 12SM SKC M03/M03 A2949 RMK SLP991=
CYQM;2005-12-12 07:00;METAR CYQM 120700Z 20004KT 8SM SKC M03/M03 A2949 RMK SLP991=
CYQM;2005-12-12 11:00;METAR CYQM 121100Z 21007KT 15SM FEW070 M05/M06 A2955 RMK AC1 SLP010=
CYQM;2005-12-12 12:00;METAR CYQM 121200Z 20006KT 7SM FEW070 M05/M06 A2958 RMK AC1 SLP019=
CYQM;2005-12-12 13:00;METAR CYQM 121300Z 23004KT 10SM FEW080 M04/M05 A2956 RMK AC1 SLP015=
CYQM;2005-12-12 15:00;METAR CYQM 121500Z 23007KT 12SM BKN080 BKN240 M03/M04 A2957 RMK AC7CI1 SLP016=
CYQM;2005-12-12 16:00;METAR CYQM 121600Z 22004KT 12SM BKN070 BKN240 M02/M04 A2955 RMK AC7CI1 SLP011=
CYQM;2005-12-12 17:00;METAR CYQM 121700Z 23006KT 12SM OVC060 M02/M04 A2956 RMK SC8 SLP014=
CYQM;2005-12-12 18:00;METAR CYQM 121800Z 25006KT 12SM OVC050 M01/M04 A2956 RMK SC8 SLP016=
CYQM;2005-12-12 19:00;METAR CYQM 121900Z 23006KT 12SM OVC045 M02/M03 A2959 RMK SC8 SLP023=
CYQM;2005-12-12 21:00;METAR CYQM 122100Z 25005KT 12SM OVC120 M02/M05 A2963 RMK AC8 SLP037=
CYQM;2005-12-12 22:00;METAR CYQM 122200Z 22004KT 12SM OVC090 M02/M04 A2965 RMK AC8 SLP046=
CYQM;2005-12-12 23:00;METAR CYQM 122300Z 19003KT 12SM OVC080 M02/M04 A2967 RMK AC8 SLP053=
CYQM;2005-12-12 23:15;SPECI CYQM 122315Z 19003KT 12SM -SHSN OVC080 M02/ RMK AC8=
CYQM;2005-12-13 00:00;METAR CYQM 130000Z 20005KT 12SM -SHSN OVC080 M02/M04 A2970 RMK AC8 SLP062=
CYQM;2005-12-13 01:00;METAR CYQM 130100Z 23005KT 8SM -SHSN OVC070 M02/M03 A2972 RMK AC8 SLP068=
CYQM;2005-12-13 01:33;SPECI CYQM 130133Z 22004KT 2 1/2SM -SHSN OVC050 M02/ RMK SC8=
CYQM;2005-12-13 02:00;METAR CYQM 130200Z 22004KT 2 1/2SM -SHSN OVC050 M02/M03 A2974 RMK SC8 SLP075=
CYQM;2005-12-13 03:00;METAR CYQM 130300Z 22005KT 2 1/2SM -SHSN OVC050 M03/M03 A2976 RMK SC8 /S01/ SLP083=
CYQM;2005-12-13 04:00;METAR CYQM 130400Z 21004KT 2 1/2SM -SN OVC050 M03/M03 A2978 RMK SC8 SLP087=
CYQM;2005-12-13 04:56;SPECI CYQM 130456Z 26005KT 3SM -SN BKN007 OVC050 M02/ RMK SF6SC2=
CYQM;2005-12-13 05:00;METAR CYQM 130500Z 26004KT 3SM -SN BKN007 OVC050 M02/M03 A2980 RMK SF6SC2 SLP095=
CYQM;2005-12-13 06:28;SPECI CYQM 130628Z 27003KT 12SM -SN SCT008 BKN050 M04/ RMK SF3SC3=
CYQM;2005-12-13 07:21;SPECI CYQM 130721Z 29007KT 10SM -SN BKN008 BKN050 M03/ RMK SF5SC2=
CYQM;2005-12-13 09:00;METAR CYQM 130900Z 34008KT 10SM -SN BKN007 OVC050 M05/M07 A2994 RMK SF6SC2 SLP142=
CYQM;2005-12-13 10:00;METAR CYQM 131000Z 33010KT 12SM -SN OVC009 M07/M09 A2997 RMK SC8 SLP152=
CYQM;2005-12-13 10:26;SPECI CYQM 131026Z 32011KT 12SM -SN OVC010 M08/ RMK SC8=
CYQM;2005-12-13 11:00;METAR CYQM 131100Z 32011KT 15SM BKN011 OVC050 M09/M11 A3000 RMK SC7SC1 SLP165=
CYQM;2005-12-13 12:00;METAR CYQM 131200Z 35009KT 15SM BKN015 OVC060 M10/M13 A3003 RMK SC7SC1 SLP176=
CYQM;2005-12-13 13:00;METAR CYQM 131300Z 35008KT 15SM BKN017 OVC070 M10/M14 A3008 RMK SC7AC1 SLP192=
CYQM;2005-12-13 14:00;METAR CYQM 131400Z 34011KT 15SM FEW020 BKN070 M11/M15 A3009 RMK SC2AC6 SLP195=
CYQM;2005-12-13 15:00;METAR CYQM 131500Z 33010KT 15SM FEW025 FEW080 M10/M14 A3009 RMK SC1AC2 SLP195=
CYQM;2005-12-13 16:00;METAR CYQM 131600Z 35007KT 15SM FEW025 BKN100 BKN250 M09/M13 A3008 RMK SC1AC6CI1 SLP193=
CYQM;2005-12-13 17:00;METAR CYQM 131700Z 36006KT 15SM FEW025 OVC100 M09/M13 A3009 RMK SC1AC7 SLP196=
CYQM;2005-12-13 19:00;METAR CYQM 131900Z 01009KT 15SM FEW030 BKN090 OVC240 M08/M13 A3011 RMK SC1AC6CI1 SLP202=
CYQM;2005-12-13 21:00;METAR CYQM 132100Z 36008G17KT 15SM FEW030 BKN070 OVC250 M09/M13 A3013 RMK SC1AC4CI2 SLP207=
CYQM;2005-12-13 22:00;METAR CYQM 132200Z 34011KT 15SM BKN018 OVC030 M09/M13 A3015 RMK SC5SC3 SLP214=
CYQM;2005-12-13 22:22;SPECI CYQM 132222Z 33011KT 12SM -SN BKN017 OVC030 M08/ RMK SC6SC2=
CYQM;2005-12-13 23:00;METAR CYQM 132300Z 34015KT 12SM -SN BKN017 OVC030 M08/M11 A3014 RMK SC6SC2 SLP211=
CYQM;2005-12-13 23:44;SPECI CYQM 132344Z 34015KT 2SM -SN VV012 M08/ RMK SN8=
CYQM;2005-12-14 00:00;METAR CYQM 140000Z 33013G20KT 1 1/2SM -SN VV012 M08/M10 A3014 RMK SN8 SLP214=
CYQM;2005-12-14 00:54;SPECI CYQM 140054Z 33013G18KT 1 1/4SM -SN VV010 M10/ RMK SN8=
CYQM;2005-12-14 01:00;METAR CYQM 140100Z 31010G18KT 1 1/4SM -SN VV010 M10/M12 A3015 RMK SN8 SLP215=
CYQM;2005-12-14 02:00;METAR CYQM 140200Z 31011KT 1 1/4SM -SN VV010 M10/M12 A3014 RMK SN8 SLP212=
CYQM;2005-12-14 02:30;SPECI CYQM 140230Z 32015KT 3/4SM R29/P6000FT/U R06/4000V5500FT/U -SN VV008 M10/ RMK SN8=
CYQM;2005-12-14 03:00;METAR CYQM 140300Z 32014G19KT 1/2SM R29/1600V4000FT/D R06/1800V3500FT/N -SN BLSN VV008 M10/M12 A3014 RMK SN8 /S02/ SLP212=
CYQM;2005-12-14 04:00;METAR CYQM 140400Z 32016G21KT 1/2SM R29/1600V3000FT/U R06/2400V6000FT/N -SN BLSN VV008 M10/M12 A3014 RMK SN8 /S03/ SLP213=
CYQM;2005-12-14 04:15;SPECI CYQM 140415Z 32013G18KT 3/4SM R29/P6000FT/D R06/2600V4500FT/D -SN VV008 M10/ RMK SN8=
CYQM;2005-12-14 04:53;SPECI CYQM 140453Z 32015G20KT 1/2SM R29/2200V3500FT/D R06/2800V5500FT/U SN VV008 M10/ RMK SN8=
CYQM;2005-12-14 05:00;METAR CYQM 140500Z 32013G19KT 1/2SM R29/2200V6000FT/U R06/2200V5500FT/N SN VV008 M10/M11 A3015 RMK SN8 /S05/ SLP215=
CYQM;2005-12-14 05:38;SPECI CYQM 140538Z 32014KT 3/4SM R29/2400V6000FT/U R06/2000V3000FT/U -SN VV008 M10/ RMK SN8=
CYQM;2005-12-14 06:00;METAR CYQM 140600Z 32013G18KT 3/4SM R29/1800V5000FT/D R06/1600V5500FT/U -SN VV006 M10/M11 A3015 RMK SN8 /S08/ SLP215=
CYQM;2005-12-14 07:00;METAR CYQM 140700Z 32016KT 3/4SM R29/2800V5000FT/N R06/2800V4500FT/D -SN VV006 M10/M11 A3015 RMK SN8 /S01/ SLP215=
CYQM;2005-12-14 07:51;SPECI CYQM 140751Z 32016KT 1 1/4SM -SN VV010 M09/ RMK SN8=
CYQM;2005-12-14 08:44;SPECI CYQM 140844Z 32014G24KT 1 1/4SM -SN BLSN VV008 M10/ RMK SN8=
CYQM;2005-12-14 08:55;SPECI CYQM 140855Z 32014G24KT 3/4SM R29/P6000FT/D R06/P6000FT/U -SN BLSN VV008 M10/ RMK SN8=
CYQM;2005-12-14 09:00;METAR CYQM 140900Z 32016KT 3/4SM R29/P6000FT/D R06/P6000FT/U -SN BLSN VV008 M10/M11 A3017 RMK SN8 /S03/ SLP224=
CYQM;2005-12-14 09:41;SPECI CYQM 140941Z 32014KT 1SM R29/P6000FT/U R06/4000VP6000FT/D -SN=
CYQM;2005-12-14 10:32;SPECI CYQM 141032Z 32016G21KT 1 1/2SM -SN DRSN OVC030 M10/ RMK SN6SC2=
CYQM;2005-12-14 11:00;METAR CYQM 141100Z 32013G19KT 2SM -SN DRSN OVC030 M10/M12 A3020 RMK SN3SC5 SLP233=
CYQM;2005-12-14 11:25;SPECI CYQM 141125Z 31014KT 3SM -SN DRSN OVC030 M10/ RMK SC8=
CYQM;2005-12-14 11:43;SPECI CYQM 141143Z 31015KT 2 1/2SM -SN DRSN OVC030 M10/ RMK SC8=
CYQM;2005-12-14 12:00;METAR CYQM 141200Z 32016KT 2 1/2SM -SN DRSN OVC030 M10/M12 A3019 RMK SC8 SLP231=
CYQM;2005-12-14 13:00;METAR CYQM 141300Z 31012G19KT 1 1/2SM -SN DRSN OVC030 M10/M12 A3021 RMK SC8 SLP237=
CYQM;2005-12-14 13:21;SPECI CYQM 141321Z 31014G20KT 1SM R29/P6000FT/D R06/P6000FT/D -SN DRSN OVC030 M10/ RMK SN2SC6=
CYQM;2005-12-14 13:51;SPECI CYQM 141351Z 31015KT 1 1/2SM -SN DRSN OVC030 M10/ RMK SC8=
CYQM;2005-12-14 14:00;METAR CYQM 141400Z 31016KT 2SM -SN DRSN OVC030 M10/M12 A3022 RMK SC8 /S01/ SLP239=
CYQM;2005-12-14 14:19;SPECI CYQM 141419Z 32015G26KT 3SM -SN DRSN OVC030 M10/ RMK SC8=
CYQM;2005-12-14 15:00;METAR CYQM 141500Z 32018KT 6SM -SN DRSN FEW030 OVC100 M10/M12 A3019 RMK SC2AC6 SLP230=
CYQM;2005-12-14 16:00;METAR CYQM 141600Z 31014KT 6SM -SHSN DRSN BKN030 OVC100 M09/M11 A3017 RMK SC5AC3 SLP223=
CYQM;2005-12-14 16:39;SPECI CYQM 141639Z 31015KT 2 1/2SM -SHSN DRSN BKN030 OVC100 M09/ RMK SC6AC2=
CYQM;2005-12-14 17:00;METAR CYQM 141700Z 31017KT 2SM -SHSN DRSN BKN030 OVC100 M09/M11 A3014 RMK SC6AC2 SLP214=
CYQM;2005-12-14 17:25;SPECI CYQM 141725Z 32013G21KT 4SM -SHSN DRSN BKN030 OVC100 M09/ RMK SC6AC2=
CYQM;2005-12-14 18:00;METAR CYQM 141800Z 31013G24KT 5SM -SHSN DRSN BKN030 BKN100 OVC240 M09/M11 A3014 RMK SC5AC2CI1 SLP212=
CYQM;2005-12-14 19:00;METAR CYQM 141900Z 31015G27KT 6SM -SHSN DRSN BKN025 OVC120 M08/M11 A3014 RMK SC6AC2 SLP214=
CYQM;2005-12-14 21:00;METAR CYQM 142100Z 31016G21KT 12SM -SHSN DRSN FEW025 OVC060 M08/M11 A3013 RMK SC1SC7 SLP209=
CYQM;2005-12-14 22:00;METAR CYQM 142200Z 31018G24KT 12SM -SHSN DRSN BKN025 OVC100 M08/M11 A3012 RMK SC5AC3 SLP205=
CYQM;2005-12-14 23:00;METAR CYQM 142300Z 32019G25KT 10SM -SHSN DRSN SCT025 BKN100 M08/M10 A3010 RMK SC3AC4 SLP198=
CYQM;2005-12-15 00:00;METAR CYQM 150000Z 32017KT 12SM -SHSN DRSN FEW025 BKN100 M08/M10 A3011 RMK SC2AC6 SLP202=
CYQM;2005-12-15 01:00;METAR CYQM 150100Z 31015G21KT 15SM -SHSN DRSN FEW025 BKN100 M08/M11 A3008 RMK SC1AC6 SLP194=
CYQM;2005-12-15 02:00;METAR CYQM 150200Z 31014G19KT 15SM -SHSN DRSN OVC100 M08/M11 A3008 RMK AC8 SLP192=
CYQM;2005-12-15 03:50;SPECI CYQM 150350Z 31016G21KT 15SM DRSN BKN100 M09/ RMK AC7=
CYQM;2005-12-15 05:00;METAR CYQM 150500Z 31015G24KT 15SM DRSN BKN100 M09/M12 A3003 RMK AC7 SLP173=
CYQM;2005-12-15 06:00;METAR CYQM 150600Z 30016G24KT 15SM DRSN BKN100 M09/M12 A3001 RMK AC7 SLP169=
CYQM;2005-12-15 07:00;METAR CYQM 150700Z 30017G22KT 15SM DRSN BKN100 M09/M13 A3000 RMK AC7 SLP166=
CYQM;2005-12-15 08:00;METAR CYQM 150800Z 30016G21KT 15SM DRSN BKN100 M09/M13 A3000 RMK AC7 SLP164=
CYQM;2005-12-15 09:00;METAR CYQM 150900Z 30013G20KT 15SM DRSN BKN100 M10/M14 A2999 RMK AC6 SLP161=
CYQM;2005-12-15 10:00;METAR CYQM 151000Z 28012G19KT 15SM DRSN FEW040 FEW120 M10/M14 A2999 RMK SC1AC2 SLP161=
CYQM;2005-12-15 12:00;METAR CYQM 151200Z 28017G25KT 15SM DRSN FEW040 FEW120 M11/M15 A3000 RMK SC1AC2 SLP163=
CYQM;2005-12-15 13:00;METAR CYQM 151300Z 27017G24KT 15SM DRSN FEW040 BKN120 M11/M15 A3001 RMK SC1AC4 SLP168=
CYQM;2005-12-15 14:00;METAR CYQM 151400Z 27019G26KT 15SM DRSN FEW020 SCT120 M10/M15 A3001 RMK CU1AC3 SLP168=
CYQM;2005-12-15 15:00;METAR CYQM 151500Z 27012G19KT 15SM DRSN FEW030 FEW120 M09/M14 A3000 RMK SC1AC2 SLP163=
CYQM;2005-12-15 16:00;METAR CYQM 151600Z 27017KT 15SM DRSN FEW030 FEW120 M08/M14 A2996 RMK SC1AC2 SLP152=
CYQM;2005-12-15 17:00;METAR CYQM 151700Z 27014G22KT 15SM DRSN FEW030 FEW240 M07/M13 A2995 RMK SC1CI1 SLP148=
CYQM;2005-12-16 23:17;SPECI CYQM 162317Z 09011KT 15SM -SHSNGS OVC045 M05/ RMK SC8=
CYQM;2005-12-17 00:23;SPECI CYQM 170023Z 07008KT 15SM BKN038 OVC090 M04/ RMK SC7AC1 VIRGA=
CYQM;2005-12-17 00:42;SPECI CYQM 170042Z 06010KT 8SM -SHSN OVC038 M04/ RMK SC8=
CYQM;2005-12-17 00:54;SPECI CYQM 170054Z 06011KT 2 1/2SM -SHSN OVC035 M04/ RMK SC8=
CYQM;2005-12-17 01:21;SPECI CYQM 170121Z 08013KT 1SM R06/5500FT/D R29/5500FT/D -SN DRSN VV010 M04/ RMK SN8=
CYQM;2005-12-17 03:27;SPECI CYQM 170327Z 09024G29KT 3SM -FZRA BR BKN004 OVC006 M01/ RMK SF6SC2=
CYQM;2005-12-17 04:00;METAR CYQM 170400Z 09020KT 7SM -FZRA OVC006 M01/M01 A2992 RMK SF8 SLP138=
CYQM;2005-12-17 06:00;METAR CYQM 170600Z 09011KT 6SM -FZDZ BR BKN004 OVC006 M00/M01 A2987 RMK SF6SF2 SLP121=
CYQM;2005-12-17 06:48;SPECI CYQM 170648Z 09011KT 7SM -DZ OVC004 00/ RMK SF8=
CYQM;2005-12-17 07:00;METAR CYQM 170700Z 08009KT 8SM -DZ OVC002 00/M00 A2984 RMK SF8 SLP108=
CYQM;2005-12-17 07:22;SPECI CYQM 170722Z 08008KT 8SM OVC002 00/ RMK ST8=
CYQM;2005-12-17 07:48;SPECI CYQM 170748Z 09009KT 8SM -DZ OVC002 00/ RMK ST8=
CYQM;2005-12-17 08:48;SPECI CYQM 170848Z 12006KT 3/4SM R06/6000FT/N R29/4500VP6000FT/U BR OVC001 00/ RMK SF8=
CYQM;2005-12-17 09:00;METAR CYQM 170900Z 13003KT 1SM R06/P6000FT/U R29/P6000FT/U BR OVC001 00/00 A2979 RMK ST8 SLP092=
CYQM;2005-12-17 09:25;SPECI CYQM 170925Z 15003KT 1SM R06/P6000FT/N R29/P6000FT/N -DZ BR OVC001 00/ RMK ST8=
CYQM;2005-12-17 09:49;SPECI CYQM 170949Z 14007KT 1 1/2SM -DZ BR SCT002 OVC008 01/ RMK SF3SF5=
CYQM;2005-12-17 10:00;METAR CYQM 171000Z 14009KT 1 1/2SM -DZ BR SCT002 OVC008 01/01 A2975 RMK SF3SF5 SLP077=
CYQM;2005-12-17 10:21;SPECI CYQM 171021Z 16009KT 3SM -DZ BR SCT002 OVC010 01/ RMK SF3SC5=
CYQM;2005-12-17 11:17;SPECI CYQM 171117Z 23022G33KT 3SM -DZ BR SCT003 OVC010 01/ RMK SF3SC5=
CYQM;2005-12-17 11:21;SPECI CYQM 171121Z 23027G33KT 7SM -SHSN SCT003 OVC010 01/ RMK SF3SC5=
CYQM;2005-12-17 11:42;SPECI CYQM 171142Z 23021G28KT 12SM FEW006 BKN012 OVC020 00/ RMK SF2SC5SC2=
CYQM;2005-12-17 12:00;METAR CYQM 171200Z 24021G30KT 15SM FEW006 BKN012 OVC020 00/M01 A2989 RMK SF2SC5SC2 PRESRR SLP124=
CYQM;2005-12-17 12:25;SPECI CYQM 171225Z 23022G28KT 15SM FEW006 BKN017 BKN025 M00/ RMK SF1SC5SC2=
CYQM;2005-12-17 13:00;METAR CYQM 171300Z 23015G22KT 15SM FEW010 SCT200 M01/M03 A2993 RMK SC2CI1 SLP140=
CYQM;2005-12-17 14:00;METAR CYQM 171400Z 25027G33KT 15SM FEW012 SCT200 M01/M05 A3000 RMK CU2CI1 PRESRR SLP161=
CYQM;2005-12-17 15:00;METAR CYQM 171500Z 24020G30KT 15SM SCT020 BKN200 M01/M05 A3002 RMK CU4CI1 SLP171=
CYQM;2005-12-17 16:00;METAR CYQM 171600Z 23021G29KT 15SM SCT020 M01/M05 A3002 RMK CU3 SLP171=
CYQM;2005-12-17 17:00;METAR CYQM 171700Z 24020G34KT 15SM SCT025 M00/M05 A3002 RMK CU3 SLP169=
CYQM;2005-12-17 18:00;METAR CYQM 171800Z 24025G33KT 15SM BKN025 M00/M05 A3004 RMK CU5 SLP177=
CYQM;2005-12-17 19:00;METAR CYQM 171900Z 24019G31KT 15SM BKN025 M00/M05 A3005 RMK CU5 SLP181=
CYQM;2005-12-17 20:00;METAR CYQM 172000Z 23015G22KT 15SM SCT025 M00/M05 A3007 RMK CU4 SLP188=
CYQM;2005-12-17 21:00;METAR CYQM 172100Z 23016G24KT 15SM BKN025 M01/M05 A3009 RMK CU6 SLP194=
CYQM;2005-12-17 22:00;METAR CYQM 172200Z 23016KT 15SM FEW030 M01/M05 A3010 RMK SC2 SLP197=
CYQM;2005-12-17 23:00;METAR CYQM 172300Z 23019G25KT 15SM FEW030 M02/M05 A3011 RMK SC1 SLP202=
CYQM;2005-12-18 00:00;METAR CYQM 180000Z 23014G19KT 15SM FEW250 M02/M05 A3014 RMK CI0 SLP210=
CYQM;2005-12-18 01:00;METAR CYQM 180100Z 23017KT 15SM FEW030 FEW250 M03/M05 A3015 RMK SC1CI0 SLP213=
CYQM;2005-12-18 02:00;METAR CYQM 180200Z 23016KT 15SM FEW030 FEW250 M03/M06 A3017 RMK SC1CI0 SLP221=
CYQM;2005-12-18 03:00;METAR CYQM 180300Z 24019KT 15SM SKC M02/M06 A3018 RMK SLP224=
CYQM;2005-12-18 04:00;METAR CYQM 180400Z 23015KT 15SM SKC M03/M06 A3017 RMK SLP222=
CYQM;2005-12-18 05:00;METAR CYQM 180500Z 24016KT 15SM SKC M04/M07 A3017 RMK SLP221=
CYQM;2005-12-18 06:00;METAR CYQM 180600Z 24014KT 15SM SKC M04/M07 A3019 RMK SLP226=
CYQM;2005-12-18 07:00;METAR CYQM 180700Z 24017KT 15SM SKC M04/M07 A3020 RMK SLP231=
CYQM;2005-12-18 09:00;METAR CYQM 180900Z 24014KT 15SM SKC M05/M07 A3020 RMK SLP232=
CYQM;2005-12-18 10:00;METAR CYQM 181000Z 24010KT 15SM SKC M05/M08 A3020 RMK SLP232=
CYQM;2005-12-18 11:00;METAR CYQM 181100Z 23013KT 15SM SKC M06/M08 A3023 RMK SLP241=
CYQM;2005-12-18 12:00;METAR CYQM 181200Z 23009KT 15SM SKC M06/M08 A3024 RMK SLP246=
CYQM;2005-12-18 13:00;METAR CYQM 181300Z 23011KT 15SM SKC M05/M08 A3024 RMK SLP245=
CYQM;2005-12-18 14:00;METAR CYQM 181400Z 23015KT 15SM SKC M04/M07 A3026 RMK SLP252=
CYQM;2005-12-18 15:00;METAR CYQM 181500Z 23013KT 15SM SKC M02/M06 A3024 RMK SLP245=
CYQM;2005-12-18 16:00;METAR CYQM 181600Z 25012G18KT 15SM SKC M01/M06 A3021 RMK SLP234=
CYQM;2005-12-18 17:00;METAR CYQM 181700Z 25013KT 15SM FEW020 M01/M06 A3018 RMK CF1 SLP225=
CYQM;2005-12-18 18:00;METAR CYQM 181800Z 25014KT 15SM FEW025 00/M06 A3016 RMK CF1 SLP217=
CYQM;2005-12-18 19:00;METAR CYQM 181900Z 25013KT 15SM FEW030 M00/M06 A3016 RMK CF1 SLP217=
CYQM;2005-12-18 20:00;METAR CYQM 182000Z 23008KT 15SM FEW030 FEW250 M01/M06 A3016 RMK CF1CI1 SLP216=
CYQM;2005-12-18 22:00;METAR CYQM 182200Z 22009KT 15SM SCT030 M02/M06 A3017 RMK SC3 SLP223=
CYQM;2005-12-18 23:00;METAR CYQM 182300Z 23008KT 15SM BKN038 M02/M06 A3016 RMK SC6 SLP219=
CYQM;2005-12-19 00:00;METAR CYQM 190000Z 25010KT 15SM BKN040 M03/M06 A3016 RMK SC5 SLP217=
CYQM;2005-12-19 02:00;METAR CYQM 190200Z 24007KT 15SM SKC M04/M07 A3012 RMK SLP205=
CYQM;2005-12-19 03:00;METAR CYQM 190300Z 24009KT 15SM SKC M05/M07 A3011 RMK SLP199=
CYQM;2005-12-19 04:00;METAR CYQM 190400Z 22007KT 15SM SKC M05/M07 A3008 RMK SLP191=
CYQM;2005-12-19 06:00;METAR CYQM 190600Z 22007KT 15SM FEW035 M07/M08 A3006 RMK SC1 SLP182=
CYQM;2005-12-19 07:00;METAR CYQM 190700Z 22006KT 15SM FEW035 M07/M08 A3005 RMK SC1 SLP179=
CYQM;2005-12-19 08:00;METAR CYQM 190800Z 23007KT 15SM FEW035 FEW250 M08/M09 A3004 RMK SC1CI0 FROIN SLP176=
CYQM;2005-12-19 09:00;METAR CYQM 190900Z 22006KT 15SM FEW035 FEW250 M09/M09 A3003 RMK SC1CI0 FROIN SLP175=
CYQM;2005-12-19 10:00;METAR CYQM 191000Z 20006KT 15SM SKC M09/M10 A3002 RMK FROIN SLP171=
CYQM;2005-12-19 11:00;METAR CYQM 191100Z 20007KT 15SM FEW120 M09/M10 A3001 RMK AC1 FROIN SLP169=
CYQM;2005-12-19 12:00;METAR CYQM 191200Z 21006KT 15SM FEW030 FEW120 SCT260 M10/M10 A3000 RMK SC1AC1CI1 FROIN SLP163=
CYQM;2005-12-19 13:00;METAR CYQM 191300Z 20006KT 15SM FEW120 BKN260 M09/M10 A3000 RMK AC2CI3 SLP164=
CYQM;2005-12-19 14:00;METAR CYQM 191400Z 21008KT 15SM FEW120 SCT260 M09/M10 A3000 RMK AC1CI2 SLP163=
CYQM;2005-12-19 15:00;METAR CYQM 191500Z 22007KT 15SM FEW120 BKN260 M07/M08 A2998 RMK AC1CI3 SLP159=
CYQM;2005-12-19 16:00;METAR CYQM 191600Z 23007KT 15SM FEW012 FEW100 SCT260 M04/M07 A2994 RMK CF1AC1CI2 SLP143=
CYQM;2005-12-19 17:00;METAR CYQM 191700Z 24010KT 15SM FEW015 FEW100 SCT260 M03/M07 A2989 RMK CF1AC2CI1 SLP128=
CYQM;2005-12-19 18:00;METAR CYQM 191800Z 22010KT 15SM FEW020 FEW140 SCT260 M02/M08 A2986 RMK CU1AC1CI1 SLP117=
CYQM;2005-12-19 19:00;METAR CYQM 191900Z 22006KT 15SM FEW020 FEW040 FEW140 BKN260 M02/M08 A2984 RMK CU1SC2AC1CI2 SLP111=
CYQM;2005-12-19 20:00;METAR CYQM 192000Z 20004KT 15SM FEW020 BKN080 BKN260 M03/M08 A2982 RMK SC1AC4CI1 SLP104=
CYQM;2005-12-19 21:00;METAR CYQM 192100Z 21004KT 15SM BKN100 M03/M09 A2981 RMK AC7 SLP098=
CYQM;2005-12-19 22:00;METAR CYQM 192200Z 21004KT 15SM SCT060 OVC090 M04/M09 A2979 RMK SC3AC5 SLP094=
CYQM;2005-12-19 23:00;METAR CYQM 192300Z 22003KT 15SM FEW025 SCT035 BKN050 OVC090 M05/M09 A2979 RMK SC1SC2SC4AC1 SLP092=
CYQM;2005-12-20 00:00;METAR CYQM 200000Z 22004KT 15SM FEW035 BKN050 OVC090 M05/M09 A2977 RMK SC2SC4AC2 SLP087=
CYQM;2005-12-20 01:00;METAR CYQM 200100Z 23006KT 15SM FEW090 M06/M09 A2975 RMK AC2 SLP081=
CYQM;2005-12-20 02:00;METAR CYQM 200200Z 23008KT 15SM FEW090 M07/M09 A2974 RMK AC1 SLP077=
CYQM;2005-12-20 03:00;METAR CYQM 200300Z 23009KT 15SM SKC M08/M09 A2974 RMK SLP077=
CYQM;2005-12-20 04:00;METAR CYQM 200400Z 23010KT 15SM SKC M08/M09 A2973 RMK FROIN SLP073=
CYQM;2005-12-20 05:00;METAR CYQM 200500Z 23007KT 15SM SKC M09/M11 A2971 RMK FROIN SLP065=
CYQM;2005-12-20 06:00;METAR CYQM 200600Z 22007KT 15SM SKC M09/M12 A2970 RMK SLP062=
CYQM;2005-12-20 07:00;METAR CYQM 200700Z 21007KT 15SM FEW240 M10/M13 A2969 RMK CI1 SLP058=
CYQM;2005-12-20 08:00;METAR CYQM 200800Z 22008KT 15SM SCT100 BKN240 M10/M13 A2967 RMK AC3CI2 SLP053=
CYQM;2005-12-20 08:35;SPECI CYQM 200835Z 23010KT 15SM -SHSN BKN100 M10/ RMK AC7=
CYQM;2005-12-20 08:54;SPECI CYQM 200854Z 23012KT 15SM BKN100 M09/ RMK AC7=
CYQM;2005-12-20 09:00;METAR CYQM 200900Z 23012KT 15SM BKN100 M09/M12 A2967 RMK AC7 SLP052=
CYQM;2005-12-20 10:00;METAR CYQM 201000Z 23011KT 15SM BKN090 M09/M12 A2966 RMK AC5 SLP049=
CYQM;2005-12-20 11:00;METAR CYQM 201100Z 23014G19KT 15SM BKN090 M08/M11 A2967 RMK AC6 SLP052=
CYQM;2005-12-20 12:00;METAR CYQM 201200Z 22011KT 15SM FEW020 SCT120 BKN260 M08/M11 A2967 RMK SC1AC3CI1 SLP054=
CYQM;2005-12-20 13:00;METAR CYQM 201300Z 23013KT 15SM FEW020 SCT120 BKN260 M07/M11 A2967 RMK SC1AC4CI1 SLP054=
CYQM;2005-12-20 14:00;METAR CYQM 201400Z 23014KT 15SM FEW020 BKN080 BKN120 M06/M10 A2969 RMK SC1AS5AC2 SLP058=
CYQM;2005-12-20 15:00;METAR CYQM 201500Z 23016KT 15SM FEW020 FEW080 BKN120 M05/M09 A2967 RMK SC1AS2AC4 SLP054=
CYQM;2005-12-20 16:00;METAR CYQM 201600Z 23015KT 15SM FEW015 BKN080 BKN120 M03/M08 A2965 RMK CF1AC5AC2 SLP046=
CYQM;2005-12-20 18:00;METAR CYQM 201800Z 24019KT 15SM FEW020 BKN090 M03/M08 A2962 RMK CU1AC6 SLP035=
CYQM;2005-12-20 19:00;METAR CYQM 201900Z 23013KT 15SM FEW020 BKN090 M03/M08 A2964 RMK CF1AC7 SLP040=
CYQM;2005-12-20 20:00;METAR CYQM 202000Z 23010G15KT 15SM FEW020 FEW040 BKN090 M03/M08 A2965 RMK CF1SC1AC6 SLP045=
CYQM;2005-12-20 21:00;METAR CYQM 202100Z 23010KT 15SM FEW015 FEW040 BKN090 M04/M08 A2966 RMK CF1SC1AC5 SLP050=
CYQM;2005-12-20 22:00;METAR CYQM 202200Z 22006KT 15SM SCT075 BKN240 M05/M08 A2967 RMK AC4CI2 SLP054=
CYQM;2005-12-20 23:00;METAR CYQM 202300Z 24007KT 15SM FEW075 M05/M08 A2969 RMK AC2 SLP060=
CYQM;2005-12-21 00:00;METAR CYQM 210000Z 21007KT 15SM FEW040 OVC070 M05/M08 A2971 RMK SC1AC7 SLP065=
CYQM;2005-12-21 00:26;SPECI CYQM 210026Z 23008KT 15SM -SHSN SCT030 OVC070 M05/ RMK SC3AC5=
CYQM;2005-12-21 02:00;METAR CYQM 210200Z 29005KT 8SM -SHSN BKN027 OVC040 M06/M08 A2975 RMK SC6SC2 SLP080=
CYQM;2005-12-21 02:46;SPECI CYQM 210246Z 27007KT 15SM OVC033 M06/ RMK SC8=
CYQM;2005-12-21 03:00;METAR CYQM 210300Z 28005KT 15SM SCT033 OVC040 M06/M09 A2978 RMK SC3SC5 SLP088=
CYQM;2005-12-21 04:00;METAR CYQM 210400Z 28008KT 15SM SCT040 BKN075 M06/M10 A2979 RMK SC3AC4 SLP092=
CYQM;2005-12-21 05:00;METAR CYQM 210500Z 28009KT 15SM SCT075 M08/M12 A2980 RMK AC3 SLP097=
CYQM;2005-12-21 06:00;METAR CYQM 210600Z 28010KT 15SM FEW075 FEW240 M09/M13 A2982 RMK AC1CI1 SLP104=
CYQM;2005-12-21 07:00;METAR CYQM 210700Z 28006KT 15SM FEW240 M10/M13 A2986 RMK CI1 SLP116=
CYQM;2005-12-21 08:00;METAR CYQM 210800Z 30009KT 15SM SKC M11/M14 A2988 RMK SLP123=
CYQM;2005-12-21 09:00;METAR CYQM 210900Z 22005KT 15SM SKC M13/M15 A2990 RMK SLP132=
CYQM;2005-12-21 10:00;METAR CYQM 211000Z 23003KT 15SM FEW250 M14/M15 A2993 RMK CI1 SLP141=
CYQM;2005-12-21 11:00;METAR CYQM 211100Z 22008KT 15SM FEW020 FEW250 M15/M16 A2995 RMK SC1CI1 SLP149=
CYQM;2005-12-21 12:00;METAR CYQM 211200Z 23008KT 15SM FEW020 FEW070 FEW250 M15/M16 A2998 RMK SC1AC1CI1 SLP157=
CYQM;2005-12-21 13:00;METAR CYQM 211300Z 23010KT 15SM FEW020 FEW070 FEW250 M15/M16 A3000 RMK SC1AC1CI1 SLP166=
CYQM;2005-12-21 14:00;METAR CYQM 211400Z 25009KT 15SM FEW020 FEW080 M14/M16 A3003 RMK SC1AC1 SLP173=
CYQM;2005-12-21 15:00;METAR CYQM 211500Z 25008KT 15SM FEW025 FEW080 M12/M16 A3003 RMK SC1AC1 SLP174=
CYQM;2005-12-21 16:00;METAR CYQM 211600Z 20008KT 15SM FEW035 FEW080 M11/M15 A3002 RMK SC1AC1 SLP172=
CYQM;2005-12-21 18:00;METAR CYQM 211800Z 22007KT 15SM FEW035 FEW250 M10/M16 A3000 RMK CU1CI1 SLP163=
CYQM;2005-12-21 19:00;METAR CYQM 211900Z 24009KT 15SM FEW040 FEW120 FEW250 M09/M17 A3000 RMK CU1AC1CI1 SLP164=
CYQM;2005-12-21 20:00;METAR CYQM 212000Z 24007KT 15SM FEW040 FEW240 M10/M17 A3000 RMK SC1CI1 SLP164=
CYQM;2005-12-21 21:00;METAR CYQM 212100Z 24007KT 15SM FEW040 FEW250 M11/M17 A3000 RMK SC1CI1 SLP164=
CYQM;2005-12-21 22:00;METAR CYQM 212200Z 24006KT 15SM FEW040 FEW250 M12/M17 A3000 RMK SC1CI1 SLP166=
CYQM;2005-12-21 23:00;METAR CYQM 212300Z 25007KT 15SM FEW040 M12/M17 A3000 RMK SC1 SLP166=
CYQM;2005-12-22 00:00;METAR CYQM 220000Z 24008KT 15SM FEW040 M14/M17 A3000 RMK SC2 SLP164=
CYQM;2005-12-22 01:00;METAR CYQM 220100Z 21005KT 15SM FEW040 M14/M17 A2998 RMK SC2 SLP159=
CYQM;2005-12-22 03:00;METAR CYQM 220300Z 18005KT 15SM OVC080 M14/M18 A2996 RMK AC8 SLP151=
CYQM;2005-12-22 04:00;METAR CYQM 220400Z 21005KT 15SM OVC080 M13/M18 A2994 RMK AC8 SLP144=
CYQM;2005-12-22 05:00;METAR CYQM 220500Z 20004KT 15SM OVC080 M14/M18 A2992 RMK AC8 SLP139=
CYQM;2005-12-22 06:00;METAR CYQM 220600Z 18004KT 15SM SCT080 M14/M18 A2990 RMK AC3 SLP133=
CYQM;2005-12-22 08:00;METAR CYQM 220800Z 00000KT 15SM FEW080 M13/M19 A2989 RMK AC2 SLP127=
CYQM;2005-12-22 09:00;METAR CYQM 220900Z 22003KT 15SM BKN030 BKN080 M12/M19 A2986 RMK SC5AC1 SLP119=
CYQM;2005-12-22 10:00;METAR CYQM 221000Z 23007KT 8SM FEW030 BKN075 M13/M18 A2986 RMK SC2AC6 SLP118=
CYQM;2005-12-22 10:11;SPECI CYQM 221011Z 23008KT 8SM -SHSN BKN055 M14/ RMK SC7=
CYQM;2005-12-22 11:00;METAR CYQM 221100Z 23008KT 8SM -SHSN SCT050 BKN070 M14/M18 A2988 RMK SC3AC4 SLP123=
CYQM;2005-12-22 11:47;SPECI CYQM 221147Z 24009KT 15SM FEW050 BKN090 M13/ RMK SC2AC6=
CYQM;2005-12-22 12:00;METAR CYQM 221200Z 24008KT 15SM FEW050 SCT090 BKN180 M13/M16 A2990 RMK SC2AC2AC1 SLP133=
CYQM;2005-12-22 13:00;METAR CYQM 221300Z 26012KT 15SM FEW020 FEW050 FEW090 M13/M16 A2994 RMK CU1SC1AC1 SLP145=
CYQM;2005-12-22 14:00;METAR CYQM 221400Z 26009KT 15SM FEW020 FEW050 M12/M17 A2997 RMK CU1SC1 SLP155=
CYQM;2005-12-22 15:00;METAR CYQM 221500Z 24007KT 15SM FEW020 M11/M17 A2997 RMK CU1 SLP157=
CYQM;2005-12-22 16:00;METAR CYQM 221600Z 27012KT 15SM SKC M10/M18 A2996 RMK SLP153=
CYQM;2005-12-22 17:00;METAR CYQM 221700Z 27011G16KT 15SM FEW030 FEW250 M09/M18 A2996 RMK CU1CI0 SLP152=
CYQM;2005-12-22 18:00;METAR CYQM 221800Z 24012KT 15SM FEW250 M09/M18 A2995 RMK CI0 SLP149=
CYQM;2005-12-22 19:00;METAR CYQM 221900Z 25013KT 15SM FEW110 FEW250 M09/M17 A2997 RMK AC2CI0 SLP156=
CYQM;2005-12-22 20:00;METAR CYQM 222000Z 25010G15KT 15SM BKN110 BKN250 M10/M18 A2998 RMK AC5CI0 SLP158=
CYQM;2005-12-22 21:00;METAR CYQM 222100Z 24010KT 15SM FEW110 BKN260 M10/M17 A2998 RMK AC2CI2 SLP159=
CYQM;2005-12-22 23:00;METAR CYQM 222300Z 20005KT 15SM SCT100 BKN260 M12/M17 A3000 RMK AC3CI2 SLP167=
CYQM;2005-12-23 00:00;METAR CYQM 230000Z 18006KT 15SM SCT100 BKN260 M11/M17 A3000 RMK AC3CI2 SLP166=
CYQM;2005-12-23 01:00;METAR CYQM 230100Z 19007KT 15SM SCT100 BKN260 M12/M18 A2997 RMK AC3CI2 SLP155=
CYQM;2005-12-23 02:00;METAR CYQM 230200Z 20007KT 15SM SCT100 BKN200 M11/M17 A2993 RMK AC3CI2 SLP143=
CYQM;2005-12-23 03:00;METAR CYQM 230300Z 19006KT 15SM BKN100 M11/M17 A2991 RMK AC6 SLP133=
CYQM;2005-12-23 04:00;METAR CYQM 230400Z 20006KT 15SM BKN120 M11/M17 A2989 RMK AC6 SLP126=
CYQM;2005-12-23 05:00;METAR CYQM 230500Z 21004KT 15SM BKN120 M11/M16 A2986 RMK AC5 SLP119=
CYQM;2005-12-23 06:00;METAR CYQM 230600Z 20005KT 15SM SCT100 M12/M16 A2984 RMK AC3 SLP109=
CYQM;2005-12-23 07:00;METAR CYQM 230700Z 22006KT 15SM BKN040 OVC100 M11/M15 A2982 RMK SC6AC2 SLP104=
CYQM;2005-12-23 08:48;SPECI CYQM 230848Z 20007KT 15SM -SHSN BKN022 OVC040 M07/ RMK SC6SC2=
CYQM;2005-12-23 10:00;METAR CYQM 231000Z 23005KT 15SM -SHSN OVC025 M06/M09 A2975 RMK SC8 SLP079=
CYQM;2005-12-23 11:00;METAR CYQM 231100Z 21006KT 15SM -SHSN OVC025 M05/M08 A2974 RMK SC8 SLP077=
CYQM;2005-12-23 12:00;METAR CYQM 231200Z 22009KT 15SM BKN025 OVC080 M04/M06 A2974 RMK SC5AC3 SLP075=
CYQM;2005-12-23 12:37;SPECI CYQM 231237Z 25008KT 6SM -SHSN BKN025 OVC080 M03/ RMK SC6AC2=
CYQM;2005-12-23 12:56;SPECI CYQM 231256Z 25009KT 1 1/2SM -SHSN BKN025 OVC080 M03/ RMK SC6AC2=
CYQM;2005-12-23 13:00;METAR CYQM 231300Z 25009KT 1 1/2SM -SHSN BKN025 OVC080 M03/M05 A2976 RMK SC6AC2 SLP082=
CYQM;2005-12-23 13:21;SPECI CYQM 231321Z 23009KT 4SM -SHSN BKN025 OVC080 M03/ RMK SC5AC3=
CYQM;2005-12-23 13:38;SPECI CYQM 231338Z 22009KT 1 1/2SM -SHSN BKN025 OVC080 M03/ RMK SC5AC3=
CYQM;2005-12-23 14:00;METAR CYQM 231400Z 23007KT 6SM -SHSN SCT025 BKN080 M03/M03 A2975 RMK SC3AC4 SLP081=
CYQM;2005-12-23 15:00;METAR CYQM 231500Z 23013G18KT 10SM -SHSN SCT025 BKN080 OVC120 M02/M03 A2975 RMK SC3AC4AC1 SLP079=
CYQM;2005-12-23 16:00;METAR CYQM 231600Z 23012KT 12SM -SHSN BKN025 OVC080 M02/M03 A2974 RMK SC5AC3 SLP077=
CYQM;2005-12-23 17:00;METAR CYQM 231700Z 23012KT 15SM -SHSN BKN025 OVC080 M01/M03 A2974 RMK SC6AC2 PCPN VRY LGT SLP075=
CYQM;2005-12-23 17:19;SPECI CYQM 231719Z 23013KT 15SM BKN025 OVC080 M01/ RMK SC5AC3=
CYQM;2005-12-23 18:00;METAR CYQM 231800Z 24010KT 15SM SCT025 OVC080 M01/M03 A2975 RMK SC4AC4 SLP078=
CYQM;2005-12-23 19:00;METAR CYQM 231900Z 27010KT 15SM FEW012 FEW025 BKN080 BKN260 M01/M04 A2977 RMK CF1SC2AC2CI1 SLP085=
CYQM;2005-12-23 20:00;METAR CYQM 232000Z 26009KT 15SM FEW015 SCT100 BKN260 M01/M04 A2979 RMK SC2AC2CI1 SLP094=
CYQM;2005-12-23 21:00;METAR CYQM 232100Z 24005KT 15SM FEW015 FEW100 BKN260 M02/M04 A2981 RMK SC1AC2CI2 SLP101=
CYQM;2005-12-23 22:00;METAR CYQM 232200Z 24006KT 15SM FEW100 SCT260 M03/M05 A2984 RMK AC1CI1 SLP111=
CYQM;2005-12-23 23:00;METAR CYQM 232300Z 27004KT 15SM FEW100 FEW260 M04/M06 A2986 RMK AC1CI1 SLP118=
CYQM;2005-12-24 00:00;METAR CYQM 240000Z 25006KT 15SM FEW100 FEW260 M04/M06 A2987 RMK AC1CI1 SLP121=
CYQM;2005-12-24 02:00;METAR CYQM 240200Z 23006KT 12SM SCT230 M05/M06 A2990 RMK CI2 SLP130=
CYQM;2005-12-24 03:00;METAR CYQM 240300Z 29003KT 12SM FEW025 FEW120 SCT230 M05/M06 A2990 RMK SC1AC1CI2 SLP131=
CYQM;2005-12-24 04:00;METAR CYQM 240400Z 00000KT 6SM BR FEW040 BKN230 M06/M06 A2990 RMK SC2CI3 FROIN SLP129=
CYQM;2005-12-24 05:00;METAR CYQM 240500Z 00000KT 12SM FEW025 FEW035 OVC130 M05/M06 A2989 RMK SC1SC2AS6 FROIN SLP127=
CYQM;2005-12-24 06:31;SPECI CYQM 240631Z 00000KT 8SM -SN BKN021 OVC130 M05/ RMK SC6AS2=
CYQM;2005-12-24 06:51;SPECI CYQM 240651Z 17003KT 2SM -SN OVC021 M05/ RMK SN4SC4=
CYQM;2005-12-24 07:00;METAR CYQM 240700Z 20003KT 1 1/2SM -SN OVC021 M05/M06 A2989 RMK SN5SC3 SLP128=
CYQM;2005-12-24 07:02;SPECI CYQM 240702Z 19003KT 1 1/4SM -SN OVC018 M05/ RMK SN5SC3=
CYQM;2005-12-24 08:00;METAR CYQM 240800Z 16003KT 1 1/2SM -SN OVC016 M05/M06 A2988 RMK SN4SC4 /S01/ SLP124=
CYQM;2005-12-24 08:45;SPECI CYQM 240845Z 00000KT 3SM -SN OVC018 M05/ RMK SC8=
CYQM;2005-12-24 09:22;SPECI CYQM 240922Z 08002KT 1SM R06/P6000FT/D R29/P6000FT/D -SN VV010 M05/ RMK SN8=
CYQM;2005-12-24 10:00;METAR CYQM 241000Z 08003KT 1SM R06/P6000FT/D R29/P6000FT/D -SN VV010 M04/M05 A2987 RMK SN8 SLP119=
CYQM;2005-12-24 11:00;METAR CYQM 241100Z 09005KT 1SM R06/P6000FT/D R29/P6000FT/D -SN VV010 M04/M04 A2986 RMK SN8 /S03/ SLP117=
CYQM;2005-12-24 11:42;SPECI CYQM 241142Z 09007KT 1 1/2SM -SN VV012 M04/ RMK SN8=
CYQM;2005-12-24 12:00;METAR CYQM 241200Z 08007KT 1 1/4SM -SN VV010 M04/M05 A2986 RMK SN8 /S04/ SLP115=
CYQM;2005-12-24 13:00;METAR CYQM 241300Z 09007KT 1 1/4SM -SN OVC015 M04/M04 A2987 RMK SN6SC2 SLP119=
CYQM;2005-12-24 13:32;SPECI CYQM 241332Z 09006KT 3/4SM R06/P6000FT/U R29/P6000FT/U -SN VV008 M04/ RMK SN8=
CYQM;2005-12-24 13:37;SPECI CYQM 241337Z 09006KT 1/2SM R06/3500VP6000FT/D R29/3000VP6000FT/D SN VV005 M04/ RMK SN8=
CYQM;2005-12-24 13:52;SPECI CYQM 241352Z 09007KT 1 1/4SM -SN OVC015 M03/ RESN RMK SN6SC2=
CYQM;2005-12-24 14:00;METAR CYQM 241400Z 09007KT 1SM R06/P6000FT/D R29/P6000FT/N -SN OVC015 M03/M04 A2987 RESN RMK SN5SC3 /S01/ SLP120=
CYQM;2005-12-24 14:13;SPECI CYQM 241413Z 09007KT 2SM -SN BKN015 OVC080 M03/ RMK SC7AC1=
CYQM;2005-12-24 14:42;SPECI CYQM 241442Z 09007KT 4SM -SN BKN015 OVC080 M03/ RMK SC7AC1=
CYQM;2005-12-24 15:00;METAR CYQM 241500Z 09006KT 5SM -SN BKN015 OVC080 M03/M03 A2986 RMK SC7AC1 /S02/ SLP117=
CYQM;2005-12-24 16:00;METAR CYQM 241600Z 09004KT 6SM -SN OVC015 M02/M03 A2985 RMK SC8 SLP113=
CYQM;2005-12-24 17:00;METAR CYQM 241700Z 00000KT 5SM -SN BKN015 BKN100 M02/M02 A2983 RMK SC5AC2 SLP105=
CYQM;2005-12-24 18:00;METAR CYQM 241800Z 08003KT 8SM -SN BKN015 OVC100 M01/M02 A2981 RMK SC5AC3 PCPNVRY LGT SLP101=
CYQM;2005-12-24 18:40;SPECI CYQM 241840Z 06002KT 10SM FEW006 OVC012 M01/ RMK SF2SC6=
CYQM;2005-12-24 19:00;METAR CYQM 241900Z 04002KT 10SM SCT006 OVC012 M01/M02 A2984 RMK SF3SC5 SLP111=
CYQM;2005-12-24 20:00;METAR CYQM 242000Z 06003KT 8SM SCT006 OVC012 M01/M02 A2986 RMK SF3SC5 SLP116=
CYQM;2005-12-24 21:00;METAR CYQM 242100Z 12003KT 8SM SCT006 OVC012 M01/M01 A2988 RMK SF3SC5 SLP122=
CYQM;2005-12-24 21:23;SPECI CYQM 242123Z 14002KT 8SM OVC003 M01/ RMK ST8=
CYQM;2005-12-24 21:53;SPECI CYQM 242153Z 18002KT 8SM OVC002 M01/ RMK ST8=
CYQM;2005-12-24 22:00;METAR CYQM 242200Z 20003KT 8SM OVC002 M01/M01 A2990 RMK ST8 SLP129=
CYQM;2005-12-24 22:07;SPECI CYQM 242207Z 18003KT 8SM SCT002 OVC006 M01/ RMK SF3SF5=
CYQM;2005-12-24 22:33;SPECI CYQM 242233Z 00000KT 10SM FEW003 FEW006 SCT010 OVC050 M01/ RMK SF1SF2SF1SC5=
CYQM;2005-12-24 22:43;SPECI CYQM 242243Z 00000KT 8SM BKN003 OVC050 M01/ RMK SF5SC3=
CYQM;2005-12-24 23:00;METAR CYQM 242300Z 16002KT 8SM BKN003 OVC050 M01/M02 A2991 RMK SF6SC2 SLP132=
CYQM;2005-12-24 23:12;SPECI CYQM 242312Z 00000KT 8SM OVC002 M01/ RMK ST8=
CYQM;2005-12-24 23:30;SPECI CYQM 242330Z 16003KT 1 1/4SM BR OVC001 M02/ RMK ST8 VIS S-W 4=
CYQM;2005-12-24 23:43;SPECI CYQM 242343Z 16004KT 5SM BR OVC002 M01/ RMK ST8 VIS LWR N=
CYQM;2005-12-25 00:00;METAR CYQM 250000Z 17005KT 5SM BR OVC002 M01/M02 A2992 RMK ST8 SLP138=
CYQM;2005-12-25 01:00;METAR CYQM 250100Z 21004KT 2SM BR OVC001 OVC008 M02/M02 A2994 RMK ST6SC2 SLP142=
CYQM;2005-12-25 01:06;SPECI CYQM 250106Z 20004KT 1 1/4SM BR OVC001 M02/ RMK ST8 BEAM VISBLTO300FT=
CYQM;2005-12-25 02:00;METAR CYQM 250200Z 18004KT 1SM R29/P6000FT/N R06/P6000FT/U BR BKN001 OVC003 M02/M02 A2994 RMK SF6SF2 SLP144=
CYQM;2005-12-25 02:06;SPECI CYQM 250206Z 20004KT 3/4SM R29/P6000FT/U R06/P6000FT/D BR VV004 M02/ RMK FG8=
CYQM;2005-12-25 02:22;SPECI CYQM 250222Z 19004KT 1/2SM R29/5000FT/D R06/5500FT/N FZFG VV003 M02/ RMK FG8=
CYQM;2005-12-25 02:30;SPECI CYQM 250230Z 20004KT 3/8SM R29/3000V4500FT/D R06/3000V5000FT/D=
CYQM;2005-12-25 02:42;SPECI CYQM 250242Z 21004KT 1/8SM R29/2800FT/N R06/1400V2200FT/D FZFG VV001 M01/ RMK FG8=
CYQM;2005-12-25 03:25;SPECI CYQM 250325Z 23007KT 3/4SM R29/1400FT/N R06/1600V5000FT/U BR VV003 M01/ RMK FG8=
CYQM;2005-12-25 03:47;SPECI CYQM 250347Z 25007KT 1 3/4SM BR FEW001 OVC002 M02/ RMK SF2ST6=
CYQM;2005-12-25 04:00;METAR CYQM 250400Z 24008KT 2SM BR FEW001 OVC003 M02/M02 A2996 RMK SF2SF6 SLP149=
CYQM;2005-12-25 04:04;SPECI CYQM 250404Z 23009KT 1 3/4SM BR BKN001 OVC003 M02/ RMK SF6SF2=
CYQM;2005-12-25 04:19;SPECI CYQM 250419Z 23007KT 1SM R29/P6000FT/D R06/P6000FT/N BR BKN001 OVC003 M02/ RMK SF6SF2=
CYQM;2005-12-25 04:46;SPECI CYQM 250446Z 25009KT 3/4SM R29/P6000FT/N R06/P6000FT/D BR VV003 M02/ RMK FG8=
CYQM;2005-12-25 05:00;METAR CYQM 250500Z 25009KT 3/4SM R29/P6000FT/D R06/P6000FT/U BR VV003 M02/M02 A2997 RMK FG8 SLP155=
CYQM;2005-12-25 05:48;SPECI CYQM 250548Z 25009KT 5/8SM R29/4000V5500FT/D R06/4500FT/U BR VV002 M03/ RMK FG8=
CYQM;2005-12-25 06:00;METAR CYQM 250600Z 26009KT 5/8SM R29/4000FT/N R06/5000FT/U BR VV002 M03/M03 A2998 RMK FG8 SLP158=
CYQM;2005-12-25 06:12;SPECI CYQM 250612Z 25010KT 3/4SM R29/5000FT/N R06/P6000FT/U BR VV004 M03/ RMK FG8=
CYQM;2005-12-25 06:22;SPECI CYQM 250622Z 25008KT 1 1/2SM BR OVC001 M03/ RMK ST8 BEAM VISBL TO 400FT=
CYQM;2005-12-25 06:44;SPECI CYQM 250644Z 26007KT 4SM BR OVC002 M03/ RMK ST8=
CYQM;2005-12-25 07:00;METAR CYQM 250700Z 25007KT 6SM BR OVC002 M03/M03 A3000 RMK ST8 SLP162=
CYQM;2005-12-25 07:17;SPECI CYQM 250717Z 25007KT 4SM BR OVC001 M03/ RMK ST8 VIS NW-N 1 BEAM VISBLTO400FT=
CYQM;2005-12-25 08:30;SPECI CYQM 250830Z 22003KT 4SM BR OVC001 M03/ RMK ST8 BEAM VISBL TO 500FT VIS W-NW 11/2=
CYQM;2005-12-25 08:43;SPECI CYQM 250843Z 22002KT 1 1/4SM BR VV004 M03/ RMK FG8=
CYQM;2005-12-25 09:00;METAR CYQM 250900Z 25003KT 3/4SM R29/P6000FT/D R06/P6000FT/D BR VV003 M03/M03 A2999 RMK FG8 SLP159=
CYQM;2005-12-25 10:00;METAR CYQM 251000Z 00000KT 3/4SM R06/P6000FT/U R29/3000FT/N BR VV003 M03/M03 A2999 RMK FG8 SLP161=
CYQM;2005-12-25 11:00;METAR CYQM 251100Z 22004KT 5/8SM R06/2400V4000FT/D R29/3000V4500FT/U BR VV003 M03/M03 A3000 RMK FG8 SLP164=
CYQM;2005-12-25 11:40;SPECI CYQM 251140Z 00000KT 5/8SM R06/2400FT/N R29/3000FT/N -SHSN BR VV003 M03/ RMK FG8=
CYQM;2005-12-25 12:00;METAR CYQM 251200Z 00000KT 5/8SM R06/2200FT/D R29/2800VP6000FT/U -SHSN BR VV003 M03/M03 A3002 RMK FG8 SLP169=
CYQM;2005-12-25 12:12;SPECI CYQM 251212Z 00000KT 5/8SM R06/1800V2600FT/U R29/P6000FT/N -SHSN BR VV003 M03/ RMK SN8=
CYQM;2005-12-25 12:44;SPECI CYQM 251244Z 00000KT 1SM R06/3500V5500FT/U R29/P6000FT/N -SHSN OVC018 M03/ RMK SN6SC2=
CYQM;2005-12-25 13:00;METAR CYQM 251300Z 07002KT 1 1/4SM -SHSN BKN018 M03/M03 A3002 RMK SN2SC5 SLP170=
CYQM;2005-12-25 13:16;SPECI CYQM 251316Z 00000KT 2SM -SHSN BKN018 M03/ RMK SC7=
CYQM;2005-12-25 13:31;SPECI CYQM 251331Z 00000KT 1SM R06/P6000FT/D R29/P6000FT/N -SHSN OVC018 M03/ RMK SN2SC6=
CYQM;2005-12-25 14:00;METAR CYQM 251400Z 04002KT 1 1/4SM -SHSN OVC018 M02/M03 A3004 RMK SN1SC7 SLP177=
CYQM;2005-12-25 14:15;SPECI CYQM 251415Z 04002KT 1 3/4SM -SHSN BKN018 OVC080 M02/ RMK SC7AC1=
CYQM;2005-12-25 14:26;SPECI CYQM 251426Z 33002KT 3SM -SHSN BKN018 OVC080 M02/ RMK SC7AC1=
CYQM;2005-12-25 15:00;METAR CYQM 251500Z 00000KT 4SM -SHSN BKN018 OVC080 M02/M02 A3004 RMK SC6AC2 SLP178=
CYQM;2005-12-25 15:49;SPECI CYQM 251549Z 00000KT 7SM -SHSN FEW005 OVC018 M02/ RMK SF2SC6=
CYQM;2005-12-25 16:00;METAR CYQM 251600Z 09002KT 8SM FEW005 OVC018 M02/M02 A3003 RMK SF2SC6 SLP172=
CYQM;2005-12-25 17:00;METAR CYQM 251700Z 02003KT 8SM FEW005 OVC018 M02/M02 A3003 RMK SF2SC6 SLP172=
CYQM;2005-12-25 17:25;SPECI CYQM 251725Z 02003KT 6SM -SHSN FEW005 OVC018 M02/ RMK SF2SC6=
CYQM;2005-12-25 18:00;METAR CYQM 251800Z 08004KT 6SM -SHSN FEW005 OVC015 M02/M02 A3001 RMK SF2SC6 /S01/ SLP166=
CYQM;2005-12-25 18:25;SPECI CYQM 251825Z 07004KT 8SM FEW005 OVC015 M02/ RMK SF2SC6=
CYQM;2005-12-25 19:00;METAR CYQM 251900Z 04005KT 8SM FEW005 OVC015 M01/M02 A3001 RMK SF2SC6 SLP168=
CYQM;2005-12-25 19:47;SPECI CYQM 251947Z 06003KT 10SM BKN008 OVC015 M01/ RMK SF5SC3=
CYQM;2005-12-25 20:00;METAR CYQM 252000Z 04003KT 10SM BKN008 OVC015 M01/M02 A3004 RMK SF5SC3 SLP177=
CYQM;2005-12-25 21:19;SPECI CYQM 252119Z 05005KT 8SM BKN003 OVC006 M01/ RMK SF6SF2=
CYQM;2005-12-25 22:00;METAR CYQM 252200Z 06006KT 8SM OVC003 M02/M02 A3004 RMK ST8 SLP176=
CYQM;2005-12-25 23:39;SPECI CYQM 252339Z 08003KT 8SM FEW003 BKN007 OVC050 M02/ RMK SF2SF3SC2=
CYQM;2005-12-26 00:00;METAR CYQM 260000Z 07005KT 8SM FEW003 OVC005 M02/M02 A3004 RMK SF2ST6 SLP176=
CYQM;2005-12-26 00:27;SPECI CYQM 260027Z 05006KT 8SM BKN003 OVC011 M02/ RMK SF7SF1=
CYQM;2005-12-26 00:47;SPECI CYQM 260047Z 06006KT 1 1/4SM BR VV004 M02/ RMK FG8 VIS HIER SW=
CYQM;2005-12-26 00:52;SPECI CYQM 260052Z 06006KT 3/4SM R29/P6000FT/N R06/P6000FT/D BR VV004 M02/ RMK FG8=
CYQM;2005-12-26 01:00;METAR CYQM 260100Z 06005KT 1SM R29/P6000FT/U R06/P6000FT/U BR OVC003 M02/M02 A3003 RMK FG3ST5 SLP172=
CYQM;2005-12-26 01:36;SPECI CYQM 260136Z 06004KT 5/8SM R29/4000VP6000FT/D R06/4500VP6000FT/D BR VV003 M02/ RMK FG8=
CYQM;2005-12-26 01:39;SPECI CYQM 260139Z 06005KT 3/8SM R29/3500V5500FT/D R06/3500V6000FT/D=
CYQM;2005-12-26 02:00;METAR CYQM 260200Z 07005KT 1/4SM R29/2600FT/N R06/2600FT/N FZFG VV002 M02/M02 A3002 RMK FG8 SLP170=
CYQM;2005-12-26 02:31;SPECI CYQM 260231Z 07007KT 1/8SM R29/1600FT/N R06/1800FT/N FZFG VV001 M01/ RMK FG8=
CYQM;2005-12-26 03:02;SPECI CYQM 260302Z 08008KT 1/2SM R29/2600V4000FT/U R06/2600FT/U FZFG VV003 M01/ RMK FG8=
CYQM;2005-12-26 03:11;SPECI CYQM 260311Z 08007KT 3/4SM R29/3500VP6000FT/U R06/3000V4500FT/U BR VV003 M01/ RMK FG8=
CYQM;2005-12-26 04:00;METAR CYQM 260400Z 07006KT 1/2SM R29/3500VP6000FT/D R06/4000VP6000FT/D=
CYQM;2005-12-26 04:08;SPECI CYQM 260408Z 06006KT 1/4SM R29/3000FT/D R06/3000FT/D FZFG VV002 M01/ RMK FG8=
CYQM;2005-12-26 04:24;SPECI CYQM 260424Z 07006KT 1/8SM R29/2000FT/N R06/1800FT/N FZFG VV001 M01/ RMK FG8=
CYQM;2005-12-26 06:00;METAR CYQM 260600Z 04007KT 1/4SM R29/2000FT/N R06/1800FT/N FZFG VV002 M01/M01 A2996 RMK FG8 SLP150=
CYQM;2005-12-26 06:52;SPECI CYQM 260652Z 04009KT 1/4SM R29/2400FT/N R06/2200FT/N -FZDZ FZFG VV002 M01/ RMK FG8=
CYQM;2005-12-26 08:00;METAR CYQM 260800Z 06011KT 1/4SM R29/2200FT/N R06/2000FT/N -FZDZ FZFG VV002 M00/M00 A2988 RMK FG8 SLP124=
CYQM;2005-12-26 09:00;METAR CYQM 260900Z 07012KT 3/8SM R29/2400FT/N R06/2400FT/N -SN FZFG VV002 M00/M00 A2985 REFZDZ RMK FG8 SLP112=
CYQM;2005-12-26 09:05;SPECI CYQM 260905Z 07010G15KT 3/8SM R29/2800FT/N R06/2800FT/U -SN FZFG VV003 M00/ RMK FG8=
CYQM;2005-12-26 09:11;SPECI CYQM 260911Z 06011KT 3/4SM R29/3500FT/U R06/3000V4000FT/U -SN BR OVC005 M00/ RMK SN3SF5=
CYQM;2005-12-26 09:17;SPECI CYQM 260917Z 06011KT 1SM R29/3500VP6000FT/U R06/3500V6000FT/U -SN BR OVC003 M00/ RMK SN2SF6=
CYQM;2005-12-26 09:46;SPECI CYQM 260946Z 07014KT 3/4SM R29/P6000FT/N R06/P6000FT/N -SN BR VV008 M00/ RMK SN8=
CYQM;2005-12-26 10:13;SPECI CYQM 261013Z 06011G19KT 1 1/4SM -SN BR OVC005 M00/ RMK SN4SF4=
CYQM;2005-12-26 10:28;SPECI CYQM 261028Z 07011KT 4SM -SN BR OVC003 00/ RMK SF8=
CYQM;2005-12-26 11:00;METAR CYQM 261100Z 05013KT 7SM -SN OVC003 00/00 A2975 RMK SF8 SLP080=
CYQM;2005-12-26 11:15;SPECI CYQM 261115Z 05010G16KT 7SM -RASN OVC003 00/ RMK SF8=
CYQM;2005-12-26 12:00;METAR CYQM 261200Z 06014G24KT 3SM -RASN BR OVC003 00/00 A2973 RMK SF8 /S01/ SLP070=
CYQM;2005-12-26 12:34;SPECI CYQM 261234Z 06014KT 3SM -RA BR OVC003 00/ RMK SF8=
CYQM;2005-12-26 13:00;METAR CYQM 261300Z 04013G18KT 3SM -RA BR OVC003 00/00 A2971 RMK SF8 SLP064=
CYQM;2005-12-26 13:24;SPECI CYQM 261324Z 05011G18KT 2 1/2SM -RA BR OVC003 00/ RMK SF8=
CYQM;2005-12-26 14:00;METAR CYQM 261400Z 05014G20KT 2 1/2SM -RA BR OVC003 00/00 A2967 RMK SF8 SLP051=
CYQM;2005-12-26 14:35;SPECI CYQM 261435Z 05017G25KT 4SM -RA BR OVC003 00/ RMK SF8=
CYQM;2005-12-26 16:00;METAR CYQM 261600Z 05015KT 4SM -RA BR OVC003 00/M00 A2958 RMK SF8 SLP020=
CYQM;2005-12-26 16:47;SPECI CYQM 261647Z 04015G21KT 2 1/2SM -RA BR OVC003 00/ RMK SF8=
CYQM;2005-12-26 17:00;METAR CYQM 261700Z 04019G25KT 3SM -RA BR BKN003 OVC005 00/M00 A2953 RMK SF6SF2 SLP002=
CYQM;2005-12-26 17:29;SPECI CYQM 261729Z 04019G24KT 2SM -RA BR BKN003 OVC005 00/ RMK SF6SF2=
CYQM;2005-12-26 17:33;SPECI CYQM 261733Z 04020G25KT 2SM -DZ BR BKN003 OVC005 00/ RMK SF6SF2=
CYQM;2005-12-26 18:00;METAR CYQM 261800Z 04022G30KT 2SM -DZ BR BKN003 OVC005 00/M00 A2945 RMK SF6SF2 PRESFR SLP977=
CYQM;2005-12-26 18:53;SPECI CYQM 261853Z 04025G32KT 1 1/4SM -DZ BR OVC002 00/ RMK SF8=
CYQM;2005-12-26 19:00;METAR CYQM 261900Z 04025G34KT 1 1/4SM -DZ BR OVC002 00/M00 A2939 RMK SF8 PRESFR SLP957=
CYQM;2005-12-26 19:27;SPECI CYQM 261927Z 03020G30KT 1SM R29/P6000FT/N R06/P6000FT/D -RA BR OVC002 00/ RMK SF8=
CYQM;2005-12-26 20:00;METAR CYQM 262000Z 03024G31KT 1SM R29/5500FT/U -RA BR OVC002 00/M00 A2937 RMK SF8 SLP949=
CYQM;2005-12-26 20:13;SPECI CYQM 262013Z 03020G33KT 1 1/2SM R29/5500FT/U -RA BR OVC002 00/ RMK SF8=
CYQM;2005-12-26 21:40;SPECI CYQM 262140Z 03022G33KT 2SM -FZRA BR BKN004 OVC006 M00/ RMK SF6SF2=
CYQM;2005-12-26 22:00;METAR CYQM 262200Z 03025G30KT 1 1/2SM R06/4500VP6000FT/U R29/P6000FT/U=
CYQM;2005-12-26 22:15;SPECI CYQM 262215Z 03023G31KT 4SM -FZRA BR OVC005 M00/ REFZRA RMK SF8=
CYQM;2005-12-26 22:32;SPECI CYQM 262232Z 03023G33KT 4SM -FZRA BR BKN003 OVC006 M00/ REFZRA RMK SF5SF3=
CYQM;2005-12-26 23:20;SPECI CYQM 262320Z 02022G29KT 5SM -FZRA BR OVC005 M00/ REFZRA RMK SF8=
CYQM;2005-12-26 23:49;SPECI CYQM 262349Z 03019G27KT 2SM -FZRA BR SCT002 OVC005 M00/ REFZRA RMK SF3SF5=
CYQM;2005-12-27 00:00;METAR CYQM 270000Z 02023KT 2SM -FZRA BR SCT002 OVC005 M00/M00 A2918 REFZRA RMK SF3SF5 SLP883=
CYQM;2005-12-27 00:18;SPECI CYQM 270018Z 02024G31KT 4SM -FZRA BR SCT002 OVC005 M00/ RMK SF3SF5=
CYQM;2005-12-27 01:27;SPECI CYQM 270127Z 02023G30KT 2SM -SN -FZRA BR OVC004 M00/ RMK SF8=
CYQM;2005-12-27 03:00;METAR CYQM 270300Z 02018G27KT 1SM R06/4000VP6000FT/D R29/P6000FT/U -PLSN VV005 M00/M01 A2908 REFZRA RMK SN8 PRESFR /S01/ SLP852=
CYQM;2005-12-27 03:28;SPECI CYQM 270328Z 02019KT 3/4SM R06/3000V5000FT/D R29/3000VP6000FT/D -SN VV005 M01/ RMK SN8=
CYQM;2005-12-27 04:00;METAR CYQM 270400Z 01017G24KT 3/4SM R06/3000VP6000FT/D R29/3500V6000FT/D -PLSN VV005 M01/M01 A2906 RMK SN8 /S02/ SLP843=
CYQM;2005-12-27 05:00;METAR CYQM 270500Z 01015G21KT 1/4SM R06/0900V1400FT/D R29/1000FT/N +SN=
CYQM;2005-12-27 06:22;SPECI CYQM 270622Z 36016G21KT 1 1/4SM R06/4000VP6000FT/U R29/P6000FT/U -SN DRSN VV008 M01/ RMK SN8=
CYQM;2005-12-27 06:54;SPECI CYQM 270654Z 36016G21KT 3/4SM R06/5000FT/D R29/4500VP6000FT/U -SN DRSN VV005 M01/ RMK SN8=
CYQM;2005-12-27 07:25;SPECI CYQM 270725Z 36020G26KT 1 1/2SM -SN DRSN VV008 M02/ RMK SN8=
CYQM;2005-12-27 08:00;METAR CYQM 270800Z 35019G27KT 1 1/2SM -SN DRSN VV008 M02/M02 A2902 RMK SN8 SLP830=
CYQM;2005-12-27 08:50;SPECI CYQM 270850Z 35017G29KT 1SM R06/2600VP6000FT/D R29/P6000FT/D -SN DRSN VV006 M02/ RMK SN8=
CYQM;2005-12-27 10:00;METAR CYQM 271000Z 35016G26KT 1 1/4SM -SN BLSN VV006 M02/M02 A2904 RMK SN8 SLP837=
CYQM;2005-12-27 12:00;METAR CYQM 271200Z 33018G24KT 1 1/4SM -SN BLSN VV008 M04/M04 A2908 RMK SN8 /S02/ SLP852=
CYQM;2005-12-27 12:49;SPECI CYQM 271249Z 33018G24KT 3/4SM R29/P6000FT/N -SN BLSN VV008 M05/ RMK SN8=
CYQM;2005-12-27 13:00;METAR CYQM 271300Z 33022G29KT 3/4SM R29/P6000FT/N -SN BLSN VV008 M05/M05 A2911 RMK SN8 SLP860=
CYQM;2005-12-27 14:00;METAR CYQM 271400Z 33021G32KT 3/4SM R29/P6000FT/N -SN BLSN VV008 M05/M05 A2910 RMK SN8 /S01/ SLP858=
CYQM;2005-12-27 15:00;METAR CYQM 271500Z 33020G26KT 1SM R29/P6000FT/N -SN BLSN VV008 M05/M05 A2916 RMK SN8 PRESRR SLP878=
CYQM;2005-12-27 15:16;SPECI CYQM 271516Z 32019G24KT 1 1/2SM -SN BLSN VV008 M05/ RMK SN8=
CYQM;2005-12-27 16:00;METAR CYQM 271600Z 32017G25KT 1 1/2SM -SN BLSN OVC007 M05/M06 A2916 RMK SN2SF6 SLP878=
CYQM;2005-12-27 17:00;METAR CYQM 271700Z 32016G22KT 1 1/2SM -SN BLSN OVC007 M05/M06 A2918 RMK SN2SF6 SLP883=
CYQM;2005-12-27 18:00;METAR CYQM 271800Z 31018KT 1 1/2SM -FZDZ BR OVC004 M05/M06 A2920 REBLSN RMK SF8 SLP892=
CYQM;2005-12-27 19:00;METAR CYQM 271900Z 32014G20KT 1 1/2SM -FZDZ BR OVC004 M05/M06 A2922 RMK SF8 SLP900=
CYQM;2005-12-27 19:27;SPECI CYQM 271927Z 32012G20KT 2SM -FZDZ BR OVC004 M05/ RMK SF8=
CYQM;2005-12-27 20:00;METAR CYQM 272000Z 33017KT 2 1/2SM -FZDZ BR OVC004 M05/M06 A2926 RMK SF8 SLP911=
CYQM;2005-12-27 20:17;SPECI CYQM 272017Z 32016G22KT 5SM -FZDZ BR OVC006 M06/ RMK SF8=
CYQM;2005-12-27 21:00;METAR CYQM 272100Z 32014G21KT 8SM -FZDZ OVC006 M06/M06 A2929 RMK SF8 SLP922=
CYQM;2005-12-27 21:21;SPECI CYQM 272121Z 32014G19KT 12SM -SN SCT005 OVC012 M05/ REFZDZ RMK SF4SC4=
CYQM;2005-12-27 22:00;METAR CYQM 272200Z 32012G17KT 5SM -SN DRSN SCT008 OVC013 M06/M07 A2933 REFZDZ RMK SF3SC5 SLP935=
CYQM;2005-12-27 23:00;METAR CYQM 272300Z 31014G19KT 8SM -SN DRSN OVC019 M06/M06 A2937 RMK SC8 SLP951=
CYQM;2005-12-27 23:24;SPECI CYQM 272324Z 31014G20KT 2SM -SN DRSN OVC016 M06/ RMK SC8=
CYQM;2005-12-27 23:51;SPECI CYQM 272351Z 32014KT 5SM -SN DRSN OVC019 M05/ RMK SC8=
CYQM;2005-12-28 01:00;METAR CYQM 280100Z 31012KT 12SM -SN DRSN OVC018 M05/M06 A2945 RMK SC8 SLP976=
CYQM;2005-12-28 02:00;METAR CYQM 280200Z 32013KT 15SM -SN DRSN OVC018 M05/M06 A2947 RMK SC8 SLP985=
CYQM;2005-12-28 04:00;METAR CYQM 280400Z 30012KT 15SM -SN OVC022 M06/M07 A2953 RMK SC8 SLP006=
CYQM;2005-12-28 04:25;SPECI CYQM 280425Z 31011KT 15SM BKN025 M06/ RMK SC7=
CYQM;2005-12-28 05:00;METAR CYQM 280500Z 30012KT 15SM BKN019 M06/M07 A2956 RMK SC7 SLP015=
CYQM;2005-12-28 06:00;METAR CYQM 280600Z 30009G16KT 15SM BKN018 M06/M07 A2961 RMK SC7 SLP031=
CYQM;2005-12-28 08:00;METAR CYQM 280800Z 28010KT 15SM OVC020 M06/M07 A2968 RMK SC8 SLP056=
CYQM;2005-12-28 09:00;METAR CYQM 280900Z 27008KT 15SM BKN019 M06/M08 A2971 RMK SC7 SLP067=
CYQM;2005-12-28 11:00;METAR CYQM 281100Z 23007KT 15SM BKN025 M09/M10 A2976 RMK SC5 SLP083=
CYQM;2005-12-28 12:00;METAR CYQM 281200Z 24008KT 15SM FEW025 M10/M11 A2979 RMK SC2 SLP092=
CYQM;2005-12-28 13:00;METAR CYQM 281300Z 24009KT 15SM FEW025 FEW260 M10/M11 A2983 RMK SC2CI1 SLP105=
CYQM;2005-12-28 15:00;METAR CYQM 281500Z 22008KT 15SM FEW025 FEW260 M09/M10 A2985 RMK SC1CI1 SLP113=
CYQM;2005-12-28 16:00;METAR CYQM 281600Z 23009KT 15SM FEW012 FEW090 SCT260 M07/M09 A2984 RMK SF1AC1CI2 SLP108=
CYQM;2005-12-28 17:00;METAR CYQM 281700Z 24008KT 15SM FEW012 FEW090 BKN250 M06/M08 A2983 RMK CF1AC2CI2 SLP106=
CYQM;2005-12-28 18:00;METAR CYQM 281800Z 25007KT 15SM FEW012 BKN090 BKN260 M05/M07 A2983 RMK CF1AC5CI2 SLP106=
CYQM;2005-12-28 19:00;METAR CYQM 281900Z 21007KT 15SM FEW012 BKN090 BKN260 M05/M07 A2984 RMK CF1AC5CI2 SLP109=
CYQM;2005-12-28 20:00;METAR CYQM 282000Z 23006KT 15SM BKN090 BKN260 M05/M06 A2984 RMK AC5CI2 SLP108=
CYQM;2005-12-28 21:00;METAR CYQM 282100Z 23010KT 15SM BKN090 BKN260 M05/M06 A2986 RMK AC5CI1 SLP116=
CYQM;2005-12-28 22:00;METAR CYQM 282200Z 22007KT 15SM FEW090 BKN260 M06/M07 A2986 RMK AC2CI1 SLP115=
CYQM;2005-12-28 23:00;METAR CYQM 282300Z 23008KT 15SM BKN090 OVC260 M05/M07 A2986 RMK AC7CI1 SLP118=
CYQM;2005-12-29 00:00;METAR CYQM 290000Z 23010KT 15SM OVC080 M05/M07 A2988 RMK AC8 SLP123=
CYQM;2005-12-29 01:00;METAR CYQM 290100Z 23007KT 15SM SCT080 BKN260 M06/M07 A2989 RMK AC3CI1 SLP126=
CYQM;2005-12-29 02:00;METAR CYQM 290200Z 24005KT 15SM BKN100 BKN260 M06/M07 A2989 RMK AC5CI1 SLP127=
CYQM;2005-12-29 04:00;METAR CYQM 290400Z 21006KT 15SM SCT080 BKN260 M06/M07 A2989 RMK AS2CI2 SLP126=
CYQM;2005-12-29 05:00;METAR CYQM 290500Z 21003KT 15SM BKN080 OVC110 M06/M07 A2988 RMK AS6AC2 SLP124=
CYQM;2005-12-29 06:00;METAR CYQM 290600Z 15002KT 15SM BKN055 OVC100 M05/M06 A2988 RMK SC6AS2 SLP122=
CYQM;2005-12-29 07:00;METAR CYQM 290700Z 17002KT 15SM OVC050 M05/M05 A2990 RMK SC8 SLP129=
CYQM;2005-12-29 09:00;METAR CYQM 290900Z 12005KT 15SM OVC050 M02/M03 A2987 RMK SC8 SLP119=
CYQM;2005-12-29 09:44;SPECI CYQM 290944Z 12005KT 12SM -SHSN SCT025 OVC050 M02/ RMK SC3SC5=
CYQM;2005-12-29 10:00;METAR CYQM 291000Z 12004KT 12SM -SHSN SCT025 OVC040 M02/M02 A2987 RMK SC3SC5 SLP120=
CYQM;2005-12-29 10:53;SPECI CYQM 291053Z 13004KT 12SM -FZRA OVC030 M01/ RMK SC8=
CYQM;2005-12-29 11:00;METAR CYQM 291100Z 13004KT 12SM -FZRA OVC030 M01/M01 A2986 RMK SC8 SLP118=
CYQM;2005-12-29 11:35;SPECI CYQM 291135Z 12005KT 12SM -RA OVC030 00/ REFZRA RMK SC8=
CYQM;2005-12-29 12:00;METAR CYQM 291200Z 14006KT 12SM -RA FEW008 OVC030 00/00 A2985 REFZRA RMK SF2SC6 PCPN VRY LGT SLP111=
CYQM;2005-12-29 12:25;SPECI CYQM 291225Z 15009KT 12SM FEW008 BKN030 OVC080 01/ RMK SF2SC6AC1=
CYQM;2005-12-29 13:00;METAR CYQM 291300Z 14007KT 12SM FEW008 OVC030 01/01 A2985 RMK SF1SC7 SLP111=
CYQM;2005-12-29 13:22;SPECI CYQM 291322Z 14009KT 12SM BKN006 OVC020 01/ RMK SF5SC3=
CYQM;2005-12-29 14:00;METAR CYQM 291400Z 14011G16KT 12SM BKN005 OVC020 01/01 A2985 RMK SF6SC2 SLP112=
CYQM;2005-12-29 14:32;SPECI CYQM 291432Z 14009KT 12SM SCT005 BKN015 BKN090 OVC260 01/ RMK SF3SC2AC1CI1=
CYQM;2005-12-29 15:00;METAR CYQM 291500Z 14012KT 12SM FEW005 SCT015 BKN090 OVC260 02/01 A2982 RMK SF1SC2AC3CI1 SLP102=
CYQM;2005-12-29 16:00;METAR CYQM 291600Z 15011KT 15SM FEW005 FEW015 BKN090 BKN260 03/02 A2978 RMK SF1SC2AC3CI2 SLP087=
CYQM;2005-12-29 17:00;METAR CYQM 291700Z 16011G19KT 15SM FEW005 FEW015 BKN090 BKN260 04/03 A2974 RMK SF1SC2AC3CI2 SLP074=
CYQM;2005-12-29 17:48;SPECI CYQM 291748Z 16013G20KT 12SM BKN008 BKN025 OVC090 04/ RMK SF5SC2AC1=
CYQM;2005-12-29 18:00;METAR CYQM 291800Z 16014KT 12SM BKN008 BKN025 OVC090 04/04 A2972 RMK SF5SC2AC1 SLP067=
CYQM;2005-12-29 19:00;METAR CYQM 291900Z 16011KT 12SM SCT008 BKN025 OVC090 05/05 A2971 RMK SF4SC3AC1 OCNL -SHRA SLP065=
CYQM;2005-12-29 19:10;SPECI CYQM 291910Z 16011KT 12SM SCT008 BKN025 OVC090 05/ RMK SF4SC3AC1=
CYQM;2005-12-29 19:45;SPECI CYQM 291945Z 17009KT 12SM BKN007 BKN025 OVC090 05/ RMK SF5SC2AC1=
CYQM;2005-12-29 19:51;SPECI CYQM 291951Z 17008KT 12SM -RA BKN007 BKN025 OVC090 05/ RMK SF5SC2AC1=
CYQM;2005-12-29 20:00;METAR CYQM 292000Z 16011KT 12SM -RA BKN007 OVC020 05/05 A2970 RMK SF6SC2 PCPNVRY LGT SLP061=
CYQM;2005-12-29 21:00;METAR CYQM 292100Z 16008KT 10SM -SHRA FEW008 BKN040 OVC090 06/06 A2968 RMK SF1SC6AC1 SLP055=
CYQM;2005-12-29 21:42;SPECI CYQM 292142Z 16009G15KT 12SM FEW008 BKN050 BKN100 06/ RMK SF1SC4AC2=
CYQM;2005-12-29 22:00;METAR CYQM 292200Z 15012KT 12SM FEW008 BKN048 OVC100 07/07 A2965 RMK SF1SC6AC1 SLP045=
CYQM;2005-12-29 23:00;METAR CYQM 292300Z 16015G21KT 12SM FEW004 FEW050 OVC090 08/07 A2964 RMK SF1SC2AC6 SLP039=
CYQM;2005-12-29 23:24;SPECI CYQM 292324Z 15012G17KT 10SM -SHRA FEW004 BKN055 OVC090 08/ RMK SF1SC6AC2=
CYQM;2005-12-29 23:49;SPECI CYQM 292349Z 15012KT 12SM FEW004 BKN055 BKN090 08/ RMK SF2SC3AC2=
CYQM;2005-12-30 00:00;METAR CYQM 300000Z 15014KT 12SM FEW004 BKN055 BKN090 08/08 A2963 RMK SF2SC3AC2 SLP036=
CYQM;2005-12-30 00:10;SPECI CYQM 300010Z 15011G17KT 12SM FEW004 BKN014 OVC050 08/ RMK SF2SC6SC1=
CYQM;2005-12-30 01:00;METAR CYQM 300100Z 16015G22KT 12SM FEW004 SCT014 OVC055 08/08 A2960 RMK SF2SF2SC4 SLP026=
CYQM;2005-12-30 01:21;SPECI CYQM 300121Z 16016G21KT 12SM -SHRA FEW004 SCT012 BKN055 OVC090 08/ RMK SF1SF2SC2AC2=
CYQM;2005-12-30 02:00;METAR CYQM 300200Z 16017G22KT 12SM -SHRA FEW004 BKN012 OVC040 09/08 A2957 RMK SF1SF6SC2 SLP017=
CYQM;2005-12-30 02:37;SPECI CYQM 300237Z 16019G25KT 12SM FEW004 BKN011 OVC040 09/ RMK SF1SF6SC1=
CYQM;2005-12-30 03:00;METAR CYQM 300300Z 16020G27KT 12SM FEW004 BKN012 OVC040 09/09 A2955 RMK SF1SF6SC1 SLP008=
CYQM;2005-12-30 03:28;SPECI CYQM 300328Z 15019G28KT 12SM FEW004 BKN015 OVC055 09/ RMK SF1SF5SC2=
CYQM;2005-12-30 04:00;METAR CYQM 300400Z 16016G24KT 12SM FEW006 BKN017 OVC055 09/09 A2952 RMK SF1SC6SC1 SLP999=
CYQM;2005-12-30 04:54;SPECI CYQM 300454Z 16012G19KT 8SM -SHRA BKN018 OVC055 10/ RMK SC6SC2=
CYQM;2005-12-30 05:00;METAR CYQM 300500Z 16016KT 8SM -SHRA BKN018 OVC055 09/09 A2948 RMK SC6SC2 SLP987=
CYQM;2005-12-30 06:00;METAR CYQM 300600Z 15014G21KT 10SM -SHRA BKN021 OVC055 10/10 A2945 RMK SC7SC1 SLP974=
CYQM;2005-12-30 08:27;SPECI CYQM 300827Z 16016KT 8SM -SHRA BKN013 OVC050 09/ RMK SF7SC1=
CYQM;2005-12-30 08:53;SPECI CYQM 300853Z 15015G20KT 8SM -SHRA FEW012 OVC050 10/ RMK SF2SC6=
CYQM;2005-12-30 09:00;METAR CYQM 300900Z 16014G20KT 8SM -SHRA FEW012 OVC050 10/10 A2939 RMK SF2SC6 SLP953=
CYQM;2005-12-30 10:00;METAR CYQM 301000Z 15019G27KT 8SM -RA SCT013 BKN042 10/10 A2936 RMK SF3SC4 SLP945=
CYQM;2005-12-30 11:00;METAR CYQM 301100Z 14012G17KT 8SM -RA FEW003 FEW006 SCT013 BKN042 10/10 A2934 RMK SF1SF1SF2SC4 SLP939=
CYQM;2005-12-30 11:20;SPECI CYQM 301120Z 14011G17KT 8SM -RA SCT013 BKN032 10/ RMK SF3SC4=
CYQM;2005-12-30 11:33;SPECI CYQM 301133Z 15011KT 2SM RA BR SCT013 BKN032 10/ RMK SF4SC3=
CYQM;2005-12-30 11:54;SPECI CYQM 301154Z 14013KT 5SM -RA BR BKN012 OVC040 10/ RERA RMK SC6SC2=
CYQM;2005-12-30 12:00;METAR CYQM 301200Z 14013KT 5SM -RA BR BKN012 OVC040 10/09 A2933 RERA RMK SC6SC2 SLP935=
CYQM;2005-12-30 12:48;SPECI CYQM 301248Z 15011KT 1 3/4SM -RA BR BKN008 OVC030 10/ RMK SF7SC1=
CYQM;2005-12-30 13:00;METAR CYQM 301300Z 14012KT 2SM -RA BR BKN008 OVC030 10/10 A2930 RMK SF7SC1 SLP925=
CYQM;2005-12-30 13:30;SPECI CYQM 301330Z 14007KT 1 3/4SM -RA BR BKN009 OVC032 10/ RERA RMK SF7SC1=
CYQM;2005-12-30 14:00;METAR CYQM 301400Z 12004KT 1SM R29/1600VP6000FT/D R06/4000VP6000FT/D -RA BR BKN008 OVC032 10/09 A2927 RERA RMK SF7SC1 SLP915=
CYQM;2005-12-30 14:07;SPECI CYQM 301407Z 11005KT 1/2SM R29/1400V2400FT/N R06/2800V5000FT/D -RA FG OVC007 10/ RMK FG2SF6=
CYQM;2005-12-30 14:28;SPECI CYQM 301428Z 10008KT 1SM R29/1600V5000FT/U R06/1600V5000FT/U -RA BR BKN006 OVC032 10/ RMK SF7SC1=
CYQM;2005-12-30 15:00;METAR CYQM 301500Z 14008KT 4SM -RA BR OVC008 10/10 A2923 RMK SF8 SLP901=
CYQM;2005-12-30 15:50;SPECI CYQM 301550Z 19005KT 2SM -RA BR OVC006 10/ RMK SF8=
CYQM;2005-12-30 16:00;METAR CYQM 301600Z 29007KT 1 1/2SM -RADZ BR BKN006 OVC032 10/10 A2923 RMK SF7SC1 SLP898=
CYQM;2005-12-30 16:13;SPECI CYQM 301613Z 32019KT 1 1/2SM -RADZ BR OVC008 03/ RMK SF8=
CYQM;2005-12-30 16:20;SPECI CYQM 301620Z 33015G20KT 4SM -RADZ BR OVC004 03/ RMK SF8=
CYQM;2005-12-30 16:23;SPECI CYQM 301623Z 32014G20KT 3SM -RADZ BR OVC004 02/ RMK SF8=
CYQM;2005-12-30 16:40;SPECI CYQM 301640Z 33014G20KT 1 1/4SM -DZ BR OVC003 02/ RMK SF8=
CYQM;2005-12-30 17:00;METAR CYQM 301700Z 32010G15KT 1SM R29/P6000FT/D R06/5500FT/N -DZ BR OVC004 01/01 A2924 RMK SF8 SLP902=
CYQM;2005-12-30 18:00;METAR CYQM 301800Z 33020G25KT 1 1/4SM -FZDZ BR OVC003 M00/M00 A2928 RMK SF8 SLP916=
CYQM;2005-12-30 18:15;SPECI CYQM 301815Z 33013G26KT 1 1/4SM -FZRA -FZDZ BR OVC003 M00/ RMK SF8=
CYQM;2005-12-30 19:43;SPECI CYQM 301943Z 32019KT 1 1/4SM -PLSN BKN005 OVC030 M01/ REFZRA RMK SF7SC1=
CYQM;2005-12-30 20:00;METAR CYQM 302000Z 32017G22KT 1SM R29/P6000FT/D R06/4500VP6000FT/D -PLSN OVC005 M01/M01 A2933 REFZRA RMK SN2SF6 SLP935=
CYQM;2005-12-30 20:19;SPECI CYQM 302019Z 33016G21KT 1SM R29/P6000FT/U R06/P6000FT/D -PLSN OVC003 M01/ RMK SN2SF6=
CYQM;2005-12-30 21:00;METAR CYQM 302100Z 35018G24KT 5SM -PLSN BKN004 OVC030 M02/M02 A2935 RMK SF6SC2 SLP942=
CYQM;2005-12-30 21:22;SPECI CYQM 302122Z 33009G15KT 2SM -SG BKN003 OVC015 M02/ RMK SF6SC2=
CYQM;2005-12-30 21:32;SPECI CYQM 302132Z 33015KT 5SM -SG SCT003 OVC012 M02/ RMK SF4SC4=
CYQM;2005-12-30 21:57;SPECI CYQM 302157Z 35015G21KT 4SM -SGPL SCT003 OVC012 M02/ RMK SF4SC4=
CYQM;2005-12-30 22:00;METAR CYQM 302200Z 35015G21KT 4SM -SGPL SCT003 OVC012 M02/M02 A2938 RMK SF4SC4 SLP951=
CYQM;2005-12-30 22:12;SPECI CYQM 302212Z 33010G17KT 2SM -SGPL SCT003 OVC012 M02/ RMK SF4SC4=
CYQM;2005-12-30 22:33;SPECI CYQM 302233Z 32018G24KT 4SM -SG SCT003 OVC011 M02/ RMK SF4SC4=
CYQM;2005-12-30 23:00;METAR CYQM 302300Z 32018G25KT 4SM -SN SCT003 OVC014 M03/M03 A2942 RMK SF4SC4 SLP965=
CYQM;2005-12-30 23:33;SPECI CYQM 302333Z 32015G24KT 4SM -SN FEW006 OVC018 M03/ RMK SF2SC6=
CYQM;2005-12-30 23:43;SPECI CYQM 302343Z 33012G18KT 2SM -SN FEW006 OVC018 M03/ RMK SF2SC6=
CYQM;2005-12-30 23:53;SPECI CYQM 302353Z 33016KT 5SM -SN FEW006 OVC020 M03/ RMK SF2SC6=
CYQM;2005-12-31 00:00;METAR CYQM 310000Z 33016G21KT 10SM -SN FEW006 OVC017 M04/M04 A2945 RMK SF2SC6 SLP976=
CYQM;2005-12-31 01:00;METAR CYQM 310100Z 33011KT 12SM -SN FEW006 OVC019 M04/M05 A2949 RMK SF2SC6 SLP989=
CYQM;2005-12-31 02:00;METAR CYQM 310200Z 32013G19KT 12SM -SN OVC017 M05/M06 A2952 RMK SC8 SLP999=
CYQM;2005-12-31 03:00;METAR CYQM 310300Z 31016KT 12SM -SN OVC020 M05/M07 A2955 RMK SC8 SLP009=
CYQM;2005-12-31 03:55;SPECI CYQM 310355Z 31014G20KT 15SM OVC020 M06/ RMK SC8=
CYQM;2005-12-31 04:00;METAR CYQM 310400Z 32016KT 15SM OVC018 M06/M08 A2956 RMK SC8 SLP015=
CYQM;2005-12-31 04:40;SPECI CYQM 310440Z 31017KT 15SM -SHSN OVC018 M06/ RMK SC8=
CYQM;2005-12-31 05:00;METAR CYQM 310500Z 31013G19KT 15SM -SHSN OVC018 M06/M08 A2959 RMK SC8 SLP022=
CYQM;2005-12-31 05:22;SPECI CYQM 310522Z 30014KT 2 1/2SM -SHSN OVC018 M07/ RMK SC8=
CYQM;2005-12-31 05:48;SPECI CYQM 310548Z 29009KT 7SM -SHSN OVC020 M07/ RMK SC8=
CYQM;2005-12-31 06:00;METAR CYQM 310600Z 30013KT 12SM -SHSN BKN020 M07/M08 A2962 RMK SC6 SLP033=
CYQM;2005-12-31 06:35;SPECI CYQM 310635Z 30014KT 15SM SCT020 M07/ RMK SC3=
CYQM;2005-12-31 07:00;METAR CYQM 310700Z 29010KT 15SM SCT020 BKN040 M08/M09 A2965 RMK SC3SC2 SLP044=
CYQM;2005-12-31 08:31;SPECI CYQM 310831Z 29014G19KT 15SM -SHSN SCT020 BKN040 M08/ RMK SC3SC2=
CYQM;2005-12-31 09:18;SPECI CYQM 310918Z 29012KT 15SM FEW020 M09/ RMK SC2=
CYQM;2005-12-31 10:00;METAR CYQM 311000Z 30012G17KT 15SM FEW020 FEW250 M09/M12 A2974 RMK SC1CI0 SLP074=
CYQM;2005-12-31 11:00;METAR CYQM 311100Z 29011KT 15SM FEW020 FEW250 M10/M12 A2976 RMK SC1CI0 SLP083=
CYQM;2005-12-31 12:00;METAR CYQM 311200Z 29012KT 15SM FEW020 M11/M13 A2979 RMK SC1 SLP092=
CYQM;2005-12-31 15:00;METAR CYQM 311500Z 28009KT 15SM FEW025 SCT250 M10/M13 A2984 RMK CU1CI1 SLP108=
CYQM;2005-12-31 16:00;METAR CYQM 311600Z 29009KT 15SM SCT030 SCT250 M09/M12 A2983 RMK CU3CI0 SLP107=
CYQM;2005-12-31 17:00;METAR CYQM 311700Z 30009KT 15SM SCT030 SCT250 M08/M11 A2982 RMK CU3CI0 SLP102=
CYQM;2005-12-31 18:00;METAR CYQM 311800Z 30007KT 15SM SCT035 BKN250 M08/M11 A2984 RMK CU4CI0 SLP110=
CYQM;2005-12-31 19:00;METAR CYQM 311900Z 33008KT 15SM BKN035 M07/M11 A2986 RMK SC6 SLP116=
CYQM;2005-12-31 20:42;SPECI CYQM 312042Z 35007KT 15SM BKN035 M08/ RMK SC7=
CYQM;2005-12-31 21:00;METAR CYQM 312100Z 34008KT 15SM BKN035 M08/M11 A2990 RMK SC7 SLP131=
CYQM;2005-12-31 21:07;SPECI CYQM 312107Z 33006KT 12SM -SHSN OVC035 M08/ RMK SC8=
CYQM;2005-12-31 22:00;METAR CYQM 312200Z 34004KT 12SM -SHSN OVC022 M08/M11 A2991 RMK SC8 SLP135=
